Category,Real Category,Business Name,Address,City,State,Postal Code,Country,Phone,Email,Website,Latitude,Longitude,Map Link,Details Link
mall,mall,Kalimantan Utara 77562,"Kabupaten Malinau, Kalimantan Utara","Kabupaten Malinau, Kalimantan Utara",KALIMANTAN UTARA,,Indonesia,,,,2.8627612,115.7575196,https://maps.google.com/?cid=0x0:0xfc58e4f0b107466e,
mall,mall,Bahau Hulu,"Kabupaten Malinau, Kalimantan Utara","Kabupaten Malinau, Kalimantan Utara",KALIMANTAN UTARA,,Indonesia,,,,3.1532957,115.7575196,https://maps.google.com/?cid=0x0:0x196db92d2523facb,
mall,Toko,Kios Jefrysca Ponsel,"32FR+6HJ, Long Nyau, Malinau Kota, Kabupaten Malinau, Kalimantan Utara 77554","Long Nyau, Malinau Kota, Kabupaten Malinau",KALIMANTAN UTARA,77554.0,Indonesia,85262079319.0,,,3.0730929,116.0413889,https://maps.google.com/?cid=0x0:0x9142fdba64ec422c,
mall,mall,Sungai pancang,"32FR+6HJ, Long Nyau, Sungai Tubu, Kabupaten Malinau, Kalimantan Utara","Kabupaten Malinau, Kalimantan Utara",KALIMANTAN UTARA,,Indonesia,,,,3.0730929,116.0413889,https://maps.google.com/?cid=0x0:0x9a8cd51c58a12a96,
mall,Pusat Perbelanjaan,Bahau Central Mall,"No. 18, Lorong 2, Jalan Tong Hian Kim, 72100 Bahau, Negeri Sembilan, Malaysia",Bahau,KALIMANTAN UTARA,72100.0,Indonesia,601155098899.0,,,2.808402,102.402943,https://maps.google.com/?cid=0x0:0x6d59fa0243d2c22,
mall,Pusat Perbelanjaan,Kiara Square Shopping Mall,"98, Jalan Kiara 2, Pusat Perniagaan Kiara, 72100 Bahau, Negeri Sembilan, Malaysia",Bahau,KALIMANTAN UTARA,72100.0,Indonesia,60189683853.0,,,2.8105786,102.395537,https://maps.google.com/?cid=0x0:0xabd9edea3aa5c7aa,
mall,mall,Kayan Hilir,"Kabupaten Malinau, Kalimantan Utara","Kabupaten Malinau, Kalimantan Utara",KALIMANTAN UTARA,,Indonesia,,,,2.0788216,115.4733554,https://maps.google.com/?cid=0x0:0x429213980e387789,
mall,mall,Kalimantan Timur 77571,"Kabupaten Malinau, Kalimantan Timur","Kabupaten Malinau, Kalimantan Timur",KALIMANTAN UTARA,,Indonesia,,,,2.0788216,115.4733554,https://maps.google.com/?cid=0x0:0xb13d2a74271bea6e,
mall,Pusat Perbelanjaan,Mall Arli Sintang,"Tj. Puri, Kec. Sintang, Kabupaten Sintang, Kalimantan Barat 78615","Kec. Sintang, Kabupaten Sintang",KALIMANTAN UTARA,78615.0,Indonesia,,,,0.0761116,111.522015,https://maps.google.com/?cid=0x0:0xf895ecaf652552ed,
mall,mall,Kayan Hilir,"Kabupaten Malinau, Kalimantan Utara","Kabupaten Malinau, Kalimantan Utara",KALIMANTAN UTARA,,Indonesia,,,,2.0788216,115.4733554,https://maps.google.com/?cid=0x0:0x429213980e387789,
mall,mall,Kalimantan Barat 78693,"Kabupaten Sintang, Kalimantan Barat","Kabupaten Sintang, Kalimantan Barat",KALIMANTAN UTARA,,Indonesia,,,,-0.0346027,111.9999435,https://maps.google.com/?cid=0x0:0xde0de64478083288,
mall,Toko Bahan Bangunan,Toko SBI,"VWRC+J2M, Nanga Mau, Kec. Kayan Hilir, Kabupaten Sintang, Kalimantan Barat 78693","Nanga Mau, Kec. Kayan Hilir, Kabupaten Sintang",KALIMANTAN UTARA,78693.0,Indonesia,,,,-0.1084115,111.9200497,https://maps.google.com/?cid=0x0:0x5a035e8fb8ab338d,
mall,Toko Ponsel,Rian Celluler  Vegatable Stall,"Rian Celluler  Vegatable Stall, pasar melayu ng, Nanga Tebidah, Kec. Kayan Hulu, Kabupaten Sintang, Kalimantan Barat 78694","pasar melayu ng, Nanga Tebidah, Kec. Kayan Hulu, Kabupaten Sintang",KALIMANTAN UTARA,78694.0,Indonesia,81522764488.0,,,-0.1456013,112.0800965,https://maps.google.com/?cid=0x0:0x21c10cf9cacac2f6,
mall,mall,Cahaya baru,"WW28+2M3, Mekar Mandiri, Kec. Kayan Hilir, Kabupaten Sintang, Kalimantan Barat 78693","Mekar Mandiri, Kec. Kayan Hilir, Kabupaten Sintang",KALIMANTAN UTARA,78693.0,Indonesia,,,,-0.1,111.916667,https://maps.google.com/?cid=0x0:0xba767c0ee5a9d28a,
mall,mall,Kec. Kayan Hulu,"Kabupaten Malinau, Kalimantan Utara","Kabupaten Malinau, Kalimantan Utara",KALIMANTAN UTARA,,Indonesia,,,,1.7772932,115.0183619,https://maps.google.com/?cid=0x0:0x9aac24f2a499af17,
mall,mall,Kalimantan Barat 78694,"Kec. Kayan Hulu, Kabupaten Sintang, Kalimantan Barat","Kabupaten Sintang, Kalimantan Barat",KALIMANTAN UTARA,,Indonesia,,,,-0.0690749,112.3337769,https://maps.google.com/?cid=0x0:0xf1565987c85b5ec9,
mall,mall,Kec. Kayan Hulu,"Kabupaten Malinau, Kalimantan Utara","Kabupaten Malinau, Kalimantan Utara",KALIMANTAN UTARA,,Indonesia,,,,1.7772932,115.0183619,https://maps.google.com/?cid=0x0:0x9aac24f2a499af17,
mall,mall,Kalimantan Utara,,Kalimantan Utara,KALIMANTAN UTARA,,Indonesia,,,,3.0730929,116.0413889,https://maps.google.com/?cid=0x0:0x1911f0dd6846b988,
mall,Kantor Perusahaan,Camp Sidi PT Kayan Putra Utama Coal,"4G73+QW3, Paya Seturan, Kec. Malinau Sel., Kabupaten Malinau, Kalimantan Utara 77554","Paya Seturan, Kec. Malinau Sel., Kabupaten Malinau",KALIMANTAN UTARA,77554.0,Indonesia,,,,3.1143851,116.5048103,https://maps.google.com/?cid=0x0:0x5637ae802d9f3bc,
mall,Pusat Perbelanjaan,Tarakan Mall,"8H5M+G73, Jl. Yos Sudarso No.1 Lantai 4, Karang Rejo, Kec. Tarakan Bar., Kota Tarakan, Kalimantan Utara","Kota Tarakan, Kalimantan Utara",KALIMANTAN UTARA,,Indonesia,,,,3.308837,117.5831623,https://maps.google.com/?cid=0x0:0x1eeb4f8ef877ebd6,
mall,Toko Ponsel,Rian Celluler  Vegatable Stall,"Rian Celluler  Vegatable Stall, pasar melayu ng, Nanga Tebidah, Kec. Kayan Hulu, Kabupaten Sintang, Kalimantan Barat 78694","pasar melayu ng, Nanga Tebidah, Kec. Kayan Hulu, Kabupaten Sintang",KALIMANTAN UTARA,78694.0,Indonesia,81522764488.0,,,-0.1456013,112.0800965,https://maps.google.com/?cid=0x0:0x21c10cf9cacac2f6,
mall,Komplek perumahan,Loket Pulsa Paytren,"V35P+PHC topan, jln desa, Nanga Tebidah, Kayan Hulu, Sintang Regency, West Kalimantan 78694","jln desa, Nanga Tebidah, Kayan Hulu, Sintang Regency",KALIMANTAN UTARA,78694.0,Indonesia,81520939272.0,,,-0.1406971,112.0863874,https://maps.google.com/?cid=0x0:0xeb9c0b6a7725ab81,
mall,mall,Kayan Sel.,"Kabupaten Malinau, Kalimantan Utara","Kabupaten Malinau, Kalimantan Utara",KALIMANTAN UTARA,,Indonesia,,,,1.5896563,114.9991464,https://maps.google.com/?cid=0x0:0xef1235acac1a8225,
mall,Pusat Perbelanjaan,Q Mall,"Jalan Ahmad Yani Km. 36,8 No.1, Komet, Kec. Banjarbaru Utara, Kota Banjar Baru, Kalimantan Selatan 70714","Komet, Kec. Banjarbaru Utara, Kota Banjar Baru",KALIMANTAN UTARA,70714.0,Indonesia,,,,-3.4391468,114.8488339,https://maps.google.com/?cid=0x0:0xe5f6d68e79b948b,
mall,Pusat Perbelanjaan,Mississippi Q Mall Banjarbaru,"Q Mall, Jl. Ahmad Yani No.Km. 36, RW.8, Komet, Kec. Banjarbaru Utara, Kota Banjar Baru, Kalimantan Selatan 70714","Jl. Ahmad Yani No.Km. 36, RW.8, Komet, Kec. Banjarbaru Utara, Kota Banjar Baru",KALIMANTAN UTARA,70714.0,Indonesia,82122162002.0,,,-3.4396302,114.8499055,https://maps.google.com/?cid=0x0:0x70e9516a0fb0fbb8,
mall,Toko Mebel,Informa - Q Mall,"Q Mall, Jl. A. Yani No.KM 36,5 Lantai 1, Komet, Banjarbaru Utara, Banjarbaru City, South Kalimantan 70714","Jl. A. Yani No.KM 36,5 Lantai 1, Komet, Banjarbaru Utara, Banjarbaru City",KALIMANTAN UTARA,70714.0,Indonesia,81511002000.0,,,-3.4398458,114.8498318,https://maps.google.com/?cid=0x0:0x93af2317d50bbd99,
mall,mall,Kec. Malinau Bar.,"Kabupaten Malinau, Kalimantan Utara","Kabupaten Malinau, Kalimantan Utara",KALIMANTAN UTARA,,Indonesia,,,,3.5374774,116.612704,https://maps.google.com/?cid=0x0:0xcb2568b300b5bd79,
mall,Pusat Perbelanjaan,Pelangi Mart,"HJ59+H7F, Jl. Pemda, Malinau Hulu, Kec. Malinau Kota, Kabupaten Malinau, Kalimantan Utara 77554","Jl. Pemda, Malinau Hulu, Kec. Malinau Kota, Kabupaten Malinau",KALIMANTAN UTARA,77554.0,Indonesia,8115411072.0,,,3.5589412,116.6181732,https://maps.google.com/?cid=0x0:0x608834a03133e883,
mall,mall,Mall Pelayanan Publik ( MPP ),"HJ2F+66W, Malinau Hulu, Kec. Malinau Kota, Kabupaten Malinau, Kalimantan Utara 77554","Malinau Hulu, Kec. Malinau Kota, Kabupaten Malinau",KALIMANTAN UTARA,77554.0,Indonesia,,,,3.5506156,116.6230839,https://maps.google.com/?cid=0x0:0x166653e66ad42d22,
mall,Sesuai untuk keluarga,Pusat Kuliner Pelangi Malinau,"Malinau Kota, Kec. Malinau Kota, Kabupaten Malinau, Kalimantan Utara 77554","Kec. Malinau Kota, Kabupaten Malinau",KALIMANTAN UTARA,77554.0,Indonesia,81332602555.0,,,3.5901926,116.6232871,https://maps.google.com/?cid=0x0:0x901dc84a33a5c16c,
mall,Pasar,Toko Rakyat Malinau  Cafe,"HJH9+6HV, Malinau Kota, Kec. Malinau Kota, Kabupaten Malinau, Kalimantan Utara 77554","Malinau Kota, Kec. Malinau Kota, Kabupaten Malinau",KALIMANTAN UTARA,77554.0,Indonesia,,,,3.5781002,116.618926,https://maps.google.com/?cid=0x0:0xb72850fb13af27d7,
mall,Pusat Perbelanjaan,Toko New nusa Jaya,"HJ73+JGG, Jl. Raja Pandita, Malinau Hulu, Kec. Malinau Kota, Kabupaten Malinau, Kalimantan Utara 77554","Jl. Raja Pandita, Malinau Hulu, Kec. Malinau Kota, Kabupaten Malinau",KALIMANTAN UTARA,77554.0,Indonesia,5532023388.0,,,3.5640512,116.6038372,https://maps.google.com/?cid=0x0:0x20ccecc7e4c73d0c,
mall,Toko Perlengkapan Rumah,Toko chelline store,"HJ95+C8P, Jl. Pemda, Malinau Hulu, Kec. Malinau Kota, Kabupaten Malinau, Kalimantan Utara 77554","Jl. Pemda, Malinau Hulu, Kec. Malinau Kota, Kabupaten Malinau",KALIMANTAN UTARA,77554.0,Indonesia,81255475657.0,,,3.5685918,116.6083167,https://maps.google.com/?cid=0x0:0xfb0ec7832c6f2174,
mall,Bengkel Mobil,ABC Teknik,"Jln. Tj. Belimbing Rt.8 No.76, Malinau Hulu, Kec. Malinau Kota, Kabupaten Malinau, Kalimantan Utara 77554","Malinau Hulu, Kec. Malinau Kota, Kabupaten Malinau",KALIMANTAN UTARA,77554.0,Indonesia,85333688828.0,,,3.566438,116.6041779,https://maps.google.com/?cid=0x0:0xe2c35ffc9f4c3374,
mall,Komplek perumahan,Simpang enam sempayang,"GJ6R+FMF, Jl. Ahmad Yani, Kuala Lapang, Kec. Malinau Bar., Kabupaten Malinau, Kalimantan Utara 77554","Jl. Ahmad Yani, Kuala Lapang, Kec. Malinau Bar., Kabupaten Malinau",KALIMANTAN UTARA,77554.0,Indonesia,,,,3.5111853,116.6416784,https://maps.google.com/?cid=0x0:0xfa1875f3b8053aae,
mall,mall,Kota malinau,"HJJJ+5F4, Malinau Kota, Kec. Malinau Kota, Kabupaten Malinau, Kalimantan Utara 77554","Malinau Kota, Kec. Malinau Kota, Kabupaten Malinau",KALIMANTAN UTARA,77554.0,Indonesia,,,,3.5803825,116.6312306,https://maps.google.com/?cid=0x0:0xfbbfd444b9af21a7,
mall,Toko,TOTOM888,"JJ9Q+9VQ, Kaliamok, Kec. Malinau Utara, Kabupaten Malinau, Kalimantan Utara 77554","Kaliamok, Kec. Malinau Utara, Kabupaten Malinau",KALIMANTAN UTARA,77554.0,Indonesia,,,,3.6184566,116.6397363,https://maps.google.com/?cid=0x0:0x8248fefcb6212075,
mall,Toko Perlengkapan Rumah,MR. DIY Terminal Baru Malinau,"Malinau Kota, Kec. Malinau Kota, Kabupaten Malinau, Kalimantan Utara 77554","Kec. Malinau Kota, Kabupaten Malinau",KALIMANTAN UTARA,77554.0,Indonesia,,,,3.5911713,116.6361383,https://maps.google.com/?cid=0x0:0x69529a1e51a6b9ca,
mall,Toko,Tempat penjual sumpit di Malinau,"GHC3+RC2, Taras, Kec. Malinau Bar., Kabupaten Malinau, Kalimantan Utara 77554","Taras, Kec. Malinau Bar., Kabupaten Malinau",KALIMANTAN UTARA,77554.0,Indonesia,85247552185.0,,,3.5220214,116.5535142,https://maps.google.com/?cid=0x0:0x95ea850e51f7e69,
mall,Pembangunan Perumahan,Harita Farm Malinau,"HJMC+2X8, Jl. Raja Pandita, Malinau Kota, Kec. Malinau Kota, Kabupaten Malinau, Kalimantan Utara 77554","Jl. Raja Pandita, Malinau Kota, Kec. Malinau Kota, Kabupaten Malinau",KALIMANTAN UTARA,77554.0,Indonesia,81395336085.0,,,3.5825412,116.6224662,https://maps.google.com/?cid=0x0:0x8afb0af18236ef7a,
mall,Toko,Toko Podo Moro Malinau,"HJRF+GVM, Jl. Panembahan, Malinau Kota, Kec. Malinau Kota, Kabupaten Malinau, Kalimantan Utara 77554","Jl. Panembahan, Malinau Kota, Kec. Malinau Kota, Kabupaten Malinau",KALIMANTAN UTARA,77554.0,Indonesia,81253045376.0,,,3.5913438,116.6246692,https://maps.google.com/?cid=0x0:0x5391aee24f420e88,
mall,Pusat Perbelanjaan,Resmi cell cabang c'lavie cell,"Malinau Hulu, Kec. Malinau Kota, Kabupaten Malinau, Kalimantan Utara 77554","Kec. Malinau Kota, Kabupaten Malinau",KALIMANTAN UTARA,77554.0,Indonesia,85753007985.0,,,3.5554844,116.6083419,https://maps.google.com/?cid=0x0:0x319eaa00ac7ef31b,
mall,Pasar,Dayat Ayam Potong,"HJ73+FG5, Jl. Raja Pandita, Malinau Hulu, Kec. Malinau Kota, Kabupaten Malinau, Kalimantan Utara 77554","Jl. Raja Pandita, Malinau Hulu, Kec. Malinau Kota, Kabupaten Malinau",KALIMANTAN UTARA,77554.0,Indonesia,85386288946.0,,,3.5636394,116.6038466,https://maps.google.com/?cid=0x0:0x28e81c25229ca3ad,
mall,Toko Ponsel,BIGEL CELL,"Jalan Raja Pandhita Depan GG. Ulin, Malinau Hulu, Kec. Malinau Kota, Kabupaten Malinau, Kalimantan Utara 77554","Malinau Hulu, Kec. Malinau Kota, Kabupaten Malinau",KALIMANTAN UTARA,77554.0,Indonesia,85299208524.0,,,3.557126,116.6073113,https://maps.google.com/?cid=0x0:0x943b7213f6338860,
mall,Toko,Galeri Belanyat Wai,"Jl. Raja Pandita No.27, Malinau Hulu, Kec. Malinau Kota, Kabupaten Malinau, Kalimantan Utara 77554","Malinau Hulu, Kec. Malinau Kota, Kabupaten Malinau",KALIMANTAN UTARA,77554.0,Indonesia,85247908445.0,,,3.5629697,116.6041837,https://maps.google.com/?cid=0x0:0x116d1e597f0bdacc,
mall,Minimarket,Toko BW  E,"HJRM+CH3, Malinau Kota, Kec. Malinau Kota, Kabupaten Malinau, Kalimantan Utara 77554","Malinau Kota, Kec. Malinau Kota, Kabupaten Malinau",KALIMANTAN UTARA,77554.0,Indonesia,,,,3.5910058,116.6339164,https://maps.google.com/?cid=0x0:0xad25cc24c609ef9f,
mall,Pusat Perbelanjaan,Foto Copy Pelangi Jaya (Pulau Sapi),"GGG7+2QV Foto Copy Pelangi Jaya, Pulau Sapi, Kec. Mentarang, Kabupaten Malinau, Kalimantan Utara 77554","Pulau Sapi, Kec. Mentarang, Kabupaten Malinau",KALIMANTAN UTARA,77554.0,Indonesia,85346216158.0,,,3.5251147,116.5144205,https://maps.google.com/?cid=0x0:0xb048afbe7cea2544,
mall,Kios,Kios Pak Abas,"FF5W+6MJ, Setulang, Malinau Sel., Kabupaten Malinau, Kalimantan Utara 77554","Setulang, Malinau Sel., Kabupaten Malinau",KALIMANTAN UTARA,77554.0,Indonesia,85247383803.0,,,3.4580803,116.496639,https://maps.google.com/?cid=0x0:0x50b5c1435737d82e,
mall,Toko bahan makanan,TOKO AMANDA PELITA,"HJF7+GC2, Pelita Kanaan, Kec. Malinau Kota, Kabupaten Malinau, Kalimantan Utara 77554","Pelita Kanaan, Kec. Malinau Kota, Kabupaten Malinau",KALIMANTAN UTARA,77554.0,Indonesia,,,,3.5737517,116.6135286,https://maps.google.com/?cid=0x0:0xf276f379cfa8fb02,
mall,mall,Malinau,"Malinau Kota, Kec. Malinau Kota, Kabupaten Malinau, Kalimantan Timur","Kabupaten Malinau, Kalimantan Timur",KALIMANTAN UTARA,,Indonesia,,,,3.584221,116.647797,https://maps.google.com/?cid=0x0:0xa317c514e5ce8a42,
mall,Toko,TOTOM888,"JJ9Q+9VQ, Kaliamok, Kec. Malinau Utara, Kabupaten Malinau, Kalimantan Utara 77554","Kaliamok, Kec. Malinau Utara, Kabupaten Malinau",KALIMANTAN UTARA,77554.0,Indonesia,,,,3.6184566,116.6397363,https://maps.google.com/?cid=0x0:0x8248fefcb6212075,
mall,Toko Ponsel,C'Lavie Phone,"HJM9+PJM, Jl. Panembahan No.10, Malinau Kota, Kec. Malinau Kota, Kabupaten Malinau, Kalimantan Utara 77554","Jl. Panembahan No.10, Malinau Kota, Kec. Malinau Kota, Kabupaten Malinau",KALIMANTAN UTARA,77554.0,Indonesia,85753000008.0,,,3.5870634,116.6199568,https://maps.google.com/?cid=0x0:0x18de582dc0a02107,
mall,Kantor Pemerintah,Terminal Kota Malinau,"HJPG+9G9, Jl. Terminal Baru, Malinau Kota, Kec. Malinau Kota, Kabupaten Malinau, Kalimantan Utara 77554","Jl. Terminal Baru, Malinau Kota, Kec. Malinau Kota, Kabupaten Malinau",KALIMANTAN UTARA,77554.0,Indonesia,81237395539.0,,,3.5859169,116.6263445,https://maps.google.com/?cid=0x0:0xc29fe32fdcc660d2,
mall,Komplek perumahan,Seluing,"HJMX+M4M, Malinau Kota, Kec. Malinau Kota, Kabupaten Malinau, Kalimantan Utara","Kabupaten Malinau, Kalimantan Utara",KALIMANTAN UTARA,,Indonesia,,,,3.584221,116.647797,https://maps.google.com/?cid=0x0:0x8923ed6c47b826a5,
mall,mall,lukman,"HJMX+M4M, Malinau Kota, Kec. Malinau Kota, Kabupaten Malinau, Kalimantan Utara","Kabupaten Malinau, Kalimantan Utara",KALIMANTAN UTARA,,Indonesia,,,,3.584221,116.647797,https://maps.google.com/?cid=0x0:0x9149353aadd43b80,
mall,mall,Nomishop Malinau,"GJQ6+2XJ, Kuala Lapang, Kec. Malinau Bar., Kabupaten Malinau, Kalimantan Utara","Kabupaten Malinau, Kalimantan Utara",KALIMANTAN UTARA,,Indonesia,,,,3.5375777,116.6123944,https://maps.google.com/?cid=0x0:0x15edd3bb4dbe2d9d,
mall,Pusat Perbelanjaan,Pelangi Mart,"HJ59+H7F, Jl. Pemda, Malinau Hulu, Kec. Malinau Kota, Kabupaten Malinau, Kalimantan Utara 77554","Jl. Pemda, Malinau Hulu, Kec. Malinau Kota, Kabupaten Malinau",KALIMANTAN UTARA,77554.0,Indonesia,8115411072.0,,,3.5589412,116.6181732,https://maps.google.com/?cid=0x0:0x608834a03133e883,
mall,Sesuai untuk keluarga,Pusat Kuliner Pelangi Malinau,"Malinau Kota, Kec. Malinau Kota, Kabupaten Malinau, Kalimantan Utara 77554","Kec. Malinau Kota, Kabupaten Malinau",KALIMANTAN UTARA,77554.0,Indonesia,81332602555.0,,,3.5901926,116.6232871,https://maps.google.com/?cid=0x0:0x901dc84a33a5c16c,
mall,Toko Perlengkapan Rumah,MR. DIY Terminal Baru Malinau,"Malinau Kota, Kec. Malinau Kota, Kabupaten Malinau, Kalimantan Utara 77554","Kec. Malinau Kota, Kabupaten Malinau",KALIMANTAN UTARA,77554.0,Indonesia,,,,3.5911713,116.6361383,https://maps.google.com/?cid=0x0:0x69529a1e51a6b9ca,
mall,Toko Perlengkapan Rumah,Toko chelline store,"HJ95+C8P, Jl. Pemda, Malinau Hulu, Kec. Malinau Kota, Kabupaten Malinau, Kalimantan Utara 77554","Jl. Pemda, Malinau Hulu, Kec. Malinau Kota, Kabupaten Malinau",KALIMANTAN UTARA,77554.0,Indonesia,81255475657.0,,,3.5685918,116.6083167,https://maps.google.com/?cid=0x0:0xfb0ec7832c6f2174,
mall,Minimarket,Toko BW  E,"HJRM+CH3, Malinau Kota, Kec. Malinau Kota, Kabupaten Malinau, Kalimantan Utara 77554","Malinau Kota, Kec. Malinau Kota, Kabupaten Malinau",KALIMANTAN UTARA,77554.0,Indonesia,,,,3.5910058,116.6339164,https://maps.google.com/?cid=0x0:0xad25cc24c609ef9f,
mall,Toko bahan makanan,TOKO AMANDA PELITA,"HJF7+GC2, Pelita Kanaan, Kec. Malinau Kota, Kabupaten Malinau, Kalimantan Utara 77554","Pelita Kanaan, Kec. Malinau Kota, Kabupaten Malinau",KALIMANTAN UTARA,77554.0,Indonesia,,,,3.5737517,116.6135286,https://maps.google.com/?cid=0x0:0xf276f379cfa8fb02,
mall,Toko,Toko AA,"HJQF+FPP, Malinau Kota, Kec. Malinau Kota, Kabupaten Malinau, Kalimantan Utara 77554","Malinau Kota, Kec. Malinau Kota, Kabupaten Malinau",KALIMANTAN UTARA,77554.0,Indonesia,,,,3.588715,116.6243349,https://maps.google.com/?cid=0x0:0xee08542b53fba086,
mall,Pusat Perbelanjaan,Toko alfian,"JJ3C+2Q2, Unnamed Road, Malinau Seberang, Kec. Malinau Utara, Kabupaten Malinau, Kalimantan Utara 77554","Unnamed Road, Malinau Seberang, Kec. Malinau Utara, Kabupaten Malinau",KALIMANTAN UTARA,77554.0,Indonesia,,,,3.6025096,116.6218855,https://maps.google.com/?cid=0x0:0xccf870452a278e5b,
mall,Pusat Perbelanjaan,Toko Ayu CÃªll,"HJQC+MXJ, Malinau Kota, Kec. Malinau Kota, Kabupaten Malinau, Kalimantan Utara 77554","Malinau Kota, Kec. Malinau Kota, Kabupaten Malinau",KALIMANTAN UTARA,77554.0,Indonesia,82148230046.0,,,3.5892231,116.6223954,https://maps.google.com/?cid=0x0:0x66260de0557072cd,
mall,Pusat Perbelanjaan,Toko Emas Fina  Handphone,"HJRF+CW6, Malinau Kota, Kec. Malinau Kota, Kabupaten Malinau, Kalimantan Utara 77554","Malinau Kota, Kec. Malinau Kota, Kabupaten Malinau",KALIMANTAN UTARA,77554.0,Indonesia,,,,3.5910409,116.6247731,https://maps.google.com/?cid=0x0:0x270bb467d7e69167,
mall,Toko,TOKO JESSY,"Jl. Raja Pandita, Malinau Hulu, Kec. Malinau Kota, Kabupaten Malinau, Kalimantan Utara 77554","Malinau Hulu, Kec. Malinau Kota, Kabupaten Malinau",KALIMANTAN UTARA,77554.0,Indonesia,81280236849.0,,,3.5737377,116.6049978,https://maps.google.com/?cid=0x0:0x5aa9c05817829e7a,
mall,Pusat Perbelanjaan,Toko Ayu Cell,"HMH3+VCV, Malinau Hilir, Kec. Malinau Kota, Kabupaten Malinau, Kalimantan Utara 77554","Malinau Hilir, Kec. Malinau Kota, Kabupaten Malinau",KALIMANTAN UTARA,77554.0,Indonesia,81253626640.0,,,3.5797438,116.6535427,https://maps.google.com/?cid=0x0:0xeb8fb9e0b4e76ab0,
mall,mall,Kec. Malinau Sel.,"Kabupaten Malinau, Kalimantan Utara","Kabupaten Malinau, Kalimantan Utara",KALIMANTAN UTARA,,Indonesia,,,,3.1674448,116.4704561,https://maps.google.com/?cid=0x0:0x4516403666700bfb,
mall,Toko,TOTOM888,"JJ9Q+9VQ, Kaliamok, Kec. Malinau Utara, Kabupaten Malinau, Kalimantan Utara 77554","Kaliamok, Kec. Malinau Utara, Kabupaten Malinau",KALIMANTAN UTARA,77554.0,Indonesia,,,,3.6184566,116.6397363,https://maps.google.com/?cid=0x0:0x8248fefcb6212075,
mall,Kios,Kios Pak Abas,"FF5W+6MJ, Setulang, Malinau Sel., Kabupaten Malinau, Kalimantan Utara 77554","Setulang, Malinau Sel., Kabupaten Malinau",KALIMANTAN UTARA,77554.0,Indonesia,85247383803.0,,,3.4580803,116.496639,https://maps.google.com/?cid=0x0:0x50b5c1435737d82e,
mall,mall,Kios OM (Ozo mandiri),"FF4X+H25, Setulang, Kec. Malinau Sel., Kabupaten Malinau, Kalimantan Utara 77554","Setulang, Kec. Malinau Sel., Kabupaten Malinau",KALIMANTAN UTARA,77554.0,Indonesia,82198487093.0,,,3.4563796,116.4976092,https://maps.google.com/?cid=0x0:0xeb0cc8711798c46e,
mall,Toko Perlengkapan Rumah,Toko chelline store,"HJ95+C8P, Jl. Pemda, Malinau Hulu, Kec. Malinau Kota, Kabupaten Malinau, Kalimantan Utara 77554","Jl. Pemda, Malinau Hulu, Kec. Malinau Kota, Kabupaten Malinau",KALIMANTAN UTARA,77554.0,Indonesia,81255475657.0,,,3.5685918,116.6083167,https://maps.google.com/?cid=0x0:0xfb0ec7832c6f2174,
mall,Minimarket,Toko BW  E,"HJRM+CH3, Malinau Kota, Kec. Malinau Kota, Kabupaten Malinau, Kalimantan Utara 77554","Malinau Kota, Kec. Malinau Kota, Kabupaten Malinau",KALIMANTAN UTARA,77554.0,Indonesia,,,,3.5910058,116.6339164,https://maps.google.com/?cid=0x0:0xad25cc24c609ef9f,
mall,Toko,Toko AA,"HJQF+FPP, Malinau Kota, Kec. Malinau Kota, Kabupaten Malinau, Kalimantan Utara 77554","Malinau Kota, Kec. Malinau Kota, Kabupaten Malinau",KALIMANTAN UTARA,77554.0,Indonesia,,,,3.588715,116.6243349,https://maps.google.com/?cid=0x0:0xee08542b53fba086,
mall,mall,Kec. Malinau Selatan Hilir,"Kabupaten Malinau, Kalimantan Utara","Kabupaten Malinau, Kalimantan Utara",KALIMANTAN UTARA,,Indonesia,,,,3.3146294,116.5577197,https://maps.google.com/?cid=0x0:0x3c0190dd52d21f13,
mall,Toko,TOTOM888,"JJ9Q+9VQ, Kaliamok, Kec. Malinau Utara, Kabupaten Malinau, Kalimantan Utara 77554","Kaliamok, Kec. Malinau Utara, Kabupaten Malinau",KALIMANTAN UTARA,77554.0,Indonesia,,,,3.6184566,116.6397363,https://maps.google.com/?cid=0x0:0x8248fefcb6212075,
mall,Kios,Kios Pak Abas,"FF5W+6MJ, Setulang, Malinau Sel., Kabupaten Malinau, Kalimantan Utara 77554","Setulang, Malinau Sel., Kabupaten Malinau",KALIMANTAN UTARA,77554.0,Indonesia,85247383803.0,,,3.4580803,116.496639,https://maps.google.com/?cid=0x0:0x50b5c1435737d82e,
mall,Pusat Perbelanjaan,Toko New nusa Jaya,"HJ73+JGG, Jl. Raja Pandita, Malinau Hulu, Kec. Malinau Kota, Kabupaten Malinau, Kalimantan Utara 77554","Jl. Raja Pandita, Malinau Hulu, Kec. Malinau Kota, Kabupaten Malinau",KALIMANTAN UTARA,77554.0,Indonesia,5532023388.0,,,3.5640512,116.6038372,https://maps.google.com/?cid=0x0:0x20ccecc7e4c73d0c,
mall,Toko,Tempat penjual sumpit di Malinau,"GHC3+RC2, Taras, Kec. Malinau Bar., Kabupaten Malinau, Kalimantan Utara 77554","Taras, Kec. Malinau Bar., Kabupaten Malinau",KALIMANTAN UTARA,77554.0,Indonesia,85247552185.0,,,3.5220214,116.5535142,https://maps.google.com/?cid=0x0:0x95ea850e51f7e69,
mall,Bengkel Mobil,ABC Teknik,"Jln. Tj. Belimbing Rt.8 No.76, Malinau Hulu, Kec. Malinau Kota, Kabupaten Malinau, Kalimantan Utara 77554","Malinau Hulu, Kec. Malinau Kota, Kabupaten Malinau",KALIMANTAN UTARA,77554.0,Indonesia,85333688828.0,,,3.566438,116.6041779,https://maps.google.com/?cid=0x0:0xe2c35ffc9f4c3374,
mall,Pusat Perbelanjaan,Foto Copy Pelangi Jaya (Pulau Sapi),"GGG7+2QV Foto Copy Pelangi Jaya, Pulau Sapi, Kec. Mentarang, Kabupaten Malinau, Kalimantan Utara 77554","Pulau Sapi, Kec. Mentarang, Kabupaten Malinau",KALIMANTAN UTARA,77554.0,Indonesia,85346216158.0,,,3.5251147,116.5144205,https://maps.google.com/?cid=0x0:0xb048afbe7cea2544,
mall,Toko Ponsel,BIGEL CELL,"Jalan Raja Pandhita Depan GG. Ulin, Malinau Hulu, Kec. Malinau Kota, Kabupaten Malinau, Kalimantan Utara 77554","Malinau Hulu, Kec. Malinau Kota, Kabupaten Malinau",KALIMANTAN UTARA,77554.0,Indonesia,85299208524.0,,,3.557126,116.6073113,https://maps.google.com/?cid=0x0:0x943b7213f6338860,
mall,mall,Toko Pak Bungtek,"Unnamed Road, Setulang, Kec. Malinau Selatan Hilir, Kabupaten Malinau, Kalimantan Utara 77554","Setulang, Kec. Malinau Selatan Hilir, Kabupaten Malinau",KALIMANTAN UTARA,77554.0,Indonesia,,,,3.456243,116.4970513,https://maps.google.com/?cid=0x0:0x559e0654b05a1a33,
mall,mall,Kios OM (Ozo mandiri),"FF4X+H25, Setulang, Kec. Malinau Sel., Kabupaten Malinau, Kalimantan Utara 77554","Setulang, Kec. Malinau Sel., Kabupaten Malinau",KALIMANTAN UTARA,77554.0,Indonesia,82198487093.0,,,3.4563796,116.4976092,https://maps.google.com/?cid=0x0:0xeb0cc8711798c46e,
mall,Toko Perlengkapan Rumah,Toko chelline store,"HJ95+C8P, Jl. Pemda, Malinau Hulu, Kec. Malinau Kota, Kabupaten Malinau, Kalimantan Utara 77554","Jl. Pemda, Malinau Hulu, Kec. Malinau Kota, Kabupaten Malinau",KALIMANTAN UTARA,77554.0,Indonesia,81255475657.0,,,3.5685918,116.6083167,https://maps.google.com/?cid=0x0:0xfb0ec7832c6f2174,
mall,Minimarket,Toko BW  E,"HJRM+CH3, Malinau Kota, Kec. Malinau Kota, Kabupaten Malinau, Kalimantan Utara 77554","Malinau Kota, Kec. Malinau Kota, Kabupaten Malinau",KALIMANTAN UTARA,77554.0,Indonesia,,,,3.5910058,116.6339164,https://maps.google.com/?cid=0x0:0xad25cc24c609ef9f,
mall,Toko,TOTOM888,"JJ9Q+9VQ, Kaliamok, Kec. Malinau Utara, Kabupaten Malinau, Kalimantan Utara 77554","Kaliamok, Kec. Malinau Utara, Kabupaten Malinau",KALIMANTAN UTARA,77554.0,Indonesia,,,,3.6184566,116.6397363,https://maps.google.com/?cid=0x0:0x8248fefcb6212075,
mall,Kantor Perusahaan,Toko tole,"Jl. AMD, Malinau Kota, Kec. Malinau Kota, Kabupaten Malinau, Kalimantan Utara 77554","Malinau Kota, Kec. Malinau Kota, Kabupaten Malinau",KALIMANTAN UTARA,77554.0,Indonesia,,,,3.5888515,116.6446218,https://maps.google.com/?cid=0x0:0xeda88ca2465acab7,
mall,mall,Kalimantan Utara 77554,"Kabupaten Malinau, Kalimantan Utara","Kabupaten Malinau, Kalimantan Utara",KALIMANTAN UTARA,,Indonesia,,,,2.9234432,116.2304616,https://maps.google.com/?cid=0x0:0x100a8cc2c03a7e66,
mall,mall,Mall Pelayanan Publik ( MPP ),"HJ2F+66W, Malinau Hulu, Kec. Malinau Kota, Kabupaten Malinau, Kalimantan Utara 77554","Malinau Hulu, Kec. Malinau Kota, Kabupaten Malinau",KALIMANTAN UTARA,77554.0,Indonesia,,,,3.5506156,116.6230839,https://maps.google.com/?cid=0x0:0x166653e66ad42d22,
mall,Sesuai untuk keluarga,Pusat Kuliner Pelangi Malinau,"Malinau Kota, Kec. Malinau Kota, Kabupaten Malinau, Kalimantan Utara 77554","Kec. Malinau Kota, Kabupaten Malinau",KALIMANTAN UTARA,77554.0,Indonesia,81332602555.0,,,3.5901926,116.6232871,https://maps.google.com/?cid=0x0:0x901dc84a33a5c16c,
mall,Pasar,Toko Rakyat Malinau  Cafe,"HJH9+6HV, Malinau Kota, Kec. Malinau Kota, Kabupaten Malinau, Kalimantan Utara 77554","Malinau Kota, Kec. Malinau Kota, Kabupaten Malinau",KALIMANTAN UTARA,77554.0,Indonesia,,,,3.5781002,116.618926,https://maps.google.com/?cid=0x0:0xb72850fb13af27d7,
mall,Pusat Perbelanjaan,Toko New nusa Jaya,"HJ73+JGG, Jl. Raja Pandita, Malinau Hulu, Kec. Malinau Kota, Kabupaten Malinau, Kalimantan Utara 77554","Jl. Raja Pandita, Malinau Hulu, Kec. Malinau Kota, Kabupaten Malinau",KALIMANTAN UTARA,77554.0,Indonesia,5532023388.0,,,3.5640512,116.6038372,https://maps.google.com/?cid=0x0:0x20ccecc7e4c73d0c,
mall,Toko Perlengkapan Rumah,Toko chelline store,"HJ95+C8P, Jl. Pemda, Malinau Hulu, Kec. Malinau Kota, Kabupaten Malinau, Kalimantan Utara 77554","Jl. Pemda, Malinau Hulu, Kec. Malinau Kota, Kabupaten Malinau",KALIMANTAN UTARA,77554.0,Indonesia,81255475657.0,,,3.5685918,116.6083167,https://maps.google.com/?cid=0x0:0xfb0ec7832c6f2174,
mall,Toko umum,Triasa Mandiri,"GJP4+MJ7, Kuala Lapang, Kec. Malinau Bar., Kabupaten Malinau, Kalimantan Utara 77554","Kuala Lapang, Kec. Malinau Bar., Kabupaten Malinau",KALIMANTAN UTARA,77554.0,Indonesia,,,,3.5366612,116.6065501,https://maps.google.com/?cid=0x0:0xdab521f9cd0872df,
mall,Toko Perlengkapan Rumah,MR. DIY Terminal Baru Malinau,"Malinau Kota, Kec. Malinau Kota, Kabupaten Malinau, Kalimantan Utara 77554","Kec. Malinau Kota, Kabupaten Malinau",KALIMANTAN UTARA,77554.0,Indonesia,,,,3.5911713,116.6361383,https://maps.google.com/?cid=0x0:0x69529a1e51a6b9ca,
mall,Bengkel Mobil,ABC Teknik,"Jln. Tj. Belimbing Rt.8 No.76, Malinau Hulu, Kec. Malinau Kota, Kabupaten Malinau, Kalimantan Utara 77554","Malinau Hulu, Kec. Malinau Kota, Kabupaten Malinau",KALIMANTAN UTARA,77554.0,Indonesia,85333688828.0,,,3.566438,116.6041779,https://maps.google.com/?cid=0x0:0xe2c35ffc9f4c3374,
mall,Pembangunan Perumahan,Harita Farm Malinau,"HJMC+2X8, Jl. Raja Pandita, Malinau Kota, Kec. Malinau Kota, Kabupaten Malinau, Kalimantan Utara 77554","Jl. Raja Pandita, Malinau Kota, Kec. Malinau Kota, Kabupaten Malinau",KALIMANTAN UTARA,77554.0,Indonesia,81395336085.0,,,3.5825412,116.6224662,https://maps.google.com/?cid=0x0:0x8afb0af18236ef7a,
mall,mall,Kota malinau,"HJJJ+5F4, Malinau Kota, Kec. Malinau Kota, Kabupaten Malinau, Kalimantan Utara 77554","Malinau Kota, Kec. Malinau Kota, Kabupaten Malinau",KALIMANTAN UTARA,77554.0,Indonesia,,,,3.5803825,116.6312306,https://maps.google.com/?cid=0x0:0xfbbfd444b9af21a7,
mall,Toko,Toko Podo Moro Malinau,"HJRF+GVM, Jl. Panembahan, Malinau Kota, Kec. Malinau Kota, Kabupaten Malinau, Kalimantan Utara 77554","Jl. Panembahan, Malinau Kota, Kec. Malinau Kota, Kabupaten Malinau",KALIMANTAN UTARA,77554.0,Indonesia,81253045376.0,,,3.5913438,116.6246692,https://maps.google.com/?cid=0x0:0x5391aee24f420e88,
mall,Percetakan Komersial,Fotocopy Kaltara Sukses,"HJQC+9GX, Malinau Kota, Kec. Malinau Kota, Kabupaten Malinau, Kalimantan Utara 77554","Malinau Kota, Kec. Malinau Kota, Kabupaten Malinau",KALIMANTAN UTARA,77554.0,Indonesia,82391030002.0,,,3.588477,116.6213525,https://maps.google.com/?cid=0x0:0x183bebc9da22e780,
mall,Pusat Perbelanjaan,Toko Nusa Jaya Textile,"HJRF+6J5, Malinau Kota, Kec. Malinau Kota, Kabupaten Malinau, Kalimantan Utara 77554","Malinau Kota, Kec. Malinau Kota, Kabupaten Malinau",KALIMANTAN UTARA,77554.0,Indonesia,55321008.0,,,3.5905011,116.6241181,https://maps.google.com/?cid=0x0:0xb38d8f3797c9cf73,
mall,Minimarket,Toko BW  E,"HJRM+CH3, Malinau Kota, Kec. Malinau Kota, Kabupaten Malinau, Kalimantan Utara 77554","Malinau Kota, Kec. Malinau Kota, Kabupaten Malinau",KALIMANTAN UTARA,77554.0,Indonesia,,,,3.5910058,116.6339164,https://maps.google.com/?cid=0x0:0xad25cc24c609ef9f,
mall,Pusat Perbelanjaan,Resmi cell cabang c'lavie cell,"Malinau Hulu, Kec. Malinau Kota, Kabupaten Malinau, Kalimantan Utara 77554","Kec. Malinau Kota, Kabupaten Malinau",KALIMANTAN UTARA,77554.0,Indonesia,85753007985.0,,,3.5554844,116.6083419,https://maps.google.com/?cid=0x0:0x319eaa00ac7ef31b,
mall,Toko,Kios Mba Nyep,"MM2M+R56, Putat, Kec. Malinau Utara, Kabupaten Malinau, Kalimantan Utara 77554","Putat, Kec. Malinau Utara, Kabupaten Malinau",KALIMANTAN UTARA,77554.0,Indonesia,82149692226.0,,,3.6520305,116.6828855,https://maps.google.com/?cid=0x0:0x69d2c0a8936121cf,
mall,Toko Ponsel,BIGEL CELL,"Jalan Raja Pandhita Depan GG. Ulin, Malinau Hulu, Kec. Malinau Kota, Kabupaten Malinau, Kalimantan Utara 77554","Malinau Hulu, Kec. Malinau Kota, Kabupaten Malinau",KALIMANTAN UTARA,77554.0,Indonesia,85299208524.0,,,3.557126,116.6073113,https://maps.google.com/?cid=0x0:0x943b7213f6338860,
mall,Toko bahan makanan,TOKO AMANDA PELITA,"HJF7+GC2, Pelita Kanaan, Kec. Malinau Kota, Kabupaten Malinau, Kalimantan Utara 77554","Pelita Kanaan, Kec. Malinau Kota, Kabupaten Malinau",KALIMANTAN UTARA,77554.0,Indonesia,,,,3.5737517,116.6135286,https://maps.google.com/?cid=0x0:0xf276f379cfa8fb02,
mall,Toko,Tempat penjual sumpit di Malinau,"GHC3+RC2, Taras, Kec. Malinau Bar., Kabupaten Malinau, Kalimantan Utara 77554","Taras, Kec. Malinau Bar., Kabupaten Malinau",KALIMANTAN UTARA,77554.0,Indonesia,85247552185.0,,,3.5220214,116.5535142,https://maps.google.com/?cid=0x0:0x95ea850e51f7e69,
mall,mall,Kec. Malinau Utara,"Kabupaten Malinau, Kalimantan Utara","Kabupaten Malinau, Kalimantan Utara",KALIMANTAN UTARA,,Indonesia,,,,3.5926011,116.6196331,https://maps.google.com/?cid=0x0:0xb9f35c1d23aa16b7,
mall,Pusat Perbelanjaan,Pelangi Mart,"HJ59+H7F, Jl. Pemda, Malinau Hulu, Kec. Malinau Kota, Kabupaten Malinau, Kalimantan Utara 77554","Jl. Pemda, Malinau Hulu, Kec. Malinau Kota, Kabupaten Malinau",KALIMANTAN UTARA,77554.0,Indonesia,8115411072.0,,,3.5589412,116.6181732,https://maps.google.com/?cid=0x0:0x608834a03133e883,
mall,Sesuai untuk keluarga,Pusat Kuliner Pelangi Malinau,"Malinau Kota, Kec. Malinau Kota, Kabupaten Malinau, Kalimantan Utara 77554","Kec. Malinau Kota, Kabupaten Malinau",KALIMANTAN UTARA,77554.0,Indonesia,81332602555.0,,,3.5901926,116.6232871,https://maps.google.com/?cid=0x0:0x901dc84a33a5c16c,
mall,Pasar,Toko Rakyat Malinau  Cafe,"HJH9+6HV, Malinau Kota, Kec. Malinau Kota, Kabupaten Malinau, Kalimantan Utara 77554","Malinau Kota, Kec. Malinau Kota, Kabupaten Malinau",KALIMANTAN UTARA,77554.0,Indonesia,,,,3.5781002,116.618926,https://maps.google.com/?cid=0x0:0xb72850fb13af27d7,
mall,Toko,TOTOM888,"JJ9Q+9VQ, Kaliamok, Kec. Malinau Utara, Kabupaten Malinau, Kalimantan Utara 77554","Kaliamok, Kec. Malinau Utara, Kabupaten Malinau",KALIMANTAN UTARA,77554.0,Indonesia,,,,3.6184566,116.6397363,https://maps.google.com/?cid=0x0:0x8248fefcb6212075,
mall,mall,Kota malinau,"HJJJ+5F4, Malinau Kota, Kec. Malinau Kota, Kabupaten Malinau, Kalimantan Utara 77554","Malinau Kota, Kec. Malinau Kota, Kabupaten Malinau",KALIMANTAN UTARA,77554.0,Indonesia,,,,3.5803825,116.6312306,https://maps.google.com/?cid=0x0:0xfbbfd444b9af21a7,
mall,Toko umum,Triasa Mandiri,"GJP4+MJ7, Kuala Lapang, Kec. Malinau Bar., Kabupaten Malinau, Kalimantan Utara 77554","Kuala Lapang, Kec. Malinau Bar., Kabupaten Malinau",KALIMANTAN UTARA,77554.0,Indonesia,,,,3.5366612,116.6065501,https://maps.google.com/?cid=0x0:0xdab521f9cd0872df,
mall,mall,Mall Pelayanan Publik ( MPP ),"HJ2F+66W, Malinau Hulu, Kec. Malinau Kota, Kabupaten Malinau, Kalimantan Utara 77554","Malinau Hulu, Kec. Malinau Kota, Kabupaten Malinau",KALIMANTAN UTARA,77554.0,Indonesia,,,,3.5506156,116.6230839,https://maps.google.com/?cid=0x0:0x166653e66ad42d22,
mall,Pusat Perbelanjaan,Toko New nusa Jaya,"HJ73+JGG, Jl. Raja Pandita, Malinau Hulu, Kec. Malinau Kota, Kabupaten Malinau, Kalimantan Utara 77554","Jl. Raja Pandita, Malinau Hulu, Kec. Malinau Kota, Kabupaten Malinau",KALIMANTAN UTARA,77554.0,Indonesia,5532023388.0,,,3.5640512,116.6038372,https://maps.google.com/?cid=0x0:0x20ccecc7e4c73d0c,
mall,Percetakan Komersial,Fotocopy Kaltara Sukses,"HJQC+9GX, Malinau Kota, Kec. Malinau Kota, Kabupaten Malinau, Kalimantan Utara 77554","Malinau Kota, Kec. Malinau Kota, Kabupaten Malinau",KALIMANTAN UTARA,77554.0,Indonesia,82391030002.0,,,3.588477,116.6213525,https://maps.google.com/?cid=0x0:0x183bebc9da22e780,
mall,Toko,Toko Podo Moro Malinau,"HJRF+GVM, Jl. Panembahan, Malinau Kota, Kec. Malinau Kota, Kabupaten Malinau, Kalimantan Utara 77554","Jl. Panembahan, Malinau Kota, Kec. Malinau Kota, Kabupaten Malinau",KALIMANTAN UTARA,77554.0,Indonesia,81253045376.0,,,3.5913438,116.6246692,https://maps.google.com/?cid=0x0:0x5391aee24f420e88,
mall,Pembangunan Perumahan,Harita Farm Malinau,"HJMC+2X8, Jl. Raja Pandita, Malinau Kota, Kec. Malinau Kota, Kabupaten Malinau, Kalimantan Utara 77554","Jl. Raja Pandita, Malinau Kota, Kec. Malinau Kota, Kabupaten Malinau",KALIMANTAN UTARA,77554.0,Indonesia,81395336085.0,,,3.5825412,116.6224662,https://maps.google.com/?cid=0x0:0x8afb0af18236ef7a,
mall,Toko Perlengkapan Rumah,Toko chelline store,"HJ95+C8P, Jl. Pemda, Malinau Hulu, Kec. Malinau Kota, Kabupaten Malinau, Kalimantan Utara 77554","Jl. Pemda, Malinau Hulu, Kec. Malinau Kota, Kabupaten Malinau",KALIMANTAN UTARA,77554.0,Indonesia,81255475657.0,,,3.5685918,116.6083167,https://maps.google.com/?cid=0x0:0xfb0ec7832c6f2174,
mall,Pusat Perbelanjaan,Toko Nusa Jaya Textile,"HJRF+6J5, Malinau Kota, Kec. Malinau Kota, Kabupaten Malinau, Kalimantan Utara 77554","Malinau Kota, Kec. Malinau Kota, Kabupaten Malinau",KALIMANTAN UTARA,77554.0,Indonesia,55321008.0,,,3.5905011,116.6241181,https://maps.google.com/?cid=0x0:0xb38d8f3797c9cf73,
mall,Minimarket,Toko BW  E,"HJRM+CH3, Malinau Kota, Kec. Malinau Kota, Kabupaten Malinau, Kalimantan Utara 77554","Malinau Kota, Kec. Malinau Kota, Kabupaten Malinau",KALIMANTAN UTARA,77554.0,Indonesia,,,,3.5910058,116.6339164,https://maps.google.com/?cid=0x0:0xad25cc24c609ef9f,
mall,Bengkel Mobil,ABC Teknik,"Jln. Tj. Belimbing Rt.8 No.76, Malinau Hulu, Kec. Malinau Kota, Kabupaten Malinau, Kalimantan Utara 77554","Malinau Hulu, Kec. Malinau Kota, Kabupaten Malinau",KALIMANTAN UTARA,77554.0,Indonesia,85333688828.0,,,3.566438,116.6041779,https://maps.google.com/?cid=0x0:0xe2c35ffc9f4c3374,
mall,Toko,Kios Mba Nyep,"MM2M+R56, Putat, Kec. Malinau Utara, Kabupaten Malinau, Kalimantan Utara 77554","Putat, Kec. Malinau Utara, Kabupaten Malinau",KALIMANTAN UTARA,77554.0,Indonesia,82149692226.0,,,3.6520305,116.6828855,https://maps.google.com/?cid=0x0:0x69d2c0a8936121cf,
mall,Pusat Perbelanjaan,Toko alfian,"JJ3C+2Q2, Unnamed Road, Malinau Seberang, Kec. Malinau Utara, Kabupaten Malinau, Kalimantan Utara 77554","Unnamed Road, Malinau Seberang, Kec. Malinau Utara, Kabupaten Malinau",KALIMANTAN UTARA,77554.0,Indonesia,,,,3.6025096,116.6218855,https://maps.google.com/?cid=0x0:0xccf870452a278e5b,
mall,Toko bahan makanan,TOKO AMANDA PELITA,"HJF7+GC2, Pelita Kanaan, Kec. Malinau Kota, Kabupaten Malinau, Kalimantan Utara 77554","Pelita Kanaan, Kec. Malinau Kota, Kabupaten Malinau",KALIMANTAN UTARA,77554.0,Indonesia,,,,3.5737517,116.6135286,https://maps.google.com/?cid=0x0:0xf276f379cfa8fb02,
mall,Toko Ponsel,C'Lavie Phone,"HJM9+PJM, Jl. Panembahan No.10, Malinau Kota, Kec. Malinau Kota, Kabupaten Malinau, Kalimantan Utara 77554","Jl. Panembahan No.10, Malinau Kota, Kec. Malinau Kota, Kabupaten Malinau",KALIMANTAN UTARA,77554.0,Indonesia,85753000008.0,,,3.5870634,116.6199568,https://maps.google.com/?cid=0x0:0x18de582dc0a02107,
mall,mall,Kalimantan Utara 77555,"Kabupaten Malinau, Kalimantan Utara","Kabupaten Malinau, Kalimantan Utara",KALIMANTAN UTARA,,Indonesia,,,,3.4347306,116.1359431,https://maps.google.com/?cid=0x0:0xfbf6305152defd8,
mall,Toko,TOTOM888,"JJ9Q+9VQ, Kaliamok, Kec. Malinau Utara, Kabupaten Malinau, Kalimantan Utara 77554","Kaliamok, Kec. Malinau Utara, Kabupaten Malinau",KALIMANTAN UTARA,77554.0,Indonesia,,,,3.6184566,116.6397363,https://maps.google.com/?cid=0x0:0x8248fefcb6212075,
mall,Bangunan Bersejarah,Balai Taman Nasional Kayan Mentarang,"GJXF+W4Q, Malinau Hulu, Kec. Malinau Kota, Kabupaten Malinau, Kalimantan Utara 77554","Malinau Hulu, Kec. Malinau Kota, Kabupaten Malinau",KALIMANTAN UTARA,77554.0,Indonesia,5532022757.0,,,3.5498313,116.6228736,https://maps.google.com/?cid=0x0:0x71a9b2315bab3e06,
mall,Pusat Perbelanjaan,Tarakan Mall,"8H5M+G73, Jl. Yos Sudarso No.1 Lantai 4, Karang Rejo, Kec. Tarakan Bar., Kota Tarakan, Kalimantan Utara","Kota Tarakan, Kalimantan Utara",KALIMANTAN UTARA,,Indonesia,,,,3.308837,117.5831623,https://maps.google.com/?cid=0x0:0x1eeb4f8ef877ebd6,
mall,mall,Taman Nasional Kayan Mentarang,"V9CH+PCG, Balai Taman Nasional Kayan Mentarang Pemda, Jl. Pusat Pemerintahan, Tanjung Belimbing, Pujungan, Kabupaten Malinau, Kalimantan Utara 77562","Balai Taman Nasional Kayan Mentarang Pemda, Jl. Pusat Pemerintahan, Tanjung Belimbing, Pujungan, Kabupaten Malinau",KALIMANTAN UTARA,77562.0,Indonesia,5532022758.0,,,2.8718169,115.3785755,https://maps.google.com/?cid=0x0:0x2f283b3e910b04c7,
mall,Tujuan Wisata,Seboyo,"F9QQ+J4, Harapan Maju, Kec. Mentarang, Kabupaten Malinau, Kalimantan Utara","Kabupaten Malinau, Kalimantan Utara",KALIMANTAN UTARA,,Indonesia,,,,3.4891,116.3878,https://maps.google.com/?cid=0x0:0xf90820ca377e765d,
mall,Toko Elektronik,Toko Bintang Timur Electronik,"Jl. Raja Pandita No.RT. 12, Malinau Hulu, Kec. Malinau Kota, Kabupaten Malinau, Kalimantan Utara 77554","Malinau Hulu, Kec. Malinau Kota, Kabupaten Malinau",KALIMANTAN UTARA,77554.0,Indonesia,85247269111.0,,,3.5755299,116.6074202,https://maps.google.com/?cid=0x0:0x8482e4fca3119638,
mall,Pembangunan Perumahan,Jembatan singai,"GFJW+M86, Long Bisai, Kec. Mentarang, Kabupaten Malinau, Kalimantan Utara 77554","Long Bisai, Kec. Mentarang, Kabupaten Malinau",KALIMANTAN UTARA,77554.0,Indonesia,,,,3.5316711,116.4957676,https://maps.google.com/?cid=0x0:0xe493988a7a852892,
mall,Pembangunan Perumahan,Singai terang,"GFHX+JMQ Singai terang, Long Bisai, Kec. Mentarang, Kabupaten Malinau, Kalimantan Utara","Kabupaten Malinau, Kalimantan Utara",KALIMANTAN UTARA,,Indonesia,81253836159.0,,,3.5290833,116.4992354,https://maps.google.com/?cid=0x0:0x28f94f62e244bb92,
mall,Toko,Kios Jefrysca Ponsel,"32FR+6HJ, Long Nyau, Malinau Kota, Kabupaten Malinau, Kalimantan Utara 77554","Long Nyau, Malinau Kota, Kabupaten Malinau",KALIMANTAN UTARA,77554.0,Indonesia,85262079319.0,,,3.0730929,116.0413889,https://maps.google.com/?cid=0x0:0x9142fdba64ec422c,
mall,Tujuan Wisata,Air terjun sekelibon,"GCJ7+3GC, Paking, Kec. Mentarang, Kabupaten Malinau, Kalimantan Utara 77555","Paking, Kec. Mentarang, Kabupaten Malinau",KALIMANTAN UTARA,77555.0,Indonesia,,,,3.5301873,116.4137533,https://maps.google.com/?cid=0x0:0x1a5865d785062ed3,
mall,Kafe,New Mahkota Cafe dan Bakery,"Malinau Kota, Kec. Malinau Kota, Kabupaten Malinau, Kalimantan Utara 77554","Kec. Malinau Kota, Kabupaten Malinau",KALIMANTAN UTARA,77554.0,Indonesia,82251086738.0,,,3.5768744,116.6172914,https://maps.google.com/?cid=0x0:0xda2422330108f17b,
mall,Minimarket,Mc mentarang,"Jln Mulawarman No.RT 1, Mentarang Baru, Kec. Mentarang, Kabupaten Malinau, Kalimantan Utara 77554","Mentarang Baru, Kec. Mentarang, Kabupaten Malinau",KALIMANTAN UTARA,77554.0,Indonesia,85248002442.0,,,3.5820723,116.4077156,https://maps.google.com/?cid=0x0:0x1c655897e832bb9d,
mall,Minimarket,Warung Mugang,"JM92+GV3, Unnamed Road, Lubok Manis, Malinau Utara, Malinau Regency, North Kalimantan 77554","Unnamed Road, Lubok Manis, Malinau Utara, Malinau Regency",KALIMANTAN UTARA,77554.0,Indonesia,,,,3.6187681,116.6521796,https://maps.google.com/?cid=0x0:0xf67c73d33e3bcba8,
mall,mall,Mentarang Hulu,"Kabupaten Malinau, Kalimantan Utara","Kabupaten Malinau, Kalimantan Utara",KALIMANTAN UTARA,,Indonesia,,,,3.728169,116.1359431,https://maps.google.com/?cid=0x0:0xadeaa6c194936d2b,
mall,Toko,TOTOM888,"JJ9Q+9VQ, Kaliamok, Kec. Malinau Utara, Kabupaten Malinau, Kalimantan Utara 77554","Kaliamok, Kec. Malinau Utara, Kabupaten Malinau",KALIMANTAN UTARA,77554.0,Indonesia,,,,3.6184566,116.6397363,https://maps.google.com/?cid=0x0:0x8248fefcb6212075,
mall,Kantor Perusahaan,Toko tole,"Jl. AMD, Malinau Kota, Kec. Malinau Kota, Kabupaten Malinau, Kalimantan Utara 77554","Malinau Kota, Kec. Malinau Kota, Kabupaten Malinau",KALIMANTAN UTARA,77554.0,Indonesia,,,,3.5888515,116.6446218,https://maps.google.com/?cid=0x0:0xeda88ca2465acab7,
mall,Toko,Kios Jefrysca Ponsel,"32FR+6HJ, Long Nyau, Malinau Kota, Kabupaten Malinau, Kalimantan Utara 77554","Long Nyau, Malinau Kota, Kabupaten Malinau",KALIMANTAN UTARA,77554.0,Indonesia,85262079319.0,,,3.0730929,116.0413889,https://maps.google.com/?cid=0x0:0x9142fdba64ec422c,
mall,Toko,Kios Satu Putri Ceria,"Sengayan, Kec. Malinau Sel., Kabupaten Malinau, Kalimantan Utara 77551","Kec. Malinau Sel., Kabupaten Malinau",KALIMANTAN UTARA,77551.0,Indonesia,82110820077.0,,,3.1742865,116.4705099,https://maps.google.com/?cid=0x0:0xd455da72fc6d7391,
mall,Pusat Perbelanjaan,ERA COLLECTION,"M2FH+2W4, Pujungan, Kec. Pupuan, Kabupaten Tabanan, Bali 82163","Pujungan, Kec. Pupuan, Kabupaten Tabanan",KALIMANTAN UTARA,82163.0,Indonesia,,,,-8.3274881,115.0298193,https://maps.google.com/?cid=0x0:0x3909ee275e6b49eb,
mall,Pusat Perbelanjaan,Rahayu Shop,"M2CH+HW9, mertasari, Pujungan, Kec. Pupuan, Kabupaten Tabanan, Bali 82163","mertasari, Pujungan, Kec. Pupuan, Kabupaten Tabanan",KALIMANTAN UTARA,82163.0,Indonesia,,,,-8.3285862,115.0298632,https://maps.google.com/?cid=0x0:0x2ad48aa47bd63fe6,
mall,Toko Pakaian,Busana kebaya sri,"M2FJ+25W, Pujungan, Kec. Pupuan, Kabupaten Tabanan, Bali 82163","Pujungan, Kec. Pupuan, Kabupaten Tabanan",KALIMANTAN UTARA,82163.0,Indonesia,81999984889.0,,,-8.3273912,115.030464,https://maps.google.com/?cid=0x0:0x5b866aaca3e59003,
mall,Pusat Perbelanjaan,Maco Dharma,"J2VH+F8V, Jl. Dahlia Raya, Batungsel, Kec. Pupuan, Kabupaten Tabanan, Bali 82163","Jl. Dahlia Raya, Batungsel, Kec. Pupuan, Kabupaten Tabanan",KALIMANTAN UTARA,82163.0,Indonesia,,,,-8.3562533,115.0283,https://maps.google.com/?cid=0x0:0x1e706f4d8f1f077e,
mall,Pusat Perbelanjaan,UD. Bangsing Indah,"Jl. Bangsing No.16, Batungsel, Kec. Pupuan, Kabupaten Tabanan, Bali 82163","Batungsel, Kec. Pupuan, Kabupaten Tabanan",KALIMANTAN UTARA,82163.0,Indonesia,87761569363.0,,,-8.3419574,115.0299042,https://maps.google.com/?cid=0x0:0xca5c0836b51538c6,
mall,Pusat Perbelanjaan,Mbk Tut Kedaidoemba,"M24H+VH4, Jl. Bangsing, Batungsel, Kec. Pupuan, Kabupaten Tabanan, Bali 82163","Jl. Bangsing, Batungsel, Kec. Pupuan, Kabupaten Tabanan",KALIMANTAN UTARA,82163.0,Indonesia,81236424230.0,,,-8.3428679,115.02895,https://maps.google.com/?cid=0x0:0xf5461bf2eda9cc42,
mall,Pusat Perbelanjaan,Kangen Water  Jual Pulsa Hp.Pln Dll,"M2CH+866, Pujungan, Kec. Pupuan, Kabupaten Tabanan, Bali 82163","Pujungan, Kec. Pupuan, Kabupaten Tabanan",KALIMANTAN UTARA,82163.0,Indonesia,83115110331.0,,,-8.3292148,115.0280227,https://maps.google.com/?cid=0x0:0x737df4876528b587,
mall,Mesin Sangrai Kopi,KOPI PUJUNGSARI,"M2CH+96X, Pujungan, Kec. Pupuan, Kabupaten Tabanan, Bali 82163","Pujungan, Kec. Pupuan, Kabupaten Tabanan",KALIMANTAN UTARA,82163.0,Indonesia,87860220760.0,,,-8.329011,115.0281076,https://maps.google.com/?cid=0x0:0xe9ad6765c83db62f,
mall,mall,Kangen water pujungan,"M29V+G86, Batungsel, Kec. Pupuan, Kabupaten Tabanan, Bali 82163","Batungsel, Kec. Pupuan, Kabupaten Tabanan",KALIMANTAN UTARA,82163.0,Indonesia,,,,-8.3312118,115.0432529,https://maps.google.com/?cid=0x0:0x8731d523bf26661d,
mall,mall,Pak agus,"M2FQ+P52, Jl. Gn. Batukaru, Pujungan, Kec. Pupuan, Kabupaten Tabanan, Bali 82163","Jl. Gn. Batukaru, Pujungan, Kec. Pupuan, Kabupaten Tabanan",KALIMANTAN UTARA,82163.0,Indonesia,,,,-8.3257296,115.0378788,https://maps.google.com/?cid=0x0:0xdbd85969bed03f08,
mall,Pusat Perbelanjaan,WARUNG DWIPAYANI,"Jl. Gajah Mada No.16, banjar kubu, Kec. Pupuan, Kabupaten Tabanan, Bali 82163","banjar kubu, Kec. Pupuan, Kabupaten Tabanan",KALIMANTAN UTARA,82163.0,Indonesia,,,,-8.3176366,115.0089427,https://maps.google.com/?cid=0x0:0x3afc7c664904c9a6,
mall,mall,Sungai Boh,"Kabupaten Malinau, Kalimantan Utara","Kabupaten Malinau, Kalimantan Utara",KALIMANTAN UTARA,,Indonesia,,,,1.4442126,115.3785719,https://maps.google.com/?cid=0x0:0x7320bf121f1e5131,
mall,Pusat Perbelanjaan,SB MALL,"Lot 2-18, 2, Seksyen U20, Bandar Baru Sungai Buloh, 40160 Shah Alam, Selangor, Malaysia",Shah Alam,KALIMANTAN UTARA,40160.0,Indonesia,,,,3.2088515,101.563661,https://maps.google.com/?cid=0x0:0x60f931c1e7f543c6,
mall,Pusat Perbelanjaan,Uptown TSB Sungai Buloh,"Jalan Nautika C U20/C, Pusat Komersial Tsb, 40160 Shah Alam, Selangor, Malaysia",Shah Alam,KALIMANTAN UTARA,40160.0,Indonesia,,,,3.2102382,101.5706953,https://maps.google.com/?cid=0x0:0xcf3827d0675778aa,
mall,Pusat Perbelanjaan,The Store,"lower ground, SB MALL, Bukit Rahman Putra, 47000 Sungai Buloh, Selangor, Malaysia",Sungai Buloh,KALIMANTAN UTARA,47000.0,Indonesia,60361571195.0,,,3.2089417,101.5641846,https://maps.google.com/?cid=0x0:0x257d6f32ef66cdec,
mall,mall,Chicken rice shop,"Bukit Rahman Putra, 47000 Sungai Buloh, Selangor, Malaysia",Sungai Buloh,KALIMANTAN UTARA,47000.0,Indonesia,,,,3.20933,101.5613392,https://maps.google.com/?cid=0x0:0x973ddff57dc45af3,
mall,Lembaga Keuangan,VALYOU MONEY TRANSFER (OUR DREAM RESOURCES),"Bukit Rahman Putra, 47000 Sungai Buloh, Selangor, Malaysia",Sungai Buloh,KALIMANTAN UTARA,47000.0,Indonesia,60162141343.0,,,3.2085492,101.5636331,https://maps.google.com/?cid=0x0:0x859ebb736d12e015,
mall,Es Krim,Mixue - Sungai Buloh Mall,"LGK-1A, 2A, 13, 16, SB MALL BANDAR BARU SUNGAI BULOH, SEKSYEN, U20, 47000 Sungai Buloh, Selangor, Malaysia",Sungai Buloh,KALIMANTAN UTARA,47000.0,Indonesia,,,,3.2091512,101.5637074,https://maps.google.com/?cid=0x0:0xfcd90cb841267f4,
mall,mall,Sungai Tubu,"Kabupaten Malinau, Kalimantan Utara","Kabupaten Malinau, Kalimantan Utara",KALIMANTAN UTARA,,Indonesia,,,,3.1431984,116.1359431,https://maps.google.com/?cid=0x0:0xd3c55a121bb6fc5b,
mall,mall,Kalimantan Utara 77555,"Kabupaten Malinau, Kalimantan Utara","Kabupaten Malinau, Kalimantan Utara",KALIMANTAN UTARA,,Indonesia,,,,3.4347306,116.1359431,https://maps.google.com/?cid=0x0:0xfbf6305152defd8,
mall,mall,Sungai pancang,"32FR+6HJ, Long Nyau, Sungai Tubu, Kabupaten Malinau, Kalimantan Utara","Kabupaten Malinau, Kalimantan Utara",KALIMANTAN UTARA,,Indonesia,,,,3.0730929,116.0413889,https://maps.google.com/?cid=0x0:0x9a8cd51c58a12a96,
supermarket,supermarket,Kalimantan Utara 77562,"Kabupaten Malinau, Kalimantan Utara","Kabupaten Malinau, Kalimantan Utara",KALIMANTAN UTARA,,Indonesia,,,,2.8627612,115.7575196,https://maps.google.com/?cid=0x0:0xfc58e4f0b107466e,
supermarket,supermarket,Pekan Selungo,"Malaysia, Sarawak, Unnamed Road","Sarawak, Malaysia",KALIMANTAN UTARA,,Indonesia,,,,3.2069139,115.1852774,https://maps.google.com/?cid=0x0:0xac7854342d42435a,
supermarket,supermarket,Yusnimar Collection,"32FR+6HJ, Long Nyau, kalimatan utara, Kabupaten Malinau, Kalimantan Utara 77554","Long Nyau, kalimatan utara, Kabupaten Malinau",KALIMANTAN UTARA,77554.0,Indonesia,,,,3.0730928,116.0413889,https://maps.google.com/?cid=0x0:0xaafd9090dc8ec8af,
supermarket,supermarket,PISANG IJO WD,"34RW+85V, Jl. Katamso, Tj. Selor Hilir, Sungai Tubu, Kabupaten Bulungan, Kalimantan Utara 77214","Jl. Katamso, Tj. Selor Hilir, Sungai Tubu, Kabupaten Bulungan",KALIMANTAN UTARA,77214.0,Indonesia,,,,3.0908516,116.1454365,https://maps.google.com/?cid=0x0:0x7bd7825e7067d8fe,
supermarket,supermarket,Bahau Hulu,"Kabupaten Malinau, Kalimantan Utara","Kabupaten Malinau, Kalimantan Utara",KALIMANTAN UTARA,,Indonesia,,,,3.1532957,115.7575196,https://maps.google.com/?cid=0x0:0x196db92d2523facb,
supermarket,Toko Bahan Bangunan,Makmur Utama Supermarket Bahan bangunan,"Tj. Niara, Kec. Tobelo Tengah, Kabupaten Halmahera Utara, Maluku Utara","Kabupaten Halmahera Utara, Maluku Utara",KALIMANTAN UTARA,,Indonesia,85117420324.0,,,1.7019679,128.0155893,https://maps.google.com/?cid=0x0:0x47ecdf114648cbc2,
supermarket,Toko,PANEN SQUARE,"V93G+2CW, Tj. Selor Hilir, Kec. Tj. Selor, Kabupaten Bulungan, Kalimantan Utara 77216","Tj. Selor Hilir, Kec. Tj. Selor, Kabupaten Bulungan",KALIMANTAN UTARA,77216.0,Indonesia,81255187770.0,,,2.8525916,117.3760836,https://maps.google.com/?cid=0x0:0x70f3a9182196c949,
supermarket,Toko Swalayan,Toko Panen Raya,"R9W8+5JP, Jl. Manggis III, Tj. Selor Hilir, Kec. Tj. Selor, Kabupaten Bulungan, Kalimantan Utara 77214","Jl. Manggis III, Tj. Selor Hilir, Kec. Tj. Selor, Kabupaten Bulungan",KALIMANTAN UTARA,77214.0,Indonesia,,,,2.8454562,117.3665891,https://maps.google.com/?cid=0x0:0x21bc7c65054e2fca,
supermarket,ATM,ATM Mandiri,"V93G+2CW, Tj. Selor Hilir, Kec. Tj. Selor, Kabupaten Bulungan, Kalimantan Utara 77216","Tj. Selor Hilir, Kec. Tj. Selor, Kabupaten Bulungan",KALIMANTAN UTARA,77216.0,Indonesia,,,,2.8526151,117.3760897,https://maps.google.com/?cid=0x0:0xd98e9a540d732ba2,
supermarket,Toko Swalayan,Toko Sembako Cahaya Jaya,"Jl. Ahmad Yani, Malinau Kota, Kec. Malinau Kota, Kabupaten Malinau, Kalimantan Utara 77554","Malinau Kota, Kec. Malinau Kota, Kabupaten Malinau",KALIMANTAN UTARA,77554.0,Indonesia,81239193660.0,,,3.5773091,116.6276554,https://maps.google.com/?cid=0x0:0x5ad14e0ef2f77284,
supermarket,Toko,Toko DIANA,"VWR9+8WQ, Nanga Mau, Kec. Kayan Hilir, Kabupaten Sintang, Kalimantan Barat 78693","Nanga Mau, Kec. Kayan Hilir, Kabupaten Sintang",KALIMANTAN UTARA,78693.0,Indonesia,81351819563.0,,,-0.1091615,111.9198445,https://maps.google.com/?cid=0x0:0xdbc8350ad537a8bf,
supermarket,Toko Swalayan,SINAR DUNIA,"VWV9+7M8, Nanga Mau, Kec. Kayan Hilir, Kabupaten Sintang, Kalimantan Barat 78693","Nanga Mau, Kec. Kayan Hilir, Kabupaten Sintang",KALIMANTAN UTARA,78693.0,Indonesia,,,,-0.1068259,111.9191992,https://maps.google.com/?cid=0x0:0xad5ba8b4637e7a0a,
supermarket,Toko Swalayan,Ramay Swalayan,"HJJF+W76, Jl. Raja Pandita, Malinau Kota, Kec. Malinau Kota, Kabupaten Malinau, Kalimantan Utara 77554","Jl. Raja Pandita, Malinau Kota, Kec. Malinau Kota, Kabupaten Malinau",KALIMANTAN UTARA,77554.0,Indonesia,,,,3.5822913,116.6231319,https://maps.google.com/?cid=0x0:0xbcffbf68c2ad9c8b,
supermarket,Toko Swalayan,Toko Langgeng,"HJP9+MV9, Jl. Panembahan, Malinau Kota, Kec. Malinau Kota, Kabupaten Malinau, Kalimantan Utara 77554","Jl. Panembahan, Malinau Kota, Kec. Malinau Kota, Kabupaten Malinau",KALIMANTAN UTARA,77554.0,Indonesia,,,,3.5866707,116.6197223,https://maps.google.com/?cid=0x0:0xf00ca65d022bba88,
supermarket,Toko bahan makanan,Toko Sembako Shankara,"toko sembako Shankara, Jl. Tj. Lapang, Tj. Lapang, Kec. Malinau Bar., Kabupaten Malinau, Kalimantan Utara 77554","Jl. Tj. Lapang, Tj. Lapang, Kec. Malinau Bar., Kabupaten Malinau",KALIMANTAN UTARA,77554.0,Indonesia,82153737257.0,,,3.5357011,116.5966044,https://maps.google.com/?cid=0x0:0x9089bd65e1abf04d,
supermarket,supermarket,Kalimantan Barat 78693,"Kabupaten Sintang, Kalimantan Barat","Kabupaten Sintang, Kalimantan Barat",KALIMANTAN UTARA,,Indonesia,,,,-0.0346027,111.9999435,https://maps.google.com/?cid=0x0:0xde0de64478083288,
supermarket,Toko Swalayan,Ajp Mart,"VWW9+GQV, Jalan, Nanga Mau, Kec. Kayan Hilir, Kabupaten Sintang, Kalimantan Barat 78693","Jalan, Nanga Mau, Kec. Kayan Hilir, Kabupaten Sintang",KALIMANTAN UTARA,78693.0,Indonesia,82153972312.0,,,-0.1036341,111.9194084,https://maps.google.com/?cid=0x0:0xf504ce6fe79236a5,
supermarket,Toko,Toko DIANA,"VWR9+8WQ, Nanga Mau, Kec. Kayan Hilir, Kabupaten Sintang, Kalimantan Barat 78693","Nanga Mau, Kec. Kayan Hilir, Kabupaten Sintang",KALIMANTAN UTARA,78693.0,Indonesia,81351819563.0,,,-0.1091615,111.9198445,https://maps.google.com/?cid=0x0:0xdbc8350ad537a8bf,
supermarket,Minimarket,ALFAMART KAYAN HILIR,"VWQ9+P86, Jl. Poros, Nanga Mau, Kec. Kayan Hilir, Kabupaten Sintang, Kalimantan Barat 78693","Jl. Poros, Nanga Mau, Kec. Kayan Hilir, Kabupaten Sintang",KALIMANTAN UTARA,78693.0,Indonesia,,,,-0.110558,111.91845,https://maps.google.com/?cid=0x0:0xb582a80284cd69dd,
supermarket,Toko,TANJUNG HARAPAN MART,"Nanga Tebidah, Kec. Kayan Hulu, Kabupaten Sintang, Kalimantan Barat 78694","Kec. Kayan Hulu, Kabupaten Sintang",KALIMANTAN UTARA,78694.0,Indonesia,82151754220.0,,,-0.1469473,112.0807788,https://maps.google.com/?cid=0x0:0xf8d399a0bca25163,
supermarket,Toko bahan makanan,Tokoh Sumber Usaha,"53PF+HJH, Nanga Ngeri, Kec. Silat Hulu, Kabupaten Kapuas Hulu, Kalimantan Barat 78774","Nanga Ngeri, Kec. Silat Hulu, Kabupaten Kapuas Hulu",KALIMANTAN UTARA,78774.0,Indonesia,85252649999.0,,,0.1864266,112.074094,https://maps.google.com/?cid=0x0:0x50cf790215797cc8,
supermarket,supermarket,Kalimantan Utara 77572,"Kabupaten Malinau, Kalimantan Utara","Kabupaten Malinau, Kalimantan Utara",KALIMANTAN UTARA,,Indonesia,,,,1.7685873,114.8567482,https://maps.google.com/?cid=0x0:0xc91e33de5fc1b909,
supermarket,Toko Swalayan,Ramay Swalayan,"HJJF+W76, Jl. Raja Pandita, Malinau Kota, Kec. Malinau Kota, Kabupaten Malinau, Kalimantan Utara 77554","Jl. Raja Pandita, Malinau Kota, Kec. Malinau Kota, Kabupaten Malinau",KALIMANTAN UTARA,77554.0,Indonesia,,,,3.5822913,116.6231319,https://maps.google.com/?cid=0x0:0xbcffbf68c2ad9c8b,
supermarket,Toko Swalayan,Toko Langgeng,"HJP9+MV9, Jl. Panembahan, Malinau Kota, Kec. Malinau Kota, Kabupaten Malinau, Kalimantan Utara 77554","Jl. Panembahan, Malinau Kota, Kec. Malinau Kota, Kabupaten Malinau",KALIMANTAN UTARA,77554.0,Indonesia,,,,3.5866707,116.6197223,https://maps.google.com/?cid=0x0:0xf00ca65d022bba88,
supermarket,Toko,KIOS KARTINI,"Jalan Trans Kalimantan No.007, RT.09, Malinau Seberang, Kec. Malinau Utara, Kabupaten Malinau, Kalimantan Utara 77554","RT.09, Malinau Seberang, Kec. Malinau Utara, Kabupaten Malinau",KALIMANTAN UTARA,77554.0,Indonesia,,,,3.5995684,116.6213154,https://maps.google.com/?cid=0x0:0x65a8277252581836,
supermarket,supermarket,Kalimantan Barat 78694,"Kec. Kayan Hulu, Kabupaten Sintang, Kalimantan Barat","Kabupaten Sintang, Kalimantan Barat",KALIMANTAN UTARA,,Indonesia,,,,-0.0690749,112.3337769,https://maps.google.com/?cid=0x0:0xf1565987c85b5ec9,
supermarket,supermarket,Kec. Kayan Hulu,"Kabupaten Malinau, Kalimantan Utara","Kabupaten Malinau, Kalimantan Utara",KALIMANTAN UTARA,,Indonesia,,,,1.7772932,115.0183619,https://maps.google.com/?cid=0x0:0x9aac24f2a499af17,
supermarket,supermarket,Kalimantan Utara,,Kalimantan Utara,KALIMANTAN UTARA,,Indonesia,,,,3.0730929,116.0413889,https://maps.google.com/?cid=0x0:0x1911f0dd6846b988,
supermarket,Pusat Perbelanjaan,NU Store,"8H6R+74J, Karang Balik, Kec. Tarakan Bar., Kota Tarakan, Kalimantan Utara","Kota Tarakan, Kalimantan Utara",KALIMANTAN UTARA,,Indonesia,,,,3.3107136,117.5902664,https://maps.google.com/?cid=0x0:0x80bd42b180541cf1,
supermarket,Toko bahan makanan,S-Mart,"Jl. Mulawarman, Karang Anyar, Kec. Tarakan Bar., Kota Tarakan, Kalimantan Utara","Kota Tarakan, Kalimantan Utara",KALIMANTAN UTARA,,Indonesia,55124035.0,,,3.3148166,117.5798587,https://maps.google.com/?cid=0x0:0x16d38d85c7cff48c,
supermarket,Toko bahan makanan,NuStore Yos Sudarso,"7HVQ+F74, Sebengkok, Kec. Tarakan Tengah, Kota Tarakan, Kalimantan Utara","Kota Tarakan, Kalimantan Utara",KALIMANTAN UTARA,,Indonesia,,,,3.2936358,117.5881976,https://maps.google.com/?cid=0x0:0x309209324c138cab,
supermarket,Toko,PABRIK TAHU BARA,"V38V+PHV, Jln.Lintas Ng. Ungai, Landau Bara, Kec. Kayan Hulu, Kabupaten Sintang","Kabupaten Sintang, Kalimantan Barat",KALIMANTAN UTARA,,Indonesia,,,,-0.1331467,112.0939072,https://maps.google.com/?cid=0x0:0xd2ec91f611a018b1,
supermarket,Komplek perumahan,Meja Batu,"R865+MM2, Nanga Masau, Kec. Kayan Hulu, Kabupaten Sintang, Kalimantan Barat","Kabupaten Sintang, Kalimantan Barat",KALIMANTAN UTARA,,Indonesia,85332352702.0,,,-0.1883601,112.3091518,https://maps.google.com/?cid=0x0:0x97ffc494700fce97,
supermarket,supermarket,Toko Harapan Baru,"V33H+8PH, Nanga Tebidah, Kec. Kayan Hulu, Kabupaten Sintang, Kalimantan Barat 78694","Nanga Tebidah, Kec. Kayan Hulu, Kabupaten Sintang",KALIMANTAN UTARA,78694.0,Indonesia,,,,-0.1466999,112.0793502,https://maps.google.com/?cid=0x0:0x72fcf5ba743b858e,
supermarket,supermarket,harapan baru 2,"R3JG+CXP Simpang menukung, Entogong, Kec. Kayan Hulu, Kabupaten Sintang, Kalimantan Barat","Kabupaten Sintang, Kalimantan Barat",KALIMANTAN UTARA,,Indonesia,85705164793.0,,,-0.168914,112.0774451,https://maps.google.com/?cid=0x0:0x49fd511da328d771,
supermarket,Toko Swalayan,Ramay Swalayan,"HJJF+W76, Jl. Raja Pandita, Malinau Kota, Kec. Malinau Kota, Kabupaten Malinau, Kalimantan Utara 77554","Jl. Raja Pandita, Malinau Kota, Kec. Malinau Kota, Kabupaten Malinau",KALIMANTAN UTARA,77554.0,Indonesia,,,,3.5822913,116.6231319,https://maps.google.com/?cid=0x0:0xbcffbf68c2ad9c8b,
supermarket,Toko Swalayan,Toko Langgeng,"HJP9+MV9, Jl. Panembahan, Malinau Kota, Kec. Malinau Kota, Kabupaten Malinau, Kalimantan Utara 77554","Jl. Panembahan, Malinau Kota, Kec. Malinau Kota, Kabupaten Malinau",KALIMANTAN UTARA,77554.0,Indonesia,,,,3.5866707,116.6197223,https://maps.google.com/?cid=0x0:0xf00ca65d022bba88,
supermarket,Toko umum,Kios Qia MAT'77 ( Tuju Tuju ),"HJ77+5V9, Jl. Lintas Kalimantan Poros Selatan, Malinau Hulu, Kec. Malinau Kota, Kabupaten Malinau, Kalimantan Utara 77554","Jl. Lintas Kalimantan Poros Selatan, Malinau Hulu, Kec. Malinau Kota, Kabupaten Malinau",KALIMANTAN UTARA,77554.0,Indonesia,82350000666.0,,,3.5629181,116.6147359,https://maps.google.com/?cid=0x0:0x1d0c173dd86f63ac,
supermarket,supermarket,Kec. Malinau Bar.,"Kabupaten Malinau, Kalimantan Utara","Kabupaten Malinau, Kalimantan Utara",KALIMANTAN UTARA,,Indonesia,,,,3.5374774,116.612704,https://maps.google.com/?cid=0x0:0xcb2568b300b5bd79,
supermarket,Toko,PT Sinar Terang Mulia Bersama,"HJF6+V42, Pelita Kanaan, Kec. Malinau Kota, Kabupaten Malinau, Kalimantan Utara 77554","Pelita Kanaan, Kec. Malinau Kota, Kabupaten Malinau",KALIMANTAN UTARA,77554.0,Indonesia,5532022020.0,,,3.5746448,116.6102533,https://maps.google.com/?cid=0x0:0xa206fbd77c36a391,
supermarket,Toko bahan makanan,Toko Alvito,"GJRG+436, Malinau Hulu, Kec. Malinau Kota, Kabupaten Malinau, Kalimantan Utara 77554","Malinau Hulu, Kec. Malinau Kota, Kabupaten Malinau",KALIMANTAN UTARA,77554.0,Indonesia,,,,3.5402955,116.6251373,https://maps.google.com/?cid=0x0:0x578c9c37ce8a4c82,
supermarket,Toko Swalayan,Ramay Swalayan,"HJJF+W76, Jl. Raja Pandita, Malinau Kota, Kec. Malinau Kota, Kabupaten Malinau, Kalimantan Utara 77554","Jl. Raja Pandita, Malinau Kota, Kec. Malinau Kota, Kabupaten Malinau",KALIMANTAN UTARA,77554.0,Indonesia,,,,3.5822913,116.6231319,https://maps.google.com/?cid=0x0:0xbcffbf68c2ad9c8b,
supermarket,,Toko Nabil,"HJM9+CG5, Malinau Kota, Kec. Malinau Kota, Kabupaten Malinau, Kalimantan Utara 77554","Malinau Kota, Kec. Malinau Kota, Kabupaten Malinau",KALIMANTAN UTARA,77554.0,Indonesia,,,,3.5835225,116.6188661,https://maps.google.com/?cid=0x0:0x12e35453e595f71b,
supermarket,Toko umum,Kios Qia MAT'77 ( Tuju Tuju ),"HJ77+5V9, Jl. Lintas Kalimantan Poros Selatan, Malinau Hulu, Kec. Malinau Kota, Kabupaten Malinau, Kalimantan Utara 77554","Jl. Lintas Kalimantan Poros Selatan, Malinau Hulu, Kec. Malinau Kota, Kabupaten Malinau",KALIMANTAN UTARA,77554.0,Indonesia,82350000666.0,,,3.5629181,116.6147359,https://maps.google.com/?cid=0x0:0x1d0c173dd86f63ac,
supermarket,Toko bahan makanan,Toko Sumber S,"Malinau Kota, Kec. Malinau Kota, Kabupaten Malinau, Kalimantan Utara 77554","Kec. Malinau Kota, Kabupaten Malinau",KALIMANTAN UTARA,77554.0,Indonesia,82133899888.0,,,3.5722528,116.6053257,https://maps.google.com/?cid=0x0:0x3b0b7705dd4df1de,
supermarket,Toko Swalayan,Toko CHARLIE ACIANG,"Jl. Rt. XI Jl. Tj. Lapang No.50, Tj. Lapang, Kec. Malinau Bar., Kabupaten Malinau, Kalimantan Utara 77554","Tj. Lapang, Kec. Malinau Bar., Kabupaten Malinau",KALIMANTAN UTARA,77554.0,Indonesia,,,,3.5364759,116.5904519,https://maps.google.com/?cid=0x0:0x7ad30d9c75ec1137,
supermarket,Pusat Perbelanjaan,Mini Market Amanda Mulia,"Unnamed Road, 77554, Respen Tubu, Kec. Malinau Utara, Kabupaten Malinau, Kalimantan Utara 77554","77554, Respen Tubu, Kec. Malinau Utara, Kabupaten Malinau",KALIMANTAN UTARA,77554.0,Indonesia,81256145900.0,,,3.6015395,116.6094197,https://maps.google.com/?cid=0x0:0x33cd217392174c4d,
supermarket,Toko,Toko Mulya Sabar,"HJJ9+QHH, Malinau Kota, Kec. Malinau Kota, Kabupaten Malinau, Kalimantan Utara 77554","Malinau Kota, Kec. Malinau Kota, Kabupaten Malinau",KALIMANTAN UTARA,77554.0,Indonesia,85249525656.0,,,3.5819282,116.6189849,https://maps.google.com/?cid=0x0:0x794559bcb60ec979,
supermarket,Toko,PELITA MART/APOTEK MALINAU2,"HJ26+H2Q, Malinau Hulu, Kec. Malinau Kota, Kabupaten Malinau, Kalimantan Utara 77554","Malinau Hulu, Kec. Malinau Kota, Kabupaten Malinau",KALIMANTAN UTARA,77554.0,Indonesia,,,,3.551454,116.610469,https://maps.google.com/?cid=0x0:0x5d9e5ed3edcd19ce,
supermarket,Toko Bahan Bangunan,Toko Makmur Jaya 2,"HJG4+56H, Jl. Raja Pandita, Malinau Hulu, Kec. Malinau Kota, Kabupaten Malinau, Kalimantan Utara 77554","Jl. Raja Pandita, Malinau Hulu, Kec. Malinau Kota, Kabupaten Malinau",KALIMANTAN UTARA,77554.0,Indonesia,,,,3.5754442,116.6056134,https://maps.google.com/?cid=0x0:0x5a4399bfb5bba2aa,
supermarket,Toko Pakaian,TOKO AL FAZZA,"Unnamed Road, Malinau Kota, Kec. Malinau Kota, Kabupaten Malinau, Kalimantan Utara 77554","Malinau Kota, Kec. Malinau Kota, Kabupaten Malinau",KALIMANTAN UTARA,77554.0,Indonesia,82247774455.0,,,3.5893404,116.6443851,https://maps.google.com/?cid=0x0:0x9d89cddbccb355c6,
supermarket,Toko umum,Rumah di tengah belum di cat,"GJXW+MCF, Batu Lidung, Kec. Malinau Kota, Kabupaten Malinau, Kalimantan Utara 77554","Batu Lidung, Kec. Malinau Kota, Kabupaten Malinau",KALIMANTAN UTARA,77554.0,Indonesia,,,,3.5492355,116.6455009,https://maps.google.com/?cid=0x0:0xdc0002e444b73537,
supermarket,Toko bahan makanan,Toko Andi N,"HJRG+296, Jl. Duyan, Malinau Kota, Kec. Malinau Kota, Kabupaten Malinau, Kalimantan Utara 77554","Jl. Duyan, Malinau Kota, Kec. Malinau Kota, Kabupaten Malinau",KALIMANTAN UTARA,77554.0,Indonesia,85248717978.0,,,3.5900302,116.6259054,https://maps.google.com/?cid=0x0:0xb3d7873d5d05b6f2,
supermarket,Toko Swalayan,Tk Yusnimar Collection,"HJM9+5G8, Jl. Panembahan, Malinau Kota, Kec. Malinau Kota, Kabupaten Malinau, Kalimantan Utara 77554","Jl. Panembahan, Malinau Kota, Kec. Malinau Kota, Kabupaten Malinau",KALIMANTAN UTARA,77554.0,Indonesia,81256523196.0,,,3.5829033,116.6188194,https://maps.google.com/?cid=0x0:0x628b0534b94d1660,
supermarket,Grosir air mineral,Ruko Dan Depot Air Minum Isi Ulang ADAM,"14, Jl. Rt. VI Tj. lapang, Tj. Lapang, Kec. Malinau Bar., Kabupaten Malinau, Kalimantan Utara 77554","Jl. Rt. VI Tj. lapang, Tj. Lapang, Kec. Malinau Bar., Kabupaten Malinau",KALIMANTAN UTARA,77554.0,Indonesia,82149250170.0,,,3.5373272,116.6011268,https://maps.google.com/?cid=0x0:0xb6812dc91b3c12de,
supermarket,Toko Swalayan,Toko Langgeng,"HJP9+MV9, Jl. Panembahan, Malinau Kota, Kec. Malinau Kota, Kabupaten Malinau, Kalimantan Utara 77554","Jl. Panembahan, Malinau Kota, Kec. Malinau Kota, Kabupaten Malinau",KALIMANTAN UTARA,77554.0,Indonesia,,,,3.5866707,116.6197223,https://maps.google.com/?cid=0x0:0xf00ca65d022bba88,
supermarket,Grosir sayur,Toko Sinar Bintang,"Jl. AMD No.RT.16, Malinau Kota, Kec. Malinau Kota, Kabupaten Malinau, Kalimantan Utara 77554","Malinau Kota, Kec. Malinau Kota, Kabupaten Malinau",KALIMANTAN UTARA,77554.0,Indonesia,,,,3.5924329,116.6302968,https://maps.google.com/?cid=0x0:0xd32d675d44aa8045,
supermarket,Toko sembako pemerintah,TokÃ² Sembako Aldi,"jln trans kaltara rt 09, Malinau Seberang, Kec. Malinau Utara, Kabupaten Malinau, Kalimantan Utara 77554","Malinau Seberang, Kec. Malinau Utara, Kabupaten Malinau",KALIMANTAN UTARA,77554.0,Indonesia,85255455084.0,,,3.6064346,116.6242538,https://maps.google.com/?cid=0x0:0x13f5b42c556e8af0,
supermarket,Pusat Perbelanjaan,Toko Anugerah,"HJG5+7HQ, Pelita Kanaan, Kec. Malinau Kota, Kabupaten Malinau, Kalimantan Utara 77554","Pelita Kanaan, Kec. Malinau Kota, Kabupaten Malinau",KALIMANTAN UTARA,77554.0,Indonesia,,,,3.5757016,116.608998,https://maps.google.com/?cid=0x0:0xb3fb037f9bc2620a,
supermarket,Toko Swalayan,Toko Yusnimar Collecton Raja Alam,"HJMH+299, Jl. Raja Alam, Malinau Kota, Kec. Malinau Kota, Kabupaten Malinau, Kalimantan Utara 77554","Jl. Raja Alam, Malinau Kota, Kec. Malinau Kota, Kabupaten Malinau",KALIMANTAN UTARA,77554.0,Indonesia,,,,3.5825281,116.6284898,https://maps.google.com/?cid=0x0:0x59a38396638c4866,
supermarket,Toko bahan makanan,Alona,"Jalan Kuala Lapang, Kuala Lapang, Rt.04 No.003, Kuala Lapang, Kec. Malinau Bar., Kabupaten Malinau, Kalimantan Utara 77554","Kuala Lapang, Rt.04 No.003, Kuala Lapang, Kec. Malinau Bar., Kabupaten Malinau",KALIMANTAN UTARA,77554.0,Indonesia,85346246888.0,,,3.5311125,116.6147591,https://maps.google.com/?cid=0x0:0x67a4b86391da2eb2,
supermarket,Toko bahan makanan,Toko Adelya,"HJ77+P3V, Kalimatan, Malinau Hulu, Kec. Malinau Kota, Kabupaten Malinau, Kalimantan Utara 77554","Kalimatan, Malinau Hulu, Kec. Malinau Kota, Kabupaten Malinau",KALIMANTAN UTARA,77554.0,Indonesia,,,,3.5643594,116.6126785,https://maps.google.com/?cid=0x0:0x5e88c85a091b1119,
supermarket,Minimarket,Toko Dwi Daya,"GJV6+XVG, Bar., Kuala Lapang, Kec. Malinau Bar., Kabupaten Malinau, Kalimantan Utara 77554","Bar., Kuala Lapang, Kec. Malinau Bar., Kabupaten Malinau",KALIMANTAN UTARA,77554.0,Indonesia,,,,3.5449405,116.6121966,https://maps.google.com/?cid=0x0:0xc8c918abc520d3b9,
supermarket,Toko,Toko sembako simoon,"GHPV+97J, Tj. Lapang, Kec. Malinau Bar., Kabupaten Malinau, Kalimantan Utara 77554","Tj. Lapang, Kec. Malinau Bar., Kabupaten Malinau",KALIMANTAN UTARA,77554.0,Indonesia,,,,3.5359591,116.59313,https://maps.google.com/?cid=0x0:0x92fd6ff73c957ec6,
supermarket,Toko,BT Group,"Raya Pandita Road (teluk sangan, Kuala Lapang, Malinau Barat, Malinau Regency, North Kalimantan 77554","Kuala Lapang, Malinau Barat, Malinau Regency",KALIMANTAN UTARA,77554.0,Indonesia,,,,3.5450596,116.6119029,https://maps.google.com/?cid=0x0:0x13bdb5b40ac0e018,
supermarket,Pasar,Pasar induk malinau,"Malinau Kota, Kec. Malinau Kota, Kabupaten Malinau, Kalimantan Utara 77554","Kec. Malinau Kota, Kabupaten Malinau",KALIMANTAN UTARA,77554.0,Indonesia,,,,3.5861445,116.6466231,https://maps.google.com/?cid=0x0:0x3bb0948b5c583c5d,
supermarket,supermarket,Malinau,"Malinau Kota, Kec. Malinau Kota, Kabupaten Malinau, Kalimantan Timur","Kabupaten Malinau, Kalimantan Timur",KALIMANTAN UTARA,,Indonesia,,,,3.584221,116.647797,https://maps.google.com/?cid=0x0:0xa317c514e5ce8a42,
supermarket,Pasar,Pasar induk malinau,"Malinau Kota, Kec. Malinau Kota, Kabupaten Malinau, Kalimantan Utara 77554","Kec. Malinau Kota, Kabupaten Malinau",KALIMANTAN UTARA,77554.0,Indonesia,,,,3.5861445,116.6466231,https://maps.google.com/?cid=0x0:0x3bb0948b5c583c5d,
supermarket,Toko Swalayan,Ramay Swalayan,"HJJF+W76, Jl. Raja Pandita, Malinau Kota, Kec. Malinau Kota, Kabupaten Malinau, Kalimantan Utara 77554","Jl. Raja Pandita, Malinau Kota, Kec. Malinau Kota, Kabupaten Malinau",KALIMANTAN UTARA,77554.0,Indonesia,,,,3.5822913,116.6231319,https://maps.google.com/?cid=0x0:0xbcffbf68c2ad9c8b,
supermarket,Toko bahan makanan,Toko Andi N,"HJRG+296, Jl. Duyan, Malinau Kota, Kec. Malinau Kota, Kabupaten Malinau, Kalimantan Utara 77554","Jl. Duyan, Malinau Kota, Kec. Malinau Kota, Kabupaten Malinau",KALIMANTAN UTARA,77554.0,Indonesia,85248717978.0,,,3.5900302,116.6259054,https://maps.google.com/?cid=0x0:0xb3d7873d5d05b6f2,
supermarket,Toko Swalayan,Toko Langgeng,"HJP9+MV9, Jl. Panembahan, Malinau Kota, Kec. Malinau Kota, Kabupaten Malinau, Kalimantan Utara 77554","Jl. Panembahan, Malinau Kota, Kec. Malinau Kota, Kabupaten Malinau",KALIMANTAN UTARA,77554.0,Indonesia,,,,3.5866707,116.6197223,https://maps.google.com/?cid=0x0:0xf00ca65d022bba88,
supermarket,Toko Bahan Bangunan,Toko Jaya Indah 2,"Jl. Pemda, Malinau Hulu, Kec. Malinau Kota, Kabupaten Malinau, Kalimantan Utara 77554","Malinau Hulu, Kec. Malinau Kota, Kabupaten Malinau",KALIMANTAN UTARA,77554.0,Indonesia,,,,3.5684891,116.6073193,https://maps.google.com/?cid=0x0:0x9cf8f08b46cbe2a5,
supermarket,Pusat Perbelanjaan,Mini Market Amanda Mulia,"Unnamed Road, 77554, Respen Tubu, Kec. Malinau Utara, Kabupaten Malinau, Kalimantan Utara 77554","77554, Respen Tubu, Kec. Malinau Utara, Kabupaten Malinau",KALIMANTAN UTARA,77554.0,Indonesia,81256145900.0,,,3.6015395,116.6094197,https://maps.google.com/?cid=0x0:0x33cd217392174c4d,
supermarket,Grosir sayur,Toko Sinar Bintang,"Jl. AMD No.RT.16, Malinau Kota, Kec. Malinau Kota, Kabupaten Malinau, Kalimantan Utara 77554","Malinau Kota, Kec. Malinau Kota, Kabupaten Malinau",KALIMANTAN UTARA,77554.0,Indonesia,,,,3.5924329,116.6302968,https://maps.google.com/?cid=0x0:0xd32d675d44aa8045,
supermarket,Toko bahan makanan,Toko Sumber S,"Malinau Kota, Kec. Malinau Kota, Kabupaten Malinau, Kalimantan Utara 77554","Kec. Malinau Kota, Kabupaten Malinau",KALIMANTAN UTARA,77554.0,Indonesia,82133899888.0,,,3.5722528,116.6053257,https://maps.google.com/?cid=0x0:0x3b0b7705dd4df1de,
supermarket,Toko bahan makanan,Toko Alvito,"GJRG+436, Malinau Hulu, Kec. Malinau Kota, Kabupaten Malinau, Kalimantan Utara 77554","Malinau Hulu, Kec. Malinau Kota, Kabupaten Malinau",KALIMANTAN UTARA,77554.0,Indonesia,,,,3.5402955,116.6251373,https://maps.google.com/?cid=0x0:0x578c9c37ce8a4c82,
supermarket,Toko bahan makanan,Nasa  Online Shop,"HJWQ+8P5, Jl. AMD, Malinau Kota, Kec. Malinau Kota, Kabupaten Malinau, Kalimantan Utara 77554","Jl. AMD, Malinau Kota, Kec. Malinau Kota, Kabupaten Malinau",KALIMANTAN UTARA,77554.0,Indonesia,81258287833.0,,,3.595757,116.63937,https://maps.google.com/?cid=0x0:0x84a1677167c2fbe7,
supermarket,Toko Swalayan,Toko Imel jaya malinau,"Jl. AMD No.RT. 19, Malinau Kota, Kec. Malinau Kota, Kabupaten Malinau, Kalimantan Utara 77554","Malinau Kota, Kec. Malinau Kota, Kabupaten Malinau",KALIMANTAN UTARA,77554.0,Indonesia,81350380698.0,,,3.5913329,116.6415985,https://maps.google.com/?cid=0x0:0xdf9542aa8b5016d0,
supermarket,Toko bahan makanan,Toko Melfah Jaya,"HJVQ+223, Unnamed Road, Malinau Kota, Kec. Malinau Kota, Kabupaten Malinau, Kalimantan Utara 77554","Unnamed Road, Malinau Kota, Kec. Malinau Kota, Kabupaten Malinau",KALIMANTAN UTARA,77554.0,Indonesia,85247177200.0,,,3.5925003,116.6375394,https://maps.google.com/?cid=0x0:0x708ab0dba5c26b3b,
supermarket,Pusat Perbelanjaan,Toko Anugerah,"HJG5+7HQ, Pelita Kanaan, Kec. Malinau Kota, Kabupaten Malinau, Kalimantan Utara 77554","Pelita Kanaan, Kec. Malinau Kota, Kabupaten Malinau",KALIMANTAN UTARA,77554.0,Indonesia,,,,3.5757016,116.608998,https://maps.google.com/?cid=0x0:0xb3fb037f9bc2620a,
supermarket,Toko umum,Kios Qia MAT'77 ( Tuju Tuju ),"HJ77+5V9, Jl. Lintas Kalimantan Poros Selatan, Malinau Hulu, Kec. Malinau Kota, Kabupaten Malinau, Kalimantan Utara 77554","Jl. Lintas Kalimantan Poros Selatan, Malinau Hulu, Kec. Malinau Kota, Kabupaten Malinau",KALIMANTAN UTARA,77554.0,Indonesia,82350000666.0,,,3.5629181,116.6147359,https://maps.google.com/?cid=0x0:0x1d0c173dd86f63ac,
supermarket,Toko sembako pemerintah,TokÃ² Sembako Aldi,"jln trans kaltara rt 09, Malinau Seberang, Kec. Malinau Utara, Kabupaten Malinau, Kalimantan Utara 77554","Malinau Seberang, Kec. Malinau Utara, Kabupaten Malinau",KALIMANTAN UTARA,77554.0,Indonesia,85255455084.0,,,3.6064346,116.6242538,https://maps.google.com/?cid=0x0:0x13f5b42c556e8af0,
supermarket,Toko Swalayan,Toko NN,"HJRG+XJ9, Malinau Kota, Kec. Malinau Kota, Kabupaten Malinau, Kalimantan Utara 77554","Malinau Kota, Kec. Malinau Kota, Kabupaten Malinau",KALIMANTAN UTARA,77554.0,Indonesia,,,,3.5924134,116.6266154,https://maps.google.com/?cid=0x0:0x1ac1523fbf143b35,
supermarket,Toko umum,Toko Bawakaraeng,"HJQH+5WH, Malinau Kota, Kec. Malinau Kota, Kabupaten Malinau, Kalimantan Utara 77554","Malinau Kota, Kec. Malinau Kota, Kabupaten Malinau",KALIMANTAN UTARA,77554.0,Indonesia,82350000678.0,,,3.5879428,116.6298643,https://maps.google.com/?cid=0x0:0xa8ca6a47fce16fdb,
supermarket,Toko grosir,Toko sabindo 2 (grosirecer),"Jl. Duyan No.RT 02, Malinau Kota, Kec. Malinau Kota, Kabupaten Malinau, Kalimantan Utara 77554","Malinau Kota, Kec. Malinau Kota, Kabupaten Malinau",KALIMANTAN UTARA,77554.0,Indonesia,82241240057.0,,,3.5923964,116.6293292,https://maps.google.com/?cid=0x0:0xed22de8919abdcac,
supermarket,Sesuai untuk keluarga,Pusat Kuliner Pelangi Malinau,"Malinau Kota, Kec. Malinau Kota, Kabupaten Malinau, Kalimantan Utara 77554","Kec. Malinau Kota, Kabupaten Malinau",KALIMANTAN UTARA,77554.0,Indonesia,81332602555.0,,,3.5901926,116.6232871,https://maps.google.com/?cid=0x0:0x901dc84a33a5c16c,
supermarket,Toko Bahan Bangunan,Toko Makmur Jaya 2,"HJG4+56H, Jl. Raja Pandita, Malinau Hulu, Kec. Malinau Kota, Kabupaten Malinau, Kalimantan Utara 77554","Jl. Raja Pandita, Malinau Hulu, Kec. Malinau Kota, Kabupaten Malinau",KALIMANTAN UTARA,77554.0,Indonesia,,,,3.5754442,116.6056134,https://maps.google.com/?cid=0x0:0x5a4399bfb5bba2aa,
supermarket,supermarket,Kec. Malinau Sel.,"Kabupaten Malinau, Kalimantan Utara","Kabupaten Malinau, Kalimantan Utara",KALIMANTAN UTARA,,Indonesia,,,,3.1674448,116.4704561,https://maps.google.com/?cid=0x0:0x4516403666700bfb,
supermarket,Toko Swalayan,Ramay Swalayan,"HJJF+W76, Jl. Raja Pandita, Malinau Kota, Kec. Malinau Kota, Kabupaten Malinau, Kalimantan Utara 77554","Jl. Raja Pandita, Malinau Kota, Kec. Malinau Kota, Kabupaten Malinau",KALIMANTAN UTARA,77554.0,Indonesia,,,,3.5822913,116.6231319,https://maps.google.com/?cid=0x0:0xbcffbf68c2ad9c8b,
supermarket,Toko umum,Kios Qia MAT'77 ( Tuju Tuju ),"HJ77+5V9, Jl. Lintas Kalimantan Poros Selatan, Malinau Hulu, Kec. Malinau Kota, Kabupaten Malinau, Kalimantan Utara 77554","Jl. Lintas Kalimantan Poros Selatan, Malinau Hulu, Kec. Malinau Kota, Kabupaten Malinau",KALIMANTAN UTARA,77554.0,Indonesia,82350000666.0,,,3.5629181,116.6147359,https://maps.google.com/?cid=0x0:0x1d0c173dd86f63ac,
supermarket,Toko bahan makanan,Nasa  Online Shop,"HJWQ+8P5, Jl. AMD, Malinau Kota, Kec. Malinau Kota, Kabupaten Malinau, Kalimantan Utara 77554","Jl. AMD, Malinau Kota, Kec. Malinau Kota, Kabupaten Malinau",KALIMANTAN UTARA,77554.0,Indonesia,81258287833.0,,,3.595757,116.63937,https://maps.google.com/?cid=0x0:0x84a1677167c2fbe7,
supermarket,Toko bahan makanan,Toko Andi N,"HJRG+296, Jl. Duyan, Malinau Kota, Kec. Malinau Kota, Kabupaten Malinau, Kalimantan Utara 77554","Jl. Duyan, Malinau Kota, Kec. Malinau Kota, Kabupaten Malinau",KALIMANTAN UTARA,77554.0,Indonesia,85248717978.0,,,3.5900302,116.6259054,https://maps.google.com/?cid=0x0:0xb3d7873d5d05b6f2,
supermarket,Toko Swalayan,Toko Langgeng,"HJP9+MV9, Jl. Panembahan, Malinau Kota, Kec. Malinau Kota, Kabupaten Malinau, Kalimantan Utara 77554","Jl. Panembahan, Malinau Kota, Kec. Malinau Kota, Kabupaten Malinau",KALIMANTAN UTARA,77554.0,Indonesia,,,,3.5866707,116.6197223,https://maps.google.com/?cid=0x0:0xf00ca65d022bba88,
supermarket,Toko bahan makanan,Toko Melfah Jaya,"HJVQ+223, Unnamed Road, Malinau Kota, Kec. Malinau Kota, Kabupaten Malinau, Kalimantan Utara 77554","Unnamed Road, Malinau Kota, Kec. Malinau Kota, Kabupaten Malinau",KALIMANTAN UTARA,77554.0,Indonesia,85247177200.0,,,3.5925003,116.6375394,https://maps.google.com/?cid=0x0:0x708ab0dba5c26b3b,
supermarket,Toko grosir,Toko sabindo 2 (grosirecer),"Jl. Duyan No.RT 02, Malinau Kota, Kec. Malinau Kota, Kabupaten Malinau, Kalimantan Utara 77554","Malinau Kota, Kec. Malinau Kota, Kabupaten Malinau",KALIMANTAN UTARA,77554.0,Indonesia,82241240057.0,,,3.5923964,116.6293292,https://maps.google.com/?cid=0x0:0xed22de8919abdcac,
supermarket,Pusat Perbelanjaan,Mini Market Amanda Mulia,"Unnamed Road, 77554, Respen Tubu, Kec. Malinau Utara, Kabupaten Malinau, Kalimantan Utara 77554","77554, Respen Tubu, Kec. Malinau Utara, Kabupaten Malinau",KALIMANTAN UTARA,77554.0,Indonesia,81256145900.0,,,3.6015395,116.6094197,https://maps.google.com/?cid=0x0:0x33cd217392174c4d,
supermarket,Grosir sayur,Toko Sinar Bintang,"Jl. AMD No.RT.16, Malinau Kota, Kec. Malinau Kota, Kabupaten Malinau, Kalimantan Utara 77554","Malinau Kota, Kec. Malinau Kota, Kabupaten Malinau",KALIMANTAN UTARA,77554.0,Indonesia,,,,3.5924329,116.6302968,https://maps.google.com/?cid=0x0:0xd32d675d44aa8045,
supermarket,Toko umum,Toko Bawakaraeng,"HJQH+5WH, Malinau Kota, Kec. Malinau Kota, Kabupaten Malinau, Kalimantan Utara 77554","Malinau Kota, Kec. Malinau Kota, Kabupaten Malinau",KALIMANTAN UTARA,77554.0,Indonesia,82350000678.0,,,3.5879428,116.6298643,https://maps.google.com/?cid=0x0:0xa8ca6a47fce16fdb,
supermarket,supermarket,Kec. Malinau Selatan Hilir,"Kabupaten Malinau, Kalimantan Utara","Kabupaten Malinau, Kalimantan Utara",KALIMANTAN UTARA,,Indonesia,,,,3.3146294,116.5577197,https://maps.google.com/?cid=0x0:0x3c0190dd52d21f13,
supermarket,Toko Swalayan,Ramay Swalayan,"HJJF+W76, Jl. Raja Pandita, Malinau Kota, Kec. Malinau Kota, Kabupaten Malinau, Kalimantan Utara 77554","Jl. Raja Pandita, Malinau Kota, Kec. Malinau Kota, Kabupaten Malinau",KALIMANTAN UTARA,77554.0,Indonesia,,,,3.5822913,116.6231319,https://maps.google.com/?cid=0x0:0xbcffbf68c2ad9c8b,
supermarket,Toko bahan makanan,Toko Sumber S,"Malinau Kota, Kec. Malinau Kota, Kabupaten Malinau, Kalimantan Utara 77554","Kec. Malinau Kota, Kabupaten Malinau",KALIMANTAN UTARA,77554.0,Indonesia,82133899888.0,,,3.5722528,116.6053257,https://maps.google.com/?cid=0x0:0x3b0b7705dd4df1de,
supermarket,Toko Bahan Bangunan,Toko Jaya Indah 2,"Jl. Pemda, Malinau Hulu, Kec. Malinau Kota, Kabupaten Malinau, Kalimantan Utara 77554","Malinau Hulu, Kec. Malinau Kota, Kabupaten Malinau",KALIMANTAN UTARA,77554.0,Indonesia,,,,3.5684891,116.6073193,https://maps.google.com/?cid=0x0:0x9cf8f08b46cbe2a5,
supermarket,Toko bahan makanan,Toko Andi N,"HJRG+296, Jl. Duyan, Malinau Kota, Kec. Malinau Kota, Kabupaten Malinau, Kalimantan Utara 77554","Jl. Duyan, Malinau Kota, Kec. Malinau Kota, Kabupaten Malinau",KALIMANTAN UTARA,77554.0,Indonesia,85248717978.0,,,3.5900302,116.6259054,https://maps.google.com/?cid=0x0:0xb3d7873d5d05b6f2,
supermarket,Toko umum,Kios Qia MAT'77 ( Tuju Tuju ),"HJ77+5V9, Jl. Lintas Kalimantan Poros Selatan, Malinau Hulu, Kec. Malinau Kota, Kabupaten Malinau, Kalimantan Utara 77554","Jl. Lintas Kalimantan Poros Selatan, Malinau Hulu, Kec. Malinau Kota, Kabupaten Malinau",KALIMANTAN UTARA,77554.0,Indonesia,82350000666.0,,,3.5629181,116.6147359,https://maps.google.com/?cid=0x0:0x1d0c173dd86f63ac,
supermarket,Toko sembako pemerintah,TokÃ² Sembako Aldi,"jln trans kaltara rt 09, Malinau Seberang, Kec. Malinau Utara, Kabupaten Malinau, Kalimantan Utara 77554","Malinau Seberang, Kec. Malinau Utara, Kabupaten Malinau",KALIMANTAN UTARA,77554.0,Indonesia,85255455084.0,,,3.6064346,116.6242538,https://maps.google.com/?cid=0x0:0x13f5b42c556e8af0,
supermarket,Toko Bahan Bangunan,Toko Makmur Jaya 2,"HJG4+56H, Jl. Raja Pandita, Malinau Hulu, Kec. Malinau Kota, Kabupaten Malinau, Kalimantan Utara 77554","Jl. Raja Pandita, Malinau Hulu, Kec. Malinau Kota, Kabupaten Malinau",KALIMANTAN UTARA,77554.0,Indonesia,,,,3.5754442,116.6056134,https://maps.google.com/?cid=0x0:0x5a4399bfb5bba2aa,
supermarket,Toko Swalayan,Toko Langgeng,"HJP9+MV9, Jl. Panembahan, Malinau Kota, Kec. Malinau Kota, Kabupaten Malinau, Kalimantan Utara 77554","Jl. Panembahan, Malinau Kota, Kec. Malinau Kota, Kabupaten Malinau",KALIMANTAN UTARA,77554.0,Indonesia,,,,3.5866707,116.6197223,https://maps.google.com/?cid=0x0:0xf00ca65d022bba88,
supermarket,Grosir sayur,Toko Sinar Bintang,"Jl. AMD No.RT.16, Malinau Kota, Kec. Malinau Kota, Kabupaten Malinau, Kalimantan Utara 77554","Malinau Kota, Kec. Malinau Kota, Kabupaten Malinau",KALIMANTAN UTARA,77554.0,Indonesia,,,,3.5924329,116.6302968,https://maps.google.com/?cid=0x0:0xd32d675d44aa8045,
supermarket,Toko bahan makanan,Nasa  Online Shop,"HJWQ+8P5, Jl. AMD, Malinau Kota, Kec. Malinau Kota, Kabupaten Malinau, Kalimantan Utara 77554","Jl. AMD, Malinau Kota, Kec. Malinau Kota, Kabupaten Malinau",KALIMANTAN UTARA,77554.0,Indonesia,81258287833.0,,,3.595757,116.63937,https://maps.google.com/?cid=0x0:0x84a1677167c2fbe7,
supermarket,Toko Swalayan,Toko CHARLIE ACIANG,"Jl. Rt. XI Jl. Tj. Lapang No.50, Tj. Lapang, Kec. Malinau Bar., Kabupaten Malinau, Kalimantan Utara 77554","Tj. Lapang, Kec. Malinau Bar., Kabupaten Malinau",KALIMANTAN UTARA,77554.0,Indonesia,,,,3.5364759,116.5904519,https://maps.google.com/?cid=0x0:0x7ad30d9c75ec1137,
supermarket,Toko,PELITA MART/APOTEK MALINAU2,"HJ26+H2Q, Malinau Hulu, Kec. Malinau Kota, Kabupaten Malinau, Kalimantan Utara 77554","Malinau Hulu, Kec. Malinau Kota, Kabupaten Malinau",KALIMANTAN UTARA,77554.0,Indonesia,,,,3.551454,116.610469,https://maps.google.com/?cid=0x0:0x5d9e5ed3edcd19ce,
supermarket,Toko bahan makanan,Toko Melfah Jaya,"HJVQ+223, Unnamed Road, Malinau Kota, Kec. Malinau Kota, Kabupaten Malinau, Kalimantan Utara 77554","Unnamed Road, Malinau Kota, Kec. Malinau Kota, Kabupaten Malinau",KALIMANTAN UTARA,77554.0,Indonesia,85247177200.0,,,3.5925003,116.6375394,https://maps.google.com/?cid=0x0:0x708ab0dba5c26b3b,
supermarket,Toko grosir,Toko sabindo 2 (grosirecer),"Jl. Duyan No.RT 02, Malinau Kota, Kec. Malinau Kota, Kabupaten Malinau, Kalimantan Utara 77554","Malinau Kota, Kec. Malinau Kota, Kabupaten Malinau",KALIMANTAN UTARA,77554.0,Indonesia,82241240057.0,,,3.5923964,116.6293292,https://maps.google.com/?cid=0x0:0xed22de8919abdcac,
supermarket,Grosir air mineral,Ruko Dan Depot Air Minum Isi Ulang ADAM,"14, Jl. Rt. VI Tj. lapang, Tj. Lapang, Kec. Malinau Bar., Kabupaten Malinau, Kalimantan Utara 77554","Jl. Rt. VI Tj. lapang, Tj. Lapang, Kec. Malinau Bar., Kabupaten Malinau",KALIMANTAN UTARA,77554.0,Indonesia,82149250170.0,,,3.5373272,116.6011268,https://maps.google.com/?cid=0x0:0xb6812dc91b3c12de,
supermarket,supermarket,Toko Rudi Ahong,"GHPQ+PVJ, Tj. Lapang, Kec. Malinau Bar., Kabupaten Malinau, Kalimantan Utara 77554","Tj. Lapang, Kec. Malinau Bar., Kabupaten Malinau",KALIMANTAN UTARA,77554.0,Indonesia,,,,3.5368351,116.5896299,https://maps.google.com/?cid=0x0:0x8ac13586eb2869ee,
supermarket,Toko Pakaian,TOKO AL FAZZA,"Unnamed Road, Malinau Kota, Kec. Malinau Kota, Kabupaten Malinau, Kalimantan Utara 77554","Malinau Kota, Kec. Malinau Kota, Kabupaten Malinau",KALIMANTAN UTARA,77554.0,Indonesia,82247774455.0,,,3.5893404,116.6443851,https://maps.google.com/?cid=0x0:0x9d89cddbccb355c6,
supermarket,Toko Swalayan,Toko NN,"HJRG+XJ9, Malinau Kota, Kec. Malinau Kota, Kabupaten Malinau, Kalimantan Utara 77554","Malinau Kota, Kec. Malinau Kota, Kabupaten Malinau",KALIMANTAN UTARA,77554.0,Indonesia,,,,3.5924134,116.6266154,https://maps.google.com/?cid=0x0:0x1ac1523fbf143b35,
supermarket,Toko bahan makanan,AL-FATAH MART,"Jl. Panembahan No.33, RT.11, Malinau Kota, Kec. Malinau Kota, Kabupaten Malinau, Kalimantan Utara 77554","RT.11, Malinau Kota, Kec. Malinau Kota, Kabupaten Malinau",KALIMANTAN UTARA,77554.0,Indonesia,,,,3.5843121,116.6190396,https://maps.google.com/?cid=0x0:0x294d32f24b81c519,
supermarket,Toko bahan makanan,Nasa  Online Shop,"HJWQ+8P5, Jl. AMD, Malinau Kota, Kec. Malinau Kota, Kabupaten Malinau, Kalimantan Utara 77554","Jl. AMD, Malinau Kota, Kec. Malinau Kota, Kabupaten Malinau",KALIMANTAN UTARA,77554.0,Indonesia,81258287833.0,,,3.595757,116.63937,https://maps.google.com/?cid=0x0:0x84a1677167c2fbe7,
supermarket,Toko Swalayan,Ramay Swalayan,"HJJF+W76, Jl. Raja Pandita, Malinau Kota, Kec. Malinau Kota, Kabupaten Malinau, Kalimantan Utara 77554","Jl. Raja Pandita, Malinau Kota, Kec. Malinau Kota, Kabupaten Malinau",KALIMANTAN UTARA,77554.0,Indonesia,,,,3.5822913,116.6231319,https://maps.google.com/?cid=0x0:0xbcffbf68c2ad9c8b,
supermarket,Toko umum,Kios Qia MAT'77 ( Tuju Tuju ),"HJ77+5V9, Jl. Lintas Kalimantan Poros Selatan, Malinau Hulu, Kec. Malinau Kota, Kabupaten Malinau, Kalimantan Utara 77554","Jl. Lintas Kalimantan Poros Selatan, Malinau Hulu, Kec. Malinau Kota, Kabupaten Malinau",KALIMANTAN UTARA,77554.0,Indonesia,82350000666.0,,,3.5629181,116.6147359,https://maps.google.com/?cid=0x0:0x1d0c173dd86f63ac,
supermarket,Toko Swalayan,Mitra Diskon Swalayan,"Lippo Cimanggis Square, Jl. Raya Jakarta-Bogor No.11, Mekarsari, Kec. Cimanggis, Kota Depok, Jawa Barat 16452","Jl. Raya Jakarta-Bogor No.11, Mekarsari, Kec. Cimanggis, Kota Depok",KALIMANTAN UTARA,16452.0,Indonesia,,,,-6.3573722,106.8598076,https://maps.google.com/?cid=0x0:0x335ff91fca2c5a80,
supermarket,Toko sembako pemerintah,TokÃ² Sembako Aldi,"jln trans kaltara rt 09, Malinau Seberang, Kec. Malinau Utara, Kabupaten Malinau, Kalimantan Utara 77554","Malinau Seberang, Kec. Malinau Utara, Kabupaten Malinau",KALIMANTAN UTARA,77554.0,Indonesia,85255455084.0,,,3.6064346,116.6242538,https://maps.google.com/?cid=0x0:0x13f5b42c556e8af0,
supermarket,Toko bahan makanan,Toko Andi N,"HJRG+296, Jl. Duyan, Malinau Kota, Kec. Malinau Kota, Kabupaten Malinau, Kalimantan Utara 77554","Jl. Duyan, Malinau Kota, Kec. Malinau Kota, Kabupaten Malinau",KALIMANTAN UTARA,77554.0,Indonesia,85248717978.0,,,3.5900302,116.6259054,https://maps.google.com/?cid=0x0:0xb3d7873d5d05b6f2,
supermarket,Toko grosir,Toko sabindo 2 (grosirecer),"Jl. Duyan No.RT 02, Malinau Kota, Kec. Malinau Kota, Kabupaten Malinau, Kalimantan Utara 77554","Malinau Kota, Kec. Malinau Kota, Kabupaten Malinau",KALIMANTAN UTARA,77554.0,Indonesia,82241240057.0,,,3.5923964,116.6293292,https://maps.google.com/?cid=0x0:0xed22de8919abdcac,
supermarket,supermarket,Kalimantan Utara 77554,"Kabupaten Malinau, Kalimantan Utara","Kabupaten Malinau, Kalimantan Utara",KALIMANTAN UTARA,,Indonesia,,,,2.9234432,116.2304616,https://maps.google.com/?cid=0x0:0x100a8cc2c03a7e66,
supermarket,Toko,PT Sinar Terang Mulia Bersama,"HJF6+V42, Pelita Kanaan, Kec. Malinau Kota, Kabupaten Malinau, Kalimantan Utara 77554","Pelita Kanaan, Kec. Malinau Kota, Kabupaten Malinau",KALIMANTAN UTARA,77554.0,Indonesia,5532022020.0,,,3.5746448,116.6102533,https://maps.google.com/?cid=0x0:0xa206fbd77c36a391,
supermarket,Pusat Perbelanjaan,Mini Market Amanda Mulia,"Unnamed Road, 77554, Respen Tubu, Kec. Malinau Utara, Kabupaten Malinau, Kalimantan Utara 77554","77554, Respen Tubu, Kec. Malinau Utara, Kabupaten Malinau",KALIMANTAN UTARA,77554.0,Indonesia,81256145900.0,,,3.6015395,116.6094197,https://maps.google.com/?cid=0x0:0x33cd217392174c4d,
supermarket,,Toko Nabil,"HJM9+CG5, Malinau Kota, Kec. Malinau Kota, Kabupaten Malinau, Kalimantan Utara 77554","Malinau Kota, Kec. Malinau Kota, Kabupaten Malinau",KALIMANTAN UTARA,77554.0,Indonesia,,,,3.5835225,116.6188661,https://maps.google.com/?cid=0x0:0x12e35453e595f71b,
supermarket,Toko Bahan Bangunan,Toko Jaya Indah 2,"Jl. Pemda, Malinau Hulu, Kec. Malinau Kota, Kabupaten Malinau, Kalimantan Utara 77554","Malinau Hulu, Kec. Malinau Kota, Kabupaten Malinau",KALIMANTAN UTARA,77554.0,Indonesia,,,,3.5684891,116.6073193,https://maps.google.com/?cid=0x0:0x9cf8f08b46cbe2a5,
supermarket,Toko bahan makanan,Toko Alvito,"GJRG+436, Malinau Hulu, Kec. Malinau Kota, Kabupaten Malinau, Kalimantan Utara 77554","Malinau Hulu, Kec. Malinau Kota, Kabupaten Malinau",KALIMANTAN UTARA,77554.0,Indonesia,,,,3.5402955,116.6251373,https://maps.google.com/?cid=0x0:0x578c9c37ce8a4c82,
supermarket,Toko bahan makanan,Toko Sumber S,"Malinau Kota, Kec. Malinau Kota, Kabupaten Malinau, Kalimantan Utara 77554","Kec. Malinau Kota, Kabupaten Malinau",KALIMANTAN UTARA,77554.0,Indonesia,82133899888.0,,,3.5722528,116.6053257,https://maps.google.com/?cid=0x0:0x3b0b7705dd4df1de,
supermarket,Toko Pakaian,TOKO AL FAZZA,"Unnamed Road, Malinau Kota, Kec. Malinau Kota, Kabupaten Malinau, Kalimantan Utara 77554","Malinau Kota, Kec. Malinau Kota, Kabupaten Malinau",KALIMANTAN UTARA,77554.0,Indonesia,82247774455.0,,,3.5893404,116.6443851,https://maps.google.com/?cid=0x0:0x9d89cddbccb355c6,
supermarket,Toko Bahan Bangunan,Toko Makmur Jaya 2,"HJG4+56H, Jl. Raja Pandita, Malinau Hulu, Kec. Malinau Kota, Kabupaten Malinau, Kalimantan Utara 77554","Jl. Raja Pandita, Malinau Hulu, Kec. Malinau Kota, Kabupaten Malinau",KALIMANTAN UTARA,77554.0,Indonesia,,,,3.5754442,116.6056134,https://maps.google.com/?cid=0x0:0x5a4399bfb5bba2aa,
supermarket,Grosir sayur,Toko Sinar Bintang,"Jl. AMD No.RT.16, Malinau Kota, Kec. Malinau Kota, Kabupaten Malinau, Kalimantan Utara 77554","Malinau Kota, Kec. Malinau Kota, Kabupaten Malinau",KALIMANTAN UTARA,77554.0,Indonesia,,,,3.5924329,116.6302968,https://maps.google.com/?cid=0x0:0xd32d675d44aa8045,
supermarket,Toko Swalayan,Tk Yusnimar Collection,"HJM9+5G8, Jl. Panembahan, Malinau Kota, Kec. Malinau Kota, Kabupaten Malinau, Kalimantan Utara 77554","Jl. Panembahan, Malinau Kota, Kec. Malinau Kota, Kabupaten Malinau",KALIMANTAN UTARA,77554.0,Indonesia,81256523196.0,,,3.5829033,116.6188194,https://maps.google.com/?cid=0x0:0x628b0534b94d1660,
supermarket,Toko Swalayan,Toko Yusnimar Collecton Raja Alam,"HJMH+299, Jl. Raja Alam, Malinau Kota, Kec. Malinau Kota, Kabupaten Malinau, Kalimantan Utara 77554","Jl. Raja Alam, Malinau Kota, Kec. Malinau Kota, Kabupaten Malinau",KALIMANTAN UTARA,77554.0,Indonesia,,,,3.5825281,116.6284898,https://maps.google.com/?cid=0x0:0x59a38396638c4866,
supermarket,Toko,Toko AKMAL JAYA,"HJJH+MV5, Jl. Raja Alam, Malinau Kota, Kec. Malinau Kota, Kabupaten Malinau, Kalimantan Utara 77554","Jl. Raja Alam, Malinau Kota, Kec. Malinau Kota, Kabupaten Malinau",KALIMANTAN UTARA,77554.0,Indonesia,,,,3.5816348,116.6297453,https://maps.google.com/?cid=0x0:0x67205da3c63132cd,
supermarket,Toko,Toko Sembako Cahaya Bulungan Jaya,"HJHJ+6JC, Jl. Swadaya, Malinau Kota, Kec. Malinau Kota, Kabupaten Malinau, Kalimantan Utara 77554","Jl. Swadaya, Malinau Kota, Kec. Malinau Kota, Kabupaten Malinau",KALIMANTAN UTARA,77554.0,Indonesia,,,,3.5780513,116.6315276,https://maps.google.com/?cid=0x0:0x81ba0790ceeed2da,
supermarket,Toko,Toko Tonge So,"JJ9V+629, Unnamed Road, Kaliamok, Kec. Malinau Utara, Kabupaten Malinau, Kalimantan Utara 77554","Unnamed Road, Kaliamok, Kec. Malinau Utara, Kabupaten Malinau",KALIMANTAN UTARA,77554.0,Indonesia,,,,3.6180415,116.6426071,https://maps.google.com/?cid=0x0:0x88c6a28d173a5a09,
supermarket,Toko Swalayan,Toko Langgeng,"HJP9+MV9, Jl. Panembahan, Malinau Kota, Kec. Malinau Kota, Kabupaten Malinau, Kalimantan Utara 77554","Jl. Panembahan, Malinau Kota, Kec. Malinau Kota, Kabupaten Malinau",KALIMANTAN UTARA,77554.0,Indonesia,,,,3.5866707,116.6197223,https://maps.google.com/?cid=0x0:0xf00ca65d022bba88,
supermarket,supermarket,Kec. Malinau Utara,"Kabupaten Malinau, Kalimantan Utara","Kabupaten Malinau, Kalimantan Utara",KALIMANTAN UTARA,,Indonesia,,,,3.5926011,116.6196331,https://maps.google.com/?cid=0x0:0xb9f35c1d23aa16b7,
supermarket,Toko,PT Sinar Terang Mulia Bersama,"HJF6+V42, Pelita Kanaan, Kec. Malinau Kota, Kabupaten Malinau, Kalimantan Utara 77554","Pelita Kanaan, Kec. Malinau Kota, Kabupaten Malinau",KALIMANTAN UTARA,77554.0,Indonesia,5532022020.0,,,3.5746448,116.6102533,https://maps.google.com/?cid=0x0:0xa206fbd77c36a391,
supermarket,Toko Swalayan,Ramay Swalayan,"HJJF+W76, Jl. Raja Pandita, Malinau Kota, Kec. Malinau Kota, Kabupaten Malinau, Kalimantan Utara 77554","Jl. Raja Pandita, Malinau Kota, Kec. Malinau Kota, Kabupaten Malinau",KALIMANTAN UTARA,77554.0,Indonesia,,,,3.5822913,116.6231319,https://maps.google.com/?cid=0x0:0xbcffbf68c2ad9c8b,
supermarket,,Toko Nabil,"HJM9+CG5, Malinau Kota, Kec. Malinau Kota, Kabupaten Malinau, Kalimantan Utara 77554","Malinau Kota, Kec. Malinau Kota, Kabupaten Malinau",KALIMANTAN UTARA,77554.0,Indonesia,,,,3.5835225,116.6188661,https://maps.google.com/?cid=0x0:0x12e35453e595f71b,
supermarket,Toko Bahan Bangunan,Toko Jaya Indah 2,"Jl. Pemda, Malinau Hulu, Kec. Malinau Kota, Kabupaten Malinau, Kalimantan Utara 77554","Malinau Hulu, Kec. Malinau Kota, Kabupaten Malinau",KALIMANTAN UTARA,77554.0,Indonesia,,,,3.5684891,116.6073193,https://maps.google.com/?cid=0x0:0x9cf8f08b46cbe2a5,
supermarket,Toko Pakaian,TOKO AL FAZZA,"Unnamed Road, Malinau Kota, Kec. Malinau Kota, Kabupaten Malinau, Kalimantan Utara 77554","Malinau Kota, Kec. Malinau Kota, Kabupaten Malinau",KALIMANTAN UTARA,77554.0,Indonesia,82247774455.0,,,3.5893404,116.6443851,https://maps.google.com/?cid=0x0:0x9d89cddbccb355c6,
supermarket,Toko bahan makanan,Toko Sumber S,"Malinau Kota, Kec. Malinau Kota, Kabupaten Malinau, Kalimantan Utara 77554","Kec. Malinau Kota, Kabupaten Malinau",KALIMANTAN UTARA,77554.0,Indonesia,82133899888.0,,,3.5722528,116.6053257,https://maps.google.com/?cid=0x0:0x3b0b7705dd4df1de,
supermarket,Toko sembako pemerintah,TokÃ² Sembako Aldi,"jln trans kaltara rt 09, Malinau Seberang, Kec. Malinau Utara, Kabupaten Malinau, Kalimantan Utara 77554","Malinau Seberang, Kec. Malinau Utara, Kabupaten Malinau",KALIMANTAN UTARA,77554.0,Indonesia,85255455084.0,,,3.6064346,116.6242538,https://maps.google.com/?cid=0x0:0x13f5b42c556e8af0,
supermarket,Toko Bahan Bangunan,Toko Makmur Jaya 2,"HJG4+56H, Jl. Raja Pandita, Malinau Hulu, Kec. Malinau Kota, Kabupaten Malinau, Kalimantan Utara 77554","Jl. Raja Pandita, Malinau Hulu, Kec. Malinau Kota, Kabupaten Malinau",KALIMANTAN UTARA,77554.0,Indonesia,,,,3.5754442,116.6056134,https://maps.google.com/?cid=0x0:0x5a4399bfb5bba2aa,
supermarket,Grosir sayur,Toko Sinar Bintang,"Jl. AMD No.RT.16, Malinau Kota, Kec. Malinau Kota, Kabupaten Malinau, Kalimantan Utara 77554","Malinau Kota, Kec. Malinau Kota, Kabupaten Malinau",KALIMANTAN UTARA,77554.0,Indonesia,,,,3.5924329,116.6302968,https://maps.google.com/?cid=0x0:0xd32d675d44aa8045,
supermarket,Toko Swalayan,Tk Yusnimar Collection,"HJM9+5G8, Jl. Panembahan, Malinau Kota, Kec. Malinau Kota, Kabupaten Malinau, Kalimantan Utara 77554","Jl. Panembahan, Malinau Kota, Kec. Malinau Kota, Kabupaten Malinau",KALIMANTAN UTARA,77554.0,Indonesia,81256523196.0,,,3.5829033,116.6188194,https://maps.google.com/?cid=0x0:0x628b0534b94d1660,
supermarket,Toko,Toko Mulya Sabar,"HJJ9+QHH, Malinau Kota, Kec. Malinau Kota, Kabupaten Malinau, Kalimantan Utara 77554","Malinau Kota, Kec. Malinau Kota, Kabupaten Malinau",KALIMANTAN UTARA,77554.0,Indonesia,85249525656.0,,,3.5819282,116.6189849,https://maps.google.com/?cid=0x0:0x794559bcb60ec979,
supermarket,Toko bahan makanan,Toko Andi N,"HJRG+296, Jl. Duyan, Malinau Kota, Kec. Malinau Kota, Kabupaten Malinau, Kalimantan Utara 77554","Jl. Duyan, Malinau Kota, Kec. Malinau Kota, Kabupaten Malinau",KALIMANTAN UTARA,77554.0,Indonesia,85248717978.0,,,3.5900302,116.6259054,https://maps.google.com/?cid=0x0:0xb3d7873d5d05b6f2,
supermarket,Toko Swalayan,Toko Langgeng,"HJP9+MV9, Jl. Panembahan, Malinau Kota, Kec. Malinau Kota, Kabupaten Malinau, Kalimantan Utara 77554","Jl. Panembahan, Malinau Kota, Kec. Malinau Kota, Kabupaten Malinau",KALIMANTAN UTARA,77554.0,Indonesia,,,,3.5866707,116.6197223,https://maps.google.com/?cid=0x0:0xf00ca65d022bba88,
supermarket,Toko,Diah flower,"HJMV+MVF, Unnamed Road, Malinau Kota, Kec. Malinau Kota, Kabupaten Malinau, Kalimantan Utara 77554","Unnamed Road, Malinau Kota, Kec. Malinau Kota, Kabupaten Malinau",KALIMANTAN UTARA,77554.0,Indonesia,,,,3.5841923,116.6446751,https://maps.google.com/?cid=0x0:0x8d2ea42cc24c6cdf,
supermarket,Toko Swalayan,Toko Yusnimar Collecton Raja Alam,"HJMH+299, Jl. Raja Alam, Malinau Kota, Kec. Malinau Kota, Kabupaten Malinau, Kalimantan Utara 77554","Jl. Raja Alam, Malinau Kota, Kec. Malinau Kota, Kabupaten Malinau",KALIMANTAN UTARA,77554.0,Indonesia,,,,3.5825281,116.6284898,https://maps.google.com/?cid=0x0:0x59a38396638c4866,
supermarket,Toko,Toko AKMAL JAYA,"HJJH+MV5, Jl. Raja Alam, Malinau Kota, Kec. Malinau Kota, Kabupaten Malinau, Kalimantan Utara 77554","Jl. Raja Alam, Malinau Kota, Kec. Malinau Kota, Kabupaten Malinau",KALIMANTAN UTARA,77554.0,Indonesia,,,,3.5816348,116.6297453,https://maps.google.com/?cid=0x0:0x67205da3c63132cd,
supermarket,Toko bahan makanan,Toko Melfah Jaya,"HJVQ+223, Unnamed Road, Malinau Kota, Kec. Malinau Kota, Kabupaten Malinau, Kalimantan Utara 77554","Unnamed Road, Malinau Kota, Kec. Malinau Kota, Kabupaten Malinau",KALIMANTAN UTARA,77554.0,Indonesia,85247177200.0,,,3.5925003,116.6375394,https://maps.google.com/?cid=0x0:0x708ab0dba5c26b3b,
supermarket,Toko bahan makanan,Nasa  Online Shop,"HJWQ+8P5, Jl. AMD, Malinau Kota, Kec. Malinau Kota, Kabupaten Malinau, Kalimantan Utara 77554","Jl. AMD, Malinau Kota, Kec. Malinau Kota, Kabupaten Malinau",KALIMANTAN UTARA,77554.0,Indonesia,81258287833.0,,,3.595757,116.63937,https://maps.google.com/?cid=0x0:0x84a1677167c2fbe7,
supermarket,Toko umum,Kios Qia MAT'77 ( Tuju Tuju ),"HJ77+5V9, Jl. Lintas Kalimantan Poros Selatan, Malinau Hulu, Kec. Malinau Kota, Kabupaten Malinau, Kalimantan Utara 77554","Jl. Lintas Kalimantan Poros Selatan, Malinau Hulu, Kec. Malinau Kota, Kabupaten Malinau",KALIMANTAN UTARA,77554.0,Indonesia,82350000666.0,,,3.5629181,116.6147359,https://maps.google.com/?cid=0x0:0x1d0c173dd86f63ac,
supermarket,Pusat Perbelanjaan,Toko Anugerah,"HJG5+7HQ, Pelita Kanaan, Kec. Malinau Kota, Kabupaten Malinau, Kalimantan Utara 77554","Pelita Kanaan, Kec. Malinau Kota, Kabupaten Malinau",KALIMANTAN UTARA,77554.0,Indonesia,,,,3.5757016,116.608998,https://maps.google.com/?cid=0x0:0xb3fb037f9bc2620a,
supermarket,supermarket,Kalimantan Utara 77555,"Kabupaten Malinau, Kalimantan Utara","Kabupaten Malinau, Kalimantan Utara",KALIMANTAN UTARA,,Indonesia,,,,3.4347306,116.1359431,https://maps.google.com/?cid=0x0:0xfbf6305152defd8,
supermarket,Minimarket,Mc mentarang,"Jln Mulawarman No.RT 1, Mentarang Baru, Kec. Mentarang, Kabupaten Malinau, Kalimantan Utara 77554","Mentarang Baru, Kec. Mentarang, Kabupaten Malinau",KALIMANTAN UTARA,77554.0,Indonesia,85248002442.0,,,3.5820723,116.4077156,https://maps.google.com/?cid=0x0:0x1c655897e832bb9d,
supermarket,Pusat Perbelanjaan,Mini Market Amanda Mulia,"Unnamed Road, 77554, Respen Tubu, Kec. Malinau Utara, Kabupaten Malinau, Kalimantan Utara 77554","77554, Respen Tubu, Kec. Malinau Utara, Kabupaten Malinau",KALIMANTAN UTARA,77554.0,Indonesia,81256145900.0,,,3.6015395,116.6094197,https://maps.google.com/?cid=0x0:0x33cd217392174c4d,
supermarket,Minimarket,Mc mentarang,"Jln Mulawarman No.RT 1, Mentarang Baru, Kec. Mentarang, Kabupaten Malinau, Kalimantan Utara 77554","Mentarang Baru, Kec. Mentarang, Kabupaten Malinau",KALIMANTAN UTARA,77554.0,Indonesia,85248002442.0,,,3.5820723,116.4077156,https://maps.google.com/?cid=0x0:0x1c655897e832bb9d,
supermarket,Minimarket,Warung Mugang,"JM92+GV3, Unnamed Road, Lubok Manis, Malinau Utara, Malinau Regency, North Kalimantan 77554","Unnamed Road, Lubok Manis, Malinau Utara, Malinau Regency",KALIMANTAN UTARA,77554.0,Indonesia,,,,3.6187681,116.6521796,https://maps.google.com/?cid=0x0:0xf67c73d33e3bcba8,
supermarket,supermarket,Yusnimar Collection,"32FR+6HJ, Long Nyau, kalimatan utara, Kabupaten Malinau, Kalimantan Utara 77554","Long Nyau, kalimatan utara, Kabupaten Malinau",KALIMANTAN UTARA,77554.0,Indonesia,,,,3.0730928,116.0413889,https://maps.google.com/?cid=0x0:0xaafd9090dc8ec8af,
supermarket,Kafe,Warung Bu Vina,"M2H4+RF2, Pupuan, Kec. Pupuan, Kabupaten Tabanan, Bali 82163","Pupuan, Kec. Pupuan, Kabupaten Tabanan",KALIMANTAN UTARA,82163.0,Indonesia,,,,-8.3204793,115.0061314,https://maps.google.com/?cid=0x0:0xefbf1af70911b8ae,
supermarket,Minimarket,Indomaret Pujungan,"M2GH+5W2, Pujungan, Kec. Pupuan, Kabupaten Tabanan, Bali 82163","Pujungan, Kec. Pupuan, Kabupaten Tabanan",KALIMANTAN UTARA,82163.0,Indonesia,,,,-8.3246039,115.0297663,https://maps.google.com/?cid=0x0:0xa0a98f11b5906a5e,
supermarket,Toko,Warung Bu Susi,"J2V8+QQM, Unnamed Road, Padangan, Kec. Pupuan, Kabupaten Tabanan, Bali 82163","Unnamed Road, Padangan, Kec. Pupuan, Kabupaten Tabanan",KALIMANTAN UTARA,82163.0,Indonesia,87771837202.0,,,-8.3555469,115.0169152,https://maps.google.com/?cid=0x0:0x6fbe475dd8603ca7,
supermarket,Toko bahan makanan,TOKO PANDYA,"Dusun Batungsel Kelod, Batungsel, Kec. Pupuan, Kabupaten Tabanan, Bali 82163","Batungsel, Kec. Pupuan, Kabupaten Tabanan",KALIMANTAN UTARA,82163.0,Indonesia,87877533526.0,,,-8.3477315,115.0299579,https://maps.google.com/?cid=0x0:0xdbc619d3c5a4244d,
supermarket,Toko Swalayan,Toko DANTI,"Jl. Raya Pupuan, Pupuan, Kec. Pupuan, Kabupaten Tabanan, Bali 82163","Pupuan, Kec. Pupuan, Kabupaten Tabanan",KALIMANTAN UTARA,82163.0,Indonesia,81558064711.0,,,-8.3175665,115.005922,https://maps.google.com/?cid=0x0:0x281d4fcf2cf69f9,
supermarket,Toko bahan makanan,Wr. Raditya,"M2CH+HMG, Jl. Tri Kahyangan, Pujungan, Kec. Pupuan, Kabupaten Tabanan, Bali 82163","Jl. Tri Kahyangan, Pujungan, Kec. Pupuan, Kabupaten Tabanan",KALIMANTAN UTARA,82163.0,Indonesia,,,,-8.3285561,115.0292145,https://maps.google.com/?cid=0x0:0x34243d17951efc19,
supermarket,Toko Swalayan,Cinta Toserba,"M26J+5X8, Batungsel, Kec. Pupuan, Kabupaten Tabanan, Bali 82163","Batungsel, Kec. Pupuan, Kabupaten Tabanan",KALIMANTAN UTARA,82163.0,Indonesia,,,,-8.3395934,115.0324655,https://maps.google.com/?cid=0x0:0xb1cb6317f144561d,
supermarket,Toko bahan makanan,Toko BAS JAYA,"M2J4+W94, terminal, Pupuan, Kec. Pupuan, Kabupaten Tabanan, Bali 82163","terminal, Pupuan, Kec. Pupuan, Kabupaten Tabanan",KALIMANTAN UTARA,82163.0,Indonesia,81999918994.0,,,-8.3177284,115.0059519,https://maps.google.com/?cid=0x0:0x1640a020f8853b8f,
supermarket,Minimarket,ALFAMART PUPUAN,"Jl. Gajah Mada, Pupuan, Kec. Pupuan, Kab. Tabanan, Bali 82163","Pupuan, Kec. Pupuan, Kab. Tabanan",KALIMANTAN UTARA,82163.0,Indonesia,1500959.0,,,-8.3178858,115.0074687,https://maps.google.com/?cid=0x0:0x8c9c2311d59b42ec,
supermarket,Toko,Warung buk abi,"M22M+J5R, Batungsel, Kec. Pupuan, Kabupaten Tabanan, Bali 82163","Batungsel, Kec. Pupuan, Kabupaten Tabanan",KALIMANTAN UTARA,82163.0,Indonesia,,,,-8.3483969,115.0328978,https://maps.google.com/?cid=0x0:0x2b409a9af710f9fd,
supermarket,Toko bahan makanan,WPM JUNA ANUGRAH,"P22H+V4J Br Atuh, Bengkel, Kec. Busung Biu, Kabupaten Buleleng, Bali 81154","Bengkel, Kec. Busung Biu, Kabupaten Buleleng",KALIMANTAN UTARA,81154.0,Indonesia,,,,-8.2977865,115.0277808,https://maps.google.com/?cid=0x0:0xf46e64b1e1ed7e89,
supermarket,Toko Swalayan,UD.Mulya,"UD.Mulya, Pasar Tradisional, Jl. Gajah Mada, Pupuan, Kec. Pupuan, Kabupaten Tabanan, Bali 82163","Pasar Tradisional, Jl. Gajah Mada, Pupuan, Kec. Pupuan, Kabupaten Tabanan",KALIMANTAN UTARA,82163.0,Indonesia,85857349268.0,,,-8.3172913,115.0059727,https://maps.google.com/?cid=0x0:0x548b4d7f36b7af9f,
supermarket,Toko,Warung Bu Dina,"M2GV+6Q8, Pujungan, Kec. Pupuan, Kabupaten Tabanan, Bali 82163","Pujungan, Kec. Pupuan, Kabupaten Tabanan",KALIMANTAN UTARA,82163.0,Indonesia,,,,-8.3248139,115.04415,https://maps.google.com/?cid=0x0:0x51b04dbb21b399eb,
supermarket,Toko Swalayan,UD.Mulya (2),"M2H2+P69, Jl. Simpang Sai Palace, Pupuan, Kec. Pupuan, Kabupaten Tabanan, Bali 82163","Jl. Simpang Sai Palace, Pupuan, Kec. Pupuan, Kabupaten Tabanan",KALIMANTAN UTARA,82163.0,Indonesia,87862967345.0,,,-8.3207024,115.0006096,https://maps.google.com/?cid=0x0:0x9e8fb244637f4afc,
supermarket,Toko Swalayan,Jegeg Bagus Mart,"Banyuatis, Kec. Banjar, Kabupaten Buleleng, Bali","Kabupaten Buleleng, Bali",KALIMANTAN UTARA,,Indonesia,819676555.0,,,-8.2602168,115.0286867,https://maps.google.com/?cid=0x0:0x833ac5e8473a3bbb,
supermarket,Toko Swalayan,Warung Buk Khrisna,"M2J3+C73, Jl. Gajah Mada, Pupuan, Kec. Pupuan, Kabupaten Tabanan, Bali 82163","Jl. Gajah Mada, Pupuan, Kec. Pupuan, Kabupaten Tabanan",KALIMANTAN UTARA,82163.0,Indonesia,81805528920.0,,,-8.3189963,115.0031597,https://maps.google.com/?cid=0x0:0x5e68633cfca3506,
supermarket,supermarket,Kalimantan Timur 77573,"Kabupaten Malinau, Kalimantan Timur","Kabupaten Malinau, Kalimantan Timur",KALIMANTAN UTARA,,Indonesia,,,,1.4464714,115.188916,https://maps.google.com/?cid=0x0:0x791588811899f0cb,
supermarket,Toko sembako pemerintah,TokÃ² Sembako Aldi,"jln trans kaltara rt 09, Malinau Seberang, Kec. Malinau Utara, Kabupaten Malinau, Kalimantan Utara 77554","Malinau Seberang, Kec. Malinau Utara, Kabupaten Malinau",KALIMANTAN UTARA,77554.0,Indonesia,85255455084.0,,,3.6064346,116.6242538,https://maps.google.com/?cid=0x0:0x13f5b42c556e8af0,
supermarket,supermarket,Toko Rudi Ahong,"GHPQ+PVJ, Tj. Lapang, Kec. Malinau Bar., Kabupaten Malinau, Kalimantan Utara 77554","Tj. Lapang, Kec. Malinau Bar., Kabupaten Malinau",KALIMANTAN UTARA,77554.0,Indonesia,,,,3.5368351,116.5896299,https://maps.google.com/?cid=0x0:0x8ac13586eb2869ee,
supermarket,supermarket,Kalimantan Utara 77555,"Kabupaten Malinau, Kalimantan Utara","Kabupaten Malinau, Kalimantan Utara",KALIMANTAN UTARA,,Indonesia,,,,3.4347306,116.1359431,https://maps.google.com/?cid=0x0:0xfbf6305152defd8,
supermarket,Toko umum,Kios Qia MAT'77 ( Tuju Tuju ),"HJ77+5V9, Jl. Lintas Kalimantan Poros Selatan, Malinau Hulu, Kec. Malinau Kota, Kabupaten Malinau, Kalimantan Utara 77554","Jl. Lintas Kalimantan Poros Selatan, Malinau Hulu, Kec. Malinau Kota, Kabupaten Malinau",KALIMANTAN UTARA,77554.0,Indonesia,82350000666.0,,,3.5629181,116.6147359,https://maps.google.com/?cid=0x0:0x1d0c173dd86f63ac,
supermarket,Toko Swalayan,Ramay Swalayan,"HJJF+W76, Jl. Raja Pandita, Malinau Kota, Kec. Malinau Kota, Kabupaten Malinau, Kalimantan Utara 77554","Jl. Raja Pandita, Malinau Kota, Kec. Malinau Kota, Kabupaten Malinau",KALIMANTAN UTARA,77554.0,Indonesia,,,,3.5822913,116.6231319,https://maps.google.com/?cid=0x0:0xbcffbf68c2ad9c8b,
supermarket,Toko Swalayan,STB Supermarket Mulawarman,"8H9G+PMQ, Jl. Mulawarman, Karang Anyar Pantai, Kec. Tarakan Bar., Kota Tarakan, Kalimantan Utara","Kota Tarakan, Kalimantan Utara",KALIMANTAN UTARA,,Indonesia,,,,3.3193321,117.5767281,https://maps.google.com/?cid=0x0:0x1411802f10274071,
supermarket,Toko grosir,Toko sabindo 2 (grosirecer),"Jl. Duyan No.RT 02, Malinau Kota, Kec. Malinau Kota, Kabupaten Malinau, Kalimantan Utara 77554","Malinau Kota, Kec. Malinau Kota, Kabupaten Malinau",KALIMANTAN UTARA,77554.0,Indonesia,82241240057.0,,,3.5923964,116.6293292,https://maps.google.com/?cid=0x0:0xed22de8919abdcac,
supermarket,Toko Swalayan,STB Mart Markoni,"RT 21 Markoni, Kalimantan Timur, Jl. Imam Bonjol, Pamusian, Kec. Tarakan Tengah, Kota Tarakan, Kalimantan Utara","Kota Tarakan, Kalimantan Utara",KALIMANTAN UTARA,,Indonesia,81299039555.0,,,3.3048312,117.6031583,https://maps.google.com/?cid=0x0:0xa054ad2c6f7992d7,
supermarket,supermarket,Yusnimar Collection,"32FR+6HJ, Long Nyau, kalimatan utara, Kabupaten Malinau, Kalimantan Utara 77554","Long Nyau, kalimatan utara, Kabupaten Malinau",KALIMANTAN UTARA,77554.0,Indonesia,,,,3.0730928,116.0413889,https://maps.google.com/?cid=0x0:0xaafd9090dc8ec8af,
supermarket,Toko bahan makanan,Toko Andi N,"HJRG+296, Jl. Duyan, Malinau Kota, Kec. Malinau Kota, Kabupaten Malinau, Kalimantan Utara 77554","Jl. Duyan, Malinau Kota, Kec. Malinau Kota, Kabupaten Malinau",KALIMANTAN UTARA,77554.0,Indonesia,85248717978.0,,,3.5900302,116.6259054,https://maps.google.com/?cid=0x0:0xb3d7873d5d05b6f2,
supermarket,supermarket,Kampung satu,"32FR+6HJ, Long Nyau, Sungai Tubu, Kabupaten Malinau, Kalimantan Utara 77554","Long Nyau, Sungai Tubu, Kabupaten Malinau",KALIMANTAN UTARA,77554.0,Indonesia,,,,3.0730929,116.0413889,https://maps.google.com/?cid=0x0:0xc071576becdc8155,
supermarket,Grosir sayur,Toko Sinar Bintang,"Jl. AMD No.RT.16, Malinau Kota, Kec. Malinau Kota, Kabupaten Malinau, Kalimantan Utara 77554","Malinau Kota, Kec. Malinau Kota, Kabupaten Malinau",KALIMANTAN UTARA,77554.0,Indonesia,,,,3.5924329,116.6302968,https://maps.google.com/?cid=0x0:0xd32d675d44aa8045,
