Category,Real Category,Business Name,Address,City,State,Postal Code,Country,Phone,Email,Website,Latitude,Longitude,Map Link,Details Link
komplek housing,komplek housing,Kalimantan Utara 77562,"Kabupaten Malinau, Kalimantan Utara","Kabupaten Malinau, Kalimantan Utara",KALIMANTAN UTARA,,Indonesia,,,,2.8627612,115.7575196,https://maps.google.com/?cid=0x0:0xfc58e4f0b107466e,
komplek housing,komplek housing,Kabupaten malinau,"32FR+6HJ, Long Nyau, Sungai Tubu, Kabupaten Malinau, Kalimantan Utara","Kabupaten Malinau, Kalimantan Utara",KALIMANTAN UTARA,,Indonesia,,,,3.0730929,116.0413889,https://maps.google.com/?cid=0x0:0x1be184e472ab0c6e,
komplek housing,Komplek perumahan,Desa long uli,"VV27+FJ6, Long Uli, Bahau Hulu, Kabupaten Malinau, Kalimantan Utara 77562","Long Uli, Bahau Hulu, Kabupaten Malinau",KALIMANTAN UTARA,77562.0,Indonesia,,,,2.8511535,115.8640062,https://maps.google.com/?cid=0x0:0x11dbee377e9bafc0,
komplek housing,Kantor Pemerintah,Kampung PuJungan,"HQQR+HFC, Long Pujungan, Pujungan, Kabupaten Malinau, Kalimantan Utara 77562","Long Pujungan, Pujungan, Kabupaten Malinau",KALIMANTAN UTARA,77562.0,Indonesia,,,,2.5900884,115.7917142,https://maps.google.com/?cid=0x0:0xd9e86156b7a75da3,
komplek housing,Pembangunan Perumahan,sebuku,"32FR+6HJ, Long Nyau, Sungai Tubu, Kabupaten Malinau, Kalimantan Utara","Kabupaten Malinau, Kalimantan Utara",KALIMANTAN UTARA,,Indonesia,,,,3.0730929,116.0413889,https://maps.google.com/?cid=0x0:0x5865e954b1ae200f,
komplek housing,Komplek perumahan,Kalam,"32FR+6HJ, Long Nyau, Sungai Tubu, Kabupaten Malinau, Kalimantan Utara","Kabupaten Malinau, Kalimantan Utara",KALIMANTAN UTARA,,Indonesia,,,,3.0730929,116.0413889,https://maps.google.com/?cid=0x0:0xb3cb64874ff44b50,
komplek housing,Pembangunan Perumahan,Divisi maret,"P348+G6J, Jalan stn Maret, Long Jl., Malinau Sel. Hulu, Kabupaten Malinau, Kalimantan Utara","Kabupaten Malinau, Kalimantan Utara",KALIMANTAN UTARA,,Indonesia,,,,2.7063381,116.0655064,https://maps.google.com/?cid=0x0:0x8459c705c6215503,
komplek housing,Perhimpunan Pengembang Perumahan,Maladi,"32FR+6HJ, Long Nyau, Sungai Tubu, Kabupaten Malinau, Kalimantan Utara","Kabupaten Malinau, Kalimantan Utara",KALIMANTAN UTARA,,Indonesia,,,,3.0730929,116.0413889,https://maps.google.com/?cid=0x0:0x4f376bd2699d33e7,
komplek housing,Pembangunan Perumahan,tanjungselor,"Long Nyau, Sungai Tubu, Kabupaten Malinau, Kalimantan Utara","Kabupaten Malinau, Kalimantan Utara",KALIMANTAN UTARA,,Indonesia,,,,3.0730929,116.0413889,https://maps.google.com/?cid=0x0:0xb3786bc57f7fd6e,
komplek housing,Komplek perumahan,Long Pada,"2398+62J, Long Pada, Sungai Tubu, Kabupaten Malinau, Kalimantan Utara 77554","Long Pada, Sungai Tubu, Kabupaten Malinau",KALIMANTAN UTARA,77554.0,Indonesia,,,,3.0180833,116.0650307,https://maps.google.com/?cid=0x0:0x594fbc6f371a4833,
komplek housing,komplek housing,Kalimantan Timur 77571,"Kabupaten Malinau, Kalimantan Timur","Kabupaten Malinau, Kalimantan Timur",KALIMANTAN UTARA,,Indonesia,,,,2.0788216,115.4733554,https://maps.google.com/?cid=0x0:0xb13d2a74271bea6e,
komplek housing,komplek housing,Kayan Hilir,"Kabupaten Malinau, Kalimantan Utara","Kabupaten Malinau, Kalimantan Utara",KALIMANTAN UTARA,,Indonesia,,,,2.0788216,115.4733554,https://maps.google.com/?cid=0x0:0x429213980e387789,
komplek housing,komplek housing,Uma’ Juto,"QVJX+VM6, RT VI, Nawang Baru, Kec. Kayan Hulu, Kabupaten Malinau, Kalimantan Utara 77572","RT VI, Nawang Baru, Kec. Kayan Hulu, Kabupaten Malinau",KALIMANTAN UTARA,77572.0,Indonesia,,,,1.7821662,114.8991387,https://maps.google.com/?cid=0x0:0xee7692fa22d9cd5b,
komplek housing,Komplek perumahan,Apau kayan,"HJMX+M4M, Malinau Kota, Kec. Malinau Kota, Kabupaten Malinau, Kalimantan Utara","Kabupaten Malinau, Kalimantan Utara",KALIMANTAN UTARA,,Indonesia,,,,3.584221,116.647797,https://maps.google.com/?cid=0x0:0x21b1a34f6b9f3c44,
komplek housing,Komplek perumahan,Long Uro,"MXJX+8H, Long Uro, Kayan Sel., Kabupaten Malinau, Kalimantan Utara","Kabupaten Malinau, Kalimantan Utara",KALIMANTAN UTARA,,Indonesia,,,,1.6813515,114.9977823,https://maps.google.com/?cid=0x0:0x9f9d56e8e7efdd9b,
komplek housing,Pembangunan Perumahan,Agung Baru,"F9MM+H83, Agung Baru, Sungai Boh, Kabupaten Malinau, Kalimantan Utara","Kabupaten Malinau, Kalimantan Utara",KALIMANTAN UTARA,,Indonesia,,,,1.4838896,115.3832838,https://maps.google.com/?cid=0x0:0xe25446b02cab422c,
komplek housing,Kantor Pemerintah,POS LONG AMPUNG,"PXF8+2G4, Long Ampung, Kayan Sel., Kabupaten Malinau, Kalimantan Utara","Kabupaten Malinau, Kalimantan Utara",KALIMANTAN UTARA,,Indonesia,,,,1.7225224,114.9663415,https://maps.google.com/?cid=0x0:0x2426fc16d04e6670,
komplek housing,Kantor Pemerintah,Kampung PuJungan,"HQQR+HFC, Long Pujungan, Pujungan, Kabupaten Malinau, Kalimantan Utara 77562","Long Pujungan, Pujungan, Kabupaten Malinau",KALIMANTAN UTARA,77562.0,Indonesia,,,,2.5900884,115.7917142,https://maps.google.com/?cid=0x0:0xd9e86156b7a75da3,
komplek housing,komplek housing,Kalimantan Barat 78693,"Kabupaten Sintang, Kalimantan Barat","Kabupaten Sintang, Kalimantan Barat",KALIMANTAN UTARA,,Indonesia,,,,-0.0346027,111.9999435,https://maps.google.com/?cid=0x0:0xde0de64478083288,
komplek housing,komplek housing,Kayan Hilir,"Kabupaten Malinau, Kalimantan Utara","Kabupaten Malinau, Kalimantan Utara",KALIMANTAN UTARA,,Indonesia,,,,2.0788216,115.4733554,https://maps.google.com/?cid=0x0:0x429213980e387789,
komplek housing,komplek housing,Belimbing,"VWMC+6X4, Nanga Mau, Kec. Kayan Hilir, Kabupaten Sintang, Kalimantan Barat 78693","Nanga Mau, Kec. Kayan Hilir, Kabupaten Sintang",KALIMANTAN UTARA,78693.0,Indonesia,,,,-0.116983,111.9224398,https://maps.google.com/?cid=0x0:0xf74098e740c92c04,
komplek housing,Kompleks Apartemen,MARSUDI HOME,"3X48+QF4, Melingkat, Kec. Kayan Hilir, Kabupaten Sintang, Kalimantan Barat 78693","Melingkat, Kec. Kayan Hilir, Kabupaten Sintang",KALIMANTAN UTARA,78693.0,Indonesia,,,,0.0569658,111.9661793,https://maps.google.com/?cid=0x0:0xee2d35acd6991c9,
komplek housing,komplek housing,Kec. Kayan Hilir,"Kabupaten Sintang, Kalimantan Barat","Kabupaten Sintang, Kalimantan Barat",KALIMANTAN UTARA,,Indonesia,,,,-0.0346259,111.9045541,https://maps.google.com/?cid=0x0:0xd022486caa0e23e2,
komplek housing,Perhimpunan Pengembang Perumahan,Lengkong Bindu,"VWMC+6X4, Nanga Mau, Kec. Kayan Hilir, Kabupaten Sintang, Kalimantan Barat 78693","Nanga Mau, Kec. Kayan Hilir, Kabupaten Sintang",KALIMANTAN UTARA,78693.0,Indonesia,,,,-0.116983,111.9224398,https://maps.google.com/?cid=0x0:0x715b7d12938e0de6,
komplek housing,Komplek perumahan,Rumah Dinas Sekrertaris GKII Daerah Kayan,"VWPG+QMV, Nanga Mau, Kec. Kayan Hilir, Kabupaten Sintang, Kalimantan Barat 78693","Nanga Mau, Kec. Kayan Hilir, Kabupaten Sintang",KALIMANTAN UTARA,78693.0,Indonesia,,,,-0.1131804,111.9262845,https://maps.google.com/?cid=0x0:0xe6d939bb18fba272,
komplek housing,Pembangunan Perumahan,Rumah Yakop,"XWGH+JW8, Nanga Tikan, Kec. Kayan Hilir, Kabupaten Sintang, Kalimantan Barat 78693","Nanga Tikan, Kec. Kayan Hilir, Kabupaten Sintang",KALIMANTAN UTARA,78693.0,Indonesia,,,,-0.0232434,111.9302991,https://maps.google.com/?cid=0x0:0x82646af656d61317,
komplek housing,Komplek perumahan,Rumah Yosef Adi,"WW6F+C66, Mekar Mandiri, Kec. Kayan Hilir, Kabupaten Sintang, Kalimantan Barat 78693","Mekar Mandiri, Kec. Kayan Hilir, Kabupaten Sintang",KALIMANTAN UTARA,78693.0,Indonesia,,,,-0.0889581,111.9235765,https://maps.google.com/?cid=0x0:0x1bf873a5a97f1406,
komplek housing,Pusat Perkumpulan Remaja,Laman bujangk,"VRQ3+2F, Mentunai, Kec. Kayan Hilir, Kabupaten Sintang, Kalimantan Barat 78693","Mentunai, Kec. Kayan Hilir, Kabupaten Sintang",KALIMANTAN UTARA,78693.0,Indonesia,,,,-0.1123014,111.8036226,https://maps.google.com/?cid=0x0:0x24abc33cd2d1d50,
komplek housing,Komplek perumahan,Desa Nanga Lidau kecamatan kayan hilir,"3F8Q+HMC Kode pos 78693, Desa, Nanga Lidau, Kecamatan Kayan Hilir, Kabupaten Sintang, Kalimantan Barat","Kabupaten Sintang, Kalimantan Barat",KALIMANTAN UTARA,,Indonesia,,,,0.0664253,111.4891515,https://maps.google.com/?cid=0x0:0x3c60c061d072e34c,
komplek housing,Pertanian,Mess pacitan PT.SML,"XWPC+RX4, Nanga Tikan, Kec. Kayan Hilir, Kabupaten Sintang, Kalimantan Barat 78693","Nanga Tikan, Kec. Kayan Hilir, Kabupaten Sintang",KALIMANTAN UTARA,78693.0,Indonesia,81257579374.0,,,-0.0129791,111.9224398,https://maps.google.com/?cid=0x0:0xffa0716bbeb8e815,
komplek housing,Area Mendaki,Desa Pakak,"23V5+7RV, Pakak, Kec. Kayan Hilir, Kabupaten Sintang, Kalimantan Barat 78693","Pakak, Kec. Kayan Hilir, Kabupaten Sintang",KALIMANTAN UTARA,78693.0,Indonesia,,,,0.0432404,112.0595603,https://maps.google.com/?cid=0x0:0xedb5ae1a9b44a736,
komplek housing,Komplek perumahan,Rumah Marselinus Dayak barai,"RQXX+3G8, Nanga lidau, Kec. Kayan Hilir, Kabupaten Sintang, Kalimantan Barat 78693","Nanga lidau, Kec. Kayan Hilir, Kabupaten Sintang",KALIMANTAN UTARA,78693.0,Indonesia,,,,-0.1521666,111.7984894,https://maps.google.com/?cid=0x0:0x769d20b1d169c0ed,
komplek housing,komplek housing,Kalimantan Utara 77572,"Kabupaten Malinau, Kalimantan Utara","Kabupaten Malinau, Kalimantan Utara",KALIMANTAN UTARA,,Indonesia,,,,1.7685873,114.8567482,https://maps.google.com/?cid=0x0:0xc91e33de5fc1b909,
komplek housing,komplek housing,Uma’ Juto,"QVJX+VM6, RT VI, Nawang Baru, Kec. Kayan Hulu, Kabupaten Malinau, Kalimantan Utara 77572","RT VI, Nawang Baru, Kec. Kayan Hulu, Kabupaten Malinau",KALIMANTAN UTARA,77572.0,Indonesia,,,,1.7821662,114.8991387,https://maps.google.com/?cid=0x0:0xee7692fa22d9cd5b,
komplek housing,komplek housing,Kec. Kayan Hulu,"Kabupaten Malinau, Kalimantan Utara","Kabupaten Malinau, Kalimantan Utara",KALIMANTAN UTARA,,Indonesia,,,,1.7772932,115.0183619,https://maps.google.com/?cid=0x0:0x9aac24f2a499af17,
komplek housing,Kantor Pemerintah,POS LONG AMPUNG,"PXF8+2G4, Long Ampung, Kayan Sel., Kabupaten Malinau, Kalimantan Utara","Kabupaten Malinau, Kalimantan Utara",KALIMANTAN UTARA,,Indonesia,,,,1.7225224,114.9663415,https://maps.google.com/?cid=0x0:0x2426fc16d04e6670,
komplek housing,komplek housing,Kalimantan Barat 78694,"Kec. Kayan Hulu, Kabupaten Sintang, Kalimantan Barat","Kabupaten Sintang, Kalimantan Barat",KALIMANTAN UTARA,,Indonesia,,,,-0.0690749,112.3337769,https://maps.google.com/?cid=0x0:0xf1565987c85b5ec9,
komplek housing,komplek housing,Kec. Kayan Hulu,"Kabupaten Malinau, Kalimantan Utara","Kabupaten Malinau, Kalimantan Utara",KALIMANTAN UTARA,,Indonesia,,,,1.7772932,115.0183619,https://maps.google.com/?cid=0x0:0x9aac24f2a499af17,
komplek housing,komplek housing,Kalimantan Utara,,Kalimantan Utara,KALIMANTAN UTARA,,Indonesia,,,,3.0730929,116.0413889,https://maps.google.com/?cid=0x0:0x1911f0dd6846b988,
komplek housing,komplek housing,Kec. Kayan Hulu,"Kabupaten Sintang, Kalimantan Barat","Kabupaten Sintang, Kalimantan Barat",KALIMANTAN UTARA,,Indonesia,,,,-0.0690749,112.3337769,https://maps.google.com/?cid=0x0:0x7fc8301ffc8f1190,
komplek housing,Pembangunan Perumahan,NANGA TONGGOI,"Q3CW+R44, Nanga Tonggoi, Kec. Kayan Hulu, Kabupaten Sintang, Kalimantan Barat 78694","Nanga Tonggoi, Kec. Kayan Hulu, Kabupaten Sintang",KALIMANTAN UTARA,78694.0,Indonesia,,,,-0.2279978,112.0953429,https://maps.google.com/?cid=0x0:0x1c7f4fc47f55c651,
komplek housing,Komplek perumahan,Rumah meme,"V34J+XWV, Nanga Tebidah, Kec. Kayan Hulu, Kabupaten Sintang, Kalimantan Barat 78694","Nanga Tebidah, Kec. Kayan Hulu, Kabupaten Sintang",KALIMANTAN UTARA,78694.0,Indonesia,,,,-0.141907,112.083118,https://maps.google.com/?cid=0x0:0x7bc95670895386ee,
komplek housing,Komplek perumahan,Rumah Tempat tempat tinggal,"V32G+PPH, Entogong, Kec. Kayan Hulu, Kabupaten Sintang, Kalimantan Barat 78694","Entogong, Kec. Kayan Hulu, Kabupaten Sintang",KALIMANTAN UTARA,78694.0,Indonesia,,,,-0.1481947,112.0768553,https://maps.google.com/?cid=0x0:0xf13f9afd697c7102,
komplek housing,Komplek perumahan,Rumah hairil/pakcu,"V34P+752, Nanga Tebidah, Kec. Kayan Hulu, Kabupaten Sintang, Kalimantan Barat 78694","Nanga Tebidah, Kec. Kayan Hulu, Kabupaten Sintang",KALIMANTAN UTARA,78694.0,Indonesia,,,,-0.145063,112.0852995,https://maps.google.com/?cid=0x0:0x9b5d969181fb98f,
komplek housing,Komplek perumahan,kerapuk jaya,"X6R3+G3R, Kerapuk Jaya, Kec. Kayan Hulu, Kabupaten Sintang, Kalimantan Barat 78694","Kerapuk Jaya, Kec. Kayan Hulu, Kabupaten Sintang",KALIMANTAN UTARA,78694.0,Indonesia,,,,-0.0086351,112.2026347,https://maps.google.com/?cid=0x0:0x1cbb24ec57f7d2f,
komplek housing,Komplek perumahan,Rumah Baim,"V34Q+WCW, Landau Bara, Kec. Kayan Hulu, Kabupaten Sintang, Kalimantan Barat 78694","Landau Bara, Kec. Kayan Hulu, Kabupaten Sintang",KALIMANTAN UTARA,78694.0,Indonesia,,,,-0.1426375,112.0885781,https://maps.google.com/?cid=0x0:0xd27860fb5cfc2d87,
komplek housing,Perhimpunan Pengembang Perumahan,Atot Familly,"R4X4+432, Topan Nanga, Kec. Kayan Hulu, Kabupaten Sintang, Kalimantan Barat 78694","Topan Nanga, Kec. Kayan Hulu, Kabupaten Sintang",KALIMANTAN UTARA,78694.0,Indonesia,,,,-0.1522259,112.1051493,https://maps.google.com/?cid=0x0:0x8344efbd1f377483,
komplek housing,Komplek perumahan,Rumah Mala anak pak L dan ibu M hahaa,"V33H+73P, Entogong, Kec. Kayan Hulu, Kabupaten Sintang, Kalimantan Barat 78694","Entogong, Kec. Kayan Hulu, Kabupaten Sintang",KALIMANTAN UTARA,78694.0,Indonesia,,,,-0.1464233,112.0775212,https://maps.google.com/?cid=0x0:0xf19736cfb4de6171,
komplek housing,Perhimpunan Pengembang Perumahan,"Rumah Pak Wartam,Sekretaris Desa Nanga Abai.","X54H+PG7, Dusun Riam Poring, Nanga Abai, Kec. Kayan Hulu, Kabupaten Sintang, Kalimantan Barat 78694","Dusun Riam Poring, Nanga Abai, Kec. Kayan Hulu, Kabupaten Sintang",KALIMANTAN UTARA,78694.0,Indonesia,,,,-0.0432038,112.1787896,https://maps.google.com/?cid=0x0:0xdf0a191be32ea497,
komplek housing,komplek housing,Kalimantan Timur 77573,"Kabupaten Malinau, Kalimantan Timur","Kabupaten Malinau, Kalimantan Timur",KALIMANTAN UTARA,,Indonesia,,,,1.4464714,115.188916,https://maps.google.com/?cid=0x0:0x791588811899f0cb,
komplek housing,Komplek perumahan,Long Uro,"MXJX+8H, Long Uro, Kayan Sel., Kabupaten Malinau, Kalimantan Utara","Kabupaten Malinau, Kalimantan Utara",KALIMANTAN UTARA,,Indonesia,,,,1.6813515,114.9977823,https://maps.google.com/?cid=0x0:0x9f9d56e8e7efdd9b,
komplek housing,Kantor Pemerintah,POS LONG AMPUNG,"PXF8+2G4, Long Ampung, Kayan Sel., Kabupaten Malinau, Kalimantan Utara","Kabupaten Malinau, Kalimantan Utara",KALIMANTAN UTARA,,Indonesia,,,,1.7225224,114.9663415,https://maps.google.com/?cid=0x0:0x2426fc16d04e6670,
komplek housing,Pembangunan Perumahan,Agung Baru,"F9MM+H83, Agung Baru, Sungai Boh, Kabupaten Malinau, Kalimantan Utara","Kabupaten Malinau, Kalimantan Utara",KALIMANTAN UTARA,,Indonesia,,,,1.4838896,115.3832838,https://maps.google.com/?cid=0x0:0xe25446b02cab422c,
komplek housing,Komplek perumahan,SATGAS PAMTAS POS LONG AMPUNG,"8XV2+GMV, Long Ampung, Kayan Sel., Kabupaten Malinau, Kalimantan Utara","Kabupaten Malinau, Kalimantan Utara",KALIMANTAN UTARA,,Indonesia,,,,1.3438635,114.9516869,https://maps.google.com/?cid=0x0:0xed634fd516eadc06,
komplek housing,Komplek perumahan,Apau kayan,"HJMX+M4M, Malinau Kota, Kec. Malinau Kota, Kabupaten Malinau, Kalimantan Utara","Kabupaten Malinau, Kalimantan Utara",KALIMANTAN UTARA,,Indonesia,,,,3.584221,116.647797,https://maps.google.com/?cid=0x0:0x21b1a34f6b9f3c44,
komplek housing,komplek housing,Uma’ Juto,"QVJX+VM6, RT VI, Nawang Baru, Kec. Kayan Hulu, Kabupaten Malinau, Kalimantan Utara 77572","RT VI, Nawang Baru, Kec. Kayan Hulu, Kabupaten Malinau",KALIMANTAN UTARA,77572.0,Indonesia,,,,1.7821662,114.8991387,https://maps.google.com/?cid=0x0:0xee7692fa22d9cd5b,
komplek housing,komplek housing,Kec. Malinau Bar.,"Kabupaten Malinau, Kalimantan Utara","Kabupaten Malinau, Kalimantan Utara",KALIMANTAN UTARA,,Indonesia,,,,3.5374774,116.612704,https://maps.google.com/?cid=0x0:0xcb2568b300b5bd79,
komplek housing,komplek housing,Base Camp,"GJX7+W63, Malinau Hulu, Kec. Malinau Kota, Kabupaten Malinau, Kalimantan Utara 77554","Malinau Hulu, Kec. Malinau Kota, Kabupaten Malinau",KALIMANTAN UTARA,77554.0,Indonesia,,,,3.549737,116.612871,https://maps.google.com/?cid=0x0:0xc76063b065888d4,
komplek housing,Pembangunan Perumahan,Ocky S,"Jln. Pekuyut No.rt 008, Kuala Lapang, Kec. Malinau Bar., Kabupaten Malinau, Kalimantan Utara 77554","Kuala Lapang, Kec. Malinau Bar., Kabupaten Malinau",KALIMANTAN UTARA,77554.0,Indonesia,,,,3.4127072,116.5727815,https://maps.google.com/?cid=0x0:0xb27a91a1588beba5,
komplek housing,Komplek perumahan,Dendy Supardi,"GJQ6+PV4, Jl. Pedo, Kuala Lapang, Kec. Malinau Bar., Kabupaten Malinau, Kalimantan Utara 77554","Jl. Pedo, Kuala Lapang, Kec. Malinau Bar., Kabupaten Malinau",KALIMANTAN UTARA,77554.0,Indonesia,,,,3.5392587,116.6122086,https://maps.google.com/?cid=0x0:0xc003f15be3f213bb,
komplek housing,Lapangan Sepak Bola,kuala lapang,"GJP4+J9, Kuala Lapang, Kec. Malinau Bar., Kabupaten Malinau, Kalimantan Utara 77554","Kuala Lapang, Kec. Malinau Bar., Kabupaten Malinau",KALIMANTAN UTARA,77554.0,Indonesia,,,,3.5366552,116.6058816,https://maps.google.com/?cid=0x0:0x7dfc16600cd5cdc9,
komplek housing,Komplek perumahan,Verra home,"GJJ7+48G, Kuala Lapang, Kec. Malinau Bar., Kabupaten Malinau, Kalimantan Utara 77554","Kuala Lapang, Kec. Malinau Bar., Kabupaten Malinau",KALIMANTAN UTARA,77554.0,Indonesia,,,,3.5297806,116.6118162,https://maps.google.com/?cid=0x0:0xaee809ad398f178f,
komplek housing,Pembangunan Perumahan,Nae Jibe,"Jl. Kuala Lapang No.34, Kuala Lapang, Malinau Barat, Malinau Regency, North Kalimantan 77554","Kuala Lapang, Malinau Barat, Malinau Regency",KALIMANTAN UTARA,77554.0,Indonesia,,,,3.5301975,116.610374,https://maps.google.com/?cid=0x0:0x1fc1559b9753e47e,
komplek housing,Komplek perumahan,Tanamas Residence.,"GHJV+2RH, Unnamed Road, Tj. Lapang, Kec. Malinau Bar., Kabupaten Malinau, Kalimantan Utara 77554","Unnamed Road, Tj. Lapang, Kec. Malinau Bar., Kabupaten Malinau",KALIMANTAN UTARA,77554.0,Indonesia,,,,3.5300702,116.5946006,https://maps.google.com/?cid=0x0:0x9606e39ea58c67b9,
komplek housing,Pembangunan Perumahan,Belakang SMAN 1 Malinau,"HJ95+XJF, RT.10, Malinau Hulu, Kec. Malinau Kota, Kabupaten Malinau, Kalimantan Utara 77554","RT.10, Malinau Hulu, Kec. Malinau Kota, Kabupaten Malinau",KALIMANTAN UTARA,77554.0,Indonesia,,,,3.5699367,116.6090433,https://maps.google.com/?cid=0x0:0x8f2001f4ce17750e,
komplek housing,Pembangunan Perumahan,Gang.kerayan,"HJF4+328, Malinau Hulu, Kec. Malinau Kota, Kabupaten Malinau, Kalimantan Utara 77554","Malinau Hulu, Kec. Malinau Kota, Kabupaten Malinau",KALIMANTAN UTARA,77554.0,Indonesia,,,,3.5726337,116.6050647,https://maps.google.com/?cid=0x0:0x4d473dff5e5caa1,
komplek housing,Komplek perumahan,Birgita House,"HM92+7RF, Tj. Keranjang, Kec. Malinau Kota, Kabupaten Malinau, Kalimantan Utara","Kabupaten Malinau, Kalimantan Utara",KALIMANTAN UTARA,,Indonesia,,,,3.5681755,116.6520445,https://maps.google.com/?cid=0x0:0x5092c1b69094d9e2,
komplek housing,Pembangunan Perumahan,Punan Bengalun,"CM44+M4, Punan Bengalun, Kec. Malinau Bar., Kabupaten Malinau, Kalimantan Utara","Kabupaten Malinau, Kalimantan Utara",KALIMANTAN UTARA,,Indonesia,,,,3.4067302,116.6553312,https://maps.google.com/?cid=0x0:0xf5b69a47217538c4,
komplek housing,Komplek perumahan,Kuala lapang RT 6 malinau barat,"GJM8+M89 Simpang 4 bundaran, Kuala Lapang, Kec. Malinau Bar., Kabupaten Malinau, Kalimantan Utara","Kabupaten Malinau, Kalimantan Utara",KALIMANTAN UTARA,,Indonesia,,,,3.5341585,116.6158543,https://maps.google.com/?cid=0x0:0x9dd9d2733a1e88f6,
komplek housing,Pembangunan Perumahan,Hend family,"GJJ8+X2F, Kuala Lapang, Kec. Malinau Bar., Kabupaten Malinau, Kalimantan Utara 77554","Kuala Lapang, Kec. Malinau Bar., Kabupaten Malinau",KALIMANTAN UTARA,77554.0,Indonesia,,,,3.5325026,116.6150394,https://maps.google.com/?cid=0x0:0x7e134b5cfdbb4736,
komplek housing,Pembangunan Perumahan,Kalimantan utara,"GH8R+Q5X, Tj. Lapang, Kec. Malinau Bar., Kabupaten Malinau, Kalimantan Utara 77554","Tj. Lapang, Kec. Malinau Bar., Kabupaten Malinau",KALIMANTAN UTARA,77554.0,Indonesia,85248267819.0,,,3.516986,116.5904741,https://maps.google.com/?cid=0x0:0xcb9c7b273d38d88b,
komplek housing,Komplek perumahan,Altaf House,"HJXF+9Q2, Malinau Seberang, Kec. Malinau Utara, Kabupaten Malinau, Kalimantan Utara 77554","Malinau Seberang, Kec. Malinau Utara, Kabupaten Malinau",KALIMANTAN UTARA,77554.0,Indonesia,,,,3.5983941,116.6243906,https://maps.google.com/?cid=0x0:0xbdc6755cc3f07b15,
komplek housing,Pembangunan Perumahan,Rumah Ghani,"GH8R+Q5X, Tj. Lapang, Kec. Malinau Bar., Kabupaten Malinau, Kalimantan Utara 77554","Tj. Lapang, Kec. Malinau Bar., Kabupaten Malinau",KALIMANTAN UTARA,77554.0,Indonesia,,,,3.516986,116.5904741,https://maps.google.com/?cid=0x0:0x312a1b6950f053bb,
komplek housing,Komplek perumahan,Rumah Christopher,"JJ26+Q3R, Gg. Tubu, Respen Tubu, Kec. Malinau Utara, Kabupaten Malinau, Kalimantan Utara 77554","Gg. Tubu, Respen Tubu, Kec. Malinau Utara, Kabupaten Malinau",KALIMANTAN UTARA,77554.0,Indonesia,,,,3.6019902,116.6101551,https://maps.google.com/?cid=0x0:0xa58df94a78360074,
komplek housing,Komplek perumahan,BARINAI Residence,"Jalan Betlehem No.3, RT.6, Kuala Lapang, Kec. Malinau Bar., Kabupaten Malinau, Kalimantan Utara 77554","RT.6, Kuala Lapang, Kec. Malinau Bar., Kabupaten Malinau",KALIMANTAN UTARA,77554.0,Indonesia,,,,3.4127072,116.5727815,https://maps.google.com/?cid=0x0:0x6a4bca3ad829595b,
komplek housing,Pembangunan Perumahan,Ririn Home,"GJP6+49M, Kuala Lapang, Kec. Malinau Bar., Kabupaten Malinau, Kalimantan Utara 77554","Kuala Lapang, Kec. Malinau Bar., Kabupaten Malinau",KALIMANTAN UTARA,77554.0,Indonesia,,,,3.5357875,116.6117443,https://maps.google.com/?cid=0x0:0xf73ad2aab48055ab,
komplek housing,Komplek perumahan,Pudun Parir,"GHPR+X45, Jl. pendeta. Rt VI tanjung lapang, Tanjung Lapang, Kalimantan Timur, Tj. Lapang, Kec. Malinau Bar., Kabupaten Malinau, Kalimantan Utara 77554","Jl. pendeta. Rt VI tanjung lapang, Tanjung Lapang, Kalimantan Timur, Tj. Lapang, Kec. Malinau Bar., Kabupaten Malinau",KALIMANTAN UTARA,77554.0,Indonesia,,,,3.5373794,116.5903627,https://maps.google.com/?cid=0x0:0x3e3f5faa87ec2b89,
komplek housing,Pembangunan Perumahan,Rumah Aurel Abner,"CH7F+34M, Kuala Lapang, Kec. Malinau Bar., Kabupaten Malinau, Kalimantan Utara 77554","Kuala Lapang, Kec. Malinau Bar., Kabupaten Malinau",KALIMANTAN UTARA,77554.0,Indonesia,,,,3.4127072,116.5727815,https://maps.google.com/?cid=0x0:0xe8205d7ecec06b2c,
komplek housing,Pembangunan Perumahan,Rmh pk yun,"HJ62+WW2, RT.8, Malinau Hulu, Kec. Malinau Kota, Kabupaten Malinau, Kalimantan Utara 77554","RT.8, Malinau Hulu, Kec. Malinau Kota, Kabupaten Malinau",KALIMANTAN UTARA,77554.0,Indonesia,,,,3.5622634,116.6022684,https://maps.google.com/?cid=0x0:0xf166c55a2b375eae,
komplek housing,Pembangunan Perumahan,Rumah Antoni Thomas (Panyit),"CH7F+34M, Kuala Lapang, Kec. Malinau Bar., Kabupaten Malinau, Kalimantan Utara 77554","Kuala Lapang, Kec. Malinau Bar., Kabupaten Malinau",KALIMANTAN UTARA,77554.0,Indonesia,,,,3.4127072,116.5727815,https://maps.google.com/?cid=0x0:0xa94c27cb381b6a81,
komplek housing,Komplek perumahan,Parsi Parir,"GHPR+V99, Gg. Batu, Tj. Lapang, Kec. Malinau Bar., Kabupaten Malinau, Kalimantan Utara 77554","Gg. Batu, Tj. Lapang, Kec. Malinau Bar., Kabupaten Malinau",KALIMANTAN UTARA,77554.0,Indonesia,,,,3.5371579,116.5909739,https://maps.google.com/?cid=0x0:0x6e4a47bb51fe6a31,
komplek housing,Pembangunan Perumahan,Alex Family,"GJP7+HQQ, Kuala Lapang, Kec. Malinau Bar., Kabupaten Malinau, Kalimantan Utara 77554","Kuala Lapang, Kec. Malinau Bar., Kabupaten Malinau",KALIMANTAN UTARA,77554.0,Indonesia,,,,3.536682,116.6146106,https://maps.google.com/?cid=0x0:0x130fe7539472e4b5,
komplek housing,Komplek perumahan,Rio.t.h.simbolon,"GJP8+G44, Jalan, Kuala Lapang, Malinau Barat, Malinau Regency, North Kalimantan 77554","Jalan, Kuala Lapang, Malinau Barat, Malinau Regency",KALIMANTAN UTARA,77554.0,Indonesia,85345005038.0,,,3.5362577,116.6153156,https://maps.google.com/?cid=0x0:0xd54d8f84548b0a9e,
komplek housing,Pembangunan Perumahan,Juan,"Jl. Pusat Pemerintahan No.RT 10, Malinau Hulu, Kec. Malinau Kota, Kabupaten Malinau, Kalimantan Utara 77554","Malinau Hulu, Kec. Malinau Kota, Kabupaten Malinau",KALIMANTAN UTARA,77554.0,Indonesia,,,,3.5528693,116.6245021,https://maps.google.com/?cid=0x0:0x8d7064105383c43f,
komplek housing,komplek housing,Malinau,"Malinau Kota, Kec. Malinau Kota, Kabupaten Malinau, Kalimantan Timur","Kabupaten Malinau, Kalimantan Timur",KALIMANTAN UTARA,,Indonesia,,,,3.584221,116.647797,https://maps.google.com/?cid=0x0:0xa317c514e5ce8a42,
komplek housing,Pembangunan Perumahan,Sesua,"HJMX+M4M, Malinau Kota, Kec. Malinau Kota, Kabupaten Malinau, Kalimantan Utara","Kabupaten Malinau, Kalimantan Utara",KALIMANTAN UTARA,,Indonesia,,,,3.584221,116.647797,https://maps.google.com/?cid=0x0:0xeb94fc7d684b522e,
komplek housing,Komplek perumahan,Apau kayan,"HJMX+M4M, Malinau Kota, Kec. Malinau Kota, Kabupaten Malinau, Kalimantan Utara","Kabupaten Malinau, Kalimantan Utara",KALIMANTAN UTARA,,Indonesia,,,,3.584221,116.647797,https://maps.google.com/?cid=0x0:0x21b1a34f6b9f3c44,
komplek housing,komplek housing,Rumah Rahmat NKRI,"HJMX+M4M, Jl Maharaja Dinda, Malinau seberang, Kec. Malinau Utara, Kabupaten Malinau, Kalimantan Utara","Kabupaten Malinau, Kalimantan Utara",KALIMANTAN UTARA,,Indonesia,,,,3.584221,116.647797,https://maps.google.com/?cid=0x0:0x433b39982418abfc,
komplek housing,Pembangunan Perumahan,Kel.Paksi J,"HJMX+M4J, Malinau Kota, Kec. Malinau Kota, Kabupaten Malinau, Kalimantan Utara","Kabupaten Malinau, Kalimantan Utara",KALIMANTAN UTARA,,Indonesia,,,,3.5842027,116.6477751,https://maps.google.com/?cid=0x0:0x24c99ec0c7f928de,
komplek housing,Rumah Kayu,rumah,"HJMX+M4M Samping Kantor Pengadilan, Gang Keluarga, Malinau Kota, Kec. Malinau Kota, Kabupaten Malinau, Kalimantan Utara","Kabupaten Malinau, Kalimantan Utara",KALIMANTAN UTARA,,Indonesia,,,,3.584221,116.647797,https://maps.google.com/?cid=0x0:0x612bacab106af09e,
komplek housing,komplek housing,REBORN 16,"HJMX+M4M Asmil yonif 614 / RJP, Belayan, Kec. Malinau Utara, Kabupaten Malinau, Kalimantan Utara","Kabupaten Malinau, Kalimantan Utara",KALIMANTAN UTARA,,Indonesia,,,,3.584221,116.647797,https://maps.google.com/?cid=0x0:0xa36c97734cca5a8f,
komplek housing,komplek housing,Kec. Malinau Sel.,"Kabupaten Malinau, Kalimantan Utara","Kabupaten Malinau, Kalimantan Utara",KALIMANTAN UTARA,,Indonesia,,,,3.1674448,116.4704561,https://maps.google.com/?cid=0x0:0x4516403666700bfb,
komplek housing,Gedung Apartemen,"Mess Pandawa PT. MA,Tbk","4CVX+XC, Nunuk Tanah Kibang, Kec. Malinau Sel., Kabupaten Malinau, Kalimantan Utara 77554","Nunuk Tanah Kibang, Kec. Malinau Sel., Kabupaten Malinau",KALIMANTAN UTARA,77554.0,Indonesia,,,,3.145,116.448608,https://maps.google.com/?cid=0x0:0xd5f062de38fb1d74,
komplek housing,Komplek perumahan,Fauzi rahmadan,"4CVX+XC, Nunuk Tanah Kibang, Kec. Malinau Sel., Kabupaten Malinau, Kalimantan Utara 77554","Nunuk Tanah Kibang, Kec. Malinau Sel., Kabupaten Malinau",KALIMANTAN UTARA,77554.0,Indonesia,,,,3.1447051,116.4483441,https://maps.google.com/?cid=0x0:0xc7fc7f8115e5f3d1,
komplek housing,Kompleks Kondominium,Balai Adat Long Loreh,"5F99+WM3, Unnamed Road, Pelencau, Kec. Malinau Sel., Kabupaten Malinau, Kalimantan Utara 77554","Unnamed Road, Pelencau, Kec. Malinau Sel., Kabupaten Malinau",KALIMANTAN UTARA,77554.0,Indonesia,,,,3.1697608,116.4691614,https://maps.google.com/?cid=0x0:0xbe649620791f56a4,
komplek housing,Komplek perumahan,Desa Laban Nyarit,"4C7Q+RF4, Laban Nyarit, Kec. Malinau Sel., Kabupaten Malinau, Kalimantan Utara 77554","Laban Nyarit, Kec. Malinau Sel., Kabupaten Malinau",KALIMANTAN UTARA,77554.0,Indonesia,,,,3.114521,116.4386888,https://maps.google.com/?cid=0x0:0x142edf2c6337afb2,
komplek housing,Inspektur Tempat Tinggal,kalimantan utara,"3FQ3+PWM, Langap, Kec. Malinau Sel., Kabupaten Malinau, Kalimantan Utara 77554","Langap, Kec. Malinau Sel., Kabupaten Malinau",KALIMANTAN UTARA,77554.0,Indonesia,,,,3.0893295,116.4547962,https://maps.google.com/?cid=0x0:0x8bcb2df63e648804,
komplek housing,Komplek perumahan,Orica KPUC Malinau,"4G53+52, Paya Seturan, Kec. Malinau Sel., Kabupaten Malinau, Kalimantan Utara","Kabupaten Malinau, Kalimantan Utara",KALIMANTAN UTARA,,Indonesia,,,,3.1079322,116.502578,https://maps.google.com/?cid=0x0:0x9d279805341af976,
komplek housing,Pembangunan Perumahan,Ocky S,"Jln. Pekuyut No.rt 008, Kuala Lapang, Kec. Malinau Bar., Kabupaten Malinau, Kalimantan Utara 77554","Kuala Lapang, Kec. Malinau Bar., Kabupaten Malinau",KALIMANTAN UTARA,77554.0,Indonesia,,,,3.4127072,116.5727815,https://maps.google.com/?cid=0x0:0xb27a91a1588beba5,
komplek housing,Pembangunan Perumahan,Relokasi,"F9XH+CJ, Harapan Maju, Kec. Mentarang, Kabupaten Malinau, Kalimantan Utara","Kabupaten Malinau, Kalimantan Utara",KALIMANTAN UTARA,,Indonesia,,,,3.4986,116.379,https://maps.google.com/?cid=0x0:0xd54a0ea0a0fbbe85,
komplek housing,komplek housing,wifi anak bujang,"5GJJ+WH9, Long Loreh, Kec. Malinau Sel., Kabupaten Malinau, Kalimantan Utara 77554","Long Loreh, Kec. Malinau Sel., Kabupaten Malinau",KALIMANTAN UTARA,77554.0,Indonesia,,,,3.1822988,116.5314935,https://maps.google.com/?cid=0x0:0xe9b8350f034f6e48,
komplek housing,Kantor Perusahaan,Mess ARKA Malinau,"4GRG+M6Q, Paya Seturan, Kec. Malinau Sel., Kabupaten Malinau, Kalimantan Utara","Kabupaten Malinau, Kalimantan Utara",KALIMANTAN UTARA,,Indonesia,,,,3.1417093,116.5255946,https://maps.google.com/?cid=0x0:0x24b725aefb6677b9,
komplek housing,Komplek perumahan,P. Munet,"5GJJ+WH9, Long Loreh, Kec. Malinau Sel., Kabupaten Malinau, Kalimantan Utara","Kabupaten Malinau, Kalimantan Utara",KALIMANTAN UTARA,,Indonesia,,,,3.1822988,116.5314935,https://maps.google.com/?cid=0x0:0xd2fe81c658546be3,
komplek housing,Pembangunan Perumahan,Andro home,"FF5W+46V, Setulang, Kec. Malinau Selatan Hilir, Kabupaten Malinau, Kalimantan Utara 77554","Setulang, Kec. Malinau Selatan Hilir, Kabupaten Malinau",KALIMANTAN UTARA,77554.0,Indonesia,,,,3.4578544,116.4955574,https://maps.google.com/?cid=0x0:0x90f01a5fdda9610e,
komplek housing,Wilayah Lintas Alam,Punan Mirau,"48W7+X7R, Punan Mirau, Malinau Sel. Hulu, Kabupaten Malinau, Kalimantan Utara 77554","Punan Mirau, Malinau Sel. Hulu, Kabupaten Malinau",KALIMANTAN UTARA,77554.0,Indonesia,,,,3.1474909,116.3131356,https://maps.google.com/?cid=0x0:0xd6c0b9d1c84d3e27,
komplek housing,Pembangunan Perumahan,Jogjakarta,"FF3X+XM, Setulang, Kec. Malinau Selatan Hilir, Kabupaten Malinau, Kalimantan Utara","Kabupaten Malinau, Kalimantan Utara",KALIMANTAN UTARA,,Indonesia,,,,3.454951,116.499135,https://maps.google.com/?cid=0x0:0xe369c814ac34c5a3,
komplek housing,Komplek perumahan,Anugrah setulang,"FF4X+73, Setulang, Kec. Malinau Selatan Hilir, Kabupaten Malinau, Kalimantan Utara","Kabupaten Malinau, Kalimantan Utara",KALIMANTAN UTARA,,Indonesia,,,,3.455738,116.497732,https://maps.google.com/?cid=0x0:0x26ef1393922ed07d,
komplek housing,Pembangunan Perumahan,Rumah Aurel Abner,"CH7F+34M, Kuala Lapang, Kec. Malinau Bar., Kabupaten Malinau, Kalimantan Utara 77554","Kuala Lapang, Kec. Malinau Bar., Kabupaten Malinau",KALIMANTAN UTARA,77554.0,Indonesia,,,,3.4127072,116.5727815,https://maps.google.com/?cid=0x0:0xe8205d7ecec06b2c,
komplek housing,Komplek perumahan,BARINAI Residence,"Jalan Betlehem No.3, RT.6, Kuala Lapang, Kec. Malinau Bar., Kabupaten Malinau, Kalimantan Utara 77554","RT.6, Kuala Lapang, Kec. Malinau Bar., Kabupaten Malinau",KALIMANTAN UTARA,77554.0,Indonesia,,,,3.4127072,116.5727815,https://maps.google.com/?cid=0x0:0x6a4bca3ad829595b,
komplek housing,Pembangunan Perumahan,Punan Bengalun,"CM44+M4, Punan Bengalun, Kec. Malinau Bar., Kabupaten Malinau, Kalimantan Utara","Kabupaten Malinau, Kalimantan Utara",KALIMANTAN UTARA,,Indonesia,,,,3.4067302,116.6553312,https://maps.google.com/?cid=0x0:0xf5b69a47217538c4,
komplek housing,Pembangunan Perumahan,Rumah,"FMF6+V3, Sesua, Kec. Malinau Bar., Kabupaten Malinau, Kalimantan Utara","Kabupaten Malinau, Kalimantan Utara",KALIMANTAN UTARA,,Indonesia,,,,3.4747385,116.6601437,https://maps.google.com/?cid=0x0:0x25fbc0799085a1d1,
komplek housing,Pembangunan Perumahan,Rumah Antoni Thomas (Panyit),"CH7F+34M, Kuala Lapang, Kec. Malinau Bar., Kabupaten Malinau, Kalimantan Utara 77554","Kuala Lapang, Kec. Malinau Bar., Kabupaten Malinau",KALIMANTAN UTARA,77554.0,Indonesia,,,,3.4127072,116.5727815,https://maps.google.com/?cid=0x0:0xa94c27cb381b6a81,
komplek housing,komplek housing,Kec. Malinau Selatan Hilir,"Kabupaten Malinau, Kalimantan Utara","Kabupaten Malinau, Kalimantan Utara",KALIMANTAN UTARA,,Indonesia,,,,3.3146294,116.5577197,https://maps.google.com/?cid=0x0:0x3c0190dd52d21f13,
komplek housing,Pembangunan Perumahan,Andro home,"FF5W+46V, Setulang, Kec. Malinau Selatan Hilir, Kabupaten Malinau, Kalimantan Utara 77554","Setulang, Kec. Malinau Selatan Hilir, Kabupaten Malinau",KALIMANTAN UTARA,77554.0,Indonesia,,,,3.4578544,116.4955574,https://maps.google.com/?cid=0x0:0x90f01a5fdda9610e,
komplek housing,Pembangunan Perumahan,Ocky S,"Jln. Pekuyut No.rt 008, Kuala Lapang, Kec. Malinau Bar., Kabupaten Malinau, Kalimantan Utara 77554","Kuala Lapang, Kec. Malinau Bar., Kabupaten Malinau",KALIMANTAN UTARA,77554.0,Indonesia,,,,3.4127072,116.5727815,https://maps.google.com/?cid=0x0:0xb27a91a1588beba5,
komplek housing,Komplek perumahan,Anugrah setulang,"FF4X+73, Setulang, Kec. Malinau Selatan Hilir, Kabupaten Malinau, Kalimantan Utara","Kabupaten Malinau, Kalimantan Utara",KALIMANTAN UTARA,,Indonesia,,,,3.455738,116.497732,https://maps.google.com/?cid=0x0:0x26ef1393922ed07d,
komplek housing,Gedung Apartemen,"Mess Pandawa PT. MA,Tbk","4CVX+XC, Nunuk Tanah Kibang, Kec. Malinau Sel., Kabupaten Malinau, Kalimantan Utara 77554","Nunuk Tanah Kibang, Kec. Malinau Sel., Kabupaten Malinau",KALIMANTAN UTARA,77554.0,Indonesia,,,,3.145,116.448608,https://maps.google.com/?cid=0x0:0xd5f062de38fb1d74,
komplek housing,Pembangunan Perumahan,Relokasi,"F9XH+CJ, Harapan Maju, Kec. Mentarang, Kabupaten Malinau, Kalimantan Utara","Kabupaten Malinau, Kalimantan Utara",KALIMANTAN UTARA,,Indonesia,,,,3.4986,116.379,https://maps.google.com/?cid=0x0:0xd54a0ea0a0fbbe85,
komplek housing,Pembangunan Perumahan,Gang.kerayan,"HJF4+328, Malinau Hulu, Kec. Malinau Kota, Kabupaten Malinau, Kalimantan Utara 77554","Malinau Hulu, Kec. Malinau Kota, Kabupaten Malinau",KALIMANTAN UTARA,77554.0,Indonesia,,,,3.5726337,116.6050647,https://maps.google.com/?cid=0x0:0x4d473dff5e5caa1,
komplek housing,Komplek perumahan,Fauzi rahmadan,"4CVX+XC, Nunuk Tanah Kibang, Kec. Malinau Sel., Kabupaten Malinau, Kalimantan Utara 77554","Nunuk Tanah Kibang, Kec. Malinau Sel., Kabupaten Malinau",KALIMANTAN UTARA,77554.0,Indonesia,,,,3.1447051,116.4483441,https://maps.google.com/?cid=0x0:0xc7fc7f8115e5f3d1,
komplek housing,Lapangan Sepak Bola,kuala lapang,"GJP4+J9, Kuala Lapang, Kec. Malinau Bar., Kabupaten Malinau, Kalimantan Utara 77554","Kuala Lapang, Kec. Malinau Bar., Kabupaten Malinau",KALIMANTAN UTARA,77554.0,Indonesia,,,,3.5366552,116.6058816,https://maps.google.com/?cid=0x0:0x7dfc16600cd5cdc9,
komplek housing,Komplek perumahan,Rumah Om Dewa,"JH3X+MPW, Unnamed Road, Luso, Kec. Malinau Utara, Kabupaten Malinau, Kalimantan Utara 77554","Unnamed Road, Luso, Kec. Malinau Utara, Kabupaten Malinau",KALIMANTAN UTARA,77554.0,Indonesia,,,,3.604233,116.5993302,https://maps.google.com/?cid=0x0:0xa00685a22a8f3ab3,
komplek housing,Komplek perumahan,BARINAI Residence,"Jalan Betlehem No.3, RT.6, Kuala Lapang, Kec. Malinau Bar., Kabupaten Malinau, Kalimantan Utara 77554","RT.6, Kuala Lapang, Kec. Malinau Bar., Kabupaten Malinau",KALIMANTAN UTARA,77554.0,Indonesia,,,,3.4127072,116.5727815,https://maps.google.com/?cid=0x0:0x6a4bca3ad829595b,
komplek housing,Pembangunan Perumahan,Rumah Aurel Abner,"CH7F+34M, Kuala Lapang, Kec. Malinau Bar., Kabupaten Malinau, Kalimantan Utara 77554","Kuala Lapang, Kec. Malinau Bar., Kabupaten Malinau",KALIMANTAN UTARA,77554.0,Indonesia,,,,3.4127072,116.5727815,https://maps.google.com/?cid=0x0:0xe8205d7ecec06b2c,
komplek housing,Pembangunan Perumahan,Rumah Antoni Thomas (Panyit),"CH7F+34M, Kuala Lapang, Kec. Malinau Bar., Kabupaten Malinau, Kalimantan Utara 77554","Kuala Lapang, Kec. Malinau Bar., Kabupaten Malinau",KALIMANTAN UTARA,77554.0,Indonesia,,,,3.4127072,116.5727815,https://maps.google.com/?cid=0x0:0xa94c27cb381b6a81,
komplek housing,Komplek perumahan,Base Camp,"59MM+H4, Nunuk Tanah Kibang, Kec. Malinau Sel., Kabupaten Malinau, Kalimantan Utara","Kabupaten Malinau, Kalimantan Utara",KALIMANTAN UTARA,,Indonesia,,,,3.1838889,116.3828333,https://maps.google.com/?cid=0x0:0x352c42b7f0846ca7,
komplek housing,Inspektur Tempat Tinggal,kalimantan utara,"3FQ3+PWM, Langap, Kec. Malinau Sel., Kabupaten Malinau, Kalimantan Utara 77554","Langap, Kec. Malinau Sel., Kabupaten Malinau",KALIMANTAN UTARA,77554.0,Indonesia,,,,3.0893295,116.4547962,https://maps.google.com/?cid=0x0:0x8bcb2df63e648804,
komplek housing,Perhimpunan Pengembang Perumahan,Rumah febri,"HJC3+GWX, Malinau Hulu, Kec. Malinau Kota, Kabupaten Malinau, Kalimantan Utara 77554","Malinau Hulu, Kec. Malinau Kota, Kabupaten Malinau",KALIMANTAN UTARA,77554.0,Indonesia,,,,3.5713861,116.6048858,https://maps.google.com/?cid=0x0:0x7a9019cc9985dd8d,
komplek housing,Inspektur Tempat Tinggal,Indhy,"HJC3+HQC, Malinau Hulu, Kec. Malinau Kota, Kabupaten Malinau, Kalimantan Utara 77554","Malinau Hulu, Kec. Malinau Kota, Kabupaten Malinau",KALIMANTAN UTARA,77554.0,Indonesia,,,,3.5714335,116.6043761,https://maps.google.com/?cid=0x0:0xa851137b2be99428,
komplek housing,Pembangunan Perumahan,perumahan gembala GKII desa wisata pulau sapi,"GG8H+JH6, Jl. Pulau Sapi, Pulau Sapi, Kec. Mentarang, Kabupaten Malinau, Kalimantan Utara 77554","Jl. Pulau Sapi, Pulau Sapi, Kec. Mentarang, Kabupaten Malinau",KALIMANTAN UTARA,77554.0,Indonesia,,,,3.516528,116.528906,https://maps.google.com/?cid=0x0:0xa17c331444ae8245,
komplek housing,Komplek perumahan,Desa Laban Nyarit,"4C7Q+RF4, Laban Nyarit, Kec. Malinau Sel., Kabupaten Malinau, Kalimantan Utara 77554","Laban Nyarit, Kec. Malinau Sel., Kabupaten Malinau",KALIMANTAN UTARA,77554.0,Indonesia,,,,3.114521,116.4386888,https://maps.google.com/?cid=0x0:0x142edf2c6337afb2,
komplek housing,Pembangunan Perumahan,Rmh pk yun,"HJ62+WW2, RT.8, Malinau Hulu, Kec. Malinau Kota, Kabupaten Malinau, Kalimantan Utara 77554","RT.8, Malinau Hulu, Kec. Malinau Kota, Kabupaten Malinau",KALIMANTAN UTARA,77554.0,Indonesia,,,,3.5622634,116.6022684,https://maps.google.com/?cid=0x0:0xf166c55a2b375eae,
komplek housing,komplek housing,wifi anak bujang,"5GJJ+WH9, Long Loreh, Kec. Malinau Sel., Kabupaten Malinau, Kalimantan Utara 77554","Long Loreh, Kec. Malinau Sel., Kabupaten Malinau",KALIMANTAN UTARA,77554.0,Indonesia,,,,3.1822988,116.5314935,https://maps.google.com/?cid=0x0:0xe9b8350f034f6e48,
komplek housing,Pembangunan Perumahan,Yohanis Faren,"Jalan Daring Desa No.Rt 3, Pulau Sapi, Kec. Mentarang, Kabupaten Malinau, Kalimantan Utara 77554","Pulau Sapi, Kec. Mentarang, Kabupaten Malinau",KALIMANTAN UTARA,77554.0,Indonesia,,,,3.5267586,116.5160799,https://maps.google.com/?cid=0x0:0x946778bffb52207a,
komplek housing,Komplek perumahan,Rumah pak otnel marson,"GG86+8XF, harapan baru, Kec. Mentarang, Kabupaten Malinau, Kalimantan Utara 77554","harapan baru, Kec. Mentarang, Kabupaten Malinau",KALIMANTAN UTARA,77554.0,Indonesia,,,,3.5154259,116.5116835,https://maps.google.com/?cid=0x0:0xead6cda0026449f8,
komplek housing,Pembangunan Perumahan,Rumah Ghani,"GH8R+Q5X, Tj. Lapang, Kec. Malinau Bar., Kabupaten Malinau, Kalimantan Utara 77554","Tj. Lapang, Kec. Malinau Bar., Kabupaten Malinau",KALIMANTAN UTARA,77554.0,Indonesia,,,,3.516986,116.5904741,https://maps.google.com/?cid=0x0:0x312a1b6950f053bb,
komplek housing,komplek housing,Kalimantan Utara 77554,"Kabupaten Malinau, Kalimantan Utara","Kabupaten Malinau, Kalimantan Utara",KALIMANTAN UTARA,,Indonesia,,,,2.9234432,116.2304616,https://maps.google.com/?cid=0x0:0x100a8cc2c03a7e66,
komplek housing,komplek housing,Base Camp,"GJX7+W63, Malinau Hulu, Kec. Malinau Kota, Kabupaten Malinau, Kalimantan Utara 77554","Malinau Hulu, Kec. Malinau Kota, Kabupaten Malinau",KALIMANTAN UTARA,77554.0,Indonesia,,,,3.549737,116.612871,https://maps.google.com/?cid=0x0:0xc76063b065888d4,
komplek housing,Pembangunan Perumahan,Gang.kerayan,"HJF4+328, Malinau Hulu, Kec. Malinau Kota, Kabupaten Malinau, Kalimantan Utara 77554","Malinau Hulu, Kec. Malinau Kota, Kabupaten Malinau",KALIMANTAN UTARA,77554.0,Indonesia,,,,3.5726337,116.6050647,https://maps.google.com/?cid=0x0:0x4d473dff5e5caa1,
komplek housing,Pembangunan Perumahan,Belakang SMAN 1 Malinau,"HJ95+XJF, RT.10, Malinau Hulu, Kec. Malinau Kota, Kabupaten Malinau, Kalimantan Utara 77554","RT.10, Malinau Hulu, Kec. Malinau Kota, Kabupaten Malinau",KALIMANTAN UTARA,77554.0,Indonesia,,,,3.5699367,116.6090433,https://maps.google.com/?cid=0x0:0x8f2001f4ce17750e,
komplek housing,Komplek perumahan,Rumah Christopher,"JJ26+Q3R, Gg. Tubu, Respen Tubu, Kec. Malinau Utara, Kabupaten Malinau, Kalimantan Utara 77554","Gg. Tubu, Respen Tubu, Kec. Malinau Utara, Kabupaten Malinau",KALIMANTAN UTARA,77554.0,Indonesia,,,,3.6019902,116.6101551,https://maps.google.com/?cid=0x0:0xa58df94a78360074,
komplek housing,Pembangunan Perumahan,Relokasi,"F9XH+CJ, Harapan Maju, Kec. Mentarang, Kabupaten Malinau, Kalimantan Utara","Kabupaten Malinau, Kalimantan Utara",KALIMANTAN UTARA,,Indonesia,,,,3.4986,116.379,https://maps.google.com/?cid=0x0:0xd54a0ea0a0fbbe85,
komplek housing,komplek housing,RANI,"MPQ7+F5H, Seruyung, Kec. Malinau Utara, Kabupaten Malinau, Kalimantan Utara 77457","Seruyung, Kec. Malinau Utara, Kabupaten Malinau",KALIMANTAN UTARA,77457.0,Indonesia,,,,3.6886842,116.7129712,https://maps.google.com/?cid=0x0:0x41b9c1ba65afd4ab,
komplek housing,Pembangunan Perumahan,Ocky S,"Jln. Pekuyut No.rt 008, Kuala Lapang, Kec. Malinau Bar., Kabupaten Malinau, Kalimantan Utara 77554","Kuala Lapang, Kec. Malinau Bar., Kabupaten Malinau",KALIMANTAN UTARA,77554.0,Indonesia,,,,3.4127072,116.5727815,https://maps.google.com/?cid=0x0:0xb27a91a1588beba5,
komplek housing,komplek housing,Rumah Ahmat,"HJXH+34F, Jl. Raja Alam, Malinau Seberang, Kec. Malinau Utara, Kabupaten Malinau, Kalimantan Utara 77554","Jl. Raja Alam, Malinau Seberang, Kec. Malinau Utara, Kabupaten Malinau",KALIMANTAN UTARA,77554.0,Indonesia,,,,3.5982372,116.6276347,https://maps.google.com/?cid=0x0:0x2d97cca4f069896b,
komplek housing,Gedung Apartemen,"Mess Pandawa PT. MA,Tbk","4CVX+XC, Nunuk Tanah Kibang, Kec. Malinau Sel., Kabupaten Malinau, Kalimantan Utara 77554","Nunuk Tanah Kibang, Kec. Malinau Sel., Kabupaten Malinau",KALIMANTAN UTARA,77554.0,Indonesia,,,,3.145,116.448608,https://maps.google.com/?cid=0x0:0xd5f062de38fb1d74,
komplek housing,Pembangunan Perumahan,House UL and Kii,"HJXF+MP6, Malinau Seberang, Kec. Malinau Utara, Kabupaten Malinau, Kalimantan Utara 77554","Malinau Seberang, Kec. Malinau Utara, Kabupaten Malinau",KALIMANTAN UTARA,77554.0,Indonesia,,,,3.5991689,116.6242688,https://maps.google.com/?cid=0x0:0x7c87b70242a65d2a,
komplek housing,komplek housing,Kabupaten malinau,"32FR+6HJ, Long Nyau, Sungai Tubu, Kabupaten Malinau, Kalimantan Utara","Kabupaten Malinau, Kalimantan Utara",KALIMANTAN UTARA,,Indonesia,,,,3.0730929,116.0413889,https://maps.google.com/?cid=0x0:0x1be184e472ab0c6e,
komplek housing,komplek housing,Arsal,"JJ77+78Q, Respen Tubu, Kec. Malinau Utara, Kabupaten Malinau, Kalimantan Utara","Kabupaten Malinau, Kalimantan Utara",KALIMANTAN UTARA,,Indonesia,,,,3.6128982,116.613369,https://maps.google.com/?cid=0x0:0x2c016ca152a21d48,
komplek housing,Komplek perumahan,Pondok Jeruk,"Jl. BBI No.RT.4, Kaliamok, Malinau Utara, Malinau Regency, North Kalimantan 77554","Kaliamok, Malinau Utara, Malinau Regency",KALIMANTAN UTARA,77554.0,Indonesia,,,,3.635936,116.6351149,https://maps.google.com/?cid=0x0:0xd8be7b1b81530952,
komplek housing,Pembangunan Perumahan,Rumah Djulan Kleden,"HJCC+V4W, Malinau Kota, Kec. Malinau Kota, Kabupaten Malinau, Kalimantan Utara 77554","Malinau Kota, Kec. Malinau Kota, Kabupaten Malinau",KALIMANTAN UTARA,77554.0,Indonesia,82231806094.0,,,3.5722473,116.620333,https://maps.google.com/?cid=0x0:0xd78bf5dd2fc9c7c,
komplek housing,Komplek perumahan,Dendy Supardi,"GJQ6+PV4, Jl. Pedo, Kuala Lapang, Kec. Malinau Bar., Kabupaten Malinau, Kalimantan Utara 77554","Jl. Pedo, Kuala Lapang, Kec. Malinau Bar., Kabupaten Malinau",KALIMANTAN UTARA,77554.0,Indonesia,,,,3.5392587,116.6122086,https://maps.google.com/?cid=0x0:0xc003f15be3f213bb,
komplek housing,Komplek perumahan,fichslc,"Jl. Raja Alam No.RT.4, Malinau Kota, Kec. Malinau Kota, Kabupaten Malinau, Kalimantan Utara 77554","Malinau Kota, Kec. Malinau Kota, Kabupaten Malinau",KALIMANTAN UTARA,77554.0,Indonesia,,,,3.5871908,116.6238417,https://maps.google.com/?cid=0x0:0x2a445a69243d8ac2,
komplek housing,Komplek perumahan,Rumah Om Dewa,"JH3X+MPW, Unnamed Road, Luso, Kec. Malinau Utara, Kabupaten Malinau, Kalimantan Utara 77554","Unnamed Road, Luso, Kec. Malinau Utara, Kabupaten Malinau",KALIMANTAN UTARA,77554.0,Indonesia,,,,3.604233,116.5993302,https://maps.google.com/?cid=0x0:0xa00685a22a8f3ab3,
komplek housing,Komplek perumahan,Fauzi rahmadan,"4CVX+XC, Nunuk Tanah Kibang, Kec. Malinau Sel., Kabupaten Malinau, Kalimantan Utara 77554","Nunuk Tanah Kibang, Kec. Malinau Sel., Kabupaten Malinau",KALIMANTAN UTARA,77554.0,Indonesia,,,,3.1447051,116.4483441,https://maps.google.com/?cid=0x0:0xc7fc7f8115e5f3d1,
komplek housing,Lapangan Sepak Bola,kuala lapang,"GJP4+J9, Kuala Lapang, Kec. Malinau Bar., Kabupaten Malinau, Kalimantan Utara 77554","Kuala Lapang, Kec. Malinau Bar., Kabupaten Malinau",KALIMANTAN UTARA,77554.0,Indonesia,,,,3.5366552,116.6058816,https://maps.google.com/?cid=0x0:0x7dfc16600cd5cdc9,
komplek housing,komplek housing,Malinau Sel. Hulu,"Kabupaten Malinau, Kalimantan Utara","Kabupaten Malinau, Kalimantan Utara",KALIMANTAN UTARA,,Indonesia,,,,2.8489643,116.3249438,https://maps.google.com/?cid=0x0:0x1d54952845c0d2dc,
komplek housing,Kompleks Kondominium,Balai Adat Long Loreh,"5F99+WM3, Unnamed Road, Pelencau, Kec. Malinau Sel., Kabupaten Malinau, Kalimantan Utara 77554","Unnamed Road, Pelencau, Kec. Malinau Sel., Kabupaten Malinau",KALIMANTAN UTARA,77554.0,Indonesia,,,,3.1697608,116.4691614,https://maps.google.com/?cid=0x0:0xbe649620791f56a4,
komplek housing,Inspektur Tempat Tinggal,kalimantan utara,"3FQ3+PWM, Langap, Kec. Malinau Sel., Kabupaten Malinau, Kalimantan Utara 77554","Langap, Kec. Malinau Sel., Kabupaten Malinau",KALIMANTAN UTARA,77554.0,Indonesia,,,,3.0893295,116.4547962,https://maps.google.com/?cid=0x0:0x8bcb2df63e648804,
komplek housing,Komplek perumahan,Desa Laban Nyarit,"4C7Q+RF4, Laban Nyarit, Kec. Malinau Sel., Kabupaten Malinau, Kalimantan Utara 77554","Laban Nyarit, Kec. Malinau Sel., Kabupaten Malinau",KALIMANTAN UTARA,77554.0,Indonesia,,,,3.114521,116.4386888,https://maps.google.com/?cid=0x0:0x142edf2c6337afb2,
komplek housing,Wilayah Lintas Alam,Punan Mirau,"48W7+X7R, Punan Mirau, Malinau Sel. Hulu, Kabupaten Malinau, Kalimantan Utara 77554","Punan Mirau, Malinau Sel. Hulu, Kabupaten Malinau",KALIMANTAN UTARA,77554.0,Indonesia,,,,3.1474909,116.3131356,https://maps.google.com/?cid=0x0:0xd6c0b9d1c84d3e27,
komplek housing,komplek housing,Kec. Malinau Utara,"Kabupaten Malinau, Kalimantan Utara","Kabupaten Malinau, Kalimantan Utara",KALIMANTAN UTARA,,Indonesia,,,,3.5926011,116.6196331,https://maps.google.com/?cid=0x0:0xb9f35c1d23aa16b7,
komplek housing,Komplek perumahan,Altaf House,"HJXF+9Q2, Malinau Seberang, Kec. Malinau Utara, Kabupaten Malinau, Kalimantan Utara 77554","Malinau Seberang, Kec. Malinau Utara, Kabupaten Malinau",KALIMANTAN UTARA,77554.0,Indonesia,,,,3.5983941,116.6243906,https://maps.google.com/?cid=0x0:0xbdc6755cc3f07b15,
komplek housing,Pembangunan Perumahan,House UL and Kii,"HJXF+MP6, Malinau Seberang, Kec. Malinau Utara, Kabupaten Malinau, Kalimantan Utara 77554","Malinau Seberang, Kec. Malinau Utara, Kabupaten Malinau",KALIMANTAN UTARA,77554.0,Indonesia,,,,3.5991689,116.6242688,https://maps.google.com/?cid=0x0:0x7c87b70242a65d2a,
komplek housing,Komplek perumahan,Rumah Christopher,"JJ26+Q3R, Gg. Tubu, Respen Tubu, Kec. Malinau Utara, Kabupaten Malinau, Kalimantan Utara 77554","Gg. Tubu, Respen Tubu, Kec. Malinau Utara, Kabupaten Malinau",KALIMANTAN UTARA,77554.0,Indonesia,,,,3.6019902,116.6101551,https://maps.google.com/?cid=0x0:0xa58df94a78360074,
komplek housing,Pembangunan Perumahan,Sesua,"HJMX+M4M, Malinau Kota, Kec. Malinau Kota, Kabupaten Malinau, Kalimantan Utara","Kabupaten Malinau, Kalimantan Utara",KALIMANTAN UTARA,,Indonesia,,,,3.584221,116.647797,https://maps.google.com/?cid=0x0:0xeb94fc7d684b522e,
komplek housing,komplek housing,Rumah Ahmat,"HJXH+34F, Jl. Raja Alam, Malinau Seberang, Kec. Malinau Utara, Kabupaten Malinau, Kalimantan Utara 77554","Jl. Raja Alam, Malinau Seberang, Kec. Malinau Utara, Kabupaten Malinau",KALIMANTAN UTARA,77554.0,Indonesia,,,,3.5982372,116.6276347,https://maps.google.com/?cid=0x0:0x2d97cca4f069896b,
komplek housing,Komplek perumahan,Apau kayan,"HJMX+M4M, Malinau Kota, Kec. Malinau Kota, Kabupaten Malinau, Kalimantan Utara","Kabupaten Malinau, Kalimantan Utara",KALIMANTAN UTARA,,Indonesia,,,,3.584221,116.647797,https://maps.google.com/?cid=0x0:0x21b1a34f6b9f3c44,
komplek housing,Pembangunan Perumahan,Gang.kerayan,"HJF4+328, Malinau Hulu, Kec. Malinau Kota, Kabupaten Malinau, Kalimantan Utara 77554","Malinau Hulu, Kec. Malinau Kota, Kabupaten Malinau",KALIMANTAN UTARA,77554.0,Indonesia,,,,3.5726337,116.6050647,https://maps.google.com/?cid=0x0:0x4d473dff5e5caa1,
komplek housing,komplek housing,Arsal,"JJ77+78Q, Respen Tubu, Kec. Malinau Utara, Kabupaten Malinau, Kalimantan Utara","Kabupaten Malinau, Kalimantan Utara",KALIMANTAN UTARA,,Indonesia,,,,3.6128982,116.613369,https://maps.google.com/?cid=0x0:0x2c016ca152a21d48,
komplek housing,Komplek perumahan,Birgita House,"HM92+7RF, Tj. Keranjang, Kec. Malinau Kota, Kabupaten Malinau, Kalimantan Utara","Kabupaten Malinau, Kalimantan Utara",KALIMANTAN UTARA,,Indonesia,,,,3.5681755,116.6520445,https://maps.google.com/?cid=0x0:0x5092c1b69094d9e2,
komplek housing,Komplek perumahan,Pondok Jeruk,"Jl. BBI No.RT.4, Kaliamok, Malinau Utara, Malinau Regency, North Kalimantan 77554","Kaliamok, Malinau Utara, Malinau Regency",KALIMANTAN UTARA,77554.0,Indonesia,,,,3.635936,116.6351149,https://maps.google.com/?cid=0x0:0xd8be7b1b81530952,
komplek housing,komplek housing,Base Camp,"GJX7+W63, Malinau Hulu, Kec. Malinau Kota, Kabupaten Malinau, Kalimantan Utara 77554","Malinau Hulu, Kec. Malinau Kota, Kabupaten Malinau",KALIMANTAN UTARA,77554.0,Indonesia,,,,3.549737,116.612871,https://maps.google.com/?cid=0x0:0xc76063b065888d4,
komplek housing,Pembangunan Perumahan,Belakang SMAN 1 Malinau,"HJ95+XJF, RT.10, Malinau Hulu, Kec. Malinau Kota, Kabupaten Malinau, Kalimantan Utara 77554","RT.10, Malinau Hulu, Kec. Malinau Kota, Kabupaten Malinau",KALIMANTAN UTARA,77554.0,Indonesia,,,,3.5699367,116.6090433,https://maps.google.com/?cid=0x0:0x8f2001f4ce17750e,
komplek housing,Pembangunan Perumahan,Rumah Djulan Kleden,"HJCC+V4W, Malinau Kota, Kec. Malinau Kota, Kabupaten Malinau, Kalimantan Utara 77554","Malinau Kota, Kec. Malinau Kota, Kabupaten Malinau",KALIMANTAN UTARA,77554.0,Indonesia,82231806094.0,,,3.5722473,116.620333,https://maps.google.com/?cid=0x0:0xd78bf5dd2fc9c7c,
komplek housing,Komplek perumahan,Rumah Om Dewa,"JH3X+MPW, Unnamed Road, Luso, Kec. Malinau Utara, Kabupaten Malinau, Kalimantan Utara 77554","Unnamed Road, Luso, Kec. Malinau Utara, Kabupaten Malinau",KALIMANTAN UTARA,77554.0,Indonesia,,,,3.604233,116.5993302,https://maps.google.com/?cid=0x0:0xa00685a22a8f3ab3,
komplek housing,Lapangan Sepak Bola,kuala lapang,"GJP4+J9, Kuala Lapang, Kec. Malinau Bar., Kabupaten Malinau, Kalimantan Utara 77554","Kuala Lapang, Kec. Malinau Bar., Kabupaten Malinau",KALIMANTAN UTARA,77554.0,Indonesia,,,,3.5366552,116.6058816,https://maps.google.com/?cid=0x0:0x7dfc16600cd5cdc9,
komplek housing,Komplek perumahan,fichslc,"Jl. Raja Alam No.RT.4, Malinau Kota, Kec. Malinau Kota, Kabupaten Malinau, Kalimantan Utara 77554","Malinau Kota, Kec. Malinau Kota, Kabupaten Malinau",KALIMANTAN UTARA,77554.0,Indonesia,,,,3.5871908,116.6238417,https://maps.google.com/?cid=0x0:0x2a445a69243d8ac2,
komplek housing,komplek housing,Rumah Supriono,"JH6J+7RR, Sembuak Warod, Kec. Malinau Utara, Kabupaten Malinau, Kalimantan Utara","Kabupaten Malinau, Kalimantan Utara",KALIMANTAN UTARA,,Indonesia,,,,3.6107278,116.5820113,https://maps.google.com/?cid=0x0:0xc30cd18bac2db0af,
komplek housing,Pondok,Pondok pribadi keluarga Hengky,"HM92+7R7, Tj. Keranjang, Kec. Malinau Kota, Kabupaten Malinau, Kalimantan Utara","Kabupaten Malinau, Kalimantan Utara",KALIMANTAN UTARA,,Indonesia,,,,3.5681632,116.6520458,https://maps.google.com/?cid=0x0:0x5ed9794d7657262f,
komplek housing,Apartemen sewa liburan,Your family kost,"HJJH+8PJ, Malinau Kota, Kec. Malinau Kota, Kabupaten Malinau, Kalimantan Utara","Kabupaten Malinau, Kalimantan Utara",KALIMANTAN UTARA,,Indonesia,82189989828.0,,,3.5808293,116.6292759,https://maps.google.com/?cid=0x0:0xda99f2dbd6fa64ca,
komplek housing,Komplek perumahan,Dendy Supardi,"GJQ6+PV4, Jl. Pedo, Kuala Lapang, Kec. Malinau Bar., Kabupaten Malinau, Kalimantan Utara 77554","Jl. Pedo, Kuala Lapang, Kec. Malinau Bar., Kabupaten Malinau",KALIMANTAN UTARA,77554.0,Indonesia,,,,3.5392587,116.6122086,https://maps.google.com/?cid=0x0:0xc003f15be3f213bb,
komplek housing,Komplek perumahan,Rumah Pak. Noveliantoner,"HJVM+PX4, Jl. AMD, Malinau Kota, Kec. Malinau Kota, Kabupaten Malinau, Kalimantan Utara 77554","Jl. AMD, Malinau Kota, Kec. Malinau Kota, Kabupaten Malinau",KALIMANTAN UTARA,77554.0,Indonesia,,,,3.5942572,116.634951,https://maps.google.com/?cid=0x0:0x191429589e0869be,
komplek housing,Komplek perumahan,Kampung tengah,"JJ77+GW6, Respen Tubu, Kec. Malinau Utara, Kabupaten Malinau, Kalimantan Utara 77554","Respen Tubu, Kec. Malinau Utara, Kabupaten Malinau",KALIMANTAN UTARA,77554.0,Indonesia,,,,3.613797,116.614757,https://maps.google.com/?cid=0x0:0xd64cf14ddc7c0a86,
komplek housing,Komplek perumahan,Rumah Yusril (Eja),"HJXG+8XG Dinda, Jl.Pangeran Maharaja, RT.06, Malinau Seberang, Kec. Malinau Utara, Kabupaten Malinau, Kalimantan Utara 77554","Jl.Pangeran Maharaja, RT.06, Malinau Seberang, Kec. Malinau Utara, Kabupaten Malinau",KALIMANTAN UTARA,77554.0,Indonesia,,,,3.5983073,116.6274685,https://maps.google.com/?cid=0x0:0x8b024c54b09faa0c,
komplek housing,Pembangunan Perumahan,Gerianto,"HJX7+284, jl.mah, Respen Tubu, Kec. Malinau Utara, Kabupaten Malinau, Kalimantan Utara 77554","jl.mah, Respen Tubu, Kec. Malinau Utara, Kabupaten Malinau",KALIMANTAN UTARA,77554.0,Indonesia,,,,3.5977366,116.6137647,https://maps.google.com/?cid=0x0:0xa96dba98ee64af6a,
komplek housing,Komplek perumahan,Agustinus,"JM85+P42, Semengaris, Kec. Malinau Utara, Kabupaten Malinau, Kalimantan Utara 77554","Semengaris, Kec. Malinau Utara, Kabupaten Malinau",KALIMANTAN UTARA,77554.0,Indonesia,,,,3.6161711,116.6585579,https://maps.google.com/?cid=0x0:0xf4e8a4ba87749134,
komplek housing,Gedung Apartemen,M.RR,"JJ3H+2X8, Malinau Seberang, Kec. Malinau Utara, Kabupaten Malinau, Kalimantan Utara 77554","Malinau Seberang, Kec. Malinau Utara, Kabupaten Malinau",KALIMANTAN UTARA,77554.0,Indonesia,,,,3.6023167,116.6303883,https://maps.google.com/?cid=0x0:0x345784be93235463,
komplek housing,Pembangunan Perumahan,Yohanes,"JJCR+H6W, Kaliamok, Kec. Malinau Utara, Kabupaten Malinau, Kalimantan Utara 77554","Kaliamok, Kec. Malinau Utara, Kabupaten Malinau",KALIMANTAN UTARA,77554.0,Indonesia,,,,3.6228369,116.6408234,https://maps.google.com/?cid=0x0:0x20fed62f109acf,
komplek housing,komplek housing,Kalimantan Utara 77555,"Kabupaten Malinau, Kalimantan Utara","Kabupaten Malinau, Kalimantan Utara",KALIMANTAN UTARA,,Indonesia,,,,3.4347306,116.1359431,https://maps.google.com/?cid=0x0:0xfbf6305152defd8,
komplek housing,Pembangunan Perumahan,Relokasi,"F9XH+CJ, Harapan Maju, Kec. Mentarang, Kabupaten Malinau, Kalimantan Utara","Kabupaten Malinau, Kalimantan Utara",KALIMANTAN UTARA,,Indonesia,,,,3.4986,116.379,https://maps.google.com/?cid=0x0:0xd54a0ea0a0fbbe85,
komplek housing,Komplek perumahan,Desa Lung Makatif,"P4HP+798, Desa, Lung Makatif, Mentarang Hulu, Kabupaten Malinau, Kalimantan Utara","Kabupaten Malinau, Kalimantan Utara",KALIMANTAN UTARA,,Indonesia,,,,3.728169,116.1359431,https://maps.google.com/?cid=0x0:0xc0f95350de33b38a,
komplek housing,Komplek perumahan,Base Camp,"59MM+H4, Nunuk Tanah Kibang, Kec. Malinau Sel., Kabupaten Malinau, Kalimantan Utara","Kabupaten Malinau, Kalimantan Utara",KALIMANTAN UTARA,,Indonesia,,,,3.1838889,116.3828333,https://maps.google.com/?cid=0x0:0x352c42b7f0846ca7,
komplek housing,Komplek perumahan,Kalam,"32FR+6HJ, Long Nyau, Sungai Tubu, Kabupaten Malinau, Kalimantan Utara","Kabupaten Malinau, Kalimantan Utara",KALIMANTAN UTARA,,Indonesia,,,,3.0730929,116.0413889,https://maps.google.com/?cid=0x0:0xb3cb64874ff44b50,
komplek housing,Pembangunan Perumahan,Lung sulit,"V2X9+53X, Long Sulit, Mentarang Hulu, Kabupaten Malinau, Kalimantan Utara","Kabupaten Malinau, Kalimantan Utara",KALIMANTAN UTARA,,Indonesia,,,,3.8979799,116.0177448,https://maps.google.com/?cid=0x0:0x451bedca6dc7fde8,
komplek housing,Pembangunan Perumahan,Perumahan Tanjung Harapan Residence,"R9PH+RQ4, Tj. Selor Hilir, Kec. Tj. Selor, Kabupaten Bulungan, Kalimantan Utara","Kabupaten Bulungan, Kalimantan Utara",KALIMANTAN UTARA,,Indonesia,,,,2.8370056,117.3794593,https://maps.google.com/?cid=0x0:0xbb5808c84bd94b64,
komplek housing,Pembangunan Perumahan,sebuku,"32FR+6HJ, Long Nyau, Sungai Tubu, Kabupaten Malinau, Kalimantan Utara","Kabupaten Malinau, Kalimantan Utara",KALIMANTAN UTARA,,Indonesia,,,,3.0730929,116.0413889,https://maps.google.com/?cid=0x0:0x5865e954b1ae200f,
komplek housing,komplek housing,Kec. Mentarang,"Kabupaten Malinau, Kalimantan Utara","Kabupaten Malinau, Kalimantan Utara",KALIMANTAN UTARA,,Indonesia,,,,3.5249532,116.5170959,https://maps.google.com/?cid=0x0:0xd65b8ac9e2daeeb7,
komplek housing,Komplek perumahan,Mentarang baru,"GGF8+XRQ, GGGG+JP5Mentarang BaruKec, Kec. Mentarang, Kabupaten Malinau, Kalimantan Utara 77554","GGGG+JP5Mentarang BaruKec, Kec. Mentarang, Kabupaten Malinau",KALIMANTAN UTARA,77554.0,Indonesia,,,,3.5249532,116.5170959,https://maps.google.com/?cid=0x0:0xe7701035e9be34e,
komplek housing,Pembangkit listrik hidroelektrik,Simpang 3 Mentarang Induk Hydro,"GF2Q+X6H, Long Bila, Kec. Malinau Bar., Kabupaten Malinau, Kalimantan Utara 77554","Long Bila, Kec. Malinau Bar., Kabupaten Malinau",KALIMANTAN UTARA,77554.0,Indonesia,,,,3.5024324,116.4881101,https://maps.google.com/?cid=0x0:0x80457b797034f731,
komplek housing,komplek housing,Mentarang Hulu,"Kabupaten Malinau, Kalimantan Utara","Kabupaten Malinau, Kalimantan Utara",KALIMANTAN UTARA,,Indonesia,,,,3.728169,116.1359431,https://maps.google.com/?cid=0x0:0xadeaa6c194936d2b,
komplek housing,komplek housing,Kalimantan Utara 77155,"Mentarang Hulu, Kabupaten Malinau, Kalimantan Utara","Kabupaten Malinau, Kalimantan Utara",KALIMANTAN UTARA,,Indonesia,,,,3.9141052,116.0886704,https://maps.google.com/?cid=0x0:0x74209607fa10efaf,
komplek housing,komplek housing,Kalimantan Utara 77562,"Kabupaten Malinau, Kalimantan Utara","Kabupaten Malinau, Kalimantan Utara",KALIMANTAN UTARA,,Indonesia,,,,2.8627612,115.7575196,https://maps.google.com/?cid=0x0:0xfc58e4f0b107466e,
komplek housing,Kantor Pemerintah,Kampung PuJungan,"HQQR+HFC, Long Pujungan, Pujungan, Kabupaten Malinau, Kalimantan Utara 77562","Long Pujungan, Pujungan, Kabupaten Malinau",KALIMANTAN UTARA,77562.0,Indonesia,,,,2.5900884,115.7917142,https://maps.google.com/?cid=0x0:0xd9e86156b7a75da3,
komplek housing,komplek housing,Kabupaten malinau,"32FR+6HJ, Long Nyau, Sungai Tubu, Kabupaten Malinau, Kalimantan Utara","Kabupaten Malinau, Kalimantan Utara",KALIMANTAN UTARA,,Indonesia,,,,3.0730929,116.0413889,https://maps.google.com/?cid=0x0:0x1be184e472ab0c6e,
komplek housing,Komplek perumahan,Panca Residence - Ciracas,"Jl. Pengantin Ali No.4, Ciracas, Kec. Ciracas, Kota Jakarta Timur, Daerah Khusus Ibukota Jakarta 13740","Ciracas, Kec. Ciracas, Kota Jakarta Timur",KALIMANTAN UTARA,13740.0,Indonesia,81210006996.0,,,-6.3240924,106.8841557,https://maps.google.com/?cid=0x0:0xad568cc97a63a835,
komplek housing,Komplek perumahan,Residence 8 Ciracas,"Jl. Pengantin Ali, Ciracas, Kec. Ciracas, Kota Jakarta Timur, Daerah Khusus Ibukota Jakarta","Kota Jakarta Timur, Daerah Khusus Ibukota Jakarta",KALIMANTAN UTARA,,Indonesia,,,,-6.3239362,106.883885,https://maps.google.com/?cid=0x0:0xd3bc3e1985fad3,
komplek housing,komplek housing,Kalimantan Timur 77573,"Kabupaten Malinau, Kalimantan Timur","Kabupaten Malinau, Kalimantan Timur",KALIMANTAN UTARA,,Indonesia,,,,1.4464714,115.188916,https://maps.google.com/?cid=0x0:0x791588811899f0cb,
komplek housing,Pembangunan Perumahan,Agung Baru,"F9MM+H83, Agung Baru, Sungai Boh, Kabupaten Malinau, Kalimantan Utara","Kabupaten Malinau, Kalimantan Utara",KALIMANTAN UTARA,,Indonesia,,,,1.4838896,115.3832838,https://maps.google.com/?cid=0x0:0xe25446b02cab422c,
komplek housing,Komplek perumahan,Long Uro,"MXJX+8H, Long Uro, Kayan Sel., Kabupaten Malinau, Kalimantan Utara","Kabupaten Malinau, Kalimantan Utara",KALIMANTAN UTARA,,Indonesia,,,,1.6813515,114.9977823,https://maps.google.com/?cid=0x0:0x9f9d56e8e7efdd9b,
komplek housing,Komplek perumahan,SATGAS PAMTAS POS LONG AMPUNG,"8XV2+GMV, Long Ampung, Kayan Sel., Kabupaten Malinau, Kalimantan Utara","Kabupaten Malinau, Kalimantan Utara",KALIMANTAN UTARA,,Indonesia,,,,1.3438635,114.9516869,https://maps.google.com/?cid=0x0:0xed634fd516eadc06,
komplek housing,komplek housing,Uma’ Juto,"QVJX+VM6, RT VI, Nawang Baru, Kec. Kayan Hulu, Kabupaten Malinau, Kalimantan Utara 77572","RT VI, Nawang Baru, Kec. Kayan Hulu, Kabupaten Malinau",KALIMANTAN UTARA,77572.0,Indonesia,,,,1.7821662,114.8991387,https://maps.google.com/?cid=0x0:0xee7692fa22d9cd5b,
komplek housing,komplek housing,Sungai Boh,"Kabupaten Malinau, Kalimantan Utara","Kabupaten Malinau, Kalimantan Utara",KALIMANTAN UTARA,,Indonesia,,,,1.4442126,115.3785719,https://maps.google.com/?cid=0x0:0x7320bf121f1e5131,
komplek housing,komplek housing,Kalimantan Utara 77555,"Kabupaten Malinau, Kalimantan Utara","Kabupaten Malinau, Kalimantan Utara",KALIMANTAN UTARA,,Indonesia,,,,3.4347306,116.1359431,https://maps.google.com/?cid=0x0:0xfbf6305152defd8,
komplek housing,komplek housing,Kabupaten malinau,"32FR+6HJ, Long Nyau, Sungai Tubu, Kabupaten Malinau, Kalimantan Utara","Kabupaten Malinau, Kalimantan Utara",KALIMANTAN UTARA,,Indonesia,,,,3.0730929,116.0413889,https://maps.google.com/?cid=0x0:0x1be184e472ab0c6e,
komplek housing,Komplek perumahan,Kalam,"32FR+6HJ, Long Nyau, Sungai Tubu, Kabupaten Malinau, Kalimantan Utara","Kabupaten Malinau, Kalimantan Utara",KALIMANTAN UTARA,,Indonesia,,,,3.0730929,116.0413889,https://maps.google.com/?cid=0x0:0xb3cb64874ff44b50,
komplek housing,Pembangunan Perumahan,sebuku,"32FR+6HJ, Long Nyau, Sungai Tubu, Kabupaten Malinau, Kalimantan Utara","Kabupaten Malinau, Kalimantan Utara",KALIMANTAN UTARA,,Indonesia,,,,3.0730929,116.0413889,https://maps.google.com/?cid=0x0:0x5865e954b1ae200f,
komplek housing,Komplek perumahan,Desa Lung Makatif,"P4HP+798, Desa, Lung Makatif, Mentarang Hulu, Kabupaten Malinau, Kalimantan Utara","Kabupaten Malinau, Kalimantan Utara",KALIMANTAN UTARA,,Indonesia,,,,3.728169,116.1359431,https://maps.google.com/?cid=0x0:0xc0f95350de33b38a,
komplek housing,Pembangunan Perumahan,tanjungselor,"Long Nyau, Sungai Tubu, Kabupaten Malinau, Kalimantan Utara","Kabupaten Malinau, Kalimantan Utara",KALIMANTAN UTARA,,Indonesia,,,,3.0730929,116.0413889,https://maps.google.com/?cid=0x0:0xb3786bc57f7fd6e,
komplek housing,Perhimpunan Pengembang Perumahan,Maladi,"32FR+6HJ, Long Nyau, Sungai Tubu, Kabupaten Malinau, Kalimantan Utara","Kabupaten Malinau, Kalimantan Utara",KALIMANTAN UTARA,,Indonesia,,,,3.0730929,116.0413889,https://maps.google.com/?cid=0x0:0x4f376bd2699d33e7,
komplek housing,Komplek perumahan,Base Camp,"59MM+H4, Nunuk Tanah Kibang, Kec. Malinau Sel., Kabupaten Malinau, Kalimantan Utara","Kabupaten Malinau, Kalimantan Utara",KALIMANTAN UTARA,,Indonesia,,,,3.1838889,116.3828333,https://maps.google.com/?cid=0x0:0x352c42b7f0846ca7,
komplek housing,komplek housing,Sungai Tubu,"Kabupaten Malinau, Kalimantan Utara","Kabupaten Malinau, Kalimantan Utara",KALIMANTAN UTARA,,Indonesia,,,,3.1431984,116.1359431,https://maps.google.com/?cid=0x0:0xd3c55a121bb6fc5b,
perumahan,perumahan,Kalimantan Utara 77562,"Kabupaten Malinau, Kalimantan Utara","Kabupaten Malinau, Kalimantan Utara",KALIMANTAN UTARA,,Indonesia,,,,2.8627612,115.7575196,https://maps.google.com/?cid=0x0:0xfc58e4f0b107466e,
perumahan,perumahan,Kabupaten malinau,"32FR+6HJ, Long Nyau, Sungai Tubu, Kabupaten Malinau, Kalimantan Utara","Kabupaten Malinau, Kalimantan Utara",KALIMANTAN UTARA,,Indonesia,,,,3.0730929,116.0413889,https://maps.google.com/?cid=0x0:0x1be184e472ab0c6e,
perumahan,Komplek perumahan,Desa long uli,"VV27+FJ6, Long Uli, Bahau Hulu, Kabupaten Malinau, Kalimantan Utara 77562","Long Uli, Bahau Hulu, Kabupaten Malinau",KALIMANTAN UTARA,77562.0,Indonesia,,,,2.8511535,115.8640062,https://maps.google.com/?cid=0x0:0x11dbee377e9bafc0,
perumahan,Ahli Gizi,PKM LONG ALANGO,"WR6W+JQF, Long Tebulo, Bahau Hulu, Kabupaten Malinau, Kalimantan Utara 77562","Long Tebulo, Bahau Hulu, Kabupaten Malinau",KALIMANTAN UTARA,77562.0,Indonesia,,,,2.9115688,115.8469084,https://maps.google.com/?cid=0x0:0xd355c8217a41faf8,
perumahan,Kantor Pemerintah,Desa apau ping,"5Q35+826, Long Berini, Bahau Hulu, Kabupaten Malinau, Kalimantan Utara","Kabupaten Malinau, Kalimantan Utara",KALIMANTAN UTARA,,Indonesia,,,,3.1532957,115.7575196,https://maps.google.com/?cid=0x0:0x2223803c26e95561,
perumahan,Pembangunan Perumahan,Long pada,"44VP+79G, Long Titi, Sungai Tubu, Kabupaten Malinau, Kalimantan Utara","Kabupaten Malinau, Kalimantan Utara",KALIMANTAN UTARA,,Indonesia,,,,3.1431984,116.1359431,https://maps.google.com/?cid=0x0:0x6e086b926774d4bb,
perumahan,Komplek perumahan,Amal lama,"32FR+6HJ, Long Nyau, Sungai Tubu, Kabupaten Malinau, Kalimantan Utara","Kabupaten Malinau, Kalimantan Utara",KALIMANTAN UTARA,,Indonesia,,,,3.0730929,116.0413889,https://maps.google.com/?cid=0x0:0xeee90619b6685a09,
perumahan,Kantor Pemerintah,Kampung PuJungan,"HQQR+HFC, Long Pujungan, Pujungan, Kabupaten Malinau, Kalimantan Utara 77562","Long Pujungan, Pujungan, Kabupaten Malinau",KALIMANTAN UTARA,77562.0,Indonesia,,,,2.5900884,115.7917142,https://maps.google.com/?cid=0x0:0xd9e86156b7a75da3,
perumahan,Perhimpunan Pengembang Perumahan,Bromokas,"32FR+6HJ, Long Nyau, Sungai Tubu, Kabupaten Malinau, Kalimantan Utara","Kabupaten Malinau, Kalimantan Utara",KALIMANTAN UTARA,,Indonesia,,,,3.0730929,116.0413889,https://maps.google.com/?cid=0x0:0x97d370c86c0f972e,
perumahan,Pembangunan Perumahan,Divisi maret,"P348+G6J, Jalan stn Maret, Long Jl., Malinau Sel. Hulu, Kabupaten Malinau, Kalimantan Utara","Kabupaten Malinau, Kalimantan Utara",KALIMANTAN UTARA,,Indonesia,,,,2.7063381,116.0655064,https://maps.google.com/?cid=0x0:0x8459c705c6215503,
perumahan,Komplek perumahan,Kalam,"32FR+6HJ, Long Nyau, Sungai Tubu, Kabupaten Malinau, Kalimantan Utara","Kabupaten Malinau, Kalimantan Utara",KALIMANTAN UTARA,,Indonesia,,,,3.0730929,116.0413889,https://maps.google.com/?cid=0x0:0xb3cb64874ff44b50,
perumahan,Perhimpunan Pengembang Perumahan,Maladi,"32FR+6HJ, Long Nyau, Sungai Tubu, Kabupaten Malinau, Kalimantan Utara","Kabupaten Malinau, Kalimantan Utara",KALIMANTAN UTARA,,Indonesia,,,,3.0730929,116.0413889,https://maps.google.com/?cid=0x0:0x4f376bd2699d33e7,
perumahan,Pembangunan Perumahan,tanjungselor,"Long Nyau, Sungai Tubu, Kabupaten Malinau, Kalimantan Utara","Kabupaten Malinau, Kalimantan Utara",KALIMANTAN UTARA,,Indonesia,,,,3.0730929,116.0413889,https://maps.google.com/?cid=0x0:0xb3786bc57f7fd6e,
perumahan,Komplek perumahan,Tulin onsoi,"32FR+6HJ, Long Nyau, Sungai Tubu, Kabupaten Malinau, Kalimantan Utara 77554","Long Nyau, Sungai Tubu, Kabupaten Malinau",KALIMANTAN UTARA,77554.0,Indonesia,,,,3.0730929,116.0413889,https://maps.google.com/?cid=0x0:0xb0344c0e14faab10,
perumahan,Pembangunan Perumahan,sebuku,"32FR+6HJ, Long Nyau, Sungai Tubu, Kabupaten Malinau, Kalimantan Utara","Kabupaten Malinau, Kalimantan Utara",KALIMANTAN UTARA,,Indonesia,,,,3.0730929,116.0413889,https://maps.google.com/?cid=0x0:0x5865e954b1ae200f,
perumahan,Pembangunan Perumahan,Tanjung Palas timur,"32FR+6HJ, Long Nyau, Sungai Tubu, Kabupaten Malinau, Kalimantan Utara","Kabupaten Malinau, Kalimantan Utara",KALIMANTAN UTARA,,Indonesia,,,,3.0730929,116.0413889,https://maps.google.com/?cid=0x0:0x586647a7688c068,
perumahan,Perhimpunan Pengembang Perumahan,lamin indah,"32FR+6HJ, Long Nyau, Sungai Tubu, Kabupaten Malinau, Kalimantan Utara","Kabupaten Malinau, Kalimantan Utara",KALIMANTAN UTARA,,Indonesia,,,,3.0730929,116.0413889,https://maps.google.com/?cid=0x0:0x4a9fe04291e7672,
perumahan,perumahan,Kabupaten nunukan,"32FR+6HJ, Long Nyau, Sungai Tubu, Kabupaten Malinau, Kalimantan Utara","Kabupaten Malinau, Kalimantan Utara",KALIMANTAN UTARA,,Indonesia,,,,3.0730929,116.0413889,https://maps.google.com/?cid=0x0:0xb43cb89dab248d67,
perumahan,Komplek perumahan,Long Pada,"2398+62J, Long Pada, Sungai Tubu, Kabupaten Malinau, Kalimantan Utara 77554","Long Pada, Sungai Tubu, Kabupaten Malinau",KALIMANTAN UTARA,77554.0,Indonesia,,,,3.0180833,116.0650307,https://maps.google.com/?cid=0x0:0x594fbc6f371a4833,
perumahan,Komplek perumahan,Pondok aco kepiting,"32FR+6HJ, Long Nyau, Sungai Tubu, Kabupaten Malinau, Kalimantan Utara","Kabupaten Malinau, Kalimantan Utara",KALIMANTAN UTARA,,Indonesia,,,,3.0730929,116.0413889,https://maps.google.com/?cid=0x0:0x17332efa319ee91,
perumahan,Perhimpunan Pengembang Perumahan,Nahakramo Baru,"X93Q+MP, Tj. Nanga, Malinau Sel. Hulu, Kabupaten Malinau, Kalimantan Utara","Kabupaten Malinau, Kalimantan Utara",KALIMANTAN UTARA,,Indonesia,,,,2.9541875,116.3893125,https://maps.google.com/?cid=0x0:0x291d81ac2522f06e,
perumahan,perumahan,Kalimantan Timur 77571,"Kabupaten Malinau, Kalimantan Timur","Kabupaten Malinau, Kalimantan Timur",KALIMANTAN UTARA,,Indonesia,,,,2.0788216,115.4733554,https://maps.google.com/?cid=0x0:0xb13d2a74271bea6e,
perumahan,perumahan,Kayan Hilir,"Kabupaten Malinau, Kalimantan Utara","Kabupaten Malinau, Kalimantan Utara",KALIMANTAN UTARA,,Indonesia,,,,2.0788216,115.4733554,https://maps.google.com/?cid=0x0:0x429213980e387789,
perumahan,Komplek perumahan,"Agung Baru, Kecamatan Sungai Boh, Kabupaten Malinau","JC9G+P98, Agung Baru, Sungai Boh, Kabupaten Malinau, Kalimantan Utara","Kabupaten Malinau, Kalimantan Utara",KALIMANTAN UTARA,,Indonesia,,,,1.6192845,115.4259675,https://maps.google.com/?cid=0x0:0x7e5741cb65047870,
perumahan,perumahan,UMAK MAKO,"QWR2+65W, Long Nawang, Kec. Kayan Hulu, Kabupaten Malinau, Kalimantan Utara 77572","Long Nawang, Kec. Kayan Hulu, Kabupaten Malinau",KALIMANTAN UTARA,77572.0,Indonesia,,,,1.7906217,114.9004389,https://maps.google.com/?cid=0x0:0x7f2c56347c55757,
perumahan,perumahan,Uma’ Juto,"QVJX+VM6, RT VI, Nawang Baru, Kec. Kayan Hulu, Kabupaten Malinau, Kalimantan Utara 77572","RT VI, Nawang Baru, Kec. Kayan Hulu, Kabupaten Malinau",KALIMANTAN UTARA,77572.0,Indonesia,,,,1.7821662,114.8991387,https://maps.google.com/?cid=0x0:0xee7692fa22d9cd5b,
perumahan,Komplek perumahan,Apau kayan,"HJMX+M4M, Malinau Kota, Kec. Malinau Kota, Kabupaten Malinau, Kalimantan Utara","Kabupaten Malinau, Kalimantan Utara",KALIMANTAN UTARA,,Indonesia,,,,3.584221,116.647797,https://maps.google.com/?cid=0x0:0x21b1a34f6b9f3c44,
perumahan,Kantor Pemerintah,POS LONG AMPUNG,"PXF8+2G4, Long Ampung, Kayan Sel., Kabupaten Malinau, Kalimantan Utara","Kabupaten Malinau, Kalimantan Utara",KALIMANTAN UTARA,,Indonesia,,,,1.7225224,114.9663415,https://maps.google.com/?cid=0x0:0x2426fc16d04e6670,
perumahan,perumahan,Puskesmas Long Sule,"9PV5+CM2, Long Sule, Kayan Hilir, Kabupaten Malinau, Kalimantan Utara 77571","Long Sule, Kayan Hilir, Kabupaten Malinau",KALIMANTAN UTARA,77571.0,Indonesia,,,,1.3935099,115.709131,https://maps.google.com/?cid=0x0:0xd56f29d86b1ce40c,
perumahan,Pembangunan Perumahan,Agung Baru,"F9MM+H83, Agung Baru, Sungai Boh, Kabupaten Malinau, Kalimantan Utara","Kabupaten Malinau, Kalimantan Utara",KALIMANTAN UTARA,,Indonesia,,,,1.4838896,115.3832838,https://maps.google.com/?cid=0x0:0xe25446b02cab422c,
perumahan,Komplek perumahan,Desa Agung Baru,"F9GJ+G63, Agung Baru, Sungai Boh, Kabupaten Malinau, Kalimantan Utara 77573","Agung Baru, Sungai Boh, Kabupaten Malinau",KALIMANTAN UTARA,77573.0,Indonesia,,,,1.476253,115.3805461,https://maps.google.com/?cid=0x0:0xe4d2bad96216effd,
perumahan,Kantor Pemerintah,Kampung PuJungan,"HQQR+HFC, Long Pujungan, Pujungan, Kabupaten Malinau, Kalimantan Utara 77562","Long Pujungan, Pujungan, Kabupaten Malinau",KALIMANTAN UTARA,77562.0,Indonesia,,,,2.5900884,115.7917142,https://maps.google.com/?cid=0x0:0xd9e86156b7a75da3,
perumahan,perumahan,Puskesmas Long Sule,"VW5W+8PV, Long Sule, Kayan Hilir, Kabupaten Malinau, Kalimantan Utara 77571","Long Sule, Kayan Hilir, Kabupaten Malinau",KALIMANTAN UTARA,77571.0,Indonesia,,,,1.8583702,115.9467997,https://maps.google.com/?cid=0x0:0xe35a485ad143cf4d,
perumahan,Pembangunan Perumahan,Desa Data Baru,"8CC2+HWC, Data Baru, Sungai Boh, Kabupaten Malinau, Kalimantan Utara 77573","Data Baru, Sungai Boh, Kabupaten Malinau",KALIMANTAN UTARA,77573.0,Indonesia,,,,1.3214307,115.4022706,https://maps.google.com/?cid=0x0:0xe963587ea11f1c3f,
perumahan,perumahan,Ayam bakar Rahmat,"CG6V+2M, Long Lebusan, Sungai Boh, Kabupaten Malinau, Kalimantan Utara","Kabupaten Malinau, Kalimantan Utara",KALIMANTAN UTARA,,Indonesia,,,,1.4101045,115.5441684,https://maps.google.com/?cid=0x0:0x828cd72b8c6076dc,
perumahan,perumahan,Kayan Hilir,"Kabupaten Malinau, Kalimantan Utara","Kabupaten Malinau, Kalimantan Utara",KALIMANTAN UTARA,,Indonesia,,,,2.0788216,115.4733554,https://maps.google.com/?cid=0x0:0x429213980e387789,
perumahan,perumahan,Belimbing,"VWMC+6X4, Nanga Mau, Kec. Kayan Hilir, Kabupaten Sintang, Kalimantan Barat 78693","Nanga Mau, Kec. Kayan Hilir, Kabupaten Sintang",KALIMANTAN UTARA,78693.0,Indonesia,,,,-0.116983,111.9224398,https://maps.google.com/?cid=0x0:0xf74098e740c92c04,
perumahan,perumahan,Kalimantan Barat 78693,"Kabupaten Sintang, Kalimantan Barat","Kabupaten Sintang, Kalimantan Barat",KALIMANTAN UTARA,,Indonesia,,,,-0.0346027,111.9999435,https://maps.google.com/?cid=0x0:0xde0de64478083288,
perumahan,Pembangunan Perumahan,Langkau gentong,"VRP3+X4V, Mentunai, Kec. Kayan Hilir, Kabupaten Sintang, Kalimantan Barat 78693","Mentunai, Kec. Kayan Hilir, Kabupaten Sintang",KALIMANTAN UTARA,78693.0,Indonesia,82251148405.0,,,-0.1125001,111.8028037,https://maps.google.com/?cid=0x0:0xf0d88884cc631eb8,
perumahan,Pembangunan Perumahan,Nanga Telingan,"2W4G+P24, Nanga Tikan, Kec. Kayan Hilir, Kabupaten Sintang, Kalimantan Barat 78693","Nanga Tikan, Kec. Kayan Hilir, Kabupaten Sintang",KALIMANTAN UTARA,78693.0,Indonesia,,,,0.006762,111.925081,https://maps.google.com/?cid=0x0:0x432c1624d92bdaaf,
perumahan,Perhimpunan Pengembang Perumahan,Lengkong Bindu,"VWMC+6X4, Nanga Mau, Kec. Kayan Hilir, Kabupaten Sintang, Kalimantan Barat 78693","Nanga Mau, Kec. Kayan Hilir, Kabupaten Sintang",KALIMANTAN UTARA,78693.0,Indonesia,,,,-0.116983,111.9224398,https://maps.google.com/?cid=0x0:0x715b7d12938e0de6,
perumahan,Kompleks Apartemen,MARSUDI HOME,"3X48+QF4, Melingkat, Kec. Kayan Hilir, Kabupaten Sintang, Kalimantan Barat 78693","Melingkat, Kec. Kayan Hilir, Kabupaten Sintang",KALIMANTAN UTARA,78693.0,Indonesia,,,,0.0569658,111.9661793,https://maps.google.com/?cid=0x0:0xee2d35acd6991c9,
perumahan,Komplek perumahan,Laman Rahan,"WW4C+QGM, Mekar Mandiri, Kec. Kayan Hilir, Kabupaten Sintang, Kalimantan Barat 78693","Mekar Mandiri, Kec. Kayan Hilir, Kabupaten Sintang",KALIMANTAN UTARA,78693.0,Indonesia,,,,-0.0939856,111.9218643,https://maps.google.com/?cid=0x0:0xa3259c179495181d,
perumahan,Komplek perumahan,Rumah Dinas Sekrertaris GKII Daerah Kayan,"VWPG+QMV, Nanga Mau, Kec. Kayan Hilir, Kabupaten Sintang, Kalimantan Barat 78693","Nanga Mau, Kec. Kayan Hilir, Kabupaten Sintang",KALIMANTAN UTARA,78693.0,Indonesia,,,,-0.1131804,111.9262845,https://maps.google.com/?cid=0x0:0xe6d939bb18fba272,
perumahan,Perumahan,Dusun Telingan Jaya,"3W67+M7, Kerapa Sepan, Kec. Kayan Hilir, Kabupaten Sintang, Kalimantan Barat 78693","Kerapa Sepan, Kec. Kayan Hilir, Kabupaten Sintang",KALIMANTAN UTARA,78693.0,Indonesia,,,,0.0616382,111.9131323,https://maps.google.com/?cid=0x0:0xc97338f09db88f5,
perumahan,Pembangunan Perumahan,"Desa Begendang Mal, Kec. Kayan Hilir","VPQX+RGW, Natai Tebedak, Kec. Kayan Hilir, Kabupaten Sintang, Kalimantan Barat","Kabupaten Sintang, Kalimantan Barat",KALIMANTAN UTARA,,Indonesia,,,,-0.1103946,111.7488386,https://maps.google.com/?cid=0x0:0xd4a9660db4f1cc8a,
perumahan,Pembangunan Perumahan,Danias home stay,"VWPG+9P8, Nanga Mau, Kec. Kayan Hilir, Kabupaten Sintang, Kalimantan Barat 78693","Nanga Mau, Kec. Kayan Hilir, Kabupaten Sintang",KALIMANTAN UTARA,78693.0,Indonesia,,,,-0.1148052,111.9264864,https://maps.google.com/?cid=0x0:0x2c58d2eb727fe7fc,
perumahan,Pembangunan Perumahan,Rumah Yakop,"XWGH+JW8, Nanga Tikan, Kec. Kayan Hilir, Kabupaten Sintang, Kalimantan Barat 78693","Nanga Tikan, Kec. Kayan Hilir, Kabupaten Sintang",KALIMANTAN UTARA,78693.0,Indonesia,,,,-0.0232434,111.9302991,https://maps.google.com/?cid=0x0:0x82646af656d61317,
perumahan,Komplek perumahan,JALI KAYAN,"XV4V+M3J, Nyangkom, Kec. Kayan Hilir, Kabupaten Sintang, Kalimantan Barat","Kabupaten Sintang, Kalimantan Barat",KALIMANTAN UTARA,,Indonesia,8225486347.0,,,-0.0432913,111.8926303,https://maps.google.com/?cid=0x0:0x186479cf6ada1783,
perumahan,Pembangunan Perumahan,Dusun rekam area,"RQHH+46F, Natai Tebedak, Kec. Kayan Hilir, Kabupaten Sintang, Kalimantan Barat","Kabupaten Sintang, Kalimantan Barat",KALIMANTAN UTARA,,Indonesia,,,,-0.1721822,111.7780616,https://maps.google.com/?cid=0x0:0x765742908fe1cdba,
perumahan,Komplek perumahan,"Neran lama ,","4XMF+JP, Sungai Garong, Kec. Kayan Hilir, Kabupaten Sintang, Kalimantan Barat","Kabupaten Sintang, Kalimantan Barat",KALIMANTAN UTARA,,Indonesia,,,,0.134005,111.9743946,https://maps.google.com/?cid=0x0:0x37120cb5d24c50b7,
perumahan,Komplek perumahan,Rumah Luis Bona,"42V5+7QP, Sungai Sintang, Kec. Kayan Hilir, Kabupaten Sintang, Kalimantan Barat","Kabupaten Sintang, Kalimantan Barat",KALIMANTAN UTARA,,Indonesia,,,,0.1432204,112.0094541,https://maps.google.com/?cid=0x0:0x534c33a513cc6d0b,
perumahan,Pembangunan Perumahan,Warung Alan Kerapa Laut,"3WC4+PVH, Kerapa Sepan, Kec. Kayan Hilir, Kabupaten Sintang, Kalimantan Barat 78693","Kerapa Sepan, Kec. Kayan Hilir, Kabupaten Sintang",KALIMANTAN UTARA,78693.0,Indonesia,,,,0.0735381,111.9081927,https://maps.google.com/?cid=0x0:0x631e05160e2545e7,
perumahan,Komplek perumahan,Pondok,"XWMG+H22, Nanga Tikan, Kec. Kayan Hilir, Kabupaten Sintang, Kalimantan Barat 78693","Nanga Tikan, Kec. Kayan Hilir, Kabupaten Sintang",KALIMANTAN UTARA,78693.0,Indonesia,,,,-0.0161033,111.9250001,https://maps.google.com/?cid=0x0:0xe7dce70ec37635d9,
perumahan,Pembangunan Perumahan,Langkau Ginyo,"VWRC+9JG, Unnamed Road, Jambu, Nanga Mau, Kec. Kayan Hilir, Kabupaten Sintang, Kalimantan Barat 78693","Unnamed Road, Jambu, Nanga Mau, Kec. Kayan Hilir, Kabupaten Sintang",KALIMANTAN UTARA,78693.0,Indonesia,,,,-0.1090715,111.9215833,https://maps.google.com/?cid=0x0:0x3cf097380ab83f1,
perumahan,Komplek perumahan,Rumah Yosef Adi,"WW6F+C66, Mekar Mandiri, Kec. Kayan Hilir, Kabupaten Sintang, Kalimantan Barat 78693","Mekar Mandiri, Kec. Kayan Hilir, Kabupaten Sintang",KALIMANTAN UTARA,78693.0,Indonesia,,,,-0.0889581,111.9235765,https://maps.google.com/?cid=0x0:0x1bf873a5a97f1406,
perumahan,perumahan,Kalimantan Utara 77572,"Kabupaten Malinau, Kalimantan Utara","Kabupaten Malinau, Kalimantan Utara",KALIMANTAN UTARA,,Indonesia,,,,1.7685873,114.8567482,https://maps.google.com/?cid=0x0:0xc91e33de5fc1b909,
perumahan,Komplek perumahan,Long Uro,"MXJX+8H, Long Uro, Kayan Sel., Kabupaten Malinau, Kalimantan Utara","Kabupaten Malinau, Kalimantan Utara",KALIMANTAN UTARA,,Indonesia,,,,1.6813515,114.9977823,https://maps.google.com/?cid=0x0:0x9f9d56e8e7efdd9b,
perumahan,perumahan,UMAK MAKO,"QWR2+65W, Long Nawang, Kec. Kayan Hulu, Kabupaten Malinau, Kalimantan Utara 77572","Long Nawang, Kec. Kayan Hulu, Kabupaten Malinau",KALIMANTAN UTARA,77572.0,Indonesia,,,,1.7906217,114.9004389,https://maps.google.com/?cid=0x0:0x7f2c56347c55757,
perumahan,perumahan,Kec. Kayan Hulu,"Kabupaten Malinau, Kalimantan Utara","Kabupaten Malinau, Kalimantan Utara",KALIMANTAN UTARA,,Indonesia,,,,1.7772932,115.0183619,https://maps.google.com/?cid=0x0:0x9aac24f2a499af17,
perumahan,perumahan,Uma’ Juto,"QVJX+VM6, RT VI, Nawang Baru, Kec. Kayan Hulu, Kabupaten Malinau, Kalimantan Utara 77572","RT VI, Nawang Baru, Kec. Kayan Hulu, Kabupaten Malinau",KALIMANTAN UTARA,77572.0,Indonesia,,,,1.7821662,114.8991387,https://maps.google.com/?cid=0x0:0xee7692fa22d9cd5b,
perumahan,Toko,Rumah Serah,"MWHH+H5P, RT.02, Metulang, Kayan Sel., Kabupaten Malinau, Kalimantan Utara 77572","RT.02, Metulang, Kayan Sel., Kabupaten Malinau",KALIMANTAN UTARA,77572.0,Indonesia,,,,1.6789729,114.9279547,https://maps.google.com/?cid=0x0:0xb1f16d7f770921ba,
perumahan,Komplek perumahan,Apau kayan,"HJMX+M4M, Malinau Kota, Kec. Malinau Kota, Kabupaten Malinau, Kalimantan Utara","Kabupaten Malinau, Kalimantan Utara",KALIMANTAN UTARA,,Indonesia,,,,3.584221,116.647797,https://maps.google.com/?cid=0x0:0x21b1a34f6b9f3c44,
perumahan,perumahan,HADAD NET WIFI,"QWR2+3M3, JL. TANYIT ALANG, Long Nawang, Kec. Kayan Hulu, Kabupaten Malinau, Kalimantan Utara 77572","JL. TANYIT ALANG, Long Nawang, Kec. Kayan Hulu, Kabupaten Malinau",KALIMANTAN UTARA,77572.0,Indonesia,,,,1.7901258,114.9016671,https://maps.google.com/?cid=0x0:0xa7c5bf0b8fed822b,
perumahan,perumahan,Kec. Kayan Hulu,"Kabupaten Malinau, Kalimantan Utara","Kabupaten Malinau, Kalimantan Utara",KALIMANTAN UTARA,,Indonesia,,,,1.7772932,115.0183619,https://maps.google.com/?cid=0x0:0x9aac24f2a499af17,
perumahan,perumahan,Kalimantan Barat 78694,"Kec. Kayan Hulu, Kabupaten Sintang, Kalimantan Barat","Kabupaten Sintang, Kalimantan Barat",KALIMANTAN UTARA,,Indonesia,,,,-0.0690749,112.3337769,https://maps.google.com/?cid=0x0:0xf1565987c85b5ec9,
perumahan,Komplek perumahan,"Bangau,kecamatan kayan hulu","Q6M5+55X, Tanah Merah, Kec. Kayan Hulu, Kabupaten Sintang, Kalimantan Barat","Kabupaten Sintang, Kalimantan Barat",KALIMANTAN UTARA,,Indonesia,,,,-0.2170013,112.2079993,https://maps.google.com/?cid=0x0:0xdcd9729bc2bfa17,
perumahan,Komplek perumahan,Rumah Yosef Sunaryo,"W6HF+5C, Nanga Abai, Kec. Kayan Hulu, Kabupaten Sintang, Kalimantan Barat","Kabupaten Sintang, Kalimantan Barat",KALIMANTAN UTARA,,Indonesia,,,,-0.0720625,112.2235625,https://maps.google.com/?cid=0x0:0xfcef360cee57c829,
perumahan,Kantor Pemerintah,"Desa Nanga oran,kec.kayan hulu,kab sintang","V5P7+8C, Nanga Oran, Kec. Kayan Hulu, Kabupaten Sintang, Kalimantan Barat","Kabupaten Sintang, Kalimantan Barat",KALIMANTAN UTARA,,Indonesia,,,,-0.1141374,112.1636093,https://maps.google.com/?cid=0x0:0x24d24fd42f20b9de,
perumahan,Komplek perumahan,Rukun Damai,"P4XJ+CCX, Nanga Tonggoi, Kec. Kayan Hulu, Kabupaten Sintang, Kalimantan Barat 78694","Nanga Tonggoi, Kec. Kayan Hulu, Kabupaten Sintang",KALIMANTAN UTARA,78694.0,Indonesia,,,,-0.2513995,112.1310986,https://maps.google.com/?cid=0x0:0x3d5da6b6816fb9c8,
perumahan,Perhimpunan Pengembang Perumahan,Rumah meylin,"Q6HX+64, Tanah Merah, Kec. Kayan Hulu, Kabupaten Sintang, Kalimantan Barat","Kabupaten Sintang, Kalimantan Barat",KALIMANTAN UTARA,,Indonesia,,,,-0.2218881,112.24779,https://maps.google.com/?cid=0x0:0x3c68a6ce0e44a3a6,
perumahan,Komplek perumahan,Entogong,"V33G+8MP, Entogong, Kec. Kayan Hulu, Kabupaten Sintang, Kalimantan Barat","Kabupaten Sintang, Kalimantan Barat",KALIMANTAN UTARA,,Indonesia,,,,-0.1466689,112.0766935,https://maps.google.com/?cid=0x0:0x79a79591d2995f60,
perumahan,Pembangunan Perumahan,Simpang Kompas,"R3P2+G5C, Tj. Bunga, Kec. Kayan Hulu, Kabupaten Sintang, Kalimantan Barat 78693","Tj. Bunga, Kec. Kayan Hulu, Kabupaten Sintang",KALIMANTAN UTARA,78693.0,Indonesia,,,,-0.1636866,112.0504028,https://maps.google.com/?cid=0x0:0xa1b7d07630caa68b,
perumahan,Komplek perumahan,Rumah hairil/pakcu,"V34P+752, Nanga Tebidah, Kec. Kayan Hulu, Kabupaten Sintang, Kalimantan Barat 78694","Nanga Tebidah, Kec. Kayan Hulu, Kabupaten Sintang",KALIMANTAN UTARA,78694.0,Indonesia,,,,-0.145063,112.0852995,https://maps.google.com/?cid=0x0:0x9b5d969181fb98f,
perumahan,Komplek perumahan,Rumah Tempat tempat tinggal,"V32G+PPH, Entogong, Kec. Kayan Hulu, Kabupaten Sintang, Kalimantan Barat 78694","Entogong, Kec. Kayan Hulu, Kabupaten Sintang",KALIMANTAN UTARA,78694.0,Indonesia,,,,-0.1481947,112.0768553,https://maps.google.com/?cid=0x0:0xf13f9afd697c7102,
perumahan,Komplek perumahan,Landau bara,"V3MQ+7P9, Landau Bara, Kec. Kayan Hulu, Kabupaten Sintang, Kalimantan Barat 78694","Landau Bara, Kec. Kayan Hulu, Kabupaten Sintang",KALIMANTAN UTARA,78694.0,Indonesia,,,,-0.1168453,112.0893682,https://maps.google.com/?cid=0x0:0xf4566fd1cbec4a5f,
perumahan,Komplek perumahan,Hana,"W5Q9+HWJ, Nanga Abai, Kec. Kayan Hulu, Kabupaten Sintang, Kalimantan Barat 78694","Nanga Abai, Kec. Kayan Hulu, Kabupaten Sintang",KALIMANTAN UTARA,78694.0,Indonesia,,,,-0.0610461,112.1697591,https://maps.google.com/?cid=0x0:0x5e89f00462314487,
perumahan,Komplek perumahan,Rumah meme,"V34J+XWV, Nanga Tebidah, Kec. Kayan Hulu, Kabupaten Sintang, Kalimantan Barat 78694","Nanga Tebidah, Kec. Kayan Hulu, Kabupaten Sintang",KALIMANTAN UTARA,78694.0,Indonesia,,,,-0.141907,112.083118,https://maps.google.com/?cid=0x0:0x7bc95670895386ee,
perumahan,Kantor Pemerintah,Pusat desa,"Q3H6+H5G, Mapan Jaya, Kec. Kayan Hulu, Kabupaten Sintang, Kalimantan Barat","Kabupaten Sintang, Kalimantan Barat",KALIMANTAN UTARA,,Indonesia,,,,-0.2210628,112.0604604,https://maps.google.com/?cid=0x0:0xf4d095b94307a62e,
perumahan,Perhimpunan Pengembang Perumahan,Dusun Menalok Desa Tapang Menua,"V92W+6X, Tapang Menua, Kec. Kayan Hulu, Kabupaten Sintang, Kalimantan Barat","Kabupaten Sintang, Kalimantan Barat",KALIMANTAN UTARA,,Indonesia,,,,-0.1494375,112.3974375,https://maps.google.com/?cid=0x0:0xa076aa7ece44a354,
perumahan,Komplek perumahan,kerapuk jaya,"X6R3+G3R, Kerapuk Jaya, Kec. Kayan Hulu, Kabupaten Sintang, Kalimantan Barat 78694","Kerapuk Jaya, Kec. Kayan Hulu, Kabupaten Sintang",KALIMANTAN UTARA,78694.0,Indonesia,,,,-0.0086351,112.2026347,https://maps.google.com/?cid=0x0:0x1cbb24ec57f7d2f,
perumahan,Komplek perumahan,Rumah Baim,"V34Q+WCW, Landau Bara, Kec. Kayan Hulu, Kabupaten Sintang, Kalimantan Barat 78694","Landau Bara, Kec. Kayan Hulu, Kabupaten Sintang",KALIMANTAN UTARA,78694.0,Indonesia,,,,-0.1426375,112.0885781,https://maps.google.com/?cid=0x0:0xd27860fb5cfc2d87,
perumahan,Komplek perumahan,Lintas kuroi,"V32H+VMX, Entogong, Kec. Kayan Hulu, Kabupaten Sintang, Kalimantan Barat","Kabupaten Sintang, Kalimantan Barat",KALIMANTAN UTARA,,Indonesia,85609928380.0,,,-0.1477674,112.0792275,https://maps.google.com/?cid=0x0:0x1cdd8ac39dafad13,
perumahan,Komplek perumahan,Rumah Rusdi,"V32H+GF, Entogong, Kec. Kayan Hulu, Kabupaten Sintang, Kalimantan Barat","Kabupaten Sintang, Kalimantan Barat",KALIMANTAN UTARA,,Indonesia,,,,-0.1487326,112.0786601,https://maps.google.com/?cid=0x0:0x68e36df7627c14a5,
perumahan,Komplek perumahan,Rumah Mala anak pak L dan ibu M hahaa,"V33H+73P, Entogong, Kec. Kayan Hulu, Kabupaten Sintang, Kalimantan Barat 78694","Entogong, Kec. Kayan Hulu, Kabupaten Sintang",KALIMANTAN UTARA,78694.0,Indonesia,,,,-0.1464233,112.0775212,https://maps.google.com/?cid=0x0:0xf19736cfb4de6171,
perumahan,perumahan,Kalimantan Timur 77573,"Kabupaten Malinau, Kalimantan Timur","Kabupaten Malinau, Kalimantan Timur",KALIMANTAN UTARA,,Indonesia,,,,1.4464714,115.188916,https://maps.google.com/?cid=0x0:0x791588811899f0cb,
perumahan,Komplek perumahan,Long Uro,"MXJX+8H, Long Uro, Kayan Sel., Kabupaten Malinau, Kalimantan Utara","Kabupaten Malinau, Kalimantan Utara",KALIMANTAN UTARA,,Indonesia,,,,1.6813515,114.9977823,https://maps.google.com/?cid=0x0:0x9f9d56e8e7efdd9b,
perumahan,Kantor Pemerintah,POS LONG AMPUNG,"PXF8+2G4, Long Ampung, Kayan Sel., Kabupaten Malinau, Kalimantan Utara","Kabupaten Malinau, Kalimantan Utara",KALIMANTAN UTARA,,Indonesia,,,,1.7225224,114.9663415,https://maps.google.com/?cid=0x0:0x2426fc16d04e6670,
perumahan,Komplek perumahan,Desa Agung Baru,"F9GJ+G63, Agung Baru, Sungai Boh, Kabupaten Malinau, Kalimantan Utara 77573","Agung Baru, Sungai Boh, Kabupaten Malinau",KALIMANTAN UTARA,77573.0,Indonesia,,,,1.476253,115.3805461,https://maps.google.com/?cid=0x0:0xe4d2bad96216effd,
perumahan,Pembangunan Perumahan,Desa Data Baru,"8CC2+HWC, Data Baru, Sungai Boh, Kabupaten Malinau, Kalimantan Utara 77573","Data Baru, Sungai Boh, Kabupaten Malinau",KALIMANTAN UTARA,77573.0,Indonesia,,,,1.3214307,115.4022706,https://maps.google.com/?cid=0x0:0xe963587ea11f1c3f,
perumahan,Komplek perumahan,SATGAS PAMTAS POS LONG AMPUNG,"8XV2+GMV, Long Ampung, Kayan Sel., Kabupaten Malinau, Kalimantan Utara","Kabupaten Malinau, Kalimantan Utara",KALIMANTAN UTARA,,Indonesia,,,,1.3438635,114.9516869,https://maps.google.com/?cid=0x0:0xed634fd516eadc06,
perumahan,Pembangunan Perumahan,Agung Baru,"F9MM+H83, Agung Baru, Sungai Boh, Kabupaten Malinau, Kalimantan Utara","Kabupaten Malinau, Kalimantan Utara",KALIMANTAN UTARA,,Indonesia,,,,1.4838896,115.3832838,https://maps.google.com/?cid=0x0:0xe25446b02cab422c,
perumahan,perumahan,Long Ampung,"Kayan Sel., Kabupaten Malinau, Kalimantan Utara","Kabupaten Malinau, Kalimantan Utara",KALIMANTAN UTARA,,Indonesia,,,,1.3438635,114.9516869,https://maps.google.com/?cid=0x0:0x3807b54661be7094,
perumahan,Komplek perumahan,"Agung Baru, Kecamatan Sungai Boh, Kabupaten Malinau","JC9G+P98, Agung Baru, Sungai Boh, Kabupaten Malinau, Kalimantan Utara","Kabupaten Malinau, Kalimantan Utara",KALIMANTAN UTARA,,Indonesia,,,,1.6192845,115.4259675,https://maps.google.com/?cid=0x0:0x7e5741cb65047870,
perumahan,perumahan,Uma’ Juto,"QVJX+VM6, RT VI, Nawang Baru, Kec. Kayan Hulu, Kabupaten Malinau, Kalimantan Utara 77572","RT VI, Nawang Baru, Kec. Kayan Hulu, Kabupaten Malinau",KALIMANTAN UTARA,77572.0,Indonesia,,,,1.7821662,114.8991387,https://maps.google.com/?cid=0x0:0xee7692fa22d9cd5b,
perumahan,perumahan,UMAK MAKO,"QWR2+65W, Long Nawang, Kec. Kayan Hulu, Kabupaten Malinau, Kalimantan Utara 77572","Long Nawang, Kec. Kayan Hulu, Kabupaten Malinau",KALIMANTAN UTARA,77572.0,Indonesia,,,,1.7906217,114.9004389,https://maps.google.com/?cid=0x0:0x7f2c56347c55757,
perumahan,Toko,Rumah Serah,"MWHH+H5P, RT.02, Metulang, Kayan Sel., Kabupaten Malinau, Kalimantan Utara 77572","RT.02, Metulang, Kayan Sel., Kabupaten Malinau",KALIMANTAN UTARA,77572.0,Indonesia,,,,1.6789729,114.9279547,https://maps.google.com/?cid=0x0:0xb1f16d7f770921ba,
perumahan,perumahan,Ayam bakar Rahmat,"CG6V+2M, Long Lebusan, Sungai Boh, Kabupaten Malinau, Kalimantan Utara","Kabupaten Malinau, Kalimantan Utara",KALIMANTAN UTARA,,Indonesia,,,,1.4101045,115.5441684,https://maps.google.com/?cid=0x0:0x828cd72b8c6076dc,
perumahan,perumahan,Kec. Malinau Bar.,"Kabupaten Malinau, Kalimantan Utara","Kabupaten Malinau, Kalimantan Utara",KALIMANTAN UTARA,,Indonesia,,,,3.5374774,116.612704,https://maps.google.com/?cid=0x0:0xcb2568b300b5bd79,
perumahan,Pembangunan Perumahan,Perumahan PEMDA,"HJ94+M29, Malinau Hulu, Kec. Malinau Kota, Kabupaten Malinau, Kalimantan Utara 77554","Malinau Hulu, Kec. Malinau Kota, Kabupaten Malinau",KALIMANTAN UTARA,77554.0,Indonesia,,,,3.5691711,116.6051162,https://maps.google.com/?cid=0x0:0x8358cbc919acb77d,
perumahan,perumahan,Base Camp,"GJX7+W63, Malinau Hulu, Kec. Malinau Kota, Kabupaten Malinau, Kalimantan Utara 77554","Malinau Hulu, Kec. Malinau Kota, Kabupaten Malinau",KALIMANTAN UTARA,77554.0,Indonesia,,,,3.549737,116.612871,https://maps.google.com/?cid=0x0:0xc76063b065888d4,
perumahan,Pembangunan Perumahan,Herawati,"HJ66+MR3, Malinau Hulu, Kec. Malinau Kota, Kabupaten Malinau, Kalimantan Utara 77554","Malinau Hulu, Kec. Malinau Kota, Kabupaten Malinau",KALIMANTAN UTARA,77554.0,Indonesia,,,,3.5616436,116.6120537,https://maps.google.com/?cid=0x0:0xd5821e335ac9ab3,
perumahan,Komplek perumahan,Dendy Supardi,"GJQ6+PV4, Jl. Pedo, Kuala Lapang, Kec. Malinau Bar., Kabupaten Malinau, Kalimantan Utara 77554","Jl. Pedo, Kuala Lapang, Kec. Malinau Bar., Kabupaten Malinau",KALIMANTAN UTARA,77554.0,Indonesia,,,,3.5392587,116.6122086,https://maps.google.com/?cid=0x0:0xc003f15be3f213bb,
perumahan,Komplek perumahan,Tanamas Residence.,"GHJV+2RH, Unnamed Road, Tj. Lapang, Kec. Malinau Bar., Kabupaten Malinau, Kalimantan Utara 77554","Unnamed Road, Tj. Lapang, Kec. Malinau Bar., Kabupaten Malinau",KALIMANTAN UTARA,77554.0,Indonesia,,,,3.5300702,116.5946006,https://maps.google.com/?cid=0x0:0x9606e39ea58c67b9,
perumahan,Pembangunan Perumahan,Novic House,"GH9F+R5X, Taras, Kec. Malinau Bar., Kabupaten Malinau, Kalimantan Utara 77554","Taras, Kec. Malinau Bar., Kabupaten Malinau",KALIMANTAN UTARA,77554.0,Indonesia,,,,3.5196093,116.5729907,https://maps.google.com/?cid=0x0:0x5e6f0f914f77f7da,
perumahan,Pembangunan Perumahan,Tanjung lapang,"GH8R+Q5X, Tj. Lapang, Kec. Malinau Bar., Kabupaten Malinau, Kalimantan Utara 77554","Tj. Lapang, Kec. Malinau Bar., Kabupaten Malinau",KALIMANTAN UTARA,77554.0,Indonesia,,,,3.516986,116.5904741,https://maps.google.com/?cid=0x0:0x4d34f081ef4f8a34,
perumahan,Pembangunan Perumahan,Kalimantan utara,"GH8R+Q5X, Tj. Lapang, Kec. Malinau Bar., Kabupaten Malinau, Kalimantan Utara 77554","Tj. Lapang, Kec. Malinau Bar., Kabupaten Malinau",KALIMANTAN UTARA,77554.0,Indonesia,85248267819.0,,,3.516986,116.5904741,https://maps.google.com/?cid=0x0:0xcb9c7b273d38d88b,
perumahan,Komplek perumahan,Rmh elang,"Jl. Pemda No.2, RT.8/RW.No.117, Malinau Hulu, Kec. Malinau Kota, Kabupaten Malinau, Kalimantan Utara 77554","RT.8/RW.No.117, Malinau Hulu, Kec. Malinau Kota, Kabupaten Malinau",KALIMANTAN UTARA,77554.0,Indonesia,,,,3.5684598,116.6080409,https://maps.google.com/?cid=0x0:0x175e4af71a17d817,
perumahan,Pembangunan Perumahan,Belakang SMAN 1 Malinau,"HJ95+XJF, RT.10, Malinau Hulu, Kec. Malinau Kota, Kabupaten Malinau, Kalimantan Utara 77554","RT.10, Malinau Hulu, Kec. Malinau Kota, Kabupaten Malinau",KALIMANTAN UTARA,77554.0,Indonesia,,,,3.5699367,116.6090433,https://maps.google.com/?cid=0x0:0x8f2001f4ce17750e,
perumahan,Komplek perumahan,Gang Imanuel,"HJF7+425, Jl. Raja Pandita, Malinau Hulu, Kec. Malinau Kota, Kabupaten Malinau, Kalimantan Utara 77554","Jl. Raja Pandita, Malinau Hulu, Kec. Malinau Kota, Kabupaten Malinau",KALIMANTAN UTARA,77554.0,Indonesia,,,,3.5727552,116.6126177,https://maps.google.com/?cid=0x0:0x5fa6b9a01efb9df,
perumahan,Komplek perumahan,fichslc,"Jl. Raja Alam No.RT.4, Malinau Kota, Kec. Malinau Kota, Kabupaten Malinau, Kalimantan Utara 77554","Malinau Kota, Kec. Malinau Kota, Kabupaten Malinau",KALIMANTAN UTARA,77554.0,Indonesia,,,,3.5871908,116.6238417,https://maps.google.com/?cid=0x0:0x2a445a69243d8ac2,
perumahan,Kantor Perusahaan,Malinau kota,"HJM9+PJM, Jl. Panembahan No.10, Malinau Kota, Kec. Malinau Kota, Kabupaten Malinau, Kalimantan Utara 77554","Jl. Panembahan No.10, Malinau Kota, Kec. Malinau Kota, Kabupaten Malinau",KALIMANTAN UTARA,77554.0,Indonesia,,,,3.5870387,116.6200401,https://maps.google.com/?cid=0x0:0xe8a7bca549de40e,
perumahan,Pembangunan Perumahan,Gang.kerayan,"HJF4+328, Malinau Hulu, Kec. Malinau Kota, Kabupaten Malinau, Kalimantan Utara 77554","Malinau Hulu, Kec. Malinau Kota, Kabupaten Malinau",KALIMANTAN UTARA,77554.0,Indonesia,,,,3.5726337,116.6050647,https://maps.google.com/?cid=0x0:0x4d473dff5e5caa1,
perumahan,Komplek perumahan,Malinau,"GH8R+Q5X, Tj. Lapang, Kec. Malinau Bar., Kabupaten Malinau, Kalimantan Utara 77554","Tj. Lapang, Kec. Malinau Bar., Kabupaten Malinau",KALIMANTAN UTARA,77554.0,Indonesia,,,,3.516986,116.5904741,https://maps.google.com/?cid=0x0:0xae6802a80ca8c6df,
perumahan,Komplek perumahan,Tadeus Dawa Siga Ebom,"GJM7+RRF, Kuala Lapang, Kec. Malinau Bar., Kabupaten Malinau, Kalimantan Utara 77554","Kuala Lapang, Kec. Malinau Bar., Kabupaten Malinau",KALIMANTAN UTARA,77554.0,Indonesia,82155298533.0,,,3.5345621,116.6145448,https://maps.google.com/?cid=0x0:0x4c6780126768cdcb,
perumahan,Pembangunan Perumahan,Rumah Djulan Kleden,"HJCC+V4W, Malinau Kota, Kec. Malinau Kota, Kabupaten Malinau, Kalimantan Utara 77554","Malinau Kota, Kec. Malinau Kota, Kabupaten Malinau",KALIMANTAN UTARA,77554.0,Indonesia,82231806094.0,,,3.5722473,116.620333,https://maps.google.com/?cid=0x0:0xd78bf5dd2fc9c7c,
perumahan,Perumahan,Perumahan Bumi Raja Pandita,"HJQR+FV9, Malinau Kota, Kec. Malinau Kota, Kabupaten Malinau, Kalimantan Utara 77554","Malinau Kota, Kec. Malinau Kota, Kabupaten Malinau",KALIMANTAN UTARA,77554.0,Indonesia,,,,3.5886638,116.6422474,https://maps.google.com/?cid=0x0:0x18f6c99ba145d2d3,
perumahan,Pembangunan Perumahan,Jyo Bimbel,"Jl. Banggris No.Rt.13, Malinau Kota, Kec. Malinau Kota, Kabupaten Malinau, Kalimantan Utara 77554","Malinau Kota, Kec. Malinau Kota, Kabupaten Malinau",KALIMANTAN UTARA,77554.0,Indonesia,,,,3.5819056,116.6337391,https://maps.google.com/?cid=0x0:0x9cbf3fd4641057a2,
perumahan,perumahan,Rumah Ahmat,"HJXH+34F, Jl. Raja Alam, Malinau Seberang, Kec. Malinau Utara, Kabupaten Malinau, Kalimantan Utara 77554","Jl. Raja Alam, Malinau Seberang, Kec. Malinau Utara, Kabupaten Malinau",KALIMANTAN UTARA,77554.0,Indonesia,,,,3.5982372,116.6276347,https://maps.google.com/?cid=0x0:0x2d97cca4f069896b,
perumahan,Komplek perumahan,Rumah Soesanto,"HMP4+69, Malinau Hilir, Kec. Malinau Kota, Kabupaten Malinau, Kalimantan Utara 77554","Malinau Hilir, Kec. Malinau Kota, Kabupaten Malinau",KALIMANTAN UTARA,77554.0,Indonesia,,,,3.5855681,116.6559434,https://maps.google.com/?cid=0x0:0x28baa76e23162428,
perumahan,Pembangunan Perumahan,Henari koes,"HJ39+38W, Unnamed Road, Malinau Hulu, Kec. Malinau Kota, Kabupaten Malinau, Kalimantan Utara 77554","Unnamed Road, Malinau Hulu, Kec. Malinau Kota, Kabupaten Malinau",KALIMANTAN UTARA,77554.0,Indonesia,,,,3.5527435,116.6183195,https://maps.google.com/?cid=0x0:0x947b2c493d7d925,
perumahan,Pembangunan Perumahan,Nae Jibe,"Jl. Kuala Lapang No.34, Kuala Lapang, Malinau Barat, Malinau Regency, North Kalimantan 77554","Kuala Lapang, Malinau Barat, Malinau Regency",KALIMANTAN UTARA,77554.0,Indonesia,,,,3.5301975,116.610374,https://maps.google.com/?cid=0x0:0x1fc1559b9753e47e,
perumahan,Pembangunan Perumahan,Rumah Aurel Abner,"CH7F+34M, Kuala Lapang, Kec. Malinau Bar., Kabupaten Malinau, Kalimantan Utara 77554","Kuala Lapang, Kec. Malinau Bar., Kabupaten Malinau",KALIMANTAN UTARA,77554.0,Indonesia,,,,3.4127072,116.5727815,https://maps.google.com/?cid=0x0:0xe8205d7ecec06b2c,
perumahan,Pembangunan Perumahan,Jl. ARI,"GJR7+2HQ, Kuala Lapang, Kec. Malinau Bar., Kabupaten Malinau, Kalimantan Utara 77554","Kuala Lapang, Kec. Malinau Bar., Kabupaten Malinau",KALIMANTAN UTARA,77554.0,Indonesia,,,,3.5393269,116.614013,https://maps.google.com/?cid=0x0:0x782ed3f7eb0e82ae,
perumahan,Pembangunan Perumahan,Ocky S,"Jln. Pekuyut No.rt 008, Kuala Lapang, Kec. Malinau Bar., Kabupaten Malinau, Kalimantan Utara 77554","Kuala Lapang, Kec. Malinau Bar., Kabupaten Malinau",KALIMANTAN UTARA,77554.0,Indonesia,,,,3.4127072,116.5727815,https://maps.google.com/?cid=0x0:0xb27a91a1588beba5,
perumahan,Pembangunan Perumahan,Rumah Antoni Thomas (Panyit),"CH7F+34M, Kuala Lapang, Kec. Malinau Bar., Kabupaten Malinau, Kalimantan Utara 77554","Kuala Lapang, Kec. Malinau Bar., Kabupaten Malinau",KALIMANTAN UTARA,77554.0,Indonesia,,,,3.4127072,116.5727815,https://maps.google.com/?cid=0x0:0xa94c27cb381b6a81,
perumahan,Pembangunan Perumahan,Marni,"CH7F+34M, Kuala Lapang, Kec. Malinau Bar., Kabupaten Malinau, Kalimantan Utara 77554","Kuala Lapang, Kec. Malinau Bar., Kabupaten Malinau",KALIMANTAN UTARA,77554.0,Indonesia,,,,3.4127072,116.5727815,https://maps.google.com/?cid=0x0:0xedb24c23fc735c91,
perumahan,perumahan,Malinau,"Malinau Kota, Kec. Malinau Kota, Kabupaten Malinau, Kalimantan Timur","Kabupaten Malinau, Kalimantan Timur",KALIMANTAN UTARA,,Indonesia,,,,3.584221,116.647797,https://maps.google.com/?cid=0x0:0xa317c514e5ce8a42,
perumahan,Pembangunan Perumahan,Sesua,"HJMX+M4M, Malinau Kota, Kec. Malinau Kota, Kabupaten Malinau, Kalimantan Utara","Kabupaten Malinau, Kalimantan Utara",KALIMANTAN UTARA,,Indonesia,,,,3.584221,116.647797,https://maps.google.com/?cid=0x0:0xeb94fc7d684b522e,
perumahan,Komplek perumahan,Apau kayan,"HJMX+M4M, Malinau Kota, Kec. Malinau Kota, Kabupaten Malinau, Kalimantan Utara","Kabupaten Malinau, Kalimantan Utara",KALIMANTAN UTARA,,Indonesia,,,,3.584221,116.647797,https://maps.google.com/?cid=0x0:0x21b1a34f6b9f3c44,
perumahan,Komplek perumahan,KOLONG PRIDE,"HJMX+M4M, Malinau Kota, Kec. Malinau Kota, Kabupaten Malinau, Kalimantan Utara 77554","Malinau Kota, Kec. Malinau Kota, Kabupaten Malinau",KALIMANTAN UTARA,77554.0,Indonesia,,,,3.584221,116.647797,https://maps.google.com/?cid=0x0:0x4cd807a01a169378,
perumahan,Rumah Kayu,rumah,"HJMX+M4M Samping Kantor Pengadilan, Gang Keluarga, Malinau Kota, Kec. Malinau Kota, Kabupaten Malinau, Kalimantan Utara","Kabupaten Malinau, Kalimantan Utara",KALIMANTAN UTARA,,Indonesia,,,,3.584221,116.647797,https://maps.google.com/?cid=0x0:0x612bacab106af09e,
perumahan,Komplek perumahan,Seluing,"HJMX+M4M, Malinau Kota, Kec. Malinau Kota, Kabupaten Malinau, Kalimantan Utara","Kabupaten Malinau, Kalimantan Utara",KALIMANTAN UTARA,,Indonesia,,,,3.584221,116.647797,https://maps.google.com/?cid=0x0:0x8923ed6c47b826a5,
perumahan,perumahan,Rumah Rahmat NKRI,"HJMX+M4M, Jl Maharaja Dinda, Malinau seberang, Kec. Malinau Utara, Kabupaten Malinau, Kalimantan Utara","Kabupaten Malinau, Kalimantan Utara",KALIMANTAN UTARA,,Indonesia,,,,3.584221,116.647797,https://maps.google.com/?cid=0x0:0x433b39982418abfc,
perumahan,Komplek perumahan,"Junaidi, SE","HJMX+M4M, Belawon, Kec. Malinau Kota, Kabupaten Malinau, Kalimantan Utara","Kabupaten Malinau, Kalimantan Utara",KALIMANTAN UTARA,,Indonesia,,,,3.584221,116.647797,https://maps.google.com/?cid=0x0:0xff5126c51ae781eb,
perumahan,Pembangunan Perumahan,Berlin Home,"HJQC+PX2, Malinau Kota, Kec. Malinau Kota, Kabupaten Malinau, Kalimantan Utara","Kabupaten Malinau, Kalimantan Utara",KALIMANTAN UTARA,,Indonesia,,,,3.5856335,116.6475045,https://maps.google.com/?cid=0x0:0x662dad94a84ce1ec,
perumahan,Perhimpunan Pengembang Perumahan,PT bkl,"HJMX+M4M Bkl, Malinau Kota, Malinau Regency, North Kalimantan","Kabupaten Malinau, Kalimantan Utara",KALIMANTAN UTARA,,Indonesia,,,,3.584221,116.647797,https://maps.google.com/?cid=0x0:0xd3abefb8dcf99d01,
perumahan,Pembangunan Perumahan,Kel.Paksi J,"HJMX+M4J, Malinau Kota, Kec. Malinau Kota, Kabupaten Malinau, Kalimantan Utara","Kabupaten Malinau, Kalimantan Utara",KALIMANTAN UTARA,,Indonesia,,,,3.5842027,116.6477751,https://maps.google.com/?cid=0x0:0x24c99ec0c7f928de,
perumahan,perumahan,PAK RIVAL,"HJMX+M4M, Malinau Kota, Kec. Malinau Kota, Kabupaten Malinau, Kalimantan Utara 77554","Malinau Kota, Kec. Malinau Kota, Kabupaten Malinau",KALIMANTAN UTARA,77554.0,Indonesia,,,,3.584221,116.647797,https://maps.google.com/?cid=0x0:0xd8336d2f5c13c158,
perumahan,Komplek perumahan,Linda HWI Home,"HJMX+M4M, Malinau Kota, Kec. Malinau Kota, Kabupaten Malinau, Kalimantan Timur","Kabupaten Malinau, Kalimantan Timur",KALIMANTAN UTARA,,Indonesia,,,,3.584221,116.647797,https://maps.google.com/?cid=0x0:0xcd49199ce4bf6ebf,
perumahan,Rumah Kayu,Langap,"HJMX+M4M, Malinau Kota, Kec. Malinau Kota, Kabupaten Malinau, Kalimantan Utara","Kabupaten Malinau, Kalimantan Utara",KALIMANTAN UTARA,,Indonesia,,,,3.584221,116.647797,https://maps.google.com/?cid=0x0:0xa71810411ce9aab7,
perumahan,Restoran,Milo Indah Rumah Makan,"HJMX+W8V, Malinau Kota, Kec. Malinau Kota, Kabupaten Malinau, Kalimantan Utara 77554","Malinau Kota, Kec. Malinau Kota, Kabupaten Malinau",KALIMANTAN UTARA,77554.0,Indonesia,55321353.0,,,3.584867,116.648283,https://maps.google.com/?cid=0x0:0xf2837d06eb01712c,
perumahan,Restoran,Rumah Makan Purnama,"HJMX+R4C, Malinau Kota, Kec. Malinau Kota, Kabupaten Malinau, Kalimantan Utara 77554","Malinau Kota, Kec. Malinau Kota, Kabupaten Malinau",KALIMANTAN UTARA,77554.0,Indonesia,55321458.0,,,3.584567,116.647761,https://maps.google.com/?cid=0x0:0x39d63f4db0fc4cc9,
perumahan,perumahan,REBORN 16,"HJMX+M4M Asmil yonif 614 / RJP, Belayan, Kec. Malinau Utara, Kabupaten Malinau, Kalimantan Utara","Kabupaten Malinau, Kalimantan Utara",KALIMANTAN UTARA,,Indonesia,,,,3.584221,116.647797,https://maps.google.com/?cid=0x0:0xa36c97734cca5a8f,
perumahan,Restoran,Malinau,"RT Jl. AMD No.20, Malinau Kota, Kec. Malinau Kota, Kabupaten Malinau, Kalimantan Utara 77554","Malinau Kota, Kec. Malinau Kota, Kabupaten Malinau",KALIMANTAN UTARA,77554.0,Indonesia,82352047019.0,,,3.584221,116.647797,https://maps.google.com/?cid=0x0:0x4e60f3ea4fc8e6af,
perumahan,Restoran,Mitra Indah Rumah Makan,"Jl. Panembahan No.RT. 004, Malinau Kota, Kec. Malinau Kota, Kabupaten Malinau, Kalimantan Utara 77554","Malinau Kota, Kec. Malinau Kota, Kabupaten Malinau",KALIMANTAN UTARA,77554.0,Indonesia,5532022056.0,,,3.584867,116.648283,https://maps.google.com/?cid=0x0:0xcf01bfdd5467ae10,
perumahan,Toko Mebel,SAUDARA. CV,"Melinjo Raya, No No.2, Malinau Kota, Kec. Malinau Kota, Kabupaten Malinau, Kalimantan Utara 77554","No No.2, Malinau Kota, Kec. Malinau Kota, Kabupaten Malinau",KALIMANTAN UTARA,77554.0,Indonesia,85216986145.0,,,3.5846954,116.6478111,https://maps.google.com/?cid=0x0:0x314b048aafaf4131,
perumahan,perumahan,Kec. Malinau Sel.,"Kabupaten Malinau, Kalimantan Utara","Kabupaten Malinau, Kalimantan Utara",KALIMANTAN UTARA,,Indonesia,,,,3.1674448,116.4704561,https://maps.google.com/?cid=0x0:0x4516403666700bfb,
perumahan,Gedung Apartemen,"Mess Pandawa PT. MA,Tbk","4CVX+XC, Nunuk Tanah Kibang, Kec. Malinau Sel., Kabupaten Malinau, Kalimantan Utara 77554","Nunuk Tanah Kibang, Kec. Malinau Sel., Kabupaten Malinau",KALIMANTAN UTARA,77554.0,Indonesia,,,,3.145,116.448608,https://maps.google.com/?cid=0x0:0xd5f062de38fb1d74,
perumahan,Komplek perumahan,Raymond Mana,"4GRG+M6Q, Paya Seturan, Kec. Malinau Sel., Kabupaten Malinau, Kalimantan Utara 77554","Paya Seturan, Kec. Malinau Sel., Kabupaten Malinau",KALIMANTAN UTARA,77554.0,Indonesia,,,,3.1417093,116.5255946,https://maps.google.com/?cid=0x0:0xb6a0a4869b11bb73,
perumahan,Kompleks Kondominium,Balai Adat Long Loreh,"5F99+WM3, Unnamed Road, Pelencau, Kec. Malinau Sel., Kabupaten Malinau, Kalimantan Utara 77554","Unnamed Road, Pelencau, Kec. Malinau Sel., Kabupaten Malinau",KALIMANTAN UTARA,77554.0,Indonesia,,,,3.1697608,116.4691614,https://maps.google.com/?cid=0x0:0xbe649620791f56a4,
perumahan,Inspektur Tempat Tinggal,kalimantan utara,"3FQ3+PWM, Langap, Kec. Malinau Sel., Kabupaten Malinau, Kalimantan Utara 77554","Langap, Kec. Malinau Sel., Kabupaten Malinau",KALIMANTAN UTARA,77554.0,Indonesia,,,,3.0893295,116.4547962,https://maps.google.com/?cid=0x0:0x8bcb2df63e648804,
perumahan,Komplek perumahan,Desa Laban Nyarit,"4C7Q+RF4, Laban Nyarit, Kec. Malinau Sel., Kabupaten Malinau, Kalimantan Utara 77554","Laban Nyarit, Kec. Malinau Sel., Kabupaten Malinau",KALIMANTAN UTARA,77554.0,Indonesia,,,,3.114521,116.4386888,https://maps.google.com/?cid=0x0:0x142edf2c6337afb2,
perumahan,Komplek perumahan,Orica KPUC Malinau,"4G53+52, Paya Seturan, Kec. Malinau Sel., Kabupaten Malinau, Kalimantan Utara","Kabupaten Malinau, Kalimantan Utara",KALIMANTAN UTARA,,Indonesia,,,,3.1079322,116.502578,https://maps.google.com/?cid=0x0:0x9d279805341af976,
perumahan,Pembangunan Perumahan,DESA PUNAN GONG SOLOK,"8H73+5QR, Punan Gong Solok, Kec. Malinau Selatan Hilir, Kabupaten Malinau, Kalimantan Utara 77554","Punan Gong Solok, Kec. Malinau Selatan Hilir, Kabupaten Malinau",KALIMANTAN UTARA,77554.0,Indonesia,,,,3.3129969,116.554403,https://maps.google.com/?cid=0x0:0xa8ab289605f244f6,
perumahan,Komplek perumahan,Base Camp,"59MM+H4, Nunuk Tanah Kibang, Kec. Malinau Sel., Kabupaten Malinau, Kalimantan Utara","Kabupaten Malinau, Kalimantan Utara",KALIMANTAN UTARA,,Indonesia,,,,3.1838889,116.3828333,https://maps.google.com/?cid=0x0:0x352c42b7f0846ca7,
perumahan,Komplek perumahan,Bila bekayuk,"5JV9+9XG, Bila Bekayuk, Kec. Malinau Sel., Kabupaten Malinau, Kalimantan Utara 77554","Bila Bekayuk, Kec. Malinau Sel., Kabupaten Malinau",KALIMANTAN UTARA,77554.0,Indonesia,,,,3.1934284,116.6199587,https://maps.google.com/?cid=0x0:0x5cc274e726187f43,
perumahan,perumahan,wifi anak bujang,"5GJJ+WH9, Long Loreh, Kec. Malinau Sel., Kabupaten Malinau, Kalimantan Utara 77554","Long Loreh, Kec. Malinau Sel., Kabupaten Malinau",KALIMANTAN UTARA,77554.0,Indonesia,,,,3.1822988,116.5314935,https://maps.google.com/?cid=0x0:0xe9b8350f034f6e48,
perumahan,Pembangunan Perumahan,Ocky S,"Jln. Pekuyut No.rt 008, Kuala Lapang, Kec. Malinau Bar., Kabupaten Malinau, Kalimantan Utara 77554","Kuala Lapang, Kec. Malinau Bar., Kabupaten Malinau",KALIMANTAN UTARA,77554.0,Indonesia,,,,3.4127072,116.5727815,https://maps.google.com/?cid=0x0:0xb27a91a1588beba5,
perumahan,Komplek perumahan,P. Munet,"5GJJ+WH9, Long Loreh, Kec. Malinau Sel., Kabupaten Malinau, Kalimantan Utara","Kabupaten Malinau, Kalimantan Utara",KALIMANTAN UTARA,,Indonesia,,,,3.1822988,116.5314935,https://maps.google.com/?cid=0x0:0xd2fe81c658546be3,
perumahan,Perhimpunan Pengembang Perumahan,Nahakramo Baru,"X93Q+MP, Tj. Nanga, Malinau Sel. Hulu, Kabupaten Malinau, Kalimantan Utara","Kabupaten Malinau, Kalimantan Utara",KALIMANTAN UTARA,,Indonesia,,,,2.9541875,116.3893125,https://maps.google.com/?cid=0x0:0x291d81ac2522f06e,
perumahan,Wilayah Lintas Alam,Punan Mirau,"48W7+X7R, Punan Mirau, Malinau Sel. Hulu, Kabupaten Malinau, Kalimantan Utara 77554","Punan Mirau, Malinau Sel. Hulu, Kabupaten Malinau",KALIMANTAN UTARA,77554.0,Indonesia,,,,3.1474909,116.3131356,https://maps.google.com/?cid=0x0:0xd6c0b9d1c84d3e27,
perumahan,Rumah Kayu,Agussaleem geroda,"Jln lawai lerang,rt 3, Pelencau, Kec. Malinau Sel., Kabupaten Malinau, Kalimantan Utara 77554","Pelencau, Kec. Malinau Sel., Kabupaten Malinau",KALIMANTAN UTARA,77554.0,Indonesia,82255553452.0,,,3.1713023,116.4683245,https://maps.google.com/?cid=0x0:0xfab817a35228297b,
perumahan,Pembangunan Perumahan,Desa Gong Solok,"9GCV+547, Gong Solok, Kec. Malinau Selatan Hilir, Kabupaten Malinau, Kalimantan Utara 77554","Gong Solok, Kec. Malinau Selatan Hilir, Kabupaten Malinau",KALIMANTAN UTARA,77554.0,Indonesia,,,,3.3704073,116.5427931,https://maps.google.com/?cid=0x0:0xce6a54ffe6d7c2e0,
perumahan,Vila,Mes PT Kamaju site Loreh,"5F8F+432, Long Loreh, Kec. Malinau Sel., Kabupaten Malinau, Kalimantan Utara 77554","Long Loreh, Kec. Malinau Sel., Kabupaten Malinau",KALIMANTAN UTARA,77554.0,Indonesia,,,,3.1652512,116.4726406,https://maps.google.com/?cid=0x0:0xda4bcf093f3a0c11,
perumahan,Komplek perumahan,Pondok Andrew,"CC8J+QF8, Setulang, Kec. Malinau Selatan Hilir, Kabupaten Malinau, Kalimantan Utara 77554","Setulang, Kec. Malinau Selatan Hilir, Kabupaten Malinau",KALIMANTAN UTARA,77554.0,Indonesia,,,,3.416905,116.431192,https://maps.google.com/?cid=0x0:0x8f85ca22df6df32c,
perumahan,Pembangunan Perumahan,Andro home,"FF5W+46V, Setulang, Kec. Malinau Selatan Hilir, Kabupaten Malinau, Kalimantan Utara 77554","Setulang, Kec. Malinau Selatan Hilir, Kabupaten Malinau",KALIMANTAN UTARA,77554.0,Indonesia,,,,3.4578544,116.4955574,https://maps.google.com/?cid=0x0:0x90f01a5fdda9610e,
perumahan,Rumah Sakit,RS.Bergerak ds.langap,"kp.langap Malinau Sel., 77554, Long Loreh, Kec. Malinau Sel., Kabupaten Malinau, Kalimantan Utara 77554","77554, Long Loreh, Kec. Malinau Sel., Kabupaten Malinau",KALIMANTAN UTARA,77554.0,Indonesia,,,,3.1503406,116.4734643,https://maps.google.com/?cid=0x0:0xa817093c0f4ac173,
perumahan,Kantor Perusahaan,Mess ARKA Malinau,"4GRG+M6Q, Paya Seturan, Kec. Malinau Sel., Kabupaten Malinau, Kalimantan Utara","Kabupaten Malinau, Kalimantan Utara",KALIMANTAN UTARA,,Indonesia,,,,3.1417093,116.5255946,https://maps.google.com/?cid=0x0:0x24b725aefb6677b9,
perumahan,Pembangunan Perumahan,Jogjakarta,"FF3X+XM, Setulang, Kec. Malinau Selatan Hilir, Kabupaten Malinau, Kalimantan Utara","Kabupaten Malinau, Kalimantan Utara",KALIMANTAN UTARA,,Indonesia,,,,3.454951,116.499135,https://maps.google.com/?cid=0x0:0xe369c814ac34c5a3,
perumahan,perumahan,Kec. Malinau Selatan Hilir,"Kabupaten Malinau, Kalimantan Utara","Kabupaten Malinau, Kalimantan Utara",KALIMANTAN UTARA,,Indonesia,,,,3.3146294,116.5577197,https://maps.google.com/?cid=0x0:0x3c0190dd52d21f13,
perumahan,Pembangunan Perumahan,DESA PUNAN GONG SOLOK,"8H73+5QR, Punan Gong Solok, Kec. Malinau Selatan Hilir, Kabupaten Malinau, Kalimantan Utara 77554","Punan Gong Solok, Kec. Malinau Selatan Hilir, Kabupaten Malinau",KALIMANTAN UTARA,77554.0,Indonesia,,,,3.3129969,116.554403,https://maps.google.com/?cid=0x0:0xa8ab289605f244f6,
perumahan,Pembangunan Perumahan,Perumahan PEMDA,"HJ94+M29, Malinau Hulu, Kec. Malinau Kota, Kabupaten Malinau, Kalimantan Utara 77554","Malinau Hulu, Kec. Malinau Kota, Kabupaten Malinau",KALIMANTAN UTARA,77554.0,Indonesia,,,,3.5691711,116.6051162,https://maps.google.com/?cid=0x0:0x8358cbc919acb77d,
perumahan,Pembangunan Perumahan,Jogjakarta,"FF3X+XM, Setulang, Kec. Malinau Selatan Hilir, Kabupaten Malinau, Kalimantan Utara","Kabupaten Malinau, Kalimantan Utara",KALIMANTAN UTARA,,Indonesia,,,,3.454951,116.499135,https://maps.google.com/?cid=0x0:0xe369c814ac34c5a3,
perumahan,Komplek perumahan,Raymond Mana,"4GRG+M6Q, Paya Seturan, Kec. Malinau Sel., Kabupaten Malinau, Kalimantan Utara 77554","Paya Seturan, Kec. Malinau Sel., Kabupaten Malinau",KALIMANTAN UTARA,77554.0,Indonesia,,,,3.1417093,116.5255946,https://maps.google.com/?cid=0x0:0xb6a0a4869b11bb73,
perumahan,Pembangunan Perumahan,Andro home,"FF5W+46V, Setulang, Kec. Malinau Selatan Hilir, Kabupaten Malinau, Kalimantan Utara 77554","Setulang, Kec. Malinau Selatan Hilir, Kabupaten Malinau",KALIMANTAN UTARA,77554.0,Indonesia,,,,3.4578544,116.4955574,https://maps.google.com/?cid=0x0:0x90f01a5fdda9610e,
perumahan,Pembangunan Perumahan,Ocky S,"Jln. Pekuyut No.rt 008, Kuala Lapang, Kec. Malinau Bar., Kabupaten Malinau, Kalimantan Utara 77554","Kuala Lapang, Kec. Malinau Bar., Kabupaten Malinau",KALIMANTAN UTARA,77554.0,Indonesia,,,,3.4127072,116.5727815,https://maps.google.com/?cid=0x0:0xb27a91a1588beba5,
perumahan,Komplek perumahan,Anugrah setulang,"FF4X+73, Setulang, Kec. Malinau Selatan Hilir, Kabupaten Malinau, Kalimantan Utara","Kabupaten Malinau, Kalimantan Utara",KALIMANTAN UTARA,,Indonesia,,,,3.455738,116.497732,https://maps.google.com/?cid=0x0:0x26ef1393922ed07d,
perumahan,Pembangunan Perumahan,Desa Rajuk,"F97J+7CG, Harapan Maju, Kec. Mentarang, Kabupaten Malinau, Kalimantan Utara","Kabupaten Malinau, Kalimantan Utara",KALIMANTAN UTARA,,Indonesia,,,,3.4631987,116.3810746,https://maps.google.com/?cid=0x0:0x90b247c3a8d08f8c,
perumahan,Komplek perumahan,Pondok Andrew,"CC8J+QF8, Setulang, Kec. Malinau Selatan Hilir, Kabupaten Malinau, Kalimantan Utara 77554","Setulang, Kec. Malinau Selatan Hilir, Kabupaten Malinau",KALIMANTAN UTARA,77554.0,Indonesia,,,,3.416905,116.431192,https://maps.google.com/?cid=0x0:0x8f85ca22df6df32c,
perumahan,Gedung Apartemen,"Mess Pandawa PT. MA,Tbk","4CVX+XC, Nunuk Tanah Kibang, Kec. Malinau Sel., Kabupaten Malinau, Kalimantan Utara 77554","Nunuk Tanah Kibang, Kec. Malinau Sel., Kabupaten Malinau",KALIMANTAN UTARA,77554.0,Indonesia,,,,3.145,116.448608,https://maps.google.com/?cid=0x0:0xd5f062de38fb1d74,
perumahan,Pembangunan Perumahan,Gang.kerayan,"HJF4+328, Malinau Hulu, Kec. Malinau Kota, Kabupaten Malinau, Kalimantan Utara 77554","Malinau Hulu, Kec. Malinau Kota, Kabupaten Malinau",KALIMANTAN UTARA,77554.0,Indonesia,,,,3.5726337,116.6050647,https://maps.google.com/?cid=0x0:0x4d473dff5e5caa1,
perumahan,Rumah Kayu,Anurah,"desa wisata, RT.02/RW.no 03, Setulang, Kec. Malinau Selatan Hilir, Kabupaten Malinau, Kalimantan Utara 77554","RT.02/RW.no 03, Setulang, Kec. Malinau Selatan Hilir, Kabupaten Malinau",KALIMANTAN UTARA,77554.0,Indonesia,81351142929.0,,,3.4563759,116.4976062,https://maps.google.com/?cid=0x0:0x1615eaa9422ce2ba,
perumahan,Komplek perumahan,Fauzi rahmadan,"4CVX+XC, Nunuk Tanah Kibang, Kec. Malinau Sel., Kabupaten Malinau, Kalimantan Utara 77554","Nunuk Tanah Kibang, Kec. Malinau Sel., Kabupaten Malinau",KALIMANTAN UTARA,77554.0,Indonesia,,,,3.1447051,116.4483441,https://maps.google.com/?cid=0x0:0xc7fc7f8115e5f3d1,
perumahan,Pembangunan Perumahan,Kebun Olivia,"FH24+HJ, Long Kenipe, Kec. Malinau Bar., Kabupaten Malinau, Kalimantan Utara 77554","Long Kenipe, Kec. Malinau Bar., Kabupaten Malinau",KALIMANTAN UTARA,77554.0,Indonesia,,,,3.4514155,116.5566078,https://maps.google.com/?cid=0x0:0xa6aed398f4682d4b,
perumahan,Komplek perumahan,Tanamas Residence.,"GHJV+2RH, Unnamed Road, Tj. Lapang, Kec. Malinau Bar., Kabupaten Malinau, Kalimantan Utara 77554","Unnamed Road, Tj. Lapang, Kec. Malinau Bar., Kabupaten Malinau",KALIMANTAN UTARA,77554.0,Indonesia,,,,3.5300702,116.5946006,https://maps.google.com/?cid=0x0:0x9606e39ea58c67b9,
perumahan,perumahan,Rumah Supriono,"JH6J+7RR, Sembuak Warod, Kec. Malinau Utara, Kabupaten Malinau, Kalimantan Utara","Kabupaten Malinau, Kalimantan Utara",KALIMANTAN UTARA,,Indonesia,,,,3.6107278,116.5820113,https://maps.google.com/?cid=0x0:0xc30cd18bac2db0af,
perumahan,Pembangunan Perumahan,BPU LOKASI TULID FASAN,"GG77+W29, Jl. Pulau Sapi, Lidung Kemenci, Kec. Mentarang, Kabupaten Malinau, Kalimantan Utara 77554","Jl. Pulau Sapi, Lidung Kemenci, Kec. Mentarang, Kabupaten Malinau",KALIMANTAN UTARA,77554.0,Indonesia,81251860260.0,,,3.514625,116.512224,https://maps.google.com/?cid=0x0:0xf8212b0a708e1bc4,
perumahan,Inspektur Tempat Tinggal,kalimantan utara,"3FQ3+PWM, Langap, Kec. Malinau Sel., Kabupaten Malinau, Kalimantan Utara 77554","Langap, Kec. Malinau Sel., Kabupaten Malinau",KALIMANTAN UTARA,77554.0,Indonesia,,,,3.0893295,116.4547962,https://maps.google.com/?cid=0x0:0x8bcb2df63e648804,
perumahan,Pembangunan Perumahan,Relokasi,"F9XH+CJ, Harapan Maju, Kec. Mentarang, Kabupaten Malinau, Kalimantan Utara","Kabupaten Malinau, Kalimantan Utara",KALIMANTAN UTARA,,Indonesia,,,,3.4986,116.379,https://maps.google.com/?cid=0x0:0xd54a0ea0a0fbbe85,
perumahan,Rumah Kayu,Rumah Alung Bong,"8H73+9J, Punan Gong Solok, Kec. Malinau Selatan Hilir, Kabupaten Malinau, Kalimantan Utara","Kabupaten Malinau, Kalimantan Utara",KALIMANTAN UTARA,,Indonesia,,,,3.3134619,116.553991,https://maps.google.com/?cid=0x0:0x516515b9c9c431a0,
perumahan,Pembangunan Perumahan,Rumah Jendry,"JH6J+7R, Sembuak Warod, Kec. Malinau Utara, Kabupaten Malinau, Kalimantan Utara 77554","Sembuak Warod, Kec. Malinau Utara, Kabupaten Malinau",KALIMANTAN UTARA,77554.0,Indonesia,,,,3.6106845,116.5820136,https://maps.google.com/?cid=0x0:0x90549259556b5e8d,
perumahan,perumahan,Rumah orang suka mandi sungai,"GHQQ+3MR, Tj. Lapang, Kec. Malinau Bar., Kabupaten Malinau, Kalimantan Utara 77554","Tj. Lapang, Kec. Malinau Bar., Kabupaten Malinau",KALIMANTAN UTARA,77554.0,Indonesia,,,,3.5381042,116.5889955,https://maps.google.com/?cid=0x0:0xe5aeeb2f02271c24,
perumahan,Vila,Home stay,"FF5W+46V, Setulang, Kec. Malinau Selatan Hilir, Kabupaten Malinau, Kalimantan Utara 77554","Setulang, Kec. Malinau Selatan Hilir, Kabupaten Malinau",KALIMANTAN UTARA,77554.0,Indonesia,,,,3.4573678,116.4955097,https://maps.google.com/?cid=0x0:0xf9e2c5cea5a329b6,
perumahan,Pembangunan Perumahan,Kebun,"GF6W+2G, Long Bila, Kec. Malinau Bar., Kabupaten Malinau, Kalimantan Utara","Kabupaten Malinau, Kalimantan Utara",KALIMANTAN UTARA,,Indonesia,,,,3.5100853,116.496336,https://maps.google.com/?cid=0x0:0x23bffc65fc7b21d,
perumahan,perumahan,Rumah Chelsea palintong,"FF5W+HC, Setulang, Kec. Malinau Selatan Hilir, Kabupaten Malinau, Kalimantan Utara 77554","Setulang, Kec. Malinau Selatan Hilir, Kabupaten Malinau",KALIMANTAN UTARA,77554.0,Indonesia,,,,3.4589006,116.4960013,https://maps.google.com/?cid=0x0:0x19fd28c4d80366ef,
perumahan,perumahan,Kalimantan Utara 77554,"Kabupaten Malinau, Kalimantan Utara","Kabupaten Malinau, Kalimantan Utara",KALIMANTAN UTARA,,Indonesia,,,,2.9234432,116.2304616,https://maps.google.com/?cid=0x0:0x100a8cc2c03a7e66,
perumahan,Pembangunan Perumahan,Perumahan PEMDA,"HJ94+M29, Malinau Hulu, Kec. Malinau Kota, Kabupaten Malinau, Kalimantan Utara 77554","Malinau Hulu, Kec. Malinau Kota, Kabupaten Malinau",KALIMANTAN UTARA,77554.0,Indonesia,,,,3.5691711,116.6051162,https://maps.google.com/?cid=0x0:0x8358cbc919acb77d,
perumahan,perumahan,Base Camp,"GJX7+W63, Malinau Hulu, Kec. Malinau Kota, Kabupaten Malinau, Kalimantan Utara 77554","Malinau Hulu, Kec. Malinau Kota, Kabupaten Malinau",KALIMANTAN UTARA,77554.0,Indonesia,,,,3.549737,116.612871,https://maps.google.com/?cid=0x0:0xc76063b065888d4,
perumahan,perumahan,Rumah Supriono,"JH6J+7RR, Sembuak Warod, Kec. Malinau Utara, Kabupaten Malinau, Kalimantan Utara","Kabupaten Malinau, Kalimantan Utara",KALIMANTAN UTARA,,Indonesia,,,,3.6107278,116.5820113,https://maps.google.com/?cid=0x0:0xc30cd18bac2db0af,
perumahan,Pembangunan Perumahan,Gang.kerayan,"HJF4+328, Malinau Hulu, Kec. Malinau Kota, Kabupaten Malinau, Kalimantan Utara 77554","Malinau Hulu, Kec. Malinau Kota, Kabupaten Malinau",KALIMANTAN UTARA,77554.0,Indonesia,,,,3.5726337,116.6050647,https://maps.google.com/?cid=0x0:0x4d473dff5e5caa1,
perumahan,perumahan,Kabupaten malinau,"32FR+6HJ, Long Nyau, Sungai Tubu, Kabupaten Malinau, Kalimantan Utara","Kabupaten Malinau, Kalimantan Utara",KALIMANTAN UTARA,,Indonesia,,,,3.0730929,116.0413889,https://maps.google.com/?cid=0x0:0x1be184e472ab0c6e,
perumahan,perumahan,Arsal,"JJ77+78Q, Respen Tubu, Kec. Malinau Utara, Kabupaten Malinau, Kalimantan Utara","Kabupaten Malinau, Kalimantan Utara",KALIMANTAN UTARA,,Indonesia,,,,3.6128982,116.613369,https://maps.google.com/?cid=0x0:0x2c016ca152a21d48,
perumahan,Komplek perumahan,Rmh elang,"Jl. Pemda No.2, RT.8/RW.No.117, Malinau Hulu, Kec. Malinau Kota, Kabupaten Malinau, Kalimantan Utara 77554","RT.8/RW.No.117, Malinau Hulu, Kec. Malinau Kota, Kabupaten Malinau",KALIMANTAN UTARA,77554.0,Indonesia,,,,3.5684598,116.6080409,https://maps.google.com/?cid=0x0:0x175e4af71a17d817,
perumahan,Pembangunan Perumahan,Belakang SMAN 1 Malinau,"HJ95+XJF, RT.10, Malinau Hulu, Kec. Malinau Kota, Kabupaten Malinau, Kalimantan Utara 77554","RT.10, Malinau Hulu, Kec. Malinau Kota, Kabupaten Malinau",KALIMANTAN UTARA,77554.0,Indonesia,,,,3.5699367,116.6090433,https://maps.google.com/?cid=0x0:0x8f2001f4ce17750e,
perumahan,Komplek perumahan,Raymond Mana,"4GRG+M6Q, Paya Seturan, Kec. Malinau Sel., Kabupaten Malinau, Kalimantan Utara 77554","Paya Seturan, Kec. Malinau Sel., Kabupaten Malinau",KALIMANTAN UTARA,77554.0,Indonesia,,,,3.1417093,116.5255946,https://maps.google.com/?cid=0x0:0xb6a0a4869b11bb73,
perumahan,Perhimpunan Pengembang Perumahan,Nahakramo Baru,"X93Q+MP, Tj. Nanga, Malinau Sel. Hulu, Kabupaten Malinau, Kalimantan Utara","Kabupaten Malinau, Kalimantan Utara",KALIMANTAN UTARA,,Indonesia,,,,2.9541875,116.3893125,https://maps.google.com/?cid=0x0:0x291d81ac2522f06e,
perumahan,Gedung Apartemen,"Mess Pandawa PT. MA,Tbk","4CVX+XC, Nunuk Tanah Kibang, Kec. Malinau Sel., Kabupaten Malinau, Kalimantan Utara 77554","Nunuk Tanah Kibang, Kec. Malinau Sel., Kabupaten Malinau",KALIMANTAN UTARA,77554.0,Indonesia,,,,3.145,116.448608,https://maps.google.com/?cid=0x0:0xd5f062de38fb1d74,
perumahan,Komplek perumahan,Fauzi rahmadan,"4CVX+XC, Nunuk Tanah Kibang, Kec. Malinau Sel., Kabupaten Malinau, Kalimantan Utara 77554","Nunuk Tanah Kibang, Kec. Malinau Sel., Kabupaten Malinau",KALIMANTAN UTARA,77554.0,Indonesia,,,,3.1447051,116.4483441,https://maps.google.com/?cid=0x0:0xc7fc7f8115e5f3d1,
perumahan,Pembangunan Perumahan,Rumah Djulan Kleden,"HJCC+V4W, Malinau Kota, Kec. Malinau Kota, Kabupaten Malinau, Kalimantan Utara 77554","Malinau Kota, Kec. Malinau Kota, Kabupaten Malinau",KALIMANTAN UTARA,77554.0,Indonesia,82231806094.0,,,3.5722473,116.620333,https://maps.google.com/?cid=0x0:0xd78bf5dd2fc9c7c,
perumahan,Komplek perumahan,Pondok Jeruk,"Jl. BBI No.RT.4, Kaliamok, Malinau Utara, Malinau Regency, North Kalimantan 77554","Kaliamok, Malinau Utara, Malinau Regency",KALIMANTAN UTARA,77554.0,Indonesia,,,,3.635936,116.6351149,https://maps.google.com/?cid=0x0:0xd8be7b1b81530952,
perumahan,Komplek perumahan,fichslc,"Jl. Raja Alam No.RT.4, Malinau Kota, Kec. Malinau Kota, Kabupaten Malinau, Kalimantan Utara 77554","Malinau Kota, Kec. Malinau Kota, Kabupaten Malinau",KALIMANTAN UTARA,77554.0,Indonesia,,,,3.5871908,116.6238417,https://maps.google.com/?cid=0x0:0x2a445a69243d8ac2,
perumahan,Pembangunan Perumahan,Ocky S,"Jln. Pekuyut No.rt 008, Kuala Lapang, Kec. Malinau Bar., Kabupaten Malinau, Kalimantan Utara 77554","Kuala Lapang, Kec. Malinau Bar., Kabupaten Malinau",KALIMANTAN UTARA,77554.0,Indonesia,,,,3.4127072,116.5727815,https://maps.google.com/?cid=0x0:0xb27a91a1588beba5,
perumahan,Komplek perumahan,Rumah Christopher,"JJ26+Q3R, Gg. Tubu, Respen Tubu, Kec. Malinau Utara, Kabupaten Malinau, Kalimantan Utara 77554","Gg. Tubu, Respen Tubu, Kec. Malinau Utara, Kabupaten Malinau",KALIMANTAN UTARA,77554.0,Indonesia,,,,3.6019902,116.6101551,https://maps.google.com/?cid=0x0:0xa58df94a78360074,
perumahan,Komplek perumahan,Dendy Supardi,"GJQ6+PV4, Jl. Pedo, Kuala Lapang, Kec. Malinau Bar., Kabupaten Malinau, Kalimantan Utara 77554","Jl. Pedo, Kuala Lapang, Kec. Malinau Bar., Kabupaten Malinau",KALIMANTAN UTARA,77554.0,Indonesia,,,,3.5392587,116.6122086,https://maps.google.com/?cid=0x0:0xc003f15be3f213bb,
perumahan,Komplek perumahan,Tanamas Residence.,"GHJV+2RH, Unnamed Road, Tj. Lapang, Kec. Malinau Bar., Kabupaten Malinau, Kalimantan Utara 77554","Unnamed Road, Tj. Lapang, Kec. Malinau Bar., Kabupaten Malinau",KALIMANTAN UTARA,77554.0,Indonesia,,,,3.5300702,116.5946006,https://maps.google.com/?cid=0x0:0x9606e39ea58c67b9,
perumahan,Pembangunan Perumahan,Herawati,"HJ66+MR3, Malinau Hulu, Kec. Malinau Kota, Kabupaten Malinau, Kalimantan Utara 77554","Malinau Hulu, Kec. Malinau Kota, Kabupaten Malinau",KALIMANTAN UTARA,77554.0,Indonesia,,,,3.5616436,116.6120537,https://maps.google.com/?cid=0x0:0xd5821e335ac9ab3,
perumahan,Pembangunan Perumahan,Henari koes,"HJ39+38W, Unnamed Road, Malinau Hulu, Kec. Malinau Kota, Kabupaten Malinau, Kalimantan Utara 77554","Unnamed Road, Malinau Hulu, Kec. Malinau Kota, Kabupaten Malinau",KALIMANTAN UTARA,77554.0,Indonesia,,,,3.5527435,116.6183195,https://maps.google.com/?cid=0x0:0x947b2c493d7d925,
perumahan,Kompleks Kondominium,Balai Adat Long Loreh,"5F99+WM3, Unnamed Road, Pelencau, Kec. Malinau Sel., Kabupaten Malinau, Kalimantan Utara 77554","Unnamed Road, Pelencau, Kec. Malinau Sel., Kabupaten Malinau",KALIMANTAN UTARA,77554.0,Indonesia,,,,3.1697608,116.4691614,https://maps.google.com/?cid=0x0:0xbe649620791f56a4,
perumahan,Pembangunan Perumahan,DESA PUNAN GONG SOLOK,"8H73+5QR, Punan Gong Solok, Kec. Malinau Selatan Hilir, Kabupaten Malinau, Kalimantan Utara 77554","Punan Gong Solok, Kec. Malinau Selatan Hilir, Kabupaten Malinau",KALIMANTAN UTARA,77554.0,Indonesia,,,,3.3129969,116.554403,https://maps.google.com/?cid=0x0:0xa8ab289605f244f6,
perumahan,Perhimpunan Pengembang Perumahan,Rumah febri,"HJC3+GWX, Malinau Hulu, Kec. Malinau Kota, Kabupaten Malinau, Kalimantan Utara 77554","Malinau Hulu, Kec. Malinau Kota, Kabupaten Malinau",KALIMANTAN UTARA,77554.0,Indonesia,,,,3.5713861,116.6048858,https://maps.google.com/?cid=0x0:0x7a9019cc9985dd8d,
perumahan,perumahan,Kec. Malinau Utara,"Kabupaten Malinau, Kalimantan Utara","Kabupaten Malinau, Kalimantan Utara",KALIMANTAN UTARA,,Indonesia,,,,3.5926011,116.6196331,https://maps.google.com/?cid=0x0:0xb9f35c1d23aa16b7,
perumahan,Pembangunan Perumahan,Perumahan PEMDA,"HJ94+M29, Malinau Hulu, Kec. Malinau Kota, Kabupaten Malinau, Kalimantan Utara 77554","Malinau Hulu, Kec. Malinau Kota, Kabupaten Malinau",KALIMANTAN UTARA,77554.0,Indonesia,,,,3.5691711,116.6051162,https://maps.google.com/?cid=0x0:0x8358cbc919acb77d,
perumahan,perumahan,Rumah Ahmat,"HJXH+34F, Jl. Raja Alam, Malinau Seberang, Kec. Malinau Utara, Kabupaten Malinau, Kalimantan Utara 77554","Jl. Raja Alam, Malinau Seberang, Kec. Malinau Utara, Kabupaten Malinau",KALIMANTAN UTARA,77554.0,Indonesia,,,,3.5982372,116.6276347,https://maps.google.com/?cid=0x0:0x2d97cca4f069896b,
perumahan,Pembangunan Perumahan,Sesua,"HJMX+M4M, Malinau Kota, Kec. Malinau Kota, Kabupaten Malinau, Kalimantan Utara","Kabupaten Malinau, Kalimantan Utara",KALIMANTAN UTARA,,Indonesia,,,,3.584221,116.647797,https://maps.google.com/?cid=0x0:0xeb94fc7d684b522e,
perumahan,perumahan,Arsal,"JJ77+78Q, Respen Tubu, Kec. Malinau Utara, Kabupaten Malinau, Kalimantan Utara","Kabupaten Malinau, Kalimantan Utara",KALIMANTAN UTARA,,Indonesia,,,,3.6128982,116.613369,https://maps.google.com/?cid=0x0:0x2c016ca152a21d48,
perumahan,Perumahan,Perumahan Bumi Raja Pandita,"HJQR+FV9, Malinau Kota, Kec. Malinau Kota, Kabupaten Malinau, Kalimantan Utara 77554","Malinau Kota, Kec. Malinau Kota, Kabupaten Malinau",KALIMANTAN UTARA,77554.0,Indonesia,,,,3.5886638,116.6422474,https://maps.google.com/?cid=0x0:0x18f6c99ba145d2d3,
perumahan,Kantor Perusahaan,Malinau kota,"HJM9+PJM, Jl. Panembahan No.10, Malinau Kota, Kec. Malinau Kota, Kabupaten Malinau, Kalimantan Utara 77554","Jl. Panembahan No.10, Malinau Kota, Kec. Malinau Kota, Kabupaten Malinau",KALIMANTAN UTARA,77554.0,Indonesia,,,,3.5870387,116.6200401,https://maps.google.com/?cid=0x0:0xe8a7bca549de40e,
perumahan,Komplek perumahan,Altaf House,"HJXF+9Q2, Malinau Seberang, Kec. Malinau Utara, Kabupaten Malinau, Kalimantan Utara 77554","Malinau Seberang, Kec. Malinau Utara, Kabupaten Malinau",KALIMANTAN UTARA,77554.0,Indonesia,,,,3.5983941,116.6243906,https://maps.google.com/?cid=0x0:0xbdc6755cc3f07b15,
perumahan,Komplek perumahan,fichslc,"Jl. Raja Alam No.RT.4, Malinau Kota, Kec. Malinau Kota, Kabupaten Malinau, Kalimantan Utara 77554","Malinau Kota, Kec. Malinau Kota, Kabupaten Malinau",KALIMANTAN UTARA,77554.0,Indonesia,,,,3.5871908,116.6238417,https://maps.google.com/?cid=0x0:0x2a445a69243d8ac2,
perumahan,Pembangunan Perumahan,Rumah Jendry,"JH6J+7R, Sembuak Warod, Kec. Malinau Utara, Kabupaten Malinau, Kalimantan Utara 77554","Sembuak Warod, Kec. Malinau Utara, Kabupaten Malinau",KALIMANTAN UTARA,77554.0,Indonesia,,,,3.6106845,116.5820136,https://maps.google.com/?cid=0x0:0x90549259556b5e8d,
perumahan,Pembangunan Perumahan,Herawati,"HJ66+MR3, Malinau Hulu, Kec. Malinau Kota, Kabupaten Malinau, Kalimantan Utara 77554","Malinau Hulu, Kec. Malinau Kota, Kabupaten Malinau",KALIMANTAN UTARA,77554.0,Indonesia,,,,3.5616436,116.6120537,https://maps.google.com/?cid=0x0:0xd5821e335ac9ab3,
perumahan,Komplek perumahan,Rumah Christopher,"JJ26+Q3R, Gg. Tubu, Respen Tubu, Kec. Malinau Utara, Kabupaten Malinau, Kalimantan Utara 77554","Gg. Tubu, Respen Tubu, Kec. Malinau Utara, Kabupaten Malinau",KALIMANTAN UTARA,77554.0,Indonesia,,,,3.6019902,116.6101551,https://maps.google.com/?cid=0x0:0xa58df94a78360074,
perumahan,Komplek perumahan,Pondok Jeruk,"Jl. BBI No.RT.4, Kaliamok, Malinau Utara, Malinau Regency, North Kalimantan 77554","Kaliamok, Malinau Utara, Malinau Regency",KALIMANTAN UTARA,77554.0,Indonesia,,,,3.635936,116.6351149,https://maps.google.com/?cid=0x0:0xd8be7b1b81530952,
perumahan,Komplek perumahan,Gang Imanuel,"HJF7+425, Jl. Raja Pandita, Malinau Hulu, Kec. Malinau Kota, Kabupaten Malinau, Kalimantan Utara 77554","Jl. Raja Pandita, Malinau Hulu, Kec. Malinau Kota, Kabupaten Malinau",KALIMANTAN UTARA,77554.0,Indonesia,,,,3.5727552,116.6126177,https://maps.google.com/?cid=0x0:0x5fa6b9a01efb9df,
perumahan,Komplek perumahan,Tanamas Residence.,"GHJV+2RH, Unnamed Road, Tj. Lapang, Kec. Malinau Bar., Kabupaten Malinau, Kalimantan Utara 77554","Unnamed Road, Tj. Lapang, Kec. Malinau Bar., Kabupaten Malinau",KALIMANTAN UTARA,77554.0,Indonesia,,,,3.5300702,116.5946006,https://maps.google.com/?cid=0x0:0x9606e39ea58c67b9,
perumahan,Komplek perumahan,Rmh elang,"Jl. Pemda No.2, RT.8/RW.No.117, Malinau Hulu, Kec. Malinau Kota, Kabupaten Malinau, Kalimantan Utara 77554","RT.8/RW.No.117, Malinau Hulu, Kec. Malinau Kota, Kabupaten Malinau",KALIMANTAN UTARA,77554.0,Indonesia,,,,3.5684598,116.6080409,https://maps.google.com/?cid=0x0:0x175e4af71a17d817,
perumahan,Pembangunan Perumahan,Jyo Bimbel,"Jl. Banggris No.Rt.13, Malinau Kota, Kec. Malinau Kota, Kabupaten Malinau, Kalimantan Utara 77554","Malinau Kota, Kec. Malinau Kota, Kabupaten Malinau",KALIMANTAN UTARA,77554.0,Indonesia,,,,3.5819056,116.6337391,https://maps.google.com/?cid=0x0:0x9cbf3fd4641057a2,
perumahan,Rumah Sakit,RSUD Malinau,"Respen Tubu, Kec. Malinau Utara, Kabupaten Malinau, Kalimantan Utara 77554","Kec. Malinau Utara, Kabupaten Malinau",KALIMANTAN UTARA,77554.0,Indonesia,,,,3.6033394,116.6091589,https://maps.google.com/?cid=0x0:0xdbe2a7620cad771c,
perumahan,Pembangunan Perumahan,Rumah Djulan Kleden,"HJCC+V4W, Malinau Kota, Kec. Malinau Kota, Kabupaten Malinau, Kalimantan Utara 77554","Malinau Kota, Kec. Malinau Kota, Kabupaten Malinau",KALIMANTAN UTARA,77554.0,Indonesia,82231806094.0,,,3.5722473,116.620333,https://maps.google.com/?cid=0x0:0xd78bf5dd2fc9c7c,
perumahan,Pembangunan Perumahan,Gang.kerayan,"HJF4+328, Malinau Hulu, Kec. Malinau Kota, Kabupaten Malinau, Kalimantan Utara 77554","Malinau Hulu, Kec. Malinau Kota, Kabupaten Malinau",KALIMANTAN UTARA,77554.0,Indonesia,,,,3.5726337,116.6050647,https://maps.google.com/?cid=0x0:0x4d473dff5e5caa1,
perumahan,Komplek perumahan,Rumah Soesanto,"HMP4+69, Malinau Hilir, Kec. Malinau Kota, Kabupaten Malinau, Kalimantan Utara 77554","Malinau Hilir, Kec. Malinau Kota, Kabupaten Malinau",KALIMANTAN UTARA,77554.0,Indonesia,,,,3.5855681,116.6559434,https://maps.google.com/?cid=0x0:0x28baa76e23162428,
perumahan,Komplek perumahan,Rumah Om Dewa,"JH3X+MPW, Unnamed Road, Luso, Kec. Malinau Utara, Kabupaten Malinau, Kalimantan Utara 77554","Unnamed Road, Luso, Kec. Malinau Utara, Kabupaten Malinau",KALIMANTAN UTARA,77554.0,Indonesia,,,,3.604233,116.5993302,https://maps.google.com/?cid=0x0:0xa00685a22a8f3ab3,
perumahan,Komplek perumahan,Rumah Pak. Noveliantoner,"HJVM+PX4, Jl. AMD, Malinau Kota, Kec. Malinau Kota, Kabupaten Malinau, Kalimantan Utara 77554","Jl. AMD, Malinau Kota, Kec. Malinau Kota, Kabupaten Malinau",KALIMANTAN UTARA,77554.0,Indonesia,,,,3.5942572,116.634951,https://maps.google.com/?cid=0x0:0x191429589e0869be,
perumahan,Pembangunan Perumahan,Belakang SMAN 1 Malinau,"HJ95+XJF, RT.10, Malinau Hulu, Kec. Malinau Kota, Kabupaten Malinau, Kalimantan Utara 77554","RT.10, Malinau Hulu, Kec. Malinau Kota, Kabupaten Malinau",KALIMANTAN UTARA,77554.0,Indonesia,,,,3.5699367,116.6090433,https://maps.google.com/?cid=0x0:0x8f2001f4ce17750e,
perumahan,Jembatan,Jembatan Alok Pripayer,"HJRC+G7F, Jl. Raja Alam, Malinau Seberang, Kec. Malinau Utara, Kabupaten Malinau, Kalimantan Utara 77554","Jl. Raja Alam, Malinau Seberang, Kec. Malinau Utara, Kabupaten Malinau",KALIMANTAN UTARA,77554.0,Indonesia,,,,3.5916305,116.6203522,https://maps.google.com/?cid=0x0:0xd3b09bd7790cc4bc,
perumahan,perumahan,Kalimantan Utara 77555,"Kabupaten Malinau, Kalimantan Utara","Kabupaten Malinau, Kalimantan Utara",KALIMANTAN UTARA,,Indonesia,,,,3.4347306,116.1359431,https://maps.google.com/?cid=0x0:0xfbf6305152defd8,
perumahan,Pembangunan Perumahan,Desa Sebinuang,"G79R+J7W, Paking, Kec. Mentarang, Kabupaten Malinau, Kalimantan Utara 77555","Paking, Kec. Mentarang, Kabupaten Malinau",KALIMANTAN UTARA,77555.0,Indonesia,,,,3.5191174,116.2906916,https://maps.google.com/?cid=0x0:0x4d9fe4f5a12d42b9,
perumahan,Pembangunan Perumahan,Desa harapan maju,"F9XM+PF, Long Liku, Kec. Mentarang, Kabupaten Malinau, Kalimantan Utara 77554","Long Liku, Kec. Mentarang, Kabupaten Malinau",KALIMANTAN UTARA,77554.0,Indonesia,,,,3.4993267,116.3836408,https://maps.google.com/?cid=0x0:0x6f573f7a94f2b490,
perumahan,perumahan,Kabupaten malinau,"32FR+6HJ, Long Nyau, Sungai Tubu, Kabupaten Malinau, Kalimantan Utara","Kabupaten Malinau, Kalimantan Utara",KALIMANTAN UTARA,,Indonesia,,,,3.0730929,116.0413889,https://maps.google.com/?cid=0x0:0x1be184e472ab0c6e,
perumahan,Pembangunan Perumahan,Desa Long Mekatip,"25FV+2M, Long Mekatip, Mentarang Hulu, Kabupaten Malinau, Kalimantan Utara","Kabupaten Malinau, Kalimantan Utara",KALIMANTAN UTARA,,Indonesia,,,,4.0225925,116.1941937,https://maps.google.com/?cid=0x0:0xaaafadabcf9f7973,
perumahan,Pembangunan Perumahan,lung mekatip,"W7G3+RJ8, Long Mekatip, Mentarang Hulu, Kabupaten Malinau, Kalimantan Utara 77555","Long Mekatip, Mentarang Hulu, Kabupaten Malinau",KALIMANTAN UTARA,77555.0,Indonesia,,,,3.9270306,116.2540856,https://maps.google.com/?cid=0x0:0xde2b77d3cd9c0c6a,
perumahan,Komplek perumahan,Desa Lung Makatif,"P4HP+798, Desa, Lung Makatif, Mentarang Hulu, Kabupaten Malinau, Kalimantan Utara","Kabupaten Malinau, Kalimantan Utara",KALIMANTAN UTARA,,Indonesia,,,,3.728169,116.1359431,https://maps.google.com/?cid=0x0:0xc0f95350de33b38a,
perumahan,Pembangunan Perumahan,Desa Rajuk,"F97J+7CG, Harapan Maju, Kec. Mentarang, Kabupaten Malinau, Kalimantan Utara","Kabupaten Malinau, Kalimantan Utara",KALIMANTAN UTARA,,Indonesia,,,,3.4631987,116.3810746,https://maps.google.com/?cid=0x0:0x90b247c3a8d08f8c,
perumahan,perumahan,Pusat pwmbangunan desa long liku,"P242+W9, Semamu, Mentarang Hulu, Kabupaten Malinau, Kalimantan Utara","Kabupaten Malinau, Kalimantan Utara",KALIMANTAN UTARA,,Indonesia,,,,3.707372,116.000908,https://maps.google.com/?cid=0x0:0x2e7b049cb3af2b32,
perumahan,perumahan,Desa ko ng liku,"P242+W9, Semamu, Mentarang Hulu, Kabupaten Malinau, Kalimantan Utara","Kabupaten Malinau, Kalimantan Utara",KALIMANTAN UTARA,,Indonesia,,,,3.7073724,116.0009081,https://maps.google.com/?cid=0x0:0x6c3eebd47bb385f1,
perumahan,Pembangunan Perumahan,Long pada,"44VP+79G, Long Titi, Sungai Tubu, Kabupaten Malinau, Kalimantan Utara","Kabupaten Malinau, Kalimantan Utara",KALIMANTAN UTARA,,Indonesia,,,,3.1431984,116.1359431,https://maps.google.com/?cid=0x0:0x6e086b926774d4bb,
perumahan,Komplek perumahan,Lung Fala,"24VH+GFM, Long Pala, Mentarang Hulu, Kabupaten Malinau, Kalimantan Utara","Kabupaten Malinau, Kalimantan Utara",KALIMANTAN UTARA,,Indonesia,,,,4.0429472,116.1292142,https://maps.google.com/?cid=0x0:0x17a614b9d5eba4a6,
perumahan,Komplek perumahan,Mentarang baru,"GGF8+XRQ, GGGG+JP5Mentarang BaruKec, Kec. Mentarang, Kabupaten Malinau, Kalimantan Utara 77554","GGGG+JP5Mentarang BaruKec, Kec. Mentarang, Kabupaten Malinau",KALIMANTAN UTARA,77554.0,Indonesia,,,,3.5249532,116.5170959,https://maps.google.com/?cid=0x0:0xe7701035e9be34e,
perumahan,perumahan,Kalimantan Utara 77155,"Mentarang Hulu, Kabupaten Malinau, Kalimantan Utara","Kabupaten Malinau, Kalimantan Utara",KALIMANTAN UTARA,,Indonesia,,,,3.9141052,116.0886704,https://maps.google.com/?cid=0x0:0x74209607fa10efaf,
perumahan,Pembangunan Perumahan,Desa Long Mekatip,"25FV+2M, Long Mekatip, Mentarang Hulu, Kabupaten Malinau, Kalimantan Utara","Kabupaten Malinau, Kalimantan Utara",KALIMANTAN UTARA,,Indonesia,,,,4.0225925,116.1941937,https://maps.google.com/?cid=0x0:0xaaafadabcf9f7973,
perumahan,perumahan,Pusat pwmbangunan desa long liku,"P242+W9, Semamu, Mentarang Hulu, Kabupaten Malinau, Kalimantan Utara","Kabupaten Malinau, Kalimantan Utara",KALIMANTAN UTARA,,Indonesia,,,,3.707372,116.000908,https://maps.google.com/?cid=0x0:0x2e7b049cb3af2b32,
perumahan,Pembangunan Perumahan,Desa Long Kabinu,"25PP+25, Long Pala, Mentarang Hulu, Kabupaten Malinau, Kalimantan Utara","Kabupaten Malinau, Kalimantan Utara",KALIMANTAN UTARA,,Indonesia,,,,4.0350075,116.185499,https://maps.google.com/?cid=0x0:0xef134ae144e060b5,
perumahan,Pembangunan Perumahan,Lung sulit,"V2X9+53X, Long Sulit, Mentarang Hulu, Kabupaten Malinau, Kalimantan Utara","Kabupaten Malinau, Kalimantan Utara",KALIMANTAN UTARA,,Indonesia,,,,3.8979799,116.0177448,https://maps.google.com/?cid=0x0:0x451bedca6dc7fde8,
perumahan,perumahan,Mentarang Hulu,"Kabupaten Malinau, Kalimantan Utara","Kabupaten Malinau, Kalimantan Utara",KALIMANTAN UTARA,,Indonesia,,,,3.728169,116.1359431,https://maps.google.com/?cid=0x0:0xadeaa6c194936d2b,
perumahan,Komplek perumahan,Lung Fala,"24VH+GFM, Long Pala, Mentarang Hulu, Kabupaten Malinau, Kalimantan Utara","Kabupaten Malinau, Kalimantan Utara",KALIMANTAN UTARA,,Indonesia,,,,4.0429472,116.1292142,https://maps.google.com/?cid=0x0:0x17a614b9d5eba4a6,
perumahan,Komplek perumahan,Desa Lung Makatif,"P4HP+798, Desa, Lung Makatif, Mentarang Hulu, Kabupaten Malinau, Kalimantan Utara","Kabupaten Malinau, Kalimantan Utara",KALIMANTAN UTARA,,Indonesia,,,,3.728169,116.1359431,https://maps.google.com/?cid=0x0:0xc0f95350de33b38a,
perumahan,Pembangunan Perumahan,lung mekatip,"W7G3+RJ8, Long Mekatip, Mentarang Hulu, Kabupaten Malinau, Kalimantan Utara 77555","Long Mekatip, Mentarang Hulu, Kabupaten Malinau",KALIMANTAN UTARA,77555.0,Indonesia,,,,3.9270306,116.2540856,https://maps.google.com/?cid=0x0:0xde2b77d3cd9c0c6a,
perumahan,perumahan,Kalimantan Utara 77562,"Kabupaten Malinau, Kalimantan Utara","Kabupaten Malinau, Kalimantan Utara",KALIMANTAN UTARA,,Indonesia,,,,2.8627612,115.7575196,https://maps.google.com/?cid=0x0:0xfc58e4f0b107466e,
perumahan,Kantor Pemerintah,Kampung PuJungan,"HQQR+HFC, Long Pujungan, Pujungan, Kabupaten Malinau, Kalimantan Utara 77562","Long Pujungan, Pujungan, Kabupaten Malinau",KALIMANTAN UTARA,77562.0,Indonesia,,,,2.5900884,115.7917142,https://maps.google.com/?cid=0x0:0xd9e86156b7a75da3,
perumahan,perumahan,Kabupaten malinau,"32FR+6HJ, Long Nyau, Sungai Tubu, Kabupaten Malinau, Kalimantan Utara","Kabupaten Malinau, Kalimantan Utara",KALIMANTAN UTARA,,Indonesia,,,,3.0730929,116.0413889,https://maps.google.com/?cid=0x0:0x1be184e472ab0c6e,
perumahan,perumahan,Kalimantan Timur 77573,"Kabupaten Malinau, Kalimantan Timur","Kabupaten Malinau, Kalimantan Timur",KALIMANTAN UTARA,,Indonesia,,,,1.4464714,115.188916,https://maps.google.com/?cid=0x0:0x791588811899f0cb,
perumahan,Komplek perumahan,"Agung Baru, Kecamatan Sungai Boh, Kabupaten Malinau","JC9G+P98, Agung Baru, Sungai Boh, Kabupaten Malinau, Kalimantan Utara","Kabupaten Malinau, Kalimantan Utara",KALIMANTAN UTARA,,Indonesia,,,,1.6192845,115.4259675,https://maps.google.com/?cid=0x0:0x7e5741cb65047870,
perumahan,Komplek perumahan,Desa Agung Baru,"F9GJ+G63, Agung Baru, Sungai Boh, Kabupaten Malinau, Kalimantan Utara 77573","Agung Baru, Sungai Boh, Kabupaten Malinau",KALIMANTAN UTARA,77573.0,Indonesia,,,,1.476253,115.3805461,https://maps.google.com/?cid=0x0:0xe4d2bad96216effd,
perumahan,Pembangunan Perumahan,Agung Baru,"F9MM+H83, Agung Baru, Sungai Boh, Kabupaten Malinau, Kalimantan Utara","Kabupaten Malinau, Kalimantan Utara",KALIMANTAN UTARA,,Indonesia,,,,1.4838896,115.3832838,https://maps.google.com/?cid=0x0:0xe25446b02cab422c,
perumahan,Kantor Pemerintah,POS LONG AMPUNG,"PXF8+2G4, Long Ampung, Kayan Sel., Kabupaten Malinau, Kalimantan Utara","Kabupaten Malinau, Kalimantan Utara",KALIMANTAN UTARA,,Indonesia,,,,1.7225224,114.9663415,https://maps.google.com/?cid=0x0:0x2426fc16d04e6670,
perumahan,Komplek perumahan,Long Uro,"MXJX+8H, Long Uro, Kayan Sel., Kabupaten Malinau, Kalimantan Utara","Kabupaten Malinau, Kalimantan Utara",KALIMANTAN UTARA,,Indonesia,,,,1.6813515,114.9977823,https://maps.google.com/?cid=0x0:0x9f9d56e8e7efdd9b,
perumahan,perumahan,Sungai Boh,"Kabupaten Malinau, Kalimantan Utara","Kabupaten Malinau, Kalimantan Utara",KALIMANTAN UTARA,,Indonesia,,,,1.4442126,115.3785719,https://maps.google.com/?cid=0x0:0x7320bf121f1e5131,
perumahan,perumahan,Ayam bakar Rahmat,"CG6V+2M, Long Lebusan, Sungai Boh, Kabupaten Malinau, Kalimantan Utara","Kabupaten Malinau, Kalimantan Utara",KALIMANTAN UTARA,,Indonesia,,,,1.4101045,115.5441684,https://maps.google.com/?cid=0x0:0x828cd72b8c6076dc,
perumahan,Komplek perumahan,SATGAS PAMTAS POS LONG AMPUNG,"8XV2+GMV, Long Ampung, Kayan Sel., Kabupaten Malinau, Kalimantan Utara","Kabupaten Malinau, Kalimantan Utara",KALIMANTAN UTARA,,Indonesia,,,,1.3438635,114.9516869,https://maps.google.com/?cid=0x0:0xed634fd516eadc06,
perumahan,perumahan,Rumah Jeremi,"46JP+GG4, Dumu Mahak, Sungai Boh, Kabupaten Malinau, Kalimantan Utara","Kabupaten Malinau, Kalimantan Utara",KALIMANTAN UTARA,,Indonesia,,,,1.1312716,115.2363408,https://maps.google.com/?cid=0x0:0x397093415543f61a,
perumahan,perumahan,Kalimantan Utara 77555,"Kabupaten Malinau, Kalimantan Utara","Kabupaten Malinau, Kalimantan Utara",KALIMANTAN UTARA,,Indonesia,,,,3.4347306,116.1359431,https://maps.google.com/?cid=0x0:0xfbf6305152defd8,
perumahan,perumahan,Kabupaten malinau,"32FR+6HJ, Long Nyau, Sungai Tubu, Kabupaten Malinau, Kalimantan Utara","Kabupaten Malinau, Kalimantan Utara",KALIMANTAN UTARA,,Indonesia,,,,3.0730929,116.0413889,https://maps.google.com/?cid=0x0:0x1be184e472ab0c6e,
perumahan,Pembangunan Perumahan,Long pada,"44VP+79G, Long Titi, Sungai Tubu, Kabupaten Malinau, Kalimantan Utara","Kabupaten Malinau, Kalimantan Utara",KALIMANTAN UTARA,,Indonesia,,,,3.1431984,116.1359431,https://maps.google.com/?cid=0x0:0x6e086b926774d4bb,
perumahan,Perhimpunan Pengembang Perumahan,Bromokas,"32FR+6HJ, Long Nyau, Sungai Tubu, Kabupaten Malinau, Kalimantan Utara","Kabupaten Malinau, Kalimantan Utara",KALIMANTAN UTARA,,Indonesia,,,,3.0730929,116.0413889,https://maps.google.com/?cid=0x0:0x97d370c86c0f972e,
perumahan,Pembangunan Perumahan,Desa Sebinuang,"G79R+J7W, Paking, Kec. Mentarang, Kabupaten Malinau, Kalimantan Utara 77555","Paking, Kec. Mentarang, Kabupaten Malinau",KALIMANTAN UTARA,77555.0,Indonesia,,,,3.5191174,116.2906916,https://maps.google.com/?cid=0x0:0x4d9fe4f5a12d42b9,
perumahan,Pembangunan Perumahan,sebuku,"32FR+6HJ, Long Nyau, Sungai Tubu, Kabupaten Malinau, Kalimantan Utara","Kabupaten Malinau, Kalimantan Utara",KALIMANTAN UTARA,,Indonesia,,,,3.0730929,116.0413889,https://maps.google.com/?cid=0x0:0x5865e954b1ae200f,
perumahan,Pembangunan Perumahan,tanjungselor,"Long Nyau, Sungai Tubu, Kabupaten Malinau, Kalimantan Utara","Kabupaten Malinau, Kalimantan Utara",KALIMANTAN UTARA,,Indonesia,,,,3.0730929,116.0413889,https://maps.google.com/?cid=0x0:0xb3786bc57f7fd6e,
perumahan,Pembangunan Perumahan,Desa harapan maju,"F9XM+PF, Long Liku, Kec. Mentarang, Kabupaten Malinau, Kalimantan Utara 77554","Long Liku, Kec. Mentarang, Kabupaten Malinau",KALIMANTAN UTARA,77554.0,Indonesia,,,,3.4993267,116.3836408,https://maps.google.com/?cid=0x0:0x6f573f7a94f2b490,
perumahan,Pembangunan Perumahan,lung mekatip,"W7G3+RJ8, Long Mekatip, Mentarang Hulu, Kabupaten Malinau, Kalimantan Utara 77555","Long Mekatip, Mentarang Hulu, Kabupaten Malinau",KALIMANTAN UTARA,77555.0,Indonesia,,,,3.9270306,116.2540856,https://maps.google.com/?cid=0x0:0xde2b77d3cd9c0c6a,
perumahan,Pembangunan Perumahan,Tanjung Palas timur,"32FR+6HJ, Long Nyau, Sungai Tubu, Kabupaten Malinau, Kalimantan Utara","Kabupaten Malinau, Kalimantan Utara",KALIMANTAN UTARA,,Indonesia,,,,3.0730929,116.0413889,https://maps.google.com/?cid=0x0:0x586647a7688c068,
perumahan,Pembangunan Perumahan,Desa Long Kabinu,"25PP+25, Long Pala, Mentarang Hulu, Kabupaten Malinau, Kalimantan Utara","Kabupaten Malinau, Kalimantan Utara",KALIMANTAN UTARA,,Indonesia,,,,4.0350075,116.185499,https://maps.google.com/?cid=0x0:0xef134ae144e060b5,
perumahan,Perhimpunan Pengembang Perumahan,Maladi,"32FR+6HJ, Long Nyau, Sungai Tubu, Kabupaten Malinau, Kalimantan Utara","Kabupaten Malinau, Kalimantan Utara",KALIMANTAN UTARA,,Indonesia,,,,3.0730929,116.0413889,https://maps.google.com/?cid=0x0:0x4f376bd2699d33e7,
perumahan,Pembangunan Perumahan,Desa Long Mekatip,"25FV+2M, Long Mekatip, Mentarang Hulu, Kabupaten Malinau, Kalimantan Utara","Kabupaten Malinau, Kalimantan Utara",KALIMANTAN UTARA,,Indonesia,,,,4.0225925,116.1941937,https://maps.google.com/?cid=0x0:0xaaafadabcf9f7973,
perumahan,Komplek perumahan,Desa Lung Makatif,"P4HP+798, Desa, Lung Makatif, Mentarang Hulu, Kabupaten Malinau, Kalimantan Utara","Kabupaten Malinau, Kalimantan Utara",KALIMANTAN UTARA,,Indonesia,,,,3.728169,116.1359431,https://maps.google.com/?cid=0x0:0xc0f95350de33b38a,
perumahan,Komplek perumahan,Tulin onsoi,"32FR+6HJ, Long Nyau, Sungai Tubu, Kabupaten Malinau, Kalimantan Utara 77554","Long Nyau, Sungai Tubu, Kabupaten Malinau",KALIMANTAN UTARA,77554.0,Indonesia,,,,3.0730929,116.0413889,https://maps.google.com/?cid=0x0:0xb0344c0e14faab10,
perumahan,perumahan,Kabupaten nunukan,"32FR+6HJ, Long Nyau, Sungai Tubu, Kabupaten Malinau, Kalimantan Utara","Kabupaten Malinau, Kalimantan Utara",KALIMANTAN UTARA,,Indonesia,,,,3.0730929,116.0413889,https://maps.google.com/?cid=0x0:0xb43cb89dab248d67,
perumahan,perumahan,Sungai Tubu,"Kabupaten Malinau, Kalimantan Utara","Kabupaten Malinau, Kalimantan Utara",KALIMANTAN UTARA,,Indonesia,,,,3.1431984,116.1359431,https://maps.google.com/?cid=0x0:0xd3c55a121bb6fc5b,
