Category,Real Category,Business Name,Address,City,State,Postal Code,Country,Phone,Email,Website,Latitude,Longitude,Map Link,Details Link
building materials,building materials,Kalimantan Tengah 73762,"Kec. Dusun Hilir, Kabupaten Barito Selatan, Kalimantan Tengah","Kabupaten Barito Selatan, Kalimantan Tengah",KALIMANTAN TENGAH,,Indonesia,,,,-22.001.952,1.146.667.939,https://maps.google.com/?cid=0x0:0xc04a708e6544057b,
building materials,Toko bahan makanan,UD. RAHMANI,"RT.003/RW.001, Kalanis, Kec. Dusun Hilir, Kabupaten Barito Selatan, Kalimantan Tengah 73762","Kalanis, Kec. Dusun Hilir, Kabupaten Barito Selatan",KALIMANTAN TENGAH,73762.0,Indonesia,82252623785.0,,,-22.636.639,1.148.990.197,https://maps.google.com/?cid=0x0:0x2fe60a62c3a6b3b8,
building materials,Toko Bahan Bangunan,Toko Bahan Bangunan CHANDRA DEWI,"Unnamed Road, Mengkatip, Kec. Dusun Hilir, Kabupaten Barito Selatan, Kalimantan Tengah 73762","Mengkatip, Kec. Dusun Hilir, Kabupaten Barito Selatan",KALIMANTAN TENGAH,73762.0,Indonesia,,,,-22.292.054,1.148.554.474,https://maps.google.com/?cid=0x0:0xe8e615f94114b0e0,
building materials,building materials,Kalimantan Tengah 73711,"Kec. Dusun Sel., Kabupaten Barito Selatan, Kalimantan Tengah","Kabupaten Barito Selatan, Kalimantan Tengah",KALIMANTAN TENGAH,,Indonesia,,,,-17.964.233,1.147.736.556,https://maps.google.com/?cid=0x0:0x4a719b8c335066ed,
building materials,Toko Bahan Bangunan,"TOKO BANGUNAN AULIA""""","Jl. Pelita Raya No.10, Buntok Kota, Kec. Dusun Sel., Kabupaten Barito Selatan, Kalimantan Tengah 73712","Buntok Kota, Kec. Dusun Sel., Kabupaten Barito Selatan",KALIMANTAN TENGAH,73712.0,Indonesia,82122228701.0,,,-17.253.923,1.148.334.451,https://maps.google.com/?cid=0x0:0xa80b317a551eb7ef,
building materials,Toko Bahan Bangunan,Toko Bangunan Setia Maju,"7RHP+HJJ, Jl. Pembangunan, Buntok Kota, Kec. Dusun Sel., Kabupaten Barito Selatan, Kalimantan Tengah 73711","Jl. Pembangunan, Buntok Kota, Kec. Dusun Sel., Kabupaten Barito Selatan",KALIMANTAN TENGAH,73711.0,Indonesia,81396801512.0,,,-17.210.253,1.148.365.047,https://maps.google.com/?cid=0x0:0x35daaac7020b5bfa,
building materials,Toko Bahan Bangunan,Toko H.Adul,"7RJX+Q26, Jl. Pelita Raya, Buntok Kota, Kec. Dusun Sel., Kabupaten Barito Selatan, Kalimantan Tengah 73713","Jl. Pelita Raya, Buntok Kota, Kec. Dusun Sel., Kabupaten Barito Selatan",KALIMANTAN TENGAH,73713.0,Indonesia,,,,-1.718.098,1.148.475.184,https://maps.google.com/?cid=0x0:0x660f4156b73d70a6,
building materials,Toko Bahan Bangunan,Toko bangunan Daffa,"Jl. Pakusualam No.1, Baru, Kec. Dusun Sel., Kabupaten Barito Selatan, Kalimantan Tengah 73751","Baru, Kec. Dusun Sel., Kabupaten Barito Selatan",KALIMANTAN TENGAH,73751.0,Indonesia,,,,-17.802.609,114.804.838,https://maps.google.com/?cid=0x0:0x502cdc08d2cbe99,
building materials,Toko Bahan Bangunan,Matiba Kalimantan. CV,"Jl. Pahlawan No.31, Buntok Kota, Kec. Dusun Sel., Kabupaten Barito Selatan, Kalimantan Tengah 73751","Buntok Kota, Kec. Dusun Sel., Kabupaten Barito Selatan",KALIMANTAN TENGAH,73751.0,Indonesia,,,,-17.163.004,1.148.371.024,https://maps.google.com/?cid=0x0:0x9b556207981fa3a5,
building materials,Toko Bahan Bangunan,Toko Anugerah Jaya,"Jl. Pelita Raya, RT.015/RW.004, Buntok Kota, Kec. Dusun Sel., Kabupaten Barito Selatan, Kalimantan Tengah 73711","RT.015/RW.004, Buntok Kota, Kec. Dusun Sel., Kabupaten Barito Selatan",KALIMANTAN TENGAH,73711.0,Indonesia,87737401068.0,,,-17.207.836,1.148.418.198,https://maps.google.com/?cid=0x0:0xf2278e46c02f53f4,
building materials,Toko Swalayan,Toko.Bangunan  Molding,"F5V6+Q97, Jl. Negara Ampah-Muarateweh, Patas II, Kec. Gn. Bintang Awai, Kabupaten Barito Selatan, Kalimantan Tengah 73753","Jl. Negara Ampah-Muarateweh, Patas II, Kec. Gn. Bintang Awai, Kabupaten Barito Selatan",KALIMANTAN TENGAH,73753.0,Indonesia,81367805201.0,,,-15.055.901,115.160.911,https://maps.google.com/?cid=0x0:0xdf2f3df691cf2c7,
building materials,Toko Bahan Bangunan,"Toko Bangunan Lindo Bulan""""","8W39+6G5, Jl. Soekarno - Hatta, Sababilah, Kec. Dusun Sel., Kabupaten Barito Selatan, Kalimantan Tengah 73713","Jl. Soekarno - Hatta, Sababilah, Kec. Dusun Sel., Kabupaten Barito Selatan",KALIMANTAN TENGAH,73713.0,Indonesia,8161999912.0,,,-16.969.931,1.149.188.639,https://maps.google.com/?cid=0x0:0x94de1e65c7ae65d9,
building materials,Kantor Perusahaan,JUAL material Pasir sungai barito. SYIFA SAMUDRA,"7RXW+58Q, Jl. Padat Karya, Buntok Kota, Kec. Dusun Sel., Kabupaten Barito Selatan, Kalimantan Tengah 73751","Jl. Padat Karya, Buntok Kota, Kec. Dusun Sel., Kabupaten Barito Selatan",KALIMANTAN TENGAH,73751.0,Indonesia,81348691711.0,,,-17.020.486,1.148.458.658,https://maps.google.com/?cid=0x0:0x9ec2073ef258e4d7,
building materials,building materials,,,,KALIMANTAN TENGAH,,Indonesia,82255247455.0,,,-69.319.364,107.563.674,https://maps.google.com/?cid=0x0:0x81c4e3c9ee19bc48,
building materials,Toko Bahan Bangunan,Toko Surya Bangunan,"Jl. A. Gani Gandrung, Buntok Kota, Kec. Dusun Sel., Kabupaten Barito Selatan, Kalimantan Tengah 73111","Buntok Kota, Kec. Dusun Sel., Kabupaten Barito Selatan",KALIMANTAN TENGAH,73111.0,Indonesia,,,,-17.139.036,1.148.448.237,https://maps.google.com/?cid=0x0:0x40fe35cabf0454a5,
building materials,building materials,Kalimantan Tengah 73712,"Kec. Dusun Sel., Kabupaten Barito Selatan, Kalimantan Tengah","Kabupaten Barito Selatan, Kalimantan Tengah",KALIMANTAN TENGAH,,Indonesia,,,,-18.255.326,1.147.588.155,https://maps.google.com/?cid=0x0:0xbc3cf9c65f77161b,
building materials,Toko Bahan Bangunan,"TOKO BANGUNAN AULIA""""","Jl. Pelita Raya No.10, Buntok Kota, Kec. Dusun Sel., Kabupaten Barito Selatan, Kalimantan Tengah 73712","Buntok Kota, Kec. Dusun Sel., Kabupaten Barito Selatan",KALIMANTAN TENGAH,73712.0,Indonesia,82122228701.0,,,-17.253.923,1.148.334.451,https://maps.google.com/?cid=0x0:0xa80b317a551eb7ef,
building materials,Toko Bahan Bangunan,3 putera bangunan,"7RCP+Q8V, Jl. Kartini, Hilir Sper, Kec. Dusun Sel., Kabupaten Barito Selatan, Kalimantan Tengah 73751","Jl. Kartini, Hilir Sper, Kec. Dusun Sel., Kabupaten Barito Selatan",KALIMANTAN TENGAH,73751.0,Indonesia,83899586603.0,,,-17.280.023,1.148.358.011,https://maps.google.com/?cid=0x0:0x7e0aa5869aabd474,
building materials,Toko Bahan Bangunan,Toko H.Adul,"7RJX+Q26, Jl. Pelita Raya, Buntok Kota, Kec. Dusun Sel., Kabupaten Barito Selatan, Kalimantan Tengah 73713","Jl. Pelita Raya, Buntok Kota, Kec. Dusun Sel., Kabupaten Barito Selatan",KALIMANTAN TENGAH,73713.0,Indonesia,,,,-1.718.098,1.148.475.184,https://maps.google.com/?cid=0x0:0x660f4156b73d70a6,
building materials,Toko Bahan Bangunan,Toko Bangunan Setia Maju,"7RHP+HJJ, Jl. Pembangunan, Buntok Kota, Kec. Dusun Sel., Kabupaten Barito Selatan, Kalimantan Tengah 73711","Jl. Pembangunan, Buntok Kota, Kec. Dusun Sel., Kabupaten Barito Selatan",KALIMANTAN TENGAH,73711.0,Indonesia,81396801512.0,,,-17.210.253,1.148.365.047,https://maps.google.com/?cid=0x0:0x35daaac7020b5bfa,
building materials,Toko Bahan Bangunan,"Toko Bangunan Lindo Bulan""""","8W39+6G5, Jl. Soekarno - Hatta, Sababilah, Kec. Dusun Sel., Kabupaten Barito Selatan, Kalimantan Tengah 73713","Jl. Soekarno - Hatta, Sababilah, Kec. Dusun Sel., Kabupaten Barito Selatan",KALIMANTAN TENGAH,73713.0,Indonesia,8161999912.0,,,-16.969.931,1.149.188.639,https://maps.google.com/?cid=0x0:0x94de1e65c7ae65d9,
building materials,building materials,,,,KALIMANTAN TENGAH,,Indonesia,82255247455.0,,,-69.319.364,107.563.674,https://maps.google.com/?cid=0x0:0x81c4e3c9ee19bc48,
building materials,Toko Bahan Bangunan,Toko Anugerah Jaya,"Jl. Pelita Raya, RT.015/RW.004, Buntok Kota, Kec. Dusun Sel., Kabupaten Barito Selatan, Kalimantan Tengah 73711","RT.015/RW.004, Buntok Kota, Kec. Dusun Sel., Kabupaten Barito Selatan",KALIMANTAN TENGAH,73711.0,Indonesia,87737401068.0,,,-17.207.836,1.148.418.198,https://maps.google.com/?cid=0x0:0xf2278e46c02f53f4,
building materials,Toko Bahan Bangunan,Toko Surya Bangunan,"Jl. A. Gani Gandrung, Buntok Kota, Kec. Dusun Sel., Kabupaten Barito Selatan, Kalimantan Tengah 73111","Buntok Kota, Kec. Dusun Sel., Kabupaten Barito Selatan",KALIMANTAN TENGAH,73111.0,Indonesia,,,,-17.139.036,1.148.448.237,https://maps.google.com/?cid=0x0:0x40fe35cabf0454a5,
building materials,building materials,Kalimantan Tengah 73713,"Kabupaten Barito Selatan, Kalimantan Tengah","Kabupaten Barito Selatan, Kalimantan Tengah",KALIMANTAN TENGAH,,Indonesia,,,,-17.531.862,1.146.905.436,https://maps.google.com/?cid=0x0:0x1c28f022a25af1a5,
building materials,Toko Bahan Bangunan,BUDHI KARYA,"8V5G+5H, Pamait, Kec. Dusun Sel., Kabupaten Barito Selatan, Kalimantan Tengah 73713","Pamait, Kec. Dusun Sel., Kabupaten Barito Selatan",KALIMANTAN TENGAH,73713.0,Indonesia,81349596262.0,,,-16.920.378,1.148.764.073,https://maps.google.com/?cid=0x0:0xd9acbdd22a0a1c3b,
building materials,Toko Bahan Bangunan,Toko H.Adul,"7RJX+Q26, Jl. Pelita Raya, Buntok Kota, Kec. Dusun Sel., Kabupaten Barito Selatan, Kalimantan Tengah 73713","Jl. Pelita Raya, Buntok Kota, Kec. Dusun Sel., Kabupaten Barito Selatan",KALIMANTAN TENGAH,73713.0,Indonesia,,,,-1.718.098,1.148.475.184,https://maps.google.com/?cid=0x0:0x660f4156b73d70a6,
building materials,Toko Bahan Bangunan,"TOKO BANGUNAN AULIA""""","Jl. Pelita Raya No.10, Buntok Kota, Kec. Dusun Sel., Kabupaten Barito Selatan, Kalimantan Tengah 73712","Buntok Kota, Kec. Dusun Sel., Kabupaten Barito Selatan",KALIMANTAN TENGAH,73712.0,Indonesia,82122228701.0,,,-17.253.923,1.148.334.451,https://maps.google.com/?cid=0x0:0xa80b317a551eb7ef,
building materials,Toko Bahan Bangunan,Matiba Kalimantan. CV,"Jl. Pahlawan No.31, Buntok Kota, Kec. Dusun Sel., Kabupaten Barito Selatan, Kalimantan Tengah 73751","Buntok Kota, Kec. Dusun Sel., Kabupaten Barito Selatan",KALIMANTAN TENGAH,73751.0,Indonesia,,,,-17.163.004,1.148.371.024,https://maps.google.com/?cid=0x0:0x9b556207981fa3a5,
building materials,Toko Bahan Bangunan,"Toko Bangunan Lindo Bulan""""","8W39+6G5, Jl. Soekarno - Hatta, Sababilah, Kec. Dusun Sel., Kabupaten Barito Selatan, Kalimantan Tengah 73713","Jl. Soekarno - Hatta, Sababilah, Kec. Dusun Sel., Kabupaten Barito Selatan",KALIMANTAN TENGAH,73713.0,Indonesia,8161999912.0,,,-16.969.931,1.149.188.639,https://maps.google.com/?cid=0x0:0x94de1e65c7ae65d9,
building materials,Toko Bahan Bangunan,Toko Bangunan Setia Maju,"7RHP+HJJ, Jl. Pembangunan, Buntok Kota, Kec. Dusun Sel., Kabupaten Barito Selatan, Kalimantan Tengah 73711","Jl. Pembangunan, Buntok Kota, Kec. Dusun Sel., Kabupaten Barito Selatan",KALIMANTAN TENGAH,73711.0,Indonesia,81396801512.0,,,-17.210.253,1.148.365.047,https://maps.google.com/?cid=0x0:0x35daaac7020b5bfa,
building materials,Toko Bahan Bangunan,Toko Anugerah Jaya,"Jl. Pelita Raya, RT.015/RW.004, Buntok Kota, Kec. Dusun Sel., Kabupaten Barito Selatan, Kalimantan Tengah 73711","RT.015/RW.004, Buntok Kota, Kec. Dusun Sel., Kabupaten Barito Selatan",KALIMANTAN TENGAH,73711.0,Indonesia,87737401068.0,,,-17.207.836,1.148.418.198,https://maps.google.com/?cid=0x0:0xf2278e46c02f53f4,
building materials,Toko Bahan Bangunan,UD KARYA BARU kosen pintu jendela,"7RJM+5PJ, Jl. Veteran, Buntok Kota, Kec. Dusun Sel., Kabupaten Barito Selatan, Kalimantan Tengah 73751","Jl. Veteran, Buntok Kota, Kec. Dusun Sel., Kabupaten Barito Selatan",KALIMANTAN TENGAH,73751.0,Indonesia,85249500330.0,,,-1.719.533,1.148.342.675,https://maps.google.com/?cid=0x0:0x798a6db2ceb748ea,
building materials,Toko Perlengkapan Rumah,Toko Dua Saudara,"9R56+PP4, Jl. Kalahien, Kalahien, Kec. Dusun Sel., Kabupaten Barito Selatan, Kalimantan Tengah 73751","Jl. Kalahien, Kalahien, Kec. Dusun Sel., Kabupaten Barito Selatan",KALIMANTAN TENGAH,73751.0,Indonesia,,,,-16.407.384,1.148.118.379,https://maps.google.com/?cid=0x0:0xda63aff01d8ea311,
building materials,building materials,,,,KALIMANTAN TENGAH,,Indonesia,82255247455.0,,,-69.319.364,107.563.674,https://maps.google.com/?cid=0x0:0x81c4e3c9ee19bc48,
building materials,Toko Bahan Bangunan,Toko bangunan Daffa,"Jl. Pakusualam No.1, Baru, Kec. Dusun Sel., Kabupaten Barito Selatan, Kalimantan Tengah 73751","Baru, Kec. Dusun Sel., Kabupaten Barito Selatan",KALIMANTAN TENGAH,73751.0,Indonesia,,,,-17.802.609,114.804.838,https://maps.google.com/?cid=0x0:0x502cdc08d2cbe99,
building materials,Toko Bahan Bangunan,Toko Surya Bangunan,"Jl. A. Gani Gandrung, Buntok Kota, Kec. Dusun Sel., Kabupaten Barito Selatan, Kalimantan Tengah 73111","Buntok Kota, Kec. Dusun Sel., Kabupaten Barito Selatan",KALIMANTAN TENGAH,73111.0,Indonesia,,,,-17.139.036,1.148.448.237,https://maps.google.com/?cid=0x0:0x40fe35cabf0454a5,
building materials,Toko Bahan Bangunan,3 putera bangunan,"7RCP+Q8V, Jl. Kartini, Hilir Sper, Kec. Dusun Sel., Kabupaten Barito Selatan, Kalimantan Tengah 73751","Jl. Kartini, Hilir Sper, Kec. Dusun Sel., Kabupaten Barito Selatan",KALIMANTAN TENGAH,73751.0,Indonesia,83899586603.0,,,-17.280.023,1.148.358.011,https://maps.google.com/?cid=0x0:0x7e0aa5869aabd474,
building materials,Toko Bahan Bangunan,Matiba Kalimantan. CV,"Jl. Pahlawan No.31, Buntok Kota, Kec. Dusun Sel., Kabupaten Barito Selatan, Kalimantan Tengah 73751","Buntok Kota, Kec. Dusun Sel., Kabupaten Barito Selatan",KALIMANTAN TENGAH,73751.0,Indonesia,,,,-17.163.004,1.148.371.024,https://maps.google.com/?cid=0x0:0x9b556207981fa3a5,
building materials,building materials,Kalimantan Tengah 73751,"Kec. Dusun Sel., Kabupaten Barito Selatan, Kalimantan Tengah","Kabupaten Barito Selatan, Kalimantan Tengah",KALIMANTAN TENGAH,,Indonesia,,,,-16.899.287,1.147.736.556,https://maps.google.com/?cid=0x0:0xfd0ed3d130200b49,
building materials,Toko Bahan Bangunan,Toko Bangunan Setia Maju,"7RHP+HJJ, Jl. Pembangunan, Buntok Kota, Kec. Dusun Sel., Kabupaten Barito Selatan, Kalimantan Tengah 73711","Jl. Pembangunan, Buntok Kota, Kec. Dusun Sel., Kabupaten Barito Selatan",KALIMANTAN TENGAH,73711.0,Indonesia,81396801512.0,,,-17.210.253,1.148.365.047,https://maps.google.com/?cid=0x0:0x35daaac7020b5bfa,
building materials,Toko Bahan Bangunan,Toko H.Adul,"7RJX+Q26, Jl. Pelita Raya, Buntok Kota, Kec. Dusun Sel., Kabupaten Barito Selatan, Kalimantan Tengah 73713","Jl. Pelita Raya, Buntok Kota, Kec. Dusun Sel., Kabupaten Barito Selatan",KALIMANTAN TENGAH,73713.0,Indonesia,,,,-1.718.098,1.148.475.184,https://maps.google.com/?cid=0x0:0x660f4156b73d70a6,
building materials,Toko Bahan Bangunan,BUDHI KARYA,"8V5G+5H, Pamait, Kec. Dusun Sel., Kabupaten Barito Selatan, Kalimantan Tengah 73713","Pamait, Kec. Dusun Sel., Kabupaten Barito Selatan",KALIMANTAN TENGAH,73713.0,Indonesia,81349596262.0,,,-16.920.378,1.148.764.073,https://maps.google.com/?cid=0x0:0xd9acbdd22a0a1c3b,
building materials,Toko Perlengkapan Rumah,Toko Dua Saudara,"9R56+PP4, Jl. Kalahien, Kalahien, Kec. Dusun Sel., Kabupaten Barito Selatan, Kalimantan Tengah 73751","Jl. Kalahien, Kalahien, Kec. Dusun Sel., Kabupaten Barito Selatan",KALIMANTAN TENGAH,73751.0,Indonesia,,,,-16.407.384,1.148.118.379,https://maps.google.com/?cid=0x0:0xda63aff01d8ea311,
building materials,Toko Bahan Bangunan,UD KARYA BARU kosen pintu jendela,"7RJM+5PJ, Jl. Veteran, Buntok Kota, Kec. Dusun Sel., Kabupaten Barito Selatan, Kalimantan Tengah 73751","Jl. Veteran, Buntok Kota, Kec. Dusun Sel., Kabupaten Barito Selatan",KALIMANTAN TENGAH,73751.0,Indonesia,85249500330.0,,,-1.719.533,1.148.342.675,https://maps.google.com/?cid=0x0:0x798a6db2ceb748ea,
building materials,Toko Bahan Bangunan,Toko bangunan Daffa,"Jl. Pakusualam No.1, Baru, Kec. Dusun Sel., Kabupaten Barito Selatan, Kalimantan Tengah 73751","Baru, Kec. Dusun Sel., Kabupaten Barito Selatan",KALIMANTAN TENGAH,73751.0,Indonesia,,,,-17.802.609,114.804.838,https://maps.google.com/?cid=0x0:0x502cdc08d2cbe99,
building materials,Kantor Perusahaan,JUAL material Pasir sungai barito. SYIFA SAMUDRA,"7RXW+58Q, Jl. Padat Karya, Buntok Kota, Kec. Dusun Sel., Kabupaten Barito Selatan, Kalimantan Tengah 73751","Jl. Padat Karya, Buntok Kota, Kec. Dusun Sel., Kabupaten Barito Selatan",KALIMANTAN TENGAH,73751.0,Indonesia,81348691711.0,,,-17.020.486,1.148.458.658,https://maps.google.com/?cid=0x0:0x9ec2073ef258e4d7,
building materials,Toko Bahan Bangunan,Toko Anugerah Jaya,"Jl. Pelita Raya, RT.015/RW.004, Buntok Kota, Kec. Dusun Sel., Kabupaten Barito Selatan, Kalimantan Tengah 73711","RT.015/RW.004, Buntok Kota, Kec. Dusun Sel., Kabupaten Barito Selatan",KALIMANTAN TENGAH,73711.0,Indonesia,87737401068.0,,,-17.207.836,1.148.418.198,https://maps.google.com/?cid=0x0:0xf2278e46c02f53f4,
building materials,Toko Bahan Bangunan,Toko Surya Bangunan,"Jl. A. Gani Gandrung, Buntok Kota, Kec. Dusun Sel., Kabupaten Barito Selatan, Kalimantan Tengah 73111","Buntok Kota, Kec. Dusun Sel., Kabupaten Barito Selatan",KALIMANTAN TENGAH,73111.0,Indonesia,,,,-17.139.036,1.148.448.237,https://maps.google.com/?cid=0x0:0x40fe35cabf0454a5,
building materials,building materials,,,,KALIMANTAN TENGAH,,Indonesia,82255247455.0,,,-69.319.364,107.563.674,https://maps.google.com/?cid=0x0:0x81c4e3c9ee19bc48,
building materials,building materials,Kalimantan Tengah 73752,"Kabupaten Barito Selatan, Kalimantan Tengah","Kabupaten Barito Selatan, Kalimantan Tengah",KALIMANTAN TENGAH,,Indonesia,,,,-14.856.175,1.148.567.482,https://maps.google.com/?cid=0x0:0x9e89593c92bb4954,
building materials,Toko,Toko Ataini Menyedia Bahan Bangunan,"JV85+P67, Jl. Barito, Tarusan, Kec. Dusun Utara, Kabupaten Barito Selatan, Kalimantan Tengah 73752","Jl. Barito, Tarusan, Kec. Dusun Utara, Kabupaten Barito Selatan",KALIMANTAN TENGAH,73752.0,Indonesia,,,,-1.382.893,114.858.194,https://maps.google.com/?cid=0x0:0xe2836f17e6378ea2,
building materials,Toko Swalayan,Toko.Bangunan  Molding,"F5V6+Q97, Jl. Negara Ampah-Muarateweh, Patas II, Kec. Gn. Bintang Awai, Kabupaten Barito Selatan, Kalimantan Tengah 73753","Jl. Negara Ampah-Muarateweh, Patas II, Kec. Gn. Bintang Awai, Kabupaten Barito Selatan",KALIMANTAN TENGAH,73753.0,Indonesia,81367805201.0,,,-15.055.901,115.160.911,https://maps.google.com/?cid=0x0:0xdf2f3df691cf2c7,
building materials,Toko Bahan Bangunan,"Toko Bangunan Lindo Bulan""""","8W39+6G5, Jl. Soekarno - Hatta, Sababilah, Kec. Dusun Sel., Kabupaten Barito Selatan, Kalimantan Tengah 73713","Jl. Soekarno - Hatta, Sababilah, Kec. Dusun Sel., Kabupaten Barito Selatan",KALIMANTAN TENGAH,73713.0,Indonesia,8161999912.0,,,-16.969.931,1.149.188.639,https://maps.google.com/?cid=0x0:0x94de1e65c7ae65d9,
building materials,Toko Swalayan,Toko.Bangunan  Molding,"F5V6+Q97, Jl. Negara Ampah-Muarateweh, Patas II, Kec. Gn. Bintang Awai, Kabupaten Barito Selatan, Kalimantan Tengah 73753","Jl. Negara Ampah-Muarateweh, Patas II, Kec. Gn. Bintang Awai, Kabupaten Barito Selatan",KALIMANTAN TENGAH,73753.0,Indonesia,81367805201.0,,,-15.055.901,115.160.911,https://maps.google.com/?cid=0x0:0xdf2f3df691cf2c7,
building materials,Toko Bahan Bangunan,Molding Yeyen,"F547+HWW, Patas I, Kec. Gn. Bintang Awai, Kabupaten Barito Selatan, Kalimantan Tengah 73753","Patas I, Kec. Gn. Bintang Awai, Kabupaten Barito Selatan",KALIMANTAN TENGAH,73753.0,Indonesia,,,,-1.543.514,115.164.832,https://maps.google.com/?cid=0x0:0xf76a1ab58adbb811,
building materials,building materials,Kalimantan Tengah 73763,"Kec. Jenamas, Kabupaten Barito Selatan, Kalimantan Tengah","Kabupaten Barito Selatan, Kalimantan Tengah",KALIMANTAN TENGAH,,Indonesia,,,,-234.059,1.148.567.482,https://maps.google.com/?cid=0x0:0x37fa6b040b7959f6,
building materials,building materials,Toko Peralatan dan Sembako,"Rantau Bahuang, Kec. Jenamas, Kabupaten Barito Selatan, Kalimantan Tengah 73763","Kec. Jenamas, Kabupaten Barito Selatan",KALIMANTAN TENGAH,73763.0,Indonesia,82253740352.0,,,-24.661.297,1.148.722.998,https://maps.google.com/?cid=0x0:0x8a3f411fb1d34a37,
building materials,Toko bahan makanan,UD. RAHMANI,"RT.003/RW.001, Kalanis, Kec. Dusun Hilir, Kabupaten Barito Selatan, Kalimantan Tengah 73762","Kalanis, Kec. Dusun Hilir, Kabupaten Barito Selatan",KALIMANTAN TENGAH,73762.0,Indonesia,82252623785.0,,,-22.636.639,1.148.990.197,https://maps.google.com/?cid=0x0:0x2fe60a62c3a6b3b8,
building materials,Toko bahan makanan,TOKO AHMAD HAFIZ,"Unnamed Road, Rantau Kujang, Kec. Jenamas, Kabupaten Barito Selatan, Kalimantan Tengah 73763","Rantau Kujang, Kec. Jenamas, Kabupaten Barito Selatan",KALIMANTAN TENGAH,73763.0,Indonesia,82280066535.0,,,-24.543.002,1.149.035.942,https://maps.google.com/?cid=0x0:0x1caadb65ca13816f,
building materials,building materials,Kalimantan Tengah 73761,"Kabupaten Barito Selatan, Kalimantan Tengah","Kabupaten Barito Selatan, Kalimantan Tengah",KALIMANTAN TENGAH,,Indonesia,,,,-20.019.069,1.147.380.385,https://maps.google.com/?cid=0x0:0xf4482425825ffff8,
building materials,Toko Bahan Bangunan,Toko Bahan Bangunan CHANDRA DEWI,"Unnamed Road, Mengkatip, Kec. Dusun Hilir, Kabupaten Barito Selatan, Kalimantan Tengah 73762","Mengkatip, Kec. Dusun Hilir, Kabupaten Barito Selatan",KALIMANTAN TENGAH,73762.0,Indonesia,,,,-22.292.054,1.148.554.474,https://maps.google.com/?cid=0x0:0xe8e615f94114b0e0,
building materials,Toko Alat-Alat,TB.AINAYA,"WV4G+3C, Tlk. Timbau, Kec. Dusun Hilir, Kabupaten Barito Selatan, Kalimantan Tengah 73617","Tlk. Timbau, Kec. Dusun Hilir, Kabupaten Barito Selatan",KALIMANTAN TENGAH,73617.0,Indonesia,,,,-20.948.219,1.148.761.422,https://maps.google.com/?cid=0x0:0xeeaf42a426f5c965,
toko bangunan,Pusat Perbelanjaan,"TOKO KEMBAR tersedia sembako,alat bangunan,Perabutan rumah tangga","QVC4+4CC, Jalan, RT.4/RW.1, Mengkatip, Kec. Dusun Hilir, Kabupaten Barito Selatan, Kalimantan Tengah 73762","Jalan, RT.4/RW.1, Mengkatip, Kec. Dusun Hilir, Kabupaten Barito Selatan",KALIMANTAN TENGAH,73762.0,Indonesia,85348014642.0,,,-22.297.179,1.148.560.423,https://maps.google.com/?cid=0x0:0xc1607a1eb1b5a0fa,
toko bangunan,Toko Bahan Bangunan,Toko Bahan Bangunan CHANDRA DEWI,"Unnamed Road, Mengkatip, Kec. Dusun Hilir, Kabupaten Barito Selatan, Kalimantan Tengah 73762","Mengkatip, Kec. Dusun Hilir, Kabupaten Barito Selatan",KALIMANTAN TENGAH,73762.0,Indonesia,,,,-22.292.054,1.148.554.474,https://maps.google.com/?cid=0x0:0xe8e615f94114b0e0,
toko bangunan,toko bangunan,Kalimantan Tengah 73762,"Kec. Dusun Hilir, Kabupaten Barito Selatan, Kalimantan Tengah","Kabupaten Barito Selatan, Kalimantan Tengah",KALIMANTAN TENGAH,,Indonesia,,,,-22.001.952,1.146.667.939,https://maps.google.com/?cid=0x0:0xc04a708e6544057b,
toko bangunan,Toko Bahan Bangunan,Toko Bangunan Do'a Banua,"8W47+69W, Sanggu, Kec. Dusun Sel., Kabupaten Barito Selatan, Kalimantan Tengah 73713","Sanggu, Kec. Dusun Sel., Kabupaten Barito Selatan",KALIMANTAN TENGAH,73713.0,Indonesia,81287458656.0,,,-16.943.968,1.149.134.614,https://maps.google.com/?cid=0x0:0x2fc64be4a5791471,
toko bangunan,Toko Bahan Bangunan,Toko Bangunan Swarga,"Jalan, Tamiang Layang, Dusun Timur, East Barito Regency, Central Kalimantan 73671","Tamiang Layang, Dusun Timur, East Barito Regency",KALIMANTAN TENGAH,73671.0,Indonesia,85789077202.0,,,-20.966.672,115.151.779,https://maps.google.com/?cid=0x0:0x4153cd1f5a6a0a6e,
toko bangunan,Toko Alat-Alat,TB.AINAYA,"WV4G+3C, Tlk. Timbau, Kec. Dusun Hilir, Kabupaten Barito Selatan, Kalimantan Tengah 73617","Tlk. Timbau, Kec. Dusun Hilir, Kabupaten Barito Selatan",KALIMANTAN TENGAH,73617.0,Indonesia,,,,-20.948.219,1.148.761.422,https://maps.google.com/?cid=0x0:0xeeaf42a426f5c965,
toko bangunan,toko bangunan,Kalimantan Tengah 73711,"Kec. Dusun Sel., Kabupaten Barito Selatan, Kalimantan Tengah","Kabupaten Barito Selatan, Kalimantan Tengah",KALIMANTAN TENGAH,,Indonesia,,,,-17.964.233,1.147.736.556,https://maps.google.com/?cid=0x0:0x4a719b8c335066ed,
toko bangunan,Toko Bahan Bangunan,"TOKO BANGUNAN AULIA""""","Jl. Pelita Raya No.10, Buntok Kota, Kec. Dusun Sel., Kabupaten Barito Selatan, Kalimantan Tengah 73712","Buntok Kota, Kec. Dusun Sel., Kabupaten Barito Selatan",KALIMANTAN TENGAH,73712.0,Indonesia,82122228701.0,,,-17.253.923,1.148.334.451,https://maps.google.com/?cid=0x0:0xa80b317a551eb7ef,
toko bangunan,Toko Bahan Bangunan,Toko bangunan Daffa,"Jl. Pakusualam No.1, Baru, Kec. Dusun Sel., Kabupaten Barito Selatan, Kalimantan Tengah 73751","Baru, Kec. Dusun Sel., Kabupaten Barito Selatan",KALIMANTAN TENGAH,73751.0,Indonesia,,,,-17.802.609,114.804.838,https://maps.google.com/?cid=0x0:0x502cdc08d2cbe99,
toko bangunan,Toko Bahan Bangunan,Toko Bangunan Setia Maju,"7RHP+HJJ, Jl. Pembangunan, Buntok Kota, Kec. Dusun Sel., Kabupaten Barito Selatan, Kalimantan Tengah 73711","Jl. Pembangunan, Buntok Kota, Kec. Dusun Sel., Kabupaten Barito Selatan",KALIMANTAN TENGAH,73711.0,Indonesia,81396801512.0,,,-17.210.253,1.148.365.047,https://maps.google.com/?cid=0x0:0x35daaac7020b5bfa,
toko bangunan,Toko Swalayan,Toko.Bangunan  Molding,"F5V6+Q97, Jl. Negara Ampah-Muarateweh, Patas II, Kec. Gn. Bintang Awai, Kabupaten Barito Selatan, Kalimantan Tengah 73753","Jl. Negara Ampah-Muarateweh, Patas II, Kec. Gn. Bintang Awai, Kabupaten Barito Selatan",KALIMANTAN TENGAH,73753.0,Indonesia,81367805201.0,,,-15.055.901,115.160.911,https://maps.google.com/?cid=0x0:0xdf2f3df691cf2c7,
toko bangunan,Toko Bahan Bangunan,"Toko Bangunan Lindo Bulan""""","8W39+6G5, Jl. Soekarno - Hatta, Sababilah, Kec. Dusun Sel., Kabupaten Barito Selatan, Kalimantan Tengah 73713","Jl. Soekarno - Hatta, Sababilah, Kec. Dusun Sel., Kabupaten Barito Selatan",KALIMANTAN TENGAH,73713.0,Indonesia,8161999912.0,,,-16.969.931,1.149.188.639,https://maps.google.com/?cid=0x0:0x94de1e65c7ae65d9,
toko bangunan,Toko Bahan Bangunan,Toko Bangunan Do'a Banua,"8W47+69W, Sanggu, Kec. Dusun Sel., Kabupaten Barito Selatan, Kalimantan Tengah 73713","Sanggu, Kec. Dusun Sel., Kabupaten Barito Selatan",KALIMANTAN TENGAH,73713.0,Indonesia,81287458656.0,,,-16.943.968,1.149.134.614,https://maps.google.com/?cid=0x0:0x2fc64be4a5791471,
toko bangunan,Toko Bahan Bangunan,Toko Anugerah Jaya,"Jl. Pelita Raya, RT.015/RW.004, Buntok Kota, Kec. Dusun Sel., Kabupaten Barito Selatan, Kalimantan Tengah 73711","RT.015/RW.004, Buntok Kota, Kec. Dusun Sel., Kabupaten Barito Selatan",KALIMANTAN TENGAH,73711.0,Indonesia,87737401068.0,,,-17.207.836,1.148.418.198,https://maps.google.com/?cid=0x0:0xf2278e46c02f53f4,
toko bangunan,Toko Bahan Bangunan,3 putera bangunan,"7RCP+Q8V, Jl. Kartini, Hilir Sper, Kec. Dusun Sel., Kabupaten Barito Selatan, Kalimantan Tengah 73751","Jl. Kartini, Hilir Sper, Kec. Dusun Sel., Kabupaten Barito Selatan",KALIMANTAN TENGAH,73751.0,Indonesia,83899586603.0,,,-17.280.023,1.148.358.011,https://maps.google.com/?cid=0x0:0x7e0aa5869aabd474,
toko bangunan,Toko Perlengkapan Rumah,Toko Dua Saudara,"9R56+PP4, Jl. Kalahien, Kalahien, Kec. Dusun Sel., Kabupaten Barito Selatan, Kalimantan Tengah 73751","Jl. Kalahien, Kalahien, Kec. Dusun Sel., Kabupaten Barito Selatan",KALIMANTAN TENGAH,73751.0,Indonesia,,,,-16.407.384,1.148.118.379,https://maps.google.com/?cid=0x0:0xda63aff01d8ea311,
toko bangunan,Toko Perlengkapan Rumah,Toko Bangunan NUGRAHA,"Q7C8+9GX, Bagok, Kec. Kelua, Kabupaten Barito Timur, Kalimantan Tengah 71552","Bagok, Kec. Kelua, Kabupaten Barito Timur",KALIMANTAN TENGAH,71552.0,Indonesia,81367805201.0,,,-22.290.034,1.152.663.504,https://maps.google.com/?cid=0x0:0xa6035c3214169c57,
toko bangunan,Toko Bahan Bangunan,Toko Bahan Bangunan Jaya Sentosa,"4MVF+JVF, Karya Jadi, Kec. Tabukan, Kabupaten Barito Kuala, Kalimantan Selatan 70553","Karya Jadi, Kec. Tabukan, Kabupaten Barito Kuala",KALIMANTAN TENGAH,70553.0,Indonesia,8161999912.0,,,-28.559.526,114.674.664,https://maps.google.com/?cid=0x0:0x9922ca11168825b4,
toko bangunan,Toko Bahan Bangunan,Toko H.Adul,"7RJX+Q26, Jl. Pelita Raya, Buntok Kota, Kec. Dusun Sel., Kabupaten Barito Selatan, Kalimantan Tengah 73713","Jl. Pelita Raya, Buntok Kota, Kec. Dusun Sel., Kabupaten Barito Selatan",KALIMANTAN TENGAH,73713.0,Indonesia,,,,-1.718.098,1.148.475.184,https://maps.google.com/?cid=0x0:0x660f4156b73d70a6,
toko bangunan,Toko Bahan Bangunan,UD KARYA BARU kosen pintu jendela,"7RJM+5PJ, Jl. Veteran, Buntok Kota, Kec. Dusun Sel., Kabupaten Barito Selatan, Kalimantan Tengah 73751","Jl. Veteran, Buntok Kota, Kec. Dusun Sel., Kabupaten Barito Selatan",KALIMANTAN TENGAH,73751.0,Indonesia,85249500330.0,,,-1.719.533,1.148.342.675,https://maps.google.com/?cid=0x0:0x798a6db2ceb748ea,
toko bangunan,Toko Bahan Bangunan,Toko Surya Bangunan,"Jl. A. Gani Gandrung, Buntok Kota, Kec. Dusun Sel., Kabupaten Barito Selatan, Kalimantan Tengah 73111","Buntok Kota, Kec. Dusun Sel., Kabupaten Barito Selatan",KALIMANTAN TENGAH,73111.0,Indonesia,,,,-17.139.036,1.148.448.237,https://maps.google.com/?cid=0x0:0x40fe35cabf0454a5,
toko bangunan,toko bangunan,Kalimantan Tengah 73712,"Kec. Dusun Sel., Kabupaten Barito Selatan, Kalimantan Tengah","Kabupaten Barito Selatan, Kalimantan Tengah",KALIMANTAN TENGAH,,Indonesia,,,,-18.255.326,1.147.588.155,https://maps.google.com/?cid=0x0:0xbc3cf9c65f77161b,
toko bangunan,Toko Bahan Bangunan,"TOKO BANGUNAN AULIA""""","Jl. Pelita Raya No.10, Buntok Kota, Kec. Dusun Sel., Kabupaten Barito Selatan, Kalimantan Tengah 73712","Buntok Kota, Kec. Dusun Sel., Kabupaten Barito Selatan",KALIMANTAN TENGAH,73712.0,Indonesia,82122228701.0,,,-17.253.923,1.148.334.451,https://maps.google.com/?cid=0x0:0xa80b317a551eb7ef,
toko bangunan,Toko Bahan Bangunan,Toko Bangunan Swarga,"Jalan, Tamiang Layang, Dusun Timur, East Barito Regency, Central Kalimantan 73671","Tamiang Layang, Dusun Timur, East Barito Regency",KALIMANTAN TENGAH,73671.0,Indonesia,85789077202.0,,,-20.966.672,115.151.779,https://maps.google.com/?cid=0x0:0x4153cd1f5a6a0a6e,
toko bangunan,Toko Swalayan,Toko.Bangunan  Molding,"F5V6+Q97, Jl. Negara Ampah-Muarateweh, Patas II, Kec. Gn. Bintang Awai, Kabupaten Barito Selatan, Kalimantan Tengah 73753","Jl. Negara Ampah-Muarateweh, Patas II, Kec. Gn. Bintang Awai, Kabupaten Barito Selatan",KALIMANTAN TENGAH,73753.0,Indonesia,81367805201.0,,,-15.055.901,115.160.911,https://maps.google.com/?cid=0x0:0xdf2f3df691cf2c7,
toko bangunan,Toko Bahan Bangunan,3 putera bangunan,"7RCP+Q8V, Jl. Kartini, Hilir Sper, Kec. Dusun Sel., Kabupaten Barito Selatan, Kalimantan Tengah 73751","Jl. Kartini, Hilir Sper, Kec. Dusun Sel., Kabupaten Barito Selatan",KALIMANTAN TENGAH,73751.0,Indonesia,83899586603.0,,,-17.280.023,1.148.358.011,https://maps.google.com/?cid=0x0:0x7e0aa5869aabd474,
toko bangunan,Toko Bahan Bangunan,Toko Bangunan Do'a Banua,"8W47+69W, Sanggu, Kec. Dusun Sel., Kabupaten Barito Selatan, Kalimantan Tengah 73713","Sanggu, Kec. Dusun Sel., Kabupaten Barito Selatan",KALIMANTAN TENGAH,73713.0,Indonesia,81287458656.0,,,-16.943.968,1.149.134.614,https://maps.google.com/?cid=0x0:0x2fc64be4a5791471,
toko bangunan,Toko Bahan Bangunan,Toko H.Adul,"7RJX+Q26, Jl. Pelita Raya, Buntok Kota, Kec. Dusun Sel., Kabupaten Barito Selatan, Kalimantan Tengah 73713","Jl. Pelita Raya, Buntok Kota, Kec. Dusun Sel., Kabupaten Barito Selatan",KALIMANTAN TENGAH,73713.0,Indonesia,,,,-1.718.098,1.148.475.184,https://maps.google.com/?cid=0x0:0x660f4156b73d70a6,
toko bangunan,Toko Bahan Bangunan,"Toko Bangunan Lindo Bulan""""","8W39+6G5, Jl. Soekarno - Hatta, Sababilah, Kec. Dusun Sel., Kabupaten Barito Selatan, Kalimantan Tengah 73713","Jl. Soekarno - Hatta, Sababilah, Kec. Dusun Sel., Kabupaten Barito Selatan",KALIMANTAN TENGAH,73713.0,Indonesia,8161999912.0,,,-16.969.931,1.149.188.639,https://maps.google.com/?cid=0x0:0x94de1e65c7ae65d9,
toko bangunan,Toko Perlengkapan Rumah,Toko Dua Saudara,"9R56+PP4, Jl. Kalahien, Kalahien, Kec. Dusun Sel., Kabupaten Barito Selatan, Kalimantan Tengah 73751","Jl. Kalahien, Kalahien, Kec. Dusun Sel., Kabupaten Barito Selatan",KALIMANTAN TENGAH,73751.0,Indonesia,,,,-16.407.384,1.148.118.379,https://maps.google.com/?cid=0x0:0xda63aff01d8ea311,
toko bangunan,Toko Bahan Bangunan,Toko Anugerah Jaya,"Jl. Pelita Raya, RT.015/RW.004, Buntok Kota, Kec. Dusun Sel., Kabupaten Barito Selatan, Kalimantan Tengah 73711","RT.015/RW.004, Buntok Kota, Kec. Dusun Sel., Kabupaten Barito Selatan",KALIMANTAN TENGAH,73711.0,Indonesia,87737401068.0,,,-17.207.836,1.148.418.198,https://maps.google.com/?cid=0x0:0xf2278e46c02f53f4,
toko bangunan,Toko Bahan Bangunan,Toko Alat Bangunan,"RT 03 RW 01 Kabupaten, Tinggiran Baru, Kec. Mekarsari, Kabupaten Barito Kuala, Kalimantan Selatan 70566","Tinggiran Baru, Kec. Mekarsari, Kabupaten Barito Kuala",KALIMANTAN TENGAH,70566.0,Indonesia,,,,-32.742.548,1.145.215.334,https://maps.google.com/?cid=0x0:0x209535c5cb02fd61,
toko bangunan,Toko Bahan Bangunan,"Toko bangunan,toko kaca, dan kosenan","km.6 ujung Kedung soku purwosarii 1, Kec. Tamban","Kabupaten Barito Kuala, Kalimantan Selatan",KALIMANTAN TENGAH,,Indonesia,81385661699.0,,,-33.022.447,1.144.828.093,https://maps.google.com/?cid=0x0:0x3f79615f2c9c2a0e,
toko bangunan,Toko Bahan Bangunan,TOKO BANGUNAN BARITO,"Lenggang, Kec. Raren Batuah, Kabupaten Barito Timur, Kalimantan Tengah","Kabupaten Barito Timur, Kalimantan Tengah",KALIMANTAN TENGAH,,Indonesia,,,,-17.019.148,1.151.422.195,https://maps.google.com/?cid=0x0:0x1fdd76b0baae111e,
toko bangunan,Toko Pakaian,Toko Bangunan H. Utuh 2,"MF9C+7WV, Sidorejo, Kec. Tamban, Kabupaten Barito Kuala, Kalimantan Selatan 70566","Sidorejo, Kec. Tamban, Kabupaten Barito Kuala",KALIMANTAN TENGAH,70566.0,Indonesia,82297903380.0,,,-33.317.722,1.144.722.836,https://maps.google.com/?cid=0x0:0xd8ed00680cbe19cf,
toko bangunan,Toko Bahan Bangunan,Toko Bangunan H.Misran,"2Q9C+W8X, Marabahan Kota, Kec. Marabahan, Kabupaten Barito Kuala, Kalimantan Selatan 70513","Marabahan Kota, Kec. Marabahan, Kabupaten Barito Kuala",KALIMANTAN TENGAH,70513.0,Indonesia,87781689990.0,,,-29.801.426,1.147.708.467,https://maps.google.com/?cid=0x0:0x620eb772bf5960c9,
toko bangunan,Toko Perlengkapan Rumah,Toko Bangunan Raihan,"WJWF+5C6, Belawang Kolam Kiri, Kec. Wanaraya, Kabupaten Barito Kuala, Kalimantan Selatan 70562","Belawang Kolam Kiri, Kec. Wanaraya, Kabupaten Barito Kuala",KALIMANTAN TENGAH,70562.0,Indonesia,,,,-30.545.899,1.146.235.237,https://maps.google.com/?cid=0x0:0x70f4408c22ee6645,
toko bangunan,Toko Bahan Bangunan,Toko Surya Bangunan,"Jl. A. Gani Gandrung, Buntok Kota, Kec. Dusun Sel., Kabupaten Barito Selatan, Kalimantan Tengah 73111","Buntok Kota, Kec. Dusun Sel., Kabupaten Barito Selatan",KALIMANTAN TENGAH,73111.0,Indonesia,,,,-17.139.036,1.148.448.237,https://maps.google.com/?cid=0x0:0x40fe35cabf0454a5,
toko bangunan,Toko Bahan Bangunan,UD KARYA BARU kosen pintu jendela,"7RJM+5PJ, Jl. Veteran, Buntok Kota, Kec. Dusun Sel., Kabupaten Barito Selatan, Kalimantan Tengah 73751","Jl. Veteran, Buntok Kota, Kec. Dusun Sel., Kabupaten Barito Selatan",KALIMANTAN TENGAH,73751.0,Indonesia,85249500330.0,,,-1.719.533,1.148.342.675,https://maps.google.com/?cid=0x0:0x798a6db2ceb748ea,
toko bangunan,toko bangunan,Kalimantan Tengah 73713,"Kabupaten Barito Selatan, Kalimantan Tengah","Kabupaten Barito Selatan, Kalimantan Tengah",KALIMANTAN TENGAH,,Indonesia,,,,-17.531.862,1.146.905.436,https://maps.google.com/?cid=0x0:0x1c28f022a25af1a5,
toko bangunan,Toko Bahan Bangunan,Toko Bangunan Do'a Banua,"8W47+69W, Sanggu, Kec. Dusun Sel., Kabupaten Barito Selatan, Kalimantan Tengah 73713","Sanggu, Kec. Dusun Sel., Kabupaten Barito Selatan",KALIMANTAN TENGAH,73713.0,Indonesia,81287458656.0,,,-16.943.968,1.149.134.614,https://maps.google.com/?cid=0x0:0x2fc64be4a5791471,
toko bangunan,Toko Bahan Bangunan,"TOKO BANGUNAN AULIA""""","Jl. Pelita Raya No.10, Buntok Kota, Kec. Dusun Sel., Kabupaten Barito Selatan, Kalimantan Tengah 73712","Buntok Kota, Kec. Dusun Sel., Kabupaten Barito Selatan",KALIMANTAN TENGAH,73712.0,Indonesia,82122228701.0,,,-17.253.923,1.148.334.451,https://maps.google.com/?cid=0x0:0xa80b317a551eb7ef,
toko bangunan,Toko Bahan Bangunan,BUDHI KARYA,"8V5G+5H, Pamait, Kec. Dusun Sel., Kabupaten Barito Selatan, Kalimantan Tengah 73713","Pamait, Kec. Dusun Sel., Kabupaten Barito Selatan",KALIMANTAN TENGAH,73713.0,Indonesia,81349596262.0,,,-16.920.378,1.148.764.073,https://maps.google.com/?cid=0x0:0xd9acbdd22a0a1c3b,
toko bangunan,Toko Bahan Bangunan,Toko Bangunan Setia Maju,"7RHP+HJJ, Jl. Pembangunan, Buntok Kota, Kec. Dusun Sel., Kabupaten Barito Selatan, Kalimantan Tengah 73711","Jl. Pembangunan, Buntok Kota, Kec. Dusun Sel., Kabupaten Barito Selatan",KALIMANTAN TENGAH,73711.0,Indonesia,81396801512.0,,,-17.210.253,1.148.365.047,https://maps.google.com/?cid=0x0:0x35daaac7020b5bfa,
toko bangunan,Toko Bahan Bangunan,Toko H.Adul,"7RJX+Q26, Jl. Pelita Raya, Buntok Kota, Kec. Dusun Sel., Kabupaten Barito Selatan, Kalimantan Tengah 73713","Jl. Pelita Raya, Buntok Kota, Kec. Dusun Sel., Kabupaten Barito Selatan",KALIMANTAN TENGAH,73713.0,Indonesia,,,,-1.718.098,1.148.475.184,https://maps.google.com/?cid=0x0:0x660f4156b73d70a6,
toko bangunan,Toko Bahan Bangunan,3 putera bangunan,"7RCP+Q8V, Jl. Kartini, Hilir Sper, Kec. Dusun Sel., Kabupaten Barito Selatan, Kalimantan Tengah 73751","Jl. Kartini, Hilir Sper, Kec. Dusun Sel., Kabupaten Barito Selatan",KALIMANTAN TENGAH,73751.0,Indonesia,83899586603.0,,,-17.280.023,1.148.358.011,https://maps.google.com/?cid=0x0:0x7e0aa5869aabd474,
toko bangunan,Toko Bahan Bangunan,Toko Anugerah Jaya,"Jl. Pelita Raya, RT.015/RW.004, Buntok Kota, Kec. Dusun Sel., Kabupaten Barito Selatan, Kalimantan Tengah 73711","RT.015/RW.004, Buntok Kota, Kec. Dusun Sel., Kabupaten Barito Selatan",KALIMANTAN TENGAH,73711.0,Indonesia,87737401068.0,,,-17.207.836,1.148.418.198,https://maps.google.com/?cid=0x0:0xf2278e46c02f53f4,
toko bangunan,Toko Bahan Bangunan,Matiba Kalimantan. CV,"Jl. Pahlawan No.31, Buntok Kota, Kec. Dusun Sel., Kabupaten Barito Selatan, Kalimantan Tengah 73751","Buntok Kota, Kec. Dusun Sel., Kabupaten Barito Selatan",KALIMANTAN TENGAH,73751.0,Indonesia,,,,-17.163.004,1.148.371.024,https://maps.google.com/?cid=0x0:0x9b556207981fa3a5,
toko bangunan,Toko Perlengkapan Rumah,Toko Dua Saudara,"9R56+PP4, Jl. Kalahien, Kalahien, Kec. Dusun Sel., Kabupaten Barito Selatan, Kalimantan Tengah 73751","Jl. Kalahien, Kalahien, Kec. Dusun Sel., Kabupaten Barito Selatan",KALIMANTAN TENGAH,73751.0,Indonesia,,,,-16.407.384,1.148.118.379,https://maps.google.com/?cid=0x0:0xda63aff01d8ea311,
toko bangunan,Toko Swalayan,Toko.Bangunan  Molding,"F5V6+Q97, Jl. Negara Ampah-Muarateweh, Patas II, Kec. Gn. Bintang Awai, Kabupaten Barito Selatan, Kalimantan Tengah 73753","Jl. Negara Ampah-Muarateweh, Patas II, Kec. Gn. Bintang Awai, Kabupaten Barito Selatan",KALIMANTAN TENGAH,73753.0,Indonesia,81367805201.0,,,-15.055.901,115.160.911,https://maps.google.com/?cid=0x0:0xdf2f3df691cf2c7,
toko bangunan,Toko Bahan Bangunan,UD KARYA BARU kosen pintu jendela,"7RJM+5PJ, Jl. Veteran, Buntok Kota, Kec. Dusun Sel., Kabupaten Barito Selatan, Kalimantan Tengah 73751","Jl. Veteran, Buntok Kota, Kec. Dusun Sel., Kabupaten Barito Selatan",KALIMANTAN TENGAH,73751.0,Indonesia,85249500330.0,,,-1.719.533,1.148.342.675,https://maps.google.com/?cid=0x0:0x798a6db2ceb748ea,
toko bangunan,Toko Bahan Bangunan,Toko bangunan Daffa,"Jl. Pakusualam No.1, Baru, Kec. Dusun Sel., Kabupaten Barito Selatan, Kalimantan Tengah 73751","Baru, Kec. Dusun Sel., Kabupaten Barito Selatan",KALIMANTAN TENGAH,73751.0,Indonesia,,,,-17.802.609,114.804.838,https://maps.google.com/?cid=0x0:0x502cdc08d2cbe99,
toko bangunan,Toko Bahan Bangunan,Toko Bangunan Swarga,"Jalan, Tamiang Layang, Dusun Timur, East Barito Regency, Central Kalimantan 73671","Tamiang Layang, Dusun Timur, East Barito Regency",KALIMANTAN TENGAH,73671.0,Indonesia,85789077202.0,,,-20.966.672,115.151.779,https://maps.google.com/?cid=0x0:0x4153cd1f5a6a0a6e,
toko bangunan,Toko,"Toko Karya Baru Komputer, Elektronik","AdvertisibgJl, Jl. Panglima Batur No.22, Buntok Kota, Kota, Kabupaten Barito Selatan, Kalimantan Tengah 73712","Jl. Panglima Batur No.22, Buntok Kota, Kota, Kabupaten Barito Selatan",KALIMANTAN TENGAH,73712.0,Indonesia,85789077202.0,,,-1.722.504,11.483.324,https://maps.google.com/?cid=0x0:0x44e5fa373c153d5c,
toko bangunan,Toko Perlengkapan Rumah,Toko Bangunan Raihan,"WJWF+5C6, Belawang Kolam Kiri, Kec. Wanaraya, Kabupaten Barito Kuala, Kalimantan Selatan 70562","Belawang Kolam Kiri, Kec. Wanaraya, Kabupaten Barito Kuala",KALIMANTAN TENGAH,70562.0,Indonesia,,,,-30.545.899,1.146.235.237,https://maps.google.com/?cid=0x0:0x70f4408c22ee6645,
toko bangunan,Toko,Toko laila menjual barang bangunan,"XV8V+FXM, Bangkuang, Kec. Karau Kuala, Kabupaten Barito Selatan, Kalimantan Tengah 73617","Bangkuang, Kec. Karau Kuala, Kabupaten Barito Selatan",KALIMANTAN TENGAH,73617.0,Indonesia,81251315127.0,,,-20.338,1.148.949.147,https://maps.google.com/?cid=0x0:0x47a6659904820784,
toko bangunan,Toko Swalayan,Toko Zainal,"XWF6+V4R, Bangkuang, Kec. Karau Kuala, Kabupaten Barito Selatan, Kalimantan Tengah 73617","Bangkuang, Kec. Karau Kuala, Kabupaten Barito Selatan",KALIMANTAN TENGAH,73617.0,Indonesia,85249317316.0,,,-20.252.574,114.910.276,https://maps.google.com/?cid=0x0:0xa5d7ba28d695b05b,
toko bangunan,Toko,"Toko Joeyaz'46 jual Alat Listrik, Alat Bangunan DLL","Unnamed Rd, Kab. Barito Sel., 73617, Bangkuang, Kec. Karau Kuala, Kabupaten Barito Selatan, Kalimantan Tengah 73617","Kab. Barito Sel.,",KALIMANTAN TENGAH,73617.0,Indonesia,82199799669.0,,,-20.319.484,1.149.049.836,https://maps.google.com/?cid=0x0:0x833899f5c7014b9c,
toko bangunan,Pusat Perbelanjaan,TOKO BULL PHOTO,"pasar beringin, Buntok Kota, Kec. Dusun Sel., Kabupaten Barito Selatan, Kalimantan Tengah 73711","Buntok Kota, Kec. Dusun Sel., Kabupaten Barito Selatan",KALIMANTAN TENGAH,73711.0,Indonesia,82251367174.0,,,-17.194.196,1.148.322.057,https://maps.google.com/?cid=0x0:0x4e25b8c869645807,
toko bangunan,Toko Swalayan,Toko Cv.milyanor,"XV8X+8QQ, Unnamed Road, Bangkuang, Kec. Karau Kuala, Kabupaten Barito Selatan, Kalimantan Tengah 73617","Unnamed Road, Bangkuang, Kec. Karau Kuala, Kabupaten Barito Selatan",KALIMANTAN TENGAH,73617.0,Indonesia,81297697450.0,,,-20.341.719,1.148.994.918,https://maps.google.com/?cid=0x0:0x5d3546bae995d07f,
toko bangunan,toko bangunan,,,,KALIMANTAN TENGAH,,Indonesia,82255247455.0,,,-69.319.364,107.563.674,https://maps.google.com/?cid=0x0:0x81c4e3c9ee19bc48,
toko bangunan,Toko Bahan Bangunan,Toko Surya Bangunan,"Jl. A. Gani Gandrung, Buntok Kota, Kec. Dusun Sel., Kabupaten Barito Selatan, Kalimantan Tengah 73111","Buntok Kota, Kec. Dusun Sel., Kabupaten Barito Selatan",KALIMANTAN TENGAH,73111.0,Indonesia,,,,-17.139.036,1.148.448.237,https://maps.google.com/?cid=0x0:0x40fe35cabf0454a5,
toko bangunan,toko bangunan,Kalimantan Tengah 73751,"Kec. Dusun Sel., Kabupaten Barito Selatan, Kalimantan Tengah","Kabupaten Barito Selatan, Kalimantan Tengah",KALIMANTAN TENGAH,,Indonesia,,,,-16.899.287,1.147.736.556,https://maps.google.com/?cid=0x0:0xfd0ed3d130200b49,
toko bangunan,Toko Bahan Bangunan,"TOKO BANGUNAN AULIA""""","Jl. Pelita Raya No.10, Buntok Kota, Kec. Dusun Sel., Kabupaten Barito Selatan, Kalimantan Tengah 73712","Buntok Kota, Kec. Dusun Sel., Kabupaten Barito Selatan",KALIMANTAN TENGAH,73712.0,Indonesia,82122228701.0,,,-17.253.923,1.148.334.451,https://maps.google.com/?cid=0x0:0xa80b317a551eb7ef,
toko bangunan,Toko Bahan Bangunan,3 putera bangunan,"7RCP+Q8V, Jl. Kartini, Hilir Sper, Kec. Dusun Sel., Kabupaten Barito Selatan, Kalimantan Tengah 73751","Jl. Kartini, Hilir Sper, Kec. Dusun Sel., Kabupaten Barito Selatan",KALIMANTAN TENGAH,73751.0,Indonesia,83899586603.0,,,-17.280.023,1.148.358.011,https://maps.google.com/?cid=0x0:0x7e0aa5869aabd474,
toko bangunan,Toko Perlengkapan Rumah,Toko Dua Saudara,"9R56+PP4, Jl. Kalahien, Kalahien, Kec. Dusun Sel., Kabupaten Barito Selatan, Kalimantan Tengah 73751","Jl. Kalahien, Kalahien, Kec. Dusun Sel., Kabupaten Barito Selatan",KALIMANTAN TENGAH,73751.0,Indonesia,,,,-16.407.384,1.148.118.379,https://maps.google.com/?cid=0x0:0xda63aff01d8ea311,
toko bangunan,Toko Bahan Bangunan,Toko Anugerah Jaya,"Jl. Pelita Raya, RT.015/RW.004, Buntok Kota, Kec. Dusun Sel., Kabupaten Barito Selatan, Kalimantan Tengah 73711","RT.015/RW.004, Buntok Kota, Kec. Dusun Sel., Kabupaten Barito Selatan",KALIMANTAN TENGAH,73711.0,Indonesia,87737401068.0,,,-17.207.836,1.148.418.198,https://maps.google.com/?cid=0x0:0xf2278e46c02f53f4,
toko bangunan,Toko Bahan Bangunan,Toko H.Adul,"7RJX+Q26, Jl. Pelita Raya, Buntok Kota, Kec. Dusun Sel., Kabupaten Barito Selatan, Kalimantan Tengah 73713","Jl. Pelita Raya, Buntok Kota, Kec. Dusun Sel., Kabupaten Barito Selatan",KALIMANTAN TENGAH,73713.0,Indonesia,,,,-1.718.098,1.148.475.184,https://maps.google.com/?cid=0x0:0x660f4156b73d70a6,
toko bangunan,Toko Bahan Bangunan,Matiba Kalimantan. CV,"Jl. Pahlawan No.31, Buntok Kota, Kec. Dusun Sel., Kabupaten Barito Selatan, Kalimantan Tengah 73751","Buntok Kota, Kec. Dusun Sel., Kabupaten Barito Selatan",KALIMANTAN TENGAH,73751.0,Indonesia,,,,-17.163.004,1.148.371.024,https://maps.google.com/?cid=0x0:0x9b556207981fa3a5,
toko bangunan,Toko Bahan Bangunan,Toko Bangunan Do'a Banua,"8W47+69W, Sanggu, Kec. Dusun Sel., Kabupaten Barito Selatan, Kalimantan Tengah 73713","Sanggu, Kec. Dusun Sel., Kabupaten Barito Selatan",KALIMANTAN TENGAH,73713.0,Indonesia,81287458656.0,,,-16.943.968,1.149.134.614,https://maps.google.com/?cid=0x0:0x2fc64be4a5791471,
toko bangunan,Toko Bahan Bangunan,BUDHI KARYA,"8V5G+5H, Pamait, Kec. Dusun Sel., Kabupaten Barito Selatan, Kalimantan Tengah 73713","Pamait, Kec. Dusun Sel., Kabupaten Barito Selatan",KALIMANTAN TENGAH,73713.0,Indonesia,81349596262.0,,,-16.920.378,1.148.764.073,https://maps.google.com/?cid=0x0:0xd9acbdd22a0a1c3b,
toko bangunan,Toko Bahan Bangunan,Toko bangunan Daffa,"Jl. Pakusualam No.1, Baru, Kec. Dusun Sel., Kabupaten Barito Selatan, Kalimantan Tengah 73751","Baru, Kec. Dusun Sel., Kabupaten Barito Selatan",KALIMANTAN TENGAH,73751.0,Indonesia,,,,-17.802.609,114.804.838,https://maps.google.com/?cid=0x0:0x502cdc08d2cbe99,
toko bangunan,Toko Bahan Bangunan,"Toko Bangunan Lindo Bulan""""","8W39+6G5, Jl. Soekarno - Hatta, Sababilah, Kec. Dusun Sel., Kabupaten Barito Selatan, Kalimantan Tengah 73713","Jl. Soekarno - Hatta, Sababilah, Kec. Dusun Sel., Kabupaten Barito Selatan",KALIMANTAN TENGAH,73713.0,Indonesia,8161999912.0,,,-16.969.931,1.149.188.639,https://maps.google.com/?cid=0x0:0x94de1e65c7ae65d9,
toko bangunan,Toko Bahan Bangunan,UD KARYA BARU kosen pintu jendela,"7RJM+5PJ, Jl. Veteran, Buntok Kota, Kec. Dusun Sel., Kabupaten Barito Selatan, Kalimantan Tengah 73751","Jl. Veteran, Buntok Kota, Kec. Dusun Sel., Kabupaten Barito Selatan",KALIMANTAN TENGAH,73751.0,Indonesia,85249500330.0,,,-1.719.533,1.148.342.675,https://maps.google.com/?cid=0x0:0x798a6db2ceb748ea,
toko bangunan,Toko Swalayan,Toko.Bangunan  Molding,"F5V6+Q97, Jl. Negara Ampah-Muarateweh, Patas II, Kec. Gn. Bintang Awai, Kabupaten Barito Selatan, Kalimantan Tengah 73753","Jl. Negara Ampah-Muarateweh, Patas II, Kec. Gn. Bintang Awai, Kabupaten Barito Selatan",KALIMANTAN TENGAH,73753.0,Indonesia,81367805201.0,,,-15.055.901,115.160.911,https://maps.google.com/?cid=0x0:0xdf2f3df691cf2c7,
toko bangunan,Toko Bahan Bangunan,Toko Bangunan Swarga,"Jalan, Tamiang Layang, Dusun Timur, East Barito Regency, Central Kalimantan 73671","Tamiang Layang, Dusun Timur, East Barito Regency",KALIMANTAN TENGAH,73671.0,Indonesia,85789077202.0,,,-20.966.672,115.151.779,https://maps.google.com/?cid=0x0:0x4153cd1f5a6a0a6e,
toko bangunan,Pusat Perbelanjaan,TOKO BULL PHOTO,"pasar beringin, Buntok Kota, Kec. Dusun Sel., Kabupaten Barito Selatan, Kalimantan Tengah 73711","Buntok Kota, Kec. Dusun Sel., Kabupaten Barito Selatan",KALIMANTAN TENGAH,73711.0,Indonesia,82251367174.0,,,-17.194.196,1.148.322.057,https://maps.google.com/?cid=0x0:0x4e25b8c869645807,
toko bangunan,Toko,"Toko Karya Baru Komputer, Elektronik","AdvertisibgJl, Jl. Panglima Batur No.22, Buntok Kota, Kota, Kabupaten Barito Selatan, Kalimantan Tengah 73712","Jl. Panglima Batur No.22, Buntok Kota, Kota, Kabupaten Barito Selatan",KALIMANTAN TENGAH,73712.0,Indonesia,85789077202.0,,,-1.722.504,11.483.324,https://maps.google.com/?cid=0x0:0x44e5fa373c153d5c,
toko bangunan,Toko Komputer,Toko Antariksa,"7RFP+HVC, Jl. Kh. Dewantara, Hilir Sper, Kec. Dusun Sel., Kabupaten Barito Selatan, Kalimantan Tengah 73751","Jl. Kh. Dewantara, Hilir Sper, Kec. Dusun Sel., Kabupaten Barito Selatan",KALIMANTAN TENGAH,73751.0,Indonesia,82174999886.0,,,-17.260.696,1.148.371.546,https://maps.google.com/?cid=0x0:0x39277dddcaf818bc,
toko bangunan,Toko Rokok Elektrik,9VAPOR BUNTOK,"7RMQ+G59, Buntok Kota, Kec. Dusun Sel., Kabupaten Barito Selatan, Kalimantan Tengah 73751","Buntok Kota, Kec. Dusun Sel., Kabupaten Barito Selatan",KALIMANTAN TENGAH,73751.0,Indonesia,82253313996.0,,,-17.162.114,1.148.379.891,https://maps.google.com/?cid=0x0:0x17e0ebd7379a0e0f,
toko bangunan,Toko Perlengkapan Rumah,Toko Bangunan Raihan,"WJWF+5C6, Belawang Kolam Kiri, Kec. Wanaraya, Kabupaten Barito Kuala, Kalimantan Selatan 70562","Belawang Kolam Kiri, Kec. Wanaraya, Kabupaten Barito Kuala",KALIMANTAN TENGAH,70562.0,Indonesia,,,,-30.545.899,1.146.235.237,https://maps.google.com/?cid=0x0:0x70f4408c22ee6645,
toko bangunan,Toko Bahan Bangunan,"Toko bangunan,toko kaca, dan kosenan","km.6 ujung Kedung soku purwosarii 1, Kec. Tamban","Kabupaten Barito Kuala, Kalimantan Selatan",KALIMANTAN TENGAH,,Indonesia,81385661699.0,,,-33.022.447,1.144.828.093,https://maps.google.com/?cid=0x0:0x3f79615f2c9c2a0e,
toko bangunan,toko bangunan,,,,KALIMANTAN TENGAH,,Indonesia,82255247455.0,,,-69.319.364,107.563.674,https://maps.google.com/?cid=0x0:0x81c4e3c9ee19bc48,
toko bangunan,Toko Bahan Bangunan,Toko Surya Bangunan,"Jl. A. Gani Gandrung, Buntok Kota, Kec. Dusun Sel., Kabupaten Barito Selatan, Kalimantan Tengah 73111","Buntok Kota, Kec. Dusun Sel., Kabupaten Barito Selatan",KALIMANTAN TENGAH,73111.0,Indonesia,,,,-17.139.036,1.148.448.237,https://maps.google.com/?cid=0x0:0x40fe35cabf0454a5,
toko bangunan,Toko,Toko Ataini Menyedia Bahan Bangunan,"JV85+P67, Jl. Barito, Tarusan, Kec. Dusun Utara, Kabupaten Barito Selatan, Kalimantan Tengah 73752","Jl. Barito, Tarusan, Kec. Dusun Utara, Kabupaten Barito Selatan",KALIMANTAN TENGAH,73752.0,Indonesia,,,,-1.382.893,114.858.194,https://maps.google.com/?cid=0x0:0xe2836f17e6378ea2,
toko bangunan,Toko Bahan Bangunan,Toko Bangunan Do'a Banua,"8W47+69W, Sanggu, Kec. Dusun Sel., Kabupaten Barito Selatan, Kalimantan Tengah 73713","Sanggu, Kec. Dusun Sel., Kabupaten Barito Selatan",KALIMANTAN TENGAH,73713.0,Indonesia,81287458656.0,,,-16.943.968,1.149.134.614,https://maps.google.com/?cid=0x0:0x2fc64be4a5791471,
toko bangunan,toko bangunan,Kalimantan Tengah 73752,"Kabupaten Barito Selatan, Kalimantan Tengah","Kabupaten Barito Selatan, Kalimantan Tengah",KALIMANTAN TENGAH,,Indonesia,,,,-14.856.175,1.148.567.482,https://maps.google.com/?cid=0x0:0x9e89593c92bb4954,
toko bangunan,Toko Perlengkapan Rumah,Toko Dua Saudara,"9R56+PP4, Jl. Kalahien, Kalahien, Kec. Dusun Sel., Kabupaten Barito Selatan, Kalimantan Tengah 73751","Jl. Kalahien, Kalahien, Kec. Dusun Sel., Kabupaten Barito Selatan",KALIMANTAN TENGAH,73751.0,Indonesia,,,,-16.407.384,1.148.118.379,https://maps.google.com/?cid=0x0:0xda63aff01d8ea311,
toko bangunan,Toko Bahan Bangunan,"Toko Bangunan Lindo Bulan""""","8W39+6G5, Jl. Soekarno - Hatta, Sababilah, Kec. Dusun Sel., Kabupaten Barito Selatan, Kalimantan Tengah 73713","Jl. Soekarno - Hatta, Sababilah, Kec. Dusun Sel., Kabupaten Barito Selatan",KALIMANTAN TENGAH,73713.0,Indonesia,8161999912.0,,,-16.969.931,1.149.188.639,https://maps.google.com/?cid=0x0:0x94de1e65c7ae65d9,
toko bangunan,Toko Bahan Bangunan,"TOKO BANGUNAN AULIA""""","Jl. Pelita Raya No.10, Buntok Kota, Kec. Dusun Sel., Kabupaten Barito Selatan, Kalimantan Tengah 73712","Buntok Kota, Kec. Dusun Sel., Kabupaten Barito Selatan",KALIMANTAN TENGAH,73712.0,Indonesia,82122228701.0,,,-17.253.923,1.148.334.451,https://maps.google.com/?cid=0x0:0xa80b317a551eb7ef,
toko bangunan,Toko,Toko UD Semangat Baru,"MVGX+F6, Montallat II, Kec. Montallat, Kabupaten Barito Utara, Kalimantan Tengah 73862","Montallat II, Kec. Montallat, Kabupaten Barito Utara",KALIMANTAN TENGAH,73862.0,Indonesia,,,,-1.323.921,11.489.814,https://maps.google.com/?cid=0x0:0x598c573ff7e76e3e,
toko bangunan,Toko Swalayan,Toko.Bangunan  Molding,"F5V6+Q97, Jl. Negara Ampah-Muarateweh, Patas II, Kec. Gn. Bintang Awai, Kabupaten Barito Selatan, Kalimantan Tengah 73753","Jl. Negara Ampah-Muarateweh, Patas II, Kec. Gn. Bintang Awai, Kabupaten Barito Selatan",KALIMANTAN TENGAH,73753.0,Indonesia,81367805201.0,,,-15.055.901,115.160.911,https://maps.google.com/?cid=0x0:0xdf2f3df691cf2c7,
toko bangunan,toko bangunan,Kalimantan Tengah 73753,"Kec. Gn. Bintang Awai, Kabupaten Barito Selatan, Kalimantan Tengah","Kabupaten Barito Selatan, Kalimantan Tengah",KALIMANTAN TENGAH,,Indonesia,,,,-14.821.804,115.141.484,https://maps.google.com/?cid=0x0:0x51e61e4a4ea8d4dc,
toko bangunan,Toko,Toko Lisda,"95GJ+HFX, Wayun, Palu Rejo, Kabupaten Barito Selatan, Kalimantan Tengah","Kabupaten Barito Selatan, Kalimantan Tengah",KALIMANTAN TENGAH,,Indonesia,85281775051.0,,,-16.235.216,1.151.812.263,https://maps.google.com/?cid=0x0:0xf6e50860c0923af3,
toko bangunan,toko bangunan,Kalimantan Tengah 73763,"Kec. Jenamas, Kabupaten Barito Selatan, Kalimantan Tengah","Kabupaten Barito Selatan, Kalimantan Tengah",KALIMANTAN TENGAH,,Indonesia,,,,-234.059,1.148.567.482,https://maps.google.com/?cid=0x0:0x37fa6b040b7959f6,
toko bangunan,toko bangunan,Toko Peralatan dan Sembako,"Rantau Bahuang, Kec. Jenamas, Kabupaten Barito Selatan, Kalimantan Tengah 73763","Kec. Jenamas, Kabupaten Barito Selatan",KALIMANTAN TENGAH,73763.0,Indonesia,82253740352.0,,,-24.661.297,1.148.722.998,https://maps.google.com/?cid=0x0:0x8a3f411fb1d34a37,
toko bangunan,Pusat Perbelanjaan,"TOKO KEMBAR tersedia sembako,alat bangunan,Perabutan rumah tangga","QVC4+4CC, Jalan, RT.4/RW.1, Mengkatip, Kec. Dusun Hilir, Kabupaten Barito Selatan, Kalimantan Tengah 73762","Jalan, RT.4/RW.1, Mengkatip, Kec. Dusun Hilir, Kabupaten Barito Selatan",KALIMANTAN TENGAH,73762.0,Indonesia,85348014642.0,,,-22.297.179,1.148.560.423,https://maps.google.com/?cid=0x0:0xc1607a1eb1b5a0fa,
toko bangunan,Toko bahan makanan,UD. RAHMANI,"RT.003/RW.001, Kalanis, Kec. Dusun Hilir, Kabupaten Barito Selatan, Kalimantan Tengah 73762","Kalanis, Kec. Dusun Hilir, Kabupaten Barito Selatan",KALIMANTAN TENGAH,73762.0,Indonesia,82252623785.0,,,-22.636.639,1.148.990.197,https://maps.google.com/?cid=0x0:0x2fe60a62c3a6b3b8,
toko bangunan,Toko Bahan Bangunan,Toko Bahan Bangunan CHANDRA DEWI,"Unnamed Road, Mengkatip, Kec. Dusun Hilir, Kabupaten Barito Selatan, Kalimantan Tengah 73762","Mengkatip, Kec. Dusun Hilir, Kabupaten Barito Selatan",KALIMANTAN TENGAH,73762.0,Indonesia,,,,-22.292.054,1.148.554.474,https://maps.google.com/?cid=0x0:0xe8e615f94114b0e0,
toko bangunan,toko bangunan,Kalimantan Tengah 73761,"Kabupaten Barito Selatan, Kalimantan Tengah","Kabupaten Barito Selatan, Kalimantan Tengah",KALIMANTAN TENGAH,,Indonesia,,,,-20.019.069,1.147.380.385,https://maps.google.com/?cid=0x0:0xf4482425825ffff8,
toko bangunan,Toko Swalayan,Toko Cv.milyanor,"XV8X+8QQ, Unnamed Road, Bangkuang, Kec. Karau Kuala, Kabupaten Barito Selatan, Kalimantan Tengah 73617","Unnamed Road, Bangkuang, Kec. Karau Kuala, Kabupaten Barito Selatan",KALIMANTAN TENGAH,73617.0,Indonesia,81297697450.0,,,-20.341.719,1.148.994.918,https://maps.google.com/?cid=0x0:0x5d3546bae995d07f,
toko bangunan,Toko,Toko laila menjual barang bangunan,"XV8V+FXM, Bangkuang, Kec. Karau Kuala, Kabupaten Barito Selatan, Kalimantan Tengah 73617","Bangkuang, Kec. Karau Kuala, Kabupaten Barito Selatan",KALIMANTAN TENGAH,73617.0,Indonesia,81251315127.0,,,-20.338,1.148.949.147,https://maps.google.com/?cid=0x0:0x47a6659904820784,
toko bangunan,Komplek perumahan,Toko Bangunan Wahyu,"QMW4+M9J, Ray 12, RT.06/RW.No. 04, Puntik Tengah, Kec. Mandastana, Kabupaten Barito Kuala, Kalimantan Selatan 70581","Ray 12, RT.06/RW.No. 04, Puntik Tengah, Kec. Mandastana, Kabupaten Barito Kuala",KALIMANTAN TENGAH,70581.0,Indonesia,8161999912.0,,,-32.032.914,1.146.558.788,https://maps.google.com/?cid=0x0:0x786dd2d241166676,
toko bangunan,Toko Perlengkapan Rumah,Toko Bangunan Raihan,"WJWF+5C6, Belawang Kolam Kiri, Kec. Wanaraya, Kabupaten Barito Kuala, Kalimantan Selatan 70562","Belawang Kolam Kiri, Kec. Wanaraya, Kabupaten Barito Kuala",KALIMANTAN TENGAH,70562.0,Indonesia,,,,-30.545.899,1.146.235.237,https://maps.google.com/?cid=0x0:0x70f4408c22ee6645,
toko bangunan,Toko Bahan Bangunan,"Toko bangunan,toko kaca, dan kosenan","km.6 ujung Kedung soku purwosarii 1, Kec. Tamban","Kabupaten Barito Kuala, Kalimantan Selatan",KALIMANTAN TENGAH,,Indonesia,81385661699.0,,,-33.022.447,1.144.828.093,https://maps.google.com/?cid=0x0:0x3f79615f2c9c2a0e,
toko bangunan,Pusat Perbelanjaan,"TOKO KEMBAR tersedia sembako,alat bangunan,Perabutan rumah tangga","QVC4+4CC, Jalan, RT.4/RW.1, Mengkatip, Kec. Dusun Hilir, Kabupaten Barito Selatan, Kalimantan Tengah 73762","Jalan, RT.4/RW.1, Mengkatip, Kec. Dusun Hilir, Kabupaten Barito Selatan",KALIMANTAN TENGAH,73762.0,Indonesia,85348014642.0,,,-22.297.179,1.148.560.423,https://maps.google.com/?cid=0x0:0xc1607a1eb1b5a0fa,
toko bangunan,Pusat Perbelanjaan,waroeng Mirza,"2RWP+G95, Babai, Kec. Karau Kuala, Kabupaten Barito Selatan, Kalimantan Tengah 73617","Babai, Kec. Karau Kuala, Kabupaten Barito Selatan",KALIMANTAN TENGAH,73617.0,Indonesia,81348231820.0,,,-1.953.727,114.835.999,https://maps.google.com/?cid=0x0:0x62e03fe9d8996bb8,
toko bangunan,Toko Perlengkapan Rumah,Toko Dua Saudara,"9R56+PP4, Jl. Kalahien, Kalahien, Kec. Dusun Sel., Kabupaten Barito Selatan, Kalimantan Tengah 73751","Jl. Kalahien, Kalahien, Kec. Dusun Sel., Kabupaten Barito Selatan",KALIMANTAN TENGAH,73751.0,Indonesia,,,,-16.407.384,1.148.118.379,https://maps.google.com/?cid=0x0:0xda63aff01d8ea311,
toko bangunan,Toko Bahan Bangunan,Toko Bangunan Fasya,"Jln. Tumbang samba km 27, desa, Karya unggang, Kec. Tewang Sangalang Garing, Kabupaten Katingan, Kalimantan Tengah 74453","desa, Karya unggang, Kec. Tewang Sangalang Garing, Kabupaten Katingan",KALIMANTAN TENGAH,74453.0,Indonesia,81396801512.0,,,-17.299.252,1.131.453.314,https://maps.google.com/?cid=0x0:0x44bf5edc4ed75ac0,
toko bangunan,Toko Bahan Bangunan,Toko Alat Bangunan,"RT 03 RW 01 Kabupaten, Tinggiran Baru, Kec. Mekarsari, Kabupaten Barito Kuala, Kalimantan Selatan 70566","Tinggiran Baru, Kec. Mekarsari, Kabupaten Barito Kuala",KALIMANTAN TENGAH,70566.0,Indonesia,,,,-32.742.548,1.145.215.334,https://maps.google.com/?cid=0x0:0x209535c5cb02fd61,
toko bangunan,Toko Bahan Bangunan,Toko Bangunan ANIS,"V5JC+VRJ, Jl. Ahmad Yani, Tamiang Layang, Kec. Dusun Tim., Kabupaten Barito Timur, Kalimantan Tengah 73671","Jl. Ahmad Yani, Tamiang Layang, Kec. Dusun Tim., Kabupaten Barito Timur",KALIMANTAN TENGAH,73671.0,Indonesia,85249511744.0,,,-21.177.883,115.172.023,https://maps.google.com/?cid=0x0:0x91d0d2599bd1ea1e,
toko bangunan,Toko Bahan Bangunan,Toko Bahan Bangunan CHANDRA DEWI,"Unnamed Road, Mengkatip, Kec. Dusun Hilir, Kabupaten Barito Selatan, Kalimantan Tengah 73762","Mengkatip, Kec. Dusun Hilir, Kabupaten Barito Selatan",KALIMANTAN TENGAH,73762.0,Indonesia,,,,-22.292.054,1.148.554.474,https://maps.google.com/?cid=0x0:0xe8e615f94114b0e0,
toko bangunan,Toko Pakaian,Toko Bangunan H. Utuh 2,"MF9C+7WV, Sidorejo, Kec. Tamban, Kabupaten Barito Kuala, Kalimantan Selatan 70566","Sidorejo, Kec. Tamban, Kabupaten Barito Kuala",KALIMANTAN TENGAH,70566.0,Indonesia,82297903380.0,,,-33.317.722,1.144.722.836,https://maps.google.com/?cid=0x0:0xd8ed00680cbe19cf,
toko bangunan,Toko Bahan Bangunan,Toko Harapan,"493Q+F7X, Kasongan Lama, Kec. Katingan Hilir, Kabupaten Katingan, Kalimantan Tengah 74413","Kasongan Lama, Kec. Katingan Hilir, Kabupaten Katingan",KALIMANTAN TENGAH,74413.0,Indonesia,85249325527.0,,,-18.962.514,113.388.248,https://maps.google.com/?cid=0x0:0xdd29ea1dc1d3f8d1,
toko bangunan,Toko Bahan Bangunan,Arsian Toko Bangunan Sumber Berkah,"PGG7+Q88, Jelapat II, Kec. Mekarsari, Kabupaten Barito Kuala, Kalimantan Selatan 70568","Jelapat II, Kec. Mekarsari, Kabupaten Barito Kuala",KALIMANTAN TENGAH,70568.0,Indonesia,82171552837.0,,,-32.730.882,1.145.133.392,https://maps.google.com/?cid=0x0:0xec06d0a58c26bda1,
toko bangunan,Toko Bahan Bangunan,UD KARYA BARU kosen pintu jendela,"7RJM+5PJ, Jl. Veteran, Buntok Kota, Kec. Dusun Sel., Kabupaten Barito Selatan, Kalimantan Tengah 73751","Jl. Veteran, Buntok Kota, Kec. Dusun Sel., Kabupaten Barito Selatan",KALIMANTAN TENGAH,73751.0,Indonesia,85249500330.0,,,-1.719.533,1.148.342.675,https://maps.google.com/?cid=0x0:0x798a6db2ceb748ea,
toko bangunan,toko bangunan,Toko bangunan,"XV6R+32C, Bangkuang, Kec. Karau Kuala, Kabupaten Barito Selatan, Kalimantan Tengah 73617","Bangkuang, Kec. Karau Kuala, Kabupaten Barito Selatan",KALIMANTAN TENGAH,73617.0,Indonesia,,,,-20.393.835,1.148.903.934,https://maps.google.com/?cid=0x0:0xa6bf7febca2e0729,
toko bangunan,Toko Alat-Alat,TB.AINAYA,"WV4G+3C, Tlk. Timbau, Kec. Dusun Hilir, Kabupaten Barito Selatan, Kalimantan Tengah 73617","Tlk. Timbau, Kec. Dusun Hilir, Kabupaten Barito Selatan",KALIMANTAN TENGAH,73617.0,Indonesia,,,,-20.948.219,1.148.761.422,https://maps.google.com/?cid=0x0:0xeeaf42a426f5c965,
hardware store,hardware store,Kalimantan Tengah 73762,"Kec. Dusun Hilir, Kabupaten Barito Selatan, Kalimantan Tengah","Kabupaten Barito Selatan, Kalimantan Tengah",KALIMANTAN TENGAH,,Indonesia,,,,-22.001.952,1.146.667.939,https://maps.google.com/?cid=0x0:0xc04a708e6544057b,
hardware store,Toko bahan makanan,UD. RAHMANI,"RT.003/RW.001, Kalanis, Kec. Dusun Hilir, Kabupaten Barito Selatan, Kalimantan Tengah 73762","Kalanis, Kec. Dusun Hilir, Kabupaten Barito Selatan",KALIMANTAN TENGAH,73762.0,Indonesia,82252623785.0,,,-22.636.639,1.148.990.197,https://maps.google.com/?cid=0x0:0x2fe60a62c3a6b3b8,
hardware store,Toko Bahan Bangunan,Toko Bahan Bangunan CHANDRA DEWI,"Unnamed Road, Mengkatip, Kec. Dusun Hilir, Kabupaten Barito Selatan, Kalimantan Tengah 73762","Mengkatip, Kec. Dusun Hilir, Kabupaten Barito Selatan",KALIMANTAN TENGAH,73762.0,Indonesia,,,,-22.292.054,1.148.554.474,https://maps.google.com/?cid=0x0:0xe8e615f94114b0e0,
hardware store,hardware store,Kalimantan Tengah 73711,"Kec. Dusun Sel., Kabupaten Barito Selatan, Kalimantan Tengah","Kabupaten Barito Selatan, Kalimantan Tengah",KALIMANTAN TENGAH,,Indonesia,,,,-17.964.233,1.147.736.556,https://maps.google.com/?cid=0x0:0x4a719b8c335066ed,
hardware store,Toko Bahan Bangunan,"TOKO BANGUNAN AULIA""""","Jl. Pelita Raya No.10, Buntok Kota, Kec. Dusun Sel., Kabupaten Barito Selatan, Kalimantan Tengah 73712","Buntok Kota, Kec. Dusun Sel., Kabupaten Barito Selatan",KALIMANTAN TENGAH,73712.0,Indonesia,82122228701.0,,,-17.253.923,1.148.334.451,https://maps.google.com/?cid=0x0:0xa80b317a551eb7ef,
hardware store,Toko Bahan Bangunan,Toko Anugerah Jaya,"Jl. Pelita Raya, RT.015/RW.004, Buntok Kota, Kec. Dusun Sel., Kabupaten Barito Selatan, Kalimantan Tengah 73711","RT.015/RW.004, Buntok Kota, Kec. Dusun Sel., Kabupaten Barito Selatan",KALIMANTAN TENGAH,73711.0,Indonesia,87737401068.0,,,-17.207.836,1.148.418.198,https://maps.google.com/?cid=0x0:0xf2278e46c02f53f4,
hardware store,hardware store,Karya Baru Ponsel Buntok,"7RHM+8R6, Jl. Panglima Batur, Buntok Kota, Kec. Dusun Sel., Kabupaten Barito Selatan, Kalimantan Tengah 73751","Jl. Panglima Batur, Buntok Kota, Kec. Dusun Sel., Kabupaten Barito Selatan",KALIMANTAN TENGAH,73751.0,Indonesia,85248777222.0,,,-17.217.059,1.148.345.053,https://maps.google.com/?cid=0x0:0xdddb4f53bd6251d7,
hardware store,Toko Bahan Bangunan,Toko H.Adul,"7RJX+Q26, Jl. Pelita Raya, Buntok Kota, Kec. Dusun Sel., Kabupaten Barito Selatan, Kalimantan Tengah 73713","Jl. Pelita Raya, Buntok Kota, Kec. Dusun Sel., Kabupaten Barito Selatan",KALIMANTAN TENGAH,73713.0,Indonesia,,,,-1.718.098,1.148.475.184,https://maps.google.com/?cid=0x0:0x660f4156b73d70a6,
hardware store,Toko Rokok Elektrik,9VAPOR BUNTOK,"7RMQ+G59, Buntok Kota, Kec. Dusun Sel., Kabupaten Barito Selatan, Kalimantan Tengah 73751","Buntok Kota, Kec. Dusun Sel., Kabupaten Barito Selatan",KALIMANTAN TENGAH,73751.0,Indonesia,82253313996.0,,,-17.162.114,1.148.379.891,https://maps.google.com/?cid=0x0:0x17e0ebd7379a0e0f,
hardware store,Toko Komputer,Toko Antariksa,"7RFP+HVC, Jl. Kh. Dewantara, Hilir Sper, Kec. Dusun Sel., Kabupaten Barito Selatan, Kalimantan Tengah 73751","Jl. Kh. Dewantara, Hilir Sper, Kec. Dusun Sel., Kabupaten Barito Selatan",KALIMANTAN TENGAH,73751.0,Indonesia,82174999886.0,,,-17.260.696,1.148.371.546,https://maps.google.com/?cid=0x0:0x39277dddcaf818bc,
hardware store,Toko Sepatu,AR Store,"Plaza Beringin. Blok E. No 5. Lt 2, Buntok Kota, Kec. Dusun Sel., Kabupaten Barito Selatan, Kalimantan Tengah 73711","Buntok Kota, Kec. Dusun Sel., Kabupaten Barito Selatan",KALIMANTAN TENGAH,73711.0,Indonesia,82255778850.0,,,-17.209.536,1.148.328.225,https://maps.google.com/?cid=0x0:0x4498b2a05c193f02,
hardware store,Toko Bahan Bangunan,"Toko Bangunan Lindo Bulan""""","8W39+6G5, Jl. Soekarno - Hatta, Sababilah, Kec. Dusun Sel., Kabupaten Barito Selatan, Kalimantan Tengah 73713","Jl. Soekarno - Hatta, Sababilah, Kec. Dusun Sel., Kabupaten Barito Selatan",KALIMANTAN TENGAH,73713.0,Indonesia,8161999912.0,,,-16.969.931,1.149.188.639,https://maps.google.com/?cid=0x0:0x94de1e65c7ae65d9,
hardware store,hardware store,Kec. Dusun Sel.,"Kabupaten Barito Selatan, Kalimantan Tengah","Kabupaten Barito Selatan, Kalimantan Tengah",KALIMANTAN TENGAH,,Indonesia,,,,-16.976.543,1.148.567.482,https://maps.google.com/?cid=0x0:0x4761c6f9634fa582,
hardware store,Toko Bahan Bangunan,Toko Bangunan Setia Maju,"7RHP+HJJ, Jl. Pembangunan, Buntok Kota, Kec. Dusun Sel., Kabupaten Barito Selatan, Kalimantan Tengah 73711","Jl. Pembangunan, Buntok Kota, Kec. Dusun Sel., Kabupaten Barito Selatan",KALIMANTAN TENGAH,73711.0,Indonesia,81396801512.0,,,-17.210.253,1.148.365.047,https://maps.google.com/?cid=0x0:0x35daaac7020b5bfa,
hardware store,Toko Komputer,CV ATHENA KOMPUTER TEKNOLOGI,"Jl. Pembangunan, Buntok Kota, Kec. Dusun Sel., Kabupaten Barito Selatan, Kalimantan Tengah 73711","Buntok Kota, Kec. Dusun Sel., Kabupaten Barito Selatan",KALIMANTAN TENGAH,73711.0,Indonesia,82252402325.0,,,-17.214.529,1.148.385.346,https://maps.google.com/?cid=0x0:0x1c9f28fa03414f7c,
hardware store,Toko,"Toko Karya Baru Komputer, Elektronik","AdvertisibgJl, Jl. Panglima Batur No.22, Buntok Kota, Kota, Kabupaten Barito Selatan, Kalimantan Tengah 73712","Jl. Panglima Batur No.22, Buntok Kota, Kota, Kabupaten Barito Selatan",KALIMANTAN TENGAH,73712.0,Indonesia,85789077202.0,,,-1.722.504,11.483.324,https://maps.google.com/?cid=0x0:0x44e5fa373c153d5c,
hardware store,Toko Bahan Bangunan,Toko H.Adul,"7RJX+Q26, Jl. Pelita Raya, Buntok Kota, Kec. Dusun Sel., Kabupaten Barito Selatan, Kalimantan Tengah 73713","Jl. Pelita Raya, Buntok Kota, Kec. Dusun Sel., Kabupaten Barito Selatan",KALIMANTAN TENGAH,73713.0,Indonesia,,,,-1.718.098,1.148.475.184,https://maps.google.com/?cid=0x0:0x660f4156b73d70a6,
hardware store,hardware store,Kalimantan Tengah 73712,"Kec. Dusun Sel., Kabupaten Barito Selatan, Kalimantan Tengah","Kabupaten Barito Selatan, Kalimantan Tengah",KALIMANTAN TENGAH,,Indonesia,,,,-18.255.326,1.147.588.155,https://maps.google.com/?cid=0x0:0xbc3cf9c65f77161b,
hardware store,Toko Rokok Elektrik,9VAPOR BUNTOK,"7RMQ+G59, Buntok Kota, Kec. Dusun Sel., Kabupaten Barito Selatan, Kalimantan Tengah 73751","Buntok Kota, Kec. Dusun Sel., Kabupaten Barito Selatan",KALIMANTAN TENGAH,73751.0,Indonesia,82253313996.0,,,-17.162.114,1.148.379.891,https://maps.google.com/?cid=0x0:0x17e0ebd7379a0e0f,
hardware store,Toko Komputer,Toko Antariksa,"7RFP+HVC, Jl. Kh. Dewantara, Hilir Sper, Kec. Dusun Sel., Kabupaten Barito Selatan, Kalimantan Tengah 73751","Jl. Kh. Dewantara, Hilir Sper, Kec. Dusun Sel., Kabupaten Barito Selatan",KALIMANTAN TENGAH,73751.0,Indonesia,82174999886.0,,,-17.260.696,1.148.371.546,https://maps.google.com/?cid=0x0:0x39277dddcaf818bc,
hardware store,hardware store,Toko bangunan berkat kawan,"Jl. Pelita Raya No.2, Hilir Sper, Kec. Dusun Sel., Kabupaten Barito Selatan, Kalimantan Tengah 73751","Hilir Sper, Kec. Dusun Sel., Kabupaten Barito Selatan",KALIMANTAN TENGAH,73751.0,Indonesia,,,,-17.202.908,1.148.426.737,https://maps.google.com/?cid=0x0:0xc539447debb22b6c,
hardware store,hardware store,Kec. Dusun Sel.,"Kabupaten Barito Selatan, Kalimantan Tengah","Kabupaten Barito Selatan, Kalimantan Tengah",KALIMANTAN TENGAH,,Indonesia,,,,-16.976.543,1.148.567.482,https://maps.google.com/?cid=0x0:0x4761c6f9634fa582,
hardware store,Toko Bahan Bangunan,Toko Anugerah Jaya,"Jl. Pelita Raya, RT.015/RW.004, Buntok Kota, Kec. Dusun Sel., Kabupaten Barito Selatan, Kalimantan Tengah 73711","RT.015/RW.004, Buntok Kota, Kec. Dusun Sel., Kabupaten Barito Selatan",KALIMANTAN TENGAH,73711.0,Indonesia,87737401068.0,,,-17.207.836,1.148.418.198,https://maps.google.com/?cid=0x0:0xf2278e46c02f53f4,
hardware store,Toko Bahan Bangunan,Toko Bangunan Setia Maju,"7RHP+HJJ, Jl. Pembangunan, Buntok Kota, Kec. Dusun Sel., Kabupaten Barito Selatan, Kalimantan Tengah 73711","Jl. Pembangunan, Buntok Kota, Kec. Dusun Sel., Kabupaten Barito Selatan",KALIMANTAN TENGAH,73711.0,Indonesia,81396801512.0,,,-17.210.253,1.148.365.047,https://maps.google.com/?cid=0x0:0x35daaac7020b5bfa,
hardware store,Toko Bahan Bangunan,"Toko Bangunan Lindo Bulan""""","8W39+6G5, Jl. Soekarno - Hatta, Sababilah, Kec. Dusun Sel., Kabupaten Barito Selatan, Kalimantan Tengah 73713","Jl. Soekarno - Hatta, Sababilah, Kec. Dusun Sel., Kabupaten Barito Selatan",KALIMANTAN TENGAH,73713.0,Indonesia,8161999912.0,,,-16.969.931,1.149.188.639,https://maps.google.com/?cid=0x0:0x94de1e65c7ae65d9,
hardware store,Toko Komputer,CV ATHENA KOMPUTER TEKNOLOGI,"Jl. Pembangunan, Buntok Kota, Kec. Dusun Sel., Kabupaten Barito Selatan, Kalimantan Tengah 73711","Buntok Kota, Kec. Dusun Sel., Kabupaten Barito Selatan",KALIMANTAN TENGAH,73711.0,Indonesia,82252402325.0,,,-17.214.529,1.148.385.346,https://maps.google.com/?cid=0x0:0x1c9f28fa03414f7c,
hardware store,hardware store,Kalimantan Tengah 73713,"Kabupaten Barito Selatan, Kalimantan Tengah","Kabupaten Barito Selatan, Kalimantan Tengah",KALIMANTAN TENGAH,,Indonesia,,,,-17.531.862,1.146.905.436,https://maps.google.com/?cid=0x0:0x1c28f022a25af1a5,
hardware store,Toko Bahan Bangunan,Toko Anugerah Jaya,"Jl. Pelita Raya, RT.015/RW.004, Buntok Kota, Kec. Dusun Sel., Kabupaten Barito Selatan, Kalimantan Tengah 73711","RT.015/RW.004, Buntok Kota, Kec. Dusun Sel., Kabupaten Barito Selatan",KALIMANTAN TENGAH,73711.0,Indonesia,87737401068.0,,,-17.207.836,1.148.418.198,https://maps.google.com/?cid=0x0:0xf2278e46c02f53f4,
hardware store,hardware store,Karya Baru Ponsel Buntok,"7RHM+8R6, Jl. Panglima Batur, Buntok Kota, Kec. Dusun Sel., Kabupaten Barito Selatan, Kalimantan Tengah 73751","Jl. Panglima Batur, Buntok Kota, Kec. Dusun Sel., Kabupaten Barito Selatan",KALIMANTAN TENGAH,73751.0,Indonesia,85248777222.0,,,-17.217.059,1.148.345.053,https://maps.google.com/?cid=0x0:0xdddb4f53bd6251d7,
hardware store,Toko,"Toko Karya Baru Komputer, Elektronik","AdvertisibgJl, Jl. Panglima Batur No.22, Buntok Kota, Kota, Kabupaten Barito Selatan, Kalimantan Tengah 73712","Jl. Panglima Batur No.22, Buntok Kota, Kota, Kabupaten Barito Selatan",KALIMANTAN TENGAH,73712.0,Indonesia,85789077202.0,,,-1.722.504,11.483.324,https://maps.google.com/?cid=0x0:0x44e5fa373c153d5c,
hardware store,Toko Rokok Elektrik,9VAPOR BUNTOK,"7RMQ+G59, Buntok Kota, Kec. Dusun Sel., Kabupaten Barito Selatan, Kalimantan Tengah 73751","Buntok Kota, Kec. Dusun Sel., Kabupaten Barito Selatan",KALIMANTAN TENGAH,73751.0,Indonesia,82253313996.0,,,-17.162.114,1.148.379.891,https://maps.google.com/?cid=0x0:0x17e0ebd7379a0e0f,
hardware store,Toko Bahan Bangunan,Toko Bangunan Setia Maju,"7RHP+HJJ, Jl. Pembangunan, Buntok Kota, Kec. Dusun Sel., Kabupaten Barito Selatan, Kalimantan Tengah 73711","Jl. Pembangunan, Buntok Kota, Kec. Dusun Sel., Kabupaten Barito Selatan",KALIMANTAN TENGAH,73711.0,Indonesia,81396801512.0,,,-17.210.253,1.148.365.047,https://maps.google.com/?cid=0x0:0x35daaac7020b5bfa,
hardware store,Toko Komputer,Toko Antariksa,"7RFP+HVC, Jl. Kh. Dewantara, Hilir Sper, Kec. Dusun Sel., Kabupaten Barito Selatan, Kalimantan Tengah 73751","Jl. Kh. Dewantara, Hilir Sper, Kec. Dusun Sel., Kabupaten Barito Selatan",KALIMANTAN TENGAH,73751.0,Indonesia,82174999886.0,,,-17.260.696,1.148.371.546,https://maps.google.com/?cid=0x0:0x39277dddcaf818bc,
hardware store,Toko Bahan Bangunan,"Toko Bangunan Lindo Bulan""""","8W39+6G5, Jl. Soekarno - Hatta, Sababilah, Kec. Dusun Sel., Kabupaten Barito Selatan, Kalimantan Tengah 73713","Jl. Soekarno - Hatta, Sababilah, Kec. Dusun Sel., Kabupaten Barito Selatan",KALIMANTAN TENGAH,73713.0,Indonesia,8161999912.0,,,-16.969.931,1.149.188.639,https://maps.google.com/?cid=0x0:0x94de1e65c7ae65d9,
hardware store,Toko Elektronik,toko jam anugrah,"7RHM+R27, Buntok Kota, Kec. Dusun Sel., Kabupaten Barito Selatan, Kalimantan Tengah 73751","Buntok Kota, Kec. Dusun Sel., Kabupaten Barito Selatan",KALIMANTAN TENGAH,73751.0,Indonesia,,,,-17.204.657,1.148.325.538,https://maps.google.com/?cid=0x0:0x4fb162a0645cf42c,
hardware store,Toko Komputer,CV ATHENA KOMPUTER TEKNOLOGI,"Jl. Pembangunan, Buntok Kota, Kec. Dusun Sel., Kabupaten Barito Selatan, Kalimantan Tengah 73711","Buntok Kota, Kec. Dusun Sel., Kabupaten Barito Selatan",KALIMANTAN TENGAH,73711.0,Indonesia,82252402325.0,,,-17.214.529,1.148.385.346,https://maps.google.com/?cid=0x0:0x1c9f28fa03414f7c,
hardware store,hardware store,Kec. Dusun Sel.,"Kabupaten Barito Selatan, Kalimantan Tengah","Kabupaten Barito Selatan, Kalimantan Tengah",KALIMANTAN TENGAH,,Indonesia,,,,-16.976.543,1.148.567.482,https://maps.google.com/?cid=0x0:0x4761c6f9634fa582,
hardware store,hardware store,Kalimantan Tengah 73751,"Kec. Dusun Sel., Kabupaten Barito Selatan, Kalimantan Tengah","Kabupaten Barito Selatan, Kalimantan Tengah",KALIMANTAN TENGAH,,Indonesia,,,,-16.899.287,1.147.736.556,https://maps.google.com/?cid=0x0:0xfd0ed3d130200b49,
hardware store,Toko Bahan Bangunan,Toko Anugerah Jaya,"Jl. Pelita Raya, RT.015/RW.004, Buntok Kota, Kec. Dusun Sel., Kabupaten Barito Selatan, Kalimantan Tengah 73711","RT.015/RW.004, Buntok Kota, Kec. Dusun Sel., Kabupaten Barito Selatan",KALIMANTAN TENGAH,73711.0,Indonesia,87737401068.0,,,-17.207.836,1.148.418.198,https://maps.google.com/?cid=0x0:0xf2278e46c02f53f4,
hardware store,Toko Bahan Bangunan,Toko H.Adul,"7RJX+Q26, Jl. Pelita Raya, Buntok Kota, Kec. Dusun Sel., Kabupaten Barito Selatan, Kalimantan Tengah 73713","Jl. Pelita Raya, Buntok Kota, Kec. Dusun Sel., Kabupaten Barito Selatan",KALIMANTAN TENGAH,73713.0,Indonesia,,,,-1.718.098,1.148.475.184,https://maps.google.com/?cid=0x0:0x660f4156b73d70a6,
hardware store,Toko,"Toko Karya Baru Komputer, Elektronik","AdvertisibgJl, Jl. Panglima Batur No.22, Buntok Kota, Kota, Kabupaten Barito Selatan, Kalimantan Tengah 73712","Jl. Panglima Batur No.22, Buntok Kota, Kota, Kabupaten Barito Selatan",KALIMANTAN TENGAH,73712.0,Indonesia,85789077202.0,,,-1.722.504,11.483.324,https://maps.google.com/?cid=0x0:0x44e5fa373c153d5c,
hardware store,Toko Komputer,Toko Antariksa,"7RFP+HVC, Jl. Kh. Dewantara, Hilir Sper, Kec. Dusun Sel., Kabupaten Barito Selatan, Kalimantan Tengah 73751","Jl. Kh. Dewantara, Hilir Sper, Kec. Dusun Sel., Kabupaten Barito Selatan",KALIMANTAN TENGAH,73751.0,Indonesia,82174999886.0,,,-17.260.696,1.148.371.546,https://maps.google.com/?cid=0x0:0x39277dddcaf818bc,
hardware store,hardware store,Karya Baru Ponsel Buntok,"7RHM+8R6, Jl. Panglima Batur, Buntok Kota, Kec. Dusun Sel., Kabupaten Barito Selatan, Kalimantan Tengah 73751","Jl. Panglima Batur, Buntok Kota, Kec. Dusun Sel., Kabupaten Barito Selatan",KALIMANTAN TENGAH,73751.0,Indonesia,85248777222.0,,,-17.217.059,1.148.345.053,https://maps.google.com/?cid=0x0:0xdddb4f53bd6251d7,
hardware store,Toko Bahan Bangunan,Toko Bangunan Setia Maju,"7RHP+HJJ, Jl. Pembangunan, Buntok Kota, Kec. Dusun Sel., Kabupaten Barito Selatan, Kalimantan Tengah 73711","Jl. Pembangunan, Buntok Kota, Kec. Dusun Sel., Kabupaten Barito Selatan",KALIMANTAN TENGAH,73711.0,Indonesia,81396801512.0,,,-17.210.253,1.148.365.047,https://maps.google.com/?cid=0x0:0x35daaac7020b5bfa,
hardware store,Toko Elektronik,toko jam anugrah,"7RHM+R27, Buntok Kota, Kec. Dusun Sel., Kabupaten Barito Selatan, Kalimantan Tengah 73751","Buntok Kota, Kec. Dusun Sel., Kabupaten Barito Selatan",KALIMANTAN TENGAH,73751.0,Indonesia,,,,-17.204.657,1.148.325.538,https://maps.google.com/?cid=0x0:0x4fb162a0645cf42c,
hardware store,Toko Komputer,CV ATHENA KOMPUTER TEKNOLOGI,"Jl. Pembangunan, Buntok Kota, Kec. Dusun Sel., Kabupaten Barito Selatan, Kalimantan Tengah 73711","Buntok Kota, Kec. Dusun Sel., Kabupaten Barito Selatan",KALIMANTAN TENGAH,73711.0,Indonesia,82252402325.0,,,-17.214.529,1.148.385.346,https://maps.google.com/?cid=0x0:0x1c9f28fa03414f7c,
hardware store,Toko Alat Tulis Kantor,Fotocopy Borneo Buntok,"Jl. Sutomo No.36, RT.23, Buntok Kota, Kec. Dusun Sel., Kabupaten Barito Selatan, Kalimantan Tengah 73751","RT.23, Buntok Kota, Kec. Dusun Sel., Kabupaten Barito Selatan",KALIMANTAN TENGAH,73751.0,Indonesia,8125078368.0,,,-17.239.545,1.148.372.683,https://maps.google.com/?cid=0x0:0x683a0864715899fb,
hardware store,Toko Sepatu,AR Store,"Plaza Beringin. Blok E. No 5. Lt 2, Buntok Kota, Kec. Dusun Sel., Kabupaten Barito Selatan, Kalimantan Tengah 73711","Buntok Kota, Kec. Dusun Sel., Kabupaten Barito Selatan",KALIMANTAN TENGAH,73711.0,Indonesia,82255778850.0,,,-17.209.536,1.148.328.225,https://maps.google.com/?cid=0x0:0x4498b2a05c193f02,
hardware store,Toko Alat Tulis Kantor,FOTOCOPY PASAR BERINGIN,"7RHJ+QH, Buntok Kota, Kec. Dusun Sel., Kabupaten Barito Selatan, Kalimantan Tengah 73711","Buntok Kota, Kec. Dusun Sel., Kabupaten Barito Selatan",KALIMANTAN TENGAH,73711.0,Indonesia,,,,-1.720.651,1.148.314.046,https://maps.google.com/?cid=0x0:0xf6de47770cd9ca02,
hardware store,Bank,Kanca BRI Buntok,"Jl. Panglima Batur No.10, Buntok Kota, Kec. Dusun Sel., Kabupaten Barito Selatan, Kalimantan Tengah 73751","Buntok Kota, Kec. Dusun Sel., Kabupaten Barito Selatan",KALIMANTAN TENGAH,73751.0,Indonesia,,,,-17.214.898,1.148.342.091,https://maps.google.com/?cid=0x0:0x42d225848e9efb93,
hardware store,Toko Alat Tulis Kantor,Fotocopy Dia Kencana,"Buntok Kota, Kec. Dusun Sel., Kabupaten Barito Selatan, Kalimantan Tengah 73751","Kec. Dusun Sel., Kabupaten Barito Selatan",KALIMANTAN TENGAH,73751.0,Indonesia,,,,-17.192.022,1.148.326.058,https://maps.google.com/?cid=0x0:0x5814dcda3046e00a,
hardware store,Toko Elektronik,SHAFIRA Elektronik,"Depan Water Front City / Jembatan Pangulu Iban, Jl. Panglima Batur No.77, Melayu, Kec. Teweh Tengah, Kabupaten Barito Utara, Kalimantan Tengah 73814","Jl. Panglima Batur No.77, Melayu, Kec. Teweh Tengah, Kabupaten Barito Utara",KALIMANTAN TENGAH,73814.0,Indonesia,85789077500.0,,,-0.960497,1.149.045.169,https://maps.google.com/?cid=0x0:0xdc99ec6342bfbe44,
hardware store,Toko Elektronik,D2 elektronik,"Jl. Simpang Pramuka I No.63, Lanjas, Kec. Teweh Tengah, Kabupaten Barito Utara, Kalimantan Tengah 73814","Lanjas, Kec. Teweh Tengah, Kabupaten Barito Utara",KALIMANTAN TENGAH,73814.0,Indonesia,82174999886.0,,,-0.9503544,1.148.966.438,https://maps.google.com/?cid=0x0:0xe032736197f59e87,
hardware store,Toko Bahan Bangunan,True Value Hardware Philippines,"Unit# R1 - L3 - 001, North Ave, Diliman, Quezon City, Metro Manila, Filipina","Quezon City, Metro Manila, Filipina",KALIMANTAN TENGAH,,Indonesia,63283517703.0,,,146.511.906,1.210.353.593,https://maps.google.com/?cid=0x0:0xdfb28d809ceb239b,
hardware store,Kios,Kios Amira dan Studio Mini Amira,"Jl. Pembangunan No.RT. 01, Paring Lahung, Muara Teweh, Kabupaten Barito Utara, Kalimantan Tengah 73861","Paring Lahung, Muara Teweh, Kabupaten Barito Utara",KALIMANTAN TENGAH,73861.0,Indonesia,81251792923.0,,,-12.512.521,1.147.980.351,https://maps.google.com/?cid=0x0:0x6ab82699dffb9252,
hardware store,Pusat Perbelanjaan,Ayala Malls Vertis North,"Phase 1  2, North Ave, Brgy. Bagong Pag-asa, Quezon City, Metro Manila, Filipina","Quezon City, Metro Manila, Filipina",KALIMANTAN TENGAH,,Indonesia,63277185000.0,,,146.516.868,1.210.356.152,https://maps.google.com/?cid=0x0:0x10eceaf2424fe98e,
hardware store,Toko Fotokopi,"FS-EUONIA Kios Pulsa,Print, Fotocopy,COFFEE SHOP","Paring Lahung, Muara Teweh, Kabupaten Barito Utara, Kalimantan Tengah 73861","Muara Teweh, Kabupaten Barito Utara",KALIMANTAN TENGAH,73861.0,Indonesia,85387509317.0,,,-12.424.727,1.148.034.559,https://maps.google.com/?cid=0x0:0xb767cd8b241500db,
hardware store,Toko Bahan Bangunan,Molding Yeyen,"F547+HWW, Patas I, Kec. Gn. Bintang Awai, Kabupaten Barito Selatan, Kalimantan Tengah 73753","Patas I, Kec. Gn. Bintang Awai, Kabupaten Barito Selatan",KALIMANTAN TENGAH,73753.0,Indonesia,,,,-1.543.514,115.164.832,https://maps.google.com/?cid=0x0:0xf76a1ab58adbb811,
hardware store,Toko Bahan Bangunan,Beng Ee Enterprise  Hardware Engineering,"173-175, Jln Datuk Kumbar, Taman Datuk Kumbar, 05300 Alor Setar, Kedah, Malaysia",Alor Setar,KALIMANTAN TENGAH,5300.0,Indonesia,6047348996.0,,,6.120.028,1.003.872.604,https://maps.google.com/?cid=0x0:0x80a717087d41fd21,
hardware store,Toko Swalayan,Toko.Bangunan  Molding,"F5V6+Q97, Jl. Negara Ampah-Muarateweh, Patas II, Kec. Gn. Bintang Awai, Kabupaten Barito Selatan, Kalimantan Tengah 73753","Jl. Negara Ampah-Muarateweh, Patas II, Kec. Gn. Bintang Awai, Kabupaten Barito Selatan",KALIMANTAN TENGAH,73753.0,Indonesia,81367805201.0,,,-15.055.901,115.160.911,https://maps.google.com/?cid=0x0:0xdf2f3df691cf2c7,
hardware store,hardware store,Kalimantan Tengah 73763,"Kec. Jenamas, Kabupaten Barito Selatan, Kalimantan Tengah","Kabupaten Barito Selatan, Kalimantan Tengah",KALIMANTAN TENGAH,,Indonesia,,,,-234.059,1.148.567.482,https://maps.google.com/?cid=0x0:0x37fa6b040b7959f6,
hardware store,hardware store,Toko Peralatan dan Sembako,"Rantau Bahuang, Kec. Jenamas, Kabupaten Barito Selatan, Kalimantan Tengah 73763","Kec. Jenamas, Kabupaten Barito Selatan",KALIMANTAN TENGAH,73763.0,Indonesia,82253740352.0,,,-24.661.297,1.148.722.998,https://maps.google.com/?cid=0x0:0x8a3f411fb1d34a37,
hardware store,Toko bahan makanan,UD. RAHMANI,"RT.003/RW.001, Kalanis, Kec. Dusun Hilir, Kabupaten Barito Selatan, Kalimantan Tengah 73762","Kalanis, Kec. Dusun Hilir, Kabupaten Barito Selatan",KALIMANTAN TENGAH,73762.0,Indonesia,82252623785.0,,,-22.636.639,1.148.990.197,https://maps.google.com/?cid=0x0:0x2fe60a62c3a6b3b8,
hardware store,Toko Alat-Alat,TB.AINAYA,"WV4G+3C, Tlk. Timbau, Kec. Dusun Hilir, Kabupaten Barito Selatan, Kalimantan Tengah 73617","Tlk. Timbau, Kec. Dusun Hilir, Kabupaten Barito Selatan",KALIMANTAN TENGAH,73617.0,Indonesia,,,,-20.948.219,1.148.761.422,https://maps.google.com/?cid=0x0:0xeeaf42a426f5c965,
hardware store,Toko Bahan Bangunan,TB.Ami Jaya,"Jl. Nansarunai - Tamiang Layang, Sumur, Kec. Dusun Tim., Kabupaten Barito Timur, Kalimantan Tengah 73671","Sumur, Kec. Dusun Tim., Kabupaten Barito Timur",KALIMANTAN TENGAH,73671.0,Indonesia,85387939888.0,,,-20.870.694,1.151.442.128,https://maps.google.com/?cid=0x0:0xfc01ce658be0822a,
building materials,Toko Swalayan,Toko.Bangunan  Molding,"F5V6+Q97, Jl. Negara Ampah-Muarateweh, Patas II, Kec. Gn. Bintang Awai, Kabupaten Barito Selatan, Kalimantan Tengah 73753","Jl. Negara Ampah-Muarateweh, Patas II, Kec. Gn. Bintang Awai, Kabupaten Barito Selatan",KALIMANTAN TENGAH,73753.0,Indonesia,82149140912.0,,,-1.5055901,115.160911,https://maps.google.com/?cid=0x0:0xdf2f3df691cf2c7,
building materials,building materials,Kalimantan Tengah 73762,"Kec. Dusun Hilir, Kabupaten Barito Selatan, Kalimantan Tengah","Kabupaten Barito Selatan, Kalimantan Tengah",KALIMANTAN TENGAH,,Indonesia,,,,-2.2001952,114.6667939,https://maps.google.com/?cid=0x0:0xc04a708e6544057b,
building materials,Toko Alat-Alat,TB.AINAYA,"WV4G+3C, Tlk. Timbau, Kec. Dusun Hilir, Kabupaten Barito Selatan, Kalimantan Tengah 73617","Tlk. Timbau, Kec. Dusun Hilir, Kabupaten Barito Selatan",KALIMANTAN TENGAH,73617.0,Indonesia,85249924737.0,,,-2.0948219,114.8761422,https://maps.google.com/?cid=0x0:0xeeaf42a426f5c965,
building materials,Toko bahan makanan,UD. RAHMANI,"RT.003/RW.001, Kalanis, Kec. Dusun Hilir, Kabupaten Barito Selatan, Kalimantan Tengah 73762","Kalanis, Kec. Dusun Hilir, Kabupaten Barito Selatan",KALIMANTAN TENGAH,73762.0,Indonesia,82252623785.0,,,-2.2636639,114.8990197,https://maps.google.com/?cid=0x0:0x2fe60a62c3a6b3b8,
building materials,Toko Bahan Bangunan,BUDHI KARYA,"8V5G+5H, Pamait, Kec. Dusun Sel., Kabupaten Barito Selatan, Kalimantan Tengah 73713","Pamait, Kec. Dusun Sel., Kabupaten Barito Selatan",KALIMANTAN TENGAH,73713.0,Indonesia,81349596262.0,,,-1.6920378,114.8764073,https://maps.google.com/?cid=0x0:0xd9acbdd22a0a1c3b,
building materials,Toko Swalayan,Toko.Bangunan  Molding,"F5V6+Q97, Jl. Negara Ampah-Muarateweh, Patas II, Kec. Gn. Bintang Awai, Kabupaten Barito Selatan, Kalimantan Tengah 73753","Jl. Negara Ampah-Muarateweh, Patas II, Kec. Gn. Bintang Awai, Kabupaten Barito Selatan",KALIMANTAN TENGAH,73753.0,Indonesia,82149140912.0,,,-1.5055901,115.160911,https://maps.google.com/?cid=0x0:0xdf2f3df691cf2c7,
building materials,Toko Bahan Bangunan,3 putera bangunan,"7RCP+Q8V, Jl. Kartini, Hilir Sper, Kec. Dusun Sel., Kabupaten Barito Selatan, Kalimantan Tengah 73751","Jl. Kartini, Hilir Sper, Kec. Dusun Sel., Kabupaten Barito Selatan",KALIMANTAN TENGAH,73751.0,Indonesia,82213899694.0,,,-1.7280023,114.8358011,https://maps.google.com/?cid=0x0:0x7e0aa5869aabd474,
building materials,Toko Bahan Bangunan,"Toko Bangunan Lindo Bulan""""","8W39+6G5, Jl. Soekarno - Hatta, Sababilah, Kec. Dusun Sel., Kabupaten Barito Selatan, Kalimantan Tengah 73713","Jl. Soekarno - Hatta, Sababilah, Kec. Dusun Sel., Kabupaten Barito Selatan",KALIMANTAN TENGAH,73713.0,Indonesia,,,,-1.6969931,114.9188639,https://maps.google.com/?cid=0x0:0x94de1e65c7ae65d9,
building materials,Toko Bahan Bangunan,Galangan Pasir,"WWX3+J8, Bangkuang, Kec. Karau Kuala, Kabupaten Barito Selatan, Kalimantan Tengah","Kabupaten Barito Selatan, Kalimantan Tengah",KALIMANTAN TENGAH,,Indonesia,82214328297.0,,,-2.0514539,114.9041645,https://maps.google.com/?cid=0x0:0x4d383524230a5058,
building materials,building materials,Kalimantan Tengah 73711,"Kec. Dusun Sel., Kabupaten Barito Selatan, Kalimantan Tengah","Kabupaten Barito Selatan, Kalimantan Tengah",KALIMANTAN TENGAH,,Indonesia,,,,-1.7964233,114.7736556,https://maps.google.com/?cid=0x0:0x4a719b8c335066ed,
building materials,Toko Bahan Bangunan,BUDHI KARYA,"8V5G+5H, Pamait, Kec. Dusun Sel., Kabupaten Barito Selatan, Kalimantan Tengah 73713","Pamait, Kec. Dusun Sel., Kabupaten Barito Selatan",KALIMANTAN TENGAH,73713.0,Indonesia,81349596262.0,,,-1.6920378,114.8764073,https://maps.google.com/?cid=0x0:0xd9acbdd22a0a1c3b,
building materials,Toko Bahan Bangunan,"TOKO BANGUNAN AULIA""""","Jl. Pelita Raya No.10, Buntok Kota, Kec. Dusun Sel., Kabupaten Barito Selatan, Kalimantan Tengah 73712","Buntok Kota, Kec. Dusun Sel., Kabupaten Barito Selatan",KALIMANTAN TENGAH,73712.0,Indonesia,82358885014.0,,,-1.7253923,114.8334451,https://maps.google.com/?cid=0x0:0xa80b317a551eb7ef,
building materials,Toko Bahan Bangunan,3 putera bangunan,"7RCP+Q8V, Jl. Kartini, Hilir Sper, Kec. Dusun Sel., Kabupaten Barito Selatan, Kalimantan Tengah 73751","Jl. Kartini, Hilir Sper, Kec. Dusun Sel., Kabupaten Barito Selatan",KALIMANTAN TENGAH,73751.0,Indonesia,82213899694.0,,,-1.7280023,114.8358011,https://maps.google.com/?cid=0x0:0x7e0aa5869aabd474,
building materials,Toko Bahan Bangunan,Matiba Kalimantan. CV,"Jl. Pahlawan No.31, Buntok Kota, Kec. Dusun Sel., Kabupaten Barito Selatan, Kalimantan Tengah 73751","Buntok Kota, Kec. Dusun Sel., Kabupaten Barito Selatan",KALIMANTAN TENGAH,73751.0,Indonesia,,,,-1.7163004,114.8371024,https://maps.google.com/?cid=0x0:0x9b556207981fa3a5,
building materials,Toko Bahan Bangunan,Toko Anugerah Jaya,"Jl. Pelita Raya, RT.015/RW.004, Buntok Kota, Kec. Dusun Sel., Kabupaten Barito Selatan, Kalimantan Tengah 73711","RT.015/RW.004, Buntok Kota, Kec. Dusun Sel., Kabupaten Barito Selatan",KALIMANTAN TENGAH,73711.0,Indonesia,81349701628.0,,,-1.7207836,114.8418198,https://maps.google.com/?cid=0x0:0xf2278e46c02f53f4,
building materials,Toko Bahan Bangunan,Toko H.Adul,"7RJX+Q26, Jl. Pelita Raya, Buntok Kota, Kec. Dusun Sel., Kabupaten Barito Selatan, Kalimantan Tengah 73713","Jl. Pelita Raya, Buntok Kota, Kec. Dusun Sel., Kabupaten Barito Selatan",KALIMANTAN TENGAH,73713.0,Indonesia,,,,-1.718098,114.8475184,https://maps.google.com/?cid=0x0:0x660f4156b73d70a6,
building materials,Toko Bahan Bangunan,Toko bangunan Daffa,"Jl. Pakusualam No.1, Baru, Kec. Dusun Sel., Kabupaten Barito Selatan, Kalimantan Tengah 73751","Baru, Kec. Dusun Sel., Kabupaten Barito Selatan",KALIMANTAN TENGAH,73751.0,Indonesia,,,,-1.7802609,114.804838,https://maps.google.com/?cid=0x0:0x502cdc08d2cbe99,
building materials,Kantor Perusahaan,JUAL material Pasir sungai barito. SYIFA SAMUDRA,"7RXW+58Q, Jl. Padat Karya, Buntok Kota, Kec. Dusun Sel., Kabupaten Barito Selatan, Kalimantan Tengah 73751","Jl. Padat Karya, Buntok Kota, Kec. Dusun Sel., Kabupaten Barito Selatan",KALIMANTAN TENGAH,73751.0,Indonesia,81348691711.0,,,-1.7020486,114.8458658,https://maps.google.com/?cid=0x0:0x9ec2073ef258e4d7,
building materials,Toko Bahan Bangunan,Toko Surya Bangunan,"Jl. A. Gani Gandrung, Buntok Kota, Kec. Dusun Sel., Kabupaten Barito Selatan, Kalimantan Tengah 73111","Buntok Kota, Kec. Dusun Sel., Kabupaten Barito Selatan",KALIMANTAN TENGAH,73111.0,Indonesia,,,,-1.7139036,114.8448237,https://maps.google.com/?cid=0x0:0x40fe35cabf0454a5,
building materials,building materials,Kec. Dusun Sel.,"Kabupaten Barito Selatan, Kalimantan Tengah","Kabupaten Barito Selatan, Kalimantan Tengah",KALIMANTAN TENGAH,,Indonesia,,,,-1.6976543,114.8567482,https://maps.google.com/?cid=0x0:0x4761c6f9634fa582,
building materials,building materials,MR.DIY,"Jl. Pelita Raya No.RT13/04, Hilir Sper, Kec. Dusun Sel., Kabupaten Barito Selatan, Kalimantan Tengah 73711","Hilir Sper, Kec. Dusun Sel., Kabupaten Barito Selatan",KALIMANTAN TENGAH,73711.0,Indonesia,,,,-1.721998,114.840697,https://maps.google.com/?cid=0x0:0x5c958083e0795ca8,
building materials,Toko Swalayan,Toko.Bangunan  Molding,"F5V6+Q97, Jl. Negara Ampah-Muarateweh, Patas II, Kec. Gn. Bintang Awai, Kabupaten Barito Selatan, Kalimantan Tengah 73753","Jl. Negara Ampah-Muarateweh, Patas II, Kec. Gn. Bintang Awai, Kabupaten Barito Selatan",KALIMANTAN TENGAH,73753.0,Indonesia,82149140912.0,,,-1.5055901,115.160911,https://maps.google.com/?cid=0x0:0xdf2f3df691cf2c7,
building materials,building materials,Kalimantan Tengah 73712,"Kec. Dusun Sel., Kabupaten Barito Selatan, Kalimantan Tengah","Kabupaten Barito Selatan, Kalimantan Tengah",KALIMANTAN TENGAH,,Indonesia,,,,-1.8255326,114.7588155,https://maps.google.com/?cid=0x0:0xbc3cf9c65f77161b,
building materials,Toko Bahan Bangunan,"TOKO BANGUNAN AULIA""""","Jl. Pelita Raya No.10, Buntok Kota, Kec. Dusun Sel., Kabupaten Barito Selatan, Kalimantan Tengah 73712","Buntok Kota, Kec. Dusun Sel., Kabupaten Barito Selatan",KALIMANTAN TENGAH,73712.0,Indonesia,82358885014.0,,,-1.7253923,114.8334451,https://maps.google.com/?cid=0x0:0xa80b317a551eb7ef,
building materials,Toko Bahan Bangunan,BUDHI KARYA,"8V5G+5H, Pamait, Kec. Dusun Sel., Kabupaten Barito Selatan, Kalimantan Tengah 73713","Pamait, Kec. Dusun Sel., Kabupaten Barito Selatan",KALIMANTAN TENGAH,73713.0,Indonesia,81349596262.0,,,-1.6920378,114.8764073,https://maps.google.com/?cid=0x0:0xd9acbdd22a0a1c3b,
building materials,Toko Bahan Bangunan,Matiba Kalimantan. CV,"Jl. Pahlawan No.31, Buntok Kota, Kec. Dusun Sel., Kabupaten Barito Selatan, Kalimantan Tengah 73751","Buntok Kota, Kec. Dusun Sel., Kabupaten Barito Selatan",KALIMANTAN TENGAH,73751.0,Indonesia,,,,-1.7163004,114.8371024,https://maps.google.com/?cid=0x0:0x9b556207981fa3a5,
building materials,Toko Swalayan,Toko.Bangunan  Molding,"F5V6+Q97, Jl. Negara Ampah-Muarateweh, Patas II, Kec. Gn. Bintang Awai, Kabupaten Barito Selatan, Kalimantan Tengah 73753","Jl. Negara Ampah-Muarateweh, Patas II, Kec. Gn. Bintang Awai, Kabupaten Barito Selatan",KALIMANTAN TENGAH,73753.0,Indonesia,82149140912.0,,,-1.5055901,115.160911,https://maps.google.com/?cid=0x0:0xdf2f3df691cf2c7,
building materials,Toko Bahan Bangunan,Toko Bangunan Setia Maju,"7RHP+HJJ, Jl. Pembangunan, Buntok Kota, Kec. Dusun Sel., Kabupaten Barito Selatan, Kalimantan Tengah 73711","Jl. Pembangunan, Buntok Kota, Kec. Dusun Sel., Kabupaten Barito Selatan",KALIMANTAN TENGAH,73711.0,Indonesia,81251772855.0,,,-1.7210253,114.8365047,https://maps.google.com/?cid=0x0:0x35daaac7020b5bfa,
building materials,Toko Bahan Bangunan,Toko H.Adul,"7RJX+Q26, Jl. Pelita Raya, Buntok Kota, Kec. Dusun Sel., Kabupaten Barito Selatan, Kalimantan Tengah 73713","Jl. Pelita Raya, Buntok Kota, Kec. Dusun Sel., Kabupaten Barito Selatan",KALIMANTAN TENGAH,73713.0,Indonesia,,,,-1.718098,114.8475184,https://maps.google.com/?cid=0x0:0x660f4156b73d70a6,
building materials,Kantor Perusahaan,JUAL material Pasir sungai barito. SYIFA SAMUDRA,"7RXW+58Q, Jl. Padat Karya, Buntok Kota, Kec. Dusun Sel., Kabupaten Barito Selatan, Kalimantan Tengah 73751","Jl. Padat Karya, Buntok Kota, Kec. Dusun Sel., Kabupaten Barito Selatan",KALIMANTAN TENGAH,73751.0,Indonesia,81348691711.0,,,-1.7020486,114.8458658,https://maps.google.com/?cid=0x0:0x9ec2073ef258e4d7,
building materials,Toko Bahan Bangunan,Toko Surya Bangunan,"Jl. A. Gani Gandrung, Buntok Kota, Kec. Dusun Sel., Kabupaten Barito Selatan, Kalimantan Tengah 73111","Buntok Kota, Kec. Dusun Sel., Kabupaten Barito Selatan",KALIMANTAN TENGAH,73111.0,Indonesia,,,,-1.7139036,114.8448237,https://maps.google.com/?cid=0x0:0x40fe35cabf0454a5,
building materials,building materials,Kalimantan Tengah 73713,"Kabupaten Barito Selatan, Kalimantan Tengah","Kabupaten Barito Selatan, Kalimantan Tengah",KALIMANTAN TENGAH,,Indonesia,,,,-1.7531862,114.6905436,https://maps.google.com/?cid=0x0:0x1c28f022a25af1a5,
building materials,Toko Bahan Bangunan,BUDHI KARYA,"8V5G+5H, Pamait, Kec. Dusun Sel., Kabupaten Barito Selatan, Kalimantan Tengah 73713","Pamait, Kec. Dusun Sel., Kabupaten Barito Selatan",KALIMANTAN TENGAH,73713.0,Indonesia,81349596262.0,,,-1.6920378,114.8764073,https://maps.google.com/?cid=0x0:0xd9acbdd22a0a1c3b,
building materials,Toko Bahan Bangunan,"TOKO BANGUNAN AULIA""""","Jl. Pelita Raya No.10, Buntok Kota, Kec. Dusun Sel., Kabupaten Barito Selatan, Kalimantan Tengah 73712","Buntok Kota, Kec. Dusun Sel., Kabupaten Barito Selatan",KALIMANTAN TENGAH,73712.0,Indonesia,82358885014.0,,,-1.7253923,114.8334451,https://maps.google.com/?cid=0x0:0xa80b317a551eb7ef,
building materials,Toko Bahan Bangunan,Toko H.Adul,"7RJX+Q26, Jl. Pelita Raya, Buntok Kota, Kec. Dusun Sel., Kabupaten Barito Selatan, Kalimantan Tengah 73713","Jl. Pelita Raya, Buntok Kota, Kec. Dusun Sel., Kabupaten Barito Selatan",KALIMANTAN TENGAH,73713.0,Indonesia,,,,-1.718098,114.8475184,https://maps.google.com/?cid=0x0:0x660f4156b73d70a6,
building materials,Toko Bahan Bangunan,Matiba Kalimantan. CV,"Jl. Pahlawan No.31, Buntok Kota, Kec. Dusun Sel., Kabupaten Barito Selatan, Kalimantan Tengah 73751","Buntok Kota, Kec. Dusun Sel., Kabupaten Barito Selatan",KALIMANTAN TENGAH,73751.0,Indonesia,,,,-1.7163004,114.8371024,https://maps.google.com/?cid=0x0:0x9b556207981fa3a5,
building materials,Toko Bahan Bangunan,"Toko Bangunan Lindo Bulan""""","8W39+6G5, Jl. Soekarno - Hatta, Sababilah, Kec. Dusun Sel., Kabupaten Barito Selatan, Kalimantan Tengah 73713","Jl. Soekarno - Hatta, Sababilah, Kec. Dusun Sel., Kabupaten Barito Selatan",KALIMANTAN TENGAH,73713.0,Indonesia,,,,-1.6969931,114.9188639,https://maps.google.com/?cid=0x0:0x94de1e65c7ae65d9,
building materials,Toko Bahan Bangunan,Toko Bangunan Setia Maju,"7RHP+HJJ, Jl. Pembangunan, Buntok Kota, Kec. Dusun Sel., Kabupaten Barito Selatan, Kalimantan Tengah 73711","Jl. Pembangunan, Buntok Kota, Kec. Dusun Sel., Kabupaten Barito Selatan",KALIMANTAN TENGAH,73711.0,Indonesia,81251772855.0,,,-1.7210253,114.8365047,https://maps.google.com/?cid=0x0:0x35daaac7020b5bfa,
building materials,building materials,Berkat doa usaha,"Jl. Pembangunan No.10, RT.13/RW.03, Buntok Kota, Kec. Dusun Sel., Kabupaten Barito Selatan, Kalimantan Tengah 73712","RT.13/RW.03, Buntok Kota, Kec. Dusun Sel., Kabupaten Barito Selatan",KALIMANTAN TENGAH,73712.0,Indonesia,,,,-1.721519,114.838567,https://maps.google.com/?cid=0x0:0xe3aaef50f42bf30a,
building materials,Toko Bahan Bangunan,Toko Anugerah Jaya,"Jl. Pelita Raya, RT.015/RW.004, Buntok Kota, Kec. Dusun Sel., Kabupaten Barito Selatan, Kalimantan Tengah 73711","RT.015/RW.004, Buntok Kota, Kec. Dusun Sel., Kabupaten Barito Selatan",KALIMANTAN TENGAH,73711.0,Indonesia,81349701628.0,,,-1.7207836,114.8418198,https://maps.google.com/?cid=0x0:0xf2278e46c02f53f4,
building materials,Toko Perlengkapan Rumah,Toko Dua Saudara,"9R56+PP4, Jl. Kalahien, Kalahien, Kec. Dusun Sel., Kabupaten Barito Selatan, Kalimantan Tengah 73751","Jl. Kalahien, Kalahien, Kec. Dusun Sel., Kabupaten Barito Selatan",KALIMANTAN TENGAH,73751.0,Indonesia,,,,-1.6407384,114.8118379,https://maps.google.com/?cid=0x0:0xda63aff01d8ea311,
building materials,Toko Bahan Bangunan,Toko bangunan Daffa,"Jl. Pakusualam No.1, Baru, Kec. Dusun Sel., Kabupaten Barito Selatan, Kalimantan Tengah 73751","Baru, Kec. Dusun Sel., Kabupaten Barito Selatan",KALIMANTAN TENGAH,73751.0,Indonesia,,,,-1.7802609,114.804838,https://maps.google.com/?cid=0x0:0x502cdc08d2cbe99,
building materials,Toko Bahan Bangunan,Toko Surya Bangunan,"Jl. A. Gani Gandrung, Buntok Kota, Kec. Dusun Sel., Kabupaten Barito Selatan, Kalimantan Tengah 73111","Buntok Kota, Kec. Dusun Sel., Kabupaten Barito Selatan",KALIMANTAN TENGAH,73111.0,Indonesia,,,,-1.7139036,114.8448237,https://maps.google.com/?cid=0x0:0x40fe35cabf0454a5,
building materials,building materials,Kalimantan Tengah 73751,"Kec. Dusun Sel., Kabupaten Barito Selatan, Kalimantan Tengah","Kabupaten Barito Selatan, Kalimantan Tengah",KALIMANTAN TENGAH,,Indonesia,,,,-1.6899287,114.7736556,https://maps.google.com/?cid=0x0:0xfd0ed3d130200b49,
building materials,Toko Bahan Bangunan,3 putera bangunan,"7RCP+Q8V, Jl. Kartini, Hilir Sper, Kec. Dusun Sel., Kabupaten Barito Selatan, Kalimantan Tengah 73751","Jl. Kartini, Hilir Sper, Kec. Dusun Sel., Kabupaten Barito Selatan",KALIMANTAN TENGAH,73751.0,Indonesia,82213899694.0,,,-1.7280023,114.8358011,https://maps.google.com/?cid=0x0:0x7e0aa5869aabd474,
building materials,Toko Bahan Bangunan,Matiba Kalimantan. CV,"Jl. Pahlawan No.31, Buntok Kota, Kec. Dusun Sel., Kabupaten Barito Selatan, Kalimantan Tengah 73751","Buntok Kota, Kec. Dusun Sel., Kabupaten Barito Selatan",KALIMANTAN TENGAH,73751.0,Indonesia,,,,-1.7163004,114.8371024,https://maps.google.com/?cid=0x0:0x9b556207981fa3a5,
building materials,Toko Bahan Bangunan,BUDHI KARYA,"8V5G+5H, Pamait, Kec. Dusun Sel., Kabupaten Barito Selatan, Kalimantan Tengah 73713","Pamait, Kec. Dusun Sel., Kabupaten Barito Selatan",KALIMANTAN TENGAH,73713.0,Indonesia,81349596262.0,,,-1.6920378,114.8764073,https://maps.google.com/?cid=0x0:0xd9acbdd22a0a1c3b,
building materials,Toko Bahan Bangunan,Toko Bangunan Setia Maju,"7RHP+HJJ, Jl. Pembangunan, Buntok Kota, Kec. Dusun Sel., Kabupaten Barito Selatan, Kalimantan Tengah 73711","Jl. Pembangunan, Buntok Kota, Kec. Dusun Sel., Kabupaten Barito Selatan",KALIMANTAN TENGAH,73711.0,Indonesia,81251772855.0,,,-1.7210253,114.8365047,https://maps.google.com/?cid=0x0:0x35daaac7020b5bfa,
building materials,Toko Bahan Bangunan,Toko H.Adul,"7RJX+Q26, Jl. Pelita Raya, Buntok Kota, Kec. Dusun Sel., Kabupaten Barito Selatan, Kalimantan Tengah 73713","Jl. Pelita Raya, Buntok Kota, Kec. Dusun Sel., Kabupaten Barito Selatan",KALIMANTAN TENGAH,73713.0,Indonesia,,,,-1.718098,114.8475184,https://maps.google.com/?cid=0x0:0x660f4156b73d70a6,
building materials,building materials,Berkat doa usaha,"Jl. Pembangunan No.10, RT.13/RW.03, Buntok Kota, Kec. Dusun Sel., Kabupaten Barito Selatan, Kalimantan Tengah 73712","RT.13/RW.03, Buntok Kota, Kec. Dusun Sel., Kabupaten Barito Selatan",KALIMANTAN TENGAH,73712.0,Indonesia,,,,-1.721519,114.838567,https://maps.google.com/?cid=0x0:0xe3aaef50f42bf30a,
building materials,Toko Perlengkapan Rumah,Toko Dua Saudara,"9R56+PP4, Jl. Kalahien, Kalahien, Kec. Dusun Sel., Kabupaten Barito Selatan, Kalimantan Tengah 73751","Jl. Kalahien, Kalahien, Kec. Dusun Sel., Kabupaten Barito Selatan",KALIMANTAN TENGAH,73751.0,Indonesia,,,,-1.6407384,114.8118379,https://maps.google.com/?cid=0x0:0xda63aff01d8ea311,
building materials,Toko Bahan Bangunan,Toko Anugerah Jaya,"Jl. Pelita Raya, RT.015/RW.004, Buntok Kota, Kec. Dusun Sel., Kabupaten Barito Selatan, Kalimantan Tengah 73711","RT.015/RW.004, Buntok Kota, Kec. Dusun Sel., Kabupaten Barito Selatan",KALIMANTAN TENGAH,73711.0,Indonesia,81349701628.0,,,-1.7207836,114.8418198,https://maps.google.com/?cid=0x0:0xf2278e46c02f53f4,
building materials,Toko Bahan Bangunan,Toko bangunan Daffa,"Jl. Pakusualam No.1, Baru, Kec. Dusun Sel., Kabupaten Barito Selatan, Kalimantan Tengah 73751","Baru, Kec. Dusun Sel., Kabupaten Barito Selatan",KALIMANTAN TENGAH,73751.0,Indonesia,,,,-1.7802609,114.804838,https://maps.google.com/?cid=0x0:0x502cdc08d2cbe99,
building materials,Kantor Perusahaan,JUAL material Pasir sungai barito. SYIFA SAMUDRA,"7RXW+58Q, Jl. Padat Karya, Buntok Kota, Kec. Dusun Sel., Kabupaten Barito Selatan, Kalimantan Tengah 73751","Jl. Padat Karya, Buntok Kota, Kec. Dusun Sel., Kabupaten Barito Selatan",KALIMANTAN TENGAH,73751.0,Indonesia,81348691711.0,,,-1.7020486,114.8458658,https://maps.google.com/?cid=0x0:0x9ec2073ef258e4d7,
building materials,Toko Bahan Bangunan,Toko Surya Bangunan,"Jl. A. Gani Gandrung, Buntok Kota, Kec. Dusun Sel., Kabupaten Barito Selatan, Kalimantan Tengah 73111","Buntok Kota, Kec. Dusun Sel., Kabupaten Barito Selatan",KALIMANTAN TENGAH,73111.0,Indonesia,,,,-1.7139036,114.8448237,https://maps.google.com/?cid=0x0:0x40fe35cabf0454a5,
building materials,Toko Swalayan,Toko.Bangunan  Molding,"F5V6+Q97, Jl. Negara Ampah-Muarateweh, Patas II, Kec. Gn. Bintang Awai, Kabupaten Barito Selatan, Kalimantan Tengah 73753","Jl. Negara Ampah-Muarateweh, Patas II, Kec. Gn. Bintang Awai, Kabupaten Barito Selatan",KALIMANTAN TENGAH,73753.0,Indonesia,82149140912.0,,,-1.5055901,115.160911,https://maps.google.com/?cid=0x0:0xdf2f3df691cf2c7,
building materials,Toko,Toko Lisda,"95GJ+HFX, Wayun, Palu Rejo, Kabupaten Barito Selatan, Kalimantan Tengah","Kabupaten Barito Selatan, Kalimantan Tengah",KALIMANTAN TENGAH,,Indonesia,85281775051.0,,,-1.6235216,115.1812263,https://maps.google.com/?cid=0x0:0xf6e50860c0923af3,
building materials,Toko Swalayan,Toko.Bangunan  Molding,"F5V6+Q97, Jl. Negara Ampah-Muarateweh, Patas II, Kec. Gn. Bintang Awai, Kabupaten Barito Selatan, Kalimantan Tengah 73753","Jl. Negara Ampah-Muarateweh, Patas II, Kec. Gn. Bintang Awai, Kabupaten Barito Selatan",KALIMANTAN TENGAH,73753.0,Indonesia,82149140912.0,,,-1.5055901,115.160911,https://maps.google.com/?cid=0x0:0xdf2f3df691cf2c7,
building materials,Toko Swalayan,Toko.Bangunan  Molding,"F5V6+Q97, Jl. Negara Ampah-Muarateweh, Patas II, Kec. Gn. Bintang Awai, Kabupaten Barito Selatan, Kalimantan Tengah 73753","Jl. Negara Ampah-Muarateweh, Patas II, Kec. Gn. Bintang Awai, Kabupaten Barito Selatan",KALIMANTAN TENGAH,73753.0,Indonesia,82149140912.0,,,-1.5055901,115.160911,https://maps.google.com/?cid=0x0:0xdf2f3df691cf2c7,
building materials,Toko Swalayan,Toko.Bangunan  Molding,"F5V6+Q97, Jl. Negara Ampah-Muarateweh, Patas II, Kec. Gn. Bintang Awai, Kabupaten Barito Selatan, Kalimantan Tengah 73753","Jl. Negara Ampah-Muarateweh, Patas II, Kec. Gn. Bintang Awai, Kabupaten Barito Selatan",KALIMANTAN TENGAH,73753.0,Indonesia,82149140912.0,,,-1.5055901,115.160911,https://maps.google.com/?cid=0x0:0xdf2f3df691cf2c7,
building materials,Toko Bahan Bangunan,Toko Bahan Bangunan CHANDRA DEWI,"Unnamed Road, Mengkatip, Kec. Dusun Hilir, Kabupaten Barito Selatan, Kalimantan Tengah 73762","Mengkatip, Kec. Dusun Hilir, Kabupaten Barito Selatan",KALIMANTAN TENGAH,73762.0,Indonesia,,,,-2.2292054,114.8554474,https://maps.google.com/?cid=0x0:0xe8e615f94114b0e0,
building materials,Toko Bahan Bangunan,Toko Bangunan Setia Maju,"7RHP+HJJ, Jl. Pembangunan, Buntok Kota, Kec. Dusun Sel., Kabupaten Barito Selatan, Kalimantan Tengah 73711","Jl. Pembangunan, Buntok Kota, Kec. Dusun Sel., Kabupaten Barito Selatan",KALIMANTAN TENGAH,73711.0,Indonesia,81251772855.0,,,-1.7210253,114.8365047,https://maps.google.com/?cid=0x0:0x35daaac7020b5bfa,
building materials,Toko Alat-Alat,TB.AINAYA,"WV4G+3C, Tlk. Timbau, Kec. Dusun Hilir, Kabupaten Barito Selatan, Kalimantan Tengah 73617","Tlk. Timbau, Kec. Dusun Hilir, Kabupaten Barito Selatan",KALIMANTAN TENGAH,73617.0,Indonesia,85249924737.0,,,-2.0948219,114.8761422,https://maps.google.com/?cid=0x0:0xeeaf42a426f5c965,
building materials,Toko Bahan Bangunan,Galangan Pasir,"WWX3+J8, Bangkuang, Kec. Karau Kuala, Kabupaten Barito Selatan, Kalimantan Tengah","Kabupaten Barito Selatan, Kalimantan Tengah",KALIMANTAN TENGAH,,Indonesia,82214328297.0,,,-2.0514539,114.9041645,https://maps.google.com/?cid=0x0:0x4d383524230a5058,
building materials,Toko Bahan Bangunan,Toko Bahan Bangunan CHANDRA DEWI,"Unnamed Road, Mengkatip, Kec. Dusun Hilir, Kabupaten Barito Selatan, Kalimantan Tengah 73762","Mengkatip, Kec. Dusun Hilir, Kabupaten Barito Selatan",KALIMANTAN TENGAH,73762.0,Indonesia,,,,-2.2292054,114.8554474,https://maps.google.com/?cid=0x0:0xe8e615f94114b0e0,
building materials,Toko Swalayan,Toko.Bangunan  Molding,"F5V6+Q97, Jl. Negara Ampah-Muarateweh, Patas II, Kec. Gn. Bintang Awai, Kabupaten Barito Selatan, Kalimantan Tengah 73753","Jl. Negara Ampah-Muarateweh, Patas II, Kec. Gn. Bintang Awai, Kabupaten Barito Selatan",KALIMANTAN TENGAH,73753.0,Indonesia,82149140912.0,,,-1.5055901,115.160911,https://maps.google.com/?cid=0x0:0xdf2f3df691cf2c7,
building materials,building materials,Kalimantan Tengah 73752,"Kabupaten Barito Selatan, Kalimantan Tengah","Kabupaten Barito Selatan, Kalimantan Tengah",KALIMANTAN TENGAH,,Indonesia,,,,-1.4856175,114.8567482,https://maps.google.com/?cid=0x0:0x9e89593c92bb4954,
building materials,Toko,Toko Ataini Menyedia Bahan Bangunan,"JV85+P67, Jl. Barito, Tarusan, Kec. Dusun Utara, Kabupaten Barito Selatan, Kalimantan Tengah 73752","Jl. Barito, Tarusan, Kec. Dusun Utara, Kabupaten Barito Selatan",KALIMANTAN TENGAH,73752.0,Indonesia,,,,-1.382893,114.858194,https://maps.google.com/?cid=0x0:0xe2836f17e6378ea2,
building materials,Toko Swalayan,Toko.Bangunan  Molding,"F5V6+Q97, Jl. Negara Ampah-Muarateweh, Patas II, Kec. Gn. Bintang Awai, Kabupaten Barito Selatan, Kalimantan Tengah 73753","Jl. Negara Ampah-Muarateweh, Patas II, Kec. Gn. Bintang Awai, Kabupaten Barito Selatan",KALIMANTAN TENGAH,73753.0,Indonesia,82149140912.0,,,-1.5055901,115.160911,https://maps.google.com/?cid=0x0:0xdf2f3df691cf2c7,
building materials,Toko Bahan Bangunan,"Toko Bangunan Lindo Bulan""""","8W39+6G5, Jl. Soekarno - Hatta, Sababilah, Kec. Dusun Sel., Kabupaten Barito Selatan, Kalimantan Tengah 73713","Jl. Soekarno - Hatta, Sababilah, Kec. Dusun Sel., Kabupaten Barito Selatan",KALIMANTAN TENGAH,73713.0,Indonesia,,,,-1.6969931,114.9188639,https://maps.google.com/?cid=0x0:0x94de1e65c7ae65d9,
building materials,building materials,Kec. Dusun Utara,"Kabupaten Barito Selatan, Kalimantan Tengah","Kabupaten Barito Selatan, Kalimantan Tengah",KALIMANTAN TENGAH,,Indonesia,,,,-1.4141056,114.9516869,https://maps.google.com/?cid=0x0:0x83d90465ae186a34,
building materials,Toko,Toko Lisda,"95GJ+HFX, Wayun, Palu Rejo, Kabupaten Barito Selatan, Kalimantan Tengah","Kabupaten Barito Selatan, Kalimantan Tengah",KALIMANTAN TENGAH,,Indonesia,85281775051.0,,,-1.6235216,115.1812263,https://maps.google.com/?cid=0x0:0xf6e50860c0923af3,
building materials,Toko Swalayan,Toko.Bangunan  Molding,"F5V6+Q97, Jl. Negara Ampah-Muarateweh, Patas II, Kec. Gn. Bintang Awai, Kabupaten Barito Selatan, Kalimantan Tengah 73753","Jl. Negara Ampah-Muarateweh, Patas II, Kec. Gn. Bintang Awai, Kabupaten Barito Selatan",KALIMANTAN TENGAH,73753.0,Indonesia,82149140912.0,,,-1.5055901,115.160911,https://maps.google.com/?cid=0x0:0xdf2f3df691cf2c7,
building materials,building materials,Kec. Gn. Bintang Awai,"Kabupaten Barito Selatan, Kalimantan Tengah","Kabupaten Barito Selatan, Kalimantan Tengah",KALIMANTAN TENGAH,,Indonesia,,,,-1.4810273,115.2363408,https://maps.google.com/?cid=0x0:0x55d1d750ea1055c,
building materials,Toko Bahan Bangunan,"Toko Bangunan Lindo Bulan""""","8W39+6G5, Jl. Soekarno - Hatta, Sababilah, Kec. Dusun Sel., Kabupaten Barito Selatan, Kalimantan Tengah 73713","Jl. Soekarno - Hatta, Sababilah, Kec. Dusun Sel., Kabupaten Barito Selatan",KALIMANTAN TENGAH,73713.0,Indonesia,,,,-1.6969931,114.9188639,https://maps.google.com/?cid=0x0:0x94de1e65c7ae65d9,
building materials,Toko,Toko Lisda,"95GJ+HFX, Wayun, Palu Rejo, Kabupaten Barito Selatan, Kalimantan Tengah","Kabupaten Barito Selatan, Kalimantan Tengah",KALIMANTAN TENGAH,,Indonesia,85281775051.0,,,-1.6235216,115.1812263,https://maps.google.com/?cid=0x0:0xf6e50860c0923af3,
building materials,building materials,Gracio ATK and Fotocopy,"F5C6+32P, Patas I, Kec. Gn. Bintang Awai, Kabupaten Barito Selatan, Kalimantan Tengah 73753","Patas I, Kec. Gn. Bintang Awai, Kabupaten Barito Selatan",KALIMANTAN TENGAH,73753.0,Indonesia,,,,-1.5297817,115.1600788,https://maps.google.com/?cid=0x0:0x1ccf8bf0295f21aa,
building materials,Toko Swalayan,Toko.Bangunan  Molding,"F5V6+Q97, Jl. Negara Ampah-Muarateweh, Patas II, Kec. Gn. Bintang Awai, Kabupaten Barito Selatan, Kalimantan Tengah 73753","Jl. Negara Ampah-Muarateweh, Patas II, Kec. Gn. Bintang Awai, Kabupaten Barito Selatan",KALIMANTAN TENGAH,73753.0,Indonesia,82149140912.0,,,-1.5055901,115.160911,https://maps.google.com/?cid=0x0:0xdf2f3df691cf2c7,
building materials,Toko,Toko Ataini Menyedia Bahan Bangunan,"JV85+P67, Jl. Barito, Tarusan, Kec. Dusun Utara, Kabupaten Barito Selatan, Kalimantan Tengah 73752","Jl. Barito, Tarusan, Kec. Dusun Utara, Kabupaten Barito Selatan",KALIMANTAN TENGAH,73752.0,Indonesia,,,,-1.382893,114.858194,https://maps.google.com/?cid=0x0:0xe2836f17e6378ea2,
building materials,building materials,Kalimantan Tengah 73763,"Kec. Jenamas, Kabupaten Barito Selatan, Kalimantan Tengah","Kabupaten Barito Selatan, Kalimantan Tengah",KALIMANTAN TENGAH,,Indonesia,,,,-2.34059,114.8567482,https://maps.google.com/?cid=0x0:0x37fa6b040b7959f6,
building materials,building materials,Toko Peralatan dan Sembako,"Rantau Bahuang, Kec. Jenamas, Kabupaten Barito Selatan, Kalimantan Tengah 73763","Kec. Jenamas, Kabupaten Barito Selatan",KALIMANTAN TENGAH,73763.0,Indonesia,895323920065.0,,,-2.4661297,114.8722998,https://maps.google.com/?cid=0x0:0x8a3f411fb1d34a37,
building materials,Toko bahan makanan,UD. RAHMANI,"RT.003/RW.001, Kalanis, Kec. Dusun Hilir, Kabupaten Barito Selatan, Kalimantan Tengah 73762","Kalanis, Kec. Dusun Hilir, Kabupaten Barito Selatan",KALIMANTAN TENGAH,73762.0,Indonesia,82252623785.0,,,-2.2636639,114.8990197,https://maps.google.com/?cid=0x0:0x2fe60a62c3a6b3b8,
building materials,Toko Bahan Bangunan,Toko Bahan Bangunan CHANDRA DEWI,"Unnamed Road, Mengkatip, Kec. Dusun Hilir, Kabupaten Barito Selatan, Kalimantan Tengah 73762","Mengkatip, Kec. Dusun Hilir, Kabupaten Barito Selatan",KALIMANTAN TENGAH,73762.0,Indonesia,,,,-2.2292054,114.8554474,https://maps.google.com/?cid=0x0:0xe8e615f94114b0e0,
building materials,building materials,Kalimantan Tengah 73761,"Kabupaten Barito Selatan, Kalimantan Tengah","Kabupaten Barito Selatan, Kalimantan Tengah",KALIMANTAN TENGAH,,Indonesia,,,,-2.0019069,114.7380385,https://maps.google.com/?cid=0x0:0xf4482425825ffff8,
building materials,Toko Bahan Bangunan,Galangan Pasir,"WWX3+J8, Bangkuang, Kec. Karau Kuala, Kabupaten Barito Selatan, Kalimantan Tengah","Kabupaten Barito Selatan, Kalimantan Tengah",KALIMANTAN TENGAH,,Indonesia,82214328297.0,,,-2.0514539,114.9041645,https://maps.google.com/?cid=0x0:0x4d383524230a5058,
building materials,Toko Alat-Alat,TB.AINAYA,"WV4G+3C, Tlk. Timbau, Kec. Dusun Hilir, Kabupaten Barito Selatan, Kalimantan Tengah 73617","Tlk. Timbau, Kec. Dusun Hilir, Kabupaten Barito Selatan",KALIMANTAN TENGAH,73617.0,Indonesia,85249924737.0,,,-2.0948219,114.8761422,https://maps.google.com/?cid=0x0:0xeeaf42a426f5c965,
building materials,Toko Bahan Bangunan,Toko Bahan Bangunan CHANDRA DEWI,"Unnamed Road, Mengkatip, Kec. Dusun Hilir, Kabupaten Barito Selatan, Kalimantan Tengah 73762","Mengkatip, Kec. Dusun Hilir, Kabupaten Barito Selatan",KALIMANTAN TENGAH,73762.0,Indonesia,,,,-2.2292054,114.8554474,https://maps.google.com/?cid=0x0:0xe8e615f94114b0e0,
building materials,building materials,Toko bangunan,"XV6R+32C, Bangkuang, Kec. Karau Kuala, Kabupaten Barito Selatan, Kalimantan Tengah 73617","Bangkuang, Kec. Karau Kuala, Kabupaten Barito Selatan",KALIMANTAN TENGAH,73617.0,Indonesia,,,,-2.0393835,114.8903934,https://maps.google.com/?cid=0x0:0xa6bf7febca2e0729,
building materials,Toko Swalayan,Toko.Bangunan  Molding,"F5V6+Q97, Jl. Negara Ampah-Muarateweh, Patas II, Kec. Gn. Bintang Awai, Kabupaten Barito Selatan, Kalimantan Tengah 73753","Jl. Negara Ampah-Muarateweh, Patas II, Kec. Gn. Bintang Awai, Kabupaten Barito Selatan",KALIMANTAN TENGAH,73753.0,Indonesia,82149140912.0,,,-1.5055901,115.160911,https://maps.google.com/?cid=0x0:0xdf2f3df691cf2c7,
building materials,Toko Alat-Alat,TB.AINAYA,"WV4G+3C, Tlk. Timbau, Kec. Dusun Hilir, Kabupaten Barito Selatan, Kalimantan Tengah 73617","Tlk. Timbau, Kec. Dusun Hilir, Kabupaten Barito Selatan",KALIMANTAN TENGAH,73617.0,Indonesia,85249924737.0,,,-2.0948219,114.8761422,https://maps.google.com/?cid=0x0:0xeeaf42a426f5c965,
building materials,Toko Bahan Bangunan,Galangan Pasir,"WWX3+J8, Bangkuang, Kec. Karau Kuala, Kabupaten Barito Selatan, Kalimantan Tengah","Kabupaten Barito Selatan, Kalimantan Tengah",KALIMANTAN TENGAH,,Indonesia,82214328297.0,,,-2.0514539,114.9041645,https://maps.google.com/?cid=0x0:0x4d383524230a5058,
building materials,Toko Bahan Bangunan,Toko Bahan Bangunan CHANDRA DEWI,"Unnamed Road, Mengkatip, Kec. Dusun Hilir, Kabupaten Barito Selatan, Kalimantan Tengah 73762","Mengkatip, Kec. Dusun Hilir, Kabupaten Barito Selatan",KALIMANTAN TENGAH,73762.0,Indonesia,,,,-2.2292054,114.8554474,https://maps.google.com/?cid=0x0:0xe8e615f94114b0e0,
building materials,Toko Swalayan,Toko.Bangunan  Molding,"F5V6+Q97, Jl. Negara Ampah-Muarateweh, Patas II, Kec. Gn. Bintang Awai, Kabupaten Barito Selatan, Kalimantan Tengah 73753","Jl. Negara Ampah-Muarateweh, Patas II, Kec. Gn. Bintang Awai, Kabupaten Barito Selatan",KALIMANTAN TENGAH,73753.0,Indonesia,82149140912.0,,,-1.5055901,115.160911,https://maps.google.com/?cid=0x0:0xdf2f3df691cf2c7,
building materials,building materials,Kalimantan Tengah 73653,"Kabupaten Barito Selatan, Kalimantan Tengah","Kabupaten Barito Selatan, Kalimantan Tengah",KALIMANTAN TENGAH,,Indonesia,,,,-1.7491595,114.9754175,https://maps.google.com/?cid=0x0:0xd6ed047f12362357,
building materials,Toko Bahan Bangunan,"Toko Bangunan Lindo Bulan""""","8W39+6G5, Jl. Soekarno - Hatta, Sababilah, Kec. Dusun Sel., Kabupaten Barito Selatan, Kalimantan Tengah 73713","Jl. Soekarno - Hatta, Sababilah, Kec. Dusun Sel., Kabupaten Barito Selatan",KALIMANTAN TENGAH,73713.0,Indonesia,,,,-1.6969931,114.9188639,https://maps.google.com/?cid=0x0:0x94de1e65c7ae65d9,
building materials,Toko Bahan Bangunan,3 putera bangunan,"7RCP+Q8V, Jl. Kartini, Hilir Sper, Kec. Dusun Sel., Kabupaten Barito Selatan, Kalimantan Tengah 73751","Jl. Kartini, Hilir Sper, Kec. Dusun Sel., Kabupaten Barito Selatan",KALIMANTAN TENGAH,73751.0,Indonesia,82213899694.0,,,-1.7280023,114.8358011,https://maps.google.com/?cid=0x0:0x7e0aa5869aabd474,
building materials,Toko Bahan Bangunan,Matiba Kalimantan. CV,"Jl. Pahlawan No.31, Buntok Kota, Kec. Dusun Sel., Kabupaten Barito Selatan, Kalimantan Tengah 73751","Buntok Kota, Kec. Dusun Sel., Kabupaten Barito Selatan",KALIMANTAN TENGAH,73751.0,Indonesia,,,,-1.7163004,114.8371024,https://maps.google.com/?cid=0x0:0x9b556207981fa3a5,
building materials,Agricultural production,PT. Bumi Asri Pasaman(Crumb Rubber),"Danau Sadar, Kec. Dusun Sel., Kabupaten Barito Selatan, Kalimantan Tengah 73751","Kec. Dusun Sel., Kabupaten Barito Selatan",KALIMANTAN TENGAH,73751.0,Indonesia,82155710188.0,,,-1.7789463,114.821893,https://maps.google.com/?cid=0x0:0x776d2266c6b45da7,
building materials,Toko Bahan Bangunan,"TOKO BANGUNAN AULIA""""","Jl. Pelita Raya No.10, Buntok Kota, Kec. Dusun Sel., Kabupaten Barito Selatan, Kalimantan Tengah 73712","Buntok Kota, Kec. Dusun Sel., Kabupaten Barito Selatan",KALIMANTAN TENGAH,73712.0,Indonesia,82358885014.0,,,-1.7253923,114.8334451,https://maps.google.com/?cid=0x0:0xa80b317a551eb7ef,
building materials,Toko,Toko Lisda,"95GJ+HFX, Wayun, Palu Rejo, Kabupaten Barito Selatan, Kalimantan Tengah","Kabupaten Barito Selatan, Kalimantan Tengah",KALIMANTAN TENGAH,,Indonesia,85281775051.0,,,-1.6235216,115.1812263,https://maps.google.com/?cid=0x0:0xf6e50860c0923af3,
building materials,Toko Swalayan,Toko.Bangunan  Molding,"F5V6+Q97, Jl. Negara Ampah-Muarateweh, Patas II, Kec. Gn. Bintang Awai, Kabupaten Barito Selatan, Kalimantan Tengah 73753","Jl. Negara Ampah-Muarateweh, Patas II, Kec. Gn. Bintang Awai, Kabupaten Barito Selatan",KALIMANTAN TENGAH,73753.0,Indonesia,82149140912.0,,,-1.5055901,115.160911,https://maps.google.com/?cid=0x0:0xdf2f3df691cf2c7,
building materials,Toko,Toko Lisda,"95GJ+HFX, Wayun, Palu Rejo, Kabupaten Barito Selatan, Kalimantan Tengah","Kabupaten Barito Selatan, Kalimantan Tengah",KALIMANTAN TENGAH,,Indonesia,85281775051.0,,,-1.6235216,115.1812263,https://maps.google.com/?cid=0x0:0xf6e50860c0923af3,
building materials,Toko Swalayan,Toko.Bangunan  Molding,"F5V6+Q97, Jl. Negara Ampah-Muarateweh, Patas II, Kec. Gn. Bintang Awai, Kabupaten Barito Selatan, Kalimantan Tengah 73753","Jl. Negara Ampah-Muarateweh, Patas II, Kec. Gn. Bintang Awai, Kabupaten Barito Selatan",KALIMANTAN TENGAH,73753.0,Indonesia,82149140912.0,,,-1.5055901,115.160911,https://maps.google.com/?cid=0x0:0xdf2f3df691cf2c7,
building materials,Perusahaan Pertambangan,PT. Sindo Lumber Group,"J7MJ+WJQ, Ngurit, Kec. Gn. Bintang Awai, Kabupaten Barito Selatan, Kalimantan Tengah 73862","Ngurit, Kec. Gn. Bintang Awai, Kabupaten Barito Selatan",KALIMANTAN TENGAH,73862.0,Indonesia,81351025103.0,,,-1.3651641,115.2816093,https://maps.google.com/?cid=0x0:0x192177151458df39,
building materials,Perusahaan Pertambangan,PT. Sindo Lumber Group,"J7MJ+WJQ, Ngurit, Kec. Gn. Bintang Awai, Kabupaten Barito Selatan, Kalimantan Tengah 73862","Ngurit, Kec. Gn. Bintang Awai, Kabupaten Barito Selatan",KALIMANTAN TENGAH,73862.0,Indonesia,81351025103.0,,,-1.3651641,115.2816093,https://maps.google.com/?cid=0x0:0x192177151458df39,
