Category;Real Category;Business Name;Address;City;State;Postal Code;Country;Phone;Email;Website;Latitude;Longitude;Map Link;Details Link
mall;mall;Kalimantan Tengah 73762;Kec. Dusun Hilir, Kabupaten Barito Selatan, Kalimantan Tengah;Kabupaten Barito Selatan, Kalimantan Tengah;KALIMANTAN TENGAH;;Indonesia;;;;-22.001.952;1.146.667.939;https://maps.google.com/?cid=0x0:0xc04a708e6544057b;
mall;Pusat Perbelanjaan;Toko Pa jamal;QV95+9FF, Mengkatip, Kec. Dusun Hilir, Kabupaten Barito Selatan, Kalimantan Tengah 73762;Mengkatip, Kec. Dusun Hilir, Kabupaten Barito Selatan;KALIMANTAN TENGAH;73762;Indonesia;;;;-22.315.632;1.148.586.577;https://maps.google.com/?cid=0x0:0x944e117e74271881;
mall;Pusat Perbelanjaan;Pasar Selasa Mengkatip;QRPX+P95, Unnamed Road, Mengkatip, Kec. Dusun Hilir, Kabupaten Barito Selatan, Kalimantan Tengah 73762;Unnamed Road, Mengkatip, Kec. Dusun Hilir, Kabupaten Barito Selatan;KALIMANTAN TENGAH;73762;Indonesia;;;;-22.132.267;1.148.484.736;https://maps.google.com/?cid=0x0:0x15a5905cb44ca4e0;
mall;Pasar;PASAR TELANG BARU;QWCV+2XP, Telang Baru, Kec. Paju Epat, Kabupaten Barito Timur, Kalimantan Tengah 73762;Telang Baru, Kec. Paju Epat, Kabupaten Barito Timur;KALIMANTAN TENGAH;73762;Indonesia;;;;-22.299.236;1.149.449.609;https://maps.google.com/?cid=0x0:0x3fe2dc4b62976cec;
mall;Pusat Perbelanjaan;KIOS ISTIQOMAH;QV87+GJ6, Mengkatip, Kec. Dusun Hilir, Kabupaten Barito Selatan, Kalimantan Tengah 73762;Mengkatip, Kec. Dusun Hilir, Kabupaten Barito Selatan;KALIMANTAN TENGAH;73762;Indonesia;;;;-22.337.011;1.148.640.102;https://maps.google.com/?cid=0x0:0x20b8bd1c8372e3a7;
mall;Pusat Perbelanjaan;Plaza Beringin;7RHM+7H2, Pasar beringin, Buntok Kota, Kec. Dusun Sel., Kabupaten Barito Selatan, Kalimantan Tengah 73711;Pasar beringin, Buntok Kota, Kec. Dusun Sel., Kabupaten Barito Selatan;KALIMANTAN TENGAH;73711;Indonesia;;;;-17.218.618;1.148.339.035;https://maps.google.com/?cid=0x0:0xafcbc85d52db905d;
mall;Kantor Administrasi Kota;Kantor Kecamatan Dusun Hilir;QRPX+5F9, Mengkatip, Kec. Dusun Hilir, Kabupaten Barito Selatan, Kalimantan Tengah 73762;Mengkatip, Kec. Dusun Hilir, Kabupaten Barito Selatan;KALIMANTAN TENGAH;73762;Indonesia;;;;-22.145.835;1.148.487.343;https://maps.google.com/?cid=0x0:0x44fa34ceeb3e2083;
mall;Toko Perhiasan;Rumah Terapung Jual Beli Ikan Mama Diky;Damparan, Kec. Dusun Hilir, Kabupaten Barito Selatan, Kalimantan Tengah 73762;Kec. Dusun Hilir, Kabupaten Barito Selatan;KALIMANTAN TENGAH;73762;Indonesia;85386508067;;;-21.357.084;114.867.081;https://maps.google.com/?cid=0x0:0x703b1f23ef3f4e79;
mall;Komplek perumahan;Rumah Milagros;7R9R+CXF, Hilir Sper, Kec. Dusun Sel., Kabupaten Barito Selatan, Kalimantan Tengah 73751;Hilir Sper, Kec. Dusun Sel., Kabupaten Barito Selatan;KALIMANTAN TENGAH;73751;Indonesia;85245128333;;;-17.314.276;114.842.408;https://maps.google.com/?cid=0x0:0x52453c5620a42f3b;
mall;Otoritas Pelabuhan;Pelabuhan Perikanan Juru Banu;PWXV+M2Q, Juru Banu, Kec. Paju Epat, Kabupaten Barito Timur, Kalimantan Tengah 73762;Juru Banu, Kec. Paju Epat, Kabupaten Barito Timur;KALIMANTAN TENGAH;73762;Indonesia;85705863820;;;-22.507.989;1.149.426.091;https://maps.google.com/?cid=0x0:0x69c62865f4ce85aa;
mall;Minimarket;Alfamart Kaladan Desa Hilir Sper;7R9V+78R, Hilir Sper, Kec. Dusun Sel., Kabupaten Barito Selatan, Kalimantan Tengah 73751;Hilir Sper, Kec. Dusun Sel., Kabupaten Barito Selatan;KALIMANTAN TENGAH;73751;Indonesia;;;;-17.317.654;1.148.432.807;https://maps.google.com/?cid=0x0:0x87514a489cda4a21;
mall;Pusat Perbelanjaan;KIOS SELPI;XR76+994, Batilap, Kec. Dusun Hilir, Kabupaten Barito Selatan, Kalimantan Tengah;Kabupaten Barito Selatan, Kalimantan Tengah;KALIMANTAN TENGAH;;Indonesia;;;;-20.369.643;1.148.107.351;https://maps.google.com/?cid=0x0:0x77bc2910dae47b40;
mall;Pemandian Umum;Rawen;7RVV+8XC, Buntok Kota, Kec. Dusun Sel., Kabupaten Barito Selatan, Kalimantan Tengah 73751;Buntok Kota, Kec. Dusun Sel., Kabupaten Barito Selatan;KALIMANTAN TENGAH;73751;Indonesia;;;;-17.066.776;114.844.879;https://maps.google.com/?cid=0x0:0x6ea551aee23b7682;
mall;Toko bahan makanan;Toko Mama Ijum;PWXW+P3W, Unnamed Road, Juru Banu, Kec. Paju Epat, Kabupaten Barito Timur, Kalimantan Tengah 73762;Unnamed Road, Juru Banu, Kec. Paju Epat, Kabupaten Barito Timur;KALIMANTAN TENGAH;73762;Indonesia;;;;-2.250.631;1.149.452.149;https://maps.google.com/?cid=0x0:0xae1103d26005e98d;
mall;Pusat Perbelanjaan;Palangkaraya Mall (Palma);Jl. Tjilik Riwut No.1, Palangka, Kec. Jekan Raya, Kota Palangka Raya, Kalimantan Tengah 74874;Palangka, Kec. Jekan Raya, Kota Palangka Raya;KALIMANTAN TENGAH;74874;Indonesia;;;;-22.065.433;1.139.154.004;https://maps.google.com/?cid=0x0:0xe30705d17366c7e0;
mall;Pusat Perbelanjaan;Plaza Beringin;7RHM+7H2, Pasar beringin, Buntok Kota, Kec. Dusun Sel., Kabupaten Barito Selatan, Kalimantan Tengah 73711;Pasar beringin, Buntok Kota, Kec. Dusun Sel., Kabupaten Barito Selatan;KALIMANTAN TENGAH;73711;Indonesia;;;;-17.218.618;1.148.339.035;https://maps.google.com/?cid=0x0:0xafcbc85d52db905d;
mall;Pusat Perbelanjaan;TOKO BULL PHOTO;pasar beringin, Buntok Kota, Kec. Dusun Sel., Kabupaten Barito Selatan, Kalimantan Tengah 73711;Buntok Kota, Kec. Dusun Sel., Kabupaten Barito Selatan;KALIMANTAN TENGAH;73711;Indonesia;82251367174;;;-17.194.196;1.148.322.057;https://maps.google.com/?cid=0x0:0x4e25b8c869645807;
mall;Mi;Mie Ayam dan Bakso Trioyono;7RHM+7FQ, Buntok Kota, Kec. Dusun Sel., Kabupaten Barito Selatan, Kalimantan Tengah 73751;Buntok Kota, Kec. Dusun Sel., Kabupaten Barito Selatan;KALIMANTAN TENGAH;73751;Indonesia;;;;-17.218.598;1.148.337.921;https://maps.google.com/?cid=0x0:0x19265b4ca8ef32f7;
mall;Toko Ponsel;Rosyiidah Ponsel;6RF3+9W8, Baru, Kec. Dusun Sel., Kabupaten Barito Selatan, Kalimantan Tengah 73711;Baru, Kec. Dusun Sel., Kabupaten Barito Selatan;KALIMANTAN TENGAH;73711;Indonesia;;;;-17.765.941;1.148.048.206;https://maps.google.com/?cid=0x0:0x1bd6daabdd81d2d6;
mall;Toko bahan makanan;Warung Lida;6RF5+RJQ, Jl. Barito, Baru, Kec. Dusun Sel., Kabupaten Barito Selatan, Kalimantan Tengah 73751;Jl. Barito, Baru, Kec. Dusun Sel., Kabupaten Barito Selatan;KALIMANTAN TENGAH;73751;Indonesia;82255683114;;;-1.775.408;1.148.091.127;https://maps.google.com/?cid=0x0:0x4549e751d3ba91ff;
mall;Komplek perumahan;Warung wahyu;Jl. Pahlawan No.1, Buntok Kota, Kec. Dusun Sel., Kabupaten Barito Selatan, Kalimantan Tengah 73713;Buntok Kota, Kec. Dusun Sel., Kabupaten Barito Selatan;KALIMANTAN TENGAH;73713;Indonesia;;;;-17.153.527;1.148.468.779;https://maps.google.com/?cid=0x0:0xeedba4251a0153df;
mall;mall;Fadly Blasting;6RF6+J76, Jl. Manunggal VII, Baru, Kec. Dusun Sel., Kabupaten Barito Selatan, Kalimantan Tengah 73751;Jl. Manunggal VII, Baru, Kec. Dusun Sel., Kabupaten Barito Selatan;KALIMANTAN TENGAH;73751;Indonesia;;;;-17.759.705;1.148.106.537;https://maps.google.com/?cid=0x0:0xdfcf78aa2178b310;
mall;mall;Kalimantan Tengah 73712;Kec. Dusun Sel., Kabupaten Barito Selatan, Kalimantan Tengah;Kabupaten Barito Selatan, Kalimantan Tengah;KALIMANTAN TENGAH;;Indonesia;;;;-18.255.326;1.147.588.155;https://maps.google.com/?cid=0x0:0xbc3cf9c65f77161b;
mall;Pusat Perbelanjaan;Plaza Beringin;7RHM+7H2, Pasar beringin, Buntok Kota, Kec. Dusun Sel., Kabupaten Barito Selatan, Kalimantan Tengah 73711;Pasar beringin, Buntok Kota, Kec. Dusun Sel., Kabupaten Barito Selatan;KALIMANTAN TENGAH;73711;Indonesia;;;;-17.218.618;1.148.339.035;https://maps.google.com/?cid=0x0:0xafcbc85d52db905d;
mall;;"Toko LINA""""";7RJJ+6V7, Jl. Merdeka Raya, Buntok Kota, Kec. Dusun Sel., Kabupaten Barito Selatan, Kalimantan Tengah 73751;Jl. Merdeka Raya, Buntok Kota, Kec. Dusun Sel., Kabupaten Barito Selatan;KALIMANTAN TENGAH;73751;Indonesia;8125058465;;;-17.194.651;114.832.174;https://maps.google.com/?cid=0x0:0xf570fbf4cc908722;
mall;Komplek perumahan;Warung wahyu;Jl. Pahlawan No.1, Buntok Kota, Kec. Dusun Sel., Kabupaten Barito Selatan, Kalimantan Tengah 73713;Buntok Kota, Kec. Dusun Sel., Kabupaten Barito Selatan;KALIMANTAN TENGAH;73713;Indonesia;;;;-17.153.527;1.148.468.779;https://maps.google.com/?cid=0x0:0xeedba4251a0153df;
mall;Toko Swalayan;Toko Rahman;Jl. Jaya Karsa No.06, Buntok Kota, Kec. Dusun Sel., Kabupaten Barito Selatan, Kalimantan Tengah 73712;Buntok Kota, Kec. Dusun Sel., Kabupaten Barito Selatan;KALIMANTAN TENGAH;73712;Indonesia;;;;-17.226.094;1.148.382.603;https://maps.google.com/?cid=0x0:0xdf701e13fd062aa1;
mall;;Toko Restu;7RJX+R4Q, Buntok Kota, Kec. Dusun Sel., Kabupaten Barito Selatan, Kalimantan Tengah 73713;Buntok Kota, Kec. Dusun Sel., Kabupaten Barito Selatan;KALIMANTAN TENGAH;73713;Indonesia;;;;-17.179.017;1.148.478.571;https://maps.google.com/?cid=0x0:0xc5d50cc3abc23b2e;
mall;Pusat Perbelanjaan;TOKO BULL PHOTO;pasar beringin, Buntok Kota, Kec. Dusun Sel., Kabupaten Barito Selatan, Kalimantan Tengah 73711;Buntok Kota, Kec. Dusun Sel., Kabupaten Barito Selatan;KALIMANTAN TENGAH;73711;Indonesia;82251367174;;;-17.194.196;1.148.322.057;https://maps.google.com/?cid=0x0:0x4e25b8c869645807;
mall;Mi;Mie Ayam dan Bakso Trioyono;7RHM+7FQ, Buntok Kota, Kec. Dusun Sel., Kabupaten Barito Selatan, Kalimantan Tengah 73751;Buntok Kota, Kec. Dusun Sel., Kabupaten Barito Selatan;KALIMANTAN TENGAH;73751;Indonesia;;;;-17.218.598;1.148.337.921;https://maps.google.com/?cid=0x0:0x19265b4ca8ef32f7;
mall;mall;Kalimantan Tengah 73713;Kabupaten Barito Selatan, Kalimantan Tengah;Kabupaten Barito Selatan, Kalimantan Tengah;KALIMANTAN TENGAH;;Indonesia;;;;-17.531.862;1.146.905.436;https://maps.google.com/?cid=0x0:0x1c28f022a25af1a5;
mall;Pusat Perbelanjaan;Plaza Beringin;7RHM+7H2, Pasar beringin, Buntok Kota, Kec. Dusun Sel., Kabupaten Barito Selatan, Kalimantan Tengah 73711;Pasar beringin, Buntok Kota, Kec. Dusun Sel., Kabupaten Barito Selatan;KALIMANTAN TENGAH;73711;Indonesia;;;;-17.218.618;1.148.339.035;https://maps.google.com/?cid=0x0:0xafcbc85d52db905d;
mall;Pusat Perbelanjaan;TOKO BULL PHOTO;pasar beringin, Buntok Kota, Kec. Dusun Sel., Kabupaten Barito Selatan, Kalimantan Tengah 73711;Buntok Kota, Kec. Dusun Sel., Kabupaten Barito Selatan;KALIMANTAN TENGAH;73711;Indonesia;82251367174;;;-17.194.196;1.148.322.057;https://maps.google.com/?cid=0x0:0x4e25b8c869645807;
mall;Pasar;Pasar Subuh Buntok;7RFM+2Q9 pengelola pasar subuh : Sugianto  Fahrudin, Jl. Kartini, Hilir Sper, Kec. Dusun Sel., Kabupaten Barito Selatan, Kalimantan Tengah 73751;Jl. Kartini, Hilir Sper, Kec. Dusun Sel., Kabupaten Barito Selatan;KALIMANTAN TENGAH;73751;Indonesia;81250094515;;;-17.274.542;1.148.344.918;https://maps.google.com/?cid=0x0:0x20300c9b3e3ea516;
mall;Toko Ikan;Ikan cupang buntok;Jl. H. Indar GG.nusa indah, Buntok, Kec. Dusun Sel., Kabupaten Barito Selatan, Kalimantan Tengah 73711;Buntok, Kec. Dusun Sel., Kabupaten Barito Selatan;KALIMANTAN TENGAH;73711;Indonesia;82359291831;;;-17.329.451;1.148.423.428;https://maps.google.com/?cid=0x0:0xf2e34532d8fe0050;
mall;;"Toko LINA""""";7RJJ+6V7, Jl. Merdeka Raya, Buntok Kota, Kec. Dusun Sel., Kabupaten Barito Selatan, Kalimantan Tengah 73751;Jl. Merdeka Raya, Buntok Kota, Kec. Dusun Sel., Kabupaten Barito Selatan;KALIMANTAN TENGAH;73751;Indonesia;8125058465;;;-17.194.651;114.832.174;https://maps.google.com/?cid=0x0:0xf570fbf4cc908722;
mall;Toko umum;Toko Rizki aulia;Jl. Merdeka Raya, Buntok Kota, Kec. Dusun Sel., Kabupaten Barito Selatan, Kalimantan Tengah 73751;Buntok Kota, Kec. Dusun Sel., Kabupaten Barito Selatan;KALIMANTAN TENGAH;73751;Indonesia;85252921020;;;-17.194.751;1.148.321.483;https://maps.google.com/?cid=0x0:0xae4908ed2b06b37;
mall;Toko;Lely Member MSI;Jl. Panglima Batur Gg. Kecil No.50, RT.012/RW.003, Buntok Kota, Kec. Dusun Sel., Kabupaten Barito Selatan, Kalimantan Tengah 73751;RT.012/RW.003, Buntok Kota, Kec. Dusun Sel., Kabupaten Barito Selatan;KALIMANTAN TENGAH;73751;Indonesia;81348191897;;;-17.205.893;1.148.369.863;https://maps.google.com/?cid=0x0:0x4efce8aea3bfbc00;
mall;Minimarket;Alfamart Kaladan Desa Hilir Sper;7R9V+78R, Hilir Sper, Kec. Dusun Sel., Kabupaten Barito Selatan, Kalimantan Tengah 73751;Hilir Sper, Kec. Dusun Sel., Kabupaten Barito Selatan;KALIMANTAN TENGAH;73751;Indonesia;;;;-17.317.654;1.148.432.807;https://maps.google.com/?cid=0x0:0x87514a489cda4a21;
mall;Komplek perumahan;Warung wahyu;Jl. Pahlawan No.1, Buntok Kota, Kec. Dusun Sel., Kabupaten Barito Selatan, Kalimantan Tengah 73713;Buntok Kota, Kec. Dusun Sel., Kabupaten Barito Selatan;KALIMANTAN TENGAH;73713;Indonesia;;;;-17.153.527;1.148.468.779;https://maps.google.com/?cid=0x0:0xeedba4251a0153df;
mall;Toko Sepatu;AV STORE;7RJM+99G, Buntok Kota, Kec. Dusun Sel., Kabupaten Barito Selatan, Kalimantan Tengah 73751;Buntok Kota, Kec. Dusun Sel., Kabupaten Barito Selatan;KALIMANTAN TENGAH;73751;Indonesia;;;;-171.909;1.148.334.831;https://maps.google.com/?cid=0x0:0x80ff240cb121b1fe;
mall;Komplek perumahan;Rumah Milagros;7R9R+CXF, Hilir Sper, Kec. Dusun Sel., Kabupaten Barito Selatan, Kalimantan Tengah 73751;Hilir Sper, Kec. Dusun Sel., Kabupaten Barito Selatan;KALIMANTAN TENGAH;73751;Indonesia;85245128333;;;-17.314.276;114.842.408;https://maps.google.com/?cid=0x0:0x52453c5620a42f3b;
mall;Toko Herbal;DC HNI HPAI dan BAM CARGO;Jl. Panglima Batur No.15, RT.14, Buntok Kota, Kec. Dusun Sel., Kabupaten Barito Selatan, Kalimantan Tengah 73751;RT.14, Buntok Kota, Kec. Dusun Sel., Kabupaten Barito Selatan;KALIMANTAN TENGAH;73751;Indonesia;81349404897;;;-17.176.932;1.148.373.153;https://maps.google.com/?cid=0x0:0xcd2960cd00db3b84;
mall;;Toko Restu;7RJX+R4Q, Buntok Kota, Kec. Dusun Sel., Kabupaten Barito Selatan, Kalimantan Tengah 73713;Buntok Kota, Kec. Dusun Sel., Kabupaten Barito Selatan;KALIMANTAN TENGAH;73713;Indonesia;;;;-17.179.017;1.148.478.571;https://maps.google.com/?cid=0x0:0xc5d50cc3abc23b2e;
mall;Toko Swalayan;Toko Rahman;Jl. Jaya Karsa No.06, Buntok Kota, Kec. Dusun Sel., Kabupaten Barito Selatan, Kalimantan Tengah 73712;Buntok Kota, Kec. Dusun Sel., Kabupaten Barito Selatan;KALIMANTAN TENGAH;73712;Indonesia;;;;-17.226.094;1.148.382.603;https://maps.google.com/?cid=0x0:0xdf701e13fd062aa1;
mall;Komplek perumahan;Pasar Talio;5R4H+J4M, Talio, Kec. Karau Kuala, Kabupaten Barito Selatan, Kalimantan Tengah 73713;Talio, Kec. Karau Kuala, Kabupaten Barito Selatan;KALIMANTAN TENGAH;73713;Indonesia;;;;-18.434.146;1.148.278.107;https://maps.google.com/?cid=0x0:0x897c34ba2e1635e5;
mall;Toko Kesehatan dan Kecantikan;Halisa humaira 'RUMAH MADU ASLI';7RCM+CFP, Jl. Kartini Gg sekawan, Buntok Kota, Kec. Dusun Sel., Kabupaten Barito Selatan, Kalimantan Tengah 73751;Jl. Kartini Gg sekawan, Buntok Kota, Kec. Dusun Sel., Kabupaten Barito Selatan;KALIMANTAN TENGAH;73751;Indonesia;82357087495;;;-17.289.096;1.148.337.105;https://maps.google.com/?cid=0x0:0xca93dc950ca9c749;
mall;Toko Pakaian;PermataSport Store Buntok;7RGM+W4X, Jl. Panglima Batur, Buntok Kota, Kec. Dusun Sel., Kabupaten Barito Selatan, Kalimantan Tengah 73751;Jl. Panglima Batur, Buntok Kota, Kec. Dusun Sel., Kabupaten Barito Selatan;KALIMANTAN TENGAH;73751;Indonesia;82244899363;;;-17.226.317;1.148.328.652;https://maps.google.com/?cid=0x0:0x656f6300e3d58e19;
mall;Pusat Perbelanjaan;Rizquna Sport;7RHQ+F46, Jl. Pembangunan, Buntok Kota, Kec. Dusun Sel., Kabupaten Barito Selatan, Kalimantan Tengah 73751;Jl. Pembangunan, Buntok Kota, Kec. Dusun Sel., Kabupaten Barito Selatan;KALIMANTAN TENGAH;73751;Indonesia;;;;-17.213.485;114.837.774;https://maps.google.com/?cid=0x0:0xff6963efd2758ff1;
mall;Toko bahan makanan;Faiz Shop;7RGR+W4J, Hilir Sper, Kec. Dusun Sel., Kabupaten Barito Selatan, Kalimantan Tengah 73751;Hilir Sper, Kec. Dusun Sel., Kabupaten Barito Selatan;KALIMANTAN TENGAH;73751;Indonesia;85250869292;;;-17.226.631;114.840.278;https://maps.google.com/?cid=0x0:0xd58ae5f086f66690;
mall;mall;Kalimantan Tengah 73751;Kec. Dusun Sel., Kabupaten Barito Selatan, Kalimantan Tengah;Kabupaten Barito Selatan, Kalimantan Tengah;KALIMANTAN TENGAH;;Indonesia;;;;-16.899.287;1.147.736.556;https://maps.google.com/?cid=0x0:0xfd0ed3d130200b49;
mall;Pusat Perbelanjaan;Plaza Beringin;7RHM+7H2, Pasar beringin, Buntok Kota, Kec. Dusun Sel., Kabupaten Barito Selatan, Kalimantan Tengah 73711;Pasar beringin, Buntok Kota, Kec. Dusun Sel., Kabupaten Barito Selatan;KALIMANTAN TENGAH;73711;Indonesia;;;;-17.218.618;1.148.339.035;https://maps.google.com/?cid=0x0:0xafcbc85d52db905d;
mall;Pemandian Umum;Rawen;7RVV+8XC, Buntok Kota, Kec. Dusun Sel., Kabupaten Barito Selatan, Kalimantan Tengah 73751;Buntok Kota, Kec. Dusun Sel., Kabupaten Barito Selatan;KALIMANTAN TENGAH;73751;Indonesia;;;;-17.066.776;114.844.879;https://maps.google.com/?cid=0x0:0x6ea551aee23b7682;
mall;Toko;Lely Member MSI;Jl. Panglima Batur Gg. Kecil No.50, RT.012/RW.003, Buntok Kota, Kec. Dusun Sel., Kabupaten Barito Selatan, Kalimantan Tengah 73751;RT.012/RW.003, Buntok Kota, Kec. Dusun Sel., Kabupaten Barito Selatan;KALIMANTAN TENGAH;73751;Indonesia;81348191897;;;-17.205.893;1.148.369.863;https://maps.google.com/?cid=0x0:0x4efce8aea3bfbc00;
mall;Pusat Perbelanjaan;TOKO BULL PHOTO;pasar beringin, Buntok Kota, Kec. Dusun Sel., Kabupaten Barito Selatan, Kalimantan Tengah 73711;Buntok Kota, Kec. Dusun Sel., Kabupaten Barito Selatan;KALIMANTAN TENGAH;73711;Indonesia;82251367174;;;-17.194.196;1.148.322.057;https://maps.google.com/?cid=0x0:0x4e25b8c869645807;
mall;Minimarket;Alfamart Kaladan Desa Hilir Sper;7R9V+78R, Hilir Sper, Kec. Dusun Sel., Kabupaten Barito Selatan, Kalimantan Tengah 73751;Hilir Sper, Kec. Dusun Sel., Kabupaten Barito Selatan;KALIMANTAN TENGAH;73751;Indonesia;;;;-17.317.654;1.148.432.807;https://maps.google.com/?cid=0x0:0x87514a489cda4a21;
mall;;"Toko LINA""""";7RJJ+6V7, Jl. Merdeka Raya, Buntok Kota, Kec. Dusun Sel., Kabupaten Barito Selatan, Kalimantan Tengah 73751;Jl. Merdeka Raya, Buntok Kota, Kec. Dusun Sel., Kabupaten Barito Selatan;KALIMANTAN TENGAH;73751;Indonesia;8125058465;;;-17.194.651;114.832.174;https://maps.google.com/?cid=0x0:0xf570fbf4cc908722;
mall;Toko umum;Toko Rizki aulia;Jl. Merdeka Raya, Buntok Kota, Kec. Dusun Sel., Kabupaten Barito Selatan, Kalimantan Tengah 73751;Buntok Kota, Kec. Dusun Sel., Kabupaten Barito Selatan;KALIMANTAN TENGAH;73751;Indonesia;85252921020;;;-17.194.751;1.148.321.483;https://maps.google.com/?cid=0x0:0xae4908ed2b06b37;
mall;Komplek perumahan;Rumah Milagros;7R9R+CXF, Hilir Sper, Kec. Dusun Sel., Kabupaten Barito Selatan, Kalimantan Tengah 73751;Hilir Sper, Kec. Dusun Sel., Kabupaten Barito Selatan;KALIMANTAN TENGAH;73751;Indonesia;85245128333;;;-17.314.276;114.842.408;https://maps.google.com/?cid=0x0:0x52453c5620a42f3b;
mall;Toko Sepatu;AV STORE;7RJM+99G, Buntok Kota, Kec. Dusun Sel., Kabupaten Barito Selatan, Kalimantan Tengah 73751;Buntok Kota, Kec. Dusun Sel., Kabupaten Barito Selatan;KALIMANTAN TENGAH;73751;Indonesia;;;;-171.909;1.148.334.831;https://maps.google.com/?cid=0x0:0x80ff240cb121b1fe;
mall;Toko Herbal;DC HNI HPAI dan BAM CARGO;Jl. Panglima Batur No.15, RT.14, Buntok Kota, Kec. Dusun Sel., Kabupaten Barito Selatan, Kalimantan Tengah 73751;RT.14, Buntok Kota, Kec. Dusun Sel., Kabupaten Barito Selatan;KALIMANTAN TENGAH;73751;Indonesia;81349404897;;;-17.176.932;1.148.373.153;https://maps.google.com/?cid=0x0:0xcd2960cd00db3b84;
mall;Toko Ikan;Ikan cupang buntok;Jl. H. Indar GG.nusa indah, Buntok, Kec. Dusun Sel., Kabupaten Barito Selatan, Kalimantan Tengah 73711;Buntok, Kec. Dusun Sel., Kabupaten Barito Selatan;KALIMANTAN TENGAH;73711;Indonesia;82359291831;;;-17.329.451;1.148.423.428;https://maps.google.com/?cid=0x0:0xf2e34532d8fe0050;
mall;Toko bahan makanan;Faiz Shop;7RGR+W4J, Hilir Sper, Kec. Dusun Sel., Kabupaten Barito Selatan, Kalimantan Tengah 73751;Hilir Sper, Kec. Dusun Sel., Kabupaten Barito Selatan;KALIMANTAN TENGAH;73751;Indonesia;85250869292;;;-17.226.631;114.840.278;https://maps.google.com/?cid=0x0:0xd58ae5f086f66690;
mall;Toko Pakaian;PermataSport Store Buntok;7RGM+W4X, Jl. Panglima Batur, Buntok Kota, Kec. Dusun Sel., Kabupaten Barito Selatan, Kalimantan Tengah 73751;Jl. Panglima Batur, Buntok Kota, Kec. Dusun Sel., Kabupaten Barito Selatan;KALIMANTAN TENGAH;73751;Indonesia;82244899363;;;-17.226.317;1.148.328.652;https://maps.google.com/?cid=0x0:0x656f6300e3d58e19;
mall;Toko;Warung Jerri;7RFQ+665, Hilir Sper, Kec. Dusun Sel., Kabupaten Barito Selatan, Kalimantan Tengah 73751;Hilir Sper, Kec. Dusun Sel., Kabupaten Barito Selatan;KALIMANTAN TENGAH;73751;Indonesia;85251710048;;;-17.269.899;1.148.380.994;https://maps.google.com/?cid=0x0:0xdb78bd74fa877336;
mall;Toko Perlengkapan Rumah;Musdalifah OLSHOP;7RCQ+WGF, Jl. Ibunda Gg.Nusantara, Hilir Sper, Kec. Dusun Sel., Kabupaten Barito Selatan, Kalimantan Tengah 73751;Jl. Ibunda Gg.Nusantara, Hilir Sper, Kec. Dusun Sel., Kabupaten Barito Selatan;KALIMANTAN TENGAH;73751;Indonesia;82252707004;;;-1.727.691;1.148.388.102;https://maps.google.com/?cid=0x0:0xc068c723e889dc07;
mall;Toko Kesehatan dan Kecantikan;Halisa humaira 'RUMAH MADU ASLI';7RCM+CFP, Jl. Kartini Gg sekawan, Buntok Kota, Kec. Dusun Sel., Kabupaten Barito Selatan, Kalimantan Tengah 73751;Jl. Kartini Gg sekawan, Buntok Kota, Kec. Dusun Sel., Kabupaten Barito Selatan;KALIMANTAN TENGAH;73751;Indonesia;82357087495;;;-17.289.096;1.148.337.105;https://maps.google.com/?cid=0x0:0xca93dc950ca9c749;
mall;Pusat Perbelanjaan;Rizquna Sport;7RHQ+F46, Jl. Pembangunan, Buntok Kota, Kec. Dusun Sel., Kabupaten Barito Selatan, Kalimantan Tengah 73751;Jl. Pembangunan, Buntok Kota, Kec. Dusun Sel., Kabupaten Barito Selatan;KALIMANTAN TENGAH;73751;Indonesia;;;;-17.213.485;114.837.774;https://maps.google.com/?cid=0x0:0xff6963efd2758ff1;
mall;;Toko Restu;7RJX+R4Q, Buntok Kota, Kec. Dusun Sel., Kabupaten Barito Selatan, Kalimantan Tengah 73713;Buntok Kota, Kec. Dusun Sel., Kabupaten Barito Selatan;KALIMANTAN TENGAH;73713;Indonesia;;;;-17.179.017;1.148.478.571;https://maps.google.com/?cid=0x0:0xc5d50cc3abc23b2e;
mall;Toko Swalayan;Toko Rahman;Jl. Jaya Karsa No.06, Buntok Kota, Kec. Dusun Sel., Kabupaten Barito Selatan, Kalimantan Tengah 73712;Buntok Kota, Kec. Dusun Sel., Kabupaten Barito Selatan;KALIMANTAN TENGAH;73712;Indonesia;;;;-17.226.094;1.148.382.603;https://maps.google.com/?cid=0x0:0xdf701e13fd062aa1;
mall;Toko;Hanafi sembako murah;7RFP+525, Jl. Patianom, Hilir Sper, Kec. Dusun Sel., Kabupaten Barito Selatan, Kalimantan Tengah 73751;Jl. Patianom, Hilir Sper, Kec. Dusun Sel., Kabupaten Barito Selatan;KALIMANTAN TENGAH;73751;Indonesia;;;;-17.271.246;1.148.350.976;https://maps.google.com/?cid=0x0:0x759eae049621d8b3;
mall;Toko bahan makanan;Warung Lida;6RF5+RJQ, Jl. Barito, Baru, Kec. Dusun Sel., Kabupaten Barito Selatan, Kalimantan Tengah 73751;Jl. Barito, Baru, Kec. Dusun Sel., Kabupaten Barito Selatan;KALIMANTAN TENGAH;73751;Indonesia;82255683114;;;-1.775.408;1.148.091.127;https://maps.google.com/?cid=0x0:0x4549e751d3ba91ff;
mall;mall;Kalimantan Tengah 73752;Kabupaten Barito Selatan, Kalimantan Tengah;Kabupaten Barito Selatan, Kalimantan Tengah;KALIMANTAN TENGAH;;Indonesia;;;;-14.856.175;1.148.567.482;https://maps.google.com/?cid=0x0:0x9e89593c92bb4954;
mall;Pasar;Pasar Pendang;FVVG+927, Unnamed Road, Pendang, Kec. Dusun Utara, Kabupaten Barito Selatan, Kalimantan Tengah 73752;Unnamed Road, Pendang, Kec. Dusun Utara, Kabupaten Barito Selatan;KALIMANTAN TENGAH;73752;Indonesia;;;;-15.065.898;1.148.750.569;https://maps.google.com/?cid=0x0:0x68dc21edffe3db02;
mall;Toko;NATHAKA RUMAH Wifi Tarusan;JV86+M3X, Tarusan, Kec. Dusun Utara, Kabupaten Barito Selatan, Kalimantan Tengah 73861;Tarusan, Kec. Dusun Utara, Kabupaten Barito Selatan;KALIMANTAN TENGAH;73861;Indonesia;;;;-13.832.675;1.148.602.287;https://maps.google.com/?cid=0x0:0xd1175e153ef55b35;
mall;mall;Pasar Walang;GW6H+7MJ, Talekoi, Kec. Dusun Utara, Kabupaten Barito Selatan, Kalimantan Tengah 73752;Talekoi, Kec. Dusun Utara, Kabupaten Barito Selatan;KALIMANTAN TENGAH;73752;Indonesia;;;;-14.892.881;1.149.291.376;https://maps.google.com/?cid=0x0:0x57f5f6f27935817a;
mall;mall;Toko Budi Anggara;FVVM+RHH market coal jetty, Pendang, Kec. Dusun Utara, Kabupaten Barito Selatan, Kalimantan Tengah 73752;Pendang, Kec. Dusun Utara, Kabupaten Barito Selatan;KALIMANTAN TENGAH;73752;Indonesia;;;;-15.054.429;1.148.839.859;https://maps.google.com/?cid=0x0:0x630c5a4e2373e881;
mall;mall;Nathaka Cell  Comp Tarusan;JV86+P5M, Tarusan, Kec. Dusun Utara, Kabupaten Barito Selatan, Kalimantan Tengah 73861;Tarusan, Kec. Dusun Utara, Kabupaten Barito Selatan;KALIMANTAN TENGAH;73861;Indonesia;;;;-13.831.538;1.148.604.343;https://maps.google.com/?cid=0x0:0xd76cd859965a692e;
mall;Pusat Perbelanjaan;Plaza Beringin;7RHM+7H2, Pasar beringin, Buntok Kota, Kec. Dusun Sel., Kabupaten Barito Selatan, Kalimantan Tengah 73711;Pasar beringin, Buntok Kota, Kec. Dusun Sel., Kabupaten Barito Selatan;KALIMANTAN TENGAH;73711;Indonesia;;;;-17.218.618;1.148.339.035;https://maps.google.com/?cid=0x0:0xafcbc85d52db905d;
mall;mall;Kalimantan Tengah 73753;Kec. Gn. Bintang Awai, Kabupaten Barito Selatan, Kalimantan Tengah;Kabupaten Barito Selatan, Kalimantan Tengah;KALIMANTAN TENGAH;;Indonesia;;;;-14.821.804;115.141.484;https://maps.google.com/?cid=0x0:0x51e61e4a4ea8d4dc;
mall;Toko umum;Pasar Patas I;F585+GW5, Patas I, Kec. Gn. Bintang Awai, Kabupaten Barito Selatan, Kalimantan Tengah 73753;Patas I, Kec. Gn. Bintang Awai, Kabupaten Barito Selatan;KALIMANTAN TENGAH;73753;Indonesia;81345400207;;;-15.337.471;1.151.598.472;https://maps.google.com/?cid=0x0:0x6839da1119c7fe61;
mall;Toko;Toko Daffa;F576+W3H, Jl. Negara Ampah-Muarateweh, Patas I, Kec. Gn. Bintang Awai, Kabupaten Barito Selatan, Kalimantan Tengah 73753;Jl. Negara Ampah-Muarateweh, Patas I, Kec. Gn. Bintang Awai, Kabupaten Barito Selatan;KALIMANTAN TENGAH;73753;Indonesia;;;;-15.351.975;1.151.602.265;https://maps.google.com/?cid=0x0:0xabe8fdaf3c781514;
mall;Toko umum;Syauqi (Isi Ulang Air Minum);Patas I, Kec. Gn. Bintang Awai, Kabupaten Barito Selatan, Kalimantan Tengah 73753;Kec. Gn. Bintang Awai, Kabupaten Barito Selatan;KALIMANTAN TENGAH;73753;Indonesia;82255115233;;;-15.288.285;1.151.601.671;https://maps.google.com/?cid=0x0:0xa0d6706ca5a6249e;
mall;Pusat Perbelanjaan;Warung Mama Adul;J7R5+CXF, Ngurit, Kec. Gn. Bintang Awai, Kabupaten Barito Selatan, Kalimantan Tengah 73862;Ngurit, Kec. Gn. Bintang Awai, Kabupaten Barito Selatan;KALIMANTAN TENGAH;73862;Indonesia;;;;-13.589.372;115.259.922;https://maps.google.com/?cid=0x0:0x315942fac903c445;
mall;Pasar;Alfamart ugang sayu;94GW+F69, Unnamed Road, Palu Rejo, Kec. Gn. Bintang Awai, Kabupaten Barito Selatan, Kalimantan Tengah 73652;Unnamed Road, Palu Rejo, Kec. Gn. Bintang Awai, Kabupaten Barito Selatan;KALIMANTAN TENGAH;73652;Indonesia;;;;-162.383;1.151.456.083;https://maps.google.com/?cid=0x0:0xa1d31067dde93b85;
mall;Pasar;PASAR DESA PALUREJO;95GJ+8GC, Palu Rejo, Kec. Gn. Bintang Awai, Kabupaten Barito Selatan, Kalimantan Tengah 73652;Palu Rejo, Kec. Gn. Bintang Awai, Kabupaten Barito Selatan;KALIMANTAN TENGAH;73652;Indonesia;;;;-16.241.762;1.151.812.759;https://maps.google.com/?cid=0x0:0x8d4ff267aa4f101f;
mall;Toko;TOKO ANDIPUTRI;J7PH+PFW, Ngurit, Kec. Gn. Bintang Awai, Kabupaten Barito Selatan, Kalimantan Tengah;Kabupaten Barito Selatan, Kalimantan Tengah;KALIMANTAN TENGAH;;Indonesia;;;;-1.363.146;1.152.786.981;https://maps.google.com/?cid=0x0:0xf836b2a5d1b8b379;
mall;Komplek perumahan;Pasar Batu Raya I;J7W6+W2P, Unnamed Rd, Gn. Bintang Awai,, Ngurit, Kec. Gn. Bintang Awai, Kabupaten Barito Selatan, Kalimantan Tengah 73862;Unnamed Rd, Gn. Bintang Awai,, Ngurit, Kec. Gn. Bintang Awai, Kabupaten Barito Selatan;KALIMANTAN TENGAH;73862;Indonesia;;;;-13.526.716;1.152.600.866;https://maps.google.com/?cid=0x0:0xc20fd1629885de64;
mall;Pusat Perbelanjaan;putri karuniani;94FW+94P, Ugang Sayu, Kec. Gn. Bintang Awai, Kabupaten Barito Selatan, Kalimantan Tengah 73652;Ugang Sayu, Kec. Gn. Bintang Awai, Kabupaten Barito Selatan;KALIMANTAN TENGAH;73652;Indonesia;;;;-16.265.436;1.151.453.364;https://maps.google.com/?cid=0x0:0xa706f7d220801e3a;
mall;Toko Swalayan;Toko Eko Dan Jais;F595+4H9, Patas I, Kec. Gn. Bintang Awai, Kabupaten Barito Selatan, Kalimantan Tengah 73753;Patas I, Kec. Gn. Bintang Awai, Kabupaten Barito Selatan;KALIMANTAN TENGAH;73753;Indonesia;81250523781;;;-153.221;1.151.589.734;https://maps.google.com/?cid=0x0:0x4aa423fc6d1c2c7d;
mall;Pusat Perbelanjaan;Warung Mama Sarah;J7PJ+V23, Ngurit, Kec. Gn. Bintang Awai, Kabupaten Barito Selatan, Kalimantan Tengah 73862;Ngurit, Kec. Gn. Bintang Awai, Kabupaten Barito Selatan;KALIMANTAN TENGAH;73862;Indonesia;;;;-13.628.507;1.152.800.349;https://maps.google.com/?cid=0x0:0xd1e2a12d8912771a;
mall;Kios;3M-kios Moldy,MarshellMonica;Unnamed Road, Ngurit, Kec. Gn. Bintang Awai, Kabupaten Barito Selatan, Kalimantan Tengah 73862;Ngurit, Kec. Gn. Bintang Awai, Kabupaten Barito Selatan;KALIMANTAN TENGAH;73862;Indonesia;;;;-1.362.589;115.280.528;https://maps.google.com/?cid=0x0:0xae8a8dbe8b44efde;
mall;Toko Kosmetik;MS GLOW UGANG SAYU;948W+2W8, Unnamed Road, Palu Rejo, Kec. Gn. Bintang Awai, Kabupaten Barito Selatan, Kalimantan Tengah 73652;Unnamed Road, Palu Rejo, Kec. Gn. Bintang Awai, Kabupaten Barito Selatan;KALIMANTAN TENGAH;73652;Indonesia;82323632716;;;-16.349.566;1.151.473.319;https://maps.google.com/?cid=0x0:0xb5b0853e9e4215c7;
mall;Pusat Perbelanjaan;Plaza Beringin;7RHM+7H2, Pasar beringin, Buntok Kota, Kec. Dusun Sel., Kabupaten Barito Selatan, Kalimantan Tengah 73711;Pasar beringin, Buntok Kota, Kec. Dusun Sel., Kabupaten Barito Selatan;KALIMANTAN TENGAH;73711;Indonesia;;;;-17.218.618;1.148.339.035;https://maps.google.com/?cid=0x0:0xafcbc85d52db905d;
mall;Toko;*RETNO*;H4VQ+5XJ, Unnamed Road, Bantai Bambure, Kec. Dusun Utara, Kabupaten Barito Selatan, Kalimantan Tengah 73753;Unnamed Road, Bantai Bambure, Kec. Dusun Utara, Kabupaten Barito Selatan;KALIMANTAN TENGAH;73753;Indonesia;83152702333;;;-14.070.474;1.151.398.995;https://maps.google.com/?cid=0x0:0x69e2dbcc4b07b783;
mall;mall;toko Devi mart;F595+W35, Jl. Hohoreh, Patas I, Kec. Gn. Bintang Awai, Kabupaten Barito Selatan, Kalimantan Tengah 73753;Jl. Hohoreh, Patas I, Kec. Gn. Bintang Awai, Kabupaten Barito Selatan;KALIMANTAN TENGAH;73753;Indonesia;;;;-15.300.953;1.151.581.215;https://maps.google.com/?cid=0x0:0x91fc98c3af85f0f9;
mall;mall;TOKO MUHAMMAD IKMAL;F585+JQJ, Jl. Negara Ampah-Muarateweh, Patas I, Kec. Gn. Bintang Awai, Kabupaten Barito Selatan, Kalimantan Tengah 73753;Jl. Negara Ampah-Muarateweh, Patas I, Kec. Gn. Bintang Awai, Kabupaten Barito Selatan;KALIMANTAN TENGAH;73753;Indonesia;;;;-15.334.172;1.151.594.035;https://maps.google.com/?cid=0x0:0xa057c265734f755b;
mall;mall;Kec. Gn. Bintang Awai;Kabupaten Barito Selatan, Kalimantan Tengah;Kabupaten Barito Selatan, Kalimantan Tengah;KALIMANTAN TENGAH;;Indonesia;;;;-14.810.273;1.152.363.408;https://maps.google.com/?cid=0x0:0x55d1d750ea1055c;
mall;Komplek perumahan;Pasar Batu Raya I;Blok Batu Raya I, Ngurit, Kec. Gn. Timang, Kabupaten Barito Utara, Kalimantan Tengah 73862;Ngurit, Kec. Gn. Timang, Kabupaten Barito Utara;KALIMANTAN TENGAH;73862;Indonesia;;;;-13.528.365;1.152.604.206;https://maps.google.com/?cid=0x0:0xa8e432917e6d19a;
mall;mall;Kalimantan Tengah 73763;Kec. Jenamas, Kabupaten Barito Selatan, Kalimantan Tengah;Kabupaten Barito Selatan, Kalimantan Tengah;KALIMANTAN TENGAH;;Indonesia;;;;-234.059;1.148.567.482;https://maps.google.com/?cid=0x0:0x37fa6b040b7959f6;
mall;Toko umum;Pasar Jenamas;HW26+MWR, Rantau Kujang, Kec. Jenamas, Kabupaten Barito Selatan, Kalimantan Tengah 73763;Rantau Kujang, Kec. Jenamas, Kabupaten Barito Selatan;KALIMANTAN TENGAH;73763;Indonesia;;;;-24.482.638;1.149.122.677;https://maps.google.com/?cid=0x0:0xcb52d8b198a69a21;
mall;Komplek perumahan;Sarmadani;GVWJ+43G, Tampulang, Kec. Jenamas, Kabupaten Barito Selatan, Kalimantan Tengah 73763;Tampulang, Kec. Jenamas, Kabupaten Barito Selatan;KALIMANTAN TENGAH;73763;Indonesia;;;;-24.546.877;1.148.801.973;https://maps.google.com/?cid=0x0:0xedc52619645fc3ab;
mall;Pusat Perbelanjaan;Komplek Pasar Jenamas;JW8Q+9WW, Rantau kujang, jalan karya Bhakti, komplek Pasar, Kec. Jenamas, Kabupaten Barito Selatan, Kalimantan Tengah;Kabupaten Barito Selatan, Kalimantan Tengah;KALIMANTAN TENGAH;;Indonesia;;;;-23.840.123;114.939.821;https://maps.google.com/?cid=0x0:0xb6afa24c2d92e86f;
mall;Toko Swalayan;JUAL BAHAN SEMBAKO ZAHRA RIZKY;RT.10/RW.3, Rangga Ilung, Kec. Jenamas, Kabupaten Barito Selatan, Kalimantan Tengah 73763;Rangga Ilung, Kec. Jenamas, Kabupaten Barito Selatan;KALIMANTAN TENGAH;73763;Indonesia;82236929683;;;-23.305.454;1.148.769.448;https://maps.google.com/?cid=0x0:0x35572cd31c96768b;
mall;Pusat Perbelanjaan;KIOS ISTIQOMAH;QV87+GJ6, Mengkatip, Kec. Dusun Hilir, Kabupaten Barito Selatan, Kalimantan Tengah 73762;Mengkatip, Kec. Dusun Hilir, Kabupaten Barito Selatan;KALIMANTAN TENGAH;73762;Indonesia;;;;-22.337.011;1.148.640.102;https://maps.google.com/?cid=0x0:0x20b8bd1c8372e3a7;
mall;Pasar;PASAR TELANG BARU;QWCV+2XP, Telang Baru, Kec. Paju Epat, Kabupaten Barito Timur, Kalimantan Tengah 73762;Telang Baru, Kec. Paju Epat, Kabupaten Barito Timur;KALIMANTAN TENGAH;73762;Indonesia;;;;-22.299.236;1.149.449.609;https://maps.google.com/?cid=0x0:0x3fe2dc4b62976cec;
mall;Pusat Perbelanjaan;Toko Pa jamal;QV95+9FF, Mengkatip, Kec. Dusun Hilir, Kabupaten Barito Selatan, Kalimantan Tengah 73762;Mengkatip, Kec. Dusun Hilir, Kabupaten Barito Selatan;KALIMANTAN TENGAH;73762;Indonesia;;;;-22.315.632;1.148.586.577;https://maps.google.com/?cid=0x0:0x944e117e74271881;
mall;Pusat Perbelanjaan;Pasar Selasa Mengkatip;QRPX+P95, Unnamed Road, Mengkatip, Kec. Dusun Hilir, Kabupaten Barito Selatan, Kalimantan Tengah 73762;Unnamed Road, Mengkatip, Kec. Dusun Hilir, Kabupaten Barito Selatan;KALIMANTAN TENGAH;73762;Indonesia;;;;-22.132.267;1.148.484.736;https://maps.google.com/?cid=0x0:0x15a5905cb44ca4e0;
mall;Toko bahan makanan;Toko Mama Ijum;PWXW+P3W, Unnamed Road, Juru Banu, Kec. Paju Epat, Kabupaten Barito Timur, Kalimantan Tengah 73762;Unnamed Road, Juru Banu, Kec. Paju Epat, Kabupaten Barito Timur;KALIMANTAN TENGAH;73762;Indonesia;;;;-2.250.631;1.149.452.149;https://maps.google.com/?cid=0x0:0xae1103d26005e98d;
mall;mall;Kalimantan Tengah 73761;Kabupaten Barito Selatan, Kalimantan Tengah;Kabupaten Barito Selatan, Kalimantan Tengah;KALIMANTAN TENGAH;;Indonesia;;;;-20.019.069;1.147.380.385;https://maps.google.com/?cid=0x0:0xf4482425825ffff8;
mall;Pusat Perbelanjaan;waroeng Mirza;2RWP+G95, Babai, Kec. Karau Kuala, Kabupaten Barito Selatan, Kalimantan Tengah 73617;Babai, Kec. Karau Kuala, Kabupaten Barito Selatan;KALIMANTAN TENGAH;73617;Indonesia;81348231820;;;-1.953.727;114.835.999;https://maps.google.com/?cid=0x0:0x62e03fe9d8996bb8;
mall;Pusat Perbelanjaan;Warung DEWI TUNGGAL;WVVR+247, Salat Baru, Kec. Karau Kuala, Kabupaten Barito Selatan, Kalimantan Tengah 73617;Salat Baru, Kec. Karau Kuala, Kabupaten Barito Selatan;KALIMANTAN TENGAH;73617;Indonesia;;;;-20.574.657;1.148.903.114;https://maps.google.com/?cid=0x0:0x88deefbc0a11d612;
mall;Pusat Perbelanjaan;Azmi;XV3X+GP8, Bangkuang, Kec. Karau Kuala, Kabupaten Barito Selatan, Kalimantan Tengah 73617;Bangkuang, Kec. Karau Kuala, Kabupaten Barito Selatan;KALIMANTAN TENGAH;73617;Indonesia;82350582781;;;-20.462.148;1.148.993.298;https://maps.google.com/?cid=0x0:0x5edd4b29fb4497f1;
mall;;Kios indah;5R2P+QM8, Talio, Kec. Karau Kuala, Kabupaten Barito Selatan, Kalimantan Tengah 73713;Talio, Kec. Karau Kuala, Kabupaten Barito Selatan;KALIMANTAN TENGAH;73713;Indonesia;;;;-1.847.507;114.835.937;https://maps.google.com/?cid=0x0:0x2b5f05f392874902;
mall;Pusat Perbelanjaan;KIOS SEMBAKO RIPANA;XR76+379, Jembatan sei Bangkuang, Batilap, Kec. Dusun Hilir, Kabupaten Barito Selatan, Kalimantan Tengah;Kabupaten Barito Selatan, Kalimantan Tengah;KALIMANTAN TENGAH;;Indonesia;;;;-2.037.859;1.148.107.794;https://maps.google.com/?cid=0x0:0xe24aaab2fc58662d;
mall;Pusat Perbelanjaan;KIOS H.CAKAM;XR76+FC, Batilap, Kec. Dusun Hilir, Kabupaten Barito Selatan, Kalimantan Tengah 73617;Batilap, Kec. Dusun Hilir, Kabupaten Barito Selatan;KALIMANTAN TENGAH;73617;Indonesia;;;;-20.362.996;1.148.104.656;https://maps.google.com/?cid=0x0:0xd8aafd7df8a4c807;
mall;Pusat Perbelanjaan;KIOS SELPI;XR76+994, Batilap, Kec. Dusun Hilir, Kabupaten Barito Selatan, Kalimantan Tengah;Kabupaten Barito Selatan, Kalimantan Tengah;KALIMANTAN TENGAH;;Indonesia;;;;-20.369.643;1.148.107.351;https://maps.google.com/?cid=0x0:0x77bc2910dae47b40;
mall;Pusat Perbelanjaan;Palangkaraya Mall (Palma);Jl. Tjilik Riwut No.1, Palangka, Kec. Jekan Raya, Kota Palangka Raya, Kalimantan Tengah 74874;Palangka, Kec. Jekan Raya, Kota Palangka Raya;KALIMANTAN TENGAH;74874;Indonesia;;;;-22.065.433;1.139.154.004;https://maps.google.com/?cid=0x0:0xe30705d17366c7e0;
mall;Pusat Perbelanjaan;KIOS SEMBAKO RINA;XR86+G7X, Batilap, Kec. Dusun Hilir, Kabupaten Barito Selatan, Kalimantan Tengah;Kabupaten Barito Selatan, Kalimantan Tengah;KALIMANTAN TENGAH;;Indonesia;;;;-20.345.896;1.148.109.338;https://maps.google.com/?cid=0x0:0xdd19de484b22e921;
mall;Pusat Perbelanjaan;KIOS SEMBAKO ADELIN;XR76+994, Batilap, Kec. Dusun Hilir, Kabupaten Barito Selatan, Kalimantan Tengah;Kabupaten Barito Selatan, Kalimantan Tengah;KALIMANTAN TENGAH;;Indonesia;;;;-20.370.394;1.148.106.872;https://maps.google.com/?cid=0x0:0xe19ba30a254cc465;
mall;Kantor Pemerintahan Daerah;Kantor Camat Karau Kuala;XV6V+G4X, Bangkuang, Kec. Karau Kuala, Kabupaten Barito Selatan, Kalimantan Tengah 73617;Bangkuang, Kec. Karau Kuala, Kabupaten Barito Selatan;KALIMANTAN TENGAH;73617;Indonesia;;;;-20.386.464;1.148.928.718;https://maps.google.com/?cid=0x0:0xed88b4796a08c78d;
mall;Sekolah menengah;SMA NEGERI 1 KARAU KUALA;Bangkuang, Kec. Karau Kuala, Kabupaten Barito Selatan, Kalimantan Tengah 73617;Kec. Karau Kuala, Kabupaten Barito Selatan;KALIMANTAN TENGAH;73617;Indonesia;;;;-20.418.161;1.148.958.346;https://maps.google.com/?cid=0x0:0x770e2c4ddef77136;
supermarket;supermarket;Kalimantan Tengah 73762;Kec. Dusun Hilir, Kabupaten Barito Selatan, Kalimantan Tengah;Kabupaten Barito Selatan, Kalimantan Tengah;KALIMANTAN TENGAH;;Indonesia;;;;-22.001.952;1.146.667.939;https://maps.google.com/?cid=0x0:0xc04a708e6544057b;
supermarket;Toko bahan makanan;Minimarket Klanis Pak Penghulu;PVPW+2X2, Kalanis, Kec. Dusun Hilir, Kabupaten Barito Selatan, Kalimantan Tengah 73763;Kalanis, Kec. Dusun Hilir, Kabupaten Barito Selatan;KALIMANTAN TENGAH;73763;Indonesia;;;;-226.499;1.148.973.979;https://maps.google.com/?cid=0x0:0x5b990ef6fe5c899;
supermarket;Toko bahan makanan;Toko Pemi;239G+M95, Jl. Tamiyang Layang - Ampah Ampah, Dayu, Kec. Dusun Tim., Kabupaten Barito Timur, Kalimantan Tengah 73652;Jl. Tamiyang Layang - Ampah Ampah, Dayu, Kec. Dusun Tim., Kabupaten Barito Timur;KALIMANTAN TENGAH;73652;Indonesia;85347738766;;;-1.980.858;1.150.759.983;https://maps.google.com/?cid=0x0:0xd2585ecc88b5822;
supermarket;Toko;Toko laila menjual barang bangunan;XV8V+FXM, Bangkuang, Kec. Karau Kuala, Kabupaten Barito Selatan, Kalimantan Tengah 73617;Bangkuang, Kec. Karau Kuala, Kabupaten Barito Selatan;KALIMANTAN TENGAH;73617;Indonesia;81251315127;;;-20.338;1.148.949.147;https://maps.google.com/?cid=0x0:0x47a6659904820784;
supermarket;Pusat Perbelanjaan;Kios Sembako Lia;GVPG+G8F, Rantau Bahuang, Kec. Jenamas, Kabupaten Barito Selatan, Kalimantan Tengah 71453;Rantau Bahuang, Kec. Jenamas, Kabupaten Barito Selatan;KALIMANTAN TENGAH;71453;Indonesia;82349821508;;;-2.462.855;114.876.685;https://maps.google.com/?cid=0x0:0x4f2d82fbddbf3b73;
supermarket;Dapur Umum;Toko Willy Dayu;Dayu, Kec. Karusen Janang, Kabupaten Barito Timur, Kalimantan Tengah 73652;Kec. Karusen Janang, Kabupaten Barito Timur;KALIMANTAN TENGAH;73652;Indonesia;;;;-19.810.885;1.150.761.107;https://maps.google.com/?cid=0x0:0x9b7b1673c2530e3;
supermarket;Toko Swalayan;Kios mama said (kios Muzar);GVQH+343, Rantau Bahuang, Kec. Jenamas, Kabupaten Barito Selatan, Kalimantan Tengah 71453;Rantau Bahuang, Kec. Jenamas, Kabupaten Barito Selatan;KALIMANTAN TENGAH;71453;Indonesia;83153795412;;;-24.622.787;1.148.771.061;https://maps.google.com/?cid=0x0:0xbdf8e89aebfc964a;
supermarket;supermarket;TOKO UD AHMAD;RT 02, Telang Baru, Kec. Paju Epat, Kabupaten Barito Timur, Kalimantan Tengah 73617;Telang Baru, Kec. Paju Epat, Kabupaten Barito Timur;KALIMANTAN TENGAH;73617;Indonesia;;;;-22.172.399;114.969.485;https://maps.google.com/?cid=0x0:0xd034dec1d2cccce0;
supermarket;Pasar;Warung mama siha;HW68+4J6, Rantau Kujang, Kec. Jenamas, Kabupaten Barito Selatan, Kalimantan Tengah 73763;Rantau Kujang, Kec. Jenamas, Kabupaten Barito Selatan;KALIMANTAN TENGAH;73763;Indonesia;85349837225;;;-24.397.227;114.916.527;https://maps.google.com/?cid=0x0:0x9dd9414c616b0a1c;
supermarket;supermarket;Kalimantan Tengah 73711;Kec. Dusun Sel., Kabupaten Barito Selatan, Kalimantan Tengah;Kabupaten Barito Selatan, Kalimantan Tengah;KALIMANTAN TENGAH;;Indonesia;;;;-17.964.233;1.147.736.556;https://maps.google.com/?cid=0x0:0x4a719b8c335066ed;
supermarket;Toko;SM Mart Mini Market Buntok;7RHV+X5J, Jl. Pelita Raya, Buntok Kota, Kec. Dusun Sel., Kabupaten Barito Selatan, Kalimantan Tengah 73751;Jl. Pelita Raya, Buntok Kota, Kec. Dusun Sel., Kabupaten Barito Selatan;KALIMANTAN TENGAH;73751;Indonesia;;;;-1.720.028;1.148.429.015;https://maps.google.com/?cid=0x0:0xe741818a61bcbbda;
supermarket;Toko;TOKO BU WIWIK;7RHM+262, Jl. Panglima Batur, Buntok Kota, Kec. Dusun Sel., Kabupaten Barito Selatan, Kalimantan Tengah 73751;Jl. Panglima Batur, Buntok Kota, Kec. Dusun Sel., Kabupaten Barito Selatan;KALIMANTAN TENGAH;73751;Indonesia;;;;-17.224.801;1.148.330.262;https://maps.google.com/?cid=0x0:0xc6cb418478076440;
supermarket;Pusat Perbelanjaan;Plaza Beringin;7RHM+7H2, Pasar beringin, Buntok Kota, Kec. Dusun Sel., Kabupaten Barito Selatan, Kalimantan Tengah 73711;Pasar beringin, Buntok Kota, Kec. Dusun Sel., Kabupaten Barito Selatan;KALIMANTAN TENGAH;73711;Indonesia;;;;-17.218.618;1.148.339.035;https://maps.google.com/?cid=0x0:0xafcbc85d52db905d;
supermarket;Supermarket Industri;Warung sembako top1;7R9P+P6Q alfamart, Buntok Kota, Kec. Dusun Sel., Kabupaten Barito Selatan, Kalimantan Tengah 73711;Buntok Kota, Kec. Dusun Sel., Kabupaten Barito Selatan;KALIMANTAN TENGAH;73711;Indonesia;;;;-17.309.798;114.835.043;https://maps.google.com/?cid=0x0:0xcdf4719f8043726e;
supermarket;Toko makanan beku;Toko kue dan Frozen food Buntok;7RJV+45Q samping hotel mulya kencana, Jl. Pelita Raya, Buntok Kota, Kec. Dusun Sel., Kabupaten Barito Selatan, Kalimantan Tengah 73751;Jl. Pelita Raya, Buntok Kota, Kec. Dusun Sel., Kabupaten Barito Selatan;KALIMANTAN TENGAH;73751;Indonesia;82158003527;;;-17.196.597;114.842.975;https://maps.google.com/?cid=0x0:0x6242dd28ef4956b6;
supermarket;Pusat Perbelanjaan;Alfamart H. Indar Buntok;7RCP+MGW, Jl. H. Indar, Hilir Sper, Kec. Dusun Sel., Kabupaten Barito Selatan, Kalimantan Tengah 73751;Jl. H. Indar, Hilir Sper, Kec. Dusun Sel., Kabupaten Barito Selatan;KALIMANTAN TENGAH;73751;Indonesia;81519230781;;;-17.282.578;1.148.363.317;https://maps.google.com/?cid=0x0:0x4c8410aaf92c7d7d;
supermarket;Toko bahan makanan;Toko Ahiem;7RHJ+PF9, Buntok Kota, Kec. Dusun Sel., Kabupaten Barito Selatan, Kalimantan Tengah 73751;Buntok Kota, Kec. Dusun Sel., Kabupaten Barito Selatan;KALIMANTAN TENGAH;73751;Indonesia;;;;-17.207.213;114.831.247;https://maps.google.com/?cid=0x0:0x7d188693828a636;
supermarket;supermarket;Warung ridani;6RF4+C3X, Baru, Kec. Dusun Sel., Kabupaten Barito Selatan, Kalimantan Tengah 73751;Baru, Kec. Dusun Sel., Kabupaten Barito Selatan;KALIMANTAN TENGAH;73751;Indonesia;;;;-17.763.935;1.148.052.223;https://maps.google.com/?cid=0x0:0xc51ac485a7f96f7d;
supermarket;Kafe;The Forest Store;Kalahien - Buntok, Kalahien, Kec. Dusun Sel., Kabupaten Barito Selatan, Kalimantan Tengah 73751;Kalahien, Kec. Dusun Sel., Kabupaten Barito Selatan;KALIMANTAN TENGAH;73751;Indonesia;81255568699;;;-16.433.787;1.148.157.361;https://maps.google.com/?cid=0x0:0xa8f5c5b98dcc5d7f;
supermarket;Pusat Perbelanjaan;Bika Frozen Food;Jl. Panglima Batur No.26, RT.15, Buntok Kota, Kec. Dusun Sel., Kabupaten Barito Selatan, Kalimantan Tengah 73711;RT.15, Buntok Kota, Kec. Dusun Sel., Kabupaten Barito Selatan;KALIMANTAN TENGAH;73711;Indonesia;82252918110;;;-17.169.088;1.148.381.389;https://maps.google.com/?cid=0x0:0x93930e9927b384b7;
supermarket;supermarket;Kalimantan Tengah 73712;Kec. Dusun Sel., Kabupaten Barito Selatan, Kalimantan Tengah;Kabupaten Barito Selatan, Kalimantan Tengah;KALIMANTAN TENGAH;;Indonesia;;;;-18.255.326;1.147.588.155;https://maps.google.com/?cid=0x0:0xbc3cf9c65f77161b;
supermarket;Kafe;The Forest Store;Kalahien - Buntok, Kalahien, Kec. Dusun Sel., Kabupaten Barito Selatan, Kalimantan Tengah 73751;Kalahien, Kec. Dusun Sel., Kabupaten Barito Selatan;KALIMANTAN TENGAH;73751;Indonesia;81255568699;;;-16.433.787;1.148.157.361;https://maps.google.com/?cid=0x0:0xa8f5c5b98dcc5d7f;
supermarket;Toko;SM Mart Mini Market Buntok;7RHV+X5J, Jl. Pelita Raya, Buntok Kota, Kec. Dusun Sel., Kabupaten Barito Selatan, Kalimantan Tengah 73751;Jl. Pelita Raya, Buntok Kota, Kec. Dusun Sel., Kabupaten Barito Selatan;KALIMANTAN TENGAH;73751;Indonesia;;;;-1.720.028;1.148.429.015;https://maps.google.com/?cid=0x0:0xe741818a61bcbbda;
supermarket;Toko Swalayan;Toko BERKAH;Jl PP Dinan RT 3 Desa Tabak Kanilan, Buntok Kota, Kec. Gn. Bintang Awai, Kabupaten Barito Selatan, Kalimantan Tengah 73753;Buntok Kota, Kec. Gn. Bintang Awai, Kabupaten Barito Selatan;KALIMANTAN TENGAH;73753;Indonesia;82254602225;;;-15.535.486;115.052.713;https://maps.google.com/?cid=0x0:0xa56d4b701b9e0468;
supermarket;Pusat Perbelanjaan;Plaza Beringin;7RHM+7H2, Pasar beringin, Buntok Kota, Kec. Dusun Sel., Kabupaten Barito Selatan, Kalimantan Tengah 73711;Pasar beringin, Buntok Kota, Kec. Dusun Sel., Kabupaten Barito Selatan;KALIMANTAN TENGAH;73711;Indonesia;;;;-17.218.618;1.148.339.035;https://maps.google.com/?cid=0x0:0xafcbc85d52db905d;
supermarket;Toko bahan makanan;Toko soegi;Jl. Pahlawan No.5, Buntok Kota, Kec. Dusun Sel., Kabupaten Barito Selatan, Kalimantan Tengah 73711;Buntok Kota, Kec. Dusun Sel., Kabupaten Barito Selatan;KALIMANTAN TENGAH;73711;Indonesia;;;;-17.096.053;114.870.844;https://maps.google.com/?cid=0x0:0x1d6bc797897e1599;
supermarket;Toko;TOKO BU WIWIK;7RHM+262, Jl. Panglima Batur, Buntok Kota, Kec. Dusun Sel., Kabupaten Barito Selatan, Kalimantan Tengah 73751;Jl. Panglima Batur, Buntok Kota, Kec. Dusun Sel., Kabupaten Barito Selatan;KALIMANTAN TENGAH;73751;Indonesia;;;;-17.224.801;1.148.330.262;https://maps.google.com/?cid=0x0:0xc6cb418478076440;
supermarket;Toko bahan makanan;Toko Ahiem;7RHJ+PF9, Buntok Kota, Kec. Dusun Sel., Kabupaten Barito Selatan, Kalimantan Tengah 73751;Buntok Kota, Kec. Dusun Sel., Kabupaten Barito Selatan;KALIMANTAN TENGAH;73751;Indonesia;;;;-17.207.213;114.831.247;https://maps.google.com/?cid=0x0:0x7d188693828a636;
supermarket;Toko bahan makanan;Toko Ayu;Jl. H. Indar, Hilir Sper, Kec. Dusun Sel., Kabupaten Barito Selatan, Kalimantan Tengah 73751;Hilir Sper, Kec. Dusun Sel., Kabupaten Barito Selatan;KALIMANTAN TENGAH;73751;Indonesia;;;;-17.306.505;1.148.392.568;https://maps.google.com/?cid=0x0:0x4c6858268b169bda;
supermarket;Toko makanan beku;Toko kue dan Frozen food Buntok;7RJV+45Q samping hotel mulya kencana, Jl. Pelita Raya, Buntok Kota, Kec. Dusun Sel., Kabupaten Barito Selatan, Kalimantan Tengah 73751;Jl. Pelita Raya, Buntok Kota, Kec. Dusun Sel., Kabupaten Barito Selatan;KALIMANTAN TENGAH;73751;Indonesia;82158003527;;;-17.196.597;114.842.975;https://maps.google.com/?cid=0x0:0x6242dd28ef4956b6;
supermarket;Toko;Toko Sumber Mas;Jl. Pelita IV No.32, Buntok Kota, Kec. Dusun Sel., Kabupaten Barito Selatan, Kalimantan Tengah 73751;Buntok Kota, Kec. Dusun Sel., Kabupaten Barito Selatan;KALIMANTAN TENGAH;73751;Indonesia;52522097;;;-17.204.189;1.148.422.048;https://maps.google.com/?cid=0x0:0x51c3d60289066caf;
supermarket;Pasar;Toko Lia;9R57+92W, Kalahien, Kec. Dusun Sel., Kabupaten Barito Selatan, Kalimantan Tengah;Kabupaten Barito Selatan, Kalimantan Tengah;KALIMANTAN TENGAH;;Indonesia;85288366133;;;-16.415.002;1.148.125.768;https://maps.google.com/?cid=0x0:0x3fb5848b761f9ac8;
supermarket;Toko;SM Mart Mini Market Buntok;7RHV+X5J, Jl. Pelita Raya, Buntok Kota, Kec. Dusun Sel., Kabupaten Barito Selatan, Kalimantan Tengah 73751;Jl. Pelita Raya, Buntok Kota, Kec. Dusun Sel., Kabupaten Barito Selatan;KALIMANTAN TENGAH;73751;Indonesia;;;;-1.720.028;1.148.429.015;https://maps.google.com/?cid=0x0:0xe741818a61bcbbda;
supermarket;Kafe;The Forest Store;Kalahien - Buntok, Kalahien, Kec. Dusun Sel., Kabupaten Barito Selatan, Kalimantan Tengah 73751;Kalahien, Kec. Dusun Sel., Kabupaten Barito Selatan;KALIMANTAN TENGAH;73751;Indonesia;81255568699;;;-16.433.787;1.148.157.361;https://maps.google.com/?cid=0x0:0xa8f5c5b98dcc5d7f;
supermarket;supermarket;Kalimantan Tengah 73713;Kabupaten Barito Selatan, Kalimantan Tengah;Kabupaten Barito Selatan, Kalimantan Tengah;KALIMANTAN TENGAH;;Indonesia;;;;-17.531.862;1.146.905.436;https://maps.google.com/?cid=0x0:0x1c28f022a25af1a5;
supermarket;Toko Swalayan;Lima cahaya;7RMX+X65, Jl. Pahlawan, Buntok Kota, Kec. Dusun Sel., Kabupaten Barito Selatan, Kalimantan Tengah 73713;Jl. Pahlawan, Buntok Kota, Kec. Dusun Sel., Kabupaten Barito Selatan;KALIMANTAN TENGAH;73713;Indonesia;;;;-17.151.037;1.148.481.029;https://maps.google.com/?cid=0x0:0xcab22defae3647a3;
supermarket;Toko bahan makanan;Warung Abah Dipo;7VXC+677, Jl. Jemb. Pintas, Pamait, Kec. Dusun Sel., Kabupaten Barito Selatan, Kalimantan Tengah 73713;Jl. Jemb. Pintas, Pamait, Kec. Dusun Sel., Kabupaten Barito Selatan;KALIMANTAN TENGAH;73713;Indonesia;;;;-17.019.643;1.148.706.748;https://maps.google.com/?cid=0x0:0x2109be81e1f886fa;
supermarket;Toko;azka phoncell;7RHQ+F46, Jl. Pembangunan, Buntok Kota, Kec. Dusun Sel., Kabupaten Barito Selatan, Kalimantan Tengah 73751;Jl. Pembangunan, Buntok Kota, Kec. Dusun Sel., Kabupaten Barito Selatan;KALIMANTAN TENGAH;73751;Indonesia;85332810991;;;-17.213.485;114.837.774;https://maps.google.com/?cid=0x0:0x5f163bce79af5ebb;
supermarket;Minimarket;Alfamart Jl. Pahlawan;7RMQ+9PQ, Buntok Kota, Kec. Dusun Sel., Kabupaten Barito Selatan, Kalimantan Tengah 73751;Buntok Kota, Kec. Dusun Sel., Kabupaten Barito Selatan;KALIMANTAN TENGAH;73751;Indonesia;;;;-171.655;1.148.393.542;https://maps.google.com/?cid=0x0:0xb19d1b52f223a8f5;
supermarket;Toko makanan beku;Toko kue dan Frozen food Buntok;7RJV+45Q samping hotel mulya kencana, Jl. Pelita Raya, Buntok Kota, Kec. Dusun Sel., Kabupaten Barito Selatan, Kalimantan Tengah 73751;Jl. Pelita Raya, Buntok Kota, Kec. Dusun Sel., Kabupaten Barito Selatan;KALIMANTAN TENGAH;73751;Indonesia;82158003527;;;-17.196.597;114.842.975;https://maps.google.com/?cid=0x0:0x6242dd28ef4956b6;
supermarket;Toko;TOKO BU WIWIK;7RHM+262, Jl. Panglima Batur, Buntok Kota, Kec. Dusun Sel., Kabupaten Barito Selatan, Kalimantan Tengah 73751;Jl. Panglima Batur, Buntok Kota, Kec. Dusun Sel., Kabupaten Barito Selatan;KALIMANTAN TENGAH;73751;Indonesia;;;;-17.224.801;1.148.330.262;https://maps.google.com/?cid=0x0:0xc6cb418478076440;
supermarket;Pusat Perbelanjaan;Alfamart H. Indar Buntok;7RCP+MGW, Jl. H. Indar, Hilir Sper, Kec. Dusun Sel., Kabupaten Barito Selatan, Kalimantan Tengah 73751;Jl. H. Indar, Hilir Sper, Kec. Dusun Sel., Kabupaten Barito Selatan;KALIMANTAN TENGAH;73751;Indonesia;81519230781;;;-17.282.578;1.148.363.317;https://maps.google.com/?cid=0x0:0x4c8410aaf92c7d7d;
supermarket;Grosir Barang Kelontong;Sembako  Snack grosir;pasar saik samping imi perak, Jl. Merdeka Raya, Buntok Kota, Kec. Dusun Sel., Kabupaten Barito Selatan, Kalimantan Tengah 73711;Jl. Merdeka Raya, Buntok Kota, Kec. Dusun Sel., Kabupaten Barito Selatan;KALIMANTAN TENGAH;73711;Indonesia;81230127741;;;-1.719.579;1.148.322.894;https://maps.google.com/?cid=0x0:0x44d1faadb29c959;
supermarket;Pusat Perbelanjaan;Bika Frozen Food;Jl. Panglima Batur No.26, RT.15, Buntok Kota, Kec. Dusun Sel., Kabupaten Barito Selatan, Kalimantan Tengah 73711;RT.15, Buntok Kota, Kec. Dusun Sel., Kabupaten Barito Selatan;KALIMANTAN TENGAH;73711;Indonesia;82252918110;;;-17.169.088;1.148.381.389;https://maps.google.com/?cid=0x0:0x93930e9927b384b7;
supermarket;Toko bahan makanan;Toko Ahiem;7RHJ+PF9, Buntok Kota, Kec. Dusun Sel., Kabupaten Barito Selatan, Kalimantan Tengah 73751;Buntok Kota, Kec. Dusun Sel., Kabupaten Barito Selatan;KALIMANTAN TENGAH;73751;Indonesia;;;;-17.207.213;114.831.247;https://maps.google.com/?cid=0x0:0x7d188693828a636;
supermarket;Kantor Perusahaan;Ahmad Fadillah Galon;Jl. Sepakat I No.13, RT.5/RW.1, Hilir Sper, Kec. Dusun Sel., Kabupaten Barito Selatan, Kalimantan Tengah 73751;RT.5/RW.1, Hilir Sper, Kec. Dusun Sel., Kabupaten Barito Selatan;KALIMANTAN TENGAH;73751;Indonesia;85350871600;;;-17.279.069;1.148.294.982;https://maps.google.com/?cid=0x0:0xfd42108be9fc024a;
supermarket;Toko Swalayan;Toko BERKAH;Jl PP Dinan RT 3 Desa Tabak Kanilan, Buntok Kota, Kec. Gn. Bintang Awai, Kabupaten Barito Selatan, Kalimantan Tengah 73753;Buntok Kota, Kec. Gn. Bintang Awai, Kabupaten Barito Selatan;KALIMANTAN TENGAH;73753;Indonesia;82254602225;;;-15.535.486;115.052.713;https://maps.google.com/?cid=0x0:0xa56d4b701b9e0468;
supermarket;Pasar;Toko Lia;9R57+92W, Kalahien, Kec. Dusun Sel., Kabupaten Barito Selatan, Kalimantan Tengah;Kabupaten Barito Selatan, Kalimantan Tengah;KALIMANTAN TENGAH;;Indonesia;85288366133;;;-16.415.002;1.148.125.768;https://maps.google.com/?cid=0x0:0x3fb5848b761f9ac8;
supermarket;Toko Swalayan;Toko Han;7RHP+X6X, Jl. Panglima Batur, Buntok Kota, Kec. Dusun Sel., Kabupaten Barito Selatan, Kalimantan Tengah 73751;Jl. Panglima Batur, Buntok Kota, Kec. Dusun Sel., Kabupaten Barito Selatan;KALIMANTAN TENGAH;73751;Indonesia;;;;-17.200.212;1.148.356.164;https://maps.google.com/?cid=0x0:0xfe8c156740a53303;
supermarket;Layanan reparasi;foto copy Bella Batuah;7RJP+CGX, Buntok Kota, Kec. Dusun Sel., Kabupaten Barito Selatan, Kalimantan Tengah 73751;Buntok Kota, Kec. Dusun Sel., Kabupaten Barito Selatan;KALIMANTAN TENGAH;73751;Indonesia;;;;-17.188.948;114.836.356;https://maps.google.com/?cid=0x0:0xbb9b873351a7a8a8;
supermarket;Toko Perlengkapan Rumah;DW Mart;Jl. Soekarno - Hatta, Sanggu, Kec. Dusun Sel., Kabupaten Barito Selatan, Kalimantan Tengah 73713;Sanggu, Kec. Dusun Sel., Kabupaten Barito Selatan;KALIMANTAN TENGAH;73713;Indonesia;;;;-16.904.417;1.149.086.704;https://maps.google.com/?cid=0x0:0xacd1be56a6ce9b1e;
supermarket;Toko bahan makanan;Alfamart Desa Buntok Kota;7VM3+XRJ, Buntok Kota, Kec. Dusun Sel., Kabupaten Barito Selatan, Kalimantan Tengah 73713;Buntok Kota, Kec. Dusun Sel., Kabupaten Barito Selatan;KALIMANTAN TENGAH;73713;Indonesia;;;;-17.150.365;1.148.545.188;https://maps.google.com/?cid=0x0:0xa625c6aea6c30393;
supermarket;supermarket;Kalimantan Tengah 73751;Kec. Dusun Sel., Kabupaten Barito Selatan, Kalimantan Tengah;Kabupaten Barito Selatan, Kalimantan Tengah;KALIMANTAN TENGAH;;Indonesia;;;;-16.899.287;1.147.736.556;https://maps.google.com/?cid=0x0:0xfd0ed3d130200b49;
supermarket;Toko;SM Mart Mini Market Buntok;7RHV+X5J, Jl. Pelita Raya, Buntok Kota, Kec. Dusun Sel., Kabupaten Barito Selatan, Kalimantan Tengah 73751;Jl. Pelita Raya, Buntok Kota, Kec. Dusun Sel., Kabupaten Barito Selatan;KALIMANTAN TENGAH;73751;Indonesia;;;;-1.720.028;1.148.429.015;https://maps.google.com/?cid=0x0:0xe741818a61bcbbda;
supermarket;Kafe;The Forest Store;Kalahien - Buntok, Kalahien, Kec. Dusun Sel., Kabupaten Barito Selatan, Kalimantan Tengah 73751;Kalahien, Kec. Dusun Sel., Kabupaten Barito Selatan;KALIMANTAN TENGAH;73751;Indonesia;81255568699;;;-16.433.787;1.148.157.361;https://maps.google.com/?cid=0x0:0xa8f5c5b98dcc5d7f;
supermarket;Toko Swalayan;Lima cahaya;7RMX+X65, Jl. Pahlawan, Buntok Kota, Kec. Dusun Sel., Kabupaten Barito Selatan, Kalimantan Tengah 73713;Jl. Pahlawan, Buntok Kota, Kec. Dusun Sel., Kabupaten Barito Selatan;KALIMANTAN TENGAH;73713;Indonesia;;;;-17.151.037;1.148.481.029;https://maps.google.com/?cid=0x0:0xcab22defae3647a3;
supermarket;Toko;TOKO BU WIWIK;7RHM+262, Jl. Panglima Batur, Buntok Kota, Kec. Dusun Sel., Kabupaten Barito Selatan, Kalimantan Tengah 73751;Jl. Panglima Batur, Buntok Kota, Kec. Dusun Sel., Kabupaten Barito Selatan;KALIMANTAN TENGAH;73751;Indonesia;;;;-17.224.801;1.148.330.262;https://maps.google.com/?cid=0x0:0xc6cb418478076440;
supermarket;Toko;azka phoncell;7RHQ+F46, Jl. Pembangunan, Buntok Kota, Kec. Dusun Sel., Kabupaten Barito Selatan, Kalimantan Tengah 73751;Jl. Pembangunan, Buntok Kota, Kec. Dusun Sel., Kabupaten Barito Selatan;KALIMANTAN TENGAH;73751;Indonesia;85332810991;;;-17.213.485;114.837.774;https://maps.google.com/?cid=0x0:0x5f163bce79af5ebb;
supermarket;Minimarket;Alfamart Jl. Pahlawan;7RMQ+9PQ, Buntok Kota, Kec. Dusun Sel., Kabupaten Barito Selatan, Kalimantan Tengah 73751;Buntok Kota, Kec. Dusun Sel., Kabupaten Barito Selatan;KALIMANTAN TENGAH;73751;Indonesia;;;;-171.655;1.148.393.542;https://maps.google.com/?cid=0x0:0xb19d1b52f223a8f5;
supermarket;Kantor Perusahaan;Ahmad Fadillah Galon;Jl. Sepakat I No.13, RT.5/RW.1, Hilir Sper, Kec. Dusun Sel., Kabupaten Barito Selatan, Kalimantan Tengah 73751;RT.5/RW.1, Hilir Sper, Kec. Dusun Sel., Kabupaten Barito Selatan;KALIMANTAN TENGAH;73751;Indonesia;85350871600;;;-17.279.069;1.148.294.982;https://maps.google.com/?cid=0x0:0xfd42108be9fc024a;
supermarket;Pusat Perbelanjaan;Alfamart H. Indar Buntok;7RCP+MGW, Jl. H. Indar, Hilir Sper, Kec. Dusun Sel., Kabupaten Barito Selatan, Kalimantan Tengah 73751;Jl. H. Indar, Hilir Sper, Kec. Dusun Sel., Kabupaten Barito Selatan;KALIMANTAN TENGAH;73751;Indonesia;81519230781;;;-17.282.578;1.148.363.317;https://maps.google.com/?cid=0x0:0x4c8410aaf92c7d7d;
supermarket;Toko bahan makanan;Toko Ahiem;7RHJ+PF9, Buntok Kota, Kec. Dusun Sel., Kabupaten Barito Selatan, Kalimantan Tengah 73751;Buntok Kota, Kec. Dusun Sel., Kabupaten Barito Selatan;KALIMANTAN TENGAH;73751;Indonesia;;;;-17.207.213;114.831.247;https://maps.google.com/?cid=0x0:0x7d188693828a636;
supermarket;Grosir Barang Kelontong;Sembako  Snack grosir;pasar saik samping imi perak, Jl. Merdeka Raya, Buntok Kota, Kec. Dusun Sel., Kabupaten Barito Selatan, Kalimantan Tengah 73711;Jl. Merdeka Raya, Buntok Kota, Kec. Dusun Sel., Kabupaten Barito Selatan;KALIMANTAN TENGAH;73711;Indonesia;81230127741;;;-1.719.579;1.148.322.894;https://maps.google.com/?cid=0x0:0x44d1faadb29c959;
supermarket;Toko bahan makanan;Warung Abah Dipo;7VXC+677, Jl. Jemb. Pintas, Pamait, Kec. Dusun Sel., Kabupaten Barito Selatan, Kalimantan Tengah 73713;Jl. Jemb. Pintas, Pamait, Kec. Dusun Sel., Kabupaten Barito Selatan;KALIMANTAN TENGAH;73713;Indonesia;;;;-17.019.643;1.148.706.748;https://maps.google.com/?cid=0x0:0x2109be81e1f886fa;
supermarket;Pasar;Toko Lia;9R57+92W, Kalahien, Kec. Dusun Sel., Kabupaten Barito Selatan, Kalimantan Tengah;Kabupaten Barito Selatan, Kalimantan Tengah;KALIMANTAN TENGAH;;Indonesia;85288366133;;;-16.415.002;1.148.125.768;https://maps.google.com/?cid=0x0:0x3fb5848b761f9ac8;
supermarket;Layanan reparasi;foto copy Bella Batuah;7RJP+CGX, Buntok Kota, Kec. Dusun Sel., Kabupaten Barito Selatan, Kalimantan Tengah 73751;Buntok Kota, Kec. Dusun Sel., Kabupaten Barito Selatan;KALIMANTAN TENGAH;73751;Indonesia;;;;-17.188.948;114.836.356;https://maps.google.com/?cid=0x0:0xbb9b873351a7a8a8;
supermarket;Toko makanan beku;Toko kue dan Frozen food Buntok;7RJV+45Q samping hotel mulya kencana, Jl. Pelita Raya, Buntok Kota, Kec. Dusun Sel., Kabupaten Barito Selatan, Kalimantan Tengah 73751;Jl. Pelita Raya, Buntok Kota, Kec. Dusun Sel., Kabupaten Barito Selatan;KALIMANTAN TENGAH;73751;Indonesia;82158003527;;;-17.196.597;114.842.975;https://maps.google.com/?cid=0x0:0x6242dd28ef4956b6;
supermarket;supermarket;Kalimantan Tengah 73752;Kabupaten Barito Selatan, Kalimantan Tengah;Kabupaten Barito Selatan, Kalimantan Tengah;KALIMANTAN TENGAH;;Indonesia;;;;-14.856.175;1.148.567.482;https://maps.google.com/?cid=0x0:0x9e89593c92bb4954;
supermarket;Kafe;The Forest Store;Kalahien - Buntok, Kalahien, Kec. Dusun Sel., Kabupaten Barito Selatan, Kalimantan Tengah 73751;Kalahien, Kec. Dusun Sel., Kabupaten Barito Selatan;KALIMANTAN TENGAH;73751;Indonesia;81255568699;;;-16.433.787;1.148.157.361;https://maps.google.com/?cid=0x0:0xa8f5c5b98dcc5d7f;
supermarket;Pasar;Toko Lia;9R57+92W, Kalahien, Kec. Dusun Sel., Kabupaten Barito Selatan, Kalimantan Tengah;Kabupaten Barito Selatan, Kalimantan Tengah;KALIMANTAN TENGAH;;Indonesia;85288366133;;;-16.415.002;1.148.125.768;https://maps.google.com/?cid=0x0:0x3fb5848b761f9ac8;
supermarket;Toko Swalayan;Megamarket Dudut;PP. Dinan, Jalan, Tabak Kanilan, Gunung Bintang Awai, South Barito Regency, Central Kalimantan 73753;Jalan, Tabak Kanilan, Gunung Bintang Awai, South Barito Regency;KALIMANTAN TENGAH;73753;Indonesia;;;;-15.539.219;1.150.528.075;https://maps.google.com/?cid=0x0:0x7ee638d3d06f367f;
supermarket;Toko Swalayan;Toko BERKAH;Jl PP Dinan RT 3 Desa Tabak Kanilan, Buntok Kota, Kec. Gn. Bintang Awai, Kabupaten Barito Selatan, Kalimantan Tengah 73753;Buntok Kota, Kec. Gn. Bintang Awai, Kabupaten Barito Selatan;KALIMANTAN TENGAH;73753;Indonesia;82254602225;;;-15.535.486;115.052.713;https://maps.google.com/?cid=0x0:0xa56d4b701b9e0468;
supermarket;Toko bahan makanan;Alfamart;C3W3+H34, Jl. PP. Dinan Tabak Kanilan, Tabak Kanilan, Kec. Gn. Bintang Awai, Kabupaten Barito Selatan, Kalimantan Tengah 73753;Jl. PP. Dinan Tabak Kanilan, Tabak Kanilan, Kec. Gn. Bintang Awai, Kabupaten Barito Selatan;KALIMANTAN TENGAH;73753;Indonesia;82254602225;;;-15.536.011;1.150.527.113;https://maps.google.com/?cid=0x0:0x1c387f1754648431;
supermarket;Toko Swalayan;Wamajo Store Office;2VPW+274, Jl. Keladan, Lanjas, Kec. Teweh Tengah, Kabupaten Barito Utara, Kalimantan Tengah 73814;Jl. Keladan, Lanjas, Kec. Teweh Tengah, Kabupaten Barito Utara;KALIMANTAN TENGAH;73814;Indonesia;;;;-0.9649953;1.148.956.955;https://maps.google.com/?cid=0x0:0x841f43c8289933a0;
supermarket;Kios;"Kios REZA""""";93FJ+5C4, Marga Jaya, Kec. Gn. Bintang Awai, Kabupaten Barito Selatan, Kalimantan Tengah 73653;Marga Jaya, Kec. Gn. Bintang Awai, Kabupaten Barito Selatan;KALIMANTAN TENGAH;73653;Indonesia;;;;-16.271.016;1.150.810.757;https://maps.google.com/?cid=0x0:0xda1df86a16d82348;
supermarket;Toko Swalayan;WARUNG ABAH NUR;938G+9R5, Marga Jaya, Kec. Gn. Bintang Awai, Kabupaten Barito Selatan, Kalimantan Tengah 73653;Marga Jaya, Kec. Gn. Bintang Awai, Kabupaten Barito Selatan;KALIMANTAN TENGAH;73653;Indonesia;;;;-16.341.003;1.150.771.217;https://maps.google.com/?cid=0x0:0x8478fffb081fdb0c;
supermarket;Toko bahan makanan;Toko Ahiem;7RHJ+PF9, Buntok Kota, Kec. Dusun Sel., Kabupaten Barito Selatan, Kalimantan Tengah 73751;Buntok Kota, Kec. Dusun Sel., Kabupaten Barito Selatan;KALIMANTAN TENGAH;73751;Indonesia;;;;-17.207.213;114.831.247;https://maps.google.com/?cid=0x0:0x7d188693828a636;
supermarket;Toko Swalayan;Toko DANDUNG;2WW5+4CQ, Jl. Kapten P. Tendean, Melayu, Kec. Teweh Tengah, Kabupaten Barito Utara, Kalimantan Tengah 73814;Jl. Kapten P. Tendean, Melayu, Kec. Teweh Tengah, Kabupaten Barito Utara;KALIMANTAN TENGAH;73814;Indonesia;;;;-0.9546653;114.908.622;https://maps.google.com/?cid=0x0:0xd66fc49cfb9e426e;
supermarket;supermarket;Kalimantan Tengah 73753;Kec. Gn. Bintang Awai, Kabupaten Barito Selatan, Kalimantan Tengah;Kabupaten Barito Selatan, Kalimantan Tengah;KALIMANTAN TENGAH;;Indonesia;;;;-14.821.804;115.141.484;https://maps.google.com/?cid=0x0:0x51e61e4a4ea8d4dc;
supermarket;Toko Swalayan;Rodeo Market;Unnamed Road, Gn. Bintang Awai, 73862, Ngurit, Kec. Gn. Bintang Awai, Kabupaten Barito Selatan, Kalimantan Tengah 73862;Gn. Bintang Awai,;KALIMANTAN TENGAH;73862;Indonesia;;;;-13.629.817;115.279.405;https://maps.google.com/?cid=0x0:0x9bf839eb5cd33352;
supermarket;Toko Swalayan;Megamarket Dudut;PP. Dinan, Jalan, Tabak Kanilan, Gunung Bintang Awai, South Barito Regency, Central Kalimantan 73753;Jalan, Tabak Kanilan, Gunung Bintang Awai, South Barito Regency;KALIMANTAN TENGAH;73753;Indonesia;;;;-15.539.219;1.150.528.075;https://maps.google.com/?cid=0x0:0x7ee638d3d06f367f;
supermarket;Toko bahan makanan;Alfamart;C3W3+H34, Jl. PP. Dinan Tabak Kanilan, Tabak Kanilan, Kec. Gn. Bintang Awai, Kabupaten Barito Selatan, Kalimantan Tengah 73753;Jl. PP. Dinan Tabak Kanilan, Tabak Kanilan, Kec. Gn. Bintang Awai, Kabupaten Barito Selatan;KALIMANTAN TENGAH;73753;Indonesia;82254602225;;;-15.536.011;1.150.527.113;https://maps.google.com/?cid=0x0:0x1c387f1754648431;
supermarket;Hipermarket;Damai Market;J7P2+R9J, Ngurit, Kec. Gn. Bintang Awai, Kabupaten Barito Selatan, Kalimantan Tengah 73862;Ngurit, Kec. Gn. Bintang Awai, Kabupaten Barito Selatan;KALIMANTAN TENGAH;73862;Indonesia;;;;-13.629.167;115.250.905;https://maps.google.com/?cid=0x0:0xa35e3d1518f27aa7;
supermarket;Toko Swalayan;Toko BERKAH;Jl PP Dinan RT 3 Desa Tabak Kanilan, Buntok Kota, Kec. Gn. Bintang Awai, Kabupaten Barito Selatan, Kalimantan Tengah 73753;Buntok Kota, Kec. Gn. Bintang Awai, Kabupaten Barito Selatan;KALIMANTAN TENGAH;73753;Indonesia;82254602225;;;-15.535.486;115.052.713;https://maps.google.com/?cid=0x0:0xa56d4b701b9e0468;
supermarket;Toko Swalayan;Toko Nizam;F528+75Q, Luwir, Muara Singan, Kec. Gn. Bintang Awai, Kabupaten Barito Selatan, Kalimantan Tengah 73753;Luwir, Muara Singan, Kec. Gn. Bintang Awai, Kabupaten Barito Selatan;KALIMANTAN TENGAH;73753;Indonesia;;;;-15.492.804;1.151.654.693;https://maps.google.com/?cid=0x0:0x43a59f1050a9e00e;
supermarket;Toko Swalayan;Toko Kulana;G5J4+GCJ, Jl. Negara Ampah-Muarateweh, Sei Paken, Kec. Gn. Bintang Awai, Kabupaten Barito Selatan, Kalimantan Tengah 73753;Jl. Negara Ampah-Muarateweh, Sei Paken, Kec. Gn. Bintang Awai, Kabupaten Barito Selatan;KALIMANTAN TENGAH;73753;Indonesia;;;;-14.686.728;1.151.560.092;https://maps.google.com/?cid=0x0:0x7f312bffae6be5e8;
supermarket;Kios;"Kios REZA""""";93FJ+5C4, Marga Jaya, Kec. Gn. Bintang Awai, Kabupaten Barito Selatan, Kalimantan Tengah 73653;Marga Jaya, Kec. Gn. Bintang Awai, Kabupaten Barito Selatan;KALIMANTAN TENGAH;73653;Indonesia;;;;-16.271.016;1.150.810.757;https://maps.google.com/?cid=0x0:0xda1df86a16d82348;
supermarket;Toko Bahan Bangunan;Molding Yeyen;F547+HWW, Patas I, Kec. Gn. Bintang Awai, Kabupaten Barito Selatan, Kalimantan Tengah 73753;Patas I, Kec. Gn. Bintang Awai, Kabupaten Barito Selatan;KALIMANTAN TENGAH;73753;Indonesia;;;;-1.543.514;115.164.832;https://maps.google.com/?cid=0x0:0xf76a1ab58adbb811;
supermarket;Toko Swalayan;WARUNG ABAH NUR;938G+9R5, Marga Jaya, Kec. Gn. Bintang Awai, Kabupaten Barito Selatan, Kalimantan Tengah 73653;Marga Jaya, Kec. Gn. Bintang Awai, Kabupaten Barito Selatan;KALIMANTAN TENGAH;73653;Indonesia;;;;-16.341.003;1.150.771.217;https://maps.google.com/?cid=0x0:0x8478fffb081fdb0c;
supermarket;Pusat Perbelanjaan;Toko Upik;Batu Raya 1, Ngurit, Kec. Gn. Bintang Awai, Kabupaten Barito Utara, Kalimantan Tengah 73862;Ngurit, Kec. Gn. Bintang Awai, Kabupaten Barito Utara;KALIMANTAN TENGAH;73862;Indonesia;;;;-13.532.734;1.152.609.192;https://maps.google.com/?cid=0x0:0xd082063fdacfd1b2;
supermarket;supermarket;Kec. Gn. Bintang Awai;Kabupaten Barito Selatan, Kalimantan Tengah;Kabupaten Barito Selatan, Kalimantan Tengah;KALIMANTAN TENGAH;;Indonesia;;;;-14.810.273;1.152.363.408;https://maps.google.com/?cid=0x0:0x55d1d750ea1055c;
supermarket;Toko umum;Kios Al Fatih;Patas I, Gunung Bintang Awai, Patas I, Kec. Gn. Bintang Awai, Kabupaten Barito Selatan, Kalimantan Tengah 73753;Gunung Bintang Awai, Patas I, Kec. Gn. Bintang Awai, Kabupaten Barito Selatan;KALIMANTAN TENGAH;73753;Indonesia;85651098733;;;-15.304.541;1.151.573.805;https://maps.google.com/?cid=0x0:0xf306d7460e7ef94e;
supermarket;Pusat Perbelanjaan;Patas;F576+X64, Jl. Ktr. Desa Patas I, Patas I, Kec. Gn. Bintang Awai, Kabupaten Barito Selatan, Kalimantan Tengah 73753;Jl. Ktr. Desa Patas I, Patas I, Kec. Gn. Bintang Awai, Kabupaten Barito Selatan;KALIMANTAN TENGAH;73753;Indonesia;;;;-1.535.121;1.151.605.868;https://maps.google.com/?cid=0x0:0x9e47427e616583a6;
supermarket;Toko umum;toko ilahi patas1;F585+JR8, Patas I, Kec. Gn. Bintang Awai, Kabupaten Barito Selatan, Kalimantan Tengah 73753;Patas I, Kec. Gn. Bintang Awai, Kabupaten Barito Selatan;KALIMANTAN TENGAH;73753;Indonesia;;;;-15.334.946;1.151.594.488;https://maps.google.com/?cid=0x0:0x85d2faf1f77c9b3f;
supermarket;Toko Swalayan;Warung Hendrik;C5P5+VRQ, Unnamed Road, Muara Singan, Kec. Gn. Bintang Awai, Kabupaten Barito Selatan, Kalimantan Tengah 73753;Unnamed Road, Muara Singan, Kec. Gn. Bintang Awai, Kabupaten Barito Selatan;KALIMANTAN TENGAH;73753;Indonesia;;;;-1.562.781;1.151.595.946;https://maps.google.com/?cid=0x0:0x3e926d24a19cb680;
supermarket;Minimarket;Indomaret Lintas Ampah;F547+HWW, Patas I, Kec. Gn. Bintang Awai, Kabupaten Barito Selatan, Kalimantan Tengah 73753;Patas I, Kec. Gn. Bintang Awai, Kabupaten Barito Selatan;KALIMANTAN TENGAH;73753;Indonesia;;;;-15.431.568;1.151.647.183;https://maps.google.com/?cid=0x0:0xd6120a555d49c394;
supermarket;Toko Swalayan;Alfamart Muara Singan;F547+4XJ, Jl. Negara Ampah-Muarateweh, Patas I, Kec. Gn. Bintang Awai, Kabupaten Barito Selatan, Kalimantan Tengah 73753;Jl. Negara Ampah-Muarateweh, Patas I, Kec. Gn. Bintang Awai, Kabupaten Barito Selatan;KALIMANTAN TENGAH;73753;Indonesia;;;;-15.446.586;1.151.649.055;https://maps.google.com/?cid=0x0:0xcf535931111096a8;
supermarket;Komplek perumahan;Rumah ajriel;F585+QM8, Jl. Negara Ampah-Muarateweh, Patas I, Kec. Gn. Bintang Awai, Kabupaten Barito Selatan, Kalimantan Tengah 73753;Jl. Negara Ampah-Muarateweh, Patas I, Kec. Gn. Bintang Awai, Kabupaten Barito Selatan;KALIMANTAN TENGAH;73753;Indonesia;;;;-15.329.872;1.151.592.916;https://maps.google.com/?cid=0x0:0xed4e976d2319894a;
supermarket;Toko umum;Toko PJ;F595+4PM, Patas I, Kec. Gn. Bintang Awai, Kabupaten Barito Selatan, Kalimantan Tengah 73753;Patas I, Kec. Gn. Bintang Awai, Kabupaten Barito Selatan;KALIMANTAN TENGAH;73753;Indonesia;;;;-1.532.156;1.151.593.003;https://maps.google.com/?cid=0x0:0x71461764014190eb;
supermarket;supermarket;Kalimantan Tengah 73763;Kec. Jenamas, Kabupaten Barito Selatan, Kalimantan Tengah;Kabupaten Barito Selatan, Kalimantan Tengah;KALIMANTAN TENGAH;;Indonesia;;;;-234.059;1.148.567.482;https://maps.google.com/?cid=0x0:0x37fa6b040b7959f6;
supermarket;Pasar;Warung mama siha;HW68+4J6, Rantau Kujang, Kec. Jenamas, Kabupaten Barito Selatan, Kalimantan Tengah 73763;Rantau Kujang, Kec. Jenamas, Kabupaten Barito Selatan;KALIMANTAN TENGAH;73763;Indonesia;85349837225;;;-24.397.227;114.916.527;https://maps.google.com/?cid=0x0:0x9dd9414c616b0a1c;
supermarket;Toko Swalayan;Kios mama said (kios Muzar);GVQH+343, Rantau Bahuang, Kec. Jenamas, Kabupaten Barito Selatan, Kalimantan Tengah 71453;Rantau Bahuang, Kec. Jenamas, Kabupaten Barito Selatan;KALIMANTAN TENGAH;71453;Indonesia;83153795412;;;-24.622.787;1.148.771.061;https://maps.google.com/?cid=0x0:0xbdf8e89aebfc964a;
supermarket;Toko bahan makanan;Minimarket Klanis Pak Penghulu;PVPW+2X2, Kalanis, Kec. Dusun Hilir, Kabupaten Barito Selatan, Kalimantan Tengah 73763;Kalanis, Kec. Dusun Hilir, Kabupaten Barito Selatan;KALIMANTAN TENGAH;73763;Indonesia;;;;-226.499;1.148.973.979;https://maps.google.com/?cid=0x0:0x5b990ef6fe5c899;
supermarket;Pusat Perbelanjaan;TOKO KEMBAR tersedia sembako,alat bangunan,Perabutan rumah tangga;QVC4+4CC, Jalan, RT.4/RW.1, Mengkatip, Kec. Dusun Hilir, Kabupaten Barito Selatan, Kalimantan Tengah 73762;Jalan, RT.4/RW.1, Mengkatip, Kec. Dusun Hilir, Kabupaten Barito Selatan;KALIMANTAN TENGAH;73762;Indonesia;85348014642;;;-22.297.179;1.148.560.423;https://maps.google.com/?cid=0x0:0xc1607a1eb1b5a0fa;
supermarket;Agen Gas Elpiji;pangkalan elpiji tiga bersaudara;RT 5 RW2, Kalanis, Kec. Dusun Hilir, Kabupaten Barito Selatan, Kalimantan Tengah 73763;Kalanis, Kec. Dusun Hilir, Kabupaten Barito Selatan;KALIMANTAN TENGAH;73763;Indonesia;;;;-22.601.098;1.149.029.539;https://maps.google.com/?cid=0x0:0x4d44ca05036d3746;
supermarket;Toko;Toko Usup;QW9W+CRX, Telang Baru, Kec. Paju Epat, Kabupaten Barito Timur, Kalimantan Tengah 73762;Telang Baru, Kec. Paju Epat, Kabupaten Barito Timur;KALIMANTAN TENGAH;73762;Indonesia;;;;-22.313.943;1.149.471.056;https://maps.google.com/?cid=0x0:0xc20123a57db37b11;
supermarket;Pusat Perbelanjaan;Telang baru;PVFR+6W5, Kalanis, Kec. Dusun Hilir, Kabupaten Barito Selatan, Kalimantan Tengah;Kabupaten Barito Selatan, Kalimantan Tengah;KALIMANTAN TENGAH;;Indonesia;;;;-2.276.981;1.148.923.533;https://maps.google.com/?cid=0x0:0xbc736e8c532ba546;
supermarket;Pusat Perbelanjaan;TOKO MAMA MAHDI;PWXW+VRX, Juru Banu, Kec. Paju Epat, Kabupaten Barito Timur, Kalimantan Tengah 73763;Juru Banu, Kec. Paju Epat, Kabupaten Barito Timur;KALIMANTAN TENGAH;73763;Indonesia;8565180497;;;-22.502.718;1.149.470.979;https://maps.google.com/?cid=0x0:0xfbc77b6e8e177760;
supermarket;Pusat Perbelanjaan;AblamMart;QV95+F5R, Mengkatip, Kec. Dusun Hilir, Kabupaten Barito Selatan, Kalimantan Tengah 73762;Mengkatip, Kec. Dusun Hilir, Kabupaten Barito Selatan;KALIMANTAN TENGAH;73762;Indonesia;;;;-22.308.396;1.148.577.348;https://maps.google.com/?cid=0x0:0x1d6175dd22a6d22b;
supermarket;Produsen makanan;"Produksi Tempe Arum""""";QV95+6GH, Mengkatip, Kec. Dusun Hilir, Kabupaten Barito Selatan, Kalimantan Tengah 73762;Mengkatip, Kec. Dusun Hilir, Kabupaten Barito Selatan;KALIMANTAN TENGAH;73762;Indonesia;;;;-22.319.337;1.148.588.464;https://maps.google.com/?cid=0x0:0xe4f8d2ad0689af69;
supermarket;Toko bahan makanan;Rumah Lanting;PWR3+698, Kalanis, Kec. Dusun Hilir, Kabupaten Barito Selatan, Kalimantan Tengah 73763;Kalanis, Kec. Dusun Hilir, Kabupaten Barito Selatan;KALIMANTAN TENGAH;73763;Indonesia;82360122127;;;-22.594.591;1.149.034.424;https://maps.google.com/?cid=0x0:0xb06b9fdf51dccc6a;
supermarket;supermarket;Kalimantan Tengah 73761;Kabupaten Barito Selatan, Kalimantan Tengah;Kabupaten Barito Selatan, Kalimantan Tengah;KALIMANTAN TENGAH;;Indonesia;;;;-20.019.069;1.147.380.385;https://maps.google.com/?cid=0x0:0xf4482425825ffff8;
supermarket;Toko bahan makanan;Kios HIDAYAH;XV3X+CQC, Unnamed Road, Bangkuang, Kec. Karau Kuala, Kabupaten Barito Selatan, Kalimantan Tengah 73617;Unnamed Road, Bangkuang, Kec. Karau Kuala, Kabupaten Barito Selatan;KALIMANTAN TENGAH;73617;Indonesia;85251342903;;;-20.464.413;1.148.993.818;https://maps.google.com/?cid=0x0:0x3ac0567e1d32c13a;
supermarket;Toko bahan makanan;Mini Market Erin;XV6R+VX8, Bangkuang, Kec. Karau Kuala, Kabupaten Barito Selatan, Kalimantan Tengah 73617;Bangkuang, Kec. Karau Kuala, Kabupaten Barito Selatan;KALIMANTAN TENGAH;73617;Indonesia;82251509448;;;-20.378.388;1.148.924.426;https://maps.google.com/?cid=0x0:0x49ea8413817ef0c0;
supermarket;Toko bahan makanan;"Kios12"" mini ATM""";Babai, Kec. Karau Kuala, Kabupaten Barito Selatan, Kalimantan Tengah 73653;Kec. Karau Kuala, Kabupaten Barito Selatan;KALIMANTAN TENGAH;73653;Indonesia;822551212;;;-19.142.538;1.148.534.213;https://maps.google.com/?cid=0x0:0x17d264d4929a09cc;
supermarket;Toko;Dina;WV32+G55, Tlk. Timbau, Kec. Dusun Hilir, Kabupaten Barito Selatan, Kalimantan Tengah 73617;Tlk. Timbau, Kec. Dusun Hilir, Kabupaten Barito Selatan;KALIMANTAN TENGAH;73617;Indonesia;81347814139;;;-20.962.413;1.148.504.832;https://maps.google.com/?cid=0x0:0xd7ba5fcfd3124df7;
supermarket;Toko bahan makanan;Kios aqilla;XVQR+5QG, Tlk. Betung, Kec. Karau Kuala, Kabupaten Barito Selatan, Kalimantan Tengah 73617;Tlk. Betung, Kec. Karau Kuala, Kabupaten Barito Selatan;KALIMANTAN TENGAH;73617;Indonesia;;;;-20.120.546;1.148.919.494;https://maps.google.com/?cid=0x0:0x68e3f74972a776ed;
supermarket;Pusat Perbelanjaan;KIOS SEMBAKO M RULLAH;XR86+Q75, Batilap, Kec. Dusun Hilir, Kabupaten Barito Selatan, Kalimantan Tengah;Kabupaten Barito Selatan, Kalimantan Tengah;KALIMANTAN TENGAH;;Indonesia;;;;-20.331.061;1.148.107.356;https://maps.google.com/?cid=0x0:0xaab5a8e36b2e671d;
supermarket;Pusat Perbelanjaan;TOKO KEMBAR tersedia sembako,alat bangunan,Perabutan rumah tangga;QVC4+4CC, Jalan, RT.4/RW.1, Mengkatip, Kec. Dusun Hilir, Kabupaten Barito Selatan, Kalimantan Tengah 73762;Jalan, RT.4/RW.1, Mengkatip, Kec. Dusun Hilir, Kabupaten Barito Selatan;KALIMANTAN TENGAH;73762;Indonesia;85348014642;;;-22.297.179;1.148.560.423;https://maps.google.com/?cid=0x0:0xc1607a1eb1b5a0fa;
supermarket;Toko bahan makanan;Lanting Bu Misli;VR5P+RWJ, Damparan, Kec. Dusun Hilir, Kabupaten Barito Selatan, Kalimantan Tengah 73762;Damparan, Kec. Dusun Hilir, Kabupaten Barito Selatan;KALIMANTAN TENGAH;73762;Indonesia;8255550175;;;-21.404.116;1.148.372.625;https://maps.google.com/?cid=0x0:0x2ea171b67532744;
supermarket;Toko bahan makanan;Cemilan mama salma;XVCX+3G4, Bangkuang, Kec. Karau Kuala, Kabupaten Barito Selatan, Kalimantan Tengah 73617;Bangkuang, Kec. Karau Kuala, Kabupaten Barito Selatan;KALIMANTAN TENGAH;73617;Indonesia;;;;-2.029.856;114.898.843;https://maps.google.com/?cid=0x0:0xe6707e38a808ca4d;
supermarket;Toko bahan makanan;Mama zaidan shop;3VP3+VRR, Babai, Kec. Karau Kuala, Kabupaten Barito Selatan, Kalimantan Tengah;Kabupaten Barito Selatan, Kalimantan Tengah;KALIMANTAN TENGAH;;Indonesia;;;;-1.913.213;114.854.797;https://maps.google.com/?cid=0x0:0x36d34343464e6eb7;
supermarket;supermarket;Warung Kue Karim;3VM2+J22, Babai, Kec. Karau Kuala, Kabupaten Barito Selatan, Kalimantan Tengah 73653;Babai, Kec. Karau Kuala, Kabupaten Barito Selatan;KALIMANTAN TENGAH;73653;Indonesia;;;;-19.159.826;1.148.500.272;https://maps.google.com/?cid=0x0:0xab8237c0033f7c8;
supermarket;Sekolah menengah;SMPN 2 Karau Kuala;XV6V+99G, Jl. Barito Raya, RT.23/RW.08, Bangkuang, Kec. Karau Kuala, Kabupaten Barito Selatan, Kalimantan Tengah 73617;Jl. Barito Raya, RT.23/RW.08, Bangkuang, Kec. Karau Kuala, Kabupaten Barito Selatan;KALIMANTAN TENGAH;73617;Indonesia;;;;-20.397.474;1.148.934.273;https://maps.google.com/?cid=0x0:0x6802cca44e4f482f;
