Category;Real Category;Business Name;Address;City;State;Postal Code;Country;Phone;Email;Website;Latitude;Longitude;Map Link;Details Link
komplek housing;Pembangunan Perumahan;Yuaida;QV86+RPC, Mengkatip, Kec. Dusun Hilir, Kabupaten Barito Selatan, Kalimantan Tengah 73762;Mengkatip, Kec. Dusun Hilir, Kabupaten Barito Selatan;KALIMANTAN TENGAH;73762;Indonesia;;;;-22.329.861;114.861.509;https://maps.google.com/?cid=0x0:0x5afa737ee8419b06;
komplek housing;komplek housing;Kalimantan Tengah 73762;Kec. Dusun Hilir, Kabupaten Barito Selatan, Kalimantan Tengah;Kabupaten Barito Selatan, Kalimantan Tengah;KALIMANTAN TENGAH;;Indonesia;;;;-22.001.952;1.146.667.939;https://maps.google.com/?cid=0x0:0xc04a708e6544057b;
komplek housing;Komplek perumahan;Sa'i;VV89+J5F, Damparan, Kec. Dusun Hilir, Kabupaten Barito Selatan, Kalimantan Tengah 73617;Damparan, Kec. Dusun Hilir, Kabupaten Barito Selatan;KALIMANTAN TENGAH;73617;Indonesia;;;;-21.334.101;1.148.679.413;https://maps.google.com/?cid=0x0:0xc6f67d6be5abc426;
komplek housing;Pembangunan Perumahan;Rumah Abah Abie;QV95+29J, jln.Pukesmas Lama, RT.07/RW.03, Mengkatip, Kec. Dusun Hilir, Kabupaten Barito Selatan, Kalimantan Tengah;Kabupaten Barito Selatan, Kalimantan Tengah;KALIMANTAN TENGAH;;Indonesia;;;;-223.261;1.148.583.717;https://maps.google.com/?cid=0x0:0x1197d2b25d866d8f;
komplek housing;Pembangunan Perumahan;Dusun Hilir;QV95+29J, Mengkatip, Kec. Dusun Hilir, Kabupaten Barito Selatan, Kalimantan Tengah;Kabupaten Barito Selatan, Kalimantan Tengah;KALIMANTAN TENGAH;;Indonesia;;;;-22.324.209;1.148.584.057;https://maps.google.com/?cid=0x0:0x5474f0dcdf973efa;
komplek housing;Komplek perumahan;My Dream;VV79+G33, Damparan, Kec. Dusun Hilir, Kabupaten Barito Selatan, Kalimantan Tengah 73617;Damparan, Kec. Dusun Hilir, Kabupaten Barito Selatan;KALIMANTAN TENGAH;73617;Indonesia;;;;-21.362.899;1.148.675.873;https://maps.google.com/?cid=0x0:0x4f4087b006fa10a4;
komplek housing;Kantor Perusahaan;Desa Kalanis;PVPX+GH6, Kalanis, Kec. Dusun Hilir, Kabupaten Barito Selatan, Kalimantan Tengah;Kabupaten Barito Selatan, Kalimantan Tengah;KALIMANTAN TENGAH;;Indonesia;;;;-22.637.052;1.148.988.772;https://maps.google.com/?cid=0x0:0x1d949c28e404334;
komplek housing;Rumah Kayu;Home Fatar;PWR4+V4X, Kalanis, Kec. Dusun Hilir, Kabupaten Barito Selatan, Kalimantan Tengah;Kabupaten Barito Selatan, Kalimantan Tengah;KALIMANTAN TENGAH;;Indonesia;;;;-22.577.744;1.149.053.702;https://maps.google.com/?cid=0x0:0x48335066a260740;
komplek housing;Komplek perumahan;Agen. I. D;Rt.004, Sungai Jaya;Kabupaten Barito Selatan, Kalimantan Tengah;KALIMANTAN TENGAH;;Indonesia;;;;-23.772.086;1.147.769.109;https://maps.google.com/?cid=0x0:0x106a9ac5d02c0eb2;
komplek housing;komplek housing;Rumah Yasa/Abah Rayyan;QVC3+JVX, Mengkatip, Kec. Dusun Hilir, Kabupaten Barito Selatan, Kalimantan Tengah 73762;Mengkatip, Kec. Dusun Hilir, Kabupaten Barito Selatan;KALIMANTAN TENGAH;73762;Indonesia;;;;-22.283.755;114.854.721;https://maps.google.com/?cid=0x0:0xc5e1b5f590b2fac8;
komplek housing;Komplek perumahan;Rumah mukhlis;RVX9+7CH, Damparan, Kec. Dusun Hilir, Kabupaten Barito Selatan, Kalimantan Tengah;Kabupaten Barito Selatan, Kalimantan Tengah;KALIMANTAN TENGAH;;Indonesia;;;;-21.518.098;1.148.686.169;https://maps.google.com/?cid=0x0:0x63d1a1dd66ec711;
komplek housing;Perhimpunan Pengembang Perumahan;Rumah mama sarah;QV85+GQQ, Mengkatip, Kec. Dusun Hilir, Kabupaten Barito Selatan, Kalimantan Tengah 73762;Mengkatip, Kec. Dusun Hilir, Kabupaten Barito Selatan;KALIMANTAN TENGAH;73762;Indonesia;;;;-22.330.537;1.148.599.738;https://maps.google.com/?cid=0x0:0x9fbc0fe15a6aa684;
komplek housing;Perhimpunan Pengembang Perumahan;Mahajandau;PQQF+GFC, Mahajandau, Kec. Dusun Hilir, Kabupaten Barito Selatan, Kalimantan Tengah;Kabupaten Barito Selatan, Kalimantan Tengah;KALIMANTAN TENGAH;;Indonesia;;;;-22.611.814;1.147.736.556;https://maps.google.com/?cid=0x0:0x4bf8d6fe409f42bf;
komplek housing;Komplek perumahan;Rumah Tantara;QV8C+4P, Mengkatip, Kec. Dusun Hilir, Kabupaten Barito Selatan, Kalimantan Tengah;Kabupaten Barito Selatan, Kalimantan Tengah;KALIMANTAN TENGAH;;Indonesia;;;;-22.346.825;1.148.718.695;https://maps.google.com/?cid=0x0:0x46544dfb4099134a;
komplek housing;Komplek perumahan;Khairul kahfi;QWCX+953, Telang Baru, Kec. Paju Epat, Kabupaten Barito Timur, Kalimantan Tengah 73762;Telang Baru, Kec. Paju Epat, Kabupaten Barito Timur;KALIMANTAN TENGAH;73762;Indonesia;;;;-22.291.773;1.149.467.675;https://maps.google.com/?cid=0x0:0xe7cc31a13304019c;
komplek housing;Komplek perumahan;Amel aqila;RW73+C3R, Lehai, Kec. Dusun Hilir, Kabupaten Barito Selatan, Kalimantan Tengah;Kabupaten Barito Selatan, Kalimantan Tengah;KALIMANTAN TENGAH;;Indonesia;;;;-21.863.756;114.902.644;https://maps.google.com/?cid=0x0:0x5bb7c228bbd0c28;
komplek housing;Komplek perumahan;SUNGAI JAYA;JQJG+FJR, Sungai Jaya, Kec. Dusun Hilir, Kabupaten Barito Selatan, Kalimantan Tengah;Kabupaten Barito Selatan, Kalimantan Tengah;KALIMANTAN TENGAH;;Indonesia;;;;-23.687.582;1.147.765.034;https://maps.google.com/?cid=0x0:0x7bef7d072ddab084;
komplek housing;Perhimpunan Pengembang Perumahan;Frans  Fely;PR2Q+MVV, Mahajandau, Kec. Dusun Hilir, Kabupaten Barito Selatan, Kalimantan Tengah;Kabupaten Barito Selatan, Kalimantan Tengah;KALIMANTAN TENGAH;;Indonesia;;;;-22.982.749;1.148.396.812;https://maps.google.com/?cid=0x0:0x7e73a212e7c5a62b;
komplek housing;Komplek perumahan;Tambie ndu dadu;JQ9G+PGX, RT.06, Sungai Jaya, Kec. Dusun Hilir, Kabupaten Barito Selatan, Kalimantan Tengah 73593;RT.06, Sungai Jaya, Kec. Dusun Hilir, Kabupaten Barito Selatan;KALIMANTAN TENGAH;73593;Indonesia;;;;-23.819.668;1.147.762.775;https://maps.google.com/?cid=0x0:0x88ac98741bfd3e8a;
komplek housing;komplek housing;Kec. Dusun Hilir;Kabupaten Barito Selatan, Kalimantan Tengah;Kabupaten Barito Selatan, Kalimantan Tengah;KALIMANTAN TENGAH;;Indonesia;;;;-22.703.879;1.147.617.836;https://maps.google.com/?cid=0x0:0xe7620321e2b640ab;
komplek housing;Komplek perumahan;Rumah pelanggan telang baru;QWCX+953, Telang Baru, Kec. Paju Epat, Kabupaten Barito Timur, Kalimantan Tengah 73762;Telang Baru, Kec. Paju Epat, Kabupaten Barito Timur;KALIMANTAN TENGAH;73762;Indonesia;;;;-2.229.522;114.947.227;https://maps.google.com/?cid=0x0:0x80bbae7f3dedc00e;
komplek housing;Komplek perumahan;Vila ASPIANNOR;6Q5R+42H, Baru, Kec. Dusun Sel., Kabupaten Barito Selatan, Kalimantan Tengah;Kabupaten Barito Selatan, Kalimantan Tengah;KALIMANTAN TENGAH;;Indonesia;;;;-17.921.838;1.147.900.985;https://maps.google.com/?cid=0x0:0x3b99b6af944cd431;
komplek housing;Komplek perumahan;599;6RF5+FHJ, Jl. Manunggal VII, Baru, Kec. Dusun Sel., Kabupaten Barito Selatan, Kalimantan Tengah 73751;Jl. Manunggal VII, Baru, Kec. Dusun Sel., Kabupaten Barito Selatan;KALIMANTAN TENGAH;73751;Indonesia;;;;-17.762.908;1.148.089.015;https://maps.google.com/?cid=0x0:0x207ff1a7c2944b77;
komplek housing;komplek housing;Kalimantan Tengah 73711;Kec. Dusun Sel., Kabupaten Barito Selatan, Kalimantan Tengah;Kabupaten Barito Selatan, Kalimantan Tengah;KALIMANTAN TENGAH;;Indonesia;;;;-17.964.233;1.147.736.556;https://maps.google.com/?cid=0x0:0x4a719b8c335066ed;
komplek housing;Komplek perumahan;PERUMAHAN BUMI RAYA PERMAI;7RHW+3P3, Jl. Pelita IV Gg. Dawitkarani, Buntok Kota, Kec. Dusun Sel., Kabupaten Barito Selatan, Kalimantan Tengah 73713;Jl. Pelita IV Gg. Dawitkarani, Buntok Kota, Kec. Dusun Sel., Kabupaten Barito Selatan;KALIMANTAN TENGAH;73713;Indonesia;;;;-17.233.276;1.148.466.482;https://maps.google.com/?cid=0x0:0x48db26242698a167;
komplek housing;komplek housing;Edi A.;6RF6+P6Q, Baru, Kec. Dusun Sel., Kabupaten Barito Selatan, Kalimantan Tengah;Kabupaten Barito Selatan, Kalimantan Tengah;KALIMANTAN TENGAH;;Indonesia;;;;-17.756.636;1.148.106.201;https://maps.google.com/?cid=0x0:0x1b0e808d5cf81847;
komplek housing;Komplek perumahan;Rumah Gusti;6RF4+C3M, Baru, Kec. Dusun Sel., Kabupaten Barito Selatan, Kalimantan Tengah 73751;Baru, Kec. Dusun Sel., Kabupaten Barito Selatan;KALIMANTAN TENGAH;73751;Indonesia;;;;-17.764.753;1.148.052.705;https://maps.google.com/?cid=0x0:0x563f17127b5d55e7;
komplek housing;Komplek perumahan;Rosa house;6RF4+34H, Jl. Manunggal VII, Baru, Kec. Dusun Sel., Kabupaten Barito Selatan, Kalimantan Tengah;Kabupaten Barito Selatan, Kalimantan Tengah;KALIMANTAN TENGAH;;Indonesia;;;;-1.777.315;1.148.053.471;https://maps.google.com/?cid=0x0:0x304385b156094efa;
komplek housing;Komplek perumahan;Posko kkn;6RF5+VHW, Baru, Kec. Dusun Sel., Kabupaten Barito Selatan, Kalimantan Tengah;Kabupaten Barito Selatan, Kalimantan Tengah;KALIMANTAN TENGAH;;Indonesia;;;;-17.752.551;1.148.089.518;https://maps.google.com/?cid=0x0:0x4fa1eb644cd4b4e5;
komplek housing;Perhimpunan Pengembang Perumahan;M Muhklis;6RHH+7FX, Danau Sadar, Kec. Dusun Sel., Kabupaten Barito Selatan, Kalimantan Tengah;Kabupaten Barito Selatan, Kalimantan Tengah;KALIMANTAN TENGAH;;Indonesia;;;;-1.771.841;114.828.698;https://maps.google.com/?cid=0x0:0x5720ddd805b971ad;
komplek housing;Kedai Kopi;Rumah keluarga buee;6RCF+XPM, Danau Sadar, Kec. Dusun Sel., Kabupaten Barito Selatan, Kalimantan Tengah;Kabupaten Barito Selatan, Kalimantan Tengah;KALIMANTAN TENGAH;;Indonesia;;;;-17.775.481;1.148.242.728;https://maps.google.com/?cid=0x0:0x4db3d755edc6a66e;
komplek housing;Komplek perumahan;ROEZLAND HOUSE;Jl. Niaga No.26, RT.22, Buntok Kota, Kec. Dusun Sel., Kabupaten Barito Selatan, Kalimantan Tengah 73711;RT.22, Buntok Kota, Kec. Dusun Sel., Kabupaten Barito Selatan;KALIMANTAN TENGAH;73711;Indonesia;;;;-1.715.929;1.148.342.321;https://maps.google.com/?cid=0x0:0xf70c67d55a2b85b0;
komplek housing;Komplek perumahan;Rumah Unda;7R9P+P6Q, Buntok Kota, Kec. Dusun Sel., Kabupaten Barito Selatan, Kalimantan Tengah 73711;Buntok Kota, Kec. Dusun Sel., Kabupaten Barito Selatan;KALIMANTAN TENGAH;73711;Indonesia;;;;-17.306.705;1.148.356.212;https://maps.google.com/?cid=0x0:0xf006c3b4b33b0d6b;
komplek housing;komplek housing;Kec. Dusun Sel.;Kabupaten Barito Selatan, Kalimantan Tengah;Kabupaten Barito Selatan, Kalimantan Tengah;KALIMANTAN TENGAH;;Indonesia;;;;-16.976.543;1.148.567.482;https://maps.google.com/?cid=0x0:0x4761c6f9634fa582;
komplek housing;Pusat Perbelanjaan;Rwahyu;Jl. Pahlawan No.1, Buntok Kota, Kec. Dusun Sel., Kabupaten Barito Selatan, Kalimantan Tengah 73711;Buntok Kota, Kec. Dusun Sel., Kabupaten Barito Selatan;KALIMANTAN TENGAH;73711;Indonesia;;;;-17.133.033;1.148.489.395;https://maps.google.com/?cid=0x0:0x76f2250b0f9225d3;
komplek housing;Komplek perumahan;Rumah dinas;7VP4+2GH, Jl. Pahlawan, Buntok Kota, Kec. Dusun Sel., Kabupaten Barito Selatan, Kalimantan Tengah;Kabupaten Barito Selatan, Kalimantan Tengah;KALIMANTAN TENGAH;;Indonesia;;;;-171.493;1.148.563.467;https://maps.google.com/?cid=0x0:0x2adf9a6f6fc128a3;
komplek housing;komplek housing;Kalimantan Tengah 73712;Kec. Dusun Sel., Kabupaten Barito Selatan, Kalimantan Tengah;Kabupaten Barito Selatan, Kalimantan Tengah;KALIMANTAN TENGAH;;Indonesia;;;;-18.255.326;1.147.588.155;https://maps.google.com/?cid=0x0:0xbc3cf9c65f77161b;
komplek housing;Kantor Pemerintah;Desa Teluk Sampudau;5Q9F+HCV, Tlk. Sampudau, Kec. Karau Kuala, Kabupaten Barito Selatan, Kalimantan Tengah;Kabupaten Barito Selatan, Kalimantan Tengah;KALIMANTAN TENGAH;;Indonesia;;;;-18.310.003;1.147.735.426;https://maps.google.com/?cid=0x0:0xd2059c5f6103786;
komplek housing;Komplek perumahan;599;6RF5+FHJ, Jl. Manunggal VII, Baru, Kec. Dusun Sel., Kabupaten Barito Selatan, Kalimantan Tengah 73751;Jl. Manunggal VII, Baru, Kec. Dusun Sel., Kabupaten Barito Selatan;KALIMANTAN TENGAH;73751;Indonesia;;;;-17.762.908;1.148.089.015;https://maps.google.com/?cid=0x0:0x207ff1a7c2944b77;
komplek housing;Komplek perumahan;Rumah slamet slebew;5Q2J+7RG, Bintang Kurung, Kec. Karau Kuala, Kabupaten Barito Selatan, Kalimantan Tengah 73713;Bintang Kurung, Kec. Karau Kuala, Kabupaten Barito Selatan;KALIMANTAN TENGAH;73713;Indonesia;;;;-18.495.825;1.147.813.321;https://maps.google.com/?cid=0x0:0x4459ae469d846a29;
komplek housing;Komplek perumahan;Rumah dinas;7VP4+2GH, Jl. Pahlawan, Buntok Kota, Kec. Dusun Sel., Kabupaten Barito Selatan, Kalimantan Tengah;Kabupaten Barito Selatan, Kalimantan Tengah;KALIMANTAN TENGAH;;Indonesia;;;;-171.493;1.148.563.467;https://maps.google.com/?cid=0x0:0x2adf9a6f6fc128a3;
komplek housing;Rumah Kayu;Rumah Farhan;5Q2H+6R Padang bajikut rangga, Bintang Kurung, Kec. Karau Kuala, Kabupaten Barito Selatan, Kalimantan Tengah;Kabupaten Barito Selatan, Kalimantan Tengah;KALIMANTAN TENGAH;;Indonesia;;;;-18.502.611;1.147.797.834;https://maps.google.com/?cid=0x0:0x273c0ba1bda7179d;
komplek housing;komplek housing;Bintang Kurung;5Q2H+6R, Bintang Kurung, Kec. Karau Kuala, Kabupaten Barito Selatan, Kalimantan Tengah;Kabupaten Barito Selatan, Kalimantan Tengah;KALIMANTAN TENGAH;;Indonesia;;;;-18.512.198;1.147.793.369;https://maps.google.com/?cid=0x0:0x1e3163cbf66ac534;
komplek housing;komplek housing;Kec. Dusun Sel.;Kabupaten Barito Selatan, Kalimantan Tengah;Kabupaten Barito Selatan, Kalimantan Tengah;KALIMANTAN TENGAH;;Indonesia;;;;-16.976.543;1.148.567.482;https://maps.google.com/?cid=0x0:0x4761c6f9634fa582;
komplek housing;Komplek perumahan;Asrama TNI Buntok;Jl. Jelapat No.54, Hilir Sper, Kec. Dusun Sel., Kabupaten Barito Selatan, Kalimantan Tengah 73712;Hilir Sper, Kec. Dusun Sel., Kabupaten Barito Selatan;KALIMANTAN TENGAH;73712;Indonesia;;;;-17.338.378;1.148.310.364;https://maps.google.com/?cid=0x0:0x31174dac260b0e31;
komplek housing;Komplek perumahan;Rumah ibu sari;Jl. Jelapat No.18, Hilir Sper, Kec. Dusun Sel., Kabupaten Barito Selatan, Kalimantan Tengah 73712;Hilir Sper, Kec. Dusun Sel., Kabupaten Barito Selatan;KALIMANTAN TENGAH;73712;Indonesia;;;;-17.323.883;1.148.308.005;https://maps.google.com/?cid=0x0:0xd2da7f8d8905219c;
komplek housing;komplek housing;Lizah 176;Jl. Kaladan Gg.REFORMASI No.10, RT.24/RW.5, Hilir Sper, Kec. Dusun Sel., Kabupaten Barito Selatan, Kalimantan Tengah 73712;RT.24/RW.5, Hilir Sper, Kec. Dusun Sel., Kabupaten Barito Selatan;KALIMANTAN TENGAH;73712;Indonesia;;;;-17.379.836;1.148.439.245;https://maps.google.com/?cid=0x0:0xcb56495f60e40efc;
komplek housing;Pembangunan Perumahan;NAFISA  FIKRI;Jl. Ibunda No.93, Hilir Sper, Kec. Dusun Sel., Kabupaten Barito Selatan, Kalimantan Tengah 73712;Hilir Sper, Kec. Dusun Sel., Kabupaten Barito Selatan;KALIMANTAN TENGAH;73712;Indonesia;;;;-1.728.506;114.839.417;https://maps.google.com/?cid=0x0:0xcd8d9443b0157e59;
komplek housing;Komplek perumahan;PERUMAHAN BUMI RAYA PERMAI;7RHW+3P3, Jl. Pelita IV Gg. Dawitkarani, Buntok Kota, Kec. Dusun Sel., Kabupaten Barito Selatan, Kalimantan Tengah 73713;Jl. Pelita IV Gg. Dawitkarani, Buntok Kota, Kec. Dusun Sel., Kabupaten Barito Selatan;KALIMANTAN TENGAH;73713;Indonesia;;;;-17.233.276;1.148.466.482;https://maps.google.com/?cid=0x0:0x48db26242698a167;
komplek housing;komplek housing;Kalimantan Tengah 73713;Kabupaten Barito Selatan, Kalimantan Tengah;Kabupaten Barito Selatan, Kalimantan Tengah;KALIMANTAN TENGAH;;Indonesia;;;;-17.531.862;1.146.905.436;https://maps.google.com/?cid=0x0:0x1c28f022a25af1a5;
komplek housing;Komplek perumahan;Perumahan Pondok Indah Karabung Permai;7RPW+J33, Buntok Kota, Kec. Dusun Sel., Kabupaten Barito Selatan, Kalimantan Tengah 73751;Buntok Kota, Kec. Dusun Sel., Kabupaten Barito Selatan;KALIMANTAN TENGAH;73751;Indonesia;;;;-17.134.782;11.484.516;https://maps.google.com/?cid=0x0:0x8451e4547f3c5f8e;
komplek housing;Komplek perumahan;Rumah ku;7R9V+F67, Kalahien - Buntok, Kalahien, Kec. Dusun Sel., Kabupaten Barito Selatan, Kalimantan Tengah 73751;Kalahien - Buntok, Kalahien, Kec. Dusun Sel., Kabupaten Barito Selatan;KALIMANTAN TENGAH;73751;Indonesia;;;;-1.731.327;1.148.430.336;https://maps.google.com/?cid=0x0:0xde047bbb18a83443;
komplek housing;Komplek perumahan;Rumàh Novarina Buntok;Jl. Kaladan Gg. Takam, 3 Rt.17 Rw.004 No.22, Hilir Sper;Kabupaten Barito Selatan, Kalimantan Tengah;KALIMANTAN TENGAH;;Indonesia;;;;-17.240.873;1.148.431.998;https://maps.google.com/?cid=0x0:0x80c834bc657794bd;
komplek housing;Kantor Pemerintah;Perumahan KPPN Buntok;7VP2+3H2, Buntok Kota, Kec. Dusun Sel., Kabupaten Barito Selatan, Kalimantan Tengah 73713;Buntok Kota, Kec. Dusun Sel., Kabupaten Barito Selatan;KALIMANTAN TENGAH;73713;Indonesia;;;;-1.714.862;1.148.513.998;https://maps.google.com/?cid=0x0:0xabdd3ee256b23131;
komplek housing;Komplek perumahan;ROEZLAND HOUSE;Jl. Niaga No.26, RT.22, Buntok Kota, Kec. Dusun Sel., Kabupaten Barito Selatan, Kalimantan Tengah 73711;RT.22, Buntok Kota, Kec. Dusun Sel., Kabupaten Barito Selatan;KALIMANTAN TENGAH;73711;Indonesia;;;;-1.715.929;1.148.342.321;https://maps.google.com/?cid=0x0:0xf70c67d55a2b85b0;
komplek housing;Pembangunan Perumahan;Rumah kayos;7RPQ+76X, Buntok Kota, Kec. Dusun Sel., Kabupaten Barito Selatan, Kalimantan Tengah 73751;Buntok Kota, Kec. Dusun Sel., Kabupaten Barito Selatan;KALIMANTAN TENGAH;73751;Indonesia;;;;-17.142.572;1.148.381.031;https://maps.google.com/?cid=0x0:0xfc51b23ea4f28d0c;
komplek housing;Komplek perumahan;PERUMAHAN BUMI RAYA PERMAI;7RHW+3P3, Jl. Pelita IV Gg. Dawitkarani, Buntok Kota, Kec. Dusun Sel., Kabupaten Barito Selatan, Kalimantan Tengah 73713;Jl. Pelita IV Gg. Dawitkarani, Buntok Kota, Kec. Dusun Sel., Kabupaten Barito Selatan;KALIMANTAN TENGAH;73713;Indonesia;;;;-17.233.276;1.148.466.482;https://maps.google.com/?cid=0x0:0x48db26242698a167;
komplek housing;Komplek perumahan;Rumah;7RGR+836, Hilir Sper, Kec. Dusun Sel., Kabupaten Barito Selatan, Kalimantan Tengah;Kabupaten Barito Selatan, Kalimantan Tengah;KALIMANTAN TENGAH;;Indonesia;;;;-1.724.219;1.148.401.335;https://maps.google.com/?cid=0x0:0x280d6805af87d0dc;
komplek housing;Perhimpunan Pengembang Perumahan;Almani Home;Jl. Pahlawan, Pamait, Kec. Dusun Sel., Kabupaten Barito Selatan, Kalimantan Tengah 73713;Pamait, Kec. Dusun Sel., Kabupaten Barito Selatan;KALIMANTAN TENGAH;73713;Indonesia;;;;-16.922.218;1.148.763.071;https://maps.google.com/?cid=0x0:0x72b94b61e367f15;
komplek housing;Komplek perumahan;Martjun Regency;7RJQ+7V8, Jl. Amd I, Buntok Kota, Kec. Dusun Sel., Kabupaten Barito Selatan, Kalimantan Tengah 73751;Jl. Amd I, Buntok Kota, Kec. Dusun Sel., Kabupaten Barito Selatan;KALIMANTAN TENGAH;73751;Indonesia;;;;-17.193.267;1.148.397.001;https://maps.google.com/?cid=0x0:0x12dfce1be9f1d8b9;
komplek housing;Komplek perumahan;Asrama TNI Buntok;Jl. Jelapat No.54, Hilir Sper, Kec. Dusun Sel., Kabupaten Barito Selatan, Kalimantan Tengah 73712;Hilir Sper, Kec. Dusun Sel., Kabupaten Barito Selatan;KALIMANTAN TENGAH;73712;Indonesia;;;;-17.338.378;1.148.310.364;https://maps.google.com/?cid=0x0:0x31174dac260b0e31;
komplek housing;Komplek perumahan;cangli dusun;9R44+6RX, Kalahien, Kec. Dusun Sel., Kabupaten Barito Selatan, Kalimantan Tengah 73751;Kalahien, Kec. Dusun Sel., Kabupaten Barito Selatan;KALIMANTAN TENGAH;73751;Indonesia;;;;-16.451.697;1.148.064.359;https://maps.google.com/?cid=0x0:0x7a4e8b9668f353d;
komplek housing;Rumah Pondokan;Rumah kos;Jl. Pahlawan No.29, RT.031/RW.004, Buntok Kota, Kec. Dusun Sel., Kabupaten Barito Selatan, Kalimantan Tengah 73751;RT.031/RW.004, Buntok Kota, Kec. Dusun Sel., Kabupaten Barito Selatan;KALIMANTAN TENGAH;73751;Indonesia;;;;-17.163.332;114.840.755;https://maps.google.com/?cid=0x0:0xf56beb6b62bb37b8;
komplek housing;Rumah Kayu;Rumah Ustadz H. Muhammad Sibawaihi, Lc Mudir/Pimpinan Ponpes Nurul Azhar;7RJV+WGM, Jl. Pelita Raya, Hilir Sper, Kec. Dusun Sel., Kabupaten Barito Selatan, Kalimantan Tengah 73751;Jl. Pelita Raya, Hilir Sper, Kec. Dusun Sel., Kabupaten Barito Selatan;KALIMANTAN TENGAH;73751;Indonesia;;;;-17.176.624;11.484.381;https://maps.google.com/?cid=0x0:0xc3807df63c8b758d;
komplek housing;komplek housing;Edi A.;6RF6+P6Q, Baru, Kec. Dusun Sel., Kabupaten Barito Selatan, Kalimantan Tengah;Kabupaten Barito Selatan, Kalimantan Tengah;KALIMANTAN TENGAH;;Indonesia;;;;-17.756.636;1.148.106.201;https://maps.google.com/?cid=0x0:0x1b0e808d5cf81847;
komplek housing;Komplek perumahan;Fandy;8V7H+8FH, Jl. Soekarno - Hatta, Sanggu, Kec. Dusun Sel., Kabupaten Barito Selatan, Kalimantan Tengah 73713;Jl. Soekarno - Hatta, Sanggu, Kec. Dusun Sel., Kabupaten Barito Selatan;KALIMANTAN TENGAH;73713;Indonesia;;;;-16.871.435;1.148.782.581;https://maps.google.com/?cid=0x0:0x6a4f790c29dcafd5;
komplek housing;Komplek perumahan;my home;7RGR+V58, Gg. Palapa 1, Hilir Sper, Kec. Dusun Sel., Kabupaten Barito Selatan, Kalimantan Tengah 73751;Gg. Palapa 1, Hilir Sper, Kec. Dusun Sel., Kabupaten Barito Selatan;KALIMANTAN TENGAH;73751;Indonesia;;;;-17.228.258;1.148.404.528;https://maps.google.com/?cid=0x0:0x78ef67a0cc80835;
komplek housing;Komplek perumahan;Dhe Justice Home;Jl. Kelurahan, Buntok Kota, Kec. Dusun Sel., Kabupaten Barito Selatan, Kalimantan Tengah 73751;Buntok Kota, Kec. Dusun Sel., Kabupaten Barito Selatan;KALIMANTAN TENGAH;73751;Indonesia;;;;-1.718.347;114.842.293;https://maps.google.com/?cid=0x0:0x64175f4f2a8934a0;
komplek housing;Pembangunan Perumahan;Graha Kayu Manis (Komplek Perumahan);8W65+JGR, Jl. Soekarno - Hatta, Sababilah, Kec. Dusun Sel., Kabupaten Barito Selatan, Kalimantan Tengah 73713;Jl. Soekarno - Hatta, Sababilah, Kec. Dusun Sel., Kabupaten Barito Selatan;KALIMANTAN TENGAH;73713;Indonesia;;;;-16.883.804;1.149.087.591;https://maps.google.com/?cid=0x0:0x72673211a0e9d1b7;
komplek housing;komplek housing;Kec. Dusun Sel.;Kabupaten Barito Selatan, Kalimantan Tengah;Kabupaten Barito Selatan, Kalimantan Tengah;KALIMANTAN TENGAH;;Indonesia;;;;-16.976.543;1.148.567.482;https://maps.google.com/?cid=0x0:0x4761c6f9634fa582;
komplek housing;Komplek perumahan;Rumah Rolanf;7VP7+7QP, Buntok - Ampah, Buntok Kota, Kec. Dusun Sel., Kabupaten Barito Selatan, Kalimantan Tengah 73713;Buntok - Ampah, Buntok Kota, Kec. Dusun Sel., Kabupaten Barito Selatan;KALIMANTAN TENGAH;73713;Indonesia;;;;-17.142.983;1.148.644.561;https://maps.google.com/?cid=0x0:0x3b0e9cf64f885b41;
komplek housing;Pembangunan Perumahan;Perumahan Graha Mutiara Asri;7VP7+5Q7, Buntok Kota, Kec. Dusun Sel., Kabupaten Barito Selatan, Kalimantan Tengah 73713;Buntok Kota, Kec. Dusun Sel., Kabupaten Barito Selatan;KALIMANTAN TENGAH;73713;Indonesia;;;;-17.145.802;1.148.644.065;https://maps.google.com/?cid=0x0:0xa5a038ab60769961;
komplek housing;Komplek perumahan;Rumah Renot;8W86+W3V, Unnamed Road, Sanggu, Kec. Dusun Sel., Kabupaten Barito Selatan, Kalimantan Tengah 73713;Unnamed Road, Sanggu, Kec. Dusun Sel., Kabupaten Barito Selatan;KALIMANTAN TENGAH;73713;Indonesia;;;;-16.826.447;1.149.101.814;https://maps.google.com/?cid=0x0:0xae2acfd2bb3eca3c;
komplek housing;Komplek perumahan;Mirna's Home;7VP7+4G9, Buntok Kota, Kec. Dusun Sel., Kabupaten Barito Selatan, Kalimantan Tengah 73713;Buntok Kota, Kec. Dusun Sel., Kabupaten Barito Selatan;KALIMANTAN TENGAH;73713;Indonesia;;;;-17.142.749;1.148.640.051;https://maps.google.com/?cid=0x0:0x86691a495c2f6406;
komplek housing;Komplek perumahan;Rumah DyaFatih;7VP6+76J, Jl. Asam, Buntok Kota, Kec. Dusun Sel., Kabupaten Barito Selatan, Kalimantan Tengah 73713;Jl. Asam, Buntok Kota, Kec. Dusun Sel., Kabupaten Barito Selatan;KALIMANTAN TENGAH;73713;Indonesia;;;;-17.141.214;1.148.604.213;https://maps.google.com/?cid=0x0:0xc3d30ad7fd2d09ee;
komplek housing;komplek housing;Kediaman Aji Rario P. Ludjen;Jl. Pahlawan No.34, Buntok Kota, Kec. Dusun Sel., Kabupaten Barito Selatan, Kalimantan Tengah 73713;Buntok Kota, Kec. Dusun Sel., Kabupaten Barito Selatan;KALIMANTAN TENGAH;73713;Indonesia;;;;-17.148.621;1.148.572.609;https://maps.google.com/?cid=0x0:0x896ad3f89080867b;
komplek housing;Pembangunan Perumahan;Rumah Karia budi;Jl. Asam No.69, Buntok Kota, Kec. Dusun Sel., Kabupaten Barito Selatan, Kalimantan Tengah 73713;Buntok Kota, Kec. Dusun Sel., Kabupaten Barito Selatan;KALIMANTAN TENGAH;73713;Indonesia;;;;-1.714.306;1.148.600.945;https://maps.google.com/?cid=0x0:0xfd7c13bd5c0992ad;
komplek housing;Komplek perumahan;Rumah budiono;7R6W+6FR, Hilir Sper, Kec. Dusun Sel., Kabupaten Barito Selatan, Kalimantan Tengah 73713;Hilir Sper, Kec. Dusun Sel., Kabupaten Barito Selatan;KALIMANTAN TENGAH;73713;Indonesia;;;;-17.393.875;1.148.461.406;https://maps.google.com/?cid=0x0:0xc20d1d0b43b749a5;
komplek housing;Komplek perumahan;Perumahan Pondok Indah Karabung Permai;7RPW+J33, Buntok Kota, Kec. Dusun Sel., Kabupaten Barito Selatan, Kalimantan Tengah 73751;Buntok Kota, Kec. Dusun Sel., Kabupaten Barito Selatan;KALIMANTAN TENGAH;73751;Indonesia;;;;-17.134.782;11.484.516;https://maps.google.com/?cid=0x0:0x8451e4547f3c5f8e;
komplek housing;Rumah Kayu;Rumah Ustadz H. Muhammad Sibawaihi, Lc Mudir/Pimpinan Ponpes Nurul Azhar;7RJV+WGM, Jl. Pelita Raya, Hilir Sper, Kec. Dusun Sel., Kabupaten Barito Selatan, Kalimantan Tengah 73751;Jl. Pelita Raya, Hilir Sper, Kec. Dusun Sel., Kabupaten Barito Selatan;KALIMANTAN TENGAH;73751;Indonesia;;;;-17.176.624;11.484.381;https://maps.google.com/?cid=0x0:0xc3807df63c8b758d;
komplek housing;komplek housing;Kalimantan Tengah 73751;Kec. Dusun Sel., Kabupaten Barito Selatan, Kalimantan Tengah;Kabupaten Barito Selatan, Kalimantan Tengah;KALIMANTAN TENGAH;;Indonesia;;;;-16.899.287;1.147.736.556;https://maps.google.com/?cid=0x0:0xfd0ed3d130200b49;
komplek housing;Komplek perumahan;Rumah ku;7R9V+F67, Kalahien - Buntok, Kalahien, Kec. Dusun Sel., Kabupaten Barito Selatan, Kalimantan Tengah 73751;Kalahien - Buntok, Kalahien, Kec. Dusun Sel., Kabupaten Barito Selatan;KALIMANTAN TENGAH;73751;Indonesia;;;;-1.731.327;1.148.430.336;https://maps.google.com/?cid=0x0:0xde047bbb18a83443;
komplek housing;Komplek perumahan;Asrama TNI Buntok;Jl. Jelapat No.54, Hilir Sper, Kec. Dusun Sel., Kabupaten Barito Selatan, Kalimantan Tengah 73712;Hilir Sper, Kec. Dusun Sel., Kabupaten Barito Selatan;KALIMANTAN TENGAH;73712;Indonesia;;;;-17.338.378;1.148.310.364;https://maps.google.com/?cid=0x0:0x31174dac260b0e31;
komplek housing;Komplek perumahan;Perumahan Dinas BLK Buntok;Jl. Kartini No.40, Hilir Sper, Kec. Dusun Sel., Kabupaten Barito Selatan, Kalimantan Tengah 73751;Hilir Sper, Kec. Dusun Sel., Kabupaten Barito Selatan;KALIMANTAN TENGAH;73751;Indonesia;;;;-17.326.293;1.148.319.333;https://maps.google.com/?cid=0x0:0x47e8cda4803e0c7b;
komplek housing;Komplek perumahan;Rumah;7RGR+836, Hilir Sper, Kec. Dusun Sel., Kabupaten Barito Selatan, Kalimantan Tengah;Kabupaten Barito Selatan, Kalimantan Tengah;KALIMANTAN TENGAH;;Indonesia;;;;-1.724.219;1.148.401.335;https://maps.google.com/?cid=0x0:0x280d6805af87d0dc;
komplek housing;Komplek perumahan;Rumah Goe;Jl. Jelapat No.13-17, Hilir Sper, Kec. Dusun Sel., Kabupaten Barito Selatan, Kalimantan Tengah 73751;Hilir Sper, Kec. Dusun Sel., Kabupaten Barito Selatan;KALIMANTAN TENGAH;73751;Indonesia;;;;-17.388.407;1.148.291.011;https://maps.google.com/?cid=0x0:0x676a352ed12405bd;
komplek housing;Komplek perumahan;Dhe Justice Home;Jl. Kelurahan, Buntok Kota, Kec. Dusun Sel., Kabupaten Barito Selatan, Kalimantan Tengah 73751;Buntok Kota, Kec. Dusun Sel., Kabupaten Barito Selatan;KALIMANTAN TENGAH;73751;Indonesia;;;;-1.718.347;114.842.293;https://maps.google.com/?cid=0x0:0x64175f4f2a8934a0;
komplek housing;Otoritas Perumahan;Asrama Bhayangkara 1;7R9V+MH6, Hilir Sper, Kec. Dusun Sel., Kabupaten Barito Selatan, Kalimantan Tengah 73751;Hilir Sper, Kec. Dusun Sel., Kabupaten Barito Selatan;KALIMANTAN TENGAH;73751;Indonesia;;;;-17.308.298;1.148.438.923;https://maps.google.com/?cid=0x0:0xbae0a03b41c996b8;
komplek housing;Komplek perumahan;ROEZLAND HOUSE;Jl. Niaga No.26, RT.22, Buntok Kota, Kec. Dusun Sel., Kabupaten Barito Selatan, Kalimantan Tengah 73711;RT.22, Buntok Kota, Kec. Dusun Sel., Kabupaten Barito Selatan;KALIMANTAN TENGAH;73711;Indonesia;;;;-1.715.929;1.148.342.321;https://maps.google.com/?cid=0x0:0xf70c67d55a2b85b0;
komplek housing;Komplek perumahan;Martjun Regency;7RJQ+7V8, Jl. Amd I, Buntok Kota, Kec. Dusun Sel., Kabupaten Barito Selatan, Kalimantan Tengah 73751;Jl. Amd I, Buntok Kota, Kec. Dusun Sel., Kabupaten Barito Selatan;KALIMANTAN TENGAH;73751;Indonesia;;;;-17.193.267;1.148.397.001;https://maps.google.com/?cid=0x0:0x12dfce1be9f1d8b9;
komplek housing;Komplek perumahan;Rumàh Novarina Buntok;Jl. Kaladan Gg. Takam, 3 Rt.17 Rw.004 No.22, Hilir Sper;Kabupaten Barito Selatan, Kalimantan Tengah;KALIMANTAN TENGAH;;Indonesia;;;;-17.240.873;1.148.431.998;https://maps.google.com/?cid=0x0:0x80c834bc657794bd;
komplek housing;Komplek perumahan;HOME_IRAWAN;komp karabung permai, Jl. A. Gani Gandrung No.69 blok 5, Buntok Kota, Kec. Dusun Sel., Kabupaten Barito Selatan, Kalimantan Tengah 73751;Jl. A. Gani Gandrung No.69 blok 5, Buntok Kota, Kec. Dusun Sel., Kabupaten Barito Selatan;KALIMANTAN TENGAH;73751;Indonesia;;;;-17.136.288;1.148.469.693;https://maps.google.com/?cid=0x0:0xe391a4ae2a3a5e6d;
komplek housing;Komplek perumahan;599;6RF5+FHJ, Jl. Manunggal VII, Baru, Kec. Dusun Sel., Kabupaten Barito Selatan, Kalimantan Tengah 73751;Jl. Manunggal VII, Baru, Kec. Dusun Sel., Kabupaten Barito Selatan;KALIMANTAN TENGAH;73751;Indonesia;;;;-17.762.908;1.148.089.015;https://maps.google.com/?cid=0x0:0x207ff1a7c2944b77;
komplek housing;Komplek perumahan;cangli dusun;9R44+6RX, Kalahien, Kec. Dusun Sel., Kabupaten Barito Selatan, Kalimantan Tengah 73751;Kalahien, Kec. Dusun Sel., Kabupaten Barito Selatan;KALIMANTAN TENGAH;73751;Indonesia;;;;-16.451.697;1.148.064.359;https://maps.google.com/?cid=0x0:0x7a4e8b9668f353d;
komplek housing;Pembangunan Perumahan;Rumah kayos;7RPQ+76X, Buntok Kota, Kec. Dusun Sel., Kabupaten Barito Selatan, Kalimantan Tengah 73751;Buntok Kota, Kec. Dusun Sel., Kabupaten Barito Selatan;KALIMANTAN TENGAH;73751;Indonesia;;;;-17.142.572;1.148.381.031;https://maps.google.com/?cid=0x0:0xfc51b23ea4f28d0c;
komplek housing;Komplek perumahan;Rumah;Gg. Ibunda V No.76, RT.25/RW.05, Hilir Sper, Kec. Dusun Sel., Kabupaten Barito Selatan, Kalimantan Tengah 73751;RT.25/RW.05, Hilir Sper, Kec. Dusun Sel., Kabupaten Barito Selatan;KALIMANTAN TENGAH;73751;Indonesia;;;;-1.727.522;1.148.404.439;https://maps.google.com/?cid=0x0:0xfbbb3a5c7eaf32c7;
komplek housing;Rumah Pondokan;Rumah kos;Jl. Pahlawan No.29, RT.031/RW.004, Buntok Kota, Kec. Dusun Sel., Kabupaten Barito Selatan, Kalimantan Tengah 73751;RT.031/RW.004, Buntok Kota, Kec. Dusun Sel., Kabupaten Barito Selatan;KALIMANTAN TENGAH;73751;Indonesia;;;;-17.163.332;114.840.755;https://maps.google.com/?cid=0x0:0xf56beb6b62bb37b8;
komplek housing;Komplek perumahan;Rumah Rifai/Vera;7RFV+H37, Jl. Kaladan, Hilir Sper, Kec. Dusun Sel., Kabupaten Barito Selatan, Kalimantan Tengah 73751;Jl. Kaladan, Hilir Sper, Kec. Dusun Sel., Kabupaten Barito Selatan;KALIMANTAN TENGAH;73751;Indonesia;;;;-17.261.647;11.484.263;https://maps.google.com/?cid=0x0:0x805c9eec34991852;
komplek housing;komplek housing;Kec. Dusun Sel.;Kabupaten Barito Selatan, Kalimantan Tengah;Kabupaten Barito Selatan, Kalimantan Tengah;KALIMANTAN TENGAH;;Indonesia;;;;-16.976.543;1.148.567.482;https://maps.google.com/?cid=0x0:0x4761c6f9634fa582;
komplek housing;Inspektur Tempat Tinggal;Rumah;7RCQ+R2Q, Hilir Sper, Kec. Dusun Sel., Kabupaten Barito Selatan, Kalimantan Tengah 73751;Hilir Sper, Kec. Dusun Sel., Kabupaten Barito Selatan;KALIMANTAN TENGAH;73751;Indonesia;;;;-17.282.057;1.148.381.758;https://maps.google.com/?cid=0x0:0xcc8c6b19239a2de;
komplek housing;Komplek perumahan;RUMAH TOI;9R4Q+HQH, Kalahien - Buntok, Lembeng, Kec. Dusun Sel., Kabupaten Barito Selatan, Kalimantan Tengah 73751;Kalahien - Buntok, Lembeng, Kec. Dusun Sel., Kabupaten Barito Selatan;KALIMANTAN TENGAH;73751;Indonesia;;;;-16.436.169;1.148.396.882;https://maps.google.com/?cid=0x0:0x259b3023b786423a;
komplek housing;Kompleks Apartemen;Wadah adi;7R8J+XC4, Jl. Jelapat, Hilir Sper, Kec. Dusun Sel., Kabupaten Barito Selatan, Kalimantan Tengah 73751;Jl. Jelapat, Hilir Sper, Kec. Dusun Sel., Kabupaten Barito Selatan;KALIMANTAN TENGAH;73751;Indonesia;;;;-17.326.148;114.831.064;https://maps.google.com/?cid=0x0:0xa6b5e26e88088d41;
komplek housing;Komplek perumahan;Amy;9RCR+52M, Jl. Penda Asam, Penda Asam, Kec. Dusun Sel., Kabupaten Barito Selatan, Kalimantan Tengah 73751;Jl. Penda Asam, Penda Asam, Kec. Dusun Sel., Kabupaten Barito Selatan;KALIMANTAN TENGAH;73751;Indonesia;;;;-16.295.384;1.148.400.544;https://maps.google.com/?cid=0x0:0x429abd4c57197b33;
komplek housing;Komplek perumahan;Huma inf Kevin;7R6J+2H6, Hilir Sper, Kec. Dusun Sel., Kabupaten Barito Selatan, Kalimantan Tengah 73751;Hilir Sper, Kec. Dusun Sel., Kabupaten Barito Selatan;KALIMANTAN TENGAH;73751;Indonesia;;;;-17.399.611;1.148.313.784;https://maps.google.com/?cid=0x0:0x305bcc89ff99ee94;
komplek housing;komplek housing;Kalimantan Tengah 73752;Kabupaten Barito Selatan, Kalimantan Tengah;Kabupaten Barito Selatan, Kalimantan Tengah;KALIMANTAN TENGAH;;Indonesia;;;;-14.856.175;1.148.567.482;https://maps.google.com/?cid=0x0:0x9e89593c92bb4954;
komplek housing;Komplek perumahan;Rumah Arumi;FVMC+QGV, Pendang, Kec. Dusun Utara, Kabupaten Barito Selatan, Kalimantan Tengah;Kabupaten Barito Selatan, Kalimantan Tengah;KALIMANTAN TENGAH;;Indonesia;;;;-15.171.128;1.148.709.729;https://maps.google.com/?cid=0x0:0xcee050b9d6be7f70;
komplek housing;Komplek perumahan;Rumah unii;FVVF+FGG, Pendang, Kec. Dusun Utara, Kabupaten Barito Selatan, Kalimantan Tengah 73752;Pendang, Kec. Dusun Utara, Kabupaten Barito Selatan;KALIMANTAN TENGAH;73752;Indonesia;;;;-15.066.917;1.148.739.203;https://maps.google.com/?cid=0x0:0x238e30550c7e5b1d;
komplek housing;Komplek perumahan;Miriadi;HWQ7+JJH, Reong, Kec. Dusun Utara, Kabupaten Barito Selatan, Kalimantan Tengah;Kabupaten Barito Selatan, Kalimantan Tengah;KALIMANTAN TENGAH;;Indonesia;;;;-14.115.501;1.149.144.951;https://maps.google.com/?cid=0x0:0xa2e344a8a9640c96;
komplek housing;Pembangunan Perumahan;DeRhudie Home Base;HXP2+9M3, Lr. Dakasom, Blang Naleung Mameh, Kec. Dusun Utara, Kabupaten Barito Selatan, Kalimantan Tengah;Kabupaten Barito Selatan, Kalimantan Tengah;KALIMANTAN TENGAH;;Indonesia;;;;-14.141.056;1.149.516.869;https://maps.google.com/?cid=0x0:0x569a25b0566017b3;
komplek housing;Komplek perumahan;TAMBATAN PERAHU DESA HINGAN;HX8F+7CW, Hingan, Kec. Dusun Utara, Kabupaten Barito Selatan, Kalimantan Tengah 73752;Hingan, Kec. Dusun Utara, Kabupaten Barito Selatan;KALIMANTAN TENGAH;73752;Indonesia;;;;-14.342.718;1.149.735.633;https://maps.google.com/?cid=0x0:0x6a3d1d4f3de3bde4;
komplek housing;Komplek perumahan;Tumpa HINGAN;GXX6+F87, Hingan, Kec. Dusun Utara, Kabupaten Barito Selatan, Kalimantan Tengah;Kabupaten Barito Selatan, Kalimantan Tengah;KALIMANTAN TENGAH;;Indonesia;;;;-14.513.443;1.149.607.987;https://maps.google.com/?cid=0x0:0x417b2d3870dbbd17;
komplek housing;Perhimpunan Pengembang Perumahan;Sutan Sinum;GW6G+QFP, Talekoi, Kec. Dusun Utara, Kabupaten Barito Selatan, Kalimantan Tengah 73752;Talekoi, Kec. Dusun Utara, Kabupaten Barito Selatan;KALIMANTAN TENGAH;73752;Indonesia;;;;-14.882.028;1.149.262.415;https://maps.google.com/?cid=0x0:0x72cd06c32df01c5;
komplek housing;Komplek perumahan;Witer’s Family;HWCC+WR, Gn. Rantau, Kec. Dusun Utara, Kabupaten Barito Selatan, Kalimantan Tengah 73752;Gn. Rantau, Kec. Dusun Utara, Kabupaten Barito Selatan;KALIMANTAN TENGAH;73752;Indonesia;;;;-14.240.812;1.149.114.655;https://maps.google.com/?cid=0x0:0xc8b72e861c5943d4;
komplek housing;Komplek perumahan;Rizal Arahman;Jl. Pembangunan No.RT. 004, Pendang, North Dusun, South Barito Regency, Central Kalimantan 73752;Pendang, North Dusun, South Barito Regency;KALIMANTAN TENGAH;73752;Indonesia;;;;-14.951.455;1.147.973.983;https://maps.google.com/?cid=0x0:0xd9dd933a55180bf4;
komplek housing;Pembangunan Perumahan;Home ternyaman;HV8V+97P, Marawan Baru, Kec. Dusun Utara, Kabupaten Barito Selatan, Kalimantan Tengah;Kabupaten Barito Selatan, Kalimantan Tengah;KALIMANTAN TENGAH;;Indonesia;;;;-14.332.763;1.148.937.331;https://maps.google.com/?cid=0x0:0x935e838619ee79d8;
komplek housing;Komplek perumahan;Langit Biru;CRFJ+5MV, Tj. Jawa, Kec. Dusun Sel., Kabupaten Barito Selatan, Kalimantan Tengah 73752;Tj. Jawa, Kec. Dusun Sel., Kabupaten Barito Selatan;KALIMANTAN TENGAH;73752;Indonesia;;;;-15.770.068;1.148.316.842;https://maps.google.com/?cid=0x0:0x86c4ca006d659135;
komplek housing;Komplek perumahan;Mentari putri wulandari;HWC4+XQ2, Gn. Rantau, Kec. Dusun Utara, Kabupaten Barito Selatan, Kalimantan Tengah 73752;Gn. Rantau, Kec. Dusun Utara, Kabupaten Barito Selatan;KALIMANTAN TENGAH;73752;Indonesia;;;;-14.276.035;1.149.069.049;https://maps.google.com/?cid=0x0:0x91dab74fa1432f2;
komplek housing;Komplek perumahan;Home Dheo;C3F7+G5V, Jl. PP. Dinan Tabak Kanilan, Ruhing Raya, Kec. Gn. Bintang Awai, Kabupaten Barito Selatan, Kalimantan Tengah 73753;Jl. PP. Dinan Tabak Kanilan, Ruhing Raya, Kec. Gn. Bintang Awai, Kabupaten Barito Selatan;KALIMANTAN TENGAH;73753;Indonesia;;;;-15.771.945;115.062.724;https://maps.google.com/?cid=0x0:0xbf3367e1428f077a;
komplek housing;Perhimpunan Pengembang Perumahan;Amah doni/anto;FQ6P+66J, Tj. Jawa, Kec. Dusun Sel., Kabupaten Barito Selatan, Kalimantan Tengah 73752;Tj. Jawa, Kec. Dusun Sel., Kabupaten Barito Selatan;KALIMANTAN TENGAH;73752;Indonesia;;;;-15.394.036;1.147.855.271;https://maps.google.com/?cid=0x0:0xc5177609dc549eb5;
komplek housing;Komplek perumahan;Amy;9RCR+52M, Jl. Penda Asam, Penda Asam, Kec. Dusun Sel., Kabupaten Barito Selatan, Kalimantan Tengah 73751;Jl. Penda Asam, Penda Asam, Kec. Dusun Sel., Kabupaten Barito Selatan;KALIMANTAN TENGAH;73751;Indonesia;;;;-16.295.384;1.148.400.544;https://maps.google.com/?cid=0x0:0x429abd4c57197b33;
komplek housing;komplek housing;Posko tarusan;JV85+MP5, Tarusan, Kec. Dusun Utara, Kabupaten Barito Selatan, Kalimantan Tengah 73861;Tarusan, Kec. Dusun Utara, Kabupaten Barito Selatan;KALIMANTAN TENGAH;73861;Indonesia;;;;-13.833.541;1.148.593.542;https://maps.google.com/?cid=0x0:0x9f8ef3da9d8f4772;
komplek housing;Komplek perumahan;Rumah Ario;FVVF+FGG, Pendang, Kec. Dusun Utara, Kabupaten Barito Selatan, Kalimantan Tengah 73752;Pendang, Kec. Dusun Utara, Kabupaten Barito Selatan;KALIMANTAN TENGAH;73752;Indonesia;;;;-15.058.156;1.148.750.984;https://maps.google.com/?cid=0x0:0xba19cbc0eb692fe4;
komplek housing;Perhimpunan Pengembang Perumahan;Mama Ahya;FVPC+8JV, Pendang, Kec. Dusun Utara, Kabupaten Barito Selatan, Kalimantan Tengah 73752;Pendang, Kec. Dusun Utara, Kabupaten Barito Selatan;KALIMANTAN TENGAH;73752;Indonesia;;;;-15.141.435;1.148.715.327;https://maps.google.com/?cid=0x0:0x906242da45861976;
komplek housing;komplek housing;Kec. Dusun Utara;Kabupaten Barito Selatan, Kalimantan Tengah;Kabupaten Barito Selatan, Kalimantan Tengah;KALIMANTAN TENGAH;;Indonesia;;;;-14.141.056;1.149.516.869;https://maps.google.com/?cid=0x0:0x83d90465ae186a34;
komplek housing;Komplek perumahan;Rizal Arahman;FVPC+86F, Pendang, Kec. Dusun Utara, Kabupaten Barito Selatan, Kalimantan Tengah;Kabupaten Barito Selatan, Kalimantan Tengah;KALIMANTAN TENGAH;;Indonesia;;;;-15.141.999;1.148.705.454;https://maps.google.com/?cid=0x0:0xef0ca428b076267a;
komplek housing;Komplek perumahan;Warung bakaran mama hafiz;FVPC+HPP, Pendang, Kec. Dusun Utara, Kabupaten Barito Selatan, Kalimantan Tengah 73752;Pendang, Kec. Dusun Utara, Kabupaten Barito Selatan;KALIMANTAN TENGAH;73752;Indonesia;;;;-15.135.306;1.148.718.357;https://maps.google.com/?cid=0x0:0x32b780e2fe8f8cd4;
komplek housing;Pertanian;PT MITRA TEKNIK PRASARANA;GQ3W+WXR, Pendang, Kec. Dusun Utara, Kabupaten Barito Selatan, Kalimantan Tengah 73752;Pendang, Kec. Dusun Utara, Kabupaten Barito Selatan;KALIMANTAN TENGAH;73752;Indonesia;;;;-14.951.455;1.147.973.983;https://maps.google.com/?cid=0x0:0x4f5af5ed3f3d5fda;
komplek housing;Komplek perumahan;Fasya Aulia;FVVF+FGG, Pendang, Kec. Dusun Utara, Kabupaten Barito Selatan, Kalimantan Tengah 73752;Pendang, Kec. Dusun Utara, Kabupaten Barito Selatan;KALIMANTAN TENGAH;73752;Indonesia;;;;-15.065.709;1.148.742.737;https://maps.google.com/?cid=0x0:0x5da39f9ba7c01d62;
komplek housing;komplek housing;Kalimantan Tengah 73753;Kec. Gn. Bintang Awai, Kabupaten Barito Selatan, Kalimantan Tengah;Kabupaten Barito Selatan, Kalimantan Tengah;KALIMANTAN TENGAH;;Indonesia;;;;-14.821.804;115.141.484;https://maps.google.com/?cid=0x0:0x51e61e4a4ea8d4dc;
komplek housing;Komplek perumahan;Home Dheo;C3F7+G5V, Jl. PP. Dinan Tabak Kanilan, Ruhing Raya, Kec. Gn. Bintang Awai, Kabupaten Barito Selatan, Kalimantan Tengah 73753;Jl. PP. Dinan Tabak Kanilan, Ruhing Raya, Kec. Gn. Bintang Awai, Kabupaten Barito Selatan;KALIMANTAN TENGAH;73753;Indonesia;;;;-15.771.945;115.062.724;https://maps.google.com/?cid=0x0:0xbf3367e1428f077a;
komplek housing;Komplek perumahan;HOUSING FATH_YUSUF;F538+368, Patas I, Kec. Gn. Bintang Awai, Kabupaten Barito Selatan, Kalimantan Tengah 73753;Patas I, Kec. Gn. Bintang Awai, Kabupaten Barito Selatan;KALIMANTAN TENGAH;73753;Indonesia;;;;-15.473.469;115.165.577;https://maps.google.com/?cid=0x0:0x1c2a98ba9fbfbbe8;
komplek housing;komplek housing;Vila Matuha;F538+R5F, Patas I, Kec. Gn. Bintang Awai, Kabupaten Barito Selatan, Kalimantan Tengah 73753;Patas I, Kec. Gn. Bintang Awai, Kabupaten Barito Selatan;KALIMANTAN TENGAH;73753;Indonesia;;;;-15.454.314;1.151.654.149;https://maps.google.com/?cid=0x0:0xdd77a8520d7c2991;
komplek housing;komplek housing;Rumah Nobel Hawila;94R5+QM2, Gagutur, Kec. Gn. Bintang Awai, Kabupaten Barito Selatan, Kalimantan Tengah;Kabupaten Barito Selatan, Kalimantan Tengah;KALIMANTAN TENGAH;;Indonesia;;;;-16.081.235;1.151.091.262;https://maps.google.com/?cid=0x0:0x257ec30c319505bd;
komplek housing;Pembangunan Perumahan;aan;F39G+CGR, Muka H., Kec. Gn. Bintang Awai, Kabupaten Barito Selatan, Kalimantan Tengah 73753;Muka H., Kec. Gn. Bintang Awai, Kabupaten Barito Selatan;KALIMANTAN TENGAH;73753;Indonesia;;;;-15.313.753;1.150.762.536;https://maps.google.com/?cid=0x0:0x144e397d96e87468;
komplek housing;Komplek perumahan;???;G537+7FR, Patas II, Kec. Gn. Bintang Awai, Kabupaten Barito Selatan, Kalimantan Tengah;Kabupaten Barito Selatan, Kalimantan Tengah;KALIMANTAN TENGAH;;Indonesia;;;;-14.967.747;1.151.636.414;https://maps.google.com/?cid=0x0:0xc5bdbd370837f6f;
komplek housing;Perhimpunan Pengembang Perumahan;Rully;C3XM+89, Muka H., Kec. Gn. Bintang Awai, Kabupaten Barito Selatan, Kalimantan Tengah;Kabupaten Barito Selatan, Kalimantan Tengah;KALIMANTAN TENGAH;;Indonesia;;;;-15.517.191;115.083.493;https://maps.google.com/?cid=0x0:0x87254fc79fe4ee52;
komplek housing;Komplek perumahan;Haderson House;Jln. Sarunai No.25, RT.2/RW.1, Tabak Kanilan, Gunung Bintang Awai, South Barito Regency, Central Kalimantan 73753;RT.2/RW.1, Tabak Kanilan, Gunung Bintang Awai, South Barito Regency;KALIMANTAN TENGAH;73753;Indonesia;;;;-15.526.621;1.150.483.976;https://maps.google.com/?cid=0x0:0x55b8b4d2ba75f775;
komplek housing;Komplek perumahan;Lewu Fanyaa;C396+WVV, Ruhing Raya, Kec. Gn. Bintang Awai, Kabupaten Barito Selatan, Kalimantan Tengah;Kabupaten Barito Selatan, Kalimantan Tengah;KALIMANTAN TENGAH;;Indonesia;;;;-15.809.919;1.150.630.472;https://maps.google.com/?cid=0x0:0x24fb8f0f9980fb1e;
komplek housing;Komplek perumahan;Elfri home;J7MJ+CJP, Ngurit, Kec. Gn. Bintang Awai, Kabupaten Barito Selatan, Kalimantan Tengah;Kabupaten Barito Selatan, Kalimantan Tengah;KALIMANTAN TENGAH;;Indonesia;;;;-1.366.401;1.152.815.644;https://maps.google.com/?cid=0x0:0xcd70c83dac27f8f1;
komplek housing;Pembangunan Perumahan;Rumah Heri muljijat;95JP+FV2, Wayun, Kec. Gn. Bintang Awai, Kabupaten Barito Selatan, Kalimantan Tengah 73652;Wayun, Kec. Gn. Bintang Awai, Kabupaten Barito Selatan;KALIMANTAN TENGAH;73652;Indonesia;;;;-16.188.699;1.151.871.342;https://maps.google.com/?cid=0x0:0x2af83bd13b991569;
komplek housing;Komplek perumahan;Rumah Husnul Fadly;F538+7G2, Patas I, Kec. Gn. Bintang Awai, Kabupaten Barito Selatan, Kalimantan Tengah 73753;Patas I, Kec. Gn. Bintang Awai, Kabupaten Barito Selatan;KALIMANTAN TENGAH;73753;Indonesia;;;;-15.470.778;1.151.660.356;https://maps.google.com/?cid=0x0:0x1fc2f544188cc341;
komplek housing;Komplek perumahan;Susanto;C5Q7+WH, Muara Singan, Kec. Gn. Bintang Awai, Kabupaten Barito Selatan, Kalimantan Tengah;Kabupaten Barito Selatan, Kalimantan Tengah;KALIMANTAN TENGAH;;Indonesia;;;;-15.601.605;1.151.639.898;https://maps.google.com/?cid=0x0:0xd3a9f0357a720d82;
komplek housing;Komplek perumahan;Rumah Rendi;39, Patas I, Kec. Gn. Bintang Awai, Kabupaten Barito Selatan, Kalimantan Tengah 73753;Patas I, Kec. Gn. Bintang Awai, Kabupaten Barito Selatan;KALIMANTAN TENGAH;73753;Indonesia;;;;-15.257.136;1.151.770.586;https://maps.google.com/?cid=0x0:0x3d4e945958012733;
komplek housing;Pembangunan Perumahan;Setianus;95FH+J6X, Wayun, Kec. Gn. Bintang Awai, Kabupaten Barito Selatan, Kalimantan Tengah 73652;Wayun, Kec. Gn. Bintang Awai, Kabupaten Barito Selatan;KALIMANTAN TENGAH;73652;Indonesia;;;;-16.258.944;1.151.781.015;https://maps.google.com/?cid=0x0:0x53758fcfc6f99037;
komplek housing;Gedung Apartemen;Home Itsvin;C3G7+JP7, Ruhing Raya, Kec. Gn. Bintang Awai, Kabupaten Barito Selatan, Kalimantan Tengah 73753;Ruhing Raya, Kec. Gn. Bintang Awai, Kabupaten Barito Selatan;KALIMANTAN TENGAH;73753;Indonesia;;;;-15.734.541;1.150.643;https://maps.google.com/?cid=0x0:0x53bdcfbe4bdffc1f;
komplek housing;Perhimpunan Pengembang Perumahan;Patas 1;F547+4XJ, Jl. Negara Ampah-Muarateweh, Patas I, Kec. Gn. Bintang Awai, Kabupaten Barito Selatan, Kalimantan Tengah 73753;Jl. Negara Ampah-Muarateweh, Patas I, Kec. Gn. Bintang Awai, Kabupaten Barito Selatan;KALIMANTAN TENGAH;73753;Indonesia;;;;-15.446.354;115.165.288;https://maps.google.com/?cid=0x0:0x21d804a302a15524;
komplek housing;Komplek perumahan;Home nenek fanya;C3C7+W2H, Ruhing Raya, Kec. Gn. Bintang Awai, Kabupaten Barito Selatan, Kalimantan Tengah 73753;Ruhing Raya, Kec. Gn. Bintang Awai, Kabupaten Barito Selatan;KALIMANTAN TENGAH;73753;Indonesia;;;;-15.777.311;1.150.631.193;https://maps.google.com/?cid=0x0:0x30b76d5236dac136;
komplek housing;Komplek perumahan;Ati;F537+RX4, Patas I, Kec. Gn. Bintang Awai, Kabupaten Barito Selatan, Kalimantan Tengah 73753;Patas I, Kec. Gn. Bintang Awai, Kabupaten Barito Selatan;KALIMANTAN TENGAH;73753;Indonesia;;;;-15.454.848;1.151.649.638;https://maps.google.com/?cid=0x0:0x952046b3f7eee7e;
komplek housing;komplek housing;Kec. Gn. Bintang Awai;Kabupaten Barito Selatan, Kalimantan Tengah;Kabupaten Barito Selatan, Kalimantan Tengah;KALIMANTAN TENGAH;;Indonesia;;;;-14.810.273;1.152.363.408;https://maps.google.com/?cid=0x0:0x55d1d750ea1055c;
komplek housing;Perhimpunan Pengembang Perumahan;Rohidi;95FJ+39H, RT.08/RW.03, Palu Rejo, Kec. Gn. Bintang Awai, Kabupaten Barito Selatan, Kalimantan Tengah 73753;RT.08/RW.03, Palu Rejo, Kec. Gn. Bintang Awai, Kabupaten Barito Selatan;KALIMANTAN TENGAH;73753;Indonesia;;;;-16.273.097;1.151.809.839;https://maps.google.com/?cid=0x0:0xa2e3f801028d2b71;
komplek housing;Pembangunan Perumahan;Budi;G646+W5V, Muara Singan, Kec. Gn. Bintang Awai, Kabupaten Barito Selatan, Kalimantan Tengah 73753;Muara Singan, Kec. Gn. Bintang Awai, Kabupaten Barito Selatan;KALIMANTAN TENGAH;73753;Indonesia;;;;-1.493.596;115.209.619;https://maps.google.com/?cid=0x0:0x203336f69162847a;
komplek housing;Toko umum;Ridho al Fatih;C3R4+PMC, Tabak Kanilan, Kec. Gn. Bintang Awai, Kabupaten Barito Selatan, Kalimantan Tengah 73753;Tabak Kanilan, Kec. Gn. Bintang Awai, Kabupaten Barito Selatan;KALIMANTAN TENGAH;73753;Indonesia;;;;-1.558.725;115.056.694;https://maps.google.com/?cid=0x0:0xf513a3d7cb9ac4f2;
komplek housing;Kantor Pemerintah;Rumah Dinas Korwil Bid Pendidikan GB.Awai;F368+R3J, Jl. PP. Dinan Tabak Kanilan, Muka H., Kec. Gn. Bintang Awai, Kabupaten Barito Selatan, Kalimantan Tengah 73753;Jl. PP. Dinan Tabak Kanilan, Muka H., Kec. Gn. Bintang Awai, Kabupaten Barito Selatan;KALIMANTAN TENGAH;73753;Indonesia;;;;-15.379.063;1.150.651.286;https://maps.google.com/?cid=0x0:0x32c5c1e32bd67936;
komplek housing;Pembangunan Perumahan;Rumah Besika Leluno;F5C6+52J, Patas I, Kec. Gn. Bintang Awai, Kabupaten Barito Selatan, Kalimantan Tengah 73753;Patas I, Kec. Gn. Bintang Awai, Kabupaten Barito Selatan;KALIMANTAN TENGAH;73753;Indonesia;;;;-15.295.639;1.151.598.404;https://maps.google.com/?cid=0x0:0x74a9322899d44e96;
komplek housing;Pembangunan Perumahan;Sarip;C3WP+RH9, Sire, Kec. Gn. Bintang Awai, Kabupaten Barito Selatan, Kalimantan Tengah 73753;Sire, Kec. Gn. Bintang Awai, Kabupaten Barito Selatan;KALIMANTAN TENGAH;73753;Indonesia;;;;-1.552.425;1.150.867.519;https://maps.google.com/?cid=0x0:0x14b7a489aa03d304;
komplek housing;Komplek perumahan;Mess patas baru;F5C6+J4R, Jl. Negara Ampah-Muarateweh, Patas I, Kec. Gn. Bintang Awai, Kabupaten Barito Selatan, Kalimantan Tengah 73753;Jl. Negara Ampah-Muarateweh, Patas I, Kec. Gn. Bintang Awai, Kabupaten Barito Selatan;KALIMANTAN TENGAH;73753;Indonesia;;;;-15.280.895;115.160.171;https://maps.google.com/?cid=0x0:0xc3053a28a9a9c381;
komplek housing;Komplek perumahan;Rumah semoro;C3X3+HP8, Jl. Raya Buntok - Tabak Kanilan, asam, Kec. Gn. Bintang Awai, Kabupaten Barito Selatan, Kalimantan Tengah 73753;Jl. Raya Buntok - Tabak Kanilan, asam, Kec. Gn. Bintang Awai, Kabupaten Barito Selatan;KALIMANTAN TENGAH;73753;Indonesia;;;;-15.510.825;1.150.543.349;https://maps.google.com/?cid=0x0:0x56974d81526ee19;
komplek housing;komplek housing;Kalimantan Tengah 73763;Kec. Jenamas, Kabupaten Barito Selatan, Kalimantan Tengah;Kabupaten Barito Selatan, Kalimantan Tengah;KALIMANTAN TENGAH;;Indonesia;;;;-234.059;1.148.567.482;https://maps.google.com/?cid=0x0:0x37fa6b040b7959f6;
komplek housing;Pembangunan Perumahan;Rumah H.karta;MV29+7C5, Rangga Ilung, Kec. Jenamas, Kabupaten Barito Selatan, Kalimantan Tengah 73763;Rangga Ilung, Kec. Jenamas, Kabupaten Barito Selatan;KALIMANTAN TENGAH;73763;Indonesia;;;;-23.493.659;1.148.686.169;https://maps.google.com/?cid=0x0:0x78b072276b0bab63;
komplek housing;Pembangunan Perumahan;Ranggailung;MV7H+2HF, Rangga Ilung, Kec. Jenamas, Kabupaten Barito Selatan, Kalimantan Tengah 73763;Rangga Ilung, Kec. Jenamas, Kabupaten Barito Selatan;KALIMANTAN TENGAH;73763;Indonesia;;;;-23.374.365;1.148.789.369;https://maps.google.com/?cid=0x0:0xe401499caffb67ac;
komplek housing;Perhimpunan Pengembang Perumahan;Pa'di / Ma'di;MV6H+FRW, Rangga Ilung, Kec. Jenamas, Kabupaten Barito Selatan, Kalimantan Tengah 73763;Rangga Ilung, Kec. Jenamas, Kabupaten Barito Selatan;KALIMANTAN TENGAH;73763;Indonesia;;;;-23.387.723;1.148.795.821;https://maps.google.com/?cid=0x0:0xfcffb8239c77960d;
komplek housing;Pembangunan Perumahan;ISTANA KEMBAR;GWX9+8C5, Rantau Kujang, Kec. Jenamas, Kabupaten Barito Selatan, Kalimantan Tengah 71453;Rantau Kujang, Kec. Jenamas, Kabupaten Barito Selatan;KALIMANTAN TENGAH;71453;Indonesia;;;;-24.527.404;1.149.193.011;https://maps.google.com/?cid=0x0:0x480df0f962d48d49;
komplek housing;Pembangunan Perumahan;Home mahes;HW78+QWV, Rantau Kujang, Kec. Jenamas, Kabupaten Barito Selatan, Kalimantan Tengah 73763;Rantau Kujang, Kec. Jenamas, Kabupaten Barito Selatan;KALIMANTAN TENGAH;73763;Indonesia;;;;-2.436.171;1.149.176;https://maps.google.com/?cid=0x0:0x6fd6be88681dfd01;
komplek housing;Komplek perumahan;Mess Wisnu ( Mess Adaro logistics );PV3C+779, Rangga Ilung, Kec. Jenamas, Kabupaten Barito Selatan, Kalimantan Tengah 73763;Rangga Ilung, Kec. Jenamas, Kabupaten Barito Selatan;KALIMANTAN TENGAH;73763;Indonesia;;;;-22.966.863;1.148.701.779;https://maps.google.com/?cid=0x0:0x666e7fe18a100dd9;
komplek housing;Komplek perumahan;Mess Santanu Adaro Kelanis;PV2C+XP, Rangga Ilung, Kec. Jenamas, Kabupaten Barito Selatan, Kalimantan Tengah;Kabupaten Barito Selatan, Kalimantan Tengah;KALIMANTAN TENGAH;;Indonesia;;;;-22.975.664;1.148.718.744;https://maps.google.com/?cid=0x0:0xeb531eaeb39034b6;
komplek housing;Pembangunan Perumahan;muhammad syifa;MV6H+VP4, Rangga Ilung, Kec. Jenamas, Kabupaten Barito Selatan, Kalimantan Tengah 73763;Rangga Ilung, Kec. Jenamas, Kabupaten Barito Selatan;KALIMANTAN TENGAH;73763;Indonesia;;;;-23.378.597;1.148.793.162;https://maps.google.com/?cid=0x0:0x12d904f8327d28cb;
komplek housing;Pembangunan Perumahan;Akbar;MV29+7C5, Rangga Ilung, Kec. Jenamas, Kabupaten Barito Selatan, Kalimantan Tengah 73763;Rangga Ilung, Kec. Jenamas, Kabupaten Barito Selatan;KALIMANTAN TENGAH;73763;Indonesia;;;;-23.493.659;1.148.686.169;https://maps.google.com/?cid=0x0:0x97ad6dbc704aae69;
komplek housing;Pembangunan Perumahan;Rumah.rama;HW26+59F, Jl. Umu Rantau Kujang, Rantau Kujang, Kec. Jenamas, Kabupaten Barito Selatan, Kalimantan Tengah 73763;Jl. Umu Rantau Kujang, Rantau Kujang, Kec. Jenamas, Kabupaten Barito Selatan;KALIMANTAN TENGAH;73763;Indonesia;;;;-24.495.704;1.149.109.187;https://maps.google.com/?cid=0x0:0x841503919c8f42ea;
komplek housing;Komplek perumahan;Rantau kujng;JW8Q+9WW, Jalan darul aman, RT.06/RW.02, Rantau Kujang, Kec. Jenamas, Kabupaten Barito Selatan, Kalimantan Tengah;Kabupaten Barito Selatan, Kalimantan Tengah;KALIMANTAN TENGAH;;Indonesia;;;;-23.840.123;114.939.821;https://maps.google.com/?cid=0x0:0x384243ac211061c5;
komplek housing;komplek housing;Kec. Jenamas;Kabupaten Barito Selatan, Kalimantan Tengah;Kabupaten Barito Selatan, Kalimantan Tengah;KALIMANTAN TENGAH;;Indonesia;;;;-23.310.059;1.148.771.031;https://maps.google.com/?cid=0x0:0xc0c25e4bfeed7151;
komplek housing;komplek housing;Kalimantan Tengah 73761;Kabupaten Barito Selatan, Kalimantan Tengah;Kabupaten Barito Selatan, Kalimantan Tengah;KALIMANTAN TENGAH;;Indonesia;;;;-20.019.069;1.147.380.385;https://maps.google.com/?cid=0x0:0xf4482425825ffff8;
komplek housing;Komplek perumahan;Rumah David;4RWV+R5, Talio, Kec. Karau Kuala, Kabupaten Barito Selatan, Kalimantan Tengah;Kabupaten Barito Selatan, Kalimantan Tengah;KALIMANTAN TENGAH;;Indonesia;;;;-18.536.298;1.148.437.444;https://maps.google.com/?cid=0x0:0xf30ad8b68dc46879;
komplek housing;Komplek perumahan;RUMAH LAILI;XV6V+99G, Jl. Barito Raya, RT.23/RW.08, Bangkuang, Kec. Karau Kuala, Kabupaten Barito Selatan, Kalimantan Tengah 73617;Jl. Barito Raya, RT.23/RW.08, Bangkuang, Kec. Karau Kuala, Kabupaten Barito Selatan;KALIMANTAN TENGAH;73617;Indonesia;;;;-20.390.601;1.148.934.503;https://maps.google.com/?cid=0x0:0x2727d5996ec070df;
komplek housing;Kantor Pemerintah;Desa Talio;4Q54+X85, Talio, Kec. Karau Kuala, Kabupaten Barito Selatan, Kalimantan Tengah;Kabupaten Barito Selatan, Kalimantan Tengah;KALIMANTAN TENGAH;;Indonesia;;;;-18.901.106;1.147.558.475;https://maps.google.com/?cid=0x0:0x9f64055ce5e85998;
komplek housing;Komplek perumahan;Tempat kumpul anak BBH;2Q5V+GVF, Batampang, Kec. Dusun Hilir, Kabupaten Barito Selatan, Kalimantan Tengah 73761;Batampang, Kec. Dusun Hilir, Kabupaten Barito Selatan;KALIMANTAN TENGAH;73761;Indonesia;;;;-19.910.776;1.147.933.665;https://maps.google.com/?cid=0x0:0x94049396a58be736;
komplek housing;Komplek perumahan;Hatue Bakumpai;XV8X+PQR, Bangkuang, Kec. Karau Kuala, Kabupaten Barito Selatan, Kalimantan Tengah 73617;Bangkuang, Kec. Karau Kuala, Kabupaten Barito Selatan;KALIMANTAN TENGAH;73617;Indonesia;;;;-20.331.463;1.148.988.454;https://maps.google.com/?cid=0x0:0x7fc5a04dfbf946a2;
komplek housing;Komplek perumahan;Tempat kumpul markas BBH;2Q6V+C9, Batampang, Kec. Dusun Hilir, Kabupaten Barito Selatan, Kalimantan Tengah;Kabupaten Barito Selatan, Kalimantan Tengah;KALIMANTAN TENGAH;;Indonesia;;;;-1.993.081;1.147.995.549;https://maps.google.com/?cid=0x0:0xa065bc5a00db585a;
komplek housing;Komplek perumahan;Rumah ahmad nadif;4RF5+JPC, Talio, Kec. Karau Kuala, Kabupaten Barito Selatan, Kalimantan Tengah;Kabupaten Barito Selatan, Kalimantan Tengah;KALIMANTAN TENGAH;;Indonesia;;;;-1.875.943;1.148.092.691;https://maps.google.com/?cid=0x0:0x904c8177e0631347;
komplek housing;Komplek perumahan;K'A Rumah Imo Lindra;4RWV+R5, Talio, Kec. Karau Kuala, Kabupaten Barito Selatan, Kalimantan Tengah;Kabupaten Barito Selatan, Kalimantan Tengah;KALIMANTAN TENGAH;;Indonesia;;;;-18.536.177;1.148.437.838;https://maps.google.com/?cid=0x0:0x842e34edb8d4172c;
komplek housing;Komplek perumahan;Sa'i;VV89+J5F, Damparan, Kec. Dusun Hilir, Kabupaten Barito Selatan, Kalimantan Tengah 73617;Damparan, Kec. Dusun Hilir, Kabupaten Barito Selatan;KALIMANTAN TENGAH;73617;Indonesia;;;;-21.334.101;1.148.679.413;https://maps.google.com/?cid=0x0:0xc6f67d6be5abc426;
komplek housing;Komplek perumahan;Rumah Alya Alfiyani;XW83+C9Q, RT.12/RW.04, Bangkuang, Kec. Karau Kuala, Kabupaten Barito Selatan, Kalimantan Tengah 73617;RT.12/RW.04, Bangkuang, Kec. Karau Kuala, Kabupaten Barito Selatan;KALIMANTAN TENGAH;73617;Indonesia;;;;-2.034.819;114.902.975;https://maps.google.com/?cid=0x0:0x50ac3721dee00d;
komplek housing;Komplek perumahan;Huma indu suanda;5R3M+6XF, Talio, Kec. Karau Kuala, Kabupaten Barito Selatan, Kalimantan Tengah 73713;Talio, Kec. Karau Kuala, Kabupaten Barito Selatan;KALIMANTAN TENGAH;73713;Indonesia;;;;-18.469.318;1.148.349.065;https://maps.google.com/?cid=0x0:0x19a51967e5c1dee1;
komplek housing;Komplek perumahan;Rumah Puza;XV6R+HVQ, Jl. Paju Epat, RT.22/RW.08, Bangkuang, Kab, Kabupaten Barito Selatan, Kalimantan Tengah 73617;Jl. Paju Epat, RT.22/RW.08, Bangkuang, Kab, Kabupaten Barito Selatan;KALIMANTAN TENGAH;73617;Indonesia;;;;-20.385.465;1.148.922.277;https://maps.google.com/?cid=0x0:0xda44781871217782;
komplek housing;Komplek perumahan;Rumah azzam;XVRV+XH, Tlk. Betung, Kec. Karau Kuala, Kabupaten Barito Selatan, Kalimantan Tengah;Kabupaten Barito Selatan, Kalimantan Tengah;KALIMANTAN TENGAH;;Indonesia;;;;-20.075.139;1.148.938.933;https://maps.google.com/?cid=0x0:0xc5c9a27c400b4232;
komplek housing;Komplek perumahan;Rumah Loyyam;XVQV+Q46, Tlk. Betung, Kec. Karau Kuala, Kabupaten Barito Selatan, Kalimantan Tengah 73617;Tlk. Betung, Kec. Karau Kuala, Kabupaten Barito Selatan;KALIMANTAN TENGAH;73617;Indonesia;;;;-20.098.853;1.148.929.182;https://maps.google.com/?cid=0x0:0xb70565c9c44e9c4c;
komplek housing;Komplek perumahan;Rumah Civian;XVVV+6HX, Tlk. Betung, Kec. Karau Kuala, Kabupaten Barito Selatan, Kalimantan Tengah 73617;Tlk. Betung, Kec. Karau Kuala, Kabupaten Barito Selatan;KALIMANTAN TENGAH;73617;Indonesia;;;;-20.068.763;1.148.939.966;https://maps.google.com/?cid=0x0:0xb1b11ca4adbd024d;
komplek housing;komplek housing;Rumah Lida;XVQR+CXM, Tlk. Betung, Kec. Karau Kuala, Kabupaten Barito Selatan, Kalimantan Tengah 73617;Tlk. Betung, Kec. Karau Kuala, Kabupaten Barito Selatan;KALIMANTAN TENGAH;73617;Indonesia;;;;-20.114.175;1.148.924.242;https://maps.google.com/?cid=0x0:0xf718474d5d9f0482;
komplek housing;komplek housing;Bintang Kurung;5Q2H+6R, Bintang Kurung, Kec. Karau Kuala, Kabupaten Barito Selatan, Kalimantan Tengah;Kabupaten Barito Selatan, Kalimantan Tengah;KALIMANTAN TENGAH;;Indonesia;;;;-18.512.198;1.147.793.369;https://maps.google.com/?cid=0x0:0x1e3163cbf66ac534;
komplek housing;Kantor Pemerintah;Desa Teluk Sampudau;5Q9F+HCV, Tlk. Sampudau, Kec. Karau Kuala, Kabupaten Barito Selatan, Kalimantan Tengah;Kabupaten Barito Selatan, Kalimantan Tengah;KALIMANTAN TENGAH;;Indonesia;;;;-18.310.003;1.147.735.426;https://maps.google.com/?cid=0x0:0xd2059c5f6103786;
komplek housing;Komplek perumahan;Rumah Arman;XVQV+Q46, Tlk. Betung, Kec. Karau Kuala, Kabupaten Barito Selatan, Kalimantan Tengah 73617;Tlk. Betung, Kec. Karau Kuala, Kabupaten Barito Selatan;KALIMANTAN TENGAH;73617;Indonesia;;;;-20.099;114.892.956;https://maps.google.com/?cid=0x0:0x69a880e6fc5a3f98;
perumahan;perumahan;Kalimantan Tengah 73762;Kec. Dusun Hilir, Kabupaten Barito Selatan, Kalimantan Tengah;Kabupaten Barito Selatan, Kalimantan Tengah;KALIMANTAN TENGAH;;Indonesia;;;;-22.001.952;1.146.667.939;https://maps.google.com/?cid=0x0:0xc04a708e6544057b;
perumahan;Pembangunan Perumahan;Yuaida;QV86+RPC, Mengkatip, Kec. Dusun Hilir, Kabupaten Barito Selatan, Kalimantan Tengah 73762;Mengkatip, Kec. Dusun Hilir, Kabupaten Barito Selatan;KALIMANTAN TENGAH;73762;Indonesia;;;;-22.329.861;114.861.509;https://maps.google.com/?cid=0x0:0x5afa737ee8419b06;
perumahan;Komplek perumahan;Sa'i;VV89+J5F, Damparan, Kec. Dusun Hilir, Kabupaten Barito Selatan, Kalimantan Tengah 73617;Damparan, Kec. Dusun Hilir, Kabupaten Barito Selatan;KALIMANTAN TENGAH;73617;Indonesia;;;;-21.334.101;1.148.679.413;https://maps.google.com/?cid=0x0:0xc6f67d6be5abc426;
perumahan;Pembangunan Perumahan;Rahim timur;RVX9+7CH, RT.11, Damparan, Kec. Dusun Hilir, Kabupaten Barito Selatan, Kalimantan Tengah;Kabupaten Barito Selatan, Kalimantan Tengah;KALIMANTAN TENGAH;;Indonesia;;;;-21.518.098;1.148.686.169;https://maps.google.com/?cid=0x0:0x4c848f83b64d720e;
perumahan;Pembangunan Perumahan;Rumah Angga;QV95+G87, Mengkatip, Kec. Dusun Hilir, Kabupaten Barito Selatan, Kalimantan Tengah 73762;Mengkatip, Kec. Dusun Hilir, Kabupaten Barito Selatan;KALIMANTAN TENGAH;73762;Indonesia;;;;-22.312.097;1.148.582.911;https://maps.google.com/?cid=0x0:0xbfa7828ff6a428be;
perumahan;Pembangunan Perumahan;Rumah Abah Abie;QV95+29J, jln.Pukesmas Lama, RT.07/RW.03, Mengkatip, Kec. Dusun Hilir, Kabupaten Barito Selatan, Kalimantan Tengah;Kabupaten Barito Selatan, Kalimantan Tengah;KALIMANTAN TENGAH;;Indonesia;;;;-223.261;1.148.583.717;https://maps.google.com/?cid=0x0:0x1197d2b25d866d8f;
perumahan;Pembangunan Perumahan;Rumah sigit himawan;QV95+F5R, Mengkatip, Kec. Dusun Hilir, Kabupaten Barito Selatan, Kalimantan Tengah 73762;Mengkatip, Kec. Dusun Hilir, Kabupaten Barito Selatan;KALIMANTAN TENGAH;73762;Indonesia;;;;-2.231.294;1.148.578.686;https://maps.google.com/?cid=0x0:0xc454a8c5ea457757;
perumahan;Pembangunan Perumahan;Mangkatip dusun hilir;QRMM+W66, Mengkatip, Kec. Dusun Hilir, Kabupaten Barito Selatan, Kalimantan Tengah;Kabupaten Barito Selatan, Kalimantan Tengah;KALIMANTAN TENGAH;;Indonesia;;;;-22.152.029;1.148.330.094;https://maps.google.com/?cid=0x0:0x69601ceb661ba0ff;
perumahan;Pembangunan Perumahan;Cahaya;WV3G+CFH, Unnamed Road, Tlk. Timbau, Kec. Dusun Hilir, Kabupaten Barito Selatan, Kalimantan Tengah 73617;Unnamed Road, Tlk. Timbau, Kec. Dusun Hilir, Kabupaten Barito Selatan;KALIMANTAN TENGAH;73617;Indonesia;;;;-20.964.456;1.148.762.208;https://maps.google.com/?cid=0x0:0xfa2ae6c4db7e93d3;
perumahan;Komplek perumahan;My Dream;VV79+G33, Damparan, Kec. Dusun Hilir, Kabupaten Barito Selatan, Kalimantan Tengah 73617;Damparan, Kec. Dusun Hilir, Kabupaten Barito Selatan;KALIMANTAN TENGAH;73617;Indonesia;;;;-21.362.899;1.148.675.873;https://maps.google.com/?cid=0x0:0x4f4087b006fa10a4;
perumahan;perumahan;Rumah Yasa/Abah Rayyan;QVC3+JVX, Mengkatip, Kec. Dusun Hilir, Kabupaten Barito Selatan, Kalimantan Tengah 73762;Mengkatip, Kec. Dusun Hilir, Kabupaten Barito Selatan;KALIMANTAN TENGAH;73762;Indonesia;;;;-22.283.755;114.854.721;https://maps.google.com/?cid=0x0:0xc5e1b5f590b2fac8;
perumahan;Rumah wisata;RUMAH MAHYUNI;QRJX+XV6, Mengkatip, Kec. Dusun Hilir, Kabupaten Barito Selatan, Kalimantan Tengah 73762;Mengkatip, Kec. Dusun Hilir, Kabupaten Barito Selatan;KALIMANTAN TENGAH;73762;Indonesia;;;;-22.175.846;1.148.497.611;https://maps.google.com/?cid=0x0:0x3a9f897c3b9a6964;
perumahan;Tempat Ibadah;AHMAD HIPNI MUKA LANGGAR MIFTAHUL JANNAH;RW73+H5P, Lehai, Kec. Dusun Hilir, Kabupaten Barito Selatan, Kalimantan Tengah;Kabupaten Barito Selatan, Kalimantan Tengah;KALIMANTAN TENGAH;;Indonesia;81520415300;;;-21.860.367;1.149.029.555;https://maps.google.com/?cid=0x0:0x5519d3df47acea1b;
perumahan;Kantor Pemerintah;Desa lehai;RWJ8+CCW, Lehai, Kec. Dusun Hilir, Kabupaten Barito Selatan, Kalimantan Tengah;Kabupaten Barito Selatan, Kalimantan Tengah;KALIMANTAN TENGAH;;Indonesia;;;;-21.688.971;114.916.088;https://maps.google.com/?cid=0x0:0xf3e14ec70c47b55e;
perumahan;Komplek perumahan;Rumah mukhlis;RVX9+7CH, Damparan, Kec. Dusun Hilir, Kabupaten Barito Selatan, Kalimantan Tengah;Kabupaten Barito Selatan, Kalimantan Tengah;KALIMANTAN TENGAH;;Indonesia;;;;-21.518.098;1.148.686.169;https://maps.google.com/?cid=0x0:0x63d1a1dd66ec711;
perumahan;Perhimpunan Pengembang Perumahan;Rumah mama sarah;QV85+GQQ, Mengkatip, Kec. Dusun Hilir, Kabupaten Barito Selatan, Kalimantan Tengah 73762;Mengkatip, Kec. Dusun Hilir, Kabupaten Barito Selatan;KALIMANTAN TENGAH;73762;Indonesia;;;;-22.330.537;1.148.599.738;https://maps.google.com/?cid=0x0:0x9fbc0fe15a6aa684;
perumahan;Komplek perumahan;Rumah Tantara;QV8C+4P, Mengkatip, Kec. Dusun Hilir, Kabupaten Barito Selatan, Kalimantan Tengah;Kabupaten Barito Selatan, Kalimantan Tengah;KALIMANTAN TENGAH;;Indonesia;;;;-22.346.825;1.148.718.695;https://maps.google.com/?cid=0x0:0x46544dfb4099134a;
perumahan;Perhimpunan Pengembang Perumahan;Warung Bunda Gimung Kalanis;PVPX+6GJ, Kalanis, Kec. Dusun Hilir, Kabupaten Barito Selatan, Kalimantan Tengah 73763;Kalanis, Kec. Dusun Hilir, Kabupaten Barito Selatan;KALIMANTAN TENGAH;73763;Indonesia;;;;-22.644.026;1.148.987.533;https://maps.google.com/?cid=0x0:0xd0529e4d02868997;
perumahan;Kantor Perusahaan;Desa Kalanis;PVPX+GH6, Kalanis, Kec. Dusun Hilir, Kabupaten Barito Selatan, Kalimantan Tengah;Kabupaten Barito Selatan, Kalimantan Tengah;KALIMANTAN TENGAH;;Indonesia;;;;-22.637.052;1.148.988.772;https://maps.google.com/?cid=0x0:0x1d949c28e404334;
perumahan;Perhimpunan Pengembang Perumahan;Warung Mas Bro;PVPX+6FR, Kalanis, Kec. Dusun Hilir, Kabupaten Barito Selatan, Kalimantan Tengah 73763;Kalanis, Kec. Dusun Hilir, Kabupaten Barito Selatan;KALIMANTAN TENGAH;73763;Indonesia;;;;-22.643.959;1.148.986.269;https://maps.google.com/?cid=0x0:0x809616853c9e04ee;
perumahan;Komplek perumahan;HOUSE FARHAT;QWP3+3G8, Mangkatir, Kec. Dusun Hilir, Kabupaten Barito Selatan, Kalimantan Tengah 73762;Mangkatir, Kec. Dusun Hilir, Kabupaten Barito Selatan;KALIMANTAN TENGAH;73762;Indonesia;;;;-2.214.827;1.149.039.023;https://maps.google.com/?cid=0x0:0xd16f683d2f3ab6b1;
perumahan;Rumah Kayu;Upik Asmara;RW84+G58, Lehai, Kec. Dusun Hilir, Kabupaten Barito Selatan, Kalimantan Tengah 73762;Lehai, Kec. Dusun Hilir, Kabupaten Barito Selatan;KALIMANTAN TENGAH;73762;Indonesia;85751337028;;;-21.837.089;1.149.054.635;https://maps.google.com/?cid=0x0:0x976c6e3bb4887ac8;
perumahan;Restoran;Rumah Makan Ma. Yakin;QRPX+XC3, Mengkatip, Kec. Dusun Hilir, Kabupaten Barito Selatan, Kalimantan Tengah 73762;Mengkatip, Kec. Dusun Hilir, Kabupaten Barito Selatan;KALIMANTAN TENGAH;73762;Indonesia;82152738073;;;-22.126.233;1.148.485.315;https://maps.google.com/?cid=0x0:0x40b0f91106acec27;
perumahan;Toko Perhiasan;Rumah Terapung Jual Beli Ikan Mama Diky;Damparan, Kec. Dusun Hilir, Kabupaten Barito Selatan, Kalimantan Tengah 73762;Kec. Dusun Hilir, Kabupaten Barito Selatan;KALIMANTAN TENGAH;73762;Indonesia;85386508067;;;-21.357.084;114.867.081;https://maps.google.com/?cid=0x0:0x703b1f23ef3f4e79;
perumahan;Komplek perumahan;Rumah azha petak puti;XHWW+86F kap. Kuala, Jl buhei nalau, Petak Puti, Kec. Timpah, Kabupaten Kapuas, Kalimantan Tengah 73762;Jl buhei nalau, Petak Puti, Kec. Timpah, Kabupaten Kapuas;KALIMANTAN TENGAH;73762;Indonesia;;;;-2.004.193;1.145.955.356;https://maps.google.com/?cid=0x0:0x9f1ece6b75ef74cc;
perumahan;Kantor Administrasi Kota;UPTD Puskesmas Mengkatip;Jl. Kelurahan, Mengkatip, Kec. Dusun Hilir, Kabupaten Barito Selatan, Kalimantan Tengah 73762;Mengkatip, Kec. Dusun Hilir, Kabupaten Barito Selatan;KALIMANTAN TENGAH;73762;Indonesia;;;;-22.156.798;1.148.489.287;https://maps.google.com/?cid=0x0:0x9f86f09efaede4f;
perumahan;Komplek perumahan;Rumah Sound System As Shifa;PVQX+6H3, Kalanis, Kec. Dusun Hilir, Kabupaten Barito Selatan, Kalimantan Tengah;Kabupaten Barito Selatan, Kalimantan Tengah;KALIMANTAN TENGAH;;Indonesia;;;;-22.619.988;1.148.989.237;https://maps.google.com/?cid=0x0:0x7b64eddf311affc;
perumahan;perumahan;Kalimantan Tengah 73711;Kec. Dusun Sel., Kabupaten Barito Selatan, Kalimantan Tengah;Kabupaten Barito Selatan, Kalimantan Tengah;KALIMANTAN TENGAH;;Indonesia;;;;-17.964.233;1.147.736.556;https://maps.google.com/?cid=0x0:0x4a719b8c335066ed;
perumahan;Kantor Hubungan Masyarakat;Desa Baru;6RC2+X3Q, Jl. Barito, Baru, Kec. Dusun Sel., Kabupaten Barito Selatan, Kalimantan Tengah;Kabupaten Barito Selatan, Kalimantan Tengah;KALIMANTAN TENGAH;;Indonesia;;;;-17.763.601;114.805.545;https://maps.google.com/?cid=0x0:0x32475308fef27e28;
perumahan;Perhimpunan Pengembang Perumahan;Rogerbong;6RF5+PQV, Baru, Kec. Dusun Sel., Kabupaten Barito Selatan, Kalimantan Tengah 73751;Baru, Kec. Dusun Sel., Kabupaten Barito Selatan;KALIMANTAN TENGAH;73751;Indonesia;;;;-17.756.503;1.148.094.267;https://maps.google.com/?cid=0x0:0xd46360842b894130;
perumahan;Komplek perumahan;599;6RF5+FHJ, Jl. Manunggal VII, Baru, Kec. Dusun Sel., Kabupaten Barito Selatan, Kalimantan Tengah 73751;Jl. Manunggal VII, Baru, Kec. Dusun Sel., Kabupaten Barito Selatan;KALIMANTAN TENGAH;73751;Indonesia;;;;-17.762.908;1.148.089.015;https://maps.google.com/?cid=0x0:0x207ff1a7c2944b77;
perumahan;Inspektur Tempat Tinggal;Juru kunci tanah lungaur;6RF6+J76, Jl. Manunggal VII, Baru, Kec. Dusun Sel., Kabupaten Barito Selatan, Kalimantan Tengah 73751;Jl. Manunggal VII, Baru, Kec. Dusun Sel., Kabupaten Barito Selatan;KALIMANTAN TENGAH;73751;Indonesia;;;;-17.756.519;1.148.112.303;https://maps.google.com/?cid=0x0:0x77482bfdc1387d43;
perumahan;Komplek perumahan;rra;6R94+6J, Baru, Kec. Dusun Sel., Kabupaten Barito Selatan, Kalimantan Tengah 73751;Baru, Kec. Dusun Sel., Kabupaten Barito Selatan;KALIMANTAN TENGAH;73751;Indonesia;;;;-17.819.261;1.148.065.264;https://maps.google.com/?cid=0x0:0xb57c9ea95c68204d;
perumahan;perumahan;Desa Baru;6RG5+2XQ, Baru, Kec. Dusun Sel., Kabupaten Barito Selatan, Kalimantan Tengah;Kabupaten Barito Selatan, Kalimantan Tengah;KALIMANTAN TENGAH;;Indonesia;;;;-17.749.046;1.148.099.824;https://maps.google.com/?cid=0x0:0xa2456bc713006296;
perumahan;Komplek perumahan;Mama ferry;6RF5+PQV, Baru, Kec. Dusun Sel., Kabupaten Barito Selatan, Kalimantan Tengah 73751;Baru, Kec. Dusun Sel., Kabupaten Barito Selatan;KALIMANTAN TENGAH;73751;Indonesia;;;;-17.756.459;1.148.094.257;https://maps.google.com/?cid=0x0:0xdee2ff17f7a3190f;
perumahan;Komplek perumahan;M.Rahim;Jl. Manunggal VII No.7, RT.7/RW.3, Baru, Kec. Dusun Sel., Kabupaten Barito Selatan, Kalimantan Tengah 73751;RT.7/RW.3, Baru, Kec. Dusun Sel., Kabupaten Barito Selatan;KALIMANTAN TENGAH;73751;Indonesia;;;;-17.775.229;1.148.051.691;https://maps.google.com/?cid=0x0:0xc5881ba34144f1fa;
perumahan;Komplek perumahan;Frenkyy;6QCX+Q89, Jl. Barito, Baru, Kec. Dusun Sel., Kabupaten Barito Selatan, Kalimantan Tengah 73711;Jl. Barito, Baru, Kec. Dusun Sel., Kabupaten Barito Selatan;KALIMANTAN TENGAH;73711;Indonesia;;;;-17.780.788;114.798.374;https://maps.google.com/?cid=0x0:0x41f9774d6ed875c5;
perumahan;Pembangunan Perumahan;Bebeng;6R89+99V, Danau Sadar, Kec. Dusun Sel., Kabupaten Barito Selatan, Kalimantan Tengah 73751;Danau Sadar, Kec. Dusun Sel., Kabupaten Barito Selatan;KALIMANTAN TENGAH;73751;Indonesia;81250546920;;;-17.840.222;1.148.184.073;https://maps.google.com/?cid=0x0:0xc7f3665eefccb963;
perumahan;Komplek perumahan;Rumah Hardiyanti;6RF5+Q7G, Jl. Barito, Baru, Kec. Dusun Sel., Kabupaten Barito Selatan, Kalimantan Tengah 73751;Jl. Barito, Baru, Kec. Dusun Sel., Kabupaten Barito Selatan;KALIMANTAN TENGAH;73751;Indonesia;;;;-1.775.557;1.148.082.061;https://maps.google.com/?cid=0x0:0x5f9894e98494e9bd;
perumahan;perumahan;Edi A.;6RF6+P6Q, Baru, Kec. Dusun Sel., Kabupaten Barito Selatan, Kalimantan Tengah;Kabupaten Barito Selatan, Kalimantan Tengah;KALIMANTAN TENGAH;;Indonesia;;;;-17.756.636;1.148.106.201;https://maps.google.com/?cid=0x0:0x1b0e808d5cf81847;
perumahan;Komplek perumahan;PERUMAHAN BUMI RAYA PERMAI;7RHW+3P3, Jl. Pelita IV Gg. Dawitkarani, Buntok Kota, Kec. Dusun Sel., Kabupaten Barito Selatan, Kalimantan Tengah 73713;Jl. Pelita IV Gg. Dawitkarani, Buntok Kota, Kec. Dusun Sel., Kabupaten Barito Selatan;KALIMANTAN TENGAH;73713;Indonesia;;;;-17.233.276;1.148.466.482;https://maps.google.com/?cid=0x0:0x48db26242698a167;
perumahan;Perumahan;Aulia;6R93+WQV, Baru, Kec. Dusun Sel., Kabupaten Barito Selatan, Kalimantan Tengah 73751;Baru, Kec. Dusun Sel., Kabupaten Barito Selatan;KALIMANTAN TENGAH;73751;Indonesia;;;;-17.800.525;1.148.034.314;https://maps.google.com/?cid=0x0:0xa492dc28e6428e2;
perumahan;Pembangunan Perumahan;Fadliannor;6RF5+MVH, Jl. Manunggal VII, Baru, Kec. Dusun Sel., Kabupaten Barito Selatan, Kalimantan Tengah 73751;Jl. Manunggal VII, Baru, Kec. Dusun Sel., Kabupaten Barito Selatan;KALIMANTAN TENGAH;73751;Indonesia;;;;-17.758.092;1.148.097.386;https://maps.google.com/?cid=0x0:0x3d300ffb204438a1;
perumahan;Pembangunan Perumahan;House vivyy;6RF3+74H, Baru, Kec. Dusun Sel., Kabupaten Barito Selatan, Kalimantan Tengah 73711;Baru, Kec. Dusun Sel., Kabupaten Barito Selatan;KALIMANTAN TENGAH;73711;Indonesia;;;;-17.766.293;1.148.029.373;https://maps.google.com/?cid=0x0:0xa56d357623aac5c7;
perumahan;Klinik Medis;Puskesmas Desa Baru;6RC3+CPG, Baru, Kec. Dusun Sel., Kabupaten Barito Selatan, Kalimantan Tengah 73711;Baru, Kec. Dusun Sel., Kabupaten Barito Selatan;KALIMANTAN TENGAH;73711;Indonesia;;;;-17.789.259;1.148.043.315;https://maps.google.com/?cid=0x0:0xa14b9e296e4f4990;
perumahan;Pembangunan Perumahan;Dhira Lafeny;6RF4+CXV, Jl. Manunggal VII, Baru, Kec. Dusun Sel., Kabupaten Barito Selatan, Kalimantan Tengah;Kabupaten Barito Selatan, Kalimantan Tengah;KALIMANTAN TENGAH;;Indonesia;;;;-17.763.858;114.807.417;https://maps.google.com/?cid=0x0:0x53c6d2441fd68215;
perumahan;Komplek perumahan;Vila ASPIANNOR;6Q5R+42H, Baru, Kec. Dusun Sel., Kabupaten Barito Selatan, Kalimantan Tengah;Kabupaten Barito Selatan, Kalimantan Tengah;KALIMANTAN TENGAH;;Indonesia;;;;-17.921.838;1.147.900.985;https://maps.google.com/?cid=0x0:0x3b99b6af944cd431;
perumahan;Perhimpunan Pengembang Perumahan;Ina imunk;6RHH+7FX, Danau Sadar, Kec. Dusun Sel., Kabupaten Barito Selatan, Kalimantan Tengah;Kabupaten Barito Selatan, Kalimantan Tengah;KALIMANTAN TENGAH;;Indonesia;;;;-17.718.574;1.148.287.328;https://maps.google.com/?cid=0x0:0x25c9d7a7d7746db8;
perumahan;Komplek perumahan;Buntok Kec. Dusun Selatan Kab. Barito Selatan;2CGG+R9H, Jl. Asam, Buntok Kota, Kec. Patangkep Tutui, Kabupaten Barito Selatan, Kalimantan Tengah;Kabupaten Barito Selatan, Kalimantan Tengah;KALIMANTAN TENGAH;;Indonesia;;;;-19.729.444;1.154.259.722;https://maps.google.com/?cid=0x0:0xe61a94feabcffe23;
perumahan;Komplek perumahan;Rumah Gusti;6RF4+C3M, Baru, Kec. Dusun Sel., Kabupaten Barito Selatan, Kalimantan Tengah 73751;Baru, Kec. Dusun Sel., Kabupaten Barito Selatan;KALIMANTAN TENGAH;73751;Indonesia;;;;-17.764.753;1.148.052.705;https://maps.google.com/?cid=0x0:0x563f17127b5d55e7;
perumahan;Pembangunan Perumahan;Saby;6QCX+MCW, Baru, Kec. Dusun Sel., Kabupaten Barito Selatan, Kalimantan Tengah;Kabupaten Barito Selatan, Kalimantan Tengah;KALIMANTAN TENGAH;;Indonesia;;;;-17.782.735;1.147.985.814;https://maps.google.com/?cid=0x0:0x2bc8a30f68d9a728;
perumahan;perumahan;Kalimantan Tengah 73712;Kec. Dusun Sel., Kabupaten Barito Selatan, Kalimantan Tengah;Kabupaten Barito Selatan, Kalimantan Tengah;KALIMANTAN TENGAH;;Indonesia;;;;-18.255.326;1.147.588.155;https://maps.google.com/?cid=0x0:0xbc3cf9c65f77161b;
perumahan;Komplek perumahan;Buntok Kec. Dusun Selatan Kab. Barito Selatan;2CGG+R9H, Jl. Asam, Buntok Kota, Kec. Patangkep Tutui, Kabupaten Barito Selatan, Kalimantan Tengah;Kabupaten Barito Selatan, Kalimantan Tengah;KALIMANTAN TENGAH;;Indonesia;;;;-19.729.444;1.154.259.722;https://maps.google.com/?cid=0x0:0xe61a94feabcffe23;
perumahan;Komplek perumahan;PERUMAHAN BUMI RAYA PERMAI;7RHW+3P3, Jl. Pelita IV Gg. Dawitkarani, Buntok Kota, Kec. Dusun Sel., Kabupaten Barito Selatan, Kalimantan Tengah 73713;Jl. Pelita IV Gg. Dawitkarani, Buntok Kota, Kec. Dusun Sel., Kabupaten Barito Selatan;KALIMANTAN TENGAH;73713;Indonesia;;;;-17.233.276;1.148.466.482;https://maps.google.com/?cid=0x0:0x48db26242698a167;
perumahan;Klinik Kesehatan;Rumah Sehat Halimatussa'diah;Danau Ganting No.36, RT.1 RW/RW.1, Tlk. Sampudau, Kec. Dusun Sel., Kabupaten Barito Selatan, Kalimantan Tengah 73712;RT.1 RW/RW.1, Tlk. Sampudau, Kec. Dusun Sel., Kabupaten Barito Selatan;KALIMANTAN TENGAH;73712;Indonesia;81251477752;;;-18.255.326;1.147.588.155;https://maps.google.com/?cid=0x0:0x261e4e35fa2e7183;
perumahan;Rumah Kayu;Rumah Farhan;5Q2H+6R Padang bajikut rangga, Bintang Kurung, Kec. Karau Kuala, Kabupaten Barito Selatan, Kalimantan Tengah;Kabupaten Barito Selatan, Kalimantan Tengah;KALIMANTAN TENGAH;;Indonesia;;;;-18.502.611;1.147.797.834;https://maps.google.com/?cid=0x0:0x273c0ba1bda7179d;
perumahan;Kantor Pemerintah;Desa Teluk Sampudau;5Q9F+HCV, Tlk. Sampudau, Kec. Karau Kuala, Kabupaten Barito Selatan, Kalimantan Tengah;Kabupaten Barito Selatan, Kalimantan Tengah;KALIMANTAN TENGAH;;Indonesia;;;;-18.310.003;1.147.735.426;https://maps.google.com/?cid=0x0:0xd2059c5f6103786;
perumahan;Pembangunan Perumahan;Graha Kayu Manis (Komplek Perumahan);8W65+JGR, Jl. Soekarno - Hatta, Sababilah, Kec. Dusun Sel., Kabupaten Barito Selatan, Kalimantan Tengah 73713;Jl. Soekarno - Hatta, Sababilah, Kec. Dusun Sel., Kabupaten Barito Selatan;KALIMANTAN TENGAH;73713;Indonesia;;;;-16.883.804;1.149.087.591;https://maps.google.com/?cid=0x0:0x72673211a0e9d1b7;
perumahan;Rumah Kayu;Rumah Taupik/Kun Anta;5QRG+6V5, Muara Talang, Kec. Dusun Sel., Kabupaten Barito Selatan, Kalimantan Tengah 73711;Muara Talang, Kec. Dusun Sel., Kabupaten Barito Selatan;KALIMANTAN TENGAH;73711;Indonesia;;;;-1.809.472;114.777;https://maps.google.com/?cid=0x0:0xd0ffca40aed4de10;
perumahan;Komplek perumahan;Rumah dinas;7VP4+2GH, Jl. Pahlawan, Buntok Kota, Kec. Dusun Sel., Kabupaten Barito Selatan, Kalimantan Tengah;Kabupaten Barito Selatan, Kalimantan Tengah;KALIMANTAN TENGAH;;Indonesia;;;;-171.493;1.148.563.467;https://maps.google.com/?cid=0x0:0x2adf9a6f6fc128a3;
perumahan;Rumah Kayu;Rumah fadhil;5Q2H+6R, Bintang Kurung, Kec. Karau Kuala, Kabupaten Barito Selatan, Kalimantan Tengah;Kabupaten Barito Selatan, Kalimantan Tengah;KALIMANTAN TENGAH;;Indonesia;;;;-18.506.706;1.147.787.927;https://maps.google.com/?cid=0x0:0xc04f6ce74b7d34e;
perumahan;Rumah Kayu;rumah blod;5Q2H+6R, Bintang Kurung, Kec. Karau Kuala, Kabupaten Barito Selatan, Kalimantan Tengah;Kabupaten Barito Selatan, Kalimantan Tengah;KALIMANTAN TENGAH;;Indonesia;;;;-18.501.471;1.147.789.486;https://maps.google.com/?cid=0x0:0x9f5d1c8d2e905f68;
perumahan;perumahan;Bintang Kurung;5Q2H+6R, Bintang Kurung, Kec. Karau Kuala, Kabupaten Barito Selatan, Kalimantan Tengah;Kabupaten Barito Selatan, Kalimantan Tengah;KALIMANTAN TENGAH;;Indonesia;;;;-18.512.198;1.147.793.369;https://maps.google.com/?cid=0x0:0x1e3163cbf66ac534;
perumahan;Penjahit;"Penjahit AYUDIA""""";Gg.Dawit Karani, Jl.pelita4 RT.027, Perumahan Bumi Raya Permai No.25 blok.A, Hilir Sper, Kec. Dusun Sel., Kabupaten Barito Selatan, Kalimantan Tengah 73712;Jl.pelita4 RT.027, Perumahan Bumi Raya Permai No.25 blok.A, Hilir Sper, Kec. Dusun Sel., Kabupaten Barito Selatan;KALIMANTAN TENGAH;73712;Indonesia;81341060007;;;-18.296.021;1.147.561.632;https://maps.google.com/?cid=0x0:0xf01baaf973ccbc12;
perumahan;perumahan;Kalimantan Tengah 73713;Kabupaten Barito Selatan, Kalimantan Tengah;Kabupaten Barito Selatan, Kalimantan Tengah;KALIMANTAN TENGAH;;Indonesia;;;;-17.531.862;1.146.905.436;https://maps.google.com/?cid=0x0:0x1c28f022a25af1a5;
perumahan;Komplek perumahan;PERUMAHAN BUMI RAYA PERMAI;7RHW+3P3, Jl. Pelita IV Gg. Dawitkarani, Buntok Kota, Kec. Dusun Sel., Kabupaten Barito Selatan, Kalimantan Tengah 73713;Jl. Pelita IV Gg. Dawitkarani, Buntok Kota, Kec. Dusun Sel., Kabupaten Barito Selatan;KALIMANTAN TENGAH;73713;Indonesia;;;;-17.233.276;1.148.466.482;https://maps.google.com/?cid=0x0:0x48db26242698a167;
perumahan;Pembangunan Perumahan;Perumahan Graha Mutiara Asri;7VP7+5Q7, Buntok Kota, Kec. Dusun Sel., Kabupaten Barito Selatan, Kalimantan Tengah 73713;Buntok Kota, Kec. Dusun Sel., Kabupaten Barito Selatan;KALIMANTAN TENGAH;73713;Indonesia;;;;-17.145.802;1.148.644.065;https://maps.google.com/?cid=0x0:0xa5a038ab60769961;
perumahan;Komplek perumahan;Perumahan Pondok Indah Karabung Permai;7RPW+J33, Buntok Kota, Kec. Dusun Sel., Kabupaten Barito Selatan, Kalimantan Tengah 73751;Buntok Kota, Kec. Dusun Sel., Kabupaten Barito Selatan;KALIMANTAN TENGAH;73751;Indonesia;;;;-17.134.782;11.484.516;https://maps.google.com/?cid=0x0:0x8451e4547f3c5f8e;
perumahan;Komplek perumahan;Rumàh Novarina Buntok;Jl. Kaladan Gg. Takam, 3 Rt.17 Rw.004 No.22, Hilir Sper;Kabupaten Barito Selatan, Kalimantan Tengah;KALIMANTAN TENGAH;;Indonesia;;;;-17.240.873;1.148.431.998;https://maps.google.com/?cid=0x0:0x80c834bc657794bd;
perumahan;Kantor Hubungan Masyarakat;Desa Baru;6RC2+X3Q, Jl. Barito, Baru, Kec. Dusun Sel., Kabupaten Barito Selatan, Kalimantan Tengah;Kabupaten Barito Selatan, Kalimantan Tengah;KALIMANTAN TENGAH;;Indonesia;;;;-17.763.601;114.805.545;https://maps.google.com/?cid=0x0:0x32475308fef27e28;
perumahan;Komplek perumahan;Kalteng;7RHP+FXJ, Jl. Pembangunan, Buntok Kota, Kec. Dusun Sel., Kabupaten Barito Selatan, Kalimantan Tengah 73751;Jl. Pembangunan, Buntok Kota, Kec. Dusun Sel., Kabupaten Barito Selatan;KALIMANTAN TENGAH;73751;Indonesia;;;;-1.721.276;114.837.376;https://maps.google.com/?cid=0x0:0xd509c80d370cad1b;
perumahan;Pembangunan Perumahan;Rumah kayos;7RPQ+76X, Buntok Kota, Kec. Dusun Sel., Kabupaten Barito Selatan, Kalimantan Tengah 73751;Buntok Kota, Kec. Dusun Sel., Kabupaten Barito Selatan;KALIMANTAN TENGAH;73751;Indonesia;;;;-17.142.572;1.148.381.031;https://maps.google.com/?cid=0x0:0xfc51b23ea4f28d0c;
perumahan;Komplek perumahan;Rumdin kami;Jl. Pelita IV No.60, Buntok Kota, Kec. Dusun Sel., Kabupaten Barito Selatan, Kalimantan Tengah 73713;Buntok Kota, Kec. Dusun Sel., Kabupaten Barito Selatan;KALIMANTAN TENGAH;73713;Indonesia;;;;-17.178.537;1.148.503.051;https://maps.google.com/?cid=0x0:0xe6b0f18b044c8d21;
perumahan;Komplek perumahan;Martjun Regency;7RJQ+7V8, Jl. Amd I, Buntok Kota, Kec. Dusun Sel., Kabupaten Barito Selatan, Kalimantan Tengah 73751;Jl. Amd I, Buntok Kota, Kec. Dusun Sel., Kabupaten Barito Selatan;KALIMANTAN TENGAH;73751;Indonesia;;;;-17.193.267;1.148.397.001;https://maps.google.com/?cid=0x0:0x12dfce1be9f1d8b9;
perumahan;Kantor Pemerintah;Perumahan KPPN Buntok;7VP2+3H2, Buntok Kota, Kec. Dusun Sel., Kabupaten Barito Selatan, Kalimantan Tengah 73713;Buntok Kota, Kec. Dusun Sel., Kabupaten Barito Selatan;KALIMANTAN TENGAH;73713;Indonesia;;;;-1.714.862;1.148.513.998;https://maps.google.com/?cid=0x0:0xabdd3ee256b23131;
perumahan;Komplek perumahan;Nadira Home;Buntok - Ampah Jl. Asam No.99, RT.041/RW.005, Buntok Kota, Kec. Dusun Sel., Kabupaten Barito Selatan, Kalimantan Tengah 73713;RT.041/RW.005, Buntok Kota, Kec. Dusun Sel., Kabupaten Barito Selatan;KALIMANTAN TENGAH;73713;Indonesia;;;;-17.146.364;1.148.598.981;https://maps.google.com/?cid=0x0:0xfc5e9218fbf7b23d;
perumahan;Komplek perumahan;Lahan kavlingan  Perumahan;Jl.Sempurna No.Gang 1, Buntok Kota, South Dusun, South Barito Regency, Central Kalimantan 73713;Buntok Kota, South Dusun, South Barito Regency;KALIMANTAN TENGAH;73713;Indonesia;;;;-17.200.541;114.845.809;https://maps.google.com/?cid=0x0:0x74f4cbb054038fb;
perumahan;Komplek perumahan;Rumah Hartino;8W2F+M2, Sababilah, Kec. Dusun Sel., Kabupaten Barito Selatan, Kalimantan Tengah 73713;Sababilah, Kec. Dusun Sel., Kabupaten Barito Selatan;KALIMANTAN TENGAH;73713;Indonesia;;;;-16.982.719;1.149.225.849;https://maps.google.com/?cid=0x0:0xe3f07bede806e15b;
perumahan;Komplek perumahan;Rumah Renot;8W86+W3V, Unnamed Road, Sanggu, Kec. Dusun Sel., Kabupaten Barito Selatan, Kalimantan Tengah 73713;Unnamed Road, Sanggu, Kec. Dusun Sel., Kabupaten Barito Selatan;KALIMANTAN TENGAH;73713;Indonesia;;;;-16.826.447;1.149.101.814;https://maps.google.com/?cid=0x0:0xae2acfd2bb3eca3c;
perumahan;Komplek perumahan;ROEZLAND HOUSE;Jl. Niaga No.26, RT.22, Buntok Kota, Kec. Dusun Sel., Kabupaten Barito Selatan, Kalimantan Tengah 73711;RT.22, Buntok Kota, Kec. Dusun Sel., Kabupaten Barito Selatan;KALIMANTAN TENGAH;73711;Indonesia;;;;-1.715.929;1.148.342.321;https://maps.google.com/?cid=0x0:0xf70c67d55a2b85b0;
perumahan;Komplek perumahan;Rumah;7RGR+836, Hilir Sper, Kec. Dusun Sel., Kabupaten Barito Selatan, Kalimantan Tengah;Kabupaten Barito Selatan, Kalimantan Tengah;KALIMANTAN TENGAH;;Indonesia;;;;-1.724.219;1.148.401.335;https://maps.google.com/?cid=0x0:0x280d6805af87d0dc;
perumahan;Rumah Pondokan;Rumah kos;Jl. Pahlawan No.29, RT.031/RW.004, Buntok Kota, Kec. Dusun Sel., Kabupaten Barito Selatan, Kalimantan Tengah 73751;RT.031/RW.004, Buntok Kota, Kec. Dusun Sel., Kabupaten Barito Selatan;KALIMANTAN TENGAH;73751;Indonesia;;;;-17.163.332;114.840.755;https://maps.google.com/?cid=0x0:0xf56beb6b62bb37b8;
perumahan;Komplek perumahan;Perumahan Dinas BLK Buntok;Jl. Kartini No.40, Hilir Sper, Kec. Dusun Sel., Kabupaten Barito Selatan, Kalimantan Tengah 73751;Hilir Sper, Kec. Dusun Sel., Kabupaten Barito Selatan;KALIMANTAN TENGAH;73751;Indonesia;;;;-17.326.293;1.148.319.333;https://maps.google.com/?cid=0x0:0x47e8cda4803e0c7b;
perumahan;Komplek perumahan;Rumah LolA;Jl. Merdeka Raya No.5, RT.07, Buntok Kota, Kec. Dusun Sel., Kabupaten Barito Selatan, Kalimantan Tengah 73751;RT.07, Buntok Kota, Kec. Dusun Sel., Kabupaten Barito Selatan;KALIMANTAN TENGAH;73751;Indonesia;;;;-17.188.408;1.148.332.485;https://maps.google.com/?cid=0x0:0xa3c86a016442b867;
perumahan;Komplek perumahan;cangli dusun;9R44+6RX, Kalahien, Kec. Dusun Sel., Kabupaten Barito Selatan, Kalimantan Tengah 73751;Kalahien, Kec. Dusun Sel., Kabupaten Barito Selatan;KALIMANTAN TENGAH;73751;Indonesia;;;;-16.451.697;1.148.064.359;https://maps.google.com/?cid=0x0:0x7a4e8b9668f353d;
perumahan;Komplek perumahan;Rumah alim;8R4R+8PV, Jl. Padat Karya, Buntok Kota, Kec. Dusun Sel., Kabupaten Barito Selatan, Kalimantan Tengah 73751;Jl. Padat Karya, Buntok Kota, Kec. Dusun Sel., Kabupaten Barito Selatan;KALIMANTAN TENGAH;73751;Indonesia;;;;-16.941.433;1.148.418.045;https://maps.google.com/?cid=0x0:0xa4400c95a822f3b1;
perumahan;Perhimpunan Pengembang Perumahan;Almani Home;Jl. Pahlawan, Pamait, Kec. Dusun Sel., Kabupaten Barito Selatan, Kalimantan Tengah 73713;Pamait, Kec. Dusun Sel., Kabupaten Barito Selatan;KALIMANTAN TENGAH;73713;Indonesia;;;;-16.922.218;1.148.763.071;https://maps.google.com/?cid=0x0:0x72b94b61e367f15;
perumahan;Gedung Apartemen;Buntok;7VM6+6QV Belakang Masjid Nurul Huda, Jalan Pahlawan Raut gang Nurul Huda, Buntok Kota, Kabupaten Barito Selatan, Raut, Kalimantan Tengah;Raut, Kalimantan Tengah;KALIMANTAN TENGAH;;Indonesia;;;;-17.168.775;1.148.619.331;https://maps.google.com/?cid=0x0:0xd74b7bde2f185eae;
perumahan;Komplek perumahan;Fandy;8V7H+8FH, Jl. Soekarno - Hatta, Sanggu, Kec. Dusun Sel., Kabupaten Barito Selatan, Kalimantan Tengah 73713;Jl. Soekarno - Hatta, Sanggu, Kec. Dusun Sel., Kabupaten Barito Selatan;KALIMANTAN TENGAH;73713;Indonesia;;;;-16.871.435;1.148.782.581;https://maps.google.com/?cid=0x0:0x6a4f790c29dcafd5;
perumahan;Pembangunan Perumahan;Sudirman 4;7VM4+CJM, Jl. Jend. Sudirman, Buntok Kota, Kec. Dusun Sel., Kabupaten Barito Selatan, Kalimantan Tengah 73713;Jl. Jend. Sudirman, Buntok Kota, Kec. Dusun Sel., Kabupaten Barito Selatan;KALIMANTAN TENGAH;73713;Indonesia;;;;-17.164.017;114.856.555;https://maps.google.com/?cid=0x0:0xa0ef7b0fc4775ad5;
perumahan;perumahan;Kalimantan Tengah 73751;Kec. Dusun Sel., Kabupaten Barito Selatan, Kalimantan Tengah;Kabupaten Barito Selatan, Kalimantan Tengah;KALIMANTAN TENGAH;;Indonesia;;;;-16.899.287;1.147.736.556;https://maps.google.com/?cid=0x0:0xfd0ed3d130200b49;
perumahan;Komplek perumahan;Palapa 1;7RGR+V7R, Hilir Sper, Kec. Dusun Sel., Kabupaten Barito Selatan, Kalimantan Tengah 73751;Hilir Sper, Kec. Dusun Sel., Kabupaten Barito Selatan;KALIMANTAN TENGAH;73751;Indonesia;;;;-17.227.535;1.148.406.555;https://maps.google.com/?cid=0x0:0x6c824af219a88c42;
perumahan;Pembangunan Perumahan;Residence Masura;7RHR+6QH, Gg. Sukamaju, Buntok Kota, Kec. Dusun Sel., Kabupaten Barito Selatan, Kalimantan Tengah 73751;Gg. Sukamaju, Buntok Kota, Kec. Dusun Sel., Kabupaten Barito Selatan;KALIMANTAN TENGAH;73751;Indonesia;;;;-17.219.475;1.148.419.885;https://maps.google.com/?cid=0x0:0xdbbccc9025330102;
perumahan;Komplek perumahan;Kalteng;7RHP+FXJ, Jl. Pembangunan, Buntok Kota, Kec. Dusun Sel., Kabupaten Barito Selatan, Kalimantan Tengah 73751;Jl. Pembangunan, Buntok Kota, Kec. Dusun Sel., Kabupaten Barito Selatan;KALIMANTAN TENGAH;73751;Indonesia;;;;-1.721.276;114.837.376;https://maps.google.com/?cid=0x0:0xd509c80d370cad1b;
perumahan;Komplek perumahan;Perumahan Pondok Indah Karabung Permai;7RPW+J33, Buntok Kota, Kec. Dusun Sel., Kabupaten Barito Selatan, Kalimantan Tengah 73751;Buntok Kota, Kec. Dusun Sel., Kabupaten Barito Selatan;KALIMANTAN TENGAH;73751;Indonesia;;;;-17.134.782;11.484.516;https://maps.google.com/?cid=0x0:0x8451e4547f3c5f8e;
perumahan;Komplek perumahan;Rumah ku;7R9V+F67, Kalahien - Buntok, Kalahien, Kec. Dusun Sel., Kabupaten Barito Selatan, Kalimantan Tengah 73751;Kalahien - Buntok, Kalahien, Kec. Dusun Sel., Kabupaten Barito Selatan;KALIMANTAN TENGAH;73751;Indonesia;;;;-1.731.327;1.148.430.336;https://maps.google.com/?cid=0x0:0xde047bbb18a83443;
perumahan;Gedung Apartemen;Buntok;8RQW+854, Lembeng, Kec. Dusun Sel., Kabupaten Barito Selatan, Kalimantan Tengah 73751;Lembeng, Kec. Dusun Sel., Kabupaten Barito Selatan;KALIMANTAN TENGAH;73751;Indonesia;81317089563;;;-16.617.411;1.148.454.597;https://maps.google.com/?cid=0x0:0x1452ee4eb59f6409;
perumahan;Komplek perumahan;cangli dusun;9R44+6RX, Kalahien, Kec. Dusun Sel., Kabupaten Barito Selatan, Kalimantan Tengah 73751;Kalahien, Kec. Dusun Sel., Kabupaten Barito Selatan;KALIMANTAN TENGAH;73751;Indonesia;;;;-16.451.697;1.148.064.359;https://maps.google.com/?cid=0x0:0x7a4e8b9668f353d;
perumahan;Komplek perumahan;Martjun Regency;7RJQ+7V8, Jl. Amd I, Buntok Kota, Kec. Dusun Sel., Kabupaten Barito Selatan, Kalimantan Tengah 73751;Jl. Amd I, Buntok Kota, Kec. Dusun Sel., Kabupaten Barito Selatan;KALIMANTAN TENGAH;73751;Indonesia;;;;-17.193.267;1.148.397.001;https://maps.google.com/?cid=0x0:0x12dfce1be9f1d8b9;
perumahan;Komplek perumahan;Rumah;7RGR+836, Hilir Sper, Kec. Dusun Sel., Kabupaten Barito Selatan, Kalimantan Tengah;Kabupaten Barito Selatan, Kalimantan Tengah;KALIMANTAN TENGAH;;Indonesia;;;;-1.724.219;1.148.401.335;https://maps.google.com/?cid=0x0:0x280d6805af87d0dc;
perumahan;Komplek perumahan;Rumah Rifai/Vera;7RFV+H37, Jl. Kaladan, Hilir Sper, Kec. Dusun Sel., Kabupaten Barito Selatan, Kalimantan Tengah 73751;Jl. Kaladan, Hilir Sper, Kec. Dusun Sel., Kabupaten Barito Selatan;KALIMANTAN TENGAH;73751;Indonesia;;;;-17.261.647;11.484.263;https://maps.google.com/?cid=0x0:0x805c9eec34991852;
perumahan;Perhimpunan Pengembang Perumahan;Rogerbong;6RF5+PQV, Baru, Kec. Dusun Sel., Kabupaten Barito Selatan, Kalimantan Tengah 73751;Baru, Kec. Dusun Sel., Kabupaten Barito Selatan;KALIMANTAN TENGAH;73751;Indonesia;;;;-17.756.503;1.148.094.267;https://maps.google.com/?cid=0x0:0xd46360842b894130;
perumahan;Rumah Pondokan;Rumah kos;Jl. Pahlawan No.29, RT.031/RW.004, Buntok Kota, Kec. Dusun Sel., Kabupaten Barito Selatan, Kalimantan Tengah 73751;RT.031/RW.004, Buntok Kota, Kec. Dusun Sel., Kabupaten Barito Selatan;KALIMANTAN TENGAH;73751;Indonesia;;;;-17.163.332;114.840.755;https://maps.google.com/?cid=0x0:0xf56beb6b62bb37b8;
perumahan;Komplek perumahan;Perumahan Dinas BLK Buntok;Jl. Kartini No.40, Hilir Sper, Kec. Dusun Sel., Kabupaten Barito Selatan, Kalimantan Tengah 73751;Hilir Sper, Kec. Dusun Sel., Kabupaten Barito Selatan;KALIMANTAN TENGAH;73751;Indonesia;;;;-17.326.293;1.148.319.333;https://maps.google.com/?cid=0x0:0x47e8cda4803e0c7b;
perumahan;Rumah Kayu;Rumah Ustadz H. Muhammad Sibawaihi, Lc Mudir/Pimpinan Ponpes Nurul Azhar;7RJV+WGM, Jl. Pelita Raya, Hilir Sper, Kec. Dusun Sel., Kabupaten Barito Selatan, Kalimantan Tengah 73751;Jl. Pelita Raya, Hilir Sper, Kec. Dusun Sel., Kabupaten Barito Selatan;KALIMANTAN TENGAH;73751;Indonesia;;;;-17.176.624;11.484.381;https://maps.google.com/?cid=0x0:0xc3807df63c8b758d;
perumahan;Komplek perumahan;Rumah Goe;Jl. Jelapat No.13-17, Hilir Sper, Kec. Dusun Sel., Kabupaten Barito Selatan, Kalimantan Tengah 73751;Hilir Sper, Kec. Dusun Sel., Kabupaten Barito Selatan;KALIMANTAN TENGAH;73751;Indonesia;;;;-17.388.407;1.148.291.011;https://maps.google.com/?cid=0x0:0x676a352ed12405bd;
perumahan;Komplek perumahan;Rumah alim;8R4R+8PV, Jl. Padat Karya, Buntok Kota, Kec. Dusun Sel., Kabupaten Barito Selatan, Kalimantan Tengah 73751;Jl. Padat Karya, Buntok Kota, Kec. Dusun Sel., Kabupaten Barito Selatan;KALIMANTAN TENGAH;73751;Indonesia;;;;-16.941.433;1.148.418.045;https://maps.google.com/?cid=0x0:0xa4400c95a822f3b1;
perumahan;Pembangunan Perumahan;Rumah kayos;7RPQ+76X, Buntok Kota, Kec. Dusun Sel., Kabupaten Barito Selatan, Kalimantan Tengah 73751;Buntok Kota, Kec. Dusun Sel., Kabupaten Barito Selatan;KALIMANTAN TENGAH;73751;Indonesia;;;;-17.142.572;1.148.381.031;https://maps.google.com/?cid=0x0:0xfc51b23ea4f28d0c;
perumahan;Komplek perumahan;rumah sening;7RHP+5R4, Jl. Jaya Karsa, Buntok Kota, Kec. Dusun Sel., Kabupaten Barito Selatan, Kalimantan Tengah 73751;Jl. Jaya Karsa, Buntok Kota, Kec. Dusun Sel., Kabupaten Barito Selatan;KALIMANTAN TENGAH;73751;Indonesia;;;;-17.221.031;1.148.371.244;https://maps.google.com/?cid=0x0:0x47ab6e83267315e1;
perumahan;Komplek perumahan;rra;6R94+6J, Baru, Kec. Dusun Sel., Kabupaten Barito Selatan, Kalimantan Tengah 73751;Baru, Kec. Dusun Sel., Kabupaten Barito Selatan;KALIMANTAN TENGAH;73751;Indonesia;;;;-17.819.261;1.148.065.264;https://maps.google.com/?cid=0x0:0xb57c9ea95c68204d;
perumahan;Komplek perumahan;Asrama TNI Buntok;Jl. Jelapat No.54, Hilir Sper, Kec. Dusun Sel., Kabupaten Barito Selatan, Kalimantan Tengah 73712;Hilir Sper, Kec. Dusun Sel., Kabupaten Barito Selatan;KALIMANTAN TENGAH;73712;Indonesia;;;;-17.338.378;1.148.310.364;https://maps.google.com/?cid=0x0:0x31174dac260b0e31;
perumahan;Komplek perumahan;Blok A;7R6J+4JM, Gg. Batuntu, Hilir Sper, Kec. Dusun Sel., Kabupaten Barito Selatan, Kalimantan Tengah 73751;Gg. Batuntu, Hilir Sper, Kec. Dusun Sel., Kabupaten Barito Selatan;KALIMANTAN TENGAH;73751;Indonesia;;;;-17.396.574;1.148.315.401;https://maps.google.com/?cid=0x0:0x46a63b2b44695eb3;
perumahan;Komplek perumahan;Rumah Kita;7RCR+3C5 Gang Kisman Inas, Hilir Sper, Kec. Dusun Sel., Kabupaten Barito Selatan, Kalimantan Tengah 73751;Hilir Sper, Kec. Dusun Sel., Kabupaten Barito Selatan;KALIMANTAN TENGAH;73751;Indonesia;;;;-17.298.511;1.148.411.162;https://maps.google.com/?cid=0x0:0x7db02d95f57c6d9b;
perumahan;Komplek perumahan;my home;7RGR+V58, Gg. Palapa 1, Hilir Sper, Kec. Dusun Sel., Kabupaten Barito Selatan, Kalimantan Tengah 73751;Gg. Palapa 1, Hilir Sper, Kec. Dusun Sel., Kabupaten Barito Selatan;KALIMANTAN TENGAH;73751;Indonesia;;;;-17.228.258;1.148.404.528;https://maps.google.com/?cid=0x0:0x78ef67a0cc80835;
perumahan;Perhimpunan Pengembang Perumahan;Muara Ripung;8R86+WQ6, Muara Ripung, Kec. Dusun Sel., Kabupaten Barito Selatan, Kalimantan Tengah 73751;Muara Ripung, Kec. Dusun Sel., Kabupaten Barito Selatan;KALIMANTAN TENGAH;73751;Indonesia;;;;-16.827.082;1.148.118.957;https://maps.google.com/?cid=0x0:0xc5612fd0d29d416f;
perumahan;perumahan;Kalimantan Tengah 73752;Kabupaten Barito Selatan, Kalimantan Tengah;Kabupaten Barito Selatan, Kalimantan Tengah;KALIMANTAN TENGAH;;Indonesia;;;;-14.856.175;1.148.567.482;https://maps.google.com/?cid=0x0:0x9e89593c92bb4954;
perumahan;Perhimpunan Pengembang Perumahan;Jeri Saputra;FVVG+927, Pendang, Kec. Dusun Utara, Kabupaten Barito Selatan, Kalimantan Tengah 73752;Pendang, Kec. Dusun Utara, Kabupaten Barito Selatan;KALIMANTAN TENGAH;73752;Indonesia;;;;-15.071.659;114.875.197;https://maps.google.com/?cid=0x0:0x8c32688dee82008;
perumahan;Komplek perumahan;Rumah Arumi;FVMC+QGV, Pendang, Kec. Dusun Utara, Kabupaten Barito Selatan, Kalimantan Tengah;Kabupaten Barito Selatan, Kalimantan Tengah;KALIMANTAN TENGAH;;Indonesia;;;;-15.171.128;1.148.709.729;https://maps.google.com/?cid=0x0:0xcee050b9d6be7f70;
perumahan;Kantor Pemerintah;Desa Reong;HWR7+966, Reong, Kec. Dusun Utara, Kabupaten Barito Selatan, Kalimantan Tengah;Kabupaten Barito Selatan, Kalimantan Tengah;KALIMANTAN TENGAH;;Indonesia;;;;-14.090.772;1.149.130.033;https://maps.google.com/?cid=0x0:0x6e6581f16612b932;
perumahan;Komplek perumahan;KRISTINUS NATALIUS;HV2P+C69, Marawan Lama, Kec. Dusun Utara, Kabupaten Barito Selatan, Kalimantan Tengah 73752;Marawan Lama, Kec. Dusun Utara, Kabupaten Barito Selatan;KALIMANTAN TENGAH;73752;Indonesia;;;;-14.488.714;1.148.854.494;https://maps.google.com/?cid=0x0:0x5914e13bb6521ae6;
perumahan;Komplek perumahan;Rumah unii;FVVF+FGG, Pendang, Kec. Dusun Utara, Kabupaten Barito Selatan, Kalimantan Tengah 73752;Pendang, Kec. Dusun Utara, Kabupaten Barito Selatan;KALIMANTAN TENGAH;73752;Indonesia;;;;-15.066.917;1.148.739.203;https://maps.google.com/?cid=0x0:0x238e30550c7e5b1d;
perumahan;Komplek perumahan;YUBEDI;HV2P+C69, Marawan Lama, Kec. Dusun Utara, Kabupaten Barito Selatan, Kalimantan Tengah 73752;Marawan Lama, Kec. Dusun Utara, Kabupaten Barito Selatan;KALIMANTAN TENGAH;73752;Indonesia;;;;-14.489.677;1.148.856.063;https://maps.google.com/?cid=0x0:0xff9b6b37a6f18491;
perumahan;Perhimpunan Pengembang Perumahan;Sutan Sinum;GW6G+QFP, Talekoi, Kec. Dusun Utara, Kabupaten Barito Selatan, Kalimantan Tengah 73752;Talekoi, Kec. Dusun Utara, Kabupaten Barito Selatan;KALIMANTAN TENGAH;73752;Indonesia;;;;-14.882.028;1.149.262.415;https://maps.google.com/?cid=0x0:0x72cd06c32df01c5;
perumahan;Perhimpunan Pengembang Perumahan;Tumpuk takam;CRQH+H2J, Tj. Jawa, Kec. Dusun Sel., Kabupaten Barito Selatan, Kalimantan Tengah 73752;Tj. Jawa, Kec. Dusun Sel., Kabupaten Barito Selatan;KALIMANTAN TENGAH;73752;Indonesia;;;;-15.610.312;1.148.275.241;https://maps.google.com/?cid=0x0:0x64a14072161eb2d5;
perumahan;Perhimpunan Pengembang Perumahan;Desa tanjung jawa;CRMM+84, Tj. Jawa, Kec. Dusun Sel., Kabupaten Barito Selatan, Kalimantan Tengah 73752;Tj. Jawa, Kec. Dusun Sel., Kabupaten Barito Selatan;KALIMANTAN TENGAH;73752;Indonesia;;;;-1.566.642;1.148.328.563;https://maps.google.com/?cid=0x0:0xa83a61c3ce78f9a9;
perumahan;Komplek perumahan;Rumah Ario;FVVF+FGG, Pendang, Kec. Dusun Utara, Kabupaten Barito Selatan, Kalimantan Tengah 73752;Pendang, Kec. Dusun Utara, Kabupaten Barito Selatan;KALIMANTAN TENGAH;73752;Indonesia;;;;-15.058.156;1.148.750.984;https://maps.google.com/?cid=0x0:0xba19cbc0eb692fe4;
perumahan;Komplek perumahan;Langit Biru;CRFJ+5MV, Tj. Jawa, Kec. Dusun Sel., Kabupaten Barito Selatan, Kalimantan Tengah 73752;Tj. Jawa, Kec. Dusun Sel., Kabupaten Barito Selatan;KALIMANTAN TENGAH;73752;Indonesia;;;;-15.770.068;1.148.316.842;https://maps.google.com/?cid=0x0:0x86c4ca006d659135;
perumahan;Pembangunan Perumahan;Hir;FVQC+847, Pendang, Kec. Dusun Utara, Kabupaten Barito Selatan, Kalimantan Tengah 73752;Pendang, Kec. Dusun Utara, Kabupaten Barito Selatan;KALIMANTAN TENGAH;73752;Indonesia;;;;-15.123.472;1.148.709.608;https://maps.google.com/?cid=0x0:0x597baf8974d490ab;
perumahan;Komplek perumahan;Witer’s Family;HWCC+WR, Gn. Rantau, Kec. Dusun Utara, Kabupaten Barito Selatan, Kalimantan Tengah 73752;Gn. Rantau, Kec. Dusun Utara, Kabupaten Barito Selatan;KALIMANTAN TENGAH;73752;Indonesia;;;;-14.240.812;1.149.114.655;https://maps.google.com/?cid=0x0:0xc8b72e861c5943d4;
perumahan;Komplek perumahan;Rizal Arahman;Jl. Pembangunan No.RT. 004, Pendang, North Dusun, South Barito Regency, Central Kalimantan 73752;Pendang, North Dusun, South Barito Regency;KALIMANTAN TENGAH;73752;Indonesia;;;;-14.951.455;1.147.973.983;https://maps.google.com/?cid=0x0:0xd9dd933a55180bf4;
perumahan;Komplek perumahan;Albert esport;GVWH+FP, Marawan Lama, Kec. Dusun Utara, Kabupaten Barito Selatan, Kalimantan Tengah 73752;Marawan Lama, Kec. Dusun Utara, Kabupaten Barito Selatan;KALIMANTAN TENGAH;73752;Indonesia;;;;-14.542.128;1.148.790.779;https://maps.google.com/?cid=0x0:0x1fb3a0cc98edff8f;
perumahan;Komplek perumahan;Mentari putri wulandari;HWC4+XQ2, Gn. Rantau, Kec. Dusun Utara, Kabupaten Barito Selatan, Kalimantan Tengah 73752;Gn. Rantau, Kec. Dusun Utara, Kabupaten Barito Selatan;KALIMANTAN TENGAH;73752;Indonesia;;;;-14.276.035;1.149.069.049;https://maps.google.com/?cid=0x0:0x91dab74fa1432f2;
perumahan;Komplek perumahan;TAMBATAN PERAHU DESA HINGAN;HX8F+7CW, Hingan, Kec. Dusun Utara, Kabupaten Barito Selatan, Kalimantan Tengah 73752;Hingan, Kec. Dusun Utara, Kabupaten Barito Selatan;KALIMANTAN TENGAH;73752;Indonesia;;;;-14.342.718;1.149.735.633;https://maps.google.com/?cid=0x0:0x6a3d1d4f3de3bde4;
perumahan;Komplek perumahan;Fia shinta;GQ3W+WXR, Pendang, Kec. Dusun Utara, Kabupaten Barito Selatan, Kalimantan Tengah 73752;Pendang, Kec. Dusun Utara, Kabupaten Barito Selatan;KALIMANTAN TENGAH;73752;Indonesia;;;;-14.951.455;1.147.973.983;https://maps.google.com/?cid=0x0:0x289fd63731ee5d4;
perumahan;Komplek perumahan;Hardi;HWR7+86W, Reong, Kec. Dusun Utara, Kabupaten Barito Selatan, Kalimantan Tengah;Kabupaten Barito Selatan, Kalimantan Tengah;KALIMANTAN TENGAH;;Indonesia;;;;-14.093.905;1.149.126.735;https://maps.google.com/?cid=0x0:0x2bb9fa5b325eceac;
perumahan;perumahan;Kalimantan Tengah 73753;Kec. Gn. Bintang Awai, Kabupaten Barito Selatan, Kalimantan Tengah;Kabupaten Barito Selatan, Kalimantan Tengah;KALIMANTAN TENGAH;;Indonesia;;;;-14.821.804;115.141.484;https://maps.google.com/?cid=0x0:0x51e61e4a4ea8d4dc;
perumahan;Perumahan;Simpang sayang patas ll kec.Gn.bintang awai kalteng;F5V6+56H, Jl. Negara Ampah - Buntok, Patas II, Kec. Gn. Bintang Awai, Kabupaten Barito Selatan, Kalimantan Tengah 73753;Jl. Negara Ampah - Buntok, Patas II, Kec. Gn. Bintang Awai, Kabupaten Barito Selatan;KALIMANTAN TENGAH;73753;Indonesia;;;;-15.069.884;1.151.605.975;https://maps.google.com/?cid=0x0:0x78c934812fd503c4;
perumahan;perumahan;Rumah Nobel Hawila;94R5+QM2, Gagutur, Kec. Gn. Bintang Awai, Kabupaten Barito Selatan, Kalimantan Tengah;Kabupaten Barito Selatan, Kalimantan Tengah;KALIMANTAN TENGAH;;Indonesia;;;;-16.081.235;1.151.091.262;https://maps.google.com/?cid=0x0:0x257ec30c319505bd;
perumahan;Komplek perumahan;Rumah betricia;F239+G7W, Kayumban, Kec. Gn. Bintang Awai, Kabupaten Barito Selatan, Kalimantan Tengah 73753;Kayumban, Kec. Gn. Bintang Awai, Kabupaten Barito Selatan;KALIMANTAN TENGAH;73753;Indonesia;;;;-15.461.414;1.150.182.139;https://maps.google.com/?cid=0x0:0x91180df70fbbf5a2;
perumahan;Perhimpunan Pengembang Perumahan;Bantai Bambure;F5V6+G7F, Jalan Negara Ampah, Buntok, Gunung Bintang Awai, South Barito Regency, Central Kalimantan 73753;Jalan Negara Ampah, Buntok, Gunung Bintang Awai, South Barito Regency;KALIMANTAN TENGAH;73753;Indonesia;;;;-15.061.904;1.151.606.765;https://maps.google.com/?cid=0x0:0xba11bb090407faf6;
perumahan;Komplek perumahan;Gavriel GYM Ugang Sayu kec.Gunung Bintang Awai;94FW+C33, Ugang Sayu, Kec. Gn. Bintang Awai, Kabupaten Barito Selatan, Kalimantan Tengah 73652;Ugang Sayu, Kec. Gn. Bintang Awai, Kabupaten Barito Selatan;KALIMANTAN TENGAH;73652;Indonesia;85849723135;;;-16.264.798;1.151.451.642;https://maps.google.com/?cid=0x0:0x9496c13496845dcf;
perumahan;Komplek perumahan;Rumah Sepen Kristian;C3F7+M44, Jl. PP. Dinan Tabak Kanilan, Ruhing Raya, Kec. Gn. Bintang Awai, Kabupaten Barito Selatan, Kalimantan Tengah 73753;Jl. PP. Dinan Tabak Kanilan, Ruhing Raya, Kec. Gn. Bintang Awai, Kabupaten Barito Selatan;KALIMANTAN TENGAH;73753;Indonesia;;;;-15.758.686;1.150.628.346;https://maps.google.com/?cid=0x0:0x6f555a90cb8f3d87;
perumahan;perumahan;Vila Matuha;F538+R5F, Patas I, Kec. Gn. Bintang Awai, Kabupaten Barito Selatan, Kalimantan Tengah 73753;Patas I, Kec. Gn. Bintang Awai, Kabupaten Barito Selatan;KALIMANTAN TENGAH;73753;Indonesia;;;;-15.454.314;1.151.654.149;https://maps.google.com/?cid=0x0:0xdd77a8520d7c2991;
perumahan;Komplek perumahan;Rumah Mistarudin;95CF+WJM, Palu Rejo, Kec. Gn. Bintang Awai, Kabupaten Barito Selatan, Kalimantan Tengah;Kabupaten Barito Selatan, Kalimantan Tengah;KALIMANTAN TENGAH;;Indonesia;;;;-162.766;1.151.740.477;https://maps.google.com/?cid=0x0:0xc22881f283531dbe;
perumahan;Pembangunan Perumahan;Bintang Ara;H7C5+387, Malungai Raya, Kec. Gn. Bintang Awai, Kabupaten Barito Selatan, Kalimantan Tengah 73753;Malungai Raya, Kec. Gn. Bintang Awai, Kabupaten Barito Selatan;KALIMANTAN TENGAH;73753;Indonesia;;;;-14.298.342;1.152.583.006;https://maps.google.com/?cid=0x0:0xeb22e9a51435cc23;
perumahan;Komplek perumahan;Rumah Rendi;39, Patas I, Kec. Gn. Bintang Awai, Kabupaten Barito Selatan, Kalimantan Tengah 73753;Patas I, Kec. Gn. Bintang Awai, Kabupaten Barito Selatan;KALIMANTAN TENGAH;73753;Indonesia;;;;-15.257.136;1.151.770.586;https://maps.google.com/?cid=0x0:0x3d4e945958012733;
perumahan;Pembangunan Perumahan;Zzz;F387+MFR, Jl. PP. Dinan Tabak Kanilan, Ruhing Raya, Kec. Gn. Bintang Awai, Kabupaten Barito Selatan, Kalimantan Tengah 73753;Jl. PP. Dinan Tabak Kanilan, Ruhing Raya, Kec. Gn. Bintang Awai, Kabupaten Barito Selatan;KALIMANTAN TENGAH;73753;Indonesia;;;;-15.703.186;1.150.625.812;https://maps.google.com/?cid=0x0:0x44c551cf422d4cc2;
perumahan;Komplek perumahan;???;G537+7FR, Patas II, Kec. Gn. Bintang Awai, Kabupaten Barito Selatan, Kalimantan Tengah;Kabupaten Barito Selatan, Kalimantan Tengah;KALIMANTAN TENGAH;;Indonesia;;;;-14.967.747;1.151.636.414;https://maps.google.com/?cid=0x0:0xc5bdbd370837f6f;
perumahan;Pembangunan Perumahan;aan;F39G+CGR, Muka H., Kec. Gn. Bintang Awai, Kabupaten Barito Selatan, Kalimantan Tengah 73753;Muka H., Kec. Gn. Bintang Awai, Kabupaten Barito Selatan;KALIMANTAN TENGAH;73753;Indonesia;;;;-15.313.753;1.150.762.536;https://maps.google.com/?cid=0x0:0x144e397d96e87468;
perumahan;Komplek perumahan;Rumah Husnul Fadly;F538+7G2, Patas I, Kec. Gn. Bintang Awai, Kabupaten Barito Selatan, Kalimantan Tengah 73753;Patas I, Kec. Gn. Bintang Awai, Kabupaten Barito Selatan;KALIMANTAN TENGAH;73753;Indonesia;;;;-15.470.778;1.151.660.356;https://maps.google.com/?cid=0x0:0x1fc2f544188cc341;
perumahan;Perhimpunan Pengembang Perumahan;Rully;C3XM+89, Muka H., Kec. Gn. Bintang Awai, Kabupaten Barito Selatan, Kalimantan Tengah;Kabupaten Barito Selatan, Kalimantan Tengah;KALIMANTAN TENGAH;;Indonesia;;;;-15.517.191;115.083.493;https://maps.google.com/?cid=0x0:0x87254fc79fe4ee52;
perumahan;Komplek perumahan;HOUSING FATH_YUSUF;F538+368, Patas I, Kec. Gn. Bintang Awai, Kabupaten Barito Selatan, Kalimantan Tengah 73753;Patas I, Kec. Gn. Bintang Awai, Kabupaten Barito Selatan;KALIMANTAN TENGAH;73753;Indonesia;;;;-15.473.469;115.165.577;https://maps.google.com/?cid=0x0:0x1c2a98ba9fbfbbe8;
perumahan;Pembangunan Perumahan;Setianus;95FH+J6X, Wayun, Kec. Gn. Bintang Awai, Kabupaten Barito Selatan, Kalimantan Tengah 73652;Wayun, Kec. Gn. Bintang Awai, Kabupaten Barito Selatan;KALIMANTAN TENGAH;73652;Indonesia;;;;-16.258.944;1.151.781.015;https://maps.google.com/?cid=0x0:0x53758fcfc6f99037;
perumahan;Komplek perumahan;Home Dheo;C3F7+G5V, Jl. PP. Dinan Tabak Kanilan, Ruhing Raya, Kec. Gn. Bintang Awai, Kabupaten Barito Selatan, Kalimantan Tengah 73753;Jl. PP. Dinan Tabak Kanilan, Ruhing Raya, Kec. Gn. Bintang Awai, Kabupaten Barito Selatan;KALIMANTAN TENGAH;73753;Indonesia;;;;-15.771.945;115.062.724;https://maps.google.com/?cid=0x0:0xbf3367e1428f077a;
perumahan;Komplek perumahan;Ati;F537+RX4, Patas I, Kec. Gn. Bintang Awai, Kabupaten Barito Selatan, Kalimantan Tengah 73753;Patas I, Kec. Gn. Bintang Awai, Kabupaten Barito Selatan;KALIMANTAN TENGAH;73753;Indonesia;;;;-15.454.848;1.151.649.638;https://maps.google.com/?cid=0x0:0x952046b3f7eee7e;
perumahan;Komplek perumahan;Susanto;C5Q7+WH, Muara Singan, Kec. Gn. Bintang Awai, Kabupaten Barito Selatan, Kalimantan Tengah;Kabupaten Barito Selatan, Kalimantan Tengah;KALIMANTAN TENGAH;;Indonesia;;;;-15.601.605;1.151.639.898;https://maps.google.com/?cid=0x0:0xd3a9f0357a720d82;
perumahan;Komplek perumahan;Rumah Yasrin;95JG+2XJ, RT.13/RW.05, Palu Rejo, Kec. Gn. Bintang Awai, Kabupaten Barito Selatan, Kalimantan Tengah;Kabupaten Barito Selatan, Kalimantan Tengah;KALIMANTAN TENGAH;;Indonesia;;;;-16.199.244;1.151.773.977;https://maps.google.com/?cid=0x0:0xf01c744e3398c4e;
perumahan;Pembangunan Perumahan;Bintang ara sebarang sungai;G84P+C4, Muara Singan, Kec. Gn. Bintang Awai, Kabupaten Barito Selatan, Kalimantan Tengah 73753;Muara Singan, Kec. Gn. Bintang Awai, Kabupaten Barito Selatan;KALIMANTAN TENGAH;73753;Indonesia;;;;-14.939.596;1.153.352.669;https://maps.google.com/?cid=0x0:0x7c8321e1f877c4c0;
perumahan;perumahan;Kec. Gn. Bintang Awai;Kabupaten Barito Selatan, Kalimantan Tengah;Kabupaten Barito Selatan, Kalimantan Tengah;KALIMANTAN TENGAH;;Indonesia;;;;-14.810.273;1.152.363.408;https://maps.google.com/?cid=0x0:0x55d1d750ea1055c;
perumahan;Pembangunan Perumahan;Abah Idu;G5J4+GCJ, Jl. Negara Ampah-Muarateweh, Sei Paken, Kec. Gn. Bintang Awai, Kabupaten Barito Selatan, Kalimantan Tengah 73753;Jl. Negara Ampah-Muarateweh, Sei Paken, Kec. Gn. Bintang Awai, Kabupaten Barito Selatan;KALIMANTAN TENGAH;73753;Indonesia;;;;-14.678.794;1.151.555.589;https://maps.google.com/?cid=0x0:0xa89dddf08326b6d0;
perumahan;Komplek perumahan;Haderson House;Jln. Sarunai No.25, RT.2/RW.1, Tabak Kanilan, Gunung Bintang Awai, South Barito Regency, Central Kalimantan 73753;RT.2/RW.1, Tabak Kanilan, Gunung Bintang Awai, South Barito Regency;KALIMANTAN TENGAH;73753;Indonesia;;;;-15.526.621;1.150.483.976;https://maps.google.com/?cid=0x0:0x55b8b4d2ba75f775;
perumahan;Perhimpunan Pengembang Perumahan;Rohidi;95FJ+39H, RT.08/RW.03, Palu Rejo, Kec. Gn. Bintang Awai, Kabupaten Barito Selatan, Kalimantan Tengah 73753;RT.08/RW.03, Palu Rejo, Kec. Gn. Bintang Awai, Kabupaten Barito Selatan;KALIMANTAN TENGAH;73753;Indonesia;;;;-16.273.097;1.151.809.839;https://maps.google.com/?cid=0x0:0xa2e3f801028d2b71;
perumahan;Perhimpunan Pengembang Perumahan;Patas 1;F547+4XJ, Jl. Negara Ampah-Muarateweh, Patas I, Kec. Gn. Bintang Awai, Kabupaten Barito Selatan, Kalimantan Tengah 73753;Jl. Negara Ampah-Muarateweh, Patas I, Kec. Gn. Bintang Awai, Kabupaten Barito Selatan;KALIMANTAN TENGAH;73753;Indonesia;;;;-15.446.354;115.165.288;https://maps.google.com/?cid=0x0:0x21d804a302a15524;
perumahan;Komplek perumahan;Andeng Budiman;C3Q5+R5R, Tabak Kanilan, Kec. Gn. Bintang Awai, Kabupaten Barito Selatan, Kalimantan Tengah 73753;Tabak Kanilan, Kec. Gn. Bintang Awai, Kabupaten Barito Selatan;KALIMANTAN TENGAH;73753;Indonesia;;;;-15.603.827;1.150.578.923;https://maps.google.com/?cid=0x0:0x89ffc5a5b7987358;
perumahan;perumahan;Kalimantan Tengah 73763;Kec. Jenamas, Kabupaten Barito Selatan, Kalimantan Tengah;Kabupaten Barito Selatan, Kalimantan Tengah;KALIMANTAN TENGAH;;Indonesia;;;;-234.059;1.148.567.482;https://maps.google.com/?cid=0x0:0x37fa6b040b7959f6;
perumahan;Komplek perumahan;Rumah jenamas;HW37+43W, Rantau Kujang, Kec. Jenamas, Kabupaten Barito Selatan, Kalimantan Tengah 73763;Rantau Kujang, Kec. Jenamas, Kabupaten Barito Selatan;KALIMANTAN TENGAH;73763;Indonesia;;;;-24.471.429;1.149.126.407;https://maps.google.com/?cid=0x0:0x124ae448c163bd7f;
perumahan;Masjid;Jenamas;MV9G+JV2, Rangga Ilung, Kec. Jenamas, Kabupaten Barito Selatan, Kalimantan Tengah;Kabupaten Barito Selatan, Kalimantan Tengah;KALIMANTAN TENGAH;;Indonesia;;;;-23.309.862;1.148.771.289;https://maps.google.com/?cid=0x0:0xd5d79ba9fb4c4132;
perumahan;Pembangunan Perumahan;Satria;GVWM+JMM, Tampulang, Kec. Jenamas, Kabupaten Barito Selatan, Kalimantan Tengah;Kabupaten Barito Selatan, Kalimantan Tengah;KALIMANTAN TENGAH;;Indonesia;;;;-24.539.988;1.148.852.491;https://maps.google.com/?cid=0x0:0x6b83a950df25833;
perumahan;Pembangunan Perumahan;ISTANA KEMBAR;GWX9+8C5, Rantau Kujang, Kec. Jenamas, Kabupaten Barito Selatan, Kalimantan Tengah 71453;Rantau Kujang, Kec. Jenamas, Kabupaten Barito Selatan;KALIMANTAN TENGAH;71453;Indonesia;;;;-24.527.404;1.149.193.011;https://maps.google.com/?cid=0x0:0x480df0f962d48d49;
perumahan;Pembangunan Perumahan;Ranggailung;MV7H+2HF, Rangga Ilung, Kec. Jenamas, Kabupaten Barito Selatan, Kalimantan Tengah 73763;Rangga Ilung, Kec. Jenamas, Kabupaten Barito Selatan;KALIMANTAN TENGAH;73763;Indonesia;;;;-23.374.365;1.148.789.369;https://maps.google.com/?cid=0x0:0xe401499caffb67ac;
perumahan;Pembangunan Perumahan;Rumah dia napisa;JW8Q+9WW, Rantau Kujang, Kec. Jenamas, Kabupaten Barito Selatan, Kalimantan Tengah 73763;Rantau Kujang, Kec. Jenamas, Kabupaten Barito Selatan;KALIMANTAN TENGAH;73763;Indonesia;;;;-23.840.123;114.939.821;https://maps.google.com/?cid=0x0:0xfd924113f045265e;
perumahan;Pembangunan Perumahan;Rumah H.karta;MV29+7C5, Rangga Ilung, Kec. Jenamas, Kabupaten Barito Selatan, Kalimantan Tengah 73763;Rangga Ilung, Kec. Jenamas, Kabupaten Barito Selatan;KALIMANTAN TENGAH;73763;Indonesia;;;;-23.493.659;1.148.686.169;https://maps.google.com/?cid=0x0:0x78b072276b0bab63;
perumahan;perumahan;A. Ridha;MV9H+44R, Rangga Ilung, Kec. Jenamas, Kabupaten Barito Selatan, Kalimantan Tengah 73763;Rangga Ilung, Kec. Jenamas, Kabupaten Barito Selatan;KALIMANTAN TENGAH;73763;Indonesia;;;;-23.321.463;11.487.781;https://maps.google.com/?cid=0x0:0x67408a0de22f890e;
perumahan;Perhimpunan Pengembang Perumahan;Pa'di / Ma'di;MV6H+FRW, Rangga Ilung, Kec. Jenamas, Kabupaten Barito Selatan, Kalimantan Tengah 73763;Rangga Ilung, Kec. Jenamas, Kabupaten Barito Selatan;KALIMANTAN TENGAH;73763;Indonesia;;;;-23.387.723;1.148.795.821;https://maps.google.com/?cid=0x0:0xfcffb8239c77960d;
perumahan;Pembangunan Perumahan;Rumah.rama;HW26+59F, Jl. Umu Rantau Kujang, Rantau Kujang, Kec. Jenamas, Kabupaten Barito Selatan, Kalimantan Tengah 73763;Jl. Umu Rantau Kujang, Rantau Kujang, Kec. Jenamas, Kabupaten Barito Selatan;KALIMANTAN TENGAH;73763;Indonesia;;;;-24.495.704;1.149.109.187;https://maps.google.com/?cid=0x0:0x841503919c8f42ea;
perumahan;Pembangunan Perumahan;Ugi;GVWM+C64, Tampulang, Kec. Jenamas, Kabupaten Barito Selatan, Kalimantan Tengah;Kabupaten Barito Selatan, Kalimantan Tengah;KALIMANTAN TENGAH;;Indonesia;;;;-24.539.769;1.148.830.676;https://maps.google.com/?cid=0x0:0x2a01b2417208fb74;
perumahan;Komplek perumahan;Rumah Ma Jali;Jl pemuda No.590, RT.14/RW.05, Rangga Ilung, Kec. Jenamas, Kabupaten Barito Selatan, Kalimantan Tengah 73763;RT.14/RW.05, Rangga Ilung, Kec. Jenamas, Kabupaten Barito Selatan;KALIMANTAN TENGAH;73763;Indonesia;;;;-23.266.874;1.148.762.721;https://maps.google.com/?cid=0x0:0x5135119b782bdc41;
perumahan;Komplek perumahan;Rangga ilung;MV29+7C5, Rangga Ilung, Kec. Jenamas, Kabupaten Barito Selatan, Kalimantan Tengah 73763;Rangga Ilung, Kec. Jenamas, Kabupaten Barito Selatan;KALIMANTAN TENGAH;73763;Indonesia;;;;-23.493.659;1.148.686.169;https://maps.google.com/?cid=0x0:0x76e386e45602d4d4;
perumahan;Komplek perumahan;Mess Santanu Adaro Kelanis;PV2C+XP, Rangga Ilung, Kec. Jenamas, Kabupaten Barito Selatan, Kalimantan Tengah;Kabupaten Barito Selatan, Kalimantan Tengah;KALIMANTAN TENGAH;;Indonesia;;;;-22.975.664;1.148.718.744;https://maps.google.com/?cid=0x0:0xeb531eaeb39034b6;
perumahan;Pembangunan Perumahan;Akbar;MV29+7C5, Rangga Ilung, Kec. Jenamas, Kabupaten Barito Selatan, Kalimantan Tengah 73763;Rangga Ilung, Kec. Jenamas, Kabupaten Barito Selatan;KALIMANTAN TENGAH;73763;Indonesia;;;;-23.493.659;1.148.686.169;https://maps.google.com/?cid=0x0:0x97ad6dbc704aae69;
perumahan;Komplek perumahan;Rantau kujng;JW8Q+9WW, Jalan darul aman, RT.06/RW.02, Rantau Kujang, Kec. Jenamas, Kabupaten Barito Selatan, Kalimantan Tengah;Kabupaten Barito Selatan, Kalimantan Tengah;KALIMANTAN TENGAH;;Indonesia;;;;-23.840.123;114.939.821;https://maps.google.com/?cid=0x0:0x384243ac211061c5;
perumahan;Pembangunan Perumahan;muhammad syifa;MV6H+VP4, Rangga Ilung, Kec. Jenamas, Kabupaten Barito Selatan, Kalimantan Tengah 73763;Rangga Ilung, Kec. Jenamas, Kabupaten Barito Selatan;KALIMANTAN TENGAH;73763;Indonesia;;;;-23.378.597;1.148.793.162;https://maps.google.com/?cid=0x0:0x12d904f8327d28cb;
perumahan;Komplek perumahan;Mess Wisnu ( Mess Adaro logistics );PV3C+779, Rangga Ilung, Kec. Jenamas, Kabupaten Barito Selatan, Kalimantan Tengah 73763;Rangga Ilung, Kec. Jenamas, Kabupaten Barito Selatan;KALIMANTAN TENGAH;73763;Indonesia;;;;-22.966.863;1.148.701.779;https://maps.google.com/?cid=0x0:0x666e7fe18a100dd9;
perumahan;Kantor Pemerintah;Desa Rantau Bahuang;GVCM+VCF, Rantau Bahuang, Kec. Jenamas, Kabupaten Barito Selatan, Kalimantan Tengah;Kabupaten Barito Selatan, Kalimantan Tengah;KALIMANTAN TENGAH;;Indonesia;;;;-24.778.202;1.148.835.354;https://maps.google.com/?cid=0x0:0x5d2f6ff87720e0f1;
perumahan;Pembangunan Perumahan;Rumah Abah Abie;QV95+29J, jln.Pukesmas Lama, RT.07/RW.03, Mengkatip, Kec. Dusun Hilir, Kabupaten Barito Selatan, Kalimantan Tengah;Kabupaten Barito Selatan, Kalimantan Tengah;KALIMANTAN TENGAH;;Indonesia;;;;-223.261;1.148.583.717;https://maps.google.com/?cid=0x0:0x1197d2b25d866d8f;
perumahan;perumahan;Kalimantan Tengah 73761;Kabupaten Barito Selatan, Kalimantan Tengah;Kabupaten Barito Selatan, Kalimantan Tengah;KALIMANTAN TENGAH;;Indonesia;;;;-20.019.069;1.147.380.385;https://maps.google.com/?cid=0x0:0xf4482425825ffff8;
perumahan;Komplek perumahan;RUMAH LAILI;XV6V+99G, Jl. Barito Raya, RT.23/RW.08, Bangkuang, Kec. Karau Kuala, Kabupaten Barito Selatan, Kalimantan Tengah 73617;Jl. Barito Raya, RT.23/RW.08, Bangkuang, Kec. Karau Kuala, Kabupaten Barito Selatan;KALIMANTAN TENGAH;73617;Indonesia;;;;-20.390.601;1.148.934.503;https://maps.google.com/?cid=0x0:0x2727d5996ec070df;
perumahan;Pembangunan Perumahan;Hairul;XVVV+6HX, Tlk. Betung, Kec. Karau Kuala, Kabupaten Barito Selatan, Kalimantan Tengah 73617;Tlk. Betung, Kec. Karau Kuala, Kabupaten Barito Selatan;KALIMANTAN TENGAH;73617;Indonesia;;;;-2.006.475;114.894.277;https://maps.google.com/?cid=0x0:0xe2a6e5c4fa42c29e;
perumahan;Komplek perumahan;Rumah David;4RWV+R5, Talio, Kec. Karau Kuala, Kabupaten Barito Selatan, Kalimantan Tengah;Kabupaten Barito Selatan, Kalimantan Tengah;KALIMANTAN TENGAH;;Indonesia;;;;-18.536.298;1.148.437.444;https://maps.google.com/?cid=0x0:0xf30ad8b68dc46879;
perumahan;Kantor Pemerintah;Desa Talio;4Q54+X85, Talio, Kec. Karau Kuala, Kabupaten Barito Selatan, Kalimantan Tengah;Kabupaten Barito Selatan, Kalimantan Tengah;KALIMANTAN TENGAH;;Indonesia;;;;-18.901.106;1.147.558.475;https://maps.google.com/?cid=0x0:0x9f64055ce5e85998;
perumahan;Perhimpunan Pengembang Perumahan;Desa Babai;2RWP+G95, Babai, Kec. Karau Kuala, Kabupaten Barito Selatan, Kalimantan Tengah 73617;Babai, Kec. Karau Kuala, Kabupaten Barito Selatan;KALIMANTAN TENGAH;73617;Indonesia;;;;-1.953.727;114.835.999;https://maps.google.com/?cid=0x0:0x7543cb55119436f2;
perumahan;Komplek perumahan;Rumah azzam;XVRV+XH, Tlk. Betung, Kec. Karau Kuala, Kabupaten Barito Selatan, Kalimantan Tengah;Kabupaten Barito Selatan, Kalimantan Tengah;KALIMANTAN TENGAH;;Indonesia;;;;-20.075.139;1.148.938.933;https://maps.google.com/?cid=0x0:0xc5c9a27c400b4232;
perumahan;Komplek perumahan;K'A Rumah Imo Lindra;4RWV+R5, Talio, Kec. Karau Kuala, Kabupaten Barito Selatan, Kalimantan Tengah;Kabupaten Barito Selatan, Kalimantan Tengah;KALIMANTAN TENGAH;;Indonesia;;;;-18.536.177;1.148.437.838;https://maps.google.com/?cid=0x0:0x842e34edb8d4172c;
perumahan;Perhimpunan Pengembang Perumahan;Rumah seberang salat baru;WVXR+2GP, Jl. Paju Epat, Bangkuang, Kec. Karau Kuala, Kabupaten Barito Selatan, Kalimantan Tengah 73617;Jl. Paju Epat, Bangkuang, Kec. Karau Kuala, Kabupaten Barito Selatan;KALIMANTAN TENGAH;73617;Indonesia;;;;-20.524.037;114.891.321;https://maps.google.com/?cid=0x0:0x1e8da3b7be23f8a2;
perumahan;Perhimpunan Pengembang Perumahan;Danau lais;3QVJ+49, Babai, Kec. Karau Kuala, Kabupaten Barito Selatan, Kalimantan Tengah;Kabupaten Barito Selatan, Kalimantan Tengah;KALIMANTAN TENGAH;;Indonesia;;;;-19.071.392;1.147.809.009;https://maps.google.com/?cid=0x0:0xa8eb352fd08f032a;
perumahan;Perhimpunan Pengembang Perumahan;Ghafir;2RWP+G95, Babai, Kec. Karau Kuala, Kabupaten Barito Selatan, Kalimantan Tengah;Kabupaten Barito Selatan, Kalimantan Tengah;KALIMANTAN TENGAH;;Indonesia;;;;-1.953.727;114.835.999;https://maps.google.com/?cid=0x0:0x348e19b61a42ddd2;
perumahan;Komplek perumahan;Hatue Bakumpai;XV8X+PQR, Bangkuang, Kec. Karau Kuala, Kabupaten Barito Selatan, Kalimantan Tengah 73617;Bangkuang, Kec. Karau Kuala, Kabupaten Barito Selatan;KALIMANTAN TENGAH;73617;Indonesia;;;;-20.331.463;1.148.988.454;https://maps.google.com/?cid=0x0:0x7fc5a04dfbf946a2;
perumahan;Komplek perumahan;Rumah Alya Alfiyani;XW83+C9Q, RT.12/RW.04, Bangkuang, Kec. Karau Kuala, Kabupaten Barito Selatan, Kalimantan Tengah 73617;RT.12/RW.04, Bangkuang, Kec. Karau Kuala, Kabupaten Barito Selatan;KALIMANTAN TENGAH;73617;Indonesia;;;;-2.034.819;114.902.975;https://maps.google.com/?cid=0x0:0x50ac3721dee00d;
perumahan;Komplek perumahan;Rumah Loyyam;XVQV+Q46, Tlk. Betung, Kec. Karau Kuala, Kabupaten Barito Selatan, Kalimantan Tengah 73617;Tlk. Betung, Kec. Karau Kuala, Kabupaten Barito Selatan;KALIMANTAN TENGAH;73617;Indonesia;;;;-20.098.853;1.148.929.182;https://maps.google.com/?cid=0x0:0xb70565c9c44e9c4c;
perumahan;Pembangunan Perumahan;Andri;XVMQ+XXG, Tlk. Betung, Kec. Karau Kuala, Kabupaten Barito Selatan, Kalimantan Tengah 73617;Tlk. Betung, Kec. Karau Kuala, Kabupaten Barito Selatan;KALIMANTAN TENGAH;73617;Indonesia;;;;-20.150.625;1.148.899.531;https://maps.google.com/?cid=0x0:0x2384bab910b20bb1;
perumahan;Komplek perumahan;Rumah Puza;XV6R+HVQ, Jl. Paju Epat, RT.22/RW.08, Bangkuang, Kab, Kabupaten Barito Selatan, Kalimantan Tengah 73617;Jl. Paju Epat, RT.22/RW.08, Bangkuang, Kab, Kabupaten Barito Selatan;KALIMANTAN TENGAH;73617;Indonesia;;;;-20.385.465;1.148.922.277;https://maps.google.com/?cid=0x0:0xda44781871217782;
perumahan;Komplek perumahan;Rumah ahmad nadif;4RF5+JPC, Talio, Kec. Karau Kuala, Kabupaten Barito Selatan, Kalimantan Tengah;Kabupaten Barito Selatan, Kalimantan Tengah;KALIMANTAN TENGAH;;Indonesia;;;;-1.875.943;1.148.092.691;https://maps.google.com/?cid=0x0:0x904c8177e0631347;
perumahan;Komplek perumahan;Rabiyatul A.;XV5W+4HR, Jl. Paju Epat, Bangkuang, Kec. Karau Kuala, Kabupaten Barito Selatan, Kalimantan Tengah 73617;Jl. Paju Epat, Bangkuang, Kec. Karau Kuala, Kabupaten Barito Selatan;KALIMANTAN TENGAH;73617;Indonesia;;;;-20.421.255;1.148.963.878;https://maps.google.com/?cid=0x0:0x375830f1552486ea;
perumahan;Komplek perumahan;Palu rejo;4RF5+JPC, Talio, Kec. Karau Kuala, Kabupaten Barito Selatan, Kalimantan Tengah;Kabupaten Barito Selatan, Kalimantan Tengah;KALIMANTAN TENGAH;;Indonesia;;;;-1.875.943;1.148.092.691;https://maps.google.com/?cid=0x0:0xc97312c1bf59393f;
perumahan;Komplek perumahan;Rumah Arman;XVQV+Q46, Tlk. Betung, Kec. Karau Kuala, Kabupaten Barito Selatan, Kalimantan Tengah 73617;Tlk. Betung, Kec. Karau Kuala, Kabupaten Barito Selatan;KALIMANTAN TENGAH;73617;Indonesia;;;;-20.099;114.892.956;https://maps.google.com/?cid=0x0:0x69a880e6fc5a3f98;
perumahan;Komplek perumahan;Rizhan Azzahra;XV8V+5R2, Jalan Barito Raya, RT.021/RW.007, Bangkuang, Kec. Karau Kuala, Kabupaten Barito Selatan, Kalimantan Tengah 73617;Jalan Barito Raya, RT.021/RW.007, Bangkuang, Kec. Karau Kuala, Kabupaten Barito Selatan;KALIMANTAN TENGAH;73617;Indonesia;;;;-20.346.249;1.148.945.166;https://maps.google.com/?cid=0x0:0x68da4dc81cb0c1e5;
perumahan;Komplek perumahan;Tempat kumpul anak BBH;2Q5V+GVF, Batampang, Kec. Dusun Hilir, Kabupaten Barito Selatan, Kalimantan Tengah 73761;Batampang, Kec. Dusun Hilir, Kabupaten Barito Selatan;KALIMANTAN TENGAH;73761;Indonesia;;;;-19.910.776;1.147.933.665;https://maps.google.com/?cid=0x0:0x94049396a58be736;
perumahan;Kantor Pemerintah;Desa Teluk Sampudau;5Q9F+HCV, Tlk. Sampudau, Kec. Karau Kuala, Kabupaten Barito Selatan, Kalimantan Tengah;Kabupaten Barito Selatan, Kalimantan Tengah;KALIMANTAN TENGAH;;Indonesia;;;;-18.310.003;1.147.735.426;https://maps.google.com/?cid=0x0:0xd2059c5f6103786;
;;;;;;;;;;;;;;
;;;;;;;;;;;;;;
;;;;;;;;;;;;;;
;;;;;;;;;;;;;;
;;;;;;;;;;;;;;
;;;;;;;;;;;;;;
;;;;;;;;;;;;;;
;;;;;;;;;;;;;;
;;;;;;;;;;;;;;
;;;;;;;;;;;;;;
;;;;;;;;;;;;;;
;;;;;;;;;;;;;;
;;;;;;;;;;;;;;
;;;;;;;;;;;;;;
;;;;;;;;;;;;;;
;;;;;;;;;;;;;;
;;;;;;;;;;;;;;
;;;;;;;;;;;;;;
;;;;;;;;;;;;;;
;;;;;;;;;;;;;;
;;;;;;;;;;;;;;
;;;;;;;;;;;;;;
;;;;;;;;;;;;;;
;;;;;;;;;;;;;;
;;;;;;;;;;;;;;
;;;;;;;;;;;;;;
;;;;;;;;;;;;;;
;;;;;;;;;;;;;;
;;;;;;;;;;;;;;
;;;;;;;;;;;;;;
;;;;;;;;;;;;;;
;;;;;;;;;;;;;;
;;;;;;;;;;;;;;
;;;;;;;;;;;;;;
;;;;;;;;;;;;;;
;;;;;;;;;;;;;;
;;;;;;;;;;;;;;
;;;;;;;;;;;;;;
;;;;;;;;;;;;;;
;;;;;;;;;;;;;;
;;;;;;;;;;;;;;
;;;;;;;;;;;;;;
;;;;;;;;;;;;;;
;;;;;;;;;;;;;;
;;;;;;;;;;;;;;
;;;;;;;;;;;;;;
;;;;;;;;;;;;;;
;;;;;;;;;;;;;;
;;;;;;;;;;;;;;
;;;;;;;;;;;;;;
;;;;;;;;;;;;;;
;;;;;;;;;;;;;;
;;;;;;;;;;;;;;
;;;;;;;;;;;;;;
;;;;;;;;;;;;;;
;;;;;;;;;;;;;;
;;;;;;;;;;;;;;
;;;;;;;;;;;;;;
;;;;;;;;;;;;;;
;;;;;;;;;;;;;;
;;;;;;;;;;;;;;
;;;;;;;;;;;;;;
;;;;;;;;;;;;;;
;;;;;;;;;;;;;;
;;;;;;;;;;;;;;
;;;;;;;;;;;;;;
;;;;;;;;;;;;;;
;;;;;;;;;;;;;;
;;;;;;;;;;;;;;
;;;;;;;;;;;;;;
;;;;;;;;;;;;;;
;;;;;;;;;;;;;;
;;;;;;;;;;;;;;
;;;;;;;;;;;;;;
;;;;;;;;;;;;;;
;;;;;;;;;;;;;;
;;;;;;;;;;;;;;
;;;;;;;;;;;;;;
;;;;;;;;;;;;;;
;;;;;;;;;;;;;;
;;;;;;;;;;;;;;
;;;;;;;;;;;;;;
;;;;;;;;;;;;;;
;;;;;;;;;;;;;;
;;;;;;;;;;;;;;
;;;;;;;;;;;;;;
;;;;;;;;;;;;;;
;;;;;;;;;;;;;;
;;;;;;;;;;;;;;
;;;;;;;;;;;;;;
;;;;;;;;;;;;;;
;;;;;;;;;;;;;;
;;;;;;;;;;;;;;
