Category,Real Category,Business Name,Address,City,State,Postal Code,Country,Phone,Email,Website,Latitude,Longitude,Map Link,Details Link
hotel,hotel,Kec. Katikutana,"Kabupaten Sumba Tengah, Nusa Tenggara Tim.","Kabupaten Sumba Tengah, Nusa Tenggara Tim.",NUSA TENGGARA TIMUR,,Indonesia,,,,-9.5892351,119.5747285,https://maps.google.com/?cid=0x0:0xc4cfac4db0437390,
hotel,hotel,Rua Beach Resort Sumba,"Rua, Kec. Wanokaka, Kabupaten Sumba Barat, Nusa Tenggara Tim.","Kabupaten Sumba Barat, Nusa Tenggara Tim.",NUSA TENGGARA TIMUR,,Indonesia,8113865586.0,,,-9.7639457,119.4146995,https://maps.google.com/?cid=0x0:0xcf6117e192385cfe,
hotel,hotel,Ketanu Bamboo lodge sumba - Hôtel sumba Indonésie,"Jl pahola, wanokaka, west, Kec. Kota Waikabubak, Kabupaten Sumba Barat, Nusa Tenggara Tim. 87272","wanokaka, west, Kec. Kota Waikabubak, Kabupaten Sumba Barat",NUSA TENGGARA TIMUR,87272.0,Indonesia,82340722775.0,,,-9.7542024,119.4188266,https://maps.google.com/?cid=0x0:0xb7869eb34516abd6,
hotel,hotel,Hotel Bintang Waibakul,"CH4J+JFW, Wai Rasa, Kec. Umbu Ratu Nggay Bar., Kabupaten Sumba Tengah, Nusa Tenggara Tim.","Kabupaten Sumba Tengah, Nusa Tenggara Tim.",NUSA TENGGARA TIMUR,,Indonesia,81312246201.0,,,-9.593558,119.5814717,https://maps.google.com/?cid=0x0:0x51358ae2a77802c,
hotel,hotel,LaCasa DeLuna Guest House,"9C65+5XF, Maliti, Kec. Kota Waikabubak, Kabupaten Sumba Barat, Nusa Tenggara Tim.","Kabupaten Sumba Barat, Nusa Tenggara Tim.",NUSA TENGGARA TIMUR,,Indonesia,81338719299.0,,,-9.6395419,119.4099796,https://maps.google.com/?cid=0x0:0x73634316f7cb09fe,
hotel,hotel,Sumba Nautil Resort,"782C+4F9, Tarakatuku, Desa Patiala Bawa, Kacamatan Lamboya, Harona Kala, Kec. Laboya Bar., Kabupaten Sumba Barat, Nusa Tenggara Tim.","Kabupaten Sumba Barat, Nusa Tenggara Tim.",NUSA TENGGARA TIMUR,,Indonesia,38721806.0,,,-9.7497128,119.3212273,https://maps.google.com/?cid=0x0:0xb8fb1e2c0ca9a079,
hotel,hotel,Umarato Villa,"Jalan Rua - Wanokaka no 7 Jurusan Pahola Kec. Wanokaka, Rua, Kec. Kota Waikabubak, Nusa Tenggara Tim. 87272","Rua, Kec. Kota Waikabubak",NUSA TENGGARA TIMUR,87272.0,Indonesia,8118192999.0,,,-9.7522658,119.4129673,https://maps.google.com/?cid=0x0:0xdefc6f1216ba5c2c,
hotel,hotel,Three Queen Villa and Homestay,"7F42+W7, Wai Hura, Kec. Wanokaka, Kabupaten Sumba Barat, Nusa Tenggara Tim.","Kabupaten Sumba Barat, Nusa Tenggara Tim.",NUSA TENGGARA TIMUR,,Indonesia,87865507477.0,,,-9.7430813,119.4506213,https://maps.google.com/?cid=0x0:0xccaae4f6d9e697e7,
hotel,hotel,Maringi Sumba by the Sumba Hospitality Foundation,"Sumba Hospitality Foundation, Jl Mananga Aba, Karuni, Loura, Southwest Sumba Regency, East Nusa Tenggara","Kabupaten Sumba Barat Daya, Nusa Tenggara Tim.",NUSA TENGGARA TIMUR,,Indonesia,82147148489.0,,,-9.3885915,119.301921,https://maps.google.com/?cid=0x0:0x455c193adffb5e44,
hotel,hotel,Sumba Retreat,"Pantai Kerewe, Patiala Bawa, Kec. Lamboya, Waikabubak, Nusa Tenggara Tim. 87271","Patiala Bawa, Kec. Lamboya, Waikabubak",NUSA TENGGARA TIMUR,87271.0,Indonesia,85339234685.0,,,-9.7592846,119.3329636,https://maps.google.com/?cid=0x0:0xb14db5234857fe5b,
hotel,hotel,"Bobocabin Umarato, Sumba","Jl. Rua-Wanokaka No. 7, Pahola, Kec. Wanokaka, Kabupaten Sumba Barat, Nusa Tenggara Tim. 87272","Pahola, Kec. Wanokaka, Kabupaten Sumba Barat",NUSA TENGGARA TIMUR,87272.0,Indonesia,81120022864.0,,,-9.7534168,119.413178,https://maps.google.com/?cid=0x0:0x8429f2c37c7984c5,
hotel,hotel,Musa Homestay,"Patiala Bawa, Kec. Lamboya, Kabupaten Sumba Barat, Nusa Tenggara Tim.","Kabupaten Sumba Barat, Nusa Tenggara Tim.",NUSA TENGGARA TIMUR,,Indonesia,85142994403.0,,,-9.7596772,119.3327706,https://maps.google.com/?cid=0x0:0x70658a09ca09da2a,
hotel,hotel,Shekinah Homestay  Cafe,"Jl. Veteran, Kp. Sawah, Kec. Kota Waikabubak, Kabupaten Sumba Barat, Nusa Tenggara Tim. 87211","Kp. Sawah, Kec. Kota Waikabubak, Kabupaten Sumba Barat",NUSA TENGGARA TIMUR,87211.0,Indonesia,895417300072.0,,,-9.6360542,119.4202479,https://maps.google.com/?cid=0x0:0x3adf4c4cbbc649f5,
hotel,hotel,RedDoorz @ Waikabubak Sumba,"Jl. Ahmad Yani No.107, Wailiang, Kec. Kota Waikabubak, Kabupaten Sumba Barat, Nusa Tenggara Tim. 87212","Wailiang, Kec. Kota Waikabubak, Kabupaten Sumba Barat",NUSA TENGGARA TIMUR,87212.0,Indonesia,895417300072.0,,,-9.6376664,119.4084299,https://maps.google.com/?cid=0x0:0x671432ec6713ef1a,
hotel,hotel,Tanto Hotel,"Jl. Prof. Dr. W. Z. Yohanes No. 14, Waingapu, Prailiu, Kec. Kambera, Kabupaten Sumba Timur, Nusa Tenggara Tim. 87112","Waingapu, Prailiu, Kec. Kambera, Kabupaten Sumba Timur",NUSA TENGGARA TIMUR,87112.0,Indonesia,81281816484.0,,,-9.6586796,120.270165,https://maps.google.com/?cid=0x0:0x76930ba103e9c0a3,
hotel,hotel,THE VILLAGE INN Rua Beach,"Rua 2, Kec. Wanokaka, Kabupaten Sumba Barat, Nusa Tenggara Tim.","Kabupaten Sumba Barat, Nusa Tenggara Tim.",NUSA TENGGARA TIMUR,,Indonesia,8118632632.0,,,-9.7640069,119.4133303,https://maps.google.com/?cid=0x0:0x6bbc16eb8b8a825e,
hotel,hotel,Manandang Hotel,"Jl. Pemuda No.4, Maliti, Kec. Kota Waikabubak, Kabupaten Sumba Barat, Nusa Tenggara Tim.","Kabupaten Sumba Barat, Nusa Tenggara Tim.",NUSA TENGGARA TIMUR,,Indonesia,38721197.0,,,-9.6352766,119.4110344,https://maps.google.com/?cid=0x0:0x30462dea11a5863,
hotel,hotel,Wisma Solapora,"CH3F+247, Anakalang, Kec. Katikutana, Kabupaten Sumba Tengah, Nusa Tenggara Tim.","Kabupaten Sumba Tengah, Nusa Tenggara Tim.",NUSA TENGGARA TIMUR,,Indonesia,,,,-9.5974679,119.5727914,https://maps.google.com/?cid=0x0:0xc0cec00aade0e775,
hotel,hotel,Umarato Resort,"Jurusan Arena, Rua Wanokaka Jalan Rua-Wanokaka no 7, Pahola, Kec. Wanokaka, Kabupaten Sumba Barat, Nusa Tenggara Tim. 87272","Rua Wanokaka Jalan Rua-Wanokaka no 7, Pahola, Kec. Wanokaka, Kabupaten Sumba Barat",NUSA TENGGARA TIMUR,87272.0,Indonesia,8118192999.0,,,-9.7552382,119.4128409,https://maps.google.com/?cid=0x0:0x627988f4195723d6,
hotel,hotel,HOTEL ARTHA,"9C88+5VC, Kp. Sawah, Kec. Kota Waikabubak, Kabupaten Sumba Barat, Nusa Tenggara Tim.","Kabupaten Sumba Barat, Nusa Tenggara Tim.",NUSA TENGGARA TIMUR,,Indonesia,85253253980.0,,,-9.6345519,119.4171334,https://maps.google.com/?cid=0x0:0x3db048529ff7c25e,
hotel,hotel,Wajonata Sumba,"Unnamed Road, W U L A, Kec. Wulla Waijelu, Kabupaten Sumba Timur, Nusa Tenggara Tim.","Kabupaten Sumba Timur, Nusa Tenggara Tim.",NUSA TENGGARA TIMUR,,Indonesia,81288271734.0,,,-10.2502349,120.6194603,https://maps.google.com/?cid=0x0:0xb8f20d8d7e967f49,
hotel,hotel,Sumba Beach (Anna Villas),"JHWJ+V7, Manu Wolu, Kec. Mamboro, Kabupaten Sumba Tengah, Nusa Tenggara Tim.","Kabupaten Sumba Tengah, Nusa Tenggara Tim.",NUSA TENGGARA TIMUR,,Indonesia,81139600235.0,,,-9.3527589,119.5806888,https://maps.google.com/?cid=0x0:0x647d48a1ba8c1e65,
hotel,hotel,ALAMAYAH,"Kerewe, Patiala Bawa, Lamboya, West Sumba Regency, Provinsi East Nusa Tenggara 081 Kerewe, Nusa Tenggara Tim. 87252","Patiala Bawa, Lamboya, West Sumba Regency, Provinsi East Nusa Tenggara 081 Kerewe",NUSA TENGGARA TIMUR,87252.0,Indonesia,81218928101.0,,,-9.7588985,119.3327779,https://maps.google.com/?cid=0x0:0xa4cb8e84938d4e5d,
hotel,hotel,Kambaniru Beach Hotel and Resort,"RT.010/RW.003, Kambaniru, Kec. Kambera, Kabupaten Sumba Timur, Nusa Tenggara Tim. 87114","Kambaniru, Kec. Kambera, Kabupaten Sumba Timur",NUSA TENGGARA TIMUR,87114.0,Indonesia,8113939100.0,,,-9.6445204,120.2914495,https://maps.google.com/?cid=0x0:0x7866412594e233bd,
hotel,hotel,Padadita Beach Hotel,"Jl. Airlangga Padadita, Prailiu, Waingapu City, East Sumba Regency, East Nusa Tenggara","Kabupaten Sumba Timur, Nusa Tenggara Tim.",NUSA TENGGARA TIMUR,,Indonesia,81238995246.0,,,-9.6410584,120.2711388,https://maps.google.com/?cid=0x0:0xde3625906a0594e9,
hotel,hotel,,,,NUSA TENGGARA TIMUR,,Indonesia,,,,,,https://maps.google.com/?cid=0x0:0xde3625906a0594e9%7C/g/11csrs2p62%7Cid-ID,
hotel,hotel,Kec. Katikutana Sel.,"Kabupaten Sumba Tengah, Nusa Tenggara Tim.","Kabupaten Sumba Tengah, Nusa Tenggara Tim.",NUSA TENGGARA TIMUR,,Indonesia,,,,-9.6219405,119.566311,https://maps.google.com/?cid=0x0:0x82c00958893ffd61,
hotel,hotel,,,,NUSA TENGGARA TIMUR,,Indonesia,,,,,,https://maps.google.com/?cid=0x0:0x2b81189bedf1a30a%7C/g/11bc7r28bv%7Cid-ID,
hotel,hotel,NIHI Sumba,"Hoba Wawi, Kec. Wanokaka, Kabupaten Sumba Barat, Nusa Tenggara Tim.","Kabupaten Sumba Barat, Nusa Tenggara Tim.",NUSA TENGGARA TIMUR,,Indonesia,361757149.0,,,-9.7776308,119.3762222,https://maps.google.com/?cid=0x0:0x2b81189bedf1a30a,
hotel,hotel,Ketanu Bamboo lodge sumba - Hôtel sumba Indonésie,"Jl pahola, wanokaka, west, Kec. Kota Waikabubak, Kabupaten Sumba Barat, Nusa Tenggara Tim. 87272","wanokaka, west, Kec. Kota Waikabubak, Kabupaten Sumba Barat",NUSA TENGGARA TIMUR,87272.0,Indonesia,82340722775.0,,,-9.7542024,119.4188266,https://maps.google.com/?cid=0x0:0xb7869eb34516abd6,
hotel,hotel,Rua Beach Resort Sumba,"Rua, Kec. Wanokaka, Kabupaten Sumba Barat, Nusa Tenggara Tim.","Kabupaten Sumba Barat, Nusa Tenggara Tim.",NUSA TENGGARA TIMUR,,Indonesia,8113865586.0,,,-9.7639457,119.4146995,https://maps.google.com/?cid=0x0:0xcf6117e192385cfe,
hotel,hotel,Three Queen Villa and Homestay,"7F42+W7, Wai Hura, Kec. Wanokaka, Kabupaten Sumba Barat, Nusa Tenggara Tim.","Kabupaten Sumba Barat, Nusa Tenggara Tim.",NUSA TENGGARA TIMUR,,Indonesia,87865507477.0,,,-9.7430813,119.4506213,https://maps.google.com/?cid=0x0:0xccaae4f6d9e697e7,
hotel,hotel,Sumba Voyage Villa,"Sumba Voyage, Bara kabelak, Hoba Wawi, Kec. Wanokaka, Kabupaten Sumba Barat, Nusa Tenggara Tim.","Kabupaten Sumba Barat, Nusa Tenggara Tim.",NUSA TENGGARA TIMUR,,Indonesia,81386709761.0,,,-9.7656659,119.3930066,https://maps.google.com/?cid=0x0:0x2976e081978f8703,
hotel,hotel,RedDoorz @ Waikabubak Sumba,"Jl. Ahmad Yani No.107, Wailiang, Kec. Kota Waikabubak, Kabupaten Sumba Barat, Nusa Tenggara Tim. 87212","Wailiang, Kec. Kota Waikabubak, Kabupaten Sumba Barat",NUSA TENGGARA TIMUR,87212.0,Indonesia,895417300072.0,,,-9.6376664,119.4084299,https://maps.google.com/?cid=0x0:0x671432ec6713ef1a,
hotel,hotel,LaCasa DeLuna Guest House,"9C65+5XF, Maliti, Kec. Kota Waikabubak, Kabupaten Sumba Barat, Nusa Tenggara Tim.","Kabupaten Sumba Barat, Nusa Tenggara Tim.",NUSA TENGGARA TIMUR,,Indonesia,81338719299.0,,,-9.6395419,119.4099796,https://maps.google.com/?cid=0x0:0x73634316f7cb09fe,
hotel,hotel,THE VILLAGE INN Rua Beach,"Rua 2, Kec. Wanokaka, Kabupaten Sumba Barat, Nusa Tenggara Tim.","Kabupaten Sumba Barat, Nusa Tenggara Tim.",NUSA TENGGARA TIMUR,,Indonesia,8118632632.0,,,-9.7640069,119.4133303,https://maps.google.com/?cid=0x0:0x6bbc16eb8b8a825e,
hotel,hotel,Umarato Villa,"Jalan Rua - Wanokaka no 7 Jurusan Pahola Kec. Wanokaka, Rua, Kec. Kota Waikabubak, Nusa Tenggara Tim. 87272","Rua, Kec. Kota Waikabubak",NUSA TENGGARA TIMUR,87272.0,Indonesia,8118192999.0,,,-9.7522658,119.4129673,https://maps.google.com/?cid=0x0:0xdefc6f1216ba5c2c,
hotel,hotel,Hotel Bintang Waibakul,"CH4J+JFW, Wai Rasa, Kec. Umbu Ratu Nggay Bar., Kabupaten Sumba Tengah, Nusa Tenggara Tim.","Kabupaten Sumba Tengah, Nusa Tenggara Tim.",NUSA TENGGARA TIMUR,,Indonesia,81312246201.0,,,-9.593558,119.5814717,https://maps.google.com/?cid=0x0:0x51358ae2a77802c,
hotel,hotel,Shekinah Homestay  Cafe,"Jl. Veteran, Kp. Sawah, Kec. Kota Waikabubak, Kabupaten Sumba Barat, Nusa Tenggara Tim. 87211","Kp. Sawah, Kec. Kota Waikabubak, Kabupaten Sumba Barat",NUSA TENGGARA TIMUR,87211.0,Indonesia,895417300072.0,,,-9.6360542,119.4202479,https://maps.google.com/?cid=0x0:0x3adf4c4cbbc649f5,
hotel,hotel,"Bobocabin Umarato, Sumba","Jl. Rua-Wanokaka No. 7, Pahola, Kec. Wanokaka, Kabupaten Sumba Barat, Nusa Tenggara Tim. 87272","Pahola, Kec. Wanokaka, Kabupaten Sumba Barat",NUSA TENGGARA TIMUR,87272.0,Indonesia,81120022864.0,,,-9.7534168,119.413178,https://maps.google.com/?cid=0x0:0x8429f2c37c7984c5,
hotel,hotel,Sumba Nautil Resort,"782C+4F9, Tarakatuku, Desa Patiala Bawa, Kacamatan Lamboya, Harona Kala, Kec. Laboya Bar., Kabupaten Sumba Barat, Nusa Tenggara Tim.","Kabupaten Sumba Barat, Nusa Tenggara Tim.",NUSA TENGGARA TIMUR,,Indonesia,38721806.0,,,-9.7497128,119.3212273,https://maps.google.com/?cid=0x0:0xb8fb1e2c0ca9a079,
hotel,hotel,Sumba Retreat,"Pantai Kerewe, Patiala Bawa, Kec. Lamboya, Waikabubak, Nusa Tenggara Tim. 87271","Patiala Bawa, Kec. Lamboya, Waikabubak",NUSA TENGGARA TIMUR,87271.0,Indonesia,85339234685.0,,,-9.7592846,119.3329636,https://maps.google.com/?cid=0x0:0xb14db5234857fe5b,
hotel,hotel,Musa Homestay,"Patiala Bawa, Kec. Lamboya, Kabupaten Sumba Barat, Nusa Tenggara Tim.","Kabupaten Sumba Barat, Nusa Tenggara Tim.",NUSA TENGGARA TIMUR,,Indonesia,85142994403.0,,,-9.7596772,119.3327706,https://maps.google.com/?cid=0x0:0x70658a09ca09da2a,
hotel,hotel,Tanto Hotel,"Jl. Prof. Dr. W. Z. Yohanes No. 14, Waingapu, Prailiu, Kec. Kambera, Kabupaten Sumba Timur, Nusa Tenggara Tim. 87112","Waingapu, Prailiu, Kec. Kambera, Kabupaten Sumba Timur",NUSA TENGGARA TIMUR,87112.0,Indonesia,81281816484.0,,,-9.6586796,120.270165,https://maps.google.com/?cid=0x0:0x76930ba103e9c0a3,
hotel,hotel,Manandang Hotel,"Jl. Pemuda No.4, Maliti, Kec. Kota Waikabubak, Kabupaten Sumba Barat, Nusa Tenggara Tim.","Kabupaten Sumba Barat, Nusa Tenggara Tim.",NUSA TENGGARA TIMUR,,Indonesia,38721197.0,,,-9.6352766,119.4110344,https://maps.google.com/?cid=0x0:0x30462dea11a5863,
hotel,hotel,Wisma Solapora,"CH3F+247, Anakalang, Kec. Katikutana, Kabupaten Sumba Tengah, Nusa Tenggara Tim.","Kabupaten Sumba Tengah, Nusa Tenggara Tim.",NUSA TENGGARA TIMUR,,Indonesia,,,,-9.5974679,119.5727914,https://maps.google.com/?cid=0x0:0xc0cec00aade0e775,
hotel,hotel,villa morika,"6CG5+FP, Rua, Kec. Wanokaka, Kabupaten Sumba Barat, Nusa Tenggara Tim.","Kabupaten Sumba Barat, Nusa Tenggara Tim.",NUSA TENGGARA TIMUR,,Indonesia,81259541325.0,,,-9.7737967,119.4093944,https://maps.google.com/?cid=0x0:0x111074f7cf6d0606,
hotel,hotel,Sima Hotel Sumba,"Jl. Raja Yohanes Ngongo Bani, Weerena, Kec. Kota Tambolaka, Kabupaten Sumba Barat Daya, Nusa Tenggara Tim. 87261","Weerena, Kec. Kota Tambolaka, Kabupaten Sumba Barat Daya",NUSA TENGGARA TIMUR,87261.0,Indonesia,3872527411.0,,,-9.460902,119.2215221,https://maps.google.com/?cid=0x0:0x4237c4e0781d3bba,
hotel,hotel,Wajonata Sumba,"Unnamed Road, W U L A, Kec. Wulla Waijelu, Kabupaten Sumba Timur, Nusa Tenggara Tim.","Kabupaten Sumba Timur, Nusa Tenggara Tim.",NUSA TENGGARA TIMUR,,Indonesia,81288271734.0,,,-10.2502349,120.6194603,https://maps.google.com/?cid=0x0:0xb8f20d8d7e967f49,
hotel,hotel,Kec. Mamboro,"Kabupaten Sumba Tengah, Nusa Tenggara Tim.","Kabupaten Sumba Tengah, Nusa Tenggara Tim.",NUSA TENGGARA TIMUR,,Indonesia,,,,-9.3815169,119.5397707,https://maps.google.com/?cid=0x0:0xd178484c806754d1,
hotel,hotel,Sumba Beach (Anna Villas),"JHWJ+V7, Manu Wolu, Kec. Mamboro, Kabupaten Sumba Tengah, Nusa Tenggara Tim.","Kabupaten Sumba Tengah, Nusa Tenggara Tim.",NUSA TENGGARA TIMUR,,Indonesia,81139600235.0,,,-9.3527589,119.5806888,https://maps.google.com/?cid=0x0:0x647d48a1ba8c1e65,
hotel,hotel,Mario Hotel  Cafe,"Ramadana, Ramma Dana, Kec. Loura, Kabupaten Sumba Barat Daya, Nusa Tenggara Tim.","Kabupaten Sumba Barat Daya, Nusa Tenggara Tim.",NUSA TENGGARA TIMUR,,Indonesia,81239710000.0,,,-9.3585658,119.2948611,https://maps.google.com/?cid=0x0:0x2bea9d4b63ab95de,
hotel,hotel,Sinar Tambolaka,"Hotel Sinar, Kalena Wano, Kec. Kota Tambolaka, Kabupaten Sumba Barat Daya, Nusa Tenggara Tim. 87255","Kalena Wano, Kec. Kota Tambolaka, Kabupaten Sumba Barat Daya",NUSA TENGGARA TIMUR,87255.0,Indonesia,3872524088.0,,,-9.4305675,119.2386103,https://maps.google.com/?cid=0x0:0xd1c8f3f36b22eaa1,
hotel,hotel,,,,NUSA TENGGARA TIMUR,,Indonesia,,,,,,https://maps.google.com/?cid=0x0:0xd1c8f3f36b22eaa1%7C/g/12vr2q517%7Cid-ID,
hotel,hotel,Hotel pasola,"Terminal Keberangkatan Bandar Udara Tambolaka, Radamata, Loura, Southwest Sumba Regency, East Nusa Tenggara","Kabupaten Sumba Barat Daya, Nusa Tenggara Tim.",NUSA TENGGARA TIMUR,,Indonesia,81329458690.0,,,-9.4133411,119.2445581,https://maps.google.com/?cid=0x0:0x7c0eb9d00100bb2c,
hotel,hotel,LaCasa DeLuna Guest House,"9C65+5XF, Maliti, Kec. Kota Waikabubak, Kabupaten Sumba Barat, Nusa Tenggara Tim.","Kabupaten Sumba Barat, Nusa Tenggara Tim.",NUSA TENGGARA TIMUR,,Indonesia,81338719299.0,,,-9.6395419,119.4099796,https://maps.google.com/?cid=0x0:0x73634316f7cb09fe,
hotel,hotel,RedDoorz @ Waikabubak Sumba,"Jl. Ahmad Yani No.107, Wailiang, Kec. Kota Waikabubak, Kabupaten Sumba Barat, Nusa Tenggara Tim. 87212","Wailiang, Kec. Kota Waikabubak, Kabupaten Sumba Barat",NUSA TENGGARA TIMUR,87212.0,Indonesia,895417300072.0,,,-9.6376664,119.4084299,https://maps.google.com/?cid=0x0:0x671432ec6713ef1a,
hotel,hotel,El Ora Inn  Eatery Labuan Bajo RedPartner,"Jl. Yohanis Sahadun No.8, Labuan Bajo, Kec. Komodo, Kabupaten Manggarai Barat, Nusa Tenggara Tim.","Kabupaten Manggarai Barat, Nusa Tenggara Tim.",NUSA TENGGARA TIMUR,,Indonesia,,,,-8.4956322,119.8857116,https://maps.google.com/?cid=0x0:0xe53b28681242ee9c,
hotel,hotel,Shekinah Homestay  Cafe,"Jl. Veteran, Kp. Sawah, Kec. Kota Waikabubak, Kabupaten Sumba Barat, Nusa Tenggara Tim. 87211","Kp. Sawah, Kec. Kota Waikabubak, Kabupaten Sumba Barat",NUSA TENGGARA TIMUR,87211.0,Indonesia,895417300072.0,,,-9.6360542,119.4202479,https://maps.google.com/?cid=0x0:0x3adf4c4cbbc649f5,
hotel,hotel,Homestay Sumba Permai Rp. 120.000/Malam,"Jl. Pulau Komodo, Kambajawa, Kec. Kota Waingapu, Kabupaten Sumba Timur, Nusa Tenggara Tim.","Kabupaten Sumba Timur, Nusa Tenggara Tim.",NUSA TENGGARA TIMUR,,Indonesia,82215755540.0,,,-9.6605373,120.2429819,https://maps.google.com/?cid=0x0:0x2253d1808ee082bd,
hotel,hotel,Bajawa Roo Hotel,"Jln. Martadinatha, RT Ngali, Trikora, Bajawa, Flores, East Nusa Tenggara 86411","RT Ngali, Trikora, Bajawa, Flores",NUSA TENGGARA TIMUR,86411.0,Indonesia,81338639607.0,,,-8.7846152,120.9692896,https://maps.google.com/?cid=0x0:0x7602b2bd0e921492,
hotel,hotel,Manandang Hotel,"Jl. Pemuda No.4, Maliti, Kec. Kota Waikabubak, Kabupaten Sumba Barat, Nusa Tenggara Tim.","Kabupaten Sumba Barat, Nusa Tenggara Tim.",NUSA TENGGARA TIMUR,,Indonesia,38721197.0,,,-9.6352766,119.4110344,https://maps.google.com/?cid=0x0:0x30462dea11a5863,
hotel,hotel,Oro Beach Houses,"Weepangali, Wee Pangali, Kec. Kota Tambolaka, Kabupaten Sumba Barat Daya, Nusa Tenggara Tim. 87254","Wee Pangali, Kec. Kota Tambolaka, Kabupaten Sumba Barat Daya",NUSA TENGGARA TIMUR,87254.0,Indonesia,81339110068.0,,,-9.3698359,119.2691648,https://maps.google.com/?cid=0x0:0xe9208c199549c4b1,
hotel,hotel,Morika Inn and Cafe,"Wee Karou, Kec. Loli, Kabupaten Sumba Barat, Nusa Tenggara Tim.","Kabupaten Sumba Barat, Nusa Tenggara Tim.",NUSA TENGGARA TIMUR,,Indonesia,81259541325.0,,,-9.6453034,119.3963347,https://maps.google.com/?cid=0x0:0x1d57ab1c9a7d79cf,
hotel,hotel,Hotel Ella,"H6CQ+2C8, Jl. Sapurata, Wee Tobula, Kec. Kota Tambolaka, Kabupaten Sumba Barat Daya, Nusa Tenggara Tim.","Kabupaten Sumba Barat Daya, Nusa Tenggara Tim.",NUSA TENGGARA TIMUR,,Indonesia,82145837745.0,,,-9.4299593,119.2385852,https://maps.google.com/?cid=0x0:0x848f5e0913612753,
hotel,hotel,HOTEL ARTHA,"9C88+5VC, Kp. Sawah, Kec. Kota Waikabubak, Kabupaten Sumba Barat, Nusa Tenggara Tim.","Kabupaten Sumba Barat, Nusa Tenggara Tim.",NUSA TENGGARA TIMUR,,Indonesia,85253253980.0,,,-9.6345519,119.4171334,https://maps.google.com/?cid=0x0:0x3db048529ff7c25e,
hotel,hotel,RedDoorz @ Tambolaka Sumba,"Hotel Sinar, Kalena Wano, Kec. Kota Tambolaka, Kabupaten Sumba Barat Daya, Nusa Tenggara Tim. 87255","Kalena Wano, Kec. Kota Tambolaka, Kabupaten Sumba Barat Daya",NUSA TENGGARA TIMUR,87255.0,Indonesia,2180629666.0,,,-9.4306539,119.2385182,https://maps.google.com/?cid=0x0:0x5190bda48a33c1b6,
hotel,hotel,Hotel Bintang Waibakul,"CH4J+JFW, Wai Rasa, Kec. Umbu Ratu Nggay Bar., Kabupaten Sumba Tengah, Nusa Tenggara Tim.","Kabupaten Sumba Tengah, Nusa Tenggara Tim.",NUSA TENGGARA TIMUR,,Indonesia,81312246201.0,,,-9.593558,119.5814717,https://maps.google.com/?cid=0x0:0x51358ae2a77802c,
hotel,hotel,Hotel Sumba Sejahtera,"Jl. Sapurata, Kalena Wano, Kec. Kota Tambolaka, Kabupaten Sumba Barat Daya, Nusa Tenggara Tim.","Kabupaten Sumba Barat Daya, Nusa Tenggara Tim.",NUSA TENGGARA TIMUR,,Indonesia,82279245244.0,,,-9.4316553,119.2354984,https://maps.google.com/?cid=0x0:0xdca5c90d6ac4c2d4,
hotel,hotel,Hotel Aloha,"Kampung Sawah, Kota Waikabubak, Kp. Sawah, Kec. Kota Waikabubak, Kabupaten Sumba Barat, Nusa Tenggara Tim.","Kabupaten Sumba Barat, Nusa Tenggara Tim.",NUSA TENGGARA TIMUR,,Indonesia,38722227.0,,,-9.6331592,119.4139515,https://maps.google.com/?cid=0x0:0xb32f2f329d1931d9,
hotel,hotel,Tanto Hotel,"Jl. Prof. Dr. W. Z. Yohanes No. 14, Waingapu, Prailiu, Kec. Kambera, Kabupaten Sumba Timur, Nusa Tenggara Tim. 87112","Waingapu, Prailiu, Kec. Kambera, Kabupaten Sumba Timur",NUSA TENGGARA TIMUR,87112.0,Indonesia,81281816484.0,,,-9.6586796,120.270165,https://maps.google.com/?cid=0x0:0x76930ba103e9c0a3,
hotel,hotel,Mamboro,"Kec. Palu Utara, Kota Palu, Sulawesi Tengah","Kota Palu, Sulawesi Tengah",NUSA TENGGARA TIMUR,,Indonesia,,,,-0.7934601,119.8930904,https://maps.google.com/?cid=0x0:0xd22639a8282b47e2,
hotel,hotel,Hotel Brizky,"Jl. RE Martadinata No.03, Tondo, Kec. Mantikulore, Kota Palu, Sulawesi Tengah 94111","Tondo, Kec. Mantikulore, Kota Palu",NUSA TENGGARA TIMUR,94111.0,Indonesia,4514012739.0,,,-0.8533987,119.8822596,https://maps.google.com/?cid=0x0:0x6a7e51b26d5e694d,
hotel,hotel,Amazing City Beach Resort,"Jl. Malonda No. 76, Kel. Tipo Kecamatan Ulujadi, Palu Barat, Buluri, Kec. Ulujadi, Kota Palu, Sulawesi Tengah 94228","Kel. Tipo Kecamatan Ulujadi, Palu Barat, Buluri, Kec. Ulujadi, Kota Palu",NUSA TENGGARA TIMUR,94228.0,Indonesia,451465222.0,,,-0.8559948,119.8267551,https://maps.google.com/?cid=0x0:0x6b810a1383f354d2,
hotel,hotel,MEDIO INN HOTEL,"Jl. Tj. Harapan No.2, Tatura Utara, Kec. Palu Sel., Kota Palu, Sulawesi Tengah 94111","Tatura Utara, Kec. Palu Sel., Kota Palu",NUSA TENGGARA TIMUR,94111.0,Indonesia,895417300072.0,,,-0.9083623,119.8840933,https://maps.google.com/?cid=0x0:0xce8abd1d91179967,
hotel,hotel,Palu City Hotel,"Jl. Sis Aljufri No.17, Siranindi, Kec. Palu Bar., Kota Palu, Sulawesi Tengah 94221","Siranindi, Kec. Palu Bar., Kota Palu",NUSA TENGGARA TIMUR,94221.0,Indonesia,451426498.0,,,-0.89827,119.859537,https://maps.google.com/?cid=0x0:0x8e8f1612d0c071df,
hotel,hotel,Hotel Kembang joyo palu,"3VPG+HC4, Jl. Emmy Saelan, Tatura Sel., Kec. Palu Sel., Kota Palu, Sulawesi Tengah 94111","Jl. Emmy Saelan, Tatura Sel., Kec. Palu Sel., Kota Palu",NUSA TENGGARA TIMUR,94111.0,Indonesia,8114404455.0,,,-0.9135625,119.8760625,https://maps.google.com/?cid=0x0:0x2774fefaeeceeba5,
hotel,hotel,Bamboo House,"Jl. Kaluku Dasa, Tanamodindi, Kec. Mantikulore, Kota Palu, Sulawesi Tengah 94111","Tanamodindi, Kec. Mantikulore, Kota Palu",NUSA TENGGARA TIMUR,94111.0,Indonesia,8114525050.0,,,-0.8986542,119.899002,https://maps.google.com/?cid=0x0:0x23c5670e156328d6,
hotel,hotel,Kec. Umbu Ratu Nggay,"Kabupaten Sumba Tengah, Nusa Tenggara Tim.","Kabupaten Sumba Tengah, Nusa Tenggara Tim.",NUSA TENGGARA TIMUR,,Indonesia,,,,-9.5320614,119.7114631,https://maps.google.com/?cid=0x0:0x3e1b41bfd00caaee,
hotel,hotel,Sumba Beach (Anna Villas),"JHWJ+V7, Manu Wolu, Kec. Mamboro, Kabupaten Sumba Tengah, Nusa Tenggara Tim.","Kabupaten Sumba Tengah, Nusa Tenggara Tim.",NUSA TENGGARA TIMUR,,Indonesia,81139600235.0,,,-9.3527589,119.5806888,https://maps.google.com/?cid=0x0:0x647d48a1ba8c1e65,
hotel,hotel,Hotel Bintang Waibakul,"CH4J+JFW, Wai Rasa, Kec. Umbu Ratu Nggay Bar., Kabupaten Sumba Tengah, Nusa Tenggara Tim.","Kabupaten Sumba Tengah, Nusa Tenggara Tim.",NUSA TENGGARA TIMUR,,Indonesia,81312246201.0,,,-9.593558,119.5814717,https://maps.google.com/?cid=0x0:0x51358ae2a77802c,
hotel,hotel,Kec. Umbu Ratu Nggay Bar.,"Kabupaten Sumba Tengah, Nusa Tenggara Tim.","Kabupaten Sumba Tengah, Nusa Tenggara Tim.",NUSA TENGGARA TIMUR,,Indonesia,,,,-9.6106513,119.6237901,https://maps.google.com/?cid=0x0:0x60c5b24a288eb10b,
hotel,hotel,Hotel Bintang Waibakul,"CH4J+JFW, Wai Rasa, Kec. Umbu Ratu Nggay Bar., Kabupaten Sumba Tengah, Nusa Tenggara Tim.","Kabupaten Sumba Tengah, Nusa Tenggara Tim.",NUSA TENGGARA TIMUR,,Indonesia,81312246201.0,,,-9.593558,119.5814717,https://maps.google.com/?cid=0x0:0x51358ae2a77802c,
hotel,hotel,NIHI Sumba,"Hoba Wawi, Kec. Wanokaka, Kabupaten Sumba Barat, Nusa Tenggara Tim.","Kabupaten Sumba Barat, Nusa Tenggara Tim.",NUSA TENGGARA TIMUR,,Indonesia,361757149.0,,,-9.7776308,119.3762222,https://maps.google.com/?cid=0x0:0x2b81189bedf1a30a,
hotel,hotel,Lelewatu Resort Sumba,"Jl. Lelewatu No.168, Hoba Wawi, Wanokaka, Sumba, East Nusa Tenggara 87272","Hoba Wawi, Wanokaka, Sumba",NUSA TENGGARA TIMUR,87272.0,Indonesia,81139606060.0,,,-9.7911026,119.3807849,https://maps.google.com/?cid=0x0:0xe3cfeaac2ee41407,
hotel,hotel,Rua Beach Resort Sumba,"Rua, Kec. Wanokaka, Kabupaten Sumba Barat, Nusa Tenggara Tim.","Kabupaten Sumba Barat, Nusa Tenggara Tim.",NUSA TENGGARA TIMUR,,Indonesia,8113865586.0,,,-9.7639457,119.4146995,https://maps.google.com/?cid=0x0:0xcf6117e192385cfe,
hotel,hotel,Ketanu Bamboo lodge sumba - Hôtel sumba Indonésie,"Jl pahola, wanokaka, west, Kec. Kota Waikabubak, Kabupaten Sumba Barat, Nusa Tenggara Tim. 87272","wanokaka, west, Kec. Kota Waikabubak, Kabupaten Sumba Barat",NUSA TENGGARA TIMUR,87272.0,Indonesia,82340722775.0,,,-9.7542024,119.4188266,https://maps.google.com/?cid=0x0:0xb7869eb34516abd6,
hotel,hotel,Sumba Voyage Villa,"Sumba Voyage, Bara kabelak, Hoba Wawi, Kec. Wanokaka, Kabupaten Sumba Barat, Nusa Tenggara Tim.","Kabupaten Sumba Barat, Nusa Tenggara Tim.",NUSA TENGGARA TIMUR,,Indonesia,81386709761.0,,,-9.7656659,119.3930066,https://maps.google.com/?cid=0x0:0x2976e081978f8703,
hotel,hotel,Three Queen Villa and Homestay,"7F42+W7, Wai Hura, Kec. Wanokaka, Kabupaten Sumba Barat, Nusa Tenggara Tim.","Kabupaten Sumba Barat, Nusa Tenggara Tim.",NUSA TENGGARA TIMUR,,Indonesia,87865507477.0,,,-9.7430813,119.4506213,https://maps.google.com/?cid=0x0:0xccaae4f6d9e697e7,
hotel,hotel,Umarato Villa,"Jalan Rua - Wanokaka no 7 Jurusan Pahola Kec. Wanokaka, Rua, Kec. Kota Waikabubak, Nusa Tenggara Tim. 87272","Rua, Kec. Kota Waikabubak",NUSA TENGGARA TIMUR,87272.0,Indonesia,8118192999.0,,,-9.7522658,119.4129673,https://maps.google.com/?cid=0x0:0xdefc6f1216ba5c2c,
hotel,hotel,LaCasa DeLuna Guest House,"9C65+5XF, Maliti, Kec. Kota Waikabubak, Kabupaten Sumba Barat, Nusa Tenggara Tim.","Kabupaten Sumba Barat, Nusa Tenggara Tim.",NUSA TENGGARA TIMUR,,Indonesia,81338719299.0,,,-9.6395419,119.4099796,https://maps.google.com/?cid=0x0:0x73634316f7cb09fe,
hotel,hotel,Wisma Solapora,"CH3F+247, Anakalang, Kec. Katikutana, Kabupaten Sumba Tengah, Nusa Tenggara Tim.","Kabupaten Sumba Tengah, Nusa Tenggara Tim.",NUSA TENGGARA TIMUR,,Indonesia,,,,-9.5974679,119.5727914,https://maps.google.com/?cid=0x0:0xc0cec00aade0e775,
hotel,hotel,THE VILLAGE INN Rua Beach,"Rua 2, Kec. Wanokaka, Kabupaten Sumba Barat, Nusa Tenggara Tim.","Kabupaten Sumba Barat, Nusa Tenggara Tim.",NUSA TENGGARA TIMUR,,Indonesia,8118632632.0,,,-9.7640069,119.4133303,https://maps.google.com/?cid=0x0:0x6bbc16eb8b8a825e,
hotel,hotel,Shekinah Homestay  Cafe,"Jl. Veteran, Kp. Sawah, Kec. Kota Waikabubak, Kabupaten Sumba Barat, Nusa Tenggara Tim. 87211","Kp. Sawah, Kec. Kota Waikabubak, Kabupaten Sumba Barat",NUSA TENGGARA TIMUR,87211.0,Indonesia,895417300072.0,,,-9.6360542,119.4202479,https://maps.google.com/?cid=0x0:0x3adf4c4cbbc649f5,
hotel,hotel,RedDoorz @ Waikabubak Sumba,"Jl. Ahmad Yani No.107, Wailiang, Kec. Kota Waikabubak, Kabupaten Sumba Barat, Nusa Tenggara Tim. 87212","Wailiang, Kec. Kota Waikabubak, Kabupaten Sumba Barat",NUSA TENGGARA TIMUR,87212.0,Indonesia,895417300072.0,,,-9.6376664,119.4084299,https://maps.google.com/?cid=0x0:0x671432ec6713ef1a,
hotel,hotel,"Bobocabin Umarato, Sumba","Jl. Rua-Wanokaka No. 7, Pahola, Kec. Wanokaka, Kabupaten Sumba Barat, Nusa Tenggara Tim. 87272","Pahola, Kec. Wanokaka, Kabupaten Sumba Barat",NUSA TENGGARA TIMUR,87272.0,Indonesia,81120022864.0,,,-9.7534168,119.413178,https://maps.google.com/?cid=0x0:0x8429f2c37c7984c5,
hotel,hotel,Sumba Beach (Anna Villas),"JHWJ+V7, Manu Wolu, Kec. Mamboro, Kabupaten Sumba Tengah, Nusa Tenggara Tim.","Kabupaten Sumba Tengah, Nusa Tenggara Tim.",NUSA TENGGARA TIMUR,,Indonesia,81139600235.0,,,-9.3527589,119.5806888,https://maps.google.com/?cid=0x0:0x647d48a1ba8c1e65,
hotel,hotel,Umarato Resort,"Jurusan Arena, Rua Wanokaka Jalan Rua-Wanokaka no 7, Pahola, Kec. Wanokaka, Kabupaten Sumba Barat, Nusa Tenggara Tim. 87272","Rua Wanokaka Jalan Rua-Wanokaka no 7, Pahola, Kec. Wanokaka, Kabupaten Sumba Barat",NUSA TENGGARA TIMUR,87272.0,Indonesia,8118192999.0,,,-9.7552382,119.4128409,https://maps.google.com/?cid=0x0:0x627988f4195723d6,
hotel,hotel,villa morika,"6CG5+FP, Rua, Kec. Wanokaka, Kabupaten Sumba Barat, Nusa Tenggara Tim.","Kabupaten Sumba Barat, Nusa Tenggara Tim.",NUSA TENGGARA TIMUR,,Indonesia,81259541325.0,,,-9.7737967,119.4093944,https://maps.google.com/?cid=0x0:0x111074f7cf6d0606,
hotel,hotel,Manandang Hotel,"Jl. Pemuda No.4, Maliti, Kec. Kota Waikabubak, Kabupaten Sumba Barat, Nusa Tenggara Tim.","Kabupaten Sumba Barat, Nusa Tenggara Tim.",NUSA TENGGARA TIMUR,,Indonesia,38721197.0,,,-9.6352766,119.4110344,https://maps.google.com/?cid=0x0:0x30462dea11a5863,
hotel,hotel,HOTEL ARTHA,"9C88+5VC, Kp. Sawah, Kec. Kota Waikabubak, Kabupaten Sumba Barat, Nusa Tenggara Tim.","Kabupaten Sumba Barat, Nusa Tenggara Tim.",NUSA TENGGARA TIMUR,,Indonesia,85253253980.0,,,-9.6345519,119.4171334,https://maps.google.com/?cid=0x0:0x3db048529ff7c25e,
hotel,hotel,Morika Inn and Cafe,"Wee Karou, Kec. Loli, Kabupaten Sumba Barat, Nusa Tenggara Tim.","Kabupaten Sumba Barat, Nusa Tenggara Tim.",NUSA TENGGARA TIMUR,,Indonesia,81259541325.0,,,-9.6453034,119.3963347,https://maps.google.com/?cid=0x0:0x1d57ab1c9a7d79cf,
hotel,Tujuan Wisata,Air Terjun Lapopu,"8FCV+F3Q, Manurara, Kec. Katikutana Sel., Kabupaten Sumba Tengah, Nusa Tenggara Tim.","Kabupaten Sumba Tengah, Nusa Tenggara Tim.",NUSA TENGGARA TIMUR,,Indonesia,82221477093.0,,,-9.6787759,119.4927235,https://maps.google.com/?cid=0x0:0x3e214b0555912b37,
restaurant,restaurant,Nusa Tenggara Tim.,,Nusa Tenggara Tim.,NUSA TENGGARA TIMUR,,Indonesia,,,,-8.6573819,121.0793705,https://maps.google.com/?cid=0x0:0x1030bfbcaf71ae0,
restaurant,Restoran,Rumah Makan Pondok Salero,"CH5H+J75, Unnamed Road, Anakalang, Kec. Katikutana, Kabupaten Sumba Tengah, Nusa Tenggara Tim.","Kabupaten Sumba Tengah, Nusa Tenggara Tim.",NUSA TENGGARA TIMUR,,Indonesia,811774878.0,,,-9.5909777,119.5782354,https://maps.google.com/?cid=0x0:0x8a610c347f4a048c,
restaurant,Restoran,Makan Dulu Restaurant by the Sumba Hospitality Foundation,"Kalena Wano, Kec. Loura, Kabupaten Sumba Barat Daya, Nusa Tenggara Tim.","Kabupaten Sumba Barat Daya, Nusa Tenggara Tim.",NUSA TENGGARA TIMUR,,Indonesia,81239230989.0,,,-9.4318327,119.2450173,https://maps.google.com/?cid=0x0:0xfc3caaac08694be,
restaurant,Indonesia,Leslie Cafe  Laundry,"87W8+793, Matawai, Kec. Kota Waingapu, Kabupaten Sumba Timur, Nusa Tenggara Tim.","Kabupaten Sumba Timur, Nusa Tenggara Tim.",NUSA TENGGARA TIMUR,,Indonesia,81239536666.0,,,-9.6543723,120.2659284,https://maps.google.com/?cid=0x0:0x6a0fcfe2cc14b730,
restaurant,Masakan Asia,Rumah Makan Sonetta,"9JW2+2V4, Wai Rasa, Kec. Umbu Ratu Nggay Bar., Kabupaten Sumba Tengah, Nusa Tenggara Tim.","Kabupaten Sumba Tengah, Nusa Tenggara Tim.",NUSA TENGGARA TIMUR,,Indonesia,82141063319.0,,,-9.6049811,119.602208,https://maps.google.com/?cid=0x0:0x74743c4e836a74f6,
restaurant,Restoran,Elcafe Sumba,"Matawai, Kec. Kota Waingapu, Kabupaten Sumba Timur, Nusa Tenggara Tim.","Kabupaten Sumba Timur, Nusa Tenggara Tim.",NUSA TENGGARA TIMUR,,Indonesia,81238246474.0,,,-9.6541853,120.263791,https://maps.google.com/?cid=0x0:0xf8e772e0e7ecd0d1,
restaurant,Padang,RICHARD CAFE  CATERING,"Jl. Uranus, Wee Tobula, Kec. Kota Tambolaka, Kabupaten Sumba Barat Daya, Nusa Tenggara Tim. 87255","Wee Tobula, Kec. Kota Tambolaka, Kabupaten Sumba Barat Daya",NUSA TENGGARA TIMUR,87255.0,Indonesia,82243888776.0,,,-9.4442036,119.2336287,https://maps.google.com/?cid=0x0:0x910f48e62840b359,
restaurant,Restoran,Tana Katto Cafe,"Jl. Pattimura No.3, Maliti, Kec. Kota Waikabubak, Kabupaten Sumba Barat, Nusa Tenggara Tim. 87214","Maliti, Kec. Kota Waikabubak, Kabupaten Sumba Barat",NUSA TENGGARA TIMUR,87214.0,Indonesia,81237706599.0,,,-9.6373732,119.4086778,https://maps.google.com/?cid=0x0:0x40610e505b22ee98,
restaurant,Restoran,WARUNG GULA GARAM,"Jl. Soeharto No.18, Radamata, Kec. Kota Tambolaka, Kabupaten Sumba Barat Daya, Nusa Tenggara Tim.","Kabupaten Sumba Barat Daya, Nusa Tenggara Tim.",NUSA TENGGARA TIMUR,,Indonesia,3872524019.0,,,-9.4230396,119.2455498,https://maps.google.com/?cid=0x0:0x695421ad0206e3f6,
restaurant,restaurant,Kec. Katikutana,"Kabupaten Sumba Tengah, Nusa Tenggara Tim.","Kabupaten Sumba Tengah, Nusa Tenggara Tim.",NUSA TENGGARA TIMUR,,Indonesia,,,,-9.5892351,119.5747285,https://maps.google.com/?cid=0x0:0xc4cfac4db0437390,
restaurant,Indonesia,Rumah Makan Arema,"CH5G+PWJ, Anakalang, Kec. Katikutana, Kabupaten Sumba Tengah, Nusa Tenggara Tim.","Kabupaten Sumba Tengah, Nusa Tenggara Tim.",NUSA TENGGARA TIMUR,,Indonesia,,,,-9.5906549,119.5772613,https://maps.google.com/?cid=0x0:0x54d586d088aee3e7,
restaurant,Indonesia,Depot Mbak Wiwin,"Anakalang, Kec. Katikutana, Kabupaten Sumba Tengah, Nusa Tenggara Tim.","Kabupaten Sumba Tengah, Nusa Tenggara Tim.",NUSA TENGGARA TIMUR,,Indonesia,81233233491.0,,,-9.5954888,119.5726454,https://maps.google.com/?cid=0x0:0x399ffb6a5167e9d6,
restaurant,Rumah Makan,Rumah Makan Gailar,"CH69+66P, Anakalang, Kec. Katikutana, Kabupaten Sumba Tengah, Nusa Tenggara Tim.","Kabupaten Sumba Tengah, Nusa Tenggara Tim.",NUSA TENGGARA TIMUR,,Indonesia,,,,-9.5894022,119.5680717,https://maps.google.com/?cid=0x0:0x6d4b388a170534eb,
restaurant,Restoran,RUMAH MAKAN MADA,"Jl. Waibakul, Anakalang, Kec. Katikutana, Kabupaten Sumba Tengah, Nusa Tenggara Tim.","Kabupaten Sumba Tengah, Nusa Tenggara Tim.",NUSA TENGGARA TIMUR,,Indonesia,8113553909.0,,,-9.5912428,119.5742033,https://maps.google.com/?cid=0x0:0xd4c95f8dc28a3b0e,
restaurant,Kedai Kopi,TALORA KOFFIE,"Anakalang, Kec. Katikutana, Kabupaten Sumba Tengah, Nusa Tenggara Tim.","Kabupaten Sumba Tengah, Nusa Tenggara Tim.",NUSA TENGGARA TIMUR,,Indonesia,81246250231.0,,,-9.5904582,119.577484,https://maps.google.com/?cid=0x0:0xb8adcc9c13629b4b,
restaurant,Padang,Yai O' Cafe,"9HXW+Q68, Wai Rasa, Kec. Umbu Ratu Nggay Bar., Kabupaten Sumba Tengah, Nusa Tenggara Tim.","Kabupaten Sumba Tengah, Nusa Tenggara Tim.",NUSA TENGGARA TIMUR,,Indonesia,82247082711.0,,,-9.6005919,119.5955791,https://maps.google.com/?cid=0x0:0x619e7f70e95efab1,
restaurant,Indonesia,Warung Kuning,"CH4F+24J, Unnamed Road, Anakalang, Kec. Katikutana, Kabupaten Sumba Tengah, Nusa Tenggara Tim.","Kabupaten Sumba Tengah, Nusa Tenggara Tim.",NUSA TENGGARA TIMUR,,Indonesia,81298449940.0,,,-9.5949079,119.5727672,https://maps.google.com/?cid=0x0:0xdee35fdd2e091776,
restaurant,Padang,Restu Bundo,"9JW2+G83, Wai Rasa, Kec. Umbu Ratu Nggay Bar., Kabupaten Sumba Tengah, Nusa Tenggara Tim.","Kabupaten Sumba Tengah, Nusa Tenggara Tim.",NUSA TENGGARA TIMUR,,Indonesia,82144040026.0,,,-9.6037328,119.6008096,https://maps.google.com/?cid=0x0:0x4bc56210c619564a,
restaurant,restaurant,Wisma Solapora,"CH3F+247, Anakalang, Kec. Katikutana, Kabupaten Sumba Tengah, Nusa Tenggara Tim.","Kabupaten Sumba Tengah, Nusa Tenggara Tim.",NUSA TENGGARA TIMUR,,Indonesia,,,,-9.5974679,119.5727914,https://maps.google.com/?cid=0x0:0xc0cec00aade0e775,
restaurant,Tujuan Wisata,Air Terjun Lapopu,"8FCV+F3Q, Manurara, Kec. Katikutana Sel., Kabupaten Sumba Tengah, Nusa Tenggara Tim.","Kabupaten Sumba Tengah, Nusa Tenggara Tim.",NUSA TENGGARA TIMUR,,Indonesia,82221477093.0,,,-9.6787759,119.4927235,https://maps.google.com/?cid=0x0:0x3e214b0555912b37,
restaurant,Kedai Kopi,Uma paita kedai,"CH69+CXF, Anakalang, Kec. Katikutana, Kabupaten Sumba Tengah, Nusa Tenggara Tim.","Kabupaten Sumba Tengah, Nusa Tenggara Tim.",NUSA TENGGARA TIMUR,,Indonesia,81317453710.0,,,-9.5889343,119.5699205,https://maps.google.com/?cid=0x0:0x1efc21344487ea89,
restaurant,Rumah Kayu,Patau kajia ( Mintonius Umbu Djala),"CH25+C6, Kabela Wuntu, Kec. Katikutana, Kabupaten Sumba Tengah, Nusa Tenggara Tim.","Kabupaten Sumba Tengah, Nusa Tenggara Tim.",NUSA TENGGARA TIMUR,,Indonesia,,,,-9.598909,119.558083,https://maps.google.com/?cid=0x0:0x14fe0bf6cbdae12e,
restaurant,Restoran,HF Resto  Boutique,"Jl. Kenari No.88, Radamata, Kec. Kota Tambolaka, Kabupaten Sumba Barat Daya, Nusa Tenggara Tim.","Kabupaten Sumba Barat Daya, Nusa Tenggara Tim.",NUSA TENGGARA TIMUR,,Indonesia,82143538789.0,,,-9.4160077,119.2408536,https://maps.google.com/?cid=0x0:0xd45aeb2593645658,
restaurant,Nasi Goreng,Warung Kanaya,"9HCM+7F3, Tana Modu, Kec. Katikutana Sel., Kabupaten Sumba Tengah, Nusa Tenggara Tim.","Kabupaten Sumba Tengah, Nusa Tenggara Tim.",NUSA TENGGARA TIMUR,,Indonesia,81246738499.0,,,-9.6293601,119.5836812,https://maps.google.com/?cid=0x0:0x620dbf33ce6a4660,
restaurant,Gereja Kristen,Wailolung,"9GWP+48, Mata Woga, Kec. Katikutana, Kabupaten Sumba Tengah, Nusa Tenggara Tim.","Kabupaten Sumba Tengah, Nusa Tenggara Tim.",NUSA TENGGARA TIMUR,,Indonesia,,,,-9.6046313,119.5358728,https://maps.google.com/?cid=0x0:0x4e3e76464a9803f8,
restaurant,Restoran,KEDAI WINU KARABI,"9J82+5J6, Konda Maloba, Kec. Katikutana Sel., Kabupaten Sumba Tengah, Nusa Tenggara Tim.","Kabupaten Sumba Tengah, Nusa Tenggara Tim.",NUSA TENGGARA TIMUR,,Indonesia,,,,-9.6345935,119.6015009,https://maps.google.com/?cid=0x0:0xf204576f4c915b2d,
restaurant,Bakso,Warung Bakso Sido Mulyo,"9HXW+Q5C, Wai Rasa, Kec. Umbu Ratu Nggay Bar., Kabupaten Sumba Tengah, Nusa Tenggara Tim.","Kabupaten Sumba Tengah, Nusa Tenggara Tim.",NUSA TENGGARA TIMUR,,Indonesia,,,,-9.6005718,119.5954006,https://maps.google.com/?cid=0x0:0x475385fd2bc731dc,
restaurant,Restoran,Sirkey Resto,"Jalan Sudirman, Radamata, Kec. Kota Tambolaka, Kabupaten Sumba Barat Daya, Nusa Tenggara Tim.","Kabupaten Sumba Barat Daya, Nusa Tenggara Tim.",NUSA TENGGARA TIMUR,,Indonesia,85333077007.0,,,-9.4296618,119.2383019,https://maps.google.com/?cid=0x0:0xaff317bab9d61459,
restaurant,restaurant,Kec. Katikutana Sel.,"Kabupaten Sumba Tengah, Nusa Tenggara Tim.","Kabupaten Sumba Tengah, Nusa Tenggara Tim.",NUSA TENGGARA TIMUR,,Indonesia,,,,-9.6219405,119.566311,https://maps.google.com/?cid=0x0:0x82c00958893ffd61,
restaurant,Restoran,Rumah Makan Pondok Salero,"CH5H+J75, Unnamed Road, Anakalang, Kec. Katikutana, Kabupaten Sumba Tengah, Nusa Tenggara Tim.","Kabupaten Sumba Tengah, Nusa Tenggara Tim.",NUSA TENGGARA TIMUR,,Indonesia,811774878.0,,,-9.5909777,119.5782354,https://maps.google.com/?cid=0x0:0x8a610c347f4a048c,
restaurant,Restoran,RUMAH MAKAN MADA,"Jl. Waibakul, Anakalang, Kec. Katikutana, Kabupaten Sumba Tengah, Nusa Tenggara Tim.","Kabupaten Sumba Tengah, Nusa Tenggara Tim.",NUSA TENGGARA TIMUR,,Indonesia,8113553909.0,,,-9.5912428,119.5742033,https://maps.google.com/?cid=0x0:0xd4c95f8dc28a3b0e,
restaurant,Masakan Asia,Rumah Makan Sonetta,"9JW2+2V4, Wai Rasa, Kec. Umbu Ratu Nggay Bar., Kabupaten Sumba Tengah, Nusa Tenggara Tim.","Kabupaten Sumba Tengah, Nusa Tenggara Tim.",NUSA TENGGARA TIMUR,,Indonesia,82141063319.0,,,-9.6049811,119.602208,https://maps.google.com/?cid=0x0:0x74743c4e836a74f6,
restaurant,Indonesia,Warung Kuning,"CH4F+24J, Unnamed Road, Anakalang, Kec. Katikutana, Kabupaten Sumba Tengah, Nusa Tenggara Tim.","Kabupaten Sumba Tengah, Nusa Tenggara Tim.",NUSA TENGGARA TIMUR,,Indonesia,81298449940.0,,,-9.5949079,119.5727672,https://maps.google.com/?cid=0x0:0xdee35fdd2e091776,
restaurant,Rumah Makan,Rumah Makan Pondok Bambu,"9C6C+RP6, Kp. Sawah, Kec. Kota Waikabubak, Kabupaten Sumba Barat, Nusa Tenggara Tim.","Kabupaten Sumba Barat, Nusa Tenggara Tim.",NUSA TENGGARA TIMUR,,Indonesia,81338595964.0,,,-9.637967,119.4217657,https://maps.google.com/?cid=0x0:0x3196530451f3d0e9,
restaurant,Bakso,Warung Bakso Sido Mulyo,"9HXW+Q5C, Wai Rasa, Kec. Umbu Ratu Nggay Bar., Kabupaten Sumba Tengah, Nusa Tenggara Tim.","Kabupaten Sumba Tengah, Nusa Tenggara Tim.",NUSA TENGGARA TIMUR,,Indonesia,,,,-9.6005718,119.5954006,https://maps.google.com/?cid=0x0:0x475385fd2bc731dc,
restaurant,Restoran,HF Resto  Boutique,"Jl. Kenari No.88, Radamata, Kec. Kota Tambolaka, Kabupaten Sumba Barat Daya, Nusa Tenggara Tim.","Kabupaten Sumba Barat Daya, Nusa Tenggara Tim.",NUSA TENGGARA TIMUR,,Indonesia,82143538789.0,,,-9.4160077,119.2408536,https://maps.google.com/?cid=0x0:0xd45aeb2593645658,
restaurant,Restoran,Elcafe Sumba,"Matawai, Kec. Kota Waingapu, Kabupaten Sumba Timur, Nusa Tenggara Tim.","Kabupaten Sumba Timur, Nusa Tenggara Tim.",NUSA TENGGARA TIMUR,,Indonesia,81238246474.0,,,-9.6541853,120.263791,https://maps.google.com/?cid=0x0:0xf8e772e0e7ecd0d1,
restaurant,Bakso,MIE AYAM MALANG,"9JW2+3QQ, Wai Rasa, Kec. Umbu Ratu Nggay Bar., Kabupaten Sumba Tengah, Nusa Tenggara Tim.","Kabupaten Sumba Tengah, Nusa Tenggara Tim.",NUSA TENGGARA TIMUR,,Indonesia,,,,-9.6047846,119.6019745,https://maps.google.com/?cid=0x0:0xc269b8371c50e4c7,
restaurant,Indonesia,Rumah Makan Arema,"CH5G+PWJ, Anakalang, Kec. Katikutana, Kabupaten Sumba Tengah, Nusa Tenggara Tim.","Kabupaten Sumba Tengah, Nusa Tenggara Tim.",NUSA TENGGARA TIMUR,,Indonesia,,,,-9.5906549,119.5772613,https://maps.google.com/?cid=0x0:0x54d586d088aee3e7,
restaurant,Indonesia,Depot Mbak Wiwin,"Anakalang, Kec. Katikutana, Kabupaten Sumba Tengah, Nusa Tenggara Tim.","Kabupaten Sumba Tengah, Nusa Tenggara Tim.",NUSA TENGGARA TIMUR,,Indonesia,81233233491.0,,,-9.5954888,119.5726454,https://maps.google.com/?cid=0x0:0x399ffb6a5167e9d6,
restaurant,Rumah Makan,Rumah Makan Gailar,"CH69+66P, Anakalang, Kec. Katikutana, Kabupaten Sumba Tengah, Nusa Tenggara Tim.","Kabupaten Sumba Tengah, Nusa Tenggara Tim.",NUSA TENGGARA TIMUR,,Indonesia,,,,-9.5894022,119.5680717,https://maps.google.com/?cid=0x0:0x6d4b388a170534eb,
restaurant,Padang,Yai O' Cafe,"9HXW+Q68, Wai Rasa, Kec. Umbu Ratu Nggay Bar., Kabupaten Sumba Tengah, Nusa Tenggara Tim.","Kabupaten Sumba Tengah, Nusa Tenggara Tim.",NUSA TENGGARA TIMUR,,Indonesia,82247082711.0,,,-9.6005919,119.5955791,https://maps.google.com/?cid=0x0:0x619e7f70e95efab1,
restaurant,Kedai Kopi,TALORA KOFFIE,"Anakalang, Kec. Katikutana, Kabupaten Sumba Tengah, Nusa Tenggara Tim.","Kabupaten Sumba Tengah, Nusa Tenggara Tim.",NUSA TENGGARA TIMUR,,Indonesia,81246250231.0,,,-9.5904582,119.577484,https://maps.google.com/?cid=0x0:0xb8adcc9c13629b4b,
restaurant,Padang,Restu Bundo,"9JW2+G83, Wai Rasa, Kec. Umbu Ratu Nggay Bar., Kabupaten Sumba Tengah, Nusa Tenggara Tim.","Kabupaten Sumba Tengah, Nusa Tenggara Tim.",NUSA TENGGARA TIMUR,,Indonesia,82144040026.0,,,-9.6037328,119.6008096,https://maps.google.com/?cid=0x0:0x4bc56210c619564a,
restaurant,Nasi Goreng,Warung Kanaya,"9HCM+7F3, Tana Modu, Kec. Katikutana Sel., Kabupaten Sumba Tengah, Nusa Tenggara Tim.","Kabupaten Sumba Tengah, Nusa Tenggara Tim.",NUSA TENGGARA TIMUR,,Indonesia,81246738499.0,,,-9.6293601,119.5836812,https://maps.google.com/?cid=0x0:0x620dbf33ce6a4660,
restaurant,restaurant,Wisma Solapora,"CH3F+247, Anakalang, Kec. Katikutana, Kabupaten Sumba Tengah, Nusa Tenggara Tim.","Kabupaten Sumba Tengah, Nusa Tenggara Tim.",NUSA TENGGARA TIMUR,,Indonesia,,,,-9.5974679,119.5727914,https://maps.google.com/?cid=0x0:0xc0cec00aade0e775,
restaurant,Tujuan Wisata,Air Terjun Lapopu,"8FCV+F3Q, Manurara, Kec. Katikutana Sel., Kabupaten Sumba Tengah, Nusa Tenggara Tim.","Kabupaten Sumba Tengah, Nusa Tenggara Tim.",NUSA TENGGARA TIMUR,,Indonesia,82221477093.0,,,-9.6787759,119.4927235,https://maps.google.com/?cid=0x0:0x3e214b0555912b37,
restaurant,Restoran,KEDAI WINU KARABI,"9J82+5J6, Konda Maloba, Kec. Katikutana Sel., Kabupaten Sumba Tengah, Nusa Tenggara Tim.","Kabupaten Sumba Tengah, Nusa Tenggara Tim.",NUSA TENGGARA TIMUR,,Indonesia,,,,-9.6345935,119.6015009,https://maps.google.com/?cid=0x0:0xf204576f4c915b2d,
restaurant,Rumah Kayu,Patau kajia ( Mintonius Umbu Djala),"CH25+C6, Kabela Wuntu, Kec. Katikutana, Kabupaten Sumba Tengah, Nusa Tenggara Tim.","Kabupaten Sumba Tengah, Nusa Tenggara Tim.",NUSA TENGGARA TIMUR,,Indonesia,,,,-9.598909,119.558083,https://maps.google.com/?cid=0x0:0x14fe0bf6cbdae12e,
restaurant,Kedai Kopi,Uma paita kedai,"CH69+CXF, Anakalang, Kec. Katikutana, Kabupaten Sumba Tengah, Nusa Tenggara Tim.","Kabupaten Sumba Tengah, Nusa Tenggara Tim.",NUSA TENGGARA TIMUR,,Indonesia,81317453710.0,,,-9.5889343,119.5699205,https://maps.google.com/?cid=0x0:0x1efc21344487ea89,
restaurant,Gereja Kristen,Wailolung,"9GWP+48, Mata Woga, Kec. Katikutana, Kabupaten Sumba Tengah, Nusa Tenggara Tim.","Kabupaten Sumba Tengah, Nusa Tenggara Tim.",NUSA TENGGARA TIMUR,,Indonesia,,,,-9.6046313,119.5358728,https://maps.google.com/?cid=0x0:0x4e3e76464a9803f8,
restaurant,Kedai Kopi,KEDAI KPK Sumba Tengah,"9JR7+4VV, Jl Wai Ngapu-way bakul, Wai Rasa, Kec. Umbu Ratu Nggay Bar., Kabupaten Sumba Tengah, Nusa Tenggara Tim.","Kabupaten Sumba Tengah, Nusa Tenggara Tim.",NUSA TENGGARA TIMUR,,Indonesia,,,,-9.6096349,119.6146853,https://maps.google.com/?cid=0x0:0xc616a5510d7476e2,
restaurant,Kedai Kopi,ans umbu punk,"CHCJ+VF3, Anajiaka, Kec. Umbu Ratu Nggay Bar., Kabupaten Sumba Tengah, Nusa Tenggara Tim.","Kabupaten Sumba Tengah, Nusa Tenggara Tim.",NUSA TENGGARA TIMUR,,Indonesia,82242657648.0,,,-9.5778692,119.5811585,https://maps.google.com/?cid=0x0:0xbb71f3105efe2c20,
restaurant,restaurant,Kec. Mamboro,"Kabupaten Sumba Tengah, Nusa Tenggara Tim.","Kabupaten Sumba Tengah, Nusa Tenggara Tim.",NUSA TENGGARA TIMUR,,Indonesia,,,,-9.3815169,119.5397707,https://maps.google.com/?cid=0x0:0xd178484c806754d1,
restaurant,restaurant,La paillote,"JHVF+GR, Manu Wolu, Kec. Mamboro, Kabupaten Sumba Tengah, Nusa Tenggara Tim.","Kabupaten Sumba Tengah, Nusa Tenggara Tim.",NUSA TENGGARA TIMUR,,Indonesia,81139600235.0,,,-9.3562041,119.5745513,https://maps.google.com/?cid=0x0:0xd673d3f57688da22,
restaurant,Perhimpunan Pengembang Perumahan,Mamboro,"JG7V+GV4, Wendewa Utara, Kec. Mamboro, Kabupaten Sumba Tengah, Nusa Tenggara Tim.","Kabupaten Sumba Tengah, Nusa Tenggara Tim.",NUSA TENGGARA TIMUR,,Indonesia,81359712135.0,,,-9.3862717,119.5447676,https://maps.google.com/?cid=0x0:0xc99e77ea90e937b7,
restaurant,Bakso,Warung makan sejati,"JG9R+6QF, Wendewa Utara, Kec. Mamboro, Kabupaten Sumba Tengah, Nusa Tenggara Tim.","Kabupaten Sumba Tengah, Nusa Tenggara Tim.",NUSA TENGGARA TIMUR,,Indonesia,82236128518.0,,,-9.3821813,119.5411373,https://maps.google.com/?cid=0x0:0xb7ee3a2d0d66c6f8,
restaurant,Restoran,Makan Dulu Restaurant by the Sumba Hospitality Foundation,"Kalena Wano, Kec. Loura, Kabupaten Sumba Barat Daya, Nusa Tenggara Tim.","Kabupaten Sumba Barat Daya, Nusa Tenggara Tim.",NUSA TENGGARA TIMUR,,Indonesia,81239230989.0,,,-9.4318327,119.2450173,https://maps.google.com/?cid=0x0:0xfc3caaac08694be,
restaurant,Restoran,Dapur Sumba,"Radamata, Kec. Loura, Kabupaten Sumba Barat Daya, Nusa Tenggara Tim. 87254","Kec. Loura, Kabupaten Sumba Barat Daya",NUSA TENGGARA TIMUR,87254.0,Indonesia,81353315055.0,,,-9.4167954,119.245971,https://maps.google.com/?cid=0x0:0xb774a37a3fc0df4d,
restaurant,restaurant,Mamboro,"Kec. Palu Utara, Kota Palu, Sulawesi Tengah","Kota Palu, Sulawesi Tengah",NUSA TENGGARA TIMUR,,Indonesia,,,,-0.7934601,119.8930904,https://maps.google.com/?cid=0x0:0xd22639a8282b47e2,
restaurant,Bakso,Warung podcast,"Wendewa Utara, Kec. Mamboro, Kabupaten Sumba Tengah, Nusa Tenggara Tim.","Kabupaten Sumba Tengah, Nusa Tenggara Tim.",NUSA TENGGARA TIMUR,,Indonesia,,,,-9.3895625,119.5381875,https://maps.google.com/?cid=0x0:0x7f94efc02782366f,
restaurant,Padang,Rumah makan pangkep mamboro,"Jl. Trans Sulawesi, Mamboro, Kec. Palu Utara, Kota Palu, Sulawesi Tengah 94148","Mamboro, Kec. Palu Utara, Kota Palu",NUSA TENGGARA TIMUR,94148.0,Indonesia,81241253457.0,,,-0.8106179,119.8778514,https://maps.google.com/?cid=0x0:0x154967248dd3822b,
restaurant,Toko Makanan,Warung petobo,"5VMJ+JP, Mamboro, Kec. Palu Utara, Kota Palu, Sulawesi Tengah","Kota Palu, Sulawesi Tengah",NUSA TENGGARA TIMUR,,Indonesia,,,,-0.8159327,119.881821,https://maps.google.com/?cid=0x0:0x878cece7f7260901,
restaurant,Nasi,warung maput mamboro,"Jl. Mantilayo, Mamboro, Kec. Palu Utara, Kota Palu, Sulawesi Tengah 94148","Mamboro, Kec. Palu Utara, Kota Palu",NUSA TENGGARA TIMUR,94148.0,Indonesia,81242779765.0,,,-0.7938139,119.884294,https://maps.google.com/?cid=0x0:0x821d26fd203e0fb8,
restaurant,Sarapan,Warung Berkah Mamboro,"6V4C+8CM, Jl. Singgani, Mamboro, Kec. Palu Utara, Kota Palu, Sulawesi Tengah 94145","Jl. Singgani, Mamboro, Kec. Palu Utara, Kota Palu",NUSA TENGGARA TIMUR,94145.0,Indonesia,82358742502.0,,,-0.794171,119.8710426,https://maps.google.com/?cid=0x0:0xfc569f719209c0c,
restaurant,restaurant,Betutu Bli Widom,"5VXG+9VQ, Jl. Trans Sulawesi, Mamboro, Kec. Palu Utara, Kota Palu, Sulawesi Tengah","Kota Palu, Sulawesi Tengah",NUSA TENGGARA TIMUR,,Indonesia,,,,-0.801576,119.8772199,https://maps.google.com/?cid=0x0:0x364af92fea1538ec,
restaurant,Bakso,Warung Makan Bakso  Mie Ayam Mandiri Barokah,"Mamboro, Kec. Palu Utara, Kota Palu, Sulawesi Tengah 94145","Kec. Palu Utara, Kota Palu",NUSA TENGGARA TIMUR,94145.0,Indonesia,85732854900.0,,,-0.7888372,119.8700187,https://maps.google.com/?cid=0x0:0x7f2d2150e4804bdc,
restaurant,Restoran,Warung Makan Mas Joko Mamboro,"6V7J+548, Jl. Karana, Mamboro, Kec. Palu Utara, Kota Palu, Sulawesi Tengah 94145","Jl. Karana, Mamboro, Kec. Palu Utara, Kota Palu",NUSA TENGGARA TIMUR,94145.0,Indonesia,,,,-0.7870993,119.8803308,https://maps.google.com/?cid=0x0:0x520ad13b4133688e,
restaurant,Restoran,Warung Tepi Laut,"5VXG+FR7, Jl. Trans Sulawesi, Mamboro, Kec. Palu Utara, Kota Palu, Sulawesi Tengah 94145","Jl. Trans Sulawesi, Mamboro, Kec. Palu Utara, Kota Palu",NUSA TENGGARA TIMUR,94145.0,Indonesia,,,,-0.8013495,119.8770408,https://maps.google.com/?cid=0x0:0x9f41b27a2ebf3f10,
restaurant,Kedai Kopi,lentora cafe,"5VXJ+P29, Mamboro, Kec. Palu Utara, Kota Palu, Sulawesi Tengah","Kota Palu, Sulawesi Tengah",NUSA TENGGARA TIMUR,,Indonesia,85392168757.0,,,-0.8007128,119.8801233,https://maps.google.com/?cid=0x0:0x157665a78efc1f69,
restaurant,Restoran,Bakso Gajah Mungkur,"Jl. Thalua Konchi, Mamboro, Kec. Palu Utara, Kota Palu, Sulawesi Tengah 94145","Mamboro, Kec. Palu Utara, Kota Palu",NUSA TENGGARA TIMUR,94145.0,Indonesia,83838710070.0,,,-0.7882922,119.8722723,https://maps.google.com/?cid=0x0:0x99547a511dd7b5b0,
restaurant,Restoran,Warung Makan Hijau Daun,"Jl. Thalua Konchi No.5 Blok A, Mamboro, Kec. Palu Utara, Kota Palu, Sulawesi Tengah 94145","Mamboro, Kec. Palu Utara, Kota Palu",NUSA TENGGARA TIMUR,94145.0,Indonesia,81341476868.0,,,-0.789271,119.868747,https://maps.google.com/?cid=0x0:0xdc563a5f708aa12f,
restaurant,Restoran,WARUNG MAKAN UNI,"KIOS RUMAH UJUNG WARNA KUNING, JL,LENTORA DEPAN KOST NAGAYYA BELAKANG, Kota Palu, Sulawesi Tengah 87258","JL,LENTORA DEPAN KOST NAGAYYA BELAKANG, Kota Palu",NUSA TENGGARA TIMUR,87258.0,Indonesia,85216000592.0,,,-0.7930655,119.8726027,https://maps.google.com/?cid=0x0:0xc9ac805a5422ea98,
restaurant,Nasi,Rumah Makan Mas Heru,"6V6C+HF2, Jl. Thalua Konchi, Mamboro, Kec. Palu Utara, Kota Palu, Sulawesi Tengah 94145","Jl. Thalua Konchi, Mamboro, Kec. Palu Utara, Kota Palu",NUSA TENGGARA TIMUR,94145.0,Indonesia,,,,-0.7886227,119.8711446,https://maps.google.com/?cid=0x0:0x15ac8fac547f3a9d,
restaurant,Dapur Umum,warmindo mamboro pedas,"6V3F+XW5, Mamboro, Kec. Palu Utara, Kota Palu, Sulawesi Tengah","Kota Palu, Sulawesi Tengah",NUSA TENGGARA TIMUR,,Indonesia,,,,-0.7951018,119.874857,https://maps.google.com/?cid=0x0:0x47ed74d0e620a80c,
restaurant,restaurant,Kedai Aisyah Mamboro,"Jl. Karana BTN II No.1 blok c, Mamboro, Kec. Palu Utara, Kota Palu, Sulawesi Tengah 94145","Mamboro, Kec. Palu Utara, Kota Palu",NUSA TENGGARA TIMUR,94145.0,Indonesia,81355200608.0,,,-0.7873942,119.877807,https://maps.google.com/?cid=0x0:0x510868a1c0faf664,
restaurant,Sarapan,Warung nasi kuning,"6V2F+FWH, Unnamed Road, Mamboro, Kec. Palu Utara, Kota Palu, Sulawesi Tengah 94147","Unnamed Road, Mamboro, Kec. Palu Utara, Kota Palu",NUSA TENGGARA TIMUR,94147.0,Indonesia,,,,-0.7988095,119.8748459,https://maps.google.com/?cid=0x0:0x80520e94da848cfd,
restaurant,Rumah Makan,Warung Makan Setia Menanti,"6V6G+X46, Jl. Karana, Mamboro, Kec. Palu Utara, Kota Palu, Sulawesi Tengah 94145","Jl. Karana, Mamboro, Kec. Palu Utara, Kota Palu",NUSA TENGGARA TIMUR,94145.0,Indonesia,,,,-0.7875898,119.875268,https://maps.google.com/?cid=0x0:0xdac5044755f6c8c0,
restaurant,Restoran,TerraSarapan,"6V5F+GFH, Jl. Trans Sulawesi, Mamboro, Kec. Palu Utara, Kota Palu, Sulawesi Tengah","Kota Palu, Sulawesi Tengah",NUSA TENGGARA TIMUR,,Indonesia,87852913339.0,,,-0.7911909,119.8737331,https://maps.google.com/?cid=0x0:0x8aef7bfff54168eb,
restaurant,Ayam,Hisana Fried Chicken Mamboro,"Jl. Trans Sulawesi No.167, Mamboro, Kec. Palu Utara, Kota Palu, Sulawesi Tengah 94145","Mamboro, Kec. Palu Utara, Kota Palu",NUSA TENGGARA TIMUR,94145.0,Indonesia,,,,-0.7878025,119.8726493,https://maps.google.com/?cid=0x0:0x245eee7c489b44d0,
restaurant,Rumah Makan,Kedai Jullo’s,"depan kios sebelah, Jl. LIK Layana Indah, Mamboro, Kec. Palu Utara, Kota Palu, Sulawesi Tengah 94147","Jl. LIK Layana Indah, Mamboro, Kec. Palu Utara, Kota Palu",NUSA TENGGARA TIMUR,94147.0,Indonesia,81343409505.0,,,-0.8151235,119.8838313,https://maps.google.com/?cid=0x0:0x99fafd67be7a21a2,
restaurant,restaurant,Kec. Umbu Ratu Nggay,"Kabupaten Sumba Tengah, Nusa Tenggara Tim.","Kabupaten Sumba Tengah, Nusa Tenggara Tim.",NUSA TENGGARA TIMUR,,Indonesia,,,,-9.5320614,119.7114631,https://maps.google.com/?cid=0x0:0x3e1b41bfd00caaee,
restaurant,Padang,Yai O' Cafe,"9HXW+Q68, Wai Rasa, Kec. Umbu Ratu Nggay Bar., Kabupaten Sumba Tengah, Nusa Tenggara Tim.","Kabupaten Sumba Tengah, Nusa Tenggara Tim.",NUSA TENGGARA TIMUR,,Indonesia,82247082711.0,,,-9.6005919,119.5955791,https://maps.google.com/?cid=0x0:0x619e7f70e95efab1,
restaurant,Rumah Makan,RM PARAHIANGAN 2,"8RXC+3HP, Unnamed Road, Padira Tana, Umbu Ratu Nggay, Central Sumba Regency, East Nusa Tenggara","Kabupaten Sumba Tengah, Nusa Tenggara Tim.",NUSA TENGGARA TIMUR,,Indonesia,,,,-9.6522834,119.8214389,https://maps.google.com/?cid=0x0:0xec5a22ea0fc5041b,
restaurant,restaurant,Warung Makan Maharang,"8RXH+6JF, Padira Tana, Kec. Umbu Ratu Nggay, Kabupaten Sumba Tengah, Nusa Tenggara Tim.","Kabupaten Sumba Tengah, Nusa Tenggara Tim.",NUSA TENGGARA TIMUR,,Indonesia,,,,-9.6508912,119.828664,https://maps.google.com/?cid=0x0:0x7870878f46ed3393,
restaurant,restaurant,RM. Lembah Hijau,"8RWF+M5R, Padira Tana, Kec. Umbu Ratu Nggay, Kabupaten Sumba Tengah, Nusa Tenggara Tim.","Kabupaten Sumba Tengah, Nusa Tenggara Tim.",NUSA TENGGARA TIMUR,,Indonesia,,,,-9.6532565,119.8228977,https://maps.google.com/?cid=0x0:0x26c6016d8233214,
restaurant,Restoran,RM. PARAHYANGAN,"8RWC+9XM, langgaliru, Padira Tana, Kec. Umbu Ratu Nggay, Kabupaten Sumba Tengah, Nusa Tenggara Tim.","Kabupaten Sumba Tengah, Nusa Tenggara Tim.",NUSA TENGGARA TIMUR,,Indonesia,,,,-9.6540392,119.8224373,https://maps.google.com/?cid=0x0:0xec45dc738ac18c13,
restaurant,restaurant,Kec. Umbu Ratu Nggay Bar.,"Kabupaten Sumba Tengah, Nusa Tenggara Tim.","Kabupaten Sumba Tengah, Nusa Tenggara Tim.",NUSA TENGGARA TIMUR,,Indonesia,,,,-9.6106513,119.6237901,https://maps.google.com/?cid=0x0:0x60c5b24a288eb10b,
restaurant,Masakan Asia,Rumah Makan Sonetta,"9JW2+2V4, Wai Rasa, Kec. Umbu Ratu Nggay Bar., Kabupaten Sumba Tengah, Nusa Tenggara Tim.","Kabupaten Sumba Tengah, Nusa Tenggara Tim.",NUSA TENGGARA TIMUR,,Indonesia,82141063319.0,,,-9.6049811,119.602208,https://maps.google.com/?cid=0x0:0x74743c4e836a74f6,
restaurant,Restoran,Rumah Makan Pondok Salero,"CH5H+J75, Unnamed Road, Anakalang, Kec. Katikutana, Kabupaten Sumba Tengah, Nusa Tenggara Tim.","Kabupaten Sumba Tengah, Nusa Tenggara Tim.",NUSA TENGGARA TIMUR,,Indonesia,811774878.0,,,-9.5909777,119.5782354,https://maps.google.com/?cid=0x0:0x8a610c347f4a048c,
restaurant,Bakso,Warung Bakso Sido Mulyo,"9HXW+Q5C, Wai Rasa, Kec. Umbu Ratu Nggay Bar., Kabupaten Sumba Tengah, Nusa Tenggara Tim.","Kabupaten Sumba Tengah, Nusa Tenggara Tim.",NUSA TENGGARA TIMUR,,Indonesia,,,,-9.6005718,119.5954006,https://maps.google.com/?cid=0x0:0x475385fd2bc731dc,
restaurant,Restoran,RUMAH MAKAN MADA,"Jl. Waibakul, Anakalang, Kec. Katikutana, Kabupaten Sumba Tengah, Nusa Tenggara Tim.","Kabupaten Sumba Tengah, Nusa Tenggara Tim.",NUSA TENGGARA TIMUR,,Indonesia,8113553909.0,,,-9.5912428,119.5742033,https://maps.google.com/?cid=0x0:0xd4c95f8dc28a3b0e,
restaurant,Nasi Goreng,Warung Hikmah,"CH5H+M3F, Jl. Waibakul, Anakalang, Kec. Katikutana, Kabupaten Sumba Tengah, Nusa Tenggara Tim.","Kabupaten Sumba Tengah, Nusa Tenggara Tim.",NUSA TENGGARA TIMUR,,Indonesia,81239077811.0,,,-9.5908208,119.5776797,https://maps.google.com/?cid=0x0:0xccd004270635b921,
restaurant,Padang,Yai O' Cafe,"9HXW+Q68, Wai Rasa, Kec. Umbu Ratu Nggay Bar., Kabupaten Sumba Tengah, Nusa Tenggara Tim.","Kabupaten Sumba Tengah, Nusa Tenggara Tim.",NUSA TENGGARA TIMUR,,Indonesia,82247082711.0,,,-9.6005919,119.5955791,https://maps.google.com/?cid=0x0:0x619e7f70e95efab1,
restaurant,Padang,Restu Bundo,"9JW2+G83, Wai Rasa, Kec. Umbu Ratu Nggay Bar., Kabupaten Sumba Tengah, Nusa Tenggara Tim.","Kabupaten Sumba Tengah, Nusa Tenggara Tim.",NUSA TENGGARA TIMUR,,Indonesia,82144040026.0,,,-9.6037328,119.6008096,https://maps.google.com/?cid=0x0:0x4bc56210c619564a,
restaurant,Indonesia,Depot Mbak Wiwin,"Anakalang, Kec. Katikutana, Kabupaten Sumba Tengah, Nusa Tenggara Tim.","Kabupaten Sumba Tengah, Nusa Tenggara Tim.",NUSA TENGGARA TIMUR,,Indonesia,81233233491.0,,,-9.5954888,119.5726454,https://maps.google.com/?cid=0x0:0x399ffb6a5167e9d6,
restaurant,Kedai Kopi,ans umbu punk,"CHCJ+VF3, Anajiaka, Kec. Umbu Ratu Nggay Bar., Kabupaten Sumba Tengah, Nusa Tenggara Tim.","Kabupaten Sumba Tengah, Nusa Tenggara Tim.",NUSA TENGGARA TIMUR,,Indonesia,82242657648.0,,,-9.5778692,119.5811585,https://maps.google.com/?cid=0x0:0xbb71f3105efe2c20,
restaurant,Rumah Makan,Rumah Makan Gailar,"CH69+66P, Anakalang, Kec. Katikutana, Kabupaten Sumba Tengah, Nusa Tenggara Tim.","Kabupaten Sumba Tengah, Nusa Tenggara Tim.",NUSA TENGGARA TIMUR,,Indonesia,,,,-9.5894022,119.5680717,https://maps.google.com/?cid=0x0:0x6d4b388a170534eb,
restaurant,Indonesia,Rumah Makan Arema,"CH5G+PWJ, Anakalang, Kec. Katikutana, Kabupaten Sumba Tengah, Nusa Tenggara Tim.","Kabupaten Sumba Tengah, Nusa Tenggara Tim.",NUSA TENGGARA TIMUR,,Indonesia,,,,-9.5906549,119.5772613,https://maps.google.com/?cid=0x0:0x54d586d088aee3e7,
restaurant,Kedai Kopi,KEDAI KPK Sumba Tengah,"9JR7+4VV, Jl Wai Ngapu-way bakul, Wai Rasa, Kec. Umbu Ratu Nggay Bar., Kabupaten Sumba Tengah, Nusa Tenggara Tim.","Kabupaten Sumba Tengah, Nusa Tenggara Tim.",NUSA TENGGARA TIMUR,,Indonesia,,,,-9.6096349,119.6146853,https://maps.google.com/?cid=0x0:0xc616a5510d7476e2,
cafe,cafe,Nusa Tenggara Tim.,,Nusa Tenggara Tim.,NUSA TENGGARA TIMUR,,Indonesia,,,,-8.6573819,121.0793705,https://maps.google.com/?cid=0x0:0x1030bfbcaf71ae0,
cafe,Kedai Kopi,TALORA KOFFIE,"Anakalang, Kec. Katikutana, Kabupaten Sumba Tengah, Nusa Tenggara Tim.","Kabupaten Sumba Tengah, Nusa Tenggara Tim.",NUSA TENGGARA TIMUR,,Indonesia,81246250231.0,,,-9.5904582,119.577484,https://maps.google.com/?cid=0x0:0xb8adcc9c13629b4b,
cafe,Restoran,Tana Katto Cafe,"Jl. Pattimura No.3, Maliti, Kec. Kota Waikabubak, Kabupaten Sumba Barat, Nusa Tenggara Tim. 87214","Maliti, Kec. Kota Waikabubak, Kabupaten Sumba Barat",NUSA TENGGARA TIMUR,87214.0,Indonesia,81237706599.0,,,-9.6373732,119.4086778,https://maps.google.com/?cid=0x0:0x40610e505b22ee98,
cafe,Minimarket,Familie Mart,"kamp pasunga, Jl. Waibakul, Anakalang, Kec. Katikutana, Kabupaten Sumba Tengah, Nusa Tenggara Tim. 87282","Jl. Waibakul, Anakalang, Kec. Katikutana, Kabupaten Sumba Tengah",NUSA TENGGARA TIMUR,87282.0,Indonesia,81353759848.0,,,-9.5895174,119.5749676,https://maps.google.com/?cid=0x0:0xde08e10c74af1b9f,
cafe,Kedai Kopi,Kedai sajual,"9C85+C8C, Jalan selekta Unnamed Road, Wailiang, Kec. Kota Waikabubak, Kabupaten Sumba Barat, Nusa Tenggara Tim.","Kabupaten Sumba Barat, Nusa Tenggara Tim.",NUSA TENGGARA TIMUR,,Indonesia,81238726348.0,,,-9.6339329,119.4082609,https://maps.google.com/?cid=0x0:0x6d0a079129e5eeb9,
cafe,Toko bahan makanan,Warung Sembako Ketikajeviri,"CH46+PQ3, Kabela Wuntu, Kec. Katikutana, Kabupaten Sumba Tengah, Nusa Tenggara Tim. 87282","Kabela Wuntu, Kec. Katikutana, Kabupaten Sumba Tengah",NUSA TENGGARA TIMUR,87282.0,Indonesia,85331731152.0,,,-9.5929329,119.5621484,https://maps.google.com/?cid=0x0:0x41ab8cd29b400371,
cafe,cafe,Basement Cafe,"Jl. Tompello, Oetete, Kec. Oebobo, Kota Kupang, Nusa Tenggara Tim.","Kota Kupang, Nusa Tenggara Tim.",NUSA TENGGARA TIMUR,,Indonesia,,,,-10.164066,123.5855774,https://maps.google.com/?cid=0x0:0xd88abd2b3e7facd9,
cafe,Kedai Kopi,Halte Kopi Atambua,"VVWX+H8X, Berdao, Kec. Atambua Bar., Kabupaten Belu, Nusa Tenggara Tim.","Kabupaten Belu, Nusa Tenggara Tim.",NUSA TENGGARA TIMUR,,Indonesia,,,,-9.103515,124.8983525,https://maps.google.com/?cid=0x0:0xcb9082c6bb9c78b8,
cafe,Kedai Kopi,Bondi Cafe  Steak Kupang,"RJX7+RXC, Klp. Lima, Kec. Klp. Lima, Kota Kupang, Nusa Tenggara Tim.","Kota Kupang, Nusa Tenggara Tim.",NUSA TENGGARA TIMUR,,Indonesia,81239807522.0,,,-10.1504396,123.6148857,https://maps.google.com/?cid=0x0:0x979ff57b29fb6e53,
cafe,Kedai Kopi,Tempat Nongkrong,"CG2Q+7RR, Jl. Waibakul, Anakalang, Kec. Katikutana, Kabupaten Sumba Tengah, Nusa Tenggara Tim.","Kabupaten Sumba Tengah, Nusa Tenggara Tim.",NUSA TENGGARA TIMUR,,Indonesia,,,,-9.599256,119.5395096,https://maps.google.com/?cid=0x0:0x42f2ab8a83450aa9,
cafe,Indonesia,Cosy Corner Cafe  Restaurant,"Jln. Air Terjun, Selatan, Tetebatu, Kec. Sikur, Kabupaten Lombok Timur, Nusa Tenggara Bar. 83662","Selatan, Tetebatu, Kec. Sikur, Kabupaten Lombok Timur",NUSA TENGGARA TIMUR,83662.0,Indonesia,82146797440.0,,,-8.5614526,116.4218987,https://maps.google.com/?cid=0x0:0xb8234dc84f717a20,
cafe,Warnet,Amosha Cell,"Liangu Dongu No.SP 2, Lolukalay, Waibakul, Kabupaten Sumba Tengah, Nusa Tenggara Tim. 87282","Lolukalay, Waibakul, Kabupaten Sumba Tengah",NUSA TENGGARA TIMUR,87282.0,Indonesia,82188179961.0,,,-9.6687338,119.6123729,https://maps.google.com/?cid=0x0:0xeb550e8d32bfa43a,
cafe,cafe,Kec. Katikutana,"Kabupaten Sumba Tengah, Nusa Tenggara Tim.","Kabupaten Sumba Tengah, Nusa Tenggara Tim.",NUSA TENGGARA TIMUR,,Indonesia,,,,-9.5892351,119.5747285,https://maps.google.com/?cid=0x0:0xc4cfac4db0437390,
cafe,Padang,Yai O' Cafe,"9HXW+Q68, Wai Rasa, Kec. Umbu Ratu Nggay Bar., Kabupaten Sumba Tengah, Nusa Tenggara Tim.","Kabupaten Sumba Tengah, Nusa Tenggara Tim.",NUSA TENGGARA TIMUR,,Indonesia,82247082711.0,,,-9.6005919,119.5955791,https://maps.google.com/?cid=0x0:0x619e7f70e95efab1,
cafe,Indonesia,Depot Mbak Wiwin,"Anakalang, Kec. Katikutana, Kabupaten Sumba Tengah, Nusa Tenggara Tim.","Kabupaten Sumba Tengah, Nusa Tenggara Tim.",NUSA TENGGARA TIMUR,,Indonesia,81233233491.0,,,-9.5954888,119.5726454,https://maps.google.com/?cid=0x0:0x399ffb6a5167e9d6,
cafe,Indonesia,Rumah Makan Arema,"CH5G+PWJ, Anakalang, Kec. Katikutana, Kabupaten Sumba Tengah, Nusa Tenggara Tim.","Kabupaten Sumba Tengah, Nusa Tenggara Tim.",NUSA TENGGARA TIMUR,,Indonesia,,,,-9.5906549,119.5772613,https://maps.google.com/?cid=0x0:0x54d586d088aee3e7,
cafe,Salon Kecantikan,Cafe  Glory Salon,"CH57+9V7, Jln.Jambu I Pasar Baru, Anakalang, Kec. Katikutana, Kabupaten Sumba Tengah, Nusa Tenggara Tim.","Kabupaten Sumba Tengah, Nusa Tenggara Tim.",NUSA TENGGARA TIMUR,,Indonesia,82340065672.0,,,-9.5915849,119.5646626,https://maps.google.com/?cid=0x0:0xda0bc79279515ab2,
cafe,Restoran,Rumah Makan Pondok Salero,"CH5H+J75, Unnamed Road, Anakalang, Kec. Katikutana, Kabupaten Sumba Tengah, Nusa Tenggara Tim.","Kabupaten Sumba Tengah, Nusa Tenggara Tim.",NUSA TENGGARA TIMUR,,Indonesia,811774878.0,,,-9.5909777,119.5782354,https://maps.google.com/?cid=0x0:0x8a610c347f4a048c,
cafe,Kedai Kopi,Uma paita kedai,"CH69+CXF, Anakalang, Kec. Katikutana, Kabupaten Sumba Tengah, Nusa Tenggara Tim.","Kabupaten Sumba Tengah, Nusa Tenggara Tim.",NUSA TENGGARA TIMUR,,Indonesia,81317453710.0,,,-9.5889343,119.5699205,https://maps.google.com/?cid=0x0:0x1efc21344487ea89,
cafe,Rumah Makan,Rumah Makan Gailar,"CH69+66P, Anakalang, Kec. Katikutana, Kabupaten Sumba Tengah, Nusa Tenggara Tim.","Kabupaten Sumba Tengah, Nusa Tenggara Tim.",NUSA TENGGARA TIMUR,,Indonesia,,,,-9.5894022,119.5680717,https://maps.google.com/?cid=0x0:0x6d4b388a170534eb,
cafe,Restoran,RUMAH MAKAN MADA,"Jl. Waibakul, Anakalang, Kec. Katikutana, Kabupaten Sumba Tengah, Nusa Tenggara Tim.","Kabupaten Sumba Tengah, Nusa Tenggara Tim.",NUSA TENGGARA TIMUR,,Indonesia,8113553909.0,,,-9.5912428,119.5742033,https://maps.google.com/?cid=0x0:0xd4c95f8dc28a3b0e,
cafe,Indonesia,Warung Kuning,"CH4F+24J, Unnamed Road, Anakalang, Kec. Katikutana, Kabupaten Sumba Tengah, Nusa Tenggara Tim.","Kabupaten Sumba Tengah, Nusa Tenggara Tim.",NUSA TENGGARA TIMUR,,Indonesia,81298449940.0,,,-9.5949079,119.5727672,https://maps.google.com/?cid=0x0:0xdee35fdd2e091776,
cafe,Nasi Goreng,Warung Hikmah,"CH5H+M3F, Jl. Waibakul, Anakalang, Kec. Katikutana, Kabupaten Sumba Tengah, Nusa Tenggara Tim.","Kabupaten Sumba Tengah, Nusa Tenggara Tim.",NUSA TENGGARA TIMUR,,Indonesia,81239077811.0,,,-9.5908208,119.5776797,https://maps.google.com/?cid=0x0:0xccd004270635b921,
cafe,Restoran,KEDAI WINU KARABI,"9J82+5J6, Konda Maloba, Kec. Katikutana Sel., Kabupaten Sumba Tengah, Nusa Tenggara Tim.","Kabupaten Sumba Tengah, Nusa Tenggara Tim.",NUSA TENGGARA TIMUR,,Indonesia,,,,-9.6345935,119.6015009,https://maps.google.com/?cid=0x0:0xf204576f4c915b2d,
cafe,Kedai Kopi,ans umbu punk,"CHCJ+VF3, Anajiaka, Kec. Umbu Ratu Nggay Bar., Kabupaten Sumba Tengah, Nusa Tenggara Tim.","Kabupaten Sumba Tengah, Nusa Tenggara Tim.",NUSA TENGGARA TIMUR,,Indonesia,82242657648.0,,,-9.5778692,119.5811585,https://maps.google.com/?cid=0x0:0xbb71f3105efe2c20,
cafe,Masakan Asia,Rumah Makan Sonetta,"9JW2+2V4, Wai Rasa, Kec. Umbu Ratu Nggay Bar., Kabupaten Sumba Tengah, Nusa Tenggara Tim.","Kabupaten Sumba Tengah, Nusa Tenggara Tim.",NUSA TENGGARA TIMUR,,Indonesia,82141063319.0,,,-9.6049811,119.602208,https://maps.google.com/?cid=0x0:0x74743c4e836a74f6,
cafe,Gereja Kristen,Wailolung,"9GWP+48, Mata Woga, Kec. Katikutana, Kabupaten Sumba Tengah, Nusa Tenggara Tim.","Kabupaten Sumba Tengah, Nusa Tenggara Tim.",NUSA TENGGARA TIMUR,,Indonesia,,,,-9.6046313,119.5358728,https://maps.google.com/?cid=0x0:0x4e3e76464a9803f8,
cafe,Minimarket,Toko Sinar Pelangi,"CH6F+HG2, Anakalang, Kec. Katikutana, Kabupaten Sumba Tengah, Nusa Tenggara Tim.","Kabupaten Sumba Tengah, Nusa Tenggara Tim.",NUSA TENGGARA TIMUR,,Indonesia,,,,-9.5886207,119.5737543,https://maps.google.com/?cid=0x0:0x7df121cd87ebc7bc,
cafe,cafe,Kec. Katikutana Sel.,"Kabupaten Sumba Tengah, Nusa Tenggara Tim.","Kabupaten Sumba Tengah, Nusa Tenggara Tim.",NUSA TENGGARA TIMUR,,Indonesia,,,,-9.6219405,119.566311,https://maps.google.com/?cid=0x0:0x82c00958893ffd61,
cafe,Padang,Yai O' Cafe,"9HXW+Q68, Wai Rasa, Kec. Umbu Ratu Nggay Bar., Kabupaten Sumba Tengah, Nusa Tenggara Tim.","Kabupaten Sumba Tengah, Nusa Tenggara Tim.",NUSA TENGGARA TIMUR,,Indonesia,82247082711.0,,,-9.6005919,119.5955791,https://maps.google.com/?cid=0x0:0x619e7f70e95efab1,
cafe,Kedai Kopi,TALORA KOFFIE,"Anakalang, Kec. Katikutana, Kabupaten Sumba Tengah, Nusa Tenggara Tim.","Kabupaten Sumba Tengah, Nusa Tenggara Tim.",NUSA TENGGARA TIMUR,,Indonesia,81246250231.0,,,-9.5904582,119.577484,https://maps.google.com/?cid=0x0:0xb8adcc9c13629b4b,
cafe,Indonesia,Rumah Makan Arema,"CH5G+PWJ, Anakalang, Kec. Katikutana, Kabupaten Sumba Tengah, Nusa Tenggara Tim.","Kabupaten Sumba Tengah, Nusa Tenggara Tim.",NUSA TENGGARA TIMUR,,Indonesia,,,,-9.5906549,119.5772613,https://maps.google.com/?cid=0x0:0x54d586d088aee3e7,
cafe,Restoran,Rumah Makan Pondok Salero,"CH5H+J75, Unnamed Road, Anakalang, Kec. Katikutana, Kabupaten Sumba Tengah, Nusa Tenggara Tim.","Kabupaten Sumba Tengah, Nusa Tenggara Tim.",NUSA TENGGARA TIMUR,,Indonesia,811774878.0,,,-9.5909777,119.5782354,https://maps.google.com/?cid=0x0:0x8a610c347f4a048c,
cafe,Salon Kecantikan,Cafe  Glory Salon,"CH57+9V7, Jln.Jambu I Pasar Baru, Anakalang, Kec. Katikutana, Kabupaten Sumba Tengah, Nusa Tenggara Tim.","Kabupaten Sumba Tengah, Nusa Tenggara Tim.",NUSA TENGGARA TIMUR,,Indonesia,82340065672.0,,,-9.5915849,119.5646626,https://maps.google.com/?cid=0x0:0xda0bc79279515ab2,
cafe,Kedai Kopi,Uma paita kedai,"CH69+CXF, Anakalang, Kec. Katikutana, Kabupaten Sumba Tengah, Nusa Tenggara Tim.","Kabupaten Sumba Tengah, Nusa Tenggara Tim.",NUSA TENGGARA TIMUR,,Indonesia,81317453710.0,,,-9.5889343,119.5699205,https://maps.google.com/?cid=0x0:0x1efc21344487ea89,
cafe,Rumah Makan,Rumah Makan Gailar,"CH69+66P, Anakalang, Kec. Katikutana, Kabupaten Sumba Tengah, Nusa Tenggara Tim.","Kabupaten Sumba Tengah, Nusa Tenggara Tim.",NUSA TENGGARA TIMUR,,Indonesia,,,,-9.5894022,119.5680717,https://maps.google.com/?cid=0x0:0x6d4b388a170534eb,
cafe,Restoran,KEDAI WINU KARABI,"9J82+5J6, Konda Maloba, Kec. Katikutana Sel., Kabupaten Sumba Tengah, Nusa Tenggara Tim.","Kabupaten Sumba Tengah, Nusa Tenggara Tim.",NUSA TENGGARA TIMUR,,Indonesia,,,,-9.6345935,119.6015009,https://maps.google.com/?cid=0x0:0xf204576f4c915b2d,
cafe,Restoran,RUMAH MAKAN MADA,"Jl. Waibakul, Anakalang, Kec. Katikutana, Kabupaten Sumba Tengah, Nusa Tenggara Tim.","Kabupaten Sumba Tengah, Nusa Tenggara Tim.",NUSA TENGGARA TIMUR,,Indonesia,8113553909.0,,,-9.5912428,119.5742033,https://maps.google.com/?cid=0x0:0xd4c95f8dc28a3b0e,
cafe,Kedai Kopi,KEDAI KPK Sumba Tengah,"9JR7+4VV, Jl Wai Ngapu-way bakul, Wai Rasa, Kec. Umbu Ratu Nggay Bar., Kabupaten Sumba Tengah, Nusa Tenggara Tim.","Kabupaten Sumba Tengah, Nusa Tenggara Tim.",NUSA TENGGARA TIMUR,,Indonesia,,,,-9.6096349,119.6146853,https://maps.google.com/?cid=0x0:0xc616a5510d7476e2,
cafe,Nasi Goreng,Warung Hikmah,"CH5H+M3F, Jl. Waibakul, Anakalang, Kec. Katikutana, Kabupaten Sumba Tengah, Nusa Tenggara Tim.","Kabupaten Sumba Tengah, Nusa Tenggara Tim.",NUSA TENGGARA TIMUR,,Indonesia,81239077811.0,,,-9.5908208,119.5776797,https://maps.google.com/?cid=0x0:0xccd004270635b921,
cafe,Kedai Kopi,ans umbu punk,"CHCJ+VF3, Anajiaka, Kec. Umbu Ratu Nggay Bar., Kabupaten Sumba Tengah, Nusa Tenggara Tim.","Kabupaten Sumba Tengah, Nusa Tenggara Tim.",NUSA TENGGARA TIMUR,,Indonesia,82242657648.0,,,-9.5778692,119.5811585,https://maps.google.com/?cid=0x0:0xbb71f3105efe2c20,
cafe,Minimarket,Familie Mart,"kamp pasunga, Jl. Waibakul, Anakalang, Kec. Katikutana, Kabupaten Sumba Tengah, Nusa Tenggara Tim. 87282","Jl. Waibakul, Anakalang, Kec. Katikutana, Kabupaten Sumba Tengah",NUSA TENGGARA TIMUR,87282.0,Indonesia,81353759848.0,,,-9.5895174,119.5749676,https://maps.google.com/?cid=0x0:0xde08e10c74af1b9f,
cafe,Gereja Kristen,Wailolung,"9GWP+48, Mata Woga, Kec. Katikutana, Kabupaten Sumba Tengah, Nusa Tenggara Tim.","Kabupaten Sumba Tengah, Nusa Tenggara Tim.",NUSA TENGGARA TIMUR,,Indonesia,,,,-9.6046313,119.5358728,https://maps.google.com/?cid=0x0:0x4e3e76464a9803f8,
cafe,Indonesia,Warung Kuning,"CH4F+24J, Unnamed Road, Anakalang, Kec. Katikutana, Kabupaten Sumba Tengah, Nusa Tenggara Tim.","Kabupaten Sumba Tengah, Nusa Tenggara Tim.",NUSA TENGGARA TIMUR,,Indonesia,81298449940.0,,,-9.5949079,119.5727672,https://maps.google.com/?cid=0x0:0xdee35fdd2e091776,
cafe,Masakan Asia,Rumah Makan Sonetta,"9JW2+2V4, Wai Rasa, Kec. Umbu Ratu Nggay Bar., Kabupaten Sumba Tengah, Nusa Tenggara Tim.","Kabupaten Sumba Tengah, Nusa Tenggara Tim.",NUSA TENGGARA TIMUR,,Indonesia,82141063319.0,,,-9.6049811,119.602208,https://maps.google.com/?cid=0x0:0x74743c4e836a74f6,
cafe,Nasi Goreng,Warung Kanaya,"9HCM+7F3, Tana Modu, Kec. Katikutana Sel., Kabupaten Sumba Tengah, Nusa Tenggara Tim.","Kabupaten Sumba Tengah, Nusa Tenggara Tim.",NUSA TENGGARA TIMUR,,Indonesia,81246738499.0,,,-9.6293601,119.5836812,https://maps.google.com/?cid=0x0:0x620dbf33ce6a4660,
cafe,Minimarket,Toko Sinar Pelangi,"CH6F+HG2, Anakalang, Kec. Katikutana, Kabupaten Sumba Tengah, Nusa Tenggara Tim.","Kabupaten Sumba Tengah, Nusa Tenggara Tim.",NUSA TENGGARA TIMUR,,Indonesia,,,,-9.5886207,119.5737543,https://maps.google.com/?cid=0x0:0x7df121cd87ebc7bc,
cafe,Toko bahan makanan,Warung Sembako Ketikajeviri,"CH46+PQ3, Kabela Wuntu, Kec. Katikutana, Kabupaten Sumba Tengah, Nusa Tenggara Tim. 87282","Kabela Wuntu, Kec. Katikutana, Kabupaten Sumba Tengah",NUSA TENGGARA TIMUR,87282.0,Indonesia,85331731152.0,,,-9.5929329,119.5621484,https://maps.google.com/?cid=0x0:0x41ab8cd29b400371,
cafe,cafe,Kec. Mamboro,"Kabupaten Sumba Tengah, Nusa Tenggara Tim.","Kabupaten Sumba Tengah, Nusa Tenggara Tim.",NUSA TENGGARA TIMUR,,Indonesia,,,,-9.3815169,119.5397707,https://maps.google.com/?cid=0x0:0xd178484c806754d1,
cafe,Perhimpunan Pengembang Perumahan,Mamboro,"JG7V+GV4, Wendewa Utara, Kec. Mamboro, Kabupaten Sumba Tengah, Nusa Tenggara Tim.","Kabupaten Sumba Tengah, Nusa Tenggara Tim.",NUSA TENGGARA TIMUR,,Indonesia,81359712135.0,,,-9.3862717,119.5447676,https://maps.google.com/?cid=0x0:0xc99e77ea90e937b7,
cafe,Bakso,Warung Mama Naya,"JG9Q+9QM, Wendewa Utara, Kec. Mamboro, Kabupaten Sumba Tengah, Nusa Tenggara Tim.","Kabupaten Sumba Tengah, Nusa Tenggara Tim.",NUSA TENGGARA TIMUR,,Indonesia,85337710383.0,,,-9.3815489,119.5394177,https://maps.google.com/?cid=0x0:0x432b209373bc8164,
cafe,Bakso,Warung podcast,"Wendewa Utara, Kec. Mamboro, Kabupaten Sumba Tengah, Nusa Tenggara Tim.","Kabupaten Sumba Tengah, Nusa Tenggara Tim.",NUSA TENGGARA TIMUR,,Indonesia,,,,-9.3895625,119.5381875,https://maps.google.com/?cid=0x0:0x7f94efc02782366f,
cafe,cafe,La paillote,"JHVF+GR, Manu Wolu, Kec. Mamboro, Kabupaten Sumba Tengah, Nusa Tenggara Tim.","Kabupaten Sumba Tengah, Nusa Tenggara Tim.",NUSA TENGGARA TIMUR,,Indonesia,81139600235.0,,,-9.3562041,119.5745513,https://maps.google.com/?cid=0x0:0xd673d3f57688da22,
cafe,Toko umum,Kios RATU,"JF57+4V7 Sawi Rara, Jln, West Wendewa, Mamboro, Central Sumba Regency, East Nusa Tenggara","Kabupaten Sumba Tengah, Nusa Tenggara Tim.",NUSA TENGGARA TIMUR,,Indonesia,82233710577.0,,,-9.392221,119.4646663,https://maps.google.com/?cid=0x0:0xafdc0878c1997ea4,
cafe,Pusat Perbelanjaan,"WR. NUSANTARA Belanja Hemat, Harga Merakyat","Dekat, Wendewa Utara, Kec. Mamboro, Kabupaten Sumba Tengah, Nusa Tenggara Tim. 87258","Wendewa Utara, Kec. Mamboro, Kabupaten Sumba Tengah",NUSA TENGGARA TIMUR,87258.0,Indonesia,82145773633.0,,,-9.3801155,119.5399837,https://maps.google.com/?cid=0x0:0xe9fc7ad4f94aada9,
cafe,Toko umum,Yai O' Mart,"JG4X+WWX, Manu Wolu, Kec. Mamboro, Kabupaten Sumba Tengah, Nusa Tenggara Tim.","Kabupaten Sumba Tengah, Nusa Tenggara Tim.",NUSA TENGGARA TIMUR,,Indonesia,82146676283.0,,,-9.3926476,119.5498579,https://maps.google.com/?cid=0x0:0xd55d18757ae8259b,
cafe,Minimarket,Korokangali,"HCV4+QG4, Loko Ry, Kec. Tana Righu, Kabupaten Sumba Barat, Nusa Tenggara Tim.","Kabupaten Sumba Barat, Nusa Tenggara Tim.",NUSA TENGGARA TIMUR,,Indonesia,,,,-9.4056057,119.4063234,https://maps.google.com/?cid=0x0:0x61e9f3dc64413068,
cafe,Toko umum,Kios SINAR PAGI,"GF3X+7G3, Ole Ate, Kec. Mamboro, Kabupaten Sumba Tengah, Nusa Tenggara Tim.","Kabupaten Sumba Tengah, Nusa Tenggara Tim.",NUSA TENGGARA TIMUR,,Indonesia,,,,-9.4968582,119.4987842,https://maps.google.com/?cid=0x0:0xc1df9851dbba486c,
cafe,Sarapan,Kedai Ummi (Mamboro),"Mamboro, No.88, Mamboro, Kec. Palu Utara, Kota Palu, Sulawesi Tengah 94147","No.88, Mamboro, Kec. Palu Utara, Kota Palu",NUSA TENGGARA TIMUR,94147.0,Indonesia,85241042422.0,,,-0.8008932,119.8765853,https://maps.google.com/?cid=0x0:0x9dcdf9af73b91762,
cafe,Nasi,warung maput mamboro,"Jl. Mantilayo, Mamboro, Kec. Palu Utara, Kota Palu, Sulawesi Tengah 94148","Mamboro, Kec. Palu Utara, Kota Palu",NUSA TENGGARA TIMUR,94148.0,Indonesia,81242779765.0,,,-0.7938139,119.884294,https://maps.google.com/?cid=0x0:0x821d26fd203e0fb8,
cafe,Kedai Kopi,lentora cafe,"5VXJ+P29, Mamboro, Kec. Palu Utara, Kota Palu, Sulawesi Tengah","Kota Palu, Sulawesi Tengah",NUSA TENGGARA TIMUR,,Indonesia,85392168757.0,,,-0.8007128,119.8801233,https://maps.google.com/?cid=0x0:0x157665a78efc1f69,
cafe,Kafe,Cafe Tahiti Co Workingspace,"6V6C+HRJ, Mamboro, Kec. Palu Utara, Kota Palu, Sulawesi Tengah 94145","Mamboro, Kec. Palu Utara, Kota Palu",NUSA TENGGARA TIMUR,94145.0,Indonesia,82259234905.0,,,-0.7884815,119.8719402,https://maps.google.com/?cid=0x0:0xc0500ad012c8a4c5,
cafe,Padang,Rumah makan pangkep mamboro,"Jl. Trans Sulawesi, Mamboro, Kec. Palu Utara, Kota Palu, Sulawesi Tengah 94148","Mamboro, Kec. Palu Utara, Kota Palu",NUSA TENGGARA TIMUR,94148.0,Indonesia,81241253457.0,,,-0.8106179,119.8778514,https://maps.google.com/?cid=0x0:0x154967248dd3822b,
cafe,Kedai Kopi,MB Bakery  Coffee Palu,"Jl. Jenderal Ahmad Yani No.7, Besusu Tengah, Kec. Palu Tim., Kota Palu, Sulawesi Tengah 94118","Besusu Tengah, Kec. Palu Tim., Kota Palu",NUSA TENGGARA TIMUR,94118.0,Indonesia,8114588567.0,,,-0.8855634,119.8730362,https://maps.google.com/?cid=0x0:0x8dbef00a1353848e,
cafe,Kedai Kopi,Manual coffee drinks,"6V6F+GCJ, Jl. Karana, Mamboro, Kec. Palu Utara, Kota Palu, Sulawesi Tengah 94145","Jl. Karana, Mamboro, Kec. Palu Utara, Kota Palu",NUSA TENGGARA TIMUR,94145.0,Indonesia,81241794515.0,,,-0.788663,119.873507,https://maps.google.com/?cid=0x0:0x77a03a7ae16a1122,
cafe,Toko Makanan,Warung petobo,"5VMJ+JP, Mamboro, Kec. Palu Utara, Kota Palu, Sulawesi Tengah","Kota Palu, Sulawesi Tengah",NUSA TENGGARA TIMUR,,Indonesia,,,,-0.8159327,119.881821,https://maps.google.com/?cid=0x0:0x878cece7f7260901,
cafe,Kedai Kopi,palu,"6V4V+J68, Mamboro, Kec. Palu Utara, Kota Palu, Sulawesi Tengah","Kota Palu, Sulawesi Tengah",NUSA TENGGARA TIMUR,,Indonesia,,,,-0.7934601,119.8930904,https://maps.google.com/?cid=0x0:0xda0d2cbf57bf32cb,
cafe,Kafe,"SUASANA HATI Cafe, Fashion  Entertainment","Sebelum BNS, Jl. Raya Dari Arah Palu No.131, Mamboro, Kec. Palu Utara, Kota Palu, Sulawesi Tengah 94148","Jl. Raya Dari Arah Palu No.131, Mamboro, Kec. Palu Utara, Kota Palu",NUSA TENGGARA TIMUR,94148.0,Indonesia,82332792331.0,,,-0.7917235,119.8739478,https://maps.google.com/?cid=0x0:0x96838dee53c4a5fd,
cafe,Kedai Kopi,Mech coffee  eatry,"Jl. Dr. Soetomo No.21, Besusu Tengah, Kec. Palu Tim., Kota Palu, Sulawesi Tengah 94111","Besusu Tengah, Kec. Palu Tim., Kota Palu",NUSA TENGGARA TIMUR,94111.0,Indonesia,,,,-0.8949598,119.8762798,https://maps.google.com/?cid=0x0:0xc2798f9d62c7206b,
cafe,Kedai Kopi,Bukit Darru,"5VWJ+64H, Mamboro, Kec. Palu Utara, Kota Palu, Sulawesi Tengah","Kota Palu, Sulawesi Tengah",NUSA TENGGARA TIMUR,,Indonesia,,,,-0.8044398,119.880362,https://maps.google.com/?cid=0x0:0xde93e57a90bb5c57,
cafe,Indonesia,WM Tinombala Spesialis Sambal Ijo  Mami Cofee,"Jl. Pue Bongo No.14, Boyaoge, Kec. Palu Bar., Kota Palu, Sulawesi Tengah 94111","Boyaoge, Kec. Palu Bar., Kota Palu",NUSA TENGGARA TIMUR,94111.0,Indonesia,,,,-0.9097513,119.8560633,https://maps.google.com/?cid=0x0:0xc6fceddaf1ef6e80,
cafe,Restoran,Warung Makan Mas Joko Mamboro,"6V7J+548, Jl. Karana, Mamboro, Kec. Palu Utara, Kota Palu, Sulawesi Tengah 94145","Jl. Karana, Mamboro, Kec. Palu Utara, Kota Palu",NUSA TENGGARA TIMUR,94145.0,Indonesia,,,,-0.7870993,119.8803308,https://maps.google.com/?cid=0x0:0x520ad13b4133688e,
cafe,Kafe,Kedai Fokus Sederhana,"6V4J+424, Jl. Mantilayo, Mamboro, Kec. Palu Utara, Kota Palu, Sulawesi Tengah","Kota Palu, Sulawesi Tengah",NUSA TENGGARA TIMUR,,Indonesia,82216329154.0,,,-0.7947379,119.8800734,https://maps.google.com/?cid=0x0:0x939b6807f591b955,
cafe,Kedai Kopi,S-GERRR!,"Jl. Trans Sulawesi No.167, Mamboro, Kec. Palu Utara, Kota Palu, Sulawesi Tengah 94145","Mamboro, Kec. Palu Utara, Kota Palu",NUSA TENGGARA TIMUR,94145.0,Indonesia,,,,-0.7876472,119.8725904,https://maps.google.com/?cid=0x0:0x76b778c1b59fef2f,
cafe,Restoran,TerraSarapan,"6V5F+GFH, Jl. Trans Sulawesi, Mamboro, Kec. Palu Utara, Kota Palu, Sulawesi Tengah","Kota Palu, Sulawesi Tengah",NUSA TENGGARA TIMUR,,Indonesia,87852913339.0,,,-0.7911909,119.8737331,https://maps.google.com/?cid=0x0:0x8aef7bfff54168eb,
cafe,Kafe,The Madalle Cafe and Resto,"4V3H+CQ6, Besusu Tim., Kec. Palu Tim., Kota Palu, Sulawesi Tengah 94111","Besusu Tim., Kec. Palu Tim., Kota Palu",NUSA TENGGARA TIMUR,94111.0,Indonesia,,,,-0.8965397,119.8794493,https://maps.google.com/?cid=0x0:0x10181c405ab7dfe6,
cafe,cafe,Betutu Bli Widom,"5VXG+9VQ, Jl. Trans Sulawesi, Mamboro, Kec. Palu Utara, Kota Palu, Sulawesi Tengah","Kota Palu, Sulawesi Tengah",NUSA TENGGARA TIMUR,,Indonesia,,,,-0.801576,119.8772199,https://maps.google.com/?cid=0x0:0x364af92fea1538ec,
cafe,cafe,Kec. Umbu Ratu Nggay,"Kabupaten Sumba Tengah, Nusa Tenggara Tim.","Kabupaten Sumba Tengah, Nusa Tenggara Tim.",NUSA TENGGARA TIMUR,,Indonesia,,,,-9.5320614,119.7114631,https://maps.google.com/?cid=0x0:0x3e1b41bfd00caaee,
cafe,Padang,Yai O' Cafe,"9HXW+Q68, Wai Rasa, Kec. Umbu Ratu Nggay Bar., Kabupaten Sumba Tengah, Nusa Tenggara Tim.","Kabupaten Sumba Tengah, Nusa Tenggara Tim.",NUSA TENGGARA TIMUR,,Indonesia,82247082711.0,,,-9.6005919,119.5955791,https://maps.google.com/?cid=0x0:0x619e7f70e95efab1,
cafe,Kedai Kopi,ans umbu punk,"CHCJ+VF3, Anajiaka, Kec. Umbu Ratu Nggay Bar., Kabupaten Sumba Tengah, Nusa Tenggara Tim.","Kabupaten Sumba Tengah, Nusa Tenggara Tim.",NUSA TENGGARA TIMUR,,Indonesia,82242657648.0,,,-9.5778692,119.5811585,https://maps.google.com/?cid=0x0:0xbb71f3105efe2c20,
cafe,cafe,Warung Makan Maharang,"8RXH+6JF, Padira Tana, Kec. Umbu Ratu Nggay, Kabupaten Sumba Tengah, Nusa Tenggara Tim.","Kabupaten Sumba Tengah, Nusa Tenggara Tim.",NUSA TENGGARA TIMUR,,Indonesia,,,,-9.6508912,119.828664,https://maps.google.com/?cid=0x0:0x7870878f46ed3393,
cafe,Restoran,RM. PARAHYANGAN,"8RWC+9XM, langgaliru, Padira Tana, Kec. Umbu Ratu Nggay, Kabupaten Sumba Tengah, Nusa Tenggara Tim.","Kabupaten Sumba Tengah, Nusa Tenggara Tim.",NUSA TENGGARA TIMUR,,Indonesia,,,,-9.6540392,119.8224373,https://maps.google.com/?cid=0x0:0xec45dc738ac18c13,
cafe,cafe,Kec. Umbu Ratu Nggay Bar.,"Kabupaten Sumba Tengah, Nusa Tenggara Tim.","Kabupaten Sumba Tengah, Nusa Tenggara Tim.",NUSA TENGGARA TIMUR,,Indonesia,,,,-9.6106513,119.6237901,https://maps.google.com/?cid=0x0:0x60c5b24a288eb10b,
cafe,Padang,Yai O' Cafe,"9HXW+Q68, Wai Rasa, Kec. Umbu Ratu Nggay Bar., Kabupaten Sumba Tengah, Nusa Tenggara Tim.","Kabupaten Sumba Tengah, Nusa Tenggara Tim.",NUSA TENGGARA TIMUR,,Indonesia,82247082711.0,,,-9.6005919,119.5955791,https://maps.google.com/?cid=0x0:0x619e7f70e95efab1,
cafe,Kedai Kopi,KEDAI KPK Sumba Tengah,"9JR7+4VV, Jl Wai Ngapu-way bakul, Wai Rasa, Kec. Umbu Ratu Nggay Bar., Kabupaten Sumba Tengah, Nusa Tenggara Tim.","Kabupaten Sumba Tengah, Nusa Tenggara Tim.",NUSA TENGGARA TIMUR,,Indonesia,,,,-9.6096349,119.6146853,https://maps.google.com/?cid=0x0:0xc616a5510d7476e2,
cafe,Toko bahan makanan,Grafika,"9JV4+562, Wai Rasa, Kec. Umbu Ratu Nggay Bar., Kabupaten Sumba Tengah, Nusa Tenggara Tim.","Kabupaten Sumba Tengah, Nusa Tenggara Tim.",NUSA TENGGARA TIMUR,,Indonesia,,,,-9.6071165,119.605523,https://maps.google.com/?cid=0x0:0xc155b3626e540214,
cafe,Padang,Restu Bundo,"9JW2+G83, Wai Rasa, Kec. Umbu Ratu Nggay Bar., Kabupaten Sumba Tengah, Nusa Tenggara Tim.","Kabupaten Sumba Tengah, Nusa Tenggara Tim.",NUSA TENGGARA TIMUR,,Indonesia,82144040026.0,,,-9.6037328,119.6008096,https://maps.google.com/?cid=0x0:0x4bc56210c619564a,
cafe,Indonesia,Depot Mbak Wiwin,"Anakalang, Kec. Katikutana, Kabupaten Sumba Tengah, Nusa Tenggara Tim.","Kabupaten Sumba Tengah, Nusa Tenggara Tim.",NUSA TENGGARA TIMUR,,Indonesia,81233233491.0,,,-9.5954888,119.5726454,https://maps.google.com/?cid=0x0:0x399ffb6a5167e9d6,
cafe,Kafe,Endy sarche,"CHFH+7V, Anajiaka, Kec. Umbu Ratu Nggay Bar., Kabupaten Sumba Tengah, Nusa Tenggara Tim.","Kabupaten Sumba Tengah, Nusa Tenggara Tim.",NUSA TENGGARA TIMUR,,Indonesia,,,,-9.576862,119.5796307,https://maps.google.com/?cid=0x0:0x19b62602b889fc12,
