Category,Real Category,Business Name,Address,City,State,Postal Code,Country,Phone,Email,Website,Latitude,Longitude,Map Link,Details Link
building materials,building materials,Kec. Katikutana,"Kabupaten Sumba Tengah, Nusa Tenggara Tim.","Kabupaten Sumba Tengah, Nusa Tenggara Tim.",NUSA TENGGARA TIMUR,,Indonesia,,,,-9.5892351,119.5747285,https://maps.google.com/?cid=0x0:0xc4cfac4db0437390,
building materials,Perusahaan Konstruksi Pameran Dagang,Kambata Batako Press,"Lumbukore, Kec. Umalulu, Kabupaten Sumba Timur, Nusa Tenggara Tim. 87180","Kec. Umalulu, Kabupaten Sumba Timur",NUSA TENGGARA TIMUR,87180.0,Indonesia,82122228701.0,,,-9.8942388,120.6622415,https://maps.google.com/?cid=0x0:0xed6b95f39392b88e,
building materials,Polisi Sipil,Polsek Katikutana,"CH6F+94Q, Anakalang, Kec. Katikutana, Kabupaten Sumba Tengah, Nusa Tenggara Tim.","Kabupaten Sumba Tengah, Nusa Tenggara Tim.",NUSA TENGGARA TIMUR,,Indonesia,,,,-9.5890476,119.5728646,https://maps.google.com/?cid=0x0:0xcfc0f6e1a9eaa105,
building materials,Toko Bahan Bangunan,Toko Duta Bangunan,"CH3M+GQ8, Wai Rasa, Kec. Umbu Ratu Nggay Bar., Kabupaten Sumba Tengah, Nusa Tenggara Tim.","Kabupaten Sumba Tengah, Nusa Tenggara Tim.",NUSA TENGGARA TIMUR,,Indonesia,,,,-9.5962137,119.5844623,https://maps.google.com/?cid=0x0:0x7e609489f14c4fbb,
building materials,building materials,Toko kangen family,"CH4J+JFW, Unnamed Road, Anakalang, Kec. Katikutana, Kabupaten Sumba Tengah, Nusa Tenggara Tim.","Kabupaten Sumba Tengah, Nusa Tenggara Tim.",NUSA TENGGARA TIMUR,,Indonesia,81339304056.0,,,-9.5933837,119.5812054,https://maps.google.com/?cid=0x0:0x2aee05e59135dae0,
building materials,building materials,Kec. Katikutana Sel.,"Kabupaten Sumba Tengah, Nusa Tenggara Tim.","Kabupaten Sumba Tengah, Nusa Tenggara Tim.",NUSA TENGGARA TIMUR,,Indonesia,,,,-9.6219405,119.566311,https://maps.google.com/?cid=0x0:0x82c00958893ffd61,
building materials,building materials,Kec. Mamboro,"Kabupaten Sumba Tengah, Nusa Tenggara Tim.","Kabupaten Sumba Tengah, Nusa Tenggara Tim.",NUSA TENGGARA TIMUR,,Indonesia,,,,-9.3815169,119.5397707,https://maps.google.com/?cid=0x0:0xd178484c806754d1,
building materials,Toko Perlengkapan Rumah,Saudara Bangunan,"9C43+5CV, Wee Karou, Kec. Loli, Kabupaten Sumba Barat, Nusa Tenggara Tim.","Kabupaten Sumba Barat, Nusa Tenggara Tim.",NUSA TENGGARA TIMUR,,Indonesia,,,,-9.6445021,119.403561,https://maps.google.com/?cid=0x0:0xbd0bec82e2e0b21f,
building materials,Toko Bahan Bangunan,Toko Duta Bangunan,"CH3M+GQ8, Wai Rasa, Kec. Umbu Ratu Nggay Bar., Kabupaten Sumba Tengah, Nusa Tenggara Tim.","Kabupaten Sumba Tengah, Nusa Tenggara Tim.",NUSA TENGGARA TIMUR,,Indonesia,,,,-9.5962137,119.5844623,https://maps.google.com/?cid=0x0:0x7e609489f14c4fbb,
building materials,Toko Bahan Bangunan,Toko Duta Bangunan,"CH3M+GQ8, Wai Rasa, Kec. Umbu Ratu Nggay Bar., Kabupaten Sumba Tengah, Nusa Tenggara Tim.","Kabupaten Sumba Tengah, Nusa Tenggara Tim.",NUSA TENGGARA TIMUR,,Indonesia,,,,-9.5962137,119.5844623,https://maps.google.com/?cid=0x0:0x7e609489f14c4fbb,
building materials,Toko Bahan Bangunan,Morika Bangunan,"9CF3+M7M, Jl. Bhayangkara, Pada Eweta, Kec. Kota Waikabubak, Kabupaten Sumba Barat, Nusa Tenggara Tim.","Kabupaten Sumba Barat, Nusa Tenggara Tim.",NUSA TENGGARA TIMUR,,Indonesia,,,,-9.62591,119.403323,https://maps.google.com/?cid=0x0:0x534832efc7043aa5,
building materials,Toko Bahan Bangunan,Toko Duta Bangunan,"CH3M+GQ8, Wai Rasa, Kec. Umbu Ratu Nggay Bar., Kabupaten Sumba Tengah, Nusa Tenggara Tim.","Kabupaten Sumba Tengah, Nusa Tenggara Tim.",NUSA TENGGARA TIMUR,,Indonesia,,,,-9.5962137,119.5844623,https://maps.google.com/?cid=0x0:0x7e609489f14c4fbb,
building materials,Toko Bahan Bangunan,Morika Bangunan,"9CF3+M7M, Jl. Bhayangkara, Pada Eweta, Kec. Kota Waikabubak, Kabupaten Sumba Barat, Nusa Tenggara Tim.","Kabupaten Sumba Barat, Nusa Tenggara Tim.",NUSA TENGGARA TIMUR,,Indonesia,,,,-9.62591,119.403323,https://maps.google.com/?cid=0x0:0x534832efc7043aa5,
building improvement,building improvement,Kec. Katikutana,"Kabupaten Sumba Tengah, Nusa Tenggara Tim.","Kabupaten Sumba Tengah, Nusa Tenggara Tim.",NUSA TENGGARA TIMUR,,Indonesia,,,,-9.5892351,119.5747285,https://maps.google.com/?cid=0x0:0xc4cfac4db0437390,
building improvement,Gedung Apartemen,Rumah S.k Ta'u woritta,"GKS kanjonga bakul, Jl.waingapu-lewa (praihambuli km 47) samping","Kabupaten Sumba Timur, Nusa Tenggara Tim.",NUSA TENGGARA TIMUR,,Indonesia,,,,-9.7406301,119.9652556,https://maps.google.com/?cid=0x0:0xc4cc44f1988d9385,
building improvement,Pembangunan Perumahan,rumah opa guru CHH,"6QMH+M6C, Watumbelar, Kec. Lewa Tidahu, Kabupaten Sumba Timur, Nusa Tenggara Tim.","Kabupaten Sumba Timur, Nusa Tenggara Tim.",NUSA TENGGARA TIMUR,,Indonesia,,,,-9.7658166,119.7780249,https://maps.google.com/?cid=0x0:0x2778dc959f5bbeee,
building improvement,building improvement,Kec. Katikutana Sel.,"Kabupaten Sumba Tengah, Nusa Tenggara Tim.","Kabupaten Sumba Tengah, Nusa Tenggara Tim.",NUSA TENGGARA TIMUR,,Indonesia,,,,-9.6219405,119.566311,https://maps.google.com/?cid=0x0:0x82c00958893ffd61,
building improvement,building improvement,Kec. Mamboro,"Kabupaten Sumba Tengah, Nusa Tenggara Tim.","Kabupaten Sumba Tengah, Nusa Tenggara Tim.",NUSA TENGGARA TIMUR,,Indonesia,,,,-9.3815169,119.5397707,https://maps.google.com/?cid=0x0:0xd178484c806754d1,
building improvement,building improvement,Mamboro,"Kec. Palu Utara, Kota Palu, Sulawesi Tengah","Kota Palu, Sulawesi Tengah",NUSA TENGGARA TIMUR,,Indonesia,,,,-0.7934601,119.8930904,https://maps.google.com/?cid=0x0:0xd22639a8282b47e2,
building improvement,Kontraktor Umum,Waimalangu. CV,"GM6W+XH8, Desa Malinjak, Katikutana Selatan, Bolubokat Utara, Kec. Umbu Ratu Nggay, Kabupaten Sumba Tengah, Nusa Tenggara Tim.","Kabupaten Sumba Tengah, Nusa Tenggara Tim.",NUSA TENGGARA TIMUR,,Indonesia,38721718.0,,,-9.487583,119.696461,https://maps.google.com/?cid=0x0:0x5d5c8a9f3fadfc03,
building improvement,Kontraktor Umum,Surya Gemilang. CV,"GM6W+XH8, JL Wabakul, Desa Anakalang, Katikutana, Bolubokat Utara, Kec. Umbu Ratu Nggay, Kabupaten Sumba Tengah, Nusa Tenggara Tim.","Kabupaten Sumba Tengah, Nusa Tenggara Tim.",NUSA TENGGARA TIMUR,,Indonesia,82145169167.0,,,-9.487583,119.696461,https://maps.google.com/?cid=0x0:0xb4ee5745b8c635e5,
building improvement,building improvement,Kec. Umbu Ratu Nggay,"Kabupaten Sumba Tengah, Nusa Tenggara Tim.","Kabupaten Sumba Tengah, Nusa Tenggara Tim.",NUSA TENGGARA TIMUR,,Indonesia,,,,-9.5320614,119.7114631,https://maps.google.com/?cid=0x0:0x3e1b41bfd00caaee,
building improvement,building improvement,Kec. Umbu Ratu Nggay Bar.,"Kabupaten Sumba Tengah, Nusa Tenggara Tim.","Kabupaten Sumba Tengah, Nusa Tenggara Tim.",NUSA TENGGARA TIMUR,,Indonesia,,,,-9.6106513,119.6237901,https://maps.google.com/?cid=0x0:0x60c5b24a288eb10b,
hardware store,hardware store,Nusa Tenggara Tim.,,Nusa Tenggara Tim.,NUSA TENGGARA TIMUR,,Indonesia,,,,-8.6573819,121.0793705,https://maps.google.com/?cid=0x0:0x1030bfbcaf71ae0,
hardware store,Toko Perlengkapan Rumah,Mr D.I.Y.,"Lippo Plaza Kupang, Lt. UG, Fatululi, Kec. Oebobo, Kota Kupang, Nusa Tenggara Tim.","Kota Kupang, Nusa Tenggara Tim.",NUSA TENGGARA TIMUR,,Indonesia,2130022789.0,,,-10.1588684,123.6112291,https://maps.google.com/?cid=0x0:0x6221df3dfee54b51,
hardware store,hardware store,Kec. Katikutana,"Kabupaten Sumba Tengah, Nusa Tenggara Tim.","Kabupaten Sumba Tengah, Nusa Tenggara Tim.",NUSA TENGGARA TIMUR,,Indonesia,,,,-9.5892351,119.5747285,https://maps.google.com/?cid=0x0:0xc4cfac4db0437390,
hardware store,Toko Bahan Bangunan,Sinar Bangunan Building Center,"Jl. Bund. PU No.12, Tuak Daun Merah, Kec. Oebobo, Kota Kupang, Nusa Tenggara Tim. 85228","Tuak Daun Merah, Kec. Oebobo, Kota Kupang",NUSA TENGGARA TIMUR,85228.0,Indonesia,81236648694.0,,,-10.1675355,123.6289538,https://maps.google.com/?cid=0x0:0x8b34913a09e207d2,
hardware store,Toko bahan makanan,Prima Dewata,"Unnamed Rd, Anakalang, Kec. Katikutana, Kabupaten Sumba Tengah, Nusa Tenggara Tim.","Kabupaten Sumba Tengah, Nusa Tenggara Tim.",NUSA TENGGARA TIMUR,,Indonesia,,,,-9.5908748,119.5778647,https://maps.google.com/?cid=0x0:0xe4385341afe88f41,
hardware store,Toko Bahan Bangunan,Toko Duta Bangunan,"CH3M+GQ8, Wai Rasa, Kec. Umbu Ratu Nggay Bar., Kabupaten Sumba Tengah, Nusa Tenggara Tim.","Kabupaten Sumba Tengah, Nusa Tenggara Tim.",NUSA TENGGARA TIMUR,,Indonesia,,,,-9.5962137,119.5844623,https://maps.google.com/?cid=0x0:0x7e609489f14c4fbb,
hardware store,Toko,UD. Elmer/Aleyda Shop,"Jln. Wailolung/Umbu Tipuk Marisi, Jl. Waibakul, Nusa Tenggara Tim. 87211",Jl. Waibakul,NUSA TENGGARA TIMUR,87211.0,Indonesia,,,,-9.5916752,119.5809578,https://maps.google.com/?cid=0x0:0xc065d3d12dd560a,
hardware store,hardware store,Kec. Katikutana Sel.,"Kabupaten Sumba Tengah, Nusa Tenggara Tim.","Kabupaten Sumba Tengah, Nusa Tenggara Tim.",NUSA TENGGARA TIMUR,,Indonesia,,,,-9.6219405,119.566311,https://maps.google.com/?cid=0x0:0x82c00958893ffd61,
hardware store,Toko bahan makanan,Prima Dewata,"Unnamed Rd, Anakalang, Kec. Katikutana, Kabupaten Sumba Tengah, Nusa Tenggara Tim.","Kabupaten Sumba Tengah, Nusa Tenggara Tim.",NUSA TENGGARA TIMUR,,Indonesia,,,,-9.5908748,119.5778647,https://maps.google.com/?cid=0x0:0xe4385341afe88f41,
hardware store,Toko Bahan Bangunan,Toko Duta Bangunan,"CH3M+GQ8, Wai Rasa, Kec. Umbu Ratu Nggay Bar., Kabupaten Sumba Tengah, Nusa Tenggara Tim.","Kabupaten Sumba Tengah, Nusa Tenggara Tim.",NUSA TENGGARA TIMUR,,Indonesia,,,,-9.5962137,119.5844623,https://maps.google.com/?cid=0x0:0x7e609489f14c4fbb,
hardware store,hardware store,Kec. Mamboro,"Kabupaten Sumba Tengah, Nusa Tenggara Tim.","Kabupaten Sumba Tengah, Nusa Tenggara Tim.",NUSA TENGGARA TIMUR,,Indonesia,,,,-9.3815169,119.5397707,https://maps.google.com/?cid=0x0:0xd178484c806754d1,
hardware store,hardware store,,,,NUSA TENGGARA TIMUR,,Indonesia,2129986624.0,,,-2.44565,117.8888,https://maps.google.com/?cid=0x0:0xbf54891ed7e24812,
hardware store,Toko Bahan Bangunan,Toko Duta Bangunan,"CH3M+GQ8, Wai Rasa, Kec. Umbu Ratu Nggay Bar., Kabupaten Sumba Tengah, Nusa Tenggara Tim.","Kabupaten Sumba Tengah, Nusa Tenggara Tim.",NUSA TENGGARA TIMUR,,Indonesia,,,,-9.5962137,119.5844623,https://maps.google.com/?cid=0x0:0x7e609489f14c4fbb,
hardware store,Toko Bahan Bangunan,Morika Bangunan,"9CF3+M7M, Jl. Bhayangkara, Pada Eweta, Kec. Kota Waikabubak, Kabupaten Sumba Barat, Nusa Tenggara Tim.","Kabupaten Sumba Barat, Nusa Tenggara Tim.",NUSA TENGGARA TIMUR,,Indonesia,,,,-9.62591,119.403323,https://maps.google.com/?cid=0x0:0x534832efc7043aa5,
hardware store,hardware store,Kec. Umbu Ratu Nggay Bar.,"Kabupaten Sumba Tengah, Nusa Tenggara Tim.","Kabupaten Sumba Tengah, Nusa Tenggara Tim.",NUSA TENGGARA TIMUR,,Indonesia,,,,-9.6106513,119.6237901,https://maps.google.com/?cid=0x0:0x60c5b24a288eb10b,
hardware store,Toko Bahan Bangunan,Toko Duta Bangunan,"CH3M+GQ8, Wai Rasa, Kec. Umbu Ratu Nggay Bar., Kabupaten Sumba Tengah, Nusa Tenggara Tim.","Kabupaten Sumba Tengah, Nusa Tenggara Tim.",NUSA TENGGARA TIMUR,,Indonesia,,,,-9.5962137,119.5844623,https://maps.google.com/?cid=0x0:0x7e609489f14c4fbb,
hardware store,Toko bahan makanan,Prima Dewata,"Unnamed Rd, Anakalang, Kec. Katikutana, Kabupaten Sumba Tengah, Nusa Tenggara Tim.","Kabupaten Sumba Tengah, Nusa Tenggara Tim.",NUSA TENGGARA TIMUR,,Indonesia,,,,-9.5908748,119.5778647,https://maps.google.com/?cid=0x0:0xe4385341afe88f41,
hardware store,Sekolah Menengah Umum,SMAN 1 Umbu Ratu Nggay Barat,"Jln. Lintas Waibakul - Mamboro, Maderi, Kec. Umbu Ratu Nggay Bar., Kabupaten Sumba Tengah, Nusa Tenggara Tim. 87282","Maderi, Kec. Umbu Ratu Nggay Bar., Kabupaten Sumba Tengah",NUSA TENGGARA TIMUR,87282.0,Indonesia,,,,-9.520887,119.586327,https://maps.google.com/?cid=0x0:0xf26acc116efd53c0,
hardware store,Toko,UD. Elmer/Aleyda Shop,"Jln. Wailolung/Umbu Tipuk Marisi, Jl. Waibakul, Nusa Tenggara Tim. 87211",Jl. Waibakul,NUSA TENGGARA TIMUR,87211.0,Indonesia,,,,-9.5916752,119.5809578,https://maps.google.com/?cid=0x0:0xc065d3d12dd560a,
toko bangunan,toko bangunan,Nusa Tenggara Tim.,,Nusa Tenggara Tim.,NUSA TENGGARA TIMUR,,Indonesia,,,,-8.6573819,121.0793705,https://maps.google.com/?cid=0x0:0x1030bfbcaf71ae0,
toko bangunan,Toko Bahan Bangunan,Toko Duta Bangunan,"GFMJ+896, Benpasi, Kec. Kota Kefamenanu, Kabupaten Timor Tengah Utara, Nusa Tenggara Tim.","Kabupaten Timor Tengah Utara, Nusa Tenggara Tim.",NUSA TENGGARA TIMUR,,Indonesia,8113827627.0,,,-9.4667226,124.4808961,https://maps.google.com/?cid=0x0:0x7bd4b59644a2a0bd,
toko bangunan,Toko Bahan Bangunan,Toko Lima Bintang Bangunan,"Jl. Ring Road Waikabubak, Pada Eweta, Kec. Kota Waikabubak, Kabupaten Sumba Barat, Nusa Tenggara Tim.","Kabupaten Sumba Barat, Nusa Tenggara Tim.",NUSA TENGGARA TIMUR,,Indonesia,81236835505.0,,,-9.6253098,119.389322,https://maps.google.com/?cid=0x0:0x2400e10b9df95a55,
toko bangunan,Toko Bahan Bangunan,TOKO SINAR DUTA,"Jl. Ahmad Yani No.46, Matawai, Kec. Kota Waingapu, Kabupaten Sumba Timur, Nusa Tenggara Tim.","Kabupaten Sumba Timur, Nusa Tenggara Tim.",NUSA TENGGARA TIMUR,,Indonesia,38762141.0,,,-9.6518145,120.2647551,https://maps.google.com/?cid=0x0:0xec3fa460dc149196,
toko bangunan,Toko Bahan Bangunan,TOKO Sinar Galaxi,"H6CR+XJ8, Unnamed Road, Loura, Kabupaten Barat Daya, Nusa Tenggara Tim., Radamata, Kec. Loura, Kabupaten Sumba Barat Daya, Nusa Tenggara Tim.","Kabupaten Sumba Barat Daya, Nusa Tenggara Tim.",NUSA TENGGARA TIMUR,,Indonesia,,,,-9.427579,119.2415805,https://maps.google.com/?cid=0x0:0x50d8175272a243a8,
toko bangunan,Grosir keramik,Toko Bangunan Sumber Berlian,"9FR7+R98, Pitak, Kec. Langke Rembong, Kabupaten Manggarai, Nusa Tenggara Tim.","Kabupaten Manggarai, Nusa Tenggara Tim.",NUSA TENGGARA TIMUR,,Indonesia,38521109.0,,,-8.6079539,120.4634541,https://maps.google.com/?cid=0x0:0x6998fb86419a6f08,
toko bangunan,Toko,Toko Cinta Indah,"F7FJ+JGG, Limbu Watu,, Wee Kokora, Kec. Wewewa Tengah, Kabupaten Sumba Barat Daya, Nusa Tenggara Tim.","Kabupaten Sumba Barat Daya, Nusa Tenggara Tim.",NUSA TENGGARA TIMUR,,Indonesia,81353480750.0,,,-9.5259324,119.2813262,https://maps.google.com/?cid=0x0:0xfdd070a95cfb0d00,
toko bangunan,Toko Bahan Bangunan,Toko Graha Bangunan,"Gedung Graha Ariadi, Oesapa Bar., Kec. Klp. Lima, Kota Kupang, Nusa Tenggara Tim. 85228","Oesapa Bar., Kec. Klp. Lima, Kota Kupang",NUSA TENGGARA TIMUR,85228.0,Indonesia,81312893723.0,,,-10.1468703,123.631267,https://maps.google.com/?cid=0x0:0x4167d73ee95fc845,
toko bangunan,Pemasok Pipa,Toko Buana Bangunan,"Lasiana, Kec. Klp. Lima, Kota Kupang, Nusa Tenggara Tim.","Kota Kupang, Nusa Tenggara Tim.",NUSA TENGGARA TIMUR,,Indonesia,82244376888.0,,,-10.1373266,123.6764484,https://maps.google.com/?cid=0x0:0x9fc6cad7dda4e71a,
toko bangunan,Toko Bahan Bangunan,Toko Bangunan Kanaan,"Jl. Terusan Timor Raya No.KM 8, Oesapa, Kec. Klp. Lima, Kota Kupang, Nusa Tenggara Tim. 85226","Oesapa, Kec. Klp. Lima, Kota Kupang",NUSA TENGGARA TIMUR,85226.0,Indonesia,81236129325.0,,,-10.1492781,123.6411571,https://maps.google.com/?cid=0x0:0x9ccb845e1bb38ce5,
toko bangunan,Toko Bahan Bangunan,Sinar Bangunan Building Center,"Jl. Bund. PU No.12, Tuak Daun Merah, Kec. Oebobo, Kota Kupang, Nusa Tenggara Tim. 85228","Tuak Daun Merah, Kec. Oebobo, Kota Kupang",NUSA TENGGARA TIMUR,85228.0,Indonesia,81236648694.0,,,-10.1675355,123.6289538,https://maps.google.com/?cid=0x0:0x8b34913a09e207d2,
toko bangunan,Toko Bahan Bangunan,Toko Cipta Bangunan,"Wolomarang, Kec. Alok Bar., Kabupaten Sikka, Nusa Tenggara Tim.","Kabupaten Sikka, Nusa Tenggara Tim.",NUSA TENGGARA TIMUR,,Indonesia,81231842348.0,,,-8.6105049,122.1996912,https://maps.google.com/?cid=0x0:0x1d786c0067a3953f,
toko bangunan,Pemasok Pipa,Toko Bangunan,"Manulai II, Kec. Alak, Kota Kupang, Nusa Tenggara Tim.","Kota Kupang, Nusa Tenggara Tim.",NUSA TENGGARA TIMUR,,Indonesia,85123255522.0,,,-10.213815,123.5749527,https://maps.google.com/?cid=0x0:0x5559349e9e4fc36f,
toko bangunan,Pemasok Pipa,Toko Bangunan Kim 5,"VM68+QFC, Jl. Terusan Timor Raya, Lasiana, Kec. Klp. Lima, Kota Kupang, Nusa Tenggara Tim.","Kota Kupang, Nusa Tenggara Tim.",NUSA TENGGARA TIMUR,,Indonesia,,,,-10.1380642,123.6661317,https://maps.google.com/?cid=0x0:0x57d9219b49c66921,
toko bangunan,Toko Bahan Bangunan,TOKO SAHABAT INTI BANGUNAN,"JL. Ruteng - Labuan Bajo, Cancar, Wae Belang, Kec. Ruteng, Kabupaten Manggarai, Nusa Tenggara Tim.","Kabupaten Manggarai, Nusa Tenggara Tim.",NUSA TENGGARA TIMUR,,Indonesia,81359982021.0,,,-8.5896405,120.3779527,https://maps.google.com/?cid=0x0:0x99120b0035e2b615,
toko bangunan,Toko Bahan Bangunan,Toko Bangunan Jaya,"Jl. Terusan Timor Raya No.9u KM. 6, Oesapa Bar., Kec. Klp. Lima, Kota Kupang, Nusa Tenggara Tim.","Kota Kupang, Nusa Tenggara Tim.",NUSA TENGGARA TIMUR,,Indonesia,81338567839.0,,,-10.14441,123.6254719,https://maps.google.com/?cid=0x0:0x4a94c89160bbe62c,
toko bangunan,Toko Bahan Bangunan,Toko bangunan,"VM4C+R79, Lasiana, Kec. Klp. Lima, Kota Kupang, Nusa Tenggara Tim.","Kota Kupang, Nusa Tenggara Tim.",NUSA TENGGARA TIMUR,,Indonesia,,,,-10.142954,123.6707233,https://maps.google.com/?cid=0x0:0xb111458939496520,
toko bangunan,Toko Perlengkapan Rumah,Toko Karya Bangunan,"RJQV+H9Q, Jl. Bumi I, Oesapa Sel., Kec. Klp. Lima, Kota Kupang, Nusa Tenggara Tim.","Kota Kupang, Nusa Tenggara Tim.",NUSA TENGGARA TIMUR,,Indonesia,,,,-10.1610333,123.6434727,https://maps.google.com/?cid=0x0:0x480107de15c2a6cf,
toko bangunan,Toko Bahan Bangunan,Toko Sari Bangunan,"Jl. Jend. Soeharto No.124, Oepura, Kec. Maulafa, Kota Kupang, Nusa Tenggara Tim. 85142","Oepura, Kec. Maulafa, Kota Kupang",NUSA TENGGARA TIMUR,85142.0,Indonesia,380823119.0,,,-10.1871204,123.606142,https://maps.google.com/?cid=0x0:0xff57296e3a89bbd7,
toko bangunan,Toko Bahan Bangunan,Toko Metro Bangunan,"Jl. Pulau Indah, Oesapa Bar., Kec. Klp. Lima, Kota Kupang, Nusa Tenggara Tim. 85228","Oesapa Bar., Kec. Klp. Lima, Kota Kupang",NUSA TENGGARA TIMUR,85228.0,Indonesia,82164218639.0,,,-10.1488046,123.6344972,https://maps.google.com/?cid=0x0:0x4afb0da23e208afb,
toko bangunan,toko bangunan,Kec. Katikutana,"Kabupaten Sumba Tengah, Nusa Tenggara Tim.","Kabupaten Sumba Tengah, Nusa Tenggara Tim.",NUSA TENGGARA TIMUR,,Indonesia,,,,-9.5892351,119.5747285,https://maps.google.com/?cid=0x0:0xc4cfac4db0437390,
toko bangunan,Toko bahan makanan,Prima Dewata,"Unnamed Rd, Anakalang, Kec. Katikutana, Kabupaten Sumba Tengah, Nusa Tenggara Tim.","Kabupaten Sumba Tengah, Nusa Tenggara Tim.",NUSA TENGGARA TIMUR,,Indonesia,,,,-9.5908748,119.5778647,https://maps.google.com/?cid=0x0:0xe4385341afe88f41,
toko bangunan,Toko Bahan Bangunan,Toko Nuansa Bangunan Dan Tehnik,"9C75+HG9, Wailiang, Kec. Kota Waikabubak, Kabupaten Sumba Barat, Nusa Tenggara Tim.","Kabupaten Sumba Barat, Nusa Tenggara Tim.",NUSA TENGGARA TIMUR,,Indonesia,81339419509.0,,,-9.6360822,119.4088515,https://maps.google.com/?cid=0x0:0xa546d9dc5012925e,
toko bangunan,Toko Perlengkapan Rumah,Saudara Bangunan,"9C43+5CV, Wee Karou, Kec. Loli, Kabupaten Sumba Barat, Nusa Tenggara Tim.","Kabupaten Sumba Barat, Nusa Tenggara Tim.",NUSA TENGGARA TIMUR,,Indonesia,,,,-9.6445021,119.403561,https://maps.google.com/?cid=0x0:0xbd0bec82e2e0b21f,
toko bangunan,Toko Bahan Bangunan,Toko Bangunan Pak Tris,"9737+VFX, Kamalaputi, Kec. Kota Waingapu, Kabupaten Sumba Timur, Nusa Tenggara Tim.","Kabupaten Sumba Timur, Nusa Tenggara Tim.",NUSA TENGGARA TIMUR,,Indonesia,81353759489.0,,,-9.6452547,120.2637361,https://maps.google.com/?cid=0x0:0xf2f45ed234d9c248,
toko bangunan,Toko Bahan Bangunan,Toko Amerta,"Jl. Jend. Sudirman No.3, Kp. Sawah, Kec. Kota Waikabubak, Kabupaten Sumba Barat, Nusa Tenggara Tim.","Kabupaten Sumba Barat, Nusa Tenggara Tim.",NUSA TENGGARA TIMUR,,Indonesia,82122228701.0,,,-9.635767,119.4129349,https://maps.google.com/?cid=0x0:0xd990784987776293,
toko bangunan,toko bangunan,Toko kangen family,"CH4J+JFW, Unnamed Road, Anakalang, Kec. Katikutana, Kabupaten Sumba Tengah, Nusa Tenggara Tim.","Kabupaten Sumba Tengah, Nusa Tenggara Tim.",NUSA TENGGARA TIMUR,,Indonesia,81339304056.0,,,-9.5933837,119.5812054,https://maps.google.com/?cid=0x0:0x2aee05e59135dae0,
toko bangunan,toko bangunan,Kec. Katikutana Sel.,"Kabupaten Sumba Tengah, Nusa Tenggara Tim.","Kabupaten Sumba Tengah, Nusa Tenggara Tim.",NUSA TENGGARA TIMUR,,Indonesia,,,,-9.6219405,119.566311,https://maps.google.com/?cid=0x0:0x82c00958893ffd61,
toko bangunan,Toko bahan makanan,Prima Dewata,"Unnamed Rd, Anakalang, Kec. Katikutana, Kabupaten Sumba Tengah, Nusa Tenggara Tim.","Kabupaten Sumba Tengah, Nusa Tenggara Tim.",NUSA TENGGARA TIMUR,,Indonesia,,,,-9.5908748,119.5778647,https://maps.google.com/?cid=0x0:0xe4385341afe88f41,
toko bangunan,Toko Bahan Bangunan,Toko Duta Bangunan,"CH3M+GQ8, Wai Rasa, Kec. Umbu Ratu Nggay Bar., Kabupaten Sumba Tengah, Nusa Tenggara Tim.","Kabupaten Sumba Tengah, Nusa Tenggara Tim.",NUSA TENGGARA TIMUR,,Indonesia,,,,-9.5962137,119.5844623,https://maps.google.com/?cid=0x0:0x7e609489f14c4fbb,
toko bangunan,Toko Bahan Bangunan,Toko Nuansa Bangunan Dan Tehnik,"9C75+HG9, Wailiang, Kec. Kota Waikabubak, Kabupaten Sumba Barat, Nusa Tenggara Tim.","Kabupaten Sumba Barat, Nusa Tenggara Tim.",NUSA TENGGARA TIMUR,,Indonesia,81339419509.0,,,-9.6360822,119.4088515,https://maps.google.com/?cid=0x0:0xa546d9dc5012925e,
toko bangunan,Toko Perlengkapan Rumah,Saudara Bangunan,"9C43+5CV, Wee Karou, Kec. Loli, Kabupaten Sumba Barat, Nusa Tenggara Tim.","Kabupaten Sumba Barat, Nusa Tenggara Tim.",NUSA TENGGARA TIMUR,,Indonesia,,,,-9.6445021,119.403561,https://maps.google.com/?cid=0x0:0xbd0bec82e2e0b21f,
toko bangunan,toko bangunan,Kec. Mamboro,"Kabupaten Sumba Tengah, Nusa Tenggara Tim.","Kabupaten Sumba Tengah, Nusa Tenggara Tim.",NUSA TENGGARA TIMUR,,Indonesia,,,,-9.3815169,119.5397707,https://maps.google.com/?cid=0x0:0xd178484c806754d1,
toko bangunan,Toko Perlengkapan Rumah,Saudara Bangunan,"9C43+5CV, Wee Karou, Kec. Loli, Kabupaten Sumba Barat, Nusa Tenggara Tim.","Kabupaten Sumba Barat, Nusa Tenggara Tim.",NUSA TENGGARA TIMUR,,Indonesia,,,,-9.6445021,119.403561,https://maps.google.com/?cid=0x0:0xbd0bec82e2e0b21f,
toko bangunan,Toko Bahan Bangunan,Toko Duta Bangunan,"CH3M+GQ8, Wai Rasa, Kec. Umbu Ratu Nggay Bar., Kabupaten Sumba Tengah, Nusa Tenggara Tim.","Kabupaten Sumba Tengah, Nusa Tenggara Tim.",NUSA TENGGARA TIMUR,,Indonesia,,,,-9.5962137,119.5844623,https://maps.google.com/?cid=0x0:0x7e609489f14c4fbb,
toko bangunan,Toko Bahan Bangunan,Toko Nuansa Bangunan Dan Tehnik Terlengkap,"H6CP+QWF, Radamata, Kec. Loura, Kabupaten Sumba Barat Daya, Nusa Tenggara Tim.","Kabupaten Sumba Barat Daya, Nusa Tenggara Tim.",NUSA TENGGARA TIMUR,,Indonesia,81339419509.0,,,-9.4280703,119.2372822,https://maps.google.com/?cid=0x0:0xb106164c739fec1b,
toko bangunan,Toko Bahan Bangunan,UD. DUA PUTRI,"Wendewa Utara, Kec. Mamboro, Kabupaten Sumba Tengah, Nusa Tenggara Tim.","Kabupaten Sumba Tengah, Nusa Tenggara Tim.",NUSA TENGGARA TIMUR,,Indonesia,85238981990.0,,,-9.3813678,119.5406094,https://maps.google.com/?cid=0x0:0x6cc20a37bef88bf2,
toko bangunan,Toko Bahan Bangunan,Putra Bintoro,"Jl. Karana No.38, Mamboro, Kec. Palu Utara, Kota Palu, Sulawesi Tengah 94145","Mamboro, Kec. Palu Utara, Kota Palu",NUSA TENGGARA TIMUR,94145.0,Indonesia,81242384567.0,,,-0.7875976,119.8764132,https://maps.google.com/?cid=0x0:0xfc41d041cefe666e,
toko bangunan,Toko Bahan Bangunan,Toko PRIMA STEEL,"Mamboro, Kec. Palu Utara, Kota Palu, Sulawesi Tengah 94145","Kec. Palu Utara, Kota Palu",NUSA TENGGARA TIMUR,94145.0,Indonesia,,,,-0.7894535,119.8734817,https://maps.google.com/?cid=0x0:0xc7eda811ed53cf39,
toko bangunan,Toko Bahan Bangunan,Altiqi Jaya Mandiri,"6V3F+9XP, Jl. Trans Sulawesi, Mamboro, Kec. Palu Utara, Kota Palu, Sulawesi Tengah 94145","Jl. Trans Sulawesi, Mamboro, Kec. Palu Utara, Kota Palu",NUSA TENGGARA TIMUR,94145.0,Indonesia,85241009019.0,,,-0.7965458,119.874965,https://maps.google.com/?cid=0x0:0x172a5d165f348eea,
toko bangunan,toko bangunan,Griya Tunas Perkasa,"Jl. Trans Sulawesi, Mamboro, Kec. Palu Utara, Kota Palu, Sulawesi Tengah","Kota Palu, Sulawesi Tengah",NUSA TENGGARA TIMUR,,Indonesia,85394945385.0,,,-0.7960296,119.8749921,https://maps.google.com/?cid=0x0:0x71cb4d9d40e28211,
toko bangunan,Toko Bahan Bangunan,TOKO BANGUNAN BAJA SENTOSA ABADI,"Jl. RE Martadinata, Tondo, Kec. Palu Tim., Kota Palu, Sulawesi Tengah 94148","Tondo, Kec. Palu Tim., Kota Palu",NUSA TENGGARA TIMUR,94148.0,Indonesia,85394945385.0,,,-0.8295596,119.8826687,https://maps.google.com/?cid=0x0:0x3cfc55f57344fea7,
toko bangunan,Toko Bahan Bangunan,HMR DEPO,"Komplek Pergudangan Palu Indah No.25-27 Blok A, Layana Indah, Kec. Mantikulore, Kota Palu, Sulawesi Tengah 94147","Layana Indah, Kec. Mantikulore, Kota Palu",NUSA TENGGARA TIMUR,94147.0,Indonesia,82310333371.0,,,-0.8218086,119.8852525,https://maps.google.com/?cid=0x0:0x48a83f826bee8494,
toko bangunan,Toko Bahan Bangunan,Sinar sinjai bangunan,"6VP8+9M4, Jl. Trans Sulawesi, Kayumalue Pajeko, Kec. Palu Utara, Kota Palu, Sulawesi Tengah 94142","Jl. Trans Sulawesi, Kayumalue Pajeko, Kec. Palu Utara, Kota Palu",NUSA TENGGARA TIMUR,94142.0,Indonesia,81264671615.0,,,-0.7641215,119.8667096,https://maps.google.com/?cid=0x0:0x4c3ca1379feadbcc,
toko bangunan,Toko Bahan Bangunan,Toko Prima Bangunan 3,"5V8M+P7F, Tondo, Kec. Mantikulore, Kota Palu, Sulawesi Tengah 94148","Tondo, Kec. Mantikulore, Kota Palu",NUSA TENGGARA TIMUR,94148.0,Indonesia,82190079360.0,,,-0.8331798,119.8831585,https://maps.google.com/?cid=0x0:0xf2e5d1dccfa3a7b,
toko bangunan,Toko Bahan Bangunan,Toko Jaya Bangunan,"5W92+7C5, Unnamed Road, Tondo, Kec. Mantikulore, Kota Palu, Sulawesi Tengah 94148","Unnamed Road, Tondo, Kec. Mantikulore, Kota Palu",NUSA TENGGARA TIMUR,94148.0,Indonesia,8114563737.0,,,-0.8318658,119.9011246,https://maps.google.com/?cid=0x0:0xacb1bf28b29f602c,
toko bangunan,Toko Alat Listrik,Toko Sejati Jaya,"6V6G+GCX, Jl. Bayu, Mamboro, Kec. Palu Utara, Kota Palu, Sulawesi Tengah 94145","Jl. Bayu, Mamboro, Kec. Palu Utara, Kota Palu",NUSA TENGGARA TIMUR,94145.0,Indonesia,,,,-0.7886496,119.8761141,https://maps.google.com/?cid=0x0:0x1178fcd73c0cab8d,
toko bangunan,Toko Kayu,UD.MAJU BERSAMA ( Jual kayu bangunan),"Jl. Trans Sulawesi No.212, Mamboro, Kec. Palu Utara, Kota Palu, Sulawesi Tengah 94148","Mamboro, Kec. Palu Utara, Kota Palu",NUSA TENGGARA TIMUR,94148.0,Indonesia,81248443648.0,,,-0.7905232,119.8736501,https://maps.google.com/?cid=0x0:0x3c6132d1fac7b8f3,
toko bangunan,Toko Bahan Bangunan,Cahaya Surya Mandiri,"Jl. LIK Layana Indah No.08, Mamboro, Kec. Palu Utara, Kota Palu, Sulawesi Tengah 94147","Mamboro, Kec. Palu Utara, Kota Palu",NUSA TENGGARA TIMUR,94147.0,Indonesia,81142555111.0,,,-0.8154215,119.8828607,https://maps.google.com/?cid=0x0:0x1332ef724018775d,
toko bangunan,toko bangunan,Putra Bintoro,"Jl. Lamalipu No.Kelurahan, Mamboro, Kec. Palu Utara, Kota Palu, Sulawesi Tengah 94145","Mamboro, Kec. Palu Utara, Kota Palu",NUSA TENGGARA TIMUR,94145.0,Indonesia,,,,-0.7836748,119.8838951,https://maps.google.com/?cid=0x0:0x21d689a04c18646d,
toko bangunan,Toko Bahan Bangunan,Morika Bangunan,"9CF3+M7M, Jl. Bhayangkara, Pada Eweta, Kec. Kota Waikabubak, Kabupaten Sumba Barat, Nusa Tenggara Tim.","Kabupaten Sumba Barat, Nusa Tenggara Tim.",NUSA TENGGARA TIMUR,,Indonesia,,,,-9.62591,119.403323,https://maps.google.com/?cid=0x0:0x534832efc7043aa5,
toko bangunan,Toko Bahan Bangunan,Toko Duta Bangunan,"CH3M+GQ8, Wai Rasa, Kec. Umbu Ratu Nggay Bar., Kabupaten Sumba Tengah, Nusa Tenggara Tim.","Kabupaten Sumba Tengah, Nusa Tenggara Tim.",NUSA TENGGARA TIMUR,,Indonesia,,,,-9.5962137,119.5844623,https://maps.google.com/?cid=0x0:0x7e609489f14c4fbb,
toko bangunan,Toko Bahan Bangunan,Toko Duta Bangunan,"CH3M+GQ8, Wai Rasa, Kec. Umbu Ratu Nggay Bar., Kabupaten Sumba Tengah, Nusa Tenggara Tim.","Kabupaten Sumba Tengah, Nusa Tenggara Tim.",NUSA TENGGARA TIMUR,,Indonesia,,,,-9.5962137,119.5844623,https://maps.google.com/?cid=0x0:0x7e609489f14c4fbb,
toko bangunan,Toko Bahan Bangunan,Morika Bangunan,"9CF3+M7M, Jl. Bhayangkara, Pada Eweta, Kec. Kota Waikabubak, Kabupaten Sumba Barat, Nusa Tenggara Tim.","Kabupaten Sumba Barat, Nusa Tenggara Tim.",NUSA TENGGARA TIMUR,,Indonesia,,,,-9.62591,119.403323,https://maps.google.com/?cid=0x0:0x534832efc7043aa5,
