Category,Real Category,Business Name,Address,City,State,Postal Code,Country,Phone,Email,Website,Latitude,Longitude,Map Link,Details Link
perumahan,perumahan,Nusa Tenggara Tim.,,Nusa Tenggara Tim.,NUSA TENGGARA TIMUR,,Indonesia,,,,-8.6573819,121.0793705,https://maps.google.com/?cid=0x0:0x1030bfbcaf71ae0,
perumahan,Komplek perumahan,Rumah Donatus Madiata Pali Osa,"Jl. Nenas, Kabela Wuntu, Kec. Katikutana, Kabupaten Sumba Tengah, Nusa Tenggara Tim. 87282","Kabela Wuntu, Kec. Katikutana, Kabupaten Sumba Tengah",NUSA TENGGARA TIMUR,87282.0,Indonesia,,,,-9.580262,119.5570637,https://maps.google.com/?cid=0x0:0x39ae335fd4823d46,
perumahan,Perhimpunan Pengembang Perumahan,Rumah BUMN Sumba Tengah,"9HXX+48H Rumah BUMN, Jalan Lintas Waikabubak, Wai Rasa, Kec. Umbu Ratu Nggay Bar., Kabupaten Sumba Tengah, Nusa Tenggara Tim. 87282","Jalan Lintas Waikabubak, Wai Rasa, Kec. Umbu Ratu Nggay Bar., Kabupaten Sumba Tengah",NUSA TENGGARA TIMUR,87282.0,Indonesia,81232867835.0,,,-9.6021754,119.5983456,https://maps.google.com/?cid=0x0:0x3f9ea9389b25ac25,
perumahan,Kantor Pemerintah,KPU Kabupaten Sumba Tengah,"Samapaty Jl, Umbu Remu, Katikutana, Central Sumba Regency, East Nusa Tenggara 87282","Umbu Remu, Katikutana, Central Sumba Regency",NUSA TENGGARA TIMUR,87282.0,Indonesia,3872525943.0,,,-9.5961875,119.5727344,https://maps.google.com/?cid=0x0:0x5d74b0ec92ba716,
perumahan,Komplek perumahan,Interior dan Partisi,"Perumahan, Malinjak, Regency, Waibakul, Nusa Tenggara Tim. 87282","Malinjak, Regency, Waibakul",NUSA TENGGARA TIMUR,87282.0,Indonesia,82342123456.0,,,-9.6332455,119.5683276,https://maps.google.com/?cid=0x0:0x51f5938c652d10aa,
perumahan,Warnet,Amosha Cell,"Liangu Dongu No.SP 2, Lolukalay, Waibakul, Kabupaten Sumba Tengah, Nusa Tenggara Tim. 87282","Lolukalay, Waibakul, Kabupaten Sumba Tengah",NUSA TENGGARA TIMUR,87282.0,Indonesia,82188179961.0,,,-9.6687338,119.6123729,https://maps.google.com/?cid=0x0:0xeb550e8d32bfa43a,
perumahan,Pusat Perbelanjaan,Kain adat kewuh,"Paterulima, Waibakul, Kabupaten Sumba Tengah, Nusa Tenggara Tim. 87282","Waibakul, Kabupaten Sumba Tengah",NUSA TENGGARA TIMUR,87282.0,Indonesia,81237689346.0,,,-9.5888572,119.5704125,https://maps.google.com/?cid=0x0:0x2bdb43f591f79d47,
perumahan,perumahan,Kec. Katikutana,"Kabupaten Sumba Tengah, Nusa Tenggara Tim.","Kabupaten Sumba Tengah, Nusa Tenggara Tim.",NUSA TENGGARA TIMUR,,Indonesia,,,,-9.5892351,119.5747285,https://maps.google.com/?cid=0x0:0xc4cfac4db0437390,
perumahan,Komplek perumahan,RUMAH NYA TRISTAN,"CH47+C47, Kabela Wuntu, Kec. Katikutana, Kabupaten Sumba Tengah, Nusa Tenggara Tim.","Kabupaten Sumba Tengah, Nusa Tenggara Tim.",NUSA TENGGARA TIMUR,,Indonesia,,,,-9.592632,119.5635408,https://maps.google.com/?cid=0x0:0x1f2dc17f007e7475,
perumahan,Komplek perumahan,Kampung Ngaduradi,"CH6G+6XW, Anakalang, Kec. Katikutana, Kabupaten Sumba Tengah, Nusa Tenggara Tim.","Kabupaten Sumba Tengah, Nusa Tenggara Tim.",NUSA TENGGARA TIMUR,,Indonesia,,,,-9.5892836,119.5774509,https://maps.google.com/?cid=0x0:0x2c1c63abff0dac47,
perumahan,Komplek perumahan,Kampung Galuteku,"CHFC+GRJ Jara, Jl. Lintas Waibakul, Pondok, Galuteku, Desa Dewa Jara, Kec. Katikutana, Kabupaten Sumba Tengah, Nusa Tenggara Tim.","Kabupaten Sumba Tengah, Nusa Tenggara Tim.",NUSA TENGGARA TIMUR,,Indonesia,85239719791.0,,,-9.5761625,119.5720156,https://maps.google.com/?cid=0x0:0xab32d75dcb1074d7,
perumahan,Pembangunan Perumahan,KAMPUNG LAIMAJULUNG,"CH7F+PW3, Anakalang, Kec. Katikutana, Kabupaten Sumba Tengah, Nusa Tenggara Tim.","Kabupaten Sumba Tengah, Nusa Tenggara Tim.",NUSA TENGGARA TIMUR,,Indonesia,,,,-9.5857236,119.574774,https://maps.google.com/?cid=0x0:0xf002459e072e62d0,
perumahan,Komplek perumahan,Lubunyau,"9GJQ+FW7, Wai Lawa, Kec. Katikutana Sel., Kabupaten Sumba Tengah, Nusa Tenggara Tim.","Kabupaten Sumba Tengah, Nusa Tenggara Tim.",NUSA TENGGARA TIMUR,,Indonesia,,,,-9.6191942,119.5403018,https://maps.google.com/?cid=0x0:0x1ac5071c9de4ff03,
perumahan,Komplek perumahan,Sansel house,"9GQM+H59, Watugaigal, Umbu Riri, Kec. Katikutana, Kabupaten Sumba Tengah","Kabupaten Sumba Tengah, Nusa Tenggara Tim.",NUSA TENGGARA TIMUR,,Indonesia,,,,-9.6110781,119.5329811,https://maps.google.com/?cid=0x0:0x1d980769428a2f3f,
perumahan,Pembangunan Perumahan,Kampung Praikawilu,"CHFF+HM, Anakalang, Kec. Katikutana, Kabupaten Sumba Tengah, Nusa Tenggara Tim.","Kabupaten Sumba Tengah, Nusa Tenggara Tim.",NUSA TENGGARA TIMUR,,Indonesia,,,,-9.5759659,119.5741788,https://maps.google.com/?cid=0x0:0x93ce1a7f29a45df0,
perumahan,Komplek perumahan,Kampung Gallu Happi,"9GQC+P7, Umbu Riri, Kec. Katikutana, Kabupaten Sumba Tengah, Nusa Tenggara Tim.","Kabupaten Sumba Tengah, Nusa Tenggara Tim.",NUSA TENGGARA TIMUR,,Indonesia,,,,-9.6106986,119.5206774,https://maps.google.com/?cid=0x0:0x32d4ea5c0ac514fd,
perumahan,Komplek perumahan,Kampung Ledi Watu,"CH6F+CR3, Kampung Ledi Watu, Anakalang, Kec. Katikutana, Kabupaten Sumba Tengah, Nusa Tenggara Tim.","Kabupaten Sumba Tengah, Nusa Tenggara Tim.",NUSA TENGGARA TIMUR,,Indonesia,,,,-9.5889906,119.5745576,https://maps.google.com/?cid=0x0:0xf784cf72ef965334,
perumahan,Pembangunan Perumahan,PATERULIMA,"CH69+CXF, Anakalang, Kec. Katikutana, Kabupaten Sumba Tengah, Nusa Tenggara Tim.","Kabupaten Sumba Tengah, Nusa Tenggara Tim.",NUSA TENGGARA TIMUR,,Indonesia,,,,-9.5890257,119.5703134,https://maps.google.com/?cid=0x0:0x1372bc5900121b7c,
perumahan,Komplek perumahan,Kampung laikaroda,"CHHF+69H, Laikaroda, Kec. Katikutana, Kabupaten Sumba Tengah, Nusa Tenggara Tim.","Kabupaten Sumba Tengah, Nusa Tenggara Tim.",NUSA TENGGARA TIMUR,,Indonesia,,,,-9.5719332,119.5734873,https://maps.google.com/?cid=0x0:0xb56e7e0b3d52e531,
perumahan,Pembangunan Perumahan,Rumah Bintang,"CH6F+F46, Jl. Waibakul, Anakalang, Kec. Katikutana, Kabupaten Sumba Tengah, Nusa Tenggara Tim.","Kabupaten Sumba Tengah, Nusa Tenggara Tim.",NUSA TENGGARA TIMUR,,Indonesia,,,,-9.5888307,119.5727718,https://maps.google.com/?cid=0x0:0x1921adb83b1ee4fe,
perumahan,Komplek perumahan,Laijodi citi,"CHCF+8J3, Anakalang, Kec. Katikutana, Kabupaten Sumba Tengah, Nusa Tenggara Tim.","Kabupaten Sumba Tengah, Nusa Tenggara Tim.",NUSA TENGGARA TIMUR,,Indonesia,,,,-9.5792274,119.5740419,https://maps.google.com/?cid=0x0:0x92d62901c2b7e199,
perumahan,Komplek perumahan,"Kampung Laimotu - Desa Anakalang, kecamatan Katiku Tana - Sumba Tengah","CH6H+FCF, Anakalang, Kec. Katikutana, Kabupaten Sumba Tengah, Nusa Tenggara Tim.","Kabupaten Sumba Tengah, Nusa Tenggara Tim.",NUSA TENGGARA TIMUR,,Indonesia,,,,-9.5888125,119.5785347,https://maps.google.com/?cid=0x0:0x71434aaf4f9dd400,
perumahan,Komplek perumahan,Rumahnya Pak Aris Ullo,"CH9C+5FR, Anakalang, Kec. Katikutana, Kabupaten Sumba Tengah, Nusa Tenggara Tim.","Kabupaten Sumba Tengah, Nusa Tenggara Tim.",NUSA TENGGARA TIMUR,,Indonesia,,,,-9.5820207,119.5711261,https://maps.google.com/?cid=0x0:0xf9d1f2493411d73,
perumahan,Motel,Kos MEWAH,"9HJ8+5FV, Malinjak, Kec. Katikutana Sel., Kabupaten Sumba Tengah, Nusa Tenggara Tim.","Kabupaten Sumba Tengah, Nusa Tenggara Tim.",NUSA TENGGARA TIMUR,,Indonesia,,,,-9.6187436,119.5663778,https://maps.google.com/?cid=0x0:0xb238f37b8d386d3e,
perumahan,perumahan,Lirasingyou Family,"CH36+2R4 Kampung Situs Praimarada, Jl. Garuda, Kabela Wuntu, Kec. Katikutana, Kabupaten Sumba Tengah, Nusa Tenggara Tim.","Kabupaten Sumba Tengah, Nusa Tenggara Tim.",NUSA TENGGARA TIMUR,,Indonesia,,,,-9.5969747,119.5627435,https://maps.google.com/?cid=0x0:0x56f0e8159d9a2cb1,
perumahan,Komplek perumahan,Kampung waikajawi.,"CH4C+JW2, Anakalang, Kec. Katikutana, Kabupaten Sumba Tengah, Nusa Tenggara Tim.","Kabupaten Sumba Tengah, Nusa Tenggara Tim.",NUSA TENGGARA TIMUR,,Indonesia,,,,-9.5934969,119.5722586,https://maps.google.com/?cid=0x0:0x974fe5568877a664,
perumahan,Pembangunan Perumahan,Perumahan Konpleks Perkebunan,"CH3F+V42, Anakalang, Kec. Katikutana, Kabupaten Sumba Tengah, Nusa Tenggara Tim.","Kabupaten Sumba Tengah, Nusa Tenggara Tim.",NUSA TENGGARA TIMUR,,Indonesia,,,,-9.5958209,119.5728383,https://maps.google.com/?cid=0x0:0xf9d64a92c200fdb5,
perumahan,Pembangunan Perumahan,Laipahogar,"CH4C+JW2, Anakalang, Kec. Katikutana, Kabupaten Sumba Tengah, Nusa Tenggara Tim.","Kabupaten Sumba Tengah, Nusa Tenggara Tim.",NUSA TENGGARA TIMUR,,Indonesia,,,,-9.5923583,119.5721467,https://maps.google.com/?cid=0x0:0xf8328cb063425c93,
perumahan,Komplek perumahan,KAMPUNG LOLAJANGI,"CH8F+83P, Jl. Jambu Jl. Waibakul, Anakalang, Kec. Katikutana, Kabupaten Sumba Tengah, Nusa Tenggara Tim.","Kabupaten Sumba Tengah, Nusa Tenggara Tim.",NUSA TENGGARA TIMUR,,Indonesia,,,,-9.5841554,119.5727089,https://maps.google.com/?cid=0x0:0x5657ee001718c0b5,
perumahan,perumahan,Kec. Katikutana Sel.,"Kabupaten Sumba Tengah, Nusa Tenggara Tim.","Kabupaten Sumba Tengah, Nusa Tenggara Tim.",NUSA TENGGARA TIMUR,,Indonesia,,,,-9.6219405,119.566311,https://maps.google.com/?cid=0x0:0x82c00958893ffd61,
perumahan,Komplek perumahan,Kampung Gallu Langati,"9GCX+6J, Wai Lawa, Kec. Katikutana Sel., Kabupaten Sumba Tengah, Nusa Tenggara Tim.","Kabupaten Sumba Tengah, Nusa Tenggara Tim.",NUSA TENGGARA TIMUR,,Indonesia,,,,-9.6293456,119.5490631,https://maps.google.com/?cid=0x0:0x604f58948a5f8fe1,
perumahan,Komplek perumahan,Lubunyau,"9GJQ+FW7, Wai Lawa, Kec. Katikutana Sel., Kabupaten Sumba Tengah, Nusa Tenggara Tim.","Kabupaten Sumba Tengah, Nusa Tenggara Tim.",NUSA TENGGARA TIMUR,,Indonesia,,,,-9.6191942,119.5403018,https://maps.google.com/?cid=0x0:0x1ac5071c9de4ff03,
perumahan,Komplek perumahan,Kampung Galuwatu,"9HF7+W39, Malinjak, Kec. Katikutana Sel., Kabupaten Sumba Tengah, Nusa Tenggara Tim.","Kabupaten Sumba Tengah, Nusa Tenggara Tim.",NUSA TENGGARA TIMUR,,Indonesia,,,,-9.6252173,119.5627411,https://maps.google.com/?cid=0x0:0x90fd37721eddf514,
perumahan,Komplek perumahan,RUMAH NYA TRISTAN,"CH47+C47, Kabela Wuntu, Kec. Katikutana, Kabupaten Sumba Tengah, Nusa Tenggara Tim.","Kabupaten Sumba Tengah, Nusa Tenggara Tim.",NUSA TENGGARA TIMUR,,Indonesia,,,,-9.592632,119.5635408,https://maps.google.com/?cid=0x0:0x1f2dc17f007e7475,
perumahan,Komplek perumahan,Perumahan MALINJAK REGENCY,"9H98+59M, Malinjak, Kec. Katikutana Sel., Kabupaten Sumba Tengah, Nusa Tenggara Tim.","Kabupaten Sumba Tengah, Nusa Tenggara Tim.",NUSA TENGGARA TIMUR,,Indonesia,81314454448.0,,,-9.6320349,119.565931,https://maps.google.com/?cid=0x0:0x2b8fe729841a90b1,
perumahan,Komplek perumahan,Kampung Ngaduradi,"CH6G+6XW, Anakalang, Kec. Katikutana, Kabupaten Sumba Tengah, Nusa Tenggara Tim.","Kabupaten Sumba Tengah, Nusa Tenggara Tim.",NUSA TENGGARA TIMUR,,Indonesia,,,,-9.5892836,119.5774509,https://maps.google.com/?cid=0x0:0x2c1c63abff0dac47,
perumahan,Komplek perumahan,Kampung Pogu Watu,"9G45+2G, Wai Manu, Kec. Katikutana Sel., Kabupaten Sumba Tengah, Nusa Tenggara Tim.","Kabupaten Sumba Tengah, Nusa Tenggara Tim.",NUSA TENGGARA TIMUR,,Indonesia,,,,-9.6449573,119.5088301,https://maps.google.com/?cid=0x0:0x703bc13178c47681,
perumahan,Pembangunan Perumahan,KAMPUNG LAIMAJULUNG,"CH7F+PW3, Anakalang, Kec. Katikutana, Kabupaten Sumba Tengah, Nusa Tenggara Tim.","Kabupaten Sumba Tengah, Nusa Tenggara Tim.",NUSA TENGGARA TIMUR,,Indonesia,,,,-9.5857236,119.574774,https://maps.google.com/?cid=0x0:0xf002459e072e62d0,
perumahan,Komplek perumahan,Kampung Gallu Happi,"9GQC+P7, Umbu Riri, Kec. Katikutana, Kabupaten Sumba Tengah, Nusa Tenggara Tim.","Kabupaten Sumba Tengah, Nusa Tenggara Tim.",NUSA TENGGARA TIMUR,,Indonesia,,,,-9.6106986,119.5206774,https://maps.google.com/?cid=0x0:0x32d4ea5c0ac514fd,
perumahan,Komplek perumahan,Kampung Ledi Watu,"CH6F+CR3, Kampung Ledi Watu, Anakalang, Kec. Katikutana, Kabupaten Sumba Tengah, Nusa Tenggara Tim.","Kabupaten Sumba Tengah, Nusa Tenggara Tim.",NUSA TENGGARA TIMUR,,Indonesia,,,,-9.5889906,119.5745576,https://maps.google.com/?cid=0x0:0xf784cf72ef965334,
perumahan,Motel,Kos MEWAH,"9HJ8+5FV, Malinjak, Kec. Katikutana Sel., Kabupaten Sumba Tengah, Nusa Tenggara Tim.","Kabupaten Sumba Tengah, Nusa Tenggara Tim.",NUSA TENGGARA TIMUR,,Indonesia,,,,-9.6187436,119.5663778,https://maps.google.com/?cid=0x0:0xb238f37b8d386d3e,
perumahan,Komplek perumahan,"Kampung Laimotu - Desa Anakalang, kecamatan Katiku Tana - Sumba Tengah","CH6H+FCF, Anakalang, Kec. Katikutana, Kabupaten Sumba Tengah, Nusa Tenggara Tim.","Kabupaten Sumba Tengah, Nusa Tenggara Tim.",NUSA TENGGARA TIMUR,,Indonesia,,,,-9.5888125,119.5785347,https://maps.google.com/?cid=0x0:0x71434aaf4f9dd400,
perumahan,Komplek perumahan,kampung Anabura,"9HG8+G4R, Malinjak, Kec. Katikutana Sel., Kabupaten Sumba Tengah, Nusa Tenggara Tim.","Kabupaten Sumba Tengah, Nusa Tenggara Tim.",NUSA TENGGARA TIMUR,,Indonesia,,,,-9.6236422,119.5652778,https://maps.google.com/?cid=0x0:0x73c271f15146fe11,
perumahan,perumahan,Lirasingyou Family,"CH36+2R4 Kampung Situs Praimarada, Jl. Garuda, Kabela Wuntu, Kec. Katikutana, Kabupaten Sumba Tengah, Nusa Tenggara Tim.","Kabupaten Sumba Tengah, Nusa Tenggara Tim.",NUSA TENGGARA TIMUR,,Indonesia,,,,-9.5969747,119.5627435,https://maps.google.com/?cid=0x0:0x56f0e8159d9a2cb1,
perumahan,Komplek perumahan,Rumahnya Pak Aris Ullo,"CH9C+5FR, Anakalang, Kec. Katikutana, Kabupaten Sumba Tengah, Nusa Tenggara Tim.","Kabupaten Sumba Tengah, Nusa Tenggara Tim.",NUSA TENGGARA TIMUR,,Indonesia,,,,-9.5820207,119.5711261,https://maps.google.com/?cid=0x0:0xf9d1f2493411d73,
perumahan,Komplek perumahan,Kampung Praimawona,"9G4G+H2, Wai Manu, Kec. Katikutana Sel., Kabupaten Sumba Tengah, Nusa Tenggara Tim.","Kabupaten Sumba Tengah, Nusa Tenggara Tim.",NUSA TENGGARA TIMUR,,Indonesia,,,,-9.644252,119.525639,https://maps.google.com/?cid=0x0:0x6ad713ee47a9f87e,
perumahan,Pembangunan Perumahan,PATERULIMA,"CH69+CXF, Anakalang, Kec. Katikutana, Kabupaten Sumba Tengah, Nusa Tenggara Tim.","Kabupaten Sumba Tengah, Nusa Tenggara Tim.",NUSA TENGGARA TIMUR,,Indonesia,,,,-9.5890257,119.5703134,https://maps.google.com/?cid=0x0:0x1372bc5900121b7c,
perumahan,Pembangunan Perumahan,Perumahan Konpleks Perkebunan,"CH3F+V42, Anakalang, Kec. Katikutana, Kabupaten Sumba Tengah, Nusa Tenggara Tim.","Kabupaten Sumba Tengah, Nusa Tenggara Tim.",NUSA TENGGARA TIMUR,,Indonesia,,,,-9.5958209,119.5728383,https://maps.google.com/?cid=0x0:0xf9d64a92c200fdb5,
perumahan,Pembangunan Perumahan,Rumah Bintang,"CH6F+F46, Jl. Waibakul, Anakalang, Kec. Katikutana, Kabupaten Sumba Tengah, Nusa Tenggara Tim.","Kabupaten Sumba Tengah, Nusa Tenggara Tim.",NUSA TENGGARA TIMUR,,Indonesia,,,,-9.5888307,119.5727718,https://maps.google.com/?cid=0x0:0x1921adb83b1ee4fe,
perumahan,Komplek perumahan,Laijodi citi,"CHCF+8J3, Anakalang, Kec. Katikutana, Kabupaten Sumba Tengah, Nusa Tenggara Tim.","Kabupaten Sumba Tengah, Nusa Tenggara Tim.",NUSA TENGGARA TIMUR,,Indonesia,,,,-9.5792274,119.5740419,https://maps.google.com/?cid=0x0:0x92d62901c2b7e199,
perumahan,Komplek perumahan,Kampung Galuteku,"CHFC+GRJ Jara, Jl. Lintas Waibakul, Pondok, Galuteku, Desa Dewa Jara, Kec. Katikutana, Kabupaten Sumba Tengah, Nusa Tenggara Tim.","Kabupaten Sumba Tengah, Nusa Tenggara Tim.",NUSA TENGGARA TIMUR,,Indonesia,85239719791.0,,,-9.5761625,119.5720156,https://maps.google.com/?cid=0x0:0xab32d75dcb1074d7,
perumahan,Pembangunan Perumahan,Daniel Bokamanu  Vantri,"9G5M+6X4, Dameka, Kec. Katikutana Sel., Kabupaten Sumba Tengah, Nusa Tenggara Tim.","Kabupaten Sumba Tengah, Nusa Tenggara Tim.",NUSA TENGGARA TIMUR,,Indonesia,,,,-9.641978,119.5349632,https://maps.google.com/?cid=0x0:0xcf4d1b202c55415d,
perumahan,Perhimpunan Pengembang Perumahan,PT API,"Unnamed Road, Manu Wolu, Kec. Mamboro, Kabupaten Sumba Tengah, Nusa Tenggara Tim.","Kabupaten Sumba Tengah, Nusa Tenggara Tim.",NUSA TENGGARA TIMUR,,Indonesia,82146555766.0,,,-9.3604252,119.5692217,https://maps.google.com/?cid=0x0:0x2fc8355327cba51,
perumahan,perumahan,Kec. Mamboro,"Kabupaten Sumba Tengah, Nusa Tenggara Tim.","Kabupaten Sumba Tengah, Nusa Tenggara Tim.",NUSA TENGGARA TIMUR,,Indonesia,,,,-9.3815169,119.5397707,https://maps.google.com/?cid=0x0:0xd178484c806754d1,
perumahan,Pembangunan Perumahan,"Mamboro,Sumba Tengah","JG8V+R5H, Wendewa Utara, Kec. Mamboro, Kabupaten Sumba Tengah, Nusa Tenggara Tim.","Kabupaten Sumba Tengah, Nusa Tenggara Tim.",NUSA TENGGARA TIMUR,,Indonesia,,,,-9.3829425,119.5429735,https://maps.google.com/?cid=0x0:0x8cdba6099cd2d3f8,
perumahan,Komplek perumahan,Rumah Bp. Vita,"FFMH+R9, Wee Luri, Kec. Mamboro, Kabupaten Sumba Tengah, Nusa Tenggara Tim.","Kabupaten Sumba Tengah, Nusa Tenggara Tim.",NUSA TENGGARA TIMUR,,Indonesia,,,,-9.5154634,119.4784775,https://maps.google.com/?cid=0x0:0x6d82252f7dde9b4f,
perumahan,Perhimpunan Pengembang Perumahan,Kampung Paboku,"GF4Q+8CP, Ole Ate, Kec. Mamboro, Kabupaten Sumba Tengah, Nusa Tenggara Tim.","Kabupaten Sumba Tengah, Nusa Tenggara Tim.",NUSA TENGGARA TIMUR,,Indonesia,,,,-9.4941542,119.4885923,https://maps.google.com/?cid=0x0:0xd50d267c6dcf5302,
perumahan,Perhimpunan Pengembang Perumahan,For R,"JGCQ+723, Wendewa Utara, Kec. Mamboro, Kabupaten Sumba Tengah, Nusa Tenggara Tim.","Kabupaten Sumba Tengah, Nusa Tenggara Tim.",NUSA TENGGARA TIMUR,,Indonesia,,,,-9.3793679,119.5375522,https://maps.google.com/?cid=0x0:0x397816cd62fc1d0d,
perumahan,Rumah Kayu,Tana bara,"Desa susu wendewa, Wendewa Bar., Kec. Mamboro, Kabupaten Sumba Tengah, Nusa Tenggara Tim.","Kabupaten Sumba Tengah, Nusa Tenggara Tim.",NUSA TENGGARA TIMUR,,Indonesia,,,,-9.403198,119.452718,https://maps.google.com/?cid=0x0:0xee92ed40551c0ddb,
perumahan,perumahan,Tana Rara,"FFGG+896, Wee Luri, Kec. Mamboro, Kabupaten Sumba Tengah, Nusa Tenggara Tim.","Kabupaten Sumba Tengah, Nusa Tenggara Tim.",NUSA TENGGARA TIMUR,,Indonesia,,,,-9.5242204,119.4758985,https://maps.google.com/?cid=0x0:0xcbe7b56bcfb68fd1,
perumahan,Komplek perumahan,M.Akbar,"JG9Q+M4R, Wendewa Utara, Kec. Mamboro, Kabupaten Sumba Tengah, Nusa Tenggara Tim.","Kabupaten Sumba Tengah, Nusa Tenggara Tim.",NUSA TENGGARA TIMUR,,Indonesia,81339097442.0,,,-9.38168,119.538062,https://maps.google.com/?cid=0x0:0xf44e40b674518183,
perumahan,Perhimpunan Pengembang Perumahan,Kampung Tengah,"JG32+797, Wendewa Bar., Kec. Mamboro, Kabupaten Sumba Tengah, Nusa Tenggara Tim.","Kabupaten Sumba Tengah, Nusa Tenggara Tim.",NUSA TENGGARA TIMUR,,Indonesia,81237471746.0,,,-9.396849,119.5009327,https://maps.google.com/?cid=0x0:0xfdaf90280b617dfc,
perumahan,perumahan,Simon dony,"HHW2+X3H, Wendewa Sel., Kec. Mamboro, Kabupaten Sumba Tengah, Nusa Tenggara Tim.","Kabupaten Sumba Tengah, Nusa Tenggara Tim.",NUSA TENGGARA TIMUR,,Indonesia,,,,-9.4019233,119.5501049,https://maps.google.com/?cid=0x0:0x4ea16744d927c325,
perumahan,Komplek perumahan,Paringu,"HFG4+VM, Wendewa Bar., Kec. Mamboro, Kabupaten Sumba Tengah, Nusa Tenggara Tim.","Kabupaten Sumba Tengah, Nusa Tenggara Tim.",NUSA TENGGARA TIMUR,,Indonesia,,,,-9.422833,119.456651,https://maps.google.com/?cid=0x0:0x5c4b4e7a42daa903,
perumahan,Pembangunan Perumahan,Tara Ganu,"HHRR+JQ8, Wendewa Tim., Kec. Mamboro, Kabupaten Sumba Tengah, Nusa Tenggara Tim.","Kabupaten Sumba Tengah, Nusa Tenggara Tim.",NUSA TENGGARA TIMUR,,Indonesia,,,,-9.4084743,119.5919555,https://maps.google.com/?cid=0x0:0x7a77cd5748043425,
perumahan,Pembangunan Perumahan,Parakatondu,"JHCC+72, Manu Wolu, Kec. Mamboro, Kabupaten Sumba Tengah, Nusa Tenggara Tim.","Kabupaten Sumba Tengah, Nusa Tenggara Tim.",NUSA TENGGARA TIMUR,,Indonesia,,,,-9.3792766,119.5700494,https://maps.google.com/?cid=0x0:0x7c899304e5e58b05,
perumahan,perumahan,Myone Kurtika,"JG5P+XJ9, Wendewa Utara, Kec. Mamboro, Kabupaten Sumba Tengah, Nusa Tenggara Tim.","Kabupaten Sumba Tengah, Nusa Tenggara Tim.",NUSA TENGGARA TIMUR,,Indonesia,,,,-9.3900906,119.5366076,https://maps.google.com/?cid=0x0:0xd005a4e369433ba2,
perumahan,Komplek perumahan,Kampung parabila,"HHQ8+5R, Wendewa Tim., Kec. Mamboro, Kabupaten Sumba Tengah, Nusa Tenggara Tim.","Kabupaten Sumba Tengah, Nusa Tenggara Tim.",NUSA TENGGARA TIMUR,,Indonesia,,,,-9.4120984,119.5670065,https://maps.google.com/?cid=0x0:0x215ec9daa7744092,
perumahan,Pembangunan Perumahan,Bapa soni,"FGX3+GCP, Ole Ate, Kec. Mamboro, Kabupaten Sumba Tengah, Nusa Tenggara Tim.","Kabupaten Sumba Tengah, Nusa Tenggara Tim.",NUSA TENGGARA TIMUR,,Indonesia,,,,-9.5011626,119.503581,https://maps.google.com/?cid=0x0:0xc23d32d6116e3912,
perumahan,Pembangunan Perumahan,Tara Ganu,"HHW8+VMF, Wendewa Tim., Kec. Mamboro, Kabupaten Sumba Tengah, Nusa Tenggara Tim.","Kabupaten Sumba Tengah, Nusa Tenggara Tim.",NUSA TENGGARA TIMUR,,Indonesia,,,,-9.4026919,119.567271,https://maps.google.com/?cid=0x0:0xb6b60157e82ff2e0,
perumahan,Pembangunan Perumahan,Bapa Manda,"GF5V+6V9, Ole Ate, Kec. Mamboro, Kabupaten Sumba Tengah, Nusa Tenggara Tim.","Kabupaten Sumba Tengah, Nusa Tenggara Tim.",NUSA TENGGARA TIMUR,,Indonesia,,,,-9.4918158,119.4946808,https://maps.google.com/?cid=0x0:0xb8ebebc78a75b51f,
perumahan,perumahan,Simpang Cendana,"GHP3+W6, Cendana, Kec. Mamboro, Kabupaten Sumba Tengah, Nusa Tenggara Tim.","Kabupaten Sumba Tengah, Nusa Tenggara Tim.",NUSA TENGGARA TIMUR,,Indonesia,,,,-9.4615118,119.5528522,https://maps.google.com/?cid=0x0:0x39bf8f4feced1344,
perumahan,Perhimpunan Pengembang Perumahan,Komplek sangumata desa wendewa timur kecamatan mamboro,"HHW6+M9P, Wendewa Tim., Kec. Mamboro, Kabupaten Sumba Tengah, Nusa Tenggara Tim.","Kabupaten Sumba Tengah, Nusa Tenggara Tim.",NUSA TENGGARA TIMUR,,Indonesia,,,,-9.4027255,119.5620565,https://maps.google.com/?cid=0x0:0xb684529257055752,
perumahan,perumahan,Mamboro,"Kec. Palu Utara, Kota Palu, Sulawesi Tengah","Kota Palu, Sulawesi Tengah",NUSA TENGGARA TIMUR,,Indonesia,,,,-0.7934601,119.8930904,https://maps.google.com/?cid=0x0:0xd22639a8282b47e2,
perumahan,Perhimpunan Pengembang Perumahan,Perumahan My Land Mamboro,"Jl. Lamalipu No.Kelurahan, Mamboro, Kec. Palu Utara, Kota Palu, Sulawesi Tengah 94145","Mamboro, Kec. Palu Utara, Kota Palu",NUSA TENGGARA TIMUR,94145.0,Indonesia,85399998002.0,,,-0.7822765,119.8824388,https://maps.google.com/?cid=0x0:0xe3532c8d641e5c08,
perumahan,Komplek perumahan,Perumahan Gemilang Mamboro,"6V8H+G94, Mamboro, Kec. Palu Utara, Kota Palu, Sulawesi Tengah 94145","Mamboro, Kec. Palu Utara, Kota Palu",NUSA TENGGARA TIMUR,94145.0,Indonesia,85340220377.0,,,-0.783749,119.8784579,https://maps.google.com/?cid=0x0:0xfb1d0e72b4b6740a,
perumahan,Pembangunan Perumahan,Mamboro Land,"Jl. Sukarno Hatta, Mamboro, Kec. Palu Utara, Kota Palu, Sulawesi Tengah 94145","Mamboro, Kec. Palu Utara, Kota Palu",NUSA TENGGARA TIMUR,94145.0,Indonesia,82348295170.0,,,-0.7873647,119.8875926,https://maps.google.com/?cid=0x0:0xf8adf1ae82a80e6a,
perumahan,Komplek perumahan,Perum. Cikha Land Mamboro,"Jl. Sungai Palayua, Taipa, Kec. Palu Utara, Kota Palu, Sulawesi Tengah 94145","Taipa, Kec. Palu Utara, Kota Palu",NUSA TENGGARA TIMUR,94145.0,Indonesia,81241681977.0,,,-0.780205,119.8806097,https://maps.google.com/?cid=0x0:0xf0d079b7ca6cff98,
perumahan,Komplek perumahan,BTN Jingga Land Mamboro,"Jl. Sungai Palayua, Taipa, Kec. Palu Utara, Kota Palu, Sulawesi Tengah 94145","Taipa, Kec. Palu Utara, Kota Palu",NUSA TENGGARA TIMUR,94145.0,Indonesia,,,,-0.7783471,119.8808019,https://maps.google.com/?cid=0x0:0x4ec0b56055315cdf,
perumahan,Komplek perumahan,Perumahan Aura Residence Mamboro,"6V8H+3J, Mamboro, Kec. Palu Utara, Kota Palu, Sulawesi Tengah 94145","Mamboro, Kec. Palu Utara, Kota Palu",NUSA TENGGARA TIMUR,94145.0,Indonesia,,,,-0.7847743,119.8792338,https://maps.google.com/?cid=0x0:0xa8f8de93dcf1718,
perumahan,Komplek perumahan,HUNTAP MAMBORO,"6V2G+MWF, Mamboro, Kec. Palu Utara, Kota Palu, Sulawesi Tengah 94147","Mamboro, Kec. Palu Utara, Kota Palu",NUSA TENGGARA TIMUR,94147.0,Indonesia,,,,-0.7983176,119.8773103,https://maps.google.com/?cid=0x0:0x7258038af7495148,
perumahan,perumahan,Kec. Umbu Ratu Nggay,"Kabupaten Sumba Tengah, Nusa Tenggara Tim.","Kabupaten Sumba Tengah, Nusa Tenggara Tim.",NUSA TENGGARA TIMUR,,Indonesia,,,,-9.5320614,119.7114631,https://maps.google.com/?cid=0x0:0x3e1b41bfd00caaee,
perumahan,Pembangunan Perumahan,Ou Jawa,"8QW5+C65, Desa Ngadu Olu, Mbilur Pangadu, Kec. Umbu Ratu Nggay, Kabupaten Sumba Tengah, Nusa Tenggara Tim.","Kabupaten Sumba Tengah, Nusa Tenggara Tim.",NUSA TENGGARA TIMUR,,Indonesia,,,,-9.6539942,119.7581214,https://maps.google.com/?cid=0x0:0x4cdc780fd8e34b4d,
perumahan,Komplek perumahan,Pak Manggris,"CP88+JVR, Mara Desa, Kec. Umbu Ratu Nggay, Kabupaten Sumba Tengah, Nusa Tenggara Tim.","Kabupaten Sumba Tengah, Nusa Tenggara Tim.",NUSA TENGGARA TIMUR,,Indonesia,,,,-9.5833965,119.7171526,https://maps.google.com/?cid=0x0:0x939a4c0482496054,
perumahan,Komplek perumahan,Kampung Uma Paohi,"FMVJ+78, Bolubokat Utara, Kec. Umbu Ratu Nggay, Kabupaten Sumba Tengah, Nusa Tenggara Tim.","Kabupaten Sumba Tengah, Nusa Tenggara Tim.",NUSA TENGGARA TIMUR,,Indonesia,,,,-9.506753,119.6808238,https://maps.google.com/?cid=0x0:0xab6f217f8b4de4fc,
perumahan,Komplek perumahan,KAMPUNG PRAILAWORU,"FJ64+662, Prai Madeta, Kec. Umbu Ratu Nggay Bar., Kabupaten Sumba Tengah, Nusa Tenggara Tim.","Kabupaten Sumba Tengah, Nusa Tenggara Tim.",NUSA TENGGARA TIMUR,,Indonesia,,,,-9.5394946,119.6055116,https://maps.google.com/?cid=0x0:0xb6fbd7c4ba159540,
perumahan,Pembangunan Perumahan,Umbu Randa,"8QR3+MWH, Mbilur Pangadu, Kec. Umbu Ratu Nggay, Kabupaten Sumba Tengah, Nusa Tenggara Tim.","Kabupaten Sumba Tengah, Nusa Tenggara Tim.",NUSA TENGGARA TIMUR,,Indonesia,,,,-9.6583222,119.7548527,https://maps.google.com/?cid=0x0:0xd29355a2d4430136,
perumahan,Komplek perumahan,Simpang Yerara - Papounggu,"CP6Q+9PC, Weluk Prai Memang, Kec. Umbu Ratu Nggay, Kabupaten Sumba Tengah, Nusa Tenggara Tim.","Kabupaten Sumba Tengah, Nusa Tenggara Tim.",NUSA TENGGARA TIMUR,,Indonesia,,,,-9.5890653,119.739269,https://maps.google.com/?cid=0x0:0x27c1a39fb52e22dd,
perumahan,Komplek perumahan,Kampung Maharang,"9R2J+95X, Padira Tana, Kec. Umbu Ratu Nggay, Kabupaten Sumba Tengah, Nusa Tenggara Tim.","Kabupaten Sumba Tengah, Nusa Tenggara Tim.",NUSA TENGGARA TIMUR,,Indonesia,,,,-9.649015,119.8304782,https://maps.google.com/?cid=0x0:0xc59624e96cf0afef,
perumahan,Pembangunan Perumahan,"Waicimung, BBU","FMFJ+C9G, Bolubokat Utara, Kec. Umbu Ratu Nggay, Kabupaten Sumba Tengah, Nusa Tenggara Tim.","Kabupaten Sumba Tengah, Nusa Tenggara Tim.",NUSA TENGGARA TIMUR,,Indonesia,,,,-9.5264446,119.6809497,https://maps.google.com/?cid=0x0:0x7d638b7edca5c2e9,
perumahan,Komplek perumahan,Kampung Pangadu Jara,"FJ63+2X9, Prai Madeta, Kec. Umbu Ratu Nggay Bar., Kabupaten Sumba Tengah, Nusa Tenggara Tim.","Kabupaten Sumba Tengah, Nusa Tenggara Tim.",NUSA TENGGARA TIMUR,,Indonesia,,,,-9.5399508,119.6049732,https://maps.google.com/?cid=0x0:0xfe2052a1347bb9c5,
perumahan,Komplek perumahan,Wacu Lingu,"CP88+MR9, Mara Desa, Kec. Umbu Ratu Nggay, Kabupaten Sumba Tengah, Nusa Tenggara Tim.","Kabupaten Sumba Tengah, Nusa Tenggara Tim.",NUSA TENGGARA TIMUR,,Indonesia,,,,-9.5834241,119.7171972,https://maps.google.com/?cid=0x0:0x576013830830c19a,
perumahan,Pembangunan Perumahan,Paltimandina,"8QW4+89X, Mbilur Pangadu, Kec. Umbu Ratu Nggay, Kabupaten Sumba Tengah, Nusa Tenggara Tim.","Kabupaten Sumba Tengah, Nusa Tenggara Tim.",NUSA TENGGARA TIMUR,,Indonesia,,,,-9.6541429,119.7559972,https://maps.google.com/?cid=0x0:0x71a81f2a905c961e,
perumahan,Pembangunan Perumahan,Kampung Wacu Ngodu Lawonda,"FJC2+5Q6, Prai Madeta, Kec. Umbu Ratu Nggay Bar., Kabupaten Sumba Tengah, Nusa Tenggara Tim.","Kabupaten Sumba Tengah, Nusa Tenggara Tim.",NUSA TENGGARA TIMUR,,Indonesia,,,,-9.5295955,119.6018925,https://maps.google.com/?cid=0x0:0x93e964cf15646b0c,
perumahan,Pembangunan Perumahan,KAMPUNG PRAIKABATA,"Prai Madeta, Kec. Umbu Ratu Nggay Bar., Kabupaten Sumba Tengah, Nusa Tenggara Tim.","Kabupaten Sumba Tengah, Nusa Tenggara Tim.",NUSA TENGGARA TIMUR,,Indonesia,81279241023.0,,,-9.53833,119.6054661,https://maps.google.com/?cid=0x0:0x6eaa838de13226b0,
perumahan,Komplek perumahan,Kampung Praijaba,"FJH2+G48, Prai Madeta, Kec. Umbu Ratu Nggay Bar., Kabupaten Sumba Tengah, Nusa Tenggara Tim.","Kabupaten Sumba Tengah, Nusa Tenggara Tim.",NUSA TENGGARA TIMUR,,Indonesia,,,,-9.5212192,119.6003434,https://maps.google.com/?cid=0x0:0x54aa36f0e6e8690a,
perumahan,Komplek perumahan,Gresel siti,"GM6W+RGJ, Bolubokat Utara, Kec. Umbu Ratu Nggay, Kabupaten Sumba Tengah, Nusa Tenggara Tim.","Kabupaten Sumba Tengah, Nusa Tenggara Tim.",NUSA TENGGARA TIMUR,,Indonesia,,,,-9.4879226,119.6962677,https://maps.google.com/?cid=0x0:0x215400923a224a90,
perumahan,Komplek perumahan,desa dasa elu,"GM6W+RGJ, Bolubokat Utara, Kec. Umbu Ratu Nggay, Kabupaten Sumba Tengah, Nusa Tenggara Tim.","Kabupaten Sumba Tengah, Nusa Tenggara Tim.",NUSA TENGGARA TIMUR,,Indonesia,,,,-9.4879226,119.6962677,https://maps.google.com/?cid=0x0:0xcee1994875e8c657,
perumahan,Taman bermain,Sumba Tengah NTT,"GM6W+RGJ, Bolubokat Utara, Kec. Umbu Ratu Nggay, Kabupaten Sumba Tengah, Nusa Tenggara Tim.","Kabupaten Sumba Tengah, Nusa Tenggara Tim.",NUSA TENGGARA TIMUR,,Indonesia,,,,-9.4879226,119.6962677,https://maps.google.com/?cid=0x0:0x7b6a92e8d8c046f1,
perumahan,Pembangunan Perumahan,Uma Moru,"Mbilur Pangadu, Kec. Umbu Ratu Nggay, Kabupaten Sumba Tengah, Nusa Tenggara Tim.","Kabupaten Sumba Tengah, Nusa Tenggara Tim.",NUSA TENGGARA TIMUR,,Indonesia,,,,-9.6508652,119.7489084,https://maps.google.com/?cid=0x0:0x71b9c0521d10d566,
perumahan,Komplek perumahan,Kampung Alicu,"FMHP+52, Mara Desa, Kec. Umbu Ratu Nggay, Kabupaten Sumba Tengah, Nusa Tenggara Tim.","Kabupaten Sumba Tengah, Nusa Tenggara Tim.",NUSA TENGGARA TIMUR,,Indonesia,,,,-9.5220625,119.6850625,https://maps.google.com/?cid=0x0:0x59eb4ebe04f80c86,
perumahan,Pembangunan Perumahan,Pantai okaa,"JP76+FGW, Ngadu Mbolu, Kec. Umbu Ratu Nggay, Kabupaten Sumba Tengah, Nusa Tenggara Tim.","Kabupaten Sumba Tengah, Nusa Tenggara Tim.",NUSA TENGGARA TIMUR,,Indonesia,,,,-9.3862577,119.7113412,https://maps.google.com/?cid=0x0:0xd4d32d85eb80f941,
perumahan,Komplek perumahan,Kampung jajul,"FM79+PQR, Bolubokat, Kec. Umbu Ratu Nggay, Kabupaten Sumba Tengah, Nusa Tenggara Tim.","Kabupaten Sumba Tengah, Nusa Tenggara Tim.",NUSA TENGGARA TIMUR,,Indonesia,,,,-9.5356377,119.6693922,https://maps.google.com/?cid=0x0:0xbb96438ffdceaa56,
perumahan,perumahan,Kec. Umbu Ratu Nggay Bar.,"Kabupaten Sumba Tengah, Nusa Tenggara Tim.","Kabupaten Sumba Tengah, Nusa Tenggara Tim.",NUSA TENGGARA TIMUR,,Indonesia,,,,-9.6106513,119.6237901,https://maps.google.com/?cid=0x0:0x60c5b24a288eb10b,
perumahan,Komplek perumahan,Kampung dula,"9MH4+927, Umbu langang, Kec. Umbu Ratu Nggay Bar., Kabupaten Sumba Tengah, Nusa Tenggara Tim.","Kabupaten Sumba Tengah, Nusa Tenggara Tim.",NUSA TENGGARA TIMUR,,Indonesia,,,,-9.621595,119.6550393,https://maps.google.com/?cid=0x0:0x7d324e9fff996d8a,
perumahan,Komplek perumahan,Praiweru,"CJ3M+CWJ, Desa, Umbu Jodu, Kec. Umbu Ratu Nggay Bar., Kabupaten Sumba Tengah, Nusa Tenggara Tim.","Kabupaten Sumba Tengah, Nusa Tenggara Tim.",NUSA TENGGARA TIMUR,,Indonesia,82146600853.0,,,-9.5964247,119.6347692,https://maps.google.com/?cid=0x0:0x2dc73f16fb809e13,
perumahan,Pembangunan Perumahan,kampung Wagga,"9JCP+7MG, Selatan, Umbu Pabal, Kec. Umbu Ratu Nggay Bar., Kabupaten Sumba Tengah, Nusa Tenggara Tim.","Kabupaten Sumba Tengah, Nusa Tenggara Tim.",NUSA TENGGARA TIMUR,,Indonesia,,,,-9.6293246,119.6367014,https://maps.google.com/?cid=0x0:0x62dbe39142b2d7ca,
perumahan,Pembangunan Perumahan,FRANS UMBU,"9JQW+RP2, Umbu Pabal, Kec. Umbu Ratu Nggay Bar., Kabupaten Sumba Tengah, Nusa Tenggara Tim.","Kabupaten Sumba Tengah, Nusa Tenggara Tim.",NUSA TENGGARA TIMUR,,Indonesia,,,,-9.6104969,119.646768,https://maps.google.com/?cid=0x0:0x83efd16790425d1e,
perumahan,Rumah Kaca,Katuduk watu,"9HXX+2HM, Wai Rasa, Kec. Umbu Ratu Nggay Bar., Kabupaten Sumba Tengah, Nusa Tenggara Tim.","Kabupaten Sumba Tengah, Nusa Tenggara Tim.",NUSA TENGGARA TIMUR,,Indonesia,,,,-9.6024335,119.5989599,https://maps.google.com/?cid=0x0:0x23184f9652bd4f0f,
perumahan,Komplek perumahan,Malandi,"CJ7F+WF4, Umbu Kawolu, Kec. Umbu Ratu Nggay Bar., Kabupaten Sumba Tengah, Nusa Tenggara Tim.","Kabupaten Sumba Tengah, Nusa Tenggara Tim.",NUSA TENGGARA TIMUR,,Indonesia,,,,-9.5852433,119.6237123,https://maps.google.com/?cid=0x0:0xc20c0c15f7777d7a,
perumahan,Komplek perumahan,Deni M Amahu,"9JJR+2HF, Unnamed Road, Umbu Pabal, Kec. Umbu Ratu Nggay Bar., Kabupaten Sumba Tengah, Nusa Tenggara Tim.","Kabupaten Sumba Tengah, Nusa Tenggara Tim.",NUSA TENGGARA TIMUR,,Indonesia,,,,-9.6199366,119.6414267,https://maps.google.com/?cid=0x0:0xe2f82b2300278fc2,
perumahan,Pembangunan Perumahan,Kampung Parekabodung (Kawatang),"9JPQ+7M, Umbu Pabal, Kec. Umbu Ratu Nggay Bar., Kabupaten Sumba Tengah, Nusa Tenggara Tim.","Kabupaten Sumba Tengah, Nusa Tenggara Tim.",NUSA TENGGARA TIMUR,,Indonesia,,,,-9.6144155,119.6392186,https://maps.google.com/?cid=0x0:0x4ff9c221de5dc554,
perumahan,Pembangunan Perumahan,Loku Ujung,"9JR5+W4, Wai Rasa, Kec. Umbu Ratu Nggay Bar., Kabupaten Sumba Tengah, Nusa Tenggara Tim.","Kabupaten Sumba Tengah, Nusa Tenggara Tim.",NUSA TENGGARA TIMUR,,Indonesia,,,,-9.6077378,119.6077374,https://maps.google.com/?cid=0x0:0x7ba41f0c0f7126f9,
perumahan,Pembangunan Perumahan,Dewa Kaworung,"CH9M+FM5, Anajiaka, Kec. Umbu Ratu Nggay Bar., Kabupaten Sumba Tengah, Nusa Tenggara Tim.","Kabupaten Sumba Tengah, Nusa Tenggara Tim.",NUSA TENGGARA TIMUR,,Indonesia,,,,-9.5813655,119.5842428,https://maps.google.com/?cid=0x0:0xa35cbcc5dc788dd2,
perumahan,Komplek perumahan,Rumah ARRY Uki,"9HVX+79J, Wai Rasa, Kec. Umbu Ratu Nggay Bar., Kabupaten Sumba Tengah, Nusa Tenggara Tim.","Kabupaten Sumba Tengah, Nusa Tenggara Tim.",NUSA TENGGARA TIMUR,,Indonesia,,,,-9.606783,119.5983793,https://maps.google.com/?cid=0x0:0x482b93cc495506ad,
perumahan,Komplek perumahan,Kampung Patunu Wodu,"CHMM+WJ, Anajiaka, Kec. Umbu Ratu Nggay Bar., Kabupaten Sumba Tengah, Nusa Tenggara Tim.","Kabupaten Sumba Tengah, Nusa Tenggara Tim.",NUSA TENGGARA TIMUR,,Indonesia,,,,-9.5652124,119.5840255,https://maps.google.com/?cid=0x0:0x74af9a0806981f8,
perumahan,Komplek perumahan,Ganilou,"9JVF+5PQ, Umbu Mamijuk, Kec. Umbu Ratu Nggay Bar., Kabupaten Sumba Tengah, Nusa Tenggara Tim.","Kabupaten Sumba Tengah, Nusa Tenggara Tim.",NUSA TENGGARA TIMUR,,Indonesia,,,,-9.6065248,119.62542,https://maps.google.com/?cid=0x0:0x242429eae865fda5,
perumahan,Komplek perumahan,Joluk LiangMarapu;,"8JVM+J6, Umbu Pabal, Kec. Umbu Ratu Nggay Bar., Kabupaten Sumba Tengah, Nusa Tenggara Tim.","Kabupaten Sumba Tengah, Nusa Tenggara Tim.",NUSA TENGGARA TIMUR,,Indonesia,,,,-9.6553565,119.6326763,https://maps.google.com/?cid=0x0:0x60b66a63c5c000af,
perumahan,Komplek perumahan,Yandri House,"CH2X+48, Wai Rasa, Kec. Umbu Ratu Nggay Bar., Kabupaten Sumba Tengah, Nusa Tenggara Tim.","Kabupaten Sumba Tengah, Nusa Tenggara Tim.",NUSA TENGGARA TIMUR,,Indonesia,,,,-9.5996875,119.5983125,https://maps.google.com/?cid=0x0:0xe06f0e1ee9d2d927,
perumahan,Komplek perumahan,Rumah siapa kek,"CH9M+PFQ, Praikalubang, Ngodu Paledi, Anajiaka, Kec. Umbu Ratu Nggay Bar., Kabupaten Sumba Tengah, Nusa Tenggara Tim.","Kabupaten Sumba Tengah, Nusa Tenggara Tim.",NUSA TENGGARA TIMUR,,Indonesia,,,,-9.580662,119.5837388,https://maps.google.com/?cid=0x0:0xdae0b8d41f7c49bd,
perumahan,Pembangunan Perumahan,Matawaikarubuk,"CH2X+48, Wai Rasa, Kec. Umbu Ratu Nggay Bar., Kabupaten Sumba Tengah, Nusa Tenggara Tim.","Kabupaten Sumba Tengah, Nusa Tenggara Tim.",NUSA TENGGARA TIMUR,,Indonesia,,,,-9.5996269,119.5983002,https://maps.google.com/?cid=0x0:0x522a7f2f1bec9078,
perumahan,Komplek perumahan,Kaory City,"9JQ9+QP6, Umbu Mamijuk, Kec. Umbu Ratu Nggay Bar., Kabupaten Sumba Tengah, Nusa Tenggara Tim.","Kabupaten Sumba Tengah, Nusa Tenggara Tim.",NUSA TENGGARA TIMUR,,Indonesia,,,,-9.6105826,119.6192643,https://maps.google.com/?cid=0x0:0xcb8159124245666e,
perumahan,Komplek perumahan,Manolang Square,"9HRX+74V, Wai Rasa, Kec. Umbu Ratu Nggay Bar., Kabupaten Sumba Tengah, Nusa Tenggara Tim.","Kabupaten Sumba Tengah, Nusa Tenggara Tim.",NUSA TENGGARA TIMUR,,Indonesia,,,,-9.6092517,119.5977855,https://maps.google.com/?cid=0x0:0x7b1411503074aad7,
perumahan,Komplek perumahan,Praikatondu maja,"CHGM+HP2, Anapalu, Kec. Umbu Ratu Nggay Bar., Kabupaten Sumba Tengah, Nusa Tenggara Tim.","Kabupaten Sumba Tengah, Nusa Tenggara Tim.",NUSA TENGGARA TIMUR,,Indonesia,,,,-9.5736125,119.5842656,https://maps.google.com/?cid=0x0:0xb53f2d3d295e615c,
perumahan,Pembangunan Perumahan,KAMPUNG PRAIKABATA,"Prai Madeta, Kec. Umbu Ratu Nggay Bar., Kabupaten Sumba Tengah, Nusa Tenggara Tim.","Kabupaten Sumba Tengah, Nusa Tenggara Tim.",NUSA TENGGARA TIMUR,,Indonesia,81279241023.0,,,-9.53833,119.6054661,https://maps.google.com/?cid=0x0:0x6eaa838de13226b0,
