Category,Real Category,Business Name,Address,City,State,Postal Code,Country,Phone,Latitude,Longitude,Map Link
cafe,cafe,Distrik Aifat,"Kabupaten Maybrat, Papua Bar.","Kabupaten Maybrat, Papua Bar.",PAPUA BARAT,,Indonesia,,-1.2568532,132.5001338,https://maps.google.com/?cid=0x0:0xcc3d52ba3ddd33de
cafe,Dapur Umum,KIOS AIFAT JAYA DAN WARUNG AIFAT JAYA,"PFVX+24P, Eisyo, Distrik Aifat, Kabupaten Maybrat, Papua Bar. 98463","Eisyo, Distrik Aifat, Kabupaten Maybrat",PAPUA BARAT,98463.0,Indonesia,,-1.2582207,132.4977964,https://maps.google.com/?cid=0x0:0x6896cde496ab319b
cafe,cafe,RM. SINGGAH DOLO,"PGV2+732, Eisyo, Distrik Aifat, Kabupaten Maybrat, Papua Bar. 98463","Eisyo, Distrik Aifat, Kabupaten Maybrat",PAPUA BARAT,98463.0,Indonesia,,-1.2568978,132.5001312,https://maps.google.com/?cid=0x0:0x5820a47ebba15398
cafe,Nasi,Kios Aifat jaya,"PFQ9+82V, Kumurkek, Distrik Aifat, Kabupaten Maybrat, Papua Bar. 98463","Kumurkek, Distrik Aifat, Kabupaten Maybrat",PAPUA BARAT,98463.0,Indonesia,,-1.2616392,132.4675475,https://maps.google.com/?cid=0x0:0x3275eb5a1d4dcdfe
cafe,Dapur Umum,Warung Makan Sederhana MAS ANDY Kumurkek,"PFWX+RP4, Fait Mayaf, Distrik Aifat, Kabupaten Maybrat, Papua Bar. 98463","Fait Mayaf, Distrik Aifat, Kabupaten Maybrat",PAPUA BARAT,98463.0,Indonesia,,-1.252981,132.4993399,https://maps.google.com/?cid=0x0:0xd77688734fd6dc09
cafe,Toko bahan makanan,RM Berkat Balantak,"RF77+C36, Ayawasi, Distrik Aifat Utara, Kabupaten Maybrat, Papua Bar. 98463","Ayawasi, Distrik Aifat Utara, Kabupaten Maybrat",PAPUA BARAT,98463.0,Indonesia,82397745687.0,-1.186464,132.4626367,https://maps.google.com/?cid=0x0:0x5a6aa2403713d07c
cafe,Kedai Kopi,Warung Double M,"PGV2+732, Eisyo, Distrik Aifat, Kabupaten Maybrat, Papua Bar.","Kabupaten Maybrat, Papua Bar.",PAPUA BARAT,,Indonesia,,-1.2568532,132.5001338,https://maps.google.com/?cid=0x0:0xe1f773d6e0e119c2
cafe,Komplek perumahan,Ayamaru kota,"P838+529, Jitmau, Kec. Aitinyo Utara, Kabupaten Maybrat, Papua Bar.","Kabupaten Maybrat, Papua Bar.",PAPUA BARAT,,Indonesia,,-1.2970979,132.3150993,https://maps.google.com/?cid=0x0:0x5c83c06a31cb7d76
cafe,Kedai Kopi,Warung Doble M,"MFMH+M5, Futon, Distrik Aifat, Kabupaten Maybrat, Papua Bar.","Kabupaten Maybrat, Papua Bar.",PAPUA BARAT,,Indonesia,,-1.3157867,132.47753,https://maps.google.com/?cid=0x0:0xb9d7dbcaffffaae3
cafe,cafe,Distrik Aifat,"Kabupaten Maybrat, Papua Bar.","Kabupaten Maybrat, Papua Bar.",PAPUA BARAT,,Indonesia,,-1.2568532,132.5001338,https://maps.google.com/?cid=0x0:0xcc3d52ba3ddd33de
cafe,Dapur Umum,KIOS AIFAT JAYA DAN WARUNG AIFAT JAYA,"PFVX+24P, Eisyo, Distrik Aifat, Kabupaten Maybrat, Papua Bar. 98463","Eisyo, Distrik Aifat, Kabupaten Maybrat",PAPUA BARAT,98463.0,Indonesia,,-1.2582207,132.4977964,https://maps.google.com/?cid=0x0:0x6896cde496ab319b
cafe,Nasi,KIOS IZA,"PGV2+F2F, Kumurkek, Distrik Aifat, Kabupaten Maybrat, Papua Bar. 98463","Kumurkek, Distrik Aifat, Kabupaten Maybrat",PAPUA BARAT,98463.0,Indonesia,,-1.2563194,132.5000327,https://maps.google.com/?cid=0x0:0xf0d45acb7d3276cb
cafe,Dapur Umum,Warung Makan Sederhana MAS ANDY Kumurkek,"PFWX+RP4, Fait Mayaf, Distrik Aifat, Kabupaten Maybrat, Papua Bar. 98463","Fait Mayaf, Distrik Aifat, Kabupaten Maybrat",PAPUA BARAT,98463.0,Indonesia,,-1.252981,132.4993399,https://maps.google.com/?cid=0x0:0xd77688734fd6dc09
cafe,Kedai Kopi,Warung Double M,"PGV2+732, Eisyo, Distrik Aifat, Kabupaten Maybrat, Papua Bar.","Kabupaten Maybrat, Papua Bar.",PAPUA BARAT,,Indonesia,,-1.2568532,132.5001338,https://maps.google.com/?cid=0x0:0xe1f773d6e0e119c2
cafe,Kedai Kopi,Warung Doble M,"MFMH+M5, Futon, Distrik Aifat, Kabupaten Maybrat, Papua Bar.","Kabupaten Maybrat, Papua Bar.",PAPUA BARAT,,Indonesia,,-1.3157867,132.47753,https://maps.google.com/?cid=0x0:0xb9d7dbcaffffaae3
cafe,Komplek perumahan,Ayamaru kota,"P838+529, Jitmau, Kec. Aitinyo Utara, Kabupaten Maybrat, Papua Bar.","Kabupaten Maybrat, Papua Bar.",PAPUA BARAT,,Indonesia,,-1.2970979,132.3150993,https://maps.google.com/?cid=0x0:0x5c83c06a31cb7d76
cafe,Toko bahan makanan,RM Berkat Balantak,"RF77+C36, Ayawasi, Distrik Aifat Utara, Kabupaten Maybrat, Papua Bar. 98463","Ayawasi, Distrik Aifat Utara, Kabupaten Maybrat",PAPUA BARAT,98463.0,Indonesia,82397745687.0,-1.186464,132.4626367,https://maps.google.com/?cid=0x0:0x5a6aa2403713d07c
cafe,cafe,RUMAH MAKAN SONANA KUMURKEK,"PFWX+XR9, Kumurkek, Distrik Aifat, Kabupaten Maybrat, Papua Bar. 98463","Kumurkek, Distrik Aifat, Kabupaten Maybrat",PAPUA BARAT,98463.0,Indonesia,,-1.2517511,132.4991496,https://maps.google.com/?cid=0x0:0x1e04692d2f36dd22
cafe,Kafe,Coffee Brothers,"Maniwak, Manggurai PEMDA, Iriati, Distrik Wasior, Kabupaten Teluk Wondama, Papua Bar. 98362","Manggurai PEMDA, Iriati, Distrik Wasior, Kabupaten Teluk Wondama",PAPUA BARAT,98362.0,Indonesia,85244343890.0,-2.761305,134.5119245,https://maps.google.com/?cid=0x0:0x40dcc2c8a660e005
cafe,Mesin Sangrai Kopi,Alenia Papua Coffee  Kitchen,"Jl. Kemang Raya No.66 B 8, RT.8/RW.2, Bangka, Kec. Mampang Prpt., Kota Jakarta Selatan, Daerah Khusus Ibukota Jakarta 12730","RT.8/RW.2, Bangka, Kec. Mampang Prpt., Kota Jakarta Selatan",PAPUA BARAT,12730.0,Indonesia,2171790141.0,-6.2638119,106.8158777,https://maps.google.com/?cid=0x0:0xe49807fcfab68b48
cafe,Indonesia,Aghina Cafe and Restaurant,"478F+G45, Malabutor, Kecamatan Sorong Manoi, Kota Sorong, Papua Bar. 98412","Malabutor, Kecamatan Sorong Manoi, Kota Sorong",PAPUA BARAT,98412.0,Indonesia,81344840839.0,-0.8837374,131.2728509,https://maps.google.com/?cid=0x0:0x57d56fb0e9f3b322
cafe,Kedai Kopi,Warung Domble M,"MFWM+WC3, Jalan poros Susumuk - Kumurkeh, Futon, Distrik Aifat, Kabupaten Maybrat, Papua Bar. 98463","Jalan poros Susumuk - Kumurkeh, Futon, Distrik Aifat, Kabupaten Maybrat",PAPUA BARAT,98463.0,Indonesia,,-1.3027393,132.4835325,https://maps.google.com/?cid=0x0:0x1e0e301901f524e1
cafe,cafe,NAA FRAK AYAMATO,"RFM7+39P, Unnamed Road, Ayawasi, Distrik Aifat Utara, Kabupaten Maybrat, Papua Bar. 98463","Unnamed Road, Ayawasi, Distrik Aifat Utara, Kabupaten Maybrat",PAPUA BARAT,98463.0,Indonesia,,-1.167287,132.4634597,https://maps.google.com/?cid=0x0:0x5f6956964feea05
cafe,cafe,Distrik Aifat Timur,"Kabupaten Maybrat, Papua Bar.","Kabupaten Maybrat, Papua Bar.",PAPUA BARAT,,Indonesia,,-1.3591179,132.59276,https://maps.google.com/?cid=0x0:0x14eac191dd6d8e2e
cafe,Dapur Umum,KIOS AIFAT JAYA DAN WARUNG AIFAT JAYA,"PFVX+24P, Eisyo, Distrik Aifat, Kabupaten Maybrat, Papua Bar. 98463","Eisyo, Distrik Aifat, Kabupaten Maybrat",PAPUA BARAT,98463.0,Indonesia,,-1.2582207,132.4977964,https://maps.google.com/?cid=0x0:0x6896cde496ab319b
cafe,Nasi,KIOS IZA,"PGV2+F2F, Kumurkek, Distrik Aifat, Kabupaten Maybrat, Papua Bar. 98463","Kumurkek, Distrik Aifat, Kabupaten Maybrat",PAPUA BARAT,98463.0,Indonesia,,-1.2563194,132.5000327,https://maps.google.com/?cid=0x0:0xf0d45acb7d3276cb
cafe,Dapur Umum,Warung Makan Sederhana MAS ANDY Kumurkek,"PFWX+RP4, Fait Mayaf, Distrik Aifat, Kabupaten Maybrat, Papua Bar. 98463","Fait Mayaf, Distrik Aifat, Kabupaten Maybrat",PAPUA BARAT,98463.0,Indonesia,,-1.252981,132.4993399,https://maps.google.com/?cid=0x0:0xd77688734fd6dc09
cafe,Toko bahan makanan,RM Berkat Balantak,"RF77+C36, Ayawasi, Distrik Aifat Utara, Kabupaten Maybrat, Papua Bar. 98463","Ayawasi, Distrik Aifat Utara, Kabupaten Maybrat",PAPUA BARAT,98463.0,Indonesia,82397745687.0,-1.186464,132.4626367,https://maps.google.com/?cid=0x0:0x5a6aa2403713d07c
cafe,Kedai Kopi,Warung Double M,"PGV2+732, Eisyo, Distrik Aifat, Kabupaten Maybrat, Papua Bar.","Kabupaten Maybrat, Papua Bar.",PAPUA BARAT,,Indonesia,,-1.2568532,132.5001338,https://maps.google.com/?cid=0x0:0xe1f773d6e0e119c2
cafe,Kedai Kopi,Warung Doble M,"MFMH+M5, Futon, Distrik Aifat, Kabupaten Maybrat, Papua Bar.","Kabupaten Maybrat, Papua Bar.",PAPUA BARAT,,Indonesia,,-1.3157867,132.47753,https://maps.google.com/?cid=0x0:0xb9d7dbcaffffaae3
cafe,cafe,Distrik Aifat Timur,"Kabupaten Maybrat, Papua Bar.","Kabupaten Maybrat, Papua Bar.",PAPUA BARAT,,Indonesia,,-1.3591179,132.59276,https://maps.google.com/?cid=0x0:0x14eac191dd6d8e2e
cafe,cafe,NAA FRAK AYAMATO,"RFM7+39P, Unnamed Road, Ayawasi, Distrik Aifat Utara, Kabupaten Maybrat, Papua Bar. 98463","Unnamed Road, Ayawasi, Distrik Aifat Utara, Kabupaten Maybrat",PAPUA BARAT,98463.0,Indonesia,,-1.167287,132.4634597,https://maps.google.com/?cid=0x0:0x5f6956964feea05
cafe,cafe,Distrik Aifat,"Kabupaten Maybrat, Papua Bar.","Kabupaten Maybrat, Papua Bar.",PAPUA BARAT,,Indonesia,,-1.2568532,132.5001338,https://maps.google.com/?cid=0x0:0xcc3d52ba3ddd33de
cafe,Komplek perumahan,Ayamaru kota,"P838+529, Jitmau, Kec. Aitinyo Utara, Kabupaten Maybrat, Papua Bar.","Kabupaten Maybrat, Papua Bar.",PAPUA BARAT,,Indonesia,,-1.2970979,132.3150993,https://maps.google.com/?cid=0x0:0x5c83c06a31cb7d76
cafe,Nasi,KIOS IZA,"PGV2+F2F, Kumurkek, Distrik Aifat, Kabupaten Maybrat, Papua Bar. 98463","Kumurkek, Distrik Aifat, Kabupaten Maybrat",PAPUA BARAT,98463.0,Indonesia,,-1.2563194,132.5000327,https://maps.google.com/?cid=0x0:0xf0d45acb7d3276cb
cafe,Kedai Kopi,Warung Double M,"PGV2+732, Eisyo, Distrik Aifat, Kabupaten Maybrat, Papua Bar.","Kabupaten Maybrat, Papua Bar.",PAPUA BARAT,,Indonesia,,-1.2568532,132.5001338,https://maps.google.com/?cid=0x0:0xe1f773d6e0e119c2
cafe,cafe,Kmurkek,"PGV2+732, Fait Mayaf, Distrik Aifat, Kabupaten Maybrat, Papua Bar. 98463","Fait Mayaf, Distrik Aifat, Kabupaten Maybrat",PAPUA BARAT,98463.0,Indonesia,,-1.2568532,132.5001338,https://maps.google.com/?cid=0x0:0x69365b7b6eeda054
cafe,Kedai Kopi,Warung Doble M,"MFMH+M5, Futon, Distrik Aifat, Kabupaten Maybrat, Papua Bar.","Kabupaten Maybrat, Papua Bar.",PAPUA BARAT,,Indonesia,,-1.3157867,132.47753,https://maps.google.com/?cid=0x0:0xb9d7dbcaffffaae3
cafe,Dapur Umum,KIOS AIFAT JAYA DAN WARUNG AIFAT JAYA,"PFVX+24P, Eisyo, Distrik Aifat, Kabupaten Maybrat, Papua Bar. 98463","Eisyo, Distrik Aifat, Kabupaten Maybrat",PAPUA BARAT,98463.0,Indonesia,,-1.2582207,132.4977964,https://maps.google.com/?cid=0x0:0x6896cde496ab319b
cafe,Nasi,Kios Aifat jaya,"PFQ9+82V, Kumurkek, Distrik Aifat, Kabupaten Maybrat, Papua Bar. 98463","Kumurkek, Distrik Aifat, Kabupaten Maybrat",PAPUA BARAT,98463.0,Indonesia,,-1.2616392,132.4675475,https://maps.google.com/?cid=0x0:0x3275eb5a1d4dcdfe
cafe,cafe,Distrik Aifat Timur,"Kabupaten Maybrat, Papua Bar.","Kabupaten Maybrat, Papua Bar.",PAPUA BARAT,,Indonesia,,-1.3591179,132.59276,https://maps.google.com/?cid=0x0:0x14eac191dd6d8e2e
cafe,cafe,Distrik Aifat Timur,"Kabupaten Maybrat, Papua Bar.","Kabupaten Maybrat, Papua Bar.",PAPUA BARAT,,Indonesia,,-1.3591179,132.59276,https://maps.google.com/?cid=0x0:0x14eac191dd6d8e2e
cafe,Dapur Umum,KIOS AIFAT JAYA DAN WARUNG AIFAT JAYA,"PFVX+24P, Eisyo, Distrik Aifat, Kabupaten Maybrat, Papua Bar. 98463","Eisyo, Distrik Aifat, Kabupaten Maybrat",PAPUA BARAT,98463.0,Indonesia,,-1.2582207,132.4977964,https://maps.google.com/?cid=0x0:0x6896cde496ab319b
cafe,Nasi,KIOS IZA,"PGV2+F2F, Kumurkek, Distrik Aifat, Kabupaten Maybrat, Papua Bar. 98463","Kumurkek, Distrik Aifat, Kabupaten Maybrat",PAPUA BARAT,98463.0,Indonesia,,-1.2563194,132.5000327,https://maps.google.com/?cid=0x0:0xf0d45acb7d3276cb
cafe,Mesin Sangrai Kopi,Alenia Papua Coffee  Kitchen,"Jl. Kemang Raya No.66 B 8, RT.8/RW.2, Bangka, Kec. Mampang Prpt., Kota Jakarta Selatan, Daerah Khusus Ibukota Jakarta 12730","RT.8/RW.2, Bangka, Kec. Mampang Prpt., Kota Jakarta Selatan",PAPUA BARAT,12730.0,Indonesia,2171790141.0,-6.2638119,106.8158777,https://maps.google.com/?cid=0x0:0xe49807fcfab68b48
cafe,cafe,RM. SINGGAH DOLO,"PGV2+732, Eisyo, Distrik Aifat, Kabupaten Maybrat, Papua Bar. 98463","Eisyo, Distrik Aifat, Kabupaten Maybrat",PAPUA BARAT,98463.0,Indonesia,,-1.2568978,132.5001312,https://maps.google.com/?cid=0x0:0x5820a47ebba15398
cafe,Kedai Kopi,Warung Double M,"PGV2+732, Eisyo, Distrik Aifat, Kabupaten Maybrat, Papua Bar.","Kabupaten Maybrat, Papua Bar.",PAPUA BARAT,,Indonesia,,-1.2568532,132.5001338,https://maps.google.com/?cid=0x0:0xe1f773d6e0e119c2
cafe,Kedai Kopi,Warung Doble M,"MFMH+M5, Futon, Distrik Aifat, Kabupaten Maybrat, Papua Bar.","Kabupaten Maybrat, Papua Bar.",PAPUA BARAT,,Indonesia,,-1.3157867,132.47753,https://maps.google.com/?cid=0x0:0xb9d7dbcaffffaae3
cafe,Toko bahan makanan,RM Berkat Balantak,"RF77+C36, Ayawasi, Distrik Aifat Utara, Kabupaten Maybrat, Papua Bar. 98463","Ayawasi, Distrik Aifat Utara, Kabupaten Maybrat",PAPUA BARAT,98463.0,Indonesia,82397745687.0,-1.186464,132.4626367,https://maps.google.com/?cid=0x0:0x5a6aa2403713d07c
cafe,cafe,Daerah istimewa Ayawasi,"VF69+323, Susai, Distrik Aifat Utara, Kabupaten Maybrat, Papua Bar. 98463","Susai, Distrik Aifat Utara, Kabupaten Maybrat",PAPUA BARAT,98463.0,Indonesia,,-1.139867,132.4675475,https://maps.google.com/?cid=0x0:0x90c812023eb30af2
cafe,cafe,NAA FRAK AYAMATO,"RFM7+39P, Unnamed Road, Ayawasi, Distrik Aifat Utara, Kabupaten Maybrat, Papua Bar. 98463","Unnamed Road, Ayawasi, Distrik Aifat Utara, Kabupaten Maybrat",PAPUA BARAT,98463.0,Indonesia,,-1.167287,132.4634597,https://maps.google.com/?cid=0x0:0x5f6956964feea05
cafe,cafe,Kmurkek,"PGV2+732, Fait Mayaf, Distrik Aifat, Kabupaten Maybrat, Papua Bar. 98463","Fait Mayaf, Distrik Aifat, Kabupaten Maybrat",PAPUA BARAT,98463.0,Indonesia,,-1.2568532,132.5001338,https://maps.google.com/?cid=0x0:0x69365b7b6eeda054
cafe,Dapur Umum,KIOS AIFAT JAYA DAN WARUNG AIFAT JAYA,"PFVX+24P, Eisyo, Distrik Aifat, Kabupaten Maybrat, Papua Bar. 98463","Eisyo, Distrik Aifat, Kabupaten Maybrat",PAPUA BARAT,98463.0,Indonesia,,-1.2582207,132.4977964,https://maps.google.com/?cid=0x0:0x6896cde496ab319b
cafe,cafe,Distrik Aifat Selatan,"Kabupaten Maybrat, Papua Bar.","Kabupaten Maybrat, Papua Bar.",PAPUA BARAT,,Indonesia,,-1.4185595,132.5043916,https://maps.google.com/?cid=0x0:0x5390da174ca5ef27
cafe,Nasi,KIOS IZA,"PGV2+F2F, Kumurkek, Distrik Aifat, Kabupaten Maybrat, Papua Bar. 98463","Kumurkek, Distrik Aifat, Kabupaten Maybrat",PAPUA BARAT,98463.0,Indonesia,,-1.2563194,132.5000327,https://maps.google.com/?cid=0x0:0xf0d45acb7d3276cb
cafe,Nasi,Kios Aifat jaya,"PFQ9+82V, Kumurkek, Distrik Aifat, Kabupaten Maybrat, Papua Bar. 98463","Kumurkek, Distrik Aifat, Kabupaten Maybrat",PAPUA BARAT,98463.0,Indonesia,,-1.2616392,132.4675475,https://maps.google.com/?cid=0x0:0x3275eb5a1d4dcdfe
cafe,Dapur Umum,Warung Makan Sederhana MAS ANDY Kumurkek,"PFWX+RP4, Fait Mayaf, Distrik Aifat, Kabupaten Maybrat, Papua Bar. 98463","Fait Mayaf, Distrik Aifat, Kabupaten Maybrat",PAPUA BARAT,98463.0,Indonesia,,-1.252981,132.4993399,https://maps.google.com/?cid=0x0:0xd77688734fd6dc09
cafe,Kedai Kopi,Warung Double M,"PGV2+732, Eisyo, Distrik Aifat, Kabupaten Maybrat, Papua Bar.","Kabupaten Maybrat, Papua Bar.",PAPUA BARAT,,Indonesia,,-1.2568532,132.5001338,https://maps.google.com/?cid=0x0:0xe1f773d6e0e119c2
cafe,Kedai Kopi,Warung Doble M,"MFMH+M5, Futon, Distrik Aifat, Kabupaten Maybrat, Papua Bar.","Kabupaten Maybrat, Papua Bar.",PAPUA BARAT,,Indonesia,,-1.3157867,132.47753,https://maps.google.com/?cid=0x0:0xb9d7dbcaffffaae3
cafe,Nasi,KIOS NUSANTARA JAYA,"PGV2+732, Eisyo, Distrik Aifat, Kabupaten Maybrat, Papua Bar. 98463","Eisyo, Distrik Aifat, Kabupaten Maybrat",PAPUA BARAT,98463.0,Indonesia,,-1.2568954,132.5001302,https://maps.google.com/?cid=0x0:0x6d851afb8fd9c667
cafe,Toko Perlengkapan Rumah,Rumah Makan Isme,"P65X+7X4, Fiane, Distrik Ayamaru Tengah, Kabupaten Maybrat, Papua Bar. 98462","Fiane, Distrik Ayamaru Tengah, Kabupaten Maybrat",PAPUA BARAT,98462.0,Indonesia,,-1.2918593,132.2499378,https://maps.google.com/?cid=0x0:0x3a798bb36eb50673
cafe,Komplek perumahan,Ayamaru kota,"P838+529, Jitmau, Kec. Aitinyo Utara, Kabupaten Maybrat, Papua Bar.","Kabupaten Maybrat, Papua Bar.",PAPUA BARAT,,Indonesia,,-1.2970979,132.3150993,https://maps.google.com/?cid=0x0:0x5c83c06a31cb7d76
cafe,Kedai Kopi,Warung Domble M,"MFWM+WC3, Jalan poros Susumuk - Kumurkeh, Futon, Distrik Aifat, Kabupaten Maybrat, Papua Bar. 98463","Jalan poros Susumuk - Kumurkeh, Futon, Distrik Aifat, Kabupaten Maybrat",PAPUA BARAT,98463.0,Indonesia,,-1.3027393,132.4835325,https://maps.google.com/?cid=0x0:0x1e0e301901f524e1
cafe,cafe,RUMAH MAKAN SONANA KUMURKEK,"PFWX+XR9, Kumurkek, Distrik Aifat, Kabupaten Maybrat, Papua Bar. 98463","Kumurkek, Distrik Aifat, Kabupaten Maybrat",PAPUA BARAT,98463.0,Indonesia,,-1.2517511,132.4991496,https://maps.google.com/?cid=0x0:0x1e04692d2f36dd22
cafe,cafe,Kmurkek,"PGV2+732, Fait Mayaf, Distrik Aifat, Kabupaten Maybrat, Papua Bar. 98463","Fait Mayaf, Distrik Aifat, Kabupaten Maybrat",PAPUA BARAT,98463.0,Indonesia,,-1.2568532,132.5001338,https://maps.google.com/?cid=0x0:0x69365b7b6eeda054
cafe,cafe,Distrik Aifat Utara,"Kabupaten Maybrat, Papua Bar.","Kabupaten Maybrat, Papua Bar.",PAPUA BARAT,,Indonesia,,-1.1588544,132.4643784,https://maps.google.com/?cid=0x0:0x7ec0d9546b1ece9c
cafe,Dapur Umum,KIOS AIFAT JAYA DAN WARUNG AIFAT JAYA,"PFVX+24P, Eisyo, Distrik Aifat, Kabupaten Maybrat, Papua Bar. 98463","Eisyo, Distrik Aifat, Kabupaten Maybrat",PAPUA BARAT,98463.0,Indonesia,,-1.2582207,132.4977964,https://maps.google.com/?cid=0x0:0x6896cde496ab319b
cafe,Nasi,KIOS IZA,"PGV2+F2F, Kumurkek, Distrik Aifat, Kabupaten Maybrat, Papua Bar. 98463","Kumurkek, Distrik Aifat, Kabupaten Maybrat",PAPUA BARAT,98463.0,Indonesia,,-1.2563194,132.5000327,https://maps.google.com/?cid=0x0:0xf0d45acb7d3276cb
cafe,Toko bahan makanan,RM Berkat Balantak,"RF77+C36, Ayawasi, Distrik Aifat Utara, Kabupaten Maybrat, Papua Bar. 98463","Ayawasi, Distrik Aifat Utara, Kabupaten Maybrat",PAPUA BARAT,98463.0,Indonesia,82397745687.0,-1.186464,132.4626367,https://maps.google.com/?cid=0x0:0x5a6aa2403713d07c
cafe,cafe,RM. SINGGAH DOLO,"PGV2+732, Eisyo, Distrik Aifat, Kabupaten Maybrat, Papua Bar. 98463","Eisyo, Distrik Aifat, Kabupaten Maybrat",PAPUA BARAT,98463.0,Indonesia,,-1.2568978,132.5001312,https://maps.google.com/?cid=0x0:0x5820a47ebba15398
cafe,Minimarket,K'Mart Nezeth Maybrat,"Uname Road, Ayawasi, Distrik Aifat Utara, Kabupaten Maybrat, Papua Bar. 98463","Ayawasi, Distrik Aifat Utara, Kabupaten Maybrat",PAPUA BARAT,98463.0,Indonesia,82213211732.0,-1.164832,132.462508,https://maps.google.com/?cid=0x0:0xe147722f0e55e17f
cafe,Dapur Umum,Warung Makan Sederhana MAS ANDY Kumurkek,"PFWX+RP4, Fait Mayaf, Distrik Aifat, Kabupaten Maybrat, Papua Bar. 98463","Fait Mayaf, Distrik Aifat, Kabupaten Maybrat",PAPUA BARAT,98463.0,Indonesia,,-1.252981,132.4993399,https://maps.google.com/?cid=0x0:0xd77688734fd6dc09
cafe,Kedai Kopi,Warung Double M,"PGV2+732, Eisyo, Distrik Aifat, Kabupaten Maybrat, Papua Bar.","Kabupaten Maybrat, Papua Bar.",PAPUA BARAT,,Indonesia,,-1.2568532,132.5001338,https://maps.google.com/?cid=0x0:0xe1f773d6e0e119c2
cafe,cafe,Daerah istimewa Ayawasi,"VF69+323, Susai, Distrik Aifat Utara, Kabupaten Maybrat, Papua Bar. 98463","Susai, Distrik Aifat Utara, Kabupaten Maybrat",PAPUA BARAT,98463.0,Indonesia,,-1.139867,132.4675475,https://maps.google.com/?cid=0x0:0x90c812023eb30af2
cafe,cafe,NAA FRAK AYAMATO,"RFM7+39P, Unnamed Road, Ayawasi, Distrik Aifat Utara, Kabupaten Maybrat, Papua Bar. 98463","Unnamed Road, Ayawasi, Distrik Aifat Utara, Kabupaten Maybrat",PAPUA BARAT,98463.0,Indonesia,,-1.167287,132.4634597,https://maps.google.com/?cid=0x0:0x5f6956964feea05
cafe,cafe,Kmurkek,"PGV2+732, Fait Mayaf, Distrik Aifat, Kabupaten Maybrat, Papua Bar. 98463","Fait Mayaf, Distrik Aifat, Kabupaten Maybrat",PAPUA BARAT,98463.0,Indonesia,,-1.2568532,132.5001338,https://maps.google.com/?cid=0x0:0x69365b7b6eeda054
cafe,cafe,Distrik Aitinyo,"Kabupaten Maybrat, Papua Bar.","Kabupaten Maybrat, Papua Bar.",PAPUA BARAT,,Indonesia,,-1.4413734,132.3839209,https://maps.google.com/?cid=0x0:0xd008081240dea68f
cafe,Komplek perumahan,Ayamaru kota,"P838+529, Jitmau, Kec. Aitinyo Utara, Kabupaten Maybrat, Papua Bar.","Kabupaten Maybrat, Papua Bar.",PAPUA BARAT,,Indonesia,,-1.2970979,132.3150993,https://maps.google.com/?cid=0x0:0x5c83c06a31cb7d76
cafe,Toko Perbaikan Ponsel,Aitinyo,"H99Q+V7G, Korom, Distrik Aitinyo, Kabupaten Maybrat, Papua Bar. 98463","Korom, Distrik Aitinyo, Kabupaten Maybrat",PAPUA BARAT,98463.0,Indonesia,,-1.430311,132.3881946,https://maps.google.com/?cid=0x0:0x1e35afd58f2401c9
cafe,Rumah Makan,RM. TRENGGALEK,"jalur6, Bumi Ajo (Sp I), Distrik Moswaren, Kabupaten Sorong Selatan, Papua Bar. 98462","Bumi Ajo (Sp I), Distrik Moswaren, Kabupaten Sorong Selatan",PAPUA BARAT,98462.0,Indonesia,82199412713.0,-1.4919244,132.2411117,https://maps.google.com/?cid=0x0:0x4943db263fbfbd7e
cafe,Bakso,Camp Mie Ayam ragiel,"G64V+R9G, Bumi Ajo (Sp I), Distrik Moswaren, Kabupaten Sorong Selatan, Papua Bar. 98462","Bumi Ajo (Sp I), Distrik Moswaren, Kabupaten Sorong Selatan",PAPUA BARAT,98462.0,Indonesia,82239270018.0,-1.4929377,132.2434559,https://maps.google.com/?cid=0x0:0xf35fc83cfe2eb5b1
cafe,Padang,RM Ratu Nona Restoe,"G64V+M6Q, Unnamed Road, Bumi Ajo (Sp I), Distrik Moswaren, Kabupaten Sorong Selatan, Papua Bar. 98462","Unnamed Road, Bumi Ajo (Sp I), Distrik Moswaren, Kabupaten Sorong Selatan",PAPUA BARAT,98462.0,Indonesia,82238959994.0,-1.4932775,132.2430975,https://maps.google.com/?cid=0x0:0x8c03a7da9fe093a5
cafe,Nasi,KIOS IZA,"PGV2+F2F, Kumurkek, Distrik Aifat, Kabupaten Maybrat, Papua Bar. 98463","Kumurkek, Distrik Aifat, Kabupaten Maybrat",PAPUA BARAT,98463.0,Indonesia,,-1.2563194,132.5000327,https://maps.google.com/?cid=0x0:0xf0d45acb7d3276cb
cafe,Rumah Makan,Rumah Makan Khumairoh,"G65R+G4J, Unnamed Road, Bumi Ajo (Sp I), Distrik Moswaren, Kabupaten Sorong Selatan, Papua Bar. 98462","Unnamed Road, Bumi Ajo (Sp I), Distrik Moswaren, Kabupaten Sorong Selatan",PAPUA BARAT,98462.0,Indonesia,81247584278.0,-1.4911533,132.2402583,https://maps.google.com/?cid=0x0:0x492f1b5d68e43ba9
cafe,cafe,Kisah manis,"Bumi Ajo (Sp I), Distrik Moswaren, Kabupaten Sorong Selatan, Papua Bar. 98212","Distrik Moswaren, Kabupaten Sorong Selatan",PAPUA BARAT,98212.0,Indonesia,82233914379.0,-1.4975234,132.2411755,https://maps.google.com/?cid=0x0:0xf84bf09a3310764e
cafe,cafe,Aitinyo,"Distrik Aitinyo, Kabupaten Maybrat, Papua Bar.","Kabupaten Maybrat, Papua Bar.",PAPUA BARAT,,Indonesia,,-1.4510669,132.3692445,https://maps.google.com/?cid=0x0:0x531b5b683eb83a65
cafe,cafe,Kec. Aitinyo Utara,"Kabupaten Maybrat, Papua Bar.","Kabupaten Maybrat, Papua Bar.",PAPUA BARAT,,Indonesia,,-1.3033463,132.3116515,https://maps.google.com/?cid=0x0:0x7e6239eb7f264d46
cafe,Kantor Pemerintah Distrik,JaTim (Jitmau Timur),"H95M+FH3, Eroh He, Distrik Aitinyo, Kabupaten Maybrat, Papua Bar.","Kabupaten Maybrat, Papua Bar.",PAPUA BARAT,,Indonesia,,-1.4413734,132.3839209,https://maps.google.com/?cid=0x0:0xf516477d1eab7815
cafe,cafe,Distrik Aitinyo,"Kabupaten Maybrat, Papua Bar.","Kabupaten Maybrat, Papua Bar.",PAPUA BARAT,,Indonesia,,-1.4413734,132.3839209,https://maps.google.com/?cid=0x0:0xd008081240dea68f
cafe,Restoran,Oâ Snack Kafe Otoritas,"Jl. Trikora Rendani, Sowi, Distrik Manokwari, Kabupaten Manokwari, Papua Bar. 98313","Sowi, Distrik Manokwari, Kabupaten Manokwari",PAPUA BARAT,98313.0,Indonesia,,-0.8859283,134.0517921,https://maps.google.com/?cid=0x0:0x2b1b712fbfee7434
cafe,Komplek perumahan,Ayamaru kota,"P838+529, Jitmau, Kec. Aitinyo Utara, Kabupaten Maybrat, Papua Bar.","Kabupaten Maybrat, Papua Bar.",PAPUA BARAT,,Indonesia,,-1.2970979,132.3150993,https://maps.google.com/?cid=0x0:0x5c83c06a31cb7d76
cafe,Kedai Kopi,KOPIkir Sendiri Cafe,"425R+QWW Kantor bupati, Sowi, Distrik Manokwari, Kabupaten Manokwari, Papua Bar.","Kabupaten Manokwari, Papua Bar.",PAPUA BARAT,,Indonesia,81354179269.0,-0.8905188,134.0423211,https://maps.google.com/?cid=0x0:0xe18448fb10dff5fd
cafe,Padang,RM Ratu Nona Restoe,"G64V+M6Q, Unnamed Road, Bumi Ajo (Sp I), Distrik Moswaren, Kabupaten Sorong Selatan, Papua Bar. 98462","Unnamed Road, Bumi Ajo (Sp I), Distrik Moswaren, Kabupaten Sorong Selatan",PAPUA BARAT,98462.0,Indonesia,82238959994.0,-1.4932775,132.2430975,https://maps.google.com/?cid=0x0:0x8c03a7da9fe093a5
cafe,cafe,Kisah manis,"Bumi Ajo (Sp I), Distrik Moswaren, Kabupaten Sorong Selatan, Papua Bar. 98212","Distrik Moswaren, Kabupaten Sorong Selatan",PAPUA BARAT,98212.0,Indonesia,82233914379.0,-1.4975234,132.2411755,https://maps.google.com/?cid=0x0:0xf84bf09a3310764e
cafe,Kafe,Coffee Brothers,"Maniwak, Manggurai PEMDA, Iriati, Distrik Wasior, Kabupaten Teluk Wondama, Papua Bar. 98362","Manggurai PEMDA, Iriati, Distrik Wasior, Kabupaten Teluk Wondama",PAPUA BARAT,98362.0,Indonesia,85244343890.0,-2.761305,134.5119245,https://maps.google.com/?cid=0x0:0x40dcc2c8a660e005
cafe,Rumah Makan,Rumah Makan Khumairoh,"G65R+G4J, Unnamed Road, Bumi Ajo (Sp I), Distrik Moswaren, Kabupaten Sorong Selatan, Papua Bar. 98462","Unnamed Road, Bumi Ajo (Sp I), Distrik Moswaren, Kabupaten Sorong Selatan",PAPUA BARAT,98462.0,Indonesia,81247584278.0,-1.4911533,132.2402583,https://maps.google.com/?cid=0x0:0x492f1b5d68e43ba9
cafe,cafe,Bakso Barokah Lestari,"G63R+Q2X, jalur 7, Bumi Ajo (Sp I), Distrik Moswaren, Kabupaten Sorong Selatan, Papua Bar. 98462","jalur 7, Bumi Ajo (Sp I), Distrik Moswaren, Kabupaten Sorong Selatan",PAPUA BARAT,98462.0,Indonesia,,-1.4955047,132.2401179,https://maps.google.com/?cid=0x0:0x6407666ebd7193dc
cafe,Rumah Makan,RM. TRENGGALEK,"jalur6, Bumi Ajo (Sp I), Distrik Moswaren, Kabupaten Sorong Selatan, Papua Bar. 98462","Bumi Ajo (Sp I), Distrik Moswaren, Kabupaten Sorong Selatan",PAPUA BARAT,98462.0,Indonesia,82199412713.0,-1.4919244,132.2411117,https://maps.google.com/?cid=0x0:0x4943db263fbfbd7e
cafe,Bakso,Camp Mie Ayam ragiel,"G64V+R9G, Bumi Ajo (Sp I), Distrik Moswaren, Kabupaten Sorong Selatan, Papua Bar. 98462","Bumi Ajo (Sp I), Distrik Moswaren, Kabupaten Sorong Selatan",PAPUA BARAT,98462.0,Indonesia,82239270018.0,-1.4929377,132.2434559,https://maps.google.com/?cid=0x0:0xf35fc83cfe2eb5b1
cafe,cafe,Warkop Intan,"G66P+MF8, Bumi Ajo (Sp I), Distrik Moswaren, Kabupaten Sorong Selatan, Papua Bar. 98462","Bumi Ajo (Sp I), Distrik Moswaren, Kabupaten Sorong Selatan",PAPUA BARAT,98462.0,Indonesia,,-1.4883257,132.2362177,https://maps.google.com/?cid=0x0:0x9c2626d4ab0fdc67
cafe,Toko Perbaikan Ponsel,Aitinyo,"H99Q+V7G, Korom, Distrik Aitinyo, Kabupaten Maybrat, Papua Bar. 98463","Korom, Distrik Aitinyo, Kabupaten Maybrat",PAPUA BARAT,98463.0,Indonesia,,-1.430311,132.3881946,https://maps.google.com/?cid=0x0:0x1e35afd58f2401c9
cafe,Kedai Kopi,ENGINEERING COFFEE AIMAS,"Jalur D samping kantor PDAM, Kec. Aimas, Kabupaten Sorong, Papua Bar. 98444","Kec. Aimas, Kabupaten Sorong",PAPUA BARAT,98444.0,Indonesia,81344646139.0,-0.9556394,131.3309762,https://maps.google.com/?cid=0x0:0xc9393d225085004e
cafe,Komplek perumahan,Ayamaru kota,"P838+529, Jitmau, Kec. Aitinyo Utara, Kabupaten Maybrat, Papua Bar.","Kabupaten Maybrat, Papua Bar.",PAPUA BARAT,,Indonesia,,-1.2970979,132.3150993,https://maps.google.com/?cid=0x0:0x5c83c06a31cb7d76
cafe,cafe,Distrik Aitinyo,"Kabupaten Maybrat, Papua Bar.","Kabupaten Maybrat, Papua Bar.",PAPUA BARAT,,Indonesia,,-1.4413734,132.3839209,https://maps.google.com/?cid=0x0:0xd008081240dea68f
cafe,Toko Perbaikan Ponsel,Aitinyo,"H99Q+V7G, Korom, Distrik Aitinyo, Kabupaten Maybrat, Papua Bar. 98463","Korom, Distrik Aitinyo, Kabupaten Maybrat",PAPUA BARAT,98463.0,Indonesia,,-1.430311,132.3881946,https://maps.google.com/?cid=0x0:0x1e35afd58f2401c9
cafe,cafe,Distrik Aitinyo,"Kabupaten Maybrat, Papua Bar.","Kabupaten Maybrat, Papua Bar.",PAPUA BARAT,,Indonesia,,-1.4413734,132.3839209,https://maps.google.com/?cid=0x0:0xd008081240dea68f
cafe,Komplek perumahan,Ayamaru kota,"P838+529, Jitmau, Kec. Aitinyo Utara, Kabupaten Maybrat, Papua Bar.","Kabupaten Maybrat, Papua Bar.",PAPUA BARAT,,Indonesia,,-1.2970979,132.3150993,https://maps.google.com/?cid=0x0:0x5c83c06a31cb7d76
cafe,Toko Perbaikan Ponsel,Aitinyo,"H99Q+V7G, Korom, Distrik Aitinyo, Kabupaten Maybrat, Papua Bar. 98463","Korom, Distrik Aitinyo, Kabupaten Maybrat",PAPUA BARAT,98463.0,Indonesia,,-1.430311,132.3881946,https://maps.google.com/?cid=0x0:0x1e35afd58f2401c9
cafe,Komplek perumahan,Ayamaru kota,"P838+529, Jitmau, Kec. Aitinyo Utara, Kabupaten Maybrat, Papua Bar.","Kabupaten Maybrat, Papua Bar.",PAPUA BARAT,,Indonesia,,-1.2970979,132.3150993,https://maps.google.com/?cid=0x0:0x5c83c06a31cb7d76
cafe,cafe,Kec. Aitinyo Utara,"Kabupaten Maybrat, Papua Bar.","Kabupaten Maybrat, Papua Bar.",PAPUA BARAT,,Indonesia,,-1.3033463,132.3116515,https://maps.google.com/?cid=0x0:0x7e6239eb7f264d46
cafe,Toko,Kios Vero,"M8W7+F5V, Jitmau Tim., Kec. Aitinyo Utara, Kabupaten Maybrat, Papua Bar.","Kabupaten Maybrat, Papua Bar.",PAPUA BARAT,,Indonesia,,-1.303769,132.3129322,https://maps.google.com/?cid=0x0:0xe0991b1218c5d1f5
cafe,cafe,Kec. Ayamaru,"Kabupaten Maybrat, Papua Bar.","Kabupaten Maybrat, Papua Bar.",PAPUA BARAT,,Indonesia,,-1.2754068,132.1954691,https://maps.google.com/?cid=0x0:0x4d8a88af2189602c
cafe,Restoran,Restaurant Jordy,"P5FW+5WH, Ayamaru, Kec. Ayamaru, Kabupaten Maybrat, Papua Bar. 98461","Ayamaru, Kec. Ayamaru, Kabupaten Maybrat",PAPUA BARAT,98461.0,Indonesia,,-1.2770626,132.1973567,https://maps.google.com/?cid=0x0:0xef85da43b585ffec
cafe,Rumah Makan,Rumah Makan Smarten Jaya,"Ayamaru mefkajim 11, Kec. Ayamaru, Papua Bar.","Kabupaten Maybrat, Papua Bar.",PAPUA BARAT,,Indonesia,82199931677.0,-1.2804829,132.2028707,https://maps.google.com/?cid=0x0:0xda049992131ddb4d
cafe,Rumah Makan,Rumah Makan Smarten Jaya 02,"Fiane, Kec. Ayamaru, Kabupaten Maybrat, Papua Bar.","Kabupaten Maybrat, Papua Bar.",PAPUA BARAT,,Indonesia,82199931677.0,-1.2872425,132.2279503,https://maps.google.com/?cid=0x0:0x9fa566aa094707d4
cafe,Masakan Asia,Putra Sukowati,"P6R5+VJ9, Kartapura, Distrik Ayamaru Tengah, Kabupaten Maybrat, Papua Bar.","Kabupaten Maybrat, Papua Bar.",PAPUA BARAT,,Indonesia,,-1.2578264,132.2091097,https://maps.google.com/?cid=0x0:0x99373cbcff22119d
cafe,Indonesia,Rumah Makan Putra Sukowati,"P65G+9H7, Fiane, Kec. Ayamaru, Kabupaten Maybrat, Papua Bar.","Kabupaten Maybrat, Papua Bar.",PAPUA BARAT,,Indonesia,,-1.2915989,132.2264145,https://maps.google.com/?cid=0x0:0xd68323bf1db7ec04
cafe,cafe,Warung Mie ayam bakso+laundry mutiara jaya 2,"Fiane, Distrik Ayamaru Tengah, Kabupaten Maybrat, Papua Bar. 98011","Distrik Ayamaru Tengah, Kabupaten Maybrat",PAPUA BARAT,98011.0,Indonesia,82236508867.0,-1.2919538,132.2309307,https://maps.google.com/?cid=0x0:0xc337496cf2816932
cafe,cafe,R.M Muslim,"P5FW+2X6, Ayamaru, Kec. Ayamaru, Kabupaten Maybrat, Papua Bar. 98461","Ayamaru, Kec. Ayamaru, Kabupaten Maybrat",PAPUA BARAT,98461.0,Indonesia,,-1.2774749,132.1973756,https://maps.google.com/?cid=0x0:0x6841f2c1f5a1b7c8
cafe,cafe,Kec. Ayamaru,"Kabupaten Maybrat, Papua Bar.","Kabupaten Maybrat, Papua Bar.",PAPUA BARAT,,Indonesia,,-1.2754068,132.1954691,https://maps.google.com/?cid=0x0:0x4d8a88af2189602c
cafe,Restoran,Restaurant Jordy,"P5FW+5WH, Ayamaru, Kec. Ayamaru, Kabupaten Maybrat, Papua Bar. 98461","Ayamaru, Kec. Ayamaru, Kabupaten Maybrat",PAPUA BARAT,98461.0,Indonesia,,-1.2770626,132.1973567,https://maps.google.com/?cid=0x0:0xef85da43b585ffec
cafe,Rumah Makan,Rumah Makan Smarten Jaya,"Ayamaru mefkajim 11, Kec. Ayamaru, Papua Bar.","Kabupaten Maybrat, Papua Bar.",PAPUA BARAT,,Indonesia,82199931677.0,-1.2804829,132.2028707,https://maps.google.com/?cid=0x0:0xda049992131ddb4d
cafe,Komplek perumahan,Ayamaru kota,"P838+529, Jitmau, Kec. Aitinyo Utara, Kabupaten Maybrat, Papua Bar.","Kabupaten Maybrat, Papua Bar.",PAPUA BARAT,,Indonesia,,-1.2970979,132.3150993,https://maps.google.com/?cid=0x0:0x5c83c06a31cb7d76
cafe,Rumah Makan,Rumah Makan Smarten Jaya 02,"Fiane, Kec. Ayamaru, Kabupaten Maybrat, Papua Bar.","Kabupaten Maybrat, Papua Bar.",PAPUA BARAT,,Indonesia,82199931677.0,-1.2872425,132.2279503,https://maps.google.com/?cid=0x0:0x9fa566aa094707d4
cafe,Masakan Asia,Putra Sukowati,"P6R5+VJ9, Kartapura, Distrik Ayamaru Tengah, Kabupaten Maybrat, Papua Bar.","Kabupaten Maybrat, Papua Bar.",PAPUA BARAT,,Indonesia,,-1.2578264,132.2091097,https://maps.google.com/?cid=0x0:0x99373cbcff22119d
cafe,Kedai Kopi,Z COFFEE,"42HX+V6C, Jl. Trikora Rendani, Wosi, Kec. Manokwari Bar., Kabupaten Manokwari, Papua Bar. 98312","Jl. Trikora Rendani, Wosi, Kec. Manokwari Bar., Kabupaten Manokwari",PAPUA BARAT,98312.0,Indonesia,81247192526.0,-0.8703133,134.0480103,https://maps.google.com/?cid=0x0:0x52fc52684fc7839c
cafe,cafe,Warung Mie ayam bakso+laundry mutiara jaya 2,"Fiane, Distrik Ayamaru Tengah, Kabupaten Maybrat, Papua Bar. 98011","Distrik Ayamaru Tengah, Kabupaten Maybrat",PAPUA BARAT,98011.0,Indonesia,82236508867.0,-1.2919538,132.2309307,https://maps.google.com/?cid=0x0:0xc337496cf2816932
cafe,cafe,R.M Muslim,"P5FW+2X6, Ayamaru, Kec. Ayamaru, Kabupaten Maybrat, Papua Bar. 98461","Ayamaru, Kec. Ayamaru, Kabupaten Maybrat",PAPUA BARAT,98461.0,Indonesia,,-1.2774749,132.1973756,https://maps.google.com/?cid=0x0:0x6841f2c1f5a1b7c8
cafe,cafe,Kotawi Restaurant - All Need Catering (By. ShandyTech),"P5GW+65G, Framu, Kec. Ayamaru, Kabupaten Maybrat, Papua Bar.","Kabupaten Maybrat, Papua Bar.",PAPUA BARAT,,Indonesia,85825364014.0,-1.2744255,132.1954589,https://maps.google.com/?cid=0x0:0xd6c0c453b59bb0ce
cafe,cafe,Distrik Ayamaru Jaya,"Kabupaten Maybrat, Papua Bar.","Kabupaten Maybrat, Papua Bar.",PAPUA BARAT,,Indonesia,,-1.240888,132.1225897,https://maps.google.com/?cid=0x0:0x7043cae1470f6f3d
cafe,Restoran,Restaurant Jordy,"P5FW+5WH, Ayamaru, Kec. Ayamaru, Kabupaten Maybrat, Papua Bar. 98461","Ayamaru, Kec. Ayamaru, Kabupaten Maybrat",PAPUA BARAT,98461.0,Indonesia,,-1.2770626,132.1973567,https://maps.google.com/?cid=0x0:0xef85da43b585ffec
cafe,Komplek perumahan,Ayamaru kota,"P838+529, Jitmau, Kec. Aitinyo Utara, Kabupaten Maybrat, Papua Bar.","Kabupaten Maybrat, Papua Bar.",PAPUA BARAT,,Indonesia,,-1.2970979,132.3150993,https://maps.google.com/?cid=0x0:0x5c83c06a31cb7d76
cafe,Rumah Makan,Rumah Makan Smarten Jaya,"Ayamaru mefkajim 11, Kec. Ayamaru, Papua Bar.","Kabupaten Maybrat, Papua Bar.",PAPUA BARAT,,Indonesia,82199931677.0,-1.2804829,132.2028707,https://maps.google.com/?cid=0x0:0xda049992131ddb4d
cafe,Rumah Makan,Rumah Makan Smarten Jaya 02,"Fiane, Kec. Ayamaru, Kabupaten Maybrat, Papua Bar.","Kabupaten Maybrat, Papua Bar.",PAPUA BARAT,,Indonesia,82199931677.0,-1.2872425,132.2279503,https://maps.google.com/?cid=0x0:0x9fa566aa094707d4
cafe,Indonesia,Rumah Makan Putra Sukowati,"P65G+9H7, Fiane, Kec. Ayamaru, Kabupaten Maybrat, Papua Bar.","Kabupaten Maybrat, Papua Bar.",PAPUA BARAT,,Indonesia,,-1.2915989,132.2264145,https://maps.google.com/?cid=0x0:0xd68323bf1db7ec04
cafe,Kedai Kopi,Sorong Cafe,"Sawagumu, Kec. Sorong Utara, Kota Sorong, Papua Bar.","Kota Sorong, Papua Bar.",PAPUA BARAT,,Indonesia,81248201730.0,-0.8893784,131.3128926,https://maps.google.com/?cid=0x0:0x7962c1d0ce1b0528
cafe,cafe,Warung Mie ayam bakso+laundry mutiara jaya 2,"Fiane, Distrik Ayamaru Tengah, Kabupaten Maybrat, Papua Bar. 98011","Distrik Ayamaru Tengah, Kabupaten Maybrat",PAPUA BARAT,98011.0,Indonesia,82236508867.0,-1.2919538,132.2309307,https://maps.google.com/?cid=0x0:0xc337496cf2816932
cafe,Kedai Kopi,Garasi Ipok (Kopi),"Wosi, Kec. Manokwari Bar., Kabupaten Manokwari, Papua Bar. 98312","Kec. Manokwari Bar., Kabupaten Manokwari",PAPUA BARAT,98312.0,Indonesia,,-0.8752236,134.0501855,https://maps.google.com/?cid=0x0:0x12e09be1a67f324f
cafe,Masakan Asia,Putra Sukowati,"P6R5+VJ9, Kartapura, Distrik Ayamaru Tengah, Kabupaten Maybrat, Papua Bar.","Kabupaten Maybrat, Papua Bar.",PAPUA BARAT,,Indonesia,,-1.2578264,132.2091097,https://maps.google.com/?cid=0x0:0x99373cbcff22119d
cafe,Kantor Pemerintah,Warbo ayamaru jaya,"X49C+HRG, Hutan, Kabupaten Maybrat, Papua Bar.","Kabupaten Maybrat, Papua Bar.",PAPUA BARAT,,Indonesia,85213939279.0,-1.0310589,132.1220735,https://maps.google.com/?cid=0x0:0x7a0bb4338dc434b2
cafe,cafe,R.M Muslim,"P5FW+2X6, Ayamaru, Kec. Ayamaru, Kabupaten Maybrat, Papua Bar. 98461","Ayamaru, Kec. Ayamaru, Kabupaten Maybrat",PAPUA BARAT,98461.0,Indonesia,,-1.2774749,132.1973756,https://maps.google.com/?cid=0x0:0x6841f2c1f5a1b7c8
cafe,Kompleks Apartemen,YOTUKURU JAYA,"C9CW+W27, Yakonde, Distrik Waibu, Kabupaten Jayapura, Papua 99358","Yakonde, Distrik Waibu, Kabupaten Jayapura",PAPUA BARAT,99358.0,Indonesia,,-2.5777092,140.3950358,https://maps.google.com/?cid=0x0:0x198efe1b5e85a424
cafe,Toko Perlengkapan Rumah,Rumah Makan Isme,"P65X+7X4, Fiane, Distrik Ayamaru Tengah, Kabupaten Maybrat, Papua Bar. 98462","Fiane, Distrik Ayamaru Tengah, Kabupaten Maybrat",PAPUA BARAT,98462.0,Indonesia,,-1.2918593,132.2499378,https://maps.google.com/?cid=0x0:0x3a798bb36eb50673
cafe,cafe,Distrik Ayamaru Selatan,"Kabupaten Maybrat, Papua Bar.","Kabupaten Maybrat, Papua Bar.",PAPUA BARAT,,Indonesia,,-1.3053761,132.1485942,https://maps.google.com/?cid=0x0:0x78bc898d04ac4488
cafe,Restoran,Restaurant Jordy,"P5FW+5WH, Ayamaru, Kec. Ayamaru, Kabupaten Maybrat, Papua Bar. 98461","Ayamaru, Kec. Ayamaru, Kabupaten Maybrat",PAPUA BARAT,98461.0,Indonesia,,-1.2770626,132.1973567,https://maps.google.com/?cid=0x0:0xef85da43b585ffec
cafe,Indonesia,Rumah Makan Putra Sukowati,"P65G+9H7, Fiane, Kec. Ayamaru, Kabupaten Maybrat, Papua Bar.","Kabupaten Maybrat, Papua Bar.",PAPUA BARAT,,Indonesia,,-1.2915989,132.2264145,https://maps.google.com/?cid=0x0:0xd68323bf1db7ec04
cafe,Komplek perumahan,Ayamaru kota,"P838+529, Jitmau, Kec. Aitinyo Utara, Kabupaten Maybrat, Papua Bar.","Kabupaten Maybrat, Papua Bar.",PAPUA BARAT,,Indonesia,,-1.2970979,132.3150993,https://maps.google.com/?cid=0x0:0x5c83c06a31cb7d76
cafe,Masakan Asia,Putra Sukowati,"P6R5+VJ9, Kartapura, Distrik Ayamaru Tengah, Kabupaten Maybrat, Papua Bar.","Kabupaten Maybrat, Papua Bar.",PAPUA BARAT,,Indonesia,,-1.2578264,132.2091097,https://maps.google.com/?cid=0x0:0x99373cbcff22119d
cafe,cafe,Warung Mie ayam bakso+laundry mutiara jaya 2,"Fiane, Distrik Ayamaru Tengah, Kabupaten Maybrat, Papua Bar. 98011","Distrik Ayamaru Tengah, Kabupaten Maybrat",PAPUA BARAT,98011.0,Indonesia,82236508867.0,-1.2919538,132.2309307,https://maps.google.com/?cid=0x0:0xc337496cf2816932
cafe,Rumah Makan,Rumah Makan Smarten Jaya 02,"Fiane, Kec. Ayamaru, Kabupaten Maybrat, Papua Bar.","Kabupaten Maybrat, Papua Bar.",PAPUA BARAT,,Indonesia,82199931677.0,-1.2872425,132.2279503,https://maps.google.com/?cid=0x0:0x9fa566aa094707d4
cafe,cafe,R.M Muslim,"P5FW+2X6, Ayamaru, Kec. Ayamaru, Kabupaten Maybrat, Papua Bar. 98461","Ayamaru, Kec. Ayamaru, Kabupaten Maybrat",PAPUA BARAT,98461.0,Indonesia,,-1.2774749,132.1973756,https://maps.google.com/?cid=0x0:0x6841f2c1f5a1b7c8
cafe,cafe,Rumah makan rajawali,"P64X+V42, Fiane, Distrik Ayamaru Tengah, Kabupaten Maybrat, Papua Bar.","Kabupaten Maybrat, Papua Bar.",PAPUA BARAT,,Indonesia,,-1.2928572,132.2477555,https://maps.google.com/?cid=0x0:0x8627996c0160b0cf
cafe,cafe,Kotawi Restaurant - All Need Catering (By. ShandyTech),"P5GW+65G, Framu, Kec. Ayamaru, Kabupaten Maybrat, Papua Bar.","Kabupaten Maybrat, Papua Bar.",PAPUA BARAT,,Indonesia,85825364014.0,-1.2744255,132.1954589,https://maps.google.com/?cid=0x0:0xd6c0c453b59bb0ce
cafe,Komplek perumahan,Ayamaru kota,"P838+529, Jitmau, Kec. Aitinyo Utara, Kabupaten Maybrat, Papua Bar.","Kabupaten Maybrat, Papua Bar.",PAPUA BARAT,,Indonesia,,-1.2970979,132.3150993,https://maps.google.com/?cid=0x0:0x5c83c06a31cb7d76
cafe,Komplek perumahan,Rumah Kotawi Ayamaru,"P5GW+279, Ayamaru, Kec. Ayamaru, Kabupaten Maybrat, Papua Bar.","Kabupaten Maybrat, Papua Bar.",PAPUA BARAT,,Indonesia,,-1.2749516,132.1957347,https://maps.google.com/?cid=0x0:0xff398e9cf16948fa
cafe,cafe,Distrik Ayamaru Selatan Jaya,"Kabupaten Maybrat, Papua Bar.","Kabupaten Maybrat, Papua Bar.",PAPUA BARAT,,Indonesia,,-1.3673656,132.2296299,https://maps.google.com/?cid=0x0:0x67f2471ae23483de
cafe,Rumah Makan,Rumah Makan Smarten Jaya 02,"Fiane, Kec. Ayamaru, Kabupaten Maybrat, Papua Bar.","Kabupaten Maybrat, Papua Bar.",PAPUA BARAT,,Indonesia,82199931677.0,-1.2872425,132.2279503,https://maps.google.com/?cid=0x0:0x9fa566aa094707d4
cafe,Toko Perlengkapan Rumah,Rumah Makan Isme,"P65X+7X4, Fiane, Distrik Ayamaru Tengah, Kabupaten Maybrat, Papua Bar. 98462","Fiane, Distrik Ayamaru Tengah, Kabupaten Maybrat",PAPUA BARAT,98462.0,Indonesia,,-1.2918593,132.2499378,https://maps.google.com/?cid=0x0:0x3a798bb36eb50673
cafe,cafe,Distrik Ayamaru Tengah,"Kabupaten Maybrat, Papua Bar.","Kabupaten Maybrat, Papua Bar.",PAPUA BARAT,,Indonesia,,-1.2884148,132.2172648,https://maps.google.com/?cid=0x0:0xa06de0548d38d1a6
cafe,Rumah Makan,Rumah Makan Smarten Jaya,"Ayamaru mefkajim 11, Kec. Ayamaru, Papua Bar.","Kabupaten Maybrat, Papua Bar.",PAPUA BARAT,,Indonesia,82199931677.0,-1.2804829,132.2028707,https://maps.google.com/?cid=0x0:0xda049992131ddb4d
cafe,Restoran,Restaurant Jordy,"P5FW+5WH, Ayamaru, Kec. Ayamaru, Kabupaten Maybrat, Papua Bar. 98461","Ayamaru, Kec. Ayamaru, Kabupaten Maybrat",PAPUA BARAT,98461.0,Indonesia,,-1.2770626,132.1973567,https://maps.google.com/?cid=0x0:0xef85da43b585ffec
cafe,Indonesia,Rumah Makan Putra Sukowati,"P65G+9H7, Fiane, Kec. Ayamaru, Kabupaten Maybrat, Papua Bar.","Kabupaten Maybrat, Papua Bar.",PAPUA BARAT,,Indonesia,,-1.2915989,132.2264145,https://maps.google.com/?cid=0x0:0xd68323bf1db7ec04
cafe,Masakan Asia,Putra Sukowati,"P6R5+VJ9, Kartapura, Distrik Ayamaru Tengah, Kabupaten Maybrat, Papua Bar.","Kabupaten Maybrat, Papua Bar.",PAPUA BARAT,,Indonesia,,-1.2578264,132.2091097,https://maps.google.com/?cid=0x0:0x99373cbcff22119d
cafe,cafe,Warung Mie ayam bakso+laundry mutiara jaya 2,"Fiane, Distrik Ayamaru Tengah, Kabupaten Maybrat, Papua Bar. 98011","Distrik Ayamaru Tengah, Kabupaten Maybrat",PAPUA BARAT,98011.0,Indonesia,82236508867.0,-1.2919538,132.2309307,https://maps.google.com/?cid=0x0:0xc337496cf2816932
cafe,Rumah Makan,Rumah Makan Smarten Jaya 02,"Fiane, Kec. Ayamaru, Kabupaten Maybrat, Papua Bar.","Kabupaten Maybrat, Papua Bar.",PAPUA BARAT,,Indonesia,82199931677.0,-1.2872425,132.2279503,https://maps.google.com/?cid=0x0:0x9fa566aa094707d4
cafe,cafe,Rumah makan rajawali,"P64X+V42, Fiane, Distrik Ayamaru Tengah, Kabupaten Maybrat, Papua Bar.","Kabupaten Maybrat, Papua Bar.",PAPUA BARAT,,Indonesia,,-1.2928572,132.2477555,https://maps.google.com/?cid=0x0:0x8627996c0160b0cf
cafe,cafe,R.M Muslim,"P5FW+2X6, Ayamaru, Kec. Ayamaru, Kabupaten Maybrat, Papua Bar. 98461","Ayamaru, Kec. Ayamaru, Kabupaten Maybrat",PAPUA BARAT,98461.0,Indonesia,,-1.2774749,132.1973756,https://maps.google.com/?cid=0x0:0x6841f2c1f5a1b7c8
cafe,cafe,Kec. Ayamaru Tim.,"Kabupaten Maybrat, Papua Bar.","Kabupaten Maybrat, Papua Bar.",PAPUA BARAT,,Indonesia,,-1.2951177,132.27456,https://maps.google.com/?cid=0x0:0xb5d97283031cf050
cafe,Toko Perlengkapan Rumah,Rumah Makan Isme,"P65X+7X4, Fiane, Distrik Ayamaru Tengah, Kabupaten Maybrat, Papua Bar. 98462","Fiane, Distrik Ayamaru Tengah, Kabupaten Maybrat",PAPUA BARAT,98462.0,Indonesia,,-1.2918593,132.2499378,https://maps.google.com/?cid=0x0:0x3a798bb36eb50673
cafe,Komplek perumahan,Ayamaru kota,"P838+529, Jitmau, Kec. Aitinyo Utara, Kabupaten Maybrat, Papua Bar.","Kabupaten Maybrat, Papua Bar.",PAPUA BARAT,,Indonesia,,-1.2970979,132.3150993,https://maps.google.com/?cid=0x0:0x5c83c06a31cb7d76
cafe,Komplek perumahan,Ayamaru kota,"P838+529, Jitmau, Kec. Aitinyo Utara, Kabupaten Maybrat, Papua Bar.","Kabupaten Maybrat, Papua Bar.",PAPUA BARAT,,Indonesia,,-1.2970979,132.3150993,https://maps.google.com/?cid=0x0:0x5c83c06a31cb7d76
cafe,cafe,Ayamaru Tim. Sel.,"Kambuskato, Kabupaten Maybrat, Papua Bar.","Kabupaten Maybrat, Papua Bar.",PAPUA BARAT,,Indonesia,,-1.324591,132.265572,https://maps.google.com/?cid=0x0:0x2387ffcd93d6ad5b
cafe,Restoran,Restaurant Jordy,"P5FW+5WH, Ayamaru, Kec. Ayamaru, Kabupaten Maybrat, Papua Bar. 98461","Ayamaru, Kec. Ayamaru, Kabupaten Maybrat",PAPUA BARAT,98461.0,Indonesia,,-1.2770626,132.1973567,https://maps.google.com/?cid=0x0:0xef85da43b585ffec
cafe,cafe,Ayamaru Utara,"Kabupaten Maybrat, Papua Bar.","Kabupaten Maybrat, Papua Bar.",PAPUA BARAT,,Indonesia,,-1.1983051,132.2165112,https://maps.google.com/?cid=0x0:0x7c47e1a7cad6e57d
cafe,Toko Perlengkapan Rumah,Rumah Makan Isme,"P65X+7X4, Fiane, Distrik Ayamaru Tengah, Kabupaten Maybrat, Papua Bar. 98462","Fiane, Distrik Ayamaru Tengah, Kabupaten Maybrat",PAPUA BARAT,98462.0,Indonesia,,-1.2918593,132.2499378,https://maps.google.com/?cid=0x0:0x3a798bb36eb50673
cafe,Komplek perumahan,Ayamaru kota,"P838+529, Jitmau, Kec. Aitinyo Utara, Kabupaten Maybrat, Papua Bar.","Kabupaten Maybrat, Papua Bar.",PAPUA BARAT,,Indonesia,,-1.2970979,132.3150993,https://maps.google.com/?cid=0x0:0x5c83c06a31cb7d76
cafe,Komplek perumahan,Worza yukase papua barat dara,"Q724+QG3, Huberita, Ayamaru Utara, Kabupaten Maybrat, Papua Bar.","Kabupaten Maybrat, Papua Bar.",PAPUA BARAT,,Indonesia,,-1.2481035,132.2562903,https://maps.google.com/?cid=0x0:0x28731eb9090b63fb
cafe,Masakan Asia,Putra Sukowati,"P6R5+VJ9, Kartapura, Distrik Ayamaru Tengah, Kabupaten Maybrat, Papua Bar.","Kabupaten Maybrat, Papua Bar.",PAPUA BARAT,,Indonesia,,-1.2578264,132.2091097,https://maps.google.com/?cid=0x0:0x99373cbcff22119d
cafe,Kantor Pemerintah,Puskesmas Ayamaru Utara,"Q736+5C7, Huberita, Kec. Ayamaru Tim., Kabupaten Maybrat, Papua Bar. 98462","Huberita, Kec. Ayamaru Tim., Kabupaten Maybrat",PAPUA BARAT,98462.0,Indonesia,,-1.2484625,132.2611612,https://maps.google.com/?cid=0x0:0x30b0250f2fdd38b
cafe,Komplek perumahan,Rumah Kotawi Ayamaru,"P5GW+279, Ayamaru, Kec. Ayamaru, Kabupaten Maybrat, Papua Bar.","Kabupaten Maybrat, Papua Bar.",PAPUA BARAT,,Indonesia,,-1.2749516,132.1957347,https://maps.google.com/?cid=0x0:0xff398e9cf16948fa
cafe,Komplek perumahan,Ayamaru kota,"P838+529, Jitmau, Kec. Aitinyo Utara, Kabupaten Maybrat, Papua Bar.","Kabupaten Maybrat, Papua Bar.",PAPUA BARAT,,Indonesia,,-1.2970979,132.3150993,https://maps.google.com/?cid=0x0:0x5c83c06a31cb7d76
cafe,cafe,Papua Bar.,,Papua Bar.,PAPUA BARAT,,Indonesia,,-1.3361154,133.1747162,https://maps.google.com/?cid=0x0:0x5349c1f8c5c7cb62
cafe,Kedai Kopi,La Mare Coffee,"Jl. W R Supratman Jl. Kp. Utan No.78a, Cemp. Putih, Kec. Ciputat Tim., Kota Tangerang Selatan, Banten 15412","Cemp. Putih, Kec. Ciputat Tim., Kota Tangerang Selatan",PAPUA BARAT,15412.0,Indonesia,2220471073.0,-6.2930169,106.7464504,https://maps.google.com/?cid=0x0:0x42725daaf432164f
cafe,Mesin Sangrai Kopi,Alenia Papua Coffee  Kitchen,"Jl. Kemang Raya No.66 B 8, RT.8/RW.2, Bangka, Kec. Mampang Prpt., Kota Jakarta Selatan, Daerah Khusus Ibukota Jakarta 12730","RT.8/RW.2, Bangka, Kec. Mampang Prpt., Kota Jakarta Selatan",PAPUA BARAT,12730.0,Indonesia,2171790141.0,-6.2638119,106.8158777,https://maps.google.com/?cid=0x0:0xe49807fcfab68b48
cafe,Kedai Kopi,MAE COFFEE,"Cemara Sentani, Asei Kecil, Kec. Sentani Tim., Kabupaten Jayapura, Papua 99359","Asei Kecil, Kec. Sentani Tim., Kabupaten Jayapura",PAPUA BARAT,99359.0,Indonesia,82238997210.0,-2.5926504,140.6111801,https://maps.google.com/?cid=0x0:0xa15d394fd2e49da3
cafe,Kafe,Marora Coffee Beach,"9PGV+GM, Nafri, Kec. Abepura, Kota Jayapura, Papua 99351","Nafri, Kec. Abepura, Kota Jayapura",PAPUA BARAT,99351.0,Indonesia,81248098465.0,-2.6233468,140.7447343,https://maps.google.com/?cid=0x0:0xb18aaee88b3d5b85
cafe,cafe,Waiwo Dive Resort  Dive into Raja Ampat,"Jl. Marinda - Waiwo Raja Ampat Papua, Barat, Papua Bar. 98482",Barat,PAPUA BARAT,98482.0,Indonesia,81247912123.0,-0.4364989,130.7783607,https://maps.google.com/?cid=0x0:0xa23d6965a6d740aa
cafe,Indonesia,The Sky Cafe Reborn,"479F+3XR, Jl. Ahmad Yani No.1, Klademak, Distrik Sorong, Kota Sorong, Papua Bar. 98412","Jl. Ahmad Yani No.1, Klademak, Distrik Sorong, Kota Sorong",PAPUA BARAT,98412.0,Indonesia,,-0.8822653,131.2745998,https://maps.google.com/?cid=0x0:0xd87864ab702db251
cafe,cafe,Hamueco Raja Ampat Dive Resort,"Wirausaha Building Jl HR Rasuna Said Kav C5 Lantai 3, Jakarta Selatan, DKI Jakarta, 12940",Jakarta Selatan,PAPUA BARAT,12940.0,Indonesia,81392500242.0,-0.441485,130.761647,https://maps.google.com/?cid=0x0:0xf060a049fd72614d
cafe,cafe,Korpak Villa and Resort,"HQ6M+RGH, Unnamed Road, Waisai, Distrik Kota Waisai, Kabupaten Raja Ampat, Papua Bar. 98482","Unnamed Road, Waisai, Distrik Kota Waisai, Kabupaten Raja Ampat",PAPUA BARAT,98482.0,Indonesia,,-0.4379467,130.7838521,https://maps.google.com/?cid=0x0:0x7d6048504236c32d
cafe,cafe,Vogelkopf Resort,"Waisai, Distrik Kota Waisai, Kabupaten Raja Ampat, Papua Bar. 98482","Distrik Kota Waisai, Kabupaten Raja Ampat",PAPUA BARAT,98482.0,Indonesia,81360001088.0,-0.4385338,130.785262,https://maps.google.com/?cid=0x0:0x132e94aff8281150
cafe,cafe,Scuba Republic - Raja Ampat,"Waisai, Kec. Waigeo Sel., Kabupaten Raja Ampat, Papua Bar. 98482","Kec. Waigeo Sel., Kabupaten Raja Ampat",PAPUA BARAT,98482.0,Indonesia,,-0.4418794,130.7532977,https://maps.google.com/?cid=0x0:0xdbbc913713b959f9
cafe,cafe,PapuArts Alter Native Stay,"Desa Saporkren, Kec. Waigeo Sel., Kabupaten Raja Ampat, Papua Bar. 98482","Kec. Waigeo Sel., Kabupaten Raja Ampat",PAPUA BARAT,98482.0,Indonesia,81248455887.0,-0.438169,130.7367168,https://maps.google.com/?cid=0x0:0x39f6073cbd5c64d4
cafe,cafe,Waigeo Villa,"Waisai, Kec. Waigeo Sel., Kabupaten Raja Ampat, Papua Bar. 98482","Kec. Waigeo Sel., Kabupaten Raja Ampat",PAPUA BARAT,98482.0,Indonesia,81247553799.0,-0.4365115,130.7794821,https://maps.google.com/?cid=0x0:0xd79d1ba9e325d4fc
cafe,cafe,Papua Bar. 98461,"Kabupaten Maybrat, Papua Bar.","Kabupaten Maybrat, Papua Bar.",PAPUA BARAT,,Indonesia,,-1.2145828,132.1177396,https://maps.google.com/?cid=0x0:0x150319512b004ee4
cafe,cafe,Kedai pinggir OMA,"4RC8+QGC Sp 3, Jalur 2, Waseki Indah, Distrik Prafi, Kabupaten Manokwari, Papua Bar. 98356","Jalur 2, Waseki Indah, Distrik Prafi, Kabupaten Manokwari",PAPUA BARAT,98356.0,Indonesia,,-0.8780686,133.8162506,https://maps.google.com/?cid=0x0:0x3287d5edc2cc2a93
cafe,Restoran,Warkop Mare,"RT.004/RW.011, Jatimakmur, Kec. Pd. Gede, Kota Bks, Jawa Barat 17413","Jatimakmur, Kec. Pd. Gede, Kota Bks",PAPUA BARAT,17413.0,Indonesia,85792139949.0,-6.2754256,106.9350731,https://maps.google.com/?cid=0x0:0xacfb32e531d51a14
cafe,Kafe seni,MARE Coffee,"Jl. H. Gemin No.34, RT.001/RW.002, Jatikramat, Kec. Jatiasih, Kota Bks, Jawa Barat 17421","RT.001/RW.002, Jatikramat, Kec. Jatiasih, Kota Bks",PAPUA BARAT,17421.0,Indonesia,,-6.2818212,106.9476022,https://maps.google.com/?cid=0x0:0xa1d42561f839c6b
cafe,Kafe,D'Mare Coffee Shop,"Jl. Ciputat Raya No.5, RT.9/RW.8, Kby. Lama Utara, Kec. Kby. Lama, Kota Jakarta Selatan, Daerah Khusus Ibukota Jakarta 12240","RT.9/RW.8, Kby. Lama Utara, Kec. Kby. Lama, Kota Jakarta Selatan",PAPUA BARAT,12240.0,Indonesia,,-6.2503141,106.7780457,https://maps.google.com/?cid=0x0:0x2189c384dbe9b0c0
cafe,Kedai Kopi,La Mare Coffee,"Jl. W R Supratman Jl. Kp. Utan No.78a, Cemp. Putih, Kec. Ciputat Tim., Kota Tangerang Selatan, Banten 15412","Cemp. Putih, Kec. Ciputat Tim., Kota Tangerang Selatan",PAPUA BARAT,15412.0,Indonesia,2220471073.0,-6.2930169,106.7464504,https://maps.google.com/?cid=0x0:0x42725daaf432164f
cafe,Kedai Kopi,MareÃ© Coffee,"Jl. Ps. Inpres No.1 13, RT.13/RW.3, Gandaria Utara, Kec. Kby. Baru, DKI Jakarta, Daerah Khusus Ibukota Jakarta 12140","RT.13/RW.3, Gandaria Utara, Kec. Kby. Baru, DKI Jakarta",PAPUA BARAT,12140.0,Indonesia,8567482228.0,-6.2605108,106.7910305,https://maps.google.com/?cid=0x0:0xabdc0363516abe2f
cafe,Kafe,Marora Coffee Beach,"9PGV+GM, Nafri, Kec. Abepura, Kota Jayapura, Papua 99351","Nafri, Kec. Abepura, Kota Jayapura",PAPUA BARAT,99351.0,Indonesia,81248098465.0,-2.6233468,140.7447343,https://maps.google.com/?cid=0x0:0xb18aaee88b3d5b85
cafe,cafe,Papua Bar. 98461,"Kabupaten Maybrat, Papua Bar.","Kabupaten Maybrat, Papua Bar.",PAPUA BARAT,,Indonesia,,-1.2145828,132.1177396,https://maps.google.com/?cid=0x0:0x150319512b004ee4
cafe,Mesin Sangrai Kopi,noaa coffee,"Jl. Raya Abepura - Sentani, Asano, Kec. Abepura, Kota Jayapura, Papua 99351","Asano, Kec. Abepura, Kota Jayapura",PAPUA BARAT,99351.0,Indonesia,,-2.6169916,140.680937,https://maps.google.com/?cid=0x0:0xf81fba9ddd855ed3
hotel,hotel,Distrik Aifat,"Kabupaten Maybrat, Papua Bar.","Kabupaten Maybrat, Papua Bar.",PAPUA BARAT,,Indonesia,,-1.2568532,132.5001338,https://maps.google.com/?cid=0x0:0xcc3d52ba3ddd33de
hotel,hotel,Aimas Hotel And Convention Center,"Klamasen, Distrik Mariat, Kabupaten Sorong, Papua Bar. 98416","Distrik Mariat, Kabupaten Sorong",PAPUA BARAT,98416.0,Indonesia,8114887778.0,-0.9780957,131.3535192,https://maps.google.com/?cid=0x0:0x622ceae2f7c756cf
hotel,hotel,Aston Sorong Hotel  Conference Center,"476V+J9X, Jl. Basuki Rahmat, Malaingkedi, Kec. Sorong Utara, Kota Sorong, Papua Bar. 98412","Jl. Basuki Rahmat, Malaingkedi, Kec. Sorong Utara, Kota Sorong",PAPUA BARAT,98412.0,Indonesia,81148500888.0,-0.8887467,131.2931592,https://maps.google.com/?cid=0x0:0x110a6a5f0a67a7f7
hotel,hotel,,,,PAPUA BARAT,,Indonesia,,,,https://maps.google.com/?cid=0x0:0xbf6ecabef3414744%7C/g/12hnlthc5%7Cid-ID
hotel,hotel,M Hotel Sorong,"Jl. Sungai Maruni, Klawuyuk, Kec. Sorong Utara, Kota Sorong, Papua Bar. 98416","Klawuyuk, Kec. Sorong Utara, Kota Sorong",PAPUA BARAT,98416.0,Indonesia,8114863111.0,-0.8858638,131.3227746,https://maps.google.com/?cid=0x0:0x9b9160ef43d35fd5
hotel,hotel,,,,PAPUA BARAT,,Indonesia,,,,https://maps.google.com/?cid=0x0:0x9b9160ef43d35fd5%7C/g/11clwlw14h%7Cid-ID
hotel,hotel,favehotel Sorong,"Klabulu, Jl. Basuki Rahmat Malaimsimsa, RT.001/RW.005, Kecamatan Malaimsimsa, Kota Sorong, Papua Bar. 98419","Jl. Basuki Rahmat Malaimsimsa, RT.001/RW.005, Kecamatan Malaimsimsa, Kota Sorong",PAPUA BARAT,98419.0,Indonesia,9513173888.0,-0.8892152,131.2985379,https://maps.google.com/?cid=0x0:0x56f2eb1c250a17fa
hotel,hotel,,,,PAPUA BARAT,,Indonesia,,,,https://maps.google.com/?cid=0x0:0x56f2eb1c250a17fa%7C/g/11g8bwyjxb%7Cid-ID
hotel,hotel,Raja Ampat Family Guest House,"HRFJ+567, Jalan Mambrasar Swaimbon, Pantai, Waisai, Distrik Kota Waisai, Kabupaten Raja Ampat, Papua Bar. 98482","Jalan Mambrasar Swaimbon, Pantai, Waisai, Distrik Kota Waisai, Kabupaten Raja Ampat",PAPUA BARAT,98482.0,Indonesia,82393112027.0,-0.4270989,130.8305315,https://maps.google.com/?cid=0x0:0x1ff71509f66af495
hotel,hotel,Hotel Raja Ampat,"Jl. Fundar Sakela No.1, Waisai, City, Kabupaten Raja Ampat, Papua Bar. 98482","Waisai, City, Kabupaten Raja Ampat",PAPUA BARAT,98482.0,Indonesia,81298260747.0,-0.4224417,130.8199523,https://maps.google.com/?cid=0x0:0x3bda491b055b084
hotel,hotel,Rifalda Cottage (Raja Ampat),"Waisai, Kec. Waigeo Sel., Kabupaten Raja Ampat, Papua Bar. 98482","Kec. Waigeo Sel., Kabupaten Raja Ampat",PAPUA BARAT,98482.0,Indonesia,,-0.4358519,130.8124731,https://maps.google.com/?cid=0x0:0x8ffeedbd34be837e
hotel,hotel,Penginapan Kofiyau,"46MX+QV7, Unnamed Road, Klasuur, Distrik Sorong, Kota Sorong, Papua Bar. 98411","Unnamed Road, Klasuur, Distrik Sorong, Kota Sorong",PAPUA BARAT,98411.0,Indonesia,82398017326.0,-0.86559,131.2496721,https://maps.google.com/?cid=0x0:0xfc32a1234a9c5c47
hotel,hotel,35 Inn,"476C+RFX, Jl. Ferry, Malawei, Distrik Sorong, Kota Sorong, Papua Bar. 98412","Jl. Ferry, Malawei, Distrik Sorong, Kota Sorong",PAPUA BARAT,98412.0,Indonesia,,-0.8878893,131.271243,https://maps.google.com/?cid=0x0:0xb276478752dcd2b2
hotel,hotel,Hotel Mratuwa Sesna,"G39P+JXC, Keyen, Kec. Teminabuan, Kabupaten Sorong Selatan, Papua Bar. 98454","Keyen, Kec. Teminabuan, Kabupaten Sorong Selatan",PAPUA BARAT,98454.0,Indonesia,81344070037.0,-1.4809318,132.0873892,https://maps.google.com/?cid=0x0:0xa5b0539434328bee
hotel,hotel,Aimas Hotel And Convention Center,"Klamasen, Distrik Mariat, Kabupaten Sorong, Papua Bar. 98416","Distrik Mariat, Kabupaten Sorong",PAPUA BARAT,98416.0,Indonesia,8114887778.0,-0.9780957,131.3535192,https://maps.google.com/?cid=0x0:0x622ceae2f7c756cf
hotel,hotel,Distrik Aifat,"Kabupaten Maybrat, Papua Bar.","Kabupaten Maybrat, Papua Bar.",PAPUA BARAT,,Indonesia,,-1.2568532,132.5001338,https://maps.google.com/?cid=0x0:0xcc3d52ba3ddd33de
hotel,hotel,Aston Sorong Hotel  Conference Center,"476V+J9X, Jl. Basuki Rahmat, Malaingkedi, Kec. Sorong Utara, Kota Sorong, Papua Bar. 98412","Jl. Basuki Rahmat, Malaingkedi, Kec. Sorong Utara, Kota Sorong",PAPUA BARAT,98412.0,Indonesia,81148500888.0,-0.8887467,131.2931592,https://maps.google.com/?cid=0x0:0x110a6a5f0a67a7f7
hotel,hotel,,,,PAPUA BARAT,,Indonesia,,,,https://maps.google.com/?cid=0x0:0xbf6ecabef3414744%7C/g/12hnlthc5%7Cid-ID
hotel,hotel,The ignislo sorong hotel,"Basuki Rahmat Street KM 7 Sorong, Malaingkedi, Sorong Utara, Sorong City, West Papua 98412","Malaingkedi, Sorong Utara, Sorong City",PAPUA BARAT,98412.0,Indonesia,,-0.8885403,131.2925628,https://maps.google.com/?cid=0x0:0x9992b24f2542a546
hotel,hotel,Hotel Mariat,"479F+3XR, Jl. Ahmad Yani No.1, Klademak, Distrik Sorong, Kota Sorong, Papua Bar. 98412","Jl. Ahmad Yani No.1, Klademak, Distrik Sorong, Kota Sorong",PAPUA BARAT,98412.0,Indonesia,951323535.0,-0.8822653,131.2745998,https://maps.google.com/?cid=0x0:0xbf6ecabef3414744
hotel,hotel,InnBox Hostel,"Jl. Sam Ratulangi No.91, Klasuur, Distrik Sorong, Kota Sorong, Papua Bar. 98413","Klasuur, Distrik Sorong, Kota Sorong",PAPUA BARAT,98413.0,Indonesia,81268888355.0,-0.8669219,131.2528048,https://maps.google.com/?cid=0x0:0x3be781e9731e888a
hotel,hotel,M Hotel Sorong,"Jl. Sungai Maruni, Klawuyuk, Kec. Sorong Utara, Kota Sorong, Papua Bar. 98416","Klawuyuk, Kec. Sorong Utara, Kota Sorong",PAPUA BARAT,98416.0,Indonesia,8114863111.0,-0.8858638,131.3227746,https://maps.google.com/?cid=0x0:0x9b9160ef43d35fd5
hotel,hotel,Hotel Belagri Sorong,"Jl. Merapi No.8, Klabala, Distrik Sorong Barat, Kota Sorong, Papua Bar. 98411","Klabala, Distrik Sorong Barat, Kota Sorong",PAPUA BARAT,98411.0,Indonesia,951323888.0,-0.8730356,131.2547729,https://maps.google.com/?cid=0x0:0x84dae6f8c4b2e8ad
hotel,hotel,,,,PAPUA BARAT,,Indonesia,,,,https://maps.google.com/?cid=0x0:0x9b9160ef43d35fd5%7C/g/11clwlw14h%7Cid-ID
hotel,hotel,favehotel Sorong,"Klabulu, Jl. Basuki Rahmat Malaimsimsa, RT.001/RW.005, Kecamatan Malaimsimsa, Kota Sorong, Papua Bar. 98419","Jl. Basuki Rahmat Malaimsimsa, RT.001/RW.005, Kecamatan Malaimsimsa, Kota Sorong",PAPUA BARAT,98419.0,Indonesia,9513173888.0,-0.8892152,131.2985379,https://maps.google.com/?cid=0x0:0x56f2eb1c250a17fa
hotel,hotel,,,,PAPUA BARAT,,Indonesia,,,,https://maps.google.com/?cid=0x0:0x56f2eb1c250a17fa%7C/g/11g8bwyjxb%7Cid-ID
hotel,hotel,Penginapan Kofiyau,"46MX+QV7, Unnamed Road, Klasuur, Distrik Sorong, Kota Sorong, Papua Bar. 98411","Unnamed Road, Klasuur, Distrik Sorong, Kota Sorong",PAPUA BARAT,98411.0,Indonesia,82398017326.0,-0.86559,131.2496721,https://maps.google.com/?cid=0x0:0xfc32a1234a9c5c47
hotel,hotel,Agung Homestay  Foodie,"Jl. Sungai Maruni Km. 10, Jl. Kilang No.17 18, HOP, Kota Sorong, Papua Bar. 98413","Jl. Kilang No.17 18, HOP, Kota Sorong",PAPUA BARAT,98413.0,Indonesia,8124840920.0,-0.8855187,131.3226186,https://maps.google.com/?cid=0x0:0xc70ccd11d0299b38
hotel,hotel,Aimas Hotel And Convention Center,"Klamasen, Distrik Mariat, Kabupaten Sorong, Papua Bar. 98416","Distrik Mariat, Kabupaten Sorong",PAPUA BARAT,98416.0,Indonesia,8114887778.0,-0.9780957,131.3535192,https://maps.google.com/?cid=0x0:0x622ceae2f7c756cf
hotel,hotel,Distrik Aifat Timur,"Kabupaten Maybrat, Papua Bar.","Kabupaten Maybrat, Papua Bar.",PAPUA BARAT,,Indonesia,,-1.3591179,132.59276,https://maps.google.com/?cid=0x0:0x14eac191dd6d8e2e
hotel,hotel,Hotel Mariat,"479F+3XR, Jl. Ahmad Yani No.1, Klademak, Distrik Sorong, Kota Sorong, Papua Bar. 98412","Jl. Ahmad Yani No.1, Klademak, Distrik Sorong, Kota Sorong",PAPUA BARAT,98412.0,Indonesia,951323535.0,-0.8822653,131.2745998,https://maps.google.com/?cid=0x0:0xbf6ecabef3414744
hotel,hotel,Aston Sorong Hotel  Conference Center,"476V+J9X, Jl. Basuki Rahmat, Malaingkedi, Kec. Sorong Utara, Kota Sorong, Papua Bar. 98412","Jl. Basuki Rahmat, Malaingkedi, Kec. Sorong Utara, Kota Sorong",PAPUA BARAT,98412.0,Indonesia,81148500888.0,-0.8887467,131.2931592,https://maps.google.com/?cid=0x0:0x110a6a5f0a67a7f7
hotel,hotel,Penginapan Kofiyau,"46MX+QV7, Unnamed Road, Klasuur, Distrik Sorong, Kota Sorong, Papua Bar. 98411","Unnamed Road, Klasuur, Distrik Sorong, Kota Sorong",PAPUA BARAT,98411.0,Indonesia,82398017326.0,-0.86559,131.2496721,https://maps.google.com/?cid=0x0:0xfc32a1234a9c5c47
hotel,hotel,Hotel Mratuwa Sesna,"G39P+JXC, Keyen, Kec. Teminabuan, Kabupaten Sorong Selatan, Papua Bar. 98454","Keyen, Kec. Teminabuan, Kabupaten Sorong Selatan",PAPUA BARAT,98454.0,Indonesia,81344070037.0,-1.4809318,132.0873892,https://maps.google.com/?cid=0x0:0xa5b0539434328bee
hotel,hotel,35 Inn,"476C+RFX, Jl. Ferry, Malawei, Distrik Sorong, Kota Sorong, Papua Bar. 98412","Jl. Ferry, Malawei, Distrik Sorong, Kota Sorong",PAPUA BARAT,98412.0,Indonesia,,-0.8878893,131.271243,https://maps.google.com/?cid=0x0:0xb276478752dcd2b2
hotel,hotel,Darefan Hotel Sorong,"Jl. Selat Morotai, Remu Sel., Kecamatan Sorong Manoi, Kota Sorong, Papua Bar. 98412","Remu Sel., Kecamatan Sorong Manoi, Kota Sorong",PAPUA BARAT,98412.0,Indonesia,8114868887.0,-0.8877595,131.2893739,https://maps.google.com/?cid=0x0:0x5709bb2ac9cbd24
hotel,hotel,Hotel Batanta,"46GW+RMC, Kp. Baru, Distrik Sorong, Kota Sorong, Papua Bar. 98411","Kp. Baru, Distrik Sorong, Kota Sorong",PAPUA BARAT,98411.0,Indonesia,,-0.8729338,131.246629,https://maps.google.com/?cid=0x0:0xd18e7775760a134a
hotel,hotel,Penginapan Andi Riona,"sebelum jembatan, Jl. Lukas Dailon, Waisai, Distrik Kota Waisai, Kabupaten Raja Ampat, Papua Bar. 98482","Jl. Lukas Dailon, Waisai, Distrik Kota Waisai, Kabupaten Raja Ampat",PAPUA BARAT,98482.0,Indonesia,82343625890.0,-0.4166334,130.8223743,https://maps.google.com/?cid=0x0:0x22162f9d5c4740b1
hotel,hotel,O,"Jl. Jend. A. Yani No.27, Malabutor, Kecamatan Sorong Manoi, Kota Sorong, Papua Bar. 98412","Malabutor, Kecamatan Sorong Manoi, Kota Sorong",PAPUA BARAT,98412.0,Indonesia,,-0.8827427,131.2828186,https://maps.google.com/?cid=0x0:0x9aebba5ddda67893
hotel,hotel,My hotel,"476V+4RR, Malaingkedi, Kec. Sorong Utara, Kota Sorong, Papua Bar. 98412","Malaingkedi, Kec. Sorong Utara, Kota Sorong",PAPUA BARAT,98412.0,Indonesia,,-0.8896471,131.2945287,https://maps.google.com/?cid=0x0:0xb3bbff10842298a6
hotel,Hostel,Hotel Alvira,"P5FW+M3H, Ayamaru, Kec. Ayamaru, Kabupaten Maybrat, Papua Bar. 98461","Ayamaru, Kec. Ayamaru, Kabupaten Maybrat",PAPUA BARAT,98461.0,Indonesia,,-1.2758157,132.1952415,https://maps.google.com/?cid=0x0:0x2c2587ecd0e95290
hotel,Komplek perumahan,Ayamaru kota,"P5FW+R58, Ayamaru, Kec. Ayamaru, Kabupaten Maybrat, Papua Bar.","Kabupaten Maybrat, Papua Bar.",PAPUA BARAT,,Indonesia,,-1.2754653,132.1954432,https://maps.google.com/?cid=0x0:0xfdd80359443d51b9
hotel,hotel,Distrik Aifat Timur,"Kabupaten Maybrat, Papua Bar.","Kabupaten Maybrat, Papua Bar.",PAPUA BARAT,,Indonesia,,-1.3591179,132.59276,https://maps.google.com/?cid=0x0:0x14eac191dd6d8e2e
hotel,Bangunan Bersejarah,Rumah saya,"PGV2+H3, Eisyo, Distrik Aifat, Kabupaten Maybrat, Papua Bar. 98463","Eisyo, Distrik Aifat, Kabupaten Maybrat",PAPUA BARAT,98463.0,Indonesia,,-1.2560386,132.5001289,https://maps.google.com/?cid=0x0:0x821019310f359d4b
hotel,Pusat Kesehatan Masyarakat,Puskesmas Kumurkek,"PGV2+X58, Eisyo, Distrik Aifat, Kabupaten Maybrat, Papua Bar. 98463","Eisyo, Distrik Aifat, Kabupaten Maybrat",PAPUA BARAT,98463.0,Indonesia,,-1.2550908,132.5004423,https://maps.google.com/?cid=0x0:0x56d523c17ca57dc2
hotel,hotel,Distrik Aifat Timur,"Kabupaten Maybrat, Papua Bar.","Kabupaten Maybrat, Papua Bar.",PAPUA BARAT,,Indonesia,,-1.3591179,132.59276,https://maps.google.com/?cid=0x0:0x14eac191dd6d8e2e
hotel,hotel,Aimas Hotel And Convention Center,"Klamasen, Distrik Mariat, Kabupaten Sorong, Papua Bar. 98416","Distrik Mariat, Kabupaten Sorong",PAPUA BARAT,98416.0,Indonesia,8114887778.0,-0.9780957,131.3535192,https://maps.google.com/?cid=0x0:0x622ceae2f7c756cf
hotel,hotel,Aston Sorong Hotel  Conference Center,"476V+J9X, Jl. Basuki Rahmat, Malaingkedi, Kec. Sorong Utara, Kota Sorong, Papua Bar. 98412","Jl. Basuki Rahmat, Malaingkedi, Kec. Sorong Utara, Kota Sorong",PAPUA BARAT,98412.0,Indonesia,81148500888.0,-0.8887467,131.2931592,https://maps.google.com/?cid=0x0:0x110a6a5f0a67a7f7
hotel,hotel,35 Inn,"476C+RFX, Jl. Ferry, Malawei, Distrik Sorong, Kota Sorong, Papua Bar. 98412","Jl. Ferry, Malawei, Distrik Sorong, Kota Sorong",PAPUA BARAT,98412.0,Indonesia,,-0.8878893,131.271243,https://maps.google.com/?cid=0x0:0xb276478752dcd2b2
hotel,hotel,Hotel Mratuwa Sesna,"G39P+JXC, Keyen, Kec. Teminabuan, Kabupaten Sorong Selatan, Papua Bar. 98454","Keyen, Kec. Teminabuan, Kabupaten Sorong Selatan",PAPUA BARAT,98454.0,Indonesia,81344070037.0,-1.4809318,132.0873892,https://maps.google.com/?cid=0x0:0xa5b0539434328bee
hotel,hotel,Darefan Hotel Sorong,"Jl. Selat Morotai, Remu Sel., Kecamatan Sorong Manoi, Kota Sorong, Papua Bar. 98412","Remu Sel., Kecamatan Sorong Manoi, Kota Sorong",PAPUA BARAT,98412.0,Indonesia,8114868887.0,-0.8877595,131.2893739,https://maps.google.com/?cid=0x0:0x5709bb2ac9cbd24
hotel,hotel,Hotel Batanta,"46GW+RMC, Kp. Baru, Distrik Sorong, Kota Sorong, Papua Bar. 98411","Kp. Baru, Distrik Sorong, Kota Sorong",PAPUA BARAT,98411.0,Indonesia,,-0.8729338,131.246629,https://maps.google.com/?cid=0x0:0xd18e7775760a134a
hotel,hotel,O,"Jl. Jend. A. Yani No.27, Malabutor, Kecamatan Sorong Manoi, Kota Sorong, Papua Bar. 98412","Malabutor, Kecamatan Sorong Manoi, Kota Sorong",PAPUA BARAT,98412.0,Indonesia,,-0.8827427,131.2828186,https://maps.google.com/?cid=0x0:0x9aebba5ddda67893
hotel,hotel,Penginapan Andi Riona,"sebelum jembatan, Jl. Lukas Dailon, Waisai, Distrik Kota Waisai, Kabupaten Raja Ampat, Papua Bar. 98482","Jl. Lukas Dailon, Waisai, Distrik Kota Waisai, Kabupaten Raja Ampat",PAPUA BARAT,98482.0,Indonesia,82343625890.0,-0.4166334,130.8223743,https://maps.google.com/?cid=0x0:0x22162f9d5c4740b1
hotel,hotel,Distrik Aifat Timur,"Kabupaten Maybrat, Papua Bar.","Kabupaten Maybrat, Papua Bar.",PAPUA BARAT,,Indonesia,,-1.3591179,132.59276,https://maps.google.com/?cid=0x0:0x14eac191dd6d8e2e
hotel,hotel,Aimas Hotel And Convention Center,"Klamasen, Distrik Mariat, Kabupaten Sorong, Papua Bar. 98416","Distrik Mariat, Kabupaten Sorong",PAPUA BARAT,98416.0,Indonesia,8114887778.0,-0.9780957,131.3535192,https://maps.google.com/?cid=0x0:0x622ceae2f7c756cf
hotel,hotel,Penginapan Kofiyau,"46MX+QV7, Unnamed Road, Klasuur, Distrik Sorong, Kota Sorong, Papua Bar. 98411","Unnamed Road, Klasuur, Distrik Sorong, Kota Sorong",PAPUA BARAT,98411.0,Indonesia,82398017326.0,-0.86559,131.2496721,https://maps.google.com/?cid=0x0:0xfc32a1234a9c5c47
hotel,hotel,O,"Jl. Jend. A. Yani No.27, Malabutor, Kecamatan Sorong Manoi, Kota Sorong, Papua Bar. 98412","Malabutor, Kecamatan Sorong Manoi, Kota Sorong",PAPUA BARAT,98412.0,Indonesia,,-0.8827427,131.2828186,https://maps.google.com/?cid=0x0:0x9aebba5ddda67893
hotel,hotel,Hotel Batanta,"46GW+RMC, Kp. Baru, Distrik Sorong, Kota Sorong, Papua Bar. 98411","Kp. Baru, Distrik Sorong, Kota Sorong",PAPUA BARAT,98411.0,Indonesia,,-0.8729338,131.246629,https://maps.google.com/?cid=0x0:0xd18e7775760a134a
hotel,Rumah wisata,Devid,"PGV2+H3, Eisyo, Distrik Aifat, Kabupaten Maybrat, Papua Bar. 98463","Eisyo, Distrik Aifat, Kabupaten Maybrat",PAPUA BARAT,98463.0,Indonesia,,-1.2560144,132.5001507,https://maps.google.com/?cid=0x0:0xf68ba1f79d28c47f
hotel,Bangunan Bersejarah,Rumah saya,"PGV2+H3, Eisyo, Distrik Aifat, Kabupaten Maybrat, Papua Bar. 98463","Eisyo, Distrik Aifat, Kabupaten Maybrat",PAPUA BARAT,98463.0,Indonesia,,-1.2560386,132.5001289,https://maps.google.com/?cid=0x0:0x821019310f359d4b
hotel,Pusat Kesehatan Masyarakat,Puskesmas Kumurkek,"PGV2+X58, Eisyo, Distrik Aifat, Kabupaten Maybrat, Papua Bar. 98463","Eisyo, Distrik Aifat, Kabupaten Maybrat",PAPUA BARAT,98463.0,Indonesia,,-1.2550908,132.5004423,https://maps.google.com/?cid=0x0:0x56d523c17ca57dc2
hotel,hotel,Distrik Aifat Selatan,"Kabupaten Maybrat, Papua Bar.","Kabupaten Maybrat, Papua Bar.",PAPUA BARAT,,Indonesia,,-1.4185595,132.5043916,https://maps.google.com/?cid=0x0:0x5390da174ca5ef27
hotel,hotel,Penginapan Kofiyau,"46MX+QV7, Unnamed Road, Klasuur, Distrik Sorong, Kota Sorong, Papua Bar. 98411","Unnamed Road, Klasuur, Distrik Sorong, Kota Sorong",PAPUA BARAT,98411.0,Indonesia,82398017326.0,-0.86559,131.2496721,https://maps.google.com/?cid=0x0:0xfc32a1234a9c5c47
hotel,hotel,Hotel Mratuwa Sesna,"G39P+JXC, Keyen, Kec. Teminabuan, Kabupaten Sorong Selatan, Papua Bar. 98454","Keyen, Kec. Teminabuan, Kabupaten Sorong Selatan",PAPUA BARAT,98454.0,Indonesia,81344070037.0,-1.4809318,132.0873892,https://maps.google.com/?cid=0x0:0xa5b0539434328bee
hotel,Rumah wisata,Devid,"PGV2+H3, Eisyo, Distrik Aifat, Kabupaten Maybrat, Papua Bar. 98463","Eisyo, Distrik Aifat, Kabupaten Maybrat",PAPUA BARAT,98463.0,Indonesia,,-1.2560144,132.5001507,https://maps.google.com/?cid=0x0:0xf68ba1f79d28c47f
hotel,hotel,Hotel Batanta,"46GW+RMC, Kp. Baru, Distrik Sorong, Kota Sorong, Papua Bar. 98411","Kp. Baru, Distrik Sorong, Kota Sorong",PAPUA BARAT,98411.0,Indonesia,,-0.8729338,131.246629,https://maps.google.com/?cid=0x0:0xd18e7775760a134a
hotel,Bangunan Bersejarah,Rumah saya,"PGV2+H3, Eisyo, Distrik Aifat, Kabupaten Maybrat, Papua Bar. 98463","Eisyo, Distrik Aifat, Kabupaten Maybrat",PAPUA BARAT,98463.0,Indonesia,,-1.2560386,132.5001289,https://maps.google.com/?cid=0x0:0x821019310f359d4b
hotel,Pusat Kesehatan Masyarakat,Puskesmas Kumurkek,"PGV2+X58, Eisyo, Distrik Aifat, Kabupaten Maybrat, Papua Bar. 98463","Eisyo, Distrik Aifat, Kabupaten Maybrat",PAPUA BARAT,98463.0,Indonesia,,-1.2550908,132.5004423,https://maps.google.com/?cid=0x0:0x56d523c17ca57dc2
hotel,hotel,Distrik Aifat Utara,"Kabupaten Maybrat, Papua Bar.","Kabupaten Maybrat, Papua Bar.",PAPUA BARAT,,Indonesia,,-1.1588544,132.4643784,https://maps.google.com/?cid=0x0:0x7ec0d9546b1ece9c
hotel,hotel,Aimas Hotel And Convention Center,"Klamasen, Distrik Mariat, Kabupaten Sorong, Papua Bar. 98416","Distrik Mariat, Kabupaten Sorong",PAPUA BARAT,98416.0,Indonesia,8114887778.0,-0.9780957,131.3535192,https://maps.google.com/?cid=0x0:0x622ceae2f7c756cf
hotel,hotel,Penginapan Kofiyau,"46MX+QV7, Unnamed Road, Klasuur, Distrik Sorong, Kota Sorong, Papua Bar. 98411","Unnamed Road, Klasuur, Distrik Sorong, Kota Sorong",PAPUA BARAT,98411.0,Indonesia,82398017326.0,-0.86559,131.2496721,https://maps.google.com/?cid=0x0:0xfc32a1234a9c5c47
hotel,hotel,O,"Jl. Jend. A. Yani No.27, Malabutor, Kecamatan Sorong Manoi, Kota Sorong, Papua Bar. 98412","Malabutor, Kecamatan Sorong Manoi, Kota Sorong",PAPUA BARAT,98412.0,Indonesia,,-0.8827427,131.2828186,https://maps.google.com/?cid=0x0:0x9aebba5ddda67893
hotel,hotel,Penginapan Andi Riona,"sebelum jembatan, Jl. Lukas Dailon, Waisai, Distrik Kota Waisai, Kabupaten Raja Ampat, Papua Bar. 98482","Jl. Lukas Dailon, Waisai, Distrik Kota Waisai, Kabupaten Raja Ampat",PAPUA BARAT,98482.0,Indonesia,82343625890.0,-0.4166334,130.8223743,https://maps.google.com/?cid=0x0:0x22162f9d5c4740b1
hotel,hotel,35 Inn,"476C+RFX, Jl. Ferry, Malawei, Distrik Sorong, Kota Sorong, Papua Bar. 98412","Jl. Ferry, Malawei, Distrik Sorong, Kota Sorong",PAPUA BARAT,98412.0,Indonesia,,-0.8878893,131.271243,https://maps.google.com/?cid=0x0:0xb276478752dcd2b2
hotel,hotel,Distrik Aitinyo,"Kabupaten Maybrat, Papua Bar.","Kabupaten Maybrat, Papua Bar.",PAPUA BARAT,,Indonesia,,-1.4413734,132.3839209,https://maps.google.com/?cid=0x0:0xd008081240dea68f
hotel,hotel,Aimas Hotel And Convention Center,"Klamasen, Distrik Mariat, Kabupaten Sorong, Papua Bar. 98416","Distrik Mariat, Kabupaten Sorong",PAPUA BARAT,98416.0,Indonesia,8114887778.0,-0.9780957,131.3535192,https://maps.google.com/?cid=0x0:0x622ceae2f7c756cf
hotel,hotel,The Luxio Hotel,"Jl. Basuki Rahmat KM.12 Sorong, Malaingkedi, Kec. Sorong Utara, West Papua, Papua Bar. 98412","Malaingkedi, Kec. Sorong Utara, West Papua",PAPUA BARAT,98412.0,Indonesia,81344807777.0,-0.9040377,131.3236469,https://maps.google.com/?cid=0x0:0x4a37ba927853645b
hotel,hotel,Aston Sorong Hotel  Conference Center,"476V+J9X, Jl. Basuki Rahmat, Malaingkedi, Kec. Sorong Utara, Kota Sorong, Papua Bar. 98412","Jl. Basuki Rahmat, Malaingkedi, Kec. Sorong Utara, Kota Sorong",PAPUA BARAT,98412.0,Indonesia,81148500888.0,-0.8887467,131.2931592,https://maps.google.com/?cid=0x0:0x110a6a5f0a67a7f7
hotel,hotel,The ignislo sorong hotel,"Basuki Rahmat Street KM 7 Sorong, Malaingkedi, Sorong Utara, Sorong City, West Papua 98412","Malaingkedi, Sorong Utara, Sorong City",PAPUA BARAT,98412.0,Indonesia,,-0.8885403,131.2925628,https://maps.google.com/?cid=0x0:0x9992b24f2542a546
hotel,hotel,Aston Niu Manokwari,"Sogun Hill, Jl. Drs Esau Sesa No.3 Blok B, Sowi, Distrik Manokwari, Kabupaten Manokwari, Papua Bar. 98315","Jl. Drs Esau Sesa No.3 Blok B, Sowi, Distrik Manokwari, Kabupaten Manokwari",PAPUA BARAT,98315.0,Indonesia,81369878787.0,-0.8978109,134.0416499,https://maps.google.com/?cid=0x0:0xe96b706fef94b3a2
hotel,hotel,,,,PAPUA BARAT,,Indonesia,,,,https://maps.google.com/?cid=0x0:0xe96b706fef94b3a2%7C/g/120jr49w%7Cid-ID
hotel,hotel,Hotel Belagri Sorong,"Jl. Merapi No.8, Klabala, Distrik Sorong Barat, Kota Sorong, Papua Bar. 98411","Klabala, Distrik Sorong Barat, Kota Sorong",PAPUA BARAT,98411.0,Indonesia,951323888.0,-0.8730356,131.2547729,https://maps.google.com/?cid=0x0:0x84dae6f8c4b2e8ad
hotel,hotel,M Hotel Sorong,"Jl. Sungai Maruni, Klawuyuk, Kec. Sorong Utara, Kota Sorong, Papua Bar. 98416","Klawuyuk, Kec. Sorong Utara, Kota Sorong",PAPUA BARAT,98416.0,Indonesia,8114863111.0,-0.8858638,131.3227746,https://maps.google.com/?cid=0x0:0x9b9160ef43d35fd5
hotel,hotel,,,,PAPUA BARAT,,Indonesia,,,,https://maps.google.com/?cid=0x0:0x9b9160ef43d35fd5%7C/g/11clwlw14h%7Cid-ID
hotel,hotel,Penginapan Kofiyau,"46MX+QV7, Unnamed Road, Klasuur, Distrik Sorong, Kota Sorong, Papua Bar. 98411","Unnamed Road, Klasuur, Distrik Sorong, Kota Sorong",PAPUA BARAT,98411.0,Indonesia,82398017326.0,-0.86559,131.2496721,https://maps.google.com/?cid=0x0:0xfc32a1234a9c5c47
hotel,hotel,Hotel Mratuwa Sesna,"G39P+JXC, Keyen, Kec. Teminabuan, Kabupaten Sorong Selatan, Papua Bar. 98454","Keyen, Kec. Teminabuan, Kabupaten Sorong Selatan",PAPUA BARAT,98454.0,Indonesia,81344070037.0,-1.4809318,132.0873892,https://maps.google.com/?cid=0x0:0xa5b0539434328bee
hotel,hotel,tempat penginapan,"46GX+7Q4, Kp. Baru, Distrik Sorong, Kota Sorong, Papua Bar.","Kota Sorong, Papua Bar.",PAPUA BARAT,,Indonesia,,-0.8743674,131.249452,https://maps.google.com/?cid=0x0:0x5a527f95bc78be48
hotel,hotel,35 Inn,"476C+RFX, Jl. Ferry, Malawei, Distrik Sorong, Kota Sorong, Papua Bar. 98412","Jl. Ferry, Malawei, Distrik Sorong, Kota Sorong",PAPUA BARAT,98412.0,Indonesia,,-0.8878893,131.271243,https://maps.google.com/?cid=0x0:0xb276478752dcd2b2
hotel,hotel,Distrik Aitinyo,"Kabupaten Maybrat, Papua Bar.","Kabupaten Maybrat, Papua Bar.",PAPUA BARAT,,Indonesia,,-1.4413734,132.3839209,https://maps.google.com/?cid=0x0:0xd008081240dea68f
hotel,hotel,Aston Sorong Hotel  Conference Center,"476V+J9X, Jl. Basuki Rahmat, Malaingkedi, Kec. Sorong Utara, Kota Sorong, Papua Bar. 98412","Jl. Basuki Rahmat, Malaingkedi, Kec. Sorong Utara, Kota Sorong",PAPUA BARAT,98412.0,Indonesia,81148500888.0,-0.8887467,131.2931592,https://maps.google.com/?cid=0x0:0x110a6a5f0a67a7f7
hotel,hotel,Hotel Mratuwa Sesna,"G39P+JXC, Keyen, Kec. Teminabuan, Kabupaten Sorong Selatan, Papua Bar. 98454","Keyen, Kec. Teminabuan, Kabupaten Sorong Selatan",PAPUA BARAT,98454.0,Indonesia,81344070037.0,-1.4809318,132.0873892,https://maps.google.com/?cid=0x0:0xa5b0539434328bee
hotel,hotel,Hotel Batanta,"46GW+RMC, Kp. Baru, Distrik Sorong, Kota Sorong, Papua Bar. 98411","Kp. Baru, Distrik Sorong, Kota Sorong",PAPUA BARAT,98411.0,Indonesia,,-0.8729338,131.246629,https://maps.google.com/?cid=0x0:0xd18e7775760a134a
hotel,hotel,Distrik Aitinyo,"Kabupaten Maybrat, Papua Bar.","Kabupaten Maybrat, Papua Bar.",PAPUA BARAT,,Indonesia,,-1.4413734,132.3839209,https://maps.google.com/?cid=0x0:0xd008081240dea68f
hotel,Komplek perumahan,Ayamaru kota,"P5FW+R58, Ayamaru, Kec. Ayamaru, Kabupaten Maybrat, Papua Bar.","Kabupaten Maybrat, Papua Bar.",PAPUA BARAT,,Indonesia,,-1.2754653,132.1954432,https://maps.google.com/?cid=0x0:0xfdd80359443d51b9
hotel,Hostel,Hotel Alvira,"P5FW+M3H, Ayamaru, Kec. Ayamaru, Kabupaten Maybrat, Papua Bar. 98461","Ayamaru, Kec. Ayamaru, Kabupaten Maybrat",PAPUA BARAT,98461.0,Indonesia,,-1.2758157,132.1952415,https://maps.google.com/?cid=0x0:0x2c2587ecd0e95290
hotel,hotel,Aston Sorong Hotel  Conference Center,"476V+J9X, Jl. Basuki Rahmat, Malaingkedi, Kec. Sorong Utara, Kota Sorong, Papua Bar. 98412","Jl. Basuki Rahmat, Malaingkedi, Kec. Sorong Utara, Kota Sorong",PAPUA BARAT,98412.0,Indonesia,81148500888.0,-0.8887467,131.2931592,https://maps.google.com/?cid=0x0:0x110a6a5f0a67a7f7
hotel,hotel,Ayla City Hotel,"479J+39W, Jl. Srigunting, Remu Utara, Distrik Sorong, Kota Sorong, Papua Bar. 98412","Jl. Srigunting, Remu Utara, Distrik Sorong, Kota Sorong",PAPUA BARAT,98412.0,Indonesia,82344146288.0,-0.882262,131.2809502,https://maps.google.com/?cid=0x0:0x7ef22ab0d606bc6f
hotel,hotel,Penginapan Kofiyau,"46MX+QV7, Unnamed Road, Klasuur, Distrik Sorong, Kota Sorong, Papua Bar. 98411","Unnamed Road, Klasuur, Distrik Sorong, Kota Sorong",PAPUA BARAT,98411.0,Indonesia,82398017326.0,-0.86559,131.2496721,https://maps.google.com/?cid=0x0:0xfc32a1234a9c5c47
hotel,hotel,Hotel Mratuwa Sesna,"G39P+JXC, Keyen, Kec. Teminabuan, Kabupaten Sorong Selatan, Papua Bar. 98454","Keyen, Kec. Teminabuan, Kabupaten Sorong Selatan",PAPUA BARAT,98454.0,Indonesia,81344070037.0,-1.4809318,132.0873892,https://maps.google.com/?cid=0x0:0xa5b0539434328bee
hotel,hotel,35 Inn,"476C+RFX, Jl. Ferry, Malawei, Distrik Sorong, Kota Sorong, Papua Bar. 98412","Jl. Ferry, Malawei, Distrik Sorong, Kota Sorong",PAPUA BARAT,98412.0,Indonesia,,-0.8878893,131.271243,https://maps.google.com/?cid=0x0:0xb276478752dcd2b2
hotel,hotel,O,"Jl. Jend. A. Yani No.27, Malabutor, Kecamatan Sorong Manoi, Kota Sorong, Papua Bar. 98412","Malabutor, Kecamatan Sorong Manoi, Kota Sorong",PAPUA BARAT,98412.0,Indonesia,,-0.8827427,131.2828186,https://maps.google.com/?cid=0x0:0x9aebba5ddda67893
hotel,hotel,Hotel Aquarius,"28VJ+767, Bar., Malawili, Kec. Aimas, Kabupaten Sorong, Papua Bar. 98414","Bar., Malawili, Kec. Aimas, Kabupaten Sorong",PAPUA BARAT,98414.0,Indonesia,951325217.0,-0.9568269,131.330562,https://maps.google.com/?cid=0x0:0xc756b11a37760342
hotel,hotel,Darefan Hotel Sorong,"Jl. Selat Morotai, Remu Sel., Kecamatan Sorong Manoi, Kota Sorong, Papua Bar. 98412","Remu Sel., Kecamatan Sorong Manoi, Kota Sorong",PAPUA BARAT,98412.0,Indonesia,8114868887.0,-0.8877595,131.2893739,https://maps.google.com/?cid=0x0:0x5709bb2ac9cbd24
hotel,hotel,Hotel Batanta,"46GW+RMC, Kp. Baru, Distrik Sorong, Kota Sorong, Papua Bar. 98411","Kp. Baru, Distrik Sorong, Kota Sorong",PAPUA BARAT,98411.0,Indonesia,,-0.8729338,131.246629,https://maps.google.com/?cid=0x0:0xd18e7775760a134a
hotel,hotel,Lovensia Hotel Sorong,"47H2+VMG, Jl. Raja Ampat, Kp. Baru, Distrik Sorong, Kota Sorong, Papua Bar. 98411","Jl. Raja Ampat, Kp. Baru, Distrik Sorong, Kota Sorong",PAPUA BARAT,98411.0,Indonesia,,-0.8703035,131.251688,https://maps.google.com/?cid=0x0:0xca3ad50c2534a699
hotel,hotel,Distrik Aitinyo,"Kabupaten Maybrat, Papua Bar.","Kabupaten Maybrat, Papua Bar.",PAPUA BARAT,,Indonesia,,-1.4413734,132.3839209,https://maps.google.com/?cid=0x0:0xd008081240dea68f
hotel,hotel,Aimas Hotel And Convention Center,"Klamasen, Distrik Mariat, Kabupaten Sorong, Papua Bar. 98416","Distrik Mariat, Kabupaten Sorong",PAPUA BARAT,98416.0,Indonesia,8114887778.0,-0.9780957,131.3535192,https://maps.google.com/?cid=0x0:0x622ceae2f7c756cf
hotel,hotel,The ignislo sorong hotel,"Basuki Rahmat Street KM 7 Sorong, Malaingkedi, Sorong Utara, Sorong City, West Papua 98412","Malaingkedi, Sorong Utara, Sorong City",PAPUA BARAT,98412.0,Indonesia,,-0.8885403,131.2925628,https://maps.google.com/?cid=0x0:0x9992b24f2542a546
hotel,hotel,Hotel Mratuwa Sesna,"G39P+JXC, Keyen, Kec. Teminabuan, Kabupaten Sorong Selatan, Papua Bar. 98454","Keyen, Kec. Teminabuan, Kabupaten Sorong Selatan",PAPUA BARAT,98454.0,Indonesia,81344070037.0,-1.4809318,132.0873892,https://maps.google.com/?cid=0x0:0xa5b0539434328bee
hotel,hotel,Penginapan Kofiyau,"46MX+QV7, Unnamed Road, Klasuur, Distrik Sorong, Kota Sorong, Papua Bar. 98411","Unnamed Road, Klasuur, Distrik Sorong, Kota Sorong",PAPUA BARAT,98411.0,Indonesia,82398017326.0,-0.86559,131.2496721,https://maps.google.com/?cid=0x0:0xfc32a1234a9c5c47
hotel,hotel,35 Inn,"476C+RFX, Jl. Ferry, Malawei, Distrik Sorong, Kota Sorong, Papua Bar. 98412","Jl. Ferry, Malawei, Distrik Sorong, Kota Sorong",PAPUA BARAT,98412.0,Indonesia,,-0.8878893,131.271243,https://maps.google.com/?cid=0x0:0xb276478752dcd2b2
hotel,hotel,Darefan Hotel Sorong,"Jl. Selat Morotai, Remu Sel., Kecamatan Sorong Manoi, Kota Sorong, Papua Bar. 98412","Remu Sel., Kecamatan Sorong Manoi, Kota Sorong",PAPUA BARAT,98412.0,Indonesia,8114868887.0,-0.8877595,131.2893739,https://maps.google.com/?cid=0x0:0x5709bb2ac9cbd24
hotel,hotel,Hotel Batanta,"46GW+RMC, Kp. Baru, Distrik Sorong, Kota Sorong, Papua Bar. 98411","Kp. Baru, Distrik Sorong, Kota Sorong",PAPUA BARAT,98411.0,Indonesia,,-0.8729338,131.246629,https://maps.google.com/?cid=0x0:0xd18e7775760a134a
hotel,hotel,Penginapan Andi Riona,"sebelum jembatan, Jl. Lukas Dailon, Waisai, Distrik Kota Waisai, Kabupaten Raja Ampat, Papua Bar. 98482","Jl. Lukas Dailon, Waisai, Distrik Kota Waisai, Kabupaten Raja Ampat",PAPUA BARAT,98482.0,Indonesia,82343625890.0,-0.4166334,130.8223743,https://maps.google.com/?cid=0x0:0x22162f9d5c4740b1
hotel,hotel,O,"Jl. Jend. A. Yani No.27, Malabutor, Kecamatan Sorong Manoi, Kota Sorong, Papua Bar. 98412","Malabutor, Kecamatan Sorong Manoi, Kota Sorong",PAPUA BARAT,98412.0,Indonesia,,-0.8827427,131.2828186,https://maps.google.com/?cid=0x0:0x9aebba5ddda67893
hotel,hotel,Hotel Aquarius,"28VJ+767, Bar., Malawili, Kec. Aimas, Kabupaten Sorong, Papua Bar. 98414","Bar., Malawili, Kec. Aimas, Kabupaten Sorong",PAPUA BARAT,98414.0,Indonesia,951325217.0,-0.9568269,131.330562,https://maps.google.com/?cid=0x0:0xc756b11a37760342
hotel,hotel,Kec. Aitinyo Utara,"Kabupaten Maybrat, Papua Bar.","Kabupaten Maybrat, Papua Bar.",PAPUA BARAT,,Indonesia,,-1.3033463,132.3116515,https://maps.google.com/?cid=0x0:0x7e6239eb7f264d46
hotel,hotel,Aimas Hotel And Convention Center,"Klamasen, Distrik Mariat, Kabupaten Sorong, Papua Bar. 98416","Distrik Mariat, Kabupaten Sorong",PAPUA BARAT,98416.0,Indonesia,8114887778.0,-0.9780957,131.3535192,https://maps.google.com/?cid=0x0:0x622ceae2f7c756cf
hotel,hotel,The ignislo sorong hotel,"Basuki Rahmat Street KM 7 Sorong, Malaingkedi, Sorong Utara, Sorong City, West Papua 98412","Malaingkedi, Sorong Utara, Sorong City",PAPUA BARAT,98412.0,Indonesia,,-0.8885403,131.2925628,https://maps.google.com/?cid=0x0:0x9992b24f2542a546
hotel,hotel,Penginapan Kofiyau,"46MX+QV7, Unnamed Road, Klasuur, Distrik Sorong, Kota Sorong, Papua Bar. 98411","Unnamed Road, Klasuur, Distrik Sorong, Kota Sorong",PAPUA BARAT,98411.0,Indonesia,82398017326.0,-0.86559,131.2496721,https://maps.google.com/?cid=0x0:0xfc32a1234a9c5c47
hotel,hotel,35 Inn,"476C+RFX, Jl. Ferry, Malawei, Distrik Sorong, Kota Sorong, Papua Bar. 98412","Jl. Ferry, Malawei, Distrik Sorong, Kota Sorong",PAPUA BARAT,98412.0,Indonesia,,-0.8878893,131.271243,https://maps.google.com/?cid=0x0:0xb276478752dcd2b2
hotel,hotel,Hotel Batanta,"46GW+RMC, Kp. Baru, Distrik Sorong, Kota Sorong, Papua Bar. 98411","Kp. Baru, Distrik Sorong, Kota Sorong",PAPUA BARAT,98411.0,Indonesia,,-0.8729338,131.246629,https://maps.google.com/?cid=0x0:0xd18e7775760a134a
hotel,hotel,O,"Jl. Jend. A. Yani No.27, Malabutor, Kecamatan Sorong Manoi, Kota Sorong, Papua Bar. 98412","Malabutor, Kecamatan Sorong Manoi, Kota Sorong",PAPUA BARAT,98412.0,Indonesia,,-0.8827427,131.2828186,https://maps.google.com/?cid=0x0:0x9aebba5ddda67893
hotel,hotel,Penginapan Andi Riona,"sebelum jembatan, Jl. Lukas Dailon, Waisai, Distrik Kota Waisai, Kabupaten Raja Ampat, Papua Bar. 98482","Jl. Lukas Dailon, Waisai, Distrik Kota Waisai, Kabupaten Raja Ampat",PAPUA BARAT,98482.0,Indonesia,82343625890.0,-0.4166334,130.8223743,https://maps.google.com/?cid=0x0:0x22162f9d5c4740b1
hotel,hotel,My hotel,"476V+4RR, Malaingkedi, Kec. Sorong Utara, Kota Sorong, Papua Bar. 98412","Malaingkedi, Kec. Sorong Utara, Kota Sorong",PAPUA BARAT,98412.0,Indonesia,,-0.8896471,131.2945287,https://maps.google.com/?cid=0x0:0xb3bbff10842298a6
hotel,hotel,tempat penginapan,"46GX+7Q4, Kp. Baru, Distrik Sorong, Kota Sorong, Papua Bar.","Kota Sorong, Papua Bar.",PAPUA BARAT,,Indonesia,,-0.8743674,131.249452,https://maps.google.com/?cid=0x0:0x5a527f95bc78be48
hotel,hotel,Hotel Aquarius,"28VJ+767, Bar., Malawili, Kec. Aimas, Kabupaten Sorong, Papua Bar. 98414","Bar., Malawili, Kec. Aimas, Kabupaten Sorong",PAPUA BARAT,98414.0,Indonesia,951325217.0,-0.9568269,131.330562,https://maps.google.com/?cid=0x0:0xc756b11a37760342
hotel,hotel,Kec. Ayamaru,"Kabupaten Maybrat, Papua Bar.","Kabupaten Maybrat, Papua Bar.",PAPUA BARAT,,Indonesia,,-1.2754068,132.1954691,https://maps.google.com/?cid=0x0:0x4d8a88af2189602c
hotel,hotel,Aimas Hotel And Convention Center,"Klamasen, Distrik Mariat, Kabupaten Sorong, Papua Bar. 98416","Distrik Mariat, Kabupaten Sorong",PAPUA BARAT,98416.0,Indonesia,8114887778.0,-0.9780957,131.3535192,https://maps.google.com/?cid=0x0:0x622ceae2f7c756cf
hotel,hotel,Mahanaim Hotel dan Homestay Manokwari,"jln trikora kalidingin no 109, Wosi, Kec. Manokwari Bar., Kabupaten Manokwari, Papua Bar. 98312","Wosi, Kec. Manokwari Bar., Kabupaten Manokwari",PAPUA BARAT,98312.0,Indonesia,8124830147.0,-0.8699305,134.0471193,https://maps.google.com/?cid=0x0:0xeec6727952b4f3e6
hotel,hotel,favehotel Sorong,"Klabulu, Jl. Basuki Rahmat Malaimsimsa, RT.001/RW.005, Kecamatan Malaimsimsa, Kota Sorong, Papua Bar. 98419","Jl. Basuki Rahmat Malaimsimsa, RT.001/RW.005, Kecamatan Malaimsimsa, Kota Sorong",PAPUA BARAT,98419.0,Indonesia,9513173888.0,-0.8892152,131.2985379,https://maps.google.com/?cid=0x0:0x56f2eb1c250a17fa
hotel,hotel,,,,PAPUA BARAT,,Indonesia,,,,https://maps.google.com/?cid=0x0:0x56f2eb1c250a17fa%7C/g/11g8bwyjxb%7Cid-ID
hotel,hotel,Penginapan Kofiyau,"46MX+QV7, Unnamed Road, Klasuur, Distrik Sorong, Kota Sorong, Papua Bar. 98411","Unnamed Road, Klasuur, Distrik Sorong, Kota Sorong",PAPUA BARAT,98411.0,Indonesia,82398017326.0,-0.86559,131.2496721,https://maps.google.com/?cid=0x0:0xfc32a1234a9c5c47
hotel,hotel,Hotel Mratuwa Sesna,"G39P+JXC, Keyen, Kec. Teminabuan, Kabupaten Sorong Selatan, Papua Bar. 98454","Keyen, Kec. Teminabuan, Kabupaten Sorong Selatan",PAPUA BARAT,98454.0,Indonesia,81344070037.0,-1.4809318,132.0873892,https://maps.google.com/?cid=0x0:0xa5b0539434328bee
hotel,hotel,Hotel Nusa Indah,"H267+2GH, Kohoin, Kec. Teminabuan, Kabupaten Sorong Selatan, Papua Bar. 98454","Kohoin, Kec. Teminabuan, Kabupaten Sorong Selatan",PAPUA BARAT,98454.0,Indonesia,,-1.439935,132.0138655,https://maps.google.com/?cid=0x0:0x3e6833d129546707
hotel,hotel,Fajar Roon Hotel,"Jl. Trikora Wosi, Wosi, Kec. Manokwari Bar., Kabupaten Manokwari, Papua Bar. 98312","Wosi, Kec. Manokwari Bar., Kabupaten Manokwari",PAPUA BARAT,98312.0,Indonesia,85333112338.0,-0.8680273,134.0564644,https://maps.google.com/?cid=0x0:0xec6cf3d20bba5444
hotel,hotel,Hotel Batanta,"46GW+RMC, Kp. Baru, Distrik Sorong, Kota Sorong, Papua Bar. 98411","Kp. Baru, Distrik Sorong, Kota Sorong",PAPUA BARAT,98411.0,Indonesia,,-0.8729338,131.246629,https://maps.google.com/?cid=0x0:0xd18e7775760a134a
hotel,hotel,O,"Jl. Jend. A. Yani No.27, Malabutor, Kecamatan Sorong Manoi, Kota Sorong, Papua Bar. 98412","Malabutor, Kecamatan Sorong Manoi, Kota Sorong",PAPUA BARAT,98412.0,Indonesia,,-0.8827427,131.2828186,https://maps.google.com/?cid=0x0:0x9aebba5ddda67893
hotel,hotel,Kec. Ayamaru,"Kabupaten Maybrat, Papua Bar.","Kabupaten Maybrat, Papua Bar.",PAPUA BARAT,,Indonesia,,-1.2754068,132.1954691,https://maps.google.com/?cid=0x0:0x4d8a88af2189602c
hotel,hotel,Hotel Mratuwa Sesna,"G39P+JXC, Keyen, Kec. Teminabuan, Kabupaten Sorong Selatan, Papua Bar. 98454","Keyen, Kec. Teminabuan, Kabupaten Sorong Selatan",PAPUA BARAT,98454.0,Indonesia,81344070037.0,-1.4809318,132.0873892,https://maps.google.com/?cid=0x0:0xa5b0539434328bee
hotel,hotel,Hotel Nusa Indah,"H267+2GH, Kohoin, Kec. Teminabuan, Kabupaten Sorong Selatan, Papua Bar. 98454","Kohoin, Kec. Teminabuan, Kabupaten Sorong Selatan",PAPUA BARAT,98454.0,Indonesia,,-1.439935,132.0138655,https://maps.google.com/?cid=0x0:0x3e6833d129546707
hotel,hotel,Distrik Ayamaru Jaya,"Kabupaten Maybrat, Papua Bar.","Kabupaten Maybrat, Papua Bar.",PAPUA BARAT,,Indonesia,,-1.240888,132.1225897,https://maps.google.com/?cid=0x0:0x7043cae1470f6f3d
hotel,hotel,Hotel Rannu Jaya,"WW6V+7RM, Wamena Kota, Distrik Wamena, Kabupaten Jayawijaya, Papua 99511","Wamena Kota, Distrik Wamena, Kabupaten Jayawijaya",PAPUA BARAT,99511.0,Indonesia,82195455765.0,-4.0892985,138.9445592,https://maps.google.com/?cid=0x0:0xdd25cadd9590097a
hotel,hotel,Hotel Karya Papua,"JGX6+2PM, Jl. R.E. Martadinata Kalinona, Nabarua, Distrik Nabire, Papua 98816","Jl. R.E. Martadinata Kalinona, Nabarua, Distrik Nabire",PAPUA BARAT,98816.0,Indonesia,82164655697.0,-3.3524082,135.5118114,https://maps.google.com/?cid=0x0:0x8196bf4b8aafbb3f
hotel,Komplek perumahan,Ayamaru kota,"P5FW+R58, Ayamaru, Kec. Ayamaru, Kabupaten Maybrat, Papua Bar.","Kabupaten Maybrat, Papua Bar.",PAPUA BARAT,,Indonesia,,-1.2754653,132.1954432,https://maps.google.com/?cid=0x0:0xfdd80359443d51b9
hotel,hotel,Distrik Ayamaru Selatan,"Kabupaten Maybrat, Papua Bar.","Kabupaten Maybrat, Papua Bar.",PAPUA BARAT,,Indonesia,,-1.3053761,132.1485942,https://maps.google.com/?cid=0x0:0x78bc898d04ac4488
hotel,hotel,Hotel Mratuwa Sesna,"G39P+JXC, Keyen, Kec. Teminabuan, Kabupaten Sorong Selatan, Papua Bar. 98454","Keyen, Kec. Teminabuan, Kabupaten Sorong Selatan",PAPUA BARAT,98454.0,Indonesia,81344070037.0,-1.4809318,132.0873892,https://maps.google.com/?cid=0x0:0xa5b0539434328bee
hotel,hotel,Hotel Nusa Indah,"H267+2GH, Kohoin, Kec. Teminabuan, Kabupaten Sorong Selatan, Papua Bar. 98454","Kohoin, Kec. Teminabuan, Kabupaten Sorong Selatan",PAPUA BARAT,98454.0,Indonesia,,-1.439935,132.0138655,https://maps.google.com/?cid=0x0:0x3e6833d129546707
hotel,hotel,Homestay Rum-Asai,"Meossu Pulau Dua, Kampung Werur, Distrik Bikar, Kabupaten Tambrauw, Papua Bar.","Kabupaten Tambrauw, Papua Bar.",PAPUA BARAT,,Indonesia,82198080500.0,-0.3500717,132.1749644,https://maps.google.com/?cid=0x0:0x63b91b766e2a8319
hotel,hotel,Distrik Ayamaru Selatan Jaya,"Kabupaten Maybrat, Papua Bar.","Kabupaten Maybrat, Papua Bar.",PAPUA BARAT,,Indonesia,,-1.3673656,132.2296299,https://maps.google.com/?cid=0x0:0x67f2471ae23483de
hotel,hotel,Hotel Mratuwa Sesna,"G39P+JXC, Keyen, Kec. Teminabuan, Kabupaten Sorong Selatan, Papua Bar. 98454","Keyen, Kec. Teminabuan, Kabupaten Sorong Selatan",PAPUA BARAT,98454.0,Indonesia,81344070037.0,-1.4809318,132.0873892,https://maps.google.com/?cid=0x0:0xa5b0539434328bee
hotel,hotel,Hotel Nusa Indah,"H267+2GH, Kohoin, Kec. Teminabuan, Kabupaten Sorong Selatan, Papua Bar. 98454","Kohoin, Kec. Teminabuan, Kabupaten Sorong Selatan",PAPUA BARAT,98454.0,Indonesia,,-1.439935,132.0138655,https://maps.google.com/?cid=0x0:0x3e6833d129546707
hotel,hotel,Distrik Ayamaru Tengah,"Kabupaten Maybrat, Papua Bar.","Kabupaten Maybrat, Papua Bar.",PAPUA BARAT,,Indonesia,,-1.2884148,132.2172648,https://maps.google.com/?cid=0x0:0xa06de0548d38d1a6
hotel,Komplek perumahan,Ayamaru kota,"P5FW+R58, Ayamaru, Kec. Ayamaru, Kabupaten Maybrat, Papua Bar.","Kabupaten Maybrat, Papua Bar.",PAPUA BARAT,,Indonesia,,-1.2754653,132.1954432,https://maps.google.com/?cid=0x0:0xfdd80359443d51b9
hotel,Hostel,Hotel Alvira,"P5FW+M3H, Ayamaru, Kec. Ayamaru, Kabupaten Maybrat, Papua Bar. 98461","Ayamaru, Kec. Ayamaru, Kabupaten Maybrat",PAPUA BARAT,98461.0,Indonesia,,-1.2758157,132.1952415,https://maps.google.com/?cid=0x0:0x2c2587ecd0e95290
hotel,hotel,Kec. Ayamaru Tim.,"Kabupaten Maybrat, Papua Bar.","Kabupaten Maybrat, Papua Bar.",PAPUA BARAT,,Indonesia,,-1.2951177,132.27456,https://maps.google.com/?cid=0x0:0xb5d97283031cf050
hotel,Hostel,Hotel Alvira,"P5FW+M3H, Ayamaru, Kec. Ayamaru, Kabupaten Maybrat, Papua Bar. 98461","Ayamaru, Kec. Ayamaru, Kabupaten Maybrat",PAPUA BARAT,98461.0,Indonesia,,-1.2758157,132.1952415,https://maps.google.com/?cid=0x0:0x2c2587ecd0e95290
hotel,Komplek perumahan,Ayamaru kota,"P5FW+R58, Ayamaru, Kec. Ayamaru, Kabupaten Maybrat, Papua Bar.","Kabupaten Maybrat, Papua Bar.",PAPUA BARAT,,Indonesia,,-1.2754653,132.1954432,https://maps.google.com/?cid=0x0:0xfdd80359443d51b9
hotel,hotel,Ayamaru Tim. Sel.,"Kambuskato, Kabupaten Maybrat, Papua Bar.","Kabupaten Maybrat, Papua Bar.",PAPUA BARAT,,Indonesia,,-1.324591,132.265572,https://maps.google.com/?cid=0x0:0x2387ffcd93d6ad5b
hotel,hotel,Penginapan Kofiyau,"46MX+QV7, Unnamed Road, Klasuur, Distrik Sorong, Kota Sorong, Papua Bar. 98411","Unnamed Road, Klasuur, Distrik Sorong, Kota Sorong",PAPUA BARAT,98411.0,Indonesia,82398017326.0,-0.86559,131.2496721,https://maps.google.com/?cid=0x0:0xfc32a1234a9c5c47
hotel,hotel,Hotel Mratuwa Sesna,"G39P+JXC, Keyen, Kec. Teminabuan, Kabupaten Sorong Selatan, Papua Bar. 98454","Keyen, Kec. Teminabuan, Kabupaten Sorong Selatan",PAPUA BARAT,98454.0,Indonesia,81344070037.0,-1.4809318,132.0873892,https://maps.google.com/?cid=0x0:0xa5b0539434328bee
hotel,hotel,O,"Jl. Jend. A. Yani No.27, Malabutor, Kecamatan Sorong Manoi, Kota Sorong, Papua Bar. 98412","Malabutor, Kecamatan Sorong Manoi, Kota Sorong",PAPUA BARAT,98412.0,Indonesia,,-0.8827427,131.2828186,https://maps.google.com/?cid=0x0:0x9aebba5ddda67893
hotel,Hostel,Hotel Alvira,"P5FW+M3H, Ayamaru, Kec. Ayamaru, Kabupaten Maybrat, Papua Bar. 98461","Ayamaru, Kec. Ayamaru, Kabupaten Maybrat",PAPUA BARAT,98461.0,Indonesia,,-1.2758157,132.1952415,https://maps.google.com/?cid=0x0:0x2c2587ecd0e95290
hotel,Komplek perumahan,Ayamaru kota,"P5FW+R58, Ayamaru, Kec. Ayamaru, Kabupaten Maybrat, Papua Bar.","Kabupaten Maybrat, Papua Bar.",PAPUA BARAT,,Indonesia,,-1.2754653,132.1954432,https://maps.google.com/?cid=0x0:0xfdd80359443d51b9
hotel,Komplek perumahan,Ayamaru kota,"P5FW+R58, Ayamaru, Kec. Ayamaru, Kabupaten Maybrat, Papua Bar.","Kabupaten Maybrat, Papua Bar.",PAPUA BARAT,,Indonesia,,-1.2754653,132.1954432,https://maps.google.com/?cid=0x0:0xfdd80359443d51b9
hotel,Hostel,Hotel Alvira,"P5FW+M3H, Ayamaru, Kec. Ayamaru, Kabupaten Maybrat, Papua Bar. 98461","Ayamaru, Kec. Ayamaru, Kabupaten Maybrat",PAPUA BARAT,98461.0,Indonesia,,-1.2758157,132.1952415,https://maps.google.com/?cid=0x0:0x2c2587ecd0e95290
hotel,hotel,Distrik Ayamaru Utara Timur,"Kabupaten Maybrat, Papua Bar.","Kabupaten Maybrat, Papua Bar.",PAPUA BARAT,,Indonesia,,-1.2541857,132.3121103,https://maps.google.com/?cid=0x0:0x48dc44cac491eb66
hotel,hotel,Aston Sorong Hotel  Conference Center,"476V+J9X, Jl. Basuki Rahmat, Malaingkedi, Kec. Sorong Utara, Kota Sorong, Papua Bar. 98412","Jl. Basuki Rahmat, Malaingkedi, Kec. Sorong Utara, Kota Sorong",PAPUA BARAT,98412.0,Indonesia,81148500888.0,-0.8887467,131.2931592,https://maps.google.com/?cid=0x0:0x110a6a5f0a67a7f7
hotel,hotel,City View Hotel,"479J+38V, Jl. Srigunting, Remu Utara, Distrik Sorong, Kota Sorong, Papua Bar. 98412","Jl. Srigunting, Remu Utara, Distrik Sorong, Kota Sorong",PAPUA BARAT,98412.0,Indonesia,951324102.0,-0.8822749,131.2808058,https://maps.google.com/?cid=0x0:0xac64df2bc7cde404
hotel,hotel,Hotel Batanta,"46GW+RMC, Kp. Baru, Distrik Sorong, Kota Sorong, Papua Bar. 98411","Kp. Baru, Distrik Sorong, Kota Sorong",PAPUA BARAT,98411.0,Indonesia,,-0.8729338,131.246629,https://maps.google.com/?cid=0x0:0xd18e7775760a134a
hotel,hotel,O,"Jl. Jend. A. Yani No.27, Malabutor, Kecamatan Sorong Manoi, Kota Sorong, Papua Bar. 98412","Malabutor, Kecamatan Sorong Manoi, Kota Sorong",PAPUA BARAT,98412.0,Indonesia,,-0.8827427,131.2828186,https://maps.google.com/?cid=0x0:0x9aebba5ddda67893
hotel,Hostel,Hotel Alvira,"P5FW+M3H, Ayamaru, Kec. Ayamaru, Kabupaten Maybrat, Papua Bar. 98461","Ayamaru, Kec. Ayamaru, Kabupaten Maybrat",PAPUA BARAT,98461.0,Indonesia,,-1.2758157,132.1952415,https://maps.google.com/?cid=0x0:0x2c2587ecd0e95290
hotel,Komplek perumahan,Ayamaru kota,"P5FW+R58, Ayamaru, Kec. Ayamaru, Kabupaten Maybrat, Papua Bar.","Kabupaten Maybrat, Papua Bar.",PAPUA BARAT,,Indonesia,,-1.2754653,132.1954432,https://maps.google.com/?cid=0x0:0xfdd80359443d51b9
hotel,hotel,Papua Bar.,,Papua Bar.,PAPUA BARAT,,Indonesia,,-1.3361154,133.1747162,https://maps.google.com/?cid=0x0:0x5349c1f8c5c7cb62
hotel,hotel,Swiss Belhotel Manokwari,"Jl. Yos Sudarso Manokwari No.8, Manokwari Bar., Kec. Manokwari Bar., Kabupaten Manokwari, Papua Bar. 98312","Manokwari Bar., Kec. Manokwari Bar., Kabupaten Manokwari",PAPUA BARAT,98312.0,Indonesia,8114854000.0,-0.8572937,134.0672125,https://maps.google.com/?cid=0x0:0x92c98d5e96ee2a8f
hotel,hotel,,,,PAPUA BARAT,,Indonesia,,,,https://maps.google.com/?cid=0x0:0x92c98d5e96ee2a8f%7C/g/1yl475f47%7Cid-ID
hotel,hotel,Raja Ampat Biodiversity Nature Resort,"Pantai Yenanas, Yenbeser, Kec. Waigeo Sel., Kabupaten Raja Ampat, Papua Bar. 98482","Yenbeser, Kec. Waigeo Sel., Kabupaten Raja Ampat",PAPUA BARAT,98482.0,Indonesia,81248813677.0,-0.4504898,130.6921427,https://maps.google.com/?cid=0x0:0xcbf275f407edce9c
hotel,hotel,,,,PAPUA BARAT,,Indonesia,,,,https://maps.google.com/?cid=0x0:0x4d32c5e468c00628%7C/g/11btmq5mpb%7Cid-ID
hotel,hotel,Aston Sorong Hotel  Conference Center,"476V+J9X, Jl. Basuki Rahmat, Malaingkedi, Kec. Sorong Utara, Kota Sorong, Papua Bar. 98412","Jl. Basuki Rahmat, Malaingkedi, Kec. Sorong Utara, Kota Sorong",PAPUA BARAT,98412.0,Indonesia,81148500888.0,-0.8887467,131.2931592,https://maps.google.com/?cid=0x0:0x110a6a5f0a67a7f7
hotel,hotel,Hotel Triton,"Jl. Gn. Salju No.6, Manokwari Bar., Kec. Manokwari Bar., Kabupaten Manokwari, Papua Bar. 98311","Manokwari Bar., Kec. Manokwari Bar., Kabupaten Manokwari",PAPUA BARAT,98311.0,Indonesia,986212666.0,-0.8532727,134.068781,https://maps.google.com/?cid=0x0:0x6021b02b4fb20af
hotel,hotel,RYLICH PANORAMA HOTEL,"Jl. Sam Ratulangi No.55, Klasuur, Distrik Sorong, Kota Sorong, Papua Bar. 98411","Klasuur, Distrik Sorong, Kota Sorong",PAPUA BARAT,98411.0,Indonesia,81240607603.0,-0.8690863,131.2526553,https://maps.google.com/?cid=0x0:0x994aef0f06a4c9a4
hotel,hotel,Aimas Hotel And Convention Center,"Klamasen, Distrik Mariat, Kabupaten Sorong, Papua Bar. 98416","Distrik Mariat, Kabupaten Sorong",PAPUA BARAT,98416.0,Indonesia,8114887778.0,-0.9780957,131.3535192,https://maps.google.com/?cid=0x0:0x622ceae2f7c756cf
hotel,hotel,,,,PAPUA BARAT,,Indonesia,,,,https://maps.google.com/?cid=0x0:0xe96b706fef94b3a2%7C/g/120jr49w%7Cid-ID
hotel,hotel,Aston Niu Manokwari,"Sogun Hill, Jl. Drs Esau Sesa No.3 Blok B, Sowi, Distrik Manokwari, Kabupaten Manokwari, Papua Bar. 98315","Jl. Drs Esau Sesa No.3 Blok B, Sowi, Distrik Manokwari, Kabupaten Manokwari",PAPUA BARAT,98315.0,Indonesia,81369878787.0,-0.8978109,134.0416499,https://maps.google.com/?cid=0x0:0xe96b706fef94b3a2
hotel,hotel,Hotel Mariat,"479F+3XR, Jl. Ahmad Yani No.1, Klademak, Distrik Sorong, Kota Sorong, Papua Bar. 98412","Jl. Ahmad Yani No.1, Klademak, Distrik Sorong, Kota Sorong",PAPUA BARAT,98412.0,Indonesia,951323535.0,-0.8822653,131.2745998,https://maps.google.com/?cid=0x0:0xbf6ecabef3414744
hotel,hotel,,,,PAPUA BARAT,,Indonesia,,,,https://maps.google.com/?cid=0x0:0xbf6ecabef3414744%7C/g/12hnlthc5%7Cid-ID
hotel,hotel,VEGA PRIME Hotel  Convention,"Jl. Frans Kaisiepo, Malaingkedi, Kec. Sorong Utara, Kota Sorong, Papua Bar. 98412","Malaingkedi, Kec. Sorong Utara, Kota Sorong",PAPUA BARAT,98412.0,Indonesia,81148501658.0,-0.8863935,131.2926608,https://maps.google.com/?cid=0x0:0x9490ccc0d9334885
hotel,hotel,Papua Bar. 98461,"Kabupaten Maybrat, Papua Bar.","Kabupaten Maybrat, Papua Bar.",PAPUA BARAT,,Indonesia,,-1.2145828,132.1177396,https://maps.google.com/?cid=0x0:0x150319512b004ee4
hotel,hotel,Aimas Hotel And Convention Center,"Klamasen, Distrik Mariat, Kabupaten Sorong, Papua Bar. 98416","Distrik Mariat, Kabupaten Sorong",PAPUA BARAT,98416.0,Indonesia,8114887778.0,-0.9780957,131.3535192,https://maps.google.com/?cid=0x0:0x622ceae2f7c756cf
hotel,hotel,Hotel Rama,"42JW+GWX, Jl. Trikora Rendani, Wosi, Kec. Manokwari Bar., Kabupaten Manokwari, Papua Bar. 98312","Jl. Trikora Rendani, Wosi, Kec. Manokwari Bar., Kabupaten Manokwari",PAPUA BARAT,98312.0,Indonesia,,-0.8686391,134.0473473,https://maps.google.com/?cid=0x0:0xbc8387651670c591
hotel,hotel,,,,PAPUA BARAT,,Indonesia,,,,https://maps.google.com/?cid=0x0:0xbf6ecabef3414744%7C/g/12hnlthc5%7Cid-ID
hotel,hotel,Mahanaim Hotel dan Homestay Manokwari,"jln trikora kalidingin no 109, Wosi, Kec. Manokwari Bar., Kabupaten Manokwari, Papua Bar. 98312","Wosi, Kec. Manokwari Bar., Kabupaten Manokwari",PAPUA BARAT,98312.0,Indonesia,8124830147.0,-0.8699305,134.0471193,https://maps.google.com/?cid=0x0:0xeec6727952b4f3e6
hotel,hotel,The ignislo sorong hotel,"Basuki Rahmat Street KM 7 Sorong, Malaingkedi, Sorong Utara, Sorong City, West Papua 98412","Malaingkedi, Sorong Utara, Sorong City",PAPUA BARAT,98412.0,Indonesia,,-0.8885403,131.2925628,https://maps.google.com/?cid=0x0:0x9992b24f2542a546
hotel,hotel,Belagri Hotel and Restaurant,"Jl. Raja Ampat No.1, Kp. Baru, Distrik Sorong, Kota Sorong, Papua Bar. 98413","Kp. Baru, Distrik Sorong, Kota Sorong",PAPUA BARAT,98413.0,Indonesia,,-0.8704329,131.2517604,https://maps.google.com/?cid=0x0:0xb0064be8b2a3c2c8
hotel,hotel,,,,PAPUA BARAT,,Indonesia,,,,https://maps.google.com/?cid=0x0:0x9b9160ef43d35fd5%7C/g/11clwlw14h%7Cid-ID
hotel,hotel,M Hotel Sorong,"Jl. Sungai Maruni, Klawuyuk, Kec. Sorong Utara, Kota Sorong, Papua Bar. 98416","Klawuyuk, Kec. Sorong Utara, Kota Sorong",PAPUA BARAT,98416.0,Indonesia,8114863111.0,-0.8858638,131.3227746,https://maps.google.com/?cid=0x0:0x9b9160ef43d35fd5
hotel,hotel,favehotel Sorong,"Klabulu, Jl. Basuki Rahmat Malaimsimsa, RT.001/RW.005, Kecamatan Malaimsimsa, Kota Sorong, Papua Bar. 98419","Jl. Basuki Rahmat Malaimsimsa, RT.001/RW.005, Kecamatan Malaimsimsa, Kota Sorong",PAPUA BARAT,98419.0,Indonesia,9513173888.0,-0.8892152,131.2985379,https://maps.google.com/?cid=0x0:0x56f2eb1c250a17fa
hotel,hotel,,,,PAPUA BARAT,,Indonesia,,,,https://maps.google.com/?cid=0x0:0x56f2eb1c250a17fa%7C/g/11g8bwyjxb%7Cid-ID
hotel,hotel,Royal Mamberamo Hotel,"Jl. Dr. Sam Ratulangi No.35, Kp. Baru, Distrik Sorong, Kota Sorong, Papua Bar. 98413","Kp. Baru, Distrik Sorong, Kota Sorong",PAPUA BARAT,98413.0,Indonesia,951325666.0,-0.871573,131.250864,https://maps.google.com/?cid=0x0:0xb5e32e36111d42eb
hotel,hotel,RedDoorz near Dermaga Pelabuhan Rakyat,"Jl. Selat Rumberpon No.10A, Remu Sel., Kecamatan Sorong Manoi, Kota Sorong, Papua Bar. 98412","Remu Sel., Kecamatan Sorong Manoi, Kota Sorong",PAPUA BARAT,98412.0,Indonesia,895417300072.0,-0.8853147,131.2865519,https://maps.google.com/?cid=0x0:0x54d7a289f7c7cb50
hotel,hotel,RAMA TRANSITO HOTEL,"42RV+276, Unnamed Road, Wosi, Kec. Manokwari Bar., Kabupaten Manokwari, Papua Bar. 98312","Unnamed Road, Wosi, Kec. Manokwari Bar., Kabupaten Manokwari",PAPUA BARAT,98312.0,Indonesia,82198250318.0,-0.8599684,134.0431297,https://maps.google.com/?cid=0x0:0x61e002737b3747f1
hotel,hotel,Papua Bar. 98461,"Kabupaten Maybrat, Papua Bar.","Kabupaten Maybrat, Papua Bar.",PAPUA BARAT,,Indonesia,,-1.2145828,132.1177396,https://maps.google.com/?cid=0x0:0x150319512b004ee4
hotel,hotel,Hotel Mratuwa Sesna,"G39P+JXC, Keyen, Kec. Teminabuan, Kabupaten Sorong Selatan, Papua Bar. 98454","Keyen, Kec. Teminabuan, Kabupaten Sorong Selatan",PAPUA BARAT,98454.0,Indonesia,81344070037.0,-1.4809318,132.0873892,https://maps.google.com/?cid=0x0:0xa5b0539434328bee
hotel,,Panta Kapal,"H278+HMC, Unnamed Road, Namro, Kec. Teminabuan, Kabupaten Sorong Selatan, Papua Bar. 98454","Unnamed Road, Namro, Kec. Teminabuan, Kabupaten Sorong Selatan",PAPUA BARAT,98454.0,Indonesia,,-1.4360733,132.016648,https://maps.google.com/?cid=0x0:0x794003f531510bf1
restaurant,restaurant,Distrik Aifat,"Kabupaten Maybrat, Papua Bar.","Kabupaten Maybrat, Papua Bar.",PAPUA BARAT,,Indonesia,,-1.2568532,132.5001338,https://maps.google.com/?cid=0x0:0xcc3d52ba3ddd33de
restaurant,restaurant,RM. SINGGAH DOLO,"PGV2+732, Eisyo, Distrik Aifat, Kabupaten Maybrat, Papua Bar. 98463","Eisyo, Distrik Aifat, Kabupaten Maybrat",PAPUA BARAT,98463.0,Indonesia,,-1.2568978,132.5001312,https://maps.google.com/?cid=0x0:0x5820a47ebba15398
restaurant,Dapur Umum,KIOS AIFAT JAYA DAN WARUNG AIFAT JAYA,"PFVX+24P, Eisyo, Distrik Aifat, Kabupaten Maybrat, Papua Bar. 98463","Eisyo, Distrik Aifat, Kabupaten Maybrat",PAPUA BARAT,98463.0,Indonesia,,-1.2582207,132.4977964,https://maps.google.com/?cid=0x0:0x6896cde496ab319b
restaurant,Toko bahan makanan,RM Berkat Balantak,"RF77+C36, Ayawasi, Distrik Aifat Utara, Kabupaten Maybrat, Papua Bar. 98463","Ayawasi, Distrik Aifat Utara, Kabupaten Maybrat",PAPUA BARAT,98463.0,Indonesia,82397745687.0,-1.186464,132.4626367,https://maps.google.com/?cid=0x0:0x5a6aa2403713d07c
restaurant,Nasi,KIOS IZA,"PGV2+F2F, Kumurkek, Distrik Aifat, Kabupaten Maybrat, Papua Bar. 98463","Kumurkek, Distrik Aifat, Kabupaten Maybrat",PAPUA BARAT,98463.0,Indonesia,,-1.2563194,132.5000327,https://maps.google.com/?cid=0x0:0xf0d45acb7d3276cb
restaurant,restaurant,RUMAH MAKAN SONANA KUMURKEK,"PFWX+XR9, Kumurkek, Distrik Aifat, Kabupaten Maybrat, Papua Bar. 98463","Kumurkek, Distrik Aifat, Kabupaten Maybrat",PAPUA BARAT,98463.0,Indonesia,,-1.2517511,132.4991496,https://maps.google.com/?cid=0x0:0x1e04692d2f36dd22
restaurant,Toko Perlengkapan Rumah,Rumah Makan Isme,"P65X+7X4, Fiane, Distrik Ayamaru Tengah, Kabupaten Maybrat, Papua Bar. 98462","Fiane, Distrik Ayamaru Tengah, Kabupaten Maybrat",PAPUA BARAT,98462.0,Indonesia,,-1.2918593,132.2499378,https://maps.google.com/?cid=0x0:0x3a798bb36eb50673
restaurant,Restoran,Dapoer Clara Resto  Cafe,"Jl. Merdeka, Padarni, Kec. Manokwari Bar., Kabupaten Manokwari, Papua Bar. 98312","Padarni, Kec. Manokwari Bar., Kabupaten Manokwari",PAPUA BARAT,98312.0,Indonesia,81376561946.0,-0.8599743,134.0734977,https://maps.google.com/?cid=0x0:0xf72c792d9c9dae56
restaurant,Kedai Kopi,Warung Double M,"PGV2+732, Eisyo, Distrik Aifat, Kabupaten Maybrat, Papua Bar.","Kabupaten Maybrat, Papua Bar.",PAPUA BARAT,,Indonesia,,-1.2568532,132.5001338,https://maps.google.com/?cid=0x0:0xe1f773d6e0e119c2
restaurant,Nasi,Kios Aifat jaya,"PFQ9+82V, Kumurkek, Distrik Aifat, Kabupaten Maybrat, Papua Bar. 98463","Kumurkek, Distrik Aifat, Kabupaten Maybrat",PAPUA BARAT,98463.0,Indonesia,,-1.2616392,132.4675475,https://maps.google.com/?cid=0x0:0x3275eb5a1d4dcdfe
restaurant,restaurant,Distrik Aifat,"Kabupaten Maybrat, Papua Bar.","Kabupaten Maybrat, Papua Bar.",PAPUA BARAT,,Indonesia,,-1.2568532,132.5001338,https://maps.google.com/?cid=0x0:0xcc3d52ba3ddd33de
restaurant,restaurant,RM. SINGGAH DOLO,"PGV2+732, Eisyo, Distrik Aifat, Kabupaten Maybrat, Papua Bar. 98463","Eisyo, Distrik Aifat, Kabupaten Maybrat",PAPUA BARAT,98463.0,Indonesia,,-1.2568978,132.5001312,https://maps.google.com/?cid=0x0:0x5820a47ebba15398
restaurant,Dapur Umum,Warung Makan Sederhana MAS ANDY Kumurkek,"PFWX+RP4, Fait Mayaf, Distrik Aifat, Kabupaten Maybrat, Papua Bar. 98463","Fait Mayaf, Distrik Aifat, Kabupaten Maybrat",PAPUA BARAT,98463.0,Indonesia,,-1.252981,132.4993399,https://maps.google.com/?cid=0x0:0xd77688734fd6dc09
restaurant,Dapur Umum,KIOS AIFAT JAYA DAN WARUNG AIFAT JAYA,"PFVX+24P, Eisyo, Distrik Aifat, Kabupaten Maybrat, Papua Bar. 98463","Eisyo, Distrik Aifat, Kabupaten Maybrat",PAPUA BARAT,98463.0,Indonesia,,-1.2582207,132.4977964,https://maps.google.com/?cid=0x0:0x6896cde496ab319b
restaurant,Nasi,KIOS IZA,"PGV2+F2F, Kumurkek, Distrik Aifat, Kabupaten Maybrat, Papua Bar. 98463","Kumurkek, Distrik Aifat, Kabupaten Maybrat",PAPUA BARAT,98463.0,Indonesia,,-1.2563194,132.5000327,https://maps.google.com/?cid=0x0:0xf0d45acb7d3276cb
restaurant,Toko Perlengkapan Rumah,Rumah Makan Isme,"P65X+7X4, Fiane, Distrik Ayamaru Tengah, Kabupaten Maybrat, Papua Bar. 98462","Fiane, Distrik Ayamaru Tengah, Kabupaten Maybrat",PAPUA BARAT,98462.0,Indonesia,,-1.2918593,132.2499378,https://maps.google.com/?cid=0x0:0x3a798bb36eb50673
restaurant,restaurant,RUMAH MAKAN SONANA KUMURKEK,"PFWX+XR9, Kumurkek, Distrik Aifat, Kabupaten Maybrat, Papua Bar. 98463","Kumurkek, Distrik Aifat, Kabupaten Maybrat",PAPUA BARAT,98463.0,Indonesia,,-1.2517511,132.4991496,https://maps.google.com/?cid=0x0:0x1e04692d2f36dd22
restaurant,Kedai Kopi,Warung Double M,"PGV2+732, Eisyo, Distrik Aifat, Kabupaten Maybrat, Papua Bar.","Kabupaten Maybrat, Papua Bar.",PAPUA BARAT,,Indonesia,,-1.2568532,132.5001338,https://maps.google.com/?cid=0x0:0xe1f773d6e0e119c2
restaurant,Komplek perumahan,Ayamaru kota,"P838+529, Jitmau, Kec. Aitinyo Utara, Kabupaten Maybrat, Papua Bar.","Kabupaten Maybrat, Papua Bar.",PAPUA BARAT,,Indonesia,,-1.2970979,132.3150993,https://maps.google.com/?cid=0x0:0x5c83c06a31cb7d76
restaurant,Kedai Kopi,Warung Doble M,"MFMH+M5, Futon, Distrik Aifat, Kabupaten Maybrat, Papua Bar.","Kabupaten Maybrat, Papua Bar.",PAPUA BARAT,,Indonesia,,-1.3157867,132.47753,https://maps.google.com/?cid=0x0:0xb9d7dbcaffffaae3
restaurant,Mesin Sangrai Kopi,Alenia Papua Coffee  Kitchen,"Jl. Kemang Raya No.66 B 8, RT.8/RW.2, Bangka, Kec. Mampang Prpt., Kota Jakarta Selatan, Daerah Khusus Ibukota Jakarta 12730","RT.8/RW.2, Bangka, Kec. Mampang Prpt., Kota Jakarta Selatan",PAPUA BARAT,12730.0,Indonesia,2171790141.0,-6.2638119,106.8158777,https://maps.google.com/?cid=0x0:0xe49807fcfab68b48
restaurant,Pangsit,Hwamei Chinese Restaurant @Aviary Park,"Jl. Bintaro Creative District No.15, Pd. Ranji, Kec. Ciputat Tim., Kota Tangerang Selatan, Banten 15224","Pd. Ranji, Kec. Ciputat Tim., Kota Tangerang Selatan",PAPUA BARAT,15224.0,Indonesia,81322555199.0,-6.2767027,106.7405236,https://maps.google.com/?cid=0x0:0x3b482b5798be2229
restaurant,Sunda,Vulture's Nest Restaurant,"Jl. Bintaro Creative District No.15, Pd. Ranji, Kec. Ciputat Tim., Kota Tangerang Selatan, Banten 15224","Pd. Ranji, Kec. Ciputat Tim., Kota Tangerang Selatan",PAPUA BARAT,15224.0,Indonesia,,-6.2773107,106.740497,https://maps.google.com/?cid=0x0:0xff2fd2be57497825
restaurant,Indonesia,Umatis Resto  Venue,"BSD City, Kavling Taman Kota Barat Lot No.II.6, Sampora, Kec. Cisauk, Kabupaten Tangerang, Banten 15345","Kavling Taman Kota Barat Lot No.II.6, Sampora, Kec. Cisauk, Kabupaten Tangerang",PAPUA BARAT,15345.0,Indonesia,81513122280.0,-6.3068601,106.6495916,https://maps.google.com/?cid=0x0:0x49e60e0c1e2a4a78
restaurant,restaurant,Distrik Aifat Timur,"Kabupaten Maybrat, Papua Bar.","Kabupaten Maybrat, Papua Bar.",PAPUA BARAT,,Indonesia,,-1.3591179,132.59276,https://maps.google.com/?cid=0x0:0x14eac191dd6d8e2e
restaurant,restaurant,RM. SINGGAH DOLO,"PGV2+732, Eisyo, Distrik Aifat, Kabupaten Maybrat, Papua Bar. 98463","Eisyo, Distrik Aifat, Kabupaten Maybrat",PAPUA BARAT,98463.0,Indonesia,,-1.2568978,132.5001312,https://maps.google.com/?cid=0x0:0x5820a47ebba15398
restaurant,Dapur Umum,Warung Makan Sederhana MAS ANDY Kumurkek,"PFWX+RP4, Fait Mayaf, Distrik Aifat, Kabupaten Maybrat, Papua Bar. 98463","Fait Mayaf, Distrik Aifat, Kabupaten Maybrat",PAPUA BARAT,98463.0,Indonesia,,-1.252981,132.4993399,https://maps.google.com/?cid=0x0:0xd77688734fd6dc09
restaurant,Toko bahan makanan,RM Berkat Balantak,"RF77+C36, Ayawasi, Distrik Aifat Utara, Kabupaten Maybrat, Papua Bar. 98463","Ayawasi, Distrik Aifat Utara, Kabupaten Maybrat",PAPUA BARAT,98463.0,Indonesia,82397745687.0,-1.186464,132.4626367,https://maps.google.com/?cid=0x0:0x5a6aa2403713d07c
restaurant,Nasi,KIOS IZA,"PGV2+F2F, Kumurkek, Distrik Aifat, Kabupaten Maybrat, Papua Bar. 98463","Kumurkek, Distrik Aifat, Kabupaten Maybrat",PAPUA BARAT,98463.0,Indonesia,,-1.2563194,132.5000327,https://maps.google.com/?cid=0x0:0xf0d45acb7d3276cb
restaurant,restaurant,RUMAH MAKAN SONANA KUMURKEK,"PFWX+XR9, Kumurkek, Distrik Aifat, Kabupaten Maybrat, Papua Bar. 98463","Kumurkek, Distrik Aifat, Kabupaten Maybrat",PAPUA BARAT,98463.0,Indonesia,,-1.2517511,132.4991496,https://maps.google.com/?cid=0x0:0x1e04692d2f36dd22
restaurant,Dapur Umum,KIOS AIFAT JAYA DAN WARUNG AIFAT JAYA,"PFVX+24P, Eisyo, Distrik Aifat, Kabupaten Maybrat, Papua Bar. 98463","Eisyo, Distrik Aifat, Kabupaten Maybrat",PAPUA BARAT,98463.0,Indonesia,,-1.2582207,132.4977964,https://maps.google.com/?cid=0x0:0x6896cde496ab319b
restaurant,Nasi,Kios Aifat jaya,"PFQ9+82V, Kumurkek, Distrik Aifat, Kabupaten Maybrat, Papua Bar. 98463","Kumurkek, Distrik Aifat, Kabupaten Maybrat",PAPUA BARAT,98463.0,Indonesia,,-1.2616392,132.4675475,https://maps.google.com/?cid=0x0:0x3275eb5a1d4dcdfe
restaurant,restaurant,Distrik Aifat Timur,"Kabupaten Maybrat, Papua Bar.","Kabupaten Maybrat, Papua Bar.",PAPUA BARAT,,Indonesia,,-1.3591179,132.59276,https://maps.google.com/?cid=0x0:0x14eac191dd6d8e2e
restaurant,restaurant,RM. SINGGAH DOLO,"PGV2+732, Eisyo, Distrik Aifat, Kabupaten Maybrat, Papua Bar. 98463","Eisyo, Distrik Aifat, Kabupaten Maybrat",PAPUA BARAT,98463.0,Indonesia,,-1.2568978,132.5001312,https://maps.google.com/?cid=0x0:0x5820a47ebba15398
restaurant,Dapur Umum,Warung Makan Sederhana MAS ANDY Kumurkek,"PFWX+RP4, Fait Mayaf, Distrik Aifat, Kabupaten Maybrat, Papua Bar. 98463","Fait Mayaf, Distrik Aifat, Kabupaten Maybrat",PAPUA BARAT,98463.0,Indonesia,,-1.252981,132.4993399,https://maps.google.com/?cid=0x0:0xd77688734fd6dc09
restaurant,Nasi,KIOS IZA,"PGV2+F2F, Kumurkek, Distrik Aifat, Kabupaten Maybrat, Papua Bar. 98463","Kumurkek, Distrik Aifat, Kabupaten Maybrat",PAPUA BARAT,98463.0,Indonesia,,-1.2563194,132.5000327,https://maps.google.com/?cid=0x0:0xf0d45acb7d3276cb
restaurant,Nasi,Kios Aifat jaya,"PFQ9+82V, Kumurkek, Distrik Aifat, Kabupaten Maybrat, Papua Bar. 98463","Kumurkek, Distrik Aifat, Kabupaten Maybrat",PAPUA BARAT,98463.0,Indonesia,,-1.2616392,132.4675475,https://maps.google.com/?cid=0x0:0x3275eb5a1d4dcdfe
restaurant,Dapur Umum,KIOS AIFAT JAYA DAN WARUNG AIFAT JAYA,"PFVX+24P, Eisyo, Distrik Aifat, Kabupaten Maybrat, Papua Bar. 98463","Eisyo, Distrik Aifat, Kabupaten Maybrat",PAPUA BARAT,98463.0,Indonesia,,-1.2582207,132.4977964,https://maps.google.com/?cid=0x0:0x6896cde496ab319b
restaurant,restaurant,Papua Bar. 98463,"Kabupaten Maybrat, Papua Bar.","Kabupaten Maybrat, Papua Bar.",PAPUA BARAT,,Indonesia,,-1.4090016,132.4724578,https://maps.google.com/?cid=0x0:0x852013718cca9d21
restaurant,restaurant,RM. L-A,"G64R+WXW, Bumi Ajo (Sp I), Distrik Moswaren, Kabupaten Sorong Selatan, Papua Bar. 98462","Bumi Ajo (Sp I), Distrik Moswaren, Kabupaten Sorong Selatan",PAPUA BARAT,98462.0,Indonesia,,-1.492631,132.2424422,https://maps.google.com/?cid=0x0:0xd9ba882af6b3c95
restaurant,restaurant,Distrik Aifat Timur,"Kabupaten Maybrat, Papua Bar.","Kabupaten Maybrat, Papua Bar.",PAPUA BARAT,,Indonesia,,-1.3591179,132.59276,https://maps.google.com/?cid=0x0:0x14eac191dd6d8e2e
restaurant,Dapur Umum,Warung Makan Sederhana MAS ANDY Kumurkek,"PFWX+RP4, Fait Mayaf, Distrik Aifat, Kabupaten Maybrat, Papua Bar. 98463","Fait Mayaf, Distrik Aifat, Kabupaten Maybrat",PAPUA BARAT,98463.0,Indonesia,,-1.252981,132.4993399,https://maps.google.com/?cid=0x0:0xd77688734fd6dc09
restaurant,restaurant,RM. SINGGAH DOLO,"PGV2+732, Eisyo, Distrik Aifat, Kabupaten Maybrat, Papua Bar. 98463","Eisyo, Distrik Aifat, Kabupaten Maybrat",PAPUA BARAT,98463.0,Indonesia,,-1.2568978,132.5001312,https://maps.google.com/?cid=0x0:0x5820a47ebba15398
restaurant,Toko bahan makanan,RM Berkat Balantak,"RF77+C36, Ayawasi, Distrik Aifat Utara, Kabupaten Maybrat, Papua Bar. 98463","Ayawasi, Distrik Aifat Utara, Kabupaten Maybrat",PAPUA BARAT,98463.0,Indonesia,82397745687.0,-1.186464,132.4626367,https://maps.google.com/?cid=0x0:0x5a6aa2403713d07c
restaurant,Nasi,KIOS IZA,"PGV2+F2F, Kumurkek, Distrik Aifat, Kabupaten Maybrat, Papua Bar. 98463","Kumurkek, Distrik Aifat, Kabupaten Maybrat",PAPUA BARAT,98463.0,Indonesia,,-1.2563194,132.5000327,https://maps.google.com/?cid=0x0:0xf0d45acb7d3276cb
restaurant,restaurant,RM. SINGGAH DOLO,"PGV2+732, Eisyo, Distrik Aifat, Kabupaten Maybrat, Papua Bar. 98463","Eisyo, Distrik Aifat, Kabupaten Maybrat",PAPUA BARAT,98463.0,Indonesia,,-1.2568978,132.5001312,https://maps.google.com/?cid=0x0:0x5820a47ebba15398
restaurant,restaurant,Distrik Aifat Selatan,"Kabupaten Maybrat, Papua Bar.","Kabupaten Maybrat, Papua Bar.",PAPUA BARAT,,Indonesia,,-1.4185595,132.5043916,https://maps.google.com/?cid=0x0:0x5390da174ca5ef27
restaurant,Dapur Umum,KIOS AIFAT JAYA DAN WARUNG AIFAT JAYA,"PFVX+24P, Eisyo, Distrik Aifat, Kabupaten Maybrat, Papua Bar. 98463","Eisyo, Distrik Aifat, Kabupaten Maybrat",PAPUA BARAT,98463.0,Indonesia,,-1.2582207,132.4977964,https://maps.google.com/?cid=0x0:0x6896cde496ab319b
restaurant,Toko Perlengkapan Rumah,Rumah Makan Isme,"P65X+7X4, Fiane, Distrik Ayamaru Tengah, Kabupaten Maybrat, Papua Bar. 98462","Fiane, Distrik Ayamaru Tengah, Kabupaten Maybrat",PAPUA BARAT,98462.0,Indonesia,,-1.2918593,132.2499378,https://maps.google.com/?cid=0x0:0x3a798bb36eb50673
restaurant,Nasi,KIOS IZA,"PGV2+F2F, Kumurkek, Distrik Aifat, Kabupaten Maybrat, Papua Bar. 98463","Kumurkek, Distrik Aifat, Kabupaten Maybrat",PAPUA BARAT,98463.0,Indonesia,,-1.2563194,132.5000327,https://maps.google.com/?cid=0x0:0xf0d45acb7d3276cb
restaurant,restaurant,RUMAH MAKAN SONANA KUMURKEK,"PFWX+XR9, Kumurkek, Distrik Aifat, Kabupaten Maybrat, Papua Bar. 98463","Kumurkek, Distrik Aifat, Kabupaten Maybrat",PAPUA BARAT,98463.0,Indonesia,,-1.2517511,132.4991496,https://maps.google.com/?cid=0x0:0x1e04692d2f36dd22
restaurant,Rumah Makan,RM. TRENGGALEK,"jalur6, Bumi Ajo (Sp I), Distrik Moswaren, Kabupaten Sorong Selatan, Papua Bar. 98462","Bumi Ajo (Sp I), Distrik Moswaren, Kabupaten Sorong Selatan",PAPUA BARAT,98462.0,Indonesia,82199412713.0,-1.4919244,132.2411117,https://maps.google.com/?cid=0x0:0x4943db263fbfbd7e
restaurant,Padang,RM Ratu Nona Restoe,"G64V+M6Q, Unnamed Road, Bumi Ajo (Sp I), Distrik Moswaren, Kabupaten Sorong Selatan, Papua Bar. 98462","Unnamed Road, Bumi Ajo (Sp I), Distrik Moswaren, Kabupaten Sorong Selatan",PAPUA BARAT,98462.0,Indonesia,82238959994.0,-1.4932775,132.2430975,https://maps.google.com/?cid=0x0:0x8c03a7da9fe093a5
restaurant,Indonesia,MYCHI Resto  Bakery,"Atas, Jl. Irian","Kabupaten Jayawijaya, Papua",PAPUA BARAT,,Indonesia,,-4.0963416,138.9386726,https://maps.google.com/?cid=0x0:0xa47820c4844bdd6
restaurant,Bakso,Camp Mie Ayam ragiel,"G64V+R9G, Bumi Ajo (Sp I), Distrik Moswaren, Kabupaten Sorong Selatan, Papua Bar. 98462","Bumi Ajo (Sp I), Distrik Moswaren, Kabupaten Sorong Selatan",PAPUA BARAT,98462.0,Indonesia,82239270018.0,-1.4929377,132.2434559,https://maps.google.com/?cid=0x0:0xf35fc83cfe2eb5b1
restaurant,restaurant,Kisah manis,"Bumi Ajo (Sp I), Distrik Moswaren, Kabupaten Sorong Selatan, Papua Bar. 98212","Distrik Moswaren, Kabupaten Sorong Selatan",PAPUA BARAT,98212.0,Indonesia,82233914379.0,-1.4975234,132.2411755,https://maps.google.com/?cid=0x0:0xf84bf09a3310764e
restaurant,Rumah Makan,Rumah Makan Khumairoh,"G65R+G4J, Unnamed Road, Bumi Ajo (Sp I), Distrik Moswaren, Kabupaten Sorong Selatan, Papua Bar. 98462","Unnamed Road, Bumi Ajo (Sp I), Distrik Moswaren, Kabupaten Sorong Selatan",PAPUA BARAT,98462.0,Indonesia,81247584278.0,-1.4911533,132.2402583,https://maps.google.com/?cid=0x0:0x492f1b5d68e43ba9
restaurant,Kedai Kopi,Warung Doble M,"MFMH+M5, Futon, Distrik Aifat, Kabupaten Maybrat, Papua Bar.","Kabupaten Maybrat, Papua Bar.",PAPUA BARAT,,Indonesia,,-1.3157867,132.47753,https://maps.google.com/?cid=0x0:0xb9d7dbcaffffaae3
restaurant,restaurant,Distrik Aifat Utara,"Kabupaten Maybrat, Papua Bar.","Kabupaten Maybrat, Papua Bar.",PAPUA BARAT,,Indonesia,,-1.1588544,132.4643784,https://maps.google.com/?cid=0x0:0x7ec0d9546b1ece9c
restaurant,Toko bahan makanan,RM Berkat Balantak,"RF77+C36, Ayawasi, Distrik Aifat Utara, Kabupaten Maybrat, Papua Bar. 98463","Ayawasi, Distrik Aifat Utara, Kabupaten Maybrat",PAPUA BARAT,98463.0,Indonesia,82397745687.0,-1.186464,132.4626367,https://maps.google.com/?cid=0x0:0x5a6aa2403713d07c
restaurant,restaurant,RM. SINGGAH DOLO,"PGV2+732, Eisyo, Distrik Aifat, Kabupaten Maybrat, Papua Bar. 98463","Eisyo, Distrik Aifat, Kabupaten Maybrat",PAPUA BARAT,98463.0,Indonesia,,-1.2568978,132.5001312,https://maps.google.com/?cid=0x0:0x5820a47ebba15398
restaurant,Nasi,KIOS IZA,"PGV2+F2F, Kumurkek, Distrik Aifat, Kabupaten Maybrat, Papua Bar. 98463","Kumurkek, Distrik Aifat, Kabupaten Maybrat",PAPUA BARAT,98463.0,Indonesia,,-1.2563194,132.5000327,https://maps.google.com/?cid=0x0:0xf0d45acb7d3276cb
restaurant,Dapur Umum,Warung Makan Sederhana MAS ANDY Kumurkek,"PFWX+RP4, Fait Mayaf, Distrik Aifat, Kabupaten Maybrat, Papua Bar. 98463","Fait Mayaf, Distrik Aifat, Kabupaten Maybrat",PAPUA BARAT,98463.0,Indonesia,,-1.252981,132.4993399,https://maps.google.com/?cid=0x0:0xd77688734fd6dc09
restaurant,restaurant,Distrik Aitinyo,"Kabupaten Maybrat, Papua Bar.","Kabupaten Maybrat, Papua Bar.",PAPUA BARAT,,Indonesia,,-1.4413734,132.3839209,https://maps.google.com/?cid=0x0:0xd008081240dea68f
restaurant,Komplek perumahan,Ayamaru kota,"P838+529, Jitmau, Kec. Aitinyo Utara, Kabupaten Maybrat, Papua Bar.","Kabupaten Maybrat, Papua Bar.",PAPUA BARAT,,Indonesia,,-1.2970979,132.3150993,https://maps.google.com/?cid=0x0:0x5c83c06a31cb7d76
restaurant,Rumah Makan,RM. TRENGGALEK,"jalur6, Bumi Ajo (Sp I), Distrik Moswaren, Kabupaten Sorong Selatan, Papua Bar. 98462","Bumi Ajo (Sp I), Distrik Moswaren, Kabupaten Sorong Selatan",PAPUA BARAT,98462.0,Indonesia,82199412713.0,-1.4919244,132.2411117,https://maps.google.com/?cid=0x0:0x4943db263fbfbd7e
restaurant,restaurant,Kisah manis,"Bumi Ajo (Sp I), Distrik Moswaren, Kabupaten Sorong Selatan, Papua Bar. 98212","Distrik Moswaren, Kabupaten Sorong Selatan",PAPUA BARAT,98212.0,Indonesia,82233914379.0,-1.4975234,132.2411755,https://maps.google.com/?cid=0x0:0xf84bf09a3310764e
restaurant,Padang,RM Ratu Nona Restoe,"G64V+M6Q, Unnamed Road, Bumi Ajo (Sp I), Distrik Moswaren, Kabupaten Sorong Selatan, Papua Bar. 98462","Unnamed Road, Bumi Ajo (Sp I), Distrik Moswaren, Kabupaten Sorong Selatan",PAPUA BARAT,98462.0,Indonesia,82238959994.0,-1.4932775,132.2430975,https://maps.google.com/?cid=0x0:0x8c03a7da9fe093a5
restaurant,Komplek perumahan,Kampung Ikuf Utara,"P825+PHW, Ikuf, Kec. Aitinyo Utara, Kabupaten Maybrat, Papua Bar. 98462","Ikuf, Kec. Aitinyo Utara, Kabupaten Maybrat",PAPUA BARAT,98462.0,Indonesia,82238129105.0,-1.2981251,132.3089429,https://maps.google.com/?cid=0x0:0xb9d02a542bef9753
restaurant,restaurant,Bakso Barokah Lestari,"G63R+Q2X, jalur 7, Bumi Ajo (Sp I), Distrik Moswaren, Kabupaten Sorong Selatan, Papua Bar. 98462","jalur 7, Bumi Ajo (Sp I), Distrik Moswaren, Kabupaten Sorong Selatan",PAPUA BARAT,98462.0,Indonesia,,-1.4955047,132.2401179,https://maps.google.com/?cid=0x0:0x6407666ebd7193dc
restaurant,Rumah Makan,Rumah Makan Khumairoh,"G65R+G4J, Unnamed Road, Bumi Ajo (Sp I), Distrik Moswaren, Kabupaten Sorong Selatan, Papua Bar. 98462","Unnamed Road, Bumi Ajo (Sp I), Distrik Moswaren, Kabupaten Sorong Selatan",PAPUA BARAT,98462.0,Indonesia,81247584278.0,-1.4911533,132.2402583,https://maps.google.com/?cid=0x0:0x492f1b5d68e43ba9
restaurant,Rumah Makan,RUMAH MAKAN BERKAT,"G629+V3W, Hasik Jaya (Sp II), Distrik Moswaren, Kabupaten Sorong Selatan, Papua Bar. 98462","Hasik Jaya (Sp II), Distrik Moswaren, Kabupaten Sorong Selatan",PAPUA BARAT,98462.0,Indonesia,82238287271.0,-1.4973621,132.2178368,https://maps.google.com/?cid=0x0:0x74b8d814bba96486
restaurant,restaurant,Warung makan sofi,"M7WG+4WW, Kambuaya, Kec. Ayamaru Tim., Kabupaten Maybrat, Papua Bar. 98462","Kambuaya, Kec. Ayamaru Tim., Kabupaten Maybrat",PAPUA BARAT,98462.0,Indonesia,,-1.3043565,132.2774529,https://maps.google.com/?cid=0x0:0x19e78ac8f7c291b1
restaurant,Indonesia,MYCHI Resto  Bakery,"Atas, Jl. Irian","Kabupaten Jayawijaya, Papua",PAPUA BARAT,,Indonesia,,-4.0963416,138.9386726,https://maps.google.com/?cid=0x0:0xa47820c4844bdd6
restaurant,Padang,RM Ratu Nona Restoe,"G64V+M6Q, Unnamed Road, Bumi Ajo (Sp I), Distrik Moswaren, Kabupaten Sorong Selatan, Papua Bar. 98462","Unnamed Road, Bumi Ajo (Sp I), Distrik Moswaren, Kabupaten Sorong Selatan",PAPUA BARAT,98462.0,Indonesia,82238959994.0,-1.4932775,132.2430975,https://maps.google.com/?cid=0x0:0x8c03a7da9fe093a5
restaurant,restaurant,Distrik Aitinyo,"Kabupaten Maybrat, Papua Bar.","Kabupaten Maybrat, Papua Bar.",PAPUA BARAT,,Indonesia,,-1.4413734,132.3839209,https://maps.google.com/?cid=0x0:0xd008081240dea68f
restaurant,Restoran,Inggandi Beach Restaurant,"43GV+7Q3, Jl. Pasir Putih No.33, Pasir Putih, Kec. Manokwari Tim., Kabupaten Manokwari, Papua Bar. 98313","Jl. Pasir Putih No.33, Pasir Putih, Kec. Manokwari Tim., Kabupaten Manokwari",PAPUA BARAT,98313.0,Indonesia,81240372255.0,-0.8780927,134.0933631,https://maps.google.com/?cid=0x0:0xba66c7a3124731e6
restaurant,Bakso,Camp Mie Ayam ragiel,"G64V+R9G, Bumi Ajo (Sp I), Distrik Moswaren, Kabupaten Sorong Selatan, Papua Bar. 98462","Bumi Ajo (Sp I), Distrik Moswaren, Kabupaten Sorong Selatan",PAPUA BARAT,98462.0,Indonesia,82239270018.0,-1.4929377,132.2434559,https://maps.google.com/?cid=0x0:0xf35fc83cfe2eb5b1
restaurant,restaurant,Kisah manis,"Bumi Ajo (Sp I), Distrik Moswaren, Kabupaten Sorong Selatan, Papua Bar. 98212","Distrik Moswaren, Kabupaten Sorong Selatan",PAPUA BARAT,98212.0,Indonesia,82233914379.0,-1.4975234,132.2411755,https://maps.google.com/?cid=0x0:0xf84bf09a3310764e
restaurant,Hidangan Laut,Marina Star Restaurant Seafood,"Kompleks, Jl. Bubara Jl. Pelabuhan Perikanan, Distrik Sorong, Kota Sorong, Papua Bar. 98414","Jl. Bubara Jl. Pelabuhan Perikanan, Distrik Sorong, Kota Sorong",PAPUA BARAT,98414.0,Indonesia,81240250548.0,-0.8790069,131.2552456,https://maps.google.com/?cid=0x0:0x6d780e763a272c1a
restaurant,Rumah Makan,Rumah Makan Khumairoh,"G65R+G4J, Unnamed Road, Bumi Ajo (Sp I), Distrik Moswaren, Kabupaten Sorong Selatan, Papua Bar. 98462","Unnamed Road, Bumi Ajo (Sp I), Distrik Moswaren, Kabupaten Sorong Selatan",PAPUA BARAT,98462.0,Indonesia,81247584278.0,-1.4911533,132.2402583,https://maps.google.com/?cid=0x0:0x492f1b5d68e43ba9
restaurant,restaurant,Bakso Barokah Lestari,"G63R+Q2X, jalur 7, Bumi Ajo (Sp I), Distrik Moswaren, Kabupaten Sorong Selatan, Papua Bar. 98462","jalur 7, Bumi Ajo (Sp I), Distrik Moswaren, Kabupaten Sorong Selatan",PAPUA BARAT,98462.0,Indonesia,,-1.4955047,132.2401179,https://maps.google.com/?cid=0x0:0x6407666ebd7193dc
restaurant,Komplek perumahan,Ayamaru kota,"P838+529, Jitmau, Kec. Aitinyo Utara, Kabupaten Maybrat, Papua Bar.","Kabupaten Maybrat, Papua Bar.",PAPUA BARAT,,Indonesia,,-1.2970979,132.3150993,https://maps.google.com/?cid=0x0:0x5c83c06a31cb7d76
restaurant,Hidangan Laut,RM. NEW RATU SAYANG,"Lido, Jl. Yos. Sudarso No.31, Klasuur, Distrik Sorong, Kota Sorong, Papua Bar. 98413","Jl. Yos. Sudarso No.31, Klasuur, Distrik Sorong, Kota Sorong",PAPUA BARAT,98413.0,Indonesia,85244007744.0,-0.8652896,131.2461583,https://maps.google.com/?cid=0x0:0xb387f5135fa5f5d6
restaurant,Pizza,Pizzeria Terrazza di Sorong,"Behind SKKMIGAS, dibelakang SKKMIGAS, Jl. Arfak, Kp. Baru, Kota Sorong, Papua Bar. 98414","dibelakang SKKMIGAS, Jl. Arfak, Kp. Baru, Kota Sorong",PAPUA BARAT,98414.0,Indonesia,81356867669.0,-0.8737438,131.25222,https://maps.google.com/?cid=0x0:0xf46c05068677dc1
restaurant,Toko Perbaikan Ponsel,Aitinyo,"H99Q+V7G, Korom, Distrik Aitinyo, Kabupaten Maybrat, Papua Bar. 98463","Korom, Distrik Aitinyo, Kabupaten Maybrat",PAPUA BARAT,98463.0,Indonesia,,-1.430311,132.3881946,https://maps.google.com/?cid=0x0:0x1e35afd58f2401c9
restaurant,Rumah Makan,RUMAH MAKAN BERKAT,"G629+V3W, Hasik Jaya (Sp II), Distrik Moswaren, Kabupaten Sorong Selatan, Papua Bar. 98462","Hasik Jaya (Sp II), Distrik Moswaren, Kabupaten Sorong Selatan",PAPUA BARAT,98462.0,Indonesia,82238287271.0,-1.4973621,132.2178368,https://maps.google.com/?cid=0x0:0x74b8d814bba96486
restaurant,restaurant,Warung makan sofi,"M7WG+4WW, Kambuaya, Kec. Ayamaru Tim., Kabupaten Maybrat, Papua Bar. 98462","Kambuaya, Kec. Ayamaru Tim., Kabupaten Maybrat",PAPUA BARAT,98462.0,Indonesia,,-1.3043565,132.2774529,https://maps.google.com/?cid=0x0:0x19e78ac8f7c291b1
restaurant,restaurant,Distrik Aitinyo,"Kabupaten Maybrat, Papua Bar.","Kabupaten Maybrat, Papua Bar.",PAPUA BARAT,,Indonesia,,-1.4413734,132.3839209,https://maps.google.com/?cid=0x0:0xd008081240dea68f
restaurant,restaurant,Distrik Aitinyo,"Kabupaten Maybrat, Papua Bar.","Kabupaten Maybrat, Papua Bar.",PAPUA BARAT,,Indonesia,,-1.4413734,132.3839209,https://maps.google.com/?cid=0x0:0xd008081240dea68f
restaurant,Kelompok Bermain,Itigah,"F8F6+47H, Unnamed Road, Kamro, Aitinyo Barat/Athabu, Kabupaten Maybrat, Papua Bar. 98462","Unnamed Road, Kamro, Aitinyo Barat/Athabu, Kabupaten Maybrat",PAPUA BARAT,98462.0,Indonesia,,-1.5272,132.31073,https://maps.google.com/?cid=0x0:0x1f6b3a8db2debe0
restaurant,Komplek perumahan,Ayamaru kota,"P838+529, Jitmau, Kec. Aitinyo Utara, Kabupaten Maybrat, Papua Bar.","Kabupaten Maybrat, Papua Bar.",PAPUA BARAT,,Indonesia,,-1.2970979,132.3150993,https://maps.google.com/?cid=0x0:0x5c83c06a31cb7d76
restaurant,Padang,RM Ratu Nona Restoe,"G64V+M6Q, Unnamed Road, Bumi Ajo (Sp I), Distrik Moswaren, Kabupaten Sorong Selatan, Papua Bar. 98462","Unnamed Road, Bumi Ajo (Sp I), Distrik Moswaren, Kabupaten Sorong Selatan",PAPUA BARAT,98462.0,Indonesia,82238959994.0,-1.4932775,132.2430975,https://maps.google.com/?cid=0x0:0x8c03a7da9fe093a5
restaurant,Bakso,Camp Mie Ayam ragiel,"G64V+R9G, Bumi Ajo (Sp I), Distrik Moswaren, Kabupaten Sorong Selatan, Papua Bar. 98462","Bumi Ajo (Sp I), Distrik Moswaren, Kabupaten Sorong Selatan",PAPUA BARAT,98462.0,Indonesia,82239270018.0,-1.4929377,132.2434559,https://maps.google.com/?cid=0x0:0xf35fc83cfe2eb5b1
restaurant,restaurant,Kisah manis,"Bumi Ajo (Sp I), Distrik Moswaren, Kabupaten Sorong Selatan, Papua Bar. 98212","Distrik Moswaren, Kabupaten Sorong Selatan",PAPUA BARAT,98212.0,Indonesia,82233914379.0,-1.4975234,132.2411755,https://maps.google.com/?cid=0x0:0xf84bf09a3310764e
restaurant,Indonesia,MYCHI Resto  Bakery,"Atas, Jl. Irian","Kabupaten Jayawijaya, Papua",PAPUA BARAT,,Indonesia,,-4.0963416,138.9386726,https://maps.google.com/?cid=0x0:0xa47820c4844bdd6
restaurant,Rumah Makan,Rumah Makan Khumairoh,"G65R+G4J, Unnamed Road, Bumi Ajo (Sp I), Distrik Moswaren, Kabupaten Sorong Selatan, Papua Bar. 98462","Unnamed Road, Bumi Ajo (Sp I), Distrik Moswaren, Kabupaten Sorong Selatan",PAPUA BARAT,98462.0,Indonesia,81247584278.0,-1.4911533,132.2402583,https://maps.google.com/?cid=0x0:0x492f1b5d68e43ba9
restaurant,restaurant,Bakso Barokah Lestari,"G63R+Q2X, jalur 7, Bumi Ajo (Sp I), Distrik Moswaren, Kabupaten Sorong Selatan, Papua Bar. 98462","jalur 7, Bumi Ajo (Sp I), Distrik Moswaren, Kabupaten Sorong Selatan",PAPUA BARAT,98462.0,Indonesia,,-1.4955047,132.2401179,https://maps.google.com/?cid=0x0:0x6407666ebd7193dc
restaurant,Kedai Kopi,DOME EATERY,"Malawili, Kec. Aimas, Kabupaten Sorong, Papua Bar.","Kabupaten Sorong, Papua Bar.",PAPUA BARAT,,Indonesia,,-0.9575952,131.3348549,https://maps.google.com/?cid=0x0:0xf9d0953e7b0042c9
restaurant,Rumah Makan,RUMAH MAKAN BERKAT,"G629+V3W, Hasik Jaya (Sp II), Distrik Moswaren, Kabupaten Sorong Selatan, Papua Bar. 98462","Hasik Jaya (Sp II), Distrik Moswaren, Kabupaten Sorong Selatan",PAPUA BARAT,98462.0,Indonesia,82238287271.0,-1.4973621,132.2178368,https://maps.google.com/?cid=0x0:0x74b8d814bba96486
restaurant,Rumah Makan,Rumah Makan Mini (Miniresto.sorong),"Klademak, Distrik Sorong, Kota Sorong, Papua Bar. 98412","Distrik Sorong, Kota Sorong",PAPUA BARAT,98412.0,Indonesia,85354611115.0,-0.8820389,131.2740136,https://maps.google.com/?cid=0x0:0x1b2e4c712665ee5b
restaurant,Komplek perumahan,Ayamaru kota,"P838+529, Jitmau, Kec. Aitinyo Utara, Kabupaten Maybrat, Papua Bar.","Kabupaten Maybrat, Papua Bar.",PAPUA BARAT,,Indonesia,,-1.2970979,132.3150993,https://maps.google.com/?cid=0x0:0x5c83c06a31cb7d76
restaurant,Komplek perumahan,Rumah Kotawi Ayamaru,"P5GW+279, Ayamaru, Kec. Ayamaru, Kabupaten Maybrat, Papua Bar.","Kabupaten Maybrat, Papua Bar.",PAPUA BARAT,,Indonesia,,-1.2749516,132.1957347,https://maps.google.com/?cid=0x0:0xff398e9cf16948fa
restaurant,Restoran,Restaurant Jordy,"P5FW+5WH, Ayamaru, Kec. Ayamaru, Kabupaten Maybrat, Papua Bar. 98461","Ayamaru, Kec. Ayamaru, Kabupaten Maybrat",PAPUA BARAT,98461.0,Indonesia,,-1.2770626,132.1973567,https://maps.google.com/?cid=0x0:0xef85da43b585ffec
restaurant,restaurant,Kec. Ayamaru,"Kabupaten Maybrat, Papua Bar.","Kabupaten Maybrat, Papua Bar.",PAPUA BARAT,,Indonesia,,-1.2754068,132.1954691,https://maps.google.com/?cid=0x0:0x4d8a88af2189602c
restaurant,Rumah Makan,Rumah Makan Smarten Jaya,"Ayamaru mefkajim 11, Kec. Ayamaru, Papua Bar.","Kabupaten Maybrat, Papua Bar.",PAPUA BARAT,,Indonesia,82199931677.0,-1.2804829,132.2028707,https://maps.google.com/?cid=0x0:0xda049992131ddb4d
restaurant,Rumah Makan,Rumah Makan Smarten Jaya 02,"Fiane, Kec. Ayamaru, Kabupaten Maybrat, Papua Bar.","Kabupaten Maybrat, Papua Bar.",PAPUA BARAT,,Indonesia,82199931677.0,-1.2872425,132.2279503,https://maps.google.com/?cid=0x0:0x9fa566aa094707d4
restaurant,Masakan Asia,Putra Sukowati,"P6R5+VJ9, Kartapura, Distrik Ayamaru Tengah, Kabupaten Maybrat, Papua Bar.","Kabupaten Maybrat, Papua Bar.",PAPUA BARAT,,Indonesia,,-1.2578264,132.2091097,https://maps.google.com/?cid=0x0:0x99373cbcff22119d
restaurant,restaurant,Warung Mie ayam bakso+laundry mutiara jaya 2,"Fiane, Distrik Ayamaru Tengah, Kabupaten Maybrat, Papua Bar. 98011","Distrik Ayamaru Tengah, Kabupaten Maybrat",PAPUA BARAT,98011.0,Indonesia,82236508867.0,-1.2919538,132.2309307,https://maps.google.com/?cid=0x0:0xc337496cf2816932
restaurant,restaurant,Ayamaru Utara,"Kabupaten Maybrat, Papua Bar.","Kabupaten Maybrat, Papua Bar.",PAPUA BARAT,,Indonesia,,-1.1983051,132.2165112,https://maps.google.com/?cid=0x0:0x7c47e1a7cad6e57d
restaurant,restaurant,R.M Muslim,"P5FW+2X6, Ayamaru, Kec. Ayamaru, Kabupaten Maybrat, Papua Bar. 98461","Ayamaru, Kec. Ayamaru, Kabupaten Maybrat",PAPUA BARAT,98461.0,Indonesia,,-1.2774749,132.1973756,https://maps.google.com/?cid=0x0:0x6841f2c1f5a1b7c8
restaurant,restaurant,Ayamaru,"Kec. Ayamaru, Kabupaten Maybrat, Papua Bar.","Kabupaten Maybrat, Papua Bar.",PAPUA BARAT,,Indonesia,,-1.2751658,132.1980055,https://maps.google.com/?cid=0x0:0xa50aaa7b593defaf
restaurant,restaurant,Distrik Ayamaru Tengah,"Kabupaten Maybrat, Papua Bar.","Kabupaten Maybrat, Papua Bar.",PAPUA BARAT,,Indonesia,,-1.2884148,132.2172648,https://maps.google.com/?cid=0x0:0xa06de0548d38d1a6
restaurant,restaurant,Distrik Ayamaru Selatan,"Kabupaten Maybrat, Papua Bar.","Kabupaten Maybrat, Papua Bar.",PAPUA BARAT,,Indonesia,,-1.3053761,132.1485942,https://maps.google.com/?cid=0x0:0x78bc898d04ac4488
restaurant,restaurant,Distrik Ayamaru Jaya,"Kabupaten Maybrat, Papua Bar.","Kabupaten Maybrat, Papua Bar.",PAPUA BARAT,,Indonesia,,-1.240888,132.1225897,https://maps.google.com/?cid=0x0:0x7043cae1470f6f3d
restaurant,Komplek perumahan,Ayamaru kota,"P838+529, Jitmau, Kec. Aitinyo Utara, Kabupaten Maybrat, Papua Bar.","Kabupaten Maybrat, Papua Bar.",PAPUA BARAT,,Indonesia,,-1.2970979,132.3150993,https://maps.google.com/?cid=0x0:0x5c83c06a31cb7d76
restaurant,restaurant,Ayamaru Tim. Sel.,"Kambuskato, Kabupaten Maybrat, Papua Bar.","Kabupaten Maybrat, Papua Bar.",PAPUA BARAT,,Indonesia,,-1.324591,132.265572,https://maps.google.com/?cid=0x0:0x2387ffcd93d6ad5b
restaurant,Restoran,Restaurant Jordy,"P5FW+5WH, Ayamaru, Kec. Ayamaru, Kabupaten Maybrat, Papua Bar. 98461","Ayamaru, Kec. Ayamaru, Kabupaten Maybrat",PAPUA BARAT,98461.0,Indonesia,,-1.2770626,132.1973567,https://maps.google.com/?cid=0x0:0xef85da43b585ffec
restaurant,restaurant,Kec. Ayamaru,"Kabupaten Maybrat, Papua Bar.","Kabupaten Maybrat, Papua Bar.",PAPUA BARAT,,Indonesia,,-1.2754068,132.1954691,https://maps.google.com/?cid=0x0:0x4d8a88af2189602c
restaurant,Toko Perlengkapan Rumah,Rumah Makan Isme,"P65X+7X4, Fiane, Distrik Ayamaru Tengah, Kabupaten Maybrat, Papua Bar. 98462","Fiane, Distrik Ayamaru Tengah, Kabupaten Maybrat",PAPUA BARAT,98462.0,Indonesia,,-1.2918593,132.2499378,https://maps.google.com/?cid=0x0:0x3a798bb36eb50673
restaurant,Rumah Makan,Rumah Makan Smarten Jaya 02,"Fiane, Kec. Ayamaru, Kabupaten Maybrat, Papua Bar.","Kabupaten Maybrat, Papua Bar.",PAPUA BARAT,,Indonesia,82199931677.0,-1.2872425,132.2279503,https://maps.google.com/?cid=0x0:0x9fa566aa094707d4
restaurant,Indonesia,Rumah Makan Putra Sukowati,"P65G+9H7, Fiane, Kec. Ayamaru, Kabupaten Maybrat, Papua Bar.","Kabupaten Maybrat, Papua Bar.",PAPUA BARAT,,Indonesia,,-1.2915989,132.2264145,https://maps.google.com/?cid=0x0:0xd68323bf1db7ec04
restaurant,Masakan Asia,Putra Sukowati,"P6R5+VJ9, Kartapura, Distrik Ayamaru Tengah, Kabupaten Maybrat, Papua Bar.","Kabupaten Maybrat, Papua Bar.",PAPUA BARAT,,Indonesia,,-1.2578264,132.2091097,https://maps.google.com/?cid=0x0:0x99373cbcff22119d
restaurant,restaurant,R.M Muslim,"P5FW+2X6, Ayamaru, Kec. Ayamaru, Kabupaten Maybrat, Papua Bar. 98461","Ayamaru, Kec. Ayamaru, Kabupaten Maybrat",PAPUA BARAT,98461.0,Indonesia,,-1.2774749,132.1973756,https://maps.google.com/?cid=0x0:0x6841f2c1f5a1b7c8
restaurant,restaurant,Warung Mie ayam bakso+laundry mutiara jaya 2,"Fiane, Distrik Ayamaru Tengah, Kabupaten Maybrat, Papua Bar. 98011","Distrik Ayamaru Tengah, Kabupaten Maybrat",PAPUA BARAT,98011.0,Indonesia,82236508867.0,-1.2919538,132.2309307,https://maps.google.com/?cid=0x0:0xc337496cf2816932
restaurant,restaurant,Distrik Ayamaru Jaya,"Kabupaten Maybrat, Papua Bar.","Kabupaten Maybrat, Papua Bar.",PAPUA BARAT,,Indonesia,,-1.240888,132.1225897,https://maps.google.com/?cid=0x0:0x7043cae1470f6f3d
restaurant,Restoran,Restaurant Jordy,"P5FW+5WH, Ayamaru, Kec. Ayamaru, Kabupaten Maybrat, Papua Bar. 98461","Ayamaru, Kec. Ayamaru, Kabupaten Maybrat",PAPUA BARAT,98461.0,Indonesia,,-1.2770626,132.1973567,https://maps.google.com/?cid=0x0:0xef85da43b585ffec
restaurant,Rumah Makan,Rumah Makan Smarten Jaya,"Ayamaru mefkajim 11, Kec. Ayamaru, Papua Bar.","Kabupaten Maybrat, Papua Bar.",PAPUA BARAT,,Indonesia,82199931677.0,-1.2804829,132.2028707,https://maps.google.com/?cid=0x0:0xda049992131ddb4d
restaurant,Indonesia,Rumah Makan Putra Sukowati,"P65G+9H7, Fiane, Kec. Ayamaru, Kabupaten Maybrat, Papua Bar.","Kabupaten Maybrat, Papua Bar.",PAPUA BARAT,,Indonesia,,-1.2915989,132.2264145,https://maps.google.com/?cid=0x0:0xd68323bf1db7ec04
restaurant,restaurant,Warung Mie ayam bakso+laundry mutiara jaya 2,"Fiane, Distrik Ayamaru Tengah, Kabupaten Maybrat, Papua Bar. 98011","Distrik Ayamaru Tengah, Kabupaten Maybrat",PAPUA BARAT,98011.0,Indonesia,82236508867.0,-1.2919538,132.2309307,https://maps.google.com/?cid=0x0:0xc337496cf2816932
restaurant,restaurant,R.M Muslim,"P5FW+2X6, Ayamaru, Kec. Ayamaru, Kabupaten Maybrat, Papua Bar. 98461","Ayamaru, Kec. Ayamaru, Kabupaten Maybrat",PAPUA BARAT,98461.0,Indonesia,,-1.2774749,132.1973756,https://maps.google.com/?cid=0x0:0x6841f2c1f5a1b7c8
restaurant,Masakan Asia,Putra Sukowati,"P6R5+VJ9, Kartapura, Distrik Ayamaru Tengah, Kabupaten Maybrat, Papua Bar.","Kabupaten Maybrat, Papua Bar.",PAPUA BARAT,,Indonesia,,-1.2578264,132.2091097,https://maps.google.com/?cid=0x0:0x99373cbcff22119d
restaurant,Kantor Pemerintah,Warbo ayamaru jaya,"X49C+HRG, Hutan, Kabupaten Maybrat, Papua Bar.","Kabupaten Maybrat, Papua Bar.",PAPUA BARAT,,Indonesia,85213939279.0,-1.0310589,132.1220735,https://maps.google.com/?cid=0x0:0x7a0bb4338dc434b2
restaurant,Komplek perumahan,Ayamaru kota,"P838+529, Jitmau, Kec. Aitinyo Utara, Kabupaten Maybrat, Papua Bar.","Kabupaten Maybrat, Papua Bar.",PAPUA BARAT,,Indonesia,,-1.2970979,132.3150993,https://maps.google.com/?cid=0x0:0x5c83c06a31cb7d76
restaurant,restaurant,Distrik Ayamaru Selatan,"Kabupaten Maybrat, Papua Bar.","Kabupaten Maybrat, Papua Bar.",PAPUA BARAT,,Indonesia,,-1.3053761,132.1485942,https://maps.google.com/?cid=0x0:0x78bc898d04ac4488
restaurant,Restoran,Restaurant Jordy,"P5FW+5WH, Ayamaru, Kec. Ayamaru, Kabupaten Maybrat, Papua Bar. 98461","Ayamaru, Kec. Ayamaru, Kabupaten Maybrat",PAPUA BARAT,98461.0,Indonesia,,-1.2770626,132.1973567,https://maps.google.com/?cid=0x0:0xef85da43b585ffec
restaurant,Toko Perlengkapan Rumah,Rumah Makan Isme,"P65X+7X4, Fiane, Distrik Ayamaru Tengah, Kabupaten Maybrat, Papua Bar. 98462","Fiane, Distrik Ayamaru Tengah, Kabupaten Maybrat",PAPUA BARAT,98462.0,Indonesia,,-1.2918593,132.2499378,https://maps.google.com/?cid=0x0:0x3a798bb36eb50673
restaurant,Indonesia,Rumah Makan Putra Sukowati,"P65G+9H7, Fiane, Kec. Ayamaru, Kabupaten Maybrat, Papua Bar.","Kabupaten Maybrat, Papua Bar.",PAPUA BARAT,,Indonesia,,-1.2915989,132.2264145,https://maps.google.com/?cid=0x0:0xd68323bf1db7ec04
restaurant,Rumah Makan,Rumah Makan Smarten Jaya 02,"Fiane, Kec. Ayamaru, Kabupaten Maybrat, Papua Bar.","Kabupaten Maybrat, Papua Bar.",PAPUA BARAT,,Indonesia,82199931677.0,-1.2872425,132.2279503,https://maps.google.com/?cid=0x0:0x9fa566aa094707d4
restaurant,restaurant,Warung Mie ayam bakso+laundry mutiara jaya 2,"Fiane, Distrik Ayamaru Tengah, Kabupaten Maybrat, Papua Bar. 98011","Distrik Ayamaru Tengah, Kabupaten Maybrat",PAPUA BARAT,98011.0,Indonesia,82236508867.0,-1.2919538,132.2309307,https://maps.google.com/?cid=0x0:0xc337496cf2816932
restaurant,restaurant,R.M Muslim,"P5FW+2X6, Ayamaru, Kec. Ayamaru, Kabupaten Maybrat, Papua Bar. 98461","Ayamaru, Kec. Ayamaru, Kabupaten Maybrat",PAPUA BARAT,98461.0,Indonesia,,-1.2774749,132.1973756,https://maps.google.com/?cid=0x0:0x6841f2c1f5a1b7c8
restaurant,Masakan Asia,Putra Sukowati,"P6R5+VJ9, Kartapura, Distrik Ayamaru Tengah, Kabupaten Maybrat, Papua Bar.","Kabupaten Maybrat, Papua Bar.",PAPUA BARAT,,Indonesia,,-1.2578264,132.2091097,https://maps.google.com/?cid=0x0:0x99373cbcff22119d
restaurant,restaurant,Kotawi Restaurant - All Need Catering (By. ShandyTech),"P5GW+65G, Framu, Kec. Ayamaru, Kabupaten Maybrat, Papua Bar.","Kabupaten Maybrat, Papua Bar.",PAPUA BARAT,,Indonesia,85825364014.0,-1.2744255,132.1954589,https://maps.google.com/?cid=0x0:0xd6c0c453b59bb0ce
restaurant,restaurant,Distrik Ayamaru Selatan Jaya,"Kabupaten Maybrat, Papua Bar.","Kabupaten Maybrat, Papua Bar.",PAPUA BARAT,,Indonesia,,-1.3673656,132.2296299,https://maps.google.com/?cid=0x0:0x67f2471ae23483de
restaurant,Rumah Makan,Rumah Makan Smarten Jaya,"Ayamaru mefkajim 11, Kec. Ayamaru, Papua Bar.","Kabupaten Maybrat, Papua Bar.",PAPUA BARAT,,Indonesia,82199931677.0,-1.2804829,132.2028707,https://maps.google.com/?cid=0x0:0xda049992131ddb4d
restaurant,Rumah Makan,Rumah Makan Smarten Jaya 02,"Fiane, Kec. Ayamaru, Kabupaten Maybrat, Papua Bar.","Kabupaten Maybrat, Papua Bar.",PAPUA BARAT,,Indonesia,82199931677.0,-1.2872425,132.2279503,https://maps.google.com/?cid=0x0:0x9fa566aa094707d4
restaurant,Restoran,Restaurant Jordy,"P5FW+5WH, Ayamaru, Kec. Ayamaru, Kabupaten Maybrat, Papua Bar. 98461","Ayamaru, Kec. Ayamaru, Kabupaten Maybrat",PAPUA BARAT,98461.0,Indonesia,,-1.2770626,132.1973567,https://maps.google.com/?cid=0x0:0xef85da43b585ffec
restaurant,restaurant,Distrik Ayamaru Tengah,"Kabupaten Maybrat, Papua Bar.","Kabupaten Maybrat, Papua Bar.",PAPUA BARAT,,Indonesia,,-1.2884148,132.2172648,https://maps.google.com/?cid=0x0:0xa06de0548d38d1a6
restaurant,Toko Perlengkapan Rumah,Rumah Makan Isme,"P65X+7X4, Fiane, Distrik Ayamaru Tengah, Kabupaten Maybrat, Papua Bar. 98462","Fiane, Distrik Ayamaru Tengah, Kabupaten Maybrat",PAPUA BARAT,98462.0,Indonesia,,-1.2918593,132.2499378,https://maps.google.com/?cid=0x0:0x3a798bb36eb50673
restaurant,Restoran,Restaurant Jordy,"P5FW+5WH, Ayamaru, Kec. Ayamaru, Kabupaten Maybrat, Papua Bar. 98461","Ayamaru, Kec. Ayamaru, Kabupaten Maybrat",PAPUA BARAT,98461.0,Indonesia,,-1.2770626,132.1973567,https://maps.google.com/?cid=0x0:0xef85da43b585ffec
restaurant,Indonesia,Rumah Makan Putra Sukowati,"P65G+9H7, Fiane, Kec. Ayamaru, Kabupaten Maybrat, Papua Bar.","Kabupaten Maybrat, Papua Bar.",PAPUA BARAT,,Indonesia,,-1.2915989,132.2264145,https://maps.google.com/?cid=0x0:0xd68323bf1db7ec04
restaurant,restaurant,Warung Mie ayam bakso+laundry mutiara jaya 2,"Fiane, Distrik Ayamaru Tengah, Kabupaten Maybrat, Papua Bar. 98011","Distrik Ayamaru Tengah, Kabupaten Maybrat",PAPUA BARAT,98011.0,Indonesia,82236508867.0,-1.2919538,132.2309307,https://maps.google.com/?cid=0x0:0xc337496cf2816932
restaurant,Rumah Makan,Rumah Makan Smarten Jaya 02,"Fiane, Kec. Ayamaru, Kabupaten Maybrat, Papua Bar.","Kabupaten Maybrat, Papua Bar.",PAPUA BARAT,,Indonesia,82199931677.0,-1.2872425,132.2279503,https://maps.google.com/?cid=0x0:0x9fa566aa094707d4
restaurant,Masakan Asia,Putra Sukowati,"P6R5+VJ9, Kartapura, Distrik Ayamaru Tengah, Kabupaten Maybrat, Papua Bar.","Kabupaten Maybrat, Papua Bar.",PAPUA BARAT,,Indonesia,,-1.2578264,132.2091097,https://maps.google.com/?cid=0x0:0x99373cbcff22119d
restaurant,restaurant,R.M Muslim,"P5FW+2X6, Ayamaru, Kec. Ayamaru, Kabupaten Maybrat, Papua Bar. 98461","Ayamaru, Kec. Ayamaru, Kabupaten Maybrat",PAPUA BARAT,98461.0,Indonesia,,-1.2774749,132.1973756,https://maps.google.com/?cid=0x0:0x6841f2c1f5a1b7c8
restaurant,restaurant,Rumah makan rajawali,"P64X+V42, Fiane, Distrik Ayamaru Tengah, Kabupaten Maybrat, Papua Bar.","Kabupaten Maybrat, Papua Bar.",PAPUA BARAT,,Indonesia,,-1.2928572,132.2477555,https://maps.google.com/?cid=0x0:0x8627996c0160b0cf
restaurant,restaurant,Kec. Ayamaru Tim.,"Kabupaten Maybrat, Papua Bar.","Kabupaten Maybrat, Papua Bar.",PAPUA BARAT,,Indonesia,,-1.2951177,132.27456,https://maps.google.com/?cid=0x0:0xb5d97283031cf050
restaurant,Toko Perlengkapan Rumah,Rumah Makan Isme,"P65X+7X4, Fiane, Distrik Ayamaru Tengah, Kabupaten Maybrat, Papua Bar. 98462","Fiane, Distrik Ayamaru Tengah, Kabupaten Maybrat",PAPUA BARAT,98462.0,Indonesia,,-1.2918593,132.2499378,https://maps.google.com/?cid=0x0:0x3a798bb36eb50673
restaurant,Indonesia,Rumah Makan Putra Sukowati,"P65G+9H7, Fiane, Kec. Ayamaru, Kabupaten Maybrat, Papua Bar.","Kabupaten Maybrat, Papua Bar.",PAPUA BARAT,,Indonesia,,-1.2915989,132.2264145,https://maps.google.com/?cid=0x0:0xd68323bf1db7ec04
restaurant,Restoran,Restaurant Jordy,"P5FW+5WH, Ayamaru, Kec. Ayamaru, Kabupaten Maybrat, Papua Bar. 98461","Ayamaru, Kec. Ayamaru, Kabupaten Maybrat",PAPUA BARAT,98461.0,Indonesia,,-1.2770626,132.1973567,https://maps.google.com/?cid=0x0:0xef85da43b585ffec
restaurant,Komplek perumahan,Ayamaru kota,"P838+529, Jitmau, Kec. Aitinyo Utara, Kabupaten Maybrat, Papua Bar.","Kabupaten Maybrat, Papua Bar.",PAPUA BARAT,,Indonesia,,-1.2970979,132.3150993,https://maps.google.com/?cid=0x0:0x5c83c06a31cb7d76
restaurant,Rumah Makan,Rumah Makan Smarten Jaya 02,"Fiane, Kec. Ayamaru, Kabupaten Maybrat, Papua Bar.","Kabupaten Maybrat, Papua Bar.",PAPUA BARAT,,Indonesia,82199931677.0,-1.2872425,132.2279503,https://maps.google.com/?cid=0x0:0x9fa566aa094707d4
restaurant,restaurant,Warung Mie ayam bakso+laundry mutiara jaya 2,"Fiane, Distrik Ayamaru Tengah, Kabupaten Maybrat, Papua Bar. 98011","Distrik Ayamaru Tengah, Kabupaten Maybrat",PAPUA BARAT,98011.0,Indonesia,82236508867.0,-1.2919538,132.2309307,https://maps.google.com/?cid=0x0:0xc337496cf2816932
restaurant,restaurant,Warung makan Putri sederhana 1,"P752+2JW, Fiane, Kec. Ayamaru, Kabupaten Maybrat, Papua Bar.","Kabupaten Maybrat, Papua Bar.",PAPUA BARAT,,Indonesia,,-1.2923946,132.2515927,https://maps.google.com/?cid=0x0:0xe9520ac76d690b39
restaurant,Masakan Asia,Putra Sukowati,"P6R5+VJ9, Kartapura, Distrik Ayamaru Tengah, Kabupaten Maybrat, Papua Bar.","Kabupaten Maybrat, Papua Bar.",PAPUA BARAT,,Indonesia,,-1.2578264,132.2091097,https://maps.google.com/?cid=0x0:0x99373cbcff22119d
restaurant,restaurant,Ayamaru Tim. Sel.,"Kambuskato, Kabupaten Maybrat, Papua Bar.","Kabupaten Maybrat, Papua Bar.",PAPUA BARAT,,Indonesia,,-1.324591,132.265572,https://maps.google.com/?cid=0x0:0x2387ffcd93d6ad5b
restaurant,restaurant,R.M Muslim,"P5FW+2X6, Ayamaru, Kec. Ayamaru, Kabupaten Maybrat, Papua Bar. 98461","Ayamaru, Kec. Ayamaru, Kabupaten Maybrat",PAPUA BARAT,98461.0,Indonesia,,-1.2774749,132.1973756,https://maps.google.com/?cid=0x0:0x6841f2c1f5a1b7c8
restaurant,Restoran,Restaurant Jordy,"P5FW+5WH, Ayamaru, Kec. Ayamaru, Kabupaten Maybrat, Papua Bar. 98461","Ayamaru, Kec. Ayamaru, Kabupaten Maybrat",PAPUA BARAT,98461.0,Indonesia,,-1.2770626,132.1973567,https://maps.google.com/?cid=0x0:0xef85da43b585ffec
restaurant,restaurant,Ayamaru Utara,"Kabupaten Maybrat, Papua Bar.","Kabupaten Maybrat, Papua Bar.",PAPUA BARAT,,Indonesia,,-1.1983051,132.2165112,https://maps.google.com/?cid=0x0:0x7c47e1a7cad6e57d
restaurant,Restoran,Restaurant Jordy,"P5FW+5WH, Ayamaru, Kec. Ayamaru, Kabupaten Maybrat, Papua Bar. 98461","Ayamaru, Kec. Ayamaru, Kabupaten Maybrat",PAPUA BARAT,98461.0,Indonesia,,-1.2770626,132.1973567,https://maps.google.com/?cid=0x0:0xef85da43b585ffec
restaurant,Toko Perlengkapan Rumah,Rumah Makan Isme,"P65X+7X4, Fiane, Distrik Ayamaru Tengah, Kabupaten Maybrat, Papua Bar. 98462","Fiane, Distrik Ayamaru Tengah, Kabupaten Maybrat",PAPUA BARAT,98462.0,Indonesia,,-1.2918593,132.2499378,https://maps.google.com/?cid=0x0:0x3a798bb36eb50673
restaurant,Masakan Asia,Putra Sukowati,"P6R5+VJ9, Kartapura, Distrik Ayamaru Tengah, Kabupaten Maybrat, Papua Bar.","Kabupaten Maybrat, Papua Bar.",PAPUA BARAT,,Indonesia,,-1.2578264,132.2091097,https://maps.google.com/?cid=0x0:0x99373cbcff22119d
restaurant,Komplek perumahan,Ayamaru kota,"P838+529, Jitmau, Kec. Aitinyo Utara, Kabupaten Maybrat, Papua Bar.","Kabupaten Maybrat, Papua Bar.",PAPUA BARAT,,Indonesia,,-1.2970979,132.3150993,https://maps.google.com/?cid=0x0:0x5c83c06a31cb7d76
restaurant,restaurant,R.M Muslim,"P5FW+2X6, Ayamaru, Kec. Ayamaru, Kabupaten Maybrat, Papua Bar. 98461","Ayamaru, Kec. Ayamaru, Kabupaten Maybrat",PAPUA BARAT,98461.0,Indonesia,,-1.2774749,132.1973756,https://maps.google.com/?cid=0x0:0x6841f2c1f5a1b7c8
restaurant,restaurant,Distrik Ayamaru Utara Timur,"Kabupaten Maybrat, Papua Bar.","Kabupaten Maybrat, Papua Bar.",PAPUA BARAT,,Indonesia,,-1.2541857,132.3121103,https://maps.google.com/?cid=0x0:0x48dc44cac491eb66
restaurant,Komplek perumahan,Ayamaru kota,"P838+529, Jitmau, Kec. Aitinyo Utara, Kabupaten Maybrat, Papua Bar.","Kabupaten Maybrat, Papua Bar.",PAPUA BARAT,,Indonesia,,-1.2970979,132.3150993,https://maps.google.com/?cid=0x0:0x5c83c06a31cb7d76
restaurant,restaurant,R.M Muslim,"P5FW+2X6, Ayamaru, Kec. Ayamaru, Kabupaten Maybrat, Papua Bar. 98461","Ayamaru, Kec. Ayamaru, Kabupaten Maybrat",PAPUA BARAT,98461.0,Indonesia,,-1.2774749,132.1973756,https://maps.google.com/?cid=0x0:0x6841f2c1f5a1b7c8
restaurant,Restoran,Restaurant Jordy,"P5FW+5WH, Ayamaru, Kec. Ayamaru, Kabupaten Maybrat, Papua Bar. 98461","Ayamaru, Kec. Ayamaru, Kabupaten Maybrat",PAPUA BARAT,98461.0,Indonesia,,-1.2770626,132.1973567,https://maps.google.com/?cid=0x0:0xef85da43b585ffec
restaurant,restaurant,Warung makan sofi,"M7WG+4WW, Kambuaya, Kec. Ayamaru Tim., Kabupaten Maybrat, Papua Bar. 98462","Kambuaya, Kec. Ayamaru Tim., Kabupaten Maybrat",PAPUA BARAT,98462.0,Indonesia,,-1.3043565,132.2774529,https://maps.google.com/?cid=0x0:0x19e78ac8f7c291b1
restaurant,restaurant,Papua Bar.,,Papua Bar.,PAPUA BARAT,,Indonesia,,-1.3361154,133.1747162,https://maps.google.com/?cid=0x0:0x5349c1f8c5c7cb62
restaurant,Restoran,Inggandi Beach Restaurant,"43GV+7Q3, Jl. Pasir Putih No.33, Pasir Putih, Kec. Manokwari Tim., Kabupaten Manokwari, Papua Bar. 98313","Jl. Pasir Putih No.33, Pasir Putih, Kec. Manokwari Tim., Kabupaten Manokwari",PAPUA BARAT,98313.0,Indonesia,81240372255.0,-0.8780927,134.0933631,https://maps.google.com/?cid=0x0:0xba66c7a3124731e6
restaurant,Hidangan Laut,Marina Star Restaurant Seafood,"Kompleks, Jl. Bubara Jl. Pelabuhan Perikanan, Distrik Sorong, Kota Sorong, Papua Bar. 98414","Jl. Bubara Jl. Pelabuhan Perikanan, Distrik Sorong, Kota Sorong",PAPUA BARAT,98414.0,Indonesia,81240250548.0,-0.8790069,131.2552456,https://maps.google.com/?cid=0x0:0x6d780e763a272c1a
restaurant,Hidangan Laut,Republik Seafood,"Sawagumu, Kec. Sorong Utara, Kota Sorong, Papua Bar. 98412","Kec. Sorong Utara, Kota Sorong",PAPUA BARAT,98412.0,Indonesia,81344615005.0,-0.8883945,131.3109228,https://maps.google.com/?cid=0x0:0xec5acb934a352d67
restaurant,Rumah Makan,Rumah Makan Mini (Miniresto.sorong),"Klademak, Distrik Sorong, Kota Sorong, Papua Bar. 98412","Distrik Sorong, Kota Sorong",PAPUA BARAT,98412.0,Indonesia,85354611115.0,-0.8820389,131.2740136,https://maps.google.com/?cid=0x0:0x1b2e4c712665ee5b
restaurant,Pizza,Pizzeria Terrazza di Sorong,"Behind SKKMIGAS, dibelakang SKKMIGAS, Jl. Arfak, Kp. Baru, Kota Sorong, Papua Bar. 98414","dibelakang SKKMIGAS, Jl. Arfak, Kp. Baru, Kota Sorong",PAPUA BARAT,98414.0,Indonesia,81356867669.0,-0.8737438,131.25222,https://maps.google.com/?cid=0x0:0xf46c05068677dc1
restaurant,Jepang,Oto Bento Manokwari,"43PG+J4F, Jl. Merdeka, Manokwari Tim., Kec. Manokwari Tim., Kabupaten Manokwari, Papua Bar. 98312","Jl. Merdeka, Manokwari Tim., Kec. Manokwari Tim., Kabupaten Manokwari",PAPUA BARAT,98312.0,Indonesia,82197511663.0,-0.8634378,134.0753041,https://maps.google.com/?cid=0x0:0xdeb25c7fceb993ce
restaurant,Pujasera,Hangout Avenue Sorong,"Jl Sungai Maruni KM 10, Masuk No.23, Kota Sorong, Papua Bar. 98416","Masuk No.23, Kota Sorong",PAPUA BARAT,98416.0,Indonesia,82197698090.0,-0.8868107,131.3216004,https://maps.google.com/?cid=0x0:0x29c3ed1d6d1ac389
restaurant,restaurant,Mansinam Beach Hotel,"43CR+H6X, Jl. Pasir Putih No.7, Pasir Putih, Kec. Manokwari Tim., Kabupaten Manokwari, Papua Bar. 98313","Jl. Pasir Putih No.7, Pasir Putih, Kec. Manokwari Tim., Kabupaten Manokwari",PAPUA BARAT,98313.0,Indonesia,986213585.0,-0.878422,134.0901197,https://maps.google.com/?cid=0x0:0x7d51b487bac82f8f
restaurant,restaurant,Pulau Mansinam,"Mansinam, Kec. Manokwari Tim., Kabupaten Manokwari, Papua Bar.","Kabupaten Manokwari, Papua Bar.",PAPUA BARAT,,Indonesia,,-0.9141667,134.1083333,https://maps.google.com/?cid=0x0:0x94a3a276c08ef3eb
restaurant,restaurant,,,,PAPUA BARAT,,Indonesia,,,,https://maps.google.com/?cid=0x0:0xe96b706fef94b3a2%7C/g/120jr49w%7Cid-ID
restaurant,restaurant,Aston Niu Manokwari,"Sogun Hill, Jl. Drs Esau Sesa No.3 Blok B, Sowi, Distrik Manokwari, Kabupaten Manokwari, Papua Bar. 98315","Jl. Drs Esau Sesa No.3 Blok B, Sowi, Distrik Manokwari, Kabupaten Manokwari",PAPUA BARAT,98315.0,Indonesia,81369878787.0,-0.8978109,134.0416499,https://maps.google.com/?cid=0x0:0xe96b706fef94b3a2
restaurant,restaurant,Sulawesi Selatan 92773,"Kec. Mare, Kabupaten Bone, Sulawesi Selatan","Kabupaten Bone, Sulawesi Selatan",PAPUA BARAT,,Indonesia,,-4.788882,120.2743484,https://maps.google.com/?cid=0x0:0x176353ed256d27d5
restaurant,Kedai Kopi,D'Mare Seafood Resto  Lounge,"Jl. Ciputat Raya No.5, RT.9/RW.8, Kby. Lama Utara, Kec. Kby. Lama, Kota Jakarta Selatan, Daerah Khusus Ibukota Jakarta 12240","RT.9/RW.8, Kby. Lama Utara, Kec. Kby. Lama, Kota Jakarta Selatan",PAPUA BARAT,12240.0,Indonesia,8118110168.0,-6.2503167,106.7780499,https://maps.google.com/?cid=0x0:0x5d57b2a416ffa6fe
restaurant,restaurant,Papua Bar. 98461,"Kabupaten Maybrat, Papua Bar.","Kabupaten Maybrat, Papua Bar.",PAPUA BARAT,,Indonesia,,-1.2145828,132.1177396,https://maps.google.com/?cid=0x0:0x150319512b004ee4
restaurant,Hidangan Laut,Republik Seafood,"Sawagumu, Kec. Sorong Utara, Kota Sorong, Papua Bar. 98412","Kec. Sorong Utara, Kota Sorong",PAPUA BARAT,98412.0,Indonesia,81344615005.0,-0.8883945,131.3109228,https://maps.google.com/?cid=0x0:0xec5acb934a352d67
restaurant,Hidangan Laut,RM. NEW RATU SAYANG,"Lido, Jl. Yos. Sudarso No.31, Klasuur, Distrik Sorong, Kota Sorong, Papua Bar. 98413","Jl. Yos. Sudarso No.31, Klasuur, Distrik Sorong, Kota Sorong",PAPUA BARAT,98413.0,Indonesia,85244007744.0,-0.8652896,131.2461583,https://maps.google.com/?cid=0x0:0xb387f5135fa5f5d6
restaurant,Hidangan Laut,Marina Star Restaurant Seafood,"Kompleks, Jl. Bubara Jl. Pelabuhan Perikanan, Distrik Sorong, Kota Sorong, Papua Bar. 98414","Jl. Bubara Jl. Pelabuhan Perikanan, Distrik Sorong, Kota Sorong",PAPUA BARAT,98414.0,Indonesia,81240250548.0,-0.8790069,131.2552456,https://maps.google.com/?cid=0x0:0x6d780e763a272c1a
restaurant,restaurant,,,,PAPUA BARAT,,Indonesia,,,,https://maps.google.com/?cid=0x0:0x6d780e763a272c1au0026onu003dChicken+Cordon+Bleuu0026midu003d/g/11h057j22x
restaurant,Restoran,Inggandi Beach Restaurant,"43GV+7Q3, Jl. Pasir Putih No.33, Pasir Putih, Kec. Manokwari Tim., Kabupaten Manokwari, Papua Bar. 98313","Jl. Pasir Putih No.33, Pasir Putih, Kec. Manokwari Tim., Kabupaten Manokwari",PAPUA BARAT,98313.0,Indonesia,81240372255.0,-0.8780927,134.0933631,https://maps.google.com/?cid=0x0:0xba66c7a3124731e6
restaurant,Hidangan Laut,WR. Marinda Seafood,"46FV+R9P, Kp. Baru, Distrik Sorong, Kota Sorong, Papua Bar. 98411","Kp. Baru, Distrik Sorong, Kota Sorong",PAPUA BARAT,98411.0,Indonesia,85244547308.0,-0.8754085,131.2434382,https://maps.google.com/?cid=0x0:0x3954b465e868b0a3
restaurant,restaurant,,,,PAPUA BARAT,,Indonesia,,,,https://maps.google.com/?cid=0x0:0x6d780e763a272c1au0026onu003dIkan+Asam+Manisu0026midu003d/g/11h057j22x
restaurant,restaurant,,,,PAPUA BARAT,,Indonesia,,,,https://maps.google.com/?cid=0x0:0x6d780e763a272c1au0026onu003dTiger+Saus+Singaporeu0026midu003d/g/11h057j22x
restaurant,restaurant,,,,PAPUA BARAT,,Indonesia,,,,https://maps.google.com/?cid=0x0:0x6d780e763a272c1au0026onu003dAneka+Hidanganu0026midu003d/g/11h057j22x
restaurant,restaurant,,,,PAPUA BARAT,,Indonesia,,,,https://maps.google.com/?cid=0x0:0x6d780e763a272c1au0026onu003dNasi+Goreng+Seafoodu0026midu003d/g/11h057j22x
restaurant,restaurant,,,,PAPUA BARAT,,Indonesia,,,,https://maps.google.com/?cid=0x0:0x6d780e763a272c1au0026onu003dDada+Tuna+Bakaru0026midu003d/g/11h057j22x
restaurant,restaurant,,,,PAPUA BARAT,,Indonesia,,,,https://maps.google.com/?cid=0x0:0x6d780e763a272c1au0026onu003dAneka+Menuu0026midu003d/g/11h057j22x
restaurant,restaurant,,,,PAPUA BARAT,,Indonesia,,,,https://maps.google.com/?cid=0x0:0x6d780e763a272c1au0026onu003dUdang+Banana+Goreng+Tepungu0026midu003d/g/11h057j22x
restaurant,restaurant,Papua Bar. 98461,"Kabupaten Maybrat, Papua Bar.","Kabupaten Maybrat, Papua Bar.",PAPUA BARAT,,Indonesia,,-1.2145828,132.1177396,https://maps.google.com/?cid=0x0:0x150319512b004ee4
restaurant,Hidangan Laut,Republik Seafood,"Sawagumu, Kec. Sorong Utara, Kota Sorong, Papua Bar. 98412","Kec. Sorong Utara, Kota Sorong",PAPUA BARAT,98412.0,Indonesia,81344615005.0,-0.8883945,131.3109228,https://maps.google.com/?cid=0x0:0xec5acb934a352d67
restaurant,Hidangan Laut,Marina Star Restaurant Seafood,"Kompleks, Jl. Bubara Jl. Pelabuhan Perikanan, Distrik Sorong, Kota Sorong, Papua Bar. 98414","Jl. Bubara Jl. Pelabuhan Perikanan, Distrik Sorong, Kota Sorong",PAPUA BARAT,98414.0,Indonesia,81240250548.0,-0.8790069,131.2552456,https://maps.google.com/?cid=0x0:0x6d780e763a272c1a
restaurant,Restoran,Billy Cafe,"Jl. Merdeka No.57, Padarni, Kec. Manokwari Bar., Kabupaten Manokwari, Papua Bar. 98312","Padarni, Kec. Manokwari Bar., Kabupaten Manokwari",PAPUA BARAT,98312.0,Indonesia,81240501959.0,-0.8596376,134.0734046,https://maps.google.com/?cid=0x0:0x245b68c7c99f326f
restaurant,restaurant,,,,PAPUA BARAT,,Indonesia,,,,https://maps.google.com/?cid=0x0:0xba66c7a3124731e6u0026onu003dPapedau0026midu003d/g/11cjnncbf3
restaurant,restaurant,,,,PAPUA BARAT,,Indonesia,,,,https://maps.google.com/?cid=0x0:0xba66c7a3124731e6u0026onu003dKakap+Merah+Kuah+Kuningu0026midu003d/g/11cjnncbf3
restaurant,Restoran,Inggandi Beach Restaurant,"43GV+7Q3, Jl. Pasir Putih No.33, Pasir Putih, Kec. Manokwari Tim., Kabupaten Manokwari, Papua Bar. 98313","Jl. Pasir Putih No.33, Pasir Putih, Kec. Manokwari Tim., Kabupaten Manokwari",PAPUA BARAT,98313.0,Indonesia,81240372255.0,-0.8780927,134.0933631,https://maps.google.com/?cid=0x0:0xba66c7a3124731e6
restaurant,restaurant,,,,PAPUA BARAT,,Indonesia,,,,https://maps.google.com/?cid=0x0:0xba66c7a3124731e6u0026onu003dJeruk+Hangatu0026midu003d/g/11cjnncbf3
restaurant,restaurant,,,,PAPUA BARAT,,Indonesia,,,,https://maps.google.com/?cid=0x0:0xba66c7a3124731e6u0026onu003dMenu+Lengkapu0026midu003d/g/11cjnncbf3
restaurant,restaurant,,,,PAPUA BARAT,,Indonesia,,,,https://maps.google.com/?cid=0x0:0xba66c7a3124731e6u0026onu003dEs+Campuru0026midu003d/g/11cjnncbf3
restaurant,restaurant,,,,PAPUA BARAT,,Indonesia,,,,https://maps.google.com/?cid=0x0:0xba66c7a3124731e6u0026onu003dKakap+Asam+Manisu0026midu003d/g/11cjnncbf3
restaurant,restaurant,,,,PAPUA BARAT,,Indonesia,,,,https://maps.google.com/?cid=0x0:0xba66c7a3124731e6u0026onu003dKepiting+Saus+Padangu0026midu003d/g/11cjnncbf3
restaurant,restaurant,,,,PAPUA BARAT,,Indonesia,,,,https://maps.google.com/?cid=0x0:0xba66c7a3124731e6u0026onu003dTahu+Spesial+Inggandiu0026midu003d/g/11cjnncbf3
restaurant,restaurant,,,,PAPUA BARAT,,Indonesia,,,,https://maps.google.com/?cid=0x0:0xba66c7a3124731e6u0026onu003dSate+Garou0026midu003d/g/11cjnncbf3
