Category;Real Category;Business Name;Address;City;State;Postal Code;Country;Phone;Latitude;Longitude;Map Link
toko bangunan;toko bangunan;Distrik Aifat;Kabupaten Maybrat, Papua Bar.;Kabupaten Maybrat, Papua Bar.;PAPUA BARAT;;Indonesia;;-12.568.532;1.325.001.338;https://maps.google.com/?cid=0x0:0xcc3d52ba3ddd33de
toko bangunan;Toko;Toko Fratafen Jaya Bangunan;Jl. Fratafen, Fiane, Kec. Ayamaru, Kabupaten Maybrat, Papua Bar.;Kabupaten Maybrat, Papua Bar.;PAPUA BARAT;;Indonesia;81344891455;-12.930.171;1.322.477.662;https://maps.google.com/?cid=0x0:0x637ec3d664ebdaa3
toko bangunan;toko bangunan;Bengkel dan Bangunan Larry;PFWX+RP4, Fait Mayaf, Distrik Aifat, Kabupaten Maybrat, Papua Bar. 98463;Fait Mayaf, Distrik Aifat, Kabupaten Maybrat;PAPUA BARAT;98463;Indonesia;;-12.529.726;1.324.992.838;https://maps.google.com/?cid=0x0:0x34355660cc5c29ef
toko bangunan;Pemasok Bahan Bangunan;Supermarket Bangunan Abadi ( Bangunan Abadi ) Meruya;Jl. Meruya Ilir Raya No.13 3, RT.3/RW.2, Meruya Utara, Kec. Kembangan, Kota Jakarta Barat, Daerah Khusus Ibukota Jakarta 11610;RT.3/RW.2, Meruya Utara, Kec. Kembangan, Kota Jakarta Barat;PAPUA BARAT;11610;Indonesia;215856801;-61.976.477;1.067.425.118;https://maps.google.com/?cid=0x0:0x13872e6ebcfc2cac
toko bangunan;Toko Bahan Bangunan;Cahaya Bangunan;4, Jl. Meruya Ilir Raya No.82C, RT.4/RW.8, Srengseng, Kec. Kembangan, Kota Jakarta Barat, Daerah Khusus Ibukota Jakarta 11620;Jl. Meruya Ilir Raya No.82C, RT.4/RW.8, Srengseng, Kec. Kembangan, Kota Jakarta Barat;PAPUA BARAT;11620;Indonesia;215868105;-6.198.191;1.067.527.248;https://maps.google.com/?cid=0x0:0x71fab95142362a49
toko bangunan;Toko Bahan Bangunan;Tb.Aneka Jaya;Jl. Srengseng Sawah No.40, RT.3/RW.9, Srengseng Sawah, Kec. Jagakarsa, Kota Jakarta Selatan, Daerah Khusus Ibukota Jakarta 12630;RT.3/RW.9, Srengseng Sawah, Kec. Jagakarsa, Kota Jakarta Selatan;PAPUA BARAT;12630;Indonesia;85219465440;-63.582.789;1.068.120.311;https://maps.google.com/?cid=0x0:0x1e2ad159dd994acd
toko bangunan;toko bangunan;Distrik Aifat;Kabupaten Maybrat, Papua Bar.;Kabupaten Maybrat, Papua Bar.;PAPUA BARAT;;Indonesia;;-12.568.532;1.325.001.338;https://maps.google.com/?cid=0x0:0xcc3d52ba3ddd33de
toko bangunan;Toko;Toko Fratafen Jaya Bangunan;Jl. Fratafen, Fiane, Kec. Ayamaru, Kabupaten Maybrat, Papua Bar.;Kabupaten Maybrat, Papua Bar.;PAPUA BARAT;;Indonesia;81344891455;-12.930.171;1.322.477.662;https://maps.google.com/?cid=0x0:0x637ec3d664ebdaa3
toko bangunan;toko bangunan;Bengkel dan Bangunan Larry;PFWX+RP4, Fait Mayaf, Distrik Aifat, Kabupaten Maybrat, Papua Bar. 98463;Fait Mayaf, Distrik Aifat, Kabupaten Maybrat;PAPUA BARAT;98463;Indonesia;;-12.529.726;1.324.992.838;https://maps.google.com/?cid=0x0:0x34355660cc5c29ef
toko bangunan;Pemasok Bahan Bangunan;Supermarket Bangunan Abadi ( Bangunan Abadi ) Meruya;Jl. Meruya Ilir Raya No.13 3, RT.3/RW.2, Meruya Utara, Kec. Kembangan, Kota Jakarta Barat, Daerah Khusus Ibukota Jakarta 11610;RT.3/RW.2, Meruya Utara, Kec. Kembangan, Kota Jakarta Barat;PAPUA BARAT;11610;Indonesia;215856801;-61.976.477;1.067.425.118;https://maps.google.com/?cid=0x0:0x13872e6ebcfc2cac
toko bangunan;Toko Bahan Bangunan;Tb.Aneka Jaya;Jl. Srengseng Sawah No.40, RT.3/RW.9, Srengseng Sawah, Kec. Jagakarsa, Kota Jakarta Selatan, Daerah Khusus Ibukota Jakarta 12630;RT.3/RW.9, Srengseng Sawah, Kec. Jagakarsa, Kota Jakarta Selatan;PAPUA BARAT;12630;Indonesia;85219465440;-63.582.789;1.068.120.311;https://maps.google.com/?cid=0x0:0x1e2ad159dd994acd
toko bangunan;Toko Bahan Bangunan;Cahaya Bangunan;4, Jl. Meruya Ilir Raya No.82C, RT.4/RW.8, Srengseng, Kec. Kembangan, Kota Jakarta Barat, Daerah Khusus Ibukota Jakarta 11620;Jl. Meruya Ilir Raya No.82C, RT.4/RW.8, Srengseng, Kec. Kembangan, Kota Jakarta Barat;PAPUA BARAT;11620;Indonesia;215868105;-6.198.191;1.067.527.248;https://maps.google.com/?cid=0x0:0x71fab95142362a49
toko bangunan;Toko;Toko Fratafen Jaya Bangunan;Jl. Fratafen, Fiane, Kec. Ayamaru, Kabupaten Maybrat, Papua Bar.;Kabupaten Maybrat, Papua Bar.;PAPUA BARAT;;Indonesia;81344891455;-12.930.171;1.322.477.662;https://maps.google.com/?cid=0x0:0x637ec3d664ebdaa3
toko bangunan;toko bangunan;Distrik Aifat Timur;Kabupaten Maybrat, Papua Bar.;Kabupaten Maybrat, Papua Bar.;PAPUA BARAT;;Indonesia;;-13.591.179;13.259.276;https://maps.google.com/?cid=0x0:0x14eac191dd6d8e2e
toko bangunan;Toko;Toko FITAFEN JAYA;P668+JWJ, Jl. Fratafen, Kampung Isme, Fiane, Distrik Ayamaru Tengah, Kabupaten Maybrat, Papua Bar.;Kabupaten Maybrat, Papua Bar.;PAPUA BARAT;;Indonesia;82129111112;-12.884.148;1.322.172.648;https://maps.google.com/?cid=0x0:0x9803b7caed3f9da8
toko bangunan;Toko;Toko Fratafen Jaya Bangunan;Jl. Fratafen, Fiane, Kec. Ayamaru, Kabupaten Maybrat, Papua Bar.;Kabupaten Maybrat, Papua Bar.;PAPUA BARAT;;Indonesia;81344891455;-12.930.171;1.322.477.662;https://maps.google.com/?cid=0x0:0x637ec3d664ebdaa3
toko bangunan;Toko;Toko FITAFEN JAYA;P668+JWJ, Jl. Fratafen, Kampung Isme, Fiane, Distrik Ayamaru Tengah, Kabupaten Maybrat, Papua Bar.;Kabupaten Maybrat, Papua Bar.;PAPUA BARAT;;Indonesia;82129111112;-12.884.148;1.322.172.648;https://maps.google.com/?cid=0x0:0x9803b7caed3f9da8
toko bangunan;toko bangunan;Distrik Aifat;Kabupaten Maybrat, Papua Bar.;Kabupaten Maybrat, Papua Bar.;PAPUA BARAT;;Indonesia;;-12.568.532;1.325.001.338;https://maps.google.com/?cid=0x0:0xcc3d52ba3ddd33de
toko bangunan;Toko;Toko Fratafen Jaya Bangunan;Jl. Fratafen, Fiane, Kec. Ayamaru, Kabupaten Maybrat, Papua Bar.;Kabupaten Maybrat, Papua Bar.;PAPUA BARAT;;Indonesia;81344891455;-12.930.171;1.322.477.662;https://maps.google.com/?cid=0x0:0x637ec3d664ebdaa3
toko bangunan;toko bangunan;Distrik Aifat Timur;Kabupaten Maybrat, Papua Bar.;Kabupaten Maybrat, Papua Bar.;PAPUA BARAT;;Indonesia;;-13.591.179;13.259.276;https://maps.google.com/?cid=0x0:0x14eac191dd6d8e2e
toko bangunan;Toko;Toko FITAFEN JAYA;P668+JWJ, Jl. Fratafen, Kampung Isme, Fiane, Distrik Ayamaru Tengah, Kabupaten Maybrat, Papua Bar.;Kabupaten Maybrat, Papua Bar.;PAPUA BARAT;;Indonesia;82129111112;-12.884.148;1.322.172.648;https://maps.google.com/?cid=0x0:0x9803b7caed3f9da8
toko bangunan;Toko Bahan Bangunan;Toko Idaman;387C+43P, Dana Weria, Distrik Fakfak Tengah, Kabupaten Fakfak, Papua Bar. 98611;Dana Weria, Distrik Fakfak Tengah, Kabupaten Fakfak;PAPUA BARAT;98611;Indonesia;81233333193;-29.371.717;1.323.201.884;https://maps.google.com/?cid=0x0:0xb250f5bbd07b5204
toko bangunan;toko bangunan;Distrik Aifat Timur;Kabupaten Maybrat, Papua Bar.;Kabupaten Maybrat, Papua Bar.;PAPUA BARAT;;Indonesia;;-13.591.179;13.259.276;https://maps.google.com/?cid=0x0:0x14eac191dd6d8e2e
toko bangunan;Toko Bahan Bangunan;Toko Bangunan Abadi;4862+H2G, Malaingkedi, Kec. Sorong Utara, Kota Sorong, Papua Bar. 98412;Malaingkedi, Kec. Sorong Utara, Kota Sorong;PAPUA BARAT;98412;Indonesia;81248762864;-0.8885625;1.313.000.781;https://maps.google.com/?cid=0x0:0xa4c5e3d6e0f0bf2b
toko bangunan;toko bangunan;Bengkel dan Bangunan Larry;PFWX+RP4, Fait Mayaf, Distrik Aifat, Kabupaten Maybrat, Papua Bar. 98463;Fait Mayaf, Distrik Aifat, Kabupaten Maybrat;PAPUA BARAT;98463;Indonesia;;-12.529.726;1.324.992.838;https://maps.google.com/?cid=0x0:0x34355660cc5c29ef
toko bangunan;Toko;Toko Fratafen Jaya Bangunan;Jl. Fratafen, Fiane, Kec. Ayamaru, Kabupaten Maybrat, Papua Bar.;Kabupaten Maybrat, Papua Bar.;PAPUA BARAT;;Indonesia;81344891455;-12.930.171;1.322.477.662;https://maps.google.com/?cid=0x0:0x637ec3d664ebdaa3
toko bangunan;Toko;Toko FITAFEN JAYA;P668+JWJ, Jl. Fratafen, Kampung Isme, Fiane, Distrik Ayamaru Tengah, Kabupaten Maybrat, Papua Bar.;Kabupaten Maybrat, Papua Bar.;PAPUA BARAT;;Indonesia;82129111112;-12.884.148;1.322.172.648;https://maps.google.com/?cid=0x0:0x9803b7caed3f9da8
toko bangunan;toko bangunan;Distrik Aifat Selatan;Kabupaten Maybrat, Papua Bar.;Kabupaten Maybrat, Papua Bar.;PAPUA BARAT;;Indonesia;;-14.185.595;1.325.043.916;https://maps.google.com/?cid=0x0:0x5390da174ca5ef27
toko bangunan;toko bangunan;Distrik Aifat Utara;Kabupaten Maybrat, Papua Bar.;Kabupaten Maybrat, Papua Bar.;PAPUA BARAT;;Indonesia;;-11.588.544;1.324.643.784;https://maps.google.com/?cid=0x0:0x7ec0d9546b1ece9c
toko bangunan;Toko;Toko Fratafen Jaya Bangunan;Jl. Fratafen, Fiane, Kec. Ayamaru, Kabupaten Maybrat, Papua Bar.;Kabupaten Maybrat, Papua Bar.;PAPUA BARAT;;Indonesia;81344891455;-12.930.171;1.322.477.662;https://maps.google.com/?cid=0x0:0x637ec3d664ebdaa3
toko bangunan;toko bangunan;Bengkel dan Bangunan Larry;PFWX+RP4, Fait Mayaf, Distrik Aifat, Kabupaten Maybrat, Papua Bar. 98463;Fait Mayaf, Distrik Aifat, Kabupaten Maybrat;PAPUA BARAT;98463;Indonesia;;-12.529.726;1.324.992.838;https://maps.google.com/?cid=0x0:0x34355660cc5c29ef
toko bangunan;Toko Perbaikan Ponsel;Aitinyo;H99Q+V7G, Korom, Distrik Aitinyo, Kabupaten Maybrat, Papua Bar. 98463;Korom, Distrik Aitinyo, Kabupaten Maybrat;PAPUA BARAT;98463;Indonesia;;-1.430.311;1.323.881.946;https://maps.google.com/?cid=0x0:0x1e35afd58f2401c9
toko bangunan;toko bangunan;Distrik Aitinyo;Kabupaten Maybrat, Papua Bar.;Kabupaten Maybrat, Papua Bar.;PAPUA BARAT;;Indonesia;;-14.413.734;1.323.839.209;https://maps.google.com/?cid=0x0:0xd008081240dea68f
toko bangunan;Toko Cat;Toko Bangunan Abid Sejahtera - Waisai;Jl. Jend. Sudirman No.30, Waisai, Distrik Kota Waisai, Kabupaten Raja Ampat, Papua Bar. 98482;Waisai, Distrik Kota Waisai, Kabupaten Raja Ampat;PAPUA BARAT;98482;Indonesia;82248014806;-0.4206038;1.308.216.501;https://maps.google.com/?cid=0x0:0x635cf5cb88ebe389
toko bangunan;Toko Ponsel;Aipat kumurke;P838+529, Jitmau, Kec. Aitinyo Utara, Kabupaten Maybrat, Papua Bar.;Kabupaten Maybrat, Papua Bar.;PAPUA BARAT;;Indonesia;;-12.970.979;1.323.150.993;https://maps.google.com/?cid=0x0:0x5d2d62cd73e9232d
toko bangunan;Kantor Pemerintah;Kantor kampung korom;H99Q+V7G, Korom, Distrik Aitinyo, Kabupaten Maybrat, Papua Bar. 98463;Korom, Distrik Aitinyo, Kabupaten Maybrat;PAPUA BARAT;98463;Indonesia;;-14.304.746;1.323.873.668;https://maps.google.com/?cid=0x0:0x3d0a2e5123c9e14b
toko bangunan;Toko Bahan Bangunan;Toko Bangunan Jordy;P5FW+5W9, Ayamaru, Kec. Ayamaru, Kabupaten Maybrat, Papua Bar. 98461;Ayamaru, Kec. Ayamaru, Kabupaten Maybrat;PAPUA BARAT;98461;Indonesia;;-12.768.317;1.321.973.254;https://maps.google.com/?cid=0x0:0x5d9700c95e20bcb7
toko bangunan;Toko;Toko Fratafen Jaya Bangunan;Jl. Fratafen, Fiane, Kec. Ayamaru, Kabupaten Maybrat, Papua Bar.;Kabupaten Maybrat, Papua Bar.;PAPUA BARAT;;Indonesia;81344891455;-12.930.171;1.322.477.662;https://maps.google.com/?cid=0x0:0x637ec3d664ebdaa3
toko bangunan;Toko Bahan Bangunan;ANEKA BANGUNAN;Wosi, Kec. Manokwari Bar., Kabupaten Manokwari, Papua Bar. 98312;Kec. Manokwari Bar., Kabupaten Manokwari;PAPUA BARAT;98312;Indonesia;81344843001;-0.8631883;1.340.498.559;https://maps.google.com/?cid=0x0:0x3598159af16f30ea
toko bangunan;Toko Bahan Bangunan;PAPUA BANGUNAN;42GX+945, Wosi, Kec. Manokwari Bar., Kabupaten Manokwari, Papua Bar. 98312;Wosi, Kec. Manokwari Bar., Kabupaten Manokwari;PAPUA BARAT;98312;Indonesia;82198055550;-0.874101;1.340.478.473;https://maps.google.com/?cid=0x0:0x2c3683b193d9430f
toko bangunan;toko bangunan;Papua Bar.;;Papua Bar.;PAPUA BARAT;;Indonesia;;-13.361.154;1.331.747.162;https://maps.google.com/?cid=0x0:0x5349c1f8c5c7cb62
toko bangunan;Toko Bahan Bangunan;Papua Bangunan, CV PAPUA ABADI;Jl. Basuki Rahmat No.780, Klawuyuk, Distrik Sorong Timur, Kota Sorong, Papua Bar. 98416;Klawuyuk, Distrik Sorong Timur, Kota Sorong;PAPUA BARAT;98416;Indonesia;81332017550;-0.8954087;1.313.186.922;https://maps.google.com/?cid=0x0:0x851804bc3aa7f033
toko bangunan;Toko Bahan Bangunan;Toko Karya Abadi;WJ4X+24P, Tuasai, Distrik Bintuni, Kabupaten Teluk Bintuni, Papua Bar. 98364;Tuasai, Distrik Bintuni, Kabupaten Teluk Bintuni;PAPUA BARAT;98364;Indonesia;82244443838;-2.094.909;1.336.478.193;https://maps.google.com/?cid=0x0:0x860a78b44fea4433
toko bangunan;Toko Bahan Bangunan;Toko Idaman;387C+43P, Dana Weria, Distrik Fakfak Tengah, Kabupaten Fakfak, Papua Bar. 98611;Dana Weria, Distrik Fakfak Tengah, Kabupaten Fakfak;PAPUA BARAT;98611;Indonesia;81233333193;-29.371.717;1.323.201.884;https://maps.google.com/?cid=0x0:0xb250f5bbd07b5204
toko bangunan;Toko Swalayan;"Toko  NUR ILHAM""""";VGJP+2V2, Bintuni Tim., Distrik Bintuni, Kabupaten Teluk Bintuni, Papua Bar.;Kabupaten Teluk Bintuni, Papua Bar.;PAPUA BARAT;;Indonesia;;-21.199.948;1.335.371.348;https://maps.google.com/?cid=0x0:0x497ab7d35b2e6dce
toko bangunan;Toko Swalayan;Toko Depo Bangunan;379V+Q4W, Fak Fak Selatan, Distrik Fakfak, Kabupaten Fakfak, Papua Bar. 98611;Fak Fak Selatan, Distrik Fakfak, Kabupaten Fakfak;PAPUA BARAT;98611;Indonesia;81332930235;-29.305.033;132.292.834;https://maps.google.com/?cid=0x0:0x8845a3bfe8af225c
toko bangunan;Toko Bahan Bangunan;Toko Rahayu Babo;FF52+F2R, Unnamed Road, Nusei, Babo, Kabupaten Teluk Bintuni, Papua Bar. 98363;Unnamed Road, Nusei, Babo, Kabupaten Teluk Bintuni;PAPUA BARAT;98363;Indonesia;85244200777;-25.412.733;13.345.003;https://maps.google.com/?cid=0x0:0x2d6ca9cad594f391
toko bangunan;Toko Bahan Bangunan;TOKO BANGUNAN;38G3+5PF, Fak Fak Utara, Distrik Fakfak, Kabupaten Fakfak, Papua Bar. 98651;Fak Fak Utara, Distrik Fakfak, Kabupaten Fakfak;PAPUA BARAT;98651;Indonesia;83121529512;-29.245.593;1.323.042.975;https://maps.google.com/?cid=0x0:0x3e3de1be5a573a7
toko bangunan;Toko Bahan Bangunan;Batu bata merah dua putra;SP1 RT.1, Waraitama, Kabupaten Teluk Bintuni, Papua Bar.;Kabupaten Teluk Bintuni, Papua Bar.;PAPUA BARAT;;Indonesia;85244764026;-20.818.931;1.336.794.221;https://maps.google.com/?cid=0x0:0x4b98139f4446c4a6
toko bangunan;Toko Bahan Bangunan;Toko Kayu;Jalan Tebing Sebrang, Gewerpe, Kabupaten Fakfak, Papua Bar. 98012;Gewerpe, Kabupaten Fakfak;PAPUA BARAT;98012;Indonesia;85254291018;-29.275.353;1.323.127.042;https://maps.google.com/?cid=0x0:0x4b220017b6ea9c7e
toko bangunan;Toko Bahan Bangunan;Gudang Toko Depo Bangunan;37FJ+7G5, Jl. Fakfak - Torea, Tanama, Distrik Fakfak, Kabupaten Fakfak, Papua Bar. 98614;Jl. Fakfak - Torea, Tanama, Distrik Fakfak, Kabupaten Fakfak;PAPUA BARAT;98614;Indonesia;;-29.268.666;1.322.813.702;https://maps.google.com/?cid=0x0:0x605ba6cbab94e804
toko bangunan;Komplek perumahan;Kampung Ikuf Utara;P825+PHW, Ikuf, Kec. Aitinyo Utara, Kabupaten Maybrat, Papua Bar. 98462;Ikuf, Kec. Aitinyo Utara, Kabupaten Maybrat;PAPUA BARAT;98462;Indonesia;82238129105;-12.981.251;1.323.089.429;https://maps.google.com/?cid=0x0:0xb9d02a542bef9753
toko bangunan;toko bangunan;Distrik Aitinyo;Kabupaten Maybrat, Papua Bar.;Kabupaten Maybrat, Papua Bar.;PAPUA BARAT;;Indonesia;;-14.413.734;1.323.839.209;https://maps.google.com/?cid=0x0:0xd008081240dea68f
toko bangunan;Toko Bahan Bangunan;Toko Bangunan Mega Jaya;28H4+322, Malawele, Kec. Aimas, Kabupaten Sorong, Papua Bar. 98414;Malawele, Kec. Aimas, Kabupaten Sorong;PAPUA BARAT;98414;Indonesia;81343430377;-0.9723522;1.313.050.034;https://maps.google.com/?cid=0x0:0x49ed1caab0fa6e0c
toko bangunan;toko bangunan;Toko Bangunan Sharon Papua;Unnamed Road, Fiane, Kec. Ayamaru, Kabupaten Maybrat, Papua Bar. 98462;Fiane, Kec. Ayamaru, Kabupaten Maybrat;PAPUA BARAT;98462;Indonesia;;-12.784.945;1.321.999.367;https://maps.google.com/?cid=0x0:0x282bc90a70867697
toko bangunan;Toko Bahan Bangunan;Toko bangunan abadi 2;HRGF+HG5, Waisai, Kec. Waigeo Sel., Kabupaten Raja Ampat, Papua Bar. 98482;Waisai, Kec. Waigeo Sel., Kabupaten Raja Ampat;PAPUA BARAT;98482;Indonesia;82175242539;-0.4236212;1.308.238.502;https://maps.google.com/?cid=0x0:0xb39b3321d3629975
toko bangunan;Toko Bahan Bangunan;Aneka Sarana Bangunan;Jl. Meruya Ilir Raya No.5, RT.5/RW.8, Srengseng, Kec. Kembangan, Kota Jakarta Barat, Daerah Khusus Ibukota Jakarta 11630;RT.5/RW.8, Srengseng, Kec. Kembangan, Kota Jakarta Barat;PAPUA BARAT;11630;Indonesia;215846937;-61.973.627;1.067.489.981;https://maps.google.com/?cid=0x0:0x72a7b7b86ad90b84
toko bangunan;Pemasok Bahan Bangunan;Supermarket Bangunan Abadi ( Bangunan Abadi ) Meruya;Jl. Meruya Ilir Raya No.13 3, RT.3/RW.2, Meruya Utara, Kec. Kembangan, Kota Jakarta Barat, Daerah Khusus Ibukota Jakarta 11610;RT.3/RW.2, Meruya Utara, Kec. Kembangan, Kota Jakarta Barat;PAPUA BARAT;11610;Indonesia;215856801;-61.976.477;1.067.425.118;https://maps.google.com/?cid=0x0:0x13872e6ebcfc2cac
toko bangunan;Toko Bahan Bangunan;Tb.Aneka Jaya;Jl. Srengseng Sawah No.40, RT.3/RW.9, Srengseng Sawah, Kec. Jagakarsa, Kota Jakarta Selatan, Daerah Khusus Ibukota Jakarta 12630;RT.3/RW.9, Srengseng Sawah, Kec. Jagakarsa, Kota Jakarta Selatan;PAPUA BARAT;12630;Indonesia;85219465440;-63.582.789;1.068.120.311;https://maps.google.com/?cid=0x0:0x1e2ad159dd994acd
toko bangunan;Toko Bahan Bangunan;Cahaya Bangunan;4, Jl. Meruya Ilir Raya No.82C, RT.4/RW.8, Srengseng, Kec. Kembangan, Kota Jakarta Barat, Daerah Khusus Ibukota Jakarta 11620;Jl. Meruya Ilir Raya No.82C, RT.4/RW.8, Srengseng, Kec. Kembangan, Kota Jakarta Barat;PAPUA BARAT;11620;Indonesia;215868105;-6.198.191;1.067.527.248;https://maps.google.com/?cid=0x0:0x71fab95142362a49
toko bangunan;Toko Perbaikan Ponsel;Aitinyo;H99Q+V7G, Korom, Distrik Aitinyo, Kabupaten Maybrat, Papua Bar. 98463;Korom, Distrik Aitinyo, Kabupaten Maybrat;PAPUA BARAT;98463;Indonesia;;-1.430.311;1.323.881.946;https://maps.google.com/?cid=0x0:0x1e35afd58f2401c9
toko bangunan;Toko Ponsel;Aipat kumurke;P838+529, Jitmau, Kec. Aitinyo Utara, Kabupaten Maybrat, Papua Bar.;Kabupaten Maybrat, Papua Bar.;PAPUA BARAT;;Indonesia;;-12.970.979;1.323.150.993;https://maps.google.com/?cid=0x0:0x5d2d62cd73e9232d
toko bangunan;Kantor Pemerintah;Kantor kampung korom;H99Q+V7G, Korom, Distrik Aitinyo, Kabupaten Maybrat, Papua Bar. 98463;Korom, Distrik Aitinyo, Kabupaten Maybrat;PAPUA BARAT;98463;Indonesia;;-14.304.746;1.323.873.668;https://maps.google.com/?cid=0x0:0x3d0a2e5123c9e14b
toko bangunan;Toko Bahan Bangunan;Toko bangunan abadi 2;HRGF+HG5, Waisai, Kec. Waigeo Sel., Kabupaten Raja Ampat, Papua Bar. 98482;Waisai, Kec. Waigeo Sel., Kabupaten Raja Ampat;PAPUA BARAT;98482;Indonesia;82175242539;-0.4236212;1.308.238.502;https://maps.google.com/?cid=0x0:0xb39b3321d3629975
toko bangunan;toko bangunan;Kec. Aitinyo Utara;Kabupaten Maybrat, Papua Bar.;Kabupaten Maybrat, Papua Bar.;PAPUA BARAT;;Indonesia;;-13.033.463;1.323.116.515;https://maps.google.com/?cid=0x0:0x7e6239eb7f264d46
toko bangunan;Toko Bahan Bangunan;Toko Bangunan Abadi;4862+H2G, Malaingkedi, Kec. Sorong Utara, Kota Sorong, Papua Bar. 98412;Malaingkedi, Kec. Sorong Utara, Kota Sorong;PAPUA BARAT;98412;Indonesia;81248762864;-0.8885625;1.313.000.781;https://maps.google.com/?cid=0x0:0xa4c5e3d6e0f0bf2b
toko bangunan;toko bangunan;Inti Teknik;4866+9CR, Jl. Basuki Rahmat, Klasabi, Kecamatan Sorong Manoi, Kota Sorong, Papua Bar. 98412;Jl. Basuki Rahmat, Klasabi, Kecamatan Sorong Manoi, Kota Sorong;PAPUA BARAT;98412;Indonesia;951332374;-0.8890203;1.313.110.108;https://maps.google.com/?cid=0x0:0xc26f9698d9a311bf
toko bangunan;Toko Bahan Bangunan;Toko bangunan abadi 2;HRGF+HG5, Waisai, Kec. Waigeo Sel., Kabupaten Raja Ampat, Papua Bar. 98482;Waisai, Kec. Waigeo Sel., Kabupaten Raja Ampat;PAPUA BARAT;98482;Indonesia;82175242539;-0.4236212;1.308.238.502;https://maps.google.com/?cid=0x0:0xb39b3321d3629975
toko bangunan;toko bangunan;Kec. Ayamaru;Kabupaten Maybrat, Papua Bar.;Kabupaten Maybrat, Papua Bar.;PAPUA BARAT;;Indonesia;;-12.754.068;1.321.954.691;https://maps.google.com/?cid=0x0:0x4d8a88af2189602c
toko bangunan;Toko Bahan Bangunan;Toko Bangunan Jordy;P5FW+5W9, Ayamaru, Kec. Ayamaru, Kabupaten Maybrat, Papua Bar. 98461;Ayamaru, Kec. Ayamaru, Kabupaten Maybrat;PAPUA BARAT;98461;Indonesia;;-12.768.317;1.321.973.254;https://maps.google.com/?cid=0x0:0x5d9700c95e20bcb7
toko bangunan;Toko;Toko Fratafen Jaya Bangunan;Jl. Fratafen, Fiane, Kec. Ayamaru, Kabupaten Maybrat, Papua Bar.;Kabupaten Maybrat, Papua Bar.;PAPUA BARAT;;Indonesia;81344891455;-12.930.171;1.322.477.662;https://maps.google.com/?cid=0x0:0x637ec3d664ebdaa3
toko bangunan;toko bangunan;Kec. Ayamaru;Kabupaten Maybrat, Papua Bar.;Kabupaten Maybrat, Papua Bar.;PAPUA BARAT;;Indonesia;;-12.754.068;1.321.954.691;https://maps.google.com/?cid=0x0:0x4d8a88af2189602c
toko bangunan;Toko Bahan Bangunan;Toko Bangunan Jordy;P5FW+5W9, Ayamaru, Kec. Ayamaru, Kabupaten Maybrat, Papua Bar. 98461;Ayamaru, Kec. Ayamaru, Kabupaten Maybrat;PAPUA BARAT;98461;Indonesia;;-12.768.317;1.321.973.254;https://maps.google.com/?cid=0x0:0x5d9700c95e20bcb7
toko bangunan;Toko;Toko Fratafen Jaya Bangunan;Jl. Fratafen, Fiane, Kec. Ayamaru, Kabupaten Maybrat, Papua Bar.;Kabupaten Maybrat, Papua Bar.;PAPUA BARAT;;Indonesia;81344891455;-12.930.171;1.322.477.662;https://maps.google.com/?cid=0x0:0x637ec3d664ebdaa3
toko bangunan;toko bangunan;Distrik Ayamaru Jaya;Kabupaten Maybrat, Papua Bar.;Kabupaten Maybrat, Papua Bar.;PAPUA BARAT;;Indonesia;;-1.240.888;1.321.225.897;https://maps.google.com/?cid=0x0:0x7043cae1470f6f3d
toko bangunan;Toko;Toko Fratafen Jaya Bangunan;Jl. Fratafen, Fiane, Kec. Ayamaru, Kabupaten Maybrat, Papua Bar.;Kabupaten Maybrat, Papua Bar.;PAPUA BARAT;;Indonesia;81344891455;-12.930.171;1.322.477.662;https://maps.google.com/?cid=0x0:0x637ec3d664ebdaa3
toko bangunan;Toko Bahan Bangunan;Toko Bangunan Jordy;P5FW+5W9, Ayamaru, Kec. Ayamaru, Kabupaten Maybrat, Papua Bar. 98461;Ayamaru, Kec. Ayamaru, Kabupaten Maybrat;PAPUA BARAT;98461;Indonesia;;-12.768.317;1.321.973.254;https://maps.google.com/?cid=0x0:0x5d9700c95e20bcb7
toko bangunan;Toko Bahan Bangunan;Toko Bangunan Jordy;P5FW+5W9, Ayamaru, Kec. Ayamaru, Kabupaten Maybrat, Papua Bar. 98461;Ayamaru, Kec. Ayamaru, Kabupaten Maybrat;PAPUA BARAT;98461;Indonesia;;-12.768.317;1.321.973.254;https://maps.google.com/?cid=0x0:0x5d9700c95e20bcb7
toko bangunan;toko bangunan;Distrik Ayamaru Selatan;Kabupaten Maybrat, Papua Bar.;Kabupaten Maybrat, Papua Bar.;PAPUA BARAT;;Indonesia;;-13.053.761;1.321.485.942;https://maps.google.com/?cid=0x0:0x78bc898d04ac4488
toko bangunan;Toko;Toko Fratafen Jaya Bangunan;Jl. Fratafen, Fiane, Kec. Ayamaru, Kabupaten Maybrat, Papua Bar.;Kabupaten Maybrat, Papua Bar.;PAPUA BARAT;;Indonesia;81344891455;-12.930.171;1.322.477.662;https://maps.google.com/?cid=0x0:0x637ec3d664ebdaa3
toko bangunan;toko bangunan;Distrik Ayamaru Selatan Jaya;Kabupaten Maybrat, Papua Bar.;Kabupaten Maybrat, Papua Bar.;PAPUA BARAT;;Indonesia;;-13.673.656;1.322.296.299;https://maps.google.com/?cid=0x0:0x67f2471ae23483de
toko bangunan;Toko;Toko Fratafen Jaya Bangunan;Jl. Fratafen, Fiane, Kec. Ayamaru, Kabupaten Maybrat, Papua Bar.;Kabupaten Maybrat, Papua Bar.;PAPUA BARAT;;Indonesia;81344891455;-12.930.171;1.322.477.662;https://maps.google.com/?cid=0x0:0x637ec3d664ebdaa3
toko bangunan;Toko Bahan Bangunan;Toko Bangunan Jordy;P5FW+5W9, Ayamaru, Kec. Ayamaru, Kabupaten Maybrat, Papua Bar. 98461;Ayamaru, Kec. Ayamaru, Kabupaten Maybrat;PAPUA BARAT;98461;Indonesia;;-12.768.317;1.321.973.254;https://maps.google.com/?cid=0x0:0x5d9700c95e20bcb7
toko bangunan;toko bangunan;Distrik Ayamaru Tengah;Kabupaten Maybrat, Papua Bar.;Kabupaten Maybrat, Papua Bar.;PAPUA BARAT;;Indonesia;;-12.884.148;1.322.172.648;https://maps.google.com/?cid=0x0:0xa06de0548d38d1a6
toko bangunan;Toko Bahan Bangunan;Toko Bangunan Jordy;P5FW+5W9, Ayamaru, Kec. Ayamaru, Kabupaten Maybrat, Papua Bar. 98461;Ayamaru, Kec. Ayamaru, Kabupaten Maybrat;PAPUA BARAT;98461;Indonesia;;-12.768.317;1.321.973.254;https://maps.google.com/?cid=0x0:0x5d9700c95e20bcb7
toko bangunan;Toko;Toko Fratafen Jaya Bangunan;Jl. Fratafen, Fiane, Kec. Ayamaru, Kabupaten Maybrat, Papua Bar.;Kabupaten Maybrat, Papua Bar.;PAPUA BARAT;;Indonesia;81344891455;-12.930.171;1.322.477.662;https://maps.google.com/?cid=0x0:0x637ec3d664ebdaa3
toko bangunan;toko bangunan;Kec. Ayamaru Tim.;Kabupaten Maybrat, Papua Bar.;Kabupaten Maybrat, Papua Bar.;PAPUA BARAT;;Indonesia;;-12.951.177;13.227.456;https://maps.google.com/?cid=0x0:0xb5d97283031cf050
toko bangunan;Toko;Toko Fratafen Jaya Bangunan;Jl. Fratafen, Fiane, Kec. Ayamaru, Kabupaten Maybrat, Papua Bar.;Kabupaten Maybrat, Papua Bar.;PAPUA BARAT;;Indonesia;81344891455;-12.930.171;1.322.477.662;https://maps.google.com/?cid=0x0:0x637ec3d664ebdaa3
toko bangunan;Toko Bahan Bangunan;Toko Bangunan Jordy;P5FW+5W9, Ayamaru, Kec. Ayamaru, Kabupaten Maybrat, Papua Bar. 98461;Ayamaru, Kec. Ayamaru, Kabupaten Maybrat;PAPUA BARAT;98461;Indonesia;;-12.768.317;1.321.973.254;https://maps.google.com/?cid=0x0:0x5d9700c95e20bcb7
toko bangunan;toko bangunan;Ayamaru Tim. Sel.;Kambuskato, Kabupaten Maybrat, Papua Bar.;Kabupaten Maybrat, Papua Bar.;PAPUA BARAT;;Indonesia;;-1.324.591;132.265.572;https://maps.google.com/?cid=0x0:0x2387ffcd93d6ad5b
toko bangunan;Toko Bahan Bangunan;Toko Bangunan Jordy;P5FW+5W9, Ayamaru, Kec. Ayamaru, Kabupaten Maybrat, Papua Bar. 98461;Ayamaru, Kec. Ayamaru, Kabupaten Maybrat;PAPUA BARAT;98461;Indonesia;;-12.768.317;1.321.973.254;https://maps.google.com/?cid=0x0:0x5d9700c95e20bcb7
toko bangunan;Toko;Toko Fratafen Jaya Bangunan;Jl. Fratafen, Fiane, Kec. Ayamaru, Kabupaten Maybrat, Papua Bar.;Kabupaten Maybrat, Papua Bar.;PAPUA BARAT;;Indonesia;81344891455;-12.930.171;1.322.477.662;https://maps.google.com/?cid=0x0:0x637ec3d664ebdaa3
toko bangunan;toko bangunan;Ayamaru Utara;Kabupaten Maybrat, Papua Bar.;Kabupaten Maybrat, Papua Bar.;PAPUA BARAT;;Indonesia;;-11.983.051;1.322.165.112;https://maps.google.com/?cid=0x0:0x7c47e1a7cad6e57d
toko bangunan;Toko Bahan Bangunan;Toko Bangunan Jordy;P5FW+5W9, Ayamaru, Kec. Ayamaru, Kabupaten Maybrat, Papua Bar. 98461;Ayamaru, Kec. Ayamaru, Kabupaten Maybrat;PAPUA BARAT;98461;Indonesia;;-12.768.317;1.321.973.254;https://maps.google.com/?cid=0x0:0x5d9700c95e20bcb7
toko bangunan;Toko;Toko Fratafen Jaya Bangunan;Jl. Fratafen, Fiane, Kec. Ayamaru, Kabupaten Maybrat, Papua Bar.;Kabupaten Maybrat, Papua Bar.;PAPUA BARAT;;Indonesia;81344891455;-12.930.171;1.322.477.662;https://maps.google.com/?cid=0x0:0x637ec3d664ebdaa3
toko bangunan;toko bangunan;Distrik Ayamaru Utara Timur;Kabupaten Maybrat, Papua Bar.;Kabupaten Maybrat, Papua Bar.;PAPUA BARAT;;Indonesia;;-12.541.857;1.323.121.103;https://maps.google.com/?cid=0x0:0x48dc44cac491eb66
toko bangunan;Toko Bahan Bangunan;Toko Bangunan Jordy;P5FW+5W9, Ayamaru, Kec. Ayamaru, Kabupaten Maybrat, Papua Bar. 98461;Ayamaru, Kec. Ayamaru, Kabupaten Maybrat;PAPUA BARAT;98461;Indonesia;;-12.768.317;1.321.973.254;https://maps.google.com/?cid=0x0:0x5d9700c95e20bcb7
toko bangunan;Toko;Toko Fratafen Jaya Bangunan;Jl. Fratafen, Fiane, Kec. Ayamaru, Kabupaten Maybrat, Papua Bar.;Kabupaten Maybrat, Papua Bar.;PAPUA BARAT;;Indonesia;81344891455;-12.930.171;1.322.477.662;https://maps.google.com/?cid=0x0:0x637ec3d664ebdaa3
toko bangunan;toko bangunan;Papua Bar.;;Papua Bar.;PAPUA BARAT;;Indonesia;;-13.361.154;1.331.747.162;https://maps.google.com/?cid=0x0:0x5349c1f8c5c7cb62
toko bangunan;Toko Bahan Bangunan;ANEKA BANGUNAN;Wosi, Kec. Manokwari Bar., Kabupaten Manokwari, Papua Bar. 98312;Kec. Manokwari Bar., Kabupaten Manokwari;PAPUA BARAT;98312;Indonesia;81344843001;-0.8631883;1.340.498.559;https://maps.google.com/?cid=0x0:0x3598159af16f30ea
toko bangunan;Toko Bahan Bangunan;Papua Bangunan, CV PAPUA ABADI;Jl. Basuki Rahmat No.780, Klawuyuk, Distrik Sorong Timur, Kota Sorong, Papua Bar. 98416;Klawuyuk, Distrik Sorong Timur, Kota Sorong;PAPUA BARAT;98416;Indonesia;81332017550;-0.8954087;1.313.186.922;https://maps.google.com/?cid=0x0:0x851804bc3aa7f033
toko bangunan;Toko Bahan Bangunan;Toko Bangunan Abadi;4862+H2G, Malaingkedi, Kec. Sorong Utara, Kota Sorong, Papua Bar. 98412;Malaingkedi, Kec. Sorong Utara, Kota Sorong;PAPUA BARAT;98412;Indonesia;81248762864;-0.8885625;1.313.000.781;https://maps.google.com/?cid=0x0:0xa4c5e3d6e0f0bf2b
toko bangunan;Pemasok Bahan Bangunan;Depo Makmur Manokwari;43P2+QWR, Jl. Trikora Wosi, Wosi, Kec. Manokwari Bar., Kabupaten Manokwari, Papua Bar. 98312;Jl. Trikora Wosi, Wosi, Kec. Manokwari Bar., Kabupaten Manokwari;PAPUA BARAT;98312;Indonesia;81248426402;-0.8630402;1.340.521.741;https://maps.google.com/?cid=0x0:0x387befda163fc63b
toko bangunan;Toko Bahan Bangunan;PAPUA BANGUNAN;42GX+945, Wosi, Kec. Manokwari Bar., Kabupaten Manokwari, Papua Bar. 98312;Wosi, Kec. Manokwari Bar., Kabupaten Manokwari;PAPUA BARAT;98312;Indonesia;82198055550;-0.874101;1.340.478.473;https://maps.google.com/?cid=0x0:0x2c3683b193d9430f
toko bangunan;Toko Elektronik;Toko Bangunan Sumber Baru;SP3, Aimasi, Jl. Poros, Distrik Prafi, Kabupaten Manokwari, Papua Bar. 98356;Aimasi, Jl. Poros, Distrik Prafi, Kabupaten Manokwari;PAPUA BARAT;98356;Indonesia;81234807007;-0.883667;133.820.223;https://maps.google.com/?cid=0x0:0x7475be84d164c6b6
toko bangunan;Toko Cat;Toko Bangunan Abid Sejahtera - Waisai;Jl. Jend. Sudirman No.30, Waisai, Distrik Kota Waisai, Kabupaten Raja Ampat, Papua Bar. 98482;Waisai, Distrik Kota Waisai, Kabupaten Raja Ampat;PAPUA BARAT;98482;Indonesia;82248014806;-0.4206038;1.308.216.501;https://maps.google.com/?cid=0x0:0x635cf5cb88ebe389
toko bangunan;Toko Bahan Bangunan;Toko bangunan Wahyu;Jalan poros sp3, Makbusun, Mayamuk, Kabupaten Sorong, Papua Bar.;Kabupaten Sorong, Papua Bar.;PAPUA BARAT;;Indonesia;;-10.336.478;1.312.906.018;https://maps.google.com/?cid=0x0:0x751eb97fd9838c44
toko bangunan;Toko Bahan Bangunan;Toko Idaman;387C+43P, Dana Weria, Distrik Fakfak Tengah, Kabupaten Fakfak, Papua Bar. 98611;Dana Weria, Distrik Fakfak Tengah, Kabupaten Fakfak;PAPUA BARAT;98611;Indonesia;81233333193;-29.371.717;1.323.201.884;https://maps.google.com/?cid=0x0:0xb250f5bbd07b5204
toko bangunan;Toko Bahan Bangunan;Toko Karya Abadi;WJ4X+24P, Tuasai, Distrik Bintuni, Kabupaten Teluk Bintuni, Papua Bar. 98364;Tuasai, Distrik Bintuni, Kabupaten Teluk Bintuni;PAPUA BARAT;98364;Indonesia;82244443838;-2.094.909;1.336.478.193;https://maps.google.com/?cid=0x0:0x860a78b44fea4433
toko bangunan;Toko Swalayan;Toko Depo Bangunan;379V+Q4W, Fak Fak Selatan, Distrik Fakfak, Kabupaten Fakfak, Papua Bar. 98611;Fak Fak Selatan, Distrik Fakfak, Kabupaten Fakfak;PAPUA BARAT;98611;Indonesia;81332930235;-29.305.033;132.292.834;https://maps.google.com/?cid=0x0:0x8845a3bfe8af225c
toko bangunan;Toko Bahan Bangunan;Toko Bangunan;Jl. Gn. Salju No.70, Amban, Kec. Manokwari Bar., Kabupaten Manokwari, Papua Bar. 98314;Amban, Kec. Manokwari Bar., Kabupaten Manokwari;PAPUA BARAT;98314;Indonesia;;-0.8378489;1.340.648.609;https://maps.google.com/?cid=0x0:0x39e90745f521cce
toko bangunan;Toko Bahan Bangunan;TOKO BANGUNAN , TOKO HARA II;Jl. Kakatua No.1, Klamasen, Distrik Mariat, Kabupaten Sorong, Papua Bar. 98416;Klamasen, Distrik Mariat, Kabupaten Sorong;PAPUA BARAT;98416;Indonesia;81259105399;-0.9953545;1.313.468.536;https://maps.google.com/?cid=0x0:0x51bb1160638e98ed
toko bangunan;toko bangunan;Papua Bar. 98461;Kabupaten Maybrat, Papua Bar.;Kabupaten Maybrat, Papua Bar.;PAPUA BARAT;;Indonesia;;-12.145.828;1.321.177.396;https://maps.google.com/?cid=0x0:0x150319512b004ee4
toko bangunan;Pemasok Bahan Bangunan;Toko bangunan Sumber Makmur;32CM+75G, Jl. Manokwari - Maruni, Anday, Distrik Manokwari, Kabupaten Manokwari, Papua Bar. 98315;Jl. Manokwari - Maruni, Anday, Distrik Manokwari, Kabupaten Manokwari;PAPUA BARAT;98315;Indonesia;8114846060;-0.9293075;1.340.329.487;https://maps.google.com/?cid=0x0:0xa0a85c7270dde255
toko bangunan;Toko Bahan Bangunan;Toko Sumber Makmur;42GX+258, Wosi, Kec. Manokwari Bar., Kabupaten Manokwari, Papua Bar. 98312;Wosi, Kec. Manokwari Bar., Kabupaten Manokwari;PAPUA BARAT;98312;Indonesia;8124825561;-0.8749549;1.340.479.559;https://maps.google.com/?cid=0x0:0x533cede6c4b2437d
toko bangunan;Toko Bahan Bangunan;toko bangunan TOTOMARIO;indomaret, Jl. Palmerah Barat seberang No.54, RT.1/RW.15, Palmerah, Kec. Palmerah, Kota Jakarta Barat, Daerah Khusus Ibukota Jakarta 11480;Jl. Palmerah Barat seberang No.54, RT.1/RW.15, Palmerah, Kec. Palmerah, Kota Jakarta Barat;PAPUA BARAT;11480;Indonesia;;-62.065.563;1.067.844.964;https://maps.google.com/?cid=0x0:0x7b3771f23ffe4938
toko bangunan;Toko Bahan Bangunan;Aneka Sarana Bangunan;Jl. Meruya Ilir Raya No.5, RT.5/RW.8, Srengseng, Kec. Kembangan, Kota Jakarta Barat, Daerah Khusus Ibukota Jakarta 11630;RT.5/RW.8, Srengseng, Kec. Kembangan, Kota Jakarta Barat;PAPUA BARAT;11630;Indonesia;215846937;-61.973.627;1.067.489.981;https://maps.google.com/?cid=0x0:0x72a7b7b86ad90b84
toko bangunan;Toko Bahan Bangunan;ANEKA BANGUNAN;Wosi, Kec. Manokwari Bar., Kabupaten Manokwari, Papua Bar. 98312;Kec. Manokwari Bar., Kabupaten Manokwari;PAPUA BARAT;98312;Indonesia;81344843001;-0.8631883;1.340.498.559;https://maps.google.com/?cid=0x0:0x3598159af16f30ea
toko bangunan;Toko Bahan Bangunan;PAPUA BANGUNAN;42GX+945, Wosi, Kec. Manokwari Bar., Kabupaten Manokwari, Papua Bar. 98312;Wosi, Kec. Manokwari Bar., Kabupaten Manokwari;PAPUA BARAT;98312;Indonesia;82198055550;-0.874101;1.340.478.473;https://maps.google.com/?cid=0x0:0x2c3683b193d9430f
toko bangunan;Toko Bahan Bangunan;Toko Bangunan Makmur Maju;Jl. Taqwa Mata Merah sebelah lorong bersama, Sei Selincah, Kec. Kalidoni, Kota Palembang, Sumatera Selatan 30118;Sei Selincah, Kec. Kalidoni, Kota Palembang;PAPUA BARAT;30118;Indonesia;82181777938;-29.574.004;1.048.266.377;https://maps.google.com/?cid=0x0:0x18b66dcf4a55de76
building materials;building materials;Distrik Aifat;Kabupaten Maybrat, Papua Bar.;Kabupaten Maybrat, Papua Bar.;PAPUA BARAT;;Indonesia;;-12.568.532;1.325.001.338;https://maps.google.com/?cid=0x0:0xcc3d52ba3ddd33de
building materials;Toko;Toko Fratafen Jaya Bangunan;Jl. Fratafen, Fiane, Kec. Ayamaru, Kabupaten Maybrat, Papua Bar.;Kabupaten Maybrat, Papua Bar.;PAPUA BARAT;;Indonesia;81344891455;-12.930.171;1.322.477.662;https://maps.google.com/?cid=0x0:0x637ec3d664ebdaa3
building materials;Komplek perumahan;Kampung Ikuf Utara;P825+PHW, Ikuf, Kec. Aitinyo Utara, Kabupaten Maybrat, Papua Bar. 98462;Ikuf, Kec. Aitinyo Utara, Kabupaten Maybrat;PAPUA BARAT;98462;Indonesia;82238129105;-12.981.251;1.323.089.429;https://maps.google.com/?cid=0x0:0xb9d02a542bef9753
building materials;building materials;Distrik Aifat;Kabupaten Maybrat, Papua Bar.;Kabupaten Maybrat, Papua Bar.;PAPUA BARAT;;Indonesia;;-12.568.532;1.325.001.338;https://maps.google.com/?cid=0x0:0xcc3d52ba3ddd33de
building materials;Toko;Toko Fratafen Jaya Bangunan;Jl. Fratafen, Fiane, Kec. Ayamaru, Kabupaten Maybrat, Papua Bar.;Kabupaten Maybrat, Papua Bar.;PAPUA BARAT;;Indonesia;81344891455;-12.930.171;1.322.477.662;https://maps.google.com/?cid=0x0:0x637ec3d664ebdaa3
building materials;Komplek perumahan;Kampung Ikuf Utara;P825+PHW, Ikuf, Kec. Aitinyo Utara, Kabupaten Maybrat, Papua Bar. 98462;Ikuf, Kec. Aitinyo Utara, Kabupaten Maybrat;PAPUA BARAT;98462;Indonesia;82238129105;-12.981.251;1.323.089.429;https://maps.google.com/?cid=0x0:0xb9d02a542bef9753
building materials;Toko Bahan Bangunan;Papua Bangunan, CV PAPUA ABADI;Jl. Basuki Rahmat No.780, Klawuyuk, Distrik Sorong Timur, Kota Sorong, Papua Bar. 98416;Klawuyuk, Distrik Sorong Timur, Kota Sorong;PAPUA BARAT;98416;Indonesia;81332017550;-0.8954087;1.313.186.922;https://maps.google.com/?cid=0x0:0x851804bc3aa7f033
building materials;Toko Bahan Bangunan;Toko Bangunan Abadi;4862+H2G, Malaingkedi, Kec. Sorong Utara, Kota Sorong, Papua Bar. 98412;Malaingkedi, Kec. Sorong Utara, Kota Sorong;PAPUA BARAT;98412;Indonesia;81248762864;-0.8885625;1.313.000.781;https://maps.google.com/?cid=0x0:0xa4c5e3d6e0f0bf2b
building materials;Toko Bahan Bangunan;Mega Jaya Barokah ( Jual Triplek, Mdf, Hmr, Blockmin, HPL, Lem Kuning, Hardware Interior );Depan RSI Aminah, Ruko No.E-01, Watutulis Utara, Watutulis, Kec. Prambon, Kabupaten Sidoarjo, Jawa Timur 61264;Ruko No.E-01, Watutulis Utara, Watutulis, Kec. Prambon, Kabupaten Sidoarjo;PAPUA BARAT;61264;Indonesia;8566661000;-74.405.207;1.125.722.891;https://maps.google.com/?cid=0x0:0xac40a6d9f0abf32a
building materials;building materials;Distrik Aifat Timur;Kabupaten Maybrat, Papua Bar.;Kabupaten Maybrat, Papua Bar.;PAPUA BARAT;;Indonesia;;-13.591.179;13.259.276;https://maps.google.com/?cid=0x0:0x14eac191dd6d8e2e
building materials;Toko;Toko Fratafen Jaya Bangunan;Jl. Fratafen, Fiane, Kec. Ayamaru, Kabupaten Maybrat, Papua Bar.;Kabupaten Maybrat, Papua Bar.;PAPUA BARAT;;Indonesia;81344891455;-12.930.171;1.322.477.662;https://maps.google.com/?cid=0x0:0x637ec3d664ebdaa3
building materials;Toko;Toko FITAFEN JAYA;P668+JWJ, Jl. Fratafen, Kampung Isme, Fiane, Distrik Ayamaru Tengah, Kabupaten Maybrat, Papua Bar.;Kabupaten Maybrat, Papua Bar.;PAPUA BARAT;;Indonesia;82129111112;-12.884.148;1.322.172.648;https://maps.google.com/?cid=0x0:0x9803b7caed3f9da8
building materials;Pemasok Bahan Bangunan;Distributor Triplek PT.BINTANG PLYWOOD SBY;Jl. Parengan No.13, Semawut, Balongbendo, Kec. BalongBendo, Kabupaten Sidoarjo, Jawa Timur 61263;Semawut, Balongbendo, Kec. BalongBendo, Kabupaten Sidoarjo;PAPUA BARAT;61263;Indonesia;811515274;-74.115.767;1.125.508.567;https://maps.google.com/?cid=0x0:0x7af51e4ea633610c
building materials;Toko Bahan Bangunan;Toko Bangunan Abadi;4862+H2G, Malaingkedi, Kec. Sorong Utara, Kota Sorong, Papua Bar. 98412;Malaingkedi, Kec. Sorong Utara, Kota Sorong;PAPUA BARAT;98412;Indonesia;81248762864;-0.8885625;1.313.000.781;https://maps.google.com/?cid=0x0:0xa4c5e3d6e0f0bf2b
building materials;Toko Bahan Bangunan;Papua Bangunan, CV PAPUA ABADI;Jl. Basuki Rahmat No.780, Klawuyuk, Distrik Sorong Timur, Kota Sorong, Papua Bar. 98416;Klawuyuk, Distrik Sorong Timur, Kota Sorong;PAPUA BARAT;98416;Indonesia;81332017550;-0.8954087;1.313.186.922;https://maps.google.com/?cid=0x0:0x851804bc3aa7f033
building materials;building materials;Distrik Aifat Timur;Kabupaten Maybrat, Papua Bar.;Kabupaten Maybrat, Papua Bar.;PAPUA BARAT;;Indonesia;;-13.591.179;13.259.276;https://maps.google.com/?cid=0x0:0x14eac191dd6d8e2e
building materials;building materials;Distrik Aifat Timur;Kabupaten Maybrat, Papua Bar.;Kabupaten Maybrat, Papua Bar.;PAPUA BARAT;;Indonesia;;-13.591.179;13.259.276;https://maps.google.com/?cid=0x0:0x14eac191dd6d8e2e
building materials;Toko;Toko Fratafen Jaya Bangunan;Jl. Fratafen, Fiane, Kec. Ayamaru, Kabupaten Maybrat, Papua Bar.;Kabupaten Maybrat, Papua Bar.;PAPUA BARAT;;Indonesia;81344891455;-12.930.171;1.322.477.662;https://maps.google.com/?cid=0x0:0x637ec3d664ebdaa3
building materials;Toko;Toko FITAFEN JAYA;P668+JWJ, Jl. Fratafen, Kampung Isme, Fiane, Distrik Ayamaru Tengah, Kabupaten Maybrat, Papua Bar.;Kabupaten Maybrat, Papua Bar.;PAPUA BARAT;;Indonesia;82129111112;-12.884.148;1.322.172.648;https://maps.google.com/?cid=0x0:0x9803b7caed3f9da8
building materials;building materials;Distrik Aifat Selatan;Kabupaten Maybrat, Papua Bar.;Kabupaten Maybrat, Papua Bar.;PAPUA BARAT;;Indonesia;;-14.185.595;1.325.043.916;https://maps.google.com/?cid=0x0:0x5390da174ca5ef27
building materials;building materials;Distrik Aifat Utara;Kabupaten Maybrat, Papua Bar.;Kabupaten Maybrat, Papua Bar.;PAPUA BARAT;;Indonesia;;-11.588.544;1.324.643.784;https://maps.google.com/?cid=0x0:0x7ec0d9546b1ece9c
building materials;Toko Bahan Bangunan;Papua Bangunan, CV PAPUA ABADI;Jl. Basuki Rahmat No.780, Klawuyuk, Distrik Sorong Timur, Kota Sorong, Papua Bar. 98416;Klawuyuk, Distrik Sorong Timur, Kota Sorong;PAPUA BARAT;98416;Indonesia;81332017550;-0.8954087;1.313.186.922;https://maps.google.com/?cid=0x0:0x851804bc3aa7f033
building materials;Toko Bahan Bangunan;NASYA BANGUNAN;X8M9+469, Jl. Nusa Indah, Mariyai, Distrik Mariat, Kabupaten Sorong, Papua Bar. 98415;Jl. Nusa Indah, Mariyai, Distrik Mariat, Kabupaten Sorong;PAPUA BARAT;98415;Indonesia;;-10.172.176;1.313.181.156;https://maps.google.com/?cid=0x0:0x19e47aadec85996d
building materials;Komplek perumahan;Kampung Ikuf Utara;P825+PHW, Ikuf, Kec. Aitinyo Utara, Kabupaten Maybrat, Papua Bar. 98462;Ikuf, Kec. Aitinyo Utara, Kabupaten Maybrat;PAPUA BARAT;98462;Indonesia;82238129105;-12.981.251;1.323.089.429;https://maps.google.com/?cid=0x0:0xb9d02a542bef9753
building materials;Toko Perlengkapan Rumah;North IKUF;P842+JRQ, Jl. Kambretu, Ikuf, utara, Kabupaten Maybrat, Papua Bar. 98462;Jl. Kambretu, Ikuf, utara, Kabupaten Maybrat;PAPUA BARAT;98462;Indonesia;;-1.293.418;1.323.021.011;https://maps.google.com/?cid=0x0:0x99a5465bf564c8d5
building materials;Balai masyarakat;SEKRETARIAT P4MD KAB.MAYBRAT;P825+PHW, Ikuf, Kec. Aitinyo Utara, Kabupaten Maybrat, Papua Bar. 98462;Ikuf, Kec. Aitinyo Utara, Kabupaten Maybrat;PAPUA BARAT;98462;Indonesia;;-12.981.251;1.323.089.429;https://maps.google.com/?cid=0x0:0x215f5fce31dd8202
building materials;building materials;Distrik Aitinyo;Kabupaten Maybrat, Papua Bar.;Kabupaten Maybrat, Papua Bar.;PAPUA BARAT;;Indonesia;;-14.413.734;1.323.839.209;https://maps.google.com/?cid=0x0:0xd008081240dea68f
building materials;Toko Bahan Bangunan;Depo Bangunan Mbanyu Mili;3VQM+2GP depan balai kampung sp 2, Prafi Mulia, Distrik Prafi, Kabupaten Manokwari, Papua Bar. 98356;Prafi Mulia, Distrik Prafi, Kabupaten Manokwari;PAPUA BARAT;98356;Indonesia;85254126242;-0.9124191;1.338.838.245;https://maps.google.com/?cid=0x0:0x72bb281db456c91a
building materials;Toko Bahan Bangunan;Papua Bangunan, CV PAPUA ABADI;Jl. Basuki Rahmat No.780, Klawuyuk, Distrik Sorong Timur, Kota Sorong, Papua Bar. 98416;Klawuyuk, Distrik Sorong Timur, Kota Sorong;PAPUA BARAT;98416;Indonesia;81332017550;-0.8954087;1.313.186.922;https://maps.google.com/?cid=0x0:0x851804bc3aa7f033
building materials;Toko Perlengkapan Rumah;North IKUF;P842+JRQ, Jl. Kambretu, Ikuf, utara, Kabupaten Maybrat, Papua Bar. 98462;Jl. Kambretu, Ikuf, utara, Kabupaten Maybrat;PAPUA BARAT;98462;Indonesia;;-1.293.418;1.323.021.011;https://maps.google.com/?cid=0x0:0x99a5465bf564c8d5
building materials;Balai masyarakat;SEKRETARIAT P4MD KAB.MAYBRAT;P825+PHW, Ikuf, Kec. Aitinyo Utara, Kabupaten Maybrat, Papua Bar. 98462;Ikuf, Kec. Aitinyo Utara, Kabupaten Maybrat;PAPUA BARAT;98462;Indonesia;;-12.981.251;1.323.089.429;https://maps.google.com/?cid=0x0:0x215f5fce31dd8202
building materials;Kantor Perusahaan;AKS Jakarta;Jl. Muara Baru No. 3 A-B-C Pluit, Penjaringan Jalan Gedong Panjang RT.10/RW.1, RT.10/RW.1, Penjaringan, Kec. Penjaringan, Jkt Utara, Daerah Khusus Ibukota Jakarta 14440;Penjaringan Jalan Gedong Panjang RT.10/RW.1, RT.10/RW.1, Penjaringan, Kec. Penjaringan, Jkt Utara;PAPUA BARAT;14440;Indonesia;216623030;-61.256.287;1.068.037.244;https://maps.google.com/?cid=0x0:0x27a0181ada28c389
building materials;Toko;PT. AKS TOOLS;Jl. Pluit Raya No.1A-B, RT.21/RW.7, Penjaringan, Kec. Penjaringan, Jkt Utara, Daerah Khusus Ibukota Jakarta 14440;RT.21/RW.7, Penjaringan, Kec. Penjaringan, Jkt Utara;PAPUA BARAT;14440;Indonesia;216612121;-61.271.097;1.068.040.025;https://maps.google.com/?cid=0x0:0xc909d75d5d93dae8
building materials;Toko Bahan Bangunan;Toko Bangunan Abadi;4862+H2G, Malaingkedi, Kec. Sorong Utara, Kota Sorong, Papua Bar. 98412;Malaingkedi, Kec. Sorong Utara, Kota Sorong;PAPUA BARAT;98412;Indonesia;81248762864;-0.8885625;1.313.000.781;https://maps.google.com/?cid=0x0:0xa4c5e3d6e0f0bf2b
building materials;Toko Bahan Bangunan;Papua Bangunan, CV PAPUA ABADI;Jl. Basuki Rahmat No.780, Klawuyuk, Distrik Sorong Timur, Kota Sorong, Papua Bar. 98416;Klawuyuk, Distrik Sorong Timur, Kota Sorong;PAPUA BARAT;98416;Indonesia;81332017550;-0.8954087;1.313.186.922;https://maps.google.com/?cid=0x0:0x851804bc3aa7f033
building materials;Kelompok Bermain;Itigah;F8F6+47H, Unnamed Road, Kamro, Aitinyo Barat/Athabu, Kabupaten Maybrat, Papua Bar. 98462;Unnamed Road, Kamro, Aitinyo Barat/Athabu, Kabupaten Maybrat;PAPUA BARAT;98462;Indonesia;;-15.272;13.231.073;https://maps.google.com/?cid=0x0:0x1f6b3a8db2debe0
building materials;Sekolah Dasar;Hosyoata;J7FR+93M, Unnamed Road, Kambufatem Utara, Aitinyo Barat/Athabu, Kabupaten Maybrat, Papua Bar. 98462;Unnamed Road, Kambufatem Utara, Aitinyo Barat/Athabu, Kabupaten Maybrat;PAPUA BARAT;98462;Indonesia;;-137.654;13.229.016;https://maps.google.com/?cid=0x0:0xa145bf5403abb234
building materials;building materials;Distrik Aitinyo;Kabupaten Maybrat, Papua Bar.;Kabupaten Maybrat, Papua Bar.;PAPUA BARAT;;Indonesia;;-14.413.734;1.323.839.209;https://maps.google.com/?cid=0x0:0xd008081240dea68f
building materials;Komplek perumahan;Kampung Ikuf Utara;P825+PHW, Ikuf, Kec. Aitinyo Utara, Kabupaten Maybrat, Papua Bar. 98462;Ikuf, Kec. Aitinyo Utara, Kabupaten Maybrat;PAPUA BARAT;98462;Indonesia;82238129105;-12.981.251;1.323.089.429;https://maps.google.com/?cid=0x0:0xb9d02a542bef9753
building materials;Balai masyarakat;SEKRETARIAT P4MD KAB.MAYBRAT;P825+PHW, Ikuf, Kec. Aitinyo Utara, Kabupaten Maybrat, Papua Bar. 98462;Ikuf, Kec. Aitinyo Utara, Kabupaten Maybrat;PAPUA BARAT;98462;Indonesia;;-12.981.251;1.323.089.429;https://maps.google.com/?cid=0x0:0x215f5fce31dd8202
building materials;Toko Perlengkapan Rumah;North IKUF;P842+JRQ, Jl. Kambretu, Ikuf, utara, Kabupaten Maybrat, Papua Bar. 98462;Jl. Kambretu, Ikuf, utara, Kabupaten Maybrat;PAPUA BARAT;98462;Indonesia;;-1.293.418;1.323.021.011;https://maps.google.com/?cid=0x0:0x99a5465bf564c8d5
building materials;Toko Bahan Bangunan;Toko Bangunan Jordy;P5FW+5W9, Ayamaru, Kec. Ayamaru, Kabupaten Maybrat, Papua Bar. 98461;Ayamaru, Kec. Ayamaru, Kabupaten Maybrat;PAPUA BARAT;98461;Indonesia;;-12.768.317;1.321.973.254;https://maps.google.com/?cid=0x0:0x5d9700c95e20bcb7
building materials;Toko;Toko Fratafen Jaya Bangunan;Jl. Fratafen, Fiane, Kec. Ayamaru, Kabupaten Maybrat, Papua Bar.;Kabupaten Maybrat, Papua Bar.;PAPUA BARAT;;Indonesia;81344891455;-12.930.171;1.322.477.662;https://maps.google.com/?cid=0x0:0x637ec3d664ebdaa3
building materials;Toko Bahan Bangunan;Toko Bangunan Jordy;P5FW+5W9, Ayamaru, Kec. Ayamaru, Kabupaten Maybrat, Papua Bar. 98461;Ayamaru, Kec. Ayamaru, Kabupaten Maybrat;PAPUA BARAT;98461;Indonesia;;-12.768.317;1.321.973.254;https://maps.google.com/?cid=0x0:0x5d9700c95e20bcb7
building materials;Toko;Toko Fratafen Jaya Bangunan;Jl. Fratafen, Fiane, Kec. Ayamaru, Kabupaten Maybrat, Papua Bar.;Kabupaten Maybrat, Papua Bar.;PAPUA BARAT;;Indonesia;81344891455;-12.930.171;1.322.477.662;https://maps.google.com/?cid=0x0:0x637ec3d664ebdaa3
building materials;building materials;Distrik Ayamaru Jaya;Kabupaten Maybrat, Papua Bar.;Kabupaten Maybrat, Papua Bar.;PAPUA BARAT;;Indonesia;;-1.240.888;1.321.225.897;https://maps.google.com/?cid=0x0:0x7043cae1470f6f3d
building materials;Toko Bahan Bangunan;Toko Bangunan Jordy;P5FW+5W9, Ayamaru, Kec. Ayamaru, Kabupaten Maybrat, Papua Bar. 98461;Ayamaru, Kec. Ayamaru, Kabupaten Maybrat;PAPUA BARAT;98461;Indonesia;;-12.768.317;1.321.973.254;https://maps.google.com/?cid=0x0:0x5d9700c95e20bcb7
building materials;Toko Bahan Bangunan;Papua Bangunan, CV PAPUA ABADI;Jl. Basuki Rahmat No.780, Klawuyuk, Distrik Sorong Timur, Kota Sorong, Papua Bar. 98416;Klawuyuk, Distrik Sorong Timur, Kota Sorong;PAPUA BARAT;98416;Indonesia;81332017550;-0.8954087;1.313.186.922;https://maps.google.com/?cid=0x0:0x851804bc3aa7f033
building materials;Toko;Toko Fratafen Jaya Bangunan;Jl. Fratafen, Fiane, Kec. Ayamaru, Kabupaten Maybrat, Papua Bar.;Kabupaten Maybrat, Papua Bar.;PAPUA BARAT;;Indonesia;81344891455;-12.930.171;1.322.477.662;https://maps.google.com/?cid=0x0:0x637ec3d664ebdaa3
building materials;Toko Bahan Bangunan;toko bangunan Yep'Mum;4Q38+6C4, Jl. Garuda, Arso Kota, Kec. Arso, Kabupaten Keerom, Papua 99468;Jl. Garuda, Arso Kota, Kec. Arso, Kabupaten Keerom;PAPUA BARAT;99468;Indonesia;85244664394;-28.970.308;1.407.661.616;https://maps.google.com/?cid=0x0:0x9649c22840d7e67e
building materials;building materials;Toko Artajaya Bangunan (AJB);Jl Protokol, Koya Bar., Kec. Muara Tami, Kota Jayapura, Papua;Kota Jayapura, Papua;PAPUA BARAT;;Indonesia;;-26.598.126;1.408.048.505;https://maps.google.com/?cid=0x0:0xbfefccb7ae22a578
building materials;building materials;Distrik Ayamaru Selatan;Kabupaten Maybrat, Papua Bar.;Kabupaten Maybrat, Papua Bar.;PAPUA BARAT;;Indonesia;;-13.053.761;1.321.485.942;https://maps.google.com/?cid=0x0:0x78bc898d04ac4488
building materials;Toko Bahan Bangunan;Toko Bangunan Jordy;P5FW+5W9, Ayamaru, Kec. Ayamaru, Kabupaten Maybrat, Papua Bar. 98461;Ayamaru, Kec. Ayamaru, Kabupaten Maybrat;PAPUA BARAT;98461;Indonesia;;-12.768.317;1.321.973.254;https://maps.google.com/?cid=0x0:0x5d9700c95e20bcb7
building materials;Toko;Toko Fratafen Jaya Bangunan;Jl. Fratafen, Fiane, Kec. Ayamaru, Kabupaten Maybrat, Papua Bar.;Kabupaten Maybrat, Papua Bar.;PAPUA BARAT;;Indonesia;81344891455;-12.930.171;1.322.477.662;https://maps.google.com/?cid=0x0:0x637ec3d664ebdaa3
building materials;Toko Bahan Bangunan;Toko Bangunan Jordy;P5FW+5W9, Ayamaru, Kec. Ayamaru, Kabupaten Maybrat, Papua Bar. 98461;Ayamaru, Kec. Ayamaru, Kabupaten Maybrat;PAPUA BARAT;98461;Indonesia;;-12.768.317;1.321.973.254;https://maps.google.com/?cid=0x0:0x5d9700c95e20bcb7
building materials;Toko;Toko Fratafen Jaya Bangunan;Jl. Fratafen, Fiane, Kec. Ayamaru, Kabupaten Maybrat, Papua Bar.;Kabupaten Maybrat, Papua Bar.;PAPUA BARAT;;Indonesia;81344891455;-12.930.171;1.322.477.662;https://maps.google.com/?cid=0x0:0x637ec3d664ebdaa3
building materials;building materials;Distrik Ayamaru Selatan Jaya;Kabupaten Maybrat, Papua Bar.;Kabupaten Maybrat, Papua Bar.;PAPUA BARAT;;Indonesia;;-13.673.656;1.322.296.299;https://maps.google.com/?cid=0x0:0x67f2471ae23483de
building materials;building materials;Distrik Ayamaru Tengah;Kabupaten Maybrat, Papua Bar.;Kabupaten Maybrat, Papua Bar.;PAPUA BARAT;;Indonesia;;-12.884.148;1.322.172.648;https://maps.google.com/?cid=0x0:0xa06de0548d38d1a6
building materials;Toko;Toko Fratafen Jaya Bangunan;Jl. Fratafen, Fiane, Kec. Ayamaru, Kabupaten Maybrat, Papua Bar.;Kabupaten Maybrat, Papua Bar.;PAPUA BARAT;;Indonesia;81344891455;-12.930.171;1.322.477.662;https://maps.google.com/?cid=0x0:0x637ec3d664ebdaa3
building materials;Toko Bahan Bangunan;Toko Bangunan Jordy;P5FW+5W9, Ayamaru, Kec. Ayamaru, Kabupaten Maybrat, Papua Bar. 98461;Ayamaru, Kec. Ayamaru, Kabupaten Maybrat;PAPUA BARAT;98461;Indonesia;;-12.768.317;1.321.973.254;https://maps.google.com/?cid=0x0:0x5d9700c95e20bcb7
building materials;Toko;Toko Fratafen Jaya Bangunan;Jl. Fratafen, Fiane, Kec. Ayamaru, Kabupaten Maybrat, Papua Bar.;Kabupaten Maybrat, Papua Bar.;PAPUA BARAT;;Indonesia;81344891455;-12.930.171;1.322.477.662;https://maps.google.com/?cid=0x0:0x637ec3d664ebdaa3
building materials;Toko Bahan Bangunan;Toko Bangunan Jordy;P5FW+5W9, Ayamaru, Kec. Ayamaru, Kabupaten Maybrat, Papua Bar. 98461;Ayamaru, Kec. Ayamaru, Kabupaten Maybrat;PAPUA BARAT;98461;Indonesia;;-12.768.317;1.321.973.254;https://maps.google.com/?cid=0x0:0x5d9700c95e20bcb7
building materials;building materials;Kec. Ayamaru Tim.;Kabupaten Maybrat, Papua Bar.;Kabupaten Maybrat, Papua Bar.;PAPUA BARAT;;Indonesia;;-12.951.177;13.227.456;https://maps.google.com/?cid=0x0:0xb5d97283031cf050
building materials;Toko Bahan Bangunan;Toko Bangunan Jordy;P5FW+5W9, Ayamaru, Kec. Ayamaru, Kabupaten Maybrat, Papua Bar. 98461;Ayamaru, Kec. Ayamaru, Kabupaten Maybrat;PAPUA BARAT;98461;Indonesia;;-12.768.317;1.321.973.254;https://maps.google.com/?cid=0x0:0x5d9700c95e20bcb7
building materials;Toko;Toko Fratafen Jaya Bangunan;Jl. Fratafen, Fiane, Kec. Ayamaru, Kabupaten Maybrat, Papua Bar.;Kabupaten Maybrat, Papua Bar.;PAPUA BARAT;;Indonesia;81344891455;-12.930.171;1.322.477.662;https://maps.google.com/?cid=0x0:0x637ec3d664ebdaa3
building materials;building materials;Ayamaru Utara;Kabupaten Maybrat, Papua Bar.;Kabupaten Maybrat, Papua Bar.;PAPUA BARAT;;Indonesia;;-11.983.051;1.322.165.112;https://maps.google.com/?cid=0x0:0x7c47e1a7cad6e57d
building materials;Toko;Toko Fratafen Jaya Bangunan;Jl. Fratafen, Fiane, Kec. Ayamaru, Kabupaten Maybrat, Papua Bar.;Kabupaten Maybrat, Papua Bar.;PAPUA BARAT;;Indonesia;81344891455;-12.930.171;1.322.477.662;https://maps.google.com/?cid=0x0:0x637ec3d664ebdaa3
building materials;Toko Bahan Bangunan;Toko Bangunan Jordy;P5FW+5W9, Ayamaru, Kec. Ayamaru, Kabupaten Maybrat, Papua Bar. 98461;Ayamaru, Kec. Ayamaru, Kabupaten Maybrat;PAPUA BARAT;98461;Indonesia;;-12.768.317;1.321.973.254;https://maps.google.com/?cid=0x0:0x5d9700c95e20bcb7
building materials;Toko Bahan Bangunan;Toko Bangunan Jordy;P5FW+5W9, Ayamaru, Kec. Ayamaru, Kabupaten Maybrat, Papua Bar. 98461;Ayamaru, Kec. Ayamaru, Kabupaten Maybrat;PAPUA BARAT;98461;Indonesia;;-12.768.317;1.321.973.254;https://maps.google.com/?cid=0x0:0x5d9700c95e20bcb7
building materials;Toko;Toko Fratafen Jaya Bangunan;Jl. Fratafen, Fiane, Kec. Ayamaru, Kabupaten Maybrat, Papua Bar.;Kabupaten Maybrat, Papua Bar.;PAPUA BARAT;;Indonesia;81344891455;-12.930.171;1.322.477.662;https://maps.google.com/?cid=0x0:0x637ec3d664ebdaa3
building materials;Toko Bahan Bangunan;Depo Bangunan Mbanyu Mili;3VQM+2GP depan balai kampung sp 2, Prafi Mulia, Distrik Prafi, Kabupaten Manokwari, Papua Bar. 98356;Prafi Mulia, Distrik Prafi, Kabupaten Manokwari;PAPUA BARAT;98356;Indonesia;85254126242;-0.9124191;1.338.838.245;https://maps.google.com/?cid=0x0:0x72bb281db456c91a
building materials;building materials;Papua Bar.;;Papua Bar.;PAPUA BARAT;;Indonesia;;-13.361.154;1.331.747.162;https://maps.google.com/?cid=0x0:0x5349c1f8c5c7cb62
building materials;Toko Bahan Bangunan;PAPUA BANGUNAN;42GX+945, Wosi, Kec. Manokwari Bar., Kabupaten Manokwari, Papua Bar. 98312;Wosi, Kec. Manokwari Bar., Kabupaten Manokwari;PAPUA BARAT;98312;Indonesia;82198055550;-0.874101;1.340.478.473;https://maps.google.com/?cid=0x0:0x2c3683b193d9430f
building materials;Toko Bahan Bangunan;NASYA BANGUNAN;X8M9+469, Jl. Nusa Indah, Mariyai, Distrik Mariat, Kabupaten Sorong, Papua Bar. 98415;Jl. Nusa Indah, Mariyai, Distrik Mariat, Kabupaten Sorong;PAPUA BARAT;98415;Indonesia;;-10.172.176;1.313.181.156;https://maps.google.com/?cid=0x0:0x19e47aadec85996d
building materials;Toko Elektronik;Toko Bangunan Sumber Baru;SP3, Aimasi, Jl. Poros, Distrik Prafi, Kabupaten Manokwari, Papua Bar. 98356;Aimasi, Jl. Poros, Distrik Prafi, Kabupaten Manokwari;PAPUA BARAT;98356;Indonesia;81234807007;-0.883667;133.820.223;https://maps.google.com/?cid=0x0:0x7475be84d164c6b6
building materials;Toko Bahan Bangunan;Okabe Gallery Alam Sutera;QM66+Q46, Jalur Sutera No.32A, Pakualam, Kec. Serpong Utara, Kota Tangerang Selatan, Banten 15320;Jalur Sutera No.32A, Pakualam, Kec. Serpong Utara, Kota Tangerang Selatan;PAPUA BARAT;15320;Indonesia;82118888519;-62.381.706;1.066.605.396;https://maps.google.com/?cid=0x0:0x685a953a8450fdbb
building materials;Toko Bahan Bangunan;Toko Bahan Bangunan PD Kuda Mas;Jl. KH. Agus Salim No.99, Bekasi Jaya, Kec. Bekasi Tim., Kota Bks, Jawa Barat 17112;Bekasi Jaya, Kec. Bekasi Tim., Kota Bks;PAPUA BARAT;17112;Indonesia;218815148;-62.242.892;1.070.220.326;https://maps.google.com/?cid=0x0:0xc2c73dac76c8f6d0
building materials;Pemasok mebel sesuai pesanan;Okabe Hardware Indonesia;Jalur Sutera No.32A, Pakualam, Kec. Serpong Utara, Kota Tangerang Selatan, Banten 15320;Pakualam, Kec. Serpong Utara, Kota Tangerang Selatan;PAPUA BARAT;15320;Indonesia;2122352581;-62.382.287;1.066.604.917;https://maps.google.com/?cid=0x0:0x4be4305755e361e8
building materials;Pemasok Bahan Bangunan;Depo Makmur Manokwari;43P2+QWR, Jl. Trikora Wosi, Wosi, Kec. Manokwari Bar., Kabupaten Manokwari, Papua Bar. 98312;Jl. Trikora Wosi, Wosi, Kec. Manokwari Bar., Kabupaten Manokwari;PAPUA BARAT;98312;Indonesia;81248426402;-0.8630402;1.340.521.741;https://maps.google.com/?cid=0x0:0x387befda163fc63b
building materials;building materials;Papua Bar. 98461;Kabupaten Maybrat, Papua Bar.;Kabupaten Maybrat, Papua Bar.;PAPUA BARAT;;Indonesia;;-12.145.828;1.321.177.396;https://maps.google.com/?cid=0x0:0x150319512b004ee4
building materials;Toko Bahan Bangunan;Depo Bangunan Mbanyu Mili;3VQM+2GP depan balai kampung sp 2, Prafi Mulia, Distrik Prafi, Kabupaten Manokwari, Papua Bar. 98356;Prafi Mulia, Distrik Prafi, Kabupaten Manokwari;PAPUA BARAT;98356;Indonesia;85254126242;-0.9124191;1.338.838.245;https://maps.google.com/?cid=0x0:0x72bb281db456c91a
building materials;Toko Bahan Bangunan;PAPUA BANGUNAN;42GX+945, Wosi, Kec. Manokwari Bar., Kabupaten Manokwari, Papua Bar. 98312;Wosi, Kec. Manokwari Bar., Kabupaten Manokwari;PAPUA BARAT;98312;Indonesia;82198055550;-0.874101;1.340.478.473;https://maps.google.com/?cid=0x0:0x2c3683b193d9430f
building materials;Toko Bahan Bangunan;Royal Bangunan (PT. Papua Jaya Bangunan);43P8+87R, Jl. Percetakan Negara, Sanggeng, Kec. Manokwari Bar., Kabupaten Manokwari, Papua Bar. 98312;Jl. Percetakan Negara, Sanggeng, Kec. Manokwari Bar., Kabupaten Manokwari;PAPUA BARAT;98312;Indonesia;87784554955;-0.8641385;1.340.656.252;https://maps.google.com/?cid=0x0:0x99b3b4ac0bad58a
building materials;Toko Elektronik;Toko Bangunan Sumber Baru;SP3, Aimasi, Jl. Poros, Distrik Prafi, Kabupaten Manokwari, Papua Bar. 98356;Aimasi, Jl. Poros, Distrik Prafi, Kabupaten Manokwari;PAPUA BARAT;98356;Indonesia;81234807007;-0.883667;133.820.223;https://maps.google.com/?cid=0x0:0x7475be84d164c6b6
building materials;Toko Bahan Bangunan;MEKAR UTAMA;42PX+G48, Wosi, Kec. Manokwari Bar., Kabupaten Manokwari, Papua Bar. 98312;Wosi, Kec. Manokwari Bar., Kabupaten Manokwari;PAPUA BARAT;98312;Indonesia;;-0.8637053;1.340.478.389;https://maps.google.com/?cid=0x0:0x77a6f53c3f6b970c
building materials;Toko Bahan Bangunan;Wapoga Mutiara Timber. PT;43MJ+WXW, Manokwari Tim., Kec. Manokwari Bar., Kabupaten Manokwari, Papua Bar. 98312;Manokwari Tim., Kec. Manokwari Bar., Kabupaten Manokwari;PAPUA BARAT;98312;Indonesia;962211770;-0.86514;134.082.441;https://maps.google.com/?cid=0x0:0x23cc3c5246cb2c52
building materials;Toko Bahan Bangunan;Cabang Buana Karya Group;427W+3FJ, Jl. Drs Esau Sesa, Sowi, Distrik Manokwari, Kabupaten Manokwari, Papua Bar. 98315;Jl. Drs Esau Sesa, Sowi, Distrik Manokwari, Kabupaten Manokwari;PAPUA BARAT;98315;Indonesia;;-0.8872785;1.340.461.277;https://maps.google.com/?cid=0x0:0xd5ae321c41153a59
building materials;Toko Bahan Bangunan;Toko Bangunan Abadi;4862+H2G, Malaingkedi, Kec. Sorong Utara, Kota Sorong, Papua Bar. 98412;Malaingkedi, Kec. Sorong Utara, Kota Sorong;PAPUA BARAT;98412;Indonesia;81248762864;-0.8885625;1.313.000.781;https://maps.google.com/?cid=0x0:0xa4c5e3d6e0f0bf2b
building materials;Toko Bahan Bangunan;Papua Bangunan, CV PAPUA ABADI;Jl. Basuki Rahmat No.780, Klawuyuk, Distrik Sorong Timur, Kota Sorong, Papua Bar. 98416;Klawuyuk, Distrik Sorong Timur, Kota Sorong;PAPUA BARAT;98416;Indonesia;81332017550;-0.8954087;1.313.186.922;https://maps.google.com/?cid=0x0:0x851804bc3aa7f033
building materials;building materials;Papua Bar. 98461;Kabupaten Maybrat, Papua Bar.;Kabupaten Maybrat, Papua Bar.;PAPUA BARAT;;Indonesia;;-12.145.828;1.321.177.396;https://maps.google.com/?cid=0x0:0x150319512b004ee4
building materials;Gudang;Pabrik Wood Pellet;J3FP+HP8, Jl. Tegal Tangkil, Jayasampurna, Kec. Serang Baru, Kabupaten Bekasi, Jawa Barat 17330;Jl. Tegal Tangkil, Jayasampurna, Kec. Serang Baru, Kabupaten Bekasi;PAPUA BARAT;17330;Indonesia;87779183654;-63.754.225;1.070.871.483;https://maps.google.com/?cid=0x0:0xae5ddd662b3d9fac
hardware store;hardware store;Distrik Aifat;Kabupaten Maybrat, Papua Bar.;Kabupaten Maybrat, Papua Bar.;PAPUA BARAT;;Indonesia;;-12.568.532;1.325.001.338;https://maps.google.com/?cid=0x0:0xcc3d52ba3ddd33de
hardware store;Toko;Toko Fratafen Jaya Bangunan;Jl. Fratafen, Fiane, Kec. Ayamaru, Kabupaten Maybrat, Papua Bar.;Kabupaten Maybrat, Papua Bar.;PAPUA BARAT;;Indonesia;81344891455;-12.930.171;1.322.477.662;https://maps.google.com/?cid=0x0:0x637ec3d664ebdaa3
hardware store;Komplek perumahan;Kampung Ikuf Utara;P825+PHW, Ikuf, Kec. Aitinyo Utara, Kabupaten Maybrat, Papua Bar. 98462;Ikuf, Kec. Aitinyo Utara, Kabupaten Maybrat;PAPUA BARAT;98462;Indonesia;82238129105;-12.981.251;1.323.089.429;https://maps.google.com/?cid=0x0:0xb9d02a542bef9753
hardware store;Komplek perumahan;Kampung Ikuf Utara;P825+PHW, Ikuf, Kec. Aitinyo Utara, Kabupaten Maybrat, Papua Bar. 98462;Ikuf, Kec. Aitinyo Utara, Kabupaten Maybrat;PAPUA BARAT;98462;Indonesia;82238129105;-12.981.251;1.323.089.429;https://maps.google.com/?cid=0x0:0xb9d02a542bef9753
hardware store;hardware store;Distrik Aifat;Kabupaten Maybrat, Papua Bar.;Kabupaten Maybrat, Papua Bar.;PAPUA BARAT;;Indonesia;;-12.568.532;1.325.001.338;https://maps.google.com/?cid=0x0:0xcc3d52ba3ddd33de
hardware store;Toko;Toko Fratafen Jaya Bangunan;Jl. Fratafen, Fiane, Kec. Ayamaru, Kabupaten Maybrat, Papua Bar.;Kabupaten Maybrat, Papua Bar.;PAPUA BARAT;;Indonesia;81344891455;-12.930.171;1.322.477.662;https://maps.google.com/?cid=0x0:0x637ec3d664ebdaa3
hardware store;Toko Komputer;ITECH Store Toko Hp dan Laptop;Wosi, Kec. Manokwari Bar., Kabupaten Manokwari, Papua Bar. 98312;Kec. Manokwari Bar., Kabupaten Manokwari;PAPUA BARAT;98312;Indonesia;82199456789;-0.8704944;134.046.563;https://maps.google.com/?cid=0x0:0x17481a3d85a8e169
hardware store;hardware store;Distrik Aifat Timur;Kabupaten Maybrat, Papua Bar.;Kabupaten Maybrat, Papua Bar.;PAPUA BARAT;;Indonesia;;-13.591.179;13.259.276;https://maps.google.com/?cid=0x0:0x14eac191dd6d8e2e
hardware store;Toko Bahan Bangunan;Fa Hyin Hardware Sdn Bhd;Lot 37, Taman OKK Hj Mahali, Papar, 89608 Kota Kinabalu, Sabah, Malaysia;Kota Kinabalu;PAPUA BARAT;89608;Indonesia;60168320331;57.325.406;1.159.302.293;https://maps.google.com/?cid=0x0:0xc7ebc968a09d5e
hardware store;Toko Komputer;UrbanTech Store;Anday, Distrik Manokwari, Kabupaten Manokwari, Papua Bar. 98315;Distrik Manokwari, Kabupaten Manokwari;PAPUA BARAT;98315;Indonesia;;-0.9294216;1.340.326.572;https://maps.google.com/?cid=0x0:0xa8e7825657474890
hardware store;hardware store;Distrik Aifat Timur;Kabupaten Maybrat, Papua Bar.;Kabupaten Maybrat, Papua Bar.;PAPUA BARAT;;Indonesia;;-13.591.179;13.259.276;https://maps.google.com/?cid=0x0:0x14eac191dd6d8e2e
hardware store;Toko;Toko Fratafen Jaya Bangunan;Jl. Fratafen, Fiane, Kec. Ayamaru, Kabupaten Maybrat, Papua Bar.;Kabupaten Maybrat, Papua Bar.;PAPUA BARAT;;Indonesia;81344891455;-12.930.171;1.322.477.662;https://maps.google.com/?cid=0x0:0x637ec3d664ebdaa3
hardware store;Toko;Toko FITAFEN JAYA;P668+JWJ, Jl. Fratafen, Kampung Isme, Fiane, Distrik Ayamaru Tengah, Kabupaten Maybrat, Papua Bar.;Kabupaten Maybrat, Papua Bar.;PAPUA BARAT;;Indonesia;82129111112;-12.884.148;1.322.172.648;https://maps.google.com/?cid=0x0:0x9803b7caed3f9da8
hardware store;hardware store;Distrik Aifat Timur;Kabupaten Maybrat, Papua Bar.;Kabupaten Maybrat, Papua Bar.;PAPUA BARAT;;Indonesia;;-13.591.179;13.259.276;https://maps.google.com/?cid=0x0:0x14eac191dd6d8e2e
hardware store;hardware store;MAI HARDWARE TRADING SEREMBAN;45 JALAN TTJ S/A TAMAN TUANKU JAAFAR SUNGAI GADUT, 71450 Seremban, Negeri Sembilan, Malaysia;Seremban;PAPUA BARAT;71450;Indonesia;60179450719;26.705.577;1.019.965.862;https://maps.google.com/?cid=0x0:0x20d7b163d7f111a5
hardware store;Nasi;Kios Aifat jaya;PFQ9+82V, Kumurkek, Distrik Aifat, Kabupaten Maybrat, Papua Bar. 98463;Kumurkek, Distrik Aifat, Kabupaten Maybrat;PAPUA BARAT;98463;Indonesia;;-12.616.392;1.324.675.475;https://maps.google.com/?cid=0x0:0x3275eb5a1d4dcdfe
hardware store;hardware store;Distrik Aifat Timur;Kabupaten Maybrat, Papua Bar.;Kabupaten Maybrat, Papua Bar.;PAPUA BARAT;;Indonesia;;-13.591.179;13.259.276;https://maps.google.com/?cid=0x0:0x14eac191dd6d8e2e
hardware store;hardware store;MAI HARDWARE TRADING SEREMBAN;45 JALAN TTJ S/A TAMAN TUANKU JAAFAR SUNGAI GADUT, 71450 Seremban, Negeri Sembilan, Malaysia;Seremban;PAPUA BARAT;71450;Indonesia;60179450719;26.705.577;1.019.965.862;https://maps.google.com/?cid=0x0:0x20d7b163d7f111a5
hardware store;Toko;Toko FITAFEN JAYA;P668+JWJ, Jl. Fratafen, Kampung Isme, Fiane, Distrik Ayamaru Tengah, Kabupaten Maybrat, Papua Bar.;Kabupaten Maybrat, Papua Bar.;PAPUA BARAT;;Indonesia;82129111112;-12.884.148;1.322.172.648;https://maps.google.com/?cid=0x0:0x9803b7caed3f9da8
hardware store;Toko;Toko Fratafen Jaya Bangunan;Jl. Fratafen, Fiane, Kec. Ayamaru, Kabupaten Maybrat, Papua Bar.;Kabupaten Maybrat, Papua Bar.;PAPUA BARAT;;Indonesia;81344891455;-12.930.171;1.322.477.662;https://maps.google.com/?cid=0x0:0x637ec3d664ebdaa3
hardware store;Toko Komputer;UrbanTech Store;Anday, Distrik Manokwari, Kabupaten Manokwari, Papua Bar. 98315;Distrik Manokwari, Kabupaten Manokwari;PAPUA BARAT;98315;Indonesia;;-0.9294216;1.340.326.572;https://maps.google.com/?cid=0x0:0xa8e7825657474890
hardware store;Toko Komputer;ITECH Store Toko Hp dan Laptop;Wosi, Kec. Manokwari Bar., Kabupaten Manokwari, Papua Bar. 98312;Kec. Manokwari Bar., Kabupaten Manokwari;PAPUA BARAT;98312;Indonesia;82199456789;-0.8704944;134.046.563;https://maps.google.com/?cid=0x0:0x17481a3d85a8e169
hardware store;Toko Bahan Bangunan;Yihohin Hardware Trading;No. 3-52A, Jalan Desa 2/1, Desa Aman Puri, 52100, Kepong, Kuala Lumpur, 52100, Malaysia;Desa Aman Puri,;PAPUA BARAT;52100;Indonesia;60163364803;32.104.909;1.016.163.006;https://maps.google.com/?cid=0x0:0x2dc32f4be4364c84
hardware store;hardware store;Distrik Aitinyo;Kabupaten Maybrat, Papua Bar.;Kabupaten Maybrat, Papua Bar.;PAPUA BARAT;;Indonesia;;-14.413.734;1.323.839.209;https://maps.google.com/?cid=0x0:0xd008081240dea68f
hardware store;Toko Perbaikan Ponsel;Aitinyo;H99Q+V7G, Korom, Distrik Aitinyo, Kabupaten Maybrat, Papua Bar. 98463;Korom, Distrik Aitinyo, Kabupaten Maybrat;PAPUA BARAT;98463;Indonesia;;-1.430.311;1.323.881.946;https://maps.google.com/?cid=0x0:0x1e35afd58f2401c9
hardware store;Komplek perumahan;Kampung Ikuf Utara;P825+PHW, Ikuf, Kec. Aitinyo Utara, Kabupaten Maybrat, Papua Bar. 98462;Ikuf, Kec. Aitinyo Utara, Kabupaten Maybrat;PAPUA BARAT;98462;Indonesia;82238129105;-12.981.251;1.323.089.429;https://maps.google.com/?cid=0x0:0xb9d02a542bef9753
hardware store;Balai masyarakat;SEKRETARIAT P4MD KAB.MAYBRAT;P825+PHW, Ikuf, Kec. Aitinyo Utara, Kabupaten Maybrat, Papua Bar. 98462;Ikuf, Kec. Aitinyo Utara, Kabupaten Maybrat;PAPUA BARAT;98462;Indonesia;;-12.981.251;1.323.089.429;https://maps.google.com/?cid=0x0:0x215f5fce31dd8202
hardware store;Komplek perumahan;Kampung Ikuf Utara;P825+PHW, Ikuf, Kec. Aitinyo Utara, Kabupaten Maybrat, Papua Bar. 98462;Ikuf, Kec. Aitinyo Utara, Kabupaten Maybrat;PAPUA BARAT;98462;Indonesia;82238129105;-12.981.251;1.323.089.429;https://maps.google.com/?cid=0x0:0xb9d02a542bef9753
hardware store;Toko Perlengkapan Rumah;North IKUF;P842+JRQ, Jl. Kambretu, Ikuf, utara, Kabupaten Maybrat, Papua Bar. 98462;Jl. Kambretu, Ikuf, utara, Kabupaten Maybrat;PAPUA BARAT;98462;Indonesia;;-1.293.418;1.323.021.011;https://maps.google.com/?cid=0x0:0x99a5465bf564c8d5
hardware store;Balai masyarakat;SEKRETARIAT P4MD KAB.MAYBRAT;P825+PHW, Ikuf, Kec. Aitinyo Utara, Kabupaten Maybrat, Papua Bar. 98462;Ikuf, Kec. Aitinyo Utara, Kabupaten Maybrat;PAPUA BARAT;98462;Indonesia;;-12.981.251;1.323.089.429;https://maps.google.com/?cid=0x0:0x215f5fce31dd8202
hardware store;Toko Ponsel;Aipat kumurke;P838+529, Jitmau, Kec. Aitinyo Utara, Kabupaten Maybrat, Papua Bar.;Kabupaten Maybrat, Papua Bar.;PAPUA BARAT;;Indonesia;;-12.970.979;1.323.150.993;https://maps.google.com/?cid=0x0:0x5d2d62cd73e9232d
hardware store;Kantor Pemerintah;Kantor kampung korom;H99Q+V7G, Korom, Distrik Aitinyo, Kabupaten Maybrat, Papua Bar. 98463;Korom, Distrik Aitinyo, Kabupaten Maybrat;PAPUA BARAT;98463;Indonesia;;-14.304.746;1.323.873.668;https://maps.google.com/?cid=0x0:0x3d0a2e5123c9e14b
hardware store;Layanan Distribusi;PT TRIT INDONESIA;Ruko The Prominence 38E Jl. Jalur Sutera Boulevard No.41, RT.003/RW.006, East Panunggangan, Pinang, Tangerang City, Banten 15143;RT.003/RW.006, East Panunggangan, Pinang, Tangerang City;PAPUA BARAT;15143;Indonesia;2129779560;-6.226.674;106.657.226;https://maps.google.com/?cid=0x0:0xebf0739ba9950e0b
hardware store;Kantor Perusahaan;Tritools Indonesia. PT;Pusat Niaga Terpadu Blok A, 19.6 No. 8M, Tangerang, 15122, RT.001/RW.001, Poris Jaya, Kec. Batuceper, Kota Tangerang, Banten 15122;Tangerang,;PAPUA BARAT;15122;Indonesia;2154365600;-6.163.179;1.066.797.155;https://maps.google.com/?cid=0x0:0xbdb28b238b06b70e
hardware store;hardware store;Distrik Aitinyo;Kabupaten Maybrat, Papua Bar.;Kabupaten Maybrat, Papua Bar.;PAPUA BARAT;;Indonesia;;-14.413.734;1.323.839.209;https://maps.google.com/?cid=0x0:0xd008081240dea68f
hardware store;Toko Ponsel;Aipat kumurke;P838+529, Jitmau, Kec. Aitinyo Utara, Kabupaten Maybrat, Papua Bar.;Kabupaten Maybrat, Papua Bar.;PAPUA BARAT;;Indonesia;;-12.970.979;1.323.150.993;https://maps.google.com/?cid=0x0:0x5d2d62cd73e9232d
hardware store;Toko Perbaikan Ponsel;Aitinyo;H99Q+V7G, Korom, Distrik Aitinyo, Kabupaten Maybrat, Papua Bar. 98463;Korom, Distrik Aitinyo, Kabupaten Maybrat;PAPUA BARAT;98463;Indonesia;;-1.430.311;1.323.881.946;https://maps.google.com/?cid=0x0:0x1e35afd58f2401c9
hardware store;Toko Perbaikan Ponsel;Aitinyo;H99Q+V7G, Korom, Distrik Aitinyo, Kabupaten Maybrat, Papua Bar. 98463;Korom, Distrik Aitinyo, Kabupaten Maybrat;PAPUA BARAT;98463;Indonesia;;-1.430.311;1.323.881.946;https://maps.google.com/?cid=0x0:0x1e35afd58f2401c9
hardware store;Toko Ponsel;Aipat kumurke;P838+529, Jitmau, Kec. Aitinyo Utara, Kabupaten Maybrat, Papua Bar.;Kabupaten Maybrat, Papua Bar.;PAPUA BARAT;;Indonesia;;-12.970.979;1.323.150.993;https://maps.google.com/?cid=0x0:0x5d2d62cd73e9232d
hardware store;Kantor Pemerintah;Kantor kampung korom;H99Q+V7G, Korom, Distrik Aitinyo, Kabupaten Maybrat, Papua Bar. 98463;Korom, Distrik Aitinyo, Kabupaten Maybrat;PAPUA BARAT;98463;Indonesia;;-14.304.746;1.323.873.668;https://maps.google.com/?cid=0x0:0x3d0a2e5123c9e14b
hardware store;Toko Perlengkapan Rumah;North IKUF;P842+JRQ, Jl. Kambretu, Ikuf, utara, Kabupaten Maybrat, Papua Bar. 98462;Jl. Kambretu, Ikuf, utara, Kabupaten Maybrat;PAPUA BARAT;98462;Indonesia;;-1.293.418;1.323.021.011;https://maps.google.com/?cid=0x0:0x99a5465bf564c8d5
hardware store;Balai masyarakat;SEKRETARIAT P4MD KAB.MAYBRAT;P825+PHW, Ikuf, Kec. Aitinyo Utara, Kabupaten Maybrat, Papua Bar. 98462;Ikuf, Kec. Aitinyo Utara, Kabupaten Maybrat;PAPUA BARAT;98462;Indonesia;;-12.981.251;1.323.089.429;https://maps.google.com/?cid=0x0:0x215f5fce31dd8202
hardware store;Toko Perlengkapan Rumah;North IKUF;P842+JRQ, Jl. Kambretu, Ikuf, utara, Kabupaten Maybrat, Papua Bar. 98462;Jl. Kambretu, Ikuf, utara, Kabupaten Maybrat;PAPUA BARAT;98462;Indonesia;;-1.293.418;1.323.021.011;https://maps.google.com/?cid=0x0:0x99a5465bf564c8d5
hardware store;Balai masyarakat;SEKRETARIAT P4MD KAB.MAYBRAT;P825+PHW, Ikuf, Kec. Aitinyo Utara, Kabupaten Maybrat, Papua Bar. 98462;Ikuf, Kec. Aitinyo Utara, Kabupaten Maybrat;PAPUA BARAT;98462;Indonesia;;-12.981.251;1.323.089.429;https://maps.google.com/?cid=0x0:0x215f5fce31dd8202
hardware store;Komplek perumahan;Kampung Ikuf Utara;P825+PHW, Ikuf, Kec. Aitinyo Utara, Kabupaten Maybrat, Papua Bar. 98462;Ikuf, Kec. Aitinyo Utara, Kabupaten Maybrat;PAPUA BARAT;98462;Indonesia;82238129105;-12.981.251;1.323.089.429;https://maps.google.com/?cid=0x0:0xb9d02a542bef9753
hardware store;hardware store;Kec. Ayamaru;Kabupaten Maybrat, Papua Bar.;Kabupaten Maybrat, Papua Bar.;PAPUA BARAT;;Indonesia;;-12.754.068;1.321.954.691;https://maps.google.com/?cid=0x0:0x4d8a88af2189602c
hardware store;Toko Bahan Bangunan;2 Hardyman Hardware Inc.;National highway Barangay Odiong, Roxas, 5212 Oriental Mindoro, Filipina;Roxas, Oriental Mindoro, Filipina;PAPUA BARAT;;Indonesia;6,39338E+11;125.921.148;1.215.082.302;https://maps.google.com/?cid=0x0:0xe0b69f846c0f324b
hardware store;Toko Bahan Bangunan;Handyman Do it Best Roxas Oriental Mindoro;Magsaysay St, Bagumbayan, Roxas, 5212 Oriental Mindoro, Filipina;Roxas, Oriental Mindoro, Filipina;PAPUA BARAT;;Indonesia;6,39175E+11;125.988.102;1.214.835.193;https://maps.google.com/?cid=0x0:0xd8ec826eef4d34cf
hardware store;hardware store;Kec. Ayamaru;Kabupaten Maybrat, Papua Bar.;Kabupaten Maybrat, Papua Bar.;PAPUA BARAT;;Indonesia;;-12.754.068;1.321.954.691;https://maps.google.com/?cid=0x0:0x4d8a88af2189602c
hardware store;hardware store;Toko Bangunan Sharon Papua;Unnamed Road, Fiane, Kec. Ayamaru, Kabupaten Maybrat, Papua Bar. 98462;Fiane, Kec. Ayamaru, Kabupaten Maybrat;PAPUA BARAT;98462;Indonesia;;-12.784.945;1.321.999.367;https://maps.google.com/?cid=0x0:0x282bc90a70867697
hardware store;hardware store;Distrik Ayamaru Jaya;Kabupaten Maybrat, Papua Bar.;Kabupaten Maybrat, Papua Bar.;PAPUA BARAT;;Indonesia;;-1.240.888;1.321.225.897;https://maps.google.com/?cid=0x0:0x7043cae1470f6f3d
hardware store;Toko;Toko Fratafen Jaya Bangunan;Jl. Fratafen, Fiane, Kec. Ayamaru, Kabupaten Maybrat, Papua Bar.;Kabupaten Maybrat, Papua Bar.;PAPUA BARAT;;Indonesia;81344891455;-12.930.171;1.322.477.662;https://maps.google.com/?cid=0x0:0x637ec3d664ebdaa3
hardware store;Toko;Toko FITAFEN JAYA;P668+JWJ, Jl. Fratafen, Kampung Isme, Fiane, Distrik Ayamaru Tengah, Kabupaten Maybrat, Papua Bar.;Kabupaten Maybrat, Papua Bar.;PAPUA BARAT;;Indonesia;82129111112;-12.884.148;1.322.172.648;https://maps.google.com/?cid=0x0:0x9803b7caed3f9da8
hardware store;Toko;Toko Fratafen Jaya Bangunan;Jl. Fratafen, Fiane, Kec. Ayamaru, Kabupaten Maybrat, Papua Bar.;Kabupaten Maybrat, Papua Bar.;PAPUA BARAT;;Indonesia;81344891455;-12.930.171;1.322.477.662;https://maps.google.com/?cid=0x0:0x637ec3d664ebdaa3
hardware store;Toko;Toko FITAFEN JAYA;P668+JWJ, Jl. Fratafen, Kampung Isme, Fiane, Distrik Ayamaru Tengah, Kabupaten Maybrat, Papua Bar.;Kabupaten Maybrat, Papua Bar.;PAPUA BARAT;;Indonesia;82129111112;-12.884.148;1.322.172.648;https://maps.google.com/?cid=0x0:0x9803b7caed3f9da8
hardware store;hardware store;Distrik Ayamaru Selatan Jaya;Kabupaten Maybrat, Papua Bar.;Kabupaten Maybrat, Papua Bar.;PAPUA BARAT;;Indonesia;;-13.673.656;1.322.296.299;https://maps.google.com/?cid=0x0:0x67f2471ae23483de
hardware store;Toko Bahan Bangunan;MAYIAT HARDWARE FORMERLY TO SUY HARDWARE 915 BRANCH;915 Tomas Mapua St, Santa Cruz, Manila, 1014 Metro Manila, Filipina;Manila, Metro Manila, Filipina;PAPUA BARAT;;Indonesia;63285415883;146.056.244;1.209.807.753;https://maps.google.com/?cid=0x0:0xc7450836d1de896e
hardware store;Toko Bahan Bangunan;To Suy Jasteel Product Philippine Company;1133, 316 Oroquieta Rd, Santa Cruz, Manila, 1003 Metro Manila, Filipina;Manila, Metro Manila, Filipina;PAPUA BARAT;;Indonesia;;146.079.946;1.209.829.018;https://maps.google.com/?cid=0x0:0x5cb550fbdd1b4352
hardware store;Toko;Toko Fratafen Jaya Bangunan;Jl. Fratafen, Fiane, Kec. Ayamaru, Kabupaten Maybrat, Papua Bar.;Kabupaten Maybrat, Papua Bar.;PAPUA BARAT;;Indonesia;81344891455;-12.930.171;1.322.477.662;https://maps.google.com/?cid=0x0:0x637ec3d664ebdaa3
hardware store;Toko;Toko FITAFEN JAYA;P668+JWJ, Jl. Fratafen, Kampung Isme, Fiane, Distrik Ayamaru Tengah, Kabupaten Maybrat, Papua Bar.;Kabupaten Maybrat, Papua Bar.;PAPUA BARAT;;Indonesia;82129111112;-12.884.148;1.322.172.648;https://maps.google.com/?cid=0x0:0x9803b7caed3f9da8
hardware store;Toko;Toko Fratafen Jaya Bangunan;Jl. Fratafen, Fiane, Kec. Ayamaru, Kabupaten Maybrat, Papua Bar.;Kabupaten Maybrat, Papua Bar.;PAPUA BARAT;;Indonesia;81344891455;-12.930.171;1.322.477.662;https://maps.google.com/?cid=0x0:0x637ec3d664ebdaa3
hardware store;Toko;Toko FITAFEN JAYA;P668+JWJ, Jl. Fratafen, Kampung Isme, Fiane, Distrik Ayamaru Tengah, Kabupaten Maybrat, Papua Bar.;Kabupaten Maybrat, Papua Bar.;PAPUA BARAT;;Indonesia;82129111112;-12.884.148;1.322.172.648;https://maps.google.com/?cid=0x0:0x9803b7caed3f9da8
hardware store;hardware store;Ayamaru Tim. Sel.;Kambuskato, Kabupaten Maybrat, Papua Bar.;Kabupaten Maybrat, Papua Bar.;PAPUA BARAT;;Indonesia;;-1.324.591;132.265.572;https://maps.google.com/?cid=0x0:0x2387ffcd93d6ad5b
hardware store;Toko Ponsel;Maju Hardware Megastore;Jl. Dr. Sutomo No.95, Kejuron, Kec. Taman, Kota Madiun, Jawa Timur 63117;Kejuron, Kec. Taman, Kota Madiun;PAPUA BARAT;63117;Indonesia;8113735757;-7.630.837;1.115.233.529;https://maps.google.com/?cid=0x0:0x848f2b8fd986de1c
hardware store;hardware store;Eureka Hardware Connect;6G5R+8RC, Mal, Maladewa;Mal, Maladewa;PAPUA BARAT;;Indonesia;9603356888;42.083.209;735.420.089;https://maps.google.com/?cid=0x0:0xbc3a59346dd64195
hardware store;Toko;Toko Fratafen Jaya Bangunan;Jl. Fratafen, Fiane, Kec. Ayamaru, Kabupaten Maybrat, Papua Bar.;Kabupaten Maybrat, Papua Bar.;PAPUA BARAT;;Indonesia;81344891455;-12.930.171;1.322.477.662;https://maps.google.com/?cid=0x0:0x637ec3d664ebdaa3
hardware store;Toko;Toko FITAFEN JAYA;P668+JWJ, Jl. Fratafen, Kampung Isme, Fiane, Distrik Ayamaru Tengah, Kabupaten Maybrat, Papua Bar.;Kabupaten Maybrat, Papua Bar.;PAPUA BARAT;;Indonesia;82129111112;-12.884.148;1.322.172.648;https://maps.google.com/?cid=0x0:0x9803b7caed3f9da8
hardware store;hardware store;Distrik Ayamaru Utara Timur;Kabupaten Maybrat, Papua Bar.;Kabupaten Maybrat, Papua Bar.;PAPUA BARAT;;Indonesia;;-12.541.857;1.323.121.103;https://maps.google.com/?cid=0x0:0x48dc44cac491eb66
hardware store;Kantor Pemerintah;Puskesmas Ayamaru Utara;Q736+5C7, Huberita, Kec. Ayamaru Tim., Kabupaten Maybrat, Papua Bar. 98462;Huberita, Kec. Ayamaru Tim., Kabupaten Maybrat;PAPUA BARAT;98462;Indonesia;;-12.484.625;1.322.611.612;https://maps.google.com/?cid=0x0:0x30b0250f2fdd38b
hardware store;Kantor Pemerintah;Puskesmas Ayamaru Timur, kab.maybrat-Papua Barat;P72G+R6, Kambuaya, Kec. Ayamaru Tim., Kabupaten Maybrat, Papua Bar. 98462;Kambuaya, Kec. Ayamaru Tim., Kabupaten Maybrat;PAPUA BARAT;98462;Indonesia;;-12.979.668;1.322.755.204;https://maps.google.com/?cid=0x0:0x8d1bfdb0a83da528
hardware store;hardware store;Papua Bar.;;Papua Bar.;PAPUA BARAT;;Indonesia;;-13.361.154;1.331.747.162;https://maps.google.com/?cid=0x0:0x5349c1f8c5c7cb62
hardware store;Toko Perlengkapan Rumah;R Hardware;QVJP+GRC, Jl. Cipinang Jaya Raya, RT.8/RW.7, Cipinang Besar Sel., Kecamatan Jatinegara, Kota Jakarta Timur, Daerah Khusus Ibukota Jakarta 13470;Jl. Cipinang Jaya Raya, RT.8/RW.7, Cipinang Besar Sel., Kecamatan Jatinegara, Kota Jakarta Timur;PAPUA BARAT;13470;Indonesia;2122896476;-62.186.862;1.068.870.233;https://maps.google.com/?cid=0x0:0xd4507280dfe2daab
hardware store;Toko Alat-Alat;R Hardware;Jalan Buaran Raya No.14, Klender, Duren Sawit, RT.8/RW.15, Duren Sawit, Kec. Duren Sawit, Kota Jakarta Timur, Daerah Khusus Ibukota Jakarta 13470;Klender, Duren Sawit, RT.8/RW.15, Duren Sawit, Kec. Duren Sawit, Kota Jakarta Timur;PAPUA BARAT;13470;Indonesia;2186617280;-62.206.585;106.921.238;https://maps.google.com/?cid=0x0:0x2eb6bbca842d3c29
hardware store;Toko Bahan Bangunan;Hardware Clothing;Rukan Gading Indah, Blok V9-12, RT.18/RW.8, Klp. Gading Bar., Kec. Klp. Gading, Jkt Utara, Daerah Khusus Ibukota Jakarta 12930;Blok V9-12, RT.18/RW.8, Klp. Gading Bar., Kec. Klp. Gading, Jkt Utara;PAPUA BARAT;12930;Indonesia;2125539858;-6.149.231;106.896.942;https://maps.google.com/?cid=0x0:0x488fdb7f986cd389
hardware store;hardware store;Papua Bar. 98461;Kabupaten Maybrat, Papua Bar.;Kabupaten Maybrat, Papua Bar.;PAPUA BARAT;;Indonesia;;-12.145.828;1.321.177.396;https://maps.google.com/?cid=0x0:0x150319512b004ee4
hardware store;Toko Perlengkapan Rumah;R Hardware;QVJP+GRC, Jl. Cipinang Jaya Raya, RT.8/RW.7, Cipinang Besar Sel., Kecamatan Jatinegara, Kota Jakarta Timur, Daerah Khusus Ibukota Jakarta 13470;Jl. Cipinang Jaya Raya, RT.8/RW.7, Cipinang Besar Sel., Kecamatan Jatinegara, Kota Jakarta Timur;PAPUA BARAT;13470;Indonesia;2122896476;-62.186.862;1.068.870.233;https://maps.google.com/?cid=0x0:0xd4507280dfe2daab
hardware store;Toko Alat-Alat;R Hardware;Jalan Buaran Raya No.14, Klender, Duren Sawit, RT.8/RW.15, Duren Sawit, Kec. Duren Sawit, Kota Jakarta Timur, Daerah Khusus Ibukota Jakarta 13470;Klender, Duren Sawit, RT.8/RW.15, Duren Sawit, Kec. Duren Sawit, Kota Jakarta Timur;PAPUA BARAT;13470;Indonesia;2186617280;-62.206.585;106.921.238;https://maps.google.com/?cid=0x0:0x2eb6bbca842d3c29
hardware store;hardware store;Papua Bar. 98461;Kabupaten Maybrat, Papua Bar.;Kabupaten Maybrat, Papua Bar.;PAPUA BARAT;;Indonesia;;-12.145.828;1.321.177.396;https://maps.google.com/?cid=0x0:0x150319512b004ee4
supermarket bangunan;Toko;Toko Fratafen Jaya Bangunan;Jl. Fratafen, Fiane, Kec. Ayamaru, Kabupaten Maybrat, Papua Bar.;Kabupaten Maybrat, Papua Bar.;PAPUA BARAT;;Indonesia;81344891455;-12.930.171;1.322.477.662;https://maps.google.com/?cid=0x0:0x637ec3d664ebdaa3
supermarket bangunan;supermarket bangunan;Distrik Aifat;Kabupaten Maybrat, Papua Bar.;Kabupaten Maybrat, Papua Bar.;PAPUA BARAT;;Indonesia;;-12.568.532;1.325.001.338;https://maps.google.com/?cid=0x0:0xcc3d52ba3ddd33de
supermarket bangunan;supermarket bangunan;Bengkel dan Bangunan Larry;PFWX+RP4, Fait Mayaf, Distrik Aifat, Kabupaten Maybrat, Papua Bar. 98463;Fait Mayaf, Distrik Aifat, Kabupaten Maybrat;PAPUA BARAT;98463;Indonesia;;-12.529.726;1.324.992.838;https://maps.google.com/?cid=0x0:0x34355660cc5c29ef
supermarket bangunan;Pemasok Bahan Bangunan;Supermarket Bangunan Abadi ( Bangunan Abadi ) Meruya;Jl. Meruya Ilir Raya No.13 3, RT.3/RW.2, Meruya Utara, Kec. Kembangan, Kota Jakarta Barat, Daerah Khusus Ibukota Jakarta 11610;RT.3/RW.2, Meruya Utara, Kec. Kembangan, Kota Jakarta Barat;PAPUA BARAT;11610;Indonesia;215856801;-61.976.477;1.067.425.118;https://maps.google.com/?cid=0x0:0x13872e6ebcfc2cac
supermarket bangunan;Toko Bahan Bangunan;Tb.Aneka Jaya;Jl. Srengseng Sawah No.40, RT.3/RW.9, Srengseng Sawah, Kec. Jagakarsa, Kota Jakarta Selatan, Daerah Khusus Ibukota Jakarta 12630;RT.3/RW.9, Srengseng Sawah, Kec. Jagakarsa, Kota Jakarta Selatan;PAPUA BARAT;12630;Indonesia;85219465440;-63.582.789;1.068.120.311;https://maps.google.com/?cid=0x0:0x1e2ad159dd994acd
supermarket bangunan;Toko Bahan Bangunan;Cahaya Bangunan;4, Jl. Meruya Ilir Raya No.82C, RT.4/RW.8, Srengseng, Kec. Kembangan, Kota Jakarta Barat, Daerah Khusus Ibukota Jakarta 11620;Jl. Meruya Ilir Raya No.82C, RT.4/RW.8, Srengseng, Kec. Kembangan, Kota Jakarta Barat;PAPUA BARAT;11620;Indonesia;215868105;-6.198.191;1.067.527.248;https://maps.google.com/?cid=0x0:0x71fab95142362a49
supermarket bangunan;supermarket bangunan;Papua Bar. 98652;Doom Tim., Distrik Sorong Kepulauan, Kota Sorong, Papua Bar.;Kota Sorong, Papua Bar.;PAPUA BARAT;;Indonesia;;-0.9375383;131.254.499;https://maps.google.com/?cid=0x0:0x5905364cc30efd0e
supermarket bangunan;Toko Bahan Bangunan;Toko Bangunan Abadi;4862+H2G, Malaingkedi, Kec. Sorong Utara, Kota Sorong, Papua Bar. 98412;Malaingkedi, Kec. Sorong Utara, Kota Sorong;PAPUA BARAT;98412;Indonesia;81248762864;-0.8885625;1.313.000.781;https://maps.google.com/?cid=0x0:0xa4c5e3d6e0f0bf2b
supermarket bangunan;Toko Bahan Bangunan;Papua Bangunan, CV PAPUA ABADI;Jl. Basuki Rahmat No.780, Klawuyuk, Distrik Sorong Timur, Kota Sorong, Papua Bar. 98416;Klawuyuk, Distrik Sorong Timur, Kota Sorong;PAPUA BARAT;98416;Indonesia;81332017550;-0.8954087;1.313.186.922;https://maps.google.com/?cid=0x0:0x851804bc3aa7f033
supermarket bangunan;Toko Bahan Bangunan;Padma Bangunan;Wai Mhorock, Kec. Abepura, Kota Jayapura, Papua 99225;Kec. Abepura, Kota Jayapura;PAPUA BARAT;99225;Indonesia;9675180108;-26.096.427;1.406.725.314;https://maps.google.com/?cid=0x0:0x908e38e219cfc28
supermarket bangunan;Toko Bahan Bangunan;Supermarket Bahan Bangunan Tirta Bangunan;Jl. Raya Babakan Madang, Sentul, Kec. Babakan Madang, Kabupaten Bogor, Jawa Barat 16810;Sentul, Kec. Babakan Madang, Kabupaten Bogor;PAPUA BARAT;16810;Indonesia;8881300271;-65.601.203;1.068.537.161;https://maps.google.com/?cid=0x0:0xc9e77a7f8f9d2f66
supermarket bangunan;supermarket bangunan;Supermarket Bahan Bangunan;Jl. Raya Sawangan No.3, RT.3/RW.1, Mampang, Kec. Pancoran Mas, Kota Depok, Jawa Barat 16433;RT.3/RW.1, Mampang, Kec. Pancoran Mas, Kota Depok;PAPUA BARAT;16433;Indonesia;;-63.956.904;1.068.033.472;https://maps.google.com/?cid=0x0:0xbf85e2787e32635c
supermarket bangunan;supermarket bangunan;Distrik Aifat Timur;Kabupaten Maybrat, Papua Bar.;Kabupaten Maybrat, Papua Bar.;PAPUA BARAT;;Indonesia;;-13.591.179;13.259.276;https://maps.google.com/?cid=0x0:0x14eac191dd6d8e2e
supermarket bangunan;Toko Bahan Bangunan;Toko Bangunan Abadi;4862+H2G, Malaingkedi, Kec. Sorong Utara, Kota Sorong, Papua Bar. 98412;Malaingkedi, Kec. Sorong Utara, Kota Sorong;PAPUA BARAT;98412;Indonesia;81248762864;-0.8885625;1.313.000.781;https://maps.google.com/?cid=0x0:0xa4c5e3d6e0f0bf2b
supermarket bangunan;Toko Bahan Bangunan;Supermarket Multi Bangunan;Jl Baru No.98, Wai Mhorock, Abepura, Jayapura City, Papua 99225;Wai Mhorock, Abepura, Jayapura City;PAPUA BARAT;99225;Indonesia;967588677;-26.077.336;1.406.742.812;https://maps.google.com/?cid=0x0:0x3b19f301c68f1d6f
supermarket bangunan;Toko Bahan Bangunan;Toko Karya Abadi;WJ4X+24P, Tuasai, Distrik Bintuni, Kabupaten Teluk Bintuni, Papua Bar. 98364;Tuasai, Distrik Bintuni, Kabupaten Teluk Bintuni;PAPUA BARAT;98364;Indonesia;82244443838;-2.094.909;1.336.478.193;https://maps.google.com/?cid=0x0:0x860a78b44fea4433
supermarket bangunan;Toko Bahan Bangunan;DEPO BANGUNAN SINAR MATAHARI;379X+243, Jl. Fakfak - Torea, Wagom Sel., Distrik Fakfak, Kabupaten Fakfak, Papua Bar. 98651;Jl. Fakfak - Torea, Wagom Sel., Distrik Fakfak, Kabupaten Fakfak;PAPUA BARAT;98651;Indonesia;81232387999;-29.324.935;1.322.978.043;https://maps.google.com/?cid=0x0:0x35e53a9d40e95e48
supermarket bangunan;Toko Cat;Toko Bangunan Abid Sejahtera - Waisai;Jl. Jend. Sudirman No.30, Waisai, Distrik Kota Waisai, Kabupaten Raja Ampat, Papua Bar. 98482;Waisai, Distrik Kota Waisai, Kabupaten Raja Ampat;PAPUA BARAT;98482;Indonesia;82248014806;-0.4206038;1.308.216.501;https://maps.google.com/?cid=0x0:0x635cf5cb88ebe389
supermarket bangunan;Toko Bahan Bangunan;Toko Idaman;387C+43P, Dana Weria, Distrik Fakfak Tengah, Kabupaten Fakfak, Papua Bar. 98611;Dana Weria, Distrik Fakfak Tengah, Kabupaten Fakfak;PAPUA BARAT;98611;Indonesia;81233333193;-29.371.717;1.323.201.884;https://maps.google.com/?cid=0x0:0xb250f5bbd07b5204
supermarket bangunan;Toko Bahan Bangunan;Toko Rahayu Babo;FF52+F2R, Unnamed Road, Nusei, Babo, Kabupaten Teluk Bintuni, Papua Bar. 98363;Unnamed Road, Nusei, Babo, Kabupaten Teluk Bintuni;PAPUA BARAT;98363;Indonesia;85244200777;-25.412.733;13.345.003;https://maps.google.com/?cid=0x0:0x2d6ca9cad594f391
supermarket bangunan;Toko Bahan Bangunan;Toko Bangunan Mamta Jaya;Entrop, Distrik Jayapura Selatan, Kota Jayapura, Papua 99221;Distrik Jayapura Selatan, Kota Jayapura;PAPUA BARAT;99221;Indonesia;85198498008;-25.674.278;1.406.991.484;https://maps.google.com/?cid=0x0:0x2e3a73f71cf583d9
supermarket bangunan;Toko Swalayan;Toko Depo Bangunan;379V+Q4W, Fak Fak Selatan, Distrik Fakfak, Kabupaten Fakfak, Papua Bar. 98611;Fak Fak Selatan, Distrik Fakfak, Kabupaten Fakfak;PAPUA BARAT;98611;Indonesia;81332930235;-29.305.033;132.292.834;https://maps.google.com/?cid=0x0:0x8845a3bfe8af225c
supermarket bangunan;Toko Bahan Bangunan;TOKO YUDHA BANGUNAN 1;VWXP+H7P, Jl. Bayangkara, Hurekama, Distrik Wamena, Kabupaten Jayawijaya, Papua 99511;Jl. Bayangkara, Hurekama, Distrik Wamena, Kabupaten Jayawijaya;PAPUA BARAT;99511;Indonesia;81344454364;-41.010.288;1.389.356.942;https://maps.google.com/?cid=0x0:0xa571c584f4c25eaa
supermarket bangunan;Toko Bahan Bangunan;Toko Bangunan USAHA JAYA;Jln Raya Tanah Hitam, Asano, Abepura, Jayapura City, Papua 93351;Asano, Abepura, Jayapura City;PAPUA BARAT;93351;Indonesia;811482182;-26.176.324;140.683.841;https://maps.google.com/?cid=0x0:0xb6995fd87d51be7
supermarket bangunan;Toko Bahan Bangunan;Tokoh bagunan fajriani h.m;WJ3W+GJ5, Tuasai, Distrik Bintuni, Kabupaten Teluk Bintuni, Papua Bar. 98364;Tuasai, Distrik Bintuni, Kabupaten Teluk Bintuni;PAPUA BARAT;98364;Indonesia;;-20.953.093;1.336.466.562;https://maps.google.com/?cid=0x0:0x107c1e110f767af6
supermarket bangunan;supermarket bangunan;Bengkel dan Bangunan Larry;PFWX+RP4, Fait Mayaf, Distrik Aifat, Kabupaten Maybrat, Papua Bar. 98463;Fait Mayaf, Distrik Aifat, Kabupaten Maybrat;PAPUA BARAT;98463;Indonesia;;-12.529.726;1.324.992.838;https://maps.google.com/?cid=0x0:0x34355660cc5c29ef
supermarket bangunan;Toko;Toko FITAFEN JAYA;P668+JWJ, Jl. Fratafen, Kampung Isme, Fiane, Distrik Ayamaru Tengah, Kabupaten Maybrat, Papua Bar.;Kabupaten Maybrat, Papua Bar.;PAPUA BARAT;;Indonesia;82129111112;-12.884.148;1.322.172.648;https://maps.google.com/?cid=0x0:0x9803b7caed3f9da8
supermarket bangunan;Toko;Toko Fratafen Jaya Bangunan;Jl. Fratafen, Fiane, Kec. Ayamaru, Kabupaten Maybrat, Papua Bar.;Kabupaten Maybrat, Papua Bar.;PAPUA BARAT;;Indonesia;81344891455;-12.930.171;1.322.477.662;https://maps.google.com/?cid=0x0:0x637ec3d664ebdaa3
supermarket bangunan;supermarket bangunan;Distrik Aifat;Kabupaten Maybrat, Papua Bar.;Kabupaten Maybrat, Papua Bar.;PAPUA BARAT;;Indonesia;;-12.568.532;1.325.001.338;https://maps.google.com/?cid=0x0:0xcc3d52ba3ddd33de
supermarket bangunan;Toko Bahan Bangunan;Supermarket Multi Bangunan;Jl Baru No.98, Wai Mhorock, Abepura, Jayapura City, Papua 99225;Wai Mhorock, Abepura, Jayapura City;PAPUA BARAT;99225;Indonesia;967588677;-26.077.336;1.406.742.812;https://maps.google.com/?cid=0x0:0x3b19f301c68f1d6f
supermarket bangunan;Toko Bahan Bangunan;Padma Bangunan;Wai Mhorock, Kec. Abepura, Kota Jayapura, Papua 99225;Kec. Abepura, Kota Jayapura;PAPUA BARAT;99225;Indonesia;9675180108;-26.096.427;1.406.725.314;https://maps.google.com/?cid=0x0:0x908e38e219cfc28
supermarket bangunan;Toko Bahan Bangunan;Supermarket Multi Bangunan;Jl Baru No.98, Wai Mhorock, Abepura, Jayapura City, Papua 99225;Wai Mhorock, Abepura, Jayapura City;PAPUA BARAT;99225;Indonesia;967588677;-26.077.336;1.406.742.812;https://maps.google.com/?cid=0x0:0x3b19f301c68f1d6f
supermarket bangunan;Toko Bahan Bangunan;Padma Bangunan;Wai Mhorock, Kec. Abepura, Kota Jayapura, Papua 99225;Kec. Abepura, Kota Jayapura;PAPUA BARAT;99225;Indonesia;9675180108;-26.096.427;1.406.725.314;https://maps.google.com/?cid=0x0:0x908e38e219cfc28
supermarket bangunan;supermarket bangunan;Distrik Aifat Timur;Kabupaten Maybrat, Papua Bar.;Kabupaten Maybrat, Papua Bar.;PAPUA BARAT;;Indonesia;;-13.591.179;13.259.276;https://maps.google.com/?cid=0x0:0x14eac191dd6d8e2e
supermarket bangunan;supermarket bangunan;Distrik Aifat Selatan;Kabupaten Maybrat, Papua Bar.;Kabupaten Maybrat, Papua Bar.;PAPUA BARAT;;Indonesia;;-14.185.595;1.325.043.916;https://maps.google.com/?cid=0x0:0x5390da174ca5ef27
supermarket bangunan;Toko Bahan Bangunan;Supermarket Multi Bangunan;Jl Baru No.98, Wai Mhorock, Abepura, Jayapura City, Papua 99225;Wai Mhorock, Abepura, Jayapura City;PAPUA BARAT;99225;Indonesia;967588677;-26.077.336;1.406.742.812;https://maps.google.com/?cid=0x0:0x3b19f301c68f1d6f
supermarket bangunan;Toko;Toko Fratafen Jaya Bangunan;Jl. Fratafen, Fiane, Kec. Ayamaru, Kabupaten Maybrat, Papua Bar.;Kabupaten Maybrat, Papua Bar.;PAPUA BARAT;;Indonesia;81344891455;-12.930.171;1.322.477.662;https://maps.google.com/?cid=0x0:0x637ec3d664ebdaa3
supermarket bangunan;Toko;Toko FITAFEN JAYA;P668+JWJ, Jl. Fratafen, Kampung Isme, Fiane, Distrik Ayamaru Tengah, Kabupaten Maybrat, Papua Bar.;Kabupaten Maybrat, Papua Bar.;PAPUA BARAT;;Indonesia;82129111112;-12.884.148;1.322.172.648;https://maps.google.com/?cid=0x0:0x9803b7caed3f9da8
supermarket bangunan;Toko Bahan Bangunan;Toko Bangunan Abadi;4862+H2G, Malaingkedi, Kec. Sorong Utara, Kota Sorong, Papua Bar. 98412;Malaingkedi, Kec. Sorong Utara, Kota Sorong;PAPUA BARAT;98412;Indonesia;81248762864;-0.8885625;1.313.000.781;https://maps.google.com/?cid=0x0:0xa4c5e3d6e0f0bf2b
supermarket bangunan;supermarket bangunan;Distrik Aifat Utara;Kabupaten Maybrat, Papua Bar.;Kabupaten Maybrat, Papua Bar.;PAPUA BARAT;;Indonesia;;-11.588.544;1.324.643.784;https://maps.google.com/?cid=0x0:0x7ec0d9546b1ece9c
supermarket bangunan;Toko Bahan Bangunan;Supermarket Multi Bangunan;Jl Baru No.98, Wai Mhorock, Abepura, Jayapura City, Papua 99225;Wai Mhorock, Abepura, Jayapura City;PAPUA BARAT;99225;Indonesia;967588677;-26.077.336;1.406.742.812;https://maps.google.com/?cid=0x0:0x3b19f301c68f1d6f
supermarket bangunan;Toko Bahan Bangunan;Toko Bangunan Abadi;4862+H2G, Malaingkedi, Kec. Sorong Utara, Kota Sorong, Papua Bar. 98412;Malaingkedi, Kec. Sorong Utara, Kota Sorong;PAPUA BARAT;98412;Indonesia;81248762864;-0.8885625;1.313.000.781;https://maps.google.com/?cid=0x0:0xa4c5e3d6e0f0bf2b
supermarket bangunan;Toko Cat;Toko Bangunan Abid Sejahtera - Waisai;Jl. Jend. Sudirman No.30, Waisai, Distrik Kota Waisai, Kabupaten Raja Ampat, Papua Bar. 98482;Waisai, Distrik Kota Waisai, Kabupaten Raja Ampat;PAPUA BARAT;98482;Indonesia;82248014806;-0.4206038;1.308.216.501;https://maps.google.com/?cid=0x0:0x635cf5cb88ebe389
supermarket bangunan;Pemasok Bahan Bangunan;Toko bangunan Sumber Makmur;32CM+75G, Jl. Manokwari - Maruni, Anday, Distrik Manokwari, Kabupaten Manokwari, Papua Bar. 98315;Jl. Manokwari - Maruni, Anday, Distrik Manokwari, Kabupaten Manokwari;PAPUA BARAT;98315;Indonesia;8114846060;-0.9293075;1.340.329.487;https://maps.google.com/?cid=0x0:0xa0a85c7270dde255
supermarket bangunan;Toko Bahan Bangunan;Toko Bangunan ATIGA;5355+F7H, Jl. Angkasa Mulyono, Amban, Kec. Manokwari Bar., Kabupaten Manokwari, Papua Bar. 98312;Jl. Angkasa Mulyono, Amban, Kec. Manokwari Bar., Kabupaten Manokwari;PAPUA BARAT;98312;Indonesia;;-0.8413134;1.340.582.405;https://maps.google.com/?cid=0x0:0x6a0ea28d5492ed54
supermarket bangunan;Toko Bahan Bangunan;DEPO BANGUNAN SINAR MATAHARI;379X+243, Jl. Fakfak - Torea, Wagom Sel., Distrik Fakfak, Kabupaten Fakfak, Papua Bar. 98651;Jl. Fakfak - Torea, Wagom Sel., Distrik Fakfak, Kabupaten Fakfak;PAPUA BARAT;98651;Indonesia;81232387999;-29.324.935;1.322.978.043;https://maps.google.com/?cid=0x0:0x35e53a9d40e95e48
supermarket bangunan;supermarket bangunan;Bengkel dan Bangunan Larry;PFWX+RP4, Fait Mayaf, Distrik Aifat, Kabupaten Maybrat, Papua Bar. 98463;Fait Mayaf, Distrik Aifat, Kabupaten Maybrat;PAPUA BARAT;98463;Indonesia;;-12.529.726;1.324.992.838;https://maps.google.com/?cid=0x0:0x34355660cc5c29ef
supermarket bangunan;supermarket bangunan;Distrik Aitinyo;Kabupaten Maybrat, Papua Bar.;Kabupaten Maybrat, Papua Bar.;PAPUA BARAT;;Indonesia;;-14.413.734;1.323.839.209;https://maps.google.com/?cid=0x0:0xd008081240dea68f
supermarket bangunan;supermarket bangunan;Distrik Aitinyo;Kabupaten Maybrat, Papua Bar.;Kabupaten Maybrat, Papua Bar.;PAPUA BARAT;;Indonesia;;-14.413.734;1.323.839.209;https://maps.google.com/?cid=0x0:0xd008081240dea68f
supermarket bangunan;Toko Bahan Bangunan;Supermarket Multi Bangunan;Jl Baru No.98, Wai Mhorock, Abepura, Jayapura City, Papua 99225;Wai Mhorock, Abepura, Jayapura City;PAPUA BARAT;99225;Indonesia;967588677;-26.077.336;1.406.742.812;https://maps.google.com/?cid=0x0:0x3b19f301c68f1d6f
supermarket bangunan;Toko Bahan Bangunan;Padma Bangunan;Wai Mhorock, Kec. Abepura, Kota Jayapura, Papua 99225;Kec. Abepura, Kota Jayapura;PAPUA BARAT;99225;Indonesia;9675180108;-26.096.427;1.406.725.314;https://maps.google.com/?cid=0x0:0x908e38e219cfc28
supermarket bangunan;supermarket bangunan;Distrik Aitinyo;Kabupaten Maybrat, Papua Bar.;Kabupaten Maybrat, Papua Bar.;PAPUA BARAT;;Indonesia;;-14.413.734;1.323.839.209;https://maps.google.com/?cid=0x0:0xd008081240dea68f
supermarket bangunan;supermarket bangunan;Distrik Aitinyo;Kabupaten Maybrat, Papua Bar.;Kabupaten Maybrat, Papua Bar.;PAPUA BARAT;;Indonesia;;-14.413.734;1.323.839.209;https://maps.google.com/?cid=0x0:0xd008081240dea68f
supermarket bangunan;supermarket bangunan;Kec. Aitinyo Utara;Kabupaten Maybrat, Papua Bar.;Kabupaten Maybrat, Papua Bar.;PAPUA BARAT;;Indonesia;;-13.033.463;1.323.116.515;https://maps.google.com/?cid=0x0:0x7e6239eb7f264d46
supermarket bangunan;supermarket bangunan;Kec. Ayamaru;Kabupaten Maybrat, Papua Bar.;Kabupaten Maybrat, Papua Bar.;PAPUA BARAT;;Indonesia;;-12.754.068;1.321.954.691;https://maps.google.com/?cid=0x0:0x4d8a88af2189602c
supermarket bangunan;supermarket bangunan;Toko Bangunan Sharon Papua;Unnamed Road, Fiane, Kec. Ayamaru, Kabupaten Maybrat, Papua Bar. 98462;Fiane, Kec. Ayamaru, Kabupaten Maybrat;PAPUA BARAT;98462;Indonesia;;-12.784.945;1.321.999.367;https://maps.google.com/?cid=0x0:0x282bc90a70867697
supermarket bangunan;Toko Bahan Bangunan;Toko Bangunan Jordy;P5FW+5W9, Ayamaru, Kec. Ayamaru, Kabupaten Maybrat, Papua Bar. 98461;Ayamaru, Kec. Ayamaru, Kabupaten Maybrat;PAPUA BARAT;98461;Indonesia;;-12.768.317;1.321.973.254;https://maps.google.com/?cid=0x0:0x5d9700c95e20bcb7
supermarket bangunan;supermarket bangunan;Kec. Ayamaru;Kabupaten Maybrat, Papua Bar.;Kabupaten Maybrat, Papua Bar.;PAPUA BARAT;;Indonesia;;-12.754.068;1.321.954.691;https://maps.google.com/?cid=0x0:0x4d8a88af2189602c
supermarket bangunan;Toko Bahan Bangunan;Toko Bangunan Jordy;P5FW+5W9, Ayamaru, Kec. Ayamaru, Kabupaten Maybrat, Papua Bar. 98461;Ayamaru, Kec. Ayamaru, Kabupaten Maybrat;PAPUA BARAT;98461;Indonesia;;-12.768.317;1.321.973.254;https://maps.google.com/?cid=0x0:0x5d9700c95e20bcb7
supermarket bangunan;supermarket bangunan;Toko Bangunan Sharon Papua;Unnamed Road, Fiane, Kec. Ayamaru, Kabupaten Maybrat, Papua Bar. 98462;Fiane, Kec. Ayamaru, Kabupaten Maybrat;PAPUA BARAT;98462;Indonesia;;-12.784.945;1.321.999.367;https://maps.google.com/?cid=0x0:0x282bc90a70867697
supermarket bangunan;supermarket bangunan;Distrik Ayamaru Jaya;Kabupaten Maybrat, Papua Bar.;Kabupaten Maybrat, Papua Bar.;PAPUA BARAT;;Indonesia;;-1.240.888;1.321.225.897;https://maps.google.com/?cid=0x0:0x7043cae1470f6f3d
supermarket bangunan;Toko Bahan Bangunan;Supermarket Multi Bangunan;Jl Baru No.98, Wai Mhorock, Abepura, Jayapura City, Papua 99225;Wai Mhorock, Abepura, Jayapura City;PAPUA BARAT;99225;Indonesia;967588677;-26.077.336;1.406.742.812;https://maps.google.com/?cid=0x0:0x3b19f301c68f1d6f
supermarket bangunan;Toko;Toko Fratafen Jaya Bangunan;Jl. Fratafen, Fiane, Kec. Ayamaru, Kabupaten Maybrat, Papua Bar.;Kabupaten Maybrat, Papua Bar.;PAPUA BARAT;;Indonesia;81344891455;-12.930.171;1.322.477.662;https://maps.google.com/?cid=0x0:0x637ec3d664ebdaa3
supermarket bangunan;Toko Bahan Bangunan;Toko Bangunan Jordy;P5FW+5W9, Ayamaru, Kec. Ayamaru, Kabupaten Maybrat, Papua Bar. 98461;Ayamaru, Kec. Ayamaru, Kabupaten Maybrat;PAPUA BARAT;98461;Indonesia;;-12.768.317;1.321.973.254;https://maps.google.com/?cid=0x0:0x5d9700c95e20bcb7
supermarket bangunan;Toko Bahan Bangunan;Toko Bangunan Jordy;P5FW+5W9, Ayamaru, Kec. Ayamaru, Kabupaten Maybrat, Papua Bar. 98461;Ayamaru, Kec. Ayamaru, Kabupaten Maybrat;PAPUA BARAT;98461;Indonesia;;-12.768.317;1.321.973.254;https://maps.google.com/?cid=0x0:0x5d9700c95e20bcb7
supermarket bangunan;Toko;Toko Fratafen Jaya Bangunan;Jl. Fratafen, Fiane, Kec. Ayamaru, Kabupaten Maybrat, Papua Bar.;Kabupaten Maybrat, Papua Bar.;PAPUA BARAT;;Indonesia;81344891455;-12.930.171;1.322.477.662;https://maps.google.com/?cid=0x0:0x637ec3d664ebdaa3
supermarket bangunan;supermarket bangunan;Distrik Ayamaru Selatan;Kabupaten Maybrat, Papua Bar.;Kabupaten Maybrat, Papua Bar.;PAPUA BARAT;;Indonesia;;-13.053.761;1.321.485.942;https://maps.google.com/?cid=0x0:0x78bc898d04ac4488
supermarket bangunan;supermarket bangunan;Distrik Ayamaru Selatan Jaya;Kabupaten Maybrat, Papua Bar.;Kabupaten Maybrat, Papua Bar.;PAPUA BARAT;;Indonesia;;-13.673.656;1.322.296.299;https://maps.google.com/?cid=0x0:0x67f2471ae23483de
supermarket bangunan;Toko;Toko Fratafen Jaya Bangunan;Jl. Fratafen, Fiane, Kec. Ayamaru, Kabupaten Maybrat, Papua Bar.;Kabupaten Maybrat, Papua Bar.;PAPUA BARAT;;Indonesia;81344891455;-12.930.171;1.322.477.662;https://maps.google.com/?cid=0x0:0x637ec3d664ebdaa3
supermarket bangunan;supermarket bangunan;Toko Bangunan Sharon Papua;Unnamed Road, Fiane, Kec. Ayamaru, Kabupaten Maybrat, Papua Bar. 98462;Fiane, Kec. Ayamaru, Kabupaten Maybrat;PAPUA BARAT;98462;Indonesia;;-12.784.945;1.321.999.367;https://maps.google.com/?cid=0x0:0x282bc90a70867697
supermarket bangunan;supermarket bangunan;Distrik Ayamaru Tengah;Kabupaten Maybrat, Papua Bar.;Kabupaten Maybrat, Papua Bar.;PAPUA BARAT;;Indonesia;;-12.884.148;1.322.172.648;https://maps.google.com/?cid=0x0:0xa06de0548d38d1a6
supermarket bangunan;Toko;Toko Fratafen Jaya Bangunan;Jl. Fratafen, Fiane, Kec. Ayamaru, Kabupaten Maybrat, Papua Bar.;Kabupaten Maybrat, Papua Bar.;PAPUA BARAT;;Indonesia;81344891455;-12.930.171;1.322.477.662;https://maps.google.com/?cid=0x0:0x637ec3d664ebdaa3
supermarket bangunan;Toko Bahan Bangunan;Toko Bangunan Jordy;P5FW+5W9, Ayamaru, Kec. Ayamaru, Kabupaten Maybrat, Papua Bar. 98461;Ayamaru, Kec. Ayamaru, Kabupaten Maybrat;PAPUA BARAT;98461;Indonesia;;-12.768.317;1.321.973.254;https://maps.google.com/?cid=0x0:0x5d9700c95e20bcb7
supermarket bangunan;Toko;Toko Fratafen Jaya Bangunan;Jl. Fratafen, Fiane, Kec. Ayamaru, Kabupaten Maybrat, Papua Bar.;Kabupaten Maybrat, Papua Bar.;PAPUA BARAT;;Indonesia;81344891455;-12.930.171;1.322.477.662;https://maps.google.com/?cid=0x0:0x637ec3d664ebdaa3
supermarket bangunan;Toko;Toko FITAFEN JAYA;P668+JWJ, Jl. Fratafen, Kampung Isme, Fiane, Distrik Ayamaru Tengah, Kabupaten Maybrat, Papua Bar.;Kabupaten Maybrat, Papua Bar.;PAPUA BARAT;;Indonesia;82129111112;-12.884.148;1.322.172.648;https://maps.google.com/?cid=0x0:0x9803b7caed3f9da8
supermarket bangunan;supermarket bangunan;Kec. Ayamaru Tim.;Kabupaten Maybrat, Papua Bar.;Kabupaten Maybrat, Papua Bar.;PAPUA BARAT;;Indonesia;;-12.951.177;13.227.456;https://maps.google.com/?cid=0x0:0xb5d97283031cf050
supermarket bangunan;Toko Bahan Bangunan;Toko Bangunan Jordy;P5FW+5W9, Ayamaru, Kec. Ayamaru, Kabupaten Maybrat, Papua Bar. 98461;Ayamaru, Kec. Ayamaru, Kabupaten Maybrat;PAPUA BARAT;98461;Indonesia;;-12.768.317;1.321.973.254;https://maps.google.com/?cid=0x0:0x5d9700c95e20bcb7
supermarket bangunan;supermarket bangunan;Toko Bangunan Sharon Papua;Unnamed Road, Fiane, Kec. Ayamaru, Kabupaten Maybrat, Papua Bar. 98462;Fiane, Kec. Ayamaru, Kabupaten Maybrat;PAPUA BARAT;98462;Indonesia;;-12.784.945;1.321.999.367;https://maps.google.com/?cid=0x0:0x282bc90a70867697
supermarket bangunan;supermarket bangunan;Ayamaru Utara;Kabupaten Maybrat, Papua Bar.;Kabupaten Maybrat, Papua Bar.;PAPUA BARAT;;Indonesia;;-11.983.051;1.322.165.112;https://maps.google.com/?cid=0x0:0x7c47e1a7cad6e57d
supermarket bangunan;Toko;Toko Fratafen Jaya Bangunan;Jl. Fratafen, Fiane, Kec. Ayamaru, Kabupaten Maybrat, Papua Bar.;Kabupaten Maybrat, Papua Bar.;PAPUA BARAT;;Indonesia;81344891455;-12.930.171;1.322.477.662;https://maps.google.com/?cid=0x0:0x637ec3d664ebdaa3
supermarket bangunan;supermarket bangunan;Toko Bangunan Sharon Papua;Unnamed Road, Fiane, Kec. Ayamaru, Kabupaten Maybrat, Papua Bar. 98462;Fiane, Kec. Ayamaru, Kabupaten Maybrat;PAPUA BARAT;98462;Indonesia;;-12.784.945;1.321.999.367;https://maps.google.com/?cid=0x0:0x282bc90a70867697
supermarket bangunan;supermarket bangunan;Toko Bangunan Sharon Papua;Unnamed Road, Fiane, Kec. Ayamaru, Kabupaten Maybrat, Papua Bar. 98462;Fiane, Kec. Ayamaru, Kabupaten Maybrat;PAPUA BARAT;98462;Indonesia;;-12.784.945;1.321.999.367;https://maps.google.com/?cid=0x0:0x282bc90a70867697
supermarket bangunan;supermarket bangunan;Papua Bar.;;Papua Bar.;PAPUA BARAT;;Indonesia;;-13.361.154;1.331.747.162;https://maps.google.com/?cid=0x0:0x5349c1f8c5c7cb62
supermarket bangunan;Toko Elektronik;Toko Bangunan Sumber Baru;SP3, Aimasi, Jl. Poros, Distrik Prafi, Kabupaten Manokwari, Papua Bar. 98356;Aimasi, Jl. Poros, Distrik Prafi, Kabupaten Manokwari;PAPUA BARAT;98356;Indonesia;81234807007;-0.883667;133.820.223;https://maps.google.com/?cid=0x0:0x7475be84d164c6b6
supermarket bangunan;Toko Bahan Bangunan;Toko Bangunan Abadi;4862+H2G, Malaingkedi, Kec. Sorong Utara, Kota Sorong, Papua Bar. 98412;Malaingkedi, Kec. Sorong Utara, Kota Sorong;PAPUA BARAT;98412;Indonesia;81248762864;-0.8885625;1.313.000.781;https://maps.google.com/?cid=0x0:0xa4c5e3d6e0f0bf2b
supermarket bangunan;Toko Cat;Toko Bangunan Abid Sejahtera - Waisai;Jl. Jend. Sudirman No.30, Waisai, Distrik Kota Waisai, Kabupaten Raja Ampat, Papua Bar. 98482;Waisai, Distrik Kota Waisai, Kabupaten Raja Ampat;PAPUA BARAT;98482;Indonesia;82248014806;-0.4206038;1.308.216.501;https://maps.google.com/?cid=0x0:0x635cf5cb88ebe389
supermarket bangunan;Toko Bahan Bangunan;Gudang Toko Depo Bangunan;37FJ+7G5, Jl. Fakfak - Torea, Tanama, Distrik Fakfak, Kabupaten Fakfak, Papua Bar. 98614;Jl. Fakfak - Torea, Tanama, Distrik Fakfak, Kabupaten Fakfak;PAPUA BARAT;98614;Indonesia;;-29.268.666;1.322.813.702;https://maps.google.com/?cid=0x0:0x605ba6cbab94e804
supermarket bangunan;Toko Bahan Bangunan;DEPO BANGUNAN SINAR MATAHARI;379X+243, Jl. Fakfak - Torea, Wagom Sel., Distrik Fakfak, Kabupaten Fakfak, Papua Bar. 98651;Jl. Fakfak - Torea, Wagom Sel., Distrik Fakfak, Kabupaten Fakfak;PAPUA BARAT;98651;Indonesia;81232387999;-29.324.935;1.322.978.043;https://maps.google.com/?cid=0x0:0x35e53a9d40e95e48
supermarket bangunan;Toko Swalayan;Toko Depo Bangunan;379V+Q4W, Fak Fak Selatan, Distrik Fakfak, Kabupaten Fakfak, Papua Bar. 98611;Fak Fak Selatan, Distrik Fakfak, Kabupaten Fakfak;PAPUA BARAT;98611;Indonesia;81332930235;-29.305.033;132.292.834;https://maps.google.com/?cid=0x0:0x8845a3bfe8af225c
supermarket bangunan;Toko Bahan Bangunan;Toko Idaman;387C+43P, Dana Weria, Distrik Fakfak Tengah, Kabupaten Fakfak, Papua Bar. 98611;Dana Weria, Distrik Fakfak Tengah, Kabupaten Fakfak;PAPUA BARAT;98611;Indonesia;81233333193;-29.371.717;1.323.201.884;https://maps.google.com/?cid=0x0:0xb250f5bbd07b5204
supermarket bangunan;Pusat Perbelanjaan;Papua Supermarket  Dept. Store;4869+F77 Bar, Sawagumu, Kec. Sorong Utara, Kota Sorong, Papua Bar. 98416;Sawagumu, Kec. Sorong Utara, Kota Sorong;PAPUA BARAT;98416;Indonesia;9513160123;-0.888831;1.313.181.847;https://maps.google.com/?cid=0x0:0x7b5f0926a74ad213
supermarket bangunan;Toko bahan makanan;Multi Mart;4788+P94, Klaligi, Kecamatan Sorong Manoi, Kota Sorong, Papua Bar. 98412;Klaligi, Kecamatan Sorong Manoi, Kota Sorong;PAPUA BARAT;98412;Indonesia;;-0.8832273;1.312.659.438;https://maps.google.com/?cid=0x0:0x10d83d9da3d8a49d
supermarket bangunan;Toko Bahan Bangunan;TOKO BANGUNAN;38G3+5PF, Fak Fak Utara, Distrik Fakfak, Kabupaten Fakfak, Papua Bar. 98651;Fak Fak Utara, Distrik Fakfak, Kabupaten Fakfak;PAPUA BARAT;98651;Indonesia;83121529512;-29.245.593;1.323.042.975;https://maps.google.com/?cid=0x0:0x3e3de1be5a573a7
supermarket bangunan;Pusat Perbelanjaan;Toko Bangunan Samabusa;Jl. Poros Samabusa, Samabusa, Distrik Tlk. Kimi, Kabupaten Nabire, Papua 98834;Samabusa, Distrik Tlk. Kimi, Kabupaten Nabire;PAPUA BARAT;98834;Indonesia;;-32.347.524;1.355.937.941;https://maps.google.com/?cid=0x0:0x6f315a889c429048
supermarket bangunan;Toko Bahan Bangunan;Toko Kayu;Jalan Tebing Sebrang, Gewerpe, Kabupaten Fakfak, Papua Bar. 98012;Gewerpe, Kabupaten Fakfak;PAPUA BARAT;98012;Indonesia;85254291018;-29.275.353;1.323.127.042;https://maps.google.com/?cid=0x0:0x4b220017b6ea9c7e
supermarket bangunan;Pemasok Bahan Bangunan;Supermarket Bangunan Abadi ( Bangunan Abadi ) Meruya;Jl. Meruya Ilir Raya No.13 3, RT.3/RW.2, Meruya Utara, Kec. Kembangan, Kota Jakarta Barat, Daerah Khusus Ibukota Jakarta 11610;RT.3/RW.2, Meruya Utara, Kec. Kembangan, Kota Jakarta Barat;PAPUA BARAT;11610;Indonesia;215856801;-61.976.477;1.067.425.118;https://maps.google.com/?cid=0x0:0x13872e6ebcfc2cac
supermarket bangunan;supermarket bangunan;Papua Bar. 98461;Kabupaten Maybrat, Papua Bar.;Kabupaten Maybrat, Papua Bar.;PAPUA BARAT;;Indonesia;;-12.145.828;1.321.177.396;https://maps.google.com/?cid=0x0:0x150319512b004ee4
supermarket bangunan;Toko Bahan Bangunan;Supermarket Multi Bangunan;Jl Baru No.98, Wai Mhorock, Abepura, Jayapura City, Papua 99225;Wai Mhorock, Abepura, Jayapura City;PAPUA BARAT;99225;Indonesia;967588677;-26.077.336;1.406.742.812;https://maps.google.com/?cid=0x0:0x3b19f301c68f1d6f
supermarket bangunan;Toko Bahan Bangunan;Padma Bangunan;Wai Mhorock, Kec. Abepura, Kota Jayapura, Papua 99225;Kec. Abepura, Kota Jayapura;PAPUA BARAT;99225;Indonesia;9675180108;-26.096.427;1.406.725.314;https://maps.google.com/?cid=0x0:0x908e38e219cfc28
supermarket bangunan;Toko bahan makanan;SBA (Supermarket Bangunan Abadi);Jl. Pd. Kacang No.88B, Pd. Kacang Bar., Kec. Pd. Aren, Kota Tangerang Selatan, Banten 15226;Pd. Kacang Bar., Kec. Pd. Aren, Kota Tangerang Selatan;PAPUA BARAT;15226;Indonesia;2173460185;-6.254.577;106.688.324;https://maps.google.com/?cid=0x0:0x370ec3ee4dda53b
supermarket bangunan;Toko Bahan Bangunan;Toko Bangunan Hari-hari;Jl. Mandala Utara No.21, RT.17/RW.4, Tomang, Kec. Grogol petamburan, Kota Jakarta Barat, Daerah Khusus Ibukota Jakarta 11440;RT.17/RW.4, Tomang, Kec. Grogol petamburan, Kota Jakarta Barat;PAPUA BARAT;11440;Indonesia;215642893;-61.721.247;1.067.983.298;https://maps.google.com/?cid=0x0:0x91aa30314dd11ef
supermarket bangunan;Toko Bahan Bangunan;Toko Bangunan Rawabelong Jaya;Jl. Palmerah Barat No.54, Palmerah, Kec. Palmerah, Kota Jakarta Barat, Daerah Khusus Ibukota Jakarta 11480;Palmerah, Kec. Palmerah, Kota Jakarta Barat;PAPUA BARAT;11480;Indonesia;215482123;-62.066.697;1.067.846.203;https://maps.google.com/?cid=0x0:0x28f4b7a8a4a85cbd
supermarket bangunan;Toko Bahan Bangunan;Toko Bangunan Mahkota Jaya;13, Jl. Tomang Tinggi Raya No.43, RT.13/RW.7, Tomang, Kec. Grogol petamburan, Kota Jakarta Barat, Daerah Khusus Ibukota Jakarta 11440;Jl. Tomang Tinggi Raya No.43, RT.13/RW.7, Tomang, Kec. Grogol petamburan, Kota Jakarta Barat;PAPUA BARAT;11440;Indonesia;215606769;-6.171.893;1.067.957.951;https://maps.google.com/?cid=0x0:0xdf91e3e0700c97ca
supermarket bangunan;Toko Bahan Bangunan;Super Bangunan;Jl. Kejayaan I No.17-19, RT.10/RW.1, Krukut, Kec. Taman Sari, Kota Jakarta Barat, Daerah Khusus Ibukota Jakarta 11140;RT.10/RW.1, Krukut, Kec. Taman Sari, Kota Jakarta Barat;PAPUA BARAT;11140;Indonesia;81264671628;-61.564.519;1.068.161.472;https://maps.google.com/?cid=0x0:0xa65f462a3ecf5cc
supermarket bangunan;Toko Bahan Bangunan;Super Bangunan Muara Karang;Jl. Muara Karang Raya No.105, RT.11/RW.17, Pluit, Kec. Penjaringan, Jkt Utara, Daerah Khusus Ibukota Jakarta 14450;RT.11/RW.17, Pluit, Kec. Penjaringan, Jkt Utara;PAPUA BARAT;14450;Indonesia;8128218188;-61.170.604;1.067.807.172;https://maps.google.com/?cid=0x0:0xceae8e907c7218e2
supermarket bangunan;supermarket bangunan;N/A;;;PAPUA BARAT;;Indonesia;85947000018;-62.297.465;106.829.518;https://maps.google.com/?cid=0x0:0xa1da7ae6dc5969f4
supermarket bangunan;Grosir bahan konstruksi;Supermarket Sumber Bangunan;J5GG+HC7, Sukamahi, Kec. Cikarang Pusat, Kabupaten Bekasi, Jawa Barat 17530;Sukamahi, Kec. Cikarang Pusat, Kabupaten Bekasi;PAPUA BARAT;17530;Indonesia;;-63.735.753;1.071.760.423;https://maps.google.com/?cid=0x0:0x6a22acadf7672133
supermarket bangunan;Toko Elektronik;Toko Bangunan Sumber Baru;SP3, Aimasi, Jl. Poros, Distrik Prafi, Kabupaten Manokwari, Papua Bar. 98356;Aimasi, Jl. Poros, Distrik Prafi, Kabupaten Manokwari;PAPUA BARAT;98356;Indonesia;81234807007;-0.883667;133.820.223;https://maps.google.com/?cid=0x0:0x7475be84d164c6b6
supermarket bangunan;Toko Elektronik;Toko Mitra Baru;Sp3, Jl. Poros Jalur 2 No.72, Aimasi, Distrik Prafi, Kabupaten Manokwari, Papua Bar. 98356;Jl. Poros Jalur 2 No.72, Aimasi, Distrik Prafi, Kabupaten Manokwari;PAPUA BARAT;98356;Indonesia;;-0.879437;1.338.151.687;https://maps.google.com/?cid=0x0:0x120b36214dceed1a
supermarket bangunan;supermarket bangunan;Papua Bar. 98461;Kabupaten Maybrat, Papua Bar.;Kabupaten Maybrat, Papua Bar.;PAPUA BARAT;;Indonesia;;-12.145.828;1.321.177.396;https://maps.google.com/?cid=0x0:0x150319512b004ee4
supermarket bangunan;Toko Bahan Bangunan;Supermarket Bahan Bangunan;89MR+9QR, Glondong, Purwobinangun, Kec. Pakem, Kabupaten Sleman, Daerah Istimewa Yogyakarta 55582;Glondong, Purwobinangun, Kec. Pakem, Kabupaten Sleman;PAPUA BARAT;55582;Indonesia;;-76.665.166;1.103.918.968;https://maps.google.com/?cid=0x0:0x12ae9bbc74a72c0a
supermarket bangunan;Pasar bahan bangunan;Super Marketnya Bahan Bangunan Di Jogja;Rejodani 2, Sariharjo, Kec. Ngaglik, Kabupaten Sleman, Daerah Istimewa Yogyakarta;Kabupaten Sleman, Daerah Istimewa Yogyakarta;PAPUA BARAT;;Indonesia;;-77.206.136;1.103.829.732;https://maps.google.com/?cid=0x0:0xb8f7865ea5bee103
