Category,Real Category,Business Name,Address,City,State,Postal Code,Country,Phone,Latitude,Longitude,Map Link
mall,mall,Kios Yudha,"PFWX+3QF, Eisyo, Distrik Aifat, Kabupaten Maybrat, Papua Bar. 98463","Eisyo, Distrik Aifat, Kabupaten Maybrat",PAPUA BARAT,98463.0,Indonesia,,-1.2551875,132.4991489,https://maps.google.com/?cid=0x0:0x34c0d36452739935
mall,mall,Kios Yudha,"PFWX+3QF, Eisyo, Distrik Aifat, Kabupaten Maybrat, Papua Bar. 98463","Eisyo, Distrik Aifat, Kabupaten Maybrat",PAPUA BARAT,98463.0,Indonesia,,-1.2551875,132.4991489,https://maps.google.com/?cid=0x0:0x34c0d36452739935
mall,Pusat Perbelanjaan,Mall Artha Gading Jakarta,"Jl. Artha Gading Sel. No.1, Klp. Gading Bar., Kec. Klp. Gading, Jkt Utara, Daerah Khusus Ibukota Jakarta 14240","Klp. Gading Bar., Kec. Klp. Gading, Jkt Utara",PAPUA BARAT,14240.0,Indonesia,2145864000.0,-6.1457739,106.8919187,https://maps.google.com/?cid=0x0:0x176166b3d087c724
mall,Toko Pakaian Olahraga,Jakarta Premium Outlets - Tangerang,"Jl. Jalur Sutera Boulevard No.41, RT.003/RW.006, Panunggangan Tim., Kec. Pinang, Kota Tangerang, Banten 15143","RT.003/RW.006, Panunggangan Tim., Kec. Pinang, Kota Tangerang",PAPUA BARAT,15143.0,Indonesia,,-6.2202252,106.6597055,https://maps.google.com/?cid=0x0:0x8cd173626fe3f3c1
mall,Pusat Perbelanjaan,Mall Of Indonesia,"Jl. Boulevard Bar. Raya No.12, RT.18/RW.19, Klp. Gading Bar., Kec. Klp. Gading, Jkt Utara, Daerah Khusus Ibukota Jakarta 14240","RT.18/RW.19, Klp. Gading Bar., Kec. Klp. Gading, Jkt Utara",PAPUA BARAT,14240.0,Indonesia,2145867888.0,-6.1514549,106.8918949,https://maps.google.com/?cid=0x0:0x3431c7aaadd1f1b6
mall,Pusat Perbelanjaan,PIK Avenue,"Jl. Pantai Indah Kapuk Boulevard, RT.6/RW.2, Kamal Muara, Kec. Penjaringan, Jkt Utara, Daerah Khusus Ibukota Jakarta 14470","RT.6/RW.2, Kamal Muara, Kec. Penjaringan, Jkt Utara",PAPUA BARAT,14470.0,Indonesia,2122570999.0,-6.1088281,106.74021,https://maps.google.com/?cid=0x0:0xa57ef5bb9b685927
mall,China,Hublife Taman Anggrek,"Jl. Tj. Duren Timur 2, RT.12/RW.1, Tj. Duren Sel., Kec. Grogol petamburan, Kota Jakarta Barat, Daerah Khusus Ibukota Jakarta 11470","RT.12/RW.1, Tj. Duren Sel., Kec. Grogol petamburan, Kota Jakarta Barat",PAPUA BARAT,11470.0,Indonesia,2150622288.0,-6.1807487,106.7921782,https://maps.google.com/?cid=0x0:0x88fab696821699af
mall,mall,Distrik Aifat Timur,"Kabupaten Maybrat, Papua Bar.","Kabupaten Maybrat, Papua Bar.",PAPUA BARAT,,Indonesia,,-1.3591179,132.59276,https://maps.google.com/?cid=0x0:0x14eac191dd6d8e2e
mall,mall,Distrik Aifat Timur,"Kabupaten Maybrat, Papua Bar.","Kabupaten Maybrat, Papua Bar.",PAPUA BARAT,,Indonesia,,-1.3591179,132.59276,https://maps.google.com/?cid=0x0:0x14eac191dd6d8e2e
mall,mall,Kios Yudha,"PFWX+3QF, Eisyo, Distrik Aifat, Kabupaten Maybrat, Papua Bar. 98463","Eisyo, Distrik Aifat, Kabupaten Maybrat",PAPUA BARAT,98463.0,Indonesia,,-1.2551875,132.4991489,https://maps.google.com/?cid=0x0:0x34c0d36452739935
mall,Pusat Perbelanjaan,Manokwari City Mall (MCM),"Jl. Yos Sudarso Manokwari, Manokwari Bar., Kec. Manokwari Bar., Kabupaten Manokwari, Papua Bar. 98312","Manokwari Bar., Kec. Manokwari Bar., Kabupaten Manokwari",PAPUA BARAT,98312.0,Indonesia,8114918899.0,-0.85693,134.0678051,https://maps.google.com/?cid=0x0:0x7e7b90df1d787501
mall,Pusat Perbelanjaan,Belakang Manokwari city mall,"43W7+F3H, Manokwari Bar., Kec. Manokwari Bar., Kabupaten Manokwari, Papua Bar. 98312","Manokwari Bar., Kec. Manokwari Bar., Kabupaten Manokwari",PAPUA BARAT,98312.0,Indonesia,,-0.8538079,134.0627452,https://maps.google.com/?cid=0x0:0x59f633fd28048da4
mall,Komplek perumahan,Fanindi Pantai,"43R9+J9P Bar, Padarni, Kec. Manokwari Bar., Kabupaten Manokwari, Papua Bar. 98312","Padarni, Kec. Manokwari Bar., Kabupaten Manokwari",PAPUA BARAT,98312.0,Indonesia,81344477231.0,-0.8584193,134.0684588,https://maps.google.com/?cid=0x0:0xfea55ca67440bcde
mall,mall,Distrik Aifat Timur,"Kabupaten Maybrat, Papua Bar.","Kabupaten Maybrat, Papua Bar.",PAPUA BARAT,,Indonesia,,-1.3591179,132.59276,https://maps.google.com/?cid=0x0:0x14eac191dd6d8e2e
mall,mall,Distrik Aifat Timur,"Kabupaten Maybrat, Papua Bar.","Kabupaten Maybrat, Papua Bar.",PAPUA BARAT,,Indonesia,,-1.3591179,132.59276,https://maps.google.com/?cid=0x0:0x14eac191dd6d8e2e
mall,mall,Kios Yudha,"PFWX+3QF, Eisyo, Distrik Aifat, Kabupaten Maybrat, Papua Bar. 98463","Eisyo, Distrik Aifat, Kabupaten Maybrat",PAPUA BARAT,98463.0,Indonesia,,-1.2551875,132.4991489,https://maps.google.com/?cid=0x0:0x34c0d36452739935
mall,Pusat Perbelanjaan,The Park Sawangan,"Jl. Raya Parung - Ciputat No.1, RT.6/RW.004, Serua, Kec. Bojongsari, Kota Depok, Jawa Barat 16517","RT.6/RW.004, Serua, Kec. Bojongsari, Kota Depok",PAPUA BARAT,16517.0,Indonesia,217437518.0,-6.3761745,106.7449947,https://maps.google.com/?cid=0x0:0x61c6618db8b06e
mall,mall,Distrik Aifat Selatan,"Kabupaten Maybrat, Papua Bar.","Kabupaten Maybrat, Papua Bar.",PAPUA BARAT,,Indonesia,,-1.4185595,132.5043916,https://maps.google.com/?cid=0x0:0x5390da174ca5ef27
mall,mall,Kios Yudha,"PFWX+3QF, Eisyo, Distrik Aifat, Kabupaten Maybrat, Papua Bar. 98463","Eisyo, Distrik Aifat, Kabupaten Maybrat",PAPUA BARAT,98463.0,Indonesia,,-1.2551875,132.4991489,https://maps.google.com/?cid=0x0:0x34c0d36452739935
mall,mall,Distrik Aitinyo,"Kabupaten Maybrat, Papua Bar.","Kabupaten Maybrat, Papua Bar.",PAPUA BARAT,,Indonesia,,-1.4413734,132.3839209,https://maps.google.com/?cid=0x0:0xd008081240dea68f
mall,Toko Perbaikan Ponsel,Aitinyo,"H99Q+V7G, Korom, Distrik Aitinyo, Kabupaten Maybrat, Papua Bar. 98463","Korom, Distrik Aitinyo, Kabupaten Maybrat",PAPUA BARAT,98463.0,Indonesia,,-1.430311,132.3881946,https://maps.google.com/?cid=0x0:0x1e35afd58f2401c9
mall,Kelompok Bermain,Itigah,"F8F6+47H, Unnamed Road, Kamro, Aitinyo Barat/Athabu, Kabupaten Maybrat, Papua Bar. 98462","Unnamed Road, Kamro, Aitinyo Barat/Athabu, Kabupaten Maybrat",PAPUA BARAT,98462.0,Indonesia,,-1.5272,132.31073,https://maps.google.com/?cid=0x0:0x1f6b3a8db2debe0
mall,Pusat Perbelanjaan,Mega Mall Sorong,"Jalan Basuki Rahmat Klabulu, Malaimsimsa, Malaingkedi, Kec. Sorong Utara, Kota Sorong, Papua Bar. 98412","Malaimsimsa, Malaingkedi, Kec. Sorong Utara, Kota Sorong",PAPUA BARAT,98412.0,Indonesia,,-0.8873097,131.3012842,https://maps.google.com/?cid=0x0:0x364e52ce8985aa7
mall,Toko Swalayan,TOKO DIANA ABADI,"G629+M7C, Hasik Jaya (Sp II), Distrik Moswaren, Kabupaten Sorong Selatan, Papua Bar. 98462","Hasik Jaya (Sp II), Distrik Moswaren, Kabupaten Sorong Selatan",PAPUA BARAT,98462.0,Indonesia,,-1.4983023,132.2181251,https://maps.google.com/?cid=0x0:0xa26e546d8a0b459c
mall,Toko,Toko fitri,"G649+FH7, Unnamed Road, Hasik Jaya (Sp II), Distrik Moswaren, Kabupaten Sorong Selatan, Papua Bar. 98462","Unnamed Road, Hasik Jaya (Sp II), Distrik Moswaren, Kabupaten Sorong Selatan",PAPUA BARAT,98462.0,Indonesia,,-1.4938419,132.218912,https://maps.google.com/?cid=0x0:0x7a5c1534c6270bf
mall,mall,Distrik Aitinyo,"Kabupaten Maybrat, Papua Bar.","Kabupaten Maybrat, Papua Bar.",PAPUA BARAT,,Indonesia,,-1.4413734,132.3839209,https://maps.google.com/?cid=0x0:0xd008081240dea68f
mall,Toko Perbaikan Ponsel,Aitinyo,"H99Q+V7G, Korom, Distrik Aitinyo, Kabupaten Maybrat, Papua Bar. 98463","Korom, Distrik Aitinyo, Kabupaten Maybrat",PAPUA BARAT,98463.0,Indonesia,,-1.430311,132.3881946,https://maps.google.com/?cid=0x0:0x1e35afd58f2401c9
mall,Pusat Perbelanjaan,Manokwari City Mall (MCM),"Jl. Yos Sudarso Manokwari, Manokwari Bar., Kec. Manokwari Bar., Kabupaten Manokwari, Papua Bar. 98312","Manokwari Bar., Kec. Manokwari Bar., Kabupaten Manokwari",PAPUA BARAT,98312.0,Indonesia,8114918899.0,-0.85693,134.0678051,https://maps.google.com/?cid=0x0:0x7e7b90df1d787501
mall,mall,KIOS RISKI ABADI,"G67M+2WP, Jalur 2 Poros, Bumi Ajo (Sp I), Distrik Moswaren, Kabupaten Sorong Selatan, Papua Bar. 98462","Jalur 2 Poros, Bumi Ajo (Sp I), Distrik Moswaren, Kabupaten Sorong Selatan",PAPUA BARAT,98462.0,Indonesia,82291801188.0,-1.4873833,132.2348618,https://maps.google.com/?cid=0x0:0xb453838534cc7da6
mall,Toko Swalayan,TOKO DIANA ABADI,"G629+M7C, Hasik Jaya (Sp II), Distrik Moswaren, Kabupaten Sorong Selatan, Papua Bar. 98462","Hasik Jaya (Sp II), Distrik Moswaren, Kabupaten Sorong Selatan",PAPUA BARAT,98462.0,Indonesia,,-1.4983023,132.2181251,https://maps.google.com/?cid=0x0:0xa26e546d8a0b459c
mall,Toko,Toko fitri,"G649+FH7, Unnamed Road, Hasik Jaya (Sp II), Distrik Moswaren, Kabupaten Sorong Selatan, Papua Bar. 98462","Unnamed Road, Hasik Jaya (Sp II), Distrik Moswaren, Kabupaten Sorong Selatan",PAPUA BARAT,98462.0,Indonesia,,-1.4938419,132.218912,https://maps.google.com/?cid=0x0:0x7a5c1534c6270bf
mall,Pusat Perbelanjaan,Mal Ciputra Tangerang,"Jl. Citra Raya Boulevard, Ciakar, Kec. Panongan, Kabupaten Tangerang, Banten 15710","Ciakar, Kec. Panongan, Kabupaten Tangerang",PAPUA BARAT,15710.0,Indonesia,2139715888.0,-6.2609367,106.5248651,https://maps.google.com/?cid=0x0:0x426b60f7dfe14e13
mall,Toko Perbaikan Ponsel,Aitinyo,"H99Q+V7G, Korom, Distrik Aitinyo, Kabupaten Maybrat, Papua Bar. 98463","Korom, Distrik Aitinyo, Kabupaten Maybrat",PAPUA BARAT,98463.0,Indonesia,,-1.430311,132.3881946,https://maps.google.com/?cid=0x0:0x1e35afd58f2401c9
mall,Toko Ponsel,Aipat kumurke,"P838+529, Jitmau, Kec. Aitinyo Utara, Kabupaten Maybrat, Papua Bar.","Kabupaten Maybrat, Papua Bar.",PAPUA BARAT,,Indonesia,,-1.2970979,132.3150993,https://maps.google.com/?cid=0x0:0x5d2d62cd73e9232d
mall,Kantor Pemerintah,Kantor kampung korom,"H99Q+V7G, Korom, Distrik Aitinyo, Kabupaten Maybrat, Papua Bar. 98463","Korom, Distrik Aitinyo, Kabupaten Maybrat",PAPUA BARAT,98463.0,Indonesia,,-1.4304746,132.3873668,https://maps.google.com/?cid=0x0:0x3d0a2e5123c9e14b
mall,mall,Distrik Aitinyo,"Kabupaten Maybrat, Papua Bar.","Kabupaten Maybrat, Papua Bar.",PAPUA BARAT,,Indonesia,,-1.4413734,132.3839209,https://maps.google.com/?cid=0x0:0xd008081240dea68f
mall,Kelompok Bermain,Itigah,"F8F6+47H, Unnamed Road, Kamro, Aitinyo Barat/Athabu, Kabupaten Maybrat, Papua Bar. 98462","Unnamed Road, Kamro, Aitinyo Barat/Athabu, Kabupaten Maybrat",PAPUA BARAT,98462.0,Indonesia,,-1.5272,132.31073,https://maps.google.com/?cid=0x0:0x1f6b3a8db2debe0
mall,Toko Perbaikan Ponsel,Aitinyo,"H99Q+V7G, Korom, Distrik Aitinyo, Kabupaten Maybrat, Papua Bar. 98463","Korom, Distrik Aitinyo, Kabupaten Maybrat",PAPUA BARAT,98463.0,Indonesia,,-1.430311,132.3881946,https://maps.google.com/?cid=0x0:0x1e35afd58f2401c9
mall,mall,KIOS RISKI ABADI,"G67M+2WP, Jalur 2 Poros, Bumi Ajo (Sp I), Distrik Moswaren, Kabupaten Sorong Selatan, Papua Bar. 98462","Jalur 2 Poros, Bumi Ajo (Sp I), Distrik Moswaren, Kabupaten Sorong Selatan",PAPUA BARAT,98462.0,Indonesia,82291801188.0,-1.4873833,132.2348618,https://maps.google.com/?cid=0x0:0xb453838534cc7da6
mall,Toko Swalayan,TOKO DIANA ABADI,"G629+M7C, Hasik Jaya (Sp II), Distrik Moswaren, Kabupaten Sorong Selatan, Papua Bar. 98462","Hasik Jaya (Sp II), Distrik Moswaren, Kabupaten Sorong Selatan",PAPUA BARAT,98462.0,Indonesia,,-1.4983023,132.2181251,https://maps.google.com/?cid=0x0:0xa26e546d8a0b459c
mall,Toko,Toko fitri,"G649+FH7, Unnamed Road, Hasik Jaya (Sp II), Distrik Moswaren, Kabupaten Sorong Selatan, Papua Bar. 98462","Unnamed Road, Hasik Jaya (Sp II), Distrik Moswaren, Kabupaten Sorong Selatan",PAPUA BARAT,98462.0,Indonesia,,-1.4938419,132.218912,https://maps.google.com/?cid=0x0:0x7a5c1534c6270bf
mall,mall,Kec. Aitinyo Utara,"Kabupaten Maybrat, Papua Bar.","Kabupaten Maybrat, Papua Bar.",PAPUA BARAT,,Indonesia,,-1.3033463,132.3116515,https://maps.google.com/?cid=0x0:0x7e6239eb7f264d46
mall,Toko Perbaikan Ponsel,Aitinyo,"H99Q+V7G, Korom, Distrik Aitinyo, Kabupaten Maybrat, Papua Bar. 98463","Korom, Distrik Aitinyo, Kabupaten Maybrat",PAPUA BARAT,98463.0,Indonesia,,-1.430311,132.3881946,https://maps.google.com/?cid=0x0:0x1e35afd58f2401c9
mall,Toko Ponsel,Aipat kumurke,"P838+529, Jitmau, Kec. Aitinyo Utara, Kabupaten Maybrat, Papua Bar.","Kabupaten Maybrat, Papua Bar.",PAPUA BARAT,,Indonesia,,-1.2970979,132.3150993,https://maps.google.com/?cid=0x0:0x5d2d62cd73e9232d
mall,Pusat Perbelanjaan,Mega Mall Sorong,"Jalan Basuki Rahmat Klabulu, Malaimsimsa, Malaingkedi, Kec. Sorong Utara, Kota Sorong, Papua Bar. 98412","Malaimsimsa, Malaingkedi, Kec. Sorong Utara, Kota Sorong",PAPUA BARAT,98412.0,Indonesia,,-0.8873097,131.3012842,https://maps.google.com/?cid=0x0:0x364e52ce8985aa7
mall,Pusat Perbelanjaan,Mal Sorong,"479G+369, Klademak, Distrik Sorong, Kota Sorong, Papua Bar. 98412","Klademak, Distrik Sorong, Kota Sorong",PAPUA BARAT,98412.0,Indonesia,,-0.8823414,131.2755957,https://maps.google.com/?cid=0x0:0x4efad982776d0ca5
mall,Makanan Siap Saji,KFC MEGA,"Jalan BASUKI RAHMAT NO. 1 KM. 8.5, Malaingkedi, Kec. Sorong Utara, Kota Sorong, Papua Bar. 98412","Malaingkedi, Kec. Sorong Utara, Kota Sorong",PAPUA BARAT,98412.0,Indonesia,2114022.0,-0.88741,131.3014311,https://maps.google.com/?cid=0x0:0x3b28231f1cfe08ef
mall,mall,Kec. Ayamaru,"Kabupaten Maybrat, Papua Bar.","Kabupaten Maybrat, Papua Bar.",PAPUA BARAT,,Indonesia,,-1.2754068,132.1954691,https://maps.google.com/?cid=0x0:0x4d8a88af2189602c
mall,Restoran,Kampung isme ruko isme,"P64R+MW, Fiane, Distrik Ayamaru Tengah, Kabupaten Maybrat, Papua Bar.","Kabupaten Maybrat, Papua Bar.",PAPUA BARAT,,Indonesia,,-1.29335,132.242343,https://maps.google.com/?cid=0x0:0x14b022b567940b0c
mall,Pusat Perbelanjaan,Belakang Manokwari city mall,"43W7+F3H, Manokwari Bar., Kec. Manokwari Bar., Kabupaten Manokwari, Papua Bar. 98312","Manokwari Bar., Kec. Manokwari Bar., Kabupaten Manokwari",PAPUA BARAT,98312.0,Indonesia,,-0.8538079,134.0627452,https://maps.google.com/?cid=0x0:0x59f633fd28048da4
mall,Komplek perumahan,Fanindi Pantai,"43R9+J9P Bar, Padarni, Kec. Manokwari Bar., Kabupaten Manokwari, Papua Bar. 98312","Padarni, Kec. Manokwari Bar., Kabupaten Manokwari",PAPUA BARAT,98312.0,Indonesia,81344477231.0,-0.8584193,134.0684588,https://maps.google.com/?cid=0x0:0xfea55ca67440bcde
mall,Toko Perlengkapan Rumah,Kampung Isme,"P668+JWJ, Kartapura, Distrik Ayamaru Tengah, Kabupaten Maybrat, Papua Bar.","Kabupaten Maybrat, Papua Bar.",PAPUA BARAT,,Indonesia,,-1.2884148,132.2172648,https://maps.google.com/?cid=0x0:0xb017a02b680d36c4
mall,Pusat Perbelanjaan,Manokwari City Mall (MCM),"Jl. Yos Sudarso Manokwari, Manokwari Bar., Kec. Manokwari Bar., Kabupaten Manokwari, Papua Bar. 98312","Manokwari Bar., Kec. Manokwari Bar., Kabupaten Manokwari",PAPUA BARAT,98312.0,Indonesia,8114918899.0,-0.85693,134.0678051,https://maps.google.com/?cid=0x0:0x7e7b90df1d787501
mall,Restoran,Kampung isme ruko isme,"P64R+MW, Fiane, Distrik Ayamaru Tengah, Kabupaten Maybrat, Papua Bar.","Kabupaten Maybrat, Papua Bar.",PAPUA BARAT,,Indonesia,,-1.29335,132.242343,https://maps.google.com/?cid=0x0:0x14b022b567940b0c
mall,Pusat Perbelanjaan,Manokwari City Mall (MCM),"Jl. Yos Sudarso Manokwari, Manokwari Bar., Kec. Manokwari Bar., Kabupaten Manokwari, Papua Bar. 98312","Manokwari Bar., Kec. Manokwari Bar., Kabupaten Manokwari",PAPUA BARAT,98312.0,Indonesia,8114918899.0,-0.85693,134.0678051,https://maps.google.com/?cid=0x0:0x7e7b90df1d787501
mall,Pusat Perbelanjaan,Belakang Manokwari city mall,"43W7+F3H, Manokwari Bar., Kec. Manokwari Bar., Kabupaten Manokwari, Papua Bar. 98312","Manokwari Bar., Kec. Manokwari Bar., Kabupaten Manokwari",PAPUA BARAT,98312.0,Indonesia,,-0.8538079,134.0627452,https://maps.google.com/?cid=0x0:0x59f633fd28048da4
mall,mall,Distrik Ayamaru Jaya,"Kabupaten Maybrat, Papua Bar.","Kabupaten Maybrat, Papua Bar.",PAPUA BARAT,,Indonesia,,-1.240888,132.1225897,https://maps.google.com/?cid=0x0:0x7043cae1470f6f3d
mall,Jepang,Ichiban Sushi Manokwari City Mall,"Jl. Yos Sudarso, Manokwari Bar., Kec. Manokwari Bar., Kabupaten Manokwari, Papua Bar. 98312","Manokwari Bar., Kec. Manokwari Bar., Kabupaten Manokwari",PAPUA BARAT,98312.0,Indonesia,,-0.85696,134.0676162,https://maps.google.com/?cid=0x0:0x345744965a30969a
mall,Pusat Perbelanjaan,Mal Sorong,"479G+369, Klademak, Distrik Sorong, Kota Sorong, Papua Bar. 98412","Klademak, Distrik Sorong, Kota Sorong",PAPUA BARAT,98412.0,Indonesia,,-0.8823414,131.2755957,https://maps.google.com/?cid=0x0:0x4efad982776d0ca5
mall,Pusat Perbelanjaan,Mega Mall Sorong,"Jalan Basuki Rahmat Klabulu, Malaimsimsa, Malaingkedi, Kec. Sorong Utara, Kota Sorong, Papua Bar. 98412","Malaimsimsa, Malaingkedi, Kec. Sorong Utara, Kota Sorong",PAPUA BARAT,98412.0,Indonesia,,-0.8873097,131.3012842,https://maps.google.com/?cid=0x0:0x364e52ce8985aa7
mall,Pusat Perbelanjaan,Sorong XXI,"479G+669, Klademak, Distrik Sorong, Kota Sorong, Papua Bar. 98412","Klademak, Distrik Sorong, Kota Sorong",PAPUA BARAT,98412.0,Indonesia,85243436545.0,-0.8819731,131.2756053,https://maps.google.com/?cid=0x0:0x837be603a14de23a
mall,Klinik Medis,Puskesmas,"P5CX+R3M, Unnamed Road, Ayamaru, Kec. Ayamaru, Kabupaten Maybrat, Papua Bar. 98462","Unnamed Road, Ayamaru, Kec. Ayamaru, Kabupaten Maybrat",PAPUA BARAT,98462.0,Indonesia,,-1.2779214,132.1976569,https://maps.google.com/?cid=0x0:0x61b6d5aa46ea25e3
mall,mall,Distrik Ayamaru Selatan Jaya,"Kabupaten Maybrat, Papua Bar.","Kabupaten Maybrat, Papua Bar.",PAPUA BARAT,,Indonesia,,-1.3673656,132.2296299,https://maps.google.com/?cid=0x0:0x67f2471ae23483de
mall,Toko Perlengkapan Rumah,Kampung Isme,"P668+JWJ, Kartapura, Distrik Ayamaru Tengah, Kabupaten Maybrat, Papua Bar.","Kabupaten Maybrat, Papua Bar.",PAPUA BARAT,,Indonesia,,-1.2884148,132.2172648,https://maps.google.com/?cid=0x0:0xb017a02b680d36c4
mall,mall,Distrik Ayamaru Tengah,"Kabupaten Maybrat, Papua Bar.","Kabupaten Maybrat, Papua Bar.",PAPUA BARAT,,Indonesia,,-1.2884148,132.2172648,https://maps.google.com/?cid=0x0:0xa06de0548d38d1a6
mall,Restoran,Kampung isme ruko isme,"P64R+MW, Fiane, Distrik Ayamaru Tengah, Kabupaten Maybrat, Papua Bar.","Kabupaten Maybrat, Papua Bar.",PAPUA BARAT,,Indonesia,,-1.29335,132.242343,https://maps.google.com/?cid=0x0:0x14b022b567940b0c
mall,mall,Distrik Ayamaru Utara Timur,"Kabupaten Maybrat, Papua Bar.","Kabupaten Maybrat, Papua Bar.",PAPUA BARAT,,Indonesia,,-1.2541857,132.3121103,https://maps.google.com/?cid=0x0:0x48dc44cac491eb66
mall,Pusat Perbelanjaan,Manokwari City Mall (MCM),"Jl. Yos Sudarso Manokwari, Manokwari Bar., Kec. Manokwari Bar., Kabupaten Manokwari, Papua Bar. 98312","Manokwari Bar., Kec. Manokwari Bar., Kabupaten Manokwari",PAPUA BARAT,98312.0,Indonesia,8114918899.0,-0.85693,134.0678051,https://maps.google.com/?cid=0x0:0x7e7b90df1d787501
mall,mall,Kec. Ayamaru Tim.,"Kabupaten Maybrat, Papua Bar.","Kabupaten Maybrat, Papua Bar.",PAPUA BARAT,,Indonesia,,-1.2951177,132.27456,https://maps.google.com/?cid=0x0:0xb5d97283031cf050
mall,Komplek perumahan,Fanindi Pantai,"43R9+J9P Bar, Padarni, Kec. Manokwari Bar., Kabupaten Manokwari, Papua Bar. 98312","Padarni, Kec. Manokwari Bar., Kabupaten Manokwari",PAPUA BARAT,98312.0,Indonesia,81344477231.0,-0.8584193,134.0684588,https://maps.google.com/?cid=0x0:0xfea55ca67440bcde
mall,Jepang,Ichiban Sushi Manokwari City Mall,"Jl. Yos Sudarso, Manokwari Bar., Kec. Manokwari Bar., Kabupaten Manokwari, Papua Bar. 98312","Manokwari Bar., Kec. Manokwari Bar., Kabupaten Manokwari",PAPUA BARAT,98312.0,Indonesia,,-0.85696,134.0676162,https://maps.google.com/?cid=0x0:0x345744965a30969a
mall,mall,Ayamaru Tim. Sel.,"Kambuskato, Kabupaten Maybrat, Papua Bar.","Kabupaten Maybrat, Papua Bar.",PAPUA BARAT,,Indonesia,,-1.324591,132.265572,https://maps.google.com/?cid=0x0:0x2387ffcd93d6ad5b
mall,mall,Kec. Ayamaru Tim.,"Kabupaten Maybrat, Papua Bar.","Kabupaten Maybrat, Papua Bar.",PAPUA BARAT,,Indonesia,,-1.2951177,132.27456,https://maps.google.com/?cid=0x0:0xb5d97283031cf050
mall,mall,Distrik Ayamaru timur selatan,"M7G8+57M, Kambuskato, Ayamaru Tim. Sel., Kabupaten Maybrat, Papua Bar. 98462","Kambuskato, Ayamaru Tim. Sel., Kabupaten Maybrat",PAPUA BARAT,98462.0,Indonesia,,-1.3245298,132.2656603,https://maps.google.com/?cid=0x0:0xb403c133710fe502
mall,mall,Ayamaru Utara,"Kabupaten Maybrat, Papua Bar.","Kabupaten Maybrat, Papua Bar.",PAPUA BARAT,,Indonesia,,-1.1983051,132.2165112,https://maps.google.com/?cid=0x0:0x7c47e1a7cad6e57d
mall,mall,Distrik Ayamaru Utara Timur,"Kabupaten Maybrat, Papua Bar.","Kabupaten Maybrat, Papua Bar.",PAPUA BARAT,,Indonesia,,-1.2541857,132.3121103,https://maps.google.com/?cid=0x0:0x48dc44cac491eb66
mall,mall,Papua Bar.,,Papua Bar.,PAPUA BARAT,,Indonesia,,-1.3361154,133.1747162,https://maps.google.com/?cid=0x0:0x5349c1f8c5c7cb62
mall,Pusat Perbelanjaan,Manokwari City Mall (MCM),"Jl. Yos Sudarso Manokwari, Manokwari Bar., Kec. Manokwari Bar., Kabupaten Manokwari, Papua Bar. 98312","Manokwari Bar., Kec. Manokwari Bar., Kabupaten Manokwari",PAPUA BARAT,98312.0,Indonesia,8114918899.0,-0.85693,134.0678051,https://maps.google.com/?cid=0x0:0x7e7b90df1d787501
mall,Pusat Perbelanjaan,Pondok Indah Mall 1,"Jl. Metro Pondok Indah No.Kav. 4, RT.1/RW.16, Pd. Pinang, Kec. Kby. Lama, Kota Jakarta Selatan, Daerah Khusus Ibukota Jakarta 12310","RT.1/RW.16, Pd. Pinang, Kec. Kby. Lama, Kota Jakarta Selatan",PAPUA BARAT,12310.0,Indonesia,217506750.0,-6.2652166,106.7843165,https://maps.google.com/?cid=0x0:0x682837113c4ea854
mall,Pusat Perbelanjaan,Mega Mall Sorong,"Jalan Basuki Rahmat Klabulu, Malaimsimsa, Malaingkedi, Kec. Sorong Utara, Kota Sorong, Papua Bar. 98412","Malaimsimsa, Malaingkedi, Kec. Sorong Utara, Kota Sorong",PAPUA BARAT,98412.0,Indonesia,,-0.8873097,131.3012842,https://maps.google.com/?cid=0x0:0x364e52ce8985aa7
mall,Pusat Perbelanjaan,Lotte Shopping Avenue Mall,"Jl. Prof. DR. Satrio No.Kav.3, RW.5, Kuningan, Karet Kuningan, Kecamatan Setiabudi, Kota Jakarta Selatan, Daerah Khusus Ibukota Jakarta 12940","RW.5, Kuningan, Karet Kuningan, Kecamatan Setiabudi, Kota Jakarta Selatan",PAPUA BARAT,12940.0,Indonesia,2129889292.0,-6.2233644,106.8232981,https://maps.google.com/?cid=0x0:0xe8323175da8b9770
mall,Pusat Perbelanjaan,Mall Senayan City,"Jl. Asia Afrika No.Lot 19, Gelora, Kecamatan Tanah Abang, Kota Jakarta Pusat, Daerah Khusus Ibukota Jakarta 10270","Gelora, Kecamatan Tanah Abang, Kota Jakarta Pusat",PAPUA BARAT,10270.0,Indonesia,2172781000.0,-6.2271953,106.7970117,https://maps.google.com/?cid=0x0:0x300c043104acc004
mall,Pusat Perbelanjaan,Pondok Indah Mall 2,"Jl. Metro Pondok Indah, Pd. Pinang, Kec. Kby. Lama, Kota Jakarta Selatan, Daerah Khusus Ibukota Jakarta 12310","Pd. Pinang, Kec. Kby. Lama, Kota Jakarta Selatan",PAPUA BARAT,12310.0,Indonesia,217506750.0,-6.2655241,106.7827928,https://maps.google.com/?cid=0x0:0x203a5d09556daf5f
mall,Pusat Perbelanjaan,RAMAYANA Mall Sorong,"Jl. Wahid Hasyim 220 A-B, Jakarta, Papua Bar. 10250",Jakarta,PAPUA BARAT,10250.0,Indonesia,951332505.0,-0.8820615,131.2755023,https://maps.google.com/?cid=0x0:0x595b97e0cac05b45
mall,Pusat Perbelanjaan,Grand Indonesia Shopping Town,"Jl. M.H. Thamrin No.1, Menteng, Kec. Menteng, Kota Jakarta Pusat, Daerah Khusus Ibukota Jakarta 10310","Menteng, Kec. Menteng, Kota Jakarta Pusat",PAPUA BARAT,10310.0,Indonesia,2123580001.0,-6.1965848,106.8224882,https://maps.google.com/?cid=0x0:0xccfcc89b95aaf1ae
mall,Grosir,AZKO PARAGON SORONG,"4874+GWG, Jl. Basuki Rahmat, Sawagumu, Kec. Sorong Utara, Kota Sorong, Papua Bar.","Kota Sorong, Papua Bar.",PAPUA BARAT,,Indonesia,,-0.886185,131.3073385,https://maps.google.com/?cid=0x0:0x34d596cc826d6f95
mall,Perusahaan Konstruksi,MALL SORONG MODERN CITY,"46HV+8RX, Jl. Yos. Sudarso, Kp. Baru, Distrik Sorong, Kota Sorong, Papua Bar. 98411","Jl. Yos. Sudarso, Kp. Baru, Distrik Sorong, Kota Sorong",PAPUA BARAT,98411.0,Indonesia,,-0.8716413,131.2446118,https://maps.google.com/?cid=0x0:0x40151c61e7d35d7a
mall,Pusat Perbelanjaan,PARAGON SQUARE Mall  Hotel Sorong,"4874+4RH Paragon Square Mall, Jl. Basuki Rahmat Lt. 2, Sawagumu, Kec. Sorong Utara, Kota Sorong, Papua Bar. 98412","Jl. Basuki Rahmat Lt. 2, Sawagumu, Kec. Sorong Utara, Kota Sorong",PAPUA BARAT,98412.0,Indonesia,81247232214.0,-0.8871443,131.3071264,https://maps.google.com/?cid=0x0:0xd02481be48cb6e05
mall,Minimarket,Hadi Supermarket Manokwari,"43V9+632, Jl. Yos Sudarso Manokwari, Manokwari Bar., Barat, Kabupaten Manokwari, Papua Bar. 98312","Jl. Yos Sudarso Manokwari, Manokwari Bar., Barat, Kabupaten Manokwari",PAPUA BARAT,98312.0,Indonesia,81344231138.0,-0.8569848,134.0676451,https://maps.google.com/?cid=0x0:0x9eff32c2ea26d6a2
mall,Toko Perhiasan,Naughty Hadi Mall,"Jl. Yos Sudarso No.8, Manokwari Bar., Kec. Manokwari Bar., Kabupaten Manokwari, Papua Bar. 98312","Manokwari Bar., Kec. Manokwari Bar., Kabupaten Manokwari",PAPUA BARAT,98312.0,Indonesia,,-0.8571975,134.0675484,https://maps.google.com/?cid=0x0:0x4fdc9271213b8a6b
mall,mall,Papua Bar. 98461,"Kabupaten Maybrat, Papua Bar.","Kabupaten Maybrat, Papua Bar.",PAPUA BARAT,,Indonesia,,-1.2145828,132.1177396,https://maps.google.com/?cid=0x0:0x150319512b004ee4
mall,Pusat Perbelanjaan,Mega Mall Sorong,"Jalan Basuki Rahmat Klabulu, Malaimsimsa, Malaingkedi, Kec. Sorong Utara, Kota Sorong, Papua Bar. 98412","Malaimsimsa, Malaingkedi, Kec. Sorong Utara, Kota Sorong",PAPUA BARAT,98412.0,Indonesia,,-0.8873097,131.3012842,https://maps.google.com/?cid=0x0:0x364e52ce8985aa7
mall,Pusat Perbelanjaan,Belakang Manokwari city mall,"43W7+F3H, Manokwari Bar., Kec. Manokwari Bar., Kabupaten Manokwari, Papua Bar. 98312","Manokwari Bar., Kec. Manokwari Bar., Kabupaten Manokwari",PAPUA BARAT,98312.0,Indonesia,,-0.8538079,134.0627452,https://maps.google.com/?cid=0x0:0x59f633fd28048da4
mall,Pusat Perbelanjaan,Manokwari City Mall (MCM),"Jl. Yos Sudarso Manokwari, Manokwari Bar., Kec. Manokwari Bar., Kabupaten Manokwari, Papua Bar. 98312","Manokwari Bar., Kec. Manokwari Bar., Kabupaten Manokwari",PAPUA BARAT,98312.0,Indonesia,8114918899.0,-0.85693,134.0678051,https://maps.google.com/?cid=0x0:0x7e7b90df1d787501
mall,Komplek perumahan,Fanindi Pantai,"43R9+J9P Bar, Padarni, Kec. Manokwari Bar., Kabupaten Manokwari, Papua Bar. 98312","Padarni, Kec. Manokwari Bar., Kabupaten Manokwari",PAPUA BARAT,98312.0,Indonesia,81344477231.0,-0.8584193,134.0684588,https://maps.google.com/?cid=0x0:0xfea55ca67440bcde
mall,Jepang,Ichiban Sushi Manokwari City Mall,"Jl. Yos Sudarso, Manokwari Bar., Kec. Manokwari Bar., Kabupaten Manokwari, Papua Bar. 98312","Manokwari Bar., Kec. Manokwari Bar., Kabupaten Manokwari",PAPUA BARAT,98312.0,Indonesia,,-0.85696,134.0676162,https://maps.google.com/?cid=0x0:0x345744965a30969a
mall,Pusat Perbelanjaan,Mall Taman Palem,"Jl. Kamal Raya Outer Ring Road, Cengkareng Tim., Kecamatan Cengkareng, Kota Jakarta Barat, Daerah Khusus Ibukota Jakarta 11730","Cengkareng Tim., Kecamatan Cengkareng, Kota Jakarta Barat",PAPUA BARAT,11730.0,Indonesia,,-6.1394461,106.7308668,https://maps.google.com/?cid=0x0:0xb4b487d720269809
mall,Komplek perumahan,Taman palem lestari,"Jl. Taman Palem Lestari No.32 Blok B16, RT.8/RW.13, Cengkareng Bar., Kecamatan Cengkareng, Kota Jakarta Barat, Daerah Khusus Ibukota Jakarta 11730","RT.8/RW.13, Cengkareng Bar., Kecamatan Cengkareng, Kota Jakarta Barat",PAPUA BARAT,11730.0,Indonesia,,-6.1392155,106.7264664,https://maps.google.com/?cid=0x0:0x70d566012eb2d8ce
mall,mall,Es Time,"Jl. Kamal Raya Outer Ring Road, Cengkareng Tim, Kecamatan Cengkareng, Kota Jakarta Barat, Daerah Khusus Ibukota Jakarta 11730","Cengkareng Tim, Kecamatan Cengkareng, Kota Jakarta Barat",PAPUA BARAT,11730.0,Indonesia,,-6.1392826,106.7314503,https://maps.google.com/?cid=0x0:0x85cc273bb56c29cc
mall,Kedai Kopi,J.CO Donuts Mall Taman Palem,"13, Jl. Lkr. Luar Barat Jkt Outer Ring Road No.11, RT.13/RW.10, Cengkareng Tim., Kecamatan Cengkareng, Jakarta, Daerah Khusus Ibukota Jakarta 11730","Jl. Lkr. Luar Barat Jkt Outer Ring Road No.11, RT.13/RW.10, Cengkareng Tim., Kecamatan Cengkareng, Jakarta",PAPUA BARAT,11730.0,Indonesia,,-6.1394212,106.7307389,https://maps.google.com/?cid=0x0:0xa1afb4b3da594952
mall,Jepang,Hokben Kiosk Mall Taman Palem,"Mall Taman Palem Lt. Ground, Jl. Kamal Raya Outer Ring Road No.015 BLOK B, RT.13/RW.10, East Cengkareng, Cengkareng, West Jakarta City, Jakarta 11740","Jl. Kamal Raya Outer Ring Road No.015 BLOK B, RT.13/RW.10, East Cengkareng, Cengkareng, West Jakarta City",PAPUA BARAT,11740.0,Indonesia,,-6.1391935,106.7315521,https://maps.google.com/?cid=0x0:0x8266cae785baabca
mall,Pusat Perbelanjaan,Mega Mall Sorong,"Jalan Basuki Rahmat Klabulu, Malaimsimsa, Malaingkedi, Kec. Sorong Utara, Kota Sorong, Papua Bar. 98412","Malaimsimsa, Malaingkedi, Kec. Sorong Utara, Kota Sorong",PAPUA BARAT,98412.0,Indonesia,,-0.8873097,131.3012842,https://maps.google.com/?cid=0x0:0x364e52ce8985aa7
mall,Pusat Perbelanjaan,Sorong XXI,"479G+669, Klademak, Distrik Sorong, Kota Sorong, Papua Bar. 98412","Klademak, Distrik Sorong, Kota Sorong",PAPUA BARAT,98412.0,Indonesia,85243436545.0,-0.8819731,131.2756053,https://maps.google.com/?cid=0x0:0x837be603a14de23a
mall,mall,Papua Bar. 98461,"Kabupaten Maybrat, Papua Bar.","Kabupaten Maybrat, Papua Bar.",PAPUA BARAT,,Indonesia,,-1.2145828,132.1177396,https://maps.google.com/?cid=0x0:0x150319512b004ee4
mall,Pusat Perbelanjaan,Mal Sorong,"479G+369, Klademak, Distrik Sorong, Kota Sorong, Papua Bar. 98412","Klademak, Distrik Sorong, Kota Sorong",PAPUA BARAT,98412.0,Indonesia,,-0.8823414,131.2755957,https://maps.google.com/?cid=0x0:0x4efad982776d0ca5
supermarket,supermarket,Distrik Aifat,"Kabupaten Maybrat, Papua Bar.","Kabupaten Maybrat, Papua Bar.",PAPUA BARAT,,Indonesia,,-1.2568532,132.5001338,https://maps.google.com/?cid=0x0:0xcc3d52ba3ddd33de
supermarket,Minimarket,K'Mart Nezeth Maybrat,"Uname Road, Ayawasi, Distrik Aifat Utara, Kabupaten Maybrat, Papua Bar. 98463","Ayawasi, Distrik Aifat Utara, Kabupaten Maybrat",PAPUA BARAT,98463.0,Indonesia,82213211732.0,-1.164832,132.462508,https://maps.google.com/?cid=0x0:0xe147722f0e55e17f
supermarket,Toko bahan makanan,Toko sembako dan Depot air galon ISME JAYA,"Kmp isme, Jitmau, Kec. Aitinyo Utara, Kabupaten Maybrat, Papua Bar.","Kabupaten Maybrat, Papua Bar.",PAPUA BARAT,,Indonesia,85362535198.0,-1.2970979,132.3150993,https://maps.google.com/?cid=0x0:0x9427e11f3f67f624
supermarket,supermarket,Distrik Aifat,"Kabupaten Maybrat, Papua Bar.","Kabupaten Maybrat, Papua Bar.",PAPUA BARAT,,Indonesia,,-1.2568532,132.5001338,https://maps.google.com/?cid=0x0:0xcc3d52ba3ddd33de
supermarket,Minimarket,K'Mart Nezeth Maybrat,"Uname Road, Ayawasi, Distrik Aifat Utara, Kabupaten Maybrat, Papua Bar. 98463","Ayawasi, Distrik Aifat Utara, Kabupaten Maybrat",PAPUA BARAT,98463.0,Indonesia,82213211732.0,-1.164832,132.462508,https://maps.google.com/?cid=0x0:0xe147722f0e55e17f
supermarket,Toko Makanan Sehat,Primo Supermarket Citos,"Town Square, Jl. TB Simatupang No.KAV.17 Lantai Dasar, West Cilandak, Cilandak, South Jakarta City, Jakarta 12430","Jl. TB Simatupang No.KAV.17 Lantai Dasar, West Cilandak, Cilandak, South Jakarta City",PAPUA BARAT,12430.0,Indonesia,2175920390.0,-6.2914315,106.7992178,https://maps.google.com/?cid=0x0:0x110a936a8d153b27
supermarket,Toko bahan makanan,Toko sembako dan Depot air galon ISME JAYA,"Kmp isme, Jitmau, Kec. Aitinyo Utara, Kabupaten Maybrat, Papua Bar.","Kabupaten Maybrat, Papua Bar.",PAPUA BARAT,,Indonesia,85362535198.0,-1.2970979,132.3150993,https://maps.google.com/?cid=0x0:0x9427e11f3f67f624
supermarket,Toko bahan makanan,Sagar indian supermarket,"Jl. Danau Sunter Utara Block R no 67, RT.1/RW.19, Sunter Agung, Tanjung Priok, North Jakarta City, Jakarta 14350","RT.1/RW.19, Sunter Agung, Tanjung Priok, North Jakarta City",PAPUA BARAT,14350.0,Indonesia,8164844875.0,-6.1380243,106.8668598,https://maps.google.com/?cid=0x0:0x93bf3a16f16ce723
supermarket,Toko Kelontong Korea,Mu Gung Hwa Supermarket - Senopati,"Jl. Senayan No.43, RT.8/RW.5, Rw. Bar., Kec. Kby. Baru, Kota Jakarta Selatan, Daerah Khusus Ibukota Jakarta 12180","RT.8/RW.5, Rw. Bar., Kec. Kby. Baru, Kota Jakarta Selatan",PAPUA BARAT,12180.0,Indonesia,217222214.0,-6.2353938,106.8158782,https://maps.google.com/?cid=0x0:0x9ffba79e59c537d5
supermarket,Minimarket,K'Mart Nezeth Maybrat,"Uname Road, Ayawasi, Distrik Aifat Utara, Kabupaten Maybrat, Papua Bar. 98463","Ayawasi, Distrik Aifat Utara, Kabupaten Maybrat",PAPUA BARAT,98463.0,Indonesia,82213211732.0,-1.164832,132.462508,https://maps.google.com/?cid=0x0:0xe147722f0e55e17f
supermarket,Nasi,KIOS NUSANTARA JAYA,"PGV2+732, Eisyo, Distrik Aifat, Kabupaten Maybrat, Papua Bar. 98463","Eisyo, Distrik Aifat, Kabupaten Maybrat",PAPUA BARAT,98463.0,Indonesia,,-1.2568954,132.5001302,https://maps.google.com/?cid=0x0:0x6d851afb8fd9c667
supermarket,Nasi,KIOS NUSANTARA JAYA,"PGV2+732, Eisyo, Distrik Aifat, Kabupaten Maybrat, Papua Bar. 98463","Eisyo, Distrik Aifat, Kabupaten Maybrat",PAPUA BARAT,98463.0,Indonesia,,-1.2568954,132.5001302,https://maps.google.com/?cid=0x0:0x6d851afb8fd9c667
supermarket,supermarket,Distrik Aifat,"Kabupaten Maybrat, Papua Bar.","Kabupaten Maybrat, Papua Bar.",PAPUA BARAT,,Indonesia,,-1.2568532,132.5001338,https://maps.google.com/?cid=0x0:0xcc3d52ba3ddd33de
supermarket,Minimarket,K'Mart Nezeth Maybrat,"Uname Road, Ayawasi, Distrik Aifat Utara, Kabupaten Maybrat, Papua Bar. 98463","Ayawasi, Distrik Aifat Utara, Kabupaten Maybrat",PAPUA BARAT,98463.0,Indonesia,82213211732.0,-1.164832,132.462508,https://maps.google.com/?cid=0x0:0xe147722f0e55e17f
supermarket,Toko,Kios Silva,"PFWX+3QF, Eisyo, Distrik Aifat, Kabupaten Maybrat, Papua Bar. 98463","Eisyo, Distrik Aifat, Kabupaten Maybrat",PAPUA BARAT,98463.0,Indonesia,,-1.2547691,132.4994475,https://maps.google.com/?cid=0x0:0x24c5a62fc27d1932
supermarket,Kantor Perusahaan,Inaya Komputer,"PFWX+3QF, Eisyo, Distrik Aifat, Kabupaten Maybrat, Papua Bar. 98463","Eisyo, Distrik Aifat, Kabupaten Maybrat",PAPUA BARAT,98463.0,Indonesia,,-1.2548051,132.4994145,https://maps.google.com/?cid=0x0:0xcfc6ffbf2a8d07a9
supermarket,Toko bahan makanan,Toko sembako dan Depot air galon ISME JAYA,"Kmp isme, Jitmau, Kec. Aitinyo Utara, Kabupaten Maybrat, Papua Bar.","Kabupaten Maybrat, Papua Bar.",PAPUA BARAT,,Indonesia,85362535198.0,-1.2970979,132.3150993,https://maps.google.com/?cid=0x0:0x9427e11f3f67f624
supermarket,Toko Komputer,kumurkek,"PFWX+HQ8, Kumurkek, Distrik Aifat, Kabupaten Maybrat, Papua Bar. 98463","Kumurkek, Distrik Aifat, Kabupaten Maybrat",PAPUA BARAT,98463.0,Indonesia,,-1.2535949,132.4994515,https://maps.google.com/?cid=0x0:0x516a7fee0ea330
supermarket,Toko,Kios Bu Yuli,"PFWX+9G9, Eisyo, Distrik Aifat, Kabupaten Maybrat, Papua Bar.","Kabupaten Maybrat, Papua Bar.",PAPUA BARAT,,Indonesia,,-1.2540407,132.4988524,https://maps.google.com/?cid=0x0:0x65b1d5f9edd8055d
supermarket,supermarket,Toko.AB.SEJAHTERA,"PGR2+JHJ, Eisyo, Distrik Aifat, Kabupaten Maybrat, Papua Bar. 98463","Eisyo, Distrik Aifat, Kabupaten Maybrat",PAPUA BARAT,98463.0,Indonesia,,-1.2584078,132.501397,https://maps.google.com/?cid=0x0:0x51b382eb91ee9ea0
supermarket,supermarket,Kios Damai,"PFWX+3QF, Eisyo, Distrik Aifat, Kabupaten Maybrat, Papua Bar. 98463","Eisyo, Distrik Aifat, Kabupaten Maybrat",PAPUA BARAT,98463.0,Indonesia,,-1.2541319,132.4993779,https://maps.google.com/?cid=0x0:0x15199e9de45b21ef
supermarket,supermarket,Kios Rymba,"PGR2+C9G, Eisyo, Distrik Aifat, Kabupaten Maybrat, Papua Bar. 98463","Eisyo, Distrik Aifat, Kabupaten Maybrat",PAPUA BARAT,98463.0,Indonesia,,-1.2587105,132.5004485,https://maps.google.com/?cid=0x0:0x4203084e6b6545b4
supermarket,Minimarket,K'Mart Nezeth Maybrat,"Uname Road, Ayawasi, Distrik Aifat Utara, Kabupaten Maybrat, Papua Bar. 98463","Ayawasi, Distrik Aifat Utara, Kabupaten Maybrat",PAPUA BARAT,98463.0,Indonesia,82213211732.0,-1.164832,132.462508,https://maps.google.com/?cid=0x0:0xe147722f0e55e17f
supermarket,supermarket,Papua Bar. 98463,"Kabupaten Maybrat, Papua Bar.","Kabupaten Maybrat, Papua Bar.",PAPUA BARAT,,Indonesia,,-1.4090016,132.4724578,https://maps.google.com/?cid=0x0:0x852013718cca9d21
supermarket,Nasi,KIOS NUSANTARA JAYA,"PGV2+732, Eisyo, Distrik Aifat, Kabupaten Maybrat, Papua Bar. 98463","Eisyo, Distrik Aifat, Kabupaten Maybrat",PAPUA BARAT,98463.0,Indonesia,,-1.2568954,132.5001302,https://maps.google.com/?cid=0x0:0x6d851afb8fd9c667
supermarket,Toko Ponsel,Kampung kumurkek,"PFRX+RC4, Eisyo, Distrik Aifat Selatan, Kabupaten Maybrat, Papua Bar. 98463","Eisyo, Distrik Aifat Selatan, Kabupaten Maybrat",PAPUA BARAT,98463.0,Indonesia,82198536889.0,-1.2579042,132.4986305,https://maps.google.com/?cid=0x0:0x321df73430dba98c
supermarket,Minimarket,K'Mart Nezeth Maybrat,"Uname Road, Ayawasi, Distrik Aifat Utara, Kabupaten Maybrat, Papua Bar. 98463","Ayawasi, Distrik Aifat Utara, Kabupaten Maybrat",PAPUA BARAT,98463.0,Indonesia,82213211732.0,-1.164832,132.462508,https://maps.google.com/?cid=0x0:0xe147722f0e55e17f
supermarket,Nasi,KIOS NUSANTARA JAYA,"PGV2+732, Eisyo, Distrik Aifat, Kabupaten Maybrat, Papua Bar. 98463","Eisyo, Distrik Aifat, Kabupaten Maybrat",PAPUA BARAT,98463.0,Indonesia,,-1.2568954,132.5001302,https://maps.google.com/?cid=0x0:0x6d851afb8fd9c667
supermarket,supermarket,Distrik Aifat Timur,"Kabupaten Maybrat, Papua Bar.","Kabupaten Maybrat, Papua Bar.",PAPUA BARAT,,Indonesia,,-1.3591179,132.59276,https://maps.google.com/?cid=0x0:0x14eac191dd6d8e2e
supermarket,Toko,KIOS IPANG,"PFWX+WV3, Kumurkek, Distrik Aifat Selatan, Kabupaten Maybrat, Papua Bar. 98463","Kumurkek, Distrik Aifat Selatan, Kabupaten Maybrat",PAPUA BARAT,98463.0,Indonesia,,-1.2527421,132.4996708,https://maps.google.com/?cid=0x0:0x93cc26a350ad3869
supermarket,Toko,Kios Silva,"PFWX+3QF, Eisyo, Distrik Aifat, Kabupaten Maybrat, Papua Bar. 98463","Eisyo, Distrik Aifat, Kabupaten Maybrat",PAPUA BARAT,98463.0,Indonesia,,-1.2547691,132.4994475,https://maps.google.com/?cid=0x0:0x24c5a62fc27d1932
supermarket,supermarket,Toko.AB.SEJAHTERA,"PGR2+JHJ, Eisyo, Distrik Aifat, Kabupaten Maybrat, Papua Bar. 98463","Eisyo, Distrik Aifat, Kabupaten Maybrat",PAPUA BARAT,98463.0,Indonesia,,-1.2584078,132.501397,https://maps.google.com/?cid=0x0:0x51b382eb91ee9ea0
supermarket,Kantor Perusahaan,Inaya Komputer,"PFWX+3QF, Eisyo, Distrik Aifat, Kabupaten Maybrat, Papua Bar. 98463","Eisyo, Distrik Aifat, Kabupaten Maybrat",PAPUA BARAT,98463.0,Indonesia,,-1.2548051,132.4994145,https://maps.google.com/?cid=0x0:0xcfc6ffbf2a8d07a9
supermarket,Toko,Kios Bu Yuli,"PFWX+9G9, Eisyo, Distrik Aifat, Kabupaten Maybrat, Papua Bar.","Kabupaten Maybrat, Papua Bar.",PAPUA BARAT,,Indonesia,,-1.2540407,132.4988524,https://maps.google.com/?cid=0x0:0x65b1d5f9edd8055d
supermarket,supermarket,Distrik Aifat Selatan,"Kabupaten Maybrat, Papua Bar.","Kabupaten Maybrat, Papua Bar.",PAPUA BARAT,,Indonesia,,-1.4185595,132.5043916,https://maps.google.com/?cid=0x0:0x5390da174ca5ef27
supermarket,Toko,KIOS IPANG,"PFWX+WV3, Kumurkek, Distrik Aifat Selatan, Kabupaten Maybrat, Papua Bar. 98463","Kumurkek, Distrik Aifat Selatan, Kabupaten Maybrat",PAPUA BARAT,98463.0,Indonesia,,-1.2527421,132.4996708,https://maps.google.com/?cid=0x0:0x93cc26a350ad3869
supermarket,Komplek perumahan,TOKO MUKAMAT JAYA,"9CJ7+68, Womba, Distrik Aifat Selatan, Kabupaten Maybrat, Papua Bar.","Kabupaten Maybrat, Papua Bar.",PAPUA BARAT,,Indonesia,,-1.6194771,132.4132377,https://maps.google.com/?cid=0x0:0x9b3cf1ff03330786
supermarket,Toko bahan makanan,Toko Sinar Utama A3,"G65Q+QV8, Bumi Ajo (Sp I), Distrik Moswaren, Kabupaten Sorong Selatan, Papua Bar. 98462","Bumi Ajo (Sp I), Distrik Moswaren, Kabupaten Sorong Selatan",PAPUA BARAT,98462.0,Indonesia,,-1.4905895,132.2397065,https://maps.google.com/?cid=0x0:0xa5c861ebcb39da12
supermarket,Toko,Kios Silva,"PFWX+3QF, Eisyo, Distrik Aifat, Kabupaten Maybrat, Papua Bar. 98463","Eisyo, Distrik Aifat, Kabupaten Maybrat",PAPUA BARAT,98463.0,Indonesia,,-1.2547691,132.4994475,https://maps.google.com/?cid=0x0:0x24c5a62fc27d1932
supermarket,Kompleks Apartemen,Itigah_Negeri senja_Jln_Tapak Injil,"F8F6+4X, Kamro, Distrik Aitinyo, Kabupaten Maybrat, Papua Bar.","Kabupaten Maybrat, Papua Bar.",PAPUA BARAT,,Indonesia,,-1.5271736,132.3124584,https://maps.google.com/?cid=0x0:0xe24aac9c7c983f67
supermarket,Nasi,KIOS NUSANTARA JAYA,"PGV2+732, Eisyo, Distrik Aifat, Kabupaten Maybrat, Papua Bar. 98463","Eisyo, Distrik Aifat, Kabupaten Maybrat",PAPUA BARAT,98463.0,Indonesia,,-1.2568954,132.5001302,https://maps.google.com/?cid=0x0:0x6d851afb8fd9c667
supermarket,Pusat Perbelanjaan,Papua Supermarket  Dept. Store,"4869+F77 Bar, Sawagumu, Kec. Sorong Utara, Kota Sorong, Papua Bar. 98416","Sawagumu, Kec. Sorong Utara, Kota Sorong",PAPUA BARAT,98416.0,Indonesia,9513160123.0,-0.888831,131.3181847,https://maps.google.com/?cid=0x0:0x7b5f0926a74ad213
supermarket,Kantor Perusahaan,Inaya Komputer,"PFWX+3QF, Eisyo, Distrik Aifat, Kabupaten Maybrat, Papua Bar. 98463","Eisyo, Distrik Aifat, Kabupaten Maybrat",PAPUA BARAT,98463.0,Indonesia,,-1.2548051,132.4994145,https://maps.google.com/?cid=0x0:0xcfc6ffbf2a8d07a9
supermarket,Produsen,Kacang Maleo Maybrat Indonesia,"Jln. Silas Kaaf, Kampung Sowai Sau, Daya, Distrik Aitinyo, Kabupaten Maybrat, Papua Bar. 98240","Kampung Sowai Sau, Daya, Distrik Aitinyo, Kabupaten Maybrat",PAPUA BARAT,98240.0,Indonesia,81240754185.0,-1.4375122,132.3970101,https://maps.google.com/?cid=0x0:0x11dc771ed7e578f1
supermarket,Toko,Kios Berkat Doa Pertigaan Susumuk,"Tehahite, Susumuk, Kabupaten Maybrat, Papua Bar. 98416","Susumuk, Kabupaten Maybrat",PAPUA BARAT,98416.0,Indonesia,85242866651.0,-1.348604,132.4667729,https://maps.google.com/?cid=0x0:0x7e521afcf173282c
supermarket,Toko Ponsel,Kampung kumurkek,"PFRX+RC4, Eisyo, Distrik Aifat Selatan, Kabupaten Maybrat, Papua Bar. 98463","Eisyo, Distrik Aifat Selatan, Kabupaten Maybrat",PAPUA BARAT,98463.0,Indonesia,82198536889.0,-1.2579042,132.4986305,https://maps.google.com/?cid=0x0:0x321df73430dba98c
supermarket,supermarket,Toko.AB.SEJAHTERA,"PGR2+JHJ, Eisyo, Distrik Aifat, Kabupaten Maybrat, Papua Bar. 98463","Eisyo, Distrik Aifat, Kabupaten Maybrat",PAPUA BARAT,98463.0,Indonesia,,-1.2584078,132.501397,https://maps.google.com/?cid=0x0:0x51b382eb91ee9ea0
supermarket,supermarket,Distrik Aifat Utara,"Kabupaten Maybrat, Papua Bar.","Kabupaten Maybrat, Papua Bar.",PAPUA BARAT,,Indonesia,,-1.1588544,132.4643784,https://maps.google.com/?cid=0x0:0x7ec0d9546b1ece9c
supermarket,Minimarket,K'Mart Nezeth Maybrat,"Uname Road, Ayawasi, Distrik Aifat Utara, Kabupaten Maybrat, Papua Bar. 98463","Ayawasi, Distrik Aifat Utara, Kabupaten Maybrat",PAPUA BARAT,98463.0,Indonesia,82213211732.0,-1.164832,132.462508,https://maps.google.com/?cid=0x0:0xe147722f0e55e17f
supermarket,Toko,KIOS IPANG,"PFWX+WV3, Kumurkek, Distrik Aifat Selatan, Kabupaten Maybrat, Papua Bar. 98463","Kumurkek, Distrik Aifat Selatan, Kabupaten Maybrat",PAPUA BARAT,98463.0,Indonesia,,-1.2527421,132.4996708,https://maps.google.com/?cid=0x0:0x93cc26a350ad3869
supermarket,Kantor Perusahaan,Inaya Komputer,"PFWX+3QF, Eisyo, Distrik Aifat, Kabupaten Maybrat, Papua Bar. 98463","Eisyo, Distrik Aifat, Kabupaten Maybrat",PAPUA BARAT,98463.0,Indonesia,,-1.2548051,132.4994145,https://maps.google.com/?cid=0x0:0xcfc6ffbf2a8d07a9
supermarket,Nasi,KIOS NUSANTARA JAYA,"PGV2+732, Eisyo, Distrik Aifat, Kabupaten Maybrat, Papua Bar. 98463","Eisyo, Distrik Aifat, Kabupaten Maybrat",PAPUA BARAT,98463.0,Indonesia,,-1.2568954,132.5001302,https://maps.google.com/?cid=0x0:0x6d851afb8fd9c667
supermarket,supermarket,Toko.AB.SEJAHTERA,"PGR2+JHJ, Eisyo, Distrik Aifat, Kabupaten Maybrat, Papua Bar. 98463","Eisyo, Distrik Aifat, Kabupaten Maybrat",PAPUA BARAT,98463.0,Indonesia,,-1.2584078,132.501397,https://maps.google.com/?cid=0x0:0x51b382eb91ee9ea0
supermarket,Toko Komputer,kumurkek,"PFWX+HQ8, Kumurkek, Distrik Aifat, Kabupaten Maybrat, Papua Bar. 98463","Kumurkek, Distrik Aifat, Kabupaten Maybrat",PAPUA BARAT,98463.0,Indonesia,,-1.2535949,132.4994515,https://maps.google.com/?cid=0x0:0x516a7fee0ea330
supermarket,supermarket,Distrik Aitinyo,"Kabupaten Maybrat, Papua Bar.","Kabupaten Maybrat, Papua Bar.",PAPUA BARAT,,Indonesia,,-1.4413734,132.3839209,https://maps.google.com/?cid=0x0:0xd008081240dea68f
supermarket,Toko Perbaikan Ponsel,Aitinyo,"H99Q+V7G, Korom, Distrik Aitinyo, Kabupaten Maybrat, Papua Bar. 98463","Korom, Distrik Aitinyo, Kabupaten Maybrat",PAPUA BARAT,98463.0,Indonesia,,-1.430311,132.3881946,https://maps.google.com/?cid=0x0:0x1e35afd58f2401c9
supermarket,Kompleks Apartemen,Itigah_Negeri senja_Jln_Tapak Injil,"F8F6+4X, Kamro, Distrik Aitinyo, Kabupaten Maybrat, Papua Bar.","Kabupaten Maybrat, Papua Bar.",PAPUA BARAT,,Indonesia,,-1.5271736,132.3124584,https://maps.google.com/?cid=0x0:0xe24aac9c7c983f67
supermarket,Toko bahan makanan,Toko sembako dan Depot air galon ISME JAYA,"Kmp isme, Jitmau, Kec. Aitinyo Utara, Kabupaten Maybrat, Papua Bar.","Kabupaten Maybrat, Papua Bar.",PAPUA BARAT,,Indonesia,85362535198.0,-1.2970979,132.3150993,https://maps.google.com/?cid=0x0:0x9427e11f3f67f624
supermarket,Toko,Kios Vero,"M8W7+F5V, Jitmau Tim., Kec. Aitinyo Utara, Kabupaten Maybrat, Papua Bar.","Kabupaten Maybrat, Papua Bar.",PAPUA BARAT,,Indonesia,,-1.303769,132.3129322,https://maps.google.com/?cid=0x0:0xe0991b1218c5d1f5
supermarket,Toko Perlengkapan Rumah,Toko Dian,"G65R+3MM, Unnamed Road, Bumi Ajo (Sp I), Distrik Moswaren, Kabupaten Sorong Selatan, Papua Bar. 98462","Unnamed Road, Bumi Ajo (Sp I), Distrik Moswaren, Kabupaten Sorong Selatan",PAPUA BARAT,98462.0,Indonesia,,-1.492288,132.2416592,https://maps.google.com/?cid=0x0:0x494f8754fd815413
supermarket,supermarket,Distrik Aitinyo,"Kabupaten Maybrat, Papua Bar.","Kabupaten Maybrat, Papua Bar.",PAPUA BARAT,,Indonesia,,-1.4413734,132.3839209,https://maps.google.com/?cid=0x0:0xd008081240dea68f
supermarket,Kompleks Apartemen,Itigah_Negeri senja_Jln_Tapak Injil,"F8F6+4X, Kamro, Distrik Aitinyo, Kabupaten Maybrat, Papua Bar.","Kabupaten Maybrat, Papua Bar.",PAPUA BARAT,,Indonesia,,-1.5271736,132.3124584,https://maps.google.com/?cid=0x0:0xe24aac9c7c983f67
supermarket,Toko bahan makanan,Toko Sinar Utama A3,"G65Q+QV8, Bumi Ajo (Sp I), Distrik Moswaren, Kabupaten Sorong Selatan, Papua Bar. 98462","Bumi Ajo (Sp I), Distrik Moswaren, Kabupaten Sorong Selatan",PAPUA BARAT,98462.0,Indonesia,,-1.4905895,132.2397065,https://maps.google.com/?cid=0x0:0xa5c861ebcb39da12
supermarket,Toko bahan makanan,Toko sembako dan Depot air galon ISME JAYA,"Kmp isme, Jitmau, Kec. Aitinyo Utara, Kabupaten Maybrat, Papua Bar.","Kabupaten Maybrat, Papua Bar.",PAPUA BARAT,,Indonesia,85362535198.0,-1.2970979,132.3150993,https://maps.google.com/?cid=0x0:0x9427e11f3f67f624
supermarket,Toko Perbaikan Ponsel,Aitinyo,"H99Q+V7G, Korom, Distrik Aitinyo, Kabupaten Maybrat, Papua Bar. 98463","Korom, Distrik Aitinyo, Kabupaten Maybrat",PAPUA BARAT,98463.0,Indonesia,,-1.430311,132.3881946,https://maps.google.com/?cid=0x0:0x1e35afd58f2401c9
supermarket,Pusat Perbelanjaan,Papua Supermarket  Dept. Store,"4869+F77 Bar, Sawagumu, Kec. Sorong Utara, Kota Sorong, Papua Bar. 98416","Sawagumu, Kec. Sorong Utara, Kota Sorong",PAPUA BARAT,98416.0,Indonesia,9513160123.0,-0.888831,131.3181847,https://maps.google.com/?cid=0x0:0x7b5f0926a74ad213
supermarket,Toko Perbaikan Ponsel,Aitinyo,"H99Q+V7G, Korom, Distrik Aitinyo, Kabupaten Maybrat, Papua Bar. 98463","Korom, Distrik Aitinyo, Kabupaten Maybrat",PAPUA BARAT,98463.0,Indonesia,,-1.430311,132.3881946,https://maps.google.com/?cid=0x0:0x1e35afd58f2401c9
supermarket,Toko Ponsel,Aipat kumurke,"P838+529, Jitmau, Kec. Aitinyo Utara, Kabupaten Maybrat, Papua Bar.","Kabupaten Maybrat, Papua Bar.",PAPUA BARAT,,Indonesia,,-1.2970979,132.3150993,https://maps.google.com/?cid=0x0:0x5d2d62cd73e9232d
supermarket,Kantor Pemerintah,Kantor kampung korom,"H99Q+V7G, Korom, Distrik Aitinyo, Kabupaten Maybrat, Papua Bar. 98463","Korom, Distrik Aitinyo, Kabupaten Maybrat",PAPUA BARAT,98463.0,Indonesia,,-1.4304746,132.3873668,https://maps.google.com/?cid=0x0:0x3d0a2e5123c9e14b
supermarket,Toko,Kios Vero,"M8W7+F5V, Jitmau Tim., Kec. Aitinyo Utara, Kabupaten Maybrat, Papua Bar.","Kabupaten Maybrat, Papua Bar.",PAPUA BARAT,,Indonesia,,-1.303769,132.3129322,https://maps.google.com/?cid=0x0:0xe0991b1218c5d1f5
supermarket,supermarket,Kios Trisya,"P6C2+G2X, Mefkajim II, Kec. Ayamaru, Kabupaten Maybrat, Papua Bar. 98462","Mefkajim II, Kec. Ayamaru, Kabupaten Maybrat",PAPUA BARAT,98462.0,Indonesia,,-1.2786266,132.2000968,https://maps.google.com/?cid=0x0:0xe202842e1d06b5d4
supermarket,supermarket,Distrik Aitinyo,"Kabupaten Maybrat, Papua Bar.","Kabupaten Maybrat, Papua Bar.",PAPUA BARAT,,Indonesia,,-1.4413734,132.3839209,https://maps.google.com/?cid=0x0:0xd008081240dea68f
supermarket,Toko Perbaikan Ponsel,Aitinyo,"H99Q+V7G, Korom, Distrik Aitinyo, Kabupaten Maybrat, Papua Bar. 98463","Korom, Distrik Aitinyo, Kabupaten Maybrat",PAPUA BARAT,98463.0,Indonesia,,-1.430311,132.3881946,https://maps.google.com/?cid=0x0:0x1e35afd58f2401c9
supermarket,Kompleks Apartemen,Itigah_Negeri senja_Jln_Tapak Injil,"F8F6+4X, Kamro, Distrik Aitinyo, Kabupaten Maybrat, Papua Bar.","Kabupaten Maybrat, Papua Bar.",PAPUA BARAT,,Indonesia,,-1.5271736,132.3124584,https://maps.google.com/?cid=0x0:0xe24aac9c7c983f67
supermarket,Toko bahan makanan,Toko Sinar Utama A3,"G65Q+QV8, Bumi Ajo (Sp I), Distrik Moswaren, Kabupaten Sorong Selatan, Papua Bar. 98462","Bumi Ajo (Sp I), Distrik Moswaren, Kabupaten Sorong Selatan",PAPUA BARAT,98462.0,Indonesia,,-1.4905895,132.2397065,https://maps.google.com/?cid=0x0:0xa5c861ebcb39da12
supermarket,supermarket,Nusa7_Travel,"H99Q+W8, Korom, Distrik Aitinyo, Kabupaten Maybrat, Papua Bar.","Kabupaten Maybrat, Papua Bar.",PAPUA BARAT,,Indonesia,,-1.429918,132.388216,https://maps.google.com/?cid=0x0:0xbbac05d26dc149f3
supermarket,supermarket,Arusmara Computer Support,"G96H+WX4, Kamro, Distrik Aitinyo, Kabupaten Maybrat, Papua Bar. 98463","Kamro, Distrik Aitinyo, Kabupaten Maybrat",PAPUA BARAT,98463.0,Indonesia,81247752462.0,-1.4877375,132.3799531,https://maps.google.com/?cid=0x0:0x8956974a7ac1b808
supermarket,Toko,Kios Vero,"M8W7+F5V, Jitmau Tim., Kec. Aitinyo Utara, Kabupaten Maybrat, Papua Bar.","Kabupaten Maybrat, Papua Bar.",PAPUA BARAT,,Indonesia,,-1.303769,132.3129322,https://maps.google.com/?cid=0x0:0xe0991b1218c5d1f5
supermarket,Toko bahan makanan,Toko sembako dan Depot air galon ISME JAYA,"Kmp isme, Jitmau, Kec. Aitinyo Utara, Kabupaten Maybrat, Papua Bar.","Kabupaten Maybrat, Papua Bar.",PAPUA BARAT,,Indonesia,85362535198.0,-1.2970979,132.3150993,https://maps.google.com/?cid=0x0:0x9427e11f3f67f624
supermarket,Toko Perlengkapan Rumah,Toko Dian,"G65R+3MM, Unnamed Road, Bumi Ajo (Sp I), Distrik Moswaren, Kabupaten Sorong Selatan, Papua Bar. 98462","Unnamed Road, Bumi Ajo (Sp I), Distrik Moswaren, Kabupaten Sorong Selatan",PAPUA BARAT,98462.0,Indonesia,,-1.492288,132.2416592,https://maps.google.com/?cid=0x0:0x494f8754fd815413
supermarket,Toko,TOKO FOTEF,"M7GM+5Q, Kambuwifa, Kec. Ayamaru Tim., Kabupaten Maybrat, Papua Bar.","Kabupaten Maybrat, Papua Bar.",PAPUA BARAT,,Indonesia,,-1.3245586,132.2844109,https://maps.google.com/?cid=0x0:0xeff7283771b8607a
supermarket,Komplek perumahan,Kampung Ikuf Utara,"P825+PHW, Ikuf, Kec. Aitinyo Utara, Kabupaten Maybrat, Papua Bar. 98462","Ikuf, Kec. Aitinyo Utara, Kabupaten Maybrat",PAPUA BARAT,98462.0,Indonesia,82238129105.0,-1.2981251,132.3089429,https://maps.google.com/?cid=0x0:0xb9d02a542bef9753
supermarket,Toko,Kios Vero,"M8W7+F5V, Jitmau Tim., Kec. Aitinyo Utara, Kabupaten Maybrat, Papua Bar.","Kabupaten Maybrat, Papua Bar.",PAPUA BARAT,,Indonesia,,-1.303769,132.3129322,https://maps.google.com/?cid=0x0:0xe0991b1218c5d1f5
supermarket,supermarket,Kec. Aitinyo Utara,"Kabupaten Maybrat, Papua Bar.","Kabupaten Maybrat, Papua Bar.",PAPUA BARAT,,Indonesia,,-1.3033463,132.3116515,https://maps.google.com/?cid=0x0:0x7e6239eb7f264d46
supermarket,Komplek perumahan,Ayamaru kota,"P838+529, Jitmau, Kec. Aitinyo Utara, Kabupaten Maybrat, Papua Bar.","Kabupaten Maybrat, Papua Bar.",PAPUA BARAT,,Indonesia,,-1.2970979,132.3150993,https://maps.google.com/?cid=0x0:0x5c83c06a31cb7d76
supermarket,supermarket,Kec. Ayamaru,"Kabupaten Maybrat, Papua Bar.","Kabupaten Maybrat, Papua Bar.",PAPUA BARAT,,Indonesia,,-1.2754068,132.1954691,https://maps.google.com/?cid=0x0:0x4d8a88af2189602c
supermarket,Toko,KIOS RIKEL,"Ayamaru, Kec. Ayamaru, Kabupaten Maybrat, Papua Bar. 00000","Kec. Ayamaru, Kabupaten Maybrat",PAPUA BARAT,0.0,Indonesia,,-1.273629,132.1964175,https://maps.google.com/?cid=0x0:0xf506b77ec0e950f8
supermarket,Masakan Asia,RM Balantak Tristan Sidapore,"P684+C34, Men, Kec. Ayamaru, Kabupaten Maybrat, Papua Bar. 98462","Men, Kec. Ayamaru, Kabupaten Maybrat",PAPUA BARAT,98462.0,Indonesia,,-1.2834953,132.2061175,https://maps.google.com/?cid=0x0:0x9d40838572f13a7b
supermarket,supermarket,Kec. Ayamaru,"Kabupaten Maybrat, Papua Bar.","Kabupaten Maybrat, Papua Bar.",PAPUA BARAT,,Indonesia,,-1.2754068,132.1954691,https://maps.google.com/?cid=0x0:0x4d8a88af2189602c
supermarket,Toko,KIOS RIKEL,"Ayamaru, Kec. Ayamaru, Kabupaten Maybrat, Papua Bar. 00000","Kec. Ayamaru, Kabupaten Maybrat",PAPUA BARAT,0.0,Indonesia,,-1.273629,132.1964175,https://maps.google.com/?cid=0x0:0xf506b77ec0e950f8
supermarket,Pusat Perbelanjaan,Toko Anugrha,"Jl. Teminabuan Ayamaru, Wermit, Kec. Teminabuan, Kabupaten Sorong Selatan, Papua Bar. 98454","Wermit, Kec. Teminabuan, Kabupaten Sorong Selatan",PAPUA BARAT,98454.0,Indonesia,85395564530.0,-1.4507306,132.0254178,https://maps.google.com/?cid=0x0:0x5022914d97504e53
supermarket,supermarket,Kios Trisya,"P6C2+G2X, Mefkajim II, Kec. Ayamaru, Kabupaten Maybrat, Papua Bar. 98462","Mefkajim II, Kec. Ayamaru, Kabupaten Maybrat",PAPUA BARAT,98462.0,Indonesia,,-1.2786266,132.2000968,https://maps.google.com/?cid=0x0:0xe202842e1d06b5d4
supermarket,supermarket,Distrik Ayamaru Jaya,"Kabupaten Maybrat, Papua Bar.","Kabupaten Maybrat, Papua Bar.",PAPUA BARAT,,Indonesia,,-1.240888,132.1225897,https://maps.google.com/?cid=0x0:0x7043cae1470f6f3d
supermarket,Toko,KIOS RIKEL,"Ayamaru, Kec. Ayamaru, Kabupaten Maybrat, Papua Bar. 00000","Kec. Ayamaru, Kabupaten Maybrat",PAPUA BARAT,0.0,Indonesia,,-1.273629,132.1964175,https://maps.google.com/?cid=0x0:0xf506b77ec0e950f8
supermarket,Pusat Perbelanjaan,Papua Supermarket  Dept. Store,"4869+F77 Bar, Sawagumu, Kec. Sorong Utara, Kota Sorong, Papua Bar. 98416","Sawagumu, Kec. Sorong Utara, Kota Sorong",PAPUA BARAT,98416.0,Indonesia,9513160123.0,-0.888831,131.3181847,https://maps.google.com/?cid=0x0:0x7b5f0926a74ad213
supermarket,supermarket,Kios Trisya,"P6C2+G2X, Mefkajim II, Kec. Ayamaru, Kabupaten Maybrat, Papua Bar. 98462","Mefkajim II, Kec. Ayamaru, Kabupaten Maybrat",PAPUA BARAT,98462.0,Indonesia,,-1.2786266,132.2000968,https://maps.google.com/?cid=0x0:0xe202842e1d06b5d4
supermarket,supermarket,Distrik Ayamaru Selatan,"Kabupaten Maybrat, Papua Bar.","Kabupaten Maybrat, Papua Bar.",PAPUA BARAT,,Indonesia,,-1.3053761,132.1485942,https://maps.google.com/?cid=0x0:0x78bc898d04ac4488
supermarket,Toko bahan makanan,Kios Pimar,"P5GQ+X8G, Fraharoh, Kec. Ayamaru, Kabupaten Maybrat, Papua Bar. 98461","Fraharoh, Kec. Ayamaru, Kabupaten Maybrat",PAPUA BARAT,98461.0,Indonesia,,-1.2729166,132.1886986,https://maps.google.com/?cid=0x0:0x64db49636ae1a22b
supermarket,Toko bahan makanan,Toko ichal jaya,"P5FW+R58, Ayamaru, Kec. Ayamaru, Kabupaten Maybrat, Papua Bar.","Kabupaten Maybrat, Papua Bar.",PAPUA BARAT,,Indonesia,85145239808.0,-1.2754653,132.1954432,https://maps.google.com/?cid=0x0:0x34c3e21cc896e5ad
supermarket,supermarket,Ayamaru cell,"P5CX+7QM, Mefkajim II, Kec. Ayamaru, Kabupaten Maybrat, Papua Bar.","Kabupaten Maybrat, Papua Bar.",PAPUA BARAT,,Indonesia,,-1.2792875,132.1994219,https://maps.google.com/?cid=0x0:0xfe1e70d6dc7eb1a4
supermarket,Supermarket Diskon,Toko SEMBAKO ISME,"P64R+MW, Fiane, Distrik Ayamaru Tengah, Kabupaten Maybrat, Papua Bar.","Kabupaten Maybrat, Papua Bar.",PAPUA BARAT,,Indonesia,,-1.2936375,132.2423502,https://maps.google.com/?cid=0x0:0x33c329b887992fd3
supermarket,supermarket,Konter jespati cell,"P5GX+828, Ayamaru, Kec. Ayamaru, Kabupaten Maybrat, Papua Bar. 98461","Ayamaru, Kec. Ayamaru, Kabupaten Maybrat",PAPUA BARAT,98461.0,Indonesia,,-1.2744367,132.196994,https://maps.google.com/?cid=0x0:0x3afb658713c1b53c
supermarket,Toko Ponsel,Konter Azril celluler ayamaru,"P692+VMQ, Mefkajim II, Kec. Ayamaru, Kabupaten Maybrat, Papua Bar. 98462","Mefkajim II, Kec. Ayamaru, Kabupaten Maybrat",PAPUA BARAT,98462.0,Indonesia,,-1.2802979,132.2017377,https://maps.google.com/?cid=0x0:0x7b6afdc016995e41
supermarket,Toko bahan makanan,Toko RISAMARU sembako gosir dan eceran,"P64X+V42, Fiane, Distrik Ayamaru Tengah, Kabupaten Maybrat, Papua Bar.","Kabupaten Maybrat, Papua Bar.",PAPUA BARAT,,Indonesia,,-1.2930698,132.2487947,https://maps.google.com/?cid=0x0:0xdf319dd383961cb6
supermarket,Apotek,Apotek Mitra Farma,"P5FW+R58 Kampung Keyen, Jalan Teminabuan, Ayamaru, Kec. Ayamaru, Kabupaten Maybrat, Papua Bar.","Kabupaten Maybrat, Papua Bar.",PAPUA BARAT,,Indonesia,,-1.2754653,132.1954432,https://maps.google.com/?cid=0x0:0x51aa0cbb8ecbc390
supermarket,Pusat Perbelanjaan,Papua Supermarket  Dept. Store,"4869+F77 Bar, Sawagumu, Kec. Sorong Utara, Kota Sorong, Papua Bar. 98416","Sawagumu, Kec. Sorong Utara, Kota Sorong",PAPUA BARAT,98416.0,Indonesia,9513160123.0,-0.888831,131.3181847,https://maps.google.com/?cid=0x0:0x7b5f0926a74ad213
supermarket,Masakan Asia,RM Balantak Tristan Sidapore,"P684+C34, Men, Kec. Ayamaru, Kabupaten Maybrat, Papua Bar. 98462","Men, Kec. Ayamaru, Kabupaten Maybrat",PAPUA BARAT,98462.0,Indonesia,,-1.2834953,132.2061175,https://maps.google.com/?cid=0x0:0x9d40838572f13a7b
supermarket,Toko,TOKO FOTEF,"M7GM+5Q, Kambuwifa, Kec. Ayamaru Tim., Kabupaten Maybrat, Papua Bar.","Kabupaten Maybrat, Papua Bar.",PAPUA BARAT,,Indonesia,,-1.3245586,132.2844109,https://maps.google.com/?cid=0x0:0xeff7283771b8607a
supermarket,Toko Ponsel,Kaka Cell maybrat,"P5FW+R58, Ayamaru, Kec. Ayamaru, Kabupaten Maybrat, Papua Bar.","Kabupaten Maybrat, Papua Bar.",PAPUA BARAT,,Indonesia,,-1.2754653,132.1954432,https://maps.google.com/?cid=0x0:0x4f6a869d6d6910cb
supermarket,supermarket,Kios Berkat,"P74F+6V9, Raya Kambuaya, Kambuaya, Kec. Ayamaru Tim., Kabupaten Maybrat, Papua Bar. 98462","Raya Kambuaya, Kambuaya, Kec. Ayamaru Tim., Kabupaten Maybrat",PAPUA BARAT,98462.0,Indonesia,,-1.2944674,132.2747285,https://maps.google.com/?cid=0x0:0x5378e0e5bd4774e9
supermarket,supermarket,Kampng Faitnggre,"J6JM+GR, Kofait, Distrik Ayamaru Selatan Jaya, Kabupaten Maybrat, Papua Bar.","Kabupaten Maybrat, Papua Bar.",PAPUA BARAT,,Indonesia,,-1.368655,132.234539,https://maps.google.com/?cid=0x0:0x8cf851f146e91d92
supermarket,supermarket,Distrik Ayamaru Tengah,"Kabupaten Maybrat, Papua Bar.","Kabupaten Maybrat, Papua Bar.",PAPUA BARAT,,Indonesia,,-1.2884148,132.2172648,https://maps.google.com/?cid=0x0:0xa06de0548d38d1a6
supermarket,Supermarket Diskon,Toko SEMBAKO ISME,"P64R+MW, Fiane, Distrik Ayamaru Tengah, Kabupaten Maybrat, Papua Bar.","Kabupaten Maybrat, Papua Bar.",PAPUA BARAT,,Indonesia,,-1.2936375,132.2423502,https://maps.google.com/?cid=0x0:0x33c329b887992fd3
supermarket,supermarket,Ayamaru cell,"P5CX+7QM, Mefkajim II, Kec. Ayamaru, Kabupaten Maybrat, Papua Bar.","Kabupaten Maybrat, Papua Bar.",PAPUA BARAT,,Indonesia,,-1.2792875,132.1994219,https://maps.google.com/?cid=0x0:0xfe1e70d6dc7eb1a4
supermarket,Toko bahan makanan,Toko RISAMARU sembako gosir dan eceran,"P64X+V42, Fiane, Distrik Ayamaru Tengah, Kabupaten Maybrat, Papua Bar.","Kabupaten Maybrat, Papua Bar.",PAPUA BARAT,,Indonesia,,-1.2930698,132.2487947,https://maps.google.com/?cid=0x0:0xdf319dd383961cb6
supermarket,Toko,KIOS RIKEL,"Ayamaru, Kec. Ayamaru, Kabupaten Maybrat, Papua Bar. 00000","Kec. Ayamaru, Kabupaten Maybrat",PAPUA BARAT,0.0,Indonesia,,-1.273629,132.1964175,https://maps.google.com/?cid=0x0:0xf506b77ec0e950f8
supermarket,Toko bahan makanan,Kios Pimar,"P5GQ+X8G, Fraharoh, Kec. Ayamaru, Kabupaten Maybrat, Papua Bar. 98461","Fraharoh, Kec. Ayamaru, Kabupaten Maybrat",PAPUA BARAT,98461.0,Indonesia,,-1.2729166,132.1886986,https://maps.google.com/?cid=0x0:0x64db49636ae1a22b
supermarket,Masakan Asia,RM Balantak Tristan Sidapore,"P684+C34, Men, Kec. Ayamaru, Kabupaten Maybrat, Papua Bar. 98462","Men, Kec. Ayamaru, Kabupaten Maybrat",PAPUA BARAT,98462.0,Indonesia,,-1.2834953,132.2061175,https://maps.google.com/?cid=0x0:0x9d40838572f13a7b
supermarket,Toko Ponsel,Konter Azril celluler ayamaru,"P692+VMQ, Mefkajim II, Kec. Ayamaru, Kabupaten Maybrat, Papua Bar. 98462","Mefkajim II, Kec. Ayamaru, Kabupaten Maybrat",PAPUA BARAT,98462.0,Indonesia,,-1.2802979,132.2017377,https://maps.google.com/?cid=0x0:0x7b6afdc016995e41
supermarket,Toko,Toko FITAFEN,"P6GJ+HG7, Fiane, Distrik Ayamaru Tengah, Kabupaten Maybrat, Papua Bar.","Kabupaten Maybrat, Papua Bar.",PAPUA BARAT,,Indonesia,,-1.273593,132.2313111,https://maps.google.com/?cid=0x0:0x438ab95cf892786a
supermarket,supermarket,Konter jespati cell,"P5GX+828, Ayamaru, Kec. Ayamaru, Kabupaten Maybrat, Papua Bar. 98461","Ayamaru, Kec. Ayamaru, Kabupaten Maybrat",PAPUA BARAT,98461.0,Indonesia,,-1.2744367,132.196994,https://maps.google.com/?cid=0x0:0x3afb658713c1b53c
supermarket,Toko,Toko FITAFEN JAYA,"P668+JWJ, Jl. Fratafen, Kampung Isme, Fiane, Distrik Ayamaru Tengah, Kabupaten Maybrat, Papua Bar.","Kabupaten Maybrat, Papua Bar.",PAPUA BARAT,,Indonesia,82129111112.0,-1.2884148,132.2172648,https://maps.google.com/?cid=0x0:0x9803b7caed3f9da8
supermarket,Toko,Toko baju Indriana,"P65G+C8, Fiane, Distrik Ayamaru Tengah, Kabupaten Maybrat, Papua Bar.","Kabupaten Maybrat, Papua Bar.",PAPUA BARAT,,Indonesia,,-1.2916729,132.224484,https://maps.google.com/?cid=0x0:0x7393c8ef283cc46
supermarket,Restoran,Kampung isme ruko isme,"P64R+MW, Fiane, Distrik Ayamaru Tengah, Kabupaten Maybrat, Papua Bar.","Kabupaten Maybrat, Papua Bar.",PAPUA BARAT,,Indonesia,,-1.29335,132.242343,https://maps.google.com/?cid=0x0:0x14b022b567940b0c
supermarket,Toko,Depot FITAFEN,"P64X+H3R, Fiane, Kec. Ayamaru, Kabupaten Maybrat, Papua Bar. 98462","Fiane, Kec. Ayamaru, Kabupaten Maybrat",PAPUA BARAT,98462.0,Indonesia,,-1.2935195,132.2476422,https://maps.google.com/?cid=0x0:0xc6db0c36ca5f019f
supermarket,supermarket,Kec. Ayamaru Tim.,"Kabupaten Maybrat, Papua Bar.","Kabupaten Maybrat, Papua Bar.",PAPUA BARAT,,Indonesia,,-1.2951177,132.27456,https://maps.google.com/?cid=0x0:0xb5d97283031cf050
supermarket,Supermarket Diskon,Toko SEMBAKO ISME,"P64R+MW, Fiane, Distrik Ayamaru Tengah, Kabupaten Maybrat, Papua Bar.","Kabupaten Maybrat, Papua Bar.",PAPUA BARAT,,Indonesia,,-1.2936375,132.2423502,https://maps.google.com/?cid=0x0:0x33c329b887992fd3
supermarket,Komplek perumahan,Worza yukase papua barat dara,"Q724+QG3, Huberita, Ayamaru Utara, Kabupaten Maybrat, Papua Bar.","Kabupaten Maybrat, Papua Bar.",PAPUA BARAT,,Indonesia,,-1.2481035,132.2562903,https://maps.google.com/?cid=0x0:0x28731eb9090b63fb
supermarket,supermarket,Kios Trisya,"P6C2+G2X, Mefkajim II, Kec. Ayamaru, Kabupaten Maybrat, Papua Bar. 98462","Mefkajim II, Kec. Ayamaru, Kabupaten Maybrat",PAPUA BARAT,98462.0,Indonesia,,-1.2786266,132.2000968,https://maps.google.com/?cid=0x0:0xe202842e1d06b5d4
supermarket,Toko,TOKO FOTEF,"M7GM+5Q, Kambuwifa, Kec. Ayamaru Tim., Kabupaten Maybrat, Papua Bar.","Kabupaten Maybrat, Papua Bar.",PAPUA BARAT,,Indonesia,,-1.3245586,132.2844109,https://maps.google.com/?cid=0x0:0xeff7283771b8607a
supermarket,Toko,Toko FITAFEN,"P6GJ+HG7, Fiane, Distrik Ayamaru Tengah, Kabupaten Maybrat, Papua Bar.","Kabupaten Maybrat, Papua Bar.",PAPUA BARAT,,Indonesia,,-1.273593,132.2313111,https://maps.google.com/?cid=0x0:0x438ab95cf892786a
supermarket,supermarket,Ayamaru Utara,"Kabupaten Maybrat, Papua Bar.","Kabupaten Maybrat, Papua Bar.",PAPUA BARAT,,Indonesia,,-1.1983051,132.2165112,https://maps.google.com/?cid=0x0:0x7c47e1a7cad6e57d
supermarket,Komplek perumahan,Worza yukase papua barat dara,"Q724+QG3, Huberita, Ayamaru Utara, Kabupaten Maybrat, Papua Bar.","Kabupaten Maybrat, Papua Bar.",PAPUA BARAT,,Indonesia,,-1.2481035,132.2562903,https://maps.google.com/?cid=0x0:0x28731eb9090b63fb
supermarket,Pusat Perbelanjaan,Papua Supermarket  Dept. Store,"4869+F77 Bar, Sawagumu, Kec. Sorong Utara, Kota Sorong, Papua Bar. 98416","Sawagumu, Kec. Sorong Utara, Kota Sorong",PAPUA BARAT,98416.0,Indonesia,9513160123.0,-0.888831,131.3181847,https://maps.google.com/?cid=0x0:0x7b5f0926a74ad213
supermarket,Toko bahan makanan,Toko RISAMARU sembako gosir dan eceran,"P64X+V42, Fiane, Distrik Ayamaru Tengah, Kabupaten Maybrat, Papua Bar.","Kabupaten Maybrat, Papua Bar.",PAPUA BARAT,,Indonesia,,-1.2930698,132.2487947,https://maps.google.com/?cid=0x0:0xdf319dd383961cb6
supermarket,supermarket,Kios Berkat,"P74F+6V9, Raya Kambuaya, Kambuaya, Kec. Ayamaru Tim., Kabupaten Maybrat, Papua Bar. 98462","Raya Kambuaya, Kambuaya, Kec. Ayamaru Tim., Kabupaten Maybrat",PAPUA BARAT,98462.0,Indonesia,,-1.2944674,132.2747285,https://maps.google.com/?cid=0x0:0x5378e0e5bd4774e9
supermarket,Kantor Pemerintah,Puskesmas Ayamaru Utara,"Q736+5C7, Huberita, Kec. Ayamaru Tim., Kabupaten Maybrat, Papua Bar. 98462","Huberita, Kec. Ayamaru Tim., Kabupaten Maybrat",PAPUA BARAT,98462.0,Indonesia,,-1.2484625,132.2611612,https://maps.google.com/?cid=0x0:0x30b0250f2fdd38b
supermarket,supermarket,Arne timur,"Q725+P2R, Huberita, Kec. Ayamaru Tim., Kabupaten Maybrat, Papua Bar.","Kabupaten Maybrat, Papua Bar.",PAPUA BARAT,,Indonesia,,-1.2467128,132.2578821,https://maps.google.com/?cid=0x0:0x8782054a3e6f2177
supermarket,Komplek perumahan,Worza yukase papua barat dara,"Q724+QG3, Huberita, Ayamaru Utara, Kabupaten Maybrat, Papua Bar.","Kabupaten Maybrat, Papua Bar.",PAPUA BARAT,,Indonesia,,-1.2481035,132.2562903,https://maps.google.com/?cid=0x0:0x28731eb9090b63fb
supermarket,Komplek perumahan,Komplex worza,"Q724+CH5, Huberita, Ayamaru Utara, Kabupaten Maybrat, Papua Bar.","Kabupaten Maybrat, Papua Bar.",PAPUA BARAT,,Indonesia,,-1.2489903,132.2564826,https://maps.google.com/?cid=0x0:0x5a445327be685fd4
supermarket,supermarket,Distrik Ayamaru Utara Timur,"Kabupaten Maybrat, Papua Bar.","Kabupaten Maybrat, Papua Bar.",PAPUA BARAT,,Indonesia,,-1.2541857,132.3121103,https://maps.google.com/?cid=0x0:0x48dc44cac491eb66
supermarket,supermarket,Arne timur,"Q725+P2R, Huberita, Kec. Ayamaru Tim., Kabupaten Maybrat, Papua Bar.","Kabupaten Maybrat, Papua Bar.",PAPUA BARAT,,Indonesia,,-1.2467128,132.2578821,https://maps.google.com/?cid=0x0:0x8782054a3e6f2177
supermarket,supermarket,Papua Bar.,,Papua Bar.,PAPUA BARAT,,Indonesia,,-1.3361154,133.1747162,https://maps.google.com/?cid=0x0:0x5349c1f8c5c7cb62
supermarket,Pusat Perbelanjaan,Papua Supermarket  Dept. Store,"4869+F77 Bar, Sawagumu, Kec. Sorong Utara, Kota Sorong, Papua Bar. 98416","Sawagumu, Kec. Sorong Utara, Kota Sorong",PAPUA BARAT,98416.0,Indonesia,9513160123.0,-0.888831,131.3181847,https://maps.google.com/?cid=0x0:0x7b5f0926a74ad213
supermarket,Toko bahan makanan,Kios Kampus Mbak Mar,"5378+GGJ, Jl. Gn. Salju, Amban, Kec. Manokwari Bar., Kabupaten Manokwari, Papua Bar. 98312","Jl. Gn. Salju, Amban, Kec. Manokwari Bar., Kabupaten Manokwari",PAPUA BARAT,98312.0,Indonesia,81240429215.0,-0.836154,134.066269,https://maps.google.com/?cid=0x0:0x5503a35793beac6f
supermarket,Pusat Perbelanjaan,Hadi supermarket,"32XQ+W6X, Sowi, Distrik Manokwari, Kabupaten Manokwari, Papua Bar.","Kabupaten Manokwari, Papua Bar.",PAPUA BARAT,,Indonesia,,-0.9001308,134.0381223,https://maps.google.com/?cid=0x0:0xe361d5fae3f38b24
supermarket,Minimarket,Hadi Supermarket Manokwari,"43V9+632, Jl. Yos Sudarso Manokwari, Manokwari Bar., Barat, Kabupaten Manokwari, Papua Bar. 98312","Jl. Yos Sudarso Manokwari, Manokwari Bar., Barat, Kabupaten Manokwari",PAPUA BARAT,98312.0,Indonesia,81344231138.0,-0.8569848,134.0676451,https://maps.google.com/?cid=0x0:0x9eff32c2ea26d6a2
supermarket,Toko Swalayan,Maret,"Jl. Wr. Sila No.40 8, RT.8/RW.5, Cipedak, Kec. Jagakarsa, Kota Jakarta Selatan, Daerah Khusus Ibukota Jakarta 12630","RT.8/RW.5, Cipedak, Kec. Jagakarsa, Kota Jakarta Selatan",PAPUA BARAT,12630.0,Indonesia,218523535.0,-6.3447309,106.8125634,https://maps.google.com/?cid=0x0:0xd5bf1c005b7bdb08
supermarket,Toko Swalayan,Warmat,"JRW9+QR8, RT.5/RW.7, Srengseng Sawah, Kec. Jagakarsa, Kota Jakarta Selatan, Daerah Khusus Ibukota Jakarta 12630","RT.5/RW.7, Srengseng Sawah, Kec. Jagakarsa, Kota Jakarta Selatan",PAPUA BARAT,12630.0,Indonesia,89693354253.0,-6.3530996,106.8195729,https://maps.google.com/?cid=0x0:0x81e2dbfe0ef517d1
supermarket,Pusat Perbelanjaan,Papua Supermarket  Dept. Store,"4869+F77 Bar, Sawagumu, Kec. Sorong Utara, Kota Sorong, Papua Bar. 98416","Sawagumu, Kec. Sorong Utara, Kota Sorong",PAPUA BARAT,98416.0,Indonesia,9513160123.0,-0.888831,131.3181847,https://maps.google.com/?cid=0x0:0x7b5f0926a74ad213
supermarket,Minimarket,SAGA Supermarket  Dept. Store,"Jalan A. Yani, Ruko Kuda Laut, Klademak, Kecamatan Sorong Manoi, Kota Sorong, Papua Bar. 98414","Ruko Kuda Laut, Klademak, Kecamatan Sorong Manoi, Kota Sorong",PAPUA BARAT,98414.0,Indonesia,951322784.0,-0.8765248,131.2576755,https://maps.google.com/?cid=0x0:0x963043ed646a7e1e
supermarket,Komplek perumahan,Rumah Bpk Gustaf. L,"4859+784, Klawuyuk, Distrik Sorong Timur, Kota Sorong, Papua Bar. 98416","Klawuyuk, Distrik Sorong Timur, Kota Sorong",PAPUA BARAT,98416.0,Indonesia,,-0.8918739,131.3183248,https://maps.google.com/?cid=0x0:0x30559e7e5eb96ee4
supermarket,supermarket,Maresa Grocery,"Jl. Permata Raya P8 No.19, Tanimulya, Kec. Ngamprah, Kabupaten Bandung Barat, Jawa Barat 40552","Tanimulya, Kec. Ngamprah, Kabupaten Bandung Barat",PAPUA BARAT,40552.0,Indonesia,816628880.0,-6.8623567,107.5195924,https://maps.google.com/?cid=0x0:0xa5a78cc89b8f4c62
supermarket,Pusat Perbelanjaan,Papua Supermarket  Dept. Store,"4869+F77 Bar, Sawagumu, Kec. Sorong Utara, Kota Sorong, Papua Bar. 98416","Sawagumu, Kec. Sorong Utara, Kota Sorong",PAPUA BARAT,98416.0,Indonesia,9513160123.0,-0.888831,131.3181847,https://maps.google.com/?cid=0x0:0x7b5f0926a74ad213
supermarket,Minimarket,SAGA Supermarket  Dept. Store,"Jalan A. Yani, Ruko Kuda Laut, Klademak, Kecamatan Sorong Manoi, Kota Sorong, Papua Bar. 98414","Ruko Kuda Laut, Klademak, Kecamatan Sorong Manoi, Kota Sorong",PAPUA BARAT,98414.0,Indonesia,951322784.0,-0.8765248,131.2576755,https://maps.google.com/?cid=0x0:0x963043ed646a7e1e
supermarket,Komplek perumahan,Rumah Bpk Gustaf. L,"4859+784, Klawuyuk, Distrik Sorong Timur, Kota Sorong, Papua Bar. 98416","Klawuyuk, Distrik Sorong Timur, Kota Sorong",PAPUA BARAT,98416.0,Indonesia,,-0.8918739,131.3183248,https://maps.google.com/?cid=0x0:0x30559e7e5eb96ee4
supermarket,Toko bahan makanan,Frozen Foods,"Perum Grand Kahuripan, Jl. Grand Kahuripan No.75 Blok KB, RT.16/RW.15, Klapanunggal, Kec. Klapanunggal, Kabupaten Bogor, Jawa Barat 16710","Jl. Grand Kahuripan No.75 Blok KB, RT.16/RW.15, Klapanunggal, Kec. Klapanunggal, Kabupaten Bogor",PAPUA BARAT,16710.0,Indonesia,88906170901.0,-6.4500661,106.9594912,https://maps.google.com/?cid=0x0:0x2d44094ff1197b3b
