Category;Real Category;Business Name;Address;City;State;Postal Code;Country;Phone;Latitude;Longitude;Map Link
perumahan;perumahan;Distrik Aifat;Kabupaten Maybrat, Papua Bar.;Kabupaten Maybrat, Papua Bar.;PAPUA BARAT;;Indonesia;;-12.568.532;1.325.001.338;https://maps.google.com/?cid=0x0:0xcc3d52ba3ddd33de
perumahan;Pembangunan Perumahan;Evaan Aifat Maybrat;QF4G+W7V, Werjaya, Distrik Aifat, Kabupaten Maybrat, Papua Bar. 98463;Werjaya, Distrik Aifat, Kabupaten Maybrat;PAPUA BARAT;98463;Indonesia;;-12.426.304;1.324.756.698;https://maps.google.com/?cid=0x0:0xa3b53493d6599552
perumahan;Pembangunan Perumahan;Sonere aifat selatan maybrat;MFPG+PW2, Futon, Distrik Aifat Selatan, Kabupaten Maybrat, Papua Bar. 98463;Futon, Distrik Aifat Selatan, Kabupaten Maybrat;PAPUA BARAT;98463;Indonesia;;-13.132.303;1.324.772.785;https://maps.google.com/?cid=0x0:0xcf993cce8191b59
perumahan;Komplek perumahan;Sahabur;PF5R+XV, Futon, Distrik Aifat, Kabupaten Maybrat, Papua Bar.;Kabupaten Maybrat, Papua Bar.;PAPUA BARAT;;Indonesia;;-12.900.127;1.324.921.406;https://maps.google.com/?cid=0x0:0x463118003817dc9a
perumahan;Komplek perumahan;KAMPUNG LAMA ,IRAFAN;JCV8+24G, Tehahite, Distrik Aifat, Kabupaten Maybrat, Papua Bar. 98463;Tehahite, Distrik Aifat, Kabupaten Maybrat;PAPUA BARAT;98463;Indonesia;;-13.574.485;1.324.153.262;https://maps.google.com/?cid=0x0:0x861baf0d33512994
perumahan;Perhimpunan Pengembang Perumahan;Perempuan AIFAT;RF77+C36, Ayawasi, Distrik Aifat Utara, Kabupaten Maybrat, Papua Bar. 98463;Ayawasi, Distrik Aifat Utara, Kabupaten Maybrat;PAPUA BARAT;98463;Indonesia;;-1.186.464;1.324.626.367;https://maps.google.com/?cid=0x0:0xc3d9c84f81b264c7
perumahan;Perumahan;Fonatu;RFQ5+VFM, Fonatu, Ayawasi, Distrik Aifat Utara, Kabupaten Maybrat, Papua Bar. 98463;Fonatu, Ayawasi, Distrik Aifat Utara, Kabupaten Maybrat;PAPUA BARAT;98463;Indonesia;;-11.602.976;1.324.586.748;https://maps.google.com/?cid=0x0:0xe1058bdc7f5b6b06
perumahan;Pembangunan Perumahan;Kampung Ainod;PHJ3+42, Eisyo, Distrik Aifat, Kabupaten Maybrat, Papua Bar.;Kabupaten Maybrat, Papua Bar.;PAPUA BARAT;;Indonesia;;-1.269.625;1.325.525.305;https://maps.google.com/?cid=0x0:0x99dd91f91b4adb11
perumahan;Pembangunan Perumahan;Proyek Rumah Papua Barat;Q9QR+479, Fonatu, Distrik Aifat Utara, Kabupaten Maybrat, Papua Bar.;Kabupaten Maybrat, Papua Bar.;PAPUA BARAT;;Indonesia;;-12.122.123;1.323.907.207;https://maps.google.com/?cid=0x0:0x32f9d918d28cb15c
perumahan;Komplek perumahan;Kampung Kokas, Aifat Maybrat Papua Barat Daya;QC93+QF3, Kokas, Distrik Aifat, Kabupaten Maybrat, Papua Bar. 98463;Kokas, Distrik Aifat, Kabupaten Maybrat;PAPUA BARAT;98463;Indonesia;;-12.306.125;1.324.036.715;https://maps.google.com/?cid=0x0:0xc8ab9eb5eff74124
perumahan;Perhimpunan Pengembang Perumahan;Nezeth Aifat Utara Kab.Maybrat;RFP6+CWW, Uname Road, Ayawasi, Distrik Aifat Utara, Kabupaten Maybrat, Papua Bar. 98463;Uname Road, Ayawasi, Distrik Aifat Utara, Kabupaten Maybrat;PAPUA BARAT;98463;Indonesia;;-1.163.882;1.324.623.359;https://maps.google.com/?cid=0x0:0x30c27f8005f60ea7
perumahan;Perhimpunan Pengembang Perumahan;Kampung Neset, Aifat Utara, Kabupaten Maybrat;RFP6+9XG, Uname Road, Ayawasi, Distrik Aifat Utara, Kabupaten Maybrat, Papua Bar. 98463;Uname Road, Ayawasi, Distrik Aifat Utara, Kabupaten Maybrat;PAPUA BARAT;98463;Indonesia;;-11.640.663;1.324.624.589;https://maps.google.com/?cid=0x0:0xfe3e6a3b1dacf0d5
perumahan;Komplek perumahan;Distrik Aifat Selatan;HGX4+F72, Sory, Distrik Aifat Selatan, Kabupaten Maybrat, Papua Bar. 98463;Sory, Distrik Aifat Selatan, Kabupaten Maybrat;PAPUA BARAT;98463;Indonesia;;-14.013.521;1.325.056.398;https://maps.google.com/?cid=0x0:0x1486686d3708c90
perumahan;Pembangunan Perumahan;KAMPUNG SAMERAKATOR;JHQV+VPP, KOMPLEX FATEM ISYORANA, TAHSIMARA, Aitrem, Distrik Aifat Timur, Kabupaten Maybrat, Papua Bar. 98463;KOMPLEX FATEM ISYORANA, TAHSIMARA, Aitrem, Distrik Aifat Timur, Kabupaten Maybrat;PAPUA BARAT;98463;Indonesia;;-13.602.867;1.325.943.283;https://maps.google.com/?cid=0x0:0xceea199ce0dab7e
perumahan;perumahan;Distrik Aifat;Kabupaten Maybrat, Papua Bar.;Kabupaten Maybrat, Papua Bar.;PAPUA BARAT;;Indonesia;;-12.568.532;1.325.001.338;https://maps.google.com/?cid=0x0:0xcc3d52ba3ddd33de
perumahan;Pembangunan Perumahan;Evaan Aifat Maybrat;QF4G+W7V, Werjaya, Distrik Aifat, Kabupaten Maybrat, Papua Bar. 98463;Werjaya, Distrik Aifat, Kabupaten Maybrat;PAPUA BARAT;98463;Indonesia;;-12.426.304;1.324.756.698;https://maps.google.com/?cid=0x0:0xa3b53493d6599552
perumahan;Pembangunan Perumahan;Sonere aifat selatan maybrat;MFPG+PW2, Futon, Distrik Aifat Selatan, Kabupaten Maybrat, Papua Bar. 98463;Futon, Distrik Aifat Selatan, Kabupaten Maybrat;PAPUA BARAT;98463;Indonesia;;-13.132.303;1.324.772.785;https://maps.google.com/?cid=0x0:0xcf993cce8191b59
perumahan;Komplek perumahan;Sahabur;PF5R+XV, Futon, Distrik Aifat, Kabupaten Maybrat, Papua Bar.;Kabupaten Maybrat, Papua Bar.;PAPUA BARAT;;Indonesia;;-12.900.127;1.324.921.406;https://maps.google.com/?cid=0x0:0x463118003817dc9a
perumahan;Pembangunan Perumahan;Kampung Ainod;PHJ3+42, Eisyo, Distrik Aifat, Kabupaten Maybrat, Papua Bar.;Kabupaten Maybrat, Papua Bar.;PAPUA BARAT;;Indonesia;;-1.269.625;1.325.525.305;https://maps.google.com/?cid=0x0:0x99dd91f91b4adb11
perumahan;Komplek perumahan;KAMPUNG LAMA ,IRAFAN;JCV8+24G, Tehahite, Distrik Aifat, Kabupaten Maybrat, Papua Bar. 98463;Tehahite, Distrik Aifat, Kabupaten Maybrat;PAPUA BARAT;98463;Indonesia;;-13.574.485;1.324.153.262;https://maps.google.com/?cid=0x0:0x861baf0d33512994
perumahan;Pembangunan Perumahan;Proyek Rumah Papua Barat;Q9QR+479, Fonatu, Distrik Aifat Utara, Kabupaten Maybrat, Papua Bar.;Kabupaten Maybrat, Papua Bar.;PAPUA BARAT;;Indonesia;;-12.122.123;1.323.907.207;https://maps.google.com/?cid=0x0:0x32f9d918d28cb15c
perumahan;Perhimpunan Pengembang Perumahan;Perempuan AIFAT;RF77+C36, Ayawasi, Distrik Aifat Utara, Kabupaten Maybrat, Papua Bar. 98463;Ayawasi, Distrik Aifat Utara, Kabupaten Maybrat;PAPUA BARAT;98463;Indonesia;;-1.186.464;1.324.626.367;https://maps.google.com/?cid=0x0:0xc3d9c84f81b264c7
perumahan;Komplek perumahan;Kampung Kokas, Aifat Maybrat Papua Barat Daya;QC93+QF3, Kokas, Distrik Aifat, Kabupaten Maybrat, Papua Bar. 98463;Kokas, Distrik Aifat, Kabupaten Maybrat;PAPUA BARAT;98463;Indonesia;;-12.306.125;1.324.036.715;https://maps.google.com/?cid=0x0:0xc8ab9eb5eff74124
perumahan;Perumahan;Fonatu;RFQ5+VFM, Fonatu, Ayawasi, Distrik Aifat Utara, Kabupaten Maybrat, Papua Bar. 98463;Fonatu, Ayawasi, Distrik Aifat Utara, Kabupaten Maybrat;PAPUA BARAT;98463;Indonesia;;-11.602.976;1.324.586.748;https://maps.google.com/?cid=0x0:0xe1058bdc7f5b6b06
perumahan;Komplek perumahan;Tehahite city;JFW7+RMW, Tehahite, Distrik Aifat, Kabupaten Maybrat, Papua Bar.;Kabupaten Maybrat, Papua Bar.;PAPUA BARAT;;Indonesia;;-13.528.854;1.324.642.057;https://maps.google.com/?cid=0x0:0xddee8fd8d828ce9e
perumahan;Komplek perumahan;Kampung tehahite;MC3F+W84, Tehahite, Distrik Aifat, Kabupaten Maybrat, Papua Bar.;Kabupaten Maybrat, Papua Bar.;PAPUA BARAT;;Indonesia;;-13.452.319;1.324.233.339;https://maps.google.com/?cid=0x0:0x19d57cca26889c4d
perumahan;Gereja;Rumah Pastori JemAt GKI SION Kumurkek;PGR2+V4V, Eisyo, Distrik Aifat, Kabupaten Maybrat, Papua Bar. 98463;Eisyo, Distrik Aifat, Kabupaten Maybrat;PAPUA BARAT;98463;Indonesia;;-12.579.787;1.324.999.841;https://maps.google.com/?cid=0x0:0xb7580a85f83ac8
perumahan;Perhimpunan Pengembang Perumahan;AYAWASI FANBERS MAYBRAT;Ayawasi Fanbers, KAMP. FANBERS, DAYA, Distrik Aifat Utara, Kabupaten Maybrat, Papua Bar. 98277;KAMP. FANBERS, DAYA, Distrik Aifat Utara, Kabupaten Maybrat;PAPUA BARAT;98277;Indonesia;82175742019;-11.674.406;132.464.603;https://maps.google.com/?cid=0x0:0xdb8bed76c6756b1a
perumahan;perumahan;Distrik Aifat Timur;Kabupaten Maybrat, Papua Bar.;Kabupaten Maybrat, Papua Bar.;PAPUA BARAT;;Indonesia;;-13.591.179;13.259.276;https://maps.google.com/?cid=0x0:0x14eac191dd6d8e2e
perumahan;Pembangunan Perumahan;KAMPUNG SAMERAKATOR;JHQV+VPP, KOMPLEX FATEM ISYORANA, TAHSIMARA, Aitrem, Distrik Aifat Timur, Kabupaten Maybrat, Papua Bar. 98463;KOMPLEX FATEM ISYORANA, TAHSIMARA, Aitrem, Distrik Aifat Timur, Kabupaten Maybrat;PAPUA BARAT;98463;Indonesia;;-13.602.867;1.325.943.283;https://maps.google.com/?cid=0x0:0xceea199ce0dab7e
perumahan;Komplek perumahan;Kampung Aimau, Distrik Aifat Timur Jauh;JJM7+FVV, Aimau, Distrik Aifat Timur, Kabupaten Maybrat, Papua Bar.;Kabupaten Maybrat, Papua Bar.;PAPUA BARAT;;Indonesia;;-13.662.571;1.326.146.565;https://maps.google.com/?cid=0x0:0x31662e29a971635
perumahan;Pembangunan Perumahan;Evaan Aifat Maybrat;QF4G+W7V, Werjaya, Distrik Aifat, Kabupaten Maybrat, Papua Bar. 98463;Werjaya, Distrik Aifat, Kabupaten Maybrat;PAPUA BARAT;98463;Indonesia;;-12.426.304;1.324.756.698;https://maps.google.com/?cid=0x0:0xa3b53493d6599552
perumahan;Komplek perumahan;Rumah dinas sekertaris klasis aifat;Susumuk - Kumurkeh, Tehahite, Distrik Aifat, Kabupaten Maybrat, Papua Bar. 98463;Tehahite, Distrik Aifat, Kabupaten Maybrat;PAPUA BARAT;98463;Indonesia;;-13.380.603;1.324.681.037;https://maps.google.com/?cid=0x0:0xec182619a4dca87e
perumahan;Pembangunan Perumahan;Kp. Mufas;PM36+M94, Aisa, Distrik Aifat Timur, Kabupaten Maybrat, Papua Bar. 98463;Aisa, Distrik Aifat Timur, Kabupaten Maybrat;PAPUA BARAT;98463;Indonesia;;-12.958.969;1.326.610.312;https://maps.google.com/?cid=0x0:0xa1f362045b160b1b
perumahan;Pembangunan Perumahan;Kampung Ainod;PHJ3+42, Eisyo, Distrik Aifat, Kabupaten Maybrat, Papua Bar.;Kabupaten Maybrat, Papua Bar.;PAPUA BARAT;;Indonesia;;-1.269.625;1.325.525.305;https://maps.google.com/?cid=0x0:0x99dd91f91b4adb11
perumahan;perumahan;SATGAS PUPU;HHQM+G6P, Fuog, Distrik Aifat Selatan, Kabupaten Maybrat, Papua Bar. 98463;Fuog, Distrik Aifat Selatan, Kabupaten Maybrat;PAPUA BARAT;98463;Indonesia;;-14.101.624;1.325.821.002;https://maps.google.com/?cid=0x0:0xbf8212410d3304c0
perumahan;Perhimpunan Pengembang Perumahan;Kisor;HGJ3+MWJ, Kisor, Distrik Aifat Selatan, Kabupaten Maybrat, Papua Bar. 98463;Kisor, Distrik Aifat Selatan, Kabupaten Maybrat;PAPUA BARAT;98463;Indonesia;;-14.182.965;1.325.047.702;https://maps.google.com/?cid=0x0:0xa93e1da96957f8cc
perumahan;Perumahan;Fonatu;RFQ5+VFM, Fonatu, Ayawasi, Distrik Aifat Utara, Kabupaten Maybrat, Papua Bar. 98463;Fonatu, Ayawasi, Distrik Aifat Utara, Kabupaten Maybrat;PAPUA BARAT;98463;Indonesia;;-11.602.976;1.324.586.748;https://maps.google.com/?cid=0x0:0xe1058bdc7f5b6b06
perumahan;Perhimpunan Pengembang Perumahan;Perempuan AIFAT;RF77+C36, Ayawasi, Distrik Aifat Utara, Kabupaten Maybrat, Papua Bar. 98463;Ayawasi, Distrik Aifat Utara, Kabupaten Maybrat;PAPUA BARAT;98463;Indonesia;;-1.186.464;1.324.626.367;https://maps.google.com/?cid=0x0:0xc3d9c84f81b264c7
perumahan;Pembangunan Perumahan;Asiaf Zaman;HHX2+2Q, Fuog, Distrik Aifat Selatan, Kabupaten Maybrat, Papua Bar.;Kabupaten Maybrat, Papua Bar.;PAPUA BARAT;;Indonesia;;-14.024.056;1.325.518.889;https://maps.google.com/?cid=0x0:0x4fac9d95fd14dbc8
perumahan;Komplek perumahan;Sahabur;PF5R+XV, Futon, Distrik Aifat, Kabupaten Maybrat, Papua Bar.;Kabupaten Maybrat, Papua Bar.;PAPUA BARAT;;Indonesia;;-12.900.127;1.324.921.406;https://maps.google.com/?cid=0x0:0x463118003817dc9a
perumahan;Perhimpunan Pengembang Perumahan;Nezeth Aifat Utara Kab.Maybrat;RFP6+CWW, Uname Road, Ayawasi, Distrik Aifat Utara, Kabupaten Maybrat, Papua Bar. 98463;Uname Road, Ayawasi, Distrik Aifat Utara, Kabupaten Maybrat;PAPUA BARAT;98463;Indonesia;;-1.163.882;1.324.623.359;https://maps.google.com/?cid=0x0:0x30c27f8005f60ea7
perumahan;perumahan;Distrik Aifat Timur;Kabupaten Maybrat, Papua Bar.;Kabupaten Maybrat, Papua Bar.;PAPUA BARAT;;Indonesia;;-13.591.179;13.259.276;https://maps.google.com/?cid=0x0:0x14eac191dd6d8e2e
perumahan;Komplek perumahan;Kampung Aimau, Distrik Aifat Timur Jauh;JJM7+FVV, Aimau, Distrik Aifat Timur, Kabupaten Maybrat, Papua Bar.;Kabupaten Maybrat, Papua Bar.;PAPUA BARAT;;Indonesia;;-13.662.571;1.326.146.565;https://maps.google.com/?cid=0x0:0x31662e29a971635
perumahan;Pembangunan Perumahan;Kampung Awetmaim;JF7P+XX, Sory, Distrik Aifat Selatan, Kabupaten Maybrat, Papua Bar.;Kabupaten Maybrat, Papua Bar.;PAPUA BARAT;;Indonesia;;-13.850.567;1.324.874.169;https://maps.google.com/?cid=0x0:0xb82ae18b612d0cfa
perumahan;Pembangunan Perumahan;Evaan Aifat Maybrat;QF4G+W7V, Werjaya, Distrik Aifat, Kabupaten Maybrat, Papua Bar. 98463;Werjaya, Distrik Aifat, Kabupaten Maybrat;PAPUA BARAT;98463;Indonesia;;-12.426.304;1.324.756.698;https://maps.google.com/?cid=0x0:0xa3b53493d6599552
perumahan;Komplek perumahan;Rumah dinas sekertaris klasis aifat;Susumuk - Kumurkeh, Tehahite, Distrik Aifat, Kabupaten Maybrat, Papua Bar. 98463;Tehahite, Distrik Aifat, Kabupaten Maybrat;PAPUA BARAT;98463;Indonesia;;-13.380.603;1.324.681.037;https://maps.google.com/?cid=0x0:0xec182619a4dca87e
perumahan;Pembangunan Perumahan;Sonere aifat selatan maybrat;MFPG+PW2, Futon, Distrik Aifat Selatan, Kabupaten Maybrat, Papua Bar. 98463;Futon, Distrik Aifat Selatan, Kabupaten Maybrat;PAPUA BARAT;98463;Indonesia;;-13.132.303;1.324.772.785;https://maps.google.com/?cid=0x0:0xcf993cce8191b59
perumahan;Komplek perumahan;KAMPUNG LAMA ,IRAFAN;JCV8+24G, Tehahite, Distrik Aifat, Kabupaten Maybrat, Papua Bar. 98463;Tehahite, Distrik Aifat, Kabupaten Maybrat;PAPUA BARAT;98463;Indonesia;;-13.574.485;1.324.153.262;https://maps.google.com/?cid=0x0:0x861baf0d33512994
perumahan;Komplek perumahan;Sahabur;PF5R+XV, Futon, Distrik Aifat, Kabupaten Maybrat, Papua Bar.;Kabupaten Maybrat, Papua Bar.;PAPUA BARAT;;Indonesia;;-12.900.127;1.324.921.406;https://maps.google.com/?cid=0x0:0x463118003817dc9a
perumahan;Pembangunan Perumahan;Kampung Ainod;PHJ3+42, Eisyo, Distrik Aifat, Kabupaten Maybrat, Papua Bar.;Kabupaten Maybrat, Papua Bar.;PAPUA BARAT;;Indonesia;;-1.269.625;1.325.525.305;https://maps.google.com/?cid=0x0:0x99dd91f91b4adb11
perumahan;Pembangunan Perumahan;Proyek Rumah Papua Barat;Q9QR+479, Fonatu, Distrik Aifat Utara, Kabupaten Maybrat, Papua Bar.;Kabupaten Maybrat, Papua Bar.;PAPUA BARAT;;Indonesia;;-12.122.123;1.323.907.207;https://maps.google.com/?cid=0x0:0x32f9d918d28cb15c
perumahan;Perumahan;Fonatu;RFQ5+VFM, Fonatu, Ayawasi, Distrik Aifat Utara, Kabupaten Maybrat, Papua Bar. 98463;Fonatu, Ayawasi, Distrik Aifat Utara, Kabupaten Maybrat;PAPUA BARAT;98463;Indonesia;;-11.602.976;1.324.586.748;https://maps.google.com/?cid=0x0:0xe1058bdc7f5b6b06
perumahan;Pembangunan Perumahan;KAMPUNG SAMERAKATOR;JHQV+VPP, KOMPLEX FATEM ISYORANA, TAHSIMARA, Aitrem, Distrik Aifat Timur, Kabupaten Maybrat, Papua Bar. 98463;KOMPLEX FATEM ISYORANA, TAHSIMARA, Aitrem, Distrik Aifat Timur, Kabupaten Maybrat;PAPUA BARAT;98463;Indonesia;;-13.602.867;1.325.943.283;https://maps.google.com/?cid=0x0:0xceea199ce0dab7e
perumahan;Perhimpunan Pengembang Perumahan;Perempuan AIFAT;RF77+C36, Ayawasi, Distrik Aifat Utara, Kabupaten Maybrat, Papua Bar. 98463;Ayawasi, Distrik Aifat Utara, Kabupaten Maybrat;PAPUA BARAT;98463;Indonesia;;-1.186.464;1.324.626.367;https://maps.google.com/?cid=0x0:0xc3d9c84f81b264c7
perumahan;Komplek perumahan;Kampung tehahite;MC3F+W84, Tehahite, Distrik Aifat, Kabupaten Maybrat, Papua Bar.;Kabupaten Maybrat, Papua Bar.;PAPUA BARAT;;Indonesia;;-13.452.319;1.324.233.339;https://maps.google.com/?cid=0x0:0x19d57cca26889c4d
perumahan;perumahan;Distrik Aifat Timur;Kabupaten Maybrat, Papua Bar.;Kabupaten Maybrat, Papua Bar.;PAPUA BARAT;;Indonesia;;-13.591.179;13.259.276;https://maps.google.com/?cid=0x0:0x14eac191dd6d8e2e
perumahan;Pembangunan Perumahan;Sonere aifat selatan maybrat;MFPG+PW2, Futon, Distrik Aifat Selatan, Kabupaten Maybrat, Papua Bar. 98463;Futon, Distrik Aifat Selatan, Kabupaten Maybrat;PAPUA BARAT;98463;Indonesia;;-13.132.303;1.324.772.785;https://maps.google.com/?cid=0x0:0xcf993cce8191b59
perumahan;Pembangunan Perumahan;KAMPUNG SAMERAKATOR;JHQV+VPP, KOMPLEX FATEM ISYORANA, TAHSIMARA, Aitrem, Distrik Aifat Timur, Kabupaten Maybrat, Papua Bar. 98463;KOMPLEX FATEM ISYORANA, TAHSIMARA, Aitrem, Distrik Aifat Timur, Kabupaten Maybrat;PAPUA BARAT;98463;Indonesia;;-13.602.867;1.325.943.283;https://maps.google.com/?cid=0x0:0xceea199ce0dab7e
perumahan;perumahan;SATGAS PUPU;HHQM+G6P, Fuog, Distrik Aifat Selatan, Kabupaten Maybrat, Papua Bar. 98463;Fuog, Distrik Aifat Selatan, Kabupaten Maybrat;PAPUA BARAT;98463;Indonesia;;-14.101.624;1.325.821.002;https://maps.google.com/?cid=0x0:0xbf8212410d3304c0
perumahan;Pembangunan Perumahan;Kp. Mufas;PM36+M94, Aisa, Distrik Aifat Timur, Kabupaten Maybrat, Papua Bar. 98463;Aisa, Distrik Aifat Timur, Kabupaten Maybrat;PAPUA BARAT;98463;Indonesia;;-12.958.969;1.326.610.312;https://maps.google.com/?cid=0x0:0xa1f362045b160b1b
perumahan;Pembangunan Perumahan;Evaan Aifat Maybrat;QF4G+W7V, Werjaya, Distrik Aifat, Kabupaten Maybrat, Papua Bar. 98463;Werjaya, Distrik Aifat, Kabupaten Maybrat;PAPUA BARAT;98463;Indonesia;;-12.426.304;1.324.756.698;https://maps.google.com/?cid=0x0:0xa3b53493d6599552
perumahan;Pembangunan Perumahan;Kampung Ainod;PHJ3+42, Eisyo, Distrik Aifat, Kabupaten Maybrat, Papua Bar.;Kabupaten Maybrat, Papua Bar.;PAPUA BARAT;;Indonesia;;-1.269.625;1.325.525.305;https://maps.google.com/?cid=0x0:0x99dd91f91b4adb11
perumahan;Komplek perumahan;Distrik Aifat Selatan;HGX4+F72, Sory, Distrik Aifat Selatan, Kabupaten Maybrat, Papua Bar. 98463;Sory, Distrik Aifat Selatan, Kabupaten Maybrat;PAPUA BARAT;98463;Indonesia;;-14.013.521;1.325.056.398;https://maps.google.com/?cid=0x0:0x1486686d3708c90
perumahan;Komplek perumahan;Rumah dinas sekertaris klasis aifat;Susumuk - Kumurkeh, Tehahite, Distrik Aifat, Kabupaten Maybrat, Papua Bar. 98463;Tehahite, Distrik Aifat, Kabupaten Maybrat;PAPUA BARAT;98463;Indonesia;;-13.380.603;1.324.681.037;https://maps.google.com/?cid=0x0:0xec182619a4dca87e
perumahan;Perhimpunan Pengembang Perumahan;Kisor;HGJ3+MWJ, Kisor, Distrik Aifat Selatan, Kabupaten Maybrat, Papua Bar. 98463;Kisor, Distrik Aifat Selatan, Kabupaten Maybrat;PAPUA BARAT;98463;Indonesia;;-14.182.965;1.325.047.702;https://maps.google.com/?cid=0x0:0xa93e1da96957f8cc
perumahan;Pusat Kesehatan Masyarakat;Puskesmas Aifat Timur;QJG5+QJG, Aifam, Distrik Aifat Timur, Kabupaten Maybrat, Papua Bar. 98463;Aifam, Distrik Aifat Timur, Kabupaten Maybrat;PAPUA BARAT;98463;Indonesia;;-12.230.699;1.326.090.758;https://maps.google.com/?cid=0x0:0x9e8d83dcf891a592
perumahan;Pembangunan Perumahan;Asiaf Zaman;HHX2+2Q, Fuog, Distrik Aifat Selatan, Kabupaten Maybrat, Papua Bar.;Kabupaten Maybrat, Papua Bar.;PAPUA BARAT;;Indonesia;;-14.024.056;1.325.518.889;https://maps.google.com/?cid=0x0:0x4fac9d95fd14dbc8
perumahan;Perhimpunan Pengembang Perumahan;Perempuan AIFAT;RF77+C36, Ayawasi, Distrik Aifat Utara, Kabupaten Maybrat, Papua Bar. 98463;Ayawasi, Distrik Aifat Utara, Kabupaten Maybrat;PAPUA BARAT;98463;Indonesia;;-1.186.464;1.324.626.367;https://maps.google.com/?cid=0x0:0xc3d9c84f81b264c7
perumahan;Pembangunan Perumahan;FAN KAHRIO;JHVW+99F, Aitrem, Distrik Aifat Timur, Kabupaten Maybrat, Papua Bar. 98463;Aitrem, Distrik Aifat Timur, Kabupaten Maybrat;PAPUA BARAT;98463;Indonesia;;-1.355.984;132.595.129;https://maps.google.com/?cid=0x0:0x9ed4e50ff7ecf47d
perumahan;perumahan;Distrik Aifat Timur;Kabupaten Maybrat, Papua Bar.;Kabupaten Maybrat, Papua Bar.;PAPUA BARAT;;Indonesia;;-13.591.179;13.259.276;https://maps.google.com/?cid=0x0:0x14eac191dd6d8e2e
perumahan;Komplek perumahan;Kampung Aimau, Distrik Aifat Timur Jauh;JJM7+FVV, Aimau, Distrik Aifat Timur, Kabupaten Maybrat, Papua Bar.;Kabupaten Maybrat, Papua Bar.;PAPUA BARAT;;Indonesia;;-13.662.571;1.326.146.565;https://maps.google.com/?cid=0x0:0x31662e29a971635
perumahan;Pembangunan Perumahan;KAMPUNG SAMERAKATOR;JHQV+VPP, KOMPLEX FATEM ISYORANA, TAHSIMARA, Aitrem, Distrik Aifat Timur, Kabupaten Maybrat, Papua Bar. 98463;KOMPLEX FATEM ISYORANA, TAHSIMARA, Aitrem, Distrik Aifat Timur, Kabupaten Maybrat;PAPUA BARAT;98463;Indonesia;;-13.602.867;1.325.943.283;https://maps.google.com/?cid=0x0:0xceea199ce0dab7e
perumahan;Pembangunan Perumahan;Evaan Aifat Maybrat;QF4G+W7V, Werjaya, Distrik Aifat, Kabupaten Maybrat, Papua Bar. 98463;Werjaya, Distrik Aifat, Kabupaten Maybrat;PAPUA BARAT;98463;Indonesia;;-12.426.304;1.324.756.698;https://maps.google.com/?cid=0x0:0xa3b53493d6599552
perumahan;Pembangunan Perumahan;Kp. Mufas;PM36+M94, Aisa, Distrik Aifat Timur, Kabupaten Maybrat, Papua Bar. 98463;Aisa, Distrik Aifat Timur, Kabupaten Maybrat;PAPUA BARAT;98463;Indonesia;;-12.958.969;1.326.610.312;https://maps.google.com/?cid=0x0:0xa1f362045b160b1b
perumahan;Pembangunan Perumahan;Kampung Ainod;PHJ3+42, Eisyo, Distrik Aifat, Kabupaten Maybrat, Papua Bar.;Kabupaten Maybrat, Papua Bar.;PAPUA BARAT;;Indonesia;;-1.269.625;1.325.525.305;https://maps.google.com/?cid=0x0:0x99dd91f91b4adb11
perumahan;perumahan;SATGAS PUPU;HHQM+G6P, Fuog, Distrik Aifat Selatan, Kabupaten Maybrat, Papua Bar. 98463;Fuog, Distrik Aifat Selatan, Kabupaten Maybrat;PAPUA BARAT;98463;Indonesia;;-14.101.624;1.325.821.002;https://maps.google.com/?cid=0x0:0xbf8212410d3304c0
perumahan;Pusat Kesehatan Masyarakat;Puskesmas Aifat Timur;QJG5+QJG, Aifam, Distrik Aifat Timur, Kabupaten Maybrat, Papua Bar. 98463;Aifam, Distrik Aifat Timur, Kabupaten Maybrat;PAPUA BARAT;98463;Indonesia;;-12.230.699;1.326.090.758;https://maps.google.com/?cid=0x0:0x9e8d83dcf891a592
perumahan;Komplek perumahan;Rumah dinas sekertaris klasis aifat;Susumuk - Kumurkeh, Tehahite, Distrik Aifat, Kabupaten Maybrat, Papua Bar. 98463;Tehahite, Distrik Aifat, Kabupaten Maybrat;PAPUA BARAT;98463;Indonesia;;-13.380.603;1.324.681.037;https://maps.google.com/?cid=0x0:0xec182619a4dca87e
perumahan;Perhimpunan Pengembang Perumahan;Perempuan AIFAT;RF77+C36, Ayawasi, Distrik Aifat Utara, Kabupaten Maybrat, Papua Bar. 98463;Ayawasi, Distrik Aifat Utara, Kabupaten Maybrat;PAPUA BARAT;98463;Indonesia;;-1.186.464;1.324.626.367;https://maps.google.com/?cid=0x0:0xc3d9c84f81b264c7
perumahan;Perumahan;Fonatu;RFQ5+VFM, Fonatu, Ayawasi, Distrik Aifat Utara, Kabupaten Maybrat, Papua Bar. 98463;Fonatu, Ayawasi, Distrik Aifat Utara, Kabupaten Maybrat;PAPUA BARAT;98463;Indonesia;;-11.602.976;1.324.586.748;https://maps.google.com/?cid=0x0:0xe1058bdc7f5b6b06
perumahan;Pembangunan Perumahan;Asiaf Zaman;HHX2+2Q, Fuog, Distrik Aifat Selatan, Kabupaten Maybrat, Papua Bar.;Kabupaten Maybrat, Papua Bar.;PAPUA BARAT;;Indonesia;;-14.024.056;1.325.518.889;https://maps.google.com/?cid=0x0:0x4fac9d95fd14dbc8
perumahan;Perhimpunan Pengembang Perumahan;Nezeth Aifat Utara Kab.Maybrat;RFP6+CWW, Uname Road, Ayawasi, Distrik Aifat Utara, Kabupaten Maybrat, Papua Bar. 98463;Uname Road, Ayawasi, Distrik Aifat Utara, Kabupaten Maybrat;PAPUA BARAT;98463;Indonesia;;-1.163.882;1.324.623.359;https://maps.google.com/?cid=0x0:0x30c27f8005f60ea7
perumahan;Perhimpunan Pengembang Perumahan;Kisor;HGJ3+MWJ, Kisor, Distrik Aifat Selatan, Kabupaten Maybrat, Papua Bar. 98463;Kisor, Distrik Aifat Selatan, Kabupaten Maybrat;PAPUA BARAT;98463;Indonesia;;-14.182.965;1.325.047.702;https://maps.google.com/?cid=0x0:0xa93e1da96957f8cc
perumahan;perumahan;Distrik Aifat Selatan;Kabupaten Maybrat, Papua Bar.;Kabupaten Maybrat, Papua Bar.;PAPUA BARAT;;Indonesia;;-14.185.595;1.325.043.916;https://maps.google.com/?cid=0x0:0x5390da174ca5ef27
perumahan;Pembangunan Perumahan;Sonere aifat selatan maybrat;MFPG+PW2, Futon, Distrik Aifat Selatan, Kabupaten Maybrat, Papua Bar. 98463;Futon, Distrik Aifat Selatan, Kabupaten Maybrat;PAPUA BARAT;98463;Indonesia;;-13.132.303;1.324.772.785;https://maps.google.com/?cid=0x0:0xcf993cce8191b59
perumahan;Komplek perumahan;Distrik Aifat Selatan;HGX4+F72, Sory, Distrik Aifat Selatan, Kabupaten Maybrat, Papua Bar. 98463;Sory, Distrik Aifat Selatan, Kabupaten Maybrat;PAPUA BARAT;98463;Indonesia;;-14.013.521;1.325.056.398;https://maps.google.com/?cid=0x0:0x1486686d3708c90
perumahan;Komplek perumahan;Kampung Mukamat;9CJ7+68, Womba, Distrik Aifat Selatan, Kabupaten Maybrat, Papua Bar.;Kabupaten Maybrat, Papua Bar.;PAPUA BARAT;;Indonesia;;-1.619.382;132.413.275;https://maps.google.com/?cid=0x0:0x565607499249e36d
perumahan;Komplek perumahan;KAMPUNG LAMA ,IRAFAN;JCV8+24G, Tehahite, Distrik Aifat, Kabupaten Maybrat, Papua Bar. 98463;Tehahite, Distrik Aifat, Kabupaten Maybrat;PAPUA BARAT;98463;Indonesia;;-13.574.485;1.324.153.262;https://maps.google.com/?cid=0x0:0x861baf0d33512994
perumahan;Komplek perumahan;Rumah dinas sekertaris klasis aifat;Susumuk - Kumurkeh, Tehahite, Distrik Aifat, Kabupaten Maybrat, Papua Bar. 98463;Tehahite, Distrik Aifat, Kabupaten Maybrat;PAPUA BARAT;98463;Indonesia;;-13.380.603;1.324.681.037;https://maps.google.com/?cid=0x0:0xec182619a4dca87e
perumahan;perumahan;SATGAS PUPU;HHQM+G6P, Fuog, Distrik Aifat Selatan, Kabupaten Maybrat, Papua Bar. 98463;Fuog, Distrik Aifat Selatan, Kabupaten Maybrat;PAPUA BARAT;98463;Indonesia;;-14.101.624;1.325.821.002;https://maps.google.com/?cid=0x0:0xbf8212410d3304c0
perumahan;Komplek perumahan;Kampung Roma;HFXQ+85, Sory, Distrik Aifat Selatan, Kabupaten Maybrat, Papua Bar.;Kabupaten Maybrat, Papua Bar.;PAPUA BARAT;;Indonesia;;-14.015.855;1.324.879.258;https://maps.google.com/?cid=0x0:0xf8250ee9b36a04d8
perumahan;Pembangunan Perumahan;Evaan Aifat Maybrat;QF4G+W7V, Werjaya, Distrik Aifat, Kabupaten Maybrat, Papua Bar. 98463;Werjaya, Distrik Aifat, Kabupaten Maybrat;PAPUA BARAT;98463;Indonesia;;-12.426.304;1.324.756.698;https://maps.google.com/?cid=0x0:0xa3b53493d6599552
perumahan;Pembangunan Perumahan;KAMPUNG SAMERAKATOR;JHQV+VPP, KOMPLEX FATEM ISYORANA, TAHSIMARA, Aitrem, Distrik Aifat Timur, Kabupaten Maybrat, Papua Bar. 98463;KOMPLEX FATEM ISYORANA, TAHSIMARA, Aitrem, Distrik Aifat Timur, Kabupaten Maybrat;PAPUA BARAT;98463;Indonesia;;-13.602.867;1.325.943.283;https://maps.google.com/?cid=0x0:0xceea199ce0dab7e
perumahan;Komplek perumahan;Kampung Kaitana;HFX9+XF, Sory, Distrik Aifat Selatan, Kabupaten Maybrat, Papua Bar.;Kabupaten Maybrat, Papua Bar.;PAPUA BARAT;;Indonesia;;-14.001.011;1.324.686.716;https://maps.google.com/?cid=0x0:0x5642d1771f02a32
perumahan;Pembangunan Perumahan;Kampung Awetmaim;JF7P+XX, Sory, Distrik Aifat Selatan, Kabupaten Maybrat, Papua Bar.;Kabupaten Maybrat, Papua Bar.;PAPUA BARAT;;Indonesia;;-13.850.567;1.324.874.169;https://maps.google.com/?cid=0x0:0xb82ae18b612d0cfa
perumahan;Pembangunan Perumahan;Asiaf Zaman;HHX2+2Q, Fuog, Distrik Aifat Selatan, Kabupaten Maybrat, Papua Bar.;Kabupaten Maybrat, Papua Bar.;PAPUA BARAT;;Indonesia;;-14.024.056;1.325.518.889;https://maps.google.com/?cid=0x0:0x4fac9d95fd14dbc8
perumahan;Komplek perumahan;Kampung Tolak;HFWQ+FH, Sory, Distrik Aifat Selatan, Kabupaten Maybrat, Papua Bar.;Kabupaten Maybrat, Papua Bar.;PAPUA BARAT;;Indonesia;;-14.037.884;1.324.889.357;https://maps.google.com/?cid=0x0:0xa8109600c233652b
perumahan;perumahan;Distrik Aifat Utara;Kabupaten Maybrat, Papua Bar.;Kabupaten Maybrat, Papua Bar.;PAPUA BARAT;;Indonesia;;-11.588.544;1.324.643.784;https://maps.google.com/?cid=0x0:0x7ec0d9546b1ece9c
perumahan;Pembangunan Perumahan;Evaan Aifat Maybrat;QF4G+W7V, Werjaya, Distrik Aifat, Kabupaten Maybrat, Papua Bar. 98463;Werjaya, Distrik Aifat, Kabupaten Maybrat;PAPUA BARAT;98463;Indonesia;;-12.426.304;1.324.756.698;https://maps.google.com/?cid=0x0:0xa3b53493d6599552
perumahan;Perumahan;Fonatu;RFQ5+VFM, Fonatu, Ayawasi, Distrik Aifat Utara, Kabupaten Maybrat, Papua Bar. 98463;Fonatu, Ayawasi, Distrik Aifat Utara, Kabupaten Maybrat;PAPUA BARAT;98463;Indonesia;;-11.602.976;1.324.586.748;https://maps.google.com/?cid=0x0:0xe1058bdc7f5b6b06
perumahan;Komplek perumahan;Kabupaten maybrat;VC9M+C2, Mosun, Distrik Aifat Utara, Kabupaten Maybrat, Papua Bar.;Kabupaten Maybrat, Papua Bar.;PAPUA BARAT;;Indonesia;82197298713;-11.313.882;132.432.613;https://maps.google.com/?cid=0x0:0x29896164addecb1c
perumahan;Perhimpunan Pengembang Perumahan;Nezeth Aifat Utara Kab.Maybrat;RFP6+CWW, Uname Road, Ayawasi, Distrik Aifat Utara, Kabupaten Maybrat, Papua Bar. 98463;Uname Road, Ayawasi, Distrik Aifat Utara, Kabupaten Maybrat;PAPUA BARAT;98463;Indonesia;;-1.163.882;1.324.623.359;https://maps.google.com/?cid=0x0:0x30c27f8005f60ea7
perumahan;perumahan;Mosun, aifat utara;VC43+5F3, Mosun, Distrik Aifat Utara, Kabupaten Maybrat, Papua Bar. 98463;Mosun, Distrik Aifat Utara, Kabupaten Maybrat;PAPUA BARAT;98463;Indonesia;;-11.446.075;1.324.036.715;https://maps.google.com/?cid=0x0:0x320fbd5854cca3a4
perumahan;Perhimpunan Pengembang Perumahan;Kampung Neset, Aifat Utara, Kabupaten Maybrat;RFP6+9XG, Uname Road, Ayawasi, Distrik Aifat Utara, Kabupaten Maybrat, Papua Bar. 98463;Uname Road, Ayawasi, Distrik Aifat Utara, Kabupaten Maybrat;PAPUA BARAT;98463;Indonesia;;-11.640.663;1.324.624.589;https://maps.google.com/?cid=0x0:0xfe3e6a3b1dacf0d5
perumahan;Perhimpunan Pengembang Perumahan;AYAWASI FANBERS MAYBRAT;Ayawasi Fanbers, KAMP. FANBERS, DAYA, Distrik Aifat Utara, Kabupaten Maybrat, Papua Bar. 98277;KAMP. FANBERS, DAYA, Distrik Aifat Utara, Kabupaten Maybrat;PAPUA BARAT;98277;Indonesia;82175742019;-11.674.406;132.464.603;https://maps.google.com/?cid=0x0:0xdb8bed76c6756b1a
perumahan;Perhimpunan Pengembang Perumahan;KAMPUNG FAITSAWE;RC63+XF7, Fonatu, Distrik Aifat Utara, Kabupaten Maybrat, Papua Bar. 98463;Fonatu, Distrik Aifat Utara, Kabupaten Maybrat;PAPUA BARAT;98463;Indonesia;;-11.875.804;1.324.036.715;https://maps.google.com/?cid=0x0:0x4d7be2adb0b3ecec
perumahan;Perumahan;DESA/KAMP. FANBERS;RFM7+2P2, Ayawasi, Distrik Aifat Utara, Kabupaten Maybrat, Papua Bar. 98463;Ayawasi, Distrik Aifat Utara, Kabupaten Maybrat;PAPUA BARAT;98463;Indonesia;;-11.674.881;1.324.642.584;https://maps.google.com/?cid=0x0:0xb634853de76f00b2
perumahan;Perumahan;Ayawasi Kompleks Tursah;RFR6+JF9, Fonatu, Distrik Aifat Utara, Kabupaten Maybrat, Papua Bar. 98463;Fonatu, Distrik Aifat Utara, Kabupaten Maybrat;PAPUA BARAT;98463;Indonesia;;-11.584.617;1.324.612.312;https://maps.google.com/?cid=0x0:0xfea731c520a2eef5
perumahan;Perumahan;Ayawasi Kompleks Tursah;RF77+C36, Ayawasi, Distrik Aifat Utara, Kabupaten Maybrat, Papua Bar. 98463;Ayawasi, Distrik Aifat Utara, Kabupaten Maybrat;PAPUA BARAT;98463;Indonesia;;-1.186.464;1.324.626.367;https://maps.google.com/?cid=0x0:0x92ad890f805249c2
perumahan;Pembangunan Perumahan;Proyek Rumah Papua Barat;Q9QR+479, Fonatu, Distrik Aifat Utara, Kabupaten Maybrat, Papua Bar.;Kabupaten Maybrat, Papua Bar.;PAPUA BARAT;;Indonesia;;-12.122.123;1.323.907.207;https://maps.google.com/?cid=0x0:0x32f9d918d28cb15c
perumahan;Komplek perumahan;Sahabur;PF5R+XV, Futon, Distrik Aifat, Kabupaten Maybrat, Papua Bar.;Kabupaten Maybrat, Papua Bar.;PAPUA BARAT;;Indonesia;;-12.900.127;1.324.921.406;https://maps.google.com/?cid=0x0:0x463118003817dc9a
perumahan;perumahan;Distrik Aitinyo;Kabupaten Maybrat, Papua Bar.;Kabupaten Maybrat, Papua Bar.;PAPUA BARAT;;Indonesia;;-14.413.734;1.323.839.209;https://maps.google.com/?cid=0x0:0xd008081240dea68f
perumahan;Pembangunan Perumahan;ISARA, DISTRIK AITINYO BARAT;J842+5HJ, Awit, Distrik Aitinyo, Kabupaten Maybrat, Papua Bar.;Kabupaten Maybrat, Papua Bar.;PAPUA BARAT;;Indonesia;;-13.945.476;1.323.013.775;https://maps.google.com/?cid=0x0:0xff7555878e704c94
perumahan;Komplek perumahan;Aitinyo;H94W+3J, Karsu, Distrik Aitinyo, Kabupaten Maybrat, Papua Bar.;Kabupaten Maybrat, Papua Bar.;PAPUA BARAT;;Indonesia;;-14.450.374;1.323.965.869;https://maps.google.com/?cid=0x0:0x774516f1830040c9
perumahan;Pembangunan Perumahan;RumahnyaAis;H98V+GR4, Korom, Distrik Aitinyo, Kabupaten Maybrat, Papua Bar. 98463;Korom, Distrik Aitinyo, Kabupaten Maybrat;PAPUA BARAT;98463;Indonesia;;-14.349.002;1.323.943.858;https://maps.google.com/?cid=0x0:0x27d8afc1413a7711
perumahan;Pembangunan Perumahan;Ama bomel home;G8XV+GQ, Erok Wero, Distrik Aitinyo, Kabupaten Maybrat, Papua Bar.;Kabupaten Maybrat, Papua Bar.;PAPUA BARAT;;Indonesia;;-14.512.454;1.323.444.501;https://maps.google.com/?cid=0x0:0x45cc3c0f18aa68e4
perumahan;Pembangunan Perumahan;Sris;HC76+3J, Sris, Distrik Aitinyo, Kabupaten Maybrat, Papua Bar.;Kabupaten Maybrat, Papua Bar.;PAPUA BARAT;;Indonesia;;-14.373.125;1.324.115.625;https://maps.google.com/?cid=0x0:0xf1c16c0f6fa9b605
perumahan;Komplek perumahan;Kampung faithowes, kab.maybrat;M8GH+XP, Jitmau Tim., Kec. Aitinyo Utara, Kabupaten Maybrat, Papua Bar. 98462;Jitmau Tim., Kec. Aitinyo Utara, Kabupaten Maybrat;PAPUA BARAT;98462;Indonesia;;-13.225.415;1.323.293.429;https://maps.google.com/?cid=0x0:0x98a85cb3b47615dc
perumahan;Pembangunan Perumahan;Kantor Kampung Afkrem_Aitinyo_Maybrat;H9CV+33, Tehak Kecil, Distrik Aitinyo, Kabupaten Maybrat, Papua Bar. 98463;Tehak Kecil, Distrik Aitinyo, Kabupaten Maybrat;PAPUA BARAT;98463;Indonesia;;-14.297.704;1.323.927.373;https://maps.google.com/?cid=0x0:0xf1b94fdb1d2cb3ce
perumahan;Pembangunan Perumahan;Kampung Ibasuf_Aitinyo_Maybrat;H9GG+FW, Sira Aya, Distrik Aitinyo, Kabupaten Maybrat, Papua Bar. 98463;Sira Aya, Distrik Aitinyo, Kabupaten Maybrat;PAPUA BARAT;98463;Indonesia;;-14.238.419;1.323.768.914;https://maps.google.com/?cid=0x0:0x6cbb36323c513dad
perumahan;Komplek perumahan;Remteng??;J7CH+97J, Kambufatem, Aitinyo Barat/Athabu, Kabupaten Maybrat, Papua Bar. 98462;Kambufatem, Aitinyo Barat/Athabu, Kabupaten Maybrat;PAPUA BARAT;98462;Indonesia;;-1.379.031;1.322.781.503;https://maps.google.com/?cid=0x0:0x3d4ad31be400ea21
perumahan;perumahan;Aldo pu rumah;HCF4+8F2, Korom, Distrik Aitinyo, Kabupaten Maybrat, Papua Bar. 98463;Korom, Distrik Aitinyo, Kabupaten Maybrat;PAPUA BARAT;98463;Indonesia;;-1.426.737;1.324.061.297;https://maps.google.com/?cid=0x0:0x9dd07aceda54c225
perumahan;Komplek perumahan;Negara Texas Hutim;M8WV+GVC, Jitmau Tim., Kec. Aitinyo Utara, Kabupaten Maybrat, Papua Bar. 98462;Jitmau Tim., Kec. Aitinyo Utara, Kabupaten Maybrat;PAPUA BARAT;98462;Indonesia;82393520838;-13.036.884;1.323.446.399;https://maps.google.com/?cid=0x0:0x281de7c48acedcc
perumahan;Komplek perumahan;Kampung Bofait;H95M+FH3, Eroh He, Distrik Aitinyo, Kabupaten Maybrat, Papua Bar.;Kabupaten Maybrat, Papua Bar.;PAPUA BARAT;;Indonesia;;-14.413.734;1.323.839.209;https://maps.google.com/?cid=0x0:0x2c91e9ea065fdf3c
perumahan;Komplek perumahan;Kantor Kampung Eway;H78J+HHQ, Eway, Aitinyo Barat/Athabu, Kabupaten Maybrat, Papua Bar. 98462;Eway, Aitinyo Barat/Athabu, Kabupaten Maybrat;PAPUA BARAT;98462;Indonesia;;-14.335.149;1.322.809.052;https://maps.google.com/?cid=0x0:0x2395add87cf746d9
perumahan;perumahan;Distrik Aitinyo;Kabupaten Maybrat, Papua Bar.;Kabupaten Maybrat, Papua Bar.;PAPUA BARAT;;Indonesia;;-14.413.734;1.323.839.209;https://maps.google.com/?cid=0x0:0xd008081240dea68f
perumahan;Pembangunan Perumahan;ISARA, DISTRIK AITINYO BARAT;J842+5HJ, Awit, Distrik Aitinyo, Kabupaten Maybrat, Papua Bar.;Kabupaten Maybrat, Papua Bar.;PAPUA BARAT;;Indonesia;;-13.945.476;1.323.013.775;https://maps.google.com/?cid=0x0:0xff7555878e704c94
perumahan;Komplek perumahan;Aitinyo;H94W+3J, Karsu, Distrik Aitinyo, Kabupaten Maybrat, Papua Bar.;Kabupaten Maybrat, Papua Bar.;PAPUA BARAT;;Indonesia;;-14.450.374;1.323.965.869;https://maps.google.com/?cid=0x0:0x774516f1830040c9
perumahan;Balai masyarakat;Kampung ASNAIF;H94J+2WM, kampung Asnaif, Tengah, Distrik Aitinyo, Kabupaten Maybrat;Kabupaten Maybrat, Papua Bar.;PAPUA BARAT;;Indonesia;;-14.449.049;1.323.823.006;https://maps.google.com/?cid=0x0:0x67519d2db5bcefc8
perumahan;Pembangunan Perumahan;Ama bomel home;G8XV+GQ, Erok Wero, Distrik Aitinyo, Kabupaten Maybrat, Papua Bar.;Kabupaten Maybrat, Papua Bar.;PAPUA BARAT;;Indonesia;;-14.512.454;1.323.444.501;https://maps.google.com/?cid=0x0:0x45cc3c0f18aa68e4
perumahan;Komplek perumahan;Remteng??;J7CH+97J, Kambufatem, Aitinyo Barat/Athabu, Kabupaten Maybrat, Papua Bar. 98462;Kambufatem, Aitinyo Barat/Athabu, Kabupaten Maybrat;PAPUA BARAT;98462;Indonesia;;-1.379.031;1.322.781.503;https://maps.google.com/?cid=0x0:0x3d4ad31be400ea21
perumahan;Pembangunan Perumahan;Sris;HC76+3J, Sris, Distrik Aitinyo, Kabupaten Maybrat, Papua Bar.;Kabupaten Maybrat, Papua Bar.;PAPUA BARAT;;Indonesia;;-14.373.125;1.324.115.625;https://maps.google.com/?cid=0x0:0xf1c16c0f6fa9b605
perumahan;Pembangunan Perumahan;Kampung Ibasuf_Aitinyo_Maybrat;H9GG+FW, Sira Aya, Distrik Aitinyo, Kabupaten Maybrat, Papua Bar. 98463;Sira Aya, Distrik Aitinyo, Kabupaten Maybrat;PAPUA BARAT;98463;Indonesia;;-14.238.419;1.323.768.914;https://maps.google.com/?cid=0x0:0x6cbb36323c513dad
perumahan;Pembangunan Perumahan;Kantor Kampung Afkrem_Aitinyo_Maybrat;H9CV+33, Tehak Kecil, Distrik Aitinyo, Kabupaten Maybrat, Papua Bar. 98463;Tehak Kecil, Distrik Aitinyo, Kabupaten Maybrat;PAPUA BARAT;98463;Indonesia;;-14.297.704;1.323.927.373;https://maps.google.com/?cid=0x0:0xf1b94fdb1d2cb3ce
perumahan;perumahan;Aldo pu rumah;HCF4+8F2, Korom, Distrik Aitinyo, Kabupaten Maybrat, Papua Bar. 98463;Korom, Distrik Aitinyo, Kabupaten Maybrat;PAPUA BARAT;98463;Indonesia;;-1.426.737;1.324.061.297;https://maps.google.com/?cid=0x0:0x9dd07aceda54c225
perumahan;Komplek perumahan;Kampung faithowes, kab.maybrat;M8GH+XP, Jitmau Tim., Kec. Aitinyo Utara, Kabupaten Maybrat, Papua Bar. 98462;Jitmau Tim., Kec. Aitinyo Utara, Kabupaten Maybrat;PAPUA BARAT;98462;Indonesia;;-13.225.415;1.323.293.429;https://maps.google.com/?cid=0x0:0x98a85cb3b47615dc
perumahan;Komplek perumahan;Kampung Bofait;H95M+FH3, Eroh He, Distrik Aitinyo, Kabupaten Maybrat, Papua Bar.;Kabupaten Maybrat, Papua Bar.;PAPUA BARAT;;Indonesia;;-14.413.734;1.323.839.209;https://maps.google.com/?cid=0x0:0x2c91e9ea065fdf3c
perumahan;Komplek perumahan;Kantor Kampung Eway;H78J+HHQ, Eway, Aitinyo Barat/Athabu, Kabupaten Maybrat, Papua Bar. 98462;Eway, Aitinyo Barat/Athabu, Kabupaten Maybrat;PAPUA BARAT;98462;Indonesia;;-14.335.149;1.322.809.052;https://maps.google.com/?cid=0x0:0x2395add87cf746d9
perumahan;Komplek perumahan;Negara Texas Hutim;M8WV+GVC, Jitmau Tim., Kec. Aitinyo Utara, Kabupaten Maybrat, Papua Bar. 98462;Jitmau Tim., Kec. Aitinyo Utara, Kabupaten Maybrat;PAPUA BARAT;98462;Indonesia;82393520838;-13.036.884;1.323.446.399;https://maps.google.com/?cid=0x0:0x281de7c48acedcc
perumahan;Komplek perumahan;Aitinyo;H94W+3J, Karsu, Distrik Aitinyo, Kabupaten Maybrat, Papua Bar.;Kabupaten Maybrat, Papua Bar.;PAPUA BARAT;;Indonesia;;-14.450.374;1.323.965.869;https://maps.google.com/?cid=0x0:0x774516f1830040c9
perumahan;Pembangunan Perumahan;RumahnyaAis;H98V+GR4, Korom, Distrik Aitinyo, Kabupaten Maybrat, Papua Bar. 98463;Korom, Distrik Aitinyo, Kabupaten Maybrat;PAPUA BARAT;98463;Indonesia;;-14.349.002;1.323.943.858;https://maps.google.com/?cid=0x0:0x27d8afc1413a7711
perumahan;perumahan;Distrik Aitinyo;Kabupaten Maybrat, Papua Bar.;Kabupaten Maybrat, Papua Bar.;PAPUA BARAT;;Indonesia;;-14.413.734;1.323.839.209;https://maps.google.com/?cid=0x0:0xd008081240dea68f
perumahan;Pembangunan Perumahan;ISARA, DISTRIK AITINYO BARAT;J842+5HJ, Awit, Distrik Aitinyo, Kabupaten Maybrat, Papua Bar.;Kabupaten Maybrat, Papua Bar.;PAPUA BARAT;;Indonesia;;-13.945.476;1.323.013.775;https://maps.google.com/?cid=0x0:0xff7555878e704c94
perumahan;Pembangunan Perumahan;RumahnyaAis;H98V+GR4, Korom, Distrik Aitinyo, Kabupaten Maybrat, Papua Bar. 98463;Korom, Distrik Aitinyo, Kabupaten Maybrat;PAPUA BARAT;98463;Indonesia;;-14.349.002;1.323.943.858;https://maps.google.com/?cid=0x0:0x27d8afc1413a7711
perumahan;Komplek perumahan;Aitinyo;H94W+3J, Karsu, Distrik Aitinyo, Kabupaten Maybrat, Papua Bar.;Kabupaten Maybrat, Papua Bar.;PAPUA BARAT;;Indonesia;;-14.450.374;1.323.965.869;https://maps.google.com/?cid=0x0:0x774516f1830040c9
perumahan;Pembangunan Perumahan;Sris;HC76+3J, Sris, Distrik Aitinyo, Kabupaten Maybrat, Papua Bar.;Kabupaten Maybrat, Papua Bar.;PAPUA BARAT;;Indonesia;;-14.373.125;1.324.115.625;https://maps.google.com/?cid=0x0:0xf1c16c0f6fa9b605
perumahan;Pembangunan Perumahan;Ama bomel home;G8XV+GQ, Erok Wero, Distrik Aitinyo, Kabupaten Maybrat, Papua Bar.;Kabupaten Maybrat, Papua Bar.;PAPUA BARAT;;Indonesia;;-14.512.454;1.323.444.501;https://maps.google.com/?cid=0x0:0x45cc3c0f18aa68e4
perumahan;Pembangunan Perumahan;Kampung Ibasuf_Aitinyo_Maybrat;H9GG+FW, Sira Aya, Distrik Aitinyo, Kabupaten Maybrat, Papua Bar. 98463;Sira Aya, Distrik Aitinyo, Kabupaten Maybrat;PAPUA BARAT;98463;Indonesia;;-14.238.419;1.323.768.914;https://maps.google.com/?cid=0x0:0x6cbb36323c513dad
perumahan;Komplek perumahan;Remteng??;J7CH+97J, Kambufatem, Aitinyo Barat/Athabu, Kabupaten Maybrat, Papua Bar. 98462;Kambufatem, Aitinyo Barat/Athabu, Kabupaten Maybrat;PAPUA BARAT;98462;Indonesia;;-1.379.031;1.322.781.503;https://maps.google.com/?cid=0x0:0x3d4ad31be400ea21
perumahan;perumahan;Aldo pu rumah;HCF4+8F2, Korom, Distrik Aitinyo, Kabupaten Maybrat, Papua Bar. 98463;Korom, Distrik Aitinyo, Kabupaten Maybrat;PAPUA BARAT;98463;Indonesia;;-1.426.737;1.324.061.297;https://maps.google.com/?cid=0x0:0x9dd07aceda54c225
perumahan;Pembangunan Perumahan;Kantor Kampung Afkrem_Aitinyo_Maybrat;H9CV+33, Tehak Kecil, Distrik Aitinyo, Kabupaten Maybrat, Papua Bar. 98463;Tehak Kecil, Distrik Aitinyo, Kabupaten Maybrat;PAPUA BARAT;98463;Indonesia;;-14.297.704;1.323.927.373;https://maps.google.com/?cid=0x0:0xf1b94fdb1d2cb3ce
perumahan;Komplek perumahan;Kampung faithowes, kab.maybrat;M8GH+XP, Jitmau Tim., Kec. Aitinyo Utara, Kabupaten Maybrat, Papua Bar. 98462;Jitmau Tim., Kec. Aitinyo Utara, Kabupaten Maybrat;PAPUA BARAT;98462;Indonesia;;-13.225.415;1.323.293.429;https://maps.google.com/?cid=0x0:0x98a85cb3b47615dc
perumahan;Komplek perumahan;Kampung Kasar;H95M+FH3, Tengah, Distrik Aitinyo, Kabupaten Maybrat, Papua Bar.;Kabupaten Maybrat, Papua Bar.;PAPUA BARAT;;Indonesia;;-14.413.734;1.323.839.209;https://maps.google.com/?cid=0x0:0x8222949c33ee2f1c
perumahan;perumahan;lorong PUGEL;F8HV+RVC, Kamro, Distrik Aitinyo, Kabupaten Maybrat, Papua Bar.;Kabupaten Maybrat, Papua Bar.;PAPUA BARAT;;Indonesia;;-15.204.287;1.323.446.399;https://maps.google.com/?cid=0x0:0x663717b6a7307b5b
perumahan;Komplek perumahan;Kampung Bofait;H95M+FH3, Eroh He, Distrik Aitinyo, Kabupaten Maybrat, Papua Bar.;Kabupaten Maybrat, Papua Bar.;PAPUA BARAT;;Indonesia;;-14.413.734;1.323.839.209;https://maps.google.com/?cid=0x0:0x2c91e9ea065fdf3c
perumahan;perumahan;Kec. Aitinyo Utara;Kabupaten Maybrat, Papua Bar.;Kabupaten Maybrat, Papua Bar.;PAPUA BARAT;;Indonesia;;-13.033.463;1.323.116.515;https://maps.google.com/?cid=0x0:0x7e6239eb7f264d46
perumahan;Komplek perumahan;Kampung faithowes, kab.maybrat;M8GH+XP, Jitmau Tim., Kec. Aitinyo Utara, Kabupaten Maybrat, Papua Bar. 98462;Jitmau Tim., Kec. Aitinyo Utara, Kabupaten Maybrat;PAPUA BARAT;98462;Indonesia;;-13.225.415;1.323.293.429;https://maps.google.com/?cid=0x0:0x98a85cb3b47615dc
perumahan;Komplek perumahan;Negara Texas Hutim;M8WV+GVC, Jitmau Tim., Kec. Aitinyo Utara, Kabupaten Maybrat, Papua Bar. 98462;Jitmau Tim., Kec. Aitinyo Utara, Kabupaten Maybrat;PAPUA BARAT;98462;Indonesia;82393520838;-13.036.884;1.323.446.399;https://maps.google.com/?cid=0x0:0x281de7c48acedcc
perumahan;Komplek perumahan;Aitinyo;H94W+3J, Karsu, Distrik Aitinyo, Kabupaten Maybrat, Papua Bar.;Kabupaten Maybrat, Papua Bar.;PAPUA BARAT;;Indonesia;;-14.450.374;1.323.965.869;https://maps.google.com/?cid=0x0:0x774516f1830040c9
perumahan;;Kampung Persiapan Wekayu;M92H+3JP, Mirafan, Kec. Aitinyo Utara, Kabupaten Maybrat, Papua Bar.;Kabupaten Maybrat, Papua Bar.;PAPUA BARAT;;Indonesia;;-13.497.839;132.379.083;https://maps.google.com/?cid=0x0:0x2a95dfd937afa96f
perumahan;Pembangunan Perumahan;KAMPUNG BAHWAAT;M985+P5H, Faan, Kec. Aitinyo Utara, Kabupaten Maybrat, Papua Bar.;Kabupaten Maybrat, Papua Bar.;PAPUA BARAT;;Indonesia;;-13.331.953;1.323.579.986;https://maps.google.com/?cid=0x0:0x4881ae4c2c89ef63
perumahan;Pembangunan Perumahan;Kampung Sabun;P838+529, Jitmau, Kec. Aitinyo Utara, Kabupaten Maybrat, Papua Bar.;Kabupaten Maybrat, Papua Bar.;PAPUA BARAT;;Indonesia;;-12.970.979;1.323.150.993;https://maps.google.com/?cid=0x0:0x55d8d6fc2b603af6
perumahan;Perhimpunan Pengembang Perumahan;Kampung Gohsames;M9MQ+J4F, Gohsames, Kec. Aitinyo Utara, Kabupaten Maybrat, Papua Bar.;Kabupaten Maybrat, Papua Bar.;PAPUA BARAT;;Indonesia;;-13.159.478;1.323.878.017;https://maps.google.com/?cid=0x0:0xffcf6a8bdebe6019
perumahan;Pembangunan Perumahan;Rumah Ricky suweny;M956+3PH, Fategomi, Kec. Aitinyo Utara, Kabupaten Maybrat, Papua Bar.;Kabupaten Maybrat, Papua Bar.;PAPUA BARAT;;Indonesia;;-1.341.327;13.236.166;https://maps.google.com/?cid=0x0:0x98cf6d9a28073f70
perumahan;Pembangunan Perumahan;Kampung Sarimo (Dusun Sabah);P86M+96, Jitmau Tim., Kec. Aitinyo Utara, Kabupaten Maybrat, Papua Bar.;Kabupaten Maybrat, Papua Bar.;PAPUA BARAT;;Indonesia;81343430651;-12.891.215;1.323.330.186;https://maps.google.com/?cid=0x0:0x26bf1e85db4303a
perumahan;Kompleks Apartemen;Kampung Asmuruf 'U';M966+54Q, Asmuruf 'u', Kec. Aitinyo Utara, Kabupaten Maybrat, Papua Bar.;Kabupaten Maybrat, Papua Bar.;PAPUA BARAT;;Indonesia;;-13.395.451;132.360.359;https://maps.google.com/?cid=0x0:0xd544f501449d47fe
perumahan;Komplek perumahan;Kampung Ikuf Utara;P825+PHW, Ikuf, Kec. Aitinyo Utara, Kabupaten Maybrat, Papua Bar. 98462;Ikuf, Kec. Aitinyo Utara, Kabupaten Maybrat;PAPUA BARAT;98462;Indonesia;82238129105;-12.981.251;1.323.089.429;https://maps.google.com/?cid=0x0:0xb9d02a542bef9753
perumahan;Komplek perumahan;Remteng??;J7CH+97J, Kambufatem, Aitinyo Barat/Athabu, Kabupaten Maybrat, Papua Bar. 98462;Kambufatem, Aitinyo Barat/Athabu, Kabupaten Maybrat;PAPUA BARAT;98462;Indonesia;;-1.379.031;1.322.781.503;https://maps.google.com/?cid=0x0:0x3d4ad31be400ea21
perumahan;Komplek perumahan;Isusu (Kamboja);M7F8+MR, Kambuskato, Ayamaru Tim. Sel., Kabupaten Maybrat, Papua Bar. 98462;Kambuskato, Ayamaru Tim. Sel., Kabupaten Maybrat;PAPUA BARAT;98462;Indonesia;;-1.325.409;132.267.902;https://maps.google.com/?cid=0x0:0x5104def9852ba885
perumahan;Komplek perumahan;Rumah Kotawi Ayamaru;P5GW+279, Ayamaru, Kec. Ayamaru, Kabupaten Maybrat, Papua Bar.;Kabupaten Maybrat, Papua Bar.;PAPUA BARAT;;Indonesia;;-12.749.516;1.321.957.347;https://maps.google.com/?cid=0x0:0xff398e9cf16948fa
perumahan;perumahan;Kec. Ayamaru;Kabupaten Maybrat, Papua Bar.;Kabupaten Maybrat, Papua Bar.;PAPUA BARAT;;Indonesia;;-12.754.068;1.321.954.691;https://maps.google.com/?cid=0x0:0x4d8a88af2189602c
perumahan;perumahan;LISTRIK AYAMARU BARAT;P5PF+7CM, Fraharoh, Kec. Ayamaru, Kabupaten Maybrat, Papua Bar. 98461;Fraharoh, Kec. Ayamaru, Kabupaten Maybrat;PAPUA BARAT;98461;Indonesia;;-12.642.766;1.321.735.455;https://maps.google.com/?cid=0x0:0x7fac1ca792df934a
perumahan;perumahan;Kampung orain;Q58P+HHR, Framu, Ayamaru, Maybrat Regency, West Papua 98461;Framu, Ayamaru, Maybrat Regency;PAPUA BARAT;98461;Indonesia;;-12.335.217;1.321.863.996;https://maps.google.com/?cid=0x0:0x1876e2390348ab5e
perumahan;Komplek perumahan;KAMPUNG RINDU;P6JH+5FF, Fiane, Kec. Ayamaru, Kabupaten Maybrat, Papua Bar. 98462;Fiane, Kec. Ayamaru, Kabupaten Maybrat;PAPUA BARAT;98462;Indonesia;;-12.695.677;1.322.286.649;https://maps.google.com/?cid=0x0:0xeaffa53d9cb5885c
perumahan;Komplek perumahan;MABEZS ASEGI;Q58Q+2GW, Segior, North Ayamaru, Maybrat Regency, West Papua 98461;Segior, North Ayamaru, Maybrat Regency;PAPUA BARAT;98461;Indonesia;;-12.351.719;132.189.348;https://maps.google.com/?cid=0x0:0x3d057bb72b45da20
perumahan;perumahan;Kampung Oraindistrik ayamaru jaya;Q58P+WV, Framu, Ayamaru Jaya, Maybrat Regency, West Papua;Kabupaten Maybrat, Papua Bar.;PAPUA BARAT;;Indonesia;;-12.332.566;1.321.864.707;https://maps.google.com/?cid=0x0:0x6604ccf5798d1ac6
perumahan;Bengkel Ganti Oli;Bengkel ayamaru;P5GQ+X8G, Fraharoh, Kec. Ayamaru, Kabupaten Maybrat, Papua Bar. 98461;Fraharoh, Kec. Ayamaru, Kabupaten Maybrat;PAPUA BARAT;98461;Indonesia;;-12.725.676;1.321.883.359;https://maps.google.com/?cid=0x0:0x3a332a3efbbb0266
perumahan;Pembangunan Perumahan;Kampung Segior;Q58Q+2GW, Segior, North Ayamaru, Maybrat Regency, West Papua 98461;Segior, North Ayamaru, Maybrat Regency;PAPUA BARAT;98461;Indonesia;;-12.348.826;1.321.888.314;https://maps.google.com/?cid=0x0:0xd5f9e416e528d10e
perumahan;perumahan;Huberbari Hoom Stay;P5M6+GC, Chaliat, Kec. Ayamaru, Kabupaten Maybrat, Papua Bar.;Kabupaten Maybrat, Papua Bar.;PAPUA BARAT;;Indonesia;81292849139;-126.616;132.161.002;https://maps.google.com/?cid=0x0:0x324cf1c3d1e42af6
perumahan;perumahan;Kampung soroan;P4PW+6X6, Chaliat, Kec. Ayamaru, Kabupaten Maybrat, Papua Bar. 98461;Chaliat, Kec. Ayamaru, Kabupaten Maybrat;PAPUA BARAT;98461;Indonesia;;-12.644.634;1.321.473.903;https://maps.google.com/?cid=0x0:0x1af2b0a0d18f867b
perumahan;Komplek perumahan;Soroan Compound;P4C5+44H compound La Purisima Nabua Camarines Sur, Soroan, Ayamaru, Maybrat Regency, West Papua 98461;Soroan, Ayamaru, Maybrat Regency;PAPUA BARAT;98461;Indonesia;;-12.796.904;1.321.078.523;https://maps.google.com/?cid=0x0:0x855f0f98413229bc
perumahan;Komplek perumahan;Kampung Siminyah;M4WW+HV4, Sauf, Distrik Ayamaru Selatan, Kabupaten Maybrat, Papua Bar.;Kabupaten Maybrat, Papua Bar.;PAPUA BARAT;;Indonesia;;-13.036.027;1.321.471.884;https://maps.google.com/?cid=0x0:0xadc127fc57ea79b5
perumahan;Komplek perumahan;Rumah Myron;P4XP+MR, Chaliat, Kec. Ayamaru, Kabupaten Maybrat, Papua Bar.;Kabupaten Maybrat, Papua Bar.;PAPUA BARAT;;Indonesia;;-1.250.766;132.136.382;https://maps.google.com/?cid=0x0:0x33db915cce29e009
perumahan;perumahan;Kec. Ayamaru;Kabupaten Maybrat, Papua Bar.;Kabupaten Maybrat, Papua Bar.;PAPUA BARAT;;Indonesia;;-12.754.068;1.321.954.691;https://maps.google.com/?cid=0x0:0x4d8a88af2189602c
perumahan;Komplek perumahan;Rumah Kotawi Ayamaru;P5GW+279, Ayamaru, Kec. Ayamaru, Kabupaten Maybrat, Papua Bar.;Kabupaten Maybrat, Papua Bar.;PAPUA BARAT;;Indonesia;;-12.749.516;1.321.957.347;https://maps.google.com/?cid=0x0:0xff398e9cf16948fa
perumahan;perumahan;LISTRIK AYAMARU BARAT;P5PF+7CM, Fraharoh, Kec. Ayamaru, Kabupaten Maybrat, Papua Bar. 98461;Fraharoh, Kec. Ayamaru, Kabupaten Maybrat;PAPUA BARAT;98461;Indonesia;;-12.642.766;1.321.735.455;https://maps.google.com/?cid=0x0:0x7fac1ca792df934a
perumahan;Komplek perumahan;KAMPUNG RINDU;P6JH+5FF, Fiane, Kec. Ayamaru, Kabupaten Maybrat, Papua Bar. 98462;Fiane, Kec. Ayamaru, Kabupaten Maybrat;PAPUA BARAT;98462;Indonesia;;-12.695.677;1.322.286.649;https://maps.google.com/?cid=0x0:0xeaffa53d9cb5885c
perumahan;perumahan;Kampung orain;Q58P+HHR, Framu, Ayamaru, Maybrat Regency, West Papua 98461;Framu, Ayamaru, Maybrat Regency;PAPUA BARAT;98461;Indonesia;;-12.335.217;1.321.863.996;https://maps.google.com/?cid=0x0:0x1876e2390348ab5e
perumahan;Komplek perumahan;MABEZS ASEGI;Q58Q+2GW, Segior, North Ayamaru, Maybrat Regency, West Papua 98461;Segior, North Ayamaru, Maybrat Regency;PAPUA BARAT;98461;Indonesia;;-12.351.719;132.189.348;https://maps.google.com/?cid=0x0:0x3d057bb72b45da20
perumahan;Bengkel Ganti Oli;Bengkel ayamaru;P5GQ+X8G, Fraharoh, Kec. Ayamaru, Kabupaten Maybrat, Papua Bar. 98461;Fraharoh, Kec. Ayamaru, Kabupaten Maybrat;PAPUA BARAT;98461;Indonesia;;-12.725.676;1.321.883.359;https://maps.google.com/?cid=0x0:0x3a332a3efbbb0266
perumahan;perumahan;Kampung Oraindistrik ayamaru jaya;Q58P+WV, Framu, Ayamaru Jaya, Maybrat Regency, West Papua;Kabupaten Maybrat, Papua Bar.;PAPUA BARAT;;Indonesia;;-12.332.566;1.321.864.707;https://maps.google.com/?cid=0x0:0x6604ccf5798d1ac6
perumahan;perumahan;Huberbari Hoom Stay;P5M6+GC, Chaliat, Kec. Ayamaru, Kabupaten Maybrat, Papua Bar.;Kabupaten Maybrat, Papua Bar.;PAPUA BARAT;;Indonesia;81292849139;-126.616;132.161.002;https://maps.google.com/?cid=0x0:0x324cf1c3d1e42af6
perumahan;Pembangunan Perumahan;Kampung Segior;Q58Q+2GW, Segior, North Ayamaru, Maybrat Regency, West Papua 98461;Segior, North Ayamaru, Maybrat Regency;PAPUA BARAT;98461;Indonesia;;-12.348.826;1.321.888.314;https://maps.google.com/?cid=0x0:0xd5f9e416e528d10e
perumahan;perumahan;Kampung soroan;P4PW+6X6, Chaliat, Kec. Ayamaru, Kabupaten Maybrat, Papua Bar. 98461;Chaliat, Kec. Ayamaru, Kabupaten Maybrat;PAPUA BARAT;98461;Indonesia;;-12.644.634;1.321.473.903;https://maps.google.com/?cid=0x0:0x1af2b0a0d18f867b
perumahan;Komplek perumahan;Rumah Myron;P4XP+MR, Chaliat, Kec. Ayamaru, Kabupaten Maybrat, Papua Bar.;Kabupaten Maybrat, Papua Bar.;PAPUA BARAT;;Indonesia;;-1.250.766;132.136.382;https://maps.google.com/?cid=0x0:0x33db915cce29e009
perumahan;Komplek perumahan;Soroan Compound;P4C5+44H compound La Purisima Nabua Camarines Sur, Soroan, Ayamaru, Maybrat Regency, West Papua 98461;Soroan, Ayamaru, Maybrat Regency;PAPUA BARAT;98461;Indonesia;;-12.796.904;1.321.078.523;https://maps.google.com/?cid=0x0:0x855f0f98413229bc
perumahan;Komplek perumahan;Kampung Siminyah;M4WW+HV4, Sauf, Distrik Ayamaru Selatan, Kabupaten Maybrat, Papua Bar.;Kabupaten Maybrat, Papua Bar.;PAPUA BARAT;;Indonesia;;-13.036.027;1.321.471.884;https://maps.google.com/?cid=0x0:0xadc127fc57ea79b5
perumahan;perumahan;Distrik Ayamaru Jaya;Kabupaten Maybrat, Papua Bar.;Kabupaten Maybrat, Papua Bar.;PAPUA BARAT;;Indonesia;;-1.240.888;1.321.225.897;https://maps.google.com/?cid=0x0:0x7043cae1470f6f3d
perumahan;perumahan;Kampung Oraindistrik ayamaru jaya;Q58P+WV, Framu, Ayamaru Jaya, Maybrat Regency, West Papua;Kabupaten Maybrat, Papua Bar.;PAPUA BARAT;;Indonesia;;-12.332.566;1.321.864.707;https://maps.google.com/?cid=0x0:0x6604ccf5798d1ac6
perumahan;Komplek perumahan;Rumah Kotawi Ayamaru;P5GW+279, Ayamaru, Kec. Ayamaru, Kabupaten Maybrat, Papua Bar.;Kabupaten Maybrat, Papua Bar.;PAPUA BARAT;;Indonesia;;-12.749.516;1.321.957.347;https://maps.google.com/?cid=0x0:0xff398e9cf16948fa
perumahan;Perhimpunan Pengembang Perumahan;Temsos Raya;V5R9+VRR, Kampung Temsos Raya, Distrik Ayamaru Jaya, Kabupaten Maybrat, Papua Bar. 98461;Kampung Temsos Raya, Distrik Ayamaru Jaya, Kabupaten Maybrat;PAPUA BARAT;98461;Indonesia;;-11.077.745;1.321.695.309;https://maps.google.com/?cid=0x0:0x6f9d60d8f5d76699
perumahan;perumahan;Kampung orain;Q58P+HHR, Framu, Ayamaru, Maybrat Regency, West Papua 98461;Framu, Ayamaru, Maybrat Regency;PAPUA BARAT;98461;Indonesia;;-12.335.217;1.321.863.996;https://maps.google.com/?cid=0x0:0x1876e2390348ab5e
perumahan;perumahan;LISTRIK AYAMARU BARAT;P5PF+7CM, Fraharoh, Kec. Ayamaru, Kabupaten Maybrat, Papua Bar. 98461;Fraharoh, Kec. Ayamaru, Kabupaten Maybrat;PAPUA BARAT;98461;Indonesia;;-12.642.766;1.321.735.455;https://maps.google.com/?cid=0x0:0x7fac1ca792df934a
perumahan;Pembangunan Perumahan;Kampung Segior;Q58Q+2GW, Segior, North Ayamaru, Maybrat Regency, West Papua 98461;Segior, North Ayamaru, Maybrat Regency;PAPUA BARAT;98461;Indonesia;;-12.348.826;1.321.888.314;https://maps.google.com/?cid=0x0:0xd5f9e416e528d10e
perumahan;Komplek perumahan;Rumah Kalten;P5FW+5W9, Ayamaru, Kec. Ayamaru, Kabupaten Maybrat, Papua Bar. 98461;Ayamaru, Kec. Ayamaru, Kabupaten Maybrat;PAPUA BARAT;98461;Indonesia;;-1.276.952;1.321.969.005;https://maps.google.com/?cid=0x0:0x3208103863302b07
perumahan;perumahan;Huberbari Hoom Stay;P5M6+GC, Chaliat, Kec. Ayamaru, Kabupaten Maybrat, Papua Bar.;Kabupaten Maybrat, Papua Bar.;PAPUA BARAT;;Indonesia;81292849139;-126.616;132.161.002;https://maps.google.com/?cid=0x0:0x324cf1c3d1e42af6
perumahan;Komplek perumahan;Rumah Myron;P4XP+MR, Chaliat, Kec. Ayamaru, Kabupaten Maybrat, Papua Bar.;Kabupaten Maybrat, Papua Bar.;PAPUA BARAT;;Indonesia;;-1.250.766;132.136.382;https://maps.google.com/?cid=0x0:0x33db915cce29e009
perumahan;Komplek perumahan;Abe Duwith;P4WM+X5C, Chaliat, Kec. Ayamaru, Kabupaten Maybrat, Papua Bar. 98461;Chaliat, Kec. Ayamaru, Kabupaten Maybrat;PAPUA BARAT;98461;Indonesia;;-12.525.524;1.321.328.852;https://maps.google.com/?cid=0x0:0xe30e7f95398659b0
perumahan;Bengkel Ganti Oli;Bengkel ayamaru;P5GQ+X8G, Fraharoh, Kec. Ayamaru, Kabupaten Maybrat, Papua Bar. 98461;Fraharoh, Kec. Ayamaru, Kabupaten Maybrat;PAPUA BARAT;98461;Indonesia;;-12.725.676;1.321.883.359;https://maps.google.com/?cid=0x0:0x3a332a3efbbb0266
perumahan;perumahan;Kampung soroan;P4PW+6X6, Chaliat, Kec. Ayamaru, Kabupaten Maybrat, Papua Bar. 98461;Chaliat, Kec. Ayamaru, Kabupaten Maybrat;PAPUA BARAT;98461;Indonesia;;-12.644.634;1.321.473.903;https://maps.google.com/?cid=0x0:0x1af2b0a0d18f867b
perumahan;perumahan;Isak sefaniwi;Q58P+WV, Framu, Ayamaru Jaya, Maybrat Regency, West Papua;Kabupaten Maybrat, Papua Bar.;PAPUA BARAT;;Indonesia;;-123.327;1.321.864.673;https://maps.google.com/?cid=0x0:0xb7a6246892e92f37
perumahan;perumahan;Distrik Ayamaru Selatan;Kabupaten Maybrat, Papua Bar.;Kabupaten Maybrat, Papua Bar.;PAPUA BARAT;;Indonesia;;-13.053.761;1.321.485.942;https://maps.google.com/?cid=0x0:0x78bc898d04ac4488
perumahan;Komplek perumahan;Rumah Kotawi Ayamaru;P5GW+279, Ayamaru, Kec. Ayamaru, Kabupaten Maybrat, Papua Bar.;Kabupaten Maybrat, Papua Bar.;PAPUA BARAT;;Indonesia;;-12.749.516;1.321.957.347;https://maps.google.com/?cid=0x0:0xff398e9cf16948fa
perumahan;perumahan;LISTRIK AYAMARU BARAT;P5PF+7CM, Fraharoh, Kec. Ayamaru, Kabupaten Maybrat, Papua Bar. 98461;Fraharoh, Kec. Ayamaru, Kabupaten Maybrat;PAPUA BARAT;98461;Indonesia;;-12.642.766;1.321.735.455;https://maps.google.com/?cid=0x0:0x7fac1ca792df934a
perumahan;Komplek perumahan;Kampung Siminyah;M4WW+HV4, Sauf, Distrik Ayamaru Selatan, Kabupaten Maybrat, Papua Bar.;Kabupaten Maybrat, Papua Bar.;PAPUA BARAT;;Indonesia;;-13.036.027;1.321.471.884;https://maps.google.com/?cid=0x0:0xadc127fc57ea79b5
perumahan;perumahan;Huberbari Hoom Stay;P5M6+GC, Chaliat, Kec. Ayamaru, Kabupaten Maybrat, Papua Bar.;Kabupaten Maybrat, Papua Bar.;PAPUA BARAT;;Indonesia;81292849139;-126.616;132.161.002;https://maps.google.com/?cid=0x0:0x324cf1c3d1e42af6
perumahan;Bengkel Ganti Oli;Bengkel ayamaru;P5GQ+X8G, Fraharoh, Kec. Ayamaru, Kabupaten Maybrat, Papua Bar. 98461;Fraharoh, Kec. Ayamaru, Kabupaten Maybrat;PAPUA BARAT;98461;Indonesia;;-12.725.676;1.321.883.359;https://maps.google.com/?cid=0x0:0x3a332a3efbbb0266
perumahan;Komplek perumahan;Williams home;M53X+RP, Sayemsembaro, Distrik Ayamaru Selatan, Kabupaten Maybrat, Papua Bar.;Kabupaten Maybrat, Papua Bar.;PAPUA BARAT;;Indonesia;;-13.454.058;132.199.358;https://maps.google.com/?cid=0x0:0xbdc10e94bb1cc385
perumahan;perumahan;Kampung kanisabar;M4RX+MJG, Sauf, Kec. Ayamaru, Kabupaten Maybrat, Papua Bar. 98461;Sauf, Kec. Ayamaru, Kabupaten Maybrat;PAPUA BARAT;98461;Indonesia;;-13.083.132;1.321.490.693;https://maps.google.com/?cid=0x0:0xe4a5d8b407df05e
perumahan;Komplek perumahan;SEMBARO ISLAND;M642+PF, Sayemsembaro, Distrik Ayamaru Selatan, Kabupaten Maybrat, Papua Bar.;Kabupaten Maybrat, Papua Bar.;PAPUA BARAT;;Indonesia;85251236598;-13.432.072;1.322.012.256;https://maps.google.com/?cid=0x0:0x232de12074c6d9b6
perumahan;perumahan;Svacho Cityy;P5FW+R58, Ayamaru, Kec. Ayamaru, Kabupaten Maybrat, Papua Bar.;Kabupaten Maybrat, Papua Bar.;PAPUA BARAT;;Indonesia;;-12.754.653;1.321.954.432;https://maps.google.com/?cid=0x0:0x89372dd7c27d7f5c
perumahan;perumahan;Huberbari Hoom Stay;P5FW+R58, Ayamaru, Kec. Ayamaru, Kabupaten Maybrat, Papua Bar.;Kabupaten Maybrat, Papua Bar.;PAPUA BARAT;;Indonesia;;-12.754.653;1.321.954.432;https://maps.google.com/?cid=0x0:0x4d80c835629336a0
perumahan;Komplek perumahan;KAMPUNG RINDU;P6JH+5FF, Fiane, Kec. Ayamaru, Kabupaten Maybrat, Papua Bar. 98462;Fiane, Kec. Ayamaru, Kabupaten Maybrat;PAPUA BARAT;98462;Indonesia;;-12.695.677;1.322.286.649;https://maps.google.com/?cid=0x0:0xeaffa53d9cb5885c
perumahan;Komplek perumahan;Pokdakan Malloh-Mandiri;P5GW+24P, Framu, Kec. Ayamaru, Kabupaten Maybrat, Papua Bar. 98461;Framu, Kec. Ayamaru, Kabupaten Maybrat;PAPUA BARAT;98461;Indonesia;;-12.740.439;1.321.955.225;https://maps.google.com/?cid=0x0:0x42e70350115b51e3
perumahan;Komplek perumahan;Kampung Wesrom/Tut;P62X+695, Fiane, Distrik Ayamaru Tengah, Kabupaten Maybrat, Papua Bar.;Kabupaten Maybrat, Papua Bar.;PAPUA BARAT;;Indonesia;;-12.994.785;1.322.484.706;https://maps.google.com/?cid=0x0:0x2d7ce8f99944bdb4
perumahan;perumahan;Distrik Ayamaru Selatan Jaya;Kabupaten Maybrat, Papua Bar.;Kabupaten Maybrat, Papua Bar.;PAPUA BARAT;;Indonesia;;-13.673.656;1.322.296.299;https://maps.google.com/?cid=0x0:0x67f2471ae23483de
perumahan;Pembangunan Perumahan;Kampung Sesor;H5R3+FGQ, Isnum, Aitinyo Barat/Athabu, Kabupaten Maybrat, Papua Bar. 98462;Isnum, Aitinyo Barat/Athabu, Kabupaten Maybrat;PAPUA BARAT;98462;Indonesia;;-14.087.947;1.321.538.739;https://maps.google.com/?cid=0x0:0xf7ec86f8e48be197
perumahan;Komplek perumahan;SEMBARO ISLAND;M642+PF, Sayemsembaro, Distrik Ayamaru Selatan, Kabupaten Maybrat, Papua Bar.;Kabupaten Maybrat, Papua Bar.;PAPUA BARAT;;Indonesia;85251236598;-13.432.072;1.322.012.256;https://maps.google.com/?cid=0x0:0x232de12074c6d9b6
perumahan;Perhimpunan Pengembang Perumahan;Kampung faitsimar;J6JH+QG, Kofait, Distrik Ayamaru Selatan Jaya, Kabupaten Maybrat, Papua Bar. 98462;Kofait, Distrik Ayamaru Selatan Jaya, Kabupaten Maybrat;PAPUA BARAT;98462;Indonesia;;-13.681.175;1.322.287.405;https://maps.google.com/?cid=0x0:0x7c8b56ce74c984bd
perumahan;Komplek perumahan;Isusu (Kamboja);M7F8+MR, Kambuskato, Ayamaru Tim. Sel., Kabupaten Maybrat, Papua Bar. 98462;Kambuskato, Ayamaru Tim. Sel., Kabupaten Maybrat;PAPUA BARAT;98462;Indonesia;;-1.325.409;132.267.902;https://maps.google.com/?cid=0x0:0x5104def9852ba885
perumahan;Komplek perumahan;SASEM ISLAND.WEST PAPUA;M643+24, Sayemsembaro, Distrik Ayamaru Selatan, Kabupaten Maybrat, Papua Bar.;Kabupaten Maybrat, Papua Bar.;PAPUA BARAT;;Indonesia;;-13.449.902;1.322.028.273;https://maps.google.com/?cid=0x0:0x9bb80a6ef059fa7
perumahan;Komplek perumahan;Kampung Siminyah;M4WW+HV4, Sauf, Distrik Ayamaru Selatan, Kabupaten Maybrat, Papua Bar.;Kabupaten Maybrat, Papua Bar.;PAPUA BARAT;;Indonesia;;-13.036.027;1.321.471.884;https://maps.google.com/?cid=0x0:0xadc127fc57ea79b5
perumahan;Rumah Sakit;Puskesmas ayamaru selatan jaya;J6HP+P4M, Kofait, Distrik Ayamaru Selatan Jaya, Kabupaten Maybrat, Papua Bar.;Kabupaten Maybrat, Papua Bar.;PAPUA BARAT;;Indonesia;;-13.706.668;132.235.307;https://maps.google.com/?cid=0x0:0x32fb25787fdf2e8
perumahan;Komplek perumahan;Kampung Wesrom/Tut;P62X+695, Fiane, Distrik Ayamaru Tengah, Kabupaten Maybrat, Papua Bar.;Kabupaten Maybrat, Papua Bar.;PAPUA BARAT;;Indonesia;;-12.994.785;1.322.484.706;https://maps.google.com/?cid=0x0:0x2d7ce8f99944bdb4
perumahan;Pembangunan Perumahan;Kampung Kami Sabe/Distrik Moswaren;H649+FHM, Kamisabe, Distrik Moswaren, Kabupaten Sorong Selatan, Papua Bar.;Kabupaten Sorong Selatan, Papua Bar.;PAPUA BARAT;;Indonesia;;-14.437.946;1.322.189.113;https://maps.google.com/?cid=0x0:0x27ac54a7cbb71894
perumahan;perumahan;Distrik Ayamaru Tengah;Kabupaten Maybrat, Papua Bar.;Kabupaten Maybrat, Papua Bar.;PAPUA BARAT;;Indonesia;;-12.884.148;1.322.172.648;https://maps.google.com/?cid=0x0:0xa06de0548d38d1a6
perumahan;Komplek perumahan;Rumah Kotawi Ayamaru;P5GW+279, Ayamaru, Kec. Ayamaru, Kabupaten Maybrat, Papua Bar.;Kabupaten Maybrat, Papua Bar.;PAPUA BARAT;;Indonesia;;-12.749.516;1.321.957.347;https://maps.google.com/?cid=0x0:0xff398e9cf16948fa
perumahan;Komplek perumahan;Rumah Kalten;P5FW+5W9, Ayamaru, Kec. Ayamaru, Kabupaten Maybrat, Papua Bar. 98461;Ayamaru, Kec. Ayamaru, Kabupaten Maybrat;PAPUA BARAT;98461;Indonesia;;-1.276.952;1.321.969.005;https://maps.google.com/?cid=0x0:0x3208103863302b07
perumahan;perumahan;Kampung Oraindistrik ayamaru jaya;Q58P+WV, Framu, Ayamaru Jaya, Maybrat Regency, West Papua;Kabupaten Maybrat, Papua Bar.;PAPUA BARAT;;Indonesia;;-12.332.566;1.321.864.707;https://maps.google.com/?cid=0x0:0x6604ccf5798d1ac6
perumahan;perumahan;LISTRIK AYAMARU BARAT;P5PF+7CM, Fraharoh, Kec. Ayamaru, Kabupaten Maybrat, Papua Bar. 98461;Fraharoh, Kec. Ayamaru, Kabupaten Maybrat;PAPUA BARAT;98461;Indonesia;;-12.642.766;1.321.735.455;https://maps.google.com/?cid=0x0:0x7fac1ca792df934a
perumahan;Komplek perumahan;KAMPUNG RINDU;P6JH+5FF, Fiane, Kec. Ayamaru, Kabupaten Maybrat, Papua Bar. 98462;Fiane, Kec. Ayamaru, Kabupaten Maybrat;PAPUA BARAT;98462;Indonesia;;-12.695.677;1.322.286.649;https://maps.google.com/?cid=0x0:0xeaffa53d9cb5885c
perumahan;Komplek perumahan;Kampung Wesrom/Tut;P62X+695, Fiane, Distrik Ayamaru Tengah, Kabupaten Maybrat, Papua Bar.;Kabupaten Maybrat, Papua Bar.;PAPUA BARAT;;Indonesia;;-12.994.785;1.322.484.706;https://maps.google.com/?cid=0x0:0x2d7ce8f99944bdb4
perumahan;Komplek perumahan;MABEZS ASEGI;Q58Q+2GW, Segior, North Ayamaru, Maybrat Regency, West Papua 98461;Segior, North Ayamaru, Maybrat Regency;PAPUA BARAT;98461;Indonesia;;-12.351.719;132.189.348;https://maps.google.com/?cid=0x0:0x3d057bb72b45da20
perumahan;Pembangunan Perumahan;Kampung Sentup;P6HR+FG3, Unnamed Road, Fiane, Distrik Ayamaru Tengah, Kabupaten Maybrat, Papua Bar. 98462;Unnamed Road, Fiane, Distrik Ayamaru Tengah, Kabupaten Maybrat;PAPUA BARAT;98462;Indonesia;;-12.713.704;1.322.412.894;https://maps.google.com/?cid=0x0:0xfcaf2d7d201c726b
perumahan;Pembangunan Perumahan;Kampung Segior;Q58Q+2GW, Segior, North Ayamaru, Maybrat Regency, West Papua 98461;Segior, North Ayamaru, Maybrat Regency;PAPUA BARAT;98461;Indonesia;;-12.348.826;1.321.888.314;https://maps.google.com/?cid=0x0:0xd5f9e416e528d10e
perumahan;Perhimpunan Pengembang Perumahan;Kampung Hufioh;P669+G2P, Trans Papua Barat (Sorong-Kambuaya-Manokwari), Kartapura, Distrik Ayamaru Tengah, Kabupaten Maybrat, Papua Bar. 98462;Trans Papua Barat (Sorong-Kambuaya-Manokwari), Kartapura, Distrik Ayamaru Tengah, Kabupaten Maybrat;PAPUA BARAT;98462;Indonesia;;-12.892.148;1.322.187.487;https://maps.google.com/?cid=0x0:0x6a79500d7f72546f
perumahan;Toko Perlengkapan Rumah;Kampung Isme;P668+JWJ, Kartapura, Distrik Ayamaru Tengah, Kabupaten Maybrat, Papua Bar.;Kabupaten Maybrat, Papua Bar.;PAPUA BARAT;;Indonesia;;-12.884.148;1.322.172.648;https://maps.google.com/?cid=0x0:0xb017a02b680d36c4
perumahan;Bengkel Ganti Oli;Bengkel ayamaru;P5GQ+X8G, Fraharoh, Kec. Ayamaru, Kabupaten Maybrat, Papua Bar. 98461;Fraharoh, Kec. Ayamaru, Kabupaten Maybrat;PAPUA BARAT;98461;Indonesia;;-12.725.676;1.321.883.359;https://maps.google.com/?cid=0x0:0x3a332a3efbbb0266
perumahan;Komplek perumahan;Frasiwa _Iskah;P668+JWJ, Kartapura, Distrik Ayamaru Tengah, Kabupaten Maybrat, Papua Bar.;Kabupaten Maybrat, Papua Bar.;PAPUA BARAT;;Indonesia;;-12.884.148;1.322.172.648;https://maps.google.com/?cid=0x0:0x8ce1755f33984def
perumahan;Balai masyarakat;Kampung Yumame;M8W2+6VG, JL. Raya, Kambuaya, Kec. Ayamaru Tim., Kabupaten Maybrat, Papua Bar. 98462;JL. Raya, Kambuaya, Kec. Ayamaru Tim., Kabupaten Maybrat;PAPUA BARAT;98462;Indonesia;;-13.044.417;1.323.022.107;https://maps.google.com/?cid=0x0:0xd463716fda26611f
perumahan;perumahan;Kec. Ayamaru Tim.;Kabupaten Maybrat, Papua Bar.;Kabupaten Maybrat, Papua Bar.;PAPUA BARAT;;Indonesia;;-12.951.177;13.227.456;https://maps.google.com/?cid=0x0:0xb5d97283031cf050
perumahan;Komplek perumahan;Kampung Wesrom/Tut;P62X+695, Fiane, Distrik Ayamaru Tengah, Kabupaten Maybrat, Papua Bar.;Kabupaten Maybrat, Papua Bar.;PAPUA BARAT;;Indonesia;;-12.994.785;1.322.484.706;https://maps.google.com/?cid=0x0:0x2d7ce8f99944bdb4
perumahan;Klub Olahraga;HANTU SPORT.FC.MAYBRAT;P74G+XFG, Faitmajin, Kec. Ayamaru Tim., Kabupaten Maybrat, Papua Bar. 98462;Faitmajin, Kec. Ayamaru Tim., Kabupaten Maybrat;PAPUA BARAT;98462;Indonesia;;-12.925.609;132.276.187;https://maps.google.com/?cid=0x0:0xe705bf1c5da41e76
perumahan;Komplek perumahan;Rumah Kalten;P5FW+5W9, Ayamaru, Kec. Ayamaru, Kabupaten Maybrat, Papua Bar. 98461;Ayamaru, Kec. Ayamaru, Kabupaten Maybrat;PAPUA BARAT;98461;Indonesia;;-1.276.952;1.321.969.005;https://maps.google.com/?cid=0x0:0x3208103863302b07
perumahan;Perhimpunan Pengembang Perumahan;Kompleks Adam;P73H+FM, Kambuaya, Kec. Ayamaru Tim., Kabupaten Maybrat, Papua Bar.;Kabupaten Maybrat, Papua Bar.;PAPUA BARAT;;Indonesia;;-12.963.281;1.322.792.644;https://maps.google.com/?cid=0x0:0xc276f9151284dda
perumahan;Pembangunan Perumahan;Kampung Sentup;P6HR+FG3, Unnamed Road, Fiane, Distrik Ayamaru Tengah, Kabupaten Maybrat, Papua Bar. 98462;Unnamed Road, Fiane, Distrik Ayamaru Tengah, Kabupaten Maybrat;PAPUA BARAT;98462;Indonesia;;-12.713.704;1.322.412.894;https://maps.google.com/?cid=0x0:0xfcaf2d7d201c726b
perumahan;Pembangunan Perumahan;Swis;M7WP+26M, Kambuaya, Kec. Ayamaru Tim., Kabupaten Maybrat, Papua Bar. 98462;Kambuaya, Kec. Ayamaru Tim., Kabupaten Maybrat;PAPUA BARAT;98462;Indonesia;;-13.049.128;1.322.855.422;https://maps.google.com/?cid=0x0:0xa7d7a5a05203d145
perumahan;Komplek perumahan;KAMPUNG RINDU;P6JH+5FF, Fiane, Kec. Ayamaru, Kabupaten Maybrat, Papua Bar. 98462;Fiane, Kec. Ayamaru, Kabupaten Maybrat;PAPUA BARAT;98462;Indonesia;;-12.695.677;1.322.286.649;https://maps.google.com/?cid=0x0:0xeaffa53d9cb5885c
perumahan;Kantor Pemerintah;Kantor Kampung/Ismayo;P73F+XR3, Kambuaya, Kec. Ayamaru Tim., Kabupaten Maybrat, Papua Bar. 98462;Kambuaya, Kec. Ayamaru Tim., Kabupaten Maybrat;PAPUA BARAT;98462;Indonesia;;-12.951.177;13.227.456;https://maps.google.com/?cid=0x0:0xa75946f9f13c4d47
perumahan;Komplek perumahan;Kampung frabo;P8W6+Q2, Mapura, Distrik Ayamaru Utara Timur, Kabupaten Maybrat, Papua Bar.;Kabupaten Maybrat, Papua Bar.;PAPUA BARAT;;Indonesia;;-12.531.022;1.323.100.232;https://maps.google.com/?cid=0x0:0x469da47fe92da491
perumahan;Balai masyarakat;Yang Kambuaya Saja;M77Q+8Q2, Kambuwifa, Kec. Ayamaru Tim., Kabupaten Maybrat, Papua Bar. 98462;Kambuwifa, Kec. Ayamaru Tim., Kabupaten Maybrat;PAPUA BARAT;98462;Indonesia;;-13.361.498;1.322.883.043;https://maps.google.com/?cid=0x0:0xd381a8cdfa77aea7
perumahan;Komplek perumahan;Swis;P746+GG7, Trans Papua Barat (Sorong-Kambuaya-Manokwari), Faitmajin, Kec. Ayamaru Tim., Kabupaten Maybrat, Papua Bar. 98462;Trans Papua Barat (Sorong-Kambuaya-Manokwari), Faitmajin, Kec. Ayamaru Tim., Kabupaten Maybrat;PAPUA BARAT;98462;Indonesia;;-12.937.225;1.322.612.953;https://maps.google.com/?cid=0x0:0x84c45b7a50a31975
perumahan;Komplek perumahan;Basecamp Keyum;M7WH+X8H, Kambuaya, Kec. Ayamaru Tim., Kabupaten Maybrat, Papua Bar. 98462;Kambuaya, Kec. Ayamaru Tim., Kabupaten Maybrat;PAPUA BARAT;98462;Indonesia;;-13.025.713;1.322.783.672;https://maps.google.com/?cid=0x0:0x839dea98d1916c9c
perumahan;perumahan;Ayamaru Tim. Sel.;Kambuskato, Kabupaten Maybrat, Papua Bar.;Kabupaten Maybrat, Papua Bar.;PAPUA BARAT;;Indonesia;;-1.324.591;132.265.572;https://maps.google.com/?cid=0x0:0x2387ffcd93d6ad5b
perumahan;Komplek perumahan;Isusu (Kamboja);M7F8+MR, Kambuskato, Ayamaru Tim. Sel., Kabupaten Maybrat, Papua Bar. 98462;Kambuskato, Ayamaru Tim. Sel., Kabupaten Maybrat;PAPUA BARAT;98462;Indonesia;;-1.325.409;132.267.902;https://maps.google.com/?cid=0x0:0x5104def9852ba885
perumahan;Komplek perumahan;Kampung Wesrom/Tut;P62X+695, Fiane, Distrik Ayamaru Tengah, Kabupaten Maybrat, Papua Bar.;Kabupaten Maybrat, Papua Bar.;PAPUA BARAT;;Indonesia;;-12.994.785;1.322.484.706;https://maps.google.com/?cid=0x0:0x2d7ce8f99944bdb4
perumahan;perumahan;Ayamaru Utara;Kabupaten Maybrat, Papua Bar.;Kabupaten Maybrat, Papua Bar.;PAPUA BARAT;;Indonesia;;-11.983.051;1.322.165.112;https://maps.google.com/?cid=0x0:0x7c47e1a7cad6e57d
perumahan;Komplek perumahan;MABEZS ASEGI;Q58Q+2GW, Segior, North Ayamaru, Maybrat Regency, West Papua 98461;Segior, North Ayamaru, Maybrat Regency;PAPUA BARAT;98461;Indonesia;;-12.351.719;132.189.348;https://maps.google.com/?cid=0x0:0x3d057bb72b45da20
perumahan;Pembangunan Perumahan;Kampung Segior;Q58Q+2GW, Segior, North Ayamaru, Maybrat Regency, West Papua 98461;Segior, North Ayamaru, Maybrat Regency;PAPUA BARAT;98461;Indonesia;;-12.348.826;1.321.888.314;https://maps.google.com/?cid=0x0:0xd5f9e416e528d10e
perumahan;perumahan;Kampung Oraindistrik ayamaru jaya;Q58P+WV, Framu, Ayamaru Jaya, Maybrat Regency, West Papua;Kabupaten Maybrat, Papua Bar.;PAPUA BARAT;;Indonesia;;-12.332.566;1.321.864.707;https://maps.google.com/?cid=0x0:0x6604ccf5798d1ac6
perumahan;perumahan;LISTRIK AYAMARU BARAT;P5PF+7CM, Fraharoh, Kec. Ayamaru, Kabupaten Maybrat, Papua Bar. 98461;Fraharoh, Kec. Ayamaru, Kabupaten Maybrat;PAPUA BARAT;98461;Indonesia;;-12.642.766;1.321.735.455;https://maps.google.com/?cid=0x0:0x7fac1ca792df934a
perumahan;Komplek perumahan;Kampung Adoh;R5HX+2H, Setta, Ayamaru Utara, Kabupaten Maybrat, Papua Bar.;Kabupaten Maybrat, Papua Bar.;PAPUA BARAT;;Indonesia;;-1.172.482;1.321.989.021;https://maps.google.com/?cid=0x0:0xe2d562bc0b8e4f38
perumahan;Pembangunan Perumahan;Home R.B.S;Q57Q+JC5, Men, Ayamaru Tengah, Maybrat Regency, West Papua;Kabupaten Maybrat, Papua Bar.;PAPUA BARAT;;Indonesia;;-1.235.312;1.321.879.456;https://maps.google.com/?cid=0x0:0xdbd6590472812e3b
perumahan;Pembangunan Perumahan;Haban Mait????;R76P+36F, Yubiah, Ayamaru Utara, Kabupaten Maybrat, Papua Bar.;Kabupaten Maybrat, Papua Bar.;PAPUA BARAT;;Indonesia;;-11.898.133;1.322.855.422;https://maps.google.com/?cid=0x0:0x5bb4a77d2085607f
perumahan;Komplek perumahan;KAMPUNG RINDU;P6JH+5FF, Fiane, Kec. Ayamaru, Kabupaten Maybrat, Papua Bar. 98462;Fiane, Kec. Ayamaru, Kabupaten Maybrat;PAPUA BARAT;98462;Indonesia;;-12.695.677;1.322.286.649;https://maps.google.com/?cid=0x0:0xeaffa53d9cb5885c
perumahan;perumahan;Isak sefaniwi;Q58P+WV, Framu, Ayamaru Jaya, Maybrat Regency, West Papua;Kabupaten Maybrat, Papua Bar.;PAPUA BARAT;;Indonesia;;-123.327;1.321.864.673;https://maps.google.com/?cid=0x0:0xb7a6246892e92f37
perumahan;Komplek perumahan;Desa Kona;P8RC+7MJ, Mapura, Distrik Ayamaru Utara Timur, Kabupaten Maybrat, Papua Bar.;Kabupaten Maybrat, Papua Bar.;PAPUA BARAT;;Indonesia;;-12.592.785;132.321.646;https://maps.google.com/?cid=0x0:0xd0f166c18df666a9
perumahan;Pembangunan Perumahan;Kampung Sentup;P6HR+FG3, Unnamed Road, Fiane, Distrik Ayamaru Tengah, Kabupaten Maybrat, Papua Bar. 98462;Unnamed Road, Fiane, Distrik Ayamaru Tengah, Kabupaten Maybrat;PAPUA BARAT;98462;Indonesia;;-12.713.704;1.322.412.894;https://maps.google.com/?cid=0x0:0xfcaf2d7d201c726b
perumahan;perumahan;Huberbari Hoom Stay;P5M6+GC, Chaliat, Kec. Ayamaru, Kabupaten Maybrat, Papua Bar.;Kabupaten Maybrat, Papua Bar.;PAPUA BARAT;;Indonesia;81292849139;-126.616;132.161.002;https://maps.google.com/?cid=0x0:0x324cf1c3d1e42af6
perumahan;Komplek perumahan;Komplex worza;Q724+CH5, Huberita, Ayamaru Utara, Kabupaten Maybrat, Papua Bar.;Kabupaten Maybrat, Papua Bar.;PAPUA BARAT;;Indonesia;;-12.489.903;1.322.564.826;https://maps.google.com/?cid=0x0:0x5a445327be685fd4
perumahan;Komplek perumahan;Desa Kona;P8RC+7MJ, Mapura, Distrik Ayamaru Utara Timur, Kabupaten Maybrat, Papua Bar.;Kabupaten Maybrat, Papua Bar.;PAPUA BARAT;;Indonesia;;-12.592.785;132.321.646;https://maps.google.com/?cid=0x0:0xd0f166c18df666a9
perumahan;perumahan;Distrik Ayamaru Utara Timur;Kabupaten Maybrat, Papua Bar.;Kabupaten Maybrat, Papua Bar.;PAPUA BARAT;;Indonesia;;-12.541.857;1.323.121.103;https://maps.google.com/?cid=0x0:0x48dc44cac491eb66
perumahan;Komplek perumahan;Kampung frabo;P8W6+Q2, Mapura, Distrik Ayamaru Utara Timur, Kabupaten Maybrat, Papua Bar.;Kabupaten Maybrat, Papua Bar.;PAPUA BARAT;;Indonesia;;-12.531.022;1.323.100.232;https://maps.google.com/?cid=0x0:0x469da47fe92da491
perumahan;Pembangunan Perumahan;Kampung Sarimo (Dusun Sabah);P86M+96, Jitmau Tim., Kec. Aitinyo Utara, Kabupaten Maybrat, Papua Bar.;Kabupaten Maybrat, Papua Bar.;PAPUA BARAT;;Indonesia;81343430651;-12.891.215;1.323.330.186;https://maps.google.com/?cid=0x0:0x26bf1e85db4303a
perumahan;Pembangunan Perumahan;Haban Mait????;R76P+36F, Yubiah, Ayamaru Utara, Kabupaten Maybrat, Papua Bar.;Kabupaten Maybrat, Papua Bar.;PAPUA BARAT;;Indonesia;;-11.898.133;1.322.855.422;https://maps.google.com/?cid=0x0:0x5bb4a77d2085607f
perumahan;Komplek perumahan;Komplex worza;Q724+CH5, Huberita, Ayamaru Utara, Kabupaten Maybrat, Papua Bar.;Kabupaten Maybrat, Papua Bar.;PAPUA BARAT;;Indonesia;;-12.489.903;1.322.564.826;https://maps.google.com/?cid=0x0:0x5a445327be685fd4
perumahan;Klub Olahraga;HANTU SPORT.FC.MAYBRAT;P74G+XFG, Faitmajin, Kec. Ayamaru Tim., Kabupaten Maybrat, Papua Bar. 98462;Faitmajin, Kec. Ayamaru Tim., Kabupaten Maybrat;PAPUA BARAT;98462;Indonesia;;-12.925.609;132.276.187;https://maps.google.com/?cid=0x0:0xe705bf1c5da41e76
perumahan;Kantor Pemerintah;Kantor Kampung/Ismayo;P73F+XR3, Kambuaya, Kec. Ayamaru Tim., Kabupaten Maybrat, Papua Bar. 98462;Kambuaya, Kec. Ayamaru Tim., Kabupaten Maybrat;PAPUA BARAT;98462;Indonesia;;-12.951.177;13.227.456;https://maps.google.com/?cid=0x0:0xa75946f9f13c4d47
perumahan;Pembangunan Perumahan;Proyek Rumah Papua Barat;Q9QR+479, Fonatu, Distrik Aifat Utara, Kabupaten Maybrat, Papua Bar.;Kabupaten Maybrat, Papua Bar.;PAPUA BARAT;;Indonesia;;-12.122.123;1.323.907.207;https://maps.google.com/?cid=0x0:0x32f9d918d28cb15c
perumahan;Komplek perumahan;Swis;P746+GG7, Trans Papua Barat (Sorong-Kambuaya-Manokwari), Faitmajin, Kec. Ayamaru Tim., Kabupaten Maybrat, Papua Bar. 98462;Trans Papua Barat (Sorong-Kambuaya-Manokwari), Faitmajin, Kec. Ayamaru Tim., Kabupaten Maybrat;PAPUA BARAT;98462;Indonesia;;-12.937.225;1.322.612.953;https://maps.google.com/?cid=0x0:0x84c45b7a50a31975
perumahan;Kantor Pemerintah;Puskesmas Ayamaru Utara;Q736+5C7, Huberita, Kec. Ayamaru Tim., Kabupaten Maybrat, Papua Bar. 98462;Huberita, Kec. Ayamaru Tim., Kabupaten Maybrat;PAPUA BARAT;98462;Indonesia;;-12.484.625;1.322.611.612;https://maps.google.com/?cid=0x0:0x30b0250f2fdd38b
perumahan;Toko Perlengkapan Rumah;North IKUF;P842+JRQ, Jl. Kambretu, Ikuf, utara, Kabupaten Maybrat, Papua Bar. 98462;Jl. Kambretu, Ikuf, utara, Kabupaten Maybrat;PAPUA BARAT;98462;Indonesia;;-1.293.418;1.323.021.011;https://maps.google.com/?cid=0x0:0x99a5465bf564c8d5
perumahan;Bengkel Ganti Oli;Bengkel ayamaru;P5GQ+X8G, Fraharoh, Kec. Ayamaru, Kabupaten Maybrat, Papua Bar. 98461;Fraharoh, Kec. Ayamaru, Kabupaten Maybrat;PAPUA BARAT;98461;Indonesia;;-12.725.676;1.321.883.359;https://maps.google.com/?cid=0x0:0x3a332a3efbbb0266
perumahan;perumahan;Distrik Mare;Kabupaten Maybrat, Papua Bar.;Kabupaten Maybrat, Papua Bar.;PAPUA BARAT;;Indonesia;;-11.114.481;1.322.559.685;https://maps.google.com/?cid=0x0:0x655833115dbb110e
perumahan;Pembangunan Perumahan;Distrik Mare Kabupaten Maybrat;V78H+R4, Sire, Distrik Mare, Kabupaten Maybrat, Papua Bar.;Kabupaten Maybrat, Papua Bar.;PAPUA BARAT;;Indonesia;;-11.329.901;1.322.778.033;https://maps.google.com/?cid=0x0:0x4247317531b36836
perumahan;Pembangunan Perumahan;Seni Distrik Mare Selatan Kab. Maybrat;X727+WQQ, Hutan, Kabupaten Tambrauw, Papua Bar. 98473;Hutan, Kabupaten Tambrauw;PAPUA BARAT;98473;Indonesia;;-10.476.691;1.322.644.975;https://maps.google.com/?cid=0x0:0x673c50df662ce770
perumahan;Komplek perumahan;kampung waban;W4CH+V29, raya, Waban, Distrik Mare, Kabupaten Maybrat, Papua Bar. 98461;raya, Waban, Distrik Mare, Kabupaten Maybrat;PAPUA BARAT;98461;Indonesia;;-10.778.256;132.127.625;https://maps.google.com/?cid=0x0:0x46ae4cf6e98f9269
perumahan;perumahan;Kampung Sire;V76W+65J, Sire, Distrik Mare, Kabupaten Maybrat, Papua Bar. 98463;Sire, Distrik Mare, Kabupaten Maybrat;PAPUA BARAT;98463;Indonesia;;-11.394.116;1.322.953.964;https://maps.google.com/?cid=0x0:0x8853781eb189fcee
perumahan;Perhimpunan Pengembang Perumahan;Kampung sidi;V87C+76, Sire, Distrik Mare, Kabupaten Maybrat, Papua Bar.;Kabupaten Maybrat, Papua Bar.;PAPUA BARAT;;Indonesia;;-11.368.433;1.323.205.283;https://maps.google.com/?cid=0x0:0x25da7782e7796545
perumahan;Pembangunan Perumahan;Yohanes Semuanya;V76W+65J, Sire, Distrik Mare, Kabupaten Maybrat, Papua Bar. 98463;Sire, Distrik Mare, Kabupaten Maybrat;PAPUA BARAT;98463;Indonesia;81240108848;-11.394.116;1.322.953.964;https://maps.google.com/?cid=0x0:0x489e8ccf1f7b537e
perumahan;Pembangunan Perumahan;Proyek Rumah Papua Barat;Q9QR+479, Fonatu, Distrik Aifat Utara, Kabupaten Maybrat, Papua Bar.;Kabupaten Maybrat, Papua Bar.;PAPUA BARAT;;Indonesia;;-12.122.123;1.323.907.207;https://maps.google.com/?cid=0x0:0x32f9d918d28cb15c
perumahan;Komplek perumahan;Kabupaten maybrat;VC9M+C2, Mosun, Distrik Aifat Utara, Kabupaten Maybrat, Papua Bar.;Kabupaten Maybrat, Papua Bar.;PAPUA BARAT;;Indonesia;82197298713;-11.313.882;132.432.613;https://maps.google.com/?cid=0x0:0x29896164addecb1c
perumahan;Perhimpunan Pengembang Perumahan;Temsos Raya;V5R9+VRR, Kampung Temsos Raya, Distrik Ayamaru Jaya, Kabupaten Maybrat, Papua Bar. 98461;Kampung Temsos Raya, Distrik Ayamaru Jaya, Kabupaten Maybrat;PAPUA BARAT;98461;Indonesia;;-11.077.745;1.321.695.309;https://maps.google.com/?cid=0x0:0x6f9d60d8f5d76699
perumahan;Perumahan;Perumahan Grand Efata Malibela;Jl. Malibela, Klawalu, Kecamatan Sorong Manoi, Kota Sorong, Papua Bar. 98413;Klawalu, Kecamatan Sorong Manoi, Kota Sorong;PAPUA BARAT;98413;Indonesia;82268235322;-0.90423;1.313.118.479;https://maps.google.com/?cid=0x0:0x600613eae3023432
perumahan;Komplek perumahan;Kampung Adoh;R5HX+2H, Setta, Ayamaru Utara, Kabupaten Maybrat, Papua Bar.;Kabupaten Maybrat, Papua Bar.;PAPUA BARAT;;Indonesia;;-1.172.482;1.321.989.021;https://maps.google.com/?cid=0x0:0xe2d562bc0b8e4f38
perumahan;perumahan;Sulawesi Selatan 92773;Kec. Mare, Kabupaten Bone, Sulawesi Selatan;Kabupaten Bone, Sulawesi Selatan;PAPUA BARAT;;Indonesia;;-4.788.882;1.202.743.484;https://maps.google.com/?cid=0x0:0x176353ed256d27d5
perumahan;Komplek perumahan;Kec mare;58RR+XVH, Padaelo, Kec. Mare, Kabupaten Bone, Sulawesi Selatan;Kabupaten Bone, Sulawesi Selatan;PAPUA BARAT;;Indonesia;;-48.075.582;1.203.422.372;https://maps.google.com/?cid=0x0:0x397726b161f5287b
perumahan;perumahan;Papua Bar. 98461;Kabupaten Maybrat, Papua Bar.;Kabupaten Maybrat, Papua Bar.;PAPUA BARAT;;Indonesia;;-12.145.828;1.321.177.396;https://maps.google.com/?cid=0x0:0x150319512b004ee4
perumahan;Pembangunan Perumahan;Distrik Mare Kabupaten Maybrat;V78H+R4, Sire, Distrik Mare, Kabupaten Maybrat, Papua Bar.;Kabupaten Maybrat, Papua Bar.;PAPUA BARAT;;Indonesia;;-11.329.901;1.322.778.033;https://maps.google.com/?cid=0x0:0x4247317531b36836
perumahan;Komplek perumahan;kampung waban;W4CH+V29, raya, Waban, Distrik Mare, Kabupaten Maybrat, Papua Bar. 98461;raya, Waban, Distrik Mare, Kabupaten Maybrat;PAPUA BARAT;98461;Indonesia;;-10.778.256;132.127.625;https://maps.google.com/?cid=0x0:0x46ae4cf6e98f9269
perumahan;Komplek perumahan;Rumah Kotawi Ayamaru;P5GW+279, Ayamaru, Kec. Ayamaru, Kabupaten Maybrat, Papua Bar.;Kabupaten Maybrat, Papua Bar.;PAPUA BARAT;;Indonesia;;-12.749.516;1.321.957.347;https://maps.google.com/?cid=0x0:0xff398e9cf16948fa
perumahan;Pembangunan Perumahan;Kampung Segior;Q58Q+2GW, Segior, North Ayamaru, Maybrat Regency, West Papua 98461;Segior, North Ayamaru, Maybrat Regency;PAPUA BARAT;98461;Indonesia;;-12.348.826;1.321.888.314;https://maps.google.com/?cid=0x0:0xd5f9e416e528d10e
perumahan;Komplek perumahan;MABEZS ASEGI;Q58Q+2GW, Segior, North Ayamaru, Maybrat Regency, West Papua 98461;Segior, North Ayamaru, Maybrat Regency;PAPUA BARAT;98461;Indonesia;;-12.351.719;132.189.348;https://maps.google.com/?cid=0x0:0x3d057bb72b45da20
perumahan;perumahan;Kampung orain;Q58P+HHR, Framu, Ayamaru, Maybrat Regency, West Papua 98461;Framu, Ayamaru, Maybrat Regency;PAPUA BARAT;98461;Indonesia;;-12.335.217;1.321.863.996;https://maps.google.com/?cid=0x0:0x1876e2390348ab5e
perumahan;Perhimpunan Pengembang Perumahan;DISTRIK MARE SELATAN;V76W+65J, Sire, Distrik Mare, Kabupaten Maybrat, Papua Bar. 98463;Sire, Distrik Mare, Kabupaten Maybrat;PAPUA BARAT;98463;Indonesia;;-11.394.116;1.322.953.964;https://maps.google.com/?cid=0x0:0xfbdce61b4c613012
perumahan;Komplek perumahan;Kampung Wesrom/Tut;P62X+695, Fiane, Distrik Ayamaru Tengah, Kabupaten Maybrat, Papua Bar.;Kabupaten Maybrat, Papua Bar.;PAPUA BARAT;;Indonesia;;-12.994.785;1.322.484.706;https://maps.google.com/?cid=0x0:0x2d7ce8f99944bdb4
perumahan;Komplek perumahan;Kampung Wen;QX99+VPP, Wen, Distrik Sawiat, Kabupaten Sorong Selatan, Papua Bar.;Kabupaten Sorong Selatan, Papua Bar.;PAPUA BARAT;;Indonesia;;-12.302.998;1.319.693.385;https://maps.google.com/?cid=0x0:0xe02f6b078a3bb28f
perumahan;Komplek perumahan;Kampung Siminyah;M4WW+HV4, Sauf, Distrik Ayamaru Selatan, Kabupaten Maybrat, Papua Bar.;Kabupaten Maybrat, Papua Bar.;PAPUA BARAT;;Indonesia;;-13.036.027;1.321.471.884;https://maps.google.com/?cid=0x0:0xadc127fc57ea79b5
perumahan;Komplek perumahan;Rumah Kalten;P5FW+5W9, Ayamaru, Kec. Ayamaru, Kabupaten Maybrat, Papua Bar. 98461;Ayamaru, Kec. Ayamaru, Kabupaten Maybrat;PAPUA BARAT;98461;Indonesia;;-1.276.952;1.321.969.005;https://maps.google.com/?cid=0x0:0x3208103863302b07
perumahan;Komplek perumahan;Pasir putih mahato;RXHM+WJ5 simp KUD, Pasir Putih, Distrik Fokour, Kabupaten Sorong Selatan, Papua Bar. 98461;Pasir Putih, Distrik Fokour, Kabupaten Sorong Selatan;PAPUA BARAT;98461;Indonesia;;-11.702.465;1.319.841.073;https://maps.google.com/?cid=0x0:0x5e0272f4ffe86aa2
perumahan;Komplek perumahan;KAMPUNG RINDU;P6JH+5FF, Fiane, Kec. Ayamaru, Kabupaten Maybrat, Papua Bar. 98462;Fiane, Kec. Ayamaru, Kabupaten Maybrat;PAPUA BARAT;98462;Indonesia;;-12.695.677;1.322.286.649;https://maps.google.com/?cid=0x0:0xeaffa53d9cb5885c
perumahan;perumahan;Distrik Mare;Kabupaten Maybrat, Papua Bar.;Kabupaten Maybrat, Papua Bar.;PAPUA BARAT;;Indonesia;;-11.114.481;1.322.559.685;https://maps.google.com/?cid=0x0:0x655833115dbb110e
perumahan;perumahan;Papua Bar. 98461;Kabupaten Maybrat, Papua Bar.;Kabupaten Maybrat, Papua Bar.;PAPUA BARAT;;Indonesia;;-12.145.828;1.321.177.396;https://maps.google.com/?cid=0x0:0x150319512b004ee4
perumahan;Pembangunan Perumahan;Seni Distrik Mare Selatan Kab. Maybrat;X727+WQQ, Hutan, Kabupaten Tambrauw, Papua Bar. 98473;Hutan, Kabupaten Tambrauw;PAPUA BARAT;98473;Indonesia;;-10.476.691;1.322.644.975;https://maps.google.com/?cid=0x0:0x673c50df662ce770
perumahan;Perhimpunan Pengembang Perumahan;Kampung sidi;V87C+76, Sire, Distrik Mare, Kabupaten Maybrat, Papua Bar.;Kabupaten Maybrat, Papua Bar.;PAPUA BARAT;;Indonesia;;-11.368.433;1.323.205.283;https://maps.google.com/?cid=0x0:0x25da7782e7796545
housing complex;housing complex;Distrik Aifat;Kabupaten Maybrat, Papua Bar.;Kabupaten Maybrat, Papua Bar.;PAPUA BARAT;;Indonesia;;-12.568.532;1.325.001.338;https://maps.google.com/?cid=0x0:0xcc3d52ba3ddd33de
housing complex;Pembangunan Perumahan;Sonere aifat selatan maybrat;MFPG+PW2, Futon, Distrik Aifat Selatan, Kabupaten Maybrat, Papua Bar. 98463;Futon, Distrik Aifat Selatan, Kabupaten Maybrat;PAPUA BARAT;98463;Indonesia;;-13.132.303;1.324.772.785;https://maps.google.com/?cid=0x0:0xcf993cce8191b59
housing complex;Pembangunan Perumahan;Evaan Aifat Maybrat;QF4G+W7V, Werjaya, Distrik Aifat, Kabupaten Maybrat, Papua Bar. 98463;Werjaya, Distrik Aifat, Kabupaten Maybrat;PAPUA BARAT;98463;Indonesia;;-12.426.304;1.324.756.698;https://maps.google.com/?cid=0x0:0xa3b53493d6599552
housing complex;Komplek perumahan;Sahabur;PF5R+XV, Futon, Distrik Aifat, Kabupaten Maybrat, Papua Bar.;Kabupaten Maybrat, Papua Bar.;PAPUA BARAT;;Indonesia;;-12.900.127;1.324.921.406;https://maps.google.com/?cid=0x0:0x463118003817dc9a
housing complex;Pembangunan Perumahan;Kampung Ainod;PHJ3+42, Eisyo, Distrik Aifat, Kabupaten Maybrat, Papua Bar.;Kabupaten Maybrat, Papua Bar.;PAPUA BARAT;;Indonesia;;-1.269.625;1.325.525.305;https://maps.google.com/?cid=0x0:0x99dd91f91b4adb11
housing complex;Perumahan;Fonatu;RFQ5+VFM, Fonatu, Ayawasi, Distrik Aifat Utara, Kabupaten Maybrat, Papua Bar. 98463;Fonatu, Ayawasi, Distrik Aifat Utara, Kabupaten Maybrat;PAPUA BARAT;98463;Indonesia;;-11.602.976;1.324.586.748;https://maps.google.com/?cid=0x0:0xe1058bdc7f5b6b06
housing complex;Komplek perumahan;KAMPUNG LAMA ,IRAFAN;JCV8+24G, Tehahite, Distrik Aifat, Kabupaten Maybrat, Papua Bar. 98463;Tehahite, Distrik Aifat, Kabupaten Maybrat;PAPUA BARAT;98463;Indonesia;;-13.574.485;1.324.153.262;https://maps.google.com/?cid=0x0:0x861baf0d33512994
housing complex;Pembangunan Perumahan;Proyek Rumah Papua Barat;Q9QR+479, Fonatu, Distrik Aifat Utara, Kabupaten Maybrat, Papua Bar.;Kabupaten Maybrat, Papua Bar.;PAPUA BARAT;;Indonesia;;-12.122.123;1.323.907.207;https://maps.google.com/?cid=0x0:0x32f9d918d28cb15c
housing complex;Komplek perumahan;Tehahite city;JFW7+RMW, Tehahite, Distrik Aifat, Kabupaten Maybrat, Papua Bar.;Kabupaten Maybrat, Papua Bar.;PAPUA BARAT;;Indonesia;;-13.528.854;1.324.642.057;https://maps.google.com/?cid=0x0:0xddee8fd8d828ce9e
housing complex;Perhimpunan Pengembang Perumahan;Nezeth Aifat Utara Kab.Maybrat;RFP6+CWW, Uname Road, Ayawasi, Distrik Aifat Utara, Kabupaten Maybrat, Papua Bar. 98463;Uname Road, Ayawasi, Distrik Aifat Utara, Kabupaten Maybrat;PAPUA BARAT;98463;Indonesia;;-1.163.882;1.324.623.359;https://maps.google.com/?cid=0x0:0x30c27f8005f60ea7
housing complex;Komplek perumahan;Base Camp Ainod;PHJ3+33, Eisyo, Distrik Aifat, Kabupaten Maybrat, Papua Bar.;Kabupaten Maybrat, Papua Bar.;PAPUA BARAT;;Indonesia;;-126.978;132.552.746;https://maps.google.com/?cid=0x0:0xd71e54059008f5d
housing complex;Perhimpunan Pengembang Perumahan;Perempuan AIFAT;RF77+C36, Ayawasi, Distrik Aifat Utara, Kabupaten Maybrat, Papua Bar. 98463;Ayawasi, Distrik Aifat Utara, Kabupaten Maybrat;PAPUA BARAT;98463;Indonesia;;-1.186.464;1.324.626.367;https://maps.google.com/?cid=0x0:0xc3d9c84f81b264c7
housing complex;Komplek perumahan;Distrik Aifat Selatan;HGX4+F72, Sory, Distrik Aifat Selatan, Kabupaten Maybrat, Papua Bar. 98463;Sory, Distrik Aifat Selatan, Kabupaten Maybrat;PAPUA BARAT;98463;Indonesia;;-14.013.521;1.325.056.398;https://maps.google.com/?cid=0x0:0x1486686d3708c90
housing complex;Perumahan;Ayawasi Kompleks Tursah;RF77+C36, Ayawasi, Distrik Aifat Utara, Kabupaten Maybrat, Papua Bar. 98463;Ayawasi, Distrik Aifat Utara, Kabupaten Maybrat;PAPUA BARAT;98463;Indonesia;;-1.186.464;1.324.626.367;https://maps.google.com/?cid=0x0:0x92ad890f805249c2
housing complex;housing complex;Distrik Aifat;Kabupaten Maybrat, Papua Bar.;Kabupaten Maybrat, Papua Bar.;PAPUA BARAT;;Indonesia;;-12.568.532;1.325.001.338;https://maps.google.com/?cid=0x0:0xcc3d52ba3ddd33de
housing complex;housing complex;Papua Bar. 98652;Doom Tim., Distrik Sorong Kepulauan, Kota Sorong, Papua Bar.;Kota Sorong, Papua Bar.;PAPUA BARAT;;Indonesia;;-0.9375383;131.254.499;https://maps.google.com/?cid=0x0:0x5905364cc30efd0e
housing complex;housing complex;Green Lake View Ciputat;Jl. Dewi Sartika No.34, Ciputat, Kec. Ciputat, Kota Tangerang Selatan, Banten 15411;Ciputat, Kec. Ciputat, Kota Tangerang Selatan;PAPUA BARAT;15411;Indonesia;2174712002;-63.175.092;1.067.451.121;https://maps.google.com/?cid=0x0:0x65b551b2b402ef96
housing complex;Layanan Transportasi;Jurang Mangu;Jl. Tegal Rotan Raya, Pd. Jaya, Kec. Ciputat, Kota Tangerang Selatan, Banten 15413;Pd. Jaya, Kec. Ciputat, Kota Tangerang Selatan;PAPUA BARAT;15413;Indonesia;;-62.887.899;1.067.291.221;https://maps.google.com/?cid=0x0:0x439cd2b52dc67b80
housing complex;Kebun Binatang;Taman Margasatwa Ragunan;Jl. Harsono Rm Dalam No.1, Ragunan, Ps. Minggu, Kota Jakarta Selatan, Daerah Khusus Ibukota Jakarta 12550;Ragunan, Ps. Minggu, Kota Jakarta Selatan;PAPUA BARAT;12550;Indonesia;2178847114;-63.059.887;106.820.353;https://maps.google.com/?cid=0x0:0xf9dd2a3f5ab5069a
housing complex;Apartemen Liburan;Apartment The Habitat;Jl. Palem Ratu, Bencongan Indah, Kec. Karawaci, Kabupaten Tangerang, Banten 15810;Bencongan Indah, Kec. Karawaci, Kabupaten Tangerang;PAPUA BARAT;15810;Indonesia;89693258800;-6.223.719;1.066.059.503;https://maps.google.com/?cid=0x0:0x7bb1315e163b52
housing complex;Gedung Apartemen;Apartemen Amazana Serpong Residence;Jl. Jelupang Raya No.75, Jelupang, Kec. Serpong Utara, Kota Tangerang Selatan, Banten 15323;Jelupang, Kec. Serpong Utara, Kota Tangerang Selatan;PAPUA BARAT;15323;Indonesia;;-62.665.127;1.066.717.088;https://maps.google.com/?cid=0x0:0x3399b6470754fe85
housing complex;Apartemen berlayanan;Apartment TreePark City;Jl. MH. Thamrin No.7, Cikokol, Kec. Tangerang, Kota Tangerang, Banten 15117;Cikokol, Kec. Tangerang, Kota Tangerang;PAPUA BARAT;15117;Indonesia;2129542000;-62.141.515;1.066.311.254;https://maps.google.com/?cid=0x0:0x2b39ae47232fe847
housing complex;Hotel bintang 3;Ecohome Apartment;PGWH+M2P, Mekar Bakti, Kec. Panongan, Kabupaten Tangerang, Banten 15710;Mekar Bakti, Kec. Panongan, Kabupaten Tangerang;PAPUA BARAT;15710;Indonesia;215960888;-6.253.082;106.526.385;https://maps.google.com/?cid=0x0:0x63ac8a7eb503c239
housing complex;Agen Penyewaan Apartemen;19 Avenue Apartment;Jl. Daan Mogot No.Km.19, RT.003/RW.002, Kb. Besar, Kec. Batuceper, Kota Tangerang, Banten 15122;RT.003/RW.002, Kb. Besar, Kec. Batuceper, Kota Tangerang;PAPUA BARAT;15122;Indonesia;81351182239;-61.617.952;1.066.808.694;https://maps.google.com/?cid=0x0:0x4a863ce8633f732b
housing complex;housing complex;The Golf Apartment Modernland;Modernland Golf, Jl. Hartono Raya, RT.001/RW.006, Klp. Indah, Kec. Tangerang, Kota Tangerang, Banten 15117;Jl. Hartono Raya, RT.001/RW.006, Klp. Indah, Kec. Tangerang, Kota Tangerang;PAPUA BARAT;15117;Indonesia;82110775673;-61.982.478;1.066.402.867;https://maps.google.com/?cid=0x0:0xaefc5a5f225cd951
housing complex;Museum Seni Modern;Museum Macan (Modern and Contemporary Art in Nusantara);AKR Tower Level M, Jl. Panjang No.5, Kb. Jeruk, Kec. Kb. Jeruk, Kota Jakarta Barat, Daerah Khusus Ibukota Jakarta 11530;Jl. Panjang No.5, Kb. Jeruk, Kec. Kb. Jeruk, Kota Jakarta Barat;PAPUA BARAT;11530;Indonesia;2122121888;-61.910.434;1.067.679.858;https://maps.google.com/?cid=0x0:0xf19623593db3f0f6
housing complex;Perusahaan Kereta Api;Stasiun Tanahtinggi;Jl. Benteng Betawi, Tanah Tinggi, Kec. Tangerang, Kota Tangerang, Banten;Kota Tangerang, Banten;PAPUA BARAT;;Indonesia;;-61.752.338;1.066.464.782;https://maps.google.com/?cid=0x0:0x42a3b51ffb4d8e32
housing complex;Tempat Parkir;Parkiran Tower Hijau Apartment Modern Golf;RJ2R+P3J, RT.001/RW.006, Klp. Indah, Kec. Tangerang, Kota Tangerang, Banten 15117;RT.001/RW.006, Klp. Indah, Kec. Tangerang, Kota Tangerang;PAPUA BARAT;15117;Indonesia;89502437503;-61.981.746;1.066.401.348;https://maps.google.com/?cid=0x0:0xce864aac35c1e5df
housing complex;housing complex;Distrik Aifat Timur;Kabupaten Maybrat, Papua Bar.;Kabupaten Maybrat, Papua Bar.;PAPUA BARAT;;Indonesia;;-13.591.179;13.259.276;https://maps.google.com/?cid=0x0:0x14eac191dd6d8e2e
housing complex;Pembangunan Perumahan;Kp. Mufas;PM36+M94, Aisa, Distrik Aifat Timur, Kabupaten Maybrat, Papua Bar. 98463;Aisa, Distrik Aifat Timur, Kabupaten Maybrat;PAPUA BARAT;98463;Indonesia;;-12.958.969;1.326.610.312;https://maps.google.com/?cid=0x0:0xa1f362045b160b1b
housing complex;Komplek perumahan;Kampung Aimau, Distrik Aifat Timur Jauh;JJM7+FVV, Aimau, Distrik Aifat Timur, Kabupaten Maybrat, Papua Bar.;Kabupaten Maybrat, Papua Bar.;PAPUA BARAT;;Indonesia;;-13.662.571;1.326.146.565;https://maps.google.com/?cid=0x0:0x31662e29a971635
housing complex;Pembangunan Perumahan;Kampung Ainod;PHJ3+42, Eisyo, Distrik Aifat, Kabupaten Maybrat, Papua Bar.;Kabupaten Maybrat, Papua Bar.;PAPUA BARAT;;Indonesia;;-1.269.625;1.325.525.305;https://maps.google.com/?cid=0x0:0x99dd91f91b4adb11
housing complex;Pembangunan Perumahan;Sonere aifat selatan maybrat;MFPG+PW2, Futon, Distrik Aifat Selatan, Kabupaten Maybrat, Papua Bar. 98463;Futon, Distrik Aifat Selatan, Kabupaten Maybrat;PAPUA BARAT;98463;Indonesia;;-13.132.303;1.324.772.785;https://maps.google.com/?cid=0x0:0xcf993cce8191b59
housing complex;Komplek perumahan;Base Camp Ainod;PHJ3+33, Eisyo, Distrik Aifat, Kabupaten Maybrat, Papua Bar.;Kabupaten Maybrat, Papua Bar.;PAPUA BARAT;;Indonesia;;-126.978;132.552.746;https://maps.google.com/?cid=0x0:0xd71e54059008f5d
housing complex;Pembangunan Perumahan;Evaan Aifat Maybrat;QF4G+W7V, Werjaya, Distrik Aifat, Kabupaten Maybrat, Papua Bar. 98463;Werjaya, Distrik Aifat, Kabupaten Maybrat;PAPUA BARAT;98463;Indonesia;;-12.426.304;1.324.756.698;https://maps.google.com/?cid=0x0:0xa3b53493d6599552
housing complex;Komplek perumahan;Rumah dinas sekertaris klasis aifat;Susumuk - Kumurkeh, Tehahite, Distrik Aifat, Kabupaten Maybrat, Papua Bar. 98463;Tehahite, Distrik Aifat, Kabupaten Maybrat;PAPUA BARAT;98463;Indonesia;;-13.380.603;1.324.681.037;https://maps.google.com/?cid=0x0:0xec182619a4dca87e
housing complex;Perumahan;Fonatu;RFQ5+VFM, Fonatu, Ayawasi, Distrik Aifat Utara, Kabupaten Maybrat, Papua Bar. 98463;Fonatu, Ayawasi, Distrik Aifat Utara, Kabupaten Maybrat;PAPUA BARAT;98463;Indonesia;;-11.602.976;1.324.586.748;https://maps.google.com/?cid=0x0:0xe1058bdc7f5b6b06
housing complex;Pembangunan Perumahan;Asiaf Zaman;HHX2+2Q, Fuog, Distrik Aifat Selatan, Kabupaten Maybrat, Papua Bar.;Kabupaten Maybrat, Papua Bar.;PAPUA BARAT;;Indonesia;;-14.024.056;1.325.518.889;https://maps.google.com/?cid=0x0:0x4fac9d95fd14dbc8
housing complex;housing complex;SATGAS PUPU;HHQM+G6P, Fuog, Distrik Aifat Selatan, Kabupaten Maybrat, Papua Bar. 98463;Fuog, Distrik Aifat Selatan, Kabupaten Maybrat;PAPUA BARAT;98463;Indonesia;;-14.101.624;1.325.821.002;https://maps.google.com/?cid=0x0:0xbf8212410d3304c0
housing complex;Perhimpunan Pengembang Perumahan;Nezeth Aifat Utara Kab.Maybrat;RFP6+CWW, Uname Road, Ayawasi, Distrik Aifat Utara, Kabupaten Maybrat, Papua Bar. 98463;Uname Road, Ayawasi, Distrik Aifat Utara, Kabupaten Maybrat;PAPUA BARAT;98463;Indonesia;;-1.163.882;1.324.623.359;https://maps.google.com/?cid=0x0:0x30c27f8005f60ea7
housing complex;Pembangunan Perumahan;FAN KAHRIO;JHVW+99F, Aitrem, Distrik Aifat Timur, Kabupaten Maybrat, Papua Bar. 98463;Aitrem, Distrik Aifat Timur, Kabupaten Maybrat;PAPUA BARAT;98463;Indonesia;;-1.355.984;132.595.129;https://maps.google.com/?cid=0x0:0x9ed4e50ff7ecf47d
housing complex;Perumahan;Ayawasi Kompleks Tursah;RF77+C36, Ayawasi, Distrik Aifat Utara, Kabupaten Maybrat, Papua Bar. 98463;Ayawasi, Distrik Aifat Utara, Kabupaten Maybrat;PAPUA BARAT;98463;Indonesia;;-1.186.464;1.324.626.367;https://maps.google.com/?cid=0x0:0x92ad890f805249c2
housing complex;Pembangunan Perumahan;Kampung Awetmaim;JF7P+XX, Sory, Distrik Aifat Selatan, Kabupaten Maybrat, Papua Bar.;Kabupaten Maybrat, Papua Bar.;PAPUA BARAT;;Indonesia;;-13.850.567;1.324.874.169;https://maps.google.com/?cid=0x0:0xb82ae18b612d0cfa
housing complex;Komplek perumahan;Kampung Aimau, Distrik Aifat Timur Jauh;JJM7+FVV, Aimau, Distrik Aifat Timur, Kabupaten Maybrat, Papua Bar.;Kabupaten Maybrat, Papua Bar.;PAPUA BARAT;;Indonesia;;-13.662.571;1.326.146.565;https://maps.google.com/?cid=0x0:0x31662e29a971635
housing complex;housing complex;Distrik Aifat;Kabupaten Maybrat, Papua Bar.;Kabupaten Maybrat, Papua Bar.;PAPUA BARAT;;Indonesia;;-12.568.532;1.325.001.338;https://maps.google.com/?cid=0x0:0xcc3d52ba3ddd33de
housing complex;Pembangunan Perumahan;Sonere aifat selatan maybrat;MFPG+PW2, Futon, Distrik Aifat Selatan, Kabupaten Maybrat, Papua Bar. 98463;Futon, Distrik Aifat Selatan, Kabupaten Maybrat;PAPUA BARAT;98463;Indonesia;;-13.132.303;1.324.772.785;https://maps.google.com/?cid=0x0:0xcf993cce8191b59
housing complex;housing complex;Distrik Aifat Timur;Kabupaten Maybrat, Papua Bar.;Kabupaten Maybrat, Papua Bar.;PAPUA BARAT;;Indonesia;;-13.591.179;13.259.276;https://maps.google.com/?cid=0x0:0x14eac191dd6d8e2e
housing complex;Pembangunan Perumahan;Asiaf Zaman;HHX2+2Q, Fuog, Distrik Aifat Selatan, Kabupaten Maybrat, Papua Bar.;Kabupaten Maybrat, Papua Bar.;PAPUA BARAT;;Indonesia;;-14.024.056;1.325.518.889;https://maps.google.com/?cid=0x0:0x4fac9d95fd14dbc8
housing complex;Pembangunan Perumahan;Sonere aifat selatan maybrat;MFPG+PW2, Futon, Distrik Aifat Selatan, Kabupaten Maybrat, Papua Bar. 98463;Futon, Distrik Aifat Selatan, Kabupaten Maybrat;PAPUA BARAT;98463;Indonesia;;-13.132.303;1.324.772.785;https://maps.google.com/?cid=0x0:0xcf993cce8191b59
housing complex;Perhimpunan Pengembang Perumahan;Kisor;HGJ3+MWJ, Kisor, Distrik Aifat Selatan, Kabupaten Maybrat, Papua Bar. 98463;Kisor, Distrik Aifat Selatan, Kabupaten Maybrat;PAPUA BARAT;98463;Indonesia;;-14.182.965;1.325.047.702;https://maps.google.com/?cid=0x0:0xa93e1da96957f8cc
housing complex;housing complex;SATGAS PUPU;HHQM+G6P, Fuog, Distrik Aifat Selatan, Kabupaten Maybrat, Papua Bar. 98463;Fuog, Distrik Aifat Selatan, Kabupaten Maybrat;PAPUA BARAT;98463;Indonesia;;-14.101.624;1.325.821.002;https://maps.google.com/?cid=0x0:0xbf8212410d3304c0
housing complex;Pembangunan Perumahan;Kampung Awetmaim;JF7P+XX, Sory, Distrik Aifat Selatan, Kabupaten Maybrat, Papua Bar.;Kabupaten Maybrat, Papua Bar.;PAPUA BARAT;;Indonesia;;-13.850.567;1.324.874.169;https://maps.google.com/?cid=0x0:0xb82ae18b612d0cfa
housing complex;housing complex;Distrik Aifat Timur;Kabupaten Maybrat, Papua Bar.;Kabupaten Maybrat, Papua Bar.;PAPUA BARAT;;Indonesia;;-13.591.179;13.259.276;https://maps.google.com/?cid=0x0:0x14eac191dd6d8e2e
housing complex;housing complex;Distrik Aifat Selatan;Kabupaten Maybrat, Papua Bar.;Kabupaten Maybrat, Papua Bar.;PAPUA BARAT;;Indonesia;;-14.185.595;1.325.043.916;https://maps.google.com/?cid=0x0:0x5390da174ca5ef27
housing complex;Pembangunan Perumahan;Sonere aifat selatan maybrat;MFPG+PW2, Futon, Distrik Aifat Selatan, Kabupaten Maybrat, Papua Bar. 98463;Futon, Distrik Aifat Selatan, Kabupaten Maybrat;PAPUA BARAT;98463;Indonesia;;-13.132.303;1.324.772.785;https://maps.google.com/?cid=0x0:0xcf993cce8191b59
housing complex;Komplek perumahan;Distrik Aifat Selatan;HGX4+F72, Sory, Distrik Aifat Selatan, Kabupaten Maybrat, Papua Bar. 98463;Sory, Distrik Aifat Selatan, Kabupaten Maybrat;PAPUA BARAT;98463;Indonesia;;-14.013.521;1.325.056.398;https://maps.google.com/?cid=0x0:0x1486686d3708c90
housing complex;Komplek perumahan;Kampung Roma;HFXQ+85, Sory, Distrik Aifat Selatan, Kabupaten Maybrat, Papua Bar.;Kabupaten Maybrat, Papua Bar.;PAPUA BARAT;;Indonesia;;-14.015.855;1.324.879.258;https://maps.google.com/?cid=0x0:0xf8250ee9b36a04d8
housing complex;Perhimpunan Pengembang Perumahan;Kisor;HGJ3+MWJ, Kisor, Distrik Aifat Selatan, Kabupaten Maybrat, Papua Bar. 98463;Kisor, Distrik Aifat Selatan, Kabupaten Maybrat;PAPUA BARAT;98463;Indonesia;;-14.182.965;1.325.047.702;https://maps.google.com/?cid=0x0:0xa93e1da96957f8cc
housing complex;Komplek perumahan;KAMPUNG LAMA ,IRAFAN;JCV8+24G, Tehahite, Distrik Aifat, Kabupaten Maybrat, Papua Bar. 98463;Tehahite, Distrik Aifat, Kabupaten Maybrat;PAPUA BARAT;98463;Indonesia;;-13.574.485;1.324.153.262;https://maps.google.com/?cid=0x0:0x861baf0d33512994
housing complex;Komplek perumahan;Rumah dinas sekertaris klasis aifat;Susumuk - Kumurkeh, Tehahite, Distrik Aifat, Kabupaten Maybrat, Papua Bar. 98463;Tehahite, Distrik Aifat, Kabupaten Maybrat;PAPUA BARAT;98463;Indonesia;;-13.380.603;1.324.681.037;https://maps.google.com/?cid=0x0:0xec182619a4dca87e
housing complex;Komplek perumahan;Kampung Kaitana;HFX9+XF, Sory, Distrik Aifat Selatan, Kabupaten Maybrat, Papua Bar.;Kabupaten Maybrat, Papua Bar.;PAPUA BARAT;;Indonesia;;-14.001.011;1.324.686.716;https://maps.google.com/?cid=0x0:0x5642d1771f02a32
housing complex;Pembangunan Perumahan;Kampung Awetmaim;JF7P+XX, Sory, Distrik Aifat Selatan, Kabupaten Maybrat, Papua Bar.;Kabupaten Maybrat, Papua Bar.;PAPUA BARAT;;Indonesia;;-13.850.567;1.324.874.169;https://maps.google.com/?cid=0x0:0xb82ae18b612d0cfa
housing complex;Komplek perumahan;Tehahite city;JFW7+RMW, Tehahite, Distrik Aifat, Kabupaten Maybrat, Papua Bar.;Kabupaten Maybrat, Papua Bar.;PAPUA BARAT;;Indonesia;;-13.528.854;1.324.642.057;https://maps.google.com/?cid=0x0:0xddee8fd8d828ce9e
housing complex;Pembangunan Perumahan;Evaan Aifat Maybrat;QF4G+W7V, Werjaya, Distrik Aifat, Kabupaten Maybrat, Papua Bar. 98463;Werjaya, Distrik Aifat, Kabupaten Maybrat;PAPUA BARAT;98463;Indonesia;;-12.426.304;1.324.756.698;https://maps.google.com/?cid=0x0:0xa3b53493d6599552
housing complex;Pembangunan Perumahan;Asiaf Zaman;HHX2+2Q, Fuog, Distrik Aifat Selatan, Kabupaten Maybrat, Papua Bar.;Kabupaten Maybrat, Papua Bar.;PAPUA BARAT;;Indonesia;;-14.024.056;1.325.518.889;https://maps.google.com/?cid=0x0:0x4fac9d95fd14dbc8
housing complex;Pembangunan Perumahan;KAMPUNG SAMERAKATOR;JHQV+VPP, KOMPLEX FATEM ISYORANA, TAHSIMARA, Aitrem, Distrik Aifat Timur, Kabupaten Maybrat, Papua Bar. 98463;KOMPLEX FATEM ISYORANA, TAHSIMARA, Aitrem, Distrik Aifat Timur, Kabupaten Maybrat;PAPUA BARAT;98463;Indonesia;;-13.602.867;1.325.943.283;https://maps.google.com/?cid=0x0:0xceea199ce0dab7e
housing complex;Pembangunan Perumahan;Kantor Kampung Afkrem_Aitinyo_Maybrat;H9CV+33, Tehak Kecil, Distrik Aitinyo, Kabupaten Maybrat, Papua Bar. 98463;Tehak Kecil, Distrik Aitinyo, Kabupaten Maybrat;PAPUA BARAT;98463;Indonesia;;-14.297.704;1.323.927.373;https://maps.google.com/?cid=0x0:0xf1b94fdb1d2cb3ce
housing complex;housing complex;Distrik Aifat Utara;Kabupaten Maybrat, Papua Bar.;Kabupaten Maybrat, Papua Bar.;PAPUA BARAT;;Indonesia;;-11.588.544;1.324.643.784;https://maps.google.com/?cid=0x0:0x7ec0d9546b1ece9c
housing complex;Perumahan;Fonatu;RFQ5+VFM, Fonatu, Ayawasi, Distrik Aifat Utara, Kabupaten Maybrat, Papua Bar. 98463;Fonatu, Ayawasi, Distrik Aifat Utara, Kabupaten Maybrat;PAPUA BARAT;98463;Indonesia;;-11.602.976;1.324.586.748;https://maps.google.com/?cid=0x0:0xe1058bdc7f5b6b06
housing complex;Pembangunan Perumahan;Evaan Aifat Maybrat;QF4G+W7V, Werjaya, Distrik Aifat, Kabupaten Maybrat, Papua Bar. 98463;Werjaya, Distrik Aifat, Kabupaten Maybrat;PAPUA BARAT;98463;Indonesia;;-12.426.304;1.324.756.698;https://maps.google.com/?cid=0x0:0xa3b53493d6599552
housing complex;housing complex;Mosun, aifat utara;VC43+5F3, Mosun, Distrik Aifat Utara, Kabupaten Maybrat, Papua Bar. 98463;Mosun, Distrik Aifat Utara, Kabupaten Maybrat;PAPUA BARAT;98463;Indonesia;;-11.446.075;1.324.036.715;https://maps.google.com/?cid=0x0:0x320fbd5854cca3a4
housing complex;Pembangunan Perumahan;Proyek Rumah Papua Barat;Q9QR+479, Fonatu, Distrik Aifat Utara, Kabupaten Maybrat, Papua Bar.;Kabupaten Maybrat, Papua Bar.;PAPUA BARAT;;Indonesia;;-12.122.123;1.323.907.207;https://maps.google.com/?cid=0x0:0x32f9d918d28cb15c
housing complex;Perumahan;Ayawasi Kompleks Tursah;RF77+C36, Ayawasi, Distrik Aifat Utara, Kabupaten Maybrat, Papua Bar. 98463;Ayawasi, Distrik Aifat Utara, Kabupaten Maybrat;PAPUA BARAT;98463;Indonesia;;-1.186.464;1.324.626.367;https://maps.google.com/?cid=0x0:0x92ad890f805249c2
housing complex;Perhimpunan Pengembang Perumahan;Perempuan AIFAT;RF77+C36, Ayawasi, Distrik Aifat Utara, Kabupaten Maybrat, Papua Bar. 98463;Ayawasi, Distrik Aifat Utara, Kabupaten Maybrat;PAPUA BARAT;98463;Indonesia;;-1.186.464;1.324.626.367;https://maps.google.com/?cid=0x0:0xc3d9c84f81b264c7
housing complex;Perhimpunan Pengembang Perumahan;KAMPUNG FAITSAWE;RC63+XF7, Fonatu, Distrik Aifat Utara, Kabupaten Maybrat, Papua Bar. 98463;Fonatu, Distrik Aifat Utara, Kabupaten Maybrat;PAPUA BARAT;98463;Indonesia;;-11.875.804;1.324.036.715;https://maps.google.com/?cid=0x0:0x4d7be2adb0b3ecec
housing complex;Perhimpunan Pengembang Perumahan;Negara kopa, aifat Utara, kab maybart;QCXF+8M, Fonatu, Distrik Aifat Utara, Kabupaten Maybrat, Papua Bar.;Kabupaten Maybrat, Papua Bar.;PAPUA BARAT;;Indonesia;;-12.016.787;1.324.241.718;https://maps.google.com/?cid=0x0:0xeb33504d1e3a9cbe
housing complex;Komplek perumahan;Kabupaten maybrat;VC9M+C2, Mosun, Distrik Aifat Utara, Kabupaten Maybrat, Papua Bar.;Kabupaten Maybrat, Papua Bar.;PAPUA BARAT;;Indonesia;82197298713;-11.313.882;132.432.613;https://maps.google.com/?cid=0x0:0x29896164addecb1c
housing complex;Perhimpunan Pengembang Perumahan;Kampung Neset, Aifat Utara, Kabupaten Maybrat;RFP6+9XG, Uname Road, Ayawasi, Distrik Aifat Utara, Kabupaten Maybrat, Papua Bar. 98463;Uname Road, Ayawasi, Distrik Aifat Utara, Kabupaten Maybrat;PAPUA BARAT;98463;Indonesia;;-11.640.663;1.324.624.589;https://maps.google.com/?cid=0x0:0xfe3e6a3b1dacf0d5
housing complex;Perumahan;Ayawasi Kompleks Tursah;RFR6+JF9, Fonatu, Distrik Aifat Utara, Kabupaten Maybrat, Papua Bar. 98463;Fonatu, Distrik Aifat Utara, Kabupaten Maybrat;PAPUA BARAT;98463;Indonesia;;-11.584.617;1.324.612.312;https://maps.google.com/?cid=0x0:0xfea731c520a2eef5
housing complex;Perumahan;DESA/KAMP. FANBERS;RFM7+2P2, Ayawasi, Distrik Aifat Utara, Kabupaten Maybrat, Papua Bar. 98463;Ayawasi, Distrik Aifat Utara, Kabupaten Maybrat;PAPUA BARAT;98463;Indonesia;;-11.674.881;1.324.642.584;https://maps.google.com/?cid=0x0:0xb634853de76f00b2
housing complex;Pembangunan Perumahan;Ayawasi Srimokor;RFR5+QQC, jalan Frateo, Ayawasi, Fonatu, Distrik Aifat Utara, Kabupaten Maybrat, Papua Bar. 98463;jalan Frateo, Ayawasi, Fonatu, Distrik Aifat Utara, Kabupaten Maybrat;PAPUA BARAT;98463;Indonesia;;-11.579.039;1.324.598.522;https://maps.google.com/?cid=0x0:0x6f9d7ce4ef195052
housing complex;Pembangunan Perumahan;ISARA, DISTRIK AITINYO BARAT;J842+5HJ, Awit, Distrik Aitinyo, Kabupaten Maybrat, Papua Bar.;Kabupaten Maybrat, Papua Bar.;PAPUA BARAT;;Indonesia;;-13.945.476;1.323.013.775;https://maps.google.com/?cid=0x0:0xff7555878e704c94
housing complex;housing complex;Distrik Aitinyo;Kabupaten Maybrat, Papua Bar.;Kabupaten Maybrat, Papua Bar.;PAPUA BARAT;;Indonesia;;-14.413.734;1.323.839.209;https://maps.google.com/?cid=0x0:0xd008081240dea68f
housing complex;Pembangunan Perumahan;Kampung itigah;G9X9+HMH, Aitinyo, Distrik Aitinyo, Kabupaten Maybrat, Papua Bar. 98463;Aitinyo, Distrik Aitinyo, Kabupaten Maybrat;PAPUA BARAT;98463;Indonesia;;-14.510.669;1.323.692.445;https://maps.google.com/?cid=0x0:0xfa03fc0569c447f8
housing complex;Komplek perumahan;Aitinyo;H94W+3J, Karsu, Distrik Aitinyo, Kabupaten Maybrat, Papua Bar.;Kabupaten Maybrat, Papua Bar.;PAPUA BARAT;;Indonesia;;-14.450.374;1.323.965.869;https://maps.google.com/?cid=0x0:0x774516f1830040c9
housing complex;Pembangunan Perumahan;Ama bomel home;G8XV+GQ, Erok Wero, Distrik Aitinyo, Kabupaten Maybrat, Papua Bar.;Kabupaten Maybrat, Papua Bar.;PAPUA BARAT;;Indonesia;;-14.512.454;1.323.444.501;https://maps.google.com/?cid=0x0:0x45cc3c0f18aa68e4
housing complex;Pembangunan Perumahan;Sris;HC76+3J, Sris, Distrik Aitinyo, Kabupaten Maybrat, Papua Bar.;Kabupaten Maybrat, Papua Bar.;PAPUA BARAT;;Indonesia;;-14.373.125;1.324.115.625;https://maps.google.com/?cid=0x0:0xf1c16c0f6fa9b605
housing complex;Pembangunan Perumahan;Kantor Kampung Afkrem_Aitinyo_Maybrat;H9CV+33, Tehak Kecil, Distrik Aitinyo, Kabupaten Maybrat, Papua Bar. 98463;Tehak Kecil, Distrik Aitinyo, Kabupaten Maybrat;PAPUA BARAT;98463;Indonesia;;-14.297.704;1.323.927.373;https://maps.google.com/?cid=0x0:0xf1b94fdb1d2cb3ce
housing complex;housing complex;Aldo pu rumah;HCF4+8F2, Korom, Distrik Aitinyo, Kabupaten Maybrat, Papua Bar. 98463;Korom, Distrik Aitinyo, Kabupaten Maybrat;PAPUA BARAT;98463;Indonesia;;-1.426.737;1.324.061.297;https://maps.google.com/?cid=0x0:0x9dd07aceda54c225
housing complex;Balai masyarakat;Kampung ASNAIF;H94J+2WM, kampung Asnaif, Tengah, Distrik Aitinyo, Kabupaten Maybrat;Kabupaten Maybrat, Papua Bar.;PAPUA BARAT;;Indonesia;;-14.449.049;1.323.823.006;https://maps.google.com/?cid=0x0:0x67519d2db5bcefc8
housing complex;Komplek perumahan;Kampung Bofait;H95M+FH3, Eroh He, Distrik Aitinyo, Kabupaten Maybrat, Papua Bar.;Kabupaten Maybrat, Papua Bar.;PAPUA BARAT;;Indonesia;;-14.413.734;1.323.839.209;https://maps.google.com/?cid=0x0:0x2c91e9ea065fdf3c
housing complex;Komplek perumahan;Remteng??;J7CH+97J, Kambufatem, Aitinyo Barat/Athabu, Kabupaten Maybrat, Papua Bar. 98462;Kambufatem, Aitinyo Barat/Athabu, Kabupaten Maybrat;PAPUA BARAT;98462;Indonesia;;-1.379.031;1.322.781.503;https://maps.google.com/?cid=0x0:0x3d4ad31be400ea21
housing complex;Pembangunan Perumahan;Kampung Ibasuf_Aitinyo_Maybrat;H9GG+FW, Sira Aya, Distrik Aitinyo, Kabupaten Maybrat, Papua Bar. 98463;Sira Aya, Distrik Aitinyo, Kabupaten Maybrat;PAPUA BARAT;98463;Indonesia;;-14.238.419;1.323.768.914;https://maps.google.com/?cid=0x0:0x6cbb36323c513dad
housing complex;housing complex;lorong PUGEL;F8HV+RVC, Kamro, Distrik Aitinyo, Kabupaten Maybrat, Papua Bar.;Kabupaten Maybrat, Papua Bar.;PAPUA BARAT;;Indonesia;;-15.204.287;1.323.446.399;https://maps.google.com/?cid=0x0:0x663717b6a7307b5b
housing complex;Perhimpunan Pengembang Perumahan;Kampung kamro;F8HV+RVC, Kamro, Distrik Aitinyo, Kabupaten Maybrat, Papua Bar.;Kabupaten Maybrat, Papua Bar.;PAPUA BARAT;;Indonesia;;-15.204.287;1.323.446.399;https://maps.google.com/?cid=0x0:0x19021fd6bd128058
housing complex;housing complex;Distrik Aitinyo;Kabupaten Maybrat, Papua Bar.;Kabupaten Maybrat, Papua Bar.;PAPUA BARAT;;Indonesia;;-14.413.734;1.323.839.209;https://maps.google.com/?cid=0x0:0xd008081240dea68f
housing complex;Pembangunan Perumahan;ISARA, DISTRIK AITINYO BARAT;J842+5HJ, Awit, Distrik Aitinyo, Kabupaten Maybrat, Papua Bar.;Kabupaten Maybrat, Papua Bar.;PAPUA BARAT;;Indonesia;;-13.945.476;1.323.013.775;https://maps.google.com/?cid=0x0:0xff7555878e704c94
housing complex;Pembangunan Perumahan;RumahnyaAis;H98V+GR4, Korom, Distrik Aitinyo, Kabupaten Maybrat, Papua Bar. 98463;Korom, Distrik Aitinyo, Kabupaten Maybrat;PAPUA BARAT;98463;Indonesia;;-14.349.002;1.323.943.858;https://maps.google.com/?cid=0x0:0x27d8afc1413a7711
housing complex;Pembangunan Perumahan;Kampung itigah;G9X9+HMH, Aitinyo, Distrik Aitinyo, Kabupaten Maybrat, Papua Bar. 98463;Aitinyo, Distrik Aitinyo, Kabupaten Maybrat;PAPUA BARAT;98463;Indonesia;;-14.510.669;1.323.692.445;https://maps.google.com/?cid=0x0:0xfa03fc0569c447f8
housing complex;Pembangunan Perumahan;Sris;HC76+3J, Sris, Distrik Aitinyo, Kabupaten Maybrat, Papua Bar.;Kabupaten Maybrat, Papua Bar.;PAPUA BARAT;;Indonesia;;-14.373.125;1.324.115.625;https://maps.google.com/?cid=0x0:0xf1c16c0f6fa9b605
housing complex;Pembangunan Perumahan;Ama bomel home;G8XV+GQ, Erok Wero, Distrik Aitinyo, Kabupaten Maybrat, Papua Bar.;Kabupaten Maybrat, Papua Bar.;PAPUA BARAT;;Indonesia;;-14.512.454;1.323.444.501;https://maps.google.com/?cid=0x0:0x45cc3c0f18aa68e4
housing complex;Komplek perumahan;Remteng??;J7CH+97J, Kambufatem, Aitinyo Barat/Athabu, Kabupaten Maybrat, Papua Bar. 98462;Kambufatem, Aitinyo Barat/Athabu, Kabupaten Maybrat;PAPUA BARAT;98462;Indonesia;;-1.379.031;1.322.781.503;https://maps.google.com/?cid=0x0:0x3d4ad31be400ea21
housing complex;housing complex;Aldo pu rumah;HCF4+8F2, Korom, Distrik Aitinyo, Kabupaten Maybrat, Papua Bar. 98463;Korom, Distrik Aitinyo, Kabupaten Maybrat;PAPUA BARAT;98463;Indonesia;;-1.426.737;1.324.061.297;https://maps.google.com/?cid=0x0:0x9dd07aceda54c225
housing complex;Komplek perumahan;Kampung Bofait;H95M+FH3, Eroh He, Distrik Aitinyo, Kabupaten Maybrat, Papua Bar.;Kabupaten Maybrat, Papua Bar.;PAPUA BARAT;;Indonesia;;-14.413.734;1.323.839.209;https://maps.google.com/?cid=0x0:0x2c91e9ea065fdf3c
housing complex;housing complex;lorong PUGEL;F8HV+RVC, Kamro, Distrik Aitinyo, Kabupaten Maybrat, Papua Bar.;Kabupaten Maybrat, Papua Bar.;PAPUA BARAT;;Indonesia;;-15.204.287;1.323.446.399;https://maps.google.com/?cid=0x0:0x663717b6a7307b5b
housing complex;Balai masyarakat;Kampung ASNAIF;H94J+2WM, kampung Asnaif, Tengah, Distrik Aitinyo, Kabupaten Maybrat;Kabupaten Maybrat, Papua Bar.;PAPUA BARAT;;Indonesia;;-14.449.049;1.323.823.006;https://maps.google.com/?cid=0x0:0x67519d2db5bcefc8
housing complex;Pembangunan Perumahan;Kantor Kampung Afkrem_Aitinyo_Maybrat;H9CV+33, Tehak Kecil, Distrik Aitinyo, Kabupaten Maybrat, Papua Bar. 98463;Tehak Kecil, Distrik Aitinyo, Kabupaten Maybrat;PAPUA BARAT;98463;Indonesia;;-14.297.704;1.323.927.373;https://maps.google.com/?cid=0x0:0xf1b94fdb1d2cb3ce
housing complex;Pembangunan Perumahan;Kampung Ibasuf_Aitinyo_Maybrat;H9GG+FW, Sira Aya, Distrik Aitinyo, Kabupaten Maybrat, Papua Bar. 98463;Sira Aya, Distrik Aitinyo, Kabupaten Maybrat;PAPUA BARAT;98463;Indonesia;;-14.238.419;1.323.768.914;https://maps.google.com/?cid=0x0:0x6cbb36323c513dad
housing complex;housing complex;Distrik Aitinyo;Kabupaten Maybrat, Papua Bar.;Kabupaten Maybrat, Papua Bar.;PAPUA BARAT;;Indonesia;;-14.413.734;1.323.839.209;https://maps.google.com/?cid=0x0:0xd008081240dea68f
housing complex;Komplek perumahan;Aitinyo;H94W+3J, Karsu, Distrik Aitinyo, Kabupaten Maybrat, Papua Bar.;Kabupaten Maybrat, Papua Bar.;PAPUA BARAT;;Indonesia;;-14.450.374;1.323.965.869;https://maps.google.com/?cid=0x0:0x774516f1830040c9
housing complex;Komplek perumahan;Waybomatah;H7WQ+5C6, Unnamed Road, Fatase, Aitinyo Barat/Athabu, Kabupaten Maybrat, Papua Bar. 98462;Unnamed Road, Fatase, Aitinyo Barat/Athabu, Kabupaten Maybrat;PAPUA BARAT;98462;Indonesia;;-140.458;13.228.852;https://maps.google.com/?cid=0x0:0x5332e8b6457072ca
housing complex;Toko Perbaikan Ponsel;Aitinyo;H99Q+V7G, Korom, Distrik Aitinyo, Kabupaten Maybrat, Papua Bar. 98463;Korom, Distrik Aitinyo, Kabupaten Maybrat;PAPUA BARAT;98463;Indonesia;;-1.430.311;1.323.881.946;https://maps.google.com/?cid=0x0:0x1e35afd58f2401c9
housing complex;housing complex;Papua Bar. 98462;Papua Bar.;Papua Bar.;PAPUA BARAT;;Indonesia;;-14.423.648;1.322.756.861;https://maps.google.com/?cid=0x0:0x4de937084a2898d9
housing complex;housing complex;Distrik Aitinyo;Kabupaten Maybrat, Papua Bar.;Kabupaten Maybrat, Papua Bar.;PAPUA BARAT;;Indonesia;;-14.413.734;1.323.839.209;https://maps.google.com/?cid=0x0:0xd008081240dea68f
housing complex;Pembangunan Perumahan;Kampung itigah;G9X9+HMH, Aitinyo, Distrik Aitinyo, Kabupaten Maybrat, Papua Bar. 98463;Aitinyo, Distrik Aitinyo, Kabupaten Maybrat;PAPUA BARAT;98463;Indonesia;;-14.510.669;1.323.692.445;https://maps.google.com/?cid=0x0:0xfa03fc0569c447f8
housing complex;Komplek perumahan;Aitinyo;H94W+3J, Karsu, Distrik Aitinyo, Kabupaten Maybrat, Papua Bar.;Kabupaten Maybrat, Papua Bar.;PAPUA BARAT;;Indonesia;;-14.450.374;1.323.965.869;https://maps.google.com/?cid=0x0:0x774516f1830040c9
housing complex;Kelompok Bermain;Itigah;F8F6+47H, Unnamed Road, Kamro, Aitinyo Barat/Athabu, Kabupaten Maybrat, Papua Bar. 98462;Unnamed Road, Kamro, Aitinyo Barat/Athabu, Kabupaten Maybrat;PAPUA BARAT;98462;Indonesia;;-15.272;13.231.073;https://maps.google.com/?cid=0x0:0x1f6b3a8db2debe0
housing complex;Toko Perbaikan Ponsel;Aitinyo;H99Q+V7G, Korom, Distrik Aitinyo, Kabupaten Maybrat, Papua Bar. 98463;Korom, Distrik Aitinyo, Kabupaten Maybrat;PAPUA BARAT;98463;Indonesia;;-1.430.311;1.323.881.946;https://maps.google.com/?cid=0x0:0x1e35afd58f2401c9
housing complex;housing complex;Kec. Aitinyo Utara;Kabupaten Maybrat, Papua Bar.;Kabupaten Maybrat, Papua Bar.;PAPUA BARAT;;Indonesia;;-13.033.463;1.323.116.515;https://maps.google.com/?cid=0x0:0x7e6239eb7f264d46
housing complex;Komplek perumahan;Kampung faithowes, kab.maybrat;M8GH+XP, Jitmau Tim., Kec. Aitinyo Utara, Kabupaten Maybrat, Papua Bar. 98462;Jitmau Tim., Kec. Aitinyo Utara, Kabupaten Maybrat;PAPUA BARAT;98462;Indonesia;;-13.225.415;1.323.293.429;https://maps.google.com/?cid=0x0:0x98a85cb3b47615dc
housing complex;Komplek perumahan;Negara Texas Hutim;M8WV+GVC, Jitmau Tim., Kec. Aitinyo Utara, Kabupaten Maybrat, Papua Bar. 98462;Jitmau Tim., Kec. Aitinyo Utara, Kabupaten Maybrat;PAPUA BARAT;98462;Indonesia;82393520838;-13.036.884;1.323.446.399;https://maps.google.com/?cid=0x0:0x281de7c48acedcc
housing complex;Komplek perumahan;KAMPUNG SUBRIET;M86X+968, Faan, Kec. Aitinyo Utara, Kabupaten Maybrat, Papua Bar.;Kabupaten Maybrat, Papua Bar.;PAPUA BARAT;;Indonesia;;-13.390.839;1.323.480.637;https://maps.google.com/?cid=0x0:0x73819e833c829f95
housing complex;Klub Olahraga;HANTU SPORT.FC.MAYBRAT;P74G+XFG, Faitmajin, Kec. Ayamaru Tim., Kabupaten Maybrat, Papua Bar. 98462;Faitmajin, Kec. Ayamaru Tim., Kabupaten Maybrat;PAPUA BARAT;98462;Indonesia;;-12.925.609;132.276.187;https://maps.google.com/?cid=0x0:0xe705bf1c5da41e76
housing complex;Komplek perumahan;Asmuruf Tee;M956+7WQ, Fategomi, Kec. Aitinyo Utara, Kabupaten Maybrat, Papua Bar.;Kabupaten Maybrat, Papua Bar.;PAPUA BARAT;;Indonesia;;-13.417.808;1.323.623.572;https://maps.google.com/?cid=0x0:0x4ce44bff664cf49e
housing complex;Kompleks Apartemen;Kampung Asmuruf 'U';M966+54Q, Asmuruf 'u', Kec. Aitinyo Utara, Kabupaten Maybrat, Papua Bar.;Kabupaten Maybrat, Papua Bar.;PAPUA BARAT;;Indonesia;;-13.395.451;132.360.359;https://maps.google.com/?cid=0x0:0xd544f501449d47fe
housing complex;Perhimpunan Pengembang Perumahan;Kampung Gohsames;M9MQ+J4F, Gohsames, Kec. Aitinyo Utara, Kabupaten Maybrat, Papua Bar.;Kabupaten Maybrat, Papua Bar.;PAPUA BARAT;;Indonesia;;-13.159.478;1.323.878.017;https://maps.google.com/?cid=0x0:0xffcf6a8bdebe6019
housing complex;Pembangunan Perumahan;Kampung Sabun;P838+529, Jitmau, Kec. Aitinyo Utara, Kabupaten Maybrat, Papua Bar.;Kabupaten Maybrat, Papua Bar.;PAPUA BARAT;;Indonesia;;-12.970.979;1.323.150.993;https://maps.google.com/?cid=0x0:0x55d8d6fc2b603af6
housing complex;Komplek perumahan;Isusu (Kamboja);M7F8+MR, Kambuskato, Ayamaru Tim. Sel., Kabupaten Maybrat, Papua Bar. 98462;Kambuskato, Ayamaru Tim. Sel., Kabupaten Maybrat;PAPUA BARAT;98462;Indonesia;;-1.325.409;132.267.902;https://maps.google.com/?cid=0x0:0x5104def9852ba885
housing complex;;Kampung Persiapan Wekayu;M92H+3JP, Mirafan, Kec. Aitinyo Utara, Kabupaten Maybrat, Papua Bar.;Kabupaten Maybrat, Papua Bar.;PAPUA BARAT;;Indonesia;;-13.497.839;132.379.083;https://maps.google.com/?cid=0x0:0x2a95dfd937afa96f
housing complex;Toko Perlengkapan Rumah;North IKUF;P842+JRQ, Jl. Kambretu, Ikuf, utara, Kabupaten Maybrat, Papua Bar. 98462;Jl. Kambretu, Ikuf, utara, Kabupaten Maybrat;PAPUA BARAT;98462;Indonesia;;-1.293.418;1.323.021.011;https://maps.google.com/?cid=0x0:0x99a5465bf564c8d5
housing complex;Komplek perumahan;Remteng??;J7CH+97J, Kambufatem, Aitinyo Barat/Athabu, Kabupaten Maybrat, Papua Bar. 98462;Kambufatem, Aitinyo Barat/Athabu, Kabupaten Maybrat;PAPUA BARAT;98462;Indonesia;;-1.379.031;1.322.781.503;https://maps.google.com/?cid=0x0:0x3d4ad31be400ea21
housing complex;Pembangunan Perumahan;Kampung Sarimo (Dusun Sabah);P86M+96, Jitmau Tim., Kec. Aitinyo Utara, Kabupaten Maybrat, Papua Bar.;Kabupaten Maybrat, Papua Bar.;PAPUA BARAT;;Indonesia;81343430651;-12.891.215;1.323.330.186;https://maps.google.com/?cid=0x0:0x26bf1e85db4303a
housing complex;Komplek perumahan;Rumah Kotawi Ayamaru;P5GW+279, Ayamaru, Kec. Ayamaru, Kabupaten Maybrat, Papua Bar.;Kabupaten Maybrat, Papua Bar.;PAPUA BARAT;;Indonesia;;-12.749.516;1.321.957.347;https://maps.google.com/?cid=0x0:0xff398e9cf16948fa
housing complex;housing complex;Kec. Ayamaru;Kabupaten Maybrat, Papua Bar.;Kabupaten Maybrat, Papua Bar.;PAPUA BARAT;;Indonesia;;-12.754.068;1.321.954.691;https://maps.google.com/?cid=0x0:0x4d8a88af2189602c
housing complex;housing complex;Huberbari Hoom Stay;P5M6+GC, Chaliat, Kec. Ayamaru, Kabupaten Maybrat, Papua Bar.;Kabupaten Maybrat, Papua Bar.;PAPUA BARAT;;Indonesia;81292849139;-126.616;132.161.002;https://maps.google.com/?cid=0x0:0x324cf1c3d1e42af6
housing complex;housing complex;Kampung Oraindistrik ayamaru jaya;Q58P+WV, Framu, Ayamaru Jaya, Maybrat Regency, West Papua;Kabupaten Maybrat, Papua Bar.;PAPUA BARAT;;Indonesia;;-12.332.566;1.321.864.707;https://maps.google.com/?cid=0x0:0x6604ccf5798d1ac6
housing complex;housing complex;Huberbari Hoom Stay;P5FW+R58, Ayamaru, Kec. Ayamaru, Kabupaten Maybrat, Papua Bar.;Kabupaten Maybrat, Papua Bar.;PAPUA BARAT;;Indonesia;;-12.754.653;1.321.954.432;https://maps.google.com/?cid=0x0:0x4d80c835629336a0
housing complex;Komplek perumahan;MABEZS ASEGI;Q58Q+2GW, Segior, North Ayamaru, Maybrat Regency, West Papua 98461;Segior, North Ayamaru, Maybrat Regency;PAPUA BARAT;98461;Indonesia;;-12.351.719;132.189.348;https://maps.google.com/?cid=0x0:0x3d057bb72b45da20
housing complex;housing complex;Kampung orain;Q58P+HHR, Framu, Ayamaru, Maybrat Regency, West Papua 98461;Framu, Ayamaru, Maybrat Regency;PAPUA BARAT;98461;Indonesia;;-12.335.217;1.321.863.996;https://maps.google.com/?cid=0x0:0x1876e2390348ab5e
housing complex;Komplek perumahan;@ B O X;P5CX+V77, Ayamaru, Distrik Ayamaru Jaya, Kabupaten Maybrat, Papua Bar. 98462;Ayamaru, Distrik Ayamaru Jaya, Kabupaten Maybrat;PAPUA BARAT;98462;Indonesia;;-12.778.375;1.321.981.719;https://maps.google.com/?cid=0x0:0xe61a6b296c559447
housing complex;Komplek perumahan;Rumah Kalten;P5FW+5W9, Ayamaru, Kec. Ayamaru, Kabupaten Maybrat, Papua Bar. 98461;Ayamaru, Kec. Ayamaru, Kabupaten Maybrat;PAPUA BARAT;98461;Indonesia;;-1.276.952;1.321.969.005;https://maps.google.com/?cid=0x0:0x3208103863302b07
housing complex;housing complex;Svacho Cityy;P5FW+R58, Ayamaru, Kec. Ayamaru, Kabupaten Maybrat, Papua Bar.;Kabupaten Maybrat, Papua Bar.;PAPUA BARAT;;Indonesia;;-12.754.653;1.321.954.432;https://maps.google.com/?cid=0x0:0x89372dd7c27d7f5c
housing complex;Komplek perumahan;KAMPUNG RINDU;P6JH+5FF, Fiane, Kec. Ayamaru, Kabupaten Maybrat, Papua Bar. 98462;Fiane, Kec. Ayamaru, Kabupaten Maybrat;PAPUA BARAT;98462;Indonesia;;-12.695.677;1.322.286.649;https://maps.google.com/?cid=0x0:0xeaffa53d9cb5885c
housing complex;Komplek perumahan;Frasiwa _Iskah;P668+JWJ, Kartapura, Distrik Ayamaru Tengah, Kabupaten Maybrat, Papua Bar.;Kabupaten Maybrat, Papua Bar.;PAPUA BARAT;;Indonesia;;-12.884.148;1.322.172.648;https://maps.google.com/?cid=0x0:0x8ce1755f33984def
housing complex;housing complex;Kampung kanisabar;M4RX+MJG, Sauf, Kec. Ayamaru, Kabupaten Maybrat, Papua Bar. 98461;Sauf, Kec. Ayamaru, Kabupaten Maybrat;PAPUA BARAT;98461;Indonesia;;-13.083.132;1.321.490.693;https://maps.google.com/?cid=0x0:0xe4a5d8b407df05e
housing complex;Komplek perumahan;Soroan Compound;P4C5+44H compound La Purisima Nabua Camarines Sur, Soroan, Ayamaru, Maybrat Regency, West Papua 98461;Soroan, Ayamaru, Maybrat Regency;PAPUA BARAT;98461;Indonesia;;-12.796.904;1.321.078.523;https://maps.google.com/?cid=0x0:0x855f0f98413229bc
housing complex;housing complex;Kec. Ayamaru;Kabupaten Maybrat, Papua Bar.;Kabupaten Maybrat, Papua Bar.;PAPUA BARAT;;Indonesia;;-12.754.068;1.321.954.691;https://maps.google.com/?cid=0x0:0x4d8a88af2189602c
housing complex;Komplek perumahan;Rumah Kotawi Ayamaru;P5GW+279, Ayamaru, Kec. Ayamaru, Kabupaten Maybrat, Papua Bar.;Kabupaten Maybrat, Papua Bar.;PAPUA BARAT;;Indonesia;;-12.749.516;1.321.957.347;https://maps.google.com/?cid=0x0:0xff398e9cf16948fa
housing complex;housing complex;LISTRIK AYAMARU BARAT;P5PF+7CM, Fraharoh, Kec. Ayamaru, Kabupaten Maybrat, Papua Bar. 98461;Fraharoh, Kec. Ayamaru, Kabupaten Maybrat;PAPUA BARAT;98461;Indonesia;;-12.642.766;1.321.735.455;https://maps.google.com/?cid=0x0:0x7fac1ca792df934a
housing complex;housing complex;Huberbari Hoom Stay;P5FW+R58, Ayamaru, Kec. Ayamaru, Kabupaten Maybrat, Papua Bar.;Kabupaten Maybrat, Papua Bar.;PAPUA BARAT;;Indonesia;;-12.754.653;1.321.954.432;https://maps.google.com/?cid=0x0:0x4d80c835629336a0
housing complex;Komplek perumahan;@ B O X;P5CX+V77, Ayamaru, Distrik Ayamaru Jaya, Kabupaten Maybrat, Papua Bar. 98462;Ayamaru, Distrik Ayamaru Jaya, Kabupaten Maybrat;PAPUA BARAT;98462;Indonesia;;-12.778.375;1.321.981.719;https://maps.google.com/?cid=0x0:0xe61a6b296c559447
housing complex;Komplek perumahan;MABEZS ASEGI;Q58Q+2GW, Segior, North Ayamaru, Maybrat Regency, West Papua 98461;Segior, North Ayamaru, Maybrat Regency;PAPUA BARAT;98461;Indonesia;;-12.351.719;132.189.348;https://maps.google.com/?cid=0x0:0x3d057bb72b45da20
housing complex;housing complex;Kampung Oraindistrik ayamaru jaya;Q58P+WV, Framu, Ayamaru Jaya, Maybrat Regency, West Papua;Kabupaten Maybrat, Papua Bar.;PAPUA BARAT;;Indonesia;;-12.332.566;1.321.864.707;https://maps.google.com/?cid=0x0:0x6604ccf5798d1ac6
housing complex;housing complex;Svacho Cityy;P5FW+R58, Ayamaru, Kec. Ayamaru, Kabupaten Maybrat, Papua Bar.;Kabupaten Maybrat, Papua Bar.;PAPUA BARAT;;Indonesia;;-12.754.653;1.321.954.432;https://maps.google.com/?cid=0x0:0x89372dd7c27d7f5c
housing complex;Komplek perumahan;Rumah Kalten;P5FW+5W9, Ayamaru, Kec. Ayamaru, Kabupaten Maybrat, Papua Bar. 98461;Ayamaru, Kec. Ayamaru, Kabupaten Maybrat;PAPUA BARAT;98461;Indonesia;;-1.276.952;1.321.969.005;https://maps.google.com/?cid=0x0:0x3208103863302b07
housing complex;housing complex;Kampung kanisabar;M4RX+MJG, Sauf, Kec. Ayamaru, Kabupaten Maybrat, Papua Bar. 98461;Sauf, Kec. Ayamaru, Kabupaten Maybrat;PAPUA BARAT;98461;Indonesia;;-13.083.132;1.321.490.693;https://maps.google.com/?cid=0x0:0xe4a5d8b407df05e
housing complex;Komplek perumahan;Abe Duwith;P4WM+X5C, Chaliat, Kec. Ayamaru, Kabupaten Maybrat, Papua Bar. 98461;Chaliat, Kec. Ayamaru, Kabupaten Maybrat;PAPUA BARAT;98461;Indonesia;;-12.525.524;1.321.328.852;https://maps.google.com/?cid=0x0:0xe30e7f95398659b0
housing complex;Komplek perumahan;Frasiwa _Iskah;P668+JWJ, Kartapura, Distrik Ayamaru Tengah, Kabupaten Maybrat, Papua Bar.;Kabupaten Maybrat, Papua Bar.;PAPUA BARAT;;Indonesia;;-12.884.148;1.322.172.648;https://maps.google.com/?cid=0x0:0x8ce1755f33984def
housing complex;housing complex;Kampung soroan;P4PW+6X6, Chaliat, Kec. Ayamaru, Kabupaten Maybrat, Papua Bar. 98461;Chaliat, Kec. Ayamaru, Kabupaten Maybrat;PAPUA BARAT;98461;Indonesia;;-12.644.634;1.321.473.903;https://maps.google.com/?cid=0x0:0x1af2b0a0d18f867b
housing complex;housing complex;Kampung orain;Q58P+HHR, Framu, Ayamaru, Maybrat Regency, West Papua 98461;Framu, Ayamaru, Maybrat Regency;PAPUA BARAT;98461;Indonesia;;-12.335.217;1.321.863.996;https://maps.google.com/?cid=0x0:0x1876e2390348ab5e
housing complex;housing complex;Distrik Ayamaru Jaya;Kabupaten Maybrat, Papua Bar.;Kabupaten Maybrat, Papua Bar.;PAPUA BARAT;;Indonesia;;-1.240.888;1.321.225.897;https://maps.google.com/?cid=0x0:0x7043cae1470f6f3d
housing complex;housing complex;Kampung Oraindistrik ayamaru jaya;Q58P+WV, Framu, Ayamaru Jaya, Maybrat Regency, West Papua;Kabupaten Maybrat, Papua Bar.;PAPUA BARAT;;Indonesia;;-12.332.566;1.321.864.707;https://maps.google.com/?cid=0x0:0x6604ccf5798d1ac6
housing complex;housing complex;Huberbari Hoom Stay;P5M6+GC, Chaliat, Kec. Ayamaru, Kabupaten Maybrat, Papua Bar.;Kabupaten Maybrat, Papua Bar.;PAPUA BARAT;;Indonesia;81292849139;-126.616;132.161.002;https://maps.google.com/?cid=0x0:0x324cf1c3d1e42af6
housing complex;Komplek perumahan;Rumah Kotawi Ayamaru;P5GW+279, Ayamaru, Kec. Ayamaru, Kabupaten Maybrat, Papua Bar.;Kabupaten Maybrat, Papua Bar.;PAPUA BARAT;;Indonesia;;-12.749.516;1.321.957.347;https://maps.google.com/?cid=0x0:0xff398e9cf16948fa
housing complex;housing complex;Kampung orain;Q58P+HHR, Framu, Ayamaru, Maybrat Regency, West Papua 98461;Framu, Ayamaru, Maybrat Regency;PAPUA BARAT;98461;Indonesia;;-12.335.217;1.321.863.996;https://maps.google.com/?cid=0x0:0x1876e2390348ab5e
housing complex;Komplek perumahan;Abe Duwith;P4WM+X5C, Chaliat, Kec. Ayamaru, Kabupaten Maybrat, Papua Bar. 98461;Chaliat, Kec. Ayamaru, Kabupaten Maybrat;PAPUA BARAT;98461;Indonesia;;-12.525.524;1.321.328.852;https://maps.google.com/?cid=0x0:0xe30e7f95398659b0
housing complex;Perhimpunan Pengembang Perumahan;Temsos Raya;V5R9+VRR, Kampung Temsos Raya, Distrik Ayamaru Jaya, Kabupaten Maybrat, Papua Bar. 98461;Kampung Temsos Raya, Distrik Ayamaru Jaya, Kabupaten Maybrat;PAPUA BARAT;98461;Indonesia;;-11.077.745;1.321.695.309;https://maps.google.com/?cid=0x0:0x6f9d60d8f5d76699
housing complex;housing complex;Isak sefaniwi;Q58P+WV, Framu, Ayamaru Jaya, Maybrat Regency, West Papua;Kabupaten Maybrat, Papua Bar.;PAPUA BARAT;;Indonesia;;-123.327;1.321.864.673;https://maps.google.com/?cid=0x0:0xb7a6246892e92f37
housing complex;Komplek perumahan;@ B O X;P5CX+V77, Ayamaru, Distrik Ayamaru Jaya, Kabupaten Maybrat, Papua Bar. 98462;Ayamaru, Distrik Ayamaru Jaya, Kabupaten Maybrat;PAPUA BARAT;98462;Indonesia;;-12.778.375;1.321.981.719;https://maps.google.com/?cid=0x0:0xe61a6b296c559447
housing complex;Pembangunan Perumahan;Kampung Segior;Q58Q+2GW, Segior, North Ayamaru, Maybrat Regency, West Papua 98461;Segior, North Ayamaru, Maybrat Regency;PAPUA BARAT;98461;Indonesia;;-12.348.826;1.321.888.314;https://maps.google.com/?cid=0x0:0xd5f9e416e528d10e
housing complex;housing complex;LISTRIK AYAMARU BARAT;P5PF+7CM, Fraharoh, Kec. Ayamaru, Kabupaten Maybrat, Papua Bar. 98461;Fraharoh, Kec. Ayamaru, Kabupaten Maybrat;PAPUA BARAT;98461;Indonesia;;-12.642.766;1.321.735.455;https://maps.google.com/?cid=0x0:0x7fac1ca792df934a
housing complex;housing complex;Kampung soroan;P4PW+6X6, Chaliat, Kec. Ayamaru, Kabupaten Maybrat, Papua Bar. 98461;Chaliat, Kec. Ayamaru, Kabupaten Maybrat;PAPUA BARAT;98461;Indonesia;;-12.644.634;1.321.473.903;https://maps.google.com/?cid=0x0:0x1af2b0a0d18f867b
housing complex;Komplek perumahan;Rumah Myron;P4XP+MR, Chaliat, Kec. Ayamaru, Kabupaten Maybrat, Papua Bar.;Kabupaten Maybrat, Papua Bar.;PAPUA BARAT;;Indonesia;;-1.250.766;132.136.382;https://maps.google.com/?cid=0x0:0x33db915cce29e009
housing complex;Pembangunan Perumahan;Home R.B.S;Q57Q+JC5, Men, Ayamaru Tengah, Maybrat Regency, West Papua;Kabupaten Maybrat, Papua Bar.;PAPUA BARAT;;Indonesia;;-1.235.312;1.321.879.456;https://maps.google.com/?cid=0x0:0xdbd6590472812e3b
housing complex;Komplek perumahan;Rumah Kotawi Ayamaru;P5GW+279, Ayamaru, Kec. Ayamaru, Kabupaten Maybrat, Papua Bar.;Kabupaten Maybrat, Papua Bar.;PAPUA BARAT;;Indonesia;;-12.749.516;1.321.957.347;https://maps.google.com/?cid=0x0:0xff398e9cf16948fa
housing complex;housing complex;Distrik Ayamaru Selatan;Kabupaten Maybrat, Papua Bar.;Kabupaten Maybrat, Papua Bar.;PAPUA BARAT;;Indonesia;;-13.053.761;1.321.485.942;https://maps.google.com/?cid=0x0:0x78bc898d04ac4488
housing complex;housing complex;Huberbari Hoom Stay;P5M6+GC, Chaliat, Kec. Ayamaru, Kabupaten Maybrat, Papua Bar.;Kabupaten Maybrat, Papua Bar.;PAPUA BARAT;;Indonesia;81292849139;-126.616;132.161.002;https://maps.google.com/?cid=0x0:0x324cf1c3d1e42af6
housing complex;housing complex;Kampung kanisabar;M4RX+MJG, Sauf, Kec. Ayamaru, Kabupaten Maybrat, Papua Bar. 98461;Sauf, Kec. Ayamaru, Kabupaten Maybrat;PAPUA BARAT;98461;Indonesia;;-13.083.132;1.321.490.693;https://maps.google.com/?cid=0x0:0xe4a5d8b407df05e
housing complex;housing complex;Huberbari Hoom Stay;P5FW+R58, Ayamaru, Kec. Ayamaru, Kabupaten Maybrat, Papua Bar.;Kabupaten Maybrat, Papua Bar.;PAPUA BARAT;;Indonesia;;-12.754.653;1.321.954.432;https://maps.google.com/?cid=0x0:0x4d80c835629336a0
housing complex;Komplek perumahan;Rumah Kalten;P5FW+5W9, Ayamaru, Kec. Ayamaru, Kabupaten Maybrat, Papua Bar. 98461;Ayamaru, Kec. Ayamaru, Kabupaten Maybrat;PAPUA BARAT;98461;Indonesia;;-1.276.952;1.321.969.005;https://maps.google.com/?cid=0x0:0x3208103863302b07
housing complex;housing complex;Svacho Cityy;P5FW+R58, Ayamaru, Kec. Ayamaru, Kabupaten Maybrat, Papua Bar.;Kabupaten Maybrat, Papua Bar.;PAPUA BARAT;;Indonesia;;-12.754.653;1.321.954.432;https://maps.google.com/?cid=0x0:0x89372dd7c27d7f5c
housing complex;Komplek perumahan;Isusu (Kamboja);M7F8+MR, Kambuskato, Ayamaru Tim. Sel., Kabupaten Maybrat, Papua Bar. 98462;Kambuskato, Ayamaru Tim. Sel., Kabupaten Maybrat;PAPUA BARAT;98462;Indonesia;;-1.325.409;132.267.902;https://maps.google.com/?cid=0x0:0x5104def9852ba885
housing complex;Komplek perumahan;Williams home;M53X+RP, Sayemsembaro, Distrik Ayamaru Selatan, Kabupaten Maybrat, Papua Bar.;Kabupaten Maybrat, Papua Bar.;PAPUA BARAT;;Indonesia;;-13.454.058;132.199.358;https://maps.google.com/?cid=0x0:0xbdc10e94bb1cc385
housing complex;Komplek perumahan;@ B O X;P5CX+V77, Ayamaru, Distrik Ayamaru Jaya, Kabupaten Maybrat, Papua Bar. 98462;Ayamaru, Distrik Ayamaru Jaya, Kabupaten Maybrat;PAPUA BARAT;98462;Indonesia;;-12.778.375;1.321.981.719;https://maps.google.com/?cid=0x0:0xe61a6b296c559447
housing complex;Komplek perumahan;Kampung Siminyah;M4WW+HV4, Sauf, Distrik Ayamaru Selatan, Kabupaten Maybrat, Papua Bar.;Kabupaten Maybrat, Papua Bar.;PAPUA BARAT;;Indonesia;;-13.036.027;1.321.471.884;https://maps.google.com/?cid=0x0:0xadc127fc57ea79b5
housing complex;Komplek perumahan;SEMBARO ISLAND;M642+PF, Sayemsembaro, Distrik Ayamaru Selatan, Kabupaten Maybrat, Papua Bar.;Kabupaten Maybrat, Papua Bar.;PAPUA BARAT;;Indonesia;85251236598;-13.432.072;1.322.012.256;https://maps.google.com/?cid=0x0:0x232de12074c6d9b6
housing complex;Bengkel Ganti Oli;Bengkel ayamaru;P5GQ+X8G, Fraharoh, Kec. Ayamaru, Kabupaten Maybrat, Papua Bar. 98461;Fraharoh, Kec. Ayamaru, Kabupaten Maybrat;PAPUA BARAT;98461;Indonesia;;-12.725.676;1.321.883.359;https://maps.google.com/?cid=0x0:0x3a332a3efbbb0266
housing complex;Klub Olahraga;HANTU SPORT.FC.MAYBRAT;P74G+XFG, Faitmajin, Kec. Ayamaru Tim., Kabupaten Maybrat, Papua Bar. 98462;Faitmajin, Kec. Ayamaru Tim., Kabupaten Maybrat;PAPUA BARAT;98462;Indonesia;;-12.925.609;132.276.187;https://maps.google.com/?cid=0x0:0xe705bf1c5da41e76
housing complex;housing complex;Distrik Ayamaru Selatan Jaya;Kabupaten Maybrat, Papua Bar.;Kabupaten Maybrat, Papua Bar.;PAPUA BARAT;;Indonesia;;-13.673.656;1.322.296.299;https://maps.google.com/?cid=0x0:0x67f2471ae23483de
housing complex;Komplek perumahan;Isusu (Kamboja);M7F8+MR, Kambuskato, Ayamaru Tim. Sel., Kabupaten Maybrat, Papua Bar. 98462;Kambuskato, Ayamaru Tim. Sel., Kabupaten Maybrat;PAPUA BARAT;98462;Indonesia;;-1.325.409;132.267.902;https://maps.google.com/?cid=0x0:0x5104def9852ba885
housing complex;Komplek perumahan;Williams home;M53X+RP, Sayemsembaro, Distrik Ayamaru Selatan, Kabupaten Maybrat, Papua Bar.;Kabupaten Maybrat, Papua Bar.;PAPUA BARAT;;Indonesia;;-13.454.058;132.199.358;https://maps.google.com/?cid=0x0:0xbdc10e94bb1cc385
housing complex;Perhimpunan Pengembang Perumahan;Kampung faitsimar;J6JH+QG, Kofait, Distrik Ayamaru Selatan Jaya, Kabupaten Maybrat, Papua Bar. 98462;Kofait, Distrik Ayamaru Selatan Jaya, Kabupaten Maybrat;PAPUA BARAT;98462;Indonesia;;-13.681.175;1.322.287.405;https://maps.google.com/?cid=0x0:0x7c8b56ce74c984bd
housing complex;housing complex;Kampung kanisabar;M4RX+MJG, Sauf, Kec. Ayamaru, Kabupaten Maybrat, Papua Bar. 98461;Sauf, Kec. Ayamaru, Kabupaten Maybrat;PAPUA BARAT;98461;Indonesia;;-13.083.132;1.321.490.693;https://maps.google.com/?cid=0x0:0xe4a5d8b407df05e
housing complex;Komplek perumahan;SASEM ISLAND.WEST PAPUA;M643+24, Sayemsembaro, Distrik Ayamaru Selatan, Kabupaten Maybrat, Papua Bar.;Kabupaten Maybrat, Papua Bar.;PAPUA BARAT;;Indonesia;;-13.449.902;1.322.028.273;https://maps.google.com/?cid=0x0:0x9bb80a6ef059fa7
housing complex;Komplek perumahan;Kampung Siminyah;M4WW+HV4, Sauf, Distrik Ayamaru Selatan, Kabupaten Maybrat, Papua Bar.;Kabupaten Maybrat, Papua Bar.;PAPUA BARAT;;Indonesia;;-13.036.027;1.321.471.884;https://maps.google.com/?cid=0x0:0xadc127fc57ea79b5
housing complex;housing complex;Kompleks amar_distrik ayamaru jaya;Q58P+8G, Framu, Ayamaru, Maybrat Regency, West Papua 98461;Framu, Ayamaru, Maybrat Regency;PAPUA BARAT;98461;Indonesia;;-12.342.257;1.321.862.655;https://maps.google.com/?cid=0x0:0x9fc4460edbc57c9f
housing complex;housing complex;Kompleks amar_distrik ayamaru jaya;V35X+P76, Segior, Distrik Ayamaru Jaya, Kabupaten Maybrat, Papua Bar. 98461;Segior, Distrik Ayamaru Jaya, Kabupaten Maybrat;PAPUA BARAT;98461;Indonesia;81229704224;-11.407.238;1.320.981.425;https://maps.google.com/?cid=0x0:0x339a0bddd3732bde
housing complex;housing complex;Distrik Ayamaru Tengah;Kabupaten Maybrat, Papua Bar.;Kabupaten Maybrat, Papua Bar.;PAPUA BARAT;;Indonesia;;-12.884.148;1.322.172.648;https://maps.google.com/?cid=0x0:0xa06de0548d38d1a6
housing complex;Komplek perumahan;Rumah Kotawi Ayamaru;P5GW+279, Ayamaru, Kec. Ayamaru, Kabupaten Maybrat, Papua Bar.;Kabupaten Maybrat, Papua Bar.;PAPUA BARAT;;Indonesia;;-12.749.516;1.321.957.347;https://maps.google.com/?cid=0x0:0xff398e9cf16948fa
housing complex;housing complex;Kampung Oraindistrik ayamaru jaya;Q58P+WV, Framu, Ayamaru Jaya, Maybrat Regency, West Papua;Kabupaten Maybrat, Papua Bar.;PAPUA BARAT;;Indonesia;;-12.332.566;1.321.864.707;https://maps.google.com/?cid=0x0:0x6604ccf5798d1ac6
housing complex;Komplek perumahan;Frasiwa _Iskah;P668+JWJ, Kartapura, Distrik Ayamaru Tengah, Kabupaten Maybrat, Papua Bar.;Kabupaten Maybrat, Papua Bar.;PAPUA BARAT;;Indonesia;;-12.884.148;1.322.172.648;https://maps.google.com/?cid=0x0:0x8ce1755f33984def
housing complex;Komplek perumahan;Rumah Kalten;P5FW+5W9, Ayamaru, Kec. Ayamaru, Kabupaten Maybrat, Papua Bar. 98461;Ayamaru, Kec. Ayamaru, Kabupaten Maybrat;PAPUA BARAT;98461;Indonesia;;-1.276.952;1.321.969.005;https://maps.google.com/?cid=0x0:0x3208103863302b07
housing complex;Komplek perumahan;@ B O X;P5CX+V77, Ayamaru, Distrik Ayamaru Jaya, Kabupaten Maybrat, Papua Bar. 98462;Ayamaru, Distrik Ayamaru Jaya, Kabupaten Maybrat;PAPUA BARAT;98462;Indonesia;;-12.778.375;1.321.981.719;https://maps.google.com/?cid=0x0:0xe61a6b296c559447
housing complex;Toko Perlengkapan Rumah;Kampung Isme;P668+JWJ, Kartapura, Distrik Ayamaru Tengah, Kabupaten Maybrat, Papua Bar.;Kabupaten Maybrat, Papua Bar.;PAPUA BARAT;;Indonesia;;-12.884.148;1.322.172.648;https://maps.google.com/?cid=0x0:0xb017a02b680d36c4
housing complex;housing complex;Huberbari Hoom Stay;P5FW+R58, Ayamaru, Kec. Ayamaru, Kabupaten Maybrat, Papua Bar.;Kabupaten Maybrat, Papua Bar.;PAPUA BARAT;;Indonesia;;-12.754.653;1.321.954.432;https://maps.google.com/?cid=0x0:0x4d80c835629336a0
housing complex;housing complex;Kampung orain;Q58P+HHR, Framu, Ayamaru, Maybrat Regency, West Papua 98461;Framu, Ayamaru, Maybrat Regency;PAPUA BARAT;98461;Indonesia;;-12.335.217;1.321.863.996;https://maps.google.com/?cid=0x0:0x1876e2390348ab5e
housing complex;Pembangunan Perumahan;Home R.B.S;Q57Q+JC5, Men, Ayamaru Tengah, Maybrat Regency, West Papua;Kabupaten Maybrat, Papua Bar.;PAPUA BARAT;;Indonesia;;-1.235.312;1.321.879.456;https://maps.google.com/?cid=0x0:0xdbd6590472812e3b
housing complex;housing complex;Svacho Cityy;P5FW+R58, Ayamaru, Kec. Ayamaru, Kabupaten Maybrat, Papua Bar.;Kabupaten Maybrat, Papua Bar.;PAPUA BARAT;;Indonesia;;-12.754.653;1.321.954.432;https://maps.google.com/?cid=0x0:0x89372dd7c27d7f5c
housing complex;Komplek perumahan;KAMPUNG RINDU;P6JH+5FF, Fiane, Kec. Ayamaru, Kabupaten Maybrat, Papua Bar. 98462;Fiane, Kec. Ayamaru, Kabupaten Maybrat;PAPUA BARAT;98462;Indonesia;;-12.695.677;1.322.286.649;https://maps.google.com/?cid=0x0:0xeaffa53d9cb5885c
housing complex;Komplek perumahan;Kampung Wesrom/Tut;P62X+695, Fiane, Distrik Ayamaru Tengah, Kabupaten Maybrat, Papua Bar.;Kabupaten Maybrat, Papua Bar.;PAPUA BARAT;;Indonesia;;-12.994.785;1.322.484.706;https://maps.google.com/?cid=0x0:0x2d7ce8f99944bdb4
housing complex;housing complex;LISTRIK AYAMARU BARAT;P5PF+7CM, Fraharoh, Kec. Ayamaru, Kabupaten Maybrat, Papua Bar. 98461;Fraharoh, Kec. Ayamaru, Kabupaten Maybrat;PAPUA BARAT;98461;Indonesia;;-12.642.766;1.321.735.455;https://maps.google.com/?cid=0x0:0x7fac1ca792df934a
housing complex;housing complex;Kec. Ayamaru Tim.;Kabupaten Maybrat, Papua Bar.;Kabupaten Maybrat, Papua Bar.;PAPUA BARAT;;Indonesia;;-12.951.177;13.227.456;https://maps.google.com/?cid=0x0:0xb5d97283031cf050
housing complex;Klub Olahraga;HANTU SPORT.FC.MAYBRAT;P74G+XFG, Faitmajin, Kec. Ayamaru Tim., Kabupaten Maybrat, Papua Bar. 98462;Faitmajin, Kec. Ayamaru Tim., Kabupaten Maybrat;PAPUA BARAT;98462;Indonesia;;-12.925.609;132.276.187;https://maps.google.com/?cid=0x0:0xe705bf1c5da41e76
housing complex;Komplek perumahan;Isusu (Kamboja);M7F8+MR, Kambuskato, Ayamaru Tim. Sel., Kabupaten Maybrat, Papua Bar. 98462;Kambuskato, Ayamaru Tim. Sel., Kabupaten Maybrat;PAPUA BARAT;98462;Indonesia;;-1.325.409;132.267.902;https://maps.google.com/?cid=0x0:0x5104def9852ba885
housing complex;Balai masyarakat;Kampung Yumame;M8W2+6VG, JL. Raya, Kambuaya, Kec. Ayamaru Tim., Kabupaten Maybrat, Papua Bar. 98462;JL. Raya, Kambuaya, Kec. Ayamaru Tim., Kabupaten Maybrat;PAPUA BARAT;98462;Indonesia;;-13.044.417;1.323.022.107;https://maps.google.com/?cid=0x0:0xd463716fda26611f
housing complex;Pembangunan Perumahan;Swis;M7WP+26M, Kambuaya, Kec. Ayamaru Tim., Kabupaten Maybrat, Papua Bar. 98462;Kambuaya, Kec. Ayamaru Tim., Kabupaten Maybrat;PAPUA BARAT;98462;Indonesia;;-13.049.128;1.322.855.422;https://maps.google.com/?cid=0x0:0xa7d7a5a05203d145
housing complex;Komplek perumahan;Komplex worza;Q724+CH5, Huberita, Ayamaru Utara, Kabupaten Maybrat, Papua Bar.;Kabupaten Maybrat, Papua Bar.;PAPUA BARAT;;Indonesia;;-12.489.903;1.322.564.826;https://maps.google.com/?cid=0x0:0x5a445327be685fd4
housing complex;Balai masyarakat;Yang Kambuaya Saja;M77Q+8Q2, Kambuwifa, Kec. Ayamaru Tim., Kabupaten Maybrat, Papua Bar. 98462;Kambuwifa, Kec. Ayamaru Tim., Kabupaten Maybrat;PAPUA BARAT;98462;Indonesia;;-13.361.498;1.322.883.043;https://maps.google.com/?cid=0x0:0xd381a8cdfa77aea7
housing complex;Komplek perumahan;Kampung Wesrom/Tut;P62X+695, Fiane, Distrik Ayamaru Tengah, Kabupaten Maybrat, Papua Bar.;Kabupaten Maybrat, Papua Bar.;PAPUA BARAT;;Indonesia;;-12.994.785;1.322.484.706;https://maps.google.com/?cid=0x0:0x2d7ce8f99944bdb4
housing complex;Kantor Pemerintah;Kantor Kampung/Ismayo;P73F+XR3, Kambuaya, Kec. Ayamaru Tim., Kabupaten Maybrat, Papua Bar. 98462;Kambuaya, Kec. Ayamaru Tim., Kabupaten Maybrat;PAPUA BARAT;98462;Indonesia;;-12.951.177;13.227.456;https://maps.google.com/?cid=0x0:0xa75946f9f13c4d47
housing complex;Komplek perumahan;Basecamp Keyum;M7WH+X8H, Kambuaya, Kec. Ayamaru Tim., Kabupaten Maybrat, Papua Bar. 98462;Kambuaya, Kec. Ayamaru Tim., Kabupaten Maybrat;PAPUA BARAT;98462;Indonesia;;-13.025.713;1.322.783.672;https://maps.google.com/?cid=0x0:0x839dea98d1916c9c
housing complex;Komplek perumahan;Rumah Kalten;P5FW+5W9, Ayamaru, Kec. Ayamaru, Kabupaten Maybrat, Papua Bar. 98461;Ayamaru, Kec. Ayamaru, Kabupaten Maybrat;PAPUA BARAT;98461;Indonesia;;-1.276.952;1.321.969.005;https://maps.google.com/?cid=0x0:0x3208103863302b07
housing complex;Komplek perumahan;Kampung frabo;P8W6+Q2, Mapura, Distrik Ayamaru Utara Timur, Kabupaten Maybrat, Papua Bar.;Kabupaten Maybrat, Papua Bar.;PAPUA BARAT;;Indonesia;;-12.531.022;1.323.100.232;https://maps.google.com/?cid=0x0:0x469da47fe92da491
housing complex;Komplek perumahan;Swis;P746+GG7, Trans Papua Barat (Sorong-Kambuaya-Manokwari), Faitmajin, Kec. Ayamaru Tim., Kabupaten Maybrat, Papua Bar. 98462;Trans Papua Barat (Sorong-Kambuaya-Manokwari), Faitmajin, Kec. Ayamaru Tim., Kabupaten Maybrat;PAPUA BARAT;98462;Indonesia;;-12.937.225;1.322.612.953;https://maps.google.com/?cid=0x0:0x84c45b7a50a31975
housing complex;Komplek perumahan;FITY;P63J+WXG, Fity, Kec. Ayamaru, Kabupaten Maybrat, Papua Bar. 98462;Fity, Kec. Ayamaru, Kabupaten Maybrat;PAPUA BARAT;98462;Indonesia;;-1.295.183;132.232.475;https://maps.google.com/?cid=0x0:0x58b230211d554690
housing complex;housing complex;Ayamaru Tim. Sel.;Kambuskato, Kabupaten Maybrat, Papua Bar.;Kabupaten Maybrat, Papua Bar.;PAPUA BARAT;;Indonesia;;-1.324.591;132.265.572;https://maps.google.com/?cid=0x0:0x2387ffcd93d6ad5b
housing complex;Komplek perumahan;Isusu (Kamboja);M7F8+MR, Kambuskato, Ayamaru Tim. Sel., Kabupaten Maybrat, Papua Bar. 98462;Kambuskato, Ayamaru Tim. Sel., Kabupaten Maybrat;PAPUA BARAT;98462;Indonesia;;-1.325.409;132.267.902;https://maps.google.com/?cid=0x0:0x5104def9852ba885
housing complex;Komplek perumahan;Kampung Wesrom/Tut;P62X+695, Fiane, Distrik Ayamaru Tengah, Kabupaten Maybrat, Papua Bar.;Kabupaten Maybrat, Papua Bar.;PAPUA BARAT;;Indonesia;;-12.994.785;1.322.484.706;https://maps.google.com/?cid=0x0:0x2d7ce8f99944bdb4
housing complex;housing complex;Ayamaru Utara;Kabupaten Maybrat, Papua Bar.;Kabupaten Maybrat, Papua Bar.;PAPUA BARAT;;Indonesia;;-11.983.051;1.322.165.112;https://maps.google.com/?cid=0x0:0x7c47e1a7cad6e57d
housing complex;Komplek perumahan;MABEZS ASEGI;Q58Q+2GW, Segior, North Ayamaru, Maybrat Regency, West Papua 98461;Segior, North Ayamaru, Maybrat Regency;PAPUA BARAT;98461;Indonesia;;-12.351.719;132.189.348;https://maps.google.com/?cid=0x0:0x3d057bb72b45da20
housing complex;housing complex;Kampung Oraindistrik ayamaru jaya;Q58P+WV, Framu, Ayamaru Jaya, Maybrat Regency, West Papua;Kabupaten Maybrat, Papua Bar.;PAPUA BARAT;;Indonesia;;-12.332.566;1.321.864.707;https://maps.google.com/?cid=0x0:0x6604ccf5798d1ac6
housing complex;Komplek perumahan;Kampung Adoh;R5HX+2H, Setta, Ayamaru Utara, Kabupaten Maybrat, Papua Bar.;Kabupaten Maybrat, Papua Bar.;PAPUA BARAT;;Indonesia;;-1.172.482;1.321.989.021;https://maps.google.com/?cid=0x0:0xe2d562bc0b8e4f38
housing complex;Pembangunan Perumahan;Kampung Segior;Q58Q+2GW, Segior, North Ayamaru, Maybrat Regency, West Papua 98461;Segior, North Ayamaru, Maybrat Regency;PAPUA BARAT;98461;Indonesia;;-12.348.826;1.321.888.314;https://maps.google.com/?cid=0x0:0xd5f9e416e528d10e
housing complex;housing complex;LISTRIK AYAMARU BARAT;P5PF+7CM, Fraharoh, Kec. Ayamaru, Kabupaten Maybrat, Papua Bar. 98461;Fraharoh, Kec. Ayamaru, Kabupaten Maybrat;PAPUA BARAT;98461;Indonesia;;-12.642.766;1.321.735.455;https://maps.google.com/?cid=0x0:0x7fac1ca792df934a
housing complex;housing complex;Huberbari Hoom Stay;P5M6+GC, Chaliat, Kec. Ayamaru, Kabupaten Maybrat, Papua Bar.;Kabupaten Maybrat, Papua Bar.;PAPUA BARAT;;Indonesia;81292849139;-126.616;132.161.002;https://maps.google.com/?cid=0x0:0x324cf1c3d1e42af6
housing complex;Komplek perumahan;Komplex worza;Q724+CH5, Huberita, Ayamaru Utara, Kabupaten Maybrat, Papua Bar.;Kabupaten Maybrat, Papua Bar.;PAPUA BARAT;;Indonesia;;-12.489.903;1.322.564.826;https://maps.google.com/?cid=0x0:0x5a445327be685fd4
housing complex;housing complex;Isak sefaniwi;Q58P+WV, Framu, Ayamaru Jaya, Maybrat Regency, West Papua;Kabupaten Maybrat, Papua Bar.;PAPUA BARAT;;Indonesia;;-123.327;1.321.864.673;https://maps.google.com/?cid=0x0:0xb7a6246892e92f37
housing complex;Pembangunan Perumahan;Home R.B.S;Q57Q+JC5, Men, Ayamaru Tengah, Maybrat Regency, West Papua;Kabupaten Maybrat, Papua Bar.;PAPUA BARAT;;Indonesia;;-1.235.312;1.321.879.456;https://maps.google.com/?cid=0x0:0xdbd6590472812e3b
housing complex;Klub Olahraga;HANTU SPORT.FC.MAYBRAT;P74G+XFG, Faitmajin, Kec. Ayamaru Tim., Kabupaten Maybrat, Papua Bar. 98462;Faitmajin, Kec. Ayamaru Tim., Kabupaten Maybrat;PAPUA BARAT;98462;Indonesia;;-12.925.609;132.276.187;https://maps.google.com/?cid=0x0:0xe705bf1c5da41e76
housing complex;Komplek perumahan;Desa Kona;P8RC+7MJ, Mapura, Distrik Ayamaru Utara Timur, Kabupaten Maybrat, Papua Bar.;Kabupaten Maybrat, Papua Bar.;PAPUA BARAT;;Indonesia;;-12.592.785;132.321.646;https://maps.google.com/?cid=0x0:0xd0f166c18df666a9
housing complex;Pembangunan Perumahan;Haban Mait????;R76P+36F, Yubiah, Ayamaru Utara, Kabupaten Maybrat, Papua Bar.;Kabupaten Maybrat, Papua Bar.;PAPUA BARAT;;Indonesia;;-11.898.133;1.322.855.422;https://maps.google.com/?cid=0x0:0x5bb4a77d2085607f
housing complex;Komplek perumahan;KAMPUNG RINDU;P6JH+5FF, Fiane, Kec. Ayamaru, Kabupaten Maybrat, Papua Bar. 98462;Fiane, Kec. Ayamaru, Kabupaten Maybrat;PAPUA BARAT;98462;Indonesia;;-12.695.677;1.322.286.649;https://maps.google.com/?cid=0x0:0xeaffa53d9cb5885c
housing complex;housing complex;Distrik Ayamaru Utara Timur;Kabupaten Maybrat, Papua Bar.;Kabupaten Maybrat, Papua Bar.;PAPUA BARAT;;Indonesia;;-12.541.857;1.323.121.103;https://maps.google.com/?cid=0x0:0x48dc44cac491eb66
housing complex;Komplek perumahan;Desa Kona;P8RC+7MJ, Mapura, Distrik Ayamaru Utara Timur, Kabupaten Maybrat, Papua Bar.;Kabupaten Maybrat, Papua Bar.;PAPUA BARAT;;Indonesia;;-12.592.785;132.321.646;https://maps.google.com/?cid=0x0:0xd0f166c18df666a9
housing complex;Klub Olahraga;HANTU SPORT.FC.MAYBRAT;P74G+XFG, Faitmajin, Kec. Ayamaru Tim., Kabupaten Maybrat, Papua Bar. 98462;Faitmajin, Kec. Ayamaru Tim., Kabupaten Maybrat;PAPUA BARAT;98462;Indonesia;;-12.925.609;132.276.187;https://maps.google.com/?cid=0x0:0xe705bf1c5da41e76
housing complex;Komplek perumahan;Komplex worza;Q724+CH5, Huberita, Ayamaru Utara, Kabupaten Maybrat, Papua Bar.;Kabupaten Maybrat, Papua Bar.;PAPUA BARAT;;Indonesia;;-12.489.903;1.322.564.826;https://maps.google.com/?cid=0x0:0x5a445327be685fd4
housing complex;Perhimpunan Pengembang Perumahan;Kompleks Adam;P73H+FM, Kambuaya, Kec. Ayamaru Tim., Kabupaten Maybrat, Papua Bar.;Kabupaten Maybrat, Papua Bar.;PAPUA BARAT;;Indonesia;;-12.963.281;1.322.792.644;https://maps.google.com/?cid=0x0:0xc276f9151284dda
housing complex;Pembangunan Perumahan;Haban Mait????;R76P+36F, Yubiah, Ayamaru Utara, Kabupaten Maybrat, Papua Bar.;Kabupaten Maybrat, Papua Bar.;PAPUA BARAT;;Indonesia;;-11.898.133;1.322.855.422;https://maps.google.com/?cid=0x0:0x5bb4a77d2085607f
housing complex;Komplek perumahan;Swis;P746+GG7, Trans Papua Barat (Sorong-Kambuaya-Manokwari), Faitmajin, Kec. Ayamaru Tim., Kabupaten Maybrat, Papua Bar. 98462;Trans Papua Barat (Sorong-Kambuaya-Manokwari), Faitmajin, Kec. Ayamaru Tim., Kabupaten Maybrat;PAPUA BARAT;98462;Indonesia;;-12.937.225;1.322.612.953;https://maps.google.com/?cid=0x0:0x84c45b7a50a31975
housing complex;Pembangunan Perumahan;Kampung Sarimo (Dusun Sabah);P86M+96, Jitmau Tim., Kec. Aitinyo Utara, Kabupaten Maybrat, Papua Bar.;Kabupaten Maybrat, Papua Bar.;PAPUA BARAT;;Indonesia;81343430651;-12.891.215;1.323.330.186;https://maps.google.com/?cid=0x0:0x26bf1e85db4303a
housing complex;Kantor Pemerintah;Kantor Kampung/Ismayo;P73F+XR3, Kambuaya, Kec. Ayamaru Tim., Kabupaten Maybrat, Papua Bar. 98462;Kambuaya, Kec. Ayamaru Tim., Kabupaten Maybrat;PAPUA BARAT;98462;Indonesia;;-12.951.177;13.227.456;https://maps.google.com/?cid=0x0:0xa75946f9f13c4d47
housing complex;Pembangunan Perumahan;Proyek Rumah Papua Barat;Q9QR+479, Fonatu, Distrik Aifat Utara, Kabupaten Maybrat, Papua Bar.;Kabupaten Maybrat, Papua Bar.;PAPUA BARAT;;Indonesia;;-12.122.123;1.323.907.207;https://maps.google.com/?cid=0x0:0x32f9d918d28cb15c
housing complex;Toko Perlengkapan Rumah;North IKUF;P842+JRQ, Jl. Kambretu, Ikuf, utara, Kabupaten Maybrat, Papua Bar. 98462;Jl. Kambretu, Ikuf, utara, Kabupaten Maybrat;PAPUA BARAT;98462;Indonesia;;-1.293.418;1.323.021.011;https://maps.google.com/?cid=0x0:0x99a5465bf564c8d5
housing complex;housing complex;Papua Bar.;;Papua Bar.;PAPUA BARAT;;Indonesia;;-13.361.154;1.331.747.162;https://maps.google.com/?cid=0x0:0x5349c1f8c5c7cb62
housing complex;Perumahan;Perumahan Grand Efata Malibela;Jl. Malibela, Klawalu, Kecamatan Sorong Manoi, Kota Sorong, Papua Bar. 98413;Klawalu, Kecamatan Sorong Manoi, Kota Sorong;PAPUA BARAT;98413;Indonesia;82268235322;-0.90423;1.313.118.479;https://maps.google.com/?cid=0x0:0x600613eae3023432
housing complex;Apartemen sewa liburan;Perumahan residence;Q2, Jl. Tanjung Medan, Malaingkedi, Kec. Sorong Utara, Kota Sorong, Papua Bar. 98412;Jl. Tanjung Medan, Malaingkedi, Kec. Sorong Utara, Kota Sorong;PAPUA BARAT;98412;Indonesia;;-0.888833;1.312.948.243;https://maps.google.com/?cid=0x0:0x9766ab086a7f50df
housing complex;Komplek perumahan;KPR CENRAWASIH GREEN PARK 1;28PH+XP3, Malawili, Kec. Aimas, Kabupaten Sorong, Papua Bar. 98414;Malawili, Kec. Aimas, Kabupaten Sorong;PAPUA BARAT;98414;Indonesia;;-0.9626208;131.329.288;https://maps.google.com/?cid=0x0:0x32bc2269675a6936
housing complex;Pembangunan Perumahan;KPR KADAR HILL RESIDENCE;487H+59W, Jl. Bima, Matalamagi, Kec. Sorong Utara, Kota Sorong, Papua Bar. 98416;Jl. Bima, Matalamagi, Kec. Sorong Utara, Kota Sorong;PAPUA BARAT;98416;Indonesia;;-0.8870216;1.313.284.392;https://maps.google.com/?cid=0x0:0xa3902be1fe044136
housing complex;Otoritas Perumahan;KPR Cendrawasih Green Park II;KPR Cendrawasih Jl. Intimpura No.2, Klasuluk, Distrik Mariat, Kabupaten Sorong, Papua Bar. 98414;Klasuluk, Distrik Mariat, Kabupaten Sorong;PAPUA BARAT;98414;Indonesia;85344136166;-0.9956074;1.313.226.158;https://maps.google.com/?cid=0x0:0x35ba1499df7d40fd
housing complex;Pembangunan Perumahan;Cendrawasih Green Park;28QH+H4G, Malawili, Kec. Aimas, Kabupaten Sorong, Papua Bar. 98414;Malawili, Kec. Aimas, Kabupaten Sorong;PAPUA BARAT;98414;Indonesia;;-0.9612374;1.313.273.486;https://maps.google.com/?cid=0x0:0x3227501370480a18
housing complex;housing complex;ROYAL EXCLUSIVE MARES 3;88, Jl. Margonda No.608, Kemiri Muka, Kecamatan Beji, Kota Depok, Jawa Barat 16423;Jl. Margonda No.608, Kemiri Muka, Kecamatan Beji, Kota Depok;PAPUA BARAT;16423;Indonesia;87888342518;-63.869.805;1.068.268.826;https://maps.google.com/?cid=0x0:0x3487b11ed58e0ae1
housing complex;Museum;Taman Mini Indonesia Indah;Jl. Taman Mini Indonesia Indah, Ceger, Kec. Cipayung, Kota Jakarta Timur, Daerah Khusus Ibukota Jakarta 13820;Ceger, Kec. Cipayung, Kota Jakarta Timur;PAPUA BARAT;13820;Indonesia;8041789789;-63.020.386;1.068.898.924;https://maps.google.com/?cid=0x0:0x73127b9ecf2da0c
housing complex;Stasiun Kereta;Depok Baru;Depok, Kec. Pancoran Mas, Kota Depok, Jawa Barat;Kota Depok, Jawa Barat;PAPUA BARAT;;Indonesia;;-639.113;10.682.169;https://maps.google.com/?cid=0x0:0x5f3db353a5488e31
housing complex;housing complex;Green Lake View Ciputat;Jl. Dewi Sartika No.34, Ciputat, Kec. Ciputat, Kota Tangerang Selatan, Banten 15411;Ciputat, Kec. Ciputat, Kota Tangerang Selatan;PAPUA BARAT;15411;Indonesia;2174712002;-63.175.092;1.067.451.121;https://maps.google.com/?cid=0x0:0x65b551b2b402ef96
housing complex;housing complex;N/A;;;PAPUA BARAT;;Indonesia;;;;https://maps.google.com/?cid=0x0:0x65b551b2b402ef96%7C/g/11dxcjsd9w%7Cid-ID
housing complex;Kebun Binatang;Taman Margasatwa Ragunan;Jl. Harsono Rm Dalam No.1, Ragunan, Ps. Minggu, Kota Jakarta Selatan, Daerah Khusus Ibukota Jakarta 12550;Ragunan, Ps. Minggu, Kota Jakarta Selatan;PAPUA BARAT;12550;Indonesia;2178847114;-63.059.887;106.820.353;https://maps.google.com/?cid=0x0:0xf9dd2a3f5ab5069a
housing complex;Layanan Transportasi;Jurang Mangu;Jl. Tegal Rotan Raya, Pd. Jaya, Kec. Ciputat, Kota Tangerang Selatan, Banten 15413;Pd. Jaya, Kec. Ciputat, Kota Tangerang Selatan;PAPUA BARAT;15413;Indonesia;;-62.887.899;1.067.291.221;https://maps.google.com/?cid=0x0:0x439cd2b52dc67b80
housing complex;housing complex;Papua Bar. 98461;Kabupaten Maybrat, Papua Bar.;Kabupaten Maybrat, Papua Bar.;PAPUA BARAT;;Indonesia;;-12.145.828;1.321.177.396;https://maps.google.com/?cid=0x0:0x150319512b004ee4
housing complex;Pembangunan Perumahan;Seni Distrik Mare Selatan Kab. Maybrat;X727+WQQ, Hutan, Kabupaten Tambrauw, Papua Bar. 98473;Hutan, Kabupaten Tambrauw;PAPUA BARAT;98473;Indonesia;;-10.476.691;1.322.644.975;https://maps.google.com/?cid=0x0:0x673c50df662ce770
housing complex;Pembangunan Perumahan;Distrik Mare Kabupaten Maybrat;V78H+R4, Sire, Distrik Mare, Kabupaten Maybrat, Papua Bar.;Kabupaten Maybrat, Papua Bar.;PAPUA BARAT;;Indonesia;;-11.329.901;1.322.778.033;https://maps.google.com/?cid=0x0:0x4247317531b36836
housing complex;Perhimpunan Pengembang Perumahan;DISTRIK MARE SELATAN;V76W+65J, Sire, Distrik Mare, Kabupaten Maybrat, Papua Bar. 98463;Sire, Distrik Mare, Kabupaten Maybrat;PAPUA BARAT;98463;Indonesia;;-11.394.116;1.322.953.964;https://maps.google.com/?cid=0x0:0xfbdce61b4c613012
housing complex;Pembangunan Perumahan;Yohanes Semuanya;V76W+65J, Sire, Distrik Mare, Kabupaten Maybrat, Papua Bar. 98463;Sire, Distrik Mare, Kabupaten Maybrat;PAPUA BARAT;98463;Indonesia;81240108848;-11.394.116;1.322.953.964;https://maps.google.com/?cid=0x0:0x489e8ccf1f7b537e
housing complex;Komplek perumahan;KAMPUNG RINDU;P6JH+5FF, Fiane, Kec. Ayamaru, Kabupaten Maybrat, Papua Bar. 98462;Fiane, Kec. Ayamaru, Kabupaten Maybrat;PAPUA BARAT;98462;Indonesia;;-12.695.677;1.322.286.649;https://maps.google.com/?cid=0x0:0xeaffa53d9cb5885c
housing complex;housing complex;Kampung Sire;V76W+65J, Sire, Distrik Mare, Kabupaten Maybrat, Papua Bar. 98463;Sire, Distrik Mare, Kabupaten Maybrat;PAPUA BARAT;98463;Indonesia;;-11.394.116;1.322.953.964;https://maps.google.com/?cid=0x0:0x8853781eb189fcee
housing complex;Perhimpunan Pengembang Perumahan;Kampung sidi;V87C+76, Sire, Distrik Mare, Kabupaten Maybrat, Papua Bar.;Kabupaten Maybrat, Papua Bar.;PAPUA BARAT;;Indonesia;;-11.368.433;1.323.205.283;https://maps.google.com/?cid=0x0:0x25da7782e7796545
housing complex;Perhimpunan Pengembang Perumahan;DISTRIK MARE SELATAN;V76W+65J, Sire, Distrik Mare, Kabupaten Maybrat, Papua Bar. 98463;Sire, Distrik Mare, Kabupaten Maybrat;PAPUA BARAT;98463;Indonesia;;-11.394.116;1.322.953.964;https://maps.google.com/?cid=0x0:0xfbdce61b4c613012
housing complex;Pembangunan Perumahan;Seni Distrik Mare Selatan Kab. Maybrat;X727+WQQ, Hutan, Kabupaten Tambrauw, Papua Bar. 98473;Hutan, Kabupaten Tambrauw;PAPUA BARAT;98473;Indonesia;;-10.476.691;1.322.644.975;https://maps.google.com/?cid=0x0:0x673c50df662ce770
housing complex;housing complex;Papua Bar. 98461;Kabupaten Maybrat, Papua Bar.;Kabupaten Maybrat, Papua Bar.;PAPUA BARAT;;Indonesia;;-12.145.828;1.321.177.396;https://maps.google.com/?cid=0x0:0x150319512b004ee4
