Category,Real Category,Business Name,Address,City,State,Postal Code,Country,Phone,Email,Website,Latitude,Longitude,Map Link,Details Link
building materials,building materials,Gorontalo 96266,"Kabupaten Pohuwato, Gorontalo","Kabupaten Pohuwato, Gorontalo",GORONTALO,,Indonesia,,,,0.6235288,1.218.790.306,https://maps.google.com/?cid=0x0:0x6e323a18714b4718,
building materials,Toko Bahan Bangunan,TOKO CAHAYA BANGUNAN,"FWGJ+WW4, Sipatana, Kec. Buntulia, Kabupaten Pohuwato, Gorontalo 96466","Sipatana, Kec. Buntulia, Kabupaten Pohuwato",GORONTALO,96466.0,Indonesia,85185536567.0,,,0.4772533,1.219.323.384,https://maps.google.com/?cid=0x0:0x36941efbe6f07e4a,
building materials,Pemasok Bahan Bangunan,Toko Maju Bangunan keramik,"FWFJ+WRX, Jl. Trans-Sulawesi, Buntulia Jaya, Kec. Duhiadaa, Kabupaten Pohuwato, Gorontalo 96466","Jl. Trans-Sulawesi, Buntulia Jaya, Kec. Duhiadaa, Kabupaten Pohuwato",GORONTALO,96466.0,Indonesia,,,,0.4748649,1.219.321.084,https://maps.google.com/?cid=0x0:0x7ad93aa3e08e18d7,
building materials,Toko Bahan Bangunan,UD.BAROKAH,"JVQ7+828, Tirto Asri, Kec. Taluditi, Kabupaten Pohuwato, Gorontalo","Kabupaten Pohuwato, Gorontalo",GORONTALO,,Indonesia,85298075542.0,,,0.6382335,1.218.639.125,https://maps.google.com/?cid=0x0:0x5458b28b9450e361,
building materials,Toko Bahan Bangunan,Mentari Jaya Bangunan Marisa,"FWJP+C4W, Sipatana, Kec. Buntulia, Kabupaten Pohuwato, Gorontalo 96466","Sipatana, Kec. Buntulia, Kabupaten Pohuwato",GORONTALO,96466.0,Indonesia,81234324364.0,,,0.4813082,1.219.353.609,https://maps.google.com/?cid=0x0:0x8ed5b3563f67e921,
building materials,Toko Perlengkapan Rumah,Tk Tosora Indah,"Jl. Trans-Sulawesi No.196, Buntulia Utara, Kec. Buntulia, Kabupaten Pohuwato, Gorontalo 96466","Buntulia Utara, Kec. Buntulia, Kabupaten Pohuwato",GORONTALO,96466.0,Indonesia,,,,0.4981508,1.219.341.003,https://maps.google.com/?cid=0x0:0x8d55dd6d54051320,
building materials,building materials,INDO MAKMUR bangunan,"FWRM+G8G, Jl. Trans-Sulawesi Dusun, Buntulia Tengah, Kec. Duhiadaa, Kabupaten Pohuwato, Gorontalo","Kabupaten Pohuwato, Gorontalo",GORONTALO,,Indonesia,,,,0.4913085,1.219.333.332,https://maps.google.com/?cid=0x0:0x91cb18c9e64c064,
building materials,building materials,Toko Indo Makmur Bangunan,"FWFJ+3JR, Buntulia Sel., Kec. Duhiadaa, Kabupaten Pohuwato, Gorontalo","Kabupaten Pohuwato, Gorontalo",GORONTALO,,Indonesia,,,,0.4727377,1.219.315.092,https://maps.google.com/?cid=0x0:0xf09e90b4f1cca912,
building materials,Toko,PT. Havana Tunas Gemilang,"FW4Q+RVX, Jl. Diponegoro, Marisa Sel., Kec. Marisa, Kabupaten Pohuwato, Gorontalo 96265","Jl. Diponegoro, Marisa Sel., Kec. Marisa, Kabupaten Pohuwato",GORONTALO,96265.0,Indonesia,81248728949.0,,,0.4571104,1.219.397.397,https://maps.google.com/?cid=0x0:0x5dcedf50da2c866,
building materials,Toko Bahan Bangunan,TOKO R2 BANGUNAN,"Jl. Trans-Sulawesi No.196, Buntulia Tengah, Kec. Buntulia, Kabupaten Pohuwato, Gorontalo 96466","Buntulia Tengah, Kec. Buntulia, Kabupaten Pohuwato",GORONTALO,96466.0,Indonesia,,,,0.486066,1.219.350.154,https://maps.google.com/?cid=0x0:0x6429c15481fce075,
building materials,Toko Bahan Bangunan,TOKO RANDY,"JVQ6+R48, Tirto Asri, Kec. Taluditi, Kabupaten Pohuwato, Gorontalo 96266","Tirto Asri, Kec. Taluditi, Kabupaten Pohuwato",GORONTALO,96266.0,Indonesia,87873964625.0,,,0.6395403,1.218.603.388,https://maps.google.com/?cid=0x0:0x142454996efe93fc,
building materials,Toko Bahan Bangunan,Toko Berkat Abadi Bangunan,"Buntulia Tengah, Kec. Marisa, Kabupaten Pohuwato, Gorontalo 96466","Kec. Marisa, Kabupaten Pohuwato",GORONTALO,96466.0,Indonesia,,,,0.4792673,1.219.336.516,https://maps.google.com/?cid=0x0:0x12996b428582795b,
building materials,Toko,MR. DIY,"Jl. Trans-Sulawesi, Buntulia Sel., Kec. Duhiadaa, Kabupaten Pohuwato, Gorontalo 96266","Buntulia Sel., Kec. Duhiadaa, Kabupaten Pohuwato",GORONTALO,96266.0,Indonesia,,,,0.4711451,1.219.311.952,https://maps.google.com/?cid=0x0:0x69a796084d575125,
building materials,Toko Bahan Bangunan,Toko Sumber Bangunan Taluditi .pangkalan LPG .ahmadagusalim,"JRMC+G43, Unnamed Road, Panca Karsa II, Kec. Taluditi, Kabupaten Pohuwato, Gorontalo 96469","Unnamed Road, Panca Karsa II, Kec. Taluditi, Kabupaten Pohuwato",GORONTALO,96469.0,Indonesia,,,,0.6337585,1.218.202.861,https://maps.google.com/?cid=0x0:0xfd3f43d10d637df9,
building materials,Toko,Toko rahmat bangunan marisa,"FWHR+2PG, Jl. Sultan Amai, Botubilotahu Indah, Kec. Marisa, Kabupaten Pohuwato, Gorontalo 96266","Jl. Sultan Amai, Botubilotahu Indah, Kec. Marisa, Kabupaten Pohuwato",GORONTALO,96266.0,Indonesia,85335589920.0,,,0.4775509,1.219.418.261,https://maps.google.com/?cid=0x0:0xa2bb3be578970397,
building materials,Toko Bahan Bangunan,TOKO JAGO BANGUNAN,"Jl. Diponegoro, Pohuwato Tim., Kec. Marisa, Kabupaten Pohuwato, Gorontalo 96265","Pohuwato Tim., Kec. Marisa, Kabupaten Pohuwato",GORONTALO,96265.0,Indonesia,85397810927.0,,,0.4574067,121.936.869,https://maps.google.com/?cid=0x0:0x43dd264c205c1b79,
building materials,Toko Bahan Bangunan,Toko Asy Bangunan,"Sipatana, Kec. Buntulia, Kabupaten Pohuwato, Gorontalo","Kabupaten Pohuwato, Gorontalo",GORONTALO,,Indonesia,,,,0.4816032,1.219.251.878,https://maps.google.com/?cid=0x0:0x5221518e0391d42e,
building materials,Toko Bahan Bangunan,UD. Sinar Palu,"FWGP+GP9, Botubilotahu Indah, Kec. Marisa, Kabupaten Pohuwato, Gorontalo 96265","Botubilotahu Indah, Kec. Marisa, Kabupaten Pohuwato",GORONTALO,96265.0,Indonesia,,,,0.4762925,121.936.847,https://maps.google.com/?cid=0x0:0xe27725c866839d2d,
building materials,building materials,Anugerah Bangunan,"FWJG+5M, Sipatana, Kec. Buntulia, Kabupaten Pohuwato, Gorontalo 96466","Sipatana, Kec. Buntulia, Kabupaten Pohuwato",GORONTALO,96466.0,Indonesia,,,,0.4804776,1.219.267.084,https://maps.google.com/?cid=0x0:0xaa41d1dfbf37147c,
building materials,,UD. PUTRA HUYULA,"Huyula, Kec. Randangan, Kabupaten Pohuwato, Gorontalo 96469","Kec. Randangan, Kabupaten Pohuwato",GORONTALO,96469.0,Indonesia,82226666966.0,,,0.5077318,1.218.117.379,https://maps.google.com/?cid=0x0:0x66f3cfc85c3725a,
building materials,building materials,Gorontalo 96265,"Kabupaten Pohuwato, Gorontalo","Kabupaten Pohuwato, Gorontalo",GORONTALO,,Indonesia,,,,0.6708114,1.220.382.856,https://maps.google.com/?cid=0x0:0xc7ddf273e46e561,
building materials,Toko,PT. Havana Tunas Gemilang,"FW4Q+RVX, Jl. Diponegoro, Marisa Sel., Kec. Marisa, Kabupaten Pohuwato, Gorontalo 96265","Jl. Diponegoro, Marisa Sel., Kec. Marisa, Kabupaten Pohuwato",GORONTALO,96265.0,Indonesia,81248728949.0,,,0.4571104,1.219.397.397,https://maps.google.com/?cid=0x0:0x5dcedf50da2c866,
building materials,Toko Bahan Bangunan,TOKO JAGO BANGUNAN,"Jl. Diponegoro, Pohuwato Tim., Kec. Marisa, Kabupaten Pohuwato, Gorontalo 96265","Pohuwato Tim., Kec. Marisa, Kabupaten Pohuwato",GORONTALO,96265.0,Indonesia,85397810927.0,,,0.4574067,121.936.869,https://maps.google.com/?cid=0x0:0x43dd264c205c1b79,
building materials,building materials,INDO MAKMUR bangunan,"FWRM+G8G, Jl. Trans-Sulawesi Dusun, Buntulia Tengah, Kec. Duhiadaa, Kabupaten Pohuwato, Gorontalo","Kabupaten Pohuwato, Gorontalo",GORONTALO,,Indonesia,,,,0.4913085,1.219.333.332,https://maps.google.com/?cid=0x0:0x91cb18c9e64c064,
building materials,Toko Bahan Bangunan,Toko Jago Bangunan 2,"FWHJ+8XV, Buntulia Jaya, Kec. Marisa, Kabupaten Pohuwato, Gorontalo 96466","Buntulia Jaya, Kec. Marisa, Kabupaten Pohuwato",GORONTALO,96466.0,Indonesia,82358761840.0,,,0.4783581,1.219.324.343,https://maps.google.com/?cid=0x0:0x60be9b90df35cdf5,
building materials,Toko Bahan Bangunan,UD. Sinar Palu,"FWGP+GP9, Botubilotahu Indah, Kec. Marisa, Kabupaten Pohuwato, Gorontalo 96265","Botubilotahu Indah, Kec. Marisa, Kabupaten Pohuwato",GORONTALO,96265.0,Indonesia,,,,0.4762925,121.936.847,https://maps.google.com/?cid=0x0:0xe27725c866839d2d,
building materials,building materials,Toko Indo Makmur Bangunan,"FWFJ+3JR, Buntulia Sel., Kec. Duhiadaa, Kabupaten Pohuwato, Gorontalo","Kabupaten Pohuwato, Gorontalo",GORONTALO,,Indonesia,,,,0.4727377,1.219.315.092,https://maps.google.com/?cid=0x0:0xf09e90b4f1cca912,
building materials,Toko,Makmur sentosa marisa,"Jl. Sultan Amai, Marisa Utara, Kec. Marisa, Kabupaten Pohuwato, Gorontalo 96265","Marisa Utara, Kec. Marisa, Kabupaten Pohuwato",GORONTALO,96265.0,Indonesia,8123513478.0,,,0.4723577,1.219.389.063,https://maps.google.com/?cid=0x0:0x7ec3010925b28695,
building materials,Toko Bahan Bangunan,Al_Amin bangunan,"G44P+GQ7, Tabulo, Kec. Mananggu, Kabupaten Boalemo, Gorontalo 96264","Tabulo, Kec. Mananggu, Kabupaten Boalemo",GORONTALO,96264.0,Indonesia,,,,0.5062805,1.221.369.233,https://maps.google.com/?cid=0x0:0x3f903572fd93e1a7,
building materials,Toko Bahan Bangunan,TOKO CAHAYA BANGUNAN,"FWGJ+WW4, Sipatana, Kec. Buntulia, Kabupaten Pohuwato, Gorontalo 96466","Sipatana, Kec. Buntulia, Kabupaten Pohuwato",GORONTALO,96466.0,Indonesia,85185536567.0,,,0.4772533,1.219.323.384,https://maps.google.com/?cid=0x0:0x36941efbe6f07e4a,
building materials,Toko,Toko rahmat bangunan marisa,"FWHR+2PG, Jl. Sultan Amai, Botubilotahu Indah, Kec. Marisa, Kabupaten Pohuwato, Gorontalo 96266","Jl. Sultan Amai, Botubilotahu Indah, Kec. Marisa, Kabupaten Pohuwato",GORONTALO,96266.0,Indonesia,85335589920.0,,,0.4775509,1.219.418.261,https://maps.google.com/?cid=0x0:0xa2bb3be578970397,
building materials,Taman Kanak-kanak,TK SENG BERTUS,"F3RF+C86, Siduan, Kec. Paguat, Kabupaten Pohuwato, Gorontalo 96265","Siduan, Kec. Paguat, Kabupaten Pohuwato",GORONTALO,96265.0,Indonesia,,,,0.4910364,1.220.732.733,https://maps.google.com/?cid=0x0:0xec6114696d804caf,
building materials,Toko Bahan Bangunan,Mentari Jaya Bangunan Marisa,"FWJP+C4W, Sipatana, Kec. Buntulia, Kabupaten Pohuwato, Gorontalo 96466","Sipatana, Kec. Buntulia, Kabupaten Pohuwato",GORONTALO,96466.0,Indonesia,81234324364.0,,,0.4813082,1.219.353.609,https://maps.google.com/?cid=0x0:0x8ed5b3563f67e921,
building materials,Toko Bahan Bangunan,Mutiara Bangunan,"FWHR+7R3, Botubilotahu Indah, Kec. Marisa, Kabupaten Pohuwato, Gorontalo","Kabupaten Pohuwato, Gorontalo",GORONTALO,,Indonesia,81210245212.0,,,0.4781294,1.219.420.379,https://maps.google.com/?cid=0x0:0xda7e6ff3f7f7987a,
building materials,Toko Bahan Bangunan,Toko Asy Bangunan,"Sipatana, Kec. Buntulia, Kabupaten Pohuwato, Gorontalo","Kabupaten Pohuwato, Gorontalo",GORONTALO,,Indonesia,,,,0.4816032,1.219.251.878,https://maps.google.com/?cid=0x0:0x5221518e0391d42e,
building materials,Toko,Marisa Jaya,"FW6X+WXR, Palopo, Kec. Marisa, Kabupaten Pohuwato, Gorontalo 96265","Palopo, Kec. Marisa, Kabupaten Pohuwato",GORONTALO,96265.0,Indonesia,85708091670.0,,,0.4623877,1.219.499.404,https://maps.google.com/?cid=0x0:0x1a1a48ec99897421,
building materials,Toko Bahan Bangunan,Toko.Maju Bangunan Steel,"FWGQ+5WJ, Jl. Hulude Bunggu, Botubilotahu Indah, Kec. Marisa, Kabupaten Pohuwato, Gorontalo 96265","Jl. Hulude Bunggu, Botubilotahu Indah, Kec. Marisa, Kabupaten Pohuwato",GORONTALO,96265.0,Indonesia,,,,0.4754629,1.219.397.608,https://maps.google.com/?cid=0x0:0xe1a77c65414cbfd6,
building materials,Toko Bahan Bangunan,TOKO R2 BANGUNAN,"Jl. Trans-Sulawesi No.196, Buntulia Tengah, Kec. Buntulia, Kabupaten Pohuwato, Gorontalo 96466","Buntulia Tengah, Kec. Buntulia, Kabupaten Pohuwato",GORONTALO,96466.0,Indonesia,,,,0.486066,1.219.350.154,https://maps.google.com/?cid=0x0:0x6429c15481fce075,
building materials,building materials,Toko Sinar Jaya Berkah Mandiri,"X7VF+CX5, Buloila, Kec. Sumalata, Kabupaten Gorontalo Utara, Gorontalo","Kabupaten Gorontalo Utara, Gorontalo",GORONTALO,,Indonesia,85244553019.0,,,0.9919618,1.222.748.447,https://maps.google.com/?cid=0x0:0xcb4aede6789a4cad,
building materials,Toko Perlengkapan Rumah,Tk Tosora Indah,"Jl. Trans-Sulawesi No.196, Buntulia Utara, Kec. Buntulia, Kabupaten Pohuwato, Gorontalo 96466","Buntulia Utara, Kec. Buntulia, Kabupaten Pohuwato",GORONTALO,96466.0,Indonesia,,,,0.4981508,1.219.341.003,https://maps.google.com/?cid=0x0:0x8d55dd6d54051320,
building materials,Toko umum,Sinar Abadi Marampak,"FXCR+423, Jl. Trans-Sulawesi, Matabolo, Kec. Bunta, Kabupaten Pohuwato, Gorontalo 96265","Jl. Trans-Sulawesi, Matabolo, Kec. Bunta, Kabupaten Pohuwato",GORONTALO,96265.0,Indonesia,81354608376.0,,,0.470259,1.219.900.591,https://maps.google.com/?cid=0x0:0x1a02ee72a8cc660a,
building materials,Toko Perlengkapan Rumah,Gembira Houseware Marisa,"Jl. Sultan Amai, Marisa Utara, Kec. Marisa, Kabupaten Pohuwato, Gorontalo 96265","Marisa Utara, Kec. Marisa, Kabupaten Pohuwato",GORONTALO,96265.0,Indonesia,82312130800.0,,,0.470532,1.219.384.002,https://maps.google.com/?cid=0x0:0xe12e7b17f351f4ec,
building materials,Toko Bahan Bangunan,Toko Zein,"FXCR+424, Jl. Trans Sulawesi, Ampibabo, Maleo, Parigi Tengah, Kabupaten Pohuwato, Gorontalo 96265","Jl. Trans Sulawesi, Ampibabo, Maleo, Parigi Tengah, Kabupaten Pohuwato",GORONTALO,96265.0,Indonesia,85398470789.0,,,0.4702517,1.219.900.905,https://maps.google.com/?cid=0x0:0xa615f3ab0e4e4ce6,
building materials,Toko Bahan Bangunan,Toko MULIATAMA,"G43V+W6H, Kaaruyan, Kec. Mananggu, Kabupaten Boalemo, Gorontalo 96264","Kaaruyan, Kec. Mananggu, Kabupaten Boalemo",GORONTALO,96264.0,Indonesia,,,,0.5048037,1.221.431.143,https://maps.google.com/?cid=0x0:0x8b59aaa89b38b8a6,
building materials,building materials,Gorontalo 96266,"Kabupaten Pohuwato, Gorontalo","Kabupaten Pohuwato, Gorontalo",GORONTALO,,Indonesia,,,,0.6235288,1.218.790.306,https://maps.google.com/?cid=0x0:0x6e323a18714b4718,
building materials,Pemasok Bahan Bangunan,Toko Maju Bangunan keramik,"FWFJ+WRX, Jl. Trans-Sulawesi, Buntulia Jaya, Kec. Duhiadaa, Kabupaten Pohuwato, Gorontalo 96466","Jl. Trans-Sulawesi, Buntulia Jaya, Kec. Duhiadaa, Kabupaten Pohuwato",GORONTALO,96466.0,Indonesia,,,,0.4748649,1.219.321.084,https://maps.google.com/?cid=0x0:0x7ad93aa3e08e18d7,
building materials,Toko Perlengkapan Rumah,UD.PERSADA BANGUNAN,"Jl.Trans Sulawesi No.Desa, Bulontio Barat, Kec. Sumalata, Kabupaten Gorontalo Utara, Gorontalo 96254","Bulontio Barat, Kec. Sumalata, Kabupaten Gorontalo Utara",GORONTALO,96254.0,Indonesia,85256442121.0,,,0.9815164,1.224.192.615,https://maps.google.com/?cid=0x0:0x4642f5c4ad507770,
building materials,building materials,Toko Indo Makmur Bangunan,"FWFJ+3JR, Buntulia Sel., Kec. Duhiadaa, Kabupaten Pohuwato, Gorontalo","Kabupaten Pohuwato, Gorontalo",GORONTALO,,Indonesia,,,,0.4727377,1.219.315.092,https://maps.google.com/?cid=0x0:0xf09e90b4f1cca912,
building materials,building materials,INDO MAKMUR bangunan,"FWRM+G8G, Jl. Trans-Sulawesi Dusun, Buntulia Tengah, Kec. Duhiadaa, Kabupaten Pohuwato, Gorontalo","Kabupaten Pohuwato, Gorontalo",GORONTALO,,Indonesia,,,,0.4913085,1.219.333.332,https://maps.google.com/?cid=0x0:0x91cb18c9e64c064,
building materials,Toko Bahan Bangunan,Toko Sumber Bangunan Taluditi .pangkalan LPG .ahmadagusalim,"JRMC+G43, Unnamed Road, Panca Karsa II, Kec. Taluditi, Kabupaten Pohuwato, Gorontalo 96469","Unnamed Road, Panca Karsa II, Kec. Taluditi, Kabupaten Pohuwato",GORONTALO,96469.0,Indonesia,,,,0.6337585,1.218.202.861,https://maps.google.com/?cid=0x0:0xfd3f43d10d637df9,
building materials,Toko Mebel,UD.MEUBEL AKBAR,"Jl.napoleon, dusun kramat. Sebelum gereja pante kosta pertama sebelah kanan Pas dekat dgn bangunan besar belum terplester, Pohuwato Tim., Kec. Marisa, Kabupaten Pohuwato, Gorontalo 96266","dusun kramat. Sebelum gereja pante kosta pertama sebelah kanan Pas dekat dgn bangunan besar belum terplester, Pohuwato Tim., Kec. Marisa, Kabupaten Pohuwato",GORONTALO,96266.0,Indonesia,82194917825.0,,,0.4529825,1.219.384.271,https://maps.google.com/?cid=0x0:0xcfad6388e1916e3d,
building materials,Pusat Perbelanjaan,RED BANGUNAN,"GF33+GV9, Telaga Biru, Popayato, Kabupaten Pohuwato, Gorontalo 96467","Telaga Biru, Popayato, Kabupaten Pohuwato",GORONTALO,96467.0,Indonesia,,,,0.5037882,1.214.547.358,https://maps.google.com/?cid=0x0:0x68fbf4a4f2ee7c89,
building materials,Toko,MR. DIY,"Jl. Trans-Sulawesi, Buntulia Sel., Kec. Duhiadaa, Kabupaten Pohuwato, Gorontalo 96266","Buntulia Sel., Kec. Duhiadaa, Kabupaten Pohuwato",GORONTALO,96266.0,Indonesia,,,,0.4711451,1.219.311.952,https://maps.google.com/?cid=0x0:0x69a796084d575125,
building materials,building materials,Kec. Duhiadaa,"Kabupaten Pohuwato, Gorontalo","Kabupaten Pohuwato, Gorontalo",GORONTALO,,Indonesia,,,,0.4727472,1.219.315.071,https://maps.google.com/?cid=0x0:0x4f9e976d482b115f,
building materials,Toko,PT. Havana Tunas Gemilang,"FW4Q+RVX, Jl. Diponegoro, Marisa Sel., Kec. Marisa, Kabupaten Pohuwato, Gorontalo 96265","Jl. Diponegoro, Marisa Sel., Kec. Marisa, Kabupaten Pohuwato",GORONTALO,96265.0,Indonesia,81248728949.0,,,0.4571104,1.219.397.397,https://maps.google.com/?cid=0x0:0x5dcedf50da2c866,
building materials,Toko Bahan Bangunan,UD. Sinar Palu,"FWGP+GP9, Botubilotahu Indah, Kec. Marisa, Kabupaten Pohuwato, Gorontalo 96265","Botubilotahu Indah, Kec. Marisa, Kabupaten Pohuwato",GORONTALO,96265.0,Indonesia,,,,0.4762925,121.936.847,https://maps.google.com/?cid=0x0:0xe27725c866839d2d,
building materials,Toko Bahan Bangunan,Toko Jago Bangunan 2,"FWHJ+8XV, Buntulia Jaya, Kec. Marisa, Kabupaten Pohuwato, Gorontalo 96466","Buntulia Jaya, Kec. Marisa, Kabupaten Pohuwato",GORONTALO,96466.0,Indonesia,82358761840.0,,,0.4783581,1.219.324.343,https://maps.google.com/?cid=0x0:0x60be9b90df35cdf5,
building materials,Toko Bahan Bangunan,TOKO CAHAYA BANGUNAN,"FWGJ+WW4, Sipatana, Kec. Buntulia, Kabupaten Pohuwato, Gorontalo 96466","Sipatana, Kec. Buntulia, Kabupaten Pohuwato",GORONTALO,96466.0,Indonesia,85185536567.0,,,0.4772533,1.219.323.384,https://maps.google.com/?cid=0x0:0x36941efbe6f07e4a,
building materials,Toko Bahan Bangunan,Toko Asy Bangunan,"Sipatana, Kec. Buntulia, Kabupaten Pohuwato, Gorontalo","Kabupaten Pohuwato, Gorontalo",GORONTALO,,Indonesia,,,,0.4816032,1.219.251.878,https://maps.google.com/?cid=0x0:0x5221518e0391d42e,
building materials,Toko Bahan Bangunan,Toko Berkat Abadi Bangunan,"Buntulia Tengah, Kec. Marisa, Kabupaten Pohuwato, Gorontalo 96466","Kec. Marisa, Kabupaten Pohuwato",GORONTALO,96466.0,Indonesia,,,,0.4792673,1.219.336.516,https://maps.google.com/?cid=0x0:0x12996b428582795b,
building materials,Pasar bahan bangunan,Toko Pancaran Berkat,"FW9J+HC5, Marisa Utara, Kec. Marisa, Kabupaten Pohuwato, Gorontalo 96266","Marisa Utara, Kec. Marisa, Kabupaten Pohuwato",GORONTALO,96266.0,Indonesia,,,,0.4688801,1.219.310.992,https://maps.google.com/?cid=0x0:0xb451b02d45c3ffd2,
building materials,Toko,Makmur sentosa marisa,"Jl. Sultan Amai, Marisa Utara, Kec. Marisa, Kabupaten Pohuwato, Gorontalo 96265","Marisa Utara, Kec. Marisa, Kabupaten Pohuwato",GORONTALO,96265.0,Indonesia,8123513478.0,,,0.4723577,1.219.389.063,https://maps.google.com/?cid=0x0:0x7ec3010925b28695,
building materials,Toko Bahan Bangunan,Mentari Jaya Bangunan Marisa,"FWJP+C4W, Sipatana, Kec. Buntulia, Kabupaten Pohuwato, Gorontalo 96466","Sipatana, Kec. Buntulia, Kabupaten Pohuwato",GORONTALO,96466.0,Indonesia,81234324364.0,,,0.4813082,1.219.353.609,https://maps.google.com/?cid=0x0:0x8ed5b3563f67e921,
building materials,Toko Bahan Bangunan,Toko.Maju Bangunan Steel,"FWGQ+5WJ, Jl. Hulude Bunggu, Botubilotahu Indah, Kec. Marisa, Kabupaten Pohuwato, Gorontalo 96265","Jl. Hulude Bunggu, Botubilotahu Indah, Kec. Marisa, Kabupaten Pohuwato",GORONTALO,96265.0,Indonesia,,,,0.4754629,1.219.397.608,https://maps.google.com/?cid=0x0:0xe1a77c65414cbfd6,
building materials,Toko Perlengkapan Rumah,Tk Tosora Indah,"Jl. Trans-Sulawesi No.196, Buntulia Utara, Kec. Buntulia, Kabupaten Pohuwato, Gorontalo 96466","Buntulia Utara, Kec. Buntulia, Kabupaten Pohuwato",GORONTALO,96466.0,Indonesia,,,,0.4981508,1.219.341.003,https://maps.google.com/?cid=0x0:0x8d55dd6d54051320,
building materials,Toko,Toko rahmat bangunan marisa,"FWHR+2PG, Jl. Sultan Amai, Botubilotahu Indah, Kec. Marisa, Kabupaten Pohuwato, Gorontalo 96266","Jl. Sultan Amai, Botubilotahu Indah, Kec. Marisa, Kabupaten Pohuwato",GORONTALO,96266.0,Indonesia,85335589920.0,,,0.4775509,1.219.418.261,https://maps.google.com/?cid=0x0:0xa2bb3be578970397,
building materials,Toko Bahan Bangunan,Mutiara Bangunan,"FWHR+7R3, Botubilotahu Indah, Kec. Marisa, Kabupaten Pohuwato, Gorontalo","Kabupaten Pohuwato, Gorontalo",GORONTALO,,Indonesia,81210245212.0,,,0.4781294,1.219.420.379,https://maps.google.com/?cid=0x0:0xda7e6ff3f7f7987a,
building materials,Toko Bahan Bangunan,Toko Meraki,"Botubilotahu Indah, Kec. Marisa, Kabupaten Pohuwato, Gorontalo","Kabupaten Pohuwato, Gorontalo",GORONTALO,,Indonesia,,,,0.4766025,1.219.354.884,https://maps.google.com/?cid=0x0:0xd28f7fd4ee9882a0,
building materials,building materials,Gorontalo 96468,"Kec. Lemito, Kabupaten Pohuwato, Gorontalo","Kabupaten Pohuwato, Gorontalo",GORONTALO,,Indonesia,,,,0.7390376,1.215.826.642,https://maps.google.com/?cid=0x0:0xbcbfbe464a8e6a55,
building materials,Toko Bahan Bangunan,Mulia Depo Bangunan (MDB),"HH3C+QJH, Jl. Trans-Sulawesi, Lemito Utara, Kec. Lemito, Kabupaten Pohuwato, Gorontalo 96468","Jl. Trans-Sulawesi, Lemito Utara, Kec. Lemito, Kabupaten Pohuwato",GORONTALO,96468.0,Indonesia,82291661879.0,,,0.5541343,1.215.716.613,https://maps.google.com/?cid=0x0:0x2781230fc31a837e,
building materials,building materials,Toko Nusantara Bangunan Lemito,"Jalan Trans Sulawesi Ds. Ponelo, Lemito Utara, Kec. Lemito, Kabupaten Pohuwato, Gorontalo","Kabupaten Pohuwato, Gorontalo",GORONTALO,,Indonesia,85266222296.0,,,0.5474748,1.215.724.118,https://maps.google.com/?cid=0x0:0x1e16e4de03ce4dc7,
building materials,Toko,Toko rahmat bangunan marisa,"FWHR+2PG, Jl. Sultan Amai, Botubilotahu Indah, Kec. Marisa, Kabupaten Pohuwato, Gorontalo 96266","Jl. Sultan Amai, Botubilotahu Indah, Kec. Marisa, Kabupaten Pohuwato",GORONTALO,96266.0,Indonesia,85335589920.0,,,0.4775509,1.219.418.261,https://maps.google.com/?cid=0x0:0xa2bb3be578970397,
building materials,Toko,Makmur sentosa marisa,"Jl. Sultan Amai, Marisa Utara, Kec. Marisa, Kabupaten Pohuwato, Gorontalo 96265","Marisa Utara, Kec. Marisa, Kabupaten Pohuwato",GORONTALO,96265.0,Indonesia,8123513478.0,,,0.4723577,1.219.389.063,https://maps.google.com/?cid=0x0:0x7ec3010925b28695,
building materials,Toko,Marisa Jaya,"FW6X+WXR, Palopo, Kec. Marisa, Kabupaten Pohuwato, Gorontalo 96265","Palopo, Kec. Marisa, Kabupaten Pohuwato",GORONTALO,96265.0,Indonesia,85708091670.0,,,0.4623877,1.219.499.404,https://maps.google.com/?cid=0x0:0x1a1a48ec99897421,
building materials,Toko Bahan Bangunan,Gypsum marisa pohuwato,"FW2Q+JJM, Pohuwato Tim., Kec. Marisa, Kabupaten Pohuwato, Gorontalo","Kabupaten Pohuwato, Gorontalo",GORONTALO,,Indonesia,,,,0.4515922,1.219.390.392,https://maps.google.com/?cid=0x0:0xffeeb20708ac69c3,
building materials,Toko Bahan Bangunan,Toko Jago Bangunan 2,"FWHJ+8XV, Buntulia Jaya, Kec. Marisa, Kabupaten Pohuwato, Gorontalo 96466","Buntulia Jaya, Kec. Marisa, Kabupaten Pohuwato",GORONTALO,96466.0,Indonesia,82358761840.0,,,0.4783581,1.219.324.343,https://maps.google.com/?cid=0x0:0x60be9b90df35cdf5,
building materials,Toko Bahan Bangunan,Mentari Jaya Bangunan Marisa,"FWJP+C4W, Sipatana, Kec. Buntulia, Kabupaten Pohuwato, Gorontalo 96466","Sipatana, Kec. Buntulia, Kabupaten Pohuwato",GORONTALO,96466.0,Indonesia,81234324364.0,,,0.4813082,1.219.353.609,https://maps.google.com/?cid=0x0:0x8ed5b3563f67e921,
building materials,Toko Bahan Bangunan,Toko.Maju Bangunan Steel,"FWGQ+5WJ, Jl. Hulude Bunggu, Botubilotahu Indah, Kec. Marisa, Kabupaten Pohuwato, Gorontalo 96265","Jl. Hulude Bunggu, Botubilotahu Indah, Kec. Marisa, Kabupaten Pohuwato",GORONTALO,96265.0,Indonesia,,,,0.4754629,1.219.397.608,https://maps.google.com/?cid=0x0:0xe1a77c65414cbfd6,
building materials,Pusat Perbelanjaan,RED BANGUNAN,"GF33+GV9, Telaga Biru, Popayato, Kabupaten Pohuwato, Gorontalo 96467","Telaga Biru, Popayato, Kabupaten Pohuwato",GORONTALO,96467.0,Indonesia,,,,0.5037882,1.214.547.358,https://maps.google.com/?cid=0x0:0x68fbf4a4f2ee7c89,
building materials,Toko Bahan Bangunan,TOKO SURYA BANGUNAN MARISA,"FWCQ+36F, Jl. Sultan Amai, Marisa Utara, Kec. Marisa, Kabupaten Pohuwato, Gorontalo 96265","Jl. Sultan Amai, Marisa Utara, Kec. Marisa, Kabupaten Pohuwato",GORONTALO,96265.0,Indonesia,,,,0.4701875,1.219.380.484,https://maps.google.com/?cid=0x0:0x80094912e26dedb8,
building materials,Toko Bahan Bangunan,Mutiara Bangunan,"FWHR+7R3, Botubilotahu Indah, Kec. Marisa, Kabupaten Pohuwato, Gorontalo","Kabupaten Pohuwato, Gorontalo",GORONTALO,,Indonesia,81210245212.0,,,0.4781294,1.219.420.379,https://maps.google.com/?cid=0x0:0xda7e6ff3f7f7987a,
building materials,Kantor Perusahaan,Mayora marisa,"FW2Q+F6W, Unnamed Road, Pohuwato Tim., Kec. Marisa, Kabupaten Pohuwato, Gorontalo","Kabupaten Pohuwato, Gorontalo",GORONTALO,,Indonesia,82191530224.0,,,0.4512413,1.219.380.774,https://maps.google.com/?cid=0x0:0xd806b8bb1ebcacaa,
building materials,Kantor Perusahaan,Blok plan,"FW6V+MW3, Palopo, Kec. Marisa, Kabupaten Pohuwato, Gorontalo","Kabupaten Pohuwato, Gorontalo",GORONTALO,,Indonesia,85145786128.0,,,0.4616383,1.219.447.817,https://maps.google.com/?cid=0x0:0x3ae88992fd97c793,
building materials,Toko Bahan Bangunan,Toko Meraki,"Botubilotahu Indah, Kec. Marisa, Kabupaten Pohuwato, Gorontalo","Kabupaten Pohuwato, Gorontalo",GORONTALO,,Indonesia,,,,0.4766025,1.219.354.884,https://maps.google.com/?cid=0x0:0xd28f7fd4ee9882a0,
building materials,Toko Bahan Bangunan,Primax bangunan,"Jl. Sultan Amai, Marisa Utara, Kec. Marisa, Kabupaten Pohuwato, Gorontalo 96265","Marisa Utara, Kec. Marisa, Kabupaten Pohuwato",GORONTALO,96265.0,Indonesia,81341818643.0,,,0.4726686,1.219.389.643,https://maps.google.com/?cid=0x0:0x4a1749b50b689c70,
building materials,building materials,Kec. Marisa,"Kabupaten Pohuwato, Gorontalo","Kabupaten Pohuwato, Gorontalo",GORONTALO,,Indonesia,,,,0.4701607,121.958.687,https://maps.google.com/?cid=0x0:0xf18aaba667559ff0,
building materials,Toko,PT. Havana Tunas Gemilang,"FW4Q+RVX, Jl. Diponegoro, Marisa Sel., Kec. Marisa, Kabupaten Pohuwato, Gorontalo 96265","Jl. Diponegoro, Marisa Sel., Kec. Marisa, Kabupaten Pohuwato",GORONTALO,96265.0,Indonesia,81248728949.0,,,0.4571104,1.219.397.397,https://maps.google.com/?cid=0x0:0x5dcedf50da2c866,
building materials,Toko Bahan Bangunan,UD. Sinar Palu,"FWGP+GP9, Botubilotahu Indah, Kec. Marisa, Kabupaten Pohuwato, Gorontalo 96265","Botubilotahu Indah, Kec. Marisa, Kabupaten Pohuwato",GORONTALO,96265.0,Indonesia,,,,0.4762925,121.936.847,https://maps.google.com/?cid=0x0:0xe27725c866839d2d,
building materials,Toko Perlengkapan Rumah,Gembira Houseware Marisa,"Jl. Sultan Amai, Marisa Utara, Kec. Marisa, Kabupaten Pohuwato, Gorontalo 96265","Marisa Utara, Kec. Marisa, Kabupaten Pohuwato",GORONTALO,96265.0,Indonesia,82312130800.0,,,0.470532,1.219.384.002,https://maps.google.com/?cid=0x0:0xe12e7b17f351f4ec,
building materials,Pasar bahan bangunan,Toko Pancaran Berkat,"FW9J+HC5, Marisa Utara, Kec. Marisa, Kabupaten Pohuwato, Gorontalo 96266","Marisa Utara, Kec. Marisa, Kabupaten Pohuwato",GORONTALO,96266.0,Indonesia,,,,0.4688801,1.219.310.992,https://maps.google.com/?cid=0x0:0xb451b02d45c3ffd2,
building materials,Toko Bahan Bangunan,Toko Berkat Abadi Bangunan,"Buntulia Tengah, Kec. Marisa, Kabupaten Pohuwato, Gorontalo 96466","Kec. Marisa, Kabupaten Pohuwato",GORONTALO,96466.0,Indonesia,,,,0.4792673,1.219.336.516,https://maps.google.com/?cid=0x0:0x12996b428582795b,
building materials,Toko Perlengkapan Rumah,Toko Miman Mootilango,"CWXR+CHG, Jln. Kerapuh Desa Pohuwato Timur, Marisa, Pohuwato Timur, Marisa, Pohuwato Tim., Kec. Marisa, Marisa, Gorontalo 96265","Jln. Kerapuh Desa Pohuwato Timur, Marisa, Pohuwato Timur, Marisa, Pohuwato Tim., Kec. Marisa, Marisa",GORONTALO,96265.0,Indonesia,85256250259.0,,,0.448557,121.941.455,https://maps.google.com/?cid=0x0:0xbc914cf8107e9e76,
building materials,Pemasok Bahan Bangunan,Toko Maju Bangunan keramik,"FWFJ+WRX, Jl. Trans-Sulawesi, Buntulia Jaya, Kec. Duhiadaa, Kabupaten Pohuwato, Gorontalo 96466","Jl. Trans-Sulawesi, Buntulia Jaya, Kec. Duhiadaa, Kabupaten Pohuwato",GORONTALO,96466.0,Indonesia,,,,0.4748649,1.219.321.084,https://maps.google.com/?cid=0x0:0x7ad93aa3e08e18d7,
building materials,Toko,MR. DIY,"Jl. Trans-Sulawesi, Buntulia Sel., Kec. Duhiadaa, Kabupaten Pohuwato, Gorontalo 96266","Buntulia Sel., Kec. Duhiadaa, Kabupaten Pohuwato",GORONTALO,96266.0,Indonesia,,,,0.4711451,1.219.311.952,https://maps.google.com/?cid=0x0:0x69a796084d575125,
building materials,Toko,UD. Smile Colection Marisa,"FW4Q+H36, Marisa Selatan, Marisa, Pohuwato, Kec. Marisa, Gorontalo, 96265","Marisa Selatan, Marisa, Pohuwato, Kec. Marisa",GORONTALO,96265.0,Indonesia,85241231111.0,,,0.4564042,1.219.376.518,https://maps.google.com/?cid=0x0:0x9e3bf220a75fccd0,
building materials,building materials,Gorontalo 96466,"Kabupaten Pohuwato, Gorontalo","Kabupaten Pohuwato, Gorontalo",GORONTALO,,Indonesia,,,,0.5225929,121.918.866,https://maps.google.com/?cid=0x0:0x51b8962633bca4f,
building materials,Toko,Makmur sentosa marisa,"Jl. Sultan Amai, Marisa Utara, Kec. Marisa, Kabupaten Pohuwato, Gorontalo 96265","Marisa Utara, Kec. Marisa, Kabupaten Pohuwato",GORONTALO,96265.0,Indonesia,8123513478.0,,,0.4723577,1.219.389.063,https://maps.google.com/?cid=0x0:0x7ec3010925b28695,
building materials,Toko,Toko rahmat bangunan marisa,"FWHR+2PG, Jl. Sultan Amai, Botubilotahu Indah, Kec. Marisa, Kabupaten Pohuwato, Gorontalo 96266","Jl. Sultan Amai, Botubilotahu Indah, Kec. Marisa, Kabupaten Pohuwato",GORONTALO,96266.0,Indonesia,85335589920.0,,,0.4775509,1.219.418.261,https://maps.google.com/?cid=0x0:0xa2bb3be578970397,
building materials,Toko Bahan Bangunan,Mentari Jaya Bangunan Marisa,"FWJP+C4W, Sipatana, Kec. Buntulia, Kabupaten Pohuwato, Gorontalo 96466","Sipatana, Kec. Buntulia, Kabupaten Pohuwato",GORONTALO,96466.0,Indonesia,81234324364.0,,,0.4813082,1.219.353.609,https://maps.google.com/?cid=0x0:0x8ed5b3563f67e921,
building materials,Toko Bahan Bangunan,UD. Sinar Palu,"FWGP+GP9, Botubilotahu Indah, Kec. Marisa, Kabupaten Pohuwato, Gorontalo 96265","Botubilotahu Indah, Kec. Marisa, Kabupaten Pohuwato",GORONTALO,96265.0,Indonesia,,,,0.4762925,121.936.847,https://maps.google.com/?cid=0x0:0xe27725c866839d2d,
building materials,Toko Bahan Bangunan,Mutiara Bangunan,"FWHR+7R3, Botubilotahu Indah, Kec. Marisa, Kabupaten Pohuwato, Gorontalo","Kabupaten Pohuwato, Gorontalo",GORONTALO,,Indonesia,81210245212.0,,,0.4781294,1.219.420.379,https://maps.google.com/?cid=0x0:0xda7e6ff3f7f7987a,
building materials,Toko Bahan Bangunan,Toko Berkat Abadi Bangunan,"Buntulia Tengah, Kec. Marisa, Kabupaten Pohuwato, Gorontalo 96466","Kec. Marisa, Kabupaten Pohuwato",GORONTALO,96466.0,Indonesia,,,,0.4792673,1.219.336.516,https://maps.google.com/?cid=0x0:0x12996b428582795b,
building materials,Pemasok Bahan Bangunan,Toko Maju Bangunan keramik,"FWFJ+WRX, Jl. Trans-Sulawesi, Buntulia Jaya, Kec. Duhiadaa, Kabupaten Pohuwato, Gorontalo 96466","Jl. Trans-Sulawesi, Buntulia Jaya, Kec. Duhiadaa, Kabupaten Pohuwato",GORONTALO,96466.0,Indonesia,,,,0.4748649,1.219.321.084,https://maps.google.com/?cid=0x0:0x7ad93aa3e08e18d7,
building materials,Toko Bahan Bangunan,TOKO JAGO BANGUNAN,"Jl. Diponegoro, Pohuwato Tim., Kec. Marisa, Kabupaten Pohuwato, Gorontalo 96265","Pohuwato Tim., Kec. Marisa, Kabupaten Pohuwato",GORONTALO,96265.0,Indonesia,85397810927.0,,,0.4574067,121.936.869,https://maps.google.com/?cid=0x0:0x43dd264c205c1b79,
building materials,Pasar bahan bangunan,Toko Pancaran Berkat,"FW9J+HC5, Marisa Utara, Kec. Marisa, Kabupaten Pohuwato, Gorontalo 96266","Marisa Utara, Kec. Marisa, Kabupaten Pohuwato",GORONTALO,96266.0,Indonesia,,,,0.4688801,1.219.310.992,https://maps.google.com/?cid=0x0:0xb451b02d45c3ffd2,
building materials,Toko Perlengkapan Rumah,Gembira Houseware Marisa,"Jl. Sultan Amai, Marisa Utara, Kec. Marisa, Kabupaten Pohuwato, Gorontalo 96265","Marisa Utara, Kec. Marisa, Kabupaten Pohuwato",GORONTALO,96265.0,Indonesia,82312130800.0,,,0.470532,1.219.384.002,https://maps.google.com/?cid=0x0:0xe12e7b17f351f4ec,
building materials,Toko,PT. Havana Tunas Gemilang,"FW4Q+RVX, Jl. Diponegoro, Marisa Sel., Kec. Marisa, Kabupaten Pohuwato, Gorontalo 96265","Jl. Diponegoro, Marisa Sel., Kec. Marisa, Kabupaten Pohuwato",GORONTALO,96265.0,Indonesia,81248728949.0,,,0.4571104,1.219.397.397,https://maps.google.com/?cid=0x0:0x5dcedf50da2c866,
building materials,Toko Bahan Bangunan,TOKO CAHAYA BANGUNAN,"FWGJ+WW4, Sipatana, Kec. Buntulia, Kabupaten Pohuwato, Gorontalo 96466","Sipatana, Kec. Buntulia, Kabupaten Pohuwato",GORONTALO,96466.0,Indonesia,85185536567.0,,,0.4772533,1.219.323.384,https://maps.google.com/?cid=0x0:0x36941efbe6f07e4a,
building materials,Toko Bahan Bangunan,TOKO SURYA BANGUNAN MARISA,"FWCQ+36F, Jl. Sultan Amai, Marisa Utara, Kec. Marisa, Kabupaten Pohuwato, Gorontalo 96265","Jl. Sultan Amai, Marisa Utara, Kec. Marisa, Kabupaten Pohuwato",GORONTALO,96265.0,Indonesia,,,,0.4701875,1.219.380.484,https://maps.google.com/?cid=0x0:0x80094912e26dedb8,
building materials,Toko Bahan Bangunan,Toko.Maju Bangunan Steel,"FWGQ+5WJ, Jl. Hulude Bunggu, Botubilotahu Indah, Kec. Marisa, Kabupaten Pohuwato, Gorontalo 96265","Jl. Hulude Bunggu, Botubilotahu Indah, Kec. Marisa, Kabupaten Pohuwato",GORONTALO,96265.0,Indonesia,,,,0.4754629,1.219.397.608,https://maps.google.com/?cid=0x0:0xe1a77c65414cbfd6,
building materials,Toko Bahan Bangunan,Toko Meraki,"Botubilotahu Indah, Kec. Marisa, Kabupaten Pohuwato, Gorontalo","Kabupaten Pohuwato, Gorontalo",GORONTALO,,Indonesia,,,,0.4766025,1.219.354.884,https://maps.google.com/?cid=0x0:0xd28f7fd4ee9882a0,
building materials,Toko Bahan Bangunan,Primax bangunan,"Jl. Sultan Amai, Marisa Utara, Kec. Marisa, Kabupaten Pohuwato, Gorontalo 96265","Marisa Utara, Kec. Marisa, Kabupaten Pohuwato",GORONTALO,96265.0,Indonesia,81341818643.0,,,0.4726686,1.219.389.643,https://maps.google.com/?cid=0x0:0x4a1749b50b689c70,
building materials,Toko,MR. DIY,"Jl. Trans-Sulawesi, Buntulia Sel., Kec. Duhiadaa, Kabupaten Pohuwato, Gorontalo 96266","Buntulia Sel., Kec. Duhiadaa, Kabupaten Pohuwato",GORONTALO,96266.0,Indonesia,,,,0.4711451,1.219.311.952,https://maps.google.com/?cid=0x0:0x69a796084d575125,
building materials,Toko,Marisa Jaya,"FW6X+WXR, Palopo, Kec. Marisa, Kabupaten Pohuwato, Gorontalo 96265","Palopo, Kec. Marisa, Kabupaten Pohuwato",GORONTALO,96265.0,Indonesia,85708091670.0,,,0.4623877,1.219.499.404,https://maps.google.com/?cid=0x0:0x1a1a48ec99897421,
building materials,building materials,INDO MAKMUR bangunan,"FWRM+G8G, Jl. Trans-Sulawesi Dusun, Buntulia Tengah, Kec. Duhiadaa, Kabupaten Pohuwato, Gorontalo","Kabupaten Pohuwato, Gorontalo",GORONTALO,,Indonesia,,,,0.4913085,1.219.333.332,https://maps.google.com/?cid=0x0:0x91cb18c9e64c064,
building materials,Toko Bahan Bangunan,Gypsum marisa pohuwato,"FW2Q+JJM, Pohuwato Tim., Kec. Marisa, Kabupaten Pohuwato, Gorontalo","Kabupaten Pohuwato, Gorontalo",GORONTALO,,Indonesia,,,,0.4515922,1.219.390.392,https://maps.google.com/?cid=0x0:0xffeeb20708ac69c3,
building materials,Toko Alat Listrik,TOKO MAJU BERSAMA,"Jl. Trans Sulawesi Dusun Mekar 1 Desa Buntulia, Buntulia Jaya, Kec. Marisa, Kabupaten Pohuwato, Gorontalo 96266","Buntulia Jaya, Kec. Marisa, Kabupaten Pohuwato",GORONTALO,96266.0,Indonesia,8114326872.0,,,0.4748338,1.219.318.411,https://maps.google.com/?cid=0x0:0x78494284ed8dcf27,
building materials,building materials,Kec. Paguat,"Kabupaten Pohuwato, Gorontalo","Kabupaten Pohuwato, Gorontalo",GORONTALO,,Indonesia,,,,0.4910265,122.073.703,https://maps.google.com/?cid=0x0:0x9c57f083f00632a6,
building materials,Taman Kanak-kanak,TK SENG BERTUS,"F3RF+C86, Siduan, Kec. Paguat, Kabupaten Pohuwato, Gorontalo 96265","Siduan, Kec. Paguat, Kabupaten Pohuwato",GORONTALO,96265.0,Indonesia,,,,0.4910364,1.220.732.733,https://maps.google.com/?cid=0x0:0xec6114696d804caf,
building materials,Toko umum,Sinar Abadi Marampak,"FXCR+423, Jl. Trans-Sulawesi, Matabolo, Kec. Bunta, Kabupaten Pohuwato, Gorontalo 96265","Jl. Trans-Sulawesi, Matabolo, Kec. Bunta, Kabupaten Pohuwato",GORONTALO,96265.0,Indonesia,81354608376.0,,,0.470259,1.219.900.591,https://maps.google.com/?cid=0x0:0x1a02ee72a8cc660a,
building materials,Toko Bahan Bangunan,TOKO JAGO BANGUNAN,"Jl. Diponegoro, Pohuwato Tim., Kec. Marisa, Kabupaten Pohuwato, Gorontalo 96265","Pohuwato Tim., Kec. Marisa, Kabupaten Pohuwato",GORONTALO,96265.0,Indonesia,85397810927.0,,,0.4574067,121.936.869,https://maps.google.com/?cid=0x0:0x43dd264c205c1b79,
building materials,building materials,Gorontalo 96266,"Kabupaten Pohuwato, Gorontalo","Kabupaten Pohuwato, Gorontalo",GORONTALO,,Indonesia,,,,0.6235288,1.218.790.306,https://maps.google.com/?cid=0x0:0x6e323a18714b4718,
building materials,Toko,PT. Havana Tunas Gemilang,"FW4Q+RVX, Jl. Diponegoro, Marisa Sel., Kec. Marisa, Kabupaten Pohuwato, Gorontalo 96265","Jl. Diponegoro, Marisa Sel., Kec. Marisa, Kabupaten Pohuwato",GORONTALO,96265.0,Indonesia,81248728949.0,,,0.4571104,1.219.397.397,https://maps.google.com/?cid=0x0:0x5dcedf50da2c866,
building materials,Toko Bahan Bangunan,TOKO JAGO BANGUNAN,"Jl. Diponegoro, Pohuwato Tim., Kec. Marisa, Kabupaten Pohuwato, Gorontalo 96265","Pohuwato Tim., Kec. Marisa, Kabupaten Pohuwato",GORONTALO,96265.0,Indonesia,85397810927.0,,,0.4574067,121.936.869,https://maps.google.com/?cid=0x0:0x43dd264c205c1b79,
building materials,Toko Bahan Bangunan,TOKO CAHAYA BANGUNAN,"FWGJ+WW4, Sipatana, Kec. Buntulia, Kabupaten Pohuwato, Gorontalo 96466","Sipatana, Kec. Buntulia, Kabupaten Pohuwato",GORONTALO,96466.0,Indonesia,85185536567.0,,,0.4772533,1.219.323.384,https://maps.google.com/?cid=0x0:0x36941efbe6f07e4a,
building materials,Pemasok Bahan Bangunan,Toko Maju Bangunan keramik,"FWFJ+WRX, Jl. Trans-Sulawesi, Buntulia Jaya, Kec. Duhiadaa, Kabupaten Pohuwato, Gorontalo 96466","Jl. Trans-Sulawesi, Buntulia Jaya, Kec. Duhiadaa, Kabupaten Pohuwato",GORONTALO,96466.0,Indonesia,,,,0.4748649,1.219.321.084,https://maps.google.com/?cid=0x0:0x7ad93aa3e08e18d7,
building materials,Toko Bahan Bangunan,UD. Sinar Palu,"FWGP+GP9, Botubilotahu Indah, Kec. Marisa, Kabupaten Pohuwato, Gorontalo 96265","Botubilotahu Indah, Kec. Marisa, Kabupaten Pohuwato",GORONTALO,96265.0,Indonesia,,,,0.4762925,121.936.847,https://maps.google.com/?cid=0x0:0xe27725c866839d2d,
building materials,,UD. PUTRA HUYULA,"Huyula, Kec. Randangan, Kabupaten Pohuwato, Gorontalo 96469","Kec. Randangan, Kabupaten Pohuwato",GORONTALO,96469.0,Indonesia,82226666966.0,,,0.5077318,1.218.117.379,https://maps.google.com/?cid=0x0:0x66f3cfc85c3725a,
building materials,Toko Bahan Bangunan,TOKO RANDY,"JVQ6+R48, Tirto Asri, Kec. Taluditi, Kabupaten Pohuwato, Gorontalo 96266","Tirto Asri, Kec. Taluditi, Kabupaten Pohuwato",GORONTALO,96266.0,Indonesia,87873964625.0,,,0.6395403,1.218.603.388,https://maps.google.com/?cid=0x0:0x142454996efe93fc,
building materials,Toko,Makmur sentosa marisa,"Jl. Sultan Amai, Marisa Utara, Kec. Marisa, Kabupaten Pohuwato, Gorontalo 96265","Marisa Utara, Kec. Marisa, Kabupaten Pohuwato",GORONTALO,96265.0,Indonesia,8123513478.0,,,0.4723577,1.219.389.063,https://maps.google.com/?cid=0x0:0x7ec3010925b28695,
building materials,Toko Bahan Bangunan,Toko Jago Bangunan 2,"FWHJ+8XV, Buntulia Jaya, Kec. Marisa, Kabupaten Pohuwato, Gorontalo 96466","Buntulia Jaya, Kec. Marisa, Kabupaten Pohuwato",GORONTALO,96466.0,Indonesia,82358761840.0,,,0.4783581,1.219.324.343,https://maps.google.com/?cid=0x0:0x60be9b90df35cdf5,
building materials,Pasar bahan bangunan,Toko Pancaran Berkat,"FW9J+HC5, Marisa Utara, Kec. Marisa, Kabupaten Pohuwato, Gorontalo 96266","Marisa Utara, Kec. Marisa, Kabupaten Pohuwato",GORONTALO,96266.0,Indonesia,,,,0.4688801,1.219.310.992,https://maps.google.com/?cid=0x0:0xb451b02d45c3ffd2,
building materials,Toko Bahan Bangunan,Toko Sumber Bangunan Taluditi .pangkalan LPG .ahmadagusalim,"JRMC+G43, Unnamed Road, Panca Karsa II, Kec. Taluditi, Kabupaten Pohuwato, Gorontalo 96469","Unnamed Road, Panca Karsa II, Kec. Taluditi, Kabupaten Pohuwato",GORONTALO,96469.0,Indonesia,,,,0.6337585,1.218.202.861,https://maps.google.com/?cid=0x0:0xfd3f43d10d637df9,
building materials,Toko Bahan Bangunan,Rahma Bangunan,"JR22+GXP, Panca Karsa I, Kec. Taluditi, Kabupaten Pohuwato, Gorontalo 96469","Panca Karsa I, Kec. Taluditi, Kabupaten Pohuwato",GORONTALO,96469.0,Indonesia,,,,0.601342,1.218.024.383,https://maps.google.com/?cid=0x0:0xe03cabf18aeb720c,
building materials,Toko Bahan Bangunan,Toko Cahaya Dini,"GQXQ+X4H, Jl trans sulawesi,toko kosmetik cahaya shop,di dekat gereja katolik,samping pertigaan kantor pos (Toko cahaya shop), KAB. POHUWATO, Kec. Randangan, Kabupaten Gorontalo, 96469","Jl trans sulawesi,toko kosmetik cahaya shop,di dekat gereja katolik,samping pertigaan kantor pos (Toko cahaya shop), KAB. POHUWATO, Kec. Randangan",GORONTALO,96469.0,Indonesia,85256686262.0,,,0.5499363,1.217.878.481,https://maps.google.com/?cid=0x0:0x51b2be60ca852188,
building materials,Toko,Toko rahmat bangunan marisa,"FWHR+2PG, Jl. Sultan Amai, Botubilotahu Indah, Kec. Marisa, Kabupaten Pohuwato, Gorontalo 96266","Jl. Sultan Amai, Botubilotahu Indah, Kec. Marisa, Kabupaten Pohuwato",GORONTALO,96266.0,Indonesia,85335589920.0,,,0.4775509,1.219.418.261,https://maps.google.com/?cid=0x0:0xa2bb3be578970397,
building materials,Toko Bahan Bangunan,Toko Berkat Abadi Bangunan,"Buntulia Tengah, Kec. Marisa, Kabupaten Pohuwato, Gorontalo 96466","Kec. Marisa, Kabupaten Pohuwato",GORONTALO,96466.0,Indonesia,,,,0.4792673,1.219.336.516,https://maps.google.com/?cid=0x0:0x12996b428582795b,
building materials,Toko Bahan Bangunan,Mentari Jaya Bangunan Marisa,"FWJP+C4W, Sipatana, Kec. Buntulia, Kabupaten Pohuwato, Gorontalo 96466","Sipatana, Kec. Buntulia, Kabupaten Pohuwato",GORONTALO,96466.0,Indonesia,81234324364.0,,,0.4813082,1.219.353.609,https://maps.google.com/?cid=0x0:0x8ed5b3563f67e921,
building materials,Toko Bahan Bangunan,Mutiara Bangunan,"FWHR+7R3, Botubilotahu Indah, Kec. Marisa, Kabupaten Pohuwato, Gorontalo","Kabupaten Pohuwato, Gorontalo",GORONTALO,,Indonesia,81210245212.0,,,0.4781294,1.219.420.379,https://maps.google.com/?cid=0x0:0xda7e6ff3f7f7987a,
building materials,Toko Mebel,UD.MEUBEL AKBAR,"Jl.napoleon, dusun kramat. Sebelum gereja pante kosta pertama sebelah kanan Pas dekat dgn bangunan besar belum terplester, Pohuwato Tim., Kec. Marisa, Kabupaten Pohuwato, Gorontalo 96266","dusun kramat. Sebelum gereja pante kosta pertama sebelah kanan Pas dekat dgn bangunan besar belum terplester, Pohuwato Tim., Kec. Marisa, Kabupaten Pohuwato",GORONTALO,96266.0,Indonesia,82194917825.0,,,0.4529825,1.219.384.271,https://maps.google.com/?cid=0x0:0xcfad6388e1916e3d,
building materials,Toko Bahan Bangunan,Toko Asy Bangunan,"Sipatana, Kec. Buntulia, Kabupaten Pohuwato, Gorontalo","Kabupaten Pohuwato, Gorontalo",GORONTALO,,Indonesia,,,,0.4816032,1.219.251.878,https://maps.google.com/?cid=0x0:0x5221518e0391d42e,
building materials,Toko Alat Listrik,Ud Petani Jaya,"GPJG+V8Q, Jl. Trans-Sulawesi, Sidorukun, Kec. Randangan, Kabupaten Pohuwato, Gorontalo 96469","Jl. Trans-Sulawesi, Sidorukun, Kec. Randangan, Kabupaten Pohuwato",GORONTALO,96469.0,Indonesia,,,,0.5322246,1.217.258.591,https://maps.google.com/?cid=0x0:0x532afe9d5e0c006e,
building materials,,Toko bangunan pujangga,"pertigaan indomaret masuk dalam, Jl. Trans-Sulawesi, Motolohu, Kec. Randangan, Kabupaten Pohuwato, Gorontalo","Kabupaten Pohuwato, Gorontalo",GORONTALO,,Indonesia,,,,0.5333526,1.218.148.921,https://maps.google.com/?cid=0x0:0x14bdf2917c823fb3,
building materials,building materials,Kec. Patilanggio,"Kabupaten Pohuwato, Gorontalo","Kabupaten Pohuwato, Gorontalo",GORONTALO,,Indonesia,,,,0.5468802,12.186.498,https://maps.google.com/?cid=0x0:0x53eff626ccc95490,
building materials,building materials,INDO MAKMUR bangunan,"FWRM+G8G, Jl. Trans-Sulawesi Dusun, Buntulia Tengah, Kec. Duhiadaa, Kabupaten Pohuwato, Gorontalo","Kabupaten Pohuwato, Gorontalo",GORONTALO,,Indonesia,,,,0.4913085,1.219.333.332,https://maps.google.com/?cid=0x0:0x91cb18c9e64c064,
building materials,Toko Perlengkapan Rumah,Tk Tosora Indah,"Jl. Trans-Sulawesi No.196, Buntulia Utara, Kec. Buntulia, Kabupaten Pohuwato, Gorontalo 96466","Buntulia Utara, Kec. Buntulia, Kabupaten Pohuwato",GORONTALO,96466.0,Indonesia,,,,0.4981508,1.219.341.003,https://maps.google.com/?cid=0x0:0x8d55dd6d54051320,
building materials,building materials,Toko Indo Makmur Bangunan,"FWFJ+3JR, Buntulia Sel., Kec. Duhiadaa, Kabupaten Pohuwato, Gorontalo","Kabupaten Pohuwato, Gorontalo",GORONTALO,,Indonesia,,,,0.4727377,1.219.315.092,https://maps.google.com/?cid=0x0:0xf09e90b4f1cca912,
building materials,Toko Bahan Bangunan,Al_Amin bangunan,"G44P+GQ7, Tabulo, Kec. Mananggu, Kabupaten Boalemo, Gorontalo 96264","Tabulo, Kec. Mananggu, Kabupaten Boalemo",GORONTALO,96264.0,Indonesia,,,,0.5062805,1.221.369.233,https://maps.google.com/?cid=0x0:0x3f903572fd93e1a7,
building materials,building materials,Gorontalo 96467,"Kabupaten Pohuwato, Gorontalo","Kabupaten Pohuwato, Gorontalo",GORONTALO,,Indonesia,,,,0.7082941,1.213.541.631,https://maps.google.com/?cid=0x0:0x6a37da13e8b9d9f7,
building materials,Toko Bahan Bangunan,MEGA DEPO BANGUNAN,"FCV7+84C, Bar, Dudewulo, Kec. Popayato Bar., Kabupaten Pohuwato, Gorontalo 96467","Bar, Dudewulo, Kec. Popayato Bar., Kabupaten Pohuwato",GORONTALO,96467.0,Indonesia,,,,0.4933219,121.412.767,https://maps.google.com/?cid=0x0:0xae13135ae7d1637,
building materials,Pusat Perbelanjaan,RED BANGUNAN,"GF33+GV9, Telaga Biru, Popayato, Kabupaten Pohuwato, Gorontalo 96467","Telaga Biru, Popayato, Kabupaten Pohuwato",GORONTALO,96467.0,Indonesia,,,,0.5037882,1.214.547.358,https://maps.google.com/?cid=0x0:0x68fbf4a4f2ee7c89,
building materials,ATM,BRI Unit Tapal Batas,"GF8J+34G, Maleo, Kec. Popayato Tim., Kabupaten Pohuwato, Gorontalo 96467","Maleo, Kec. Popayato Tim., Kabupaten Pohuwato",GORONTALO,96467.0,Indonesia,,,,0.5151915,1.214.803.343,https://maps.google.com/?cid=0x0:0x3d295056210afd3e,
building materials,Pusat Perbelanjaan,Central Bangunan,"GF8M+VFG, Maleo, Kec. Popayato Tim., Kabupaten Pohuwato, Gorontalo 96467","Maleo, Kec. Popayato Tim., Kabupaten Pohuwato",GORONTALO,96467.0,Indonesia,85708091670.0,,,0.5171993,1.214.836.883,https://maps.google.com/?cid=0x0:0xb7fadfe4998a5b29,
building materials,Toko,Toko STAR UTAMA,"GFCQ+Q98, Maleo, Kec. Popayato Tim., Kabupaten Pohuwato, Gorontalo 96467","Maleo, Kec. Popayato Tim., Kabupaten Pohuwato",GORONTALO,96467.0,Indonesia,,,,0.5219051,1.214.884.559,https://maps.google.com/?cid=0x0:0x9b1d65ef7d83f37c,
building materials,Toko,Toko Lestari,"GFCQ+Q98, Maleo, Kec. Popayato Tim., Kabupaten Pohuwato, Gorontalo 96467","Maleo, Kec. Popayato Tim., Kabupaten Pohuwato",GORONTALO,96467.0,Indonesia,,,,0.5221754,1.214.882.267,https://maps.google.com/?cid=0x0:0xe12cdc4d16f7db2f,
building materials,Toko Perlengkapan Rumah,Toko Fathur,"Jl. Trans-Sulawesi, Telaga Biru, Popayato, Kabupaten Pohuwato, Gorontalo 96467","Telaga Biru, Popayato, Kabupaten Pohuwato",GORONTALO,96467.0,Indonesia,,,,0.5041646,1.214.542.879,https://maps.google.com/?cid=0x0:0x886eea98947c2879,
building materials,Toko Bahan Bangunan,TOKO JAGO BANGUNAN,"Jl. Diponegoro, Pohuwato Tim., Kec. Marisa, Kabupaten Pohuwato, Gorontalo 96265","Pohuwato Tim., Kec. Marisa, Kabupaten Pohuwato",GORONTALO,96265.0,Indonesia,85397810927.0,,,0.4574067,121.936.869,https://maps.google.com/?cid=0x0:0x43dd264c205c1b79,
building materials,Toko Bahan Bangunan,Toko cahaya pangkep,"GF7M+W7M, Jl. Trans-Sulawesi, Maleo, Kec. Popayato Tim., Kabupaten Pohuwato, Gorontalo 96467","Jl. Trans-Sulawesi, Maleo, Kec. Popayato Tim., Kabupaten Pohuwato",GORONTALO,96467.0,Indonesia,81381692050.0,,,0.5148384,1.214.831.669,https://maps.google.com/?cid=0x0:0x7df0129707605345,
building materials,Perusahaan Operasi Pelabuhan,PT. BIOMASA JAYA ABADI,"MFXJ+5J, Klp. Lima, Kec. Popayato Tim., Kabupaten Pohuwato, Gorontalo","Kabupaten Pohuwato, Gorontalo",GORONTALO,,Indonesia,,,,0.6979465,1.214.815.976,https://maps.google.com/?cid=0x0:0x68a9ed7499911b59,
building materials,Toko Bahan Bangunan,Rahma Bangunan,"JR22+GXP, Panca Karsa I, Kec. Taluditi, Kabupaten Pohuwato, Gorontalo 96469","Panca Karsa I, Kec. Taluditi, Kabupaten Pohuwato",GORONTALO,96469.0,Indonesia,,,,0.601342,1.218.024.383,https://maps.google.com/?cid=0x0:0xe03cabf18aeb720c,
building materials,Toko bahan makanan,"Toko Pro As central water treatment, listrik dan bangunan","Jl. Palma, Huangobotu, Kec. Dungingi, Kota Gorontalo, Gorontalo 96136","Huangobotu, Kec. Dungingi, Kota Gorontalo",GORONTALO,96136.0,Indonesia,85768717059.0,,,0.5587737,1.230.380.878,https://maps.google.com/?cid=0x0:0xdeb075cb08fc4a8b,
building materials,building materials,"2vU4aO3qO9y_4-EPhfXl2Qo-,null,null,1,null,""https://www.google.com/maps/preview/place/Lembah+Mada+Perkasa/@-2.44565,117.8888,3986a,13.1y/datau003d!4m2!3m1!1s0x47413db6363205f7:0x8ef4308943cecf7c""",,,GORONTALO,,Indonesia,82290311862.0,,,-244.565,1.178.888,https://maps.google.com/?cid=0x0:0x8ef4308943cecf7c,
building materials,Bengkel Sepeda Motor,Nb Cutting sticker Dan plat nomor kendaraan,"GF7H+XQV, Jl. Trans-Sulawesi, Maleo, Kec. Popayato Tim., Kabupaten Pohuwato, Gorontalo 96467","Jl. Trans-Sulawesi, Maleo, Kec. Popayato Tim., Kabupaten Pohuwato",GORONTALO,96467.0,Indonesia,,,,0.5149785,1.214.794.252,https://maps.google.com/?cid=0x0:0x62f64e684ee13cee,
building materials,Layanan Transportasi,Dermaga PT.BJA,"FFJG+XV2, Unnamed Road, Trikora, Popayato, Kabupaten Pohuwato, Gorontalo 96467","Unnamed Road, Trikora, Popayato, Kabupaten Pohuwato",GORONTALO,96467.0,Indonesia,,,,0.4823783,12.147.715,https://maps.google.com/?cid=0x0:0xa204423b1569aba8,
building materials,building materials,Gorontalo 96467,"Kabupaten Pohuwato, Gorontalo","Kabupaten Pohuwato, Gorontalo",GORONTALO,,Indonesia,,,,0.7082941,1.213.541.631,https://maps.google.com/?cid=0x0:0x6a37da13e8b9d9f7,
building materials,Pusat Perbelanjaan,RED BANGUNAN,"GF33+GV9, Telaga Biru, Popayato, Kabupaten Pohuwato, Gorontalo 96467","Telaga Biru, Popayato, Kabupaten Pohuwato",GORONTALO,96467.0,Indonesia,,,,0.5037882,1.214.547.358,https://maps.google.com/?cid=0x0:0x68fbf4a4f2ee7c89,
building materials,Toko Bahan Bangunan,MEGA DEPO BANGUNAN,"FCV7+84C, Bar, Dudewulo, Kec. Popayato Bar., Kabupaten Pohuwato, Gorontalo 96467","Bar, Dudewulo, Kec. Popayato Bar., Kabupaten Pohuwato",GORONTALO,96467.0,Indonesia,,,,0.4933219,121.412.767,https://maps.google.com/?cid=0x0:0xae13135ae7d1637,
building materials,Toko Bahan Bangunan,Toko cahaya pangkep,"GF7M+W7M, Jl. Trans-Sulawesi, Maleo, Kec. Popayato Tim., Kabupaten Pohuwato, Gorontalo 96467","Jl. Trans-Sulawesi, Maleo, Kec. Popayato Tim., Kabupaten Pohuwato",GORONTALO,96467.0,Indonesia,81381692050.0,,,0.5148384,1.214.831.669,https://maps.google.com/?cid=0x0:0x7df0129707605345,
building materials,Toko,Toko STAR UTAMA,"GFCQ+Q98, Maleo, Kec. Popayato Tim., Kabupaten Pohuwato, Gorontalo 96467","Maleo, Kec. Popayato Tim., Kabupaten Pohuwato",GORONTALO,96467.0,Indonesia,,,,0.5219051,1.214.884.559,https://maps.google.com/?cid=0x0:0x9b1d65ef7d83f37c,
building materials,Toko Bahan Bangunan,Mulia Depo Bangunan (MDB),"HH3C+QJH, Jl. Trans-Sulawesi, Lemito Utara, Kec. Lemito, Kabupaten Pohuwato, Gorontalo 96468","Jl. Trans-Sulawesi, Lemito Utara, Kec. Lemito, Kabupaten Pohuwato",GORONTALO,96468.0,Indonesia,82291661879.0,,,0.5541343,1.215.716.613,https://maps.google.com/?cid=0x0:0x2781230fc31a837e,
building materials,Toko,Toko Lestari,"GFCQ+Q98, Maleo, Kec. Popayato Tim., Kabupaten Pohuwato, Gorontalo 96467","Maleo, Kec. Popayato Tim., Kabupaten Pohuwato",GORONTALO,96467.0,Indonesia,,,,0.5221754,1.214.882.267,https://maps.google.com/?cid=0x0:0xe12cdc4d16f7db2f,
building materials,Toko Perlengkapan Rumah,Toko Fathur,"Jl. Trans-Sulawesi, Telaga Biru, Popayato, Kabupaten Pohuwato, Gorontalo 96467","Telaga Biru, Popayato, Kabupaten Pohuwato",GORONTALO,96467.0,Indonesia,,,,0.5041646,1.214.542.879,https://maps.google.com/?cid=0x0:0x886eea98947c2879,
building materials,building materials,Toko Nusantara Bangunan Lemito,"Jalan Trans Sulawesi Ds. Ponelo, Lemito Utara, Kec. Lemito, Kabupaten Pohuwato, Gorontalo","Kabupaten Pohuwato, Gorontalo",GORONTALO,,Indonesia,85266222296.0,,,0.5474748,1.215.724.118,https://maps.google.com/?cid=0x0:0x1e16e4de03ce4dc7,
building materials,Toko Bahan Bangunan,UD. Berkah Djaya,"HH2C+7V7, Jl. Trans-Sulawesi, Lemito Utara, Kec. Lemito, Kabupaten Pohuwato, Gorontalo 96468","Jl. Trans-Sulawesi, Lemito Utara, Kec. Lemito, Kabupaten Pohuwato",GORONTALO,96468.0,Indonesia,,,,0.5506555,1.215.721.746,https://maps.google.com/?cid=0x0:0xd139f18e7ffd6233,
building materials,ATM,BRI Unit Tapal Batas,"GF8J+34G, Maleo, Kec. Popayato Tim., Kabupaten Pohuwato, Gorontalo 96467","Maleo, Kec. Popayato Tim., Kabupaten Pohuwato",GORONTALO,96467.0,Indonesia,,,,0.5151915,1.214.803.343,https://maps.google.com/?cid=0x0:0x3d295056210afd3e,
building materials,Perusahaan Operasi Pelabuhan,PT. BIOMASA JAYA ABADI,"MFXJ+5J, Klp. Lima, Kec. Popayato Tim., Kabupaten Pohuwato, Gorontalo","Kabupaten Pohuwato, Gorontalo",GORONTALO,,Indonesia,,,,0.6979465,1.214.815.976,https://maps.google.com/?cid=0x0:0x68a9ed7499911b59,
building materials,Layanan Transportasi,Dermaga PT.BJA,"FFJG+XV2, Unnamed Road, Trikora, Popayato, Kabupaten Pohuwato, Gorontalo 96467","Unnamed Road, Trikora, Popayato, Kabupaten Pohuwato",GORONTALO,96467.0,Indonesia,,,,0.4823783,12.147.715,https://maps.google.com/?cid=0x0:0xa204423b1569aba8,
building materials,Bengkel Sepeda Motor,Nb Cutting sticker Dan plat nomor kendaraan,"GF7H+XQV, Jl. Trans-Sulawesi, Maleo, Kec. Popayato Tim., Kabupaten Pohuwato, Gorontalo 96467","Jl. Trans-Sulawesi, Maleo, Kec. Popayato Tim., Kabupaten Pohuwato",GORONTALO,96467.0,Indonesia,,,,0.5149785,1.214.794.252,https://maps.google.com/?cid=0x0:0x62f64e684ee13cee,
building materials,building materials,"DvY4aJvhBd2dseMP_pXUiQ0-,null,null,1,null,""https://www.google.com/maps/preview/place/Lembah+Mada+Perkasa/@-2.44565,117.8888,3986a,13.1y/datau003d!4m2!3m1!1s0x47413db6363205f7:0x8ef4308943cecf7c""",,,GORONTALO,,Indonesia,82290311862.0,,,-244.565,1.178.888,https://maps.google.com/?cid=0x0:0x8ef4308943cecf7c,
building materials,building materials,Kec. Popayato Tim.,"Kabupaten Pohuwato, Gorontalo","Kabupaten Pohuwato, Gorontalo",GORONTALO,,Indonesia,,,,0.521171,1.214.876.076,https://maps.google.com/?cid=0x0:0xabc56e34572880b2,
building materials,Pusat Perbelanjaan,Central Bangunan,"GF8M+VFG, Maleo, Kec. Popayato Tim., Kabupaten Pohuwato, Gorontalo 96467","Maleo, Kec. Popayato Tim., Kabupaten Pohuwato",GORONTALO,96467.0,Indonesia,85708091670.0,,,0.5171993,1.214.836.883,https://maps.google.com/?cid=0x0:0xb7fadfe4998a5b29,
building materials,Pusat Perbelanjaan,RED BANGUNAN,"GF33+GV9, Telaga Biru, Popayato, Kabupaten Pohuwato, Gorontalo 96467","Telaga Biru, Popayato, Kabupaten Pohuwato",GORONTALO,96467.0,Indonesia,,,,0.5037882,1.214.547.358,https://maps.google.com/?cid=0x0:0x68fbf4a4f2ee7c89,
building materials,Toko,Toko STAR UTAMA,"GFCQ+Q98, Maleo, Kec. Popayato Tim., Kabupaten Pohuwato, Gorontalo 96467","Maleo, Kec. Popayato Tim., Kabupaten Pohuwato",GORONTALO,96467.0,Indonesia,,,,0.5219051,1.214.884.559,https://maps.google.com/?cid=0x0:0x9b1d65ef7d83f37c,
building materials,Toko Bahan Bangunan,Toko cahaya pangkep,"GF7M+W7M, Jl. Trans-Sulawesi, Maleo, Kec. Popayato Tim., Kabupaten Pohuwato, Gorontalo 96467","Jl. Trans-Sulawesi, Maleo, Kec. Popayato Tim., Kabupaten Pohuwato",GORONTALO,96467.0,Indonesia,81381692050.0,,,0.5148384,1.214.831.669,https://maps.google.com/?cid=0x0:0x7df0129707605345,
building materials,Toko,Toko Lestari,"GFCQ+Q98, Maleo, Kec. Popayato Tim., Kabupaten Pohuwato, Gorontalo 96467","Maleo, Kec. Popayato Tim., Kabupaten Pohuwato",GORONTALO,96467.0,Indonesia,,,,0.5221754,1.214.882.267,https://maps.google.com/?cid=0x0:0xe12cdc4d16f7db2f,
building materials,Toko Bahan Bangunan,Mulia Depo Bangunan (MDB),"HH3C+QJH, Jl. Trans-Sulawesi, Lemito Utara, Kec. Lemito, Kabupaten Pohuwato, Gorontalo 96468","Jl. Trans-Sulawesi, Lemito Utara, Kec. Lemito, Kabupaten Pohuwato",GORONTALO,96468.0,Indonesia,82291661879.0,,,0.5541343,1.215.716.613,https://maps.google.com/?cid=0x0:0x2781230fc31a837e,
building materials,Toko Perlengkapan Rumah,Toko Fathur,"Jl. Trans-Sulawesi, Telaga Biru, Popayato, Kabupaten Pohuwato, Gorontalo 96467","Telaga Biru, Popayato, Kabupaten Pohuwato",GORONTALO,96467.0,Indonesia,,,,0.5041646,1.214.542.879,https://maps.google.com/?cid=0x0:0x886eea98947c2879,
building materials,Toko Bahan Bangunan,UD. Berkah Djaya,"HH2C+7V7, Jl. Trans-Sulawesi, Lemito Utara, Kec. Lemito, Kabupaten Pohuwato, Gorontalo 96468","Jl. Trans-Sulawesi, Lemito Utara, Kec. Lemito, Kabupaten Pohuwato",GORONTALO,96468.0,Indonesia,,,,0.5506555,1.215.721.746,https://maps.google.com/?cid=0x0:0xd139f18e7ffd6233,
building materials,building materials,Kec. Popayato Tim.,"Kabupaten Pohuwato, Gorontalo","Kabupaten Pohuwato, Gorontalo",GORONTALO,,Indonesia,,,,0.521171,1.214.876.076,https://maps.google.com/?cid=0x0:0xabc56e34572880b2,
building materials,Pusat Perbelanjaan,Central Bangunan,"GF8M+VFG, Maleo, Kec. Popayato Tim., Kabupaten Pohuwato, Gorontalo 96467","Maleo, Kec. Popayato Tim., Kabupaten Pohuwato",GORONTALO,96467.0,Indonesia,85708091670.0,,,0.5171993,1.214.836.883,https://maps.google.com/?cid=0x0:0xb7fadfe4998a5b29,
building materials,Pusat Perbelanjaan,RED BANGUNAN,"GF33+GV9, Telaga Biru, Popayato, Kabupaten Pohuwato, Gorontalo 96467","Telaga Biru, Popayato, Kabupaten Pohuwato",GORONTALO,96467.0,Indonesia,,,,0.5037882,1.214.547.358,https://maps.google.com/?cid=0x0:0x68fbf4a4f2ee7c89,
building materials,Toko,Toko STAR UTAMA,"GFCQ+Q98, Maleo, Kec. Popayato Tim., Kabupaten Pohuwato, Gorontalo 96467","Maleo, Kec. Popayato Tim., Kabupaten Pohuwato",GORONTALO,96467.0,Indonesia,,,,0.5219051,1.214.884.559,https://maps.google.com/?cid=0x0:0x9b1d65ef7d83f37c,
building materials,Toko Bahan Bangunan,Toko cahaya pangkep,"GF7M+W7M, Jl. Trans-Sulawesi, Maleo, Kec. Popayato Tim., Kabupaten Pohuwato, Gorontalo 96467","Jl. Trans-Sulawesi, Maleo, Kec. Popayato Tim., Kabupaten Pohuwato",GORONTALO,96467.0,Indonesia,81381692050.0,,,0.5148384,1.214.831.669,https://maps.google.com/?cid=0x0:0x7df0129707605345,
building materials,Toko,Toko Lestari,"GFCQ+Q98, Maleo, Kec. Popayato Tim., Kabupaten Pohuwato, Gorontalo 96467","Maleo, Kec. Popayato Tim., Kabupaten Pohuwato",GORONTALO,96467.0,Indonesia,,,,0.5221754,1.214.882.267,https://maps.google.com/?cid=0x0:0xe12cdc4d16f7db2f,
building materials,building materials,Kec. Randangan,"Kabupaten Pohuwato, Gorontalo","Kabupaten Pohuwato, Gorontalo",GORONTALO,,Indonesia,,,,0.536787,1.218.156.097,https://maps.google.com/?cid=0x0:0xae3be2603f746c2c,
building materials,Toko Alat Listrik,Ud Petani Jaya,"GPJG+V8Q, Jl. Trans-Sulawesi, Sidorukun, Kec. Randangan, Kabupaten Pohuwato, Gorontalo 96469","Jl. Trans-Sulawesi, Sidorukun, Kec. Randangan, Kabupaten Pohuwato",GORONTALO,96469.0,Indonesia,,,,0.5322246,1.217.258.591,https://maps.google.com/?cid=0x0:0x532afe9d5e0c006e,
building materials,Toko Bahan Bangunan,Rahma Bangunan,"JR22+GXP, Panca Karsa I, Kec. Taluditi, Kabupaten Pohuwato, Gorontalo 96469","Panca Karsa I, Kec. Taluditi, Kabupaten Pohuwato",GORONTALO,96469.0,Indonesia,,,,0.601342,1.218.024.383,https://maps.google.com/?cid=0x0:0xe03cabf18aeb720c,
building materials,Toko Bahan Bangunan,Toko Cahaya Dini,"GQXQ+X4H, Jl trans sulawesi,toko kosmetik cahaya shop,di dekat gereja katolik,samping pertigaan kantor pos (Toko cahaya shop), KAB. POHUWATO, Kec. Randangan, Kabupaten Gorontalo, 96469","Jl trans sulawesi,toko kosmetik cahaya shop,di dekat gereja katolik,samping pertigaan kantor pos (Toko cahaya shop), KAB. POHUWATO, Kec. Randangan",GORONTALO,96469.0,Indonesia,85256686262.0,,,0.5499363,1.217.878.481,https://maps.google.com/?cid=0x0:0x51b2be60ca852188,
building materials,,Toko Maja Utama,"HQ2P+GQ5, Banuroja, Kec. Randangan, Kabupaten Pohuwato, Gorontalo 96469","Banuroja, Kec. Randangan, Kabupaten Pohuwato",GORONTALO,96469.0,Indonesia,,,,0.5509471,1.217.874.025,https://maps.google.com/?cid=0x0:0x5a25995e1893949,
building materials,Toko,Toko Alif Bangunan,"HQ2P+GQ5, Banuroja, Kec. Randangan, Kabupaten Pohuwato, Gorontalo 96469","Banuroja, Kec. Randangan, Kabupaten Pohuwato",GORONTALO,96469.0,Indonesia,,,,0.5510701,1.217.872.775,https://maps.google.com/?cid=0x0:0x8dd8f0b9b43ecc25,
building materials,Toko Bahan Bangunan,UD. Piranti Jaya,"GRG4+R9J, Jl. Trans-Sulawesi, Motolohu, Kec. Randangan, Kabupaten Pohuwato, Gorontalo 96469","Jl. Trans-Sulawesi, Motolohu, Kec. Randangan, Kabupaten Pohuwato",GORONTALO,96469.0,Indonesia,,,,0.5270889,1.218.058.801,https://maps.google.com/?cid=0x0:0x35c7a2b59280da3f,
building materials,,Toko bangunan pujangga,"pertigaan indomaret masuk dalam, Jl. Trans-Sulawesi, Motolohu, Kec. Randangan, Kabupaten Pohuwato, Gorontalo","Kabupaten Pohuwato, Gorontalo",GORONTALO,,Indonesia,,,,0.5333526,1.218.148.921,https://maps.google.com/?cid=0x0:0x14bdf2917c823fb3,
building materials,Toko Bahan Bangunan,TOKO RANDY,"JVQ6+R48, Tirto Asri, Kec. Taluditi, Kabupaten Pohuwato, Gorontalo 96266","Tirto Asri, Kec. Taluditi, Kabupaten Pohuwato",GORONTALO,96266.0,Indonesia,87873964625.0,,,0.6395403,1.218.603.388,https://maps.google.com/?cid=0x0:0x142454996efe93fc,
building materials,Toko Bahan Bangunan,Toko Sumber Bangunan Taluditi .pangkalan LPG .ahmadagusalim,"JRMC+G43, Unnamed Road, Panca Karsa II, Kec. Taluditi, Kabupaten Pohuwato, Gorontalo 96469","Unnamed Road, Panca Karsa II, Kec. Taluditi, Kabupaten Pohuwato",GORONTALO,96469.0,Indonesia,,,,0.6337585,1.218.202.861,https://maps.google.com/?cid=0x0:0xfd3f43d10d637df9,
building materials,Toko Bahan Bangunan,TOKO JAGO BANGUNAN,"Jl. Diponegoro, Pohuwato Tim., Kec. Marisa, Kabupaten Pohuwato, Gorontalo 96265","Pohuwato Tim., Kec. Marisa, Kabupaten Pohuwato",GORONTALO,96265.0,Indonesia,85397810927.0,,,0.4574067,121.936.869,https://maps.google.com/?cid=0x0:0x43dd264c205c1b79,
building materials,Toko Bahan Bangunan,Toko bangunan Bengawan solo,"GRJ7+PHX, Jl. Lorong pasar randangan Dusun makmur jaya, Manunggal Karya, Kec. Randangan, Kabupaten Pohuwato, Gorontalo 96469","Jl. Lorong pasar randangan Dusun makmur jaya, Manunggal Karya, Kec. Randangan, Kabupaten Pohuwato",GORONTALO,96469.0,Indonesia,,,,0.5318632,1.218.139.786,https://maps.google.com/?cid=0x0:0x2a5eaf49d56d5b3,
building materials,building materials,Gorontalo,,Gorontalo,GORONTALO,,Indonesia,,,,0.6999372,1.224.467.238,https://maps.google.com/?cid=0x0:0x1030bfbcaf71a20,
building materials,Toko Bahan Bangunan,Toko Sumber Bangunan Taluditi .pangkalan LPG .ahmadagusalim,"JRMC+G43, Unnamed Road, Panca Karsa II, Kec. Taluditi, Kabupaten Pohuwato, Gorontalo 96469","Unnamed Road, Panca Karsa II, Kec. Taluditi, Kabupaten Pohuwato",GORONTALO,96469.0,Indonesia,,,,0.6337585,1.218.202.861,https://maps.google.com/?cid=0x0:0xfd3f43d10d637df9,
building materials,Toko Bahan Bangunan,Rahma Bangunan,"JR22+GXP, Panca Karsa I, Kec. Taluditi, Kabupaten Pohuwato, Gorontalo 96469","Panca Karsa I, Kec. Taluditi, Kabupaten Pohuwato",GORONTALO,96469.0,Indonesia,,,,0.601342,1.218.024.383,https://maps.google.com/?cid=0x0:0xe03cabf18aeb720c,
building materials,Toko Bahan Bangunan,TOKO RANDY,"JVQ6+R48, Tirto Asri, Kec. Taluditi, Kabupaten Pohuwato, Gorontalo 96266","Tirto Asri, Kec. Taluditi, Kabupaten Pohuwato",GORONTALO,96266.0,Indonesia,87873964625.0,,,0.6395403,1.218.603.388,https://maps.google.com/?cid=0x0:0x142454996efe93fc,
building materials,building materials,Gorontalo 96469,"Kabupaten Pohuwato, Gorontalo","Kabupaten Pohuwato, Gorontalo",GORONTALO,,Indonesia,,,,0.737587,1.217.651.362,https://maps.google.com/?cid=0x0:0xeb07f8fd945f7ccf,
building materials,building materials,Gorontalo 96468,"Kec. Lemito, Kabupaten Pohuwato, Gorontalo","Kabupaten Pohuwato, Gorontalo",GORONTALO,,Indonesia,,,,0.7390376,1.215.826.642,https://maps.google.com/?cid=0x0:0xbcbfbe464a8e6a55,
building materials,Toko Bahan Bangunan,Mulia Depo Bangunan (MDB),"HH3C+QJH, Jl. Trans-Sulawesi, Lemito Utara, Kec. Lemito, Kabupaten Pohuwato, Gorontalo 96468","Jl. Trans-Sulawesi, Lemito Utara, Kec. Lemito, Kabupaten Pohuwato",GORONTALO,96468.0,Indonesia,82291661879.0,,,0.5541343,1.215.716.613,https://maps.google.com/?cid=0x0:0x2781230fc31a837e,
building materials,Toko Bahan Bangunan,UD. Berkah Djaya,"HH2C+7V7, Jl. Trans-Sulawesi, Lemito Utara, Kec. Lemito, Kabupaten Pohuwato, Gorontalo 96468","Jl. Trans-Sulawesi, Lemito Utara, Kec. Lemito, Kabupaten Pohuwato",GORONTALO,96468.0,Indonesia,,,,0.5506555,1.215.721.746,https://maps.google.com/?cid=0x0:0xd139f18e7ffd6233,
building materials,Pusat Perbelanjaan,Central Bangunan,"GF8M+VFG, Maleo, Kec. Popayato Tim., Kabupaten Pohuwato, Gorontalo 96467","Maleo, Kec. Popayato Tim., Kabupaten Pohuwato",GORONTALO,96467.0,Indonesia,85708091670.0,,,0.5171993,1.214.836.883,https://maps.google.com/?cid=0x0:0xb7fadfe4998a5b29,
building materials,Toko Alat Listrik,Ud Petani Jaya,"GPJG+V8Q, Jl. Trans-Sulawesi, Sidorukun, Kec. Randangan, Kabupaten Pohuwato, Gorontalo 96469","Jl. Trans-Sulawesi, Sidorukun, Kec. Randangan, Kabupaten Pohuwato",GORONTALO,96469.0,Indonesia,,,,0.5322246,1.217.258.591,https://maps.google.com/?cid=0x0:0x532afe9d5e0c006e,
building materials,Toko Bahan Bangunan,Rahma Bangunan,"JR22+GXP, Panca Karsa I, Kec. Taluditi, Kabupaten Pohuwato, Gorontalo 96469","Panca Karsa I, Kec. Taluditi, Kabupaten Pohuwato",GORONTALO,96469.0,Indonesia,,,,0.601342,1.218.024.383,https://maps.google.com/?cid=0x0:0xe03cabf18aeb720c,
building materials,Pusat Perbelanjaan,RED BANGUNAN,"GF33+GV9, Telaga Biru, Popayato, Kabupaten Pohuwato, Gorontalo 96467","Telaga Biru, Popayato, Kabupaten Pohuwato",GORONTALO,96467.0,Indonesia,,,,0.5037882,1.214.547.358,https://maps.google.com/?cid=0x0:0x68fbf4a4f2ee7c89,
building materials,Gudang,GUDANG MATRIAL BANGUNAN,"J24G+9CR, Tinelo, Kec. Telaga Biru, Kabupaten Gorontalo, Gorontalo 96181","Tinelo, Kec. Telaga Biru, Kabupaten Gorontalo",GORONTALO,96181.0,Indonesia,81217698859.0,,,0.6060117,1.230.258.974,https://maps.google.com/?cid=0x0:0x388d5cda697ba1ba,
building materials,Toko Perlengkapan Rumah,Toko Fathur,"Jl. Trans-Sulawesi, Telaga Biru, Popayato, Kabupaten Pohuwato, Gorontalo 96467","Telaga Biru, Popayato, Kabupaten Pohuwato",GORONTALO,96467.0,Indonesia,,,,0.5041646,1.214.542.879,https://maps.google.com/?cid=0x0:0x886eea98947c2879,
building materials,Toko Bahan Bangunan,Toko Cahaya Dini,"GQXQ+X4H, Jl trans sulawesi,toko kosmetik cahaya shop,di dekat gereja katolik,samping pertigaan kantor pos (Toko cahaya shop), KAB. POHUWATO, Kec. Randangan, Kabupaten Gorontalo, 96469","Jl trans sulawesi,toko kosmetik cahaya shop,di dekat gereja katolik,samping pertigaan kantor pos (Toko cahaya shop), KAB. POHUWATO, Kec. Randangan",GORONTALO,96469.0,Indonesia,85256686262.0,,,0.5499363,1.217.878.481,https://maps.google.com/?cid=0x0:0x51b2be60ca852188,
building materials,Toko,Toko STAR UTAMA,"GFCQ+Q98, Maleo, Kec. Popayato Tim., Kabupaten Pohuwato, Gorontalo 96467","Maleo, Kec. Popayato Tim., Kabupaten Pohuwato",GORONTALO,96467.0,Indonesia,,,,0.5219051,1.214.884.559,https://maps.google.com/?cid=0x0:0x9b1d65ef7d83f37c,
building materials,Toko,Toko Lestari,"GFCQ+Q98, Maleo, Kec. Popayato Tim., Kabupaten Pohuwato, Gorontalo 96467","Maleo, Kec. Popayato Tim., Kabupaten Pohuwato",GORONTALO,96467.0,Indonesia,,,,0.5221754,1.214.882.267,https://maps.google.com/?cid=0x0:0xe12cdc4d16f7db2f,
building materials,,Toko Maja Utama,"HQ2P+GQ5, Banuroja, Kec. Randangan, Kabupaten Pohuwato, Gorontalo 96469","Banuroja, Kec. Randangan, Kabupaten Pohuwato",GORONTALO,96469.0,Indonesia,,,,0.5509471,1.217.874.025,https://maps.google.com/?cid=0x0:0x5a25995e1893949,
building materials,,Toko bangunan pujangga,"pertigaan indomaret masuk dalam, Jl. Trans-Sulawesi, Motolohu, Kec. Randangan, Kabupaten Pohuwato, Gorontalo","Kabupaten Pohuwato, Gorontalo",GORONTALO,,Indonesia,,,,0.5333526,1.218.148.921,https://maps.google.com/?cid=0x0:0x14bdf2917c823fb3,
building materials,Toko Bahan Bangunan,UD. Piranti Jaya,"GRG4+R9J, Jl. Trans-Sulawesi, Motolohu, Kec. Randangan, Kabupaten Pohuwato, Gorontalo 96469","Jl. Trans-Sulawesi, Motolohu, Kec. Randangan, Kabupaten Pohuwato",GORONTALO,96469.0,Indonesia,,,,0.5270889,1.218.058.801,https://maps.google.com/?cid=0x0:0x35c7a2b59280da3f,
building materials,Pertanian,IMRAN IGIRISA,"GHWG+33H, Jl. Trans-Sulawesi, Lemito Utara, Kec. Lemito, Kabupaten Pohuwato, Gorontalo 96468","Jl. Trans-Sulawesi, Lemito Utara, Kec. Lemito, Kabupaten Pohuwato",GORONTALO,96468.0,Indonesia,,,,0.5451608,1.215.750.527,https://maps.google.com/?cid=0x0:0x656558f372eef506,
building materials,Toko Bahan Bangunan,TOKO R2 BANGUNAN,"Jl. Trans-Sulawesi No.196, Buntulia Tengah, Kec. Buntulia, Kabupaten Pohuwato, Gorontalo 96466","Buntulia Tengah, Kec. Buntulia, Kabupaten Pohuwato",GORONTALO,96466.0,Indonesia,,,,0.486066,1.219.350.154,https://maps.google.com/?cid=0x0:0x6429c15481fce075,
building materials,Toko Bahan Bangunan,Toko Bintang Bangunan II,"JJJQ+GW5, Jl. Trans-Sulawesi, Parungi, Kec. Boliyohuto, Kabupaten Gorontalo, Gorontalo 96264","Jl. Trans-Sulawesi, Parungi, Kec. Boliyohuto, Kabupaten Gorontalo",GORONTALO,96264.0,Indonesia,,,,0.6312564,1.226.398.533,https://maps.google.com/?cid=0x0:0x2cd3ec40bc4ef51f,
building materials,Toko Bahan Bangunan,Toko cahaya pangkep,"GF7M+W7M, Jl. Trans-Sulawesi, Maleo, Kec. Popayato Tim., Kabupaten Pohuwato, Gorontalo 96467","Jl. Trans-Sulawesi, Maleo, Kec. Popayato Tim., Kabupaten Pohuwato",GORONTALO,96467.0,Indonesia,81381692050.0,,,0.5148384,1.214.831.669,https://maps.google.com/?cid=0x0:0x7df0129707605345,
building materials,Toko,Toko Cahaya Terang,"HH2C+32J, Dusun Buhu, Lemito Utara, Kec. Lemito, Kabupaten Pohuwato, Gorontalo 96468","Dusun Buhu, Lemito Utara, Kec. Lemito, Kabupaten Pohuwato",GORONTALO,96468.0,Indonesia,85394784050.0,,,0.5502008,1.215.700.299,https://maps.google.com/?cid=0x0:0xa3365bef0361f653,
building materials,Toko Bahan Bangunan,TOKO JAGO BANGUNAN,"Jl. Diponegoro, Pohuwato Tim., Kec. Marisa, Kabupaten Pohuwato, Gorontalo 96265","Pohuwato Tim., Kec. Marisa, Kabupaten Pohuwato",GORONTALO,96265.0,Indonesia,85397810927.0,,,0.4574067,121.936.869,https://maps.google.com/?cid=0x0:0x43dd264c205c1b79,
building materials,Toko Bahan Bangunan,Toko Sumber Bangunan Taluditi .pangkalan LPG .ahmadagusalim,"JRMC+G43, Unnamed Road, Panca Karsa II, Kec. Taluditi, Kabupaten Pohuwato, Gorontalo 96469","Unnamed Road, Panca Karsa II, Kec. Taluditi, Kabupaten Pohuwato",GORONTALO,96469.0,Indonesia,,,,0.6337585,1.218.202.861,https://maps.google.com/?cid=0x0:0xfd3f43d10d637df9,
building materials,Toko,Toko Alif Bangunan,"HQ2P+GQ5, Banuroja, Kec. Randangan, Kabupaten Pohuwato, Gorontalo 96469","Banuroja, Kec. Randangan, Kabupaten Pohuwato",GORONTALO,96469.0,Indonesia,,,,0.5510701,1.217.872.775,https://maps.google.com/?cid=0x0:0x8dd8f0b9b43ecc25,
building materials,Toko Bahan Bangunan,Toko Jago Bangunan 2,"FWHJ+8XV, Buntulia Jaya, Kec. Marisa, Kabupaten Pohuwato, Gorontalo 96466","Buntulia Jaya, Kec. Marisa, Kabupaten Pohuwato",GORONTALO,96466.0,Indonesia,82358761840.0,,,0.4783581,1.219.324.343,https://maps.google.com/?cid=0x0:0x60be9b90df35cdf5,
toko bangunan,toko bangunan,Gorontalo 96266,"Kabupaten Pohuwato, Gorontalo","Kabupaten Pohuwato, Gorontalo",GORONTALO,,Indonesia,,,,0.6235288,1.218.790.306,https://maps.google.com/?cid=0x0:0x6e323a18714b4718,
toko bangunan,Toko Bahan Bangunan,TOKO CAHAYA BANGUNAN,"FWGJ+WW4, Sipatana, Kec. Buntulia, Kabupaten Pohuwato, Gorontalo 96466","Sipatana, Kec. Buntulia, Kabupaten Pohuwato",GORONTALO,96466.0,Indonesia,85185536567.0,,,0.4772533,1.219.323.384,https://maps.google.com/?cid=0x0:0x36941efbe6f07e4a,
toko bangunan,Pemasok Bahan Bangunan,Toko Maju Bangunan keramik,"FWFJ+WRX, Jl. Trans-Sulawesi, Buntulia Jaya, Kec. Duhiadaa, Kabupaten Pohuwato, Gorontalo 96466","Jl. Trans-Sulawesi, Buntulia Jaya, Kec. Duhiadaa, Kabupaten Pohuwato",GORONTALO,96466.0,Indonesia,,,,0.4748649,1.219.321.084,https://maps.google.com/?cid=0x0:0x7ad93aa3e08e18d7,
toko bangunan,Toko Bahan Bangunan,TOKO R2 BANGUNAN,"Jl. Trans-Sulawesi No.196, Buntulia Tengah, Kec. Buntulia, Kabupaten Pohuwato, Gorontalo 96466","Buntulia Tengah, Kec. Buntulia, Kabupaten Pohuwato",GORONTALO,96466.0,Indonesia,,,,0.486066,1.219.350.154,https://maps.google.com/?cid=0x0:0x6429c15481fce075,
toko bangunan,Toko Bahan Bangunan,TOKO JAGO BANGUNAN,"Jl. Diponegoro, Pohuwato Tim., Kec. Marisa, Kabupaten Pohuwato, Gorontalo 96265","Pohuwato Tim., Kec. Marisa, Kabupaten Pohuwato",GORONTALO,96265.0,Indonesia,85397810927.0,,,0.4574067,121.936.869,https://maps.google.com/?cid=0x0:0x43dd264c205c1b79,
toko bangunan,Toko Bahan Bangunan,Toko Berkat Abadi Bangunan,"Buntulia Tengah, Kec. Marisa, Kabupaten Pohuwato, Gorontalo 96466","Kec. Marisa, Kabupaten Pohuwato",GORONTALO,96466.0,Indonesia,,,,0.4792673,1.219.336.516,https://maps.google.com/?cid=0x0:0x12996b428582795b,
toko bangunan,Toko Bahan Bangunan,Mentari Jaya Bangunan Marisa,"FWJP+C4W, Sipatana, Kec. Buntulia, Kabupaten Pohuwato, Gorontalo 96466","Sipatana, Kec. Buntulia, Kabupaten Pohuwato",GORONTALO,96466.0,Indonesia,81234324364.0,,,0.4813082,1.219.353.609,https://maps.google.com/?cid=0x0:0x8ed5b3563f67e921,
toko bangunan,Toko,Toko rahmat bangunan marisa,"FWHR+2PG, Jl. Sultan Amai, Botubilotahu Indah, Kec. Marisa, Kabupaten Pohuwato, Gorontalo 96266","Jl. Sultan Amai, Botubilotahu Indah, Kec. Marisa, Kabupaten Pohuwato",GORONTALO,96266.0,Indonesia,85335589920.0,,,0.4775509,1.219.418.261,https://maps.google.com/?cid=0x0:0xa2bb3be578970397,
toko bangunan,Toko Bahan Bangunan,UD.BAROKAH,"JVQ7+828, Tirto Asri, Kec. Taluditi, Kabupaten Pohuwato, Gorontalo","Kabupaten Pohuwato, Gorontalo",GORONTALO,,Indonesia,85298075542.0,,,0.6382335,1.218.639.125,https://maps.google.com/?cid=0x0:0x5458b28b9450e361,
toko bangunan,Toko,Makmur sentosa marisa,"Jl. Sultan Amai, Marisa Utara, Kec. Marisa, Kabupaten Pohuwato, Gorontalo 96265","Marisa Utara, Kec. Marisa, Kabupaten Pohuwato",GORONTALO,96265.0,Indonesia,8123513478.0,,,0.4723577,1.219.389.063,https://maps.google.com/?cid=0x0:0x7ec3010925b28695,
toko bangunan,Toko Bahan Bangunan,TOKO SURYA BANGUNAN MARISA,"FWCQ+36F, Jl. Sultan Amai, Marisa Utara, Kec. Marisa, Kabupaten Pohuwato, Gorontalo 96265","Jl. Sultan Amai, Marisa Utara, Kec. Marisa, Kabupaten Pohuwato",GORONTALO,96265.0,Indonesia,,,,0.4701875,1.219.380.484,https://maps.google.com/?cid=0x0:0x80094912e26dedb8,
toko bangunan,Toko Bahan Bangunan,UD. Sinar Palu,"FWGP+GP9, Botubilotahu Indah, Kec. Marisa, Kabupaten Pohuwato, Gorontalo 96265","Botubilotahu Indah, Kec. Marisa, Kabupaten Pohuwato",GORONTALO,96265.0,Indonesia,,,,0.4762925,121.936.847,https://maps.google.com/?cid=0x0:0xe27725c866839d2d,
toko bangunan,Toko bahan makanan,TOKO BERKAT GEMILANG,"FWHM+75R, Sipatana, Kec. Buntulia, Kabupaten Pohuwato, Gorontalo 96466","Sipatana, Kec. Buntulia, Kabupaten Pohuwato",GORONTALO,96466.0,Indonesia,8114322633.0,,,0.4782483,1.219.328.827,https://maps.google.com/?cid=0x0:0x89f75991774af544,
toko bangunan,toko bangunan,Toko Indo Makmur Bangunan,"FWFJ+3JR, Buntulia Sel., Kec. Duhiadaa, Kabupaten Pohuwato, Gorontalo","Kabupaten Pohuwato, Gorontalo",GORONTALO,,Indonesia,,,,0.4727377,1.219.315.092,https://maps.google.com/?cid=0x0:0xf09e90b4f1cca912,
toko bangunan,Pasar bahan bangunan,Toko Pancaran Berkat,"FW9J+HC5, Marisa Utara, Kec. Marisa, Kabupaten Pohuwato, Gorontalo 96266","Marisa Utara, Kec. Marisa, Kabupaten Pohuwato",GORONTALO,96266.0,Indonesia,,,,0.4688801,1.219.310.992,https://maps.google.com/?cid=0x0:0xb451b02d45c3ffd2,
toko bangunan,Toko Bahan Bangunan,Toko Sumber Bangunan Taluditi .pangkalan LPG .ahmadagusalim,"JRMC+G43, Unnamed Road, Panca Karsa II, Kec. Taluditi, Kabupaten Pohuwato, Gorontalo 96469","Unnamed Road, Panca Karsa II, Kec. Taluditi, Kabupaten Pohuwato",GORONTALO,96469.0,Indonesia,,,,0.6337585,1.218.202.861,https://maps.google.com/?cid=0x0:0xfd3f43d10d637df9,
toko bangunan,Toko Bahan Bangunan,Mutiara Bangunan,"FWHR+7R3, Botubilotahu Indah, Kec. Marisa, Kabupaten Pohuwato, Gorontalo","Kabupaten Pohuwato, Gorontalo",GORONTALO,,Indonesia,81210245212.0,,,0.4781294,1.219.420.379,https://maps.google.com/?cid=0x0:0xda7e6ff3f7f7987a,
toko bangunan,,UD. PUTRA HUYULA,"Huyula, Kec. Randangan, Kabupaten Pohuwato, Gorontalo 96469","Kec. Randangan, Kabupaten Pohuwato",GORONTALO,96469.0,Indonesia,82226666966.0,,,0.5077318,1.218.117.379,https://maps.google.com/?cid=0x0:0x66f3cfc85c3725a,
toko bangunan,Toko Bahan Bangunan,TOKO RANDY,"JVQ6+R48, Tirto Asri, Kec. Taluditi, Kabupaten Pohuwato, Gorontalo 96266","Tirto Asri, Kec. Taluditi, Kabupaten Pohuwato",GORONTALO,96266.0,Indonesia,87873964625.0,,,0.6395403,1.218.603.388,https://maps.google.com/?cid=0x0:0x142454996efe93fc,
toko bangunan,Toko Bahan Bangunan,Toko Asy Bangunan,"Sipatana, Kec. Buntulia, Kabupaten Pohuwato, Gorontalo","Kabupaten Pohuwato, Gorontalo",GORONTALO,,Indonesia,,,,0.4816032,1.219.251.878,https://maps.google.com/?cid=0x0:0x5221518e0391d42e,
toko bangunan,Toko,TOKO SYIFA,"FWJG+5QR, Sipatana, Kec. Buntulia, Kabupaten Pohuwato, Gorontalo 96466","Sipatana, Kec. Buntulia, Kabupaten Pohuwato",GORONTALO,96466.0,Indonesia,,,,0.4804976,1.219.268.784,https://maps.google.com/?cid=0x0:0x51d9cf110d2a4514,
toko bangunan,Toko Perlengkapan Rumah,Tk Tosora Indah,"Jl. Trans-Sulawesi No.196, Buntulia Utara, Kec. Buntulia, Kabupaten Pohuwato, Gorontalo 96466","Buntulia Utara, Kec. Buntulia, Kabupaten Pohuwato",GORONTALO,96466.0,Indonesia,,,,0.4981508,1.219.341.003,https://maps.google.com/?cid=0x0:0x8d55dd6d54051320,
toko bangunan,Toko,PT. Havana Tunas Gemilang,"FW4Q+RVX, Jl. Diponegoro, Marisa Sel., Kec. Marisa, Kabupaten Pohuwato, Gorontalo 96265","Jl. Diponegoro, Marisa Sel., Kec. Marisa, Kabupaten Pohuwato",GORONTALO,96265.0,Indonesia,81248728949.0,,,0.4571104,1.219.397.397,https://maps.google.com/?cid=0x0:0x5dcedf50da2c866,
toko bangunan,toko bangunan,Gorontalo 96265,"Kabupaten Pohuwato, Gorontalo","Kabupaten Pohuwato, Gorontalo",GORONTALO,,Indonesia,,,,0.6708114,1.220.382.856,https://maps.google.com/?cid=0x0:0xc7ddf273e46e561,
toko bangunan,Toko Bahan Bangunan,TOKO JAGO BANGUNAN,"Jl. Diponegoro, Pohuwato Tim., Kec. Marisa, Kabupaten Pohuwato, Gorontalo 96265","Pohuwato Tim., Kec. Marisa, Kabupaten Pohuwato",GORONTALO,96265.0,Indonesia,85397810927.0,,,0.4574067,121.936.869,https://maps.google.com/?cid=0x0:0x43dd264c205c1b79,
toko bangunan,Pemasok Bahan Bangunan,Toko Maju Bangunan keramik,"FWFJ+WRX, Jl. Trans-Sulawesi, Buntulia Jaya, Kec. Duhiadaa, Kabupaten Pohuwato, Gorontalo 96466","Jl. Trans-Sulawesi, Buntulia Jaya, Kec. Duhiadaa, Kabupaten Pohuwato",GORONTALO,96466.0,Indonesia,,,,0.4748649,1.219.321.084,https://maps.google.com/?cid=0x0:0x7ad93aa3e08e18d7,
toko bangunan,Toko Bahan Bangunan,TOKO CAHAYA BANGUNAN,"FWGJ+WW4, Sipatana, Kec. Buntulia, Kabupaten Pohuwato, Gorontalo 96466","Sipatana, Kec. Buntulia, Kabupaten Pohuwato",GORONTALO,96466.0,Indonesia,85185536567.0,,,0.4772533,1.219.323.384,https://maps.google.com/?cid=0x0:0x36941efbe6f07e4a,
toko bangunan,Toko,Makmur sentosa marisa,"Jl. Sultan Amai, Marisa Utara, Kec. Marisa, Kabupaten Pohuwato, Gorontalo 96265","Marisa Utara, Kec. Marisa, Kabupaten Pohuwato",GORONTALO,96265.0,Indonesia,8123513478.0,,,0.4723577,1.219.389.063,https://maps.google.com/?cid=0x0:0x7ec3010925b28695,
toko bangunan,Toko Bahan Bangunan,Toko DINNA BANGUNAN,"F3RC+5QH, Jl. Trans-Sulawesi, Siduan, Kec. Paguat, Kabupaten Pohuwato, Gorontalo 96265","Jl. Trans-Sulawesi, Siduan, Kec. Paguat, Kabupaten Pohuwato",GORONTALO,96265.0,Indonesia,85240875320.0,,,0.4904292,1.220.719.819,https://maps.google.com/?cid=0x0:0x7e3d30d70df3ebb1,
toko bangunan,Toko Bahan Bangunan,UD. Sinar Palu,"FWGP+GP9, Botubilotahu Indah, Kec. Marisa, Kabupaten Pohuwato, Gorontalo 96265","Botubilotahu Indah, Kec. Marisa, Kabupaten Pohuwato",GORONTALO,96265.0,Indonesia,,,,0.4762925,121.936.847,https://maps.google.com/?cid=0x0:0xe27725c866839d2d,
toko bangunan,Toko,Toko rahmat bangunan marisa,"FWHR+2PG, Jl. Sultan Amai, Botubilotahu Indah, Kec. Marisa, Kabupaten Pohuwato, Gorontalo 96266","Jl. Sultan Amai, Botubilotahu Indah, Kec. Marisa, Kabupaten Pohuwato",GORONTALO,96266.0,Indonesia,85335589920.0,,,0.4775509,1.219.418.261,https://maps.google.com/?cid=0x0:0xa2bb3be578970397,
toko bangunan,Toko,PT. Havana Tunas Gemilang,"FW4Q+RVX, Jl. Diponegoro, Marisa Sel., Kec. Marisa, Kabupaten Pohuwato, Gorontalo 96265","Jl. Diponegoro, Marisa Sel., Kec. Marisa, Kabupaten Pohuwato",GORONTALO,96265.0,Indonesia,81248728949.0,,,0.4571104,1.219.397.397,https://maps.google.com/?cid=0x0:0x5dcedf50da2c866,
toko bangunan,toko bangunan,Toko Indo Makmur Bangunan,"FWFJ+3JR, Buntulia Sel., Kec. Duhiadaa, Kabupaten Pohuwato, Gorontalo","Kabupaten Pohuwato, Gorontalo",GORONTALO,,Indonesia,,,,0.4727377,1.219.315.092,https://maps.google.com/?cid=0x0:0xf09e90b4f1cca912,
toko bangunan,Toko Bahan Bangunan,TOKO R2 BANGUNAN,"Jl. Trans-Sulawesi No.196, Buntulia Tengah, Kec. Buntulia, Kabupaten Pohuwato, Gorontalo 96466","Buntulia Tengah, Kec. Buntulia, Kabupaten Pohuwato",GORONTALO,96466.0,Indonesia,,,,0.486066,1.219.350.154,https://maps.google.com/?cid=0x0:0x6429c15481fce075,
toko bangunan,toko bangunan,INDO MAKMUR bangunan,"FWRM+G8G, Jl. Trans-Sulawesi Dusun, Buntulia Tengah, Kec. Duhiadaa, Kabupaten Pohuwato, Gorontalo","Kabupaten Pohuwato, Gorontalo",GORONTALO,,Indonesia,,,,0.4913085,1.219.333.332,https://maps.google.com/?cid=0x0:0x91cb18c9e64c064,
toko bangunan,Toko Bahan Bangunan,Toko Asy Bangunan,"Sipatana, Kec. Buntulia, Kabupaten Pohuwato, Gorontalo","Kabupaten Pohuwato, Gorontalo",GORONTALO,,Indonesia,,,,0.4816032,1.219.251.878,https://maps.google.com/?cid=0x0:0x5221518e0391d42e,
toko bangunan,Toko Bahan Bangunan,Al_Amin bangunan,"G44P+GQ7, Tabulo, Kec. Mananggu, Kabupaten Boalemo, Gorontalo 96264","Tabulo, Kec. Mananggu, Kabupaten Boalemo",GORONTALO,96264.0,Indonesia,,,,0.5062805,1.221.369.233,https://maps.google.com/?cid=0x0:0x3f903572fd93e1a7,
toko bangunan,Toko Bahan Bangunan,TOKO SURYA BANGUNAN MARISA,"FWCQ+36F, Jl. Sultan Amai, Marisa Utara, Kec. Marisa, Kabupaten Pohuwato, Gorontalo 96265","Jl. Sultan Amai, Marisa Utara, Kec. Marisa, Kabupaten Pohuwato",GORONTALO,96265.0,Indonesia,,,,0.4701875,1.219.380.484,https://maps.google.com/?cid=0x0:0x80094912e26dedb8,
toko bangunan,Toko Bahan Bangunan,Mentari Jaya Bangunan Marisa,"FWJP+C4W, Sipatana, Kec. Buntulia, Kabupaten Pohuwato, Gorontalo 96466","Sipatana, Kec. Buntulia, Kabupaten Pohuwato",GORONTALO,96466.0,Indonesia,81234324364.0,,,0.4813082,1.219.353.609,https://maps.google.com/?cid=0x0:0x8ed5b3563f67e921,
toko bangunan,Toko Bahan Bangunan,BJP BANGUNAN GORONTALO,"bjpbangunan@gmail.com, Heledulaa Sel., Kec. Kota Tim., Kota Gorontalo, Gorontalo 96128","Heledulaa Sel., Kec. Kota Tim., Kota Gorontalo",GORONTALO,96128.0,Indonesia,81356729882.0,,,0.5384306,1.230.616,https://maps.google.com/?cid=0x0:0xaa9d2db3149eb8a4,
toko bangunan,Toko Bahan Bangunan,Sinar Bangunan Gorontalo,"Jalan Kasuari Baru No.8, Heledulaa, Kota Timur, Heledulaa, Gorontalo, Kota Gorontalo, Gorontalo 96135","Heledulaa, Kota Timur, Heledulaa, Gorontalo, Kota Gorontalo",GORONTALO,96135.0,Indonesia,85395585268.0,,,0.5459753,1.230.653.457,https://maps.google.com/?cid=0x0:0xf278c2a9fcd91c78,
toko bangunan,Taman Kanak-kanak,TK SENG BERTUS,"F3RF+C86, Siduan, Kec. Paguat, Kabupaten Pohuwato, Gorontalo 96265","Siduan, Kec. Paguat, Kabupaten Pohuwato",GORONTALO,96265.0,Indonesia,,,,0.4910364,1.220.732.733,https://maps.google.com/?cid=0x0:0xec6114696d804caf,
toko bangunan,Pasar bahan bangunan,Toko Pancaran Berkat,"FW9J+HC5, Marisa Utara, Kec. Marisa, Kabupaten Pohuwato, Gorontalo 96266","Marisa Utara, Kec. Marisa, Kabupaten Pohuwato",GORONTALO,96266.0,Indonesia,,,,0.4688801,1.219.310.992,https://maps.google.com/?cid=0x0:0xb451b02d45c3ffd2,
toko bangunan,Toko Bahan Bangunan,Toko Zein,"FXCR+424, Jl. Trans Sulawesi, Ampibabo, Maleo, Parigi Tengah, Kabupaten Pohuwato, Gorontalo 96265","Jl. Trans Sulawesi, Ampibabo, Maleo, Parigi Tengah, Kabupaten Pohuwato",GORONTALO,96265.0,Indonesia,85398470789.0,,,0.4702517,1.219.900.905,https://maps.google.com/?cid=0x0:0xa615f3ab0e4e4ce6,
toko bangunan,Toko Bahan Bangunan,Toko Berkat Abadi Bangunan,"Buntulia Tengah, Kec. Marisa, Kabupaten Pohuwato, Gorontalo 96466","Kec. Marisa, Kabupaten Pohuwato",GORONTALO,96466.0,Indonesia,,,,0.4792673,1.219.336.516,https://maps.google.com/?cid=0x0:0x12996b428582795b,
toko bangunan,Toko Bahan Bangunan,Toko.Maju Bangunan Steel,"FWGQ+5WJ, Jl. Hulude Bunggu, Botubilotahu Indah, Kec. Marisa, Kabupaten Pohuwato, Gorontalo 96265","Jl. Hulude Bunggu, Botubilotahu Indah, Kec. Marisa, Kabupaten Pohuwato",GORONTALO,96265.0,Indonesia,,,,0.4754629,1.219.397.608,https://maps.google.com/?cid=0x0:0xe1a77c65414cbfd6,
toko bangunan,toko bangunan,Kec. Duhiadaa,"Kabupaten Pohuwato, Gorontalo","Kabupaten Pohuwato, Gorontalo",GORONTALO,,Indonesia,,,,0.4727472,1.219.315.071,https://maps.google.com/?cid=0x0:0x4f9e976d482b115f,
toko bangunan,Toko Bahan Bangunan,TOKO JAGO BANGUNAN,"Jl. Diponegoro, Pohuwato Tim., Kec. Marisa, Kabupaten Pohuwato, Gorontalo 96265","Pohuwato Tim., Kec. Marisa, Kabupaten Pohuwato",GORONTALO,96265.0,Indonesia,85397810927.0,,,0.4574067,121.936.869,https://maps.google.com/?cid=0x0:0x43dd264c205c1b79,
toko bangunan,Pemasok Bahan Bangunan,Toko Maju Bangunan keramik,"FWFJ+WRX, Jl. Trans-Sulawesi, Buntulia Jaya, Kec. Duhiadaa, Kabupaten Pohuwato, Gorontalo 96466","Jl. Trans-Sulawesi, Buntulia Jaya, Kec. Duhiadaa, Kabupaten Pohuwato",GORONTALO,96466.0,Indonesia,,,,0.4748649,1.219.321.084,https://maps.google.com/?cid=0x0:0x7ad93aa3e08e18d7,
toko bangunan,Toko Bahan Bangunan,TOKO CAHAYA BANGUNAN,"FWGJ+WW4, Sipatana, Kec. Buntulia, Kabupaten Pohuwato, Gorontalo 96466","Sipatana, Kec. Buntulia, Kabupaten Pohuwato",GORONTALO,96466.0,Indonesia,85185536567.0,,,0.4772533,1.219.323.384,https://maps.google.com/?cid=0x0:0x36941efbe6f07e4a,
toko bangunan,Toko Bahan Bangunan,UD. Sinar Palu,"FWGP+GP9, Botubilotahu Indah, Kec. Marisa, Kabupaten Pohuwato, Gorontalo 96265","Botubilotahu Indah, Kec. Marisa, Kabupaten Pohuwato",GORONTALO,96265.0,Indonesia,,,,0.4762925,121.936.847,https://maps.google.com/?cid=0x0:0xe27725c866839d2d,
toko bangunan,Toko,PT. Havana Tunas Gemilang,"FW4Q+RVX, Jl. Diponegoro, Marisa Sel., Kec. Marisa, Kabupaten Pohuwato, Gorontalo 96265","Jl. Diponegoro, Marisa Sel., Kec. Marisa, Kabupaten Pohuwato",GORONTALO,96265.0,Indonesia,81248728949.0,,,0.4571104,1.219.397.397,https://maps.google.com/?cid=0x0:0x5dcedf50da2c866,
toko bangunan,toko bangunan,Toko Indo Makmur Bangunan,"FWFJ+3JR, Buntulia Sel., Kec. Duhiadaa, Kabupaten Pohuwato, Gorontalo","Kabupaten Pohuwato, Gorontalo",GORONTALO,,Indonesia,,,,0.4727377,1.219.315.092,https://maps.google.com/?cid=0x0:0xf09e90b4f1cca912,
toko bangunan,Toko,Toko rahmat bangunan marisa,"FWHR+2PG, Jl. Sultan Amai, Botubilotahu Indah, Kec. Marisa, Kabupaten Pohuwato, Gorontalo 96266","Jl. Sultan Amai, Botubilotahu Indah, Kec. Marisa, Kabupaten Pohuwato",GORONTALO,96266.0,Indonesia,85335589920.0,,,0.4775509,1.219.418.261,https://maps.google.com/?cid=0x0:0xa2bb3be578970397,
toko bangunan,Toko Bahan Bangunan,Toko Berkat Abadi Bangunan,"Buntulia Tengah, Kec. Marisa, Kabupaten Pohuwato, Gorontalo 96466","Kec. Marisa, Kabupaten Pohuwato",GORONTALO,96466.0,Indonesia,,,,0.4792673,1.219.336.516,https://maps.google.com/?cid=0x0:0x12996b428582795b,
toko bangunan,Toko Bahan Bangunan,Mentari Jaya Bangunan Marisa,"FWJP+C4W, Sipatana, Kec. Buntulia, Kabupaten Pohuwato, Gorontalo 96466","Sipatana, Kec. Buntulia, Kabupaten Pohuwato",GORONTALO,96466.0,Indonesia,81234324364.0,,,0.4813082,1.219.353.609,https://maps.google.com/?cid=0x0:0x8ed5b3563f67e921,
toko bangunan,Pasar bahan bangunan,Toko Pancaran Berkat,"FW9J+HC5, Marisa Utara, Kec. Marisa, Kabupaten Pohuwato, Gorontalo 96266","Marisa Utara, Kec. Marisa, Kabupaten Pohuwato",GORONTALO,96266.0,Indonesia,,,,0.4688801,1.219.310.992,https://maps.google.com/?cid=0x0:0xb451b02d45c3ffd2,
toko bangunan,Toko Bahan Bangunan,TOKO SURYA BANGUNAN MARISA,"FWCQ+36F, Jl. Sultan Amai, Marisa Utara, Kec. Marisa, Kabupaten Pohuwato, Gorontalo 96265","Jl. Sultan Amai, Marisa Utara, Kec. Marisa, Kabupaten Pohuwato",GORONTALO,96265.0,Indonesia,,,,0.4701875,1.219.380.484,https://maps.google.com/?cid=0x0:0x80094912e26dedb8,
toko bangunan,Toko,Makmur sentosa marisa,"Jl. Sultan Amai, Marisa Utara, Kec. Marisa, Kabupaten Pohuwato, Gorontalo 96265","Marisa Utara, Kec. Marisa, Kabupaten Pohuwato",GORONTALO,96265.0,Indonesia,8123513478.0,,,0.4723577,1.219.389.063,https://maps.google.com/?cid=0x0:0x7ec3010925b28695,
toko bangunan,Toko Bahan Bangunan,Toko Asy Bangunan,"Sipatana, Kec. Buntulia, Kabupaten Pohuwato, Gorontalo","Kabupaten Pohuwato, Gorontalo",GORONTALO,,Indonesia,,,,0.4816032,1.219.251.878,https://maps.google.com/?cid=0x0:0x5221518e0391d42e,
toko bangunan,Toko Bahan Bangunan,TOKO R2 BANGUNAN,"Jl. Trans-Sulawesi No.196, Buntulia Tengah, Kec. Buntulia, Kabupaten Pohuwato, Gorontalo 96466","Buntulia Tengah, Kec. Buntulia, Kabupaten Pohuwato",GORONTALO,96466.0,Indonesia,,,,0.486066,1.219.350.154,https://maps.google.com/?cid=0x0:0x6429c15481fce075,
toko bangunan,Toko Bahan Bangunan,Mutiara Bangunan,"FWHR+7R3, Botubilotahu Indah, Kec. Marisa, Kabupaten Pohuwato, Gorontalo","Kabupaten Pohuwato, Gorontalo",GORONTALO,,Indonesia,81210245212.0,,,0.4781294,1.219.420.379,https://maps.google.com/?cid=0x0:0xda7e6ff3f7f7987a,
toko bangunan,Toko Bahan Bangunan,Toko.Maju Bangunan Steel,"FWGQ+5WJ, Jl. Hulude Bunggu, Botubilotahu Indah, Kec. Marisa, Kabupaten Pohuwato, Gorontalo 96265","Jl. Hulude Bunggu, Botubilotahu Indah, Kec. Marisa, Kabupaten Pohuwato",GORONTALO,96265.0,Indonesia,,,,0.4754629,1.219.397.608,https://maps.google.com/?cid=0x0:0xe1a77c65414cbfd6,
toko bangunan,toko bangunan,INDO MAKMUR bangunan,"FWRM+G8G, Jl. Trans-Sulawesi Dusun, Buntulia Tengah, Kec. Duhiadaa, Kabupaten Pohuwato, Gorontalo","Kabupaten Pohuwato, Gorontalo",GORONTALO,,Indonesia,,,,0.4913085,1.219.333.332,https://maps.google.com/?cid=0x0:0x91cb18c9e64c064,
toko bangunan,Pemasok Bahan Bangunan,Toko Bahan Bangunan Sari Agung,"Bulila, Kec. Telaga, Kabupaten Gorontalo, Gorontalo 96138","Kec. Telaga, Kabupaten Gorontalo",GORONTALO,96138.0,Indonesia,82196031500.0,,,0.5765609,1.230.449.069,https://maps.google.com/?cid=0x0:0x1ec016b864d215a6,
toko bangunan,Toko bahan makanan,TOKO BERKAT GEMILANG,"FWHM+75R, Sipatana, Kec. Buntulia, Kabupaten Pohuwato, Gorontalo 96466","Sipatana, Kec. Buntulia, Kabupaten Pohuwato",GORONTALO,96466.0,Indonesia,8114322633.0,,,0.4782483,1.219.328.827,https://maps.google.com/?cid=0x0:0x89f75991774af544,
toko bangunan,Toko Mebel,UD.MEUBEL AKBAR,"Jl.napoleon, dusun kramat. Sebelum gereja pante kosta pertama sebelah kanan Pas dekat dgn bangunan besar belum terplester, Pohuwato Tim., Kec. Marisa, Kabupaten Pohuwato, Gorontalo 96266","dusun kramat. Sebelum gereja pante kosta pertama sebelah kanan Pas dekat dgn bangunan besar belum terplester, Pohuwato Tim., Kec. Marisa, Kabupaten Pohuwato",GORONTALO,96266.0,Indonesia,82194917825.0,,,0.4529825,1.219.384.271,https://maps.google.com/?cid=0x0:0xcfad6388e1916e3d,
toko bangunan,Toko,TOKO SYIFA,"FWJG+5QR, Sipatana, Kec. Buntulia, Kabupaten Pohuwato, Gorontalo 96466","Sipatana, Kec. Buntulia, Kabupaten Pohuwato",GORONTALO,96466.0,Indonesia,,,,0.4804976,1.219.268.784,https://maps.google.com/?cid=0x0:0x51d9cf110d2a4514,
toko bangunan,Toko Bahan Bangunan,Toko DINNA BANGUNAN,"F3RC+5QH, Jl. Trans-Sulawesi, Siduan, Kec. Paguat, Kabupaten Pohuwato, Gorontalo 96265","Jl. Trans-Sulawesi, Siduan, Kec. Paguat, Kabupaten Pohuwato",GORONTALO,96265.0,Indonesia,85240875320.0,,,0.4904292,1.220.719.819,https://maps.google.com/?cid=0x0:0x7e3d30d70df3ebb1,
toko bangunan,toko bangunan,Gorontalo 96468,"Kec. Lemito, Kabupaten Pohuwato, Gorontalo","Kabupaten Pohuwato, Gorontalo",GORONTALO,,Indonesia,,,,0.7390376,1.215.826.642,https://maps.google.com/?cid=0x0:0xbcbfbe464a8e6a55,
toko bangunan,toko bangunan,Toko Nusantara Bangunan Lemito,"Jalan Trans Sulawesi Ds. Ponelo, Lemito Utara, Kec. Lemito, Kabupaten Pohuwato, Gorontalo","Kabupaten Pohuwato, Gorontalo",GORONTALO,,Indonesia,85266222296.0,,,0.5474748,1.215.724.118,https://maps.google.com/?cid=0x0:0x1e16e4de03ce4dc7,
toko bangunan,Toko Bahan Bangunan,Mulia Depo Bangunan (MDB),"HH3C+QJH, Jl. Trans-Sulawesi, Lemito Utara, Kec. Lemito, Kabupaten Pohuwato, Gorontalo 96468","Jl. Trans-Sulawesi, Lemito Utara, Kec. Lemito, Kabupaten Pohuwato",GORONTALO,96468.0,Indonesia,82291661879.0,,,0.5541343,1.215.716.613,https://maps.google.com/?cid=0x0:0x2781230fc31a837e,
toko bangunan,toko bangunan,Kec. Marisa,"Kabupaten Pohuwato, Gorontalo","Kabupaten Pohuwato, Gorontalo",GORONTALO,,Indonesia,,,,0.4701607,121.958.687,https://maps.google.com/?cid=0x0:0xf18aaba667559ff0,
toko bangunan,Toko,Toko rahmat bangunan marisa,"FWHR+2PG, Jl. Sultan Amai, Botubilotahu Indah, Kec. Marisa, Kabupaten Pohuwato, Gorontalo 96266","Jl. Sultan Amai, Botubilotahu Indah, Kec. Marisa, Kabupaten Pohuwato",GORONTALO,96266.0,Indonesia,85335589920.0,,,0.4775509,1.219.418.261,https://maps.google.com/?cid=0x0:0xa2bb3be578970397,
toko bangunan,Toko Bahan Bangunan,TOKO JAGO BANGUNAN,"Jl. Diponegoro, Pohuwato Tim., Kec. Marisa, Kabupaten Pohuwato, Gorontalo 96265","Pohuwato Tim., Kec. Marisa, Kabupaten Pohuwato",GORONTALO,96265.0,Indonesia,85397810927.0,,,0.4574067,121.936.869,https://maps.google.com/?cid=0x0:0x43dd264c205c1b79,
toko bangunan,Toko Bahan Bangunan,TOKO SURYA BANGUNAN MARISA,"FWCQ+36F, Jl. Sultan Amai, Marisa Utara, Kec. Marisa, Kabupaten Pohuwato, Gorontalo 96265","Jl. Sultan Amai, Marisa Utara, Kec. Marisa, Kabupaten Pohuwato",GORONTALO,96265.0,Indonesia,,,,0.4701875,1.219.380.484,https://maps.google.com/?cid=0x0:0x80094912e26dedb8,
toko bangunan,Toko Bahan Bangunan,Toko Jago Bangunan 2,"FWHJ+8XV, Buntulia Jaya, Kec. Marisa, Kabupaten Pohuwato, Gorontalo 96466","Buntulia Jaya, Kec. Marisa, Kabupaten Pohuwato",GORONTALO,96466.0,Indonesia,82358761840.0,,,0.4783581,1.219.324.343,https://maps.google.com/?cid=0x0:0x60be9b90df35cdf5,
toko bangunan,Toko Bahan Bangunan,Mutiara Bangunan,"FWHR+7R3, Botubilotahu Indah, Kec. Marisa, Kabupaten Pohuwato, Gorontalo","Kabupaten Pohuwato, Gorontalo",GORONTALO,,Indonesia,81210245212.0,,,0.4781294,1.219.420.379,https://maps.google.com/?cid=0x0:0xda7e6ff3f7f7987a,
toko bangunan,Toko Bahan Bangunan,Mentari Jaya Bangunan Marisa,"FWJP+C4W, Sipatana, Kec. Buntulia, Kabupaten Pohuwato, Gorontalo 96466","Sipatana, Kec. Buntulia, Kabupaten Pohuwato",GORONTALO,96466.0,Indonesia,81234324364.0,,,0.4813082,1.219.353.609,https://maps.google.com/?cid=0x0:0x8ed5b3563f67e921,
toko bangunan,Toko,Marisa Jaya,"FW6X+WXR, Palopo, Kec. Marisa, Kabupaten Pohuwato, Gorontalo 96265","Palopo, Kec. Marisa, Kabupaten Pohuwato",GORONTALO,96265.0,Indonesia,85708091670.0,,,0.4623877,1.219.499.404,https://maps.google.com/?cid=0x0:0x1a1a48ec99897421,
toko bangunan,Toko Bahan Bangunan,Toko Berkat Abadi Bangunan,"Buntulia Tengah, Kec. Marisa, Kabupaten Pohuwato, Gorontalo 96466","Kec. Marisa, Kabupaten Pohuwato",GORONTALO,96466.0,Indonesia,,,,0.4792673,1.219.336.516,https://maps.google.com/?cid=0x0:0x12996b428582795b,
toko bangunan,Pasar bahan bangunan,Toko Pancaran Berkat,"FW9J+HC5, Marisa Utara, Kec. Marisa, Kabupaten Pohuwato, Gorontalo 96266","Marisa Utara, Kec. Marisa, Kabupaten Pohuwato",GORONTALO,96266.0,Indonesia,,,,0.4688801,1.219.310.992,https://maps.google.com/?cid=0x0:0xb451b02d45c3ffd2,
toko bangunan,Pemasok Bahan Bangunan,Toko Maju Bangunan keramik,"FWFJ+WRX, Jl. Trans-Sulawesi, Buntulia Jaya, Kec. Duhiadaa, Kabupaten Pohuwato, Gorontalo 96466","Jl. Trans-Sulawesi, Buntulia Jaya, Kec. Duhiadaa, Kabupaten Pohuwato",GORONTALO,96466.0,Indonesia,,,,0.4748649,1.219.321.084,https://maps.google.com/?cid=0x0:0x7ad93aa3e08e18d7,
toko bangunan,Toko Bahan Bangunan,UD. Sinar Palu,"FWGP+GP9, Botubilotahu Indah, Kec. Marisa, Kabupaten Pohuwato, Gorontalo 96265","Botubilotahu Indah, Kec. Marisa, Kabupaten Pohuwato",GORONTALO,96265.0,Indonesia,,,,0.4762925,121.936.847,https://maps.google.com/?cid=0x0:0xe27725c866839d2d,
toko bangunan,Toko,PT. Havana Tunas Gemilang,"FW4Q+RVX, Jl. Diponegoro, Marisa Sel., Kec. Marisa, Kabupaten Pohuwato, Gorontalo 96265","Jl. Diponegoro, Marisa Sel., Kec. Marisa, Kabupaten Pohuwato",GORONTALO,96265.0,Indonesia,81248728949.0,,,0.4571104,1.219.397.397,https://maps.google.com/?cid=0x0:0x5dcedf50da2c866,
toko bangunan,Toko Bahan Bangunan,Primax bangunan,"Jl. Sultan Amai, Marisa Utara, Kec. Marisa, Kabupaten Pohuwato, Gorontalo 96265","Marisa Utara, Kec. Marisa, Kabupaten Pohuwato",GORONTALO,96265.0,Indonesia,81341818643.0,,,0.4726686,1.219.389.643,https://maps.google.com/?cid=0x0:0x4a1749b50b689c70,
toko bangunan,Toko Bahan Bangunan,TOKO R2 BANGUNAN,"Jl. Trans-Sulawesi No.196, Buntulia Tengah, Kec. Buntulia, Kabupaten Pohuwato, Gorontalo 96466","Buntulia Tengah, Kec. Buntulia, Kabupaten Pohuwato",GORONTALO,96466.0,Indonesia,,,,0.486066,1.219.350.154,https://maps.google.com/?cid=0x0:0x6429c15481fce075,
toko bangunan,Toko Bahan Bangunan,Toko.Maju Bangunan Steel,"FWGQ+5WJ, Jl. Hulude Bunggu, Botubilotahu Indah, Kec. Marisa, Kabupaten Pohuwato, Gorontalo 96265","Jl. Hulude Bunggu, Botubilotahu Indah, Kec. Marisa, Kabupaten Pohuwato",GORONTALO,96265.0,Indonesia,,,,0.4754629,1.219.397.608,https://maps.google.com/?cid=0x0:0xe1a77c65414cbfd6,
toko bangunan,Toko Bahan Bangunan,TOKO CAHAYA BANGUNAN,"FWGJ+WW4, Sipatana, Kec. Buntulia, Kabupaten Pohuwato, Gorontalo 96466","Sipatana, Kec. Buntulia, Kabupaten Pohuwato",GORONTALO,96466.0,Indonesia,85185536567.0,,,0.4772533,1.219.323.384,https://maps.google.com/?cid=0x0:0x36941efbe6f07e4a,
toko bangunan,Toko Bahan Bangunan,Toko Meraki,"Botubilotahu Indah, Kec. Marisa, Kabupaten Pohuwato, Gorontalo","Kabupaten Pohuwato, Gorontalo",GORONTALO,,Indonesia,,,,0.4766025,1.219.354.884,https://maps.google.com/?cid=0x0:0xd28f7fd4ee9882a0,
toko bangunan,toko bangunan,Marisa,"Bulili, Kec. Duhiadaa, Kabupaten Pohuwato, Gorontalo","Kabupaten Pohuwato, Gorontalo",GORONTALO,,Indonesia,,,,0.466734,121.928.398,https://maps.google.com/?cid=0x0:0xf3c036bc8511116e,
toko bangunan,Toko bahan makanan,Marisa Mart M2,"FW9M+23F, Jl. Trans-Sulawesi, Marisa Utara, Kec. Marisa, Kabupaten Pohuwato, Gorontalo 96266","Jl. Trans-Sulawesi, Marisa Utara, Kec. Marisa, Kabupaten Pohuwato",GORONTALO,96266.0,Indonesia,,,,0.467574,1.219.326.754,https://maps.google.com/?cid=0x0:0x9dd1696da0282af3,
toko bangunan,Toko Bahan Bangunan,TOKO BANGUNAN (SSA),"QJC7+5W6, Jl. Kelapa Dua Raya, Klp. Dua, Kec. Klp. Dua, Kabupaten Tangerang, Banten 15810","Jl. Kelapa Dua Raya, Klp. Dua, Kec. Klp. Dua, Kabupaten Tangerang",GORONTALO,15810.0,Indonesia,85777881888.0,,,-62.294.451,1.066.147.905,https://maps.google.com/?cid=0x0:0x9cdabec24bdbafb8,
toko bangunan,Toko Bahan Bangunan,Toko Cat  Bangunan : MAKMUR BANGUNAN,"Jl. Percetakan Negara No.66D, Johar Baru, Kec. Johar Baru, Kota Jakarta Pusat, Daerah Khusus Ibukota Jakarta 10560","Johar Baru, Kec. Johar Baru, Kota Jakarta Pusat",GORONTALO,10560.0,Indonesia,87885709000.0,,,-61.881.347,1.068.633.217,https://maps.google.com/?cid=0x0:0x7d97590353e5c577,
toko bangunan,Toko Perlengkapan Rumah,Toko Brilian Jaya Prima Suplier Keramik Granite  Sanitary,"Jl. Percetakan Negara No.565, Rawasari, Kec. Cemp. Putih, Kota Jakarta Pusat, Daerah Khusus Ibukota Jakarta 10560","Rawasari, Kec. Cemp. Putih, Kota Jakarta Pusat",GORONTALO,10560.0,Indonesia,82281707825.0,,,-6.187.224,10.686.817,https://maps.google.com/?cid=0x0:0xf45df22adf2d3351,
toko bangunan,Toko Bahan Bangunan,Supermarket Acc Bangunan,"Jl. Raya Sawangan No.18, Depok I, Kec. Pancoran Mas, Kota Depok, Jawa Barat 16436","Depok I, Kec. Pancoran Mas, Kota Depok",GORONTALO,16436.0,Indonesia,87781340350.0,,,-6.398.724,10.681.099,https://maps.google.com/?cid=0x0:0xa5cc5981158e131e,
toko bangunan,Toko Bahan Bangunan,Toko Bangunan Agung Sejahtera,"Jalan Sunter Muara , RT. 11/05 no 55 RT 11 RW 05 no 55, Sunter Agung, Kec. Tj. Priok, Jkt Utara, Daerah Khusus, Ibukota, Daerah Khusus Ibukota Jakarta 14530","RT. 11/05 no 55 RT 11 RW 05 no 55, Sunter Agung, Kec. Tj. Priok, Jkt Utara, Daerah Khusus, Ibukota",GORONTALO,14530.0,Indonesia,81298926267.0,,,-6.146.419,1.068.557.684,https://maps.google.com/?cid=0x0:0x5e7700ba89c23fe0,
toko bangunan,toko bangunan,Gorontalo 96466,"Kabupaten Pohuwato, Gorontalo","Kabupaten Pohuwato, Gorontalo",GORONTALO,,Indonesia,,,,0.5225929,121.918.866,https://maps.google.com/?cid=0x0:0x51b8962633bca4f,
toko bangunan,Toko,Toko rahmat bangunan marisa,"FWHR+2PG, Jl. Sultan Amai, Botubilotahu Indah, Kec. Marisa, Kabupaten Pohuwato, Gorontalo 96266","Jl. Sultan Amai, Botubilotahu Indah, Kec. Marisa, Kabupaten Pohuwato",GORONTALO,96266.0,Indonesia,85335589920.0,,,0.4775509,1.219.418.261,https://maps.google.com/?cid=0x0:0xa2bb3be578970397,
toko bangunan,Toko,Makmur sentosa marisa,"Jl. Sultan Amai, Marisa Utara, Kec. Marisa, Kabupaten Pohuwato, Gorontalo 96265","Marisa Utara, Kec. Marisa, Kabupaten Pohuwato",GORONTALO,96265.0,Indonesia,8123513478.0,,,0.4723577,1.219.389.063,https://maps.google.com/?cid=0x0:0x7ec3010925b28695,
toko bangunan,Toko Bahan Bangunan,TOKO SURYA BANGUNAN MARISA,"FWCQ+36F, Jl. Sultan Amai, Marisa Utara, Kec. Marisa, Kabupaten Pohuwato, Gorontalo 96265","Jl. Sultan Amai, Marisa Utara, Kec. Marisa, Kabupaten Pohuwato",GORONTALO,96265.0,Indonesia,,,,0.4701875,1.219.380.484,https://maps.google.com/?cid=0x0:0x80094912e26dedb8,
toko bangunan,Toko Bahan Bangunan,TOKO JAGO BANGUNAN,"Jl. Diponegoro, Pohuwato Tim., Kec. Marisa, Kabupaten Pohuwato, Gorontalo 96265","Pohuwato Tim., Kec. Marisa, Kabupaten Pohuwato",GORONTALO,96265.0,Indonesia,85397810927.0,,,0.4574067,121.936.869,https://maps.google.com/?cid=0x0:0x43dd264c205c1b79,
toko bangunan,Pemasok Bahan Bangunan,Toko Maju Bangunan keramik,"FWFJ+WRX, Jl. Trans-Sulawesi, Buntulia Jaya, Kec. Duhiadaa, Kabupaten Pohuwato, Gorontalo 96466","Jl. Trans-Sulawesi, Buntulia Jaya, Kec. Duhiadaa, Kabupaten Pohuwato",GORONTALO,96466.0,Indonesia,,,,0.4748649,1.219.321.084,https://maps.google.com/?cid=0x0:0x7ad93aa3e08e18d7,
toko bangunan,Toko Bahan Bangunan,Mentari Jaya Bangunan Marisa,"FWJP+C4W, Sipatana, Kec. Buntulia, Kabupaten Pohuwato, Gorontalo 96466","Sipatana, Kec. Buntulia, Kabupaten Pohuwato",GORONTALO,96466.0,Indonesia,81234324364.0,,,0.4813082,1.219.353.609,https://maps.google.com/?cid=0x0:0x8ed5b3563f67e921,
toko bangunan,Toko Bahan Bangunan,Toko Berkat Abadi Bangunan,"Buntulia Tengah, Kec. Marisa, Kabupaten Pohuwato, Gorontalo 96466","Kec. Marisa, Kabupaten Pohuwato",GORONTALO,96466.0,Indonesia,,,,0.4792673,1.219.336.516,https://maps.google.com/?cid=0x0:0x12996b428582795b,
toko bangunan,Toko Bahan Bangunan,Mutiara Bangunan,"FWHR+7R3, Botubilotahu Indah, Kec. Marisa, Kabupaten Pohuwato, Gorontalo","Kabupaten Pohuwato, Gorontalo",GORONTALO,,Indonesia,81210245212.0,,,0.4781294,1.219.420.379,https://maps.google.com/?cid=0x0:0xda7e6ff3f7f7987a,
toko bangunan,Toko Bahan Bangunan,TOKO CAHAYA BANGUNAN,"FWGJ+WW4, Sipatana, Kec. Buntulia, Kabupaten Pohuwato, Gorontalo 96466","Sipatana, Kec. Buntulia, Kabupaten Pohuwato",GORONTALO,96466.0,Indonesia,85185536567.0,,,0.4772533,1.219.323.384,https://maps.google.com/?cid=0x0:0x36941efbe6f07e4a,
toko bangunan,Pasar bahan bangunan,Toko Pancaran Berkat,"FW9J+HC5, Marisa Utara, Kec. Marisa, Kabupaten Pohuwato, Gorontalo 96266","Marisa Utara, Kec. Marisa, Kabupaten Pohuwato",GORONTALO,96266.0,Indonesia,,,,0.4688801,1.219.310.992,https://maps.google.com/?cid=0x0:0xb451b02d45c3ffd2,
toko bangunan,Toko Bahan Bangunan,UD. Sinar Palu,"FWGP+GP9, Botubilotahu Indah, Kec. Marisa, Kabupaten Pohuwato, Gorontalo 96265","Botubilotahu Indah, Kec. Marisa, Kabupaten Pohuwato",GORONTALO,96265.0,Indonesia,,,,0.4762925,121.936.847,https://maps.google.com/?cid=0x0:0xe27725c866839d2d,
toko bangunan,Toko Bahan Bangunan,TOKO R2 BANGUNAN,"Jl. Trans-Sulawesi No.196, Buntulia Tengah, Kec. Buntulia, Kabupaten Pohuwato, Gorontalo 96466","Buntulia Tengah, Kec. Buntulia, Kabupaten Pohuwato",GORONTALO,96466.0,Indonesia,,,,0.486066,1.219.350.154,https://maps.google.com/?cid=0x0:0x6429c15481fce075,
toko bangunan,Toko Bahan Bangunan,Primax bangunan,"Jl. Sultan Amai, Marisa Utara, Kec. Marisa, Kabupaten Pohuwato, Gorontalo 96265","Marisa Utara, Kec. Marisa, Kabupaten Pohuwato",GORONTALO,96265.0,Indonesia,81341818643.0,,,0.4726686,1.219.389.643,https://maps.google.com/?cid=0x0:0x4a1749b50b689c70,
toko bangunan,Toko Bahan Bangunan,Toko.Maju Bangunan Steel,"FWGQ+5WJ, Jl. Hulude Bunggu, Botubilotahu Indah, Kec. Marisa, Kabupaten Pohuwato, Gorontalo 96265","Jl. Hulude Bunggu, Botubilotahu Indah, Kec. Marisa, Kabupaten Pohuwato",GORONTALO,96265.0,Indonesia,,,,0.4754629,1.219.397.608,https://maps.google.com/?cid=0x0:0xe1a77c65414cbfd6,
toko bangunan,Toko Bahan Bangunan,Toko Meraki,"Botubilotahu Indah, Kec. Marisa, Kabupaten Pohuwato, Gorontalo","Kabupaten Pohuwato, Gorontalo",GORONTALO,,Indonesia,,,,0.4766025,1.219.354.884,https://maps.google.com/?cid=0x0:0xd28f7fd4ee9882a0,
toko bangunan,Toko,Marisa Jaya,"FW6X+WXR, Palopo, Kec. Marisa, Kabupaten Pohuwato, Gorontalo 96265","Palopo, Kec. Marisa, Kabupaten Pohuwato",GORONTALO,96265.0,Indonesia,85708091670.0,,,0.4623877,1.219.499.404,https://maps.google.com/?cid=0x0:0x1a1a48ec99897421,
toko bangunan,Toko Bahan Bangunan,Toko Asy Bangunan,"Sipatana, Kec. Buntulia, Kabupaten Pohuwato, Gorontalo","Kabupaten Pohuwato, Gorontalo",GORONTALO,,Indonesia,,,,0.4816032,1.219.251.878,https://maps.google.com/?cid=0x0:0x5221518e0391d42e,
toko bangunan,toko bangunan,Toko Indo Makmur Bangunan,"FWFJ+3JR, Buntulia Sel., Kec. Duhiadaa, Kabupaten Pohuwato, Gorontalo","Kabupaten Pohuwato, Gorontalo",GORONTALO,,Indonesia,,,,0.4727377,1.219.315.092,https://maps.google.com/?cid=0x0:0xf09e90b4f1cca912,
toko bangunan,Toko,PT. Havana Tunas Gemilang,"FW4Q+RVX, Jl. Diponegoro, Marisa Sel., Kec. Marisa, Kabupaten Pohuwato, Gorontalo 96265","Jl. Diponegoro, Marisa Sel., Kec. Marisa, Kabupaten Pohuwato",GORONTALO,96265.0,Indonesia,81248728949.0,,,0.4571104,1.219.397.397,https://maps.google.com/?cid=0x0:0x5dcedf50da2c866,
toko bangunan,Toko Bahan Bangunan,Toko Cat  Bangunan : MAKMUR BANGUNAN,"Jl. Percetakan Negara No.66D, Johar Baru, Kec. Johar Baru, Kota Jakarta Pusat, Daerah Khusus Ibukota Jakarta 10560","Johar Baru, Kec. Johar Baru, Kota Jakarta Pusat",GORONTALO,10560.0,Indonesia,87885709000.0,,,-61.881.347,1.068.633.217,https://maps.google.com/?cid=0x0:0x7d97590353e5c577,
toko bangunan,Toko Bahan Bangunan,Toko Bangunan Alam Makmur,"Jl. H. Nawi Raya No.23, RT.7/RW.7, Gandaria Utara, Kec. Kby. Baru, Kota Jakarta Selatan, Daerah Khusus Ibukota Jakarta 12140","RT.7/RW.7, Gandaria Utara, Kec. Kby. Baru, Kota Jakarta Selatan",GORONTALO,12140.0,Indonesia,217250363.0,,,-62.640.276,1.067.930.342,https://maps.google.com/?cid=0x0:0x3d1c3ae18a99bca0,
toko bangunan,Toko Perlengkapan Rumah,Toko Brilian Jaya Prima Suplier Keramik Granite  Sanitary,"Jl. Percetakan Negara No.565, Rawasari, Kec. Cemp. Putih, Kota Jakarta Pusat, Daerah Khusus Ibukota Jakarta 10560","Rawasari, Kec. Cemp. Putih, Kota Jakarta Pusat",GORONTALO,10560.0,Indonesia,82281707825.0,,,-6.187.224,10.686.817,https://maps.google.com/?cid=0x0:0xf45df22adf2d3351,
toko bangunan,Toko Perlengkapan Rumah,Belanja Keramik Cinere,"Jl. H. Isan, Meruyung, Kec. Limo, Kota Depok, Jawa Barat 16514","Meruyung, Kec. Limo, Kota Depok",GORONTALO,16514.0,Indonesia,81513032000.0,,,-63.741.633,1.067.713.665,https://maps.google.com/?cid=0x0:0x40eae30b6c824071,
toko bangunan,toko bangunan,Kec. Paguat,"Kabupaten Pohuwato, Gorontalo","Kabupaten Pohuwato, Gorontalo",GORONTALO,,Indonesia,,,,0.4910265,122.073.703,https://maps.google.com/?cid=0x0:0x9c57f083f00632a6,
toko bangunan,Toko Bahan Bangunan,Toko DINNA BANGUNAN,"F3RC+5QH, Jl. Trans-Sulawesi, Siduan, Kec. Paguat, Kabupaten Pohuwato, Gorontalo 96265","Jl. Trans-Sulawesi, Siduan, Kec. Paguat, Kabupaten Pohuwato",GORONTALO,96265.0,Indonesia,85240875320.0,,,0.4904292,1.220.719.819,https://maps.google.com/?cid=0x0:0x7e3d30d70df3ebb1,
toko bangunan,Taman Kanak-kanak,TK SENG BERTUS,"F3RF+C86, Siduan, Kec. Paguat, Kabupaten Pohuwato, Gorontalo 96265","Siduan, Kec. Paguat, Kabupaten Pohuwato",GORONTALO,96265.0,Indonesia,,,,0.4910364,1.220.732.733,https://maps.google.com/?cid=0x0:0xec6114696d804caf,
toko bangunan,Pemasok Bahan Bangunan,Toko Maju Bangunan keramik,"FWFJ+WRX, Jl. Trans-Sulawesi, Buntulia Jaya, Kec. Duhiadaa, Kabupaten Pohuwato, Gorontalo 96466","Jl. Trans-Sulawesi, Buntulia Jaya, Kec. Duhiadaa, Kabupaten Pohuwato",GORONTALO,96466.0,Indonesia,,,,0.4748649,1.219.321.084,https://maps.google.com/?cid=0x0:0x7ad93aa3e08e18d7,
toko bangunan,Toko Bahan Bangunan,TOKO CAHAYA BANGUNAN,"FWGJ+WW4, Sipatana, Kec. Buntulia, Kabupaten Pohuwato, Gorontalo 96466","Sipatana, Kec. Buntulia, Kabupaten Pohuwato",GORONTALO,96466.0,Indonesia,85185536567.0,,,0.4772533,1.219.323.384,https://maps.google.com/?cid=0x0:0x36941efbe6f07e4a,
toko bangunan,Toko Bahan Bangunan,Toko Zein,"FXCR+424, Jl. Trans Sulawesi, Ampibabo, Maleo, Parigi Tengah, Kabupaten Pohuwato, Gorontalo 96265","Jl. Trans Sulawesi, Ampibabo, Maleo, Parigi Tengah, Kabupaten Pohuwato",GORONTALO,96265.0,Indonesia,85398470789.0,,,0.4702517,1.219.900.905,https://maps.google.com/?cid=0x0:0xa615f3ab0e4e4ce6,
toko bangunan,Toko Bahan Bangunan,Toko Golden Bangunan,"H3J4+HXV, Bulotadaa, Kec. Sipatana, Kabupaten Gorontalo, Gorontalo 96139","Bulotadaa, Kec. Sipatana, Kabupaten Gorontalo",GORONTALO,96139.0,Indonesia,,,,0.5814976,1.230.574.234,https://maps.google.com/?cid=0x0:0x453c5f8d09646695,
toko bangunan,Toko Bahan Bangunan,Toko Asy Bangunan,"Sipatana, Kec. Buntulia, Kabupaten Pohuwato, Gorontalo","Kabupaten Pohuwato, Gorontalo",GORONTALO,,Indonesia,,,,0.4816032,1.219.251.878,https://maps.google.com/?cid=0x0:0x5221518e0391d42e,
toko bangunan,Toko umum,Sinar Abadi Marampak,"FXCR+423, Jl. Trans-Sulawesi, Matabolo, Kec. Bunta, Kabupaten Pohuwato, Gorontalo 96265","Jl. Trans-Sulawesi, Matabolo, Kec. Bunta, Kabupaten Pohuwato",GORONTALO,96265.0,Indonesia,81354608376.0,,,0.470259,1.219.900.591,https://maps.google.com/?cid=0x0:0x1a02ee72a8cc660a,
toko bangunan,Toko Bahan Bangunan,TOKO SURYA BANGUNAN MARISA,"FWCQ+36F, Jl. Sultan Amai, Marisa Utara, Kec. Marisa, Kabupaten Pohuwato, Gorontalo 96265","Jl. Sultan Amai, Marisa Utara, Kec. Marisa, Kabupaten Pohuwato",GORONTALO,96265.0,Indonesia,,,,0.4701875,1.219.380.484,https://maps.google.com/?cid=0x0:0x80094912e26dedb8,
toko bangunan,Toko Bahan Bangunan,Toko Bahan Bangunan Agung Mulia Gorontalo,"Jl. Ahmad A. Wahab, Pantungo, Kec. Telaga Biru, Kabupaten Gorontalo, Gorontalo 96181","Pantungo, Kec. Telaga Biru, Kabupaten Gorontalo",GORONTALO,96181.0,Indonesia,81340021774.0,,,0.5923488,123.035.742,https://maps.google.com/?cid=0x0:0xaa0790c445417bb3,
toko bangunan,Pemasok Bahan Bangunan,Toko Bahan Bangunan Sari Agung,"Bulila, Kec. Telaga, Kabupaten Gorontalo, Gorontalo 96138","Kec. Telaga, Kabupaten Gorontalo",GORONTALO,96138.0,Indonesia,82196031500.0,,,0.5765609,1.230.449.069,https://maps.google.com/?cid=0x0:0x1ec016b864d215a6,
toko bangunan,Toko Bahan Bangunan,Toko Bangunan,"Unnamed Road, 96138, Tapa, Kec. Sipatana, Kabupaten Gorontalo, Gorontalo 96138","96138, Tapa, Kec. Sipatana, Kabupaten Gorontalo",GORONTALO,96138.0,Indonesia,,,,0.5736978,1.230.555.801,https://maps.google.com/?cid=0x0:0x7fbf59038733c1f2,
toko bangunan,Toko Bahan Bangunan,Toko Bangunan Istana Bangunan,"Jl. D.I. Panjaitan, Limba U I, Kota Sel., Kota Gorontalo, Gorontalo 96135","Limba U I, Kota Sel., Kota Gorontalo",GORONTALO,96135.0,Indonesia,,,,0.5481889,123.062.409,https://maps.google.com/?cid=0x0:0xb8e64cbbbe885a9a,
toko bangunan,Kantor Perusahaan,Kantor Korwil Pendidilan Paguat,"F3QG+945 Samping Toko Bangunan, Kompleks Taman, Pentadu, Kec. Paguat, Kabupaten Pohuwato, Gorontalo","Kabupaten Pohuwato, Gorontalo",GORONTALO,,Indonesia,82191345561.0,,,0.4883781,1.220.753.749,https://maps.google.com/?cid=0x0:0x1b4c27331c80721c,
toko bangunan,Toko,Marisa Jaya,"FW6X+WXR, Palopo, Kec. Marisa, Kabupaten Pohuwato, Gorontalo 96265","Palopo, Kec. Marisa, Kabupaten Pohuwato",GORONTALO,96265.0,Indonesia,85708091670.0,,,0.4623877,1.219.499.404,https://maps.google.com/?cid=0x0:0x1a1a48ec99897421,
toko bangunan,Toko Bahan Bangunan,Sinar Bangunan Gorontalo,"Jalan Kasuari Baru No.8, Heledulaa, Kota Timur, Heledulaa, Gorontalo, Kota Gorontalo, Gorontalo 96135","Heledulaa, Kota Timur, Heledulaa, Gorontalo, Kota Gorontalo",GORONTALO,96135.0,Indonesia,85395585268.0,,,0.5459753,1.230.653.457,https://maps.google.com/?cid=0x0:0xf278c2a9fcd91c78,
toko bangunan,toko bangunan,Gorontalo 96266,"Kabupaten Pohuwato, Gorontalo","Kabupaten Pohuwato, Gorontalo",GORONTALO,,Indonesia,,,,0.6235288,1.218.790.306,https://maps.google.com/?cid=0x0:0x6e323a18714b4718,
toko bangunan,Toko Bahan Bangunan,TOKO JAGO BANGUNAN,"Jl. Diponegoro, Pohuwato Tim., Kec. Marisa, Kabupaten Pohuwato, Gorontalo 96265","Pohuwato Tim., Kec. Marisa, Kabupaten Pohuwato",GORONTALO,96265.0,Indonesia,85397810927.0,,,0.4574067,121.936.869,https://maps.google.com/?cid=0x0:0x43dd264c205c1b79,
toko bangunan,Pemasok Bahan Bangunan,Toko Maju Bangunan keramik,"FWFJ+WRX, Jl. Trans-Sulawesi, Buntulia Jaya, Kec. Duhiadaa, Kabupaten Pohuwato, Gorontalo 96466","Jl. Trans-Sulawesi, Buntulia Jaya, Kec. Duhiadaa, Kabupaten Pohuwato",GORONTALO,96466.0,Indonesia,,,,0.4748649,1.219.321.084,https://maps.google.com/?cid=0x0:0x7ad93aa3e08e18d7,
toko bangunan,Toko Bahan Bangunan,Toko Jago Bangunan 2,"FWHJ+8XV, Buntulia Jaya, Kec. Marisa, Kabupaten Pohuwato, Gorontalo 96466","Buntulia Jaya, Kec. Marisa, Kabupaten Pohuwato",GORONTALO,96466.0,Indonesia,82358761840.0,,,0.4783581,1.219.324.343,https://maps.google.com/?cid=0x0:0x60be9b90df35cdf5,
toko bangunan,Toko,Toko rahmat bangunan marisa,"FWHR+2PG, Jl. Sultan Amai, Botubilotahu Indah, Kec. Marisa, Kabupaten Pohuwato, Gorontalo 96266","Jl. Sultan Amai, Botubilotahu Indah, Kec. Marisa, Kabupaten Pohuwato",GORONTALO,96266.0,Indonesia,85335589920.0,,,0.4775509,1.219.418.261,https://maps.google.com/?cid=0x0:0xa2bb3be578970397,
toko bangunan,Toko Bahan Bangunan,Toko Sumber Bangunan Taluditi .pangkalan LPG .ahmadagusalim,"JRMC+G43, Unnamed Road, Panca Karsa II, Kec. Taluditi, Kabupaten Pohuwato, Gorontalo 96469","Unnamed Road, Panca Karsa II, Kec. Taluditi, Kabupaten Pohuwato",GORONTALO,96469.0,Indonesia,,,,0.6337585,1.218.202.861,https://maps.google.com/?cid=0x0:0xfd3f43d10d637df9,
toko bangunan,Toko Bahan Bangunan,UD.BAROKAH,"JVQ7+828, Tirto Asri, Kec. Taluditi, Kabupaten Pohuwato, Gorontalo","Kabupaten Pohuwato, Gorontalo",GORONTALO,,Indonesia,85298075542.0,,,0.6382335,1.218.639.125,https://maps.google.com/?cid=0x0:0x5458b28b9450e361,
toko bangunan,Toko Bahan Bangunan,TOKO RANDY,"JVQ6+R48, Tirto Asri, Kec. Taluditi, Kabupaten Pohuwato, Gorontalo 96266","Tirto Asri, Kec. Taluditi, Kabupaten Pohuwato",GORONTALO,96266.0,Indonesia,87873964625.0,,,0.6395403,1.218.603.388,https://maps.google.com/?cid=0x0:0x142454996efe93fc,
toko bangunan,Toko,PT. Havana Tunas Gemilang,"FW4Q+RVX, Jl. Diponegoro, Marisa Sel., Kec. Marisa, Kabupaten Pohuwato, Gorontalo 96265","Jl. Diponegoro, Marisa Sel., Kec. Marisa, Kabupaten Pohuwato",GORONTALO,96265.0,Indonesia,81248728949.0,,,0.4571104,1.219.397.397,https://maps.google.com/?cid=0x0:0x5dcedf50da2c866,
toko bangunan,,Toko bangunan pujangga,"pertigaan indomaret masuk dalam, Jl. Trans-Sulawesi, Motolohu, Kec. Randangan, Kabupaten Pohuwato, Gorontalo","Kabupaten Pohuwato, Gorontalo",GORONTALO,,Indonesia,,,,0.5333526,1.218.148.921,https://maps.google.com/?cid=0x0:0x14bdf2917c823fb3,
toko bangunan,,UD. PUTRA HUYULA,"Huyula, Kec. Randangan, Kabupaten Pohuwato, Gorontalo 96469","Kec. Randangan, Kabupaten Pohuwato",GORONTALO,96469.0,Indonesia,82226666966.0,,,0.5077318,1.218.117.379,https://maps.google.com/?cid=0x0:0x66f3cfc85c3725a,
toko bangunan,Toko Bahan Bangunan,UD. Sinar Palu,"FWGP+GP9, Botubilotahu Indah, Kec. Marisa, Kabupaten Pohuwato, Gorontalo 96265","Botubilotahu Indah, Kec. Marisa, Kabupaten Pohuwato",GORONTALO,96265.0,Indonesia,,,,0.4762925,121.936.847,https://maps.google.com/?cid=0x0:0xe27725c866839d2d,
toko bangunan,Toko Bahan Bangunan,TOKO R2 BANGUNAN,"Jl. Trans-Sulawesi No.196, Buntulia Tengah, Kec. Buntulia, Kabupaten Pohuwato, Gorontalo 96466","Buntulia Tengah, Kec. Buntulia, Kabupaten Pohuwato",GORONTALO,96466.0,Indonesia,,,,0.486066,1.219.350.154,https://maps.google.com/?cid=0x0:0x6429c15481fce075,
toko bangunan,Pasar bahan bangunan,Toko Pancaran Berkat,"FW9J+HC5, Marisa Utara, Kec. Marisa, Kabupaten Pohuwato, Gorontalo 96266","Marisa Utara, Kec. Marisa, Kabupaten Pohuwato",GORONTALO,96266.0,Indonesia,,,,0.4688801,1.219.310.992,https://maps.google.com/?cid=0x0:0xb451b02d45c3ffd2,
toko bangunan,Toko Bahan Bangunan,Toko Asy Bangunan,"Sipatana, Kec. Buntulia, Kabupaten Pohuwato, Gorontalo","Kabupaten Pohuwato, Gorontalo",GORONTALO,,Indonesia,,,,0.4816032,1.219.251.878,https://maps.google.com/?cid=0x0:0x5221518e0391d42e,
toko bangunan,Toko Bahan Bangunan,Toko Berkat Abadi Bangunan,"Buntulia Tengah, Kec. Marisa, Kabupaten Pohuwato, Gorontalo 96466","Kec. Marisa, Kabupaten Pohuwato",GORONTALO,96466.0,Indonesia,,,,0.4792673,1.219.336.516,https://maps.google.com/?cid=0x0:0x12996b428582795b,
toko bangunan,Toko,Makmur sentosa marisa,"Jl. Sultan Amai, Marisa Utara, Kec. Marisa, Kabupaten Pohuwato, Gorontalo 96265","Marisa Utara, Kec. Marisa, Kabupaten Pohuwato",GORONTALO,96265.0,Indonesia,8123513478.0,,,0.4723577,1.219.389.063,https://maps.google.com/?cid=0x0:0x7ec3010925b28695,
toko bangunan,Toko Bahan Bangunan,TOKO POLA BANGUNAN,"GRP8+HF5, Marisa - Lemito 2, Motolohu, Kec. Randangan, Kabupaten Pohuwato, Gorontalo 96469","Marisa - Lemito 2, Motolohu, Kec. Randangan, Kabupaten Pohuwato",GORONTALO,96469.0,Indonesia,,,,0.536397,1.218.162.253,https://maps.google.com/?cid=0x0:0x81c9d45b3edbc5f9,
toko bangunan,Toko bahan makanan,TOKO BERKAT GEMILANG,"FWHM+75R, Sipatana, Kec. Buntulia, Kabupaten Pohuwato, Gorontalo 96466","Sipatana, Kec. Buntulia, Kabupaten Pohuwato",GORONTALO,96466.0,Indonesia,8114322633.0,,,0.4782483,1.219.328.827,https://maps.google.com/?cid=0x0:0x89f75991774af544,
toko bangunan,Toko Bahan Bangunan,TOKO SURYA BANGUNAN MARISA,"FWCQ+36F, Jl. Sultan Amai, Marisa Utara, Kec. Marisa, Kabupaten Pohuwato, Gorontalo 96265","Jl. Sultan Amai, Marisa Utara, Kec. Marisa, Kabupaten Pohuwato",GORONTALO,96265.0,Indonesia,,,,0.4701875,1.219.380.484,https://maps.google.com/?cid=0x0:0x80094912e26dedb8,
toko bangunan,Toko Bahan Bangunan,Mentari Jaya Bangunan Marisa,"FWJP+C4W, Sipatana, Kec. Buntulia, Kabupaten Pohuwato, Gorontalo 96466","Sipatana, Kec. Buntulia, Kabupaten Pohuwato",GORONTALO,96466.0,Indonesia,81234324364.0,,,0.4813082,1.219.353.609,https://maps.google.com/?cid=0x0:0x8ed5b3563f67e921,
toko bangunan,toko bangunan,Kec. Patilanggio,"Kabupaten Pohuwato, Gorontalo","Kabupaten Pohuwato, Gorontalo",GORONTALO,,Indonesia,,,,0.5468802,12.186.498,https://maps.google.com/?cid=0x0:0x53eff626ccc95490,
toko bangunan,Toko umum,Metro Bangunan  Vape stor,"GV37+FR9, Unnamed Road, Dulomo, Kec. Patilanggio, Kabupaten Pohuwato, Gorontalo 96266","Unnamed Road, Dulomo, Kec. Patilanggio, Kabupaten Pohuwato",GORONTALO,96266.0,Indonesia,82189016969.0,,,0.5036567,1.218.646,https://maps.google.com/?cid=0x0:0x1d409e11972eb60f,
toko bangunan,Toko Bahan Bangunan,Toko Bahan Bangunan Agung Mulia Gorontalo,"Jl. Ahmad A. Wahab, Pantungo, Kec. Telaga Biru, Kabupaten Gorontalo, Gorontalo 96181","Pantungo, Kec. Telaga Biru, Kabupaten Gorontalo",GORONTALO,96181.0,Indonesia,81340021774.0,,,0.5923488,123.035.742,https://maps.google.com/?cid=0x0:0xaa0790c445417bb3,
toko bangunan,Toko Mebel,UD.MEUBEL AKBAR,"Jl.napoleon, dusun kramat. Sebelum gereja pante kosta pertama sebelah kanan Pas dekat dgn bangunan besar belum terplester, Pohuwato Tim., Kec. Marisa, Kabupaten Pohuwato, Gorontalo 96266","dusun kramat. Sebelum gereja pante kosta pertama sebelah kanan Pas dekat dgn bangunan besar belum terplester, Pohuwato Tim., Kec. Marisa, Kabupaten Pohuwato",GORONTALO,96266.0,Indonesia,82194917825.0,,,0.4529825,1.219.384.271,https://maps.google.com/?cid=0x0:0xcfad6388e1916e3d,
toko bangunan,toko bangunan,Popayato,"Kabupaten Pohuwato, Gorontalo","Kabupaten Pohuwato, Gorontalo",GORONTALO,,Indonesia,,,,0.6508515,12.143.419,https://maps.google.com/?cid=0x0:0xd03550efb58cf562,
toko bangunan,Pusat Perbelanjaan,Central Bangunan,"GF8M+VFG, Maleo, Kec. Popayato Tim., Kabupaten Pohuwato, Gorontalo 96467","Maleo, Kec. Popayato Tim., Kabupaten Pohuwato",GORONTALO,96467.0,Indonesia,85708091670.0,,,0.5171993,1.214.836.883,https://maps.google.com/?cid=0x0:0xb7fadfe4998a5b29,
toko bangunan,Pusat Perbelanjaan,RED BANGUNAN,"GF33+GV9, Telaga Biru, Popayato, Kabupaten Pohuwato, Gorontalo 96467","Telaga Biru, Popayato, Kabupaten Pohuwato",GORONTALO,96467.0,Indonesia,,,,0.5037882,1.214.547.358,https://maps.google.com/?cid=0x0:0x68fbf4a4f2ee7c89,
toko bangunan,Toko,Toko Lestari,"GFCQ+Q98, Maleo, Kec. Popayato Tim., Kabupaten Pohuwato, Gorontalo 96467","Maleo, Kec. Popayato Tim., Kabupaten Pohuwato",GORONTALO,96467.0,Indonesia,,,,0.5221754,1.214.882.267,https://maps.google.com/?cid=0x0:0xe12cdc4d16f7db2f,
toko bangunan,Toko Perlengkapan Rumah,Toko Fathur,"Jl. Trans-Sulawesi, Telaga Biru, Popayato, Kabupaten Pohuwato, Gorontalo 96467","Telaga Biru, Popayato, Kabupaten Pohuwato",GORONTALO,96467.0,Indonesia,,,,0.5041646,1.214.542.879,https://maps.google.com/?cid=0x0:0x886eea98947c2879,
toko bangunan,Toko Bahan Bangunan,Toko cahaya pangkep,"GF7M+W7M, Jl. Trans-Sulawesi, Maleo, Kec. Popayato Tim., Kabupaten Pohuwato, Gorontalo 96467","Jl. Trans-Sulawesi, Maleo, Kec. Popayato Tim., Kabupaten Pohuwato",GORONTALO,96467.0,Indonesia,81381692050.0,,,0.5148384,1.214.831.669,https://maps.google.com/?cid=0x0:0x7df0129707605345,
toko bangunan,Toko,Toko STAR UTAMA,"GFCQ+Q98, Maleo, Kec. Popayato Tim., Kabupaten Pohuwato, Gorontalo 96467","Maleo, Kec. Popayato Tim., Kabupaten Pohuwato",GORONTALO,96467.0,Indonesia,,,,0.5219051,1.214.884.559,https://maps.google.com/?cid=0x0:0x9b1d65ef7d83f37c,
toko bangunan,toko bangunan,Gorontalo 96467,"Kabupaten Pohuwato, Gorontalo","Kabupaten Pohuwato, Gorontalo",GORONTALO,,Indonesia,,,,0.7082941,1.213.541.631,https://maps.google.com/?cid=0x0:0x6a37da13e8b9d9f7,
toko bangunan,Pusat Perbelanjaan,RED BANGUNAN,"GF33+GV9, Telaga Biru, Popayato, Kabupaten Pohuwato, Gorontalo 96467","Telaga Biru, Popayato, Kabupaten Pohuwato",GORONTALO,96467.0,Indonesia,,,,0.5037882,1.214.547.358,https://maps.google.com/?cid=0x0:0x68fbf4a4f2ee7c89,
toko bangunan,Pusat Perbelanjaan,Central Bangunan,"GF8M+VFG, Maleo, Kec. Popayato Tim., Kabupaten Pohuwato, Gorontalo 96467","Maleo, Kec. Popayato Tim., Kabupaten Pohuwato",GORONTALO,96467.0,Indonesia,85708091670.0,,,0.5171993,1.214.836.883,https://maps.google.com/?cid=0x0:0xb7fadfe4998a5b29,
toko bangunan,Toko Bahan Bangunan,Toko cahaya pangkep,"GF7M+W7M, Jl. Trans-Sulawesi, Maleo, Kec. Popayato Tim., Kabupaten Pohuwato, Gorontalo 96467","Jl. Trans-Sulawesi, Maleo, Kec. Popayato Tim., Kabupaten Pohuwato",GORONTALO,96467.0,Indonesia,81381692050.0,,,0.5148384,1.214.831.669,https://maps.google.com/?cid=0x0:0x7df0129707605345,
toko bangunan,Toko,Toko Lestari,"GFCQ+Q98, Maleo, Kec. Popayato Tim., Kabupaten Pohuwato, Gorontalo 96467","Maleo, Kec. Popayato Tim., Kabupaten Pohuwato",GORONTALO,96467.0,Indonesia,,,,0.5221754,1.214.882.267,https://maps.google.com/?cid=0x0:0xe12cdc4d16f7db2f,
toko bangunan,toko bangunan,Toko Nusantara Bangunan Lemito,"Jalan Trans Sulawesi Ds. Ponelo, Lemito Utara, Kec. Lemito, Kabupaten Pohuwato, Gorontalo","Kabupaten Pohuwato, Gorontalo",GORONTALO,,Indonesia,85266222296.0,,,0.5474748,1.215.724.118,https://maps.google.com/?cid=0x0:0x1e16e4de03ce4dc7,
toko bangunan,Toko,Toko STAR UTAMA,"GFCQ+Q98, Maleo, Kec. Popayato Tim., Kabupaten Pohuwato, Gorontalo 96467","Maleo, Kec. Popayato Tim., Kabupaten Pohuwato",GORONTALO,96467.0,Indonesia,,,,0.5219051,1.214.884.559,https://maps.google.com/?cid=0x0:0x9b1d65ef7d83f37c,
toko bangunan,Toko Perlengkapan Rumah,Toko Fathur,"Jl. Trans-Sulawesi, Telaga Biru, Popayato, Kabupaten Pohuwato, Gorontalo 96467","Telaga Biru, Popayato, Kabupaten Pohuwato",GORONTALO,96467.0,Indonesia,,,,0.5041646,1.214.542.879,https://maps.google.com/?cid=0x0:0x886eea98947c2879,
toko bangunan,Toko Bahan Bangunan,Mulia Depo Bangunan (MDB),"HH3C+QJH, Jl. Trans-Sulawesi, Lemito Utara, Kec. Lemito, Kabupaten Pohuwato, Gorontalo 96468","Jl. Trans-Sulawesi, Lemito Utara, Kec. Lemito, Kabupaten Pohuwato",GORONTALO,96468.0,Indonesia,82291661879.0,,,0.5541343,1.215.716.613,https://maps.google.com/?cid=0x0:0x2781230fc31a837e,
toko bangunan,Toko Bahan Bangunan,TOKO JAGO BANGUNAN,"Jl. Diponegoro, Pohuwato Tim., Kec. Marisa, Kabupaten Pohuwato, Gorontalo 96265","Pohuwato Tim., Kec. Marisa, Kabupaten Pohuwato",GORONTALO,96265.0,Indonesia,85397810927.0,,,0.4574067,121.936.869,https://maps.google.com/?cid=0x0:0x43dd264c205c1b79,
toko bangunan,Toko Bahan Bangunan,TOKO CAHAYA BANGUNAN,"FWGJ+WW4, Sipatana, Kec. Buntulia, Kabupaten Pohuwato, Gorontalo 96466","Sipatana, Kec. Buntulia, Kabupaten Pohuwato",GORONTALO,96466.0,Indonesia,85185536567.0,,,0.4772533,1.219.323.384,https://maps.google.com/?cid=0x0:0x36941efbe6f07e4a,
toko bangunan,Toko Bahan Bangunan,UD. Berkah Djaya,"HH2C+7V7, Jl. Trans-Sulawesi, Lemito Utara, Kec. Lemito, Kabupaten Pohuwato, Gorontalo 96468","Jl. Trans-Sulawesi, Lemito Utara, Kec. Lemito, Kabupaten Pohuwato",GORONTALO,96468.0,Indonesia,,,,0.5506555,1.215.721.746,https://maps.google.com/?cid=0x0:0xd139f18e7ffd6233,
toko bangunan,Pusat Perbelanjaan,TOKO DINAN DION,"F9R8+HG7 Depan Kantor, Jl. Trans-Sulawesi, Persatuan, Kec. Popayato Bar., Kabupaten Pohuwato, Gorontalo 96467","Jl. Trans-Sulawesi, Persatuan, Kec. Popayato Bar., Kabupaten Pohuwato",GORONTALO,96467.0,Indonesia,,,,0.4914087,1.213.663.025,https://maps.google.com/?cid=0x0:0xb67bc6673703e035,
toko bangunan,Toko,Toko aneka jaya popayato,"GF46+3RP, Jl. Trans-Sulawesi, Telaga Biru, Popayato, Kabupaten Pohuwato, Gorontalo 96467","Jl. Trans-Sulawesi, Telaga Biru, Popayato, Kabupaten Pohuwato",GORONTALO,96467.0,Indonesia,81315485403.0,,,0.5052221,1.214.620.642,https://maps.google.com/?cid=0x0:0x47aa4ec0d1cadb1e,
toko bangunan,toko bangunan,Gorontalo 96266,"Kabupaten Pohuwato, Gorontalo","Kabupaten Pohuwato, Gorontalo",GORONTALO,,Indonesia,,,,0.6235288,1.218.790.306,https://maps.google.com/?cid=0x0:0x6e323a18714b4718,
toko bangunan,Toko Bahan Bangunan,TOKO JAGO BANGUNAN,"Jl. Diponegoro, Pohuwato Tim., Kec. Marisa, Kabupaten Pohuwato, Gorontalo 96265","Pohuwato Tim., Kec. Marisa, Kabupaten Pohuwato",GORONTALO,96265.0,Indonesia,85397810927.0,,,0.4574067,121.936.869,https://maps.google.com/?cid=0x0:0x43dd264c205c1b79,
toko bangunan,Pemasok Bahan Bangunan,Toko Maju Bangunan keramik,"FWFJ+WRX, Jl. Trans-Sulawesi, Buntulia Jaya, Kec. Duhiadaa, Kabupaten Pohuwato, Gorontalo 96466","Jl. Trans-Sulawesi, Buntulia Jaya, Kec. Duhiadaa, Kabupaten Pohuwato",GORONTALO,96466.0,Indonesia,,,,0.4748649,1.219.321.084,https://maps.google.com/?cid=0x0:0x7ad93aa3e08e18d7,
toko bangunan,Toko Bahan Bangunan,Toko Sumber Bangunan Taluditi .pangkalan LPG .ahmadagusalim,"JRMC+G43, Unnamed Road, Panca Karsa II, Kec. Taluditi, Kabupaten Pohuwato, Gorontalo 96469","Unnamed Road, Panca Karsa II, Kec. Taluditi, Kabupaten Pohuwato",GORONTALO,96469.0,Indonesia,,,,0.6337585,1.218.202.861,https://maps.google.com/?cid=0x0:0xfd3f43d10d637df9,
toko bangunan,Toko Bahan Bangunan,TOKO RANDY,"JVQ6+R48, Tirto Asri, Kec. Taluditi, Kabupaten Pohuwato, Gorontalo 96266","Tirto Asri, Kec. Taluditi, Kabupaten Pohuwato",GORONTALO,96266.0,Indonesia,87873964625.0,,,0.6395403,1.218.603.388,https://maps.google.com/?cid=0x0:0x142454996efe93fc,
toko bangunan,Toko,Toko rahmat bangunan marisa,"FWHR+2PG, Jl. Sultan Amai, Botubilotahu Indah, Kec. Marisa, Kabupaten Pohuwato, Gorontalo 96266","Jl. Sultan Amai, Botubilotahu Indah, Kec. Marisa, Kabupaten Pohuwato",GORONTALO,96266.0,Indonesia,85335589920.0,,,0.4775509,1.219.418.261,https://maps.google.com/?cid=0x0:0xa2bb3be578970397,
toko bangunan,Toko Bahan Bangunan,Toko Jago Bangunan 2,"FWHJ+8XV, Buntulia Jaya, Kec. Marisa, Kabupaten Pohuwato, Gorontalo 96466","Buntulia Jaya, Kec. Marisa, Kabupaten Pohuwato",GORONTALO,96466.0,Indonesia,82358761840.0,,,0.4783581,1.219.324.343,https://maps.google.com/?cid=0x0:0x60be9b90df35cdf5,
toko bangunan,Toko Bahan Bangunan,TOKO R2 BANGUNAN,"Jl. Trans-Sulawesi No.196, Buntulia Tengah, Kec. Buntulia, Kabupaten Pohuwato, Gorontalo 96466","Buntulia Tengah, Kec. Buntulia, Kabupaten Pohuwato",GORONTALO,96466.0,Indonesia,,,,0.486066,1.219.350.154,https://maps.google.com/?cid=0x0:0x6429c15481fce075,
toko bangunan,Toko Bahan Bangunan,UD.BAROKAH,"JVQ7+828, Tirto Asri, Kec. Taluditi, Kabupaten Pohuwato, Gorontalo","Kabupaten Pohuwato, Gorontalo",GORONTALO,,Indonesia,85298075542.0,,,0.6382335,1.218.639.125,https://maps.google.com/?cid=0x0:0x5458b28b9450e361,
toko bangunan,toko bangunan,Toko Indo Makmur Bangunan,"FWFJ+3JR, Buntulia Sel., Kec. Duhiadaa, Kabupaten Pohuwato, Gorontalo","Kabupaten Pohuwato, Gorontalo",GORONTALO,,Indonesia,,,,0.4727377,1.219.315.092,https://maps.google.com/?cid=0x0:0xf09e90b4f1cca912,
toko bangunan,Toko Bahan Bangunan,Toko Asy Bangunan,"Sipatana, Kec. Buntulia, Kabupaten Pohuwato, Gorontalo","Kabupaten Pohuwato, Gorontalo",GORONTALO,,Indonesia,,,,0.4816032,1.219.251.878,https://maps.google.com/?cid=0x0:0x5221518e0391d42e,
toko bangunan,Toko Bahan Bangunan,UD. Sinar Palu,"FWGP+GP9, Botubilotahu Indah, Kec. Marisa, Kabupaten Pohuwato, Gorontalo 96265","Botubilotahu Indah, Kec. Marisa, Kabupaten Pohuwato",GORONTALO,96265.0,Indonesia,,,,0.4762925,121.936.847,https://maps.google.com/?cid=0x0:0xe27725c866839d2d,
toko bangunan,Toko Bahan Bangunan,TOKO POLA BANGUNAN,"GRP8+HF5, Marisa - Lemito 2, Motolohu, Kec. Randangan, Kabupaten Pohuwato, Gorontalo 96469","Marisa - Lemito 2, Motolohu, Kec. Randangan, Kabupaten Pohuwato",GORONTALO,96469.0,Indonesia,,,,0.536397,1.218.162.253,https://maps.google.com/?cid=0x0:0x81c9d45b3edbc5f9,
toko bangunan,Toko Bahan Bangunan,Toko Berkat Abadi Bangunan,"Buntulia Tengah, Kec. Marisa, Kabupaten Pohuwato, Gorontalo 96466","Kec. Marisa, Kabupaten Pohuwato",GORONTALO,96466.0,Indonesia,,,,0.4792673,1.219.336.516,https://maps.google.com/?cid=0x0:0x12996b428582795b,
toko bangunan,Pasar bahan bangunan,Toko Pancaran Berkat,"FW9J+HC5, Marisa Utara, Kec. Marisa, Kabupaten Pohuwato, Gorontalo 96266","Marisa Utara, Kec. Marisa, Kabupaten Pohuwato",GORONTALO,96266.0,Indonesia,,,,0.4688801,1.219.310.992,https://maps.google.com/?cid=0x0:0xb451b02d45c3ffd2,
toko bangunan,Toko,Makmur sentosa marisa,"Jl. Sultan Amai, Marisa Utara, Kec. Marisa, Kabupaten Pohuwato, Gorontalo 96265","Marisa Utara, Kec. Marisa, Kabupaten Pohuwato",GORONTALO,96265.0,Indonesia,8123513478.0,,,0.4723577,1.219.389.063,https://maps.google.com/?cid=0x0:0x7ec3010925b28695,
toko bangunan,,Toko bangunan pujangga,"pertigaan indomaret masuk dalam, Jl. Trans-Sulawesi, Motolohu, Kec. Randangan, Kabupaten Pohuwato, Gorontalo","Kabupaten Pohuwato, Gorontalo",GORONTALO,,Indonesia,,,,0.5333526,1.218.148.921,https://maps.google.com/?cid=0x0:0x14bdf2917c823fb3,
toko bangunan,Toko Bahan Bangunan,Toko.Maju Bangunan Steel,"FWGQ+5WJ, Jl. Hulude Bunggu, Botubilotahu Indah, Kec. Marisa, Kabupaten Pohuwato, Gorontalo 96265","Jl. Hulude Bunggu, Botubilotahu Indah, Kec. Marisa, Kabupaten Pohuwato",GORONTALO,96265.0,Indonesia,,,,0.4754629,1.219.397.608,https://maps.google.com/?cid=0x0:0xe1a77c65414cbfd6,
toko bangunan,Toko,Marisa Jaya,"FW6X+WXR, Palopo, Kec. Marisa, Kabupaten Pohuwato, Gorontalo 96265","Palopo, Kec. Marisa, Kabupaten Pohuwato",GORONTALO,96265.0,Indonesia,85708091670.0,,,0.4623877,1.219.499.404,https://maps.google.com/?cid=0x0:0x1a1a48ec99897421,
toko bangunan,Toko Bahan Bangunan,Mentari Jaya Bangunan Marisa,"FWJP+C4W, Sipatana, Kec. Buntulia, Kabupaten Pohuwato, Gorontalo 96466","Sipatana, Kec. Buntulia, Kabupaten Pohuwato",GORONTALO,96466.0,Indonesia,81234324364.0,,,0.4813082,1.219.353.609,https://maps.google.com/?cid=0x0:0x8ed5b3563f67e921,
toko bangunan,toko bangunan,Kec. Popayato Tim.,"Kabupaten Pohuwato, Gorontalo","Kabupaten Pohuwato, Gorontalo",GORONTALO,,Indonesia,,,,0.521171,1.214.876.076,https://maps.google.com/?cid=0x0:0xabc56e34572880b2,
toko bangunan,Pusat Perbelanjaan,Central Bangunan,"GF8M+VFG, Maleo, Kec. Popayato Tim., Kabupaten Pohuwato, Gorontalo 96467","Maleo, Kec. Popayato Tim., Kabupaten Pohuwato",GORONTALO,96467.0,Indonesia,85708091670.0,,,0.5171993,1.214.836.883,https://maps.google.com/?cid=0x0:0xb7fadfe4998a5b29,
toko bangunan,Pusat Perbelanjaan,RED BANGUNAN,"GF33+GV9, Telaga Biru, Popayato, Kabupaten Pohuwato, Gorontalo 96467","Telaga Biru, Popayato, Kabupaten Pohuwato",GORONTALO,96467.0,Indonesia,,,,0.5037882,1.214.547.358,https://maps.google.com/?cid=0x0:0x68fbf4a4f2ee7c89,
toko bangunan,Toko,Toko STAR UTAMA,"GFCQ+Q98, Maleo, Kec. Popayato Tim., Kabupaten Pohuwato, Gorontalo 96467","Maleo, Kec. Popayato Tim., Kabupaten Pohuwato",GORONTALO,96467.0,Indonesia,,,,0.5219051,1.214.884.559,https://maps.google.com/?cid=0x0:0x9b1d65ef7d83f37c,
toko bangunan,Toko Bahan Bangunan,Toko cahaya pangkep,"GF7M+W7M, Jl. Trans-Sulawesi, Maleo, Kec. Popayato Tim., Kabupaten Pohuwato, Gorontalo 96467","Jl. Trans-Sulawesi, Maleo, Kec. Popayato Tim., Kabupaten Pohuwato",GORONTALO,96467.0,Indonesia,81381692050.0,,,0.5148384,1.214.831.669,https://maps.google.com/?cid=0x0:0x7df0129707605345,
toko bangunan,Toko Bahan Bangunan,MEGA DEPO BANGUNAN,"FCV7+84C, Bar, Dudewulo, Kec. Popayato Bar., Kabupaten Pohuwato, Gorontalo 96467","Bar, Dudewulo, Kec. Popayato Bar., Kabupaten Pohuwato",GORONTALO,96467.0,Indonesia,,,,0.4933219,121.412.767,https://maps.google.com/?cid=0x0:0xae13135ae7d1637,
toko bangunan,Toko,Toko Lestari,"GFCQ+Q98, Maleo, Kec. Popayato Tim., Kabupaten Pohuwato, Gorontalo 96467","Maleo, Kec. Popayato Tim., Kabupaten Pohuwato",GORONTALO,96467.0,Indonesia,,,,0.5221754,1.214.882.267,https://maps.google.com/?cid=0x0:0xe12cdc4d16f7db2f,
toko bangunan,Toko Perlengkapan Rumah,Toko Fathur,"Jl. Trans-Sulawesi, Telaga Biru, Popayato, Kabupaten Pohuwato, Gorontalo 96467","Telaga Biru, Popayato, Kabupaten Pohuwato",GORONTALO,96467.0,Indonesia,,,,0.5041646,1.214.542.879,https://maps.google.com/?cid=0x0:0x886eea98947c2879,
toko bangunan,toko bangunan,Toko Nusantara Bangunan Lemito,"Jalan Trans Sulawesi Ds. Ponelo, Lemito Utara, Kec. Lemito, Kabupaten Pohuwato, Gorontalo","Kabupaten Pohuwato, Gorontalo",GORONTALO,,Indonesia,85266222296.0,,,0.5474748,1.215.724.118,https://maps.google.com/?cid=0x0:0x1e16e4de03ce4dc7,
toko bangunan,toko bangunan,Kec. Popayato Tim.,"Kabupaten Pohuwato, Gorontalo","Kabupaten Pohuwato, Gorontalo",GORONTALO,,Indonesia,,,,0.521171,1.214.876.076,https://maps.google.com/?cid=0x0:0xabc56e34572880b2,
toko bangunan,Pusat Perbelanjaan,Central Bangunan,"GF8M+VFG, Maleo, Kec. Popayato Tim., Kabupaten Pohuwato, Gorontalo 96467","Maleo, Kec. Popayato Tim., Kabupaten Pohuwato",GORONTALO,96467.0,Indonesia,85708091670.0,,,0.5171993,1.214.836.883,https://maps.google.com/?cid=0x0:0xb7fadfe4998a5b29,
toko bangunan,Pusat Perbelanjaan,RED BANGUNAN,"GF33+GV9, Telaga Biru, Popayato, Kabupaten Pohuwato, Gorontalo 96467","Telaga Biru, Popayato, Kabupaten Pohuwato",GORONTALO,96467.0,Indonesia,,,,0.5037882,1.214.547.358,https://maps.google.com/?cid=0x0:0x68fbf4a4f2ee7c89,
toko bangunan,Toko Bahan Bangunan,Toko cahaya pangkep,"GF7M+W7M, Jl. Trans-Sulawesi, Maleo, Kec. Popayato Tim., Kabupaten Pohuwato, Gorontalo 96467","Jl. Trans-Sulawesi, Maleo, Kec. Popayato Tim., Kabupaten Pohuwato",GORONTALO,96467.0,Indonesia,81381692050.0,,,0.5148384,1.214.831.669,https://maps.google.com/?cid=0x0:0x7df0129707605345,
toko bangunan,Toko,Toko STAR UTAMA,"GFCQ+Q98, Maleo, Kec. Popayato Tim., Kabupaten Pohuwato, Gorontalo 96467","Maleo, Kec. Popayato Tim., Kabupaten Pohuwato",GORONTALO,96467.0,Indonesia,,,,0.5219051,1.214.884.559,https://maps.google.com/?cid=0x0:0x9b1d65ef7d83f37c,
toko bangunan,Toko Bahan Bangunan,MEGA DEPO BANGUNAN,"FCV7+84C, Bar, Dudewulo, Kec. Popayato Bar., Kabupaten Pohuwato, Gorontalo 96467","Bar, Dudewulo, Kec. Popayato Bar., Kabupaten Pohuwato",GORONTALO,96467.0,Indonesia,,,,0.4933219,121.412.767,https://maps.google.com/?cid=0x0:0xae13135ae7d1637,
toko bangunan,Toko Perlengkapan Rumah,Toko Fathur,"Jl. Trans-Sulawesi, Telaga Biru, Popayato, Kabupaten Pohuwato, Gorontalo 96467","Telaga Biru, Popayato, Kabupaten Pohuwato",GORONTALO,96467.0,Indonesia,,,,0.5041646,1.214.542.879,https://maps.google.com/?cid=0x0:0x886eea98947c2879,
toko bangunan,toko bangunan,Toko Nusantara Bangunan Lemito,"Jalan Trans Sulawesi Ds. Ponelo, Lemito Utara, Kec. Lemito, Kabupaten Pohuwato, Gorontalo","Kabupaten Pohuwato, Gorontalo",GORONTALO,,Indonesia,85266222296.0,,,0.5474748,1.215.724.118,https://maps.google.com/?cid=0x0:0x1e16e4de03ce4dc7,
toko bangunan,toko bangunan,Kec. Randangan,"Kabupaten Pohuwato, Gorontalo","Kabupaten Pohuwato, Gorontalo",GORONTALO,,Indonesia,,,,0.536787,1.218.156.097,https://maps.google.com/?cid=0x0:0xae3be2603f746c2c,
toko bangunan,Toko Bahan Bangunan,Toko bangunan Bengawan solo,"GRJ7+PHX, Jl. Lorong pasar randangan Dusun makmur jaya, Manunggal Karya, Kec. Randangan, Kabupaten Pohuwato, Gorontalo 96469","Jl. Lorong pasar randangan Dusun makmur jaya, Manunggal Karya, Kec. Randangan, Kabupaten Pohuwato",GORONTALO,96469.0,Indonesia,,,,0.5318632,1.218.139.786,https://maps.google.com/?cid=0x0:0x2a5eaf49d56d5b3,
toko bangunan,Toko Alat Listrik,Ud Petani Jaya,"GPJG+V8Q, Jl. Trans-Sulawesi, Sidorukun, Kec. Randangan, Kabupaten Pohuwato, Gorontalo 96469","Jl. Trans-Sulawesi, Sidorukun, Kec. Randangan, Kabupaten Pohuwato",GORONTALO,96469.0,Indonesia,,,,0.5322246,1.217.258.591,https://maps.google.com/?cid=0x0:0x532afe9d5e0c006e,
toko bangunan,,UD. PUTRA HUYULA,"Huyula, Kec. Randangan, Kabupaten Pohuwato, Gorontalo 96469","Kec. Randangan, Kabupaten Pohuwato",GORONTALO,96469.0,Indonesia,82226666966.0,,,0.5077318,1.218.117.379,https://maps.google.com/?cid=0x0:0x66f3cfc85c3725a,
toko bangunan,Toko,Toko Alif Bangunan,"HQ2P+GQ5, Banuroja, Kec. Randangan, Kabupaten Pohuwato, Gorontalo 96469","Banuroja, Kec. Randangan, Kabupaten Pohuwato",GORONTALO,96469.0,Indonesia,,,,0.5510701,1.217.872.775,https://maps.google.com/?cid=0x0:0x8dd8f0b9b43ecc25,
toko bangunan,Toko Bahan Bangunan,Rahma Bangunan,"JR22+GXP, Panca Karsa I, Kec. Taluditi, Kabupaten Pohuwato, Gorontalo 96469","Panca Karsa I, Kec. Taluditi, Kabupaten Pohuwato",GORONTALO,96469.0,Indonesia,,,,0.601342,1.218.024.383,https://maps.google.com/?cid=0x0:0xe03cabf18aeb720c,
toko bangunan,Pemasok Bahan Bangunan,Toko Maju Bangunan keramik,"FWFJ+WRX, Jl. Trans-Sulawesi, Buntulia Jaya, Kec. Duhiadaa, Kabupaten Pohuwato, Gorontalo 96466","Jl. Trans-Sulawesi, Buntulia Jaya, Kec. Duhiadaa, Kabupaten Pohuwato",GORONTALO,96466.0,Indonesia,,,,0.4748649,1.219.321.084,https://maps.google.com/?cid=0x0:0x7ad93aa3e08e18d7,
toko bangunan,,Toko bangunan pujangga,"pertigaan indomaret masuk dalam, Jl. Trans-Sulawesi, Motolohu, Kec. Randangan, Kabupaten Pohuwato, Gorontalo","Kabupaten Pohuwato, Gorontalo",GORONTALO,,Indonesia,,,,0.5333526,1.218.148.921,https://maps.google.com/?cid=0x0:0x14bdf2917c823fb3,
toko bangunan,,Toko Maja Utama,"HQ2P+GQ5, Banuroja, Kec. Randangan, Kabupaten Pohuwato, Gorontalo 96469","Banuroja, Kec. Randangan, Kabupaten Pohuwato",GORONTALO,96469.0,Indonesia,,,,0.5509471,1.217.874.025,https://maps.google.com/?cid=0x0:0x5a25995e1893949,
toko bangunan,Toko Bahan Bangunan,TOKO POLA BANGUNAN,"GRP8+HF5, Marisa - Lemito 2, Motolohu, Kec. Randangan, Kabupaten Pohuwato, Gorontalo 96469","Marisa - Lemito 2, Motolohu, Kec. Randangan, Kabupaten Pohuwato",GORONTALO,96469.0,Indonesia,,,,0.536397,1.218.162.253,https://maps.google.com/?cid=0x0:0x81c9d45b3edbc5f9,
toko bangunan,Toko Bahan Bangunan,TOKO JAGO BANGUNAN,"Jl. Diponegoro, Pohuwato Tim., Kec. Marisa, Kabupaten Pohuwato, Gorontalo 96265","Pohuwato Tim., Kec. Marisa, Kabupaten Pohuwato",GORONTALO,96265.0,Indonesia,85397810927.0,,,0.4574067,121.936.869,https://maps.google.com/?cid=0x0:0x43dd264c205c1b79,
toko bangunan,Toko bahan makanan,Toko Surya Indah Randangan,"GRH8+W5G, Motolohu, Kec. Randangan, Kabupaten Pohuwato, Gorontalo 96469","Motolohu, Kec. Randangan, Kabupaten Pohuwato",GORONTALO,96469.0,Indonesia,81356813656.0,,,0.5298122,1.218.154.511,https://maps.google.com/?cid=0x0:0x39680f20a6426d39,
toko bangunan,Toko Bahan Bangunan,TOKO R2 BANGUNAN,"Jl. Trans-Sulawesi No.196, Buntulia Tengah, Kec. Buntulia, Kabupaten Pohuwato, Gorontalo 96466","Buntulia Tengah, Kec. Buntulia, Kabupaten Pohuwato",GORONTALO,96466.0,Indonesia,,,,0.486066,1.219.350.154,https://maps.google.com/?cid=0x0:0x6429c15481fce075,
toko bangunan,Toko Bahan Bangunan,Toko Sumber Bangunan Taluditi .pangkalan LPG .ahmadagusalim,"JRMC+G43, Unnamed Road, Panca Karsa II, Kec. Taluditi, Kabupaten Pohuwato, Gorontalo 96469","Unnamed Road, Panca Karsa II, Kec. Taluditi, Kabupaten Pohuwato",GORONTALO,96469.0,Indonesia,,,,0.6337585,1.218.202.861,https://maps.google.com/?cid=0x0:0xfd3f43d10d637df9,
toko bangunan,Toko,Toko rahmat bangunan marisa,"FWHR+2PG, Jl. Sultan Amai, Botubilotahu Indah, Kec. Marisa, Kabupaten Pohuwato, Gorontalo 96266","Jl. Sultan Amai, Botubilotahu Indah, Kec. Marisa, Kabupaten Pohuwato",GORONTALO,96266.0,Indonesia,85335589920.0,,,0.4775509,1.219.418.261,https://maps.google.com/?cid=0x0:0xa2bb3be578970397,
toko bangunan,toko bangunan,Gorontalo 96469,"Kabupaten Pohuwato, Gorontalo","Kabupaten Pohuwato, Gorontalo",GORONTALO,,Indonesia,,,,0.737587,1.217.651.362,https://maps.google.com/?cid=0x0:0xeb07f8fd945f7ccf,
toko bangunan,Toko Bahan Bangunan,Toko Sumber Bangunan Taluditi .pangkalan LPG .ahmadagusalim,"JRMC+G43, Unnamed Road, Panca Karsa II, Kec. Taluditi, Kabupaten Pohuwato, Gorontalo 96469","Unnamed Road, Panca Karsa II, Kec. Taluditi, Kabupaten Pohuwato",GORONTALO,96469.0,Indonesia,,,,0.6337585,1.218.202.861,https://maps.google.com/?cid=0x0:0xfd3f43d10d637df9,
toko bangunan,Toko Bahan Bangunan,Rahma Bangunan,"JR22+GXP, Panca Karsa I, Kec. Taluditi, Kabupaten Pohuwato, Gorontalo 96469","Panca Karsa I, Kec. Taluditi, Kabupaten Pohuwato",GORONTALO,96469.0,Indonesia,,,,0.601342,1.218.024.383,https://maps.google.com/?cid=0x0:0xe03cabf18aeb720c,
toko bangunan,Toko Bahan Bangunan,TOKO RANDY,"JVQ6+R48, Tirto Asri, Kec. Taluditi, Kabupaten Pohuwato, Gorontalo 96266","Tirto Asri, Kec. Taluditi, Kabupaten Pohuwato",GORONTALO,96266.0,Indonesia,87873964625.0,,,0.6395403,1.218.603.388,https://maps.google.com/?cid=0x0:0x142454996efe93fc,
toko bangunan,,UD. PUTRA HUYULA,"Huyula, Kec. Randangan, Kabupaten Pohuwato, Gorontalo 96469","Kec. Randangan, Kabupaten Pohuwato",GORONTALO,96469.0,Indonesia,82226666966.0,,,0.5077318,1.218.117.379,https://maps.google.com/?cid=0x0:0x66f3cfc85c3725a,
toko bangunan,Toko Bahan Bangunan,Toko Cahaya Dini,"GQXQ+X4H, Jl trans sulawesi,toko kosmetik cahaya shop,di dekat gereja katolik,samping pertigaan kantor pos (Toko cahaya shop), KAB. POHUWATO, Kec. Randangan, Kabupaten Gorontalo, 96469","Jl trans sulawesi,toko kosmetik cahaya shop,di dekat gereja katolik,samping pertigaan kantor pos (Toko cahaya shop), KAB. POHUWATO, Kec. Randangan",GORONTALO,96469.0,Indonesia,85256686262.0,,,0.5499363,1.217.878.481,https://maps.google.com/?cid=0x0:0x51b2be60ca852188,
toko bangunan,Toko Alat Listrik,Ud Petani Jaya,"GPJG+V8Q, Jl. Trans-Sulawesi, Sidorukun, Kec. Randangan, Kabupaten Pohuwato, Gorontalo 96469","Jl. Trans-Sulawesi, Sidorukun, Kec. Randangan, Kabupaten Pohuwato",GORONTALO,96469.0,Indonesia,,,,0.5322246,1.217.258.591,https://maps.google.com/?cid=0x0:0x532afe9d5e0c006e,
toko bangunan,Pemasok Bahan Bangunan,Toko Maju Bangunan keramik,"FWFJ+WRX, Jl. Trans-Sulawesi, Buntulia Jaya, Kec. Duhiadaa, Kabupaten Pohuwato, Gorontalo 96466","Jl. Trans-Sulawesi, Buntulia Jaya, Kec. Duhiadaa, Kabupaten Pohuwato",GORONTALO,96466.0,Indonesia,,,,0.4748649,1.219.321.084,https://maps.google.com/?cid=0x0:0x7ad93aa3e08e18d7,
toko bangunan,Toko,Toko Alif Bangunan,"HQ2P+GQ5, Banuroja, Kec. Randangan, Kabupaten Pohuwato, Gorontalo 96469","Banuroja, Kec. Randangan, Kabupaten Pohuwato",GORONTALO,96469.0,Indonesia,,,,0.5510701,1.217.872.775,https://maps.google.com/?cid=0x0:0x8dd8f0b9b43ecc25,
toko bangunan,Toko Bahan Bangunan,TOKO POLA BANGUNAN,"GRP8+HF5, Marisa - Lemito 2, Motolohu, Kec. Randangan, Kabupaten Pohuwato, Gorontalo 96469","Marisa - Lemito 2, Motolohu, Kec. Randangan, Kabupaten Pohuwato",GORONTALO,96469.0,Indonesia,,,,0.536397,1.218.162.253,https://maps.google.com/?cid=0x0:0x81c9d45b3edbc5f9,
toko bangunan,,Toko bangunan pujangga,"pertigaan indomaret masuk dalam, Jl. Trans-Sulawesi, Motolohu, Kec. Randangan, Kabupaten Pohuwato, Gorontalo","Kabupaten Pohuwato, Gorontalo",GORONTALO,,Indonesia,,,,0.5333526,1.218.148.921,https://maps.google.com/?cid=0x0:0x14bdf2917c823fb3,
toko bangunan,Toko Bahan Bangunan,TOKO JAGO BANGUNAN,"Jl. Diponegoro, Pohuwato Tim., Kec. Marisa, Kabupaten Pohuwato, Gorontalo 96265","Pohuwato Tim., Kec. Marisa, Kabupaten Pohuwato",GORONTALO,96265.0,Indonesia,85397810927.0,,,0.4574067,121.936.869,https://maps.google.com/?cid=0x0:0x43dd264c205c1b79,
toko bangunan,Toko Bahan Bangunan,TOKO CAHAYA BANGUNAN,"FWGJ+WW4, Sipatana, Kec. Buntulia, Kabupaten Pohuwato, Gorontalo 96466","Sipatana, Kec. Buntulia, Kabupaten Pohuwato",GORONTALO,96466.0,Indonesia,85185536567.0,,,0.4772533,1.219.323.384,https://maps.google.com/?cid=0x0:0x36941efbe6f07e4a,
toko bangunan,Toko Bahan Bangunan,Toko bangunan Bengawan solo,"GRJ7+PHX, Jl. Lorong pasar randangan Dusun makmur jaya, Manunggal Karya, Kec. Randangan, Kabupaten Pohuwato, Gorontalo 96469","Jl. Lorong pasar randangan Dusun makmur jaya, Manunggal Karya, Kec. Randangan, Kabupaten Pohuwato",GORONTALO,96469.0,Indonesia,,,,0.5318632,1.218.139.786,https://maps.google.com/?cid=0x0:0x2a5eaf49d56d5b3,
toko bangunan,toko bangunan,Toko Nusantara Bangunan Lemito,"Jalan Trans Sulawesi Ds. Ponelo, Lemito Utara, Kec. Lemito, Kabupaten Pohuwato, Gorontalo","Kabupaten Pohuwato, Gorontalo",GORONTALO,,Indonesia,85266222296.0,,,0.5474748,1.215.724.118,https://maps.google.com/?cid=0x0:0x1e16e4de03ce4dc7,
toko bangunan,Toko,Toko rahmat bangunan marisa,"FWHR+2PG, Jl. Sultan Amai, Botubilotahu Indah, Kec. Marisa, Kabupaten Pohuwato, Gorontalo 96266","Jl. Sultan Amai, Botubilotahu Indah, Kec. Marisa, Kabupaten Pohuwato",GORONTALO,96266.0,Indonesia,85335589920.0,,,0.4775509,1.219.418.261,https://maps.google.com/?cid=0x0:0xa2bb3be578970397,
toko bangunan,,Toko Maja Utama,"HQ2P+GQ5, Banuroja, Kec. Randangan, Kabupaten Pohuwato, Gorontalo 96469","Banuroja, Kec. Randangan, Kabupaten Pohuwato",GORONTALO,96469.0,Indonesia,,,,0.5509471,1.217.874.025,https://maps.google.com/?cid=0x0:0x5a25995e1893949,
toko bangunan,toko bangunan,Kec. Taluditi,"Kabupaten Pohuwato, Gorontalo","Kabupaten Pohuwato, Gorontalo",GORONTALO,,Indonesia,,,,0.6333439,1.218.170.186,https://maps.google.com/?cid=0x0:0xf19a7facb6c28699,
toko bangunan,toko bangunan,Gorontalo 96468,"Kec. Lemito, Kabupaten Pohuwato, Gorontalo","Kabupaten Pohuwato, Gorontalo",GORONTALO,,Indonesia,,,,0.7390376,1.215.826.642,https://maps.google.com/?cid=0x0:0xbcbfbe464a8e6a55,
toko bangunan,Toko Bahan Bangunan,Mulia Depo Bangunan (MDB),"HH3C+QJH, Jl. Trans-Sulawesi, Lemito Utara, Kec. Lemito, Kabupaten Pohuwato, Gorontalo 96468","Jl. Trans-Sulawesi, Lemito Utara, Kec. Lemito, Kabupaten Pohuwato",GORONTALO,96468.0,Indonesia,82291661879.0,,,0.5541343,1.215.716.613,https://maps.google.com/?cid=0x0:0x2781230fc31a837e,
toko bangunan,toko bangunan,Toko Nusantara Bangunan Lemito,"Jalan Trans Sulawesi Ds. Ponelo, Lemito Utara, Kec. Lemito, Kabupaten Pohuwato, Gorontalo","Kabupaten Pohuwato, Gorontalo",GORONTALO,,Indonesia,85266222296.0,,,0.5474748,1.215.724.118,https://maps.google.com/?cid=0x0:0x1e16e4de03ce4dc7,
toko bangunan,Toko Bahan Bangunan,UD. Berkah Djaya,"HH2C+7V7, Jl. Trans-Sulawesi, Lemito Utara, Kec. Lemito, Kabupaten Pohuwato, Gorontalo 96468","Jl. Trans-Sulawesi, Lemito Utara, Kec. Lemito, Kabupaten Pohuwato",GORONTALO,96468.0,Indonesia,,,,0.5506555,1.215.721.746,https://maps.google.com/?cid=0x0:0xd139f18e7ffd6233,
toko bangunan,Pemasok Bahan Bangunan,Toko Maju Bangunan keramik,"FWFJ+WRX, Jl. Trans-Sulawesi, Buntulia Jaya, Kec. Duhiadaa, Kabupaten Pohuwato, Gorontalo 96466","Jl. Trans-Sulawesi, Buntulia Jaya, Kec. Duhiadaa, Kabupaten Pohuwato",GORONTALO,96466.0,Indonesia,,,,0.4748649,1.219.321.084,https://maps.google.com/?cid=0x0:0x7ad93aa3e08e18d7,
toko bangunan,Toko Bahan Bangunan,Toko bangunan Bengawan solo,"GRJ7+PHX, Jl. Lorong pasar randangan Dusun makmur jaya, Manunggal Karya, Kec. Randangan, Kabupaten Pohuwato, Gorontalo 96469","Jl. Lorong pasar randangan Dusun makmur jaya, Manunggal Karya, Kec. Randangan, Kabupaten Pohuwato",GORONTALO,96469.0,Indonesia,,,,0.5318632,1.218.139.786,https://maps.google.com/?cid=0x0:0x2a5eaf49d56d5b3,
toko bangunan,Pusat Perbelanjaan,Central Bangunan,"GF8M+VFG, Maleo, Kec. Popayato Tim., Kabupaten Pohuwato, Gorontalo 96467","Maleo, Kec. Popayato Tim., Kabupaten Pohuwato",GORONTALO,96467.0,Indonesia,85708091670.0,,,0.5171993,1.214.836.883,https://maps.google.com/?cid=0x0:0xb7fadfe4998a5b29,
toko bangunan,Toko Bahan Bangunan,TOKO R2 BANGUNAN,"Jl. Trans-Sulawesi No.196, Buntulia Tengah, Kec. Buntulia, Kabupaten Pohuwato, Gorontalo 96466","Buntulia Tengah, Kec. Buntulia, Kabupaten Pohuwato",GORONTALO,96466.0,Indonesia,,,,0.486066,1.219.350.154,https://maps.google.com/?cid=0x0:0x6429c15481fce075,
toko bangunan,Pusat Perbelanjaan,RED BANGUNAN,"GF33+GV9, Telaga Biru, Popayato, Kabupaten Pohuwato, Gorontalo 96467","Telaga Biru, Popayato, Kabupaten Pohuwato",GORONTALO,96467.0,Indonesia,,,,0.5037882,1.214.547.358,https://maps.google.com/?cid=0x0:0x68fbf4a4f2ee7c89,
toko bangunan,Toko Bahan Bangunan,Rahma Bangunan,"JR22+GXP, Panca Karsa I, Kec. Taluditi, Kabupaten Pohuwato, Gorontalo 96469","Panca Karsa I, Kec. Taluditi, Kabupaten Pohuwato",GORONTALO,96469.0,Indonesia,,,,0.601342,1.218.024.383,https://maps.google.com/?cid=0x0:0xe03cabf18aeb720c,
toko bangunan,,Toko bangunan pujangga,"pertigaan indomaret masuk dalam, Jl. Trans-Sulawesi, Motolohu, Kec. Randangan, Kabupaten Pohuwato, Gorontalo","Kabupaten Pohuwato, Gorontalo",GORONTALO,,Indonesia,,,,0.5333526,1.218.148.921,https://maps.google.com/?cid=0x0:0x14bdf2917c823fb3,
toko bangunan,Toko Bahan Bangunan,Toko Bahan Bangunan Agung Mulia Gorontalo,"Jl. Ahmad A. Wahab, Pantungo, Kec. Telaga Biru, Kabupaten Gorontalo, Gorontalo 96181","Pantungo, Kec. Telaga Biru, Kabupaten Gorontalo",GORONTALO,96181.0,Indonesia,81340021774.0,,,0.5923488,123.035.742,https://maps.google.com/?cid=0x0:0xaa0790c445417bb3,
toko bangunan,Toko Alat Listrik,Ud Petani Jaya,"GPJG+V8Q, Jl. Trans-Sulawesi, Sidorukun, Kec. Randangan, Kabupaten Pohuwato, Gorontalo 96469","Jl. Trans-Sulawesi, Sidorukun, Kec. Randangan, Kabupaten Pohuwato",GORONTALO,96469.0,Indonesia,,,,0.5322246,1.217.258.591,https://maps.google.com/?cid=0x0:0x532afe9d5e0c006e,
toko bangunan,Toko Bahan Bangunan,TOKO CAHAYA BANGUNAN,"FWGJ+WW4, Sipatana, Kec. Buntulia, Kabupaten Pohuwato, Gorontalo 96466","Sipatana, Kec. Buntulia, Kabupaten Pohuwato",GORONTALO,96466.0,Indonesia,85185536567.0,,,0.4772533,1.219.323.384,https://maps.google.com/?cid=0x0:0x36941efbe6f07e4a,
toko bangunan,Pemasok Bahan Bangunan,Toko Bahan Bangunan Sari Agung,"Bulila, Kec. Telaga, Kabupaten Gorontalo, Gorontalo 96138","Kec. Telaga, Kabupaten Gorontalo",GORONTALO,96138.0,Indonesia,82196031500.0,,,0.5765609,1.230.449.069,https://maps.google.com/?cid=0x0:0x1ec016b864d215a6,
toko bangunan,Toko Perlengkapan Rumah,Toko Fathur,"Jl. Trans-Sulawesi, Telaga Biru, Popayato, Kabupaten Pohuwato, Gorontalo 96467","Telaga Biru, Popayato, Kabupaten Pohuwato",GORONTALO,96467.0,Indonesia,,,,0.5041646,1.214.542.879,https://maps.google.com/?cid=0x0:0x886eea98947c2879,
toko bangunan,Toko Bahan Bangunan,Sinar Bangunan Gorontalo,"Jalan Kasuari Baru No.8, Heledulaa, Kota Timur, Heledulaa, Gorontalo, Kota Gorontalo, Gorontalo 96135","Heledulaa, Kota Timur, Heledulaa, Gorontalo, Kota Gorontalo",GORONTALO,96135.0,Indonesia,85395585268.0,,,0.5459753,1.230.653.457,https://maps.google.com/?cid=0x0:0xf278c2a9fcd91c78,
toko bangunan,Toko,Toko STAR UTAMA,"GFCQ+Q98, Maleo, Kec. Popayato Tim., Kabupaten Pohuwato, Gorontalo 96467","Maleo, Kec. Popayato Tim., Kabupaten Pohuwato",GORONTALO,96467.0,Indonesia,,,,0.5219051,1.214.884.559,https://maps.google.com/?cid=0x0:0x9b1d65ef7d83f37c,
toko bangunan,Toko Bahan Bangunan,Toko Bangunan Sinar Surya,"H2GW+P28, Bulila, Kec. Telaga, Kabupaten Gorontalo, Gorontalo 96138","Bulila, Kec. Telaga, Kabupaten Gorontalo",GORONTALO,96138.0,Indonesia,,,,0.5767909,1.230.450.809,https://maps.google.com/?cid=0x0:0x19ed8169e78064d0,
toko bangunan,Toko Bahan Bangunan,TOKO SURYA BANGUNAN MARISA,"FWCQ+36F, Jl. Sultan Amai, Marisa Utara, Kec. Marisa, Kabupaten Pohuwato, Gorontalo 96265","Jl. Sultan Amai, Marisa Utara, Kec. Marisa, Kabupaten Pohuwato",GORONTALO,96265.0,Indonesia,,,,0.4701875,1.219.380.484,https://maps.google.com/?cid=0x0:0x80094912e26dedb8,
toko bangunan,Toko Bahan Bangunan,Toko Jago Bangunan 2,"FWHJ+8XV, Buntulia Jaya, Kec. Marisa, Kabupaten Pohuwato, Gorontalo 96466","Buntulia Jaya, Kec. Marisa, Kabupaten Pohuwato",GORONTALO,96466.0,Indonesia,82358761840.0,,,0.4783581,1.219.324.343,https://maps.google.com/?cid=0x0:0x60be9b90df35cdf5,
toko bangunan,Toko,Toko rahmat bangunan marisa,"FWHR+2PG, Jl. Sultan Amai, Botubilotahu Indah, Kec. Marisa, Kabupaten Pohuwato, Gorontalo 96266","Jl. Sultan Amai, Botubilotahu Indah, Kec. Marisa, Kabupaten Pohuwato",GORONTALO,96266.0,Indonesia,85335589920.0,,,0.4775509,1.219.418.261,https://maps.google.com/?cid=0x0:0xa2bb3be578970397,
toko bangunan,Toko,Toko Lestari,"GFCQ+Q98, Maleo, Kec. Popayato Tim., Kabupaten Pohuwato, Gorontalo 96467","Maleo, Kec. Popayato Tim., Kabupaten Pohuwato",GORONTALO,96467.0,Indonesia,,,,0.5221754,1.214.882.267,https://maps.google.com/?cid=0x0:0xe12cdc4d16f7db2f,
toko bangunan,Toko Bahan Bangunan,Toko Cahaya Dini,"GQXQ+X4H, Jl trans sulawesi,toko kosmetik cahaya shop,di dekat gereja katolik,samping pertigaan kantor pos (Toko cahaya shop), KAB. POHUWATO, Kec. Randangan, Kabupaten Gorontalo, 96469","Jl trans sulawesi,toko kosmetik cahaya shop,di dekat gereja katolik,samping pertigaan kantor pos (Toko cahaya shop), KAB. POHUWATO, Kec. Randangan",GORONTALO,96469.0,Indonesia,85256686262.0,,,0.5499363,1.217.878.481,https://maps.google.com/?cid=0x0:0x51b2be60ca852188,
hardware store,hardware store,Gorontalo 96266,"Kabupaten Pohuwato, Gorontalo","Kabupaten Pohuwato, Gorontalo",GORONTALO,,Indonesia,,,,0.6235288,1.218.790.306,https://maps.google.com/?cid=0x0:0x6e323a18714b4718,
hardware store,Toko Bahan Bangunan,TOKO CAHAYA BANGUNAN,"FWGJ+WW4, Sipatana, Kec. Buntulia, Kabupaten Pohuwato, Gorontalo 96466","Sipatana, Kec. Buntulia, Kabupaten Pohuwato",GORONTALO,96466.0,Indonesia,85185536567.0,,,0.4772533,1.219.323.384,https://maps.google.com/?cid=0x0:0x36941efbe6f07e4a,
hardware store,Toko,MR. DIY,"Jl. Trans-Sulawesi, Buntulia Sel., Kec. Duhiadaa, Kabupaten Pohuwato, Gorontalo 96266","Buntulia Sel., Kec. Duhiadaa, Kabupaten Pohuwato",GORONTALO,96266.0,Indonesia,,,,0.4711451,1.219.311.952,https://maps.google.com/?cid=0x0:0x69a796084d575125,
hardware store,Toko Bahan Bangunan,Toko Berkat Abadi Bangunan,"Buntulia Tengah, Kec. Marisa, Kabupaten Pohuwato, Gorontalo 96466","Kec. Marisa, Kabupaten Pohuwato",GORONTALO,96466.0,Indonesia,,,,0.4792673,1.219.336.516,https://maps.google.com/?cid=0x0:0x12996b428582795b,
hardware store,Toko Bahan Bangunan,Mentari Jaya Bangunan Marisa,"FWJP+C4W, Sipatana, Kec. Buntulia, Kabupaten Pohuwato, Gorontalo 96466","Sipatana, Kec. Buntulia, Kabupaten Pohuwato",GORONTALO,96466.0,Indonesia,81234324364.0,,,0.4813082,1.219.353.609,https://maps.google.com/?cid=0x0:0x8ed5b3563f67e921,
hardware store,Toko Mebel,UD.MEUBEL AKBAR,"Jl.napoleon, dusun kramat. Sebelum gereja pante kosta pertama sebelah kanan Pas dekat dgn bangunan besar belum terplester, Pohuwato Tim., Kec. Marisa, Kabupaten Pohuwato, Gorontalo 96266","dusun kramat. Sebelum gereja pante kosta pertama sebelah kanan Pas dekat dgn bangunan besar belum terplester, Pohuwato Tim., Kec. Marisa, Kabupaten Pohuwato",GORONTALO,96266.0,Indonesia,82194917825.0,,,0.4529825,1.219.384.271,https://maps.google.com/?cid=0x0:0xcfad6388e1916e3d,
hardware store,Toko,UD. TUNAS,"FW4X+M23, Pohuwato Tim., Kec. Marisa, Kabupaten Pohuwato, Gorontalo 96265","Pohuwato Tim., Kec. Marisa, Kabupaten Pohuwato",GORONTALO,96265.0,Indonesia,8124477050.0,,,0.4566425,1.219.475.319,https://maps.google.com/?cid=0x0:0xc0c43bc47a731d44,
hardware store,Toko,Toko rahmat bangunan marisa,"FWHR+2PG, Jl. Sultan Amai, Botubilotahu Indah, Kec. Marisa, Kabupaten Pohuwato, Gorontalo 96266","Jl. Sultan Amai, Botubilotahu Indah, Kec. Marisa, Kabupaten Pohuwato",GORONTALO,96266.0,Indonesia,85335589920.0,,,0.4775509,1.219.418.261,https://maps.google.com/?cid=0x0:0xa2bb3be578970397,
hardware store,Toko Bahan Bangunan,Toko Meraki,"Botubilotahu Indah, Kec. Marisa, Kabupaten Pohuwato, Gorontalo","Kabupaten Pohuwato, Gorontalo",GORONTALO,,Indonesia,,,,0.4766025,1.219.354.884,https://maps.google.com/?cid=0x0:0xd28f7fd4ee9882a0,
hardware store,,Toko bangunan pujangga,"pertigaan indomaret masuk dalam, Jl. Trans-Sulawesi, Motolohu, Kec. Randangan, Kabupaten Pohuwato, Gorontalo","Kabupaten Pohuwato, Gorontalo",GORONTALO,,Indonesia,,,,0.5333526,1.218.148.921,https://maps.google.com/?cid=0x0:0x14bdf2917c823fb3,
hardware store,Toko Alat Tulis,TOKO AREMA TALUDITI,"JRM9+F5J Panca karsa 2, Panca Karsa II, Kec. Taluditi, Kabupaten Pohuwato, Gorontalo 96469","Panca Karsa II, Kec. Taluditi, Kabupaten Pohuwato",GORONTALO,96469.0,Indonesia,81340751800.0,,,0.633701,1.218.178.766,https://maps.google.com/?cid=0x0:0x14367dc104636bae,
hardware store,Toko Bahan Bangunan,Toko DINNA BANGUNAN,"F3RC+5QH, Jl. Trans-Sulawesi, Siduan, Kec. Paguat, Kabupaten Pohuwato, Gorontalo 96265","Jl. Trans-Sulawesi, Siduan, Kec. Paguat, Kabupaten Pohuwato",GORONTALO,96265.0,Indonesia,85240875320.0,,,0.4904292,1.220.719.819,https://maps.google.com/?cid=0x0:0x7e3d30d70df3ebb1,
hardware store,Toko,Marisa Jaya,"FW6X+WXR, Palopo, Kec. Marisa, Kabupaten Pohuwato, Gorontalo 96265","Palopo, Kec. Marisa, Kabupaten Pohuwato",GORONTALO,96265.0,Indonesia,85708091670.0,,,0.4623877,1.219.499.404,https://maps.google.com/?cid=0x0:0x1a1a48ec99897421,
hardware store,Toko,UD. Smile Colection Marisa,"FW4Q+H36, Marisa Selatan, Marisa, Pohuwato, Kec. Marisa, Gorontalo, 96265","Marisa Selatan, Marisa, Pohuwato, Kec. Marisa",GORONTALO,96265.0,Indonesia,85241231111.0,,,0.4564042,1.219.376.518,https://maps.google.com/?cid=0x0:0x9e3bf220a75fccd0,
hardware store,hardware store,Kec. Buntulia,"Kabupaten Pohuwato, Gorontalo","Kabupaten Pohuwato, Gorontalo",GORONTALO,,Indonesia,,,,0.5135881,1.219.484.063,https://maps.google.com/?cid=0x0:0x1fcc99a347302e7d,
hardware store,Toko Fotokopi,TOKO 17 (textil dan foto copy),"FWMP+J98, Buntulia Tengah, Kec. Buntulia, Kabupaten Pohuwato, Gorontalo 96466","Buntulia Tengah, Kec. Buntulia, Kabupaten Pohuwato",GORONTALO,96466.0,Indonesia,85255822922.0,,,0.4847715,1.219.356.397,https://maps.google.com/?cid=0x0:0xa46659d5cd985fba,
hardware store,Pemasok Bahan Bangunan,Toko Maju Bangunan keramik,"FWFJ+WRX, Jl. Trans-Sulawesi, Buntulia Jaya, Kec. Duhiadaa, Kabupaten Pohuwato, Gorontalo 96466","Jl. Trans-Sulawesi, Buntulia Jaya, Kec. Duhiadaa, Kabupaten Pohuwato",GORONTALO,96466.0,Indonesia,,,,0.4748649,1.219.321.084,https://maps.google.com/?cid=0x0:0x7ad93aa3e08e18d7,
hardware store,Toko Bahan Bangunan,Al_Amin bangunan,"G44P+GQ7, Tabulo, Kec. Mananggu, Kabupaten Boalemo, Gorontalo 96264","Tabulo, Kec. Mananggu, Kabupaten Boalemo",GORONTALO,96264.0,Indonesia,,,,0.5062805,1.221.369.233,https://maps.google.com/?cid=0x0:0x3f903572fd93e1a7,
hardware store,hardware store,Gorontalo 96265,"Kabupaten Pohuwato, Gorontalo","Kabupaten Pohuwato, Gorontalo",GORONTALO,,Indonesia,,,,0.6708114,1.220.382.856,https://maps.google.com/?cid=0x0:0xc7ddf273e46e561,
hardware store,Toko,MR. DIY,"Jl. Trans-Sulawesi, Buntulia Sel., Kec. Duhiadaa, Kabupaten Pohuwato, Gorontalo 96266","Buntulia Sel., Kec. Duhiadaa, Kabupaten Pohuwato",GORONTALO,96266.0,Indonesia,,,,0.4711451,1.219.311.952,https://maps.google.com/?cid=0x0:0x69a796084d575125,
hardware store,Toko Bahan Bangunan,Toko DINNA BANGUNAN,"F3RC+5QH, Jl. Trans-Sulawesi, Siduan, Kec. Paguat, Kabupaten Pohuwato, Gorontalo 96265","Jl. Trans-Sulawesi, Siduan, Kec. Paguat, Kabupaten Pohuwato",GORONTALO,96265.0,Indonesia,85240875320.0,,,0.4904292,1.220.719.819,https://maps.google.com/?cid=0x0:0x7e3d30d70df3ebb1,
hardware store,Toko,UD. TUNAS,"FW4X+M23, Pohuwato Tim., Kec. Marisa, Kabupaten Pohuwato, Gorontalo 96265","Pohuwato Tim., Kec. Marisa, Kabupaten Pohuwato",GORONTALO,96265.0,Indonesia,8124477050.0,,,0.4566425,1.219.475.319,https://maps.google.com/?cid=0x0:0xc0c43bc47a731d44,
hardware store,Toko Bahan Bangunan,Al_Amin bangunan,"G44P+GQ7, Tabulo, Kec. Mananggu, Kabupaten Boalemo, Gorontalo 96264","Tabulo, Kec. Mananggu, Kabupaten Boalemo",GORONTALO,96264.0,Indonesia,,,,0.5062805,1.221.369.233,https://maps.google.com/?cid=0x0:0x3f903572fd93e1a7,
hardware store,Toko,Toko rahmat bangunan marisa,"FWHR+2PG, Jl. Sultan Amai, Botubilotahu Indah, Kec. Marisa, Kabupaten Pohuwato, Gorontalo 96266","Jl. Sultan Amai, Botubilotahu Indah, Kec. Marisa, Kabupaten Pohuwato",GORONTALO,96266.0,Indonesia,85335589920.0,,,0.4775509,1.219.418.261,https://maps.google.com/?cid=0x0:0xa2bb3be578970397,
hardware store,Toko,Marisa Jaya,"FW6X+WXR, Palopo, Kec. Marisa, Kabupaten Pohuwato, Gorontalo 96265","Palopo, Kec. Marisa, Kabupaten Pohuwato",GORONTALO,96265.0,Indonesia,85708091670.0,,,0.4623877,1.219.499.404,https://maps.google.com/?cid=0x0:0x1a1a48ec99897421,
hardware store,Toko,UD. Smile Colection Marisa,"FW4Q+H36, Marisa Selatan, Marisa, Pohuwato, Kec. Marisa, Gorontalo, 96265","Marisa Selatan, Marisa, Pohuwato, Kec. Marisa",GORONTALO,96265.0,Indonesia,85241231111.0,,,0.4564042,1.219.376.518,https://maps.google.com/?cid=0x0:0x9e3bf220a75fccd0,
hardware store,Toko Bahan Bangunan,Mentari Jaya Bangunan Marisa,"FWJP+C4W, Sipatana, Kec. Buntulia, Kabupaten Pohuwato, Gorontalo 96466","Sipatana, Kec. Buntulia, Kabupaten Pohuwato",GORONTALO,96466.0,Indonesia,81234324364.0,,,0.4813082,1.219.353.609,https://maps.google.com/?cid=0x0:0x8ed5b3563f67e921,
hardware store,Toko Bahan Bangunan,Toko Meraki,"Botubilotahu Indah, Kec. Marisa, Kabupaten Pohuwato, Gorontalo","Kabupaten Pohuwato, Gorontalo",GORONTALO,,Indonesia,,,,0.4766025,1.219.354.884,https://maps.google.com/?cid=0x0:0xd28f7fd4ee9882a0,
hardware store,Toko Bahan Bangunan,Toko Berkat Abadi Bangunan,"Buntulia Tengah, Kec. Marisa, Kabupaten Pohuwato, Gorontalo 96466","Kec. Marisa, Kabupaten Pohuwato",GORONTALO,96466.0,Indonesia,,,,0.4792673,1.219.336.516,https://maps.google.com/?cid=0x0:0x12996b428582795b,
hardware store,Toko Perlengkapan Rumah,"Toko Darem""""","G8HR+4X3, Hungayonaa, Kec. Tilamuta, Kabupaten Boalemo, Gorontalo 96263","Hungayonaa, Kec. Tilamuta, Kabupaten Boalemo",GORONTALO,96263.0,Indonesia,,,,0.5277745,122.342.419,https://maps.google.com/?cid=0x0:0x2ec339b59c2fcabc,
hardware store,Toko Bahan Bangunan,Toko Asy Bangunan,"Sipatana, Kec. Buntulia, Kabupaten Pohuwato, Gorontalo","Kabupaten Pohuwato, Gorontalo",GORONTALO,,Indonesia,,,,0.4816032,1.219.251.878,https://maps.google.com/?cid=0x0:0x5221518e0391d42e,
hardware store,Toko,Toko ALAN,"FW9M+325, Buntulia Sel., Kec. Duhiadaa, Kabupaten Pohuwato, Gorontalo 96266","Buntulia Sel., Kec. Duhiadaa, Kabupaten Pohuwato",GORONTALO,96266.0,Indonesia,85211886336.0,,,0.4676377,1.219.326.109,https://maps.google.com/?cid=0x0:0xb5bce050899f5294,
hardware store,Toko,Toko Delvina,"FW8M+X7R, Buntulia Sel., Kec. Duhiadaa, Kabupaten Pohuwato, Gorontalo 96266","Buntulia Sel., Kec. Duhiadaa, Kabupaten Pohuwato",GORONTALO,96266.0,Indonesia,,,,0.4674979,1.219.331.423,https://maps.google.com/?cid=0x0:0x543af620f0ed4eed,
hardware store,hardware store,Gorontalo 96266,"Kabupaten Pohuwato, Gorontalo","Kabupaten Pohuwato, Gorontalo",GORONTALO,,Indonesia,,,,0.6235288,1.218.790.306,https://maps.google.com/?cid=0x0:0x6e323a18714b4718,
hardware store,hardware store,Kec. Duhiadaa,"Kabupaten Pohuwato, Gorontalo","Kabupaten Pohuwato, Gorontalo",GORONTALO,,Indonesia,,,,0.4727472,1.219.315.071,https://maps.google.com/?cid=0x0:0x4f9e976d482b115f,
hardware store,Toko Mebel,UD.MEUBEL AKBAR,"Jl.napoleon, dusun kramat. Sebelum gereja pante kosta pertama sebelah kanan Pas dekat dgn bangunan besar belum terplester, Pohuwato Tim., Kec. Marisa, Kabupaten Pohuwato, Gorontalo 96266","dusun kramat. Sebelum gereja pante kosta pertama sebelah kanan Pas dekat dgn bangunan besar belum terplester, Pohuwato Tim., Kec. Marisa, Kabupaten Pohuwato",GORONTALO,96266.0,Indonesia,82194917825.0,,,0.4529825,1.219.384.271,https://maps.google.com/?cid=0x0:0xcfad6388e1916e3d,
hardware store,Toko Bahan Bangunan,Toko Meraki,"Botubilotahu Indah, Kec. Marisa, Kabupaten Pohuwato, Gorontalo","Kabupaten Pohuwato, Gorontalo",GORONTALO,,Indonesia,,,,0.4766025,1.219.354.884,https://maps.google.com/?cid=0x0:0xd28f7fd4ee9882a0,
hardware store,hardware store,Gorontalo 96468,"Kec. Lemito, Kabupaten Pohuwato, Gorontalo","Kabupaten Pohuwato, Gorontalo",GORONTALO,,Indonesia,,,,0.7390376,1.215.826.642,https://maps.google.com/?cid=0x0:0xbcbfbe464a8e6a55,
hardware store,hardware store,Toko Nusantara Bangunan Lemito,"Jalan Trans Sulawesi Ds. Ponelo, Lemito Utara, Kec. Lemito, Kabupaten Pohuwato, Gorontalo","Kabupaten Pohuwato, Gorontalo",GORONTALO,,Indonesia,85266222296.0,,,0.5474748,1.215.724.118,https://maps.google.com/?cid=0x0:0x1e16e4de03ce4dc7,
hardware store,Toko Bahan Bangunan,Mulia Depo Bangunan (MDB),"HH3C+QJH, Jl. Trans-Sulawesi, Lemito Utara, Kec. Lemito, Kabupaten Pohuwato, Gorontalo 96468","Jl. Trans-Sulawesi, Lemito Utara, Kec. Lemito, Kabupaten Pohuwato",GORONTALO,96468.0,Indonesia,82291661879.0,,,0.5541343,1.215.716.613,https://maps.google.com/?cid=0x0:0x2781230fc31a837e,
hardware store,Toko Alat Musik,Nafiri Music,"Jl. Bellyra Raya No.15 blok I, Pegangsaan Dua, Kec. Klp. Gading, Jkt Utara, Daerah Khusus Ibukota Jakarta 14250","Pegangsaan Dua, Kec. Klp. Gading, Jkt Utara",GORONTALO,14250.0,Indonesia,818801520.0,,,-61.700.134,1.069.113.129,https://maps.google.com/?cid=0x0:0xb156782c2f1221cb,
hardware store,Toko,Toko rahmat bangunan marisa,"FWHR+2PG, Jl. Sultan Amai, Botubilotahu Indah, Kec. Marisa, Kabupaten Pohuwato, Gorontalo 96266","Jl. Sultan Amai, Botubilotahu Indah, Kec. Marisa, Kabupaten Pohuwato",GORONTALO,96266.0,Indonesia,85335589920.0,,,0.4775509,1.219.418.261,https://maps.google.com/?cid=0x0:0xa2bb3be578970397,
hardware store,Toko Bahan Bangunan,TOKO SURYA BANGUNAN MARISA,"FWCQ+36F, Jl. Sultan Amai, Marisa Utara, Kec. Marisa, Kabupaten Pohuwato, Gorontalo 96265","Jl. Sultan Amai, Marisa Utara, Kec. Marisa, Kabupaten Pohuwato",GORONTALO,96265.0,Indonesia,,,,0.4701875,1.219.380.484,https://maps.google.com/?cid=0x0:0x80094912e26dedb8,
hardware store,Toko Perlengkapan Rumah,Megamusik,"FWCP+GW8, Marisa Utara, Kec. Marisa, Kabupaten Pohuwato, Gorontalo 96265","Marisa Utara, Kec. Marisa, Kabupaten Pohuwato",GORONTALO,96265.0,Indonesia,82226444187.0,,,0.4712859,1.219.373.277,https://maps.google.com/?cid=0x0:0x612db744c08b4f00,
hardware store,Toko Bahan Bangunan,Toko Meraki,"Botubilotahu Indah, Kec. Marisa, Kabupaten Pohuwato, Gorontalo","Kabupaten Pohuwato, Gorontalo",GORONTALO,,Indonesia,,,,0.4766025,1.219.354.884,https://maps.google.com/?cid=0x0:0xd28f7fd4ee9882a0,
hardware store,hardware store,Kec. Marisa,"Kabupaten Pohuwato, Gorontalo","Kabupaten Pohuwato, Gorontalo",GORONTALO,,Indonesia,,,,0.4701607,121.958.687,https://maps.google.com/?cid=0x0:0xf18aaba667559ff0,
hardware store,Toko,MR. DIY,"Jl. Trans-Sulawesi, Buntulia Sel., Kec. Duhiadaa, Kabupaten Pohuwato, Gorontalo 96266","Buntulia Sel., Kec. Duhiadaa, Kabupaten Pohuwato",GORONTALO,96266.0,Indonesia,,,,0.4711451,1.219.311.952,https://maps.google.com/?cid=0x0:0x69a796084d575125,
hardware store,Toko,Makmur sentosa marisa,"Jl. Sultan Amai, Marisa Utara, Kec. Marisa, Kabupaten Pohuwato, Gorontalo 96265","Marisa Utara, Kec. Marisa, Kabupaten Pohuwato",GORONTALO,96265.0,Indonesia,8123513478.0,,,0.4723577,1.219.389.063,https://maps.google.com/?cid=0x0:0x7ec3010925b28695,
hardware store,Toko,Marisa Jaya,"FW6X+WXR, Palopo, Kec. Marisa, Kabupaten Pohuwato, Gorontalo 96265","Palopo, Kec. Marisa, Kabupaten Pohuwato",GORONTALO,96265.0,Indonesia,85708091670.0,,,0.4623877,1.219.499.404,https://maps.google.com/?cid=0x0:0x1a1a48ec99897421,
hardware store,Toko Swalayan,Arini Mart,"FW8P+W72, Jl. Trans-Sulawesi, Marisa Utara, Kec. Marisa, Kabupaten Pohuwato, Gorontalo 96265","Jl. Trans-Sulawesi, Marisa Utara, Kec. Marisa, Kabupaten Pohuwato",GORONTALO,96265.0,Indonesia,,,,0.4672588,1.219.356.422,https://maps.google.com/?cid=0x0:0xc2cbadf84a043366,
hardware store,Toko Perlengkapan Rumah,Paviliun Marisa,"FW9Q+R24 Samping Kantor Pos ,Sebelah Kanan Arah Ke Pasar Traditional, Ruko, Marisa, Jl. Sultan Amai, Marisa Utara, Marisa, Pohuwato Regency, Gorontalo 96265","Ruko, Marisa, Jl. Sultan Amai, Marisa Utara, Marisa, Pohuwato Regency",GORONTALO,96265.0,Indonesia,85255588998.0,,,0.4690244,1.219.374.883,https://maps.google.com/?cid=0x0:0x73d402a33c3bcf36,
hardware store,Toko,UD. Smile Colection Marisa,"FW4Q+H36, Marisa Selatan, Marisa, Pohuwato, Kec. Marisa, Gorontalo, 96265","Marisa Selatan, Marisa, Pohuwato, Kec. Marisa",GORONTALO,96265.0,Indonesia,85241231111.0,,,0.4564042,1.219.376.518,https://maps.google.com/?cid=0x0:0x9e3bf220a75fccd0,
hardware store,Toko,UD. TUNAS,"FW4X+M23, Pohuwato Tim., Kec. Marisa, Kabupaten Pohuwato, Gorontalo 96265","Pohuwato Tim., Kec. Marisa, Kabupaten Pohuwato",GORONTALO,96265.0,Indonesia,8124477050.0,,,0.4566425,1.219.475.319,https://maps.google.com/?cid=0x0:0xc0c43bc47a731d44,
hardware store,Toko Bahan Bangunan,Toko Berkat Abadi Bangunan,"Buntulia Tengah, Kec. Marisa, Kabupaten Pohuwato, Gorontalo 96466","Kec. Marisa, Kabupaten Pohuwato",GORONTALO,96466.0,Indonesia,,,,0.4792673,1.219.336.516,https://maps.google.com/?cid=0x0:0x12996b428582795b,
hardware store,Kantor Perusahaan,PT. Awet Sarana Sukses Marisa,"FWFX+FCV, Teratai, Kec. Marisa, Kabupaten Pohuwato, Gorontalo 96265","Teratai, Kec. Marisa, Kabupaten Pohuwato",GORONTALO,96265.0,Indonesia,,,,0.4737404,121.948.552,https://maps.google.com/?cid=0x0:0xcaf62a602904fa75,
hardware store,Toko Bahan Bangunan,Mentari Jaya Bangunan Marisa,"FWJP+C4W, Sipatana, Kec. Buntulia, Kabupaten Pohuwato, Gorontalo 96466","Sipatana, Kec. Buntulia, Kabupaten Pohuwato",GORONTALO,96466.0,Indonesia,81234324364.0,,,0.4813082,1.219.353.609,https://maps.google.com/?cid=0x0:0x8ed5b3563f67e921,
hardware store,Toko Mebel,UD.MEUBEL AKBAR,"Jl.napoleon, dusun kramat. Sebelum gereja pante kosta pertama sebelah kanan Pas dekat dgn bangunan besar belum terplester, Pohuwato Tim., Kec. Marisa, Kabupaten Pohuwato, Gorontalo 96266","dusun kramat. Sebelum gereja pante kosta pertama sebelah kanan Pas dekat dgn bangunan besar belum terplester, Pohuwato Tim., Kec. Marisa, Kabupaten Pohuwato",GORONTALO,96266.0,Indonesia,82194917825.0,,,0.4529825,1.219.384.271,https://maps.google.com/?cid=0x0:0xcfad6388e1916e3d,
hardware store,hardware store,Gorontalo 96466,"Kabupaten Pohuwato, Gorontalo","Kabupaten Pohuwato, Gorontalo",GORONTALO,,Indonesia,,,,0.5225929,121.918.866,https://maps.google.com/?cid=0x0:0x51b8962633bca4f,
hardware store,Toko,MR. DIY,"Jl. Trans-Sulawesi, Buntulia Sel., Kec. Duhiadaa, Kabupaten Pohuwato, Gorontalo 96266","Buntulia Sel., Kec. Duhiadaa, Kabupaten Pohuwato",GORONTALO,96266.0,Indonesia,,,,0.4711451,1.219.311.952,https://maps.google.com/?cid=0x0:0x69a796084d575125,
hardware store,Toko,Toko rahmat bangunan marisa,"FWHR+2PG, Jl. Sultan Amai, Botubilotahu Indah, Kec. Marisa, Kabupaten Pohuwato, Gorontalo 96266","Jl. Sultan Amai, Botubilotahu Indah, Kec. Marisa, Kabupaten Pohuwato",GORONTALO,96266.0,Indonesia,85335589920.0,,,0.4775509,1.219.418.261,https://maps.google.com/?cid=0x0:0xa2bb3be578970397,
hardware store,Toko Swalayan,Arini Mart,"FW8P+W72, Jl. Trans-Sulawesi, Marisa Utara, Kec. Marisa, Kabupaten Pohuwato, Gorontalo 96265","Jl. Trans-Sulawesi, Marisa Utara, Kec. Marisa, Kabupaten Pohuwato",GORONTALO,96265.0,Indonesia,,,,0.4672588,1.219.356.422,https://maps.google.com/?cid=0x0:0xc2cbadf84a043366,
hardware store,Toko Bahan Bangunan,Mentari Jaya Bangunan Marisa,"FWJP+C4W, Sipatana, Kec. Buntulia, Kabupaten Pohuwato, Gorontalo 96466","Sipatana, Kec. Buntulia, Kabupaten Pohuwato",GORONTALO,96466.0,Indonesia,81234324364.0,,,0.4813082,1.219.353.609,https://maps.google.com/?cid=0x0:0x8ed5b3563f67e921,
hardware store,Toko Bahan Bangunan,Toko Berkat Abadi Bangunan,"Buntulia Tengah, Kec. Marisa, Kabupaten Pohuwato, Gorontalo 96466","Kec. Marisa, Kabupaten Pohuwato",GORONTALO,96466.0,Indonesia,,,,0.4792673,1.219.336.516,https://maps.google.com/?cid=0x0:0x12996b428582795b,
hardware store,Toko Alat Listrik,Toko Kuning Marisa Gorontalo,"FW7P+9C6, Jl. pelabuhan, Bulili, Kec. Duhiadaa, Kabupaten Pohuwato, Gorontalo 96265","Jl. pelabuhan, Bulili, Kec. Duhiadaa, Kabupaten Pohuwato",GORONTALO,96265.0,Indonesia,82293417099.0,,,0.4634186,121.936.021,https://maps.google.com/?cid=0x0:0x87754bd58c4ba2bd,
hardware store,Toko Perlengkapan Rumah,Paviliun Marisa,"FW9Q+R24 Samping Kantor Pos ,Sebelah Kanan Arah Ke Pasar Traditional, Ruko, Marisa, Jl. Sultan Amai, Marisa Utara, Marisa, Pohuwato Regency, Gorontalo 96265","Ruko, Marisa, Jl. Sultan Amai, Marisa Utara, Marisa, Pohuwato Regency",GORONTALO,96265.0,Indonesia,85255588998.0,,,0.4690244,1.219.374.883,https://maps.google.com/?cid=0x0:0x73d402a33c3bcf36,
hardware store,Toko Perlengkapan Rumah,Megamusik,"FWCP+GW8, Marisa Utara, Kec. Marisa, Kabupaten Pohuwato, Gorontalo 96265","Marisa Utara, Kec. Marisa, Kabupaten Pohuwato",GORONTALO,96265.0,Indonesia,82226444187.0,,,0.4712859,1.219.373.277,https://maps.google.com/?cid=0x0:0x612db744c08b4f00,
hardware store,Toko Bahan Bangunan,Toko Meraki,"Botubilotahu Indah, Kec. Marisa, Kabupaten Pohuwato, Gorontalo","Kabupaten Pohuwato, Gorontalo",GORONTALO,,Indonesia,,,,0.4766025,1.219.354.884,https://maps.google.com/?cid=0x0:0xd28f7fd4ee9882a0,
hardware store,Toko Elektronik,Toko UNIX,"FW9P+PX5, Jl. Sultan Amai, Marisa Utara, Kec. Marisa, Kabupaten Pohuwato, Gorontalo 96265","Jl. Sultan Amai, Marisa Utara, Kec. Marisa, Kabupaten Pohuwato",GORONTALO,96265.0,Indonesia,82395050351.0,,,0.4692636,1.219.374.724,https://maps.google.com/?cid=0x0:0x89d3f37deb468249,
hardware store,Toko,UD. Smile Colection Marisa,"FW4Q+H36, Marisa Selatan, Marisa, Pohuwato, Kec. Marisa, Gorontalo, 96265","Marisa Selatan, Marisa, Pohuwato, Kec. Marisa",GORONTALO,96265.0,Indonesia,85241231111.0,,,0.4564042,1.219.376.518,https://maps.google.com/?cid=0x0:0x9e3bf220a75fccd0,
hardware store,Kantor Perusahaan,PT. Awet Sarana Sukses Marisa,"FWFX+FCV, Teratai, Kec. Marisa, Kabupaten Pohuwato, Gorontalo 96265","Teratai, Kec. Marisa, Kabupaten Pohuwato",GORONTALO,96265.0,Indonesia,,,,0.4737404,121.948.552,https://maps.google.com/?cid=0x0:0xcaf62a602904fa75,
hardware store,Toko Ponsel,Palu Cellular,"FW9J+2HW, Jl. Trans-Sulawesi, Marisa Sel., Kec. Marisa, Kabupaten Pohuwato, Gorontalo 96266","Jl. Trans-Sulawesi, Marisa Sel., Kec. Marisa, Kabupaten Pohuwato",GORONTALO,96266.0,Indonesia,,,,0.4676107,1.219.314.422,https://maps.google.com/?cid=0x0:0xa1927c302da6bca3,
hardware store,Toko umum,Toko HIRAMEYA,"FWXM+5P8, Buntulia Utara, Kec. Buntulia, Kabupaten Pohuwato, Gorontalo 96266","Buntulia Utara, Kec. Buntulia, Kabupaten Pohuwato",GORONTALO,96266.0,Indonesia,82323293194.0,,,0.4979164,1.219.343.321,https://maps.google.com/?cid=0x0:0x70e058b15f1b0ff1,
hardware store,Toko Mebel,UD.MEUBEL AKBAR,"Jl.napoleon, dusun kramat. Sebelum gereja pante kosta pertama sebelah kanan Pas dekat dgn bangunan besar belum terplester, Pohuwato Tim., Kec. Marisa, Kabupaten Pohuwato, Gorontalo 96266","dusun kramat. Sebelum gereja pante kosta pertama sebelah kanan Pas dekat dgn bangunan besar belum terplester, Pohuwato Tim., Kec. Marisa, Kabupaten Pohuwato",GORONTALO,96266.0,Indonesia,82194917825.0,,,0.4529825,1.219.384.271,https://maps.google.com/?cid=0x0:0xcfad6388e1916e3d,
hardware store,Toko Pakaian,Happy Baby,"Jl. Trans-Sulawesi, Marisa Utara, Kec. Marisa, Kabupaten Pohuwato, Gorontalo 96265","Marisa Utara, Kec. Marisa, Kabupaten Pohuwato",GORONTALO,96265.0,Indonesia,81222312430.0,,,0.4675849,1.219.355.164,https://maps.google.com/?cid=0x0:0x3dbbcbae046ba328,
hardware store,Toko Bahan Bangunan,Hardware Clothing,"Rukan Gading Indah, Blok V9-12, RT.18/RW.8, Klp. Gading Bar., Kec. Klp. Gading, Jkt Utara, Daerah Khusus Ibukota Jakarta 12930","Blok V9-12, RT.18/RW.8, Klp. Gading Bar., Kec. Klp. Gading, Jkt Utara",GORONTALO,12930.0,Indonesia,2125539858.0,,,-6.149.231,106.896.942,https://maps.google.com/?cid=0x0:0x488fdb7f986cd389,
hardware store,Toko Alat Tulis,Casa Avila,"Jl. Jatipadang Utara No.22, RT.8/RW.7, Jati Padang, Ps. Minggu, Kota Jakarta Selatan, Daerah Khusus Ibukota Jakarta 12540","RT.8/RW.7, Jati Padang, Ps. Minggu, Kota Jakarta Selatan",GORONTALO,12540.0,Indonesia,217800151.0,,,-62.840.951,1.068.285.539,https://maps.google.com/?cid=0x0:0x9d4aa87cb76b84cc,
hardware store,Toko Aki Mobil,Canary aki,"Jl. Teras Citra, Cukang Galih, Kec. Curug, Kabupaten Tangerang, Banten 15810","Cukang Galih, Kec. Curug, Kabupaten Tangerang",GORONTALO,15810.0,Indonesia,87738140736.0,,,-6.254.915,1.065.429.251,https://maps.google.com/?cid=0x0:0x41ee3d27a55e8ea4,
hardware store,Toko Elektronik,Harco Mangga Dua,"Jl. Mangga Dua Raya, RW.11, Mangga Dua Sel., Kecamatan Sawah Besar, Kota Jakarta Pusat, Daerah Khusus Ibukota Jakarta 10730","RW.11, Mangga Dua Sel., Kecamatan Sawah Besar, Kota Jakarta Pusat",GORONTALO,10730.0,Indonesia,216129329.0,,,-61.390.038,1.068.284.066,https://maps.google.com/?cid=0x0:0x964c8d2f2bdf3b08,
hardware store,Pusat Perbelanjaan,Lulu Hypermarket  Department Store - Plaza Taman,"Plaza Taman Modern, Jl. Raya Bekasi No.24, Ujung Menteng, Kec. Cakung, Kota Jakarta Timur, Daerah Khusus Ibukota Jakarta 13960","Jl. Raya Bekasi No.24, Ujung Menteng, Kec. Cakung, Kota Jakarta Timur",GORONTALO,13960.0,Indonesia,2129844000.0,,,-61.866.528,106.949.145,https://maps.google.com/?cid=0x0:0x417a62ca795ee0b8,
hardware store,Toko Komputer,Casanova Computer,"Harco Mangga Dua Plaza, Jalan Arteri Jl. Mangga Dua Raya No.17 B1/19, RT.17/RW.11, Mangga Dua Sel., Kecamatan Sawah Besar, Kota Jakarta Pusat, Daerah Khusus Ibukota Jakarta 10730","Jalan Arteri Jl. Mangga Dua Raya No.17 B1/19, RT.17/RW.11, Mangga Dua Sel., Kecamatan Sawah Besar, Kota Jakarta Pusat",GORONTALO,10730.0,Indonesia,85695642258.0,,,-61.389.201,1.068.285.381,https://maps.google.com/?cid=0x0:0x42a5eac69a3c2c7c,
hardware store,Toko Komputer,Cassanova Computer,"Jalan keadilan raya no 3 RT.3 RW 02 Depok timur, Jl. Keadilan Raya No.3, RT.3/RW.2, Bakti Jaya, Kec. Sukmajaya, Kota Depok, Jawa Barat 16418","Jl. Keadilan Raya No.3, RT.3/RW.2, Bakti Jaya, Kec. Sukmajaya, Kota Depok",GORONTALO,16418.0,Indonesia,8569886166.0,,,-6.387.208,1.068.523.868,https://maps.google.com/?cid=0x0:0x4b3f83a5a45d1e5,
hardware store,Pusat Perbelanjaan,LuLu Hypermarket - Mega Bekasi Hypermall,"Jl. Ahmad Yani No.1, RT.004/RW.001, Marga Jaya, Kec. Bekasi Sel., Kota Bks, Jawa Barat 17141","RT.004/RW.001, Marga Jaya, Kec. Bekasi Sel., Kota Bks",GORONTALO,17141.0,Indonesia,81284056853.0,,,-62.497.755,1.069.925.032,https://maps.google.com/?cid=0x0:0x4d491ebf7115f0d0,
hardware store,hardware store,Kec. Paguat,"Kabupaten Pohuwato, Gorontalo","Kabupaten Pohuwato, Gorontalo",GORONTALO,,Indonesia,,,,0.4910265,122.073.703,https://maps.google.com/?cid=0x0:0x9c57f083f00632a6,
hardware store,Toko Bahan Bangunan,Toko DINNA BANGUNAN,"F3RC+5QH, Jl. Trans-Sulawesi, Siduan, Kec. Paguat, Kabupaten Pohuwato, Gorontalo 96265","Jl. Trans-Sulawesi, Siduan, Kec. Paguat, Kabupaten Pohuwato",GORONTALO,96265.0,Indonesia,85240875320.0,,,0.4904292,1.220.719.819,https://maps.google.com/?cid=0x0:0x7e3d30d70df3ebb1,
hardware store,Toko Pertanian,Kios Tani Sejahtera Paguat,"Bunuyo, Kec. Paguat, Kabupaten Pohuwato, Gorontalo 96265","Kec. Paguat, Kabupaten Pohuwato",GORONTALO,96265.0,Indonesia,85254655348.0,,,0.4889015,1.220.798.478,https://maps.google.com/?cid=0x0:0xe9d44b0db891e2ea,
hardware store,hardware store,Gorontalo 96266,"Kabupaten Pohuwato, Gorontalo","Kabupaten Pohuwato, Gorontalo",GORONTALO,,Indonesia,,,,0.6235288,1.218.790.306,https://maps.google.com/?cid=0x0:0x6e323a18714b4718,
hardware store,Toko,MR. DIY,"Jl. Trans-Sulawesi, Buntulia Sel., Kec. Duhiadaa, Kabupaten Pohuwato, Gorontalo 96266","Buntulia Sel., Kec. Duhiadaa, Kabupaten Pohuwato",GORONTALO,96266.0,Indonesia,,,,0.4711451,1.219.311.952,https://maps.google.com/?cid=0x0:0x69a796084d575125,
hardware store,Toko Mebel,UD.MEUBEL AKBAR,"Jl.napoleon, dusun kramat. Sebelum gereja pante kosta pertama sebelah kanan Pas dekat dgn bangunan besar belum terplester, Pohuwato Tim., Kec. Marisa, Kabupaten Pohuwato, Gorontalo 96266","dusun kramat. Sebelum gereja pante kosta pertama sebelah kanan Pas dekat dgn bangunan besar belum terplester, Pohuwato Tim., Kec. Marisa, Kabupaten Pohuwato",GORONTALO,96266.0,Indonesia,82194917825.0,,,0.4529825,1.219.384.271,https://maps.google.com/?cid=0x0:0xcfad6388e1916e3d,
hardware store,Toko,UD. TUNAS,"FW4X+M23, Pohuwato Tim., Kec. Marisa, Kabupaten Pohuwato, Gorontalo 96265","Pohuwato Tim., Kec. Marisa, Kabupaten Pohuwato",GORONTALO,96265.0,Indonesia,8124477050.0,,,0.4566425,1.219.475.319,https://maps.google.com/?cid=0x0:0xc0c43bc47a731d44,
hardware store,Toko Alat Tulis,TOKO AREMA TALUDITI,"JRM9+F5J Panca karsa 2, Panca Karsa II, Kec. Taluditi, Kabupaten Pohuwato, Gorontalo 96469","Panca Karsa II, Kec. Taluditi, Kabupaten Pohuwato",GORONTALO,96469.0,Indonesia,81340751800.0,,,0.633701,1.218.178.766,https://maps.google.com/?cid=0x0:0x14367dc104636bae,
hardware store,Toko,Toko rahmat bangunan marisa,"FWHR+2PG, Jl. Sultan Amai, Botubilotahu Indah, Kec. Marisa, Kabupaten Pohuwato, Gorontalo 96266","Jl. Sultan Amai, Botubilotahu Indah, Kec. Marisa, Kabupaten Pohuwato",GORONTALO,96266.0,Indonesia,85335589920.0,,,0.4775509,1.219.418.261,https://maps.google.com/?cid=0x0:0xa2bb3be578970397,
hardware store,Toko Alat Listrik,Ud Petani Jaya,"GPJG+V8Q, Jl. Trans-Sulawesi, Sidorukun, Kec. Randangan, Kabupaten Pohuwato, Gorontalo 96469","Jl. Trans-Sulawesi, Sidorukun, Kec. Randangan, Kabupaten Pohuwato",GORONTALO,96469.0,Indonesia,,,,0.5322246,1.217.258.591,https://maps.google.com/?cid=0x0:0x532afe9d5e0c006e,
hardware store,Toko Bahan Bangunan,Toko Berkat Abadi Bangunan,"Buntulia Tengah, Kec. Marisa, Kabupaten Pohuwato, Gorontalo 96466","Kec. Marisa, Kabupaten Pohuwato",GORONTALO,96466.0,Indonesia,,,,0.4792673,1.219.336.516,https://maps.google.com/?cid=0x0:0x12996b428582795b,
hardware store,Toko Bahan Bangunan,Toko DINNA BANGUNAN,"F3RC+5QH, Jl. Trans-Sulawesi, Siduan, Kec. Paguat, Kabupaten Pohuwato, Gorontalo 96265","Jl. Trans-Sulawesi, Siduan, Kec. Paguat, Kabupaten Pohuwato",GORONTALO,96265.0,Indonesia,85240875320.0,,,0.4904292,1.220.719.819,https://maps.google.com/?cid=0x0:0x7e3d30d70df3ebb1,
hardware store,Toko Bahan Bangunan,Mentari Jaya Bangunan Marisa,"FWJP+C4W, Sipatana, Kec. Buntulia, Kabupaten Pohuwato, Gorontalo 96466","Sipatana, Kec. Buntulia, Kabupaten Pohuwato",GORONTALO,96466.0,Indonesia,81234324364.0,,,0.4813082,1.219.353.609,https://maps.google.com/?cid=0x0:0x8ed5b3563f67e921,
hardware store,Toko Bahan Bangunan,Toko Meraki,"Botubilotahu Indah, Kec. Marisa, Kabupaten Pohuwato, Gorontalo","Kabupaten Pohuwato, Gorontalo",GORONTALO,,Indonesia,,,,0.4766025,1.219.354.884,https://maps.google.com/?cid=0x0:0xd28f7fd4ee9882a0,
hardware store,hardware store,Kec. Patilanggio,"Kabupaten Pohuwato, Gorontalo","Kabupaten Pohuwato, Gorontalo",GORONTALO,,Indonesia,,,,0.5468802,12.186.498,https://maps.google.com/?cid=0x0:0x53eff626ccc95490,
hardware store,Toko Bahan Bangunan,Al_Amin bangunan,"G44P+GQ7, Tabulo, Kec. Mananggu, Kabupaten Boalemo, Gorontalo 96264","Tabulo, Kec. Mananggu, Kabupaten Boalemo",GORONTALO,96264.0,Indonesia,,,,0.5062805,1.221.369.233,https://maps.google.com/?cid=0x0:0x3f903572fd93e1a7,
hardware store,Toko Elektronik,Toko Maju Forniture,"FWFJ+PQ4, Buntulia Jaya, Kec. Duhiadaa, Kabupaten Pohuwato, Gorontalo 96466","Buntulia Jaya, Kec. Duhiadaa, Kabupaten Pohuwato",GORONTALO,96466.0,Indonesia,85240452535.0,,,0.4742559,1.219.319.535,https://maps.google.com/?cid=0x0:0x513fa34029558b59,
hardware store,Pabrikan mebel,Syifah Mebel,"GR86+C37, Huyula, Kec. Randangan, Kabupaten Pohuwato, Gorontalo 96469","Huyula, Kec. Randangan, Kabupaten Pohuwato",GORONTALO,96469.0,Indonesia,,,,0.5160457,1.218.101.805,https://maps.google.com/?cid=0x0:0xa42b0cddbf95f609,
hardware store,Toko Perlengkapan Rumah,Paviliun Marisa,"FW9Q+R24 Samping Kantor Pos ,Sebelah Kanan Arah Ke Pasar Traditional, Ruko, Marisa, Jl. Sultan Amai, Marisa Utara, Marisa, Pohuwato Regency, Gorontalo 96265","Ruko, Marisa, Jl. Sultan Amai, Marisa Utara, Marisa, Pohuwato Regency",GORONTALO,96265.0,Indonesia,85255588998.0,,,0.4690244,1.219.374.883,https://maps.google.com/?cid=0x0:0x73d402a33c3bcf36,
hardware store,Toko,Istana Marisa Mandiri,"FWCQ+JFF, Unnamed Rd, Marisa Utara, Kec. Marisa, Kabupaten Pohuwato, Gorontalo 96265","Unnamed Rd, Marisa Utara, Kec. Marisa, Kabupaten Pohuwato",GORONTALO,96265.0,Indonesia,,,,0.4715619,1.219.386.628,https://maps.google.com/?cid=0x0:0x1f66646c20e3ccab,
hardware store,Toko umum,AR STORE,"FW9Q+R24, Jl. Sultan Amai, Marisa Utara, Kec. Marisa, Kabupaten Pohuwato, Gorontalo 96265","Jl. Sultan Amai, Marisa Utara, Kec. Marisa, Kabupaten Pohuwato",GORONTALO,96265.0,Indonesia,81358015593.0,,,0.4694703,1.219.375.791,https://maps.google.com/?cid=0x0:0x7818098ea04cb5bd,
hardware store,Toko Bahan Bangunan,MEGA DEPO BANGUNAN,"FCV7+84C, Bar, Dudewulo, Kec. Popayato Bar., Kabupaten Pohuwato, Gorontalo 96467","Bar, Dudewulo, Kec. Popayato Bar., Kabupaten Pohuwato",GORONTALO,96467.0,Indonesia,,,,0.4933219,121.412.767,https://maps.google.com/?cid=0x0:0xae13135ae7d1637,
hardware store,hardware store,Gorontalo 96467,"Kabupaten Pohuwato, Gorontalo","Kabupaten Pohuwato, Gorontalo",GORONTALO,,Indonesia,,,,0.7082941,1.213.541.631,https://maps.google.com/?cid=0x0:0x6a37da13e8b9d9f7,
hardware store,Pusat Perbelanjaan,Central Bangunan,"GF8M+VFG, Maleo, Kec. Popayato Tim., Kabupaten Pohuwato, Gorontalo 96467","Maleo, Kec. Popayato Tim., Kabupaten Pohuwato",GORONTALO,96467.0,Indonesia,85708091670.0,,,0.5171993,1.214.836.883,https://maps.google.com/?cid=0x0:0xb7fadfe4998a5b29,
hardware store,hardware store,Toko Nusantara Bangunan Lemito,"Jalan Trans Sulawesi Ds. Ponelo, Lemito Utara, Kec. Lemito, Kabupaten Pohuwato, Gorontalo","Kabupaten Pohuwato, Gorontalo",GORONTALO,,Indonesia,85266222296.0,,,0.5474748,1.215.724.118,https://maps.google.com/?cid=0x0:0x1e16e4de03ce4dc7,
hardware store,Toko Bahan Bangunan,Mulia Depo Bangunan (MDB),"HH3C+QJH, Jl. Trans-Sulawesi, Lemito Utara, Kec. Lemito, Kabupaten Pohuwato, Gorontalo 96468","Jl. Trans-Sulawesi, Lemito Utara, Kec. Lemito, Kabupaten Pohuwato",GORONTALO,96468.0,Indonesia,82291661879.0,,,0.5541343,1.215.716.613,https://maps.google.com/?cid=0x0:0x2781230fc31a837e,
hardware store,hardware store,Kec. Popayato Tim.,"Kabupaten Pohuwato, Gorontalo","Kabupaten Pohuwato, Gorontalo",GORONTALO,,Indonesia,,,,0.521171,1.214.876.076,https://maps.google.com/?cid=0x0:0xabc56e34572880b2,
hardware store,Pusat Perbelanjaan,Central Bangunan,"GF8M+VFG, Maleo, Kec. Popayato Tim., Kabupaten Pohuwato, Gorontalo 96467","Maleo, Kec. Popayato Tim., Kabupaten Pohuwato",GORONTALO,96467.0,Indonesia,85708091670.0,,,0.5171993,1.214.836.883,https://maps.google.com/?cid=0x0:0xb7fadfe4998a5b29,
hardware store,hardware store,Toko Nusantara Bangunan Lemito,"Jalan Trans Sulawesi Ds. Ponelo, Lemito Utara, Kec. Lemito, Kabupaten Pohuwato, Gorontalo","Kabupaten Pohuwato, Gorontalo",GORONTALO,,Indonesia,85266222296.0,,,0.5474748,1.215.724.118,https://maps.google.com/?cid=0x0:0x1e16e4de03ce4dc7,
hardware store,hardware store,Kec. Popayato Tim.,"Kabupaten Pohuwato, Gorontalo","Kabupaten Pohuwato, Gorontalo",GORONTALO,,Indonesia,,,,0.521171,1.214.876.076,https://maps.google.com/?cid=0x0:0xabc56e34572880b2,
hardware store,Pusat Perbelanjaan,Central Bangunan,"GF8M+VFG, Maleo, Kec. Popayato Tim., Kabupaten Pohuwato, Gorontalo 96467","Maleo, Kec. Popayato Tim., Kabupaten Pohuwato",GORONTALO,96467.0,Indonesia,85708091670.0,,,0.5171993,1.214.836.883,https://maps.google.com/?cid=0x0:0xb7fadfe4998a5b29,
hardware store,hardware store,Toko Nusantara Bangunan Lemito,"Jalan Trans Sulawesi Ds. Ponelo, Lemito Utara, Kec. Lemito, Kabupaten Pohuwato, Gorontalo","Kabupaten Pohuwato, Gorontalo",GORONTALO,,Indonesia,85266222296.0,,,0.5474748,1.215.724.118,https://maps.google.com/?cid=0x0:0x1e16e4de03ce4dc7,
hardware store,hardware store,Kec. Randangan,"Kabupaten Pohuwato, Gorontalo","Kabupaten Pohuwato, Gorontalo",GORONTALO,,Indonesia,,,,0.536787,1.218.156.097,https://maps.google.com/?cid=0x0:0xae3be2603f746c2c,
hardware store,Toko Alat Listrik,Ud Petani Jaya,"GPJG+V8Q, Jl. Trans-Sulawesi, Sidorukun, Kec. Randangan, Kabupaten Pohuwato, Gorontalo 96469","Jl. Trans-Sulawesi, Sidorukun, Kec. Randangan, Kabupaten Pohuwato",GORONTALO,96469.0,Indonesia,,,,0.5322246,1.217.258.591,https://maps.google.com/?cid=0x0:0x532afe9d5e0c006e,
hardware store,,Toko bangunan pujangga,"pertigaan indomaret masuk dalam, Jl. Trans-Sulawesi, Motolohu, Kec. Randangan, Kabupaten Pohuwato, Gorontalo","Kabupaten Pohuwato, Gorontalo",GORONTALO,,Indonesia,,,,0.5333526,1.218.148.921,https://maps.google.com/?cid=0x0:0x14bdf2917c823fb3,
hardware store,Toko Alat Tulis,Toko zafalnur ( atk dan taylor),"Banuroja, Kec. Randangan, Kabupaten Pohuwato, Gorontalo","Kabupaten Pohuwato, Gorontalo",GORONTALO,,Indonesia,81244690997.0,,,0.5506056,1.217.893.136,https://maps.google.com/?cid=0x0:0xe57c2166f6605e8a,
hardware store,Toko Bahan Bangunan,TOKO RANDY,"JVQ6+R48, Tirto Asri, Kec. Taluditi, Kabupaten Pohuwato, Gorontalo 96266","Tirto Asri, Kec. Taluditi, Kabupaten Pohuwato",GORONTALO,96266.0,Indonesia,87873964625.0,,,0.6395403,1.218.603.388,https://maps.google.com/?cid=0x0:0x142454996efe93fc,
hardware store,Toko Alat Tulis,TOKO AREMA TALUDITI,"JRM9+F5J Panca karsa 2, Panca Karsa II, Kec. Taluditi, Kabupaten Pohuwato, Gorontalo 96469","Panca Karsa II, Kec. Taluditi, Kabupaten Pohuwato",GORONTALO,96469.0,Indonesia,81340751800.0,,,0.633701,1.218.178.766,https://maps.google.com/?cid=0x0:0x14367dc104636bae,
hardware store,Toko Alat Tulis,Aksa Stationery,"Panca Karsa I, Kec. Taluditi, Kabupaten Pohuwato, Gorontalo 96469","Kec. Taluditi, Kabupaten Pohuwato",GORONTALO,96469.0,Indonesia,,,,0.6018582,1.217.997.564,https://maps.google.com/?cid=0x0:0x1176399a1f93b0e2,
hardware store,Pabrikan mebel,Syifah Mebel,"GR86+C37, Huyula, Kec. Randangan, Kabupaten Pohuwato, Gorontalo 96469","Huyula, Kec. Randangan, Kabupaten Pohuwato",GORONTALO,96469.0,Indonesia,,,,0.5160457,1.218.101.805,https://maps.google.com/?cid=0x0:0xa42b0cddbf95f609,
hardware store,hardware store,Gorontalo,,Gorontalo,GORONTALO,,Indonesia,,,,0.6999372,1.224.467.238,https://maps.google.com/?cid=0x0:0x1030bfbcaf71a20,
hardware store,Toko Bahan Bangunan,Toko Sumber Bangunan Taluditi .pangkalan LPG .ahmadagusalim,"JRMC+G43, Unnamed Road, Panca Karsa II, Kec. Taluditi, Kabupaten Pohuwato, Gorontalo 96469","Unnamed Road, Panca Karsa II, Kec. Taluditi, Kabupaten Pohuwato",GORONTALO,96469.0,Indonesia,,,,0.6337585,1.218.202.861,https://maps.google.com/?cid=0x0:0xfd3f43d10d637df9,
hardware store,Toko Alat Tulis,TOKO AREMA TALUDITI,"JRM9+F5J Panca karsa 2, Panca Karsa II, Kec. Taluditi, Kabupaten Pohuwato, Gorontalo 96469","Panca Karsa II, Kec. Taluditi, Kabupaten Pohuwato",GORONTALO,96469.0,Indonesia,81340751800.0,,,0.633701,1.218.178.766,https://maps.google.com/?cid=0x0:0x14367dc104636bae,
hardware store,Toko,Alfamart Taluditi,"JR24+CFH, Randangan - Desa Taluditi, Panca Karsa I, Kec. Taluditi, Kabupaten Pohuwato, Gorontalo 96469","Randangan - Desa Taluditi, Panca Karsa I, Kec. Taluditi, Kabupaten Pohuwato",GORONTALO,96469.0,Indonesia,,,,0.6010662,1.218.062.307,https://maps.google.com/?cid=0x0:0xedf23a85463ad014,
hardware store,hardware store,Gorontalo 96469,"Kabupaten Pohuwato, Gorontalo","Kabupaten Pohuwato, Gorontalo",GORONTALO,,Indonesia,,,,0.737587,1.217.651.362,https://maps.google.com/?cid=0x0:0xeb07f8fd945f7ccf,
hardware store,Toko,TOKO Lestari,"JR44+7HC, Randangan - Desa Taluditi, Panca Karsa I, Kec. Taluditi, Kabupaten Pohuwato, Gorontalo 96469","Randangan - Desa Taluditi, Panca Karsa I, Kec. Taluditi, Kabupaten Pohuwato",GORONTALO,96469.0,Indonesia,,,,0.6056924,1.218.063.925,https://maps.google.com/?cid=0x0:0x4ff9f3f8a83c696f,
hardware store,hardware store,Gorontalo 96468,"Kec. Lemito, Kabupaten Pohuwato, Gorontalo","Kabupaten Pohuwato, Gorontalo",GORONTALO,,Indonesia,,,,0.7390376,1.215.826.642,https://maps.google.com/?cid=0x0:0xbcbfbe464a8e6a55,
hardware store,hardware store,Toko Nusantara Bangunan Lemito,"Jalan Trans Sulawesi Ds. Ponelo, Lemito Utara, Kec. Lemito, Kabupaten Pohuwato, Gorontalo","Kabupaten Pohuwato, Gorontalo",GORONTALO,,Indonesia,85266222296.0,,,0.5474748,1.215.724.118,https://maps.google.com/?cid=0x0:0x1e16e4de03ce4dc7,
hardware store,Toko Bahan Bangunan,Mulia Depo Bangunan (MDB),"HH3C+QJH, Jl. Trans-Sulawesi, Lemito Utara, Kec. Lemito, Kabupaten Pohuwato, Gorontalo 96468","Jl. Trans-Sulawesi, Lemito Utara, Kec. Lemito, Kabupaten Pohuwato",GORONTALO,96468.0,Indonesia,82291661879.0,,,0.5541343,1.215.716.613,https://maps.google.com/?cid=0x0:0x2781230fc31a837e,
hardware store,Pusat Perbelanjaan,Central Bangunan,"GF8M+VFG, Maleo, Kec. Popayato Tim., Kabupaten Pohuwato, Gorontalo 96467","Maleo, Kec. Popayato Tim., Kabupaten Pohuwato",GORONTALO,96467.0,Indonesia,85708091670.0,,,0.5171993,1.214.836.883,https://maps.google.com/?cid=0x0:0xb7fadfe4998a5b29,
hardware store,Toko Alat Listrik,Ud Petani Jaya,"GPJG+V8Q, Jl. Trans-Sulawesi, Sidorukun, Kec. Randangan, Kabupaten Pohuwato, Gorontalo 96469","Jl. Trans-Sulawesi, Sidorukun, Kec. Randangan, Kabupaten Pohuwato",GORONTALO,96469.0,Indonesia,,,,0.5322246,1.217.258.591,https://maps.google.com/?cid=0x0:0x532afe9d5e0c006e,
hardware store,Toko Alat Tulis,Halif Fotocopy,"Jl. Trans-Sulawesi, Kenari, Kec. Lemito, Kabupaten Pohuwato, Gorontalo 96468","Kenari, Kec. Lemito, Kabupaten Pohuwato",GORONTALO,96468.0,Indonesia,81392975610.0,,,0.5627883,1.215.687.512,https://maps.google.com/?cid=0x0:0x2b56cf9c2f8dfa37,
