Category,Real Category,Business Name,Address,City,State,Postal Code,Country,Phone,Email,Website,Latitude,Longitude,Map Link,Details Link
mall,mall,Gorontalo 96266,"Kabupaten Pohuwato, Gorontalo","Kabupaten Pohuwato, Gorontalo",GORONTALO,,Indonesia,,,,0.6235288,1.218.790.306,https://maps.google.com/?cid=0x0:0x6e323a18714b4718,
mall,Kantor Perusahaan,STARMEDIA FC,"Buntulia Bar., Kec. Duhiadaa, Kabupaten Pohuwato, Gorontalo 96266","Kec. Duhiadaa, Kabupaten Pohuwato",GORONTALO,96266.0,Indonesia,4432215567.0,,,0.4852762,121.920.728,https://maps.google.com/?cid=0x0:0x8cbe4b71f74a607a,
mall,Toko Aksesori Ponsel,ULFA CELL,"FWQG+9X2, Buntulia Tengah, Kec. Buntulia, Kabupaten Pohuwato, Gorontalo 96466","Buntulia Tengah, Kec. Buntulia, Kabupaten Pohuwato",GORONTALO,96466.0,Indonesia,81354505807.0,,,0.4883891,1.219.274.003,https://maps.google.com/?cid=0x0:0x13f67305b007b997,
mall,Toko Pakaian,"Lapak NUN"" Outlet M-150""","FWGJ+8RP, Jl. Trans-Sulawesi, Buntulia Jaya, Kec. Duhiadaa, Kabupaten Pohuwato, Gorontalo 96466","Jl. Trans-Sulawesi, Buntulia Jaya, Kec. Duhiadaa, Kabupaten Pohuwato",GORONTALO,96466.0,Indonesia,85340604002.0,,,0.4758356,121.932.086,https://maps.google.com/?cid=0x0:0x7bddd1c6a8175d6c,
mall,Pusat Perbelanjaan,Citimall Gorontalo,"Jl. Sultan Botutihe No.68, Heledulaa Sel., Kec. Kota Tim., Kota Gorontalo, Gorontalo 96134","Heledulaa Sel., Kec. Kota Tim., Kota Gorontalo",GORONTALO,96134.0,Indonesia,,,,0.5377284,1.230.620.043,https://maps.google.com/?cid=0x0:0x79e25905adc0f87,
mall,Toko Pakaian,Jalan Trans Sulawesi Buntulia Utara Kec Buntulia Kab Pohuwato Prov Gorontalo,"Jl. Trans-Sulawesi No.196, Buntulia Utara, Kec. Buntulia, Kabupaten Pohuwato, Gorontalo 96466","Buntulia Utara, Kec. Buntulia, Kabupaten Pohuwato",GORONTALO,96466.0,Indonesia,82293507036.0,,,0.4925407,1.219.332.578,https://maps.google.com/?cid=0x0:0xa78a73058c1506a1,
mall,Toko Lampu,Paana led,"FWMV+36V, Unnamed Road, Botubilotahu Indah, Kec. Marisa, Kabupaten Pohuwato, Gorontalo 96265","Unnamed Road, Botubilotahu Indah, Kec. Marisa, Kabupaten Pohuwato",GORONTALO,96265.0,Indonesia,82247111727.0,,,0.4827456,1.219.430.357,https://maps.google.com/?cid=0x0:0x164a8d8607382e78,
mall,Hidangan Laut,Mawar Sharon Propertindo,"FW8W+6W6, Palopo, Kec. Marisa, Kabupaten Pohuwato, Gorontalo 96265","Palopo, Kec. Marisa, Kabupaten Pohuwato",GORONTALO,96265.0,Indonesia,,,,0.4655399,1.219.472.769,https://maps.google.com/?cid=0x0:0x4611b55ce6bdb636,
mall,Toko,Put Ollshop,"FW4P+JQ3, Jl. Diponegoro, Pohuwato Tim., Kec. Marisa, Kabupaten Pohuwato, Gorontalo 96265","Jl. Diponegoro, Pohuwato Tim., Kec. Marisa, Kabupaten Pohuwato",GORONTALO,96265.0,Indonesia,82291706214.0,,,0.4565219,1.219.369.256,https://maps.google.com/?cid=0x0:0xed69d9b9ce3992e5,
mall,Toko Kosmetik,PLAZA CENTER,"FW7W+5MJ, Palopo, Kec. Marisa, Kabupaten Pohuwato, Gorontalo","Kabupaten Pohuwato, Gorontalo",GORONTALO,,Indonesia,,,,0.4629701,1.219.466.415,https://maps.google.com/?cid=0x0:0xe31983a61100e7a9,
mall,Pusat Perbelanjaan,NN GROUP,"CWXR+RPJ, Unnamed Road, Pohuwato Tim., Kec. Marisa, Kabupaten Pohuwato, Gorontalo","Kabupaten Pohuwato, Gorontalo",GORONTALO,,Indonesia,82396030190.0,,,0.449599,121.941.774,https://maps.google.com/?cid=0x0:0x5783d68c01528499,
mall,Toko Pakaian,minccos Qz,"Jl. Trans-Sulawesi, Taluduyunu, Kec. Buntulia, Kabupaten Pohuwato, Gorontalo 96266","Taluduyunu, Kec. Buntulia, Kabupaten Pohuwato",GORONTALO,96266.0,Indonesia,,,,0.5012051,1.219.341.925,https://maps.google.com/?cid=0x0:0x11805c85b84371c0,
mall,Pusat Perbelanjaan,Kios Yulin,"FWM7+JM9, Duhiadaa, Kec. Duhiadaa, Kabupaten Pohuwato, Gorontalo 96466","Duhiadaa, Kec. Duhiadaa, Kabupaten Pohuwato",GORONTALO,96466.0,Indonesia,,,,0.4840355,1.219.142.193,https://maps.google.com/?cid=0x0:0x144b9281dff20ccd,
mall,Toko bahan makanan,Sri Wahyuni Bagu,"Unnamed Road, Botubilotahu Indah, Kec. Marisa, Kabupaten Pohuwato, Gorontalo 96265","Botubilotahu Indah, Kec. Marisa, Kabupaten Pohuwato",GORONTALO,96265.0,Indonesia,85145332437.0,,,0.4850717,1.219.434.017,https://maps.google.com/?cid=0x0:0xae62ddb196afd6c9,
mall,Toko umum,Metro Bangunan  Vape stor,"GV37+FR9, Unnamed Road, Dulomo, Kec. Patilanggio, Kabupaten Pohuwato, Gorontalo 96266","Unnamed Road, Dulomo, Kec. Patilanggio, Kabupaten Pohuwato",GORONTALO,96266.0,Indonesia,82189016969.0,,,0.5036567,1.218.646,https://maps.google.com/?cid=0x0:0x1d409e11972eb60f,
mall,Komplek perumahan,LUKMAN PERDANA CELLULER,"GRJX+8X3, Unnamed Road, Suka Makmur, Kec. Patilanggio, Kabupaten Pohuwato, Gorontalo 96266","Unnamed Road, Suka Makmur, Kec. Patilanggio, Kabupaten Pohuwato",GORONTALO,96266.0,Indonesia,81241677556.0,,,0.5307733,1.218.499.278,https://maps.google.com/?cid=0x0:0x9e5de8b382e7314c,
mall,Pusat Perbelanjaan,Toko Tia Randangan,"GRRG+MXF, Ayula, Kec. Randangan, Kabupaten Pohuwato, Gorontalo 96266","Ayula, Kec. Randangan, Kabupaten Pohuwato",GORONTALO,96266.0,Indonesia,,,,0.5416927,1.218.274.089,https://maps.google.com/?cid=0x0:0x59f8906d4dd1ec15,
mall,Toko,Alfa store 2,"FVXR+6QW, Mekar Jaya, Kec. Duhiadaa, Kabupaten Pohuwato, Gorontalo 96266","Mekar Jaya, Kec. Duhiadaa, Kabupaten Pohuwato",GORONTALO,96266.0,Indonesia,,,,0.4981014,1.218.919.648,https://maps.google.com/?cid=0x0:0xf0dfb48b370d161b,
mall,Minimarket,Indomaret Sungai Taluditi,"JRM7+F6F, Panca Karsa II, Kec. Taluditi, Kabupaten Pohuwato, Gorontalo 96469","Panca Karsa II, Kec. Taluditi, Kabupaten Pohuwato",GORONTALO,96469.0,Indonesia,,,,0.6336021,1.218.139.041,https://maps.google.com/?cid=0x0:0xd3b2d98797337e1e,
mall,Pusat Perbelanjaan,Pasar Randangan,"GRJ7+FH8, Motolohu, Kec. Randangan, Kabupaten Pohuwato, Gorontalo 96469","Motolohu, Kec. Randangan, Kabupaten Pohuwato",GORONTALO,96469.0,Indonesia,,,,0.5311536,1.218.139.664,https://maps.google.com/?cid=0x0:0x5f3de44bf283ac7f,
mall,Toko bahan makanan,UD. MOPIO,"FW9P+3M5, Marisa Utara, Kec. Marisa, Kabupaten Pohuwato, Gorontalo 96265","Marisa Utara, Kec. Marisa, Kabupaten Pohuwato",GORONTALO,96265.0,Indonesia,82230407700.0,,,0.4676346,121.936.748,https://maps.google.com/?cid=0x0:0xa92fa5803d2dcb17,
mall,Toko Makanan,USAHA PEMBURUH RUPIAH,"Jl. Diponegoro, Pohuwato Tim., Kec. Marisa, Kabupaten Pohuwato, Gorontalo 96265","Pohuwato Tim., Kec. Marisa, Kabupaten Pohuwato",GORONTALO,96265.0,Indonesia,82292697794.0,,,0.45649,1.219.368.183,https://maps.google.com/?cid=0x0:0x92fcad4a15f5ec2e,
mall,Toko Pakaian Wanita,Nalna olshop,"Popaya, Kec. Dengilo, Kabupaten Pohuwato, Gorontalo 96265","Kec. Dengilo, Kabupaten Pohuwato",GORONTALO,96265.0,Indonesia,85298006686.0,,,0.5216173,1.220.849.156,https://maps.google.com/?cid=0x0:0xd241e369cbf0e153,
mall,Toko Perlengkapan Rumah,Paviliun Marisa,"FW9Q+R24 Samping Kantor Pos ,Sebelah Kanan Arah Ke Pasar Traditional, Ruko, Marisa, Jl. Sultan Amai, Marisa Utara, Marisa, Pohuwato Regency, Gorontalo 96265","Ruko, Marisa, Jl. Sultan Amai, Marisa Utara, Marisa, Pohuwato Regency",GORONTALO,96265.0,Indonesia,85255588998.0,,,0.4690244,1.219.374.883,https://maps.google.com/?cid=0x0:0x73d402a33c3bcf36,
mall,Pusat Perbelanjaan,UD.SEJAHTERA,"CWWQ+RGW, Pohuwato Tim., Kec. Marisa, Kabupaten Pohuwato, Gorontalo","Kabupaten Pohuwato, Gorontalo",GORONTALO,,Indonesia,,,,0.4471066,1.219.388.414,https://maps.google.com/?cid=0x0:0xc44381ddcf50add9,
mall,Pembangunan Perumahan,M'Yusuf Home,"POHUWATO, Marisa Utara, GORONTALO, Gorontalo 96365","Marisa Utara, GORONTALO",GORONTALO,96365.0,Indonesia,,,,0.4716188,1.219.427.384,https://maps.google.com/?cid=0x0:0xb1e3dffe69cdfd20,
mall,mall,EP STORE taluditi,"JVV6+P5P, Randangan - Desa Taluditi, Kalimas, Kec. Taluditi, Kabupaten Pohuwato, Gorontalo 96266","Randangan - Desa Taluditi, Kalimas, Kec. Taluditi, Kabupaten Pohuwato",GORONTALO,96266.0,Indonesia,,,,0.6443332,1.218.604.609,https://maps.google.com/?cid=0x0:0xab37f1bff9c4267e,
mall,Toko,Stockist Produk Nasa Pohuwati,"FW6W+7X3, Palopo, Kec. Marisa, Kabupaten Pohuwato, Gorontalo 96265","Palopo, Kec. Marisa, Kabupaten Pohuwato",GORONTALO,96265.0,Indonesia,85241937007.0,,,0.4606377,1.219.474.313,https://maps.google.com/?cid=0x0:0xb61e81b83ecd8bff,
mall,mall,Gorontalo 96265,"Kabupaten Pohuwato, Gorontalo","Kabupaten Pohuwato, Gorontalo",GORONTALO,,Indonesia,,,,0.6708114,1.220.382.856,https://maps.google.com/?cid=0x0:0xc7ddf273e46e561,
mall,Toko Pakaian Wanita,Nalna olshop,"Popaya, Kec. Dengilo, Kabupaten Pohuwato, Gorontalo 96265","Kec. Dengilo, Kabupaten Pohuwato",GORONTALO,96265.0,Indonesia,85298006686.0,,,0.5216173,1.220.849.156,https://maps.google.com/?cid=0x0:0xd241e369cbf0e153,
mall,Hidangan Laut,Mawar Sharon Propertindo,"FW8W+6W6, Palopo, Kec. Marisa, Kabupaten Pohuwato, Gorontalo 96265","Palopo, Kec. Marisa, Kabupaten Pohuwato",GORONTALO,96265.0,Indonesia,,,,0.4655399,1.219.472.769,https://maps.google.com/?cid=0x0:0x4611b55ce6bdb636,
mall,Pusat Perbelanjaan,Citimall Gorontalo,"Jl. Sultan Botutihe No.68, Heledulaa Sel., Kec. Kota Tim., Kota Gorontalo, Gorontalo 96134","Heledulaa Sel., Kec. Kota Tim., Kota Gorontalo",GORONTALO,96134.0,Indonesia,,,,0.5377284,1.230.620.043,https://maps.google.com/?cid=0x0:0x79e25905adc0f87,
mall,Pasar,Pasar Selasa,"F3MG+39G, Unnamed Road, Pentadu, Kec. Paguat, Kabupaten Pohuwato, Gorontalo 96265","Unnamed Road, Pentadu, Kec. Paguat, Kabupaten Pohuwato",GORONTALO,96265.0,Indonesia,,,,0.4826887,1.220.759.391,https://maps.google.com/?cid=0x0:0x9e66dbf1a5855f34,
mall,Toko bahan makanan,Sri Wahyuni Bagu,"Unnamed Road, Botubilotahu Indah, Kec. Marisa, Kabupaten Pohuwato, Gorontalo 96265","Botubilotahu Indah, Kec. Marisa, Kabupaten Pohuwato",GORONTALO,96265.0,Indonesia,85145332437.0,,,0.4850717,1.219.434.017,https://maps.google.com/?cid=0x0:0xae62ddb196afd6c9,
mall,Pusat Perbelanjaan,NN GROUP,"CWXR+RPJ, Unnamed Road, Pohuwato Tim., Kec. Marisa, Kabupaten Pohuwato, Gorontalo","Kabupaten Pohuwato, Gorontalo",GORONTALO,,Indonesia,82396030190.0,,,0.449599,121.941.774,https://maps.google.com/?cid=0x0:0x5783d68c01528499,
mall,Toko Lampu,Paana led,"FWMV+36V, Unnamed Road, Botubilotahu Indah, Kec. Marisa, Kabupaten Pohuwato, Gorontalo 96265","Unnamed Road, Botubilotahu Indah, Kec. Marisa, Kabupaten Pohuwato",GORONTALO,96265.0,Indonesia,82247111727.0,,,0.4827456,1.219.430.357,https://maps.google.com/?cid=0x0:0x164a8d8607382e78,
mall,Pembangunan Perumahan,M'Yusuf Home,"POHUWATO, Marisa Utara, GORONTALO, Gorontalo 96365","Marisa Utara, GORONTALO",GORONTALO,96365.0,Indonesia,,,,0.4716188,1.219.427.384,https://maps.google.com/?cid=0x0:0xb1e3dffe69cdfd20,
mall,Toko,Put Ollshop,"FW4P+JQ3, Jl. Diponegoro, Pohuwato Tim., Kec. Marisa, Kabupaten Pohuwato, Gorontalo 96265","Jl. Diponegoro, Pohuwato Tim., Kec. Marisa, Kabupaten Pohuwato",GORONTALO,96265.0,Indonesia,82291706214.0,,,0.4565219,1.219.369.256,https://maps.google.com/?cid=0x0:0xed69d9b9ce3992e5,
mall,Toko Perlengkapan Rumah,Paviliun Marisa,"FW9Q+R24 Samping Kantor Pos ,Sebelah Kanan Arah Ke Pasar Traditional, Ruko, Marisa, Jl. Sultan Amai, Marisa Utara, Marisa, Pohuwato Regency, Gorontalo 96265","Ruko, Marisa, Jl. Sultan Amai, Marisa Utara, Marisa, Pohuwato Regency",GORONTALO,96265.0,Indonesia,85255588998.0,,,0.4690244,1.219.374.883,https://maps.google.com/?cid=0x0:0x73d402a33c3bcf36,
mall,Toko bahan makanan,UD. MOPIO,"FW9P+3M5, Marisa Utara, Kec. Marisa, Kabupaten Pohuwato, Gorontalo 96265","Marisa Utara, Kec. Marisa, Kabupaten Pohuwato",GORONTALO,96265.0,Indonesia,82230407700.0,,,0.4676346,121.936.748,https://maps.google.com/?cid=0x0:0xa92fa5803d2dcb17,
mall,Pusat Perbelanjaan,Kios Yulin,"FWM7+JM9, Duhiadaa, Kec. Duhiadaa, Kabupaten Pohuwato, Gorontalo 96466","Duhiadaa, Kec. Duhiadaa, Kabupaten Pohuwato",GORONTALO,96466.0,Indonesia,,,,0.4840355,1.219.142.193,https://maps.google.com/?cid=0x0:0x144b9281dff20ccd,
mall,Toko,Stockist Produk Nasa Pohuwati,"FW6W+7X3, Palopo, Kec. Marisa, Kabupaten Pohuwato, Gorontalo 96265","Palopo, Kec. Marisa, Kabupaten Pohuwato",GORONTALO,96265.0,Indonesia,85241937007.0,,,0.4606377,1.219.474.313,https://maps.google.com/?cid=0x0:0xb61e81b83ecd8bff,
mall,Toko Kosmetik,PLAZA CENTER,"FW7W+5MJ, Palopo, Kec. Marisa, Kabupaten Pohuwato, Gorontalo","Kabupaten Pohuwato, Gorontalo",GORONTALO,,Indonesia,,,,0.4629701,1.219.466.415,https://maps.google.com/?cid=0x0:0xe31983a61100e7a9,
mall,Toko Pakaian,"Lapak NUN"" Outlet M-150""","FWGJ+8RP, Jl. Trans-Sulawesi, Buntulia Jaya, Kec. Duhiadaa, Kabupaten Pohuwato, Gorontalo 96466","Jl. Trans-Sulawesi, Buntulia Jaya, Kec. Duhiadaa, Kabupaten Pohuwato",GORONTALO,96466.0,Indonesia,85340604002.0,,,0.4758356,121.932.086,https://maps.google.com/?cid=0x0:0x7bddd1c6a8175d6c,
mall,Toko Pakaian Wanita,NnyÂ’Niu Shop,"FX52+MW9, Palopo, Kec. Marisa, Kabupaten Pohuwato, Gorontalo 96265","Palopo, Kec. Marisa, Kabupaten Pohuwato",GORONTALO,96265.0,Indonesia,85215028422.0,,,0.4592112,1.219.527.026,https://maps.google.com/?cid=0x0:0x9f7b553d0effc0a6,
mall,Kantor Perusahaan,STARMEDIA FC,"Buntulia Bar., Kec. Duhiadaa, Kabupaten Pohuwato, Gorontalo 96266","Kec. Duhiadaa, Kabupaten Pohuwato",GORONTALO,96266.0,Indonesia,4432215567.0,,,0.4852762,121.920.728,https://maps.google.com/?cid=0x0:0x8cbe4b71f74a607a,
mall,Toko Aksesori Ponsel,ULFA CELL,"FWQG+9X2, Buntulia Tengah, Kec. Buntulia, Kabupaten Pohuwato, Gorontalo 96466","Buntulia Tengah, Kec. Buntulia, Kabupaten Pohuwato",GORONTALO,96466.0,Indonesia,81354505807.0,,,0.4883891,1.219.274.003,https://maps.google.com/?cid=0x0:0x13f67305b007b997,
mall,Toko Wallpaper,Vheko wallpaper marisa,"Pohuwato Tim., Kec. Marisa, Kabupaten Pohuwato, Gorontalo 96265","Kec. Marisa, Kabupaten Pohuwato",GORONTALO,96265.0,Indonesia,85314718592.0,,,0.452543,1.219.390.623,https://maps.google.com/?cid=0x0:0x16e4bebfded94ea7,
mall,Komplek perumahan,Dusun mopanggelo desa popaya kec dengilo,"G3FP+6MQ, Popaya, Kec. Dengilo, Kabupaten Pohuwato, Gorontalo 96265","Popaya, Kec. Dengilo, Kabupaten Pohuwato",GORONTALO,96265.0,Indonesia,,,,0.523733,122.087.906,https://maps.google.com/?cid=0x0:0xdba847afd48f0286,
mall,Toko Perlengkapan Rumah,TOKO MIRANTI,"FWCQ+P59, Jl. Sultan Amai, Marisa Utara, Kec. Marisa, Kabupaten Pohuwato, Gorontalo 96265","Jl. Sultan Amai, Marisa Utara, Kec. Marisa, Kabupaten Pohuwato",GORONTALO,96265.0,Indonesia,85242315580.0,,,0.4717872,1.219.379.775,https://maps.google.com/?cid=0x0:0x53ce1792e9281a55,
mall,Pusat Perbelanjaan,Dzalsya,"FWFX+44C, Teratai, Kec. Marisa, Kabupaten Pohuwato, Gorontalo 96265","Teratai, Kec. Marisa, Kabupaten Pohuwato",GORONTALO,96265.0,Indonesia,,,,0.4734789,1.219.475.428,https://maps.google.com/?cid=0x0:0xd4c18628b72e1b82,
mall,Toko Makanan,USAHA PEMBURUH RUPIAH,"Jl. Diponegoro, Pohuwato Tim., Kec. Marisa, Kabupaten Pohuwato, Gorontalo 96265","Pohuwato Tim., Kec. Marisa, Kabupaten Pohuwato",GORONTALO,96265.0,Indonesia,82292697794.0,,,0.45649,1.219.368.183,https://maps.google.com/?cid=0x0:0x92fcad4a15f5ec2e,
mall,Toko Kosmetik,House Cosmetic,"FW8Q+QX6, Jl. Trans-Sulawesi, Marisa Utara, Kec. Marisa, Kabupaten Pohuwato, Gorontalo 96265","Jl. Trans-Sulawesi, Marisa Utara, Kec. Marisa, Kabupaten Pohuwato",GORONTALO,96265.0,Indonesia,82293581995.0,,,0.4669238,1.219.398.834,https://maps.google.com/?cid=0x0:0xfbb6a0676b744a2b,
mall,Toko,Agen Macora Gorontalo,"FWCP+GW8, Marisa Utara, Kec. Marisa, Kabupaten Pohuwato, Gorontalo 96265","Marisa Utara, Kec. Marisa, Kabupaten Pohuwato",GORONTALO,96265.0,Indonesia,82292471060.0,,,0.4712859,1.219.373.277,https://maps.google.com/?cid=0x0:0x435ab793fa373713,
mall,Toko bahan makanan,Rizky Grosir Cabang Marisa,"Jl. Jend. Sudirman No.405, Palopo, Kec. Marisa, Kabupaten Pohuwato, Gorontalo 96265","Palopo, Kec. Marisa, Kabupaten Pohuwato",GORONTALO,96265.0,Indonesia,82240090313.0,,,0.4639276,1.219.468.769,https://maps.google.com/?cid=0x0:0x9bf2873072342556,
mall,mall,Gorontalo 96266,"Kabupaten Pohuwato, Gorontalo","Kabupaten Pohuwato, Gorontalo",GORONTALO,,Indonesia,,,,0.6235288,1.218.790.306,https://maps.google.com/?cid=0x0:0x6e323a18714b4718,
mall,Kantor Perusahaan,STARMEDIA FC,"Buntulia Bar., Kec. Duhiadaa, Kabupaten Pohuwato, Gorontalo 96266","Kec. Duhiadaa, Kabupaten Pohuwato",GORONTALO,96266.0,Indonesia,4432215567.0,,,0.4852762,121.920.728,https://maps.google.com/?cid=0x0:0x8cbe4b71f74a607a,
mall,Pusat Perbelanjaan,Citimall Gorontalo,"Jl. Sultan Botutihe No.68, Heledulaa Sel., Kec. Kota Tim., Kota Gorontalo, Gorontalo 96134","Heledulaa Sel., Kec. Kota Tim., Kota Gorontalo",GORONTALO,96134.0,Indonesia,,,,0.5377284,1.230.620.043,https://maps.google.com/?cid=0x0:0x79e25905adc0f87,
mall,Pusat Perbelanjaan,Lapak SEMORA,"FVPQ+5M3, Mootilango, Kec. Duhiadaa, Kabupaten Pohuwato, Gorontalo 96266","Mootilango, Kec. Duhiadaa, Kabupaten Pohuwato",GORONTALO,96266.0,Indonesia,82290717271.0,,,0.486251,121.888.309,https://maps.google.com/?cid=0x0:0xf0963efaeeba40b1,
mall,Pusat Perbelanjaan,Kios Yulin,"FWM7+JM9, Duhiadaa, Kec. Duhiadaa, Kabupaten Pohuwato, Gorontalo 96466","Duhiadaa, Kec. Duhiadaa, Kabupaten Pohuwato",GORONTALO,96466.0,Indonesia,,,,0.4840355,1.219.142.193,https://maps.google.com/?cid=0x0:0x144b9281dff20ccd,
mall,Minimarket,Indomaret Duhiadaa,"FWPC+WP3, Sipatana, Kec. Buntulia, Kabupaten Pohuwato, Gorontalo 96466","Sipatana, Kec. Buntulia, Kabupaten Pohuwato",GORONTALO,96466.0,Indonesia,,,,0.486441,1.219.224.294,https://maps.google.com/?cid=0x0:0x32dc78b93af2123a,
mall,Toko,Alfa store 2,"FVXR+6QW, Mekar Jaya, Kec. Duhiadaa, Kabupaten Pohuwato, Gorontalo 96266","Mekar Jaya, Kec. Duhiadaa, Kabupaten Pohuwato",GORONTALO,96266.0,Indonesia,,,,0.4981014,1.218.919.648,https://maps.google.com/?cid=0x0:0xf0dfb48b370d161b,
mall,Toko Pakaian,"Lapak NUN"" Outlet M-150""","FWGJ+8RP, Jl. Trans-Sulawesi, Buntulia Jaya, Kec. Duhiadaa, Kabupaten Pohuwato, Gorontalo 96466","Jl. Trans-Sulawesi, Buntulia Jaya, Kec. Duhiadaa, Kabupaten Pohuwato",GORONTALO,96466.0,Indonesia,85340604002.0,,,0.4758356,121.932.086,https://maps.google.com/?cid=0x0:0x7bddd1c6a8175d6c,
mall,Hidangan Laut,Mawar Sharon Propertindo,"FW8W+6W6, Palopo, Kec. Marisa, Kabupaten Pohuwato, Gorontalo 96265","Palopo, Kec. Marisa, Kabupaten Pohuwato",GORONTALO,96265.0,Indonesia,,,,0.4655399,1.219.472.769,https://maps.google.com/?cid=0x0:0x4611b55ce6bdb636,
mall,Toko bahan makanan,UD. MOPIO,"FW9P+3M5, Marisa Utara, Kec. Marisa, Kabupaten Pohuwato, Gorontalo 96265","Marisa Utara, Kec. Marisa, Kabupaten Pohuwato",GORONTALO,96265.0,Indonesia,82230407700.0,,,0.4676346,121.936.748,https://maps.google.com/?cid=0x0:0xa92fa5803d2dcb17,
mall,Pusat Perbelanjaan,UD.SEJAHTERA,"CWWQ+RGW, Pohuwato Tim., Kec. Marisa, Kabupaten Pohuwato, Gorontalo","Kabupaten Pohuwato, Gorontalo",GORONTALO,,Indonesia,,,,0.4471066,1.219.388.414,https://maps.google.com/?cid=0x0:0xc44381ddcf50add9,
mall,Toko Kosmetik,PLAZA CENTER,"FW7W+5MJ, Palopo, Kec. Marisa, Kabupaten Pohuwato, Gorontalo","Kabupaten Pohuwato, Gorontalo",GORONTALO,,Indonesia,,,,0.4629701,1.219.466.415,https://maps.google.com/?cid=0x0:0xe31983a61100e7a9,
mall,Seafood,Penampung Udang Marisa,"Jl. Windu, Pohuwato, Kec. Marisa, Kabupaten Pohuwato, Gorontalo 96266","Pohuwato, Kec. Marisa, Kabupaten Pohuwato",GORONTALO,96266.0,Indonesia,82259222335.0,,,0.4469661,1.219.389.907,https://maps.google.com/?cid=0x0:0x593e553a73040b6b,
mall,Toko bahan makanan,Surya Fc,"GV57+5C7, Dulomo, Kec. Patilanggio, Kabupaten Pohuwato, Gorontalo 96266","Dulomo, Kec. Patilanggio, Kabupaten Pohuwato",GORONTALO,96266.0,Indonesia,82291430806.0,,,0.5079246,1.218.635.314,https://maps.google.com/?cid=0x0:0x6c08de53f4b8696a,
mall,Toko Lampu,Paana led,"FWMV+36V, Unnamed Road, Botubilotahu Indah, Kec. Marisa, Kabupaten Pohuwato, Gorontalo 96265","Unnamed Road, Botubilotahu Indah, Kec. Marisa, Kabupaten Pohuwato",GORONTALO,96265.0,Indonesia,82247111727.0,,,0.4827456,1.219.430.357,https://maps.google.com/?cid=0x0:0x164a8d8607382e78,
mall,Kantor Pemerintah,Desa Duhiadaa,"FWR6+X4W, Duhiadaa, Kec. Duhiadaa, Kabupaten Pohuwato, Gorontalo","Kabupaten Pohuwato, Gorontalo",GORONTALO,,Indonesia,,,,0.4924969,121.910.331,https://maps.google.com/?cid=0x0:0x16c3dc50b1997929,
mall,Toko,Put Ollshop,"FW4P+JQ3, Jl. Diponegoro, Pohuwato Tim., Kec. Marisa, Kabupaten Pohuwato, Gorontalo 96265","Jl. Diponegoro, Pohuwato Tim., Kec. Marisa, Kabupaten Pohuwato",GORONTALO,96265.0,Indonesia,82291706214.0,,,0.4565219,1.219.369.256,https://maps.google.com/?cid=0x0:0xed69d9b9ce3992e5,
mall,Toko Aksesori Ponsel,ULFA CELL,"FWQG+9X2, Buntulia Tengah, Kec. Buntulia, Kabupaten Pohuwato, Gorontalo 96466","Buntulia Tengah, Kec. Buntulia, Kabupaten Pohuwato",GORONTALO,96466.0,Indonesia,81354505807.0,,,0.4883891,1.219.274.003,https://maps.google.com/?cid=0x0:0x13f67305b007b997,
mall,Toko Perlengkapan Rumah,UD. A3 Jaya,"FWGM+XRF, Jl. Hulude Bunggu, Botubilotahu Indah, Kec. Marisa, Kabupaten Pohuwato, Gorontalo 96466","Jl. Hulude Bunggu, Botubilotahu Indah, Kec. Marisa, Kabupaten Pohuwato",GORONTALO,96466.0,Indonesia,,,,0.4774424,1.219.345.498,https://maps.google.com/?cid=0x0:0xef8e472d66e4aa53,
mall,Pusat Perbelanjaan,NN GROUP,"CWXR+RPJ, Unnamed Road, Pohuwato Tim., Kec. Marisa, Kabupaten Pohuwato, Gorontalo","Kabupaten Pohuwato, Gorontalo",GORONTALO,,Indonesia,82396030190.0,,,0.449599,121.941.774,https://maps.google.com/?cid=0x0:0x5783d68c01528499,
mall,Toko Perlengkapan Rumah,Paviliun Marisa,"FW9Q+R24 Samping Kantor Pos ,Sebelah Kanan Arah Ke Pasar Traditional, Ruko, Marisa, Jl. Sultan Amai, Marisa Utara, Marisa, Pohuwato Regency, Gorontalo 96265","Ruko, Marisa, Jl. Sultan Amai, Marisa Utara, Marisa, Pohuwato Regency",GORONTALO,96265.0,Indonesia,85255588998.0,,,0.4690244,1.219.374.883,https://maps.google.com/?cid=0x0:0x73d402a33c3bcf36,
mall,Toko Makanan,USAHA PEMBURUH RUPIAH,"Jl. Diponegoro, Pohuwato Tim., Kec. Marisa, Kabupaten Pohuwato, Gorontalo 96265","Pohuwato Tim., Kec. Marisa, Kabupaten Pohuwato",GORONTALO,96265.0,Indonesia,82292697794.0,,,0.45649,1.219.368.183,https://maps.google.com/?cid=0x0:0x92fcad4a15f5ec2e,
mall,Toko,Toko ALAN,"FW9M+325, Buntulia Sel., Kec. Duhiadaa, Kabupaten Pohuwato, Gorontalo 96266","Buntulia Sel., Kec. Duhiadaa, Kabupaten Pohuwato",GORONTALO,96266.0,Indonesia,85211886336.0,,,0.4676377,1.219.326.109,https://maps.google.com/?cid=0x0:0xb5bce050899f5294,
mall,Toko Kosmetik,Marisa shopping,"FWCR+235, Unnamed Road, Marisa Utara, Kec. Marisa, Kabupaten Pohuwato, Gorontalo 96265","Unnamed Road, Marisa Utara, Kec. Marisa, Kabupaten Pohuwato",GORONTALO,96265.0,Indonesia,85341908371.0,,,0.4700136,1.219.402.348,https://maps.google.com/?cid=0x0:0xaa3e97f15200c767,
mall,Toko Perlengkapan Rumah,Paviliun Marisa,"FW9Q+R24 Samping Kantor Pos ,Sebelah Kanan Arah Ke Pasar Traditional, Ruko, Marisa, Jl. Sultan Amai, Marisa Utara, Marisa, Pohuwato Regency, Gorontalo 96265","Ruko, Marisa, Jl. Sultan Amai, Marisa Utara, Marisa, Pohuwato Regency",GORONTALO,96265.0,Indonesia,85255588998.0,,,0.4690244,1.219.374.883,https://maps.google.com/?cid=0x0:0x73d402a33c3bcf36,
mall,mall,Kec. Marisa,"Kabupaten Pohuwato, Gorontalo","Kabupaten Pohuwato, Gorontalo",GORONTALO,,Indonesia,,,,0.4701607,121.958.687,https://maps.google.com/?cid=0x0:0xf18aaba667559ff0,
mall,Toko Wallpaper,Vheko wallpaper marisa,"Pohuwato Tim., Kec. Marisa, Kabupaten Pohuwato, Gorontalo 96265","Kec. Marisa, Kabupaten Pohuwato",GORONTALO,96265.0,Indonesia,85314718592.0,,,0.452543,1.219.390.623,https://maps.google.com/?cid=0x0:0x16e4bebfded94ea7,
mall,Hidangan Laut,Mawar Sharon Propertindo,"FW8W+6W6, Palopo, Kec. Marisa, Kabupaten Pohuwato, Gorontalo 96265","Palopo, Kec. Marisa, Kabupaten Pohuwato",GORONTALO,96265.0,Indonesia,,,,0.4655399,1.219.472.769,https://maps.google.com/?cid=0x0:0x4611b55ce6bdb636,
mall,Toko Kosmetik,PLAZA CENTER,"FW7W+5MJ, Palopo, Kec. Marisa, Kabupaten Pohuwato, Gorontalo","Kabupaten Pohuwato, Gorontalo",GORONTALO,,Indonesia,,,,0.4629701,1.219.466.415,https://maps.google.com/?cid=0x0:0xe31983a61100e7a9,
mall,Toko Perlengkapan Rumah,TOKO MIRANTI,"FWCQ+P59, Jl. Sultan Amai, Marisa Utara, Kec. Marisa, Kabupaten Pohuwato, Gorontalo 96265","Jl. Sultan Amai, Marisa Utara, Kec. Marisa, Kabupaten Pohuwato",GORONTALO,96265.0,Indonesia,85242315580.0,,,0.4717872,1.219.379.775,https://maps.google.com/?cid=0x0:0x53ce1792e9281a55,
mall,Seafood,Penampung Udang Marisa,"Jl. Windu, Pohuwato, Kec. Marisa, Kabupaten Pohuwato, Gorontalo 96266","Pohuwato, Kec. Marisa, Kabupaten Pohuwato",GORONTALO,96266.0,Indonesia,82259222335.0,,,0.4469661,1.219.389.907,https://maps.google.com/?cid=0x0:0x593e553a73040b6b,
mall,Toko bahan makanan,Sri Wahyuni Bagu,"Unnamed Road, Botubilotahu Indah, Kec. Marisa, Kabupaten Pohuwato, Gorontalo 96265","Botubilotahu Indah, Kec. Marisa, Kabupaten Pohuwato",GORONTALO,96265.0,Indonesia,85145332437.0,,,0.4850717,1.219.434.017,https://maps.google.com/?cid=0x0:0xae62ddb196afd6c9,
mall,Toko Pakaian,Bintang Jaya Motor Marisa,"FWGP+GFV, Botubilotahu Indah, Kec. Marisa, Kabupaten Pohuwato, Gorontalo 96265","Botubilotahu Indah, Kec. Marisa, Kabupaten Pohuwato",GORONTALO,96265.0,Indonesia,82293315633.0,,,0.4763678,1.219.361.616,https://maps.google.com/?cid=0x0:0xa427107d5b9a9663,
mall,Toko bahan makanan,Rizky Grosir Cabang Marisa,"Jl. Jend. Sudirman No.405, Palopo, Kec. Marisa, Kabupaten Pohuwato, Gorontalo 96265","Palopo, Kec. Marisa, Kabupaten Pohuwato",GORONTALO,96265.0,Indonesia,82240090313.0,,,0.4639276,1.219.468.769,https://maps.google.com/?cid=0x0:0x9bf2873072342556,
mall,Toko bahan makanan,UD. MOPIO,"FW9P+3M5, Marisa Utara, Kec. Marisa, Kabupaten Pohuwato, Gorontalo 96265","Marisa Utara, Kec. Marisa, Kabupaten Pohuwato",GORONTALO,96265.0,Indonesia,82230407700.0,,,0.4676346,121.936.748,https://maps.google.com/?cid=0x0:0xa92fa5803d2dcb17,
mall,Pusat Perbelanjaan,PT. RUKUN MITRA SEJATI MARISA,"Jl. Trans-Sulawesi, Palopo, Kec. Marisa, Kabupaten Pohuwato, Gorontalo 96265","Palopo, Kec. Marisa, Kabupaten Pohuwato",GORONTALO,96265.0,Indonesia,,,,0.4694651,1.219.616.823,https://maps.google.com/?cid=0x0:0xb0ee1e7bb40e04fd,
mall,Pembangunan Perumahan,M'Yusuf Home,"POHUWATO, Marisa Utara, GORONTALO, Gorontalo 96365","Marisa Utara, GORONTALO",GORONTALO,96365.0,Indonesia,,,,0.4716188,1.219.427.384,https://maps.google.com/?cid=0x0:0xb1e3dffe69cdfd20,
mall,Toko Swalayan,Marisa Shop,"CWXV+H98, Pohuwato Tim., Kec. Marisa, Kabupaten Pohuwato, Gorontalo","Kabupaten Pohuwato, Gorontalo",GORONTALO,,Indonesia,82291787891.0,,,0.4489127,1.219.434.652,https://maps.google.com/?cid=0x0:0xbf1ef7cc8b8ddb1e,
mall,Kantor Perusahaan,PT. Awet Sarana Sukses Marisa,"FWFX+FCV, Teratai, Kec. Marisa, Kabupaten Pohuwato, Gorontalo 96265","Teratai, Kec. Marisa, Kabupaten Pohuwato",GORONTALO,96265.0,Indonesia,,,,0.4737404,121.948.552,https://maps.google.com/?cid=0x0:0xcaf62a602904fa75,
mall,Toko Aksesori Ponsel,MUTIA CELL,"FW4P+HQF, Pohuwato Tim., Kec. Marisa, Kabupaten Pohuwato, Gorontalo 96265","Pohuwato Tim., Kec. Marisa, Kabupaten Pohuwato",GORONTALO,96265.0,Indonesia,82292697794.0,,,0.456435,1.219.369.369,https://maps.google.com/?cid=0x0:0x201bdfd94f6bf8cc,
mall,Pusat Perbelanjaan,UD.SEJAHTERA,"CWWQ+RGW, Pohuwato Tim., Kec. Marisa, Kabupaten Pohuwato, Gorontalo","Kabupaten Pohuwato, Gorontalo",GORONTALO,,Indonesia,,,,0.4471066,1.219.388.414,https://maps.google.com/?cid=0x0:0xc44381ddcf50add9,
mall,Toko Kosmetik,House Cosmetic,"FW8Q+QX6, Jl. Trans-Sulawesi, Marisa Utara, Kec. Marisa, Kabupaten Pohuwato, Gorontalo 96265","Jl. Trans-Sulawesi, Marisa Utara, Kec. Marisa, Kabupaten Pohuwato",GORONTALO,96265.0,Indonesia,82293581995.0,,,0.4669238,1.219.398.834,https://maps.google.com/?cid=0x0:0xfbb6a0676b744a2b,
mall,Toko,Stockist Produk Nasa Pohuwati,"FW6W+7X3, Palopo, Kec. Marisa, Kabupaten Pohuwato, Gorontalo 96265","Palopo, Kec. Marisa, Kabupaten Pohuwato",GORONTALO,96265.0,Indonesia,85241937007.0,,,0.4606377,1.219.474.313,https://maps.google.com/?cid=0x0:0xb61e81b83ecd8bff,
mall,Toko Pakaian,Marisa Toko,"Pusat Grosir Blok A Tanah Abang Lantai 5 Los C No. 59, JL Fachrudin, No. 1, Kp. Bali, Jakarta Pusat, Kota Jakarta Pusat, Daerah Khusus Ibukota Jakarta 10250","JL Fachrudin, No. 1, Kp. Bali, Jakarta Pusat, Kota Jakarta Pusat",GORONTALO,10250.0,Indonesia,2123570001.0,,,-61.876.163,106.815.267,https://maps.google.com/?cid=0x0:0xa576a756c3a40378,
mall,Pusat Perbelanjaan,Blok M Plaza,"Jl. Bulungan No.76, RT.6/RW.6, Kramat Pela, Kec. Kby. Baru, Kota Jakarta Selatan, Daerah Khusus Ibukota Jakarta 12130","RT.6/RW.6, Kramat Pela, Kec. Kby. Baru, Kota Jakarta Selatan",GORONTALO,12130.0,Indonesia,217209288.0,,,-62.441.189,1.067.976.404,https://maps.google.com/?cid=0x0:0x3e110f817acb352d,
mall,Pusat Perbelanjaan,Toko marisa,"Jl. Kp. Rw. Sawah 4 No.1, RT.13/RW.2, Kp. Rw., Kec. Johar Baru, Kota Jakarta Pusat, Daerah Khusus Ibukota Jakarta 10550","RT.13/RW.2, Kp. Rw., Kec. Johar Baru, Kota Jakarta Pusat",GORONTALO,10550.0,Indonesia,81514186815.0,,,-61.800.744,1.068.528.213,https://maps.google.com/?cid=0x0:0x79c79ca22fb131cd,
mall,Mal outlet,Supermal Karawaci,"Jl. Boulevard Diponegoro No.105, Bencongan, Kec. Klp. Dua, Kabupaten Tangerang, Banten 15810","Bencongan, Kec. Klp. Dua, Kabupaten Tangerang",GORONTALO,15810.0,Indonesia,215466666.0,,,-62.268.116,1.066.070.233,https://maps.google.com/?cid=0x0:0xc5927a7be82e23b8,
mall,Toko,Toko Marisa,"Tengah Jl. Gelagah No.22, RT.02/RW.03, Pisangan, Kec. Ciputat Tim., Kota Tangerang Selatan, Banten 15419","RT.02/RW.03, Pisangan, Kec. Ciputat Tim., Kota Tangerang Selatan",GORONTALO,15419.0,Indonesia,,,,-6.317.451,10.677.089,https://maps.google.com/?cid=0x0:0x9eb1e158496a399c,
mall,Pusat Perbelanjaan,Mariza,"Plaza Pasar Kemis Lantai 2 Blok DC/54, JL Raya Pasar Kemis, No. 21, Pasar Kemis, Ps. Kemis, Kec. Ps. Kemis, Kabupaten Tangerang, Banten 15560","JL Raya Pasar Kemis, No. 21, Pasar Kemis, Ps. Kemis, Kec. Ps. Kemis, Kabupaten Tangerang",GORONTALO,15560.0,Indonesia,87781814008.0,,,-61.711.444,1.065.305.255,https://maps.google.com/?cid=0x0:0xfedc7c3a04a336d4,
mall,mall,Gorontalo 96466,"Kabupaten Pohuwato, Gorontalo","Kabupaten Pohuwato, Gorontalo",GORONTALO,,Indonesia,,,,0.5225929,121.918.866,https://maps.google.com/?cid=0x0:0x51b8962633bca4f,
mall,Toko Perlengkapan Rumah,Paviliun Marisa,"FW9Q+R24 Samping Kantor Pos ,Sebelah Kanan Arah Ke Pasar Traditional, Ruko, Marisa, Jl. Sultan Amai, Marisa Utara, Marisa, Pohuwato Regency, Gorontalo 96265","Ruko, Marisa, Jl. Sultan Amai, Marisa Utara, Marisa, Pohuwato Regency",GORONTALO,96265.0,Indonesia,85255588998.0,,,0.4690244,1.219.374.883,https://maps.google.com/?cid=0x0:0x73d402a33c3bcf36,
mall,Toko Kosmetik,Marisa shopping,"FWCR+235, Unnamed Road, Marisa Utara, Kec. Marisa, Kabupaten Pohuwato, Gorontalo 96265","Unnamed Road, Marisa Utara, Kec. Marisa, Kabupaten Pohuwato",GORONTALO,96265.0,Indonesia,85341908371.0,,,0.4700136,1.219.402.348,https://maps.google.com/?cid=0x0:0xaa3e97f15200c767,
mall,Toko Perlengkapan Rumah,TOKO MIRANTI,"FWCQ+P59, Jl. Sultan Amai, Marisa Utara, Kec. Marisa, Kabupaten Pohuwato, Gorontalo 96265","Jl. Sultan Amai, Marisa Utara, Kec. Marisa, Kabupaten Pohuwato",GORONTALO,96265.0,Indonesia,85242315580.0,,,0.4717872,1.219.379.775,https://maps.google.com/?cid=0x0:0x53ce1792e9281a55,
mall,Hidangan Laut,Mawar Sharon Propertindo,"FW8W+6W6, Palopo, Kec. Marisa, Kabupaten Pohuwato, Gorontalo 96265","Palopo, Kec. Marisa, Kabupaten Pohuwato",GORONTALO,96265.0,Indonesia,,,,0.4655399,1.219.472.769,https://maps.google.com/?cid=0x0:0x4611b55ce6bdb636,
mall,Toko bahan makanan,Sri Wahyuni Bagu,"Unnamed Road, Botubilotahu Indah, Kec. Marisa, Kabupaten Pohuwato, Gorontalo 96265","Botubilotahu Indah, Kec. Marisa, Kabupaten Pohuwato",GORONTALO,96265.0,Indonesia,85145332437.0,,,0.4850717,1.219.434.017,https://maps.google.com/?cid=0x0:0xae62ddb196afd6c9,
mall,Toko bahan makanan,Rizky Grosir Cabang Marisa,"Jl. Jend. Sudirman No.405, Palopo, Kec. Marisa, Kabupaten Pohuwato, Gorontalo 96265","Palopo, Kec. Marisa, Kabupaten Pohuwato",GORONTALO,96265.0,Indonesia,82240090313.0,,,0.4639276,1.219.468.769,https://maps.google.com/?cid=0x0:0x9bf2873072342556,
mall,Toko bahan makanan,UD. MOPIO,"FW9P+3M5, Marisa Utara, Kec. Marisa, Kabupaten Pohuwato, Gorontalo 96265","Marisa Utara, Kec. Marisa, Kabupaten Pohuwato",GORONTALO,96265.0,Indonesia,82230407700.0,,,0.4676346,121.936.748,https://maps.google.com/?cid=0x0:0xa92fa5803d2dcb17,
mall,Pusat Perbelanjaan,UD.SEJAHTERA,"CWWQ+RGW, Pohuwato Tim., Kec. Marisa, Kabupaten Pohuwato, Gorontalo","Kabupaten Pohuwato, Gorontalo",GORONTALO,,Indonesia,,,,0.4471066,1.219.388.414,https://maps.google.com/?cid=0x0:0xc44381ddcf50add9,
mall,Pembangunan Perumahan,M'Yusuf Home,"POHUWATO, Marisa Utara, GORONTALO, Gorontalo 96365","Marisa Utara, GORONTALO",GORONTALO,96365.0,Indonesia,,,,0.4716188,1.219.427.384,https://maps.google.com/?cid=0x0:0xb1e3dffe69cdfd20,
mall,Seafood,lapak wong jombang,"Botubilotahu Indah, Kec. Marisa, Kabupaten Pohuwato, Gorontalo 96265","Kec. Marisa, Kabupaten Pohuwato",GORONTALO,96265.0,Indonesia,81231083030.0,,,0.4714804,1.219.378.406,https://maps.google.com/?cid=0x0:0x631690f23f6880f4,
mall,Toko,Put Ollshop,"FW4P+JQ3, Jl. Diponegoro, Pohuwato Tim., Kec. Marisa, Kabupaten Pohuwato, Gorontalo 96265","Jl. Diponegoro, Pohuwato Tim., Kec. Marisa, Kabupaten Pohuwato",GORONTALO,96265.0,Indonesia,82291706214.0,,,0.4565219,1.219.369.256,https://maps.google.com/?cid=0x0:0xed69d9b9ce3992e5,
mall,Toko Wallpaper,Vheko wallpaper marisa,"Pohuwato Tim., Kec. Marisa, Kabupaten Pohuwato, Gorontalo 96265","Kec. Marisa, Kabupaten Pohuwato",GORONTALO,96265.0,Indonesia,85314718592.0,,,0.452543,1.219.390.623,https://maps.google.com/?cid=0x0:0x16e4bebfded94ea7,
mall,Toko Kosmetik,House Cosmetic,"FW8Q+QX6, Jl. Trans-Sulawesi, Marisa Utara, Kec. Marisa, Kabupaten Pohuwato, Gorontalo 96265","Jl. Trans-Sulawesi, Marisa Utara, Kec. Marisa, Kabupaten Pohuwato",GORONTALO,96265.0,Indonesia,82293581995.0,,,0.4669238,1.219.398.834,https://maps.google.com/?cid=0x0:0xfbb6a0676b744a2b,
mall,Pusat Perbelanjaan,Citimall Gorontalo,"Jl. Sultan Botutihe No.68, Heledulaa Sel., Kec. Kota Tim., Kota Gorontalo, Gorontalo 96134","Heledulaa Sel., Kec. Kota Tim., Kota Gorontalo",GORONTALO,96134.0,Indonesia,,,,0.5377284,1.230.620.043,https://maps.google.com/?cid=0x0:0x79e25905adc0f87,
mall,Pusat Perbelanjaan,NN GROUP,"CWXR+RPJ, Unnamed Road, Pohuwato Tim., Kec. Marisa, Kabupaten Pohuwato, Gorontalo","Kabupaten Pohuwato, Gorontalo",GORONTALO,,Indonesia,82396030190.0,,,0.449599,121.941.774,https://maps.google.com/?cid=0x0:0x5783d68c01528499,
mall,Seafood,Penampung Udang Marisa,"Jl. Windu, Pohuwato, Kec. Marisa, Kabupaten Pohuwato, Gorontalo 96266","Pohuwato, Kec. Marisa, Kabupaten Pohuwato",GORONTALO,96266.0,Indonesia,82259222335.0,,,0.4469661,1.219.389.907,https://maps.google.com/?cid=0x0:0x593e553a73040b6b,
mall,Kantor Perusahaan,PT. Awet Sarana Sukses Marisa,"FWFX+FCV, Teratai, Kec. Marisa, Kabupaten Pohuwato, Gorontalo 96265","Teratai, Kec. Marisa, Kabupaten Pohuwato",GORONTALO,96265.0,Indonesia,,,,0.4737404,121.948.552,https://maps.google.com/?cid=0x0:0xcaf62a602904fa75,
mall,Pusat Perbelanjaan,UD. RAYHAN,"FWHR+3PW, Jl. Sultan Amai, Marisa Utara, Kec. Marisa, Kabupaten Pohuwato, Gorontalo 96265","Jl. Sultan Amai, Marisa Utara, Kec. Marisa, Kabupaten Pohuwato",GORONTALO,96265.0,Indonesia,81356391200.0,,,0.4777414,1.219.418.226,https://maps.google.com/?cid=0x0:0xb30958b8093ece8d,
mall,Pembangunan Perumahan,ING market kos kosan,"FWCW+Q2J, Unnamed Road, Teratai, Kec. Marisa, Kabupaten Pohuwato, Gorontalo 96265","Unnamed Road, Teratai, Kec. Marisa, Kabupaten Pohuwato",GORONTALO,96265.0,Indonesia,82189259297.0,,,0.4719588,1.219.450.125,https://maps.google.com/?cid=0x0:0x496e7aea3e396242,
mall,Toko bahan makanan,Marisa Mart M2,"FW9M+23F, Jl. Trans-Sulawesi, Marisa Utara, Kec. Marisa, Kabupaten Pohuwato, Gorontalo 96266","Jl. Trans-Sulawesi, Marisa Utara, Kec. Marisa, Kabupaten Pohuwato",GORONTALO,96266.0,Indonesia,,,,0.467574,1.219.326.754,https://maps.google.com/?cid=0x0:0x9dd1696da0282af3,
mall,Toko Pakaian,Bintang Jaya Motor Marisa,"FWGP+GFV, Botubilotahu Indah, Kec. Marisa, Kabupaten Pohuwato, Gorontalo 96265","Botubilotahu Indah, Kec. Marisa, Kabupaten Pohuwato",GORONTALO,96265.0,Indonesia,82293315633.0,,,0.4763678,1.219.361.616,https://maps.google.com/?cid=0x0:0xa427107d5b9a9663,
mall,Toko Lampu,Paana led,"FWMV+36V, Unnamed Road, Botubilotahu Indah, Kec. Marisa, Kabupaten Pohuwato, Gorontalo 96265","Unnamed Road, Botubilotahu Indah, Kec. Marisa, Kabupaten Pohuwato",GORONTALO,96265.0,Indonesia,82247111727.0,,,0.4827456,1.219.430.357,https://maps.google.com/?cid=0x0:0x164a8d8607382e78,
mall,Toko Elektronik,"Mr, Service HP","FWVM+J4C, Buntulia Utara, Kec. Marisa, Kabupaten Pohuwato, Gorontalo 96466","Buntulia Utara, Kec. Marisa, Kabupaten Pohuwato",GORONTALO,96466.0,Indonesia,82237732851.0,,,0.4940747,1.219.327.645,https://maps.google.com/?cid=0x0:0xc073039e45e771cb,
mall,Kantor Perusahaan,STARMEDIA FC,"Buntulia Bar., Kec. Duhiadaa, Kabupaten Pohuwato, Gorontalo 96266","Kec. Duhiadaa, Kabupaten Pohuwato",GORONTALO,96266.0,Indonesia,4432215567.0,,,0.4852762,121.920.728,https://maps.google.com/?cid=0x0:0x8cbe4b71f74a607a,
mall,Toko Perlengkapan Rumah,UD. A3 Jaya,"FWGM+XRF, Jl. Hulude Bunggu, Botubilotahu Indah, Kec. Marisa, Kabupaten Pohuwato, Gorontalo 96466","Jl. Hulude Bunggu, Botubilotahu Indah, Kec. Marisa, Kabupaten Pohuwato",GORONTALO,96466.0,Indonesia,,,,0.4774424,1.219.345.498,https://maps.google.com/?cid=0x0:0xef8e472d66e4aa53,
mall,Toko Pakaian,Marisa Toko,"Pusat Grosir Blok A Tanah Abang Lantai 5 Los C No. 59, JL Fachrudin, No. 1, Kp. Bali, Jakarta Pusat, Kota Jakarta Pusat, Daerah Khusus Ibukota Jakarta 10250","JL Fachrudin, No. 1, Kp. Bali, Jakarta Pusat, Kota Jakarta Pusat",GORONTALO,10250.0,Indonesia,2123570001.0,,,-61.876.163,106.815.267,https://maps.google.com/?cid=0x0:0xa576a756c3a40378,
mall,Pusat Perbelanjaan,Mall Kota Kasablanka,"Jl. Raya Casablanca No.Kav 88, Menteng Dalam, Kec. Tebet, Kota Jakarta Selatan, Daerah Khusus Ibukota Jakarta 12870","Menteng Dalam, Kec. Tebet, Kota Jakarta Selatan",GORONTALO,12870.0,Indonesia,2129465000.0,,,-62.240.353,1.068.425.979,https://maps.google.com/?cid=0x0:0xaf54cb631563acce,
mall,Pusat Perbelanjaan,Mariza,"Plaza Pasar Kemis Lantai 2 Blok DC/54, JL Raya Pasar Kemis, No. 21, Pasar Kemis, Ps. Kemis, Kec. Ps. Kemis, Kabupaten Tangerang, Banten 15560","JL Raya Pasar Kemis, No. 21, Pasar Kemis, Ps. Kemis, Kec. Ps. Kemis, Kabupaten Tangerang",GORONTALO,15560.0,Indonesia,87781814008.0,,,-61.711.444,1.065.305.255,https://maps.google.com/?cid=0x0:0xfedc7c3a04a336d4,
mall,mall,Kec. Paguat,"Kabupaten Pohuwato, Gorontalo","Kabupaten Pohuwato, Gorontalo",GORONTALO,,Indonesia,,,,0.4910265,122.073.703,https://maps.google.com/?cid=0x0:0x9c57f083f00632a6,
mall,Pusat Perbelanjaan,Pasar Paguat,"F3MG+9F9, Pentadu, Kec. Paguat, Kabupaten Pohuwato, Gorontalo 96265","Pentadu, Kec. Paguat, Kabupaten Pohuwato",GORONTALO,96265.0,Indonesia,,,,0.4834115,1.220.762.355,https://maps.google.com/?cid=0x0:0xd4092c1651f7d956,
mall,Pasar,Pasar Selasa,"F3MG+39G, Unnamed Road, Pentadu, Kec. Paguat, Kabupaten Pohuwato, Gorontalo 96265","Unnamed Road, Pentadu, Kec. Paguat, Kabupaten Pohuwato",GORONTALO,96265.0,Indonesia,,,,0.4826887,1.220.759.391,https://maps.google.com/?cid=0x0:0x9e66dbf1a5855f34,
mall,Agen Gas Elpiji,Toko Irawan,"G32G+HCH, Kemiri, Kec. Paguat, Kabupaten Pohuwato, Gorontalo 96265","Kemiri, Kec. Paguat, Kabupaten Pohuwato",GORONTALO,96265.0,Indonesia,85298763651.0,,,0.5014286,1.220.761.082,https://maps.google.com/?cid=0x0:0xc9ce0304735ced94,
mall,Toko Pakaian Wanita,Nalna olshop,"Popaya, Kec. Dengilo, Kabupaten Pohuwato, Gorontalo 96265","Kec. Dengilo, Kabupaten Pohuwato",GORONTALO,96265.0,Indonesia,85298006686.0,,,0.5216173,1.220.849.156,https://maps.google.com/?cid=0x0:0xd241e369cbf0e153,
mall,Pusat Hiburan,SCORPION BILLIARD,"F3RF+CCJ, Siduan, Kec. Paguat, Kabupaten Pohuwato, Gorontalo 96265","Siduan, Kec. Paguat, Kabupaten Pohuwato",GORONTALO,96265.0,Indonesia,,,,0.4910897,1.220.735.211,https://maps.google.com/?cid=0x0:0x96abe6f0ce308b78,
mall,Pusat Perbelanjaan,Citimall Gorontalo,"Jl. Sultan Botutihe No.68, Heledulaa Sel., Kec. Kota Tim., Kota Gorontalo, Gorontalo 96134","Heledulaa Sel., Kec. Kota Tim., Kota Gorontalo",GORONTALO,96134.0,Indonesia,,,,0.5377284,1.230.620.043,https://maps.google.com/?cid=0x0:0x79e25905adc0f87,
mall,Toko,Put Ollshop,"FW4P+JQ3, Jl. Diponegoro, Pohuwato Tim., Kec. Marisa, Kabupaten Pohuwato, Gorontalo 96265","Jl. Diponegoro, Pohuwato Tim., Kec. Marisa, Kabupaten Pohuwato",GORONTALO,96265.0,Indonesia,82291706214.0,,,0.4565219,1.219.369.256,https://maps.google.com/?cid=0x0:0xed69d9b9ce3992e5,
mall,Fasilitas Pengolahan Air,Depot Air Minum Isi Ulang Win's Water,"G33H+RQX, dusun kemiri, Soginti, Kec. Paguat, Kabupaten Pohuwato, Gorontalo 96265","dusun kemiri, Soginti, Kec. Paguat, Kabupaten Pohuwato",GORONTALO,96265.0,Indonesia,85242867179.0,,,0.5046247,1.220.794.835,https://maps.google.com/?cid=0x0:0x164529045f583f59,
mall,mall,Pos anugerah utama paguat,"F3V9+93F, Siduan, Kec. Paguat, Kabupaten Pohuwato, Gorontalo 96265","Siduan, Kec. Paguat, Kabupaten Pohuwato",GORONTALO,96265.0,Indonesia,,,,0.4934336,1.220.676.836,https://maps.google.com/?cid=0x0:0x70bb122e948eaafc,
mall,mall,@Deys ahmad,"G329+6CV, Sipayo, Kec. Paguat, Kabupaten Pohuwato, Gorontalo 96265","Sipayo, Kec. Paguat, Kabupaten Pohuwato",GORONTALO,96265.0,Indonesia,,,,0.5006098,1.220.685.485,https://maps.google.com/?cid=0x0:0xf96e53e1400584e9,
mall,mall,Fhat Green Butik,"Jl. Trans-Sulawesi, Buhu Jaya, Kec. Paguat, Kabupaten Pohuwato, Gorontalo 96265","Buhu Jaya, Kec. Paguat, Kabupaten Pohuwato",GORONTALO,96265.0,Indonesia,,,,0.4849483,1.220.590.878,https://maps.google.com/?cid=0x0:0x9752d2ee6ddeab79,
mall,mall,Rumah Sauwali,"F3MG+59W, Pentadu, Kec. Paguat, Kabupaten Pohuwato, Gorontalo 96265","Pentadu, Kec. Paguat, Kabupaten Pohuwato",GORONTALO,96265.0,Indonesia,,,,0.4829808,122.075.945,https://maps.google.com/?cid=0x0:0x215695f26d1df278,
mall,Minimarket,INDOMARET TAMAN PAGUAT,"F3QF+3P5, Pentadu, Kec. Paguat, Kabupaten Pohuwato, Gorontalo 96265","Pentadu, Kec. Paguat, Kabupaten Pohuwato",GORONTALO,96265.0,Indonesia,,,,0.4877115,1.220.744.204,https://maps.google.com/?cid=0x0:0x54cb57e1cfc1512c,
mall,mall,Gorontalo 96266,"Kabupaten Pohuwato, Gorontalo","Kabupaten Pohuwato, Gorontalo",GORONTALO,,Indonesia,,,,0.6235288,1.218.790.306,https://maps.google.com/?cid=0x0:0x6e323a18714b4718,
mall,Toko bahan makanan,Surya Fc,"GV57+5C7, Dulomo, Kec. Patilanggio, Kabupaten Pohuwato, Gorontalo 96266","Dulomo, Kec. Patilanggio, Kabupaten Pohuwato",GORONTALO,96266.0,Indonesia,82291430806.0,,,0.5079246,1.218.635.314,https://maps.google.com/?cid=0x0:0x6c08de53f4b8696a,
mall,Toko umum,Metro Bangunan  Vape stor,"GV37+FR9, Unnamed Road, Dulomo, Kec. Patilanggio, Kabupaten Pohuwato, Gorontalo 96266","Unnamed Road, Dulomo, Kec. Patilanggio, Kabupaten Pohuwato",GORONTALO,96266.0,Indonesia,82189016969.0,,,0.5036567,1.218.646,https://maps.google.com/?cid=0x0:0x1d409e11972eb60f,
mall,mall,EP STORE taluditi,"JVV6+P5P, Randangan - Desa Taluditi, Kalimas, Kec. Taluditi, Kabupaten Pohuwato, Gorontalo 96266","Randangan - Desa Taluditi, Kalimas, Kec. Taluditi, Kabupaten Pohuwato",GORONTALO,96266.0,Indonesia,,,,0.6443332,1.218.604.609,https://maps.google.com/?cid=0x0:0xab37f1bff9c4267e,
mall,Hidangan Laut,Mawar Sharon Propertindo,"FW8W+6W6, Palopo, Kec. Marisa, Kabupaten Pohuwato, Gorontalo 96265","Palopo, Kec. Marisa, Kabupaten Pohuwato",GORONTALO,96265.0,Indonesia,,,,0.4655399,1.219.472.769,https://maps.google.com/?cid=0x0:0x4611b55ce6bdb636,
mall,Toko,Put Ollshop,"FW4P+JQ3, Jl. Diponegoro, Pohuwato Tim., Kec. Marisa, Kabupaten Pohuwato, Gorontalo 96265","Jl. Diponegoro, Pohuwato Tim., Kec. Marisa, Kabupaten Pohuwato",GORONTALO,96265.0,Indonesia,82291706214.0,,,0.4565219,1.219.369.256,https://maps.google.com/?cid=0x0:0xed69d9b9ce3992e5,
mall,Kantor Perusahaan,STARMEDIA FC,"Buntulia Bar., Kec. Duhiadaa, Kabupaten Pohuwato, Gorontalo 96266","Kec. Duhiadaa, Kabupaten Pohuwato",GORONTALO,96266.0,Indonesia,4432215567.0,,,0.4852762,121.920.728,https://maps.google.com/?cid=0x0:0x8cbe4b71f74a607a,
mall,Toko Lampu,Paana led,"FWMV+36V, Unnamed Road, Botubilotahu Indah, Kec. Marisa, Kabupaten Pohuwato, Gorontalo 96265","Unnamed Road, Botubilotahu Indah, Kec. Marisa, Kabupaten Pohuwato",GORONTALO,96265.0,Indonesia,82247111727.0,,,0.4827456,1.219.430.357,https://maps.google.com/?cid=0x0:0x164a8d8607382e78,
mall,Toko Perlengkapan Rumah,Paviliun Marisa,"FW9Q+R24 Samping Kantor Pos ,Sebelah Kanan Arah Ke Pasar Traditional, Ruko, Marisa, Jl. Sultan Amai, Marisa Utara, Marisa, Pohuwato Regency, Gorontalo 96265","Ruko, Marisa, Jl. Sultan Amai, Marisa Utara, Marisa, Pohuwato Regency",GORONTALO,96265.0,Indonesia,85255588998.0,,,0.4690244,1.219.374.883,https://maps.google.com/?cid=0x0:0x73d402a33c3bcf36,
mall,Minimarket,Indomaret Sungai Taluditi,"JRM7+F6F, Panca Karsa II, Kec. Taluditi, Kabupaten Pohuwato, Gorontalo 96469","Panca Karsa II, Kec. Taluditi, Kabupaten Pohuwato",GORONTALO,96469.0,Indonesia,,,,0.6336021,1.218.139.041,https://maps.google.com/?cid=0x0:0xd3b2d98797337e1e,
mall,Toko bahan makanan,UD. MOPIO,"FW9P+3M5, Marisa Utara, Kec. Marisa, Kabupaten Pohuwato, Gorontalo 96265","Marisa Utara, Kec. Marisa, Kabupaten Pohuwato",GORONTALO,96265.0,Indonesia,82230407700.0,,,0.4676346,121.936.748,https://maps.google.com/?cid=0x0:0xa92fa5803d2dcb17,
mall,Pusat Perbelanjaan,Citimall Gorontalo,"Jl. Sultan Botutihe No.68, Heledulaa Sel., Kec. Kota Tim., Kota Gorontalo, Gorontalo 96134","Heledulaa Sel., Kec. Kota Tim., Kota Gorontalo",GORONTALO,96134.0,Indonesia,,,,0.5377284,1.230.620.043,https://maps.google.com/?cid=0x0:0x79e25905adc0f87,
mall,Toko,Stockist Produk Nasa Pohuwati,"FW6W+7X3, Palopo, Kec. Marisa, Kabupaten Pohuwato, Gorontalo 96265","Palopo, Kec. Marisa, Kabupaten Pohuwato",GORONTALO,96265.0,Indonesia,85241937007.0,,,0.4606377,1.219.474.313,https://maps.google.com/?cid=0x0:0xb61e81b83ecd8bff,
mall,Toko Kosmetik,PLAZA CENTER,"FW7W+5MJ, Palopo, Kec. Marisa, Kabupaten Pohuwato, Gorontalo","Kabupaten Pohuwato, Gorontalo",GORONTALO,,Indonesia,,,,0.4629701,1.219.466.415,https://maps.google.com/?cid=0x0:0xe31983a61100e7a9,
mall,Pusat Perbelanjaan,Toko Tia Randangan,"GRRG+MXF, Ayula, Kec. Randangan, Kabupaten Pohuwato, Gorontalo 96266","Ayula, Kec. Randangan, Kabupaten Pohuwato",GORONTALO,96266.0,Indonesia,,,,0.5416927,1.218.274.089,https://maps.google.com/?cid=0x0:0x59f8906d4dd1ec15,
mall,Pusat Perbelanjaan,Pasar Randangan,"GRJ7+FH8, Motolohu, Kec. Randangan, Kabupaten Pohuwato, Gorontalo 96469","Motolohu, Kec. Randangan, Kabupaten Pohuwato",GORONTALO,96469.0,Indonesia,,,,0.5311536,1.218.139.664,https://maps.google.com/?cid=0x0:0x5f3de44bf283ac7f,
mall,Pusat Perbelanjaan,NN GROUP,"CWXR+RPJ, Unnamed Road, Pohuwato Tim., Kec. Marisa, Kabupaten Pohuwato, Gorontalo","Kabupaten Pohuwato, Gorontalo",GORONTALO,,Indonesia,82396030190.0,,,0.449599,121.941.774,https://maps.google.com/?cid=0x0:0x5783d68c01528499,
mall,Toko bahan makanan,Sri Wahyuni Bagu,"Unnamed Road, Botubilotahu Indah, Kec. Marisa, Kabupaten Pohuwato, Gorontalo 96265","Botubilotahu Indah, Kec. Marisa, Kabupaten Pohuwato",GORONTALO,96265.0,Indonesia,85145332437.0,,,0.4850717,1.219.434.017,https://maps.google.com/?cid=0x0:0xae62ddb196afd6c9,
mall,Pusat Perbelanjaan,Kios Yulin,"FWM7+JM9, Duhiadaa, Kec. Duhiadaa, Kabupaten Pohuwato, Gorontalo 96466","Duhiadaa, Kec. Duhiadaa, Kabupaten Pohuwato",GORONTALO,96466.0,Indonesia,,,,0.4840355,1.219.142.193,https://maps.google.com/?cid=0x0:0x144b9281dff20ccd,
mall,Toko Pakaian,"Lapak NUN"" Outlet M-150""","FWGJ+8RP, Jl. Trans-Sulawesi, Buntulia Jaya, Kec. Duhiadaa, Kabupaten Pohuwato, Gorontalo 96466","Jl. Trans-Sulawesi, Buntulia Jaya, Kec. Duhiadaa, Kabupaten Pohuwato",GORONTALO,96466.0,Indonesia,85340604002.0,,,0.4758356,121.932.086,https://maps.google.com/?cid=0x0:0x7bddd1c6a8175d6c,
mall,Toko Makanan,USAHA PEMBURUH RUPIAH,"Jl. Diponegoro, Pohuwato Tim., Kec. Marisa, Kabupaten Pohuwato, Gorontalo 96265","Pohuwato Tim., Kec. Marisa, Kabupaten Pohuwato",GORONTALO,96265.0,Indonesia,82292697794.0,,,0.45649,1.219.368.183,https://maps.google.com/?cid=0x0:0x92fcad4a15f5ec2e,
mall,Pusat Perbelanjaan,TOKO DIFA RANDANGAN,"GRRG+MXF, Ayula, Kec. Randangan, Kabupaten Pohuwato, Gorontalo 96266","Ayula, Kec. Randangan, Kabupaten Pohuwato",GORONTALO,96266.0,Indonesia,82395537072.0,,,0.5413372,1.218.272.977,https://maps.google.com/?cid=0x0:0x7ab304c79199b06e,
mall,mall,Gorontalo 96467,"Kabupaten Pohuwato, Gorontalo","Kabupaten Pohuwato, Gorontalo",GORONTALO,,Indonesia,,,,0.7082941,1.213.541.631,https://maps.google.com/?cid=0x0:0x6a37da13e8b9d9f7,
mall,Toko,PASAR POPAYATO,"GF6F+MCH, Bukit Tingki, Popayato, Kabupaten Pohuwato, Gorontalo 96467","Bukit Tingki, Popayato, Kabupaten Pohuwato",GORONTALO,96467.0,Indonesia,,,,0.5116902,1.214.736.195,https://maps.google.com/?cid=0x0:0x17694b1dd8f6a072,
mall,Toko,Toko aneka jaya popayato,"GF46+3RP, Jl. Trans-Sulawesi, Telaga Biru, Popayato, Kabupaten Pohuwato, Gorontalo 96467","Jl. Trans-Sulawesi, Telaga Biru, Popayato, Kabupaten Pohuwato",GORONTALO,96467.0,Indonesia,81315485403.0,,,0.5052221,1.214.620.642,https://maps.google.com/?cid=0x0:0x47aa4ec0d1cadb1e,
mall,Minimarket,ALFAMART DUDEWULO POPAYATO,"FCV9+836, Dudewulo, Kec. Popayato Bar., Kabupaten Pohuwato, Gorontalo 96467","Dudewulo, Kec. Popayato Bar., Kabupaten Pohuwato",GORONTALO,96467.0,Indonesia,,,,0.4933713,1.214.176.473,https://maps.google.com/?cid=0x0:0xf20192853452562e,
mall,Toko Bahan Bangunan,MEGA DEPO BANGUNAN,"FCV7+84C, Bar, Dudewulo, Kec. Popayato Bar., Kabupaten Pohuwato, Gorontalo 96467","Bar, Dudewulo, Kec. Popayato Bar., Kabupaten Pohuwato",GORONTALO,96467.0,Indonesia,,,,0.4933219,121.412.767,https://maps.google.com/?cid=0x0:0xae13135ae7d1637,
mall,Pusat Perbelanjaan,Toko,"FCQV+WFP, Unnamed Road, Torosiaje Jaya, Popayato, Kabupaten Pohuwato, Gorontalo","Kabupaten Pohuwato, Gorontalo",GORONTALO,,Indonesia,,,,0.4898373,1.214.437.078,https://maps.google.com/?cid=0x0:0xb0a0e1dbee5e5c98,
mall,Toko,Lapak ilyen 2 popayato,"GF8J+JWV, Jl. Trans-Sulawesi, Maleo, Kec. Popayato Tim., Kabupaten Pohuwato, Gorontalo","Kabupaten Pohuwato, Gorontalo",GORONTALO,,Indonesia,,,,0.5166032,1.214.823.108,https://maps.google.com/?cid=0x0:0xd2867da08bf79d08,
mall,Toko Pakaian,UD Family Jaya GTO,"Jl. Trans-Sulawesi, Dudewulo, Kec. Popayato Bar., Kabupaten Pohuwato, Gorontalo 96467","Dudewulo, Kec. Popayato Bar., Kabupaten Pohuwato",GORONTALO,96467.0,Indonesia,85399939969.0,,,0.492462,121.415.925,https://maps.google.com/?cid=0x0:0xe7c9dd1db7bca50e,
mall,Toko Ponsel,UD. Putricom,"GF9P+QCC, Maleo, Kec. Popayato Tim., Kabupaten Pohuwato, Gorontalo 96467","Maleo, Kec. Popayato Tim., Kabupaten Pohuwato",GORONTALO,96467.0,Indonesia,,,,0.5194364,1.214.860.026,https://maps.google.com/?cid=0x0:0xd28b466d8d1a3a,
mall,Toko Pakaian,Toko Aksesoris Dan Mainan Anak,"FCV8+9RV, Dudewulo, Kec. Popayato Bar., Kabupaten Pohuwato, Gorontalo 96467","Dudewulo, Kec. Popayato Bar., Kabupaten Pohuwato",GORONTALO,96467.0,Indonesia,85145076679.0,,,0.4934912,1.214.170.452,https://maps.google.com/?cid=0x0:0xd9d514291796607f,
mall,Pusat Perbelanjaan,Toko Indra,"F9VC+V98, Jl. Trans-Sulawesi, Persatuan, Kec. Popayato Bar., Kabupaten Pohuwato, Gorontalo 96467","Jl. Trans-Sulawesi, Persatuan, Kec. Popayato Bar., Kabupaten Pohuwato",GORONTALO,96467.0,Indonesia,82292139786.0,,,0.4946599,1.213.709.567,https://maps.google.com/?cid=0x0:0xbf1a4a7dab218e79,
mall,Pusat Perbelanjaan,TOKO DINAN DION,"F9R8+HG7 Depan Kantor, Jl. Trans-Sulawesi, Persatuan, Kec. Popayato Bar., Kabupaten Pohuwato, Gorontalo 96467","Jl. Trans-Sulawesi, Persatuan, Kec. Popayato Bar., Kabupaten Pohuwato",GORONTALO,96467.0,Indonesia,,,,0.4914087,1.213.663.025,https://maps.google.com/?cid=0x0:0xb67bc6673703e035,
mall,mall,Yunishop,"FCJR+QJ9, Torosiaje Jaya, Popayato, Kabupaten Pohuwato, Gorontalo","Kabupaten Pohuwato, Gorontalo",GORONTALO,,Indonesia,82315891592.0,,,0.4819171,1.214.416.075,https://maps.google.com/?cid=0x0:0xeb0f14964ca49904,
mall,Pusat Perbelanjaan,Lapak Ananda,"F9VC+RG7, Persatuan, Kec. Popayato Bar., Kabupaten Pohuwato, Gorontalo 96467","Persatuan, Kec. Popayato Bar., Kabupaten Pohuwato",GORONTALO,96467.0,Indonesia,,,,0.494533,121.371.338,https://maps.google.com/?cid=0x0:0x516e7e6ddc020d59,
mall,Pusat Perbelanjaan,Toko Zahra Zahira,"GF25+XHF, Telaga Biru, Popayato, Kabupaten Pohuwato, Gorontalo 96467","Telaga Biru, Popayato, Kabupaten Pohuwato",GORONTALO,96467.0,Indonesia,81310812117.0,,,0.502449,1.214.589.064,https://maps.google.com/?cid=0x0:0x9d132e07fbaa7f5,
mall,mall,Toko Intan,"GFFR+F28, Jl. Trans-Sulawesi, Maleo, Kec. Popayato Tim., Kabupaten Pohuwato, Gorontalo 96467","Jl. Trans-Sulawesi, Maleo, Kec. Popayato Tim., Kabupaten Pohuwato",GORONTALO,96467.0,Indonesia,,,,0.5238801,1.214.899.576,https://maps.google.com/?cid=0x0:0x95142f2ee7bb0eb1,
mall,mall,Popayato,"Kabupaten Pohuwato, Gorontalo","Kabupaten Pohuwato, Gorontalo",GORONTALO,,Indonesia,,,,0.6508515,12.143.419,https://maps.google.com/?cid=0x0:0xd03550efb58cf562,
mall,Toko,PASAR POPAYATO,"GF6F+MCH, Bukit Tingki, Popayato, Kabupaten Pohuwato, Gorontalo 96467","Bukit Tingki, Popayato, Kabupaten Pohuwato",GORONTALO,96467.0,Indonesia,,,,0.5116902,1.214.736.195,https://maps.google.com/?cid=0x0:0x17694b1dd8f6a072,
mall,mall,Gorontalo 96467,"Kabupaten Pohuwato, Gorontalo","Kabupaten Pohuwato, Gorontalo",GORONTALO,,Indonesia,,,,0.7082941,1.213.541.631,https://maps.google.com/?cid=0x0:0x6a37da13e8b9d9f7,
mall,Toko Pakaian,UD Family Jaya GTO,"Jl. Trans-Sulawesi, Dudewulo, Kec. Popayato Bar., Kabupaten Pohuwato, Gorontalo 96467","Dudewulo, Kec. Popayato Bar., Kabupaten Pohuwato",GORONTALO,96467.0,Indonesia,85399939969.0,,,0.492462,121.415.925,https://maps.google.com/?cid=0x0:0xe7c9dd1db7bca50e,
mall,Toko Bahan Bangunan,MEGA DEPO BANGUNAN,"FCV7+84C, Bar, Dudewulo, Kec. Popayato Bar., Kabupaten Pohuwato, Gorontalo 96467","Bar, Dudewulo, Kec. Popayato Bar., Kabupaten Pohuwato",GORONTALO,96467.0,Indonesia,,,,0.4933219,121.412.767,https://maps.google.com/?cid=0x0:0xae13135ae7d1637,
mall,Minimarket,ALFAMART DUDEWULO POPAYATO,"FCV9+836, Dudewulo, Kec. Popayato Bar., Kabupaten Pohuwato, Gorontalo 96467","Dudewulo, Kec. Popayato Bar., Kabupaten Pohuwato",GORONTALO,96467.0,Indonesia,,,,0.4933713,1.214.176.473,https://maps.google.com/?cid=0x0:0xf20192853452562e,
mall,Pusat Perbelanjaan,Toko Indra,"F9VC+V98, Jl. Trans-Sulawesi, Persatuan, Kec. Popayato Bar., Kabupaten Pohuwato, Gorontalo 96467","Jl. Trans-Sulawesi, Persatuan, Kec. Popayato Bar., Kabupaten Pohuwato",GORONTALO,96467.0,Indonesia,82292139786.0,,,0.4946599,1.213.709.567,https://maps.google.com/?cid=0x0:0xbf1a4a7dab218e79,
mall,Mesin Jual Otomatis Produk Kecantikan,NASA GORONTALO,"GF68+VFQ, Ds, Bukit Tingki, Popayato, Kabupaten Pohuwato, Gorontalo 96467","Ds, Bukit Tingki, Popayato, Kabupaten Pohuwato",GORONTALO,96467.0,Indonesia,85212055607.0,,,0.5122029,1.214.662.241,https://maps.google.com/?cid=0x0:0xc03187e967979e44,
mall,Toko,Lapak ilyen 2 popayato,"GF8J+JWV, Jl. Trans-Sulawesi, Maleo, Kec. Popayato Tim., Kabupaten Pohuwato, Gorontalo","Kabupaten Pohuwato, Gorontalo",GORONTALO,,Indonesia,,,,0.5166032,1.214.823.108,https://maps.google.com/?cid=0x0:0xd2867da08bf79d08,
mall,Pusat Perbelanjaan,TOKO DINAN DION,"F9R8+HG7 Depan Kantor, Jl. Trans-Sulawesi, Persatuan, Kec. Popayato Bar., Kabupaten Pohuwato, Gorontalo 96467","Jl. Trans-Sulawesi, Persatuan, Kec. Popayato Bar., Kabupaten Pohuwato",GORONTALO,96467.0,Indonesia,,,,0.4914087,1.213.663.025,https://maps.google.com/?cid=0x0:0xb67bc6673703e035,
mall,Toko Ponsel,UD. Putricom,"GF9P+QCC, Maleo, Kec. Popayato Tim., Kabupaten Pohuwato, Gorontalo 96467","Maleo, Kec. Popayato Tim., Kabupaten Pohuwato",GORONTALO,96467.0,Indonesia,,,,0.5194364,1.214.860.026,https://maps.google.com/?cid=0x0:0xd28b466d8d1a3a,
mall,Toko Pakaian,Toko Aksesoris Dan Mainan Anak,"FCV8+9RV, Dudewulo, Kec. Popayato Bar., Kabupaten Pohuwato, Gorontalo 96467","Dudewulo, Kec. Popayato Bar., Kabupaten Pohuwato",GORONTALO,96467.0,Indonesia,85145076679.0,,,0.4934912,1.214.170.452,https://maps.google.com/?cid=0x0:0xd9d514291796607f,
mall,Pusat Perbelanjaan,Lapak Ananda,"F9VC+RG7, Persatuan, Kec. Popayato Bar., Kabupaten Pohuwato, Gorontalo 96467","Persatuan, Kec. Popayato Bar., Kabupaten Pohuwato",GORONTALO,96467.0,Indonesia,,,,0.494533,121.371.338,https://maps.google.com/?cid=0x0:0x516e7e6ddc020d59,
mall,mall,Yunishop,"FCJR+QJ9, Torosiaje Jaya, Popayato, Kabupaten Pohuwato, Gorontalo","Kabupaten Pohuwato, Gorontalo",GORONTALO,,Indonesia,82315891592.0,,,0.4819171,1.214.416.075,https://maps.google.com/?cid=0x0:0xeb0f14964ca49904,
mall,Pusat Perbelanjaan,Toko,"FCQV+WFP, Unnamed Road, Torosiaje Jaya, Popayato, Kabupaten Pohuwato, Gorontalo","Kabupaten Pohuwato, Gorontalo",GORONTALO,,Indonesia,,,,0.4898373,1.214.437.078,https://maps.google.com/?cid=0x0:0xb0a0e1dbee5e5c98,
mall,Pusat Perbelanjaan,Toko Zahra Zahira,"GF25+XHF, Telaga Biru, Popayato, Kabupaten Pohuwato, Gorontalo 96467","Telaga Biru, Popayato, Kabupaten Pohuwato",GORONTALO,96467.0,Indonesia,81310812117.0,,,0.502449,1.214.589.064,https://maps.google.com/?cid=0x0:0x9d132e07fbaa7f5,
mall,mall,Toko Intan,"GFFR+F28, Jl. Trans-Sulawesi, Maleo, Kec. Popayato Tim., Kabupaten Pohuwato, Gorontalo 96467","Jl. Trans-Sulawesi, Maleo, Kec. Popayato Tim., Kabupaten Pohuwato",GORONTALO,96467.0,Indonesia,,,,0.5238801,1.214.899.576,https://maps.google.com/?cid=0x0:0x95142f2ee7bb0eb1,
mall,mall,Nama kamu,"GF8Q+Q6V, Maleo, Kec. Popayato Tim., Kabupaten Pohuwato, Gorontalo","Kabupaten Pohuwato, Gorontalo",GORONTALO,,Indonesia,,,,0.5170263,1.214.880.629,https://maps.google.com/?cid=0x0:0x4e3e435ad23a157f,
mall,mall,Kec. Popayato Tim.,"Kabupaten Pohuwato, Gorontalo","Kabupaten Pohuwato, Gorontalo",GORONTALO,,Indonesia,,,,0.521171,1.214.876.076,https://maps.google.com/?cid=0x0:0xabc56e34572880b2,
mall,Toko,PASAR POPAYATO,"GF6F+MCH, Bukit Tingki, Popayato, Kabupaten Pohuwato, Gorontalo 96467","Bukit Tingki, Popayato, Kabupaten Pohuwato",GORONTALO,96467.0,Indonesia,,,,0.5116902,1.214.736.195,https://maps.google.com/?cid=0x0:0x17694b1dd8f6a072,
mall,Toko,Toko aneka jaya popayato,"GF46+3RP, Jl. Trans-Sulawesi, Telaga Biru, Popayato, Kabupaten Pohuwato, Gorontalo 96467","Jl. Trans-Sulawesi, Telaga Biru, Popayato, Kabupaten Pohuwato",GORONTALO,96467.0,Indonesia,81315485403.0,,,0.5052221,1.214.620.642,https://maps.google.com/?cid=0x0:0x47aa4ec0d1cadb1e,
mall,Toko Ponsel,UD. Putricom,"GF9P+QCC, Maleo, Kec. Popayato Tim., Kabupaten Pohuwato, Gorontalo 96467","Maleo, Kec. Popayato Tim., Kabupaten Pohuwato",GORONTALO,96467.0,Indonesia,,,,0.5194364,1.214.860.026,https://maps.google.com/?cid=0x0:0xd28b466d8d1a3a,
mall,Pusat Perbelanjaan,Toko,"FCQV+WFP, Unnamed Road, Torosiaje Jaya, Popayato, Kabupaten Pohuwato, Gorontalo","Kabupaten Pohuwato, Gorontalo",GORONTALO,,Indonesia,,,,0.4898373,1.214.437.078,https://maps.google.com/?cid=0x0:0xb0a0e1dbee5e5c98,
mall,mall,Toko Intan,"GFFR+F28, Jl. Trans-Sulawesi, Maleo, Kec. Popayato Tim., Kabupaten Pohuwato, Gorontalo 96467","Jl. Trans-Sulawesi, Maleo, Kec. Popayato Tim., Kabupaten Pohuwato",GORONTALO,96467.0,Indonesia,,,,0.5238801,1.214.899.576,https://maps.google.com/?cid=0x0:0x95142f2ee7bb0eb1,
mall,Mesin Jual Otomatis Produk Kecantikan,NASA GORONTALO,"GF68+VFQ, Ds, Bukit Tingki, Popayato, Kabupaten Pohuwato, Gorontalo 96467","Ds, Bukit Tingki, Popayato, Kabupaten Pohuwato",GORONTALO,96467.0,Indonesia,85212055607.0,,,0.5122029,1.214.662.241,https://maps.google.com/?cid=0x0:0xc03187e967979e44,
mall,mall,Yunishop,"FCJR+QJ9, Torosiaje Jaya, Popayato, Kabupaten Pohuwato, Gorontalo","Kabupaten Pohuwato, Gorontalo",GORONTALO,,Indonesia,82315891592.0,,,0.4819171,1.214.416.075,https://maps.google.com/?cid=0x0:0xeb0f14964ca49904,
mall,Toko Bahan Bangunan,MEGA DEPO BANGUNAN,"FCV7+84C, Bar, Dudewulo, Kec. Popayato Bar., Kabupaten Pohuwato, Gorontalo 96467","Bar, Dudewulo, Kec. Popayato Bar., Kabupaten Pohuwato",GORONTALO,96467.0,Indonesia,,,,0.4933219,121.412.767,https://maps.google.com/?cid=0x0:0xae13135ae7d1637,
mall,Pusat Perbelanjaan,Toko Zahra Zahira,"GF25+XHF, Telaga Biru, Popayato, Kabupaten Pohuwato, Gorontalo 96467","Telaga Biru, Popayato, Kabupaten Pohuwato",GORONTALO,96467.0,Indonesia,81310812117.0,,,0.502449,1.214.589.064,https://maps.google.com/?cid=0x0:0x9d132e07fbaa7f5,
mall,Pusat Perbelanjaan,Citimall Gorontalo,"Jl. Sultan Botutihe No.68, Heledulaa Sel., Kec. Kota Tim., Kota Gorontalo, Gorontalo 96134","Heledulaa Sel., Kec. Kota Tim., Kota Gorontalo",GORONTALO,96134.0,Indonesia,,,,0.5377284,1.230.620.043,https://maps.google.com/?cid=0x0:0x79e25905adc0f87,
mall,Toko Pakaian,UD Family Jaya GTO,"Jl. Trans-Sulawesi, Dudewulo, Kec. Popayato Bar., Kabupaten Pohuwato, Gorontalo 96467","Dudewulo, Kec. Popayato Bar., Kabupaten Pohuwato",GORONTALO,96467.0,Indonesia,85399939969.0,,,0.492462,121.415.925,https://maps.google.com/?cid=0x0:0xe7c9dd1db7bca50e,
mall,Toko Pakaian,Toko Aksesoris Dan Mainan Anak,"FCV8+9RV, Dudewulo, Kec. Popayato Bar., Kabupaten Pohuwato, Gorontalo 96467","Dudewulo, Kec. Popayato Bar., Kabupaten Pohuwato",GORONTALO,96467.0,Indonesia,85145076679.0,,,0.4934912,1.214.170.452,https://maps.google.com/?cid=0x0:0xd9d514291796607f,
mall,Minimarket,ALFAMART DUDEWULO POPAYATO,"FCV9+836, Dudewulo, Kec. Popayato Bar., Kabupaten Pohuwato, Gorontalo 96467","Dudewulo, Kec. Popayato Bar., Kabupaten Pohuwato",GORONTALO,96467.0,Indonesia,,,,0.4933713,1.214.176.473,https://maps.google.com/?cid=0x0:0xf20192853452562e,
mall,mall,Nama kamu,"GF8Q+Q6V, Maleo, Kec. Popayato Tim., Kabupaten Pohuwato, Gorontalo","Kabupaten Pohuwato, Gorontalo",GORONTALO,,Indonesia,,,,0.5170263,1.214.880.629,https://maps.google.com/?cid=0x0:0x4e3e435ad23a157f,
mall,Minimarket,AlfaMIDI POPAYATO TIMUR,"GF6G+X6P, Jl. Trans-Sulawesi, Maleo, Kec. Popayato Tim., Kabupaten Pohuwato, Gorontalo 96467","Jl. Trans-Sulawesi, Maleo, Kec. Popayato Tim., Kabupaten Pohuwato",GORONTALO,96467.0,Indonesia,,,,0.5124323,1.214.756.237,https://maps.google.com/?cid=0x0:0x7ff919ffe4e843c0,
mall,Pusat Perbelanjaan,Toko Indra,"F9VC+V98, Jl. Trans-Sulawesi, Persatuan, Kec. Popayato Bar., Kabupaten Pohuwato, Gorontalo 96467","Jl. Trans-Sulawesi, Persatuan, Kec. Popayato Bar., Kabupaten Pohuwato",GORONTALO,96467.0,Indonesia,82292139786.0,,,0.4946599,1.213.709.567,https://maps.google.com/?cid=0x0:0xbf1a4a7dab218e79,
mall,Pusat Perbelanjaan,indomaret popayato,"GF59+FHF, Bukit Tingki, Popayato, Kabupaten Pohuwato, Gorontalo","Kabupaten Pohuwato, Gorontalo",GORONTALO,,Indonesia,,,,0.508688,1.214.689.146,https://maps.google.com/?cid=0x0:0x3d3b0e85f570bee8,
mall,Toko Buku,Rian Fotocopy,"GHXC+FR9, Lemito Utara, Kec. Lemito, Kabupaten Pohuwato, Gorontalo 96468","Lemito Utara, Kec. Lemito, Kabupaten Pohuwato",GORONTALO,96468.0,Indonesia,82291851978.0,,,0.5486534,1.215.721.042,https://maps.google.com/?cid=0x0:0xd3ad76d4f47dc672,
mall,Pusat Perbelanjaan,TOKO DINAN DION,"F9R8+HG7 Depan Kantor, Jl. Trans-Sulawesi, Persatuan, Kec. Popayato Bar., Kabupaten Pohuwato, Gorontalo 96467","Jl. Trans-Sulawesi, Persatuan, Kec. Popayato Bar., Kabupaten Pohuwato",GORONTALO,96467.0,Indonesia,,,,0.4914087,1.213.663.025,https://maps.google.com/?cid=0x0:0xb67bc6673703e035,
mall,Pusat Perbelanjaan,Lapak Ananda,"F9VC+RG7, Persatuan, Kec. Popayato Bar., Kabupaten Pohuwato, Gorontalo 96467","Persatuan, Kec. Popayato Bar., Kabupaten Pohuwato",GORONTALO,96467.0,Indonesia,,,,0.494533,121.371.338,https://maps.google.com/?cid=0x0:0x516e7e6ddc020d59,
mall,mall,Kec. Popayato Tim.,"Kabupaten Pohuwato, Gorontalo","Kabupaten Pohuwato, Gorontalo",GORONTALO,,Indonesia,,,,0.521171,1.214.876.076,https://maps.google.com/?cid=0x0:0xabc56e34572880b2,
mall,Toko,PASAR POPAYATO,"GF6F+MCH, Bukit Tingki, Popayato, Kabupaten Pohuwato, Gorontalo 96467","Bukit Tingki, Popayato, Kabupaten Pohuwato",GORONTALO,96467.0,Indonesia,,,,0.5116902,1.214.736.195,https://maps.google.com/?cid=0x0:0x17694b1dd8f6a072,
mall,Toko,Toko aneka jaya popayato,"GF46+3RP, Jl. Trans-Sulawesi, Telaga Biru, Popayato, Kabupaten Pohuwato, Gorontalo 96467","Jl. Trans-Sulawesi, Telaga Biru, Popayato, Kabupaten Pohuwato",GORONTALO,96467.0,Indonesia,81315485403.0,,,0.5052221,1.214.620.642,https://maps.google.com/?cid=0x0:0x47aa4ec0d1cadb1e,
mall,Toko Ponsel,UD. Putricom,"GF9P+QCC, Maleo, Kec. Popayato Tim., Kabupaten Pohuwato, Gorontalo 96467","Maleo, Kec. Popayato Tim., Kabupaten Pohuwato",GORONTALO,96467.0,Indonesia,,,,0.5194364,1.214.860.026,https://maps.google.com/?cid=0x0:0xd28b466d8d1a3a,
mall,mall,Toko Intan,"GFFR+F28, Jl. Trans-Sulawesi, Maleo, Kec. Popayato Tim., Kabupaten Pohuwato, Gorontalo 96467","Jl. Trans-Sulawesi, Maleo, Kec. Popayato Tim., Kabupaten Pohuwato",GORONTALO,96467.0,Indonesia,,,,0.5238801,1.214.899.576,https://maps.google.com/?cid=0x0:0x95142f2ee7bb0eb1,
mall,Toko Bahan Bangunan,MEGA DEPO BANGUNAN,"FCV7+84C, Bar, Dudewulo, Kec. Popayato Bar., Kabupaten Pohuwato, Gorontalo 96467","Bar, Dudewulo, Kec. Popayato Bar., Kabupaten Pohuwato",GORONTALO,96467.0,Indonesia,,,,0.4933219,121.412.767,https://maps.google.com/?cid=0x0:0xae13135ae7d1637,
mall,Pusat Perbelanjaan,Toko Zahra Zahira,"GF25+XHF, Telaga Biru, Popayato, Kabupaten Pohuwato, Gorontalo 96467","Telaga Biru, Popayato, Kabupaten Pohuwato",GORONTALO,96467.0,Indonesia,81310812117.0,,,0.502449,1.214.589.064,https://maps.google.com/?cid=0x0:0x9d132e07fbaa7f5,
mall,Pusat Perbelanjaan,Toko,"FCQV+WFP, Unnamed Road, Torosiaje Jaya, Popayato, Kabupaten Pohuwato, Gorontalo","Kabupaten Pohuwato, Gorontalo",GORONTALO,,Indonesia,,,,0.4898373,1.214.437.078,https://maps.google.com/?cid=0x0:0xb0a0e1dbee5e5c98,
mall,mall,Yunishop,"FCJR+QJ9, Torosiaje Jaya, Popayato, Kabupaten Pohuwato, Gorontalo","Kabupaten Pohuwato, Gorontalo",GORONTALO,,Indonesia,82315891592.0,,,0.4819171,1.214.416.075,https://maps.google.com/?cid=0x0:0xeb0f14964ca49904,
mall,Toko Pakaian,UD Family Jaya GTO,"Jl. Trans-Sulawesi, Dudewulo, Kec. Popayato Bar., Kabupaten Pohuwato, Gorontalo 96467","Dudewulo, Kec. Popayato Bar., Kabupaten Pohuwato",GORONTALO,96467.0,Indonesia,85399939969.0,,,0.492462,121.415.925,https://maps.google.com/?cid=0x0:0xe7c9dd1db7bca50e,
mall,Pusat Perbelanjaan,Citimall Gorontalo,"Jl. Sultan Botutihe No.68, Heledulaa Sel., Kec. Kota Tim., Kota Gorontalo, Gorontalo 96134","Heledulaa Sel., Kec. Kota Tim., Kota Gorontalo",GORONTALO,96134.0,Indonesia,,,,0.5377284,1.230.620.043,https://maps.google.com/?cid=0x0:0x79e25905adc0f87,
mall,Minimarket,ALFAMART DUDEWULO POPAYATO,"FCV9+836, Dudewulo, Kec. Popayato Bar., Kabupaten Pohuwato, Gorontalo 96467","Dudewulo, Kec. Popayato Bar., Kabupaten Pohuwato",GORONTALO,96467.0,Indonesia,,,,0.4933713,1.214.176.473,https://maps.google.com/?cid=0x0:0xf20192853452562e,
mall,Toko Pakaian,Toko Aksesoris Dan Mainan Anak,"FCV8+9RV, Dudewulo, Kec. Popayato Bar., Kabupaten Pohuwato, Gorontalo 96467","Dudewulo, Kec. Popayato Bar., Kabupaten Pohuwato",GORONTALO,96467.0,Indonesia,85145076679.0,,,0.4934912,1.214.170.452,https://maps.google.com/?cid=0x0:0xd9d514291796607f,
mall,mall,Nama kamu,"GF8Q+Q6V, Maleo, Kec. Popayato Tim., Kabupaten Pohuwato, Gorontalo","Kabupaten Pohuwato, Gorontalo",GORONTALO,,Indonesia,,,,0.5170263,1.214.880.629,https://maps.google.com/?cid=0x0:0x4e3e435ad23a157f,
mall,Mesin Jual Otomatis Produk Kecantikan,NASA GORONTALO,"GF68+VFQ, Ds, Bukit Tingki, Popayato, Kabupaten Pohuwato, Gorontalo 96467","Ds, Bukit Tingki, Popayato, Kabupaten Pohuwato",GORONTALO,96467.0,Indonesia,85212055607.0,,,0.5122029,1.214.662.241,https://maps.google.com/?cid=0x0:0xc03187e967979e44,
mall,Minimarket,AlfaMIDI POPAYATO TIMUR,"GF6G+X6P, Jl. Trans-Sulawesi, Maleo, Kec. Popayato Tim., Kabupaten Pohuwato, Gorontalo 96467","Jl. Trans-Sulawesi, Maleo, Kec. Popayato Tim., Kabupaten Pohuwato",GORONTALO,96467.0,Indonesia,,,,0.5124323,1.214.756.237,https://maps.google.com/?cid=0x0:0x7ff919ffe4e843c0,
mall,Pusat Perbelanjaan,indomaret popayato,"GF59+FHF, Bukit Tingki, Popayato, Kabupaten Pohuwato, Gorontalo","Kabupaten Pohuwato, Gorontalo",GORONTALO,,Indonesia,,,,0.508688,1.214.689.146,https://maps.google.com/?cid=0x0:0x3d3b0e85f570bee8,
mall,mall,Kec. Randangan,"Kabupaten Pohuwato, Gorontalo","Kabupaten Pohuwato, Gorontalo",GORONTALO,,Indonesia,,,,0.536787,1.218.156.097,https://maps.google.com/?cid=0x0:0xae3be2603f746c2c,
mall,Pusat Perbelanjaan,Pasar Randangan,"GRJ7+FH8, Motolohu, Kec. Randangan, Kabupaten Pohuwato, Gorontalo 96469","Motolohu, Kec. Randangan, Kabupaten Pohuwato",GORONTALO,96469.0,Indonesia,,,,0.5311536,1.218.139.664,https://maps.google.com/?cid=0x0:0x5f3de44bf283ac7f,
mall,Toko bahan makanan,IRON MART,"GPP3+G8J, Jl. Trans-Sulawesi, Sidorukun, Kec. Randangan, Kabupaten Pohuwato, Gorontalo 96469","Jl. Trans-Sulawesi, Sidorukun, Kec. Randangan, Kabupaten Pohuwato",GORONTALO,96469.0,Indonesia,,,,0.5363388,1.217.032.792,https://maps.google.com/?cid=0x0:0xadcff7de44abc0d8,
mall,Pusat Perbelanjaan,Jual Udang Randangan,"GRG7+F78, Motolohu, Kec. Randangan, Kabupaten Pohuwato, Gorontalo 96469","Motolohu, Kec. Randangan, Kabupaten Pohuwato",GORONTALO,96469.0,Indonesia,,,,0.5261706,1.218.132.131,https://maps.google.com/?cid=0x0:0x86d47cb465559efd,
mall,Pusat Perbelanjaan,ALFA STUDIO ( ALFA CELL ),"GRQ8+2GW, Jl. Trans-Sulawesi, Manunggal Karya, Kec. Randangan, Kabupaten Pohuwato, Gorontalo 96469","Jl. Trans-Sulawesi, Manunggal Karya, Kec. Randangan, Kabupaten Pohuwato",GORONTALO,96469.0,Indonesia,,,,0.5376046,12.181.633,https://maps.google.com/?cid=0x0:0xb31d178281029490,
mall,Toko,Kios azzahra,"GRWM+H6, Ayula, Kec. Randangan, Kabupaten Pohuwato, Gorontalo","Kabupaten Pohuwato, Gorontalo",GORONTALO,,Indonesia,82334201959.0,,,0.5463713,1.218.330.963,https://maps.google.com/?cid=0x0:0xe88f772334fb1a89,
mall,Toko bahan makanan,Surya Fc,"GV57+5C7, Dulomo, Kec. Patilanggio, Kabupaten Pohuwato, Gorontalo 96266","Dulomo, Kec. Patilanggio, Kabupaten Pohuwato",GORONTALO,96266.0,Indonesia,82291430806.0,,,0.5079246,1.218.635.314,https://maps.google.com/?cid=0x0:0x6c08de53f4b8696a,
mall,Pusat Perbelanjaan,TOKO DIFA RANDANGAN,"GRRG+MXF, Ayula, Kec. Randangan, Kabupaten Pohuwato, Gorontalo 96266","Ayula, Kec. Randangan, Kabupaten Pohuwato",GORONTALO,96266.0,Indonesia,82395537072.0,,,0.5413372,1.218.272.977,https://maps.google.com/?cid=0x0:0x7ab304c79199b06e,
mall,Pusat Perbelanjaan,Citimall Gorontalo,"Jl. Sultan Botutihe No.68, Heledulaa Sel., Kec. Kota Tim., Kota Gorontalo, Gorontalo 96134","Heledulaa Sel., Kec. Kota Tim., Kota Gorontalo",GORONTALO,96134.0,Indonesia,,,,0.5377284,1.230.620.043,https://maps.google.com/?cid=0x0:0x79e25905adc0f87,
mall,Komplek perumahan,LUKMAN PERDANA CELLULER,"GRJX+8X3, Unnamed Road, Suka Makmur, Kec. Patilanggio, Kabupaten Pohuwato, Gorontalo 96266","Unnamed Road, Suka Makmur, Kec. Patilanggio, Kabupaten Pohuwato",GORONTALO,96266.0,Indonesia,81241677556.0,,,0.5307733,1.218.499.278,https://maps.google.com/?cid=0x0:0x9e5de8b382e7314c,
mall,Toko Ikan,RUMAH PRODUKSI OLAHAN IKAN BANDENG,"GQ6C+M8W, Jl. Trans-Sulawesi, Patuhu, Kec. Randangan, Kabupaten Pohuwato, Gorontalo 96469","Jl. Trans-Sulawesi, Patuhu, Kec. Randangan, Kabupaten Pohuwato",GORONTALO,96469.0,Indonesia,,,,0.5117486,121.770.822,https://maps.google.com/?cid=0x0:0x316fa37794bb12f7,
mall,Pusat Perbelanjaan,Lapak SEMORA,"FVPQ+5M3, Mootilango, Kec. Duhiadaa, Kabupaten Pohuwato, Gorontalo 96266","Mootilango, Kec. Duhiadaa, Kabupaten Pohuwato",GORONTALO,96266.0,Indonesia,82290717271.0,,,0.486251,121.888.309,https://maps.google.com/?cid=0x0:0xf0963efaeeba40b1,
mall,Toko umum,Metro Bangunan  Vape stor,"GV37+FR9, Unnamed Road, Dulomo, Kec. Patilanggio, Kabupaten Pohuwato, Gorontalo 96266","Unnamed Road, Dulomo, Kec. Patilanggio, Kabupaten Pohuwato",GORONTALO,96266.0,Indonesia,82189016969.0,,,0.5036567,1.218.646,https://maps.google.com/?cid=0x0:0x1d409e11972eb60f,
mall,Minimarket,Indomaret Sungai Taluditi,"JRM7+F6F, Panca Karsa II, Kec. Taluditi, Kabupaten Pohuwato, Gorontalo 96469","Panca Karsa II, Kec. Taluditi, Kabupaten Pohuwato",GORONTALO,96469.0,Indonesia,,,,0.6336021,1.218.139.041,https://maps.google.com/?cid=0x0:0xd3b2d98797337e1e,
mall,Toko,Alfa store 2,"FVXR+6QW, Mekar Jaya, Kec. Duhiadaa, Kabupaten Pohuwato, Gorontalo 96266","Mekar Jaya, Kec. Duhiadaa, Kabupaten Pohuwato",GORONTALO,96266.0,Indonesia,,,,0.4981014,1.218.919.648,https://maps.google.com/?cid=0x0:0xf0dfb48b370d161b,
mall,Toko umum,Warung Mini cantik,"GRXJ+P72, Ayula, Kec. Randangan, Kabupaten Pohuwato, Gorontalo","Kabupaten Pohuwato, Gorontalo",GORONTALO,,Indonesia,,,,0.549263,1.218.306.397,https://maps.google.com/?cid=0x0:0xe39c3a12c21a45a1,
mall,Pusat Perbelanjaan,"Business Park Gorontalo Mall, Hotel, Ruko","G3Q6+4Q8, -no name-Jalan HOS. Cokroaminoto, Heledulaa Sel., Kota Sel., Kota Gorontalo, Gorontalo 96311","-no name-Jalan HOS. Cokroaminoto, Heledulaa Sel., Kota Sel., Kota Gorontalo",GORONTALO,96311.0,Indonesia,435821926.0,,,0.5377778,1.230.619.444,https://maps.google.com/?cid=0x0:0x94ee14f62753b59e,
mall,Toko,KIOS YULHY CELL,"GRVG+4X8, Jl. Trans-Sulawesi, Ayula, Kec. Randangan, Kabupaten Pohuwato, Gorontalo 96266","Jl. Trans-Sulawesi, Ayula, Kec. Randangan, Kabupaten Pohuwato",GORONTALO,96266.0,Indonesia,81340577562.0,,,0.542782,1.218.274.541,https://maps.google.com/?cid=0x0:0xeaf2b033e113e4c2,
mall,mall,Warung shanum,"JP8P+3P, Tuweya, Kec. Wanggarasi, Kabupaten Pohuwato, Gorontalo","Kabupaten Pohuwato, Gorontalo",GORONTALO,,Indonesia,,,,0.6183632,1.217.342.146,https://maps.google.com/?cid=0x0:0x6c3babd4aa5cd13,
mall,mall,Mba Ijah,"GRR5+G4Q, Manunggal Karya, Kec. Randangan, Kabupaten Pohuwato, Gorontalo 96469","Manunggal Karya, Kec. Randangan, Kabupaten Pohuwato",GORONTALO,96469.0,Indonesia,,,,0.5413288,1.218.078.446,https://maps.google.com/?cid=0x0:0x407348b6754291cb,
mall,Pusat Perbelanjaan,Kios Yulin,"FWM7+JM9, Duhiadaa, Kec. Duhiadaa, Kabupaten Pohuwato, Gorontalo 96466","Duhiadaa, Kec. Duhiadaa, Kabupaten Pohuwato",GORONTALO,96466.0,Indonesia,,,,0.4840355,1.219.142.193,https://maps.google.com/?cid=0x0:0x144b9281dff20ccd,
mall,Minimarket,Indomaret Sungai Taluditi,"JRM7+F6F, Panca Karsa II, Kec. Taluditi, Kabupaten Pohuwato, Gorontalo 96469","Panca Karsa II, Kec. Taluditi, Kabupaten Pohuwato",GORONTALO,96469.0,Indonesia,,,,0.6336021,1.218.139.041,https://maps.google.com/?cid=0x0:0xd3b2d98797337e1e,
mall,,Indomaret Randangan,"GRH7+6J, Motolohu, Kec. Randangan, Kabupaten Pohuwato, Gorontalo 96469","Motolohu, Kec. Randangan, Kabupaten Pohuwato",GORONTALO,96469.0,Indonesia,,,,0.5280691,1.218.140.516,https://maps.google.com/?cid=0x0:0xe6c5facd65093d8f,
mall,mall,Lapangan Pancakarsa 2,"JRM7+HJ9, Unnamed Road, Panca Karsa II, Kec. Taluditi, Kabupaten Pohuwato, Gorontalo 96469","Unnamed Road, Panca Karsa II, Kec. Taluditi, Kabupaten Pohuwato",GORONTALO,96469.0,Indonesia,,,,0.6339097,1.218.141.234,https://maps.google.com/?cid=0x0:0xc3f109dbf05ec3ba,
mall,mall,Gorontalo 96468,"Kec. Lemito, Kabupaten Pohuwato, Gorontalo","Kabupaten Pohuwato, Gorontalo",GORONTALO,,Indonesia,,,,0.7390376,1.215.826.642,https://maps.google.com/?cid=0x0:0xbcbfbe464a8e6a55,
mall,Pusat Perbelanjaan,Citimall Gorontalo,"Jl. Sultan Botutihe No.68, Heledulaa Sel., Kec. Kota Tim., Kota Gorontalo, Gorontalo 96134","Heledulaa Sel., Kec. Kota Tim., Kota Gorontalo",GORONTALO,96134.0,Indonesia,,,,0.5377284,1.230.620.043,https://maps.google.com/?cid=0x0:0x79e25905adc0f87,
mall,Toko bahan makanan,IRON MART,"GPP3+G8J, Jl. Trans-Sulawesi, Sidorukun, Kec. Randangan, Kabupaten Pohuwato, Gorontalo 96469","Jl. Trans-Sulawesi, Sidorukun, Kec. Randangan, Kabupaten Pohuwato",GORONTALO,96469.0,Indonesia,,,,0.5363388,1.217.032.792,https://maps.google.com/?cid=0x0:0xadcff7de44abc0d8,
mall,mall,Warung shanum,"JP8P+3P, Tuweya, Kec. Wanggarasi, Kabupaten Pohuwato, Gorontalo","Kabupaten Pohuwato, Gorontalo",GORONTALO,,Indonesia,,,,0.6183632,1.217.342.146,https://maps.google.com/?cid=0x0:0x6c3babd4aa5cd13,
mall,Toko,PASAR POPAYATO,"GF6F+MCH, Bukit Tingki, Popayato, Kabupaten Pohuwato, Gorontalo 96467","Bukit Tingki, Popayato, Kabupaten Pohuwato",GORONTALO,96467.0,Indonesia,,,,0.5116902,1.214.736.195,https://maps.google.com/?cid=0x0:0x17694b1dd8f6a072,
mall,Toko,Toko aneka jaya popayato,"GF46+3RP, Jl. Trans-Sulawesi, Telaga Biru, Popayato, Kabupaten Pohuwato, Gorontalo 96467","Jl. Trans-Sulawesi, Telaga Biru, Popayato, Kabupaten Pohuwato",GORONTALO,96467.0,Indonesia,81315485403.0,,,0.5052221,1.214.620.642,https://maps.google.com/?cid=0x0:0x47aa4ec0d1cadb1e,
mall,Toko Swalayan,Hypermart Gorontalo,"Jl. Sultan Botutihe No.8A, Heledulaa Sel., Kec. Kota Tim., Kota Gorontalo, Gorontalo","Kota Gorontalo, Gorontalo",GORONTALO,,Indonesia,435822242.0,,,0.5375812,1.230.624.791,https://maps.google.com/?cid=0x0:0xe1a4bf3e8b0b6f8,
mall,Studio Fotografi,Qreative Printing,"HJ4P+85P, desa, Suka Damai, Kec. Lemito, Kabupaten Pohuwato, Gorontalo 96468","desa, Suka Damai, Kec. Lemito, Kabupaten Pohuwato",GORONTALO,96468.0,Indonesia,82266465141.0,,,0.5558365,1.216.354.393,https://maps.google.com/?cid=0x0:0xe6984f1630be31c6,
mall,Toko Buku,Rian Fotocopy,"GHXC+FR9, Lemito Utara, Kec. Lemito, Kabupaten Pohuwato, Gorontalo 96468","Lemito Utara, Kec. Lemito, Kabupaten Pohuwato",GORONTALO,96468.0,Indonesia,82291851978.0,,,0.5486534,1.215.721.042,https://maps.google.com/?cid=0x0:0xd3ad76d4f47dc672,
mall,Pusat Perbelanjaan,Moya shop,"H3F3+C48, Tapa, Kec. Sipatana, Kabupaten Gorontalo, Gorontalo 96138","Tapa, Kec. Sipatana, Kabupaten Gorontalo",GORONTALO,96138.0,Indonesia,8114380620.0,,,0.573543,123.052.828,https://maps.google.com/?cid=0x0:0x73d7266e53301d03,
mall,Toko,Lapak ilyen 2 popayato,"GF8J+JWV, Jl. Trans-Sulawesi, Maleo, Kec. Popayato Tim., Kabupaten Pohuwato, Gorontalo","Kabupaten Pohuwato, Gorontalo",GORONTALO,,Indonesia,,,,0.5166032,1.214.823.108,https://maps.google.com/?cid=0x0:0xd2867da08bf79d08,
mall,Toko Ponsel,UD. Putricom,"GF9P+QCC, Maleo, Kec. Popayato Tim., Kabupaten Pohuwato, Gorontalo 96467","Maleo, Kec. Popayato Tim., Kabupaten Pohuwato",GORONTALO,96467.0,Indonesia,,,,0.5194364,1.214.860.026,https://maps.google.com/?cid=0x0:0xd28b466d8d1a3a,
mall,Pusat Perbelanjaan,Toko Zahra Zahira,"GF25+XHF, Telaga Biru, Popayato, Kabupaten Pohuwato, Gorontalo 96467","Telaga Biru, Popayato, Kabupaten Pohuwato",GORONTALO,96467.0,Indonesia,81310812117.0,,,0.502449,1.214.589.064,https://maps.google.com/?cid=0x0:0x9d132e07fbaa7f5,
mall,Pusat Perbelanjaan,Pasar Sore Limboto ( Shoping Center Lama),"JXCJ+J8X, Kayubulan, Kec. Limboto, Kabupaten Gorontalo, Gorontalo","Kabupaten Gorontalo, Gorontalo",GORONTALO,,Indonesia,,,,0.6215368,1.229.807.997,https://maps.google.com/?cid=0x0:0x38880e011f994282,
mall,mall,LhiLy Hadju OLSHOP,"HH78+JRC Olshop LhiLy Hadju, Kenari, Kec. Lemito, Kabupaten Pohuwato, Gorontalo 96468","Kenari, Kec. Lemito, Kabupaten Pohuwato",GORONTALO,96468.0,Indonesia,85298439363.0,,,0.5640571,1.215.670.289,https://maps.google.com/?cid=0x0:0xb6b7b84e35543abb,
mall,Sekolah Menengah Pertama,SMK Negeri 1 Wanggarasi,"GMFQ+QVG, Wonggarasi Tim., Kec. Wanggarasi, Kabupaten Pohuwato, Gorontalo","Kabupaten Pohuwato, Gorontalo",GORONTALO,,Indonesia,,,,0.5244497,121.689.706,https://maps.google.com/?cid=0x0:0xdb218b470d860a3d,
mall,Pembangunan Perumahan,Wanggarasi timur,"GPP2+GMP, Wonggarasi Tim., Kec. Wanggarasi, Kabupaten Pohuwato, Gorontalo","Kabupaten Pohuwato, Gorontalo",GORONTALO,,Indonesia,,,,0.5363384,1.217.017.149,https://maps.google.com/?cid=0x0:0xee439975c62f1af0,
mall,Sekolah Dasar,SMP Negeri 1 Wanggarasi,"GMJR+6VJ, Wonggarasi Tim., Kec. Wanggarasi, Kabupaten Pohuwato, Gorontalo 96469","Wonggarasi Tim., Kec. Wanggarasi, Kabupaten Pohuwato",GORONTALO,96469.0,Indonesia,,,,0.53059,1.216.921.388,https://maps.google.com/?cid=0x0:0xe9ddc060b0b5feee,
mall,mall,Azizah Olhshoope,"HH89+WCG, Unnamed Road, Kenari, Kec. Lemito, Kabupaten Pohuwato, Gorontalo 96468","Unnamed Road, Kenari, Kec. Lemito, Kabupaten Pohuwato",GORONTALO,96468.0,Indonesia,,,,0.5673065,121.568.573,https://maps.google.com/?cid=0x0:0x5168b80fda57b0b2,
mall,mall,Hasdin_pakaya olshop,"HH78+VXC, Kenari, Kec. Lemito, Kabupaten Pohuwato, Gorontalo 96468","Kenari, Kec. Lemito, Kabupaten Pohuwato",GORONTALO,96468.0,Indonesia,,,,0.564679,1.215.674.026,https://maps.google.com/?cid=0x0:0x48a314bcc00dccd0,
mall,mall,Lemito utara,"GHWF+33X, Lemito Utara, Kec. Lemito, Kabupaten Pohuwato, Gorontalo","Kabupaten Pohuwato, Gorontalo",GORONTALO,,Indonesia,,,,0.5452447,1.215.727.307,https://maps.google.com/?cid=0x0:0xbaf0b4640cb28fac,
supermarket,supermarket,Gorontalo 96266,"Kabupaten Pohuwato, Gorontalo","Kabupaten Pohuwato, Gorontalo",GORONTALO,,Indonesia,,,,0.6235288,1.218.790.306,https://maps.google.com/?cid=0x0:0x6e323a18714b4718,
supermarket,Toko,ARWANA SWALAYAN,"FWCJ+JFR, Buntulia Sel., Kec. Duhiadaa, Kabupaten Pohuwato, Gorontalo 96266","Buntulia Sel., Kec. Duhiadaa, Kabupaten Pohuwato",GORONTALO,96266.0,Indonesia,,,,0.4716176,1.219.311.261,https://maps.google.com/?cid=0x0:0x7e2b5b1b41a4e662,
supermarket,Minimarket,Kios Nur,"Jl. Kolonisasi, Sipatana, Kec. Buntulia, Kabupaten Pohuwato, Gorontalo 96466","Sipatana, Kec. Buntulia, Kabupaten Pohuwato",GORONTALO,96466.0,Indonesia,82199223251.0,,,0.4851317,1.219.203.988,https://maps.google.com/?cid=0x0:0xecc9c06bf2a54503,
supermarket,Toko bahan makanan,TOKO SINAR CAHAYA,"FWGJ+6V5, Buntulia Jaya, Kec. Duhiadaa, Kabupaten Pohuwato, Gorontalo 96466","Buntulia Jaya, Kec. Duhiadaa, Kabupaten Pohuwato",GORONTALO,96466.0,Indonesia,,,,0.475522,1.219.322.345,https://maps.google.com/?cid=0x0:0x7b7cefd9c1889f5,
supermarket,Toko Swalayan,Kios maya,"FWPC+PX8, Jl. Kolonisasi, Sipatana, Kec. Buntulia, Kabupaten Pohuwato, Gorontalo 96466","Jl. Kolonisasi, Sipatana, Kec. Buntulia, Kabupaten Pohuwato",GORONTALO,96466.0,Indonesia,,,,0.4867853,1.219.224.417,https://maps.google.com/?cid=0x0:0xa01b63127e95f226,
supermarket,Toko Swalayan,DD Mart,"FW8W+5Q5, Palopo, Kec. Marisa, Kabupaten Pohuwato, Gorontalo 96265","Palopo, Kec. Marisa, Kabupaten Pohuwato",GORONTALO,96265.0,Indonesia,,,,0.4653779,1.219.469.963,https://maps.google.com/?cid=0x0:0x3304f1aeac37b791,
supermarket,Dapur Umum,UD. AZKIA,"Teratai, Kec. Marisa, Kabupaten Pohuwato, Gorontalo 96265","Kec. Marisa, Kabupaten Pohuwato",GORONTALO,96265.0,Indonesia,81343675005.0,,,0.4782698,1.219.481.005,https://maps.google.com/?cid=0x0:0x35f04b7941b7bb1a,
supermarket,Toko,Toko chindy,"Padengo, Kec. Duhiadaa, Kabupaten Pohuwato, Gorontalo 96266","Kec. Duhiadaa, Kabupaten Pohuwato",GORONTALO,96266.0,Indonesia,85340323038.0,,,0.5007191,1.218.980.681,https://maps.google.com/?cid=0x0:0x208eb2b20f2d576f,
supermarket,Komplek perumahan,Bele Le Coan,"Unnamed Road, Buntulia Jaya, Kec. Duhiadaa, Kabupaten Pohuwato, Gorontalo 96466","Buntulia Jaya, Kec. Duhiadaa, Kabupaten Pohuwato",GORONTALO,96466.0,Indonesia,85298429077.0,,,0.4740757,1.219.268.844,https://maps.google.com/?cid=0x0:0xf4406591c8c12fe4,
supermarket,Toko bahan makanan,Marisa Mart M2,"FW9M+23F, Jl. Trans-Sulawesi, Marisa Utara, Kec. Marisa, Kabupaten Pohuwato, Gorontalo 96266","Jl. Trans-Sulawesi, Marisa Utara, Kec. Marisa, Kabupaten Pohuwato",GORONTALO,96266.0,Indonesia,,,,0.467574,1.219.326.754,https://maps.google.com/?cid=0x0:0x9dd1696da0282af3,
supermarket,Minimarket,ALFAMART BUNTULIA SELATAN,"FWCJ+RHX, Jl. Trans-Sulawesi, Buntulia Sel., Kec. Duhiadaa, Kabupaten Pohuwato, Gorontalo","Kabupaten Pohuwato, Gorontalo",GORONTALO,,Indonesia,,,,0.4721182,1.219.314.943,https://maps.google.com/?cid=0x0:0xfb19e4830662c862,
supermarket,Toko bahan makanan,Toko Sabass,"Palopo, Kec. Marisa, Kabupaten Pohuwato, Gorontalo 96265","Kec. Marisa, Kabupaten Pohuwato",GORONTALO,96265.0,Indonesia,,,,0.4668698,1.219.476.455,https://maps.google.com/?cid=0x0:0x880db9ae49a9ca90,
supermarket,Toko,Tk. Berkah,"GW4R+M54, Jl. Gn. Pani, Taluduyunu, Kec. Buntulia, Kabupaten Pohuwato, Gorontalo 96266","Jl. Gn. Pani, Taluduyunu, Kec. Buntulia, Kabupaten Pohuwato",GORONTALO,96266.0,Indonesia,,,,0.5066369,1.219.404.425,https://maps.google.com/?cid=0x0:0x4de32c256e8a03db,
supermarket,Toko,Queen Mart,"Panca Karsa I, Kec. Taluditi, Kabupaten Pohuwato, Gorontalo 96469","Kec. Taluditi, Kabupaten Pohuwato",GORONTALO,96469.0,Indonesia,82195600600.0,,,0.6082168,1.218.056.701,https://maps.google.com/?cid=0x0:0x780f1616b076c060,
supermarket,Minimarket,Indomaret Duhiadaa,"FWPC+WP3, Sipatana, Kec. Buntulia, Kabupaten Pohuwato, Gorontalo 96466","Sipatana, Kec. Buntulia, Kabupaten Pohuwato",GORONTALO,96466.0,Indonesia,,,,0.486441,1.219.224.294,https://maps.google.com/?cid=0x0:0x32dc78b93af2123a,
supermarket,Kios,KIOS AZRIEL,"GW8X+8HX, Karya Indah, Kec. Buntulia, Kabupaten Pohuwato, Gorontalo","Kabupaten Pohuwato, Gorontalo",GORONTALO,,Indonesia,85341391268.0,,,0.5158507,1.219.489.772,https://maps.google.com/?cid=0x0:0x8c13a36bcdd141dc,
supermarket,Toko Swalayan,Toko Renad,"FX84+RVF, Jl. Trans-Sulawesi, Teratai, Kec. Marisa, Kabupaten Pohuwato, Gorontalo 96265","Jl. Trans-Sulawesi, Teratai, Kec. Marisa, Kabupaten Pohuwato",GORONTALO,96265.0,Indonesia,82190011899.0,,,0.4670597,1.219.571.767,https://maps.google.com/?cid=0x0:0xcbfafe4dc69e43c3,
supermarket,Pusat Perbelanjaan,Toko Nian Top Sandi,"FW8W+6R2, Jl. Jend. Sudirman, Palopo, Kec. Marisa, Kabupaten Pohuwato, Gorontalo 96265","Jl. Jend. Sudirman, Palopo, Kec. Marisa, Kabupaten Pohuwato",GORONTALO,96265.0,Indonesia,81243799984.0,,,0.465505,1.219.470.292,https://maps.google.com/?cid=0x0:0x797f32ce72822eb9,
supermarket,Toko bahan makanan,ASRIEL MART,"FWQC+Q4Q, Duhiadaa, Kec. Duhiadaa, Kabupaten Pohuwato, Gorontalo 96466","Duhiadaa, Kec. Duhiadaa, Kabupaten Pohuwato",GORONTALO,96466.0,Indonesia,82348176166.0,,,0.4894583,1.219.203.659,https://maps.google.com/?cid=0x0:0x9d534cc2b342d93a,
supermarket,Minimarket,Indomaret | Taluduyunu,"Jl. Trans-Sulawesi No.196, Buntulia Utara, Kec. Buntulia, Kabupaten Pohuwato, Gorontalo 96466","Buntulia Utara, Kec. Buntulia, Kabupaten Pohuwato",GORONTALO,96466.0,Indonesia,81322558822.0,,,0.5001889,1.219.354.878,https://maps.google.com/?cid=0x0:0xe8a3e7f856d50fd0,
supermarket,Toko bahan makanan,toko serba murah,"Botubilotahu Indah, Kec. Marisa, Kabupaten Pohuwato, Gorontalo 96466","Kec. Marisa, Kabupaten Pohuwato",GORONTALO,96466.0,Indonesia,,,,0.4805215,1.219.349.837,https://maps.google.com/?cid=0x0:0x2f3f5ee575d0f5f6,
supermarket,Toko bahan makanan,SRC Lolinda,"GV3F+2HW, Manawa, Kec. Patilanggio, Kabupaten Pohuwato, Gorontalo 96266","Manawa, Kec. Patilanggio, Kabupaten Pohuwato",GORONTALO,96266.0,Indonesia,,,,0.5026246,1.218.739.471,https://maps.google.com/?cid=0x0:0x1cfd2e924bde4036,
supermarket,Toko bahan makanan,Toko aneka ria,"GRJ8+HF3, pasar, Kec. Randangan, Kabupaten Pohuwato, Gorontalo 96469","pasar, Kec. Randangan, Kabupaten Pohuwato",GORONTALO,96469.0,Indonesia,,,,0.531392,1.218.161.598,https://maps.google.com/?cid=0x0:0xefb7757d423e1f1e,
supermarket,Minimarket,kIos UNI,"FWJG+349, Sipatana, Kec. Buntulia, Kabupaten Pohuwato, Gorontalo 96466","Sipatana, Kec. Buntulia, Kabupaten Pohuwato",GORONTALO,96466.0,Indonesia,,,,0.4798116,1.219.249.216,https://maps.google.com/?cid=0x0:0xb891cbbafda46fa7,
supermarket,Toko,Kios Arni,"FXCR+424, Jl. Trans-Sulawesi, Maleo, Kec. Paguat, Kabupaten Pohuwato, Gorontalo 96265","Jl. Trans-Sulawesi, Maleo, Kec. Paguat, Kabupaten Pohuwato",GORONTALO,96265.0,Indonesia,85298860788.0,,,0.4702517,1.219.900.905,https://maps.google.com/?cid=0x0:0x879e4a1f93c8c647,
supermarket,Minimarket,Gorontalo,"FWFJ+4HQ, Buntulia Jaya, Kec. Duhiadaa, Kabupaten Pohuwato, Gorontalo","Kabupaten Pohuwato, Gorontalo",GORONTALO,,Indonesia,,,,0.4728269,1.219.314.792,https://maps.google.com/?cid=0x0:0xf1a01c34c665c0ac,
supermarket,Toko,Toko SINAR-F2,"FWHH+X3H, Buntulia Jaya, Kec. Duhiadaa, Kabupaten Pohuwato, Gorontalo 96466","Buntulia Jaya, Kec. Duhiadaa, Kabupaten Pohuwato",GORONTALO,96466.0,Indonesia,85240402756.0,,,0.4799349,121.927.719,https://maps.google.com/?cid=0x0:0xc70735c00a9eae35,
supermarket,Toko Swalayan,KIOS PRIMAVERA,"FWJP+X8M, Jl. Trans-Sulawesi, Buntulia Tengah, Kec. Buntulia, Kabupaten Pohuwato, Gorontalo 96466","Jl. Trans-Sulawesi, Buntulia Tengah, Kec. Buntulia, Kabupaten Pohuwato",GORONTALO,96466.0,Indonesia,,,,0.4824503,1.219.358.043,https://maps.google.com/?cid=0x0:0xa29c3c29054cf0c5,
supermarket,supermarket,Gorontalo 96265,"Kabupaten Pohuwato, Gorontalo","Kabupaten Pohuwato, Gorontalo",GORONTALO,,Indonesia,,,,0.6708114,1.220.382.856,https://maps.google.com/?cid=0x0:0xc7ddf273e46e561,
supermarket,Toko Swalayan,DD Mart,"FW8W+5Q5, Palopo, Kec. Marisa, Kabupaten Pohuwato, Gorontalo 96265","Palopo, Kec. Marisa, Kabupaten Pohuwato",GORONTALO,96265.0,Indonesia,,,,0.4653779,1.219.469.963,https://maps.google.com/?cid=0x0:0x3304f1aeac37b791,
supermarket,Toko,Sukses Gemilang Mart,"FWCJ+GHQ, Jl. Trans-Sulawesi, Buntulia Sel., Kec. Duhiadaa, Kabupaten Pohuwato, Gorontalo 96266","Jl. Trans-Sulawesi, Buntulia Sel., Kec. Duhiadaa, Kabupaten Pohuwato",GORONTALO,96266.0,Indonesia,,,,0.4713316,1.219.314.959,https://maps.google.com/?cid=0x0:0xf6e1df4d72088678,
supermarket,Toko bahan makanan,Marisa Mart M2,"FW9M+23F, Jl. Trans-Sulawesi, Marisa Utara, Kec. Marisa, Kabupaten Pohuwato, Gorontalo 96266","Jl. Trans-Sulawesi, Marisa Utara, Kec. Marisa, Kabupaten Pohuwato",GORONTALO,96266.0,Indonesia,,,,0.467574,1.219.326.754,https://maps.google.com/?cid=0x0:0x9dd1696da0282af3,
supermarket,Pusat Perbelanjaan,Toko Nian Top Sandi,"FW8W+6R2, Jl. Jend. Sudirman, Palopo, Kec. Marisa, Kabupaten Pohuwato, Gorontalo 96265","Jl. Jend. Sudirman, Palopo, Kec. Marisa, Kabupaten Pohuwato",GORONTALO,96265.0,Indonesia,81243799984.0,,,0.465505,1.219.470.292,https://maps.google.com/?cid=0x0:0x797f32ce72822eb9,
supermarket,Komplek perumahan,Dusun mopanggelo desa popaya kec dengilo,"G3FP+6MQ, Popaya, Kec. Dengilo, Kabupaten Pohuwato, Gorontalo 96265","Popaya, Kec. Dengilo, Kabupaten Pohuwato",GORONTALO,96265.0,Indonesia,,,,0.523733,122.087.906,https://maps.google.com/?cid=0x0:0xdba847afd48f0286,
supermarket,Toko,ARWANA SWALAYAN,"FWCJ+JFR, Buntulia Sel., Kec. Duhiadaa, Kabupaten Pohuwato, Gorontalo 96266","Buntulia Sel., Kec. Duhiadaa, Kabupaten Pohuwato",GORONTALO,96266.0,Indonesia,,,,0.4716176,1.219.311.261,https://maps.google.com/?cid=0x0:0x7e2b5b1b41a4e662,
supermarket,Toko bahan makanan,ASRIEL MART,"FWQC+Q4Q, Duhiadaa, Kec. Duhiadaa, Kabupaten Pohuwato, Gorontalo 96466","Duhiadaa, Kec. Duhiadaa, Kabupaten Pohuwato",GORONTALO,96466.0,Indonesia,82348176166.0,,,0.4894583,1.219.203.659,https://maps.google.com/?cid=0x0:0x9d534cc2b342d93a,
supermarket,Toko bahan makanan,Toko Sabass,"Palopo, Kec. Marisa, Kabupaten Pohuwato, Gorontalo 96265","Kec. Marisa, Kabupaten Pohuwato",GORONTALO,96265.0,Indonesia,,,,0.4668698,1.219.476.455,https://maps.google.com/?cid=0x0:0x880db9ae49a9ca90,
supermarket,Toko Swalayan,Toko Renad,"FX84+RVF, Jl. Trans-Sulawesi, Teratai, Kec. Marisa, Kabupaten Pohuwato, Gorontalo 96265","Jl. Trans-Sulawesi, Teratai, Kec. Marisa, Kabupaten Pohuwato",GORONTALO,96265.0,Indonesia,82190011899.0,,,0.4670597,1.219.571.767,https://maps.google.com/?cid=0x0:0xcbfafe4dc69e43c3,
supermarket,Minimarket,Toko Sasa,"F3Q9+VH8, Siduan, Kec. Paguat, Kabupaten Pohuwato, Gorontalo 96265","Siduan, Kec. Paguat, Kabupaten Pohuwato",GORONTALO,96265.0,Indonesia,,,,0.4896569,1.220.689.514,https://maps.google.com/?cid=0x0:0xa7036525cb88a68a,
supermarket,,Kios Felly,"Sipatana, Kec. Duhiadaa, Kabupaten Pohuwato, Gorontalo 96466","Kec. Duhiadaa, Kabupaten Pohuwato",GORONTALO,96466.0,Indonesia,82291427778.0,,,0.4842201,1.219.239.501,https://maps.google.com/?cid=0x0:0x29b0343be91be296,
supermarket,Toko bahan makanan,toko serba murah,"Botubilotahu Indah, Kec. Marisa, Kabupaten Pohuwato, Gorontalo 96466","Kec. Marisa, Kabupaten Pohuwato",GORONTALO,96466.0,Indonesia,,,,0.4805215,1.219.349.837,https://maps.google.com/?cid=0x0:0x2f3f5ee575d0f5f6,
supermarket,Toko bahan makanan,SRC ELFA,"FX85+PGV, Jl. Trans-Sulawesi, Teratai, Kec. Marisa, Kabupaten Pohuwato, Gorontalo 96265","Jl. Trans-Sulawesi, Teratai, Kec. Marisa, Kabupaten Pohuwato",GORONTALO,96265.0,Indonesia,85298197665.0,,,0.4668749,1.219.587.867,https://maps.google.com/?cid=0x0:0xc0ae2361bb51a750,
supermarket,Toko,Toko SINAR-F2,"FWHH+X3H, Buntulia Jaya, Kec. Duhiadaa, Kabupaten Pohuwato, Gorontalo 96466","Buntulia Jaya, Kec. Duhiadaa, Kabupaten Pohuwato",GORONTALO,96466.0,Indonesia,85240402756.0,,,0.4799349,121.927.719,https://maps.google.com/?cid=0x0:0xc70735c00a9eae35,
supermarket,Toko Swalayan,Sakana,"F3WG+MMW, Jl. Trans-Sulawesi, Bunuyo, Kec. Paguat, Kabupaten Pohuwato, Gorontalo 96265","Jl. Trans-Sulawesi, Bunuyo, Kec. Paguat, Kabupaten Pohuwato",GORONTALO,96265.0,Indonesia,82215525214.0,,,0.4967436,1.220.766.881,https://maps.google.com/?cid=0x0:0x13957c20c1dcd231,
supermarket,Dapur Umum,UD. AZKIA,"Teratai, Kec. Marisa, Kabupaten Pohuwato, Gorontalo 96265","Kec. Marisa, Kabupaten Pohuwato",GORONTALO,96265.0,Indonesia,81343675005.0,,,0.4782698,1.219.481.005,https://maps.google.com/?cid=0x0:0x35f04b7941b7bb1a,
supermarket,Toko,Toko chindy,"Padengo, Kec. Duhiadaa, Kabupaten Pohuwato, Gorontalo 96266","Kec. Duhiadaa, Kabupaten Pohuwato",GORONTALO,96266.0,Indonesia,85340323038.0,,,0.5007191,1.218.980.681,https://maps.google.com/?cid=0x0:0x208eb2b20f2d576f,
supermarket,Minimarket,ELL KIOS,"Perumahan Swadaya Indah, Botubilotahu Indah, Kec. Marisa, Kabupaten Pohuwato, Gorontalo 96266","Botubilotahu Indah, Kec. Marisa, Kabupaten Pohuwato",GORONTALO,96266.0,Indonesia,81241369039.0,,,0.4883286,1.219.387.783,https://maps.google.com/?cid=0x0:0xfdfec8882fcbef4a,
supermarket,Toko Daging,JUAL AYAM PEDAGING,"FW5R+W86, Jl. Diponegoro, Marisa Sel., Kec. Marisa, Kabupaten Pohuwato, Gorontalo 96265","Jl. Diponegoro, Marisa Sel., Kec. Marisa, Kabupaten Pohuwato",GORONTALO,96265.0,Indonesia,82260505927.0,,,0.459792,121.940.754,https://maps.google.com/?cid=0x0:0xc3b789667a787377,
supermarket,Minimarket,Toko Aurel,"F3MG+G6W, Pentadu, Kec. Paguat, Kabupaten Pohuwato, Gorontalo 96265","Pentadu, Kec. Paguat, Kabupaten Pohuwato",GORONTALO,96265.0,Indonesia,82259872120.0,,,0.4838741,1.220.755.747,https://maps.google.com/?cid=0x0:0xfb2e82478356bc02,
supermarket,Toko Perabot Supermarket,Warung Dinda,"FWCV+M88, Teratai, Kec. Marisa, Kabupaten Pohuwato, Gorontalo 96265","Teratai, Kec. Marisa, Kabupaten Pohuwato",GORONTALO,96265.0,Indonesia,82290108973.0,,,0.4716601,1.219.433.237,https://maps.google.com/?cid=0x0:0x19d95be2d31499d4,
supermarket,Toko Aksesori Ponsel,Aksesoris Hape Pohuwato,"FW3Q+2FG, Pohuwato Tim., Kec. Marisa, Kabupaten Pohuwato, Gorontalo 96265","Pohuwato Tim., Kec. Marisa, Kabupaten Pohuwato",GORONTALO,96265.0,Indonesia,82292904494.0,,,0.4525631,1.219.387.076,https://maps.google.com/?cid=0x0:0xffb3c6017fdcf4bb,
supermarket,Toko,Kios Arni,"FXCR+424, Jl. Trans-Sulawesi, Maleo, Kec. Paguat, Kabupaten Pohuwato, Gorontalo 96265","Jl. Trans-Sulawesi, Maleo, Kec. Paguat, Kabupaten Pohuwato",GORONTALO,96265.0,Indonesia,85298860788.0,,,0.4702517,1.219.900.905,https://maps.google.com/?cid=0x0:0x879e4a1f93c8c647,
supermarket,Toko Alat Listrik,Toko Kuning Marisa Gorontalo,"FW7P+9C6, Jl. pelabuhan, Bulili, Kec. Duhiadaa, Kabupaten Pohuwato, Gorontalo 96265","Jl. pelabuhan, Bulili, Kec. Duhiadaa, Kabupaten Pohuwato",GORONTALO,96265.0,Indonesia,82293417099.0,,,0.4634186,121.936.021,https://maps.google.com/?cid=0x0:0x87754bd58c4ba2bd,
supermarket,Minimarket,Alfamart Mananggu Boalemo,"Jl. Trans-Sulawesi, Tabulo, Kec. Mananggu, Kab. Boalemo, Gorontalo 96265","Tabulo, Kec. Mananggu, Kab. Boalemo",GORONTALO,96265.0,Indonesia,1500959.0,,,0.5051494,1.221.415.757,https://maps.google.com/?cid=0x0:0xa6179a43159f0605,
supermarket,Toko Swalayan,Kios maya,"FWPC+PX8, Jl. Kolonisasi, Sipatana, Kec. Buntulia, Kabupaten Pohuwato, Gorontalo 96466","Jl. Kolonisasi, Sipatana, Kec. Buntulia, Kabupaten Pohuwato",GORONTALO,96466.0,Indonesia,,,,0.4867853,1.219.224.417,https://maps.google.com/?cid=0x0:0xa01b63127e95f226,
supermarket,Toko Percetakan,Percetakan undangan kekinian dan MURAAHHH,"FW3Q+3G2, Pohuwato Tim., Kec. Marisa, Kabupaten Pohuwato, Gorontalo 96265","Pohuwato Tim., Kec. Marisa, Kabupaten Pohuwato",GORONTALO,96265.0,Indonesia,82292904494.0,,,0.4526275,1.219.387.726,https://maps.google.com/?cid=0x0:0x6b09f8066b2877f5,
supermarket,Minimarket,Kios Nur,"Jl. Kolonisasi, Sipatana, Kec. Buntulia, Kabupaten Pohuwato, Gorontalo 96466","Sipatana, Kec. Buntulia, Kabupaten Pohuwato",GORONTALO,96466.0,Indonesia,82199223251.0,,,0.4851317,1.219.203.988,https://maps.google.com/?cid=0x0:0xecc9c06bf2a54503,
supermarket,supermarket,Gorontalo 96266,"Kabupaten Pohuwato, Gorontalo","Kabupaten Pohuwato, Gorontalo",GORONTALO,,Indonesia,,,,0.6235288,1.218.790.306,https://maps.google.com/?cid=0x0:0x6e323a18714b4718,
supermarket,Minimarket,Indomaret Duhiadaa,"FWPC+WP3, Sipatana, Kec. Buntulia, Kabupaten Pohuwato, Gorontalo 96466","Sipatana, Kec. Buntulia, Kabupaten Pohuwato",GORONTALO,96466.0,Indonesia,,,,0.486441,1.219.224.294,https://maps.google.com/?cid=0x0:0x32dc78b93af2123a,
supermarket,Toko bahan makanan,ASRIEL MART,"FWQC+Q4Q, Duhiadaa, Kec. Duhiadaa, Kabupaten Pohuwato, Gorontalo 96466","Duhiadaa, Kec. Duhiadaa, Kabupaten Pohuwato",GORONTALO,96466.0,Indonesia,82348176166.0,,,0.4894583,1.219.203.659,https://maps.google.com/?cid=0x0:0x9d534cc2b342d93a,
supermarket,Minimarket,Gorontalo,"FWFJ+4HQ, Buntulia Jaya, Kec. Duhiadaa, Kabupaten Pohuwato, Gorontalo","Kabupaten Pohuwato, Gorontalo",GORONTALO,,Indonesia,,,,0.4728269,1.219.314.792,https://maps.google.com/?cid=0x0:0xf1a01c34c665c0ac,
supermarket,Toko Swalayan,Swalayan Dhidi Mart,"RWM9+27G, Titidu, Kec. Kwandang, Kabupaten Gorontalo Utara, Gorontalo 96252","Titidu, Kec. Kwandang, Kabupaten Gorontalo Utara",GORONTALO,96252.0,Indonesia,,,,0.8325745,1.229.181.882,https://maps.google.com/?cid=0x0:0xdebd6c0cac984e65,
supermarket,Pusat Perbelanjaan,Muraa Supermarket Gorontalo,"Bulila, Kec. Telaga, Kabupaten Gorontalo, Gorontalo 96138","Kec. Telaga, Kabupaten Gorontalo",GORONTALO,96138.0,Indonesia,,,,0.5786076,1.230.445.856,https://maps.google.com/?cid=0x0:0x694a290777d48599,
supermarket,Toko,Toko ALAN,"FW9M+325, Buntulia Sel., Kec. Duhiadaa, Kabupaten Pohuwato, Gorontalo 96266","Buntulia Sel., Kec. Duhiadaa, Kabupaten Pohuwato",GORONTALO,96266.0,Indonesia,85211886336.0,,,0.4676377,1.219.326.109,https://maps.google.com/?cid=0x0:0xb5bce050899f5294,
supermarket,supermarket,Kec. Duhiadaa,"Kabupaten Pohuwato, Gorontalo","Kabupaten Pohuwato, Gorontalo",GORONTALO,,Indonesia,,,,0.4727472,1.219.315.071,https://maps.google.com/?cid=0x0:0x4f9e976d482b115f,
supermarket,Toko bahan makanan,Marisa Mart M2,"FW9M+23F, Jl. Trans-Sulawesi, Marisa Utara, Kec. Marisa, Kabupaten Pohuwato, Gorontalo 96266","Jl. Trans-Sulawesi, Marisa Utara, Kec. Marisa, Kabupaten Pohuwato",GORONTALO,96266.0,Indonesia,,,,0.467574,1.219.326.754,https://maps.google.com/?cid=0x0:0x9dd1696da0282af3,
supermarket,Toko Swalayan,DD Mart,"FW8W+5Q5, Palopo, Kec. Marisa, Kabupaten Pohuwato, Gorontalo 96265","Palopo, Kec. Marisa, Kabupaten Pohuwato",GORONTALO,96265.0,Indonesia,,,,0.4653779,1.219.469.963,https://maps.google.com/?cid=0x0:0x3304f1aeac37b791,
supermarket,Toko bahan makanan,TOKO SINAR CAHAYA,"FWGJ+6V5, Buntulia Jaya, Kec. Duhiadaa, Kabupaten Pohuwato, Gorontalo 96466","Buntulia Jaya, Kec. Duhiadaa, Kabupaten Pohuwato",GORONTALO,96466.0,Indonesia,,,,0.475522,1.219.322.345,https://maps.google.com/?cid=0x0:0x7b7cefd9c1889f5,
supermarket,Toko bahan makanan,toko serba murah,"Botubilotahu Indah, Kec. Marisa, Kabupaten Pohuwato, Gorontalo 96466","Kec. Marisa, Kabupaten Pohuwato",GORONTALO,96466.0,Indonesia,,,,0.4805215,1.219.349.837,https://maps.google.com/?cid=0x0:0x2f3f5ee575d0f5f6,
supermarket,Pusat Perbelanjaan,Toko Nian Top Sandi,"FW8W+6R2, Jl. Jend. Sudirman, Palopo, Kec. Marisa, Kabupaten Pohuwato, Gorontalo 96265","Jl. Jend. Sudirman, Palopo, Kec. Marisa, Kabupaten Pohuwato",GORONTALO,96265.0,Indonesia,81243799984.0,,,0.465505,1.219.470.292,https://maps.google.com/?cid=0x0:0x797f32ce72822eb9,
supermarket,Toko Swalayan,Toko Renad,"FX84+RVF, Jl. Trans-Sulawesi, Teratai, Kec. Marisa, Kabupaten Pohuwato, Gorontalo 96265","Jl. Trans-Sulawesi, Teratai, Kec. Marisa, Kabupaten Pohuwato",GORONTALO,96265.0,Indonesia,82190011899.0,,,0.4670597,1.219.571.767,https://maps.google.com/?cid=0x0:0xcbfafe4dc69e43c3,
supermarket,Toko bahan makanan,SRC Lolinda,"GV3F+2HW, Manawa, Kec. Patilanggio, Kabupaten Pohuwato, Gorontalo 96266","Manawa, Kec. Patilanggio, Kabupaten Pohuwato",GORONTALO,96266.0,Indonesia,,,,0.5026246,1.218.739.471,https://maps.google.com/?cid=0x0:0x1cfd2e924bde4036,
supermarket,Toko Swalayan,Kios maya,"FWPC+PX8, Jl. Kolonisasi, Sipatana, Kec. Buntulia, Kabupaten Pohuwato, Gorontalo 96466","Jl. Kolonisasi, Sipatana, Kec. Buntulia, Kabupaten Pohuwato",GORONTALO,96466.0,Indonesia,,,,0.4867853,1.219.224.417,https://maps.google.com/?cid=0x0:0xa01b63127e95f226,
supermarket,Minimarket,Kios Nur,"Jl. Kolonisasi, Sipatana, Kec. Buntulia, Kabupaten Pohuwato, Gorontalo 96466","Sipatana, Kec. Buntulia, Kabupaten Pohuwato",GORONTALO,96466.0,Indonesia,82199223251.0,,,0.4851317,1.219.203.988,https://maps.google.com/?cid=0x0:0xecc9c06bf2a54503,
supermarket,Minimarket,Warung sembako,"FWHH+R7G, Dusun mustika 2, Buntulia Jaya, Kec. Duhiadaa, Kabupaten Pohuwato, Gorontalo 96466","Dusun mustika 2, Buntulia Jaya, Kec. Duhiadaa, Kabupaten Pohuwato",GORONTALO,96466.0,Indonesia,,,,0.4795747,1.219.282.123,https://maps.google.com/?cid=0x0:0x33d3dc313bfbbd99,
supermarket,Toko Perabot Supermarket,Warung Dinda,"FWCV+M88, Teratai, Kec. Marisa, Kabupaten Pohuwato, Gorontalo 96265","Teratai, Kec. Marisa, Kabupaten Pohuwato",GORONTALO,96265.0,Indonesia,82290108973.0,,,0.4716601,1.219.433.237,https://maps.google.com/?cid=0x0:0x19d95be2d31499d4,
supermarket,Toko Aksesori Ponsel,Aksesoris Hape Pohuwato,"FW3Q+2FG, Pohuwato Tim., Kec. Marisa, Kabupaten Pohuwato, Gorontalo 96265","Pohuwato Tim., Kec. Marisa, Kabupaten Pohuwato",GORONTALO,96265.0,Indonesia,82292904494.0,,,0.4525631,1.219.387.076,https://maps.google.com/?cid=0x0:0xffb3c6017fdcf4bb,
supermarket,Toko Daging,JUAL AYAM PEDAGING,"FW5R+W86, Jl. Diponegoro, Marisa Sel., Kec. Marisa, Kabupaten Pohuwato, Gorontalo 96265","Jl. Diponegoro, Marisa Sel., Kec. Marisa, Kabupaten Pohuwato",GORONTALO,96265.0,Indonesia,82260505927.0,,,0.459792,121.940.754,https://maps.google.com/?cid=0x0:0xc3b789667a787377,
supermarket,supermarket,Toko Sudut Indah,"FW9J+4FM, Marisa Utara, Kec. Marisa, Kabupaten Pohuwato, Gorontalo 96266","Marisa Utara, Kec. Marisa, Kabupaten Pohuwato",GORONTALO,96266.0,Indonesia,,,,0.4678267,1.219.311.666,https://maps.google.com/?cid=0x0:0xde214da6d3d7236a,
supermarket,Toko Percetakan,Percetakan undangan kekinian dan MURAAHHH,"FW3Q+3G2, Pohuwato Tim., Kec. Marisa, Kabupaten Pohuwato, Gorontalo 96265","Pohuwato Tim., Kec. Marisa, Kabupaten Pohuwato",GORONTALO,96265.0,Indonesia,82292904494.0,,,0.4526275,1.219.387.726,https://maps.google.com/?cid=0x0:0x6b09f8066b2877f5,
supermarket,Toko,ARWANA SWALAYAN,"FWCJ+JFR, Buntulia Sel., Kec. Duhiadaa, Kabupaten Pohuwato, Gorontalo 96266","Buntulia Sel., Kec. Duhiadaa, Kabupaten Pohuwato",GORONTALO,96266.0,Indonesia,,,,0.4716176,1.219.311.261,https://maps.google.com/?cid=0x0:0x7e2b5b1b41a4e662,
supermarket,Toko,Sukses Gemilang Mart,"FWCJ+GHQ, Jl. Trans-Sulawesi, Buntulia Sel., Kec. Duhiadaa, Kabupaten Pohuwato, Gorontalo 96266","Jl. Trans-Sulawesi, Buntulia Sel., Kec. Duhiadaa, Kabupaten Pohuwato",GORONTALO,96266.0,Indonesia,,,,0.4713316,1.219.314.959,https://maps.google.com/?cid=0x0:0xf6e1df4d72088678,
supermarket,Toko,Toko SINAR-F2,"FWHH+X3H, Buntulia Jaya, Kec. Duhiadaa, Kabupaten Pohuwato, Gorontalo 96466","Buntulia Jaya, Kec. Duhiadaa, Kabupaten Pohuwato",GORONTALO,96466.0,Indonesia,85240402756.0,,,0.4799349,121.927.719,https://maps.google.com/?cid=0x0:0xc70735c00a9eae35,
supermarket,,Kios Felly,"Sipatana, Kec. Duhiadaa, Kabupaten Pohuwato, Gorontalo 96466","Kec. Duhiadaa, Kabupaten Pohuwato",GORONTALO,96466.0,Indonesia,82291427778.0,,,0.4842201,1.219.239.501,https://maps.google.com/?cid=0x0:0x29b0343be91be296,
supermarket,Toko bahan makanan,Jufrin hentuma,"GV5V+F86, Mekar Jaya, Kec. Duhiadaa, Kabupaten Pohuwato, Gorontalo 96266","Mekar Jaya, Kec. Duhiadaa, Kabupaten Pohuwato",GORONTALO,96266.0,Indonesia,82188321644.0,,,0.5086649,1.218.932.592,https://maps.google.com/?cid=0x0:0xed34b7c6f3a8d743,
supermarket,supermarket,Toko Aneka Jaya Grosir,"FWGJ+JXG, Jl. Trans-Sulawesi, Buntulia Jaya, Kec. Duhiadaa, Kabupaten Pohuwato, Gorontalo","Kabupaten Pohuwato, Gorontalo",GORONTALO,,Indonesia,85256841989.0,,,0.476574,1.219.324.626,https://maps.google.com/?cid=0x0:0x7b96ac0861c631e,
supermarket,supermarket,Gorontalo 96468,"Kec. Lemito, Kabupaten Pohuwato, Gorontalo","Kabupaten Pohuwato, Gorontalo",GORONTALO,,Indonesia,,,,0.7390376,1.215.826.642,https://maps.google.com/?cid=0x0:0xbcbfbe464a8e6a55,
supermarket,Toko,Toko Isbel Mart Grosir Popayato,"GF9M+8PC, Maleo, Kec. Popayato Tim., Kabupaten Pohuwato, Gorontalo 96467","Maleo, Kec. Popayato Tim., Kabupaten Pohuwato",GORONTALO,96467.0,Indonesia,,,,0.5183182,1.214.842.776,https://maps.google.com/?cid=0x0:0xe88255cde0feaad4,
supermarket,Toko umum,Kios Melinda,"HJ53+VFQ, Jl. Trans-Sulawesi, Wonggarasi Tengah, Kec. Lemito, Kabupaten Pohuwato, Gorontalo 96468","Jl. Trans-Sulawesi, Wonggarasi Tengah, Kec. Lemito, Kabupaten Pohuwato",GORONTALO,96468.0,Indonesia,,,,0.5597192,1.216.037.434,https://maps.google.com/?cid=0x0:0x21c9bf0eb95f3812,
supermarket,supermarket,Rumah Jaya,"GHQ9+VFM, Lemito, Kec. Lemito, Kabupaten Pohuwato, Gorontalo 96468","Lemito, Kec. Lemito, Kabupaten Pohuwato",GORONTALO,96468.0,Indonesia,,,,0.5400042,1.215.687.381,https://maps.google.com/?cid=0x0:0x75cbdf76270af797,
supermarket,Restoran,Warung Rempah,"GHVF+P69, Lemito Utara, Kec. Lemito, Kabupaten Pohuwato, Gorontalo 96468","Lemito Utara, Kec. Lemito, Kabupaten Pohuwato",GORONTALO,96468.0,Indonesia,85298666134.0,,,0.5442831,1.215.731.004,https://maps.google.com/?cid=0x0:0x40b6226221e7f8f6,
supermarket,Toko,Queen Mart,"Panca Karsa I, Kec. Taluditi, Kabupaten Pohuwato, Gorontalo 96469","Kec. Taluditi, Kabupaten Pohuwato",GORONTALO,96469.0,Indonesia,82195600600.0,,,0.6082168,1.218.056.701,https://maps.google.com/?cid=0x0:0x780f1616b076c060,
supermarket,Toko,Muraa Supermarket Gorontalo 2,"Jl. Kalimantan No.94, Dulalowo Tim., Kec. Kota Tengah, Kota Gorontalo, Gorontalo 96138","Dulalowo Tim., Kec. Kota Tengah, Kota Gorontalo",GORONTALO,96138.0,Indonesia,,,,0.5600187,1.230.567.167,https://maps.google.com/?cid=0x0:0x3f600202ab0d158e,
supermarket,Toko bahan makanan,OLAMi mart,"Dusun Tugu, Pancasila, Kec. Dengilo, Kabupaten Pohuwato, Gorontalo 96265","Pancasila, Kec. Dengilo, Kabupaten Pohuwato",GORONTALO,96265.0,Indonesia,81357354316.0,,,0.5270283,1.220.904.404,https://maps.google.com/?cid=0x0:0x3256c068e6934688,
supermarket,Pusat Perbelanjaan,Q-Mart Super Store,"Jl. Kalimantan No.94, Dulalowo Tim., Kec. Kota Tengah, Kota Gorontalo, Gorontalo 96138","Dulalowo Tim., Kec. Kota Tengah, Kota Gorontalo",GORONTALO,96138.0,Indonesia,435834318.0,,,0.5663315,1.230.421.559,https://maps.google.com/?cid=0x0:0xa31fb94e230fb4cf,
supermarket,Masjid,SALAFIYAH MART,"JL. KH. ABDUL GHOFIR NAWAWI.MA, No 111, Dusun IV, Banuroja, Kec. Randangan, Kabupaten Pohuwato, Gorontalo 96469","No 111, Dusun IV, Banuroja, Kec. Randangan, Kabupaten Pohuwato",GORONTALO,96469.0,Indonesia,81244181111.0,,,0.5474566,1.217.905.476,https://maps.google.com/?cid=0x0:0x8e92e83f000e2e3,
supermarket,Toko,Arshyla- minimarket,"Panca Karsa I, Kec. Taluditi, Kabupaten Pohuwato, Gorontalo 96469","Kec. Taluditi, Kabupaten Pohuwato",GORONTALO,96469.0,Indonesia,,,,0.6092982,1.218.063.936,https://maps.google.com/?cid=0x0:0x6a5f9b7e4ce22a52,
supermarket,Toko bahan makanan,KIOS Putri,"HJ63+257, Jl. Trans-Sulawesi, Wonggarasi Tengah, Kec. Lemito, Kabupaten Pohuwato, Gorontalo 96468","Jl. Trans-Sulawesi, Wonggarasi Tengah, Kec. Lemito, Kabupaten Pohuwato",GORONTALO,96468.0,Indonesia,,,,0.5600811,1.216.024.248,https://maps.google.com/?cid=0x0:0xa21a81d35ad29a70,
supermarket,Toko,Warung Ibu Murni,"Jalan Trans, Panca Karsa I, Kec. Taluditi, Kabupaten Pohuwato, Gorontalo 96469","Panca Karsa I, Kec. Taluditi, Kabupaten Pohuwato",GORONTALO,96469.0,Indonesia,,,,0.5974285,1.218.000.405,https://maps.google.com/?cid=0x0:0x69c5bc3a173be025,
supermarket,Makanan Kecil,MOONFII CHICKEN,"GFJM+C4R, Tahele, Kec. Popayato Tim., Kabupaten Pohuwato, Gorontalo","Kabupaten Pohuwato, Gorontalo",GORONTALO,,Indonesia,81241839872.0,,,0.5311153,1.214.827.508,https://maps.google.com/?cid=0x0:0x7026de4feed3d473,
supermarket,Pusat Perbelanjaan,Agung Supermarket Kota Gorontalo,"G3W6+2V6, Jl. D.I. Panjaitan No.110, Limba U I, Kota Sel., Kota Gorontalo, Gorontalo 96135","Jl. D.I. Panjaitan No.110, Limba U I, Kota Sel., Kota Gorontalo",GORONTALO,96135.0,Indonesia,,,,0.544968,1.230.622.361,https://maps.google.com/?cid=0x0:0x9e7641346e022af1,
supermarket,Toko Perhiasan,Karsa Utama,"Jl. S. Parman No.45, Biawao, Kota Sel., Kota Gorontalo, Gorontalo 96133","Biawao, Kota Sel., Kota Gorontalo",GORONTALO,96133.0,Indonesia,,,,0.5364809,1.230.589.067,https://maps.google.com/?cid=0x0:0x1a7597bff92c0a71,
supermarket,Gudang,Batara,"GPJG+RFV, Jl. Trans-Sulawesi, Sidorukun, Kec. Randangan, Kabupaten Pohuwato, Gorontalo 96469","Jl. Trans-Sulawesi, Sidorukun, Kec. Randangan, Kabupaten Pohuwato",GORONTALO,96469.0,Indonesia,,,,0.5321133,1.217.261.659,https://maps.google.com/?cid=0x0:0xd2e13d0d87594bc1,
supermarket,Toko bahan makanan,Toko Ganesha,"Jl. Trans-Sulawesi, Motolohu, Kec. Randangan, Kabupaten Pohuwato, Gorontalo 69469","Motolohu, Kec. Randangan, Kabupaten Pohuwato",GORONTALO,69469.0,Indonesia,81357989214.0,,,0.5276916,1.218.091.371,https://maps.google.com/?cid=0x0:0xef40940b7df0e573,
supermarket,Toko,Pi Mart,"GRQ5+CP6, Randangan - Desa Taluditi, Manunggal Karya, Kec. Randangan, Kabupaten Pohuwato, Gorontalo 96469","Randangan - Desa Taluditi, Manunggal Karya, Kec. Randangan, Kabupaten Pohuwato",GORONTALO,96469.0,Indonesia,,,,0.5385366,1.218.092.546,https://maps.google.com/?cid=0x0:0xff7e6e4af1efe1c,
supermarket,Toko Pakaian,Toko Frozen Shopya,"JR25+P7R, Panca Karsa I, Kec. Taluditi, Kabupaten Pohuwato, Gorontalo","Kabupaten Pohuwato, Gorontalo",GORONTALO,,Indonesia,,,,0.601366,121.809.144,https://maps.google.com/?cid=0x0:0xe9fbe5164a5918a,
supermarket,Toko bahan makanan,Marisa Mart M2,"FW9M+23F, Jl. Trans-Sulawesi, Marisa Utara, Kec. Marisa, Kabupaten Pohuwato, Gorontalo 96266","Jl. Trans-Sulawesi, Marisa Utara, Kec. Marisa, Kabupaten Pohuwato",GORONTALO,96266.0,Indonesia,,,,0.467574,1.219.326.754,https://maps.google.com/?cid=0x0:0x9dd1696da0282af3,
supermarket,Toko Swalayan,DD Mart,"FW8W+5Q5, Palopo, Kec. Marisa, Kabupaten Pohuwato, Gorontalo 96265","Palopo, Kec. Marisa, Kabupaten Pohuwato",GORONTALO,96265.0,Indonesia,,,,0.4653779,1.219.469.963,https://maps.google.com/?cid=0x0:0x3304f1aeac37b791,
supermarket,supermarket,Kec. Marisa,"Kabupaten Pohuwato, Gorontalo","Kabupaten Pohuwato, Gorontalo",GORONTALO,,Indonesia,,,,0.4701607,121.958.687,https://maps.google.com/?cid=0x0:0xf18aaba667559ff0,
supermarket,Toko bahan makanan,toko serba murah,"Botubilotahu Indah, Kec. Marisa, Kabupaten Pohuwato, Gorontalo 96466","Kec. Marisa, Kabupaten Pohuwato",GORONTALO,96466.0,Indonesia,,,,0.4805215,1.219.349.837,https://maps.google.com/?cid=0x0:0x2f3f5ee575d0f5f6,
supermarket,Toko Swalayan,Toko Renad,"FX84+RVF, Jl. Trans-Sulawesi, Teratai, Kec. Marisa, Kabupaten Pohuwato, Gorontalo 96265","Jl. Trans-Sulawesi, Teratai, Kec. Marisa, Kabupaten Pohuwato",GORONTALO,96265.0,Indonesia,82190011899.0,,,0.4670597,1.219.571.767,https://maps.google.com/?cid=0x0:0xcbfafe4dc69e43c3,
supermarket,Toko,Sukses Gemilang Mart,"FWCJ+GHQ, Jl. Trans-Sulawesi, Buntulia Sel., Kec. Duhiadaa, Kabupaten Pohuwato, Gorontalo 96266","Jl. Trans-Sulawesi, Buntulia Sel., Kec. Duhiadaa, Kabupaten Pohuwato",GORONTALO,96266.0,Indonesia,,,,0.4713316,1.219.314.959,https://maps.google.com/?cid=0x0:0xf6e1df4d72088678,
supermarket,Seafood,lapak wong jombang,"Botubilotahu Indah, Kec. Marisa, Kabupaten Pohuwato, Gorontalo 96265","Kec. Marisa, Kabupaten Pohuwato",GORONTALO,96265.0,Indonesia,81231083030.0,,,0.4714804,1.219.378.406,https://maps.google.com/?cid=0x0:0x631690f23f6880f4,
supermarket,Dapur Umum,UD. AZKIA,"Teratai, Kec. Marisa, Kabupaten Pohuwato, Gorontalo 96265","Kec. Marisa, Kabupaten Pohuwato",GORONTALO,96265.0,Indonesia,81343675005.0,,,0.4782698,1.219.481.005,https://maps.google.com/?cid=0x0:0x35f04b7941b7bb1a,
supermarket,Minimarket,Indomaret Alun-alun Marisa,"FW8Q+Q4C, Marisa Sel., Kec. Marisa, Kabupaten Pohuwato, Gorontalo 96265","Marisa Sel., Kec. Marisa, Kabupaten Pohuwato",GORONTALO,96265.0,Indonesia,,,,0.4670649,1.219.377.359,https://maps.google.com/?cid=0x0:0x457eeec08e8e67d,
supermarket,Pusat Perbelanjaan,Toko Nian Top Sandi,"FW8W+6R2, Jl. Jend. Sudirman, Palopo, Kec. Marisa, Kabupaten Pohuwato, Gorontalo 96265","Jl. Jend. Sudirman, Palopo, Kec. Marisa, Kabupaten Pohuwato",GORONTALO,96265.0,Indonesia,81243799984.0,,,0.465505,1.219.470.292,https://maps.google.com/?cid=0x0:0x797f32ce72822eb9,
supermarket,Toko bahan makanan,KEYMART,"FW8X+QGG, Palopo, Kec. Marisa, Kabupaten Pohuwato, Gorontalo 96265","Palopo, Kec. Marisa, Kabupaten Pohuwato",GORONTALO,96265.0,Indonesia,81356101042.0,,,0.4669356,1.219.488.407,https://maps.google.com/?cid=0x0:0x6040f7ab9e832686,
supermarket,Toko,ARWANA SWALAYAN,"FWCJ+JFR, Buntulia Sel., Kec. Duhiadaa, Kabupaten Pohuwato, Gorontalo 96266","Buntulia Sel., Kec. Duhiadaa, Kabupaten Pohuwato",GORONTALO,96266.0,Indonesia,,,,0.4716176,1.219.311.261,https://maps.google.com/?cid=0x0:0x7e2b5b1b41a4e662,
supermarket,Toko Percetakan,Percetakan undangan kekinian dan MURAAHHH,"FW3Q+3G2, Pohuwato Tim., Kec. Marisa, Kabupaten Pohuwato, Gorontalo 96265","Pohuwato Tim., Kec. Marisa, Kabupaten Pohuwato",GORONTALO,96265.0,Indonesia,82292904494.0,,,0.4526275,1.219.387.726,https://maps.google.com/?cid=0x0:0x6b09f8066b2877f5,
supermarket,Toko Perabot Supermarket,Warung Dinda,"FWCV+M88, Teratai, Kec. Marisa, Kabupaten Pohuwato, Gorontalo 96265","Teratai, Kec. Marisa, Kabupaten Pohuwato",GORONTALO,96265.0,Indonesia,82290108973.0,,,0.4716601,1.219.433.237,https://maps.google.com/?cid=0x0:0x19d95be2d31499d4,
supermarket,Toko bahan makanan,WR.KOMPLEX,"FW6H+JW3, Unnamed Road, Marisa Sel., Kec. Marisa, Kabupaten Pohuwato, Gorontalo 96266","Unnamed Road, Marisa Sel., Kec. Marisa, Kabupaten Pohuwato",GORONTALO,96266.0,Indonesia,,,,0.4615036,1.219.298.047,https://maps.google.com/?cid=0x0:0x7d4b9f156bf8f346,
supermarket,Kantor Perusahaan,PT. Awet Sarana Sukses Marisa,"FWFX+FCV, Teratai, Kec. Marisa, Kabupaten Pohuwato, Gorontalo 96265","Teratai, Kec. Marisa, Kabupaten Pohuwato",GORONTALO,96265.0,Indonesia,,,,0.4737404,121.948.552,https://maps.google.com/?cid=0x0:0xcaf62a602904fa75,
supermarket,Toko Aksesori Ponsel,Aksesoris Hape Pohuwato,"FW3Q+2FG, Pohuwato Tim., Kec. Marisa, Kabupaten Pohuwato, Gorontalo 96265","Pohuwato Tim., Kec. Marisa, Kabupaten Pohuwato",GORONTALO,96265.0,Indonesia,82292904494.0,,,0.4525631,1.219.387.076,https://maps.google.com/?cid=0x0:0xffb3c6017fdcf4bb,
supermarket,Toko bahan makanan,Kios allifa mart,"Botubilotahu Indah, Kec. Marisa, Kabupaten Pohuwato, Gorontalo 96266","Kec. Marisa, Kabupaten Pohuwato",GORONTALO,96266.0,Indonesia,82210510051.0,,,0.4801085,1.219.443.893,https://maps.google.com/?cid=0x0:0xb5016359ff8bf727,
supermarket,Toko Alat Listrik,Toko Kuning Marisa Gorontalo,"FW7P+9C6, Jl. pelabuhan, Bulili, Kec. Duhiadaa, Kabupaten Pohuwato, Gorontalo 96265","Jl. pelabuhan, Bulili, Kec. Duhiadaa, Kabupaten Pohuwato",GORONTALO,96265.0,Indonesia,82293417099.0,,,0.4634186,121.936.021,https://maps.google.com/?cid=0x0:0x87754bd58c4ba2bd,
supermarket,Toko Perabot Supermarket,Rm warna warni,"FX23+62V, Pohuwato Tim., Kec. Marisa, Kabupaten Pohuwato, Gorontalo 96265","Pohuwato Tim., Kec. Marisa, Kabupaten Pohuwato",GORONTALO,96265.0,Indonesia,,,,0.451342,121.953.349,https://maps.google.com/?cid=0x0:0x39a2148d91e4ac3f,
supermarket,Toko bahan makanan,Toko Marisa Nasution,"Bojong Pd. Terong, Kec. Cipayung, Kota Depok, Jawa Barat","Kota Depok, Jawa Barat",GORONTALO,,Indonesia,,,,-64.323.528,106.803.019,https://maps.google.com/?cid=0x0:0x890e432c9e85dbaa,
supermarket,Minimarket,Marisa,"Pasar Rawamangun, Jl. Pegambiran, RT.9/RW.8, Rawamangun, Kec. Pulo Gadung, Kota Jakarta Timur, Daerah Khusus Ibukota Jakarta 13220","Jl. Pegambiran, RT.9/RW.8, Rawamangun, Kec. Pulo Gadung, Kota Jakarta Timur",GORONTALO,13220.0,Indonesia,85688831022.0,,,-61.984.852,106.889.563,https://maps.google.com/?cid=0x0:0x2915a1b0da67dc32,
supermarket,Toko bahan makanan,TOKO MARISA,"Gadog, Kec. Megamendung, Kabupaten Bogor, Jawa Barat","Kabupaten Bogor, Jawa Barat",GORONTALO,,Indonesia,,,,-66.627.847,1.068.708.593,https://maps.google.com/?cid=0x0:0x495b5f5fc848aad5,
supermarket,supermarket,Gorontalo 96466,"Kabupaten Pohuwato, Gorontalo","Kabupaten Pohuwato, Gorontalo",GORONTALO,,Indonesia,,,,0.5225929,121.918.866,https://maps.google.com/?cid=0x0:0x51b8962633bca4f,
supermarket,Toko bahan makanan,Marisa Mart M2,"FW9M+23F, Jl. Trans-Sulawesi, Marisa Utara, Kec. Marisa, Kabupaten Pohuwato, Gorontalo 96266","Jl. Trans-Sulawesi, Marisa Utara, Kec. Marisa, Kabupaten Pohuwato",GORONTALO,96266.0,Indonesia,,,,0.467574,1.219.326.754,https://maps.google.com/?cid=0x0:0x9dd1696da0282af3,
supermarket,Toko bahan makanan,toko serba murah,"Botubilotahu Indah, Kec. Marisa, Kabupaten Pohuwato, Gorontalo 96466","Kec. Marisa, Kabupaten Pohuwato",GORONTALO,96466.0,Indonesia,,,,0.4805215,1.219.349.837,https://maps.google.com/?cid=0x0:0x2f3f5ee575d0f5f6,
supermarket,Toko Swalayan,DD Mart,"FW8W+5Q5, Palopo, Kec. Marisa, Kabupaten Pohuwato, Gorontalo 96265","Palopo, Kec. Marisa, Kabupaten Pohuwato",GORONTALO,96265.0,Indonesia,,,,0.4653779,1.219.469.963,https://maps.google.com/?cid=0x0:0x3304f1aeac37b791,
supermarket,Toko bahan makanan,Toko Sabass,"Palopo, Kec. Marisa, Kabupaten Pohuwato, Gorontalo 96265","Kec. Marisa, Kabupaten Pohuwato",GORONTALO,96265.0,Indonesia,,,,0.4668698,1.219.476.455,https://maps.google.com/?cid=0x0:0x880db9ae49a9ca90,
supermarket,Seafood,lapak wong jombang,"Botubilotahu Indah, Kec. Marisa, Kabupaten Pohuwato, Gorontalo 96265","Kec. Marisa, Kabupaten Pohuwato",GORONTALO,96265.0,Indonesia,81231083030.0,,,0.4714804,1.219.378.406,https://maps.google.com/?cid=0x0:0x631690f23f6880f4,
supermarket,Minimarket,Indomaret Alun-alun Marisa,"FW8Q+Q4C, Marisa Sel., Kec. Marisa, Kabupaten Pohuwato, Gorontalo 96265","Marisa Sel., Kec. Marisa, Kabupaten Pohuwato",GORONTALO,96265.0,Indonesia,,,,0.4670649,1.219.377.359,https://maps.google.com/?cid=0x0:0x457eeec08e8e67d,
supermarket,Toko,ARWANA SWALAYAN,"FWCJ+JFR, Buntulia Sel., Kec. Duhiadaa, Kabupaten Pohuwato, Gorontalo 96266","Buntulia Sel., Kec. Duhiadaa, Kabupaten Pohuwato",GORONTALO,96266.0,Indonesia,,,,0.4716176,1.219.311.261,https://maps.google.com/?cid=0x0:0x7e2b5b1b41a4e662,
supermarket,Toko bahan makanan,ASRIEL MART,"FWQC+Q4Q, Duhiadaa, Kec. Duhiadaa, Kabupaten Pohuwato, Gorontalo 96466","Duhiadaa, Kec. Duhiadaa, Kabupaten Pohuwato",GORONTALO,96466.0,Indonesia,82348176166.0,,,0.4894583,1.219.203.659,https://maps.google.com/?cid=0x0:0x9d534cc2b342d93a,
supermarket,Toko bahan makanan,Kios Adi,"FWGM+RW2, Botubilotahu Indah, Kec. Marisa, Kabupaten Pohuwato, Gorontalo 96466","Botubilotahu Indah, Kec. Marisa, Kabupaten Pohuwato",GORONTALO,96466.0,Indonesia,82291911836.0,,,0.4770217,1.219.347.576,https://maps.google.com/?cid=0x0:0x1286cf019540451d,
supermarket,Toko Swalayan,Toko Renad,"FX84+RVF, Jl. Trans-Sulawesi, Teratai, Kec. Marisa, Kabupaten Pohuwato, Gorontalo 96265","Jl. Trans-Sulawesi, Teratai, Kec. Marisa, Kabupaten Pohuwato",GORONTALO,96265.0,Indonesia,82190011899.0,,,0.4670597,1.219.571.767,https://maps.google.com/?cid=0x0:0xcbfafe4dc69e43c3,
supermarket,Minimarket,Kios Nur,"Jl. Kolonisasi, Sipatana, Kec. Buntulia, Kabupaten Pohuwato, Gorontalo 96466","Sipatana, Kec. Buntulia, Kabupaten Pohuwato",GORONTALO,96466.0,Indonesia,82199223251.0,,,0.4851317,1.219.203.988,https://maps.google.com/?cid=0x0:0xecc9c06bf2a54503,
supermarket,Toko bahan makanan,Kios allifa mart,"Botubilotahu Indah, Kec. Marisa, Kabupaten Pohuwato, Gorontalo 96266","Kec. Marisa, Kabupaten Pohuwato",GORONTALO,96266.0,Indonesia,82210510051.0,,,0.4801085,1.219.443.893,https://maps.google.com/?cid=0x0:0xb5016359ff8bf727,
supermarket,Toko Swalayan,Kios maya,"FWPC+PX8, Jl. Kolonisasi, Sipatana, Kec. Buntulia, Kabupaten Pohuwato, Gorontalo 96466","Jl. Kolonisasi, Sipatana, Kec. Buntulia, Kabupaten Pohuwato",GORONTALO,96466.0,Indonesia,,,,0.4867853,1.219.224.417,https://maps.google.com/?cid=0x0:0xa01b63127e95f226,
supermarket,Toko bahan makanan,KIOS FAREL,"FWHR+HQJ, Botubilotahu Indah, Kec. Marisa, Kabupaten Pohuwato, Gorontalo 96265","Botubilotahu Indah, Kec. Marisa, Kabupaten Pohuwato",GORONTALO,96265.0,Indonesia,81245991501.0,,,0.4789682,1.219.419.031,https://maps.google.com/?cid=0x0:0xcfa9fb463c88d5a,
supermarket,Toko,Toko Ulizaz,"Jalan sultan amai, Botubilotahu Indah, Kec. Marisa, Kabupaten Pohuwato, Gorontalo 96266","Botubilotahu Indah, Kec. Marisa, Kabupaten Pohuwato",GORONTALO,96266.0,Indonesia,85394616381.0,,,0.4849049,1.219.434.522,https://maps.google.com/?cid=0x0:0x9dc6a034dbbf8b1b,
supermarket,Minimarket,ELL KIOS,"Perumahan Swadaya Indah, Botubilotahu Indah, Kec. Marisa, Kabupaten Pohuwato, Gorontalo 96266","Botubilotahu Indah, Kec. Marisa, Kabupaten Pohuwato",GORONTALO,96266.0,Indonesia,81241369039.0,,,0.4883286,1.219.387.783,https://maps.google.com/?cid=0x0:0xfdfec8882fcbef4a,
supermarket,Toko,Toko SINAR-F2,"FWHH+X3H, Buntulia Jaya, Kec. Duhiadaa, Kabupaten Pohuwato, Gorontalo 96466","Buntulia Jaya, Kec. Duhiadaa, Kabupaten Pohuwato",GORONTALO,96466.0,Indonesia,85240402756.0,,,0.4799349,121.927.719,https://maps.google.com/?cid=0x0:0xc70735c00a9eae35,
supermarket,Toko Perabot Supermarket,Warung Dinda,"FWCV+M88, Teratai, Kec. Marisa, Kabupaten Pohuwato, Gorontalo 96265","Teratai, Kec. Marisa, Kabupaten Pohuwato",GORONTALO,96265.0,Indonesia,82290108973.0,,,0.4716601,1.219.433.237,https://maps.google.com/?cid=0x0:0x19d95be2d31499d4,
supermarket,Pusat Perbelanjaan,Toko mila,"Teratai, Kec. Marisa, Kabupaten Pohuwato, Gorontalo 96265","Kec. Marisa, Kabupaten Pohuwato",GORONTALO,96265.0,Indonesia,,,,0.4800796,1.219.451.825,https://maps.google.com/?cid=0x0:0x8ead1dfa2b3b44d,
supermarket,Komplek perumahan,Bele Le Coan,"Unnamed Road, Buntulia Jaya, Kec. Duhiadaa, Kabupaten Pohuwato, Gorontalo 96466","Buntulia Jaya, Kec. Duhiadaa, Kabupaten Pohuwato",GORONTALO,96466.0,Indonesia,85298429077.0,,,0.4740757,1.219.268.844,https://maps.google.com/?cid=0x0:0xf4406591c8c12fe4,
supermarket,,Kios Felly,"Sipatana, Kec. Duhiadaa, Kabupaten Pohuwato, Gorontalo 96466","Kec. Duhiadaa, Kabupaten Pohuwato",GORONTALO,96466.0,Indonesia,82291427778.0,,,0.4842201,1.219.239.501,https://maps.google.com/?cid=0x0:0x29b0343be91be296,
supermarket,Minimarket,Marisa,"Pasar Rawamangun, Jl. Pegambiran, RT.9/RW.8, Rawamangun, Kec. Pulo Gadung, Kota Jakarta Timur, Daerah Khusus Ibukota Jakarta 13220","Jl. Pegambiran, RT.9/RW.8, Rawamangun, Kec. Pulo Gadung, Kota Jakarta Timur",GORONTALO,13220.0,Indonesia,85688831022.0,,,-61.984.852,106.889.563,https://maps.google.com/?cid=0x0:0x2915a1b0da67dc32,
supermarket,Toko bahan makanan,TOKO MARISA,"Gadog, Kec. Megamendung, Kabupaten Bogor, Jawa Barat","Kabupaten Bogor, Jawa Barat",GORONTALO,,Indonesia,,,,-66.627.847,1.068.708.593,https://maps.google.com/?cid=0x0:0x495b5f5fc848aad5,
supermarket,supermarket,Kec. Paguat,"Kabupaten Pohuwato, Gorontalo","Kabupaten Pohuwato, Gorontalo",GORONTALO,,Indonesia,,,,0.4910265,122.073.703,https://maps.google.com/?cid=0x0:0x9c57f083f00632a6,
supermarket,Pusat Perbelanjaan,Pasar Paguat,"F3MG+9F9, Pentadu, Kec. Paguat, Kabupaten Pohuwato, Gorontalo 96265","Pentadu, Kec. Paguat, Kabupaten Pohuwato",GORONTALO,96265.0,Indonesia,,,,0.4834115,1.220.762.355,https://maps.google.com/?cid=0x0:0xd4092c1651f7d956,
supermarket,Minimarket,Toko Sasa,"F3Q9+VH8, Siduan, Kec. Paguat, Kabupaten Pohuwato, Gorontalo 96265","Siduan, Kec. Paguat, Kabupaten Pohuwato",GORONTALO,96265.0,Indonesia,,,,0.4896569,1.220.689.514,https://maps.google.com/?cid=0x0:0xa7036525cb88a68a,
supermarket,Toko bahan makanan,OLAMi mart,"Dusun Tugu, Pancasila, Kec. Dengilo, Kabupaten Pohuwato, Gorontalo 96265","Pancasila, Kec. Dengilo, Kabupaten Pohuwato",GORONTALO,96265.0,Indonesia,81357354316.0,,,0.5270283,1.220.904.404,https://maps.google.com/?cid=0x0:0x3256c068e6934688,
supermarket,Minimarket,INDOMARET TAMAN PAGUAT,"F3QF+3P5, Pentadu, Kec. Paguat, Kabupaten Pohuwato, Gorontalo 96265","Pentadu, Kec. Paguat, Kabupaten Pohuwato",GORONTALO,96265.0,Indonesia,,,,0.4877115,1.220.744.204,https://maps.google.com/?cid=0x0:0x54cb57e1cfc1512c,
supermarket,Toko,Kios Arni,"FXCR+424, Jl. Trans-Sulawesi, Maleo, Kec. Paguat, Kabupaten Pohuwato, Gorontalo 96265","Jl. Trans-Sulawesi, Maleo, Kec. Paguat, Kabupaten Pohuwato",GORONTALO,96265.0,Indonesia,85298860788.0,,,0.4702517,1.219.900.905,https://maps.google.com/?cid=0x0:0x879e4a1f93c8c647,
supermarket,Toko Swalayan,Sakana,"F3WG+MMW, Jl. Trans-Sulawesi, Bunuyo, Kec. Paguat, Kabupaten Pohuwato, Gorontalo 96265","Jl. Trans-Sulawesi, Bunuyo, Kec. Paguat, Kabupaten Pohuwato",GORONTALO,96265.0,Indonesia,82215525214.0,,,0.4967436,1.220.766.881,https://maps.google.com/?cid=0x0:0x13957c20c1dcd231,
supermarket,Sekolah,Pasar Sore Sipayo,"G329+278, Sipayo, Kec. Paguat, Kabupaten Pohuwato, Gorontalo 96265","Sipayo, Kec. Paguat, Kabupaten Pohuwato",GORONTALO,96265.0,Indonesia,82217464610.0,,,0.5000409,1.220.682.089,https://maps.google.com/?cid=0x0:0x160c852b5a1b5ce2,
supermarket,Toko Pakaian,Warung 2+1,"Bumbulan, Kec. Paguat, Kabupaten Pohuwato, Gorontalo","Kabupaten Pohuwato, Gorontalo",GORONTALO,,Indonesia,82292796393.0,,,0.4792254,1.220.828.351,https://maps.google.com/?cid=0x0:0xfa90016fd013feaf,
supermarket,Toko,Toko Super Murah,"F3QH+JH9, Bumbulan, Kec. Paguat, Kabupaten Pohuwato, Gorontalo 96265","Bumbulan, Kec. Paguat, Kabupaten Pohuwato",GORONTALO,96265.0,Indonesia,,,,0.4890375,122.078.971,https://maps.google.com/?cid=0x0:0xa6853d85ef6f5ce1,
supermarket,Minimarket,Paguat,"F2HM+X2X, Jl. Trans-Sulawesi, Libuo, Kec. Paguat, Kabupaten Pohuwato, Gorontalo 96265","Jl. Trans-Sulawesi, Libuo, Kec. Paguat, Kabupaten Pohuwato",GORONTALO,96265.0,Indonesia,,,,0.4800994,1.220.337.732,https://maps.google.com/?cid=0x0:0x65258a914325d45,
supermarket,Toko bahan makanan,Toko Sabass,"Palopo, Kec. Marisa, Kabupaten Pohuwato, Gorontalo 96265","Kec. Marisa, Kabupaten Pohuwato",GORONTALO,96265.0,Indonesia,,,,0.4668698,1.219.476.455,https://maps.google.com/?cid=0x0:0x880db9ae49a9ca90,
supermarket,Minimarket,INDOMARET,"F3RF+CFQ, Siduan, Kec. Paguat, Kabupaten Pohuwato, Gorontalo","Kabupaten Pohuwato, Gorontalo",GORONTALO,,Indonesia,,,,0.4910898,1.220.737.312,https://maps.google.com/?cid=0x0:0xd638d062356d6319,
supermarket,Toko,kios desdes,"F2PG+8QV, Libuo, Kec. Paguat, Kabupaten Pohuwato, Gorontalo","Kabupaten Pohuwato, Gorontalo",GORONTALO,,Indonesia,85242806496.0,,,0.4858539,122.026.918,https://maps.google.com/?cid=0x0:0x9cb6bec2ea921050,
supermarket,Minimarket,Alfamart Siduan Paguat,"FW8X+JFX, Palopo, Kec. Marisa, Kabupaten Pohuwato, Gorontalo 96265","Palopo, Kec. Marisa, Kabupaten Pohuwato",GORONTALO,96265.0,Indonesia,,,,0.4910877,1.220.737.313,https://maps.google.com/?cid=0x0:0xb1576daa562e1a09,
supermarket,Minimarket,Indomaret paguat,"F3M3+8FR, Jl. Trans-Sulawesi, Buhu Jaya, Kec. Paguat, Kabupaten Pohuwato, Gorontalo","Kabupaten Pohuwato, Gorontalo",GORONTALO,,Indonesia,,,,0.483366,1.220.536.524,https://maps.google.com/?cid=0x0:0x7236d048b4fe0cbf,
supermarket,Dapur Umum,UD. AZKIA,"Teratai, Kec. Marisa, Kabupaten Pohuwato, Gorontalo 96265","Kec. Marisa, Kabupaten Pohuwato",GORONTALO,96265.0,Indonesia,81343675005.0,,,0.4782698,1.219.481.005,https://maps.google.com/?cid=0x0:0x35f04b7941b7bb1a,
supermarket,Toko Swalayan,Toko Renad,"FX84+RVF, Jl. Trans-Sulawesi, Teratai, Kec. Marisa, Kabupaten Pohuwato, Gorontalo 96265","Jl. Trans-Sulawesi, Teratai, Kec. Marisa, Kabupaten Pohuwato",GORONTALO,96265.0,Indonesia,82190011899.0,,,0.4670597,1.219.571.767,https://maps.google.com/?cid=0x0:0xcbfafe4dc69e43c3,
supermarket,Minimarket,Indomaret Bunuyo,"F3XG+MC2, Jl. Trans-Sulawesi, Bunuyo, Kec. Paguat, Kabupaten Pohuwato, Gorontalo 96265","Jl. Trans-Sulawesi, Bunuyo, Kec. Paguat, Kabupaten Pohuwato",GORONTALO,96265.0,Indonesia,85158491105.0,,,0.4991381,1.220.760.055,https://maps.google.com/?cid=0x0:0x5a917a8b4392b54c,
supermarket,Pusat Perbelanjaan,Toko ulfa,"MV25+373, Jl. Trans-Sulawesi, Datahu, Kec. Tibawa, Kabupaten Gorontalo Utara, Gorontalo 96216","Jl. Trans-Sulawesi, Datahu, Kec. Tibawa, Kabupaten Gorontalo Utara",GORONTALO,96216.0,Indonesia,,,,0.4702627,1.219.900.755,https://maps.google.com/?cid=0x0:0x8e36594efc65ef8e,
supermarket,Toko Pertanian,Kios Tani Sejahtera Paguat,"Bunuyo, Kec. Paguat, Kabupaten Pohuwato, Gorontalo 96265","Kec. Paguat, Kabupaten Pohuwato",GORONTALO,96265.0,Indonesia,85254655348.0,,,0.4889015,1.220.798.478,https://maps.google.com/?cid=0x0:0xe9d44b0db891e2ea,
supermarket,Toko bahan makanan,SRC ELFA,"FX85+PGV, Jl. Trans-Sulawesi, Teratai, Kec. Marisa, Kabupaten Pohuwato, Gorontalo 96265","Jl. Trans-Sulawesi, Teratai, Kec. Marisa, Kabupaten Pohuwato",GORONTALO,96265.0,Indonesia,85298197665.0,,,0.4668749,1.219.587.867,https://maps.google.com/?cid=0x0:0xc0ae2361bb51a750,
supermarket,supermarket,Gorontalo 96266,"Kabupaten Pohuwato, Gorontalo","Kabupaten Pohuwato, Gorontalo",GORONTALO,,Indonesia,,,,0.6235288,1.218.790.306,https://maps.google.com/?cid=0x0:0x6e323a18714b4718,
supermarket,Toko,Sukses Gemilang Mart,"FWCJ+GHQ, Jl. Trans-Sulawesi, Buntulia Sel., Kec. Duhiadaa, Kabupaten Pohuwato, Gorontalo 96266","Jl. Trans-Sulawesi, Buntulia Sel., Kec. Duhiadaa, Kabupaten Pohuwato",GORONTALO,96266.0,Indonesia,,,,0.4713316,1.219.314.959,https://maps.google.com/?cid=0x0:0xf6e1df4d72088678,
supermarket,Toko bahan makanan,SRC Lolinda,"GV3F+2HW, Manawa, Kec. Patilanggio, Kabupaten Pohuwato, Gorontalo 96266","Manawa, Kec. Patilanggio, Kabupaten Pohuwato",GORONTALO,96266.0,Indonesia,,,,0.5026246,1.218.739.471,https://maps.google.com/?cid=0x0:0x1cfd2e924bde4036,
supermarket,Toko,ARWANA SWALAYAN,"FWCJ+JFR, Buntulia Sel., Kec. Duhiadaa, Kabupaten Pohuwato, Gorontalo 96266","Buntulia Sel., Kec. Duhiadaa, Kabupaten Pohuwato",GORONTALO,96266.0,Indonesia,,,,0.4716176,1.219.311.261,https://maps.google.com/?cid=0x0:0x7e2b5b1b41a4e662,
supermarket,Kios,Kios Ahsraf,"GVJ2+82H, Suka Makmur, Kec. Patilanggio, Kabupaten Pohuwato, Gorontalo 96266","Suka Makmur, Kec. Patilanggio, Kabupaten Pohuwato",GORONTALO,96266.0,Indonesia,82245449426.0,,,0.5305557,1.218.498.573,https://maps.google.com/?cid=0x0:0x5c29eabc468922dc,
supermarket,Pusat Perbelanjaan,Toko Nian Top Sandi,"FW8W+6R2, Jl. Jend. Sudirman, Palopo, Kec. Marisa, Kabupaten Pohuwato, Gorontalo 96265","Jl. Jend. Sudirman, Palopo, Kec. Marisa, Kabupaten Pohuwato",GORONTALO,96265.0,Indonesia,81243799984.0,,,0.465505,1.219.470.292,https://maps.google.com/?cid=0x0:0x797f32ce72822eb9,
supermarket,Toko bahan makanan,Toko Sabass,"Palopo, Kec. Marisa, Kabupaten Pohuwato, Gorontalo 96265","Kec. Marisa, Kabupaten Pohuwato",GORONTALO,96265.0,Indonesia,,,,0.4668698,1.219.476.455,https://maps.google.com/?cid=0x0:0x880db9ae49a9ca90,
supermarket,Toko Swalayan,DD Mart,"FW8W+5Q5, Palopo, Kec. Marisa, Kabupaten Pohuwato, Gorontalo 96265","Palopo, Kec. Marisa, Kabupaten Pohuwato",GORONTALO,96265.0,Indonesia,,,,0.4653779,1.219.469.963,https://maps.google.com/?cid=0x0:0x3304f1aeac37b791,
supermarket,Toko,Toko chindy,"Padengo, Kec. Duhiadaa, Kabupaten Pohuwato, Gorontalo 96266","Kec. Duhiadaa, Kabupaten Pohuwato",GORONTALO,96266.0,Indonesia,85340323038.0,,,0.5007191,1.218.980.681,https://maps.google.com/?cid=0x0:0x208eb2b20f2d576f,
supermarket,Toko bahan makanan,Toko aneka ria,"GRJ8+HF3, pasar, Kec. Randangan, Kabupaten Pohuwato, Gorontalo 96469","pasar, Kec. Randangan, Kabupaten Pohuwato",GORONTALO,96469.0,Indonesia,,,,0.531392,1.218.161.598,https://maps.google.com/?cid=0x0:0xefb7757d423e1f1e,
supermarket,Toko bahan makanan,ASRIEL MART,"FWQC+Q4Q, Duhiadaa, Kec. Duhiadaa, Kabupaten Pohuwato, Gorontalo 96466","Duhiadaa, Kec. Duhiadaa, Kabupaten Pohuwato",GORONTALO,96466.0,Indonesia,82348176166.0,,,0.4894583,1.219.203.659,https://maps.google.com/?cid=0x0:0x9d534cc2b342d93a,
supermarket,Toko Swalayan,Kios maya,"FWPC+PX8, Jl. Kolonisasi, Sipatana, Kec. Buntulia, Kabupaten Pohuwato, Gorontalo 96466","Jl. Kolonisasi, Sipatana, Kec. Buntulia, Kabupaten Pohuwato",GORONTALO,96466.0,Indonesia,,,,0.4867853,1.219.224.417,https://maps.google.com/?cid=0x0:0xa01b63127e95f226,
supermarket,Toko Swalayan,Toko Renad,"FX84+RVF, Jl. Trans-Sulawesi, Teratai, Kec. Marisa, Kabupaten Pohuwato, Gorontalo 96265","Jl. Trans-Sulawesi, Teratai, Kec. Marisa, Kabupaten Pohuwato",GORONTALO,96265.0,Indonesia,82190011899.0,,,0.4670597,1.219.571.767,https://maps.google.com/?cid=0x0:0xcbfafe4dc69e43c3,
supermarket,Toko bahan makanan,toko serba murah,"Botubilotahu Indah, Kec. Marisa, Kabupaten Pohuwato, Gorontalo 96466","Kec. Marisa, Kabupaten Pohuwato",GORONTALO,96466.0,Indonesia,,,,0.4805215,1.219.349.837,https://maps.google.com/?cid=0x0:0x2f3f5ee575d0f5f6,
supermarket,Toko umum,TOKO GANESHA,"JRM9+5PX, Unnamed Road, Panca Karsa II, Kec. Taluditi, Kabupaten Pohuwato, Gorontalo 96469","Unnamed Road, Panca Karsa II, Kec. Taluditi, Kabupaten Pohuwato",GORONTALO,96469.0,Indonesia,82195493948.0,,,0.6329909,1.218.193.732,https://maps.google.com/?cid=0x0:0xee07be8e0f56621b,
supermarket,Toko,Queen Mart,"Panca Karsa I, Kec. Taluditi, Kabupaten Pohuwato, Gorontalo 96469","Kec. Taluditi, Kabupaten Pohuwato",GORONTALO,96469.0,Indonesia,82195600600.0,,,0.6082168,1.218.056.701,https://maps.google.com/?cid=0x0:0x780f1616b076c060,
supermarket,Toko bahan makanan,SRC ELFA,"FX85+PGV, Jl. Trans-Sulawesi, Teratai, Kec. Marisa, Kabupaten Pohuwato, Gorontalo 96265","Jl. Trans-Sulawesi, Teratai, Kec. Marisa, Kabupaten Pohuwato",GORONTALO,96265.0,Indonesia,85298197665.0,,,0.4668749,1.219.587.867,https://maps.google.com/?cid=0x0:0xc0ae2361bb51a750,
supermarket,Komplek perumahan,Bele Le Coan,"Unnamed Road, Buntulia Jaya, Kec. Duhiadaa, Kabupaten Pohuwato, Gorontalo 96466","Buntulia Jaya, Kec. Duhiadaa, Kabupaten Pohuwato",GORONTALO,96466.0,Indonesia,85298429077.0,,,0.4740757,1.219.268.844,https://maps.google.com/?cid=0x0:0xf4406591c8c12fe4,
supermarket,Minimarket,Kios Nur,"Jl. Kolonisasi, Sipatana, Kec. Buntulia, Kabupaten Pohuwato, Gorontalo 96466","Sipatana, Kec. Buntulia, Kabupaten Pohuwato",GORONTALO,96466.0,Indonesia,82199223251.0,,,0.4851317,1.219.203.988,https://maps.google.com/?cid=0x0:0xecc9c06bf2a54503,
supermarket,,Rumah kepiting,"FVPQ+FFX, Mootilango, Kec. Duhiadaa, Kabupaten Pohuwato, Gorontalo 96266","Mootilango, Kec. Duhiadaa, Kabupaten Pohuwato",GORONTALO,96266.0,Indonesia,81241312162.0,,,0.4862277,1.218.887.417,https://maps.google.com/?cid=0x0:0x4a735c58361b579d,
supermarket,Dapur Umum,UD. AZKIA,"Teratai, Kec. Marisa, Kabupaten Pohuwato, Gorontalo 96265","Kec. Marisa, Kabupaten Pohuwato",GORONTALO,96265.0,Indonesia,81343675005.0,,,0.4782698,1.219.481.005,https://maps.google.com/?cid=0x0:0x35f04b7941b7bb1a,
supermarket,Toko Daging,JUAL AYAM PEDAGING,"FW5R+W86, Jl. Diponegoro, Marisa Sel., Kec. Marisa, Kabupaten Pohuwato, Gorontalo 96265","Jl. Diponegoro, Marisa Sel., Kec. Marisa, Kabupaten Pohuwato",GORONTALO,96265.0,Indonesia,82260505927.0,,,0.459792,121.940.754,https://maps.google.com/?cid=0x0:0xc3b789667a787377,
supermarket,Toko,Kios Arni,"FXCR+424, Jl. Trans-Sulawesi, Maleo, Kec. Paguat, Kabupaten Pohuwato, Gorontalo 96265","Jl. Trans-Sulawesi, Maleo, Kec. Paguat, Kabupaten Pohuwato",GORONTALO,96265.0,Indonesia,85298860788.0,,,0.4702517,1.219.900.905,https://maps.google.com/?cid=0x0:0x879e4a1f93c8c647,
supermarket,Toko bahan makanan,TOKO SINAR CAHAYA,"FWGJ+6V5, Buntulia Jaya, Kec. Duhiadaa, Kabupaten Pohuwato, Gorontalo 96466","Buntulia Jaya, Kec. Duhiadaa, Kabupaten Pohuwato",GORONTALO,96466.0,Indonesia,,,,0.475522,1.219.322.345,https://maps.google.com/?cid=0x0:0x7b7cefd9c1889f5,
supermarket,Toko Aksesori Ponsel,Aksesoris Hape Pohuwato,"FW3Q+2FG, Pohuwato Tim., Kec. Marisa, Kabupaten Pohuwato, Gorontalo 96265","Pohuwato Tim., Kec. Marisa, Kabupaten Pohuwato",GORONTALO,96265.0,Indonesia,82292904494.0,,,0.4525631,1.219.387.076,https://maps.google.com/?cid=0x0:0xffb3c6017fdcf4bb,
supermarket,Toko Perabot Supermarket,Warung Dinda,"FWCV+M88, Teratai, Kec. Marisa, Kabupaten Pohuwato, Gorontalo 96265","Teratai, Kec. Marisa, Kabupaten Pohuwato",GORONTALO,96265.0,Indonesia,82290108973.0,,,0.4716601,1.219.433.237,https://maps.google.com/?cid=0x0:0x19d95be2d31499d4,
supermarket,Kios,KIOS AZRIEL,"GW8X+8HX, Karya Indah, Kec. Buntulia, Kabupaten Pohuwato, Gorontalo","Kabupaten Pohuwato, Gorontalo",GORONTALO,,Indonesia,85341391268.0,,,0.5158507,1.219.489.772,https://maps.google.com/?cid=0x0:0x8c13a36bcdd141dc,
supermarket,Seafood,lapak wong jombang,"Botubilotahu Indah, Kec. Marisa, Kabupaten Pohuwato, Gorontalo 96265","Kec. Marisa, Kabupaten Pohuwato",GORONTALO,96265.0,Indonesia,81231083030.0,,,0.4714804,1.219.378.406,https://maps.google.com/?cid=0x0:0x631690f23f6880f4,
supermarket,,Indomaret Randangan,"GRH7+6J, Motolohu, Kec. Randangan, Kabupaten Pohuwato, Gorontalo 96469","Motolohu, Kec. Randangan, Kabupaten Pohuwato",GORONTALO,96469.0,Indonesia,,,,0.5280691,1.218.140.516,https://maps.google.com/?cid=0x0:0xe6c5facd65093d8f,
supermarket,supermarket,Gorontalo 96467,"Kabupaten Pohuwato, Gorontalo","Kabupaten Pohuwato, Gorontalo",GORONTALO,,Indonesia,,,,0.7082941,1.213.541.631,https://maps.google.com/?cid=0x0:0x6a37da13e8b9d9f7,
supermarket,Toko,Toko Isbel Mart Grosir Popayato,"GF9M+8PC, Maleo, Kec. Popayato Tim., Kabupaten Pohuwato, Gorontalo 96467","Maleo, Kec. Popayato Tim., Kabupaten Pohuwato",GORONTALO,96467.0,Indonesia,,,,0.5183182,1.214.842.776,https://maps.google.com/?cid=0x0:0xe88255cde0feaad4,
supermarket,Pusat Perbelanjaan,indomaret popayato,"GF59+FHF, Bukit Tingki, Popayato, Kabupaten Pohuwato, Gorontalo","Kabupaten Pohuwato, Gorontalo",GORONTALO,,Indonesia,,,,0.508688,1.214.689.146,https://maps.google.com/?cid=0x0:0x3d3b0e85f570bee8,
supermarket,supermarket,Popayato,"Kabupaten Pohuwato, Gorontalo","Kabupaten Pohuwato, Gorontalo",GORONTALO,,Indonesia,,,,0.6508515,12.143.419,https://maps.google.com/?cid=0x0:0xd03550efb58cf562,
supermarket,Minimarket,arofah cell,"Tunas Jaya, Kec. Popayato Bar., Kabupaten Pohuwato, Gorontalo 96467","Kec. Popayato Bar., Kabupaten Pohuwato",GORONTALO,96467.0,Indonesia,,,,0.5208831,1.214.104.318,https://maps.google.com/?cid=0x0:0xbde5ebfed1ef93a2,
supermarket,Pusat Perbelanjaan,Toko Angelina,"Butungale, Kec. Popayato Bar., Gorontalo, 96467",Kec. Popayato Bar.,GORONTALO,96467.0,Indonesia,82119486962.0,,,0.5231779,1.214.141.893,https://maps.google.com/?cid=0x0:0x94327a6a45b8e42f,
supermarket,Perusahaan Operasi Pelabuhan,PT. BIOMASA JAYA ABADI,"MFXJ+5J, Klp. Lima, Kec. Popayato Tim., Kabupaten Pohuwato, Gorontalo","Kabupaten Pohuwato, Gorontalo",GORONTALO,,Indonesia,,,,0.6979465,1.214.815.976,https://maps.google.com/?cid=0x0:0x68a9ed7499911b59,
supermarket,ATM,BRI Unit Tapal Batas,"GF8J+34G, Maleo, Kec. Popayato Tim., Kabupaten Pohuwato, Gorontalo 96467","Maleo, Kec. Popayato Tim., Kabupaten Pohuwato",GORONTALO,96467.0,Indonesia,,,,0.5151915,1.214.803.343,https://maps.google.com/?cid=0x0:0x3d295056210afd3e,
supermarket,Layanan Transportasi,Dermaga PT.BJA,"FFJG+XV2, Unnamed Road, Trikora, Popayato, Kabupaten Pohuwato, Gorontalo 96467","Unnamed Road, Trikora, Popayato, Kabupaten Pohuwato",GORONTALO,96467.0,Indonesia,,,,0.4823783,12.147.715,https://maps.google.com/?cid=0x0:0xa204423b1569aba8,
supermarket,supermarket,Rumah Jaya,"GHQ9+VFM, Lemito, Kec. Lemito, Kabupaten Pohuwato, Gorontalo 96468","Lemito, Kec. Lemito, Kabupaten Pohuwato",GORONTALO,96468.0,Indonesia,,,,0.5400042,1.215.687.381,https://maps.google.com/?cid=0x0:0x75cbdf76270af797,
supermarket,Toko,Toko Mbak Mariyati,"Tunas Jaya, Kec. Popayato Bar., Kabupaten Pohuwato, Gorontalo 96467","Kec. Popayato Bar., Kabupaten Pohuwato",GORONTALO,96467.0,Indonesia,85396148263.0,,,0.6551877,1.213.941.835,https://maps.google.com/?cid=0x0:0xbff9157c215915bf,
supermarket,Toko,AULIA,"FCW4+JPW, Jl. Trans-Sulawesi, Dudewulo, Kec. Popayato Bar., Kabupaten Pohuwato, Gorontalo 96467","Jl. Trans-Sulawesi, Dudewulo, Kec. Popayato Bar., Kabupaten Pohuwato",GORONTALO,96467.0,Indonesia,,,,0.4966241,1.214.068.129,https://maps.google.com/?cid=0x0:0xfca8240348ae6c72,
supermarket,Hipermarket,Hymart Supermarket,"Jl. Sultan Botutihe No.220, Moodu, Kec. Kota Tim., Kota Gorontalo, Gorontalo 96113","Moodu, Kec. Kota Tim., Kota Gorontalo",GORONTALO,96113.0,Indonesia,435830400.0,,,0.54034,123.074.965,https://maps.google.com/?cid=0x0:0x73ba3dabd9175daa,
supermarket,Makanan Kecil,MOONFII CHICKEN,"GFJM+C4R, Tahele, Kec. Popayato Tim., Kabupaten Pohuwato, Gorontalo","Kabupaten Pohuwato, Gorontalo",GORONTALO,,Indonesia,81241839872.0,,,0.5311153,1.214.827.508,https://maps.google.com/?cid=0x0:0x7026de4feed3d473,
supermarket,Pusat Perbelanjaan,Agung Supermarket Kota Gorontalo,"G3W6+2V6, Jl. D.I. Panjaitan No.110, Limba U I, Kota Sel., Kota Gorontalo, Gorontalo 96135","Jl. D.I. Panjaitan No.110, Limba U I, Kota Sel., Kota Gorontalo",GORONTALO,96135.0,Indonesia,,,,0.544968,1.230.622.361,https://maps.google.com/?cid=0x0:0x9e7641346e022af1,
supermarket,Toko Perhiasan,Karsa Utama,"Jl. S. Parman No.45, Biawao, Kota Sel., Kota Gorontalo, Gorontalo 96133","Biawao, Kota Sel., Kota Gorontalo",GORONTALO,96133.0,Indonesia,,,,0.5364809,1.230.589.067,https://maps.google.com/?cid=0x0:0x1a7597bff92c0a71,
supermarket,Seafood,lapak wong jombang,"Botubilotahu Indah, Kec. Marisa, Kabupaten Pohuwato, Gorontalo 96265","Kec. Marisa, Kabupaten Pohuwato",GORONTALO,96265.0,Indonesia,81231083030.0,,,0.4714804,1.219.378.406,https://maps.google.com/?cid=0x0:0x631690f23f6880f4,
supermarket,Restoran,Warung Rempah,"GHVF+P69, Lemito Utara, Kec. Lemito, Kabupaten Pohuwato, Gorontalo 96468","Lemito Utara, Kec. Lemito, Kabupaten Pohuwato",GORONTALO,96468.0,Indonesia,85298666134.0,,,0.5442831,1.215.731.004,https://maps.google.com/?cid=0x0:0x40b6226221e7f8f6,
supermarket,Toko umum,Kios Melinda,"HJ53+VFQ, Jl. Trans-Sulawesi, Wonggarasi Tengah, Kec. Lemito, Kabupaten Pohuwato, Gorontalo 96468","Jl. Trans-Sulawesi, Wonggarasi Tengah, Kec. Lemito, Kabupaten Pohuwato",GORONTALO,96468.0,Indonesia,,,,0.5597192,1.216.037.434,https://maps.google.com/?cid=0x0:0x21c9bf0eb95f3812,
supermarket,Toko bahan makanan,Mocca Delli Super Market BAHAN KUE  DAPUR,"Moodu, Kec. Kota Tim., Kota Gorontalo, Gorontalo 96135","Kec. Kota Tim., Kota Gorontalo",GORONTALO,96135.0,Indonesia,89560112299.0,,,0.5403059,1.230.750.174,https://maps.google.com/?cid=0x0:0x16e2ba97955d038a,
supermarket,Toko bahan makanan,KIOS Putri,"HJ63+257, Jl. Trans-Sulawesi, Wonggarasi Tengah, Kec. Lemito, Kabupaten Pohuwato, Gorontalo 96468","Jl. Trans-Sulawesi, Wonggarasi Tengah, Kec. Lemito, Kabupaten Pohuwato",GORONTALO,96468.0,Indonesia,,,,0.5600811,1.216.024.248,https://maps.google.com/?cid=0x0:0xa21a81d35ad29a70,
supermarket,Masjid,Mesjid Alihlas Desa Kalimas,"MFQM+CR, Klp. Lima, Kec. Popayato Tim., Kabupaten Pohuwato, Gorontalo","Kabupaten Pohuwato, Gorontalo",GORONTALO,,Indonesia,,,,0.6885625,1.214.845.625,https://maps.google.com/?cid=0x0:0xa2984bbc0e3d9f7,
supermarket,Toko Ikan,"Jual beli ikan,udang","FCQV+PH7, Bumi Bahari, Popayato, Kabupaten Pohuwato, Gorontalo","Kabupaten Pohuwato, Gorontalo",GORONTALO,,Indonesia,,,,0.4892775,1.214.439.286,https://maps.google.com/?cid=0x0:0x8cbaf542f29b4609,
supermarket,supermarket,Gorontalo 96467,"Kabupaten Pohuwato, Gorontalo","Kabupaten Pohuwato, Gorontalo",GORONTALO,,Indonesia,,,,0.7082941,1.213.541.631,https://maps.google.com/?cid=0x0:0x6a37da13e8b9d9f7,
supermarket,Toko,Toko Isbel Mart Grosir Popayato,"GF9M+8PC, Maleo, Kec. Popayato Tim., Kabupaten Pohuwato, Gorontalo 96467","Maleo, Kec. Popayato Tim., Kabupaten Pohuwato",GORONTALO,96467.0,Indonesia,,,,0.5183182,1.214.842.776,https://maps.google.com/?cid=0x0:0xe88255cde0feaad4,
supermarket,Minimarket,arofah cell,"Tunas Jaya, Kec. Popayato Bar., Kabupaten Pohuwato, Gorontalo 96467","Kec. Popayato Bar., Kabupaten Pohuwato",GORONTALO,96467.0,Indonesia,,,,0.5208831,1.214.104.318,https://maps.google.com/?cid=0x0:0xbde5ebfed1ef93a2,
supermarket,Toko,AULIA,"FCW4+JPW, Jl. Trans-Sulawesi, Dudewulo, Kec. Popayato Bar., Kabupaten Pohuwato, Gorontalo 96467","Jl. Trans-Sulawesi, Dudewulo, Kec. Popayato Bar., Kabupaten Pohuwato",GORONTALO,96467.0,Indonesia,,,,0.4966241,1.214.068.129,https://maps.google.com/?cid=0x0:0xfca8240348ae6c72,
supermarket,Toko,Toko Mbak Mariyati,"Tunas Jaya, Kec. Popayato Bar., Kabupaten Pohuwato, Gorontalo 96467","Kec. Popayato Bar., Kabupaten Pohuwato",GORONTALO,96467.0,Indonesia,85396148263.0,,,0.6551877,1.213.941.835,https://maps.google.com/?cid=0x0:0xbff9157c215915bf,
supermarket,Pusat Perbelanjaan,indomaret popayato,"GF59+FHF, Bukit Tingki, Popayato, Kabupaten Pohuwato, Gorontalo","Kabupaten Pohuwato, Gorontalo",GORONTALO,,Indonesia,,,,0.508688,1.214.689.146,https://maps.google.com/?cid=0x0:0x3d3b0e85f570bee8,
supermarket,Makanan Kecil,MOONFII CHICKEN,"GFJM+C4R, Tahele, Kec. Popayato Tim., Kabupaten Pohuwato, Gorontalo","Kabupaten Pohuwato, Gorontalo",GORONTALO,,Indonesia,81241839872.0,,,0.5311153,1.214.827.508,https://maps.google.com/?cid=0x0:0x7026de4feed3d473,
supermarket,Masjid,Mesjid Alihlas Desa Kalimas,"MFQM+CR, Klp. Lima, Kec. Popayato Tim., Kabupaten Pohuwato, Gorontalo","Kabupaten Pohuwato, Gorontalo",GORONTALO,,Indonesia,,,,0.6885625,1.214.845.625,https://maps.google.com/?cid=0x0:0xa2984bbc0e3d9f7,
supermarket,Hipermarket,Hymart Supermarket,"Jl. Sultan Botutihe No.220, Moodu, Kec. Kota Tim., Kota Gorontalo, Gorontalo 96113","Moodu, Kec. Kota Tim., Kota Gorontalo",GORONTALO,96113.0,Indonesia,435830400.0,,,0.54034,123.074.965,https://maps.google.com/?cid=0x0:0x73ba3dabd9175daa,
supermarket,supermarket,Rumah Jaya,"GHQ9+VFM, Lemito, Kec. Lemito, Kabupaten Pohuwato, Gorontalo 96468","Lemito, Kec. Lemito, Kabupaten Pohuwato",GORONTALO,96468.0,Indonesia,,,,0.5400042,1.215.687.381,https://maps.google.com/?cid=0x0:0x75cbdf76270af797,
supermarket,Toko Ikan,"Jual beli ikan,udang","FCQV+PH7, Bumi Bahari, Popayato, Kabupaten Pohuwato, Gorontalo","Kabupaten Pohuwato, Gorontalo",GORONTALO,,Indonesia,,,,0.4892775,1.214.439.286,https://maps.google.com/?cid=0x0:0x8cbaf542f29b4609,
supermarket,Restoran,Warung Rempah,"GHVF+P69, Lemito Utara, Kec. Lemito, Kabupaten Pohuwato, Gorontalo 96468","Lemito Utara, Kec. Lemito, Kabupaten Pohuwato",GORONTALO,96468.0,Indonesia,85298666134.0,,,0.5442831,1.215.731.004,https://maps.google.com/?cid=0x0:0x40b6226221e7f8f6,
supermarket,ATM,BRI Unit Tapal Batas,"GF8J+34G, Maleo, Kec. Popayato Tim., Kabupaten Pohuwato, Gorontalo 96467","Maleo, Kec. Popayato Tim., Kabupaten Pohuwato",GORONTALO,96467.0,Indonesia,,,,0.5151915,1.214.803.343,https://maps.google.com/?cid=0x0:0x3d295056210afd3e,
supermarket,Perusahaan Operasi Pelabuhan,PT. BIOMASA JAYA ABADI,"MFXJ+5J, Klp. Lima, Kec. Popayato Tim., Kabupaten Pohuwato, Gorontalo","Kabupaten Pohuwato, Gorontalo",GORONTALO,,Indonesia,,,,0.6979465,1.214.815.976,https://maps.google.com/?cid=0x0:0x68a9ed7499911b59,
supermarket,Layanan Transportasi,Dermaga PT.BJA,"FFJG+XV2, Unnamed Road, Trikora, Popayato, Kabupaten Pohuwato, Gorontalo 96467","Unnamed Road, Trikora, Popayato, Kabupaten Pohuwato",GORONTALO,96467.0,Indonesia,,,,0.4823783,12.147.715,https://maps.google.com/?cid=0x0:0xa204423b1569aba8,
supermarket,supermarket,Kios Mutia,"G92V+7VW, Padengo, Kec. Popayato Bar., Kabupaten Pohuwato, Gorontalo 96467","Padengo, Kec. Popayato Bar., Kabupaten Pohuwato",GORONTALO,96467.0,Indonesia,,,,0.5007379,1.213.947.019,https://maps.google.com/?cid=0x0:0xf5df50183a606655,
supermarket,supermarket,Kec. Popayato Tim.,"Kabupaten Pohuwato, Gorontalo","Kabupaten Pohuwato, Gorontalo",GORONTALO,,Indonesia,,,,0.521171,1.214.876.076,https://maps.google.com/?cid=0x0:0xabc56e34572880b2,
supermarket,Toko,Toko Isbel Mart Grosir Popayato,"GF9M+8PC, Maleo, Kec. Popayato Tim., Kabupaten Pohuwato, Gorontalo 96467","Maleo, Kec. Popayato Tim., Kabupaten Pohuwato",GORONTALO,96467.0,Indonesia,,,,0.5183182,1.214.842.776,https://maps.google.com/?cid=0x0:0xe88255cde0feaad4,
supermarket,Minimarket,AlfaMIDI POPAYATO TIMUR,"GF6G+X6P, Jl. Trans-Sulawesi, Maleo, Kec. Popayato Tim., Kabupaten Pohuwato, Gorontalo 96467","Jl. Trans-Sulawesi, Maleo, Kec. Popayato Tim., Kabupaten Pohuwato",GORONTALO,96467.0,Indonesia,,,,0.5124323,1.214.756.237,https://maps.google.com/?cid=0x0:0x7ff919ffe4e843c0,
supermarket,Makanan Kecil,MOONFII CHICKEN,"GFJM+C4R, Tahele, Kec. Popayato Tim., Kabupaten Pohuwato, Gorontalo","Kabupaten Pohuwato, Gorontalo",GORONTALO,,Indonesia,81241839872.0,,,0.5311153,1.214.827.508,https://maps.google.com/?cid=0x0:0x7026de4feed3d473,
supermarket,Masjid,Mesjid Alihlas Desa Kalimas,"MFQM+CR, Klp. Lima, Kec. Popayato Tim., Kabupaten Pohuwato, Gorontalo","Kabupaten Pohuwato, Gorontalo",GORONTALO,,Indonesia,,,,0.6885625,1.214.845.625,https://maps.google.com/?cid=0x0:0xa2984bbc0e3d9f7,
supermarket,Minimarket,arofah cell,"Tunas Jaya, Kec. Popayato Bar., Kabupaten Pohuwato, Gorontalo 96467","Kec. Popayato Bar., Kabupaten Pohuwato",GORONTALO,96467.0,Indonesia,,,,0.5208831,1.214.104.318,https://maps.google.com/?cid=0x0:0xbde5ebfed1ef93a2,
supermarket,Pusat Perbelanjaan,Toko Angelina,"Butungale, Kec. Popayato Bar., Gorontalo, 96467",Kec. Popayato Bar.,GORONTALO,96467.0,Indonesia,82119486962.0,,,0.5231779,1.214.141.893,https://maps.google.com/?cid=0x0:0x94327a6a45b8e42f,
supermarket,Hipermarket,Hymart Supermarket,"Jl. Sultan Botutihe No.220, Moodu, Kec. Kota Tim., Kota Gorontalo, Gorontalo 96113","Moodu, Kec. Kota Tim., Kota Gorontalo",GORONTALO,96113.0,Indonesia,435830400.0,,,0.54034,123.074.965,https://maps.google.com/?cid=0x0:0x73ba3dabd9175daa,
supermarket,Masjid,SALAFIYAH MART,"JL. KH. ABDUL GHOFIR NAWAWI.MA, No 111, Dusun IV, Banuroja, Kec. Randangan, Kabupaten Pohuwato, Gorontalo 96469","No 111, Dusun IV, Banuroja, Kec. Randangan, Kabupaten Pohuwato",GORONTALO,96469.0,Indonesia,81244181111.0,,,0.5474566,1.217.905.476,https://maps.google.com/?cid=0x0:0x8e92e83f000e2e3,
supermarket,Toko,AULIA,"FCW4+JPW, Jl. Trans-Sulawesi, Dudewulo, Kec. Popayato Bar., Kabupaten Pohuwato, Gorontalo 96467","Jl. Trans-Sulawesi, Dudewulo, Kec. Popayato Bar., Kabupaten Pohuwato",GORONTALO,96467.0,Indonesia,,,,0.4966241,1.214.068.129,https://maps.google.com/?cid=0x0:0xfca8240348ae6c72,
supermarket,supermarket,Rumah Jaya,"GHQ9+VFM, Lemito, Kec. Lemito, Kabupaten Pohuwato, Gorontalo 96468","Lemito, Kec. Lemito, Kabupaten Pohuwato",GORONTALO,96468.0,Indonesia,,,,0.5400042,1.215.687.381,https://maps.google.com/?cid=0x0:0x75cbdf76270af797,
supermarket,Toko,Toko Mbak Mariyati,"Tunas Jaya, Kec. Popayato Bar., Kabupaten Pohuwato, Gorontalo 96467","Kec. Popayato Bar., Kabupaten Pohuwato",GORONTALO,96467.0,Indonesia,85396148263.0,,,0.6551877,1.213.941.835,https://maps.google.com/?cid=0x0:0xbff9157c215915bf,
supermarket,Pusat Perbelanjaan,Agung Supermarket Kota Gorontalo,"G3W6+2V6, Jl. D.I. Panjaitan No.110, Limba U I, Kota Sel., Kota Gorontalo, Gorontalo 96135","Jl. D.I. Panjaitan No.110, Limba U I, Kota Sel., Kota Gorontalo",GORONTALO,96135.0,Indonesia,,,,0.544968,1.230.622.361,https://maps.google.com/?cid=0x0:0x9e7641346e022af1,
supermarket,Toko Swalayan,Makro Supermarket  Department Store,"G3V5+6JR, Jl. Prof. Dr. H.B. Jassin, Limba U I, Kota Sel., Kota Gorontalo, Gorontalo 96134","Jl. Prof. Dr. H.B. Jassin, Limba U I, Kota Sel., Kota Gorontalo",GORONTALO,96134.0,Indonesia,,,,0.543104,123.059.011,https://maps.google.com/?cid=0x0:0x26476c4c695c115b,
supermarket,Toko,Queen Mart,"Panca Karsa I, Kec. Taluditi, Kabupaten Pohuwato, Gorontalo 96469","Kec. Taluditi, Kabupaten Pohuwato",GORONTALO,96469.0,Indonesia,82195600600.0,,,0.6082168,1.218.056.701,https://maps.google.com/?cid=0x0:0x780f1616b076c060,
supermarket,Toko Ikan,"Jual beli ikan,udang","FCQV+PH7, Bumi Bahari, Popayato, Kabupaten Pohuwato, Gorontalo","Kabupaten Pohuwato, Gorontalo",GORONTALO,,Indonesia,,,,0.4892775,1.214.439.286,https://maps.google.com/?cid=0x0:0x8cbaf542f29b4609,
supermarket,Toko bahan makanan,Toko aneka ria,"GRJ8+HF3, pasar, Kec. Randangan, Kabupaten Pohuwato, Gorontalo 96469","pasar, Kec. Randangan, Kabupaten Pohuwato",GORONTALO,96469.0,Indonesia,,,,0.531392,1.218.161.598,https://maps.google.com/?cid=0x0:0xefb7757d423e1f1e,
supermarket,Pusat Perbelanjaan,Q-Mart Super Store,"Jl. Kalimantan No.94, Dulalowo Tim., Kec. Kota Tengah, Kota Gorontalo, Gorontalo 96138","Dulalowo Tim., Kec. Kota Tengah, Kota Gorontalo",GORONTALO,96138.0,Indonesia,435834318.0,,,0.5663315,1.230.421.559,https://maps.google.com/?cid=0x0:0xa31fb94e230fb4cf,
supermarket,Toko Perhiasan,Karsa Utama,"Jl. S. Parman No.45, Biawao, Kota Sel., Kota Gorontalo, Gorontalo 96133","Biawao, Kota Sel., Kota Gorontalo",GORONTALO,96133.0,Indonesia,,,,0.5364809,1.230.589.067,https://maps.google.com/?cid=0x0:0x1a7597bff92c0a71,
supermarket,Toko bahan makanan,KIOS Putri,"HJ63+257, Jl. Trans-Sulawesi, Wonggarasi Tengah, Kec. Lemito, Kabupaten Pohuwato, Gorontalo 96468","Jl. Trans-Sulawesi, Wonggarasi Tengah, Kec. Lemito, Kabupaten Pohuwato",GORONTALO,96468.0,Indonesia,,,,0.5600811,1.216.024.248,https://maps.google.com/?cid=0x0:0xa21a81d35ad29a70,
supermarket,Toko,Acha Shop,"HF3F+56 Popayato Timur, Marisa, Dusun 1, Kabupaten Pohuwato, Gorontalo","Kabupaten Pohuwato, Gorontalo",GORONTALO,,Indonesia,,,,0.5529236,1.214.730.865,https://maps.google.com/?cid=0x0:0xbc08032664b49172,
supermarket,supermarket,Tersedia Di Toko Ini,"Maleo, Kec. Popayato Tim., Kabupaten Pohuwato, Gorontalo","Kabupaten Pohuwato, Gorontalo",GORONTALO,,Indonesia,,,,0.5120615,1.214.750.483,https://maps.google.com/?cid=0x0:0xa95fc5e6abe88bdc,
supermarket,Toko bahan makanan,OLAMi mart,"Dusun Tugu, Pancasila, Kec. Dengilo, Kabupaten Pohuwato, Gorontalo 96265","Pancasila, Kec. Dengilo, Kabupaten Pohuwato",GORONTALO,96265.0,Indonesia,81357354316.0,,,0.5270283,1.220.904.404,https://maps.google.com/?cid=0x0:0x3256c068e6934688,
supermarket,supermarket,TOKO CENDRANA,"Maleo, Kec. Popayato Tim., Kabupaten Pohuwato, Gorontalo","Kabupaten Pohuwato, Gorontalo",GORONTALO,,Indonesia,,,,0.5135512,121.477.446,https://maps.google.com/?cid=0x0:0xf6ae8dba14d7c655,
supermarket,Restoran,Warung Rempah,"GHVF+P69, Lemito Utara, Kec. Lemito, Kabupaten Pohuwato, Gorontalo 96468","Lemito Utara, Kec. Lemito, Kabupaten Pohuwato",GORONTALO,96468.0,Indonesia,85298666134.0,,,0.5442831,1.215.731.004,https://maps.google.com/?cid=0x0:0x40b6226221e7f8f6,
supermarket,Toko umum,Kios Melinda,"HJ53+VFQ, Jl. Trans-Sulawesi, Wonggarasi Tengah, Kec. Lemito, Kabupaten Pohuwato, Gorontalo 96468","Jl. Trans-Sulawesi, Wonggarasi Tengah, Kec. Lemito, Kabupaten Pohuwato",GORONTALO,96468.0,Indonesia,,,,0.5597192,1.216.037.434,https://maps.google.com/?cid=0x0:0x21c9bf0eb95f3812,
supermarket,Minimarket,Toko Aurel,"F3MG+G6W, Pentadu, Kec. Paguat, Kabupaten Pohuwato, Gorontalo 96265","Pentadu, Kec. Paguat, Kabupaten Pohuwato",GORONTALO,96265.0,Indonesia,82259872120.0,,,0.4838741,1.220.755.747,https://maps.google.com/?cid=0x0:0xfb2e82478356bc02,
supermarket,Minimarket,Toko Sasa,"F3Q9+VH8, Siduan, Kec. Paguat, Kabupaten Pohuwato, Gorontalo 96265","Siduan, Kec. Paguat, Kabupaten Pohuwato",GORONTALO,96265.0,Indonesia,,,,0.4896569,1.220.689.514,https://maps.google.com/?cid=0x0:0xa7036525cb88a68a,
supermarket,supermarket,Kec. Popayato Tim.,"Kabupaten Pohuwato, Gorontalo","Kabupaten Pohuwato, Gorontalo",GORONTALO,,Indonesia,,,,0.521171,1.214.876.076,https://maps.google.com/?cid=0x0:0xabc56e34572880b2,
supermarket,Toko,Toko Isbel Mart Grosir Popayato,"GF9M+8PC, Maleo, Kec. Popayato Tim., Kabupaten Pohuwato, Gorontalo 96467","Maleo, Kec. Popayato Tim., Kabupaten Pohuwato",GORONTALO,96467.0,Indonesia,,,,0.5183182,1.214.842.776,https://maps.google.com/?cid=0x0:0xe88255cde0feaad4,
supermarket,Minimarket,AlfaMIDI POPAYATO TIMUR,"GF6G+X6P, Jl. Trans-Sulawesi, Maleo, Kec. Popayato Tim., Kabupaten Pohuwato, Gorontalo 96467","Jl. Trans-Sulawesi, Maleo, Kec. Popayato Tim., Kabupaten Pohuwato",GORONTALO,96467.0,Indonesia,,,,0.5124323,1.214.756.237,https://maps.google.com/?cid=0x0:0x7ff919ffe4e843c0,
supermarket,Makanan Kecil,MOONFII CHICKEN,"GFJM+C4R, Tahele, Kec. Popayato Tim., Kabupaten Pohuwato, Gorontalo","Kabupaten Pohuwato, Gorontalo",GORONTALO,,Indonesia,81241839872.0,,,0.5311153,1.214.827.508,https://maps.google.com/?cid=0x0:0x7026de4feed3d473,
supermarket,Minimarket,arofah cell,"Tunas Jaya, Kec. Popayato Bar., Kabupaten Pohuwato, Gorontalo 96467","Kec. Popayato Bar., Kabupaten Pohuwato",GORONTALO,96467.0,Indonesia,,,,0.5208831,1.214.104.318,https://maps.google.com/?cid=0x0:0xbde5ebfed1ef93a2,
supermarket,Pusat Perbelanjaan,Toko Angelina,"Butungale, Kec. Popayato Bar., Gorontalo, 96467",Kec. Popayato Bar.,GORONTALO,96467.0,Indonesia,82119486962.0,,,0.5231779,1.214.141.893,https://maps.google.com/?cid=0x0:0x94327a6a45b8e42f,
supermarket,Masjid,Mesjid Alihlas Desa Kalimas,"MFQM+CR, Klp. Lima, Kec. Popayato Tim., Kabupaten Pohuwato, Gorontalo","Kabupaten Pohuwato, Gorontalo",GORONTALO,,Indonesia,,,,0.6885625,1.214.845.625,https://maps.google.com/?cid=0x0:0xa2984bbc0e3d9f7,
supermarket,Hipermarket,Hymart Supermarket,"Jl. Sultan Botutihe No.220, Moodu, Kec. Kota Tim., Kota Gorontalo, Gorontalo 96113","Moodu, Kec. Kota Tim., Kota Gorontalo",GORONTALO,96113.0,Indonesia,435830400.0,,,0.54034,123.074.965,https://maps.google.com/?cid=0x0:0x73ba3dabd9175daa,
supermarket,Toko,Toko Mbak Mariyati,"Tunas Jaya, Kec. Popayato Bar., Kabupaten Pohuwato, Gorontalo 96467","Kec. Popayato Bar., Kabupaten Pohuwato",GORONTALO,96467.0,Indonesia,85396148263.0,,,0.6551877,1.213.941.835,https://maps.google.com/?cid=0x0:0xbff9157c215915bf,
supermarket,Toko,AULIA,"FCW4+JPW, Jl. Trans-Sulawesi, Dudewulo, Kec. Popayato Bar., Kabupaten Pohuwato, Gorontalo 96467","Jl. Trans-Sulawesi, Dudewulo, Kec. Popayato Bar., Kabupaten Pohuwato",GORONTALO,96467.0,Indonesia,,,,0.4966241,1.214.068.129,https://maps.google.com/?cid=0x0:0xfca8240348ae6c72,
supermarket,supermarket,Rumah Jaya,"GHQ9+VFM, Lemito, Kec. Lemito, Kabupaten Pohuwato, Gorontalo 96468","Lemito, Kec. Lemito, Kabupaten Pohuwato",GORONTALO,96468.0,Indonesia,,,,0.5400042,1.215.687.381,https://maps.google.com/?cid=0x0:0x75cbdf76270af797,
supermarket,Pusat Perbelanjaan,Agung Supermarket Kota Gorontalo,"G3W6+2V6, Jl. D.I. Panjaitan No.110, Limba U I, Kota Sel., Kota Gorontalo, Gorontalo 96135","Jl. D.I. Panjaitan No.110, Limba U I, Kota Sel., Kota Gorontalo",GORONTALO,96135.0,Indonesia,,,,0.544968,1.230.622.361,https://maps.google.com/?cid=0x0:0x9e7641346e022af1,
supermarket,Pusat Perbelanjaan,Q-Mart Super Store,"Jl. Kalimantan No.94, Dulalowo Tim., Kec. Kota Tengah, Kota Gorontalo, Gorontalo 96138","Dulalowo Tim., Kec. Kota Tengah, Kota Gorontalo",GORONTALO,96138.0,Indonesia,435834318.0,,,0.5663315,1.230.421.559,https://maps.google.com/?cid=0x0:0xa31fb94e230fb4cf,
supermarket,Toko Ikan,"Jual beli ikan,udang","FCQV+PH7, Bumi Bahari, Popayato, Kabupaten Pohuwato, Gorontalo","Kabupaten Pohuwato, Gorontalo",GORONTALO,,Indonesia,,,,0.4892775,1.214.439.286,https://maps.google.com/?cid=0x0:0x8cbaf542f29b4609,
supermarket,Toko Perhiasan,Karsa Utama,"Jl. S. Parman No.45, Biawao, Kota Sel., Kota Gorontalo, Gorontalo 96133","Biawao, Kota Sel., Kota Gorontalo",GORONTALO,96133.0,Indonesia,,,,0.5364809,1.230.589.067,https://maps.google.com/?cid=0x0:0x1a7597bff92c0a71,
supermarket,Toko bahan makanan,KIOS Putri,"HJ63+257, Jl. Trans-Sulawesi, Wonggarasi Tengah, Kec. Lemito, Kabupaten Pohuwato, Gorontalo 96468","Jl. Trans-Sulawesi, Wonggarasi Tengah, Kec. Lemito, Kabupaten Pohuwato",GORONTALO,96468.0,Indonesia,,,,0.5600811,1.216.024.248,https://maps.google.com/?cid=0x0:0xa21a81d35ad29a70,
supermarket,Toko bahan makanan,Mocca Delli Super Market BAHAN KUE  DAPUR,"Moodu, Kec. Kota Tim., Kota Gorontalo, Gorontalo 96135","Kec. Kota Tim., Kota Gorontalo",GORONTALO,96135.0,Indonesia,89560112299.0,,,0.5403059,1.230.750.174,https://maps.google.com/?cid=0x0:0x16e2ba97955d038a,
supermarket,Restoran,Warung Rempah,"GHVF+P69, Lemito Utara, Kec. Lemito, Kabupaten Pohuwato, Gorontalo 96468","Lemito Utara, Kec. Lemito, Kabupaten Pohuwato",GORONTALO,96468.0,Indonesia,85298666134.0,,,0.5442831,1.215.731.004,https://maps.google.com/?cid=0x0:0x40b6226221e7f8f6,
supermarket,Toko,Acha Shop,"HF3F+56 Popayato Timur, Marisa, Dusun 1, Kabupaten Pohuwato, Gorontalo","Kabupaten Pohuwato, Gorontalo",GORONTALO,,Indonesia,,,,0.5529236,1.214.730.865,https://maps.google.com/?cid=0x0:0xbc08032664b49172,
supermarket,Toko,Muraa Supermarket Gorontalo 2,"Jl. Kalimantan No.94, Dulalowo Tim., Kec. Kota Tengah, Kota Gorontalo, Gorontalo 96138","Dulalowo Tim., Kec. Kota Tengah, Kota Gorontalo",GORONTALO,96138.0,Indonesia,,,,0.5600187,1.230.567.167,https://maps.google.com/?cid=0x0:0x3f600202ab0d158e,
supermarket,supermarket,Kec. Randangan,"Kabupaten Pohuwato, Gorontalo","Kabupaten Pohuwato, Gorontalo",GORONTALO,,Indonesia,,,,0.536787,1.218.156.097,https://maps.google.com/?cid=0x0:0xae3be2603f746c2c,
supermarket,Masjid,SALAFIYAH MART,"JL. KH. ABDUL GHOFIR NAWAWI.MA, No 111, Dusun IV, Banuroja, Kec. Randangan, Kabupaten Pohuwato, Gorontalo 96469","No 111, Dusun IV, Banuroja, Kec. Randangan, Kabupaten Pohuwato",GORONTALO,96469.0,Indonesia,81244181111.0,,,0.5474566,1.217.905.476,https://maps.google.com/?cid=0x0:0x8e92e83f000e2e3,
supermarket,Toko bahan makanan,Toko aneka ria,"GRJ8+HF3, pasar, Kec. Randangan, Kabupaten Pohuwato, Gorontalo 96469","pasar, Kec. Randangan, Kabupaten Pohuwato",GORONTALO,96469.0,Indonesia,,,,0.531392,1.218.161.598,https://maps.google.com/?cid=0x0:0xefb7757d423e1f1e,
supermarket,,Indomaret Randangan,"GRH7+6J, Motolohu, Kec. Randangan, Kabupaten Pohuwato, Gorontalo 96469","Motolohu, Kec. Randangan, Kabupaten Pohuwato",GORONTALO,96469.0,Indonesia,,,,0.5280691,1.218.140.516,https://maps.google.com/?cid=0x0:0xe6c5facd65093d8f,
supermarket,Toko,Queen Mart,"Panca Karsa I, Kec. Taluditi, Kabupaten Pohuwato, Gorontalo 96469","Kec. Taluditi, Kabupaten Pohuwato",GORONTALO,96469.0,Indonesia,82195600600.0,,,0.6082168,1.218.056.701,https://maps.google.com/?cid=0x0:0x780f1616b076c060,
supermarket,Toko bahan makanan,KIOS NEW SURYA RANDANGAN,"GRH8+Q33, Motolohu, Kec. Randangan, Kabupaten Pohuwato, Gorontalo 96469","Motolohu, Kec. Randangan, Kabupaten Pohuwato",GORONTALO,96469.0,Indonesia,85146232345.0,,,0.529382,12.181.516,https://maps.google.com/?cid=0x0:0xac94dfb11b238cf,
supermarket,Toko bahan makanan,TOKO TIKA,"GRJ7+QM5, Motolohu, Kec. Randangan, Kabupaten Pohuwato, Gorontalo 96469","Motolohu, Kec. Randangan, Kabupaten Pohuwato",GORONTALO,96469.0,Indonesia,,,,0.5318807,1.218.142.406,https://maps.google.com/?cid=0x0:0x5b3a416ed0fd42f3,
supermarket,Gudang,Batara,"GPJG+RFV, Jl. Trans-Sulawesi, Sidorukun, Kec. Randangan, Kabupaten Pohuwato, Gorontalo 96469","Jl. Trans-Sulawesi, Sidorukun, Kec. Randangan, Kabupaten Pohuwato",GORONTALO,96469.0,Indonesia,,,,0.5321133,1.217.261.659,https://maps.google.com/?cid=0x0:0xd2e13d0d87594bc1,
supermarket,Toko,Pi Mart,"GRQ5+CP6, Randangan - Desa Taluditi, Manunggal Karya, Kec. Randangan, Kabupaten Pohuwato, Gorontalo 96469","Randangan - Desa Taluditi, Manunggal Karya, Kec. Randangan, Kabupaten Pohuwato",GORONTALO,96469.0,Indonesia,,,,0.5385366,1.218.092.546,https://maps.google.com/?cid=0x0:0xff7e6e4af1efe1c,
supermarket,Toko bahan makanan,Lapak sayur dan buah Riswandi,"GRQ5+9Q, Manunggal Karya, Kec. Randangan, Kabupaten Pohuwato, Gorontalo 96469","Manunggal Karya, Kec. Randangan, Kabupaten Pohuwato",GORONTALO,96469.0,Indonesia,82194691011.0,,,0.538382,1.218.093.666,https://maps.google.com/?cid=0x0:0x536ecaf073c3c84e,
supermarket,Toko,Arshyla- minimarket,"Panca Karsa I, Kec. Taluditi, Kabupaten Pohuwato, Gorontalo 96469","Kec. Taluditi, Kabupaten Pohuwato",GORONTALO,96469.0,Indonesia,,,,0.6092982,1.218.063.936,https://maps.google.com/?cid=0x0:0x6a5f9b7e4ce22a52,
supermarket,Toko,Toko chindy,"Padengo, Kec. Duhiadaa, Kabupaten Pohuwato, Gorontalo 96266","Kec. Duhiadaa, Kabupaten Pohuwato",GORONTALO,96266.0,Indonesia,85340323038.0,,,0.5007191,1.218.980.681,https://maps.google.com/?cid=0x0:0x208eb2b20f2d576f,
supermarket,Toko,TOKO Vina,"HQ3Q+732, Randangan - Desa Taluditi, Banuroja, Kec. Randangan, Kabupaten Pohuwato, Gorontalo 96469","Randangan - Desa Taluditi, Banuroja, Kec. Randangan, Kabupaten Pohuwato",GORONTALO,96469.0,Indonesia,,,,0.5531276,1.217.876.325,https://maps.google.com/?cid=0x0:0x155a42b934852eb1,
supermarket,Toko,Warung Ibu Murni,"Jalan Trans, Panca Karsa I, Kec. Taluditi, Kabupaten Pohuwato, Gorontalo 96469","Panca Karsa I, Kec. Taluditi, Kabupaten Pohuwato",GORONTALO,96469.0,Indonesia,,,,0.5974285,1.218.000.405,https://maps.google.com/?cid=0x0:0x69c5bc3a173be025,
supermarket,Toko umum,KIOS RISDAMUL,"GRC4+3HM, Motolohu Sel., Kec. Randangan, Kabupaten Pohuwato, Gorontalo 96469","Motolohu Sel., Kec. Randangan, Kabupaten Pohuwato",GORONTALO,96469.0,Indonesia,,,,0.5202115,1.218.064.364,https://maps.google.com/?cid=0x0:0xf92a28a9d5cb631f,
supermarket,supermarket,Putri Fitri Home,"GRH7+PXF, Motolohu, Kec. Randangan, Kabupaten Pohuwato, Gorontalo 96469","Motolohu, Kec. Randangan, Kabupaten Pohuwato",GORONTALO,96469.0,Indonesia,82296716183.0,,,0.5293113,12.181.492,https://maps.google.com/?cid=0x0:0xf16385830e686a62,
supermarket,Toko bahan makanan,Toko Ganesha,"Jl. Trans-Sulawesi, Motolohu, Kec. Randangan, Kabupaten Pohuwato, Gorontalo 69469","Motolohu, Kec. Randangan, Kabupaten Pohuwato",GORONTALO,69469.0,Indonesia,81357989214.0,,,0.5276916,1.218.091.371,https://maps.google.com/?cid=0x0:0xef40940b7df0e573,
supermarket,Toko bahan makanan,SRC Lolinda,"GV3F+2HW, Manawa, Kec. Patilanggio, Kabupaten Pohuwato, Gorontalo 96266","Manawa, Kec. Patilanggio, Kabupaten Pohuwato",GORONTALO,96266.0,Indonesia,,,,0.5026246,1.218.739.471,https://maps.google.com/?cid=0x0:0x1cfd2e924bde4036,
supermarket,Kios,Toko Al-Barokah,"Motolohu Sel., Kec. Randangan, Kabupaten Pohuwato, Gorontalo 96469","Kec. Randangan, Kabupaten Pohuwato",GORONTALO,96469.0,Indonesia,82292682140.0,,,0.5197875,1.218.133.281,https://maps.google.com/?cid=0x0:0xca3db60fc1344249,
supermarket,Toko Swalayan,Toko Renad,"FX84+RVF, Jl. Trans-Sulawesi, Teratai, Kec. Marisa, Kabupaten Pohuwato, Gorontalo 96265","Jl. Trans-Sulawesi, Teratai, Kec. Marisa, Kabupaten Pohuwato",GORONTALO,96265.0,Indonesia,82190011899.0,,,0.4670597,1.219.571.767,https://maps.google.com/?cid=0x0:0xcbfafe4dc69e43c3,
supermarket,Toko,Toko Salam,"GQXR+P3G, Banuroja, Kec. Randangan, Kabupaten Pohuwato, Gorontalo 96469","Banuroja, Kec. Randangan, Kabupaten Pohuwato",GORONTALO,96469.0,Indonesia,,,,0.5500808,12.178.916,https://maps.google.com/?cid=0x0:0xfd33cabeaff689d8,
supermarket,supermarket,Toko Reza,"GQ9H+V93, Jl. Trans-Sulawesi, Patuhu, Kec. Randangan, Kabupaten Pohuwato, Gorontalo 96469","Jl. Trans-Sulawesi, Patuhu, Kec. Randangan, Kabupaten Pohuwato",GORONTALO,96469.0,Indonesia,,,,0.5196305,121.778.423,https://maps.google.com/?cid=0x0:0x6cc2eb73c5751b0b,
supermarket,supermarket,Toko Silaturahmi,"FRX6+XXJ, Unnamed Road, Huyula, Kec. Randangan, Kabupaten Pohuwato, Gorontalo 96469","Unnamed Road, Huyula, Kec. Randangan, Kabupaten Pohuwato",GORONTALO,96469.0,Indonesia,,,,0.4999537,1.218.124.061,https://maps.google.com/?cid=0x0:0xe886f8db3246a30f,
supermarket,Toko bahan makanan,Kios Rinfal,"FRR6+RFW, Siduwonge, Kec. Randangan, Kabupaten Pohuwato, Gorontalo 96469","Siduwonge, Kec. Randangan, Kabupaten Pohuwato",GORONTALO,96469.0,Indonesia,,,,0.4921022,1.218.112.075,https://maps.google.com/?cid=0x0:0x79d32d2c39dfaae2,
supermarket,Pusat Perbelanjaan,Toko Tia Randangan,"GRRG+MXF, Ayula, Kec. Randangan, Kabupaten Pohuwato, Gorontalo 96266","Ayula, Kec. Randangan, Kabupaten Pohuwato",GORONTALO,96266.0,Indonesia,,,,0.5416927,1.218.274.089,https://maps.google.com/?cid=0x0:0x59f8906d4dd1ec15,
supermarket,supermarket,Gorontalo,,Gorontalo,GORONTALO,,Indonesia,,,,0.6999372,1.224.467.238,https://maps.google.com/?cid=0x0:0x1030bfbcaf71a20,
supermarket,Minimarket,Indomaret Sungai Taluditi,"JRM7+F6F, Panca Karsa II, Kec. Taluditi, Kabupaten Pohuwato, Gorontalo 96469","Panca Karsa II, Kec. Taluditi, Kabupaten Pohuwato",GORONTALO,96469.0,Indonesia,,,,0.6336021,1.218.139.041,https://maps.google.com/?cid=0x0:0xd3b2d98797337e1e,
supermarket,Minimarket,Indomaret | Taluduyunu,"Jl. Trans-Sulawesi No.196, Buntulia Utara, Kec. Buntulia, Kabupaten Pohuwato, Gorontalo 96466","Buntulia Utara, Kec. Buntulia, Kabupaten Pohuwato",GORONTALO,96466.0,Indonesia,81322558822.0,,,0.5001889,1.219.354.878,https://maps.google.com/?cid=0x0:0xe8a3e7f856d50fd0,
supermarket,Toko,Alfamart Taluditi,"JR24+CFH, Randangan - Desa Taluditi, Panca Karsa I, Kec. Taluditi, Kabupaten Pohuwato, Gorontalo 96469","Randangan - Desa Taluditi, Panca Karsa I, Kec. Taluditi, Kabupaten Pohuwato",GORONTALO,96469.0,Indonesia,,,,0.6010662,1.218.062.307,https://maps.google.com/?cid=0x0:0xedf23a85463ad014,
supermarket,Hipermarket,Hymart Supermarket,"Jl. Sultan Botutihe No.220, Moodu, Kec. Kota Tim., Kota Gorontalo, Gorontalo 96113","Moodu, Kec. Kota Tim., Kota Gorontalo",GORONTALO,96113.0,Indonesia,435830400.0,,,0.54034,123.074.965,https://maps.google.com/?cid=0x0:0x73ba3dabd9175daa,
supermarket,Pusat Perbelanjaan,Q-Mart Super Store,"Jl. Kalimantan No.94, Dulalowo Tim., Kec. Kota Tengah, Kota Gorontalo, Gorontalo 96138","Dulalowo Tim., Kec. Kota Tengah, Kota Gorontalo",GORONTALO,96138.0,Indonesia,435834318.0,,,0.5663315,1.230.421.559,https://maps.google.com/?cid=0x0:0xa31fb94e230fb4cf,
supermarket,Toko Swalayan,Dhidi Swalayan,"RWQ8+W22, Jl. Trans-Sulawesi, Moluo, Kec. Kwandang, Kabupaten Gorontalo Utara, Gorontalo 96252","Jl. Trans-Sulawesi, Moluo, Kec. Kwandang, Kabupaten Gorontalo Utara",GORONTALO,96252.0,Indonesia,,,,0.8397634,1.229.150.214,https://maps.google.com/?cid=0x0:0xf472d7fd728f8dd7,
supermarket,Toko bahan makanan,Mocca Delli Super Market BAHAN KUE  DAPUR,"Moodu, Kec. Kota Tim., Kota Gorontalo, Gorontalo 96135","Kec. Kota Tim., Kota Gorontalo",GORONTALO,96135.0,Indonesia,89560112299.0,,,0.5403059,1.230.750.174,https://maps.google.com/?cid=0x0:0x16e2ba97955d038a,
supermarket,Toko Swalayan,Makro Supermarket  Department Store,"G3V5+6JR, Jl. Prof. Dr. H.B. Jassin, Limba U I, Kota Sel., Kota Gorontalo, Gorontalo 96134","Jl. Prof. Dr. H.B. Jassin, Limba U I, Kota Sel., Kota Gorontalo",GORONTALO,96134.0,Indonesia,,,,0.543104,123.059.011,https://maps.google.com/?cid=0x0:0x26476c4c695c115b,
supermarket,Toko Perhiasan,Karsa Utama,"Jl. S. Parman No.45, Biawao, Kota Sel., Kota Gorontalo, Gorontalo 96133","Biawao, Kota Sel., Kota Gorontalo",GORONTALO,96133.0,Indonesia,,,,0.5364809,1.230.589.067,https://maps.google.com/?cid=0x0:0x1a7597bff92c0a71,
supermarket,Pusat Perbelanjaan,Toko ulfa,"MV25+373, Jl. Trans-Sulawesi, Datahu, Kec. Tibawa, Kabupaten Gorontalo Utara, Gorontalo 96216","Jl. Trans-Sulawesi, Datahu, Kec. Tibawa, Kabupaten Gorontalo Utara",GORONTALO,96216.0,Indonesia,,,,0.4702627,1.219.900.755,https://maps.google.com/?cid=0x0:0x8e36594efc65ef8e,
supermarket,Toko,TOKO Vina,"HQ3Q+732, Randangan - Desa Taluditi, Banuroja, Kec. Randangan, Kabupaten Pohuwato, Gorontalo 96469","Randangan - Desa Taluditi, Banuroja, Kec. Randangan, Kabupaten Pohuwato",GORONTALO,96469.0,Indonesia,,,,0.5531276,1.217.876.325,https://maps.google.com/?cid=0x0:0x155a42b934852eb1,
supermarket,Toko Swalayan,DK MART TELAGA,"J22J+CH5, Jl. Ahmad A. Wahab, Tuladenggi, Kec. Telaga Biru, Kabupaten Gorontalo, Gorontalo 96181","Jl. Ahmad A. Wahab, Tuladenggi, Kec. Telaga Biru, Kabupaten Gorontalo",GORONTALO,96181.0,Indonesia,82217456911.0,,,0.6010085,1.230.314.848,https://maps.google.com/?cid=0x0:0x89dbfc41307302dd,
supermarket,Toko bahan makanan,Toko Gorontalo,"5R2J+7G8, Ngofagita, Kec. Malifut, Kabupaten Halmahera Utara, Maluku Utara 97764","Ngofagita, Kec. Malifut, Kabupaten Halmahera Utara",GORONTALO,97764.0,Indonesia,81355707200.0,,,11.506.719,1.278.313.303,https://maps.google.com/?cid=0x0:0xbf35b7c12f1baefc,
supermarket,Toko,ItsCalla,"Jl. Apel I, Huangobotu, Kec. Dungingi, Kota Gorontalo, Gorontalo 96136","Huangobotu, Kec. Dungingi, Kota Gorontalo",GORONTALO,96136.0,Indonesia,82332771805.0,,,0.5654887,1.230.391.875,https://maps.google.com/?cid=0x0:0xcfbad330835c6c40,
supermarket,supermarket,UD SUPER MURAH,"JRM6+8XJ, Panca Karsa II, Kec. Taluditi, Kabupaten Pohuwato, Gorontalo","Kabupaten Pohuwato, Gorontalo",GORONTALO,,Indonesia,,,,0.6325676,1.218.116.517,https://maps.google.com/?cid=0x0:0xac3ad959310ecf99,
supermarket,Toko,Warung Ibu Murni,"Jalan Trans, Panca Karsa I, Kec. Taluditi, Kabupaten Pohuwato, Gorontalo 96469","Panca Karsa I, Kec. Taluditi, Kabupaten Pohuwato",GORONTALO,96469.0,Indonesia,,,,0.5974285,1.218.000.405,https://maps.google.com/?cid=0x0:0x69c5bc3a173be025,
supermarket,Toko,TOKO Lestari,"JR44+7HC, Randangan - Desa Taluditi, Panca Karsa I, Kec. Taluditi, Kabupaten Pohuwato, Gorontalo 96469","Randangan - Desa Taluditi, Panca Karsa I, Kec. Taluditi, Kabupaten Pohuwato",GORONTALO,96469.0,Indonesia,,,,0.6056924,1.218.063.925,https://maps.google.com/?cid=0x0:0x4ff9f3f8a83c696f,
supermarket,supermarket,Gorontalo 96469,"Kabupaten Pohuwato, Gorontalo","Kabupaten Pohuwato, Gorontalo",GORONTALO,,Indonesia,,,,0.737587,1.217.651.362,https://maps.google.com/?cid=0x0:0xeb07f8fd945f7ccf,
supermarket,Toko,Pi Mart,"GRQ5+CP6, Randangan - Desa Taluditi, Manunggal Karya, Kec. Randangan, Kabupaten Pohuwato, Gorontalo 96469","Randangan - Desa Taluditi, Manunggal Karya, Kec. Randangan, Kabupaten Pohuwato",GORONTALO,96469.0,Indonesia,,,,0.5385366,1.218.092.546,https://maps.google.com/?cid=0x0:0xff7e6e4af1efe1c,
supermarket,supermarket,Gorontalo 96468,"Kec. Lemito, Kabupaten Pohuwato, Gorontalo","Kabupaten Pohuwato, Gorontalo",GORONTALO,,Indonesia,,,,0.7390376,1.215.826.642,https://maps.google.com/?cid=0x0:0xbcbfbe464a8e6a55,
supermarket,Toko bahan makanan,Toko Arafah,"GPJG+Q8P, Limbula, Kec. Wanggarasi, Kabupaten Pohuwato, Gorontalo 96469","Limbula, Kec. Wanggarasi, Kabupaten Pohuwato",GORONTALO,96469.0,Indonesia,81248117744.0,,,0.531967,1.217.258.255,https://maps.google.com/?cid=0x0:0x299b07b0fa7763c7,
supermarket,Toko,Toko Isbel Mart Grosir Popayato,"GF9M+8PC, Maleo, Kec. Popayato Tim., Kabupaten Pohuwato, Gorontalo 96467","Maleo, Kec. Popayato Tim., Kabupaten Pohuwato",GORONTALO,96467.0,Indonesia,,,,0.5183182,1.214.842.776,https://maps.google.com/?cid=0x0:0xe88255cde0feaad4,
supermarket,Masjid,SALAFIYAH MART,"JL. KH. ABDUL GHOFIR NAWAWI.MA, No 111, Dusun IV, Banuroja, Kec. Randangan, Kabupaten Pohuwato, Gorontalo 96469","No 111, Dusun IV, Banuroja, Kec. Randangan, Kabupaten Pohuwato",GORONTALO,96469.0,Indonesia,81244181111.0,,,0.5474566,1.217.905.476,https://maps.google.com/?cid=0x0:0x8e92e83f000e2e3,
supermarket,Pusat Perbelanjaan,Agung Supermarket Kota Gorontalo,"G3W6+2V6, Jl. D.I. Panjaitan No.110, Limba U I, Kota Sel., Kota Gorontalo, Gorontalo 96135","Jl. D.I. Panjaitan No.110, Limba U I, Kota Sel., Kota Gorontalo",GORONTALO,96135.0,Indonesia,,,,0.544968,1.230.622.361,https://maps.google.com/?cid=0x0:0x9e7641346e022af1,
supermarket,Toko,Queen Mart,"Panca Karsa I, Kec. Taluditi, Kabupaten Pohuwato, Gorontalo 96469","Kec. Taluditi, Kabupaten Pohuwato",GORONTALO,96469.0,Indonesia,82195600600.0,,,0.6082168,1.218.056.701,https://maps.google.com/?cid=0x0:0x780f1616b076c060,
supermarket,Toko,Arshyla- minimarket,"Panca Karsa I, Kec. Taluditi, Kabupaten Pohuwato, Gorontalo 96469","Kec. Taluditi, Kabupaten Pohuwato",GORONTALO,96469.0,Indonesia,,,,0.6092982,1.218.063.936,https://maps.google.com/?cid=0x0:0x6a5f9b7e4ce22a52,
supermarket,Toko Perhiasan,Karsa Utama,"Jl. S. Parman No.45, Biawao, Kota Sel., Kota Gorontalo, Gorontalo 96133","Biawao, Kota Sel., Kota Gorontalo",GORONTALO,96133.0,Indonesia,,,,0.5364809,1.230.589.067,https://maps.google.com/?cid=0x0:0x1a7597bff92c0a71,
supermarket,Toko umum,Kios alreza k opi,"GMR7+83R, Yipilo, Kec. Wanggarasi, Kabupaten Pohuwato, Gorontalo 96468","Yipilo, Kec. Wanggarasi, Kabupaten Pohuwato",GORONTALO,96468.0,Indonesia,,,,0.5408635,1.216.626.422,https://maps.google.com/?cid=0x0:0x715ec4188ae4f9a7,
supermarket,Minimarket,Toko Sasa,"F3Q9+VH8, Siduan, Kec. Paguat, Kabupaten Pohuwato, Gorontalo 96265","Siduan, Kec. Paguat, Kabupaten Pohuwato",GORONTALO,96265.0,Indonesia,,,,0.4896569,1.220.689.514,https://maps.google.com/?cid=0x0:0xa7036525cb88a68a,
supermarket,Toko umum,Kios Melinda,"HJ53+VFQ, Jl. Trans-Sulawesi, Wonggarasi Tengah, Kec. Lemito, Kabupaten Pohuwato, Gorontalo 96468","Jl. Trans-Sulawesi, Wonggarasi Tengah, Kec. Lemito, Kabupaten Pohuwato",GORONTALO,96468.0,Indonesia,,,,0.5597192,1.216.037.434,https://maps.google.com/?cid=0x0:0x21c9bf0eb95f3812,
supermarket,Toko Swalayan,Toko Renad,"FX84+RVF, Jl. Trans-Sulawesi, Teratai, Kec. Marisa, Kabupaten Pohuwato, Gorontalo 96265","Jl. Trans-Sulawesi, Teratai, Kec. Marisa, Kabupaten Pohuwato",GORONTALO,96265.0,Indonesia,82190011899.0,,,0.4670597,1.219.571.767,https://maps.google.com/?cid=0x0:0xcbfafe4dc69e43c3,
supermarket,Gudang,Batara,"GPJG+RFV, Jl. Trans-Sulawesi, Sidorukun, Kec. Randangan, Kabupaten Pohuwato, Gorontalo 96469","Jl. Trans-Sulawesi, Sidorukun, Kec. Randangan, Kabupaten Pohuwato",GORONTALO,96469.0,Indonesia,,,,0.5321133,1.217.261.659,https://maps.google.com/?cid=0x0:0xd2e13d0d87594bc1,
supermarket,Toko bahan makanan,Toko Ganesha,"Jl. Trans-Sulawesi, Motolohu, Kec. Randangan, Kabupaten Pohuwato, Gorontalo 69469","Motolohu, Kec. Randangan, Kabupaten Pohuwato",GORONTALO,69469.0,Indonesia,81357989214.0,,,0.5276916,1.218.091.371,https://maps.google.com/?cid=0x0:0xef40940b7df0e573,
supermarket,Toko,Warung Ibu Murni,"Jalan Trans, Panca Karsa I, Kec. Taluditi, Kabupaten Pohuwato, Gorontalo 96469","Panca Karsa I, Kec. Taluditi, Kabupaten Pohuwato",GORONTALO,96469.0,Indonesia,,,,0.5974285,1.218.000.405,https://maps.google.com/?cid=0x0:0x69c5bc3a173be025,
supermarket,Toko bahan makanan,Lapak sayur dan buah Riswandi,"GRQ5+9Q, Manunggal Karya, Kec. Randangan, Kabupaten Pohuwato, Gorontalo 96469","Manunggal Karya, Kec. Randangan, Kabupaten Pohuwato",GORONTALO,96469.0,Indonesia,82194691011.0,,,0.538382,1.218.093.666,https://maps.google.com/?cid=0x0:0x536ecaf073c3c84e,
supermarket,Makanan Kecil,MOONFII CHICKEN,"GFJM+C4R, Tahele, Kec. Popayato Tim., Kabupaten Pohuwato, Gorontalo","Kabupaten Pohuwato, Gorontalo",GORONTALO,,Indonesia,81241839872.0,,,0.5311153,1.214.827.508,https://maps.google.com/?cid=0x0:0x7026de4feed3d473,
supermarket,Toko Pakan Hewan,SDI MEONG SHOP and BRILLIANT WALET 2,"Jalan Poros Utama, Bandara, Omayuwa, Randangan, Pohuwato Regency, Gorontalo 96468","Bandara, Omayuwa, Randangan, Pohuwato Regency",GORONTALO,96468.0,Indonesia,85657055114.0,,,0.5231096,1.218.277.925,https://maps.google.com/?cid=0x0:0x6e95150f2272c34f,
supermarket,Minimarket,Toko Aurel,"F3MG+G6W, Pentadu, Kec. Paguat, Kabupaten Pohuwato, Gorontalo 96265","Pentadu, Kec. Paguat, Kabupaten Pohuwato",GORONTALO,96265.0,Indonesia,82259872120.0,,,0.4838741,1.220.755.747,https://maps.google.com/?cid=0x0:0xfb2e82478356bc02,
supermarket,supermarket,Rumah Jaya,"GHQ9+VFM, Lemito, Kec. Lemito, Kabupaten Pohuwato, Gorontalo 96468","Lemito, Kec. Lemito, Kabupaten Pohuwato",GORONTALO,96468.0,Indonesia,,,,0.5400042,1.215.687.381,https://maps.google.com/?cid=0x0:0x75cbdf76270af797,
supermarket,Toko bahan makanan,KIOS Putri,"HJ63+257, Jl. Trans-Sulawesi, Wonggarasi Tengah, Kec. Lemito, Kabupaten Pohuwato, Gorontalo 96468","Jl. Trans-Sulawesi, Wonggarasi Tengah, Kec. Lemito, Kabupaten Pohuwato",GORONTALO,96468.0,Indonesia,,,,0.5600811,1.216.024.248,https://maps.google.com/?cid=0x0:0xa21a81d35ad29a70,
supermarket,Restoran,Warung Rempah,"GHVF+P69, Lemito Utara, Kec. Lemito, Kabupaten Pohuwato, Gorontalo 96468","Lemito Utara, Kec. Lemito, Kabupaten Pohuwato",GORONTALO,96468.0,Indonesia,85298666134.0,,,0.5442831,1.215.731.004,https://maps.google.com/?cid=0x0:0x40b6226221e7f8f6,
supermarket,Toko Kosmetik,Desa limbula,"GPP2+JV2, Wonggarasi Tim., Kec. Wanggarasi, Kabupaten Pohuwato, Gorontalo 96469","Wonggarasi Tim., Kec. Wanggarasi, Kabupaten Pohuwato",GORONTALO,96469.0,Indonesia,,,,0.5365744,1.217.021.201,https://maps.google.com/?cid=0x0:0xfa2cf64906003c60,
supermarket,Masjid,Mesjid Alihlas Desa Kalimas,"MFQM+CR, Klp. Lima, Kec. Popayato Tim., Kabupaten Pohuwato, Gorontalo","Kabupaten Pohuwato, Gorontalo",GORONTALO,,Indonesia,,,,0.6885625,1.214.845.625,https://maps.google.com/?cid=0x0:0xa2984bbc0e3d9f7,
supermarket,Toko bahan makanan,Marisa Mart M2,"FW9M+23F, Jl. Trans-Sulawesi, Marisa Utara, Kec. Marisa, Kabupaten Pohuwato, Gorontalo 96266","Jl. Trans-Sulawesi, Marisa Utara, Kec. Marisa, Kabupaten Pohuwato",GORONTALO,96266.0,Indonesia,,,,0.467574,1.219.326.754,https://maps.google.com/?cid=0x0:0x9dd1696da0282af3,
supermarket,supermarket,Toko Regina,"Yipilo, Kec. Wanggarasi, Kabupaten Pohuwato, Gorontalo","Kabupaten Pohuwato, Gorontalo",GORONTALO,,Indonesia,,,,0.5502112,1.216.505.866,https://maps.google.com/?cid=0x0:0x7dbe28128d10efcc,
supermarket,supermarket,TOKO Iren,"Balobalonge, Kec. Lemito, Kabupaten Pohuwato, Gorontalo","Kabupaten Pohuwato, Gorontalo",GORONTALO,,Indonesia,,,,0.5630148,1.215.512.846,https://maps.google.com/?cid=0x0:0xaae239c0c88fa57b,
