Category;Real Category;Business Name;Address;City;State;Postal Code;Country;Phone;Email;Website;Latitude;Longitude;Map Link;Details Link
komplek housing;komplek housing;Gorontalo 96266;"Kabupaten Pohuwato, Gorontalo";"Kabupaten Pohuwato, Gorontalo";GORONTALO;;Indonesia;;;;0.6235288;1.218.790.306;https://maps.google.com/?cid=0x0:0x6e323a18714b4718;
komplek housing;Komplek perumahan;Perumahan;"FV9P+G6M, Mootilango, Kec. Duhiadaa, Kabupaten Pohuwato, Gorontalo 96266";"Mootilango, Kec. Duhiadaa, Kabupaten Pohuwato";GORONTALO;96266;Indonesia;;;;0.4689613;121.885.578;https://maps.google.com/?cid=0x0:0x7c82c6679f86e246;
komplek housing;Komplek perumahan;Bele li ses selvi;"GW3Q+F9J, Taluduyunu, Kec. Buntulia, Kabupaten Pohuwato, Gorontalo 96266";"Taluduyunu, Kec. Buntulia, Kabupaten Pohuwato";GORONTALO;96266;Indonesia;;;;0.504138;121.938.679;https://maps.google.com/?cid=0x0:0x3d4d520bad268e36;
komplek housing;Komplek perumahan;family hulinggi;"FWW6+6PQ, Duhiadaa, Kec. Duhiadaa, Kabupaten Pohuwato, Gorontalo";"Kabupaten Pohuwato, Gorontalo";GORONTALO;;Indonesia;;;;0.4955992;1.219.118.699;https://maps.google.com/?cid=0x0:0x3012f9ba060b2b05;
komplek housing;Perhimpunan Pengembang Perumahan;Umuri's Home;"FWQC+G9, Duhiadaa, Kec. Duhiadaa, Kabupaten Pohuwato, Gorontalo 96466";"Duhiadaa, Kec. Duhiadaa, Kabupaten Pohuwato";GORONTALO;96466;Indonesia;;;;0.4888283;1.219.208.967;https://maps.google.com/?cid=0x0:0xecb300e8e4fa1e46;
komplek housing;Komplek perumahan;SintaGiasi;"GW9X+5G3, Karya Indah, Kec. Buntulia, Kabupaten Pohuwato, Gorontalo";"Kabupaten Pohuwato, Gorontalo";GORONTALO;;Indonesia;;;;0.5178936;1.219.487.941;https://maps.google.com/?cid=0x0:0x4949067503770dd5;
komplek housing;Komplek perumahan;Rumah hadija y nule;"JVHG+M9, Tirto Asri, Kec. Taluditi, Kabupaten Pohuwato, Gorontalo";"Kabupaten Pohuwato, Gorontalo";GORONTALO;;Indonesia;;;;0.6291875;1.218.759.375;https://maps.google.com/?cid=0x0:0xaaf2cb35c4ed0e1a;
komplek housing;Komplek perumahan;Mawii home;"FWJG+763, Buntulia Bar., Kec. Buntulia, Kabupaten Pohuwato, Gorontalo";"Kabupaten Pohuwato, Gorontalo";GORONTALO;;Indonesia;;;;0.4806429;1.219.255.604;https://maps.google.com/?cid=0x0:0x3cf516052453c609;
komplek housing;Gedung Apartemen;Rumah Muchtar;"GW3J+2W4, Taluduyunu, Kec. Buntulia, Kabupaten Pohuwato, Gorontalo";"Kabupaten Pohuwato, Gorontalo";GORONTALO;;Indonesia;;;;0.5025175;121.932.339;https://maps.google.com/?cid=0x0:0x42ff3e3602f4c197;
komplek housing;Komplek perumahan;Ruma le mbone;"FWJ8+MR7, Buntulia Bar., Kec. Duhiadaa, Kabupaten Pohuwato, Gorontalo";"Kabupaten Pohuwato, Gorontalo";GORONTALO;;Indonesia;;;;0.4816592;1.219.170.507;https://maps.google.com/?cid=0x0:0x3ed6f118defcfb50;
komplek housing;Komplek perumahan;Yayan Kobi;"Jl. Gn. Pani, Taluduyunu Utara, Kec. Buntulia, Kabupaten Pohuwato, Gorontalo";"Kabupaten Pohuwato, Gorontalo";GORONTALO;;Indonesia;081241365304;;;0.51191;121.946.501;https://maps.google.com/?cid=0x0:0x2d936a0b77196a15;
komplek housing;Komplek perumahan;Ain Home's;"GW6M+MWJ, Taluduyunu, Kec. Buntulia, Kabupaten Pohuwato, Gorontalo 96266";"Taluduyunu, Kec. Buntulia, Kabupaten Pohuwato";GORONTALO;96266;Indonesia;;;;0.5117248;121.934.751;https://maps.google.com/?cid=0x0:0x5fd34b51333a5e9c;
komplek housing;Komplek perumahan;Rumah Anggi;"FWF8+RR8, Buntulia Bar., Kec. Duhiadaa, Kabupaten Pohuwato, Gorontalo";"Kabupaten Pohuwato, Gorontalo";GORONTALO;;Indonesia;;;;0.4745498;1.219.170.871;https://maps.google.com/?cid=0x0:0xe27060cbb8e87d96;
komplek housing;Komplek perumahan;Mantahu;"FWM7+JM9, Duhiadaa, Kec. Duhiadaa, Kabupaten Pohuwato, Gorontalo 96466";"Duhiadaa, Kec. Duhiadaa, Kabupaten Pohuwato";GORONTALO;96466;Indonesia;;;;0.4848806;1.219.139.579;https://maps.google.com/?cid=0x0:0x72d2d6bac10e7662;
komplek housing;Komplek perumahan;rumah kebun om ben;"FWGM+9J2, Buntulia Jaya, Kec. Duhiadaa, Kabupaten Pohuwato, Gorontalo 96466";"Buntulia Jaya, Kec. Duhiadaa, Kabupaten Pohuwato";GORONTALO;96466;Indonesia;;;;0.47588;1.219.340.068;https://maps.google.com/?cid=0x0:0xb6339366b0642125;
komplek housing;Komplek perumahan;Rumah li koken;"FWCJ+VG8, Buntulia Sel., Kec. Duhiadaa, Kabupaten Pohuwato, Gorontalo 96466";"Buntulia Sel., Kec. Duhiadaa, Kabupaten Pohuwato";GORONTALO;96466;Indonesia;;;;0.4720668;1.219.311.703;https://maps.google.com/?cid=0x0:0xdf5a0f644df02b2f;
komplek housing;Komplek perumahan;Izqi;"GW2M+W6G, Jl. Trans-Sulawesi, Taluduyunu, Kec. Buntulia, Kabupaten Pohuwato, Gorontalo 96266";"Jl. Trans-Sulawesi, Taluduyunu, Kec. Buntulia, Kabupaten Pohuwato";GORONTALO;96266;Indonesia;;;;0.5023001;1.219.330.903;https://maps.google.com/?cid=0x0:0xb60f80bc0a0102e8;
komplek housing;Gedung Apartemen;rumah kediaman;"GW3J+2WF, Jl. Trans-Sulawesi, Taluduyunu, Kec. Buntulia, Kabupaten Pohuwato, Gorontalo 96266";"Jl. Trans-Sulawesi, Taluduyunu, Kec. Buntulia, Kabupaten Pohuwato";GORONTALO;96266;Indonesia;;;;0.5023533;1.219.311.083;https://maps.google.com/?cid=0x0:0x6b722f0fe0293a25;
komplek housing;Perhimpunan Pengembang Perumahan;Myhome;"GW6W+JC2, Jl. Gn. Pani, Taluduyunu, Kec. Buntulia, Kabupaten Pohuwato, Gorontalo";"Kabupaten Pohuwato, Gorontalo";GORONTALO;;Indonesia;;;;0.5115002;121.946.026;https://maps.google.com/?cid=0x0:0x559174c3fcb48cb5;
komplek housing;komplek housing;Rumah bu murti;"JVW5+9MJ, Kalimas, Kec. Taluditi, Kabupaten Pohuwato, Gorontalo 96266";"Kalimas, Kec. Taluditi, Kabupaten Pohuwato";GORONTALO;96266;Indonesia;;;;0.6462039;1.218.597.387;https://maps.google.com/?cid=0x0:0x7d3d12ebd0580a48;
komplek housing;komplek housing;Kec. Buntulia;"Kabupaten Pohuwato, Gorontalo";"Kabupaten Pohuwato, Gorontalo";GORONTALO;;Indonesia;;;;0.5135881;1.219.484.063;https://maps.google.com/?cid=0x0:0x1fcc99a347302e7d;
komplek housing;Komplek perumahan;Muzza;"GW3Q+85F, Taluduyunu, Kec. Buntulia, Kabupaten Pohuwato, Gorontalo 96266";"Taluduyunu, Kec. Buntulia, Kabupaten Pohuwato";GORONTALO;96266;Indonesia;;;;0.503066;1.219.377.457;https://maps.google.com/?cid=0x0:0x26310b20d1a2bbb7;
komplek housing;Komplek perumahan;Ichakania Home;"FW9R+9J3 Kode Pos, Jl. Umahani, Marisa Utara, Kec. Marisa, Kabupaten Pohuwato, Gorontalo 96266";"Jl. Umahani, Marisa Utara, Kec. Marisa, Kabupaten Pohuwato";GORONTALO;96266;Indonesia;;;;0.4683822;121.941.542;https://maps.google.com/?cid=0x0:0x6ae5c9b37a213a91;
komplek housing;Pembangunan Perumahan;Jlan poskesdes taluduyunu;"GW3R+85, Taluduyunu, Kec. Buntulia, Kabupaten Pohuwato, Gorontalo 96266";"Taluduyunu, Kec. Buntulia, Kabupaten Pohuwato";GORONTALO;96266;Indonesia;;;;0.502474;121.941.239;https://maps.google.com/?cid=0x0:0x885c7422daa2345b;
komplek housing;Komplek perumahan;RUMAH MEMEY;"FWCJ+PP5, Jl. Trans-Sulawesi, Buntulia Sel., Kec. Duhiadaa, Kabupaten Pohuwato, Gorontalo 96266";"Jl. Trans-Sulawesi, Buntulia Sel., Kec. Duhiadaa, Kabupaten Pohuwato";GORONTALO;96266;Indonesia;;;;0.4717689;1.219.318.692;https://maps.google.com/?cid=0x0:0x316bb0f26ec0c503;
komplek housing;Komplek perumahan;feni;"FW9J+JC8, Buntulia Sel., Kec. Duhiadaa, Kabupaten Pohuwato, Gorontalo 96266";"Buntulia Sel., Kec. Duhiadaa, Kabupaten Pohuwato";GORONTALO;96266;Indonesia;;;;0.469035;1.219.310.898;https://maps.google.com/?cid=0x0:0x475fc217f6fecdaf;
komplek housing;Komplek perumahan;bele uu;"GW2M+JJP, Jl. Trans-Sulawesi, Taluduyunu, Kec. Buntulia, Kabupaten Pohuwato, Gorontalo 96266";"Jl. Trans-Sulawesi, Taluduyunu, Kec. Buntulia, Kabupaten Pohuwato";GORONTALO;96266;Indonesia;;;;0.5016979;121.934.197;https://maps.google.com/?cid=0x0:0x2993a7e77c47325e;
komplek housing;Komplek perumahan;Rumah Selviana Karim;"GW35+RC2, Balayo, Kec. Patilanggio, Kabupaten Pohuwato, Gorontalo 96266";"Balayo, Kec. Patilanggio, Kabupaten Pohuwato";GORONTALO;96266;Indonesia;;;;0.5046019;1.219.084.813;https://maps.google.com/?cid=0x0:0x29c23091b9b698be;
komplek housing;Asosiasi Penduduk;Rumah lia yusuf;"Jl. Trans-Sulawesi No.12a, Buntulia Sel., Kec. Marisa, Kabupaten Pohuwato, Gorontalo 96266";"Buntulia Sel., Kec. Marisa, Kabupaten Pohuwato";GORONTALO;96266;Indonesia;;;;0.469783;121.934.057;https://maps.google.com/?cid=0x0:0x9db7c031c44a06a2;
komplek housing;komplek housing;Gorontalo 96265;"Kabupaten Pohuwato, Gorontalo";"Kabupaten Pohuwato, Gorontalo";GORONTALO;;Indonesia;;;;0.6708114;1.220.382.856;https://maps.google.com/?cid=0x0:0xc7ddf273e46e561;
komplek housing;Komplek perumahan;Onu abas;"G3RQ+GGV, Popaya, Kec. Dengilo, Kabupaten Pohuwato, Gorontalo 96265";"Popaya, Kec. Dengilo, Kabupaten Pohuwato";GORONTALO;96265;Indonesia;;;;0.542463;122.088.797;https://maps.google.com/?cid=0x0:0x180c9255b349d536;
komplek housing;Komplek perumahan;Ah;"G3CM+628, Popaya, Kec. Dengilo, Kabupaten Pohuwato, Gorontalo 96265";"Popaya, Kec. Dengilo, Kabupaten Pohuwato";GORONTALO;96265;Indonesia;085163631495;;;0.520544;1.220.825.703;https://maps.google.com/?cid=0x0:0xa3546e121754454e;
komplek housing;Komplek perumahan;Imelda pratiwi;"G3CM+C9J, Unnamed Rd, Popaya, Kec. Dengilo, Kabupaten Pohuwato, Gorontalo 96265";"Unnamed Rd, Popaya, Kec. Dengilo, Kabupaten Pohuwato";GORONTALO;96265;Indonesia;;;;0.5210933;1.220.833.977;https://maps.google.com/?cid=0x0:0xb67a50d6f6a1f4a0;
komplek housing;komplek housing;Rumah jein;"G4H2+Q78, Huta Moputi, Kec. Dengilo, Kabupaten Pohuwato, Gorontalo";"Kabupaten Pohuwato, Gorontalo";GORONTALO;;Indonesia;;;;0.5294002;1.221.006.983;https://maps.google.com/?cid=0x0:0xf7cb3164cc724887;
komplek housing;Komplek perumahan;HOME EFER;"G4R7+WQF, Karangetang, Kec. Dengilo, Kabupaten Pohuwato, Gorontalo 96265";"Karangetang, Kec. Dengilo, Kabupaten Pohuwato";GORONTALO;96265;Indonesia;;;;0.5423122;1.221.144.116;https://maps.google.com/?cid=0x0:0xeaa881c1c55d3fb;
komplek housing;Komplek perumahan;Home Udin Ake;"G3FP+6MQ, Popaya, Kec. Dengilo, Kabupaten Pohuwato, Gorontalo 96265";"Popaya, Kec. Dengilo, Kabupaten Pohuwato";GORONTALO;96265;Indonesia;;;;0.5231672;1.220.866.268;https://maps.google.com/?cid=0x0:0xb238fb50e057c1b9;
komplek housing;komplek housing;Rumah Mma Eto;"G4G2+5X4, Huta Moputi, Kec. Dengilo, Kabupaten Pohuwato, Gorontalo";"Kabupaten Pohuwato, Gorontalo";GORONTALO;;Indonesia;;;;0.5253817;1.221.024.548;https://maps.google.com/?cid=0x0:0xf0402c2e63cb3fd5;
komplek housing;Komplek perumahan;Olando Gaming;"G3HR+JPR, Popaya, Kec. Dengilo, Kabupaten Pohuwato, Gorontalo 96265";"Popaya, Kec. Dengilo, Kabupaten Pohuwato";GORONTALO;96265;Indonesia;082293390067;;;0.52959;122.091.115;https://maps.google.com/?cid=0x0:0x1d5b2527da1511f1;
komplek housing;Komplek perumahan;Rmh Ibu Indo Abas;"G3CM+9HC, Popaya, Kec. Dengilo, Kabupaten Pohuwato, Gorontalo 96265";"Popaya, Kec. Dengilo, Kabupaten Pohuwato";GORONTALO;96265;Indonesia;;;;0.5209452;1.220.838.999;https://maps.google.com/?cid=0x0:0x8f01005e7997cb32;
komplek housing;Perhimpunan Pengembang Perumahan;Rumah Argilan Husain;"G3FQ+WGP, Popaya, Kec. Dengilo, Kabupaten Pohuwato, Gorontalo 96265";"Popaya, Kec. Dengilo, Kabupaten Pohuwato";GORONTALO;96265;Indonesia;;;;0.525548;122.089.677;https://maps.google.com/?cid=0x0:0xa492c9a85e7813c4;
komplek housing;Komplek perumahan;Pakaya Home;"G3RQ+GGV, Popaya, Kec. Dengilo, Kabupaten Pohuwato, Gorontalo 96265";"Popaya, Kec. Dengilo, Kabupaten Pohuwato";GORONTALO;96265;Indonesia;;;;0.5421222;1.220.888.176;https://maps.google.com/?cid=0x0:0xd2a2f7575c5cad19;
komplek housing;Komplek perumahan;rumah ilam;"H4H2+52, Karya Baru, Kec. Dengilo, Kabupaten Pohuwato, Gorontalo";"Kabupaten Pohuwato, Gorontalo";GORONTALO;;Indonesia;;;;0.577945;1.221.000.893;https://maps.google.com/?cid=0x0:0x1309dbee45a2de47;
komplek housing;Komplek perumahan;Jein hantulu;"H467+MM2, Padengo, Kec. Dengilo, Kabupaten Pohuwato, Gorontalo";"Kabupaten Pohuwato, Gorontalo";GORONTALO;;Indonesia;;;;0.5616389;1.221.141.382;https://maps.google.com/?cid=0x0:0xa2a9478acda65751;
komplek housing;Perhimpunan Pengembang Perumahan;RUMAH JIYAN R. INGO;"J4C4+QHW, Karya Baru, Kec. Dengilo, Kabupaten Pohuwato, Gorontalo";"Kabupaten Pohuwato, Gorontalo";GORONTALO;;Indonesia;;;;0.6219847;1.221.064.668;https://maps.google.com/?cid=0x0:0xe758a1e0d55c6039;
komplek housing;Komplek perumahan;Tarnate Popaya;"G3WP+MXQ, Popaya, Kec. Dengilo, Kabupaten Pohuwato, Gorontalo 96265";"Popaya, Kec. Dengilo, Kabupaten Pohuwato";GORONTALO;96265;Indonesia;;;;0.5467151;1.220.874.985;https://maps.google.com/?cid=0x0:0x69f5ddc6f1d5e41d;
komplek housing;komplek housing;"Yeyen,Srni";"G3RQ+7MW, Popaya, Kec. Dengilo, Kabupaten Pohuwato, Gorontalo 96265";"Popaya, Kec. Dengilo, Kabupaten Pohuwato";GORONTALO;96265;Indonesia;;;;0.540986;122.089.182;https://maps.google.com/?cid=0x0:0xc30b2e6cbb1e598;
komplek housing;Komplek perumahan;Wisna abas;"Dusun limbato, Popaya, Kec. Dengilo, Kabupaten Pohuwato, Gorontalo 96265";"Popaya, Kec. Dengilo, Kabupaten Pohuwato";GORONTALO;96265;Indonesia;;;;0.5289346;1.220.918.218;https://maps.google.com/?cid=0x0:0x36b5d0d4d6d37a28;
komplek housing;Komplek perumahan;Fika Mohamad;"F3J7+96R, Pentadu, Kec. Paguat, Kabupaten Pohuwato, Gorontalo 96265";"Pentadu, Kec. Paguat, Kabupaten Pohuwato";GORONTALO;96265;Indonesia;082291347174;;;0.4809994;1.220.630.086;https://maps.google.com/?cid=0x0:0xd6469db942613154;
komplek housing;komplek housing;Kec. Dengilo;"Kabupaten Pohuwato, Gorontalo";"Kabupaten Pohuwato, Gorontalo";GORONTALO;;Indonesia;;;;0.5290248;1.220.917.893;https://maps.google.com/?cid=0x0:0xf72fb9a102d11906;
komplek housing;Komplek perumahan;Rumah Yerit;"G4Q5+RMQ, Karangetang, Kec. Dengilo, Kabupaten Pohuwato, Gorontalo 96265";"Karangetang, Kec. Dengilo, Kabupaten Pohuwato";GORONTALO;96265;Indonesia;;;;0.5395865;1.221.092.488;https://maps.google.com/?cid=0x0:0x1ed6d46ac38ece73;
komplek housing;Komplek perumahan;Mayawi puluhulawa;"G3CM+FGF, Popaya, Kec. Dengilo, Kabupaten Pohuwato, Gorontalo 96265";"Popaya, Kec. Dengilo, Kabupaten Pohuwato";GORONTALO;96265;Indonesia;;;;0.5211813;1.220.837.961;https://maps.google.com/?cid=0x0:0x41b534c75dd7258d;
komplek housing;Komplek perumahan;Uun Home Stay;"F3VM+3GG, Bunuyo, Kec. Paguat, Kabupaten Pohuwato, Gorontalo 96265";"Bunuyo, Kec. Paguat, Kabupaten Pohuwato";GORONTALO;96265;Indonesia;;;;0.492562;122.084.924;https://maps.google.com/?cid=0x0:0x40799f3fd33fd224;
komplek housing;komplek housing;Rumah nenek;"G32Q+F2F, Jl. Trans-Sulawesi, Molamahu, Kec. Paguat, Kabupaten Pohuwato, Gorontalo 96265";"Jl. Trans-Sulawesi, Molamahu, Kec. Paguat, Kabupaten Pohuwato";GORONTALO;96265;Indonesia;;;;0.5011805;1.220.876.022;https://maps.google.com/?cid=0x0:0x4a9f7eb9dd735fda;
komplek housing;Komplek perumahan;Fia L;"F3PC+PJ5, Pentadu, Kec. Paguat, Kabupaten Pohuwato, Gorontalo 96265";"Pentadu, Kec. Paguat, Kabupaten Pohuwato";GORONTALO;96265;Indonesia;;;;0.4867625;1.220.716.094;https://maps.google.com/?cid=0x0:0x784985b69233a6af;
komplek housing;komplek housing;Kec. Duhiadaa;"Kabupaten Pohuwato, Gorontalo";"Kabupaten Pohuwato, Gorontalo";GORONTALO;;Indonesia;;;;0.4727472;1.219.315.071;https://maps.google.com/?cid=0x0:0x4f9e976d482b115f;
komplek housing;Komplek perumahan;Perumahan;"FV9P+G6M, Mootilango, Kec. Duhiadaa, Kabupaten Pohuwato, Gorontalo 96266";"Mootilango, Kec. Duhiadaa, Kabupaten Pohuwato";GORONTALO;96266;Indonesia;;;;0.4689613;121.885.578;https://maps.google.com/?cid=0x0:0x7c82c6679f86e246;
komplek housing;Perhimpunan Pengembang Perumahan;Umuri's Home;"FWQC+G9, Duhiadaa, Kec. Duhiadaa, Kabupaten Pohuwato, Gorontalo 96466";"Duhiadaa, Kec. Duhiadaa, Kabupaten Pohuwato";GORONTALO;96466;Indonesia;;;;0.4888283;1.219.208.967;https://maps.google.com/?cid=0x0:0xecb300e8e4fa1e46;
komplek housing;Komplek perumahan;family hulinggi;"FWW6+6PQ, Duhiadaa, Kec. Duhiadaa, Kabupaten Pohuwato, Gorontalo";"Kabupaten Pohuwato, Gorontalo";GORONTALO;;Indonesia;;;;0.4955992;1.219.118.699;https://maps.google.com/?cid=0x0:0x3012f9ba060b2b05;
komplek housing;Komplek perumahan;Mantahu;"FWM7+JM9, Duhiadaa, Kec. Duhiadaa, Kabupaten Pohuwato, Gorontalo 96466";"Duhiadaa, Kec. Duhiadaa, Kabupaten Pohuwato";GORONTALO;96466;Indonesia;;;;0.4848806;1.219.139.579;https://maps.google.com/?cid=0x0:0x72d2d6bac10e7662;
komplek housing;Komplek perumahan;Iki Tantu;"FWQ7+6X, Duhiadaa, Kec. Duhiadaa, Kabupaten Pohuwato, Gorontalo";"Kabupaten Pohuwato, Gorontalo";GORONTALO;;Indonesia;087237965439;;;0.4880928;121.914.953;https://maps.google.com/?cid=0x0:0x6a2fbc1f4dc35056;
komplek housing;Komplek perumahan;Rumah ul;"FWM6+WRJ, Duhiadaa, Kec. Duhiadaa, Kabupaten Pohuwato, Gorontalo";"Kabupaten Pohuwato, Gorontalo";GORONTALO;;Indonesia;;;;0.4848262;1.219.120.261;https://maps.google.com/?cid=0x0:0x82eb15aa198e3aaf;
komplek housing;Komplek perumahan;Rumah daing lese;"FVFQ+228, Mootilango, Kec. Duhiadaa, Kabupaten Pohuwato, Gorontalo 96266";"Mootilango, Kec. Duhiadaa, Kabupaten Pohuwato";GORONTALO;96266;Indonesia;;;;0.4725324;1.218.875.679;https://maps.google.com/?cid=0x0:0x1d74a4a8222428a;
komplek housing;Komplek perumahan;rumah Dila;"FVWQ+3X8, Mekar Jaya, Kec. Duhiadaa, Kabupaten Pohuwato, Gorontalo";"Kabupaten Pohuwato, Gorontalo";GORONTALO;;Indonesia;;;;0.495947;1.218.904.845;https://maps.google.com/?cid=0x0:0x41b79343ea44610;
komplek housing;Minimarket;Rumah ike;"FWFJ+HXJ, Buntulia Jaya, Kec. Duhiadaa, Kabupaten Pohuwato, Gorontalo 96466";"Buntulia Jaya, Kec. Duhiadaa, Kabupaten Pohuwato";GORONTALO;96466;Indonesia;;;;0.473954;1.219.324.001;https://maps.google.com/?cid=0x0:0xfaa12d31c65c49ce;
komplek housing;Komplek perumahan;HNQ² (Novita Mardain/Hamran Danial);"Marisa Sel., Kec. Marisa, Kabupaten Pohuwato, Gorontalo 96265";"Kec. Marisa, Kabupaten Pohuwato";GORONTALO;96265;Indonesia;;;;0.4597454;1.219.368.144;https://maps.google.com/?cid=0x0:0x43dde827ef2a28ff;
komplek housing;Kantor Perusahaan;Yanti Dango;"FWH7+XRX, Buntulia Bar., Kec. Duhiadaa, Kabupaten Pohuwato, Gorontalo 96466";"Buntulia Bar., Kec. Duhiadaa, Kabupaten Pohuwato";GORONTALO;96466;Indonesia;;;;0.4799861;1.219.146.046;https://maps.google.com/?cid=0x0:0xb86338d349423b89;
komplek housing;Komplek perumahan;Ayah ato;"FWH7+RJ8, Unnamed Road, Buntulia Bar., Kec. Duhiadaa, Kabupaten Pohuwato, Gorontalo 96466";"Unnamed Road, Buntulia Bar., Kec. Duhiadaa, Kabupaten Pohuwato";GORONTALO;96466;Indonesia;;;;0.4795459;1.219.140.698;https://maps.google.com/?cid=0x0:0x2449eee28ed07cfb;
komplek housing;Komplek perumahan;Rumah Viraa Samau;"FVFQ+228, Mootilango, Kec. Duhiadaa, Kabupaten Pohuwato, Gorontalo 96266";"Mootilango, Kec. Duhiadaa, Kabupaten Pohuwato";GORONTALO;96266;Indonesia;;;;0.4725324;1.218.875.679;https://maps.google.com/?cid=0x0:0x5afde19075dd85d2;
komplek housing;Komplek perumahan;rumah kebun om ben;"FWGM+9J2, Buntulia Jaya, Kec. Duhiadaa, Kabupaten Pohuwato, Gorontalo 96466";"Buntulia Jaya, Kec. Duhiadaa, Kabupaten Pohuwato";GORONTALO;96466;Indonesia;;;;0.47588;1.219.340.068;https://maps.google.com/?cid=0x0:0xb6339366b0642125;
komplek housing;Komplek perumahan;Rumah Anggi;"FWF8+RR8, Buntulia Bar., Kec. Duhiadaa, Kabupaten Pohuwato, Gorontalo";"Kabupaten Pohuwato, Gorontalo";GORONTALO;;Indonesia;;;;0.4745498;1.219.170.871;https://maps.google.com/?cid=0x0:0xe27060cbb8e87d96;
komplek housing;Komplek perumahan;rumah randi husa;"FVFQ+228, Mootilango, Kec. Duhiadaa, Kabupaten Pohuwato, Gorontalo";"Kabupaten Pohuwato, Gorontalo";GORONTALO;;Indonesia;;;;0.4725324;1.218.875.679;https://maps.google.com/?cid=0x0:0xacb5f7a1886e62af;
komplek housing;Komplek perumahan;Rumah RaniDaluta;"FVFQ+228, Mootilango, Kec. Duhiadaa, Kabupaten Pohuwato, Gorontalo 96266";"Mootilango, Kec. Duhiadaa, Kabupaten Pohuwato";GORONTALO;96266;Indonesia;;;;0.4725324;1.218.875.679;https://maps.google.com/?cid=0x0:0x3eec1cab7a5657e4;
komplek housing;Komplek perumahan;Rahayu Sahari;"FVXV+P6C, Mekar Jaya, Kec. Duhiadaa, Kabupaten Pohuwato, Gorontalo 96266";"Mekar Jaya, Kec. Duhiadaa, Kabupaten Pohuwato";GORONTALO;96266;Indonesia;;;;0.4992993;1.218.929.862;https://maps.google.com/?cid=0x0:0xbe8b34f5fbe639a3;
komplek housing;Komplek perumahan;3OL.NOHO;"FWF8+38P, Buntulia Bar., Kec. Duhiadaa, Kabupaten Pohuwato, Gorontalo";"Kabupaten Pohuwato, Gorontalo";GORONTALO;;Indonesia;;;;0.4727459;1.219.158.193;https://maps.google.com/?cid=0x0:0x5e518f2c2c86c91a;
komplek housing;Komplek perumahan;Dunggio's house;"FWGM+R2M, Jl. Trans-Sulawesi, Buntulia Jaya, Kec. Duhiadaa, Kabupaten Pohuwato, Gorontalo";"Kabupaten Pohuwato, Gorontalo";GORONTALO;;Indonesia;;;;0.4770773;1.219.325.526;https://maps.google.com/?cid=0x0:0xc4fa748d8f99730e;
komplek housing;Gedung Apartemen;Home Oma Dhini;"FWGM+F5C, Jl. Trans-Sulawesi, Buntulia Jaya, Kec. Duhiadaa, Kabupaten Pohuwato, Gorontalo";"Kabupaten Pohuwato, Gorontalo";GORONTALO;;Indonesia;;;;0.4761922;1.219.328.761;https://maps.google.com/?cid=0x0:0x839272d80be2e4db;
komplek housing;Komplek perumahan;rumah anggodoholio;"FVRQ+RM3, Mekar Jaya, Kec. Duhiadaa, Kabupaten Pohuwato, Gorontalo 96266";"Mekar Jaya, Kec. Duhiadaa, Kabupaten Pohuwato";GORONTALO;96266;Indonesia;;;;0.4916358;1.218.890.706;https://maps.google.com/?cid=0x0:0x253b206f1b8d25c;
komplek housing;Komplek perumahan;Rumah Fahril Hasan;"FVFQ+228, Mootilango, Kec. Duhiadaa, Kabupaten Pohuwato, Gorontalo 96266";"Mootilango, Kec. Duhiadaa, Kabupaten Pohuwato";GORONTALO;96266;Indonesia;;;;0.4725324;1.218.875.679;https://maps.google.com/?cid=0x0:0xacff6e482d0130aa;
komplek housing;Komplek perumahan;feni;"FW9J+JC8, Buntulia Sel., Kec. Duhiadaa, Kabupaten Pohuwato, Gorontalo 96266";"Buntulia Sel., Kec. Duhiadaa, Kabupaten Pohuwato";GORONTALO;96266;Indonesia;;;;0.469035;1.219.310.898;https://maps.google.com/?cid=0x0:0x475fc217f6fecdaf;
komplek housing;Pembangunan Perumahan;Hapidu;"GW2M+GV, Taluduyunu, Kec. Buntulia, Kabupaten Pohuwato, Gorontalo 96266";"Taluduyunu, Kec. Buntulia, Kabupaten Pohuwato";GORONTALO;96266;Indonesia;;;;0.5013568;1.219.347.433;https://maps.google.com/?cid=0x0:0xcbfe9a10e076d78f;
komplek housing;Komplek perumahan;Rumah Selviana Karim;"GW35+RC2, Balayo, Kec. Patilanggio, Kabupaten Pohuwato, Gorontalo 96266";"Balayo, Kec. Patilanggio, Kabupaten Pohuwato";GORONTALO;96266;Indonesia;;;;0.5046019;1.219.084.813;https://maps.google.com/?cid=0x0:0x29c23091b9b698be;
komplek housing;Komplek perumahan;RUMAH MEMEY;"FWCJ+PP5, Jl. Trans-Sulawesi, Buntulia Sel., Kec. Duhiadaa, Kabupaten Pohuwato, Gorontalo 96266";"Jl. Trans-Sulawesi, Buntulia Sel., Kec. Duhiadaa, Kabupaten Pohuwato";GORONTALO;96266;Indonesia;;;;0.4717689;1.219.318.692;https://maps.google.com/?cid=0x0:0x316bb0f26ec0c503;
komplek housing;Komplek perumahan;MITRO HIPPY;"FVFQ+228, Mootilango, Kec. Duhiadaa, Kabupaten Pohuwato, Gorontalo 96266";"Mootilango, Kec. Duhiadaa, Kabupaten Pohuwato";GORONTALO;96266;Indonesia;;;;0.4725324;1.218.875.679;https://maps.google.com/?cid=0x0:0x48baca241ff8179a;
komplek housing;komplek housing;Gorontalo 96468;"Kec. Lemito, Kabupaten Pohuwato, Gorontalo";"Kabupaten Pohuwato, Gorontalo";GORONTALO;;Indonesia;;;;0.7390376;1.215.826.642;https://maps.google.com/?cid=0x0:0xbcbfbe464a8e6a55;
komplek housing;Komplek perumahan;jihan bumulo;"GHWF+589, Lemito Utara, Kec. Lemito, Kabupaten Pohuwato, Gorontalo 96468";"Lemito Utara, Kec. Lemito, Kabupaten Pohuwato";GORONTALO;96468;Indonesia;;;;0.5454009;1.215.731.792;https://maps.google.com/?cid=0x0:0x2ae60f2b44d77922;
komplek housing;Komplek perumahan;Rumah Ikha Komendangi;"HH2C+44H, Lemito Utara, Kec. Lemito, Kabupaten Pohuwato, Gorontalo 96468";"Lemito Utara, Kec. Lemito, Kabupaten Pohuwato";GORONTALO;96468;Indonesia;;;;0.5508869;1.215.700.849;https://maps.google.com/?cid=0x0:0x277a33f13dc7c723;
komplek housing;Pembangunan Perumahan;Basehome;"HH2C+PR3, Lemito Utara, Kec. Lemito, Kabupaten Pohuwato, Gorontalo 96468";"Lemito Utara, Kec. Lemito, Kabupaten Pohuwato";GORONTALO;96468;Indonesia;;;;0.551757;1.215.720.469;https://maps.google.com/?cid=0x0:0xb8c06e28fa10664f;
komplek housing;Perhimpunan Pengembang Perumahan;Nando Saleh;"GHQC+J27, Lemito, Kec. Lemito, Kabupaten Pohuwato, Gorontalo 96468";"Lemito, Kec. Lemito, Kabupaten Pohuwato";GORONTALO;96468;Indonesia;082293389986;;;0.5397095;1.215.697.346;https://maps.google.com/?cid=0x0:0xd4bb2ba7977c4904;
komplek housing;Komplek perumahan;Rumah Le Darminto;"HJ63+C97, Jl. Trans-Sulawesi, Dusun Hulota, Wonggarasi Tengah, Kec. Lemito, Kabupaten Pohuwato, Gorontalo";"Kabupaten Pohuwato, Gorontalo";GORONTALO;;Indonesia;;;;0.5610286;1.216.034.204;https://maps.google.com/?cid=0x0:0xa6496d264ec37e0;
komplek housing;Komplek perumahan;House Andika;"HH3C+QJH, Jl. Trans-Sulawesi, Lemito Utara, Kec. Lemito, Kabupaten Pohuwato, Gorontalo 96468";"Jl. Trans-Sulawesi, Lemito Utara, Kec. Lemito, Kabupaten Pohuwato";GORONTALO;96468;Indonesia;;;;0.5540094;1.215.715.015;https://maps.google.com/?cid=0x0:0x8f7cfd5ffbee31cb;
komplek housing;Komplek perumahan;Bele Le Oka;"HJ2Q+C5, Suka Damai, Kec. Lemito, Kabupaten Pohuwato, Gorontalo";"Kabupaten Pohuwato, Gorontalo";GORONTALO;;Indonesia;;;;0.5510031;1.216.379.573;https://maps.google.com/?cid=0x0:0x96b0650a2820ec96;
komplek housing;Komplek perumahan;Nisda lasalutu;"HH2G+9J, Lemito Utara, Kec. Lemito, Kabupaten Pohuwato, Gorontalo";"Kabupaten Pohuwato, Gorontalo";GORONTALO;;Indonesia;;;;0.5509868;1.215.765.656;https://maps.google.com/?cid=0x0:0x1b784237b25e8978;
komplek housing;Gedung Apartemen;aspol lemito;"GHWF+589, Lemito Utara, Kec. Lemito, Kabupaten Pohuwato, Gorontalo 96468";"Lemito Utara, Kec. Lemito, Kabupaten Pohuwato";GORONTALO;96468;Indonesia;;;;0.545602;1.215.733.816;https://maps.google.com/?cid=0x0:0xecf1e1b40b20c4d2;
komplek housing;Komplek perumahan;Rumah Jois Podungge;"HJ54+8Q4, Wonggarasi Tengah, Kec. Lemito, Kabupaten Pohuwato, Gorontalo 96468";"Wonggarasi Tengah, Kec. Lemito, Kabupaten Pohuwato";GORONTALO;96468;Indonesia;;;;0.5588337;1.216.072.813;https://maps.google.com/?cid=0x0:0x855ede1cffa18c3e;
komplek housing;Gedung Apartemen;KUBURAN UMUM;"GHWC+WQQ, Lemito Utara, Kec. Lemito, Kabupaten Pohuwato, Gorontalo 96468";"Lemito Utara, Kec. Lemito, Kabupaten Pohuwato";GORONTALO;96468;Indonesia;;;;0.5473981;1.215.719.789;https://maps.google.com/?cid=0x0:0x96af47fc1721108;
komplek housing;Komplek perumahan;Home Lison Pakaya;"GHWG+3VV, Jl. Trans-Sulawesi, Lemito Utara, Kec. Lemito, Kabupaten Pohuwato, Gorontalo 96468";"Jl. Trans-Sulawesi, Lemito Utara, Kec. Lemito, Kabupaten Pohuwato";GORONTALO;96468;Indonesia;;;;0.545291;121.577.239;https://maps.google.com/?cid=0x0:0x82b4b25a95ea0adb;
komplek housing;Perhimpunan Pengembang Perumahan;Lemito utara;"MH7G+3XW, Lemito Utara, Kec. Lemito, Kabupaten Pohuwato, Gorontalo";"Kabupaten Pohuwato, Gorontalo";GORONTALO;;Indonesia;;;;0.662739;121.577.459;https://maps.google.com/?cid=0x0:0xd51fd7d1b55fa9b9;
komplek housing;Perhimpunan Pengembang Perumahan;Rmah li Fardi Botutihe;"GHWF+33X, Lemito Utara, Kec. Lemito, Kabupaten Pohuwato, Gorontalo";"Kabupaten Pohuwato, Gorontalo";GORONTALO;;Indonesia;;;;0.5452447;1.215.727.307;https://maps.google.com/?cid=0x0:0xd2af1d3220ec1fac;
komplek housing;Komplek perumahan;Rumah haya nako;"HH64+XP5, Balobalonge, Kec. Lemito, Kabupaten Pohuwato, Gorontalo 96468";"Balobalonge, Kec. Lemito, Kabupaten Pohuwato";GORONTALO;96468;Indonesia;;;;0.5623875;1.215.568.594;https://maps.google.com/?cid=0x0:0x8fbedc34015076b4;
komplek housing;Perumahan;Reza balide;"GHPF+X68, Lemito, Kec. Lemito, Kabupaten Pohuwato, Gorontalo 96468";"Lemito, Kec. Lemito, Kabupaten Pohuwato";GORONTALO;96468;Indonesia;;;;0.5367768;1.215.737.453;https://maps.google.com/?cid=0x0:0x128deb13eb82cb04;
komplek housing;Pembangunan Perumahan;Rumah Joni;"HH78+326, Kenari, Kec. Lemito, Kabupaten Pohuwato, Gorontalo 96468";"Kenari, Kec. Lemito, Kabupaten Pohuwato";GORONTALO;96468;Indonesia;;;;0.5624212;1.215.652.901;https://maps.google.com/?cid=0x0:0x4229bce472646937;
komplek housing;Perumahan;Rahmat Djumaha;"GHPF+RFQ, Lemito, Kec. Lemito, Kabupaten Pohuwato, Gorontalo";"Kabupaten Pohuwato, Gorontalo";GORONTALO;;Indonesia;;;;0.5370797;1.215.737.414;https://maps.google.com/?cid=0x0:0x27338e4fbd5b1dbe;
komplek housing;Pembangunan Perumahan;Danker Pakaya Home;"GHR8+76V, Lemito, Kec. Lemito, Kabupaten Pohuwato, Gorontalo 96468";"Lemito, Kec. Lemito, Kabupaten Pohuwato";GORONTALO;96468;Indonesia;;;;0.5407382;1.215.655.424;https://maps.google.com/?cid=0x0:0x8dc82fd02b14fa84;
komplek housing;Komplek perumahan;Salsabiyla Usman Stay;"GHR8+76V, Lemito, Kec. Lemito, Kabupaten Pohuwato, Gorontalo 96468";"Lemito, Kec. Lemito, Kabupaten Pohuwato";GORONTALO;96468;Indonesia;;;;0.5407382;1.215.655.424;https://maps.google.com/?cid=0x0:0x8200c18403c83971;
komplek housing;Rumah Kayu;Rumah Pak Taufik Yusuf;"GHVC+5WV, Lemito, Kec. Lemito, Kabupaten Pohuwato, Gorontalo 96468";"Lemito, Kec. Lemito, Kabupaten Pohuwato";GORONTALO;96468;Indonesia;;;;0.543007;1.215.722.099;https://maps.google.com/?cid=0x0:0x874904b5d4a71f44;
komplek housing;Komplek perumahan;RUMAH MEY GUAMO;"GHWF+V25, Jl. Trans-Sulawesi, Lemito Utara, Kec. Lemito, Kabupaten Pohuwato, Gorontalo 96468";"Jl. Trans-Sulawesi, Lemito Utara, Kec. Lemito, Kabupaten Pohuwato";GORONTALO;96468;Indonesia;;;;0.5470319;1.215.727.014;https://maps.google.com/?cid=0x0:0x8b6903bebc1db5a8;
komplek housing;Komplek perumahan;Rumah Nola Pkya;"HH2C+HPH, Jl. Trans-Sulawesi, Lemito Utara, Kec. Lemito, Kabupaten Pohuwato, Gorontalo 96468";"Jl. Trans-Sulawesi, Lemito Utara, Kec. Lemito, Kabupaten Pohuwato";GORONTALO;96468;Indonesia;;;;0.5514999;1.215.718.149;https://maps.google.com/?cid=0x0:0x417765a4f69f5608;
komplek housing;Komplek perumahan;Asri Monoarfa;"HH89+W9M, Kenari, Kec. Lemito, Kabupaten Pohuwato, Gorontalo 96468";"Kenari, Kec. Lemito, Kabupaten Pohuwato";GORONTALO;96468;Indonesia;;;;0.5674043;1.215.684.617;https://maps.google.com/?cid=0x0:0x859d66fdf13338c8;
komplek housing;Komplek perumahan;Rumah Noldi Fatra;"GHXF+52P, Jl. Trans-Sulawesi, Lemito Utara, Kec. Lemito, Kabupaten Pohuwato, Gorontalo 96468";"Jl. Trans-Sulawesi, Lemito Utara, Kec. Lemito, Kabupaten Pohuwato";GORONTALO;96468;Indonesia;;;;0.5480496;1.215.725.991;https://maps.google.com/?cid=0x0:0x3346cd57cbc571e5;
komplek housing;Penginapan;Blok Melati No.6 Perum Griya Marisa;"FX72+QGW, Palopo, Kec. Marisa, Kabupaten Pohuwato, Gorontalo 96265";"Palopo, Kec. Marisa, Kabupaten Pohuwato";GORONTALO;96265;Indonesia;081227000347;;;0.464494;121.951.325;https://maps.google.com/?cid=0x0:0xdd49e2c8a9cf6cd;
komplek housing;Pembangunan Perumahan;Marisa 6;"JRM8+9R3, Panca Karsa II, Kec. Taluditi, Kabupaten Pohuwato, Gorontalo";"Kabupaten Pohuwato, Gorontalo";GORONTALO;;Indonesia;;;;0.6333808;1.218.170.396;https://maps.google.com/?cid=0x0:0x89802ca8dbddd852;
komplek housing;komplek housing;Marisa;"Bulili, Kec. Duhiadaa, Kabupaten Pohuwato, Gorontalo";"Kabupaten Pohuwato, Gorontalo";GORONTALO;;Indonesia;;;;0.466734;121.928.398;https://maps.google.com/?cid=0x0:0xf3c036bc8511116e;
komplek housing;Penginapan;Perum Marisa Indah;"FW7X+H69, Jl. Jend. Sudirman, Palopo, Kec. Marisa, Kabupaten Pohuwato, Gorontalo 96265";"Jl. Jend. Sudirman, Palopo, Kec. Marisa, Kabupaten Pohuwato";GORONTALO;96265;Indonesia;;;;0.4639199;1.219.481.071;https://maps.google.com/?cid=0x0:0x8bfef187c0a5d7a5;
komplek housing;Kantor Perusahaan;Harmonis Residence Pohuwato 0001;"Bongo, Jln, Botubilotahu Indah, Kec. Marisa, Gorontalo";"Kabupaten Pohuwato, Gorontalo";GORONTALO;;Indonesia;082347204747;;;0.4806282;1.219.448.679;https://maps.google.com/?cid=0x0:0x59729f04eb900ba7;
komplek housing;Komplek perumahan;Mawar Tamansari Residence 2;"J2H8+PGC, Taman Sari, Kec. Setu, Kabupaten Bekasi, Jawa Barat";"Kabupaten Bekasi, Jawa Barat";GORONTALO;;Indonesia;085215033538;;;-63.707.353;1.070.162.582;https://maps.google.com/?cid=0x0:0x9f244b8646b408a6;
komplek housing;Pengembang Realestat;Grand Taman Sari Residence 2;"Perumahan Grand Tamansari Residence No.2, Taman Sari, Kec. Setu, Kabupaten Bekasi, Jawa Barat 17320";"Taman Sari, Kec. Setu, Kabupaten Bekasi";GORONTALO;17320;Indonesia;;;;-63.636.653;1.070.314.341;https://maps.google.com/?cid=0x0:0x9c4411deae46bbde;
komplek housing;Komplek perumahan;Perumahan Mawar Tamansari Residence;"J2J9+JJR, Taman Sari, Kec. Setu, Kabupaten Bekasi, Jawa Barat 17320";"Taman Sari, Kec. Setu, Kabupaten Bekasi";GORONTALO;17320;Indonesia;08989912391;;;-63.682.149;1.070.190.346;https://maps.google.com/?cid=0x0:0x46fc2b08e2bb3dfa;
komplek housing;Komplek perumahan;Perumahan Pondok Permata Cileungsi;"Perumahan Pondok Permata Cileungsi Perumahan Pondok Permata, Bojong, Kec. Cileungsi, Kabupaten Bogor, Jawa Barat 16710";"Bojong, Kec. Cileungsi, Kabupaten Bogor";GORONTALO;16710;Indonesia;;;;-64.401.731;1.070.237.309;https://maps.google.com/?cid=0x0:0xe01a56a7449d1d8c;
komplek housing;Komplek perumahan;Perumahan Alamanda Regency;"BLOK B1, Jl. Perumahan Taman Alamanda, Karangsatria, Kec. Tambun Utara, Kabupaten Bekasi, Jawa Barat 17510";"Jl. Perumahan Taman Alamanda, Karangsatria, Kec. Tambun Utara, Kabupaten Bekasi";GORONTALO;17510;Indonesia;;;;-62.201.416;1.070.446.584;https://maps.google.com/?cid=0x0:0x7f30fe8df1022015;
komplek housing;komplek housing;Gorontalo 96466;"Kabupaten Pohuwato, Gorontalo";"Kabupaten Pohuwato, Gorontalo";GORONTALO;;Indonesia;;;;0.5225929;121.918.866;https://maps.google.com/?cid=0x0:0x51b8962633bca4f;
komplek housing;Komplek perumahan;achil_ollshop marisa;"FWFV+HW, Teratai, Kec. Marisa, Kabupaten Pohuwato, Gorontalo 96265";"Teratai, Kec. Marisa, Kabupaten Pohuwato";GORONTALO;96265;Indonesia;;;;0.4738766;121.944.762;https://maps.google.com/?cid=0x0:0x5be7ed2c38c186b2;
komplek housing;Perhimpunan Pengembang Perumahan;Umuri's Home;"FWQC+G9, Duhiadaa, Kec. Duhiadaa, Kabupaten Pohuwato, Gorontalo 96466";"Duhiadaa, Kec. Duhiadaa, Kabupaten Pohuwato";GORONTALO;96466;Indonesia;;;;0.4888283;1.219.208.967;https://maps.google.com/?cid=0x0:0xecb300e8e4fa1e46;
komplek housing;Pembangunan Perumahan;Kos Berkah Taluditi 2;"FW9Q+JQH, Jl. Umahani, Marisa Utara, Marisa, Pohuwato Regency, Gorontalo 96265";"Jl. Umahani, Marisa Utara, Marisa, Pohuwato Regency";GORONTALO;96265;Indonesia;085256171885;;;0.4690532;1.219.394.876;https://maps.google.com/?cid=0x0:0xe44a606939c02cd8;
komplek housing;Komplek perumahan;NING RUMAH;"FW9R+XGQ, Marisa Utara, Kec. Marisa, Kabupaten Pohuwato, Gorontalo 96265";"Marisa Utara, Kec. Marisa, Kabupaten Pohuwato";GORONTALO;96265;Indonesia;;;;0.4699694;1.219.413.479;https://maps.google.com/?cid=0x0:0x91652a380a10f4f6;
komplek housing;Komplek perumahan;RIVAN CECE Residence;"FWFM+QW5, Marisa Utara, Kec. Marisa, Kabupaten Pohuwato, Gorontalo 96466";"Marisa Utara, Kec. Marisa, Kabupaten Pohuwato";GORONTALO;96466;Indonesia;;;;0.4743804;1.219.348.566;https://maps.google.com/?cid=0x0:0xcc22500e377ae5b3;
komplek housing;Komplek perumahan;Kel.DeaIki;"FWCR+59F, Marisa Utara, Kec. Marisa, Kabupaten Pohuwato, Gorontalo 96265";"Marisa Utara, Kec. Marisa, Kabupaten Pohuwato";GORONTALO;96265;Indonesia;;;;0.4707878;1.219.414.539;https://maps.google.com/?cid=0x0:0x1c96a7d6623443f9;
komplek housing;Gedung Apartemen;Home Opa Djon;"FWCQ+44H, Jl. Sultan Amai, Marisa Utara, Kec. Marisa, Kabupaten Pohuwato, Gorontalo 96265";"Jl. Sultan Amai, Marisa Utara, Kec. Marisa, Kabupaten Pohuwato";GORONTALO;96265;Indonesia;;;;0.4703145;1.219.378.544;https://maps.google.com/?cid=0x0:0x29f61883da2ab2ea;
komplek housing;Kantor Perusahaan;Perum Griya Syariah Permai;"FWCM+WGP, Buntulia Sel., Kec. Duhiadaa, Kabupaten Pohuwato, Gorontalo 96466";"Buntulia Sel., Kec. Duhiadaa, Kabupaten Pohuwato";GORONTALO;96466;Indonesia;04432216811;;;0.4723313;1.219.338.378;https://maps.google.com/?cid=0x0:0xa86e1ad88199633b;
komplek housing;Pembangunan Perumahan;Asma B;"FWMV+G67, Botubilotahu Indah, Kec. Marisa, Kabupaten Pohuwato, Gorontalo";"Kabupaten Pohuwato, Gorontalo";GORONTALO;;Indonesia;;;;0.4837843;1.219.430.431;https://maps.google.com/?cid=0x0:0x4591414e80ee493f;
komplek housing;Komplek perumahan;Shalu homes;"FWCM+R7Q, Perumahan griya syariah permai kec.duhiadaa desa buntuijaya, Marisa Utara, Kabupaten Pohuwato";"Kabupaten Pohuwato, Gorontalo";GORONTALO;;Indonesia;;;;0.4720805;1.219.332.362;https://maps.google.com/?cid=0x0:0xc6a87a082fc26320;
komplek housing;Kantor Perusahaan;Harmonis Residence Pohuwato 0001;"Bongo, Jln, Botubilotahu Indah, Kec. Marisa, Gorontalo";"Kabupaten Pohuwato, Gorontalo";GORONTALO;;Indonesia;082347204747;;;0.4806282;1.219.448.679;https://maps.google.com/?cid=0x0:0x59729f04eb900ba7;
komplek housing;Otoritas Perumahan;MD;"Perum An Nur Blok D No. 23, Marisa Utara, Kec. Marisa, Kabupaten Pohuwato, Gorontalo 96466";"Marisa Utara, Kec. Marisa, Kabupaten Pohuwato";GORONTALO;96466;Indonesia;081241076287;;;0.4735497;1.219.343.711;https://maps.google.com/?cid=0x0:0x99f2fe5b3aa9e7b1;
komplek housing;Kelas pengerjaan kayu;Workshop Hasan Marisa;"FWHH+HX6, Buntulia Jaya, Kec. Buntulia, Kabupaten Pohuwato, Gorontalo 96466";"Buntulia Jaya, Kec. Buntulia, Kabupaten Pohuwato";GORONTALO;96466;Indonesia;;;;0.4790804;1.219.299.502;https://maps.google.com/?cid=0x0:0xb16ea5cb063ce94a;
komplek housing;Komplek perumahan;Rumah ishak;"FWQQ+8GJ, Botubilotahu Indah, Kec. Marisa, Kabupaten Pohuwato, Gorontalo";"Kabupaten Pohuwato, Gorontalo";GORONTALO;;Indonesia;;;;0.4883286;1.219.387.783;https://maps.google.com/?cid=0x0:0xef8390f61f6955fa;
komplek housing;Komplek perumahan;Rumah om kibar;"FWMQ+3F, Botubilotahu Indah, Kec. Marisa, Kabupaten Pohuwato, Gorontalo";"Kabupaten Pohuwato, Gorontalo";GORONTALO;;Indonesia;;;;0.482736;121.938.718;https://maps.google.com/?cid=0x0:0xf0fff606bb8d7355;
komplek housing;Perumahan;HUDEBULAHU;"FWPW+VQF, Botubilotahu Indah, Kec. Marisa, Kabupaten Pohuwato, Gorontalo";"Kabupaten Pohuwato, Gorontalo";GORONTALO;;Indonesia;;;;0.4871872;1.219.469.178;https://maps.google.com/?cid=0x0:0x1158be86afeb112d;
komplek housing;Komplek perumahan;Friska tumbuan home;"FWJV+248, Botubilotahu Indah, Kec. Marisa, Kabupaten Pohuwato, Gorontalo";"Kabupaten Pohuwato, Gorontalo";GORONTALO;;Indonesia;;;;0.4800333;1.219.428.429;https://maps.google.com/?cid=0x0:0x9de20d72954a6658;
komplek housing;komplek housing;SheLvy pajali;"FWMV+MXJ, Botubilotahu Indah, Kec. Marisa, Kabupaten Pohuwato, Gorontalo";"Kabupaten Pohuwato, Gorontalo";GORONTALO;;Indonesia;;;;0.4842138;1.219.448.968;https://maps.google.com/?cid=0x0:0x5c42207d3bc90b71;
komplek housing;Komplek perumahan;FelisyaAdzkia home;"FW9Q+JQH, Jl. Umahani, Marisa Utara, Marisa, Pohuwato Regency, Gorontalo 96265";"Jl. Umahani, Marisa Utara, Marisa, Pohuwato Regency";GORONTALO;96265;Indonesia;;;;0.4690532;1.219.394.876;https://maps.google.com/?cid=0x0:0x5d028628b7951a87;
komplek housing;komplek housing;Kec. Marisa;"Kabupaten Pohuwato, Gorontalo";"Kabupaten Pohuwato, Gorontalo";GORONTALO;;Indonesia;;;;0.4701607;121.958.687;https://maps.google.com/?cid=0x0:0xf18aaba667559ff0;
komplek housing;Penginapan;Blok Melati No.6 Perum Griya Marisa;"FX72+QGW, Palopo, Kec. Marisa, Kabupaten Pohuwato, Gorontalo 96265";"Palopo, Kec. Marisa, Kabupaten Pohuwato";GORONTALO;96265;Indonesia;081227000347;;;0.464494;121.951.325;https://maps.google.com/?cid=0x0:0xdd49e2c8a9cf6cd;
komplek housing;Penginapan;Perum Marisa Indah;"FW7X+H69, Jl. Jend. Sudirman, Palopo, Kec. Marisa, Kabupaten Pohuwato, Gorontalo 96265";"Jl. Jend. Sudirman, Palopo, Kec. Marisa, Kabupaten Pohuwato";GORONTALO;96265;Indonesia;;;;0.4639199;1.219.481.071;https://maps.google.com/?cid=0x0:0x8bfef187c0a5d7a5;
komplek housing;Perumahan;Perumahan Marisa Indah Jl. Tulip raya;"FX62+MM6, Palopo, Kec. Marisa, Kabupaten Pohuwato, Gorontalo 96265";"Palopo, Kec. Marisa, Kabupaten Pohuwato";GORONTALO;96265;Indonesia;;;;0.4616608;1.219.516.255;https://maps.google.com/?cid=0x0:0x533dc5bb812affa0;
komplek housing;Komplek perumahan;Rumah Nurain;"FWQJ+MWH, Buntulia Tengah, Kec. Marisa, Kabupaten Pohuwato, Gorontalo 96466";"Buntulia Tengah, Kec. Marisa, Kabupaten Pohuwato";GORONTALO;96466;Indonesia;;;;0.4891803;1.219.323.639;https://maps.google.com/?cid=0x0:0x1dae0ca17167009c;
komplek housing;Komplek perumahan;Kontrakan rumah aba ( rumah biru );"FWHM+7C9, Botubilotahu Indah, Kec. Marisa, Kabupaten Pohuwato, Gorontalo 96466";"Botubilotahu Indah, Kec. Marisa, Kabupaten Pohuwato";GORONTALO;96466;Indonesia;;;;0.4782052;12.193.349;https://maps.google.com/?cid=0x0:0xbf2ff79ad3c293bb;
komplek housing;Komplek perumahan;rumah kebun om ben;"FWGM+9J2, Buntulia Jaya, Kec. Duhiadaa, Kabupaten Pohuwato, Gorontalo 96466";"Buntulia Jaya, Kec. Duhiadaa, Kabupaten Pohuwato";GORONTALO;96466;Indonesia;;;;0.47588;1.219.340.068;https://maps.google.com/?cid=0x0:0xb6339366b0642125;
komplek housing;Minimarket;Rumah ike;"FWFJ+HXJ, Buntulia Jaya, Kec. Duhiadaa, Kabupaten Pohuwato, Gorontalo 96466";"Buntulia Jaya, Kec. Duhiadaa, Kabupaten Pohuwato";GORONTALO;96466;Indonesia;;;;0.473954;1.219.324.001;https://maps.google.com/?cid=0x0:0xfaa12d31c65c49ce;
komplek housing;Komplek perumahan;HAIS MATO;"Sipatana, Kec. Buntulia, Kabupaten Pohuwato, Gorontalo 96466";"Kec. Buntulia, Kabupaten Pohuwato";GORONTALO;96466;Indonesia;;;;0.4811769;1.219.257.163;https://maps.google.com/?cid=0x0:0xbfb4e673289710a0;
komplek housing;komplek housing;Kec. Paguat;"Kabupaten Pohuwato, Gorontalo";"Kabupaten Pohuwato, Gorontalo";GORONTALO;;Indonesia;;;;0.4910265;122.073.703;https://maps.google.com/?cid=0x0:0x9c57f083f00632a6;
komplek housing;komplek housing;Perum Camat Paguat;"F3QH+86C, Bumbulan, Kec. Paguat, Kabupaten Pohuwato, Gorontalo 96265";"Bumbulan, Kec. Paguat, Kabupaten Pohuwato";GORONTALO;96265;Indonesia;;;;0.4882975;12.207.802;https://maps.google.com/?cid=0x0:0x29d6ea0281d06f34;
komplek housing;Komplek perumahan;Fika Mohamad;"F3J7+96R, Pentadu, Kec. Paguat, Kabupaten Pohuwato, Gorontalo 96265";"Pentadu, Kec. Paguat, Kabupaten Pohuwato";GORONTALO;96265;Indonesia;082291347174;;;0.4809994;1.220.630.086;https://maps.google.com/?cid=0x0:0xd6469db942613154;
komplek housing;Komplek perumahan;Agil Home;"F3HJ+GMC, Bumbulan, Kec. Paguat, Kabupaten Pohuwato, Gorontalo";"Kabupaten Pohuwato, Gorontalo";GORONTALO;;Indonesia;;;;0.4785334;1.220.820.935;https://maps.google.com/?cid=0x0:0x850fbd64a8a842b7;
komplek housing;Komplek perumahan;Ah;"G3CM+628, Popaya, Kec. Dengilo, Kabupaten Pohuwato, Gorontalo 96265";"Popaya, Kec. Dengilo, Kabupaten Pohuwato";GORONTALO;96265;Indonesia;085163631495;;;0.520544;1.220.825.703;https://maps.google.com/?cid=0x0:0xa3546e121754454e;
komplek housing;Komplek perumahan;rmh papi paguat;"G32M+746, Jl. Trans-Sulawesi, Kemiri, Kec. Paguat, Kabupaten Pohuwato, Gorontalo";"Kabupaten Pohuwato, Gorontalo";GORONTALO;;Indonesia;;;;0.5005527;1.220.836.177;https://maps.google.com/?cid=0x0:0x7b3dea69c19051c0;
komplek housing;Komplek perumahan;Rumah Harmel Paguat;"G32J+692, Jl. Trans-Sulawesi, Molamahu, Kec. Paguat, Kabupaten Pohuwato, Gorontalo 96265";"Jl. Trans-Sulawesi, Molamahu, Kec. Paguat, Kabupaten Pohuwato";GORONTALO;96265;Indonesia;;;;0.5006997;1.220.805.626;https://maps.google.com/?cid=0x0:0xb2b937d032199525;
komplek housing;Komplek perumahan;Bele'u Paguat;"F2MF+83, Libuo, Kec. Paguat, Kabupaten Pohuwato, Gorontalo";"Kabupaten Pohuwato, Gorontalo";GORONTALO;;Indonesia;;;;0.4793558;1.220.227.335;https://maps.google.com/?cid=0x0:0x902567aca619e78c;
komplek housing;komplek housing;rumah putih;"F3Q9+X32, Siduan, Kec. Paguat, Kabupaten Pohuwato, Gorontalo 96265";"Siduan, Kec. Paguat, Kabupaten Pohuwato";GORONTALO;96265;Indonesia;;;;0.489768;122.067.522;https://maps.google.com/?cid=0x0:0x58463b47c9c4f15b;
komplek housing;Komplek perumahan;Rumah Herlina Kaharu;"F3V9+93F, Siduan, Kec. Paguat, Kabupaten Pohuwato, Gorontalo 96265";"Siduan, Kec. Paguat, Kabupaten Pohuwato";GORONTALO;96265;Indonesia;;;;0.4934278;1.220.674.386;https://maps.google.com/?cid=0x0:0x44f75b8444fe8852;
komplek housing;Kantor Perusahaan;Mita;"F3Q8+FR2, Siduan, Kec. Paguat, Kabupaten Pohuwato, Gorontalo 96265";"Siduan, Kec. Paguat, Kabupaten Pohuwato";GORONTALO;96265;Indonesia;;;;0.488638;1.220.670.273;https://maps.google.com/?cid=0x0:0x4a81a9756a0b79dc;
komplek housing;Komplek perumahan;YayuHome;"G38H+C2, Soginti, Kec. Paguat, Kabupaten Pohuwato, Gorontalo";"Kabupaten Pohuwato, Gorontalo";GORONTALO;;Indonesia;;;;0.5153235;1.220.769.034;https://maps.google.com/?cid=0x0:0x1dc1e92262ed887;
komplek housing;Komplek perumahan;Fia L;"F3PC+PJ5, Pentadu, Kec. Paguat, Kabupaten Pohuwato, Gorontalo 96265";"Pentadu, Kec. Paguat, Kabupaten Pohuwato";GORONTALO;96265;Indonesia;;;;0.4867625;1.220.716.094;https://maps.google.com/?cid=0x0:0x784985b69233a6af;
komplek housing;Komplek perumahan;My home;"F3QG+9Q3, Jl. Trans-Sulawesi, Bumbulan, Kec. Paguat, Kabupaten Pohuwato, Gorontalo 96265";"Jl. Trans-Sulawesi, Bumbulan, Kec. Paguat, Kabupaten Pohuwato";GORONTALO;96265;Indonesia;;;;0.4883848;1.220.769.078;https://maps.google.com/?cid=0x0:0x98fc1521036df839;
komplek housing;;Rumah le akun;"F3Q9+RGX, Siduan, Kec. Paguat, Kabupaten Pohuwato, Gorontalo 96265";"Siduan, Kec. Paguat, Kabupaten Pohuwato";GORONTALO;96265;Indonesia;;;;0.4896216;1.220.688.745;https://maps.google.com/?cid=0x0:0xf02d2b2baf8a87b2;
komplek housing;Kantor Perusahaan;Rumah tua;"G34C+2JV, Soginti, Kec. Paguat, Kabupaten Pohuwato, Gorontalo";"Kabupaten Pohuwato, Gorontalo";GORONTALO;;Indonesia;;;;0.5051081;1.220.715.483;https://maps.google.com/?cid=0x0:0x32eaf2b29165ef2b;
komplek housing;Komplek perumahan;Rumah RaRa;"F3Q9+X32, Siduan, Kec. Paguat, Kabupaten Pohuwato, Gorontalo 96265";"Siduan, Kec. Paguat, Kabupaten Pohuwato";GORONTALO;96265;Indonesia;082291060588;;;0.4898841;1.220.676.253;https://maps.google.com/?cid=0x0:0x3950d825e90cf934;
komplek housing;Komplek perumahan;Rido Home;"F3PC+R28, Pentadu, Kec. Paguat, Kabupaten Pohuwato, Gorontalo";"Kabupaten Pohuwato, Gorontalo";GORONTALO;;Indonesia;;;;0.4870461;1.220.700.711;https://maps.google.com/?cid=0x0:0x918a8ab858e5e063;
komplek housing;Komplek perumahan;Imelda pratiwi;"G3CM+C9J, Unnamed Rd, Popaya, Kec. Dengilo, Kabupaten Pohuwato, Gorontalo 96265";"Unnamed Rd, Popaya, Kec. Dengilo, Kabupaten Pohuwato";GORONTALO;96265;Indonesia;;;;0.5210933;1.220.833.977;https://maps.google.com/?cid=0x0:0xb67a50d6f6a1f4a0;
komplek housing;Kompleks Townhouse;Rumah le bado;"F3QC+VM7, Siduan, Kec. Paguat, Kabupaten Pohuwato, Gorontalo 96265";"Siduan, Kec. Paguat, Kabupaten Pohuwato";GORONTALO;96265;Indonesia;;;;0.4896652;1.220.716.704;https://maps.google.com/?cid=0x0:0x976f10e76612a77b;
komplek housing;Balai Pertemuan Desa;Posko KKN-T UNG Desa Kemiri;"F3XG+M6F, Bunuyo, Kec. Paguat, Kabupaten Pohuwato, Gorontalo";"Kabupaten Pohuwato, Gorontalo";GORONTALO;;Indonesia;;;;0.4991786;1.220.755.559;https://maps.google.com/?cid=0x0:0xadd6b31776f6f53;
komplek housing;Komplek perumahan;Ruma Fika;"G378+FMP, Soginti, Kec. Paguat, Kabupaten Pohuwato, Gorontalo";"Kabupaten Pohuwato, Gorontalo";GORONTALO;;Indonesia;;;;0.5137238;1.220.666.997;https://maps.google.com/?cid=0x0:0x7c1e522de902bfd6;
komplek housing;Komplek perumahan;Maman Home's;"F3M4+62G, Buhu Jaya, Kec. Paguat, Kabupaten Pohuwato, Gorontalo 96265";"Buhu Jaya, Kec. Paguat, Kabupaten Pohuwato";GORONTALO;96265;Indonesia;;;;0.4830698;1.220.550.752;https://maps.google.com/?cid=0x0:0xfc8e1534242280ab;
komplek housing;Perhimpunan Pengembang Perumahan;SS.PARANGAN HOME;"Jl. Trans-Sulawesi, Maleo, Kec. Paguat, Kabupaten Pohuwato, Gorontalo";"Kabupaten Pohuwato, Gorontalo";GORONTALO;;Indonesia;;;;0.4702627;1.219.900.755;https://maps.google.com/?cid=0x0:0x5a979e020d98d265;
komplek housing;Komplek perumahan;Home Udin Ake;"G3FP+6MQ, Popaya, Kec. Dengilo, Kabupaten Pohuwato, Gorontalo 96265";"Popaya, Kec. Dengilo, Kabupaten Pohuwato";GORONTALO;96265;Indonesia;;;;0.5231672;1.220.866.268;https://maps.google.com/?cid=0x0:0xb238fb50e057c1b9;
komplek housing;Komplek perumahan;Rumah ANA;"G34C+WM3, Soginti, Kec. Paguat, Kabupaten Pohuwato, Gorontalo";"Kabupaten Pohuwato, Gorontalo";GORONTALO;;Indonesia;;;;0.5072579;122.071.678;https://maps.google.com/?cid=0x0:0x3cfc316d4f9214b8;
komplek housing;Komplek perumahan;Rumah Ziel Zhiya;"F3R9+MR3, Siduan, Kec. Paguat, Kabupaten Pohuwato, Gorontalo 96265";"Siduan, Kec. Paguat, Kabupaten Pohuwato";GORONTALO;96265;Indonesia;;;;0.4916429;1.220.695.406;https://maps.google.com/?cid=0x0:0xccbf6f8aeed68a20;
komplek housing;Komplek perumahan;fadly perumah;"F3X9+RCR, Sipayo, Kec. Paguat, Kabupaten Pohuwato, Gorontalo 96265";"Sipayo, Kec. Paguat, Kabupaten Pohuwato";GORONTALO;96265;Indonesia;;;;0.4996006;1.220.685.179;https://maps.google.com/?cid=0x0:0x9eb16d989ab535a8;
komplek housing;Perhimpunan Pengembang Perumahan;Rumah Argilan Husain;"G3FQ+WGP, Popaya, Kec. Dengilo, Kabupaten Pohuwato, Gorontalo 96265";"Popaya, Kec. Dengilo, Kabupaten Pohuwato";GORONTALO;96265;Indonesia;;;;0.525548;122.089.677;https://maps.google.com/?cid=0x0:0xa492c9a85e7813c4;
komplek housing;komplek housing;Gorontalo 96266;"Kabupaten Pohuwato, Gorontalo";"Kabupaten Pohuwato, Gorontalo";GORONTALO;;Indonesia;;;;0.6235288;1.218.790.306;https://maps.google.com/?cid=0x0:0x6e323a18714b4718;
komplek housing;Komplek perumahan;Rumah Tika;"Suka Makmur, Kec. Patilanggio, Kabupaten Pohuwato, Gorontalo 96266";"Kec. Patilanggio, Kabupaten Pohuwato";GORONTALO;96266;Indonesia;;;;0.5296506;1.218.629.573;https://maps.google.com/?cid=0x0:0xb63fe57344017677;
komplek housing;Komplek perumahan;Perumahan;"FV9P+G6M, Mootilango, Kec. Duhiadaa, Kabupaten Pohuwato, Gorontalo 96266";"Mootilango, Kec. Duhiadaa, Kabupaten Pohuwato";GORONTALO;96266;Indonesia;;;;0.4689613;121.885.578;https://maps.google.com/?cid=0x0:0x7c82c6679f86e246;
komplek housing;Komplek perumahan;Rumah Selviana Karim;"GW35+RC2, Balayo, Kec. Patilanggio, Kabupaten Pohuwato, Gorontalo 96266";"Balayo, Kec. Patilanggio, Kabupaten Pohuwato";GORONTALO;96266;Indonesia;;;;0.5046019;1.219.084.813;https://maps.google.com/?cid=0x0:0x29c23091b9b698be;
komplek housing;Komplek perumahan;Roji.;"GV3C+7MX, Manawa, Kec. Patilanggio, Kabupaten Pohuwato, Gorontalo";"Kabupaten Pohuwato, Gorontalo";GORONTALO;;Indonesia;;;;0.5032457;1.218.717.382;https://maps.google.com/?cid=0x0:0x37962c231d025528;
komplek housing;Toko umum;RUMAH INDRiYANI HULOPI;"GV37+JMF, Dulomo, Kec. Patilanggio, Kabupaten Pohuwato, Gorontalo 96266";"Dulomo, Kec. Patilanggio, Kabupaten Pohuwato";GORONTALO;96266;Indonesia;;;;0.5040641;1.218.641.804;https://maps.google.com/?cid=0x0:0x7992122538b3cf3;
komplek housing;Komplek perumahan;family hulinggi;"FWW6+6PQ, Duhiadaa, Kec. Duhiadaa, Kabupaten Pohuwato, Gorontalo";"Kabupaten Pohuwato, Gorontalo";GORONTALO;;Indonesia;;;;0.4955992;1.219.118.699;https://maps.google.com/?cid=0x0:0x3012f9ba060b2b05;
komplek housing;Gedung Apartemen;Home Opa Djon;"FWCQ+44H, Jl. Sultan Amai, Marisa Utara, Kec. Marisa, Kabupaten Pohuwato, Gorontalo 96265";"Jl. Sultan Amai, Marisa Utara, Kec. Marisa, Kabupaten Pohuwato";GORONTALO;96265;Indonesia;;;;0.4703145;1.219.378.544;https://maps.google.com/?cid=0x0:0x29f61883da2ab2ea;
komplek housing;Pembangunan Perumahan;Dusun Konito;"GRRW+CX5, Ilo Heluma, Kec. Patilanggio, Kabupaten Pohuwato, Gorontalo 96266";"Ilo Heluma, Kec. Patilanggio, Kabupaten Pohuwato";GORONTALO;96266;Indonesia;;;;0.5410002;1.218.474.863;https://maps.google.com/?cid=0x0:0x61966ace000d3416;
komplek housing;komplek housing;Rumah bu murti;"JVW5+9MJ, Kalimas, Kec. Taluditi, Kabupaten Pohuwato, Gorontalo 96266";"Kalimas, Kec. Taluditi, Kabupaten Pohuwato";GORONTALO;96266;Indonesia;;;;0.6462039;1.218.597.387;https://maps.google.com/?cid=0x0:0x7d3d12ebd0580a48;
komplek housing;komplek housing;Agnes Family;"GRJQ+P29, Suka Makmur, Kec. Patilanggio, Kabupaten Pohuwato, Gorontalo 96266";"Suka Makmur, Kec. Patilanggio, Kabupaten Pohuwato";GORONTALO;96266;Indonesia;;;;0.5317875;1.218.376.094;https://maps.google.com/?cid=0x0:0x1aaa327289c4a9aa;
komplek housing;Komplek perumahan;Wamba-Wamba;"HR3R+CXQ, Ilo Heluma, Kec. Patilanggio, Kabupaten Pohuwato, Gorontalo 96266";"Ilo Heluma, Kec. Patilanggio, Kabupaten Pohuwato";GORONTALO;96266;Indonesia;;;;0.553598;1.218.424.991;https://maps.google.com/?cid=0x0:0x35fd7a4c31fc6c56;
komplek housing;Pembangunan Perumahan;Hapidu;"GW2M+GV, Taluduyunu, Kec. Buntulia, Kabupaten Pohuwato, Gorontalo 96266";"Taluduyunu, Kec. Buntulia, Kabupaten Pohuwato";GORONTALO;96266;Indonesia;;;;0.5013568;1.219.347.433;https://maps.google.com/?cid=0x0:0xcbfe9a10e076d78f;
komplek housing;Komplek perumahan;Rumah Lukman;"GVJ7+3HJ, Suka Makmur, Kec. Patilanggio, Kabupaten Pohuwato, Gorontalo 96266";"Suka Makmur, Kec. Patilanggio, Kabupaten Pohuwato";GORONTALO;96266;Indonesia;;;;0.5301116;1.218.637.922;https://maps.google.com/?cid=0x0:0x500f020829d72d95;
komplek housing;Komplek perumahan;Rumah hadija y nule;"JVHG+M9, Tirto Asri, Kec. Taluditi, Kabupaten Pohuwato, Gorontalo";"Kabupaten Pohuwato, Gorontalo";GORONTALO;;Indonesia;;;;0.6291875;1.218.759.375;https://maps.google.com/?cid=0x0:0xaaf2cb35c4ed0e1a;
komplek housing;komplek housing;Kel Tangahu;"GVFH+HH6, Dudepo, Kec. Patilanggio, Kabupaten Pohuwato, Gorontalo";"Kabupaten Pohuwato, Gorontalo";GORONTALO;;Indonesia;;;;0.5239037;1.218.788.989;https://maps.google.com/?cid=0x0:0xfbbe9af09131b200;
komplek housing;Komplek perumahan;RM. Yaman Nento;"GRJP+7WW, Suka Makmur, Kec. Patilanggio, Kabupaten Pohuwato, Gorontalo 96266";"Suka Makmur, Kec. Patilanggio, Kabupaten Pohuwato";GORONTALO;96266;Indonesia;085298185434;;;0.5307365;1.218.367.049;https://maps.google.com/?cid=0x0:0x58bb1ed44e28dfe9;
komplek housing;Komplek perumahan;Yayan Kobi;"Jl. Gn. Pani, Taluduyunu Utara, Kec. Buntulia, Kabupaten Pohuwato, Gorontalo";"Kabupaten Pohuwato, Gorontalo";GORONTALO;;Indonesia;081241365304;;;0.51191;121.946.501;https://maps.google.com/?cid=0x0:0x2d936a0b77196a15;
komplek housing;Kantor Perusahaan;Harmonis Residence Pohuwato 0001;"Bongo, Jln, Botubilotahu Indah, Kec. Marisa, Gorontalo";"Kabupaten Pohuwato, Gorontalo";GORONTALO;;Indonesia;082347204747;;;0.4806282;1.219.448.679;https://maps.google.com/?cid=0x0:0x59729f04eb900ba7;
komplek housing;Pembangunan Perumahan;Rumah Yustin;"GVJ7+39, Suka Makmur, Kec. Patilanggio, Kabupaten Pohuwato, Gorontalo";"Kabupaten Pohuwato, Gorontalo";GORONTALO;;Indonesia;;;;0.5301875;1.218.634.375;https://maps.google.com/?cid=0x0:0xd577e82836057d1b;
komplek housing;komplek housing;Kec. Patilanggio;"Kabupaten Pohuwato, Gorontalo";"Kabupaten Pohuwato, Gorontalo";GORONTALO;;Indonesia;;;;0.5468802;12.186.498;https://maps.google.com/?cid=0x0:0x53eff626ccc95490;
komplek housing;Komplek perumahan;rumah anggodoholio;"FVRQ+RM3, Mekar Jaya, Kec. Duhiadaa, Kabupaten Pohuwato, Gorontalo 96266";"Mekar Jaya, Kec. Duhiadaa, Kabupaten Pohuwato";GORONTALO;96266;Indonesia;;;;0.4916358;1.218.890.706;https://maps.google.com/?cid=0x0:0x253b206f1b8d25c;
komplek housing;Komplek perumahan;Rumah daing lese;"FVFQ+228, Mootilango, Kec. Duhiadaa, Kabupaten Pohuwato, Gorontalo 96266";"Mootilango, Kec. Duhiadaa, Kabupaten Pohuwato";GORONTALO;96266;Indonesia;;;;0.4725324;1.218.875.679;https://maps.google.com/?cid=0x0:0x1d74a4a8222428a;
komplek housing;Komplek perumahan;Family Buyuni;"HV2F+F3X, Dudepo, Kec. Patilanggio, Kabupaten Pohuwato, Gorontalo 96266";"Dudepo, Kec. Patilanggio, Kabupaten Pohuwato";GORONTALO;96266;Indonesia;;;;0.5512325;1.218.727.461;https://maps.google.com/?cid=0x0:0x5b3f3ded6ea065b7;
komplek housing;komplek housing;Devi towalu;"JVP3+H3W, Tirto Asri, Kec. Taluditi, Kabupaten Pohuwato, Gorontalo 96266";"Tirto Asri, Kec. Taluditi, Kabupaten Pohuwato";GORONTALO;96266;Indonesia;;;;0.6364815;121.852.714;https://maps.google.com/?cid=0x0:0x41ea20cf1ff185c8;
komplek housing;Komplek perumahan;Ain Home's;"GW6M+MWJ, Taluduyunu, Kec. Buntulia, Kabupaten Pohuwato, Gorontalo 96266";"Taluduyunu, Kec. Buntulia, Kabupaten Pohuwato";GORONTALO;96266;Indonesia;;;;0.5117248;121.934.751;https://maps.google.com/?cid=0x0:0x5fd34b51333a5e9c;
komplek housing;Komplek perumahan;Rumah;"GWFJ+R52, Jl. Trans-Sulawesi, Balayo, Kec. Patilanggio, Kabupaten Pohuwato, Gorontalo 96266";"Jl. Trans-Sulawesi, Balayo, Kec. Patilanggio, Kabupaten Pohuwato";GORONTALO;96266;Indonesia;;;;0.5244794;1.219.303.193;https://maps.google.com/?cid=0x0:0xdc2643cf8f126fd7;
komplek housing;Komplek perumahan;Rumh pk gito;"JVW6+HV5, Kalimas, Kec. Taluditi, Kabupaten Pohuwato, Gorontalo 96266";"Kalimas, Kec. Taluditi, Kabupaten Pohuwato";GORONTALO;96266;Indonesia;;;;0.6463867;1.218.622.267;https://maps.google.com/?cid=0x0:0x714a2fd78d17586f;
komplek housing;Komplek perumahan;rumah bapuh Ino;"MV57+PGW, Kalimas, Kec. Taluditi, Kabupaten Pohuwato, Gorontalo 96266";"Kalimas, Kec. Taluditi, Kabupaten Pohuwato";GORONTALO;96266;Indonesia;;;;0.659374;1.218.638.143;https://maps.google.com/?cid=0x0:0x217dafb7c3cb330f;
komplek housing;komplek housing;Popayato;"Kabupaten Pohuwato, Gorontalo";"Kabupaten Pohuwato, Gorontalo";GORONTALO;;Indonesia;;;;0.6508515;12.143.419;https://maps.google.com/?cid=0x0:0xd03550efb58cf562;
komplek housing;Perumahan rakyat;Komunal Perumahan Rakyat Popayato Timur;"GF8Q+Q52, Maleo, Kec. Popayato Tim., Kabupaten Pohuwato, Gorontalo 96467";"Maleo, Kec. Popayato Tim., Kabupaten Pohuwato";GORONTALO;96467;Indonesia;;;;0.5168782;1.214.878.951;https://maps.google.com/?cid=0x0:0xb98f26d0936d348e;
komplek housing;Komplek perumahan;Rumah popayato;"GCFV+RR, Telaga, Popayato, Kabupaten Pohuwato, Gorontalo 96467";"Telaga, Popayato, Kabupaten Pohuwato";GORONTALO;96467;Indonesia;;;;0.5245454;1.214.445.486;https://maps.google.com/?cid=0x0:0x2cd0fd73dbe35cf6;
komplek housing;Komplek perumahan;Rosmiyati Hasan;"GFG5+QWV, Jalan Desa, Bukit Tingki, Popayato, Kabupaten Pohuwato, Gorontalo 96467";"Jalan Desa, Bukit Tingki, Popayato, Kabupaten Pohuwato";GORONTALO;96467;Indonesia;;;;0.5269992;1.214.597.993;https://maps.google.com/?cid=0x0:0xef1410c2f5cd6531;
komplek housing;Komplek perumahan;Rumah Iswan naki;"FCMV+247, Torosiaje Jaya, Popayato, Kabupaten Pohuwato, Gorontalo";"Kabupaten Pohuwato, Gorontalo";GORONTALO;;Indonesia;;;;0.481723;121.442.604;https://maps.google.com/?cid=0x0:0x6d5bf3f22803710f;
komplek housing;Perhimpunan Pengembang Perumahan;Ika karim;"GC9W+4QP, Telaga, Popayato, Kabupaten Pohuwato, Gorontalo 96467";"Telaga, Popayato, Kabupaten Pohuwato";GORONTALO;96467;Indonesia;;;;0.5178398;1.214.469.528;https://maps.google.com/?cid=0x0:0xd3b02943fb441f6d;
komplek housing;Pembangunan Perumahan;Retno Sri Porwanti;"GFPM+CPV, Tahele, Kec. Popayato Tim., Kabupaten Pohuwato, Gorontalo 96467";"Tahele, Kec. Popayato Tim., Kabupaten Pohuwato";GORONTALO;96467;Indonesia;;;;0.5361158;1.214.842.878;https://maps.google.com/?cid=0x0:0x56113a8e25b6ee89;
komplek housing;Asosiasi pemilik rumah;Sarton Polimengo;"GFG6+PQH, Unnamed Road, Bukit Tingki, Popayato, Kabupaten Pohuwato, Gorontalo 96467";"Unnamed Road, Bukit Tingki, Popayato, Kabupaten Pohuwato";GORONTALO;96467;Indonesia;;;;0.5268066;1.214.619.754;https://maps.google.com/?cid=0x0:0x3ea55681893b044e;
komplek housing;Komplek perumahan;Perumahan KAT Desa Kelapa Lima;"HFGW+F64, Klp. Lima, Kec. Popayato Tim., Kabupaten Pohuwato, Gorontalo";"Kabupaten Pohuwato, Gorontalo";GORONTALO;;Indonesia;;;;0.5761425;1.214.955.758;https://maps.google.com/?cid=0x0:0xca93ce5af5ae33e3;
komplek housing;Komplek perumahan;Ferji anwar;"GFH9+296, Bukit Tingki, Popayato, Kabupaten Pohuwato, Gorontalo 96467";"Bukit Tingki, Popayato, Kabupaten Pohuwato";GORONTALO;96467;Indonesia;;;;0.527924;1.214.688.577;https://maps.google.com/?cid=0x0:0xdff10f29748dbd98;
komplek housing;Komplek perumahan;Labongo'u;"JCF5+V99 Persatuan Gorontalo Barat, Desa, Butungale, Kec. Popayato Bar., Kabupaten Pohuwato, Gorontalo 96467";"Desa, Butungale, Kec. Popayato Bar., Kabupaten Pohuwato";GORONTALO;96467;Indonesia;081265394865;;;0.6246651;1.214.084.731;https://maps.google.com/?cid=0x0:0x1f831707175de440;
komplek housing;Komplek perumahan;Rumah Kayla Safira Pasandre;"Bumi Bahari, Popayato, Kabupaten Pohuwato, Gorontalo 96467";"Popayato, Kabupaten Pohuwato";GORONTALO;96467;Indonesia;082259748355;;;0.4918712;1.214.449.206;https://maps.google.com/?cid=0x0:0x3e853e99517504be;
komplek housing;komplek housing;?? pama tuu;"GFM7+74R, Bukit Tingki, Popayato, Kabupaten Pohuwato, Gorontalo 96467";"Bukit Tingki, Popayato, Kabupaten Pohuwato";GORONTALO;96467;Indonesia;;;;0.5332494;1.214.627.576;https://maps.google.com/?cid=0x0:0x92aef220c30f7f1a;
komplek housing;Komplek perumahan;Parmangaga;"GFGC+MFR, Bukit Tingki, Popayato, Kabupaten Pohuwato, Gorontalo 96467";"Bukit Tingki, Popayato, Kabupaten Pohuwato";GORONTALO;96467;Indonesia;;;;0.5267375;1.214.711.557;https://maps.google.com/?cid=0x0:0xe47017edac56b74a;
komplek housing;Toko umum;Shopyand lasappa;"GFM7+74R, Bukit Tingki, Popayato, Kabupaten Pohuwato, Gorontalo 96467";"Bukit Tingki, Popayato, Kabupaten Pohuwato";GORONTALO;96467;Indonesia;;;;0.5332494;1.214.627.576;https://maps.google.com/?cid=0x0:0x67deb9ebabbeb675;
komplek housing;Komplek perumahan;Dusun Utara I;"GF29+QF2, Trikora, Popayato, Kabupaten Pohuwato, Gorontalo";"Kabupaten Pohuwato, Gorontalo";GORONTALO;;Indonesia;;;;0.5019954;1.214.686.549;https://maps.google.com/?cid=0x0:0x30d94fb23f15bef;
komplek housing;Komplek perumahan;R. TAMLIHA;"FCWC+9RV, Jl. Trans-Sulawesi, Dudewulo, Kec. Popayato Bar., Kabupaten Pohuwato, Gorontalo";"Kabupaten Pohuwato, Gorontalo";GORONTALO;;Indonesia;;;;0.4959822;1.214.220.619;https://maps.google.com/?cid=0x0:0xc6de510a56803105;
komplek housing;Komplek perumahan;Ainy house;"GF4H+2H4, Popayato, Kabupaten Pohuwato, Gorontalo";"Kabupaten Pohuwato, Gorontalo";GORONTALO;;Indonesia;;;;0.5050232;1.214.789.622;https://maps.google.com/?cid=0x0:0x872619ca503197b0;
komplek housing;Komplek perumahan;Frengki abdjul;"GFG9+83, Bukit Tingki, Popayato, Kabupaten Pohuwato, Gorontalo";"Kabupaten Pohuwato, Gorontalo";GORONTALO;;Indonesia;;;;0.5258125;1.214.676.875;https://maps.google.com/?cid=0x0:0xd514a4b065f225f4;
komplek housing;Developer Rumah Hunian Khusus;Keyko home;"GC65+C2, Tunas Jaya, Kec. Popayato Bar., Kabupaten Pohuwato, Gorontalo";"Kabupaten Pohuwato, Gorontalo";GORONTALO;;Indonesia;;;;0.5110656;1.214.075.577;https://maps.google.com/?cid=0x0:0xe426c1f57a7aa1f4;
komplek housing;Balai masyarakat;Persatuan;"GF48+X2Q, Telaga Biru, Popayato, Kabupaten Pohuwato, Gorontalo 96467";"Telaga Biru, Popayato, Kabupaten Pohuwato";GORONTALO;96467;Indonesia;;;;0.5074512;1.214.651.083;https://maps.google.com/?cid=0x0:0x66eb69ca0d5cb389;
komplek housing;Komplek perumahan;Rumah ArlanHoga;"GC57+CRF, Butungale, Kec. Popayato Bar., Kabupaten Pohuwato, Gorontalo 96467";"Butungale, Kec. Popayato Bar., Kabupaten Pohuwato";GORONTALO;96467;Indonesia;;;;0.5085583;1.214.145.544;https://maps.google.com/?cid=0x0:0x64bbe3a902b2ef3c;
komplek housing;Komplek perumahan;Nitta Zakaria;"GC77+59G, Tunas Jaya, Kec. Popayato Bar., Kabupaten Pohuwato, Gorontalo 96467";"Tunas Jaya, Kec. Popayato Bar., Kabupaten Pohuwato";GORONTALO;96467;Indonesia;;;;0.5129308;1.214.134.607;https://maps.google.com/?cid=0x0:0x24789f55cd69930a;
komplek housing;Komplek perumahan;Rumah Aliska;"GFRJ+P4P, Tahele, Kec. Popayato Tim., Kabupaten Pohuwato, Gorontalo 96467";"Tahele, Kec. Popayato Tim., Kabupaten Pohuwato";GORONTALO;96467;Indonesia;;;;0.5417978;1.214.802.722;https://maps.google.com/?cid=0x0:0x9a3c507646f88e5d;
komplek housing;Komplek perumahan;Wilayah;"GFWH+6XG, Tahele, Kec. Popayato Tim., Kabupaten Pohuwato, Gorontalo 96467";"Tahele, Kec. Popayato Tim., Kabupaten Pohuwato";GORONTALO;96467;Indonesia;;;;0.5455566;121.479.952;https://maps.google.com/?cid=0x0:0x516e5dc076533c66;
komplek housing;Komplek perumahan;Mebel nurain;"GC6X+5JC, Telaga, Popayato, Kabupaten Pohuwato, Gorontalo 96467";"Telaga, Popayato, Kabupaten Pohuwato";GORONTALO;96467;Indonesia;;;;0.5104441;121.449.015;https://maps.google.com/?cid=0x0:0x3b29b718b4a01322;
komplek housing;Komplek perumahan;Familly Hamid;"HF48+J8R, Marisa, Kec. Popayato Tim., Kabupaten Pohuwato, Gorontalo 96467";"Marisa, Kec. Popayato Tim., Kabupaten Pohuwato";GORONTALO;96467;Indonesia;;;;0.5566139;1.214.657.798;https://maps.google.com/?cid=0x0:0x462ea97b78886f2e;
komplek housing;Komplek perumahan;Saliko Family;"GGQ3+JG7, Milangodaa, Kec. Popayato Tim., Kabupaten Pohuwato, Gorontalo 96467";"Milangodaa, Kec. Popayato Tim., Kabupaten Pohuwato";GORONTALO;96467;Indonesia;;;;0.5388623;1.215.041.698;https://maps.google.com/?cid=0x0:0x43479e97eb903937;
komplek housing;Komplek perumahan;Desa Trikora dusun ll;"FFWG+GVG, Trikora, Popayato, Kabupaten Pohuwato, Gorontalo 96467";"Trikora, Popayato, Kabupaten Pohuwato";GORONTALO;96467;Indonesia;;;;0.4963077;1.214.772.114;https://maps.google.com/?cid=0x0:0x6f80b1d250949167;
komplek housing;komplek housing;Gorontalo 96467;"Kabupaten Pohuwato, Gorontalo";"Kabupaten Pohuwato, Gorontalo";GORONTALO;;Indonesia;;;;0.7082941;1.213.541.631;https://maps.google.com/?cid=0x0:0x6a37da13e8b9d9f7;
komplek housing;Perhimpunan Pengembang Perumahan;Burhan Onu Home;"FCV8+9MQ, Jl. Trans-Sulawesi, Dudewulo, Kec. Popayato Bar., Kabupaten Pohuwato, Gorontalo 96467";"Jl. Trans-Sulawesi, Dudewulo, Kec. Popayato Bar., Kabupaten Pohuwato";GORONTALO;96467;Indonesia;;;;0.4936075;1.214.162.401;https://maps.google.com/?cid=0x0:0xa174b26753a5540;
komplek housing;Komplek perumahan;Rumah popayato;"GCFV+RR, Telaga, Popayato, Kabupaten Pohuwato, Gorontalo 96467";"Telaga, Popayato, Kabupaten Pohuwato";GORONTALO;96467;Indonesia;;;;0.5245454;1.214.445.486;https://maps.google.com/?cid=0x0:0x2cd0fd73dbe35cf6;
komplek housing;Komplek perumahan;Rumah Kayla Safira Pasandre;"Bumi Bahari, Popayato, Kabupaten Pohuwato, Gorontalo 96467";"Popayato, Kabupaten Pohuwato";GORONTALO;96467;Indonesia;082259748355;;;0.4918712;1.214.449.206;https://maps.google.com/?cid=0x0:0x3e853e99517504be;
komplek housing;Komplek perumahan;Labongo'u;"JCF5+V99 Persatuan Gorontalo Barat, Desa, Butungale, Kec. Popayato Bar., Kabupaten Pohuwato, Gorontalo 96467";"Desa, Butungale, Kec. Popayato Bar., Kabupaten Pohuwato";GORONTALO;96467;Indonesia;081265394865;;;0.6246651;1.214.084.731;https://maps.google.com/?cid=0x0:0x1f831707175de440;
komplek housing;Komplek perumahan;Rumah Iswan naki;"FCMV+247, Torosiaje Jaya, Popayato, Kabupaten Pohuwato, Gorontalo";"Kabupaten Pohuwato, Gorontalo";GORONTALO;;Indonesia;;;;0.481723;121.442.604;https://maps.google.com/?cid=0x0:0x6d5bf3f22803710f;
komplek housing;Komplek perumahan;Rosmiyati Hasan;"GFG5+QWV, Jalan Desa, Bukit Tingki, Popayato, Kabupaten Pohuwato, Gorontalo 96467";"Jalan Desa, Bukit Tingki, Popayato, Kabupaten Pohuwato";GORONTALO;96467;Indonesia;;;;0.5269992;1.214.597.993;https://maps.google.com/?cid=0x0:0xef1410c2f5cd6531;
komplek housing;Perhimpunan Pengembang Perumahan;Ika karim;"GC9W+4QP, Telaga, Popayato, Kabupaten Pohuwato, Gorontalo 96467";"Telaga, Popayato, Kabupaten Pohuwato";GORONTALO;96467;Indonesia;;;;0.5178398;1.214.469.528;https://maps.google.com/?cid=0x0:0xd3b02943fb441f6d;
komplek housing;Perhimpunan Pengembang Perumahan;Rumah fikria polohi;"F9P5+4XC, Molosipat, Kec. Popayato Bar., Kabupaten Pohuwato, Gorontalo";"Kabupaten Pohuwato, Gorontalo";GORONTALO;;Indonesia;;;;0.4853185;1.213.598.812;https://maps.google.com/?cid=0x0:0x33681c34d0db85cb;
komplek housing;Komplek perumahan;Rumah ArlanHoga;"GC57+CRF, Butungale, Kec. Popayato Bar., Kabupaten Pohuwato, Gorontalo 96467";"Butungale, Kec. Popayato Bar., Kabupaten Pohuwato";GORONTALO;96467;Indonesia;;;;0.5085583;1.214.145.544;https://maps.google.com/?cid=0x0:0x64bbe3a902b2ef3c;
komplek housing;Komplek perumahan;Ferji anwar;"GFH9+296, Bukit Tingki, Popayato, Kabupaten Pohuwato, Gorontalo 96467";"Bukit Tingki, Popayato, Kabupaten Pohuwato";GORONTALO;96467;Indonesia;;;;0.527924;1.214.688.577;https://maps.google.com/?cid=0x0:0xdff10f29748dbd98;
komplek housing;Komplek perumahan;Hairun Lembah  Vinarti Tanjung Api;"F9VC+RG7, Persatuan, Kec. Popayato Bar., Kabupaten Pohuwato, Gorontalo 96467";"Persatuan, Kec. Popayato Bar., Kabupaten Pohuwato";GORONTALO;96467;Indonesia;;;;0.4945419;1.213.712.853;https://maps.google.com/?cid=0x0:0xa7f3e34a71a36edd;
komplek housing;Komplek perumahan;Ilham Zakaria;"GC27+6H, Dudewulo, Kec. Popayato Bar., Kabupaten Pohuwato, Gorontalo";"Kabupaten Pohuwato, Gorontalo";GORONTALO;;Indonesia;;;;0.5005267;1.214.139.656;https://maps.google.com/?cid=0x0:0xd48c0140537a8b37;
komplek housing;Komplek perumahan;R. TAMLIHA;"FCWC+9RV, Jl. Trans-Sulawesi, Dudewulo, Kec. Popayato Bar., Kabupaten Pohuwato, Gorontalo";"Kabupaten Pohuwato, Gorontalo";GORONTALO;;Indonesia;;;;0.4959822;1.214.220.619;https://maps.google.com/?cid=0x0:0xc6de510a56803105;
komplek housing;Komplek perumahan;Perumahan KAT Desa Kelapa Lima;"HFGW+F64, Klp. Lima, Kec. Popayato Tim., Kabupaten Pohuwato, Gorontalo";"Kabupaten Pohuwato, Gorontalo";GORONTALO;;Indonesia;;;;0.5761425;1.214.955.758;https://maps.google.com/?cid=0x0:0xca93ce5af5ae33e3;
komplek housing;Komplek perumahan;Rumah Keluarga Besar Linggar;"GFJQ+JF9, Londoun, Kec. Popayato Tim., Kabupaten Pohuwato, Gorontalo";"Kabupaten Pohuwato, Gorontalo";GORONTALO;;Indonesia;;;;0.5315361;1.214.887.412;https://maps.google.com/?cid=0x0:0x9e6cda2b8b62f226;
komplek housing;Komplek perumahan;Nitta Zakaria;"GC77+59G, Tunas Jaya, Kec. Popayato Bar., Kabupaten Pohuwato, Gorontalo 96467";"Tunas Jaya, Kec. Popayato Bar., Kabupaten Pohuwato";GORONTALO;96467;Indonesia;;;;0.5129308;1.214.134.607;https://maps.google.com/?cid=0x0:0x24789f55cd69930a;
komplek housing;Komplek perumahan;Saliko Family;"GGQ3+JG7, Milangodaa, Kec. Popayato Tim., Kabupaten Pohuwato, Gorontalo 96467";"Milangodaa, Kec. Popayato Tim., Kabupaten Pohuwato";GORONTALO;96467;Indonesia;;;;0.5388623;1.215.041.698;https://maps.google.com/?cid=0x0:0x43479e97eb903937;
komplek housing;Pembangunan Perumahan;Retno Sri Porwanti;"GFPM+CPV, Tahele, Kec. Popayato Tim., Kabupaten Pohuwato, Gorontalo 96467";"Tahele, Kec. Popayato Tim., Kabupaten Pohuwato";GORONTALO;96467;Indonesia;;;;0.5361158;1.214.842.878;https://maps.google.com/?cid=0x0:0x56113a8e25b6ee89;
komplek housing;Komplek perumahan;Frengki abdjul;"GFG9+83, Bukit Tingki, Popayato, Kabupaten Pohuwato, Gorontalo";"Kabupaten Pohuwato, Gorontalo";GORONTALO;;Indonesia;;;;0.5258125;1.214.676.875;https://maps.google.com/?cid=0x0:0xd514a4b065f225f4;
komplek housing;komplek housing;Kec. Popayato Bar.;"Kabupaten Pohuwato, Gorontalo";"Kabupaten Pohuwato, Gorontalo";GORONTALO;;Indonesia;;;;0.4933519;1.214.136.069;https://maps.google.com/?cid=0x0:0xc1b4184b39f0b67a;
komplek housing;Komplek perumahan;Posko KKN MBKM 2023 UNG;"G92W+9C7, Padengo, Kec. Popayato Bar., Kabupaten Pohuwato, Gorontalo 96467";"Padengo, Kec. Popayato Bar., Kabupaten Pohuwato";GORONTALO;96467;Indonesia;;;;0.5009029;1.213.960.556;https://maps.google.com/?cid=0x0:0x5b7e19450c687744;
komplek housing;Pembangunan Perumahan;Sudin Niode;"G949+J87, Jl. Persatuan, Persatuan, Kec. Popayato Bar., Kabupaten Pohuwato, Gorontalo 96467";"Jl. Persatuan, Persatuan, Kec. Popayato Bar., Kabupaten Pohuwato";GORONTALO;96467;Indonesia;;;;0.5065363;1.213.683.047;https://maps.google.com/?cid=0x0:0x3e083197b7092fb9;
komplek housing;Komplek perumahan;Farid nanggo;"FCWC+7M2, Jl. Trans-Sulawesi, Dudewulo, Kec. Popayato Bar., Kabupaten Pohuwato, Gorontalo 96467";"Jl. Trans-Sulawesi, Dudewulo, Kec. Popayato Bar., Kabupaten Pohuwato";GORONTALO;96467;Indonesia;085363546624;;;0.4956278;121.421.625;https://maps.google.com/?cid=0x0:0xa6ff85b89f723a16;
komplek housing;Komplek perumahan;Mebel nurain;"GC6X+5JC, Telaga, Popayato, Kabupaten Pohuwato, Gorontalo 96467";"Telaga, Popayato, Kabupaten Pohuwato";GORONTALO;96467;Indonesia;;;;0.5104441;121.449.015;https://maps.google.com/?cid=0x0:0x3b29b718b4a01322;
komplek housing;Komplek perumahan;Mespi Akase;"FCWX+758, Bumi Bahari, Popayato, Kabupaten Pohuwato, Gorontalo 96467";"Bumi Bahari, Popayato, Kabupaten Pohuwato";GORONTALO;96467;Indonesia;;;;0.4956539;1.214.479.487;https://maps.google.com/?cid=0x0:0x66c12d98b367cb06;
komplek housing;Kantor Pemerintah;Rumdis polsek popayato barat;"F8JV+J69, Molosipat, Kec. Popayato Bar., Kabupaten Pohuwato, Gorontalo";"Kabupaten Pohuwato, Gorontalo";GORONTALO;;Indonesia;;;;0.481532;1.213.431.134;https://maps.google.com/?cid=0x0:0x96d75f833b88743e;
komplek housing;Komplek perumahan;Parmangaga;"GFGC+MFR, Bukit Tingki, Popayato, Kabupaten Pohuwato, Gorontalo 96467";"Bukit Tingki, Popayato, Kabupaten Pohuwato";GORONTALO;96467;Indonesia;;;;0.5267375;1.214.711.557;https://maps.google.com/?cid=0x0:0xe47017edac56b74a;
komplek housing;Asosiasi pemilik rumah;Sarton Polimengo;"GFG6+PQH, Unnamed Road, Bukit Tingki, Popayato, Kabupaten Pohuwato, Gorontalo 96467";"Unnamed Road, Bukit Tingki, Popayato, Kabupaten Pohuwato";GORONTALO;96467;Indonesia;;;;0.5268066;1.214.619.754;https://maps.google.com/?cid=0x0:0x3ea55681893b044e;
komplek housing;komplek housing;Kec. Popayato Tim.;"Kabupaten Pohuwato, Gorontalo";"Kabupaten Pohuwato, Gorontalo";GORONTALO;;Indonesia;;;;0.521171;1.214.876.076;https://maps.google.com/?cid=0x0:0xabc56e34572880b2;
komplek housing;Komplek perumahan;Ichakania Home;"FW9R+9J3 Kode Pos, Jl. Umahani, Marisa Utara, Kec. Marisa, Kabupaten Pohuwato, Gorontalo 96266";"Jl. Umahani, Marisa Utara, Kec. Marisa, Kabupaten Pohuwato";GORONTALO;96266;Indonesia;;;;0.4683822;121.941.542;https://maps.google.com/?cid=0x0:0x6ae5c9b37a213a91;
komplek housing;komplek housing;Rumah bu murti;"JVW5+9MJ, Kalimas, Kec. Taluditi, Kabupaten Pohuwato, Gorontalo 96266";"Kalimas, Kec. Taluditi, Kabupaten Pohuwato";GORONTALO;96266;Indonesia;;;;0.6462039;1.218.597.387;https://maps.google.com/?cid=0x0:0x7d3d12ebd0580a48;
komplek housing;Pembangunan Perumahan;Dusun Konito;"GRRW+CX5, Ilo Heluma, Kec. Patilanggio, Kabupaten Pohuwato, Gorontalo 96266";"Ilo Heluma, Kec. Patilanggio, Kabupaten Pohuwato";GORONTALO;96266;Indonesia;;;;0.5410002;1.218.474.863;https://maps.google.com/?cid=0x0:0x61966ace000d3416;
komplek housing;Komplek perumahan;Rumah Selviana Karim;"GW35+RC2, Balayo, Kec. Patilanggio, Kabupaten Pohuwato, Gorontalo 96266";"Balayo, Kec. Patilanggio, Kabupaten Pohuwato";GORONTALO;96266;Indonesia;;;;0.5046019;1.219.084.813;https://maps.google.com/?cid=0x0:0x29c23091b9b698be;
komplek housing;Komplek perumahan;Perumahan;"FV9P+G6M, Mootilango, Kec. Duhiadaa, Kabupaten Pohuwato, Gorontalo 96266";"Mootilango, Kec. Duhiadaa, Kabupaten Pohuwato";GORONTALO;96266;Indonesia;;;;0.4689613;121.885.578;https://maps.google.com/?cid=0x0:0x7c82c6679f86e246;
komplek housing;Komplek perumahan;Rumah Tika;"Suka Makmur, Kec. Patilanggio, Kabupaten Pohuwato, Gorontalo 96266";"Kec. Patilanggio, Kabupaten Pohuwato";GORONTALO;96266;Indonesia;;;;0.5296506;1.218.629.573;https://maps.google.com/?cid=0x0:0xb63fe57344017677;
komplek housing;komplek housing;Devi towalu;"JVP3+H3W, Tirto Asri, Kec. Taluditi, Kabupaten Pohuwato, Gorontalo 96266";"Tirto Asri, Kec. Taluditi, Kabupaten Pohuwato";GORONTALO;96266;Indonesia;;;;0.6364815;121.852.714;https://maps.google.com/?cid=0x0:0x41ea20cf1ff185c8;
komplek housing;Komplek perumahan;Rumah daing lese;"FVFQ+228, Mootilango, Kec. Duhiadaa, Kabupaten Pohuwato, Gorontalo 96266";"Mootilango, Kec. Duhiadaa, Kabupaten Pohuwato";GORONTALO;96266;Indonesia;;;;0.4725324;1.218.875.679;https://maps.google.com/?cid=0x0:0x1d74a4a8222428a;
komplek housing;Komplek perumahan;Ain Home's;"GW6M+MWJ, Taluduyunu, Kec. Buntulia, Kabupaten Pohuwato, Gorontalo 96266";"Taluduyunu, Kec. Buntulia, Kabupaten Pohuwato";GORONTALO;96266;Indonesia;;;;0.5117248;121.934.751;https://maps.google.com/?cid=0x0:0x5fd34b51333a5e9c;
komplek housing;Toko umum;RUMAH INDRiYANI HULOPI;"GV37+JMF, Dulomo, Kec. Patilanggio, Kabupaten Pohuwato, Gorontalo 96266";"Dulomo, Kec. Patilanggio, Kabupaten Pohuwato";GORONTALO;96266;Indonesia;;;;0.5040641;1.218.641.804;https://maps.google.com/?cid=0x0:0x7992122538b3cf3;
komplek housing;Komplek perumahan;Rumh pk gito;"JVW6+HV5, Kalimas, Kec. Taluditi, Kabupaten Pohuwato, Gorontalo 96266";"Kalimas, Kec. Taluditi, Kabupaten Pohuwato";GORONTALO;96266;Indonesia;;;;0.6463867;1.218.622.267;https://maps.google.com/?cid=0x0:0x714a2fd78d17586f;
komplek housing;Komplek perumahan;Rahayu Sahari;"FVXV+P6C, Mekar Jaya, Kec. Duhiadaa, Kabupaten Pohuwato, Gorontalo 96266";"Mekar Jaya, Kec. Duhiadaa, Kabupaten Pohuwato";GORONTALO;96266;Indonesia;;;;0.4992993;1.218.929.862;https://maps.google.com/?cid=0x0:0xbe8b34f5fbe639a3;
komplek housing;Kantor Perusahaan;Harmonis Residence Pohuwato 0001;"Bongo, Jln, Botubilotahu Indah, Kec. Marisa, Gorontalo";"Kabupaten Pohuwato, Gorontalo";GORONTALO;;Indonesia;082347204747;;;0.4806282;1.219.448.679;https://maps.google.com/?cid=0x0:0x59729f04eb900ba7;
komplek housing;Komplek perumahan;Rumah ARAR;"JVQ3+83, Tirto Asri, Kec. Taluditi, Kabupaten Pohuwato, Gorontalo 96266";"Tirto Asri, Kec. Taluditi, Kabupaten Pohuwato";GORONTALO;96266;Indonesia;;;;0.6383683;1.218.521.152;https://maps.google.com/?cid=0x0:0x995a63ec1c2bace5;
komplek housing;Komplek perumahan;rumah anggodoholio;"FVRQ+RM3, Mekar Jaya, Kec. Duhiadaa, Kabupaten Pohuwato, Gorontalo 96266";"Mekar Jaya, Kec. Duhiadaa, Kabupaten Pohuwato";GORONTALO;96266;Indonesia;;;;0.4916358;1.218.890.706;https://maps.google.com/?cid=0x0:0x253b206f1b8d25c;
komplek housing;Komplek perumahan;Rumah pak jangkep;"JVQ8+6VR, Tirto Asri, Kec. Taluditi, Kabupaten Pohuwato, Gorontalo 96266";"Tirto Asri, Kec. Taluditi, Kabupaten Pohuwato";GORONTALO;96266;Indonesia;;;;0.6381051;1.218.671.516;https://maps.google.com/?cid=0x0:0xf8af78f0a472a028;
komplek housing;Komplek perumahan;rumah bapuh Ino;"MV57+PGW, Kalimas, Kec. Taluditi, Kabupaten Pohuwato, Gorontalo 96266";"Kalimas, Kec. Taluditi, Kabupaten Pohuwato";GORONTALO;96266;Indonesia;;;;0.659374;1.218.638.143;https://maps.google.com/?cid=0x0:0x217dafb7c3cb330f;
komplek housing;komplek housing;Rumah hj.yuna igirisa;"GV29+94P, Manawa, Kec. Patilanggio, Kabupaten Pohuwato, Gorontalo 96266";"Manawa, Kec. Patilanggio, Kabupaten Pohuwato";GORONTALO;96266;Indonesia;;;;0.5009521;1.218.678.303;https://maps.google.com/?cid=0x0:0x5f12fed883312a05;
komplek housing;Komplek perumahan;Bele li ses selvi;"GW3Q+F9J, Taluduyunu, Kec. Buntulia, Kabupaten Pohuwato, Gorontalo 96266";"Taluduyunu, Kec. Buntulia, Kabupaten Pohuwato";GORONTALO;96266;Indonesia;;;;0.504138;121.938.679;https://maps.google.com/?cid=0x0:0x3d4d520bad268e36;
komplek housing;komplek housing;Kec. Popayato Tim.;"Kabupaten Pohuwato, Gorontalo";"Kabupaten Pohuwato, Gorontalo";GORONTALO;;Indonesia;;;;0.521171;1.214.876.076;https://maps.google.com/?cid=0x0:0xabc56e34572880b2;
komplek housing;Perumahan rakyat;Komunal Perumahan Rakyat Popayato Timur;"GF8Q+Q52, Maleo, Kec. Popayato Tim., Kabupaten Pohuwato, Gorontalo 96467";"Maleo, Kec. Popayato Tim., Kabupaten Pohuwato";GORONTALO;96467;Indonesia;;;;0.5168782;1.214.878.951;https://maps.google.com/?cid=0x0:0xb98f26d0936d348e;
komplek housing;Komplek perumahan;Perumahan KAT Desa Kelapa Lima;"HFGW+F64, Klp. Lima, Kec. Popayato Tim., Kabupaten Pohuwato, Gorontalo";"Kabupaten Pohuwato, Gorontalo";GORONTALO;;Indonesia;;;;0.5761425;1.214.955.758;https://maps.google.com/?cid=0x0:0xca93ce5af5ae33e3;
komplek housing;Komplek perumahan;Saliko Family;"GGQ3+JG7, Milangodaa, Kec. Popayato Tim., Kabupaten Pohuwato, Gorontalo 96467";"Milangodaa, Kec. Popayato Tim., Kabupaten Pohuwato";GORONTALO;96467;Indonesia;;;;0.5388623;1.215.041.698;https://maps.google.com/?cid=0x0:0x43479e97eb903937;
komplek housing;Komplek perumahan;Rumah Iswan naki;"FCMV+247, Torosiaje Jaya, Popayato, Kabupaten Pohuwato, Gorontalo";"Kabupaten Pohuwato, Gorontalo";GORONTALO;;Indonesia;;;;0.481723;121.442.604;https://maps.google.com/?cid=0x0:0x6d5bf3f22803710f;
komplek housing;Pembangunan Perumahan;Echa Home;"GGQ3+6M8, Milangodaa, Kec. Popayato Tim., Kabupaten Pohuwato, Gorontalo";"Kabupaten Pohuwato, Gorontalo";GORONTALO;;Indonesia;;;;0.5380342;1.215.042.068;https://maps.google.com/?cid=0x0:0xcfd08905c519d993;
komplek housing;Komplek perumahan;Rumah Keluarga Besar Linggar;"GFJQ+JF9, Londoun, Kec. Popayato Tim., Kabupaten Pohuwato, Gorontalo";"Kabupaten Pohuwato, Gorontalo";GORONTALO;;Indonesia;;;;0.5315361;1.214.887.412;https://maps.google.com/?cid=0x0:0x9e6cda2b8b62f226;
komplek housing;Komplek perumahan;Dusun Utara I;"GF29+QF2, Trikora, Popayato, Kabupaten Pohuwato, Gorontalo";"Kabupaten Pohuwato, Gorontalo";GORONTALO;;Indonesia;;;;0.5019954;1.214.686.549;https://maps.google.com/?cid=0x0:0x30d94fb23f15bef;
komplek housing;Komplek perumahan;Wilayah;"GFWH+6XG, Tahele, Kec. Popayato Tim., Kabupaten Pohuwato, Gorontalo 96467";"Tahele, Kec. Popayato Tim., Kabupaten Pohuwato";GORONTALO;96467;Indonesia;;;;0.5455566;121.479.952;https://maps.google.com/?cid=0x0:0x516e5dc076533c66;
komplek housing;Komplek perumahan;Rumah Kayla Safira Pasandre;"Bumi Bahari, Popayato, Kabupaten Pohuwato, Gorontalo 96467";"Popayato, Kabupaten Pohuwato";GORONTALO;96467;Indonesia;082259748355;;;0.4918712;1.214.449.206;https://maps.google.com/?cid=0x0:0x3e853e99517504be;
komplek housing;Komplek perumahan;Ainy house;"GF4H+2H4, Popayato, Kabupaten Pohuwato, Gorontalo";"Kabupaten Pohuwato, Gorontalo";GORONTALO;;Indonesia;;;;0.5050232;1.214.789.622;https://maps.google.com/?cid=0x0:0x872619ca503197b0;
komplek housing;Komplek perumahan;Ferji anwar;"GFH9+296, Bukit Tingki, Popayato, Kabupaten Pohuwato, Gorontalo 96467";"Bukit Tingki, Popayato, Kabupaten Pohuwato";GORONTALO;96467;Indonesia;;;;0.527924;1.214.688.577;https://maps.google.com/?cid=0x0:0xdff10f29748dbd98;
komplek housing;Komplek perumahan;Rumah popayato;"GCFV+RR, Telaga, Popayato, Kabupaten Pohuwato, Gorontalo 96467";"Telaga, Popayato, Kabupaten Pohuwato";GORONTALO;96467;Indonesia;;;;0.5245454;1.214.445.486;https://maps.google.com/?cid=0x0:0x2cd0fd73dbe35cf6;
komplek housing;Perhimpunan Pengembang Perumahan;Burhan Onu Home;"FCV8+9MQ, Jl. Trans-Sulawesi, Dudewulo, Kec. Popayato Bar., Kabupaten Pohuwato, Gorontalo 96467";"Jl. Trans-Sulawesi, Dudewulo, Kec. Popayato Bar., Kabupaten Pohuwato";GORONTALO;96467;Indonesia;;;;0.4936075;1.214.162.401;https://maps.google.com/?cid=0x0:0xa174b26753a5540;
komplek housing;Perhimpunan Pengembang Perumahan;Ika karim;"GC9W+4QP, Telaga, Popayato, Kabupaten Pohuwato, Gorontalo 96467";"Telaga, Popayato, Kabupaten Pohuwato";GORONTALO;96467;Indonesia;;;;0.5178398;1.214.469.528;https://maps.google.com/?cid=0x0:0xd3b02943fb441f6d;
komplek housing;Komplek perumahan;Rosmiyati Hasan;"GFG5+QWV, Jalan Desa, Bukit Tingki, Popayato, Kabupaten Pohuwato, Gorontalo 96467";"Jalan Desa, Bukit Tingki, Popayato, Kabupaten Pohuwato";GORONTALO;96467;Indonesia;;;;0.5269992;1.214.597.993;https://maps.google.com/?cid=0x0:0xef1410c2f5cd6531;
komplek housing;Komplek perumahan;Kel. TAHULENDING TALUMESANG;"GFQM+CR7, Londoun, Popayato Timur, Pohuwato Regency, Gorontalo";"Kabupaten Pohuwato, Gorontalo";GORONTALO;;Indonesia;;;;0.5375234;121.483.749;https://maps.google.com/?cid=0x0:0xf4d82192727f8ae0;
komplek housing;komplek housing;Arnihemuto;"HF8W+GX5, Klp. Lima, Kec. Popayato Tim., Kabupaten Pohuwato, Gorontalo 96467";"Klp. Lima, Kec. Popayato Tim., Kabupaten Pohuwato";GORONTALO;96467;Indonesia;;;;0.566295;121.497.906;https://maps.google.com/?cid=0x0:0xa57a01b95e6b48cf;
komplek housing;Komplek perumahan;Frengki abdjul;"GFG9+83, Bukit Tingki, Popayato, Kabupaten Pohuwato, Gorontalo";"Kabupaten Pohuwato, Gorontalo";GORONTALO;;Indonesia;;;;0.5258125;1.214.676.875;https://maps.google.com/?cid=0x0:0xd514a4b065f225f4;
komplek housing;Pembangunan Perumahan;Rumah tinggal;"HF2H+J6, Tahele, Kec. Popayato Tim., Kabupaten Pohuwato, Gorontalo";"Kabupaten Pohuwato, Gorontalo";GORONTALO;;Indonesia;;;;0.5514057;1.214.788.814;https://maps.google.com/?cid=0x0:0x44621fcd30d14c96;
komplek housing;Komplek perumahan;Taman 7 Juni Londoun;"Desa Londoun, Bunto, Kec. Popayato Tim., Kabupaten Pohuwato, Gorontalo 96267";"Bunto, Kec. Popayato Tim., Kabupaten Pohuwato";GORONTALO;96267;Indonesia;;;;0.5355848;1.214.867.144;https://maps.google.com/?cid=0x0:0xf10fe53bb48deba8;
komplek housing;Komplek perumahan;Farida Yusuf Musa;"GGP4+MQX, Milangodaa, Kec. Popayato Tim., Kabupaten Pohuwato, Gorontalo";"Kabupaten Pohuwato, Gorontalo";GORONTALO;;Indonesia;;;;0.5367437;1.215.069.749;https://maps.google.com/?cid=0x0:0x4ea597d1924d9805;
komplek housing;Komplek perumahan;Parmangaga;"GFGC+MFR, Bukit Tingki, Popayato, Kabupaten Pohuwato, Gorontalo 96467";"Bukit Tingki, Popayato, Kabupaten Pohuwato";GORONTALO;96467;Indonesia;;;;0.5267375;1.214.711.557;https://maps.google.com/?cid=0x0:0xe47017edac56b74a;
komplek housing;Komplek perumahan;Home Meisin Siging;"GFPP+8PR, Londoun, Kec. Popayato Tim., Kabupaten Pohuwato, Gorontalo";"Kabupaten Pohuwato, Gorontalo";GORONTALO;;Indonesia;;;;0.5358564;12.148.676;https://maps.google.com/?cid=0x0:0xc9e342e3ae8f541c;
komplek housing;Komplek perumahan;Familly Hamid;"HF48+J8R, Marisa, Kec. Popayato Tim., Kabupaten Pohuwato, Gorontalo 96467";"Marisa, Kec. Popayato Tim., Kabupaten Pohuwato";GORONTALO;96467;Indonesia;;;;0.5566139;1.214.657.798;https://maps.google.com/?cid=0x0:0x462ea97b78886f2e;
komplek housing;Balai masyarakat;Persatuan;"GF48+X2Q, Telaga Biru, Popayato, Kabupaten Pohuwato, Gorontalo 96467";"Telaga Biru, Popayato, Kabupaten Pohuwato";GORONTALO;96467;Indonesia;;;;0.5074512;1.214.651.083;https://maps.google.com/?cid=0x0:0x66eb69ca0d5cb389;
komplek housing;Komplek perumahan;Rumah Aliska;"GFRJ+P4P, Tahele, Kec. Popayato Tim., Kabupaten Pohuwato, Gorontalo 96467";"Tahele, Kec. Popayato Tim., Kabupaten Pohuwato";GORONTALO;96467;Indonesia;;;;0.5417978;1.214.802.722;https://maps.google.com/?cid=0x0:0x9a3c507646f88e5d;
komplek housing;Komplek perumahan;Desa Trikora dusun ll;"FFWG+GVG, Trikora, Popayato, Kabupaten Pohuwato, Gorontalo 96467";"Trikora, Popayato, Kabupaten Pohuwato";GORONTALO;96467;Indonesia;;;;0.4963077;1.214.772.114;https://maps.google.com/?cid=0x0:0x6f80b1d250949167;
komplek housing;Komplek perumahan;Mespi Akase;"FCWX+758, Bumi Bahari, Popayato, Kabupaten Pohuwato, Gorontalo 96467";"Bumi Bahari, Popayato, Kabupaten Pohuwato";GORONTALO;96467;Indonesia;;;;0.4956539;1.214.479.487;https://maps.google.com/?cid=0x0:0x66c12d98b367cb06;
komplek housing;komplek housing;Kec. Randangan;"Kabupaten Pohuwato, Gorontalo";"Kabupaten Pohuwato, Gorontalo";GORONTALO;;Indonesia;;;;0.536787;1.218.156.097;https://maps.google.com/?cid=0x0:0xae3be2603f746c2c;
komplek housing;Pembangunan Perumahan;Syam;"Manunggal Karya, Kec. Randangan, Kabupaten Pohuwato, Gorontalo 96469";"Kec. Randangan, Kabupaten Pohuwato";GORONTALO;96469;Indonesia;;;;0.5397759;1.218.054.987;https://maps.google.com/?cid=0x0:0x998048db31b57e11;
komplek housing;Komplek perumahan;Rumah Ngadirah;"GRQ4+CH, Manunggal Karya, Kec. Randangan, Kabupaten Pohuwato, Gorontalo";"Kabupaten Pohuwato, Gorontalo";GORONTALO;;Indonesia;;;;0.538391;121.806.933;https://maps.google.com/?cid=0x0:0x6cb31a7b8c13ced1;
komplek housing;Komplek perumahan;geralhome;"GQVV+FX5, Banuroja, Kec. Randangan, Kabupaten Pohuwato, Gorontalo 96469";"Banuroja, Kec. Randangan, Kabupaten Pohuwato";GORONTALO;96469;Indonesia;;;;0.5436262;1.217.949.982;https://maps.google.com/?cid=0x0:0x88ca4453fd0f442d;
komplek housing;Komplek perumahan;RUMAH I KETUT SUKARMA;"HQ2M+WCM, Dusun bali murni, Sari Murni, Kec. Randangan, Kabupaten Pohuwato, Gorontalo 96469";"Dusun bali murni, Sari Murni, Kec. Randangan, Kabupaten Pohuwato";GORONTALO;96469;Indonesia;;;;0.5523396;1.217.835.388;https://maps.google.com/?cid=0x0:0xab8a79e7c52d19a7;
komplek housing;Komplek perumahan;Gede Wijaya;"GQWV+Q9J, Banuroja, Kec. Randangan, Kabupaten Pohuwato, Gorontalo 96469";"Banuroja, Kec. Randangan, Kabupaten Pohuwato";GORONTALO;96469;Indonesia;;;;0.5464918;1.217.932.722;https://maps.google.com/?cid=0x0:0x153c23bc2a9c8a1d;
komplek housing;Komplek perumahan;Bele li opa ceko;"FRX6+4WH, Huyula, Kec. Randangan, Kabupaten Pohuwato, Gorontalo 96469";"Huyula, Kec. Randangan, Kabupaten Pohuwato";GORONTALO;96469;Indonesia;;;;0.4978027;121.812.344;https://maps.google.com/?cid=0x0:0x3f0808e5d9db0be6;
komplek housing;Komplek perumahan;Rumah Anna;"GRR5+G4Q, Manunggal Karya, Kec. Randangan, Kabupaten Pohuwato, Gorontalo 96469";"Manunggal Karya, Kec. Randangan, Kabupaten Pohuwato";GORONTALO;96469;Indonesia;;;;0.5413288;1.218.078.446;https://maps.google.com/?cid=0x0:0xf0f6e6df44368c2e;
komplek housing;Pom bensin/SPBU;Pom bensin mini;"GRM9+HWM, Motolohu, Kec. Randangan, Kabupaten Pohuwato, Gorontalo 96469";"Motolohu, Kec. Randangan, Kabupaten Pohuwato";GORONTALO;96469;Indonesia;;;;0.5339533;121.819.803;https://maps.google.com/?cid=0x0:0xeee4438c2558d87d;
komplek housing;Komplek perumahan;Rumah Nanda;"GRQ4+6MJ Dusun Sido Mukti, Jln Trans Taluditi, Manunggal Karya, Kec. Randangan, Kabupaten Pohuwato";"Kabupaten Pohuwato, Gorontalo";GORONTALO;;Indonesia;;;;0.5300531;1.218.155.117;https://maps.google.com/?cid=0x0:0x3b3b43fcb1727f97;
komplek housing;Otoritas Perumahan;Khairul dukalang;"FRX7+Q3J, Jalan resetlement, Huyula, Kec. Randangan, Kabupaten Pohuwato, Gorontalo 96469";"Jalan resetlement, Huyula, Kec. Randangan, Kabupaten Pohuwato";GORONTALO;96469;Indonesia;;;;0.4995445;1.218.125.741;https://maps.google.com/?cid=0x0:0xdff59e03fab6ee40;
komplek housing;Toko;Cetakan batako raka reza;"GRP8+P69, Motolohu, Kec. Randangan, Kabupaten Pohuwato, Gorontalo";"Kabupaten Pohuwato, Gorontalo";GORONTALO;;Indonesia;082347008542;;;0.5367143;1.218.149.787;https://maps.google.com/?cid=0x0:0x2c75caf9d6582ca0;
komplek housing;Komplek perumahan;Mbah salim/Markonah;"Manunggal Karya, Kec. Randangan, Kabupaten Pohuwato, Gorontalo 96469";"Kec. Randangan, Kabupaten Pohuwato";GORONTALO;96469;Indonesia;;;;0.5377181;1.218.136.542;https://maps.google.com/?cid=0x0:0x7fd9bd9e2d894758;
komplek housing;Komplek perumahan;Rumah Komunal;"GRH3+6JQ, Motolohu, Kec. Randangan, Kabupaten Pohuwato, Gorontalo 96469";"Motolohu, Kec. Randangan, Kabupaten Pohuwato";GORONTALO;96469;Indonesia;;;;0.528092;121.804.095;https://maps.google.com/?cid=0x0:0x9830331c96bb49a7;
komplek housing;Komplek perumahan;Rumahku;"GRP8+7F9, Jl. Trans-Sulawesi, Motolohu, Kec. Randangan, Kabupaten Pohuwato, Gorontalo 96469";"Jl. Trans-Sulawesi, Motolohu, Kec. Randangan, Kabupaten Pohuwato";GORONTALO;96469;Indonesia;;;;0.5354242;1.218.165.838;https://maps.google.com/?cid=0x0:0x848c283d94ab4e77;
komplek housing;Komplek perumahan;Rumah devi;"GRQ5+9Q, Manunggal Karya, Kec. Randangan, Kabupaten Pohuwato, Gorontalo 96469";"Manunggal Karya, Kec. Randangan, Kabupaten Pohuwato";GORONTALO;96469;Indonesia;;;;0.538743;12.180.882;https://maps.google.com/?cid=0x0:0x7c74461bb97c2cb4;
komplek housing;Komplek perumahan;Rumah dirga;"GQWR+JPJ, Banuroja, Kec. Randangan, Kabupaten Pohuwato, Gorontalo 96469";"Banuroja, Kec. Randangan, Kabupaten Pohuwato";GORONTALO;96469;Indonesia;;;;0.546591;1.217.917.749;https://maps.google.com/?cid=0x0:0x78d5707ec2b71a4f;
komplek housing;Komplek perumahan;Banuroja;"GQWV+Q9J, Banuroja, Kec. Randangan, Kabupaten Pohuwato, Gorontalo 96469";"Banuroja, Kec. Randangan, Kabupaten Pohuwato";GORONTALO;96469;Indonesia;;;;0.5469625;1.217.933.906;https://maps.google.com/?cid=0x0:0x377a198029183619;
komplek housing;Komplek perumahan;RUMAH KETUT ADI;"GQWV+XCQ, Banuroja, Kec. Randangan, Kabupaten Pohuwato, Gorontalo 96469";"Banuroja, Kec. Randangan, Kabupaten Pohuwato";GORONTALO;96469;Indonesia;;;;0.5474686;1.217.936.207;https://maps.google.com/?cid=0x0:0x752735da2157e4cc;
komplek housing;Otoritas Perumahan;Hapsa habibu;"GR55+78W, Huyula, Kec. Randangan, Kabupaten Pohuwato, Gorontalo 96469";"Huyula, Kec. Randangan, Kabupaten Pohuwato";GORONTALO;96469;Indonesia;;;;0.5082337;121.808.322;https://maps.google.com/?cid=0x0:0x87bae1b14db8d3cb;
komplek housing;Masjid;Podu toni;"GPPW+P9, Sidorukun, Kec. Randangan, Kabupaten Pohuwato, Gorontalo";"Kabupaten Pohuwato, Gorontalo";GORONTALO;;Indonesia;;;;0.536868;121.745.995;https://maps.google.com/?cid=0x0:0xed97b30558bc2496;
komplek housing;Komplek perumahan;Tn. Tenrilawa house;"GRH7+CCM, Jl. Trans-Sulawesi, Motolohu, Kec. Randangan, Kabupaten Pohuwato, Gorontalo 96469";"Jl. Trans-Sulawesi, Motolohu, Kec. Randangan, Kabupaten Pohuwato";GORONTALO;96469;Indonesia;;;;0.5285957;121.813.546;https://maps.google.com/?cid=0x0:0x2adda0a4c612f9d9;
komplek housing;Komplek perumahan;Rendy Hasanani;"GRG5+34X, Motolohu, Kec. Randangan, Kabupaten Pohuwato, Gorontalo";"Kabupaten Pohuwato, Gorontalo";GORONTALO;;Indonesia;;;;0.5252354;1.218.078.603;https://maps.google.com/?cid=0x0:0x7f7822662aa48177;
komplek housing;komplek housing;sorum barokah;"GRM8+5F7, Jl. Trans-Sulawesi, Motolohu, Kec. Randangan, Kabupaten Pohuwato, Gorontalo 96469";"Jl. Trans-Sulawesi, Motolohu, Kec. Randangan, Kabupaten Pohuwato";GORONTALO;96469;Indonesia;;;;0.532884;1.218.159.389;https://maps.google.com/?cid=0x0:0xbab52d4d4902814e;
komplek housing;komplek housing;FadliAlamri;"FRR5+9VR, Siduwonge, Kec. Randangan, Kabupaten Pohuwato, Gorontalo 96469";"Siduwonge, Kec. Randangan, Kabupaten Pohuwato";GORONTALO;96469;Indonesia;;;;0.4907913;1.218.101.057;https://maps.google.com/?cid=0x0:0x70bd8becdb0d1ca;
komplek housing;Komplek perumahan;Rumah Indri;"GRQ4+JV5, Manunggal Karya, Kec. Randangan, Kabupaten Pohuwato, Gorontalo 96469";"Manunggal Karya, Kec. Randangan, Kabupaten Pohuwato";GORONTALO;96469;Indonesia;;;;0.5390222;1.218.072.291;https://maps.google.com/?cid=0x0:0x21508dfa44ebb7f1;
komplek housing;Komplek perumahan;Rumah Den Bagus/Mhyra;"GRR5+37G, Manunggal Karya, Kec. Randangan, Kabupaten Pohuwato, Gorontalo 96469";"Manunggal Karya, Kec. Randangan, Kabupaten Pohuwato";GORONTALO;96469;Indonesia;;;;0.5401795;121.808.202;https://maps.google.com/?cid=0x0:0xdfa1749bb91e11d7;
komplek housing;Komplek perumahan;Abdul aziz;"GQWR+RP4, Banuroja, Kec. Randangan, Kabupaten Pohuwato, Gorontalo 96469";"Banuroja, Kec. Randangan, Kabupaten Pohuwato";GORONTALO;96469;Indonesia;;;;0.5470172;1.217.918.265;https://maps.google.com/?cid=0x0:0x9d15b1dd382096ac;
komplek housing;Komplek perumahan;Nisamohi;"GR97+VGC, Motolohu Sel., Kec. Randangan, Kabupaten Pohuwato, Gorontalo 96469";"Motolohu Sel., Kec. Randangan, Kabupaten Pohuwato";GORONTALO;96469;Indonesia;;;;0.519676;1.218.137.649;https://maps.google.com/?cid=0x0:0x1f931eb4c1e1799b;
komplek housing;komplek housing;Gorontalo 96469;"Kabupaten Pohuwato, Gorontalo";"Kabupaten Pohuwato, Gorontalo";GORONTALO;;Indonesia;;;;0.737587;1.217.651.362;https://maps.google.com/?cid=0x0:0xeb07f8fd945f7ccf;
komplek housing;Perumahan;Olivia;"MR4F+2J, Mekarti Jaya, Kec. Taluditi, Kabupaten Pohuwato, Gorontalo 96469";"Mekarti Jaya, Kec. Taluditi, Kabupaten Pohuwato";GORONTALO;96469;Indonesia;;;;0.6549564;1.218.245.337;https://maps.google.com/?cid=0x0:0x3c7c409c672665d3;
komplek housing;Otoritas Perumahan;Sekretariat MARGALUYU 151 Taluditi;"JRM9+3Q, Panca Karsa II, Kec. Taluditi, Kabupaten Pohuwato, Gorontalo";"Kabupaten Pohuwato, Gorontalo";GORONTALO;;Indonesia;;;;0.6326384;1.218.193.936;https://maps.google.com/?cid=0x0:0xedb0106dd46cb7c0;
komplek housing;komplek housing;Rumah bu murti;"JVW5+9MJ, Kalimas, Kec. Taluditi, Kabupaten Pohuwato, Gorontalo 96266";"Kalimas, Kec. Taluditi, Kabupaten Pohuwato";GORONTALO;96266;Indonesia;;;;0.6462039;1.218.597.387;https://maps.google.com/?cid=0x0:0x7d3d12ebd0580a48;
komplek housing;Komplek perumahan;dscafbrynti;"JVV4+JV, Kalimas, Kec. Taluditi, Kabupaten Pohuwato, Gorontalo";"Kabupaten Pohuwato, Gorontalo";GORONTALO;;Indonesia;;;;0.644045;121.857.237;https://maps.google.com/?cid=0x0:0x238894c2c18eb38e;
komplek housing;komplek housing;Devi towalu;"JVP3+H3W, Tirto Asri, Kec. Taluditi, Kabupaten Pohuwato, Gorontalo 96266";"Tirto Asri, Kec. Taluditi, Kabupaten Pohuwato";GORONTALO;96266;Indonesia;;;;0.6364815;121.852.714;https://maps.google.com/?cid=0x0:0x41ea20cf1ff185c8;
komplek housing;Komplek perumahan;Berkah sapi wahyu;"Unnamed Road, Panca Karsa I, Kec. Taluditi, Kabupaten Pohuwato, Gorontalo 96469";"Panca Karsa I, Kec. Taluditi, Kabupaten Pohuwato";GORONTALO;96469;Indonesia;085217212728;;;0.5982844;1.218.008.143;https://maps.google.com/?cid=0x0:0x285e37e64dcdfb61;
komplek housing;Komplek perumahan;Rumah aman;"MV27+6F, Kalimas, Kec. Taluditi, Kabupaten Pohuwato, Gorontalo";"Kabupaten Pohuwato, Gorontalo";GORONTALO;;Indonesia;;;;0.650565;1.218.636.433;https://maps.google.com/?cid=0x0:0xd789f7785f359dab;
komplek housing;Komplek perumahan;Rumah Ayah Azril;"MV79+F6, Upt. Marisa VI, Kec. Taluditi, Kabupaten Pohuwato, Gorontalo";"Kabupaten Pohuwato, Gorontalo";GORONTALO;;Indonesia;;;;0.6634316;1.218.677.578;https://maps.google.com/?cid=0x0:0x4e1f38379be110ae;
komplek housing;komplek housing;Ghofur Jaelani;"QQVX+JPP, Mekarti Jaya, Kec. Taluditi, Kabupaten Pohuwato, Gorontalo 96469";"Mekarti Jaya, Kec. Taluditi, Kabupaten Pohuwato";GORONTALO;96469;Indonesia;;;;0.7940779;1.217.993.168;https://maps.google.com/?cid=0x0:0xd9b3f799242104db;
komplek housing;Komplek perumahan;Walet 02 Sumber rejeki;"JRWH+C28, Panca Karsa II, Kec. Taluditi, Kabupaten Pohuwato, Gorontalo";"Kabupaten Pohuwato, Gorontalo";GORONTALO;;Indonesia;;;;0.6460493;1.218.275.733;https://maps.google.com/?cid=0x0:0xb2e1567f7c99aba2;
komplek housing;Kantor Pemerintahan Wilayah;Rumah kepala desa tirto asri;"JRM8+9R3, Panca Karsa II, Kec. Taluditi, Kabupaten Pohuwato, Gorontalo";"Kabupaten Pohuwato, Gorontalo";GORONTALO;;Indonesia;;;;0.6333808;1.218.170.396;https://maps.google.com/?cid=0x0:0x4e23ac38970c781b;
komplek housing;Komplek perumahan;rumah faris;"MV68+XPX, Upt. Marisa VI, Kec. Taluditi, Kabupaten Pohuwato, Gorontalo";"Kabupaten Pohuwato, Gorontalo";GORONTALO;;Indonesia;;;;0.6624773;1.218.668.477;https://maps.google.com/?cid=0x0:0xfa9e618830fb46bc;
komplek housing;Komplek perumahan;Home NAKA;"HRXC+VRQ Home NAKA, Panca Karsa I, Kec. Taluditi, Kabupaten Pohuwato, Gorontalo 96469";"Panca Karsa I, Kec. Taluditi, Kabupaten Pohuwato";GORONTALO;96469;Indonesia;;;;0.5997013;121.822.098;https://maps.google.com/?cid=0x0:0x4d0131b7bc39f8e1;
komplek housing;Komplek perumahan;Elishabeth HOME;"JVP3+Q6, Tirto Asri, Kec. Taluditi, Kabupaten Pohuwato, Gorontalo";"Kabupaten Pohuwato, Gorontalo";GORONTALO;;Indonesia;;;;0.636201;121.852.921;https://maps.google.com/?cid=0x0:0x895b2968a1dc5847;
komplek housing;Komplek perumahan;Mas cipto;"MR3C+FC4, Mekarti Jaya, Kec. Taluditi, Kabupaten Pohuwato, Gorontalo 96469";"Mekarti Jaya, Kec. Taluditi, Kabupaten Pohuwato";GORONTALO;96469;Indonesia;;;;0.6543088;1.218.199.264;https://maps.google.com/?cid=0x0:0xf62344760d315df9;
komplek housing;Komplek perumahan;Rumh pk gito;"JVW6+HV5, Kalimas, Kec. Taluditi, Kabupaten Pohuwato, Gorontalo 96266";"Kalimas, Kec. Taluditi, Kabupaten Pohuwato";GORONTALO;96266;Indonesia;;;;0.6463867;1.218.622.267;https://maps.google.com/?cid=0x0:0x714a2fd78d17586f;
komplek housing;Komplek perumahan;Home Mariyanah;"JR24+4V, Panca Karsa I, Kec. Taluditi, Kabupaten Pohuwato, Gorontalo";"Kabupaten Pohuwato, Gorontalo";GORONTALO;;Indonesia;;;;0.6002413;1.218.071.644;https://maps.google.com/?cid=0x0:0x873ac9776429e29;
komplek housing;Perhimpunan Pengembang Perumahan;Rumah JARHAM OPERATOR EXCAVATOR;"QQH3+7FX, Dusun 2, Malango, Kec. Taluditi, Kabupaten Pohuwato, Gorontalo 96469";"Dusun 2, Malango, Kec. Taluditi, Kabupaten Pohuwato";GORONTALO;96469;Indonesia;;;;0.7782336;1.217.537.404;https://maps.google.com/?cid=0x0:0x1364aa84875b4505;
komplek housing;Komplek perumahan;Mbok Lilik home;"Panca Karsa II, Kec. Taluditi, Kabupaten Pohuwato, Gorontalo";"Kabupaten Pohuwato, Gorontalo";GORONTALO;;Indonesia;;;;0.631635;1.218.193.812;https://maps.google.com/?cid=0x0:0x301871cae0e6fdd7;
komplek housing;komplek housing;Kec. Taluditi;"Kabupaten Pohuwato, Gorontalo";"Kabupaten Pohuwato, Gorontalo";GORONTALO;;Indonesia;;;;0.6333439;1.218.170.186;https://maps.google.com/?cid=0x0:0xf19a7facb6c28699;
komplek housing;Sekolah;Kompleks Sdn 01 Taluditi;"HRXC+VRQ, Panca Karsa I, Kec. Taluditi, Kabupaten Pohuwato, Gorontalo 96469";"Panca Karsa I, Kec. Taluditi, Kabupaten Pohuwato";GORONTALO;96469;Indonesia;;;;0.5997013;121.822.098;https://maps.google.com/?cid=0x0:0x621b04da5c3486a5;
komplek housing;Sekolah Dasar;SDN 01 TALUDITI;"JR22+R9C, Panca Karsa I, Kec. Taluditi, Kabupaten Pohuwato, Gorontalo 96469";"Panca Karsa I, Kec. Taluditi, Kabupaten Pohuwato";GORONTALO;96469;Indonesia;;;;0.6020737;1.218.009.016;https://maps.google.com/?cid=0x0:0x7ca852a0db7e0d9e;
komplek housing;komplek housing;Gorontalo 96468;"Kec. Lemito, Kabupaten Pohuwato, Gorontalo";"Kabupaten Pohuwato, Gorontalo";GORONTALO;;Indonesia;;;;0.7390376;1.215.826.642;https://maps.google.com/?cid=0x0:0xbcbfbe464a8e6a55;
komplek housing;Komplek perumahan;Rafiz Home;"HJ3Q+P83, Jl. Trans-Sulawesi, Yipilo, Kec. Wanggarasi, Kabupaten Pohuwato, Gorontalo 96468";"Jl. Trans-Sulawesi, Yipilo, Kec. Wanggarasi, Kabupaten Pohuwato";GORONTALO;96468;Indonesia;;;;0.5541992;1.216.389.373;https://maps.google.com/?cid=0x0:0xf48a4ba8bff702db;
komplek housing;Pembangunan Perumahan;Wanggarasi timur;"GPP2+GMP, Wonggarasi Tim., Kec. Wanggarasi, Kabupaten Pohuwato, Gorontalo";"Kabupaten Pohuwato, Gorontalo";GORONTALO;;Indonesia;;;;0.5363384;1.217.017.149;https://maps.google.com/?cid=0x0:0xee439975c62f1af0;
komplek housing;Komplek perumahan;Rumah Jois Podungge;"HJ54+8Q4, Wonggarasi Tengah, Kec. Lemito, Kabupaten Pohuwato, Gorontalo 96468";"Wonggarasi Tengah, Kec. Lemito, Kabupaten Pohuwato";GORONTALO;96468;Indonesia;;;;0.5588337;1.216.072.813;https://maps.google.com/?cid=0x0:0x855ede1cffa18c3e;
komplek housing;Komplek perumahan;HASENG'S HOME;"HJ49+P3Q, Jl. Trans-Sulawesi, Wonggarasi Tengah, Kec. Lemito, Kabupaten Pohuwato, Gorontalo";"Kabupaten Pohuwato, Gorontalo";GORONTALO;;Indonesia;;;;0.556838;1.216.177.324;https://maps.google.com/?cid=0x0:0x7aa2f4caca0b20fb;
komplek housing;komplek housing;Kios Bilzia Pink;"PPR7+RGH, Tuweya, Kec. Wanggarasi, Kabupaten Pohuwato, Gorontalo";"Kabupaten Pohuwato, Gorontalo";GORONTALO;;Indonesia;;;;0.7420507;1.217.138.458;https://maps.google.com/?cid=0x0:0x34a52e832ddfbfdb;
komplek housing;Komplek perumahan;Rumah Ikha Komendangi;"HH2C+44H, Lemito Utara, Kec. Lemito, Kabupaten Pohuwato, Gorontalo 96468";"Lemito Utara, Kec. Lemito, Kabupaten Pohuwato";GORONTALO;96468;Indonesia;;;;0.5508869;1.215.700.849;https://maps.google.com/?cid=0x0:0x277a33f13dc7c723;
komplek housing;Komplek perumahan;Perumahan KAT Desa Kelapa Lima;"HFGW+F64, Klp. Lima, Kec. Popayato Tim., Kabupaten Pohuwato, Gorontalo";"Kabupaten Pohuwato, Gorontalo";GORONTALO;;Indonesia;;;;0.5761425;1.214.955.758;https://maps.google.com/?cid=0x0:0xca93ce5af5ae33e3;
komplek housing;Rumah Kayu;House Isna Habu;"HH5C+55V Lapangan Desa Kenari, Jl. Trans-Sulawesi, Lemito Utara, Kec. Lemito, Kabupaten Pohuwato, Gorontalo 96468";"Jl. Trans-Sulawesi, Lemito Utara, Kec. Lemito, Kabupaten Pohuwato";GORONTALO;96468;Indonesia;;;;0.5578663;1.215.707.974;https://maps.google.com/?cid=0x0:0x92bfdb65925dd1f4;
komplek housing;komplek housing;Bele le mudin;"PM74+JPG, Yipilo, Kec. Wanggarasi, Kabupaten Pohuwato, Gorontalo";"Kabupaten Pohuwato, Gorontalo";GORONTALO;;Indonesia;;;;0.714069;1.216.568.296;https://maps.google.com/?cid=0x0:0xad855bf3afed06b1;
komplek housing;Komplek perumahan;House Andika;"HH3C+QJH, Jl. Trans-Sulawesi, Lemito Utara, Kec. Lemito, Kabupaten Pohuwato, Gorontalo 96468";"Jl. Trans-Sulawesi, Lemito Utara, Kec. Lemito, Kabupaten Pohuwato";GORONTALO;96468;Indonesia;;;;0.5540094;1.215.715.015;https://maps.google.com/?cid=0x0:0x8f7cfd5ffbee31cb;
komplek housing;Komplek perumahan;Bele Le Oka;"HJ2Q+C5, Suka Damai, Kec. Lemito, Kabupaten Pohuwato, Gorontalo";"Kabupaten Pohuwato, Gorontalo";GORONTALO;;Indonesia;;;;0.5510031;1.216.379.573;https://maps.google.com/?cid=0x0:0x96b0650a2820ec96;
komplek housing;;???????? ??????????;"HPW3+FF, Wonggarasi Tim., Kec. Wanggarasi, Kabupaten Pohuwato, Gorontalo";"Kabupaten Pohuwato, Gorontalo";GORONTALO;;Indonesia;;;;0.5960559;1.217.034.739;https://maps.google.com/?cid=0x0:0xf30b200d471bb90a;
komplek housing;Komplek perumahan;Rumah haya nako;"HH64+XP5, Balobalonge, Kec. Lemito, Kabupaten Pohuwato, Gorontalo 96468";"Balobalonge, Kec. Lemito, Kabupaten Pohuwato";GORONTALO;96468;Indonesia;;;;0.5623875;1.215.568.594;https://maps.google.com/?cid=0x0:0x8fbedc34015076b4;
komplek housing;Pembangunan Perumahan;Danker Pakaya Home;"GHR8+76V, Lemito, Kec. Lemito, Kabupaten Pohuwato, Gorontalo 96468";"Lemito, Kec. Lemito, Kabupaten Pohuwato";GORONTALO;96468;Indonesia;;;;0.5407382;1.215.655.424;https://maps.google.com/?cid=0x0:0x8dc82fd02b14fa84;
komplek housing;Komplek perumahan;Rumah Le Darminto;"HJ63+C97, Jl. Trans-Sulawesi, Dusun Hulota, Wonggarasi Tengah, Kec. Lemito, Kabupaten Pohuwato, Gorontalo";"Kabupaten Pohuwato, Gorontalo";GORONTALO;;Indonesia;;;;0.5610286;1.216.034.204;https://maps.google.com/?cid=0x0:0xa6496d264ec37e0;
komplek housing;Gedung Apartemen;KUBURAN UMUM;"GHWC+WQQ, Lemito Utara, Kec. Lemito, Kabupaten Pohuwato, Gorontalo 96468";"Lemito Utara, Kec. Lemito, Kabupaten Pohuwato";GORONTALO;96468;Indonesia;;;;0.5473981;1.215.719.789;https://maps.google.com/?cid=0x0:0x96af47fc1721108;
komplek housing;Komplek perumahan;belle dupu;"PP49+6R7 Lorong depan Baznas, Tuweya, Kec. Wanggarasi, Kabupaten Pohuwato, Gorontalo";"Kabupaten Pohuwato, Gorontalo";GORONTALO;;Indonesia;;;;0.7055278;1.217.195.459;https://maps.google.com/?cid=0x0:0xf22521e242865399;
komplek housing;Komplek perumahan;Rumah Regina;"HJ45+RXJ, Wonggarasi Tengah, Kec. Lemito, Kabupaten Pohuwato, Gorontalo";"Kabupaten Pohuwato, Gorontalo";GORONTALO;;Indonesia;;;;0.557092;1.216.098.818;https://maps.google.com/?cid=0x0:0xbcff822668a5fb71;
komplek housing;komplek housing;Rumah opa kiana;"GMJV+FQ5, Jl. Trans-Sulawesi Dusun Cempaka Putih, Wonggarasi Tim., Kec. Wanggarasi, Kabupaten Pohuwato, Gorontalo";"Kabupaten Pohuwato, Gorontalo";GORONTALO;;Indonesia;;;;0.5315757;1.216.946.018;https://maps.google.com/?cid=0x0:0xd28860dcf261fe71;
komplek housing;komplek housing;Kec. Wanggarasi;"Kabupaten Pohuwato, Gorontalo";"Kabupaten Pohuwato, Gorontalo";GORONTALO;;Indonesia;;;;0.5363384;1.217.017.149;https://maps.google.com/?cid=0x0:0x9163aaf9789818f7;
perumahan;perumahan;Gorontalo 96266;"Kabupaten Pohuwato, Gorontalo";"Kabupaten Pohuwato, Gorontalo";GORONTALO;;Indonesia;;;;0.6235288;1.218.790.306;https://maps.google.com/?cid=0x0:0x6e323a18714b4718;
perumahan;Komplek perumahan;Bele li ses selvi;"GW3Q+F9J, Taluduyunu, Kec. Buntulia, Kabupaten Pohuwato, Gorontalo 96266";"Taluduyunu, Kec. Buntulia, Kabupaten Pohuwato";GORONTALO;96266;Indonesia;;;;0.504138;121.938.679;https://maps.google.com/?cid=0x0:0x3d4d520bad268e36;
perumahan;Gedung Apartemen;Rumah Muchtar;"GW3J+2W4, Taluduyunu, Kec. Buntulia, Kabupaten Pohuwato, Gorontalo";"Kabupaten Pohuwato, Gorontalo";GORONTALO;;Indonesia;;;;0.5025175;121.932.339;https://maps.google.com/?cid=0x0:0x42ff3e3602f4c197;
perumahan;Komplek perumahan;Perumahan;"FV9P+G6M, Mootilango, Kec. Duhiadaa, Kabupaten Pohuwato, Gorontalo 96266";"Mootilango, Kec. Duhiadaa, Kabupaten Pohuwato";GORONTALO;96266;Indonesia;;;;0.4689613;121.885.578;https://maps.google.com/?cid=0x0:0x7c82c6679f86e246;
perumahan;Komplek perumahan;Suleman Doka Residence;"GW2P+HH5, Taluduyunu, Kec. Buntulia, Kabupaten Pohuwato, Gorontalo 96266";"Taluduyunu, Kec. Buntulia, Kabupaten Pohuwato";GORONTALO;96266;Indonesia;081243654500;;;0.501383;1.219.364.987;https://maps.google.com/?cid=0x0:0x82e263ec50fd82d0;
perumahan;Komplek perumahan;Rumah hadija y nule;"JVHG+M9, Tirto Asri, Kec. Taluditi, Kabupaten Pohuwato, Gorontalo";"Kabupaten Pohuwato, Gorontalo";GORONTALO;;Indonesia;;;;0.6291875;1.218.759.375;https://maps.google.com/?cid=0x0:0xaaf2cb35c4ed0e1a;
perumahan;Gedung Apartemen;rumah kediaman;"GW3J+2WF, Jl. Trans-Sulawesi, Taluduyunu, Kec. Buntulia, Kabupaten Pohuwato, Gorontalo 96266";"Jl. Trans-Sulawesi, Taluduyunu, Kec. Buntulia, Kabupaten Pohuwato";GORONTALO;96266;Indonesia;;;;0.5023533;1.219.311.083;https://maps.google.com/?cid=0x0:0x6b722f0fe0293a25;
perumahan;Komplek perumahan;Izqi;"GW2M+W6G, Jl. Trans-Sulawesi, Taluduyunu, Kec. Buntulia, Kabupaten Pohuwato, Gorontalo 96266";"Jl. Trans-Sulawesi, Taluduyunu, Kec. Buntulia, Kabupaten Pohuwato";GORONTALO;96266;Indonesia;;;;0.5023001;1.219.330.903;https://maps.google.com/?cid=0x0:0xb60f80bc0a0102e8;
perumahan;perumahan;Talduyunu Kabibile;"GX22+43C, Taluduyunu, Kec. Buntulia, Kabupaten Pohuwato, Gorontalo";"Kabupaten Pohuwato, Gorontalo";GORONTALO;;Indonesia;;;;0.5003161;1.219.501.551;https://maps.google.com/?cid=0x0:0x12fe6bf4ca57234f;
perumahan;Komplek perumahan;Ruma le mbone;"FWJ8+MR7, Buntulia Bar., Kec. Duhiadaa, Kabupaten Pohuwato, Gorontalo";"Kabupaten Pohuwato, Gorontalo";GORONTALO;;Indonesia;;;;0.4816592;1.219.170.507;https://maps.google.com/?cid=0x0:0x3ed6f118defcfb50;
perumahan;Penginapan;Perum Marisa Indah;"FW7X+H69, Jl. Jend. Sudirman, Palopo, Kec. Marisa, Kabupaten Pohuwato, Gorontalo 96265";"Jl. Jend. Sudirman, Palopo, Kec. Marisa, Kabupaten Pohuwato";GORONTALO;96265;Indonesia;;;;0.4639199;1.219.481.071;https://maps.google.com/?cid=0x0:0x8bfef187c0a5d7a5;
perumahan;Komplek perumahan;Muzza;"GW3Q+85F, Taluduyunu, Kec. Buntulia, Kabupaten Pohuwato, Gorontalo 96266";"Taluduyunu, Kec. Buntulia, Kabupaten Pohuwato";GORONTALO;96266;Indonesia;;;;0.503066;1.219.377.457;https://maps.google.com/?cid=0x0:0x26310b20d1a2bbb7;
perumahan;Pembangunan Perumahan;Hapidu;"GW2M+GV, Taluduyunu, Kec. Buntulia, Kabupaten Pohuwato, Gorontalo 96266";"Taluduyunu, Kec. Buntulia, Kabupaten Pohuwato";GORONTALO;96266;Indonesia;;;;0.5013568;1.219.347.433;https://maps.google.com/?cid=0x0:0xcbfe9a10e076d78f;
perumahan;Komplek perumahan;rumah kebun om ben;"FWGM+9J2, Buntulia Jaya, Kec. Duhiadaa, Kabupaten Pohuwato, Gorontalo 96466";"Buntulia Jaya, Kec. Duhiadaa, Kabupaten Pohuwato";GORONTALO;96466;Indonesia;;;;0.47588;1.219.340.068;https://maps.google.com/?cid=0x0:0xb6339366b0642125;
perumahan;Komplek perumahan;family hulinggi;"FWW6+6PQ, Duhiadaa, Kec. Duhiadaa, Kabupaten Pohuwato, Gorontalo";"Kabupaten Pohuwato, Gorontalo";GORONTALO;;Indonesia;;;;0.4955992;1.219.118.699;https://maps.google.com/?cid=0x0:0x3012f9ba060b2b05;
perumahan;Komplek perumahan;Rumah Keluarga NAYI;"FWXM+682, Buntulia Utara, Kec. Buntulia, Kabupaten Pohuwato, Gorontalo";"Kabupaten Pohuwato, Gorontalo";GORONTALO;;Indonesia;;;;0.4980174;1.219.332.783;https://maps.google.com/?cid=0x0:0xe68af2182b5227dc;
perumahan;Komplek perumahan;RUMAH DUA;"GW8X+GJ5, Jl. Gn. Pani, Taluduyunu Utara, Kec. Buntulia, Kabupaten Pohuwato, Gorontalo 96265";"Jl. Gn. Pani, Taluduyunu Utara, Kec. Buntulia, Kabupaten Pohuwato";GORONTALO;96265;Indonesia;;;;0.516219;1.219.491;https://maps.google.com/?cid=0x0:0xfa1acfeebe46f294;
perumahan;Komplek perumahan;Rumah Ayah Azril;"MV79+F6, Upt. Marisa VI, Kec. Taluditi, Kabupaten Pohuwato, Gorontalo";"Kabupaten Pohuwato, Gorontalo";GORONTALO;;Indonesia;;;;0.6634316;1.218.677.578;https://maps.google.com/?cid=0x0:0x4e1f38379be110ae;
perumahan;Komplek perumahan;Yayan Kobi;"Jl. Gn. Pani, Taluduyunu Utara, Kec. Buntulia, Kabupaten Pohuwato, Gorontalo";"Kabupaten Pohuwato, Gorontalo";GORONTALO;;Indonesia;081241365304;;;0.51191;121.946.501;https://maps.google.com/?cid=0x0:0x2d936a0b77196a15;
perumahan;Perumahan;Perumahan Marisa Indah Jl. Tulip raya;"FX62+MM6, Palopo, Kec. Marisa, Kabupaten Pohuwato, Gorontalo 96265";"Palopo, Kec. Marisa, Kabupaten Pohuwato";GORONTALO;96265;Indonesia;;;;0.4616608;1.219.516.255;https://maps.google.com/?cid=0x0:0x533dc5bb812affa0;
perumahan;Komplek perumahan;Lisa anggraini;"GW6X+92G, Taluduyunu Utara, Kec. Buntulia, Kabupaten Pohuwato, Gorontalo";"Kabupaten Pohuwato, Gorontalo";GORONTALO;;Indonesia;;;;0.5109413;1.219.475.659;https://maps.google.com/?cid=0x0:0x2776a9868eb232c7;
perumahan;perumahan;Rumah hj.yuna igirisa;"GV29+94P, Manawa, Kec. Patilanggio, Kabupaten Pohuwato, Gorontalo 96266";"Manawa, Kec. Patilanggio, Kabupaten Pohuwato";GORONTALO;96266;Indonesia;;;;0.5009521;1.218.678.303;https://maps.google.com/?cid=0x0:0x5f12fed883312a05;
perumahan;Komplek perumahan;Rumah Nurain;"FWQJ+MWH, Buntulia Tengah, Kec. Marisa, Kabupaten Pohuwato, Gorontalo 96466";"Buntulia Tengah, Kec. Marisa, Kabupaten Pohuwato";GORONTALO;96466;Indonesia;;;;0.4891803;1.219.323.639;https://maps.google.com/?cid=0x0:0x1dae0ca17167009c;
perumahan;Komplek perumahan;SintaGiasi;"GW9X+5G3, Karya Indah, Kec. Buntulia, Kabupaten Pohuwato, Gorontalo";"Kabupaten Pohuwato, Gorontalo";GORONTALO;;Indonesia;;;;0.5178936;1.219.487.941;https://maps.google.com/?cid=0x0:0x4949067503770dd5;
perumahan;Komplek perumahan;Rumah Komunitas;"Jl. Gn. Pani, Taluduyunu, Kec. Marisa, Kabupaten Pohuwato, Gorontalo 96266";"Taluduyunu, Kec. Marisa, Kabupaten Pohuwato";GORONTALO;96266;Indonesia;081241220069;;;0.5031484;1.219.375.404;https://maps.google.com/?cid=0x0:0x57c0128499771b32;
perumahan;Kantor Pemerintahan Wilayah;Rumah kepala desa tirto asri;"JRM8+9R3, Panca Karsa II, Kec. Taluditi, Kabupaten Pohuwato, Gorontalo";"Kabupaten Pohuwato, Gorontalo";GORONTALO;;Indonesia;;;;0.6333808;1.218.170.396;https://maps.google.com/?cid=0x0:0x4e23ac38970c781b;
perumahan;Perhimpunan Pengembang Perumahan;Umuri's Home;"FWQC+G9, Duhiadaa, Kec. Duhiadaa, Kabupaten Pohuwato, Gorontalo 96466";"Duhiadaa, Kec. Duhiadaa, Kabupaten Pohuwato";GORONTALO;96466;Indonesia;;;;0.4888283;1.219.208.967;https://maps.google.com/?cid=0x0:0xecb300e8e4fa1e46;
perumahan;Komplek perumahan;RUMAH MEMEY;"FWCJ+PP5, Jl. Trans-Sulawesi, Buntulia Sel., Kec. Duhiadaa, Kabupaten Pohuwato, Gorontalo 96266";"Jl. Trans-Sulawesi, Buntulia Sel., Kec. Duhiadaa, Kabupaten Pohuwato";GORONTALO;96266;Indonesia;;;;0.4717689;1.219.318.692;https://maps.google.com/?cid=0x0:0x316bb0f26ec0c503;
perumahan;perumahan;Gorontalo 96265;"Kabupaten Pohuwato, Gorontalo";"Kabupaten Pohuwato, Gorontalo";GORONTALO;;Indonesia;;;;0.6708114;1.220.382.856;https://maps.google.com/?cid=0x0:0xc7ddf273e46e561;
perumahan;Komplek perumahan;Imelda pratiwi;"G3CM+C9J, Unnamed Rd, Popaya, Kec. Dengilo, Kabupaten Pohuwato, Gorontalo 96265";"Unnamed Rd, Popaya, Kec. Dengilo, Kabupaten Pohuwato";GORONTALO;96265;Indonesia;;;;0.5210933;1.220.833.977;https://maps.google.com/?cid=0x0:0xb67a50d6f6a1f4a0;
perumahan;Komplek perumahan;PERUMAHAN KOMUNAL;"Unnamed Road, Popaya, Kec. Dengilo, Kabupaten Pohuwato, Gorontalo 96265";"Popaya, Kec. Dengilo, Kabupaten Pohuwato";GORONTALO;96265;Indonesia;081325482988;;;0.5448219;1.220.911.141;https://maps.google.com/?cid=0x0:0x1a9538c2e732ecb;
perumahan;Komplek perumahan;Onu abas;"G3RQ+GGV, Popaya, Kec. Dengilo, Kabupaten Pohuwato, Gorontalo 96265";"Popaya, Kec. Dengilo, Kabupaten Pohuwato";GORONTALO;96265;Indonesia;;;;0.542463;122.088.797;https://maps.google.com/?cid=0x0:0x180c9255b349d536;
perumahan;Perhimpunan Pengembang Perumahan;Opin jein;"G3RQ+7MW, Popaya, Kec. Dengilo, Kabupaten Pohuwato, Gorontalo 96265";"Popaya, Kec. Dengilo, Kabupaten Pohuwato";GORONTALO;96265;Indonesia;;;;0.5407481;122.089.201;https://maps.google.com/?cid=0x0:0xb8c8b05e08f2996;
perumahan;perumahan;Rumah Mma Eto;"G4G2+5X4, Huta Moputi, Kec. Dengilo, Kabupaten Pohuwato, Gorontalo";"Kabupaten Pohuwato, Gorontalo";GORONTALO;;Indonesia;;;;0.5253817;1.221.024.548;https://maps.google.com/?cid=0x0:0xf0402c2e63cb3fd5;
perumahan;Komplek perumahan;Yeko srni;"G3RQ+7MW, Popaya, Kec. Dengilo, Kabupaten Pohuwato, Gorontalo 96265";"Popaya, Kec. Dengilo, Kabupaten Pohuwato";GORONTALO;96265;Indonesia;;;;0.5409818;1.220.891.899;https://maps.google.com/?cid=0x0:0x7c848e04d25dd981;
perumahan;perumahan;BELE LI BIBI;"F3RC+7RM, Tabulo - Marisa, Siduan, Kec. Paguat, Kabupaten Pohuwato, Gorontalo 96265";"Tabulo - Marisa, Siduan, Kec. Paguat, Kabupaten Pohuwato";GORONTALO;96265;Indonesia;;;;0.4907124;1.220.720.556;https://maps.google.com/?cid=0x0:0xc76ead170ffc4deb;
perumahan;Komplek perumahan;Rumah sela abdullah;"G3HR+MPC, Huta Moputi, Kec. Dengilo, Kabupaten Pohuwato, Gorontalo";"Kabupaten Pohuwato, Gorontalo";GORONTALO;;Indonesia;;;;0.5291819;1.220.917.719;https://maps.google.com/?cid=0x0:0x5c995081179ff189;
perumahan;Komplek perumahan;Olando Gaming;"G3HR+JPR, Popaya, Kec. Dengilo, Kabupaten Pohuwato, Gorontalo 96265";"Popaya, Kec. Dengilo, Kabupaten Pohuwato";GORONTALO;96265;Indonesia;082293390067;;;0.52959;122.091.115;https://maps.google.com/?cid=0x0:0x1d5b2527da1511f1;
perumahan;perumahan;Rumah bu murti;"JVW5+9MJ, Kalimas, Kec. Taluditi, Kabupaten Pohuwato, Gorontalo 96266";"Kalimas, Kec. Taluditi, Kabupaten Pohuwato";GORONTALO;96266;Indonesia;;;;0.6462039;1.218.597.387;https://maps.google.com/?cid=0x0:0x7d3d12ebd0580a48;
perumahan;perumahan;Rumah jein;"G4H2+Q78, Huta Moputi, Kec. Dengilo, Kabupaten Pohuwato, Gorontalo";"Kabupaten Pohuwato, Gorontalo";GORONTALO;;Indonesia;;;;0.5294002;1.221.006.983;https://maps.google.com/?cid=0x0:0xf7cb3164cc724887;
perumahan;Perhimpunan Pengembang Perumahan;RUMAH JIYAN R. INGO;"J4C4+QHW, Karya Baru, Kec. Dengilo, Kabupaten Pohuwato, Gorontalo";"Kabupaten Pohuwato, Gorontalo";GORONTALO;;Indonesia;;;;0.6219847;1.221.064.668;https://maps.google.com/?cid=0x0:0xe758a1e0d55c6039;
perumahan;Komplek perumahan;Rumah kaludia kalesing;"G4Q5+RMQ, Karangetang, Kec. Dengilo, Kabupaten Pohuwato, Gorontalo";"Kabupaten Pohuwato, Gorontalo";GORONTALO;;Indonesia;;;;0.5395866;1.221.092.488;https://maps.google.com/?cid=0x0:0x1b3ed2eda34968db;
perumahan;Komplek perumahan;rumah ilam;"H4H2+52, Karya Baru, Kec. Dengilo, Kabupaten Pohuwato, Gorontalo";"Kabupaten Pohuwato, Gorontalo";GORONTALO;;Indonesia;;;;0.577945;1.221.000.893;https://maps.google.com/?cid=0x0:0x1309dbee45a2de47;
perumahan;Komplek perumahan;Rumah Yerit;"G4Q5+RMQ, Karangetang, Kec. Dengilo, Kabupaten Pohuwato, Gorontalo 96265";"Karangetang, Kec. Dengilo, Kabupaten Pohuwato";GORONTALO;96265;Indonesia;;;;0.5395865;1.221.092.488;https://maps.google.com/?cid=0x0:0x1ed6d46ac38ece73;
perumahan;Komplek perumahan;Tarnate Popaya;"G3WP+MXQ, Popaya, Kec. Dengilo, Kabupaten Pohuwato, Gorontalo 96265";"Popaya, Kec. Dengilo, Kabupaten Pohuwato";GORONTALO;96265;Indonesia;;;;0.5467151;1.220.874.985;https://maps.google.com/?cid=0x0:0x69f5ddc6f1d5e41d;
perumahan;Komplek perumahan;HOME EFER;"G4R7+WQF, Karangetang, Kec. Dengilo, Kabupaten Pohuwato, Gorontalo 96265";"Karangetang, Kec. Dengilo, Kabupaten Pohuwato";GORONTALO;96265;Indonesia;;;;0.5423122;1.221.144.116;https://maps.google.com/?cid=0x0:0xeaa881c1c55d3fb;
perumahan;Komplek perumahan;Nolyan;"G3VQ+MP, Popaya, Kec. Dengilo, Kabupaten Pohuwato, Gorontalo";"Kabupaten Pohuwato, Gorontalo";GORONTALO;;Indonesia;;;;0.5442207;1.220.893.032;https://maps.google.com/?cid=0x0:0x7fa173b2e1d46b15;
perumahan;Komplek perumahan;Rmh Ibu Indo Abas;"G3CM+9HC, Popaya, Kec. Dengilo, Kabupaten Pohuwato, Gorontalo 96265";"Popaya, Kec. Dengilo, Kabupaten Pohuwato";GORONTALO;96265;Indonesia;;;;0.5209452;1.220.838.999;https://maps.google.com/?cid=0x0:0x8f01005e7997cb32;
perumahan;Penginapan;Perum Marisa Indah;"FW7X+H69, Jl. Jend. Sudirman, Palopo, Kec. Marisa, Kabupaten Pohuwato, Gorontalo 96265";"Jl. Jend. Sudirman, Palopo, Kec. Marisa, Kabupaten Pohuwato";GORONTALO;96265;Indonesia;;;;0.4639199;1.219.481.071;https://maps.google.com/?cid=0x0:0x8bfef187c0a5d7a5;
perumahan;Kompleks Kondominium;Dusun Mekar Jaya;"GXF5+84X, Hulawa, Kec. Buntulia, Kabupaten Pohuwato, Gorontalo 96265";"Hulawa, Kec. Buntulia, Kabupaten Pohuwato";GORONTALO;96265;Indonesia;;;;0.5233527;121.957.869;https://maps.google.com/?cid=0x0:0xcc1c2ac51739b7a1;
perumahan;Komplek perumahan;NING RUMAH;"FW9R+XGQ, Marisa Utara, Kec. Marisa, Kabupaten Pohuwato, Gorontalo 96265";"Marisa Utara, Kec. Marisa, Kabupaten Pohuwato";GORONTALO;96265;Indonesia;;;;0.4699694;1.219.413.479;https://maps.google.com/?cid=0x0:0x91652a380a10f4f6;
perumahan;Perhimpunan Pengembang Perumahan;Rumah Argilan Husain;"G3FQ+WGP, Popaya, Kec. Dengilo, Kabupaten Pohuwato, Gorontalo 96265";"Popaya, Kec. Dengilo, Kabupaten Pohuwato";GORONTALO;96265;Indonesia;;;;0.525548;122.089.677;https://maps.google.com/?cid=0x0:0xa492c9a85e7813c4;
perumahan;perumahan;"Yeyen,Srni";"G3RQ+7MW, Popaya, Kec. Dengilo, Kabupaten Pohuwato, Gorontalo 96265";"Popaya, Kec. Dengilo, Kabupaten Pohuwato";GORONTALO;96265;Indonesia;;;;0.540986;122.089.182;https://maps.google.com/?cid=0x0:0xc30b2e6cbb1e598;
perumahan;perumahan;Kec. Duhiadaa;"Kabupaten Pohuwato, Gorontalo";"Kabupaten Pohuwato, Gorontalo";GORONTALO;;Indonesia;;;;0.4727472;1.219.315.071;https://maps.google.com/?cid=0x0:0x4f9e976d482b115f;
perumahan;Kantor Perusahaan;Perum Griya Syariah Permai;"FWCM+WGP, Buntulia Sel., Kec. Duhiadaa, Kabupaten Pohuwato, Gorontalo 96466";"Buntulia Sel., Kec. Duhiadaa, Kabupaten Pohuwato";GORONTALO;96466;Indonesia;04432216811;;;0.4723313;1.219.338.378;https://maps.google.com/?cid=0x0:0xa86e1ad88199633b;
perumahan;Perhimpunan Pengembang Perumahan;Umuri's Home;"FWQC+G9, Duhiadaa, Kec. Duhiadaa, Kabupaten Pohuwato, Gorontalo 96466";"Duhiadaa, Kec. Duhiadaa, Kabupaten Pohuwato";GORONTALO;96466;Indonesia;;;;0.4888283;1.219.208.967;https://maps.google.com/?cid=0x0:0xecb300e8e4fa1e46;
perumahan;Komplek perumahan;Rumah ul;"FWM6+WRJ, Duhiadaa, Kec. Duhiadaa, Kabupaten Pohuwato, Gorontalo";"Kabupaten Pohuwato, Gorontalo";GORONTALO;;Indonesia;;;;0.4848262;1.219.120.261;https://maps.google.com/?cid=0x0:0x82eb15aa198e3aaf;
perumahan;Komplek perumahan;Rumah sukri djakatara;"FV9M+HX7, Mootilango, Kec. Duhiadaa, Kabupaten Pohuwato, Gorontalo 96266";"Mootilango, Kec. Duhiadaa, Kabupaten Pohuwato";GORONTALO;96266;Indonesia;;;;0.4689045;1.218.849.142;https://maps.google.com/?cid=0x0:0xcc10ea2eac749bd4;
perumahan;Komplek perumahan;Rumah Anggi;"FWF8+RR8, Buntulia Bar., Kec. Duhiadaa, Kabupaten Pohuwato, Gorontalo";"Kabupaten Pohuwato, Gorontalo";GORONTALO;;Indonesia;;;;0.4745498;1.219.170.871;https://maps.google.com/?cid=0x0:0xe27060cbb8e87d96;
perumahan;Kantor Perusahaan;Yanti Dango;"FWH7+XRX, Buntulia Bar., Kec. Duhiadaa, Kabupaten Pohuwato, Gorontalo 96466";"Buntulia Bar., Kec. Duhiadaa, Kabupaten Pohuwato";GORONTALO;96466;Indonesia;;;;0.4799861;1.219.146.046;https://maps.google.com/?cid=0x0:0xb86338d349423b89;
perumahan;perumahan;Yulisna Karim;"FW8H+M9R, Bulili, Kec. Duhiadaa, Kabupaten Pohuwato, Gorontalo";"Kabupaten Pohuwato, Gorontalo";GORONTALO;;Indonesia;;;;0.466734;121.928.398;https://maps.google.com/?cid=0x0:0x9c3cb09bac4bacc6;
perumahan;Komplek perumahan;Rumah Viraa Samau;"FVFQ+228, Mootilango, Kec. Duhiadaa, Kabupaten Pohuwato, Gorontalo 96266";"Mootilango, Kec. Duhiadaa, Kabupaten Pohuwato";GORONTALO;96266;Indonesia;;;;0.4725324;1.218.875.679;https://maps.google.com/?cid=0x0:0x5afde19075dd85d2;
perumahan;Komplek perumahan;Iki Tantu;"FWQ7+6X, Duhiadaa, Kec. Duhiadaa, Kabupaten Pohuwato, Gorontalo";"Kabupaten Pohuwato, Gorontalo";GORONTALO;;Indonesia;087237965439;;;0.4880928;121.914.953;https://maps.google.com/?cid=0x0:0x6a2fbc1f4dc35056;
perumahan;Komplek perumahan;rumah Dila;"FVWQ+3X8, Mekar Jaya, Kec. Duhiadaa, Kabupaten Pohuwato, Gorontalo";"Kabupaten Pohuwato, Gorontalo";GORONTALO;;Indonesia;;;;0.495947;1.218.904.845;https://maps.google.com/?cid=0x0:0x41b79343ea44610;
perumahan;perumahan;Rumah;"FWFV+JCJ, Botubilotahu Indah, Kec. Marisa, Kabupaten Pohuwato, Gorontalo";"Kabupaten Pohuwato, Gorontalo";GORONTALO;;Indonesia;;;;0.4740804;1.219.435.121;https://maps.google.com/?cid=0x0:0x803234aaa0a48cb9;
perumahan;Komplek perumahan;rumah randi husa;"FVFQ+228, Mootilango, Kec. Duhiadaa, Kabupaten Pohuwato, Gorontalo";"Kabupaten Pohuwato, Gorontalo";GORONTALO;;Indonesia;;;;0.4725324;1.218.875.679;https://maps.google.com/?cid=0x0:0xacb5f7a1886e62af;
perumahan;Pembangunan Perumahan;Srilinda mobihu;"FV9P+R49, Mootilango, Kec. Duhiadaa, Kabupaten Pohuwato, Gorontalo 96266";"Mootilango, Kec. Duhiadaa, Kabupaten Pohuwato";GORONTALO;96266;Indonesia;;;;0.4695485;1.218.853.665;https://maps.google.com/?cid=0x0:0x3a2e94bb051a3d3d;
perumahan;Penginapan;Perum Marisa Indah;"FW7X+H69, Jl. Jend. Sudirman, Palopo, Kec. Marisa, Kabupaten Pohuwato, Gorontalo 96265";"Jl. Jend. Sudirman, Palopo, Kec. Marisa, Kabupaten Pohuwato";GORONTALO;96265;Indonesia;;;;0.4639199;1.219.481.071;https://maps.google.com/?cid=0x0:0x8bfef187c0a5d7a5;
perumahan;Komplek perumahan;HNQ² (Novita Mardain/Hamran Danial);"Marisa Sel., Kec. Marisa, Kabupaten Pohuwato, Gorontalo 96265";"Kec. Marisa, Kabupaten Pohuwato";GORONTALO;96265;Indonesia;;;;0.4597454;1.219.368.144;https://maps.google.com/?cid=0x0:0x43dde827ef2a28ff;
perumahan;Perumahan;Perumahan Marisa Indah Jl. Tulip raya;"FX62+MM6, Palopo, Kec. Marisa, Kabupaten Pohuwato, Gorontalo 96265";"Palopo, Kec. Marisa, Kabupaten Pohuwato";GORONTALO;96265;Indonesia;;;;0.4616608;1.219.516.255;https://maps.google.com/?cid=0x0:0x533dc5bb812affa0;
perumahan;perumahan;Anggrek Residence;"FW9Q+JX5, Jl. Umahani, Marisa Utara, Marisa, Pohuwato Regency, Gorontalo 96265";"Jl. Umahani, Marisa Utara, Marisa, Pohuwato Regency";GORONTALO;96265;Indonesia;08111806443;;;0.4690059;1.219.399.825;https://maps.google.com/?cid=0x0:0x494b12860caab278;
perumahan;Minimarket;Rumah ike;"FWFJ+HXJ, Buntulia Jaya, Kec. Duhiadaa, Kabupaten Pohuwato, Gorontalo 96466";"Buntulia Jaya, Kec. Duhiadaa, Kabupaten Pohuwato";GORONTALO;96466;Indonesia;;;;0.473954;1.219.324.001;https://maps.google.com/?cid=0x0:0xfaa12d31c65c49ce;
perumahan;Minimarket;Rumah Gita;"FWFJ+4HQ, Buntulia Jaya, Kec. Duhiadaa, Kabupaten Pohuwato, Gorontalo";"Kabupaten Pohuwato, Gorontalo";GORONTALO;;Indonesia;;;;0.4728269;1.219.314.792;https://maps.google.com/?cid=0x0:0x767585d4f95d4595;
perumahan;Komplek perumahan;Rahayu Sahari;"FVXV+P6C, Mekar Jaya, Kec. Duhiadaa, Kabupaten Pohuwato, Gorontalo 96266";"Mekar Jaya, Kec. Duhiadaa, Kabupaten Pohuwato";GORONTALO;96266;Indonesia;;;;0.4992993;1.218.929.862;https://maps.google.com/?cid=0x0:0xbe8b34f5fbe639a3;
perumahan;Komplek perumahan;Rumah RaniDaluta;"FVFQ+228, Mootilango, Kec. Duhiadaa, Kabupaten Pohuwato, Gorontalo 96266";"Mootilango, Kec. Duhiadaa, Kabupaten Pohuwato";GORONTALO;96266;Indonesia;;;;0.4725324;1.218.875.679;https://maps.google.com/?cid=0x0:0x3eec1cab7a5657e4;
perumahan;Komplek perumahan;Ayah ato;"FWH7+RJ8, Unnamed Road, Buntulia Bar., Kec. Duhiadaa, Kabupaten Pohuwato, Gorontalo 96466";"Unnamed Road, Buntulia Bar., Kec. Duhiadaa, Kabupaten Pohuwato";GORONTALO;96466;Indonesia;;;;0.4795459;1.219.140.698;https://maps.google.com/?cid=0x0:0x2449eee28ed07cfb;
perumahan;Restoran;Rumah kangmus;"FW9H+6HF, Buntulia Sel., Kec. Duhiadaa, Kabupaten Pohuwato, Gorontalo 96266";"Buntulia Sel., Kec. Duhiadaa, Kabupaten Pohuwato";GORONTALO;96266;Indonesia;082293109753;;;0.468061;1.219.289.238;https://maps.google.com/?cid=0x0:0xc0495da47a0af286;
perumahan;Komplek perumahan;rumah kebun om ben;"FWGM+9J2, Buntulia Jaya, Kec. Duhiadaa, Kabupaten Pohuwato, Gorontalo 96466";"Buntulia Jaya, Kec. Duhiadaa, Kabupaten Pohuwato";GORONTALO;96466;Indonesia;;;;0.47588;1.219.340.068;https://maps.google.com/?cid=0x0:0xb6339366b0642125;
perumahan;Komplek perumahan;rumah andy;"FW7H+JPJ, Bulili, Kec. Duhiadaa, Kabupaten Pohuwato, Gorontalo";"Kabupaten Pohuwato, Gorontalo";GORONTALO;;Indonesia;;;;0.4640882;1.219.292.521;https://maps.google.com/?cid=0x0:0x1eef00e86fd2e378;
perumahan;Developer Rumah Hunian Khusus;Perum Graha Delima Ertiga;"FWCM+XCR, Buntulia Jaya, Kec. Duhiadaa, Kabupaten Pohuwato, Gorontalo 96466";"Buntulia Jaya, Kec. Duhiadaa, Kabupaten Pohuwato";GORONTALO;96466;Indonesia;;;;0.4724859;1.219.335.244;https://maps.google.com/?cid=0x0:0xc0f7de0416fbf79d;
perumahan;perumahan;Gorontalo 96468;"Kec. Lemito, Kabupaten Pohuwato, Gorontalo";"Kabupaten Pohuwato, Gorontalo";GORONTALO;;Indonesia;;;;0.7390376;1.215.826.642;https://maps.google.com/?cid=0x0:0xbcbfbe464a8e6a55;
perumahan;perumahan;Pertigaan Kantor Desa Lama Lemito;"GHWF+33X, Dusun Mutiara, Lemito, Kec. Lemito, Kabupaten Pohuwato, Gorontalo 96468";"Dusun Mutiara, Lemito, Kec. Lemito, Kabupaten Pohuwato";GORONTALO;96468;Indonesia;;;;0.5452447;1.215.727.307;https://maps.google.com/?cid=0x0:0xcd911273d130d540;
perumahan;Komplek perumahan;jihan bumulo;"GHWF+589, Lemito Utara, Kec. Lemito, Kabupaten Pohuwato, Gorontalo 96468";"Lemito Utara, Kec. Lemito, Kabupaten Pohuwato";GORONTALO;96468;Indonesia;;;;0.5454009;1.215.731.792;https://maps.google.com/?cid=0x0:0x2ae60f2b44d77922;
perumahan;Komplek perumahan;Rumah Le Darminto;"HJ63+C97, Jl. Trans-Sulawesi, Dusun Hulota, Wonggarasi Tengah, Kec. Lemito, Kabupaten Pohuwato, Gorontalo";"Kabupaten Pohuwato, Gorontalo";GORONTALO;;Indonesia;;;;0.5610286;1.216.034.204;https://maps.google.com/?cid=0x0:0xa6496d264ec37e0;
perumahan;Komplek perumahan;Home Luna;"HH27+FH, Kenari, Kec. Lemito, Kabupaten Pohuwato, Gorontalo";"Kabupaten Pohuwato, Gorontalo";GORONTALO;;Indonesia;;;;0.5511912;1.215.650.715;https://maps.google.com/?cid=0x0:0xb7a92fb36369b323;
perumahan;Perhimpunan Pengembang Perumahan;Nando Saleh;"GHQC+J27, Lemito, Kec. Lemito, Kabupaten Pohuwato, Gorontalo 96468";"Lemito, Kec. Lemito, Kabupaten Pohuwato";GORONTALO;96468;Indonesia;082293389986;;;0.5397095;1.215.697.346;https://maps.google.com/?cid=0x0:0xd4bb2ba7977c4904;
perumahan;Komplek perumahan;Rumah Ikha Komendangi;"HH2C+44H, Lemito Utara, Kec. Lemito, Kabupaten Pohuwato, Gorontalo 96468";"Lemito Utara, Kec. Lemito, Kabupaten Pohuwato";GORONTALO;96468;Indonesia;;;;0.5508869;1.215.700.849;https://maps.google.com/?cid=0x0:0x277a33f13dc7c723;
perumahan;Komplek perumahan;Rumah Li Dita;"GHRC+QP4, Lemito, Kec. Lemito, Kabupaten Pohuwato, Gorontalo";"Kabupaten Pohuwato, Gorontalo";GORONTALO;;Indonesia;;;;0.541883;1.215.718.156;https://maps.google.com/?cid=0x0:0xa7c6837bea48e145;
perumahan;Komplek perumahan;Rumah Jois Podungge;"HJ54+8Q4, Wonggarasi Tengah, Kec. Lemito, Kabupaten Pohuwato, Gorontalo 96468";"Wonggarasi Tengah, Kec. Lemito, Kabupaten Pohuwato";GORONTALO;96468;Indonesia;;;;0.5588337;1.216.072.813;https://maps.google.com/?cid=0x0:0x855ede1cffa18c3e;
perumahan;Komplek perumahan;Nisda lasalutu;"HH2G+9J, Lemito Utara, Kec. Lemito, Kabupaten Pohuwato, Gorontalo";"Kabupaten Pohuwato, Gorontalo";GORONTALO;;Indonesia;;;;0.5509868;1.215.765.656;https://maps.google.com/?cid=0x0:0x1b784237b25e8978;
perumahan;Gedung Apartemen;KUBURAN UMUM;"GHWC+WQQ, Lemito Utara, Kec. Lemito, Kabupaten Pohuwato, Gorontalo 96468";"Lemito Utara, Kec. Lemito, Kabupaten Pohuwato";GORONTALO;96468;Indonesia;;;;0.5473981;1.215.719.789;https://maps.google.com/?cid=0x0:0x96af47fc1721108;
perumahan;Gedung Apartemen;aspol lemito;"GHWF+589, Lemito Utara, Kec. Lemito, Kabupaten Pohuwato, Gorontalo 96468";"Lemito Utara, Kec. Lemito, Kabupaten Pohuwato";GORONTALO;96468;Indonesia;;;;0.545602;1.215.733.816;https://maps.google.com/?cid=0x0:0xecf1e1b40b20c4d2;
perumahan;Komplek perumahan;Rumah Noldi Fatra;"GHXF+52P, Jl. Trans-Sulawesi, Lemito Utara, Kec. Lemito, Kabupaten Pohuwato, Gorontalo 96468";"Jl. Trans-Sulawesi, Lemito Utara, Kec. Lemito, Kabupaten Pohuwato";GORONTALO;96468;Indonesia;;;;0.5480496;1.215.725.991;https://maps.google.com/?cid=0x0:0x3346cd57cbc571e5;
perumahan;Perhimpunan Pengembang Perumahan;Lemito utara;"MH7G+3XW, Lemito Utara, Kec. Lemito, Kabupaten Pohuwato, Gorontalo";"Kabupaten Pohuwato, Gorontalo";GORONTALO;;Indonesia;;;;0.662739;121.577.459;https://maps.google.com/?cid=0x0:0xd51fd7d1b55fa9b9;
perumahan;Pembangunan Perumahan;Rumah Joni;"HH78+326, Kenari, Kec. Lemito, Kabupaten Pohuwato, Gorontalo 96468";"Kenari, Kec. Lemito, Kabupaten Pohuwato";GORONTALO;96468;Indonesia;;;;0.5624212;1.215.652.901;https://maps.google.com/?cid=0x0:0x4229bce472646937;
perumahan;Komplek perumahan;Rumah Nola Pkya;"HH2C+HPH, Jl. Trans-Sulawesi, Lemito Utara, Kec. Lemito, Kabupaten Pohuwato, Gorontalo 96468";"Jl. Trans-Sulawesi, Lemito Utara, Kec. Lemito, Kabupaten Pohuwato";GORONTALO;96468;Indonesia;;;;0.5514999;1.215.718.149;https://maps.google.com/?cid=0x0:0x417765a4f69f5608;
perumahan;Komplek perumahan;RUMAH MEY GUAMO;"GHWF+V25, Jl. Trans-Sulawesi, Lemito Utara, Kec. Lemito, Kabupaten Pohuwato, Gorontalo 96468";"Jl. Trans-Sulawesi, Lemito Utara, Kec. Lemito, Kabupaten Pohuwato";GORONTALO;96468;Indonesia;;;;0.5470319;1.215.727.014;https://maps.google.com/?cid=0x0:0x8b6903bebc1db5a8;
perumahan;Pembangunan Perumahan;home Caesar;"GHRC+HH, Lemito, Kec. Lemito, Kabupaten Pohuwato, Gorontalo 96468";"Lemito, Kec. Lemito, Kabupaten Pohuwato";GORONTALO;96468;Indonesia;;;;0.5414733;1.215.714.481;https://maps.google.com/?cid=0x0:0x2183a01871315705;
perumahan;Komplek perumahan;Bele Le Oka;"HJ2Q+C5, Suka Damai, Kec. Lemito, Kabupaten Pohuwato, Gorontalo";"Kabupaten Pohuwato, Gorontalo";GORONTALO;;Indonesia;;;;0.5510031;1.216.379.573;https://maps.google.com/?cid=0x0:0x96b0650a2820ec96;
perumahan;Komplek perumahan;House Andika;"HH3C+QJH, Jl. Trans-Sulawesi, Lemito Utara, Kec. Lemito, Kabupaten Pohuwato, Gorontalo 96468";"Jl. Trans-Sulawesi, Lemito Utara, Kec. Lemito, Kabupaten Pohuwato";GORONTALO;96468;Indonesia;;;;0.5540094;1.215.715.015;https://maps.google.com/?cid=0x0:0x8f7cfd5ffbee31cb;
perumahan;Perumahan;Rumah Le Mamat;"GHPF+VCP, Lemito, Kec. Lemito, Kabupaten Pohuwato, Gorontalo";"Kabupaten Pohuwato, Gorontalo";GORONTALO;;Indonesia;;;;0.5372134;1.215.735.916;https://maps.google.com/?cid=0x0:0xd04ae92f284ed9a2;
perumahan;perumahan;Marisa;"Bulili, Kec. Duhiadaa, Kabupaten Pohuwato, Gorontalo";"Kabupaten Pohuwato, Gorontalo";GORONTALO;;Indonesia;;;;0.466734;121.928.398;https://maps.google.com/?cid=0x0:0xf3c036bc8511116e;
perumahan;Penginapan;Blok Melati No.6 Perum Griya Marisa;"FX72+QGW, Palopo, Kec. Marisa, Kabupaten Pohuwato, Gorontalo 96265";"Palopo, Kec. Marisa, Kabupaten Pohuwato";GORONTALO;96265;Indonesia;081227000347;;;0.464494;121.951.325;https://maps.google.com/?cid=0x0:0xdd49e2c8a9cf6cd;
perumahan;Penginapan;Perum Marisa Indah;"FW7X+H69, Jl. Jend. Sudirman, Palopo, Kec. Marisa, Kabupaten Pohuwato, Gorontalo 96265";"Jl. Jend. Sudirman, Palopo, Kec. Marisa, Kabupaten Pohuwato";GORONTALO;96265;Indonesia;;;;0.4639199;1.219.481.071;https://maps.google.com/?cid=0x0:0x8bfef187c0a5d7a5;
perumahan;Kantor Perusahaan;Harmonis Residence Pohuwato 0001;"Bongo, Jln, Botubilotahu Indah, Kec. Marisa, Gorontalo";"Kabupaten Pohuwato, Gorontalo";GORONTALO;;Indonesia;082347204747;;;0.4806282;1.219.448.679;https://maps.google.com/?cid=0x0:0x59729f04eb900ba7;
perumahan;Komplek perumahan;Griya Marisa Asri Pohuwato;"FW4R+HG6, Jl. Diponegoro, Marisa Sel., Kec. Marisa, Kabupaten Pohuwato, Gorontalo 96265";"Jl. Diponegoro, Marisa Sel., Kec. Marisa, Kabupaten Pohuwato";GORONTALO;96265;Indonesia;;;;0.4564079;1.219.412.808;https://maps.google.com/?cid=0x0:0x22844b2f1ad3ca15;
perumahan;Pembangunan Perumahan;Marisa 6;"JRM8+9R3, Panca Karsa II, Kec. Taluditi, Kabupaten Pohuwato, Gorontalo";"Kabupaten Pohuwato, Gorontalo";GORONTALO;;Indonesia;;;;0.6333808;1.218.170.396;https://maps.google.com/?cid=0x0:0x89802ca8dbddd852;
perumahan;Restoran;Rumah kangmus;"FW9H+6HF, Buntulia Sel., Kec. Duhiadaa, Kabupaten Pohuwato, Gorontalo 96266";"Buntulia Sel., Kec. Duhiadaa, Kabupaten Pohuwato";GORONTALO;96266;Indonesia;082293109753;;;0.468061;1.219.289.238;https://maps.google.com/?cid=0x0:0xc0495da47a0af286;
perumahan;perumahan;Yulisna Karim;"FW8H+M9R, Bulili, Kec. Duhiadaa, Kabupaten Pohuwato, Gorontalo";"Kabupaten Pohuwato, Gorontalo";GORONTALO;;Indonesia;;;;0.466734;121.928.398;https://maps.google.com/?cid=0x0:0x9c3cb09bac4bacc6;
perumahan;perumahan;Kec. Marisa;"Kabupaten Pohuwato, Gorontalo";"Kabupaten Pohuwato, Gorontalo";GORONTALO;;Indonesia;;;;0.4701607;121.958.687;https://maps.google.com/?cid=0x0:0xf18aaba667559ff0;
perumahan;Perumahan;Perum Griya Marisa;"Perum Griya Marisa Blok.c no 11, Palopo, Kec. Marisa, Kabupaten Pohuwato, Gorontalo 96265";"Palopo, Kec. Marisa, Kabupaten Pohuwato";GORONTALO;96265;Indonesia;082346921226;;;0.466418;121.963;https://maps.google.com/?cid=0x0:0x7e0278dfeb68b43d;
perumahan;Komplek perumahan;achil_ollshop marisa;"FWFV+HW, Teratai, Kec. Marisa, Kabupaten Pohuwato, Gorontalo 96265";"Teratai, Kec. Marisa, Kabupaten Pohuwato";GORONTALO;96265;Indonesia;;;;0.4738766;121.944.762;https://maps.google.com/?cid=0x0:0x5be7ed2c38c186b2;
perumahan;Perumahan;Perum griya marisa indah;"Perumahan Marisa Indah Jl. Mangga No.06, Palopo, Kec. Marisa, Kabupaten Pohuwato, Gorontalo 96266";"Palopo, Kec. Marisa, Kabupaten Pohuwato";GORONTALO;96266;Indonesia;;;;0.46268;121.950.575;https://maps.google.com/?cid=0x0:0xe6cc6a55bfd4e85f;
perumahan;Komplek perumahan;Mes CTI marisa;"FW8X+XJ4, Palopo, Kec. Marisa, Kabupaten Pohuwato, Gorontalo 96265";"Palopo, Kec. Marisa, Kabupaten Pohuwato";GORONTALO;96265;Indonesia;;;;0.4673858;1.219.490.713;https://maps.google.com/?cid=0x0:0x816d74c71499299;
perumahan;Perumahan;Perumahan Marisa Indah Jl. Durian No.15;"FX76+MJ2, Palopo, Kec. Marisa, Kabupaten Pohuwato, Gorontalo";"Kabupaten Pohuwato, Gorontalo";GORONTALO;;Indonesia;;;;0.4641278;1.219.615.308;https://maps.google.com/?cid=0x0:0x74f38f1a218176bf;
perumahan;Komplek perumahan;Perumahan humairah citra mandiri;"FWCR+JXG, Jl. Sumur Bor, Marisa Utara, Kec. Marisa, Kabupaten Pohuwato, Gorontalo 96265";"Jl. Sumur Bor, Marisa Utara, Kec. Marisa, Kabupaten Pohuwato";GORONTALO;96265;Indonesia;;;;0.4715736;1.219.424.588;https://maps.google.com/?cid=0x0:0xffc899d27768f5fd;
perumahan;perumahan;Anggrek Residence;"FW9Q+JX5, Jl. Umahani, Marisa Utara, Marisa, Pohuwato Regency, Gorontalo 96265";"Jl. Umahani, Marisa Utara, Marisa, Pohuwato Regency";GORONTALO;96265;Indonesia;08111806443;;;0.4690059;1.219.399.825;https://maps.google.com/?cid=0x0:0x494b12860caab278;
perumahan;Komplek perumahan;ErseDP;"FX72+FHH Jl. Bonsai perumahan marisa indah, Palopo, Kec. Marisa, Kabupaten Pohuwato, Gorontalo 96254";"Palopo, Kec. Marisa, Kabupaten Pohuwato";GORONTALO;96254;Indonesia;;;;0.463773;1.219.515.711;https://maps.google.com/?cid=0x0:0xcddcc9c981cfba09;
perumahan;Perumahan;Cenank Pe Perum;"Jln. Nenas Perum Griya Marisa Indah No.4, Palopo, Kec. Marisa, Kabupaten Pohuwato, Gorontalo 96265";"Palopo, Kec. Marisa, Kabupaten Pohuwato";GORONTALO;96265;Indonesia;;;;0.4618919;1.219.503.425;https://maps.google.com/?cid=0x0:0x83dd062dd6d4cc1d;
perumahan;Pembangunan Perumahan;Gedung Putih Marisa;"FWCV+4HX, Unnamed Road, Teratai, Marisa, Pohuwato Regency, Gorontalo 96265";"Unnamed Road, Teratai, Marisa, Pohuwato Regency";GORONTALO;96265;Indonesia;;;;0.47036;1.219.439.926;https://maps.google.com/?cid=0x0:0x19a4782c517c5982;
perumahan;Pembangunan Perumahan;Rumah Mointi 3;"FW9Q+9V2, Marisa Utara, Kec. Marisa, Kabupaten Pohuwato, Gorontalo 96265";"Marisa Utara, Kec. Marisa, Kabupaten Pohuwato";GORONTALO;96265;Indonesia;;;;0.4686454;1.219.400.112;https://maps.google.com/?cid=0x0:0xcf4280ac984b4bf2;
perumahan;Komplek perumahan;Perumahan;"FXC5+3F7, Palopo, Kec. Marisa, Kabupaten Pohuwato, Gorontalo";"Kabupaten Pohuwato, Gorontalo";GORONTALO;;Indonesia;;;;0.4701607;121.958.687;https://maps.google.com/?cid=0x0:0x196ab8a2de20e04e;
perumahan;Komplek perumahan;NING RUMAH;"FW9R+XGQ, Marisa Utara, Kec. Marisa, Kabupaten Pohuwato, Gorontalo 96265";"Marisa Utara, Kec. Marisa, Kabupaten Pohuwato";GORONTALO;96265;Indonesia;;;;0.4699694;1.219.413.479;https://maps.google.com/?cid=0x0:0x91652a380a10f4f6;
perumahan;Perumahan;Perumahan Griya Marisa Asri;"Perum Griya Marisa Asri, Jl. P. Diponegoro Blok plan No. 14, Blok B2, Marisa Sel.";"Kabupaten Pohuwato, Gorontalo";GORONTALO;;Indonesia;;;;0.4602586;1.219.330.894;https://maps.google.com/?cid=0x0:0x31cddcc114609842;
perumahan;Komplek perumahan;OCA MISTIS;"Jln. Nenas Perum Griya Marisa Indah No.4, Palopo, Kec. Marisa, Kabupaten Pohuwato, Gorontalo 96265";"Palopo, Kec. Marisa, Kabupaten Pohuwato";GORONTALO;96265;Indonesia;;;;0.4620317;1.219.504.033;https://maps.google.com/?cid=0x0:0xe526b87654b1583f;
perumahan;Pembangunan Perumahan;Perumahan komonal perdesa;"FW2M+7GV, Pohuwato, Kec. Marisa, Kabupaten Pohuwato, Gorontalo";"Kabupaten Pohuwato, Gorontalo";GORONTALO;;Indonesia;;;;0.4507264;1.219.338.006;https://maps.google.com/?cid=0x0:0xd26f66de5d38f0b;
perumahan;perumahan;Gorontalo 96466;"Kabupaten Pohuwato, Gorontalo";"Kabupaten Pohuwato, Gorontalo";GORONTALO;;Indonesia;;;;0.5225929;121.918.866;https://maps.google.com/?cid=0x0:0x51b8962633bca4f;
perumahan;Penginapan;Blok Melati No.6 Perum Griya Marisa;"FX72+QGW, Palopo, Kec. Marisa, Kabupaten Pohuwato, Gorontalo 96265";"Palopo, Kec. Marisa, Kabupaten Pohuwato";GORONTALO;96265;Indonesia;081227000347;;;0.464494;121.951.325;https://maps.google.com/?cid=0x0:0xdd49e2c8a9cf6cd;
perumahan;Penginapan;Perum Marisa Indah;"FW7X+H69, Jl. Jend. Sudirman, Palopo, Kec. Marisa, Kabupaten Pohuwato, Gorontalo 96265";"Jl. Jend. Sudirman, Palopo, Kec. Marisa, Kabupaten Pohuwato";GORONTALO;96265;Indonesia;;;;0.4639199;1.219.481.071;https://maps.google.com/?cid=0x0:0x8bfef187c0a5d7a5;
perumahan;Perumahan;Perumahan Marisa Indah Jl. Tulip raya;"FX62+MM6, Palopo, Kec. Marisa, Kabupaten Pohuwato, Gorontalo 96265";"Palopo, Kec. Marisa, Kabupaten Pohuwato";GORONTALO;96265;Indonesia;;;;0.4616608;1.219.516.255;https://maps.google.com/?cid=0x0:0x533dc5bb812affa0;
perumahan;Kantor Perusahaan;Harmonis Residence Pohuwato 0001;"Bongo, Jln, Botubilotahu Indah, Kec. Marisa, Gorontalo";"Kabupaten Pohuwato, Gorontalo";GORONTALO;;Indonesia;082347204747;;;0.4806282;1.219.448.679;https://maps.google.com/?cid=0x0:0x59729f04eb900ba7;
perumahan;Komplek perumahan;Griya Marisa Asri Pohuwato;"FW4R+HG6, Jl. Diponegoro, Marisa Sel., Kec. Marisa, Kabupaten Pohuwato, Gorontalo 96265";"Jl. Diponegoro, Marisa Sel., Kec. Marisa, Kabupaten Pohuwato";GORONTALO;96265;Indonesia;;;;0.4564079;1.219.412.808;https://maps.google.com/?cid=0x0:0x22844b2f1ad3ca15;
perumahan;Komplek perumahan;NING RUMAH;"FW9R+XGQ, Marisa Utara, Kec. Marisa, Kabupaten Pohuwato, Gorontalo 96265";"Marisa Utara, Kec. Marisa, Kabupaten Pohuwato";GORONTALO;96265;Indonesia;;;;0.4699694;1.219.413.479;https://maps.google.com/?cid=0x0:0x91652a380a10f4f6;
perumahan;Otoritas Perumahan;MD;"Perum An Nur Blok D No. 23, Marisa Utara, Kec. Marisa, Kabupaten Pohuwato, Gorontalo 96466";"Marisa Utara, Kec. Marisa, Kabupaten Pohuwato";GORONTALO;96466;Indonesia;081241076287;;;0.4735497;1.219.343.711;https://maps.google.com/?cid=0x0:0x99f2fe5b3aa9e7b1;
perumahan;Komplek perumahan;RIVAN CECE Residence;"FWFM+QW5, Marisa Utara, Kec. Marisa, Kabupaten Pohuwato, Gorontalo 96466";"Marisa Utara, Kec. Marisa, Kabupaten Pohuwato";GORONTALO;96466;Indonesia;;;;0.4743804;1.219.348.566;https://maps.google.com/?cid=0x0:0xcc22500e377ae5b3;
perumahan;perumahan;Anggrek Residence;"FW9Q+JX5, Jl. Umahani, Marisa Utara, Marisa, Pohuwato Regency, Gorontalo 96265";"Jl. Umahani, Marisa Utara, Marisa, Pohuwato Regency";GORONTALO;96265;Indonesia;08111806443;;;0.4690059;1.219.399.825;https://maps.google.com/?cid=0x0:0x494b12860caab278;
perumahan;Pembangunan Perumahan;Rumah Mointi 3;"FW9Q+9V2, Marisa Utara, Kec. Marisa, Kabupaten Pohuwato, Gorontalo 96265";"Marisa Utara, Kec. Marisa, Kabupaten Pohuwato";GORONTALO;96265;Indonesia;;;;0.4686454;1.219.400.112;https://maps.google.com/?cid=0x0:0xcf4280ac984b4bf2;
perumahan;Pembangunan Perumahan;Rumah aba Naros;"FWFQ+6CC, jl Pasar Marisa/huludebunggu, Marisa Utara, Kec. Marisa, Kabupaten Pohuwato, Gorontalo 96265";"jl Pasar Marisa/huludebunggu, Marisa Utara, Kec. Marisa, Kabupaten Pohuwato";GORONTALO;96265;Indonesia;;;;0.4730303;1.219.382.047;https://maps.google.com/?cid=0x0:0xa7a8bdd72f677a59;
perumahan;Komplek perumahan;Perumahan humairah citra mandiri;"FWCR+JXG, Jl. Sumur Bor, Marisa Utara, Kec. Marisa, Kabupaten Pohuwato, Gorontalo 96265";"Jl. Sumur Bor, Marisa Utara, Kec. Marisa, Kabupaten Pohuwato";GORONTALO;96265;Indonesia;;;;0.4715736;1.219.424.588;https://maps.google.com/?cid=0x0:0xffc899d27768f5fd;
perumahan;Kantor Perusahaan;Perum Griya Syariah Permai;"FWCM+WGP, Buntulia Sel., Kec. Duhiadaa, Kabupaten Pohuwato, Gorontalo 96466";"Buntulia Sel., Kec. Duhiadaa, Kabupaten Pohuwato";GORONTALO;96466;Indonesia;04432216811;;;0.4723313;1.219.338.378;https://maps.google.com/?cid=0x0:0xa86e1ad88199633b;
perumahan;Komplek perumahan;Rumah om kibar;"FWMQ+3F, Botubilotahu Indah, Kec. Marisa, Kabupaten Pohuwato, Gorontalo";"Kabupaten Pohuwato, Gorontalo";GORONTALO;;Indonesia;;;;0.482736;121.938.718;https://maps.google.com/?cid=0x0:0xf0fff606bb8d7355;
perumahan;Komplek perumahan;Kel.DeaIki;"FWCR+59F, Marisa Utara, Kec. Marisa, Kabupaten Pohuwato, Gorontalo 96265";"Marisa Utara, Kec. Marisa, Kabupaten Pohuwato";GORONTALO;96265;Indonesia;;;;0.4707878;1.219.414.539;https://maps.google.com/?cid=0x0:0x1c96a7d6623443f9;
perumahan;Inspektur Tempat Tinggal;Botubilotahu indah;"FWQQ+8GJ, Botubilotahu Indah, Kec. Marisa, Kabupaten Pohuwato, Gorontalo";"Kabupaten Pohuwato, Gorontalo";GORONTALO;;Indonesia;;;;0.4883286;1.219.387.783;https://maps.google.com/?cid=0x0:0x6499dfd5b65ada08;
perumahan;Komplek perumahan;Rumah Komunitas;"Jl. Gn. Pani, Taluduyunu, Kec. Marisa, Kabupaten Pohuwato, Gorontalo 96266";"Taluduyunu, Kec. Marisa, Kabupaten Pohuwato";GORONTALO;96266;Indonesia;081241220069;;;0.5031484;1.219.375.404;https://maps.google.com/?cid=0x0:0x57c0128499771b32;
perumahan;Komplek perumahan;Rumah 2;"FW9Q+W76, Marisa Utara, Kec. Marisa, Kabupaten Pohuwato, Gorontalo 96265";"Marisa Utara, Kec. Marisa, Kabupaten Pohuwato";GORONTALO;96265;Indonesia;;;;0.4697702;12.193.811;https://maps.google.com/?cid=0x0:0x83bf3ed0e5e742ad;
perumahan;Pembangunan Perumahan;Bakia;"FW4P+8P3, Marisa Sel., Kec. Marisa, Kabupaten Pohuwato, Gorontalo";"Kabupaten Pohuwato, Gorontalo";GORONTALO;;Indonesia;;;;0.4557545;1.219.367.942;https://maps.google.com/?cid=0x0:0x8daa0589a3c6571c;
perumahan;perumahan;Rumah;"FWFV+JCJ, Botubilotahu Indah, Kec. Marisa, Kabupaten Pohuwato, Gorontalo";"Kabupaten Pohuwato, Gorontalo";GORONTALO;;Indonesia;;;;0.4740804;1.219.435.121;https://maps.google.com/?cid=0x0:0x803234aaa0a48cb9;
perumahan;Komplek perumahan;Rumah Muntihana Latif;"FWCM+RPJ, Jl. Trans-Sulawesi, Buntulia Sel., Kec. Marisa, Kabupaten Pohuwato, Gorontalo";"Kabupaten Pohuwato, Gorontalo";GORONTALO;;Indonesia;;;;0.4721597;1.219.341.549;https://maps.google.com/?cid=0x0:0xca5b0128db2faeeb;
perumahan;Perhimpunan Pengembang Perumahan;Umuri's Home;"FWQC+G9, Duhiadaa, Kec. Duhiadaa, Kabupaten Pohuwato, Gorontalo 96466";"Duhiadaa, Kec. Duhiadaa, Kabupaten Pohuwato";GORONTALO;96466;Indonesia;;;;0.4888283;1.219.208.967;https://maps.google.com/?cid=0x0:0xecb300e8e4fa1e46;
perumahan;Perumahan;Perum griya marisa indah;"Perumahan Marisa Indah Jl. Mangga No.06, Palopo, Kec. Marisa, Kabupaten Pohuwato, Gorontalo 96266";"Palopo, Kec. Marisa, Kabupaten Pohuwato";GORONTALO;96266;Indonesia;;;;0.46268;121.950.575;https://maps.google.com/?cid=0x0:0xe6cc6a55bfd4e85f;
perumahan;Perumahan;Perum Griya Marisa;"Perum Griya Marisa Blok.c no 11, Palopo, Kec. Marisa, Kabupaten Pohuwato, Gorontalo 96265";"Palopo, Kec. Marisa, Kabupaten Pohuwato";GORONTALO;96265;Indonesia;082346921226;;;0.466418;121.963;https://maps.google.com/?cid=0x0:0x7e0278dfeb68b43d;
perumahan;Perumahan;Perumahan Marisa Indah Jl. Durian No.15;"FX76+MJ2, Palopo, Kec. Marisa, Kabupaten Pohuwato, Gorontalo";"Kabupaten Pohuwato, Gorontalo";GORONTALO;;Indonesia;;;;0.4641278;1.219.615.308;https://maps.google.com/?cid=0x0:0x74f38f1a218176bf;
perumahan;Pembangunan Perumahan;PERUMAHAN GRIYA ANNUR PERMAI MARISA;"FW9Q+WF3, Marisa Utara, Kec. Marisa, Kabupaten Pohuwato, Gorontalo 96265";"Marisa Utara, Kec. Marisa, Kabupaten Pohuwato";GORONTALO;96265;Indonesia;;;;0.4697644;1.219.386.627;https://maps.google.com/?cid=0x0:0xc3ab15f45f06e40f;
perumahan;Komplek perumahan;Marisa 4;"G9H6+6PC, Mohungo, Kec. Tilamuta, Kabupaten Boalemo, Gorontalo 96263";"Mohungo, Kec. Tilamuta, Kabupaten Boalemo";GORONTALO;96263;Indonesia;;;;0.5280645;1.223.617.618;https://maps.google.com/?cid=0x0:0x79950f5372f0c8d4;
perumahan;Pembangunan Perumahan;PERUMAHAN MARISA LAND 1;"J9J8+X56, Sukomulyo, Kec. Martapura, Kabupaten Ogan Komering Ulu Timur, Sumatera Selatan 32381";"Sukomulyo, Kec. Martapura, Kabupaten Ogan Komering Ulu Timur";GORONTALO;32381;Indonesia;082352645583;;;-4.367.598;1.043.653.936;https://maps.google.com/?cid=0x0:0xcf859ecf9b5f9b96;
perumahan;perumahan;Kec. Paguat;"Kabupaten Pohuwato, Gorontalo";"Kabupaten Pohuwato, Gorontalo";GORONTALO;;Indonesia;;;;0.4910265;122.073.703;https://maps.google.com/?cid=0x0:0x9c57f083f00632a6;
perumahan;Tempat Ibadah;paguat;"F3RF+CFQ, Siduan, Kec. Paguat, Kabupaten Pohuwato, Gorontalo";"Kabupaten Pohuwato, Gorontalo";GORONTALO;;Indonesia;082291061657;;;0.4910898;1.220.737.312;https://maps.google.com/?cid=0x0:0xd1a5fb1c0ff1ec69;
perumahan;perumahan;Perum Camat Paguat;"F3QH+86C, Bumbulan, Kec. Paguat, Kabupaten Pohuwato, Gorontalo 96265";"Bumbulan, Kec. Paguat, Kabupaten Pohuwato";GORONTALO;96265;Indonesia;;;;0.4882975;12.207.802;https://maps.google.com/?cid=0x0:0x29d6ea0281d06f34;
perumahan;Komplek perumahan;Bele'u Paguat;"F2MF+83, Libuo, Kec. Paguat, Kabupaten Pohuwato, Gorontalo";"Kabupaten Pohuwato, Gorontalo";GORONTALO;;Indonesia;;;;0.4793558;1.220.227.335;https://maps.google.com/?cid=0x0:0x902567aca619e78c;
perumahan;Komplek perumahan;rmh papi paguat;"G32M+746, Jl. Trans-Sulawesi, Kemiri, Kec. Paguat, Kabupaten Pohuwato, Gorontalo";"Kabupaten Pohuwato, Gorontalo";GORONTALO;;Indonesia;;;;0.5005527;1.220.836.177;https://maps.google.com/?cid=0x0:0x7b3dea69c19051c0;
perumahan;Komplek perumahan;Hhh sarimuna tahir;"F3X9+MV, Sipayo, Kec. Paguat, Kabupaten Pohuwato, Gorontalo 96265";"Sipayo, Kec. Paguat, Kabupaten Pohuwato";GORONTALO;96265;Indonesia;;;;0.4992025;1.220.696.931;https://maps.google.com/?cid=0x0:0x2927e4295159474c;
perumahan;Komplek perumahan;Ah;"G3CM+628, Popaya, Kec. Dengilo, Kabupaten Pohuwato, Gorontalo 96265";"Popaya, Kec. Dengilo, Kabupaten Pohuwato";GORONTALO;96265;Indonesia;085163631495;;;0.520544;1.220.825.703;https://maps.google.com/?cid=0x0:0xa3546e121754454e;
perumahan;Kantor Perusahaan;Rumah tua;"G34C+2JV, Soginti, Kec. Paguat, Kabupaten Pohuwato, Gorontalo";"Kabupaten Pohuwato, Gorontalo";GORONTALO;;Indonesia;;;;0.5051081;1.220.715.483;https://maps.google.com/?cid=0x0:0x32eaf2b29165ef2b;
perumahan;Komplek perumahan;Rumah ANA;"G34C+WM3, Soginti, Kec. Paguat, Kabupaten Pohuwato, Gorontalo";"Kabupaten Pohuwato, Gorontalo";GORONTALO;;Indonesia;;;;0.5072579;122.071.678;https://maps.google.com/?cid=0x0:0x3cfc316d4f9214b8;
perumahan;Komplek perumahan;Rumah Harmel Paguat;"G32J+692, Jl. Trans-Sulawesi, Molamahu, Kec. Paguat, Kabupaten Pohuwato, Gorontalo 96265";"Jl. Trans-Sulawesi, Molamahu, Kec. Paguat, Kabupaten Pohuwato";GORONTALO;96265;Indonesia;;;;0.5006997;1.220.805.626;https://maps.google.com/?cid=0x0:0xb2b937d032199525;
perumahan;Komplek perumahan;NELA;"F3M3+QGH, Buhu Jaya, Kec. Paguat, Kabupaten Pohuwato, Gorontalo 96265";"Buhu Jaya, Kec. Paguat, Kabupaten Pohuwato";GORONTALO;96265;Indonesia;;;;0.4844393;1.220.538.508;https://maps.google.com/?cid=0x0:0x1a1a33458e12ccc2;
perumahan;Kantor Perusahaan;Mita;"F3Q8+FR2, Siduan, Kec. Paguat, Kabupaten Pohuwato, Gorontalo 96265";"Siduan, Kec. Paguat, Kabupaten Pohuwato";GORONTALO;96265;Indonesia;;;;0.488638;1.220.670.273;https://maps.google.com/?cid=0x0:0x4a81a9756a0b79dc;
perumahan;Komplek perumahan;Rumah santi;"G33G+M5C, Unnamed Road, Kemiri, Kec. Paguat, Kabupaten Pohuwato, Gorontalo 96265";"Unnamed Road, Kemiri, Kec. Paguat, Kabupaten Pohuwato";GORONTALO;96265;Indonesia;;;;0.5041837;1.220.753.874;https://maps.google.com/?cid=0x0:0x6e46560d680f100e;
perumahan;Komplek perumahan;Rumah Herlina Kaharu;"F3V9+93F, Siduan, Kec. Paguat, Kabupaten Pohuwato, Gorontalo 96265";"Siduan, Kec. Paguat, Kabupaten Pohuwato";GORONTALO;96265;Indonesia;;;;0.4934278;1.220.674.386;https://maps.google.com/?cid=0x0:0x44f75b8444fe8852;
perumahan;Komplek perumahan;Ruma Fika;"G378+FMP, Soginti, Kec. Paguat, Kabupaten Pohuwato, Gorontalo";"Kabupaten Pohuwato, Gorontalo";GORONTALO;;Indonesia;;;;0.5137238;1.220.666.997;https://maps.google.com/?cid=0x0:0x7c1e522de902bfd6;
perumahan;Komplek perumahan;Fia L;"F3PC+PJ5, Pentadu, Kec. Paguat, Kabupaten Pohuwato, Gorontalo 96265";"Pentadu, Kec. Paguat, Kabupaten Pohuwato";GORONTALO;96265;Indonesia;;;;0.4867625;1.220.716.094;https://maps.google.com/?cid=0x0:0x784985b69233a6af;
perumahan;Komplek perumahan;Rumah Windy;"F3X8+P7, Sipayo, Kec. Paguat, Kabupaten Pohuwato, Gorontalo";"Kabupaten Pohuwato, Gorontalo";GORONTALO;;Indonesia;;;;0.499273;122.065.733;https://maps.google.com/?cid=0x0:0x6aa300f7b96637d;
perumahan;perumahan;rumah putih;"F3Q9+X32, Siduan, Kec. Paguat, Kabupaten Pohuwato, Gorontalo 96265";"Siduan, Kec. Paguat, Kabupaten Pohuwato";GORONTALO;96265;Indonesia;;;;0.489768;122.067.522;https://maps.google.com/?cid=0x0:0x58463b47c9c4f15b;
perumahan;Komplek perumahan;Rumah Rifki;"G32G+9GG, Kemiri, Kec. Paguat, Kabupaten Pohuwato, Gorontalo 96265";"Kemiri, Kec. Paguat, Kabupaten Pohuwato";GORONTALO;96265;Indonesia;;;;0.501037;1.220.767.096;https://maps.google.com/?cid=0x0:0xd16f2d02684f6250;
perumahan;Komplek perumahan;Maman Home's;"F3M4+62G, Buhu Jaya, Kec. Paguat, Kabupaten Pohuwato, Gorontalo 96265";"Buhu Jaya, Kec. Paguat, Kabupaten Pohuwato";GORONTALO;96265;Indonesia;;;;0.4830698;1.220.550.752;https://maps.google.com/?cid=0x0:0xfc8e1534242280ab;
perumahan;Pondok;Penginapan;"F3HG+PPP, Pentadu, Kec. Paguat, Kabupaten Pohuwato, Gorontalo";"Kabupaten Pohuwato, Gorontalo";GORONTALO;;Indonesia;;;;0.4793401;1.220.768.164;https://maps.google.com/?cid=0x0:0xebde37b20eed1641;
perumahan;Balai Pertemuan Desa;Posko KKN-T UNG Desa Kemiri;"F3XG+M6F, Bunuyo, Kec. Paguat, Kabupaten Pohuwato, Gorontalo";"Kabupaten Pohuwato, Gorontalo";GORONTALO;;Indonesia;;;;0.4991786;1.220.755.559;https://maps.google.com/?cid=0x0:0xadd6b31776f6f53;
perumahan;Komplek perumahan;Imelda pratiwi;"G3CM+C9J, Unnamed Rd, Popaya, Kec. Dengilo, Kabupaten Pohuwato, Gorontalo 96265";"Unnamed Rd, Popaya, Kec. Dengilo, Kabupaten Pohuwato";GORONTALO;96265;Indonesia;;;;0.5210933;1.220.833.977;https://maps.google.com/?cid=0x0:0xb67a50d6f6a1f4a0;
perumahan;perumahan;BELE LI BIBI;"F3RC+7RM, Tabulo - Marisa, Siduan, Kec. Paguat, Kabupaten Pohuwato, Gorontalo 96265";"Tabulo - Marisa, Siduan, Kec. Paguat, Kabupaten Pohuwato";GORONTALO;96265;Indonesia;;;;0.4907124;1.220.720.556;https://maps.google.com/?cid=0x0:0xc76ead170ffc4deb;
perumahan;Komplek perumahan;Uun Home Stay;"F3VM+3GG, Bunuyo, Kec. Paguat, Kabupaten Pohuwato, Gorontalo 96265";"Bunuyo, Kec. Paguat, Kabupaten Pohuwato";GORONTALO;96265;Indonesia;;;;0.492562;122.084.924;https://maps.google.com/?cid=0x0:0x40799f3fd33fd224;
perumahan;Kompleks Townhouse;Rumah le bado;"F3QC+VM7, Siduan, Kec. Paguat, Kabupaten Pohuwato, Gorontalo 96265";"Siduan, Kec. Paguat, Kabupaten Pohuwato";GORONTALO;96265;Indonesia;;;;0.4896652;1.220.716.704;https://maps.google.com/?cid=0x0:0x976f10e76612a77b;
perumahan;Komplek perumahan;Rumah Ziel Zhiya;"F3R9+MR3, Siduan, Kec. Paguat, Kabupaten Pohuwato, Gorontalo 96265";"Siduan, Kec. Paguat, Kabupaten Pohuwato";GORONTALO;96265;Indonesia;;;;0.4916429;1.220.695.406;https://maps.google.com/?cid=0x0:0xccbf6f8aeed68a20;
perumahan;perumahan;Rumah bu murti;"JVW5+9MJ, Kalimas, Kec. Taluditi, Kabupaten Pohuwato, Gorontalo 96266";"Kalimas, Kec. Taluditi, Kabupaten Pohuwato";GORONTALO;96266;Indonesia;;;;0.6462039;1.218.597.387;https://maps.google.com/?cid=0x0:0x7d3d12ebd0580a48;
perumahan;perumahan;Gorontalo 96266;"Kabupaten Pohuwato, Gorontalo";"Kabupaten Pohuwato, Gorontalo";GORONTALO;;Indonesia;;;;0.6235288;1.218.790.306;https://maps.google.com/?cid=0x0:0x6e323a18714b4718;
perumahan;perumahan;Santi dalanggo;"GVPG+7P2, Dudepo, Kec. Patilanggio, Kabupaten Pohuwato, Gorontalo 96266";"Dudepo, Kec. Patilanggio, Kabupaten Pohuwato";GORONTALO;96266;Indonesia;;;;0.5355543;1.218.767.695;https://maps.google.com/?cid=0x0:0x34dd50051264eaf5;
perumahan;Toko umum;RUMAH INDRiYANI HULOPI;"GV37+JMF, Dulomo, Kec. Patilanggio, Kabupaten Pohuwato, Gorontalo 96266";"Dulomo, Kec. Patilanggio, Kabupaten Pohuwato";GORONTALO;96266;Indonesia;;;;0.5040641;1.218.641.804;https://maps.google.com/?cid=0x0:0x7992122538b3cf3;
perumahan;Komplek perumahan;Rumah Tika;"Suka Makmur, Kec. Patilanggio, Kabupaten Pohuwato, Gorontalo 96266";"Kec. Patilanggio, Kabupaten Pohuwato";GORONTALO;96266;Indonesia;;;;0.5296506;1.218.629.573;https://maps.google.com/?cid=0x0:0xb63fe57344017677;
perumahan;Komplek perumahan;Rumah Selviana Karim;"GW35+RC2, Balayo, Kec. Patilanggio, Kabupaten Pohuwato, Gorontalo 96266";"Balayo, Kec. Patilanggio, Kabupaten Pohuwato";GORONTALO;96266;Indonesia;;;;0.5046019;1.219.084.813;https://maps.google.com/?cid=0x0:0x29c23091b9b698be;
perumahan;Komplek perumahan;Rumah Lukman;"GVJ7+3HJ, Suka Makmur, Kec. Patilanggio, Kabupaten Pohuwato, Gorontalo 96266";"Suka Makmur, Kec. Patilanggio, Kabupaten Pohuwato";GORONTALO;96266;Indonesia;;;;0.5301116;1.218.637.922;https://maps.google.com/?cid=0x0:0x500f020829d72d95;
perumahan;Komplek perumahan;Rumah;"GWFJ+R52, Jl. Trans-Sulawesi, Balayo, Kec. Patilanggio, Kabupaten Pohuwato, Gorontalo 96266";"Jl. Trans-Sulawesi, Balayo, Kec. Patilanggio, Kabupaten Pohuwato";GORONTALO;96266;Indonesia;;;;0.5244794;1.219.303.193;https://maps.google.com/?cid=0x0:0xdc2643cf8f126fd7;
perumahan;Perumahan;Perumahan Marisa Indah Jl. Tulip raya;"FX62+MM6, Palopo, Kec. Marisa, Kabupaten Pohuwato, Gorontalo 96265";"Palopo, Kec. Marisa, Kabupaten Pohuwato";GORONTALO;96265;Indonesia;;;;0.4616608;1.219.516.255;https://maps.google.com/?cid=0x0:0x533dc5bb812affa0;
perumahan;Komplek perumahan;ilyas rifai;"GVW8+C6J, Desa, iloheluma, Kec. Patilanggio, Kabupaten Pohuwato, Gorontalo 96266";"Desa, iloheluma, Kec. Patilanggio, Kabupaten Pohuwato";GORONTALO;96266;Indonesia;;;;0.5460967;1.218.655.101;https://maps.google.com/?cid=0x0:0xfa94321b8dc95283;
perumahan;Komplek perumahan;Roji.;"GV3C+7MX, Manawa, Kec. Patilanggio, Kabupaten Pohuwato, Gorontalo";"Kabupaten Pohuwato, Gorontalo";GORONTALO;;Indonesia;;;;0.5032457;1.218.717.382;https://maps.google.com/?cid=0x0:0x37962c231d025528;
perumahan;Komplek perumahan;Vony Poha Home;"GWH9+859, Balayo, Kec. Patilanggio, Kabupaten Pohuwato, Gorontalo 96466";"Balayo, Kec. Patilanggio, Kabupaten Pohuwato";GORONTALO;96466;Indonesia;082292700508;;;0.5282963;1.219.179.755;https://maps.google.com/?cid=0x0:0x1398b2f8827994f1;
perumahan;Komplek perumahan;Rumah Amlana;"GVM5+WX, Ilo Heluma, Kec. Patilanggio, Kabupaten Pohuwato, Gorontalo";"Kabupaten Pohuwato, Gorontalo";GORONTALO;;Indonesia;;;;0.534863;121.859.968;https://maps.google.com/?cid=0x0:0x3273d19eb8bf07a;
perumahan;Komplek perumahan;RM. Yaman Nento;"GRJP+7WW, Suka Makmur, Kec. Patilanggio, Kabupaten Pohuwato, Gorontalo 96266";"Suka Makmur, Kec. Patilanggio, Kabupaten Pohuwato";GORONTALO;96266;Indonesia;085298185434;;;0.5307365;1.218.367.049;https://maps.google.com/?cid=0x0:0x58bb1ed44e28dfe9;
perumahan;Pembangunan Perumahan;Dusun Konito;"GRRW+CX5, Ilo Heluma, Kec. Patilanggio, Kabupaten Pohuwato, Gorontalo 96266";"Ilo Heluma, Kec. Patilanggio, Kabupaten Pohuwato";GORONTALO;96266;Indonesia;;;;0.5410002;1.218.474.863;https://maps.google.com/?cid=0x0:0x61966ace000d3416;
perumahan;Komplek perumahan;Rumah Komunitas;"Jl. Gn. Pani, Taluduyunu, Kec. Marisa, Kabupaten Pohuwato, Gorontalo 96266";"Taluduyunu, Kec. Marisa, Kabupaten Pohuwato";GORONTALO;96266;Indonesia;081241220069;;;0.5031484;1.219.375.404;https://maps.google.com/?cid=0x0:0x57c0128499771b32;
perumahan;Komplek perumahan;Perumahan;"FV9P+G6M, Mootilango, Kec. Duhiadaa, Kabupaten Pohuwato, Gorontalo 96266";"Mootilango, Kec. Duhiadaa, Kabupaten Pohuwato";GORONTALO;96266;Indonesia;;;;0.4689613;121.885.578;https://maps.google.com/?cid=0x0:0x7c82c6679f86e246;
perumahan;Komplek perumahan;Yayan Kobi;"Jl. Gn. Pani, Taluduyunu Utara, Kec. Buntulia, Kabupaten Pohuwato, Gorontalo";"Kabupaten Pohuwato, Gorontalo";GORONTALO;;Indonesia;081241365304;;;0.51191;121.946.501;https://maps.google.com/?cid=0x0:0x2d936a0b77196a15;
perumahan;Komplek perumahan;Rumah hadija y nule;"JVHG+M9, Tirto Asri, Kec. Taluditi, Kabupaten Pohuwato, Gorontalo";"Kabupaten Pohuwato, Gorontalo";GORONTALO;;Indonesia;;;;0.6291875;1.218.759.375;https://maps.google.com/?cid=0x0:0xaaf2cb35c4ed0e1a;
perumahan;Komplek perumahan;Wamba-Wamba;"HR3R+CXQ, Ilo Heluma, Kec. Patilanggio, Kabupaten Pohuwato, Gorontalo 96266";"Ilo Heluma, Kec. Patilanggio, Kabupaten Pohuwato";GORONTALO;96266;Indonesia;;;;0.553598;1.218.424.991;https://maps.google.com/?cid=0x0:0x35fd7a4c31fc6c56;
perumahan;Perumahan rakyat;Abdul kadir rauf;"GWH6+QF6, Balayo, Kec. Patilanggio, Kabupaten Pohuwato, Gorontalo 96266";"Balayo, Kec. Patilanggio, Kabupaten Pohuwato";GORONTALO;96266;Indonesia;;;;0.5294079;1.219.111.546;https://maps.google.com/?cid=0x0:0xdb01e28a9e974b81;
perumahan;Penginapan;Perum Marisa Indah;"FW7X+H69, Jl. Jend. Sudirman, Palopo, Kec. Marisa, Kabupaten Pohuwato, Gorontalo 96265";"Jl. Jend. Sudirman, Palopo, Kec. Marisa, Kabupaten Pohuwato";GORONTALO;96265;Indonesia;;;;0.4639199;1.219.481.071;https://maps.google.com/?cid=0x0:0x8bfef187c0a5d7a5;
perumahan;Komplek perumahan;SintaGiasi;"GW9X+5G3, Karya Indah, Kec. Buntulia, Kabupaten Pohuwato, Gorontalo";"Kabupaten Pohuwato, Gorontalo";GORONTALO;;Indonesia;;;;0.5178936;1.219.487.941;https://maps.google.com/?cid=0x0:0x4949067503770dd5;
perumahan;Otoritas Perumahan;Gudang pht;"GVH2+F8, Suka Makmur, Kec. Patilanggio, Kabupaten Pohuwato, Gorontalo 96266";"Suka Makmur, Kec. Patilanggio, Kabupaten Pohuwato";GORONTALO;96266;Indonesia;;;;0.5286655;1.218.508.667;https://maps.google.com/?cid=0x0:0xcd7de3abf8bbd838;
perumahan;Komplek perumahan;family hulinggi;"FWW6+6PQ, Duhiadaa, Kec. Duhiadaa, Kabupaten Pohuwato, Gorontalo";"Kabupaten Pohuwato, Gorontalo";GORONTALO;;Indonesia;;;;0.4955992;1.219.118.699;https://maps.google.com/?cid=0x0:0x3012f9ba060b2b05;
perumahan;perumahan;Popayato;"Kabupaten Pohuwato, Gorontalo";"Kabupaten Pohuwato, Gorontalo";GORONTALO;;Indonesia;;;;0.6508515;12.143.419;https://maps.google.com/?cid=0x0:0xd03550efb58cf562;
perumahan;Komplek perumahan;Rumah popayato;"GCFV+RR, Telaga, Popayato, Kabupaten Pohuwato, Gorontalo 96467";"Telaga, Popayato, Kabupaten Pohuwato";GORONTALO;96467;Indonesia;;;;0.5245454;1.214.445.486;https://maps.google.com/?cid=0x0:0x2cd0fd73dbe35cf6;
perumahan;Perumahan rakyat;Komunal Perumahan Rakyat Popayato Timur;"GF8Q+Q52, Maleo, Kec. Popayato Tim., Kabupaten Pohuwato, Gorontalo 96467";"Maleo, Kec. Popayato Tim., Kabupaten Pohuwato";GORONTALO;96467;Indonesia;;;;0.5168782;1.214.878.951;https://maps.google.com/?cid=0x0:0xb98f26d0936d348e;
perumahan;Sekolah Menengah Pertama;Perumahan smp n 1 popayato;"FCVW+4CX, Bumi Bahari, Popayato, Kabupaten Pohuwato, Gorontalo";"Kabupaten Pohuwato, Gorontalo";GORONTALO;;Indonesia;;;;0.4928609;1.214.461.166;https://maps.google.com/?cid=0x0:0x8bcdd0e3ff7369a6;
perumahan;Komplek perumahan;Perumahan (Kumunal) Kec. Popayato Barat;"GC34+F5G, Butungale, Kec. Popayato Bar., Kabupaten Pohuwato, Gorontalo 96467";"Butungale, Kec. Popayato Bar., Kabupaten Pohuwato";GORONTALO;96467;Indonesia;;;;0.5036869;1.214.054.646;https://maps.google.com/?cid=0x0:0x65124fe475446602;
perumahan;Asosiasi pemilik rumah;Sarton Polimengo;"GFG6+PQH, Unnamed Road, Bukit Tingki, Popayato, Kabupaten Pohuwato, Gorontalo 96467";"Unnamed Road, Bukit Tingki, Popayato, Kabupaten Pohuwato";GORONTALO;96467;Indonesia;;;;0.5268066;1.214.619.754;https://maps.google.com/?cid=0x0:0x3ea55681893b044e;
perumahan;Pembangunan Perumahan;Retno Sri Porwanti;"GFPM+CPV, Tahele, Kec. Popayato Tim., Kabupaten Pohuwato, Gorontalo 96467";"Tahele, Kec. Popayato Tim., Kabupaten Pohuwato";GORONTALO;96467;Indonesia;;;;0.5361158;1.214.842.878;https://maps.google.com/?cid=0x0:0x56113a8e25b6ee89;
perumahan;Komplek perumahan;Ferji anwar;"GFH9+296, Bukit Tingki, Popayato, Kabupaten Pohuwato, Gorontalo 96467";"Bukit Tingki, Popayato, Kabupaten Pohuwato";GORONTALO;96467;Indonesia;;;;0.527924;1.214.688.577;https://maps.google.com/?cid=0x0:0xdff10f29748dbd98;
perumahan;Komplek perumahan;Fandi abdjul;"GC67+F6Q, Tunas Jaya, Kec. Popayato Bar., Kabupaten Pohuwato, Gorontalo 96467";"Tunas Jaya, Kec. Popayato Bar., Kabupaten Pohuwato";GORONTALO;96467;Indonesia;;;;0.511184;1.214.131.636;https://maps.google.com/?cid=0x0:0x7ce15941ff33283c;
perumahan;Komplek perumahan;Rumah Kayla Safira Pasandre;"Bumi Bahari, Popayato, Kabupaten Pohuwato, Gorontalo 96467";"Popayato, Kabupaten Pohuwato";GORONTALO;96467;Indonesia;082259748355;;;0.4918712;1.214.449.206;https://maps.google.com/?cid=0x0:0x3e853e99517504be;
perumahan;Komplek perumahan;Rumah Iswan naki;"FCMV+247, Torosiaje Jaya, Popayato, Kabupaten Pohuwato, Gorontalo";"Kabupaten Pohuwato, Gorontalo";GORONTALO;;Indonesia;;;;0.481723;121.442.604;https://maps.google.com/?cid=0x0:0x6d5bf3f22803710f;
perumahan;Komplek perumahan;Risto isima;"GFX7+WVJ, Tunas Harapan, Popayato, Kabupaten Pohuwato, Gorontalo 96467";"Tunas Harapan, Popayato, Kabupaten Pohuwato";GORONTALO;96467;Indonesia;;;;0.5498452;1.214.646.448;https://maps.google.com/?cid=0x0:0x5580c85165972f46;
perumahan;Komplek perumahan;Rumah DiHu;"HF2H+J6, Tahele, Kec. Popayato Tim., Kabupaten Pohuwato, Gorontalo";"Kabupaten Pohuwato, Gorontalo";GORONTALO;;Indonesia;;;;0.5510528;1.214.783.686;https://maps.google.com/?cid=0x0:0xdaf3d15bfe4ee9d6;
perumahan;Perhimpunan Pengembang Perumahan;Burhan Onu Home;"FCV8+9MQ, Jl. Trans-Sulawesi, Dudewulo, Kec. Popayato Bar., Kabupaten Pohuwato, Gorontalo 96467";"Jl. Trans-Sulawesi, Dudewulo, Kec. Popayato Bar., Kabupaten Pohuwato";GORONTALO;96467;Indonesia;;;;0.4936075;1.214.162.401;https://maps.google.com/?cid=0x0:0xa174b26753a5540;
perumahan;Komplek perumahan;Frengki abdjul;"GFG9+83, Bukit Tingki, Popayato, Kabupaten Pohuwato, Gorontalo";"Kabupaten Pohuwato, Gorontalo";GORONTALO;;Indonesia;;;;0.5258125;1.214.676.875;https://maps.google.com/?cid=0x0:0xd514a4b065f225f4;
perumahan;Komplek perumahan;Parmangaga;"GFGC+MFR, Bukit Tingki, Popayato, Kabupaten Pohuwato, Gorontalo 96467";"Bukit Tingki, Popayato, Kabupaten Pohuwato";GORONTALO;96467;Indonesia;;;;0.5267375;1.214.711.557;https://maps.google.com/?cid=0x0:0xe47017edac56b74a;
perumahan;Perhimpunan Pengembang Perumahan;Ika karim;"GC9W+4QP, Telaga, Popayato, Kabupaten Pohuwato, Gorontalo 96467";"Telaga, Popayato, Kabupaten Pohuwato";GORONTALO;96467;Indonesia;;;;0.5178398;1.214.469.528;https://maps.google.com/?cid=0x0:0xd3b02943fb441f6d;
perumahan;Kantor Pendaftaran Militer;Rudis koramil 03 popayato;"Ds, Bumi Bahari, Popayato, Kabupaten Pohuwato, Gorontalo 96467";"Bumi Bahari, Popayato, Kabupaten Pohuwato";GORONTALO;96467;Indonesia;082292905205;;;0.4944532;1.214.472.704;https://maps.google.com/?cid=0x0:0x8420094751b872bd;
perumahan;perumahan;Tunas harapan;"MCPQ+WXJ, Tunas Harapan, Popayato, Kabupaten Pohuwato, Gorontalo 96467";"Tunas Harapan, Popayato, Kabupaten Pohuwato";GORONTALO;96467;Indonesia;;;;0.6873383;1.214.399.041;https://maps.google.com/?cid=0x0:0x969cc90ea526c74a;
perumahan;Komplek perumahan;Labongo'u;"JCF5+V99 Persatuan Gorontalo Barat, Desa, Butungale, Kec. Popayato Bar., Kabupaten Pohuwato, Gorontalo 96467";"Desa, Butungale, Kec. Popayato Bar., Kabupaten Pohuwato";GORONTALO;96467;Indonesia;081265394865;;;0.6246651;1.214.084.731;https://maps.google.com/?cid=0x0:0x1f831707175de440;
perumahan;Komplek perumahan;R. TAMLIHA;"FCWC+9RV, Jl. Trans-Sulawesi, Dudewulo, Kec. Popayato Bar., Kabupaten Pohuwato, Gorontalo";"Kabupaten Pohuwato, Gorontalo";GORONTALO;;Indonesia;;;;0.4959822;1.214.220.619;https://maps.google.com/?cid=0x0:0xc6de510a56803105;
perumahan;Komplek perumahan;Rumah Keluarga Besar Linggar;"GFJQ+JF9, Londoun, Kec. Popayato Tim., Kabupaten Pohuwato, Gorontalo";"Kabupaten Pohuwato, Gorontalo";GORONTALO;;Indonesia;;;;0.5315361;1.214.887.412;https://maps.google.com/?cid=0x0:0x9e6cda2b8b62f226;
perumahan;Komplek perumahan;Saliko Family;"GGQ3+JG7, Milangodaa, Kec. Popayato Tim., Kabupaten Pohuwato, Gorontalo 96467";"Milangodaa, Kec. Popayato Tim., Kabupaten Pohuwato";GORONTALO;96467;Indonesia;;;;0.5388623;1.215.041.698;https://maps.google.com/?cid=0x0:0x43479e97eb903937;
perumahan;perumahan;Gorontalo 96467;"Kabupaten Pohuwato, Gorontalo";"Kabupaten Pohuwato, Gorontalo";GORONTALO;;Indonesia;;;;0.7082941;1.213.541.631;https://maps.google.com/?cid=0x0:0x6a37da13e8b9d9f7;
perumahan;Sekolah Menengah Pertama;Perumahan smp n 1 popayato;"FCVW+4CX, Bumi Bahari, Popayato, Kabupaten Pohuwato, Gorontalo";"Kabupaten Pohuwato, Gorontalo";GORONTALO;;Indonesia;;;;0.4928609;1.214.461.166;https://maps.google.com/?cid=0x0:0x8bcdd0e3ff7369a6;
perumahan;Komplek perumahan;Rumah popayato;"GCFV+RR, Telaga, Popayato, Kabupaten Pohuwato, Gorontalo 96467";"Telaga, Popayato, Kabupaten Pohuwato";GORONTALO;96467;Indonesia;;;;0.5245454;1.214.445.486;https://maps.google.com/?cid=0x0:0x2cd0fd73dbe35cf6;
perumahan;Komplek perumahan;Rosmiyati Hasan;"GFG5+QWV, Jalan Desa, Bukit Tingki, Popayato, Kabupaten Pohuwato, Gorontalo 96467";"Jalan Desa, Bukit Tingki, Popayato, Kabupaten Pohuwato";GORONTALO;96467;Indonesia;;;;0.5269992;1.214.597.993;https://maps.google.com/?cid=0x0:0xef1410c2f5cd6531;
perumahan;Perumahan rakyat;Komunal Perumahan Rakyat Popayato Timur;"GF8Q+Q52, Maleo, Kec. Popayato Tim., Kabupaten Pohuwato, Gorontalo 96467";"Maleo, Kec. Popayato Tim., Kabupaten Pohuwato";GORONTALO;96467;Indonesia;;;;0.5168782;1.214.878.951;https://maps.google.com/?cid=0x0:0xb98f26d0936d348e;
perumahan;Komplek perumahan;Fandi abdjul;"GC67+F6Q, Tunas Jaya, Kec. Popayato Bar., Kabupaten Pohuwato, Gorontalo 96467";"Tunas Jaya, Kec. Popayato Bar., Kabupaten Pohuwato";GORONTALO;96467;Indonesia;;;;0.511184;1.214.131.636;https://maps.google.com/?cid=0x0:0x7ce15941ff33283c;
perumahan;Komplek perumahan;Labongo'u;"JCF5+V99 Persatuan Gorontalo Barat, Desa, Butungale, Kec. Popayato Bar., Kabupaten Pohuwato, Gorontalo 96467";"Desa, Butungale, Kec. Popayato Bar., Kabupaten Pohuwato";GORONTALO;96467;Indonesia;081265394865;;;0.6246651;1.214.084.731;https://maps.google.com/?cid=0x0:0x1f831707175de440;
perumahan;Komplek perumahan;Ferji anwar;"GFH9+296, Bukit Tingki, Popayato, Kabupaten Pohuwato, Gorontalo 96467";"Bukit Tingki, Popayato, Kabupaten Pohuwato";GORONTALO;96467;Indonesia;;;;0.527924;1.214.688.577;https://maps.google.com/?cid=0x0:0xdff10f29748dbd98;
perumahan;Komplek perumahan;Perumahan KAT Desa Kelapa Lima;"HFGW+F64, Klp. Lima, Kec. Popayato Tim., Kabupaten Pohuwato, Gorontalo";"Kabupaten Pohuwato, Gorontalo";GORONTALO;;Indonesia;;;;0.5761425;1.214.955.758;https://maps.google.com/?cid=0x0:0xca93ce5af5ae33e3;
perumahan;Asosiasi pemilik rumah;Sarton Polimengo;"GFG6+PQH, Unnamed Road, Bukit Tingki, Popayato, Kabupaten Pohuwato, Gorontalo 96467";"Unnamed Road, Bukit Tingki, Popayato, Kabupaten Pohuwato";GORONTALO;96467;Indonesia;;;;0.5268066;1.214.619.754;https://maps.google.com/?cid=0x0:0x3ea55681893b044e;
perumahan;Komplek perumahan;Febri toanca;"FCV8+CWP, Dudewulo, Kec. Popayato Bar., Kabupaten Pohuwato, Gorontalo 96467";"Dudewulo, Kec. Popayato Bar., Kabupaten Pohuwato";GORONTALO;96467;Indonesia;;;;0.493576;1.214.173.412;https://maps.google.com/?cid=0x0:0x8c526e2ed3007f7;
perumahan;Perhimpunan Pengembang Perumahan;Burhan Onu Home;"FCV8+9MQ, Jl. Trans-Sulawesi, Dudewulo, Kec. Popayato Bar., Kabupaten Pohuwato, Gorontalo 96467";"Jl. Trans-Sulawesi, Dudewulo, Kec. Popayato Bar., Kabupaten Pohuwato";GORONTALO;96467;Indonesia;;;;0.4936075;1.214.162.401;https://maps.google.com/?cid=0x0:0xa174b26753a5540;
perumahan;Komplek perumahan;Rumah Kayla Safira Pasandre;"Bumi Bahari, Popayato, Kabupaten Pohuwato, Gorontalo 96467";"Popayato, Kabupaten Pohuwato";GORONTALO;96467;Indonesia;082259748355;;;0.4918712;1.214.449.206;https://maps.google.com/?cid=0x0:0x3e853e99517504be;
perumahan;Pembangunan Perumahan;Retno Sri Porwanti;"GFPM+CPV, Tahele, Kec. Popayato Tim., Kabupaten Pohuwato, Gorontalo 96467";"Tahele, Kec. Popayato Tim., Kabupaten Pohuwato";GORONTALO;96467;Indonesia;;;;0.5361158;1.214.842.878;https://maps.google.com/?cid=0x0:0x56113a8e25b6ee89;
perumahan;Komplek perumahan;milangodaa;"GGQ3+5QM, Dusun maritim, Milangodaa, Kec. Popayato Tim., Kabupaten Pohuwato, Gorontalo 96467";"Dusun maritim, Milangodaa, Kec. Popayato Tim., Kabupaten Pohuwato";GORONTALO;96467;Indonesia;;;;0.5370934;1.215.048.248;https://maps.google.com/?cid=0x0:0x6aa3e397141fd47e;
perumahan;Komplek perumahan;Parmangaga;"GFGC+MFR, Bukit Tingki, Popayato, Kabupaten Pohuwato, Gorontalo 96467";"Bukit Tingki, Popayato, Kabupaten Pohuwato";GORONTALO;96467;Indonesia;;;;0.5267375;1.214.711.557;https://maps.google.com/?cid=0x0:0xe47017edac56b74a;
perumahan;Komplek perumahan;Rumah Iswan naki;"FCMV+247, Torosiaje Jaya, Popayato, Kabupaten Pohuwato, Gorontalo";"Kabupaten Pohuwato, Gorontalo";GORONTALO;;Indonesia;;;;0.481723;121.442.604;https://maps.google.com/?cid=0x0:0x6d5bf3f22803710f;
perumahan;Komplek perumahan;R. TAMLIHA;"FCWC+9RV, Jl. Trans-Sulawesi, Dudewulo, Kec. Popayato Bar., Kabupaten Pohuwato, Gorontalo";"Kabupaten Pohuwato, Gorontalo";GORONTALO;;Indonesia;;;;0.4959822;1.214.220.619;https://maps.google.com/?cid=0x0:0xc6de510a56803105;
perumahan;Kantor Pendaftaran Militer;Rudis koramil 03 popayato;"Ds, Bumi Bahari, Popayato, Kabupaten Pohuwato, Gorontalo 96467";"Bumi Bahari, Popayato, Kabupaten Pohuwato";GORONTALO;96467;Indonesia;082292905205;;;0.4944532;1.214.472.704;https://maps.google.com/?cid=0x0:0x8420094751b872bd;
perumahan;Komplek perumahan;Rumah ArlanHoga;"GC57+CRF, Butungale, Kec. Popayato Bar., Kabupaten Pohuwato, Gorontalo 96467";"Butungale, Kec. Popayato Bar., Kabupaten Pohuwato";GORONTALO;96467;Indonesia;;;;0.5085583;1.214.145.544;https://maps.google.com/?cid=0x0:0x64bbe3a902b2ef3c;
perumahan;Komplek perumahan;Perumahan (Kumunal) Kec. Popayato Barat;"GC34+F5G, Butungale, Kec. Popayato Bar., Kabupaten Pohuwato, Gorontalo 96467";"Butungale, Kec. Popayato Bar., Kabupaten Pohuwato";GORONTALO;96467;Indonesia;;;;0.5036869;1.214.054.646;https://maps.google.com/?cid=0x0:0x65124fe475446602;
perumahan;Komplek perumahan;Saliko Family;"GGQ3+JG7, Milangodaa, Kec. Popayato Tim., Kabupaten Pohuwato, Gorontalo 96467";"Milangodaa, Kec. Popayato Tim., Kabupaten Pohuwato";GORONTALO;96467;Indonesia;;;;0.5388623;1.215.041.698;https://maps.google.com/?cid=0x0:0x43479e97eb903937;
perumahan;Perhimpunan Pengembang Perumahan;Rumah fikria polohi;"F9P5+4XC, Molosipat, Kec. Popayato Bar., Kabupaten Pohuwato, Gorontalo";"Kabupaten Pohuwato, Gorontalo";GORONTALO;;Indonesia;;;;0.4853185;1.213.598.812;https://maps.google.com/?cid=0x0:0x33681c34d0db85cb;
perumahan;perumahan;Tunas harapan;"MCPQ+WXJ, Tunas Harapan, Popayato, Kabupaten Pohuwato, Gorontalo 96467";"Tunas Harapan, Popayato, Kabupaten Pohuwato";GORONTALO;96467;Indonesia;;;;0.6873383;1.214.399.041;https://maps.google.com/?cid=0x0:0x969cc90ea526c74a;
perumahan;Kompleks Apartemen;wiya eteng;"GC67+8RV, Jln. Dae Marata Dusun Mekar Drsa, Butungale, Kec. Popayato Bar., Kabupaten Pohuwato, Gorontalo 96467";"Jln. Dae Marata Dusun Mekar Drsa, Butungale, Kec. Popayato Bar., Kabupaten Pohuwato";GORONTALO;96467;Indonesia;;;;0.5107484;1.214.143.302;https://maps.google.com/?cid=0x0:0x1e45774739d5c42f;
perumahan;Komplek perumahan;Nitta Zakaria;"GC77+59G, Tunas Jaya, Kec. Popayato Bar., Kabupaten Pohuwato, Gorontalo 96467";"Tunas Jaya, Kec. Popayato Bar., Kabupaten Pohuwato";GORONTALO;96467;Indonesia;;;;0.5129308;1.214.134.607;https://maps.google.com/?cid=0x0:0x24789f55cd69930a;
perumahan;Komplek perumahan;Risto isima;"GFX7+WVJ, Tunas Harapan, Popayato, Kabupaten Pohuwato, Gorontalo 96467";"Tunas Harapan, Popayato, Kabupaten Pohuwato";GORONTALO;96467;Indonesia;;;;0.5498452;1.214.646.448;https://maps.google.com/?cid=0x0:0x5580c85165972f46;
perumahan;perumahan;Kec. Popayato Tim.;"Kabupaten Pohuwato, Gorontalo";"Kabupaten Pohuwato, Gorontalo";GORONTALO;;Indonesia;;;;0.521171;1.214.876.076;https://maps.google.com/?cid=0x0:0xabc56e34572880b2;
perumahan;Perumahan rakyat;Komunal Perumahan Rakyat Popayato Timur;"GF8Q+Q52, Maleo, Kec. Popayato Tim., Kabupaten Pohuwato, Gorontalo 96467";"Maleo, Kec. Popayato Tim., Kabupaten Pohuwato";GORONTALO;96467;Indonesia;;;;0.5168782;1.214.878.951;https://maps.google.com/?cid=0x0:0xb98f26d0936d348e;
perumahan;Sekolah Menengah Pertama;Perumahan smp n 1 popayato;"FCVW+4CX, Bumi Bahari, Popayato, Kabupaten Pohuwato, Gorontalo";"Kabupaten Pohuwato, Gorontalo";GORONTALO;;Indonesia;;;;0.4928609;1.214.461.166;https://maps.google.com/?cid=0x0:0x8bcdd0e3ff7369a6;
perumahan;Komplek perumahan;Rumah DiHu;"HF2H+J6, Tahele, Kec. Popayato Tim., Kabupaten Pohuwato, Gorontalo";"Kabupaten Pohuwato, Gorontalo";GORONTALO;;Indonesia;;;;0.5510528;1.214.783.686;https://maps.google.com/?cid=0x0:0xdaf3d15bfe4ee9d6;
perumahan;Komplek perumahan;Saliko Family;"GGQ3+JG7, Milangodaa, Kec. Popayato Tim., Kabupaten Pohuwato, Gorontalo 96467";"Milangodaa, Kec. Popayato Tim., Kabupaten Pohuwato";GORONTALO;96467;Indonesia;;;;0.5388623;1.215.041.698;https://maps.google.com/?cid=0x0:0x43479e97eb903937;
perumahan;Komplek perumahan;Rumah popayato;"GCFV+RR, Telaga, Popayato, Kabupaten Pohuwato, Gorontalo 96467";"Telaga, Popayato, Kabupaten Pohuwato";GORONTALO;96467;Indonesia;;;;0.5245454;1.214.445.486;https://maps.google.com/?cid=0x0:0x2cd0fd73dbe35cf6;
perumahan;Pembangunan Perumahan;Retno Sri Porwanti;"GFPM+CPV, Tahele, Kec. Popayato Tim., Kabupaten Pohuwato, Gorontalo 96467";"Tahele, Kec. Popayato Tim., Kabupaten Pohuwato";GORONTALO;96467;Indonesia;;;;0.5361158;1.214.842.878;https://maps.google.com/?cid=0x0:0x56113a8e25b6ee89;
perumahan;Komplek perumahan;Rumah Keluarga Besar Linggar;"GFJQ+JF9, Londoun, Kec. Popayato Tim., Kabupaten Pohuwato, Gorontalo";"Kabupaten Pohuwato, Gorontalo";GORONTALO;;Indonesia;;;;0.5315361;1.214.887.412;https://maps.google.com/?cid=0x0:0x9e6cda2b8b62f226;
perumahan;Komplek perumahan;Rumah Aliska;"GFRJ+P4P, Tahele, Kec. Popayato Tim., Kabupaten Pohuwato, Gorontalo 96467";"Tahele, Kec. Popayato Tim., Kabupaten Pohuwato";GORONTALO;96467;Indonesia;;;;0.5417978;1.214.802.722;https://maps.google.com/?cid=0x0:0x9a3c507646f88e5d;
perumahan;Pembangunan Perumahan;Rumah tinggal;"HF2H+J6, Tahele, Kec. Popayato Tim., Kabupaten Pohuwato, Gorontalo";"Kabupaten Pohuwato, Gorontalo";GORONTALO;;Indonesia;;;;0.5514057;1.214.788.814;https://maps.google.com/?cid=0x0:0x44621fcd30d14c96;
perumahan;Komplek perumahan;Risto isima;"GFX7+WVJ, Tunas Harapan, Popayato, Kabupaten Pohuwato, Gorontalo 96467";"Tunas Harapan, Popayato, Kabupaten Pohuwato";GORONTALO;96467;Indonesia;;;;0.5498452;1.214.646.448;https://maps.google.com/?cid=0x0:0x5580c85165972f46;
perumahan;Komplek perumahan;milangodaa;"GGQ3+5QM, Dusun maritim, Milangodaa, Kec. Popayato Tim., Kabupaten Pohuwato, Gorontalo 96467";"Dusun maritim, Milangodaa, Kec. Popayato Tim., Kabupaten Pohuwato";GORONTALO;96467;Indonesia;;;;0.5370934;1.215.048.248;https://maps.google.com/?cid=0x0:0x6aa3e397141fd47e;
perumahan;Komplek perumahan;Rumah Kayla Safira Pasandre;"Bumi Bahari, Popayato, Kabupaten Pohuwato, Gorontalo 96467";"Popayato, Kabupaten Pohuwato";GORONTALO;96467;Indonesia;082259748355;;;0.4918712;1.214.449.206;https://maps.google.com/?cid=0x0:0x3e853e99517504be;
perumahan;Komplek perumahan;Kel. TAHULENDING TALUMESANG;"GFQM+CR7, Londoun, Popayato Timur, Pohuwato Regency, Gorontalo";"Kabupaten Pohuwato, Gorontalo";GORONTALO;;Indonesia;;;;0.5375234;121.483.749;https://maps.google.com/?cid=0x0:0xf4d82192727f8ae0;
perumahan;Komplek perumahan;Wilayah;"GFWH+6XG, Tahele, Kec. Popayato Tim., Kabupaten Pohuwato, Gorontalo 96467";"Tahele, Kec. Popayato Tim., Kabupaten Pohuwato";GORONTALO;96467;Indonesia;;;;0.5455566;121.479.952;https://maps.google.com/?cid=0x0:0x516e5dc076533c66;
perumahan;perumahan;Rumah Relly sompah;"FCMX+49Q, Dusun Jati, Torosiaje Jaya, Popayato, Kabupaten Pohuwato, Gorontalo";"Kabupaten Pohuwato, Gorontalo";GORONTALO;;Indonesia;;;;0.4828425;1.214.484.747;https://maps.google.com/?cid=0x0:0x6c9ed6dac3db491e;
perumahan;Komplek perumahan;Abdul Rahman dolla;"GF7R+86H, Bunto, Kec. Popayato Tim., Kabupaten Pohuwato, Gorontalo 96467";"Bunto, Kec. Popayato Tim., Kabupaten Pohuwato";GORONTALO;96467;Indonesia;;;;0.5133217;1.214.906.087;https://maps.google.com/?cid=0x0:0x972076648f88cff3;
perumahan;Komplek perumahan;Serly Tangkudung Home;"GFMM+M7H, Tahele, Kec. Popayato Tim., Kabupaten Pohuwato, Gorontalo 96467";"Tahele, Kec. Popayato Tim., Kabupaten Pohuwato";GORONTALO;96467;Indonesia;;;;0.53402;1.214.838.133;https://maps.google.com/?cid=0x0:0x4d47aa098086d3b1;
perumahan;Komplek perumahan;Dusun Utara I;"GF29+QF2, Trikora, Popayato, Kabupaten Pohuwato, Gorontalo";"Kabupaten Pohuwato, Gorontalo";GORONTALO;;Indonesia;;;;0.5019954;1.214.686.549;https://maps.google.com/?cid=0x0:0x30d94fb23f15bef;
perumahan;perumahan;Arnihemuto;"HF8W+GX5, Klp. Lima, Kec. Popayato Tim., Kabupaten Pohuwato, Gorontalo 96467";"Klp. Lima, Kec. Popayato Tim., Kabupaten Pohuwato";GORONTALO;96467;Indonesia;;;;0.566295;121.497.906;https://maps.google.com/?cid=0x0:0xa57a01b95e6b48cf;
perumahan;Komplek perumahan;Rumah Iswan naki;"FCMV+247, Torosiaje Jaya, Popayato, Kabupaten Pohuwato, Gorontalo";"Kabupaten Pohuwato, Gorontalo";GORONTALO;;Indonesia;;;;0.481723;121.442.604;https://maps.google.com/?cid=0x0:0x6d5bf3f22803710f;
perumahan;Komplek perumahan;Farida Yusuf Musa;"GGP4+MQX, Milangodaa, Kec. Popayato Tim., Kabupaten Pohuwato, Gorontalo";"Kabupaten Pohuwato, Gorontalo";GORONTALO;;Indonesia;;;;0.5367437;1.215.069.749;https://maps.google.com/?cid=0x0:0x4ea597d1924d9805;
perumahan;Komplek perumahan;Taman 7 Juni Londoun;"Desa Londoun, Bunto, Kec. Popayato Tim., Kabupaten Pohuwato, Gorontalo 96267";"Bunto, Kec. Popayato Tim., Kabupaten Pohuwato";GORONTALO;96267;Indonesia;;;;0.5355848;1.214.867.144;https://maps.google.com/?cid=0x0:0xf10fe53bb48deba8;
perumahan;Komplek perumahan;Rumah yunus dalantang;"FGWH+RWR, Londoun, Kec. Popayato Tim., Kabupaten Pohuwato, Gorontalo";"Kabupaten Pohuwato, Gorontalo";GORONTALO;;Indonesia;;;;0.4971072;1.215.297.745;https://maps.google.com/?cid=0x0:0xced3a54e5ca7f261;
perumahan;perumahan;Kec. Popayato Tim.;"Kabupaten Pohuwato, Gorontalo";"Kabupaten Pohuwato, Gorontalo";GORONTALO;;Indonesia;;;;0.521171;1.214.876.076;https://maps.google.com/?cid=0x0:0xabc56e34572880b2;
perumahan;Perumahan rakyat;Komunal Perumahan Rakyat Popayato Timur;"GF8Q+Q52, Maleo, Kec. Popayato Tim., Kabupaten Pohuwato, Gorontalo 96467";"Maleo, Kec. Popayato Tim., Kabupaten Pohuwato";GORONTALO;96467;Indonesia;;;;0.5168782;1.214.878.951;https://maps.google.com/?cid=0x0:0xb98f26d0936d348e;
perumahan;Sekolah Menengah Pertama;Perumahan smp n 1 popayato;"FCVW+4CX, Bumi Bahari, Popayato, Kabupaten Pohuwato, Gorontalo";"Kabupaten Pohuwato, Gorontalo";GORONTALO;;Indonesia;;;;0.4928609;1.214.461.166;https://maps.google.com/?cid=0x0:0x8bcdd0e3ff7369a6;
perumahan;Komplek perumahan;Perumahan KAT Desa Kelapa Lima;"HFGW+F64, Klp. Lima, Kec. Popayato Tim., Kabupaten Pohuwato, Gorontalo";"Kabupaten Pohuwato, Gorontalo";GORONTALO;;Indonesia;;;;0.5761425;1.214.955.758;https://maps.google.com/?cid=0x0:0xca93ce5af5ae33e3;
perumahan;Komplek perumahan;Saliko Family;"GGQ3+JG7, Milangodaa, Kec. Popayato Tim., Kabupaten Pohuwato, Gorontalo 96467";"Milangodaa, Kec. Popayato Tim., Kabupaten Pohuwato";GORONTALO;96467;Indonesia;;;;0.5388623;1.215.041.698;https://maps.google.com/?cid=0x0:0x43479e97eb903937;
perumahan;Komplek perumahan;Rumah DiHu;"HF2H+J6, Tahele, Kec. Popayato Tim., Kabupaten Pohuwato, Gorontalo";"Kabupaten Pohuwato, Gorontalo";GORONTALO;;Indonesia;;;;0.5510528;1.214.783.686;https://maps.google.com/?cid=0x0:0xdaf3d15bfe4ee9d6;
perumahan;Komplek perumahan;milangodaa;"GGQ3+5QM, Dusun maritim, Milangodaa, Kec. Popayato Tim., Kabupaten Pohuwato, Gorontalo 96467";"Dusun maritim, Milangodaa, Kec. Popayato Tim., Kabupaten Pohuwato";GORONTALO;96467;Indonesia;;;;0.5370934;1.215.048.248;https://maps.google.com/?cid=0x0:0x6aa3e397141fd47e;
perumahan;Komplek perumahan;Rumah popayato;"GCFV+RR, Telaga, Popayato, Kabupaten Pohuwato, Gorontalo 96467";"Telaga, Popayato, Kabupaten Pohuwato";GORONTALO;96467;Indonesia;;;;0.5245454;1.214.445.486;https://maps.google.com/?cid=0x0:0x2cd0fd73dbe35cf6;
perumahan;Komplek perumahan;Ferji anwar;"GFH9+296, Bukit Tingki, Popayato, Kabupaten Pohuwato, Gorontalo 96467";"Bukit Tingki, Popayato, Kabupaten Pohuwato";GORONTALO;96467;Indonesia;;;;0.527924;1.214.688.577;https://maps.google.com/?cid=0x0:0xdff10f29748dbd98;
perumahan;Kantor Pendaftaran Militer;Rudis koramil 03 popayato;"Ds, Bumi Bahari, Popayato, Kabupaten Pohuwato, Gorontalo 96467";"Bumi Bahari, Popayato, Kabupaten Pohuwato";GORONTALO;96467;Indonesia;082292905205;;;0.4944532;1.214.472.704;https://maps.google.com/?cid=0x0:0x8420094751b872bd;
perumahan;Komplek perumahan;Rumah Kayla Safira Pasandre;"Bumi Bahari, Popayato, Kabupaten Pohuwato, Gorontalo 96467";"Popayato, Kabupaten Pohuwato";GORONTALO;96467;Indonesia;082259748355;;;0.4918712;1.214.449.206;https://maps.google.com/?cid=0x0:0x3e853e99517504be;
perumahan;Komplek perumahan;Rumah Keluarga Besar Linggar;"GFJQ+JF9, Londoun, Kec. Popayato Tim., Kabupaten Pohuwato, Gorontalo";"Kabupaten Pohuwato, Gorontalo";GORONTALO;;Indonesia;;;;0.5315361;1.214.887.412;https://maps.google.com/?cid=0x0:0x9e6cda2b8b62f226;
perumahan;Komplek perumahan;Risto isima;"GFX7+WVJ, Tunas Harapan, Popayato, Kabupaten Pohuwato, Gorontalo 96467";"Tunas Harapan, Popayato, Kabupaten Pohuwato";GORONTALO;96467;Indonesia;;;;0.5498452;1.214.646.448;https://maps.google.com/?cid=0x0:0x5580c85165972f46;
perumahan;Komplek perumahan;Rosmiyati Hasan;"GFG5+QWV, Jalan Desa, Bukit Tingki, Popayato, Kabupaten Pohuwato, Gorontalo 96467";"Jalan Desa, Bukit Tingki, Popayato, Kabupaten Pohuwato";GORONTALO;96467;Indonesia;;;;0.5269992;1.214.597.993;https://maps.google.com/?cid=0x0:0xef1410c2f5cd6531;
perumahan;Komplek perumahan;Rumah Aliska;"GFRJ+P4P, Tahele, Kec. Popayato Tim., Kabupaten Pohuwato, Gorontalo 96467";"Tahele, Kec. Popayato Tim., Kabupaten Pohuwato";GORONTALO;96467;Indonesia;;;;0.5417978;1.214.802.722;https://maps.google.com/?cid=0x0:0x9a3c507646f88e5d;
perumahan;Komplek perumahan;Taman 7 Juni Londoun;"Desa Londoun, Bunto, Kec. Popayato Tim., Kabupaten Pohuwato, Gorontalo 96267";"Bunto, Kec. Popayato Tim., Kabupaten Pohuwato";GORONTALO;96267;Indonesia;;;;0.5355848;1.214.867.144;https://maps.google.com/?cid=0x0:0xf10fe53bb48deba8;
perumahan;Komplek perumahan;Parmangaga;"GFGC+MFR, Bukit Tingki, Popayato, Kabupaten Pohuwato, Gorontalo 96467";"Bukit Tingki, Popayato, Kabupaten Pohuwato";GORONTALO;96467;Indonesia;;;;0.5267375;1.214.711.557;https://maps.google.com/?cid=0x0:0xe47017edac56b74a;
perumahan;Komplek perumahan;Wilayah;"GFWH+6XG, Tahele, Kec. Popayato Tim., Kabupaten Pohuwato, Gorontalo 96467";"Tahele, Kec. Popayato Tim., Kabupaten Pohuwato";GORONTALO;96467;Indonesia;;;;0.5455566;121.479.952;https://maps.google.com/?cid=0x0:0x516e5dc076533c66;
perumahan;Komplek perumahan;Frengki abdjul;"GFG9+83, Bukit Tingki, Popayato, Kabupaten Pohuwato, Gorontalo";"Kabupaten Pohuwato, Gorontalo";GORONTALO;;Indonesia;;;;0.5258125;1.214.676.875;https://maps.google.com/?cid=0x0:0xd514a4b065f225f4;
perumahan;Komplek perumahan;Serly Tangkudung Home;"GFMM+M7H, Tahele, Kec. Popayato Tim., Kabupaten Pohuwato, Gorontalo 96467";"Tahele, Kec. Popayato Tim., Kabupaten Pohuwato";GORONTALO;96467;Indonesia;;;;0.53402;1.214.838.133;https://maps.google.com/?cid=0x0:0x4d47aa098086d3b1;
perumahan;Pembangunan Perumahan;Bengkel Raputri/Rumah Pendamping Desa(PLD);"GGM2+HJ6, Jl. Trans-Sulawesi, Milangodaa, Kec. Popayato Tim., Kabupaten Pohuwato, Gorontalo 96467";"Jl. Trans-Sulawesi, Milangodaa, Kec. Popayato Tim., Kabupaten Pohuwato";GORONTALO;96467;Indonesia;08219141491;;;0.5338531;1.215.015.984;https://maps.google.com/?cid=0x0:0x312646b5c42f6e81;
perumahan;Komplek perumahan;Farida Yusuf Musa;"GGP4+MQX, Milangodaa, Kec. Popayato Tim., Kabupaten Pohuwato, Gorontalo";"Kabupaten Pohuwato, Gorontalo";GORONTALO;;Indonesia;;;;0.5367437;1.215.069.749;https://maps.google.com/?cid=0x0:0x4ea597d1924d9805;
perumahan;perumahan;Gorontalo 96469;"Kabupaten Pohuwato, Gorontalo";"Kabupaten Pohuwato, Gorontalo";GORONTALO;;Indonesia;;;;0.737587;1.217.651.362;https://maps.google.com/?cid=0x0:0xeb07f8fd945f7ccf;
perumahan;perumahan;Rumah bu murti;"JVW5+9MJ, Kalimas, Kec. Taluditi, Kabupaten Pohuwato, Gorontalo 96266";"Kalimas, Kec. Taluditi, Kabupaten Pohuwato";GORONTALO;96266;Indonesia;;;;0.6462039;1.218.597.387;https://maps.google.com/?cid=0x0:0x7d3d12ebd0580a48;
perumahan;Otoritas Perumahan;Sekretariat MARGALUYU 151 Taluditi;"JRM9+3Q, Panca Karsa II, Kec. Taluditi, Kabupaten Pohuwato, Gorontalo";"Kabupaten Pohuwato, Gorontalo";GORONTALO;;Indonesia;;;;0.6326384;1.218.193.936;https://maps.google.com/?cid=0x0:0xedb0106dd46cb7c0;
perumahan;Komplek perumahan;Rumah hadija y nule;"JVHG+M9, Tirto Asri, Kec. Taluditi, Kabupaten Pohuwato, Gorontalo";"Kabupaten Pohuwato, Gorontalo";GORONTALO;;Indonesia;;;;0.6291875;1.218.759.375;https://maps.google.com/?cid=0x0:0xaaf2cb35c4ed0e1a;
perumahan;Komplek perumahan;Rumah aman;"MV27+6F, Kalimas, Kec. Taluditi, Kabupaten Pohuwato, Gorontalo";"Kabupaten Pohuwato, Gorontalo";GORONTALO;;Indonesia;;;;0.650565;1.218.636.433;https://maps.google.com/?cid=0x0:0xd789f7785f359dab;
perumahan;Komplek perumahan;Rumah Ayah Azril;"MV79+F6, Upt. Marisa VI, Kec. Taluditi, Kabupaten Pohuwato, Gorontalo";"Kabupaten Pohuwato, Gorontalo";GORONTALO;;Indonesia;;;;0.6634316;1.218.677.578;https://maps.google.com/?cid=0x0:0x4e1f38379be110ae;
perumahan;Komplek perumahan;Rumah Nanda;"GRQ4+6MJ Dusun Sido Mukti, Jln Trans Taluditi, Manunggal Karya, Kec. Randangan, Kabupaten Pohuwato";"Kabupaten Pohuwato, Gorontalo";GORONTALO;;Indonesia;;;;0.5300531;1.218.155.117;https://maps.google.com/?cid=0x0:0x3b3b43fcb1727f97;
perumahan;Komplek perumahan;dscafbrynti;"JVV4+JV, Kalimas, Kec. Taluditi, Kabupaten Pohuwato, Gorontalo";"Kabupaten Pohuwato, Gorontalo";GORONTALO;;Indonesia;;;;0.644045;121.857.237;https://maps.google.com/?cid=0x0:0x238894c2c18eb38e;
perumahan;Komplek perumahan;RUMAH I KETUT SUKARMA;"HQ2M+WCM, Dusun bali murni, Sari Murni, Kec. Randangan, Kabupaten Pohuwato, Gorontalo 96469";"Dusun bali murni, Sari Murni, Kec. Randangan, Kabupaten Pohuwato";GORONTALO;96469;Indonesia;;;;0.5523396;1.217.835.388;https://maps.google.com/?cid=0x0:0xab8a79e7c52d19a7;
perumahan;Pembangunan Perumahan;Atik diana Home;"Rumah Atik Diana, Panca Karsa I, Kec. Taluditi, Kabupaten Pohuwato, Gorontalo 96469";"Panca Karsa I, Kec. Taluditi, Kabupaten Pohuwato";GORONTALO;96469;Indonesia;085240105046;;;0.6019577;1.218.049.816;https://maps.google.com/?cid=0x0:0x2a7e61cc918c23b5;
perumahan;Komplek perumahan;Rumah Riri Djiko;"QQH3+7FX, Malango, Kec. Taluditi, Kabupaten Pohuwato, Gorontalo 96469";"Malango, Kec. Taluditi, Kabupaten Pohuwato";GORONTALO;96469;Indonesia;;;;0.7782336;1.217.537.404;https://maps.google.com/?cid=0x0:0xedae80b2fcd59dea;
perumahan;Pertanian;Pp gorontalo;"JRM8+26, Panca Karsa II, Kec. Taluditi, Kabupaten Pohuwato, Gorontalo 96469";"Panca Karsa II, Kec. Taluditi, Kabupaten Pohuwato";GORONTALO;96469;Indonesia;;;;0.6322586;1.218.155.104;https://maps.google.com/?cid=0x0:0x365cc9a5a3e9865c;
perumahan;perumahan;Ghofur Jaelani;"QQVX+JPP, Mekarti Jaya, Kec. Taluditi, Kabupaten Pohuwato, Gorontalo 96469";"Mekarti Jaya, Kec. Taluditi, Kabupaten Pohuwato";GORONTALO;96469;Indonesia;;;;0.7940779;1.217.993.168;https://maps.google.com/?cid=0x0:0xd9b3f799242104db;
perumahan;perumahan;Lokodoka Binuang;"XPPP+9MR, Lokodoka, Kec. Gadung, Kabupaten Buol, Sulawesi Tengah";"Kabupaten Buol, Sulawesi Tengah";GORONTALO;;Indonesia;;;;0.9859896;1.217.366.444;https://maps.google.com/?cid=0x0:0xc269012bcd201d03;
perumahan;perumahan;Devi towalu;"JVP3+H3W, Tirto Asri, Kec. Taluditi, Kabupaten Pohuwato, Gorontalo 96266";"Tirto Asri, Kec. Taluditi, Kabupaten Pohuwato";GORONTALO;96266;Indonesia;;;;0.6364815;121.852.714;https://maps.google.com/?cid=0x0:0x41ea20cf1ff185c8;
perumahan;Komplek perumahan;Berkah sapi wahyu;"Unnamed Road, Panca Karsa I, Kec. Taluditi, Kabupaten Pohuwato, Gorontalo 96469";"Panca Karsa I, Kec. Taluditi, Kabupaten Pohuwato";GORONTALO;96469;Indonesia;085217212728;;;0.5982844;1.218.008.143;https://maps.google.com/?cid=0x0:0x285e37e64dcdfb61;
perumahan;perumahan;Rumah Rafa mokondo tida ada doi;"JVJ9+M3C, Tirto Asri, Kec. Taluditi, Kabupaten Pohuwato, Gorontalo 96266";"Tirto Asri, Kec. Taluditi, Kabupaten Pohuwato";GORONTALO;96266;Indonesia;;;;0.6316766;1.218.676.464;https://maps.google.com/?cid=0x0:0xe5121c916b3098b3;
perumahan;Komplek perumahan;Walet 02 Sumber rejeki;"JRWH+C28, Panca Karsa II, Kec. Taluditi, Kabupaten Pohuwato, Gorontalo";"Kabupaten Pohuwato, Gorontalo";GORONTALO;;Indonesia;;;;0.6460493;1.218.275.733;https://maps.google.com/?cid=0x0:0xb2e1567f7c99aba2;
perumahan;Komplek perumahan;Gita kampona;"MR4C+2W8, Mekarti Jaya, Kec. Taluditi, Kabupaten Pohuwato, Gorontalo 96469";"Mekarti Jaya, Kec. Taluditi, Kabupaten Pohuwato";GORONTALO;96469;Indonesia;;;;0.6550419;1.218.223.262;https://maps.google.com/?cid=0x0:0x415876b4cd5f7e6;
perumahan;Kantor Pemerintahan Wilayah;Rumah kepala desa tirto asri;"JRM8+9R3, Panca Karsa II, Kec. Taluditi, Kabupaten Pohuwato, Gorontalo";"Kabupaten Pohuwato, Gorontalo";GORONTALO;;Indonesia;;;;0.6333808;1.218.170.396;https://maps.google.com/?cid=0x0:0x4e23ac38970c781b;
perumahan;Komplek perumahan;Mas cipto;"MR3C+FC4, Mekarti Jaya, Kec. Taluditi, Kabupaten Pohuwato, Gorontalo 96469";"Mekarti Jaya, Kec. Taluditi, Kabupaten Pohuwato";GORONTALO;96469;Indonesia;;;;0.6543088;1.218.199.264;https://maps.google.com/?cid=0x0:0xf62344760d315df9;
perumahan;Perhimpunan Pengembang Perumahan;Rumah RIDAWANZO;"HRXC+VRQ, ll, Panca Karsa I, Kec. Taluditi, Kabupaten Pohuwato, Gorontalo";"Kabupaten Pohuwato, Gorontalo";GORONTALO;;Indonesia;;;;0.5997013;121.822.098;https://maps.google.com/?cid=0x0:0xc85655c557269ec5;
perumahan;Komplek perumahan;rumah faris;"MV68+XPX, Upt. Marisa VI, Kec. Taluditi, Kabupaten Pohuwato, Gorontalo";"Kabupaten Pohuwato, Gorontalo";GORONTALO;;Indonesia;;;;0.6624773;1.218.668.477;https://maps.google.com/?cid=0x0:0xfa9e618830fb46bc;
perumahan;Sekolah;Kompleks Sdn 01 Taluditi;"HRXC+VRQ, Panca Karsa I, Kec. Taluditi, Kabupaten Pohuwato, Gorontalo 96469";"Panca Karsa I, Kec. Taluditi, Kabupaten Pohuwato";GORONTALO;96469;Indonesia;;;;0.5997013;121.822.098;https://maps.google.com/?cid=0x0:0x621b04da5c3486a5;
perumahan;Agen Properti;Rumah Rosuli;"MR2C+5C, Mekarti Jaya, Kec. Taluditi, Kabupaten Pohuwato, Gorontalo";"Kabupaten Pohuwato, Gorontalo";GORONTALO;;Indonesia;;;;0.650455;121.821.105;https://maps.google.com/?cid=0x0:0x18697f12fe856750;
perumahan;Komplek perumahan;Home NAKA;"HRXC+VRQ Home NAKA, Panca Karsa I, Kec. Taluditi, Kabupaten Pohuwato, Gorontalo 96469";"Panca Karsa I, Kec. Taluditi, Kabupaten Pohuwato";GORONTALO;96469;Indonesia;;;;0.5997013;121.822.098;https://maps.google.com/?cid=0x0:0x4d0131b7bc39f8e1;
perumahan;Perhimpunan Pengembang Perumahan;053GARAGE;"JVP3+Q6, Tirto Asri, Kec. Taluditi, Kabupaten Pohuwato, Gorontalo";"Kabupaten Pohuwato, Gorontalo";GORONTALO;;Indonesia;;;;0.6368975;121.853.067;https://maps.google.com/?cid=0x0:0xf208b1817dc8f8d0;
perumahan;Komplek perumahan;Rumah ARAR;"JVQ3+83, Tirto Asri, Kec. Taluditi, Kabupaten Pohuwato, Gorontalo 96266";"Tirto Asri, Kec. Taluditi, Kabupaten Pohuwato";GORONTALO;96266;Indonesia;;;;0.6383683;1.218.521.152;https://maps.google.com/?cid=0x0:0x995a63ec1c2bace5;
perumahan;perumahan;Gorontalo 96468;"Kec. Lemito, Kabupaten Pohuwato, Gorontalo";"Kabupaten Pohuwato, Gorontalo";GORONTALO;;Indonesia;;;;0.7390376;1.215.826.642;https://maps.google.com/?cid=0x0:0xbcbfbe464a8e6a55;
perumahan;Pembangunan Perumahan;Wanggarasi timur;"GPP2+GMP, Wonggarasi Tim., Kec. Wanggarasi, Kabupaten Pohuwato, Gorontalo";"Kabupaten Pohuwato, Gorontalo";GORONTALO;;Indonesia;;;;0.5363384;1.217.017.149;https://maps.google.com/?cid=0x0:0xee439975c62f1af0;
perumahan;perumahan;wgtt;"GMMR+445, Wonggarasi Tim., Kec. Wanggarasi, Kabupaten Pohuwato, Gorontalo";"Kabupaten Pohuwato, Gorontalo";GORONTALO;;Indonesia;;;;0.5327375;1.216.903.244;https://maps.google.com/?cid=0x0:0xc56ae36161f5f8b1;
perumahan;Komplek perumahan;Rafiz Home;"HJ3Q+P83, Jl. Trans-Sulawesi, Yipilo, Kec. Wanggarasi, Kabupaten Pohuwato, Gorontalo 96468";"Jl. Trans-Sulawesi, Yipilo, Kec. Wanggarasi, Kabupaten Pohuwato";GORONTALO;96468;Indonesia;;;;0.5541992;1.216.389.373;https://maps.google.com/?cid=0x0:0xf48a4ba8bff702db;
perumahan;perumahan;Kios Bilzia Pink;"PPR7+RGH, Tuweya, Kec. Wanggarasi, Kabupaten Pohuwato, Gorontalo";"Kabupaten Pohuwato, Gorontalo";GORONTALO;;Indonesia;;;;0.7420507;1.217.138.458;https://maps.google.com/?cid=0x0:0x34a52e832ddfbfdb;
perumahan;Komplek perumahan;jihan bumulo;"GHWF+589, Lemito Utara, Kec. Lemito, Kabupaten Pohuwato, Gorontalo 96468";"Lemito Utara, Kec. Lemito, Kabupaten Pohuwato";GORONTALO;96468;Indonesia;;;;0.5454009;1.215.731.792;https://maps.google.com/?cid=0x0:0x2ae60f2b44d77922;
perumahan;;???????? ??????????;"HPW3+FF, Wonggarasi Tim., Kec. Wanggarasi, Kabupaten Pohuwato, Gorontalo";"Kabupaten Pohuwato, Gorontalo";GORONTALO;;Indonesia;;;;0.5960559;1.217.034.739;https://maps.google.com/?cid=0x0:0xf30b200d471bb90a;
perumahan;Komplek perumahan;Rumah Ikha Komendangi;"HH2C+44H, Lemito Utara, Kec. Lemito, Kabupaten Pohuwato, Gorontalo 96468";"Lemito Utara, Kec. Lemito, Kabupaten Pohuwato";GORONTALO;96468;Indonesia;;;;0.5508869;1.215.700.849;https://maps.google.com/?cid=0x0:0x277a33f13dc7c723;
perumahan;Komplek perumahan;Perumahan KAT Desa Kelapa Lima;"HFGW+F64, Klp. Lima, Kec. Popayato Tim., Kabupaten Pohuwato, Gorontalo";"Kabupaten Pohuwato, Gorontalo";GORONTALO;;Indonesia;;;;0.5761425;1.214.955.758;https://maps.google.com/?cid=0x0:0xca93ce5af5ae33e3;
perumahan;Komplek perumahan;Rumah Regina;"HJ45+RXJ, Wonggarasi Tengah, Kec. Lemito, Kabupaten Pohuwato, Gorontalo";"Kabupaten Pohuwato, Gorontalo";GORONTALO;;Indonesia;;;;0.557092;1.216.098.818;https://maps.google.com/?cid=0x0:0xbcff822668a5fb71;
perumahan;perumahan;Rumah opa kiana;"GMJV+FQ5, Jl. Trans-Sulawesi Dusun Cempaka Putih, Wonggarasi Tim., Kec. Wanggarasi, Kabupaten Pohuwato, Gorontalo";"Kabupaten Pohuwato, Gorontalo";GORONTALO;;Indonesia;;;;0.5315757;1.216.946.018;https://maps.google.com/?cid=0x0:0xd28860dcf261fe71;
perumahan;Komplek perumahan;Rumah Le Darminto;"HJ63+C97, Jl. Trans-Sulawesi, Dusun Hulota, Wonggarasi Tengah, Kec. Lemito, Kabupaten Pohuwato, Gorontalo";"Kabupaten Pohuwato, Gorontalo";GORONTALO;;Indonesia;;;;0.5610286;1.216.034.204;https://maps.google.com/?cid=0x0:0xa6496d264ec37e0;
perumahan;Komplek perumahan;Nover;"GGV9+99H, Jl. Trans-Sulawesi, Milangodaa, Kec. Popayato Tim., Kabupaten Pohuwato, Gorontalo";"Kabupaten Pohuwato, Gorontalo";GORONTALO;;Indonesia;;;;0.5434459;1.215.184.802;https://maps.google.com/?cid=0x0:0x43ed5866cceb0869;
perumahan;Komplek perumahan;Debby Pratiwi;"GPP2+JV2, Wonggarasi Tim., Kec. Wanggarasi, Kabupaten Pohuwato, Gorontalo 96469";"Wonggarasi Tim., Kec. Wanggarasi, Kabupaten Pohuwato";GORONTALO;96469;Indonesia;;;;0.5364025;1.217.022.056;https://maps.google.com/?cid=0x0:0x8529f057570d5a89;
perumahan;Komplek perumahan;Home Luna;"HH27+FH, Kenari, Kec. Lemito, Kabupaten Pohuwato, Gorontalo";"Kabupaten Pohuwato, Gorontalo";GORONTALO;;Indonesia;;;;0.5511912;1.215.650.715;https://maps.google.com/?cid=0x0:0xb7a92fb36369b323;
perumahan;Komplek perumahan;Ferji anwar;"GFH9+296, Bukit Tingki, Popayato, Kabupaten Pohuwato, Gorontalo 96467";"Bukit Tingki, Popayato, Kabupaten Pohuwato";GORONTALO;96467;Indonesia;;;;0.527924;1.214.688.577;https://maps.google.com/?cid=0x0:0xdff10f29748dbd98;
perumahan;Komplek perumahan;Rumah Nola Pkya;"HH2C+HPH, Jl. Trans-Sulawesi, Lemito Utara, Kec. Lemito, Kabupaten Pohuwato, Gorontalo 96468";"Jl. Trans-Sulawesi, Lemito Utara, Kec. Lemito, Kabupaten Pohuwato";GORONTALO;96468;Indonesia;;;;0.5514999;1.215.718.149;https://maps.google.com/?cid=0x0:0x417765a4f69f5608;
perumahan;Komplek perumahan;Rumah haya nako;"HH64+XP5, Balobalonge, Kec. Lemito, Kabupaten Pohuwato, Gorontalo 96468";"Balobalonge, Kec. Lemito, Kabupaten Pohuwato";GORONTALO;96468;Indonesia;;;;0.5623875;1.215.568.594;https://maps.google.com/?cid=0x0:0x8fbedc34015076b4;
perumahan;Pembangunan Perumahan;Basehome;"HH2C+PR3, Lemito Utara, Kec. Lemito, Kabupaten Pohuwato, Gorontalo 96468";"Lemito Utara, Kec. Lemito, Kabupaten Pohuwato";GORONTALO;96468;Indonesia;;;;0.551757;1.215.720.469;https://maps.google.com/?cid=0x0:0xb8c06e28fa10664f;
perumahan;Komplek perumahan;Bele Le Oka;"HJ2Q+C5, Suka Damai, Kec. Lemito, Kabupaten Pohuwato, Gorontalo";"Kabupaten Pohuwato, Gorontalo";GORONTALO;;Indonesia;;;;0.5510031;1.216.379.573;https://maps.google.com/?cid=0x0:0x96b0650a2820ec96;
perumahan;Komplek perumahan;belle dupu;"PP49+6R7 Lorong depan Baznas, Tuweya, Kec. Wanggarasi, Kabupaten Pohuwato, Gorontalo";"Kabupaten Pohuwato, Gorontalo";GORONTALO;;Indonesia;;;;0.7055278;1.217.195.459;https://maps.google.com/?cid=0x0:0xf22521e242865399;
perumahan;perumahan;Bele le mudin;"PM74+JPG, Yipilo, Kec. Wanggarasi, Kabupaten Pohuwato, Gorontalo";"Kabupaten Pohuwato, Gorontalo";GORONTALO;;Indonesia;;;;0.714069;1.216.568.296;https://maps.google.com/?cid=0x0:0xad855bf3afed06b1;
