Category,Real Category,Business Name,Address,City,State,Postal Code,Country,Phone,Email,Website,Latitude,Longitude,Map Link,Details Link
toko bangunan,Toko Bahan Bangunan,Toko Multi Bangunan,"Jl. Diponegoro No.c14-15, Karema, Kec. Mamuju, Kabupaten Mamuju, Sulawesi Barat 91512","Karema, Kec. Mamuju, Kabupaten Mamuju",SULAWESI BARAT,91512.0,Indonesia,81242298806.0,,,-2.6862595,118.8768742,https://maps.google.com/?cid=0x0:0xd05c6306c1a3648f,
toko bangunan,Toko Bahan Bangunan,Toko. Fajar Bangunan - Mamuju,"8V6G+7WH, Jl. Diponegoro, Karema, Kec. Mamuju, Kabupaten Mamuju, Sulawesi Barat 91512","Jl. Diponegoro, Karema, Kec. Mamuju, Kabupaten Mamuju",SULAWESI BARAT,91512.0,Indonesia,85930982364.0,,,-2.689321,118.8773494,https://maps.google.com/?cid=0x0:0x6d4e74a959cf61d6,
toko bangunan,toko bangunan,Aralle,"Kec. Aralle, Kabupaten Mamasa, Sulawesi Barat","Kabupaten Mamasa, Sulawesi Barat",SULAWESI BARAT,,Indonesia,,,,-2.883524,119.159416,https://maps.google.com/?cid=0x0:0xc10ce5224c8ce2b,
toko bangunan,Toko Perlengkapan Rumah,Toko Al-Ikhlas Bangunan,"H8Q7+J34, Jl. Mr. Muh. Yamin, Pekkabata, Kec. Polewali, Kabupaten Polewali Mandar, Sulawesi Barat 91311","Jl. Mr. Muh. Yamin, Pekkabata, Kec. Polewali, Kabupaten Polewali Mandar",SULAWESI BARAT,91311.0,Indonesia,,,,-3.4109992,119.3126973,https://maps.google.com/?cid=0x0:0x2a862f7f8065e7d6,
toko bangunan,Toko Bahan Bangunan,Toko bangunan sinar anugerah,"Jl. Mr. Muh. Yamin No.94, Pekkabata, Kec. Polewali, Kabupaten Polewali Mandar, Sulawesi Barat 91311","Pekkabata, Kec. Polewali, Kabupaten Polewali Mandar",SULAWESI BARAT,91311.0,Indonesia,81373974815.0,,,-3.4094533,119.3103074,https://maps.google.com/?cid=0x0:0x2cfad29250609a94,
toko bangunan,Toko Bahan Bangunan,SUMBER HARAPAN,"Karema, Kec. Mamuju, Kabupaten Mamuju, Sulawesi Barat","Kabupaten Mamuju, Sulawesi Barat",SULAWESI BARAT,,Indonesia,85341996114.0,,,-2.6770968,118.8869489,https://maps.google.com/?cid=0x0:0xf393bd54539f675b,
toko bangunan,Toko Bahan Bangunan,Toko Delta Bangunan,"8V6H+X4H, Karema, Kec. Mamuju, Kabupaten Mamuju, Sulawesi Barat 91512","Karema, Kec. Mamuju, Kabupaten Mamuju",SULAWESI BARAT,91512.0,Indonesia,81524333299.0,,,-2.6875662,118.8778488,https://maps.google.com/?cid=0x0:0x600c10af92b1cb4f,
toko bangunan,Toko Bahan Bangunan,TOKO AKMAL BANGUNAN,"MM96+4Q5, Takkalasi, Kec. Balusu, Kabupaten Barru, Sulawesi Selatan 90762","Takkalasi, Kec. Balusu, Kabupaten Barru",SULAWESI BARAT,90762.0,Indonesia,82195673989.0,,,-4.332339,119.6618766,https://maps.google.com/?cid=0x0:0x596f43ca68d323d8,
toko bangunan,Perhimpunan Pengembang Perumahan,Toko Berkah Bangunan,"P8HH+5J9, Malei, Pedongga, Kab. Pasangkayu, Sulawesi Barat 91571","Malei, Pedongga, Kab. Pasangkayu",SULAWESI BARAT,91571.0,Indonesia,82193524222.0,,,-1.2720843,119.3290953,https://maps.google.com/?cid=0x0:0x4fe58465f2606352,
toko bangunan,Toko Bahan Bangunan,Toko Valva Bangunan,"R995+F8H, Pasangkayu, Kec. Pasangkayu, Kab. Pasangkayu, Sulawesi Barat 91574","Pasangkayu, Kec. Pasangkayu, Kab. Pasangkayu",SULAWESI BARAT,91574.0,Indonesia,85341505076.0,,,-1.1812798,119.3583997,https://maps.google.com/?cid=0x0:0xba09a047162b033,
toko bangunan,Toko Bahan Bangunan,Sinar bangunan,"394H+7F9 Sinar bangunan, Mamasa, Kec. Mamasa, Kabupaten Mamasa, Sulawesi Barat 91365","Mamasa, Kec. Mamasa, Kabupaten Mamasa",SULAWESI BARAT,91365.0,Indonesia,,,,-2.9443482,119.3787483,https://maps.google.com/?cid=0x0:0x8d78651b563f3b73,
toko bangunan,toko bangunan,Sulawesi Barat 91373,"Kabupaten Mamasa, Sulawesi Barat","Kabupaten Mamasa, Sulawesi Barat",SULAWESI BARAT,,Indonesia,,,,-2.7933646,119.1623231,https://maps.google.com/?cid=0x0:0x63837cb8dbe972c6,
toko bangunan,toko bangunan,Sulawesi Barat 91366,"Kabupaten Mamasa, Sulawesi Barat","Kabupaten Mamasa, Sulawesi Barat",SULAWESI BARAT,,Indonesia,,,,-3.0188114,119.2785638,https://maps.google.com/?cid=0x0:0xf1c681e2dfa30cec,
toko bangunan,Toko Bahan Bangunan,USAHA BUNTU MUSSA',"X8VG+JVV, Jalan Poros Pena' Balla Tumuka, Balla Bar., Kec. Balla, Kabupaten Mamasa, Sulawesi Barat 91366","Jalan Poros Pena' Balla Tumuka, Balla Bar., Kec. Balla, Kabupaten Mamasa",SULAWESI BARAT,91366.0,Indonesia,82196588111.0,,,-3.0058868,119.327176,https://maps.google.com/?cid=0x0:0xfe717888dbc10e4f,
toko bangunan,Toko Bahan Bangunan,Toko Bangunan Usaha Abadi,"25HW+2JC, Bambang Buda, Kec. Rantebulahan Tim., Kabupaten Mamasa, Sulawesi Barat 91371","Bambang Buda, Kec. Rantebulahan Tim., Kabupaten Mamasa",SULAWESI BARAT,91371.0,Indonesia,81264671628.0,,,-2.9724282,119.1965086,https://maps.google.com/?cid=0x0:0xae0c94fbc2df0fdf,
toko bangunan,Toko Bahan Bangunan,Persada Bangka,"Jl.bangka Raya no.1 Perapatan Bangka 7 Dan 8, Dekat Kemang, RT.8/RW.7, Pela Mampang, Kec. Mampang Prpt., Kota Jakarta Selatan, Daerah Khusus Ibukota Jakarta 12720","Dekat Kemang, RT.8/RW.7, Pela Mampang, Kec. Mampang Prpt., Kota Jakarta Selatan",SULAWESI BARAT,12720.0,Indonesia,8111995519.0,,,-6.249422,106.8144831,https://maps.google.com/?cid=0x0:0x952917c64239e610,
toko bangunan,Toko Bahan Bangunan,Material Bangunan Cahaya Baru,"Jl. Raya Cilandak KKO No.5, RT.14/RW.8, Ragunan, Ps. Minggu, Kota Jakarta Selatan, Daerah Khusus Ibukota Jakarta 12550","RT.14/RW.8, Ragunan, Ps. Minggu, Kota Jakarta Selatan",SULAWESI BARAT,12550.0,Indonesia,,,,-6.3102728,106.814126,https://maps.google.com/?cid=0x0:0x2d6915f32e08c8b7,
toko bangunan,Toko Bahan Bangunan,Toko Bangunan TB. Villa Terusan,"Jl. Pd. Cabe 1 Jl. Villa Terusan No.8A, Pd. Cabe Ilir, Kec. Pamulang, Kota Tangerang Selatan, Banten 15419","Pd. Cabe Ilir, Kec. Pamulang, Kota Tangerang Selatan",SULAWESI BARAT,15419.0,Indonesia,85717140303.0,,,-6.325913,106.77184,https://maps.google.com/?cid=0x0:0xb0450b7b41c527e4,
toko bangunan,Toko Bahan Bangunan,Tb Sinar Bangunan,"Jl. Cililitan Besar No.2, RT.12/RW.2, Kb. Pala, Kec. Makasar, Kota Jakarta Timur, Daerah Khusus Ibukota Jakarta 13650","RT.12/RW.2, Kb. Pala, Kec. Makasar, Kota Jakarta Timur",SULAWESI BARAT,13650.0,Indonesia,,,,-6.2650999,106.8742611,https://maps.google.com/?cid=0x0:0xe7fcd765a1310ae9,
toko bangunan,Toko Bahan Bangunan,Tb. Sama Sama Bela,"Jl. Budi Mulya Siaga 6 No.9, RT.1/RW.11, Pademangan Bar., Kec. Pademangan, Jkt Utara, Daerah Khusus Ibukota Jakarta 14420","RT.1/RW.11, Pademangan Bar., Kec. Pademangan, Jkt Utara",SULAWESI BARAT,14420.0,Indonesia,81385580195.0,,,-6.1287434,106.8437392,https://maps.google.com/?cid=0x0:0x663c9a742be9a343,
toko bangunan,Toko Bahan Bangunan,Pusat Bangunan,"Wana Kerta, Kec. Sindang Jaya, Kabupaten Tangerang, Banten 15560","Kec. Sindang Jaya, Kabupaten Tangerang",SULAWESI BARAT,15560.0,Indonesia,87877101011.0,,,-6.1672546,106.5015192,https://maps.google.com/?cid=0x0:0x75389efb021ce804,
toko bangunan,Toko Bahan Bangunan,TB. Baru Jaya,"RT1, Jl. Raya Cilandak KKO No.5, RT.1/RW.5, Ragunan, Ps. Minggu, Kota Jakarta Selatan, Daerah Khusus Ibukota Jakarta 12560","Jl. Raya Cilandak KKO No.5, RT.1/RW.5, Ragunan, Ps. Minggu, Kota Jakarta Selatan",SULAWESI BARAT,12560.0,Indonesia,2178840920.0,,,-6.2950478,106.8161875,https://maps.google.com/?cid=0x0:0x835a237c459e5ce1,
toko bangunan,Toko Bahan Bangunan,BUN BANGUNAN | PUSAT BAHAN BANGUNAN,"151711, Jalan Raya Ranca Serdang Jl. Raya Rancaiyuh No.156, Ranca Iyuh, Kec. Panongan, Kabupaten Tangerang, Banten 15711","Jalan Raya Ranca Serdang Jl. Raya Rancaiyuh No.156, Ranca Iyuh, Kec. Panongan, Kabupaten Tangerang",SULAWESI BARAT,15711.0,Indonesia,,,,-6.3102942,106.5344627,https://maps.google.com/?cid=0x0:0x3ffc6e95ffec98d1,
toko bangunan,Toko Bahan Bangunan,"TB.OBOR ( Toko Bahan Bangunan Material OBOR ), Duren Jaya, Bekasi Timur, Jawa Barat, Indonesia","Jl. Pahlawan No.8, RT.006/RW.004, Duren Jaya, Kec. Bekasi Tim., Kota Bks, Jawa Barat 17111","RT.006/RW.004, Duren Jaya, Kec. Bekasi Tim., Kota Bks",SULAWESI BARAT,17111.0,Indonesia,85890265990.0,,,-6.2414598,107.0269303,https://maps.google.com/?cid=0x0:0xe279bdc9c3be96c6,
toko bangunan,Toko Bahan Bangunan,Toko Bangunan Usaha Abadi,"25HW+2JC, Bambang Buda, Kec. Rantebulahan Tim., Kabupaten Mamasa, Sulawesi Barat 91371","Bambang Buda, Kec. Rantebulahan Tim., Kabupaten Mamasa",SULAWESI BARAT,91371.0,Indonesia,81264671628.0,,,-2.9724282,119.1965086,https://maps.google.com/?cid=0x0:0xae0c94fbc2df0fdf,
toko bangunan,Pasar bahan bangunan,Toko Usaha Baru Mambi,"352G+6HQ, Mambi, Kec. Mambi, Kabupaten Mamasa, Sulawesi Barat 91371","Mambi, Kec. Mambi, Kabupaten Mamasa",SULAWESI BARAT,91371.0,Indonesia,81241272240.0,,,-2.949416,119.176496,https://maps.google.com/?cid=0x0:0xdff3cf7cb85a095e,
toko bangunan,Toko Bahan Bangunan,TB Bambang Utama,"Jl. Sersan Aning No.12, RT.04/RW.07, Depok, Kec. Pancoran Mas, Kota Depok, Jawa Barat 16431","RT.04/RW.07, Depok, Kec. Pancoran Mas, Kota Depok",SULAWESI BARAT,16431.0,Indonesia,89519202122.0,,,-6.4007939,106.8297264,https://maps.google.com/?cid=0x0:0x7f63fcb6952a6c5b,
toko bangunan,Toko Bahan Bangunan,Tb Bambang Jaya Material,"Jl. Pecenongan No.49, RT.2/RW.4, Kb. Klp., Kecamatan Gambir, Kota Jakarta Pusat, Daerah Khusus Ibukota Jakarta 10120","RT.2/RW.4, Kb. Klp., Kecamatan Gambir, Kota Jakarta Pusat",SULAWESI BARAT,10120.0,Indonesia,,,,-6.163817,106.8263202,https://maps.google.com/?cid=0x0:0x55a2d44e37067081,
toko bangunan,toko bangunan,Buntumalangka,"Kec. Buntu Malangka, Kabupaten Mamasa, Sulawesi Barat","Kabupaten Mamasa, Sulawesi Barat",SULAWESI BARAT,,Indonesia,,,,-2.8239414,119.1681373,https://maps.google.com/?cid=0x0:0x5c7500e7c5e86451,
toko bangunan,Toko Bahan Bangunan,Toko Multi Bangunan,"Jl. Diponegoro No.c14-15, Karema, Kec. Mamuju, Kabupaten Mamuju, Sulawesi Barat 91512","Karema, Kec. Mamuju, Kabupaten Mamuju",SULAWESI BARAT,91512.0,Indonesia,81242298806.0,,,-2.6862595,118.8768742,https://maps.google.com/?cid=0x0:0xd05c6306c1a3648f,
toko bangunan,Toko Bahan Bangunan,Toko Bangunan Usaha Abadi,"25HW+2JC, Bambang Buda, Kec. Rantebulahan Tim., Kabupaten Mamasa, Sulawesi Barat 91371","Bambang Buda, Kec. Rantebulahan Tim., Kabupaten Mamasa",SULAWESI BARAT,91371.0,Indonesia,81264671628.0,,,-2.9724282,119.1965086,https://maps.google.com/?cid=0x0:0xae0c94fbc2df0fdf,
toko bangunan,Toko Bahan Bangunan,Toko Masakke Bangunan,"396H+C2H, Bunta Buda, Kec. Mamasa, Kabupaten Mamasa, Sulawesi Barat 91365","Bunta Buda, Kec. Mamasa, Kabupaten Mamasa",SULAWESI BARAT,91365.0,Indonesia,,,,-2.9390152,119.3775121,https://maps.google.com/?cid=0x0:0xf76c8fac29f894c3,
toko bangunan,Toko Bahan Bangunan,Toko buyung bangunan,"5V55+QW8, Jl. Poros Majene - Mamuju, Tampalang, Kec. Tapalang, Kabupaten Mamuju, Sulawesi Barat 91352","Jl. Poros Majene - Mamuju, Tampalang, Kec. Tapalang, Kabupaten Mamuju",SULAWESI BARAT,91352.0,Indonesia,,,,-2.840579,118.8598397,https://maps.google.com/?cid=0x0:0xdaa7f0c9eeaba7c8,
toko bangunan,Toko Bahan Bangunan,TOKO FAJAR BANGUNAN MAPILLI,"Jl. Poros Majene - Mamuju, Baru, Kec. Luyo, Kabupaten Polewali Mandar, Sulawesi Barat 91352","Baru, Kec. Luyo, Kabupaten Polewali Mandar",SULAWESI BARAT,91352.0,Indonesia,82292595546.0,,,-3.4189333,119.164406,https://maps.google.com/?cid=0x0:0x89a76f2924e54666,
toko bangunan,Toko Bahan Bangunan,Toko Delta Bangunan,"8V6H+X4H, Karema, Kec. Mamuju, Kabupaten Mamuju, Sulawesi Barat 91512","Karema, Kec. Mamuju, Kabupaten Mamuju",SULAWESI BARAT,91512.0,Indonesia,81524333299.0,,,-2.6875662,118.8778488,https://maps.google.com/?cid=0x0:0x600c10af92b1cb4f,
toko bangunan,Toko Bahan Bangunan,Toko. Fajar Bangunan - Mamuju,"8V6G+7WH, Jl. Diponegoro, Karema, Kec. Mamuju, Kabupaten Mamuju, Sulawesi Barat 91512","Jl. Diponegoro, Karema, Kec. Mamuju, Kabupaten Mamuju",SULAWESI BARAT,91512.0,Indonesia,85930982364.0,,,-2.689321,118.8773494,https://maps.google.com/?cid=0x0:0x6d4e74a959cf61d6,
toko bangunan,Kios,Toko Bangunan To Tambayako,"Jl. RE Martadinata No.Kel, Simboro, Kec. Simboro Dan Kepulauan, Kab. Mamuju, Sulawesi Barat 91512","Simboro, Kec. Simboro Dan Kepulauan, Kab. Mamuju",SULAWESI BARAT,91512.0,Indonesia,,,,-2.6825789,118.857926,https://maps.google.com/?cid=0x0:0x3b9dad02b3718599,
toko bangunan,Toko,Toko Fajar Bangunan Majene,"pakkola, Jl. Mayjen Azis Bustam, Banggae, Kec. Banggae, Kabupaten Majene, Sulawesi Barat 91412","Jl. Mayjen Azis Bustam, Banggae, Kec. Banggae, Kabupaten Majene",SULAWESI BARAT,91412.0,Indonesia,81355566646.0,,,-3.5372746,118.9682725,https://maps.google.com/?cid=0x0:0xcfb27e4cdc8945d6,
toko bangunan,Toko Bahan Bangunan,Toko Bahan Bangunan Al Kautsar,"Jl. Poros Polewali, Matakali, Mamuju, Kabupaten Polewali Mandar, Sulawesi Barat 91315","Matakali, Mamuju, Kabupaten Polewali Mandar",SULAWESI BARAT,91315.0,Indonesia,85230420335.0,,,-3.388534,119.2787519,https://maps.google.com/?cid=0x0:0x59411f55b96d60ab,
toko bangunan,Perhimpunan Pengembang Perumahan,Toko Berkah Bangunan,"P8HH+5J9, Malei, Pedongga, Kab. Pasangkayu, Sulawesi Barat 91571","Malei, Pedongga, Kab. Pasangkayu",SULAWESI BARAT,91571.0,Indonesia,82193524222.0,,,-1.2720843,119.3290953,https://maps.google.com/?cid=0x0:0x4fe58465f2606352,
toko bangunan,Toko Bahan Bangunan,Toko Indo Bangunan,"JL A Jl. Syukur Rahim No.20-22, Banggae, Kec. Banggae, Kabupaten Majene, Sulawesi Barat","Kabupaten Majene, Sulawesi Barat",SULAWESI BARAT,,Indonesia,42221321.0,,,-3.544385,118.9661537,https://maps.google.com/?cid=0x0:0x79968e5059e72082,
toko bangunan,Toko Bahan Bangunan,Toko Mapan Bangunan,"J66F+CVP, Sumberejo, Kec. Wonomulyo, Kabupaten Polewali Mandar, Sulawesi Barat 91352","Sumberejo, Kec. Wonomulyo, Kabupaten Polewali Mandar",SULAWESI BARAT,91352.0,Indonesia,82190955225.0,,,-3.3889059,119.2247017,https://maps.google.com/?cid=0x0:0xaad22bfe1044cd4e,
toko bangunan,Toko Bahan Bangunan,Toko Tujuh Dua Jaya,"H88X+5MV, Mammi, Kec. Binuang, Kabupaten Polewali Mandar, Sulawesi Barat 91315","Mammi, Kec. Binuang, Kabupaten Polewali Mandar",SULAWESI BARAT,91315.0,Indonesia,87830100006.0,,,-3.4345087,119.3491832,https://maps.google.com/?cid=0x0:0xdaab030b506e578a,
toko bangunan,Toko Bahan Bangunan,Toko bahan bangunan Bumi Rahayu,"H6XM+CP6, Campurjo, Kec. Wonomulyo, Kabupaten Polewali Mandar, Sulawesi Barat 91352","Campurjo, Kec. Wonomulyo, Kabupaten Polewali Mandar",SULAWESI BARAT,91352.0,Indonesia,895800601598.0,,,-3.4013997,119.2336419,https://maps.google.com/?cid=0x0:0x8fae3a4123155380,
toko bangunan,Komplek perumahan,dusun tanete,"55CG+5C8 Sodangan, Buntumalangka, Kec. Buntu Malangka, Kabupaten Mamasa, Sulawesi Barat 91373","Buntumalangka, Kec. Buntu Malangka, Kabupaten Mamasa",SULAWESI BARAT,91373.0,Indonesia,,,,-2.8295875,119.1760917,https://maps.google.com/?cid=0x0:0xe381fcd0342f4737,
toko bangunan,Toko Bahan Bangunan,Toko bangunan sinar anugerah,"Jl. Mr. Muh. Yamin No.94, Pekkabata, Kec. Polewali, Kabupaten Polewali Mandar, Sulawesi Barat 91311","Pekkabata, Kec. Polewali, Kabupaten Polewali Mandar",SULAWESI BARAT,91311.0,Indonesia,81373974815.0,,,-3.4094533,119.3103074,https://maps.google.com/?cid=0x0:0x2cfad29250609a94,
toko bangunan,Toko Bahan Bangunan,Toko Valva Bangunan,"R995+F8H, Pasangkayu, Kec. Pasangkayu, Kab. Pasangkayu, Sulawesi Barat 91574","Pasangkayu, Kec. Pasangkayu, Kab. Pasangkayu",SULAWESI BARAT,91574.0,Indonesia,85341505076.0,,,-1.1812798,119.3583997,https://maps.google.com/?cid=0x0:0xba09a047162b033,
toko bangunan,Toko Bahan Bangunan,Toko mega maspul,"X8H4+RJ8, Jl. Poros mamasa polewali, matuyu, Malabo, Kec. Tanduk Kalua, Kabupaten Mamasa, Sulawesi Barat","Kabupaten Mamasa, Sulawesi Barat",SULAWESI BARAT,,Indonesia,81347891009.0,,,-3.020459,119.3065782,https://maps.google.com/?cid=0x0:0xc35eb0772f1e840,
toko bangunan,Toko,Toko Bangunan Satondo'ta,"V866+WC7, Sumarorong, Kec. Sumarorong, Kabupaten Mamasa, Sulawesi Barat 91361","Sumarorong, Kec. Sumarorong, Kabupaten Mamasa",SULAWESI BARAT,91361.0,Indonesia,81346669777.0,,,-3.1377039,119.311061,https://maps.google.com/?cid=0x0:0x7058556c45174885,
toko bangunan,Toko Bahan Bangunan,Sinar bangunan,"394H+7F9 Sinar bangunan, Mamasa, Kec. Mamasa, Kabupaten Mamasa, Sulawesi Barat 91365","Mamasa, Kec. Mamasa, Kabupaten Mamasa",SULAWESI BARAT,91365.0,Indonesia,,,,-2.9443482,119.3787483,https://maps.google.com/?cid=0x0:0x8d78651b563f3b73,
toko bangunan,Sekolah Menengah Atas,SMAN 2 Buntu Malangka,"55CF+6X8, Buntumalangka, Kec. Buntu Malangka, Kabupaten Mamasa, Sulawesi Barat 91373","Buntumalangka, Kec. Buntu Malangka, Kabupaten Mamasa",SULAWESI BARAT,91373.0,Indonesia,,,,-2.8294724,119.1749392,https://maps.google.com/?cid=0x0:0xdac4148e145d210b,
toko bangunan,toko bangunan,Sulawesi Barat 91373,"Kabupaten Mamasa, Sulawesi Barat","Kabupaten Mamasa, Sulawesi Barat",SULAWESI BARAT,,Indonesia,,,,-2.7933646,119.1623231,https://maps.google.com/?cid=0x0:0x63837cb8dbe972c6,
toko bangunan,Toko Bahan Bangunan,Sumber jaya,"564J+8RW, Jln kh agus salim lingkungan koppe kelurahan, pekkabata, polman, Sulawesi Barat","polman, Sulawesi Barat",SULAWESI BARAT,,Indonesia,,,,-2.8441371,119.2320784,https://maps.google.com/?cid=0x0:0xb0f6362c14731aa4,
toko bangunan,toko bangunan,Sulawesi Barat 91362,"Kabupaten Mamasa, Sulawesi Barat","Kabupaten Mamasa, Sulawesi Barat",SULAWESI BARAT,,Indonesia,,,,-2.8753644,119.3714909,https://maps.google.com/?cid=0x0:0x1d800b7ea94db71e,
toko bangunan,Toko Bahan Bangunan,Toko Bangunan RIA MAS,"Jl. Poros Tatoa, Tawalian, Kec. Tawalian, Kabupaten Mamasa, Sulawesi Barat 91365","Tawalian, Kec. Tawalian, Kabupaten Mamasa",SULAWESI BARAT,91365.0,Indonesia,85352715305.0,,,-2.9498769,119.3849432,https://maps.google.com/?cid=0x0:0x4ec54937015a0a15,
toko bangunan,Toko Bahan Bangunan,Toko Masakke Bangunan,"396H+C2H, Bunta Buda, Kec. Mamasa, Kabupaten Mamasa, Sulawesi Barat 91365","Bunta Buda, Kec. Mamasa, Kabupaten Mamasa",SULAWESI BARAT,91365.0,Indonesia,,,,-2.9390152,119.3775121,https://maps.google.com/?cid=0x0:0xf76c8fac29f894c3,
toko bangunan,Toko Bahan Bangunan,UD Pallawalipu,"3939+7XH, Osango, Kec. Mamasa, Kabupaten Mamasa, Sulawesi Barat 91365","Osango, Kec. Mamasa, Kabupaten Mamasa",SULAWESI BARAT,91365.0,Indonesia,85242135353.0,,,-2.9468075,119.3699721,https://maps.google.com/?cid=0x0:0x89b7a947fa3a3e83,
toko bangunan,Toko Bahan Bangunan,Toko Mamasa Utama,"Jl. Demmatande No.10, Mamasa, Kec. Mamasa, Kabupaten Mamasa, Sulawesi Barat 91365","Mamasa, Kec. Mamasa, Kabupaten Mamasa",SULAWESI BARAT,91365.0,Indonesia,82292804043.0,,,-2.940829,119.3778504,https://maps.google.com/?cid=0x0:0x1bfd6dc6779c566,
toko bangunan,Toko Bahan Bangunan,Sinar bangunan,"394H+7F9 Sinar bangunan, Mamasa, Kec. Mamasa, Kabupaten Mamasa, Sulawesi Barat 91365","Mamasa, Kec. Mamasa, Kabupaten Mamasa",SULAWESI BARAT,91365.0,Indonesia,,,,-2.9443482,119.3787483,https://maps.google.com/?cid=0x0:0x8d78651b563f3b73,
toko bangunan,Toko Bahan Bangunan,Delta bangunan,"kompleks, jembatan kuning, Kabupaten Mamasa, Sulawesi Barat 91362","jembatan kuning, Kabupaten Mamasa",SULAWESI BARAT,91362.0,Indonesia,,,,-2.9403737,119.3757252,https://maps.google.com/?cid=0x0:0x5796772de7f061d5,
toko bangunan,Toko Bahan Bangunan,Toko Eljire,"Bamba Buntu, Kec. Mamasa, Kabupaten Mamasa, Sulawesi Barat 91365","Kec. Mamasa, Kabupaten Mamasa",SULAWESI BARAT,91365.0,Indonesia,82344723864.0,,,-2.9400417,119.3743757,https://maps.google.com/?cid=0x0:0x623b71ec81f528ba,
toko bangunan,Toko,Toko Bangunan Satondo'ta,"V866+WC7, Sumarorong, Kec. Sumarorong, Kabupaten Mamasa, Sulawesi Barat 91361","Sumarorong, Kec. Sumarorong, Kabupaten Mamasa",SULAWESI BARAT,91361.0,Indonesia,81346669777.0,,,-3.1377039,119.311061,https://maps.google.com/?cid=0x0:0x7058556c45174885,
toko bangunan,Toko Bahan Bangunan,Toko Bangunan Usaha Abadi,"25HW+2JC, Bambang Buda, Kec. Rantebulahan Tim., Kabupaten Mamasa, Sulawesi Barat 91371","Bambang Buda, Kec. Rantebulahan Tim., Kabupaten Mamasa",SULAWESI BARAT,91371.0,Indonesia,81264671628.0,,,-2.9724282,119.1965086,https://maps.google.com/?cid=0x0:0xae0c94fbc2df0fdf,
toko bangunan,Toko Bahan Bangunan,Jasa Truck Angkutan Barang Mamasa,"Jl. Pembangunan No.127, Mamasa, Kec. Mamasa, Kabupaten Mamasa, Sulawesi Barat 91362","Mamasa, Kec. Mamasa, Kabupaten Mamasa",SULAWESI BARAT,91362.0,Indonesia,,,,-2.9430632,119.3746922,https://maps.google.com/?cid=0x0:0x4b647bcf0d727337,
toko bangunan,Pusat Perbelanjaan,TOKO UJUNG KOTA,"394F+475, ujung kota Jalan Poros Polewali, Mamasa, Kec. Mamasa, Kabupaten Mamasa, Sulawesi Barat 91365","ujung kota Jalan Poros Polewali, Mamasa, Kec. Mamasa, Kabupaten Mamasa",SULAWESI BARAT,91365.0,Indonesia,,,,-2.9447318,119.3732313,https://maps.google.com/?cid=0x0:0x64641989d20df821,
toko bangunan,toko bangunan,Kec. Mambi,"Kabupaten Mamasa, Sulawesi Barat","Kabupaten Mamasa, Sulawesi Barat",SULAWESI BARAT,,Indonesia,,,,-2.9511527,119.1807955,https://maps.google.com/?cid=0x0:0xd5ebe7e9ad656c5d,
toko bangunan,Pasar bahan bangunan,Toko Usaha Baru Mambi,"352G+6HQ, Mambi, Kec. Mambi, Kabupaten Mamasa, Sulawesi Barat 91371","Mambi, Kec. Mambi, Kabupaten Mamasa",SULAWESI BARAT,91371.0,Indonesia,81241272240.0,,,-2.949416,119.176496,https://maps.google.com/?cid=0x0:0xdff3cf7cb85a095e,
toko bangunan,Toko Bahan Bangunan,Toko Bangunan Usaha Abadi,"25HW+2JC, Bambang Buda, Kec. Rantebulahan Tim., Kabupaten Mamasa, Sulawesi Barat 91371","Bambang Buda, Kec. Rantebulahan Tim., Kabupaten Mamasa",SULAWESI BARAT,91371.0,Indonesia,81264671628.0,,,-2.9724282,119.1965086,https://maps.google.com/?cid=0x0:0xae0c94fbc2df0fdf,
toko bangunan,toko bangunan,Mehalaan,"Mehalaan Bar., Kec. Mehalaan, Kabupaten Mamasa, Sulawesi Barat","Kabupaten Mamasa, Sulawesi Barat",SULAWESI BARAT,,Indonesia,,,,-3.027435,119.184196,https://maps.google.com/?cid=0x0:0x221be9bd18c99ca3,
toko bangunan,Toko Bahan Bangunan,Toko Bangunan Usaha Abadi,"25HW+2JC, Bambang Buda, Kec. Rantebulahan Tim., Kabupaten Mamasa, Sulawesi Barat 91371","Bambang Buda, Kec. Rantebulahan Tim., Kabupaten Mamasa",SULAWESI BARAT,91371.0,Indonesia,81264671628.0,,,-2.9724282,119.1965086,https://maps.google.com/?cid=0x0:0xae0c94fbc2df0fdf,
toko bangunan,Toko Bahan Bangunan,Toko mega maspul,"X8H4+RJ8, Jl. Poros mamasa polewali, matuyu, Malabo, Kec. Tanduk Kalua, Kabupaten Mamasa, Sulawesi Barat","Kabupaten Mamasa, Sulawesi Barat",SULAWESI BARAT,,Indonesia,81347891009.0,,,-3.020459,119.3065782,https://maps.google.com/?cid=0x0:0xc35eb0772f1e840,
toko bangunan,Toko Bahan Bangunan,TOKO FAJAR BANGUNAN MAPILLI,"Jl. Poros Majene - Mamuju, Baru, Kec. Luyo, Kabupaten Polewali Mandar, Sulawesi Barat 91352","Baru, Kec. Luyo, Kabupaten Polewali Mandar",SULAWESI BARAT,91352.0,Indonesia,82292595546.0,,,-3.4189333,119.164406,https://maps.google.com/?cid=0x0:0x89a76f2924e54666,
toko bangunan,Toko Bahan Bangunan,Toko Multi Bangunan,"Jl. Diponegoro No.c14-15, Karema, Kec. Mamuju, Kabupaten Mamuju, Sulawesi Barat 91512","Karema, Kec. Mamuju, Kabupaten Mamuju",SULAWESI BARAT,91512.0,Indonesia,81242298806.0,,,-2.6862595,118.8768742,https://maps.google.com/?cid=0x0:0xd05c6306c1a3648f,
toko bangunan,Pembangunan Perumahan,Toko Bangunan Putra Tande 5 Tapalang,"Galung, Kec. Tapalang, Kabupaten Mamuju, Sulawesi Barat 91352","Kec. Tapalang, Kabupaten Mamuju",SULAWESI BARAT,91352.0,Indonesia,85397048983.0,,,-2.8651937,118.8702682,https://maps.google.com/?cid=0x0:0x5ece193e63138999,
toko bangunan,Toko Bahan Bangunan,Toko Megah Bangunan,"J63C+8HR, Jl. Poros Majene - Mamuju, Sidodadi, Kec. Wonomulyo, Kabupaten Polewali Mandar, Sulawesi Barat 91352","Jl. Poros Majene - Mamuju, Sidodadi, Kec. Wonomulyo, Kabupaten Polewali Mandar",SULAWESI BARAT,91352.0,Indonesia,,,,-3.396646,119.221385,https://maps.google.com/?cid=0x0:0x1752c04980d611a2,
toko bangunan,Toko Bahan Bangunan,Toko Sentral Bangunan,"H8R5+6XF, Jl. Mr. Muh. Yamin, Pekkabata, Kec. Polewali, Kabupaten Polewali Mandar, Sulawesi Barat 91311","Jl. Mr. Muh. Yamin, Pekkabata, Kec. Polewali, Kabupaten Polewali Mandar",SULAWESI BARAT,91311.0,Indonesia,,,,-3.4094375,119.3099336,https://maps.google.com/?cid=0x0:0xb70c9c0635cba0c3,
toko bangunan,Toko,Toko Fajar Bangunan Majene,"pakkola, Jl. Mayjen Azis Bustam, Banggae, Kec. Banggae, Kabupaten Majene, Sulawesi Barat 91412","Jl. Mayjen Azis Bustam, Banggae, Kec. Banggae, Kabupaten Majene",SULAWESI BARAT,91412.0,Indonesia,81355566646.0,,,-3.5372746,118.9682725,https://maps.google.com/?cid=0x0:0xcfb27e4cdc8945d6,
toko bangunan,Toko Bahan Bangunan,Toko Indo Bangunan,"JL A Jl. Syukur Rahim No.20-22, Banggae, Kec. Banggae, Kabupaten Majene, Sulawesi Barat","Kabupaten Majene, Sulawesi Barat",SULAWESI BARAT,,Indonesia,42221321.0,,,-3.544385,118.9661537,https://maps.google.com/?cid=0x0:0x79968e5059e72082,
toko bangunan,Toko Bahan Bangunan,Toko Bahan Bangunan Al Kautsar,"Jl. Poros Polewali, Matakali, Mamuju, Kabupaten Polewali Mandar, Sulawesi Barat 91315","Matakali, Mamuju, Kabupaten Polewali Mandar",SULAWESI BARAT,91315.0,Indonesia,85230420335.0,,,-3.388534,119.2787519,https://maps.google.com/?cid=0x0:0x59411f55b96d60ab,
toko bangunan,Toko Bahan Bangunan,Toko Delta Bangunan,"8V6H+X4H, Karema, Kec. Mamuju, Kabupaten Mamuju, Sulawesi Barat 91512","Karema, Kec. Mamuju, Kabupaten Mamuju",SULAWESI BARAT,91512.0,Indonesia,81524333299.0,,,-2.6875662,118.8778488,https://maps.google.com/?cid=0x0:0x600c10af92b1cb4f,
toko bangunan,Perhimpunan Pengembang Perumahan,Toko Berkah Bangunan,"P8HH+5J9, Malei, Pedongga, Kab. Pasangkayu, Sulawesi Barat 91571","Malei, Pedongga, Kab. Pasangkayu",SULAWESI BARAT,91571.0,Indonesia,82193524222.0,,,-1.2720843,119.3290953,https://maps.google.com/?cid=0x0:0x4fe58465f2606352,
toko bangunan,Toko Bahan Bangunan,SUMBER HARAPAN,"Karema, Kec. Mamuju, Kabupaten Mamuju, Sulawesi Barat","Kabupaten Mamuju, Sulawesi Barat",SULAWESI BARAT,,Indonesia,85341996114.0,,,-2.6770968,118.8869489,https://maps.google.com/?cid=0x0:0xf393bd54539f675b,
toko bangunan,Pemasok Bahan Bangunan,Toko bangunan sinar surya baras,"Dusun samonu/bambaloka, Baras, Kec. Baras, Kab. Pasangkayu, Sulawesi Barat 91572","Baras, Kec. Baras, Kab. Pasangkayu",SULAWESI BARAT,91572.0,Indonesia,82292516079.0,,,-1.5911398,119.3269777,https://maps.google.com/?cid=0x0:0x6cbe19908c2077d,
toko bangunan,Toko Bahan Bangunan,Toko Mapan Bangunan,"J66F+CVP, Sumberejo, Kec. Wonomulyo, Kabupaten Polewali Mandar, Sulawesi Barat 91352","Sumberejo, Kec. Wonomulyo, Kabupaten Polewali Mandar",SULAWESI BARAT,91352.0,Indonesia,82190955225.0,,,-3.3889059,119.2247017,https://maps.google.com/?cid=0x0:0xaad22bfe1044cd4e,
toko bangunan,Toko Bahan Bangunan,Toko. Fajar Bangunan - Mamuju,"8V6G+7WH, Jl. Diponegoro, Karema, Kec. Mamuju, Kabupaten Mamuju, Sulawesi Barat 91512","Jl. Diponegoro, Karema, Kec. Mamuju, Kabupaten Mamuju",SULAWESI BARAT,91512.0,Indonesia,85930982364.0,,,-2.689321,118.8773494,https://maps.google.com/?cid=0x0:0x6d4e74a959cf61d6,
toko bangunan,Toko Bahan Bangunan,Toko bahan bangunan Bumi Rahayu,"H6XM+CP6, Campurjo, Kec. Wonomulyo, Kabupaten Polewali Mandar, Sulawesi Barat 91352","Campurjo, Kec. Wonomulyo, Kabupaten Polewali Mandar",SULAWESI BARAT,91352.0,Indonesia,895800601598.0,,,-3.4013997,119.2336419,https://maps.google.com/?cid=0x0:0x8fae3a4123155380,
toko bangunan,Toko Bahan Bangunan,Toko Valva Bangunan,"R995+F8H, Pasangkayu, Kec. Pasangkayu, Kab. Pasangkayu, Sulawesi Barat 91574","Pasangkayu, Kec. Pasangkayu, Kab. Pasangkayu",SULAWESI BARAT,91574.0,Indonesia,85341505076.0,,,-1.1812798,119.3583997,https://maps.google.com/?cid=0x0:0xba09a047162b033,
toko bangunan,Toko Bahan Bangunan,Sinar bangunan,"394H+7F9 Sinar bangunan, Mamasa, Kec. Mamasa, Kabupaten Mamasa, Sulawesi Barat 91365","Mamasa, Kec. Mamasa, Kabupaten Mamasa",SULAWESI BARAT,91365.0,Indonesia,,,,-2.9443482,119.3787483,https://maps.google.com/?cid=0x0:0x8d78651b563f3b73,
toko bangunan,toko bangunan,Khopal Bangunan,"29X7+5WX, Osango, Kec. Mamasa, Kabupaten Mamasa, Sulawesi Barat","Kabupaten Mamasa, Sulawesi Barat",SULAWESI BARAT,,Indonesia,,,,-2.9520201,119.3648662,https://maps.google.com/?cid=0x0:0x96ddbfc36b3160c3,
toko bangunan,toko bangunan,Sulawesi Barat 91361,"Kabupaten Mamasa, Sulawesi Barat","Kabupaten Mamasa, Sulawesi Barat",SULAWESI BARAT,,Indonesia,,,,-3.1770865,119.3018011,https://maps.google.com/?cid=0x0:0xa3c2c4ef1c97d548,
toko bangunan,Toko Bahan Bangunan,Toko mega maspul,"X8H4+RJ8, Jl. Poros mamasa polewali, matuyu, Malabo, Kec. Tanduk Kalua, Kabupaten Mamasa, Sulawesi Barat","Kabupaten Mamasa, Sulawesi Barat",SULAWESI BARAT,,Indonesia,81347891009.0,,,-3.020459,119.3065782,https://maps.google.com/?cid=0x0:0xc35eb0772f1e840,
toko bangunan,Toko Bahan Bangunan,Toko Masakke Bangunan,"396H+C2H, Bunta Buda, Kec. Mamasa, Kabupaten Mamasa, Sulawesi Barat 91365","Bunta Buda, Kec. Mamasa, Kabupaten Mamasa",SULAWESI BARAT,91365.0,Indonesia,,,,-2.9390152,119.3775121,https://maps.google.com/?cid=0x0:0xf76c8fac29f894c3,
toko bangunan,Pembangunan Perumahan,Toko Bangunan Putra Tande 5 Tapalang,"Galung, Kec. Tapalang, Kabupaten Mamuju, Sulawesi Barat 91352","Kec. Tapalang, Kabupaten Mamuju",SULAWESI BARAT,91352.0,Indonesia,85397048983.0,,,-2.8651937,118.8702682,https://maps.google.com/?cid=0x0:0x5ece193e63138999,
toko bangunan,,Toko MITRA BARU,"Depan Hotel Istana, Jalan Jendral Sudirman Polman No.5E, Sidodadi, Kec. Wonomulyo, Kabupaten Polewali Mandar, Sulawesi Barat 91352","Jalan Jendral Sudirman Polman No.5E, Sidodadi, Kec. Wonomulyo, Kabupaten Polewali Mandar",SULAWESI BARAT,91352.0,Indonesia,81242883737.0,,,-3.3974634,119.2156225,https://maps.google.com/?cid=0x0:0xacceb6ec3b43fdb0,
toko bangunan,Perhimpunan Pengembang Perumahan,Toko Berkah Bangunan,"P8HH+5J9, Malei, Pedongga, Kab. Pasangkayu, Sulawesi Barat 91571","Malei, Pedongga, Kab. Pasangkayu",SULAWESI BARAT,91571.0,Indonesia,82193524222.0,,,-1.2720843,119.3290953,https://maps.google.com/?cid=0x0:0x4fe58465f2606352,
toko bangunan,Toko Bahan Bangunan,Toko bahan bangunan Bumi Rahayu,"H6XM+CP6, Campurjo, Kec. Wonomulyo, Kabupaten Polewali Mandar, Sulawesi Barat 91352","Campurjo, Kec. Wonomulyo, Kabupaten Polewali Mandar",SULAWESI BARAT,91352.0,Indonesia,895800601598.0,,,-3.4013997,119.2336419,https://maps.google.com/?cid=0x0:0x8fae3a4123155380,
toko bangunan,Toko Bahan Bangunan,Toko Multi Bangunan,"Jl. Diponegoro No.c14-15, Karema, Kec. Mamuju, Kabupaten Mamuju, Sulawesi Barat 91512","Karema, Kec. Mamuju, Kabupaten Mamuju",SULAWESI BARAT,91512.0,Indonesia,81242298806.0,,,-2.6862595,118.8768742,https://maps.google.com/?cid=0x0:0xd05c6306c1a3648f,
toko bangunan,Pusat Perbelanjaan,TOKO UJUNG KOTA,"394F+475, ujung kota Jalan Poros Polewali, Mamasa, Kec. Mamasa, Kabupaten Mamasa, Sulawesi Barat 91365","ujung kota Jalan Poros Polewali, Mamasa, Kec. Mamasa, Kabupaten Mamasa",SULAWESI BARAT,91365.0,Indonesia,,,,-2.9447318,119.3732313,https://maps.google.com/?cid=0x0:0x64641989d20df821,
toko bangunan,Toko Bahan Bangunan,Toko Delta Bangunan,"8V6H+X4H, Karema, Kec. Mamuju, Kabupaten Mamuju, Sulawesi Barat 91512","Karema, Kec. Mamuju, Kabupaten Mamuju",SULAWESI BARAT,91512.0,Indonesia,81524333299.0,,,-2.6875662,118.8778488,https://maps.google.com/?cid=0x0:0x600c10af92b1cb4f,
toko bangunan,Toko Bahan Bangunan,Toko Valva Bangunan,"R995+F8H, Pasangkayu, Kec. Pasangkayu, Kab. Pasangkayu, Sulawesi Barat 91574","Pasangkayu, Kec. Pasangkayu, Kab. Pasangkayu",SULAWESI BARAT,91574.0,Indonesia,85341505076.0,,,-1.1812798,119.3583997,https://maps.google.com/?cid=0x0:0xba09a047162b033,
toko bangunan,Pemasok Bahan Bangunan,Toko bangunan sinar surya baras,"Dusun samonu/bambaloka, Baras, Kec. Baras, Kab. Pasangkayu, Sulawesi Barat 91572","Baras, Kec. Baras, Kab. Pasangkayu",SULAWESI BARAT,91572.0,Indonesia,82292516079.0,,,-1.5911398,119.3269777,https://maps.google.com/?cid=0x0:0x6cbe19908c2077d,
toko bangunan,Toko Perlengkapan Rumah,Toko Fajar Mas,"78R3+4XG, Jl. Poros Majene - Mamuju, Sarudu, Kec. Sarudu, Kab. Pasangkayu, Sulawesi Barat 91573","Jl. Poros Majene - Mamuju, Sarudu, Kec. Sarudu, Kab. Pasangkayu",SULAWESI BARAT,91573.0,Indonesia,,,,-1.7096903,119.3049596,https://maps.google.com/?cid=0x0:0x9228cd946562eccc,
toko bangunan,Toko Bahan Bangunan,Toko. Fajar Bangunan - Mamuju,"8V6G+7WH, Jl. Diponegoro, Karema, Kec. Mamuju, Kabupaten Mamuju, Sulawesi Barat 91512","Jl. Diponegoro, Karema, Kec. Mamuju, Kabupaten Mamuju",SULAWESI BARAT,91512.0,Indonesia,85930982364.0,,,-2.689321,118.8773494,https://maps.google.com/?cid=0x0:0x6d4e74a959cf61d6,
toko bangunan,Toko Bahan Bangunan,Sinar bangunan,"394H+7F9 Sinar bangunan, Mamasa, Kec. Mamasa, Kabupaten Mamasa, Sulawesi Barat 91365","Mamasa, Kec. Mamasa, Kabupaten Mamasa",SULAWESI BARAT,91365.0,Indonesia,,,,-2.9443482,119.3787483,https://maps.google.com/?cid=0x0:0x8d78651b563f3b73,
toko bangunan,toko bangunan,Kec. Messawa,"Kabupaten Mamasa, Sulawesi Barat","Kabupaten Mamasa, Sulawesi Barat",SULAWESI BARAT,,Indonesia,,,,-3.261651,119.3433321,https://maps.google.com/?cid=0x0:0xd0b7bc7510e6c760,
toko bangunan,Toko,Toko Bangunan Satondo'ta,"V866+WC7, Sumarorong, Kec. Sumarorong, Kabupaten Mamasa, Sulawesi Barat 91361","Sumarorong, Kec. Sumarorong, Kabupaten Mamasa",SULAWESI BARAT,91361.0,Indonesia,81346669777.0,,,-3.1377039,119.311061,https://maps.google.com/?cid=0x0:0x7058556c45174885,
toko bangunan,Toko Swalayan,Pak Winda Toko sembako dan Bangunan,"R9FC+GR6, Batanguru, Kec. Sumarorong, Kabupaten Mamasa, Sulawesi Barat 91361","Batanguru, Kec. Sumarorong, Kabupaten Mamasa",SULAWESI BARAT,91361.0,Indonesia,81241991377.0,,,-3.1749547,119.3713157,https://maps.google.com/?cid=0x0:0xa2e84396e7f1a058,
toko bangunan,Gudang,TOKO ALMERA,"Al ikhlas RESIDENCE PERMAI BLOK B 11, Patampanua, Kec. Matakali, Kabupaten Polewali Mandar, Sulawesi Barat 91352","Patampanua, Kec. Matakali, Kabupaten Polewali Mandar",SULAWESI BARAT,91352.0,Indonesia,8114250833.0,,,-3.3955263,119.2913006,https://maps.google.com/?cid=0x0:0x7d281069bc965700,
toko bangunan,Toko,Toko Hidayah Polman,"Tapango, Kec. Tapango, polman, Sulawesi Barat 91352","Kec. Tapango, polman",SULAWESI BARAT,91352.0,Indonesia,,,,-3.3179013,119.2524789,https://maps.google.com/?cid=0x0:0x9fd1ac488f9f313,
toko bangunan,Toko Bahan Bangunan,Toko Bangunan HJ. Nani hj.ramli,"M62P+8MG, Jl. Banato, Pelitakan, Kec. Tapango, Kabupaten Polewali Mandar, Sulawesi Barat 91352","Jl. Banato, Pelitakan, Kec. Tapango, Kabupaten Polewali Mandar",SULAWESI BARAT,91352.0,Indonesia,81373974815.0,,,-3.3491764,119.236703,https://maps.google.com/?cid=0x0:0x2079d8406ccc2bed,
toko bangunan,Toko Bahan Bangunan,Toko Afkar Bangunan,"H7XX+23P, Patampanua, Kec. Matakali, Kabupaten Polewali Mandar, Sulawesi Barat 91315","Patampanua, Kec. Matakali, Kabupaten Polewali Mandar",SULAWESI BARAT,91315.0,Indonesia,,,,-3.401309,119.2981989,https://maps.google.com/?cid=0x0:0x2efa0d5d219ea4f1,
toko bangunan,Toko Perlengkapan Rumah,Toko Anugrah,"H8X8+52M, Jl. Basseang, Darma, Kec. Polewali, Kabupaten Polewali Mandar, Sulawesi Barat","Kabupaten Polewali Mandar, Sulawesi Barat",SULAWESI BARAT,,Indonesia,82396074602.0,,,-3.4020296,119.315033,https://maps.google.com/?cid=0x0:0x86a2042fee7b4524,
toko bangunan,Toko Bahan Bangunan,"Jual keramik tehel pekabata, polewali, polman polmas","H8X7+6XG, Madatte, Kec. Polewali, Kabupaten Polewali Mandar, Sulawesi Barat 91311","Madatte, Kec. Polewali, Kabupaten Polewali Mandar",SULAWESI BARAT,91311.0,Indonesia,81342515043.0,,,-3.402033,119.3150318,https://maps.google.com/?cid=0x0:0xe0a225a46418e1ee,
toko bangunan,Toko Bahan Bangunan,TB.BATU HIJAU,"Jl. Daeng Bakkarang, Matakali, Kec. Matakali, Kabupaten Polewali Mandar, Sulawesi Barat 91352","Matakali, Kec. Matakali, Kabupaten Polewali Mandar",SULAWESI BARAT,91352.0,Indonesia,87852773765.0,,,-3.3830671,119.2827923,https://maps.google.com/?cid=0x0:0x869a98939aa98e9a,
toko bangunan,Toko Perlengkapan Rumah,"TOKO SINAR KANANG 2 KOPPE, MENERIMA ANTAR-JEMPUT","Darma, Kec. Polewali, Kabupaten Polewali Mandar, Sulawesi Barat 91311","Kec. Polewali, Kabupaten Polewali Mandar",SULAWESI BARAT,91311.0,Indonesia,82344140993.0,,,-3.4061171,119.31646,https://maps.google.com/?cid=0x0:0xe5b7cf3b77ac72e7,
toko bangunan,Toko Bahan Bangunan,TB MITRA MUDA MANDIRI,"Tapango, Kec. Tapango, Polmam, Sulawesi Barat 91352","Kec. Tapango, Polmam",SULAWESI BARAT,91352.0,Indonesia,82151846024.0,,,-3.3129811,119.2506202,https://maps.google.com/?cid=0x0:0x78a9f0eccb270aed,
toko bangunan,toko bangunan,Nosu,"Kec. Nosu, Kabupaten Mamasa, Sulawesi Barat","Kabupaten Mamasa, Sulawesi Barat",SULAWESI BARAT,,Indonesia,,,,-3.1222192,119.5049702,https://maps.google.com/?cid=0x0:0xbc469c34008e21a3,
toko bangunan,Toko Bahan Bangunan,Toko Delta Bangunan,"8V6H+X4H, Karema, Kec. Mamuju, Kabupaten Mamuju, Sulawesi Barat 91512","Karema, Kec. Mamuju, Kabupaten Mamuju",SULAWESI BARAT,91512.0,Indonesia,81524333299.0,,,-2.6875662,118.8778488,https://maps.google.com/?cid=0x0:0x600c10af92b1cb4f,
toko bangunan,Pemasok Bahan Bangunan,Fajar Bangunan Baru Tasiu,"F338+M82, Kalukku, Kec. Kalukku, Kabupaten Mamuju, Sulawesi Barat 91561","Kalukku, Kec. Kalukku, Kabupaten Mamuju",SULAWESI BARAT,91561.0,Indonesia,,,,-2.545874,119.0657791,https://maps.google.com/?cid=0x0:0x7ef75969b9227b99,
toko bangunan,Toko Bahan Bangunan,Sinar bangunan,"394H+7F9 Sinar bangunan, Mamasa, Kec. Mamasa, Kabupaten Mamasa, Sulawesi Barat 91365","Mamasa, Kec. Mamasa, Kabupaten Mamasa",SULAWESI BARAT,91365.0,Indonesia,,,,-2.9443482,119.3787483,https://maps.google.com/?cid=0x0:0x8d78651b563f3b73,
toko bangunan,Toko,Toko Bangunan Satondo'ta,"V866+WC7, Sumarorong, Kec. Sumarorong, Kabupaten Mamasa, Sulawesi Barat 91361","Sumarorong, Kec. Sumarorong, Kabupaten Mamasa",SULAWESI BARAT,91361.0,Indonesia,81346669777.0,,,-3.1377039,119.311061,https://maps.google.com/?cid=0x0:0x7058556c45174885,
toko bangunan,Toko Bahan Bangunan,Toko Bangunan Usaha Abadi,"25HW+2JC, Bambang Buda, Kec. Rantebulahan Tim., Kabupaten Mamasa, Sulawesi Barat 91371","Bambang Buda, Kec. Rantebulahan Tim., Kabupaten Mamasa",SULAWESI BARAT,91371.0,Indonesia,81264671628.0,,,-2.9724282,119.1965086,https://maps.google.com/?cid=0x0:0xae0c94fbc2df0fdf,
toko bangunan,Toko Bahan Bangunan,Toko mega maspul,"X8H4+RJ8, Jl. Poros mamasa polewali, matuyu, Malabo, Kec. Tanduk Kalua, Kabupaten Mamasa, Sulawesi Barat","Kabupaten Mamasa, Sulawesi Barat",SULAWESI BARAT,,Indonesia,81347891009.0,,,-3.020459,119.3065782,https://maps.google.com/?cid=0x0:0xc35eb0772f1e840,
toko bangunan,Toko Bahan Bangunan,Toko Multi Bangunan,"Jl. Diponegoro No.c14-15, Karema, Kec. Mamuju, Kabupaten Mamuju, Sulawesi Barat 91512","Karema, Kec. Mamuju, Kabupaten Mamuju",SULAWESI BARAT,91512.0,Indonesia,81242298806.0,,,-2.6862595,118.8768742,https://maps.google.com/?cid=0x0:0xd05c6306c1a3648f,
toko bangunan,toko bangunan,Sulawesi Barat 91363,"Kabupaten Mamasa, Sulawesi Barat","Kabupaten Mamasa, Sulawesi Barat",SULAWESI BARAT,,Indonesia,,,,-3.1007066,119.4875668,https://maps.google.com/?cid=0x0:0x2729e55714d41779,
toko bangunan,Toko Bahan Bangunan,UD. Aviero Maju,"XGFQ+Q3X, Ulusalu, Kec. Pana, Kabupaten Mamasa, Sulawesi Barat 91363","Ulusalu, Kec. Pana, Kabupaten Mamasa",SULAWESI BARAT,91363.0,Indonesia,,,,-3.0255007,119.5377456,https://maps.google.com/?cid=0x0:0x83b2e36bbfbcd85,
toko bangunan,toko bangunan,Toko Besi Nusantoro (BNS),"Jl. Cimpaeun No.59, RT.02/RW.02, Cimpaeun, Kec. Tapos, Kota Depok, Jawa Barat 16459","RT.02/RW.02, Cimpaeun, Kec. Tapos, Kota Depok",SULAWESI BARAT,16459.0,Indonesia,,,,-6.4418664,106.8768608,https://maps.google.com/?cid=0x0:0x8107eb8d397bb02b,
toko bangunan,Toko Bahan Bangunan,Toko Bangunan RIA MAS,"Jl. Poros Tatoa, Tawalian, Kec. Tawalian, Kabupaten Mamasa, Sulawesi Barat 91365","Tawalian, Kec. Tawalian, Kabupaten Mamasa",SULAWESI BARAT,91365.0,Indonesia,85352715305.0,,,-2.9498769,119.3849432,https://maps.google.com/?cid=0x0:0x4ec54937015a0a15,
toko bangunan,Perusahaan Konstruksi,UD. NOS,"6JPW+9R5, Macinnae, Kec. Paleteang, Kabupaten Pinrang, Sulawesi Selatan 91213","Macinnae, Kec. Paleteang, Kabupaten Pinrang",SULAWESI BARAT,91213.0,Indonesia,,,,-3.7641107,119.6471191,https://maps.google.com/?cid=0x0:0x9aeaf06cde6d360d,
toko bangunan,Toko Bahan Bangunan,USAHA BUNTU MUSSA',"X8VG+JVV, Jalan Poros Pena' Balla Tumuka, Balla Bar., Kec. Balla, Kabupaten Mamasa, Sulawesi Barat 91366","Jalan Poros Pena' Balla Tumuka, Balla Bar., Kec. Balla, Kabupaten Mamasa",SULAWESI BARAT,91366.0,Indonesia,82196588111.0,,,-3.0058868,119.327176,https://maps.google.com/?cid=0x0:0xfe717888dbc10e4f,
toko bangunan,Toko Swalayan,Pak Winda Toko sembako dan Bangunan,"R9FC+GR6, Batanguru, Kec. Sumarorong, Kabupaten Mamasa, Sulawesi Barat 91361","Batanguru, Kec. Sumarorong, Kabupaten Mamasa",SULAWESI BARAT,91361.0,Indonesia,81241991377.0,,,-3.1749547,119.3713157,https://maps.google.com/?cid=0x0:0xa2e84396e7f1a058,
toko bangunan,Toko Bahan Bangunan,Toko Ainun Nisa Bangunan,"F959+477, Komba Sel., Kec. Larompong, Kabupaten Luwu, Sulawesi Selatan 91997","Komba Sel., Kec. Larompong, Kabupaten Luwu",SULAWESI BARAT,91997.0,Indonesia,81356718214.0,,,-3.5422182,120.3681687,https://maps.google.com/?cid=0x0:0x83616144cd634e26,
toko bangunan,Toko Bahan Bangunan,UD.MANDIRI 02,"RANTESEPANG, Balla Satanetean, Kec. Balla, Kabupaten Mamasa, Sulawesi Barat 91362","Balla Satanetean, Kec. Balla, Kabupaten Mamasa",SULAWESI BARAT,91362.0,Indonesia,85256417793.0,,,-2.9909045,119.3330361,https://maps.google.com/?cid=0x0:0x5a65537a052ddc36,
toko bangunan,Toko Bahan Bangunan,Toko Sinar Wahyu,"Le'tek, Kec. Bittuang, Kabupaten Tana Toraja, Sulawesi Selatan","Kabupaten Tana Toraja, Sulawesi Selatan",SULAWESI BARAT,,Indonesia,,,,-2.9747407,119.6736847,https://maps.google.com/?cid=0x0:0x71887fa31cb229b3,
toko bangunan,Toko Perlengkapan Rumah,Toko zidane bangunan,"2MFF+W5M, Le'tek, Kec. Bittuang, Kabupaten Tana Toraja, Sulawesi Selatan","Kabupaten Tana Toraja, Sulawesi Selatan",SULAWESI BARAT,,Indonesia,,,,-2.9751681,119.6729085,https://maps.google.com/?cid=0x0:0x1b0b067886f9918f,
toko bangunan,Toko Bahan Bangunan,Toko Bangunan Usaha Abadi,"25HW+2JC, Bambang Buda, Kec. Rantebulahan Tim., Kabupaten Mamasa, Sulawesi Barat 91371","Bambang Buda, Kec. Rantebulahan Tim., Kabupaten Mamasa",SULAWESI BARAT,91371.0,Indonesia,81264671628.0,,,-2.9724282,119.1965086,https://maps.google.com/?cid=0x0:0xae0c94fbc2df0fdf,
toko bangunan,Pasar bahan bangunan,Toko Usaha Baru Mambi,"352G+6HQ, Mambi, Kec. Mambi, Kabupaten Mamasa, Sulawesi Barat 91371","Mambi, Kec. Mambi, Kabupaten Mamasa",SULAWESI BARAT,91371.0,Indonesia,81241272240.0,,,-2.949416,119.176496,https://maps.google.com/?cid=0x0:0xdff3cf7cb85a095e,
toko bangunan,toko bangunan,Pana,"Salutambun, Kec. Pana, Kabupaten Mamasa, Sulawesi Barat","Kabupaten Mamasa, Sulawesi Barat",SULAWESI BARAT,,Indonesia,,,,-3.0666669,119.533333,https://maps.google.com/?cid=0x0:0x8f2aa53aa8bcb70,
toko bangunan,Toko,Toko Bangunan Satondo'ta,"V866+WC7, Sumarorong, Kec. Sumarorong, Kabupaten Mamasa, Sulawesi Barat 91361","Sumarorong, Kec. Sumarorong, Kabupaten Mamasa",SULAWESI BARAT,91361.0,Indonesia,81346669777.0,,,-3.1377039,119.311061,https://maps.google.com/?cid=0x0:0x7058556c45174885,
toko bangunan,Toko Bahan Bangunan,Toko Bangunan Usaha Abadi,"25HW+2JC, Bambang Buda, Kec. Rantebulahan Tim., Kabupaten Mamasa, Sulawesi Barat 91371","Bambang Buda, Kec. Rantebulahan Tim., Kabupaten Mamasa",SULAWESI BARAT,91371.0,Indonesia,81264671628.0,,,-2.9724282,119.1965086,https://maps.google.com/?cid=0x0:0xae0c94fbc2df0fdf,
toko bangunan,Pembangunan Perumahan,Toko Bangunan Putra Tande 5 Tapalang,"Galung, Kec. Tapalang, Kabupaten Mamuju, Sulawesi Barat 91352","Kec. Tapalang, Kabupaten Mamuju",SULAWESI BARAT,91352.0,Indonesia,85397048983.0,,,-2.8651937,118.8702682,https://maps.google.com/?cid=0x0:0x5ece193e63138999,
toko bangunan,Toko,Toko Fajar Bangunan Majene,"pakkola, Jl. Mayjen Azis Bustam, Banggae, Kec. Banggae, Kabupaten Majene, Sulawesi Barat 91412","Jl. Mayjen Azis Bustam, Banggae, Kec. Banggae, Kabupaten Majene",SULAWESI BARAT,91412.0,Indonesia,81355566646.0,,,-3.5372746,118.9682725,https://maps.google.com/?cid=0x0:0xcfb27e4cdc8945d6,
toko bangunan,Toko Bahan Bangunan,Toko Delta Bangunan,"8V6H+X4H, Karema, Kec. Mamuju, Kabupaten Mamuju, Sulawesi Barat 91512","Karema, Kec. Mamuju, Kabupaten Mamuju",SULAWESI BARAT,91512.0,Indonesia,81524333299.0,,,-2.6875662,118.8778488,https://maps.google.com/?cid=0x0:0x600c10af92b1cb4f,
toko bangunan,Toko Bahan Bangunan,Toko. Fajar Bangunan - Mamuju,"8V6G+7WH, Jl. Diponegoro, Karema, Kec. Mamuju, Kabupaten Mamuju, Sulawesi Barat 91512","Jl. Diponegoro, Karema, Kec. Mamuju, Kabupaten Mamuju",SULAWESI BARAT,91512.0,Indonesia,85930982364.0,,,-2.689321,118.8773494,https://maps.google.com/?cid=0x0:0x6d4e74a959cf61d6,
toko bangunan,Toko Bahan Bangunan,Sinar bangunan,"394H+7F9 Sinar bangunan, Mamasa, Kec. Mamasa, Kabupaten Mamasa, Sulawesi Barat 91365","Mamasa, Kec. Mamasa, Kabupaten Mamasa",SULAWESI BARAT,91365.0,Indonesia,,,,-2.9443482,119.3787483,https://maps.google.com/?cid=0x0:0x8d78651b563f3b73,
toko bangunan,toko bangunan,Sulawesi Barat 91363,"Kabupaten Mamasa, Sulawesi Barat","Kabupaten Mamasa, Sulawesi Barat",SULAWESI BARAT,,Indonesia,,,,-3.1007066,119.4875668,https://maps.google.com/?cid=0x0:0x2729e55714d41779,
toko bangunan,Toko Bahan Bangunan,UD. Aviero Maju,"XGFQ+Q3X, Ulusalu, Kec. Pana, Kabupaten Mamasa, Sulawesi Barat 91363","Ulusalu, Kec. Pana, Kabupaten Mamasa",SULAWESI BARAT,91363.0,Indonesia,,,,-3.0255007,119.5377456,https://maps.google.com/?cid=0x0:0x83b2e36bbfbcd85,
toko bangunan,Toko Bahan Bangunan,TOKO FAJAR BANGUNAN MAPILLI,"Jl. Poros Majene - Mamuju, Baru, Kec. Luyo, Kabupaten Polewali Mandar, Sulawesi Barat 91352","Baru, Kec. Luyo, Kabupaten Polewali Mandar",SULAWESI BARAT,91352.0,Indonesia,82292595546.0,,,-3.4189333,119.164406,https://maps.google.com/?cid=0x0:0x89a76f2924e54666,
toko bangunan,Toko Bahan Bangunan,TB Persada,"Jl. Pengadegan Selatan No.3 1, RT.1/RW.4, Pengadegan, Kec. Pancoran, Kota Jakarta Selatan, Daerah Khusus Ibukota Jakarta 12770","RT.1/RW.4, Pengadegan, Kec. Pancoran, Kota Jakarta Selatan",SULAWESI BARAT,12770.0,Indonesia,2179194303.0,,,-6.2511239,106.8572252,https://maps.google.com/?cid=0x0:0x6fc67801b7c19c8b,
toko bangunan,Toko Bahan Bangunan,Persada Bangka,"Jl.bangka Raya no.1 Perapatan Bangka 7 Dan 8, Dekat Kemang, RT.8/RW.7, Pela Mampang, Kec. Mampang Prpt., Kota Jakarta Selatan, Daerah Khusus Ibukota Jakarta 12720","Dekat Kemang, RT.8/RW.7, Pela Mampang, Kec. Mampang Prpt., Kota Jakarta Selatan",SULAWESI BARAT,12720.0,Indonesia,8111995519.0,,,-6.249422,106.8144831,https://maps.google.com/?cid=0x0:0x952917c64239e610,
toko bangunan,Toko Bahan Bangunan,Toko Bangunan VIVA,"8, Jl. Pancawarga III No.1, RT.8/RW.5, Cipinang Besar Sel., Kecamatan Jatinegara, Kota Jakarta Timur, Daerah Khusus Ibukota Jakarta 13410","Jl. Pancawarga III No.1, RT.8/RW.5, Cipinang Besar Sel., Kecamatan Jatinegara, Kota Jakarta Timur",SULAWESI BARAT,13410.0,Indonesia,82110701820.0,,,-6.233982,106.8834585,https://maps.google.com/?cid=0x0:0x1a3724c9799a6a81,
toko bangunan,Toko Bahan Bangunan,Toko Bahan Bangunan Sinar Abadi,"Jl. Asem Baris Raya No.321, RT.4/RW.12, Kb. Baru, Kec. Tebet, Kota Jakarta Selatan, Daerah Khusus Ibukota Jakarta 12830","RT.4/RW.12, Kb. Baru, Kec. Tebet, Kota Jakarta Selatan",SULAWESI BARAT,12830.0,Indonesia,,,,-6.2362398,106.8601132,https://maps.google.com/?cid=0x0:0x8793a0bc10ec7a5c,
toko bangunan,Toko Bahan Bangunan,Sarana Bangunan PD,"Jl. Raya Kalibata No.20 12, RT.9/RW.5, Cawang, Kec. Kramat jati, Kota Jakarta Timur, Daerah Khusus Ibukota Jakarta 13630","RT.9/RW.5, Cawang, Kec. Kramat jati, Kota Jakarta Timur",SULAWESI BARAT,13630.0,Indonesia,217901741.0,,,-6.2577909,106.861509,https://maps.google.com/?cid=0x0:0x2d3380f06591a2ba,
toko bangunan,Toko Bahan Bangunan,Toko Terang Jaya,"Jl. Kapten Tendean No.1, RT.1/RW.3, Kuningan Bar., Kec. Mampang Prpt., Kota Jakarta Selatan, Daerah Khusus Ibukota Jakarta 12790","RT.1/RW.3, Kuningan Bar., Kec. Mampang Prpt., Kota Jakarta Selatan",SULAWESI BARAT,12790.0,Indonesia,215251000.0,,,-6.2397081,106.8252906,https://maps.google.com/?cid=0x0:0x1d1c97a315798bd7,
toko bangunan,Toko Bahan Bangunan,Toko Bangunan Persada,"Jl. Mampang Prapatan II, Tegal Parang, Kec. Mampang Prpt., Jakarta, Daerah Khusus Ibukota Jakarta 12790","Tegal Parang, Kec. Mampang Prpt., Jakarta",SULAWESI BARAT,12790.0,Indonesia,,,,-6.2454049,106.8299294,https://maps.google.com/?cid=0x0:0xd6ba6fd1f85f4fb2,
toko bangunan,toko bangunan,Sulawesi Barat 91365,"Kec. Tawalian, Kabupaten Mamasa, Sulawesi Barat","Kabupaten Mamasa, Sulawesi Barat",SULAWESI BARAT,,Indonesia,,,,-2.9977707,119.3947135,https://maps.google.com/?cid=0x0:0x1001a1cc134123a0,
toko bangunan,Toko Bahan Bangunan,Toko Bangunan RIA MAS,"Jl. Poros Tatoa, Tawalian, Kec. Tawalian, Kabupaten Mamasa, Sulawesi Barat 91365","Tawalian, Kec. Tawalian, Kabupaten Mamasa",SULAWESI BARAT,91365.0,Indonesia,85352715305.0,,,-2.9498769,119.3849432,https://maps.google.com/?cid=0x0:0x4ec54937015a0a15,
toko bangunan,Toko Bahan Bangunan,Toko Masakke Bangunan,"396H+C2H, Bunta Buda, Kec. Mamasa, Kabupaten Mamasa, Sulawesi Barat 91365","Bunta Buda, Kec. Mamasa, Kabupaten Mamasa",SULAWESI BARAT,91365.0,Indonesia,,,,-2.9390152,119.3775121,https://maps.google.com/?cid=0x0:0xf76c8fac29f894c3,
toko bangunan,Toko Bahan Bangunan,USAHA BUNTU MUSSA',"X8VG+JVV, Jalan Poros Pena' Balla Tumuka, Balla Bar., Kec. Balla, Kabupaten Mamasa, Sulawesi Barat 91366","Jalan Poros Pena' Balla Tumuka, Balla Bar., Kec. Balla, Kabupaten Mamasa",SULAWESI BARAT,91366.0,Indonesia,82196588111.0,,,-3.0058868,119.327176,https://maps.google.com/?cid=0x0:0xfe717888dbc10e4f,
toko bangunan,Toko Bahan Bangunan,Toko Mamasa Utama,"Jl. Demmatande No.10, Mamasa, Kec. Mamasa, Kabupaten Mamasa, Sulawesi Barat 91365","Mamasa, Kec. Mamasa, Kabupaten Mamasa",SULAWESI BARAT,91365.0,Indonesia,82292804043.0,,,-2.940829,119.3778504,https://maps.google.com/?cid=0x0:0x1bfd6dc6779c566,
toko bangunan,Toko Bahan Bangunan,Sinar bangunan,"394H+7F9 Sinar bangunan, Mamasa, Kec. Mamasa, Kabupaten Mamasa, Sulawesi Barat 91365","Mamasa, Kec. Mamasa, Kabupaten Mamasa",SULAWESI BARAT,91365.0,Indonesia,,,,-2.9443482,119.3787483,https://maps.google.com/?cid=0x0:0x8d78651b563f3b73,
toko bangunan,Toko Bahan Bangunan,Tk. Surya Abadi H. Darno,"394F+PPG, Jl. Pembangunan, Mamasa, Kec. Mamasa, Kabupaten Mamasa, Sulawesi Barat 91365","Jl. Pembangunan, Mamasa, Kec. Mamasa, Kabupaten Mamasa",SULAWESI BARAT,91365.0,Indonesia,85341104784.0,,,-2.9431823,119.3743323,https://maps.google.com/?cid=0x0:0x8db05293da2a8dfd,
toko bangunan,Toko Bahan Bangunan,UD Pallawalipu,"3939+7XH, Osango, Kec. Mamasa, Kabupaten Mamasa, Sulawesi Barat 91365","Osango, Kec. Mamasa, Kabupaten Mamasa",SULAWESI BARAT,91365.0,Indonesia,85242135353.0,,,-2.9468075,119.3699721,https://maps.google.com/?cid=0x0:0x89b7a947fa3a3e83,
toko bangunan,Toko Bahan Bangunan,Toko Eljire,"Bamba Buntu, Kec. Mamasa, Kabupaten Mamasa, Sulawesi Barat 91365","Kec. Mamasa, Kabupaten Mamasa",SULAWESI BARAT,91365.0,Indonesia,82344723864.0,,,-2.9400417,119.3743757,https://maps.google.com/?cid=0x0:0x623b71ec81f528ba,
toko bangunan,Toko Bahan Bangunan,Toko Indo Bangunan,"JL A Jl. Syukur Rahim No.20-22, Banggae, Kec. Banggae, Kabupaten Majene, Sulawesi Barat","Kabupaten Majene, Sulawesi Barat",SULAWESI BARAT,,Indonesia,42221321.0,,,-3.544385,118.9661537,https://maps.google.com/?cid=0x0:0x79968e5059e72082,
toko bangunan,Toko,Toko Fajar Bangunan Majene,"pakkola, Jl. Mayjen Azis Bustam, Banggae, Kec. Banggae, Kabupaten Majene, Sulawesi Barat 91412","Jl. Mayjen Azis Bustam, Banggae, Kec. Banggae, Kabupaten Majene",SULAWESI BARAT,91412.0,Indonesia,81355566646.0,,,-3.5372746,118.9682725,https://maps.google.com/?cid=0x0:0xcfb27e4cdc8945d6,
toko bangunan,Pemasok Bahan Bangunan,Toko bangunan sinar surya baras,"Dusun samonu/bambaloka, Baras, Kec. Baras, Kab. Pasangkayu, Sulawesi Barat 91572","Baras, Kec. Baras, Kab. Pasangkayu",SULAWESI BARAT,91572.0,Indonesia,82292516079.0,,,-1.5911398,119.3269777,https://maps.google.com/?cid=0x0:0x6cbe19908c2077d,
toko bangunan,Pusat Perbelanjaan,TOKO UJUNG KOTA,"394F+475, ujung kota Jalan Poros Polewali, Mamasa, Kec. Mamasa, Kabupaten Mamasa, Sulawesi Barat 91365","ujung kota Jalan Poros Polewali, Mamasa, Kec. Mamasa, Kabupaten Mamasa",SULAWESI BARAT,91365.0,Indonesia,,,,-2.9447318,119.3732313,https://maps.google.com/?cid=0x0:0x64641989d20df821,
toko bangunan,Toko Bahan Bangunan,Toko Bangunan Padang Jaya,"Jl. Bulak Ringin No.5 1, RT.1/RW.3, Cibubur, Kec. Ciracas, Kota Jakarta Timur, Daerah Khusus Ibukota Jakarta 13720","RT.1/RW.3, Cibubur, Kec. Ciracas, Kota Jakarta Timur",SULAWESI BARAT,13720.0,Indonesia,82111888055.0,,,-6.3510561,106.8728508,https://maps.google.com/?cid=0x0:0x8775cc7b53a18f5,
toko bangunan,Toko Bahan Bangunan,Jasa Truck Angkutan Barang Mamasa,"Jl. Pembangunan No.127, Mamasa, Kec. Mamasa, Kabupaten Mamasa, Sulawesi Barat 91362","Mamasa, Kec. Mamasa, Kabupaten Mamasa",SULAWESI BARAT,91362.0,Indonesia,,,,-2.9430632,119.3746922,https://maps.google.com/?cid=0x0:0x4b647bcf0d727337,
toko bangunan,Toko Bahan Bangunan,Toko Delta Bangunan,"8V6H+X4H, Karema, Kec. Mamuju, Kabupaten Mamuju, Sulawesi Barat 91512","Karema, Kec. Mamuju, Kabupaten Mamuju",SULAWESI BARAT,91512.0,Indonesia,81524333299.0,,,-2.6875662,118.8778488,https://maps.google.com/?cid=0x0:0x600c10af92b1cb4f,
toko bangunan,Toko Bahan Bangunan,Delta bangunan,"kompleks, jembatan kuning, Kabupaten Mamasa, Sulawesi Barat 91362","jembatan kuning, Kabupaten Mamasa",SULAWESI BARAT,91362.0,Indonesia,,,,-2.9403737,119.3757252,https://maps.google.com/?cid=0x0:0x5796772de7f061d5,
toko bangunan,Toko Bahan Bangunan,Toko mega maspul,"X8H4+RJ8, Jl. Poros mamasa polewali, matuyu, Malabo, Kec. Tanduk Kalua, Kabupaten Mamasa, Sulawesi Barat","Kabupaten Mamasa, Sulawesi Barat",SULAWESI BARAT,,Indonesia,81347891009.0,,,-3.020459,119.3065782,https://maps.google.com/?cid=0x0:0xc35eb0772f1e840,
toko bangunan,Toko bahan makanan,Pasar Orobua,"298W+MJF, Orobua, Kec. Sesenapadang, Kabupaten Mamasa, Sulawesi Barat 91365","Orobua, Kec. Sesenapadang, Kabupaten Mamasa",SULAWESI BARAT,91365.0,Indonesia,,,,-2.9833184,119.3965505,https://maps.google.com/?cid=0x0:0x31cdcfe115b72af2,
toko bangunan,Toko,Toko Bangunan Satondo'ta,"V866+WC7, Sumarorong, Kec. Sumarorong, Kabupaten Mamasa, Sulawesi Barat 91361","Sumarorong, Kec. Sumarorong, Kabupaten Mamasa",SULAWESI BARAT,91361.0,Indonesia,81346669777.0,,,-3.1377039,119.311061,https://maps.google.com/?cid=0x0:0x7058556c45174885,
toko bangunan,Toko,Toko Sinar Timur,"Jl Poros Bandara, Sumarorong, Kec. Sumarorong, Kabupaten Mamasa, Sulawesi Barat 91361","Sumarorong, Kec. Sumarorong, Kabupaten Mamasa",SULAWESI BARAT,91361.0,Indonesia,85397647671.0,,,-3.1470656,119.3076145,https://maps.google.com/?cid=0x0:0x2de57bd36a49584e,
toko bangunan,Toko Swalayan,Pak Winda Toko sembako dan Bangunan,"R9FC+GR6, Batanguru, Kec. Sumarorong, Kabupaten Mamasa, Sulawesi Barat 91361","Batanguru, Kec. Sumarorong, Kabupaten Mamasa",SULAWESI BARAT,91361.0,Indonesia,81241991377.0,,,-3.1749547,119.3713157,https://maps.google.com/?cid=0x0:0xa2e84396e7f1a058,
toko bangunan,Toko Bahan Bangunan,Toko Bangunan Usaha Abadi,"25HW+2JC, Bambang Buda, Kec. Rantebulahan Tim., Kabupaten Mamasa, Sulawesi Barat 91371","Bambang Buda, Kec. Rantebulahan Tim., Kabupaten Mamasa",SULAWESI BARAT,91371.0,Indonesia,81264671628.0,,,-2.9724282,119.1965086,https://maps.google.com/?cid=0x0:0xae0c94fbc2df0fdf,
toko bangunan,Toko Bahan Bangunan,TOKO FAJAR BANGUNAN MAPILLI,"Jl. Poros Majene - Mamuju, Baru, Kec. Luyo, Kabupaten Polewali Mandar, Sulawesi Barat 91352","Baru, Kec. Luyo, Kabupaten Polewali Mandar",SULAWESI BARAT,91352.0,Indonesia,82292595546.0,,,-3.4189333,119.164406,https://maps.google.com/?cid=0x0:0x89a76f2924e54666,
toko bangunan,Pembangunan Perumahan,Toko Bangunan Putra Tande 5 Tapalang,"Galung, Kec. Tapalang, Kabupaten Mamuju, Sulawesi Barat 91352","Kec. Tapalang, Kabupaten Mamuju",SULAWESI BARAT,91352.0,Indonesia,85397048983.0,,,-2.8651937,118.8702682,https://maps.google.com/?cid=0x0:0x5ece193e63138999,
toko bangunan,Toko Bahan Bangunan,Sinar bangunan,"394H+7F9 Sinar bangunan, Mamasa, Kec. Mamasa, Kabupaten Mamasa, Sulawesi Barat 91365","Mamasa, Kec. Mamasa, Kabupaten Mamasa",SULAWESI BARAT,91365.0,Indonesia,,,,-2.9443482,119.3787483,https://maps.google.com/?cid=0x0:0x8d78651b563f3b73,
toko bangunan,Toko Bahan Bangunan,Toko Multi Bangunan,"Jl. Diponegoro No.c14-15, Karema, Kec. Mamuju, Kabupaten Mamuju, Sulawesi Barat 91512","Karema, Kec. Mamuju, Kabupaten Mamuju",SULAWESI BARAT,91512.0,Indonesia,81242298806.0,,,-2.6862595,118.8768742,https://maps.google.com/?cid=0x0:0xd05c6306c1a3648f,
toko bangunan,toko bangunan,Tabang,"Sidomulyo, Kec. Tabang, Kabupaten Kutai Kartanegara, Kalimantan Timur","Kabupaten Kutai Kartanegara, Kalimantan Timur",SULAWESI BARAT,,Indonesia,,,,0.575877,116.018303,https://maps.google.com/?cid=0x0:0x5fabf113a1ca660e,
toko bangunan,Toko Bahan Bangunan,Toko Bangunan Armada,"H2FC+4W3, Sidomulyo, Kec. Tabang, Kabupaten Kutai Kartanegara, Kalimantan Timur 75558","Sidomulyo, Kec. Tabang, Kabupaten Kutai Kartanegara",SULAWESI BARAT,75558.0,Indonesia,82220830170.0,,,0.5727655,116.0223124,https://maps.google.com/?cid=0x0:0x785d6087909b8109,
toko bangunan,Pusat Perbelanjaan,Toko Sadam,"H2G9+983, Jl. Poros Pu, Kembang janggut, Kec. Tabang, Kabupaten Kutai Kartanegara, Kalimantan Timur","Kabupaten Kutai Kartanegara, Kalimantan Timur",SULAWESI BARAT,,Indonesia,85350550356.0,,,0.575877,116.018303,https://maps.google.com/?cid=0x0:0x7c8e07e6b2329037,
toko bangunan,toko bangunan,Sulawesi Barat 91364,"Kabupaten Mamasa, Sulawesi Barat","Kabupaten Mamasa, Sulawesi Barat",SULAWESI BARAT,,Indonesia,,,,-2.8896276,119.4875668,https://maps.google.com/?cid=0x0:0xf6520409649f68c6,
toko bangunan,Toko Bahan Bangunan,Toko Bangunan Usaha Abadi,"25HW+2JC, Bambang Buda, Kec. Rantebulahan Tim., Kabupaten Mamasa, Sulawesi Barat 91371","Bambang Buda, Kec. Rantebulahan Tim., Kabupaten Mamasa",SULAWESI BARAT,91371.0,Indonesia,81264671628.0,,,-2.9724282,119.1965086,https://maps.google.com/?cid=0x0:0xae0c94fbc2df0fdf,
toko bangunan,Toko Bahan Bangunan,Sinar bangunan,"394H+7F9 Sinar bangunan, Mamasa, Kec. Mamasa, Kabupaten Mamasa, Sulawesi Barat 91365","Mamasa, Kec. Mamasa, Kabupaten Mamasa",SULAWESI BARAT,91365.0,Indonesia,,,,-2.9443482,119.3787483,https://maps.google.com/?cid=0x0:0x8d78651b563f3b73,
toko bangunan,Toko Bahan Bangunan,UD. Aviero Maju,"XGFQ+Q3X, Ulusalu, Kec. Pana, Kabupaten Mamasa, Sulawesi Barat 91363","Ulusalu, Kec. Pana, Kabupaten Mamasa",SULAWESI BARAT,91363.0,Indonesia,,,,-3.0255007,119.5377456,https://maps.google.com/?cid=0x0:0x83b2e36bbfbcd85,
toko bangunan,Toko Bahan Bangunan,TOKO FAJAR BANGUNAN MAPILLI,"Jl. Poros Majene - Mamuju, Baru, Kec. Luyo, Kabupaten Polewali Mandar, Sulawesi Barat 91352","Baru, Kec. Luyo, Kabupaten Polewali Mandar",SULAWESI BARAT,91352.0,Indonesia,82292595546.0,,,-3.4189333,119.164406,https://maps.google.com/?cid=0x0:0x89a76f2924e54666,
toko bangunan,Toko Bahan Bangunan,Toko Multi Bangunan,"Jl. Diponegoro No.c14-15, Karema, Kec. Mamuju, Kabupaten Mamuju, Sulawesi Barat 91512","Karema, Kec. Mamuju, Kabupaten Mamuju",SULAWESI BARAT,91512.0,Indonesia,81242298806.0,,,-2.6862595,118.8768742,https://maps.google.com/?cid=0x0:0xd05c6306c1a3648f,
toko bangunan,toko bangunan,Tabang,"Sidomulyo, Kec. Tabang, Kabupaten Kutai Kartanegara, Kalimantan Timur","Kabupaten Kutai Kartanegara, Kalimantan Timur",SULAWESI BARAT,,Indonesia,,,,0.575877,116.018303,https://maps.google.com/?cid=0x0:0x5fabf113a1ca660e,
toko bangunan,Toko Bahan Bangunan,Toko Bangunan Armada,"H2FC+4W3, Sidomulyo, Kec. Tabang, Kabupaten Kutai Kartanegara, Kalimantan Timur 75558","Sidomulyo, Kec. Tabang, Kabupaten Kutai Kartanegara",SULAWESI BARAT,75558.0,Indonesia,82220830170.0,,,0.5727655,116.0223124,https://maps.google.com/?cid=0x0:0x785d6087909b8109,
toko bangunan,Pusat Perbelanjaan,Toko Sadam,"H2G9+983, Jl. Poros Pu, Kembang janggut, Kec. Tabang, Kabupaten Kutai Kartanegara, Kalimantan Timur","Kabupaten Kutai Kartanegara, Kalimantan Timur",SULAWESI BARAT,,Indonesia,85350550356.0,,,0.575877,116.018303,https://maps.google.com/?cid=0x0:0x7c8e07e6b2329037,
toko bangunan,Komplek perumahan,Lakahang,"85GQ+Q73, Bauluande, Lakahang, Kec. Tabulahan, Kabupaten Mamasa, Sulawesi Barat","Kabupaten Mamasa, Sulawesi Barat",SULAWESI BARAT,,Indonesia,,,,-2.673134,119.187914,https://maps.google.com/?cid=0x0:0xa3181abfaca9f980,
toko bangunan,Pasar,Toko Sinar Lakahang,"Toko Sinar, Lakahang, Kec. Tabulahan, Kabupaten Mamasa, Sulawesi Barat","Kabupaten Mamasa, Sulawesi Barat",SULAWESI BARAT,,Indonesia,,,,-2.6739251,119.1875966,https://maps.google.com/?cid=0x0:0xb7ffdb7cd84c469a,
toko bangunan,toko bangunan,Sulawesi Barat 91366,"Kabupaten Mamasa, Sulawesi Barat","Kabupaten Mamasa, Sulawesi Barat",SULAWESI BARAT,,Indonesia,,,,-3.0188114,119.2785638,https://maps.google.com/?cid=0x0:0xf1c681e2dfa30cec,
toko bangunan,Toko Bahan Bangunan,Toko mega maspul,"X8H4+RJ8, Jl. Poros mamasa polewali, matuyu, Malabo, Kec. Tanduk Kalua, Kabupaten Mamasa, Sulawesi Barat","Kabupaten Mamasa, Sulawesi Barat",SULAWESI BARAT,,Indonesia,81347891009.0,,,-3.020459,119.3065782,https://maps.google.com/?cid=0x0:0xc35eb0772f1e840,
toko bangunan,Toko Bahan Bangunan,Toko Bangunan Usaha Abadi,"25HW+2JC, Bambang Buda, Kec. Rantebulahan Tim., Kabupaten Mamasa, Sulawesi Barat 91371","Bambang Buda, Kec. Rantebulahan Tim., Kabupaten Mamasa",SULAWESI BARAT,91371.0,Indonesia,81264671628.0,,,-2.9724282,119.1965086,https://maps.google.com/?cid=0x0:0xae0c94fbc2df0fdf,
toko bangunan,Toko Bahan Bangunan,UD.MANDIRI 02,"RANTESEPANG, Balla Satanetean, Kec. Balla, Kabupaten Mamasa, Sulawesi Barat 91362","Balla Satanetean, Kec. Balla, Kabupaten Mamasa",SULAWESI BARAT,91362.0,Indonesia,85256417793.0,,,-2.9909045,119.3330361,https://maps.google.com/?cid=0x0:0x5a65537a052ddc36,
toko bangunan,Toko,Toko Bangunan Satondo'ta,"V866+WC7, Sumarorong, Kec. Sumarorong, Kabupaten Mamasa, Sulawesi Barat 91361","Sumarorong, Kec. Sumarorong, Kabupaten Mamasa",SULAWESI BARAT,91361.0,Indonesia,81346669777.0,,,-3.1377039,119.311061,https://maps.google.com/?cid=0x0:0x7058556c45174885,
toko bangunan,Toko Bahan Bangunan,Toko_Usaha_Baru_Mambi_2,"25XM+C7G, Sendana, Kec. Mambi, Kabupaten Mamasa, Sulawesi Barat 91371","Sendana, Kec. Mambi, Kabupaten Mamasa",SULAWESI BARAT,91371.0,Indonesia,82291141604.0,,,-2.9512108,119.1825692,https://maps.google.com/?cid=0x0:0x413d6aa2f7214dc4,
toko bangunan,Toko Bahan Bangunan,Toko Bangunan RIA MAS,"Jl. Poros Tatoa, Tawalian, Kec. Tawalian, Kabupaten Mamasa, Sulawesi Barat 91365","Tawalian, Kec. Tawalian, Kabupaten Mamasa",SULAWESI BARAT,91365.0,Indonesia,85352715305.0,,,-2.9498769,119.3849432,https://maps.google.com/?cid=0x0:0x4ec54937015a0a15,
toko bangunan,Pasar bahan bangunan,Toko Usaha Baru Mambi,"352G+6HQ, Mambi, Kec. Mambi, Kabupaten Mamasa, Sulawesi Barat 91371","Mambi, Kec. Mambi, Kabupaten Mamasa",SULAWESI BARAT,91371.0,Indonesia,81241272240.0,,,-2.949416,119.176496,https://maps.google.com/?cid=0x0:0xdff3cf7cb85a095e,
toko bangunan,Toko Bahan Bangunan,UD Pallawalipu,"3939+7XH, Osango, Kec. Mamasa, Kabupaten Mamasa, Sulawesi Barat 91365","Osango, Kec. Mamasa, Kabupaten Mamasa",SULAWESI BARAT,91365.0,Indonesia,85242135353.0,,,-2.9468075,119.3699721,https://maps.google.com/?cid=0x0:0x89b7a947fa3a3e83,
toko bangunan,Toko Bahan Bangunan,Toko Masakke Bangunan,"396H+C2H, Bunta Buda, Kec. Mamasa, Kabupaten Mamasa, Sulawesi Barat 91365","Bunta Buda, Kec. Mamasa, Kabupaten Mamasa",SULAWESI BARAT,91365.0,Indonesia,,,,-2.9390152,119.3775121,https://maps.google.com/?cid=0x0:0xf76c8fac29f894c3,
toko bangunan,Toko Bahan Bangunan,Tk. Surya Abadi H. Darno,"394F+PPG, Jl. Pembangunan, Mamasa, Kec. Mamasa, Kabupaten Mamasa, Sulawesi Barat 91365","Jl. Pembangunan, Mamasa, Kec. Mamasa, Kabupaten Mamasa",SULAWESI BARAT,91365.0,Indonesia,85341104784.0,,,-2.9431823,119.3743323,https://maps.google.com/?cid=0x0:0x8db05293da2a8dfd,
toko bangunan,Toko Swalayan,Pak Winda Toko sembako dan Bangunan,"R9FC+GR6, Batanguru, Kec. Sumarorong, Kabupaten Mamasa, Sulawesi Barat 91361","Batanguru, Kec. Sumarorong, Kabupaten Mamasa",SULAWESI BARAT,91361.0,Indonesia,81241991377.0,,,-3.1749547,119.3713157,https://maps.google.com/?cid=0x0:0xa2e84396e7f1a058,
toko bangunan,Toko Bahan Bangunan,Toko Eljire,"Bamba Buntu, Kec. Mamasa, Kabupaten Mamasa, Sulawesi Barat 91365","Kec. Mamasa, Kabupaten Mamasa",SULAWESI BARAT,91365.0,Indonesia,82344723864.0,,,-2.9400417,119.3743757,https://maps.google.com/?cid=0x0:0x623b71ec81f528ba,
toko bangunan,Toko Bahan Bangunan,Toko Mamasa Utama,"Jl. Demmatande No.10, Mamasa, Kec. Mamasa, Kabupaten Mamasa, Sulawesi Barat 91365","Mamasa, Kec. Mamasa, Kabupaten Mamasa",SULAWESI BARAT,91365.0,Indonesia,82292804043.0,,,-2.940829,119.3778504,https://maps.google.com/?cid=0x0:0x1bfd6dc6779c566,
toko bangunan,Toko Bahan Bangunan,Toko Multi Bangunan,"Jl. Diponegoro No.c14-15, Karema, Kec. Mamuju, Kabupaten Mamuju, Sulawesi Barat 91512","Karema, Kec. Mamuju, Kabupaten Mamuju",SULAWESI BARAT,91512.0,Indonesia,81242298806.0,,,-2.6862595,118.8768742,https://maps.google.com/?cid=0x0:0xd05c6306c1a3648f,
toko bangunan,Toko Bahan Bangunan,Toko Valva Bangunan,"R995+F8H, Pasangkayu, Kec. Pasangkayu, Kab. Pasangkayu, Sulawesi Barat 91574","Pasangkayu, Kec. Pasangkayu, Kab. Pasangkayu",SULAWESI BARAT,91574.0,Indonesia,85341505076.0,,,-1.1812798,119.3583997,https://maps.google.com/?cid=0x0:0xba09a047162b033,
toko bangunan,Toko Bahan Bangunan,Sinar bangunan,"394H+7F9 Sinar bangunan, Mamasa, Kec. Mamasa, Kabupaten Mamasa, Sulawesi Barat 91365","Mamasa, Kec. Mamasa, Kabupaten Mamasa",SULAWESI BARAT,91365.0,Indonesia,,,,-2.9443482,119.3787483,https://maps.google.com/?cid=0x0:0x8d78651b563f3b73,
toko bangunan,Pembangunan Perumahan,Toko Bangunan Putra Tande 5 Tapalang,"Galung, Kec. Tapalang, Kabupaten Mamuju, Sulawesi Barat 91352","Kec. Tapalang, Kabupaten Mamuju",SULAWESI BARAT,91352.0,Indonesia,85397048983.0,,,-2.8651937,118.8702682,https://maps.google.com/?cid=0x0:0x5ece193e63138999,
toko bangunan,Perhimpunan Pengembang Perumahan,Toko Berkah Bangunan,"P8HH+5J9, Malei, Pedongga, Kab. Pasangkayu, Sulawesi Barat 91571","Malei, Pedongga, Kab. Pasangkayu",SULAWESI BARAT,91571.0,Indonesia,82193524222.0,,,-1.2720843,119.3290953,https://maps.google.com/?cid=0x0:0x4fe58465f2606352,
toko bangunan,Toko Bahan Bangunan,Delta bangunan,"kompleks, jembatan kuning, Kabupaten Mamasa, Sulawesi Barat 91362","jembatan kuning, Kabupaten Mamasa",SULAWESI BARAT,91362.0,Indonesia,,,,-2.9403737,119.3757252,https://maps.google.com/?cid=0x0:0x5796772de7f061d5,
toko bangunan,toko bangunan,Toko Sinar Utama,"X8G5+2Q9, Salurano, Kec. Tanduk Kalua, Kabupaten Mamasa, Sulawesi Barat 91366","Salurano, Kec. Tanduk Kalua, Kabupaten Mamasa",SULAWESI BARAT,91366.0,Indonesia,,,,-3.0249512,119.3094997,https://maps.google.com/?cid=0x0:0xe2b7f1928043981c,
toko bangunan,toko bangunan,Tawalian,"Kec. Tawalian, Kabupaten Mamasa, Sulawesi Barat","Kabupaten Mamasa, Sulawesi Barat",SULAWESI BARAT,,Indonesia,,,,-2.9583445,119.3889082,https://maps.google.com/?cid=0x0:0x1f4ad7b1dd0325ef,
toko bangunan,Toko Bahan Bangunan,Toko Bangunan RIA MAS,"Jl. Poros Tatoa, Tawalian, Kec. Tawalian, Kabupaten Mamasa, Sulawesi Barat 91365","Tawalian, Kec. Tawalian, Kabupaten Mamasa",SULAWESI BARAT,91365.0,Indonesia,85352715305.0,,,-2.9498769,119.3849432,https://maps.google.com/?cid=0x0:0x4ec54937015a0a15,
toko bangunan,Toko Bahan Bangunan,Tk. Surya Abadi H. Darno,"394F+PPG, Jl. Pembangunan, Mamasa, Kec. Mamasa, Kabupaten Mamasa, Sulawesi Barat 91365","Jl. Pembangunan, Mamasa, Kec. Mamasa, Kabupaten Mamasa",SULAWESI BARAT,91365.0,Indonesia,85341104784.0,,,-2.9431823,119.3743323,https://maps.google.com/?cid=0x0:0x8db05293da2a8dfd,
toko bangunan,Toko Bahan Bangunan,Toko Masakke Bangunan,"396H+C2H, Bunta Buda, Kec. Mamasa, Kabupaten Mamasa, Sulawesi Barat 91365","Bunta Buda, Kec. Mamasa, Kabupaten Mamasa",SULAWESI BARAT,91365.0,Indonesia,,,,-2.9390152,119.3775121,https://maps.google.com/?cid=0x0:0xf76c8fac29f894c3,
toko bangunan,Toko,Toko Bangunan Satondo'ta,"V866+WC7, Sumarorong, Kec. Sumarorong, Kabupaten Mamasa, Sulawesi Barat 91361","Sumarorong, Kec. Sumarorong, Kabupaten Mamasa",SULAWESI BARAT,91361.0,Indonesia,81346669777.0,,,-3.1377039,119.311061,https://maps.google.com/?cid=0x0:0x7058556c45174885,
toko bangunan,Toko Bahan Bangunan,Toko Mamasa Utama,"Jl. Demmatande No.10, Mamasa, Kec. Mamasa, Kabupaten Mamasa, Sulawesi Barat 91365","Mamasa, Kec. Mamasa, Kabupaten Mamasa",SULAWESI BARAT,91365.0,Indonesia,82292804043.0,,,-2.940829,119.3778504,https://maps.google.com/?cid=0x0:0x1bfd6dc6779c566,
toko bangunan,Pembangunan Perumahan,Toko Bangunan Putra Tande 5 Tapalang,"Galung, Kec. Tapalang, Kabupaten Mamuju, Sulawesi Barat 91352","Kec. Tapalang, Kabupaten Mamuju",SULAWESI BARAT,91352.0,Indonesia,85397048983.0,,,-2.8651937,118.8702682,https://maps.google.com/?cid=0x0:0x5ece193e63138999,
toko bangunan,Toko Bahan Bangunan,Toko Eljire,"Bamba Buntu, Kec. Mamasa, Kabupaten Mamasa, Sulawesi Barat 91365","Kec. Mamasa, Kabupaten Mamasa",SULAWESI BARAT,91365.0,Indonesia,82344723864.0,,,-2.9400417,119.3743757,https://maps.google.com/?cid=0x0:0x623b71ec81f528ba,
toko bangunan,Toko Bahan Bangunan,Toko Bangunan Usaha Abadi,"25HW+2JC, Bambang Buda, Kec. Rantebulahan Tim., Kabupaten Mamasa, Sulawesi Barat 91371","Bambang Buda, Kec. Rantebulahan Tim., Kabupaten Mamasa",SULAWESI BARAT,91371.0,Indonesia,81264671628.0,,,-2.9724282,119.1965086,https://maps.google.com/?cid=0x0:0xae0c94fbc2df0fdf,
toko bangunan,Toko Bahan Bangunan,Toko Multi Bangunan,"Jl. Diponegoro No.c14-15, Karema, Kec. Mamuju, Kabupaten Mamuju, Sulawesi Barat 91512","Karema, Kec. Mamuju, Kabupaten Mamuju",SULAWESI BARAT,91512.0,Indonesia,81242298806.0,,,-2.6862595,118.8768742,https://maps.google.com/?cid=0x0:0xd05c6306c1a3648f,
toko bangunan,Toko Bahan Bangunan,Delta bangunan,"kompleks, jembatan kuning, Kabupaten Mamasa, Sulawesi Barat 91362","jembatan kuning, Kabupaten Mamasa",SULAWESI BARAT,91362.0,Indonesia,,,,-2.9403737,119.3757252,https://maps.google.com/?cid=0x0:0x5796772de7f061d5,
toko bangunan,Toko Bahan Bangunan,Jasa Truck Angkutan Barang Mamasa,"Jl. Pembangunan No.127, Mamasa, Kec. Mamasa, Kabupaten Mamasa, Sulawesi Barat 91362","Mamasa, Kec. Mamasa, Kabupaten Mamasa",SULAWESI BARAT,91362.0,Indonesia,,,,-2.9430632,119.3746922,https://maps.google.com/?cid=0x0:0x4b647bcf0d727337,
hardware store,Toko Alat Tulis Kantor,Airah Comp Aralle,"45C2+787, Aralle, Kec. Aralle, Kabupaten Mamasa, Sulawesi Barat 91371","Aralle, Kec. Aralle, Kabupaten Mamasa",SULAWESI BARAT,91371.0,Indonesia,81354357381.0,,,-2.8793282,119.150787,https://maps.google.com/?cid=0x0:0x1280c661241cf1e1,
hardware store,Toko,TAMPAK JAYA,"DUSUN BAKBAPANE, Panetean, Kec. Aralle, Kabupaten Mamasa, Sulawesi Barat 91371","Panetean, Kec. Aralle, Kabupaten Mamasa",SULAWESI BARAT,91371.0,Indonesia,85756363005.0,,,-2.8577494,119.1486662,https://maps.google.com/?cid=0x0:0xdc0f41c46077c841,
hardware store,Toko Bahan Bangunan,LSL Hardware Sdn Bhd,"Jalan Bubul, Batu 3, 91308 Semporna, Sabah, Malaysia",Semporna,SULAWESI BARAT,91308.0,Indonesia,6089781562.0,,,4.4559822,118.5748691,https://maps.google.com/?cid=0x0:0x3a3fabd2c3b6903f,
hardware store,Penginapan,Homestay Razak,"FH3G+W4, 91308 Semporna, Sabah, Malaysia",Semporna,SULAWESI BARAT,91308.0,Indonesia,60148619193.0,,,4.4550487,118.5747863,https://maps.google.com/?cid=0x0:0xbaf95f4ebf755f3d,
hardware store,hardware store,Sulawesi Barat 91366,"Kabupaten Mamasa, Sulawesi Barat","Kabupaten Mamasa, Sulawesi Barat",SULAWESI BARAT,,Indonesia,,,,-3.0188114,119.2785638,https://maps.google.com/?cid=0x0:0xf1c681e2dfa30cec,
hardware store,Toko Bahan Bangunan,UD.MANDIRI 02,"RANTESEPANG, Balla Satanetean, Kec. Balla, Kabupaten Mamasa, Sulawesi Barat 91362","Balla Satanetean, Kec. Balla, Kabupaten Mamasa",SULAWESI BARAT,91362.0,Indonesia,85256417793.0,,,-2.9909045,119.3330361,https://maps.google.com/?cid=0x0:0x5a65537a052ddc36,
hardware store,Toko Bahan Bangunan,USAHA BUNTU MUSSA',"X8VG+JVV, Jalan Poros Pena' Balla Tumuka, Balla Bar., Kec. Balla, Kabupaten Mamasa, Sulawesi Barat 91366","Jalan Poros Pena' Balla Tumuka, Balla Bar., Kec. Balla, Kabupaten Mamasa",SULAWESI BARAT,91366.0,Indonesia,82196588111.0,,,-3.0058868,119.327176,https://maps.google.com/?cid=0x0:0xfe717888dbc10e4f,
hardware store,Toko Alat Musik,GUITAR STALL INDONESIA,"Jl. Potlot Dalam No.54, RT.2/RW.3, Duren Tiga, Kec. Pancoran, Kota Jakarta Selatan, Daerah Khusus Ibukota Jakarta 12760","RT.2/RW.3, Duren Tiga, Kec. Pancoran, Kota Jakarta Selatan",SULAWESI BARAT,12760.0,Indonesia,85959902477.0,,,-6.2558175,106.8397758,https://maps.google.com/?cid=0x0:0x25115af645700e69,
hardware store,Toko Bahan Bangunan,SUMBER HARAPAN,"Karema, Kec. Mamuju, Kabupaten Mamuju, Sulawesi Barat","Kabupaten Mamuju, Sulawesi Barat",SULAWESI BARAT,,Indonesia,85341996114.0,,,-2.6770968,118.8869489,https://maps.google.com/?cid=0x0:0xf393bd54539f675b,
hardware store,Toko Bahan Bangunan,Toko Harapan Jaya,"Jl. LetJend Hertasning, Binanga, Kec. Mamuju, Kabupaten Mamuju, Sulawesi Barat 91511","Binanga, Kec. Mamuju, Kabupaten Mamuju",SULAWESI BARAT,91511.0,Indonesia,,,,-2.6718353,118.8918529,https://maps.google.com/?cid=0x0:0x4aa8f68af0fe79ed,
hardware store,Toko Bahan Bangunan,FAR EAST HARDWARE AND CONSTRUCTION SUPPLIES,"Heroes Blvd, Bambang, Nueva Vizcaya, Filipina","Bambang, Nueva Vizcaya, Filipina",SULAWESI BARAT,,Indonesia,,,,16.387097,121.1023809,https://maps.google.com/?cid=0x0:0x9544d18c8bbf62f1,
hardware store,Toko Bahan Bangunan,Toko Delta Bangunan,"8V6H+X4H, Karema, Kec. Mamuju, Kabupaten Mamuju, Sulawesi Barat 91512","Karema, Kec. Mamuju, Kabupaten Mamuju",SULAWESI BARAT,91512.0,Indonesia,81524333299.0,,,-2.6875662,118.8778488,https://maps.google.com/?cid=0x0:0x600c10af92b1cb4f,
hardware store,Toko Bahan Bangunan,Toko Multi Bangunan,"Jl. Diponegoro No.c14-15, Karema, Kec. Mamuju, Kabupaten Mamuju, Sulawesi Barat 91512","Karema, Kec. Mamuju, Kabupaten Mamuju",SULAWESI BARAT,91512.0,Indonesia,81242298806.0,,,-2.6862595,118.8768742,https://maps.google.com/?cid=0x0:0xd05c6306c1a3648f,
hardware store,Toko,TAMPAK JAYA,"DUSUN BAKBAPANE, Panetean, Kec. Aralle, Kabupaten Mamasa, Sulawesi Barat 91371","Panetean, Kec. Aralle, Kabupaten Mamasa",SULAWESI BARAT,91371.0,Indonesia,85756363005.0,,,-2.8577494,119.1486662,https://maps.google.com/?cid=0x0:0xdc0f41c46077c841,
hardware store,hardware store,Sulawesi Barat 91373,"Kabupaten Mamasa, Sulawesi Barat","Kabupaten Mamasa, Sulawesi Barat",SULAWESI BARAT,,Indonesia,,,,-2.7933646,119.1623231,https://maps.google.com/?cid=0x0:0x63837cb8dbe972c6,
hardware store,Toko Alat Tulis Kantor,Airah Comp Aralle,"45C2+787, Aralle, Kec. Aralle, Kabupaten Mamasa, Sulawesi Barat 91371","Aralle, Kec. Aralle, Kabupaten Mamasa",SULAWESI BARAT,91371.0,Indonesia,81354357381.0,,,-2.8793282,119.150787,https://maps.google.com/?cid=0x0:0x1280c661241cf1e1,
hardware store,hardware store,Sulawesi Barat 91362,"Kabupaten Mamasa, Sulawesi Barat","Kabupaten Mamasa, Sulawesi Barat",SULAWESI BARAT,,Indonesia,,,,-2.8753644,119.3714909,https://maps.google.com/?cid=0x0:0x1d800b7ea94db71e,
hardware store,Toko,MR.DIY,"Jl. Pendidikan, Mamasa, Kec. Mamasa, Kabupaten Mamasa, Sulawesi Barat 91365","Mamasa, Kec. Mamasa, Kabupaten Mamasa",SULAWESI BARAT,91365.0,Indonesia,,,,-2.944309,119.380398,https://maps.google.com/?cid=0x0:0x9825ee35557fe48f,
hardware store,Toko Bahan Bangunan,Toko Eljire,"Bamba Buntu, Kec. Mamasa, Kabupaten Mamasa, Sulawesi Barat 91365","Kec. Mamasa, Kabupaten Mamasa",SULAWESI BARAT,91365.0,Indonesia,82344723864.0,,,-2.9400417,119.3743757,https://maps.google.com/?cid=0x0:0x623b71ec81f528ba,
hardware store,hardware store,Mamasa,"Rantetangnga, Kec. Tawalian, Kabupaten Mamasa, Sulawesi Barat","Kabupaten Mamasa, Sulawesi Barat",SULAWESI BARAT,,Indonesia,,,,-2.960135,119.368202,https://maps.google.com/?cid=0x0:0x1cf90905194c99f9,
hardware store,Pusat Perbelanjaan,TOKO UJUNG KOTA,"394F+475, ujung kota Jalan Poros Polewali, Mamasa, Kec. Mamasa, Kabupaten Mamasa, Sulawesi Barat 91365","ujung kota Jalan Poros Polewali, Mamasa, Kec. Mamasa, Kabupaten Mamasa",SULAWESI BARAT,91365.0,Indonesia,,,,-2.9447318,119.3732313,https://maps.google.com/?cid=0x0:0x64641989d20df821,
hardware store,Toko Bahan Bangunan,Sinar bangunan,"394H+7F9 Sinar bangunan, Mamasa, Kec. Mamasa, Kabupaten Mamasa, Sulawesi Barat 91365","Mamasa, Kec. Mamasa, Kabupaten Mamasa",SULAWESI BARAT,91365.0,Indonesia,,,,-2.9443482,119.3787483,https://maps.google.com/?cid=0x0:0x8d78651b563f3b73,
hardware store,Toko Bahan Bangunan,Atlantic Hardware Store,"Jl. Sunset Road No.65 A, Legian, Kec. Kuta, Kabupaten Badung, Bali 80361","Legian, Kec. Kuta, Kabupaten Badung",SULAWESI BARAT,80361.0,Indonesia,81239673975.0,,,-8.7050249,115.1820732,https://maps.google.com/?cid=0x0:0x181fc03fafedc4a2,
hardware store,Toko Bahan Bangunan,Nakula Jaya Abadi,"Jl. Nakula No.69 X, Legian, Kec. Kuta, Kabupaten Badung, Bali 80361","Legian, Kec. Kuta, Kabupaten Badung",SULAWESI BARAT,80361.0,Indonesia,85166898822.0,,,-8.6980234,115.1736725,https://maps.google.com/?cid=0x0:0xb52e3b792a894a82,
hardware store,Toko Bahan Bangunan,Kuta Kencana,"8589+CP3, JL. Sunset Road, Legian Koja, Badung, Denpasar, Seminyak, Kuta, Badung Regency, Bali 80361","JL. Sunset Road, Legian Koja, Badung, Denpasar, Seminyak, Kuta, Badung Regency",SULAWESI BARAT,80361.0,Indonesia,3617473901.0,,,-8.683989,115.1692843,https://maps.google.com/?cid=0x0:0x74fc38f585fbe77,
hardware store,Toko Bahan Bangunan,az.ko,"Jl. Sunset Road No.88 - 99, Kerobokan Kelod, Kec. Kuta Utara, Kabupaten Badung, Bali 80361","Kerobokan Kelod, Kec. Kuta Utara, Kabupaten Badung",SULAWESI BARAT,80361.0,Indonesia,8873401311.0,,,-8.6826084,115.1667757,https://maps.google.com/?cid=0x0:0x44d3d4705d33f046,
hardware store,hardware store,Kec. Mambi,"Kabupaten Mamasa, Sulawesi Barat","Kabupaten Mamasa, Sulawesi Barat",SULAWESI BARAT,,Indonesia,,,,-2.9511527,119.1807955,https://maps.google.com/?cid=0x0:0xd5ebe7e9ad656c5d,
hardware store,Toko Bahan Bangunan,Toko_Usaha_Baru_Mambi_2,"25XM+C7G, Sendana, Kec. Mambi, Kabupaten Mamasa, Sulawesi Barat 91371","Sendana, Kec. Mambi, Kabupaten Mamasa",SULAWESI BARAT,91371.0,Indonesia,82291141604.0,,,-2.9512108,119.1825692,https://maps.google.com/?cid=0x0:0x413d6aa2f7214dc4,
hardware store,Jasa Ketik,PHOTOCOPY AKSARA MAMBI,"Mambi, Kec. Mambi, Kabupaten Mamasa, Sulawesi Barat","Kabupaten Mamasa, Sulawesi Barat",SULAWESI BARAT,,Indonesia,82259568151.0,,,-2.9480884,119.174231,https://maps.google.com/?cid=0x0:0xc92829e1b420690c,
hardware store,Toko,Bintang Tho Sendana cell Dan ATK,"Sendana, Kec. Mambi, Kabupaten Mamasa, Sulawesi Barat 91371","Kec. Mambi, Kabupaten Mamasa",SULAWESI BARAT,91371.0,Indonesia,81342292507.0,,,-2.9506769,119.1801816,https://maps.google.com/?cid=0x0:0x2abf4e6adda1098b,
hardware store,Toko Tegel,M.S Tiles  Hardwares,"Kambalakkad, Kerala 673122, India",Kerala,SULAWESI BARAT,673122.0,Indonesia,919447351679.0,,,11.6731414,76.0777187,https://maps.google.com/?cid=0x0:0xd89d90cc5418256f,
hardware store,Toko Tegel,TILE PLANET GRANITES  SANITARY KAMBALAKKAD,"NR POLICE STATTION, Kambalakkad, Kerala 673122, India","Kambalakkad, Kerala",SULAWESI BARAT,673122.0,Indonesia,919605100098.0,,,11.6850816,76.0778117,https://maps.google.com/?cid=0x0:0x88d732a1fa0ae1a6,
hardware store,Toko Bahan Bangunan,SUMBER HARAPAN,"Karema, Kec. Mamuju, Kabupaten Mamuju, Sulawesi Barat","Kabupaten Mamuju, Sulawesi Barat",SULAWESI BARAT,,Indonesia,85341996114.0,,,-2.6770968,118.8869489,https://maps.google.com/?cid=0x0:0xf393bd54539f675b,
hardware store,Toko Bahan Bangunan,Toko Harapan Jaya,"Jl. LetJend Hertasning, Binanga, Kec. Mamuju, Kabupaten Mamuju, Sulawesi Barat 91511","Binanga, Kec. Mamuju, Kabupaten Mamuju",SULAWESI BARAT,91511.0,Indonesia,,,,-2.6718353,118.8918529,https://maps.google.com/?cid=0x0:0x4aa8f68af0fe79ed,
hardware store,Toko Cat,my home hardware kok lanas,"Lot 1179 T/B-A, Taman Wira Jaya, Kok Lanas, 16450 Kota Bharu, Kelantan, Malaysia",Kota Bharu,SULAWESI BARAT,16450.0,Indonesia,60182999244.0,,,5.9249387,102.2453885,https://maps.google.com/?cid=0x0:0xe86e0255c4aaa5fc,
hardware store,hardware store,Sulawesi Barat 91361,"Kabupaten Mamasa, Sulawesi Barat","Kabupaten Mamasa, Sulawesi Barat",SULAWESI BARAT,,Indonesia,,,,-3.1770865,119.3018011,https://maps.google.com/?cid=0x0:0xa3c2c4ef1c97d548,
hardware store,hardware store,Messawa,"Kec. Messawa, Kabupaten Mamasa, Sulawesi Barat","Kabupaten Mamasa, Sulawesi Barat",SULAWESI BARAT,,Indonesia,,,,-3.2622327,119.3395538,https://maps.google.com/?cid=0x0:0xa39b9aea8468a651,
hardware store,Toko,Toko Bangunan Satondo'ta,"V866+WC7, Sumarorong, Kec. Sumarorong, Kabupaten Mamasa, Sulawesi Barat 91361","Sumarorong, Kec. Sumarorong, Kabupaten Mamasa",SULAWESI BARAT,91361.0,Indonesia,81346669777.0,,,-3.1377039,119.311061,https://maps.google.com/?cid=0x0:0x7058556c45174885,
hardware store,Toko Bahan Bangunan,Ace Hardware of Thousand Oaks,"1934 E Avenida De Los Arboles, Thousand Oaks, CA 91362, Amerika Serikat","Thousand Oaks, CA",SULAWESI BARAT,91362.0,Indonesia,18052671785.0,,,34.2100795,-118.8427385,https://maps.google.com/?cid=0x0:0x360beb0e877214a,
hardware store,Toko Bahan Bangunan,Ace Hardware of Simi Valley,"2910 Tapo Canyon Rd, Simi Valley, CA 93063, Amerika Serikat","Simi Valley, CA",SULAWESI BARAT,93063.0,Indonesia,18052063023.0,,,34.2868489,-118.7171701,https://maps.google.com/?cid=0x0:0x9f55c0bec19ebb15,
hardware store,Pusat Perbelanjaan,Oakbrook Plaza,"1724-1772 E Avenida De Los Arboles, Thousand Oaks, CA 91360, Amerika Serikat","Thousand Oaks, CA",SULAWESI BARAT,91360.0,Indonesia,12135532200.0,,,34.209899,-118.8461755,https://maps.google.com/?cid=0x0:0x10b03a60e5034140,
hardware store,hardware store,Nosu,"Kec. Nosu, Kabupaten Mamasa, Sulawesi Barat","Kabupaten Mamasa, Sulawesi Barat",SULAWESI BARAT,,Indonesia,,,,-3.1222192,119.5049702,https://maps.google.com/?cid=0x0:0xbc469c34008e21a3,
hardware store,Toko Bahan Bangunan,DIY Home Center,"3775 Thousand Oaks Blvd, Thousand Oaks, CA 91360, Amerika Serikat","Thousand Oaks, CA",SULAWESI BARAT,91360.0,Indonesia,18054972753.0,,,34.1644166,-118.8271802,https://maps.google.com/?cid=0x0:0x2db533afa4ab4546,
hardware store,Toko Bahan Bangunan,Ace Hardware of Thousand Oaks,"1934 E Avenida De Los Arboles, Thousand Oaks, CA 91362, Amerika Serikat","Thousand Oaks, CA",SULAWESI BARAT,91362.0,Indonesia,18052671785.0,,,34.2100795,-118.8427385,https://maps.google.com/?cid=0x0:0x360beb0e877214a,
hardware store,Toko Bahan Bangunan,Toko_Usaha_Baru_Mambi_2,"25XM+C7G, Sendana, Kec. Mambi, Kabupaten Mamasa, Sulawesi Barat 91371","Sendana, Kec. Mambi, Kabupaten Mamasa",SULAWESI BARAT,91371.0,Indonesia,82291141604.0,,,-2.9512108,119.1825692,https://maps.google.com/?cid=0x0:0x413d6aa2f7214dc4,
hardware store,Pasar bahan bangunan,Toko Usaha Baru Mambi,"352G+6HQ, Mambi, Kec. Mambi, Kabupaten Mamasa, Sulawesi Barat 91371","Mambi, Kec. Mambi, Kabupaten Mamasa",SULAWESI BARAT,91371.0,Indonesia,81241272240.0,,,-2.949416,119.176496,https://maps.google.com/?cid=0x0:0xdff3cf7cb85a095e,
hardware store,Masjid,Mambi,"25XJ+G8C, Sendana, Kec. Mambi, Kabupaten Mamasa, Sulawesi Barat 91371","Sendana, Kec. Mambi, Kabupaten Mamasa",SULAWESI BARAT,91371.0,Indonesia,,,,-2.9511777,119.180753,https://maps.google.com/?cid=0x0:0xde9aad61692854ff,
hardware store,hardware store,Sulawesi Barat 91363,"Kabupaten Mamasa, Sulawesi Barat","Kabupaten Mamasa, Sulawesi Barat",SULAWESI BARAT,,Indonesia,,,,-3.1007066,119.4875668,https://maps.google.com/?cid=0x0:0x2729e55714d41779,
hardware store,Toko Bahan Bangunan,UD. Aviero Maju,"XGFQ+Q3X, Ulusalu, Kec. Pana, Kabupaten Mamasa, Sulawesi Barat 91363","Ulusalu, Kec. Pana, Kabupaten Mamasa",SULAWESI BARAT,91363.0,Indonesia,,,,-3.0255007,119.5377456,https://maps.google.com/?cid=0x0:0x83b2e36bbfbcd85,
hardware store,Toko Bahan Bangunan,UD Pallawalipu,"3939+7XH, Osango, Kec. Mamasa, Kabupaten Mamasa, Sulawesi Barat 91365","Osango, Kec. Mamasa, Kabupaten Mamasa",SULAWESI BARAT,91365.0,Indonesia,85242135353.0,,,-2.9468075,119.3699721,https://maps.google.com/?cid=0x0:0x89b7a947fa3a3e83,
hardware store,Toko Bahan Bangunan,Plumbing City True Value Hardware,"8751 Canoga Ave, Canoga Park, CA 91304, Amerika Serikat","Canoga Park, CA",SULAWESI BARAT,91304.0,Indonesia,18183411622.0,,,34.2298307,-118.5984882,https://maps.google.com/?cid=0x0:0x7a890a2df6c1cf9a,
hardware store,hardware store,Sesea,"45223, Provinsi Toledo, Spanyol","Sesea, Spanyol",SULAWESI BARAT,,Indonesia,,,,40.104345,-3.6922767,https://maps.google.com/?cid=0x0:0x8b136ae724f14913,
hardware store,hardware store,Padang,"Kota Padang, Sumatera Barat","Kota Padang, Sumatera Barat",SULAWESI BARAT,,Indonesia,,,,-0.948041,100.3630901,https://maps.google.com/?cid=0x0:0xb8468cb5c3046ba5,
hardware store,hardware store,Sulawesi Barat,,Sulawesi Barat,SULAWESI BARAT,,Indonesia,,,,-2.8441371,119.2320784,https://maps.google.com/?cid=0x0:0xea5cbf202f3370f2,
hardware store,Toko Perlengkapan Rumah,MR.DIY Indonesia Head Office,"Gedung AIA Central Lantai 30, Jl. Jend. Sudirman Kav. 48A, Karet Semanggi, Kecamatan Setiabudi, Daerah Khusus Ibukota Jakarta 12930","Jl. Jend. Sudirman Kav. 48A, Karet Semanggi, Kecamatan Setiabudi",SULAWESI BARAT,12930.0,Indonesia,2121686078.0,,,-6.2180612,106.8170249,https://maps.google.com/?cid=0x0:0xde5c5244253a319b,
hardware store,Kantor Perusahaan,MR.DIY,"Mal Ambassador Lt, Jl. Prof. DR. Satrio No.14 1 Unit No 19, RT.11/RW.4, Kuningan, Karet Kuningan, Jakarta, Kota Jakarta Selatan, Daerah Khusus Ibukota Jakarta 12940","Jl. Prof. DR. Satrio No.14 1 Unit No 19, RT.11/RW.4, Kuningan, Karet Kuningan, Jakarta, Kota Jakarta Selatan",SULAWESI BARAT,12940.0,Indonesia,2130022789.0,,,-6.2238908,106.8268688,https://maps.google.com/?cid=0x0:0xfa0b6f4d23b82ed5,
hardware store,Agen Asuransi,AIA Central,"Jl. Jend. Sudirman No.Kav. 48A, Karet Semanggi, Kecamatan Setiabudi, Kota Jakarta Selatan, Daerah Khusus Ibukota Jakarta 12930","Karet Semanggi, Kecamatan Setiabudi, Kota Jakarta Selatan",SULAWESI BARAT,12930.0,Indonesia,211500980.0,,,-6.2180734,106.8170007,https://maps.google.com/?cid=0x0:0x6e35f06585ecba5f,
hardware store,Toko,Toko Sinar Timur,"Jl Poros Bandara, Sumarorong, Kec. Sumarorong, Kabupaten Mamasa, Sulawesi Barat 91361","Sumarorong, Kec. Sumarorong, Kabupaten Mamasa",SULAWESI BARAT,91361.0,Indonesia,85397647671.0,,,-3.1470656,119.3076145,https://maps.google.com/?cid=0x0:0x2de57bd36a49584e,
hardware store,Toko Bahan Bangunan,UD. Aviero Maju,"XGFQ+Q3X, Ulusalu, Kec. Pana, Kabupaten Mamasa, Sulawesi Barat 91363","Ulusalu, Kec. Pana, Kabupaten Mamasa",SULAWESI BARAT,91363.0,Indonesia,,,,-3.0255007,119.5377456,https://maps.google.com/?cid=0x0:0x83b2e36bbfbcd85,
hardware store,Toko Bahan Bangunan,UD Pallawalipu,"3939+7XH, Osango, Kec. Mamasa, Kabupaten Mamasa, Sulawesi Barat 91365","Osango, Kec. Mamasa, Kabupaten Mamasa",SULAWESI BARAT,91365.0,Indonesia,85242135353.0,,,-2.9468075,119.3699721,https://maps.google.com/?cid=0x0:0x89b7a947fa3a3e83,
hardware store,hardware store,Tabang,"Sidomulyo, Kec. Tabang, Kabupaten Kutai Kartanegara, Kalimantan Timur","Kabupaten Kutai Kartanegara, Kalimantan Timur",SULAWESI BARAT,,Indonesia,,,,0.575877,116.018303,https://maps.google.com/?cid=0x0:0x5fabf113a1ca660e,
hardware store,Toko Bahan Bangunan,UD. Aviero Maju,"XGFQ+Q3X, Ulusalu, Kec. Pana, Kabupaten Mamasa, Sulawesi Barat 91363","Ulusalu, Kec. Pana, Kabupaten Mamasa",SULAWESI BARAT,91363.0,Indonesia,,,,-3.0255007,119.5377456,https://maps.google.com/?cid=0x0:0x83b2e36bbfbcd85,
hardware store,Toko Bahan Bangunan,UD Pallawalipu,"3939+7XH, Osango, Kec. Mamasa, Kabupaten Mamasa, Sulawesi Barat 91365","Osango, Kec. Mamasa, Kabupaten Mamasa",SULAWESI BARAT,91365.0,Indonesia,85242135353.0,,,-2.9468075,119.3699721,https://maps.google.com/?cid=0x0:0x89b7a947fa3a3e83,
hardware store,Kantor Perusahaan,CineGripTools - Film Grip  Tools Indonesia (ARRI Authorized Dealer),"CineGripTools - Film Grip  Tools Indonesia. JI, Jl. Abdul Majid Raya No.44, RT.7/RW.2, Cipete Sel., Kec. Cilandak, Kota Jakarta Selatan, Daerah Khusus Ibukota Jakarta 12410","Jl. Abdul Majid Raya No.44, RT.7/RW.2, Cipete Sel., Kec. Cilandak, Kota Jakarta Selatan",SULAWESI BARAT,12410.0,Indonesia,,,,-6.266342,106.807652,https://maps.google.com/?cid=0x0:0x42e6bf35f202ecd4,
hardware store,Toko Bahan Bangunan,SUMBER HARAPAN,"Karema, Kec. Mamuju, Kabupaten Mamuju, Sulawesi Barat","Kabupaten Mamuju, Sulawesi Barat",SULAWESI BARAT,,Indonesia,85341996114.0,,,-2.6770968,118.8869489,https://maps.google.com/?cid=0x0:0xf393bd54539f675b,
hardware store,Toko Bahan Bangunan,Toko Harapan Jaya,"Jl. LetJend Hertasning, Binanga, Kec. Mamuju, Kabupaten Mamuju, Sulawesi Barat 91511","Binanga, Kec. Mamuju, Kabupaten Mamuju",SULAWESI BARAT,91511.0,Indonesia,,,,-2.6718353,118.8918529,https://maps.google.com/?cid=0x0:0x4aa8f68af0fe79ed,
hardware store,Pembangunan Perumahan,Toko Bangunan Putra Tande 5 Tapalang,"Galung, Kec. Tapalang, Kabupaten Mamuju, Sulawesi Barat 91352","Kec. Tapalang, Kabupaten Mamuju",SULAWESI BARAT,91352.0,Indonesia,85397048983.0,,,-2.8651937,118.8702682,https://maps.google.com/?cid=0x0:0x5ece193e63138999,
hardware store,Toko Bahan Bangunan,TB Polewalimaju,"Jl. Mamuju - Kalukku No.184, Bebanga, Kec. Kalukku, Kabupaten Mamuju, Sulawesi Barat 91561","Bebanga, Kec. Kalukku, Kabupaten Mamuju",SULAWESI BARAT,91561.0,Indonesia,,,,-2.5990823,119.021633,https://maps.google.com/?cid=0x0:0x9cf0f24d44de8905,
hardware store,Toko Bahan Bangunan,TB SUMBER JAYA,"C3X7+C35, Jl. Poros Majene - Mamuju, Kalukku, Kec. Kalukku, Kabupaten Mamuju, Sulawesi Barat 91561","Jl. Poros Majene - Mamuju, Kalukku, Kec. Kalukku, Kabupaten Mamuju",SULAWESI BARAT,91561.0,Indonesia,,,,-2.5514315,119.0627791,https://maps.google.com/?cid=0x0:0x467badbf26676e1,
hardware store,hardware store,Sulawesi Barat 91366,"Kabupaten Mamasa, Sulawesi Barat","Kabupaten Mamasa, Sulawesi Barat",SULAWESI BARAT,,Indonesia,,,,-3.0188114,119.2785638,https://maps.google.com/?cid=0x0:0xf1c681e2dfa30cec,
hardware store,Toko Bahan Bangunan,Toko mega maspul,"X8H4+RJ8, Jl. Poros mamasa polewali, matuyu, Malabo, Kec. Tanduk Kalua, Kabupaten Mamasa, Sulawesi Barat","Kabupaten Mamasa, Sulawesi Barat",SULAWESI BARAT,,Indonesia,81347891009.0,,,-3.020459,119.3065782,https://maps.google.com/?cid=0x0:0xc35eb0772f1e840,
hardware store,Toko Bahan Bangunan,UD.MANDIRI 02,"RANTESEPANG, Balla Satanetean, Kec. Balla, Kabupaten Mamasa, Sulawesi Barat 91362","Balla Satanetean, Kec. Balla, Kabupaten Mamasa",SULAWESI BARAT,91362.0,Indonesia,85256417793.0,,,-2.9909045,119.3330361,https://maps.google.com/?cid=0x0:0x5a65537a052ddc36,
hardware store,Toko Alat Pancing,"Toko MarZeRa (Fotocopy, ATK, Perlengkapan Pancing, Perlengkapan Ulang Tahun, Parfum Isi Ulang, Aneka Plastik, dll)","Depan SDN 001 Malabo. Minake. Kel. Minake, Kec. Tandukkalua, Jl. Poros Mamasa, Mambi, Kec. Mamasa, Kabupaten Mamasa, Sulawesi Barat 91367","Kec. Tandukkalua, Jl. Poros Mamasa, Mambi, Kec. Mamasa, Kabupaten Mamasa",SULAWESI BARAT,91367.0,Indonesia,85398051525.0,,,-3.0259997,119.2962948,https://maps.google.com/?cid=0x0:0x4b2d5e2a4b3fc2dc,
hardware store,Toko,Toko Bangunan Satondo'ta,"V866+WC7, Sumarorong, Kec. Sumarorong, Kabupaten Mamasa, Sulawesi Barat 91361","Sumarorong, Kec. Sumarorong, Kabupaten Mamasa",SULAWESI BARAT,91361.0,Indonesia,81346669777.0,,,-3.1377039,119.311061,https://maps.google.com/?cid=0x0:0x7058556c45174885,
hardware store,Toko Bahan Bangunan,Toko Eljire,"Bamba Buntu, Kec. Mamasa, Kabupaten Mamasa, Sulawesi Barat 91365","Kec. Mamasa, Kabupaten Mamasa",SULAWESI BARAT,91365.0,Indonesia,82344723864.0,,,-2.9400417,119.3743757,https://maps.google.com/?cid=0x0:0x623b71ec81f528ba,
hardware store,Toko,MR.DIY,"Jl. Pendidikan, Mamasa, Kec. Mamasa, Kabupaten Mamasa, Sulawesi Barat 91365","Mamasa, Kec. Mamasa, Kabupaten Mamasa",SULAWESI BARAT,91365.0,Indonesia,,,,-2.944309,119.380398,https://maps.google.com/?cid=0x0:0x9825ee35557fe48f,
hardware store,Toko Fotokopi,Fotocopy Tunasmuda Salururu,"_, Jalan poros Salururu, Limbadebata, Kec. Bambang, Kabupaten Mamasa, Sulawesi Barat 91366","Jalan poros Salururu, Limbadebata, Kec. Bambang, Kabupaten Mamasa",SULAWESI BARAT,91366.0,Indonesia,85242453639.0,,,-2.9400599,119.2384802,https://maps.google.com/?cid=0x0:0x85b20a34ba50a2fc,
hardware store,Toko Alat Tulis Kantor,Airah Comp Aralle,"45C2+787, Aralle, Kec. Aralle, Kabupaten Mamasa, Sulawesi Barat 91371","Aralle, Kec. Aralle, Kabupaten Mamasa",SULAWESI BARAT,91371.0,Indonesia,81354357381.0,,,-2.8793282,119.150787,https://maps.google.com/?cid=0x0:0x1280c661241cf1e1,
hardware store,Toko,Bintang Tho Sendana cell Dan ATK,"Sendana, Kec. Mambi, Kabupaten Mamasa, Sulawesi Barat 91371","Kec. Mambi, Kabupaten Mamasa",SULAWESI BARAT,91371.0,Indonesia,81342292507.0,,,-2.9506769,119.1801816,https://maps.google.com/?cid=0x0:0x2abf4e6adda1098b,
hardware store,Jasa Ketik,PHOTOCOPY AKSARA MAMBI,"Mambi, Kec. Mambi, Kabupaten Mamasa, Sulawesi Barat","Kabupaten Mamasa, Sulawesi Barat",SULAWESI BARAT,,Indonesia,82259568151.0,,,-2.9480884,119.174231,https://maps.google.com/?cid=0x0:0xc92829e1b420690c,
hardware store,Toko Bahan Bangunan,Jasa Truck Angkutan Barang Mamasa,"Jl. Pembangunan No.127, Mamasa, Kec. Mamasa, Kabupaten Mamasa, Sulawesi Barat 91362","Mamasa, Kec. Mamasa, Kabupaten Mamasa",SULAWESI BARAT,91362.0,Indonesia,,,,-2.9430632,119.3746922,https://maps.google.com/?cid=0x0:0x4b647bcf0d727337,
hardware store,hardware store,Tawalian,"Kec. Tawalian, Kabupaten Mamasa, Sulawesi Barat","Kabupaten Mamasa, Sulawesi Barat",SULAWESI BARAT,,Indonesia,,,,-2.9583445,119.3889082,https://maps.google.com/?cid=0x0:0x1f4ad7b1dd0325ef,
hardware store,Toko,MR.DIY,"Jl. Pendidikan, Mamasa, Kec. Mamasa, Kabupaten Mamasa, Sulawesi Barat 91365","Mamasa, Kec. Mamasa, Kabupaten Mamasa",SULAWESI BARAT,91365.0,Indonesia,,,,-2.944309,119.380398,https://maps.google.com/?cid=0x0:0x9825ee35557fe48f,
hardware store,Toko Bahan Bangunan,Toko Eljire,"Bamba Buntu, Kec. Mamasa, Kabupaten Mamasa, Sulawesi Barat 91365","Kec. Mamasa, Kabupaten Mamasa",SULAWESI BARAT,91365.0,Indonesia,82344723864.0,,,-2.9400417,119.3743757,https://maps.google.com/?cid=0x0:0x623b71ec81f528ba,
hardware store,Toko Bahan Bangunan,E E Hardware,"City of Bayugan, Agusan del Sur, Filipina","City of Bayugan, Agusan del Sur, Filipina",SULAWESI BARAT,,Indonesia,,,,8.713766,125.7552179,https://maps.google.com/?cid=0x0:0xdc0ef33c6ff4dc30,
hardware store,Toko Bahan Bangunan,Ei Hardware,"Sibagat, Agusan del Sur, Filipina","Sibagat, Agusan del Sur, Filipina",SULAWESI BARAT,,Indonesia,,,,8.8238289,125.6940333,https://maps.google.com/?cid=0x0:0x8d147e030e55975c,
