Category,Real Category,Business Name,Address,City,State,Postal Code,Country,Phone,Email,Website,Latitude,Longitude,Map Link,Details Link
mall,mall,Sulawesi Barat 91373,"Kabupaten Mamasa, Sulawesi Barat","Kabupaten Mamasa, Sulawesi Barat",SULAWESI BARAT,,Indonesia,,,,-2.7933646,119.1623231,https://maps.google.com/?cid=0x0:0x63837cb8dbe972c6,
mall,Komplek perumahan,Pasar Kec Aralle,"4592+G7M, Aralle, Kec. Aralle, Kabupaten Mamasa, Sulawesi Barat 91371","Aralle, Kec. Aralle, Kabupaten Mamasa",SULAWESI BARAT,91371.0,Indonesia,,,,-2.8811612,119.1506848,https://maps.google.com/?cid=0x0:0xd8224e0da9c7c1e1,
mall,Toko bahan makanan,Aralle,"394G+RQJ, Mamasa, Kec. Mamasa, Kabupaten Mamasa, Sulawesi Barat","Kabupaten Mamasa, Sulawesi Barat",SULAWESI BARAT,,Indonesia,,,,-2.9429195,119.3769057,https://maps.google.com/?cid=0x0:0x2ebab20f0fb7a971,
mall,mall,Sulawesi Barat 91366,"Kabupaten Mamasa, Sulawesi Barat","Kabupaten Mamasa, Sulawesi Barat",SULAWESI BARAT,,Indonesia,,,,-3.0188114,119.2785638,https://maps.google.com/?cid=0x0:0xf1c681e2dfa30cec,
mall,Pusat Perbelanjaan,Balla BARUASA,"Jl. Baso Dg. Ngawing No.107a, Tetebatu, Kec. Pallangga, Kabupaten Gowa, Sulawesi Selatan 92161","Tetebatu, Kec. Pallangga, Kabupaten Gowa",SULAWESI BARAT,92161.0,Indonesia,81342337255.0,,,-5.2264993,119.4451326,https://maps.google.com/?cid=0x0:0x28657a85bb9f8576,
mall,Kantor Perusahaan,Maleo Town Square,"Jl. Yos Sudarso No.37, Binanga, Kec. Mamuju, Kabupaten Mamuju, Sulawesi Barat 91511","Binanga, Kec. Mamuju, Kabupaten Mamuju",SULAWESI BARAT,91511.0,Indonesia,81280867009.0,,,-2.6692803,118.8916841,https://maps.google.com/?cid=0x0:0x87dbaf62ffc34e7c,
mall,Pusat Perbelanjaan,Balla Tau Malino (Dg. Sabang),"QFR8+79R, Batangkaluku, Kec. Somba Opu, Kabupaten Gowa, Sulawesi Selatan 92113","Batangkaluku, Kec. Somba Opu, Kabupaten Gowa",SULAWESI BARAT,92113.0,Indonesia,,,,-5.2092593,119.4658949,https://maps.google.com/?cid=0x0:0xfd8dbbe87be821f4,
mall,Pasar,Pasar Rakyat Balla,"283M+3GX, Desa, Balla Bar., Pidara, Kabupaten Mamasa, Sulawesi Barat 91365","Desa, Balla Bar., Pidara, Kabupaten Mamasa",SULAWESI BARAT,91365.0,Indonesia,,,,-2.9972579,119.3338686,https://maps.google.com/?cid=0x0:0x272f1aa7d019741f,
mall,Pasar,Pasar Mamasa,"395C+VX8, Bunta Buda, Kec. Mamasa, Kabupaten Mamasa, Sulawesi Barat 91365","Bunta Buda, Kec. Mamasa, Kabupaten Mamasa",SULAWESI BARAT,91365.0,Indonesia,,,,-2.9403468,119.3724532,https://maps.google.com/?cid=0x0:0x29484113daf14069,
mall,Gedung Apartemen,Mall@Bassura,"Jl. Jenderal Basuki Rachmat No.1A, Cipinang Besar Sel., Kecamatan Jatinegara, Kota Jakarta Timur, Daerah Khusus Ibukota Jakarta 13410","Cipinang Besar Sel., Kecamatan Jatinegara, Kota Jakarta Timur",SULAWESI BARAT,13410.0,Indonesia,2122807300.0,,,-6.2240597,106.8778851,https://maps.google.com/?cid=0x0:0x610648e929845480,
mall,Pusat Perbelanjaan,Bigbird Mall Bassura,"QVGH+639, RT.6/RW.10, Cipinang Besar Sel., Kecamatan Jatinegara, Kota Jakarta Timur, Daerah Khusus Ibukota Jakarta 13410","RT.6/RW.10, Cipinang Besar Sel., Kecamatan Jatinegara, Kota Jakarta Timur",SULAWESI BARAT,13410.0,Indonesia,,,,-6.2244502,106.8777485,https://maps.google.com/?cid=0x0:0x6fb9c2850e00ccb6,
mall,Toko,ZUMA BASSURA MALL,"NEXT XXI, BASURA MALL CITY, 2ND FLOOR, Jl. Jenderal Basuki Rachmat No.1, RT.8/RW.10, Cipinang, Kecamatan Jatinegara, Kota Jakarta Timur, Daerah Khusus Ibukota Jakarta 13410","BASURA MALL CITY, 2ND FLOOR, Jl. Jenderal Basuki Rachmat No.1, RT.8/RW.10, Cipinang, Kecamatan Jatinegara, Kota Jakarta Timur",SULAWESI BARAT,13410.0,Indonesia,,,,-6.2243891,106.8777153,https://maps.google.com/?cid=0x0:0x9e8793cfc9308b9d,
mall,Korea,Myoungdong Tokpoki Bassura,"Mall@Bassura, lantai 1, Cipinang Besar Sel., Kecamatan Jatinegara, Kota Jakarta Timur, Daerah Khusus Ibukota Jakarta 13410","lantai 1, Cipinang Besar Sel., Kecamatan Jatinegara, Kota Jakarta Timur",SULAWESI BARAT,13410.0,Indonesia,,,,-6.2233766,106.8809473,https://maps.google.com/?cid=0x0:0x6f64e25144c64bd0,
mall,Hotel bintang 3,Jual Sewa Apartemen Bassura City - ICAL,"Apartemen Bassura City Kios Tower Flamboyan No AL10, Daerah Khusus Ibukota Jakarta 13410","Kota Jakarta Timur, Daerah Khusus Ibukota Jakarta",SULAWESI BARAT,,Indonesia,81299939192.0,,,-6.2227662,106.8804363,https://maps.google.com/?cid=0x0:0xcdd434cd1cb2a1f4,
mall,Toko Swalayan,Super Indo Bassura City,"Mall@Bassura, Jl. Jenderal Basuki Rachmat No.1 Lantai LG, RT.8/RW.10, Cipinang Besar Sel., Kecamatan Jatinegara, Kota Jakarta Timur, Daerah Khusus Ibukota Jakarta 13410","Jl. Jenderal Basuki Rachmat No.1 Lantai LG, RT.8/RW.10, Cipinang Besar Sel., Kecamatan Jatinegara, Kota Jakarta Timur",SULAWESI BARAT,13410.0,Indonesia,2122807290.0,,,-6.2243891,106.8777153,https://maps.google.com/?cid=0x0:0xf713ab5cea940312,
mall,Tempat Cukur Rambut,Kaizen Haircut Bassura,"Mall Basuura City lantai LG, Jalan Basuki Rahmat No. 1A Kel, RT.8/RW.10, Cipinang Besar Sel., Kec.Jatinegara, Kota Jakarta Timur, Daerah Khusus Ibukota Jakarta 13410","Jalan Basuki Rahmat No. 1A Kel, RT.8/RW.10, Cipinang Besar Sel., Kec.Jatinegara, Kota Jakarta Timur",SULAWESI BARAT,13410.0,Indonesia,,,,-6.2232703,106.8787614,https://maps.google.com/?cid=0x0:0xb9bb9eaef7072382,
mall,mall,Sulawesi Barat 91371,"Kabupaten Mamasa, Sulawesi Barat","Kabupaten Mamasa, Sulawesi Barat",SULAWESI BARAT,,Indonesia,,,,-2.9693064,119.1623231,https://maps.google.com/?cid=0x0:0x95ce36a84981aa10,
mall,Kantor Perusahaan,Maleo Town Square,"Jl. Yos Sudarso No.37, Binanga, Kec. Mamuju, Kabupaten Mamuju, Sulawesi Barat 91511","Binanga, Kec. Mamuju, Kabupaten Mamuju",SULAWESI BARAT,91511.0,Indonesia,81280867009.0,,,-2.6692803,118.8916841,https://maps.google.com/?cid=0x0:0x87dbaf62ffc34e7c,
mall,mall,MALL Mamuju,"8VJV+G6H, Binanga, Kec. Mamuju, Kabupaten Mamuju, Sulawesi Barat 91511","Binanga, Kec. Mamuju, Kabupaten Mamuju",SULAWESI BARAT,91511.0,Indonesia,81242305305.0,,,-2.6686757,118.8930985,https://maps.google.com/?cid=0x0:0x5a5c0de89b104636,
mall,mall,Pasar Hasil Rakyat Sikamase 2028,"37JM+F3J, Ulumambi, Kec. Bambang, Kabupaten Mamasa, Sulawesi Barat 91366","Ulumambi, Kec. Bambang, Kabupaten Mamasa",SULAWESI BARAT,91366.0,Indonesia,,,,-2.9188458,119.2826731,https://maps.google.com/?cid=0x0:0xce9f75574da059ba,
mall,Pembangunan Perumahan,Bambang,"Jl. Grand Permata No.22 Blok C5, Palumbonsari, Kec. Karawang Tim., Karawang, Jawa Barat 41314","Palumbonsari, Kec. Karawang Tim., Karawang",SULAWESI BARAT,41314.0,Indonesia,81319562324.0,,,-6.2959245,107.331416,https://maps.google.com/?cid=0x0:0x6a2808377058fd60,
mall,Pusat Perbelanjaan,Mall Of Indonesia,"Jl. Boulevard Bar. Raya No.12, RT.18/RW.19, Klp. Gading Bar., Kec. Klp. Gading, Jkt Utara, Daerah Khusus Ibukota Jakarta 14240","RT.18/RW.19, Klp. Gading Bar., Kec. Klp. Gading, Jkt Utara",SULAWESI BARAT,14240.0,Indonesia,2145867888.0,,,-6.1514549,106.8918949,https://maps.google.com/?cid=0x0:0x3431c7aaadd1f1b6,
mall,Pusat Perbelanjaan,PIK Avenue,"Jl. Pantai Indah Kapuk Boulevard, RT.6/RW.2, Kamal Muara, Kec. Penjaringan, Jkt Utara, Daerah Khusus Ibukota Jakarta 14470","RT.6/RW.2, Kamal Muara, Kec. Penjaringan, Jkt Utara",SULAWESI BARAT,14470.0,Indonesia,2122570999.0,,,-6.1088281,106.74021,https://maps.google.com/?cid=0x0:0xa57ef5bb9b685927,
mall,China,Hublife Taman Anggrek,"Jl. Tj. Duren Timur 2, RT.12/RW.1, Tj. Duren Sel., Kec. Grogol petamburan, Kota Jakarta Barat, Daerah Khusus Ibukota Jakarta 11470","RT.12/RW.1, Tj. Duren Sel., Kec. Grogol petamburan, Kota Jakarta Barat",SULAWESI BARAT,11470.0,Indonesia,2150622288.0,,,-6.1807487,106.7921782,https://maps.google.com/?cid=0x0:0x88fab696821699af,
mall,mall,Buntumalangka,"Kec. Buntu Malangka, Kabupaten Mamasa, Sulawesi Barat","Kabupaten Mamasa, Sulawesi Barat",SULAWESI BARAT,,Indonesia,,,,-2.8239414,119.1681373,https://maps.google.com/?cid=0x0:0x5c7500e7c5e86451,
mall,Kantor Perusahaan,Maleo Town Square,"Jl. Yos Sudarso No.37, Binanga, Kec. Mamuju, Kabupaten Mamuju, Sulawesi Barat 91511","Binanga, Kec. Mamuju, Kabupaten Mamuju",SULAWESI BARAT,91511.0,Indonesia,81280867009.0,,,-2.6692803,118.8916841,https://maps.google.com/?cid=0x0:0x87dbaf62ffc34e7c,
mall,Komplek perumahan,dusun tanete,"55CG+5C8 Sodangan, Buntumalangka, Kec. Buntu Malangka, Kabupaten Mamasa, Sulawesi Barat 91373","Buntumalangka, Kec. Buntu Malangka, Kabupaten Mamasa",SULAWESI BARAT,91373.0,Indonesia,,,,-2.8295875,119.1760917,https://maps.google.com/?cid=0x0:0xe381fcd0342f4737,
mall,mall,Toko Tale,"642X+825, Malatiro, Kec. Tabulahan, Kabupaten Mamasa, Sulawesi Barat 91373","Malatiro, Kec. Tabulahan, Kabupaten Mamasa",SULAWESI BARAT,91373.0,Indonesia,,,,-2.7992474,119.1476143,https://maps.google.com/?cid=0x0:0xddb7f0e2c4f7f31f,
mall,mall,Nandhi orchid,"45V6+5HJ, Kabae, Kec. Buntu Malangka, Kabupaten Mamasa, Sulawesi Barat 91371","Kabae, Kec. Buntu Malangka, Kabupaten Mamasa",SULAWESI BARAT,91371.0,Indonesia,,,,-2.8565721,119.1617496,https://maps.google.com/?cid=0x0:0x4880d001d9f89551,
mall,Sekolah Menengah Atas,SMAN 2 Buntu Malangka,"55CF+6X8, Buntumalangka, Kec. Buntu Malangka, Kabupaten Mamasa, Sulawesi Barat 91373","Buntumalangka, Kec. Buntu Malangka, Kabupaten Mamasa",SULAWESI BARAT,91373.0,Indonesia,,,,-2.8294724,119.1749392,https://maps.google.com/?cid=0x0:0xdac4148e145d210b,
mall,Komplek perumahan,"Penatangan, Bumal","5595+37X, Penatangan, Kec. Buntu Malangka, Kabupaten Mamasa, Sulawesi Barat 91373","Penatangan, Kec. Buntu Malangka, Kabupaten Mamasa",SULAWESI BARAT,91373.0,Indonesia,,,,-2.8322587,119.1582305,https://maps.google.com/?cid=0x0:0xdd90b957203e763b,
mall,Lapangan Sepak Bola,Sodangan,"55G9+C7C, Buntumalangka, Kec. Buntu Malangka, Kabupaten Mamasa, Sulawesi Barat 91373","Buntumalangka, Kec. Buntu Malangka, Kabupaten Mamasa",SULAWESI BARAT,91373.0,Indonesia,81245643296.0,,,-2.8239414,119.1681373,https://maps.google.com/?cid=0x0:0x6820568b4bb3613d,
mall,mall,Sulawesi Barat 91373,"Kabupaten Mamasa, Sulawesi Barat","Kabupaten Mamasa, Sulawesi Barat",SULAWESI BARAT,,Indonesia,,,,-2.7933646,119.1623231,https://maps.google.com/?cid=0x0:0x63837cb8dbe972c6,
mall,Pusat Perbelanjaan,Jaya maju,"564J+8RW, Kebanga, Kec. Buntu Malangka, Kabupaten Mamasa, Sulawesi Barat 91371","Kebanga, Kec. Buntu Malangka, Kabupaten Mamasa",SULAWESI BARAT,91371.0,Indonesia,81243610703.0,,,-2.8441371,119.2320784,https://maps.google.com/?cid=0x0:0x9a7fb6569052d4ec,
mall,Komplek perumahan,Pasar Kec Aralle,"4592+G7M, Aralle, Kec. Aralle, Kabupaten Mamasa, Sulawesi Barat 91371","Aralle, Kec. Aralle, Kabupaten Mamasa",SULAWESI BARAT,91371.0,Indonesia,,,,-2.8811612,119.1506848,https://maps.google.com/?cid=0x0:0xd8224e0da9c7c1e1,
mall,Minimarket,Kios Manak,"759C+PP2, Jl. Poros Lakahang, Tampak Kurra, Kec. Tabulahan, Kabupaten Mamasa, Sulawesi Barat 91372","Jl. Poros Lakahang, Tampak Kurra, Kec. Tabulahan, Kabupaten Mamasa",SULAWESI BARAT,91372.0,Indonesia,82196797132.0,,,-2.7307442,119.1717502,https://maps.google.com/?cid=0x0:0xea776f2a48f6ad39,
mall,mall,Sulawesi Barat 91362,"Kabupaten Mamasa, Sulawesi Barat","Kabupaten Mamasa, Sulawesi Barat",SULAWESI BARAT,,Indonesia,,,,-2.8753644,119.3714909,https://maps.google.com/?cid=0x0:0x1d800b7ea94db71e,
mall,Toko Perlengkapan Rumah,Kios Alam Ujung Kota,"394F+482, ujung kota Jalan Poros Polewali, Mamasa, Kec. Mamasa, Kabupaten Mamasa, Sulawesi Barat 91365","ujung kota Jalan Poros Polewali, Mamasa, Kec. Mamasa, Kabupaten Mamasa",SULAWESI BARAT,91365.0,Indonesia,81244677977.0,,,-2.9447281,119.3732759,https://maps.google.com/?cid=0x0:0x6de6386f6b76d965,
mall,Pusat Perbelanjaan,KOI LOVERS MAMASA,"Unnamed Road, Rambusaratu, Kec. Mamasa, Kabupaten Mamasa, Sulawesi Barat 91365","Rambusaratu, Kec. Mamasa, Kabupaten Mamasa",SULAWESI BARAT,91365.0,Indonesia,85342999554.0,,,-2.9292601,119.3935645,https://maps.google.com/?cid=0x0:0xec7663466516a023,
mall,Pasar,PASAR JENOL,"395C+RRG, Pasar Makau Pasar Jenol Blok I, Bunta Buda, Kec. Mamasa, Kabupaten Mamasa, Sulawesi Barat 91365","Pasar Makau Pasar Jenol Blok I, Bunta Buda, Kec. Mamasa, Kabupaten Mamasa",SULAWESI BARAT,91365.0,Indonesia,,,,-2.9402276,119.3723161,https://maps.google.com/?cid=0x0:0x22671be77e8f80d8,
mall,Toko bahan makanan,Toko Rajawali,"Jl. Pembangunan, Mamasa, Kec. Mamasa, Kabupaten Mamasa, Sulawesi Barat 91365","Mamasa, Kec. Mamasa, Kabupaten Mamasa",SULAWESI BARAT,91365.0,Indonesia,81244048395.0,,,-2.9424258,119.3746233,https://maps.google.com/?cid=0x0:0x14525bb9ab82c7d2,
mall,Pusat Perbelanjaan,Tk. Istana Kado Mamasa,"29X7+2VG, Jl. Poros Mamasa, Osango, Kec. Mamasa, Kabupaten Mamasa, Sulawesi Barat 91365","Jl. Poros Mamasa, Osango, Kec. Mamasa, Kabupaten Mamasa",SULAWESI BARAT,91365.0,Indonesia,85255295211.0,,,-2.9524283,119.3646969,https://maps.google.com/?cid=0x0:0x32448ff9432cf2bd,
mall,Minimarket,Indomaret Emy saelan,"395G+4MQ, Mamasa, Kec. Mamasa, Kabupaten Mamasa, Sulawesi Barat 91365","Mamasa, Kec. Mamasa, Kabupaten Mamasa",SULAWESI BARAT,91365.0,Indonesia,,,,-2.942168,119.3767252,https://maps.google.com/?cid=0x0:0x322cfefe7c75ee47,
mall,Toko,Toko Elisabeth,"395F+J22, Bunta Buda, Kec. Mamasa, Kabupaten Mamasa, Sulawesi Barat 91365","Bunta Buda, Kec. Mamasa, Kabupaten Mamasa",SULAWESI BARAT,91365.0,Indonesia,81369702391.0,,,-2.9409927,119.3725061,https://maps.google.com/?cid=0x0:0x65537c576f04b9a,
mall,Pusat Perbelanjaan,Toko valen,"394F+GQW, Jl. Jend. Sudirman, Mamasa, Kec. Mamasa, Kabupaten Mamasa, Sulawesi Barat 91365","Jl. Jend. Sudirman, Mamasa, Kec. Mamasa, Kabupaten Mamasa",SULAWESI BARAT,91365.0,Indonesia,,,,-2.9436289,119.374453,https://maps.google.com/?cid=0x0:0xa2ae2932e9c55493,
mall,Toko bahan makanan,Diibii Dasel Toko Pramuka,"Mamasa, Kec. Mamasa, Kabupaten Mamasa, Sulawesi Barat 91365","Kec. Mamasa, Kabupaten Mamasa",SULAWESI BARAT,91365.0,Indonesia,82271375122.0,,,-2.9457946,119.3728649,https://maps.google.com/?cid=0x0:0xed586be975f2340,
mall,Grosir Daging,Penjual Daging Babi Makassar,"3939+F6H, Jl. Poros Mamasa, Osango, Kec. Mamasa, Kabupaten Mamasa, Sulawesi Barat 91365","Jl. Poros Mamasa, Osango, Kec. Mamasa, Kabupaten Mamasa",SULAWESI BARAT,91365.0,Indonesia,82189032315.0,,,-2.9463561,119.3682676,https://maps.google.com/?cid=0x0:0x173570d6d730c1ee,
mall,Toko bahan makanan,Mamasa Ayam Segar,"Jl. Poros Mamasa, Osango, Kec. Mamasa, Kabupaten Mamasa, Sulawesi Barat 91365","Osango, Kec. Mamasa, Kabupaten Mamasa",SULAWESI BARAT,91365.0,Indonesia,85242149986.0,,,-2.9530524,119.3646432,https://maps.google.com/?cid=0x0:0xd7691d2253d4a16a,
mall,Grosir Kopi,PABRIK KOPI BANUA,"Bunta Buda, Kec. Mamasa, Kabupaten Mamasa, Sulawesi Barat 91365","Kec. Mamasa, Kabupaten Mamasa",SULAWESI BARAT,91365.0,Indonesia,81342115582.0,,,-2.9403253,119.3758669,https://maps.google.com/?cid=0x0:0x70a239a0e41bafdd,
mall,Pusat Perbelanjaan,Rumah Kado Syifa,"393C+HQ9, Mamasa, Kec. Mamasa, Kabupaten Mamasa, Sulawesi Barat 91365","Mamasa, Kec. Mamasa, Kabupaten Mamasa",SULAWESI BARAT,91365.0,Indonesia,85399422011.0,,,-2.9460919,119.3719842,https://maps.google.com/?cid=0x0:0x726c9c50acfff409,
mall,Toko Motorsport,"TipTop Helm , Sticker  Sport Equipment","jl. Demmajannang, Mamasa, Kec. Mamasa, Kabupaten Mamasa, Sulawesi Barat 91362","Mamasa, Kec. Mamasa, Kabupaten Mamasa",SULAWESI BARAT,91362.0,Indonesia,81342682701.0,,,-2.9412183,119.3757591,https://maps.google.com/?cid=0x0:0x319ebdd96588ec9,
mall,Toko Ponsel,Wiwin Cell Agen Mkios,"394G+QJC, Jl. Jend. Sudirman kabupaten, Mamasa, Kec. Mamasa, Kabupaten Mamasa, Sulawesi Barat 91365","Jl. Jend. Sudirman kabupaten, Mamasa, Kec. Mamasa, Kabupaten Mamasa",SULAWESI BARAT,91365.0,Indonesia,82344611112.0,,,-2.943057,119.376503,https://maps.google.com/?cid=0x0:0x27c753b87937c51e,
mall,mall,Mamasa,"Rantetangnga, Kec. Tawalian, Kabupaten Mamasa, Sulawesi Barat","Kabupaten Mamasa, Sulawesi Barat",SULAWESI BARAT,,Indonesia,,,,-2.960135,119.368202,https://maps.google.com/?cid=0x0:0x1cf90905194c99f9,
mall,mall,Kec. Tebet,"Kota Jakarta Selatan, Daerah Khusus Ibukota Jakarta","Kota Jakarta Selatan, Daerah Khusus Ibukota Jakarta",SULAWESI BARAT,,Indonesia,,,,-6.2251223,106.8549881,https://maps.google.com/?cid=0x0:0xd575e31c807295f9,
mall,mall,Kec. Mambi,"Kabupaten Mamasa, Sulawesi Barat","Kabupaten Mamasa, Sulawesi Barat",SULAWESI BARAT,,Indonesia,,,,-2.9511527,119.1807955,https://maps.google.com/?cid=0x0:0xd5ebe7e9ad656c5d,
mall,Toko,Toko Sederhana Mambi,"352G+5CF, Mambi, Kec. Mambi, Kabupaten Mamasa, Sulawesi Barat 91371","Mambi, Kec. Mambi, Kabupaten Mamasa",SULAWESI BARAT,91371.0,Indonesia,85258533850.0,,,-2.9493297,119.1758037,https://maps.google.com/?cid=0x0:0xf8a76b0f8d0881a1,
mall,Minimarket,Rj Laris Manis,"25XF+HMW, Jl. Poros Mamuju-Mamasa, Mambi, Kec. Mambi, Kabupaten Mamasa, Sulawesi Barat 91371","Jl. Poros Mamuju-Mamasa, Mambi, Kec. Mambi, Kabupaten Mamasa",SULAWESI BARAT,91371.0,Indonesia,,,,-2.9510036,119.1741919,https://maps.google.com/?cid=0x0:0x736df4072cd10a67,
mall,Minimarket,DAHLAN CELL  MAMEA CESS ONLINE SHOP,"Sendana, Kec. Mambi, Kabupaten Mamasa, Sulawesi Barat 91371","Kec. Mambi, Kabupaten Mamasa",SULAWESI BARAT,91371.0,Indonesia,,,,-2.9509098,119.1806179,https://maps.google.com/?cid=0x0:0xc23c9f306993e619,
mall,Pusat Perbelanjaan,Toko Hasni,"353F+PM6, Mambi, Kec. Mambi, Kabupaten Mamasa, Sulawesi Barat 91371","Mambi, Kec. Mambi, Kabupaten Mamasa",SULAWESI BARAT,91371.0,Indonesia,,,,-2.9457137,119.1741546,https://maps.google.com/?cid=0x0:0xcb0675bc88ee600a,
mall,Toko bahan makanan,Indomaret,"25XJ+G8C, Sendana, Kec. Mambi, Kabupaten Mamasa, Sulawesi Barat","Kabupaten Mamasa, Sulawesi Barat",SULAWESI BARAT,,Indonesia,,,,-2.9511777,119.180753,https://maps.google.com/?cid=0x0:0x36bbe25fca2a86bc,
mall,Kantor Perusahaan,Maleo Town Square,"Jl. Yos Sudarso No.37, Binanga, Kec. Mamuju, Kabupaten Mamuju, Sulawesi Barat 91511","Binanga, Kec. Mamuju, Kabupaten Mamuju",SULAWESI BARAT,91511.0,Indonesia,81280867009.0,,,-2.6692803,118.8916841,https://maps.google.com/?cid=0x0:0x87dbaf62ffc34e7c,
mall,Pusat Perbelanjaan,JOMBLO CELL 01,"356G+RJ3, Jl. Poros Mamasa, mambu, tutar, Kabupaten Mamasa, Sulawesi Barat 91371","Jl. Poros Mamasa, mambu, tutar, Kabupaten Mamasa",SULAWESI BARAT,91371.0,Indonesia,85259089777.0,,,-2.9379898,119.176562,https://maps.google.com/?cid=0x0:0x2451a993e5c17a70,
mall,mall,Mehalaan,"Mehalaan Bar., Kec. Mehalaan, Kabupaten Mamasa, Sulawesi Barat","Kabupaten Mamasa, Sulawesi Barat",SULAWESI BARAT,,Indonesia,,,,-3.027435,119.184196,https://maps.google.com/?cid=0x0:0x221be9bd18c99ca3,
mall,Kantor Perusahaan,Maleo Town Square,"Jl. Yos Sudarso No.37, Binanga, Kec. Mamuju, Kabupaten Mamuju, Sulawesi Barat 91511","Binanga, Kec. Mamuju, Kabupaten Mamuju",SULAWESI BARAT,91511.0,Indonesia,81280867009.0,,,-2.6692803,118.8916841,https://maps.google.com/?cid=0x0:0x87dbaf62ffc34e7c,
mall,Pusat Perbelanjaan,Pusat Pertokoan Modern Mamuju,"8VGR+XJG, Binanga, Kec. Mamuju, Kabupaten Mamuju, Sulawesi Barat 91511","Binanga, Kec. Mamuju, Kabupaten Mamuju",SULAWESI BARAT,91511.0,Indonesia,,,,-2.6725654,118.891582,https://maps.google.com/?cid=0x0:0x1d0c12cf99eef345,
mall,mall,MALL Mamuju,"8VJV+G6H, Binanga, Kec. Mamuju, Kabupaten Mamuju, Sulawesi Barat 91511","Binanga, Kec. Mamuju, Kabupaten Mamuju",SULAWESI BARAT,91511.0,Indonesia,81242305305.0,,,-2.6686757,118.8930985,https://maps.google.com/?cid=0x0:0x5a5c0de89b104636,
mall,mall,Kios Shanum,"X5MW+V73, Mehalaan Bar., Kec. Mehalaan, Kabupaten Mamasa, Sulawesi Barat 91371","Mehalaan Bar., Kec. Mehalaan, Kabupaten Mamasa",SULAWESI BARAT,91371.0,Indonesia,,,,-3.0153555,119.1956834,https://maps.google.com/?cid=0x0:0x31d2764b0288ebe0,
mall,Pembangunan Perumahan,Mehalaan barat,"X5MV+7X5, Mehalaan Bar., Kec. Mehalaan, Kabupaten Mamasa, Sulawesi Barat 91371","Mehalaan Bar., Kec. Mehalaan, Kabupaten Mamasa",SULAWESI BARAT,91371.0,Indonesia,,,,-3.0169175,119.1949617,https://maps.google.com/?cid=0x0:0x812918b7dc5dcbb5,
mall,Pusat Perbelanjaan,MATOS MALL OTC,"8VJR+7MC, Jl. Yos Sudarso, Binanga, Kec. Mamuju, Kabupaten Mamuju, Sulawesi Barat 91511","Jl. Yos Sudarso, Binanga, Kec. Mamuju, Kabupaten Mamuju",SULAWESI BARAT,91511.0,Indonesia,,,,-2.669308,118.8916431,https://maps.google.com/?cid=0x0:0xd0c1f3bfb34f7b6,
mall,Toko umum,Mall panakungan,"Jl. Jend. Sudirman No.111, Labuang, Kec. Banggae Tim., Kabupaten Majene, Sulawesi Barat 91412","Labuang, Kec. Banggae Tim., Kabupaten Majene",SULAWESI BARAT,91412.0,Indonesia,,,,-3.5451723,118.9798964,https://maps.google.com/?cid=0x0:0xae36986cd6c3cdf0,
mall,Pusat Perbelanjaan,Matahari Maleo Town Square Mamuju,"Jl. Yos Sudarso No.7, Kabupaten Mamuju, Sulawesi Barat 91561",Kabupaten Mamuju,SULAWESI BARAT,91561.0,Indonesia,8119044421.0,,,-2.6721705,118.8885699,https://maps.google.com/?cid=0x0:0x9ef913d9d0e3e8e4,
mall,Toko umum,Pasar Messawa,"P8QV+W5J, Messawa, Kec. Messawa, Kabupaten Mamasa, Sulawesi Barat 91361","Messawa, Kec. Messawa, Kabupaten Mamasa",SULAWESI BARAT,91361.0,Indonesia,85222254361.0,,,-3.2601665,119.3428974,https://maps.google.com/?cid=0x0:0xe66453df84401cc7,
mall,Pusat Perbelanjaan,Messawa,"P8QV+88X, Messawa, Kec. Messawa, Kabupaten Mamasa, Sulawesi Barat","Kabupaten Mamasa, Sulawesi Barat",SULAWESI BARAT,,Indonesia,,,,-3.261626,119.3433513,https://maps.google.com/?cid=0x0:0x13fc18445eb5b647,
mall,Kedai Kopi,KOPI TAMU MAS JAJA,"P8RV+349, Messawa, Kec. Messawa, Kabupaten Mamasa, Sulawesi Barat 91361","Messawa, Kec. Messawa, Kabupaten Mamasa",SULAWESI BARAT,91361.0,Indonesia,,,,-3.2599656,119.3428437,https://maps.google.com/?cid=0x0:0xa7096c25e1290a91,
mall,Komplek perumahan,Kampung Dadeko,"P8PR+WJH, Messawa, Kec. Messawa, Kabupaten Mamasa, Sulawesi Barat","Kabupaten Mamasa, Sulawesi Barat",SULAWESI BARAT,,Indonesia,,,,-3.2626814,119.3415941,https://maps.google.com/?cid=0x0:0x7868842ab53ed25a,
mall,Toko bahan makanan,Kios Galeri 2 Merpati,"Jl. Poros Polewali Mamasa No.km 36, Makuang, Kec. Messawa, Kabupaten Mamasa, Sulawesi Barat 91361","Makuang, Kec. Messawa, Kabupaten Mamasa",SULAWESI BARAT,91361.0,Indonesia,85299031007.0,,,-3.262667,119.348996,https://maps.google.com/?cid=0x0:0x228337e90b80c4ef,
mall,Toko,KIOS NOVANDRA,"Q87J+9Q9, Rippung, Kec. Messawa, Kabupaten Mamasa, Sulawesi Barat 91361","Rippung, Kec. Messawa, Kabupaten Mamasa",SULAWESI BARAT,91361.0,Indonesia,81242102872.0,,,-3.2365835,119.3319803,https://maps.google.com/?cid=0x0:0x661d21d4f70736d9,
mall,mall,Nosu,"Kec. Nosu, Kabupaten Mamasa, Sulawesi Barat","Kabupaten Mamasa, Sulawesi Barat",SULAWESI BARAT,,Indonesia,,,,-3.1222192,119.5049702,https://maps.google.com/?cid=0x0:0xbc469c34008e21a3,
mall,Kantor Perusahaan,Maleo Town Square,"Jl. Yos Sudarso No.37, Binanga, Kec. Mamuju, Kabupaten Mamuju, Sulawesi Barat 91511","Binanga, Kec. Mamuju, Kabupaten Mamuju",SULAWESI BARAT,91511.0,Indonesia,81280867009.0,,,-2.6692803,118.8916841,https://maps.google.com/?cid=0x0:0x87dbaf62ffc34e7c,
mall,mall,Pasar Nosu,"VFFJ+7VM, Nosu, Kec. Nosu, Kabupaten Mamasa, Sulawesi Barat 91363","Nosu, Kec. Nosu, Kabupaten Mamasa",SULAWESI BARAT,91363.0,Indonesia,,,,-3.1270953,119.4815071,https://maps.google.com/?cid=0x0:0xd014ec8e3e703d81,
mall,mall,MALL Mamuju,"8VJV+G6H, Binanga, Kec. Mamuju, Kabupaten Mamuju, Sulawesi Barat 91511","Binanga, Kec. Mamuju, Kabupaten Mamuju",SULAWESI BARAT,91511.0,Indonesia,81242305305.0,,,-2.6686757,118.8930985,https://maps.google.com/?cid=0x0:0x5a5c0de89b104636,
mall,mall,Kec. Rantebulahan Tim.,"Kabupaten Mamasa, Sulawesi Barat","Kabupaten Mamasa, Sulawesi Barat",SULAWESI BARAT,,Indonesia,,,,-2.9864566,119.2304192,https://maps.google.com/?cid=0x0:0xef9b8dde78b76588,
mall,Kantor Perusahaan,Maleo Town Square,"Jl. Yos Sudarso No.37, Binanga, Kec. Mamuju, Kabupaten Mamuju, Sulawesi Barat 91511","Binanga, Kec. Mamuju, Kabupaten Mamuju",SULAWESI BARAT,91511.0,Indonesia,81280867009.0,,,-2.6692803,118.8916841,https://maps.google.com/?cid=0x0:0x87dbaf62ffc34e7c,
mall,Pusat Perbelanjaan,MATOS MALL OTC,"8VJR+7MC, Jl. Yos Sudarso, Binanga, Kec. Mamuju, Kabupaten Mamuju, Sulawesi Barat 91511","Jl. Yos Sudarso, Binanga, Kec. Mamuju, Kabupaten Mamuju",SULAWESI BARAT,91511.0,Indonesia,,,,-2.669308,118.8916431,https://maps.google.com/?cid=0x0:0xd0c1f3bfb34f7b6,
mall,Toko umum,Mall panakungan,"Jl. Jend. Sudirman No.111, Labuang, Kec. Banggae Tim., Kabupaten Majene, Sulawesi Barat 91412","Labuang, Kec. Banggae Tim., Kabupaten Majene",SULAWESI BARAT,91412.0,Indonesia,,,,-3.5451723,118.9798964,https://maps.google.com/?cid=0x0:0xae36986cd6c3cdf0,
mall,Toko bahan makanan,Indomaret,"25XJ+G8C, Sendana, Kec. Mambi, Kabupaten Mamasa, Sulawesi Barat","Kabupaten Mamasa, Sulawesi Barat",SULAWESI BARAT,,Indonesia,,,,-2.9511777,119.180753,https://maps.google.com/?cid=0x0:0x36bbe25fca2a86bc,
mall,mall,Pasar Mehalaan,"X5MX+P2J, Mehalaan, Kec. Mehalaan, Kabupaten Mamasa, Sulawesi Barat 91371","Mehalaan, Kec. Mehalaan, Kabupaten Mamasa",SULAWESI BARAT,91371.0,Indonesia,,,,-3.0156696,119.1975194,https://maps.google.com/?cid=0x0:0x8c093f1b83087f59,
mall,mall,Kios Shanum,"X5MW+V73, Mehalaan Bar., Kec. Mehalaan, Kabupaten Mamasa, Sulawesi Barat 91371","Mehalaan Bar., Kec. Mehalaan, Kabupaten Mamasa",SULAWESI BARAT,91371.0,Indonesia,,,,-3.0153555,119.1956834,https://maps.google.com/?cid=0x0:0x31d2764b0288ebe0,
mall,Pasar,PASAR JENOL,"395C+RRG, Pasar Makau Pasar Jenol Blok I, Bunta Buda, Kec. Mamasa, Kabupaten Mamasa, Sulawesi Barat 91365","Pasar Makau Pasar Jenol Blok I, Bunta Buda, Kec. Mamasa, Kabupaten Mamasa",SULAWESI BARAT,91365.0,Indonesia,,,,-2.9402276,119.3723161,https://maps.google.com/?cid=0x0:0x22671be77e8f80d8,
mall,Minimarket,Kios Manak,"759C+PP2, Jl. Poros Lakahang, Tampak Kurra, Kec. Tabulahan, Kabupaten Mamasa, Sulawesi Barat 91372","Jl. Poros Lakahang, Tampak Kurra, Kec. Tabulahan, Kabupaten Mamasa",SULAWESI BARAT,91372.0,Indonesia,82196797132.0,,,-2.7307442,119.1717502,https://maps.google.com/?cid=0x0:0xea776f2a48f6ad39,
mall,Toko Swalayan,Tokoh Aldi,"WHV6+GPQ, Pana, Kec. Pana, Kabupaten Mamasa, Sulawesi Barat","Kabupaten Mamasa, Sulawesi Barat",SULAWESI BARAT,,Indonesia,,,,-3.0561731,119.5618466,https://maps.google.com/?cid=0x0:0x921f10be69f01752,
mall,Toko umum,Toko valdy,"P8QW+GG6, Messawa, Kec. Messawa, Kabupaten Mamasa, Sulawesi Barat 91361","Messawa, Kec. Messawa, Kabupaten Mamasa",SULAWESI BARAT,91361.0,Indonesia,85256499399.0,,,-3.2612066,119.3462748,https://maps.google.com/?cid=0x0:0x51ead44faafbf391,
mall,Pusat Perbelanjaan,Central Park,"Jl. Letjen S. Parman No.Kav. 28, Tj. Duren Sel., Kec. Grogol petamburan, Kota Jakarta Barat, Daerah Khusus Ibukota Jakarta 11470","Tj. Duren Sel., Kec. Grogol petamburan, Kota Jakarta Barat",SULAWESI BARAT,11470.0,Indonesia,2156989999.0,,,-6.1771373,106.7909788,https://maps.google.com/?cid=0x0:0xe816d65037c3207a,
mall,Pusat Perbelanjaan,Mall Taman Anggrek,"Jl. Letjen S. Parman No.Kav 21, RT.12/RW.1, Tj. Duren Sel., Kec. Grogol petamburan, Kota Jakarta Barat, Daerah Khusus Ibukota Jakarta 11470","RT.12/RW.1, Tj. Duren Sel., Kec. Grogol petamburan, Kota Jakarta Barat",SULAWESI BARAT,11470.0,Indonesia,215643777.0,,,-6.1786943,106.7927014,https://maps.google.com/?cid=0x0:0xb287bf108f4ef441,
mall,Pusat Perbelanjaan,East Tunnel Central Park Mall,"RQFR+J2H, RT.15/RW.5, Tj. Duren Sel., Kec. Grogol petamburan, Kota Jakarta Barat, Daerah Khusus Ibukota Jakarta 11470","RT.15/RW.5, Tj. Duren Sel., Kec. Grogol petamburan, Kota Jakarta Barat",SULAWESI BARAT,11470.0,Indonesia,,,,-6.1759424,106.7901117,https://maps.google.com/?cid=0x0:0x59798295d5c46e65,
mall,Toko Pakaian,KINGKOIL - Central Park,"Sogo Central park, Jl. S. Parman kav No.28 lantai 2, Tj. Duren Sel., Kec. Grogol petamburan, Kota Jakarta Barat, Daerah Khusus Ibukota Jakarta 11470","Jl. S. Parman kav No.28 lantai 2, Tj. Duren Sel., Kec. Grogol petamburan, Kota Jakarta Barat",SULAWESI BARAT,11470.0,Indonesia,85213799801.0,,,-6.1783433,106.7901535,https://maps.google.com/?cid=0x0:0x38928129d6be9cc3,
mall,Bioskop,CGV Central Park,"Central Park, Jl. Letjen S. Parman No.28, Tj. Duren Sel., Kec. Grogol petamburan, Kota Jakarta Barat, Daerah Khusus Ibukota Jakarta 11470","Jl. Letjen S. Parman No.28, Tj. Duren Sel., Kec. Grogol petamburan, Kota Jakarta Barat",SULAWESI BARAT,11470.0,Indonesia,2129200100.0,,,-6.1774562,106.7914107,https://maps.google.com/?cid=0x0:0xce6dfefdcd89330f,
mall,Taman Kota,Tribeca Park,"Letjen S. Parman No.28, RT.12/RW.6, Tj. Duren Sel., Kec. Grogol petamburan, Kota Jakarta Barat, Daerah Khusus Ibukota Jakarta 11470","RT.12/RW.6, Tj. Duren Sel., Kec. Grogol petamburan, Kota Jakarta Barat",SULAWESI BARAT,11470.0,Indonesia,,,,-6.1772515,106.7904697,https://maps.google.com/?cid=0x0:0xf771f6dc512bd1a1,
mall,Perusahaan elektronik,PT. Indotara Persada - Marketing Office,"DKI, Central Park, APL Tower 6th Floor No. 6, RT.12/RW.7, Daerah Khusus Ibukota Jakarta 11440","Central Park, APL Tower 6th Floor No. 6, RT.12/RW.7",SULAWESI BARAT,11440.0,Indonesia,2150203030.0,,,-6.1762896,106.7919234,https://maps.google.com/?cid=0x0:0x400fc3464381299e,
mall,mall,Seseña,"45223, Provinsi Toledo, Spanyol","Seseña, Spanyol",SULAWESI BARAT,,Indonesia,,,,40.104345,-3.6922767,https://maps.google.com/?cid=0x0:0x8b136ae724f14913,
mall,mall,Padang,"Kota Padang, Sumatera Barat","Kota Padang, Sumatera Barat",SULAWESI BARAT,,Indonesia,,,,-0.948041,100.3630901,https://maps.google.com/?cid=0x0:0xb8468cb5c3046ba5,
mall,Toko Perlengkapan Rumah,Kios Alam Ujung Kota,"394F+482, ujung kota Jalan Poros Polewali, Mamasa, Kec. Mamasa, Kabupaten Mamasa, Sulawesi Barat 91365","ujung kota Jalan Poros Polewali, Mamasa, Kec. Mamasa, Kabupaten Mamasa",SULAWESI BARAT,91365.0,Indonesia,81244677977.0,,,-2.9447281,119.3732759,https://maps.google.com/?cid=0x0:0x6de6386f6b76d965,
mall,mall,Sulawesi Barat,,Sulawesi Barat,SULAWESI BARAT,,Indonesia,,,,-2.8441371,119.2320784,https://maps.google.com/?cid=0x0:0xea5cbf202f3370f2,
mall,Pasar,PASAR JENOL,"395C+RRG, Pasar Makau Pasar Jenol Blok I, Bunta Buda, Kec. Mamasa, Kabupaten Mamasa, Sulawesi Barat 91365","Pasar Makau Pasar Jenol Blok I, Bunta Buda, Kec. Mamasa, Kabupaten Mamasa",SULAWESI BARAT,91365.0,Indonesia,,,,-2.9402276,119.3723161,https://maps.google.com/?cid=0x0:0x22671be77e8f80d8,
mall,Pasar,Pasar Rakyat Balla,"283M+3GX, Desa, Balla Bar., Pidara, Kabupaten Mamasa, Sulawesi Barat 91365","Desa, Balla Bar., Pidara, Kabupaten Mamasa",SULAWESI BARAT,91365.0,Indonesia,,,,-2.9972579,119.3338686,https://maps.google.com/?cid=0x0:0x272f1aa7d019741f,
mall,Toko bahan makanan,Toko Rajawali,"Jl. Pembangunan, Mamasa, Kec. Mamasa, Kabupaten Mamasa, Sulawesi Barat 91365","Mamasa, Kec. Mamasa, Kabupaten Mamasa",SULAWESI BARAT,91365.0,Indonesia,81244048395.0,,,-2.9424258,119.3746233,https://maps.google.com/?cid=0x0:0x14525bb9ab82c7d2,
mall,Toko bahan makanan,Aralle,"394G+RQJ, Mamasa, Kec. Mamasa, Kabupaten Mamasa, Sulawesi Barat","Kabupaten Mamasa, Sulawesi Barat",SULAWESI BARAT,,Indonesia,,,,-2.9429195,119.3769057,https://maps.google.com/?cid=0x0:0x2ebab20f0fb7a971,
mall,Minimarket,Indomaret Emy saelan,"395G+4MQ, Mamasa, Kec. Mamasa, Kabupaten Mamasa, Sulawesi Barat 91365","Mamasa, Kec. Mamasa, Kabupaten Mamasa",SULAWESI BARAT,91365.0,Indonesia,,,,-2.942168,119.3767252,https://maps.google.com/?cid=0x0:0x322cfefe7c75ee47,
mall,Toko bahan makanan,Diibii Dasel Toko Pramuka,"Mamasa, Kec. Mamasa, Kabupaten Mamasa, Sulawesi Barat 91365","Kec. Mamasa, Kabupaten Mamasa",SULAWESI BARAT,91365.0,Indonesia,82271375122.0,,,-2.9457946,119.3728649,https://maps.google.com/?cid=0x0:0xed586be975f2340,
mall,Pusat Perbelanjaan,Tk. Istana Kado Mamasa,"29X7+2VG, Jl. Poros Mamasa, Osango, Kec. Mamasa, Kabupaten Mamasa, Sulawesi Barat 91365","Jl. Poros Mamasa, Osango, Kec. Mamasa, Kabupaten Mamasa",SULAWESI BARAT,91365.0,Indonesia,85255295211.0,,,-2.9524283,119.3646969,https://maps.google.com/?cid=0x0:0x32448ff9432cf2bd,
mall,Pusat Perbelanjaan,KOI LOVERS MAMASA,"Unnamed Road, Rambusaratu, Kec. Mamasa, Kabupaten Mamasa, Sulawesi Barat 91365","Rambusaratu, Kec. Mamasa, Kabupaten Mamasa",SULAWESI BARAT,91365.0,Indonesia,85342999554.0,,,-2.9292601,119.3935645,https://maps.google.com/?cid=0x0:0xec7663466516a023,
mall,Grosir Daging,Penjual Daging Babi Makassar,"3939+F6H, Jl. Poros Mamasa, Osango, Kec. Mamasa, Kabupaten Mamasa, Sulawesi Barat 91365","Jl. Poros Mamasa, Osango, Kec. Mamasa, Kabupaten Mamasa",SULAWESI BARAT,91365.0,Indonesia,82189032315.0,,,-2.9463561,119.3682676,https://maps.google.com/?cid=0x0:0x173570d6d730c1ee,
mall,Toko,Toko Elisabeth,"395F+J22, Bunta Buda, Kec. Mamasa, Kabupaten Mamasa, Sulawesi Barat 91365","Bunta Buda, Kec. Mamasa, Kabupaten Mamasa",SULAWESI BARAT,91365.0,Indonesia,81369702391.0,,,-2.9409927,119.3725061,https://maps.google.com/?cid=0x0:0x65537c576f04b9a,
mall,Toko bahan makanan,Mamasa Ayam Segar,"Jl. Poros Mamasa, Osango, Kec. Mamasa, Kabupaten Mamasa, Sulawesi Barat 91365","Osango, Kec. Mamasa, Kabupaten Mamasa",SULAWESI BARAT,91365.0,Indonesia,85242149986.0,,,-2.9530524,119.3646432,https://maps.google.com/?cid=0x0:0xd7691d2253d4a16a,
mall,Pusat Perbelanjaan,Rumah Kado Syifa,"393C+HQ9, Mamasa, Kec. Mamasa, Kabupaten Mamasa, Sulawesi Barat 91365","Mamasa, Kec. Mamasa, Kabupaten Mamasa",SULAWESI BARAT,91365.0,Indonesia,85399422011.0,,,-2.9460919,119.3719842,https://maps.google.com/?cid=0x0:0x726c9c50acfff409,
mall,Grosir Kopi,PABRIK KOPI BANUA,"Bunta Buda, Kec. Mamasa, Kabupaten Mamasa, Sulawesi Barat 91365","Kec. Mamasa, Kabupaten Mamasa",SULAWESI BARAT,91365.0,Indonesia,81342115582.0,,,-2.9403253,119.3758669,https://maps.google.com/?cid=0x0:0x70a239a0e41bafdd,
mall,Pusat Perbelanjaan,Toko valen,"394F+GQW, Jl. Jend. Sudirman, Mamasa, Kec. Mamasa, Kabupaten Mamasa, Sulawesi Barat 91365","Jl. Jend. Sudirman, Mamasa, Kec. Mamasa, Kabupaten Mamasa",SULAWESI BARAT,91365.0,Indonesia,,,,-2.9436289,119.374453,https://maps.google.com/?cid=0x0:0xa2ae2932e9c55493,
mall,Toko Motorsport,"TipTop Helm , Sticker  Sport Equipment","jl. Demmajannang, Mamasa, Kec. Mamasa, Kabupaten Mamasa, Sulawesi Barat 91362","Mamasa, Kec. Mamasa, Kabupaten Mamasa",SULAWESI BARAT,91362.0,Indonesia,81342682701.0,,,-2.9412183,119.3757591,https://maps.google.com/?cid=0x0:0x319ebdd96588ec9,
mall,Toko Ponsel,Wiwin Cell Agen Mkios,"394G+QJC, Jl. Jend. Sudirman kabupaten, Mamasa, Kec. Mamasa, Kabupaten Mamasa, Sulawesi Barat 91365","Jl. Jend. Sudirman kabupaten, Mamasa, Kec. Mamasa, Kabupaten Mamasa",SULAWESI BARAT,91365.0,Indonesia,82344611112.0,,,-2.943057,119.376503,https://maps.google.com/?cid=0x0:0x27c753b87937c51e,
mall,Pasar,Pasar Sumarorong,"V846+555, Sumarorong, Kec. Sumarorong, Kabupaten Mamasa, Sulawesi Barat 91361","Sumarorong, Kec. Sumarorong, Kabupaten Mamasa",SULAWESI BARAT,91361.0,Indonesia,,,,-3.1446207,119.3104817,https://maps.google.com/?cid=0x0:0x5abe2e01070219de,
mall,Toko bahan makanan,Toko Glori,"V875+48W, Rante Kamase, Kec. Sumarorong, Kabupaten Mamasa, Sulawesi Barat 91361","Rante Kamase, Kec. Sumarorong, Kabupaten Mamasa",SULAWESI BARAT,91361.0,Indonesia,81245933344.0,,,-3.1371493,119.3083205,https://maps.google.com/?cid=0x0:0x142cd014d612a751,
mall,mall,Sumarorong,"Kec. Sumarorong, Kabupaten Mamasa, Sulawesi Barat","Kabupaten Mamasa, Sulawesi Barat",SULAWESI BARAT,,Indonesia,,,,-3.1425034,119.3119662,https://maps.google.com/?cid=0x0:0x608e5b737a1566a8,
mall,Pusat Perbelanjaan,Indomaret sumarorong,"V856+44V, Sumarorong, Kec. Sumarorong, Kabupaten Mamasa, Sulawesi Barat 91361","Sumarorong, Kec. Sumarorong, Kabupaten Mamasa",SULAWESI BARAT,91361.0,Indonesia,,,,-3.1421264,119.310303,https://maps.google.com/?cid=0x0:0x1203ee2703ad0e75,
mall,Pasar,Pasar Tradisional Tamalantik,"W8GC+QQ5, Desa, Tamalantik, Kec. Tanduk Kalua, Kabupaten Mamasa, Sulawesi Barat 91366","Desa, Tamalantik, Kec. Tanduk Kalua, Kabupaten Mamasa",SULAWESI BARAT,91366.0,Indonesia,,,,-3.0731229,119.3219712,https://maps.google.com/?cid=0x0:0x703d42c3e7a26393,
mall,Toko,KIOS NOVANDRA,"Q87J+9Q9, Rippung, Kec. Messawa, Kabupaten Mamasa, Sulawesi Barat 91361","Rippung, Kec. Messawa, Kabupaten Mamasa",SULAWESI BARAT,91361.0,Indonesia,81242102872.0,,,-3.2365835,119.3319803,https://maps.google.com/?cid=0x0:0x661d21d4f70736d9,
mall,mall,Kec. Tabang,"Kabupaten Mamasa, Sulawesi Barat","Kabupaten Mamasa, Sulawesi Barat",SULAWESI BARAT,,Indonesia,,,,-2.944643,119.5225944,https://maps.google.com/?cid=0x0:0xc9eca8dd78b339b,
mall,Pasar,Pasar Mawai,"3G4C+CWR, Bakadisura, Kec. Tabang, Kabupaten Mamasa, Sulawesi Barat 91364","Bakadisura, Kec. Tabang, Kabupaten Mamasa",SULAWESI BARAT,91364.0,Indonesia,,,,-2.9438887,119.5222515,https://maps.google.com/?cid=0x0:0x53a1768dcd3b230f,
mall,Toko Swalayan,Tokoh Aldi,"WHV6+GPQ, Pana, Kec. Pana, Kabupaten Mamasa, Sulawesi Barat","Kabupaten Mamasa, Sulawesi Barat",SULAWESI BARAT,,Indonesia,,,,-3.0561731,119.5618466,https://maps.google.com/?cid=0x0:0x921f10be69f01752,
mall,mall,BIGmall Samarinda,"Jl. Untung Suropati No.08, Karang Asam Ulu, Kec. Sungai Kunjang, Kota Samarinda, Kalimantan Timur 75243","Karang Asam Ulu, Kec. Sungai Kunjang, Kota Samarinda",SULAWESI BARAT,75243.0,Indonesia,541274888.0,,,-0.5262742,117.1159382,https://maps.google.com/?cid=0x0:0x1028f1a62624ffcb,
mall,mall,Guest House Remaja,"Komplek Karpotek, Jl. Untung Suropati Blok HHH No 4-6, Karang Asam Ulu, Kec. Sungai Kunjang, Kota Samarinda, Kalimantan Timur 75126","Jl. Untung Suropati Blok HHH No 4-6, Karang Asam Ulu, Kec. Sungai Kunjang, Kota Samarinda",SULAWESI BARAT,75126.0,Indonesia,541271591.0,,,-0.5278684,117.1124171,https://maps.google.com/?cid=0x0:0x8f47c45a6763e225,
mall,mall,HARRIS Hotel Samarinda,"Jl. Untung Suropati No.35, Karang Asam Ulu, Kec. Sungai Kunjang, Kota Samarinda, Kalimantan Timur 75126","Karang Asam Ulu, Kec. Sungai Kunjang, Kota Samarinda",SULAWESI BARAT,75126.0,Indonesia,5414112700.0,,,-0.5202046,117.1169815,https://maps.google.com/?cid=0x0:0x310675bd6e9311b9,
mall,mall,Hotel Marantama,"Jl. Cipto Mangunkusumo No.32, Sengkotek, Kec. Loa Janan Ilir, Kota Samarinda, Kalimantan Timur 63171","Sengkotek, Kec. Loa Janan Ilir, Kota Samarinda",SULAWESI BARAT,63171.0,Indonesia,81943550180.0,,,-0.5406455,117.1001729,https://maps.google.com/?cid=0x0:0x591f67b589d6c414,
mall,mall,Tranz MAV Hotel Samarinda,"Jl. Teuku Umar No.A, 01, Karang Asam Ulu, Kec. Sungai Kunjang, Kota Samarinda, Kalimantan Timur 75126","01, Karang Asam Ulu, Kec. Sungai Kunjang, Kota Samarinda",SULAWESI BARAT,75126.0,Indonesia,85215189189.0,,,-0.5167981,117.1036697,https://maps.google.com/?cid=0x0:0x920044e1682ba2cc,
mall,mall,Airy Eco Syariah Latsitarda Satu 275 Samarinda,"Jl. Latsitarda 1 No.75 Blok H, Karang Asam Ulu, Kec. Sungai Kunjang, Kota Samarinda, Kalimantan Timur 75126","Karang Asam Ulu, Kec. Sungai Kunjang, Kota Samarinda",SULAWESI BARAT,75126.0,Indonesia,8041112479.0,,,-0.5242268,117.1091516,https://maps.google.com/?cid=0x0:0xcf39d88d3c0bc726,
mall,mall,Hotel Manau,"Jl. Ciptomangunkusumo no : 69, Sungai Keledang, Kec. Samarinda Seberang, Kota Samarinda, Kalimantan Timur 75131","Sungai Keledang, Kec. Samarinda Seberang, Kota Samarinda",SULAWESI BARAT,75131.0,Indonesia,85250689525.0,,,-0.532095,117.1248333,https://maps.google.com/?cid=0x0:0xf7e36d5549c1588f,
mall,mall,OYO 90550 Good Sleep 3 Samarinda,"F4P7+PH3 Islamic Center, Karang Asam Ilir, Kec. Sungai Kunjang, Kota Samarinda, Kalimantan Timur 75126","Karang Asam Ilir, Kec. Sungai Kunjang, Kota Samarinda",SULAWESI BARAT,75126.0,Indonesia,2129707601.0,,,-0.513235,117.1139076,https://maps.google.com/?cid=0x0:0xc2dfd2c6c43b7d30,
mall,,Masjid Baitul Muttaqien - Islamic Center Kaltim,"Jl. Slamet Riyadi No.1, Tlk. Lerong Ulu, Kec. Sungai Kunjang, Kota Samarinda, Kalimantan Timur 75243","Tlk. Lerong Ulu, Kec. Sungai Kunjang, Kota Samarinda",SULAWESI BARAT,75243.0,Indonesia,,,,-0.502312,117.1201332,https://maps.google.com/?cid=0x0:0x7666aadb9294c007,
mall,Perhentian bus,Bandar Udara Internasional Sultan Aji Muhammad Sulaiman Sepinggan Balikpapan (BPN),"Jl. Marsma R. Iswahyudi, Sepinggan, Kecamatan Balikpapan Selatan, Kota Balikpapan, Kalimantan Timur 76115","Sepinggan, Kecamatan Balikpapan Selatan, Kota Balikpapan",SULAWESI BARAT,76115.0,Indonesia,542766886.0,,,-1.2677976,116.894224,https://maps.google.com/?cid=0x0:0x3c24197833beca60,
mall,Pusat Perbelanjaan,Matahari Dept Store Big Mall Samarinda,"BIGmall Samarinda, Jalan Pangeran Jl. Untung Suropati No.8, Karang Asam Ulu, Kec. Sungai Kunjang, Kota Samarinda, Kalimantan Timur 75126","Jalan Pangeran Jl. Untung Suropati No.8, Karang Asam Ulu, Kec. Sungai Kunjang, Kota Samarinda",SULAWESI BARAT,75126.0,Indonesia,81119688135.0,,,-0.526707,117.1154586,https://maps.google.com/?cid=0x0:0xf6b0b1e424dc6f3e,
mall,Korea,GC Korean BBQ  Hotpot - Big Mall Samarinda,"Sebelah Cols Froyo, Jl. Untung Suropati Jl. Big Mall No.08 Lantai LG, Samarinda City, East Kalimantan 75243","Jl. Untung Suropati Jl. Big Mall No.08 Lantai LG, Samarinda City",SULAWESI BARAT,75243.0,Indonesia,895803960606.0,,,-0.5252969,117.1152052,https://maps.google.com/?cid=0x0:0x86c427216a4c60f7,
mall,Pasar,Pasar Mawai,"3G4C+CWR, Bakadisura, Kec. Tabang, Kabupaten Mamasa, Sulawesi Barat 91364","Bakadisura, Kec. Tabang, Kabupaten Mamasa",SULAWESI BARAT,91364.0,Indonesia,,,,-2.9438887,119.5222515,https://maps.google.com/?cid=0x0:0x53a1768dcd3b230f,
mall,Pasar,Pasar Mamasa,"395C+VX8, Bunta Buda, Kec. Mamasa, Kabupaten Mamasa, Sulawesi Barat 91365","Bunta Buda, Kec. Mamasa, Kabupaten Mamasa",SULAWESI BARAT,91365.0,Indonesia,,,,-2.9403468,119.3724532,https://maps.google.com/?cid=0x0:0x29484113daf14069,
mall,mall,Kec. Tabang,"Kabupaten Mamasa, Sulawesi Barat","Kabupaten Mamasa, Sulawesi Barat",SULAWESI BARAT,,Indonesia,,,,-2.944643,119.5225944,https://maps.google.com/?cid=0x0:0xc9eca8dd78b339b,
mall,Pusat Perbelanjaan,Westfield Topanga,"6600 Topanga Canyon Blvd, Canoga Park, CA 91303, Amerika Serikat","Canoga Park, CA",SULAWESI BARAT,91303.0,Indonesia,18185948732.0,,,34.190191,-118.6030615,https://maps.google.com/?cid=0x0:0x6956afd57fd182f8,
mall,Pusat Perbelanjaan,Topanga Village,"6256 CA-27, Woodland Hills, CA 91367, Amerika Serikat","Woodland Hills, CA",SULAWESI BARAT,91367.0,Indonesia,,,,34.1848832,-118.6045074,https://maps.google.com/?cid=0x0:0xee69093306957ba0,
mall,Pusat Perbelanjaan,Topanga Center,"S Topanga Canyon Blvd, Topanga, CA 90290, Amerika Serikat","Topanga, CA",SULAWESI BARAT,90290.0,Indonesia,,,,34.0889387,-118.6038653,https://maps.google.com/?cid=0x0:0xb749b656d10b7c73,
mall,Pusat Perbelanjaan,The Promenade,"6100 CA-27, Woodland Hills, CA 91367, Amerika Serikat","Woodland Hills, CA",SULAWESI BARAT,91367.0,Indonesia,,,,34.1808143,-118.6038048,https://maps.google.com/?cid=0x0:0xe023dcd6653d59f5,
mall,Stasiun Pengisian Kendaraan Listrik,ChargePoint Charging Station,"6573-6579 Owensmouth Ave, Canoga Park, CA 91303, Amerika Serikat","Canoga Park, CA",SULAWESI BARAT,91303.0,Indonesia,18887584389.0,,,34.1892649,-118.6018483,https://maps.google.com/?cid=0x0:0xc6da1e5f889e45de,
mall,Stasiun Pengisian Kendaraan Listrik,Electrify America Charging Station,"6600 CA-27, Canoga Park, CA 91303, Amerika Serikat","Canoga Park, CA",SULAWESI BARAT,91303.0,Indonesia,18336322778.0,,,34.190979,-118.605232,https://maps.google.com/?cid=0x0:0x1b151b5806f3793,
mall,Stasiun Pengisian Kendaraan Listrik,ChargePoint Charging Station,"6600 CA-27, Canoga Park, CA 91303, Amerika Serikat","Canoga Park, CA",SULAWESI BARAT,91303.0,Indonesia,18887584389.0,,,34.19092,-118.60425,https://maps.google.com/?cid=0x0:0xe335dd4e5fe4ba51,
mall,Toko Pakaian,Nordstrom,"21725 Victory Blvd, Canoga Park, CA 91303, Amerika Serikat",Victory Blvd,SULAWESI BARAT,21725.0,Indonesia,18188847900.0,,,34.1887308,-118.6026478,https://maps.google.com/?cid=0x0:0xecfb3772f1793fe7,
mall,Toko Roti,The Cheesecake Factory,"6600 CA-27 Suite 51, Canoga Park, CA 91303, Amerika Serikat","Canoga Park, CA",SULAWESI BARAT,91303.0,Indonesia,18188839900.0,,,34.189336,-118.6045847,https://maps.google.com/?cid=0x0:0xb38817ebbd682969,
mall,Toko Mebel,Macy's,"21900 Vanowen St, Canoga Park, CA 91303, Amerika Serikat",Vanowen St,SULAWESI BARAT,21900.0,Indonesia,18188837211.0,,,34.191758,-118.6038864,https://maps.google.com/?cid=0x0:0xce0f5d24d0ae4e53,
mall,Ramen,JINYA Ramen Bar - Topanga Westfield,"6600 Topanga Canyon Rd., #1280 (1st Floor - Topanga Social, near AMC), Canoga Park, CA 91303, Amerika Serikat","near AMC), Canoga Park, CA",SULAWESI BARAT,91303.0,Indonesia,14244336577.0,,,34.1887272,-118.6042886,https://maps.google.com/?cid=0x0:0x55720b8cffe577c0,
mall,Toko Aksesori Ponsel,ZAGG Topanga,"6600 CA-27, Canoga Park, CA 91303, Amerika Serikat","Canoga Park, CA",SULAWESI BARAT,91303.0,Indonesia,18183172224.0,,,34.1888762,-118.6037676,https://maps.google.com/?cid=0x0:0xfdaab5d9c8162194,
mall,mall,Sulawesi Barat 91372,"Kec. Tabulahan, Kabupaten Mamasa, Sulawesi Barat","Kabupaten Mamasa, Sulawesi Barat",SULAWESI BARAT,,Indonesia,,,,-2.7545158,119.3018011,https://maps.google.com/?cid=0x0:0x3030ccb9de83baae,
mall,Pusat Perbelanjaan,MATOS MALL OTC,"8VJR+7MC, Jl. Yos Sudarso, Binanga, Kec. Mamuju, Kabupaten Mamuju, Sulawesi Barat 91511","Jl. Yos Sudarso, Binanga, Kec. Mamuju, Kabupaten Mamuju",SULAWESI BARAT,91511.0,Indonesia,,,,-2.669308,118.8916431,https://maps.google.com/?cid=0x0:0xd0c1f3bfb34f7b6,
mall,Minimarket,Kios Manak,"759C+PP2, Jl. Poros Lakahang, Tampak Kurra, Kec. Tabulahan, Kabupaten Mamasa, Sulawesi Barat 91372","Jl. Poros Lakahang, Tampak Kurra, Kec. Tabulahan, Kabupaten Mamasa",SULAWESI BARAT,91372.0,Indonesia,82196797132.0,,,-2.7307442,119.1717502,https://maps.google.com/?cid=0x0:0xea776f2a48f6ad39,
mall,mall,Sulawesi Barat 91366,"Kabupaten Mamasa, Sulawesi Barat","Kabupaten Mamasa, Sulawesi Barat",SULAWESI BARAT,,Indonesia,,,,-3.0188114,119.2785638,https://maps.google.com/?cid=0x0:0xf1c681e2dfa30cec,
mall,Pasar,Pasar Tradisional Tamalantik,"W8GC+QQ5, Desa, Tamalantik, Kec. Tanduk Kalua, Kabupaten Mamasa, Sulawesi Barat 91366","Desa, Tamalantik, Kec. Tanduk Kalua, Kabupaten Mamasa",SULAWESI BARAT,91366.0,Indonesia,,,,-3.0731229,119.3219712,https://maps.google.com/?cid=0x0:0x703d42c3e7a26393,
mall,Pasar,Pasar Rakyat Balla,"283M+3GX, Desa, Balla Bar., Pidara, Kabupaten Mamasa, Sulawesi Barat 91365","Desa, Balla Bar., Pidara, Kabupaten Mamasa",SULAWESI BARAT,91365.0,Indonesia,,,,-2.9972579,119.3338686,https://maps.google.com/?cid=0x0:0x272f1aa7d019741f,
mall,Toko bahan makanan,Aralle,"394G+RQJ, Mamasa, Kec. Mamasa, Kabupaten Mamasa, Sulawesi Barat","Kabupaten Mamasa, Sulawesi Barat",SULAWESI BARAT,,Indonesia,,,,-2.9429195,119.3769057,https://maps.google.com/?cid=0x0:0x2ebab20f0fb7a971,
mall,Toko Perlengkapan Rumah,Kios Alam Ujung Kota,"394F+482, ujung kota Jalan Poros Polewali, Mamasa, Kec. Mamasa, Kabupaten Mamasa, Sulawesi Barat 91365","ujung kota Jalan Poros Polewali, Mamasa, Kec. Mamasa, Kabupaten Mamasa",SULAWESI BARAT,91365.0,Indonesia,81244677977.0,,,-2.9447281,119.3732759,https://maps.google.com/?cid=0x0:0x6de6386f6b76d965,
mall,Minimarket,Rj Laris Manis,"25XF+HMW, Jl. Poros Mamuju-Mamasa, Mambi, Kec. Mambi, Kabupaten Mamasa, Sulawesi Barat 91371","Jl. Poros Mamuju-Mamasa, Mambi, Kec. Mambi, Kabupaten Mamasa",SULAWESI BARAT,91371.0,Indonesia,,,,-2.9510036,119.1741919,https://maps.google.com/?cid=0x0:0x736df4072cd10a67,
mall,Pasar,Pasar Sumarorong,"V846+555, Sumarorong, Kec. Sumarorong, Kabupaten Mamasa, Sulawesi Barat 91361","Sumarorong, Kec. Sumarorong, Kabupaten Mamasa",SULAWESI BARAT,91361.0,Indonesia,,,,-3.1446207,119.3104817,https://maps.google.com/?cid=0x0:0x5abe2e01070219de,
mall,Operator jaringan seluler,ALYA Cellular,"Unnamed Road, Mambi, Kec. Mambi, Kabupaten Mamasa, Sulawesi Barat 91371","Mambi, Kec. Mambi, Kabupaten Mamasa",SULAWESI BARAT,91371.0,Indonesia,82125146673.0,,,-2.949335,119.1758854,https://maps.google.com/?cid=0x0:0x56cb40e5959f7fd2,
mall,Toko bahan makanan,Toko Glori,"V875+48W, Rante Kamase, Kec. Sumarorong, Kabupaten Mamasa, Sulawesi Barat 91361","Rante Kamase, Kec. Sumarorong, Kabupaten Mamasa",SULAWESI BARAT,91361.0,Indonesia,81245933344.0,,,-3.1371493,119.3083205,https://maps.google.com/?cid=0x0:0x142cd014d612a751,
mall,Kantor Perusahaan,Maleo Town Square,"Jl. Yos Sudarso No.37, Binanga, Kec. Mamuju, Kabupaten Mamuju, Sulawesi Barat 91511","Binanga, Kec. Mamuju, Kabupaten Mamuju",SULAWESI BARAT,91511.0,Indonesia,81280867009.0,,,-2.6692803,118.8916841,https://maps.google.com/?cid=0x0:0x87dbaf62ffc34e7c,
mall,Pusat Perbelanjaan,Tk. Istana Kado Mamasa,"29X7+2VG, Jl. Poros Mamasa, Osango, Kec. Mamasa, Kabupaten Mamasa, Sulawesi Barat 91365","Jl. Poros Mamasa, Osango, Kec. Mamasa, Kabupaten Mamasa",SULAWESI BARAT,91365.0,Indonesia,85255295211.0,,,-2.9524283,119.3646969,https://maps.google.com/?cid=0x0:0x32448ff9432cf2bd,
mall,Pusat Perbelanjaan,KOI LOVERS MAMASA,"Unnamed Road, Rambusaratu, Kec. Mamasa, Kabupaten Mamasa, Sulawesi Barat 91365","Rambusaratu, Kec. Mamasa, Kabupaten Mamasa",SULAWESI BARAT,91365.0,Indonesia,85342999554.0,,,-2.9292601,119.3935645,https://maps.google.com/?cid=0x0:0xec7663466516a023,
mall,Toko bahan makanan,Toko Rajawali,"Jl. Pembangunan, Mamasa, Kec. Mamasa, Kabupaten Mamasa, Sulawesi Barat 91365","Mamasa, Kec. Mamasa, Kabupaten Mamasa",SULAWESI BARAT,91365.0,Indonesia,81244048395.0,,,-2.9424258,119.3746233,https://maps.google.com/?cid=0x0:0x14525bb9ab82c7d2,
mall,Pasar,PASAR JENOL,"395C+RRG, Pasar Makau Pasar Jenol Blok I, Bunta Buda, Kec. Mamasa, Kabupaten Mamasa, Sulawesi Barat 91365","Pasar Makau Pasar Jenol Blok I, Bunta Buda, Kec. Mamasa, Kabupaten Mamasa",SULAWESI BARAT,91365.0,Indonesia,,,,-2.9402276,119.3723161,https://maps.google.com/?cid=0x0:0x22671be77e8f80d8,
mall,Pusat Perbelanjaan,Toko Hasni,"353F+PM6, Mambi, Kec. Mambi, Kabupaten Mamasa, Sulawesi Barat 91371","Mambi, Kec. Mambi, Kabupaten Mamasa",SULAWESI BARAT,91371.0,Indonesia,,,,-2.9457137,119.1741546,https://maps.google.com/?cid=0x0:0xcb0675bc88ee600a,
mall,Pasar,Pasar Mawai,"3G4C+CWR, Bakadisura, Kec. Tabang, Kabupaten Mamasa, Sulawesi Barat 91364","Bakadisura, Kec. Tabang, Kabupaten Mamasa",SULAWESI BARAT,91364.0,Indonesia,,,,-2.9438887,119.5222515,https://maps.google.com/?cid=0x0:0x53a1768dcd3b230f,
mall,Toko bahan makanan,Indomaret,"25XJ+G8C, Sendana, Kec. Mambi, Kabupaten Mamasa, Sulawesi Barat","Kabupaten Mamasa, Sulawesi Barat",SULAWESI BARAT,,Indonesia,,,,-2.9511777,119.180753,https://maps.google.com/?cid=0x0:0x36bbe25fca2a86bc,
mall,Minimarket,Indomaret Emy saelan,"395G+4MQ, Mamasa, Kec. Mamasa, Kabupaten Mamasa, Sulawesi Barat 91365","Mamasa, Kec. Mamasa, Kabupaten Mamasa",SULAWESI BARAT,91365.0,Indonesia,,,,-2.942168,119.3767252,https://maps.google.com/?cid=0x0:0x322cfefe7c75ee47,
mall,Pusat Perbelanjaan,JOMBLO CELL 01,"356G+RJ3, Jl. Poros Mamasa, mambu, tutar, Kabupaten Mamasa, Sulawesi Barat 91371","Jl. Poros Mamasa, mambu, tutar, Kabupaten Mamasa",SULAWESI BARAT,91371.0,Indonesia,85259089777.0,,,-2.9379898,119.176562,https://maps.google.com/?cid=0x0:0x2451a993e5c17a70,
mall,mall,Toko Sulvian,"2863+PW5, Pidara, Kec. Balla, Kabupaten Mamasa, Sulawesi Barat 91366","Pidara, Kec. Balla, Kabupaten Mamasa",SULAWESI BARAT,91366.0,Indonesia,,,,-2.9874085,119.3040622,https://maps.google.com/?cid=0x0:0x21ccceb49a0ad5a3,
mall,Toko,Toko Sederhana Mambi,"352G+5CF, Mambi, Kec. Mambi, Kabupaten Mamasa, Sulawesi Barat 91371","Mambi, Kec. Mambi, Kabupaten Mamasa",SULAWESI BARAT,91371.0,Indonesia,85258533850.0,,,-2.9493297,119.1758037,https://maps.google.com/?cid=0x0:0xf8a76b0f8d0881a1,
mall,Toko,Toko Elisabeth,"395F+J22, Bunta Buda, Kec. Mamasa, Kabupaten Mamasa, Sulawesi Barat 91365","Bunta Buda, Kec. Mamasa, Kabupaten Mamasa",SULAWESI BARAT,91365.0,Indonesia,81369702391.0,,,-2.9409927,119.3725061,https://maps.google.com/?cid=0x0:0x65537c576f04b9a,
mall,mall,Tawalian,"Kec. Tawalian, Kabupaten Mamasa, Sulawesi Barat","Kabupaten Mamasa, Sulawesi Barat",SULAWESI BARAT,,Indonesia,,,,-2.9583445,119.3889082,https://maps.google.com/?cid=0x0:0x1f4ad7b1dd0325ef,
mall,Toko bahan makanan,Aralle,"394G+RQJ, Mamasa, Kec. Mamasa, Kabupaten Mamasa, Sulawesi Barat","Kabupaten Mamasa, Sulawesi Barat",SULAWESI BARAT,,Indonesia,,,,-2.9429195,119.3769057,https://maps.google.com/?cid=0x0:0x2ebab20f0fb7a971,
mall,Toko Perlengkapan Rumah,Kios Alam Ujung Kota,"394F+482, ujung kota Jalan Poros Polewali, Mamasa, Kec. Mamasa, Kabupaten Mamasa, Sulawesi Barat 91365","ujung kota Jalan Poros Polewali, Mamasa, Kec. Mamasa, Kabupaten Mamasa",SULAWESI BARAT,91365.0,Indonesia,81244677977.0,,,-2.9447281,119.3732759,https://maps.google.com/?cid=0x0:0x6de6386f6b76d965,
mall,Pusat Perbelanjaan,KOI LOVERS MAMASA,"Unnamed Road, Rambusaratu, Kec. Mamasa, Kabupaten Mamasa, Sulawesi Barat 91365","Rambusaratu, Kec. Mamasa, Kabupaten Mamasa",SULAWESI BARAT,91365.0,Indonesia,85342999554.0,,,-2.9292601,119.3935645,https://maps.google.com/?cid=0x0:0xec7663466516a023,
mall,Pasar,PASAR JENOL,"395C+RRG, Pasar Makau Pasar Jenol Blok I, Bunta Buda, Kec. Mamasa, Kabupaten Mamasa, Sulawesi Barat 91365","Pasar Makau Pasar Jenol Blok I, Bunta Buda, Kec. Mamasa, Kabupaten Mamasa",SULAWESI BARAT,91365.0,Indonesia,,,,-2.9402276,119.3723161,https://maps.google.com/?cid=0x0:0x22671be77e8f80d8,
mall,Pusat Perbelanjaan,Toko valen,"394F+GQW, Jl. Jend. Sudirman, Mamasa, Kec. Mamasa, Kabupaten Mamasa, Sulawesi Barat 91365","Jl. Jend. Sudirman, Mamasa, Kec. Mamasa, Kabupaten Mamasa",SULAWESI BARAT,91365.0,Indonesia,,,,-2.9436289,119.374453,https://maps.google.com/?cid=0x0:0xa2ae2932e9c55493,
mall,Toko bahan makanan,Diibii Dasel Toko Pramuka,"Mamasa, Kec. Mamasa, Kabupaten Mamasa, Sulawesi Barat 91365","Kec. Mamasa, Kabupaten Mamasa",SULAWESI BARAT,91365.0,Indonesia,82271375122.0,,,-2.9457946,119.3728649,https://maps.google.com/?cid=0x0:0xed586be975f2340,
mall,Minimarket,Indomaret Emy saelan,"395G+4MQ, Mamasa, Kec. Mamasa, Kabupaten Mamasa, Sulawesi Barat 91365","Mamasa, Kec. Mamasa, Kabupaten Mamasa",SULAWESI BARAT,91365.0,Indonesia,,,,-2.942168,119.3767252,https://maps.google.com/?cid=0x0:0x322cfefe7c75ee47,
mall,Toko,Toko Elisabeth,"395F+J22, Bunta Buda, Kec. Mamasa, Kabupaten Mamasa, Sulawesi Barat 91365","Bunta Buda, Kec. Mamasa, Kabupaten Mamasa",SULAWESI BARAT,91365.0,Indonesia,81369702391.0,,,-2.9409927,119.3725061,https://maps.google.com/?cid=0x0:0x65537c576f04b9a,
mall,Pusat Perbelanjaan,Rumah Kado Syifa,"393C+HQ9, Mamasa, Kec. Mamasa, Kabupaten Mamasa, Sulawesi Barat 91365","Mamasa, Kec. Mamasa, Kabupaten Mamasa",SULAWESI BARAT,91365.0,Indonesia,85399422011.0,,,-2.9460919,119.3719842,https://maps.google.com/?cid=0x0:0x726c9c50acfff409,
mall,Kantor Perusahaan,Maleo Town Square,"Jl. Yos Sudarso No.37, Binanga, Kec. Mamuju, Kabupaten Mamuju, Sulawesi Barat 91511","Binanga, Kec. Mamuju, Kabupaten Mamuju",SULAWESI BARAT,91511.0,Indonesia,81280867009.0,,,-2.6692803,118.8916841,https://maps.google.com/?cid=0x0:0x87dbaf62ffc34e7c,
mall,Grosir Kopi,PABRIK KOPI BANUA,"Bunta Buda, Kec. Mamasa, Kabupaten Mamasa, Sulawesi Barat 91365","Kec. Mamasa, Kabupaten Mamasa",SULAWESI BARAT,91365.0,Indonesia,81342115582.0,,,-2.9403253,119.3758669,https://maps.google.com/?cid=0x0:0x70a239a0e41bafdd,
mall,Pusat Perbelanjaan,Pusat Pertokoan Modern Mamuju,"8VGR+XJG, Binanga, Kec. Mamuju, Kabupaten Mamuju, Sulawesi Barat 91511","Binanga, Kec. Mamuju, Kabupaten Mamuju",SULAWESI BARAT,91511.0,Indonesia,,,,-2.6725654,118.891582,https://maps.google.com/?cid=0x0:0x1d0c12cf99eef345,
mall,Toko Ponsel,Wiwin Cell Agen Mkios,"394G+QJC, Jl. Jend. Sudirman kabupaten, Mamasa, Kec. Mamasa, Kabupaten Mamasa, Sulawesi Barat 91365","Jl. Jend. Sudirman kabupaten, Mamasa, Kec. Mamasa, Kabupaten Mamasa",SULAWESI BARAT,91365.0,Indonesia,82344611112.0,,,-2.943057,119.376503,https://maps.google.com/?cid=0x0:0x27c753b87937c51e,
mall,Toko Motorsport,"TipTop Helm , Sticker  Sport Equipment","jl. Demmajannang, Mamasa, Kec. Mamasa, Kabupaten Mamasa, Sulawesi Barat 91362","Mamasa, Kec. Mamasa, Kabupaten Mamasa",SULAWESI BARAT,91362.0,Indonesia,81342682701.0,,,-2.9412183,119.3757591,https://maps.google.com/?cid=0x0:0x319ebdd96588ec9,
supermarket,supermarket,Sulawesi Barat 91373,"Kabupaten Mamasa, Sulawesi Barat","Kabupaten Mamasa, Sulawesi Barat",SULAWESI BARAT,,Indonesia,,,,-2.7933646,119.1623231,https://maps.google.com/?cid=0x0:0x63837cb8dbe972c6,
supermarket,Toko bahan makanan,Indomaret Aralle Mamasa,"4582+QFV, Jl. Poros Mamasa, Aralle, Kec. Aralle, Kabupaten Mamasa, Sulawesi Barat 91371","Jl. Poros Mamasa, Aralle, Kec. Aralle, Kabupaten Mamasa",SULAWESI BARAT,91371.0,Indonesia,,,,-2.8830183,119.1511627,https://maps.google.com/?cid=0x0:0x3a0539f632ea88b5,
supermarket,supermarket,Kios Ambara,"34WX+W6, Uhailanu, Kec. Aralle, Kabupaten Mamasa, Sulawesi Barat 91371","Uhailanu, Kec. Aralle, Kabupaten Mamasa",SULAWESI BARAT,91371.0,Indonesia,,,,-2.902711,119.148021,https://maps.google.com/?cid=0x0:0xc7b9a23c4649dbab,
supermarket,supermarket,Sulawesi Barat 91366,"Kabupaten Mamasa, Sulawesi Barat","Kabupaten Mamasa, Sulawesi Barat",SULAWESI BARAT,,Indonesia,,,,-3.0188114,119.2785638,https://maps.google.com/?cid=0x0:0xf1c681e2dfa30cec,
supermarket,Toko bahan makanan,Lalu Abdul Gani,"M569+4J9, Unnamed Road, Bunde, Kec. Sampaga, Kabupaten Mamuju, Sulawesi Barat 91563","Unnamed Road, Bunde, Kec. Sampaga, Kabupaten Mamuju",SULAWESI BARAT,91563.0,Indonesia,85341806030.0,,,-2.3397116,119.1691069,https://maps.google.com/?cid=0x0:0xb5e7dd33568d7951,
supermarket,Toko Swalayan,Toko Ramlah Galesong,"8WHG+C8W, Bambu, Kec. Mamuju, Kabupaten Mamuju, Sulawesi Barat","Kabupaten Mamuju, Sulawesi Barat",SULAWESI BARAT,,Indonesia,,,,-2.6713941,118.9258131,https://maps.google.com/?cid=0x0:0xa7bb32386630def9,
supermarket,supermarket,GOLDEN BALL,"8RXR+FMH, Jl. Abdul Malik Pattana Endeng, Simboro, Kec. Simboro Dan Kepulauan, Kabupaten Mamuju, Sulawesi Barat 91512","Jl. Abdul Malik Pattana Endeng, Simboro, Kec. Simboro Dan Kepulauan, Kabupaten Mamuju",SULAWESI BARAT,91512.0,Indonesia,,,,-2.6513011,118.8417353,https://maps.google.com/?cid=0x0:0xa8976bae290ab43c,
supermarket,Toko bahan makanan,Toko Wildha,"Jl. Jend Sudirman No.37, Simboro, Kec. Simboro Dan Kepulauan, Kabupaten Mamuju, Sulawesi Barat 91512","Simboro, Kec. Simboro Dan Kepulauan, Kabupaten Mamuju",SULAWESI BARAT,91512.0,Indonesia,,,,-2.6844286,118.8698934,https://maps.google.com/?cid=0x0:0xfbdc0cc8ad481dad,
supermarket,Toko Kelontong Asia,Wilson langiparebong,"X8VG+RQ7, Dusun kanan, desa Balla barakec.bala, Balla Bar., Kec. Balla, Kabupaten Mamasa, Sulawesi Barat 91366","Dusun kanan, desa Balla barakec.bala, Balla Bar., Kec. Balla, Kabupaten Mamasa",SULAWESI BARAT,91366.0,Indonesia,,,,-3.0054584,119.3269177,https://maps.google.com/?cid=0x0:0x7c7b87b9a1512489,
supermarket,Toko Kelontong Asia,Kios Gavin,"283P+P6W, Jalan naik SMA, Balla, Kec. Balla, Kabupaten Mamasa, Sulawesi Barat","Kabupaten Mamasa, Sulawesi Barat",SULAWESI BARAT,,Indonesia,,,,-2.9956385,119.3355687,https://maps.google.com/?cid=0x0:0x554b9f1c863d2ae3,
supermarket,Toko umum,tokoh adam,"X8QF+RWX, Jl. Poros Mamasa, Balla Bar., Kec. Balla, Kabupaten Mamasa, Sulawesi Barat 91366","Jl. Poros Mamasa, Balla Bar., Kec. Balla, Kabupaten Mamasa",SULAWESI BARAT,91366.0,Indonesia,85242365152.0,,,-3.0103831,119.3248468,https://maps.google.com/?cid=0x0:0xb178b5d8f2bf5e19,
supermarket,Toko,Kios Gavin,"X8Q9+77, Balla Bar., Kec. Balla, Kabupaten Mamasa, Sulawesi Barat","Kabupaten Mamasa, Sulawesi Barat",SULAWESI BARAT,,Indonesia,,,,-3.011783,119.318201,https://maps.google.com/?cid=0x0:0x482fc0bf7a0cd5a7,
supermarket,Toko Kelontong Asia,Kios Gavin,"26P7+57P, Dusun kanan desa, Balla Barat, Kec. Balla, Kabupaten Mamasa, Sulawesi Barat","Kabupaten Mamasa, Sulawesi Barat",SULAWESI BARAT,,Indonesia,,,,-2.9645328,119.2131896,https://maps.google.com/?cid=0x0:0xa4b1dfcd1b2697a4,
supermarket,Minimarket,Toko Sesilia,"X8VG+GMH, Jl. Poros Mamasa, Sepakuan, Kec. Balla, Kabupaten Mamasa, Sulawesi Barat 91366","Jl. Poros Mamasa, Sepakuan, Kec. Balla, Kabupaten Mamasa",SULAWESI BARAT,91366.0,Indonesia,,,,-3.0061861,119.3267262,https://maps.google.com/?cid=0x0:0x47761b13b8d6bf0b,
supermarket,Minimarket,BallaMart,"VGVR+V3MJl. Goa RiaSudiang, Kec. Biringkanaya, Kota Makassar, Sulawesi Selatan 90552","Kec. Biringkanaya, Kota Makassar",SULAWESI BARAT,90552.0,Indonesia,,,,-5.1051615,119.5400865,https://maps.google.com/?cid=0x0:0x4db8909ec73e3cf6,
supermarket,Toko Pakaian,Ballsegel thonyblack,"Jl. Pasar Senen No.465 blok 3,lantai 2,cks 463, Senen, Kec. Senen, Kota Jakarta Pusat, Daerah Khusus Ibukota Jakarta 10410","Senen, Kec. Senen, Kota Jakarta Pusat",SULAWESI BARAT,10410.0,Indonesia,81287048791.0,,,-6.1732214,106.8433273,https://maps.google.com/?cid=0x0:0xcba0a4d51a31cf09,
supermarket,Toko Swalayan,Mulah balu store,"Jl. Kemakmuran, Segeri, takku, Kabupaten Pangkajene Dan Kepulauan, Sulawesi Selatan 90659","Segeri, takku, Kabupaten Pangkajene Dan Kepulauan",SULAWESI BARAT,90659.0,Indonesia,83132246452.0,,,-4.6499229,119.5914098,https://maps.google.com/?cid=0x0:0x14bb9a6480df3a32,
supermarket,supermarket,Balla' Celluler,"PFW4+G7J, desa, Bungaejaya, Kec. Pallangga, Kabupaten Gowa, Sulawesi Selatan 92161","desa, Bungaejaya, Kec. Pallangga, Kabupaten Gowa",SULAWESI BARAT,92161.0,Indonesia,85762479422.0,,,-5.2536718,119.4556552,https://maps.google.com/?cid=0x0:0xe8463d8c0c084aa8,
supermarket,supermarket,Sulawesi Barat 91371,"Kabupaten Mamasa, Sulawesi Barat","Kabupaten Mamasa, Sulawesi Barat",SULAWESI BARAT,,Indonesia,,,,-2.9693064,119.1623231,https://maps.google.com/?cid=0x0:0x95ce36a84981aa10,
supermarket,Tempat acara,M Bloc Market,"Jl. Panglima Polim No.37, RT.1/RW.1, Melawai, Kec. Kby. Baru, Kota Jakarta Selatan, Daerah Khusus Ibukota Jakarta 12160","RT.1/RW.1, Melawai, Kec. Kby. Baru, Kota Jakarta Selatan",SULAWESI BARAT,12160.0,Indonesia,,,,-6.2414529,106.7990828,https://maps.google.com/?cid=0x0:0x8346e9db9150e9dd,
supermarket,Toko,Toko Bambang,"Gg. Indah 2 No.62 4, RT.4/RW.7, Jagakarsa, Kec. Jagakarsa, Kota Jakarta Selatan, Daerah Khusus Ibukota Jakarta 12620","RT.4/RW.7, Jagakarsa, Kec. Jagakarsa, Kota Jakarta Selatan",SULAWESI BARAT,12620.0,Indonesia,,,,-6.3303359,106.8210788,https://maps.google.com/?cid=0x0:0x96e9571c800ca9f8,
supermarket,supermarket,Buntumalangka,"Kec. Buntu Malangka, Kabupaten Mamasa, Sulawesi Barat","Kabupaten Mamasa, Sulawesi Barat",SULAWESI BARAT,,Indonesia,,,,-2.8239414,119.1681373,https://maps.google.com/?cid=0x0:0x5c7500e7c5e86451,
supermarket,supermarket,Sulawesi Barat 91373,"Kabupaten Mamasa, Sulawesi Barat","Kabupaten Mamasa, Sulawesi Barat",SULAWESI BARAT,,Indonesia,,,,-2.7933646,119.1623231,https://maps.google.com/?cid=0x0:0x63837cb8dbe972c6,
supermarket,Toko,Kios Pelita Cahaya Kanan,"4592+V8X, Jl. Poros Mamasa, Aralle, Kec. Aralle, Kabupaten Mamasa, Sulawesi Barat 91371","Jl. Poros Mamasa, Aralle, Kec. Aralle, Kabupaten Mamasa",SULAWESI BARAT,91371.0,Indonesia,82188506112.0,,,-2.8802601,119.1508655,https://maps.google.com/?cid=0x0:0xf92c4221c6614226,
supermarket,Minimarket,Pangkalan ikan p.bombom,"65W4+MJF, Tampak Kurra, Kec. Tabulahan, Kabupaten Mamasa, Sulawesi Barat","Kabupaten Mamasa, Sulawesi Barat",SULAWESI BARAT,,Indonesia,,,,-2.7533045,119.1565353,https://maps.google.com/?cid=0x0:0x2504e2a18bce8b6c,
supermarket,Toko bahan makanan,Indomaret Aralle Mamasa,"4582+QFV, Jl. Poros Mamasa, Aralle, Kec. Aralle, Kabupaten Mamasa, Sulawesi Barat 91371","Jl. Poros Mamasa, Aralle, Kec. Aralle, Kabupaten Mamasa",SULAWESI BARAT,91371.0,Indonesia,,,,-2.8830183,119.1511627,https://maps.google.com/?cid=0x0:0x3a0539f632ea88b5,
supermarket,Toko umum,Ziel Kios,"36P4+F75, Saludengen, Kec. Bambang, Kabupaten Mamasa, Sulawesi Barat 91371","Saludengen, Kec. Bambang, Kabupaten Mamasa",SULAWESI BARAT,91371.0,Indonesia,81245862684.0,,,-2.9138534,119.2057374,https://maps.google.com/?cid=0x0:0xd4fcb855a00c732d,
supermarket,Toko,Rumah onjay,"34PF+7Q8, Ralle Anak, Kec. Aralle, Kabupaten Mamasa, Sulawesi Barat 91371","Ralle Anak, Kec. Aralle, Kabupaten Mamasa",SULAWESI BARAT,91371.0,Indonesia,,,,-2.9143475,119.1244611,https://maps.google.com/?cid=0x0:0x80060a6183f546ed,
supermarket,supermarket,Sulawesi Barat 91362,"Kabupaten Mamasa, Sulawesi Barat","Kabupaten Mamasa, Sulawesi Barat",SULAWESI BARAT,,Indonesia,,,,-2.8753644,119.3714909,https://maps.google.com/?cid=0x0:0x1d800b7ea94db71e,
supermarket,Toko Swalayan,Supermarket Surya,"Jl. Ahmad Yani No.1, Mamasa, Kec. Mamasa, Kabupaten Mamasa, Sulawesi Barat 91365","Mamasa, Kec. Mamasa, Kabupaten Mamasa",SULAWESI BARAT,91365.0,Indonesia,,,,-2.9433871,119.374891,https://maps.google.com/?cid=0x0:0xc270dd95288fa84e,
supermarket,Minimarket,alfa midi mamasa,"3939+6R6, Osango, Kec. Mamasa, Kabupaten Mamasa, Sulawesi Barat 91365","Osango, Kec. Mamasa, Kabupaten Mamasa",SULAWESI BARAT,91365.0,Indonesia,,,,-2.9469629,119.36953,https://maps.google.com/?cid=0x0:0x231a831b1eeb7894,
supermarket,Toko Perlengkapan Rumah,Papa Yana,"397H+57C, Randanan, Desa, Bunta Buda, Kec. Mamasa, Kabupaten Mamasa, Sulawesi Barat 91365","Randanan, Desa, Bunta Buda, Kec. Mamasa, Kabupaten Mamasa",SULAWESI BARAT,91365.0,Indonesia,,,,-2.9370674,119.3781541,https://maps.google.com/?cid=0x0:0xba574fc3615fcccb,
supermarket,Toko umum,aeramart,"396H+4C7, Bunta Buda, Kec. Mamasa, Kabupaten Mamasa, Sulawesi Barat 91365","Bunta Buda, Kec. Mamasa, Kabupaten Mamasa",SULAWESI BARAT,91365.0,Indonesia,,,,-2.9397147,119.3785525,https://maps.google.com/?cid=0x0:0x564cf249fea90fac,
supermarket,Kios,Kios Litak Sakka,"398Q+92X, Rambusaratu, Kec. Mamasa, Kabupaten Mamasa, Sulawesi Barat 91365","Rambusaratu, Kec. Mamasa, Kabupaten Mamasa",SULAWESI BARAT,91365.0,Indonesia,81247773488.0,,,-2.9340124,119.3876157,https://maps.google.com/?cid=0x0:0xaedff13f0771d37f,
supermarket,Toko bahan makanan,Kios Rival,"394F+GR4, Jl. Jend. Sudirman, Mamasa, Kec. Mamasa, Kabupaten Mamasa, Sulawesi Barat 91365","Jl. Jend. Sudirman, Mamasa, Kec. Mamasa, Kabupaten Mamasa",SULAWESI BARAT,91365.0,Indonesia,,,,-2.9437427,119.3745916,https://maps.google.com/?cid=0x0:0x1c51b55b0c8e8948,
supermarket,Grosir Kopi,Toko Kopi Petani Kopi Kampoeng Mamasa dan Pangkalan Tabung Gas Marhaeni,"Jl. Poros Mamasa, Osango, Kec. Mamasa, Kabupaten Mamasa, Sulawesi Barat 91365","Osango, Kec. Mamasa, Kabupaten Mamasa",SULAWESI BARAT,91365.0,Indonesia,82192903432.0,,,-2.9472517,119.3676294,https://maps.google.com/?cid=0x0:0x4b19d562119b32c9,
supermarket,Toko Swalayan,TOKO WENSIA,"Pa'lentak, Osango, Kec. Mamasa, Kabupaten Mamasa, Sulawesi Barat 91365","Osango, Kec. Mamasa, Kabupaten Mamasa",SULAWESI BARAT,91365.0,Indonesia,,,,-2.9571732,119.3607939,https://maps.google.com/?cid=0x0:0x34e67f22d39bc879,
supermarket,Pusat Perbelanjaan,MARS BUAH SEGAR,"Jl. Ahmad Yani Sebelum jembatan kuning No.184, Mamasa, Kec. Mamasa, Kabupaten Mamasa, Sulawesi Barat 91362","Mamasa, Kec. Mamasa, Kabupaten Mamasa",SULAWESI BARAT,91362.0,Indonesia,81244666400.0,,,-2.9415345,119.3756406,https://maps.google.com/?cid=0x0:0x90c9834d42785110,
supermarket,,IDM Poros DPRD Mamasa,"3939+6WX, Osango, Kec. Mamasa, Kabupaten Mamasa, Sulawesi Barat 91365","Osango, Kec. Mamasa, Kabupaten Mamasa",SULAWESI BARAT,91365.0,Indonesia,,,,-2.9468801,119.3698495,https://maps.google.com/?cid=0x0:0x316188a09a1e2191,
supermarket,Pasar,PASAR JENOL,"395C+RRG, Pasar Makau Pasar Jenol Blok I, Bunta Buda, Kec. Mamasa, Kabupaten Mamasa, Sulawesi Barat 91365","Pasar Makau Pasar Jenol Blok I, Bunta Buda, Kec. Mamasa, Kabupaten Mamasa",SULAWESI BARAT,91365.0,Indonesia,,,,-2.9402276,119.3723161,https://maps.google.com/?cid=0x0:0x22671be77e8f80d8,
supermarket,Toko Swalayan,Toko Annisa,"29P4+HMF, Bombong Lambe, Kec. Mamasa, Kabupaten Mamasa, Sulawesi Barat 91365","Bombong Lambe, Kec. Mamasa, Kabupaten Mamasa",SULAWESI BARAT,91365.0,Indonesia,,,,-2.9635601,119.3566649,https://maps.google.com/?cid=0x0:0xb3e3c7c9031055e0,
supermarket,Toko bahan makanan,Ody Shop,"Unnamed Road, Bunta Buda, Kec. Mamasa, Kabupaten Mamasa, Sulawesi Barat 91365","Bunta Buda, Kec. Mamasa, Kabupaten Mamasa",SULAWESI BARAT,91365.0,Indonesia,,,,-2.9409914,119.3727197,https://maps.google.com/?cid=0x0:0x4f41750e6556c33e,
supermarket,Toko Swalayan,Toko Sandy,"3929+M2X, Jl. Poros Mamasa, Osango, Kec. Mamasa, Kabupaten Mamasa, Sulawesi Barat 91365","Jl. Poros Mamasa, Osango, Kec. Mamasa, Kabupaten Mamasa",SULAWESI BARAT,91365.0,Indonesia,81355444304.0,,,-2.9482733,119.3676239,https://maps.google.com/?cid=0x0:0xe7819f28067fca67,
supermarket,Kios,Ayra Pay,"393J+JX4, Tatoa, Tawalian, Kec. Tawalian, Kabupaten Mamasa, Sulawesi Barat 91365","Tatoa, Tawalian, Kec. Tawalian, Kabupaten Mamasa",SULAWESI BARAT,91365.0,Indonesia,85341516699.0,,,-2.9459888,119.382456,https://maps.google.com/?cid=0x0:0xe5f81151541f70bd,
supermarket,Pasar,Kios Devi,"394G+MX6, Jl. Pendidikan, Mamasa, Kec. Mamasa, Kabupaten Mamasa, Sulawesi Barat 91365","Jl. Pendidikan, Mamasa, Kec. Mamasa, Kabupaten Mamasa",SULAWESI BARAT,91365.0,Indonesia,85145259190.0,,,-2.9433416,119.377376,https://maps.google.com/?cid=0x0:0x89be48f0a53040a1,
supermarket,Toko,Toko Ma Elki,"Jl. Rantekatoan, Osango, Kec. Mamasa, Kabupaten Mamasa, Sulawesi Barat 91365","Osango, Kec. Mamasa, Kabupaten Mamasa",SULAWESI BARAT,91365.0,Indonesia,81354357581.0,,,-2.9528201,119.3666868,https://maps.google.com/?cid=0x0:0x28910dc50caa9566,
supermarket,Toko bahan makanan,Kios Grisel Posi Padang,"394H+7F9, Mamasa, Kec. Mamasa, Kabupaten Mamasa, Sulawesi Barat 91365","Mamasa, Kec. Mamasa, Kabupaten Mamasa",SULAWESI BARAT,91365.0,Indonesia,82188449383.0,,,-2.9443482,119.3787483,https://maps.google.com/?cid=0x0:0x3a0d8dfa8275085c,
supermarket,Toko Swalayan,Mamasa,"29Q9+W7W, Balla satanetean, Rantetangnga","Kabupaten Mamasa, Sulawesi Barat",SULAWESI BARAT,,Indonesia,,,,-2.960135,119.368202,https://maps.google.com/?cid=0x0:0x30e24fd0852b3cb0,
supermarket,Toko Buah dan Sayur,Tamarillo/Terung Belanda Mamasa,"Bunta Buda, Kec. Mamasa, Kabupaten Mamasa, Sulawesi Barat 91362","Kec. Mamasa, Kabupaten Mamasa",SULAWESI BARAT,91362.0,Indonesia,85223979718.0,,,-2.939703,119.3744505,https://maps.google.com/?cid=0x0:0x198f01bf312d2b9d,
supermarket,supermarket,Kec. Mambi,"Kabupaten Mamasa, Sulawesi Barat","Kabupaten Mamasa, Sulawesi Barat",SULAWESI BARAT,,Indonesia,,,,-2.9511527,119.1807955,https://maps.google.com/?cid=0x0:0xd5ebe7e9ad656c5d,
supermarket,Balai masyarakat,Pasar Baru Mambi,"25WF+PP7, Unnamed Road, Mambi, Kec. Mambi, Kabupaten Mamasa, Sulawesi Barat 91371","Unnamed Road, Mambi, Kec. Mambi, Kabupaten Mamasa",SULAWESI BARAT,91371.0,Indonesia,,,,-2.9532225,119.1743103,https://maps.google.com/?cid=0x0:0x4993a04b5369aaa8,
supermarket,Minimarket,Bang Risman,"35H4+HJR, Dusun takomba, Tapalina, Kec. Mambi, Kabupaten Mamasa, Sulawesi Barat 91371","Dusun takomba, Tapalina, Kec. Mambi, Kabupaten Mamasa",SULAWESI BARAT,91371.0,Indonesia,,,,-2.9210139,119.1565087,https://maps.google.com/?cid=0x0:0x9ff92af5b780913c,
supermarket,Pusat Perbelanjaan,Indomaret mambi mamasa,"352G+94X, Mambi, Kec. Mambi, Kabupaten Mamasa, Sulawesi Barat 91371","Mambi, Kec. Mambi, Kabupaten Mamasa",SULAWESI BARAT,91371.0,Indonesia,82143429385.0,,,-2.9490123,119.1753661,https://maps.google.com/?cid=0x0:0xfe28c1367ea11c2a,
supermarket,Toko,Rumah onjay,"34PF+7Q8, Ralle Anak, Kec. Aralle, Kabupaten Mamasa, Sulawesi Barat 91371","Ralle Anak, Kec. Aralle, Kabupaten Mamasa",SULAWESI BARAT,91371.0,Indonesia,,,,-2.9143475,119.1244611,https://maps.google.com/?cid=0x0:0x80060a6183f546ed,
supermarket,Pembangunan Perumahan,Mehalaan barat,"X5MV+7X5, Mehalaan Bar., Kec. Mehalaan, Kabupaten Mamasa, Sulawesi Barat 91371","Mehalaan Bar., Kec. Mehalaan, Kabupaten Mamasa",SULAWESI BARAT,91371.0,Indonesia,,,,-3.0169175,119.1949617,https://maps.google.com/?cid=0x0:0x812918b7dc5dcbb5,
supermarket,Toko,Kios Pelita Cahaya Kanan,"4592+V8X, Jl. Poros Mamasa, Aralle, Kec. Aralle, Kabupaten Mamasa, Sulawesi Barat 91371","Jl. Poros Mamasa, Aralle, Kec. Aralle, Kabupaten Mamasa",SULAWESI BARAT,91371.0,Indonesia,82188506112.0,,,-2.8802601,119.1508655,https://maps.google.com/?cid=0x0:0xf92c4221c6614226,
supermarket,supermarket,Kios Arham09,"Pamoseang Pangga, Kec. Aralle, Kabupaten Mamasa, Sulawesi Barat","Kabupaten Mamasa, Sulawesi Barat",SULAWESI BARAT,,Indonesia,,,,-2.9409194,119.0922096,https://maps.google.com/?cid=0x0:0xeb3303c5452ea33f,
supermarket,Toko,Aris Cell,"Minanga, Kec. Bambang, Kabupaten Mamasa, Sulawesi Barat 91371","Kec. Bambang, Kabupaten Mamasa",SULAWESI BARAT,91371.0,Indonesia,81242216186.0,,,-2.9514509,119.1911402,https://maps.google.com/?cid=0x0:0x26d4ad059abca170,
supermarket,supermarket,Indoayu mambi,"25XF+FXJ, Jl. Poros Mamasa, Mambi, Kec. Mambi, Kabupaten Mamasa, Sulawesi Barat 91371","Jl. Poros Mamasa, Mambi, Kec. Mambi, Kabupaten Mamasa",SULAWESI BARAT,91371.0,Indonesia,,,,-2.9512962,119.174893,https://maps.google.com/?cid=0x0:0x4ad6ae76f24b55dc,
supermarket,Toko Kelontong Asia,Kios Gavin,"26P7+57P, Dusun kanan desa, Balla Barat, Kec. Balla, Kabupaten Mamasa, Sulawesi Barat","Kabupaten Mamasa, Sulawesi Barat",SULAWESI BARAT,,Indonesia,,,,-2.9645328,119.2131896,https://maps.google.com/?cid=0x0:0xa4b1dfcd1b2697a4,
supermarket,supermarket,Kios Ambara,"34WX+W6, Uhailanu, Kec. Aralle, Kabupaten Mamasa, Sulawesi Barat 91371","Uhailanu, Kec. Aralle, Kabupaten Mamasa",SULAWESI BARAT,91371.0,Indonesia,,,,-2.902711,119.148021,https://maps.google.com/?cid=0x0:0xc7b9a23c4649dbab,
supermarket,supermarket,mama ayu,"352C+8C3, Mambi, Kec. Mambi, Kabupaten Mamasa, Sulawesi Barat 91371","Mambi, Kec. Mambi, Kabupaten Mamasa",SULAWESI BARAT,91371.0,Indonesia,,,,-2.949226,119.1710443,https://maps.google.com/?cid=0x0:0x284b2cf07c04daa5,
supermarket,Pembangunan Perumahan,Mehalaan barat,"X5MV+7X5, Mehalaan Bar., Kec. Mehalaan, Kabupaten Mamasa, Sulawesi Barat 91371","Mehalaan Bar., Kec. Mehalaan, Kabupaten Mamasa",SULAWESI BARAT,91371.0,Indonesia,,,,-3.0169175,119.1949617,https://maps.google.com/?cid=0x0:0x812918b7dc5dcbb5,
supermarket,Pembangunan Perumahan,Kampung baru mehalaan,"X5MX+935, Jl. Poros Mamasa, Mehalaan, Kec. Mehalaan, Kabupaten Mamasa, Sulawesi Barat 91371","Jl. Poros Mamasa, Mehalaan, Kec. Mehalaan, Kabupaten Mamasa",SULAWESI BARAT,91371.0,Indonesia,,,,-3.0170188,119.1971609,https://maps.google.com/?cid=0x0:0x4f9c09cc3459f92,
supermarket,supermarket,Sulawesi Barat 91361,"Kabupaten Mamasa, Sulawesi Barat","Kabupaten Mamasa, Sulawesi Barat",SULAWESI BARAT,,Indonesia,,,,-3.1770865,119.3018011,https://maps.google.com/?cid=0x0:0xa3c2c4ef1c97d548,
supermarket,Toko umum,Toko valdy,"P8QW+GG6, Messawa, Kec. Messawa, Kabupaten Mamasa, Sulawesi Barat 91361","Messawa, Kec. Messawa, Kabupaten Mamasa",SULAWESI BARAT,91361.0,Indonesia,85256499399.0,,,-3.2612066,119.3462748,https://maps.google.com/?cid=0x0:0x51ead44faafbf391,
supermarket,Toko umum,Toko kondo,"P957+5Q9, Matande, Kec. Messawa, Kabupaten Mamasa, Sulawesi Barat 91361","Matande, Kec. Messawa, Kabupaten Mamasa",SULAWESI BARAT,91361.0,Indonesia,82187550158.0,,,-3.2920932,119.3644768,https://maps.google.com/?cid=0x0:0x6f3554d068259a19,
supermarket,Toko umum,Pasar Messawa,"P8QV+W5J, Messawa, Kec. Messawa, Kabupaten Mamasa, Sulawesi Barat 91361","Messawa, Kec. Messawa, Kabupaten Mamasa",SULAWESI BARAT,91361.0,Indonesia,85222254361.0,,,-3.2601665,119.3428974,https://maps.google.com/?cid=0x0:0xe66453df84401cc7,
supermarket,Toko umum,Toko Sinar Pa'kawan,"Pa'kawan desa Tanetebatu,kec. Messawa,kab. Mamasa, Sulawesi Barat, 91361",Sulawesi Barat,SULAWESI BARAT,,Indonesia,81343608975.0,,,-3.2948275,119.4062391,https://maps.google.com/?cid=0x0:0xb022ebe73fb921ac,
supermarket,Toko umum,Kios Kak Sum,"P8VR+CMX, Jl. Poros, Messawa, Kec. Messawa, Kabupaten Mamasa, Sulawesi Barat","Kabupaten Mamasa, Sulawesi Barat",SULAWESI BARAT,,Indonesia,,,,-3.256382,119.3417469,https://maps.google.com/?cid=0x0:0x3156be7d936cb08d,
supermarket,Toko bahan makanan,Kios Anugerah Malluaya,"Q8HP+WM2, Rippung, Kec. Messawa, Kabupaten Mamasa, Sulawesi Barat 91361","Rippung, Kec. Messawa, Kabupaten Mamasa",SULAWESI BARAT,91361.0,Indonesia,,,,-3.2202495,119.3366501,https://maps.google.com/?cid=0x0:0xabb8fb273d2939b3,
supermarket,Toko Swalayan,Rumah Cokelat,"P969+8G9, Matande, Kec. Messawa, Kabupaten Mamasa, Sulawesi Barat","Kabupaten Mamasa, Sulawesi Barat",SULAWESI BARAT,,Indonesia,,,,-3.2892181,119.368869,https://maps.google.com/?cid=0x0:0xe9729d9864113251,
supermarket,Minimarket,Kios Kripik Keladi Amanda,"R9JH+495 Tondok Salus Desa, Makuang, Kec. Messawa, Kabupaten Mamasa, Sulawesi Barat 91361","Makuang, Kec. Messawa, Kabupaten Mamasa",SULAWESI BARAT,91361.0,Indonesia,,,,-3.1697327,119.3784693,https://maps.google.com/?cid=0x0:0x4ed8be22885ef8d,
supermarket,Toko bahan makanan,Kios Anugerah,"Q8GG+WC3, Rippung, Kec. Messawa, Kabupaten Mamasa, Sulawesi Barat 91361","Rippung, Kec. Messawa, Kabupaten Mamasa",SULAWESI BARAT,91361.0,Indonesia,,,,-3.2227449,119.3260323,https://maps.google.com/?cid=0x0:0xb2365464b0afe3da,
supermarket,Toko,KIOS MAHESA,"Sumarorong, Kec. Sumarorong, Kabupaten Mamasa, Sulawesi Barat 91361","Kec. Sumarorong, Kabupaten Mamasa",SULAWESI BARAT,91361.0,Indonesia,82189922122.0,,,-3.1422595,119.3108479,https://maps.google.com/?cid=0x0:0xac4f8edf684d787c,
supermarket,Toko,Kios La Dhava,"J8CF+Q8H, Jl. Poros Jl. Basseang, Duampanua, Kec. Anreapi, Kabupaten Polewali Mandar, Sulawesi Barat 91314","Jl. Poros Jl. Basseang, Duampanua, Kec. Anreapi, Kabupaten Polewali Mandar",SULAWESI BARAT,91314.0,Indonesia,85398044013.0,,,-3.3780661,119.3233477,https://maps.google.com/?cid=0x0:0x5100dd7859a36f5f,
supermarket,supermarket,Nosu,"Kec. Nosu, Kabupaten Mamasa, Sulawesi Barat","Kabupaten Mamasa, Sulawesi Barat",SULAWESI BARAT,,Indonesia,,,,-3.1222192,119.5049702,https://maps.google.com/?cid=0x0:0xbc469c34008e21a3,
supermarket,Toko umum,Pasar Lumika,"Unnamed Road, 91363, Nosu, Kec. Nosu, Kabupaten Mamasa, Sulawesi Barat 91363","91363, Nosu, Kec. Nosu, Kabupaten Mamasa",SULAWESI BARAT,91363.0,Indonesia,,,,-3.1271047,119.481718,https://maps.google.com/?cid=0x0:0xc3dd4e6d0285a6be,
supermarket,Toko Pertanian,PONDOK PETANI MILENIAL NOSU,"VF8M+G49, Nosu, Kec. Nosu, Kabupaten Mamasa, Sulawesi Barat 91363","Nosu, Kec. Nosu, Kabupaten Mamasa",SULAWESI BARAT,91363.0,Indonesia,,,,-3.1337011,119.4828546,https://maps.google.com/?cid=0x0:0x1da7068e055ea809,
supermarket,Kios,Toko Jaya Mandiri ( ekpedisi nosu ),"VF6P+5G, Batu Papan, Kec. Nosu, Kabupaten Mamasa, Sulawesi Barat","Kabupaten Mamasa, Sulawesi Barat",SULAWESI BARAT,,Indonesia,,,,-3.1395918,119.4862844,https://maps.google.com/?cid=0x0:0x3478bd4ee06c8c0a,
supermarket,supermarket,Sinar Nosu,"VFCJ+GQ2, Nosu, Kec. Nosu, Kabupaten Mamasa, Sulawesi Barat 91363","Nosu, Kec. Nosu, Kabupaten Mamasa",SULAWESI BARAT,91363.0,Indonesia,,,,-3.1282339,119.4807229,https://maps.google.com/?cid=0x0:0x351af17f72ca1a82,
supermarket,supermarket,Kec. Rantebulahan Tim.,"Kabupaten Mamasa, Sulawesi Barat","Kabupaten Mamasa, Sulawesi Barat",SULAWESI BARAT,,Indonesia,,,,-2.9864566,119.2304192,https://maps.google.com/?cid=0x0:0xef9b8dde78b76588,
supermarket,Balai masyarakat,Pasar Baru Mambi,"25WF+PP7, Unnamed Road, Mambi, Kec. Mambi, Kabupaten Mamasa, Sulawesi Barat 91371","Unnamed Road, Mambi, Kec. Mambi, Kabupaten Mamasa",SULAWESI BARAT,91371.0,Indonesia,,,,-2.9532225,119.1743103,https://maps.google.com/?cid=0x0:0x4993a04b5369aaa8,
supermarket,Kios,KIOS HETTI SURYANI,"26RP+VX8 KONDO ITA'NGA, Limbadebata, Kec. Bambang, Kabupaten Mamasa, Sulawesi Barat","Kabupaten Mamasa, Sulawesi Barat",SULAWESI BARAT,,Indonesia,,,,-2.9592216,119.23701,https://maps.google.com/?cid=0x0:0xdea88524b270469f,
supermarket,Pembangunan Perumahan,Mehalaan barat,"X5MV+7X5, Mehalaan Bar., Kec. Mehalaan, Kabupaten Mamasa, Sulawesi Barat 91371","Mehalaan Bar., Kec. Mehalaan, Kabupaten Mamasa",SULAWESI BARAT,91371.0,Indonesia,,,,-3.0169175,119.1949617,https://maps.google.com/?cid=0x0:0x812918b7dc5dcbb5,
supermarket,Toko,Aris Cell,"Minanga, Kec. Bambang, Kabupaten Mamasa, Sulawesi Barat 91371","Kec. Bambang, Kabupaten Mamasa",SULAWESI BARAT,91371.0,Indonesia,81242216186.0,,,-2.9514509,119.1911402,https://maps.google.com/?cid=0x0:0x26d4ad059abca170,
supermarket,Toko,Kios mak. Ekpan,"26QQ+GCQ, Limbadebata, Kec. Bambang, Kabupaten Mamasa, Sulawesi Barat 91366","Limbadebata, Kec. Bambang, Kabupaten Mamasa",SULAWESI BARAT,91366.0,Indonesia,,,,-2.961158,119.238624,https://maps.google.com/?cid=0x0:0xa083131908b2a230,
supermarket,Gedung Apartemen,SALUMOKANAN UTARA,"267M+276 TANETE, Salumokanan Utara, Kec. Rantebulahan Tim., Kabupaten Mamasa, Sulawesi Barat","Kabupaten Mamasa, Sulawesi Barat",SULAWESI BARAT,,Indonesia,,,,-2.9874735,119.233133,https://maps.google.com/?cid=0x0:0xa67e51e1eee74a3e,
supermarket,supermarket,Kios selvi,"Tok dengen, Sepang, Mesakada, Kec. Mehalaan, Kabupaten Mamasa, Sulawesi Barat 91375","Sepang, Mesakada, Kec. Mehalaan, Kabupaten Mamasa",SULAWESI BARAT,91375.0,Indonesia,81248868284.0,,,-3.0196875,119.2105625,https://maps.google.com/?cid=0x0:0x44ca03c93686a,
supermarket,supermarket,Pana,"Salutambun, Kec. Pana, Kabupaten Mamasa, Sulawesi Barat","Kabupaten Mamasa, Sulawesi Barat",SULAWESI BARAT,,Indonesia,,,,-3.0666669,119.533333,https://maps.google.com/?cid=0x0:0x8f2aa53aa8bcb70,
supermarket,supermarket,Kec. Tebet,"Kota Jakarta Selatan, Daerah Khusus Ibukota Jakarta","Kota Jakarta Selatan, Daerah Khusus Ibukota Jakarta",SULAWESI BARAT,,Indonesia,,,,-6.2251223,106.8549881,https://maps.google.com/?cid=0x0:0xd575e31c807295f9,
supermarket,Toko Bahan Bangunan,UD. Aviero Maju,"XGFQ+Q3X, Ulusalu, Kec. Pana, Kabupaten Mamasa, Sulawesi Barat 91363","Ulusalu, Kec. Pana, Kabupaten Mamasa",SULAWESI BARAT,91363.0,Indonesia,,,,-3.0255007,119.5377456,https://maps.google.com/?cid=0x0:0x83b2e36bbfbcd85,
supermarket,Kios,Banua Nek So' Battung,"WWR5+RQM, Unnamed Road, Bebo, Kec. Sangalla Utara, Kabupaten Tana Toraja, Sulawesi Selatan 91817","Unnamed Road, Bebo, Kec. Sangalla Utara, Kabupaten Tana Toraja",SULAWESI BARAT,91817.0,Indonesia,,,,-3.0579088,119.9094365,https://maps.google.com/?cid=0x0:0x2680af11294daa4b,
supermarket,Toko Swalayan,"Pana, salu Boronan","XPPJ+QW, Salu Boronan, Kec. Saluputti, Kabupaten Tana Toraja, Sulawesi Selatan","Kabupaten Tana Toraja, Sulawesi Selatan",SULAWESI BARAT,,Indonesia,,,,-3.0130354,119.7322668,https://maps.google.com/?cid=0x0:0x80b98e4262aeacd0,
supermarket,supermarket,Seseña,"45223, Provinsi Toledo, Spanyol","Seseña, Spanyol",SULAWESI BARAT,,Indonesia,,,,40.104345,-3.6922767,https://maps.google.com/?cid=0x0:0x8b136ae724f14913,
supermarket,supermarket,Padang,"Kota Padang, Sumatera Barat","Kota Padang, Sumatera Barat",SULAWESI BARAT,,Indonesia,,,,-0.948041,100.3630901,https://maps.google.com/?cid=0x0:0xb8468cb5c3046ba5,
supermarket,supermarket,Sulawesi Barat,,Sulawesi Barat,SULAWESI BARAT,,Indonesia,,,,-2.8441371,119.2320784,https://maps.google.com/?cid=0x0:0xea5cbf202f3370f2,
supermarket,Toko Swalayan,TOKO WENSIA,"Pa'lentak, Osango, Kec. Mamasa, Kabupaten Mamasa, Sulawesi Barat 91365","Osango, Kec. Mamasa, Kabupaten Mamasa",SULAWESI BARAT,91365.0,Indonesia,,,,-2.9571732,119.3607939,https://maps.google.com/?cid=0x0:0x34e67f22d39bc879,
supermarket,Toko Perlengkapan Rumah,Papa Yana,"397H+57C, Randanan, Desa, Bunta Buda, Kec. Mamasa, Kabupaten Mamasa, Sulawesi Barat 91365","Randanan, Desa, Bunta Buda, Kec. Mamasa, Kabupaten Mamasa",SULAWESI BARAT,91365.0,Indonesia,,,,-2.9370674,119.3781541,https://maps.google.com/?cid=0x0:0xba574fc3615fcccb,
supermarket,Toko Swalayan,Supermarket Surya,"Jl. Ahmad Yani No.1, Mamasa, Kec. Mamasa, Kabupaten Mamasa, Sulawesi Barat 91365","Mamasa, Kec. Mamasa, Kabupaten Mamasa",SULAWESI BARAT,91365.0,Indonesia,,,,-2.9433871,119.374891,https://maps.google.com/?cid=0x0:0xc270dd95288fa84e,
supermarket,Toko Swalayan,Toko Annisa,"29P4+HMF, Bombong Lambe, Kec. Mamasa, Kabupaten Mamasa, Sulawesi Barat 91365","Bombong Lambe, Kec. Mamasa, Kabupaten Mamasa",SULAWESI BARAT,91365.0,Indonesia,,,,-2.9635601,119.3566649,https://maps.google.com/?cid=0x0:0xb3e3c7c9031055e0,
supermarket,Grosir Kopi,Toko Kopi Petani Kopi Kampoeng Mamasa dan Pangkalan Tabung Gas Marhaeni,"Jl. Poros Mamasa, Osango, Kec. Mamasa, Kabupaten Mamasa, Sulawesi Barat 91365","Osango, Kec. Mamasa, Kabupaten Mamasa",SULAWESI BARAT,91365.0,Indonesia,82192903432.0,,,-2.9472517,119.3676294,https://maps.google.com/?cid=0x0:0x4b19d562119b32c9,
supermarket,Toko bahan makanan,Toko Jawa Indah,"394G+R7J, Jl anoa 3, Mamasa, Mamasa Regency, West Sulawesi 91365","Jl anoa 3, Mamasa, Mamasa Regency",SULAWESI BARAT,91365.0,Indonesia,,,,-2.9429006,119.3756423,https://maps.google.com/?cid=0x0:0x512712779565d9ed,
supermarket,Pusat Perbelanjaan,Indomaret sumarorong,"V856+44V, Sumarorong, Kec. Sumarorong, Kabupaten Mamasa, Sulawesi Barat 91361","Sumarorong, Kec. Sumarorong, Kabupaten Mamasa",SULAWESI BARAT,91361.0,Indonesia,,,,-3.1421264,119.310303,https://maps.google.com/?cid=0x0:0x1203ee2703ad0e75,
supermarket,Toko Swalayan,Supermarket Surya,"Jl. Ahmad Yani No.1, Mamasa, Kec. Mamasa, Kabupaten Mamasa, Sulawesi Barat 91365","Mamasa, Kec. Mamasa, Kabupaten Mamasa",SULAWESI BARAT,91365.0,Indonesia,,,,-2.9433871,119.374891,https://maps.google.com/?cid=0x0:0xc270dd95288fa84e,
supermarket,supermarket,IDM SUMARORONG,"V856+44M, Sumarorong, Kec. Sumarorong, Kabupaten Mamasa, Sulawesi Barat 91361","Sumarorong, Kec. Sumarorong, Kabupaten Mamasa",SULAWESI BARAT,91361.0,Indonesia,,,,-3.1421598,119.310298,https://maps.google.com/?cid=0x0:0xf20f84d31e891faf,
supermarket,Toko bahan makanan,Kios Lora,"V837+X7R, Sumarorong, Kec. Sumarorong, Kabupaten Mamasa, Sulawesi Barat 91361","Sumarorong, Kec. Sumarorong, Kabupaten Mamasa",SULAWESI BARAT,91361.0,Indonesia,81355268143.0,,,-3.1450061,119.313133,https://maps.google.com/?cid=0x0:0xd4491e3e9f268726,
supermarket,Grosir buah,NENAS SUMARORONG,"Jl. Parinding Bassi No.42, Sumarorong, Kec. Sumarorong, Kabupaten Mamasa, Sulawesi Barat 91361","Sumarorong, Kec. Sumarorong, Kabupaten Mamasa",SULAWESI BARAT,91361.0,Indonesia,82292809865.0,,,-3.1430925,119.3112424,https://maps.google.com/?cid=0x0:0x12c640acb692a7a5,
supermarket,Pasar,Pasar Sumarorong,"V846+555, Sumarorong, Kec. Sumarorong, Kabupaten Mamasa, Sulawesi Barat 91361","Sumarorong, Kec. Sumarorong, Kabupaten Mamasa",SULAWESI BARAT,91361.0,Indonesia,,,,-3.1446207,119.3104817,https://maps.google.com/?cid=0x0:0x5abe2e01070219de,
supermarket,Toko bahan makanan,Kios Kiki,"V837+X3X, Sumarorong, Kec. Sumarorong, Kabupaten Mamasa, Sulawesi Barat 91361","Sumarorong, Kec. Sumarorong, Kabupaten Mamasa",SULAWESI BARAT,91361.0,Indonesia,85342800300.0,,,-3.1450159,119.3127201,https://maps.google.com/?cid=0x0:0x3277324cf45ecaac,
supermarket,Toko sembako pemerintah,Rantekamase,"V9PM+X7M, Rante Kamase, Kec. Sumarorong, Kabupaten Mamasa, Sulawesi Barat","Kabupaten Mamasa, Sulawesi Barat",SULAWESI BARAT,,Indonesia,,,,-3.1125441,119.3831823,https://maps.google.com/?cid=0x0:0x8f54880879841121,
supermarket,Kedai Kopi,Kopi Sareong,"R8W8+XR6, Tadisi, Kec. Sumarorong, Kabupaten Mamasa, Sulawesi Barat","Kabupaten Mamasa, Sulawesi Barat",SULAWESI BARAT,,Indonesia,,,,-3.1525843,119.3170025,https://maps.google.com/?cid=0x0:0xa7cd013f01329e05,
supermarket,Minimarket,Kerupuk Krisna Boga,"R8W9+JM3, Tadisi, Kec. Sumarorong, Kabupaten Mamasa, Sulawesi Barat 91361","Tadisi, Kec. Sumarorong, Kabupaten Mamasa",SULAWESI BARAT,91361.0,Indonesia,,,,-3.1534844,119.3191594,https://maps.google.com/?cid=0x0:0x1fc02571708563db,
supermarket,supermarket,Kec. Sumarorong,"Kabupaten Mamasa, Sulawesi Barat","Kabupaten Mamasa, Sulawesi Barat",SULAWESI BARAT,,Indonesia,,,,-3.1428922,119.3114526,https://maps.google.com/?cid=0x0:0x6277070ff4702f45,
supermarket,Toko Buah dan Sayuran,Veylicia Fruit Shop,"V846+MC9, Sumarorong, Kec. Sumarorong, Kabupaten Mamasa, Sulawesi Barat 91361","Sumarorong, Kec. Sumarorong, Kabupaten Mamasa",SULAWESI BARAT,91361.0,Indonesia,82151316399.0,,,-3.1433483,119.3111106,https://maps.google.com/?cid=0x0:0x385c1a6ace7ea3a3,
supermarket,Toko bahan makanan,Kios Anugerah Malluaya,"Q8HP+WM2, Rippung, Kec. Messawa, Kabupaten Mamasa, Sulawesi Barat 91361","Rippung, Kec. Messawa, Kabupaten Mamasa",SULAWESI BARAT,91361.0,Indonesia,,,,-3.2202495,119.3366501,https://maps.google.com/?cid=0x0:0xabb8fb273d2939b3,
supermarket,Minimarket,Toko cemilan santondok,"R8MH+RG9, Malabo - Tabone, Tabone, Kec. Sumarorong, Kabupaten Mamasa, Sulawesi Barat 91361","Malabo - Tabone, Tabone, Kec. Sumarorong, Kabupaten Mamasa",SULAWESI BARAT,91361.0,Indonesia,85399280004.0,,,-3.1654594,119.3288552,https://maps.google.com/?cid=0x0:0x6590a1623681e4af,
supermarket,Toko bahan makanan,Kios Anugerah,"Q8GG+WC3, Rippung, Kec. Messawa, Kabupaten Mamasa, Sulawesi Barat 91361","Rippung, Kec. Messawa, Kabupaten Mamasa",SULAWESI BARAT,91361.0,Indonesia,,,,-3.2227449,119.3260323,https://maps.google.com/?cid=0x0:0xb2365464b0afe3da,
supermarket,supermarket,Kec. Tabang,"Kabupaten Mamasa, Sulawesi Barat","Kabupaten Mamasa, Sulawesi Barat",SULAWESI BARAT,,Indonesia,,,,-2.944643,119.5225944,https://maps.google.com/?cid=0x0:0xc9eca8dd78b339b,
supermarket,Toko Bahan Bangunan,UD. Aviero Maju,"XGFQ+Q3X, Ulusalu, Kec. Pana, Kabupaten Mamasa, Sulawesi Barat 91363","Ulusalu, Kec. Pana, Kabupaten Mamasa",SULAWESI BARAT,91363.0,Indonesia,,,,-3.0255007,119.5377456,https://maps.google.com/?cid=0x0:0x83b2e36bbfbcd85,
supermarket,Minimarket,Minimarket Landotekka,"2HXR+F87, Belau, Kec. Masanda, Kabupaten Tana Toraja, Sulawesi Selatan 91856","Belau, Kec. Masanda, Kabupaten Tana Toraja",SULAWESI BARAT,91856.0,Indonesia,82191135345.0,,,-2.9513268,119.5908058,https://maps.google.com/?cid=0x0:0xd7a0a0c16a028387,
supermarket,Toko bahan makanan,STB,"Jl. Kusuma Bangsa, Pamusian, Kec. Tarakan Tengah, Kota Tarakan, Kalimantan Utara","Kota Tarakan, Kalimantan Utara",SULAWESI BARAT,,Indonesia,82350882108.0,,,3.304932,117.608725,https://maps.google.com/?cid=0x0:0x2c67ba69c43b5659,
supermarket,Toko Swalayan,STB Mart Markoni,"RT 21 Markoni, Kalimantan Timur, Jl. Imam Bonjol, Pamusian, Kec. Tarakan Tengah, Kota Tarakan, Kalimantan Utara","Kota Tarakan, Kalimantan Utara",SULAWESI BARAT,,Indonesia,81299039555.0,,,3.3048312,117.6031583,https://maps.google.com/?cid=0x0:0xa054ad2c6f7992d7,
supermarket,supermarket,Toko kerupuk nenas buah buahan,"4FP3+74J, Lambanan, Kec. Mamasa, Kabupaten Mamasa, Sulawesi Barat","Kabupaten Mamasa, Sulawesi Barat",SULAWESI BARAT,,Indonesia,,,,-2.8642988,119.4527538,https://maps.google.com/?cid=0x0:0xe9642ebaf86d064a,
supermarket,Toko Bahan Bangunan,UD. Aviero Maju,"XGFQ+Q3X, Ulusalu, Kec. Pana, Kabupaten Mamasa, Sulawesi Barat 91363","Ulusalu, Kec. Pana, Kabupaten Mamasa",SULAWESI BARAT,91363.0,Indonesia,,,,-3.0255007,119.5377456,https://maps.google.com/?cid=0x0:0x83b2e36bbfbcd85,
supermarket,Minimarket,Minimarket Landotekka,"2HXR+F87, Belau, Kec. Masanda, Kabupaten Tana Toraja, Sulawesi Selatan 91856","Belau, Kec. Masanda, Kabupaten Tana Toraja",SULAWESI BARAT,91856.0,Indonesia,82191135345.0,,,-2.9513268,119.5908058,https://maps.google.com/?cid=0x0:0xd7a0a0c16a028387,
supermarket,supermarket,Sulawesi Barat 91364,"Kabupaten Mamasa, Sulawesi Barat","Kabupaten Mamasa, Sulawesi Barat",SULAWESI BARAT,,Indonesia,,,,-2.8896276,119.4875668,https://maps.google.com/?cid=0x0:0xf6520409649f68c6,
supermarket,Toko bahan makanan,TOKO ANGGI,"H2C9+7FH, Sidomulyo, Kec. Tabang, Kabupaten Kutai Kartanegara, Kalimantan Timur 75558","Sidomulyo, Kec. Tabang, Kabupaten Kutai Kartanegara",SULAWESI BARAT,75558.0,Indonesia,81254668840.0,,,0.5709816,116.0194676,https://maps.google.com/?cid=0x0:0xd91f92800ff32870,
supermarket,Toko Swalayan,Toko Sinar Belayan,"H2FF+986, Sidomulyo, Kec. Tabang, Kabupaten Kutai Kartanegara, Kalimantan Timur 75558","Sidomulyo, Kec. Tabang, Kabupaten Kutai Kartanegara",SULAWESI BARAT,75558.0,Indonesia,,,,0.5734102,116.0232693,https://maps.google.com/?cid=0x0:0x945f1b5c10acd232,
supermarket,Pusat Perbelanjaan,Kios Andalan Mama,"843X+46P, Burana, Kec. Tabulahan, Kabupaten Mamasa, Sulawesi Barat 91372","Burana, Kec. Tabulahan, Kabupaten Mamasa",SULAWESI BARAT,91372.0,Indonesia,87851396426.0,,,-2.6966023,119.1476217,https://maps.google.com/?cid=0x0:0x7883b904427f0d11,
supermarket,supermarket,Sulawesi Barat 91372,"Kec. Tabulahan, Kabupaten Mamasa, Sulawesi Barat","Kabupaten Mamasa, Sulawesi Barat",SULAWESI BARAT,,Indonesia,,,,-2.7545158,119.3018011,https://maps.google.com/?cid=0x0:0x3030ccb9de83baae,
supermarket,Toko,Toko Timo,"85HQ+586, Lakahang, Kec. Tabulahan, Kabupaten Mamasa, Sulawesi Barat 91562","Lakahang, Kec. Tabulahan, Kabupaten Mamasa",SULAWESI BARAT,91562.0,Indonesia,,,,-2.6720939,119.1882702,https://maps.google.com/?cid=0x0:0xbedbdaef492fd217,
supermarket,supermarket,Sulawesi Barat 91366,"Kabupaten Mamasa, Sulawesi Barat","Kabupaten Mamasa, Sulawesi Barat",SULAWESI BARAT,,Indonesia,,,,-3.0188114,119.2785638,https://maps.google.com/?cid=0x0:0xf1c681e2dfa30cec,
supermarket,supermarket,Pabrik tahu  tempe mas Riel,"352R+G3, Minanga, Kec. Bambang, Kabupaten Mamasa, Sulawesi Barat 91371","Minanga, Kec. Bambang, Kabupaten Mamasa",SULAWESI BARAT,91371.0,Indonesia,,,,-2.9486957,119.1902058,https://maps.google.com/?cid=0x0:0xc5df6e86d676e0f,
supermarket,Toko,Kios Marni,"X8H4+GMJ, Malabo, Kec. Tanduk Kalua, Kabupaten Mamasa, Sulawesi Barat 91366","Malabo, Kec. Tanduk Kalua, Kabupaten Mamasa",SULAWESI BARAT,91366.0,Indonesia,,,,-3.020961,119.3067853,https://maps.google.com/?cid=0x0:0x47ceb9eda8510be2,
supermarket,Toko Swalayan,Supermarket Surya,"Jl. Ahmad Yani No.1, Mamasa, Kec. Mamasa, Kabupaten Mamasa, Sulawesi Barat 91365","Mamasa, Kec. Mamasa, Kabupaten Mamasa",SULAWESI BARAT,91365.0,Indonesia,,,,-2.9433871,119.374891,https://maps.google.com/?cid=0x0:0xc270dd95288fa84e,
supermarket,Toko bahan makanan,Kios Grisel Posipadang,"288Q+2MF, Jl. Poros Mamasa, Rante Puang, Kec. Sesenapadang, Kabupaten Mamasa, Sulawesi Barat 91365","Jl. Poros Mamasa, Rante Puang, Kec. Sesenapadang, Kabupaten Mamasa",SULAWESI BARAT,91365.0,Indonesia,82378691393.0,,,-2.9849412,119.3391737,https://maps.google.com/?cid=0x0:0x4b6591077d1ee8ee,
supermarket,Toko Kelontong Asia,Kios Gavin,"283P+P6W, Jalan naik SMA, Balla, Kec. Balla, Kabupaten Mamasa, Sulawesi Barat","Kabupaten Mamasa, Sulawesi Barat",SULAWESI BARAT,,Indonesia,,,,-2.9956385,119.3355687,https://maps.google.com/?cid=0x0:0x554b9f1c863d2ae3,
supermarket,Toko umum,Kios Gilbersinar,"Jalam poros, Ulumambi, Kec. Bambang, Kabupaten Mamasa, Sulawesi Barat 91362","Ulumambi, Kec. Bambang, Kabupaten Mamasa",SULAWESI BARAT,91362.0,Indonesia,81257981966.0,,,-2.9196095,119.2632847,https://maps.google.com/?cid=0x0:0x5617928e626b75b2,
supermarket,Minimarket,Kios etha,"X8F5+XRG, Malabo, Kec. Tanduk Kalua, Kabupaten Mamasa, Sulawesi Barat 91366","Malabo, Kec. Tanduk Kalua, Kabupaten Mamasa",SULAWESI BARAT,91366.0,Indonesia,,,,-3.0250562,119.3095862,https://maps.google.com/?cid=0x0:0x97d151a115b663e1,
supermarket,Toko,TOKOH JHOSEA 19,"3687+77M, Masoso, Kec. Bambang, Kabupaten Mamasa, Sulawesi Barat 91371","Masoso, Kec. Bambang, Kabupaten Mamasa",SULAWESI BARAT,91371.0,Indonesia,82196399178.0,,,-2.934286,119.2131802,https://maps.google.com/?cid=0x0:0x417651286cc8b024,
supermarket,Toko,KIOS MAHESA,"Sumarorong, Kec. Sumarorong, Kabupaten Mamasa, Sulawesi Barat 91361","Kec. Sumarorong, Kabupaten Mamasa",SULAWESI BARAT,91361.0,Indonesia,82189922122.0,,,-3.1422595,119.3108479,https://maps.google.com/?cid=0x0:0xac4f8edf684d787c,
supermarket,Toko umum,tokoh adam,"X8QF+RWX, Jl. Poros Mamasa, Balla Bar., Kec. Balla, Kabupaten Mamasa, Sulawesi Barat 91366","Jl. Poros Mamasa, Balla Bar., Kec. Balla, Kabupaten Mamasa",SULAWESI BARAT,91366.0,Indonesia,85242365152.0,,,-3.0103831,119.3248468,https://maps.google.com/?cid=0x0:0xb178b5d8f2bf5e19,
supermarket,Toko Swalayan,TOKO WENSIA,"Pa'lentak, Osango, Kec. Mamasa, Kabupaten Mamasa, Sulawesi Barat 91365","Osango, Kec. Mamasa, Kabupaten Mamasa",SULAWESI BARAT,91365.0,Indonesia,,,,-2.9571732,119.3607939,https://maps.google.com/?cid=0x0:0x34e67f22d39bc879,
supermarket,Toko,Kios Gavin,"X8Q9+77, Balla Bar., Kec. Balla, Kabupaten Mamasa, Sulawesi Barat","Kabupaten Mamasa, Sulawesi Barat",SULAWESI BARAT,,Indonesia,,,,-3.011783,119.318201,https://maps.google.com/?cid=0x0:0x482fc0bf7a0cd5a7,
supermarket,Pembangunan Perumahan,Mehalaan barat,"X5MV+7X5, Mehalaan Bar., Kec. Mehalaan, Kabupaten Mamasa, Sulawesi Barat 91371","Mehalaan Bar., Kec. Mehalaan, Kabupaten Mamasa",SULAWESI BARAT,91371.0,Indonesia,,,,-3.0169175,119.1949617,https://maps.google.com/?cid=0x0:0x812918b7dc5dcbb5,
supermarket,Minimarket,Toko Sesilia,"X8VG+GMH, Jl. Poros Mamasa, Sepakuan, Kec. Balla, Kabupaten Mamasa, Sulawesi Barat 91366","Jl. Poros Mamasa, Sepakuan, Kec. Balla, Kabupaten Mamasa",SULAWESI BARAT,91366.0,Indonesia,,,,-3.0061861,119.3267262,https://maps.google.com/?cid=0x0:0x47761b13b8d6bf0b,
supermarket,Toko Swalayan,Toko Annisa,"29P4+HMF, Bombong Lambe, Kec. Mamasa, Kabupaten Mamasa, Sulawesi Barat 91365","Bombong Lambe, Kec. Mamasa, Kabupaten Mamasa",SULAWESI BARAT,91365.0,Indonesia,,,,-2.9635601,119.3566649,https://maps.google.com/?cid=0x0:0xb3e3c7c9031055e0,
supermarket,Toko Kelontong Asia,Kios Gavin,"26P7+57P, Dusun kanan desa, Balla Barat, Kec. Balla, Kabupaten Mamasa, Sulawesi Barat","Kabupaten Mamasa, Sulawesi Barat",SULAWESI BARAT,,Indonesia,,,,-2.9645328,119.2131896,https://maps.google.com/?cid=0x0:0xa4b1dfcd1b2697a4,
supermarket,Minimarket,alfa midi mamasa,"3939+6R6, Osango, Kec. Mamasa, Kabupaten Mamasa, Sulawesi Barat 91365","Osango, Kec. Mamasa, Kabupaten Mamasa",SULAWESI BARAT,91365.0,Indonesia,,,,-2.9469629,119.36953,https://maps.google.com/?cid=0x0:0x231a831b1eeb7894,
supermarket,Toko sembako pemerintah,Rantekamase,"V9PM+X7M, Rante Kamase, Kec. Sumarorong, Kabupaten Mamasa, Sulawesi Barat","Kabupaten Mamasa, Sulawesi Barat",SULAWESI BARAT,,Indonesia,,,,-3.1125441,119.3831823,https://maps.google.com/?cid=0x0:0x8f54880879841121,
supermarket,Toko umum,Ziel Kios,"36P4+F75, Saludengen, Kec. Bambang, Kabupaten Mamasa, Sulawesi Barat 91371","Saludengen, Kec. Bambang, Kabupaten Mamasa",SULAWESI BARAT,91371.0,Indonesia,81245862684.0,,,-2.9138534,119.2057374,https://maps.google.com/?cid=0x0:0xd4fcb855a00c732d,
supermarket,Toko Perlengkapan Rumah,Papa Yana,"397H+57C, Randanan, Desa, Bunta Buda, Kec. Mamasa, Kabupaten Mamasa, Sulawesi Barat 91365","Randanan, Desa, Bunta Buda, Kec. Mamasa, Kabupaten Mamasa",SULAWESI BARAT,91365.0,Indonesia,,,,-2.9370674,119.3781541,https://maps.google.com/?cid=0x0:0xba574fc3615fcccb,
supermarket,Toko bahan makanan,Toko Jawa Indah,"394G+R7J, Jl anoa 3, Mamasa, Mamasa Regency, West Sulawesi 91365","Jl anoa 3, Mamasa, Mamasa Regency",SULAWESI BARAT,91365.0,Indonesia,,,,-2.9429006,119.3756423,https://maps.google.com/?cid=0x0:0x512712779565d9ed,
supermarket,Grosir Kopi,Toko Kopi Petani Kopi Kampoeng Mamasa dan Pangkalan Tabung Gas Marhaeni,"Jl. Poros Mamasa, Osango, Kec. Mamasa, Kabupaten Mamasa, Sulawesi Barat 91365","Osango, Kec. Mamasa, Kabupaten Mamasa",SULAWESI BARAT,91365.0,Indonesia,82192903432.0,,,-2.9472517,119.3676294,https://maps.google.com/?cid=0x0:0x4b19d562119b32c9,
supermarket,supermarket,Toko Kiren,"X8G4+CWX, Malabo, Kec. Tanduk Kalua, Kabupaten Mamasa, Sulawesi Barat 91366","Malabo, Kec. Tanduk Kalua, Kabupaten Mamasa",SULAWESI BARAT,91366.0,Indonesia,,,,-3.0238836,119.3073688,https://maps.google.com/?cid=0x0:0x92de5b740d37d10a,
supermarket,supermarket,Kios selvi,"Tok dengen, Sepang, Mesakada, Kec. Mehalaan, Kabupaten Mamasa, Sulawesi Barat 91375","Sepang, Mesakada, Kec. Mehalaan, Kabupaten Mamasa",SULAWESI BARAT,91375.0,Indonesia,81248868284.0,,,-3.0196875,119.2105625,https://maps.google.com/?cid=0x0:0x44ca03c93686a,
supermarket,supermarket,Tawalian,"Kec. Tawalian, Kabupaten Mamasa, Sulawesi Barat","Kabupaten Mamasa, Sulawesi Barat",SULAWESI BARAT,,Indonesia,,,,-2.9583445,119.3889082,https://maps.google.com/?cid=0x0:0x1f4ad7b1dd0325ef,
supermarket,Toko Swalayan,Supermarket Surya,"Jl. Ahmad Yani No.1, Mamasa, Kec. Mamasa, Kabupaten Mamasa, Sulawesi Barat 91365","Mamasa, Kec. Mamasa, Kabupaten Mamasa",SULAWESI BARAT,91365.0,Indonesia,,,,-2.9433871,119.374891,https://maps.google.com/?cid=0x0:0xc270dd95288fa84e,
supermarket,Kios,Ayra Pay,"393J+JX4, Tatoa, Tawalian, Kec. Tawalian, Kabupaten Mamasa, Sulawesi Barat 91365","Tatoa, Tawalian, Kec. Tawalian, Kabupaten Mamasa",SULAWESI BARAT,91365.0,Indonesia,85341516699.0,,,-2.9459888,119.382456,https://maps.google.com/?cid=0x0:0xe5f81151541f70bd,
supermarket,Toko bahan makanan,Toko Jawa Indah,"394G+R7J, Jl anoa 3, Mamasa, Mamasa Regency, West Sulawesi 91365","Jl anoa 3, Mamasa, Mamasa Regency",SULAWESI BARAT,91365.0,Indonesia,,,,-2.9429006,119.3756423,https://maps.google.com/?cid=0x0:0x512712779565d9ed,
supermarket,Pusat Perbelanjaan,Toko Rajawali Tatoa,"393M+R2, Tawalian, Kec. Tawalian, Kabupaten Mamasa, Sulawesi Barat 91365","Tawalian, Kec. Tawalian, Kabupaten Mamasa",SULAWESI BARAT,91365.0,Indonesia,82188644938.0,,,-2.9455559,119.382472,https://maps.google.com/?cid=0x0:0x7326f8e73e7e6303,
supermarket,Toko Elektronik,Ivy Hidroponik,"29QM+MQF, Jl. Lkr., Tawalian, Kec. Tawalian, Kabupaten Mamasa, Sulawesi Barat 91365","Jl. Lkr., Tawalian, Kec. Tawalian, Kabupaten Mamasa",SULAWESI BARAT,91365.0,Indonesia,,,,-2.9608062,119.3844188,https://maps.google.com/?cid=0x0:0x979292119cc2aeeb,
supermarket,Kios,Kios Litak Sakka,"398Q+92X, Rambusaratu, Kec. Mamasa, Kabupaten Mamasa, Sulawesi Barat 91365","Rambusaratu, Kec. Mamasa, Kabupaten Mamasa",SULAWESI BARAT,91365.0,Indonesia,81247773488.0,,,-2.9340124,119.3876157,https://maps.google.com/?cid=0x0:0xaedff13f0771d37f,
supermarket,Toko Perlengkapan Rumah,Papa Yana,"397H+57C, Randanan, Desa, Bunta Buda, Kec. Mamasa, Kabupaten Mamasa, Sulawesi Barat 91365","Randanan, Desa, Bunta Buda, Kec. Mamasa, Kabupaten Mamasa",SULAWESI BARAT,91365.0,Indonesia,,,,-2.9370674,119.3781541,https://maps.google.com/?cid=0x0:0xba574fc3615fcccb,
supermarket,Toko bahan makanan,Kios Rival,"394F+GR4, Jl. Jend. Sudirman, Mamasa, Kec. Mamasa, Kabupaten Mamasa, Sulawesi Barat 91365","Jl. Jend. Sudirman, Mamasa, Kec. Mamasa, Kabupaten Mamasa",SULAWESI BARAT,91365.0,Indonesia,,,,-2.9437427,119.3745916,https://maps.google.com/?cid=0x0:0x1c51b55b0c8e8948,
supermarket,Toko umum,aeramart,"396H+4C7, Bunta Buda, Kec. Mamasa, Kabupaten Mamasa, Sulawesi Barat 91365","Bunta Buda, Kec. Mamasa, Kabupaten Mamasa",SULAWESI BARAT,91365.0,Indonesia,,,,-2.9397147,119.3785525,https://maps.google.com/?cid=0x0:0x564cf249fea90fac,
supermarket,Pasar,Kios Devi,"394G+MX6, Jl. Pendidikan, Mamasa, Kec. Mamasa, Kabupaten Mamasa, Sulawesi Barat 91365","Jl. Pendidikan, Mamasa, Kec. Mamasa, Kabupaten Mamasa",SULAWESI BARAT,91365.0,Indonesia,85145259190.0,,,-2.9433416,119.377376,https://maps.google.com/?cid=0x0:0x89be48f0a53040a1,
supermarket,Toko Buah dan Sayur,Tamarillo/Terung Belanda Mamasa,"Bunta Buda, Kec. Mamasa, Kabupaten Mamasa, Sulawesi Barat 91362","Kec. Mamasa, Kabupaten Mamasa",SULAWESI BARAT,91362.0,Indonesia,85223979718.0,,,-2.939703,119.3744505,https://maps.google.com/?cid=0x0:0x198f01bf312d2b9d,
supermarket,Toko bahan makanan,Kios Grisel Posi Padang,"394H+7F9, Mamasa, Kec. Mamasa, Kabupaten Mamasa, Sulawesi Barat 91365","Mamasa, Kec. Mamasa, Kabupaten Mamasa",SULAWESI BARAT,91365.0,Indonesia,82188449383.0,,,-2.9443482,119.3787483,https://maps.google.com/?cid=0x0:0x3a0d8dfa8275085c,
supermarket,Toko bahan makanan,Ody Shop,"Unnamed Road, Bunta Buda, Kec. Mamasa, Kabupaten Mamasa, Sulawesi Barat 91365","Bunta Buda, Kec. Mamasa, Kabupaten Mamasa",SULAWESI BARAT,91365.0,Indonesia,,,,-2.9409914,119.3727197,https://maps.google.com/?cid=0x0:0x4f41750e6556c33e,
supermarket,Pasar,KIOS CAMPURAN,"396M+WCP, Tondok Bakaru, Kec. Sesenapadang, Kabupaten Mamasa, Sulawesi Barat 91365","Tondok Bakaru, Kec. Sesenapadang, Kabupaten Mamasa",SULAWESI BARAT,91365.0,Indonesia,,,,-2.9380191,119.3836454,https://maps.google.com/?cid=0x0:0x135cebbfbee74839,
supermarket,Toko bahan makanan,Kios YERAL SINAR TERNAK,"398Q+PQH, Jalan Poros Toraja-Mamasa, Dusun Litak Sakka, Rambusaratu, Kec. Mamasa, Kabupaten Mamasa, Sulawesi Barat","Kabupaten Mamasa, Sulawesi Barat",SULAWESI BARAT,,Indonesia,,,,-2.9331839,119.3894704,https://maps.google.com/?cid=0x0:0x6d86720514578ca9,
supermarket,Toko bahan makanan,Sulawesi Barat,"2C62+3FC, Orobua, Kec. Sesenapadang, Kabupaten Mamasa, Sulawesi Barat","Kabupaten Mamasa, Sulawesi Barat",SULAWESI BARAT,,Indonesia,,,,-2.9898047,119.4011436,https://maps.google.com/?cid=0x0:0x39bea01ddc217de2,
supermarket,Kompleks Apartemen,Paladan,"293J+J34, Paladan, Kec. Sesenapadang, Kabupaten Mamasa, Sulawesi Barat 91365","Paladan, Kec. Sesenapadang, Kabupaten Mamasa",SULAWESI BARAT,91365.0,Indonesia,,,,-2.9959967,119.3801998,https://maps.google.com/?cid=0x0:0xa660e415c0d0034c,
supermarket,Kios,Kios pangkali,"39CV+99R, Unnamed Road, Rambusaratu, Kec. Mamasa, Kabupaten Mamasa, Sulawesi Barat 91365","Unnamed Road, Rambusaratu, Kec. Mamasa, Kabupaten Mamasa",SULAWESI BARAT,91365.0,Indonesia,,,,-2.9290053,119.3933878,https://maps.google.com/?cid=0x0:0x6743347f0c30f4ec,
supermarket,Toko Swalayan,TOKO WENSIA,"Pa'lentak, Osango, Kec. Mamasa, Kabupaten Mamasa, Sulawesi Barat 91365","Osango, Kec. Mamasa, Kabupaten Mamasa",SULAWESI BARAT,91365.0,Indonesia,,,,-2.9571732,119.3607939,https://maps.google.com/?cid=0x0:0x34e67f22d39bc879,
