Category,Real Category,Business Name,Address,City,State,Postal Code,Country,Phone,Email,Website,Latitude,Longitude,Map Link,Details Link
hotel,hotel,Kalimantan Tengah 73991,"Kabupaten Murung Raya, Kalimantan Tengah","Kabupaten Murung Raya, Kalimantan Tengah",KALIMANTAN TENGAH,,Indonesia,,,,-0.2037503,114.8092691,https://maps.google.com/?cid=0x0:0x46d09a0087c59ba1,
hotel,hotel,HOTEL PUTRI PURUK CAHU,"Beriwit, Kec. Murung, Kabupaten Murung Raya, Kalimantan Tengah 73911","Kec. Murung, Kabupaten Murung Raya",KALIMANTAN TENGAH,73911.0,Indonesia,82148307222.0,,,-0.6448163,114.5647459,https://maps.google.com/?cid=0x0:0x5b6afb3a52ddaaa,
hotel,hotel,Hotel Gita,"9H48+P99, Beriwit, Kec. Murung, Kabupaten Murung Raya, Kalimantan Tengah 73911","Beriwit, Kec. Murung, Kabupaten Murung Raya",KALIMANTAN TENGAH,73911.0,Indonesia,,,,-0.6432245,114.5659853,https://maps.google.com/?cid=0x0:0x6aa1d3ff79a2e133,
hotel,hotel,Kalimantan Tengah 73991,"Kabupaten Murung Raya, Kalimantan Tengah","Kabupaten Murung Raya, Kalimantan Tengah",KALIMANTAN TENGAH,,Indonesia,,,,-0.2037503,114.8092691,https://maps.google.com/?cid=0x0:0x46d09a0087c59ba1,
hotel,hotel,HOTEL PUTRI PURUK CAHU,"Beriwit, Kec. Murung, Kabupaten Murung Raya, Kalimantan Tengah 73911","Kec. Murung, Kabupaten Murung Raya",KALIMANTAN TENGAH,73911.0,Indonesia,82148307222.0,,,-0.6448163,114.5647459,https://maps.google.com/?cid=0x0:0x5b6afb3a52ddaaa,
hotel,hotel,Hotel Gita,"9H48+P99, Beriwit, Kec. Murung, Kabupaten Murung Raya, Kalimantan Tengah 73911","Beriwit, Kec. Murung, Kabupaten Murung Raya",KALIMANTAN TENGAH,73911.0,Indonesia,,,,-0.6432245,114.5659853,https://maps.google.com/?cid=0x0:0x6aa1d3ff79a2e133,
hotel,hotel,Kalimantan Tengah 73911,"Kec. Murung, Kabupaten Murung Raya, Kalimantan Tengah","Kabupaten Murung Raya, Kalimantan Tengah",KALIMANTAN TENGAH,,Indonesia,,,,-0.581032,114.6667939,https://maps.google.com/?cid=0x0:0xfaf4a8cd4b21fca2,
hotel,hotel,Hotel Gita,"9H48+P99, Beriwit, Kec. Murung, Kabupaten Murung Raya, Kalimantan Tengah 73911","Beriwit, Kec. Murung, Kabupaten Murung Raya",KALIMANTAN TENGAH,73911.0,Indonesia,,,,-0.6432245,114.5659853,https://maps.google.com/?cid=0x0:0x6aa1d3ff79a2e133,
hotel,hotel,HOTEL PUTRI PURUK CAHU,"Beriwit, Kec. Murung, Kabupaten Murung Raya, Kalimantan Tengah 73911","Kec. Murung, Kabupaten Murung Raya",KALIMANTAN TENGAH,73911.0,Indonesia,82148307222.0,,,-0.6448163,114.5647459,https://maps.google.com/?cid=0x0:0x5b6afb3a52ddaaa,
hotel,hotel,Hotel Wahyu Perdana,"JL. Jenderal Ahmad Yani No.30, Tamiang Layang, Kec. Dusun Tim., Kabupaten Barito Timur, Kalimantan Tengah 73671","Tamiang Layang, Kec. Dusun Tim., Kabupaten Barito Timur",KALIMANTAN TENGAH,73671.0,Indonesia,811504139.0,,,-2.1108809,115.1647142,https://maps.google.com/?cid=0x0:0xb404b706a6249ce3,
hotel,hotel,Hotel YUS,"Jalan Kalikasa, Parenggean, Kec. Parenggean, Kabupaten Kotawaringin Timur, Kalimantan Tengah","Kabupaten Kotawaringin Timur, Kalimantan Tengah",KALIMANTAN TENGAH,,Indonesia,82324360707.0,,,-2.0154695,112.7826059,https://maps.google.com/?cid=0x0:0x3d6ad29ab9a2eb0d,
hotel,hotel,Hotel Barito Kencana,"Jalan Janah Harapan No.Kelurahan, Ampah Kota, Kec. Dusun Tengah, Kabupaten Barito Timur, Kalimantan Tengah 73652","Ampah Kota, Kec. Dusun Tengah, Kabupaten Barito Timur",KALIMANTAN TENGAH,73652.0,Indonesia,52231305.0,,,-1.7789523,115.1490603,https://maps.google.com/?cid=0x0:0xff971aff53192b6b,
hotel,hotel,Hotel Matahari,"JL. Tumenggung Surapati, Melayu, Teweh Tengah, 73811, Melayu, Kec. Teweh Tengah, Kabupaten Barito Utara, Kalimantan Tengah 73814","Melayu, Teweh Tengah,",KALIMANTAN TENGAH,73811.0,Indonesia,51921103.0,,,-0.9589617,114.9005487,https://maps.google.com/?cid=0x0:0x72c3250b8b65e416,
hotel,hotel,Hotel Walet,"Jl. Tumenggung Surapati No.RT. 12A, Melayu, Kec. Teweh Tengah, Kabupaten Barito Utara, Kalimantan Tengah 73814","Melayu, Kec. Teweh Tengah, Kabupaten Barito Utara",KALIMANTAN TENGAH,73814.0,Indonesia,,,,-0.9589699,114.9003342,https://maps.google.com/?cid=0x0:0xfa44d12c1bf92675,
hotel,hotel,Kalimantan Tengah 73971,"Kabupaten Murung Raya, Kalimantan Tengah","Kabupaten Murung Raya, Kalimantan Tengah",KALIMANTAN TENGAH,,Indonesia,,,,-0.4787128,114.4292148,https://maps.google.com/?cid=0x0:0x7eb3a8a82a8e44be,
hotel,hotel,Permata Hotel Syariah,"Jl. PRA. Kesumayudha No.28 RT 08, Raja, Kec. Arut Sel., Kabupaten Kotawaringin Barat, Kalimantan Tengah 74114","Raja, Kec. Arut Sel., Kabupaten Kotawaringin Barat",KALIMANTAN TENGAH,74114.0,Indonesia,5326620185.0,,,-2.6770653,111.6301848,https://maps.google.com/?cid=0x0:0x677fbb968147d02a,
hotel,hotel,HOTEL PUTRI PURUK CAHU,"Beriwit, Kec. Murung, Kabupaten Murung Raya, Kalimantan Tengah 73911","Kec. Murung, Kabupaten Murung Raya",KALIMANTAN TENGAH,73911.0,Indonesia,82148307222.0,,,-0.6448163,114.5647459,https://maps.google.com/?cid=0x0:0x5b6afb3a52ddaaa,
hotel,hotel,Hotel YUS,"Jalan Kalikasa, Parenggean, Kec. Parenggean, Kabupaten Kotawaringin Timur, Kalimantan Tengah","Kabupaten Kotawaringin Timur, Kalimantan Tengah",KALIMANTAN TENGAH,,Indonesia,82324360707.0,,,-2.0154695,112.7826059,https://maps.google.com/?cid=0x0:0x3d6ad29ab9a2eb0d,
hotel,hotel,Kalimantan Tengah 73981,"Kabupaten Murung Raya, Kalimantan Tengah","Kabupaten Murung Raya, Kalimantan Tengah",KALIMANTAN TENGAH,,Indonesia,,,,0.1366232,113.9536466,https://maps.google.com/?cid=0x0:0xb765502d3651aeca,
hotel,hotel,HOTEL PUTRI PURUK CAHU,"Beriwit, Kec. Murung, Kabupaten Murung Raya, Kalimantan Tengah 73911","Kec. Murung, Kabupaten Murung Raya",KALIMANTAN TENGAH,73911.0,Indonesia,82148307222.0,,,-0.6448163,114.5647459,https://maps.google.com/?cid=0x0:0x5b6afb3a52ddaaa,
hotel,hotel,Hotel Gita,"9H48+P99, Beriwit, Kec. Murung, Kabupaten Murung Raya, Kalimantan Tengah 73911","Beriwit, Kec. Murung, Kabupaten Murung Raya",KALIMANTAN TENGAH,73911.0,Indonesia,,,,-0.6432245,114.5659853,https://maps.google.com/?cid=0x0:0x6aa1d3ff79a2e133,
hotel,hotel,Sumber Barito,"Kabupaten Murung Raya, Kalimantan Tengah","Kabupaten Murung Raya, Kalimantan Tengah",KALIMANTAN TENGAH,,Indonesia,,,,-0.341791,114.2390498,https://maps.google.com/?cid=0x0:0xdb7aed4b9b946c56,
hotel,hotel,Horizon,"Sei Pinang, Mandau Talawang, Kabupaten Kapuas, Kalimantan Tengah 74511","Mandau Talawang, Kabupaten Kapuas",KALIMANTAN TENGAH,74511.0,Indonesia,343741476.0,,,-0.789275,113.921327,https://maps.google.com/?cid=0x0:0xabbfb3815684c79b,
hotel,hotel,HOTEL PUTRI PURUK CAHU,"Beriwit, Kec. Murung, Kabupaten Murung Raya, Kalimantan Tengah 73911","Kec. Murung, Kabupaten Murung Raya",KALIMANTAN TENGAH,73911.0,Indonesia,82148307222.0,,,-0.6448163,114.5647459,https://maps.google.com/?cid=0x0:0x5b6afb3a52ddaaa,
hotel,hotel,Hotel Gita,"9H48+P99, Beriwit, Kec. Murung, Kabupaten Murung Raya, Kalimantan Tengah 73911","Beriwit, Kec. Murung, Kabupaten Murung Raya",KALIMANTAN TENGAH,73911.0,Indonesia,,,,-0.6432245,114.5659853,https://maps.google.com/?cid=0x0:0x6aa1d3ff79a2e133,
hotel,hotel,OYO 90331 Hotel Toba Shanda,"6W6C+7GP, Parapat, Simalungun, Toba, North Sumatra 21174","Parapat, Simalungun, Toba",KALIMANTAN TENGAH,21174.0,Indonesia,82377518293.0,,,-0.789275,113.921327,https://maps.google.com/?cid=0x0:0xbf17327f1627a1b9,
hotel,hotel,SPOT ON 92179 Latinos House,"1, Bugisan, Klaten, Solo, Central Java 57454","Bugisan, Klaten, Solo",KALIMANTAN TENGAH,57454.0,Indonesia,817788016.0,,,-0.789275,113.921327,https://maps.google.com/?cid=0x0:0x11420d6a736f24ba,
hotel,hotel,Nur hidayah,"6W6C+7GP, Sei Pinang, Mandau Talawang, Kabupaten Kapuas, Kalimantan Tengah","Kabupaten Kapuas, Kalimantan Tengah",KALIMANTAN TENGAH,,Indonesia,,,,-0.789275,113.921327,https://maps.google.com/?cid=0x0:0xd690ca62b5094312,
hotel,hotel,Kec. Sungai Babuat,"Kabupaten Murung Raya, Kalimantan Tengah","Kabupaten Murung Raya, Kalimantan Tengah",KALIMANTAN TENGAH,,Indonesia,,,,-0.5790762,114.3152452,https://maps.google.com/?cid=0x0:0xd1427b5a363a47e7,
hotel,hotel,HOTEL PUTRI PURUK CAHU,"Beriwit, Kec. Murung, Kabupaten Murung Raya, Kalimantan Tengah 73911","Kec. Murung, Kabupaten Murung Raya",KALIMANTAN TENGAH,73911.0,Indonesia,82148307222.0,,,-0.6448163,114.5647459,https://maps.google.com/?cid=0x0:0x5b6afb3a52ddaaa,
hotel,hotel,Hotel Gita,"9H48+P99, Beriwit, Kec. Murung, Kabupaten Murung Raya, Kalimantan Tengah 73911","Beriwit, Kec. Murung, Kabupaten Murung Raya",KALIMANTAN TENGAH,73911.0,Indonesia,,,,-0.6432245,114.5659853,https://maps.google.com/?cid=0x0:0x6aa1d3ff79a2e133,
hotel,hotel,Kalimantan Tengah 73961,"Kabupaten Murung Raya, Kalimantan Tengah","Kabupaten Murung Raya, Kalimantan Tengah",KALIMANTAN TENGAH,,Indonesia,,,,-0.1700332,114.5717799,https://maps.google.com/?cid=0x0:0x228b161e8a06fd62,
hotel,hotel,Penginapan 3 Putri,"X8VH+CH6, Tumbang Olong, Uut Murung, Kabupaten Murung Raya, Kalimantan Tengah 73981","Tumbang Olong, Uut Murung, Kabupaten Murung Raya",KALIMANTAN TENGAH,73981.0,Indonesia,,,,-0.0064573,114.3288771,https://maps.google.com/?cid=0x0:0x31d72e18cec8c63f,
hotel,hotel,Desa Wisata Hotel,"QXQW+WWM Taman Mini Indonesia Indah, Takajung, Cipayung, Murung Raya Regency, Central Kalimantan 73981","Takajung, Cipayung, Murung Raya Regency",KALIMANTAN TENGAH,73981.0,Indonesia,,,,-0.21016,113.99731,https://maps.google.com/?cid=0x0:0xb5b7254f01a7d8a2,
hotel,hotel,Tanah Siang Sel.,"Kabupaten Murung Raya, Kalimantan Tengah","Kabupaten Murung Raya, Kalimantan Tengah",KALIMANTAN TENGAH,,Indonesia,,,,-0.6787755,114.4533539,https://maps.google.com/?cid=0x0:0x563ce9dc5860bfa6,
hotel,hotel,HOTEL PUTRI PURUK CAHU,"Beriwit, Kec. Murung, Kabupaten Murung Raya, Kalimantan Tengah 73911","Kec. Murung, Kabupaten Murung Raya",KALIMANTAN TENGAH,73911.0,Indonesia,82148307222.0,,,-0.6448163,114.5647459,https://maps.google.com/?cid=0x0:0x5b6afb3a52ddaaa,
hotel,hotel,Hotel Gita,"9H48+P99, Beriwit, Kec. Murung, Kabupaten Murung Raya, Kalimantan Tengah 73911","Beriwit, Kec. Murung, Kabupaten Murung Raya",KALIMANTAN TENGAH,73911.0,Indonesia,,,,-0.6432245,114.5659853,https://maps.google.com/?cid=0x0:0x6aa1d3ff79a2e133,
hotel,hotel,Kalimantan Tengah 73981,"Kabupaten Murung Raya, Kalimantan Tengah","Kabupaten Murung Raya, Kalimantan Tengah",KALIMANTAN TENGAH,,Indonesia,,,,0.1366232,113.9536466,https://maps.google.com/?cid=0x0:0xb765502d3651aeca,
hotel,hotel,HOTEL PUTRI PURUK CAHU,"Beriwit, Kec. Murung, Kabupaten Murung Raya, Kalimantan Tengah 73911","Kec. Murung, Kabupaten Murung Raya",KALIMANTAN TENGAH,73911.0,Indonesia,82148307222.0,,,-0.6448163,114.5647459,https://maps.google.com/?cid=0x0:0x5b6afb3a52ddaaa,
hotel,hotel,Hotel Gita,"9H48+P99, Beriwit, Kec. Murung, Kabupaten Murung Raya, Kalimantan Tengah 73911","Beriwit, Kec. Murung, Kabupaten Murung Raya",KALIMANTAN TENGAH,73911.0,Indonesia,,,,-0.6432245,114.5659853,https://maps.google.com/?cid=0x0:0x6aa1d3ff79a2e133,
hotel,hotel,Hotel YUS,"Jalan Kalikasa, Parenggean, Kec. Parenggean, Kabupaten Kotawaringin Timur, Kalimantan Tengah","Kabupaten Kotawaringin Timur, Kalimantan Tengah",KALIMANTAN TENGAH,,Indonesia,82324360707.0,,,-2.0154695,112.7826059,https://maps.google.com/?cid=0x0:0x3d6ad29ab9a2eb0d,
restaurant,restaurant,Kalimantan Tengah 73991,"Kabupaten Murung Raya, Kalimantan Tengah","Kabupaten Murung Raya, Kalimantan Tengah",KALIMANTAN TENGAH,,Indonesia,,,,-0.2037503,114.8092691,https://maps.google.com/?cid=0x0:0x46d09a0087c59ba1,
restaurant,Nasi,Warung Makan Rica-rica,"Unnamed Road, 73991, Liang Nyaling, Kec. Barito Tuhup Raya, Kabupaten Murung Raya, Kalimantan Tengah 73991","73991, Liang Nyaling, Kec. Barito Tuhup Raya, Kabupaten Murung Raya",KALIMANTAN TENGAH,73991.0,Indonesia,81320444489.0,,,-0.4119465,114.8879838,https://maps.google.com/?cid=0x0:0x36c0ddc24d07d1e8,
restaurant,Restoran,Warung Makan Mbak Asih,"HVQP+RG, Km 34, Liang Nyaling, Kec. Barito Tuhup Raya, Kabupaten Murung Raya, Kalimantan Tengah","Kabupaten Murung Raya, Kalimantan Tengah",KALIMANTAN TENGAH,,Indonesia,82135309090.0,,,-0.4104284,114.8863716,https://maps.google.com/?cid=0x0:0x2a3000d2dbe52f72,
restaurant,Nasi,Warung makan Parahiyangan,"HVCX+2J6, Unnamed Road, Dirung Sararong, Kec. Barito Tuhup Raya, Kabupaten Murung Raya, Kalimantan Tengah 73991","Unnamed Road, Dirung Sararong, Kec. Barito Tuhup Raya, Kabupaten Murung Raya",KALIMANTAN TENGAH,73991.0,Indonesia,81320444489.0,,,-0.4299694,114.899011,https://maps.google.com/?cid=0x0:0x165a8281eefe4555,
restaurant,Restoran,RUMAH MAKAN IBU YANI KM.1 ROSO2,"9RR5+36C, Unnamed Road, Muara Tuhup, Kec. Laung Tuhup, Kabupaten Murung Raya, Kalimantan Tengah 73991","Unnamed Road, Muara Tuhup, Kec. Laung Tuhup, Kabupaten Murung Raya",KALIMANTAN TENGAH,73991.0,Indonesia,82153712772.0,,,-0.6098142,114.8080184,https://maps.google.com/?cid=0x0:0xf5c830184ad0bf24,
restaurant,Rumah Makan,Warung Makan Mama Okta,"HV9X+X38, Kohong, Kec. Barito Tuhup Raya, Kabupaten Murung Raya, Kalimantan Tengah 73991","Kohong, Kec. Barito Tuhup Raya, Kabupaten Murung Raya",KALIMANTAN TENGAH,73991.0,Indonesia,82159891121.0,,,-0.4300899,114.8977172,https://maps.google.com/?cid=0x0:0x12e4e84b44ac6ad6,
restaurant,Dapur Umum,Warung Mama Ian,"Unnamed Road, Muara Tuhup, Kec. Laung Tuhup, Kabupaten Murung Raya, Kalimantan Tengah 73991","Muara Tuhup, Kec. Laung Tuhup, Kabupaten Murung Raya",KALIMANTAN TENGAH,73991.0,Indonesia,81250081324.0,,,-0.615693,114.8057007,https://maps.google.com/?cid=0x0:0xf2ac8cf645761c90,
restaurant,Restoran,Warung makan padang salsabila dan naira,"Liang Nyaling, Kec. Barito Tuhup Raya, Kabupaten Murung Raya, Kalimantan Tengah 73991","Kec. Barito Tuhup Raya, Kabupaten Murung Raya",KALIMANTAN TENGAH,73991.0,Indonesia,81255818668.0,,,-0.4000082,114.844879,https://maps.google.com/?cid=0x0:0x2d39704dae7034e4,
restaurant,Restoran,DAPUR TETEH,"Jl. Puruk Batu Bondang No.426, Beriwit, Kec. Murung, Kabupaten Murung Raya, Kalimantan Tengah 73911","Beriwit, Kec. Murung, Kabupaten Murung Raya",KALIMANTAN TENGAH,73911.0,Indonesia,85813582863.0,,,-0.6314862,114.5722985,https://maps.google.com/?cid=0x0:0xd55043e9a671a4be,
restaurant,Restoran,Rumah makan hj.nordiana,"CP4P+C6Q, Muara Laung I, Kec. Laung Tuhup, Kabupaten Murung Raya, Kalimantan Tengah 73911","Muara Laung I, Kec. Laung Tuhup, Kabupaten Murung Raya",KALIMANTAN TENGAH,73911.0,Indonesia,81351242466.0,,,-0.5939072,114.7356185,https://maps.google.com/?cid=0x0:0xff745dc0f57775c9,
restaurant,Restoran,Rumah Makan Sama Itah,"Jl. Ahmad Yani No.2 No. 11, Beriwit, Kec. Murung, Kabupaten Murung Raya, Kalimantan Tengah 73911","Beriwit, Kec. Murung, Kabupaten Murung Raya",KALIMANTAN TENGAH,73911.0,Indonesia,,,,-0.6213357,114.5723082,https://maps.google.com/?cid=0x0:0x8996165409e531fd,
restaurant,Bubur,Bakakurih Cafe,"9PVP+W3M, Muara Laung I, Kec. Laung Tuhup, Kabupaten Murung Raya, Kalimantan Tengah","Kabupaten Murung Raya, Kalimantan Tengah",KALIMANTAN TENGAH,,Indonesia,,,,-0.6051532,114.7351814,https://maps.google.com/?cid=0x0:0x83d438c64d338b23,
restaurant,Sesuai untuk keluarga,Restoran Idola,"9HF9+574, Beriwit, Kec. Murung, Kabupaten Murung Raya, Kalimantan Tengah 73911","Beriwit, Kec. Murung, Kabupaten Murung Raya",KALIMANTAN TENGAH,73911.0,Indonesia,85753219961.0,,,-0.627107,114.5682119,https://maps.google.com/?cid=0x0:0x20bdda120e622a0b,
restaurant,Jawa,Warung Makan Pasar Sabtu,"9RG8+6VM, Unnamed Road, Muara Tuhup, Kec. Laung Tuhup, Kabupaten Murung Raya, Kalimantan Tengah 73991","Unnamed Road, Muara Tuhup, Kec. Laung Tuhup, Kabupaten Murung Raya",KALIMANTAN TENGAH,73991.0,Indonesia,,,,-0.6244143,114.8171573,https://maps.google.com/?cid=0x0:0x6121c03e84bcc72e,
restaurant,Brunch,Warung Makan Candurasa,"JPGQ+7X, Muara Maruwei I, Kec. Laung Tuhup, Kabupaten Murung Raya, Kalimantan Tengah 73991","Muara Maruwei I, Kec. Laung Tuhup, Kabupaten Murung Raya",KALIMANTAN TENGAH,73991.0,Indonesia,,,,-0.3743086,114.7400796,https://maps.google.com/?cid=0x0:0x78c8377da675b782,
restaurant,Padang,RM  CAFE Pandang Barito,"9HMF+C57, Jl. Merdeka No.58, Beriwit, Kec. Murung, Kabupaten Murung Raya, Kalimantan Tengah 73911","Jl. Merdeka No.58, Beriwit, Kec. Murung, Kabupaten Murung Raya",KALIMANTAN TENGAH,73911.0,Indonesia,82153000123.0,,,-0.6165534,114.5728688,https://maps.google.com/?cid=0x0:0x85ab172f9a43b7d6,
restaurant,Nasi,Seila Streetfood,"9HC9+V77, Jl. Ahmad Yani, Beriwit, Kec. Murung, Kabupaten Murung Raya, Kalimantan Tengah 73911","Jl. Ahmad Yani, Beriwit, Kec. Murung, Kabupaten Murung Raya",KALIMANTAN TENGAH,73911.0,Indonesia,,,,-0.6278353,114.568187,https://maps.google.com/?cid=0x0:0xd9cef5c91e519d62,
restaurant,Restoran,RM. Mama Robby,"9HMF+76M, Beriwit, Kec. Murung, Kabupaten Murung Raya, Kalimantan Tengah 73911","Beriwit, Kec. Murung, Kabupaten Murung Raya",KALIMANTAN TENGAH,73911.0,Indonesia,,,,-0.6167915,114.5730496,https://maps.google.com/?cid=0x0:0x253a01484c9c5df3,
restaurant,Brunch,Warung Bubur Ari,"CP3M+RM7, Muara Laung I, Kec. Laung Tuhup, Kabupaten Murung Raya, Kalimantan Tengah 73911","Muara Laung I, Kec. Laung Tuhup, Kabupaten Murung Raya",KALIMANTAN TENGAH,73911.0,Indonesia,,,,-0.5954521,114.7341631,https://maps.google.com/?cid=0x0:0x8cccc81a03dfcf28,
restaurant,Dapur Umum,Warung Mama Yeni,"9RVC+GFR, Muara Tuhup, Kec. Laung Tuhup, Kabupaten Murung Raya, Kalimantan Tengah","Kabupaten Murung Raya, Kalimantan Tengah",KALIMANTAN TENGAH,,Indonesia,81350741165.0,,,-0.6061313,114.8211394,https://maps.google.com/?cid=0x0:0xa16dc23a3ee8fbe0,
restaurant,Restoran,Warung Lalapan Bu Lee,"9RP4+3FV, Muara Tuhup, Kec. Laung Tuhup, Kabupaten Murung Raya, Kalimantan Tengah 73991","Muara Tuhup, Kec. Laung Tuhup, Kabupaten Murung Raya",KALIMANTAN TENGAH,73991.0,Indonesia,82151343623.0,,,-0.6147708,114.806172,https://maps.google.com/?cid=0x0:0xf01b1850da822df8,
restaurant,Restoran,Depot Madani 88,"Jl. Gajah Mada, Muara Laung I, Kec. Laung Tuhup, Kabupaten Murung Raya, Kalimantan Tengah 73911","Muara Laung I, Kec. Laung Tuhup, Kabupaten Murung Raya",KALIMANTAN TENGAH,73911.0,Indonesia,82199631174.0,,,-0.6047622,114.7354667,https://maps.google.com/?cid=0x0:0x2c72849a4371291e,
restaurant,Dapur Umum,Warung Arfana,"8RCM+JR, Makunjung, Kec. Barito Tuhup Raya, Kabupaten Murung Raya, Kalimantan Tengah","Kabupaten Murung Raya, Kalimantan Tengah",KALIMANTAN TENGAH,,Indonesia,85654444096.0,,,-0.6784951,114.8345055,https://maps.google.com/?cid=0x0:0x7a1b82f88d90c01,
restaurant,restaurant,Kalimantan Tengah 73991,"Kabupaten Murung Raya, Kalimantan Tengah","Kabupaten Murung Raya, Kalimantan Tengah",KALIMANTAN TENGAH,,Indonesia,,,,-0.2037503,114.8092691,https://maps.google.com/?cid=0x0:0x46d09a0087c59ba1,
restaurant,Restoran,RUMAH MAKAN IBU YANI KM.1 ROSO2,"9RR5+36C, Unnamed Road, Muara Tuhup, Kec. Laung Tuhup, Kabupaten Murung Raya, Kalimantan Tengah 73991","Unnamed Road, Muara Tuhup, Kec. Laung Tuhup, Kabupaten Murung Raya",KALIMANTAN TENGAH,73991.0,Indonesia,82153712772.0,,,-0.6098142,114.8080184,https://maps.google.com/?cid=0x0:0xf5c830184ad0bf24,
restaurant,Dapur Umum,Warung Mama Ian,"Unnamed Road, Muara Tuhup, Kec. Laung Tuhup, Kabupaten Murung Raya, Kalimantan Tengah 73991","Muara Tuhup, Kec. Laung Tuhup, Kabupaten Murung Raya",KALIMANTAN TENGAH,73991.0,Indonesia,81250081324.0,,,-0.615693,114.8057007,https://maps.google.com/?cid=0x0:0xf2ac8cf645761c90,
restaurant,Nasi,Warung Makan Rica-rica,"Unnamed Road, 73991, Liang Nyaling, Kec. Barito Tuhup Raya, Kabupaten Murung Raya, Kalimantan Tengah 73991","73991, Liang Nyaling, Kec. Barito Tuhup Raya, Kabupaten Murung Raya",KALIMANTAN TENGAH,73991.0,Indonesia,81320444489.0,,,-0.4119465,114.8879838,https://maps.google.com/?cid=0x0:0x36c0ddc24d07d1e8,
restaurant,Bubur,Bakakurih Cafe,"9PVP+W3M, Muara Laung I, Kec. Laung Tuhup, Kabupaten Murung Raya, Kalimantan Tengah","Kabupaten Murung Raya, Kalimantan Tengah",KALIMANTAN TENGAH,,Indonesia,,,,-0.6051532,114.7351814,https://maps.google.com/?cid=0x0:0x83d438c64d338b23,
restaurant,Restoran,Warung Lalapan Bu Lee,"9RP4+3FV, Muara Tuhup, Kec. Laung Tuhup, Kabupaten Murung Raya, Kalimantan Tengah 73991","Muara Tuhup, Kec. Laung Tuhup, Kabupaten Murung Raya",KALIMANTAN TENGAH,73991.0,Indonesia,82151343623.0,,,-0.6147708,114.806172,https://maps.google.com/?cid=0x0:0xf01b1850da822df8,
restaurant,Jawa,Warung Makan Pasar Sabtu,"9RG8+6VM, Unnamed Road, Muara Tuhup, Kec. Laung Tuhup, Kabupaten Murung Raya, Kalimantan Tengah 73991","Unnamed Road, Muara Tuhup, Kec. Laung Tuhup, Kabupaten Murung Raya",KALIMANTAN TENGAH,73991.0,Indonesia,,,,-0.6244143,114.8171573,https://maps.google.com/?cid=0x0:0x6121c03e84bcc72e,
restaurant,Brunch,Warung Bubur Ari,"CP3M+RM7, Muara Laung I, Kec. Laung Tuhup, Kabupaten Murung Raya, Kalimantan Tengah 73911","Muara Laung I, Kec. Laung Tuhup, Kabupaten Murung Raya",KALIMANTAN TENGAH,73911.0,Indonesia,,,,-0.5954521,114.7341631,https://maps.google.com/?cid=0x0:0x8cccc81a03dfcf28,
restaurant,Restoran,Warung Makan Mbak Asih,"HVQP+RG, Km 34, Liang Nyaling, Kec. Barito Tuhup Raya, Kabupaten Murung Raya, Kalimantan Tengah","Kabupaten Murung Raya, Kalimantan Tengah",KALIMANTAN TENGAH,,Indonesia,82135309090.0,,,-0.4104284,114.8863716,https://maps.google.com/?cid=0x0:0x2a3000d2dbe52f72,
restaurant,Brunch,Warung Makan Candurasa,"JPGQ+7X, Muara Maruwei I, Kec. Laung Tuhup, Kabupaten Murung Raya, Kalimantan Tengah 73991","Muara Maruwei I, Kec. Laung Tuhup, Kabupaten Murung Raya",KALIMANTAN TENGAH,73991.0,Indonesia,,,,-0.3743086,114.7400796,https://maps.google.com/?cid=0x0:0x78c8377da675b782,
restaurant,Restoran,Depot Madani 88,"Jl. Gajah Mada, Muara Laung I, Kec. Laung Tuhup, Kabupaten Murung Raya, Kalimantan Tengah 73911","Muara Laung I, Kec. Laung Tuhup, Kabupaten Murung Raya",KALIMANTAN TENGAH,73911.0,Indonesia,82199631174.0,,,-0.6047622,114.7354667,https://maps.google.com/?cid=0x0:0x2c72849a4371291e,
restaurant,Dapur Umum,warung makan mama fadhli,"9PRM+RJ5, Muara Laung I, Kec. Laung Tuhup, Kabupaten Murung Raya, Kalimantan Tengah 73911","Muara Laung I, Kec. Laung Tuhup, Kabupaten Murung Raya",KALIMANTAN TENGAH,73911.0,Indonesia,85345334635.0,,,-0.6079958,114.7341155,https://maps.google.com/?cid=0x0:0x7b890f1f16181c7c,
restaurant,Tempat Fitness,Warung Yoga,"CP3J+X72 Warung Yoga, Muara Laung I, Kec. Laung Tuhup, Kabupaten Murung Raya, Kalimantan Tengah 73911","Muara Laung I, Kec. Laung Tuhup, Kabupaten Murung Raya",KALIMANTAN TENGAH,73911.0,Indonesia,81348719010.0,,,-0.5951101,114.7306484,https://maps.google.com/?cid=0x0:0xab8e9cc9557bc939,
restaurant,Dapur Umum,Warung Mama Yeni,"9RVC+GFR, Muara Tuhup, Kec. Laung Tuhup, Kabupaten Murung Raya, Kalimantan Tengah","Kabupaten Murung Raya, Kalimantan Tengah",KALIMANTAN TENGAH,,Indonesia,81350741165.0,,,-0.6061313,114.8211394,https://maps.google.com/?cid=0x0:0xa16dc23a3ee8fbe0,
restaurant,Nasi,Rumah Makan SAMA ITO,"HV9X+X38, Kohong, Kec. Barito Tuhup Raya, Kabupaten Murung Raya, Kalimantan Tengah 73991","Kohong, Kec. Barito Tuhup Raya, Kabupaten Murung Raya",KALIMANTAN TENGAH,73991.0,Indonesia,81351759533.0,,,-0.4302649,114.8966553,https://maps.google.com/?cid=0x0:0xb6c79b48a4fd085e,
restaurant,Dapur Umum,Warung makan Afika km1,"9RF5+FF, Muara Tuhup, Kec. Laung Tuhup, Kabupaten Murung Raya, Kalimantan Tengah 73991","Muara Tuhup, Kec. Laung Tuhup, Kabupaten Murung Raya",KALIMANTAN TENGAH,73991.0,Indonesia,85238964446.0,,,-0.6263537,114.8086225,https://maps.google.com/?cid=0x0:0xd6b0b03270072d0,
restaurant,Nasi,Warung makan Parahiyangan,"HVCX+2J6, Unnamed Road, Dirung Sararong, Kec. Barito Tuhup Raya, Kabupaten Murung Raya, Kalimantan Tengah 73991","Unnamed Road, Dirung Sararong, Kec. Barito Tuhup Raya, Kabupaten Murung Raya",KALIMANTAN TENGAH,73991.0,Indonesia,81320444489.0,,,-0.4299694,114.899011,https://maps.google.com/?cid=0x0:0x165a8281eefe4555,
restaurant,Sesuai untuk keluarga,Restoran Idola,"9HF9+574, Beriwit, Kec. Murung, Kabupaten Murung Raya, Kalimantan Tengah 73911","Beriwit, Kec. Murung, Kabupaten Murung Raya",KALIMANTAN TENGAH,73911.0,Indonesia,85753219961.0,,,-0.627107,114.5682119,https://maps.google.com/?cid=0x0:0x20bdda120e622a0b,
restaurant,Restoran,DAPUR TETEH,"Jl. Puruk Batu Bondang No.426, Beriwit, Kec. Murung, Kabupaten Murung Raya, Kalimantan Tengah 73911","Beriwit, Kec. Murung, Kabupaten Murung Raya",KALIMANTAN TENGAH,73911.0,Indonesia,85813582863.0,,,-0.6314862,114.5722985,https://maps.google.com/?cid=0x0:0xd55043e9a671a4be,
restaurant,Kafe,Angkringan Fortune,"9RP4+6C6, Muara Tuhup, Kec. Laung Tuhup, Kabupaten Murung Raya, Kalimantan Tengah 73991","Muara Tuhup, Kec. Laung Tuhup, Kabupaten Murung Raya",KALIMANTAN TENGAH,73991.0,Indonesia,,,,-0.6146821,114.8058257,https://maps.google.com/?cid=0x0:0x3f209bcc44ccf091,
restaurant,Bakso,Warung Bakso Mama Yohan,"9PQP+PQ, Muara Laung I, Kec. Laung Tuhup, Kabupaten Murung Raya, Kalimantan Tengah 73911","Muara Laung I, Kec. Laung Tuhup, Kabupaten Murung Raya",KALIMANTAN TENGAH,73911.0,Indonesia,,,,-0.6107049,114.7369517,https://maps.google.com/?cid=0x0:0xc280b8a7b25dacb4,
restaurant,restaurant,Kalimantan Tengah 73911,"Kec. Murung, Kabupaten Murung Raya, Kalimantan Tengah","Kabupaten Murung Raya, Kalimantan Tengah",KALIMANTAN TENGAH,,Indonesia,,,,-0.581032,114.6667939,https://maps.google.com/?cid=0x0:0xfaf4a8cd4b21fca2,
restaurant,Restoran,DAPUR TETEH,"Jl. Puruk Batu Bondang No.426, Beriwit, Kec. Murung, Kabupaten Murung Raya, Kalimantan Tengah 73911","Beriwit, Kec. Murung, Kabupaten Murung Raya",KALIMANTAN TENGAH,73911.0,Indonesia,85813582863.0,,,-0.6314862,114.5722985,https://maps.google.com/?cid=0x0:0xd55043e9a671a4be,
restaurant,Sunda,CAH SOLO RESTO,"9H28+JM3, Jl. Lintas Kalimantan Poros Tengah, Beriwit, Kec. Murung, Kabupaten Murung Raya, Kalimantan Tengah 73911","Jl. Lintas Kalimantan Poros Tengah, Beriwit, Kec. Murung, Kabupaten Murung Raya",KALIMANTAN TENGAH,73911.0,Indonesia,85329826085.0,,,-0.648496,114.5666606,https://maps.google.com/?cid=0x0:0xf64b62018799787e,
restaurant,Restoran,RM. Mama Robby,"9HMF+76M, Beriwit, Kec. Murung, Kabupaten Murung Raya, Kalimantan Tengah 73911","Beriwit, Kec. Murung, Kabupaten Murung Raya",KALIMANTAN TENGAH,73911.0,Indonesia,,,,-0.6167915,114.5730496,https://maps.google.com/?cid=0x0:0x253a01484c9c5df3,
restaurant,Restoran,Pancarasa Boga Utama,"9H58+G76, Beriwit, Kec. Murung, Kabupaten Murung Raya, Kalimantan Tengah 73911","Beriwit, Kec. Murung, Kabupaten Murung Raya",KALIMANTAN TENGAH,73911.0,Indonesia,82254080002.0,,,-0.6412129,114.5656456,https://maps.google.com/?cid=0x0:0xf87e965e96359a40,
restaurant,Padang,Warung Arema,"simpang, Dirung, bajo, Jl. M. T Haryono, Beriwit, Kec. Murung, Kabupaten Murung Raya, Kalimantan Tengah 73911","Dirung, bajo, Jl. M. T Haryono, Beriwit, Kec. Murung, Kabupaten Murung Raya",KALIMANTAN TENGAH,73911.0,Indonesia,85332268885.0,,,-0.6225654,114.5725318,https://maps.google.com/?cid=0x0:0x5029d592b5b280e6,
restaurant,Nasi,Warung Khasboy,"Beriwit, Kec. Murung, Kabupaten Murung Raya, Kalimantan Tengah 73911","Kec. Murung, Kabupaten Murung Raya",KALIMANTAN TENGAH,73911.0,Indonesia,85753092177.0,,,-0.632012,114.5665865,https://maps.google.com/?cid=0x0:0x1743aff97eda7a70,
restaurant,Kantor Pemerintah,Warung Makan Polsek Murung,"9HMC+MJH, Jl. Makam Pahlawan, Beriwit, Kec. Murung, Kabupaten Murung Raya, Kalimantan Tengah 73911","Jl. Makam Pahlawan, Beriwit, Kec. Murung, Kabupaten Murung Raya",KALIMANTAN TENGAH,73911.0,Indonesia,81259077324.0,,,-0.615805,114.5716141,https://maps.google.com/?cid=0x0:0x5c5d4b94fcca7648,
restaurant,Restoran,Rumah Makan Sama Itah,"Jl. Ahmad Yani No.2 No. 11, Beriwit, Kec. Murung, Kabupaten Murung Raya, Kalimantan Tengah 73911","Beriwit, Kec. Murung, Kabupaten Murung Raya",KALIMANTAN TENGAH,73911.0,Indonesia,,,,-0.6213357,114.5723082,https://maps.google.com/?cid=0x0:0x8996165409e531fd,
restaurant,Padang,Rumah Makan Ranah Minang,"Beriwit, Kec. Murung, Kabupaten Murung Raya, Kalimantan Tengah 73911","Kec. Murung, Kabupaten Murung Raya",KALIMANTAN TENGAH,73911.0,Indonesia,,,,-0.6489988,114.566618,https://maps.google.com/?cid=0x0:0x97c3838518e3bece,
restaurant,Dapur Umum,WARUNG MAKAN HAFID,"Jln. Sengaji no.22, Beriwit, Kec. Murung, Kabupaten Murung Raya, Kalimantan Tengah 73911","Beriwit, Kec. Murung, Kabupaten Murung Raya",KALIMANTAN TENGAH,73911.0,Indonesia,81256858281.0,,,-0.6187394,114.5720883,https://maps.google.com/?cid=0x0:0x2a10ddb56738d5cc,
restaurant,Sesuai untuk keluarga,Warung Makan Akor,"Jl. Ahmad Yani, Beriwit, Kec. Murung, Kabupaten Murung Raya, Kalimantan Tengah 73911","Beriwit, Kec. Murung, Kabupaten Murung Raya",KALIMANTAN TENGAH,73911.0,Indonesia,,,,-0.6435004,114.5654874,https://maps.google.com/?cid=0x0:0x251afddabee80e3e,
restaurant,Jawa,Warung Makan SELERA Pecel Khas Madiun,"9H78+588, Beriwit, Kec. Murung, Kabupaten Murung Raya, Kalimantan Tengah 73911","Beriwit, Kec. Murung, Kabupaten Murung Raya",KALIMANTAN TENGAH,73911.0,Indonesia,85335797885.0,,,-0.6370887,114.5658366,https://maps.google.com/?cid=0x0:0x766f22e03ff4cc41,
restaurant,Nasi,WARUNG MAKAN MAMA SITI,"9H27+RCH, Beriwit, Kec. Murung, Kabupaten Murung Raya, Kalimantan Tengah 73911","Beriwit, Kec. Murung, Kabupaten Murung Raya",KALIMANTAN TENGAH,73911.0,Indonesia,85246148857.0,,,-0.6479426,114.5636205,https://maps.google.com/?cid=0x0:0x2303a98c07eb0ab1,
restaurant,Pasar,"Restoran Pasar Hilir, Puruk Cahu","9HMC+HW4, Beriwit, Kec. Murung, Kabupaten Murung Raya, Kalimantan Tengah 73911","Beriwit, Kec. Murung, Kabupaten Murung Raya",KALIMANTAN TENGAH,73911.0,Indonesia,,,,-0.6161199,114.5723264,https://maps.google.com/?cid=0x0:0xfe73bd29d07e4670,
restaurant,Kedai Kopi,De'Laluna Cafe,"8HX9+7PF, Alun Alun, Murung, Murung Raya Regency, Central Kalimantan 73911","Alun Alun, Murung, Murung Raya Regency",KALIMANTAN TENGAH,73911.0,Indonesia,81348038329.0,,,-0.6518204,114.5693062,https://maps.google.com/?cid=0x0:0xaac675d3c42731bd,
restaurant,Mi,Bakso Paman 1999 (Pusat),"Jl. Ki Hajar Dewantara No.20, Beriwit, Kec. Murung, Kabupaten Murung Raya, Kalimantan Tengah 73911","Beriwit, Kec. Murung, Kabupaten Murung Raya",KALIMANTAN TENGAH,73911.0,Indonesia,82327672883.0,,,-0.6196787,114.5688185,https://maps.google.com/?cid=0x0:0x831a1ddc0da95e7a,
restaurant,Kedai Kopi,Warung Ala-ala,"Jl. Ahmad Yani No.129 RT01, RW.III, Beriwit, Kec. Murung, Kabupaten Murung Raya, Kalimantan Tengah 73911","RW.III, Beriwit, Kec. Murung, Kabupaten Murung Raya",KALIMANTAN TENGAH,73911.0,Indonesia,85754799666.0,,,-0.6306724,114.5673157,https://maps.google.com/?cid=0x0:0x312b96eb268bacb2,
restaurant,Restoran,Pan's Cafe,"9H28+W75, Jl. Lintas Kalimantan Poros Tengah, Beriwit, Kec. Murung, Kabupaten Murung Raya, Kalimantan Tengah 73911","Jl. Lintas Kalimantan Poros Tengah, Beriwit, Kec. Murung, Kabupaten Murung Raya",KALIMANTAN TENGAH,73911.0,Indonesia,82251521124.0,,,-0.6477284,114.5657288,https://maps.google.com/?cid=0x0:0x59c1ee80cb5fb001,
restaurant,Nasi,WM Bubur Ayam Bandung,"9H78+FG2, Beriwit, Kec. Murung, Kabupaten Murung Raya, Kalimantan Tengah 73911","Beriwit, Kec. Murung, Kabupaten Murung Raya",KALIMANTAN TENGAH,73911.0,Indonesia,,,,-0.6363672,114.5662811,https://maps.google.com/?cid=0x0:0x8adcff5b724e01e8,
restaurant,Padang,Rumah Makan Padang Lintau Baru,"9H78+483, Beriwit, Kec. Murung, Kabupaten Murung Raya, Kalimantan Tengah 73911","Beriwit, Kec. Murung, Kabupaten Murung Raya",KALIMANTAN TENGAH,73911.0,Indonesia,81349030606.0,,,-0.6372419,114.5658035,https://maps.google.com/?cid=0x0:0x36f2521312fbeab,
restaurant,Restoran,PONDOK MAKAN DAN CAFE IIN MURA,"Jl. Ahmad Yani No.59, Beriwit, Kec. Murung, Kabupaten Murung Raya, Kalimantan Tengah 73911","Beriwit, Kec. Murung, Kabupaten Murung Raya",KALIMANTAN TENGAH,73911.0,Indonesia,82256859650.0,,,-0.6428817,114.5657176,https://maps.google.com/?cid=0x0:0x8f6ba10518d9586e,
restaurant,Nasi,Rumah Makan IPEMI,"9H67+CQ3, Beriwit, Kec. Murung, Kabupaten Murung Raya, Kalimantan Tengah 73911","Beriwit, Kec. Murung, Kabupaten Murung Raya",KALIMANTAN TENGAH,73911.0,Indonesia,85651186761.0,,,-0.6389883,114.5644276,https://maps.google.com/?cid=0x0:0x66e89278b51307b1,
restaurant,restaurant,Kalimantan Tengah 73971,"Kabupaten Murung Raya, Kalimantan Tengah","Kabupaten Murung Raya, Kalimantan Tengah",KALIMANTAN TENGAH,,Indonesia,,,,-0.4787128,114.4292148,https://maps.google.com/?cid=0x0:0x7eb3a8a82a8e44be,
restaurant,Nasi,Warung Makan Mama Bali,"876X+WFJ, Tumbang Lahung, Kec. Permata Intan, Kabupaten Murung Raya, Kalimantan Tengah 73971","Tumbang Lahung, Kec. Permata Intan, Kabupaten Murung Raya",KALIMANTAN TENGAH,73971.0,Indonesia,82352193333.0,,,-0.6876574,114.2986484,https://maps.google.com/?cid=0x0:0xa685dfaf81f059ec,
restaurant,Restoran,Bakso Goyang Lidah,"876X+RJR, Tumbang Lahung, Kec. Permata Intan, Kabupaten Murung Raya, Kalimantan Tengah 73971","Tumbang Lahung, Kec. Permata Intan, Kabupaten Murung Raya",KALIMANTAN TENGAH,73971.0,Indonesia,82350134981.0,,,-0.6878786,114.2990099,https://maps.google.com/?cid=0x0:0x7fb41726369cf396,
restaurant,Nasi,RM OJOLALI,"9H38+X4F, Beriwit, Kec. Murung, Kabupaten Murung Raya, Kalimantan Tengah 73911","Beriwit, Kec. Murung, Kabupaten Murung Raya",KALIMANTAN TENGAH,73911.0,Indonesia,,,,-0.6449091,114.5653656,https://maps.google.com/?cid=0x0:0x20e09e4ef44d49e,
restaurant,Mi,Bakso Paman 1999 (Pusat),"Jl. Ki Hajar Dewantara No.20, Beriwit, Kec. Murung, Kabupaten Murung Raya, Kalimantan Tengah 73911","Beriwit, Kec. Murung, Kabupaten Murung Raya",KALIMANTAN TENGAH,73911.0,Indonesia,82327672883.0,,,-0.6196787,114.5688185,https://maps.google.com/?cid=0x0:0x831a1ddc0da95e7a,
restaurant,Kantor Pemerintah,Warung Makan Polsek Murung,"9HMC+MJH, Jl. Makam Pahlawan, Beriwit, Kec. Murung, Kabupaten Murung Raya, Kalimantan Tengah 73911","Jl. Makam Pahlawan, Beriwit, Kec. Murung, Kabupaten Murung Raya",KALIMANTAN TENGAH,73911.0,Indonesia,81259077324.0,,,-0.615805,114.5716141,https://maps.google.com/?cid=0x0:0x5c5d4b94fcca7648,
restaurant,Dapur Umum,Dapoer GESYADEVA,"RT.01, Tumbang Lahung, Kec. Permata Intan, Kabupaten Murung Raya, Kalimantan Tengah 73971","Tumbang Lahung, Kec. Permata Intan, Kabupaten Murung Raya",KALIMANTAN TENGAH,73971.0,Indonesia,81257764280.0,,,-0.6822577,114.2925424,https://maps.google.com/?cid=0x0:0x51cce644ebc4feaf,
restaurant,Toko bahan makanan,RUMAH CATERING QUAN PIO DESA KONUT,"Konut, Kec. Tanah Siang, Kabupaten Murung Raya, Kalimantan Tengah 73961","Kec. Tanah Siang, Kabupaten Murung Raya",KALIMANTAN TENGAH,73961.0,Indonesia,85754154922.0,,,-0.6206114,114.506444,https://maps.google.com/?cid=0x0:0x26151dd477bb1411,
restaurant,Sunda,CAH SOLO RESTO,"9H28+JM3, Jl. Lintas Kalimantan Poros Tengah, Beriwit, Kec. Murung, Kabupaten Murung Raya, Kalimantan Tengah 73911","Jl. Lintas Kalimantan Poros Tengah, Beriwit, Kec. Murung, Kabupaten Murung Raya",KALIMANTAN TENGAH,73911.0,Indonesia,85329826085.0,,,-0.648496,114.5666606,https://maps.google.com/?cid=0x0:0xf64b62018799787e,
restaurant,Bakso,Warung Bu Sri km 4,"Warung Jawa Bu sri km4, Dirung Lingkin, Tanah Siang Sel., Kabupaten Murung Raya, Kalimantan Tengah 73971","Dirung Lingkin, Tanah Siang Sel., Kabupaten Murung Raya",KALIMANTAN TENGAH,73971.0,Indonesia,82223067453.0,,,-0.6800129,114.4561863,https://maps.google.com/?cid=0x0:0x95de08ba22f05092,
restaurant,Restoran,RM. Mama Robby,"9HMF+76M, Beriwit, Kec. Murung, Kabupaten Murung Raya, Kalimantan Tengah 73911","Beriwit, Kec. Murung, Kabupaten Murung Raya",KALIMANTAN TENGAH,73911.0,Indonesia,,,,-0.6167915,114.5730496,https://maps.google.com/?cid=0x0:0x253a01484c9c5df3,
restaurant,Brunch,Warung makan mama guntur,"km.4, Dirung Lingkin, Kalimantan Tengah","Kabupaten Murung Raya, Kalimantan Tengah",KALIMANTAN TENGAH,,Indonesia,81528869810.0,,,-0.680862,114.4534433,https://maps.google.com/?cid=0x0:0x933ad1a5701cea22,
restaurant,Kedai Kopi,WARUNG DHINAR L,"87VM+F3, Muara Babuat, Kec. Permata Intan, Kabupaten Murung Raya, Kalimantan Tengah","Kabupaten Murung Raya, Kalimantan Tengah",KALIMANTAN TENGAH,,Indonesia,,,,-0.6555613,114.2816233,https://maps.google.com/?cid=0x0:0x35cdf0b605c076fe,
restaurant,Sesuai untuk keluarga,Restoran Idola,"9HF9+574, Beriwit, Kec. Murung, Kabupaten Murung Raya, Kalimantan Tengah 73911","Beriwit, Kec. Murung, Kabupaten Murung Raya",KALIMANTAN TENGAH,73911.0,Indonesia,85753219961.0,,,-0.627107,114.5682119,https://maps.google.com/?cid=0x0:0x20bdda120e622a0b,
restaurant,Brunch,Warung nasi Mama Abed,"8CMQ+P2W, Dirung Lingkin, Tanah Siang Sel., Kabupaten Murung Raya, Kalimantan Tengah 73971","Dirung Lingkin, Tanah Siang Sel., Kabupaten Murung Raya",KALIMANTAN TENGAH,73971.0,Indonesia,,,,-0.6656486,114.4375829,https://maps.google.com/?cid=0x0:0x96e7d1af4b25265a,
restaurant,Nasi,Warung makan mama aldi,"FFXX+X3, Olong Ulu, Kec. Tanah Siang, Kabupaten Murung Raya, Kalimantan Tengah","Kabupaten Murung Raya, Kalimantan Tengah",KALIMANTAN TENGAH,,Indonesia,,,,-0.500072,114.497719,https://maps.google.com/?cid=0x0:0xba6fd199d53406dd,
restaurant,Restoran,Rumah Makan Sama Itah,"Jl. Ahmad Yani No.2 No. 11, Beriwit, Kec. Murung, Kabupaten Murung Raya, Kalimantan Tengah 73911","Beriwit, Kec. Murung, Kabupaten Murung Raya",KALIMANTAN TENGAH,73911.0,Indonesia,,,,-0.6213357,114.5723082,https://maps.google.com/?cid=0x0:0x8996165409e531fd,
restaurant,Mi,Bakso Paman 1999 (Respen),"Depan Bank Mandiri, Jalan Jendral Sudirman (Respen, Puruk Cahu, Kec. Murung, Kabupaten Murung Raya, Kalimantan Tengah 73911","Jalan Jendral Sudirman (Respen, Puruk Cahu, Kec. Murung, Kabupaten Murung Raya",KALIMANTAN TENGAH,73911.0,Indonesia,82327672883.0,,,-0.651667,114.5733881,https://maps.google.com/?cid=0x0:0x448d7b8bf7432c8e,
restaurant,Pasar,"Restoran Pasar Hilir, Puruk Cahu","9HMC+HW4, Beriwit, Kec. Murung, Kabupaten Murung Raya, Kalimantan Tengah 73911","Beriwit, Kec. Murung, Kabupaten Murung Raya",KALIMANTAN TENGAH,73911.0,Indonesia,,,,-0.6161199,114.5723264,https://maps.google.com/?cid=0x0:0xfe73bd29d07e4670,
restaurant,Restoran,warung mama roni/iin,"9GF8+F5V, Konut, Kec. Tanah Siang, Kabupaten Murung Raya, Kalimantan Tengah","Kabupaten Murung Raya, Kalimantan Tengah",KALIMANTAN TENGAH,,Indonesia,,,,-0.6262719,114.5154338,https://maps.google.com/?cid=0x0:0xa51fc9e7d7c4ff13,
restaurant,Dapur Umum,WARUNG MAKAN HAFID,"Jln. Sengaji no.22, Beriwit, Kec. Murung, Kabupaten Murung Raya, Kalimantan Tengah 73911","Beriwit, Kec. Murung, Kabupaten Murung Raya",KALIMANTAN TENGAH,73911.0,Indonesia,81256858281.0,,,-0.6187394,114.5720883,https://maps.google.com/?cid=0x0:0x2a10ddb56738d5cc,
restaurant,Pemasok makanan dan minuman katering,Ohana Cafe and Kitchen,"Jl. Intan No.8B, RT.7/RW.2, Cilandak Bar., Kec. Cilandak, Kota Jakarta Selatan, Daerah Khusus Ibukota Jakarta 12430","RT.7/RW.2, Cilandak Bar., Kec. Cilandak, Kota Jakarta Selatan",KALIMANTAN TENGAH,12430.0,Indonesia,2127841863.0,,,-6.2935495,106.800662,https://maps.google.com/?cid=0x0:0x91d0c75713cfa668,
restaurant,Restoran,Permata Intan Restaurant,"Brunei, Sengkurong B","Sengkurong B, Brunei",KALIMANTAN TENGAH,,Indonesia,6732610776.0,,,4.9119829,114.8352951,https://maps.google.com/?cid=0x0:0xbdca8ab44b9b0725,
restaurant,restaurant,Kalimantan Tengah 73981,"Kabupaten Murung Raya, Kalimantan Tengah","Kabupaten Murung Raya, Kalimantan Tengah",KALIMANTAN TENGAH,,Indonesia,,,,0.1366232,113.9536466,https://maps.google.com/?cid=0x0:0xb765502d3651aeca,
restaurant,restaurant,Rumah makan putri punan,"Tumbang Olong, 2, Kabupaten Murung Raya, Kalimantan Tengah","Kabupaten Murung Raya, Kalimantan Tengah",KALIMANTAN TENGAH,,Indonesia,87810717049.0,,,-0.0068114,114.3270535,https://maps.google.com/?cid=0x0:0x825aa18752aacb3b,
restaurant,restaurant,Warung sate bang tolib,"JM36+QCM, Tumbang Naan, Seribu Riam, Kabupaten Murung Raya, Kalimantan Tengah","Kabupaten Murung Raya, Kalimantan Tengah",KALIMANTAN TENGAH,,Indonesia,,,,-0.3955389,113.6610438,https://maps.google.com/?cid=0x0:0x6739e0bf05a2bd89,
restaurant,Nasi,Warung Makan Mama Bali,"876X+WFJ, Tumbang Lahung, Kec. Permata Intan, Kabupaten Murung Raya, Kalimantan Tengah 73971","Tumbang Lahung, Kec. Permata Intan, Kabupaten Murung Raya",KALIMANTAN TENGAH,73971.0,Indonesia,82352193333.0,,,-0.6876574,114.2986484,https://maps.google.com/?cid=0x0:0xa685dfaf81f059ec,
restaurant,Pasar,"Restoran Pasar Hilir, Puruk Cahu","9HMC+HW4, Beriwit, Kec. Murung, Kabupaten Murung Raya, Kalimantan Tengah 73911","Beriwit, Kec. Murung, Kabupaten Murung Raya",KALIMANTAN TENGAH,73911.0,Indonesia,,,,-0.6161199,114.5723264,https://maps.google.com/?cid=0x0:0xfe73bd29d07e4670,
restaurant,Kedai Kopi,De'Laluna Cafe,"8HX9+7PF, Alun Alun, Murung, Murung Raya Regency, Central Kalimantan 73911","Alun Alun, Murung, Murung Raya Regency",KALIMANTAN TENGAH,73911.0,Indonesia,81348038329.0,,,-0.6518204,114.5693062,https://maps.google.com/?cid=0x0:0xaac675d3c42731bd,
restaurant,Toko bahan makanan,RUMAH CATERING QUAN PIO DESA KONUT,"Konut, Kec. Tanah Siang, Kabupaten Murung Raya, Kalimantan Tengah 73961","Kec. Tanah Siang, Kabupaten Murung Raya",KALIMANTAN TENGAH,73961.0,Indonesia,85754154922.0,,,-0.6206114,114.506444,https://maps.google.com/?cid=0x0:0x26151dd477bb1411,
restaurant,Mi,Paman bakso mbotung,"V87M+GMJ, Tumbang Olong, Uut Murung, Kabupaten Murung Raya, Kalimantan Tengah","Kabupaten Murung Raya, Kalimantan Tengah",KALIMANTAN TENGAH,,Indonesia,,,,-0.1361706,114.3341428,https://maps.google.com/?cid=0x0:0xa63b30b0f37b30ad,
restaurant,Padang,RM BUYUNG SURYA,"6W6C+7GP, Sei Pinang, Mandau Talawang, Kabupaten Kapuas, Kalimantan Tengah 74511","Sei Pinang, Mandau Talawang, Kabupaten Kapuas",KALIMANTAN TENGAH,74511.0,Indonesia,8129770732.0,,,-0.789275,113.921327,https://maps.google.com/?cid=0x0:0x63d44aa17d75c925,
restaurant,Brunch,Warung mama chandra masao,"G663+P9C, Tumbang Masao, Sumber Barito, Kabupaten Murung Raya, Kalimantan Tengah","Kabupaten Murung Raya, Kalimantan Tengah",KALIMANTAN TENGAH,,Indonesia,,,,-0.4881886,114.2033843,https://maps.google.com/?cid=0x0:0x394a31ae639a8971,
restaurant,Kafe,Cafe Rama Sinta Joss,"8HX8+3FR, Beriwit, Kec. Murung, Kabupaten Murung Raya, Kalimantan Tengah 73911","Beriwit, Kec. Murung, Kabupaten Murung Raya",KALIMANTAN TENGAH,73911.0,Indonesia,,,,-0.6512945,114.5664542,https://maps.google.com/?cid=0x0:0x23b4d18d9bd8593a,
restaurant,Restoran,Milos eatery cafe,"Beriwit, Kec. Murung, Kabupaten Murung Raya, Kalimantan Tengah 73911","Kec. Murung, Kabupaten Murung Raya",KALIMANTAN TENGAH,73911.0,Indonesia,82153544136.0,,,-0.6415625,114.5674375,https://maps.google.com/?cid=0x0:0x420e5f8d3f164c31,
restaurant,Kafe,Youmi Cafe,"Jl. Jend. Sudirman, Puruk Cahu, Kec. Murung, Kabupaten Murung Raya, Kalimantan Tengah 73911","Puruk Cahu, Kec. Murung, Kabupaten Murung Raya",KALIMANTAN TENGAH,73911.0,Indonesia,85752750534.0,,,-0.6512582,114.5707106,https://maps.google.com/?cid=0x0:0xae851155737e8d45,
restaurant,restaurant,"Ruko, Warung Makan Yohana Putri","QF96+76, Long Pakaq Baru, Long Pahangai, Mahakam Ulu, Kalimantan Timur","Mahakam Ulu, Kalimantan Timur",KALIMANTAN TENGAH,,Indonesia,81348233185.0,,,0.7691064,114.4623926,https://maps.google.com/?cid=0x0:0x3381841550c21d95,
restaurant,restaurant,Sumber Barito,"Kabupaten Murung Raya, Kalimantan Tengah","Kabupaten Murung Raya, Kalimantan Tengah",KALIMANTAN TENGAH,,Indonesia,,,,-0.341791,114.2390498,https://maps.google.com/?cid=0x0:0xdb7aed4b9b946c56,
restaurant,Nasi,Warung Makan Mama Bali,"876X+WFJ, Tumbang Lahung, Kec. Permata Intan, Kabupaten Murung Raya, Kalimantan Tengah 73971","Tumbang Lahung, Kec. Permata Intan, Kabupaten Murung Raya",KALIMANTAN TENGAH,73971.0,Indonesia,82352193333.0,,,-0.6876574,114.2986484,https://maps.google.com/?cid=0x0:0xa685dfaf81f059ec,
restaurant,Restoran,"Rumah Makan Pondok Stadion, Muara Teweh","2VVW+QCW, Jl. Ahmad Yani, Melayu, Kec. Teweh Tengah, Kabupaten Barito Utara, Kalimantan Tengah 73814","Jl. Ahmad Yani, Melayu, Kec. Teweh Tengah, Kabupaten Barito Utara",KALIMANTAN TENGAH,73814.0,Indonesia,,,,-0.9555141,114.8960736,https://maps.google.com/?cid=0x0:0xf8e93e75c512b29,
restaurant,Rumah Makan,NYONYAH_CRAB ( Cafe Ikan ),"Jl. AES Nasution No.RT.14, Marabahan Kota, Kec. Marabahan, Kabupaten Barito Kuala, Kalimantan Selatan 70513","Marabahan Kota, Kec. Marabahan, Kabupaten Barito Kuala",KALIMANTAN TENGAH,70513.0,Indonesia,85349312690.0,,,-2.9829717,114.7661909,https://maps.google.com/?cid=0x0:0xd15fc70744ae23ed,
restaurant,Restoran,Dapoer Najwa,"Jl. Pelita Raya, Buntok Kota, Kec. Dusun Sel., Kabupaten Barito Selatan, Kalimantan Tengah","Kabupaten Barito Selatan, Kalimantan Tengah",KALIMANTAN TENGAH,,Indonesia,82155922654.0,,,-1.720464,114.8425431,https://maps.google.com/?cid=0x0:0xab449c6a48a20697,
restaurant,Restoran,TALA COFFEE AND EATERY,"2VWP+H5, Lanjas, Kec. Teweh Tengah, Kabupaten Barito Utara, Kalimantan Tengah","Kabupaten Barito Utara, Kalimantan Tengah",KALIMANTAN TENGAH,,Indonesia,,,,-0.9535925,114.8854631,https://maps.google.com/?cid=0x0:0x4b74965aec5eef7e,
restaurant,Makanan Kecil,Warung Bang RONNY,"3W23+C86, Jl. Pertiwi, Melayu, Kec. Teweh Tengah, Kabupaten Barito Utara, Kalimantan Tengah 73814","Jl. Pertiwi, Melayu, Kec. Teweh Tengah, Kabupaten Barito Utara",KALIMANTAN TENGAH,73814.0,Indonesia,82350915318.0,,,-0.9489515,114.9032766,https://maps.google.com/?cid=0x0:0xb392dca4eb0f262c,
restaurant,Brunch,Warung mama chandra masao,"G663+P9C, Tumbang Masao, Sumber Barito, Kabupaten Murung Raya, Kalimantan Tengah","Kabupaten Murung Raya, Kalimantan Tengah",KALIMANTAN TENGAH,,Indonesia,,,,-0.4881886,114.2033843,https://maps.google.com/?cid=0x0:0x394a31ae639a8971,
restaurant,Bakso,RM. Banyuwangi,"8CCX+XJ5, Dirung Lingkin, Tanah Siang Sel., Kabupaten Murung Raya, Kalimantan Tengah","Kabupaten Murung Raya, Kalimantan Tengah",KALIMANTAN TENGAH,,Indonesia,,,,-0.6776011,114.4491228,https://maps.google.com/?cid=0x0:0x27755749f3059a74,
restaurant,Brunch,Warung Mama Anton,"Jalan PT.BORNEO PRIMA No.KM.66, Tumbang Apat, Kec. Tanah Siang, Kabupaten Murung Raya, Kalimantan Tengah","Kabupaten Murung Raya, Kalimantan Tengah",KALIMANTAN TENGAH,,Indonesia,,,,-0.3991675,114.4046417,https://maps.google.com/?cid=0x0:0xadcb94d1adf9c4e0,
restaurant,Restoran,warung mama roni/iin,"9GF8+F5V, Konut, Kec. Tanah Siang, Kabupaten Murung Raya, Kalimantan Tengah","Kabupaten Murung Raya, Kalimantan Tengah",KALIMANTAN TENGAH,,Indonesia,,,,-0.6262719,114.5154338,https://maps.google.com/?cid=0x0:0xa51fc9e7d7c4ff13,
restaurant,Restoran,Warung Makan Adem Ayem,"3V6R+QX3, Jl. Pendreh, Melayu, Kec. Teweh Tengah, Kabupaten Barito Utara, Kalimantan Tengah 73814","Jl. Pendreh, Melayu, Kec. Teweh Tengah, Kabupaten Barito Utara",KALIMANTAN TENGAH,73814.0,Indonesia,,,,-0.9381025,114.8924285,https://maps.google.com/?cid=0x0:0xbe9a38e56c45b798,
restaurant,Kafe,de GRAND Cafe n Resto,"Jl. Ir. Pangeran Haji Muhammad Nur No.25, Barabai Tim., Kec. Barabai, Kabupaten Hulu Sungai Tengah, Kalimantan Selatan 71315","Barabai Tim., Kec. Barabai, Kabupaten Hulu Sungai Tengah",KALIMANTAN TENGAH,71315.0,Indonesia,85248871716.0,,,-2.5817676,115.3854822,https://maps.google.com/?cid=0x0:0xc0191a8cf01c8365,
restaurant,Toko bahan makanan,RUMAH CATERING QUAN PIO DESA KONUT,"Konut, Kec. Tanah Siang, Kabupaten Murung Raya, Kalimantan Tengah 73961","Kec. Tanah Siang, Kabupaten Murung Raya",KALIMANTAN TENGAH,73961.0,Indonesia,85754154922.0,,,-0.6206114,114.506444,https://maps.google.com/?cid=0x0:0x26151dd477bb1411,
restaurant,Restoran,Bakso Goyang Lidah,"876X+RJR, Tumbang Lahung, Kec. Permata Intan, Kabupaten Murung Raya, Kalimantan Tengah 73971","Tumbang Lahung, Kec. Permata Intan, Kabupaten Murung Raya",KALIMANTAN TENGAH,73971.0,Indonesia,82350134981.0,,,-0.6878786,114.2990099,https://maps.google.com/?cid=0x0:0x7fb41726369cf396,
restaurant,Brunch,Zanzibar Restaurant,"JL Seminyak, Sei Pinang, Mandau Talawang, Kabupaten Kapuas, Kalimantan Tengah 74511","Sei Pinang, Mandau Talawang, Kabupaten Kapuas",KALIMANTAN TENGAH,74511.0,Indonesia,361733527.0,,,-0.789275,113.921327,https://maps.google.com/?cid=0x0:0x47cbe2a229313d31,
restaurant,Kedai Kopi,WARUNG DHINAR L,"87VM+F3, Muara Babuat, Kec. Permata Intan, Kabupaten Murung Raya, Kalimantan Tengah","Kabupaten Murung Raya, Kalimantan Tengah",KALIMANTAN TENGAH,,Indonesia,,,,-0.6555613,114.2816233,https://maps.google.com/?cid=0x0:0x35cdf0b605c076fe,
restaurant,Kafe,Cafe Rama Sinta Joss,"8HX8+3FR, Beriwit, Kec. Murung, Kabupaten Murung Raya, Kalimantan Tengah 73911","Beriwit, Kec. Murung, Kabupaten Murung Raya",KALIMANTAN TENGAH,73911.0,Indonesia,,,,-0.6512945,114.5664542,https://maps.google.com/?cid=0x0:0x23b4d18d9bd8593a,
restaurant,Ikan Bakar,Rumah Tjilik Riwut Gallery  Resto,"Jl. Jend. Sudirman No.1, Palangka, Kec. Jekan Raya, Kota Palangka Raya, Kalimantan Tengah 73111","Palangka, Kec. Jekan Raya, Kota Palangka Raya",KALIMANTAN TENGAH,73111.0,Indonesia,,,,-2.2071888,113.9210065,https://maps.google.com/?cid=0x0:0xb3db3e52d964b6b7,
restaurant,Restoran,Warung makan km45,"HCGJ+JW, Tumbang Apat, Kec. Sungai Babuat, Kabupaten Murung Raya, Kalimantan Tengah","Kabupaten Murung Raya, Kalimantan Tengah",KALIMANTAN TENGAH,,Indonesia,,,,-0.423408,114.432298,https://maps.google.com/?cid=0x0:0xa08f5ae3a31941cd,
restaurant,restaurant,Kec. Sungai Babuat,"Kabupaten Murung Raya, Kalimantan Tengah","Kabupaten Murung Raya, Kalimantan Tengah",KALIMANTAN TENGAH,,Indonesia,,,,-0.5790762,114.3152452,https://maps.google.com/?cid=0x0:0xd1427b5a363a47e7,
restaurant,Restoran,Warung makan km45,"HCGJ+JW, Tumbang Apat, Kec. Sungai Babuat, Kabupaten Murung Raya, Kalimantan Tengah","Kabupaten Murung Raya, Kalimantan Tengah",KALIMANTAN TENGAH,,Indonesia,,,,-0.423408,114.432298,https://maps.google.com/?cid=0x0:0xa08f5ae3a31941cd,
restaurant,Bakso,Warung Bu Sri km 4,"Warung Jawa Bu sri km4, Dirung Lingkin, Tanah Siang Sel., Kabupaten Murung Raya, Kalimantan Tengah 73971","Dirung Lingkin, Tanah Siang Sel., Kabupaten Murung Raya",KALIMANTAN TENGAH,73971.0,Indonesia,82223067453.0,,,-0.6800129,114.4561863,https://maps.google.com/?cid=0x0:0x95de08ba22f05092,
restaurant,Brunch,Warung nasi Mama Abed,"8CMQ+P2W, Dirung Lingkin, Tanah Siang Sel., Kabupaten Murung Raya, Kalimantan Tengah 73971","Dirung Lingkin, Tanah Siang Sel., Kabupaten Murung Raya",KALIMANTAN TENGAH,73971.0,Indonesia,,,,-0.6656486,114.4375829,https://maps.google.com/?cid=0x0:0x96e7d1af4b25265a,
restaurant,restaurant,Kalimantan Tengah 73961,"Kabupaten Murung Raya, Kalimantan Tengah","Kabupaten Murung Raya, Kalimantan Tengah",KALIMANTAN TENGAH,,Indonesia,,,,-0.1700332,114.5717799,https://maps.google.com/?cid=0x0:0x228b161e8a06fd62,
restaurant,Nasi,Warung makan mama aldi,"FFXX+X3, Olong Ulu, Kec. Tanah Siang, Kabupaten Murung Raya, Kalimantan Tengah","Kabupaten Murung Raya, Kalimantan Tengah",KALIMANTAN TENGAH,,Indonesia,,,,-0.500072,114.497719,https://maps.google.com/?cid=0x0:0xba6fd199d53406dd,
restaurant,Nasi,Warung Makan Rica-rica,"Unnamed Road, 73991, Liang Nyaling, Kec. Barito Tuhup Raya, Kabupaten Murung Raya, Kalimantan Tengah 73991","73991, Liang Nyaling, Kec. Barito Tuhup Raya, Kabupaten Murung Raya",KALIMANTAN TENGAH,73991.0,Indonesia,81320444489.0,,,-0.4119465,114.8879838,https://maps.google.com/?cid=0x0:0x36c0ddc24d07d1e8,
restaurant,Mi,Paman bakso mbotung,"V87M+GMJ, Tumbang Olong, Uut Murung, Kabupaten Murung Raya, Kalimantan Tengah","Kabupaten Murung Raya, Kalimantan Tengah",KALIMANTAN TENGAH,,Indonesia,,,,-0.1361706,114.3341428,https://maps.google.com/?cid=0x0:0xa63b30b0f37b30ad,
restaurant,Toko Makanan,Ketring tanah siang selatan,"Datah Kotou, Tanah Siang Sel., Kabupaten Murung Raya, Kalimantan Tengah 73862","Tanah Siang Sel., Kabupaten Murung Raya",KALIMANTAN TENGAH,73862.0,Indonesia,,,,-0.6812321,114.4826828,https://maps.google.com/?cid=0x0:0xae70b312ad84d868,
restaurant,Brunch,Warung Makan Candurasa,"JPGQ+7X, Muara Maruwei I, Kec. Laung Tuhup, Kabupaten Murung Raya, Kalimantan Tengah 73991","Muara Maruwei I, Kec. Laung Tuhup, Kabupaten Murung Raya",KALIMANTAN TENGAH,73991.0,Indonesia,,,,-0.3743086,114.7400796,https://maps.google.com/?cid=0x0:0x78c8377da675b782,
restaurant,Bakso,Warung Bu Sri km 4,"Warung Jawa Bu sri km4, Dirung Lingkin, Tanah Siang Sel., Kabupaten Murung Raya, Kalimantan Tengah 73971","Dirung Lingkin, Tanah Siang Sel., Kabupaten Murung Raya",KALIMANTAN TENGAH,73971.0,Indonesia,82223067453.0,,,-0.6800129,114.4561863,https://maps.google.com/?cid=0x0:0x95de08ba22f05092,
restaurant,Brunch,Warung Mama Anton,"Jalan PT.BORNEO PRIMA No.KM.66, Tumbang Apat, Kec. Tanah Siang, Kabupaten Murung Raya, Kalimantan Tengah","Kabupaten Murung Raya, Kalimantan Tengah",KALIMANTAN TENGAH,,Indonesia,,,,-0.3991675,114.4046417,https://maps.google.com/?cid=0x0:0xadcb94d1adf9c4e0,
restaurant,restaurant,Rumah makan putri punan,"Tumbang Olong, 2, Kabupaten Murung Raya, Kalimantan Tengah","Kabupaten Murung Raya, Kalimantan Tengah",KALIMANTAN TENGAH,,Indonesia,87810717049.0,,,-0.0068114,114.3270535,https://maps.google.com/?cid=0x0:0x825aa18752aacb3b,
restaurant,Nasi,Warung makan Parahiyangan,"HVCX+2J6, Unnamed Road, Dirung Sararong, Kec. Barito Tuhup Raya, Kabupaten Murung Raya, Kalimantan Tengah 73991","Unnamed Road, Dirung Sararong, Kec. Barito Tuhup Raya, Kabupaten Murung Raya",KALIMANTAN TENGAH,73991.0,Indonesia,81320444489.0,,,-0.4299694,114.899011,https://maps.google.com/?cid=0x0:0x165a8281eefe4555,
restaurant,Nasi,Rumah Makan SAMA ITO,"HV9X+X38, Kohong, Kec. Barito Tuhup Raya, Kabupaten Murung Raya, Kalimantan Tengah 73991","Kohong, Kec. Barito Tuhup Raya, Kabupaten Murung Raya",KALIMANTAN TENGAH,73991.0,Indonesia,81351759533.0,,,-0.4302649,114.8966553,https://maps.google.com/?cid=0x0:0xb6c79b48a4fd085e,
restaurant,Tempat Parkir,Rest Area Km 41,"MP9R+FJ8, Batu Bua II, Kec. Laung Tuhup, Kabupaten Murung Raya, Kalimantan Tengah 73991","Batu Bua II, Kec. Laung Tuhup, Kabupaten Murung Raya",KALIMANTAN TENGAH,73991.0,Indonesia,,,,-0.3313378,114.7415881,https://maps.google.com/?cid=0x0:0x28137e2484a06d3,
restaurant,Restoran,Warung makan km45,"HCGJ+JW, Tumbang Apat, Kec. Sungai Babuat, Kabupaten Murung Raya, Kalimantan Tengah","Kabupaten Murung Raya, Kalimantan Tengah",KALIMANTAN TENGAH,,Indonesia,,,,-0.423408,114.432298,https://maps.google.com/?cid=0x0:0xa08f5ae3a31941cd,
restaurant,restaurant,Tanah Siang Sel.,"Kabupaten Murung Raya, Kalimantan Tengah","Kabupaten Murung Raya, Kalimantan Tengah",KALIMANTAN TENGAH,,Indonesia,,,,-0.6787755,114.4533539,https://maps.google.com/?cid=0x0:0x563ce9dc5860bfa6,
restaurant,Toko Makanan,Ketring tanah siang selatan,"Datah Kotou, Tanah Siang Sel., Kabupaten Murung Raya, Kalimantan Tengah 73862","Tanah Siang Sel., Kabupaten Murung Raya",KALIMANTAN TENGAH,73862.0,Indonesia,,,,-0.6812321,114.4826828,https://maps.google.com/?cid=0x0:0xae70b312ad84d868,
restaurant,Bakso,Warung Bu Sri km 4,"Warung Jawa Bu sri km4, Dirung Lingkin, Tanah Siang Sel., Kabupaten Murung Raya, Kalimantan Tengah 73971","Dirung Lingkin, Tanah Siang Sel., Kabupaten Murung Raya",KALIMANTAN TENGAH,73971.0,Indonesia,82223067453.0,,,-0.6800129,114.4561863,https://maps.google.com/?cid=0x0:0x95de08ba22f05092,
restaurant,Toko bahan makanan,RUMAH CATERING QUAN PIO DESA KONUT,"Konut, Kec. Tanah Siang, Kabupaten Murung Raya, Kalimantan Tengah 73961","Kec. Tanah Siang, Kabupaten Murung Raya",KALIMANTAN TENGAH,73961.0,Indonesia,85754154922.0,,,-0.6206114,114.506444,https://maps.google.com/?cid=0x0:0x26151dd477bb1411,
restaurant,Nasi,Warung makan mama bardin,"Dirunglingkin Dirunglingkin RT.2, Dirung Lingkin, Tanah Siang Sel., Kabupaten Murung Raya, Kalimantan Tengah 73971","Dirung Lingkin, Tanah Siang Sel., Kabupaten Murung Raya",KALIMANTAN TENGAH,73971.0,Indonesia,85822108349.0,,,-0.6723288,114.4753025,https://maps.google.com/?cid=0x0:0xb42c4e7322591e3,
restaurant,Restoran,warung mama roni/iin,"9GF8+F5V, Konut, Kec. Tanah Siang, Kabupaten Murung Raya, Kalimantan Tengah","Kabupaten Murung Raya, Kalimantan Tengah",KALIMANTAN TENGAH,,Indonesia,,,,-0.6262719,114.5154338,https://maps.google.com/?cid=0x0:0xa51fc9e7d7c4ff13,
restaurant,Kedai Kopi,Sabar Menanti,"8CMQ+R26, Dirung Lingkin, Tanah Siang Sel., Kabupaten Murung Raya, Kalimantan Tengah 73971","Dirung Lingkin, Tanah Siang Sel., Kabupaten Murung Raya",KALIMANTAN TENGAH,73971.0,Indonesia,,,,-0.6654535,114.4375275,https://maps.google.com/?cid=0x0:0x3e9ae5822cf67660,
restaurant,restaurant,Warung Makan Pondok Biru / SAP Exspress,"9H27+QC2, Jl. Lintas Kalimantan Poros Tengah, Beriwit, Tanah Siang Sel., Kabupaten Murung Raya, Kalimantan Tengah 73911","Jl. Lintas Kalimantan Poros Tengah, Beriwit, Tanah Siang Sel., Kabupaten Murung Raya",KALIMANTAN TENGAH,73911.0,Indonesia,82158970660.0,,,-0.648063,114.563512,https://maps.google.com/?cid=0x0:0xc9e25847bac2e0ef,
restaurant,Brunch,Warung makan mama guntur,"km.4, Dirung Lingkin, Kalimantan Tengah","Kabupaten Murung Raya, Kalimantan Tengah",KALIMANTAN TENGAH,,Indonesia,81528869810.0,,,-0.680862,114.4534433,https://maps.google.com/?cid=0x0:0x933ad1a5701cea22,
restaurant,Sunda,CAH SOLO RESTO,"9H28+JM3, Jl. Lintas Kalimantan Poros Tengah, Beriwit, Kec. Murung, Kabupaten Murung Raya, Kalimantan Tengah 73911","Jl. Lintas Kalimantan Poros Tengah, Beriwit, Kec. Murung, Kabupaten Murung Raya",KALIMANTAN TENGAH,73911.0,Indonesia,85329826085.0,,,-0.648496,114.5666606,https://maps.google.com/?cid=0x0:0xf64b62018799787e,
restaurant,Rumah Makan,warung,"Dirung Lingkin, Tanah Siang Sel., Kabupaten Murung Raya, Kalimantan Tengah 73960","Tanah Siang Sel., Kabupaten Murung Raya",KALIMANTAN TENGAH,73960.0,Indonesia,85235262639.0,,,-0.6727096,114.4589201,https://maps.google.com/?cid=0x0:0x8a6ba58b9a470da,
restaurant,Padang,Rumah Makan Ranah Minang,"Beriwit, Kec. Murung, Kabupaten Murung Raya, Kalimantan Tengah 73911","Kec. Murung, Kabupaten Murung Raya",KALIMANTAN TENGAH,73911.0,Indonesia,,,,-0.6489988,114.566618,https://maps.google.com/?cid=0x0:0x97c3838518e3bece,
restaurant,Brunch,Warung nasi Mama Abed,"8CMQ+P2W, Dirung Lingkin, Tanah Siang Sel., Kabupaten Murung Raya, Kalimantan Tengah 73971","Dirung Lingkin, Tanah Siang Sel., Kabupaten Murung Raya",KALIMANTAN TENGAH,73971.0,Indonesia,,,,-0.6656486,114.4375829,https://maps.google.com/?cid=0x0:0x96e7d1af4b25265a,
restaurant,Nasi,RM OJOLALI,"9H38+X4F, Beriwit, Kec. Murung, Kabupaten Murung Raya, Kalimantan Tengah 73911","Beriwit, Kec. Murung, Kabupaten Murung Raya",KALIMANTAN TENGAH,73911.0,Indonesia,,,,-0.6449091,114.5653656,https://maps.google.com/?cid=0x0:0x20e09e4ef44d49e,
restaurant,Restoran,DAPUR TETEH,"Jl. Puruk Batu Bondang No.426, Beriwit, Kec. Murung, Kabupaten Murung Raya, Kalimantan Tengah 73911","Beriwit, Kec. Murung, Kabupaten Murung Raya",KALIMANTAN TENGAH,73911.0,Indonesia,85813582863.0,,,-0.6314862,114.5722985,https://maps.google.com/?cid=0x0:0xd55043e9a671a4be,
restaurant,Kafe,Tempat dona,"Jln.pt imk No.km 2, Olong Hanangan, Tanah Siang Sel., Kabupaten Murung Raya, Kalimantan Tengah","Kabupaten Murung Raya, Kalimantan Tengah",KALIMANTAN TENGAH,,Indonesia,,,,-0.6638983,114.4320193,https://maps.google.com/?cid=0x0:0x498cde1005ab4b78,
restaurant,Nasi,Warung mama Niya,"8F82+MQF, Jl. Datah Kayu Duhung, Datah Kotou, Tanah Siang Sel., Kabupaten Murung Raya, Kalimantan Tengah 73971","Jl. Datah Kayu Duhung, Datah Kotou, Tanah Siang Sel., Kabupaten Murung Raya",KALIMANTAN TENGAH,73971.0,Indonesia,85787371843.0,,,-0.6833248,114.4519106,https://maps.google.com/?cid=0x0:0x93511351ebfcd68f,
restaurant,Restoran,Pan's Cafe,"9H28+W75, Jl. Lintas Kalimantan Poros Tengah, Beriwit, Kec. Murung, Kabupaten Murung Raya, Kalimantan Tengah 73911","Jl. Lintas Kalimantan Poros Tengah, Beriwit, Kec. Murung, Kabupaten Murung Raya",KALIMANTAN TENGAH,73911.0,Indonesia,82251521124.0,,,-0.6477284,114.5657288,https://maps.google.com/?cid=0x0:0x59c1ee80cb5fb001,
restaurant,Kafe,Cafe Rama Sinta Joss,"8HX8+3FR, Beriwit, Kec. Murung, Kabupaten Murung Raya, Kalimantan Tengah 73911","Beriwit, Kec. Murung, Kabupaten Murung Raya",KALIMANTAN TENGAH,73911.0,Indonesia,,,,-0.6512945,114.5664542,https://maps.google.com/?cid=0x0:0x23b4d18d9bd8593a,
restaurant,Bakso,Bakso Tegar,"8HR2+CHF, Jl. Lintas Kalimantan Poros Tengah, Beriwit, Tanah Siang Sel., Kabupaten Murung Raya, Kalimantan Tengah 73911","Jl. Lintas Kalimantan Poros Tengah, Beriwit, Tanah Siang Sel., Kabupaten Murung Raya",KALIMANTAN TENGAH,73911.0,Indonesia,,,,-0.6589459,114.5514111,https://maps.google.com/?cid=0x0:0xddd5fd50dd6f490d,
restaurant,Restoran,Warung Makan Mama Chinta,"9H27+F8F, Jl. Lintas Kalimantan Poros Tengah, Beriwit, Tanah Siang Sel., Kabupaten Murung Raya, Kalimantan Tengah 73911","Jl. Lintas Kalimantan Poros Tengah, Beriwit, Tanah Siang Sel., Kabupaten Murung Raya",KALIMANTAN TENGAH,73911.0,Indonesia,,,,-0.6487629,114.5633148,https://maps.google.com/?cid=0x0:0x9599dbdbc177c069,
restaurant,Makanan Kecil,Catering Tanah siang selatan,"Olong Hanangan, Tanah Siang Sel., Kabupaten Murung Raya, Kalimantan Tengah 73911","Tanah Siang Sel., Kabupaten Murung Raya",KALIMANTAN TENGAH,73911.0,Indonesia,85652248771.0,,,-0.6538768,114.4474925,https://maps.google.com/?cid=0x0:0x2f1efc23096bd070,
restaurant,restaurant,Kalimantan Tengah 73981,"Kabupaten Murung Raya, Kalimantan Tengah","Kabupaten Murung Raya, Kalimantan Tengah",KALIMANTAN TENGAH,,Indonesia,,,,0.1366232,113.9536466,https://maps.google.com/?cid=0x0:0xb765502d3651aeca,
restaurant,Sesuai untuk keluarga,Restoran Idola,"9HF9+574, Beriwit, Kec. Murung, Kabupaten Murung Raya, Kalimantan Tengah 73911","Beriwit, Kec. Murung, Kabupaten Murung Raya",KALIMANTAN TENGAH,73911.0,Indonesia,85753219961.0,,,-0.627107,114.5682119,https://maps.google.com/?cid=0x0:0x20bdda120e622a0b,
restaurant,restaurant,Rumah makan putri punan,"Tumbang Olong, 2, Kabupaten Murung Raya, Kalimantan Tengah","Kabupaten Murung Raya, Kalimantan Tengah",KALIMANTAN TENGAH,,Indonesia,87810717049.0,,,-0.0068114,114.3270535,https://maps.google.com/?cid=0x0:0x825aa18752aacb3b,
restaurant,Restoran,DAPUR TETEH,"Jl. Puruk Batu Bondang No.426, Beriwit, Kec. Murung, Kabupaten Murung Raya, Kalimantan Tengah 73911","Beriwit, Kec. Murung, Kabupaten Murung Raya",KALIMANTAN TENGAH,73911.0,Indonesia,85813582863.0,,,-0.6314862,114.5722985,https://maps.google.com/?cid=0x0:0xd55043e9a671a4be,
restaurant,Sunda,CAH SOLO RESTO,"9H28+JM3, Jl. Lintas Kalimantan Poros Tengah, Beriwit, Kec. Murung, Kabupaten Murung Raya, Kalimantan Tengah 73911","Jl. Lintas Kalimantan Poros Tengah, Beriwit, Kec. Murung, Kabupaten Murung Raya",KALIMANTAN TENGAH,73911.0,Indonesia,85329826085.0,,,-0.648496,114.5666606,https://maps.google.com/?cid=0x0:0xf64b62018799787e,
restaurant,Restoran,RM. Mama Robby,"9HMF+76M, Beriwit, Kec. Murung, Kabupaten Murung Raya, Kalimantan Tengah 73911","Beriwit, Kec. Murung, Kabupaten Murung Raya",KALIMANTAN TENGAH,73911.0,Indonesia,,,,-0.6167915,114.5730496,https://maps.google.com/?cid=0x0:0x253a01484c9c5df3,
restaurant,Restoran,Rumah Makan Sama Itah,"Jl. Ahmad Yani No.2 No. 11, Beriwit, Kec. Murung, Kabupaten Murung Raya, Kalimantan Tengah 73911","Beriwit, Kec. Murung, Kabupaten Murung Raya",KALIMANTAN TENGAH,73911.0,Indonesia,,,,-0.6213357,114.5723082,https://maps.google.com/?cid=0x0:0x8996165409e531fd,
restaurant,Kedai Kopi,Warung Ala-ala,"Jl. Ahmad Yani No.129 RT01, RW.III, Beriwit, Kec. Murung, Kabupaten Murung Raya, Kalimantan Tengah 73911","RW.III, Beriwit, Kec. Murung, Kabupaten Murung Raya",KALIMANTAN TENGAH,73911.0,Indonesia,85754799666.0,,,-0.6306724,114.5673157,https://maps.google.com/?cid=0x0:0x312b96eb268bacb2,
restaurant,Pasar,"Restoran Pasar Hilir, Puruk Cahu","9HMC+HW4, Beriwit, Kec. Murung, Kabupaten Murung Raya, Kalimantan Tengah 73911","Beriwit, Kec. Murung, Kabupaten Murung Raya",KALIMANTAN TENGAH,73911.0,Indonesia,,,,-0.6161199,114.5723264,https://maps.google.com/?cid=0x0:0xfe73bd29d07e4670,
restaurant,Dapur Umum,WARUNG MAKAN HAFID,"Jln. Sengaji no.22, Beriwit, Kec. Murung, Kabupaten Murung Raya, Kalimantan Tengah 73911","Beriwit, Kec. Murung, Kabupaten Murung Raya",KALIMANTAN TENGAH,73911.0,Indonesia,81256858281.0,,,-0.6187394,114.5720883,https://maps.google.com/?cid=0x0:0x2a10ddb56738d5cc,
restaurant,Mi,Paman bakso mbotung,"V87M+GMJ, Tumbang Olong, Uut Murung, Kabupaten Murung Raya, Kalimantan Tengah","Kabupaten Murung Raya, Kalimantan Tengah",KALIMANTAN TENGAH,,Indonesia,,,,-0.1361706,114.3341428,https://maps.google.com/?cid=0x0:0xa63b30b0f37b30ad,
restaurant,Nasi,Warung Makan Mama Bali,"876X+WFJ, Tumbang Lahung, Kec. Permata Intan, Kabupaten Murung Raya, Kalimantan Tengah 73971","Tumbang Lahung, Kec. Permata Intan, Kabupaten Murung Raya",KALIMANTAN TENGAH,73971.0,Indonesia,82352193333.0,,,-0.6876574,114.2986484,https://maps.google.com/?cid=0x0:0xa685dfaf81f059ec,
restaurant,Nasi,Warung Khasboy,"Beriwit, Kec. Murung, Kabupaten Murung Raya, Kalimantan Tengah 73911","Kec. Murung, Kabupaten Murung Raya",KALIMANTAN TENGAH,73911.0,Indonesia,85753092177.0,,,-0.632012,114.5665865,https://maps.google.com/?cid=0x0:0x1743aff97eda7a70,
restaurant,Kedai Kopi,De'Laluna Cafe,"8HX9+7PF, Alun Alun, Murung, Murung Raya Regency, Central Kalimantan 73911","Alun Alun, Murung, Murung Raya Regency",KALIMANTAN TENGAH,73911.0,Indonesia,81348038329.0,,,-0.6518204,114.5693062,https://maps.google.com/?cid=0x0:0xaac675d3c42731bd,
restaurant,Mi,Bakso Paman 1999 (Pusat),"Jl. Ki Hajar Dewantara No.20, Beriwit, Kec. Murung, Kabupaten Murung Raya, Kalimantan Tengah 73911","Beriwit, Kec. Murung, Kabupaten Murung Raya",KALIMANTAN TENGAH,73911.0,Indonesia,82327672883.0,,,-0.6196787,114.5688185,https://maps.google.com/?cid=0x0:0x831a1ddc0da95e7a,
restaurant,Kedai Kopi,Kupi ETO,"Jl. Lintas Kalimantan Poros Tengah, Puruk Cahu, Kec. Murung, Kabupaten Murung Raya, Kalimantan Tengah 73911","Puruk Cahu, Kec. Murung, Kabupaten Murung Raya",KALIMANTAN TENGAH,73911.0,Indonesia,82239135557.0,,,-0.6498765,114.5724467,https://maps.google.com/?cid=0x0:0xfb73b3b27ffa8122,
restaurant,Kantor Pemerintah,Warung Makan Polsek Murung,"9HMC+MJH, Jl. Makam Pahlawan, Beriwit, Kec. Murung, Kabupaten Murung Raya, Kalimantan Tengah 73911","Jl. Makam Pahlawan, Beriwit, Kec. Murung, Kabupaten Murung Raya",KALIMANTAN TENGAH,73911.0,Indonesia,81259077324.0,,,-0.615805,114.5716141,https://maps.google.com/?cid=0x0:0x5c5d4b94fcca7648,
restaurant,Padang,Rumah Makan Padang Lintau Baru,"9H78+483, Beriwit, Kec. Murung, Kabupaten Murung Raya, Kalimantan Tengah 73911","Beriwit, Kec. Murung, Kabupaten Murung Raya",KALIMANTAN TENGAH,73911.0,Indonesia,81349030606.0,,,-0.6372419,114.5658035,https://maps.google.com/?cid=0x0:0x36f2521312fbeab,
restaurant,Kafe,Youmi Cafe,"Jl. Jend. Sudirman, Puruk Cahu, Kec. Murung, Kabupaten Murung Raya, Kalimantan Tengah 73911","Puruk Cahu, Kec. Murung, Kabupaten Murung Raya",KALIMANTAN TENGAH,73911.0,Indonesia,85752750534.0,,,-0.6512582,114.5707106,https://maps.google.com/?cid=0x0:0xae851155737e8d45,
restaurant,Padang,Warung Arema,"simpang, Dirung, bajo, Jl. M. T Haryono, Beriwit, Kec. Murung, Kabupaten Murung Raya, Kalimantan Tengah 73911","Dirung, bajo, Jl. M. T Haryono, Beriwit, Kec. Murung, Kabupaten Murung Raya",KALIMANTAN TENGAH,73911.0,Indonesia,85332268885.0,,,-0.6225654,114.5725318,https://maps.google.com/?cid=0x0:0x5029d592b5b280e6,
restaurant,Restoran,PONDOK MAKAN DAN CAFE IIN MURA,"Jl. Ahmad Yani No.59, Beriwit, Kec. Murung, Kabupaten Murung Raya, Kalimantan Tengah 73911","Beriwit, Kec. Murung, Kabupaten Murung Raya",KALIMANTAN TENGAH,73911.0,Indonesia,82256859650.0,,,-0.6428817,114.5657176,https://maps.google.com/?cid=0x0:0x8f6ba10518d9586e,
restaurant,restaurant,Nasi Padang Simpang Tigo Kalimantan,"MR6V+X5J, Tanjunglokang, Kec. Hulu Kapuas, Kabupaten Kapuas Hulu, Kalimantan Barat 78752","Tanjunglokang, Kec. Hulu Kapuas, Kabupaten Kapuas Hulu",KALIMANTAN TENGAH,78752.0,Indonesia,,,,0.6624512,113.8428809,https://maps.google.com/?cid=0x0:0x39aac94382043e87,
restaurant,Toko bahan makanan,RUMAH CATERING QUAN PIO DESA KONUT,"Konut, Kec. Tanah Siang, Kabupaten Murung Raya, Kalimantan Tengah 73961","Kec. Tanah Siang, Kabupaten Murung Raya",KALIMANTAN TENGAH,73961.0,Indonesia,85754154922.0,,,-0.6206114,114.506444,https://maps.google.com/?cid=0x0:0x26151dd477bb1411,
restaurant,restaurant,Warung sate bang tolib,"JM36+QCM, Tumbang Naan, Seribu Riam, Kabupaten Murung Raya, Kalimantan Tengah","Kabupaten Murung Raya, Kalimantan Tengah",KALIMANTAN TENGAH,,Indonesia,,,,-0.3955389,113.6610438,https://maps.google.com/?cid=0x0:0x6739e0bf05a2bd89,
restaurant,Brunch,Warung Makan Candurasa,"JPGQ+7X, Muara Maruwei I, Kec. Laung Tuhup, Kabupaten Murung Raya, Kalimantan Tengah 73991","Muara Maruwei I, Kec. Laung Tuhup, Kabupaten Murung Raya",KALIMANTAN TENGAH,73991.0,Indonesia,,,,-0.3743086,114.7400796,https://maps.google.com/?cid=0x0:0x78c8377da675b782,
restaurant,Nasi,Warung makan mama aldi,"FFXX+X3, Olong Ulu, Kec. Tanah Siang, Kabupaten Murung Raya, Kalimantan Tengah","Kabupaten Murung Raya, Kalimantan Tengah",KALIMANTAN TENGAH,,Indonesia,,,,-0.500072,114.497719,https://maps.google.com/?cid=0x0:0xba6fd199d53406dd,
restaurant,Restoran,Milos eatery cafe,"Beriwit, Kec. Murung, Kabupaten Murung Raya, Kalimantan Tengah 73911","Kec. Murung, Kabupaten Murung Raya",KALIMANTAN TENGAH,73911.0,Indonesia,82153544136.0,,,-0.6415625,114.5674375,https://maps.google.com/?cid=0x0:0x420e5f8d3f164c31,
cafe,cafe,Kalimantan Tengah 73991,"Kabupaten Murung Raya, Kalimantan Tengah","Kabupaten Murung Raya, Kalimantan Tengah",KALIMANTAN TENGAH,,Indonesia,,,,-0.2037503,114.8092691,https://maps.google.com/?cid=0x0:0x46d09a0087c59ba1,
cafe,Brunch,black house,"Jalan Isran AS No.rt 9, Muara Tuhup, Kec. Laung Tuhup, Kabupaten Murung Raya, Kalimantan Tengah 73911","Muara Tuhup, Kec. Laung Tuhup, Kabupaten Murung Raya",KALIMANTAN TENGAH,73911.0,Indonesia,811508297.0,,,-0.6184049,114.8087704,https://maps.google.com/?cid=0x0:0xe05ef5f51b47d3af,
cafe,Kafe,Cafe Bintang,"Unnamed Road, Muara Tuhup, Kec. Laung Tuhup, Kabupaten Murung Raya, Kalimantan Tengah 73991","Muara Tuhup, Kec. Laung Tuhup, Kabupaten Murung Raya",KALIMANTAN TENGAH,73991.0,Indonesia,,,,-0.6250449,114.8102195,https://maps.google.com/?cid=0x0:0x2ef07e09c738364d,
cafe,Kafe,Cafe Qolbi,"9RF5+PJ4, Jl. Ahmad Yani, RT./RW/RW.:006/002, Muara Tuhup, Kec. Laung Tuhup, Kabupaten Murung Raya, Kalimantan Tengah 73991","Jl. Ahmad Yani, RT./RW/RW.:006/002, Muara Tuhup, Kec. Laung Tuhup, Kabupaten Murung Raya",KALIMANTAN TENGAH,73991.0,Indonesia,,,,-0.6257439,114.8090855,https://maps.google.com/?cid=0x0:0x27893cf941c3133c,
cafe,Nasi,Rumah Makan SAMA ITO,"HV9X+X38, Kohong, Kec. Barito Tuhup Raya, Kabupaten Murung Raya, Kalimantan Tengah 73991","Kohong, Kec. Barito Tuhup Raya, Kabupaten Murung Raya",KALIMANTAN TENGAH,73991.0,Indonesia,81351759533.0,,,-0.4302649,114.8966553,https://maps.google.com/?cid=0x0:0xb6c79b48a4fd085e,
cafe,Kedai Kopi,De'Laluna Cafe,"8HX9+7PF, Alun Alun, Murung, Murung Raya Regency, Central Kalimantan 73911","Alun Alun, Murung, Murung Raya Regency",KALIMANTAN TENGAH,73911.0,Indonesia,81348038329.0,,,-0.6518204,114.5693062,https://maps.google.com/?cid=0x0:0xaac675d3c42731bd,
cafe,Bubur,Bakakurih Cafe,"9PVP+W3M, Muara Laung I, Kec. Laung Tuhup, Kabupaten Murung Raya, Kalimantan Tengah","Kabupaten Murung Raya, Kalimantan Tengah",KALIMANTAN TENGAH,,Indonesia,,,,-0.6051532,114.7351814,https://maps.google.com/?cid=0x0:0x83d438c64d338b23,
cafe,Kedai Kopi,Kupi ETO,"Jl. Lintas Kalimantan Poros Tengah, Puruk Cahu, Kec. Murung, Kabupaten Murung Raya, Kalimantan Tengah 73911","Puruk Cahu, Kec. Murung, Kabupaten Murung Raya",KALIMANTAN TENGAH,73911.0,Indonesia,82239135557.0,,,-0.6498765,114.5724467,https://maps.google.com/?cid=0x0:0xfb73b3b27ffa8122,
cafe,Restoran,Warung Makan Mbak Asih,"HVQP+RG, Km 34, Liang Nyaling, Kec. Barito Tuhup Raya, Kabupaten Murung Raya, Kalimantan Tengah","Kabupaten Murung Raya, Kalimantan Tengah",KALIMANTAN TENGAH,,Indonesia,82135309090.0,,,-0.4104284,114.8863716,https://maps.google.com/?cid=0x0:0x2a3000d2dbe52f72,
cafe,Kedai Kopi,Sunyi Coffee - Barito - di taman ayodia,"Jl. Barito I No.31, Kramat Pela, Kec. Kby. Baru, Kota Jakarta Selatan, Daerah Khusus Ibukota Jakarta 12130","Kramat Pela, Kec. Kby. Baru, Kota Jakarta Selatan",KALIMANTAN TENGAH,12130.0,Indonesia,89689548585.0,,,-6.2449007,106.7940151,https://maps.google.com/?cid=0x0:0x93c0a6343fa32b8a,
cafe,Produsen makanan,YUJU Caffe,"Jl. Pahlawan No.89, RT.3/RW.1, Puruk Cahu, Kec. Murung, Kabupaten Murung Raya, Kalimantan Tengah 73911","RT.3/RW.1, Puruk Cahu, Kec. Murung, Kabupaten Murung Raya",KALIMANTAN TENGAH,73911.0,Indonesia,82150839857.0,,,-0.6160034,114.570937,https://maps.google.com/?cid=0x0:0xd85840d8e1056737,
cafe,Kafe,Youmi Cafe,"Jl. Jend. Sudirman, Puruk Cahu, Kec. Murung, Kabupaten Murung Raya, Kalimantan Tengah 73911","Puruk Cahu, Kec. Murung, Kabupaten Murung Raya",KALIMANTAN TENGAH,73911.0,Indonesia,85752750534.0,,,-0.6512582,114.5707106,https://maps.google.com/?cid=0x0:0xae851155737e8d45,
cafe,Restoran,Twenty Five Cafe,"8HV5+WPP, Jl. Lintas Kalimantan Poros Tengah, Beriwit, Tanah Siang Sel., Kabupaten Murung Raya, Kalimantan Tengah 73911","Jl. Lintas Kalimantan Poros Tengah, Beriwit, Tanah Siang Sel., Kabupaten Murung Raya",KALIMANTAN TENGAH,73911.0,Indonesia,,,,-0.6551516,114.5593132,https://maps.google.com/?cid=0x0:0x65cf33184188f235,
cafe,Nasi,Warung Gado Gado Fortuna,"9RM4+P7G, Muara Tuhup, Kec. Laung Tuhup, Kabupaten Murung Raya, Kalimantan Tengah 73991","Muara Tuhup, Kec. Laung Tuhup, Kabupaten Murung Raya",KALIMANTAN TENGAH,73991.0,Indonesia,82251503376.0,,,-0.615693,114.8057007,https://maps.google.com/?cid=0x0:0x60f016d4fca75c0e,
cafe,Restoran,RUMAH MAKAN IBU YANI KM.1 ROSO2,"9RR5+36C, Unnamed Road, Muara Tuhup, Kec. Laung Tuhup, Kabupaten Murung Raya, Kalimantan Tengah 73991","Unnamed Road, Muara Tuhup, Kec. Laung Tuhup, Kabupaten Murung Raya",KALIMANTAN TENGAH,73991.0,Indonesia,82153712772.0,,,-0.6098142,114.8080184,https://maps.google.com/?cid=0x0:0xf5c830184ad0bf24,
cafe,Restoran,Cafe MR.03,"Jl. Ahmad Yani, Beriwit, Kec. Murung, Kabupaten Murung Raya, Kalimantan Tengah 73911","Beriwit, Kec. Murung, Kabupaten Murung Raya",KALIMANTAN TENGAH,73911.0,Indonesia,82154558872.0,,,-0.6397142,114.5640802,https://maps.google.com/?cid=0x0:0x5a187769215b45e,
cafe,cafe,Kopte Tarik,"Jl. Ahmad Yani No.89, Beriwit, Kec. Murung, Kabupaten Murung Raya, Kalimantan Tengah 73911","Beriwit, Kec. Murung, Kabupaten Murung Raya",KALIMANTAN TENGAH,73911.0,Indonesia,82298109627.0,,,-0.6268858,114.5684311,https://maps.google.com/?cid=0x0:0x4199599c7b5d7fd1,
cafe,Nasi,Warung makan Parahiyangan,"HVCX+2J6, Unnamed Road, Dirung Sararong, Kec. Barito Tuhup Raya, Kabupaten Murung Raya, Kalimantan Tengah 73991","Unnamed Road, Dirung Sararong, Kec. Barito Tuhup Raya, Kabupaten Murung Raya",KALIMANTAN TENGAH,73991.0,Indonesia,81320444489.0,,,-0.4299694,114.899011,https://maps.google.com/?cid=0x0:0x165a8281eefe4555,
cafe,Dapur Umum,Warung Mama Ian,"Unnamed Road, Muara Tuhup, Kec. Laung Tuhup, Kabupaten Murung Raya, Kalimantan Tengah 73991","Muara Tuhup, Kec. Laung Tuhup, Kabupaten Murung Raya",KALIMANTAN TENGAH,73991.0,Indonesia,81250081324.0,,,-0.615693,114.8057007,https://maps.google.com/?cid=0x0:0xf2ac8cf645761c90,
cafe,Restoran,Depot Madani 88,"Jl. Gajah Mada, Muara Laung I, Kec. Laung Tuhup, Kabupaten Murung Raya, Kalimantan Tengah 73911","Muara Laung I, Kec. Laung Tuhup, Kabupaten Murung Raya",KALIMANTAN TENGAH,73911.0,Indonesia,82199631174.0,,,-0.6047622,114.7354667,https://maps.google.com/?cid=0x0:0x2c72849a4371291e,
cafe,Kafe,Kedai Twenty Six,"8HVM+W2W, Danau Usung, Kec. Murung, Kabupaten Murung Raya, Kalimantan Tengah 73911","Danau Usung, Kec. Murung, Kabupaten Murung Raya",KALIMANTAN TENGAH,73911.0,Indonesia,82352224010.0,,,-0.6551313,114.5825876,https://maps.google.com/?cid=0x0:0xf05d09a341361567,
cafe,Rumah Makan,Warung Makan Mama Okta,"HV9X+X38, Kohong, Kec. Barito Tuhup Raya, Kabupaten Murung Raya, Kalimantan Tengah 73991","Kohong, Kec. Barito Tuhup Raya, Kabupaten Murung Raya",KALIMANTAN TENGAH,73991.0,Indonesia,82159891121.0,,,-0.4300899,114.8977172,https://maps.google.com/?cid=0x0:0x12e4e84b44ac6ad6,
cafe,cafe,Youmi Cafe,,,KALIMANTAN TENGAH,,Indonesia,85752570534.0,,,-0.6354135,114.581981,https://maps.google.com/?cid=0x0:0x2761496f26f700b1,
cafe,Restoran,Pondok CS Barito,"8HVM+JC6, Jalan Jendral Sudirman (depan pos polisi) jembatan merdeka, Bahitom, Kec. Murung, Kabupaten Murung Raya, Kalimantan Tengah 73911","Jalan Jendral Sudirman (depan pos polisi) jembatan merdeka, Bahitom, Kec. Murung, Kabupaten Murung Raya",KALIMANTAN TENGAH,73911.0,Indonesia,81347455656.0,,,-0.6559719,114.5835239,https://maps.google.com/?cid=0x0:0x247da2bb575d9517,
cafe,Jawa,Warung Makan Pasar Sabtu,"9RG8+6VM, Unnamed Road, Muara Tuhup, Kec. Laung Tuhup, Kabupaten Murung Raya, Kalimantan Tengah 73991","Unnamed Road, Muara Tuhup, Kec. Laung Tuhup, Kabupaten Murung Raya",KALIMANTAN TENGAH,73991.0,Indonesia,,,,-0.6244143,114.8171573,https://maps.google.com/?cid=0x0:0x6121c03e84bcc72e,
cafe,Brunch,Warung Makan Candurasa,"JPGQ+7X, Muara Maruwei I, Kec. Laung Tuhup, Kabupaten Murung Raya, Kalimantan Tengah 73991","Muara Maruwei I, Kec. Laung Tuhup, Kabupaten Murung Raya",KALIMANTAN TENGAH,73991.0,Indonesia,,,,-0.3743086,114.7400796,https://maps.google.com/?cid=0x0:0x78c8377da675b782,
cafe,Restoran,Warung makan padang salsabila dan naira,"Liang Nyaling, Kec. Barito Tuhup Raya, Kabupaten Murung Raya, Kalimantan Tengah 73991","Kec. Barito Tuhup Raya, Kabupaten Murung Raya",KALIMANTAN TENGAH,73991.0,Indonesia,81255818668.0,,,-0.4000082,114.844879,https://maps.google.com/?cid=0x0:0x2d39704dae7034e4,
cafe,cafe,Kalimantan Tengah 73991,"Kabupaten Murung Raya, Kalimantan Tengah","Kabupaten Murung Raya, Kalimantan Tengah",KALIMANTAN TENGAH,,Indonesia,,,,-0.2037503,114.8092691,https://maps.google.com/?cid=0x0:0x46d09a0087c59ba1,
cafe,Kafe,Cafe Bintang,"Unnamed Road, Muara Tuhup, Kec. Laung Tuhup, Kabupaten Murung Raya, Kalimantan Tengah 73991","Muara Tuhup, Kec. Laung Tuhup, Kabupaten Murung Raya",KALIMANTAN TENGAH,73991.0,Indonesia,,,,-0.6250449,114.8102195,https://maps.google.com/?cid=0x0:0x2ef07e09c738364d,
cafe,Kafe,Cafe Qolbi,"9RF5+PJ4, Jl. Ahmad Yani, RT./RW/RW.:006/002, Muara Tuhup, Kec. Laung Tuhup, Kabupaten Murung Raya, Kalimantan Tengah 73991","Jl. Ahmad Yani, RT./RW/RW.:006/002, Muara Tuhup, Kec. Laung Tuhup, Kabupaten Murung Raya",KALIMANTAN TENGAH,73991.0,Indonesia,,,,-0.6257439,114.8090855,https://maps.google.com/?cid=0x0:0x27893cf941c3133c,
cafe,Brunch,black house,"Jalan Isran AS No.rt 9, Muara Tuhup, Kec. Laung Tuhup, Kabupaten Murung Raya, Kalimantan Tengah 73911","Muara Tuhup, Kec. Laung Tuhup, Kabupaten Murung Raya",KALIMANTAN TENGAH,73911.0,Indonesia,811508297.0,,,-0.6184049,114.8087704,https://maps.google.com/?cid=0x0:0xe05ef5f51b47d3af,
cafe,Bubur,Bakakurih Cafe,"9PVP+W3M, Muara Laung I, Kec. Laung Tuhup, Kabupaten Murung Raya, Kalimantan Tengah","Kabupaten Murung Raya, Kalimantan Tengah",KALIMANTAN TENGAH,,Indonesia,,,,-0.6051532,114.7351814,https://maps.google.com/?cid=0x0:0x83d438c64d338b23,
cafe,Restoran,RUMAH MAKAN IBU YANI KM.1 ROSO2,"9RR5+36C, Unnamed Road, Muara Tuhup, Kec. Laung Tuhup, Kabupaten Murung Raya, Kalimantan Tengah 73991","Unnamed Road, Muara Tuhup, Kec. Laung Tuhup, Kabupaten Murung Raya",KALIMANTAN TENGAH,73991.0,Indonesia,82153712772.0,,,-0.6098142,114.8080184,https://maps.google.com/?cid=0x0:0xf5c830184ad0bf24,
cafe,Dapur Umum,Warung Mama Ian,"Unnamed Road, Muara Tuhup, Kec. Laung Tuhup, Kabupaten Murung Raya, Kalimantan Tengah 73991","Muara Tuhup, Kec. Laung Tuhup, Kabupaten Murung Raya",KALIMANTAN TENGAH,73991.0,Indonesia,81250081324.0,,,-0.615693,114.8057007,https://maps.google.com/?cid=0x0:0xf2ac8cf645761c90,
cafe,Kedai Kopi,"Warung Mr. Alo Muara Laung 1, Kecamatan Laung Tuhup","9PWP+425, Unnamed Road, Muara Laung I, Kec. Laung Tuhup, Kabupaten Murung Raya, Kalimantan Tengah 73911","Unnamed Road, Muara Laung I, Kec. Laung Tuhup, Kabupaten Murung Raya",KALIMANTAN TENGAH,73911.0,Indonesia,,,,-0.6047452,114.7351194,https://maps.google.com/?cid=0x0:0xe4ab6253dd0807d6,
cafe,Kedai Kopi,De'Laluna Cafe,"8HX9+7PF, Alun Alun, Murung, Murung Raya Regency, Central Kalimantan 73911","Alun Alun, Murung, Murung Raya Regency",KALIMANTAN TENGAH,73911.0,Indonesia,81348038329.0,,,-0.6518204,114.5693062,https://maps.google.com/?cid=0x0:0xaac675d3c42731bd,
cafe,Nasi,Warung Makan Rica-rica,"Unnamed Road, 73991, Liang Nyaling, Kec. Barito Tuhup Raya, Kabupaten Murung Raya, Kalimantan Tengah 73991","73991, Liang Nyaling, Kec. Barito Tuhup Raya, Kabupaten Murung Raya",KALIMANTAN TENGAH,73991.0,Indonesia,81320444489.0,,,-0.4119465,114.8879838,https://maps.google.com/?cid=0x0:0x36c0ddc24d07d1e8,
cafe,Jawa,Warung Makan Pasar Sabtu,"9RG8+6VM, Unnamed Road, Muara Tuhup, Kec. Laung Tuhup, Kabupaten Murung Raya, Kalimantan Tengah 73991","Unnamed Road, Muara Tuhup, Kec. Laung Tuhup, Kabupaten Murung Raya",KALIMANTAN TENGAH,73991.0,Indonesia,,,,-0.6244143,114.8171573,https://maps.google.com/?cid=0x0:0x6121c03e84bcc72e,
cafe,Tempat Fitness,Warung Yoga,"CP3J+X72 Warung Yoga, Muara Laung I, Kec. Laung Tuhup, Kabupaten Murung Raya, Kalimantan Tengah 73911","Muara Laung I, Kec. Laung Tuhup, Kabupaten Murung Raya",KALIMANTAN TENGAH,73911.0,Indonesia,81348719010.0,,,-0.5951101,114.7306484,https://maps.google.com/?cid=0x0:0xab8e9cc9557bc939,
cafe,Kafe,Kedai Twenty Six,"8HVM+W2W, Danau Usung, Kec. Murung, Kabupaten Murung Raya, Kalimantan Tengah 73911","Danau Usung, Kec. Murung, Kabupaten Murung Raya",KALIMANTAN TENGAH,73911.0,Indonesia,82352224010.0,,,-0.6551313,114.5825876,https://maps.google.com/?cid=0x0:0xf05d09a341361567,
cafe,Brunch,Warung Bubur Ari,"CP3M+RM7, Muara Laung I, Kec. Laung Tuhup, Kabupaten Murung Raya, Kalimantan Tengah 73911","Muara Laung I, Kec. Laung Tuhup, Kabupaten Murung Raya",KALIMANTAN TENGAH,73911.0,Indonesia,,,,-0.5954521,114.7341631,https://maps.google.com/?cid=0x0:0x8cccc81a03dfcf28,
cafe,Brunch,Warung Makan Candurasa,"JPGQ+7X, Muara Maruwei I, Kec. Laung Tuhup, Kabupaten Murung Raya, Kalimantan Tengah 73991","Muara Maruwei I, Kec. Laung Tuhup, Kabupaten Murung Raya",KALIMANTAN TENGAH,73991.0,Indonesia,,,,-0.3743086,114.7400796,https://maps.google.com/?cid=0x0:0x78c8377da675b782,
cafe,Produsen makanan,YUJU Caffe,"Jl. Pahlawan No.89, RT.3/RW.1, Puruk Cahu, Kec. Murung, Kabupaten Murung Raya, Kalimantan Tengah 73911","RT.3/RW.1, Puruk Cahu, Kec. Murung, Kabupaten Murung Raya",KALIMANTAN TENGAH,73911.0,Indonesia,82150839857.0,,,-0.6160034,114.570937,https://maps.google.com/?cid=0x0:0xd85840d8e1056737,
cafe,Restoran,Rumah makan hj.nordiana,"CP4P+C6Q, Muara Laung I, Kec. Laung Tuhup, Kabupaten Murung Raya, Kalimantan Tengah 73911","Muara Laung I, Kec. Laung Tuhup, Kabupaten Murung Raya",KALIMANTAN TENGAH,73911.0,Indonesia,81351242466.0,,,-0.5939072,114.7356185,https://maps.google.com/?cid=0x0:0xff745dc0f57775c9,
cafe,Restoran,Depot Madani 88,"Jl. Gajah Mada, Muara Laung I, Kec. Laung Tuhup, Kabupaten Murung Raya, Kalimantan Tengah 73911","Muara Laung I, Kec. Laung Tuhup, Kabupaten Murung Raya",KALIMANTAN TENGAH,73911.0,Indonesia,82199631174.0,,,-0.6047622,114.7354667,https://maps.google.com/?cid=0x0:0x2c72849a4371291e,
cafe,Dapur Umum,Warung makan Afika km1,"9RF5+FF, Muara Tuhup, Kec. Laung Tuhup, Kabupaten Murung Raya, Kalimantan Tengah 73991","Muara Tuhup, Kec. Laung Tuhup, Kabupaten Murung Raya",KALIMANTAN TENGAH,73991.0,Indonesia,85238964446.0,,,-0.6263537,114.8086225,https://maps.google.com/?cid=0x0:0xd6b0b03270072d0,
cafe,Restoran,Warung Lalapan Bu Lee,"9RP4+3FV, Muara Tuhup, Kec. Laung Tuhup, Kabupaten Murung Raya, Kalimantan Tengah 73991","Muara Tuhup, Kec. Laung Tuhup, Kabupaten Murung Raya",KALIMANTAN TENGAH,73991.0,Indonesia,82151343623.0,,,-0.6147708,114.806172,https://maps.google.com/?cid=0x0:0xf01b1850da822df8,
cafe,Nasi,Rumah Makan SAMA ITO,"HV9X+X38, Kohong, Kec. Barito Tuhup Raya, Kabupaten Murung Raya, Kalimantan Tengah 73991","Kohong, Kec. Barito Tuhup Raya, Kabupaten Murung Raya",KALIMANTAN TENGAH,73991.0,Indonesia,81351759533.0,,,-0.4302649,114.8966553,https://maps.google.com/?cid=0x0:0xb6c79b48a4fd085e,
cafe,cafe,Kalimantan Tengah 73911,"Kec. Murung, Kabupaten Murung Raya, Kalimantan Tengah","Kabupaten Murung Raya, Kalimantan Tengah",KALIMANTAN TENGAH,,Indonesia,,,,-0.581032,114.6667939,https://maps.google.com/?cid=0x0:0xfaf4a8cd4b21fca2,
cafe,Kedai Kopi,De'Laluna Cafe,"8HX9+7PF, Alun Alun, Murung, Murung Raya Regency, Central Kalimantan 73911","Alun Alun, Murung, Murung Raya Regency",KALIMANTAN TENGAH,73911.0,Indonesia,81348038329.0,,,-0.6518204,114.5693062,https://maps.google.com/?cid=0x0:0xaac675d3c42731bd,
cafe,Produsen makanan,YUJU Caffe,"Jl. Pahlawan No.89, RT.3/RW.1, Puruk Cahu, Kec. Murung, Kabupaten Murung Raya, Kalimantan Tengah 73911","RT.3/RW.1, Puruk Cahu, Kec. Murung, Kabupaten Murung Raya",KALIMANTAN TENGAH,73911.0,Indonesia,82150839857.0,,,-0.6160034,114.570937,https://maps.google.com/?cid=0x0:0xd85840d8e1056737,
cafe,Kedai Kopi,Khatulistiwa Kopi,"Jl. Ahmad Yani, Beriwit, Kec. Murung, Kabupaten Murung Raya, Kalimantan Tengah 73911","Beriwit, Kec. Murung, Kabupaten Murung Raya",KALIMANTAN TENGAH,73911.0,Indonesia,81289089880.0,,,-0.6274382,114.5681157,https://maps.google.com/?cid=0x0:0xf9d58e7b30fc937e,
cafe,Restoran,Pan's Cafe,"9H28+W75, Jl. Lintas Kalimantan Poros Tengah, Beriwit, Kec. Murung, Kabupaten Murung Raya, Kalimantan Tengah 73911","Jl. Lintas Kalimantan Poros Tengah, Beriwit, Kec. Murung, Kabupaten Murung Raya",KALIMANTAN TENGAH,73911.0,Indonesia,82251521124.0,,,-0.6477284,114.5657288,https://maps.google.com/?cid=0x0:0x59c1ee80cb5fb001,
cafe,Kedai Kopi,Esbeye Coffee,"Jl. Ahmad Yani No.67, Beriwit, Kec. Murung, Kabupaten Murung Raya, Kalimantan Tengah 73911","Beriwit, Kec. Murung, Kabupaten Murung Raya",KALIMANTAN TENGAH,73911.0,Indonesia,,,,-0.6438767,114.5657863,https://maps.google.com/?cid=0x0:0xd04733ac0f5ccb1d,
cafe,Kedai Kopi,Warung Ala-ala,"Jl. Ahmad Yani No.129 RT01, RW.III, Beriwit, Kec. Murung, Kabupaten Murung Raya, Kalimantan Tengah 73911","RW.III, Beriwit, Kec. Murung, Kabupaten Murung Raya",KALIMANTAN TENGAH,73911.0,Indonesia,85754799666.0,,,-0.6306724,114.5673157,https://maps.google.com/?cid=0x0:0x312b96eb268bacb2,
cafe,Kafe,Eco cafe,"9H58+79M, Beriwit, Kec. Murung, Kabupaten Murung Raya, Kalimantan Tengah 73911","Beriwit, Kec. Murung, Kabupaten Murung Raya",KALIMANTAN TENGAH,73911.0,Indonesia,82251412221.0,,,-0.6417837,114.5659229,https://maps.google.com/?cid=0x0:0xee87d0418b4675c0,
cafe,Restoran,Milos eatery cafe,"Beriwit, Kec. Murung, Kabupaten Murung Raya, Kalimantan Tengah 73911","Kec. Murung, Kabupaten Murung Raya",KALIMANTAN TENGAH,73911.0,Indonesia,82153544136.0,,,-0.6415625,114.5674375,https://maps.google.com/?cid=0x0:0x420e5f8d3f164c31,
cafe,Restoran,Twenty Five Cafe,"8HV5+WPP, Jl. Lintas Kalimantan Poros Tengah, Beriwit, Tanah Siang Sel., Kabupaten Murung Raya, Kalimantan Tengah 73911","Jl. Lintas Kalimantan Poros Tengah, Beriwit, Tanah Siang Sel., Kabupaten Murung Raya",KALIMANTAN TENGAH,73911.0,Indonesia,,,,-0.6551516,114.5593132,https://maps.google.com/?cid=0x0:0x65cf33184188f235,
cafe,Kedai Kopi,Bloc Bee Coffee,"Jl. Kolonel Katamso Blok B Respen No.08, Puruk Cahu, Kec. Murung, Kabupaten Murung Raya, Kalimantan Tengah 73911","Puruk Cahu, Kec. Murung, Kabupaten Murung Raya",KALIMANTAN TENGAH,73911.0,Indonesia,81349820464.0,,,-0.6523765,114.5707569,https://maps.google.com/?cid=0x0:0xae9fe43c1f2776b5,
cafe,Kafe,Miltie Bubble,"9H98+6P9, Jl. Ahmad Yani, Beriwit, Kec. Murung, Kabupaten Murung Raya, Kalimantan Tengah 73911","Jl. Ahmad Yani, Beriwit, Kec. Murung, Kabupaten Murung Raya",KALIMANTAN TENGAH,73911.0,Indonesia,82327774889.0,,,-0.6319635,114.5668712,https://maps.google.com/?cid=0x0:0x34a72a4a01abf549,
cafe,Jawa,Abdul Halim Cafe,"9HHF+XP7, Beriwit, Kec. Murung, Kabupaten Murung Raya, Kalimantan Tengah 73911","Beriwit, Kec. Murung, Kabupaten Murung Raya",KALIMANTAN TENGAH,73911.0,Indonesia,81549755269.0,,,-0.6200834,114.5743021,https://maps.google.com/?cid=0x0:0x463855114fbb66bc,
cafe,Restoran,Pancarasa Boga Utama,"9H58+G76, Beriwit, Kec. Murung, Kabupaten Murung Raya, Kalimantan Tengah 73911","Beriwit, Kec. Murung, Kabupaten Murung Raya",KALIMANTAN TENGAH,73911.0,Indonesia,82254080002.0,,,-0.6412129,114.5656456,https://maps.google.com/?cid=0x0:0xf87e965e96359a40,
cafe,Kafe,Cafe The Rich Angkringan,"Danau Usung, Kec. Murung, Kabupaten Murung Raya, Kalimantan Tengah","Kabupaten Murung Raya, Kalimantan Tengah",KALIMANTAN TENGAH,,Indonesia,81573226031.0,,,-0.6564897,114.5838561,https://maps.google.com/?cid=0x0:0xa6600453b4304c02,
cafe,Kafe,Youmi Cafe,"Jl. Jend. Sudirman, Puruk Cahu, Kec. Murung, Kabupaten Murung Raya, Kalimantan Tengah 73911","Puruk Cahu, Kec. Murung, Kabupaten Murung Raya",KALIMANTAN TENGAH,73911.0,Indonesia,85752750534.0,,,-0.6512582,114.5707106,https://maps.google.com/?cid=0x0:0xae851155737e8d45,
cafe,Kedai Kopi,KING CAFE,"9HGC+3M7, Jl. M. T Haryono, Beriwit, Kec. Murung, Kabupaten Murung Raya, Kalimantan Tengah 73911","Jl. M. T Haryono, Beriwit, Kec. Murung, Kabupaten Murung Raya",KALIMANTAN TENGAH,73911.0,Indonesia,81256258148.0,,,-0.6248376,114.5716792,https://maps.google.com/?cid=0x0:0x6a99a43cade01a43,
cafe,Kafe,Cafe KURPA,"9HF3+GH2, Jl. Kolonel Untung Surapati, Beriwit, Kec. Tanah Siang, Kabupaten Murung Raya, Kalimantan Tengah 73911","Jl. Kolonel Untung Surapati, Beriwit, Kec. Tanah Siang, Kabupaten Murung Raya",KALIMANTAN TENGAH,73911.0,Indonesia,,,,-0.6264834,114.5545642,https://maps.google.com/?cid=0x0:0xbe978f54d23916b5,
cafe,Restoran,Cafe Halaman PMY (Pangan Mura Yaksa),"Jl. Pulo Basan, Puruk Cahu, Kec. Murung, Kabupaten Murung Raya, Kalimantan Tengah 73911","Puruk Cahu, Kec. Murung, Kabupaten Murung Raya",KALIMANTAN TENGAH,73911.0,Indonesia,,,,-0.6476626,114.5740215,https://maps.google.com/?cid=0x0:0x64ace0c483c4a79e,
cafe,Kedai Kopi,Warkop simpang PU,"9H88+4H9, Beriwit, Kec. Murung, Kabupaten Murung Raya, Kalimantan Tengah 73911","Beriwit, Kec. Murung, Kabupaten Murung Raya",KALIMANTAN TENGAH,73911.0,Indonesia,85732270205.0,,,-0.6347198,114.5664234,https://maps.google.com/?cid=0x0:0x5cd7407e3057bf43,
cafe,Restoran,AthreeKa cafe,"Jl. Ahmad Yani No.107, Beriwit, Kec. Murung, Kabupaten Murung Raya, Kalimantan Tengah 73911","Beriwit, Kec. Murung, Kabupaten Murung Raya",KALIMANTAN TENGAH,73911.0,Indonesia,,,,-0.6272951,114.5679332,https://maps.google.com/?cid=0x0:0xd171a999fad328b7,
cafe,Bubur,Bakakurih Cafe,"9PVP+W3M, Muara Laung I, Kec. Laung Tuhup, Kabupaten Murung Raya, Kalimantan Tengah","Kabupaten Murung Raya, Kalimantan Tengah",KALIMANTAN TENGAH,,Indonesia,,,,-0.6051532,114.7351814,https://maps.google.com/?cid=0x0:0x83d438c64d338b23,
cafe,cafe,Kalimantan Tengah 73971,"Kabupaten Murung Raya, Kalimantan Tengah","Kabupaten Murung Raya, Kalimantan Tengah",KALIMANTAN TENGAH,,Indonesia,,,,-0.4787128,114.4292148,https://maps.google.com/?cid=0x0:0x7eb3a8a82a8e44be,
cafe,Kedai Kopi,Profit cafe,"876W+4Q2, Tumbang Lahung, Kec. Permata Intan, Kabupaten Murung Raya, Kalimantan Tengah 73971","Tumbang Lahung, Kec. Permata Intan, Kabupaten Murung Raya",KALIMANTAN TENGAH,73971.0,Indonesia,81255618544.0,,,-0.690515,114.2969533,https://maps.google.com/?cid=0x0:0x90839b275c4f0f8d,
cafe,Nasi,Warung Makan Mama Bali,"876X+WFJ, Tumbang Lahung, Kec. Permata Intan, Kabupaten Murung Raya, Kalimantan Tengah 73971","Tumbang Lahung, Kec. Permata Intan, Kabupaten Murung Raya",KALIMANTAN TENGAH,73971.0,Indonesia,82352193333.0,,,-0.6876574,114.2986484,https://maps.google.com/?cid=0x0:0xa685dfaf81f059ec,
cafe,cafe,AliChia Eatery,"Jl.Temanggung jadam No.Rt.4, Tumbang Lahung, Kec. Permata Intan, Kabupaten Murung Raya, Kalimantan Tengah 73971","Tumbang Lahung, Kec. Permata Intan, Kabupaten Murung Raya",KALIMANTAN TENGAH,73971.0,Indonesia,,,,-0.6883907,114.2993641,https://maps.google.com/?cid=0x0:0xd3d3018ac439c316,
cafe,Restoran,Bakso Goyang Lidah,"876X+RJR, Tumbang Lahung, Kec. Permata Intan, Kabupaten Murung Raya, Kalimantan Tengah 73971","Tumbang Lahung, Kec. Permata Intan, Kabupaten Murung Raya",KALIMANTAN TENGAH,73971.0,Indonesia,82350134981.0,,,-0.6878786,114.2990099,https://maps.google.com/?cid=0x0:0x7fb41726369cf396,
cafe,Restoran,Food NafLi,"7GWJ+PVJ, Muara Untu, Kec. Murung, Kabupaten Murung Raya, Kalimantan Tengah","Kabupaten Murung Raya, Kalimantan Tengah",KALIMANTAN TENGAH,,Indonesia,81545323230.0,,,-0.7031613,114.5321511,https://maps.google.com/?cid=0x0:0x90066ff901cbdc6c,
cafe,Produsen makanan,YUJU Caffe,"Jl. Pahlawan No.89, RT.3/RW.1, Puruk Cahu, Kec. Murung, Kabupaten Murung Raya, Kalimantan Tengah 73911","RT.3/RW.1, Puruk Cahu, Kec. Murung, Kabupaten Murung Raya",KALIMANTAN TENGAH,73911.0,Indonesia,82150839857.0,,,-0.6160034,114.570937,https://maps.google.com/?cid=0x0:0xd85840d8e1056737,
cafe,Kedai Kopi,Kupi ETO,"Jl. Lintas Kalimantan Poros Tengah, Puruk Cahu, Kec. Murung, Kabupaten Murung Raya, Kalimantan Tengah 73911","Puruk Cahu, Kec. Murung, Kabupaten Murung Raya",KALIMANTAN TENGAH,73911.0,Indonesia,82239135557.0,,,-0.6498765,114.5724467,https://maps.google.com/?cid=0x0:0xfb73b3b27ffa8122,
cafe,Kedai Kopi,KING CAFE,"9HGC+3M7, Jl. M. T Haryono, Beriwit, Kec. Murung, Kabupaten Murung Raya, Kalimantan Tengah 73911","Jl. M. T Haryono, Beriwit, Kec. Murung, Kabupaten Murung Raya",KALIMANTAN TENGAH,73911.0,Indonesia,81256258148.0,,,-0.6248376,114.5716792,https://maps.google.com/?cid=0x0:0x6a99a43cade01a43,
cafe,Kafe,Miltie Bubble,"9H98+6P9, Jl. Ahmad Yani, Beriwit, Kec. Murung, Kabupaten Murung Raya, Kalimantan Tengah 73911","Jl. Ahmad Yani, Beriwit, Kec. Murung, Kabupaten Murung Raya",KALIMANTAN TENGAH,73911.0,Indonesia,82327774889.0,,,-0.6319635,114.5668712,https://maps.google.com/?cid=0x0:0x34a72a4a01abf549,
cafe,Kedai Kopi,Sabar Menanti,"8CMQ+R26, Dirung Lingkin, Tanah Siang Sel., Kabupaten Murung Raya, Kalimantan Tengah 73971","Dirung Lingkin, Tanah Siang Sel., Kabupaten Murung Raya",KALIMANTAN TENGAH,73971.0,Indonesia,,,,-0.6654535,114.4375275,https://maps.google.com/?cid=0x0:0x3e9ae5822cf67660,
cafe,Kedai Kopi,Khatulistiwa Kopi,"Jl. Ahmad Yani, Beriwit, Kec. Murung, Kabupaten Murung Raya, Kalimantan Tengah 73911","Beriwit, Kec. Murung, Kabupaten Murung Raya",KALIMANTAN TENGAH,73911.0,Indonesia,81289089880.0,,,-0.6274382,114.5681157,https://maps.google.com/?cid=0x0:0xf9d58e7b30fc937e,
cafe,Kedai Kopi,Warung Ala-ala,"Jl. Ahmad Yani No.129 RT01, RW.III, Beriwit, Kec. Murung, Kabupaten Murung Raya, Kalimantan Tengah 73911","RW.III, Beriwit, Kec. Murung, Kabupaten Murung Raya",KALIMANTAN TENGAH,73911.0,Indonesia,85754799666.0,,,-0.6306724,114.5673157,https://maps.google.com/?cid=0x0:0x312b96eb268bacb2,
cafe,Kafe,Kedai Twenty Six,"8HVM+W2W, Danau Usung, Kec. Murung, Kabupaten Murung Raya, Kalimantan Tengah 73911","Danau Usung, Kec. Murung, Kabupaten Murung Raya",KALIMANTAN TENGAH,73911.0,Indonesia,82352224010.0,,,-0.6551313,114.5825876,https://maps.google.com/?cid=0x0:0xf05d09a341361567,
cafe,Jawa,Abdul Halim Cafe,"9HHF+XP7, Beriwit, Kec. Murung, Kabupaten Murung Raya, Kalimantan Tengah 73911","Beriwit, Kec. Murung, Kabupaten Murung Raya",KALIMANTAN TENGAH,73911.0,Indonesia,81549755269.0,,,-0.6200834,114.5743021,https://maps.google.com/?cid=0x0:0x463855114fbb66bc,
cafe,Dapur Umum,Dapoer GESYADEVA,"RT.01, Tumbang Lahung, Kec. Permata Intan, Kabupaten Murung Raya, Kalimantan Tengah 73971","Tumbang Lahung, Kec. Permata Intan, Kabupaten Murung Raya",KALIMANTAN TENGAH,73971.0,Indonesia,81257764280.0,,,-0.6822577,114.2925424,https://maps.google.com/?cid=0x0:0x51cce644ebc4feaf,
cafe,Restoran,Cafe MR.03,"Jl. Ahmad Yani, Beriwit, Kec. Murung, Kabupaten Murung Raya, Kalimantan Tengah 73911","Beriwit, Kec. Murung, Kabupaten Murung Raya",KALIMANTAN TENGAH,73911.0,Indonesia,82154558872.0,,,-0.6397142,114.5640802,https://maps.google.com/?cid=0x0:0x5a187769215b45e,
cafe,Restoran,Pondok CS Barito,"8HVM+JC6, Jalan Jendral Sudirman (depan pos polisi) jembatan merdeka, Bahitom, Kec. Murung, Kabupaten Murung Raya, Kalimantan Tengah 73911","Jalan Jendral Sudirman (depan pos polisi) jembatan merdeka, Bahitom, Kec. Murung, Kabupaten Murung Raya",KALIMANTAN TENGAH,73911.0,Indonesia,81347455656.0,,,-0.6559719,114.5835239,https://maps.google.com/?cid=0x0:0x247da2bb575d9517,
cafe,Dapur Umum,Risma Yanti,"Beriwit, Kec. Murung, Kabupaten Murung Raya, Kalimantan Tengah 73911","Kec. Murung, Kabupaten Murung Raya",KALIMANTAN TENGAH,73911.0,Indonesia,8164532758.0,,,-0.6103094,114.5686522,https://maps.google.com/?cid=0x0:0xd73e090a88d81a01,
cafe,Kedai Kopi,Bloc Bee Coffee,"Jl. Kolonel Katamso Blok B Respen No.08, Puruk Cahu, Kec. Murung, Kabupaten Murung Raya, Kalimantan Tengah 73911","Puruk Cahu, Kec. Murung, Kabupaten Murung Raya",KALIMANTAN TENGAH,73911.0,Indonesia,81349820464.0,,,-0.6523765,114.5707569,https://maps.google.com/?cid=0x0:0xae9fe43c1f2776b5,
cafe,Makanan Kecil,Intan Cafe Cilandak,"Jl. Intan RSPP Utara No.08 Kav C, RT.7/RW.8, Cilandak Bar., Kec. Cilandak, Kota Jakarta Selatan, Daerah Khusus Ibukota Jakarta 12430","RT.7/RW.8, Cilandak Bar., Kec. Cilandak, Kota Jakarta Selatan",KALIMANTAN TENGAH,12430.0,Indonesia,89514559090.0,,,-6.2951494,106.7989228,https://maps.google.com/?cid=0x0:0xbbb6c9bf43bf779f,
cafe,Kafe,Intan Permata,"R387+53Q, Srimukti, Kec. Tambun Utara, Kabupaten Bekasi, Jawa Barat 17510","Srimukti, Kec. Tambun Utara, Kabupaten Bekasi",KALIMANTAN TENGAH,17510.0,Indonesia,82123000363.0,,,-6.1845298,107.0627299,https://maps.google.com/?cid=0x0:0x39b8552e35b2f3cd,
cafe,Kedai Kopi,Kopitagram - Cinere,"Jl. Jawa No.182 Blok H, Cinere, Kec. Cinere, Kota Depok, Jawa Barat 16514","Cinere, Kec. Cinere, Kota Depok",KALIMANTAN TENGAH,16514.0,Indonesia,,,,-6.349652,106.7785577,https://maps.google.com/?cid=0x0:0x33ddf6f80cbd3fda,
cafe,Kafe,KAFE INTAN,"Jl. Karya No.2 5, RT.5/RW.1, Kp. Tengah, Kec. Kramat jati, Kota Jakarta Timur, Daerah Khusus Ibukota Jakarta 13540","RT.5/RW.1, Kp. Tengah, Kec. Kramat jati, Kota Jakarta Timur",KALIMANTAN TENGAH,13540.0,Indonesia,,,,-6.290783,106.8711071,https://maps.google.com/?cid=0x0:0x24ee27646a0ff901,
cafe,Pemasok makanan dan minuman katering,Ohana Cafe and Kitchen,"Jl. Intan No.8B, RT.7/RW.2, Cilandak Bar., Kec. Cilandak, Kota Jakarta Selatan, Daerah Khusus Ibukota Jakarta 12430","RT.7/RW.2, Cilandak Bar., Kec. Cilandak, Kota Jakarta Selatan",KALIMANTAN TENGAH,12430.0,Indonesia,2127841863.0,,,-6.2935495,106.800662,https://maps.google.com/?cid=0x0:0x91d0c75713cfa668,
cafe,cafe,Kopte Tarik,"Jl. Ahmad Yani No.89, Beriwit, Kec. Murung, Kabupaten Murung Raya, Kalimantan Tengah 73911","Beriwit, Kec. Murung, Kabupaten Murung Raya",KALIMANTAN TENGAH,73911.0,Indonesia,82298109627.0,,,-0.6268858,114.5684311,https://maps.google.com/?cid=0x0:0x4199599c7b5d7fd1,
cafe,Kedai Kopi,Kopitagram - Tomang,"Jl. Kasturi No.22, RT.8/RW.1, Jatipulo, Kec. Palmerah, Kota Jakarta Barat, Daerah Khusus Ibukota Jakarta 11430","RT.8/RW.1, Jatipulo, Kec. Palmerah, Kota Jakarta Barat",KALIMANTAN TENGAH,11430.0,Indonesia,,,,-6.1792196,106.8009981,https://maps.google.com/?cid=0x0:0x2d1137ace4a30d68,
cafe,Kafe,Cafe Ponny,"Jl. Gusti Permata 2 No.38 3, RT.3/RW.14, Pejagalan, Kec. Penjaringan, Jkt Utara, Daerah Khusus Ibukota Jakarta 14450","RT.3/RW.14, Pejagalan, Kec. Penjaringan, Jkt Utara",KALIMANTAN TENGAH,14450.0,Indonesia,,,,-6.1433894,106.7797521,https://maps.google.com/?cid=0x0:0x27366933fe8555f6,
cafe,Kedai Kopi,Cafe Bulbin,"Jl. Gusti Permata 1 No.15 1, RT.3/RW.14, Pejagalan, Kec. Penjaringan, Jkt Utara, Daerah Khusus Ibukota Jakarta 14450","RT.3/RW.14, Pejagalan, Kec. Penjaringan, Jkt Utara",KALIMANTAN TENGAH,14450.0,Indonesia,,,,-6.1436008,106.7797683,https://maps.google.com/?cid=0x0:0xf248a6e66c0743a,
cafe,cafe,Kalimantan Tengah 73981,"Kabupaten Murung Raya, Kalimantan Tengah","Kabupaten Murung Raya, Kalimantan Tengah",KALIMANTAN TENGAH,,Indonesia,,,,0.1366232,113.9536466,https://maps.google.com/?cid=0x0:0xb765502d3651aeca,
cafe,Kedai Kopi,De'Laluna Cafe,"8HX9+7PF, Alun Alun, Murung, Murung Raya Regency, Central Kalimantan 73911","Alun Alun, Murung, Murung Raya Regency",KALIMANTAN TENGAH,73911.0,Indonesia,81348038329.0,,,-0.6518204,114.5693062,https://maps.google.com/?cid=0x0:0xaac675d3c42731bd,
cafe,Kedai Kopi,Profit cafe,"876W+4Q2, Tumbang Lahung, Kec. Permata Intan, Kabupaten Murung Raya, Kalimantan Tengah 73971","Tumbang Lahung, Kec. Permata Intan, Kabupaten Murung Raya",KALIMANTAN TENGAH,73971.0,Indonesia,81255618544.0,,,-0.690515,114.2969533,https://maps.google.com/?cid=0x0:0x90839b275c4f0f8d,
cafe,Restoran,Milos eatery cafe,"Beriwit, Kec. Murung, Kabupaten Murung Raya, Kalimantan Tengah 73911","Kec. Murung, Kabupaten Murung Raya",KALIMANTAN TENGAH,73911.0,Indonesia,82153544136.0,,,-0.6415625,114.5674375,https://maps.google.com/?cid=0x0:0x420e5f8d3f164c31,
cafe,Kafe,Youmi Cafe,"Jl. Jend. Sudirman, Puruk Cahu, Kec. Murung, Kabupaten Murung Raya, Kalimantan Tengah 73911","Puruk Cahu, Kec. Murung, Kabupaten Murung Raya",KALIMANTAN TENGAH,73911.0,Indonesia,85752750534.0,,,-0.6512582,114.5707106,https://maps.google.com/?cid=0x0:0xae851155737e8d45,
cafe,Restoran,Cafe MR.03,"Jl. Ahmad Yani, Beriwit, Kec. Murung, Kabupaten Murung Raya, Kalimantan Tengah 73911","Beriwit, Kec. Murung, Kabupaten Murung Raya",KALIMANTAN TENGAH,73911.0,Indonesia,82154558872.0,,,-0.6397142,114.5640802,https://maps.google.com/?cid=0x0:0x5a187769215b45e,
cafe,Kedai Kopi,Sabar Menanti,"8CMQ+R26, Dirung Lingkin, Tanah Siang Sel., Kabupaten Murung Raya, Kalimantan Tengah 73971","Dirung Lingkin, Tanah Siang Sel., Kabupaten Murung Raya",KALIMANTAN TENGAH,73971.0,Indonesia,,,,-0.6654535,114.4375275,https://maps.google.com/?cid=0x0:0x3e9ae5822cf67660,
cafe,Kedai Kopi,Kupi ETO,"Jl. Lintas Kalimantan Poros Tengah, Puruk Cahu, Kec. Murung, Kabupaten Murung Raya, Kalimantan Tengah 73911","Puruk Cahu, Kec. Murung, Kabupaten Murung Raya",KALIMANTAN TENGAH,73911.0,Indonesia,82239135557.0,,,-0.6498765,114.5724467,https://maps.google.com/?cid=0x0:0xfb73b3b27ffa8122,
cafe,Kedai Kopi,Warung Ala-ala,"Jl. Ahmad Yani No.129 RT01, RW.III, Beriwit, Kec. Murung, Kabupaten Murung Raya, Kalimantan Tengah 73911","RW.III, Beriwit, Kec. Murung, Kabupaten Murung Raya",KALIMANTAN TENGAH,73911.0,Indonesia,85754799666.0,,,-0.6306724,114.5673157,https://maps.google.com/?cid=0x0:0x312b96eb268bacb2,
cafe,cafe,Rumah makan putri punan,"Tumbang Olong, 2, Kabupaten Murung Raya, Kalimantan Tengah","Kabupaten Murung Raya, Kalimantan Tengah",KALIMANTAN TENGAH,,Indonesia,87810717049.0,,,-0.0068114,114.3270535,https://maps.google.com/?cid=0x0:0x825aa18752aacb3b,
cafe,Kedai Kopi,KING CAFE,"9HGC+3M7, Jl. M. T Haryono, Beriwit, Kec. Murung, Kabupaten Murung Raya, Kalimantan Tengah 73911","Jl. M. T Haryono, Beriwit, Kec. Murung, Kabupaten Murung Raya",KALIMANTAN TENGAH,73911.0,Indonesia,81256258148.0,,,-0.6248376,114.5716792,https://maps.google.com/?cid=0x0:0x6a99a43cade01a43,
cafe,Restoran,Twenty Five Cafe,"8HV5+WPP, Jl. Lintas Kalimantan Poros Tengah, Beriwit, Tanah Siang Sel., Kabupaten Murung Raya, Kalimantan Tengah 73911","Jl. Lintas Kalimantan Poros Tengah, Beriwit, Tanah Siang Sel., Kabupaten Murung Raya",KALIMANTAN TENGAH,73911.0,Indonesia,,,,-0.6551516,114.5593132,https://maps.google.com/?cid=0x0:0x65cf33184188f235,
cafe,cafe,Warung sate bang tolib,"JM36+QCM, Tumbang Naan, Seribu Riam, Kabupaten Murung Raya, Kalimantan Tengah","Kabupaten Murung Raya, Kalimantan Tengah",KALIMANTAN TENGAH,,Indonesia,,,,-0.3955389,113.6610438,https://maps.google.com/?cid=0x0:0x6739e0bf05a2bd89,
cafe,Kedai Kopi,Warkop simpang PU,"9H88+4H9, Beriwit, Kec. Murung, Kabupaten Murung Raya, Kalimantan Tengah 73911","Beriwit, Kec. Murung, Kabupaten Murung Raya",KALIMANTAN TENGAH,73911.0,Indonesia,85732270205.0,,,-0.6347198,114.5664234,https://maps.google.com/?cid=0x0:0x5cd7407e3057bf43,
cafe,Kafe,Kedai Twenty Six,"8HVM+W2W, Danau Usung, Kec. Murung, Kabupaten Murung Raya, Kalimantan Tengah 73911","Danau Usung, Kec. Murung, Kabupaten Murung Raya",KALIMANTAN TENGAH,73911.0,Indonesia,82352224010.0,,,-0.6551313,114.5825876,https://maps.google.com/?cid=0x0:0xf05d09a341361567,
cafe,Indonesia,CORY,"8HR3+GHF, Puruk Cahu, Beriwit, Kec. Murung, Kabupaten Murung Raya, Kalimantan Tengah 73911","Puruk Cahu, Beriwit, Kec. Murung, Kabupaten Murung Raya",KALIMANTAN TENGAH,73911.0,Indonesia,81649787972.0,,,-0.6586948,114.5539299,https://maps.google.com/?cid=0x0:0x9fdb0ecf12054eb4,
cafe,Kedai Kopi,Gresik,"6W6C+7GP, Sei Pinang, Mandau Talawang, Kabupaten Kapuas, Kalimantan Tengah","Kabupaten Kapuas, Kalimantan Tengah",KALIMANTAN TENGAH,,Indonesia,82219937745.0,,,-0.789275,113.921327,https://maps.google.com/?cid=0x0:0x6f71add794e436d,
cafe,Kedai Kopi,Khatulistiwa Kopi,"Jl. Ahmad Yani, Beriwit, Kec. Murung, Kabupaten Murung Raya, Kalimantan Tengah 73911","Beriwit, Kec. Murung, Kabupaten Murung Raya",KALIMANTAN TENGAH,73911.0,Indonesia,81289089880.0,,,-0.6274382,114.5681157,https://maps.google.com/?cid=0x0:0xf9d58e7b30fc937e,
cafe,cafe,Rumah Kopi Pahari,"Jl. Tambang PT.IMK Arah menuju Kota No.KM 04, Dirung Lingkin, Tanah Siang Sel., Kabupaten Murung Raya, Kalimantan Tengah 73971","Dirung Lingkin, Tanah Siang Sel., Kabupaten Murung Raya",KALIMANTAN TENGAH,73971.0,Indonesia,85386342861.0,,,-0.6771516,114.4562394,https://maps.google.com/?cid=0x0:0x22e4a8fae888c131,
cafe,Kedai Kopi,Huma Kurik,"9H98+J87, Beriwit, Kec. Murung, Kabupaten Murung Raya, Kalimantan Tengah 73911","Beriwit, Kec. Murung, Kabupaten Murung Raya",KALIMANTAN TENGAH,73911.0,Indonesia,82358840959.0,,,-0.6309735,114.5658098,https://maps.google.com/?cid=0x0:0xd24c0a66bb8526d6,
cafe,Makanan Kecil,Warung naya,"874W+QGM, Tumbang Lahung, Kec. Permata Intan, Kabupaten Murung Raya, Kalimantan Tengah 73971","Tumbang Lahung, Kec. Permata Intan, Kabupaten Murung Raya",KALIMANTAN TENGAH,73971.0,Indonesia,,,,-0.6930445,114.2963025,https://maps.google.com/?cid=0x0:0x59c30c3a358127ac,
cafe,Kafe,Saudade.home,"9H68+V49, Beriwit, Kec. Murung, Kabupaten Murung Raya, Kalimantan Tengah 73911","Beriwit, Kec. Murung, Kabupaten Murung Raya",KALIMANTAN TENGAH,73911.0,Indonesia,,,,-0.6378392,114.5653485,https://maps.google.com/?cid=0x0:0x7b4c0e9ca1ac5638,
cafe,cafe,Nasi Padang Simpang Tigo Kalimantan,"MR6V+X5J, Tanjunglokang, Kec. Hulu Kapuas, Kabupaten Kapuas Hulu, Kalimantan Barat 78752","Tanjunglokang, Kec. Hulu Kapuas, Kabupaten Kapuas Hulu",KALIMANTAN TENGAH,78752.0,Indonesia,,,,0.6624512,113.8428809,https://maps.google.com/?cid=0x0:0x39aac94382043e87,
cafe,cafe,Sumber Barito,"Kabupaten Murung Raya, Kalimantan Tengah","Kabupaten Murung Raya, Kalimantan Tengah",KALIMANTAN TENGAH,,Indonesia,,,,-0.341791,114.2390498,https://maps.google.com/?cid=0x0:0xdb7aed4b9b946c56,
cafe,Brunch,Warung mama chandra masao,"G663+P9C, Tumbang Masao, Sumber Barito, Kabupaten Murung Raya, Kalimantan Tengah","Kabupaten Murung Raya, Kalimantan Tengah",KALIMANTAN TENGAH,,Indonesia,,,,-0.4881886,114.2033843,https://maps.google.com/?cid=0x0:0x394a31ae639a8971,
cafe,Brunch,Warung Mama Anton,"Jalan PT.BORNEO PRIMA No.KM.66, Tumbang Apat, Kec. Tanah Siang, Kabupaten Murung Raya, Kalimantan Tengah","Kabupaten Murung Raya, Kalimantan Tengah",KALIMANTAN TENGAH,,Indonesia,,,,-0.3991675,114.4046417,https://maps.google.com/?cid=0x0:0xadcb94d1adf9c4e0,
cafe,Kedai Kopi,Profit cafe,"876W+4Q2, Tumbang Lahung, Kec. Permata Intan, Kabupaten Murung Raya, Kalimantan Tengah 73971","Tumbang Lahung, Kec. Permata Intan, Kabupaten Murung Raya",KALIMANTAN TENGAH,73971.0,Indonesia,81255618544.0,,,-0.690515,114.2969533,https://maps.google.com/?cid=0x0:0x90839b275c4f0f8d,
cafe,Restoran,TALA COFFEE AND EATERY,"2VWP+H5, Lanjas, Kec. Teweh Tengah, Kabupaten Barito Utara, Kalimantan Tengah","Kabupaten Barito Utara, Kalimantan Tengah",KALIMANTAN TENGAH,,Indonesia,,,,-0.9535925,114.8854631,https://maps.google.com/?cid=0x0:0x4b74965aec5eef7e,
cafe,Kedai Kopi,Lorong Tengah,"2VPQ+Q89, Lanjas, Kec. Teweh Tengah, Kabupaten Barito Utara, Kalimantan Tengah 73814","Lanjas, Kec. Teweh Tengah, Kabupaten Barito Utara",KALIMANTAN TENGAH,73814.0,Indonesia,,,,-0.9630757,114.8883533,https://maps.google.com/?cid=0x0:0xaf7bc34a0fc8fc92,
cafe,Kedai Kopi,Sabar Menanti,"8CMQ+R26, Dirung Lingkin, Tanah Siang Sel., Kabupaten Murung Raya, Kalimantan Tengah 73971","Dirung Lingkin, Tanah Siang Sel., Kabupaten Murung Raya",KALIMANTAN TENGAH,73971.0,Indonesia,,,,-0.6654535,114.4375275,https://maps.google.com/?cid=0x0:0x3e9ae5822cf67660,
cafe,Restoran,Cafe MR.03,"Jl. Ahmad Yani, Beriwit, Kec. Murung, Kabupaten Murung Raya, Kalimantan Tengah 73911","Beriwit, Kec. Murung, Kabupaten Murung Raya",KALIMANTAN TENGAH,73911.0,Indonesia,82154558872.0,,,-0.6397142,114.5640802,https://maps.google.com/?cid=0x0:0x5a187769215b45e,
cafe,Restoran,"Cafe Tarera, Muara Teweh","3V4W+64W, Lanjas, Kec. Teweh Tengah, Kabupaten Barito Utara, Kalimantan Tengah 73814","Lanjas, Kec. Teweh Tengah, Kabupaten Barito Utara",KALIMANTAN TENGAH,73814.0,Indonesia,81351980533.0,,,-0.9443919,114.8953284,https://maps.google.com/?cid=0x0:0x53cec34a1f33c002,
cafe,Kafe,Ps Cafe  Resto,"Jl. Pramuka, Lanjas, Kec. Teweh Tengah, Kabupaten Barito Utara, Kalimantan Tengah 73814","Lanjas, Kec. Teweh Tengah, Kabupaten Barito Utara",KALIMANTAN TENGAH,73814.0,Indonesia,81289502305.0,,,-0.94636,114.8977386,https://maps.google.com/?cid=0x0:0x1167b90d45d90702,
cafe,Kafe,Maynd,"2VQR+8XQ, Jl. Yetro Sinseng, Lanjas, Kec. Teweh Tengah, Kabupaten Barito Utara, Kalimantan Tengah 73814","Jl. Yetro Sinseng, Lanjas, Kec. Teweh Tengah, Kabupaten Barito Utara",KALIMANTAN TENGAH,73814.0,Indonesia,51921819.0,,,-0.9616636,114.8924808,https://maps.google.com/?cid=0x0:0x8ff93b004e93333,
cafe,Makanan Kecil,Warung naya,"874W+QGM, Tumbang Lahung, Kec. Permata Intan, Kabupaten Murung Raya, Kalimantan Tengah 73971","Tumbang Lahung, Kec. Permata Intan, Kabupaten Murung Raya",KALIMANTAN TENGAH,73971.0,Indonesia,,,,-0.6930445,114.2963025,https://maps.google.com/?cid=0x0:0x59c30c3a358127ac,
cafe,Kedai Kopi,De'Laluna Cafe,"8HX9+7PF, Alun Alun, Murung, Murung Raya Regency, Central Kalimantan 73911","Alun Alun, Murung, Murung Raya Regency",KALIMANTAN TENGAH,73911.0,Indonesia,81348038329.0,,,-0.6518204,114.5693062,https://maps.google.com/?cid=0x0:0xaac675d3c42731bd,
cafe,Kedai Kopi,"Jakarta Coffee and Space, Muara Teweh","Jalan Taman Rekreasi Remaja, Lanjas, Kec. Teweh Tengah, Kabupaten Barito Utara, Kalimantan Tengah 73812","Lanjas, Kec. Teweh Tengah, Kabupaten Barito Utara",KALIMANTAN TENGAH,73812.0,Indonesia,82352301911.0,,,-0.9445481,114.8956042,https://maps.google.com/?cid=0x0:0x639505783a809af7,
cafe,Kedai Kopi,Evonkelv Coffee,"2WV3+QVR, Jl. Imam Bonjol, Melayu, Kec. Teweh Tengah, Kabupaten Barito Utara, Kalimantan Tengah 73814","Jl. Imam Bonjol, Melayu, Kec. Teweh Tengah, Kabupaten Barito Utara",KALIMANTAN TENGAH,73814.0,Indonesia,,,,-0.9555008,114.9046303,https://maps.google.com/?cid=0x0:0x4ba5c97fa33f330e,
cafe,Restoran,Pondok CS Barito,"8HVM+JC6, Jalan Jendral Sudirman (depan pos polisi) jembatan merdeka, Bahitom, Kec. Murung, Kabupaten Murung Raya, Kalimantan Tengah 73911","Jalan Jendral Sudirman (depan pos polisi) jembatan merdeka, Bahitom, Kec. Murung, Kabupaten Murung Raya",KALIMANTAN TENGAH,73911.0,Indonesia,81347455656.0,,,-0.6559719,114.5835239,https://maps.google.com/?cid=0x0:0x247da2bb575d9517,
cafe,Kedai Kopi,Kupi ETO,"Jl. Lintas Kalimantan Poros Tengah, Puruk Cahu, Kec. Murung, Kabupaten Murung Raya, Kalimantan Tengah 73911","Puruk Cahu, Kec. Murung, Kabupaten Murung Raya",KALIMANTAN TENGAH,73911.0,Indonesia,82239135557.0,,,-0.6498765,114.5724467,https://maps.google.com/?cid=0x0:0xfb73b3b27ffa8122,
cafe,Kedai Kopi,Barito raya coffee (BARAYA),"Jl. Veteran No.111, Marabahan Kota, Kec. Marabahan, Kabupaten Barito Kuala, Kalimantan Selatan 70511","Marabahan Kota, Kec. Marabahan, Kabupaten Barito Kuala",KALIMANTAN TENGAH,70511.0,Indonesia,82157446969.0,,,-2.9844346,114.7715757,https://maps.google.com/?cid=0x0:0x9424476701b33e42,
cafe,Bakso,Warung Bu Sri km 4,"Warung Jawa Bu sri km4, Dirung Lingkin, Tanah Siang Sel., Kabupaten Murung Raya, Kalimantan Tengah 73971","Dirung Lingkin, Tanah Siang Sel., Kabupaten Murung Raya",KALIMANTAN TENGAH,73971.0,Indonesia,82223067453.0,,,-0.6800129,114.4561863,https://maps.google.com/?cid=0x0:0x95de08ba22f05092,
cafe,Kafe,Cafe Rama Sinta Joss,"8HX8+3FR, Beriwit, Kec. Murung, Kabupaten Murung Raya, Kalimantan Tengah 73911","Beriwit, Kec. Murung, Kabupaten Murung Raya",KALIMANTAN TENGAH,73911.0,Indonesia,,,,-0.6512945,114.5664542,https://maps.google.com/?cid=0x0:0x23b4d18d9bd8593a,
cafe,Kedai Kopi,Kopi Itah,"Jl. Taman Remaja, Lanjas, Kec. Teweh Tengah, Kabupaten Barito Utara, Kalimantan Tengah 73811","Lanjas, Kec. Teweh Tengah, Kabupaten Barito Utara",KALIMANTAN TENGAH,73811.0,Indonesia,81347413342.0,,,-0.9438474,114.8914641,https://maps.google.com/?cid=0x0:0x82efe99234d63c1e,
cafe,Kedai Kopi,Juragan Kopi,"Jl. Ahmad Yani, Melayu, Kec. Teweh Tengah, Kabupaten Barito Utara, Kalimantan Tengah 73814","Melayu, Kec. Teweh Tengah, Kabupaten Barito Utara",KALIMANTAN TENGAH,73814.0,Indonesia,82148843333.0,,,-0.9601249,114.8970241,https://maps.google.com/?cid=0x0:0xd3ca69f1e73b73f4,
cafe,Kafe,Youmi Cafe,"Jl. Jend. Sudirman, Puruk Cahu, Kec. Murung, Kabupaten Murung Raya, Kalimantan Tengah 73911","Puruk Cahu, Kec. Murung, Kabupaten Murung Raya",KALIMANTAN TENGAH,73911.0,Indonesia,85752750534.0,,,-0.6512582,114.5707106,https://maps.google.com/?cid=0x0:0xae851155737e8d45,
cafe,Restoran,Milos eatery cafe,"Beriwit, Kec. Murung, Kabupaten Murung Raya, Kalimantan Tengah 73911","Kec. Murung, Kabupaten Murung Raya",KALIMANTAN TENGAH,73911.0,Indonesia,82153544136.0,,,-0.6415625,114.5674375,https://maps.google.com/?cid=0x0:0x420e5f8d3f164c31,
cafe,Makanan Kecil,Warung amang isuer,"2QC9+99H, Marabahan Kota, Kec. Marabahan, Kabupaten Barito Kuala, Kalimantan Selatan 70513","Marabahan Kota, Kec. Marabahan, Kabupaten Barito Kuala",KALIMANTAN TENGAH,70513.0,Indonesia,85347139119.0,,,-2.9790535,114.7684764,https://maps.google.com/?cid=0x0:0xdc9b114954d8fe96,
cafe,cafe,Kec. Sungai Babuat,"Kabupaten Murung Raya, Kalimantan Tengah","Kabupaten Murung Raya, Kalimantan Tengah",KALIMANTAN TENGAH,,Indonesia,,,,-0.5790762,114.3152452,https://maps.google.com/?cid=0x0:0xd1427b5a363a47e7,
cafe,Kedai Kopi,Sabar Menanti,"8CMQ+R26, Dirung Lingkin, Tanah Siang Sel., Kabupaten Murung Raya, Kalimantan Tengah 73971","Dirung Lingkin, Tanah Siang Sel., Kabupaten Murung Raya",KALIMANTAN TENGAH,73971.0,Indonesia,,,,-0.6654535,114.4375275,https://maps.google.com/?cid=0x0:0x3e9ae5822cf67660,
cafe,Restoran,Warung makan km45,"HCGJ+JW, Tumbang Apat, Kec. Sungai Babuat, Kabupaten Murung Raya, Kalimantan Tengah","Kabupaten Murung Raya, Kalimantan Tengah",KALIMANTAN TENGAH,,Indonesia,,,,-0.423408,114.432298,https://maps.google.com/?cid=0x0:0xa08f5ae3a31941cd,
cafe,Restoran,Twenty Five Cafe,"8HV5+WPP, Jl. Lintas Kalimantan Poros Tengah, Beriwit, Tanah Siang Sel., Kabupaten Murung Raya, Kalimantan Tengah 73911","Jl. Lintas Kalimantan Poros Tengah, Beriwit, Tanah Siang Sel., Kabupaten Murung Raya",KALIMANTAN TENGAH,73911.0,Indonesia,,,,-0.6551516,114.5593132,https://maps.google.com/?cid=0x0:0x65cf33184188f235,
cafe,cafe,Kalimantan Tengah 73961,"Kabupaten Murung Raya, Kalimantan Tengah","Kabupaten Murung Raya, Kalimantan Tengah",KALIMANTAN TENGAH,,Indonesia,,,,-0.1700332,114.5717799,https://maps.google.com/?cid=0x0:0x228b161e8a06fd62,
cafe,Kedai Kopi,De'Laluna Cafe,"8HX9+7PF, Alun Alun, Murung, Murung Raya Regency, Central Kalimantan 73911","Alun Alun, Murung, Murung Raya Regency",KALIMANTAN TENGAH,73911.0,Indonesia,81348038329.0,,,-0.6518204,114.5693062,https://maps.google.com/?cid=0x0:0xaac675d3c42731bd,
cafe,Nasi,Warung makan mama aldi,"FFXX+X3, Olong Ulu, Kec. Tanah Siang, Kabupaten Murung Raya, Kalimantan Tengah","Kabupaten Murung Raya, Kalimantan Tengah",KALIMANTAN TENGAH,,Indonesia,,,,-0.500072,114.497719,https://maps.google.com/?cid=0x0:0xba6fd199d53406dd,
cafe,Mi,Paman bakso mbotung,"V87M+GMJ, Tumbang Olong, Uut Murung, Kabupaten Murung Raya, Kalimantan Tengah","Kabupaten Murung Raya, Kalimantan Tengah",KALIMANTAN TENGAH,,Indonesia,,,,-0.1361706,114.3341428,https://maps.google.com/?cid=0x0:0xa63b30b0f37b30ad,
cafe,Nasi,Warung Makan Rica-rica,"Unnamed Road, 73991, Liang Nyaling, Kec. Barito Tuhup Raya, Kabupaten Murung Raya, Kalimantan Tengah 73991","73991, Liang Nyaling, Kec. Barito Tuhup Raya, Kabupaten Murung Raya",KALIMANTAN TENGAH,73991.0,Indonesia,81320444489.0,,,-0.4119465,114.8879838,https://maps.google.com/?cid=0x0:0x36c0ddc24d07d1e8,
cafe,Brunch,Warung Makan Candurasa,"JPGQ+7X, Muara Maruwei I, Kec. Laung Tuhup, Kabupaten Murung Raya, Kalimantan Tengah 73991","Muara Maruwei I, Kec. Laung Tuhup, Kabupaten Murung Raya",KALIMANTAN TENGAH,73991.0,Indonesia,,,,-0.3743086,114.7400796,https://maps.google.com/?cid=0x0:0x78c8377da675b782,
cafe,Brunch,Warung Mama Anton,"Jalan PT.BORNEO PRIMA No.KM.66, Tumbang Apat, Kec. Tanah Siang, Kabupaten Murung Raya, Kalimantan Tengah","Kabupaten Murung Raya, Kalimantan Tengah",KALIMANTAN TENGAH,,Indonesia,,,,-0.3991675,114.4046417,https://maps.google.com/?cid=0x0:0xadcb94d1adf9c4e0,
cafe,Kedai Kopi,Nuansa cafe,"Jl. Manunggal No.1, Tamiang Layang, Kec. Dusun Tim., Kabupaten Barito Timur, Kalimantan Tengah 73671","Tamiang Layang, Kec. Dusun Tim., Kabupaten Barito Timur",KALIMANTAN TENGAH,73671.0,Indonesia,811510672.0,,,-2.1147712,115.1651959,https://maps.google.com/?cid=0x0:0x90c577f03b75f443,
cafe,Kafe,de GRAND Cafe n Resto,"Jl. Ir. Pangeran Haji Muhammad Nur No.25, Barabai Tim., Kec. Barabai, Kabupaten Hulu Sungai Tengah, Kalimantan Selatan 71315","Barabai Tim., Kec. Barabai, Kabupaten Hulu Sungai Tengah",KALIMANTAN TENGAH,71315.0,Indonesia,85248871716.0,,,-2.5817676,115.3854822,https://maps.google.com/?cid=0x0:0xc0191a8cf01c8365,
cafe,cafe,Rumah makan putri punan,"Tumbang Olong, 2, Kabupaten Murung Raya, Kalimantan Tengah","Kabupaten Murung Raya, Kalimantan Tengah",KALIMANTAN TENGAH,,Indonesia,87810717049.0,,,-0.0068114,114.3270535,https://maps.google.com/?cid=0x0:0x825aa18752aacb3b,
cafe,Restoran,Warung Makan Mbak Asih,"HVQP+RG, Km 34, Liang Nyaling, Kec. Barito Tuhup Raya, Kabupaten Murung Raya, Kalimantan Tengah","Kabupaten Murung Raya, Kalimantan Tengah",KALIMANTAN TENGAH,,Indonesia,82135309090.0,,,-0.4104284,114.8863716,https://maps.google.com/?cid=0x0:0x2a3000d2dbe52f72,
cafe,Restoran,Milos eatery cafe,"Beriwit, Kec. Murung, Kabupaten Murung Raya, Kalimantan Tengah 73911","Kec. Murung, Kabupaten Murung Raya",KALIMANTAN TENGAH,73911.0,Indonesia,82153544136.0,,,-0.6415625,114.5674375,https://maps.google.com/?cid=0x0:0x420e5f8d3f164c31,
cafe,Restoran,Cafe MR.03,"Jl. Ahmad Yani, Beriwit, Kec. Murung, Kabupaten Murung Raya, Kalimantan Tengah 73911","Beriwit, Kec. Murung, Kabupaten Murung Raya",KALIMANTAN TENGAH,73911.0,Indonesia,82154558872.0,,,-0.6397142,114.5640802,https://maps.google.com/?cid=0x0:0x5a187769215b45e,
cafe,Nasi,Warung makan Parahiyangan,"HVCX+2J6, Unnamed Road, Dirung Sararong, Kec. Barito Tuhup Raya, Kabupaten Murung Raya, Kalimantan Tengah 73991","Unnamed Road, Dirung Sararong, Kec. Barito Tuhup Raya, Kabupaten Murung Raya",KALIMANTAN TENGAH,73991.0,Indonesia,81320444489.0,,,-0.4299694,114.899011,https://maps.google.com/?cid=0x0:0x165a8281eefe4555,
cafe,Kedai Kopi,Cecemuwe Cafe and Space - Senayan,"Jl. Hang Jebat IX No.6, RT.8/RW.4, Gunung, Kec. Kby. Baru, Kota Jakarta Selatan, Daerah Khusus Ibukota Jakarta 12120","RT.8/RW.4, Gunung, Kec. Kby. Baru, Kota Jakarta Selatan",KALIMANTAN TENGAH,12120.0,Indonesia,81283388128.0,,,-6.2361351,106.7933281,https://maps.google.com/?cid=0x0:0x2102ba34ce032fe,
cafe,Kafe,Youmi Cafe,"Jl. Jend. Sudirman, Puruk Cahu, Kec. Murung, Kabupaten Murung Raya, Kalimantan Tengah 73911","Puruk Cahu, Kec. Murung, Kabupaten Murung Raya",KALIMANTAN TENGAH,73911.0,Indonesia,85752750534.0,,,-0.6512582,114.5707106,https://maps.google.com/?cid=0x0:0xae851155737e8d45,
cafe,Nasi,Rumah Makan SAMA ITO,"HV9X+X38, Kohong, Kec. Barito Tuhup Raya, Kabupaten Murung Raya, Kalimantan Tengah 73991","Kohong, Kec. Barito Tuhup Raya, Kabupaten Murung Raya",KALIMANTAN TENGAH,73991.0,Indonesia,81351759533.0,,,-0.4302649,114.8966553,https://maps.google.com/?cid=0x0:0xb6c79b48a4fd085e,
cafe,Restoran,Warung makan km45,"HCGJ+JW, Tumbang Apat, Kec. Sungai Babuat, Kabupaten Murung Raya, Kalimantan Tengah","Kabupaten Murung Raya, Kalimantan Tengah",KALIMANTAN TENGAH,,Indonesia,,,,-0.423408,114.432298,https://maps.google.com/?cid=0x0:0xa08f5ae3a31941cd,
cafe,cafe,Tanah Siang Sel.,"Kabupaten Murung Raya, Kalimantan Tengah","Kabupaten Murung Raya, Kalimantan Tengah",KALIMANTAN TENGAH,,Indonesia,,,,-0.6787755,114.4533539,https://maps.google.com/?cid=0x0:0x563ce9dc5860bfa6,
cafe,Restoran,Twenty Five Cafe,"8HV5+WPP, Jl. Lintas Kalimantan Poros Tengah, Beriwit, Tanah Siang Sel., Kabupaten Murung Raya, Kalimantan Tengah 73911","Jl. Lintas Kalimantan Poros Tengah, Beriwit, Tanah Siang Sel., Kabupaten Murung Raya",KALIMANTAN TENGAH,73911.0,Indonesia,,,,-0.6551516,114.5593132,https://maps.google.com/?cid=0x0:0x65cf33184188f235,
cafe,Kedai Kopi,Sabar Menanti,"8CMQ+R26, Dirung Lingkin, Tanah Siang Sel., Kabupaten Murung Raya, Kalimantan Tengah 73971","Dirung Lingkin, Tanah Siang Sel., Kabupaten Murung Raya",KALIMANTAN TENGAH,73971.0,Indonesia,,,,-0.6654535,114.4375275,https://maps.google.com/?cid=0x0:0x3e9ae5822cf67660,
cafe,Kedai Kopi,De'Laluna Cafe,"8HX9+7PF, Alun Alun, Murung, Murung Raya Regency, Central Kalimantan 73911","Alun Alun, Murung, Murung Raya Regency",KALIMANTAN TENGAH,73911.0,Indonesia,81348038329.0,,,-0.6518204,114.5693062,https://maps.google.com/?cid=0x0:0xaac675d3c42731bd,
cafe,Toko Makanan,Ketring tanah siang selatan,"Datah Kotou, Tanah Siang Sel., Kabupaten Murung Raya, Kalimantan Tengah 73862","Tanah Siang Sel., Kabupaten Murung Raya",KALIMANTAN TENGAH,73862.0,Indonesia,,,,-0.6812321,114.4826828,https://maps.google.com/?cid=0x0:0xae70b312ad84d868,
cafe,Restoran,Pan's Cafe,"9H28+W75, Jl. Lintas Kalimantan Poros Tengah, Beriwit, Kec. Murung, Kabupaten Murung Raya, Kalimantan Tengah 73911","Jl. Lintas Kalimantan Poros Tengah, Beriwit, Kec. Murung, Kabupaten Murung Raya",KALIMANTAN TENGAH,73911.0,Indonesia,82251521124.0,,,-0.6477284,114.5657288,https://maps.google.com/?cid=0x0:0x59c1ee80cb5fb001,
cafe,Toko bahan makanan,RUMAH CATERING QUAN PIO DESA KONUT,"Konut, Kec. Tanah Siang, Kabupaten Murung Raya, Kalimantan Tengah 73961","Kec. Tanah Siang, Kabupaten Murung Raya",KALIMANTAN TENGAH,73961.0,Indonesia,85754154922.0,,,-0.6206114,114.506444,https://maps.google.com/?cid=0x0:0x26151dd477bb1411,
cafe,Kafe,Cafe Rama Sinta Joss,"8HX8+3FR, Beriwit, Kec. Murung, Kabupaten Murung Raya, Kalimantan Tengah 73911","Beriwit, Kec. Murung, Kabupaten Murung Raya",KALIMANTAN TENGAH,73911.0,Indonesia,,,,-0.6512945,114.5664542,https://maps.google.com/?cid=0x0:0x23b4d18d9bd8593a,
cafe,Kedai Kopi,Kupi ETO,"Jl. Lintas Kalimantan Poros Tengah, Puruk Cahu, Kec. Murung, Kabupaten Murung Raya, Kalimantan Tengah 73911","Puruk Cahu, Kec. Murung, Kabupaten Murung Raya",KALIMANTAN TENGAH,73911.0,Indonesia,82239135557.0,,,-0.6498765,114.5724467,https://maps.google.com/?cid=0x0:0xfb73b3b27ffa8122,
cafe,Kafe,Tempat dona,"Jln.pt imk No.km 2, Olong Hanangan, Tanah Siang Sel., Kabupaten Murung Raya, Kalimantan Tengah","Kabupaten Murung Raya, Kalimantan Tengah",KALIMANTAN TENGAH,,Indonesia,,,,-0.6638983,114.4320193,https://maps.google.com/?cid=0x0:0x498cde1005ab4b78,
cafe,Restoran,Pondok CS Barito,"8HVM+JC6, Jalan Jendral Sudirman (depan pos polisi) jembatan merdeka, Bahitom, Kec. Murung, Kabupaten Murung Raya, Kalimantan Tengah 73911","Jalan Jendral Sudirman (depan pos polisi) jembatan merdeka, Bahitom, Kec. Murung, Kabupaten Murung Raya",KALIMANTAN TENGAH,73911.0,Indonesia,81347455656.0,,,-0.6559719,114.5835239,https://maps.google.com/?cid=0x0:0x247da2bb575d9517,
cafe,cafe,Rumah Kopi Pahari,"Jl. Tambang PT.IMK Arah menuju Kota No.KM 04, Dirung Lingkin, Tanah Siang Sel., Kabupaten Murung Raya, Kalimantan Tengah 73971","Dirung Lingkin, Tanah Siang Sel., Kabupaten Murung Raya",KALIMANTAN TENGAH,73971.0,Indonesia,85386342861.0,,,-0.6771516,114.4562394,https://maps.google.com/?cid=0x0:0x22e4a8fae888c131,
cafe,Bakso,Warung Bu Sri km 4,"Warung Jawa Bu sri km4, Dirung Lingkin, Tanah Siang Sel., Kabupaten Murung Raya, Kalimantan Tengah 73971","Dirung Lingkin, Tanah Siang Sel., Kabupaten Murung Raya",KALIMANTAN TENGAH,73971.0,Indonesia,82223067453.0,,,-0.6800129,114.4561863,https://maps.google.com/?cid=0x0:0x95de08ba22f05092,
cafe,Kafe,Cafe KURPA,"9HF3+GH2, Jl. Kolonel Untung Surapati, Beriwit, Kec. Tanah Siang, Kabupaten Murung Raya, Kalimantan Tengah 73911","Jl. Kolonel Untung Surapati, Beriwit, Kec. Tanah Siang, Kabupaten Murung Raya",KALIMANTAN TENGAH,73911.0,Indonesia,,,,-0.6264834,114.5545642,https://maps.google.com/?cid=0x0:0xbe978f54d23916b5,
cafe,Kedai Kopi,Esbeye Coffee,"Jl. Ahmad Yani No.67, Beriwit, Kec. Murung, Kabupaten Murung Raya, Kalimantan Tengah 73911","Beriwit, Kec. Murung, Kabupaten Murung Raya",KALIMANTAN TENGAH,73911.0,Indonesia,,,,-0.6438767,114.5657863,https://maps.google.com/?cid=0x0:0xd04733ac0f5ccb1d,
cafe,Restoran,Cafe Rumah Pohon,"9H88+JM6 Seberang Bank Kalteng, Jl. Ahmad Yani, Beriwit, Kuala Pembuang, Kabupaten Murung Raya, Kalimantan Tengah 73911","Jl. Ahmad Yani, Beriwit, Kuala Pembuang, Kabupaten Murung Raya",KALIMANTAN TENGAH,73911.0,Indonesia,81347866410.0,,,-0.6334573,114.5666274,https://maps.google.com/?cid=0x0:0x2e76600a8242f9a6,
cafe,Kedai Kopi,KING CAFE,"9HGC+3M7, Jl. M. T Haryono, Beriwit, Kec. Murung, Kabupaten Murung Raya, Kalimantan Tengah 73911","Jl. M. T Haryono, Beriwit, Kec. Murung, Kabupaten Murung Raya",KALIMANTAN TENGAH,73911.0,Indonesia,81256258148.0,,,-0.6248376,114.5716792,https://maps.google.com/?cid=0x0:0x6a99a43cade01a43,
cafe,Restoran,Cafe Halaman PMY (Pangan Mura Yaksa),"Jl. Pulo Basan, Puruk Cahu, Kec. Murung, Kabupaten Murung Raya, Kalimantan Tengah 73911","Puruk Cahu, Kec. Murung, Kabupaten Murung Raya",KALIMANTAN TENGAH,73911.0,Indonesia,,,,-0.6476626,114.5740215,https://maps.google.com/?cid=0x0:0x64ace0c483c4a79e,
cafe,Nasi,Warung makan mama bardin,"Dirunglingkin Dirunglingkin RT.2, Dirung Lingkin, Tanah Siang Sel., Kabupaten Murung Raya, Kalimantan Tengah 73971","Dirung Lingkin, Tanah Siang Sel., Kabupaten Murung Raya",KALIMANTAN TENGAH,73971.0,Indonesia,85822108349.0,,,-0.6723288,114.4753025,https://maps.google.com/?cid=0x0:0xb42c4e7322591e3,
cafe,Kafe,Eco cafe,"9H58+79M, Beriwit, Kec. Murung, Kabupaten Murung Raya, Kalimantan Tengah 73911","Beriwit, Kec. Murung, Kabupaten Murung Raya",KALIMANTAN TENGAH,73911.0,Indonesia,82251412221.0,,,-0.6417837,114.5659229,https://maps.google.com/?cid=0x0:0xee87d0418b4675c0,
cafe,Restoran,warung mama roni/iin,"9GF8+F5V, Konut, Kec. Tanah Siang, Kabupaten Murung Raya, Kalimantan Tengah","Kabupaten Murung Raya, Kalimantan Tengah",KALIMANTAN TENGAH,,Indonesia,,,,-0.6262719,114.5154338,https://maps.google.com/?cid=0x0:0xa51fc9e7d7c4ff13,
cafe,Restoran,KEDAI KOPI KITA,"8HW6+QC6, Beriwit, Kec. Murung, Kabupaten Murung Raya, Kalimantan Tengah 73911","Beriwit, Kec. Murung, Kabupaten Murung Raya",KALIMANTAN TENGAH,73911.0,Indonesia,82252755567.0,,,-0.6530936,114.5610063,https://maps.google.com/?cid=0x0:0x19f7597b30ca059,
cafe,cafe,Warung Makan Pondok Biru / SAP Exspress,"9H27+QC2, Jl. Lintas Kalimantan Poros Tengah, Beriwit, Tanah Siang Sel., Kabupaten Murung Raya, Kalimantan Tengah 73911","Jl. Lintas Kalimantan Poros Tengah, Beriwit, Tanah Siang Sel., Kabupaten Murung Raya",KALIMANTAN TENGAH,73911.0,Indonesia,82158970660.0,,,-0.648063,114.563512,https://maps.google.com/?cid=0x0:0xc9e25847bac2e0ef,
cafe,cafe,Kalimantan Tengah 73981,"Kabupaten Murung Raya, Kalimantan Tengah","Kabupaten Murung Raya, Kalimantan Tengah",KALIMANTAN TENGAH,,Indonesia,,,,0.1366232,113.9536466,https://maps.google.com/?cid=0x0:0xb765502d3651aeca,
cafe,Produsen makanan,YUJU Caffe,"Jl. Pahlawan No.89, RT.3/RW.1, Puruk Cahu, Kec. Murung, Kabupaten Murung Raya, Kalimantan Tengah 73911","RT.3/RW.1, Puruk Cahu, Kec. Murung, Kabupaten Murung Raya",KALIMANTAN TENGAH,73911.0,Indonesia,82150839857.0,,,-0.6160034,114.570937,https://maps.google.com/?cid=0x0:0xd85840d8e1056737,
cafe,Kedai Kopi,De'Laluna Cafe,"8HX9+7PF, Alun Alun, Murung, Murung Raya Regency, Central Kalimantan 73911","Alun Alun, Murung, Murung Raya Regency",KALIMANTAN TENGAH,73911.0,Indonesia,81348038329.0,,,-0.6518204,114.5693062,https://maps.google.com/?cid=0x0:0xaac675d3c42731bd,
cafe,Kafe,Youmi Cafe,"Jl. Jend. Sudirman, Puruk Cahu, Kec. Murung, Kabupaten Murung Raya, Kalimantan Tengah 73911","Puruk Cahu, Kec. Murung, Kabupaten Murung Raya",KALIMANTAN TENGAH,73911.0,Indonesia,85752750534.0,,,-0.6512582,114.5707106,https://maps.google.com/?cid=0x0:0xae851155737e8d45,
cafe,Kedai Kopi,Profit cafe,"876W+4Q2, Tumbang Lahung, Kec. Permata Intan, Kabupaten Murung Raya, Kalimantan Tengah 73971","Tumbang Lahung, Kec. Permata Intan, Kabupaten Murung Raya",KALIMANTAN TENGAH,73971.0,Indonesia,81255618544.0,,,-0.690515,114.2969533,https://maps.google.com/?cid=0x0:0x90839b275c4f0f8d,
cafe,Kedai Kopi,Warung Ala-ala,"Jl. Ahmad Yani No.129 RT01, RW.III, Beriwit, Kec. Murung, Kabupaten Murung Raya, Kalimantan Tengah 73911","RW.III, Beriwit, Kec. Murung, Kabupaten Murung Raya",KALIMANTAN TENGAH,73911.0,Indonesia,85754799666.0,,,-0.6306724,114.5673157,https://maps.google.com/?cid=0x0:0x312b96eb268bacb2,
cafe,Kedai Kopi,KING CAFE,"9HGC+3M7, Jl. M. T Haryono, Beriwit, Kec. Murung, Kabupaten Murung Raya, Kalimantan Tengah 73911","Jl. M. T Haryono, Beriwit, Kec. Murung, Kabupaten Murung Raya",KALIMANTAN TENGAH,73911.0,Indonesia,81256258148.0,,,-0.6248376,114.5716792,https://maps.google.com/?cid=0x0:0x6a99a43cade01a43,
cafe,Kedai Kopi,Khatulistiwa Kopi,"Jl. Ahmad Yani, Beriwit, Kec. Murung, Kabupaten Murung Raya, Kalimantan Tengah 73911","Beriwit, Kec. Murung, Kabupaten Murung Raya",KALIMANTAN TENGAH,73911.0,Indonesia,81289089880.0,,,-0.6274382,114.5681157,https://maps.google.com/?cid=0x0:0xf9d58e7b30fc937e,
cafe,Kafe,Cafe KURPA,"9HF3+GH2, Jl. Kolonel Untung Surapati, Beriwit, Kec. Tanah Siang, Kabupaten Murung Raya, Kalimantan Tengah 73911","Jl. Kolonel Untung Surapati, Beriwit, Kec. Tanah Siang, Kabupaten Murung Raya",KALIMANTAN TENGAH,73911.0,Indonesia,,,,-0.6264834,114.5545642,https://maps.google.com/?cid=0x0:0xbe978f54d23916b5,
cafe,Kafe,Cafe The Rich Angkringan,"Danau Usung, Kec. Murung, Kabupaten Murung Raya, Kalimantan Tengah","Kabupaten Murung Raya, Kalimantan Tengah",KALIMANTAN TENGAH,,Indonesia,81573226031.0,,,-0.6564897,114.5838561,https://maps.google.com/?cid=0x0:0xa6600453b4304c02,
cafe,Kedai Kopi,Warkop simpang PU,"9H88+4H9, Beriwit, Kec. Murung, Kabupaten Murung Raya, Kalimantan Tengah 73911","Beriwit, Kec. Murung, Kabupaten Murung Raya",KALIMANTAN TENGAH,73911.0,Indonesia,85732270205.0,,,-0.6347198,114.5664234,https://maps.google.com/?cid=0x0:0x5cd7407e3057bf43,
cafe,Restoran,Cafe MR.03,"Jl. Ahmad Yani, Beriwit, Kec. Murung, Kabupaten Murung Raya, Kalimantan Tengah 73911","Beriwit, Kec. Murung, Kabupaten Murung Raya",KALIMANTAN TENGAH,73911.0,Indonesia,82154558872.0,,,-0.6397142,114.5640802,https://maps.google.com/?cid=0x0:0x5a187769215b45e,
cafe,Kafe,Cafe Bintang,"Unnamed Road, Muara Tuhup, Kec. Laung Tuhup, Kabupaten Murung Raya, Kalimantan Tengah 73991","Muara Tuhup, Kec. Laung Tuhup, Kabupaten Murung Raya",KALIMANTAN TENGAH,73991.0,Indonesia,,,,-0.6250449,114.8102195,https://maps.google.com/?cid=0x0:0x2ef07e09c738364d,
cafe,Indonesia,Puruk cahu,"8JFJ+HF3, Danau Usung, Kec. Murung, Kabupaten Murung Raya, Kalimantan Tengah 73911","Danau Usung, Kec. Murung, Kabupaten Murung Raya",KALIMANTAN TENGAH,73911.0,Indonesia,,,,-0.6761061,114.6311665,https://maps.google.com/?cid=0x0:0x11fe87f2a9647a07,
cafe,Kafe,Kedai Twenty Six,"8HVM+W2W, Danau Usung, Kec. Murung, Kabupaten Murung Raya, Kalimantan Tengah 73911","Danau Usung, Kec. Murung, Kabupaten Murung Raya",KALIMANTAN TENGAH,73911.0,Indonesia,82352224010.0,,,-0.6551313,114.5825876,https://maps.google.com/?cid=0x0:0xf05d09a341361567,
cafe,Kafe,Miltie Bubble,"9H98+6P9, Jl. Ahmad Yani, Beriwit, Kec. Murung, Kabupaten Murung Raya, Kalimantan Tengah 73911","Jl. Ahmad Yani, Beriwit, Kec. Murung, Kabupaten Murung Raya",KALIMANTAN TENGAH,73911.0,Indonesia,82327774889.0,,,-0.6319635,114.5668712,https://maps.google.com/?cid=0x0:0x34a72a4a01abf549,
cafe,Indonesia,CORY,"8HR3+GHF, Puruk Cahu, Beriwit, Kec. Murung, Kabupaten Murung Raya, Kalimantan Tengah 73911","Puruk Cahu, Beriwit, Kec. Murung, Kabupaten Murung Raya",KALIMANTAN TENGAH,73911.0,Indonesia,81649787972.0,,,-0.6586948,114.5539299,https://maps.google.com/?cid=0x0:0x9fdb0ecf12054eb4,
cafe,Restoran,Milos eatery cafe,"Beriwit, Kec. Murung, Kabupaten Murung Raya, Kalimantan Tengah 73911","Kec. Murung, Kabupaten Murung Raya",KALIMANTAN TENGAH,73911.0,Indonesia,82153544136.0,,,-0.6415625,114.5674375,https://maps.google.com/?cid=0x0:0x420e5f8d3f164c31,
cafe,Restoran,Twenty Five Cafe,"8HV5+WPP, Jl. Lintas Kalimantan Poros Tengah, Beriwit, Tanah Siang Sel., Kabupaten Murung Raya, Kalimantan Tengah 73911","Jl. Lintas Kalimantan Poros Tengah, Beriwit, Tanah Siang Sel., Kabupaten Murung Raya",KALIMANTAN TENGAH,73911.0,Indonesia,,,,-0.6551516,114.5593132,https://maps.google.com/?cid=0x0:0x65cf33184188f235,
cafe,cafe,Rumah makan putri punan,"Tumbang Olong, 2, Kabupaten Murung Raya, Kalimantan Tengah","Kabupaten Murung Raya, Kalimantan Tengah",KALIMANTAN TENGAH,,Indonesia,87810717049.0,,,-0.0068114,114.3270535,https://maps.google.com/?cid=0x0:0x825aa18752aacb3b,
cafe,Kedai Kopi,Huma Kurik,"9H98+J87, Beriwit, Kec. Murung, Kabupaten Murung Raya, Kalimantan Tengah 73911","Beriwit, Kec. Murung, Kabupaten Murung Raya",KALIMANTAN TENGAH,73911.0,Indonesia,82358840959.0,,,-0.6309735,114.5658098,https://maps.google.com/?cid=0x0:0xd24c0a66bb8526d6,
cafe,Mi,Paman bakso mbotung,"V87M+GMJ, Tumbang Olong, Uut Murung, Kabupaten Murung Raya, Kalimantan Tengah","Kabupaten Murung Raya, Kalimantan Tengah",KALIMANTAN TENGAH,,Indonesia,,,,-0.1361706,114.3341428,https://maps.google.com/?cid=0x0:0xa63b30b0f37b30ad,
cafe,Jawa,Abdul Halim Cafe,"9HHF+XP7, Beriwit, Kec. Murung, Kabupaten Murung Raya, Kalimantan Tengah 73911","Beriwit, Kec. Murung, Kabupaten Murung Raya",KALIMANTAN TENGAH,73911.0,Indonesia,81549755269.0,,,-0.6200834,114.5743021,https://maps.google.com/?cid=0x0:0x463855114fbb66bc,
