Category,Real Category,Business Name,Address,City,State,Postal Code,Country,Phone,Email,Website,Latitude,Longitude,Map Link,Details Link
toko bangunan,toko bangunan,Kalimantan Tengah 73991,"Kabupaten Murung Raya, Kalimantan Tengah","Kabupaten Murung Raya, Kalimantan Tengah",KALIMANTAN TENGAH,,Indonesia,,,,-0.2037503,114.8092691,https://maps.google.com/?cid=0x0:0x46d09a0087c59ba1,
toko bangunan,Toko Elektronik,Toko bangunan dan elektronik 2 putri,"9PQP+HFH, Muara Laung I, Kec. Laung Tuhup, Kabupaten Murung Raya, Kalimantan Tengah","Kabupaten Murung Raya, Kalimantan Tengah",KALIMANTAN TENGAH,,Indonesia,83899586603.0,,,-0.6110741,114.7362284,https://maps.google.com/?cid=0x0:0x3f59fdb5c0c1eb76,
toko bangunan,Toko Bahan Bangunan,TOKO BANGUNAN (YOLAN BARITO),"9H3J+5W, Puruk Cahu, Kec. Murung, Kabupaten Murung Raya, Kalimantan Tengah 73911","Puruk Cahu, Kec. Murung, Kabupaten Murung Raya",KALIMANTAN TENGAH,73911.0,Indonesia,87737401068.0,,,-0.6466795,114.5811541,https://maps.google.com/?cid=0x0:0x1e126e186b82f785,
toko bangunan,Toko Bahan Bangunan,TOKO BANGUNAN INARA,"9PQP+843, Muara Laung I, Kec. Laung Tuhup, Kabupaten Murung Raya, Kalimantan Tengah","Kabupaten Murung Raya, Kalimantan Tengah",KALIMANTAN TENGAH,,Indonesia,82149064696.0,,,-0.6117295,114.7353074,https://maps.google.com/?cid=0x0:0xe94938d36dd69663,
toko bangunan,Toko Bahan Bangunan,Toko Fatwa,"CP2J+HP9, Muara Laung I, Kec. Laung Tuhup, Kabupaten Murung Raya, Kalimantan Tengah 73911","Muara Laung I, Kec. Laung Tuhup, Kabupaten Murung Raya",KALIMANTAN TENGAH,73911.0,Indonesia,,,,-0.5989563,114.7321794,https://maps.google.com/?cid=0x0:0x17a611aeab2412e,
toko bangunan,Toko Bahan Bangunan,Toko Bangunan dan Material,"Jl. Veteran rt 09 kelurahan muara laung 1 kecamatan laung tuhup Muara Laung 1, Kalimantan Tengah 73992","Kabupaten Murung Raya, Kalimantan Tengah",KALIMANTAN TENGAH,,Indonesia,81352554971.0,,,-0.5969586,114.7294917,https://maps.google.com/?cid=0x0:0xa690a33d5f93a021,
toko bangunan,toko bangunan,Kalimantan Tengah 73991,"Kabupaten Murung Raya, Kalimantan Tengah","Kabupaten Murung Raya, Kalimantan Tengah",KALIMANTAN TENGAH,,Indonesia,,,,-0.2037503,114.8092691,https://maps.google.com/?cid=0x0:0x46d09a0087c59ba1,
toko bangunan,Toko Elektronik,Toko bangunan dan elektronik 2 putri,"9PQP+HFH, Muara Laung I, Kec. Laung Tuhup, Kabupaten Murung Raya, Kalimantan Tengah","Kabupaten Murung Raya, Kalimantan Tengah",KALIMANTAN TENGAH,,Indonesia,83899586603.0,,,-0.6110741,114.7362284,https://maps.google.com/?cid=0x0:0x3f59fdb5c0c1eb76,
toko bangunan,Toko Bahan Bangunan,Toko Fatwa,"CP2J+HP9, Muara Laung I, Kec. Laung Tuhup, Kabupaten Murung Raya, Kalimantan Tengah 73911","Muara Laung I, Kec. Laung Tuhup, Kabupaten Murung Raya",KALIMANTAN TENGAH,73911.0,Indonesia,,,,-0.5989563,114.7321794,https://maps.google.com/?cid=0x0:0x17a611aeab2412e,
toko bangunan,Toko Bahan Bangunan,TOKO BANGUNAN INARA,"9PQP+843, Muara Laung I, Kec. Laung Tuhup, Kabupaten Murung Raya, Kalimantan Tengah","Kabupaten Murung Raya, Kalimantan Tengah",KALIMANTAN TENGAH,,Indonesia,82149064696.0,,,-0.6117295,114.7353074,https://maps.google.com/?cid=0x0:0xe94938d36dd69663,
toko bangunan,Toko Bahan Bangunan,Toko Bangunan dan Material,"Jl. Veteran rt 09 kelurahan muara laung 1 kecamatan laung tuhup Muara Laung 1, Kalimantan Tengah 73992","Kabupaten Murung Raya, Kalimantan Tengah",KALIMANTAN TENGAH,,Indonesia,81352554971.0,,,-0.5969586,114.7294917,https://maps.google.com/?cid=0x0:0xa690a33d5f93a021,
toko bangunan,Toko bahan makanan,Toko Herry simpang tuhup,"9PQP+H5P, Muara Laung I, Kec. Laung Tuhup, Kabupaten Murung Raya, Kalimantan Tengah","Kabupaten Murung Raya, Kalimantan Tengah",KALIMANTAN TENGAH,,Indonesia,,,,-0.6110499,114.7354583,https://maps.google.com/?cid=0x0:0xf065b353a1c15a3b,
toko bangunan,toko bangunan,Kalimantan Tengah 73911,"Kec. Murung, Kabupaten Murung Raya, Kalimantan Tengah","Kabupaten Murung Raya, Kalimantan Tengah",KALIMANTAN TENGAH,,Indonesia,,,,-0.581032,114.6667939,https://maps.google.com/?cid=0x0:0xfaf4a8cd4b21fca2,
toko bangunan,Toko Bahan Bangunan,TB H.Bahkian,"9H48+C7P, Jl. Ahmad Yani, Beriwit, Kec. Murung, Kabupaten Murung Raya, Kalimantan Tengah 73911","Jl. Ahmad Yani, Beriwit, Kec. Murung, Kabupaten Murung Raya",KALIMANTAN TENGAH,73911.0,Indonesia,85658340282.0,,,-0.6439103,114.5657086,https://maps.google.com/?cid=0x0:0x96f8d4f408b68cc1,
toko bangunan,Toko Bahan Bangunan,TOKO BANGUNAN (YOLAN BARITO),"9H3J+5W, Puruk Cahu, Kec. Murung, Kabupaten Murung Raya, Kalimantan Tengah 73911","Puruk Cahu, Kec. Murung, Kabupaten Murung Raya",KALIMANTAN TENGAH,73911.0,Indonesia,87737401068.0,,,-0.6466795,114.5811541,https://maps.google.com/?cid=0x0:0x1e126e186b82f785,
toko bangunan,Toko Bahan Bangunan,Toko Bangunan PODHO JOYO,"9H28+8F2, Beriwit, Kec. Murung, Kabupaten Murung Raya, Kalimantan Tengah 73911","Beriwit, Kec. Murung, Kabupaten Murung Raya",KALIMANTAN TENGAH,73911.0,Indonesia,,,,-0.6492272,114.5661435,https://maps.google.com/?cid=0x0:0xe2b9ba3f87ebe241,
toko bangunan,Toko Bahan Bangunan,TOKO WAJAH BARU (BANGUNAN ALAT SPARE PART MESIN TERLENGKAP,"Beriwit, Kec. Murung, Kabupaten Murung Raya, Kalimantan Tengah 73911","Kec. Murung, Kabupaten Murung Raya",KALIMANTAN TENGAH,73911.0,Indonesia,82255453260.0,,,-0.6169916,114.573286,https://maps.google.com/?cid=0x0:0xa12ae7a743d9d5a1,
toko bangunan,Toko Bahan Bangunan,Toko bangunan Wijaya Kusuma,"8JP2+H2R, Jl. Lintas Kalimantan Poros Tengah, Danau Usung, Kec. Murung, Kabupaten Murung Raya, Kalimantan Tengah","Kabupaten Murung Raya, Kalimantan Tengah",KALIMANTAN TENGAH,,Indonesia,82353064829.0,,,-0.6635077,114.6000175,https://maps.google.com/?cid=0x0:0xa37f99e24ebbe6f,
toko bangunan,Toko Perlengkapan Rumah,Toko Sungai Gemilang Raya,"9H67+6R3, Jl. Ahmad Yani, Beriwit, Kec. Murung, Kabupaten Murung Raya, Kalimantan Tengah 73911","Jl. Ahmad Yani, Beriwit, Kec. Murung, Kabupaten Murung Raya",KALIMANTAN TENGAH,73911.0,Indonesia,,,,-0.6394844,114.5645558,https://maps.google.com/?cid=0x0:0x4db2de8c483ede05,
toko bangunan,Toko Elektronik,Toko bangunan dan elektronik 2 putri,"9PQP+HFH, Muara Laung I, Kec. Laung Tuhup, Kabupaten Murung Raya, Kalimantan Tengah","Kabupaten Murung Raya, Kalimantan Tengah",KALIMANTAN TENGAH,,Indonesia,83899586603.0,,,-0.6110741,114.7362284,https://maps.google.com/?cid=0x0:0x3f59fdb5c0c1eb76,
toko bangunan,Toko Bahan Bangunan,Toko Bangun Tehnik,"9HMF+29F, Jl. Merdeka, Beriwit, Kec. Murung, Kabupaten Murung Raya, Kalimantan Tengah 73911","Jl. Merdeka, Beriwit, Kec. Murung, Kabupaten Murung Raya",KALIMANTAN TENGAH,73911.0,Indonesia,87761141363.0,,,-0.6174301,114.5734251,https://maps.google.com/?cid=0x0:0xfbbb1cbef1f2ec8c,
toko bangunan,Toko Bahan Bangunan,TOKO BANGUNAN INARA,"9PQP+843, Muara Laung I, Kec. Laung Tuhup, Kabupaten Murung Raya, Kalimantan Tengah","Kabupaten Murung Raya, Kalimantan Tengah",KALIMANTAN TENGAH,,Indonesia,82149064696.0,,,-0.6117295,114.7353074,https://maps.google.com/?cid=0x0:0xe94938d36dd69663,
toko bangunan,Toko Bahan Bangunan,UD MAJU,"Jl. Ahmad Yani No.165, Beriwit, Kec. Murung, Kabupaten Murung Raya, Kalimantan Tengah 73911","Beriwit, Kec. Murung, Kabupaten Murung Raya",KALIMANTAN TENGAH,73911.0,Indonesia,85252775516.0,,,-0.6432912,114.5655543,https://maps.google.com/?cid=0x0:0x400e252ea5736d51,
toko bangunan,Pusat Perbelanjaan,Ekadana Jotun,"9HPC+3WR, Jl. Merdeka, Beriwit, Kec. Murung, Kabupaten Murung Raya, Kalimantan Tengah 73911","Jl. Merdeka, Beriwit, Kec. Murung, Kabupaten Murung Raya",KALIMANTAN TENGAH,73911.0,Indonesia,8125031113.0,,,-0.6147726,114.5722581,https://maps.google.com/?cid=0x0:0xf1ed096f627e1aed,
toko bangunan,Toko Bahan Bangunan,Toko Bangunan Jaya,"Psan antar, Beriwit, Kec. Murung, Kabupaten Murung Raya, Kalimantan Tengah 73911","Beriwit, Kec. Murung, Kabupaten Murung Raya",KALIMANTAN TENGAH,73911.0,Indonesia,,,,-0.6288125,114.5643281,https://maps.google.com/?cid=0x0:0x834cd32f96f3ba4e,
toko bangunan,Toko Bahan Bangunan,Toko Fatwa,"CP2J+HP9, Muara Laung I, Kec. Laung Tuhup, Kabupaten Murung Raya, Kalimantan Tengah 73911","Muara Laung I, Kec. Laung Tuhup, Kabupaten Murung Raya",KALIMANTAN TENGAH,73911.0,Indonesia,,,,-0.5989563,114.7321794,https://maps.google.com/?cid=0x0:0x17a611aeab2412e,
toko bangunan,Toko Bahan Bangunan,Toko Bahan Bangunan Rama Sinta,"Psan antar Chat WhatsAp Kami, o  2 I × 7  9 3 × 0 9 4 0,Toko, Jl. Jend. Sudirman, Puruk Cahu, Kec. Murung, Kabupaten Murung Raya, Kalimantan Tengah 73911","o  2 I × 7  9 3 × 0 9 4 0,Toko, Jl. Jend. Sudirman, Puruk Cahu, Kec. Murung, Kabupaten Murung Raya",KALIMANTAN TENGAH,73911.0,Indonesia,82122228701.0,,,-0.6558637,114.5837824,https://maps.google.com/?cid=0x0:0xb97546aaffe9e7f3,
toko bangunan,Toko Bahan Bangunan,Toko bangunan yolan barito(H.kaset),"9HF9+XRX, Jl. Ahmad Yani, Beriwit, Kec. Murung, Kabupaten Murung Raya, Kalimantan Tengah 73911","Jl. Ahmad Yani, Beriwit, Kec. Murung, Kabupaten Murung Raya",KALIMANTAN TENGAH,73911.0,Indonesia,81349416412.0,,,-0.6250176,114.5696045,https://maps.google.com/?cid=0x0:0x1589d991cba076e,
toko bangunan,Toko Perlengkapan Rumah,Molding Radi,"9H55+392, Beriwit, Kec. Murung, Kabupaten Murung Raya, Kalimantan Tengah 73911","Beriwit, Kec. Murung, Kabupaten Murung Raya",KALIMANTAN TENGAH,73911.0,Indonesia,,,,-0.6423577,114.5583872,https://maps.google.com/?cid=0x0:0xcdafbe95447193ee,
toko bangunan,Toko Bahan Bangunan,Toko Cina Serba Ada,"Jl. Ahmad Yani No.165, Beriwit, Kec. Murung, Kabupaten Murung Raya, Kalimantan Tengah 73911","Beriwit, Kec. Murung, Kabupaten Murung Raya",KALIMANTAN TENGAH,73911.0,Indonesia,,,,-0.6431923,114.5654579,https://maps.google.com/?cid=0x0:0x9ba00339d155290a,
toko bangunan,Toko,Baikhaki Helm,"9H58+85W, Beriwit, Kec. Murung, Kabupaten Murung Raya, Kalimantan Tengah 73911","Beriwit, Kec. Murung, Kabupaten Murung Raya",KALIMANTAN TENGAH,73911.0,Indonesia,85246999988.0,,,-0.641627,114.565465,https://maps.google.com/?cid=0x0:0x888c02b577a052de,
toko bangunan,Komplek perumahan,Muara Tuhup,"9RG5+2P5, Muara Tuhup, Kec. Laung Tuhup, Kabupaten Murung Raya, Kalimantan Tengah 73991","Muara Tuhup, Kec. Laung Tuhup, Kabupaten Murung Raya",KALIMANTAN TENGAH,73991.0,Indonesia,,,,-0.6250325,114.8086775,https://maps.google.com/?cid=0x0:0x38d46e69ae9855ef,
toko bangunan,Toko Bahan Bangunan,MITRA MULIA TK,"9H88+FPP, Jl. Ahmad Yani, Beriwit, Kec. Murung, Kabupaten Murung Raya, Kalimantan Tengah 73911","Jl. Ahmad Yani, Beriwit, Kec. Murung, Kabupaten Murung Raya",KALIMANTAN TENGAH,73911.0,Indonesia,,,,-0.633795,114.5668204,https://maps.google.com/?cid=0x0:0xcf50adada1ee7b6b,
toko bangunan,toko bangunan,Kalimantan Tengah 73971,"Kabupaten Murung Raya, Kalimantan Tengah","Kabupaten Murung Raya, Kalimantan Tengah",KALIMANTAN TENGAH,,Indonesia,,,,-0.4787128,114.4292148,https://maps.google.com/?cid=0x0:0x7eb3a8a82a8e44be,
toko bangunan,Minimarket,Toko 4J,"Jl, Temanggung Jadam RT, 4, Tumbang Lahung, Kalimantan Tengah 73971","Temanggung Jadam RT, 4, Tumbang Lahung",KALIMANTAN TENGAH,73971.0,Indonesia,85248819791.0,,,-0.6882927,114.2992379,https://maps.google.com/?cid=0x0:0x28144988d9e8c4a4,
toko bangunan,Toko Bahan Bangunan,TOKO WAJAH BARU (BANGUNAN ALAT SPARE PART MESIN TERLENGKAP,"Beriwit, Kec. Murung, Kabupaten Murung Raya, Kalimantan Tengah 73911","Kec. Murung, Kabupaten Murung Raya",KALIMANTAN TENGAH,73911.0,Indonesia,82255453260.0,,,-0.6169916,114.573286,https://maps.google.com/?cid=0x0:0xa12ae7a743d9d5a1,
toko bangunan,Toko Bahan Bangunan,Toko Bangun Tehnik,"9HMF+29F, Jl. Merdeka, Beriwit, Kec. Murung, Kabupaten Murung Raya, Kalimantan Tengah 73911","Jl. Merdeka, Beriwit, Kec. Murung, Kabupaten Murung Raya",KALIMANTAN TENGAH,73911.0,Indonesia,87761141363.0,,,-0.6174301,114.5734251,https://maps.google.com/?cid=0x0:0xfbbb1cbef1f2ec8c,
toko bangunan,Toko Bahan Bangunan,Toko Bangunan PODHO JOYO,"9H28+8F2, Beriwit, Kec. Murung, Kabupaten Murung Raya, Kalimantan Tengah 73911","Beriwit, Kec. Murung, Kabupaten Murung Raya",KALIMANTAN TENGAH,73911.0,Indonesia,,,,-0.6492272,114.5661435,https://maps.google.com/?cid=0x0:0xe2b9ba3f87ebe241,
toko bangunan,Toko Bahan Bangunan,TB H.Bahkian,"9H48+C7P, Jl. Ahmad Yani, Beriwit, Kec. Murung, Kabupaten Murung Raya, Kalimantan Tengah 73911","Jl. Ahmad Yani, Beriwit, Kec. Murung, Kabupaten Murung Raya",KALIMANTAN TENGAH,73911.0,Indonesia,85658340282.0,,,-0.6439103,114.5657086,https://maps.google.com/?cid=0x0:0x96f8d4f408b68cc1,
toko bangunan,Toko Bahan Bangunan,Toko bangunan Wijaya Kusuma,"8JP2+H2R, Jl. Lintas Kalimantan Poros Tengah, Danau Usung, Kec. Murung, Kabupaten Murung Raya, Kalimantan Tengah","Kabupaten Murung Raya, Kalimantan Tengah",KALIMANTAN TENGAH,,Indonesia,82353064829.0,,,-0.6635077,114.6000175,https://maps.google.com/?cid=0x0:0xa37f99e24ebbe6f,
toko bangunan,Toko Bahan Bangunan,TB. Permata Indah,"RT11/04, Jl. Kebagusan IV No.26B, RT.10/RW.4, Kebagusan, Ps. Minggu, Kota Jakarta Selatan, Daerah Khusus Ibukota Jakarta 12520","Jl. Kebagusan IV No.26B, RT.10/RW.4, Kebagusan, Ps. Minggu, Kota Jakarta Selatan",KALIMANTAN TENGAH,12520.0,Indonesia,217819192.0,,,-6.3138953,106.8291916,https://maps.google.com/?cid=0x0:0x3256f9055d64f975,
toko bangunan,Toko Bahan Bangunan,TB. PERMATA AZRI,"Jl. Kebagusan III No.4, RT.4/RW.5, Kebagusan, Ps. Minggu, Kota Jakarta Selatan, Daerah Khusus Ibukota Jakarta 12520","RT.4/RW.5, Kebagusan, Ps. Minggu, Kota Jakarta Selatan",KALIMANTAN TENGAH,12520.0,Indonesia,87730935279.0,,,-6.3109333,106.8301409,https://maps.google.com/?cid=0x0:0x10107d44bddf54f,
toko bangunan,Toko Bahan Bangunan,Batu Intan,"Jl. Purnawarman No.4 blok a1, Pisangan, Kec. Ciputat Tim., Kota Tangerang Selatan, Banten 15419","Pisangan, Kec. Ciputat Tim., Kota Tangerang Selatan",KALIMANTAN TENGAH,15419.0,Indonesia,81285714100.0,,,-6.3240029,106.7649841,https://maps.google.com/?cid=0x0:0xbc06042b0618d007,
toko bangunan,Toko Bahan Bangunan,Toko Bangunan Permata,"Jl. Kemandoran I No.73A 6, RT.6/RW.16, Grogol Utara, Kec. Kby. Lama, Kota Jakarta Selatan, Daerah Khusus Ibukota Jakarta 12210","RT.6/RW.16, Grogol Utara, Kec. Kby. Lama, Kota Jakarta Selatan",KALIMANTAN TENGAH,12210.0,Indonesia,818810677.0,,,-6.2130737,106.7908108,https://maps.google.com/?cid=0x0:0xd81d4334d4982d6,
toko bangunan,Toko Bahan Bangunan,PERMATA MATERIALS,"Jl. Lengkong Karya No.28, Lengkong Karya, Kec. Serpong, Kota Tangerang Selatan, Banten 15310","Lengkong Karya, Kec. Serpong, Kota Tangerang Selatan",KALIMANTAN TENGAH,15310.0,Indonesia,81459167226.0,,,-6.2832596,106.682937,https://maps.google.com/?cid=0x0:0x1a1ecc56062bded1,
toko bangunan,Toko Bahan Bangunan,TB. Intan Putri,"4R7H+854, Jalan Cireunde, Ciheulang Tonggoh, Cibadak, Sukabumi Regency, West Java 43351","Jalan Cireunde, Ciheulang Tonggoh, Cibadak, Sukabumi Regency",KALIMANTAN TENGAH,43351.0,Indonesia,,,,-6.8867319,106.8279576,https://maps.google.com/?cid=0x0:0x493582bc3fd0d092,
toko bangunan,toko bangunan,Toko Bangunan 3 Putri,"Puruk Cahu, Kec. Murung, Kabupaten Murung Raya, Kalimantan Tengah","Kabupaten Murung Raya, Kalimantan Tengah",KALIMANTAN TENGAH,,Indonesia,,,,-0.6518019,114.5726919,https://maps.google.com/?cid=0x0:0xe78b95c0894faff2,
toko bangunan,Toko Perlengkapan Rumah,"TOKO WAJAH BARU 2 (bangunan,Mesin  sparepart terlengkap)","9H98+FX8, Jl. Ahmad Yani, Beriwit, Kec. Murung, Kabupaten Murung Raya, Kalimantan Tengah 73911","Jl. Ahmad Yani, Beriwit, Kec. Murung, Kabupaten Murung Raya",KALIMANTAN TENGAH,73911.0,Indonesia,81287458656.0,,,-0.6313635,114.5674705,https://maps.google.com/?cid=0x0:0x7ced03815960437e,
toko bangunan,Toko Bahan Bangunan,Toko Bangunan Sinar Intan,"Jalupang Mulya, Kec. Leuwidamar, Kabupaten Lebak, Banten","Kabupaten Lebak, Banten",KALIMANTAN TENGAH,,Indonesia,,,,-6.5329251,106.2266983,https://maps.google.com/?cid=0x0:0xde3c0887fc909fa0,
toko bangunan,Toko Bahan Bangunan,TOKO BANGUNAN (YOLAN BARITO),"9H3J+5W, Puruk Cahu, Kec. Murung, Kabupaten Murung Raya, Kalimantan Tengah 73911","Puruk Cahu, Kec. Murung, Kabupaten Murung Raya",KALIMANTAN TENGAH,73911.0,Indonesia,87737401068.0,,,-0.6466795,114.5811541,https://maps.google.com/?cid=0x0:0x1e126e186b82f785,
toko bangunan,Toko Bahan Bangunan,PB. Intan Agung,"Jl. Mercedes Benz No.40, Cicadas, Kec. Gn. Putri, Kabupaten Bogor, Jawa Barat 16964","Cicadas, Kec. Gn. Putri, Kabupaten Bogor",KALIMANTAN TENGAH,16964.0,Indonesia,,,,-6.4373191,106.9228629,https://maps.google.com/?cid=0x0:0x973ec72a4e28aee6,
toko bangunan,Toko Bahan Bangunan,TB. Intan Bersinar,"Jl. Cimenteng, Jagabaya, Kec. Cimaung, Kabupaten Bandung, Jawa Barat 40374","Jagabaya, Kec. Cimaung, Kabupaten Bandung",KALIMANTAN TENGAH,40374.0,Indonesia,81312009497.0,,,-7.0799444,107.563693,https://maps.google.com/?cid=0x0:0x580e12ef07adafb1,
toko bangunan,Toko Bahan Bangunan,TB Jaya Intan,"Jl. Malaka 1 No.58 3, RT.3/RW.6, Rorotan, Kec. Cilincing, Jkt Utara, Daerah Khusus Ibukota Jakarta 14140","RT.3/RW.6, Rorotan, Kec. Cilincing, Jkt Utara",KALIMANTAN TENGAH,14140.0,Indonesia,87744142812.0,,,-6.1416804,106.956168,https://maps.google.com/?cid=0x0:0xc3afb7d96d9091ca,
toko bangunan,Toko Bahan Bangunan,TB Sinar Permata,"Ruko Star of Asia, Jalan Villa Permata Utara Blok B 17 No.3, Binong, Kec. Curug, Kabupaten Tangerang, Banten 15810","Jalan Villa Permata Utara Blok B 17 No.3, Binong, Kec. Curug, Kabupaten Tangerang",KALIMANTAN TENGAH,15810.0,Indonesia,2155651276.0,,,-6.2288911,106.5883332,https://maps.google.com/?cid=0x0:0x931b90cce9e3c8d9,
toko bangunan,toko bangunan,Kalimantan Tengah 73981,"Kabupaten Murung Raya, Kalimantan Tengah","Kabupaten Murung Raya, Kalimantan Tengah",KALIMANTAN TENGAH,,Indonesia,,,,0.1366232,113.9536466,https://maps.google.com/?cid=0x0:0xb765502d3651aeca,
toko bangunan,Toko Bahan Bangunan,TOKO CENTRAL BANGUNAN,"M5GM+54, Bangun Jaya, Kec. Balai Riam, Kabupaten Sukamara, Kalimantan Tengah","Kabupaten Sukamara, Kalimantan Tengah",KALIMANTAN TENGAH,,Indonesia,81385661699.0,,,-2.3245893,111.1828291,https://maps.google.com/?cid=0x0:0xafcf828c68417c05,
toko bangunan,Toko Bahan Bangunan,TOKO BANGUNAN (YOLAN BARITO),"9H3J+5W, Puruk Cahu, Kec. Murung, Kabupaten Murung Raya, Kalimantan Tengah 73911","Puruk Cahu, Kec. Murung, Kabupaten Murung Raya",KALIMANTAN TENGAH,73911.0,Indonesia,87737401068.0,,,-0.6466795,114.5811541,https://maps.google.com/?cid=0x0:0x1e126e186b82f785,
toko bangunan,Toko Bahan Bangunan,TOKO CENTRAL BANGUNAN,"M583+QQ9, Balai Riam, Kec. Balai Riam, Kabupaten Sukamara, Kalimantan Tengah","Kabupaten Sukamara, Kalimantan Tengah",KALIMANTAN TENGAH,,Indonesia,85346717600.0,,,-2.3330996,111.1544784,https://maps.google.com/?cid=0x0:0xa85112780d0e9234,
toko bangunan,Toko Bahan Bangunan,Toko Bangunan Karya Bersama,"Anjir Mambulau Bar., Kec. Kapuas Tim., Kabupaten Kapuas, Kalimantan Tengah 73581","Kec. Kapuas Tim., Kabupaten Kapuas",KALIMANTAN TENGAH,73581.0,Indonesia,81396801512.0,,,-3.0357377,114.4017128,https://maps.google.com/?cid=0x0:0x483ffdaffdffbc6a,
toko bangunan,toko bangunan,,,,KALIMANTAN TENGAH,,Indonesia,85373031678.0,,,-2.44565,117.8888,https://maps.google.com/?cid=0x0:0x486632cd4060431f,
toko bangunan,Toko Perlengkapan Rumah,Toko Sri Rejeki 1,"Baamang Hulu, Kec. Baamang, Kabupaten Kotawaringin Timur, Kalimantan Tengah 74312","Kec. Baamang, Kabupaten Kotawaringin Timur",KALIMANTAN TENGAH,74312.0,Indonesia,85185536616.0,,,-2.5049828,112.960501,https://maps.google.com/?cid=0x0:0xe3e83d537efd03b7,
toko bangunan,Toko Bahan Bangunan,Toko Bangunan PODHO JOYO,"9H28+8F2, Beriwit, Kec. Murung, Kabupaten Murung Raya, Kalimantan Tengah 73911","Beriwit, Kec. Murung, Kabupaten Murung Raya",KALIMANTAN TENGAH,73911.0,Indonesia,,,,-0.6492272,114.5661435,https://maps.google.com/?cid=0x0:0xe2b9ba3f87ebe241,
toko bangunan,toko bangunan,,,,KALIMANTAN TENGAH,,Indonesia,82350903377.0,,,-2.44565,117.8888,https://maps.google.com/?cid=0x0:0x209fc8656cdde538,
toko bangunan,Toko Perlengkapan Rumah,TB ABDILLAH (Markas Bangunan),"Jl. Batulicin - Pelaihari, Sungai Danau, Kec. Satui, Kabupaten Tanah Bumbu, Kalimantan Selatan 72275","Sungai Danau, Kec. Satui, Kabupaten Tanah Bumbu",KALIMANTAN TENGAH,72275.0,Indonesia,81272081709.0,,,-3.7757961,115.40884,https://maps.google.com/?cid=0x0:0x3ce8c0f0f43f015f,
toko bangunan,Toko Bahan Bangunan,Toko Bangunan Citra Dewi,"Jl. Keruing No.23, Selat Tengah, Kec. Selat, Kabupaten Kapuas, Kalimantan Tengah 73516","Selat Tengah, Kec. Selat, Kabupaten Kapuas",KALIMANTAN TENGAH,73516.0,Indonesia,83821475758.0,,,-3.0060076,114.3857865,https://maps.google.com/?cid=0x0:0x3759f20759733bd5,
toko bangunan,Pemasok Bahan Bangunan,"Radi, Toko Bangunan(kayu)","943G+62C, Jln Raya Daha, Muning Tengah, Daha Selatan, South Hulu Sungai Regency, South Kalimantan","Kabupaten Hulu Sungai Selatan, Kalimantan Selatan",KALIMANTAN TENGAH,,Indonesia,87781689990.0,,,-2.6469407,115.1250078,https://maps.google.com/?cid=0x0:0x444e14c176a004b2,
toko bangunan,Minimarket,Toko 4J,"Jl, Temanggung Jadam RT, 4, Tumbang Lahung, Kalimantan Tengah 73971","Temanggung Jadam RT, 4, Tumbang Lahung",KALIMANTAN TENGAH,73971.0,Indonesia,85248819791.0,,,-0.6882927,114.2992379,https://maps.google.com/?cid=0x0:0x28144988d9e8c4a4,
toko bangunan,Toko Bahan Bangunan,Toko Bangunan Riry,"97JV+C4G, Jl. Ambawang - Amuntai, Kasarangan, Kec. Labuan Amas Utara, Kabupaten Hulu Sungai Tengah, Kalimantan Selatan 71362","Jl. Ambawang - Amuntai, Kasarangan, Kec. Labuan Amas Utara, Kabupaten Hulu Sungai Tengah",KALIMANTAN TENGAH,71362.0,Indonesia,85247699690.0,,,-2.6189391,115.2928416,https://maps.google.com/?cid=0x0:0x63967b19fbd87220,
toko bangunan,Toko Bahan Bangunan,Toko Bahan Bangunan Rajaki Dumah,"Jl. Trans Kalimantan Jl. Jepang No.Desa, Pulau Telo, Kec. Selat, Kabupaten Kapuas, Kalimantan Tengah 73516","Pulau Telo, Kec. Selat, Kabupaten Kapuas",KALIMANTAN TENGAH,73516.0,Indonesia,8161999912.0,,,-2.980216,114.3861345,https://maps.google.com/?cid=0x0:0x774fb2a5e5b5383e,
toko bangunan,Toko Bahan Bangunan,Kulim Binjai panter,"6W9G+5GM, Sei Pinang, Mandau Talawang, Kabupaten Kapuas, Kalimantan Tengah","Kabupaten Kapuas, Kalimantan Tengah",KALIMANTAN TENGAH,,Indonesia,,,,-0.7820442,113.9262881,https://maps.google.com/?cid=0x0:0x2026106696798007,
toko bangunan,Toko,Gemilang Pusat Bahan Bangunan Banjarbaru,"Jl. A. Yani No.Km.33, Guntung Payung, Kec. Landasan Ulin, Kota Banjar Baru, Kalimantan Selatan 70714","Guntung Payung, Kec. Landasan Ulin, Kota Banjar Baru",KALIMANTAN TENGAH,70714.0,Indonesia,5115911071.0,,,-3.4452225,114.8131499,https://maps.google.com/?cid=0x0:0x73bc6400cc369536,
toko bangunan,Toko Bahan Bangunan,Toko Fatwa,"CP2J+HP9, Muara Laung I, Kec. Laung Tuhup, Kabupaten Murung Raya, Kalimantan Tengah 73911","Muara Laung I, Kec. Laung Tuhup, Kabupaten Murung Raya",KALIMANTAN TENGAH,73911.0,Indonesia,,,,-0.5989563,114.7321794,https://maps.google.com/?cid=0x0:0x17a611aeab2412e,
toko bangunan,Toko Bahan Bangunan,"Salam Ria Abadi, Pt","Jl.bengkong Bengkel No.12, Sei Pinang, Mandau Talawang, Kapuas Regency, Central Kalimantan 74511","Sei Pinang, Mandau Talawang, Kapuas Regency",KALIMANTAN TENGAH,74511.0,Indonesia,,,,-0.789275,113.921,https://maps.google.com/?cid=0x0:0x9015fd17e20d3308,
toko bangunan,toko bangunan,Toko Surya Nusantara,,,KALIMANTAN TENGAH,,Indonesia,85769969115.0,,,-2.44565,117.8888,https://maps.google.com/?cid=0x0:0x5063a7552d6e553f,
toko bangunan,Toko Bahan Bangunan,Toko Bangunan DADUNG,"Sekuningan Baru, Kec. Balai Riam, Kabupaten Sukamara, Kalimantan Tengah 74172","Kec. Balai Riam, Kabupaten Sukamara",KALIMANTAN TENGAH,74172.0,Indonesia,85373031678.0,,,-2.3423051,111.1879143,https://maps.google.com/?cid=0x0:0x661e5417c748891c,
toko bangunan,Toko Perlengkapan Rumah,"TOKO WAJAH BARU 2 (bangunan,Mesin  sparepart terlengkap)","9H98+FX8, Jl. Ahmad Yani, Beriwit, Kec. Murung, Kabupaten Murung Raya, Kalimantan Tengah 73911","Jl. Ahmad Yani, Beriwit, Kec. Murung, Kabupaten Murung Raya",KALIMANTAN TENGAH,73911.0,Indonesia,81287458656.0,,,-0.6313635,114.5674705,https://maps.google.com/?cid=0x0:0x7ced03815960437e,
toko bangunan,Toko Bahan Bangunan,Toko Bahan Bangunan Rama Sinta,"Psan antar Chat WhatsAp Kami, o  2 I × 7  9 3 × 0 9 4 0,Toko, Jl. Jend. Sudirman, Puruk Cahu, Kec. Murung, Kabupaten Murung Raya, Kalimantan Tengah 73911","o  2 I × 7  9 3 × 0 9 4 0,Toko, Jl. Jend. Sudirman, Puruk Cahu, Kec. Murung, Kabupaten Murung Raya",KALIMANTAN TENGAH,73911.0,Indonesia,82122228701.0,,,-0.6558637,114.5837824,https://maps.google.com/?cid=0x0:0xb97546aaffe9e7f3,
toko bangunan,Toko Bahan Bangunan,Toko bangunan Wijaya Kusuma,"8JP2+H2R, Jl. Lintas Kalimantan Poros Tengah, Danau Usung, Kec. Murung, Kabupaten Murung Raya, Kalimantan Tengah","Kabupaten Murung Raya, Kalimantan Tengah",KALIMANTAN TENGAH,,Indonesia,82353064829.0,,,-0.6635077,114.6000175,https://maps.google.com/?cid=0x0:0xa37f99e24ebbe6f,
toko bangunan,Toko Bahan Bangunan,TOKO BANGUNAN ANDRI JAYA,"6W6C+7GP, Sei Pinang, Mandau Talawang, Kabupaten Kapuas, Kalimantan Tengah","Kabupaten Kapuas, Kalimantan Tengah",KALIMANTAN TENGAH,,Indonesia,81396801512.0,,,-0.789275,113.921327,https://maps.google.com/?cid=0x0:0x6201f44ff837cf21,
toko bangunan,toko bangunan,,,,KALIMANTAN TENGAH,,Indonesia,,,,-2.44565,117.8888,https://maps.google.com/?cid=0x0:0xd7432bc24b9db229,
toko bangunan,Toko Bahan Bangunan,Mulya Indah Ceramics,"JL. Raya Karuban-Pati No.Km 10, Sei Pinang, Pati, Kabupaten Kapuas, Kalimantan Tengah 59118","Sei Pinang, Pati, Kabupaten Kapuas",KALIMANTAN TENGAH,59118.0,Indonesia,295385670.0,,,-0.789275,113.921327,https://maps.google.com/?cid=0x0:0xf56cbda7acfad7af,
toko bangunan,Toko Bahan Bangunan,Toko Bangunan Jaya,"Psan antar, Beriwit, Kec. Murung, Kabupaten Murung Raya, Kalimantan Tengah 73911","Beriwit, Kec. Murung, Kabupaten Murung Raya",KALIMANTAN TENGAH,73911.0,Indonesia,,,,-0.6288125,114.5643281,https://maps.google.com/?cid=0x0:0x834cd32f96f3ba4e,
toko bangunan,Toko Perlengkapan Rumah,Molding Radi,"9H55+392, Beriwit, Kec. Murung, Kabupaten Murung Raya, Kalimantan Tengah 73911","Beriwit, Kec. Murung, Kabupaten Murung Raya",KALIMANTAN TENGAH,73911.0,Indonesia,,,,-0.6423577,114.5583872,https://maps.google.com/?cid=0x0:0xcdafbe95447193ee,
toko bangunan,toko bangunan,Sumber Barito,"Kabupaten Murung Raya, Kalimantan Tengah","Kabupaten Murung Raya, Kalimantan Tengah",KALIMANTAN TENGAH,,Indonesia,,,,-0.341791,114.2390498,https://maps.google.com/?cid=0x0:0xdb7aed4b9b946c56,
toko bangunan,Toko Bahan Bangunan,Toko Bangunan Tiga Berlian,"Jl. Yetro Sinseng No.21, Lanjas, Kec. Teweh Tengah, Kabupaten Barito Utara, Kalimantan Tengah 73814","Lanjas, Kec. Teweh Tengah, Kabupaten Barito Utara",KALIMANTAN TENGAH,73814.0,Indonesia,81367805201.0,,,-0.9617625,114.8931326,https://maps.google.com/?cid=0x0:0x642a4ce342ec99fc,
toko bangunan,Toko Bahan Bangunan,TOKO BANGUNAN (YOLAN BARITO),"9H3J+5W, Puruk Cahu, Kec. Murung, Kabupaten Murung Raya, Kalimantan Tengah 73911","Puruk Cahu, Kec. Murung, Kabupaten Murung Raya",KALIMANTAN TENGAH,73911.0,Indonesia,87737401068.0,,,-0.6466795,114.5811541,https://maps.google.com/?cid=0x0:0x1e126e186b82f785,
toko bangunan,Toko Perlengkapan Rumah,Toko bangunan,"3V7Q+8H5, Lanjas, Kec. Teweh Tengah, Kabupaten Barito Utara, Kalimantan Tengah 73814","Lanjas, Kec. Teweh Tengah, Kabupaten Barito Utara",KALIMANTAN TENGAH,73814.0,Indonesia,85179569934.0,,,-0.9367264,114.8889851,https://maps.google.com/?cid=0x0:0x6b9888aba8261bcd,
toko bangunan,Toko Bahan Bangunan,Toko bangunan yolan barito(H.kaset),"9HF9+XRX, Jl. Ahmad Yani, Beriwit, Kec. Murung, Kabupaten Murung Raya, Kalimantan Tengah 73911","Jl. Ahmad Yani, Beriwit, Kec. Murung, Kabupaten Murung Raya",KALIMANTAN TENGAH,73911.0,Indonesia,81349416412.0,,,-0.6250176,114.5696045,https://maps.google.com/?cid=0x0:0x1589d991cba076e,
toko bangunan,toko bangunan,,,,KALIMANTAN TENGAH,,Indonesia,85373031678.0,,,-2.44565,117.8888,https://maps.google.com/?cid=0x0:0x486632cd4060431f,
toko bangunan,Toko Bahan Bangunan,Toko Sumber,"JL. Barito, No. 168-B RT 004/04, Rejosari, Kec. Semarang Tim., Kota Semarang, Jawa Tengah 50125","No. 168-B RT 004/04, Rejosari, Kec. Semarang Tim., Kota Semarang",KALIMANTAN TENGAH,50125.0,Indonesia,82279901092.0,,,-6.9780747,110.4413046,https://maps.google.com/?cid=0x0:0x5d41a05c50c04d6,
toko bangunan,Toko Bahan Bangunan,Toko Bangunan C.V. Citra Barito,"2VMJ+7M9, Jalan Negara, Kandui, Kec. Teweh Tengah, Kabupaten Barito Utara, Kalimantan Tengah 73814","Jalan Negara, Kandui, Kec. Teweh Tengah, Kabupaten Barito Utara",KALIMANTAN TENGAH,73814.0,Indonesia,,,,-0.9668375,114.8817444,https://maps.google.com/?cid=0x0:0xf185322732339ff6,
toko bangunan,Toko Perlengkapan Rumah,Toko MAJU,"2VPP+PVX, Lanjas, Kec. Teweh Tengah, Kabupaten Barito Utara, Kalimantan Tengah 73814","Lanjas, Kec. Teweh Tengah, Kabupaten Barito Utara",KALIMANTAN TENGAH,73814.0,Indonesia,87773968995.0,,,-0.9631483,114.8872391,https://maps.google.com/?cid=0x0:0x92b3b89aa2c4427a,
toko bangunan,Toko Perlengkapan Rumah,Toko Bangunan Raihan,"WJWF+5C6, Belawang Kolam Kiri, Kec. Wanaraya, Kabupaten Barito Kuala, Kalimantan Selatan 70562","Belawang Kolam Kiri, Kec. Wanaraya, Kabupaten Barito Kuala",KALIMANTAN TENGAH,70562.0,Indonesia,,,,-3.0545899,114.6235237,https://maps.google.com/?cid=0x0:0x70f4408c22ee6645,
toko bangunan,Toko Bahan Bangunan,Toko Bangun Bersama,"QJ37+XM4, Handil Bakti, Kec. Alalak, Kabupaten Barito Kuala, Kalimantan Selatan 70581","Handil Bakti, Kec. Alalak, Kabupaten Barito Kuala",KALIMANTAN TENGAH,70581.0,Indonesia,8125410140.0,,,-3.2451207,114.6142055,https://maps.google.com/?cid=0x0:0xa33963f5ee453e5f,
toko bangunan,Toko Perlengkapan Rumah,TOKO BANGUN TANI,"Jl. Brigjen Katamso, Melayu, Kec. Teweh Tengah, Kabupaten Barito Utara, Kalimantan Tengah 73814","Melayu, Kec. Teweh Tengah, Kabupaten Barito Utara",KALIMANTAN TENGAH,73814.0,Indonesia,81351152210.0,,,-0.9427266,114.9047556,https://maps.google.com/?cid=0x0:0x8c679f1aad05b54d,
toko bangunan,Toko Bahan Bangunan,Toko Alat Bangunan,"RT 03 RW 01 Kabupaten, Tinggiran Baru, Kec. Mekarsari, Kabupaten Barito Kuala, Kalimantan Selatan 70566","Tinggiran Baru, Kec. Mekarsari, Kabupaten Barito Kuala",KALIMANTAN TENGAH,70566.0,Indonesia,,,,-3.2742548,114.5215334,https://maps.google.com/?cid=0x0:0x209535c5cb02fd61,
toko bangunan,Toko Bahan Bangunan,Bumi Bangunan,"Muara Teweh, Jl. Ampah No.RT 09, Ampah Kota, Kec. Dusun Tengah, Kabupaten Barito Timur, Kalimantan Tengah 73652","Jl. Ampah No.RT 09, Ampah Kota, Kec. Dusun Tengah, Kabupaten Barito Timur",KALIMANTAN TENGAH,73652.0,Indonesia,81287458656.0,,,-1.7910596,115.1503415,https://maps.google.com/?cid=0x0:0x332c6d59f1964b74,
toko bangunan,Toko Bahan Bangunan,Arsian Toko Bangunan Sumber Berkah,"PGG7+Q88, Jelapat II, Kec. Mekarsari, Kabupaten Barito Kuala, Kalimantan Selatan 70568","Jelapat II, Kec. Mekarsari, Kabupaten Barito Kuala",KALIMANTAN TENGAH,70568.0,Indonesia,82171552837.0,,,-3.2730882,114.5133392,https://maps.google.com/?cid=0x0:0xec06d0a58c26bda1,
toko bangunan,toko bangunan,,,,KALIMANTAN TENGAH,,Indonesia,82350903377.0,,,-2.44565,117.8888,https://maps.google.com/?cid=0x0:0x209fc8656cdde538,
toko bangunan,Toko Bahan Bangunan,Toko Bangunan Swarga,"Jalan, Tamiang Layang, Dusun Timur, East Barito Regency, Central Kalimantan 73671","Tamiang Layang, Dusun Timur, East Barito Regency",KALIMANTAN TENGAH,73671.0,Indonesia,85789077202.0,,,-2.0966672,115.151779,https://maps.google.com/?cid=0x0:0x4153cd1f5a6a0a6e,
toko bangunan,Toko Bahan Bangunan,Toko bangunan Eko,"RJXW+4QH, Karang Bunga, Kec. Mandastana, Kabupaten Barito Kuala, Kalimantan Selatan 70561","Karang Bunga, Kec. Mandastana, Kabupaten Barito Kuala",KALIMANTAN TENGAH,70561.0,Indonesia,,,,-3.1524577,114.6466312,https://maps.google.com/?cid=0x0:0x7805f997a19caea6,
toko bangunan,Toko,Toko HS Anugerah,"Unnamed Rd, Batu Raya I, Kec. Gn. Timang, Kabupaten Barito Utara, Kalimantan Tengah 73862","Batu Raya I, Kec. Gn. Timang, Kabupaten Barito Utara",KALIMANTAN TENGAH,73862.0,Indonesia,81352437322.0,,,-1.3524232,115.2603773,https://maps.google.com/?cid=0x0:0x7f187bcb9f16e0f4,
toko bangunan,Toko Bahan Bangunan,Toko Bangunan Sumber Makmur,"Nomer Jl. Guru No.18 6, RT.6/RW.2, Lenteng Agung, Kec. Jagakarsa, Kota Jakarta Selatan, Daerah Khusus Ibukota Jakarta 12610","RT.6/RW.2, Lenteng Agung, Kec. Jagakarsa, Kota Jakarta Selatan",KALIMANTAN TENGAH,12610.0,Indonesia,81574797312.0,,,-6.319313,106.838118,https://maps.google.com/?cid=0x0:0xf3a49afd05dca8de,
toko bangunan,toko bangunan,Kec. Sungai Babuat,"Kabupaten Murung Raya, Kalimantan Tengah","Kabupaten Murung Raya, Kalimantan Tengah",KALIMANTAN TENGAH,,Indonesia,,,,-0.5790762,114.3152452,https://maps.google.com/?cid=0x0:0xd1427b5a363a47e7,
toko bangunan,Toko Bahan Bangunan,Toko Bangunan PODHO JOYO,"9H28+8F2, Beriwit, Kec. Murung, Kabupaten Murung Raya, Kalimantan Tengah 73911","Beriwit, Kec. Murung, Kabupaten Murung Raya",KALIMANTAN TENGAH,73911.0,Indonesia,,,,-0.6492272,114.5661435,https://maps.google.com/?cid=0x0:0xe2b9ba3f87ebe241,
toko bangunan,Toko Bahan Bangunan,TOKO BANGUNAN (YOLAN BARITO),"9H3J+5W, Puruk Cahu, Kec. Murung, Kabupaten Murung Raya, Kalimantan Tengah 73911","Puruk Cahu, Kec. Murung, Kabupaten Murung Raya",KALIMANTAN TENGAH,73911.0,Indonesia,87737401068.0,,,-0.6466795,114.5811541,https://maps.google.com/?cid=0x0:0x1e126e186b82f785,
toko bangunan,Toko Bahan Bangunan,Toko Bangun Tehnik,"9HMF+29F, Jl. Merdeka, Beriwit, Kec. Murung, Kabupaten Murung Raya, Kalimantan Tengah 73911","Jl. Merdeka, Beriwit, Kec. Murung, Kabupaten Murung Raya",KALIMANTAN TENGAH,73911.0,Indonesia,87761141363.0,,,-0.6174301,114.5734251,https://maps.google.com/?cid=0x0:0xfbbb1cbef1f2ec8c,
toko bangunan,Minimarket,Toko 4J,"Jl, Temanggung Jadam RT, 4, Tumbang Lahung, Kalimantan Tengah 73971","Temanggung Jadam RT, 4, Tumbang Lahung",KALIMANTAN TENGAH,73971.0,Indonesia,85248819791.0,,,-0.6882927,114.2992379,https://maps.google.com/?cid=0x0:0x28144988d9e8c4a4,
toko bangunan,Toko Bahan Bangunan,Toko Bangunan Jaya,"Psan antar, Beriwit, Kec. Murung, Kabupaten Murung Raya, Kalimantan Tengah 73911","Beriwit, Kec. Murung, Kabupaten Murung Raya",KALIMANTAN TENGAH,73911.0,Indonesia,,,,-0.6288125,114.5643281,https://maps.google.com/?cid=0x0:0x834cd32f96f3ba4e,
toko bangunan,Toko Bahan Bangunan,Toko Bangunan ALBASITHU,"Jl. Bhayangkara No.35, Pasir Panjang, Kec. Arut Sel., Kabupaten Kotawaringin Barat, Kalimantan Tengah 74181","Pasir Panjang, Kec. Arut Sel., Kabupaten Kotawaringin Barat",KALIMANTAN TENGAH,74181.0,Indonesia,82182357020.0,,,-2.7343091,111.6389463,https://maps.google.com/?cid=0x0:0x55b57a034739091,
toko bangunan,Toko Bahan Bangunan,Toko Material Putra Amuntai,"V948+5W3, Jl. Sengkawit, Tj. Selor Hilir, Kec. Tj. Selor, Kabupaten Bulungan, Kalimantan Utara 77216","Jl. Sengkawit, Tj. Selor Hilir, Kec. Tj. Selor, Kabupaten Bulungan",KALIMANTAN TENGAH,77216.0,Indonesia,85603254335.0,,,2.8553778,117.3673068,https://maps.google.com/?cid=0x0:0x72ab89da5315ef2f,
toko bangunan,Toko Perlengkapan Rumah,Toko Sungai Gemilang Raya,"9H67+6R3, Jl. Ahmad Yani, Beriwit, Kec. Murung, Kabupaten Murung Raya, Kalimantan Tengah 73911","Jl. Ahmad Yani, Beriwit, Kec. Murung, Kabupaten Murung Raya",KALIMANTAN TENGAH,73911.0,Indonesia,,,,-0.6394844,114.5645558,https://maps.google.com/?cid=0x0:0x4db2de8c483ede05,
toko bangunan,Toko Bahan Bangunan,UD MAJU,"Jl. Ahmad Yani No.165, Beriwit, Kec. Murung, Kabupaten Murung Raya, Kalimantan Tengah 73911","Beriwit, Kec. Murung, Kabupaten Murung Raya",KALIMANTAN TENGAH,73911.0,Indonesia,85252775516.0,,,-0.6432912,114.5655543,https://maps.google.com/?cid=0x0:0x400e252ea5736d51,
toko bangunan,Toko Bahan Bangunan,Toko Fatwa,"CP2J+HP9, Muara Laung I, Kec. Laung Tuhup, Kabupaten Murung Raya, Kalimantan Tengah 73911","Muara Laung I, Kec. Laung Tuhup, Kabupaten Murung Raya",KALIMANTAN TENGAH,73911.0,Indonesia,,,,-0.5989563,114.7321794,https://maps.google.com/?cid=0x0:0x17a611aeab2412e,
toko bangunan,Toko Bahan Bangunan,Toko Bahan Bangunan Rama Sinta,"Psan antar Chat WhatsAp Kami, o  2 I × 7  9 3 × 0 9 4 0,Toko, Jl. Jend. Sudirman, Puruk Cahu, Kec. Murung, Kabupaten Murung Raya, Kalimantan Tengah 73911","o  2 I × 7  9 3 × 0 9 4 0,Toko, Jl. Jend. Sudirman, Puruk Cahu, Kec. Murung, Kabupaten Murung Raya",KALIMANTAN TENGAH,73911.0,Indonesia,82122228701.0,,,-0.6558637,114.5837824,https://maps.google.com/?cid=0x0:0xb97546aaffe9e7f3,
toko bangunan,Toko Bahan Bangunan,"TOKO NBOBBY, Jual Bahan Bangunan, Alat Listrik, Pecah Belah, Dll","Jl. Bukit Kaminting, Palangka, Kec. Jekan Raya, Kota Palangka Raya, Kalimantan Tengah 74874","Palangka, Kec. Jekan Raya, Kota Palangka Raya",KALIMANTAN TENGAH,74874.0,Indonesia,87788060738.0,,,-2.1990108,113.8845165,https://maps.google.com/?cid=0x0:0xcac1a820b28b16b7,
toko bangunan,Toko Bahan Bangunan,Toko bangunan Eko,"RJXW+4QH, Karang Bunga, Kec. Mandastana, Kabupaten Barito Kuala, Kalimantan Selatan 70561","Karang Bunga, Kec. Mandastana, Kabupaten Barito Kuala",KALIMANTAN TENGAH,70561.0,Indonesia,,,,-3.1524577,114.6466312,https://maps.google.com/?cid=0x0:0x7805f997a19caea6,
toko bangunan,toko bangunan,Toko Bangunan 3 Putri,"Puruk Cahu, Kec. Murung, Kabupaten Murung Raya, Kalimantan Tengah","Kabupaten Murung Raya, Kalimantan Tengah",KALIMANTAN TENGAH,,Indonesia,,,,-0.6518019,114.5726919,https://maps.google.com/?cid=0x0:0xe78b95c0894faff2,
toko bangunan,Toko Bahan Bangunan,Toko Bangun Bersama,"QJ37+XM4, Handil Bakti, Kec. Alalak, Kabupaten Barito Kuala, Kalimantan Selatan 70581","Handil Bakti, Kec. Alalak, Kabupaten Barito Kuala",KALIMANTAN TENGAH,70581.0,Indonesia,8125410140.0,,,-3.2451207,114.6142055,https://maps.google.com/?cid=0x0:0xa33963f5ee453e5f,
toko bangunan,Toko Bahan Bangunan,Toko Bahan Bangunan SEHATI,"Jalan Ir. P. Haji Moch Noor RT.009, RW No.02, Sulingan, Kec. Tj., Kabupaten Tabalong, Kalimantan Selatan 71571","RW No.02, Sulingan, Kec. Tj., Kabupaten Tabalong",KALIMANTAN TENGAH,71571.0,Indonesia,811504278.0,,,-2.1723015,115.3849132,https://maps.google.com/?cid=0x0:0x45e7bd10f07aa0f8,
toko bangunan,Toko Bahan Bangunan,Toko Bangunan Swarga,"Jalan, Tamiang Layang, Dusun Timur, East Barito Regency, Central Kalimantan 73671","Tamiang Layang, Dusun Timur, East Barito Regency",KALIMANTAN TENGAH,73671.0,Indonesia,85789077202.0,,,-2.0966672,115.151779,https://maps.google.com/?cid=0x0:0x4153cd1f5a6a0a6e,
toko bangunan,Toko Bahan Bangunan,Toko Bangunan dan Material,"Jl. Veteran rt 09 kelurahan muara laung 1 kecamatan laung tuhup Muara Laung 1, Kalimantan Tengah 73992","Kabupaten Murung Raya, Kalimantan Tengah",KALIMANTAN TENGAH,,Indonesia,81352554971.0,,,-0.5969586,114.7294917,https://maps.google.com/?cid=0x0:0xa690a33d5f93a021,
toko bangunan,Toko Bahan Bangunan,Toko Berkat Makmur,"RCH4+6WM, JL. Insinyur PH Moch Noor, Sulingan, Mabuun, Tanjung Tabalong, Kabupaten Tabalong, Kalimantan Selatan 71571","JL. Insinyur PH Moch Noor, Sulingan, Mabuun, Tanjung Tabalong, Kabupaten Tabalong",KALIMANTAN TENGAH,71571.0,Indonesia,81349672737.0,,,-2.171919,115.407296,https://maps.google.com/?cid=0x0:0xb91f4961ac69646d,
toko bangunan,Toko Perlengkapan Rumah,Toko alat bangunan sudi bungkang.trimas.,"FCH2+JVM, JL.ULAMA, Ilung, Kec. Batang Alai Utara, Kabupaten Hulu Sungai Tengah, Kalimantan Selatan 71391","JL.ULAMA, Ilung, Kec. Batang Alai Utara, Kabupaten Hulu Sungai Tengah",KALIMANTAN TENGAH,71391.0,Indonesia,8161999912.0,,,-2.5209169,115.4021704,https://maps.google.com/?cid=0x0:0xb0eed6f4bed79f55,
toko bangunan,Toko Bahan Bangunan,Toko Karya Bangunan,"RCCJ+VRC, Jl. A. Yani, Maburai, Kec. Murung Pudak, Kabupaten Tabalong, Kalimantan Selatan 71571","Jl. A. Yani, Maburai, Kec. Murung Pudak, Kabupaten Tabalong",KALIMANTAN TENGAH,71571.0,Indonesia,82282044150.0,,,-2.1778116,115.4320283,https://maps.google.com/?cid=0x0:0x2d2e60895300026b,
toko bangunan,Toko Perlengkapan Rumah,Molding Radi,"9H55+392, Beriwit, Kec. Murung, Kabupaten Murung Raya, Kalimantan Tengah 73911","Beriwit, Kec. Murung, Kabupaten Murung Raya",KALIMANTAN TENGAH,73911.0,Indonesia,,,,-0.6423577,114.5583872,https://maps.google.com/?cid=0x0:0xcdafbe95447193ee,
toko bangunan,toko bangunan,Kalimantan Tengah 73961,"Kabupaten Murung Raya, Kalimantan Tengah","Kabupaten Murung Raya, Kalimantan Tengah",KALIMANTAN TENGAH,,Indonesia,,,,-0.1700332,114.5717799,https://maps.google.com/?cid=0x0:0x228b161e8a06fd62,
toko bangunan,Toko Bahan Bangunan,TOKO BANGUNAN (YOLAN BARITO),"9H3J+5W, Puruk Cahu, Kec. Murung, Kabupaten Murung Raya, Kalimantan Tengah 73911","Puruk Cahu, Kec. Murung, Kabupaten Murung Raya",KALIMANTAN TENGAH,73911.0,Indonesia,87737401068.0,,,-0.6466795,114.5811541,https://maps.google.com/?cid=0x0:0x1e126e186b82f785,
toko bangunan,Toko Bahan Bangunan,Toko Bahan Bangunan Rama Sinta,"Psan antar Chat WhatsAp Kami, o  2 I × 7  9 3 × 0 9 4 0,Toko, Jl. Jend. Sudirman, Puruk Cahu, Kec. Murung, Kabupaten Murung Raya, Kalimantan Tengah 73911","o  2 I × 7  9 3 × 0 9 4 0,Toko, Jl. Jend. Sudirman, Puruk Cahu, Kec. Murung, Kabupaten Murung Raya",KALIMANTAN TENGAH,73911.0,Indonesia,82122228701.0,,,-0.6558637,114.5837824,https://maps.google.com/?cid=0x0:0xb97546aaffe9e7f3,
toko bangunan,Toko Perlengkapan Rumah,TOKO BANGUN TANI,"Jl. Brigjen Katamso, Melayu, Kec. Teweh Tengah, Kabupaten Barito Utara, Kalimantan Tengah 73814","Melayu, Kec. Teweh Tengah, Kabupaten Barito Utara",KALIMANTAN TENGAH,73814.0,Indonesia,81351152210.0,,,-0.9427266,114.9047556,https://maps.google.com/?cid=0x0:0x8c679f1aad05b54d,
toko bangunan,Toko,Toko HS Anugerah,"Unnamed Rd, Batu Raya I, Kec. Gn. Timang, Kabupaten Barito Utara, Kalimantan Tengah 73862","Batu Raya I, Kec. Gn. Timang, Kabupaten Barito Utara",KALIMANTAN TENGAH,73862.0,Indonesia,81352437322.0,,,-1.3524232,115.2603773,https://maps.google.com/?cid=0x0:0x7f187bcb9f16e0f4,
toko bangunan,Toko Perlengkapan Rumah,Toko Bangunan Raihan,"WJWF+5C6, Belawang Kolam Kiri, Kec. Wanaraya, Kabupaten Barito Kuala, Kalimantan Selatan 70562","Belawang Kolam Kiri, Kec. Wanaraya, Kabupaten Barito Kuala",KALIMANTAN TENGAH,70562.0,Indonesia,,,,-3.0545899,114.6235237,https://maps.google.com/?cid=0x0:0x70f4408c22ee6645,
toko bangunan,Toko Bahan Bangunan,Toko Bangunan Fasya,"Jln. Tumbang samba km 27, desa, Karya unggang, Kec. Tewang Sangalang Garing, Kabupaten Katingan, Kalimantan Tengah 74453","desa, Karya unggang, Kec. Tewang Sangalang Garing, Kabupaten Katingan",KALIMANTAN TENGAH,74453.0,Indonesia,81396801512.0,,,-1.7299252,113.1453314,https://maps.google.com/?cid=0x0:0x44bf5edc4ed75ac0,
toko bangunan,Toko Bahan Bangunan,Toko bangunan Eko,"RJXW+4QH, Karang Bunga, Kec. Mandastana, Kabupaten Barito Kuala, Kalimantan Selatan 70561","Karang Bunga, Kec. Mandastana, Kabupaten Barito Kuala",KALIMANTAN TENGAH,70561.0,Indonesia,,,,-3.1524577,114.6466312,https://maps.google.com/?cid=0x0:0x7805f997a19caea6,
toko bangunan,Toko Perlengkapan Rumah,Toko bangunan,"3V7Q+8H5, Lanjas, Kec. Teweh Tengah, Kabupaten Barito Utara, Kalimantan Tengah 73814","Lanjas, Kec. Teweh Tengah, Kabupaten Barito Utara",KALIMANTAN TENGAH,73814.0,Indonesia,85179569934.0,,,-0.9367264,114.8889851,https://maps.google.com/?cid=0x0:0x6b9888aba8261bcd,
toko bangunan,Toko Bahan Bangunan,Toko Bangunan Pelita,"V93Q+XJM Pesan Antar Chat No T0k0 Kami 0  7  • I 5 5 O • 6 6 I O TOKO, Jl. Basuki Rahmat, Agung, Kec. Tj., Kabupaten Tabalong, Kalimantan Selatan 71571","Jl. Basuki Rahmat, Agung, Kec. Tj., Kabupaten Tabalong",KALIMANTAN TENGAH,71571.0,Indonesia,81385661699.0,,,-2.1450361,115.3890379,https://maps.google.com/?cid=0x0:0x903499446fdbbf7,
toko bangunan,Toko Bahan Bangunan,Toko Bangunan H.Misran,"2Q9C+W8X, Marabahan Kota, Kec. Marabahan, Kabupaten Barito Kuala, Kalimantan Selatan 70513","Marabahan Kota, Kec. Marabahan, Kabupaten Barito Kuala",KALIMANTAN TENGAH,70513.0,Indonesia,87781689990.0,,,-2.9801426,114.7708467,https://maps.google.com/?cid=0x0:0x620eb772bf5960c9,
toko bangunan,Toko Bahan Bangunan,Toko Bahan Bangunan Setia Tunggal,"Jl. Ujung Murung No.72, Kertak Baru Ulu, Kec. Banjarmasin Tengah, Kota Banjarmasin, Kalimantan Selatan 70234","Kertak Baru Ulu, Kec. Banjarmasin Tengah, Kota Banjarmasin",KALIMANTAN TENGAH,70234.0,Indonesia,8161999912.0,,,-3.3246437,114.595704,https://maps.google.com/?cid=0x0:0x2758df70f623dfde,
toko bangunan,Toko Bahan Bangunan,Toko Bangunan dan Material,"Jl. Veteran rt 09 kelurahan muara laung 1 kecamatan laung tuhup Muara Laung 1, Kalimantan Tengah 73992","Kabupaten Murung Raya, Kalimantan Tengah",KALIMANTAN TENGAH,,Indonesia,81352554971.0,,,-0.5969586,114.7294917,https://maps.google.com/?cid=0x0:0xa690a33d5f93a021,
toko bangunan,Toko Bahan Bangunan,Toko Bangunan C.V. Citra Barito,"2VMJ+7M9, Jalan Negara, Kandui, Kec. Teweh Tengah, Kabupaten Barito Utara, Kalimantan Tengah 73814","Jalan Negara, Kandui, Kec. Teweh Tengah, Kabupaten Barito Utara",KALIMANTAN TENGAH,73814.0,Indonesia,,,,-0.9668375,114.8817444,https://maps.google.com/?cid=0x0:0xf185322732339ff6,
toko bangunan,Toko Bahan Bangunan,Arsian Toko Bangunan Sumber Berkah,"PGG7+Q88, Jelapat II, Kec. Mekarsari, Kabupaten Barito Kuala, Kalimantan Selatan 70568","Jelapat II, Kec. Mekarsari, Kabupaten Barito Kuala",KALIMANTAN TENGAH,70568.0,Indonesia,82171552837.0,,,-3.2730882,114.5133392,https://maps.google.com/?cid=0x0:0xec06d0a58c26bda1,
toko bangunan,Toko Perlengkapan Rumah,TB ABDILLAH (Markas Bangunan),"Jl. Batulicin - Pelaihari, Sungai Danau, Kec. Satui, Kabupaten Tanah Bumbu, Kalimantan Selatan 72275","Sungai Danau, Kec. Satui, Kabupaten Tanah Bumbu",KALIMANTAN TENGAH,72275.0,Indonesia,81272081709.0,,,-3.7757961,115.40884,https://maps.google.com/?cid=0x0:0x3ce8c0f0f43f015f,
toko bangunan,Toko Bahan Bangunan,Toko Bangun Tehnik,"9HMF+29F, Jl. Merdeka, Beriwit, Kec. Murung, Kabupaten Murung Raya, Kalimantan Tengah 73911","Jl. Merdeka, Beriwit, Kec. Murung, Kabupaten Murung Raya",KALIMANTAN TENGAH,73911.0,Indonesia,87761141363.0,,,-0.6174301,114.5734251,https://maps.google.com/?cid=0x0:0xfbbb1cbef1f2ec8c,
toko bangunan,Toko Bahan Bangunan,TOKO BANGUNAN TB.BEKAH HIJRAH,"5J6M+XC7, 6J9X+P49Jl. Tj, KuaroSolan, Kec. Jaro, Kabupaten Tabalong, Kalimantan Selatan 71574","6J9X+P49Jl. Tj, KuaroSolan, Kec. Jaro, Kabupaten Tabalong",KALIMANTAN TENGAH,71574.0,Indonesia,85332321731.0,,,-1.8375783,115.633556,https://maps.google.com/?cid=0x0:0x1bf9728b2048b20c,
toko bangunan,Toko Bahan Bangunan,Gemilang Pusat Bahan Bangunan Banjarmasin,"Jl. Mayjen Sutoyo S Jl. Kinibalu No.94/202, Tlk. Dalam, Kec. Banjarmasin Tengah, Kota Banjarmasin, Kalimantan Selatan 70115","Tlk. Dalam, Kec. Banjarmasin Tengah, Kota Banjarmasin",KALIMANTAN TENGAH,70115.0,Indonesia,5113360081.0,,,-3.3201846,114.584356,https://maps.google.com/?cid=0x0:0x493c9e56b37b157d,
toko bangunan,,Toko tehnik bangunan,"Lintas DESA Tumbang Empas, Tuyun, Kec. Mihing Raya, Kabupaten Gunung MAS, Kalimantan Tengah 74863","Tuyun, Kec. Mihing Raya, Kabupaten Gunung MAS",KALIMANTAN TENGAH,74863.0,Indonesia,85169982128.0,,,-1.3909624,113.9080079,https://maps.google.com/?cid=0x0:0xa9e884d75e90cf78,
toko bangunan,Toko Bahan Bangunan,Toko Fatwa,"CP2J+HP9, Muara Laung I, Kec. Laung Tuhup, Kabupaten Murung Raya, Kalimantan Tengah 73911","Muara Laung I, Kec. Laung Tuhup, Kabupaten Murung Raya",KALIMANTAN TENGAH,73911.0,Indonesia,,,,-0.5989563,114.7321794,https://maps.google.com/?cid=0x0:0x17a611aeab2412e,
toko bangunan,Toko Bahan Bangunan,Toko Bangunan Jaya,"Psan antar, Beriwit, Kec. Murung, Kabupaten Murung Raya, Kalimantan Tengah 73911","Beriwit, Kec. Murung, Kabupaten Murung Raya",KALIMANTAN TENGAH,73911.0,Indonesia,,,,-0.6288125,114.5643281,https://maps.google.com/?cid=0x0:0x834cd32f96f3ba4e,
toko bangunan,Toko Bahan Bangunan,Galangan kayu bangunan putra tunggal,"2WV7+3QC, Jambu kec, Jambu, Kec. Teweh Baru, Kabupaten Barito Utara, Kalimantan Tengah 73814","Jambu kec, Jambu, Kec. Teweh Baru, Kabupaten Barito Utara",KALIMANTAN TENGAH,73814.0,Indonesia,,,,-0.957309,114.9143996,https://maps.google.com/?cid=0x0:0xf12e37ff72b6cc11,
toko bangunan,Minimarket,Toko 4J,"Jl, Temanggung Jadam RT, 4, Tumbang Lahung, Kalimantan Tengah 73971","Temanggung Jadam RT, 4, Tumbang Lahung",KALIMANTAN TENGAH,73971.0,Indonesia,85248819791.0,,,-0.6882927,114.2992379,https://maps.google.com/?cid=0x0:0x28144988d9e8c4a4,
toko bangunan,Toko Bahan Bangunan,Toko Bangunan Sei Nayah,"Jl. A. Yani KM.120 - Pelaihari, Asam Asam, Kec. Jorong, Kabupaten Tanah Laut, Kalimantan Selatan 70881","Asam Asam, Kec. Jorong, Kabupaten Tanah Laut",KALIMANTAN TENGAH,70881.0,Indonesia,87737401068.0,,,-3.9079935,115.0788591,https://maps.google.com/?cid=0x0:0xf34ad81f6ea64152,
toko bangunan,Toko Perlengkapan Rumah,Molding Radi,"9H55+392, Beriwit, Kec. Murung, Kabupaten Murung Raya, Kalimantan Tengah 73911","Beriwit, Kec. Murung, Kabupaten Murung Raya",KALIMANTAN TENGAH,73911.0,Indonesia,,,,-0.6423577,114.5583872,https://maps.google.com/?cid=0x0:0xcdafbe95447193ee,
toko bangunan,toko bangunan,Tanah Siang Sel.,"Kabupaten Murung Raya, Kalimantan Tengah","Kabupaten Murung Raya, Kalimantan Tengah",KALIMANTAN TENGAH,,Indonesia,,,,-0.6787755,114.4533539,https://maps.google.com/?cid=0x0:0x563ce9dc5860bfa6,
toko bangunan,Toko Bahan Bangunan,Toko Bangunan PODHO JOYO,"9H28+8F2, Beriwit, Kec. Murung, Kabupaten Murung Raya, Kalimantan Tengah 73911","Beriwit, Kec. Murung, Kabupaten Murung Raya",KALIMANTAN TENGAH,73911.0,Indonesia,,,,-0.6492272,114.5661435,https://maps.google.com/?cid=0x0:0xe2b9ba3f87ebe241,
toko bangunan,Toko Bahan Bangunan,TOKO BANGUNAN (YOLAN BARITO),"9H3J+5W, Puruk Cahu, Kec. Murung, Kabupaten Murung Raya, Kalimantan Tengah 73911","Puruk Cahu, Kec. Murung, Kabupaten Murung Raya",KALIMANTAN TENGAH,73911.0,Indonesia,87737401068.0,,,-0.6466795,114.5811541,https://maps.google.com/?cid=0x0:0x1e126e186b82f785,
toko bangunan,Toko Perlengkapan Rumah,"TOKO WAJAH BARU 2 (bangunan,Mesin  sparepart terlengkap)","9H98+FX8, Jl. Ahmad Yani, Beriwit, Kec. Murung, Kabupaten Murung Raya, Kalimantan Tengah 73911","Jl. Ahmad Yani, Beriwit, Kec. Murung, Kabupaten Murung Raya",KALIMANTAN TENGAH,73911.0,Indonesia,81287458656.0,,,-0.6313635,114.5674705,https://maps.google.com/?cid=0x0:0x7ced03815960437e,
toko bangunan,Toko Perlengkapan Rumah,Toko Sungai Gemilang Raya,"9H67+6R3, Jl. Ahmad Yani, Beriwit, Kec. Murung, Kabupaten Murung Raya, Kalimantan Tengah 73911","Jl. Ahmad Yani, Beriwit, Kec. Murung, Kabupaten Murung Raya",KALIMANTAN TENGAH,73911.0,Indonesia,,,,-0.6394844,114.5645558,https://maps.google.com/?cid=0x0:0x4db2de8c483ede05,
toko bangunan,Toko Bahan Bangunan,TOKO WAJAH BARU (BANGUNAN ALAT SPARE PART MESIN TERLENGKAP,"Beriwit, Kec. Murung, Kabupaten Murung Raya, Kalimantan Tengah 73911","Kec. Murung, Kabupaten Murung Raya",KALIMANTAN TENGAH,73911.0,Indonesia,82255453260.0,,,-0.6169916,114.573286,https://maps.google.com/?cid=0x0:0xa12ae7a743d9d5a1,
toko bangunan,Toko Bahan Bangunan,Toko Bahan Bangunan Rama Sinta,"Psan antar Chat WhatsAp Kami, o  2 I × 7  9 3 × 0 9 4 0,Toko, Jl. Jend. Sudirman, Puruk Cahu, Kec. Murung, Kabupaten Murung Raya, Kalimantan Tengah 73911","o  2 I × 7  9 3 × 0 9 4 0,Toko, Jl. Jend. Sudirman, Puruk Cahu, Kec. Murung, Kabupaten Murung Raya",KALIMANTAN TENGAH,73911.0,Indonesia,82122228701.0,,,-0.6558637,114.5837824,https://maps.google.com/?cid=0x0:0xb97546aaffe9e7f3,
toko bangunan,Toko Bahan Bangunan,Toko Cina Serba Ada,"Jl. Ahmad Yani No.165, Beriwit, Kec. Murung, Kabupaten Murung Raya, Kalimantan Tengah 73911","Beriwit, Kec. Murung, Kabupaten Murung Raya",KALIMANTAN TENGAH,73911.0,Indonesia,,,,-0.6431923,114.5654579,https://maps.google.com/?cid=0x0:0x9ba00339d155290a,
toko bangunan,Toko Perlengkapan Rumah,Molding Radi,"9H55+392, Beriwit, Kec. Murung, Kabupaten Murung Raya, Kalimantan Tengah 73911","Beriwit, Kec. Murung, Kabupaten Murung Raya",KALIMANTAN TENGAH,73911.0,Indonesia,,,,-0.6423577,114.5583872,https://maps.google.com/?cid=0x0:0xcdafbe95447193ee,
toko bangunan,Toko Bahan Bangunan,Toko bangunan Wijaya Kusuma,"8JP2+H2R, Jl. Lintas Kalimantan Poros Tengah, Danau Usung, Kec. Murung, Kabupaten Murung Raya, Kalimantan Tengah","Kabupaten Murung Raya, Kalimantan Tengah",KALIMANTAN TENGAH,,Indonesia,82353064829.0,,,-0.6635077,114.6000175,https://maps.google.com/?cid=0x0:0xa37f99e24ebbe6f,
toko bangunan,Toko Bahan Bangunan,UD MAJU,"Jl. Ahmad Yani No.165, Beriwit, Kec. Murung, Kabupaten Murung Raya, Kalimantan Tengah 73911","Beriwit, Kec. Murung, Kabupaten Murung Raya",KALIMANTAN TENGAH,73911.0,Indonesia,85252775516.0,,,-0.6432912,114.5655543,https://maps.google.com/?cid=0x0:0x400e252ea5736d51,
toko bangunan,Toko Bahan Bangunan,Toko Bangunan Jaya,"Psan antar, Beriwit, Kec. Murung, Kabupaten Murung Raya, Kalimantan Tengah 73911","Beriwit, Kec. Murung, Kabupaten Murung Raya",KALIMANTAN TENGAH,73911.0,Indonesia,,,,-0.6288125,114.5643281,https://maps.google.com/?cid=0x0:0x834cd32f96f3ba4e,
toko bangunan,Toko Bahan Bangunan,Toko bangunan yolan barito(H.kaset),"9HF9+XRX, Jl. Ahmad Yani, Beriwit, Kec. Murung, Kabupaten Murung Raya, Kalimantan Tengah 73911","Jl. Ahmad Yani, Beriwit, Kec. Murung, Kabupaten Murung Raya",KALIMANTAN TENGAH,73911.0,Indonesia,81349416412.0,,,-0.6250176,114.5696045,https://maps.google.com/?cid=0x0:0x1589d991cba076e,
toko bangunan,toko bangunan,Toko Bangunan 3 Putri,"Puruk Cahu, Kec. Murung, Kabupaten Murung Raya, Kalimantan Tengah","Kabupaten Murung Raya, Kalimantan Tengah",KALIMANTAN TENGAH,,Indonesia,,,,-0.6518019,114.5726919,https://maps.google.com/?cid=0x0:0xe78b95c0894faff2,
toko bangunan,Toko Bahan Bangunan,Toko Bangun Tehnik,"9HMF+29F, Jl. Merdeka, Beriwit, Kec. Murung, Kabupaten Murung Raya, Kalimantan Tengah 73911","Jl. Merdeka, Beriwit, Kec. Murung, Kabupaten Murung Raya",KALIMANTAN TENGAH,73911.0,Indonesia,87761141363.0,,,-0.6174301,114.5734251,https://maps.google.com/?cid=0x0:0xfbbb1cbef1f2ec8c,
toko bangunan,Toko Perlengkapan Rumah,Toko Bangunan Raihan,"WJWF+5C6, Belawang Kolam Kiri, Kec. Wanaraya, Kabupaten Barito Kuala, Kalimantan Selatan 70562","Belawang Kolam Kiri, Kec. Wanaraya, Kabupaten Barito Kuala",KALIMANTAN TENGAH,70562.0,Indonesia,,,,-3.0545899,114.6235237,https://maps.google.com/?cid=0x0:0x70f4408c22ee6645,
toko bangunan,Toko Bahan Bangunan,Toko Fatwa,"CP2J+HP9, Muara Laung I, Kec. Laung Tuhup, Kabupaten Murung Raya, Kalimantan Tengah 73911","Muara Laung I, Kec. Laung Tuhup, Kabupaten Murung Raya",KALIMANTAN TENGAH,73911.0,Indonesia,,,,-0.5989563,114.7321794,https://maps.google.com/?cid=0x0:0x17a611aeab2412e,
toko bangunan,Toko Bahan Bangunan,Toko Bangunan Swarga,"Jalan, Tamiang Layang, Dusun Timur, East Barito Regency, Central Kalimantan 73671","Tamiang Layang, Dusun Timur, East Barito Regency",KALIMANTAN TENGAH,73671.0,Indonesia,85789077202.0,,,-2.0966672,115.151779,https://maps.google.com/?cid=0x0:0x4153cd1f5a6a0a6e,
toko bangunan,Toko Perlengkapan Rumah,Toko Bangunan Karya Baru,"58F3+JWX, Unnamed Road, Batu Bini, Kec. Padang Batung, Kabupaten Hulu Sungai Selatan, Kalimantan Selatan 71281","Unnamed Road, Batu Bini, Kec. Padang Batung, Kabupaten Hulu Sungai Selatan",KALIMANTAN TENGAH,71281.0,Indonesia,81349778721.0,,,-2.8258938,115.3048725,https://maps.google.com/?cid=0x0:0x5a2b3cfb4ee6c663,
toko bangunan,Toko Perlengkapan Rumah,TB ABDILLAH (Markas Bangunan),"Jl. Batulicin - Pelaihari, Sungai Danau, Kec. Satui, Kabupaten Tanah Bumbu, Kalimantan Selatan 72275","Sungai Danau, Kec. Satui, Kabupaten Tanah Bumbu",KALIMANTAN TENGAH,72275.0,Indonesia,81272081709.0,,,-3.7757961,115.40884,https://maps.google.com/?cid=0x0:0x3ce8c0f0f43f015f,
toko bangunan,Toko Bahan Bangunan,Toko Bangunan Nur Afifah,"Ranggang, Takisung, Kabupaten Tanah Laut, Kalimantan Selatan 70861","Takisung, Kabupaten Tanah Laut",KALIMANTAN TENGAH,70861.0,Indonesia,85332626360.0,,,-3.8397625,114.6845402,https://maps.google.com/?cid=0x0:0x5238386e67b8696e,
toko bangunan,Pusat Perbelanjaan,Ekadana Jotun,"9HPC+3WR, Jl. Merdeka, Beriwit, Kec. Murung, Kabupaten Murung Raya, Kalimantan Tengah 73911","Jl. Merdeka, Beriwit, Kec. Murung, Kabupaten Murung Raya",KALIMANTAN TENGAH,73911.0,Indonesia,8125031113.0,,,-0.6147726,114.5722581,https://maps.google.com/?cid=0x0:0xf1ed096f627e1aed,
toko bangunan,Minimarket,Toko 4J,"Jl, Temanggung Jadam RT, 4, Tumbang Lahung, Kalimantan Tengah 73971","Temanggung Jadam RT, 4, Tumbang Lahung",KALIMANTAN TENGAH,73971.0,Indonesia,85248819791.0,,,-0.6882927,114.2992379,https://maps.google.com/?cid=0x0:0x28144988d9e8c4a4,
toko bangunan,Toko Bahan Bangunan,TOKO BANGUNAN LULUT 2,"Jl. Ahmad Yani, Batalang, Kec. Jorong, Kabupaten Tanah Laut, Kalimantan Selatan 70881","Batalang, Kec. Jorong, Kabupaten Tanah Laut",KALIMANTAN TENGAH,70881.0,Indonesia,82225526116.0,,,-3.9608197,114.9181956,https://maps.google.com/?cid=0x0:0x9627d35eed245665,
toko bangunan,Tukang Bangunan,VDR Batako Press,"Jl. Ahmad Yani, Beriwit, Kec. Murung, Kabupaten Murung Raya, Kalimantan Tengah 73911","Beriwit, Kec. Murung, Kabupaten Murung Raya",KALIMANTAN TENGAH,73911.0,Indonesia,85787669995.0,,,-0.637772,114.5656974,https://maps.google.com/?cid=0x0:0x8455b3c192e8364d,
toko bangunan,Sekolah Menengah Umum,SMAN 1 TANAH SIANG SELATAN,"Jl. Putir Sikan No.Km. 4, Dirung Lingkin, Tanah Siang Sel., Kabupaten Murung Raya, Kalimantan Tengah 73971","Dirung Lingkin, Tanah Siang Sel., Kabupaten Murung Raya",KALIMANTAN TENGAH,73971.0,Indonesia,85249122451.0,,,-0.6771109,114.451707,https://maps.google.com/?cid=0x0:0x3bdc7ea874caf13b,
toko bangunan,Toko Bahan Bangunan,MITRA MULIA TK,"9H88+FPP, Jl. Ahmad Yani, Beriwit, Kec. Murung, Kabupaten Murung Raya, Kalimantan Tengah 73911","Jl. Ahmad Yani, Beriwit, Kec. Murung, Kabupaten Murung Raya",KALIMANTAN TENGAH,73911.0,Indonesia,,,,-0.633795,114.5668204,https://maps.google.com/?cid=0x0:0xcf50adada1ee7b6b,
toko bangunan,Toko Bahan Bangunan,Toko Bangunan Sei Nayah,"Jl. A. Yani KM.120 - Pelaihari, Asam Asam, Kec. Jorong, Kabupaten Tanah Laut, Kalimantan Selatan 70881","Asam Asam, Kec. Jorong, Kabupaten Tanah Laut",KALIMANTAN TENGAH,70881.0,Indonesia,87737401068.0,,,-3.9079935,115.0788591,https://maps.google.com/?cid=0x0:0xf34ad81f6ea64152,
toko bangunan,toko bangunan,Kalimantan Tengah 73981,"Kabupaten Murung Raya, Kalimantan Tengah","Kabupaten Murung Raya, Kalimantan Tengah",KALIMANTAN TENGAH,,Indonesia,,,,0.1366232,113.9536466,https://maps.google.com/?cid=0x0:0xb765502d3651aeca,
toko bangunan,Toko Bahan Bangunan,TOKO BANGUNAN (YOLAN BARITO),"9H3J+5W, Puruk Cahu, Kec. Murung, Kabupaten Murung Raya, Kalimantan Tengah 73911","Puruk Cahu, Kec. Murung, Kabupaten Murung Raya",KALIMANTAN TENGAH,73911.0,Indonesia,87737401068.0,,,-0.6466795,114.5811541,https://maps.google.com/?cid=0x0:0x1e126e186b82f785,
toko bangunan,Toko Bahan Bangunan,TB H.Bahkian,"9H48+C7P, Jl. Ahmad Yani, Beriwit, Kec. Murung, Kabupaten Murung Raya, Kalimantan Tengah 73911","Jl. Ahmad Yani, Beriwit, Kec. Murung, Kabupaten Murung Raya",KALIMANTAN TENGAH,73911.0,Indonesia,85658340282.0,,,-0.6439103,114.5657086,https://maps.google.com/?cid=0x0:0x96f8d4f408b68cc1,
toko bangunan,Toko Bahan Bangunan,Toko Bangunan PODHO JOYO,"9H28+8F2, Beriwit, Kec. Murung, Kabupaten Murung Raya, Kalimantan Tengah 73911","Beriwit, Kec. Murung, Kabupaten Murung Raya",KALIMANTAN TENGAH,73911.0,Indonesia,,,,-0.6492272,114.5661435,https://maps.google.com/?cid=0x0:0xe2b9ba3f87ebe241,
toko bangunan,Toko Bahan Bangunan,Toko bangunan Wijaya Kusuma,"8JP2+H2R, Jl. Lintas Kalimantan Poros Tengah, Danau Usung, Kec. Murung, Kabupaten Murung Raya, Kalimantan Tengah","Kabupaten Murung Raya, Kalimantan Tengah",KALIMANTAN TENGAH,,Indonesia,82353064829.0,,,-0.6635077,114.6000175,https://maps.google.com/?cid=0x0:0xa37f99e24ebbe6f,
toko bangunan,Toko Elektronik,Toko bangunan dan elektronik 2 putri,"9PQP+HFH, Muara Laung I, Kec. Laung Tuhup, Kabupaten Murung Raya, Kalimantan Tengah","Kabupaten Murung Raya, Kalimantan Tengah",KALIMANTAN TENGAH,,Indonesia,83899586603.0,,,-0.6110741,114.7362284,https://maps.google.com/?cid=0x0:0x3f59fdb5c0c1eb76,
toko bangunan,Toko Bahan Bangunan,UD MAJU,"Jl. Ahmad Yani No.165, Beriwit, Kec. Murung, Kabupaten Murung Raya, Kalimantan Tengah 73911","Beriwit, Kec. Murung, Kabupaten Murung Raya",KALIMANTAN TENGAH,73911.0,Indonesia,85252775516.0,,,-0.6432912,114.5655543,https://maps.google.com/?cid=0x0:0x400e252ea5736d51,
toko bangunan,Toko Bahan Bangunan,TOKO BANGUNAN INARA,"9PQP+843, Muara Laung I, Kec. Laung Tuhup, Kabupaten Murung Raya, Kalimantan Tengah","Kabupaten Murung Raya, Kalimantan Tengah",KALIMANTAN TENGAH,,Indonesia,82149064696.0,,,-0.6117295,114.7353074,https://maps.google.com/?cid=0x0:0xe94938d36dd69663,
toko bangunan,Toko Perlengkapan Rumah,Toko Sungai Gemilang Raya,"9H67+6R3, Jl. Ahmad Yani, Beriwit, Kec. Murung, Kabupaten Murung Raya, Kalimantan Tengah 73911","Jl. Ahmad Yani, Beriwit, Kec. Murung, Kabupaten Murung Raya",KALIMANTAN TENGAH,73911.0,Indonesia,,,,-0.6394844,114.5645558,https://maps.google.com/?cid=0x0:0x4db2de8c483ede05,
toko bangunan,Toko Bahan Bangunan,Toko Bangun Tehnik,"9HMF+29F, Jl. Merdeka, Beriwit, Kec. Murung, Kabupaten Murung Raya, Kalimantan Tengah 73911","Jl. Merdeka, Beriwit, Kec. Murung, Kabupaten Murung Raya",KALIMANTAN TENGAH,73911.0,Indonesia,87761141363.0,,,-0.6174301,114.5734251,https://maps.google.com/?cid=0x0:0xfbbb1cbef1f2ec8c,
toko bangunan,Toko,Toko Bangunan H Udui,"2C4X+HQC, Unnamed Road, Usih, Kec. Bintang Ara, Kabupaten Tabalong, Kalimantan Selatan 71572","Unnamed Road, Usih, Kec. Bintang Ara, Kabupaten Tabalong",KALIMANTAN TENGAH,71572.0,Indonesia,85247021391.0,,,-1.9935589,115.4493758,https://maps.google.com/?cid=0x0:0x990f4c5df96efb3d,
toko bangunan,Toko Bahan Bangunan,Toko Fatwa,"CP2J+HP9, Muara Laung I, Kec. Laung Tuhup, Kabupaten Murung Raya, Kalimantan Tengah 73911","Muara Laung I, Kec. Laung Tuhup, Kabupaten Murung Raya",KALIMANTAN TENGAH,73911.0,Indonesia,,,,-0.5989563,114.7321794,https://maps.google.com/?cid=0x0:0x17a611aeab2412e,
toko bangunan,toko bangunan,,,,KALIMANTAN TENGAH,,Indonesia,85373031678.0,,,-2.44565,117.8888,https://maps.google.com/?cid=0x0:0x486632cd4060431f,
toko bangunan,Toko Bahan Bangunan,Toko Bangunan Jaya,"Psan antar, Beriwit, Kec. Murung, Kabupaten Murung Raya, Kalimantan Tengah 73911","Beriwit, Kec. Murung, Kabupaten Murung Raya",KALIMANTAN TENGAH,73911.0,Indonesia,,,,-0.6288125,114.5643281,https://maps.google.com/?cid=0x0:0x834cd32f96f3ba4e,
toko bangunan,Minimarket,Toko 4J,"Jl, Temanggung Jadam RT, 4, Tumbang Lahung, Kalimantan Tengah 73971","Temanggung Jadam RT, 4, Tumbang Lahung",KALIMANTAN TENGAH,73971.0,Indonesia,85248819791.0,,,-0.6882927,114.2992379,https://maps.google.com/?cid=0x0:0x28144988d9e8c4a4,
toko bangunan,Pusat Perbelanjaan,Ekadana Jotun,"9HPC+3WR, Jl. Merdeka, Beriwit, Kec. Murung, Kabupaten Murung Raya, Kalimantan Tengah 73911","Jl. Merdeka, Beriwit, Kec. Murung, Kabupaten Murung Raya",KALIMANTAN TENGAH,73911.0,Indonesia,8125031113.0,,,-0.6147726,114.5722581,https://maps.google.com/?cid=0x0:0xf1ed096f627e1aed,
toko bangunan,Toko Bahan Bangunan,Toko Bangunan dan Material,"Jl. Veteran rt 09 kelurahan muara laung 1 kecamatan laung tuhup Muara Laung 1, Kalimantan Tengah 73992","Kabupaten Murung Raya, Kalimantan Tengah",KALIMANTAN TENGAH,,Indonesia,81352554971.0,,,-0.5969586,114.7294917,https://maps.google.com/?cid=0x0:0xa690a33d5f93a021,
toko bangunan,Toko Bahan Bangunan,Toko Bahan Bangunan Rama Sinta,"Psan antar Chat WhatsAp Kami, o  2 I × 7  9 3 × 0 9 4 0,Toko, Jl. Jend. Sudirman, Puruk Cahu, Kec. Murung, Kabupaten Murung Raya, Kalimantan Tengah 73911","o  2 I × 7  9 3 × 0 9 4 0,Toko, Jl. Jend. Sudirman, Puruk Cahu, Kec. Murung, Kabupaten Murung Raya",KALIMANTAN TENGAH,73911.0,Indonesia,82122228701.0,,,-0.6558637,114.5837824,https://maps.google.com/?cid=0x0:0xb97546aaffe9e7f3,
toko bangunan,Toko Bahan Bangunan,Toko Bangunan Bedung,"8JV2+8MX, Dadahup, Kec. Dadahup, Kabupaten Kapuas, Kalimantan Tengah 73593","Dadahup, Kec. Dadahup, Kabupaten Kapuas",KALIMANTAN TENGAH,73593.0,Indonesia,81367805201.0,,,-2.656647,114.601729,https://maps.google.com/?cid=0x0:0x6bd38ef72b896daf,
toko bangunan,Toko Perlengkapan Rumah,TB ABDILLAH (Markas Bangunan),"Jl. Batulicin - Pelaihari, Sungai Danau, Kec. Satui, Kabupaten Tanah Bumbu, Kalimantan Selatan 72275","Sungai Danau, Kec. Satui, Kabupaten Tanah Bumbu",KALIMANTAN TENGAH,72275.0,Indonesia,81272081709.0,,,-3.7757961,115.40884,https://maps.google.com/?cid=0x0:0x3ce8c0f0f43f015f,
toko bangunan,toko bangunan,,,,KALIMANTAN TENGAH,,Indonesia,7717447168.0,,,-2.44565,117.8888,https://maps.google.com/?cid=0x0:0xe45973c986336b5b,
toko bangunan,Toko Bahan Bangunan,TOKO BANGUNAN ANDRI JAYA,"6W6C+7GP, Sei Pinang, Mandau Talawang, Kabupaten Kapuas, Kalimantan Tengah","Kabupaten Kapuas, Kalimantan Tengah",KALIMANTAN TENGAH,,Indonesia,81396801512.0,,,-0.789275,113.921327,https://maps.google.com/?cid=0x0:0x6201f44ff837cf21,
hardware store,hardware store,Kalimantan Tengah 73991,"Kabupaten Murung Raya, Kalimantan Tengah","Kabupaten Murung Raya, Kalimantan Tengah",KALIMANTAN TENGAH,,Indonesia,,,,-0.2037503,114.8092691,https://maps.google.com/?cid=0x0:0x46d09a0087c59ba1,
hardware store,Toko Elektronik,Toko bangunan dan elektronik 2 putri,"9PQP+HFH, Muara Laung I, Kec. Laung Tuhup, Kabupaten Murung Raya, Kalimantan Tengah","Kabupaten Murung Raya, Kalimantan Tengah",KALIMANTAN TENGAH,,Indonesia,83899586603.0,,,-0.6110741,114.7362284,https://maps.google.com/?cid=0x0:0x3f59fdb5c0c1eb76,
hardware store,Toko Bahan Bangunan,TOKO BANGUNAN (YOLAN BARITO),"9H3J+5W, Puruk Cahu, Kec. Murung, Kabupaten Murung Raya, Kalimantan Tengah 73911","Puruk Cahu, Kec. Murung, Kabupaten Murung Raya",KALIMANTAN TENGAH,73911.0,Indonesia,87737401068.0,,,-0.6466795,114.5811541,https://maps.google.com/?cid=0x0:0x1e126e186b82f785,
hardware store,Komplek perumahan,Muara Tuhup,"9RG5+2P5, Muara Tuhup, Kec. Laung Tuhup, Kabupaten Murung Raya, Kalimantan Tengah 73991","Muara Tuhup, Kec. Laung Tuhup, Kabupaten Murung Raya",KALIMANTAN TENGAH,73991.0,Indonesia,,,,-0.6250325,114.8086775,https://maps.google.com/?cid=0x0:0x38d46e69ae9855ef,
hardware store,Toko Bahan Bangunan,Toko Bangunan dan Material,"Jl. Veteran rt 09 kelurahan muara laung 1 kecamatan laung tuhup Muara Laung 1, Kalimantan Tengah 73992","Kabupaten Murung Raya, Kalimantan Tengah",KALIMANTAN TENGAH,,Indonesia,81352554971.0,,,-0.5969586,114.7294917,https://maps.google.com/?cid=0x0:0xa690a33d5f93a021,
hardware store,Toko Bahan Bangunan,Toko Bangun Tehnik,"9HMF+29F, Jl. Merdeka, Beriwit, Kec. Murung, Kabupaten Murung Raya, Kalimantan Tengah 73911","Jl. Merdeka, Beriwit, Kec. Murung, Kabupaten Murung Raya",KALIMANTAN TENGAH,73911.0,Indonesia,87761141363.0,,,-0.6174301,114.5734251,https://maps.google.com/?cid=0x0:0xfbbb1cbef1f2ec8c,
hardware store,Toko Elektronik,Ihya Karya Mandiri | Nippon Paint,"Jalan Veteran, RT.10/RW.No.153, Muara Laung I, Kec. Laung Tuhup, Kabupaten Murung Raya, Kalimantan Tengah 73991","RT.10/RW.No.153, Muara Laung I, Kec. Laung Tuhup, Kabupaten Murung Raya",KALIMANTAN TENGAH,73991.0,Indonesia,82251228276.0,,,-0.5953664,114.7311324,https://maps.google.com/?cid=0x0:0xa32eb58aba57b04,
hardware store,Toko Bahan Bangunan,TB H.Bahkian,"9H48+C7P, Jl. Ahmad Yani, Beriwit, Kec. Murung, Kabupaten Murung Raya, Kalimantan Tengah 73911","Jl. Ahmad Yani, Beriwit, Kec. Murung, Kabupaten Murung Raya",KALIMANTAN TENGAH,73911.0,Indonesia,85658340282.0,,,-0.6439103,114.5657086,https://maps.google.com/?cid=0x0:0x96f8d4f408b68cc1,
hardware store,Toko Perlengkapan Rumah,MR.DIY,"Jl. Jend. Sudirman No.21, Kelurahan Beriwit, Kec. Murung, Kabupaten Murung Raya, Kalimantan Tengah 73911","Kelurahan Beriwit, Kec. Murung, Kabupaten Murung Raya",KALIMANTAN TENGAH,73911.0,Indonesia,,,,-0.6542349,114.5816198,https://maps.google.com/?cid=0x0:0xc61e3b997cb6039b,
hardware store,Toko Alat Tulis Kantor,Toko ALBYNA,"CP3M+PXR, Muara Laung I, Kec. Laung Tuhup, Kabupaten Murung Raya, Kalimantan Tengah 73911","Muara Laung I, Kec. Laung Tuhup, Kabupaten Murung Raya",KALIMANTAN TENGAH,73911.0,Indonesia,82350341983.0,,,-0.5956351,114.7348759,https://maps.google.com/?cid=0x0:0x91d790b3c8e3023d,
hardware store,Toko Alat Tulis Kantor,Toko Al Qusyairi,"Jl. Veteran RT. 10 Kel. Muara Laung I Kec. Laung Tuhup Kab, Muara Laung I, Kec. Laung Tuhup, Kabupaten Murung Raya, Kalimantan Tengah 73991","Muara Laung I, Kec. Laung Tuhup, Kabupaten Murung Raya",KALIMANTAN TENGAH,73991.0,Indonesia,81349577811.0,,,-0.594771,114.7316383,https://maps.google.com/?cid=0x0:0x9605e3719a501a85,
hardware store,Toko Alat Tulis Kantor,"Toko Fadhilah ( Fotocopy, Cetak Photo, dan Print File )","CP3M+X2X, Jalan Veteran, RT.10/RW.05, Muara Laung I, Kec. Laung Tuhup, Kabupaten Murung Raya, Kalimantan Tengah","Kabupaten Murung Raya, Kalimantan Tengah",KALIMANTAN TENGAH,,Indonesia,82238897293.0,,,-0.5950155,114.7325963,https://maps.google.com/?cid=0x0:0xe1df9dcba4aa5a90,
hardware store,hardware store,Kalimantan Tengah 73991,"Kabupaten Murung Raya, Kalimantan Tengah","Kabupaten Murung Raya, Kalimantan Tengah",KALIMANTAN TENGAH,,Indonesia,,,,-0.2037503,114.8092691,https://maps.google.com/?cid=0x0:0x46d09a0087c59ba1,
hardware store,Toko bahan makanan,Toko Herry simpang tuhup,"9PQP+H5P, Muara Laung I, Kec. Laung Tuhup, Kabupaten Murung Raya, Kalimantan Tengah","Kabupaten Murung Raya, Kalimantan Tengah",KALIMANTAN TENGAH,,Indonesia,,,,-0.6110499,114.7354583,https://maps.google.com/?cid=0x0:0xf065b353a1c15a3b,
hardware store,Toko Elektronik,Toko bangunan dan elektronik 2 putri,"9PQP+HFH, Muara Laung I, Kec. Laung Tuhup, Kabupaten Murung Raya, Kalimantan Tengah","Kabupaten Murung Raya, Kalimantan Tengah",KALIMANTAN TENGAH,,Indonesia,83899586603.0,,,-0.6110741,114.7362284,https://maps.google.com/?cid=0x0:0x3f59fdb5c0c1eb76,
hardware store,Toko Bahan Bangunan,Toko Bangunan dan Material,"Jl. Veteran rt 09 kelurahan muara laung 1 kecamatan laung tuhup Muara Laung 1, Kalimantan Tengah 73992","Kabupaten Murung Raya, Kalimantan Tengah",KALIMANTAN TENGAH,,Indonesia,81352554971.0,,,-0.5969586,114.7294917,https://maps.google.com/?cid=0x0:0xa690a33d5f93a021,
hardware store,Komplek perumahan,Muara Tuhup,"9RG5+2P5, Muara Tuhup, Kec. Laung Tuhup, Kabupaten Murung Raya, Kalimantan Tengah 73991","Muara Tuhup, Kec. Laung Tuhup, Kabupaten Murung Raya",KALIMANTAN TENGAH,73991.0,Indonesia,,,,-0.6250325,114.8086775,https://maps.google.com/?cid=0x0:0x38d46e69ae9855ef,
hardware store,Toko Elektronik,Ihya Karya Mandiri | Nippon Paint,"Jalan Veteran, RT.10/RW.No.153, Muara Laung I, Kec. Laung Tuhup, Kabupaten Murung Raya, Kalimantan Tengah 73991","RT.10/RW.No.153, Muara Laung I, Kec. Laung Tuhup, Kabupaten Murung Raya",KALIMANTAN TENGAH,73991.0,Indonesia,82251228276.0,,,-0.5953664,114.7311324,https://maps.google.com/?cid=0x0:0xa32eb58aba57b04,
hardware store,Toko Alat Tulis Kantor,Toko ALBYNA,"CP3M+PXR, Muara Laung I, Kec. Laung Tuhup, Kabupaten Murung Raya, Kalimantan Tengah 73911","Muara Laung I, Kec. Laung Tuhup, Kabupaten Murung Raya",KALIMANTAN TENGAH,73911.0,Indonesia,82350341983.0,,,-0.5956351,114.7348759,https://maps.google.com/?cid=0x0:0x91d790b3c8e3023d,
hardware store,Toko Alat Tulis Kantor,Toko Al Qusyairi,"Jl. Veteran RT. 10 Kel. Muara Laung I Kec. Laung Tuhup Kab, Muara Laung I, Kec. Laung Tuhup, Kabupaten Murung Raya, Kalimantan Tengah 73991","Muara Laung I, Kec. Laung Tuhup, Kabupaten Murung Raya",KALIMANTAN TENGAH,73991.0,Indonesia,81349577811.0,,,-0.594771,114.7316383,https://maps.google.com/?cid=0x0:0x9605e3719a501a85,
hardware store,hardware store,Kec. Laung Tuhup,"Kabupaten Murung Raya, Kalimantan Tengah","Kabupaten Murung Raya, Kalimantan Tengah",KALIMANTAN TENGAH,,Indonesia,,,,-0.3745911,114.7617836,https://maps.google.com/?cid=0x0:0xde9e96615f3e1729,
hardware store,hardware store,Kalimantan Tengah 73911,"Kec. Murung, Kabupaten Murung Raya, Kalimantan Tengah","Kabupaten Murung Raya, Kalimantan Tengah",KALIMANTAN TENGAH,,Indonesia,,,,-0.581032,114.6667939,https://maps.google.com/?cid=0x0:0xfaf4a8cd4b21fca2,
hardware store,Toko Bahan Bangunan,Toko Bangun Tehnik,"9HMF+29F, Jl. Merdeka, Beriwit, Kec. Murung, Kabupaten Murung Raya, Kalimantan Tengah 73911","Jl. Merdeka, Beriwit, Kec. Murung, Kabupaten Murung Raya",KALIMANTAN TENGAH,73911.0,Indonesia,87761141363.0,,,-0.6174301,114.5734251,https://maps.google.com/?cid=0x0:0xfbbb1cbef1f2ec8c,
hardware store,Toko Bahan Bangunan,TB H.Bahkian,"9H48+C7P, Jl. Ahmad Yani, Beriwit, Kec. Murung, Kabupaten Murung Raya, Kalimantan Tengah 73911","Jl. Ahmad Yani, Beriwit, Kec. Murung, Kabupaten Murung Raya",KALIMANTAN TENGAH,73911.0,Indonesia,85658340282.0,,,-0.6439103,114.5657086,https://maps.google.com/?cid=0x0:0x96f8d4f408b68cc1,
hardware store,Toko Bahan Bangunan,TOKO BANGUNAN (YOLAN BARITO),"9H3J+5W, Puruk Cahu, Kec. Murung, Kabupaten Murung Raya, Kalimantan Tengah 73911","Puruk Cahu, Kec. Murung, Kabupaten Murung Raya",KALIMANTAN TENGAH,73911.0,Indonesia,87737401068.0,,,-0.6466795,114.5811541,https://maps.google.com/?cid=0x0:0x1e126e186b82f785,
hardware store,Toko Perlengkapan Rumah,MR.DIY,"Jl. Jend. Sudirman No.21, Kelurahan Beriwit, Kec. Murung, Kabupaten Murung Raya, Kalimantan Tengah 73911","Kelurahan Beriwit, Kec. Murung, Kabupaten Murung Raya",KALIMANTAN TENGAH,73911.0,Indonesia,,,,-0.6542349,114.5816198,https://maps.google.com/?cid=0x0:0xc61e3b997cb6039b,
hardware store,Toko Elektronik,Toko bangunan dan elektronik 2 putri,"9PQP+HFH, Muara Laung I, Kec. Laung Tuhup, Kabupaten Murung Raya, Kalimantan Tengah","Kabupaten Murung Raya, Kalimantan Tengah",KALIMANTAN TENGAH,,Indonesia,83899586603.0,,,-0.6110741,114.7362284,https://maps.google.com/?cid=0x0:0x3f59fdb5c0c1eb76,
hardware store,,Toko Cahaya Mandiri,"9H37+QXP, Beriwit, Kec. Murung, Kabupaten Murung Raya, Kalimantan Tengah 73911","Beriwit, Kec. Murung, Kabupaten Murung Raya",KALIMANTAN TENGAH,73911.0,Indonesia,81251096466.0,,,-0.6455436,114.5649614,https://maps.google.com/?cid=0x0:0xe5e41689c50f89df,
hardware store,Toko Bahan Bangunan,Toko Fatwa,"CP2J+HP9, Muara Laung I, Kec. Laung Tuhup, Kabupaten Murung Raya, Kalimantan Tengah 73911","Muara Laung I, Kec. Laung Tuhup, Kabupaten Murung Raya",KALIMANTAN TENGAH,73911.0,Indonesia,,,,-0.5989563,114.7321794,https://maps.google.com/?cid=0x0:0x17a611aeab2412e,
hardware store,Toko Alat Tulis,Dikami Stationery,"Jl. Ahmad Yani Jl. Merpati Putih No.9, Seberang, Kec. Murung, Kabupaten Murung Raya, Kalimantan Tengah 73911","Seberang, Kec. Murung, Kabupaten Murung Raya",KALIMANTAN TENGAH,73911.0,Indonesia,,,,-0.6314721,114.5672633,https://maps.google.com/?cid=0x0:0xeb1084ccbee2295f,
hardware store,Toko Perlengkapan Rumah,Molding Radi,"9H55+392, Beriwit, Kec. Murung, Kabupaten Murung Raya, Kalimantan Tengah 73911","Beriwit, Kec. Murung, Kabupaten Murung Raya",KALIMANTAN TENGAH,73911.0,Indonesia,,,,-0.6423577,114.5583872,https://maps.google.com/?cid=0x0:0xcdafbe95447193ee,
hardware store,Toko Alat Tulis,Fotocopy  ATK SYAUQIA,"Jl. Kolonel Untung Surapati No.32, RT.03/RW.03, Beriwit, Kec. Murung, Kabupaten Murung Raya, Kalimantan Tengah 73911","RT.03/RW.03, Beriwit, Kec. Murung, Kabupaten Murung Raya",KALIMANTAN TENGAH,73911.0,Indonesia,81298709918.0,,,-0.6292348,114.5648528,https://maps.google.com/?cid=0x0:0x820971394279ef22,
hardware store,Toko Alat Tulis,Toko ATK Faeyza,"Beriwit, Kec. Murung, Kabupaten Murung Raya, Kalimantan Tengah 73911","Kec. Murung, Kabupaten Murung Raya",KALIMANTAN TENGAH,73911.0,Indonesia,,,,-0.6141085,114.5722949,https://maps.google.com/?cid=0x0:0x50745e7f8f5d967e,
hardware store,Toko Bahan Bangunan,Toko Bangunan dan Material,"Jl. Veteran rt 09 kelurahan muara laung 1 kecamatan laung tuhup Muara Laung 1, Kalimantan Tengah 73992","Kabupaten Murung Raya, Kalimantan Tengah",KALIMANTAN TENGAH,,Indonesia,81352554971.0,,,-0.5969586,114.7294917,https://maps.google.com/?cid=0x0:0xa690a33d5f93a021,
hardware store,Toko Perhiasan,Toko Pancarmas Sepeda,"9HMF+34X, Jl. Merdeka, Beriwit, Kec. Murung, Kabupaten Murung Raya, Kalimantan Tengah 73911","Jl. Merdeka, Beriwit, Kec. Murung, Kabupaten Murung Raya",KALIMANTAN TENGAH,73911.0,Indonesia,82155486527.0,,,-0.6172657,114.5728702,https://maps.google.com/?cid=0x0:0x9bf38761a27e3e04,
hardware store,Toko Alat Tulis Kantor,Toko ALBYNA,"CP3M+PXR, Muara Laung I, Kec. Laung Tuhup, Kabupaten Murung Raya, Kalimantan Tengah 73911","Muara Laung I, Kec. Laung Tuhup, Kabupaten Murung Raya",KALIMANTAN TENGAH,73911.0,Indonesia,82350341983.0,,,-0.5956351,114.7348759,https://maps.google.com/?cid=0x0:0x91d790b3c8e3023d,
hardware store,Komplek perumahan,Muara Tuhup,"9RG5+2P5, Muara Tuhup, Kec. Laung Tuhup, Kabupaten Murung Raya, Kalimantan Tengah 73991","Muara Tuhup, Kec. Laung Tuhup, Kabupaten Murung Raya",KALIMANTAN TENGAH,73991.0,Indonesia,,,,-0.6250325,114.8086775,https://maps.google.com/?cid=0x0:0x38d46e69ae9855ef,
hardware store,Toko Bahan Bangunan,Toko Bangunan Jaya,"Psan antar, Beriwit, Kec. Murung, Kabupaten Murung Raya, Kalimantan Tengah 73911","Beriwit, Kec. Murung, Kabupaten Murung Raya",KALIMANTAN TENGAH,73911.0,Indonesia,,,,-0.6288125,114.5643281,https://maps.google.com/?cid=0x0:0x834cd32f96f3ba4e,
hardware store,Toko Alat-Alat,GUDANG PERKAKAS TEKNIK,"Harco Glodok GF2, Blk. C Jl. Hayam Wuruk No.20, Daerah Khusus Ibukota Jakarta 11180",Blk. C Jl. Hayam Wuruk No.20,KALIMANTAN TENGAH,11180.0,Indonesia,85811571107.0,,,-6.1300847,106.837939,https://maps.google.com/?cid=0x0:0x2d2ffe3e1c9bb199,
hardware store,Toko Alat-Alat,Depoteknik Duta Perkakas,"Jalan Ruko Glodok Jaya No.82 Mangga Besar Kecamatan Taman Sari,Daerah Khusus Ibukota, Kota Jakarta Barat, Daerah Khusus Ibukota Jakarta 11180",Kota Jakarta Barat,KALIMANTAN TENGAH,11180.0,Indonesia,81280806253.0,,,-6.1445516,106.8167631,https://maps.google.com/?cid=0x0:0x50e2a8c9ca6fcca7,
hardware store,hardware store,Kalimantan Tengah 73971,"Kabupaten Murung Raya, Kalimantan Tengah","Kabupaten Murung Raya, Kalimantan Tengah",KALIMANTAN TENGAH,,Indonesia,,,,-0.4787128,114.4292148,https://maps.google.com/?cid=0x0:0x7eb3a8a82a8e44be,
hardware store,Toko Bahan Bangunan,Toko Bangun Tehnik,"9HMF+29F, Jl. Merdeka, Beriwit, Kec. Murung, Kabupaten Murung Raya, Kalimantan Tengah 73911","Jl. Merdeka, Beriwit, Kec. Murung, Kabupaten Murung Raya",KALIMANTAN TENGAH,73911.0,Indonesia,87761141363.0,,,-0.6174301,114.5734251,https://maps.google.com/?cid=0x0:0xfbbb1cbef1f2ec8c,
hardware store,Pusat Perbelanjaan,Photocopy Due Hatue,"Tumbang Lahung, Kec. Permata Intan, Kabupaten Murung Raya, Kalimantan Tengah 73971","Kec. Permata Intan, Kabupaten Murung Raya",KALIMANTAN TENGAH,73971.0,Indonesia,81253327095.0,,,-0.689896,114.300242,https://maps.google.com/?cid=0x0:0xb26429561cc515d5,
hardware store,Toko Bahan Bangunan,TB H.Bahkian,"9H48+C7P, Jl. Ahmad Yani, Beriwit, Kec. Murung, Kabupaten Murung Raya, Kalimantan Tengah 73911","Jl. Ahmad Yani, Beriwit, Kec. Murung, Kabupaten Murung Raya",KALIMANTAN TENGAH,73911.0,Indonesia,85658340282.0,,,-0.6439103,114.5657086,https://maps.google.com/?cid=0x0:0x96f8d4f408b68cc1,
hardware store,Toko Alat Tulis,Toko ATK Faeyza,"Beriwit, Kec. Murung, Kabupaten Murung Raya, Kalimantan Tengah 73911","Kec. Murung, Kabupaten Murung Raya",KALIMANTAN TENGAH,73911.0,Indonesia,,,,-0.6141085,114.5722949,https://maps.google.com/?cid=0x0:0x50745e7f8f5d967e,
hardware store,hardware store,Kalimantan Tengah 73981,"Kabupaten Murung Raya, Kalimantan Tengah","Kabupaten Murung Raya, Kalimantan Tengah",KALIMANTAN TENGAH,,Indonesia,,,,0.1366232,113.9536466,https://maps.google.com/?cid=0x0:0xb765502d3651aeca,
hardware store,Toko Ponsel,"CV. ANUGRAH SUKSES (Toko Bangunan, Sembako, Konter Hp dan Laptop, BRILINK)","Depan tower, Long Melaham, Kec. Long Bagun, Mahakam Ulu, Kalimantan Timur 75779","Long Melaham, Kec. Long Bagun, Mahakam Ulu",KALIMANTAN TENGAH,75779.0,Indonesia,85341804057.0,,,0.4479404,115.2805113,https://maps.google.com/?cid=0x0:0xa751ee7e5ed6af2e,
hardware store,hardware store,,,,KALIMANTAN TENGAH,,Indonesia,82350903377.0,,,-2.44565,117.8888,https://maps.google.com/?cid=0x0:0x209fc8656cdde538,
hardware store,Toko Elektronik,Toko bangunan dan elektronik 2 putri,"9PQP+HFH, Muara Laung I, Kec. Laung Tuhup, Kabupaten Murung Raya, Kalimantan Tengah","Kabupaten Murung Raya, Kalimantan Tengah",KALIMANTAN TENGAH,,Indonesia,83899586603.0,,,-0.6110741,114.7362284,https://maps.google.com/?cid=0x0:0x3f59fdb5c0c1eb76,
hardware store,Toko Bahan Bangunan,Toko Bangun Tehnik,"9HMF+29F, Jl. Merdeka, Beriwit, Kec. Murung, Kabupaten Murung Raya, Kalimantan Tengah 73911","Jl. Merdeka, Beriwit, Kec. Murung, Kabupaten Murung Raya",KALIMANTAN TENGAH,73911.0,Indonesia,87761141363.0,,,-0.6174301,114.5734251,https://maps.google.com/?cid=0x0:0xfbbb1cbef1f2ec8c,
hardware store,Toko Bahan Bangunan,UD MAJU,"Jl. Ahmad Yani No.165, Beriwit, Kec. Murung, Kabupaten Murung Raya, Kalimantan Tengah 73911","Beriwit, Kec. Murung, Kabupaten Murung Raya",KALIMANTAN TENGAH,73911.0,Indonesia,85252775516.0,,,-0.6432912,114.5655543,https://maps.google.com/?cid=0x0:0x400e252ea5736d51,
hardware store,Toko Bahan Bangunan,TB H.Bahkian,"9H48+C7P, Jl. Ahmad Yani, Beriwit, Kec. Murung, Kabupaten Murung Raya, Kalimantan Tengah 73911","Jl. Ahmad Yani, Beriwit, Kec. Murung, Kabupaten Murung Raya",KALIMANTAN TENGAH,73911.0,Indonesia,85658340282.0,,,-0.6439103,114.5657086,https://maps.google.com/?cid=0x0:0x96f8d4f408b68cc1,
hardware store,Toko Bahan Bangunan,TB. Devon,"Pasar Pagi, Jl. H. Bustami, Putussibau Kota, Kec. Putussibau Utara, Kabupaten Kapuas Hulu, Kalimantan Barat 78753","Jl. H. Bustami, Putussibau Kota, Kec. Putussibau Utara, Kabupaten Kapuas Hulu",KALIMANTAN TENGAH,78753.0,Indonesia,,,,0.8589748,112.9278415,https://maps.google.com/?cid=0x0:0x83d1bf2193d8e324,
hardware store,Toko Alat Tulis,Dikami Stationery,"Jl. Ahmad Yani Jl. Merpati Putih No.9, Seberang, Kec. Murung, Kabupaten Murung Raya, Kalimantan Tengah 73911","Seberang, Kec. Murung, Kabupaten Murung Raya",KALIMANTAN TENGAH,73911.0,Indonesia,,,,-0.6314721,114.5672633,https://maps.google.com/?cid=0x0:0xeb1084ccbee2295f,
hardware store,Toko Bahan Bangunan,Toko Bangunan CAHAYA BARU,"Kedamin Hilir, Kec. Putussibau Sel., Kabupaten Kapuas Hulu, Kalimantan Barat 78753","Kec. Putussibau Sel., Kabupaten Kapuas Hulu",KALIMANTAN TENGAH,78753.0,Indonesia,81311351781.0,,,0.8364363,112.9088591,https://maps.google.com/?cid=0x0:0x856c6f6911c4bf45,
hardware store,Toko Bahan Bangunan,TB. Usaha Baru,"Simpang Melapi, Jl. Lintas Timur, Kalimantan Barat 78714",Jl. Lintas Timur,KALIMANTAN TENGAH,78714.0,Indonesia,83899586603.0,,,0.8334665,112.9330005,https://maps.google.com/?cid=0x0:0x59f8450bc8586513,
hardware store,Toko Perlengkapan Rumah,Toko Sri Rejeki 1,"Baamang Hulu, Kec. Baamang, Kabupaten Kotawaringin Timur, Kalimantan Tengah 74312","Kec. Baamang, Kabupaten Kotawaringin Timur",KALIMANTAN TENGAH,74312.0,Indonesia,85185536616.0,,,-2.5049828,112.960501,https://maps.google.com/?cid=0x0:0xe3e83d537efd03b7,
hardware store,,Toko Cahaya Mandiri,"9H37+QXP, Beriwit, Kec. Murung, Kabupaten Murung Raya, Kalimantan Tengah 73911","Beriwit, Kec. Murung, Kabupaten Murung Raya",KALIMANTAN TENGAH,73911.0,Indonesia,81251096466.0,,,-0.6455436,114.5649614,https://maps.google.com/?cid=0x0:0xe5e41689c50f89df,
hardware store,Toko Bahan Bangunan,Toko Bangunan dan Material,"Jl. Veteran rt 09 kelurahan muara laung 1 kecamatan laung tuhup Muara Laung 1, Kalimantan Tengah 73992","Kabupaten Murung Raya, Kalimantan Tengah",KALIMANTAN TENGAH,,Indonesia,81352554971.0,,,-0.5969586,114.7294917,https://maps.google.com/?cid=0x0:0xa690a33d5f93a021,
hardware store,Toko Perlengkapan Rumah,Toko MAJU,"2VPP+PVX, Lanjas, Kec. Teweh Tengah, Kabupaten Barito Utara, Kalimantan Tengah 73814","Lanjas, Kec. Teweh Tengah, Kabupaten Barito Utara",KALIMANTAN TENGAH,73814.0,Indonesia,87773968995.0,,,-0.9631483,114.8872391,https://maps.google.com/?cid=0x0:0x92b3b89aa2c4427a,
hardware store,Toko Elektronik,Ihya Karya Mandiri | Nippon Paint,"Jalan Veteran, RT.10/RW.No.153, Muara Laung I, Kec. Laung Tuhup, Kabupaten Murung Raya, Kalimantan Tengah 73991","RT.10/RW.No.153, Muara Laung I, Kec. Laung Tuhup, Kabupaten Murung Raya",KALIMANTAN TENGAH,73991.0,Indonesia,82251228276.0,,,-0.5953664,114.7311324,https://maps.google.com/?cid=0x0:0xa32eb58aba57b04,
hardware store,hardware store,JRK GLASS  ALUMINUM SUPPLY,"P-1, Claver, 8410 Surigao del Norte, Filipina","Claver, Surigao del Norte, Filipina",KALIMANTAN TENGAH,,Indonesia,639385985522.0,,,9.5691633,125.7280284,https://maps.google.com/?cid=0x0:0xaf7fe5fd8c73e368,
hardware store,Toko Bahan Bangunan,Toko Bangunan Makmur Jaya,"F65X+82, Long Melaham, Kec. Long Bagun, Kabupaten Kutai Barat, Kalimantan Timur","Kabupaten Kutai Barat, Kalimantan Timur",KALIMANTAN TENGAH,,Indonesia,82358998444.0,,,0.4583125,115.2475625,https://maps.google.com/?cid=0x0:0x65ea021cf94b951b,
hardware store,Toko,Toko Dunia Bangunan,"VW2F+W7W, Kedamin Hilir, Kec. Putussibau Sel., Kabupaten Kapuas Hulu, Kalimantan Barat 78753","Kedamin Hilir, Kec. Putussibau Sel., Kabupaten Kapuas Hulu",KALIMANTAN TENGAH,78753.0,Indonesia,85269235972.0,,,0.8523561,112.9232005,https://maps.google.com/?cid=0x0:0xc23bc0bc00f1d416,
hardware store,Komplek perumahan,Muara Tuhup,"9RG5+2P5, Muara Tuhup, Kec. Laung Tuhup, Kabupaten Murung Raya, Kalimantan Tengah 73991","Muara Tuhup, Kec. Laung Tuhup, Kabupaten Murung Raya",KALIMANTAN TENGAH,73991.0,Indonesia,,,,-0.6250325,114.8086775,https://maps.google.com/?cid=0x0:0x38d46e69ae9855ef,
hardware store,hardware store,,,,KALIMANTAN TENGAH,,Indonesia,85692809604.0,,,-6.242804,106.796991,https://maps.google.com/?cid=0x0:0x85b3f9861ab51ed5,
hardware store,Pasar,Mr. DIY,"Jl. Kom Yos Sudarso, Putussibau Kota, Kec. Putussibau Utara, Kabupaten Kapuas Hulu, Kalimantan Barat","Kabupaten Kapuas Hulu, Kalimantan Barat",KALIMANTAN TENGAH,,Indonesia,,,,0.8723624,112.9232821,https://maps.google.com/?cid=0x0:0xef03688db2e217d9,
hardware store,Pusat Perbelanjaan,Photocopy Due Hatue,"Tumbang Lahung, Kec. Permata Intan, Kabupaten Murung Raya, Kalimantan Tengah 73971","Kec. Permata Intan, Kabupaten Murung Raya",KALIMANTAN TENGAH,73971.0,Indonesia,81253327095.0,,,-0.689896,114.300242,https://maps.google.com/?cid=0x0:0xb26429561cc515d5,
hardware store,hardware store,,,,KALIMANTAN TENGAH,,Indonesia,85711538208.0,,,-2.44565,117.8888,https://maps.google.com/?cid=0x0:0x97cce17f1ca15b9b,
hardware store,hardware store,Sumber Barito,"Kabupaten Murung Raya, Kalimantan Tengah","Kabupaten Murung Raya, Kalimantan Tengah",KALIMANTAN TENGAH,,Indonesia,,,,-0.341791,114.2390498,https://maps.google.com/?cid=0x0:0xdb7aed4b9b946c56,
hardware store,hardware store,,,,KALIMANTAN TENGAH,,Indonesia,85711538208.0,,,-2.44565,117.8888,https://maps.google.com/?cid=0x0:0x97cce17f1ca15b9b,
hardware store,hardware store,,,,KALIMANTAN TENGAH,,Indonesia,82350903377.0,,,-2.44565,117.8888,https://maps.google.com/?cid=0x0:0x209fc8656cdde538,
hardware store,hardware store,,,,KALIMANTAN TENGAH,,Indonesia,7717447168.0,,,-2.44565,117.8888,https://maps.google.com/?cid=0x0:0xe45973c986336b5b,
hardware store,hardware store,,,,KALIMANTAN TENGAH,,Indonesia,85692809604.0,,,-6.242804,106.796991,https://maps.google.com/?cid=0x0:0x85b3f9861ab51ed5,
hardware store,Toko Alat Tulis,CaCyMeO fhotocopy,"Komplek perumahan smpn 1, Saripoi, Kec. Tanah Siang, Kabupaten Murung Raya, Kalimantan Tengah 73911","Saripoi, Kec. Tanah Siang, Kabupaten Murung Raya",KALIMANTAN TENGAH,73911.0,Indonesia,82154989293.0,,,-0.5221301,114.504402,https://maps.google.com/?cid=0x0:0x1a9fe75ab361428e,
hardware store,Toko Alat Tulis,Dikami Stationery,"Jl. Ahmad Yani Jl. Merpati Putih No.9, Seberang, Kec. Murung, Kabupaten Murung Raya, Kalimantan Tengah 73911","Seberang, Kec. Murung, Kabupaten Murung Raya",KALIMANTAN TENGAH,73911.0,Indonesia,,,,-0.6314721,114.5672633,https://maps.google.com/?cid=0x0:0xeb1084ccbee2295f,
hardware store,hardware store,Kec. Sungai Babuat,"Kabupaten Murung Raya, Kalimantan Tengah","Kabupaten Murung Raya, Kalimantan Tengah",KALIMANTAN TENGAH,,Indonesia,,,,-0.5790762,114.3152452,https://maps.google.com/?cid=0x0:0xd1427b5a363a47e7,
hardware store,Toko Bahan Bangunan,Toko Bangun Tehnik,"9HMF+29F, Jl. Merdeka, Beriwit, Kec. Murung, Kabupaten Murung Raya, Kalimantan Tengah 73911","Jl. Merdeka, Beriwit, Kec. Murung, Kabupaten Murung Raya",KALIMANTAN TENGAH,73911.0,Indonesia,87761141363.0,,,-0.6174301,114.5734251,https://maps.google.com/?cid=0x0:0xfbbb1cbef1f2ec8c,
hardware store,Toko Bahan Bangunan,TB H.Bahkian,"9H48+C7P, Jl. Ahmad Yani, Beriwit, Kec. Murung, Kabupaten Murung Raya, Kalimantan Tengah 73911","Jl. Ahmad Yani, Beriwit, Kec. Murung, Kabupaten Murung Raya",KALIMANTAN TENGAH,73911.0,Indonesia,85658340282.0,,,-0.6439103,114.5657086,https://maps.google.com/?cid=0x0:0x96f8d4f408b68cc1,
hardware store,Toko Alat Tulis,CaCyMeO fhotocopy,"Komplek perumahan smpn 1, Saripoi, Kec. Tanah Siang, Kabupaten Murung Raya, Kalimantan Tengah 73911","Saripoi, Kec. Tanah Siang, Kabupaten Murung Raya",KALIMANTAN TENGAH,73911.0,Indonesia,82154989293.0,,,-0.5221301,114.504402,https://maps.google.com/?cid=0x0:0x1a9fe75ab361428e,
hardware store,Toko Bahan Bangunan,Toko Bangun Tehnik,"9HMF+29F, Jl. Merdeka, Beriwit, Kec. Murung, Kabupaten Murung Raya, Kalimantan Tengah 73911","Jl. Merdeka, Beriwit, Kec. Murung, Kabupaten Murung Raya",KALIMANTAN TENGAH,73911.0,Indonesia,87761141363.0,,,-0.6174301,114.5734251,https://maps.google.com/?cid=0x0:0xfbbb1cbef1f2ec8c,
hardware store,Toko Bahan Bangunan,TB H.Bahkian,"9H48+C7P, Jl. Ahmad Yani, Beriwit, Kec. Murung, Kabupaten Murung Raya, Kalimantan Tengah 73911","Jl. Ahmad Yani, Beriwit, Kec. Murung, Kabupaten Murung Raya",KALIMANTAN TENGAH,73911.0,Indonesia,85658340282.0,,,-0.6439103,114.5657086,https://maps.google.com/?cid=0x0:0x96f8d4f408b68cc1,
hardware store,hardware store,Tanah Siang Sel.,"Kabupaten Murung Raya, Kalimantan Tengah","Kabupaten Murung Raya, Kalimantan Tengah",KALIMANTAN TENGAH,,Indonesia,,,,-0.6787755,114.4533539,https://maps.google.com/?cid=0x0:0x563ce9dc5860bfa6,
hardware store,,Toko Cahaya Mandiri,"9H37+QXP, Beriwit, Kec. Murung, Kabupaten Murung Raya, Kalimantan Tengah 73911","Beriwit, Kec. Murung, Kabupaten Murung Raya",KALIMANTAN TENGAH,73911.0,Indonesia,81251096466.0,,,-0.6455436,114.5649614,https://maps.google.com/?cid=0x0:0xe5e41689c50f89df,
hardware store,Toko Perlengkapan Rumah,MR.DIY,"Jl. Jend. Sudirman No.21, Kelurahan Beriwit, Kec. Murung, Kabupaten Murung Raya, Kalimantan Tengah 73911","Kelurahan Beriwit, Kec. Murung, Kabupaten Murung Raya",KALIMANTAN TENGAH,73911.0,Indonesia,,,,-0.6542349,114.5816198,https://maps.google.com/?cid=0x0:0xc61e3b997cb6039b,
hardware store,Toko Gorden,LAKSANA JAYA GORDEN,"disamping hotel setia, Jl. Jenderal Sudirman, Beriwit, Kec. Murung, Kabupaten Murung Raya, Kalimantan Tengah 73911","Jl. Jenderal Sudirman, Beriwit, Kec. Murung, Kabupaten Murung Raya",KALIMANTAN TENGAH,73911.0,Indonesia,85387595199.0,,,-0.6490562,114.566636,https://maps.google.com/?cid=0x0:0x8bffaf50357579c2,
hardware store,hardware store,Kalimantan Tengah 73981,"Kabupaten Murung Raya, Kalimantan Tengah","Kabupaten Murung Raya, Kalimantan Tengah",KALIMANTAN TENGAH,,Indonesia,,,,0.1366232,113.9536466,https://maps.google.com/?cid=0x0:0xb765502d3651aeca,
hardware store,Toko Bahan Bangunan,TB H.Bahkian,"9H48+C7P, Jl. Ahmad Yani, Beriwit, Kec. Murung, Kabupaten Murung Raya, Kalimantan Tengah 73911","Jl. Ahmad Yani, Beriwit, Kec. Murung, Kabupaten Murung Raya",KALIMANTAN TENGAH,73911.0,Indonesia,85658340282.0,,,-0.6439103,114.5657086,https://maps.google.com/?cid=0x0:0x96f8d4f408b68cc1,
hardware store,Toko Bahan Bangunan,TOKO BANGUNAN (YOLAN BARITO),"9H3J+5W, Puruk Cahu, Kec. Murung, Kabupaten Murung Raya, Kalimantan Tengah 73911","Puruk Cahu, Kec. Murung, Kabupaten Murung Raya",KALIMANTAN TENGAH,73911.0,Indonesia,87737401068.0,,,-0.6466795,114.5811541,https://maps.google.com/?cid=0x0:0x1e126e186b82f785,
hardware store,Toko Perlengkapan Rumah,MR.DIY,"Jl. Jend. Sudirman No.21, Kelurahan Beriwit, Kec. Murung, Kabupaten Murung Raya, Kalimantan Tengah 73911","Kelurahan Beriwit, Kec. Murung, Kabupaten Murung Raya",KALIMANTAN TENGAH,73911.0,Indonesia,,,,-0.6542349,114.5816198,https://maps.google.com/?cid=0x0:0xc61e3b997cb6039b,
hardware store,Toko Bahan Bangunan,Toko Bangunan PODHO JOYO,"9H28+8F2, Beriwit, Kec. Murung, Kabupaten Murung Raya, Kalimantan Tengah 73911","Beriwit, Kec. Murung, Kabupaten Murung Raya",KALIMANTAN TENGAH,73911.0,Indonesia,,,,-0.6492272,114.5661435,https://maps.google.com/?cid=0x0:0xe2b9ba3f87ebe241,
hardware store,Toko Bahan Bangunan,UD MAJU,"Jl. Ahmad Yani No.165, Beriwit, Kec. Murung, Kabupaten Murung Raya, Kalimantan Tengah 73911","Beriwit, Kec. Murung, Kabupaten Murung Raya",KALIMANTAN TENGAH,73911.0,Indonesia,85252775516.0,,,-0.6432912,114.5655543,https://maps.google.com/?cid=0x0:0x400e252ea5736d51,
hardware store,Toko Elektronik,Toko bangunan dan elektronik 2 putri,"9PQP+HFH, Muara Laung I, Kec. Laung Tuhup, Kabupaten Murung Raya, Kalimantan Tengah","Kabupaten Murung Raya, Kalimantan Tengah",KALIMANTAN TENGAH,,Indonesia,83899586603.0,,,-0.6110741,114.7362284,https://maps.google.com/?cid=0x0:0x3f59fdb5c0c1eb76,
hardware store,hardware store,,,,KALIMANTAN TENGAH,,Indonesia,82350903377.0,,,-2.44565,117.8888,https://maps.google.com/?cid=0x0:0x209fc8656cdde538,
hardware store,hardware store,,,,KALIMANTAN TENGAH,,Indonesia,85711538208.0,,,-2.44565,117.8888,https://maps.google.com/?cid=0x0:0x97cce17f1ca15b9b,
hardware store,Toko Ponsel,"CV. ANUGRAH SUKSES (Toko Bangunan, Sembako, Konter Hp dan Laptop, BRILINK)","Depan tower, Long Melaham, Kec. Long Bagun, Mahakam Ulu, Kalimantan Timur 75779","Long Melaham, Kec. Long Bagun, Mahakam Ulu",KALIMANTAN TENGAH,75779.0,Indonesia,85341804057.0,,,0.4479404,115.2805113,https://maps.google.com/?cid=0x0:0xa751ee7e5ed6af2e,
hardware store,Toko Bahan Bangunan,Toko Fatwa,"CP2J+HP9, Muara Laung I, Kec. Laung Tuhup, Kabupaten Murung Raya, Kalimantan Tengah 73911","Muara Laung I, Kec. Laung Tuhup, Kabupaten Murung Raya",KALIMANTAN TENGAH,73911.0,Indonesia,,,,-0.5989563,114.7321794,https://maps.google.com/?cid=0x0:0x17a611aeab2412e,
hardware store,Toko Alat Tulis,Fotocopy  ATK SYAUQIA,"Jl. Kolonel Untung Surapati No.32, RT.03/RW.03, Beriwit, Kec. Murung, Kabupaten Murung Raya, Kalimantan Tengah 73911","RT.03/RW.03, Beriwit, Kec. Murung, Kabupaten Murung Raya",KALIMANTAN TENGAH,73911.0,Indonesia,81298709918.0,,,-0.6292348,114.5648528,https://maps.google.com/?cid=0x0:0x820971394279ef22,
hardware store,Toko Bahan Bangunan,TB. Devon,"Pasar Pagi, Jl. H. Bustami, Putussibau Kota, Kec. Putussibau Utara, Kabupaten Kapuas Hulu, Kalimantan Barat 78753","Jl. H. Bustami, Putussibau Kota, Kec. Putussibau Utara, Kabupaten Kapuas Hulu",KALIMANTAN TENGAH,78753.0,Indonesia,,,,0.8589748,112.9278415,https://maps.google.com/?cid=0x0:0x83d1bf2193d8e324,
hardware store,Pusat Perbelanjaan,Photocopy Due Hatue,"Tumbang Lahung, Kec. Permata Intan, Kabupaten Murung Raya, Kalimantan Tengah 73971","Kec. Permata Intan, Kabupaten Murung Raya",KALIMANTAN TENGAH,73971.0,Indonesia,81253327095.0,,,-0.689896,114.300242,https://maps.google.com/?cid=0x0:0xb26429561cc515d5,
hardware store,Toko Bahan Bangunan,TB. Usaha Baru,"Simpang Melapi, Jl. Lintas Timur, Kalimantan Barat 78714",Jl. Lintas Timur,KALIMANTAN TENGAH,78714.0,Indonesia,83899586603.0,,,0.8334665,112.9330005,https://maps.google.com/?cid=0x0:0x59f8450bc8586513,
hardware store,Toko Alat Tulis,Dikami Stationery,"Jl. Ahmad Yani Jl. Merpati Putih No.9, Seberang, Kec. Murung, Kabupaten Murung Raya, Kalimantan Tengah 73911","Seberang, Kec. Murung, Kabupaten Murung Raya",KALIMANTAN TENGAH,73911.0,Indonesia,,,,-0.6314721,114.5672633,https://maps.google.com/?cid=0x0:0xeb1084ccbee2295f,
hardware store,Toko,Toko Dunia Bangunan,"VW2F+W7W, Kedamin Hilir, Kec. Putussibau Sel., Kabupaten Kapuas Hulu, Kalimantan Barat 78753","Kedamin Hilir, Kec. Putussibau Sel., Kabupaten Kapuas Hulu",KALIMANTAN TENGAH,78753.0,Indonesia,85269235972.0,,,0.8523561,112.9232005,https://maps.google.com/?cid=0x0:0xc23bc0bc00f1d416,
hardware store,Komplek perumahan,Muara Tuhup,"9RG5+2P5, Muara Tuhup, Kec. Laung Tuhup, Kabupaten Murung Raya, Kalimantan Tengah 73991","Muara Tuhup, Kec. Laung Tuhup, Kabupaten Murung Raya",KALIMANTAN TENGAH,73991.0,Indonesia,,,,-0.6250325,114.8086775,https://maps.google.com/?cid=0x0:0x38d46e69ae9855ef,
hardware store,Toko,Toko EMAS H. ANDI,"9HPF+G3V, Beriwit, Kec. Murung, Kabupaten Murung Raya, Kalimantan Tengah 73911","Beriwit, Kec. Murung, Kabupaten Murung Raya",KALIMANTAN TENGAH,73911.0,Indonesia,811500119.0,,,-0.6136314,114.5726637,https://maps.google.com/?cid=0x0:0x53ecbe00af46e6af,
hardware store,Toko Alat Tulis,Toko ATK Faeyza,"Beriwit, Kec. Murung, Kabupaten Murung Raya, Kalimantan Tengah 73911","Kec. Murung, Kabupaten Murung Raya",KALIMANTAN TENGAH,73911.0,Indonesia,,,,-0.6141085,114.5722949,https://maps.google.com/?cid=0x0:0x50745e7f8f5d967e,
hardware store,Minimarket,Toko 4J,"Jl, Temanggung Jadam RT, 4, Tumbang Lahung, Kalimantan Tengah 73971","Temanggung Jadam RT, 4, Tumbang Lahung",KALIMANTAN TENGAH,73971.0,Indonesia,85248819791.0,,,-0.6882927,114.2992379,https://maps.google.com/?cid=0x0:0x28144988d9e8c4a4,
hardware store,Toko Perlengkapan Rumah,Molding Radi,"9H55+392, Beriwit, Kec. Murung, Kabupaten Murung Raya, Kalimantan Tengah 73911","Beriwit, Kec. Murung, Kabupaten Murung Raya",KALIMANTAN TENGAH,73911.0,Indonesia,,,,-0.6423577,114.5583872,https://maps.google.com/?cid=0x0:0xcdafbe95447193ee,
hardware store,Toko Bahan Bangunan,Toko Bangunan dan Material,"Jl. Veteran rt 09 kelurahan muara laung 1 kecamatan laung tuhup Muara Laung 1, Kalimantan Tengah 73992","Kabupaten Murung Raya, Kalimantan Tengah",KALIMANTAN TENGAH,,Indonesia,81352554971.0,,,-0.5969586,114.7294917,https://maps.google.com/?cid=0x0:0xa690a33d5f93a021,
hardware store,,Toko Cahaya Mandiri,"9H37+QXP, Beriwit, Kec. Murung, Kabupaten Murung Raya, Kalimantan Tengah 73911","Beriwit, Kec. Murung, Kabupaten Murung Raya",KALIMANTAN TENGAH,73911.0,Indonesia,81251096466.0,,,-0.6455436,114.5649614,https://maps.google.com/?cid=0x0:0xe5e41689c50f89df,
hardware store,Pasar,Mr. DIY,"Jl. Kom Yos Sudarso, Putussibau Kota, Kec. Putussibau Utara, Kabupaten Kapuas Hulu, Kalimantan Barat","Kabupaten Kapuas Hulu, Kalimantan Barat",KALIMANTAN TENGAH,,Indonesia,,,,0.8723624,112.9232821,https://maps.google.com/?cid=0x0:0xef03688db2e217d9,
hardware store,Toko Alat Tulis,CaCyMeO fhotocopy,"Komplek perumahan smpn 1, Saripoi, Kec. Tanah Siang, Kabupaten Murung Raya, Kalimantan Tengah 73911","Saripoi, Kec. Tanah Siang, Kabupaten Murung Raya",KALIMANTAN TENGAH,73911.0,Indonesia,82154989293.0,,,-0.5221301,114.504402,https://maps.google.com/?cid=0x0:0x1a9fe75ab361428e,
hardware store,Toko Bahan Bangunan,Toko Bangunan CAHAYA BARU,"Kedamin Hilir, Kec. Putussibau Sel., Kabupaten Kapuas Hulu, Kalimantan Barat 78753","Kec. Putussibau Sel., Kabupaten Kapuas Hulu",KALIMANTAN TENGAH,78753.0,Indonesia,81311351781.0,,,0.8364363,112.9088591,https://maps.google.com/?cid=0x0:0x856c6f6911c4bf45,
building materials,building materials,Kalimantan Tengah 73991,"Kabupaten Murung Raya, Kalimantan Tengah","Kabupaten Murung Raya, Kalimantan Tengah",KALIMANTAN TENGAH,,Indonesia,,,,-0.2037503,114.8092691,https://maps.google.com/?cid=0x0:0x46d09a0087c59ba1,
building materials,building materials,CV.MITRA USAHA TUHUP,"Muara Tuhup, Kec. Laung Tuhup, Kabupaten Murung Raya, Kalimantan Tengah","Kabupaten Murung Raya, Kalimantan Tengah",KALIMANTAN TENGAH,,Indonesia,85245008532.0,,,-0.6251715,114.8118863,https://maps.google.com/?cid=0x0:0xc709cf04b7d74335,
building materials,Komplek perumahan,Muara Tuhup,"9RG5+2P5, Muara Tuhup, Kec. Laung Tuhup, Kabupaten Murung Raya, Kalimantan Tengah 73991","Muara Tuhup, Kec. Laung Tuhup, Kabupaten Murung Raya",KALIMANTAN TENGAH,73991.0,Indonesia,,,,-0.6250325,114.8086775,https://maps.google.com/?cid=0x0:0x38d46e69ae9855ef,
building materials,Organisasi Nonprofit,Unloading Material,"9RM5+J2W, Muara Tuhup, Kec. Laung Tuhup, Kabupaten Murung Raya, Kalimantan Tengah 73991","Muara Tuhup, Kec. Laung Tuhup, Kabupaten Murung Raya",KALIMANTAN TENGAH,73991.0,Indonesia,,,,-0.6158941,114.8075738,https://maps.google.com/?cid=0x0:0xfb09553bba2cfe06,
building materials,Toko Bahan Bangunan,TOKO BANGUNAN INARA,"9PQP+843, Muara Laung I, Kec. Laung Tuhup, Kabupaten Murung Raya, Kalimantan Tengah","Kabupaten Murung Raya, Kalimantan Tengah",KALIMANTAN TENGAH,,Indonesia,82149064696.0,,,-0.6117295,114.7353074,https://maps.google.com/?cid=0x0:0xe94938d36dd69663,
building materials,Toko Bahan Bangunan,Toko Fatwa,"CP2J+HP9, Muara Laung I, Kec. Laung Tuhup, Kabupaten Murung Raya, Kalimantan Tengah 73911","Muara Laung I, Kec. Laung Tuhup, Kabupaten Murung Raya",KALIMANTAN TENGAH,73911.0,Indonesia,,,,-0.5989563,114.7321794,https://maps.google.com/?cid=0x0:0x17a611aeab2412e,
building materials,Toko Bahan Bangunan,Toko Bangunan dan Material,"Jl. Veteran rt 09 kelurahan muara laung 1 kecamatan laung tuhup Muara Laung 1, Kalimantan Tengah 73992","Kabupaten Murung Raya, Kalimantan Tengah",KALIMANTAN TENGAH,,Indonesia,81352554971.0,,,-0.5969586,114.7294917,https://maps.google.com/?cid=0x0:0xa690a33d5f93a021,
building materials,building materials,Toko Roso Jaya,"Jl ISTANA AS No.RT 08, Muara Tuhup, Kec. Laung Tuhup, Kabupaten Murung Raya, Kalimantan Tengah","Kabupaten Murung Raya, Kalimantan Tengah",KALIMANTAN TENGAH,,Indonesia,,,,-0.6061313,114.8211394,https://maps.google.com/?cid=0x0:0xb73fc6e2d9b94339,
building materials,Toko Bahan Bangunan,Toko Bangunan PODHO JOYO,"9H28+8F2, Beriwit, Kec. Murung, Kabupaten Murung Raya, Kalimantan Tengah 73911","Beriwit, Kec. Murung, Kabupaten Murung Raya",KALIMANTAN TENGAH,73911.0,Indonesia,,,,-0.6492272,114.5661435,https://maps.google.com/?cid=0x0:0xe2b9ba3f87ebe241,
building materials,Toko Bahan Bangunan,TB H.Bahkian,"9H48+C7P, Jl. Ahmad Yani, Beriwit, Kec. Murung, Kabupaten Murung Raya, Kalimantan Tengah 73911","Jl. Ahmad Yani, Beriwit, Kec. Murung, Kabupaten Murung Raya",KALIMANTAN TENGAH,73911.0,Indonesia,,,,-0.6439103,114.5657086,https://maps.google.com/?cid=0x0:0x96f8d4f408b68cc1,
building materials,Toko Bahan Bangunan,TOKO BANGUNAN (YOLAN BARITO),"9H3J+5W, Puruk Cahu, Kec. Murung, Kabupaten Murung Raya, Kalimantan Tengah 73911","Puruk Cahu, Kec. Murung, Kabupaten Murung Raya",KALIMANTAN TENGAH,73911.0,Indonesia,81349416412.0,,,-0.6466795,114.5811541,https://maps.google.com/?cid=0x0:0x1e126e186b82f785,
building materials,Toko Bahan Bangunan,UD MAJU,"Jl. Ahmad Yani No.165, Beriwit, Kec. Murung, Kabupaten Murung Raya, Kalimantan Tengah 73911","Beriwit, Kec. Murung, Kabupaten Murung Raya",KALIMANTAN TENGAH,73911.0,Indonesia,85252775516.0,,,-0.6432912,114.5655543,https://maps.google.com/?cid=0x0:0x400e252ea5736d51,
building materials,Toko Perlengkapan Rumah,Molding  Meubel Makmur Raya Barokah,"9H45+WGR, Beriwit, Kec. Murung, Kabupaten Murung Raya, Kalimantan Tengah 73911","Beriwit, Kec. Murung, Kabupaten Murung Raya",KALIMANTAN TENGAH,73911.0,Indonesia,81399992571.0,,,-0.6426291,114.5587614,https://maps.google.com/?cid=0x0:0xcdafbe95447193ee,
building materials,Toko Perlengkapan Rumah,"TOKO WAJAH BARU 2 (bangunan,Mesin  sparepart terlengkap)","9H98+FX8, Jl. Ahmad Yani, Beriwit, Kec. Murung, Kabupaten Murung Raya, Kalimantan Tengah 73911","Jl. Ahmad Yani, Beriwit, Kec. Murung, Kabupaten Murung Raya",KALIMANTAN TENGAH,73911.0,Indonesia,81349731841.0,,,-0.6313635,114.5674705,https://maps.google.com/?cid=0x0:0x7ced03815960437e,
building materials,Toko Bahan Bangunan,Toko Bangun Tehnik,"9HMF+29F, Jl. Merdeka, Beriwit, Kec. Murung, Kabupaten Murung Raya, Kalimantan Tengah 73911","Jl. Merdeka, Beriwit, Kec. Murung, Kabupaten Murung Raya",KALIMANTAN TENGAH,73911.0,Indonesia,87761141363.0,,,-0.6174301,114.5734251,https://maps.google.com/?cid=0x0:0xfbbb1cbef1f2ec8c,
building materials,building materials,TB. Budi Mulia,"9HF3+89R, Beriwit, Kec. Murung, Kabupaten Murung Raya, Kalimantan Tengah 73911","Beriwit, Kec. Murung, Kabupaten Murung Raya",KALIMANTAN TENGAH,73911.0,Indonesia,,,,-0.6266455,114.5534363,https://maps.google.com/?cid=0x0:0x5a943870ab9c5ae9,
building materials,Tukang Bangunan,VDR Batako Press,"Jl. Ahmad Yani, Beriwit, Kec. Murung, Kabupaten Murung Raya, Kalimantan Tengah 73911","Beriwit, Kec. Murung, Kabupaten Murung Raya",KALIMANTAN TENGAH,73911.0,Indonesia,85787669995.0,,,-0.637772,114.5656974,https://maps.google.com/?cid=0x0:0x8455b3c192e8364d,
building materials,Toko Perlengkapan Rumah,Toko Sungai Gemilang Raya,"9H67+6R3, Jl. Ahmad Yani, Beriwit, Kec. Murung, Kabupaten Murung Raya, Kalimantan Tengah 73911","Jl. Ahmad Yani, Beriwit, Kec. Murung, Kabupaten Murung Raya",KALIMANTAN TENGAH,73911.0,Indonesia,,,,-0.6394844,114.5645558,https://maps.google.com/?cid=0x0:0x4db2de8c483ede05,
building materials,Komplek perumahan,lokasi empu pa rio sumpoi,"9JHG+X3X, Muara Sumpoi, Kec. Murung, Kabupaten Murung Raya, Kalimantan Tengah 73911","Muara Sumpoi, Kec. Murung, Kabupaten Murung Raya",KALIMANTAN TENGAH,73911.0,Indonesia,,,,-0.6200236,114.6252282,https://maps.google.com/?cid=0x0:0xf64869c360e4daf3,
building materials,Toko Bahan Bangunan,Toko bangunan Wijaya Kusuma,"8JP2+H2R, Jl. Lintas Kalimantan Poros Tengah, Danau Usung, Kec. Murung, Kabupaten Murung Raya, Kalimantan Tengah","Kabupaten Murung Raya, Kalimantan Tengah",KALIMANTAN TENGAH,,Indonesia,82353064829.0,,,-0.6635077,114.6000175,https://maps.google.com/?cid=0x0:0xa37f99e24ebbe6f,
building materials,Toko Elektronik,Ihya Karya Mandiri | Nippon Paint,"Jalan Veteran, RT.10/RW.No.153, Muara Laung I, Kec. Laung Tuhup, Kabupaten Murung Raya, Kalimantan Tengah 73991","RT.10/RW.No.153, Muara Laung I, Kec. Laung Tuhup, Kabupaten Murung Raya",KALIMANTAN TENGAH,73991.0,Indonesia,82251228276.0,,,-0.5953664,114.7311324,https://maps.google.com/?cid=0x0:0xa32eb58aba57b04,
building materials,building materials,CV.MITRA USAHA TUHUP,"Muara Tuhup, Kec. Laung Tuhup, Kabupaten Murung Raya, Kalimantan Tengah","Kabupaten Murung Raya, Kalimantan Tengah",KALIMANTAN TENGAH,,Indonesia,85245008532.0,,,-0.6251715,114.8118863,https://maps.google.com/?cid=0x0:0xc709cf04b7d74335,
building materials,Komplek perumahan,Muara Tuhup,"9RG5+2P5, Muara Tuhup, Kec. Laung Tuhup, Kabupaten Murung Raya, Kalimantan Tengah 73991","Muara Tuhup, Kec. Laung Tuhup, Kabupaten Murung Raya",KALIMANTAN TENGAH,73991.0,Indonesia,,,,-0.6250325,114.8086775,https://maps.google.com/?cid=0x0:0x38d46e69ae9855ef,
building materials,building materials,Toko Roso Jaya,"Jl ISTANA AS No.RT 08, Muara Tuhup, Kec. Laung Tuhup, Kabupaten Murung Raya, Kalimantan Tengah","Kabupaten Murung Raya, Kalimantan Tengah",KALIMANTAN TENGAH,,Indonesia,,,,-0.6061313,114.8211394,https://maps.google.com/?cid=0x0:0xb73fc6e2d9b94339,
building materials,Toko Elektronik,Toko bangunan dan elektronik 2 putri,"9PQP+HFH, Muara Laung I, Kec. Laung Tuhup, Kabupaten Murung Raya, Kalimantan Tengah","Kabupaten Murung Raya, Kalimantan Tengah",KALIMANTAN TENGAH,,Indonesia,,,,-0.6110741,114.7362284,https://maps.google.com/?cid=0x0:0x3f59fdb5c0c1eb76,
building materials,Toko Bahan Bangunan,Toko Bangunan dan Material,"Jl. Veteran rt 09 kelurahan muara laung 1 kecamatan laung tuhup Muara Laung 1, Kalimantan Tengah 73992","Kabupaten Murung Raya, Kalimantan Tengah",KALIMANTAN TENGAH,,Indonesia,81352554971.0,,,-0.5969586,114.7294917,https://maps.google.com/?cid=0x0:0xa690a33d5f93a021,
building materials,Toko Perlengkapan Rumah,Toko Sungai Gemilang Raya,"9H67+6R3, Jl. Ahmad Yani, Beriwit, Kec. Murung, Kabupaten Murung Raya, Kalimantan Tengah 73911","Jl. Ahmad Yani, Beriwit, Kec. Murung, Kabupaten Murung Raya",KALIMANTAN TENGAH,73911.0,Indonesia,,,,-0.6394844,114.5645558,https://maps.google.com/?cid=0x0:0x4db2de8c483ede05,
building materials,Toko Bahan Bangunan,Toko Fatwa,"CP2J+HP9, Muara Laung I, Kec. Laung Tuhup, Kabupaten Murung Raya, Kalimantan Tengah 73911","Muara Laung I, Kec. Laung Tuhup, Kabupaten Murung Raya",KALIMANTAN TENGAH,73911.0,Indonesia,,,,-0.5989563,114.7321794,https://maps.google.com/?cid=0x0:0x17a611aeab2412e,
building materials,Toko Bahan Bangunan,Toko Bangunan PODHO JOYO,"9H28+8F2, Beriwit, Kec. Murung, Kabupaten Murung Raya, Kalimantan Tengah 73911","Beriwit, Kec. Murung, Kabupaten Murung Raya",KALIMANTAN TENGAH,73911.0,Indonesia,,,,-0.6492272,114.5661435,https://maps.google.com/?cid=0x0:0xe2b9ba3f87ebe241,
building materials,Toko Perlengkapan Rumah,Molding  Meubel Makmur Raya Barokah,"9H45+WGR, Beriwit, Kec. Murung, Kabupaten Murung Raya, Kalimantan Tengah 73911","Beriwit, Kec. Murung, Kabupaten Murung Raya",KALIMANTAN TENGAH,73911.0,Indonesia,81399992571.0,,,-0.6426291,114.5587614,https://maps.google.com/?cid=0x0:0xcdafbe95447193ee,
building materials,Toko Perlengkapan Rumah,Toko Sungai Gemilang Raya,"9H67+6R3, Jl. Ahmad Yani, Beriwit, Kec. Murung, Kabupaten Murung Raya, Kalimantan Tengah 73911","Jl. Ahmad Yani, Beriwit, Kec. Murung, Kabupaten Murung Raya",KALIMANTAN TENGAH,73911.0,Indonesia,,,,-0.6394844,114.5645558,https://maps.google.com/?cid=0x0:0x4db2de8c483ede05,
building materials,Toko Bahan Bangunan,TB H.Bahkian,"9H48+C7P, Jl. Ahmad Yani, Beriwit, Kec. Murung, Kabupaten Murung Raya, Kalimantan Tengah 73911","Jl. Ahmad Yani, Beriwit, Kec. Murung, Kabupaten Murung Raya",KALIMANTAN TENGAH,73911.0,Indonesia,,,,-0.6439103,114.5657086,https://maps.google.com/?cid=0x0:0x96f8d4f408b68cc1,
building materials,building materials,CV.MITRA USAHA TUHUP,"Muara Tuhup, Kec. Laung Tuhup, Kabupaten Murung Raya, Kalimantan Tengah","Kabupaten Murung Raya, Kalimantan Tengah",KALIMANTAN TENGAH,,Indonesia,85245008532.0,,,-0.6251715,114.8118863,https://maps.google.com/?cid=0x0:0xc709cf04b7d74335,
building materials,Toko Elektronik,Toko bangunan dan elektronik 2 putri,"9PQP+HFH, Muara Laung I, Kec. Laung Tuhup, Kabupaten Murung Raya, Kalimantan Tengah","Kabupaten Murung Raya, Kalimantan Tengah",KALIMANTAN TENGAH,,Indonesia,,,,-0.6110741,114.7362284,https://maps.google.com/?cid=0x0:0x3f59fdb5c0c1eb76,
building materials,Toko Bahan Bangunan,Toko Bangunan PODHO JOYO,"9H28+8F2, Beriwit, Kec. Murung, Kabupaten Murung Raya, Kalimantan Tengah 73911","Beriwit, Kec. Murung, Kabupaten Murung Raya",KALIMANTAN TENGAH,73911.0,Indonesia,,,,-0.6492272,114.5661435,https://maps.google.com/?cid=0x0:0xe2b9ba3f87ebe241,
building materials,Toko Bahan Bangunan,TOKO BANGUNAN (YOLAN BARITO),"9H3J+5W, Puruk Cahu, Kec. Murung, Kabupaten Murung Raya, Kalimantan Tengah 73911","Puruk Cahu, Kec. Murung, Kabupaten Murung Raya",KALIMANTAN TENGAH,73911.0,Indonesia,81349416412.0,,,-0.6466795,114.5811541,https://maps.google.com/?cid=0x0:0x1e126e186b82f785,
building materials,building materials,Kalimantan Tengah 73991,"Kabupaten Murung Raya, Kalimantan Tengah","Kabupaten Murung Raya, Kalimantan Tengah",KALIMANTAN TENGAH,,Indonesia,,,,-0.2037503,114.8092691,https://maps.google.com/?cid=0x0:0x46d09a0087c59ba1,
building materials,building materials,CV.MITRA USAHA TUHUP,"Muara Tuhup, Kec. Laung Tuhup, Kabupaten Murung Raya, Kalimantan Tengah","Kabupaten Murung Raya, Kalimantan Tengah",KALIMANTAN TENGAH,,Indonesia,85245008532.0,,,-0.6251715,114.8118863,https://maps.google.com/?cid=0x0:0xc709cf04b7d74335,
building materials,Toko Elektronik,Toko bangunan dan elektronik 2 putri,"9PQP+HFH, Muara Laung I, Kec. Laung Tuhup, Kabupaten Murung Raya, Kalimantan Tengah","Kabupaten Murung Raya, Kalimantan Tengah",KALIMANTAN TENGAH,,Indonesia,,,,-0.6110741,114.7362284,https://maps.google.com/?cid=0x0:0x3f59fdb5c0c1eb76,
building materials,Organisasi Nonprofit,Unloading Material,"9RM5+J2W, Muara Tuhup, Kec. Laung Tuhup, Kabupaten Murung Raya, Kalimantan Tengah 73991","Muara Tuhup, Kec. Laung Tuhup, Kabupaten Murung Raya",KALIMANTAN TENGAH,73991.0,Indonesia,,,,-0.6158941,114.8075738,https://maps.google.com/?cid=0x0:0xfb09553bba2cfe06,
building materials,Toko Bahan Bangunan,Toko Fatwa,"CP2J+HP9, Muara Laung I, Kec. Laung Tuhup, Kabupaten Murung Raya, Kalimantan Tengah 73911","Muara Laung I, Kec. Laung Tuhup, Kabupaten Murung Raya",KALIMANTAN TENGAH,73911.0,Indonesia,,,,-0.5989563,114.7321794,https://maps.google.com/?cid=0x0:0x17a611aeab2412e,
building materials,Toko Bahan Bangunan,TOKO BANGUNAN INARA,"9PQP+843, Muara Laung I, Kec. Laung Tuhup, Kabupaten Murung Raya, Kalimantan Tengah","Kabupaten Murung Raya, Kalimantan Tengah",KALIMANTAN TENGAH,,Indonesia,82149064696.0,,,-0.6117295,114.7353074,https://maps.google.com/?cid=0x0:0xe94938d36dd69663,
building materials,Toko Bahan Bangunan,Toko Bangunan dan Material,"Jl. Veteran rt 09 kelurahan muara laung 1 kecamatan laung tuhup Muara Laung 1, Kalimantan Tengah 73992","Kabupaten Murung Raya, Kalimantan Tengah",KALIMANTAN TENGAH,,Indonesia,81352554971.0,,,-0.5969586,114.7294917,https://maps.google.com/?cid=0x0:0xa690a33d5f93a021,
building materials,building materials,Toko Roso Jaya,"Jl ISTANA AS No.RT 08, Muara Tuhup, Kec. Laung Tuhup, Kabupaten Murung Raya, Kalimantan Tengah","Kabupaten Murung Raya, Kalimantan Tengah",KALIMANTAN TENGAH,,Indonesia,,,,-0.6061313,114.8211394,https://maps.google.com/?cid=0x0:0xb73fc6e2d9b94339,
building materials,Toko Bahan Bangunan,Toko Bangunan PODHO JOYO,"9H28+8F2, Beriwit, Kec. Murung, Kabupaten Murung Raya, Kalimantan Tengah 73911","Beriwit, Kec. Murung, Kabupaten Murung Raya",KALIMANTAN TENGAH,73911.0,Indonesia,,,,-0.6492272,114.5661435,https://maps.google.com/?cid=0x0:0xe2b9ba3f87ebe241,
building materials,Toko Bahan Bangunan,UD MAJU,"Jl. Ahmad Yani No.165, Beriwit, Kec. Murung, Kabupaten Murung Raya, Kalimantan Tengah 73911","Beriwit, Kec. Murung, Kabupaten Murung Raya",KALIMANTAN TENGAH,73911.0,Indonesia,85252775516.0,,,-0.6432912,114.5655543,https://maps.google.com/?cid=0x0:0x400e252ea5736d51,
building materials,Layanan Transportasi,Jetty Tuhup,"9RW3+7M9, Muara Tuhup, Kec. Laung Tuhup, Kabupaten Murung Raya, Kalimantan Tengah 73991","Muara Tuhup, Kec. Laung Tuhup, Kabupaten Murung Raya",KALIMANTAN TENGAH,73991.0,Indonesia,,,,-0.604349,114.8042328,https://maps.google.com/?cid=0x0:0x90a2f263ee0a991c,
building materials,Toko Elektronik,Ihya Karya Mandiri | Nippon Paint,"Jalan Veteran, RT.10/RW.No.153, Muara Laung I, Kec. Laung Tuhup, Kabupaten Murung Raya, Kalimantan Tengah 73991","RT.10/RW.No.153, Muara Laung I, Kec. Laung Tuhup, Kabupaten Murung Raya",KALIMANTAN TENGAH,73991.0,Indonesia,82251228276.0,,,-0.5953664,114.7311324,https://maps.google.com/?cid=0x0:0xa32eb58aba57b04,
building materials,building materials,Kalimantan Tengah 73911,"Kec. Murung, Kabupaten Murung Raya, Kalimantan Tengah","Kabupaten Murung Raya, Kalimantan Tengah",KALIMANTAN TENGAH,,Indonesia,,,,-0.581032,114.6667939,https://maps.google.com/?cid=0x0:0xfaf4a8cd4b21fca2,
building materials,Toko Bahan Bangunan,TB H.Bahkian,"9H48+C7P, Jl. Ahmad Yani, Beriwit, Kec. Murung, Kabupaten Murung Raya, Kalimantan Tengah 73911","Jl. Ahmad Yani, Beriwit, Kec. Murung, Kabupaten Murung Raya",KALIMANTAN TENGAH,73911.0,Indonesia,,,,-0.6439103,114.5657086,https://maps.google.com/?cid=0x0:0x96f8d4f408b68cc1,
building materials,Toko Bahan Bangunan,Toko Bangunan PODHO JOYO,"9H28+8F2, Beriwit, Kec. Murung, Kabupaten Murung Raya, Kalimantan Tengah 73911","Beriwit, Kec. Murung, Kabupaten Murung Raya",KALIMANTAN TENGAH,73911.0,Indonesia,,,,-0.6492272,114.5661435,https://maps.google.com/?cid=0x0:0xe2b9ba3f87ebe241,
building materials,Toko Bahan Bangunan,UD MAJU,"Jl. Ahmad Yani No.165, Beriwit, Kec. Murung, Kabupaten Murung Raya, Kalimantan Tengah 73911","Beriwit, Kec. Murung, Kabupaten Murung Raya",KALIMANTAN TENGAH,73911.0,Indonesia,85252775516.0,,,-0.6432912,114.5655543,https://maps.google.com/?cid=0x0:0x400e252ea5736d51,
building materials,Toko Perlengkapan Rumah,Molding  Meubel Makmur Raya Barokah,"9H45+WGR, Beriwit, Kec. Murung, Kabupaten Murung Raya, Kalimantan Tengah 73911","Beriwit, Kec. Murung, Kabupaten Murung Raya",KALIMANTAN TENGAH,73911.0,Indonesia,81399992571.0,,,-0.6426291,114.5587614,https://maps.google.com/?cid=0x0:0xcdafbe95447193ee,
building materials,Toko Perlengkapan Rumah,"TOKO WAJAH BARU 2 (bangunan,Mesin  sparepart terlengkap)","9H98+FX8, Jl. Ahmad Yani, Beriwit, Kec. Murung, Kabupaten Murung Raya, Kalimantan Tengah 73911","Jl. Ahmad Yani, Beriwit, Kec. Murung, Kabupaten Murung Raya",KALIMANTAN TENGAH,73911.0,Indonesia,81349731841.0,,,-0.6313635,114.5674705,https://maps.google.com/?cid=0x0:0x7ced03815960437e,
building materials,Toko Bahan Bangunan,TOKO BANGUNAN (YOLAN BARITO),"9H3J+5W, Puruk Cahu, Kec. Murung, Kabupaten Murung Raya, Kalimantan Tengah 73911","Puruk Cahu, Kec. Murung, Kabupaten Murung Raya",KALIMANTAN TENGAH,73911.0,Indonesia,81349416412.0,,,-0.6466795,114.5811541,https://maps.google.com/?cid=0x0:0x1e126e186b82f785,
building materials,Tukang Bangunan,VDR Batako Press,"Jl. Ahmad Yani, Beriwit, Kec. Murung, Kabupaten Murung Raya, Kalimantan Tengah 73911","Beriwit, Kec. Murung, Kabupaten Murung Raya",KALIMANTAN TENGAH,73911.0,Indonesia,85787669995.0,,,-0.637772,114.5656974,https://maps.google.com/?cid=0x0:0x8455b3c192e8364d,
building materials,Pusat Perbelanjaan,Ekadana Jotun,"9HPC+3WR, Jl. Merdeka, Beriwit, Kec. Murung, Kabupaten Murung Raya, Kalimantan Tengah 73911","Jl. Merdeka, Beriwit, Kec. Murung, Kabupaten Murung Raya",KALIMANTAN TENGAH,73911.0,Indonesia,8125031113.0,,,-0.6147726,114.5722581,https://maps.google.com/?cid=0x0:0xf1ed096f627e1aed,
building materials,building materials,TB. Budi Mulia,"9HF3+89R, Beriwit, Kec. Murung, Kabupaten Murung Raya, Kalimantan Tengah 73911","Beriwit, Kec. Murung, Kabupaten Murung Raya",KALIMANTAN TENGAH,73911.0,Indonesia,,,,-0.6266455,114.5534363,https://maps.google.com/?cid=0x0:0x5a943870ab9c5ae9,
building materials,Toko Elektronik,Toko bangunan dan elektronik 2 putri,"9PQP+HFH, Muara Laung I, Kec. Laung Tuhup, Kabupaten Murung Raya, Kalimantan Tengah","Kabupaten Murung Raya, Kalimantan Tengah",KALIMANTAN TENGAH,,Indonesia,,,,-0.6110741,114.7362284,https://maps.google.com/?cid=0x0:0x3f59fdb5c0c1eb76,
building materials,Toko Bahan Bangunan,Toko Bangun Tehnik,"9HMF+29F, Jl. Merdeka, Beriwit, Kec. Murung, Kabupaten Murung Raya, Kalimantan Tengah 73911","Jl. Merdeka, Beriwit, Kec. Murung, Kabupaten Murung Raya",KALIMANTAN TENGAH,73911.0,Indonesia,87761141363.0,,,-0.6174301,114.5734251,https://maps.google.com/?cid=0x0:0xfbbb1cbef1f2ec8c,
building materials,Toko Bahan Bangunan,Toko Fatwa,"CP2J+HP9, Muara Laung I, Kec. Laung Tuhup, Kabupaten Murung Raya, Kalimantan Tengah 73911","Muara Laung I, Kec. Laung Tuhup, Kabupaten Murung Raya",KALIMANTAN TENGAH,73911.0,Indonesia,,,,-0.5989563,114.7321794,https://maps.google.com/?cid=0x0:0x17a611aeab2412e,
building materials,Toko Bahan Bangunan,TOKO BANGUNAN INARA,"9PQP+843, Muara Laung I, Kec. Laung Tuhup, Kabupaten Murung Raya, Kalimantan Tengah","Kabupaten Murung Raya, Kalimantan Tengah",KALIMANTAN TENGAH,,Indonesia,82149064696.0,,,-0.6117295,114.7353074,https://maps.google.com/?cid=0x0:0xe94938d36dd69663,
building materials,Toko Bahan Bangunan,MITRA MULIA TK,"9H88+FPP, Jl. Ahmad Yani, Beriwit, Kec. Murung, Kabupaten Murung Raya, Kalimantan Tengah 73911","Jl. Ahmad Yani, Beriwit, Kec. Murung, Kabupaten Murung Raya",KALIMANTAN TENGAH,73911.0,Indonesia,,,,-0.633795,114.5668204,https://maps.google.com/?cid=0x0:0xcf50adada1ee7b6b,
building materials,Toko Bahan Bangunan,Toko Bangunan Jaya,"Psan antar, Beriwit, Kec. Murung, Kabupaten Murung Raya, Kalimantan Tengah 73911","Beriwit, Kec. Murung, Kabupaten Murung Raya",KALIMANTAN TENGAH,73911.0,Indonesia,,,,-0.6288125,114.5643281,https://maps.google.com/?cid=0x0:0x834cd32f96f3ba4e,
building materials,Komplek perumahan,lokasi empu pa rio sumpoi,"9JHG+X3X, Muara Sumpoi, Kec. Murung, Kabupaten Murung Raya, Kalimantan Tengah 73911","Muara Sumpoi, Kec. Murung, Kabupaten Murung Raya",KALIMANTAN TENGAH,73911.0,Indonesia,,,,-0.6200236,114.6252282,https://maps.google.com/?cid=0x0:0xf64869c360e4daf3,
building materials,building materials,CV.MITRA USAHA TUHUP,"Muara Tuhup, Kec. Laung Tuhup, Kabupaten Murung Raya, Kalimantan Tengah","Kabupaten Murung Raya, Kalimantan Tengah",KALIMANTAN TENGAH,,Indonesia,85245008532.0,,,-0.6251715,114.8118863,https://maps.google.com/?cid=0x0:0xc709cf04b7d74335,
building materials,Toko Bahan Bangunan,Toko bangunan Wijaya Kusuma,"8JP2+H2R, Jl. Lintas Kalimantan Poros Tengah, Danau Usung, Kec. Murung, Kabupaten Murung Raya, Kalimantan Tengah","Kabupaten Murung Raya, Kalimantan Tengah",KALIMANTAN TENGAH,,Indonesia,82353064829.0,,,-0.6635077,114.6000175,https://maps.google.com/?cid=0x0:0xa37f99e24ebbe6f,
building materials,Toko Bahan Bangunan,Toko Cina Serba Ada,"Jl. Ahmad Yani No.165, Beriwit, Kec. Murung, Kabupaten Murung Raya, Kalimantan Tengah 73911","Beriwit, Kec. Murung, Kabupaten Murung Raya",KALIMANTAN TENGAH,73911.0,Indonesia,,,,-0.6431923,114.5654579,https://maps.google.com/?cid=0x0:0x9ba00339d155290a,
building materials,building materials,Kec. Murung,"Kabupaten Murung Raya, Kalimantan Tengah","Kabupaten Murung Raya, Kalimantan Tengah",KALIMANTAN TENGAH,,Indonesia,,,,-0.650675,114.5694392,https://maps.google.com/?cid=0x0:0x3a23c14531168c56,
building materials,Toko,Baikhaki Helm,"9H58+85W, Beriwit, Kec. Murung, Kabupaten Murung Raya, Kalimantan Tengah 73911","Beriwit, Kec. Murung, Kabupaten Murung Raya",KALIMANTAN TENGAH,73911.0,Indonesia,85246999988.0,,,-0.641627,114.565465,https://maps.google.com/?cid=0x0:0x888c02b577a052de,
building materials,Komplek perumahan,Muara Tuhup,"9RG5+2P5, Muara Tuhup, Kec. Laung Tuhup, Kabupaten Murung Raya, Kalimantan Tengah 73991","Muara Tuhup, Kec. Laung Tuhup, Kabupaten Murung Raya",KALIMANTAN TENGAH,73991.0,Indonesia,,,,-0.6250325,114.8086775,https://maps.google.com/?cid=0x0:0x38d46e69ae9855ef,
building materials,building materials,Kalimantan Tengah 73971,"Kabupaten Murung Raya, Kalimantan Tengah","Kabupaten Murung Raya, Kalimantan Tengah",KALIMANTAN TENGAH,,Indonesia,,,,-0.4787128,114.4292148,https://maps.google.com/?cid=0x0:0x7eb3a8a82a8e44be,
building materials,building materials,Kec. Permata Intan,"Kabupaten Murung Raya, Kalimantan Tengah","Kabupaten Murung Raya, Kalimantan Tengah",KALIMANTAN TENGAH,,Indonesia,,,,-0.6882915,114.2993068,https://maps.google.com/?cid=0x0:0xbcab85e9f7c10914,
building materials,Toko Perlengkapan Rumah,Molding  Meubel Makmur Raya Barokah,"9H45+WGR, Beriwit, Kec. Murung, Kabupaten Murung Raya, Kalimantan Tengah 73911","Beriwit, Kec. Murung, Kabupaten Murung Raya",KALIMANTAN TENGAH,73911.0,Indonesia,81399992571.0,,,-0.6426291,114.5587614,https://maps.google.com/?cid=0x0:0xcdafbe95447193ee,
building materials,Toko Bahan Bangunan,UD MAJU,"Jl. Ahmad Yani No.165, Beriwit, Kec. Murung, Kabupaten Murung Raya, Kalimantan Tengah 73911","Beriwit, Kec. Murung, Kabupaten Murung Raya",KALIMANTAN TENGAH,73911.0,Indonesia,85252775516.0,,,-0.6432912,114.5655543,https://maps.google.com/?cid=0x0:0x400e252ea5736d51,
building materials,Toko Perlengkapan Rumah,Toko Sungai Gemilang Raya,"9H67+6R3, Jl. Ahmad Yani, Beriwit, Kec. Murung, Kabupaten Murung Raya, Kalimantan Tengah 73911","Jl. Ahmad Yani, Beriwit, Kec. Murung, Kabupaten Murung Raya",KALIMANTAN TENGAH,73911.0,Indonesia,,,,-0.6394844,114.5645558,https://maps.google.com/?cid=0x0:0x4db2de8c483ede05,
building materials,Toko Bahan Bangunan,Toko Bangunan PODHO JOYO,"9H28+8F2, Beriwit, Kec. Murung, Kabupaten Murung Raya, Kalimantan Tengah 73911","Beriwit, Kec. Murung, Kabupaten Murung Raya",KALIMANTAN TENGAH,73911.0,Indonesia,,,,-0.6492272,114.5661435,https://maps.google.com/?cid=0x0:0xe2b9ba3f87ebe241,
building materials,Toko Bahan Bangunan,TB H.Bahkian,"9H48+C7P, Jl. Ahmad Yani, Beriwit, Kec. Murung, Kabupaten Murung Raya, Kalimantan Tengah 73911","Jl. Ahmad Yani, Beriwit, Kec. Murung, Kabupaten Murung Raya",KALIMANTAN TENGAH,73911.0,Indonesia,,,,-0.6439103,114.5657086,https://maps.google.com/?cid=0x0:0x96f8d4f408b68cc1,
building materials,building materials,TB. Budi Mulia,"9HF3+89R, Beriwit, Kec. Murung, Kabupaten Murung Raya, Kalimantan Tengah 73911","Beriwit, Kec. Murung, Kabupaten Murung Raya",KALIMANTAN TENGAH,73911.0,Indonesia,,,,-0.6266455,114.5534363,https://maps.google.com/?cid=0x0:0x5a943870ab9c5ae9,
building materials,Komplek perumahan,lokasi empu pa rio sumpoi,"9JHG+X3X, Muara Sumpoi, Kec. Murung, Kabupaten Murung Raya, Kalimantan Tengah 73911","Muara Sumpoi, Kec. Murung, Kabupaten Murung Raya",KALIMANTAN TENGAH,73911.0,Indonesia,,,,-0.6200236,114.6252282,https://maps.google.com/?cid=0x0:0xf64869c360e4daf3,
building materials,building materials,Kalimantan Tengah 73981,"Kabupaten Murung Raya, Kalimantan Tengah","Kabupaten Murung Raya, Kalimantan Tengah",KALIMANTAN TENGAH,,Indonesia,,,,0.1366232,113.9536466,https://maps.google.com/?cid=0x0:0xb765502d3651aeca,
building materials,Toko Bahan Bangunan,TOKO BANGUNAN (YOLAN BARITO),"9H3J+5W, Puruk Cahu, Kec. Murung, Kabupaten Murung Raya, Kalimantan Tengah 73911","Puruk Cahu, Kec. Murung, Kabupaten Murung Raya",KALIMANTAN TENGAH,73911.0,Indonesia,81349416412.0,,,-0.6466795,114.5811541,https://maps.google.com/?cid=0x0:0x1e126e186b82f785,
building materials,building materials,Sumber Barito,"Kabupaten Murung Raya, Kalimantan Tengah","Kabupaten Murung Raya, Kalimantan Tengah",KALIMANTAN TENGAH,,Indonesia,,,,-0.341791,114.2390498,https://maps.google.com/?cid=0x0:0xdb7aed4b9b946c56,
building materials,Toko Bahan Bangunan,Toko Bangunan PODHO JOYO,"9H28+8F2, Beriwit, Kec. Murung, Kabupaten Murung Raya, Kalimantan Tengah 73911","Beriwit, Kec. Murung, Kabupaten Murung Raya",KALIMANTAN TENGAH,73911.0,Indonesia,,,,-0.6492272,114.5661435,https://maps.google.com/?cid=0x0:0xe2b9ba3f87ebe241,
building materials,Toko Perlengkapan Rumah,Toko Sungai Gemilang Raya,"9H67+6R3, Jl. Ahmad Yani, Beriwit, Kec. Murung, Kabupaten Murung Raya, Kalimantan Tengah 73911","Jl. Ahmad Yani, Beriwit, Kec. Murung, Kabupaten Murung Raya",KALIMANTAN TENGAH,73911.0,Indonesia,,,,-0.6394844,114.5645558,https://maps.google.com/?cid=0x0:0x4db2de8c483ede05,
building materials,Toko Bahan Bangunan,TOKO BANGUNAN (YOLAN BARITO),"9H3J+5W, Puruk Cahu, Kec. Murung, Kabupaten Murung Raya, Kalimantan Tengah 73911","Puruk Cahu, Kec. Murung, Kabupaten Murung Raya",KALIMANTAN TENGAH,73911.0,Indonesia,81349416412.0,,,-0.6466795,114.5811541,https://maps.google.com/?cid=0x0:0x1e126e186b82f785,
building materials,building materials,Kec. Sungai Babuat,"Kabupaten Murung Raya, Kalimantan Tengah","Kabupaten Murung Raya, Kalimantan Tengah",KALIMANTAN TENGAH,,Indonesia,,,,-0.5790762,114.3152452,https://maps.google.com/?cid=0x0:0xd1427b5a363a47e7,
building materials,Toko Bahan Bangunan,Toko Bangunan PODHO JOYO,"9H28+8F2, Beriwit, Kec. Murung, Kabupaten Murung Raya, Kalimantan Tengah 73911","Beriwit, Kec. Murung, Kabupaten Murung Raya",KALIMANTAN TENGAH,73911.0,Indonesia,,,,-0.6492272,114.5661435,https://maps.google.com/?cid=0x0:0xe2b9ba3f87ebe241,
building materials,Toko Bahan Bangunan,TB H.Bahkian,"9H48+C7P, Jl. Ahmad Yani, Beriwit, Kec. Murung, Kabupaten Murung Raya, Kalimantan Tengah 73911","Jl. Ahmad Yani, Beriwit, Kec. Murung, Kabupaten Murung Raya",KALIMANTAN TENGAH,73911.0,Indonesia,,,,-0.6439103,114.5657086,https://maps.google.com/?cid=0x0:0x96f8d4f408b68cc1,
building materials,Toko Bahan Bangunan,UD MAJU,"Jl. Ahmad Yani No.165, Beriwit, Kec. Murung, Kabupaten Murung Raya, Kalimantan Tengah 73911","Beriwit, Kec. Murung, Kabupaten Murung Raya",KALIMANTAN TENGAH,73911.0,Indonesia,85252775516.0,,,-0.6432912,114.5655543,https://maps.google.com/?cid=0x0:0x400e252ea5736d51,
building materials,Toko Perlengkapan Rumah,Toko Sungai Gemilang Raya,"9H67+6R3, Jl. Ahmad Yani, Beriwit, Kec. Murung, Kabupaten Murung Raya, Kalimantan Tengah 73911","Jl. Ahmad Yani, Beriwit, Kec. Murung, Kabupaten Murung Raya",KALIMANTAN TENGAH,73911.0,Indonesia,,,,-0.6394844,114.5645558,https://maps.google.com/?cid=0x0:0x4db2de8c483ede05,
building materials,Toko Bahan Bangunan,Toko Fatwa,"CP2J+HP9, Muara Laung I, Kec. Laung Tuhup, Kabupaten Murung Raya, Kalimantan Tengah 73911","Muara Laung I, Kec. Laung Tuhup, Kabupaten Murung Raya",KALIMANTAN TENGAH,73911.0,Indonesia,,,,-0.5989563,114.7321794,https://maps.google.com/?cid=0x0:0x17a611aeab2412e,
building materials,Toko Bahan Bangunan,TOKO BANGUNAN (YOLAN BARITO),"9H3J+5W, Puruk Cahu, Kec. Murung, Kabupaten Murung Raya, Kalimantan Tengah 73911","Puruk Cahu, Kec. Murung, Kabupaten Murung Raya",KALIMANTAN TENGAH,73911.0,Indonesia,81349416412.0,,,-0.6466795,114.5811541,https://maps.google.com/?cid=0x0:0x1e126e186b82f785,
building materials,Toko Bahan Bangunan,Toko Bangunan Jaya,"Psan antar, Beriwit, Kec. Murung, Kabupaten Murung Raya, Kalimantan Tengah 73911","Beriwit, Kec. Murung, Kabupaten Murung Raya",KALIMANTAN TENGAH,73911.0,Indonesia,,,,-0.6288125,114.5643281,https://maps.google.com/?cid=0x0:0x834cd32f96f3ba4e,
building materials,Toko Bahan Bangunan,MITRA MULIA TK,"9H88+FPP, Jl. Ahmad Yani, Beriwit, Kec. Murung, Kabupaten Murung Raya, Kalimantan Tengah 73911","Jl. Ahmad Yani, Beriwit, Kec. Murung, Kabupaten Murung Raya",KALIMANTAN TENGAH,73911.0,Indonesia,,,,-0.633795,114.5668204,https://maps.google.com/?cid=0x0:0xcf50adada1ee7b6b,
building materials,building materials,Toko Bangunan 3 Putri,"Puruk Cahu, Kec. Murung, Kabupaten Murung Raya, Kalimantan Tengah","Kabupaten Murung Raya, Kalimantan Tengah",KALIMANTAN TENGAH,,Indonesia,,,,-0.6518019,114.5726919,https://maps.google.com/?cid=0x0:0xe78b95c0894faff2,
building materials,Toko Bahan Bangunan,Toko bangunan Wijaya Kusuma,"8JP2+H2R, Jl. Lintas Kalimantan Poros Tengah, Danau Usung, Kec. Murung, Kabupaten Murung Raya, Kalimantan Tengah","Kabupaten Murung Raya, Kalimantan Tengah",KALIMANTAN TENGAH,,Indonesia,82353064829.0,,,-0.6635077,114.6000175,https://maps.google.com/?cid=0x0:0xa37f99e24ebbe6f,
building materials,Toko Alat Tulis,CaCyMeO fhotocopy,"Komplek perumahan smpn 1, Saripoi, Kec. Tanah Siang, Kabupaten Murung Raya, Kalimantan Tengah 73911","Saripoi, Kec. Tanah Siang, Kabupaten Murung Raya",KALIMANTAN TENGAH,73911.0,Indonesia,82154989293.0,,,-0.5221301,114.504402,https://maps.google.com/?cid=0x0:0x1a9fe75ab361428e,
building materials,Toko bahan makanan,gudang toko 4 putri,"Jl. Juking Pajang, Puruk Cahu, Kec. Murung, Kabupaten Murung Raya, Kalimantan Tengah 73911","Puruk Cahu, Kec. Murung, Kabupaten Murung Raya",KALIMANTAN TENGAH,73911.0,Indonesia,,,,-0.6348598,114.5878005,https://maps.google.com/?cid=0x0:0x7ebdf249085015a8,
building materials,Toko Bahan Bangunan,Toko Bahan Bangunan Rama Sinta,"Psan antar Chat WhatsAp Kami, o  2 I × 7  9 3 × 0 9 4 0,Toko, Jl. Jend. Sudirman, Puruk Cahu, Kec. Murung, Kabupaten Murung Raya, Kalimantan Tengah 73911","o  2 I × 7  9 3 × 0 9 4 0,Toko, Jl. Jend. Sudirman, Puruk Cahu, Kec. Murung, Kabupaten Murung Raya",KALIMANTAN TENGAH,73911.0,Indonesia,85248474992.0,,,-0.6558637,114.5837824,https://maps.google.com/?cid=0x0:0xb97546aaffe9e7f3,
building materials,building materials,Kalimantan Tengah 73961,"Kabupaten Murung Raya, Kalimantan Tengah","Kabupaten Murung Raya, Kalimantan Tengah",KALIMANTAN TENGAH,,Indonesia,,,,-0.1700332,114.5717799,https://maps.google.com/?cid=0x0:0x228b161e8a06fd62,
building materials,Toko Bahan Bangunan,Toko Bangunan PODHO JOYO,"9H28+8F2, Beriwit, Kec. Murung, Kabupaten Murung Raya, Kalimantan Tengah 73911","Beriwit, Kec. Murung, Kabupaten Murung Raya",KALIMANTAN TENGAH,73911.0,Indonesia,,,,-0.6492272,114.5661435,https://maps.google.com/?cid=0x0:0xe2b9ba3f87ebe241,
building materials,Toko Bahan Bangunan,TOKO BANGUNAN (YOLAN BARITO),"9H3J+5W, Puruk Cahu, Kec. Murung, Kabupaten Murung Raya, Kalimantan Tengah 73911","Puruk Cahu, Kec. Murung, Kabupaten Murung Raya",KALIMANTAN TENGAH,73911.0,Indonesia,81349416412.0,,,-0.6466795,114.5811541,https://maps.google.com/?cid=0x0:0x1e126e186b82f785,
building materials,Toko Bahan Bangunan,Toko Bangunan Jaya,"Psan antar, Beriwit, Kec. Murung, Kabupaten Murung Raya, Kalimantan Tengah 73911","Beriwit, Kec. Murung, Kabupaten Murung Raya",KALIMANTAN TENGAH,73911.0,Indonesia,,,,-0.6288125,114.5643281,https://maps.google.com/?cid=0x0:0x834cd32f96f3ba4e,
building materials,Toko Bahan Bangunan,Toko Bangunan dan Material,"Jl. Veteran rt 09 kelurahan muara laung 1 kecamatan laung tuhup Muara Laung 1, Kalimantan Tengah 73992","Kabupaten Murung Raya, Kalimantan Tengah",KALIMANTAN TENGAH,,Indonesia,81352554971.0,,,-0.5969586,114.7294917,https://maps.google.com/?cid=0x0:0xa690a33d5f93a021,
building materials,Toko Bahan Bangunan,Toko Bahan Bangunan Rama Sinta,"Psan antar Chat WhatsAp Kami, o  2 I × 7  9 3 × 0 9 4 0,Toko, Jl. Jend. Sudirman, Puruk Cahu, Kec. Murung, Kabupaten Murung Raya, Kalimantan Tengah 73911","o  2 I × 7  9 3 × 0 9 4 0,Toko, Jl. Jend. Sudirman, Puruk Cahu, Kec. Murung, Kabupaten Murung Raya",KALIMANTAN TENGAH,73911.0,Indonesia,85248474992.0,,,-0.6558637,114.5837824,https://maps.google.com/?cid=0x0:0xb97546aaffe9e7f3,
building materials,building materials,Tanah Siang Sel.,"Kabupaten Murung Raya, Kalimantan Tengah","Kabupaten Murung Raya, Kalimantan Tengah",KALIMANTAN TENGAH,,Indonesia,,,,-0.6787755,114.4533539,https://maps.google.com/?cid=0x0:0x563ce9dc5860bfa6,
building materials,Toko Perlengkapan Rumah,Molding  Meubel Makmur Raya Barokah,"9H45+WGR, Beriwit, Kec. Murung, Kabupaten Murung Raya, Kalimantan Tengah 73911","Beriwit, Kec. Murung, Kabupaten Murung Raya",KALIMANTAN TENGAH,73911.0,Indonesia,81399992571.0,,,-0.6426291,114.5587614,https://maps.google.com/?cid=0x0:0xcdafbe95447193ee,
building materials,Toko Bahan Bangunan,Toko Bangunan PODHO JOYO,"9H28+8F2, Beriwit, Kec. Murung, Kabupaten Murung Raya, Kalimantan Tengah 73911","Beriwit, Kec. Murung, Kabupaten Murung Raya",KALIMANTAN TENGAH,73911.0,Indonesia,,,,-0.6492272,114.5661435,https://maps.google.com/?cid=0x0:0xe2b9ba3f87ebe241,
building materials,Toko Bahan Bangunan,TB H.Bahkian,"9H48+C7P, Jl. Ahmad Yani, Beriwit, Kec. Murung, Kabupaten Murung Raya, Kalimantan Tengah 73911","Jl. Ahmad Yani, Beriwit, Kec. Murung, Kabupaten Murung Raya",KALIMANTAN TENGAH,73911.0,Indonesia,,,,-0.6439103,114.5657086,https://maps.google.com/?cid=0x0:0x96f8d4f408b68cc1,
building materials,Toko Bahan Bangunan,UD MAJU,"Jl. Ahmad Yani No.165, Beriwit, Kec. Murung, Kabupaten Murung Raya, Kalimantan Tengah 73911","Beriwit, Kec. Murung, Kabupaten Murung Raya",KALIMANTAN TENGAH,73911.0,Indonesia,85252775516.0,,,-0.6432912,114.5655543,https://maps.google.com/?cid=0x0:0x400e252ea5736d51,
building materials,Tukang Bangunan,VDR Batako Press,"Jl. Ahmad Yani, Beriwit, Kec. Murung, Kabupaten Murung Raya, Kalimantan Tengah 73911","Beriwit, Kec. Murung, Kabupaten Murung Raya",KALIMANTAN TENGAH,73911.0,Indonesia,85787669995.0,,,-0.637772,114.5656974,https://maps.google.com/?cid=0x0:0x8455b3c192e8364d,
building materials,building materials,TB. Budi Mulia,"9HF3+89R, Beriwit, Kec. Murung, Kabupaten Murung Raya, Kalimantan Tengah 73911","Beriwit, Kec. Murung, Kabupaten Murung Raya",KALIMANTAN TENGAH,73911.0,Indonesia,,,,-0.6266455,114.5534363,https://maps.google.com/?cid=0x0:0x5a943870ab9c5ae9,
building materials,Toko Perlengkapan Rumah,"TOKO WAJAH BARU 2 (bangunan,Mesin  sparepart terlengkap)","9H98+FX8, Jl. Ahmad Yani, Beriwit, Kec. Murung, Kabupaten Murung Raya, Kalimantan Tengah 73911","Jl. Ahmad Yani, Beriwit, Kec. Murung, Kabupaten Murung Raya",KALIMANTAN TENGAH,73911.0,Indonesia,81349731841.0,,,-0.6313635,114.5674705,https://maps.google.com/?cid=0x0:0x7ced03815960437e,
building materials,Toko Bahan Bangunan,TOKO BANGUNAN (YOLAN BARITO),"9H3J+5W, Puruk Cahu, Kec. Murung, Kabupaten Murung Raya, Kalimantan Tengah 73911","Puruk Cahu, Kec. Murung, Kabupaten Murung Raya",KALIMANTAN TENGAH,73911.0,Indonesia,81349416412.0,,,-0.6466795,114.5811541,https://maps.google.com/?cid=0x0:0x1e126e186b82f785,
building materials,Toko Bahan Bangunan,Toko Cina Serba Ada,"Jl. Ahmad Yani No.165, Beriwit, Kec. Murung, Kabupaten Murung Raya, Kalimantan Tengah 73911","Beriwit, Kec. Murung, Kabupaten Murung Raya",KALIMANTAN TENGAH,73911.0,Indonesia,,,,-0.6431923,114.5654579,https://maps.google.com/?cid=0x0:0x9ba00339d155290a,
building materials,Toko Bahan Bangunan,Toko Bangun Tehnik,"9HMF+29F, Jl. Merdeka, Beriwit, Kec. Murung, Kabupaten Murung Raya, Kalimantan Tengah 73911","Jl. Merdeka, Beriwit, Kec. Murung, Kabupaten Murung Raya",KALIMANTAN TENGAH,73911.0,Indonesia,87761141363.0,,,-0.6174301,114.5734251,https://maps.google.com/?cid=0x0:0xfbbb1cbef1f2ec8c,
building materials,Pusat Perbelanjaan,Ekadana Jotun,"9HPC+3WR, Jl. Merdeka, Beriwit, Kec. Murung, Kabupaten Murung Raya, Kalimantan Tengah 73911","Jl. Merdeka, Beriwit, Kec. Murung, Kabupaten Murung Raya",KALIMANTAN TENGAH,73911.0,Indonesia,8125031113.0,,,-0.6147726,114.5722581,https://maps.google.com/?cid=0x0:0xf1ed096f627e1aed,
building materials,Toko Bahan Bangunan,Toko Bangunan Jaya,"Psan antar, Beriwit, Kec. Murung, Kabupaten Murung Raya, Kalimantan Tengah 73911","Beriwit, Kec. Murung, Kabupaten Murung Raya",KALIMANTAN TENGAH,73911.0,Indonesia,,,,-0.6288125,114.5643281,https://maps.google.com/?cid=0x0:0x834cd32f96f3ba4e,
building materials,Toko Bahan Bangunan,Toko bangunan Wijaya Kusuma,"8JP2+H2R, Jl. Lintas Kalimantan Poros Tengah, Danau Usung, Kec. Murung, Kabupaten Murung Raya, Kalimantan Tengah","Kabupaten Murung Raya, Kalimantan Tengah",KALIMANTAN TENGAH,,Indonesia,82353064829.0,,,-0.6635077,114.6000175,https://maps.google.com/?cid=0x0:0xa37f99e24ebbe6f,
building materials,Sekolah Menengah Umum,SMAN 1 TANAH SIANG SELATAN,"Jl. Putir Sikan No.Km. 4, Dirung Lingkin, Tanah Siang Sel., Kabupaten Murung Raya, Kalimantan Tengah 73971","Dirung Lingkin, Tanah Siang Sel., Kabupaten Murung Raya",KALIMANTAN TENGAH,73971.0,Indonesia,85249122451.0,,,-0.6771109,114.451707,https://maps.google.com/?cid=0x0:0x3bdc7ea874caf13b,
building materials,Kantor Perusahaan,PT. Indo Muro Kencana,"Camp-Muro Site, Dirung, Dirung Lingkin, Tanah Siang Sel., Kabupaten Murung Raya, Kalimantan Tengah 73971","Dirung, Dirung Lingkin, Tanah Siang Sel., Kabupaten Murung Raya",KALIMANTAN TENGAH,73971.0,Indonesia,,,,-0.6638983,114.4320193,https://maps.google.com/?cid=0x0:0x2d67d57eb22cf0c7,
building materials,Toko Bahan Bangunan,MITRA MULIA TK,"9H88+FPP, Jl. Ahmad Yani, Beriwit, Kec. Murung, Kabupaten Murung Raya, Kalimantan Tengah 73911","Jl. Ahmad Yani, Beriwit, Kec. Murung, Kabupaten Murung Raya",KALIMANTAN TENGAH,73911.0,Indonesia,,,,-0.633795,114.5668204,https://maps.google.com/?cid=0x0:0xcf50adada1ee7b6b,
building materials,building materials,Toko Bangunan 3 Putri,"Puruk Cahu, Kec. Murung, Kabupaten Murung Raya, Kalimantan Tengah","Kabupaten Murung Raya, Kalimantan Tengah",KALIMANTAN TENGAH,,Indonesia,,,,-0.6518019,114.5726919,https://maps.google.com/?cid=0x0:0xe78b95c0894faff2,
building materials,building materials,Kalimantan Tengah 73981,"Kabupaten Murung Raya, Kalimantan Tengah","Kabupaten Murung Raya, Kalimantan Tengah",KALIMANTAN TENGAH,,Indonesia,,,,0.1366232,113.9536466,https://maps.google.com/?cid=0x0:0xb765502d3651aeca,
building materials,Toko Bahan Bangunan,Toko Bangunan PODHO JOYO,"9H28+8F2, Beriwit, Kec. Murung, Kabupaten Murung Raya, Kalimantan Tengah 73911","Beriwit, Kec. Murung, Kabupaten Murung Raya",KALIMANTAN TENGAH,73911.0,Indonesia,,,,-0.6492272,114.5661435,https://maps.google.com/?cid=0x0:0xe2b9ba3f87ebe241,
building materials,Toko Bahan Bangunan,UD MAJU,"Jl. Ahmad Yani No.165, Beriwit, Kec. Murung, Kabupaten Murung Raya, Kalimantan Tengah 73911","Beriwit, Kec. Murung, Kabupaten Murung Raya",KALIMANTAN TENGAH,73911.0,Indonesia,85252775516.0,,,-0.6432912,114.5655543,https://maps.google.com/?cid=0x0:0x400e252ea5736d51,
building materials,Toko Bahan Bangunan,Toko Bangun Tehnik,"9HMF+29F, Jl. Merdeka, Beriwit, Kec. Murung, Kabupaten Murung Raya, Kalimantan Tengah 73911","Jl. Merdeka, Beriwit, Kec. Murung, Kabupaten Murung Raya",KALIMANTAN TENGAH,73911.0,Indonesia,87761141363.0,,,-0.6174301,114.5734251,https://maps.google.com/?cid=0x0:0xfbbb1cbef1f2ec8c,
building materials,Toko Bahan Bangunan,TOKO BANGUNAN (YOLAN BARITO),"9H3J+5W, Puruk Cahu, Kec. Murung, Kabupaten Murung Raya, Kalimantan Tengah 73911","Puruk Cahu, Kec. Murung, Kabupaten Murung Raya",KALIMANTAN TENGAH,73911.0,Indonesia,81349416412.0,,,-0.6466795,114.5811541,https://maps.google.com/?cid=0x0:0x1e126e186b82f785,
building materials,Organisasi Nonprofit,Unloading Material,"9RM5+J2W, Muara Tuhup, Kec. Laung Tuhup, Kabupaten Murung Raya, Kalimantan Tengah 73991","Muara Tuhup, Kec. Laung Tuhup, Kabupaten Murung Raya",KALIMANTAN TENGAH,73991.0,Indonesia,,,,-0.6158941,114.8075738,https://maps.google.com/?cid=0x0:0xfb09553bba2cfe06,
building materials,Toko Perlengkapan Rumah,Molding  Meubel Makmur Raya Barokah,"9H45+WGR, Beriwit, Kec. Murung, Kabupaten Murung Raya, Kalimantan Tengah 73911","Beriwit, Kec. Murung, Kabupaten Murung Raya",KALIMANTAN TENGAH,73911.0,Indonesia,81399992571.0,,,-0.6426291,114.5587614,https://maps.google.com/?cid=0x0:0xcdafbe95447193ee,
building materials,Pusat Perbelanjaan,Ekadana Jotun,"9HPC+3WR, Jl. Merdeka, Beriwit, Kec. Murung, Kabupaten Murung Raya, Kalimantan Tengah 73911","Jl. Merdeka, Beriwit, Kec. Murung, Kabupaten Murung Raya",KALIMANTAN TENGAH,73911.0,Indonesia,8125031113.0,,,-0.6147726,114.5722581,https://maps.google.com/?cid=0x0:0xf1ed096f627e1aed,
building materials,Toko Bahan Bangunan,Toko Fatwa,"CP2J+HP9, Muara Laung I, Kec. Laung Tuhup, Kabupaten Murung Raya, Kalimantan Tengah 73911","Muara Laung I, Kec. Laung Tuhup, Kabupaten Murung Raya",KALIMANTAN TENGAH,73911.0,Indonesia,,,,-0.5989563,114.7321794,https://maps.google.com/?cid=0x0:0x17a611aeab2412e,
building materials,Toko Bahan Bangunan,Toko bangunan Wijaya Kusuma,"8JP2+H2R, Jl. Lintas Kalimantan Poros Tengah, Danau Usung, Kec. Murung, Kabupaten Murung Raya, Kalimantan Tengah","Kabupaten Murung Raya, Kalimantan Tengah",KALIMANTAN TENGAH,,Indonesia,82353064829.0,,,-0.6635077,114.6000175,https://maps.google.com/?cid=0x0:0xa37f99e24ebbe6f,
building materials,Toko Bahan Bangunan,Toko Bangunan Jaya,"Psan antar, Beriwit, Kec. Murung, Kabupaten Murung Raya, Kalimantan Tengah 73911","Beriwit, Kec. Murung, Kabupaten Murung Raya",KALIMANTAN TENGAH,73911.0,Indonesia,,,,-0.6288125,114.5643281,https://maps.google.com/?cid=0x0:0x834cd32f96f3ba4e,
building materials,Toko Bahan Bangunan,MITRA MULIA TK,"9H88+FPP, Jl. Ahmad Yani, Beriwit, Kec. Murung, Kabupaten Murung Raya, Kalimantan Tengah 73911","Jl. Ahmad Yani, Beriwit, Kec. Murung, Kabupaten Murung Raya",KALIMANTAN TENGAH,73911.0,Indonesia,,,,-0.633795,114.5668204,https://maps.google.com/?cid=0x0:0xcf50adada1ee7b6b,
building materials,Tukang Bangunan,VDR Batako Press,"Jl. Ahmad Yani, Beriwit, Kec. Murung, Kabupaten Murung Raya, Kalimantan Tengah 73911","Beriwit, Kec. Murung, Kabupaten Murung Raya",KALIMANTAN TENGAH,73911.0,Indonesia,85787669995.0,,,-0.637772,114.5656974,https://maps.google.com/?cid=0x0:0x8455b3c192e8364d,
building materials,building materials,TB. Budi Mulia,"9HF3+89R, Beriwit, Kec. Murung, Kabupaten Murung Raya, Kalimantan Tengah 73911","Beriwit, Kec. Murung, Kabupaten Murung Raya",KALIMANTAN TENGAH,73911.0,Indonesia,,,,-0.6266455,114.5534363,https://maps.google.com/?cid=0x0:0x5a943870ab9c5ae9,
