Category,Real Category,Business Name,Address,City,State,Postal Code,Country,Phone,Email,Website,Latitude,Longitude,Map Link,Details Link
komplek housing,komplek housing,Kalimantan Tengah 73991,"Kabupaten Murung Raya, Kalimantan Tengah","Kabupaten Murung Raya, Kalimantan Tengah",KALIMANTAN TENGAH,,Indonesia,,,,-0.2037503,114.8092691,https://maps.google.com/?cid=0x0:0x46d09a0087c59ba1,
komplek housing,Toko,Rumahku supriyadi,"MXGP+42, Tumbang Baloi, Kec. Barito Tuhup Raya, Kabupaten Murung Raya, Kalimantan Tengah","Kabupaten Murung Raya, Kalimantan Tengah",KALIMANTAN TENGAH,,Indonesia,,,,-0.324725,114.9850854,https://maps.google.com/?cid=0x0:0xe40574e20994dea3,
komplek housing,Perhimpunan Pengembang Perumahan,Tuhup RiverView,"9RP3+QCH, Muara Tuhup, Kec. Laung Tuhup, Kabupaten Murung Raya, Kalimantan Tengah","Kabupaten Murung Raya, Kalimantan Tengah",KALIMANTAN TENGAH,,Indonesia,,,,-0.6130702,114.8036041,https://maps.google.com/?cid=0x0:0xfda601874b8ab503,
komplek housing,Komplek perumahan,Rumah Cik Bodta,"RQWP+W62, Penda Siron, Kec. Laung Tuhup, Kabupaten Murung Raya, Kalimantan Tengah 73991","Penda Siron, Kec. Laung Tuhup, Kabupaten Murung Raya",KALIMANTAN TENGAH,73991.0,Indonesia,,,,-0.1527306,114.7855271,https://maps.google.com/?cid=0x0:0xaa4b326a0248a8df,
komplek housing,Perhimpunan Pengembang Perumahan,Perumahan Fannn,"9R99+X5R, Muara Tuhup, Kec. Laung Tuhup, Kabupaten Murung Raya, Kalimantan Tengah","Kabupaten Murung Raya, Kalimantan Tengah",KALIMANTAN TENGAH,,Indonesia,,,,-0.6300007,114.8178869,https://maps.google.com/?cid=0x0:0xeff61325d5d82acf,
komplek housing,Pembangunan Perumahan,Rumah mma zahra,"9RVC+GFR, Jln pembangunan, RT.1/RW.1, Muara Tuhup, Kec. Laung Tuhup, Kabupaten Murung Raya, Kalimantan Tengah","Kabupaten Murung Raya, Kalimantan Tengah",KALIMANTAN TENGAH,,Indonesia,,,,-0.6061313,114.8211394,https://maps.google.com/?cid=0x0:0x4befcb844097a05c,
komplek housing,Pembangunan Perumahan,Res area Bp emon,"JQ34+FHM, Lakutan, Kec. Laung Tuhup, Kabupaten Murung Raya, Kalimantan Tengah 73991","Lakutan, Kec. Laung Tuhup, Kabupaten Murung Raya",KALIMANTAN TENGAH,73991.0,Indonesia,,,,-0.3962882,114.7564244,https://maps.google.com/?cid=0x0:0xd9b516aae4db8121,
komplek housing,Rumah wisata,Homestay Babe,"FW4J+8Q8, Dirung Sararong, Kec. Barito Tuhup Raya, Kabupaten Murung Raya, Kalimantan Tengah","Kabupaten Murung Raya, Kalimantan Tengah",KALIMANTAN TENGAH,,Indonesia,,,,-0.544216,114.9319626,https://maps.google.com/?cid=0x0:0xf51cc009f33bd2cd,
komplek housing,Komplek perumahan,Rumah adelio,"9RC8+XPF, Muara Tuhup, Kec. Laung Tuhup, Kabupaten Murung Raya, Kalimantan Tengah 73991","Muara Tuhup, Kec. Laung Tuhup, Kabupaten Murung Raya",KALIMANTAN TENGAH,73991.0,Indonesia,,,,-0.627879,114.817241,https://maps.google.com/?cid=0x0:0xd954b10f8492f200,
komplek housing,Pembangunan Perumahan,muara laung 1,"HVH4+RW, Kohong, Kec. Barito Tuhup Raya, Kabupaten Murung Raya, Kalimantan Tengah","Kabupaten Murung Raya, Kalimantan Tengah",KALIMANTAN TENGAH,,Indonesia,,,,-0.4204693,114.8573099,https://maps.google.com/?cid=0x0:0xd12c6036490cad53,
komplek housing,Perhimpunan Pengembang Perumahan,Tawai Haui,"HQMH+6PQ, Muara Tupuh, Kec. Laung Tuhup, Kabupaten Murung Raya, Kalimantan Tengah","Kabupaten Murung Raya, Kalimantan Tengah",KALIMANTAN TENGAH,,Indonesia,82211171304.0,,,-0.4169212,114.7793613,https://maps.google.com/?cid=0x0:0x7997e1da292e3c80,
komplek housing,Komplek perumahan,Rumah eyza,"Jln Tumenggung Surapati No.1, RT.09/RW.06, Muara Laung I, Kec. Laung Tuhup, Kabupaten Murung Raya, Kalimantan Tengah","Kabupaten Murung Raya, Kalimantan Tengah",KALIMANTAN TENGAH,,Indonesia,,,,-0.6669699,114.7384825,https://maps.google.com/?cid=0x0:0xc64a3ba0d7c735b8,
komplek housing,komplek housing,Kec. Barito Tuhup Raya,"Kabupaten Murung Raya, Kalimantan Tengah","Kabupaten Murung Raya, Kalimantan Tengah",KALIMANTAN TENGAH,,Indonesia,,,,-0.3740164,114.9516869,https://maps.google.com/?cid=0x0:0x480eb06a7ddf83a4,
komplek housing,komplek housing,view dari sungai barito,"CP6Q+6CW, Muara Laung II, Kec. Laung Tuhup, Kabupaten Murung Raya, Kalimantan Tengah","Kabupaten Murung Raya, Kalimantan Tengah",KALIMANTAN TENGAH,,Indonesia,,,,-0.5893946,114.7385894,https://maps.google.com/?cid=0x0:0x3d738f94a324ae5e,
komplek housing,Dewan,Kompleks Perumahan DPRD,"9H9F+7FP, Beriwit, Kec. Murung, Kabupaten Murung Raya, Kalimantan Tengah 73911","Beriwit, Kec. Murung, Kabupaten Murung Raya",KALIMANTAN TENGAH,73911.0,Indonesia,,,,-0.6317765,114.573718,https://maps.google.com/?cid=0x0:0xde7f3d630cc8bb48,
komplek housing,Komplek perumahan,pencinta tobtut,"MP6R+6W, Batu Bua II, Kec. Laung Tuhup, Kabupaten Murung Raya, Kalimantan Tengah","Kabupaten Murung Raya, Kalimantan Tengah",KALIMANTAN TENGAH,,Indonesia,,,,-0.3396612,114.7428508,https://maps.google.com/?cid=0x0:0x99cd5691a901b56a,
komplek housing,komplek housing,Penda Siron,"MQV3+GJ9, Penda Siron, Kec. Laung Tuhup, Kabupaten Murung Raya, Kalimantan Tengah","Kabupaten Murung Raya, Kalimantan Tengah",KALIMANTAN TENGAH,,Indonesia,,,,-0.3062082,114.7541184,https://maps.google.com/?cid=0x0:0xd7aacd63c9584645,
komplek housing,Kantor Perusahaan,Mess karyawan PT Riung Mitra lestari,"MP6V+J8, Batu Bua II, Kec. Laung Tuhup, Kabupaten Murung Raya, Kalimantan Tengah 73991","Batu Bua II, Kec. Laung Tuhup, Kabupaten Murung Raya",KALIMANTAN TENGAH,73991.0,Indonesia,,,,-0.3383833,114.7433183,https://maps.google.com/?cid=0x0:0x84eb613ae802a5bd,
komplek housing,Pembangunan Perumahan,Ato,"62HF+R2, Muara Inu, Kec. Lahei, Kabupaten Barito Utara, Kalimantan Tengah","Kabupaten Barito Utara, Kalimantan Tengah",KALIMANTAN TENGAH,,Indonesia,,,,-0.7711889,115.0234812,https://maps.google.com/?cid=0x0:0x6d76f8f08da3a50c,
komplek housing,Kantor Pemerintah,Desa Muara Tuhup,"9RJ5+32, Muara Tuhup, Kec. Laung Tuhup, Kabupaten Murung Raya, Kalimantan Tengah","Kabupaten Murung Raya, Kalimantan Tengah",KALIMANTAN TENGAH,,Indonesia,,,,-0.6212222,114.8065556,https://maps.google.com/?cid=0x0:0x1cefa079d55b379a,
komplek housing,Komplek perumahan,Desa penda siron,"RQWP+W62, Penda Siron, Kec. Laung Tuhup, Kabupaten Murung Raya, Kalimantan Tengah 73991","Penda Siron, Kec. Laung Tuhup, Kabupaten Murung Raya",KALIMANTAN TENGAH,73991.0,Indonesia,,,,-0.1527306,114.7855271,https://maps.google.com/?cid=0x0:0x1462cc704585ec7c,
komplek housing,komplek housing,Kalimantan Tengah 73991,"Kabupaten Murung Raya, Kalimantan Tengah","Kabupaten Murung Raya, Kalimantan Tengah",KALIMANTAN TENGAH,,Indonesia,,,,-0.2037503,114.8092691,https://maps.google.com/?cid=0x0:0x46d09a0087c59ba1,
komplek housing,Perhimpunan Pengembang Perumahan,Tuhup RiverView,"9RP3+QCH, Muara Tuhup, Kec. Laung Tuhup, Kabupaten Murung Raya, Kalimantan Tengah","Kabupaten Murung Raya, Kalimantan Tengah",KALIMANTAN TENGAH,,Indonesia,,,,-0.6130702,114.8036041,https://maps.google.com/?cid=0x0:0xfda601874b8ab503,
komplek housing,Perhimpunan Pengembang Perumahan,Perumahan Fannn,"9R99+X5R, Muara Tuhup, Kec. Laung Tuhup, Kabupaten Murung Raya, Kalimantan Tengah","Kabupaten Murung Raya, Kalimantan Tengah",KALIMANTAN TENGAH,,Indonesia,,,,-0.6300007,114.8178869,https://maps.google.com/?cid=0x0:0xeff61325d5d82acf,
komplek housing,Komplek perumahan,Rumah adelio,"9RC8+XPF, Muara Tuhup, Kec. Laung Tuhup, Kabupaten Murung Raya, Kalimantan Tengah 73991","Muara Tuhup, Kec. Laung Tuhup, Kabupaten Murung Raya",KALIMANTAN TENGAH,73991.0,Indonesia,,,,-0.627879,114.817241,https://maps.google.com/?cid=0x0:0xd954b10f8492f200,
komplek housing,Pembangunan Perumahan,Res area Bp emon,"JQ34+FHM, Lakutan, Kec. Laung Tuhup, Kabupaten Murung Raya, Kalimantan Tengah 73991","Lakutan, Kec. Laung Tuhup, Kabupaten Murung Raya",KALIMANTAN TENGAH,73991.0,Indonesia,,,,-0.3962882,114.7564244,https://maps.google.com/?cid=0x0:0xd9b516aae4db8121,
komplek housing,Pembangunan Perumahan,muara laung 1,"HVH4+RW, Kohong, Kec. Barito Tuhup Raya, Kabupaten Murung Raya, Kalimantan Tengah","Kabupaten Murung Raya, Kalimantan Tengah",KALIMANTAN TENGAH,,Indonesia,,,,-0.4204693,114.8573099,https://maps.google.com/?cid=0x0:0xd12c6036490cad53,
komplek housing,Kantor Pemerintah,Desa Muara Tuhup,"9RJ5+32, Muara Tuhup, Kec. Laung Tuhup, Kabupaten Murung Raya, Kalimantan Tengah","Kabupaten Murung Raya, Kalimantan Tengah",KALIMANTAN TENGAH,,Indonesia,,,,-0.6212222,114.8065556,https://maps.google.com/?cid=0x0:0x1cefa079d55b379a,
komplek housing,Perhimpunan Pengembang Perumahan,Tawai Haui,"HQMH+6PQ, Muara Tupuh, Kec. Laung Tuhup, Kabupaten Murung Raya, Kalimantan Tengah","Kabupaten Murung Raya, Kalimantan Tengah",KALIMANTAN TENGAH,,Indonesia,82211171304.0,,,-0.4169212,114.7793613,https://maps.google.com/?cid=0x0:0x7997e1da292e3c80,
komplek housing,Komplek perumahan,Rumah Cik Bodta,"RQWP+W62, Penda Siron, Kec. Laung Tuhup, Kabupaten Murung Raya, Kalimantan Tengah 73991","Penda Siron, Kec. Laung Tuhup, Kabupaten Murung Raya",KALIMANTAN TENGAH,73991.0,Indonesia,,,,-0.1527306,114.7855271,https://maps.google.com/?cid=0x0:0xaa4b326a0248a8df,
komplek housing,Komplek perumahan,Rumah gilaz,"CP3J+7RC, Jl. Pelajar, RT.9/RW.No 52, Muara Laung I, Kec. Laung Tuhup, Kabupaten Murung Raya, Kalimantan Tengah 73911","Jl. Pelajar, RT.9/RW.No 52, Muara Laung I, Kec. Laung Tuhup, Kabupaten Murung Raya",KALIMANTAN TENGAH,73911.0,Indonesia,,,,-0.596822,114.7320133,https://maps.google.com/?cid=0x0:0x39b86f097c772066,
komplek housing,Kantor Perusahaan,Mess karyawan PT Riung Mitra lestari,"MP6V+J8, Batu Bua II, Kec. Laung Tuhup, Kabupaten Murung Raya, Kalimantan Tengah 73991","Batu Bua II, Kec. Laung Tuhup, Kabupaten Murung Raya",KALIMANTAN TENGAH,73991.0,Indonesia,,,,-0.3383833,114.7433183,https://maps.google.com/?cid=0x0:0x84eb613ae802a5bd,
komplek housing,Pembangunan Perumahan,Rumah mma zahra,"9RVC+GFR, Jln pembangunan, RT.1/RW.1, Muara Tuhup, Kec. Laung Tuhup, Kabupaten Murung Raya, Kalimantan Tengah","Kabupaten Murung Raya, Kalimantan Tengah",KALIMANTAN TENGAH,,Indonesia,,,,-0.6061313,114.8211394,https://maps.google.com/?cid=0x0:0x4befcb844097a05c,
komplek housing,Komplek perumahan,Rumah kembar ( Orange Hause Twins ),"CP3Q+J8W, Muara Laung I, Kec. Laung Tuhup, Kabupaten Murung Raya, Kalimantan Tengah 73911","Muara Laung I, Kec. Laung Tuhup, Kabupaten Murung Raya",KALIMANTAN TENGAH,73911.0,Indonesia,,,,-0.5963606,114.7375204,https://maps.google.com/?cid=0x0:0x948abad17c8119b3,
komplek housing,Toko,Rumahku supriyadi,"MXGP+42, Tumbang Baloi, Kec. Barito Tuhup Raya, Kabupaten Murung Raya, Kalimantan Tengah","Kabupaten Murung Raya, Kalimantan Tengah",KALIMANTAN TENGAH,,Indonesia,,,,-0.324725,114.9850854,https://maps.google.com/?cid=0x0:0xe40574e20994dea3,
komplek housing,komplek housing,Rt 4 resources,"CP5Q+X9W, Jl juhanis gantang, Muara Laung II, Kec. Laung Tuhup, Kabupaten Murung Raya, Kalimantan Tengah","Kabupaten Murung Raya, Kalimantan Tengah",KALIMANTAN TENGAH,,Indonesia,,,,-0.5900189,114.7384392,https://maps.google.com/?cid=0x0:0x1850fb009297c2e8,
komplek housing,Pembangunan Perumahan,Erma,"9PQP+797, Muara Laung I, Kec. Laung Tuhup, Kabupaten Murung Raya, Kalimantan Tengah","Kabupaten Murung Raya, Kalimantan Tengah",KALIMANTAN TENGAH,,Indonesia,,,,-0.6118318,114.7359367,https://maps.google.com/?cid=0x0:0xebf3d6faa8f6a045,
komplek housing,komplek housing,view dari sungai barito,"CP6Q+6CW, Muara Laung II, Kec. Laung Tuhup, Kabupaten Murung Raya, Kalimantan Tengah","Kabupaten Murung Raya, Kalimantan Tengah",KALIMANTAN TENGAH,,Indonesia,,,,-0.5893946,114.7385894,https://maps.google.com/?cid=0x0:0x3d738f94a324ae5e,
komplek housing,Komplek perumahan,pencinta tobtut,"MP6R+6W, Batu Bua II, Kec. Laung Tuhup, Kabupaten Murung Raya, Kalimantan Tengah","Kabupaten Murung Raya, Kalimantan Tengah",KALIMANTAN TENGAH,,Indonesia,,,,-0.3396612,114.7428508,https://maps.google.com/?cid=0x0:0x99cd5691a901b56a,
komplek housing,Balai Pertemuan Desa,tumbang bondang,"PPHJ+CC, Penda Siron, Kec. Laung Tuhup, Kabupaten Murung Raya, Kalimantan Tengah","Kabupaten Murung Raya, Kalimantan Tengah",KALIMANTAN TENGAH,,Indonesia,,,,-0.271404,114.731113,https://maps.google.com/?cid=0x0:0xe8e8dfdb411587d2,
komplek housing,komplek housing,Kec. Laung Tuhup,"Kabupaten Murung Raya, Kalimantan Tengah","Kabupaten Murung Raya, Kalimantan Tengah",KALIMANTAN TENGAH,,Indonesia,,,,-0.3745911,114.7617836,https://maps.google.com/?cid=0x0:0xde9e96615f3e1729,
komplek housing,Komplek perumahan,Desa penda siron,"RQWP+W62, Penda Siron, Kec. Laung Tuhup, Kabupaten Murung Raya, Kalimantan Tengah 73991","Penda Siron, Kec. Laung Tuhup, Kabupaten Murung Raya",KALIMANTAN TENGAH,73991.0,Indonesia,,,,-0.1527306,114.7855271,https://maps.google.com/?cid=0x0:0x1462cc704585ec7c,
komplek housing,komplek housing,Kalimantan Tengah 73911,"Kec. Murung, Kabupaten Murung Raya, Kalimantan Tengah","Kabupaten Murung Raya, Kalimantan Tengah",KALIMANTAN TENGAH,,Indonesia,,,,-0.581032,114.6667939,https://maps.google.com/?cid=0x0:0xfaf4a8cd4b21fca2,
komplek housing,Dewan,Kompleks Perumahan DPRD,"9H9F+7FP, Beriwit, Kec. Murung, Kabupaten Murung Raya, Kalimantan Tengah 73911","Beriwit, Kec. Murung, Kabupaten Murung Raya",KALIMANTAN TENGAH,73911.0,Indonesia,,,,-0.6317765,114.573718,https://maps.google.com/?cid=0x0:0xde7f3d630cc8bb48,
komplek housing,Pembangunan Perumahan,Komplek Perumahan Pemda Murung Raya,"8HR4+5CH, Jl. Workshop PU, Beriwit, Kec. Murung, Kabupaten Murung Raya, Kalimantan Tengah 73911","Jl. Workshop PU, Beriwit, Kec. Murung, Kabupaten Murung Raya",KALIMANTAN TENGAH,73911.0,Indonesia,,,,-0.6595631,114.5560985,https://maps.google.com/?cid=0x0:0x1e117e5f5e738b92,
komplek housing,Komplek perumahan,Perumahan Griya Mura Mandiri,"8HVM+769, Jl. Lintas Kalimantan Poros Tengah, Danau Usung, Kec. Murung, Kabupaten Murung Raya, Kalimantan Tengah 73911","Jl. Lintas Kalimantan Poros Tengah, Danau Usung, Kec. Murung, Kabupaten Murung Raya",KALIMANTAN TENGAH,73911.0,Indonesia,,,,-0.6575184,114.5826163,https://maps.google.com/?cid=0x0:0xd1d577182ef47081,
komplek housing,Perumahan,Perumahan Pulo Basan Asri 2,"9H2G+R5J, Jl. Pulo Basan, RT.005/RW.002, Beriwit, Kec. Murung, Kabupaten Murung Raya, Kalimantan Tengah 73911","Jl. Pulo Basan, RT.005/RW.002, Beriwit, Kec. Murung, Kabupaten Murung Raya",KALIMANTAN TENGAH,73911.0,Indonesia,81210129968.0,,,-0.6479164,114.5754031,https://maps.google.com/?cid=0x0:0xe7f0f7140f1e11b,
komplek housing,Komplek perumahan,RUMAH KRISTIN PURUK CAHU,"9G9X+W82, Jl. Kolonel Untung Surapati, Sungai Lunuk, Kec. Tanah Siang, Kabupaten Murung Raya, Kalimantan Tengah 73911","Jl. Kolonel Untung Surapati, Sungai Lunuk, Kec. Tanah Siang, Kabupaten Murung Raya",KALIMANTAN TENGAH,73911.0,Indonesia,,,,-0.6302316,114.5482676,https://maps.google.com/?cid=0x0:0x48e153c1304888a7,
komplek housing,Pembangunan Perumahan,Pintu Gerbang Komplek Bumi Kasturi,"Danau Usung, Kec. Murung, Kabupaten Murung Raya, Kalimantan Tengah 73911","Kec. Murung, Kabupaten Murung Raya",KALIMANTAN TENGAH,73911.0,Indonesia,,,,-0.6629156,114.5987893,https://maps.google.com/?cid=0x0:0x9aaf8f6235841a79,
komplek housing,Komplek perumahan,Mess Kejari Murung Raya,"Jl. Ki Hajar Dewantara Kel No.09, Beriwit, Kec. Murung, Kabupaten Murung Raya, Kalimantan Tengah 73911","Beriwit, Kec. Murung, Kabupaten Murung Raya",KALIMANTAN TENGAH,73911.0,Indonesia,,,,-0.6197507,114.5701473,https://maps.google.com/?cid=0x0:0xde185bbca2c1e3b,
komplek housing,Komplek perumahan,Rumah Kute,"8HWG+G5X, Puruk Cahu, Kec. Murung, Kabupaten Murung Raya, Kalimantan Tengah 73911","Puruk Cahu, Kec. Murung, Kabupaten Murung Raya",KALIMANTAN TENGAH,73911.0,Indonesia,,,,-0.6536428,114.5754937,https://maps.google.com/?cid=0x0:0xc8c8ce603c24488b,
komplek housing,Pembangunan Perumahan,Perumahan Grand Pesona kalteng,"9H58+8X9, Beriwit, Kec. Murung, Kabupaten Murung Raya, Kalimantan Tengah","Kabupaten Murung Raya, Kalimantan Tengah",KALIMANTAN TENGAH,,Indonesia,85885211121.0,,,-0.6417037,114.5674776,https://maps.google.com/?cid=0x0:0xd919e51d65e7b5fa,
komplek housing,Komplek perumahan,Arjun's home,"9HHF+H62, Beriwit, Kec. Murung, Kabupaten Murung Raya, Kalimantan Tengah 73911","Beriwit, Kec. Murung, Kabupaten Murung Raya",KALIMANTAN TENGAH,73911.0,Indonesia,,,,-0.6211082,114.5730186,https://maps.google.com/?cid=0x0:0xe039781d58c578cd,
komplek housing,Perhimpunan Pengembang Perumahan,Rumah Yusing,"Gg. Harmoni No.1, Puruk Cahu, Kec. Murung, Kabupaten Murung Raya, Kalimantan Tengah 73911","Puruk Cahu, Kec. Murung, Kabupaten Murung Raya",KALIMANTAN TENGAH,73911.0,Indonesia,,,,-0.6537317,114.5757656,https://maps.google.com/?cid=0x0:0x3c822046d88624fd,
komplek housing,Komplek perumahan,Rumah Abdiel,"8HRM+P3P, Jl. Jend. Sudirman, Puruk Cahu, Kec. Murung, Kabupaten Murung Raya, Kalimantan Tengah 73911","Jl. Jend. Sudirman, Puruk Cahu, Kec. Murung, Kabupaten Murung Raya",KALIMANTAN TENGAH,73911.0,Indonesia,,,,-0.6581658,114.5827216,https://maps.google.com/?cid=0x0:0xad2b346b0414f53,
komplek housing,Kompleks Kondominium,Family jefs,"Jl. Kolonel Untung Surapati, Beriwit, Kec. Murung, Kabupaten Murung Raya, Kalimantan Tengah 73911","Beriwit, Kec. Murung, Kabupaten Murung Raya",KALIMANTAN TENGAH,73911.0,Indonesia,81344294645.0,,,-0.6286858,114.5636215,https://maps.google.com/?cid=0x0:0xcbc12be78c1684f,
komplek housing,Komplek perumahan,Agus Siswedi's House,"Jl. Pulo Basan No.43, Beriwit, Kec. Murung, Kabupaten Murung Raya, Kalimantan Tengah 73911","Beriwit, Kec. Murung, Kabupaten Murung Raya",KALIMANTAN TENGAH,73911.0,Indonesia,,,,-0.6457713,114.5690491,https://maps.google.com/?cid=0x0:0x3e5f9b67d89da95f,
komplek housing,Perhimpunan Pengembang Perumahan,Norsyafi'i,"Jl. Pulo Basan No.60, Puruk Cahu, Kec. Murung, Kabupaten Murung Raya, Kalimantan Tengah 73911","Puruk Cahu, Kec. Murung, Kabupaten Murung Raya",KALIMANTAN TENGAH,73911.0,Indonesia,,,,-0.6466478,114.57102,https://maps.google.com/?cid=0x0:0x8b3a4ff3ffdc7ce9,
komplek housing,Komplek perumahan,"HOME CARE - Ns.YUHADI EFFENDI,S.Kep","Komplek Perumnas PBA 1, Jl. Pulo Basan Blok C No.C27, RT.01/RW.05, Beriwit, Kec. Murung, Kabupaten Murung Raya, Kalimantan Tengah 73911","Jl. Pulo Basan Blok C No.C27, RT.01/RW.05, Beriwit, Kec. Murung, Kabupaten Murung Raya",KALIMANTAN TENGAH,73911.0,Indonesia,82245886334.0,,,-0.6478569,114.5699128,https://maps.google.com/?cid=0x0:0xd2ed6947303f12b,
komplek housing,Komplek perumahan,Rumah Arul dan Amel,"Jl. Katamso No.33, Puruk Cahu, Kec. Murung, Kabupaten Murung Raya, Kalimantan Tengah 73911","Puruk Cahu, Kec. Murung, Kabupaten Murung Raya",KALIMANTAN TENGAH,73911.0,Indonesia,81257764649.0,,,-0.6543981,114.5699818,https://maps.google.com/?cid=0x0:0x90683ccbfd115b47,
komplek housing,Komplek perumahan,Gang Kelapa Project,"Jl. Ki Hajar Dewantara No.3, Beriwit, Kec. Murung, Kabupaten Murung Raya, Kalimantan Tengah 73911","Beriwit, Kec. Murung, Kabupaten Murung Raya",KALIMANTAN TENGAH,73911.0,Indonesia,,,,-0.6233389,114.5689601,https://maps.google.com/?cid=0x0:0x25b6d7117401be0c,
komplek housing,Perumahan,Perumahan Mutiara,"9H2F+W7F, Puruk Cahu, Kec. Murung, Kabupaten Murung Raya, Kalimantan Tengah 73911","Puruk Cahu, Kec. Murung, Kabupaten Murung Raya",KALIMANTAN TENGAH,73911.0,Indonesia,,,,-0.647695,114.573161,https://maps.google.com/?cid=0x0:0x5d78df39b4d300f4,
komplek housing,komplek housing,Kec. Murung,"Kabupaten Murung Raya, Kalimantan Tengah","Kabupaten Murung Raya, Kalimantan Tengah",KALIMANTAN TENGAH,,Indonesia,,,,-0.650675,114.5694392,https://maps.google.com/?cid=0x0:0x3a23c14531168c56,
komplek housing,Komplek perumahan,komplek bumi kasturi,"8HPX+RGM, Danau Usung, Kec. Murung, Kabupaten Murung Raya, Kalimantan Tengah 73911","Danau Usung, Kec. Murung, Kabupaten Murung Raya",KALIMANTAN TENGAH,73911.0,Indonesia,,,,-0.6629106,114.598795,https://maps.google.com/?cid=0x0:0x7bd61a5c89e81414,
komplek housing,Perumahan,Komp. Perum. Pemda. Murung Raya,"Jl. Karya Praja No.242, RT.02/RW.III, Beriwit, Kec. Murung, Kabupaten Murung Raya, Kalimantan Tengah 73911","RT.02/RW.III, Beriwit, Kec. Murung, Kabupaten Murung Raya",KALIMANTAN TENGAH,73911.0,Indonesia,,,,-0.6367001,114.5703831,https://maps.google.com/?cid=0x0:0x74d47d0ea8c3d833,
komplek housing,Komplek perumahan,Perumahan,"9H27+472, Jl. Bumi Turangga, Beriwit, Kec. Murung, Kabupaten Murung Raya, Kalimantan Tengah 73911","Jl. Bumi Turangga, Beriwit, Kec. Murung, Kabupaten Murung Raya",KALIMANTAN TENGAH,73911.0,Indonesia,,,,-0.6497396,114.5631554,https://maps.google.com/?cid=0x0:0x14cf21bc845574b2,
komplek housing,Toko Bahan Bangunan,Desa Muara Sumpoi,"9HQW+PCP, Puruk Cahu, Kec. Murung, Kabupaten Murung Raya, Kalimantan Tengah 73911","Puruk Cahu, Kec. Murung, Kabupaten Murung Raya",KALIMANTAN TENGAH,73911.0,Indonesia,,,,-0.6106607,114.5960766,https://maps.google.com/?cid=0x0:0xeab99c5d67ee7e4b,
komplek housing,,Taufik Rahman House,"Jl. Pulo Basan No.60, Puruk Cahu, Kec. Murung, Kabupaten Murung Raya, Kalimantan Tengah 73911","Puruk Cahu, Kec. Murung, Kabupaten Murung Raya",KALIMANTAN TENGAH,73911.0,Indonesia,,,,-0.6466489,114.5710084,https://maps.google.com/?cid=0x0:0x2103ec555dcace1f,
komplek housing,komplek housing,Kalimantan Tengah 73971,"Kabupaten Murung Raya, Kalimantan Tengah","Kabupaten Murung Raya, Kalimantan Tengah",KALIMANTAN TENGAH,,Indonesia,,,,-0.4787128,114.4292148,https://maps.google.com/?cid=0x0:0x7eb3a8a82a8e44be,
komplek housing,Area Mendaki,Punsung muara bakanon,"7988+J2, Muara Bakanon, Kec. Permata Intan, Kabupaten Murung Raya, Kalimantan Tengah","Kabupaten Murung Raya, Kalimantan Tengah",KALIMANTAN TENGAH,,Indonesia,,,,-0.733483,114.3650284,https://maps.google.com/?cid=0x0:0x4944745dafb6483a,
komplek housing,komplek housing,"Paul,Otik,Tarung,Megan","Jalan untung surapati Gang buntu No.1, Konut, Kec. Tanah Siang, Kabupaten Murung Raya, Kalimantan Tengah 73911","Konut, Kec. Tanah Siang, Kabupaten Murung Raya",KALIMANTAN TENGAH,73911.0,Indonesia,,,,-0.6266343,114.5167463,https://maps.google.com/?cid=0x0:0xdab46cf9e0a9d2a,
komplek housing,Komplek perumahan,Pajien,"56XX+87R, Jl. Nasional Tewah - Kuala Kurun, Sungai Lobang, Kec. Permata Intan, Kabupaten Murung Raya, Kalimantan Tengah","Kabupaten Murung Raya, Kalimantan Tengah",KALIMANTAN TENGAH,,Indonesia,,,,-0.8016258,114.2481331,https://maps.google.com/?cid=0x0:0x7b78c4fca83839ea,
komplek housing,Komplek perumahan,Rumah Sintyaadhaaa,"874X+XP, Tumbang Lahung, Kec. Permata Intan, Kabupaten Murung Raya, Kalimantan Tengah","Kabupaten Murung Raya, Kalimantan Tengah",KALIMANTAN TENGAH,,Indonesia,,,,-0.6925758,114.2993641,https://maps.google.com/?cid=0x0:0x80da09cce6e9c318,
komplek housing,Pembangunan Perumahan,Perumahan Grand Pesona kalteng,"9H58+8X9, Beriwit, Kec. Murung, Kabupaten Murung Raya, Kalimantan Tengah","Kabupaten Murung Raya, Kalimantan Tengah",KALIMANTAN TENGAH,,Indonesia,85885211121.0,,,-0.6417037,114.5674776,https://maps.google.com/?cid=0x0:0xd919e51d65e7b5fa,
komplek housing,Komplek perumahan,Kem tengah sungai bakanon,"56RJ+5G9, Jl. Nasional Tewah - Kuala Kurun, Sungai Lobang, Kec. Permata Intan, Kabupaten Murung Raya, Kalimantan Tengah","Kabupaten Murung Raya, Kalimantan Tengah",KALIMANTAN TENGAH,,Indonesia,,,,-0.8095838,114.2313679,https://maps.google.com/?cid=0x0:0x646e9701daf20652,
komplek housing,Pembangunan Perumahan,Muara babuat,"87VM+F3, Muara Babuat, Kec. Permata Intan, Kabupaten Murung Raya, Kalimantan Tengah","Kabupaten Murung Raya, Kalimantan Tengah",KALIMANTAN TENGAH,,Indonesia,,,,-0.6563091,114.2827165,https://maps.google.com/?cid=0x0:0xfd30ad55b3a9e6ea,
komplek housing,Perhimpunan Pengembang Perumahan,Sungai batang,"773F+2VW, Sungai Batang, Kec. Permata Intan, Kabupaten Murung Raya, Kalimantan Tengah 73971","Sungai Batang, Kec. Permata Intan, Kabupaten Murung Raya",KALIMANTAN TENGAH,73971.0,Indonesia,,,,-0.7473965,114.2747123,https://maps.google.com/?cid=0x0:0x9705a2389af6a43a,
komplek housing,Komplek perumahan,游 Rumah Thiminudin,"7GQV+J43, Muara Untu, Kec. Murung, Kabupaten Murung Raya, Kalimantan Tengah","Kabupaten Murung Raya, Kalimantan Tengah",KALIMANTAN TENGAH,,Indonesia,,,,-0.7109827,114.5428076,https://maps.google.com/?cid=0x0:0x4964222f5b03d08,
komplek housing,Komplek perumahan,Toko bapak yanto,"FHVR+JF7, Cangkang, Kec. Tanah Siang, Kabupaten Murung Raya, Kalimantan Tengah","Kabupaten Murung Raya, Kalimantan Tengah",KALIMANTAN TENGAH,,Indonesia,,,,-0.5059516,114.5911796,https://maps.google.com/?cid=0x0:0x470cc55276a90d02,
komplek housing,Kantor Pemerintahan Daerah,DESA KONUT,"9GF7+JP2, Konut, Kec. Tanah Siang, Kabupaten Murung Raya, Kalimantan Tengah 73911","Konut, Kec. Tanah Siang, Kabupaten Murung Raya",KALIMANTAN TENGAH,73911.0,Indonesia,,,,-0.6259833,114.5142679,https://maps.google.com/?cid=0x0:0xd15200595568a5d1,
komplek housing,Komplek perumahan,Komplek Intan Permata,"W9FH+JWP, Sungai Raya, Kec. Sungai Raya, Kabupaten Kubu Raya, Kalimantan Barat 78234","Sungai Raya, Kec. Sungai Raya, Kabupaten Kubu Raya",KALIMANTAN TENGAH,78234.0,Indonesia,81345990076.0,,,-0.0759179,109.3798384,https://maps.google.com/?cid=0x0:0x9cc34f1e50d2f243,
komplek housing,Komplek perumahan,NURUL KRISTIANI,"8FCJ+2QV, Datah Kotou, Tanah Siang Sel., Kabupaten Murung Raya, Kalimantan Tengah 73971","Datah Kotou, Tanah Siang Sel., Kabupaten Murung Raya",KALIMANTAN TENGAH,73971.0,Indonesia,,,,-0.6797552,114.4817284,https://maps.google.com/?cid=0x0:0x68af4af4205a1a7e,
komplek housing,Tujuan Wisata,Tamputuk village,"9HXJ+6H Jemy f, Beriwit, Kec. Murung, Kabupaten Murung Raya, Kalimantan Tengah","Kabupaten Murung Raya, Kalimantan Tengah",KALIMANTAN TENGAH,,Indonesia,,,,-0.6024607,114.5825975,https://maps.google.com/?cid=0x0:0x18cef242eded14df,
komplek housing,Komplek perumahan,Rumah (HAKIM MUHTARAM),"8F92+2MP, Jl. Datah Kayu Duhung, Datah Kotou, Tanah Siang Sel., Kabupaten Murung Raya, Kalimantan Tengah 73971","Jl. Datah Kayu Duhung, Datah Kotou, Tanah Siang Sel., Kabupaten Murung Raya",KALIMANTAN TENGAH,73971.0,Indonesia,,,,-0.6825658,114.450031,https://maps.google.com/?cid=0x0:0x61cab50022afeb9d,
komplek housing,Komplek perumahan,pengurus langgar desa konut,"9GJ6+RGW, Konut, Kec. Tanah Siang, Kabupaten Murung Raya, Kalimantan Tengah 73911","Konut, Kec. Tanah Siang, Kabupaten Murung Raya",KALIMANTAN TENGAH,73911.0,Indonesia,,,,-0.6178987,114.511331,https://maps.google.com/?cid=0x0:0xdb42ed73014c0c67,
komplek housing,komplek housing,Kantor,"8FFW+H7, Datah Kotou, Tanah Siang Sel., Kabupaten Murung Raya, Kalimantan Tengah","Kabupaten Murung Raya, Kalimantan Tengah",KALIMANTAN TENGAH,,Indonesia,,,,-0.6761112,114.4957353,https://maps.google.com/?cid=0x0:0xf50bf2dfdd5948a3,
komplek housing,Pembangunan Perumahan,Jasthin,"Jl Temanggung silam No.km 03, Olong Nango, Kec. Tanah Siang, Kabupaten Murung Raya, Kalimantan Tengah 73911","Olong Nango, Kec. Tanah Siang, Kabupaten Murung Raya",KALIMANTAN TENGAH,73911.0,Indonesia,82240441360.0,,,-0.5960204,114.556826,https://maps.google.com/?cid=0x0:0x2b2199e0953d5b9a,
komplek housing,Komplek perumahan,MUWUN,"GG6G+GV8, Muwun, Kec. Tanah Siang, Kabupaten Murung Raya, Kalimantan Tengah 73971","Muwun, Kec. Tanah Siang, Kabupaten Murung Raya",KALIMANTAN TENGAH,73971.0,Indonesia,,,,-0.4887053,114.5272129,https://maps.google.com/?cid=0x0:0x8375979c5a64d491,
komplek housing,komplek housing,Kec. Permata Intan,"Kabupaten Murung Raya, Kalimantan Tengah","Kabupaten Murung Raya, Kalimantan Tengah",KALIMANTAN TENGAH,,Indonesia,,,,-0.6882915,114.2993068,https://maps.google.com/?cid=0x0:0xbcab85e9f7c10914,
komplek housing,komplek housing,Kalimantan Tengah 73981,"Kabupaten Murung Raya, Kalimantan Tengah","Kabupaten Murung Raya, Kalimantan Tengah",KALIMANTAN TENGAH,,Indonesia,,,,0.1366232,113.9536466,https://maps.google.com/?cid=0x0:0xb765502d3651aeca,
komplek housing,komplek housing,Tian,"J479+7V3, Tumbang Jojang, Seribu Riam, Kabupaten Murung Raya, Kalimantan Tengah 73981","Tumbang Jojang, Seribu Riam, Kabupaten Murung Raya",KALIMANTAN TENGAH,73981.0,Indonesia,,,,0.6131366,114.1196616,https://maps.google.com/?cid=0x0:0xf45f079cbadb5af9,
komplek housing,Toko bahan makanan,Rumah joe,"F4PM+5VC, Batu Makap, Sumber Barito, Kabupaten Murung Raya, Kalimantan Tengah 73981","Batu Makap, Sumber Barito, Kabupaten Murung Raya",KALIMANTAN TENGAH,73981.0,Indonesia,,,,-0.5145211,114.1345691,https://maps.google.com/?cid=0x0:0xf170def33f0db19d,
komplek housing,komplek housing,Camp ABN,"VW48+86M, Muara Joloi I, Seribu Riam, Kabupaten Murung Raya, Kalimantan Tengah 73981","Muara Joloi I, Seribu Riam, Kabupaten Murung Raya",KALIMANTAN TENGAH,73981.0,Indonesia,,,,-0.144168,113.9155568,https://maps.google.com/?cid=0x0:0x1f68c5b3200a9955,
komplek housing,Toko bahan makanan,Rumah joe,"F4PM+5VC, Batu Makap, Sumber Barito, Kabupaten Murung Raya, Kalimantan Tengah 73981","Batu Makap, Sumber Barito, Kabupaten Murung Raya",KALIMANTAN TENGAH,73981.0,Indonesia,,,,-0.5145211,114.1345691,https://maps.google.com/?cid=0x0:0xf170def33f0db19d,
komplek housing,Komplek perumahan,Rumah teluh,"G663+P9C, Tumbang Masao, Sumber Barito, Kabupaten Murung Raya, Kalimantan Tengah","Kabupaten Murung Raya, Kalimantan Tengah",KALIMANTAN TENGAH,,Indonesia,,,,-0.4881886,114.2033843,https://maps.google.com/?cid=0x0:0x69e608842f62c850,
komplek housing,komplek housing,Sumber Barito,"Kabupaten Murung Raya, Kalimantan Tengah","Kabupaten Murung Raya, Kalimantan Tengah",KALIMANTAN TENGAH,,Indonesia,,,,-0.341791,114.2390498,https://maps.google.com/?cid=0x0:0xdb7aed4b9b946c56,
komplek housing,komplek housing,洧똂洧똌洧또洧똙洧 洧洧똓洧또洧똓,"J584+284, H367F, Tumbang Mulut, Sumber Barito, Kabupaten Murung Raya, Kalimantan Tengah 73981","H367F, Tumbang Mulut, Sumber Barito, Kabupaten Murung Raya",KALIMANTAN TENGAH,73981.0,Indonesia,,,,-0.3849984,114.1558258,https://maps.google.com/?cid=0x0:0xe35945e09c0a5d34,
komplek housing,komplek housing,洧똂洧똌洧또洧똙洧 洧洧똓洧또洧똓,"H35M+85V, Tlk. Jolo, Sumber Barito, Kabupaten Murung Raya, Kalimantan Tengah 73981","Tlk. Jolo, Sumber Barito, Kabupaten Murung Raya",KALIMANTAN TENGAH,73981.0,Indonesia,,,,-0.4416291,114.082916,https://maps.google.com/?cid=0x0:0x276e36b13609cfc6,
komplek housing,komplek housing,Kec. Sungai Babuat,"Kabupaten Murung Raya, Kalimantan Tengah","Kabupaten Murung Raya, Kalimantan Tengah",KALIMANTAN TENGAH,,Indonesia,,,,-0.5790762,114.3152452,https://maps.google.com/?cid=0x0:0xd1427b5a363a47e7,
komplek housing,Komplek perumahan,SEI BABUAT,"F995+P5F, Tumbang Bantian, Kec. Sungai Babuat, Kabupaten Murung Raya, Kalimantan Tengah 73971","Tumbang Bantian, Kec. Sungai Babuat, Kabupaten Murung Raya",KALIMANTAN TENGAH,73971.0,Indonesia,,,,-0.5306856,114.3579131,https://maps.google.com/?cid=0x0:0x1a2635e5b56c6594,
komplek housing,Komplek perumahan,Batu mirau ni boss,"989P+7H3, Batu Mirau, Kec. Sungai Babuat, Kabupaten Murung Raya, Kalimantan Tengah 73971","Batu Mirau, Kec. Sungai Babuat, Kabupaten Murung Raya",KALIMANTAN TENGAH,73971.0,Indonesia,,,,-0.6318536,114.3364086,https://maps.google.com/?cid=0x0:0x7b12ba9996c3f5e0,
komplek housing,komplek housing,Kalimantan Tengah 73961,"Kabupaten Murung Raya, Kalimantan Tengah","Kabupaten Murung Raya, Kalimantan Tengah",KALIMANTAN TENGAH,,Indonesia,,,,-0.1700332,114.5717799,https://maps.google.com/?cid=0x0:0x228b161e8a06fd62,
komplek housing,Komplek perumahan,Toko bapak yanto,"FHVR+JF7, Cangkang, Kec. Tanah Siang, Kabupaten Murung Raya, Kalimantan Tengah","Kabupaten Murung Raya, Kalimantan Tengah",KALIMANTAN TENGAH,,Indonesia,,,,-0.5059516,114.5911796,https://maps.google.com/?cid=0x0:0x470cc55276a90d02,
komplek housing,Komplek perumahan,MUWUN,"GG6G+GV8, Muwun, Kec. Tanah Siang, Kabupaten Murung Raya, Kalimantan Tengah 73971","Muwun, Kec. Tanah Siang, Kabupaten Murung Raya",KALIMANTAN TENGAH,73971.0,Indonesia,,,,-0.4887053,114.5272129,https://maps.google.com/?cid=0x0:0x8375979c5a64d491,
komplek housing,Perhimpunan Pengembang Perumahan,Dirung pinang,"V87M+GM6, Tumbang Olong, Uut Murung, Kabupaten Murung Raya, Kalimantan Tengah","Kabupaten Murung Raya, Kalimantan Tengah",KALIMANTAN TENGAH,,Indonesia,,,,-0.1362171,114.3341432,https://maps.google.com/?cid=0x0:0xfbfb86f7b3988dbf,
komplek housing,Komplek perumahan,Desa Mahanyan,"GG6H+XH, Muwun, Kec. Tanah Siang, Kabupaten Murung Raya, Kalimantan Tengah","Kabupaten Murung Raya, Kalimantan Tengah",KALIMANTAN TENGAH,,Indonesia,,,,-0.4875034,114.5289473,https://maps.google.com/?cid=0x0:0x6f75f66df0119ca3,
komplek housing,Perhimpunan Pengembang Perumahan,Muara jaan,"V87M+GM6, Tumbang Olong, Uut Murung, Kabupaten Murung Raya, Kalimantan Tengah","Kabupaten Murung Raya, Kalimantan Tengah",KALIMANTAN TENGAH,,Indonesia,,,,-0.1362171,114.3341432,https://maps.google.com/?cid=0x0:0x861699ad30fbd98a,
komplek housing,Komplek perumahan,Rumah Cik Bodta,"RQWP+W62, Penda Siron, Kec. Laung Tuhup, Kabupaten Murung Raya, Kalimantan Tengah 73991","Penda Siron, Kec. Laung Tuhup, Kabupaten Murung Raya",KALIMANTAN TENGAH,73991.0,Indonesia,,,,-0.1527306,114.7855271,https://maps.google.com/?cid=0x0:0xaa4b326a0248a8df,
komplek housing,Pembangunan Perumahan,Res area Bp emon,"JQ34+FHM, Lakutan, Kec. Laung Tuhup, Kabupaten Murung Raya, Kalimantan Tengah 73991","Lakutan, Kec. Laung Tuhup, Kabupaten Murung Raya",KALIMANTAN TENGAH,73991.0,Indonesia,,,,-0.3962882,114.7564244,https://maps.google.com/?cid=0x0:0xd9b516aae4db8121,
komplek housing,Balai Pertemuan Desa,tumbang bondang,"PPHJ+CC, Penda Siron, Kec. Laung Tuhup, Kabupaten Murung Raya, Kalimantan Tengah","Kabupaten Murung Raya, Kalimantan Tengah",KALIMANTAN TENGAH,,Indonesia,,,,-0.271404,114.731113,https://maps.google.com/?cid=0x0:0xe8e8dfdb411587d2,
komplek housing,Perhimpunan Pengembang Perumahan,Camp Bumbun,"3945+F7H, Tumbang Olong, Uut Murung, Kabupaten Murung Raya, Kalimantan Tengah","Kabupaten Murung Raya, Kalimantan Tengah",KALIMANTAN TENGAH,,Indonesia,,,,0.0561881,114.3582251,https://maps.google.com/?cid=0x0:0xd26aed0b002922eb,
komplek housing,komplek housing,Penda Siron,"MQV3+GJ9, Penda Siron, Kec. Laung Tuhup, Kabupaten Murung Raya, Kalimantan Tengah","Kabupaten Murung Raya, Kalimantan Tengah",KALIMANTAN TENGAH,,Indonesia,,,,-0.3062082,114.7541184,https://maps.google.com/?cid=0x0:0xd7aacd63c9584645,
komplek housing,Pembangunan Perumahan,muara laung 1,"HVH4+RW, Kohong, Kec. Barito Tuhup Raya, Kabupaten Murung Raya, Kalimantan Tengah","Kabupaten Murung Raya, Kalimantan Tengah",KALIMANTAN TENGAH,,Indonesia,,,,-0.4204693,114.8573099,https://maps.google.com/?cid=0x0:0xd12c6036490cad53,
komplek housing,Kantor Perusahaan,Mess karyawan PT Riung Mitra lestari,"MP6V+J8, Batu Bua II, Kec. Laung Tuhup, Kabupaten Murung Raya, Kalimantan Tengah 73991","Batu Bua II, Kec. Laung Tuhup, Kabupaten Murung Raya",KALIMANTAN TENGAH,73991.0,Indonesia,,,,-0.3383833,114.7433183,https://maps.google.com/?cid=0x0:0x84eb613ae802a5bd,
komplek housing,Perhimpunan Pengembang Perumahan,Tawai Haui,"HQMH+6PQ, Muara Tupuh, Kec. Laung Tuhup, Kabupaten Murung Raya, Kalimantan Tengah","Kabupaten Murung Raya, Kalimantan Tengah",KALIMANTAN TENGAH,,Indonesia,82211171304.0,,,-0.4169212,114.7793613,https://maps.google.com/?cid=0x0:0x7997e1da292e3c80,
komplek housing,Komplek perumahan,pencinta tobtut,"MP6R+6W, Batu Bua II, Kec. Laung Tuhup, Kabupaten Murung Raya, Kalimantan Tengah","Kabupaten Murung Raya, Kalimantan Tengah",KALIMANTAN TENGAH,,Indonesia,,,,-0.3396612,114.7428508,https://maps.google.com/?cid=0x0:0x99cd5691a901b56a,
komplek housing,Pembangunan Perumahan,Pondok derita,"X8VH+CH6, Tumbang Olong, Uut Murung, Kabupaten Murung Raya, Kalimantan Tengah 73981","Tumbang Olong, Uut Murung, Kabupaten Murung Raya",KALIMANTAN TENGAH,73981.0,Indonesia,,,,-0.006667,114.3284455,https://maps.google.com/?cid=0x0:0xb626985bb400cc6c,
komplek housing,Komplek perumahan,Desa penda siron,"RQWP+W62, Penda Siron, Kec. Laung Tuhup, Kabupaten Murung Raya, Kalimantan Tengah 73991","Penda Siron, Kec. Laung Tuhup, Kabupaten Murung Raya",KALIMANTAN TENGAH,73991.0,Indonesia,,,,-0.1527306,114.7855271,https://maps.google.com/?cid=0x0:0x1462cc704585ec7c,
komplek housing,Komplek perumahan,Desa beralang,"Jln desa No.rt.01, Beralang, Kec. Laung Tuhup, Kabupaten Murung Raya, Kalimantan Tengah 73961","Beralang, Kec. Laung Tuhup, Kabupaten Murung Raya",KALIMANTAN TENGAH,73961.0,Indonesia,,,,-0.2680361,114.6371046,https://maps.google.com/?cid=0x0:0x76a66025eb05508,
komplek housing,Sekolah menengah,SMA NEGERI 1 TANAH SIANG,"FG44+P24, Unnamed Road, Puruk Batu, Kec. Tanah Siang, Kabupaten Murung Raya, Kalimantan Tengah 73971","Unnamed Road, Puruk Batu, Kec. Tanah Siang, Kabupaten Murung Raya",KALIMANTAN TENGAH,73971.0,Indonesia,,,,-0.5432254,114.5050736,https://maps.google.com/?cid=0x0:0xe01bb51aa0ef455,
komplek housing,Sekolah Menengah Umum,SMAN 1 TANAH SIANG SELATAN,"Jl. Putir Sikan No.Km. 4, Dirung Lingkin, Tanah Siang Sel., Kabupaten Murung Raya, Kalimantan Tengah 73971","Dirung Lingkin, Tanah Siang Sel., Kabupaten Murung Raya",KALIMANTAN TENGAH,73971.0,Indonesia,85249122451.0,,,-0.6771109,114.451707,https://maps.google.com/?cid=0x0:0x3bdc7ea874caf13b,
komplek housing,komplek housing,Tanah Siang Sel.,"Kabupaten Murung Raya, Kalimantan Tengah","Kabupaten Murung Raya, Kalimantan Tengah",KALIMANTAN TENGAH,,Indonesia,,,,-0.6787755,114.4533539,https://maps.google.com/?cid=0x0:0x563ce9dc5860bfa6,
komplek housing,komplek housing,Kantor,"8FFW+H7, Datah Kotou, Tanah Siang Sel., Kabupaten Murung Raya, Kalimantan Tengah","Kabupaten Murung Raya, Kalimantan Tengah",KALIMANTAN TENGAH,,Indonesia,,,,-0.6761112,114.4957353,https://maps.google.com/?cid=0x0:0xf50bf2dfdd5948a3,
komplek housing,Kantor Pemerintahan Daerah,DESA KONUT,"9GF7+JP2, Konut, Kec. Tanah Siang, Kabupaten Murung Raya, Kalimantan Tengah 73911","Konut, Kec. Tanah Siang, Kabupaten Murung Raya",KALIMANTAN TENGAH,73911.0,Indonesia,,,,-0.6259833,114.5142679,https://maps.google.com/?cid=0x0:0xd15200595568a5d1,
komplek housing,Komplek perumahan,Rumah (HAKIM MUHTARAM),"8F92+2MP, Jl. Datah Kayu Duhung, Datah Kotou, Tanah Siang Sel., Kabupaten Murung Raya, Kalimantan Tengah 73971","Jl. Datah Kayu Duhung, Datah Kotou, Tanah Siang Sel., Kabupaten Murung Raya",KALIMANTAN TENGAH,73971.0,Indonesia,,,,-0.6825658,114.450031,https://maps.google.com/?cid=0x0:0x61cab50022afeb9d,
komplek housing,Komplek perumahan,NURUL KRISTIANI,"8FCJ+2QV, Datah Kotou, Tanah Siang Sel., Kabupaten Murung Raya, Kalimantan Tengah 73971","Datah Kotou, Tanah Siang Sel., Kabupaten Murung Raya",KALIMANTAN TENGAH,73971.0,Indonesia,,,,-0.6797552,114.4817284,https://maps.google.com/?cid=0x0:0x68af4af4205a1a7e,
komplek housing,Komplek perumahan,RUMAH KRISTIN PURUK CAHU,"9G9X+W82, Jl. Kolonel Untung Surapati, Sungai Lunuk, Kec. Tanah Siang, Kabupaten Murung Raya, Kalimantan Tengah 73911","Jl. Kolonel Untung Surapati, Sungai Lunuk, Kec. Tanah Siang, Kabupaten Murung Raya",KALIMANTAN TENGAH,73911.0,Indonesia,,,,-0.6302316,114.5482676,https://maps.google.com/?cid=0x0:0x48e153c1304888a7,
komplek housing,Pembangunan Perumahan,Poskamling Komplek Perumahan Bumi Kasturi,"8HPX+5CJ, Jalan Komplek Bumi Kasturi, Danau Usung, Kec. Murung, Kabupaten Murung Raya, Kalimantan Tengah 73911","Jalan Komplek Bumi Kasturi, Danau Usung, Kec. Murung, Kabupaten Murung Raya",KALIMANTAN TENGAH,73911.0,Indonesia,,,,-0.6645282,114.5985127,https://maps.google.com/?cid=0x0:0x77a8d6337272c578,
komplek housing,Pembangunan Perumahan,Komplek Perumahan Pemda Murung Raya,"8HR4+5CH, Jl. Workshop PU, Beriwit, Kec. Murung, Kabupaten Murung Raya, Kalimantan Tengah 73911","Jl. Workshop PU, Beriwit, Kec. Murung, Kabupaten Murung Raya",KALIMANTAN TENGAH,73911.0,Indonesia,,,,-0.6595631,114.5560985,https://maps.google.com/?cid=0x0:0x1e117e5f5e738b92,
komplek housing,Dewan,Kompleks Perumahan DPRD,"9H9F+7FP, Beriwit, Kec. Murung, Kabupaten Murung Raya, Kalimantan Tengah 73911","Beriwit, Kec. Murung, Kabupaten Murung Raya",KALIMANTAN TENGAH,73911.0,Indonesia,,,,-0.6317765,114.573718,https://maps.google.com/?cid=0x0:0xde7f3d630cc8bb48,
komplek housing,Komplek perumahan,Rumah Yuky,"8CCW+MG9, Jln SDN Kambang Harapan, Puruk Kambang, Tanah Siang Sel., Kabupaten Murung Raya, Kalimantan Tengah","Kabupaten Murung Raya, Kalimantan Tengah",KALIMANTAN TENGAH,,Indonesia,,,,-0.6783409,114.4463659,https://maps.google.com/?cid=0x0:0xa47fe23dbdda9f10,
komplek housing,Sekolah menengah,SMA NEGERI 1 TANAH SIANG,"FG44+P24, Unnamed Road, Puruk Batu, Kec. Tanah Siang, Kabupaten Murung Raya, Kalimantan Tengah 73971","Unnamed Road, Puruk Batu, Kec. Tanah Siang, Kabupaten Murung Raya",KALIMANTAN TENGAH,73971.0,Indonesia,,,,-0.5432254,114.5050736,https://maps.google.com/?cid=0x0:0xe01bb51aa0ef455,
komplek housing,Sekolah Menengah Umum,SMAN 1 TANAH SIANG SELATAN,"Jl. Putir Sikan No.Km. 4, Dirung Lingkin, Tanah Siang Sel., Kabupaten Murung Raya, Kalimantan Tengah 73971","Dirung Lingkin, Tanah Siang Sel., Kabupaten Murung Raya",KALIMANTAN TENGAH,73971.0,Indonesia,85249122451.0,,,-0.6771109,114.451707,https://maps.google.com/?cid=0x0:0x3bdc7ea874caf13b,
komplek housing,komplek housing,Kalimantan Tengah 73981,"Kabupaten Murung Raya, Kalimantan Tengah","Kabupaten Murung Raya, Kalimantan Tengah",KALIMANTAN TENGAH,,Indonesia,,,,0.1366232,113.9536466,https://maps.google.com/?cid=0x0:0xb765502d3651aeca,
komplek housing,Perhimpunan Pengembang Perumahan,Camp Bumbun,"3945+F7H, Tumbang Olong, Uut Murung, Kabupaten Murung Raya, Kalimantan Tengah","Kabupaten Murung Raya, Kalimantan Tengah",KALIMANTAN TENGAH,,Indonesia,,,,0.0561881,114.3582251,https://maps.google.com/?cid=0x0:0xd26aed0b002922eb,
komplek housing,Pembangunan Perumahan,Pondok derita,"X8VH+CH6, Tumbang Olong, Uut Murung, Kabupaten Murung Raya, Kalimantan Tengah 73981","Tumbang Olong, Uut Murung, Kabupaten Murung Raya",KALIMANTAN TENGAH,73981.0,Indonesia,,,,-0.006667,114.3284455,https://maps.google.com/?cid=0x0:0xb626985bb400cc6c,
komplek housing,Toko bahan makanan,Rumah joe,"F4PM+5VC, Batu Makap, Sumber Barito, Kabupaten Murung Raya, Kalimantan Tengah 73981","Batu Makap, Sumber Barito, Kabupaten Murung Raya",KALIMANTAN TENGAH,73981.0,Indonesia,,,,-0.5145211,114.1345691,https://maps.google.com/?cid=0x0:0xf170def33f0db19d,
komplek housing,Kantor Pemerintah,Desa Tumbang Tujang,"7CWM+X8W, Tumbang Tujang, Uut Murung, Kabupaten Murung Raya, Kalimantan Tengah","Kabupaten Murung Raya, Kalimantan Tengah",KALIMANTAN TENGAH,,Indonesia,,,,0.2974791,114.4333336,https://maps.google.com/?cid=0x0:0xb0124298b3f112e2,
komplek housing,komplek housing,洧똂洧똌洧또洧똙洧 洧洧똓洧또洧똓,"J584+284, H367F, Tumbang Mulut, Sumber Barito, Kabupaten Murung Raya, Kalimantan Tengah 73981","H367F, Tumbang Mulut, Sumber Barito, Kabupaten Murung Raya",KALIMANTAN TENGAH,73981.0,Indonesia,,,,-0.3849984,114.1558258,https://maps.google.com/?cid=0x0:0xe35945e09c0a5d34,
komplek housing,komplek housing,Ahavid family,"CM45+2XM, Tumbang Tujang, Uut Murung, Kabupaten Murung Raya, Kalimantan Tengah","Kabupaten Murung Raya, Kalimantan Tengah",KALIMANTAN TENGAH,,Indonesia,,,,0.4050883,114.6599226,https://maps.google.com/?cid=0x0:0x51185117e5fce734,
komplek housing,Dewan,Kompleks Perumahan DPRD,"9H9F+7FP, Beriwit, Kec. Murung, Kabupaten Murung Raya, Kalimantan Tengah 73911","Beriwit, Kec. Murung, Kabupaten Murung Raya",KALIMANTAN TENGAH,73911.0,Indonesia,,,,-0.6317765,114.573718,https://maps.google.com/?cid=0x0:0xde7f3d630cc8bb48,
komplek housing,komplek housing,Tian,"J479+7V3, Tumbang Jojang, Seribu Riam, Kabupaten Murung Raya, Kalimantan Tengah 73981","Tumbang Jojang, Seribu Riam, Kabupaten Murung Raya",KALIMANTAN TENGAH,73981.0,Indonesia,,,,0.6131366,114.1196616,https://maps.google.com/?cid=0x0:0xf45f079cbadb5af9,
komplek housing,komplek housing,洧똂洧똌洧또洧똙洧 洧洧똓洧또洧똓,"H35M+85V, Tlk. Jolo, Sumber Barito, Kabupaten Murung Raya, Kalimantan Tengah 73981","Tlk. Jolo, Sumber Barito, Kabupaten Murung Raya",KALIMANTAN TENGAH,73981.0,Indonesia,,,,-0.4416291,114.082916,https://maps.google.com/?cid=0x0:0x276e36b13609cfc6,
komplek housing,Perhimpunan Pengembang Perumahan,Dirung pinang,"V87M+GM6, Tumbang Olong, Uut Murung, Kabupaten Murung Raya, Kalimantan Tengah","Kabupaten Murung Raya, Kalimantan Tengah",KALIMANTAN TENGAH,,Indonesia,,,,-0.1362171,114.3341432,https://maps.google.com/?cid=0x0:0xfbfb86f7b3988dbf,
komplek housing,Perhimpunan Pengembang Perumahan,Muara jaan,"V87M+GM6, Tumbang Olong, Uut Murung, Kabupaten Murung Raya, Kalimantan Tengah","Kabupaten Murung Raya, Kalimantan Tengah",KALIMANTAN TENGAH,,Indonesia,,,,-0.1362171,114.3341432,https://maps.google.com/?cid=0x0:0x861699ad30fbd98a,
komplek housing,Pembangunan Perumahan,Poskamling Komplek Perumahan Bumi Kasturi,"8HPX+5CJ, Jalan Komplek Bumi Kasturi, Danau Usung, Kec. Murung, Kabupaten Murung Raya, Kalimantan Tengah 73911","Jalan Komplek Bumi Kasturi, Danau Usung, Kec. Murung, Kabupaten Murung Raya",KALIMANTAN TENGAH,73911.0,Indonesia,,,,-0.6645282,114.5985127,https://maps.google.com/?cid=0x0:0x77a8d6337272c578,
komplek housing,komplek housing,Camp ABN,"VW48+86M, Muara Joloi I, Seribu Riam, Kabupaten Murung Raya, Kalimantan Tengah 73981","Muara Joloi I, Seribu Riam, Kabupaten Murung Raya",KALIMANTAN TENGAH,73981.0,Indonesia,,,,-0.144168,113.9155568,https://maps.google.com/?cid=0x0:0x1f68c5b3200a9955,
komplek housing,Komplek perumahan,Rumah (HAKIM MUHTARAM),"8F92+2MP, Jl. Datah Kayu Duhung, Datah Kotou, Tanah Siang Sel., Kabupaten Murung Raya, Kalimantan Tengah 73971","Jl. Datah Kayu Duhung, Datah Kotou, Tanah Siang Sel., Kabupaten Murung Raya",KALIMANTAN TENGAH,73971.0,Indonesia,,,,-0.6825658,114.450031,https://maps.google.com/?cid=0x0:0x61cab50022afeb9d,
komplek housing,Kantor Pemerintahan Daerah,DESA KONUT,"9GF7+JP2, Konut, Kec. Tanah Siang, Kabupaten Murung Raya, Kalimantan Tengah 73911","Konut, Kec. Tanah Siang, Kabupaten Murung Raya",KALIMANTAN TENGAH,73911.0,Indonesia,,,,-0.6259833,114.5142679,https://maps.google.com/?cid=0x0:0xd15200595568a5d1,
komplek housing,Komplek perumahan,pengurus langgar desa konut,"9GJ6+RGW, Konut, Kec. Tanah Siang, Kabupaten Murung Raya, Kalimantan Tengah 73911","Konut, Kec. Tanah Siang, Kabupaten Murung Raya",KALIMANTAN TENGAH,73911.0,Indonesia,,,,-0.6178987,114.511331,https://maps.google.com/?cid=0x0:0xdb42ed73014c0c67,
komplek housing,Komplek perumahan,Deca ciwel,"F656+363, Kalapeh Baru, Sumber Barito, Kabupaten Murung Raya, Kalimantan Tengah","Kabupaten Murung Raya, Kalimantan Tengah",KALIMANTAN TENGAH,,Indonesia,,,,-0.5423614,114.2105379,https://maps.google.com/?cid=0x0:0x17308c6f9ed63082,
komplek housing,,Taufik Rahman House,"Jl. Pulo Basan No.60, Puruk Cahu, Kec. Murung, Kabupaten Murung Raya, Kalimantan Tengah 73911","Puruk Cahu, Kec. Murung, Kabupaten Murung Raya",KALIMANTAN TENGAH,73911.0,Indonesia,,,,-0.6466489,114.5710084,https://maps.google.com/?cid=0x0:0x2103ec555dcace1f,
komplek housing,Komplek perumahan,MUWUN,"GG6G+GV8, Muwun, Kec. Tanah Siang, Kabupaten Murung Raya, Kalimantan Tengah 73971","Muwun, Kec. Tanah Siang, Kabupaten Murung Raya",KALIMANTAN TENGAH,73971.0,Indonesia,,,,-0.4887053,114.5272129,https://maps.google.com/?cid=0x0:0x8375979c5a64d491,
komplek housing,komplek housing,Uut Murung,"Kabupaten Murung Raya, Kalimantan Tengah","Kabupaten Murung Raya, Kalimantan Tengah",KALIMANTAN TENGAH,,Indonesia,,,,0.1362171,114.3341432,https://maps.google.com/?cid=0x0:0x4c016e846e2ad65d,
perumahan,perumahan,Kalimantan Tengah 73991,"Kabupaten Murung Raya, Kalimantan Tengah","Kabupaten Murung Raya, Kalimantan Tengah",KALIMANTAN TENGAH,,Indonesia,,,,-0.2037503,114.8092691,https://maps.google.com/?cid=0x0:0x46d09a0087c59ba1,
perumahan,Toko,Rumahku supriyadi,"MXGP+42, Tumbang Baloi, Kec. Barito Tuhup Raya, Kabupaten Murung Raya, Kalimantan Tengah","Kabupaten Murung Raya, Kalimantan Tengah",KALIMANTAN TENGAH,,Indonesia,,,,-0.324725,114.9850854,https://maps.google.com/?cid=0x0:0xe40574e20994dea3,
perumahan,Perhimpunan Pengembang Perumahan,Tuhup RiverView,"9RP3+QCH, Muara Tuhup, Kec. Laung Tuhup, Kabupaten Murung Raya, Kalimantan Tengah","Kabupaten Murung Raya, Kalimantan Tengah",KALIMANTAN TENGAH,,Indonesia,,,,-0.6130702,114.8036041,https://maps.google.com/?cid=0x0:0xfda601874b8ab503,
perumahan,Komplek perumahan,Rumah adelio,"9RC8+XPF, Muara Tuhup, Kec. Laung Tuhup, Kabupaten Murung Raya, Kalimantan Tengah 73991","Muara Tuhup, Kec. Laung Tuhup, Kabupaten Murung Raya",KALIMANTAN TENGAH,73991.0,Indonesia,,,,-0.627879,114.817241,https://maps.google.com/?cid=0x0:0xd954b10f8492f200,
perumahan,Pembangunan Perumahan,Yoso.F,"HWJ5+9H, Liang Nyaling, Kec. Barito Tuhup Raya, Kabupaten Murung Raya, Kalimantan Tengah","Kabupaten Murung Raya, Kalimantan Tengah",KALIMANTAN TENGAH,,Indonesia,,,,-0.4191239,114.9089633,https://maps.google.com/?cid=0x0:0xa4a578b57d4b6846,
perumahan,Pusat Perbelanjaan,NAUFAL PULSA,"FXCG+Q5F, Makunjung, Kec. Barito Tuhup Raya, Kabupaten Murung Raya, Kalimantan Tengah 73991","Makunjung, Kec. Barito Tuhup Raya, Kabupaten Murung Raya",KALIMANTAN TENGAH,73991.0,Indonesia,,,,-0.5280656,114.9754175,https://maps.google.com/?cid=0x0:0x5dbcdc062aefe255,
perumahan,Perhimpunan Pengembang Perumahan,Perumahan Fannn,"9R99+X5R, Muara Tuhup, Kec. Laung Tuhup, Kabupaten Murung Raya, Kalimantan Tengah","Kabupaten Murung Raya, Kalimantan Tengah",KALIMANTAN TENGAH,,Indonesia,,,,-0.6300007,114.8178869,https://maps.google.com/?cid=0x0:0xeff61325d5d82acf,
perumahan,Komplek perumahan,Rumah Cik Bodta,"RQWP+W62, Penda Siron, Kec. Laung Tuhup, Kabupaten Murung Raya, Kalimantan Tengah 73991","Penda Siron, Kec. Laung Tuhup, Kabupaten Murung Raya",KALIMANTAN TENGAH,73991.0,Indonesia,,,,-0.1527306,114.7855271,https://maps.google.com/?cid=0x0:0xaa4b326a0248a8df,
perumahan,Pembangunan Perumahan,muara laung 1,"HVH4+RW, Kohong, Kec. Barito Tuhup Raya, Kabupaten Murung Raya, Kalimantan Tengah","Kabupaten Murung Raya, Kalimantan Tengah",KALIMANTAN TENGAH,,Indonesia,,,,-0.4204693,114.8573099,https://maps.google.com/?cid=0x0:0xd12c6036490cad53,
perumahan,Komplek perumahan,Rumah eyza,"Jln Tumenggung Surapati No.1, RT.09/RW.06, Muara Laung I, Kec. Laung Tuhup, Kabupaten Murung Raya, Kalimantan Tengah","Kabupaten Murung Raya, Kalimantan Tengah",KALIMANTAN TENGAH,,Indonesia,,,,-0.6669699,114.7384825,https://maps.google.com/?cid=0x0:0xc64a3ba0d7c735b8,
perumahan,Pembangunan Perumahan,Res area Bp emon,"JQ34+FHM, Lakutan, Kec. Laung Tuhup, Kabupaten Murung Raya, Kalimantan Tengah 73991","Lakutan, Kec. Laung Tuhup, Kabupaten Murung Raya",KALIMANTAN TENGAH,73991.0,Indonesia,,,,-0.3962882,114.7564244,https://maps.google.com/?cid=0x0:0xd9b516aae4db8121,
perumahan,perumahan,Kec. Barito Tuhup Raya,"Kabupaten Murung Raya, Kalimantan Tengah","Kabupaten Murung Raya, Kalimantan Tengah",KALIMANTAN TENGAH,,Indonesia,,,,-0.3740164,114.9516869,https://maps.google.com/?cid=0x0:0x480eb06a7ddf83a4,
perumahan,Pembangunan Perumahan,Puskesmas lama,"9RVC+GFR, Muara Tuhup, Kec. Laung Tuhup, Kabupaten Murung Raya, Kalimantan Tengah","Kabupaten Murung Raya, Kalimantan Tengah",KALIMANTAN TENGAH,,Indonesia,,,,-0.6061313,114.8211394,https://maps.google.com/?cid=0x0:0xf3b63236787f66e2,
perumahan,Kantor Perusahaan,BERONGON_JAYA,"RVWJ+X55, Tumbang Baloi, Kec. Barito Tuhup Raya, Kabupaten Murung Raya, Kalimantan Tengah 73991","Tumbang Baloi, Kec. Barito Tuhup Raya, Kabupaten Murung Raya",KALIMANTAN TENGAH,73991.0,Indonesia,,,,-0.1526136,114.8804853,https://maps.google.com/?cid=0x0:0x16aaf713a9e50c94,
perumahan,perumahan,view dari sungai barito,"CP6Q+6CW, Muara Laung II, Kec. Laung Tuhup, Kabupaten Murung Raya, Kalimantan Tengah","Kabupaten Murung Raya, Kalimantan Tengah",KALIMANTAN TENGAH,,Indonesia,,,,-0.5893946,114.7385894,https://maps.google.com/?cid=0x0:0x3d738f94a324ae5e,
perumahan,Pusat Kegiatan Warga,BUMBAN TUHUP,"7RMW+PM5, Bumban Tuhup, Kec. Barito Tuhup Raya, Kabupaten Murung Raya, Kalimantan Tengah 73852","Bumban Tuhup, Kec. Barito Tuhup Raya, Kabupaten Murung Raya",KALIMANTAN TENGAH,73852.0,Indonesia,,,,-0.7160745,114.8469828,https://maps.google.com/?cid=0x0:0xd1c960f24f55e726,
perumahan,Komplek perumahan,POSLAP SIAGA KARHUTLA BPBD,"HWG5+CH3, Dirung Sararong, Kec. Barito Tuhup Raya, Kabupaten Murung Raya, Kalimantan Tengah 73991","Dirung Sararong, Kec. Barito Tuhup Raya, Kabupaten Murung Raya",KALIMANTAN TENGAH,73991.0,Indonesia,,,,-0.423995,114.9089067,https://maps.google.com/?cid=0x0:0xc6b0747dc679935a,
perumahan,Kantor Pemerintah,Desa Muara Tuhup,"9RJ5+32, Muara Tuhup, Kec. Laung Tuhup, Kabupaten Murung Raya, Kalimantan Tengah","Kabupaten Murung Raya, Kalimantan Tengah",KALIMANTAN TENGAH,,Indonesia,,,,-0.6212222,114.8065556,https://maps.google.com/?cid=0x0:0x1cefa079d55b379a,
perumahan,Pembangunan Perumahan,Rumah mma zahra,"9RVC+GFR, Jln pembangunan, RT.1/RW.1, Muara Tuhup, Kec. Laung Tuhup, Kabupaten Murung Raya, Kalimantan Tengah","Kabupaten Murung Raya, Kalimantan Tengah",KALIMANTAN TENGAH,,Indonesia,,,,-0.6061313,114.8211394,https://maps.google.com/?cid=0x0:0x4befcb844097a05c,
perumahan,Perhimpunan Pengembang Perumahan,Tawai Haui,"HQMH+6PQ, Muara Tupuh, Kec. Laung Tuhup, Kabupaten Murung Raya, Kalimantan Tengah","Kabupaten Murung Raya, Kalimantan Tengah",KALIMANTAN TENGAH,,Indonesia,82211171304.0,,,-0.4169212,114.7793613,https://maps.google.com/?cid=0x0:0x7997e1da292e3c80,
perumahan,Pembangunan Perumahan,Muara tuhub,"9RVC+GFR, Muara Tuhup, Kec. Laung Tuhup, Kabupaten Murung Raya, Kalimantan Tengah 73991","Muara Tuhup, Kec. Laung Tuhup, Kabupaten Murung Raya",KALIMANTAN TENGAH,73991.0,Indonesia,,,,-0.6061313,114.8211394,https://maps.google.com/?cid=0x0:0xe35d648a1e0d35b0,
perumahan,Komplek perumahan,Makunjung sebrang,"8R9J+FC, Cinta Budiman, Kec. Barito Tuhup Raya, Kabupaten Murung Raya, Kalimantan Tengah","Kabupaten Murung Raya, Kalimantan Tengah",KALIMANTAN TENGAH,,Indonesia,,,,-0.6813257,114.8310686,https://maps.google.com/?cid=0x0:0x1ed660ad297dd9ed,
perumahan,perumahan,Kalimantan Tengah 73991,"Kabupaten Murung Raya, Kalimantan Tengah","Kabupaten Murung Raya, Kalimantan Tengah",KALIMANTAN TENGAH,,Indonesia,,,,-0.2037503,114.8092691,https://maps.google.com/?cid=0x0:0x46d09a0087c59ba1,
perumahan,Perhimpunan Pengembang Perumahan,Tuhup RiverView,"9RP3+QCH, Muara Tuhup, Kec. Laung Tuhup, Kabupaten Murung Raya, Kalimantan Tengah","Kabupaten Murung Raya, Kalimantan Tengah",KALIMANTAN TENGAH,,Indonesia,,,,-0.6130702,114.8036041,https://maps.google.com/?cid=0x0:0xfda601874b8ab503,
perumahan,Komplek perumahan,Rumah adelio,"9RC8+XPF, Muara Tuhup, Kec. Laung Tuhup, Kabupaten Murung Raya, Kalimantan Tengah 73991","Muara Tuhup, Kec. Laung Tuhup, Kabupaten Murung Raya",KALIMANTAN TENGAH,73991.0,Indonesia,,,,-0.627879,114.817241,https://maps.google.com/?cid=0x0:0xd954b10f8492f200,
perumahan,Komplek perumahan,Rumah eyza,"Jln Tumenggung Surapati No.1, RT.09/RW.06, Muara Laung I, Kec. Laung Tuhup, Kabupaten Murung Raya, Kalimantan Tengah","Kabupaten Murung Raya, Kalimantan Tengah",KALIMANTAN TENGAH,,Indonesia,,,,-0.6669699,114.7384825,https://maps.google.com/?cid=0x0:0xc64a3ba0d7c735b8,
perumahan,Pembangunan Perumahan,muara laung 1,"HVH4+RW, Kohong, Kec. Barito Tuhup Raya, Kabupaten Murung Raya, Kalimantan Tengah","Kabupaten Murung Raya, Kalimantan Tengah",KALIMANTAN TENGAH,,Indonesia,,,,-0.4204693,114.8573099,https://maps.google.com/?cid=0x0:0xd12c6036490cad53,
perumahan,Pembangunan Perumahan,Puskesmas lama,"9RVC+GFR, Muara Tuhup, Kec. Laung Tuhup, Kabupaten Murung Raya, Kalimantan Tengah","Kabupaten Murung Raya, Kalimantan Tengah",KALIMANTAN TENGAH,,Indonesia,,,,-0.6061313,114.8211394,https://maps.google.com/?cid=0x0:0xf3b63236787f66e2,
perumahan,Kantor Pemerintah,Desa Muara Tuhup,"9RJ5+32, Muara Tuhup, Kec. Laung Tuhup, Kabupaten Murung Raya, Kalimantan Tengah","Kabupaten Murung Raya, Kalimantan Tengah",KALIMANTAN TENGAH,,Indonesia,,,,-0.6212222,114.8065556,https://maps.google.com/?cid=0x0:0x1cefa079d55b379a,
perumahan,Komplek perumahan,Rumah Cik Bodta,"RQWP+W62, Penda Siron, Kec. Laung Tuhup, Kabupaten Murung Raya, Kalimantan Tengah 73991","Penda Siron, Kec. Laung Tuhup, Kabupaten Murung Raya",KALIMANTAN TENGAH,73991.0,Indonesia,,,,-0.1527306,114.7855271,https://maps.google.com/?cid=0x0:0xaa4b326a0248a8df,
perumahan,Pembangunan Perumahan,Res area Bp emon,"JQ34+FHM, Lakutan, Kec. Laung Tuhup, Kabupaten Murung Raya, Kalimantan Tengah 73991","Lakutan, Kec. Laung Tuhup, Kabupaten Murung Raya",KALIMANTAN TENGAH,73991.0,Indonesia,,,,-0.3962882,114.7564244,https://maps.google.com/?cid=0x0:0xd9b516aae4db8121,
perumahan,Komplek perumahan,Rumah gilaz,"CP3J+7RC, Jl. Pelajar, RT.9/RW.No 52, Muara Laung I, Kec. Laung Tuhup, Kabupaten Murung Raya, Kalimantan Tengah 73911","Jl. Pelajar, RT.9/RW.No 52, Muara Laung I, Kec. Laung Tuhup, Kabupaten Murung Raya",KALIMANTAN TENGAH,73911.0,Indonesia,,,,-0.596822,114.7320133,https://maps.google.com/?cid=0x0:0x39b86f097c772066,
perumahan,Pembangunan Perumahan,Rumah BP (EdelinAdia),"Jl. Liat Kuning No.Rt. 15, Muara Laung I, Kec. Laung Tuhup, Kabupaten Murung Raya, Kalimantan Tengah 1","Kabupaten Murung Raya, Kalimantan Tengah",KALIMANTAN TENGAH,,Indonesia,,,,-0.6010244,114.7300821,https://maps.google.com/?cid=0x0:0x2fff809e1fd78ea2,
perumahan,Perhimpunan Pengembang Perumahan,Tawai Haui,"HQMH+6PQ, Muara Tupuh, Kec. Laung Tuhup, Kabupaten Murung Raya, Kalimantan Tengah","Kabupaten Murung Raya, Kalimantan Tengah",KALIMANTAN TENGAH,,Indonesia,82211171304.0,,,-0.4169212,114.7793613,https://maps.google.com/?cid=0x0:0x7997e1da292e3c80,
perumahan,Pembangunan Perumahan,Muara tuhub,"9RVC+GFR, Muara Tuhup, Kec. Laung Tuhup, Kabupaten Murung Raya, Kalimantan Tengah 73991","Muara Tuhup, Kec. Laung Tuhup, Kabupaten Murung Raya",KALIMANTAN TENGAH,73991.0,Indonesia,,,,-0.6061313,114.8211394,https://maps.google.com/?cid=0x0:0xe35d648a1e0d35b0,
perumahan,Toko bahan makanan,Kiham nyatong,"JQH4+V89, Muara Maruwei I, Kec. Laung Tuhup, Kabupaten Murung Raya, Kalimantan Tengah 73991","Muara Maruwei I, Kec. Laung Tuhup, Kabupaten Murung Raya",KALIMANTAN TENGAH,73991.0,Indonesia,,,,-0.3703297,114.7558475,https://maps.google.com/?cid=0x0:0xf158358282666774,
perumahan,Kantor Perusahaan,Mess karyawan PT Riung Mitra lestari,"MP6V+J8, Batu Bua II, Kec. Laung Tuhup, Kabupaten Murung Raya, Kalimantan Tengah 73991","Batu Bua II, Kec. Laung Tuhup, Kabupaten Murung Raya",KALIMANTAN TENGAH,73991.0,Indonesia,,,,-0.3383833,114.7433183,https://maps.google.com/?cid=0x0:0x84eb613ae802a5bd,
perumahan,Toko,Rumahku supriyadi,"MXGP+42, Tumbang Baloi, Kec. Barito Tuhup Raya, Kabupaten Murung Raya, Kalimantan Tengah","Kabupaten Murung Raya, Kalimantan Tengah",KALIMANTAN TENGAH,,Indonesia,,,,-0.324725,114.9850854,https://maps.google.com/?cid=0x0:0xe40574e20994dea3,
perumahan,Komplek perumahan,Rumah kembar ( Orange Hause Twins ),"CP3Q+J8W, Muara Laung I, Kec. Laung Tuhup, Kabupaten Murung Raya, Kalimantan Tengah 73911","Muara Laung I, Kec. Laung Tuhup, Kabupaten Murung Raya",KALIMANTAN TENGAH,73911.0,Indonesia,,,,-0.5963606,114.7375204,https://maps.google.com/?cid=0x0:0x948abad17c8119b3,
perumahan,Komplek perumahan,Muara laing 2,"CPHX+5X, Muara Laung II, Kec. Laung Tuhup, Kabupaten Murung Raya, Kalimantan Tengah","Kabupaten Murung Raya, Kalimantan Tengah",KALIMANTAN TENGAH,,Indonesia,,,,-0.5720368,114.7499112,https://maps.google.com/?cid=0x0:0x84d8c673b5488079,
perumahan,Komplek perumahan,Simpang Muara Maruwei I,"JPGQ+7X, Muara Maruwei I, Kec. Laung Tuhup, Kabupaten Murung Raya, Kalimantan Tengah 73991","Muara Maruwei I, Kec. Laung Tuhup, Kabupaten Murung Raya",KALIMANTAN TENGAH,73991.0,Indonesia,,,,-0.3743398,114.7400012,https://maps.google.com/?cid=0x0:0x8001f3e9e5e32974,
perumahan,perumahan,view dari sungai barito,"CP6Q+6CW, Muara Laung II, Kec. Laung Tuhup, Kabupaten Murung Raya, Kalimantan Tengah","Kabupaten Murung Raya, Kalimantan Tengah",KALIMANTAN TENGAH,,Indonesia,,,,-0.5893946,114.7385894,https://maps.google.com/?cid=0x0:0x3d738f94a324ae5e,
perumahan,Pembangunan Perumahan,Rumah mma zahra,"9RVC+GFR, Jln pembangunan, RT.1/RW.1, Muara Tuhup, Kec. Laung Tuhup, Kabupaten Murung Raya, Kalimantan Tengah","Kabupaten Murung Raya, Kalimantan Tengah",KALIMANTAN TENGAH,,Indonesia,,,,-0.6061313,114.8211394,https://maps.google.com/?cid=0x0:0x4befcb844097a05c,
perumahan,perumahan,Kalimantan Tengah 73911,"Kec. Murung, Kabupaten Murung Raya, Kalimantan Tengah","Kabupaten Murung Raya, Kalimantan Tengah",KALIMANTAN TENGAH,,Indonesia,,,,-0.581032,114.6667939,https://maps.google.com/?cid=0x0:0xfaf4a8cd4b21fca2,
perumahan,Pembangunan Perumahan,Komplek Perumahan Pemda Murung Raya,"8HR4+5CH, Jl. Workshop PU, Beriwit, Kec. Murung, Kabupaten Murung Raya, Kalimantan Tengah 73911","Jl. Workshop PU, Beriwit, Kec. Murung, Kabupaten Murung Raya",KALIMANTAN TENGAH,73911.0,Indonesia,,,,-0.6595631,114.5560985,https://maps.google.com/?cid=0x0:0x1e117e5f5e738b92,
perumahan,Dewan,Kompleks Perumahan DPRD,"9H9F+7FP, Beriwit, Kec. Murung, Kabupaten Murung Raya, Kalimantan Tengah 73911","Beriwit, Kec. Murung, Kabupaten Murung Raya",KALIMANTAN TENGAH,73911.0,Indonesia,,,,-0.6317765,114.573718,https://maps.google.com/?cid=0x0:0xde7f3d630cc8bb48,
perumahan,Inspektur Tempat Tinggal,BENTENG,"Jl. Merdeka, Beriwit, Kec. Murung, Kabupaten Murung Raya, Kalimantan Tengah 73911","Beriwit, Kec. Murung, Kabupaten Murung Raya",KALIMANTAN TENGAH,73911.0,Indonesia,,,,-0.6126882,114.5729436,https://maps.google.com/?cid=0x0:0x772619a44e8d35d3,
perumahan,Perumahan,Perumahan Pulo Basan Asri 2,"9H2G+R5J, Jl. Pulo Basan, RT.005/RW.002, Beriwit, Kec. Murung, Kabupaten Murung Raya, Kalimantan Tengah 73911","Jl. Pulo Basan, RT.005/RW.002, Beriwit, Kec. Murung, Kabupaten Murung Raya",KALIMANTAN TENGAH,73911.0,Indonesia,81210129968.0,,,-0.6479164,114.5754031,https://maps.google.com/?cid=0x0:0xe7f0f7140f1e11b,
perumahan,Pembangunan Perumahan,Rino,"9H55+3M3, Beriwit, Kec. Murung, Kabupaten Murung Raya, Kalimantan Tengah 73911","Beriwit, Kec. Murung, Kabupaten Murung Raya",KALIMANTAN TENGAH,73911.0,Indonesia,,,,-0.6423576,114.5591704,https://maps.google.com/?cid=0x0:0xfc3891ca328b97ac,
perumahan,Komplek perumahan,RUMAH KRISTIN PURUK CAHU,"9G9X+W82, Jl. Kolonel Untung Surapati, Sungai Lunuk, Kec. Tanah Siang, Kabupaten Murung Raya, Kalimantan Tengah 73911","Jl. Kolonel Untung Surapati, Sungai Lunuk, Kec. Tanah Siang, Kabupaten Murung Raya",KALIMANTAN TENGAH,73911.0,Indonesia,,,,-0.6302316,114.5482676,https://maps.google.com/?cid=0x0:0x48e153c1304888a7,
perumahan,Komplek perumahan,PERSADA MUTIARA RESIDENCE,"Puruk Cahu, Kec. Murung, Kabupaten Murung Raya, Kalimantan Tengah 73911","Kec. Murung, Kabupaten Murung Raya",KALIMANTAN TENGAH,73911.0,Indonesia,82149715065.0,,,-0.6418254,114.5798878,https://maps.google.com/?cid=0x0:0x908b2fbcb9ef8ba7,
perumahan,Komplek perumahan,Perumahan Griya Mura Mandiri,"8HVM+769, Jl. Lintas Kalimantan Poros Tengah, Danau Usung, Kec. Murung, Kabupaten Murung Raya, Kalimantan Tengah 73911","Jl. Lintas Kalimantan Poros Tengah, Danau Usung, Kec. Murung, Kabupaten Murung Raya",KALIMANTAN TENGAH,73911.0,Indonesia,,,,-0.6575184,114.5826163,https://maps.google.com/?cid=0x0:0xd1d577182ef47081,
perumahan,Komplek perumahan,Rumah Kute,"8HWG+G5X, Puruk Cahu, Kec. Murung, Kabupaten Murung Raya, Kalimantan Tengah 73911","Puruk Cahu, Kec. Murung, Kabupaten Murung Raya",KALIMANTAN TENGAH,73911.0,Indonesia,,,,-0.6536428,114.5754937,https://maps.google.com/?cid=0x0:0xc8c8ce603c24488b,
perumahan,Komplek perumahan,Lunting 7,"9H4M+PM8, Jl. A. H. Nasution, Puruk Cahu, Kec. Murung, Kabupaten Murung Raya, Kalimantan Tengah 73911","Jl. A. H. Nasution, Puruk Cahu, Kec. Murung, Kabupaten Murung Raya",KALIMANTAN TENGAH,73911.0,Indonesia,,,,-0.6432077,114.5841934,https://maps.google.com/?cid=0x0:0x9ad3a5330c564ac4,
perumahan,Komplek perumahan,Pulo Basan Asri 1,"Jl. Pulo Basan No.60, Puruk Cahu, Kec. Murung, Kabupaten Murung Raya, Kalimantan Tengah 73911","Puruk Cahu, Kec. Murung, Kabupaten Murung Raya",KALIMANTAN TENGAH,73911.0,Indonesia,,,,-0.6472207,114.5707512,https://maps.google.com/?cid=0x0:0x517ec103190a0788,
perumahan,Komplek perumahan,Mess Kejari Murung Raya,"Jl. Ki Hajar Dewantara Kel No.09, Beriwit, Kec. Murung, Kabupaten Murung Raya, Kalimantan Tengah 73911","Beriwit, Kec. Murung, Kabupaten Murung Raya",KALIMANTAN TENGAH,73911.0,Indonesia,,,,-0.6197507,114.5701473,https://maps.google.com/?cid=0x0:0xde185bbca2c1e3b,
perumahan,Pembangunan Perumahan,Perumahan Grand Pesona kalteng,"9H58+8X9, Beriwit, Kec. Murung, Kabupaten Murung Raya, Kalimantan Tengah","Kabupaten Murung Raya, Kalimantan Tengah",KALIMANTAN TENGAH,,Indonesia,85885211121.0,,,-0.6417037,114.5674776,https://maps.google.com/?cid=0x0:0xd919e51d65e7b5fa,
perumahan,Komplek perumahan,Abdul haris thaima,"9H2P+74V, Juking Pajang, Kec. Murung, Kabupaten Murung Raya, Kalimantan Tengah 73911","Juking Pajang, Kec. Murung, Kabupaten Murung Raya",KALIMANTAN TENGAH,73911.0,Indonesia,85332804486.0,,,-0.6484317,114.584545,https://maps.google.com/?cid=0x0:0xa8a82db71d9f6d9b,
perumahan,Komplek perumahan,Memel kubirai,"Jl. Cendrawasih No.21, RT.03/RW.01, Puruk Cahu, Kec. Murung, Kabupaten Murung Raya, Kalimantan Tengah 73911","RT.03/RW.01, Puruk Cahu, Kec. Murung, Kabupaten Murung Raya",KALIMANTAN TENGAH,73911.0,Indonesia,,,,-0.6094648,114.5790937,https://maps.google.com/?cid=0x0:0x67960d9d10bfcc27,
perumahan,Komplek perumahan,komplek bumi kasturi,"8HPX+RGM, Danau Usung, Kec. Murung, Kabupaten Murung Raya, Kalimantan Tengah 73911","Danau Usung, Kec. Murung, Kabupaten Murung Raya",KALIMANTAN TENGAH,73911.0,Indonesia,,,,-0.6629106,114.598795,https://maps.google.com/?cid=0x0:0x7bd61a5c89e81414,
perumahan,Komplek perumahan,Rumah Abdiel,"8HRM+P3P, Jl. Jend. Sudirman, Puruk Cahu, Kec. Murung, Kabupaten Murung Raya, Kalimantan Tengah 73911","Jl. Jend. Sudirman, Puruk Cahu, Kec. Murung, Kabupaten Murung Raya",KALIMANTAN TENGAH,73911.0,Indonesia,,,,-0.6581658,114.5827216,https://maps.google.com/?cid=0x0:0xad2b346b0414f53,
perumahan,Inspektur Tempat Tinggal,"Kalteng, kota puruk cahu, kab. Murung raya","9HMF+J4G, Beriwit, Kec. Murung, Kabupaten Murung Raya, Kalimantan Tengah 73911","Beriwit, Kec. Murung, Kabupaten Murung Raya",KALIMANTAN TENGAH,73911.0,Indonesia,,,,-0.6159467,114.5728386,https://maps.google.com/?cid=0x0:0xf11f4cd3be90b6cb,
perumahan,Perhimpunan Pengembang Perumahan,Antoni,"9H3F+HMH, Jl. Pulo Basan, Puruk Cahu, Kec. Murung, Kabupaten Murung Raya, Kalimantan Tengah 73911","Jl. Pulo Basan, Puruk Cahu, Kec. Murung, Kabupaten Murung Raya",KALIMANTAN TENGAH,73911.0,Indonesia,,,,-0.6465063,114.5753636,https://maps.google.com/?cid=0x0:0x4f9aea6bc9269fb8,
perumahan,Kantor Pemerintahan Daerah,DESA KONUT,"9GF7+JP2, Konut, Kec. Tanah Siang, Kabupaten Murung Raya, Kalimantan Tengah 73911","Konut, Kec. Tanah Siang, Kabupaten Murung Raya",KALIMANTAN TENGAH,73911.0,Indonesia,,,,-0.6259833,114.5142679,https://maps.google.com/?cid=0x0:0xd15200595568a5d1,
perumahan,Pembangunan Perumahan,Perumahan GMM 2,"8HXG+C77, Jl. Lintas Kalimantan Poros Tengah, Puruk Cahu, Kec. Murung, Kabupaten Murung Raya, Kalimantan Tengah 73911","Jl. Lintas Kalimantan Poros Tengah, Puruk Cahu, Kec. Murung, Kabupaten Murung Raya",KALIMANTAN TENGAH,73911.0,Indonesia,,,,-0.6514737,114.5756791,https://maps.google.com/?cid=0x0:0x113ff2862040f91f,
perumahan,Komplek perumahan,Rumah Arul dan Amel,"Jl. Katamso No.33, Puruk Cahu, Kec. Murung, Kabupaten Murung Raya, Kalimantan Tengah 73911","Puruk Cahu, Kec. Murung, Kabupaten Murung Raya",KALIMANTAN TENGAH,73911.0,Indonesia,81257764649.0,,,-0.6543981,114.5699818,https://maps.google.com/?cid=0x0:0x90683ccbfd115b47,
perumahan,Pembangunan Perumahan,Poskamling Komplek Perumahan Bumi Kasturi,"8HPX+5CJ, Jalan Komplek Bumi Kasturi, Danau Usung, Kec. Murung, Kabupaten Murung Raya, Kalimantan Tengah 73911","Jalan Komplek Bumi Kasturi, Danau Usung, Kec. Murung, Kabupaten Murung Raya",KALIMANTAN TENGAH,73911.0,Indonesia,,,,-0.6645282,114.5985127,https://maps.google.com/?cid=0x0:0x77a8d6337272c578,
perumahan,Kompleks Kondominium,rumah sikembar,"9HQ9+4G2, Beriwit, Kec. Murung, Kabupaten Murung Raya, Kalimantan Tengah 73911","Beriwit, Kec. Murung, Kabupaten Murung Raya",KALIMANTAN TENGAH,73911.0,Indonesia,,,,-0.6119702,114.5677277,https://maps.google.com/?cid=0x0:0x5d53f2f67411cc9a,
perumahan,Komplek perumahan,Perumahan,"9H27+472, Jl. Bumi Turangga, Beriwit, Kec. Murung, Kabupaten Murung Raya, Kalimantan Tengah 73911","Jl. Bumi Turangga, Beriwit, Kec. Murung, Kabupaten Murung Raya",KALIMANTAN TENGAH,73911.0,Indonesia,,,,-0.6497396,114.5631554,https://maps.google.com/?cid=0x0:0x14cf21bc845574b2,
perumahan,Perhimpunan Pengembang Perumahan,Rumah Yusing,"Gg. Harmoni No.1, Puruk Cahu, Kec. Murung, Kabupaten Murung Raya, Kalimantan Tengah 73911","Puruk Cahu, Kec. Murung, Kabupaten Murung Raya",KALIMANTAN TENGAH,73911.0,Indonesia,,,,-0.6537317,114.5757656,https://maps.google.com/?cid=0x0:0x3c822046d88624fd,
perumahan,perumahan,Kalimantan Tengah 73971,"Kabupaten Murung Raya, Kalimantan Tengah","Kabupaten Murung Raya, Kalimantan Tengah",KALIMANTAN TENGAH,,Indonesia,,,,-0.4787128,114.4292148,https://maps.google.com/?cid=0x0:0x7eb3a8a82a8e44be,
perumahan,Area Mendaki,Punsung muara bakanon,"7988+J2, Muara Bakanon, Kec. Permata Intan, Kabupaten Murung Raya, Kalimantan Tengah","Kabupaten Murung Raya, Kalimantan Tengah",KALIMANTAN TENGAH,,Indonesia,,,,-0.733483,114.3650284,https://maps.google.com/?cid=0x0:0x4944745dafb6483a,
perumahan,Komplek perumahan,Desa Sungai Batang,"76GP+J7, Muara Babuat, Kec. Permata Intan, Kabupaten Murung Raya, Kalimantan Tengah 73971","Muara Babuat, Kec. Permata Intan, Kabupaten Murung Raya",KALIMANTAN TENGAH,73971.0,Indonesia,,,,-0.723387,114.23571,https://maps.google.com/?cid=0x0:0xf7593bbe7f3d06a4,
perumahan,Komplek perumahan,Rumah fatichul bahri,"8842+XF6, Tumbang Lahung, Kec. Permata Intan, Kabupaten Murung Raya, Kalimantan Tengah 73971","Tumbang Lahung, Kec. Permata Intan, Kabupaten Murung Raya",KALIMANTAN TENGAH,73971.0,Indonesia,,,,-0.692803,114.302502,https://maps.google.com/?cid=0x0:0x6dab64235ab22e0,
perumahan,Pembangunan Perumahan,Muara babuat,"87VM+F3, Muara Babuat, Kec. Permata Intan, Kabupaten Murung Raya, Kalimantan Tengah","Kabupaten Murung Raya, Kalimantan Tengah",KALIMANTAN TENGAH,,Indonesia,,,,-0.6563091,114.2827165,https://maps.google.com/?cid=0x0:0xfd30ad55b3a9e6ea,
perumahan,Pusat Perbelanjaan,Toko Anugerah Utama,"Tumbang Lahung, Kec. Permata Intan, Kabupaten Murung Raya, Kalimantan Tengah 73971","Kec. Permata Intan, Kabupaten Murung Raya",KALIMANTAN TENGAH,73971.0,Indonesia,81351360675.0,,,-0.6878662,114.298743,https://maps.google.com/?cid=0x0:0x7cea37b2f2cb293a,
perumahan,Komplek perumahan,Rumah (HAKIM MUHTARAM),"8F92+2MP, Jl. Datah Kayu Duhung, Datah Kotou, Tanah Siang Sel., Kabupaten Murung Raya, Kalimantan Tengah 73971","Jl. Datah Kayu Duhung, Datah Kotou, Tanah Siang Sel., Kabupaten Murung Raya",KALIMANTAN TENGAH,73971.0,Indonesia,,,,-0.6825658,114.450031,https://maps.google.com/?cid=0x0:0x61cab50022afeb9d,
perumahan,Komplek perumahan,Tumbang lahung,"8852+CCC, Tumbang Lahung, Kec. Permata Intan, Kabupaten Murung Raya, Kalimantan Tengah 73971","Tumbang Lahung, Kec. Permata Intan, Kabupaten Murung Raya",KALIMANTAN TENGAH,73971.0,Indonesia,,,,-0.690573,114.301515,https://maps.google.com/?cid=0x0:0x76ed34c3bddeb437,
perumahan,Komplek perumahan,MUWUN,"GG6G+GV8, Muwun, Kec. Tanah Siang, Kabupaten Murung Raya, Kalimantan Tengah 73971","Muwun, Kec. Tanah Siang, Kabupaten Murung Raya",KALIMANTAN TENGAH,73971.0,Indonesia,,,,-0.4887053,114.5272129,https://maps.google.com/?cid=0x0:0x8375979c5a64d491,
perumahan,Komplek perumahan,Desa Sungai Batang,"77VW+8XW, Jalan, Tumbang Lahung, Permata Intan, Murung Raya Regency, Central Kalimantan 73971","Jalan, Tumbang Lahung, Permata Intan, Murung Raya Regency",KALIMANTAN TENGAH,73971.0,Indonesia,,,,-0.7066319,114.2974471,https://maps.google.com/?cid=0x0:0x4d0ca0cc19790cc5,
perumahan,Perhimpunan Pengembang Perumahan,Sungai batang,"773F+2VW, Sungai Batang, Kec. Permata Intan, Kabupaten Murung Raya, Kalimantan Tengah 73971","Sungai Batang, Kec. Permata Intan, Kabupaten Murung Raya",KALIMANTAN TENGAH,73971.0,Indonesia,,,,-0.7473965,114.2747123,https://maps.google.com/?cid=0x0:0x9705a2389af6a43a,
perumahan,Tujuan Wisata,Mondoi Kelurahan Muara Bakanoj,"688H+443, Jl. Nasional Tewah - Kuala Kurun, Sei Bakanon, Kec. Permata Intan, Kabupaten Murung Raya, Kalimantan Tengah 73971","Jl. Nasional Tewah - Kuala Kurun, Sei Bakanon, Kec. Permata Intan, Kabupaten Murung Raya",KALIMANTAN TENGAH,73971.0,Indonesia,,,,-0.7847258,114.327788,https://maps.google.com/?cid=0x0:0x510b054a04af3ba5,
perumahan,Inspektur Tempat Tinggal,BENTENG,"Jl. Merdeka, Beriwit, Kec. Murung, Kabupaten Murung Raya, Kalimantan Tengah 73911","Beriwit, Kec. Murung, Kabupaten Murung Raya",KALIMANTAN TENGAH,73911.0,Indonesia,,,,-0.6126882,114.5729436,https://maps.google.com/?cid=0x0:0x772619a44e8d35d3,
perumahan,Pembangunan Perumahan,Perumahan Grand Pesona kalteng,"9H58+8X9, Beriwit, Kec. Murung, Kabupaten Murung Raya, Kalimantan Tengah","Kabupaten Murung Raya, Kalimantan Tengah",KALIMANTAN TENGAH,,Indonesia,85885211121.0,,,-0.6417037,114.5674776,https://maps.google.com/?cid=0x0:0xd919e51d65e7b5fa,
perumahan,Toko Bahan Bangunan,Desa Muara Sumpoi,"9HQW+PCP, Puruk Cahu, Kec. Murung, Kabupaten Murung Raya, Kalimantan Tengah 73911","Puruk Cahu, Kec. Murung, Kabupaten Murung Raya",KALIMANTAN TENGAH,73911.0,Indonesia,,,,-0.6106607,114.5960766,https://maps.google.com/?cid=0x0:0xeab99c5d67ee7e4b,
perumahan,Toko Bahan Bangunan,TOKO WAJAH BARU (BANGUNAN ALAT SPARE PART MESIN TERLENGKAP,"Beriwit, Kec. Murung, Kabupaten Murung Raya, Kalimantan Tengah 73911","Kec. Murung, Kabupaten Murung Raya",KALIMANTAN TENGAH,73911.0,Indonesia,82255453260.0,,,-0.6169916,114.573286,https://maps.google.com/?cid=0x0:0xa12ae7a743d9d5a1,
perumahan,Komplek perumahan,Rumah Sintyaadhaaa,"874X+XP, Tumbang Lahung, Kec. Permata Intan, Kabupaten Murung Raya, Kalimantan Tengah","Kabupaten Murung Raya, Kalimantan Tengah",KALIMANTAN TENGAH,,Indonesia,,,,-0.6925758,114.2993641,https://maps.google.com/?cid=0x0:0x80da09cce6e9c318,
perumahan,Komplek perumahan,Batu mirau ni boss,"989P+7H3, Batu Mirau, Kec. Sungai Babuat, Kabupaten Murung Raya, Kalimantan Tengah 73971","Batu Mirau, Kec. Sungai Babuat, Kabupaten Murung Raya",KALIMANTAN TENGAH,73971.0,Indonesia,,,,-0.6318536,114.3364086,https://maps.google.com/?cid=0x0:0x7b12ba9996c3f5e0,
perumahan,Kompleks Kondominium,rumah sikembar,"9HQ9+4G2, Beriwit, Kec. Murung, Kabupaten Murung Raya, Kalimantan Tengah 73911","Beriwit, Kec. Murung, Kabupaten Murung Raya",KALIMANTAN TENGAH,73911.0,Indonesia,,,,-0.6119702,114.5677277,https://maps.google.com/?cid=0x0:0x5d53f2f67411cc9a,
perumahan,Komplek perumahan,Mess Kejari Murung Raya,"Jl. Ki Hajar Dewantara Kel No.09, Beriwit, Kec. Murung, Kabupaten Murung Raya, Kalimantan Tengah 73911","Beriwit, Kec. Murung, Kabupaten Murung Raya",KALIMANTAN TENGAH,73911.0,Indonesia,,,,-0.6197507,114.5701473,https://maps.google.com/?cid=0x0:0xde185bbca2c1e3b,
perumahan,perumahan,Kec. Permata Intan,"Kabupaten Murung Raya, Kalimantan Tengah","Kabupaten Murung Raya, Kalimantan Tengah",KALIMANTAN TENGAH,,Indonesia,,,,-0.6882915,114.2993068,https://maps.google.com/?cid=0x0:0xbcab85e9f7c10914,
perumahan,perumahan,"Paul,Otik,Tarung,Megan","Jalan untung surapati Gang buntu No.1, Konut, Kec. Tanah Siang, Kabupaten Murung Raya, Kalimantan Tengah 73911","Konut, Kec. Tanah Siang, Kabupaten Murung Raya",KALIMANTAN TENGAH,73911.0,Indonesia,,,,-0.6266343,114.5167463,https://maps.google.com/?cid=0x0:0xdab46cf9e0a9d2a,
perumahan,Kantor Pemerintahan Daerah,DESA KONUT,"9GF7+JP2, Konut, Kec. Tanah Siang, Kabupaten Murung Raya, Kalimantan Tengah 73911","Konut, Kec. Tanah Siang, Kabupaten Murung Raya",KALIMANTAN TENGAH,73911.0,Indonesia,,,,-0.6259833,114.5142679,https://maps.google.com/?cid=0x0:0xd15200595568a5d1,
perumahan,Tujuan Wisata,Tamputuk village,"9HXJ+6H Jemy f, Beriwit, Kec. Murung, Kabupaten Murung Raya, Kalimantan Tengah","Kabupaten Murung Raya, Kalimantan Tengah",KALIMANTAN TENGAH,,Indonesia,,,,-0.6024607,114.5825975,https://maps.google.com/?cid=0x0:0x18cef242eded14df,
perumahan,Komplek perumahan,Toko bapak yanto,"FHVR+JF7, Cangkang, Kec. Tanah Siang, Kabupaten Murung Raya, Kalimantan Tengah","Kabupaten Murung Raya, Kalimantan Tengah",KALIMANTAN TENGAH,,Indonesia,,,,-0.5059516,114.5911796,https://maps.google.com/?cid=0x0:0x470cc55276a90d02,
perumahan,Komplek perumahan,Memel kubirai,"Jl. Cendrawasih No.21, RT.03/RW.01, Puruk Cahu, Kec. Murung, Kabupaten Murung Raya, Kalimantan Tengah 73911","RT.03/RW.01, Puruk Cahu, Kec. Murung, Kabupaten Murung Raya",KALIMANTAN TENGAH,73911.0,Indonesia,,,,-0.6094648,114.5790937,https://maps.google.com/?cid=0x0:0x67960d9d10bfcc27,
perumahan,Kantor Pemerintah,KETUA RT HUNGAN,"9HQC+46Q, Jl. Temanggung Silam, Beriwit, Kec. Murung, Kabupaten Murung Raya, Kalimantan Tengah 73911","Jl. Temanggung Silam, Beriwit, Kec. Murung, Kabupaten Murung Raya",KALIMANTAN TENGAH,73911.0,Indonesia,,,,-0.6121627,114.5706131,https://maps.google.com/?cid=0x0:0x1f78084740c3c353,
perumahan,Kantor Perusahaan,Permata Intan Regency,"Jl. Intan Raya, Cipedes, Kec. Cipedes, Kab. Tasikmalaya, Jawa Barat 46133","Cipedes, Kec. Cipedes, Kab. Tasikmalaya",KALIMANTAN TENGAH,46133.0,Indonesia,81214828877.0,,,-7.3099706,108.2081229,https://maps.google.com/?cid=0x0:0xb972f7d8033dd57b,
perumahan,Komplek perumahan,Bambang B. Tiong,"879V+32V, Tumbang Lahung, Kec. Permata Intan, Kabupaten Murung Raya, Kalimantan Tengah","Kabupaten Murung Raya, Kalimantan Tengah",KALIMANTAN TENGAH,,Indonesia,,,,-0.6822577,114.2925424,https://maps.google.com/?cid=0x0:0xd918717bd936b2b,
perumahan,perumahan,Kalimantan Tengah 73981,"Kabupaten Murung Raya, Kalimantan Tengah","Kabupaten Murung Raya, Kalimantan Tengah",KALIMANTAN TENGAH,,Indonesia,,,,0.1366232,113.9536466,https://maps.google.com/?cid=0x0:0xb765502d3651aeca,
perumahan,Tujuan Wisata,Tumbang naan,"QPPW+MP6, Tumbang Naan, Seribu Riam, Kabupaten Murung Raya, Kalimantan Tengah","Kabupaten Murung Raya, Kalimantan Tengah",KALIMANTAN TENGAH,,Indonesia,,,,-0.2133387,113.7467635,https://maps.google.com/?cid=0x0:0x6f299adbc5084341,
perumahan,perumahan,Tian,"J479+7V3, Tumbang Jojang, Seribu Riam, Kabupaten Murung Raya, Kalimantan Tengah 73981","Tumbang Jojang, Seribu Riam, Kabupaten Murung Raya",KALIMANTAN TENGAH,73981.0,Indonesia,,,,0.6131366,114.1196616,https://maps.google.com/?cid=0x0:0xf45f079cbadb5af9,
perumahan,perumahan,Seribu Riam,"Kabupaten Murung Raya, Kalimantan Tengah","Kabupaten Murung Raya, Kalimantan Tengah",KALIMANTAN TENGAH,,Indonesia,,,,0.0682954,113.8584737,https://maps.google.com/?cid=0x0:0x4c91a5f65de76992,
perumahan,perumahan,Riam damang batu,"4F83+W9, Tumbang Tohan, Seribu Riam, Kabupaten Murung Raya, Kalimantan Tengah","Kabupaten Murung Raya, Kalimantan Tengah",KALIMANTAN TENGAH,,Indonesia,,,,0.1173409,113.4533909,https://maps.google.com/?cid=0x0:0x755d606a01bc636c,
perumahan,Komplek perumahan,Masupa Ria,"F22W+X83, Tumbang Manyarung, Mandau Talawang, Kabupaten Kapuas, Kalimantan Tengah 74581","Tumbang Manyarung, Mandau Talawang, Kabupaten Kapuas",KALIMANTAN TENGAH,74581.0,Indonesia,,,,-0.5476156,114.0457963,https://maps.google.com/?cid=0x0:0x846f4d64310228e2,
perumahan,Perhimpunan Pengembang Perumahan,Camp Bumbun,"3945+F7H, Tumbang Olong, Uut Murung, Kabupaten Murung Raya, Kalimantan Tengah","Kabupaten Murung Raya, Kalimantan Tengah",KALIMANTAN TENGAH,,Indonesia,,,,0.0561881,114.3582251,https://maps.google.com/?cid=0x0:0xd26aed0b002922eb,
perumahan,Pembangun Rumah Kayu,Perkebunan dan Pertanian,"Kebun Eben Kunyi, Tumbang Kunyi, Sumber Barito, Kabupaten Murung Raya, Kalimantan Tengah 73981","Tumbang Kunyi, Sumber Barito, Kabupaten Murung Raya",KALIMANTAN TENGAH,73981.0,Indonesia,85212198798.0,,,-0.3767922,114.2999366,https://maps.google.com/?cid=0x0:0xe1ead1b0d561e1c2,
perumahan,Perhimpunan Pengembang Perumahan,PKM muara joloi,"R2WG+G2J, Muara Joloi I, Seribu Riam, Kabupaten Murung Raya, Kalimantan Tengah","Kabupaten Murung Raya, Kalimantan Tengah",KALIMANTAN TENGAH,,Indonesia,,,,-0.1536533,114.025014,https://maps.google.com/?cid=0x0:0xbe9e9cc069d611d0,
perumahan,Komplek perumahan,Murung raya,"V87M+GM2, Tumbang Olong, Uut Murung, Kabupaten Murung Raya, Kalimantan Tengah","Kabupaten Murung Raya, Kalimantan Tengah",KALIMANTAN TENGAH,,Indonesia,,,,-0.1362346,114.3341364,https://maps.google.com/?cid=0x0:0x7219fb65167571e4,
perumahan,Toko bahan makanan,Rumah joe,"F4PM+5VC, Batu Makap, Sumber Barito, Kabupaten Murung Raya, Kalimantan Tengah 73981","Batu Makap, Sumber Barito, Kabupaten Murung Raya",KALIMANTAN TENGAH,73981.0,Indonesia,,,,-0.5145211,114.1345691,https://maps.google.com/?cid=0x0:0xf170def33f0db19d,
perumahan,Kantor Pemerintah,Desa masao Camp,"F5F4+C2, Tumbang Masao, Sumber Barito, Kabupaten Murung Raya, Kalimantan Tengah","Kabupaten Murung Raya, Kalimantan Tengah",KALIMANTAN TENGAH,,Indonesia,,,,-0.5264231,114.1551164,https://maps.google.com/?cid=0x0:0xbd1a3c4c18a68ec0,
perumahan,perumahan,洧똂洧똌洧또洧똙洧 洧洧똓洧또洧똓,"J584+284, H367F, Tumbang Mulut, Sumber Barito, Kabupaten Murung Raya, Kalimantan Tengah 73981","H367F, Tumbang Mulut, Sumber Barito, Kabupaten Murung Raya",KALIMANTAN TENGAH,73981.0,Indonesia,,,,-0.3849984,114.1558258,https://maps.google.com/?cid=0x0:0xe35945e09c0a5d34,
perumahan,perumahan,Camp ABN,"VW48+86M, Muara Joloi I, Seribu Riam, Kabupaten Murung Raya, Kalimantan Tengah 73981","Muara Joloi I, Seribu Riam, Kabupaten Murung Raya",KALIMANTAN TENGAH,73981.0,Indonesia,,,,-0.144168,113.9155568,https://maps.google.com/?cid=0x0:0x1f68c5b3200a9955,
perumahan,perumahan,Tonrokassi timur,"6W6C+7GP, Sei Pinang, Mandau Talawang, Kabupaten Kapuas, Kalimantan Tengah","Kabupaten Kapuas, Kalimantan Tengah",KALIMANTAN TENGAH,,Indonesia,,,,-0.789275,113.921327,https://maps.google.com/?cid=0x0:0x55ca9d711a26fd5b,
perumahan,Kantor Perusahaan,Muara juloi,"VW37+RMG, Muara Joloi I, Seribu Riam, Kabupaten Murung Raya, Kalimantan Tengah","Kabupaten Murung Raya, Kalimantan Tengah",KALIMANTAN TENGAH,,Indonesia,,,,-0.1454467,113.9141887,https://maps.google.com/?cid=0x0:0x7905d55aee839ae5,
perumahan,Pembangunan Perumahan,Pondok derita,"X8VH+CH6, Tumbang Olong, Uut Murung, Kabupaten Murung Raya, Kalimantan Tengah 73981","Tumbang Olong, Uut Murung, Kabupaten Murung Raya",KALIMANTAN TENGAH,73981.0,Indonesia,,,,-0.006667,114.3284455,https://maps.google.com/?cid=0x0:0xb626985bb400cc6c,
perumahan,Pembangunan Perumahan,isan kamil,"H36P+MM, Tumbang Mulut, Sumber Barito, Kabupaten Murung Raya, Kalimantan Tengah","Kabupaten Murung Raya, Kalimantan Tengah",KALIMANTAN TENGAH,,Indonesia,,,,-0.4377926,114.0868837,https://maps.google.com/?cid=0x0:0xaebea82623f5167c,
perumahan,perumahan,洧똂洧똌洧또洧똙洧 洧洧똓洧또洧똓,"H35M+85V, Tlk. Jolo, Sumber Barito, Kabupaten Murung Raya, Kalimantan Tengah 73981","Tlk. Jolo, Sumber Barito, Kabupaten Murung Raya",KALIMANTAN TENGAH,73981.0,Indonesia,,,,-0.4416291,114.082916,https://maps.google.com/?cid=0x0:0x276e36b13609cfc6,
perumahan,Komplek perumahan,Desa karali,"V87M+GM6, Tumbang Olong, Uut Murung, Kabupaten Murung Raya, Kalimantan Tengah","Kabupaten Murung Raya, Kalimantan Tengah",KALIMANTAN TENGAH,,Indonesia,,,,-0.1362171,114.3341432,https://maps.google.com/?cid=0x0:0x5d4735eb97940462,
perumahan,Komplek perumahan,Sungai Hanyu Kapuas,"F3XF+8XP, Tumbang Kunyi, Sumber Barito, Kabupaten Murung Raya, Kalimantan Tengah 73981","Tumbang Kunyi, Sumber Barito, Kabupaten Murung Raya",KALIMANTAN TENGAH,73981.0,Indonesia,,,,-0.5016569,114.0749392,https://maps.google.com/?cid=0x0:0xc4fc99d189c44bb,
perumahan,perumahan,Herlita,"Q3X2+X2R, Takajung, Seribu Riam, Kabupaten Murung Raya, Kalimantan Tengah","Kabupaten Murung Raya, Kalimantan Tengah",KALIMANTAN TENGAH,,Indonesia,,,,-0.2,114.05,https://maps.google.com/?cid=0x0:0x8765773d2d73ec90,
perumahan,perumahan,Sumber Barito,"Kabupaten Murung Raya, Kalimantan Tengah","Kabupaten Murung Raya, Kalimantan Tengah",KALIMANTAN TENGAH,,Indonesia,,,,-0.341791,114.2390498,https://maps.google.com/?cid=0x0:0xdb7aed4b9b946c56,
perumahan,Pembangun Rumah Kayu,Perkebunan dan Pertanian,"Kebun Eben Kunyi, Tumbang Kunyi, Sumber Barito, Kabupaten Murung Raya, Kalimantan Tengah 73981","Tumbang Kunyi, Sumber Barito, Kabupaten Murung Raya",KALIMANTAN TENGAH,73981.0,Indonesia,85212198798.0,,,-0.3767922,114.2999366,https://maps.google.com/?cid=0x0:0xe1ead1b0d561e1c2,
perumahan,Toko bahan makanan,Rumah joe,"F4PM+5VC, Batu Makap, Sumber Barito, Kabupaten Murung Raya, Kalimantan Tengah 73981","Batu Makap, Sumber Barito, Kabupaten Murung Raya",KALIMANTAN TENGAH,73981.0,Indonesia,,,,-0.5145211,114.1345691,https://maps.google.com/?cid=0x0:0xf170def33f0db19d,
perumahan,Komplek perumahan,Sungai Hanyu Kapuas,"F3XF+8XP, Tumbang Kunyi, Sumber Barito, Kabupaten Murung Raya, Kalimantan Tengah 73981","Tumbang Kunyi, Sumber Barito, Kabupaten Murung Raya",KALIMANTAN TENGAH,73981.0,Indonesia,,,,-0.5016569,114.0749392,https://maps.google.com/?cid=0x0:0xc4fc99d189c44bb,
perumahan,perumahan,洧똂洧똌洧또洧똙洧 洧洧똓洧또洧똓,"H35M+85V, Tlk. Jolo, Sumber Barito, Kabupaten Murung Raya, Kalimantan Tengah 73981","Tlk. Jolo, Sumber Barito, Kabupaten Murung Raya",KALIMANTAN TENGAH,73981.0,Indonesia,,,,-0.4416291,114.082916,https://maps.google.com/?cid=0x0:0x276e36b13609cfc6,
perumahan,Pembangunan Perumahan,Hendra,"H37P+GWG, Tumbang Mulut, Sumber Barito, Kabupaten Murung Raya, Kalimantan Tengah","Kabupaten Murung Raya, Kalimantan Tengah",KALIMANTAN TENGAH,,Indonesia,,,,-0.4361837,114.0873135,https://maps.google.com/?cid=0x0:0xe91f558223d931e6,
perumahan,Kantor Pemerintah,Desa masao Camp,"F5F4+C2, Tumbang Masao, Sumber Barito, Kabupaten Murung Raya, Kalimantan Tengah","Kabupaten Murung Raya, Kalimantan Tengah",KALIMANTAN TENGAH,,Indonesia,,,,-0.5264231,114.1551164,https://maps.google.com/?cid=0x0:0xbd1a3c4c18a68ec0,
perumahan,perumahan,Amai Rus,"H3VG+P2V, Laas Baru, Sumber Barito, Kabupaten Murung Raya, Kalimantan Tengah 73981","Laas Baru, Sumber Barito, Kabupaten Murung Raya",KALIMANTAN TENGAH,73981.0,Indonesia,,,,-0.4056445,114.0750444,https://maps.google.com/?cid=0x0:0x1955aa01ac3f006a,
perumahan,Pembangunan Perumahan,isan kamil,"H36P+MM, Tumbang Mulut, Sumber Barito, Kabupaten Murung Raya, Kalimantan Tengah","Kabupaten Murung Raya, Kalimantan Tengah",KALIMANTAN TENGAH,,Indonesia,,,,-0.4377926,114.0868837,https://maps.google.com/?cid=0x0:0xaebea82623f5167c,
perumahan,perumahan,,,,KALIMANTAN TENGAH,,Indonesia,85929940251.0,,,-2.44565,117.8888,https://maps.google.com/?cid=0x0:0x1a7a712ae1c57631,
perumahan,Komplek perumahan,Deca ciwel,"F656+363, Kalapeh Baru, Sumber Barito, Kabupaten Murung Raya, Kalimantan Tengah","Kabupaten Murung Raya, Kalimantan Tengah",KALIMANTAN TENGAH,,Indonesia,,,,-0.5423614,114.2105379,https://maps.google.com/?cid=0x0:0x17308c6f9ed63082,
perumahan,Komplek perumahan,SEI BABUAT,"F995+P5F, Tumbang Bantian, Kec. Sungai Babuat, Kabupaten Murung Raya, Kalimantan Tengah 73971","Tumbang Bantian, Kec. Sungai Babuat, Kabupaten Murung Raya",KALIMANTAN TENGAH,73971.0,Indonesia,,,,-0.5306856,114.3579131,https://maps.google.com/?cid=0x0:0x1a2635e5b56c6594,
perumahan,perumahan,Kec. Sungai Babuat,"Kabupaten Murung Raya, Kalimantan Tengah","Kabupaten Murung Raya, Kalimantan Tengah",KALIMANTAN TENGAH,,Indonesia,,,,-0.5790762,114.3152452,https://maps.google.com/?cid=0x0:0xd1427b5a363a47e7,
perumahan,Komplek perumahan,Batu mirau ni boss,"989P+7H3, Batu Mirau, Kec. Sungai Babuat, Kabupaten Murung Raya, Kalimantan Tengah 73971","Batu Mirau, Kec. Sungai Babuat, Kabupaten Murung Raya",KALIMANTAN TENGAH,73971.0,Indonesia,,,,-0.6318536,114.3364086,https://maps.google.com/?cid=0x0:0x7b12ba9996c3f5e0,
perumahan,Tujuan Wisata,Rumah Betang Tumbang Apat,"C9VQ+9Q, Tumbang Bantian, Kec. Sungai Babuat, Kabupaten Murung Raya, Kalimantan Tengah","Kabupaten Murung Raya, Kalimantan Tengah",KALIMANTAN TENGAH,,Indonesia,,,,-0.5565432,114.3894603,https://maps.google.com/?cid=0x0:0x95054f41a39579,
perumahan,Komplek perumahan,Desa Tambelum,"99Q9+H6, Tumbang Saan, Kec. Sungai Babuat, Kabupaten Murung Raya, Kalimantan Tengah","Kabupaten Murung Raya, Kalimantan Tengah",KALIMANTAN TENGAH,,Indonesia,,,,-0.6113125,114.3676875,https://maps.google.com/?cid=0x0:0x5a5f9f35cf2469bb,
perumahan,perumahan,Tumbang Apat,"Kec. Sungai Babuat, Kabupaten Murung Raya, Kalimantan Tengah","Kabupaten Murung Raya, Kalimantan Tengah",KALIMANTAN TENGAH,,Indonesia,,,,-0.4271937,114.405449,https://maps.google.com/?cid=0x0:0xd237fd9fe66c1acf,
perumahan,perumahan,Kalimantan Tengah 73961,"Kabupaten Murung Raya, Kalimantan Tengah","Kabupaten Murung Raya, Kalimantan Tengah",KALIMANTAN TENGAH,,Indonesia,,,,-0.1700332,114.5717799,https://maps.google.com/?cid=0x0:0x228b161e8a06fd62,
perumahan,perumahan,Kec. Tanah Siang,"Kabupaten Murung Raya, Kalimantan Tengah","Kabupaten Murung Raya, Kalimantan Tengah",KALIMANTAN TENGAH,,Indonesia,,,,-0.3068862,114.4767423,https://maps.google.com/?cid=0x0:0x1e1ae05a7b3318fa,
perumahan,Komplek perumahan,Toko bapak yanto,"FHVR+JF7, Cangkang, Kec. Tanah Siang, Kabupaten Murung Raya, Kalimantan Tengah","Kabupaten Murung Raya, Kalimantan Tengah",KALIMANTAN TENGAH,,Indonesia,,,,-0.5059516,114.5911796,https://maps.google.com/?cid=0x0:0x470cc55276a90d02,
perumahan,Komplek perumahan,Rumah RiYoN,"FJF7+V8H, Tabulang, Kec. Tanah Siang, Kabupaten Murung Raya, Kalimantan Tengah 73911","Tabulang, Kec. Tanah Siang, Kabupaten Murung Raya",KALIMANTAN TENGAH,73911.0,Indonesia,,,,-0.5253067,114.6133515,https://maps.google.com/?cid=0x0:0xed634a4146a3d323,
perumahan,Komplek perumahan,Desa beralang,"Jln desa No.rt.01, Beralang, Kec. Laung Tuhup, Kabupaten Murung Raya, Kalimantan Tengah 73961","Beralang, Kec. Laung Tuhup, Kabupaten Murung Raya",KALIMANTAN TENGAH,73961.0,Indonesia,,,,-0.2680361,114.6371046,https://maps.google.com/?cid=0x0:0x76a66025eb05508,
perumahan,Perhimpunan Pengembang Perumahan,Desa Batu Karang,"MMQF+P3H, Jl.Sultan Matseman, Batu Karang, Kec. Laung Tuhup, Kabupaten Murung Raya, Kalimantan Tengah 73961","Jl.Sultan Matseman, Batu Karang, Kec. Laung Tuhup, Kabupaten Murung Raya",KALIMANTAN TENGAH,73961.0,Indonesia,,,,-0.3106809,114.6727315,https://maps.google.com/?cid=0x0:0x7f9a3e0e5daa648b,
perumahan,Komplek perumahan,Desa karali,"V87M+GM6, Tumbang Olong, Uut Murung, Kabupaten Murung Raya, Kalimantan Tengah","Kabupaten Murung Raya, Kalimantan Tengah",KALIMANTAN TENGAH,,Indonesia,,,,-0.1362171,114.3341432,https://maps.google.com/?cid=0x0:0x5d4735eb97940462,
perumahan,Perhimpunan Pengembang Perumahan,Dirung pinang,"V87M+GM6, Tumbang Olong, Uut Murung, Kabupaten Murung Raya, Kalimantan Tengah","Kabupaten Murung Raya, Kalimantan Tengah",KALIMANTAN TENGAH,,Indonesia,,,,-0.1362171,114.3341432,https://maps.google.com/?cid=0x0:0xfbfb86f7b3988dbf,
perumahan,Balai Pertemuan Desa,tumbang bondang,"PPHJ+CC, Penda Siron, Kec. Laung Tuhup, Kabupaten Murung Raya, Kalimantan Tengah","Kabupaten Murung Raya, Kalimantan Tengah",KALIMANTAN TENGAH,,Indonesia,,,,-0.271404,114.731113,https://maps.google.com/?cid=0x0:0xe8e8dfdb411587d2,
perumahan,Komplek perumahan,Umbong berjaya,"RMWR+V67, Tumbang Tonduk, Kec. Laung Tuhup, Kabupaten Murung Raya, Kalimantan Tengah","Kabupaten Murung Raya, Kalimantan Tengah",KALIMANTAN TENGAH,,Indonesia,,,,-0.1528474,114.6905436,https://maps.google.com/?cid=0x0:0x5ee37479e59163a4,
perumahan,Komplek perumahan,Rumah Cik Bodta,"RQWP+W62, Penda Siron, Kec. Laung Tuhup, Kabupaten Murung Raya, Kalimantan Tengah 73991","Penda Siron, Kec. Laung Tuhup, Kabupaten Murung Raya",KALIMANTAN TENGAH,73991.0,Indonesia,,,,-0.1527306,114.7855271,https://maps.google.com/?cid=0x0:0xaa4b326a0248a8df,
perumahan,Komplek perumahan,MUWUN,"GG6G+GV8, Muwun, Kec. Tanah Siang, Kabupaten Murung Raya, Kalimantan Tengah 73971","Muwun, Kec. Tanah Siang, Kabupaten Murung Raya",KALIMANTAN TENGAH,73971.0,Indonesia,,,,-0.4887053,114.5272129,https://maps.google.com/?cid=0x0:0x8375979c5a64d491,
perumahan,Komplek perumahan,Desa Mahanyan,"GG6H+XH, Muwun, Kec. Tanah Siang, Kabupaten Murung Raya, Kalimantan Tengah","Kabupaten Murung Raya, Kalimantan Tengah",KALIMANTAN TENGAH,,Indonesia,,,,-0.4875034,114.5289473,https://maps.google.com/?cid=0x0:0x6f75f66df0119ca3,
perumahan,Perhimpunan Pengembang Perumahan,Muara jaan,"V87M+GM6, Tumbang Olong, Uut Murung, Kabupaten Murung Raya, Kalimantan Tengah","Kabupaten Murung Raya, Kalimantan Tengah",KALIMANTAN TENGAH,,Indonesia,,,,-0.1362171,114.3341432,https://maps.google.com/?cid=0x0:0x861699ad30fbd98a,
perumahan,Pembangunan Perumahan,Res area Bp emon,"JQ34+FHM, Lakutan, Kec. Laung Tuhup, Kabupaten Murung Raya, Kalimantan Tengah 73991","Lakutan, Kec. Laung Tuhup, Kabupaten Murung Raya",KALIMANTAN TENGAH,73991.0,Indonesia,,,,-0.3962882,114.7564244,https://maps.google.com/?cid=0x0:0xd9b516aae4db8121,
perumahan,Pembangun Rumah Kayu,Perkebunan dan Pertanian,"Kebun Eben Kunyi, Tumbang Kunyi, Sumber Barito, Kabupaten Murung Raya, Kalimantan Tengah 73981","Tumbang Kunyi, Sumber Barito, Kabupaten Murung Raya",KALIMANTAN TENGAH,73981.0,Indonesia,85212198798.0,,,-0.3767922,114.2999366,https://maps.google.com/?cid=0x0:0xe1ead1b0d561e1c2,
perumahan,perumahan,Penda Siron,"MQV3+GJ9, Penda Siron, Kec. Laung Tuhup, Kabupaten Murung Raya, Kalimantan Tengah","Kabupaten Murung Raya, Kalimantan Tengah",KALIMANTAN TENGAH,,Indonesia,,,,-0.3062082,114.7541184,https://maps.google.com/?cid=0x0:0xd7aacd63c9584645,
perumahan,Perhimpunan Pengembang Perumahan,Camp Bumbun,"3945+F7H, Tumbang Olong, Uut Murung, Kabupaten Murung Raya, Kalimantan Tengah","Kabupaten Murung Raya, Kalimantan Tengah",KALIMANTAN TENGAH,,Indonesia,,,,0.0561881,114.3582251,https://maps.google.com/?cid=0x0:0xd26aed0b002922eb,
perumahan,Taman,Bana narui,"HMX3+QX3, Narui, Kec. Laung Tuhup, Kabupaten Murung Raya, Kalimantan Tengah","Kabupaten Murung Raya, Kalimantan Tengah",KALIMANTAN TENGAH,,Indonesia,,,,-0.40062,114.6549185,https://maps.google.com/?cid=0x0:0x3dfcfeae80b67e9,
perumahan,Pembangunan Perumahan,muara laung 1,"HVH4+RW, Kohong, Kec. Barito Tuhup Raya, Kabupaten Murung Raya, Kalimantan Tengah","Kabupaten Murung Raya, Kalimantan Tengah",KALIMANTAN TENGAH,,Indonesia,,,,-0.4204693,114.8573099,https://maps.google.com/?cid=0x0:0xd12c6036490cad53,
perumahan,perumahan,Tanah Siang Sel.,"Kabupaten Murung Raya, Kalimantan Tengah","Kabupaten Murung Raya, Kalimantan Tengah",KALIMANTAN TENGAH,,Indonesia,,,,-0.6787755,114.4533539,https://maps.google.com/?cid=0x0:0x563ce9dc5860bfa6,
perumahan,Kantor Pemerintahan Daerah,DESA KONUT,"9GF7+JP2, Konut, Kec. Tanah Siang, Kabupaten Murung Raya, Kalimantan Tengah 73911","Konut, Kec. Tanah Siang, Kabupaten Murung Raya",KALIMANTAN TENGAH,73911.0,Indonesia,,,,-0.6259833,114.5142679,https://maps.google.com/?cid=0x0:0xd15200595568a5d1,
perumahan,perumahan,Kantor,"8FFW+H7, Datah Kotou, Tanah Siang Sel., Kabupaten Murung Raya, Kalimantan Tengah","Kabupaten Murung Raya, Kalimantan Tengah",KALIMANTAN TENGAH,,Indonesia,,,,-0.6761112,114.4957353,https://maps.google.com/?cid=0x0:0xf50bf2dfdd5948a3,
perumahan,Komplek perumahan,Totok batu datah parang,"9GCR+GFM, Sungai Lunuk, Kec. Tanah Siang, Kabupaten Murung Raya, Kalimantan Tengah 73911","Sungai Lunuk, Kec. Tanah Siang, Kabupaten Murung Raya",KALIMANTAN TENGAH,73911.0,Indonesia,,,,-0.628671,114.5411798,https://maps.google.com/?cid=0x0:0xb5a1c82a1d29bc2c,
perumahan,Komplek perumahan,NURUL KRISTIANI,"8FCJ+2QV, Datah Kotou, Tanah Siang Sel., Kabupaten Murung Raya, Kalimantan Tengah 73971","Datah Kotou, Tanah Siang Sel., Kabupaten Murung Raya",KALIMANTAN TENGAH,73971.0,Indonesia,,,,-0.6797552,114.4817284,https://maps.google.com/?cid=0x0:0x68af4af4205a1a7e,
perumahan,Komplek perumahan,Rumah (HAKIM MUHTARAM),"8F92+2MP, Jl. Datah Kayu Duhung, Datah Kotou, Tanah Siang Sel., Kabupaten Murung Raya, Kalimantan Tengah 73971","Jl. Datah Kayu Duhung, Datah Kotou, Tanah Siang Sel., Kabupaten Murung Raya",KALIMANTAN TENGAH,73971.0,Indonesia,,,,-0.6825658,114.450031,https://maps.google.com/?cid=0x0:0x61cab50022afeb9d,
perumahan,Pembangunan Perumahan,Batu belah,"8FG5+WH7 Km 2, Dirung Lingkin, Tanah Siang Sel., Kabupaten Murung Raya, Kalimantan Tengah","Kabupaten Murung Raya, Kalimantan Tengah",KALIMANTAN TENGAH,,Indonesia,,,,-0.6727096,114.4589201,https://maps.google.com/?cid=0x0:0xa029825e9d22e0fb,
perumahan,Komplek perumahan,RUMAH KRISTIN PURUK CAHU,"9G9X+W82, Jl. Kolonel Untung Surapati, Sungai Lunuk, Kec. Tanah Siang, Kabupaten Murung Raya, Kalimantan Tengah 73911","Jl. Kolonel Untung Surapati, Sungai Lunuk, Kec. Tanah Siang, Kabupaten Murung Raya",KALIMANTAN TENGAH,73911.0,Indonesia,,,,-0.6302316,114.5482676,https://maps.google.com/?cid=0x0:0x48e153c1304888a7,
perumahan,Komplek perumahan,Rumah andung buana,"8HX6+4CG, Jl. Lintas Kalimantan Poros Tengah, Beriwit, Tanah Siang Sel., Kabupaten Murung Raya, Kalimantan Tengah 73911","Jl. Lintas Kalimantan Poros Tengah, Beriwit, Tanah Siang Sel., Kabupaten Murung Raya",KALIMANTAN TENGAH,73911.0,Indonesia,,,,-0.651661,114.560955,https://maps.google.com/?cid=0x0:0x5f0d161f34466c3a,
perumahan,Pusat Perbelanjaan,Km4,"8FC3+F8Q, Datah Kotou, Tanah Siang Sel., Kabupaten Murung Raya, Kalimantan Tengah","Kabupaten Murung Raya, Kalimantan Tengah",KALIMANTAN TENGAH,,Indonesia,,,,-0.6787755,114.4533539,https://maps.google.com/?cid=0x0:0xe2db10ad7b578f3,
perumahan,Komplek perumahan,Rumah Yuky,"8CCW+MG9, Jln SDN Kambang Harapan, Puruk Kambang, Tanah Siang Sel., Kabupaten Murung Raya, Kalimantan Tengah","Kabupaten Murung Raya, Kalimantan Tengah",KALIMANTAN TENGAH,,Indonesia,,,,-0.6783409,114.4463659,https://maps.google.com/?cid=0x0:0xa47fe23dbdda9f10,
perumahan,Komplek perumahan,Rumah tanjung,"8HFC+Q2Q, Bahitom, Kec. Murung, Kabupaten Murung Raya, Kalimantan Tengah","Kabupaten Murung Raya, Kalimantan Tengah",KALIMANTAN TENGAH,,Indonesia,,,,-0.6755349,114.5701111,https://maps.google.com/?cid=0x0:0x2e966fe6f9de89f5,
perumahan,Pembangunan Perumahan,Pemukiman warga,"8CWQ+GX7, Olong Hanangan, Tanah Siang Sel., Kabupaten Murung Raya, Kalimantan Tengah","Kabupaten Murung Raya, Kalimantan Tengah",KALIMANTAN TENGAH,,Indonesia,,,,-0.6537236,114.4399315,https://maps.google.com/?cid=0x0:0xe55c1e491717a8f0,
perumahan,Pembangunan Perumahan,Dirung,"79V7+XX, Dirung, Kec. Murung, Kabupaten Murung Raya, Kalimantan Tengah","Kabupaten Murung Raya, Kalimantan Tengah",KALIMANTAN TENGAH,,Indonesia,,,,-0.7051205,114.3648873,https://maps.google.com/?cid=0x0:0x52c749c01945b169,
perumahan,Pembangunan Perumahan,Komplek Perumahan Pemda Murung Raya,"8HR4+5CH, Jl. Workshop PU, Beriwit, Kec. Murung, Kabupaten Murung Raya, Kalimantan Tengah 73911","Jl. Workshop PU, Beriwit, Kec. Murung, Kabupaten Murung Raya",KALIMANTAN TENGAH,73911.0,Indonesia,,,,-0.6595631,114.5560985,https://maps.google.com/?cid=0x0:0x1e117e5f5e738b92,
perumahan,Pembangunan Perumahan,Kenan's,"Jl. Saripoi No.RT.003, Konut, Kec. Tanah Siang, Kabupaten Murung Raya, Kalimantan Tengah","Kabupaten Murung Raya, Kalimantan Tengah",KALIMANTAN TENGAH,,Indonesia,,,,-0.6225519,114.5165267,https://maps.google.com/?cid=0x0:0x2c9db3142fe140bf,
perumahan,Dewan,Kompleks Perumahan DPRD,"9H9F+7FP, Beriwit, Kec. Murung, Kabupaten Murung Raya, Kalimantan Tengah 73911","Beriwit, Kec. Murung, Kabupaten Murung Raya",KALIMANTAN TENGAH,73911.0,Indonesia,,,,-0.6317765,114.573718,https://maps.google.com/?cid=0x0:0xde7f3d630cc8bb48,
perumahan,Komplek perumahan,Rumah arul,"9GGF+7X, Konut, Kec. Tanah Siang, Kabupaten Murung Raya, Kalimantan Tengah","Kabupaten Murung Raya, Kalimantan Tengah",KALIMANTAN TENGAH,,Indonesia,,,,-0.624287,114.524878,https://maps.google.com/?cid=0x0:0xb40cc84d120c8991,
perumahan,Pembangunan Perumahan,Rino,"9H55+3M3, Beriwit, Kec. Murung, Kabupaten Murung Raya, Kalimantan Tengah 73911","Beriwit, Kec. Murung, Kabupaten Murung Raya",KALIMANTAN TENGAH,73911.0,Indonesia,,,,-0.6423576,114.5591704,https://maps.google.com/?cid=0x0:0xfc3891ca328b97ac,
perumahan,Perumahan,Perumahan Pulo Basan Asri 2,"9H2G+R5J, Jl. Pulo Basan, RT.005/RW.002, Beriwit, Kec. Murung, Kabupaten Murung Raya, Kalimantan Tengah 73911","Jl. Pulo Basan, RT.005/RW.002, Beriwit, Kec. Murung, Kabupaten Murung Raya",KALIMANTAN TENGAH,73911.0,Indonesia,81210129968.0,,,-0.6479164,114.5754031,https://maps.google.com/?cid=0x0:0xe7f0f7140f1e11b,
perumahan,Perhimpunan Pengembang Perumahan,Rumah Yusing,"Gg. Harmoni No.1, Puruk Cahu, Kec. Murung, Kabupaten Murung Raya, Kalimantan Tengah 73911","Puruk Cahu, Kec. Murung, Kabupaten Murung Raya",KALIMANTAN TENGAH,73911.0,Indonesia,,,,-0.6537317,114.5757656,https://maps.google.com/?cid=0x0:0x3c822046d88624fd,
perumahan,Gedung Apartemen,Rumah Tiok (Alamsyah),"Jl. Kolonel Untung Surapati No.10, RT.2/RW.2, Sungai Lunuk, Kec. Tanah Siang, Kabupaten Murung Raya, Kalimantan Tengah 73961","RT.2/RW.2, Sungai Lunuk, Kec. Tanah Siang, Kabupaten Murung Raya",KALIMANTAN TENGAH,73961.0,Indonesia,,,,-0.6277447,114.5437095,https://maps.google.com/?cid=0x0:0x2bd336cf6a6121c2,
perumahan,Komplek perumahan,Rumah Ahmadi tatoy,"8H7J+VGM, Bahitom, Kec. Murung, Kabupaten Murung Raya, Kalimantan Tengah","Kabupaten Murung Raya, Kalimantan Tengah",KALIMANTAN TENGAH,,Indonesia,,,,-0.6852899,114.5813102,https://maps.google.com/?cid=0x0:0xf997325e720d52b0,
perumahan,perumahan,Kalimantan Tengah 73981,"Kabupaten Murung Raya, Kalimantan Tengah","Kabupaten Murung Raya, Kalimantan Tengah",KALIMANTAN TENGAH,,Indonesia,,,,0.1366232,113.9536466,https://maps.google.com/?cid=0x0:0xb765502d3651aeca,
perumahan,Komplek perumahan,Murung raya,"V87M+GM2, Tumbang Olong, Uut Murung, Kabupaten Murung Raya, Kalimantan Tengah","Kabupaten Murung Raya, Kalimantan Tengah",KALIMANTAN TENGAH,,Indonesia,,,,-0.1362346,114.3341364,https://maps.google.com/?cid=0x0:0x7219fb65167571e4,
perumahan,Pembangunan Perumahan,Pondok derita,"X8VH+CH6, Tumbang Olong, Uut Murung, Kabupaten Murung Raya, Kalimantan Tengah 73981","Tumbang Olong, Uut Murung, Kabupaten Murung Raya",KALIMANTAN TENGAH,73981.0,Indonesia,,,,-0.006667,114.3284455,https://maps.google.com/?cid=0x0:0xb626985bb400cc6c,
perumahan,Kantor Pemerintah,Desa Tumbang Tujang,"7CWM+X8W, Tumbang Tujang, Uut Murung, Kabupaten Murung Raya, Kalimantan Tengah","Kabupaten Murung Raya, Kalimantan Tengah",KALIMANTAN TENGAH,,Indonesia,,,,0.2974791,114.4333336,https://maps.google.com/?cid=0x0:0xb0124298b3f112e2,
perumahan,Komplek perumahan,Sungai Hanyu Kapuas,"F3XF+8XP, Tumbang Kunyi, Sumber Barito, Kabupaten Murung Raya, Kalimantan Tengah 73981","Tumbang Kunyi, Sumber Barito, Kabupaten Murung Raya",KALIMANTAN TENGAH,73981.0,Indonesia,,,,-0.5016569,114.0749392,https://maps.google.com/?cid=0x0:0xc4fc99d189c44bb,
perumahan,Tujuan Wisata,Tumbang naan,"QPPW+MP6, Tumbang Naan, Seribu Riam, Kabupaten Murung Raya, Kalimantan Tengah","Kabupaten Murung Raya, Kalimantan Tengah",KALIMANTAN TENGAH,,Indonesia,,,,-0.2133387,113.7467635,https://maps.google.com/?cid=0x0:0x6f299adbc5084341,
perumahan,perumahan,洧똂洧똌洧또洧똙洧 洧洧똓洧또洧똓,"J584+284, H367F, Tumbang Mulut, Sumber Barito, Kabupaten Murung Raya, Kalimantan Tengah 73981","H367F, Tumbang Mulut, Sumber Barito, Kabupaten Murung Raya",KALIMANTAN TENGAH,73981.0,Indonesia,,,,-0.3849984,114.1558258,https://maps.google.com/?cid=0x0:0xe35945e09c0a5d34,
perumahan,Pembangun Rumah Kayu,Perkebunan dan Pertanian,"Kebun Eben Kunyi, Tumbang Kunyi, Sumber Barito, Kabupaten Murung Raya, Kalimantan Tengah 73981","Tumbang Kunyi, Sumber Barito, Kabupaten Murung Raya",KALIMANTAN TENGAH,73981.0,Indonesia,85212198798.0,,,-0.3767922,114.2999366,https://maps.google.com/?cid=0x0:0xe1ead1b0d561e1c2,
perumahan,perumahan,洧똂洧똌洧또洧똙洧 洧洧똓洧또洧똓,"H35M+85V, Tlk. Jolo, Sumber Barito, Kabupaten Murung Raya, Kalimantan Tengah 73981","Tlk. Jolo, Sumber Barito, Kabupaten Murung Raya",KALIMANTAN TENGAH,73981.0,Indonesia,,,,-0.4416291,114.082916,https://maps.google.com/?cid=0x0:0x276e36b13609cfc6,
perumahan,Dewan,Kompleks Perumahan DPRD,"9H9F+7FP, Beriwit, Kec. Murung, Kabupaten Murung Raya, Kalimantan Tengah 73911","Beriwit, Kec. Murung, Kabupaten Murung Raya",KALIMANTAN TENGAH,73911.0,Indonesia,,,,-0.6317765,114.573718,https://maps.google.com/?cid=0x0:0xde7f3d630cc8bb48,
perumahan,Perhimpunan Pengembang Perumahan,Desa Parahau Baru,"V3QH+GV, Muara Joloi II, Seribu Riam, Kabupaten Murung Raya, Kalimantan Tengah","Kabupaten Murung Raya, Kalimantan Tengah",KALIMANTAN TENGAH,,Indonesia,,,,-0.1111875,114.0796875,https://maps.google.com/?cid=0x0:0x14ea1bfeda76ea59,
perumahan,perumahan,,,,KALIMANTAN TENGAH,,Indonesia,85929940251.0,,,-2.44565,117.8888,https://maps.google.com/?cid=0x0:0x1a7a712ae1c57631,
perumahan,Komplek perumahan,Masupa Ria,"F22W+X83, Tumbang Manyarung, Mandau Talawang, Kabupaten Kapuas, Kalimantan Tengah 74581","Tumbang Manyarung, Mandau Talawang, Kabupaten Kapuas",KALIMANTAN TENGAH,74581.0,Indonesia,,,,-0.5476156,114.0457963,https://maps.google.com/?cid=0x0:0x846f4d64310228e2,
perumahan,perumahan,Ahavid family,"CM45+2XM, Tumbang Tujang, Uut Murung, Kabupaten Murung Raya, Kalimantan Tengah","Kabupaten Murung Raya, Kalimantan Tengah",KALIMANTAN TENGAH,,Indonesia,,,,0.4050883,114.6599226,https://maps.google.com/?cid=0x0:0x51185117e5fce734,
perumahan,perumahan,Amai Rus,"H3VG+P2V, Laas Baru, Sumber Barito, Kabupaten Murung Raya, Kalimantan Tengah 73981","Laas Baru, Sumber Barito, Kabupaten Murung Raya",KALIMANTAN TENGAH,73981.0,Indonesia,,,,-0.4056445,114.0750444,https://maps.google.com/?cid=0x0:0x1955aa01ac3f006a,
perumahan,Perumahan,Perumahan Pulo Basan Asri 2,"9H2G+R5J, Jl. Pulo Basan, RT.005/RW.002, Beriwit, Kec. Murung, Kabupaten Murung Raya, Kalimantan Tengah 73911","Jl. Pulo Basan, RT.005/RW.002, Beriwit, Kec. Murung, Kabupaten Murung Raya",KALIMANTAN TENGAH,73911.0,Indonesia,81210129968.0,,,-0.6479164,114.5754031,https://maps.google.com/?cid=0x0:0xe7f0f7140f1e11b,
perumahan,perumahan,Tian,"J479+7V3, Tumbang Jojang, Seribu Riam, Kabupaten Murung Raya, Kalimantan Tengah 73981","Tumbang Jojang, Seribu Riam, Kabupaten Murung Raya",KALIMANTAN TENGAH,73981.0,Indonesia,,,,0.6131366,114.1196616,https://maps.google.com/?cid=0x0:0xf45f079cbadb5af9,
perumahan,Perhimpunan Pengembang Perumahan,Muara jaan,"V87M+GM6, Tumbang Olong, Uut Murung, Kabupaten Murung Raya, Kalimantan Tengah","Kabupaten Murung Raya, Kalimantan Tengah",KALIMANTAN TENGAH,,Indonesia,,,,-0.1362171,114.3341432,https://maps.google.com/?cid=0x0:0x861699ad30fbd98a,
perumahan,Toko bahan makanan,Rumah joe,"F4PM+5VC, Batu Makap, Sumber Barito, Kabupaten Murung Raya, Kalimantan Tengah 73981","Batu Makap, Sumber Barito, Kabupaten Murung Raya",KALIMANTAN TENGAH,73981.0,Indonesia,,,,-0.5145211,114.1345691,https://maps.google.com/?cid=0x0:0xf170def33f0db19d,
perumahan,Pembangunan Perumahan,Komplek Perumahan Pemda Murung Raya,"8HR4+5CH, Jl. Workshop PU, Beriwit, Kec. Murung, Kabupaten Murung Raya, Kalimantan Tengah 73911","Jl. Workshop PU, Beriwit, Kec. Murung, Kabupaten Murung Raya",KALIMANTAN TENGAH,73911.0,Indonesia,,,,-0.6595631,114.5560985,https://maps.google.com/?cid=0x0:0x1e117e5f5e738b92,
perumahan,Perhimpunan Pengembang Perumahan,Dirung pinang,"V87M+GM6, Tumbang Olong, Uut Murung, Kabupaten Murung Raya, Kalimantan Tengah","Kabupaten Murung Raya, Kalimantan Tengah",KALIMANTAN TENGAH,,Indonesia,,,,-0.1362171,114.3341432,https://maps.google.com/?cid=0x0:0xfbfb86f7b3988dbf,
perumahan,Komplek perumahan,Desa karali,"V87M+GM6, Tumbang Olong, Uut Murung, Kabupaten Murung Raya, Kalimantan Tengah","Kabupaten Murung Raya, Kalimantan Tengah",KALIMANTAN TENGAH,,Indonesia,,,,-0.1362171,114.3341432,https://maps.google.com/?cid=0x0:0x5d4735eb97940462,
perumahan,Perumahan,RumSing kec. Uut Murung,"9H44+53X, Beriwit, Kec. Murung, Kabupaten Murung Raya, Kalimantan Tengah 73911","Beriwit, Kec. Murung, Kabupaten Murung Raya",KALIMANTAN TENGAH,73911.0,Indonesia,,,,-0.6445167,114.5552498,https://maps.google.com/?cid=0x0:0xecffbeadc9c7a0a7,
perumahan,Pembangunan Perumahan,Hendra,"H37P+GWG, Tumbang Mulut, Sumber Barito, Kabupaten Murung Raya, Kalimantan Tengah","Kabupaten Murung Raya, Kalimantan Tengah",KALIMANTAN TENGAH,,Indonesia,,,,-0.4361837,114.0873135,https://maps.google.com/?cid=0x0:0xe91f558223d931e6,
