Category,Real Category,Business Name,Address,City,State,Postal Code,Country,Phone,Email,Website,Latitude,Longitude,Map Link,Details Link
building materials,building materials,Sulawesi Tenggara 93353,Sulawesi Tenggara,Sulawesi Tenggara,SULAWESI TENGGARA,,Indonesia,,,,-3.2548527,121.7195459,https://maps.google.com/?cid=0x0:0x9fb3fe070f9105ac,
building materials,Toko Bahan Bangunan,Toko Sumber Rezky,"F4CM+993, Andowia, Kec. Andowia, Kabupaten Konawe Utara, Sulawesi Tenggara","Kabupaten Konawe Utara, Sulawesi Tenggara",SULAWESI TENGGARA,,Indonesia,,,,-3.5293012,122.133662,https://maps.google.com/?cid=0x0:0x7801e5871154e4b5,
building materials,Toko Bahan Bangunan,Tk. Usaha Rappang Lamonae,"Q49V+RJ4, Jl. Trans Sulawesi, Lamonae, Kec. Wiwirano, Kabupaten Konawe Utara, Sulawesi Tenggara 93353","Jl. Trans Sulawesi, Lamonae, Kec. Wiwirano, Kabupaten Konawe Utara",SULAWESI TENGGARA,93353.0,Indonesia,,,,-3.2304967,122.1440837,https://maps.google.com/?cid=0x0:0xbcf9c375bb0de462,
building materials,Toko Bahan Bangunan,TOKO PRATIWI ASINUA,"Asinua, Kec. Unaaha, Kabupaten Konawe, Sulawesi Tenggara 93431","Kec. Unaaha, Kabupaten Konawe",SULAWESI TENGGARA,93431.0,Indonesia, 082246877366,,,-3.8546719,122.0713813,https://maps.google.com/?cid=0x0:0x68640238fc70002d,
building materials,Toko Bahan Bangunan,Toko Asera Jaya,"Jl. Pelabuhan No.16, Labungga, Kec. Andowia, Kabupaten Konawe Utara, Sulawesi Tenggara 93353","Labungga, Kec. Andowia, Kabupaten Konawe Utara",SULAWESI TENGGARA,93353.0,Indonesia, 085241994185,,,-3.5143528,122.1402996,https://maps.google.com/?cid=0x0:0x5d9187ed14ebf8a4,
building materials,Toko Bahan Bangunan,CV. MAKMUR JAYA STEEL ASERA,"F48Q+V44, Jl. Poros Bungku Sel. - Kendari, Lamondowo, Kec. Andowia, Kabupaten Konawe Utara, Sulawesi Tenggara 93353","Jl. Poros Bungku Sel. - Kendari, Lamondowo, Kec. Andowia, Kabupaten Konawe Utara",SULAWESI TENGGARA,93353.0,Indonesia,,,,-3.5328795,122.1378491,https://maps.google.com/?cid=0x0:0x9a3ff939ff584af5,
building materials,Toko Bahan Bangunan,Toko Savior,"Lahimbua, Kec. Andowia, Kabupaten Konawe Utara, Sulawesi Tenggara 93353","Kec. Andowia, Kabupaten Konawe Utara",SULAWESI TENGGARA,93353.0,Indonesia,,,,-3.5443464,122.1362703,https://maps.google.com/?cid=0x0:0xfd4d1c0d2c84ac56,
building materials,building materials,BATAKO ANGGOEYA,,,SULAWESI TENGGARA,,Indonesia, 081913533832,,,-4.03362,122.561604,https://maps.google.com/?cid=0x0:0x4c884189ca778bbe,
building materials,Toko Bahan Bangunan,Toko Bintang perkasa,"F4CM+97J, Andowia, Kec. Andowia, Kabupaten Konawe Utara, Sulawesi Tenggara","Kabupaten Konawe Utara, Sulawesi Tenggara",SULAWESI TENGGARA,,Indonesia,,,,-3.5290472,122.1331285,https://maps.google.com/?cid=0x0:0x335fc4006d33e278,
building materials,Toko Bahan Bangunan,Toko bahan bangunan,"M52J+QXP, Unnamed Road, Mataiwoi, Kec. Andoolo, Kabupaten Konawe Selatan, Sulawesi Tenggara 93819","Unnamed Road, Mataiwoi, Kec. Andoolo, Kabupaten Konawe Selatan",SULAWESI TENGGARA,93819.0,Indonesia,,,,-4.348029,122.1824396,https://maps.google.com/?cid=0x0:0x6eac64bf582c5bd2,
building materials,Toko Bahan Bangunan,Toko Bangunan Iswan,"G6W4+XX3, Asingi, Kec. Tinanggea, Kabupaten Konawe Selatan, Sulawesi Tenggara 93885","Asingi, Kec. Tinanggea, Kabupaten Konawe Selatan",SULAWESI TENGGARA,93885.0,Indonesia,,,,-4.4526036,122.2074163,https://maps.google.com/?cid=0x0:0xac4f803932d5aa50,
building materials,Toko Swalayan,Toko Wahyu mandiri,"Langgomea, Kec. Uepai, Kabupaten Konawe, Sulawesi Tenggara 93464","Kec. Uepai, Kabupaten Konawe",SULAWESI TENGGARA,93464.0,Indonesia, 085397990203,,,-3.9221796,122.0491821,https://maps.google.com/?cid=0x0:0x2be9f83842718045,
building materials,Toko Bahan Bangunan,Toko Asera jaya 2,"F4H8+F5W, Mataiwoi, Kec. Andowia, Kabupaten Konawe Utara, Sulawesi Tenggara","Kabupaten Konawe Utara, Sulawesi Tenggara",SULAWESI TENGGARA,,Indonesia,,,,-3.5212547,122.1154578,https://maps.google.com/?cid=0x0:0x5f18f429ed96ca00,
building materials,building materials,Asera,"Asemi Nunulai, Kec. Asera, Kabupaten Konawe Utara, Sulawesi Tenggara","Kabupaten Konawe Utara, Sulawesi Tenggara",SULAWESI TENGGARA,,Indonesia,,,,-3.392804,121.749397,https://maps.google.com/?cid=0x0:0x8f84b31c6568f881,
building materials,Toko Bahan Bangunan,Toko Asera Jaya,"Jl. Pelabuhan No.16, Labungga, Kec. Andowia, Kabupaten Konawe Utara, Sulawesi Tenggara 93353","Labungga, Kec. Andowia, Kabupaten Konawe Utara",SULAWESI TENGGARA,93353.0,Indonesia, 085241994185,,,-3.5143528,122.1402996,https://maps.google.com/?cid=0x0:0x5d9187ed14ebf8a4,
building materials,Toko Bahan Bangunan,CV. MAKMUR JAYA STEEL ASERA,"F48Q+V44, Jl. Poros Bungku Sel. - Kendari, Lamondowo, Kec. Andowia, Kabupaten Konawe Utara, Sulawesi Tenggara 93353","Jl. Poros Bungku Sel. - Kendari, Lamondowo, Kec. Andowia, Kabupaten Konawe Utara",SULAWESI TENGGARA,93353.0,Indonesia,,,,-3.5328795,122.1378491,https://maps.google.com/?cid=0x0:0x9a3ff939ff584af5,
building materials,Toko Bahan Bangunan,Toko Bangunan Iswan,"G6W4+XX3, Asingi, Kec. Tinanggea, Kabupaten Konawe Selatan, Sulawesi Tenggara 93885","Asingi, Kec. Tinanggea, Kabupaten Konawe Selatan",SULAWESI TENGGARA,93885.0,Indonesia,,,,-4.4526036,122.2074163,https://maps.google.com/?cid=0x0:0xac4f803932d5aa50,
building materials,Toko Bahan Bangunan,Toko arosfa bangunan,"3CVH+522, Puuruy, Kec. Bondoala, Kabupaten Konawe, Sulawesi Tenggara 93354","Puuruy, Kec. Bondoala, Kabupaten Konawe",SULAWESI TENGGARA,93354.0,Indonesia,,,,-3.9071238,122.4275083,https://maps.google.com/?cid=0x0:0x221bceeba3eafa31,
building materials,Toko Bahan Bangunan,TOKO PRATIWI ASINUA,"Asinua, Kec. Unaaha, Kabupaten Konawe, Sulawesi Tenggara 93431","Kec. Unaaha, Kabupaten Konawe",SULAWESI TENGGARA,93431.0,Indonesia, 082246877366,,,-3.8546719,122.0713813,https://maps.google.com/?cid=0x0:0x68640238fc70002d,
building materials,Toko Bahan Bangunan,Toko Asera jaya 2,"F4H8+F5W, Mataiwoi, Kec. Andowia, Kabupaten Konawe Utara, Sulawesi Tenggara","Kabupaten Konawe Utara, Sulawesi Tenggara",SULAWESI TENGGARA,,Indonesia,,,,-3.5212547,122.1154578,https://maps.google.com/?cid=0x0:0x5f18f429ed96ca00,
building materials,Toko Bahan Bangunan,TOKO BANGUNAN (MTR),"QFXX+6F, Aoma, Kec. Wolasi, Kabupaten Konawe Selatan, Sulawesi Tenggara","Kabupaten Konawe Selatan, Sulawesi Tenggara",SULAWESI TENGGARA,,Indonesia,,,,-4.2015238,122.4989825,https://maps.google.com/?cid=0x0:0x399025edba73de33,
building materials,Toko Bahan Bangunan,Toko Bangunan Anas,"J2J3+7JH, Sumber Jaya, Lalembuu, Kabupaten Konawe Selatan, Sulawesi Tenggara 93885","Sumber Jaya, Lalembuu, Kabupaten Konawe Selatan",SULAWESI TENGGARA,93885.0,Indonesia,,,,-4.3692755,122.0050447,https://maps.google.com/?cid=0x0:0xc483d78e0f92fdf8,
building materials,Toko Bahan Bangunan,Toko Rizka Bangunan,"MCJ7+JV4, Mekar Sari, Kec. Palangga, Kabupaten Konawe Selatan, Sulawesi Tenggara 93883","Mekar Sari, Kec. Palangga, Kabupaten Konawe Selatan",SULAWESI TENGGARA,93883.0,Indonesia,,,,-4.3184864,122.4147005,https://maps.google.com/?cid=0x0:0x2607e1cf068286f7,
building materials,Toko Bahan Bangunan,Usaha Bersama Perus,"42QX+QW2, JL. Pangeran Diponegoro, Tumpas, Kec. Unaaha, Kabupaten Konawe, Sulawesi Tenggara 93415","JL. Pangeran Diponegoro, Tumpas, Kec. Unaaha, Kabupaten Konawe",SULAWESI TENGGARA,93415.0,Indonesia, 04082422816,,,-3.860615,122.049773,https://maps.google.com/?cid=0x0:0x2e29c06456fadcfc,
building materials,Jasa Konstruksi dan Bangunan,Fajar Mas Bangunan,"XF57+CHF, Kota Bangun, Kec. Ranomeeto, Kabupaten Konawe Selatan, Sulawesi Tenggara","Kabupaten Konawe Selatan, Sulawesi Tenggara",SULAWESI TENGGARA,,Indonesia,,,,-4.0414507,122.4639236,https://maps.google.com/?cid=0x0:0x4a8333f9ed641562,
building materials,building materials,Toko Bangunan Akzar Jaya,"Wanggudu, Kec. Asera, Kabupaten Konawe Utara, Sulawesi Tenggara 93353","Kec. Asera, Kabupaten Konawe Utara",SULAWESI TENGGARA,93353.0,Indonesia, 081244030950,,,-3.5108339,122.0723816,https://maps.google.com/?cid=0x0:0xee2193ed59ec3182,
building materials,Pemasok Bahan Bangunan,Alat acesories bangunan,"Duta harapan indah blok e7 e8 samping, RT.8/RW.2, petam, Kec. Penjaringan, Jkt Utara, Daerah Khusus Ibukota Jakarta 14148","RT.8/RW.2, petam, Kec. Penjaringan, Jkt Utara",SULAWESI TENGGARA,14148.0,Indonesia, 083893084823,,,-6.1378206,106.7733694,https://maps.google.com/?cid=0x0:0x453ab6a7d507198,
building materials,Toko Bahan Bangunan,ABADI MAKMUR. CV,"Jl. Duta Harapan Indah No.24 BLOK OO, Kapuk Muara, Kec. Penjaringan, Jkt Utara, Daerah Khusus Ibukota Jakarta 14460","Kapuk Muara, Kec. Penjaringan, Jkt Utara",SULAWESI TENGGARA,14460.0,Indonesia,,,,-6.1350924,106.7725397,https://maps.google.com/?cid=0x0:0xcd4bac407581f97b,
building materials,building materials,Kecamatan Langgikima,"Kabupaten Konawe Utara, Sulawesi Tenggara","Kabupaten Konawe Utara, Sulawesi Tenggara",SULAWESI TENGGARA,,Indonesia,,,,-3.2937576,122.2336267,https://maps.google.com/?cid=0x0:0x84f471fa9a20e886,
building materials,Toko Bahan Bangunan,Bintang Jaya,"P65H+92F, Langgikima, Kecamatan Langgikima, Kabupaten Konawe Utara, Sulawesi Tenggara 93353","Langgikima, Kecamatan Langgikima, Kabupaten Konawe Utara",SULAWESI TENGGARA,93353.0,Indonesia,,,,-3.2915727,122.2275383,https://maps.google.com/?cid=0x0:0x39a649c7cbeabc40,
building materials,Toko Bahan Bangunan,Lamonai/konut,"875H+R3R, Toreo, Kec. Lasolo, Kabupaten Konawe Utara, Sulawesi Tenggara","Kabupaten Konawe Utara, Sulawesi Tenggara",SULAWESI TENGGARA,,Indonesia,,,,-3.690386,122.2776355,https://maps.google.com/?cid=0x0:0x8f447dfb49984f27,
building materials,Toko Bahan Bangunan,Toko Bintang perkasa,"F4CM+97J, Andowia, Kec. Andowia, Kabupaten Konawe Utara, Sulawesi Tenggara","Kabupaten Konawe Utara, Sulawesi Tenggara",SULAWESI TENGGARA,,Indonesia,,,,-3.5290472,122.1331285,https://maps.google.com/?cid=0x0:0x335fc4006d33e278,
building materials,building materials,Sulawesi Tenggara 93352,"Kabupaten Konawe Utara, Sulawesi Tenggara","Kabupaten Konawe Utara, Sulawesi Tenggara",SULAWESI TENGGARA,,Indonesia,,,,-3.7041573,122.2427,https://maps.google.com/?cid=0x0:0x888ae8f2fa8ed5e8,
building materials,Toko Bahan Bangunan,Lamonai/konut,"875H+R3R, Toreo, Kec. Lasolo, Kabupaten Konawe Utara, Sulawesi Tenggara","Kabupaten Konawe Utara, Sulawesi Tenggara",SULAWESI TENGGARA,,Indonesia,,,,-3.690386,122.2776355,https://maps.google.com/?cid=0x0:0x8f447dfb49984f27,
building materials,Toko bahan makanan,Toko Tiara,"86HQ+JW7, Jl. Poros Lasolo - Kendari, Lametono, Kec. Lasolo, Kabupaten Konawe Utara, Sulawesi Tenggara 93352","Jl. Poros Lasolo - Kendari, Lametono, Kec. Lasolo, Kabupaten Konawe Utara",SULAWESI TENGGARA,93352.0,Indonesia,,,,-3.6709745,122.2398047,https://maps.google.com/?cid=0x0:0x5c319a1cf8519d1b,
building materials,,Alif Jaya Bangunan,"95PX+QJC, Jl. Poros Bungku Sel. - Kendari, Molawe, Kec. Molawe, Kabupaten Konawe Utara, Sulawesi Tenggara 93352","Jl. Poros Bungku Sel. - Kendari, Molawe, Kec. Molawe, Kabupaten Konawe Utara",SULAWESI TENGGARA,93352.0,Indonesia,,,,-3.6130516,122.1990159,https://maps.google.com/?cid=0x0:0xaf198e1a83dc454f,
building materials,Toko Bahan Bangunan,Toko Asera Jaya,"Jl. Pelabuhan No.16, Labungga, Kec. Andowia, Kabupaten Konawe Utara, Sulawesi Tenggara 93353","Labungga, Kec. Andowia, Kabupaten Konawe Utara",SULAWESI TENGGARA,93353.0,Indonesia, 085241994185,,,-3.5143528,122.1402996,https://maps.google.com/?cid=0x0:0x5d9187ed14ebf8a4,
building materials,Toko Bahan Bangunan,Toko Sumber Rezky,"F4CM+993, Andowia, Kec. Andowia, Kabupaten Konawe Utara, Sulawesi Tenggara","Kabupaten Konawe Utara, Sulawesi Tenggara",SULAWESI TENGGARA,,Indonesia,,,,-3.5293012,122.133662,https://maps.google.com/?cid=0x0:0x7801e5871154e4b5,
building materials,Jasa Konstruksi dan Bangunan,TB AROSPA,"3CVH+522, Jl. Poros Pohara - Laosu, Sampara/Morosi, Kec. Bondoala, Kabupaten Konawe, Sulawesi Tenggara 93354","Jl. Poros Pohara - Laosu, Sampara/Morosi, Kec. Bondoala, Kabupaten Konawe",SULAWESI TENGGARA,93354.0,Indonesia, 085241568043,,,-3.9071034,122.4275177,https://maps.google.com/?cid=0x0:0x13c8918cdf60dd95,
building materials,,Tokoh bangunan zainal,"592P+C5M, Jl. Poros Bungku Sel. - Kendari, Tondowatu, Kec. Motui, Kabupaten Konawe Utara, Sulawesi Tenggara","Kabupaten Konawe Utara, Sulawesi Tenggara",SULAWESI TENGGARA,,Indonesia,,,,-3.8489083,122.3854268,https://maps.google.com/?cid=0x0:0x94d4646d19d114b0,
building materials,Toko Bahan Bangunan,CV. MAKMUR JAYA STEEL ASERA,"F48Q+V44, Jl. Poros Bungku Sel. - Kendari, Lamondowo, Kec. Andowia, Kabupaten Konawe Utara, Sulawesi Tenggara 93353","Jl. Poros Bungku Sel. - Kendari, Lamondowo, Kec. Andowia, Kabupaten Konawe Utara",SULAWESI TENGGARA,93353.0,Indonesia,,,,-3.5328795,122.1378491,https://maps.google.com/?cid=0x0:0x9a3ff939ff584af5,
building materials,,Toko Cahaya Buana,"6CQM+HHR, Jl. Poros Bungku Sel. - Kendari, Tongauna, Kec. Sawa, Kabupaten Konawe Utara, Sulawesi Tenggara 93352","Jl. Poros Bungku Sel. - Kendari, Tongauna, Kec. Sawa, Kabupaten Konawe Utara",SULAWESI TENGGARA,93352.0,Indonesia,,,,-3.7610181,122.4338883,https://maps.google.com/?cid=0x0:0x33d439f8f7b6b14f,
building materials,Toko Bahan Bangunan,Toko Savior,"Lahimbua, Kec. Andowia, Kabupaten Konawe Utara, Sulawesi Tenggara 93353","Kec. Andowia, Kabupaten Konawe Utara",SULAWESI TENGGARA,93353.0,Indonesia,,,,-3.5443464,122.1362703,https://maps.google.com/?cid=0x0:0xfd4d1c0d2c84ac56,
building materials,Toko,Toko TIRTA MAS,"46XQ+G84, Jl. Mahoni, Ulu Benua, Amonggedo, Kabupaten Konawe, Sulawesi Tenggara 93461","Jl. Mahoni, Ulu Benua, Amonggedo, Kabupaten Konawe",SULAWESI TENGGARA,93461.0,Indonesia, 083833052031,,,-3.8512447,122.2383249,https://maps.google.com/?cid=0x0:0x3e413468d4ff1691,
building materials,Toko Bahan Bangunan,Toko Bintang perkasa,"F4CM+97J, Andowia, Kec. Andowia, Kabupaten Konawe Utara, Sulawesi Tenggara","Kabupaten Konawe Utara, Sulawesi Tenggara",SULAWESI TENGGARA,,Indonesia,,,,-3.5290472,122.1331285,https://maps.google.com/?cid=0x0:0x335fc4006d33e278,
building materials,,Toko Buana Indah,"Puunaaha, Kec. Unaaha, Kabupaten Konawe, Sulawesi Tenggara 93415","Kec. Unaaha, Kabupaten Konawe",SULAWESI TENGGARA,93415.0,Indonesia, 085241673940,,,-3.8579013,122.0421464,https://maps.google.com/?cid=0x0:0xbfdbea1d1e990acd,
building materials,Toko Bahan Bangunan,Toko Asera jaya 2,"F4H8+F5W, Mataiwoi, Kec. Andowia, Kabupaten Konawe Utara, Sulawesi Tenggara","Kabupaten Konawe Utara, Sulawesi Tenggara",SULAWESI TENGGARA,,Indonesia,,,,-3.5212547,122.1154578,https://maps.google.com/?cid=0x0:0x5f18f429ed96ca00,
building materials,Pembangunan Perumahan,Desa puasana jalan pisang amonggedo,"562G+F7F, Puasana, Amonggedo, Kabupaten Konawe, Sulawesi Tenggara","Kabupaten Konawe, Sulawesi Tenggara",SULAWESI TENGGARA,,Indonesia,,,,-3.8488248,122.2256803,https://maps.google.com/?cid=0x0:0xdea921f4db3fb10c,
building materials,Pusat Perbelanjaan,Toko Sinar Buana,"26WF+VRG, Pondidaha, Kec. Pondidaha, Kabupaten Konawe, Sulawesi Tenggara 93463","Pondidaha, Kec. Pondidaha, Kabupaten Konawe",SULAWESI TENGGARA,93463.0,Indonesia, 081341521075,,,-3.9528043,122.2245878,https://maps.google.com/?cid=0x0:0xc0001b6cbfed6c76,
building materials,Pasar bahan bangunan,TOKO MEGA TAMA Wawotobi (Toko Bangunan),"Jl. Jend Sudirman No.17, Wawotobi, Kec. Wawotobi, Kabupaten Konawe, Sulawesi Tenggara 93461","Wawotobi, Kec. Wawotobi, Kabupaten Konawe",SULAWESI TENGGARA,93461.0,Indonesia, 085216149991,,,-3.8766033,122.1086909,https://maps.google.com/?cid=0x0:0x6590efc314bd5d70,
building materials,Toko Bahan Bangunan,Toko 27 Asinua,"Jl. Sawerigading, Samping Pasar No.125, Asinua, Kec. Unaaha, Kabupaten Konawe, Sulawesi Tenggara 93415","Samping Pasar No.125, Asinua, Kec. Unaaha, Kabupaten Konawe",SULAWESI TENGGARA,93415.0,Indonesia, 081341779773,,,-3.8538716,122.0716598,https://maps.google.com/?cid=0x0:0x6d1cfdfc7ac10a2b,
building materials,Toko Bahan Bangunan,Asri jaya ruko,"469G+37, Mataiwoi, Amonggedo, Kabupaten Konawe, Sulawesi Tenggara 93461","Mataiwoi, Amonggedo, Kabupaten Konawe",SULAWESI TENGGARA,93461.0,Indonesia,,,,-3.8822723,122.2257476,https://maps.google.com/?cid=0x0:0xbfdfc2c4969719df,
building materials,building materials,Kec. Lasolo,"Kabupaten Konawe Utara, Sulawesi Tenggara","Kabupaten Konawe Utara, Sulawesi Tenggara",SULAWESI TENGGARA,,Indonesia,,,,-3.690386,122.2776355,https://maps.google.com/?cid=0x0:0xaeea21802eb51586,
building materials,Jasa Konstruksi dan Bangunan,CAHAYA NARITA,"68XM+9XW, Jl. Poros Bungku Sel. - Kendari, Padaleu, Kec. Lembo, Kabupaten Konawe Utara, Sulawesi Tenggara 93352","Jl. Poros Bungku Sel. - Kendari, Padaleu, Kec. Lembo, Kabupaten Konawe Utara",SULAWESI TENGGARA,93352.0,Indonesia,,,,-3.7515083,122.3349463,https://maps.google.com/?cid=0x0:0xbc2b2a9ca3af0163,
building materials,Toko Perlengkapan Rumah,Toko Alfrida Bangunan Tuoy,"Jl. Poros Raterate-Unaaha No.25, Tuoy, Kec. Unaaha, Kabupaten Konawe, Sulawesi Tenggara 93415","Tuoy, Kec. Unaaha, Kabupaten Konawe",SULAWESI TENGGARA,93415.0,Indonesia, 082346555474,,,-3.8673772,122.0703096,https://maps.google.com/?cid=0x0:0xa12d77044a6a9769,
building materials,Toko Bahan Bangunan,TOKO PRATIWI ASINUA,"Asinua, Kec. Unaaha, Kabupaten Konawe, Sulawesi Tenggara 93431","Kec. Unaaha, Kabupaten Konawe",SULAWESI TENGGARA,93431.0,Indonesia, 082246877366,,,-3.8546719,122.0713813,https://maps.google.com/?cid=0x0:0x68640238fc70002d,
building materials,Toko Bahan Bangunan,Toko cahaya Mandiri,"J326+VHP, Unnamed Road, Landawe, Kec. Oheo, Kabupaten Konawe Utara, Sulawesi Tenggara 93353","Unnamed Road, Landawe, Kec. Oheo, Kabupaten Konawe Utara",SULAWESI TENGGARA,93353.0,Indonesia, 082233493473,,,-3.3977839,122.0614675,https://maps.google.com/?cid=0x0:0xe983cc4577e471cc,
building materials,Toko Bahan Bangunan,Kios nur janah,"5249+8MM, Mata Iwoi, Kec. Tongauna, Kabupaten Konawe, Sulawesi Tenggara 93414","Mata Iwoi, Kec. Tongauna, Kabupaten Konawe",SULAWESI TENGGARA,93414.0,Indonesia,,,,-3.8441594,122.0191824,https://maps.google.com/?cid=0x0:0x5dba12482720cb15,
building materials,Toko Bahan Bangunan,Toko Asma,"Jl. Sabandara No.231, Puunaaha, Kec. Unaaha, Kabupaten Konawe, Sulawesi Tenggara 93413","Puunaaha, Kec. Unaaha, Kabupaten Konawe",SULAWESI TENGGARA,93413.0,Indonesia, 083833052031,,,-3.8612737,122.0410573,https://maps.google.com/?cid=0x0:0xfff8289c843ed555,
building materials,,Toko Bangunan,"Jl. Poros Bungku Sel. - Kendari No.27, Padaleu, Kec. Lembo, Kabupaten Konawe Utara, Sulawesi Tenggara 93352","Padaleu, Kec. Lembo, Kabupaten Konawe Utara",SULAWESI TENGGARA,93352.0,Indonesia,,,,-3.7515665,122.3350134,https://maps.google.com/?cid=0x0:0x5f4c1ce47426a15d,
building materials,Grosir,AYU BANGUNAN,"784F+F67, Jl. Poros Bungku Sel. - Kendari, Alo-Alo, Kec. Lembo, Kabupaten Konawe Utara, Sulawesi Tenggara 93561","Jl. Poros Bungku Sel. - Kendari, Alo-Alo, Kec. Lembo, Kabupaten Konawe Utara",SULAWESI TENGGARA,93561.0,Indonesia,,,,-3.7438411,122.323043,https://maps.google.com/?cid=0x0:0xac3743741c53084b,
building materials,Jasa Konstruksi dan Bangunan,CAHAYA NARITA,"68XM+9XW, Jl. Poros Bungku Sel. - Kendari, Padaleu, Kec. Lembo, Kabupaten Konawe Utara, Sulawesi Tenggara 93352","Jl. Poros Bungku Sel. - Kendari, Padaleu, Kec. Lembo, Kabupaten Konawe Utara",SULAWESI TENGGARA,93352.0,Indonesia,,,,-3.7515083,122.3349463,https://maps.google.com/?cid=0x0:0xbc2b2a9ca3af0163,
building materials,building materials,Kec. Lembo,"Wawopada, Kabupaten Morowali Utara, Sulawesi Tengah","Kabupaten Morowali Utara, Sulawesi Tengah",SULAWESI TENGGARA,,Indonesia,,,,-2.1606442,121.2127322,https://maps.google.com/?cid=0x0:0x4030bfbcaf78100,
building materials,Toko Bahan Bangunan,Gudang Material,"X997+66, Bunta, Kec. Petasia Timur, Kabupaten Morowali Utara, Sulawesi Tengah","Kabupaten Morowali Utara, Sulawesi Tengah",SULAWESI TENGGARA,,Indonesia,,,,-2.0320261,121.3629914,https://maps.google.com/?cid=0x0:0x34202145bec5bdc8,
building materials,Toko Perlengkapan Rumah,TOKO MARDIANA BANGUNAN,"Jl. Trans Sulawesi, Tompira, Kec. Petasia Timur, Kabupaten Morowali Utara, Sulawesi Tengah 94963","Tompira, Kec. Petasia Timur, Kabupaten Morowali Utara",SULAWESI TENGGARA,94963.0,Indonesia, 085399058129,,,-2.0765254,121.3917987,https://maps.google.com/?cid=0x0:0xb78b7f0cdef99b70,
building materials,Toko Perlengkapan Rumah,Arifin ornament,"Warungjeruk, Kec. Tegalwaru, Kabupaten Purwakarta, Jawa Barat 41165","Kec. Tegalwaru, Kabupaten Purwakarta",SULAWESI TENGGARA,41165.0,Indonesia, 081953170966,,,-6.6557069,107.3189093,https://maps.google.com/?cid=0x0:0x1f3b768ab8fb1e6c,
building materials,building materials,Sulawesi Tenggara 93352,"Kabupaten Konawe Utara, Sulawesi Tenggara","Kabupaten Konawe Utara, Sulawesi Tenggara",SULAWESI TENGGARA,,Indonesia,,,,-3.7041573,122.2427,https://maps.google.com/?cid=0x0:0x888ae8f2fa8ed5e8,
building materials,,Alif Jaya Bangunan,"95PX+QJC, Jl. Poros Bungku Sel. - Kendari, Molawe, Kec. Molawe, Kabupaten Konawe Utara, Sulawesi Tenggara 93352","Jl. Poros Bungku Sel. - Kendari, Molawe, Kec. Molawe, Kabupaten Konawe Utara",SULAWESI TENGGARA,93352.0,Indonesia,,,,-3.6130516,122.1990159,https://maps.google.com/?cid=0x0:0xaf198e1a83dc454f,
building materials,Pasar bahan bangunan,TOKO MEGA TAMA Wawotobi (Toko Bangunan),"Jl. Jend Sudirman No.17, Wawotobi, Kec. Wawotobi, Kabupaten Konawe, Sulawesi Tenggara 93461","Wawotobi, Kec. Wawotobi, Kabupaten Konawe",SULAWESI TENGGARA,93461.0,Indonesia, 085216149991,,,-3.8766033,122.1086909,https://maps.google.com/?cid=0x0:0x6590efc314bd5d70,
building materials,Toko Bahan Bangunan,TAMA LANREA,"JH6Q+732, Jl. Poros Kendari - Kolono, Kaindi, Kec. Lainea, Kabupaten Konawe Selatan, Sulawesi Tenggara 93881","Jl. Poros Kendari - Kolono, Kaindi, Kec. Lainea, Kabupaten Konawe Selatan",SULAWESI TENGGARA,93881.0,Indonesia,,,,-4.3893538,122.5876345,https://maps.google.com/?cid=0x0:0xc9d2b05d386c6bb7,
building materials,Toko Perlengkapan Rumah,Tomu Jaya,"MF3X+WGF, Ambesea, Kec. Laeya, Kabupaten Konawe Selatan, Sulawesi Tenggara 93671","Ambesea, Kec. Laeya, Kabupaten Konawe Selatan",SULAWESI TENGGARA,93671.0,Indonesia, 082298890650,,,-4.345189,122.4988097,https://maps.google.com/?cid=0x0:0x168da60177c3fedd,
building materials,Toko Bahan Bangunan,TOKO BM BANGUNAN,"Jl. Poros Bandara Haluoleo, Ranomeeto, Kec. Ranomeeto, Kabupaten Konawe Selatan, Sulawesi Tenggara 93870","Ranomeeto, Kec. Ranomeeto, Kabupaten Konawe Selatan",SULAWESI TENGGARA,93870.0,Indonesia, 085256000132,,,-4.0511688,122.4539663,https://maps.google.com/?cid=0x0:0xc46893209ac52dc8,
building materials,Pasar bahan bangunan,TOKO MEGA TAMA Wawotobi (Toko Bangunan),"Jl. Jend Sudirman No.17, Wawotobi, Kec. Wawotobi, Kabupaten Konawe, Sulawesi Tenggara 93461","Wawotobi, Kec. Wawotobi, Kabupaten Konawe",SULAWESI TENGGARA,93461.0,Indonesia, 085216149991,,,-3.8766033,122.1086909,https://maps.google.com/?cid=0x0:0x6590efc314bd5d70,
building materials,Toko Bahan Bangunan,Pelita Jaya Ranomeeto,"XF68+PXF, Jl. Poros Bandara Haluoleo, Kota Bangun, Kec. Ranomeeto, Kabupaten Konawe Selatan, Sulawesi Tenggara 93870","Jl. Poros Bandara Haluoleo, Kota Bangun, Kec. Ranomeeto, Kabupaten Konawe Selatan",SULAWESI TENGGARA,93870.0,Indonesia,,,,-4.0381851,122.4674263,https://maps.google.com/?cid=0x0:0x1a97e795f2906492,
building materials,Kantor Perusahaan,PT. Konawe nikel nusantara /KNN,"J783+7M2 kepulauan kab. Konut, Morombo, Kec. Lasolo, Kabupaten Konawe Utara, Sulawesi Tenggara","Kabupaten Konawe Utara, Sulawesi Tenggara",SULAWESI TENGGARA,,Indonesia,,,,-3.3843716,122.2541394,https://maps.google.com/?cid=0x0:0x81b77fd41840e8ee,
building materials,Toko Bahan Bangunan,TOKO ALDI BANGUNAN 2,"3CPP+5HR, Puuruy, Kec. Bondoala, Kabupaten Konawe, Sulawesi Tenggara","Kabupaten Konawe, Sulawesi Tenggara",SULAWESI TENGGARA,,Indonesia, 082291332052,,,-3.9145215,122.4363861,https://maps.google.com/?cid=0x0:0x142463ff9e6b370b,
building materials,building materials,Kec. Motui,"Kabupaten Konawe Utara, Sulawesi Tenggara","Kabupaten Konawe Utara, Sulawesi Tenggara",SULAWESI TENGGARA,,Indonesia,,,,-3.8052813,122.4581695,https://maps.google.com/?cid=0x0:0x10f6c8115450fdc4,
building materials,,Tokoh bangunan zainal,"592P+C5M, Jl. Poros Bungku Sel. - Kendari, Tondowatu, Kec. Motui, Kabupaten Konawe Utara, Sulawesi Tenggara","Kabupaten Konawe Utara, Sulawesi Tenggara",SULAWESI TENGGARA,,Indonesia,,,,-3.8489083,122.3854268,https://maps.google.com/?cid=0x0:0x94d4646d19d114b0,
building materials,,Toko Cahaya Buana,"6CQM+HHR, Jl. Poros Bungku Sel. - Kendari, Tongauna, Kec. Sawa, Kabupaten Konawe Utara, Sulawesi Tenggara 93352","Jl. Poros Bungku Sel. - Kendari, Tongauna, Kec. Sawa, Kabupaten Konawe Utara",SULAWESI TENGGARA,93352.0,Indonesia,,,,-3.7610181,122.4338883,https://maps.google.com/?cid=0x0:0x33d439f8f7b6b14f,
building materials,Jasa Konstruksi dan Bangunan,TB AROSPA,"3CVH+522, Jl. Poros Pohara - Laosu, Sampara/Morosi, Kec. Bondoala, Kabupaten Konawe, Sulawesi Tenggara 93354","Jl. Poros Pohara - Laosu, Sampara/Morosi, Kec. Bondoala, Kabupaten Konawe",SULAWESI TENGGARA,93354.0,Indonesia, 085241568043,,,-3.9071034,122.4275177,https://maps.google.com/?cid=0x0:0x13c8918cdf60dd95,
building materials,Toko bahan makanan,Toko Umega Jaya,"4G47+XPH, Puuwonua, Kec. Lalonggasumeeto, Kabupaten Konawe, Sulawesi Tenggara 93351","Puuwonua, Kec. Lalonggasumeeto, Kabupaten Konawe",SULAWESI TENGGARA,93351.0,Indonesia,,,,-3.8925513,122.5143579,https://maps.google.com/?cid=0x0:0x3e72bfb230fdd6a7,
building materials,Toko,Kios,"4C2V+JH2, Diolo, Kec. Bondoala, Kabupaten Konawe, Sulawesi Tenggara 93354","Diolo, Kec. Bondoala, Kabupaten Konawe",SULAWESI TENGGARA,93354.0,Indonesia, 083136265532,,,-3.8984794,122.4438929,https://maps.google.com/?cid=0x0:0xd54b016baabf0661,
building materials,Toko Elektronik,toko cahaya listrik,"3CMM+C2G cahaya listrik, Puuruy, Kec. Bondoala, Kabupaten Konawe, Sulawesi Tenggara 93354","Puuruy, Kec. Bondoala, Kabupaten Konawe",SULAWESI TENGGARA,93354.0,Indonesia,,,,-3.9164353,122.4325682,https://maps.google.com/?cid=0x0:0x4510da2ed4dcbdb,
building materials,building materials,Kec. Oheo,"Kabupaten Konawe Utara, Sulawesi Tenggara","Kabupaten Konawe Utara, Sulawesi Tenggara",SULAWESI TENGGARA,,Indonesia,,,,-3.4120121,122.0716764,https://maps.google.com/?cid=0x0:0x1fec54897c86d51a,
building materials,Toko Bahan Bangunan,Batu mera oheo,"J2VW+XPH, Linomoiyo, Kec. Oheo, Kabupaten Konawe Utara, Sulawesi Tenggara","Kabupaten Konawe Utara, Sulawesi Tenggara",SULAWESI TENGGARA,,Indonesia, 081344581840,,,-3.3550674,122.0468694,https://maps.google.com/?cid=0x0:0xd3e788e4b73fcec,
building materials,Toko Bahan Bangunan,Toko cahaya Mandiri,"J326+VHP, Unnamed Road, Landawe, Kec. Oheo, Kabupaten Konawe Utara, Sulawesi Tenggara 93353","Unnamed Road, Landawe, Kec. Oheo, Kabupaten Konawe Utara",SULAWESI TENGGARA,93353.0,Indonesia, 082233493473,,,-3.3977839,122.0614675,https://maps.google.com/?cid=0x0:0xe983cc4577e471cc,
building materials,building materials,Sulawesi Tenggara,,Sulawesi Tenggara,SULAWESI TENGGARA,,Indonesia,,,,-4.14491,122.174605,https://maps.google.com/?cid=0x0:0x621d7c439f04a4ed,
building materials,Pasar bahan bangunan,TOKO MEGA TAMA Wawotobi (Toko Bangunan),"Jl. Jend Sudirman No.17, Wawotobi, Kec. Wawotobi, Kabupaten Konawe, Sulawesi Tenggara 93461","Wawotobi, Kec. Wawotobi, Kabupaten Konawe",SULAWESI TENGGARA,93461.0,Indonesia, 085216149991,,,-3.8766033,122.1086909,https://maps.google.com/?cid=0x0:0x6590efc314bd5d70,
building materials,,Toko Cahaya Buana,"6CQM+HHR, Jl. Poros Bungku Sel. - Kendari, Tongauna, Kec. Sawa, Kabupaten Konawe Utara, Sulawesi Tenggara 93352","Jl. Poros Bungku Sel. - Kendari, Tongauna, Kec. Sawa, Kabupaten Konawe Utara",SULAWESI TENGGARA,93352.0,Indonesia,,,,-3.7610181,122.4338883,https://maps.google.com/?cid=0x0:0x33d439f8f7b6b14f,
building materials,Toko Bahan Bangunan,SA,"Jl. Laode Hadi No.88, Bonggoeya, Kec. Wua-Wua, Kota Kendari, Sulawesi Tenggara 93561","Bonggoeya, Kec. Wua-Wua, Kota Kendari",SULAWESI TENGGARA,93561.0,Indonesia, 082393005353,,,-4.0055574,122.5086807,https://maps.google.com/?cid=0x0:0xeb1f5eb237e53b96,
building materials,,BENUA STELL BERSAMA,"XF4R+PMP, Jl. Mayjen Katamso, Baruga, Kec. Konda, Kabupaten Konawe Selatan, Sulawesi Tenggara 93116","Jl. Mayjen Katamso, Baruga, Kec. Konda, Kabupaten Konawe Selatan",SULAWESI TENGGARA,93116.0,Indonesia,,,,-4.0431643,122.4918073,https://maps.google.com/?cid=0x0:0xb856f90f3735f7fb,
building materials,Toko Bahan Bangunan,Toko bahan bangunan,"M52J+QXP, Unnamed Road, Mataiwoi, Kec. Andoolo, Kabupaten Konawe Selatan, Sulawesi Tenggara 93819","Unnamed Road, Mataiwoi, Kec. Andoolo, Kabupaten Konawe Selatan",SULAWESI TENGGARA,93819.0,Indonesia,,,,-4.348029,122.1824396,https://maps.google.com/?cid=0x0:0x6eac64bf582c5bd2,
building materials,Toko Bahan Bangunan,TOKO BANGUNAN (MTR),"QFXX+6F, Aoma, Kec. Wolasi, Kabupaten Konawe Selatan, Sulawesi Tenggara","Kabupaten Konawe Selatan, Sulawesi Tenggara",SULAWESI TENGGARA,,Indonesia,,,,-4.2015238,122.4989825,https://maps.google.com/?cid=0x0:0x399025edba73de33,
building materials,Perusahaan Konstruksi,PT Sulawesi Cahaya Mineral,"XVP2+Q8X, Lalomerui, Routa, Kabupaten Konawe, Sulawesi Tenggara 93353","Lalomerui, Routa, Kabupaten Konawe",SULAWESI TENGGARA,93353.0,Indonesia,,,,-3.013022,121.8508622,https://maps.google.com/?cid=0x0:0x43906bec748a15d6,
building materials,Toko,Pt Aneka Bangunan Cipta,"2G75+PMX, Jl. Jend. Ahmad Yani, Bende, Kec. Kadia, Kota Kendari, Sulawesi Tenggara 93115","Jl. Jend. Ahmad Yani, Bende, Kec. Kadia, Kota Kendari",SULAWESI TENGGARA,93115.0,Indonesia,,,,-3.985645,122.509225,https://maps.google.com/?cid=0x0:0xa27abd5b30c51b53,
building materials,Toko Bahan Bangunan,Nusantara Bangunan,"Jl. Sao Sao No.200, Bende, Kec. Kadia, Kota Kendari, Sulawesi Tenggara 93111","Bende, Kec. Kadia, Kota Kendari",SULAWESI TENGGARA,93111.0,Indonesia, 087784554880,,,-3.9824133,122.5142518,https://maps.google.com/?cid=0x0:0x6a3c143d41dac781,
building materials,building materials,Kec. Sawa,"Kabupaten Konawe Utara, Sulawesi Tenggara","Kabupaten Konawe Utara, Sulawesi Tenggara",SULAWESI TENGGARA,,Indonesia,,,,-3.7577044,122.4235351,https://maps.google.com/?cid=0x0:0x4736a1b9bff85990,
building materials,Toko Bahan Bangunan,TOKO BANGUNAN,"6CRJ+6RH, Jl. Poros Bungku Sel. - Kendari, Tongauna, Kec. Sawa, Kabupaten Konawe Utara, Sulawesi Tenggara 93352","Jl. Poros Bungku Sel. - Kendari, Tongauna, Kec. Sawa, Kabupaten Konawe Utara",SULAWESI TENGGARA,93352.0,Indonesia,,,,-3.7594346,122.4320974,https://maps.google.com/?cid=0x0:0xa1f74e1392d8254e,
building materials,building materials,Kec. Wawo,"Kabupaten Kolaka Utara, Sulawesi Tenggara","Kabupaten Kolaka Utara, Sulawesi Tenggara",SULAWESI TENGGARA,,Indonesia,,,,-3.6780928,121.0413713,https://maps.google.com/?cid=0x0:0x748e72d6124032b8,
building materials,Toko,Toko Mega Bangunan,"Jl. Trans Sulawesi No.93, Puumbolo, Kec. Wawo, Kabupaten Kolaka Utara, Sulawesi Tenggara 93956","Puumbolo, Kec. Wawo, Kabupaten Kolaka Utara",SULAWESI TENGGARA,93956.0,Indonesia, 085241544951,,,-3.6717431,121.0422216,https://maps.google.com/?cid=0x0:0xb597653788f8ed2e,
building materials,Toko Bahan Bangunan,Toko Bangunan Aneka Baya,"RJG7+6X4, Tonggoni, Kec. Pomalaa, Kabupaten Kolaka, Sulawesi Tenggara 93562","Tonggoni, Kec. Pomalaa, Kabupaten Kolaka",SULAWESI TENGGARA,93562.0,Indonesia, 085241824886,,,-4.1744932,121.6149507,https://maps.google.com/?cid=0x0:0x8938d63b80a7ac4,
building materials,Toko,Mega Rezky,"Jl. Konggoasa No.7, Dawi-Dawi, Kec. Pomalaa, Kabupaten Kolaka, Sulawesi Tenggara 93562","Dawi-Dawi, Kec. Pomalaa, Kabupaten Kolaka",SULAWESI TENGGARA,93562.0,Indonesia,,,,-4.1739858,121.6145436,https://maps.google.com/?cid=0x0:0xc64a0b14b2ad2c57,
building materials,Toko umum,Toko Arthomoro,"2P6V+CVJ, Watupute, Mowewe, Kabupaten Kolaka Timur, Sulawesi Tenggara 93519","Watupute, Mowewe, Kabupaten Kolaka Timur",SULAWESI TENGGARA,93519.0,Indonesia,,,,-3.9889214,121.744638,https://maps.google.com/?cid=0x0:0xff0db84820d1c8ee,
building materials,Toko Bahan Bangunan,TK 37 Bangunan,"Jl. Trans sulawesi, Lasusua, Kec. Lasusua, Kabupaten Kolaka Utara, Sulawesi Tenggara 93911","Lasusua, Kec. Lasusua, Kabupaten Kolaka Utara",SULAWESI TENGGARA,93911.0,Indonesia, 085255424921,,,-3.502534,120.8894586,https://maps.google.com/?cid=0x0:0x30e17bfaf817872a,
building materials,Toko Bahan Bangunan,TOKO GYPSUM JAYA BANGUNAN,"WHRW+M5P, Jl. Mekongga Indah, Lamokato, Kec. Kolaka, Kabupaten Kolaka, Sulawesi Tenggara","Kabupaten Kolaka, Sulawesi Tenggara",SULAWESI TENGGARA,,Indonesia, 082239159875,,,-4.0582818,121.5954502,https://maps.google.com/?cid=0x0:0x1a173fc32aa5d227,
building materials,Toko bahan makanan,Kios Cahaya Alwi,"Unnamed Road, depan gerbang BTN Maleo No.1, Kota Bangun, Kec. Ranomeeto, Kabupaten Konawe Selatan, Sulawesi Tenggara 93870","depan gerbang BTN Maleo No.1, Kota Bangun, Kec. Ranomeeto, Kabupaten Konawe Selatan",SULAWESI TENGGARA,93870.0,Indonesia,,,,-4.048462,122.467878,https://maps.google.com/?cid=0x0:0xcc818ac1184737c5,
building materials,building materials,,,,SULAWESI TENGGARA,,Indonesia, 085299876110,,,-3.5781015,121.0546,https://maps.google.com/?cid=0x0:0xa94f8b88faa46863,
building materials,Toko Bahan Bangunan,Toko Riski Bangunan,"Jalan Pemuda KM.3 No.415 E, Tahoa, Kec. Kolaka, Kabupaten Kolaka, Sulawesi Tenggara 93561","Tahoa, Kec. Kolaka, Kabupaten Kolaka",SULAWESI TENGGARA,93561.0,Indonesia, 085299994221,,,-4.066216,121.6195107,https://maps.google.com/?cid=0x0:0x9d76712335065c23,
building materials,Pusat Perbelanjaan,Toko Fardhan Bangunan,"Jl. Mekongga Indah Jl. By Pass, Kec. Kolaka, Kabupaten Kolaka, Sulawesi Tenggara 93511","Kec. Kolaka, Kabupaten Kolaka",SULAWESI TENGGARA,93511.0,Indonesia, 082233344445,,,-4.0627178,121.6074216,https://maps.google.com/?cid=0x0:0x93a84ef52a17c16b,
building materials,Toko Bahan Bangunan,Wahyu alma,"QWR3+WG4, Tokai, Kec. Poli-Polia, Kabupaten Kolaka, Sulawesi Tenggara 93573","Tokai, Kec. Poli-Polia, Kabupaten Kolaka",SULAWESI TENGGARA,93573.0,Indonesia, 081245344293,,,-4.2077347,121.9038433,https://maps.google.com/?cid=0x0:0xaf74e7d5a09e345f,
building materials,Kios,Toko Cahaya Bone Pomalaa,"JL. Poros Pomalaa-Tanggetada. Kel. Dawi-dawi Kec. Pomalaa, Kec. Kolaka, Kabupaten Kolaka, Sulawesi Tenggara","Kabupaten Kolaka, Sulawesi Tenggara",SULAWESI TENGGARA,,Indonesia, 082187298647,,,-4.1784193,121.6124513,https://maps.google.com/?cid=0x0:0xebc365d57fdeead8,
building materials,Pusat Perbelanjaan,Rumah ATK,"Wawo, Kec. Wawo, Kabupaten Kolaka Utara, Sulawesi Tenggara 93956","Kec. Wawo, Kabupaten Kolaka Utara",SULAWESI TENGGARA,93956.0,Indonesia, 085224874184,,,-3.6932586,121.0373398,https://maps.google.com/?cid=0x0:0x3d10ec5c4c4b8a98,
building materials,building materials,Toko Eva Bangunan,"82MW+R46, Jl. Poros Ranteangin - Kolaka, Puumbolo, Kec. Wawo, Kabupaten Kolaka Utara, Sulawesi Tenggara 93956","Jl. Poros Ranteangin - Kolaka, Puumbolo, Kec. Wawo, Kabupaten Kolaka Utara",SULAWESI TENGGARA,93956.0,Indonesia,,,,-3.6654665,121.045268,https://maps.google.com/?cid=0x0:0x84388a4a8f2135f1,
building materials,Toko Bahan Bangunan,Toko Nafis Bangunan,"Jl. Poros Lasusua - Ranteangin, Tojabi, Kec. Lasusua, Kabupaten Kolaka Utara, Sulawesi Tenggara 93913","Tojabi, Kec. Lasusua, Kabupaten Kolaka Utara",SULAWESI TENGGARA,93913.0,Indonesia, 085215533644,,,-3.5063634,120.8962923,https://maps.google.com/?cid=0x0:0x502394c19276f82b,
building materials,Toko Bahan Bangunan,Tb.Dewata,"V36Q+HJX, Jl. Poros Batuputih - Olooloho, Latali, Kec. Pakue Tengah, Kabupaten Kolaka Utara, Sulawesi Tenggara 93954","Jl. Poros Batuputih - Olooloho, Latali, Kec. Pakue Tengah, Kabupaten Kolaka Utara",SULAWESI TENGGARA,93954.0,Indonesia, 0895130809372,,,-3.138512,121.0891049,https://maps.google.com/?cid=0x0:0xe4af17b738ab7364,
building materials,Toko Bahan Bangunan,TOKO BAHAN APLIKASI BANGUNAN,"GV5J+36H, Ponggiha, Kec. Lasusua, Kabupaten Kolaka Utara, Sulawesi Tenggara 93914","Ponggiha, Kec. Lasusua, Kabupaten Kolaka Utara",SULAWESI TENGGARA,93914.0,Indonesia, 08114206900,,,-3.4924433,120.8804003,https://maps.google.com/?cid=0x0:0xf23c073d64879223,
building materials,Toko Bahan Bangunan,Toko irsan jaya,"HVVW+MM2, Simbula, Kec. Katoi, Kabupaten Kolaka Utara, Sulawesi Tenggara 93957","Simbula, Kec. Katoi, Kabupaten Kolaka Utara",SULAWESI TENGGARA,93957.0,Indonesia, 085341333555,,,-3.4058606,120.8966552,https://maps.google.com/?cid=0x0:0xc81b1ab7f29dc31f,
building materials,Toko Bahan Bangunan,TB. MUTIARA,"Jln trans sulawesi, Meeto, Kec. Kodeoha, Kabupaten Kolaka Utara, Sulawesi Tenggara 93957","Meeto, Kec. Kodeoha, Kabupaten Kolaka Utara",SULAWESI TENGGARA,93957.0,Indonesia, 082385728794,,,-3.3510496,120.9453282,https://maps.google.com/?cid=0x0:0x67daeac4a4fcf9b,
building materials,Toko Cat,SANA PAINT STORE,"Jl. Raya Bantar Gebang - Setu No.126, RT.003/RW.007, Padurenan, Kec. Mustika Jaya, Kota Bks, Jawa Barat 16340","RT.003/RW.007, Padurenan, Kec. Mustika Jaya, Kota Bks",SULAWESI TENGGARA,16340.0,Indonesia, 081280006697,,,-6.317382,107.0108719,https://maps.google.com/?cid=0x0:0x97a309d3059f8100,
building materials,Toko Cat,Dulux Experience Store by SMJ Bintaro,"Jl. Kesehatan Raya No.18A, Bintaro, Kec. Pesanggrahan, Kota Jakarta Selatan, Daerah Khusus Ibukota Jakarta 12330","Bintaro, Kec. Pesanggrahan, Kota Jakarta Selatan",SULAWESI TENGGARA,12330.0,Indonesia, 085173173086,,,-6.2705642,106.762174,https://maps.google.com/?cid=0x0:0x67b0ccab7a3f1cce,
building materials,Pemasok Bahan Bangunan,TB. Aladdin,"Jl. Kalasan Raya No.1 blok C, RT.1/RW.11, Bencongan Indah, Kelapa Dua, Tangerang Regency, Banten 15810","RT.1/RW.11, Bencongan Indah, Kelapa Dua, Tangerang Regency",SULAWESI TENGGARA,15810.0,Indonesia, 08111462913,,,-6.214779,106.6000752,https://maps.google.com/?cid=0x0:0x81c7d9d5c37314af,
building materials,Toko Bahan Bangunan,Roda Selatan Benhil,"Jl. Bendungan Hilir No.68, RT.5/RW.1, Bend. Hilir, Kecamatan Tanah Abang, Kota Jakarta Pusat, Daerah Khusus Ibukota Jakarta 10210","RT.5/RW.1, Bend. Hilir, Kecamatan Tanah Abang, Kota Jakarta Pusat",SULAWESI TENGGARA,10210.0,Indonesia, 0818811622,,,-6.2129113,106.8127439,https://maps.google.com/?cid=0x0:0xf89d982b6d24dcf0,
building materials,Toko Bahan Bangunan,Sinar Mampu beton (menjual roster pagar  dinding),"Lapai, Kec. Ngapa, Kabupaten Kolaka Utara, Sulawesi Tenggara 93958","Kec. Ngapa, Kabupaten Kolaka Utara",SULAWESI TENGGARA,93958.0,Indonesia, 082292396655,,,-3.2946787,121.0102348,https://maps.google.com/?cid=0x0:0x988199c6a8b8b148,
building materials,Toko,Toko Mega Bangunan,"Jl. Trans Sulawesi No.93, Puumbolo, Kec. Wawo, Kabupaten Kolaka Utara, Sulawesi Tenggara 93956","Puumbolo, Kec. Wawo, Kabupaten Kolaka Utara",SULAWESI TENGGARA,93956.0,Indonesia, 085241544951,,,-3.6717431,121.0422216,https://maps.google.com/?cid=0x0:0xb597653788f8ed2e,
building materials,Toko,Mega Rezky,"Jl. Konggoasa No.7, Dawi-Dawi, Kec. Pomalaa, Kabupaten Kolaka, Sulawesi Tenggara 93562","Dawi-Dawi, Kec. Pomalaa, Kabupaten Kolaka",SULAWESI TENGGARA,93562.0,Indonesia,,,,-4.1739858,121.6145436,https://maps.google.com/?cid=0x0:0xc64a0b14b2ad2c57,
building materials,Toko umum,Toko Arthomoro,"2P6V+CVJ, Watupute, Mowewe, Kabupaten Kolaka Timur, Sulawesi Tenggara 93519","Watupute, Mowewe, Kabupaten Kolaka Timur",SULAWESI TENGGARA,93519.0,Indonesia,,,,-3.9889214,121.744638,https://maps.google.com/?cid=0x0:0xff0db84820d1c8ee,
building materials,Toko Bahan Bangunan,Toko Bangunan Aneka Baya,"RJG7+6X4, Tonggoni, Kec. Pomalaa, Kabupaten Kolaka, Sulawesi Tenggara 93562","Tonggoni, Kec. Pomalaa, Kabupaten Kolaka",SULAWESI TENGGARA,93562.0,Indonesia, 085241824886,,,-4.1744932,121.6149507,https://maps.google.com/?cid=0x0:0x8938d63b80a7ac4,
building materials,Pasar bahan bangunan,TOKO MEGA TAMA Wawotobi (Toko Bangunan),"Jl. Jend Sudirman No.17, Wawotobi, Kec. Wawotobi, Kabupaten Konawe, Sulawesi Tenggara 93461","Wawotobi, Kec. Wawotobi, Kabupaten Konawe",SULAWESI TENGGARA,93461.0,Indonesia, 085216149991,,,-3.8766033,122.1086909,https://maps.google.com/?cid=0x0:0x6590efc314bd5d70,
building materials,Toko Bahan Bangunan,Toko AL - FAZZA USUKU,"6WFQ+FW2, Komplex Belakang SD Lawanata Kel. Tongano Timur Kec. Tomia Timur Kab. Wakatobi SUL-TRA, Bahari, Kec. Tomia Tim., Kabupaten Wakatobi, Sulawesi Tenggara 93753","Komplex Belakang SD Lawanata Kel. Tongano Timur Kec. Tomia Timur Kab. Wakatobi SUL-TRA, Bahari, Kec. Tomia Tim., Kabupaten Wakatobi",SULAWESI TENGGARA,93753.0,Indonesia, 082132870143,,,-5.7763515,123.9397649,https://maps.google.com/?cid=0x0:0x4486cb62225a222e,
building materials,Kios,Toko Cahaya Bone Pomalaa,"JL. Poros Pomalaa-Tanggetada. Kel. Dawi-dawi Kec. Pomalaa, Kec. Kolaka, Kabupaten Kolaka, Sulawesi Tenggara","Kabupaten Kolaka, Sulawesi Tenggara",SULAWESI TENGGARA,,Indonesia, 082187298647,,,-4.1784193,121.6124513,https://maps.google.com/?cid=0x0:0xebc365d57fdeead8,
building materials,Toko Bahan Bangunan,TK 37 Bangunan,"Jl. Trans sulawesi, Lasusua, Kec. Lasusua, Kabupaten Kolaka Utara, Sulawesi Tenggara 93911","Lasusua, Kec. Lasusua, Kabupaten Kolaka Utara",SULAWESI TENGGARA,93911.0,Indonesia, 085255424921,,,-3.502534,120.8894586,https://maps.google.com/?cid=0x0:0x30e17bfaf817872a,
building materials,Toko Bahan Bangunan,UD Astuti,"MGPJ+V44, Wanci, Wangi-Wangi Sel., Kabupaten Wakatobi, Sulawesi Tenggara 93791","Wanci, Wangi-Wangi Sel., Kabupaten Wakatobi",SULAWESI TENGGARA,93791.0,Indonesia,,,,-5.3128685,123.5303395,https://maps.google.com/?cid=0x0:0xec3c9af9e2b100e2,
building materials,Toko Bahan Bangunan,TOKO GYPSUM JAYA BANGUNAN,"WHRW+M5P, Jl. Mekongga Indah, Lamokato, Kec. Kolaka, Kabupaten Kolaka, Sulawesi Tenggara","Kabupaten Kolaka, Sulawesi Tenggara",SULAWESI TENGGARA,,Indonesia, 082239159875,,,-4.0582818,121.5954502,https://maps.google.com/?cid=0x0:0x1a173fc32aa5d227,
building materials,Toko bahan makanan,Kios Cahaya Alwi,"Unnamed Road, depan gerbang BTN Maleo No.1, Kota Bangun, Kec. Ranomeeto, Kabupaten Konawe Selatan, Sulawesi Tenggara 93870","depan gerbang BTN Maleo No.1, Kota Bangun, Kec. Ranomeeto, Kabupaten Konawe Selatan",SULAWESI TENGGARA,93870.0,Indonesia,,,,-4.048462,122.467878,https://maps.google.com/?cid=0x0:0xcc818ac1184737c5,
building materials,Pusat Perbelanjaan,Toko Fardhan Bangunan,"Jl. Mekongga Indah Jl. By Pass, Kec. Kolaka, Kabupaten Kolaka, Sulawesi Tenggara 93511","Kec. Kolaka, Kabupaten Kolaka",SULAWESI TENGGARA,93511.0,Indonesia, 082233344445,,,-4.0627178,121.6074216,https://maps.google.com/?cid=0x0:0x93a84ef52a17c16b,
building materials,Toko Bahan Bangunan,Wahyu alma,"QWR3+WG4, Tokai, Kec. Poli-Polia, Kabupaten Kolaka, Sulawesi Tenggara 93573","Tokai, Kec. Poli-Polia, Kabupaten Kolaka",SULAWESI TENGGARA,93573.0,Indonesia, 081245344293,,,-4.2077347,121.9038433,https://maps.google.com/?cid=0x0:0xaf74e7d5a09e345f,
building materials,building materials,Toko Eva Bangunan,"82MW+R46, Jl. Poros Ranteangin - Kolaka, Puumbolo, Kec. Wawo, Kabupaten Kolaka Utara, Sulawesi Tenggara 93956","Jl. Poros Ranteangin - Kolaka, Puumbolo, Kec. Wawo, Kabupaten Kolaka Utara",SULAWESI TENGGARA,93956.0,Indonesia,,,,-3.6654665,121.045268,https://maps.google.com/?cid=0x0:0x84388a4a8f2135f1,
building materials,building materials,Sulawesi Tenggara 93956,"Kabupaten Kolaka Utara, Sulawesi Tenggara","Kabupaten Kolaka Utara, Sulawesi Tenggara",SULAWESI TENGGARA,,Indonesia,,,,-3.5905204,121.1252135,https://maps.google.com/?cid=0x0:0x65e443ed518d4559,
building materials,Toko Bahan Bangunan,TOKO IRVAN 1,"9XCH+QH8, Jl. Poros Ranteangin - Kolaka, Lambai, Kec. Lambai, Kabupaten Kolaka Utara, Sulawesi Tenggara 93956","Jl. Poros Ranteangin - Kolaka, Lambai, Kec. Lambai, Kabupaten Kolaka Utara",SULAWESI TENGGARA,93956.0,Indonesia,,,,-3.62809,120.9789525,https://maps.google.com/?cid=0x0:0xcb4d7f637e9866da,
building materials,Toko Perlengkapan Rumah,MANDIRI ALUMINIUM LAMBAI,"Jalan pelabuhan, dusun 3, Lambai, Kec. Lambai, Kabupaten Kolaka Utara, Sulawesi Tenggara 93956","dusun 3, Lambai, Kec. Lambai, Kabupaten Kolaka Utara",SULAWESI TENGGARA,93956.0,Indonesia, 082291345449,,,-3.6348446,120.9744927,https://maps.google.com/?cid=0x0:0x3c8f79f71af5ba14,
building materials,Toko Bahan Bangunan,Toko irsan jaya,"HVVW+MM2, Simbula, Kec. Katoi, Kabupaten Kolaka Utara, Sulawesi Tenggara 93957","Simbula, Kec. Katoi, Kabupaten Kolaka Utara",SULAWESI TENGGARA,93957.0,Indonesia, 085341333555,,,-3.4058606,120.8966552,https://maps.google.com/?cid=0x0:0xc81b1ab7f29dc31f,
building materials,Toko Bahan Bangunan,Toko Nafis Bangunan,"Jl. Poros Lasusua - Ranteangin, Tojabi, Kec. Lasusua, Kabupaten Kolaka Utara, Sulawesi Tenggara 93913","Tojabi, Kec. Lasusua, Kabupaten Kolaka Utara",SULAWESI TENGGARA,93913.0,Indonesia, 085215533644,,,-3.5063634,120.8962923,https://maps.google.com/?cid=0x0:0x502394c19276f82b,
building materials,Pusat Perbelanjaan,Rumah ATK,"Wawo, Kec. Wawo, Kabupaten Kolaka Utara, Sulawesi Tenggara 93956","Kec. Wawo, Kabupaten Kolaka Utara",SULAWESI TENGGARA,93956.0,Indonesia, 085224874184,,,-3.6932586,121.0373398,https://maps.google.com/?cid=0x0:0x3d10ec5c4c4b8a98,
building materials,Toko Bahan Bangunan,Utama Bangunan,"FWQ2+2MX, Jl. Poros Lasusua - Ranteangin, Tojabi, Kec. Lasusua, Kabupaten Kolaka Utara, Sulawesi Tenggara 93916","Jl. Poros Lasusua - Ranteangin, Tojabi, Kec. Lasusua, Kabupaten Kolaka Utara",SULAWESI TENGGARA,93916.0,Indonesia,,,,-3.512226,120.9016042,https://maps.google.com/?cid=0x0:0xfa1bc66e26e4ab9,
building materials,building materials,,,,SULAWESI TENGGARA,,Indonesia, 085299876110,,,-3.5781015,121.0546,https://maps.google.com/?cid=0x0:0xa94f8b88faa46863,
building materials,Toko Bahan Bangunan,TOKO BAHAN APLIKASI BANGUNAN,"GV5J+36H, Ponggiha, Kec. Lasusua, Kabupaten Kolaka Utara, Sulawesi Tenggara 93914","Ponggiha, Kec. Lasusua, Kabupaten Kolaka Utara",SULAWESI TENGGARA,93914.0,Indonesia, 08114206900,,,-3.4924433,120.8804003,https://maps.google.com/?cid=0x0:0xf23c073d64879223,
building materials,,Toko Jaya Bangunan,"Jl. Sultan Hasanuddin, Lasusua, Kec. Lasusua, Kabupaten Kolaka Utara, Sulawesi Tenggara 93911","Lasusua, Kec. Lasusua, Kabupaten Kolaka Utara",SULAWESI TENGGARA,93911.0,Indonesia, 085255124222,,,-3.5043678,120.8867283,https://maps.google.com/?cid=0x0:0x7f49a94c3d5c8a31,
building materials,Toko Bahan Bangunan,Tb.Dewata,"V36Q+HJX, Jl. Poros Batuputih - Olooloho, Latali, Kec. Pakue Tengah, Kabupaten Kolaka Utara, Sulawesi Tenggara 93954","Jl. Poros Batuputih - Olooloho, Latali, Kec. Pakue Tengah, Kabupaten Kolaka Utara",SULAWESI TENGGARA,93954.0,Indonesia, 0895130809372,,,-3.138512,121.0891049,https://maps.google.com/?cid=0x0:0xe4af17b738ab7364,
building materials,Toko Bahan Bangunan,Toko Usaha Baru,"MXFJ+V23, RW.2, Tanggeawo, Kec. Tiwu, Kabupaten Kolaka Utara, Sulawesi Tenggara 93958","RW.2, Tanggeawo, Kec. Tiwu, Kabupaten Kolaka Utara",SULAWESI TENGGARA,93958.0,Indonesia, 085395710600,,,-3.3253548,120.9800543,https://maps.google.com/?cid=0x0:0xa4efdf00ec089810,
building materials,Toko Bahan Bangunan,TB. MUTIARA,"Jln trans sulawesi, Meeto, Kec. Kodeoha, Kabupaten Kolaka Utara, Sulawesi Tenggara 93957","Meeto, Kec. Kodeoha, Kabupaten Kolaka Utara",SULAWESI TENGGARA,93957.0,Indonesia, 082385728794,,,-3.3510496,120.9453282,https://maps.google.com/?cid=0x0:0x67daeac4a4fcf9b,
building materials,Toko Bahan Bangunan,Tk. Usaha Rappang Lamonae,"Q49V+RJ4, Jl. Trans Sulawesi, Lamonae, Kec. Wiwirano, Kabupaten Konawe Utara, Sulawesi Tenggara 93353","Jl. Trans Sulawesi, Lamonae, Kec. Wiwirano, Kabupaten Konawe Utara",SULAWESI TENGGARA,93353.0,Indonesia,,,,-3.2304967,122.1440837,https://maps.google.com/?cid=0x0:0xbcf9c375bb0de462,
building materials,Gudang,Toko Usaha Rappang Bangunan,"644W+8CP, Unnamed Road, Keurea, Kec. Bahodopi, Kabupaten Morowali, Sulawesi Tengah 94974","Unnamed Road, Keurea, Kec. Bahodopi, Kabupaten Morowali",SULAWESI TENGGARA,94974.0,Indonesia, 082393395667,,,-2.7940719,122.1460494,https://maps.google.com/?cid=0x0:0xcf8b53722335ee33,
toko bangunan,toko bangunan,Sulawesi Tenggara 93353,Sulawesi Tenggara,Sulawesi Tenggara,SULAWESI TENGGARA,,Indonesia,,,,-3.2548527,121.7195459,https://maps.google.com/?cid=0x0:0x9fb3fe070f9105ac,
toko bangunan,Toko Bahan Bangunan,Toko Sumber Rezky,"F4CM+993, Andowia, Kec. Andowia, Kabupaten Konawe Utara, Sulawesi Tenggara","Kabupaten Konawe Utara, Sulawesi Tenggara",SULAWESI TENGGARA,,Indonesia,,,,-3.5293012,122.133662,https://maps.google.com/?cid=0x0:0x7801e5871154e4b5,
toko bangunan,Toko Bahan Bangunan,Toko Asera jaya 2,"F4H8+F5W, Mataiwoi, Kec. Andowia, Kabupaten Konawe Utara, Sulawesi Tenggara","Kabupaten Konawe Utara, Sulawesi Tenggara",SULAWESI TENGGARA,,Indonesia,,,,-3.5212547,122.1154578,https://maps.google.com/?cid=0x0:0x5f18f429ed96ca00,
toko bangunan,,Toko Buana Indah,"Puunaaha, Kec. Unaaha, Kabupaten Konawe, Sulawesi Tenggara 93415","Kec. Unaaha, Kabupaten Konawe",SULAWESI TENGGARA,93415.0,Indonesia, 085241673940,,,-3.8579013,122.0421464,https://maps.google.com/?cid=0x0:0xbfdbea1d1e990acd,
toko bangunan,Toko Bahan Bangunan,Toko 27 Asinua,"Jl. Sawerigading, Samping Pasar No.125, Asinua, Kec. Unaaha, Kabupaten Konawe, Sulawesi Tenggara 93415","Samping Pasar No.125, Asinua, Kec. Unaaha, Kabupaten Konawe",SULAWESI TENGGARA,93415.0,Indonesia, 081341779773,,,-3.8538716,122.0716598,https://maps.google.com/?cid=0x0:0x6d1cfdfc7ac10a2b,
toko bangunan,Toko Perlengkapan Rumah,Toko Alfrida Bangunan Tuoy,"Jl. Poros Raterate-Unaaha No.25, Tuoy, Kec. Unaaha, Kabupaten Konawe, Sulawesi Tenggara 93415","Tuoy, Kec. Unaaha, Kabupaten Konawe",SULAWESI TENGGARA,93415.0,Indonesia, 082346555474,,,-3.8673772,122.0703096,https://maps.google.com/?cid=0x0:0xa12d77044a6a9769,
toko bangunan,,Toko Rafa Jaya,"Jalan polsek Lasolo pertigaan Andumowu, Jalan Polsek, Andumowu, Kec. Lasolo, Kabupaten Konawe Utara, Sulawesi Tenggara 93352","Jalan Polsek, Andumowu, Kec. Lasolo, Kabupaten Konawe Utara",SULAWESI TENGGARA,93352.0,Indonesia, 085218632041,,,-3.6645764,122.2355627,https://maps.google.com/?cid=0x0:0x9a375635e64963f6,
toko bangunan,Toko Bahan Bangunan,Toko Asera Jaya,"Jl. Pelabuhan No.16, Labungga, Kec. Andowia, Kabupaten Konawe Utara, Sulawesi Tenggara 93353","Labungga, Kec. Andowia, Kabupaten Konawe Utara",SULAWESI TENGGARA,93353.0,Indonesia, 085241994185,,,-3.5143528,122.1402996,https://maps.google.com/?cid=0x0:0x5d9187ed14ebf8a4,
toko bangunan,Toko Bahan Bangunan,CV. MAKMUR JAYA STEEL ASERA,"F48Q+V44, Jl. Poros Bungku Sel. - Kendari, Lamondowo, Kec. Andowia, Kabupaten Konawe Utara, Sulawesi Tenggara 93353","Jl. Poros Bungku Sel. - Kendari, Lamondowo, Kec. Andowia, Kabupaten Konawe Utara",SULAWESI TENGGARA,93353.0,Indonesia,,,,-3.5328795,122.1378491,https://maps.google.com/?cid=0x0:0x9a3ff939ff584af5,
toko bangunan,Toko Bahan Bangunan,Toko Savior,"Lahimbua, Kec. Andowia, Kabupaten Konawe Utara, Sulawesi Tenggara 93353","Kec. Andowia, Kabupaten Konawe Utara",SULAWESI TENGGARA,93353.0,Indonesia,,,,-3.5443464,122.1362703,https://maps.google.com/?cid=0x0:0xfd4d1c0d2c84ac56,
toko bangunan,Toko Bahan Bangunan,TOKO PRATIWI ASINUA,"Asinua, Kec. Unaaha, Kabupaten Konawe, Sulawesi Tenggara 93431","Kec. Unaaha, Kabupaten Konawe",SULAWESI TENGGARA,93431.0,Indonesia, 082246877366,,,-3.8546719,122.0713813,https://maps.google.com/?cid=0x0:0x68640238fc70002d,
toko bangunan,Toko Bahan Bangunan,Toko cahaya Mandiri,"J326+VHP, Unnamed Road, Landawe, Kec. Oheo, Kabupaten Konawe Utara, Sulawesi Tenggara 93353","Unnamed Road, Landawe, Kec. Oheo, Kabupaten Konawe Utara",SULAWESI TENGGARA,93353.0,Indonesia, 082233493473,,,-3.3977839,122.0614675,https://maps.google.com/?cid=0x0:0xe983cc4577e471cc,
toko bangunan,toko bangunan,Kec. Andowia,"Kabupaten Konawe Utara, Sulawesi Tenggara","Kabupaten Konawe Utara, Sulawesi Tenggara",SULAWESI TENGGARA,,Indonesia,,,,-3.5296127,122.1341414,https://maps.google.com/?cid=0x0:0x8e970052e7091e41,
toko bangunan,toko bangunan,Asera,"Asemi Nunulai, Kec. Asera, Kabupaten Konawe Utara, Sulawesi Tenggara","Kabupaten Konawe Utara, Sulawesi Tenggara",SULAWESI TENGGARA,,Indonesia,,,,-3.392804,121.749397,https://maps.google.com/?cid=0x0:0x8f84b31c6568f881,
toko bangunan,Toko Bahan Bangunan,Toko Asera Jaya,"Jl. Pelabuhan No.16, Labungga, Kec. Andowia, Kabupaten Konawe Utara, Sulawesi Tenggara 93353","Labungga, Kec. Andowia, Kabupaten Konawe Utara",SULAWESI TENGGARA,93353.0,Indonesia, 085241994185,,,-3.5143528,122.1402996,https://maps.google.com/?cid=0x0:0x5d9187ed14ebf8a4,
toko bangunan,Toko Bahan Bangunan,CV. MAKMUR JAYA STEEL ASERA,"F48Q+V44, Jl. Poros Bungku Sel. - Kendari, Lamondowo, Kec. Andowia, Kabupaten Konawe Utara, Sulawesi Tenggara 93353","Jl. Poros Bungku Sel. - Kendari, Lamondowo, Kec. Andowia, Kabupaten Konawe Utara",SULAWESI TENGGARA,93353.0,Indonesia,,,,-3.5328795,122.1378491,https://maps.google.com/?cid=0x0:0x9a3ff939ff584af5,
toko bangunan,Toko Bahan Bangunan,Toko Bangunan SURABAYA,"WFX3+JMV, Jl. Poros Bandara Haluoleo, RT.003/RW.002, Ranomeeto, Kec. Ranomeeto, Kabupaten Konawe Selatan, Sulawesi Tenggara 93871","Jl. Poros Bandara Haluoleo, RT.003/RW.002, Ranomeeto, Kec. Ranomeeto, Kabupaten Konawe Selatan",SULAWESI TENGGARA,93871.0,Indonesia, 081230677707,,,-4.0508771,122.4541799,https://maps.google.com/?cid=0x0:0x68ef04c6cae719e5,
toko bangunan,Toko Perlengkapan Rumah,Toko Alfrida Bangunan Tuoy,"Jl. Poros Raterate-Unaaha No.25, Tuoy, Kec. Unaaha, Kabupaten Konawe, Sulawesi Tenggara 93415","Tuoy, Kec. Unaaha, Kabupaten Konawe",SULAWESI TENGGARA,93415.0,Indonesia, 082346555474,,,-3.8673772,122.0703096,https://maps.google.com/?cid=0x0:0xa12d77044a6a9769,
toko bangunan,Pasar bahan bangunan,TOKO MEGA TAMA Wawotobi (Toko Bangunan),"Jl. Jend Sudirman No.17, Wawotobi, Kec. Wawotobi, Kabupaten Konawe, Sulawesi Tenggara 93461","Wawotobi, Kec. Wawotobi, Kabupaten Konawe",SULAWESI TENGGARA,93461.0,Indonesia, 085216149991,,,-3.8766033,122.1086909,https://maps.google.com/?cid=0x0:0x6590efc314bd5d70,
toko bangunan,Toko Bahan Bangunan,Toko Asera jaya 2,"F4H8+F5W, Mataiwoi, Kec. Andowia, Kabupaten Konawe Utara, Sulawesi Tenggara","Kabupaten Konawe Utara, Sulawesi Tenggara",SULAWESI TENGGARA,,Indonesia,,,,-3.5212547,122.1154578,https://maps.google.com/?cid=0x0:0x5f18f429ed96ca00,
toko bangunan,toko bangunan,Kecamatan Langgikima,"Kabupaten Konawe Utara, Sulawesi Tenggara","Kabupaten Konawe Utara, Sulawesi Tenggara",SULAWESI TENGGARA,,Indonesia,,,,-3.2937576,122.2336267,https://maps.google.com/?cid=0x0:0x84f471fa9a20e886,
toko bangunan,Toko Bahan Bangunan,Bintang Jaya,"P65H+92F, Langgikima, Kecamatan Langgikima, Kabupaten Konawe Utara, Sulawesi Tenggara 93353","Langgikima, Kecamatan Langgikima, Kabupaten Konawe Utara",SULAWESI TENGGARA,93353.0,Indonesia,,,,-3.2915727,122.2275383,https://maps.google.com/?cid=0x0:0x39a649c7cbeabc40,
toko bangunan,Toko Bahan Bangunan,Toko Bangunan SURABAYA,"WFX3+JMV, Jl. Poros Bandara Haluoleo, RT.003/RW.002, Ranomeeto, Kec. Ranomeeto, Kabupaten Konawe Selatan, Sulawesi Tenggara 93871","Jl. Poros Bandara Haluoleo, RT.003/RW.002, Ranomeeto, Kec. Ranomeeto, Kabupaten Konawe Selatan",SULAWESI TENGGARA,93871.0,Indonesia, 081230677707,,,-4.0508771,122.4541799,https://maps.google.com/?cid=0x0:0x68ef04c6cae719e5,
toko bangunan,Toko bahan makanan,Toko Tiara,"86HQ+JW7, Jl. Poros Lasolo - Kendari, Lametono, Kec. Lasolo, Kabupaten Konawe Utara, Sulawesi Tenggara 93352","Jl. Poros Lasolo - Kendari, Lametono, Kec. Lasolo, Kabupaten Konawe Utara",SULAWESI TENGGARA,93352.0,Indonesia,,,,-3.6709745,122.2398047,https://maps.google.com/?cid=0x0:0x5c319a1cf8519d1b,
toko bangunan,Toko Bahan Bangunan,Toko Harapan Baru Bangunan,"Jl. Bunggasi No.19, Anduonohu, Kec. Poasia, Kota Kendari, Sulawesi Tenggara 93232","Anduonohu, Kec. Poasia, Kota Kendari",SULAWESI TENGGARA,93232.0,Indonesia, 081243205350,,,-4.0002074,122.5416766,https://maps.google.com/?cid=0x0:0xc46eece10997898f,
toko bangunan,Toko Bahan Bangunan,Toko Asera Jaya,"Jl. Pelabuhan No.16, Labungga, Kec. Andowia, Kabupaten Konawe Utara, Sulawesi Tenggara 93353","Labungga, Kec. Andowia, Kabupaten Konawe Utara",SULAWESI TENGGARA,93353.0,Indonesia, 085241994185,,,-3.5143528,122.1402996,https://maps.google.com/?cid=0x0:0x5d9187ed14ebf8a4,
toko bangunan,Toko Bahan Bangunan,Toko Sumber Rezky,"F4CM+993, Andowia, Kec. Andowia, Kabupaten Konawe Utara, Sulawesi Tenggara","Kabupaten Konawe Utara, Sulawesi Tenggara",SULAWESI TENGGARA,,Indonesia,,,,-3.5293012,122.133662,https://maps.google.com/?cid=0x0:0x7801e5871154e4b5,
toko bangunan,Pusat Perbelanjaan,TOKO NABILAH JAYA BANGUNAN NJ,"WF53+M9W, Jl. Poros Kendari - Andoolo, Lamomea, Kec. Konda, Kabupaten Konawe Selatan, Sulawesi Tenggara 93871","Jl. Poros Kendari - Andoolo, Lamomea, Kec. Konda, Kabupaten Konawe Selatan",SULAWESI TENGGARA,93871.0,Indonesia,,,,-4.0907564,122.4534404,https://maps.google.com/?cid=0x0:0xb44bd62605c2487b,
toko bangunan,Toko Bahan Bangunan,Tk. Usaha Rappang Lamonae,"Q49V+RJ4, Jl. Trans Sulawesi, Lamonae, Kec. Wiwirano, Kabupaten Konawe Utara, Sulawesi Tenggara 93353","Jl. Trans Sulawesi, Lamonae, Kec. Wiwirano, Kabupaten Konawe Utara",SULAWESI TENGGARA,93353.0,Indonesia,,,,-3.2304967,122.1440837,https://maps.google.com/?cid=0x0:0xbcf9c375bb0de462,
toko bangunan,,Alif Jaya Bangunan,"95PX+QJC, Jl. Poros Bungku Sel. - Kendari, Molawe, Kec. Molawe, Kabupaten Konawe Utara, Sulawesi Tenggara 93352","Jl. Poros Bungku Sel. - Kendari, Molawe, Kec. Molawe, Kabupaten Konawe Utara",SULAWESI TENGGARA,93352.0,Indonesia,,,,-3.6130516,122.1990159,https://maps.google.com/?cid=0x0:0xaf198e1a83dc454f,
toko bangunan,Toko Bahan Bangunan,Toko Bintang perkasa,"F4CM+97J, Andowia, Kec. Andowia, Kabupaten Konawe Utara, Sulawesi Tenggara","Kabupaten Konawe Utara, Sulawesi Tenggara",SULAWESI TENGGARA,,Indonesia,,,,-3.5290472,122.1331285,https://maps.google.com/?cid=0x0:0x335fc4006d33e278,
toko bangunan,toko bangunan,Sulawesi Tenggara 93352,"Kabupaten Konawe Utara, Sulawesi Tenggara","Kabupaten Konawe Utara, Sulawesi Tenggara",SULAWESI TENGGARA,,Indonesia,,,,-3.7041573,122.2427,https://maps.google.com/?cid=0x0:0x888ae8f2fa8ed5e8,
toko bangunan,Toko bahan makanan,Toko Tiara,"86HQ+JW7, Jl. Poros Lasolo - Kendari, Lametono, Kec. Lasolo, Kabupaten Konawe Utara, Sulawesi Tenggara 93352","Jl. Poros Lasolo - Kendari, Lametono, Kec. Lasolo, Kabupaten Konawe Utara",SULAWESI TENGGARA,93352.0,Indonesia,,,,-3.6709745,122.2398047,https://maps.google.com/?cid=0x0:0x5c319a1cf8519d1b,
toko bangunan,,Toko Rafa Jaya,"Jalan polsek Lasolo pertigaan Andumowu, Jalan Polsek, Andumowu, Kec. Lasolo, Kabupaten Konawe Utara, Sulawesi Tenggara 93352","Jalan Polsek, Andumowu, Kec. Lasolo, Kabupaten Konawe Utara",SULAWESI TENGGARA,93352.0,Indonesia, 085218632041,,,-3.6645764,122.2355627,https://maps.google.com/?cid=0x0:0x9a375635e64963f6,
toko bangunan,Toko Bahan Bangunan,Lamonai/konut,"875H+R3R, Toreo, Kec. Lasolo, Kabupaten Konawe Utara, Sulawesi Tenggara","Kabupaten Konawe Utara, Sulawesi Tenggara",SULAWESI TENGGARA,,Indonesia,,,,-3.690386,122.2776355,https://maps.google.com/?cid=0x0:0x8f447dfb49984f27,
toko bangunan,Toko Bahan Bangunan,Toko Asera Jaya,"Jl. Pelabuhan No.16, Labungga, Kec. Andowia, Kabupaten Konawe Utara, Sulawesi Tenggara 93353","Labungga, Kec. Andowia, Kabupaten Konawe Utara",SULAWESI TENGGARA,93353.0,Indonesia, 085241994185,,,-3.5143528,122.1402996,https://maps.google.com/?cid=0x0:0x5d9187ed14ebf8a4,
toko bangunan,Toko Bahan Bangunan,Toko Sumber Rezky,"F4CM+993, Andowia, Kec. Andowia, Kabupaten Konawe Utara, Sulawesi Tenggara","Kabupaten Konawe Utara, Sulawesi Tenggara",SULAWESI TENGGARA,,Indonesia,,,,-3.5293012,122.133662,https://maps.google.com/?cid=0x0:0x7801e5871154e4b5,
toko bangunan,,Tokoh bangunan zainal,"592P+C5M, Jl. Poros Bungku Sel. - Kendari, Tondowatu, Kec. Motui, Kabupaten Konawe Utara, Sulawesi Tenggara","Kabupaten Konawe Utara, Sulawesi Tenggara",SULAWESI TENGGARA,,Indonesia,,,,-3.8489083,122.3854268,https://maps.google.com/?cid=0x0:0x94d4646d19d114b0,
toko bangunan,Toko Bahan Bangunan,Toko Bangunan SURABAYA,"WFX3+JMV, Jl. Poros Bandara Haluoleo, RT.003/RW.002, Ranomeeto, Kec. Ranomeeto, Kabupaten Konawe Selatan, Sulawesi Tenggara 93871","Jl. Poros Bandara Haluoleo, RT.003/RW.002, Ranomeeto, Kec. Ranomeeto, Kabupaten Konawe Selatan",SULAWESI TENGGARA,93871.0,Indonesia, 081230677707,,,-4.0508771,122.4541799,https://maps.google.com/?cid=0x0:0x68ef04c6cae719e5,
toko bangunan,,Toko Cahaya Buana,"6CQM+HHR, Jl. Poros Bungku Sel. - Kendari, Tongauna, Kec. Sawa, Kabupaten Konawe Utara, Sulawesi Tenggara 93352","Jl. Poros Bungku Sel. - Kendari, Tongauna, Kec. Sawa, Kabupaten Konawe Utara",SULAWESI TENGGARA,93352.0,Indonesia,,,,-3.7610181,122.4338883,https://maps.google.com/?cid=0x0:0x33d439f8f7b6b14f,
toko bangunan,Jasa Konstruksi dan Bangunan,TB AROSPA,"3CVH+522, Jl. Poros Pohara - Laosu, Sampara/Morosi, Kec. Bondoala, Kabupaten Konawe, Sulawesi Tenggara 93354","Jl. Poros Pohara - Laosu, Sampara/Morosi, Kec. Bondoala, Kabupaten Konawe",SULAWESI TENGGARA,93354.0,Indonesia, 085241568043,,,-3.9071034,122.4275177,https://maps.google.com/?cid=0x0:0x13c8918cdf60dd95,
toko bangunan,Toko,Toko TIRTA MAS,"46XQ+G84, Jl. Mahoni, Ulu Benua, Amonggedo, Kabupaten Konawe, Sulawesi Tenggara 93461","Jl. Mahoni, Ulu Benua, Amonggedo, Kabupaten Konawe",SULAWESI TENGGARA,93461.0,Indonesia, 083833052031,,,-3.8512447,122.2383249,https://maps.google.com/?cid=0x0:0x3e413468d4ff1691,
toko bangunan,Establishment,Toko Ashoka Bangunan,"XF24+VRX, Ranomeeto, Kec. Ranomeeto, Kabupaten Konawe Selatan, Sulawesi Tenggara 93870","Ranomeeto, Kec. Ranomeeto, Kabupaten Konawe Selatan",SULAWESI TENGGARA,93870.0,Indonesia, 081284921416,,,-4.0477628,122.4570274,https://maps.google.com/?cid=0x0:0x93a6f28074a89e68,
toko bangunan,Pasar bahan bangunan,TOKO MEGA TAMA Wawotobi (Toko Bangunan),"Jl. Jend Sudirman No.17, Wawotobi, Kec. Wawotobi, Kabupaten Konawe, Sulawesi Tenggara 93461","Wawotobi, Kec. Wawotobi, Kabupaten Konawe",SULAWESI TENGGARA,93461.0,Indonesia, 085216149991,,,-3.8766033,122.1086909,https://maps.google.com/?cid=0x0:0x6590efc314bd5d70,
toko bangunan,Toko Bahan Bangunan,CV. MAKMUR JAYA STEEL ASERA,"F48Q+V44, Jl. Poros Bungku Sel. - Kendari, Lamondowo, Kec. Andowia, Kabupaten Konawe Utara, Sulawesi Tenggara 93353","Jl. Poros Bungku Sel. - Kendari, Lamondowo, Kec. Andowia, Kabupaten Konawe Utara",SULAWESI TENGGARA,93353.0,Indonesia,,,,-3.5328795,122.1378491,https://maps.google.com/?cid=0x0:0x9a3ff939ff584af5,
toko bangunan,Toko Bahan Bangunan,Toko Harapan Baru Bangunan,"Jl. Bunggasi No.19, Anduonohu, Kec. Poasia, Kota Kendari, Sulawesi Tenggara 93232","Anduonohu, Kec. Poasia, Kota Kendari",SULAWESI TENGGARA,93232.0,Indonesia, 081243205350,,,-4.0002074,122.5416766,https://maps.google.com/?cid=0x0:0xc46eece10997898f,
toko bangunan,Toko Bahan Bangunan,Toko Bintang perkasa,"F4CM+97J, Andowia, Kec. Andowia, Kabupaten Konawe Utara, Sulawesi Tenggara","Kabupaten Konawe Utara, Sulawesi Tenggara",SULAWESI TENGGARA,,Indonesia,,,,-3.5290472,122.1331285,https://maps.google.com/?cid=0x0:0x335fc4006d33e278,
toko bangunan,Toko Bahan Bangunan,Toko Asera jaya 2,"F4H8+F5W, Mataiwoi, Kec. Andowia, Kabupaten Konawe Utara, Sulawesi Tenggara","Kabupaten Konawe Utara, Sulawesi Tenggara",SULAWESI TENGGARA,,Indonesia,,,,-3.5212547,122.1154578,https://maps.google.com/?cid=0x0:0x5f18f429ed96ca00,
toko bangunan,Toko Bahan Bangunan,Toko 27 Asinua,"Jl. Sawerigading, Samping Pasar No.125, Asinua, Kec. Unaaha, Kabupaten Konawe, Sulawesi Tenggara 93415","Samping Pasar No.125, Asinua, Kec. Unaaha, Kabupaten Konawe",SULAWESI TENGGARA,93415.0,Indonesia, 081341779773,,,-3.8538716,122.0716598,https://maps.google.com/?cid=0x0:0x6d1cfdfc7ac10a2b,
toko bangunan,Toko Bahan Bangunan,TOKO ALDI BANGUNAN 2,"3CPP+5HR, Puuruy, Kec. Bondoala, Kabupaten Konawe, Sulawesi Tenggara","Kabupaten Konawe, Sulawesi Tenggara",SULAWESI TENGGARA,,Indonesia, 082291332052,,,-3.9145215,122.4363861,https://maps.google.com/?cid=0x0:0x142463ff9e6b370b,
toko bangunan,,Toko Buana Indah,"Puunaaha, Kec. Unaaha, Kabupaten Konawe, Sulawesi Tenggara 93415","Kec. Unaaha, Kabupaten Konawe",SULAWESI TENGGARA,93415.0,Indonesia, 085241673940,,,-3.8579013,122.0421464,https://maps.google.com/?cid=0x0:0xbfdbea1d1e990acd,
toko bangunan,Toko Bahan Bangunan,"MAXCELL DEPO TEKNIK  BANGUNAN | Toko Listrik, Elektronik, Furniture Kendari","Ex, Jl. Laode Hadi Jl. Brigjen M. Yoenoes No.149-159, Bende, Kadia, Kendari City, South East Sulawesi 93118","Jl. Laode Hadi Jl. Brigjen M. Yoenoes No.149-159, Bende, Kadia, Kendari City",SULAWESI TENGGARA,93118.0,Indonesia, 04013192000,,,-3.992658,122.5139203,https://maps.google.com/?cid=0x0:0x8135d7de339a4cf7,
toko bangunan,Toko Perlengkapan Rumah,Toko Alfrida Bangunan Tuoy,"Jl. Poros Raterate-Unaaha No.25, Tuoy, Kec. Unaaha, Kabupaten Konawe, Sulawesi Tenggara 93415","Tuoy, Kec. Unaaha, Kabupaten Konawe",SULAWESI TENGGARA,93415.0,Indonesia, 082346555474,,,-3.8673772,122.0703096,https://maps.google.com/?cid=0x0:0xa12d77044a6a9769,
toko bangunan,Pembangunan Perumahan,Desa puasana jalan pisang amonggedo,"562G+F7F, Puasana, Amonggedo, Kabupaten Konawe, Sulawesi Tenggara","Kabupaten Konawe, Sulawesi Tenggara",SULAWESI TENGGARA,,Indonesia,,,,-3.8488248,122.2256803,https://maps.google.com/?cid=0x0:0xdea921f4db3fb10c,
toko bangunan,,Toko Bangunan,"Jl. Poros Bungku Sel. - Kendari No.27, Padaleu, Kec. Lembo, Kabupaten Konawe Utara, Sulawesi Tenggara 93352","Padaleu, Kec. Lembo, Kabupaten Konawe Utara",SULAWESI TENGGARA,93352.0,Indonesia,,,,-3.7515665,122.3350134,https://maps.google.com/?cid=0x0:0x5f4c1ce47426a15d,
toko bangunan,Grosir,AYU BANGUNAN,"784F+F67, Jl. Poros Bungku Sel. - Kendari, Alo-Alo, Kec. Lembo, Kabupaten Konawe Utara, Sulawesi Tenggara 93561","Jl. Poros Bungku Sel. - Kendari, Alo-Alo, Kec. Lembo, Kabupaten Konawe Utara",SULAWESI TENGGARA,93561.0,Indonesia,,,,-3.7438411,122.323043,https://maps.google.com/?cid=0x0:0xac3743741c53084b,
toko bangunan,toko bangunan,Sulawesi Tenggara 93352,"Kabupaten Konawe Utara, Sulawesi Tenggara","Kabupaten Konawe Utara, Sulawesi Tenggara",SULAWESI TENGGARA,,Indonesia,,,,-3.7041573,122.2427,https://maps.google.com/?cid=0x0:0x888ae8f2fa8ed5e8,
toko bangunan,Toko Bahan Bangunan,Toko Bahan Bangunan / Building Material Sumber Rezeki,"Jl. Baru Puspa Negara, Puspanegara, Kec. Citeureup, Kabupaten Bogor, Jawa Barat 16810","Puspanegara, Kec. Citeureup, Kabupaten Bogor",SULAWESI TENGGARA,16810.0,Indonesia, 081220003865,,,-6.4834098,106.8800953,https://maps.google.com/?cid=0x0:0x587a4fad1e7b6543,
toko bangunan,Toko Bahan Bangunan,Toko Bangunan Sumber Rezeki,"JL. Alternatif Puspanegara, Komplek Kedai Pramuka 106, Citeureup, Puspanegara, Kec. Cibinong, Kabupaten Bogor, Jawa Barat 16810","Komplek Kedai Pramuka 106, Citeureup, Puspanegara, Kec. Cibinong, Kabupaten Bogor",SULAWESI TENGGARA,16810.0,Indonesia, 02187975318,,,-6.4846601,106.8778457,https://maps.google.com/?cid=0x0:0xaa3bfc2522596042,
toko bangunan,Toko Bahan Bangunan,TB. Fransia Jaya,"Jl. Raya Jakarta-Bogor No.21 Km. 34,5, RT.01/RW.01, Sukamaju Baru, Kec. Tapos, Kota Depok, Jawa Barat 16455","RT.01/RW.01, Sukamaju Baru, Kec. Tapos, Kota Depok",SULAWESI TENGGARA,16455.0,Indonesia, 0818248282,,,-6.4011224,106.862078,https://maps.google.com/?cid=0x0:0x50e8842589fed4ee,
toko bangunan,Toko Perlengkapan Rumah,TB. Multi Talenta Perkasa,"Jl. Raya Tapos No.78, RT.002/RW.20, Tapos, Kec. Tapos, Kota Depok, Jawa Barat 16457","RT.002/RW.20, Tapos, Kec. Tapos, Kota Depok",SULAWESI TENGGARA,16457.0,Indonesia, 089658111192,,,-6.4067655,106.8904566,https://maps.google.com/?cid=0x0:0x59296ee14817d6d7,
toko bangunan,Toko Cat,Nippon Paint (Sumber Rezeki),"Puspanegara, Kec. Citeureup, Kabupaten Bogor, Jawa Barat 16810","Kec. Citeureup, Kabupaten Bogor",SULAWESI TENGGARA,16810.0,Indonesia, 08985979811,,,-6.4834309,106.8800755,https://maps.google.com/?cid=0x0:0x55faeeb57ceaaede,
toko bangunan,Toko Bahan Bangunan,TB. Surya Jaya,"Jl. Merdeka No.69, Abadijaya, Kec. Sukmajaya, Kota Depok, Jawa Barat 16417","Abadijaya, Kec. Sukmajaya, Kota Depok",SULAWESI TENGGARA,16417.0,Indonesia, 082388888212,,,-6.3967221,106.8476491,https://maps.google.com/?cid=0x0:0x7d6eff65fd6c1d64,
toko bangunan,Pasar bahan bangunan,Material bangunan,"Jl. Bhakti Abri No.19B, Sukamaju Baru, Kec. Tapos, Kota Depok, Jawa Barat 16453","Sukamaju Baru, Kec. Tapos, Kota Depok",SULAWESI TENGGARA,16453.0,Indonesia, 085814591428,,,-6.4063765,106.8778211,https://maps.google.com/?cid=0x0:0x18287336a3d6f536,
toko bangunan,Toko Bahan Bangunan,Budi Kencana Toko Bahan Bangunan,"Jl. Jati Baru, Sukaharja, Telukjambe Timur, Karawang, Jawa Barat 41361","Sukaharja, Telukjambe Timur, Karawang",SULAWESI TENGGARA,41361.0,Indonesia, 085100030102,,,-6.3141612,107.2949255,https://maps.google.com/?cid=0x0:0x6571ac0658c3af72,
toko bangunan,Toko Bahan Bangunan,Gunung Madu,"Jelambar Madya Utara Blok A19 no 114, RT.14/RW.2, Jelambar, Kec. Grogol petamburan, Kota Jakarta Barat, Daerah Khusus Ibukota Jakarta 11460","RT.14/RW.2, Jelambar, Kec. Grogol petamburan, Kota Jakarta Barat",SULAWESI TENGGARA,11460.0,Indonesia, 082111748687,,,-6.1555828,106.7804722,https://maps.google.com/?cid=0x0:0x133e2d963d3cfb67,
toko bangunan,,Toko Bangunan,"Jl. Poros Bungku Sel. - Kendari No.27, Padaleu, Kec. Lembo, Kabupaten Konawe Utara, Sulawesi Tenggara 93352","Padaleu, Kec. Lembo, Kabupaten Konawe Utara",SULAWESI TENGGARA,93352.0,Indonesia,,,,-3.7515665,122.3350134,https://maps.google.com/?cid=0x0:0x5f4c1ce47426a15d,
toko bangunan,Grosir,AYU BANGUNAN,"784F+F67, Jl. Poros Bungku Sel. - Kendari, Alo-Alo, Kec. Lembo, Kabupaten Konawe Utara, Sulawesi Tenggara 93561","Jl. Poros Bungku Sel. - Kendari, Alo-Alo, Kec. Lembo, Kabupaten Konawe Utara",SULAWESI TENGGARA,93561.0,Indonesia,,,,-3.7438411,122.323043,https://maps.google.com/?cid=0x0:0xac3743741c53084b,
toko bangunan,Toko Bahan Bangunan,TB. Bintang Bangunan,"JL HR Edi Sukma, Km. 22, Ciburuy, Cigombong, Cinagara, Kec. Caringin, Kabupaten Bogor, Jawa Barat 16730","Km. 22, Ciburuy, Cigombong, Cinagara, Kec. Caringin, Kabupaten Bogor",SULAWESI TENGGARA,16730.0,Indonesia, 000000000,,,-6.7326722,106.8209917,https://maps.google.com/?cid=0x0:0xdb2c03ac72ccad17,
toko bangunan,toko bangunan,Sulawesi Tenggara 93352,"Kabupaten Konawe Utara, Sulawesi Tenggara","Kabupaten Konawe Utara, Sulawesi Tenggara",SULAWESI TENGGARA,,Indonesia,,,,-3.7041573,122.2427,https://maps.google.com/?cid=0x0:0x888ae8f2fa8ed5e8,
toko bangunan,,Alif Jaya Bangunan,"95PX+QJC, Jl. Poros Bungku Sel. - Kendari, Molawe, Kec. Molawe, Kabupaten Konawe Utara, Sulawesi Tenggara 93352","Jl. Poros Bungku Sel. - Kendari, Molawe, Kec. Molawe, Kabupaten Konawe Utara",SULAWESI TENGGARA,93352.0,Indonesia,,,,-3.6130516,122.1990159,https://maps.google.com/?cid=0x0:0xaf198e1a83dc454f,
toko bangunan,Pasar bahan bangunan,TOKO MEGA TAMA Wawotobi (Toko Bangunan),"Jl. Jend Sudirman No.17, Wawotobi, Kec. Wawotobi, Kabupaten Konawe, Sulawesi Tenggara 93461","Wawotobi, Kec. Wawotobi, Kabupaten Konawe",SULAWESI TENGGARA,93461.0,Indonesia, 085216149991,,,-3.8766033,122.1086909,https://maps.google.com/?cid=0x0:0x6590efc314bd5d70,
toko bangunan,Toko Bahan Bangunan,TOKO BANGUNAN RAFFAN PRIMA JAYA,"95RQ+GQ6, Jl. Poros Bungku Sel. - Kendari, Awila, Kec. Molawe, Kabupaten Konawe Utara, Sulawesi Tenggara 93352","Jl. Poros Bungku Sel. - Kendari, Awila, Kec. Molawe, Kabupaten Konawe Utara",SULAWESI TENGGARA,93352.0,Indonesia,,,,-3.6087108,122.1894037,https://maps.google.com/?cid=0x0:0x48fa8b631408fdf5,
toko bangunan,Toko Bahan Bangunan,TOKO BM BANGUNAN,"Jl. Poros Bandara Haluoleo, Ranomeeto, Kec. Ranomeeto, Kabupaten Konawe Selatan, Sulawesi Tenggara 93870","Ranomeeto, Kec. Ranomeeto, Kabupaten Konawe Selatan",SULAWESI TENGGARA,93870.0,Indonesia, 085256000132,,,-4.0511688,122.4539663,https://maps.google.com/?cid=0x0:0xc46893209ac52dc8,
toko bangunan,Toko,Toko Bahan Bangunan Nur Rezeki,"W94H+GMR, Amoito Siama, Kec. Ranomeeto, Kabupaten Konawe Selatan, Sulawesi Tenggara 93871","Amoito Siama, Kec. Ranomeeto, Kabupaten Konawe Selatan",SULAWESI TENGGARA,93871.0,Indonesia, 085201060000,,,-4.0936488,122.3791412,https://maps.google.com/?cid=0x0:0x528aa7bc710bb321,
toko bangunan,,Tokoh bangunan zainal,"592P+C5M, Jl. Poros Bungku Sel. - Kendari, Tondowatu, Kec. Motui, Kabupaten Konawe Utara, Sulawesi Tenggara","Kabupaten Konawe Utara, Sulawesi Tenggara",SULAWESI TENGGARA,,Indonesia,,,,-3.8489083,122.3854268,https://maps.google.com/?cid=0x0:0x94d4646d19d114b0,
toko bangunan,Toko Bahan Bangunan,Toko bahan bangunan,"M52J+QXP, Unnamed Road, Mataiwoi, Kec. Andoolo, Kabupaten Konawe Selatan, Sulawesi Tenggara 93819","Unnamed Road, Mataiwoi, Kec. Andoolo, Kabupaten Konawe Selatan",SULAWESI TENGGARA,93819.0,Indonesia,,,,-4.348029,122.1824396,https://maps.google.com/?cid=0x0:0x6eac64bf582c5bd2,
toko bangunan,Pasar bahan bangunan,TOKO MEGA TAMA Wawotobi (Toko Bangunan),"Jl. Jend Sudirman No.17, Wawotobi, Kec. Wawotobi, Kabupaten Konawe, Sulawesi Tenggara 93461","Wawotobi, Kec. Wawotobi, Kabupaten Konawe",SULAWESI TENGGARA,93461.0,Indonesia, 085216149991,,,-3.8766033,122.1086909,https://maps.google.com/?cid=0x0:0x6590efc314bd5d70,
toko bangunan,Toko Bahan Bangunan,UKUR,"Alam Sutera, Jl. Jalur Sutera Tim. No.20 Blok 3B, Kunciran, Kec. Pinang, Kota Tangerang, Banten 15143","Jl. Jalur Sutera Tim. No.20 Blok 3B, Kunciran, Kec. Pinang, Kota Tangerang",SULAWESI TENGGARA,15143.0,Indonesia, 081260000959,,,-6.2238134,106.6607815,https://maps.google.com/?cid=0x0:0xdde40cb8082091bf,
toko bangunan,Toko Perlengkapan Rumah,Tomu Jaya,"MF3X+WGF, Ambesea, Kec. Laeya, Kabupaten Konawe Selatan, Sulawesi Tenggara 93671","Ambesea, Kec. Laeya, Kabupaten Konawe Selatan",SULAWESI TENGGARA,93671.0,Indonesia, 082298890650,,,-4.345189,122.4988097,https://maps.google.com/?cid=0x0:0x168da60177c3fedd,
toko bangunan,Toko Perlengkapan Rumah,Toko Alfrida Bangunan Tuoy,"Jl. Poros Raterate-Unaaha No.25, Tuoy, Kec. Unaaha, Kabupaten Konawe, Sulawesi Tenggara 93415","Tuoy, Kec. Unaaha, Kabupaten Konawe",SULAWESI TENGGARA,93415.0,Indonesia, 082346555474,,,-3.8673772,122.0703096,https://maps.google.com/?cid=0x0:0xa12d77044a6a9769,
toko bangunan,Toko bahan makanan,Kios Cahaya Alwi,"Unnamed Road, depan gerbang BTN Maleo No.1, Kota Bangun, Kec. Ranomeeto, Kabupaten Konawe Selatan, Sulawesi Tenggara 93870","depan gerbang BTN Maleo No.1, Kota Bangun, Kec. Ranomeeto, Kabupaten Konawe Selatan",SULAWESI TENGGARA,93870.0,Indonesia,,,,-4.048462,122.467878,https://maps.google.com/?cid=0x0:0xcc818ac1184737c5,
toko bangunan,Toko Bahan Bangunan,Toko Harapan Baru Bangunan,"Jl. Bunggasi No.19, Anduonohu, Kec. Poasia, Kota Kendari, Sulawesi Tenggara 93232","Anduonohu, Kec. Poasia, Kota Kendari",SULAWESI TENGGARA,93232.0,Indonesia, 081243205350,,,-4.0002074,122.5416766,https://maps.google.com/?cid=0x0:0xc46eece10997898f,
toko bangunan,Toko Bahan Bangunan,Toko PELITA BANGUNAN,"G6V3+6GM, Jalan Poros, Asingi, Tinanggea, South Konawe Regency, South East Sulawesi 93885","Jalan Poros, Asingi, Tinanggea, South Konawe Regency",SULAWESI TENGGARA,93885.0,Indonesia,,,,-4.4569106,122.2038017,https://maps.google.com/?cid=0x0:0xe0f78aa91abccd20,
toko bangunan,Pusat Perbelanjaan,TOKO NABILAH JAYA BANGUNAN NJ,"WF53+M9W, Jl. Poros Kendari - Andoolo, Lamomea, Kec. Konda, Kabupaten Konawe Selatan, Sulawesi Tenggara 93871","Jl. Poros Kendari - Andoolo, Lamomea, Kec. Konda, Kabupaten Konawe Selatan",SULAWESI TENGGARA,93871.0,Indonesia,,,,-4.0907564,122.4534404,https://maps.google.com/?cid=0x0:0xb44bd62605c2487b,
toko bangunan,Toko Bahan Bangunan,Pelita Jaya Ranomeeto,"XF68+PXF, Jl. Poros Bandara Haluoleo, Kota Bangun, Kec. Ranomeeto, Kabupaten Konawe Selatan, Sulawesi Tenggara 93870","Jl. Poros Bandara Haluoleo, Kota Bangun, Kec. Ranomeeto, Kabupaten Konawe Selatan",SULAWESI TENGGARA,93870.0,Indonesia,,,,-4.0381851,122.4674263,https://maps.google.com/?cid=0x0:0x1a97e795f2906492,
toko bangunan,Toko,TOKO BANGUNAN RESTU JAYA ELEKTRIK,"X2J5+5HG, Langara Indah, Kec. Wawonii Bar., Konawe Kepulauan, Sulawesi Tenggara","Konawe Kepulauan, Sulawesi Tenggara",SULAWESI TENGGARA,,Indonesia, 085254245302,,,-4.0195617,123.0089433,https://maps.google.com/?cid=0x0:0xce3667ed12111e95,
toko bangunan,toko bangunan,Toko Bangunan Moderno,"Jl. Jend. Ahmad Yani No.188, Bonggoeya, Kec. Wua-Wua, Kota Kendari, Sulawesi Tenggara 93117","Bonggoeya, Kec. Wua-Wua, Kota Kendari",SULAWESI TENGGARA,93117.0,Indonesia,,,,-4.007016,122.4986186,https://maps.google.com/?cid=0x0:0xe1001fa059157e27,
toko bangunan,Toko Bahan Bangunan,TOKO ALDI BANGUNAN 2,"3CPP+5HR, Puuruy, Kec. Bondoala, Kabupaten Konawe, Sulawesi Tenggara","Kabupaten Konawe, Sulawesi Tenggara",SULAWESI TENGGARA,,Indonesia, 082291332052,,,-3.9145215,122.4363861,https://maps.google.com/?cid=0x0:0x142463ff9e6b370b,
toko bangunan,Toko Bahan Bangunan,Toli-toli Bangunan,"Jl. Ir. Soekarno No.76, Kessilampe, Kec. Kendari, Kota Kendari, Sulawesi Tenggara 93126","Kessilampe, Kec. Kendari, Kota Kendari",SULAWESI TENGGARA,93126.0,Indonesia, 04013121747,,,-3.9723121,122.5969146,https://maps.google.com/?cid=0x0:0xd61790c8b3259520,
toko bangunan,Toko Bahan Bangunan,Toko cahaya Mandiri,"J326+VHP, Unnamed Road, Landawe, Kec. Oheo, Kabupaten Konawe Utara, Sulawesi Tenggara 93353","Unnamed Road, Landawe, Kec. Oheo, Kabupaten Konawe Utara",SULAWESI TENGGARA,93353.0,Indonesia, 082233493473,,,-3.3977839,122.0614675,https://maps.google.com/?cid=0x0:0xe983cc4577e471cc,
toko bangunan,toko bangunan,Kec. Oheo,"Kabupaten Konawe Utara, Sulawesi Tenggara","Kabupaten Konawe Utara, Sulawesi Tenggara",SULAWESI TENGGARA,,Indonesia,,,,-3.4120121,122.0716764,https://maps.google.com/?cid=0x0:0x1fec54897c86d51a,
toko bangunan,Toko Bahan Bangunan,Batu mera oheo,"J2VW+XPH, Linomoiyo, Kec. Oheo, Kabupaten Konawe Utara, Sulawesi Tenggara","Kabupaten Konawe Utara, Sulawesi Tenggara",SULAWESI TENGGARA,,Indonesia, 081344581840,,,-3.3550674,122.0468694,https://maps.google.com/?cid=0x0:0xd3e788e4b73fcec,
toko bangunan,Toko Bahan Bangunan,Toko cahaya Mandiri,"J326+VHP, Unnamed Road, Landawe, Kec. Oheo, Kabupaten Konawe Utara, Sulawesi Tenggara 93353","Unnamed Road, Landawe, Kec. Oheo, Kabupaten Konawe Utara",SULAWESI TENGGARA,93353.0,Indonesia, 082233493473,,,-3.3977839,122.0614675,https://maps.google.com/?cid=0x0:0xe983cc4577e471cc,
toko bangunan,Pasar bahan bangunan,TOKO MEGA TAMA Wawotobi (Toko Bangunan),"Jl. Jend Sudirman No.17, Wawotobi, Kec. Wawotobi, Kabupaten Konawe, Sulawesi Tenggara 93461","Wawotobi, Kec. Wawotobi, Kabupaten Konawe",SULAWESI TENGGARA,93461.0,Indonesia, 085216149991,,,-3.8766033,122.1086909,https://maps.google.com/?cid=0x0:0x6590efc314bd5d70,
toko bangunan,Establishment,Toko Ashoka Bangunan,"XF24+VRX, Ranomeeto, Kec. Ranomeeto, Kabupaten Konawe Selatan, Sulawesi Tenggara 93870","Ranomeeto, Kec. Ranomeeto, Kabupaten Konawe Selatan",SULAWESI TENGGARA,93870.0,Indonesia, 081284921416,,,-4.0477628,122.4570274,https://maps.google.com/?cid=0x0:0x93a6f28074a89e68,
toko bangunan,Toko Perlengkapan Rumah,Toko Alfrida Bangunan Tuoy,"Jl. Poros Raterate-Unaaha No.25, Tuoy, Kec. Unaaha, Kabupaten Konawe, Sulawesi Tenggara 93415","Tuoy, Kec. Unaaha, Kabupaten Konawe",SULAWESI TENGGARA,93415.0,Indonesia, 082346555474,,,-3.8673772,122.0703096,https://maps.google.com/?cid=0x0:0xa12d77044a6a9769,
toko bangunan,Toko Swalayan,Toko Wahyu mandiri,"Langgomea, Kec. Uepai, Kabupaten Konawe, Sulawesi Tenggara 93464","Kec. Uepai, Kabupaten Konawe",SULAWESI TENGGARA,93464.0,Indonesia, 085397990203,,,-3.9221796,122.0491821,https://maps.google.com/?cid=0x0:0x2be9f83842718045,
toko bangunan,Perhimpunan Pengembang Perumahan,Toko Bahan Bangunan,"P8Q7+V47, Baito, Kec. Baito, Kabupaten Konawe Selatan, Sulawesi Tenggara","Kabupaten Konawe Selatan, Sulawesi Tenggara",SULAWESI TENGGARA,,Indonesia, 082242284378,,,-4.2603324,122.3127972,https://maps.google.com/?cid=0x0:0x10d49619a4d5598d,
toko bangunan,Jasa Konstruksi dan Bangunan,TB AROSPA,"3CVH+522, Jl. Poros Pohara - Laosu, Sampara/Morosi, Kec. Bondoala, Kabupaten Konawe, Sulawesi Tenggara 93354","Jl. Poros Pohara - Laosu, Sampara/Morosi, Kec. Bondoala, Kabupaten Konawe",SULAWESI TENGGARA,93354.0,Indonesia, 085241568043,,,-3.9071034,122.4275177,https://maps.google.com/?cid=0x0:0x13c8918cdf60dd95,
toko bangunan,Toko Bahan Bangunan,TOKO BM BANGUNAN,"Jl. Poros Bandara Haluoleo, Ranomeeto, Kec. Ranomeeto, Kabupaten Konawe Selatan, Sulawesi Tenggara 93870","Ranomeeto, Kec. Ranomeeto, Kabupaten Konawe Selatan",SULAWESI TENGGARA,93870.0,Indonesia, 085256000132,,,-4.0511688,122.4539663,https://maps.google.com/?cid=0x0:0xc46893209ac52dc8,
toko bangunan,Toko Bahan Bangunan,Tk. Usaha Rappang Lamonae,"Q49V+RJ4, Jl. Trans Sulawesi, Lamonae, Kec. Wiwirano, Kabupaten Konawe Utara, Sulawesi Tenggara 93353","Jl. Trans Sulawesi, Lamonae, Kec. Wiwirano, Kabupaten Konawe Utara",SULAWESI TENGGARA,93353.0,Indonesia,,,,-3.2304967,122.1440837,https://maps.google.com/?cid=0x0:0xbcf9c375bb0de462,
toko bangunan,Toko Bahan Bangunan,Toko Cahaya Sahabat,"354P+984, Wawoone, Kec. Wonggeduku, Kabupaten Konawe, Sulawesi Tenggara 93463","Wawoone, Kec. Wonggeduku, Kabupaten Konawe",SULAWESI TENGGARA,93463.0,Indonesia,,,,-3.9441119,122.1858237,https://maps.google.com/?cid=0x0:0xab6b20eca3ae67e0,
toko bangunan,Toko Bahan Bangunan,Bintang Jaya,"P65H+92F, Langgikima, Kecamatan Langgikima, Kabupaten Konawe Utara, Sulawesi Tenggara 93353","Langgikima, Kecamatan Langgikima, Kabupaten Konawe Utara",SULAWESI TENGGARA,93353.0,Indonesia,,,,-3.2915727,122.2275383,https://maps.google.com/?cid=0x0:0x39a649c7cbeabc40,
toko bangunan,Toko,TOKO BANGUNAN RESTU JAYA ELEKTRIK,"X2J5+5HG, Langara Indah, Kec. Wawonii Bar., Konawe Kepulauan, Sulawesi Tenggara","Konawe Kepulauan, Sulawesi Tenggara",SULAWESI TENGGARA,,Indonesia, 085254245302,,,-4.0195617,123.0089433,https://maps.google.com/?cid=0x0:0xce3667ed12111e95,
toko bangunan,Pasar bahan bangunan,TOKO MEGA TAMA Wawotobi (Toko Bangunan),"Jl. Jend Sudirman No.17, Wawotobi, Kec. Wawotobi, Kabupaten Konawe, Sulawesi Tenggara 93461","Wawotobi, Kec. Wawotobi, Kabupaten Konawe",SULAWESI TENGGARA,93461.0,Indonesia, 085216149991,,,-3.8766033,122.1086909,https://maps.google.com/?cid=0x0:0x6590efc314bd5d70,
toko bangunan,Toko Bahan Bangunan,Toko Bangunan Iswan,"G6W4+XX3, Asingi, Kec. Tinanggea, Kabupaten Konawe Selatan, Sulawesi Tenggara 93885","Asingi, Kec. Tinanggea, Kabupaten Konawe Selatan",SULAWESI TENGGARA,93885.0,Indonesia,,,,-4.4526036,122.2074163,https://maps.google.com/?cid=0x0:0xac4f803932d5aa50,
toko bangunan,Toko Bahan Bangunan,Toko Harapan Baru Bangunan,"Jl. Bunggasi No.19, Anduonohu, Kec. Poasia, Kota Kendari, Sulawesi Tenggara 93232","Anduonohu, Kec. Poasia, Kota Kendari",SULAWESI TENGGARA,93232.0,Indonesia, 081243205350,,,-4.0002074,122.5416766,https://maps.google.com/?cid=0x0:0xc46eece10997898f,
toko bangunan,,Toko Cahaya Buana,"6CQM+HHR, Jl. Poros Bungku Sel. - Kendari, Tongauna, Kec. Sawa, Kabupaten Konawe Utara, Sulawesi Tenggara 93352","Jl. Poros Bungku Sel. - Kendari, Tongauna, Kec. Sawa, Kabupaten Konawe Utara",SULAWESI TENGGARA,93352.0,Indonesia,,,,-3.7610181,122.4338883,https://maps.google.com/?cid=0x0:0x33d439f8f7b6b14f,
toko bangunan,Toko Bahan Bangunan,TOKO SEKAWAN BANGUNAN,"2G2X+RRR, Rahandouna, Kec. Poasia, Kota Kendari, Sulawesi Tenggara 93232","Rahandouna, Kec. Poasia, Kota Kendari",SULAWESI TENGGARA,93232.0,Indonesia, 085292213173,,,-3.9978985,122.5495158,https://maps.google.com/?cid=0x0:0xe6affc62a84d13df,
toko bangunan,Toko Bahan Bangunan,TOKO BANGUNAN,"6CRJ+6RH, Jl. Poros Bungku Sel. - Kendari, Tongauna, Kec. Sawa, Kabupaten Konawe Utara, Sulawesi Tenggara 93352","Jl. Poros Bungku Sel. - Kendari, Tongauna, Kec. Sawa, Kabupaten Konawe Utara",SULAWESI TENGGARA,93352.0,Indonesia,,,,-3.7594346,122.4320974,https://maps.google.com/?cid=0x0:0xa1f74e1392d8254e,
toko bangunan,Pusat Perbelanjaan,TOKO NABILAH JAYA BANGUNAN NJ,"WF53+M9W, Jl. Poros Kendari - Andoolo, Lamomea, Kec. Konda, Kabupaten Konawe Selatan, Sulawesi Tenggara 93871","Jl. Poros Kendari - Andoolo, Lamomea, Kec. Konda, Kabupaten Konawe Selatan",SULAWESI TENGGARA,93871.0,Indonesia,,,,-4.0907564,122.4534404,https://maps.google.com/?cid=0x0:0xb44bd62605c2487b,
toko bangunan,Toko Bahan Bangunan,TOKO BANGUNAN (MTR),"QFXX+6F, Aoma, Kec. Wolasi, Kabupaten Konawe Selatan, Sulawesi Tenggara","Kabupaten Konawe Selatan, Sulawesi Tenggara",SULAWESI TENGGARA,,Indonesia,,,,-4.2015238,122.4989825,https://maps.google.com/?cid=0x0:0x399025edba73de33,
toko bangunan,Establishment,Toko Ashoka Bangunan,"XF24+VRX, Ranomeeto, Kec. Ranomeeto, Kabupaten Konawe Selatan, Sulawesi Tenggara 93870","Ranomeeto, Kec. Ranomeeto, Kabupaten Konawe Selatan",SULAWESI TENGGARA,93870.0,Indonesia, 081284921416,,,-4.0477628,122.4570274,https://maps.google.com/?cid=0x0:0x93a6f28074a89e68,
toko bangunan,Toko Bahan Bangunan,UKUR,"Alam Sutera, Jl. Jalur Sutera Tim. No.20 Blok 3B, Kunciran, Kec. Pinang, Kota Tangerang, Banten 15143","Jl. Jalur Sutera Tim. No.20 Blok 3B, Kunciran, Kec. Pinang, Kota Tangerang",SULAWESI TENGGARA,15143.0,Indonesia, 081260000959,,,-6.2238134,106.6607815,https://maps.google.com/?cid=0x0:0xdde40cb8082091bf,
toko bangunan,Toko Bahan Bangunan,Super Bangunan Supermarket Bahan Bangun No #1,"Jl. Raya Cikaret No.8, Harapan Jaya, Kec. Cibinong, Kabupaten Bogor, Jawa Barat 16914","Harapan Jaya, Kec. Cibinong, Kabupaten Bogor",SULAWESI TENGGARA,16914.0,Indonesia, 085710923235,,,-6.4669858,106.8393338,https://maps.google.com/?cid=0x0:0x53373791abd65da6,
toko bangunan,Toko Bahan Bangunan,Toko Bangunan Samudra,"Jl Kranggan Raya, RT.01/02/RW.No.2, Puspasari, Kec. Citeureup, Kabupaten Bogor, Jawa Barat 16810","RT.01/02/RW.No.2, Puspasari, Kec. Citeureup, Kabupaten Bogor",SULAWESI TENGGARA,16810.0,Indonesia, 087887371288,,,-6.480654,106.871007,https://maps.google.com/?cid=0x0:0x7791e4d2c85deedf,
toko bangunan,Toko Bahan Bangunan,Toko Bangunan Depok Terlengkap - Mitra10 Shila Sawangan,"Jl. Senopati Boulevard No.1B, Bojongsari Lama, Kec. Bojongsari, Kota Depok, Jawa Barat 16517","Bojongsari Lama, Kec. Bojongsari, Kota Depok",SULAWESI TENGGARA,16517.0,Indonesia, 02150501010,,,-6.4025871,106.7439721,https://maps.google.com/?cid=0x0:0xe40b8353e65409bf,
toko bangunan,Toko Bahan Bangunan,SAPUTRA BANGUNAN,"Jl. Platina 2, Curug, Kec. Gn. Sindur, Kabupaten Bogor, Jawa Barat 16340","Curug, Kec. Gn. Sindur, Kabupaten Bogor",SULAWESI TENGGARA,16340.0,Indonesia, 081212271905,,,-6.3824674,106.7169128,https://maps.google.com/?cid=0x0:0xcfbfb9e9caa63c52,
toko bangunan,Toko Bahan Bangunan,Tb. Sawa Manidiri,"W78P+6XR, Ca, Cibuyur, Kec. Moga, Kabupaten Pemalang, Jawa Tengah 52354","Ca, Cibuyur, Kec. Moga, Kabupaten Pemalang",SULAWESI TENGGARA,52354.0,Indonesia, 082324031290,,,-7.0843947,109.287388,https://maps.google.com/?cid=0x0:0xd37f60d65816ccc9,
toko bangunan,Toko Bahan Bangunan,Toko Bahan Bangunan,"Jl. Raya Pasir Putih No.23, RW.4, Pasir Putih, Kec. Sawangan, Kota Depok, Jawa Barat 16519","RW.4, Pasir Putih, Kec. Sawangan, Kota Depok",SULAWESI TENGGARA,16519.0,Indonesia, 085695585895,,,-6.4301715,106.7844813,https://maps.google.com/?cid=0x0:0xff0c2e2df541e100,
toko bangunan,Toko Bahan Bangunan,Toko Bangunan Mitra Kita (kapuk),"13, Jl. Kapuk Kayu Besar No.35 A, RT.13/RW.11, Cengkareng Tim., Kecamatan Cengkareng, Kota Jakarta Barat, Daerah Khusus Ibukota Jakarta 11730","Jl. Kapuk Kayu Besar No.35 A, RT.13/RW.11, Cengkareng Tim., Kecamatan Cengkareng, Kota Jakarta Barat",SULAWESI TENGGARA,11730.0,Indonesia, 081803878788,,,-6.1229512,106.7329576,https://maps.google.com/?cid=0x0:0x6dd4da837c3adf4d,
toko bangunan,Toko Bahan Bangunan,UD.SAWA MANDIRI,"W78J+WMV, Jl. Raya Warungpring, Cibuyur, Kec. Warungpring, Kabupaten Pemalang, Jawa Tengah 52358","Jl. Raya Warungpring, Cibuyur, Kec. Warungpring, Kabupaten Pemalang",SULAWESI TENGGARA,52358.0,Indonesia, 085325344121,,,-7.0826354,109.2816629,https://maps.google.com/?cid=0x0:0x6f278c4b59cd4dcd,
toko bangunan,toko bangunan,Kec. Wawo,"Kabupaten Kolaka Utara, Sulawesi Tenggara","Kabupaten Kolaka Utara, Sulawesi Tenggara",SULAWESI TENGGARA,,Indonesia,,,,-3.6780928,121.0413713,https://maps.google.com/?cid=0x0:0x748e72d6124032b8,
toko bangunan,Toko,Toko Mega Bangunan,"Jl. Trans Sulawesi No.93, Puumbolo, Kec. Wawo, Kabupaten Kolaka Utara, Sulawesi Tenggara 93956","Puumbolo, Kec. Wawo, Kabupaten Kolaka Utara",SULAWESI TENGGARA,93956.0,Indonesia, 085241544951,,,-3.6717431,121.0422216,https://maps.google.com/?cid=0x0:0xb597653788f8ed2e,
toko bangunan,Toko Bahan Bangunan,Toko Diana Bangunan Tiga Putri,"83X2+338, Jl. Poros Ranteangin - Kolaka, Salurengko, Kec. Wawo, Kabupaten Kolaka Utara, Sulawesi Tenggara 93956","Jl. Poros Ranteangin - Kolaka, Salurengko, Kec. Wawo, Kabupaten Kolaka Utara",SULAWESI TENGGARA,93956.0,Indonesia,,,,-3.6523425,121.0502132,https://maps.google.com/?cid=0x0:0xc5fc5db345ddb64a,
toko bangunan,Toko,TOKO BANGUNAN HIDAYAH,"55W7+9JF, Jl. Poros Ranteangin - Kolaka, Ladahai, Kec. Wolo, Kabupaten Kolaka, Sulawesi Tenggara 93552","Jl. Poros Ranteangin - Kolaka, Ladahai, Kec. Wolo, Kabupaten Kolaka",SULAWESI TENGGARA,93552.0,Indonesia, 082297951192,,,-3.8040631,121.1640482,https://maps.google.com/?cid=0x0:0x22adb750f815ab9e,
toko bangunan,Toko Bahan Bangunan,Toko Bangunan Aneka Baya,"RJG7+6X4, Tonggoni, Kec. Pomalaa, Kabupaten Kolaka, Sulawesi Tenggara 93562","Tonggoni, Kec. Pomalaa, Kabupaten Kolaka",SULAWESI TENGGARA,93562.0,Indonesia, 085241824886,,,-4.1744932,121.6149507,https://maps.google.com/?cid=0x0:0x8938d63b80a7ac4,
toko bangunan,Toko Bahan Bangunan,TOKO LONGORI BANGUNAN,"RMH6+PM8, Jl. Poros Kolaka - Pomalaa, Longori, Kec. Baula, Kabupaten Kolaka, Sulawesi Tenggara 93562","Jl. Poros Kolaka - Pomalaa, Longori, Kec. Baula, Kabupaten Kolaka",SULAWESI TENGGARA,93562.0,Indonesia, 08124161484,,,-4.1707005,121.6617039,https://maps.google.com/?cid=0x0:0x59fe297449ae997d,
toko bangunan,Toko Bahan Bangunan,Tb.Dewata,"V36Q+HJX, Jl. Poros Batuputih - Olooloho, Latali, Kec. Pakue Tengah, Kabupaten Kolaka Utara, Sulawesi Tenggara 93954","Jl. Poros Batuputih - Olooloho, Latali, Kec. Pakue Tengah, Kabupaten Kolaka Utara",SULAWESI TENGGARA,93954.0,Indonesia, 0895130809372,,,-3.138512,121.0891049,https://maps.google.com/?cid=0x0:0xe4af17b738ab7364,
toko bangunan,Toko Bahan Bangunan,Toko Nafis Bangunan,"Jl. Poros Lasusua - Ranteangin, Tojabi, Kec. Lasusua, Kabupaten Kolaka Utara, Sulawesi Tenggara 93913","Tojabi, Kec. Lasusua, Kabupaten Kolaka Utara",SULAWESI TENGGARA,93913.0,Indonesia, 085215533644,,,-3.5063634,120.8962923,https://maps.google.com/?cid=0x0:0x502394c19276f82b,
toko bangunan,Toko Bahan Bangunan,TOKO BERAGAM BANGUNAN,"Tahoa, Kec. Kolaka, Kabupaten Kolaka, Sulawesi Tenggara 93561","Kec. Kolaka, Kabupaten Kolaka",SULAWESI TENGGARA,93561.0,Indonesia, 085255646333,,,-4.0670079,121.620245,https://maps.google.com/?cid=0x0:0x1efe5e1f790a47bd,
toko bangunan,Pusat Perbelanjaan,TOKO BANGUNAN MERTA MULIA,"Jl. Poros, Lamoare, Kec. Loea, Kabupaten Kolaka Timur, Sulawesi Tenggara 93572","Lamoare, Kec. Loea, Kabupaten Kolaka Timur",SULAWESI TENGGARA,93572.0,Indonesia, 085255072187,,,-4.0902276,121.8903196,https://maps.google.com/?cid=0x0:0x2d32e5060e93cb73,
toko bangunan,Toko Bahan Bangunan,Toko ud h. Lahi,"RJF7+R35, Dawi-Dawi, Kec. Pomalaa, Kabupaten Kolaka, Sulawesi Tenggara 93562","Dawi-Dawi, Kec. Pomalaa, Kabupaten Kolaka",SULAWESI TENGGARA,93562.0,Indonesia,,,,-4.17494,121.612653,https://maps.google.com/?cid=0x0:0xb6389c8b75f24868,
toko bangunan,Toko,MERPATI BANGUNAN WOLO,"SEBELUM PASAR SEBELAH KANAN, Wolo, Kec. Wolo, Kabupaten Kolaka, Sulawesi Tenggara 93553","Wolo, Kec. Wolo, Kabupaten Kolaka",SULAWESI TENGGARA,93553.0,Indonesia, 082363094856,,,-3.8379408,121.2546232,https://maps.google.com/?cid=0x0:0xa038a19362666bd,
toko bangunan,Toko Bahan Bangunan,TOKO BAHAN APLIKASI BANGUNAN,"GV5J+36H, Ponggiha, Kec. Lasusua, Kabupaten Kolaka Utara, Sulawesi Tenggara 93914","Ponggiha, Kec. Lasusua, Kabupaten Kolaka Utara",SULAWESI TENGGARA,93914.0,Indonesia, 08114206900,,,-3.4924433,120.8804003,https://maps.google.com/?cid=0x0:0xf23c073d64879223,
toko bangunan,,Toko Jaya Bangunan,"Jl. Sultan Hasanuddin, Lasusua, Kec. Lasusua, Kabupaten Kolaka Utara, Sulawesi Tenggara 93911","Lasusua, Kec. Lasusua, Kabupaten Kolaka Utara",SULAWESI TENGGARA,93911.0,Indonesia, 085255124222,,,-3.5043678,120.8867283,https://maps.google.com/?cid=0x0:0x7f49a94c3d5c8a31,
toko bangunan,Pasar bahan bangunan,TOKO MEGA TAMA Wawotobi (Toko Bangunan),"Jl. Jend Sudirman No.17, Wawotobi, Kec. Wawotobi, Kabupaten Konawe, Sulawesi Tenggara 93461","Wawotobi, Kec. Wawotobi, Kabupaten Konawe",SULAWESI TENGGARA,93461.0,Indonesia, 085216149991,,,-3.8766033,122.1086909,https://maps.google.com/?cid=0x0:0x6590efc314bd5d70,
toko bangunan,Toko Bahan Bangunan,Toko Usaha Baru,"MXFJ+V23, RW.2, Tanggeawo, Kec. Tiwu, Kabupaten Kolaka Utara, Sulawesi Tenggara 93958","RW.2, Tanggeawo, Kec. Tiwu, Kabupaten Kolaka Utara",SULAWESI TENGGARA,93958.0,Indonesia, 085395710600,,,-3.3253548,120.9800543,https://maps.google.com/?cid=0x0:0xa4efdf00ec089810,
toko bangunan,Toko Bahan Bangunan,Toko irsan jaya,"HVVW+MM2, Simbula, Kec. Katoi, Kabupaten Kolaka Utara, Sulawesi Tenggara 93957","Simbula, Kec. Katoi, Kabupaten Kolaka Utara",SULAWESI TENGGARA,93957.0,Indonesia, 085341333555,,,-3.4058606,120.8966552,https://maps.google.com/?cid=0x0:0xc81b1ab7f29dc31f,
toko bangunan,Toko umum,Toko Arthomoro,"2P6V+CVJ, Watupute, Mowewe, Kabupaten Kolaka Timur, Sulawesi Tenggara 93519","Watupute, Mowewe, Kabupaten Kolaka Timur",SULAWESI TENGGARA,93519.0,Indonesia,,,,-3.9889214,121.744638,https://maps.google.com/?cid=0x0:0xff0db84820d1c8ee,
toko bangunan,toko bangunan,Kec. Wawo,"Kabupaten Bima, Nusa Tenggara Bar.","Kabupaten Bima, Nusa Tenggara Bar.",SULAWESI TENGGARA,,Indonesia,,,,-8.5607035,118.8638881,https://maps.google.com/?cid=0x0:0x39c7ea33ad45db43,
toko bangunan,Toko Bahan Bangunan,Toko Semesta Bangunan lampe,"FRQ2+CGH, Jl. Lintas Bima-Sape, RT.03/RW.01, Lampe, Kec. Rasanae Tim., Tinur, Nusa Tenggara Bar.","Tinur, Nusa Tenggara Bar.",SULAWESI TENGGARA,,Indonesia, 085337505788,,,-8.5114499,118.8013508,https://maps.google.com/?cid=0x0:0x1365226fef54d633,
toko bangunan,Toko Perlengkapan Rumah,TOKO MIJI GONGOB,"Maria, Kec. Wawo, Kabupaten Bima, Nusa Tenggara Bar. 84119","Kec. Wawo, Kabupaten Bima",SULAWESI TENGGARA,84119.0,Indonesia, 085333229292,,,-8.5291887,118.8449228,https://maps.google.com/?cid=0x0:0x11ad24585a49ff07,
toko bangunan,Toko,Toko Fajar Terang,"JL Sultan Hasannuddin, No. 64, Rabangodu, Rasanae, 84113, Bima, 84118","Rabangodu, Rasanae,",SULAWESI TENGGARA,84113.0,Indonesia, 037442664,,,-8.5152898,118.7955841,https://maps.google.com/?cid=0x0:0xe3a6f48ba664244d,
toko bangunan,toko bangunan,Toko QurratuL Berkah,"Desa raba dusun raba wawo RT 09, Kabupaten Bima, Nusa Tenggara Bar.","Kabupaten Bima, Nusa Tenggara Bar.",SULAWESI TENGGARA,,Indonesia,,,,-8.5569031,118.8888064,https://maps.google.com/?cid=0x0:0x82322a8fdbd1160d,
toko bangunan,Toko,Toko Mega Bangunan,"Jl. Trans Sulawesi No.93, Puumbolo, Kec. Wawo, Kabupaten Kolaka Utara, Sulawesi Tenggara 93956","Puumbolo, Kec. Wawo, Kabupaten Kolaka Utara",SULAWESI TENGGARA,93956.0,Indonesia, 085241544951,,,-3.6717431,121.0422216,https://maps.google.com/?cid=0x0:0xb597653788f8ed2e,
toko bangunan,Toko Bahan Bangunan,Toko Mitra Bangunan,"55QP+577, Jl. Poros Ranteangin - Kolaka, Ulu Kalo, Kec. Wolo, Kabupaten Kolaka, Sulawesi Tenggara 93552","Jl. Poros Ranteangin - Kolaka, Ulu Kalo, Kec. Wolo, Kabupaten Kolaka",SULAWESI TENGGARA,93552.0,Indonesia, 082349234573,,,-3.81208,121.1856716,https://maps.google.com/?cid=0x0:0xb360d1a29cdd25d,
toko bangunan,Toko,TOKO BANGUNAN HIDAYAH,"55W7+9JF, Jl. Poros Ranteangin - Kolaka, Ladahai, Kec. Wolo, Kabupaten Kolaka, Sulawesi Tenggara 93552","Jl. Poros Ranteangin - Kolaka, Ladahai, Kec. Wolo, Kabupaten Kolaka",SULAWESI TENGGARA,93552.0,Indonesia, 082297951192,,,-3.8040631,121.1640482,https://maps.google.com/?cid=0x0:0x22adb750f815ab9e,
toko bangunan,Toko Bahan Bangunan,Toko Abadi jaya bangunan,"XH84+4VF, Jl. Poros Ranteangin - Kolaka, Mangolo, Kec. Latambaga, Kabupaten Kolaka, Sulawesi Tenggara","Kabupaten Kolaka, Sulawesi Tenggara",SULAWESI TENGGARA,,Indonesia, 082293633391,,,-4.0346886,121.5571731,https://maps.google.com/?cid=0x0:0x359bcbcfbb005f31,
toko bangunan,Toko Bahan Bangunan,TOKO BERAGAM BANGUNAN,"Tahoa, Kec. Kolaka, Kabupaten Kolaka, Sulawesi Tenggara 93561","Kec. Kolaka, Kabupaten Kolaka",SULAWESI TENGGARA,93561.0,Indonesia, 085255646333,,,-4.0670079,121.620245,https://maps.google.com/?cid=0x0:0x1efe5e1f790a47bd,
toko bangunan,Toko Bahan Bangunan,Toko Bangunan Aneka Baya,"RJG7+6X4, Tonggoni, Kec. Pomalaa, Kabupaten Kolaka, Sulawesi Tenggara 93562","Tonggoni, Kec. Pomalaa, Kabupaten Kolaka",SULAWESI TENGGARA,93562.0,Indonesia, 085241824886,,,-4.1744932,121.6149507,https://maps.google.com/?cid=0x0:0x8938d63b80a7ac4,
toko bangunan,Toko Bahan Bangunan,Toko ud h. Lahi,"RJF7+R35, Dawi-Dawi, Kec. Pomalaa, Kabupaten Kolaka, Sulawesi Tenggara 93562","Dawi-Dawi, Kec. Pomalaa, Kabupaten Kolaka",SULAWESI TENGGARA,93562.0,Indonesia,,,,-4.17494,121.612653,https://maps.google.com/?cid=0x0:0xb6389c8b75f24868,
toko bangunan,Toko umum,Toko Arthomoro,"2P6V+CVJ, Watupute, Mowewe, Kabupaten Kolaka Timur, Sulawesi Tenggara 93519","Watupute, Mowewe, Kabupaten Kolaka Timur",SULAWESI TENGGARA,93519.0,Indonesia,,,,-3.9889214,121.744638,https://maps.google.com/?cid=0x0:0xff0db84820d1c8ee,
toko bangunan,toko bangunan,Toko Eva Bangunan,"82MW+R46, Jl. Poros Ranteangin - Kolaka, Puumbolo, Kec. Wawo, Kabupaten Kolaka Utara, Sulawesi Tenggara 93956","Jl. Poros Ranteangin - Kolaka, Puumbolo, Kec. Wawo, Kabupaten Kolaka Utara",SULAWESI TENGGARA,93956.0,Indonesia,,,,-3.6654665,121.045268,https://maps.google.com/?cid=0x0:0x84388a4a8f2135f1,
toko bangunan,Pasar bahan bangunan,TOKO MEGA TAMA Wawotobi (Toko Bangunan),"Jl. Jend Sudirman No.17, Wawotobi, Kec. Wawotobi, Kabupaten Konawe, Sulawesi Tenggara 93461","Wawotobi, Kec. Wawotobi, Kabupaten Konawe",SULAWESI TENGGARA,93461.0,Indonesia, 085216149991,,,-3.8766033,122.1086909,https://maps.google.com/?cid=0x0:0x6590efc314bd5d70,
toko bangunan,Toko Elektronik,Toko Sinar Soppeng Anaiwoi,"JGHC+268, Anaiwoi, Tanggetada, Kabupaten Kolaka, Sulawesi Tenggara 93563","Anaiwoi, Tanggetada, Kabupaten Kolaka",SULAWESI TENGGARA,93563.0,Indonesia, 085333777261,,,-4.3724644,121.520569,https://maps.google.com/?cid=0x0:0xcfbd0dbce4fe443b,
toko bangunan,Pusat Perbelanjaan,TOKO BANGUNAN MERTA MULIA,"Jl. Poros, Lamoare, Kec. Loea, Kabupaten Kolaka Timur, Sulawesi Tenggara 93572","Lamoare, Kec. Loea, Kabupaten Kolaka Timur",SULAWESI TENGGARA,93572.0,Indonesia, 085255072187,,,-4.0902276,121.8903196,https://maps.google.com/?cid=0x0:0x2d32e5060e93cb73,
toko bangunan,Toko,MERPATI BANGUNAN WOLO,"SEBELUM PASAR SEBELAH KANAN, Wolo, Kec. Wolo, Kabupaten Kolaka, Sulawesi Tenggara 93553","Wolo, Kec. Wolo, Kabupaten Kolaka",SULAWESI TENGGARA,93553.0,Indonesia, 082363094856,,,-3.8379408,121.2546232,https://maps.google.com/?cid=0x0:0xa038a19362666bd,
toko bangunan,Toko Bahan Bangunan,TOKO BAHAN APLIKASI BANGUNAN,"GV5J+36H, Ponggiha, Kec. Lasusua, Kabupaten Kolaka Utara, Sulawesi Tenggara 93914","Ponggiha, Kec. Lasusua, Kabupaten Kolaka Utara",SULAWESI TENGGARA,93914.0,Indonesia, 08114206900,,,-3.4924433,120.8804003,https://maps.google.com/?cid=0x0:0xf23c073d64879223,
toko bangunan,Kantor Perusahaan,Toko Bangunan Bintang Selatan,"HG6C+R9, Wolulu, Kec. Watubangga, Kabupaten Kolaka, Sulawesi Tenggara 93563","Wolulu, Kec. Watubangga, Kabupaten Kolaka",SULAWESI TENGGARA,93563.0,Indonesia, 082343561011,,,-4.4379908,121.5210458,https://maps.google.com/?cid=0x0:0x511910030b33bfba,
toko bangunan,,Toko Jaya Bangunan,"Jl. Sultan Hasanuddin, Lasusua, Kec. Lasusua, Kabupaten Kolaka Utara, Sulawesi Tenggara 93911","Lasusua, Kec. Lasusua, Kabupaten Kolaka Utara",SULAWESI TENGGARA,93911.0,Indonesia, 085255124222,,,-3.5043678,120.8867283,https://maps.google.com/?cid=0x0:0x7f49a94c3d5c8a31,
toko bangunan,Toko,Toko.nirwana bangunan dan teknik,"Jl. Konggoasa No.29, Dawi-Dawi, Kec. Pomalaa, Kabupaten Kolaka, Sulawesi Tenggara 93562","Dawi-Dawi, Kec. Pomalaa, Kabupaten Kolaka",SULAWESI TENGGARA,93562.0,Indonesia, 082192185748,,,-4.1740381,121.6140466,https://maps.google.com/?cid=0x0:0xd0e149743537ad42,
toko bangunan,Toko Bahan Bangunan,Tb.Dewata,"V36Q+HJX, Jl. Poros Batuputih - Olooloho, Latali, Kec. Pakue Tengah, Kabupaten Kolaka Utara, Sulawesi Tenggara 93954","Jl. Poros Batuputih - Olooloho, Latali, Kec. Pakue Tengah, Kabupaten Kolaka Utara",SULAWESI TENGGARA,93954.0,Indonesia, 0895130809372,,,-3.138512,121.0891049,https://maps.google.com/?cid=0x0:0xe4af17b738ab7364,
toko bangunan,Toko Bahan Bangunan,TOKO BM BANGUNAN,"Jl. Poros Bandara Haluoleo, Ranomeeto, Kec. Ranomeeto, Kabupaten Konawe Selatan, Sulawesi Tenggara 93870","Ranomeeto, Kec. Ranomeeto, Kabupaten Konawe Selatan",SULAWESI TENGGARA,93870.0,Indonesia, 085256000132,,,-4.0511688,122.4539663,https://maps.google.com/?cid=0x0:0xc46893209ac52dc8,
toko bangunan,Toko Bahan Bangunan,Toko Usaha Baru,"MXFJ+V23, RW.2, Tanggeawo, Kec. Tiwu, Kabupaten Kolaka Utara, Sulawesi Tenggara 93958","RW.2, Tanggeawo, Kec. Tiwu, Kabupaten Kolaka Utara",SULAWESI TENGGARA,93958.0,Indonesia, 085395710600,,,-3.3253548,120.9800543,https://maps.google.com/?cid=0x0:0xa4efdf00ec089810,
toko bangunan,Toko Bahan Bangunan,TOKO KEMILAU PONRE,"5852+J24 Dusun 1 Al-Muhajirin, Tolowe Ponrewaru, Kec. Wolo, Kabupaten Kolaka, Sulawesi Tenggara","Kabupaten Kolaka, Sulawesi Tenggara",SULAWESI TENGGARA,,Indonesia,,,,-3.8409855,121.3000659,https://maps.google.com/?cid=0x0:0x2af55dc8ac16f997,
toko bangunan,toko bangunan,Sulawesi Tenggara 93956,"Kabupaten Kolaka Utara, Sulawesi Tenggara","Kabupaten Kolaka Utara, Sulawesi Tenggara",SULAWESI TENGGARA,,Indonesia,,,,-3.5905204,121.1252135,https://maps.google.com/?cid=0x0:0x65e443ed518d4559,
toko bangunan,Toko Bahan Bangunan,TOKO IRVAN 1,"9XCH+QH8, Jl. Poros Ranteangin - Kolaka, Lambai, Kec. Lambai, Kabupaten Kolaka Utara, Sulawesi Tenggara 93956","Jl. Poros Ranteangin - Kolaka, Lambai, Kec. Lambai, Kabupaten Kolaka Utara",SULAWESI TENGGARA,93956.0,Indonesia,,,,-3.62809,120.9789525,https://maps.google.com/?cid=0x0:0xcb4d7f637e9866da,
toko bangunan,Toko Bahan Bangunan,Toko Diana Bangunan Tiga Putri,"83X2+338, Jl. Poros Ranteangin - Kolaka, Salurengko, Kec. Wawo, Kabupaten Kolaka Utara, Sulawesi Tenggara 93956","Jl. Poros Ranteangin - Kolaka, Salurengko, Kec. Wawo, Kabupaten Kolaka Utara",SULAWESI TENGGARA,93956.0,Indonesia,,,,-3.6523425,121.0502132,https://maps.google.com/?cid=0x0:0xc5fc5db345ddb64a,
toko bangunan,toko bangunan,,,,SULAWESI TENGGARA,,Indonesia, 085299876110,,,-3.5781015,121.0546,https://maps.google.com/?cid=0x0:0xa94f8b88faa46863,
toko bangunan,toko bangunan,Sulawesi Tenggara,,Sulawesi Tenggara,SULAWESI TENGGARA,,Indonesia,,,,-4.14491,122.174605,https://maps.google.com/?cid=0x0:0x621d7c439f04a4ed,
toko bangunan,Toko Bahan Bangunan,Tk. Usaha Rappang Lamonae,"Q49V+RJ4, Jl. Trans Sulawesi, Lamonae, Kec. Wiwirano, Kabupaten Konawe Utara, Sulawesi Tenggara 93353","Jl. Trans Sulawesi, Lamonae, Kec. Wiwirano, Kabupaten Konawe Utara",SULAWESI TENGGARA,93353.0,Indonesia,,,,-3.2304967,122.1440837,https://maps.google.com/?cid=0x0:0xbcf9c375bb0de462,
toko bangunan,Toko Bahan Bangunan,TOKO PRATIWI ASINUA,"Asinua, Kec. Unaaha, Kabupaten Konawe, Sulawesi Tenggara 93431","Kec. Unaaha, Kabupaten Konawe",SULAWESI TENGGARA,93431.0,Indonesia, 082246877366,,,-3.8546719,122.0713813,https://maps.google.com/?cid=0x0:0x68640238fc70002d,
toko bangunan,Toko Perlengkapan Rumah,Toko Alfrida Bangunan Tuoy,"Jl. Poros Raterate-Unaaha No.25, Tuoy, Kec. Unaaha, Kabupaten Konawe, Sulawesi Tenggara 93415","Tuoy, Kec. Unaaha, Kabupaten Konawe",SULAWESI TENGGARA,93415.0,Indonesia, 082346555474,,,-3.8673772,122.0703096,https://maps.google.com/?cid=0x0:0xa12d77044a6a9769,
toko bangunan,Toko Bahan Bangunan,Toko Bahan Bangunan RAFA,"HF72+H9, Torobulu, Kec. Laeya, Kabupaten Konawe Selatan, Sulawesi Tenggara","Kabupaten Konawe Selatan, Sulawesi Tenggara",SULAWESI TENGGARA,,Indonesia, 085399043230,,,-4.4360891,122.4509813,https://maps.google.com/?cid=0x0:0x535c71538fa95735,
toko bangunan,Toko Bahan Bangunan,Toko Bangunan Iswan,"G6W4+XX3, Asingi, Kec. Tinanggea, Kabupaten Konawe Selatan, Sulawesi Tenggara 93885","Asingi, Kec. Tinanggea, Kabupaten Konawe Selatan",SULAWESI TENGGARA,93885.0,Indonesia,,,,-4.4526036,122.2074163,https://maps.google.com/?cid=0x0:0xac4f803932d5aa50,
toko bangunan,Toko Bahan Bangunan,Toko Rizal Bangunan,"J8XJ+VC2, Palangga, Kec. Palangga, Kabupaten Konawe Selatan, Sulawesi Tenggara 93883","Palangga, Kec. Palangga, Kabupaten Konawe Selatan",SULAWESI TENGGARA,93883.0,Indonesia,,,,-4.3503642,122.3310008,https://maps.google.com/?cid=0x0:0x71e58b10dd92664e,
toko bangunan,Toko Bahan Bangunan,TOKO BM BANGUNAN,"Jl. Poros Bandara Haluoleo, Ranomeeto, Kec. Ranomeeto, Kabupaten Konawe Selatan, Sulawesi Tenggara 93870","Ranomeeto, Kec. Ranomeeto, Kabupaten Konawe Selatan",SULAWESI TENGGARA,93870.0,Indonesia, 085256000132,,,-4.0511688,122.4539663,https://maps.google.com/?cid=0x0:0xc46893209ac52dc8,
toko bangunan,Toko Pertanian,Toko Ikhwan Tani,"M74X+HF, Potoro, Kec. Andoolo, Kabupaten Konawe Selatan, Sulawesi Tenggara","Kabupaten Konawe Selatan, Sulawesi Tenggara",SULAWESI TENGGARA,,Indonesia, 085398320400,,,-4.3435155,122.2986597,https://maps.google.com/?cid=0x0:0xb1e60066357f68e7,
toko bangunan,Toko Bahan Bangunan,Toko Harapan Baru Bangunan,"Jl. Bunggasi No.19, Anduonohu, Kec. Poasia, Kota Kendari, Sulawesi Tenggara 93232","Anduonohu, Kec. Poasia, Kota Kendari",SULAWESI TENGGARA,93232.0,Indonesia, 081243205350,,,-4.0002074,122.5416766,https://maps.google.com/?cid=0x0:0xc46eece10997898f,
toko bangunan,Toko Bahan Bangunan,Toko Bangunan SURABAYA,"WFX3+JMV, Jl. Poros Bandara Haluoleo, RT.003/RW.002, Ranomeeto, Kec. Ranomeeto, Kabupaten Konawe Selatan, Sulawesi Tenggara 93871","Jl. Poros Bandara Haluoleo, RT.003/RW.002, Ranomeeto, Kec. Ranomeeto, Kabupaten Konawe Selatan",SULAWESI TENGGARA,93871.0,Indonesia, 081230677707,,,-4.0508771,122.4541799,https://maps.google.com/?cid=0x0:0x68ef04c6cae719e5,
toko bangunan,Toko Bahan Bangunan,Toko Rizka Bangunan,"MCJ7+JV4, Mekar Sari, Kec. Palangga, Kabupaten Konawe Selatan, Sulawesi Tenggara 93883","Mekar Sari, Kec. Palangga, Kabupaten Konawe Selatan",SULAWESI TENGGARA,93883.0,Indonesia,,,,-4.3184864,122.4147005,https://maps.google.com/?cid=0x0:0x2607e1cf068286f7,
toko bangunan,Toko Bahan Bangunan,TOKO BANGUNAN (MTR),"QFXX+6F, Aoma, Kec. Wolasi, Kabupaten Konawe Selatan, Sulawesi Tenggara","Kabupaten Konawe Selatan, Sulawesi Tenggara",SULAWESI TENGGARA,,Indonesia,,,,-4.2015238,122.4989825,https://maps.google.com/?cid=0x0:0x399025edba73de33,
toko bangunan,,Toko Cahaya Buana,"6CQM+HHR, Jl. Poros Bungku Sel. - Kendari, Tongauna, Kec. Sawa, Kabupaten Konawe Utara, Sulawesi Tenggara 93352","Jl. Poros Bungku Sel. - Kendari, Tongauna, Kec. Sawa, Kabupaten Konawe Utara",SULAWESI TENGGARA,93352.0,Indonesia,,,,-3.7610181,122.4338883,https://maps.google.com/?cid=0x0:0x33d439f8f7b6b14f,
toko bangunan,Pusat Perbelanjaan,TOKO NABILAH JAYA BANGUNAN NJ,"WF53+M9W, Jl. Poros Kendari - Andoolo, Lamomea, Kec. Konda, Kabupaten Konawe Selatan, Sulawesi Tenggara 93871","Jl. Poros Kendari - Andoolo, Lamomea, Kec. Konda, Kabupaten Konawe Selatan",SULAWESI TENGGARA,93871.0,Indonesia,,,,-4.0907564,122.4534404,https://maps.google.com/?cid=0x0:0xb44bd62605c2487b,
toko bangunan,Toko bahan makanan,Kios Cahaya Alwi,"Unnamed Road, depan gerbang BTN Maleo No.1, Kota Bangun, Kec. Ranomeeto, Kabupaten Konawe Selatan, Sulawesi Tenggara 93870","depan gerbang BTN Maleo No.1, Kota Bangun, Kec. Ranomeeto, Kabupaten Konawe Selatan",SULAWESI TENGGARA,93870.0,Indonesia,,,,-4.048462,122.467878,https://maps.google.com/?cid=0x0:0xcc818ac1184737c5,
toko bangunan,Toko Bahan Bangunan,Toko bahan bangunan,"M52J+QXP, Unnamed Road, Mataiwoi, Kec. Andoolo, Kabupaten Konawe Selatan, Sulawesi Tenggara 93819","Unnamed Road, Mataiwoi, Kec. Andoolo, Kabupaten Konawe Selatan",SULAWESI TENGGARA,93819.0,Indonesia,,,,-4.348029,122.1824396,https://maps.google.com/?cid=0x0:0x6eac64bf582c5bd2,
toko bangunan,Toko Bahan Bangunan,Toko Sinar Samuli,"RGMC+PCV, Jl Poros Raha Wamengkoli, Watondo, Kec. Tongkuno Sel., Kabupaten Muna, Sulawesi Tenggara 93662","Jl Poros Raha Wamengkoli, Watondo, Kec. Tongkuno Sel., Kabupaten Muna",SULAWESI TENGGARA,93662.0,Indonesia, 082271218088,,,-5.1656396,122.5210432,https://maps.google.com/?cid=0x0:0x409de9a2896c31b3,
toko bangunan,Toko Bahan Bangunan,Toko Elvin Jaya,"G6QG+FH8, Tinanggea, Kec. Tinanggea, Kabupaten Konawe Selatan, Sulawesi Tenggara 93885","Tinanggea, Kec. Tinanggea, Kabupaten Konawe Selatan",SULAWESI TENGGARA,93885.0,Indonesia,,,,-4.4613479,122.22646,https://maps.google.com/?cid=0x0:0x6a7f3ece0da76da,
toko bangunan,Perhimpunan Pengembang Perumahan,Toko Bahan Bangunan,"P8Q7+V47, Baito, Kec. Baito, Kabupaten Konawe Selatan, Sulawesi Tenggara","Kabupaten Konawe Selatan, Sulawesi Tenggara",SULAWESI TENGGARA,,Indonesia, 082242284378,,,-4.2603324,122.3127972,https://maps.google.com/?cid=0x0:0x10d49619a4d5598d,
toko bangunan,Toko Bahan Bangunan,Toko Sumber Rezky,"F4CM+993, Andowia, Kec. Andowia, Kabupaten Konawe Utara, Sulawesi Tenggara","Kabupaten Konawe Utara, Sulawesi Tenggara",SULAWESI TENGGARA,,Indonesia,,,,-3.5293012,122.133662,https://maps.google.com/?cid=0x0:0x7801e5871154e4b5,
toko bangunan,,Tokoh bangunan zainal,"592P+C5M, Jl. Poros Bungku Sel. - Kendari, Tondowatu, Kec. Motui, Kabupaten Konawe Utara, Sulawesi Tenggara","Kabupaten Konawe Utara, Sulawesi Tenggara",SULAWESI TENGGARA,,Indonesia,,,,-3.8489083,122.3854268,https://maps.google.com/?cid=0x0:0x94d4646d19d114b0,
toko bangunan,Toko,Toko Dua Putri - Toko Bahan Bangunan,"P676+PG3, Ranooha Lestari, Kec. Buke, Kabupaten Konawe Selatan, Sulawesi Tenggara 93813","Ranooha Lestari, Kec. Buke, Kabupaten Konawe Selatan",SULAWESI TENGGARA,93813.0,Indonesia, 081341900108,,,-4.2857251,122.2113119,https://maps.google.com/?cid=0x0:0x6df32eceefa6ada2,
toko bangunan,Toko,Toko Bahan Bangunan Nur Rezeki,"W94H+GMR, Amoito Siama, Kec. Ranomeeto, Kabupaten Konawe Selatan, Sulawesi Tenggara 93871","Amoito Siama, Kec. Ranomeeto, Kabupaten Konawe Selatan",SULAWESI TENGGARA,93871.0,Indonesia, 085201060000,,,-4.0936488,122.3791412,https://maps.google.com/?cid=0x0:0x528aa7bc710bb321,
toko bangunan,Toko Bahan Bangunan,Toko PELITA BANGUNAN,"G6V3+6GM, Jalan Poros, Asingi, Tinanggea, South Konawe Regency, South East Sulawesi 93885","Jalan Poros, Asingi, Tinanggea, South Konawe Regency",SULAWESI TENGGARA,93885.0,Indonesia,,,,-4.4569106,122.2038017,https://maps.google.com/?cid=0x0:0xe0f78aa91abccd20,
toko bangunan,Gudang,Toko Usaha Rappang Bangunan,"644W+8CP, Unnamed Road, Keurea, Kec. Bahodopi, Kabupaten Morowali, Sulawesi Tengah 94974","Unnamed Road, Keurea, Kec. Bahodopi, Kabupaten Morowali",SULAWESI TENGGARA,94974.0,Indonesia, 082393395667,,,-2.7940719,122.1460494,https://maps.google.com/?cid=0x0:0xcf8b53722335ee33,
hardware store,hardware store,Sulawesi Tenggara 93353,Sulawesi Tenggara,Sulawesi Tenggara,SULAWESI TENGGARA,,Indonesia,,,,-3.2548527,121.7195459,https://maps.google.com/?cid=0x0:0x9fb3fe070f9105ac,
hardware store,Toko Bahan Bangunan,Toko Sumber Rezky,"F4CM+993, Andowia, Kec. Andowia, Kabupaten Konawe Utara, Sulawesi Tenggara","Kabupaten Konawe Utara, Sulawesi Tenggara",SULAWESI TENGGARA,,Indonesia,,,,-3.5293012,122.133662,https://maps.google.com/?cid=0x0:0x7801e5871154e4b5,
hardware store,hardware store,Tayana hardware,"H5CW+QWM, Morombo, Kec. Lasolo, Kabupaten Konawe Utara, Sulawesi Tenggara 93352","Morombo, Kec. Lasolo, Kabupaten Konawe Utara",SULAWESI TENGGARA,93352.0,Indonesia,,,,-3.4280479,122.1973081,https://maps.google.com/?cid=0x0:0xf35a6a8a6d31cb39,
hardware store,hardware store,Asera,"Asemi Nunulai, Kec. Asera, Kabupaten Konawe Utara, Sulawesi Tenggara","Kabupaten Konawe Utara, Sulawesi Tenggara",SULAWESI TENGGARA,,Indonesia,,,,-3.392804,121.749397,https://maps.google.com/?cid=0x0:0x8f84b31c6568f881,
hardware store,Toko Bahan Bangunan,Toko Asera Jaya,"Jl. Pelabuhan No.16, Labungga, Kec. Andowia, Kabupaten Konawe Utara, Sulawesi Tenggara 93353","Labungga, Kec. Andowia, Kabupaten Konawe Utara",SULAWESI TENGGARA,93353.0,Indonesia, 085241994185,,,-3.5143528,122.1402996,https://maps.google.com/?cid=0x0:0x5d9187ed14ebf8a4,
hardware store,Toko Bahan Bangunan,Toko Asera jaya 2,"F4H8+F5W, Mataiwoi, Kec. Andowia, Kabupaten Konawe Utara, Sulawesi Tenggara","Kabupaten Konawe Utara, Sulawesi Tenggara",SULAWESI TENGGARA,,Indonesia,,,,-3.5212547,122.1154578,https://maps.google.com/?cid=0x0:0x5f18f429ed96ca00,
hardware store,hardware store,Kecamatan Langgikima,"Kabupaten Konawe Utara, Sulawesi Tenggara","Kabupaten Konawe Utara, Sulawesi Tenggara",SULAWESI TENGGARA,,Indonesia,,,,-3.2937576,122.2336267,https://maps.google.com/?cid=0x0:0x84f471fa9a20e886,
hardware store,Toko Elektronik,Andre Cell Langgikima,"jl. poros, Langgikima, Kecamatan Langgikima, Kabupaten Konawe Utara, Sulawesi Tenggara 93353","Langgikima, Kecamatan Langgikima, Kabupaten Konawe Utara",SULAWESI TENGGARA,93353.0,Indonesia, 082190332114,,,-3.2991352,122.2378379,https://maps.google.com/?cid=0x0:0xbe59ff08afac0162,
hardware store,hardware store,Tayana hardware,"H5CW+QWM, Morombo, Kec. Lasolo, Kabupaten Konawe Utara, Sulawesi Tenggara 93352","Morombo, Kec. Lasolo, Kabupaten Konawe Utara",SULAWESI TENGGARA,93352.0,Indonesia,,,,-3.4280479,122.1973081,https://maps.google.com/?cid=0x0:0xf35a6a8a6d31cb39,
hardware store,hardware store,Tayana hardware,"H5CW+QWM, Morombo, Kec. Lasolo, Kabupaten Konawe Utara, Sulawesi Tenggara 93352","Morombo, Kec. Lasolo, Kabupaten Konawe Utara",SULAWESI TENGGARA,93352.0,Indonesia,,,,-3.4280479,122.1973081,https://maps.google.com/?cid=0x0:0xf35a6a8a6d31cb39,
hardware store,hardware store,Sulawesi Tenggara 93352,"Kabupaten Konawe Utara, Sulawesi Tenggara","Kabupaten Konawe Utara, Sulawesi Tenggara",SULAWESI TENGGARA,,Indonesia,,,,-3.7041573,122.2427,https://maps.google.com/?cid=0x0:0x888ae8f2fa8ed5e8,
hardware store,Jasa Konstruksi dan Bangunan,TB AROSPA,"3CVH+522, Jl. Poros Pohara - Laosu, Sampara/Morosi, Kec. Bondoala, Kabupaten Konawe, Sulawesi Tenggara 93354","Jl. Poros Pohara - Laosu, Sampara/Morosi, Kec. Bondoala, Kabupaten Konawe",SULAWESI TENGGARA,93354.0,Indonesia, 085241568043,,,-3.9071034,122.4275177,https://maps.google.com/?cid=0x0:0x13c8918cdf60dd95,
hardware store,Toko bahan makanan,Toko Tiara,"86HQ+JW7, Jl. Poros Lasolo - Kendari, Lametono, Kec. Lasolo, Kabupaten Konawe Utara, Sulawesi Tenggara 93352","Jl. Poros Lasolo - Kendari, Lametono, Kec. Lasolo, Kabupaten Konawe Utara",SULAWESI TENGGARA,93352.0,Indonesia,,,,-3.6709745,122.2398047,https://maps.google.com/?cid=0x0:0x5c319a1cf8519d1b,
hardware store,Toko Bahan Bangunan,"MAXCELL DEPO TEKNIK  BANGUNAN | Toko Listrik, Elektronik, Furniture Kendari","Ex, Jl. Laode Hadi Jl. Brigjen M. Yoenoes No.149-159, Bende, Kadia, Kendari City, South East Sulawesi 93118","Jl. Laode Hadi Jl. Brigjen M. Yoenoes No.149-159, Bende, Kadia, Kendari City",SULAWESI TENGGARA,93118.0,Indonesia, 04013192000,,,-3.992658,122.5139203,https://maps.google.com/?cid=0x0:0x8135d7de339a4cf7,
hardware store,hardware store,JAYA MITRA RANOMEETO,"Jl. Poros Bandara Haluoleo, Ranomeeto, Kec. Ranomeeto, Kabupaten Konawe Selatan, Sulawesi Tenggara","Kabupaten Konawe Selatan, Sulawesi Tenggara",SULAWESI TENGGARA,,Indonesia, 085394293368,,,-4.0508295,122.4542559,https://maps.google.com/?cid=0x0:0xdcfacffee4b28c6e,
hardware store,Pasar bahan bangunan,TOKO MEGA TAMA Wawotobi (Toko Bangunan),"Jl. Jend Sudirman No.17, Wawotobi, Kec. Wawotobi, Kabupaten Konawe, Sulawesi Tenggara 93461","Wawotobi, Kec. Wawotobi, Kabupaten Konawe",SULAWESI TENGGARA,93461.0,Indonesia, 085216149991,,,-3.8766033,122.1086909,https://maps.google.com/?cid=0x0:0x6590efc314bd5d70,
hardware store,Toko bahan makanan,Toko Umega Jaya,"4G47+XPH, Puuwonua, Kec. Lalonggasumeeto, Kabupaten Konawe, Sulawesi Tenggara 93351","Puuwonua, Kec. Lalonggasumeeto, Kabupaten Konawe",SULAWESI TENGGARA,93351.0,Indonesia,,,,-3.8925513,122.5143579,https://maps.google.com/?cid=0x0:0x3e72bfb230fdd6a7,
hardware store,Pusat Perbelanjaan,AZKO Living Plaza Kendari,"Jl. Jend. Ahmad Yani No.26, Kadia, Kec. Kadia, Kota Kendari, Sulawesi Tenggara 93115","Kadia, Kec. Kadia, Kota Kendari",SULAWESI TENGGARA,93115.0,Indonesia, 082136040069,,,-3.9812995,122.5097193,https://maps.google.com/?cid=0x0:0x85e8fa1a45a928d5,
hardware store,Pusat Perbelanjaan,Toko Sinar Buana,"26WF+VRG, Pondidaha, Kec. Pondidaha, Kabupaten Konawe, Sulawesi Tenggara 93463","Pondidaha, Kec. Pondidaha, Kabupaten Konawe",SULAWESI TENGGARA,93463.0,Indonesia, 081341521075,,,-3.9528043,122.2245878,https://maps.google.com/?cid=0x0:0xc0001b6cbfed6c76,
hardware store,Toko Perlengkapan Rumah,Haston Professional Tools And Hardware,"3329+QQG, Jl. Poros Kendari - Pohara, Asaki, Kec. Lambuya, Kabupaten Konawe, Sulawesi Tenggara 93464","Jl. Poros Kendari - Pohara, Asaki, Kec. Lambuya, Kabupaten Konawe",SULAWESI TENGGARA,93464.0,Indonesia,,,,-3.9480536,122.0694479,https://maps.google.com/?cid=0x0:0x3566fb1f375279c8,
hardware store,Toko Alat Tulis Kantor,(HS) Hery Setiawan - foty copy dan ATK,"Desa lalopisi, Kec. Meluhu, Kabupaten Konawe, Sulawesi Tenggara 93472","Kec. Meluhu, Kabupaten Konawe",SULAWESI TENGGARA,93472.0,Indonesia, 089681541114,,,-3.8138589,122.1970204,https://maps.google.com/?cid=0x0:0xe32467072fe49fe4,
hardware store,,Toko Buana Indah,"Puunaaha, Kec. Unaaha, Kabupaten Konawe, Sulawesi Tenggara 93415","Kec. Unaaha, Kabupaten Konawe",SULAWESI TENGGARA,93415.0,Indonesia, 085241673940,,,-3.8579013,122.0421464,https://maps.google.com/?cid=0x0:0xbfdbea1d1e990acd,
hardware store,Toko Alat Tulis Kantor,(SA) Sutia Abadi - foto copy dan ATK,"Jl. Tidar No.1, Ahuhu, Kec. Meluhu, Unaaha, Sulawesi Tenggara 93461","Ahuhu, Kec. Meluhu, Unaaha",SULAWESI TENGGARA,93461.0,Indonesia, 085394882356,,,-3.822516,122.189729,https://maps.google.com/?cid=0x0:0x9e42746d5915652c,
hardware store,Toko Bahan Bangunan,"MAXCELL DEPO TEKNIK  BANGUNAN (MT. HARYONO) | Toko Listrik, Elektronik, Furniture Kendari","Jl. Jenderal M.t. Haryono, Bende, Kendari, Kota Kendari, Sulawesi Tenggara 93117","Bende, Kendari, Kota Kendari",SULAWESI TENGGARA,93117.0,Indonesia, 085342967074,,,-3.9889194,122.5066889,https://maps.google.com/?cid=0x0:0x83faec61bc4c55c,
hardware store,Perusahaan Konstruksi,Meubel Fajar,"Jl. Poros Andolo-Baruga No.50, Landono, Kec. Landono, Kabupaten Konawe Selatan, Sulawesi Tenggara 93873","Landono, Kec. Landono, Kabupaten Konawe Selatan",SULAWESI TENGGARA,93873.0,Indonesia, 082282231845,,,-4.0898062,122.3103813,https://maps.google.com/?cid=0x0:0x88daeecc97bbc6fa,
hardware store,Toko Bahan Bangunan,Toko sinar sukses,"43M7+QV2, Tuoy, Kec. Unaaha, Kabupaten Konawe, Sulawesi Tenggara 93415","Tuoy, Kec. Unaaha, Kabupaten Konawe",SULAWESI TENGGARA,93415.0,Indonesia, 08114090345,,,-3.8654816,122.0645235,https://maps.google.com/?cid=0x0:0x20e86cdc5760dc5d,
hardware store,Toko Bahan Bangunan,Embun Meohaindo 01,"Jl. Poros Bandara Haluoleo, Laikaaha, Kec. Ranomeeto, Kabupaten Konawe Selatan, Sulawesi Tenggara 93870","Laikaaha, Kec. Ranomeeto, Kabupaten Konawe Selatan",SULAWESI TENGGARA,93870.0,Indonesia, 081342799901,,,-4.0476898,122.4567458,https://maps.google.com/?cid=0x0:0x3f885de969cd29bb,
hardware store,Toko Bahan Bangunan,Toko Pasti Jaya,"Jl. Bunga Seroja No.55D, Lahundape, Kec. Kendari Bar., Kota Kendari, Sulawesi Tenggara 93121","Lahundape, Kec. Kendari Bar., Kota Kendari",SULAWESI TENGGARA,93121.0,Indonesia, 081341758888,,,-3.966904,122.5297047,https://maps.google.com/?cid=0x0:0xc9913ae5132901e0,
hardware store,Toko Bahan Bangunan,Toko Asma,"Jl. Sabandara No.231, Puunaaha, Kec. Unaaha, Kabupaten Konawe, Sulawesi Tenggara 93413","Puunaaha, Kec. Unaaha, Kabupaten Konawe",SULAWESI TENGGARA,93413.0,Indonesia, 083833052031,,,-3.8612737,122.0410573,https://maps.google.com/?cid=0x0:0xfff8289c843ed555,
hardware store,Toko Bahan Bangunan,TB Al-Muhajirin Sonai,"X448+6WR, Watundehoa, Kec. Puriala, Kabupaten Konawe, Sulawesi Tenggara","Kabupaten Konawe, Sulawesi Tenggara",SULAWESI TENGGARA,,Indonesia, 082340169990,,,-4.0311848,122.122099,https://maps.google.com/?cid=0x0:0xc7b45b0ff7b427a7,
hardware store,hardware store,Sulawesi Tenggara 93352,"Kabupaten Konawe Utara, Sulawesi Tenggara","Kabupaten Konawe Utara, Sulawesi Tenggara",SULAWESI TENGGARA,,Indonesia,,,,-3.7041573,122.2427,https://maps.google.com/?cid=0x0:0x888ae8f2fa8ed5e8,
hardware store,hardware store,Kec. Lembo,"Wawopada, Kabupaten Morowali Utara, Sulawesi Tengah","Kabupaten Morowali Utara, Sulawesi Tengah",SULAWESI TENGGARA,,Indonesia,,,,-2.1606442,121.2127322,https://maps.google.com/?cid=0x0:0x4030bfbcaf78100,
hardware store,Toko Alat-Alat,R Hardware,"Jalan Buaran Raya No.14, Klender, Duren Sawit, RT.8/RW.15, Duren Sawit, Kec. Duren Sawit, Kota Jakarta Timur, Daerah Khusus Ibukota Jakarta 13470","Klender, Duren Sawit, RT.8/RW.15, Duren Sawit, Kec. Duren Sawit, Kota Jakarta Timur",SULAWESI TENGGARA,13470.0,Indonesia, 02186617280,,,-6.2206585,106.921238,https://maps.google.com/?cid=0x0:0x2eb6bbca842d3c29,
hardware store,hardware store,Sulawesi Tengah 94966,"Kec. Lembo, Kabupaten Morowali Utara, Sulawesi Tengah","Kabupaten Morowali Utara, Sulawesi Tengah",SULAWESI TENGGARA,,Indonesia,,,,-2.206204,121.2168466,https://maps.google.com/?cid=0x0:0x31ea9a5f1875191f,
hardware store,,Alif Jaya Bangunan,"95PX+QJC, Jl. Poros Bungku Sel. - Kendari, Molawe, Kec. Molawe, Kabupaten Konawe Utara, Sulawesi Tenggara 93352","Jl. Poros Bungku Sel. - Kendari, Molawe, Kec. Molawe, Kabupaten Konawe Utara",SULAWESI TENGGARA,93352.0,Indonesia,,,,-3.6130516,122.1990159,https://maps.google.com/?cid=0x0:0xaf198e1a83dc454f,
hardware store,hardware store,Sulawesi Tenggara 93352,"Kabupaten Konawe Utara, Sulawesi Tenggara","Kabupaten Konawe Utara, Sulawesi Tenggara",SULAWESI TENGGARA,,Indonesia,,,,-3.7041573,122.2427,https://maps.google.com/?cid=0x0:0x888ae8f2fa8ed5e8,
hardware store,Toko Bahan Bangunan,TOKO BANGUNAN RAFFAN PRIMA JAYA,"95RQ+GQ6, Jl. Poros Bungku Sel. - Kendari, Awila, Kec. Molawe, Kabupaten Konawe Utara, Sulawesi Tenggara 93352","Jl. Poros Bungku Sel. - Kendari, Awila, Kec. Molawe, Kabupaten Konawe Utara",SULAWESI TENGGARA,93352.0,Indonesia,,,,-3.6087108,122.1894037,https://maps.google.com/?cid=0x0:0x48fa8b631408fdf5,
hardware store,hardware store,Molawe,"Bandaeha, Kec. Molawe, Kabupaten Konawe Utara, Sulawesi Tenggara","Kabupaten Konawe Utara, Sulawesi Tenggara",SULAWESI TENGGARA,,Indonesia,,,,-3.624622,122.199097,https://maps.google.com/?cid=0x0:0x28e3759c14486a8e,
hardware store,Toko Bahan Bangunan,"MAXCELL DEPO TEKNIK  BANGUNAN | Toko Listrik, Elektronik, Furniture Kendari","Ex, Jl. Laode Hadi Jl. Brigjen M. Yoenoes No.149-159, Bende, Kadia, Kendari City, South East Sulawesi 93118","Jl. Laode Hadi Jl. Brigjen M. Yoenoes No.149-159, Bende, Kadia, Kendari City",SULAWESI TENGGARA,93118.0,Indonesia, 04013192000,,,-3.992658,122.5139203,https://maps.google.com/?cid=0x0:0x8135d7de339a4cf7,
hardware store,Toko Bahan Bangunan,Depo Tehnik Dan Bangunan,"2G36+WX5, JL. Laode Hadi By Pass, Wowawanggu, Kec. Kendari, Kota Kendari, Sulawesi Tenggara 93117","JL. Laode Hadi By Pass, Wowawanggu, Kec. Kendari, Kota Kendari",SULAWESI TENGGARA,93117.0,Indonesia, 085176999928,,,-3.9952274,122.512494,https://maps.google.com/?cid=0x0:0xabd0a7bc87ed2500,
hardware store,hardware store,Motui,"Kec. Motui, Kabupaten Konawe Utara, Sulawesi Tenggara","Kabupaten Konawe Utara, Sulawesi Tenggara",SULAWESI TENGGARA,,Indonesia,,,,-3.8064225,122.4552162,https://maps.google.com/?cid=0x0:0x4be5537f48106ff6,
hardware store,Toko bahan makanan,Toko Umega Jaya,"4G47+XPH, Puuwonua, Kec. Lalonggasumeeto, Kabupaten Konawe, Sulawesi Tenggara 93351","Puuwonua, Kec. Lalonggasumeeto, Kabupaten Konawe",SULAWESI TENGGARA,93351.0,Indonesia,,,,-3.8925513,122.5143579,https://maps.google.com/?cid=0x0:0x3e72bfb230fdd6a7,
hardware store,Toko bahan makanan,Toko umega jaya,"2H7G+JR7, Lapulu, Kec. Abeli, Kota Kendari, Sulawesi Tenggara 93234","Lapulu, Kec. Abeli, Kota Kendari",SULAWESI TENGGARA,93234.0,Indonesia,,,,-3.9859584,122.577059,https://maps.google.com/?cid=0x0:0x3750348a906586e,
hardware store,hardware store,Tayana hardware,"H5CW+QWM, Morombo, Kec. Lasolo, Kabupaten Konawe Utara, Sulawesi Tenggara 93352","Morombo, Kec. Lasolo, Kabupaten Konawe Utara",SULAWESI TENGGARA,93352.0,Indonesia,,,,-3.4280479,122.1973081,https://maps.google.com/?cid=0x0:0xf35a6a8a6d31cb39,
hardware store,Toko Bahan Bangunan,Toko cahaya Mandiri,"J326+VHP, Unnamed Road, Landawe, Kec. Oheo, Kabupaten Konawe Utara, Sulawesi Tenggara 93353","Unnamed Road, Landawe, Kec. Oheo, Kabupaten Konawe Utara",SULAWESI TENGGARA,93353.0,Indonesia, 082233493473,,,-3.3977839,122.0614675,https://maps.google.com/?cid=0x0:0xe983cc4577e471cc,
hardware store,Toko Swalayan,Toko Wahyu mandiri,"Langgomea, Kec. Uepai, Kabupaten Konawe, Sulawesi Tenggara 93464","Kec. Uepai, Kabupaten Konawe",SULAWESI TENGGARA,93464.0,Indonesia, 085397990203,,,-3.9221796,122.0491821,https://maps.google.com/?cid=0x0:0x2be9f83842718045,
hardware store,hardware store,Kec. Sawa,"Kabupaten Konawe Utara, Sulawesi Tenggara","Kabupaten Konawe Utara, Sulawesi Tenggara",SULAWESI TENGGARA,,Indonesia,,,,-3.7577044,122.4235351,https://maps.google.com/?cid=0x0:0x4736a1b9bff85990,
hardware store,Toko Bahan Bangunan,"MAXCELL DEPO TEKNIK  BANGUNAN | Toko Listrik, Elektronik, Furniture Kendari","Ex, Jl. Laode Hadi Jl. Brigjen M. Yoenoes No.149-159, Bende, Kadia, Kendari City, South East Sulawesi 93118","Jl. Laode Hadi Jl. Brigjen M. Yoenoes No.149-159, Bende, Kadia, Kendari City",SULAWESI TENGGARA,93118.0,Indonesia, 04013192000,,,-3.992658,122.5139203,https://maps.google.com/?cid=0x0:0x8135d7de339a4cf7,
hardware store,Toko Bahan Bangunan,"MAXCELL DEPO TEKNIK  BANGUNAN (MT. HARYONO) | Toko Listrik, Elektronik, Furniture Kendari","Jl. Jenderal M.t. Haryono, Bende, Kendari, Kota Kendari, Sulawesi Tenggara 93117","Bende, Kendari, Kota Kendari",SULAWESI TENGGARA,93117.0,Indonesia, 085342967074,,,-3.9889194,122.5066889,https://maps.google.com/?cid=0x0:0x83faec61bc4c55c,
hardware store,Penyedia Layanan Telekomunikasi,UMAR CELL,"6CWF+V3G, Desa Ulu, Kec. Sawa, Kabupaten Konawe Utara, Sulawesi Tenggara","Kabupaten Konawe Utara, Sulawesi Tenggara",SULAWESI TENGGARA,,Indonesia,,,,-3.7528191,122.4227177,https://maps.google.com/?cid=0x0:0x9eadb8c510bd5003,
hardware store,hardware store,Tayana hardware,"H5CW+QWM, Morombo, Kec. Lasolo, Kabupaten Konawe Utara, Sulawesi Tenggara 93352","Morombo, Kec. Lasolo, Kabupaten Konawe Utara",SULAWESI TENGGARA,93352.0,Indonesia,,,,-3.4280479,122.1973081,https://maps.google.com/?cid=0x0:0xf35a6a8a6d31cb39,
hardware store,Toko Elektronik,toko cahaya listrik,"3CMM+C2G cahaya listrik, Puuruy, Kec. Bondoala, Kabupaten Konawe, Sulawesi Tenggara 93354","Puuruy, Kec. Bondoala, Kabupaten Konawe",SULAWESI TENGGARA,93354.0,Indonesia,,,,-3.9164353,122.4325682,https://maps.google.com/?cid=0x0:0x4510da2ed4dcbdb,
hardware store,Pom bensin/SPBU,Sinar Sopeng Variasi,"M6XQ+WCF, Unnamed Road, Pariama, Kecamatan Langgikima, Kabupaten Konawe Utara, Sulawesi Tenggara 93353","Unnamed Road, Pariama, Kecamatan Langgikima, Kabupaten Konawe Utara",SULAWESI TENGGARA,93353.0,Indonesia,,,,-3.3001868,122.2385533,https://maps.google.com/?cid=0x0:0x9996c89cde6bd33f,
hardware store,Toko Bahan Bangunan,SAWA HARDWARE,"Nairobi, Kenya","Nairobi, Kenya",SULAWESI TENGGARA,,Indonesia,,,,-1.2720345,36.9434945,https://maps.google.com/?cid=0x0:0x6f6f78b9e5a5452c,
hardware store,Toko Bahan Bangunan,Sawa Hardware,"Molo, Kenya","Molo, Kenya",SULAWESI TENGGARA,,Indonesia,,,,-0.2475442,35.7288974,https://maps.google.com/?cid=0x0:0xc4d79c5f00f82b9b,
hardware store,Toko Bahan Bangunan,SAWA HARDWARE,"Thika, Kenya","Thika, Kenya",SULAWESI TENGGARA,,Indonesia,,,,-1.0655766,37.1258641,https://maps.google.com/?cid=0x0:0xbf93fd2e838a1cb3,
hardware store,Toko Bahan Bangunan,Homer Hardware Store,"Dinthar Veng, Aizawl, Mizoram 796001, India","Aizawl, Mizoram",SULAWESI TENGGARA,796001.0,Indonesia, +917005679335,,,23.7333227,92.7144076,https://maps.google.com/?cid=0x0:0x3fad0dbb47b77a90,
hardware store,Toko Bahan Bangunan,Sawasawa Hardware,"Nairobi, Kenya","Nairobi, Kenya",SULAWESI TENGGARA,,Indonesia,,,,-1.2686375,36.9208565,https://maps.google.com/?cid=0x0:0xdee5178d1e66dba3,
hardware store,hardware store,Kec. Wawo,"Kabupaten Kolaka Utara, Sulawesi Tenggara","Kabupaten Kolaka Utara, Sulawesi Tenggara",SULAWESI TENGGARA,,Indonesia,,,,-3.6780928,121.0413713,https://maps.google.com/?cid=0x0:0x748e72d6124032b8,
hardware store,Pusat Perbelanjaan,Rumah ATK,"Wawo, Kec. Wawo, Kabupaten Kolaka Utara, Sulawesi Tenggara 93956","Kec. Wawo, Kabupaten Kolaka Utara",SULAWESI TENGGARA,93956.0,Indonesia, 085224874184,,,-3.6932586,121.0373398,https://maps.google.com/?cid=0x0:0x3d10ec5c4c4b8a98,
hardware store,hardware store,,,,SULAWESI TENGGARA,,Indonesia, 085299876110,,,-3.5781015,121.0546,https://maps.google.com/?cid=0x0:0xa94f8b88faa46863,
hardware store,Toko Bahan Bangunan,HF Wawasan Hardware,"12, Persiaran Impian, Taman Impian Ehsan, 43300 Seri Kembangan, Selangor, Malaysia",Seri Kembangan,SULAWESI TENGGARA,43300.0,Indonesia, +60192898828,,,3.0233426,101.7504943,https://maps.google.com/?cid=0x0:0x2f45ab139cde230c,
hardware store,Toko Bahan Bangunan,Megah Hardware,"Jalan Cengal, Taman Impian Ehsan, 43300 Seri Kembangan, Selangor, Malaysia",Seri Kembangan,SULAWESI TENGGARA,43300.0,Indonesia,,,,3.0188921,101.7523758,https://maps.google.com/?cid=0x0:0x3ab389fca7fcae31,
hardware store,Toko Bahan Bangunan,Toko Nurul Vadya Bangunan,"XH3J+Q76, Jl. Abadi, Kolakaasi, Kec. Latambaga, Kabupaten Kolaka, Sulawesi Tenggara 93511","Jl. Abadi, Kolakaasi, Kec. Latambaga, Kabupaten Kolaka",SULAWESI TENGGARA,93511.0,Indonesia, 081341729995,,,-4.0455873,121.5806317,https://maps.google.com/?cid=0x0:0xecb17a48f641eda5,
hardware store,Toko Bahan Bangunan,Toko Sinar Baja Kolaka,"Jl. Pramuka, Lamokato, Kec. Kolaka, Kabupaten Kolaka, Sulawesi Tenggara 93561","Lamokato, Kec. Kolaka, Kabupaten Kolaka",SULAWESI TENGGARA,93561.0,Indonesia,,,,-4.0577368,121.605128,https://maps.google.com/?cid=0x0:0x8f2aa31bf37536ad,
hardware store,hardware store,Sulawesi Tenggara 93956,"Kabupaten Kolaka Utara, Sulawesi Tenggara","Kabupaten Kolaka Utara, Sulawesi Tenggara",SULAWESI TENGGARA,,Indonesia,,,,-3.5905204,121.1252135,https://maps.google.com/?cid=0x0:0x65e443ed518d4559,
hardware store,hardware store,,,,SULAWESI TENGGARA,,Indonesia, 085299876110,,,-3.5781015,121.0546,https://maps.google.com/?cid=0x0:0xa94f8b88faa46863,
hardware store,Toko Bahan Bangunan,Toko Nafis Bangunan,"Jl. Poros Lasusua - Ranteangin, Tojabi, Kec. Lasusua, Kabupaten Kolaka Utara, Sulawesi Tenggara 93913","Tojabi, Kec. Lasusua, Kabupaten Kolaka Utara",SULAWESI TENGGARA,93913.0,Indonesia, 085215533644,,,-3.5063634,120.8962923,https://maps.google.com/?cid=0x0:0x502394c19276f82b,
hardware store,Pusat Perbelanjaan,Rumah ATK,"Wawo, Kec. Wawo, Kabupaten Kolaka Utara, Sulawesi Tenggara 93956","Kec. Wawo, Kabupaten Kolaka Utara",SULAWESI TENGGARA,93956.0,Indonesia, 085224874184,,,-3.6932586,121.0373398,https://maps.google.com/?cid=0x0:0x3d10ec5c4c4b8a98,
hardware store,Toko Bahan Bangunan,Viva Hardware Kemaman- Supermarket Bahan Bangunan,"Batu 2, Jalan Air Putih, Kampung Jaya, 24000 Chukai, Terengganu, Malaysia",Chukai,SULAWESI TENGGARA,24000.0,Indonesia, +601115453353,,,4.239267,103.3991514,https://maps.google.com/?cid=0x0:0x48a2db3707f12a82,
hardware store,Toko Bahan Bangunan,Weld-Tek Hardware Trading,"K-7331  K, 7332, Jalan Jakar, Kampung Jakar, 24000 Chukai, Terengganu, Malaysia",Chukai,SULAWESI TENGGARA,24000.0,Indonesia, +6098593685,,,4.2206596,103.4253334,https://maps.google.com/?cid=0x0:0x67f4ae365cd6a513,
hardware store,Kantor Perusahaan,Polsek Wiwirano,"P577+QF3, Hialu Utama (Upt. Hialu II), Kec. Wiwirano, Kabupaten Konawe Utara, Sulawesi Tenggara 93353","Hialu Utama (Upt. Hialu II), Kec. Wiwirano, Kabupaten Konawe Utara",SULAWESI TENGGARA,93353.0,Indonesia,,,,-3.2856078,122.1636621,https://maps.google.com/?cid=0x0:0xf6739f7f6ae00663,
hardware store,hardware store,Tayana hardware,"H5CW+QWM, Morombo, Kec. Lasolo, Kabupaten Konawe Utara, Sulawesi Tenggara 93352","Morombo, Kec. Lasolo, Kabupaten Konawe Utara",SULAWESI TENGGARA,93352.0,Indonesia,,,,-3.4280479,122.1973081,https://maps.google.com/?cid=0x0:0xf35a6a8a6d31cb39,
hardware store,hardware store,Sulawesi Tenggara,,Sulawesi Tenggara,SULAWESI TENGGARA,,Indonesia,,,,-4.14491,122.174605,https://maps.google.com/?cid=0x0:0x621d7c439f04a4ed,
hardware store,Toko Elektronik,Toko Wins Elektronik,"Jl. Jenderal M.t. Haryono No.61-63, Bende, Kec. Kadia, Kota Kendari, Sulawesi Tenggara 93117","Bende, Kec. Kadia, Kota Kendari",SULAWESI TENGGARA,93117.0,Indonesia, 082260531744,,,-3.9918897,122.5110152,https://maps.google.com/?cid=0x0:0x4874c2a985d4f680,
home improvement,home improvement,Sulawesi Tenggara 93353,Sulawesi Tenggara,Sulawesi Tenggara,SULAWESI TENGGARA,,Indonesia,,,,-3.2548527,121.7195459,https://maps.google.com/?cid=0x0:0x9fb3fe070f9105ac,
home improvement,Pembangunan Perumahan,home anhisa,"Q42X+QW7, Jl. Trans Sulawesi, Lamonae, Kec. Wiwirano, Kabupaten Konawe Utara, Sulawesi Tenggara","Kabupaten Konawe Utara, Sulawesi Tenggara",SULAWESI TENGGARA,,Indonesia,,,,-3.2488331,122.1500653,https://maps.google.com/?cid=0x0:0x78c02684489368ce,
home improvement,home improvement,Mebel,"P536+WWH, Hialu Utama (Upt. Hialu II), Kec. Wiwirano, Kabupaten Konawe Utara, Sulawesi Tenggara","Kabupaten Konawe Utara, Sulawesi Tenggara",SULAWESI TENGGARA,,Indonesia,,,,-3.295186,122.1623551,https://maps.google.com/?cid=0x0:0x67915ae3e2324ef3,
home improvement,Perusahaan Konstruksi,CV. Griya VhiChi Mandiri,"Jl. Trans Sulawesi Lrg. Balai Desa, Lamondowo, Kec. Andowia, Kabupaten Konawe Utara, Sulawesi Tenggara 93353","Lamondowo, Kec. Andowia, Kabupaten Konawe Utara",SULAWESI TENGGARA,93353.0,Indonesia, 0811404676,,,-3.5382545,122.1369957,https://maps.google.com/?cid=0x0:0xa12b102ca06a76e2,
home improvement,,Furniture sinar sofa,"F4FH+WF9, Lambudoni, Kec. Andowia, Kabupaten Konawe Utara, Sulawesi Tenggara 93353","Lambudoni, Kec. Andowia, Kabupaten Konawe Utara",SULAWESI TENGGARA,93353.0,Indonesia, 082282969756,,,-3.5254438,122.1284115,https://maps.google.com/?cid=0x0:0x949fa9e9c29bc531,
home improvement,home improvement,Asera,"Asemi Nunulai, Kec. Asera, Kabupaten Konawe Utara, Sulawesi Tenggara","Kabupaten Konawe Utara, Sulawesi Tenggara",SULAWESI TENGGARA,,Indonesia,,,,-3.392804,121.749397,https://maps.google.com/?cid=0x0:0x8f84b31c6568f881,
home improvement,Rumah Kayu,Home rehan,"G3G8+2J, Asera, Kec. Asera, Kabupaten Konawe Utara, Sulawesi Tenggara","Kabupaten Konawe Utara, Sulawesi Tenggara",SULAWESI TENGGARA,,Indonesia,,,,-3.4749629,122.0665282,https://maps.google.com/?cid=0x0:0x1be0a102503d2e8f,
home improvement,Toko Bahan Bangunan,Toko Asera Jaya,"Jl. Pelabuhan No.16, Labungga, Kec. Andowia, Kabupaten Konawe Utara, Sulawesi Tenggara 93353","Labungga, Kec. Andowia, Kabupaten Konawe Utara",SULAWESI TENGGARA,93353.0,Indonesia, 085241994185,,,-3.5143528,122.1402996,https://maps.google.com/?cid=0x0:0x5d9187ed14ebf8a4,
home improvement,Toko Bahan Bangunan,Toko Asera jaya 2,"F4H8+F5W, Mataiwoi, Kec. Andowia, Kabupaten Konawe Utara, Sulawesi Tenggara","Kabupaten Konawe Utara, Sulawesi Tenggara",SULAWESI TENGGARA,,Indonesia,,,,-3.5212547,122.1154578,https://maps.google.com/?cid=0x0:0x5f18f429ed96ca00,
home improvement,Komplek perumahan,ClusterNavara.Hoshi,"Bulevard raya Kota Harapan Indah No.Kav. 26A, Medan Satria, Kec. Tarumajaya, Kota Bks, Jawa Barat 17514","Medan Satria, Kec. Tarumajaya, Kota Bks",SULAWESI TENGGARA,17514.0,Indonesia, 085814534065,,,-6.1624105,106.9877909,https://maps.google.com/?cid=0x0:0xaeaef3bd0bf722d1,
home improvement,Pembangunan Perumahan,Asera Nishi,"8, RW.17, Pusaka Rakyat, Tarumajaya, Bekasi Regency, West Java 17214","RW.17, Pusaka Rakyat, Tarumajaya, Bekasi Regency",SULAWESI TENGGARA,17214.0,Indonesia, 02188986688,,,-6.1640113,106.9871493,https://maps.google.com/?cid=0x0:0xe82a4223ffd6bb25,
home improvement,Kontraktor,Kontraktor Property - Jasa Bangun Rumah,"perumahan bandar agung village 2 blok c14, RT.001/RW.008, Jatimekar, Kec. Jatiasih, Kota Bks, Jawa Barat 17422","RT.001/RW.008, Jatimekar, Kec. Jatiasih, Kota Bks",SULAWESI TENGGARA,17422.0,Indonesia, 081288816227,,,-6.3051921,106.9499103,https://maps.google.com/?cid=0x0:0x461ad61f25b3da90,
home improvement,Pembangunan Perumahan,Home Serrasyahir,"Jl. KH. Muchtar Tabrani Blok Annur 2 No.18, RT.003/RW.002, Perwira, Kec. Bekasi Utara, Kota Bks, Jawa Barat 17124","RT.003/RW.002, Perwira, Kec. Bekasi Utara, Kota Bks",SULAWESI TENGGARA,17124.0,Indonesia,,,,-6.214342,107.0014478,https://maps.google.com/?cid=0x0:0x9ff36c4894560950,
home improvement,Komplek perumahan,Sera's Home,"HFQQ+696, Kp.krajan, RT.001/RW.002, Wancimekar, Kec. Kota Baru, Karawang, Jawa Barat 41374","Kp.krajan, RT.001/RW.002, Wancimekar, Kec. Kota Baru, Karawang",SULAWESI TENGGARA,41374.0,Indonesia,,,,-6.4119657,107.4884003,https://maps.google.com/?cid=0x0:0xcac2f33d84260970,
home improvement,Komplek perumahan,Dhiras,"DD14 No.8, Setu Sari, Kec. Cileungsi, danakitri, Jawa Barat 16820","Setu Sari, Kec. Cileungsi, danakitri",SULAWESI TENGGARA,16820.0,Indonesia,,,,-6.4217535,107.0166069,https://maps.google.com/?cid=0x0:0x29b0fdaaa28e5e20,
home improvement,home improvement,Ammar's Home,"Asera Nishi Asera Nishi Blok AN-8/17, Kabupaten Bekasi, Jawa Barat 17214",Kabupaten Bekasi,SULAWESI TENGGARA,17214.0,Indonesia,,,,-6.1639771,106.9871499,https://maps.google.com/?cid=0x0:0xc724ac2ede51e689,
home improvement,home improvement,Kecamatan Langgikima,"Kabupaten Konawe Utara, Sulawesi Tenggara","Kabupaten Konawe Utara, Sulawesi Tenggara",SULAWESI TENGGARA,,Indonesia,,,,-3.2937576,122.2336267,https://maps.google.com/?cid=0x0:0x84f471fa9a20e886,
home improvement,Toko Mebel,ANEKA LOSTER/FENTILASI ALENGGO,"DS, RW.alenggo, Langgikima, Kecamatan Langgikima, Kabupaten Konawe Utara, Sulawesi Tenggara 93353","RW.alenggo, Langgikima, Kecamatan Langgikima, Kabupaten Konawe Utara",SULAWESI TENGGARA,93353.0,Indonesia, 081234346356,,,-3.2879263,122.2339976,https://maps.google.com/?cid=0x0:0x17fb0c972b668f7b,
home improvement,Aksesori Mebel,UD. ULUL AZMI,"P67P+MVC, Molore, Kecamatan Langgikima, Kabupaten Konawe Utara, Sulawesi Tenggara","Kabupaten Konawe Utara, Sulawesi Tenggara",SULAWESI TENGGARA,,Indonesia,,,,-3.2868145,122.2373679,https://maps.google.com/?cid=0x0:0x94da5bacc19ce45f,
home improvement,home improvement,Sulawesi Tenggara 93352,"Kabupaten Konawe Utara, Sulawesi Tenggara","Kabupaten Konawe Utara, Sulawesi Tenggara",SULAWESI TENGGARA,,Indonesia,,,,-3.7041573,122.2427,https://maps.google.com/?cid=0x0:0x888ae8f2fa8ed5e8,
home improvement,Toko Bahan Bangunan,Lamonai/konut,"875H+R3R, Toreo, Kec. Lasolo, Kabupaten Konawe Utara, Sulawesi Tenggara","Kabupaten Konawe Utara, Sulawesi Tenggara",SULAWESI TENGGARA,,Indonesia,,,,-3.690386,122.2776355,https://maps.google.com/?cid=0x0:0x8f447dfb49984f27,
home improvement,Toko Mebel,Aish aluminium,"96G4+M2, Bandaeha, Kec. Molawe, Kabupaten Konawe Utara, Sulawesi Tenggara","Kabupaten Konawe Utara, Sulawesi Tenggara",SULAWESI TENGGARA,,Indonesia, 082282957961,,,-3.6234378,122.2052465,https://maps.google.com/?cid=0x0:0x184114f7db0c1e9a,
home improvement,Rumah Kayu,Adrian Gypsum,"Jl. Trans Sulawesi, Dusun 3, Lambudoni, Kec. Andowia, Kabupaten Konawe Utara, Sulawesi Tenggara 93353","Dusun 3, Lambudoni, Kec. Andowia, Kabupaten Konawe Utara",SULAWESI TENGGARA,93353.0,Indonesia, 085233640043,,,-3.5249571,122.1205852,https://maps.google.com/?cid=0x0:0x949642adb773dc4b,
home improvement,home improvement,PLAFON/INTERIOR ALDI GYPSUM,"Laloika, Kec. Pondidaha, Kendari, Sulawesi Tenggara 93467","Kec. Pondidaha, Kendari",SULAWESI TENGGARA,93467.0,Indonesia, 082233334372,,,-3.9902328,122.2284026,https://maps.google.com/?cid=0x0:0xabdf9385feb8171c,
home improvement,,Toko Buana Indah,"Puunaaha, Kec. Unaaha, Kabupaten Konawe, Sulawesi Tenggara 93415","Kec. Unaaha, Kabupaten Konawe",SULAWESI TENGGARA,93415.0,Indonesia, 085241673940,,,-3.8579013,122.0421464,https://maps.google.com/?cid=0x0:0xbfdbea1d1e990acd,
home improvement,,TK. AMALI ELEKTRONIK  FURNITURE,"43HP+RRP, Lalosabila, Kec. Wawotobi, Kabupaten Konawe, Sulawesi Tenggara 93461","Lalosabila, Kec. Wawotobi, Kabupaten Konawe",SULAWESI TENGGARA,93461.0,Indonesia, 081341986777,,,-3.8704039,122.0870638,https://maps.google.com/?cid=0x0:0xade95c2c05ce461d,
home improvement,Perusahaan Konstruksi,CV. Griya VhiChi Mandiri,"Jl. Trans Sulawesi Lrg. Balai Desa, Lamondowo, Kec. Andowia, Kabupaten Konawe Utara, Sulawesi Tenggara 93353","Lamondowo, Kec. Andowia, Kabupaten Konawe Utara",SULAWESI TENGGARA,93353.0,Indonesia, 0811404676,,,-3.5382545,122.1369957,https://maps.google.com/?cid=0x0:0xa12b102ca06a76e2,
home improvement,,Furniture sinar sofa,"F4FH+WF9, Lambudoni, Kec. Andowia, Kabupaten Konawe Utara, Sulawesi Tenggara 93353","Lambudoni, Kec. Andowia, Kabupaten Konawe Utara",SULAWESI TENGGARA,93353.0,Indonesia, 082282969756,,,-3.5254438,122.1284115,https://maps.google.com/?cid=0x0:0x949fa9e9c29bc531,
home improvement,Kantor Perusahaan,Bengkel Las Rizky,"Jl. Poros Bungku Sel. - Kendari No.27, Padaleu, Kec. Lembo, Kabupaten Konawe Utara, Sulawesi Tenggara 93352","Padaleu, Kec. Lembo, Kabupaten Konawe Utara",SULAWESI TENGGARA,93352.0,Indonesia,,,,-3.7514953,122.3345054,https://maps.google.com/?cid=0x0:0x25d218de26e0df19,
home improvement,Bengkel Mobil,Bengkel Payong,"3FQ4+MCQ, Diolo, Kec. Bondoala, Kabupaten Konawe, Sulawesi Tenggara 93354","Diolo, Kec. Bondoala, Kabupaten Konawe",SULAWESI TENGGARA,93354.0,Indonesia,,,,-3.9107896,122.4561148,https://maps.google.com/?cid=0x0:0xcf52346fade2ab98,
home improvement,Toko Mebel,Windhi Aluminium,"Jl. Konggoasa No.79, Arombu, Kec. Unaaha, Kabupaten Konawe, Sulawesi Tenggara 93415","Arombu, Kec. Unaaha, Kabupaten Konawe",SULAWESI TENGGARA,93415.0,Indonesia, 081341640665,,,-3.869355,122.0488301,https://maps.google.com/?cid=0x0:0x2e0093cae45201af,
home improvement,Pengrajin Lemari,FAUZAN ALUMINIUM,"Wawonggole, Kec. Unaaha, Kabupaten Konawe, Sulawesi Tenggara","Kabupaten Konawe, Sulawesi Tenggara",SULAWESI TENGGARA,,Indonesia, 082391437497,,,-3.852494,122.0529704,https://maps.google.com/?cid=0x0:0x78fa9e5ed1a1d98d,
home improvement,Pusat Perbelanjaan,AZKO Living Plaza Kendari,"Jl. Jend. Ahmad Yani No.26, Kadia, Kec. Kadia, Kota Kendari, Sulawesi Tenggara 93115","Kadia, Kec. Kadia, Kota Kendari",SULAWESI TENGGARA,93115.0,Indonesia, 082136040069,,,-3.9812995,122.5097193,https://maps.google.com/?cid=0x0:0x85e8fa1a45a928d5,
home improvement,Pengrajin Lemari,Askar almanium,"34GW+7J9, Puday, Kec. Wonggeduku, Kabupaten Konawe, Sulawesi Tenggara 93461","Puday, Kec. Wonggeduku, Kabupaten Konawe",SULAWESI TENGGARA,93461.0,Indonesia, 085298209061,,,-3.9243496,122.1466167,https://maps.google.com/?cid=0x0:0x1a8b22e426ea16d3,
home improvement,Pusat Perbelanjaan,Toko Sinar Buana,"26WF+VRG, Pondidaha, Kec. Pondidaha, Kabupaten Konawe, Sulawesi Tenggara 93463","Pondidaha, Kec. Pondidaha, Kabupaten Konawe",SULAWESI TENGGARA,93463.0,Indonesia, 081341521075,,,-3.9528043,122.2245878,https://maps.google.com/?cid=0x0:0xc0001b6cbfed6c76,
home improvement,Toko Mebel,DEA ALUMINIUM,"Desa Lasoso, Anggalomoare, Kabupaten Konawe, Sulawesi Tenggara 93354","Anggalomoare, Kabupaten Konawe",SULAWESI TENGGARA,93354.0,Indonesia, 085241637884,,,-3.9638841,122.4347611,https://maps.google.com/?cid=0x0:0x21738cc150b398d9,
home improvement,Toko Mebel,Mebel Pak Yamin.L,"6C3W+8WR, Kokapi, Kec. Sawa, Kabupaten Konawe Utara, Sulawesi Tenggara","Kabupaten Konawe Utara, Sulawesi Tenggara",SULAWESI TENGGARA,,Indonesia, 082241542402,,,-3.7966423,122.4472576,https://maps.google.com/?cid=0x0:0xa52d19590f0dbba8,
home improvement,Toko Bahan Bangunan,Toko 27 Asinua,"Jl. Sawerigading, Samping Pasar No.125, Asinua, Kec. Unaaha, Kabupaten Konawe, Sulawesi Tenggara 93415","Samping Pasar No.125, Asinua, Kec. Unaaha, Kabupaten Konawe",SULAWESI TENGGARA,93415.0,Indonesia, 081341779773,,,-3.8538716,122.0716598,https://maps.google.com/?cid=0x0:0x6d1cfdfc7ac10a2b,
home improvement,Toko Wallpaper,Rensa Interior Decoration - wpc wallpanel lantai vinyl spc wallpaper plafon pvc - Kendari,"Mobil Tank, Jl. Malaka Jl. Martandu No.1, Anduonohu, Kec. Poasia, Kota Kendari, Sulawesi Tenggara 93231","Jl. Malaka Jl. Martandu No.1, Anduonohu, Kec. Poasia, Kota Kendari",SULAWESI TENGGARA,93231.0,Indonesia, 081341369900,,,-4.0010961,122.534273,https://maps.google.com/?cid=0x0:0x917903592469a537,
home improvement,Toko Mebel,Toko RM Furniture And Home Decor,"Jl. Bunggasi No.28, Anduonohu, Kec. Poasia, Kota Kendari, Sulawesi Tenggara 93231","Anduonohu, Kec. Poasia, Kota Kendari",SULAWESI TENGGARA,93231.0,Indonesia, 085333396151,,,-3.999899,122.5434066,https://maps.google.com/?cid=0x0:0xbb5553b410e826b4,
home improvement,Toko Mebel,Arsyil Jaya Meubel,"354P+C86, Wawoone, Kec. Wonggeduku, Kabupaten Konawe, Sulawesi Tenggara 93463","Wawoone, Kec. Wonggeduku, Kabupaten Konawe",SULAWESI TENGGARA,93463.0,Indonesia, 085386520221,,,-3.9438548,122.1858688,https://maps.google.com/?cid=0x0:0x7d06f2d8cd2c9d8f,
home improvement,Pemasok aksesori mebel,MHM Furniture,"42RR+FRR, Jl. Ponggawa, Tumpas, Kec. Unaaha, Kabupaten Konawe, Sulawesi Tenggara 93415","Jl. Ponggawa, Tumpas, Kec. Unaaha, Kabupaten Konawe",SULAWESI TENGGARA,93415.0,Indonesia, 081245994003,,,-3.8587564,122.0420259,https://maps.google.com/?cid=0x0:0x969528e5834688ba,
home improvement,home improvement,,,,SULAWESI TENGGARA,,Indonesia, 085333369456,,,-3.9850497,122.5370449,https://maps.google.com/?cid=0x0:0x961788f8a5b7f894,
home improvement,home improvement,Meubel KADEK SATRIA,"69MX+65W, Puupi, Kec. Sawa, Kabupaten Konawe Utara, Sulawesi Tenggara 93352","Puupi, Kec. Sawa, Kabupaten Konawe Utara",SULAWESI TENGGARA,93352.0,Indonesia,,,,-3.7662189,122.3967269,https://maps.google.com/?cid=0x0:0xa85e4434a61a98a4,
home improvement,Komplek perumahan,Home laugi,"782J+72J, Jl. Poros Bungku Sel. - Kendari, Puulemo, Kec. Lembo, Kabupaten Konawe Utara, Sulawesi Tenggara 93352","Jl. Poros Bungku Sel. - Kendari, Puulemo, Kec. Lembo, Kabupaten Konawe Utara",SULAWESI TENGGARA,93352.0,Indonesia,,,,-3.7498559,122.3312298,https://maps.google.com/?cid=0x0:0xdd4689e5a287deff,
home improvement,Komplek perumahan,HOME LANANG,"782G+R5J, Puulemo, Kec. Lembo, Kabupaten Konawe Utara, Sulawesi Tenggara","Kabupaten Konawe Utara, Sulawesi Tenggara",SULAWESI TENGGARA,,Indonesia,,,,-3.7479141,122.3253828,https://maps.google.com/?cid=0x0:0x7cc7e893e14c98fd,
home improvement,home improvement,Kec. Lembo,"Wawopada, Kabupaten Morowali Utara, Sulawesi Tengah","Kabupaten Morowali Utara, Sulawesi Tengah",SULAWESI TENGGARA,,Indonesia,,,,-2.1606442,121.2127322,https://maps.google.com/?cid=0x0:0x4030bfbcaf78100,
home improvement,home improvement,Kec. Lembo,"Wawopada, Kabupaten Morowali Utara, Sulawesi Tengah","Kabupaten Morowali Utara, Sulawesi Tengah",SULAWESI TENGGARA,,Indonesia,,,,-2.1606442,121.2127322,https://maps.google.com/?cid=0x0:0x4030bfbcaf78100,
home improvement,Komplek perumahan,Home laugi,"782J+72J, Jl. Poros Bungku Sel. - Kendari, Puulemo, Kec. Lembo, Kabupaten Konawe Utara, Sulawesi Tenggara 93352","Jl. Poros Bungku Sel. - Kendari, Puulemo, Kec. Lembo, Kabupaten Konawe Utara",SULAWESI TENGGARA,93352.0,Indonesia,,,,-3.7498559,122.3312298,https://maps.google.com/?cid=0x0:0xdd4689e5a287deff,
home improvement,Komplek perumahan,Home Inong,"V73J+W94, Beteleme, Kec. Lembo, Kabupaten Morowali Utara, Sulawesi Tengah 94966","Beteleme, Kec. Lembo, Kabupaten Morowali Utara",SULAWESI TENGGARA,94966.0,Indonesia,,,,-2.1452468,121.2809523,https://maps.google.com/?cid=0x0:0x8449d862047ee3b8,
home improvement,Pembangunan Perumahan,Home Ricky,"V86P+6R3, Lemboroma, Kec. Lembo, Kabupaten Morowali Utara, Sulawesi Tengah 94971","Lemboroma, Kec. Lembo, Kabupaten Morowali Utara",SULAWESI TENGGARA,94971.0,Indonesia,,,,-2.1394753,121.3370482,https://maps.google.com/?cid=0x0:0xca1a58afbdc5b7d4,
home improvement,Pemasok mebel sesuai pesanan,Javan Bed Canopy-Piter Selle,"W4M4+H87, Kolaka, Kec. Mori Atas, Kabupaten Morowali Utara, Sulawesi Tengah 94965","Kolaka, Kec. Mori Atas, Kabupaten Morowali Utara",SULAWESI TENGGARA,94965.0,Indonesia, 085239602614,,,-2.066098,121.105807,https://maps.google.com/?cid=0x0:0x65bc59a348534e80,
home improvement,home improvement,HOME SAUD,"C6P9+XHW, Tapunggaeya, Kec. Molawe, Kabupaten Konawe Utara, Sulawesi Tenggara 93352","Tapunggaeya, Kec. Molawe, Kabupaten Konawe Utara",SULAWESI TENGGARA,93352.0,Indonesia,,,,-3.5629701,122.2195322,https://maps.google.com/?cid=0x0:0x5cf9364f9b4c3ad9,
home improvement,home improvement,Sulawesi Tenggara 93352,"Kabupaten Konawe Utara, Sulawesi Tenggara","Kabupaten Konawe Utara, Sulawesi Tenggara",SULAWESI TENGGARA,,Indonesia,,,,-3.7041573,122.2427,https://maps.google.com/?cid=0x0:0x888ae8f2fa8ed5e8,
home improvement,Toko Mebel,Aish aluminium,"96G4+M2, Bandaeha, Kec. Molawe, Kabupaten Konawe Utara, Sulawesi Tenggara","Kabupaten Konawe Utara, Sulawesi Tenggara",SULAWESI TENGGARA,,Indonesia, 082282957961,,,-3.6234378,122.2052465,https://maps.google.com/?cid=0x0:0x184114f7db0c1e9a,
home improvement,Jasa Tukang,Tukang bangunan Amanah,"Jl. Raya Lidah Wetan, Lidah Kulon, Kec. Lakarsantri, Surabaya, Jawa Timur 60213","Lidah Kulon, Kec. Lakarsantri, Surabaya",SULAWESI TENGGARA,60213.0,Indonesia, 085731001495,,,-7.3011294,112.6625071,https://maps.google.com/?cid=0x0:0x24acee5c55fb9520,
home improvement,Tukang Bangunan,Tukang bangunan profesional,"Jl. Made Utara Gg. 1 No.58, RT.02/RW.04, Made, Kec. Sambikerep, Surabaya, Jawa Timur 60217","RT.02/RW.04, Made, Kec. Sambikerep, Surabaya",SULAWESI TENGGARA,60217.0,Indonesia, 081357621975,,,-7.2740832,112.635113,https://maps.google.com/?cid=0x0:0x3539da03b25152d3,
home improvement,home improvement,Motui,"Kec. Motui, Kabupaten Konawe Utara, Sulawesi Tenggara","Kabupaten Konawe Utara, Sulawesi Tenggara",SULAWESI TENGGARA,,Indonesia,,,,-3.8064225,122.4552162,https://maps.google.com/?cid=0x0:0x4be5537f48106ff6,
home improvement,home improvement,Kec. Motui,"Kabupaten Konawe Utara, Sulawesi Tenggara","Kabupaten Konawe Utara, Sulawesi Tenggara",SULAWESI TENGGARA,,Indonesia,,,,-3.8052813,122.4581695,https://maps.google.com/?cid=0x0:0x10f6c8115450fdc4,
home improvement,Toko Bahan Bangunan,TB. Mitra Sejati,"Jl. Manukan Tengah No.9J NO 9, Manukan Kulon, Kec. Tandes, Surabaya, Jawa Timur 60185","Manukan Kulon, Kec. Tandes, Surabaya",SULAWESI TENGGARA,60185.0,Indonesia, 081244308631,,,-7.2638306,112.6613285,https://maps.google.com/?cid=0x0:0xb1fcb194971706dd,
home improvement,Komplek perumahan,Iri's home,"44G3+GXQ SMA NASIONAL, Lrg, Wawotobi, Kec. Wawotobi, Kabupaten Konawe, Sulawesi Tenggara 93461","Lrg, Wawotobi, Kec. Wawotobi, Kabupaten Konawe",SULAWESI TENGGARA,93461.0,Indonesia,,,,-3.87319,122.104402,https://maps.google.com/?cid=0x0:0xbdb31ce755b827be,
home improvement,Komplek perumahan,ILannHome,"44H4+GXW, Inalahi, Kec. Wawotobi, Kabupaten Konawe, Sulawesi Tenggara 93461","Inalahi, Kec. Wawotobi, Kabupaten Konawe",SULAWESI TENGGARA,93461.0,Indonesia,,,,-3.8711362,122.107454,https://maps.google.com/?cid=0x0:0x7a95c4a22c4f6aab,
home improvement,home improvement,Kec. Oheo,"Kabupaten Konawe Utara, Sulawesi Tenggara","Kabupaten Konawe Utara, Sulawesi Tenggara",SULAWESI TENGGARA,,Indonesia,,,,-3.4120121,122.0716764,https://maps.google.com/?cid=0x0:0x1fec54897c86d51a,
home improvement,Aksesori Mebel,UD. ULUL AZMI,"P67P+MVC, Molore, Kecamatan Langgikima, Kabupaten Konawe Utara, Sulawesi Tenggara","Kabupaten Konawe Utara, Sulawesi Tenggara",SULAWESI TENGGARA,,Indonesia,,,,-3.2868145,122.2373679,https://maps.google.com/?cid=0x0:0x94da5bacc19ce45f,
home improvement,home improvement,Sulawesi Tenggara 93352,"Kabupaten Konawe Utara, Sulawesi Tenggara","Kabupaten Konawe Utara, Sulawesi Tenggara",SULAWESI TENGGARA,,Indonesia,,,,-3.7041573,122.2427,https://maps.google.com/?cid=0x0:0x888ae8f2fa8ed5e8,
home improvement,home improvement,Kec. Sawa,"Kabupaten Konawe Utara, Sulawesi Tenggara","Kabupaten Konawe Utara, Sulawesi Tenggara",SULAWESI TENGGARA,,Indonesia,,,,-3.7577044,122.4235351,https://maps.google.com/?cid=0x0:0x4736a1b9bff85990,
home improvement,Toko Mebel,Mebel Pak Yamin.L,"6C3W+8WR, Kokapi, Kec. Sawa, Kabupaten Konawe Utara, Sulawesi Tenggara","Kabupaten Konawe Utara, Sulawesi Tenggara",SULAWESI TENGGARA,,Indonesia, 082241542402,,,-3.7966423,122.4472576,https://maps.google.com/?cid=0x0:0xa52d19590f0dbba8,
home improvement,home improvement,Kec. Wawo,"Kabupaten Kolaka Utara, Sulawesi Tenggara","Kabupaten Kolaka Utara, Sulawesi Tenggara",SULAWESI TENGGARA,,Indonesia,,,,-3.6780928,121.0413713,https://maps.google.com/?cid=0x0:0x748e72d6124032b8,
home improvement,Kios,Home Arjun,"PX29+JJG, Unnamed Road, Lelehao, Kec. Watunohu, Kabupaten Kolaka Utara, Sulawesi Tenggara 93958","Unnamed Road, Lelehao, Kec. Watunohu, Kabupaten Kolaka Utara",SULAWESI TENGGARA,93958.0,Indonesia,,,,-3.2984455,120.9690924,https://maps.google.com/?cid=0x0:0xc91c60e94995a4c,
home improvement,home improvement,UJB Nofha,"FVVQ+28J, Jl. Mesjid Raya, Patowonua, Kec. Lasusua, Kabupaten Kolaka Utara, Sulawesi Tenggara 93913","Jl. Mesjid Raya, Patowonua, Kec. Lasusua, Kabupaten Kolaka Utara",SULAWESI TENGGARA,93913.0,Indonesia, 082393193969,,,-3.5074071,120.8882783,https://maps.google.com/?cid=0x0:0x2e8fea7b672ddb45,
home improvement,home improvement,Sulawesi Tenggara 93956,"Kabupaten Kolaka Utara, Sulawesi Tenggara","Kabupaten Kolaka Utara, Sulawesi Tenggara",SULAWESI TENGGARA,,Indonesia,,,,-3.5905204,121.1252135,https://maps.google.com/?cid=0x0:0x65e443ed518d4559,
home improvement,Jasa Konstruksi dan Bangunan,Karya Indah Meubel,"9XHH+5HH, Jl trans Sulawesi poros, Lambai, Kecamatan Rante Angin, Kabupaten Kolaka Utara, Sulawesi Tenggara","Kabupaten Kolaka Utara, Sulawesi Tenggara",SULAWESI TENGGARA,,Indonesia, 082288068577,,,-3.6220548,120.97897,https://maps.google.com/?cid=0x0:0x3015de12aa4bbb98,
home improvement,Tukang Bangunan Gazebo,Bengkel las kreatif,"Jl. Poros Ranteangin - Kolaka, Pohu, Kecamatan Rante Angin, Kabupaten Kolaka Utara, Sulawesi Tenggara 93956","Pohu, Kecamatan Rante Angin, Kabupaten Kolaka Utara",SULAWESI TENGGARA,93956.0,Indonesia, 082344821637,,,-3.6454079,121.0044532,https://maps.google.com/?cid=0x0:0xef3cbb0267b89ba,
home improvement,Pembangunan Perumahan,Reski Alam. CV,"83V3+X2R, Salurengko, Kec. Wawo, Kabupaten Kolaka Utara, Sulawesi Tenggara 93956","Salurengko, Kec. Wawo, Kabupaten Kolaka Utara",SULAWESI TENGGARA,93956.0,Indonesia, 081342086499,,,-3.655022,121.052513,https://maps.google.com/?cid=0x0:0xca9216a649490d55,
home improvement,Jasa Konstruksi dan Bangunan,REHAN MEBEL,"CWQQ+CXQ, Jl. Poros Lasusua - Ranteangin, Puncak Monapa, Kec. Lasusua, Kabupaten Kolaka Utara, Sulawesi Tenggara 93915","Jl. Poros Lasusua - Ranteangin, Puncak Monapa, Kec. Lasusua, Kabupaten Kolaka Utara",SULAWESI TENGGARA,93915.0,Indonesia, 082345129385,,,-3.5614164,120.9399706,https://maps.google.com/?cid=0x0:0xf470bb88cb404217,
home improvement,Toko Mebel,ANI ALUMINUM,"Rante Limbong, Kec. Lasusua, Kabupaten Kolaka Utara, Sulawesi Tenggara 93553","Kec. Lasusua, Kabupaten Kolaka Utara",SULAWESI TENGGARA,93553.0,Indonesia,,,,-3.525027,120.9116279,https://maps.google.com/?cid=0x0:0x1110340071e17362,
home improvement,Toko Mebel,MEBEL 2 PUTRI JAYA ALUMINIUM,"FWHH+F3J, Batuganda Permai, Kec. Lasusua, Kabupaten Kolaka Utara, Sulawesi Tenggara","Kabupaten Kolaka Utara, Sulawesi Tenggara",SULAWESI TENGGARA,,Indonesia, 085394161436,,,-3.5212849,120.9276281,https://maps.google.com/?cid=0x0:0x8de33669e9e897db,
home improvement,Kontraktor Umum,CV. AFIQAH BUNGA SAROJA (ABS),"FWQ2+24V, Tojabi, Kec. Lasusua, Kabupaten Kolaka Utara, Sulawesi Tenggara 93916","Tojabi, Kec. Lasusua, Kabupaten Kolaka Utara",SULAWESI TENGGARA,93916.0,Indonesia, 0823347319946,,,-3.5121454,120.9004419,https://maps.google.com/?cid=0x0:0x4089244c7dc4c5e4,
home improvement,home improvement,Bengkel Pardoko Baru,"Rante Baru, Kecamatan Rante Angin, Kabupaten Kolaka Utara, Sulawesi Tenggara 93956","Kecamatan Rante Angin, Kabupaten Kolaka Utara",SULAWESI TENGGARA,93956.0,Indonesia, 082317740645,,,-3.6615147,121.0289737,https://maps.google.com/?cid=0x0:0xb3dd87fe8873fd1f,
home improvement,Toko Perlengkapan Rumah,NBL ATHAYYA ALUMINIUM,"9X7C+XJX, Jl. Dg. Pawero, Lambai, North Kolaka Regency, South East Sulawesi","Kabupaten Kolaka Utara, Sulawesi Tenggara",SULAWESI TENGGARA,,Indonesia, 085394326397,,,-3.6350052,120.9715965,https://maps.google.com/?cid=0x0:0x5606061f5dac2843,
home improvement,Komplek perumahan,Home Wiwi,"JMV7+293, Puupi, Kec. Kolono, Kabupaten Konawe Selatan, Sulawesi Tenggara 93395","Puupi, Kec. Kolono, Kabupaten Konawe Selatan",SULAWESI TENGGARA,93395.0,Indonesia,,,,-4.3574826,122.6634281,https://maps.google.com/?cid=0x0:0x61a688821dd8192d,
home improvement,Pembangunan Perumahan,Wiwi's home,"2HGV+4P4, Kendari Caddi, Kec. Kendari, Kota Kendari, Sulawesi Tenggara","Kota Kendari, Sulawesi Tenggara",SULAWESI TENGGARA,,Indonesia,,,,-3.9747493,122.594321,https://maps.google.com/?cid=0x0:0xe09b09387f0ca779,
home improvement,home improvement,Sulawesi Tenggara 93353,Sulawesi Tenggara,Sulawesi Tenggara,SULAWESI TENGGARA,,Indonesia,,,,-3.2548527,121.7195459,https://maps.google.com/?cid=0x0:0x9fb3fe070f9105ac,
home improvement,home improvement,PT.Mitra Mudah Sulawesi,,,SULAWESI TENGGARA,,Indonesia, 082347298756,,,-2.878566,121.947095,https://maps.google.com/?cid=0x0:0x7cb04a0fa62a9434,
home improvement,Kantor Perusahaan,Polsek Wiwirano,"P577+QF3, Hialu Utama (Upt. Hialu II), Kec. Wiwirano, Kabupaten Konawe Utara, Sulawesi Tenggara 93353","Hialu Utama (Upt. Hialu II), Kec. Wiwirano, Kabupaten Konawe Utara",SULAWESI TENGGARA,93353.0,Indonesia,,,,-3.2856078,122.1636621,https://maps.google.com/?cid=0x0:0xf6739f7f6ae00663,
home improvement,home improvement,Mebel,"P536+WWH, Hialu Utama (Upt. Hialu II), Kec. Wiwirano, Kabupaten Konawe Utara, Sulawesi Tenggara","Kabupaten Konawe Utara, Sulawesi Tenggara",SULAWESI TENGGARA,,Indonesia,,,,-3.295186,122.1623551,https://maps.google.com/?cid=0x0:0x67915ae3e2324ef3,
