Category,Real Category,Business Name,Address,City,State,Postal Code,Country,Phone,Email,Website,Latitude,Longitude,Map Link,Details Link
mall,mall,Sulawesi Tenggara 93353,Sulawesi Tenggara,Sulawesi Tenggara,SULAWESI TENGGARA,,Indonesia,,,,-3.2548527,121.7195459,https://maps.google.com/?cid=0x0:0x9fb3fe070f9105ac,
mall,Pasar,"Pasar Sentral Lahimbua, Andowia, Kabupaten Konawe Utara, Sulawesi Tenggara","F43P+CWF, Lahimbua, Kec. Andowia, Kabupaten Konawe Utara, Sulawesi Tenggara 93353","Lahimbua, Kec. Andowia, Kabupaten Konawe Utara",SULAWESI TENGGARA,93353.0,Indonesia,,,,-3.5464363,122.1372924,https://maps.google.com/?cid=0x0:0x3db24bd13d8b7cfb,
mall,Toko,TOKO SYADIAH,"F4G9+9RJ, Lambudoni, Kec. Andowia, Kabupaten Konawe Utara, Sulawesi Tenggara 93353","Lambudoni, Kec. Andowia, Kabupaten Konawe Utara",SULAWESI TENGGARA,93353.0,Indonesia,,,,-3.5240443,122.1195201,https://maps.google.com/?cid=0x0:0x945cb818586b35d,
mall,,REPI JAYA,"F48Q+43R, Jl. Poros Bungku Sel. - Kendari, Lamondowo, Kec. Andowia, Kabupaten Konawe Utara, Sulawesi Tenggara 93353","Jl. Poros Bungku Sel. - Kendari, Lamondowo, Kec. Andowia, Kabupaten Konawe Utara",SULAWESI TENGGARA,93353.0,Indonesia, 082291050504,,,-3.5346481,122.1376501,https://maps.google.com/?cid=0x0:0x433cc299a6bd161b,
mall,Pusat Perbelanjaan,Pasar Tradisional Laronanga (LC),"F4QV+668, Laronanga, Kec. Andowia, Kabupaten Konawe Utara, Sulawesi Tenggara 93353","Laronanga, Kec. Andowia, Kabupaten Konawe Utara",SULAWESI TENGGARA,93353.0,Indonesia,,,,-3.5119704,122.1430792,https://maps.google.com/?cid=0x0:0xa875922c6c5af8a2,
mall,Toko umum,TOKO KAWAN BARU,"Jl. Poros Bungku Sel. - Kendari, Mataiwoi, Kec. Andowia, Kabupaten Konawe Utara, Sulawesi Tenggara 93353","Mataiwoi, Kec. Andowia, Kabupaten Konawe Utara",SULAWESI TENGGARA,93353.0,Indonesia, 085241829992,,,-3.5218013,122.1173113,https://maps.google.com/?cid=0x0:0xcf29127b83d954f2,
mall,,Foto Copy Najwa,"F4CH+MXR, Jl. Poros Bungku Sel. - Kendari, Larobende, Kec. Andowia, Kabupaten Konawe Utara, Sulawesi Tenggara 93353","Jl. Poros Bungku Sel. - Kendari, Larobende, Kec. Andowia, Kabupaten Konawe Utara",SULAWESI TENGGARA,93353.0,Indonesia, 082292231161,,,-3.5282679,122.1298996,https://maps.google.com/?cid=0x0:0xeb23372644c3c1ef,
mall,Toko,Waldan All Shop,"86VR+X43, Tinobu, Kec. Lasolo, Kabupaten Konawe Utara, Sulawesi Tenggara 93352","Tinobu, Kec. Lasolo, Kabupaten Konawe Utara",SULAWESI TENGGARA,93352.0,Indonesia, 082292567007,,,-3.6551132,122.2403032,https://maps.google.com/?cid=0x0:0xd5907a63746b1164,
mall,Toko,KONTER FITRI CELL,"F4G9+QMH, Jl. Pelabuhan, Laronanga, Mataiwoi, Andowia, North Konawe Regency, South East Sulawesi 93353","Jl. Pelabuhan, Laronanga, Mataiwoi, Andowia, North Konawe Regency",SULAWESI TENGGARA,93353.0,Indonesia, 082293274802,,,-3.5230615,122.1192468,https://maps.google.com/?cid=0x0:0x5b6d8507bebd9e9e,
mall,Minimarket,Indomaret Andowia,"Jl. Poros Bungku Sel. - Kendari No.1983, Andowia, Kec. Andowia, Kabupaten Konawe Utara, Sulawesi Tenggara 93353","Andowia, Kec. Andowia, Kabupaten Konawe Utara",SULAWESI TENGGARA,93353.0,Indonesia,,,,-3.5297938,122.1338809,https://maps.google.com/?cid=0x0:0x273ee6bcf8b7e87,
mall,Pasar,Pasar DU,"P676+57G, Andoolo Utama, Kec. Buke, Kabupaten Konawe Selatan, Sulawesi Tenggara 93813","Andoolo Utama, Kec. Buke, Kabupaten Konawe Selatan",SULAWESI TENGGARA,93813.0,Indonesia,,,,-4.2870667,122.2107167,https://maps.google.com/?cid=0x0:0x946c981a3bb33c7f,
mall,Pusat Perbelanjaan,Pasar Dkb2,"Q644+MMV, Adaka Jaya, Kec. Buke, Kabupaten Konawe Selatan, Sulawesi Tenggara 93819","Adaka Jaya, Kec. Buke, Kabupaten Konawe Selatan",SULAWESI TENGGARA,93819.0,Indonesia,,,,-4.243265,122.2066858,https://maps.google.com/?cid=0x0:0xeb1c04b5b219cfa4,
mall,Toko bahan makanan,Kota Harapan Indah commercial Asera,"RXMP+387, Pusaka Rakyat, Kec. Tarumajaya, Kabupaten Bekasi, Jawa Barat 17214","Pusaka Rakyat, Kec. Tarumajaya, Kabupaten Bekasi",SULAWESI TENGGARA,17214.0,Indonesia,,,,-6.1673251,106.9858101,https://maps.google.com/?cid=0x0:0x39f6b646bae353ad,
mall,Toko Swalayan,Bengkel Buana Indah Asera,"Jl. Poros Bungku Sel. - Kendari, Mataiwoi, Kec. Andowia, Kabupaten Konawe Utara, Sulawesi Tenggara 93353","Mataiwoi, Kec. Andowia, Kabupaten Konawe Utara",SULAWESI TENGGARA,93353.0,Indonesia, 081341600567,,,-3.5223878,122.1179103,https://maps.google.com/?cid=0x0:0x5a71a954326ee55a,
mall,Restoran,MEGA BEKASI HYPERMALL,"Jl. Ahmad Yani No.1, RT.004/RW.001, Marga Jaya, Kec. Bekasi Sel., Kota Bks, Jawa Barat 17141","RT.004/RW.001, Marga Jaya, Kec. Bekasi Sel., Kota Bks",SULAWESI TENGGARA,17141.0,Indonesia,,,,-6.2495371,106.9926132,https://maps.google.com/?cid=0x0:0xf8dd1536debbcbd1,
mall,Toko Swalayan,AEON Mall Deltamas - Cikarang Bekasi,"Jl. Ganesha Boulevard, Kota Deltamas, Kec. Cikarang Pusat, Kabupaten Bekasi, Jawa Barat 17530","Kota Deltamas, Kec. Cikarang Pusat, Kabupaten Bekasi",SULAWESI TENGGARA,17530.0,Indonesia, 02138733333,,,-6.3519407,107.1954494,https://maps.google.com/?cid=0x0:0xa692ce22e7339115,
mall,mall,Kecamatan Langgikima,"Kabupaten Konawe Utara, Sulawesi Tenggara","Kabupaten Konawe Utara, Sulawesi Tenggara",SULAWESI TENGGARA,,Indonesia,,,,-3.2937576,122.2336267,https://maps.google.com/?cid=0x0:0x84f471fa9a20e886,
mall,Pasar,Pasar langgikima,"P643+F55, Langgikima, Kecamatan Langgikima, Kabupaten Konawe Utara, Sulawesi Tenggara 93353","Langgikima, Kecamatan Langgikima, Kabupaten Konawe Utara",SULAWESI TENGGARA,93353.0,Indonesia,,,,-3.2938568,122.2029832,https://maps.google.com/?cid=0x0:0xc74176d391a1070e,
mall,Pusat Perbelanjaan,TOKO SURYA LANGGIKIMA,"P64M+9GF, Pariama, Kecamatan Langgikima, Kabupaten Konawe Utara, Sulawesi Tenggara 93353","Pariama, Kecamatan Langgikima, Kabupaten Konawe Utara",SULAWESI TENGGARA,93353.0,Indonesia, 082395678285,,,-3.294069,122.2337836,https://maps.google.com/?cid=0x0:0x4f8455b271e905da,
mall,Pusat Perbelanjaan,Mall Mandonga,"JL. Abdullah Silondae, Korumba, Kec. Mandonga, Kota Kendari, Sulawesi Tenggara 93111","Korumba, Kec. Mandonga, Kota Kendari",SULAWESI TENGGARA,93111.0,Indonesia,,,,-3.9642856,122.5189989,https://maps.google.com/?cid=0x0:0x96320466b7420e2b,
mall,Pusat Perbelanjaan,Zhi Zhi Cell,"M6GV+X34, kompleks pasar Jl. Trans Sulawesi, Sari Mukti, Kecamatan Langgikima, Kabupaten Konawe Utara, Sulawesi Tenggara 93352","kompleks pasar Jl. Trans Sulawesi, Sari Mukti, Kecamatan Langgikima, Kabupaten Konawe Utara",SULAWESI TENGGARA,93352.0,Indonesia, 082291266262,,,-3.3226239,122.2427,https://maps.google.com/?cid=0x0:0xd81c66471e66674e,
mall,Toko,Aziza Terima Barang Pesanan Online..,"P64M+MP9, Pariama, Kecamatan Langgikima, Kabupaten Konawe Utara, Sulawesi Tenggara 93353","Pariama, Kecamatan Langgikima, Kabupaten Konawe Utara",SULAWESI TENGGARA,93353.0,Indonesia, 082259736344,,,-3.2933431,122.2343713,https://maps.google.com/?cid=0x0:0xb9912965658cabbf,
mall,Toko Elektronik,Devi Cell,"P62M+8WV, Pariama, Kecamatan Langgikima, Kabupaten Konawe Utara, Sulawesi Tenggara 93353","Pariama, Kecamatan Langgikima, Kabupaten Konawe Utara",SULAWESI TENGGARA,93353.0,Indonesia,,,,-3.2991355,122.2341717,https://maps.google.com/?cid=0x0:0x4fdcdcdd1364c169,
mall,Bar,"Molore,kec langgikima","P67Q+W5V, Molore, Waworaha, Kabupaten Konawe Utara, Sulawesi Tenggara","Kabupaten Konawe Utara, Sulawesi Tenggara",SULAWESI TENGGARA,,Indonesia, 081239440972,,,-3.2851375,122.2379219,https://maps.google.com/?cid=0x0:0xccdc1aced497afd8,
mall,Pusat Perbelanjaan,Susiana,"J762+234, Morombo, Kec. Lasolo, Kabupaten Konawe Utara, Sulawesi Tenggara","Kabupaten Konawe Utara, Sulawesi Tenggara",SULAWESI TENGGARA,,Indonesia,,,,-3.3899915,122.2501969,https://maps.google.com/?cid=0x0:0xd35dfb870a39b97f,
mall,mall,Pasar Laggikima,"M6GR+MHW, Sari Mukti, Kecamatan Langgikima, Kabupaten Konawe Utara, Sulawesi Tenggara 93352","Sari Mukti, Kecamatan Langgikima, Kabupaten Konawe Utara",SULAWESI TENGGARA,93352.0,Indonesia,,,,-3.3232582,122.2414687,https://maps.google.com/?cid=0x0:0x4d9bf224d7f65976,
mall,Komplek perumahan,Pasar Molawe,"96P2+66F, Unnamed Road, Molawe, Kec. Molawe, Kabupaten Konawe Utara, Sulawesi Tenggara 93352","Unnamed Road, Molawe, Kec. Molawe, Kabupaten Konawe Utara",SULAWESI TENGGARA,93352.0,Indonesia,,,,-3.6144394,122.200555,https://maps.google.com/?cid=0x0:0x537ba82789bc0e2a,
mall,mall,Sulawesi Tenggara 93352,"Kabupaten Konawe Utara, Sulawesi Tenggara","Kabupaten Konawe Utara, Sulawesi Tenggara",SULAWESI TENGGARA,,Indonesia,,,,-3.7041573,122.2427,https://maps.google.com/?cid=0x0:0x888ae8f2fa8ed5e8,
mall,Komplek perumahan,Pasar Molawe,"96P2+66F, Unnamed Road, Molawe, Kec. Molawe, Kabupaten Konawe Utara, Sulawesi Tenggara 93352","Unnamed Road, Molawe, Kec. Molawe, Kabupaten Konawe Utara",SULAWESI TENGGARA,93352.0,Indonesia,,,,-3.6144394,122.200555,https://maps.google.com/?cid=0x0:0x537ba82789bc0e2a,
mall,Otoritas Pelabuhan,Pasar Tinobu,"86VR+XM7, Tinobu, Kec. Lasolo, Kabupaten Konawe Utara, Sulawesi Tenggara","Kabupaten Konawe Utara, Sulawesi Tenggara",SULAWESI TENGGARA,,Indonesia,,,,-3.6550882,122.2416604,https://maps.google.com/?cid=0x0:0x9884b1a0eb306f6a,
mall,Toko,Waldan All Shop,"86VR+X43, Tinobu, Kec. Lasolo, Kabupaten Konawe Utara, Sulawesi Tenggara 93352","Tinobu, Kec. Lasolo, Kabupaten Konawe Utara",SULAWESI TENGGARA,93352.0,Indonesia, 082292567007,,,-3.6551132,122.2403032,https://maps.google.com/?cid=0x0:0xd5907a63746b1164,
mall,Pasar,"Pasar Sentral Lahimbua, Andowia, Kabupaten Konawe Utara, Sulawesi Tenggara","F43P+CWF, Lahimbua, Kec. Andowia, Kabupaten Konawe Utara, Sulawesi Tenggara 93353","Lahimbua, Kec. Andowia, Kabupaten Konawe Utara",SULAWESI TENGGARA,93353.0,Indonesia,,,,-3.5464363,122.1372924,https://maps.google.com/?cid=0x0:0x3db24bd13d8b7cfb,
mall,Pusat Perbelanjaan,KIOS NAILA,"5FV5+67Q, Motui, Kec. Motui, Kabupaten Konawe Utara, Sulawesi Tenggara 93352","Motui, Kec. Motui, Kabupaten Konawe Utara",SULAWESI TENGGARA,93352.0,Indonesia,,,,-3.8067344,122.4584822,https://maps.google.com/?cid=0x0:0xbe1fe97435d8fe41,
mall,Pusat Perbelanjaan,Amey Mart,"68QR+XRQ, Jl. Poros Bungku Sel. - Kendari No.19, Lembo, Kec. Lembo, Kabupaten Konawe Utara, Sulawesi Tenggara 93352","Jl. Poros Bungku Sel. - Kendari No.19, Lembo, Kec. Lembo, Kabupaten Konawe Utara",SULAWESI TENGGARA,93352.0,Indonesia, 082292014864,,,-3.759618,122.341909,https://maps.google.com/?cid=0x0:0xa8a8653627007019,
mall,Toko Ponsel,KING CELL,"Tudameaso, jln poros, Woerahi, Kec. Meluhu, Kabupaten Konawe, Sulawesi Tenggara 93461","jln poros, Woerahi, Kec. Meluhu, Kabupaten Konawe",SULAWESI TENGGARA,93461.0,Indonesia, 082211929394,,,-3.8480506,122.2036274,https://maps.google.com/?cid=0x0:0x26ac2ea5633645e0,
mall,Pusat Perbelanjaan,Susiana,"J762+234, Morombo, Kec. Lasolo, Kabupaten Konawe Utara, Sulawesi Tenggara","Kabupaten Konawe Utara, Sulawesi Tenggara",SULAWESI TENGGARA,,Indonesia,,,,-3.3899915,122.2501969,https://maps.google.com/?cid=0x0:0xd35dfb870a39b97f,
mall,Pembangunan Perumahan,Pasar Tapunggaya,"C6P9+XHW, Tapunggaeya, Kec. Molawe, Kabupaten Konawe Utara, Sulawesi Tenggara 93352","Tapunggaeya, Kec. Molawe, Kabupaten Konawe Utara",SULAWESI TENGGARA,93352.0,Indonesia, 085346374200,,,-3.5625053,122.2189418,https://maps.google.com/?cid=0x0:0x754dede029b20bf4,
mall,,REPI JAYA,"F48Q+43R, Jl. Poros Bungku Sel. - Kendari, Lamondowo, Kec. Andowia, Kabupaten Konawe Utara, Sulawesi Tenggara 93353","Jl. Poros Bungku Sel. - Kendari, Lamondowo, Kec. Andowia, Kabupaten Konawe Utara",SULAWESI TENGGARA,93353.0,Indonesia, 082291050504,,,-3.5346481,122.1376501,https://maps.google.com/?cid=0x0:0x433cc299a6bd161b,
mall,Pusat Perbelanjaan,Pasar Tradisional Laronanga (LC),"F4QV+668, Laronanga, Kec. Andowia, Kabupaten Konawe Utara, Sulawesi Tenggara 93353","Laronanga, Kec. Andowia, Kabupaten Konawe Utara",SULAWESI TENGGARA,93353.0,Indonesia,,,,-3.5119704,122.1430792,https://maps.google.com/?cid=0x0:0xa875922c6c5af8a2,
mall,Pusat Perbelanjaan,Mall Mandonga,"JL. Abdullah Silondae, Korumba, Kec. Mandonga, Kota Kendari, Sulawesi Tenggara 93111","Korumba, Kec. Mandonga, Kota Kendari",SULAWESI TENGGARA,93111.0,Indonesia,,,,-3.9642856,122.5189989,https://maps.google.com/?cid=0x0:0x96320466b7420e2b,
mall,Pusat Perbelanjaan,Lippo Plaza Kendari,"Jl. Jenderal M.t. Haryono No.61 - 63, Bende, Kec. Kadia, Kota Kendari, Sulawesi Tenggara 93117","Bende, Kec. Kadia, Kota Kendari",SULAWESI TENGGARA,93117.0,Indonesia, 04013196500,,,-3.9921675,122.5122065,https://maps.google.com/?cid=0x0:0x3216add04ddfc0d3,
mall,Kantor Pemerintah,Pangkalan Kapal Gae,"95WV+VVC, Unnamed Road, Molawe, Kec. Molawe, Kabupaten Konawe Utara, Sulawesi Tenggara 93352","Unnamed Road, Molawe, Kec. Molawe, Kabupaten Konawe Utara",SULAWESI TENGGARA,93352.0,Indonesia,,,,-3.6028112,122.1946486,https://maps.google.com/?cid=0x0:0xe3211610c49b32e8,
mall,Pasar,Pasar Laosu,"Laosu, Kec. Bondoala, Kabupaten Konawe, Sulawesi Tenggara 93354","Kec. Bondoala, Kabupaten Konawe",SULAWESI TENGGARA,93354.0,Indonesia,,,,-3.896588,122.4629372,https://maps.google.com/?cid=0x0:0x4b74e8fe7339bf10,
mall,Pasar,Pasar Sawa,"6CRJ+WCF, Sawa, Kec. Sawa, Kabupaten Konawe Utara, Sulawesi Tenggara 93352","Sawa, Kec. Sawa, Kabupaten Konawe Utara",SULAWESI TENGGARA,93352.0,Indonesia,,,,-3.7576901,122.431055,https://maps.google.com/?cid=0x0:0xccf5d740f37f62f9,
mall,Toko,Idin Laydi,"4C87+GMJ, Sampara/Morosi, Kec. Bondoala, Kabupaten Konawe, Sulawesi Tenggara 93354","Sampara/Morosi, Kec. Bondoala, Kabupaten Konawe",SULAWESI TENGGARA,93354.0,Indonesia,,,,-3.8836743,122.414152,https://maps.google.com/?cid=0x0:0xe0238fca699b3188,
mall,Toko Ponsel,Naura Cell,"4FWG+2G9, Unnamed Road, Ulu Lalimbue, Kec. Kapoiala, Kabupaten Konawe, Sulawesi Tenggara 93354","Unnamed Road, Ulu Lalimbue, Kec. Kapoiala, Kabupaten Konawe",SULAWESI TENGGARA,93354.0,Indonesia, 085211459300,,,-3.8549524,122.4763513,https://maps.google.com/?cid=0x0:0x61c2c9131873b056,
mall,Toko Perlengkapan Rumah,KIOS SEJAHTERA UTAMA,"55JV+733, Sambasule, Kec. Meluhu, Kabupaten Konawe, Sulawesi Tenggara","Kabupaten Konawe, Sulawesi Tenggara",SULAWESI TENGGARA,,Indonesia,,,,-3.8193675,122.1926662,https://maps.google.com/?cid=0x0:0xd3d3842c4751d31d,
mall,Pusat Perbelanjaan,Gorden molawe,"96P2+Q2G, Molawe, Kec. Molawe, Kabupaten Konawe Utara, Sulawesi Tenggara","Kabupaten Konawe Utara, Sulawesi Tenggara",SULAWESI TENGGARA,,Indonesia, 081248053640,,,-3.6130629,122.2000674,https://maps.google.com/?cid=0x0:0x130d45c62c0826b6,
mall,Pusat Perbelanjaan,Kios-alkalam,"544M+F4G, Jl. Poros Belalo/Lasolo-Wawotobi, Analahumbuti, Kec. Wawotobi, Kabupaten Konawe, Sulawesi Tenggara 93461","Jl. Poros Belalo/Lasolo-Wawotobi, Analahumbuti, Kec. Wawotobi, Kabupaten Konawe",SULAWESI TENGGARA,93461.0,Indonesia,,,,-3.8438199,122.1328271,https://maps.google.com/?cid=0x0:0xd2c85bb73cd78611,
mall,Pusat Perbelanjaan,Amey Mart,"68QR+XRQ, Jl. Poros Bungku Sel. - Kendari No.19, Lembo, Kec. Lembo, Kabupaten Konawe Utara, Sulawesi Tenggara 93352","Jl. Poros Bungku Sel. - Kendari No.19, Lembo, Kec. Lembo, Kabupaten Konawe Utara",SULAWESI TENGGARA,93352.0,Indonesia, 082292014864,,,-3.759618,122.341909,https://maps.google.com/?cid=0x0:0xa8a8653627007019,
mall,Toko,Amry Mart,"3G52+4MP, Jl. Osumentundu, Wawombalata, Kec. Mandonga, Kota Kendari, Sulawesi Tenggara 93113","Jl. Osumentundu, Wawombalata, Kec. Mandonga, Kota Kendari",SULAWESI TENGGARA,93113.0,Indonesia, 082990709193,,,-3.9421728,122.501693,https://maps.google.com/?cid=0x0:0x1959d3c1f681868d,
mall,Toko bahan makanan,Toko Miky Arigato,"68QR+XRQ, Lembo, Kec. Lembo, Kabupaten Konawe Utara, Sulawesi Tenggara 93352","Lembo, Kec. Lembo, Kabupaten Konawe Utara",SULAWESI TENGGARA,93352.0,Indonesia,,,,-3.7600361,122.3421192,https://maps.google.com/?cid=0x0:0xbf9675f66084ea45,
mall,Pusat Perbelanjaan,Grand Indonesia Shopping Town,"Jl. M.H. Thamrin No.1, Menteng, Kec. Menteng, Kota Jakarta Pusat, Daerah Khusus Ibukota Jakarta 10310","Menteng, Kec. Menteng, Kota Jakarta Pusat",SULAWESI TENGGARA,10310.0,Indonesia, 02123580001,,,-6.1965848,106.8224882,https://maps.google.com/?cid=0x0:0xccfcc89b95aaf1ae,
mall,Toko Sepatu,CIPLAZ Depok (Ramayana),"Jl. Margonda, Depok, Kec. Pancoran Mas, Kota Depok, Jawa Barat 16431","Depok, Kec. Pancoran Mas, Kota Depok",SULAWESI TENGGARA,16431.0,Indonesia,,,,-6.391713,106.824868,https://maps.google.com/?cid=0x0:0x605b9ae52f9c1ee9,
mall,Toserba,Ramayana ciplaz Cibitung,"Jl. Raya Teuku Umar, Gandasari, Kec. Cibitung, Kabupaten Bekasi, Jawa Barat 17510","Gandasari, Kec. Cibitung, Kabupaten Bekasi",SULAWESI TENGGARA,17510.0,Indonesia, 02188362906,,,-6.2702137,107.0858377,https://maps.google.com/?cid=0x0:0x71f2113e61286ad9,
mall,Pusat Perbelanjaan,Cityplaza Jatinegara,"Jl. Matraman Raya No.173-175, RT.7/RW.6, Bali Mester, Kecamatan Jatinegara, Kota Jakarta Timur, Daerah Khusus Ibukota Jakarta 13310","RT.7/RW.6, Bali Mester, Kecamatan Jatinegara, Kota Jakarta Timur",SULAWESI TENGGARA,13310.0,Indonesia, 02185909222,,,-6.213879,106.864403,https://maps.google.com/?cid=0x0:0x49f3cf933559073b,
mall,Bioskop,Ciplaz Klender (Ramayana),"Jl. I Gusti Ngurah Rai No.4 4, RT.7/RW.6, Klender, Kec. Duren Sawit, Kota Jakarta Timur, Daerah Khusus Ibukota Jakarta 13470","RT.7/RW.6, Klender, Kec. Duren Sawit, Kota Jakarta Timur",SULAWESI TENGGARA,13470.0,Indonesia,,,,-6.2140395,106.9032175,https://maps.google.com/?cid=0x0:0x90d04a7a458252f8,
mall,Bioskop,CIPLAZ Cengkareng,"Jl. Lkr. Luar Barat, RT.1/RW.2, Cengkareng Tim., Kecamatan Cengkareng, Kota Jakarta Barat, Daerah Khusus Ibukota Jakarta 11730","RT.1/RW.2, Cengkareng Tim., Kecamatan Cengkareng, Kota Jakarta Barat",SULAWESI TENGGARA,11730.0,Indonesia,,,,-6.1530098,106.7282402,https://maps.google.com/?cid=0x0:0x9bec848206643761,
mall,Toko umum,Mori Farm,"R6WG+G4, Wara'a, Kec. Lembo, Kabupaten Morowali, Sulawesi Tengah 94966","Wara'a, Kec. Lembo, Kabupaten Morowali",SULAWESI TENGGARA,94966.0,Indonesia, 082297629308,,,-2.1536618,121.2252709,https://maps.google.com/?cid=0x0:0x8bb4e6a420a6c660,
mall,Minimarket,Toko Sinar Mori,"V73J+339, Beteleme, Kec. Lembo, Kabupaten Morowali, Sulawesi Tengah","Kabupaten Morowali, Sulawesi Tengah",SULAWESI TENGGARA,,Indonesia, 081356717405,,,-2.1473447,121.2802461,https://maps.google.com/?cid=0x0:0xcd9508be2a211167,
mall,Pusat Perbelanjaan,Amey Mart,"68QR+XRQ, Jl. Poros Bungku Sel. - Kendari No.19, Lembo, Kec. Lembo, Kabupaten Konawe Utara, Sulawesi Tenggara 93352","Jl. Poros Bungku Sel. - Kendari No.19, Lembo, Kec. Lembo, Kabupaten Konawe Utara",SULAWESI TENGGARA,93352.0,Indonesia, 082292014864,,,-3.759618,122.341909,https://maps.google.com/?cid=0x0:0xa8a8653627007019,
mall,Toko bahan makanan,Toko Miky Arigato,"68QR+XRQ, Lembo, Kec. Lembo, Kabupaten Konawe Utara, Sulawesi Tenggara 93352","Lembo, Kec. Lembo, Kabupaten Konawe Utara",SULAWESI TENGGARA,93352.0,Indonesia,,,,-3.7600361,122.3421192,https://maps.google.com/?cid=0x0:0xbf9675f66084ea45,
mall,mall,Sulawesi Tenggara 93352,"Kabupaten Konawe Utara, Sulawesi Tenggara","Kabupaten Konawe Utara, Sulawesi Tenggara",SULAWESI TENGGARA,,Indonesia,,,,-3.7041573,122.2427,https://maps.google.com/?cid=0x0:0x888ae8f2fa8ed5e8,
mall,Komplek perumahan,Pasar Molawe,"96P2+66F, Unnamed Road, Molawe, Kec. Molawe, Kabupaten Konawe Utara, Sulawesi Tenggara 93352","Unnamed Road, Molawe, Kec. Molawe, Kabupaten Konawe Utara",SULAWESI TENGGARA,93352.0,Indonesia,,,,-3.6144394,122.200555,https://maps.google.com/?cid=0x0:0x537ba82789bc0e2a,
mall,Kantor Pemerintah,Pangkalan Kapal Gae,"95WV+VVC, Unnamed Road, Molawe, Kec. Molawe, Kabupaten Konawe Utara, Sulawesi Tenggara 93352","Unnamed Road, Molawe, Kec. Molawe, Kabupaten Konawe Utara",SULAWESI TENGGARA,93352.0,Indonesia,,,,-3.6028112,122.1946486,https://maps.google.com/?cid=0x0:0xe3211610c49b32e8,
mall,Hotel,molawe,"96P2+799, Molawe, Kec. Molawe, Kabupaten Konawe Utara, Sulawesi Tenggara","Kabupaten Konawe Utara, Sulawesi Tenggara",SULAWESI TENGGARA,,Indonesia,,,,-3.6143314,122.2009804,https://maps.google.com/?cid=0x0:0x610382e05ed12bd4,
mall,Pusat Perbelanjaan,KIOS NAILA,"5FV5+67Q, Motui, Kec. Motui, Kabupaten Konawe Utara, Sulawesi Tenggara 93352","Motui, Kec. Motui, Kabupaten Konawe Utara",SULAWESI TENGGARA,93352.0,Indonesia,,,,-3.8067344,122.4584822,https://maps.google.com/?cid=0x0:0xbe1fe97435d8fe41,
mall,Kios,UDAY KIOS,"Motui, Kec. Motui, Kabupaten Konawe Utara, Sulawesi Tenggara","Kabupaten Konawe Utara, Sulawesi Tenggara",SULAWESI TENGGARA,,Indonesia, 082251876180,,,-3.8063192,122.4584037,https://maps.google.com/?cid=0x0:0x32bc8d091724eeca,
mall,mall,KIOS JUMRIN,"5FV5+M76, Motui, Kec. Motui, Kabupaten Konawe Utara, Sulawesi Tenggara 93352","Motui, Kec. Motui, Kabupaten Konawe Utara",SULAWESI TENGGARA,93352.0,Indonesia,,,,-3.8058423,122.4581356,https://maps.google.com/?cid=0x0:0x558ed646127a29f4,
mall,Pusat Perbelanjaan,Grand Indonesia Shopping Town,"Jl. M.H. Thamrin No.1, Menteng, Kec. Menteng, Kota Jakarta Pusat, Daerah Khusus Ibukota Jakarta 10310","Menteng, Kec. Menteng, Kota Jakarta Pusat",SULAWESI TENGGARA,10310.0,Indonesia, 02123580001,,,-6.1965848,106.8224882,https://maps.google.com/?cid=0x0:0xccfcc89b95aaf1ae,
mall,Minimarket,MM Mart.,"3FM3+J79, Rumbia, Kec. Bondoala, Kabupaten Konawe, Sulawesi Tenggara 93354","Rumbia, Kec. Bondoala, Kabupaten Konawe",SULAWESI TENGGARA,93354.0,Indonesia,,,,-3.9159639,122.4532267,https://maps.google.com/?cid=0x0:0x4b903a19792cace8,
mall,Pasar,Pasar Laosu,"Laosu, Kec. Bondoala, Kabupaten Konawe, Sulawesi Tenggara 93354","Kec. Bondoala, Kabupaten Konawe",SULAWESI TENGGARA,93354.0,Indonesia,,,,-3.896588,122.4629372,https://maps.google.com/?cid=0x0:0x4b74e8fe7339bf10,
mall,Kantor Pemerintah,desa tondowary,"5938+4XF, Tondowatu, Kec. Motui, Kabupaten Konawe Utara, Sulawesi Tenggara 93575","Tondowatu, Kec. Motui, Kabupaten Konawe Utara",SULAWESI TENGGARA,93575.0,Indonesia, 085342553500,,,-3.8471924,122.367428,https://maps.google.com/?cid=0x0:0xf0fcaa52bc9bf9ad,
mall,Toko,Idin Laydi,"4C87+GMJ, Sampara/Morosi, Kec. Bondoala, Kabupaten Konawe, Sulawesi Tenggara 93354","Sampara/Morosi, Kec. Bondoala, Kabupaten Konawe",SULAWESI TENGGARA,93354.0,Indonesia,,,,-3.8836743,122.414152,https://maps.google.com/?cid=0x0:0xe0238fca699b3188,
mall,Pasar,Pasar Sawa,"6CRJ+WCF, Sawa, Kec. Sawa, Kabupaten Konawe Utara, Sulawesi Tenggara 93352","Sawa, Kec. Sawa, Kabupaten Konawe Utara",SULAWESI TENGGARA,93352.0,Indonesia,,,,-3.7576901,122.431055,https://maps.google.com/?cid=0x0:0xccf5d740f37f62f9,
mall,Lapangan Football,Lapangan Sepak Bola,"5CWC+JF5, Wawoluri, Kec. Motui, Kabupaten Konawe Utara, Sulawesi Tenggara 93352","Wawoluri, Kec. Motui, Kabupaten Konawe Utara",SULAWESI TENGGARA,93352.0,Indonesia,,,,-3.8034958,122.4212424,https://maps.google.com/?cid=0x0:0xcbf5d589cb9f25ed,
mall,mall,Kec. Oheo,"Kabupaten Konawe Utara, Sulawesi Tenggara","Kabupaten Konawe Utara, Sulawesi Tenggara",SULAWESI TENGGARA,,Indonesia,,,,-3.4120121,122.0716764,https://maps.google.com/?cid=0x0:0x1fec54897c86d51a,
mall,Pusat Perbelanjaan,Susiana,"J762+234, Morombo, Kec. Lasolo, Kabupaten Konawe Utara, Sulawesi Tenggara","Kabupaten Konawe Utara, Sulawesi Tenggara",SULAWESI TENGGARA,,Indonesia,,,,-3.3899915,122.2501969,https://maps.google.com/?cid=0x0:0xd35dfb870a39b97f,
mall,Pasar,"Pasar Sentral Lahimbua, Andowia, Kabupaten Konawe Utara, Sulawesi Tenggara","F43P+CWF, Lahimbua, Kec. Andowia, Kabupaten Konawe Utara, Sulawesi Tenggara 93353","Lahimbua, Kec. Andowia, Kabupaten Konawe Utara",SULAWESI TENGGARA,93353.0,Indonesia,,,,-3.5464363,122.1372924,https://maps.google.com/?cid=0x0:0x3db24bd13d8b7cfb,
mall,Pusat Perbelanjaan,toko kanaya,"P67J+6V9, Unnamed Road, Molore, Kecamatan Langgikima, Kabupaten Konawe Utara, Sulawesi Tenggara 93353","Unnamed Road, Molore, Kecamatan Langgikima, Kabupaten Konawe Utara",SULAWESI TENGGARA,93353.0,Indonesia,,,,-3.2869518,122.2322362,https://maps.google.com/?cid=0x0:0x3e87bae1fc29f6b5,
mall,Pusat Perbelanjaan,Pasar Tradisional Laronanga (LC),"F4QV+668, Laronanga, Kec. Andowia, Kabupaten Konawe Utara, Sulawesi Tenggara 93353","Laronanga, Kec. Andowia, Kabupaten Konawe Utara",SULAWESI TENGGARA,93353.0,Indonesia,,,,-3.5119704,122.1430792,https://maps.google.com/?cid=0x0:0xa875922c6c5af8a2,
mall,Toko,Aziza Terima Barang Pesanan Online..,"P64M+MP9, Pariama, Kecamatan Langgikima, Kabupaten Konawe Utara, Sulawesi Tenggara 93353","Pariama, Kecamatan Langgikima, Kabupaten Konawe Utara",SULAWESI TENGGARA,93353.0,Indonesia, 082259736344,,,-3.2933431,122.2343713,https://maps.google.com/?cid=0x0:0xb9912965658cabbf,
mall,Pasar,Pasar langgikima,"P643+F55, Langgikima, Kecamatan Langgikima, Kabupaten Konawe Utara, Sulawesi Tenggara 93353","Langgikima, Kecamatan Langgikima, Kabupaten Konawe Utara",SULAWESI TENGGARA,93353.0,Indonesia,,,,-3.2938568,122.2029832,https://maps.google.com/?cid=0x0:0xc74176d391a1070e,
mall,Rumah wisata,Kaki Gunung Oheo,"J2RR+588, Tadoloiyo, Kec. Oheo, Kabupaten Konawe Utara, Sulawesi Tenggara 93353","Tadoloiyo, Kec. Oheo, Kabupaten Konawe Utara",SULAWESI TENGGARA,93353.0,Indonesia, 085242362001,,,-3.3595767,122.04083,https://maps.google.com/?cid=0x0:0x678e776411968fda,
mall,Pusat Perbelanjaan,TOKO SURYA LANGGIKIMA,"P64M+9GF, Pariama, Kecamatan Langgikima, Kabupaten Konawe Utara, Sulawesi Tenggara 93353","Pariama, Kecamatan Langgikima, Kabupaten Konawe Utara",SULAWESI TENGGARA,93353.0,Indonesia, 082395678285,,,-3.294069,122.2337836,https://maps.google.com/?cid=0x0:0x4f8455b271e905da,
mall,,FotoCopy UD. ILMU HIDUP,"F4M7+VMF, Wanggudu, Kec. Asera, Kabupaten Konawe Utara, Sulawesi Tenggara 93353","Wanggudu, Kec. Asera, Kabupaten Konawe Utara",SULAWESI TENGGARA,93353.0,Indonesia, 081341031116,,,-3.5153141,122.1141807,https://maps.google.com/?cid=0x0:0x3a70a0a9340ecdea,
mall,Pusat Perbelanjaan,Zhi Zhi Cell,"M6GV+X34, kompleks pasar Jl. Trans Sulawesi, Sari Mukti, Kecamatan Langgikima, Kabupaten Konawe Utara, Sulawesi Tenggara 93352","kompleks pasar Jl. Trans Sulawesi, Sari Mukti, Kecamatan Langgikima, Kabupaten Konawe Utara",SULAWESI TENGGARA,93352.0,Indonesia, 082291266262,,,-3.3226239,122.2427,https://maps.google.com/?cid=0x0:0xd81c66471e66674e,
mall,Kios,Kios NOUMI,"32JW+WC4, Langgomea, Kec. Uepai, Kabupaten Konawe, Sulawesi Tenggara 93464","Langgomea, Kec. Uepai, Kabupaten Konawe",SULAWESI TENGGARA,93464.0,Indonesia,,,,-3.917726,122.0460741,https://maps.google.com/?cid=0x0:0xd1fcbb7025161ab1,
mall,Kios,Kios ikram,"427M+45, Rawua, Kec. Uepai, Kabupaten Konawe, Sulawesi Tenggara 93415","Rawua, Kec. Uepai, Kabupaten Konawe",SULAWESI TENGGARA,93415.0,Indonesia,,,,-3.887223,122.0327066,https://maps.google.com/?cid=0x0:0x5974475bda8129ee,
mall,Pusat Perbelanjaan,The Park Kendari,"2G89+PV9, Bende, Kec. Kadia, Kota Kendari, Sulawesi Tenggara","Kota Kendari, Sulawesi Tenggara",SULAWESI TENGGARA,,Indonesia,,,,-3.9832207,122.5197309,https://maps.google.com/?cid=0x0:0xc86d98065cfeec35,
mall,Toko Elektronik,Devi Cell,"P62M+8WV, Pariama, Kecamatan Langgikima, Kabupaten Konawe Utara, Sulawesi Tenggara 93353","Pariama, Kecamatan Langgikima, Kabupaten Konawe Utara",SULAWESI TENGGARA,93353.0,Indonesia,,,,-3.2991355,122.2341717,https://maps.google.com/?cid=0x0:0x4fdcdcdd1364c169,
mall,mall,Kios ASMI,"H3GG+99M, Jalan Poros Landawe, Laroonaha, Kec. Oheo, Kabupaten Konawe Utara, Sulawesi Tenggara 93353","Jalan Poros Landawe, Laroonaha, Kec. Oheo, Kabupaten Konawe Utara",SULAWESI TENGGARA,93353.0,Indonesia, 085225628101,,,-3.4233786,122.0759599,https://maps.google.com/?cid=0x0:0x599d02ab0beb27c4,
mall,Toko,KIOS EGI CELL,"Desa walandawe Lorong pelabuhan, Lorong SMAN 1, Landawe, Kec. Oheo, Kabupaten Konawe Utara, Sulawesi Tenggara 93353","Lorong SMAN 1, Landawe, Kec. Oheo, Kabupaten Konawe Utara",SULAWESI TENGGARA,93353.0,Indonesia, 085346134670,,,-3.3917566,122.0622863,https://maps.google.com/?cid=0x0:0x6be6b6b470f184f5,
mall,mall,Toko Asyifa jaya,"Q47X+Q2F, Jl. Trans Sulawesi, Lamonae, Kec. Wiwirano, Kabupaten Konawe Utara, Sulawesi Tenggara 93353","Jl. Trans Sulawesi, Lamonae, Kec. Wiwirano, Kabupaten Konawe Utara",SULAWESI TENGGARA,93353.0,Indonesia,,,,-3.2355585,122.1475341,https://maps.google.com/?cid=0x0:0x4fb022a9e066ddc,
mall,Pasar,Pasar Sawa,"6CRJ+WCF, Sawa, Kec. Sawa, Kabupaten Konawe Utara, Sulawesi Tenggara 93352","Sawa, Kec. Sawa, Kabupaten Konawe Utara",SULAWESI TENGGARA,93352.0,Indonesia,,,,-3.7576901,122.431055,https://maps.google.com/?cid=0x0:0xccf5d740f37f62f9,
mall,Pasar,LOS PASAR DESA WAWOLURI,"6C2V+327, Wawoluri, Kec. Motui, Kabupaten Konawe Utara, Sulawesi Tenggara","Kabupaten Konawe Utara, Sulawesi Tenggara",SULAWESI TENGGARA,,Indonesia,,,,-3.7998265,122.4425622,https://maps.google.com/?cid=0x0:0x9866b5dd0037850,
mall,Pusat Perbelanjaan,Mall Plaza Festival,"Jl. H. R. Rasuna Said No.22 Kav. C, Karet Kuningan, Kecamatan Setiabudi, Kota Jakarta Selatan, Daerah Khusus Ibukota Jakarta 12940","Karet Kuningan, Kecamatan Setiabudi, Kota Jakarta Selatan",SULAWESI TENGGARA,12940.0,Indonesia, 0215263212,,,-6.2210766,106.8324118,https://maps.google.com/?cid=0x0:0xea6830e6c82c7a18,
mall,mall,Kec. Wawo,"Kabupaten Kolaka Utara, Sulawesi Tenggara","Kabupaten Kolaka Utara, Sulawesi Tenggara",SULAWESI TENGGARA,,Indonesia,,,,-3.6780928,121.0413713,https://maps.google.com/?cid=0x0:0x748e72d6124032b8,
mall,Pasar tradisional,Pasar Walasiho,"73X5+J82, Unnamed Rd,, Walasiho, Kec. Wawo, Kabupaten Kolaka Utara, Sulawesi Tenggara 93956","Unnamed Rd,, Walasiho, Kec. Wawo, Kabupaten Kolaka Utara",SULAWESI TENGGARA,93956.0,Indonesia, 082291842061,,,-3.7009862,121.0582518,https://maps.google.com/?cid=0x0:0x8558e4cb2f9f9c9,
mall,Toko,Toko Mega Bangunan,"Jl. Trans Sulawesi No.93, Puumbolo, Kec. Wawo, Kabupaten Kolaka Utara, Sulawesi Tenggara 93956","Puumbolo, Kec. Wawo, Kabupaten Kolaka Utara",SULAWESI TENGGARA,93956.0,Indonesia, 085241544951,,,-3.6717431,121.0422216,https://maps.google.com/?cid=0x0:0xb597653788f8ed2e,
mall,Pasar,Pasar Central Desa Pohu,"8XWX+V8H, Jl. Pelabuhan, Pohu, Kecamatan Rante Angin, Kabupaten Kolaka Utara, Sulawesi Tenggara 93956","Jl. Pelabuhan, Pohu, Kecamatan Rante Angin, Kabupaten Kolaka Utara",SULAWESI TENGGARA,93956.0,Indonesia,,,,-3.6528079,120.9983478,https://maps.google.com/?cid=0x0:0x2d6cf316bf401d1e,
mall,Kios,TOKO IH-SA 02,"82MP+VVX, Jl. Poros Ranteangin - Kolaka, Rante Angin, Kecamatan Rante Angin, Kabupaten Kolaka Utara, Sulawesi Tenggara 93956","Jl. Poros Ranteangin - Kolaka, Rante Angin, Kecamatan Rante Angin, Kabupaten Kolaka Utara",SULAWESI TENGGARA,93956.0,Indonesia, 085340228080,,,-3.6652585,121.0372262,https://maps.google.com/?cid=0x0:0xba36c1b694593ab2,
mall,Pusat Perbelanjaan,TOKO SETIA KARYA,"829C+64M, Landolia, Kecamatan Rante Angin, Kabupaten Kolaka Utara, Sulawesi Tenggara 93956","Landolia, Kecamatan Rante Angin, Kabupaten Kolaka Utara",SULAWESI TENGGARA,93956.0,Indonesia, 082336453661,,,-3.6819159,121.0202844,https://maps.google.com/?cid=0x0:0x49b81851ef010d9e,
mall,mall,TOKO FAMILY T.H,"TOKO FAMILY T.H, Ulu Wawo, Kec. Wawo, Kabupaten Kolaka Utara, Sulawesi Tenggara 93956","Ulu Wawo, Kec. Wawo, Kabupaten Kolaka Utara",SULAWESI TENGGARA,93956.0,Indonesia,,,,-3.6900099,121.0336811,https://maps.google.com/?cid=0x0:0x5d277a46dcfc44ec,
mall,Mal outlet,Supermal Karawaci,"Jl. Boulevard Diponegoro No.105, Bencongan, Kec. Klp. Dua, Kabupaten Tangerang, Banten 15810","Bencongan, Kec. Klp. Dua, Kabupaten Tangerang",SULAWESI TENGGARA,15810.0,Indonesia, 0215466666,,,-6.2268116,106.6070233,https://maps.google.com/?cid=0x0:0xc5927a7be82e23b8,
mall,Toko Swalayan,AEON Mall BSD City,"Jl. BSD Raya Utama, Pagedangan, Kec. Pagedangan, Kabupaten Tangerang, Banten 15339","Pagedangan, Kec. Pagedangan, Kabupaten Tangerang",SULAWESI TENGGARA,15339.0,Indonesia, 02129168585,,,-6.3052093,106.6432014,https://maps.google.com/?cid=0x0:0xf96b8f0f880ed863,
mall,Pusat Perbelanjaan,Summarecon Mall Kelapa Gading,"Jl. Boulevard Raya, Klp. Gading Tim., Kec. Klp. Gading, Jkt Utara, Daerah Khusus Ibukota Jakarta 14240","Klp. Gading Tim., Kec. Klp. Gading, Jkt Utara",SULAWESI TENGGARA,14240.0,Indonesia, 0214531101,,,-6.1572666,106.9084263,https://maps.google.com/?cid=0x0:0x1c1a278e20ff1c47,
mall,Pusat Perbelanjaan,Summarecon Mall Bekasi,"Sentra Summarecon Bekasi, Jl. Boulevard Ahmad Yani, Marga Mulya, Kec. Bekasi Utara, Kota Bks, Jawa Barat 17142","Jl. Boulevard Ahmad Yani, Marga Mulya, Kec. Bekasi Utara, Kota Bks",SULAWESI TENGGARA,17142.0,Indonesia, 02129572888,,,-6.2261276,107.0010764,https://maps.google.com/?cid=0x0:0xd22a5d56809f070a,
mall,Pusat Perbelanjaan,Mall Of Indonesia,"Jl. Boulevard Bar. Raya No.12, RT.18/RW.19, Klp. Gading Bar., Kec. Klp. Gading, Jkt Utara, Daerah Khusus Ibukota Jakarta 14240","RT.18/RW.19, Klp. Gading Bar., Kec. Klp. Gading, Jkt Utara",SULAWESI TENGGARA,14240.0,Indonesia, 02145867888,,,-6.1514549,106.8918949,https://maps.google.com/?cid=0x0:0x3431c7aaadd1f1b6,
mall,Pusat Perbelanjaan,La Piazza,"Jl. Boulevard Raya Blok . M, RT.13/RW.18, Klp. Gading Tim., Kec. Klp. Gading, Jkt Utara, Daerah Khusus Ibukota Jakarta 14240","RT.13/RW.18, Klp. Gading Tim., Kec. Klp. Gading, Jkt Utara",SULAWESI TENGGARA,14240.0,Indonesia, 0214531101,,,-6.1592374,106.9071621,https://maps.google.com/?cid=0x0:0xa6a4a343bacb1fbe,
mall,Pusat Perbelanjaan,Gafoy,"Mall Klp. Gading, Jl. Boulevard Raya, RT.13/RW.18, Klp. Gading Tim., Kec. Klp. Gading, Jkt Utara, Daerah Khusus Ibukota Jakarta 14240","Jl. Boulevard Raya, RT.13/RW.18, Klp. Gading Tim., Kec. Klp. Gading, Jkt Utara",SULAWESI TENGGARA,14240.0,Indonesia,,,,-6.1595728,106.9071263,https://maps.google.com/?cid=0x0:0x78e1975168386a62,
mall,Pusat Perbelanjaan,Mal Kelapa Gading 2,"Menara Satu Sentra Klp. Gading, Kompleks Jl. Boulevard Raya, Klp. Gading Tim., Kec. Klp. Gading, Jkt Utara, Daerah Khusus Ibukota Jakarta 14240","Kompleks Jl. Boulevard Raya, Klp. Gading Tim., Kec. Klp. Gading, Jkt Utara",SULAWESI TENGGARA,14240.0,Indonesia, 0214531101,,,-6.157809,106.9076198,https://maps.google.com/?cid=0x0:0x8ab66acdf75a2503,
mall,Pusat Perbelanjaan,Tangcity Mall,"Jl. Jenderal Sudirman No.1, Cikokol, Kec. Tangerang, Kota Tangerang, Banten 15117","Cikokol, Kec. Tangerang, Kota Tangerang",SULAWESI TENGGARA,15117.0,Indonesia, 02155733333,,,-6.1939327,106.6341002,https://maps.google.com/?cid=0x0:0xdcbd7b5bf0b8b249,
mall,Toko Swalayan,AEON Mall Deltamas - Cikarang Bekasi,"Jl. Ganesha Boulevard, Kota Deltamas, Kec. Cikarang Pusat, Kabupaten Bekasi, Jawa Barat 17530","Kota Deltamas, Kec. Cikarang Pusat, Kabupaten Bekasi",SULAWESI TENGGARA,17530.0,Indonesia, 02138733333,,,-6.3519407,107.1954494,https://maps.google.com/?cid=0x0:0xa692ce22e7339115,
mall,Toserba,Matahari Department Store AEON MALL Deltamas,"Jl. Ganesha Boulevard, Hegarmukti, Cikarang Tengah, Kabupaten Bekasi, Jawa Barat 17530","Hegarmukti, Cikarang Tengah, Kabupaten Bekasi",SULAWESI TENGGARA,17530.0,Indonesia, 08119044424,,,-6.3507169,107.1938577,https://maps.google.com/?cid=0x0:0xdce5de003465c98a,
mall,Pusat Perbelanjaan,AEON Supermarket Deltamas,"AEON Mall Deltamas, Jl. Ganesha Boulevard Lantai GF, Hegarmukti, Kec. Cikarang Pusat, Kabupaten Bekasi, Jawa Barat 17530","Jl. Ganesha Boulevard Lantai GF, Hegarmukti, Kec. Cikarang Pusat, Kabupaten Bekasi",SULAWESI TENGGARA,17530.0,Indonesia, 02150964932,,,-6.3505152,107.1938481,https://maps.google.com/?cid=0x0:0xaab46065116f1cee,
mall,Pasar tradisional,Pasar Walasiho,"73X5+J82, Unnamed Rd,, Walasiho, Kec. Wawo, Kabupaten Kolaka Utara, Sulawesi Tenggara 93956","Unnamed Rd,, Walasiho, Kec. Wawo, Kabupaten Kolaka Utara",SULAWESI TENGGARA,93956.0,Indonesia, 082291842061,,,-3.7009862,121.0582518,https://maps.google.com/?cid=0x0:0x8558e4cb2f9f9c9,
mall,Pasar,Pasar Central Desa Pohu,"8XWX+V8H, Jl. Pelabuhan, Pohu, Kecamatan Rante Angin, Kabupaten Kolaka Utara, Sulawesi Tenggara 93956","Jl. Pelabuhan, Pohu, Kecamatan Rante Angin, Kabupaten Kolaka Utara",SULAWESI TENGGARA,93956.0,Indonesia,,,,-3.6528079,120.9983478,https://maps.google.com/?cid=0x0:0x2d6cf316bf401d1e,
mall,Toko,Toko Mega Bangunan,"Jl. Trans Sulawesi No.93, Puumbolo, Kec. Wawo, Kabupaten Kolaka Utara, Sulawesi Tenggara 93956","Puumbolo, Kec. Wawo, Kabupaten Kolaka Utara",SULAWESI TENGGARA,93956.0,Indonesia, 085241544951,,,-3.6717431,121.0422216,https://maps.google.com/?cid=0x0:0xb597653788f8ed2e,
mall,Pasar,Deestore,"829C+968, Pasar, Landolia, Kecamatan Rante Angin, Kabupaten Kolaka Utara, Sulawesi Tenggara 93956","Pasar, Landolia, Kecamatan Rante Angin, Kabupaten Kolaka Utara",SULAWESI TENGGARA,93956.0,Indonesia, 081230433223,,,-3.6815964,121.0205764,https://maps.google.com/?cid=0x0:0xc669268ef41ac532,
mall,Toko,Kios Anggun Cell,"9X9P+7CP, Lapasi-Pasi, Kec. Lambai, Kabupaten Kolaka Utara, Sulawesi Tenggara 93956","Lapasi-Pasi, Kec. Lambai, Kabupaten Kolaka Utara",SULAWESI TENGGARA,93956.0,Indonesia, 085366458879,,,-3.6317838,120.9860634,https://maps.google.com/?cid=0x0:0x299cf626f34611c1,
mall,Pusat Perbelanjaan,TOKO SETIA KARYA,"829C+64M, Landolia, Kecamatan Rante Angin, Kabupaten Kolaka Utara, Sulawesi Tenggara 93956","Landolia, Kecamatan Rante Angin, Kabupaten Kolaka Utara",SULAWESI TENGGARA,93956.0,Indonesia, 082336453661,,,-3.6819159,121.0202844,https://maps.google.com/?cid=0x0:0x49b81851ef010d9e,
mall,Kios,TOKO IH-SA 02,"82MP+VVX, Jl. Poros Ranteangin - Kolaka, Rante Angin, Kecamatan Rante Angin, Kabupaten Kolaka Utara, Sulawesi Tenggara 93956","Jl. Poros Ranteangin - Kolaka, Rante Angin, Kecamatan Rante Angin, Kabupaten Kolaka Utara",SULAWESI TENGGARA,93956.0,Indonesia, 085340228080,,,-3.6652585,121.0372262,https://maps.google.com/?cid=0x0:0xba36c1b694593ab2,
mall,mall,TOKO FAMILY T.H,"TOKO FAMILY T.H, Ulu Wawo, Kec. Wawo, Kabupaten Kolaka Utara, Sulawesi Tenggara 93956","Ulu Wawo, Kec. Wawo, Kabupaten Kolaka Utara",SULAWESI TENGGARA,93956.0,Indonesia,,,,-3.6900099,121.0336811,https://maps.google.com/?cid=0x0:0x5d277a46dcfc44ec,
mall,mall,Sulawesi Tenggara,,Sulawesi Tenggara,SULAWESI TENGGARA,,Indonesia,,,,-4.14491,122.174605,https://maps.google.com/?cid=0x0:0x621d7c439f04a4ed,
mall,Pasar,"Pasar Sentral Lahimbua, Andowia, Kabupaten Konawe Utara, Sulawesi Tenggara","F43P+CWF, Lahimbua, Kec. Andowia, Kabupaten Konawe Utara, Sulawesi Tenggara 93353","Lahimbua, Kec. Andowia, Kabupaten Konawe Utara",SULAWESI TENGGARA,93353.0,Indonesia,,,,-3.5464363,122.1372924,https://maps.google.com/?cid=0x0:0x3db24bd13d8b7cfb,
mall,mall,Toko Asyifa jaya,"Q47X+Q2F, Jl. Trans Sulawesi, Lamonae, Kec. Wiwirano, Kabupaten Konawe Utara, Sulawesi Tenggara 93353","Jl. Trans Sulawesi, Lamonae, Kec. Wiwirano, Kabupaten Konawe Utara",SULAWESI TENGGARA,93353.0,Indonesia,,,,-3.2355585,122.1475341,https://maps.google.com/?cid=0x0:0x4fb022a9e066ddc,
mall,Toko,Indomaret Wiwirano Konawe Utara,"Q47X+Q2F, Jl. Trans Sulawesi, Lamonae, Kec. Wiwirano, Kabupaten Konawe Utara, Sulawesi Tenggara 93353","Jl. Trans Sulawesi, Lamonae, Kec. Wiwirano, Kabupaten Konawe Utara",SULAWESI TENGGARA,93353.0,Indonesia,,,,-3.236253,122.1479521,https://maps.google.com/?cid=0x0:0xb0d4a35c446f3042,
mall,Kantor Perusahaan,Polsek Wiwirano,"P577+QF3, Hialu Utama (Upt. Hialu II), Kec. Wiwirano, Kabupaten Konawe Utara, Sulawesi Tenggara 93353","Hialu Utama (Upt. Hialu II), Kec. Wiwirano, Kabupaten Konawe Utara",SULAWESI TENGGARA,93353.0,Indonesia,,,,-3.2856078,122.1636621,https://maps.google.com/?cid=0x0:0xf6739f7f6ae00663,
mall,Pusat Perbelanjaan,The Park Kendari,"2G89+PV9, Bende, Kec. Kadia, Kota Kendari, Sulawesi Tenggara","Kota Kendari, Sulawesi Tenggara",SULAWESI TENGGARA,,Indonesia,,,,-3.9832207,122.5197309,https://maps.google.com/?cid=0x0:0xc86d98065cfeec35,
mall,mall,Sulawesi Tenggara 93353,Sulawesi Tenggara,Sulawesi Tenggara,SULAWESI TENGGARA,,Indonesia,,,,-3.2548527,121.7195459,https://maps.google.com/?cid=0x0:0x9fb3fe070f9105ac,
mall,Kantor Perusahaan,PT. VDNI,"Puuruy, Kec. Bondoala, Kabupaten Konawe, Sulawesi Tenggara 93354","Kec. Bondoala, Kabupaten Konawe",SULAWESI TENGGARA,93354.0,Indonesia, 082330311437,,,-3.9035738,122.4248563,https://maps.google.com/?cid=0x0:0xaa5293739518cd58,
supermarket,supermarket,Sulawesi Tenggara 93353,Sulawesi Tenggara,Sulawesi Tenggara,SULAWESI TENGGARA,,Indonesia,,,,-3.2548527,121.7195459,https://maps.google.com/?cid=0x0:0x9fb3fe070f9105ac,
supermarket,Minimarket,Alfamidi Andowia,"F4CM+2PH, Jl. Poros Bungku Sel. - Kendari, Andowia, Kec. Andowia, Kabupaten Konawe Utara, Sulawesi Tenggara 93353","Jl. Poros Bungku Sel. - Kendari, Andowia, Kec. Andowia, Kabupaten Konawe Utara",SULAWESI TENGGARA,93353.0,Indonesia, 085280967457,,,-3.5299305,122.1343482,https://maps.google.com/?cid=0x0:0x90062ec5a4c32618,
supermarket,Toko Swalayan,Toko Dwi Jaya,"Jl. Trans sulawesi, Wanggudu, Kec. Andowia, Kabupaten Konawe Utara, Sulawesi Tenggara 93356","Wanggudu, Kec. Andowia, Kabupaten Konawe Utara",SULAWESI TENGGARA,93356.0,Indonesia, 085247145354,,,-3.5108339,122.0723816,https://maps.google.com/?cid=0x0:0x9d41c97cd199544c,
supermarket,Toko Bahan Bangunan,Toko Dwi Jaya Asera,"F4H7+MGR, Jl. Poros Bungku Sel. - Kendari, Mataiwoi, Kec. Andowia, Kabupaten Konawe Utara, Sulawesi Tenggara 93353","Jl. Poros Bungku Sel. - Kendari, Mataiwoi, Kec. Andowia, Kabupaten Konawe Utara",SULAWESI TENGGARA,93353.0,Indonesia,,,,-3.5207889,122.1137687,https://maps.google.com/?cid=0x0:0x66f43b22f86d7377,
supermarket,Pusat Perbelanjaan,Pasar Sentral Andowia,"F4FG+46C, Andowia, Kec. Andowia, Kabupaten Konawe Utara, Sulawesi Tenggara 93353","Andowia, Kec. Andowia, Kabupaten Konawe Utara",SULAWESI TENGGARA,93353.0,Indonesia,,,,-3.5271759,122.1255094,https://maps.google.com/?cid=0x0:0xe0c09e2354c0c9ae,
supermarket,supermarket,Desa banggarema,"F4CM+5M2, Andowia, Kec. Andowia, Kabupaten Konawe Utara, Sulawesi Tenggara","Kabupaten Konawe Utara, Sulawesi Tenggara",SULAWESI TENGGARA,,Indonesia,,,,-3.5296127,122.1341414,https://maps.google.com/?cid=0x0:0x6ea249643de4bcf0,
supermarket,Toko bahan makanan,Toko Alya Fajar,"F4P5+C88, Wanggudu, Kec. Asera, Kabupaten Konawe Utara, Sulawesi Tenggara 93353","Wanggudu, Kec. Asera, Kabupaten Konawe Utara",SULAWESI TENGGARA,93353.0,Indonesia,,,,-3.51396,122.1083393,https://maps.google.com/?cid=0x0:0xff21bb4f42bff7a0,
supermarket,Toko sembako pemerintah,DEPOT MIKAYA,"F4CM+JPF, Andowia, Kec. Andowia, Kabupaten Konawe Utara, Sulawesi Tenggara","Kabupaten Konawe Utara, Sulawesi Tenggara",SULAWESI TENGGARA,,Indonesia,,,,-3.5281922,122.134762,https://maps.google.com/?cid=0x0:0xb6bcd64924faf37f,
supermarket,Toko,Toko Az Zubair,"F4H8+5Q7, Mataiwoi, Kec. Andowia, Kabupaten Konawe Utara, Sulawesi Tenggara 93353","Mataiwoi, Kec. Andowia, Kabupaten Konawe Utara",SULAWESI TENGGARA,93353.0,Indonesia, 085241844674,,,-3.522077,122.1169338,https://maps.google.com/?cid=0x0:0x6874c0d632a2b3e7,
supermarket,,KIOS INAYA,"F46Q+FC4, Jl. Poros Bungku Sel. - Kendari, Lamondowo, Kec. Andowia, Kabupaten Konawe Utara, Sulawesi Tenggara 93353","Jl. Poros Bungku Sel. - Kendari, Lamondowo, Kec. Andowia, Kabupaten Konawe Utara",SULAWESI TENGGARA,93353.0,Indonesia,,,,-3.5388502,122.1385819,https://maps.google.com/?cid=0x0:0x1c5267816f4e42e0,
supermarket,supermarket,Asera,"Asemi Nunulai, Kec. Asera, Kabupaten Konawe Utara, Sulawesi Tenggara","Kabupaten Konawe Utara, Sulawesi Tenggara",SULAWESI TENGGARA,,Indonesia,,,,-3.392804,121.749397,https://maps.google.com/?cid=0x0:0x8f84b31c6568f881,
supermarket,Toko Fotokopi,Rafaat jaya,"J3V8+M7H, Puuhialu, Kec. Asera, Kabupaten Konawe Utara, Sulawesi Tenggara 93353","Puuhialu, Kec. Asera, Kabupaten Konawe Utara",SULAWESI TENGGARA,93353.0,Indonesia,,,,-3.3558121,122.0657431,https://maps.google.com/?cid=0x0:0x91a1cb06ce6d34b8,
supermarket,Toko bahan makanan,Toko Alya Fajar,"F4P5+C88, Wanggudu, Kec. Asera, Kabupaten Konawe Utara, Sulawesi Tenggara 93353","Wanggudu, Kec. Asera, Kabupaten Konawe Utara",SULAWESI TENGGARA,93353.0,Indonesia,,,,-3.51396,122.1083393,https://maps.google.com/?cid=0x0:0xff21bb4f42bff7a0,
supermarket,supermarket,Kios77,"F3QC+MX6, Wanggudu, Kec. Asera, Kabupaten Konawe Utara, Sulawesi Tenggara 93353","Wanggudu, Kec. Asera, Kabupaten Konawe Utara",SULAWESI TENGGARA,93353.0,Indonesia, 082229284136,,,-3.5108339,122.0723816,https://maps.google.com/?cid=0x0:0xa1fdc32e0478a5c9,
supermarket,Minimarket,Indomaret Asera 96 Konawe Utara,"F4M5+VM8, Jl. Poros Bungku Sel. - Kendari, Wanggudu, Kec. Asera, Kabupaten Konawe Utara, Sulawesi Tenggara 93353","Jl. Poros Bungku Sel. - Kendari, Wanggudu, Kec. Asera, Kabupaten Konawe Utara",SULAWESI TENGGARA,93353.0,Indonesia,,,,-3.5153329,122.1092049,https://maps.google.com/?cid=0x0:0x43db77c8b0446f6f,
supermarket,Toko Swalayan,Toko Caerisa,"Gg. Mama H. Jafar 01/08 Cikawaron, Sirnagalih, Kecamaten Cipeundeuy, Kabupaten Bandung Barat, Jawa Barat 40558","Sirnagalih, Kecamaten Cipeundeuy, Kabupaten Bandung Barat",SULAWESI TENGGARA,40558.0,Indonesia, 083821669190,,,-6.7201664,107.3679818,https://maps.google.com/?cid=0x0:0x7a715c38e4d5f7a2,
supermarket,Toko Swalayan,Sesa Organic Store Grand Indonesia,"Grand Indonesia East Mall Lantai Ground (EM-LG-10 Jl. Tlk. Betung I No.45A, RT.1/RW.5, Kb. Melati, Kecamatan Tanah Abang Kota Jakarta Pusat, DKI, Daerah Khusus Ibukota Jakarta 10310","RT.1/RW.5, Kb. Melati, Kecamatan Tanah Abang Kota Jakarta Pusat, DKI",SULAWESI TENGGARA,10310.0,Indonesia, 085179895354,,,-6.1958737,106.8206723,https://maps.google.com/?cid=0x0:0x4575b226fe93133f,
supermarket,Toko Swalayan,Sesa Organic Market SCBD,"SCBD Lot 8 - 5, 29, Foundry No. 8 Jl. Raya Kby. Lama No.3, RT.5/RW.3, Senayan, Kec. Kby. Baru, Kota Jakarta Selatan, Daerah Khusus Ibukota Jakarta 12230","29, Foundry No. 8 Jl. Raya Kby. Lama No.3, RT.5/RW.3, Senayan, Kec. Kby. Baru, Kota Jakarta Selatan",SULAWESI TENGGARA,12230.0,Indonesia, 081311696789,,,-6.2282903,106.8092476,https://maps.google.com/?cid=0x0:0xf543139e72d97fb3,
supermarket,supermarket,Kecamatan Langgikima,"Kabupaten Konawe Utara, Sulawesi Tenggara","Kabupaten Konawe Utara, Sulawesi Tenggara",SULAWESI TENGGARA,,Indonesia,,,,-3.2937576,122.2336267,https://maps.google.com/?cid=0x0:0x84f471fa9a20e886,
supermarket,Toko umum,Toko Anisa Jaya (H. Baba),"Samping Pasar, Kecamatan Langgikima, Kabupaten Konawe Utara, Sulawesi Tenggara 93351","Kecamatan Langgikima, Kabupaten Konawe Utara",SULAWESI TENGGARA,93351.0,Indonesia, 08521532173,,,-3.2940991,122.2338225,https://maps.google.com/?cid=0x0:0x18b54170fb623a9a,
supermarket,Toko,TOKO SINAR WIWI,"P65J+39R, Langgikima, Kecamatan Langgikima, Kabupaten Konawe Utara, Sulawesi Tenggara","Kabupaten Konawe Utara, Sulawesi Tenggara",SULAWESI TENGGARA,,Indonesia,,,,-3.2922741,122.230884,https://maps.google.com/?cid=0x0:0x8b076448da2aa574,
supermarket,Minimarket,Soni mart,"M68G+W4, Sari Mukti, Kecamatan Langgikima, Kabupaten Konawe Utara, Sulawesi Tenggara 93352","Sari Mukti, Kecamatan Langgikima, Kabupaten Konawe Utara",SULAWESI TENGGARA,93352.0,Indonesia,,,,-3.3315319,122.2254693,https://maps.google.com/?cid=0x0:0x8c11d267a10939d9,
supermarket,Pusat Perbelanjaan,Ganteng Print,"P64M+H4G, Pasar, Pariama, Kecamatan Langgikima, Kabupaten Konawe Utara, Sulawesi Tenggara 93353","Pasar, Pariama, Kecamatan Langgikima, Kabupaten Konawe Utara",SULAWESI TENGGARA,93353.0,Indonesia, 082225999225,,,-3.2935528,122.2328431,https://maps.google.com/?cid=0x0:0xa4765241fce67b5,
supermarket,Kios,Adila,"M6FG+273, Sari Mukti, Kecamatan Langgikima, Kabupaten Konawe Utara, Sulawesi Tenggara","Kabupaten Konawe Utara, Sulawesi Tenggara",SULAWESI TENGGARA,,Indonesia,,,,-3.3274812,122.2256773,https://maps.google.com/?cid=0x0:0x564b1a97e65b3d9f,
supermarket,supermarket,Toko Tiara,"C4PM+78G, Molore, Kecamatan Langgikima, Kabupaten Konawe Utara, Sulawesi Tenggara 93352","Molore, Kecamatan Langgikima, Kabupaten Konawe Utara",SULAWESI TENGGARA,93352.0,Indonesia,,,,-3.564319,123.133313,https://maps.google.com/?cid=0x0:0x78c3545955891916,
supermarket,Toko umum,Kios alya,"M7QH+76Q, pantai, Molore, Kecamatan Langgikima, Kabupaten Konawe Utara, Sulawesi Tenggara","Kabupaten Konawe Utara, Sulawesi Tenggara",SULAWESI TENGGARA,,Indonesia,,,,-3.3117838,122.2781131,https://maps.google.com/?cid=0x0:0x47970211dd391600,
supermarket,Toko,Toko Mama Leni,"P64M+F4R, Pariama, Kecamatan Langgikima, Kabupaten Konawe Utara, Sulawesi Tenggara","Kabupaten Konawe Utara, Sulawesi Tenggara",SULAWESI TENGGARA,,Indonesia,,,,-3.2937703,122.2327723,https://maps.google.com/?cid=0x0:0xe0492607b8d8007c,
supermarket,Toko,Rumah ibnuizza,"M6GF+FR5, Sari Mukti, Kecamatan Langgikima, Kabupaten Konawe Utara, Sulawesi Tenggara 93352","Sari Mukti, Kecamatan Langgikima, Kabupaten Konawe Utara",SULAWESI TENGGARA,93352.0,Indonesia,,,,-3.3238017,122.2245891,https://maps.google.com/?cid=0x0:0xea752b5b67dbf7,
supermarket,Komplek perumahan,rumah chea,"M5WW+M4H, Polora Indah, Kecamatan Langgikima, Kabupaten Konawe Utara, Sulawesi Tenggara 93353","Polora Indah, Kecamatan Langgikima, Kabupaten Konawe Utara",SULAWESI TENGGARA,93353.0,Indonesia,,,,-3.3026671,122.1953794,https://maps.google.com/?cid=0x0:0xc24e9b880e2df339,
supermarket,Pusat Perbelanjaan,TOKO ARRAZAQ,"Molawe, Kec. Molawe, Kabupaten Konawe Utara, Sulawesi Tenggara 93352","Kec. Molawe, Kabupaten Konawe Utara",SULAWESI TENGGARA,93352.0,Indonesia,,,,-3.6144586,122.1997582,https://maps.google.com/?cid=0x0:0xd143a17c5822982d,
supermarket,Toko bahan makanan,WARUNG VALE,"Polora Indah, Kecamatan Langgikima, Kabupaten Konawe Utara, Sulawesi Tenggara 93353","Kecamatan Langgikima, Kabupaten Konawe Utara",SULAWESI TENGGARA,93353.0,Indonesia, 082150094450,,,-3.2964375,122.1919375,https://maps.google.com/?cid=0x0:0x6cd934663f4f67f2,
supermarket,supermarket,Sulawesi Tenggara 93352,"Kabupaten Konawe Utara, Sulawesi Tenggara","Kabupaten Konawe Utara, Sulawesi Tenggara",SULAWESI TENGGARA,,Indonesia,,,,-3.7041573,122.2427,https://maps.google.com/?cid=0x0:0x888ae8f2fa8ed5e8,
supermarket,Toko bahan makanan,NS SWALAYAN,"JALAN TRANS SULAWESI, Andumowu, Kec. Lasolo, Kabupaten Konawe Utara, Sulawesi Tenggara 93352","Andumowu, Kec. Lasolo, Kabupaten Konawe Utara",SULAWESI TENGGARA,93352.0,Indonesia, 081241456412,,,-3.661488,122.2313778,https://maps.google.com/?cid=0x0:0xf9b7a27e6c70ea91,
supermarket,Toko,TOKO AFDHAL RIKANENG,"9649+MWR, Jl. Trans Sulawesi, Otole, Kec. Lasolo, Kabupaten Konawe Utara, Sulawesi Tenggara 93352","Jl. Trans Sulawesi, Otole, Kec. Lasolo, Kabupaten Konawe Utara",SULAWESI TENGGARA,93352.0,Indonesia, 081245579806,,,-3.6432703,122.2197763,https://maps.google.com/?cid=0x0:0xfb552ac01634af5f,
supermarket,Toko bahan makanan,Swalayan Sammulia Mart 2,"XF29+F4G, Ranomeeto, Kec. Ranomeeto, Kabupaten Konawe Selatan, Sulawesi Tenggara 93870","Ranomeeto, Kec. Ranomeeto, Kabupaten Konawe Selatan",SULAWESI TENGGARA,93870.0,Indonesia, 085299717162,,,-4.04882,122.4678323,https://maps.google.com/?cid=0x0:0x73d90ec169a838e9,
supermarket,Toko bahan makanan,Indomaret Lasolo Konawe Utara,"Jl. Poros Bungku Sel. - Kendari No.Desa, Andumowu, Kec. Lasolo, Kabupaten Konawe Utara, Sulawesi Tenggara 93352","Andumowu, Kec. Lasolo, Kabupaten Konawe Utara",SULAWESI TENGGARA,93352.0,Indonesia,,,,-3.6639589,122.2343192,https://maps.google.com/?cid=0x0:0xa5789a3427997b65,
supermarket,supermarket,Desa banggarema,"F4CM+5M2, Andowia, Kec. Andowia, Kabupaten Konawe Utara, Sulawesi Tenggara","Kabupaten Konawe Utara, Sulawesi Tenggara",SULAWESI TENGGARA,,Indonesia,,,,-3.5296127,122.1341414,https://maps.google.com/?cid=0x0:0x6ea249643de4bcf0,
supermarket,Toko bahan makanan,KIOS VIKA,"5F4H+P59 Labota, RT.001/RW.001, Lalimbue Jaya, Kec. Kapoiala, Kabupaten Konawe, Sulawesi Tenggara 93354","RT.001/RW.001, Lalimbue Jaya, Kec. Kapoiala, Kabupaten Konawe",SULAWESI TENGGARA,93354.0,Indonesia, 082395691245,,,-3.8432057,122.4779691,https://maps.google.com/?cid=0x0:0xa7bd6a362caae198,
supermarket,Minimarket,Toko kosmetik sandriani isran,"95VH+2XP, Jl. Poros Bungku Sel. - Kendari, Awila Puncak, Kec. Molawe, Kabupaten Konawe Utara, Sulawesi Tenggara 93352","Jl. Poros Bungku Sel. - Kendari, Awila Puncak, Kec. Molawe, Kabupaten Konawe Utara",SULAWESI TENGGARA,93352.0,Indonesia, 081342317237,,,-3.6074057,122.1799393,https://maps.google.com/?cid=0x0:0x561166348191c5e2,
supermarket,Minimarket,Alfamidi Andowia,"F4CM+2PH, Jl. Poros Bungku Sel. - Kendari, Andowia, Kec. Andowia, Kabupaten Konawe Utara, Sulawesi Tenggara 93353","Jl. Poros Bungku Sel. - Kendari, Andowia, Kec. Andowia, Kabupaten Konawe Utara",SULAWESI TENGGARA,93353.0,Indonesia, 085280967457,,,-3.5299305,122.1343482,https://maps.google.com/?cid=0x0:0x90062ec5a4c32618,
supermarket,Kios,Kios sabri,"5F89+Q7, Tani Indah, Kec. Kapoiala, Kabupaten Konawe, Sulawesi Tenggara","Kabupaten Konawe, Sulawesi Tenggara",SULAWESI TENGGARA,,Indonesia, 081327916423,,,-3.8330344,122.4681897,https://maps.google.com/?cid=0x0:0xc76491af99a0b468,
supermarket,Pusat Perbelanjaan,Sinar Tapung perkasa,"F69V+V3G, Tapunggaeya, Kec. Molawe, Kabupaten Konawe Utara, Sulawesi Tenggara","Kabupaten Konawe Utara, Sulawesi Tenggara",SULAWESI TENGGARA,,Indonesia,,,,-3.5303114,122.2427,https://maps.google.com/?cid=0x0:0xcc9f76f35777c959,
supermarket,Pusat Perbelanjaan,Megros Supermarket,"XGRM+6V4, Jl. Martandu, Kambu, Kec. Kambu, Kota Kendari, Sulawesi Tenggara 93231","Jl. Martandu, Kambu, Kec. Kambu, Kota Kendari",SULAWESI TENGGARA,93231.0,Indonesia, 085241699000,,,-4.0094866,122.5346976,https://maps.google.com/?cid=0x0:0xd713457124a3db47,
supermarket,Toko,Kios paisan,"5F6P+3J9, Lalimbue Jaya, Kec. Kapoiala, Kabupaten Konawe, Sulawesi Tenggara 93354","Lalimbue Jaya, Kec. Kapoiala, Kabupaten Konawe",SULAWESI TENGGARA,93354.0,Indonesia,,,,-3.839843,122.486596,https://maps.google.com/?cid=0x0:0x7a5e193402e3a929,
supermarket,Minimarket,Toko MANA SUKA,"4C39+RJF, Sampara/Morosi, Kec. Bondoala, Kabupaten Konawe, Sulawesi Tenggara 93354","Sampara/Morosi, Kec. Bondoala, Kabupaten Konawe",SULAWESI TENGGARA,93354.0,Indonesia,,,,-3.8954324,122.4190352,https://maps.google.com/?cid=0x0:0x113f26f2671e61ee,
supermarket,Toko umum,Toko ARIQSA,"7X3W+9C7, Nambeaboru, Kec. Tongauna, Kabupaten Konawe, Sulawesi Tenggara 93461","Nambeaboru, Kec. Tongauna, Kabupaten Konawe",SULAWESI TENGGARA,93461.0,Indonesia,,,,-3.7465953,121.9960511,https://maps.google.com/?cid=0x0:0x485728d98308241a,
supermarket,Gudang,PT. Landipo Niaga Raya,"42RP+WV2, Puunaaha, Kec. Unaaha, Kabupaten Konawe, Sulawesi Tenggara 93413","Puunaaha, Kec. Unaaha, Kabupaten Konawe",SULAWESI TENGGARA,93413.0,Indonesia,,,,-3.8577381,122.0371434,https://maps.google.com/?cid=0x0:0x11212d469e49adc6,
supermarket,Kios,Kios ABDILLAH,"3CQM+M5P, Jl. Poros Pohara - Laosu, Puuruy, Kec. Bondoala, Kabupaten Konawe, Sulawesi Tenggara 93354","Jl. Poros Pohara - Laosu, Puuruy, Kec. Bondoala, Kabupaten Konawe",SULAWESI TENGGARA,93354.0,Indonesia,,,,-3.9107836,122.4329668,https://maps.google.com/?cid=0x0:0x76238be713aa218f,
supermarket,Toko Swalayan,Toko 59,"Jl. Sapati, Tumpas, Kec. Unaaha, Kabupaten Konawe, Sulawesi Tenggara 93415","Tumpas, Kec. Unaaha, Kabupaten Konawe",SULAWESI TENGGARA,93415.0,Indonesia,,,,-3.8616757,122.0434433,https://maps.google.com/?cid=0x0:0xb784926db7057deb,
supermarket,Toko Swalayan,Azlan mart,"2FM9+XQQ, Puuwatu, Kec. Puuwatu, Kota Kendari, Sulawesi Tenggara 93114","Puuwatu, Kec. Puuwatu, Kota Kendari",SULAWESI TENGGARA,93114.0,Indonesia,,,,-3.9650315,122.4694934,https://maps.google.com/?cid=0x0:0xfb930c70b5b4c86,
supermarket,Minimarket,Ade Swalayan,"Jl. Jenderal M.t. Haryono, Wowawanggu, Kec. Kadia, Kota Kendari, Sulawesi Tenggara 93117","Wowawanggu, Kec. Kadia, Kota Kendari",SULAWESI TENGGARA,93117.0,Indonesia, 04013190888,,,-3.9912288,122.5088802,https://maps.google.com/?cid=0x0:0x97b25e422926c769,
supermarket,Toko,SUPERMARKET MOROSI,"Jl. Tambang Morosi, Puuruy, Kec. Bondoala, Kabupaten Konawe, Sulawesi Tenggara 93354","Puuruy, Kec. Bondoala, Kabupaten Konawe",SULAWESI TENGGARA,93354.0,Indonesia,,,,-3.9114036,122.4346612,https://maps.google.com/?cid=0x0:0xfadab0c1cf8b493a,
supermarket,Toko Bahan Bangunan,Toko Dwi Jaya Asera,"F4H7+MGR, Jl. Poros Bungku Sel. - Kendari, Mataiwoi, Kec. Andowia, Kabupaten Konawe Utara, Sulawesi Tenggara 93353","Jl. Poros Bungku Sel. - Kendari, Mataiwoi, Kec. Andowia, Kabupaten Konawe Utara",SULAWESI TENGGARA,93353.0,Indonesia,,,,-3.5207889,122.1137687,https://maps.google.com/?cid=0x0:0x66f43b22f86d7377,
supermarket,Kios,Aulia Food,"86WR+64M, Tinobu, Kec. Lasolo, Kabupaten Konawe Utara, Sulawesi Tenggara","Kabupaten Konawe Utara, Sulawesi Tenggara",SULAWESI TENGGARA,,Indonesia,,,,-3.6544042,122.2403074,https://maps.google.com/?cid=0x0:0xc7dc9eab8f54c925,
supermarket,Toko umum,Kios Ririn,"863W+HF8, Jl. Poros Wawotobi - Lasolo, Andeo, Kec. Lasolo, Kabupaten Konawe Utara, Sulawesi Tenggara 93352","Jl. Poros Wawotobi - Lasolo, Andeo, Kec. Lasolo, Kabupaten Konawe Utara",SULAWESI TENGGARA,93352.0,Indonesia,,,,-3.6960761,122.246191,https://maps.google.com/?cid=0x0:0x557b19324605c105,
supermarket,Toko bahan makanan,KIOS ILHAM Toreo,"875G+WRJ, Toreo, Kec. Lasolo, Kabupaten Konawe Utara, Sulawesi Tenggara 93352","Toreo, Kec. Lasolo, Kabupaten Konawe Utara",SULAWESI TENGGARA,93352.0,Indonesia, 081245971532,,,-3.6901624,122.2770041,https://maps.google.com/?cid=0x0:0x64e40fecc7d98983,
supermarket,Kios,KIOS FAUZAN,"44Q5+FG3, Kulahi, Kec. Wawotobi, Kabupaten Konawe, Sulawesi Tenggara 93461","Kulahi, Kec. Wawotobi, Kabupaten Konawe",SULAWESI TENGGARA,93461.0,Indonesia,,,,-3.8613611,122.1087821,https://maps.google.com/?cid=0x0:0xc4a889035c58188c,
supermarket,,KIOS MEGA,"86VJ+V38, Jl. Poros Bungku Sel. - Kendari, Waworaha, Kec. Lasolo, Kabupaten Konawe Utara, Sulawesi Tenggara 93352","Jl. Poros Bungku Sel. - Kendari, Waworaha, Kec. Lasolo, Kabupaten Konawe Utara",SULAWESI TENGGARA,93352.0,Indonesia,,,,-3.6553356,122.2301889,https://maps.google.com/?cid=0x0:0xdab20356bbe9992d,
supermarket,Toko,Kios sumber rejeki,"86WQ+HX6, Tinobu, Kec. Lasolo, Kabupaten Konawe Utara, Sulawesi Tenggara","Kabupaten Konawe Utara, Sulawesi Tenggara",SULAWESI TENGGARA,,Indonesia, 085256267786,,,-3.6535944,122.239903,https://maps.google.com/?cid=0x0:0xf870f2addcda18b8,
supermarket,Toko umum,Malik ATK,"44XJ+X95, Jl. Poros Belalo/Lasolo-Wawotobi, Analahumbuti, Kec. Wawotobi, Kabupaten Konawe, Sulawesi Tenggara 93461","Jl. Poros Belalo/Lasolo-Wawotobi, Analahumbuti, Kec. Wawotobi, Kabupaten Konawe",SULAWESI TENGGARA,93461.0,Indonesia,,,,-3.8501078,122.1309966,https://maps.google.com/?cid=0x0:0xe458f83fd5c0239e,
supermarket,supermarket,Sulawesi Tenggara 93352,"Kabupaten Konawe Utara, Sulawesi Tenggara","Kabupaten Konawe Utara, Sulawesi Tenggara",SULAWESI TENGGARA,,Indonesia,,,,-3.7041573,122.2427,https://maps.google.com/?cid=0x0:0x888ae8f2fa8ed5e8,
supermarket,Toko Swalayan,Rapa Abadi,"W974+VG5, Korowou, Kec. Lembo, Kabupaten Morowali, Sulawesi Tengah 94971","Korowou, Kec. Lembo, Kabupaten Morowali",SULAWESI TENGGARA,94971.0,Indonesia, 082292040998,,,-2.0853682,121.3563562,https://maps.google.com/?cid=0x0:0x329fbf472cc4c097,
supermarket,Kios,Kios Andry,"R6P6+P3G, desa, Wawopada, Kec. Lembo, Kabupaten Morowali Utara, Sulawesi Tengah 94966","desa, Wawopada, Kec. Lembo, Kabupaten Morowali Utara",SULAWESI TENGGARA,94966.0,Indonesia,,,,-2.1631837,121.2101918,https://maps.google.com/?cid=0x0:0xa7e4e0ce3c99ced4,
supermarket,Toko Swalayan,ALFAMIDI AHMAD YANI WAWOTOBI,"44F3+CPF, Lalosabila, Kec. Wawotobi, Kabupaten Konawe, Sulawesi Tenggara 93461","Lalosabila, Kec. Wawotobi, Kabupaten Konawe",SULAWESI TENGGARA,93461.0,Indonesia, 082111249625,,,-3.8764307,122.1043006,https://maps.google.com/?cid=0x0:0xdeb114a978d081e5,
supermarket,Toko Swalayan,Aneka Buana Supermarket - Pondok Labu,"Jl. RS. Fatmawati Raya No.15, RT.2/RW.1, Pd. Labu, Kec. Cilandak, Kota Jakarta Selatan, Daerah Khusus Ibukota Jakarta 12450","RT.2/RW.1, Pd. Labu, Kec. Cilandak, Kota Jakarta Selatan",SULAWESI TENGGARA,12450.0,Indonesia, 0217692010,,,-6.3093895,106.7939361,https://maps.google.com/?cid=0x0:0x3f7935d87cf91289,
supermarket,Toko Swalayan,Aneka Buana Cirendeu,"Jl. Raya Cirendeu No.38, Cireundeu, Kec. Ciputat Tim., Kota Tangerang Selatan, Banten 15419","Cireundeu, Kec. Ciputat Tim., Kota Tangerang Selatan",SULAWESI TENGGARA,15419.0,Indonesia, 0217423906,,,-6.3117335,106.7705024,https://maps.google.com/?cid=0x0:0x1bfb5dff05fdda3c,
supermarket,Toko Swalayan,Pujasari Swalayan Bojongsari,"Jl. Raya Parung - Ciputat No.101, Bojongsari Baru, Kec. Bojongsari, Kota Depok, Jawa Barat 16517","Bojongsari Baru, Kec. Bojongsari, Kota Depok",SULAWESI TENGGARA,16517.0,Indonesia,,,,-6.3996211,106.7422721,https://maps.google.com/?cid=0x0:0x222c094bdfaf338d,
supermarket,Toko Swalayan,Fortuna Swalayan,"Jl. Moh. Kahfi 1 No.1 9, RT.9/RW.4, Cipedak, Kec. Jagakarsa, Kota Jakarta Selatan, Daerah Khusus Ibukota Jakarta 12630","RT.9/RW.4, Cipedak, Kec. Jagakarsa, Kota Jakarta Selatan",SULAWESI TENGGARA,12630.0,Indonesia, 02178885739,,,-6.3534406,106.8017381,https://maps.google.com/?cid=0x0:0x98646deb131851d7,
supermarket,Toko Swalayan,GS Supermarket Jatiasih,"GsSupermarket :, Jl. Wibawa Mukti II No.125, RT.002/ RW017/RW.017, Jatiasih, Kec. Jatiasih, Kota Bks, Jawa Barat 17423","Jl. Wibawa Mukti II No.125, RT.002/ RW017/RW.017, Jatiasih, Kec. Jatiasih, Kota Bks",SULAWESI TENGGARA,17423.0,Indonesia, 02182736918,,,-6.3070579,106.955731,https://maps.google.com/?cid=0x0:0x74efd6ce433268e6,
supermarket,supermarket,Kec. Lembo,"Wawopada, Kabupaten Morowali Utara, Sulawesi Tengah","Kabupaten Morowali Utara, Sulawesi Tengah",SULAWESI TENGGARA,,Indonesia,,,,-2.1606442,121.2127322,https://maps.google.com/?cid=0x0:0x4030bfbcaf78100,
supermarket,Kios,Kios Andry,"R6P6+P3G, desa, Wawopada, Kec. Lembo, Kabupaten Morowali Utara, Sulawesi Tengah 94966","desa, Wawopada, Kec. Lembo, Kabupaten Morowali Utara",SULAWESI TENGGARA,94966.0,Indonesia,,,,-2.1631837,121.2101918,https://maps.google.com/?cid=0x0:0xa7e4e0ce3c99ced4,
supermarket,Toko Swalayan,Rapa Abadi,"W974+VG5, Korowou, Kec. Lembo, Kabupaten Morowali, Sulawesi Tengah 94971","Korowou, Kec. Lembo, Kabupaten Morowali",SULAWESI TENGGARA,94971.0,Indonesia, 082292040998,,,-2.0853682,121.3563562,https://maps.google.com/?cid=0x0:0x329fbf472cc4c097,
supermarket,Toko Swalayan,Ranch Market Kemang,"Jl. Kemang Raya No.66 68, RT.8/RW.2, Bangka, Mampang Prapatan, South Jakarta City, Jakarta 12730","RT.8/RW.2, Bangka, Mampang Prapatan, South Jakarta City",SULAWESI TENGGARA,12730.0,Indonesia, 081382217182,,,-6.2641983,106.8159772,https://maps.google.com/?cid=0x0:0x8a811b9772a51004,
supermarket,Toko Swalayan,Ranch Market Pesanggrahan,"1, Jl. Pesanggrahan No.2, Kembangan Sel., Kec. Kembangan, Kota Jakarta Barat, Daerah Khusus Ibukota Jakarta 11610","Jl. Pesanggrahan No.2, Kembangan Sel., Kec. Kembangan, Kota Jakarta Barat",SULAWESI TENGGARA,11610.0,Indonesia, 02158304842,,,-6.1883181,106.7561831,https://maps.google.com/?cid=0x0:0x59972408c2ef6a6e,
supermarket,Toko Swalayan,Super Indo Lebak Bulus,"Jl. Lebak Bulus Raya No.7, RT.2/RW.7, Lb. Bulus, Kec. Cilandak, Kota Jakarta Selatan, Daerah Khusus Ibukota Jakarta 12440","RT.2/RW.7, Lb. Bulus, Kec. Cilandak, Kota Jakarta Selatan",SULAWESI TENGGARA,12440.0,Indonesia,,,,-6.2980693,106.7737795,https://maps.google.com/?cid=0x0:0xb582e89cd639245b,
supermarket,supermarket,Sulawesi Tenggara 93352,"Kabupaten Konawe Utara, Sulawesi Tenggara","Kabupaten Konawe Utara, Sulawesi Tenggara",SULAWESI TENGGARA,,Indonesia,,,,-3.7041573,122.2427,https://maps.google.com/?cid=0x0:0x888ae8f2fa8ed5e8,
supermarket,Pusat Perbelanjaan,TOKO ARRAZAQ,"Molawe, Kec. Molawe, Kabupaten Konawe Utara, Sulawesi Tenggara 93352","Kec. Molawe, Kabupaten Konawe Utara",SULAWESI TENGGARA,93352.0,Indonesia,,,,-3.6144586,122.1997582,https://maps.google.com/?cid=0x0:0xd143a17c5822982d,
supermarket,,Alfamidi Molawe,"Jl. Poros Bungku Sel. - Kendari No.16, Molawe, Kec. Molawe, Kabupaten Konawe Utara, Sulawesi Tenggara 93352","Molawe, Kec. Molawe, Kabupaten Konawe Utara",SULAWESI TENGGARA,93352.0,Indonesia, 082396637819,,,-3.612284,122.195335,https://maps.google.com/?cid=0x0:0x3358b6adb18dbc9f,
supermarket,Toko bahan makanan,Indomaret Molawe - Konawe Utara,"95PX+HJG, Jl. Poros Bungku Sel. - Kendari, Molawe, Kec. Molawe, Kabupaten Konawe Utara, Sulawesi Tenggara 93352","Jl. Poros Bungku Sel. - Kendari, Molawe, Kec. Molawe, Kabupaten Konawe Utara",SULAWESI TENGGARA,93352.0,Indonesia,,,,-3.6135519,122.1990767,https://maps.google.com/?cid=0x0:0x3027cdb058ebe2a6,
supermarket,Toko bahan makanan,kios Rahmat,"C6PG+468, Tapunggaeya, Kec. Molawe, Kabupaten Konawe Utara, Sulawesi Tenggara","Kabupaten Konawe Utara, Sulawesi Tenggara",SULAWESI TENGGARA,,Indonesia,,,,-3.5647134,122.2255719,https://maps.google.com/?cid=0x0:0xd07234baf434c247,
supermarket,Toko bahan makanan,kios Hamizzan,"C6PC+QW7, Tapunggaeya, Kec. Molawe, Kabupaten Konawe Utara, Sulawesi Tenggara","Kabupaten Konawe Utara, Sulawesi Tenggara",SULAWESI TENGGARA,,Indonesia,,,,-3.5630972,122.222303,https://maps.google.com/?cid=0x0:0x3e8c6fad442c158c,
supermarket,Minimarket,TOKO MAROS JAYA,"95PX+8Q3, Jl. Poros Bungku Sel. - Kendari, Molawe, Kec. Molawe, Kabupaten Konawe Utara, Sulawesi Tenggara 93352","Jl. Poros Bungku Sel. - Kendari, Molawe, Kec. Molawe, Kabupaten Konawe Utara",SULAWESI TENGGARA,93352.0,Indonesia,,,,-3.6142487,122.1994241,https://maps.google.com/?cid=0x0:0xd6d54a18e75f1e97,
supermarket,Pusat Perbelanjaan,Sinar Tapung perkasa,"F69V+V3G, Tapunggaeya, Kec. Molawe, Kabupaten Konawe Utara, Sulawesi Tenggara","Kabupaten Konawe Utara, Sulawesi Tenggara",SULAWESI TENGGARA,,Indonesia,,,,-3.5303114,122.2427,https://maps.google.com/?cid=0x0:0xcc9f76f35777c959,
supermarket,Minimarket,Toko kosmetik sandriani isran,"95VH+2XP, Jl. Poros Bungku Sel. - Kendari, Awila Puncak, Kec. Molawe, Kabupaten Konawe Utara, Sulawesi Tenggara 93352","Jl. Poros Bungku Sel. - Kendari, Awila Puncak, Kec. Molawe, Kabupaten Konawe Utara",SULAWESI TENGGARA,93352.0,Indonesia, 081342317237,,,-3.6074057,122.1799393,https://maps.google.com/?cid=0x0:0x561166348191c5e2,
supermarket,Toko umum,Ikan segar,"95VP+2XR, Awila, Kec. Molawe, Kabupaten Konawe Utara, Sulawesi Tenggara 93352","Awila, Kec. Molawe, Kabupaten Konawe Utara",SULAWESI TENGGARA,93352.0,Indonesia,,,,-3.6073848,122.1873761,https://maps.google.com/?cid=0x0:0x3d437ad11381205d,
supermarket,Peternakan Ayam,Pemotongan Ayam,"93CQ+XQF, Molawe, Kec. Molawe, Kabupaten Konawe Utara, Sulawesi Tenggara","Kabupaten Konawe Utara, Sulawesi Tenggara",SULAWESI TENGGARA,,Indonesia,,,,-3.6275749,122.0894255,https://maps.google.com/?cid=0x0:0xb4782a1f517a4f2e,
supermarket,,Kios putri,"Awila, Kec. Molawe, Kabupaten Konawe Utara, Sulawesi Tenggara 93352","Kec. Molawe, Kabupaten Konawe Utara",SULAWESI TENGGARA,93352.0,Indonesia, 085335345399,,,-3.6126402,122.1931305,https://maps.google.com/?cid=0x0:0xeaf7d0c50e402fa9,
supermarket,supermarket,Motui,"Kec. Motui, Kabupaten Konawe Utara, Sulawesi Tenggara","Kabupaten Konawe Utara, Sulawesi Tenggara",SULAWESI TENGGARA,,Indonesia,,,,-3.8064225,122.4552162,https://maps.google.com/?cid=0x0:0x4be5537f48106ff6,
supermarket,supermarket,Kec. Motui,"Kabupaten Konawe Utara, Sulawesi Tenggara","Kabupaten Konawe Utara, Sulawesi Tenggara",SULAWESI TENGGARA,,Indonesia,,,,-3.8052813,122.4581695,https://maps.google.com/?cid=0x0:0x10f6c8115450fdc4,
supermarket,Toko,SUPERMARKET MOROSI,"Jl. Tambang Morosi, Puuruy, Kec. Bondoala, Kabupaten Konawe, Sulawesi Tenggara 93354","Puuruy, Kec. Bondoala, Kabupaten Konawe",SULAWESI TENGGARA,93354.0,Indonesia,,,,-3.9114036,122.4346612,https://maps.google.com/?cid=0x0:0xfadab0c1cf8b493a,
supermarket,Kios,Kios Lita,"4G72+R7Q, Watunggarandu, Kec. Lalonggasumeeto, Kabupaten Konawe, Sulawesi Tenggara","Kabupaten Konawe, Sulawesi Tenggara",SULAWESI TENGGARA,,Indonesia,,,,-3.885418,122.5007199,https://maps.google.com/?cid=0x0:0xea69d8657f16b1aa,
supermarket,Kios,Kios mifta,"3CVH+34M, Jl. Poros Pohara - Laosu, Puuruy, Kec. Bondoala, Kabupaten Konawe, Sulawesi Tenggara 93354","Jl. Poros Pohara - Laosu, Puuruy, Kec. Bondoala, Kabupaten Konawe",SULAWESI TENGGARA,93354.0,Indonesia, 082291788426,,,-3.9072862,122.4277999,https://maps.google.com/?cid=0x0:0xe3ec53d1019665f2,
supermarket,Kios,Kios ABDILLAH,"3CQM+M5P, Jl. Poros Pohara - Laosu, Puuruy, Kec. Bondoala, Kabupaten Konawe, Sulawesi Tenggara 93354","Jl. Poros Pohara - Laosu, Puuruy, Kec. Bondoala, Kabupaten Konawe",SULAWESI TENGGARA,93354.0,Indonesia,,,,-3.9107836,122.4329668,https://maps.google.com/?cid=0x0:0x76238be713aa218f,
supermarket,Toko bahan makanan,Indomaret Wawoluri,"6C2R+8JH Indomaret, Wawoluri, Motui, North Konawe Regency, South East Sulawesi","Kabupaten Konawe Utara, Sulawesi Tenggara",SULAWESI TENGGARA,,Indonesia,,,,-3.7991878,122.4416137,https://maps.google.com/?cid=0x0:0xc0e67e96ce5f1501,
supermarket,Pemandu pendakian,Agen Pos Wawoluri,"6C2R+9RG, Wawoluri, Kec. Motui, Kabupaten Konawe Utara, Sulawesi Tenggara 93352","Wawoluri, Kec. Motui, Kabupaten Konawe Utara",SULAWESI TENGGARA,93352.0,Indonesia, 082192520861,,,-3.7990584,122.4420802,https://maps.google.com/?cid=0x0:0x244c17ec3611d01f,
supermarket,supermarket,Kec. Oheo,"Kabupaten Konawe Utara, Sulawesi Tenggara","Kabupaten Konawe Utara, Sulawesi Tenggara",SULAWESI TENGGARA,,Indonesia,,,,-3.4120121,122.0716764,https://maps.google.com/?cid=0x0:0x1fec54897c86d51a,
supermarket,Toko Fotokopi,Rafaat jaya,"J3V8+M7H, Puuhialu, Kec. Asera, Kabupaten Konawe Utara, Sulawesi Tenggara 93353","Puuhialu, Kec. Asera, Kabupaten Konawe Utara",SULAWESI TENGGARA,93353.0,Indonesia,,,,-3.3558121,122.0657431,https://maps.google.com/?cid=0x0:0x91a1cb06ce6d34b8,
supermarket,Toko,KIOS EGI CELL,"Desa walandawe Lorong pelabuhan, Lorong SMAN 1, Landawe, Kec. Oheo, Kabupaten Konawe Utara, Sulawesi Tenggara 93353","Lorong SMAN 1, Landawe, Kec. Oheo, Kabupaten Konawe Utara",SULAWESI TENGGARA,93353.0,Indonesia, 085346134670,,,-3.3917566,122.0622863,https://maps.google.com/?cid=0x0:0x6be6b6b470f184f5,
supermarket,Toko Swalayan,Toko Dwi Jaya,"Jl. Trans sulawesi, Wanggudu, Kec. Andowia, Kabupaten Konawe Utara, Sulawesi Tenggara 93356","Wanggudu, Kec. Andowia, Kabupaten Konawe Utara",SULAWESI TENGGARA,93356.0,Indonesia, 085247145354,,,-3.5108339,122.0723816,https://maps.google.com/?cid=0x0:0x9d41c97cd199544c,
supermarket,Toko,TOKO SINAR WIWI,"P65J+39R, Langgikima, Kecamatan Langgikima, Kabupaten Konawe Utara, Sulawesi Tenggara","Kabupaten Konawe Utara, Sulawesi Tenggara",SULAWESI TENGGARA,,Indonesia,,,,-3.2922741,122.230884,https://maps.google.com/?cid=0x0:0x8b076448da2aa574,
supermarket,Toko bahan makanan,Toko Alya Fajar,"F4P5+C88, Wanggudu, Kec. Asera, Kabupaten Konawe Utara, Sulawesi Tenggara 93353","Wanggudu, Kec. Asera, Kabupaten Konawe Utara",SULAWESI TENGGARA,93353.0,Indonesia,,,,-3.51396,122.1083393,https://maps.google.com/?cid=0x0:0xff21bb4f42bff7a0,
supermarket,supermarket,"Kios Kayla, Oheo","Landawe, Kec. Oheo, Kabupaten Konawe Utara, Sulawesi Tenggara","Kabupaten Konawe Utara, Sulawesi Tenggara",SULAWESI TENGGARA,,Indonesia,,,,-3.3944886,122.0598334,https://maps.google.com/?cid=0x0:0x48fa380a46e42a7f,
supermarket,Toko bahan makanan,Toko H Obe,"8QQC+3QR, Jl. Sukaharja, Sukaharja, Kec. Cijeruk, Kabupaten Bogor, Jawa Barat 16740","Jl. Sukaharja, Sukaharja, Kec. Cijeruk, Kabupaten Bogor",SULAWESI TENGGARA,16740.0,Indonesia,,,,-6.6622568,106.771878,https://maps.google.com/?cid=0x0:0x12354a038ec79548,
supermarket,supermarket,Sulawesi Tenggara 93352,"Kabupaten Konawe Utara, Sulawesi Tenggara","Kabupaten Konawe Utara, Sulawesi Tenggara",SULAWESI TENGGARA,,Indonesia,,,,-3.7041573,122.2427,https://maps.google.com/?cid=0x0:0x888ae8f2fa8ed5e8,
supermarket,Pasar,Pasar Sawa,"6CRJ+WCF, Sawa, Kec. Sawa, Kabupaten Konawe Utara, Sulawesi Tenggara 93352","Sawa, Kec. Sawa, Kabupaten Konawe Utara",SULAWESI TENGGARA,93352.0,Indonesia,,,,-3.7576901,122.431055,https://maps.google.com/?cid=0x0:0xccf5d740f37f62f9,
supermarket,Toko,Toko Aliqha,"Jln poros,Bungku-selatan, Sawa, Kec. Sawa, Kabupaten Konawe Utara, Sulawesi Tenggara 93352","Sawa, Kec. Sawa, Kabupaten Konawe Utara",SULAWESI TENGGARA,93352.0,Indonesia, 085340407075,,,-3.7577104,122.4230555,https://maps.google.com/?cid=0x0:0x5bcbb6c640b4db15,
supermarket,Toko,Toko FAUZAN,"69MX+9XJ, Puupi, Kec. Sawa, Kabupaten Konawe Utara, Sulawesi Tenggara 93352","Puupi, Kec. Sawa, Kabupaten Konawe Utara",SULAWESI TENGGARA,93352.0,Indonesia,,,,-3.7662977,122.3999138,https://maps.google.com/?cid=0x0:0x9364d99016e90b3e,
supermarket,Toko Swalayan,Toko Dwi Jaya,"Jl. Trans sulawesi, Wanggudu, Kec. Andowia, Kabupaten Konawe Utara, Sulawesi Tenggara 93356","Wanggudu, Kec. Andowia, Kabupaten Konawe Utara",SULAWESI TENGGARA,93356.0,Indonesia, 085247145354,,,-3.5108339,122.0723816,https://maps.google.com/?cid=0x0:0x9d41c97cd199544c,
supermarket,Toko Swalayan,"Sawa Super Market - Grocery Store In Sawa Chittorgarh, Online Delivery In Sawa Shambhupura Adity","HOSPITAL, BUS STAND, near Sawa, Kajorpura, Sawa, Rajasthan 312613, India","BUS STAND, near Sawa, Kajorpura, Sawa, Rajasthan",SULAWESI TENGGARA,312613.0,Indonesia,,,,24.7563406,74.5825736,https://maps.google.com/?cid=0x0:0x8b800d6b731e806b,
supermarket,Toko bahan makanan Amerika,Ammi Ki Dukaan,"QH5P+G7V, kajodpura, Sawa, Rajasthan 312613, India","kajodpura, Sawa, Rajasthan",SULAWESI TENGGARA,312613.0,Indonesia,,,,24.7588701,74.5856823,https://maps.google.com/?cid=0x0:0x68c04d124ca2e698,
supermarket,supermarket,Kec. Wawo,"Kabupaten Kolaka Utara, Sulawesi Tenggara","Kabupaten Kolaka Utara, Sulawesi Tenggara",SULAWESI TENGGARA,,Indonesia,,,,-3.6780928,121.0413713,https://maps.google.com/?cid=0x0:0x748e72d6124032b8,
supermarket,Toko Swalayan,Swalayan Bosowa Utama,"P222+W7V, Beringin, Kec. Ngapa, Kabupaten Kolaka Utara, Sulawesi Tenggara 93958","Beringin, Kec. Ngapa, Kabupaten Kolaka Utara",SULAWESI TENGGARA,93958.0,Indonesia, 0811402294,,,-3.2976279,121.000658,https://maps.google.com/?cid=0x0:0x9252ca1d1f619702,
supermarket,Grosir produk kecantikan,Minyak VCO puumbolo,"Jln trans sulawesi, Puumbolo, Kec. Wawo, Kabupaten Kolaka Utara, Sulawesi Tenggara 91933","Puumbolo, Kec. Wawo, Kabupaten Kolaka Utara",SULAWESI TENGGARA,91933.0,Indonesia, 082348659310,,,-3.671055,121.0421106,https://maps.google.com/?cid=0x0:0xb4eca014a429442,
supermarket,Toko AC,Wahana Superstore,"Rukan Artha Gading Niaga, Jl. Boulevard Artha Gading No.27 Block G, RT.18/RW.8, Klp. Gading Bar., Kec. Klp. Gading, Jkt Utara, Daerah Khusus Ibukota Jakarta 14240","Jl. Boulevard Artha Gading No.27 Block G, RT.18/RW.8, Klp. Gading Bar., Kec. Klp. Gading, Jkt Utara",SULAWESI TENGGARA,14240.0,Indonesia, 085779004652,,,-6.1471201,106.8950456,https://maps.google.com/?cid=0x0:0x4961978157e8c9a8,
supermarket,Toko Swalayan,Toko Waw,"Panembong, Kec. Bayongbong, Kabupaten Garut, Jawa Barat 44162","Kec. Bayongbong, Kabupaten Garut",SULAWESI TENGGARA,44162.0,Indonesia, 085797938457,,,-7.2810283,107.8485312,https://maps.google.com/?cid=0x0:0xdfce45fe9043e65c,
supermarket,Toko Swalayan,WAPO,"Pesona Kahuripan 1, BLOK N 4 12","Kabupaten Bandung, Jawa Barat",SULAWESI TENGGARA,,Indonesia,,,,-6.968618,107.5816444,https://maps.google.com/?cid=0x0:0x93e73e5bcf228609,
supermarket,Toko Swalayan,Swalayan Bosowa Utama,"P222+W7V, Beringin, Kec. Ngapa, Kabupaten Kolaka Utara, Sulawesi Tenggara 93958","Beringin, Kec. Ngapa, Kabupaten Kolaka Utara",SULAWESI TENGGARA,93958.0,Indonesia, 0811402294,,,-3.2976279,121.000658,https://maps.google.com/?cid=0x0:0x9252ca1d1f619702,
supermarket,Toko bahan makanan,Najwa mart,"PX3X+5CF, Lahabaru, Kec. Watunohu, Kabupaten Kolaka Utara, Sulawesi Tenggara 93958","Lahabaru, Kec. Watunohu, Kabupaten Kolaka Utara",SULAWESI TENGGARA,93958.0,Indonesia,,,,-3.2970653,120.9985474,https://maps.google.com/?cid=0x0:0x3f1a1e42367bac16,
supermarket,Toko bahan makanan,Top Swalayan Kolaka,"Laloeha, Kec. Kolaka, Kabupaten Kolaka, Sulawesi Tenggara 93561","Kec. Kolaka, Kabupaten Kolaka",SULAWESI TENGGARA,93561.0,Indonesia, 082347453535,,,-4.0603204,121.6112796,https://maps.google.com/?cid=0x0:0xf40e49d7c66c766f,
supermarket,Minimarket,Alfamidi Kota Wolo,"5754+CFC, Jl. Poros Ranteangin - Kolaka, Wolo, Kec. Wolo, Kabupaten Kolaka Utara, Sulawesi Tenggara 93552","Jl. Poros Ranteangin - Kolaka, Wolo, Kec. Wolo, Kabupaten Kolaka Utara",SULAWESI TENGGARA,93552.0,Indonesia,,,,-3.841436,121.2561495,https://maps.google.com/?cid=0x0:0x9ea469be952cd578,
supermarket,Minimarket,ALFAMIDI WAWOTOBI,"44F8+72X, Jl. Poros Kendari - Pohara, Wawotobi, Kec. Wawotobi, Kabupaten Konawe, Sulawesi Tenggara 93461","Jl. Poros Kendari - Pohara, Wawotobi, Kec. Wawotobi, Kabupaten Konawe",SULAWESI TENGGARA,93461.0,Indonesia,,,,-3.8767587,122.1151058,https://maps.google.com/?cid=0x0:0xc64b70a61fa17205,
supermarket,supermarket,Sulawesi Tenggara 93956,"Kabupaten Kolaka Utara, Sulawesi Tenggara","Kabupaten Kolaka Utara, Sulawesi Tenggara",SULAWESI TENGGARA,,Indonesia,,,,-3.5905204,121.1252135,https://maps.google.com/?cid=0x0:0x65e443ed518d4559,
supermarket,Pusat Perbelanjaan,Pasar Senin Desa Wawo,"825M+82J, Wawo, Kec. Wawo, Kabupaten Kolaka Utara, Sulawesi Tenggara 93956","Wawo, Kec. Wawo, Kabupaten Kolaka Utara",SULAWESI TENGGARA,93956.0,Indonesia,,,,-3.6916502,121.0325136,https://maps.google.com/?cid=0x0:0xd9067e0e664366f1,
supermarket,Grosir produk kecantikan,Minyak VCO puumbolo,"Jln trans sulawesi, Puumbolo, Kec. Wawo, Kabupaten Kolaka Utara, Sulawesi Tenggara 91933","Puumbolo, Kec. Wawo, Kabupaten Kolaka Utara",SULAWESI TENGGARA,91933.0,Indonesia, 082348659310,,,-3.671055,121.0421106,https://maps.google.com/?cid=0x0:0xb4eca014a429442,
supermarket,Toko bahan makanan,Toko Reza Sukses,"38CM+243, Tosiba, Kec. Samaturu, Kabupaten Kolaka, Sulawesi Tenggara 93915","Tosiba, Kec. Samaturu, Kabupaten Kolaka",SULAWESI TENGGARA,93915.0,Indonesia, 085241649693,,,-3.9299977,121.332803,https://maps.google.com/?cid=0x0:0x15aa4e6c186cef43,
supermarket,Toko Alat-Alat,Toko Kayu Lasusua,"Jl. Gn. Tojabi, Tojabi, Kec. Lasusua, Kabupaten Kolaka Utara, Sulawesi Tenggara 93913","Tojabi, Kec. Lasusua, Kabupaten Kolaka Utara",SULAWESI TENGGARA,93913.0,Indonesia, 085299664087,,,-3.5108324,120.8971632,https://maps.google.com/?cid=0x0:0xa8fef31536933029,
supermarket,Toko,Kios Evan,"XXFQ+GRQ, Langara Iwawo, Kec. Wawonii Bar., Kabupaten Konawe, Sulawesi Tenggara","Kabupaten Konawe, Sulawesi Tenggara",SULAWESI TENGGARA,,Indonesia, 085146165554,,,-4.0261828,122.9896004,https://maps.google.com/?cid=0x0:0x6a3c3232ebe9f138,
supermarket,Minimarket,Kios Selly Rawua,"Jl. Poros Kendari-Unaaha, Rawua, Kec. Sampara, Kabupaten Konawe, Sulawesi Tenggara 93354","Rawua, Kec. Sampara, Kabupaten Konawe",SULAWESI TENGGARA,93354.0,Indonesia, 081775772333,,,-3.9842994,122.4065498,https://maps.google.com/?cid=0x0:0xd5a0a6b291a6fa3,
supermarket,Toko bahan makanan,fresh mart kolaka,"WHVX+VVC, Jl. Khairil Anwar, Lamokato, Kec. Kolaka, Kabupaten Kolaka, Sulawesi Tenggara 93511","Jl. Khairil Anwar, Lamokato, Kec. Kolaka, Kabupaten Kolaka",SULAWESI TENGGARA,93511.0,Indonesia, 082337007251,,,-4.0553066,121.599639,https://maps.google.com/?cid=0x0:0xba5afadb253a8d0,
supermarket,Toko bahan makanan,Toko ZAMZAM2,"WJPC+45H, Jl. Pendidikan, Balandete, Kec. Kolaka, Kabupaten Kolaka, Sulawesi Tenggara 93561","Jl. Pendidikan, Balandete, Kec. Kolaka, Kabupaten Kolaka",SULAWESI TENGGARA,93561.0,Indonesia,,,,-4.0646765,121.6204818,https://maps.google.com/?cid=0x0:0x19d31fd3857d143d,
supermarket,Toko Swalayan,ALFAMIDI AHMAD YANI WAWOTOBI,"44F3+CPF, Lalosabila, Kec. Wawotobi, Kabupaten Konawe, Sulawesi Tenggara 93461","Lalosabila, Kec. Wawotobi, Kabupaten Konawe",SULAWESI TENGGARA,93461.0,Indonesia, 082111249625,,,-3.8764307,122.1043006,https://maps.google.com/?cid=0x0:0xdeb114a978d081e5,
supermarket,,KIOS MUTIA,"FWP3+692, Tojabi, Kec. Lasusua, Kabupaten Kolaka Utara, Sulawesi Tenggara","Kabupaten Kolaka Utara, Sulawesi Tenggara",SULAWESI TENGGARA,,Indonesia,,,,-3.5144814,120.9033995,https://maps.google.com/?cid=0x0:0xf0525a05ba95db52,
supermarket,supermarket,WAW MART,"Jl. Mawar No.10, Parakan Jaya, Kec. Kemang, Kabupaten Bogor, Jawa Barat 16310","Parakan Jaya, Kec. Kemang, Kabupaten Bogor",SULAWESI TENGGARA,16310.0,Indonesia, 081210903373,,,-6.5194833,106.7641135,https://maps.google.com/?cid=0x0:0x243c9673c4bce5c3,
supermarket,supermarket,Sulawesi Tenggara,,Sulawesi Tenggara,SULAWESI TENGGARA,,Indonesia,,,,-4.14491,122.174605,https://maps.google.com/?cid=0x0:0x621d7c439f04a4ed,
supermarket,Toko,TOKO SINAR WIWI,"P65J+39R, Langgikima, Kecamatan Langgikima, Kabupaten Konawe Utara, Sulawesi Tenggara","Kabupaten Konawe Utara, Sulawesi Tenggara",SULAWESI TENGGARA,,Indonesia,,,,-3.2922741,122.230884,https://maps.google.com/?cid=0x0:0x8b076448da2aa574,
supermarket,Toko,Indomaret Wiwirano Konawe Utara,"Q47X+Q2F, Jl. Trans Sulawesi, Lamonae, Kec. Wiwirano, Kabupaten Konawe Utara, Sulawesi Tenggara 93353","Jl. Trans Sulawesi, Lamonae, Kec. Wiwirano, Kabupaten Konawe Utara",SULAWESI TENGGARA,93353.0,Indonesia,,,,-3.236253,122.1479521,https://maps.google.com/?cid=0x0:0xb0d4a35c446f3042,
supermarket,Toko Swalayan,Kios evan,"Jl. Kalkun No.46, Mataiwoi, Amonggedo, Kabupaten Konawe, Sulawesi Tenggara 93461","Mataiwoi, Amonggedo, Kabupaten Konawe",SULAWESI TENGGARA,93461.0,Indonesia, 082291200526,,,-3.8791788,122.2251012,https://maps.google.com/?cid=0x0:0x8cdce16b02b3c51f,
supermarket,Toko,SUPERMARKET MOROSI,"Jl. Tambang Morosi, Puuruy, Kec. Bondoala, Kabupaten Konawe, Sulawesi Tenggara 93354","Puuruy, Kec. Bondoala, Kabupaten Konawe",SULAWESI TENGGARA,93354.0,Indonesia,,,,-3.9114036,122.4346612,https://maps.google.com/?cid=0x0:0xfadab0c1cf8b493a,
supermarket,Toko Swalayan,Irnamayanti,"H55W+5Q5, Asingi, Kec. Tinanggea, Kabupaten Konawe Selatan, Sulawesi Tenggara 93885","Asingi, Kec. Tinanggea, Kabupaten Konawe Selatan",SULAWESI TENGGARA,93885.0,Indonesia,,,,-4.4421197,122.1969779,https://maps.google.com/?cid=0x0:0x5f6f294670a28dab,
supermarket,Toko Buah dan Sayuran,Kios fauzan,"Q49X+VQ7, Wacu Malewe, Kec. Wiwirano, Kabupaten Konawe Utara, Sulawesi Tenggara 93353","Wacu Malewe, Kec. Wiwirano, Kabupaten Konawe Utara",SULAWESI TENGGARA,93353.0,Indonesia, 082319874439,,,-3.2303384,122.1494082,https://maps.google.com/?cid=0x0:0x9d19e79e7ae993d4,
supermarket,supermarket,Sulawesi Tenggara 93353,Sulawesi Tenggara,Sulawesi Tenggara,SULAWESI TENGGARA,,Indonesia,,,,-3.2548527,121.7195459,https://maps.google.com/?cid=0x0:0x9fb3fe070f9105ac,
supermarket,Kantor Perusahaan,Kec.wiwirano kel.Lamonae,"Q42V+5WF, Lamonae, Kec. Wiwirano, Kabupaten Konawe Utara, Sulawesi Tenggara 93353","Lamonae, Kec. Wiwirano, Kabupaten Konawe Utara",SULAWESI TENGGARA,93353.0,Indonesia,,,,-3.2495669,122.1447998,https://maps.google.com/?cid=0x0:0xcb67f3fafd1604b4,
supermarket,supermarket,Kios Salfau,"J39M+VF9, Wiwirano, Kec. Oheo, Kabupaten Konawe Utara, Sulawesi Tenggara","Kabupaten Konawe Utara, Sulawesi Tenggara",SULAWESI TENGGARA,,Indonesia,,,,-3.3803291,122.0837445,https://maps.google.com/?cid=0x0:0xdaaf6713d697b15d,
supermarket,Toko bahan makanan,Susu Kurma Lamonae,"Belakang kantor camat, Lorong Masjid Raya, Lamonae, Kec. Wiwirano, Kabupaten Konawe Utara, Sulawesi Tenggara 93343","Lorong Masjid Raya, Lamonae, Kec. Wiwirano, Kabupaten Konawe Utara",SULAWESI TENGGARA,93343.0,Indonesia, 082254200328,,,-3.2342676,122.1462435,https://maps.google.com/?cid=0x0:0x9c5a741b75b9971b,
