Category,Real Category,Business Name,Address,City,State,Postal Code,Country,Phone,Email,Website,Latitude,Longitude,Map Link,Details Link
komplek housing,Komplek perumahan,Hj. Hariani Aziz Pagala,"F4CJ+CH2, Andowia, Kec. Andowia, Kabupaten Konawe Utara, Sulawesi Tenggara","Kabupaten Konawe Utara, Sulawesi Tenggara",SULAWESI TENGGARA,,Indonesia,,,,-3.5289994,122.1314222,https://maps.google.com/?cid=0x0:0xbe6055025e6704af,
komplek housing,komplek housing,Kec. Andowia,"Kabupaten Konawe Utara, Sulawesi Tenggara","Kabupaten Konawe Utara, Sulawesi Tenggara",SULAWESI TENGGARA,,Indonesia,,,,-3.5296127,122.1341414,https://maps.google.com/?cid=0x0:0x8e970052e7091e41,
komplek housing,komplek housing,Sulawesi Tenggara 93353,Sulawesi Tenggara,Sulawesi Tenggara,SULAWESI TENGGARA,,Indonesia,,,,-3.2548527,121.7195459,https://maps.google.com/?cid=0x0:0x9fb3fe070f9105ac,
komplek housing,Komplek perumahan,Rumahnya bonje,"F48Q+5XR, Lamondowo, Kec. Andowia, Kabupaten Konawe Utara, Sulawesi Tenggara 93353","Lamondowo, Kec. Andowia, Kabupaten Konawe Utara",SULAWESI TENGGARA,93353.0,Indonesia,,,,-3.5342756,122.1397849,https://maps.google.com/?cid=0x0:0x669781ae6f29c3b4,
komplek housing,Kantor Perusahaan,Desa puuwonua,"F4PW+XR4, Unnamed Road, Laronanga, Kec. Andowia, Kabupaten Konawe Utara, Sulawesi Tenggara 93353","Unnamed Road, Laronanga, Kec. Andowia, Kabupaten Konawe Utara",SULAWESI TENGGARA,93353.0,Indonesia,,,,-3.5126014,122.1470899,https://maps.google.com/?cid=0x0:0x727b4d50bc102c46,
komplek housing,Pembangunan Perumahan,Rmh,"F49M+VRV, Jl. Poros Bungku Sel. - Kendari, Andowia, Kec. Andowia, Kabupaten Konawe Utara, Sulawesi Tenggara 93353","Jl. Poros Bungku Sel. - Kendari, Andowia, Kec. Andowia, Kabupaten Konawe Utara",SULAWESI TENGGARA,93353.0,Indonesia,,,,-3.5302715,122.1345613,https://maps.google.com/?cid=0x0:0x6401592415c9d9d5,
komplek housing,Komplek perumahan,Amon's Home,"F4HR+XQ4, Labungga, Kec. Andowia, Kabupaten Konawe Utara, Sulawesi Tenggara 93353","Labungga, Kec. Andowia, Kabupaten Konawe Utara",SULAWESI TENGGARA,93353.0,Indonesia,,,,-3.5201016,122.1419608,https://maps.google.com/?cid=0x0:0xb8af76f9f15c3f14,
komplek housing,Komplek perumahan,Home Rhafa,"F4JQ+V3W, Jl. Pelabuhan, Labungga, Kec. Andowia, Kabupaten Konawe Utara, Sulawesi Tenggara 93353","Jl. Pelabuhan, Labungga, Kec. Andowia, Kabupaten Konawe Utara",SULAWESI TENGGARA,93353.0,Indonesia,,,,-3.5177736,122.1377185,https://maps.google.com/?cid=0x0:0x7cb8266937e15d0d,
komplek housing,Komplek perumahan,Home Rarafa,"F4CM+5M2, Andowia, Kec. Andowia, Kabupaten Konawe Utara, Sulawesi Tenggara","Kabupaten Konawe Utara, Sulawesi Tenggara",SULAWESI TENGGARA,,Indonesia,,,,-3.5296127,122.1341414,https://maps.google.com/?cid=0x0:0x8b905d775eae2ee1,
komplek housing,komplek housing,Rumah Denis,"F4G9+GHF, Lambudoni, Kec. Andowia, Kabupaten Konawe Utara, Sulawesi Tenggara 93353","Lambudoni, Kec. Andowia, Kabupaten Konawe Utara",SULAWESI TENGGARA,93353.0,Indonesia,,,,-3.5242404,122.1178534,https://maps.google.com/?cid=0x0:0xdf5fc6ef9173c77a,
komplek housing,Komplek perumahan,Rumah Kos Artini,"F4G7+4MJ, Lambudoni, Kec. Andowia, Kabupaten Konawe Utara, Sulawesi Tenggara 93353","Lambudoni, Kec. Andowia, Kabupaten Konawe Utara",SULAWESI TENGGARA,93353.0,Indonesia, 081341511657,,,-3.524658,122.1141277,https://maps.google.com/?cid=0x0:0xa52712a1d3e1f372,
komplek housing,Komplek perumahan,Rumah Neri,"F392+JH, Lambudoni, Kec. Andowia, Kabupaten Konawe Utara, Sulawesi Tenggara","Kabupaten Konawe Utara, Sulawesi Tenggara",SULAWESI TENGGARA,,Indonesia,,,,-3.5309162,122.0513961,https://maps.google.com/?cid=0x0:0xa4beb4a7653db968,
komplek housing,komplek housing,Selni,"F4H7+99R, Mataiwoi, Kec. Andowia, Kabupaten Konawe Utara, Sulawesi Tenggara 93353","Mataiwoi, Kec. Andowia, Kabupaten Konawe Utara",SULAWESI TENGGARA,93353.0,Indonesia,,,,-3.5215141,122.1133834,https://maps.google.com/?cid=0x0:0x3d939e001564a972,
komplek housing,Komplek perumahan,Rumah jihad Alriyadi,"F4GP+772, Andowia, Kec. Andowia, Kabupaten Konawe Utara, Sulawesi Tenggara","Kabupaten Konawe Utara, Sulawesi Tenggara",SULAWESI TENGGARA,,Indonesia,,,,-3.5243662,122.1356438,https://maps.google.com/?cid=0x0:0xf1e99c09de000371,
komplek housing,komplek housing,Rumah kiki,"F4MQ+WPX, Jl. Pelabuhan, Labungga, Kec. Andowia, Kabupaten Konawe Utara, Sulawesi Tenggara 93353","Jl. Pelabuhan, Labungga, Kec. Andowia, Kabupaten Konawe Utara",SULAWESI TENGGARA,93353.0,Indonesia,,,,-3.5184729,122.1373642,https://maps.google.com/?cid=0x0:0x850c8f85cef23543,
komplek housing,Komplek perumahan,Rumah Heriyanto,"F4JQ+V3W Rumah Heriyanto, Jl. Pelabuhan, Labungga, Kec. Andowia, Kabupaten Konawe Utara, Sulawesi Tenggara 93353","Jl. Pelabuhan, Labungga, Kec. Andowia, Kabupaten Konawe Utara",SULAWESI TENGGARA,93353.0,Indonesia,,,,-3.5177736,122.1377185,https://maps.google.com/?cid=0x0:0x186f7d12e320b824,
komplek housing,Komplek perumahan,RUMAH UYENG,"F48Q+2F8, Lamondowo, Kec. Andowia, Kabupaten Konawe Utara, Sulawesi Tenggara","Kabupaten Konawe Utara, Sulawesi Tenggara",SULAWESI TENGGARA,,Indonesia,,,,-3.534972,122.1387018,https://maps.google.com/?cid=0x0:0x6f38e62345735874,
komplek housing,Komplek perumahan,Rumah Bubu Naunceng,"F4FM+3P4, Andowia, Kec. Andowia, Kabupaten Konawe Utara, Sulawesi Tenggara","Kabupaten Konawe Utara, Sulawesi Tenggara",SULAWESI TENGGARA,,Indonesia,,,,-3.5273586,122.1343355,https://maps.google.com/?cid=0x0:0x47a48fec97e45159,
komplek housing,Komplek perumahan,Hasriman,"F44P+C88, Jl. Trans Sulawesi, Lahimbua, Kec. Andowia, Kabupaten Konawe Utara, Sulawesi Tenggara 93353","Jl. Trans Sulawesi, Lahimbua, Kec. Andowia, Kabupaten Konawe Utara",SULAWESI TENGGARA,93353.0,Indonesia,,,,-3.5435648,122.1359858,https://maps.google.com/?cid=0x0:0x7ec74b33871aa393,
komplek housing,Komplek perumahan,Rumahnya Mas Yon,"C3X4+Q48, Lamondowo, Kec. Andowia, Kabupaten Konawe Utara, Sulawesi Tenggara","Kabupaten Konawe Utara, Sulawesi Tenggara",SULAWESI TENGGARA,,Indonesia,,,,-3.5505968,122.0553349,https://maps.google.com/?cid=0x0:0x5f0ad124caaae37c,
komplek housing,komplek housing,Rmhku,"C4VM+J5V, Lahimbua, Kec. Andowia, Kabupaten Konawe Utara, Sulawesi Tenggara","Kabupaten Konawe Utara, Sulawesi Tenggara",SULAWESI TENGGARA,,Indonesia,,,,-3.555892,122.1329324,https://maps.google.com/?cid=0x0:0x3db905c2538d3ae3,
komplek housing,Masjid,Desa labungga,"F4QQ+G96, Labungga, Kec. Andowia, Kabupaten Konawe Utara, Sulawesi Tenggara 93353","Labungga, Kec. Andowia, Kabupaten Konawe Utara",SULAWESI TENGGARA,93353.0,Indonesia,,,,-3.5112156,122.1383965,https://maps.google.com/?cid=0x0:0xf5e118c4d3ce1111,
komplek housing,Komplek perumahan,Lorong meksiko,"F4CG+XGW, Larobende, Kec. Andowia, Kabupaten Konawe Utara, Sulawesi Tenggara 93353","Larobende, Kec. Andowia, Kabupaten Konawe Utara",SULAWESI TENGGARA,93353.0,Indonesia,,,,-3.5275199,122.1263177,https://maps.google.com/?cid=0x0:0xbdae78f27036f7f0,
komplek housing,komplek housing,Gudang Satu Tiga,"F4QQ+WR7, RT.001/RW.001, Labungga, Kec. Andowia, Kabupaten Konawe Utara, Sulawesi Tenggara 93353","RT.001/RW.001, Labungga, Kec. Andowia, Kabupaten Konawe Utara",SULAWESI TENGGARA,93353.0,Indonesia,,,,-3.5102185,122.1395564,https://maps.google.com/?cid=0x0:0xc20bcc100cc76d44,
komplek housing,Komplek perumahan,Adhan Razak,"JP4X+VQC, Asemi Nunulai, Kec. Asera, Kabupaten Konawe Utara, Sulawesi Tenggara","Kabupaten Konawe Utara, Sulawesi Tenggara",SULAWESI TENGGARA,,Indonesia,,,,-3.392804,121.749397,https://maps.google.com/?cid=0x0:0x5137ed84c24d615c,
komplek housing,Komplek perumahan,Rumah Ardan,"G3F9+FGF, Asera, Kec. Asera, Kabupaten Konawe Utara, Sulawesi Tenggara 93353","Asera, Kec. Asera, Kabupaten Konawe Utara",SULAWESI TENGGARA,93353.0,Indonesia,,,,-3.4747887,122.0689942,https://maps.google.com/?cid=0x0:0x1a7322819f103687,
komplek housing,Komplek perumahan,Alesha 6 JATIWARNA,"Jl. Bulak Tinggi A No.RT 01/03, Jatiwarna, Kec. Pd. Melati, Kota Bks, Jawa Barat 17415","Jatiwarna, Kec. Pd. Melati, Kota Bks",SULAWESI TENGGARA,17415.0,Indonesia, 082110959616,,,-6.301008,106.9351414,https://maps.google.com/?cid=0x0:0x6f61ec1948785d9f,
komplek housing,komplek housing,Komplek Housing,"Blok Bojong Nangka I, Jl. Ring Rudal Blok Bojong Nangka I No.68, RT.001/RW.007, Jatirahayu, Kec. Pd. Melati, Kota Bks, Jawa Barat 17414","Jl. Ring Rudal Blok Bojong Nangka I No.68, RT.001/RW.007, Jatirahayu, Kec. Pd. Melati, Kota Bks",SULAWESI TENGGARA,17414.0,Indonesia,,,,-6.293724,106.9165114,https://maps.google.com/?cid=0x0:0x9c50464976dee674,
komplek housing,komplek housing,Kecamatan Langgikima,"Kabupaten Konawe Utara, Sulawesi Tenggara","Kabupaten Konawe Utara, Sulawesi Tenggara",SULAWESI TENGGARA,,Indonesia,,,,-3.2937576,122.2336267,https://maps.google.com/?cid=0x0:0x84f471fa9a20e886,
komplek housing,Komplek perumahan,Kos. H NURDIN,"P66M+G59, Molore, Kecamatan Langgikima, Kabupaten Konawe Utara, Sulawesi Tenggara","Kabupaten Konawe Utara, Sulawesi Tenggara",SULAWESI TENGGARA,,Indonesia,,,,-3.2887106,122.2329979,https://maps.google.com/?cid=0x0:0x8e8974570f2edc4f,
komplek housing,Komplek perumahan,Kost niar,"M7RC+RH9, Molore, Kecamatan Langgikima, Kabupaten Konawe Utara, Sulawesi Tenggara","Kabupaten Konawe Utara, Sulawesi Tenggara",SULAWESI TENGGARA,,Indonesia,,,,-3.3079634,122.2714765,https://maps.google.com/?cid=0x0:0x913dfe2c521b33fe,
komplek housing,komplek housing,Made bayu house,"M6HF+8C, Mekarjaya, Kecamatan Langgikima, Kabupaten Konawe Utara, Sulawesi Tenggara","Kabupaten Konawe Utara, Sulawesi Tenggara",SULAWESI TENGGARA,,Indonesia,,,,-3.3215117,122.2248996,https://maps.google.com/?cid=0x0:0x7d645579abc8c166,
komplek housing,komplek housing,Rumah murayak,"M6WQ+X2, jalan bogenvil, dusun 2, Pariama, Kecamatan Langgikima, Kabupaten Konawe Utara, Sulawesi Tenggara","Kabupaten Konawe Utara, Sulawesi Tenggara",SULAWESI TENGGARA,,Indonesia,,,,-3.3028656,122.2379358,https://maps.google.com/?cid=0x0:0x8bcd0a72414b6abb,
komplek housing,Komplek perumahan,Bahar Family House,"M5XW+6WH, Jl. Poros Lamonae-Landawe, Polora Indah, Kecamatan Langgikima, Kabupaten Konawe Utara, Sulawesi Tenggara 93353","Jl. Poros Lamonae-Landawe, Polora Indah, Kecamatan Langgikima, Kabupaten Konawe Utara",SULAWESI TENGGARA,93353.0,Indonesia,,,,-3.3023495,122.1962342,https://maps.google.com/?cid=0x0:0xaaa1f9c540ae72d8,
komplek housing,komplek housing,Kurayak,"M6RM+VM8, Pariama, Kecamatan Langgikima, Kabupaten Konawe Utara, Sulawesi Tenggara","Kabupaten Konawe Utara, Sulawesi Tenggara",SULAWESI TENGGARA,,Indonesia,,,,-3.307829,122.2341905,https://maps.google.com/?cid=0x0:0x2996bc29a298262f,
komplek housing,Komplek perumahan,Desa molore,"M7VG+2MQ, Molore, Kecamatan Langgikima, Kabupaten Konawe Utara, Sulawesi Tenggara","Kabupaten Konawe Utara, Sulawesi Tenggara",SULAWESI TENGGARA,,Indonesia,,,,-3.3074238,122.2767352,https://maps.google.com/?cid=0x0:0xedc0b7b82b16905d,
komplek housing,Komplek perumahan,Kost,"M7RC+RH9, Molore, Kecamatan Langgikima, Kabupaten Konawe Utara, Sulawesi Tenggara","Kabupaten Konawe Utara, Sulawesi Tenggara",SULAWESI TENGGARA,,Indonesia,,,,-3.307112,122.270976,https://maps.google.com/?cid=0x0:0x930856b2c641aee,
komplek housing,Pembangunan Perumahan,PT. Sempo dalle,"M7F4+FJ3, Upt. Morombo/Tobimeita, Kecamatan Langgikima, Kabupaten Konawe Utara, Sulawesi Tenggara 93352","Upt. Morombo/Tobimeita, Kecamatan Langgikima, Kabupaten Konawe Utara",SULAWESI TENGGARA,93352.0,Indonesia,,,,-3.3263543,122.2565383,https://maps.google.com/?cid=0x0:0x17d3b80619810cf7,
komplek housing,Komplek perumahan,Rumah angga,"P66M+WP, Molore, Kecamatan Langgikima, Kabupaten Konawe Utara, Sulawesi Tenggara 93353","Molore, Kecamatan Langgikima, Kabupaten Konawe Utara",SULAWESI TENGGARA,93353.0,Indonesia,,,,-3.2869921,122.2337489,https://maps.google.com/?cid=0x0:0x4bb51799a32ba6a7,
komplek housing,Komplek perumahan,Al fatih teknikal,"M6HF+8C, Mekarjaya, Kecamatan Langgikima, Kabupaten Konawe Utara, Sulawesi Tenggara","Kabupaten Konawe Utara, Sulawesi Tenggara",SULAWESI TENGGARA,,Indonesia,,,,-3.3216631,122.2235616,https://maps.google.com/?cid=0x0:0x5964c5eea7c989c4,
komplek housing,Komplek perumahan,Rumah bang jeck tatto,"P63P+276, Pariama, Kecamatan Langgikima, Kabupaten Konawe Utara, Sulawesi Tenggara 93353","Pariama, Kecamatan Langgikima, Kabupaten Konawe Utara",SULAWESI TENGGARA,93353.0,Indonesia,,,,-3.2979499,122.2356516,https://maps.google.com/?cid=0x0:0x95972b08cae63d6f,
komplek housing,komplek housing,Muh rabiul awal,"M6RM+VM8, Pariama, Kecamatan Langgikima, Kabupaten Konawe Utara, Sulawesi Tenggara","Kabupaten Konawe Utara, Sulawesi Tenggara",SULAWESI TENGGARA,,Indonesia,,,,-3.307829,122.2341905,https://maps.google.com/?cid=0x0:0x6a94b55c09a71bf3,
komplek housing,komplek housing,kadek agus budiarta,"P57G+8H, Hialu Utama (Upt. Hialu II), Kec. Wiwirano, Kabupaten Konawe Utara, Sulawesi Tenggara 93353","Hialu Utama (Upt. Hialu II), Kec. Wiwirano, Kabupaten Konawe Utara",SULAWESI TENGGARA,93353.0,Indonesia,,,,-3.2860733,122.1760808,https://maps.google.com/?cid=0x0:0x92adf909da2c89be,
komplek housing,Komplek perumahan,Polorah indah,"M5XQ+476, jalan, Desa polorah indah, Kecamatan Langgikima, Kabupaten Konawe Utara, Sulawesi Tenggara","Kabupaten Konawe Utara, Sulawesi Tenggara",SULAWESI TENGGARA,,Indonesia,,,,-3.3022194,122.1881552,https://maps.google.com/?cid=0x0:0xc174a4e75eea740d,
komplek housing,Komplek perumahan,Bali Home,"J792+574, Paka Indah, Kec. Oheo, Kabupaten Konawe Utara, Sulawesi Tenggara 93352","Paka Indah, Kec. Oheo, Kabupaten Konawe Utara",SULAWESI TENGGARA,93352.0,Indonesia,,,,-3.3827703,122.251343,https://maps.google.com/?cid=0x0:0x4c8b3463b80f74b3,
komplek housing,Komplek perumahan,Made supartawan,"P64M+FFR, Pariama, Kecamatan Langgikima, Kabupaten Konawe Utara, Sulawesi Tenggara","Kabupaten Konawe Utara, Sulawesi Tenggara",SULAWESI TENGGARA,,Indonesia,,,,-3.2937576,122.2336267,https://maps.google.com/?cid=0x0:0xcc8887dfe1049a6b,
komplek housing,Pembangunan Perumahan,WORKSHOP ABI,"M785+X2, Upt. Morombo/Tobimeita, Kecamatan Langgikima, Kabupaten Konawe Utara, Sulawesi Tenggara","Kabupaten Konawe Utara, Sulawesi Tenggara",SULAWESI TENGGARA,,Indonesia,,,,-3.332487,122.2575819,https://maps.google.com/?cid=0x0:0x1d9017f3c45bfe78,
komplek housing,Komplek perumahan,Desa Mata Baho,"P548+667, Mata Baho, Kec. Wiwirano, Kabupaten Konawe Utara, Sulawesi Tenggara","Kabupaten Konawe Utara, Sulawesi Tenggara",SULAWESI TENGGARA,,Indonesia,,,,-3.2944541,122.1655507,https://maps.google.com/?cid=0x0:0xae17666f4a11e03b,
komplek housing,komplek housing,tugu lameruru,"P79J+3X2, Lameruru, Kecamatan Langgikima, Kabupaten Konawe Utara, Sulawesi Tenggara","Kabupaten Konawe Utara, Sulawesi Tenggara",SULAWESI TENGGARA,,Indonesia,,,,-3.2823628,122.2824021,https://maps.google.com/?cid=0x0:0x82a36d17774cefad,
komplek housing,Pembangunan Perumahan,Desa Buranga,"C3FF+QX9, Molore, Kecamatan Langgikima, Kabupaten Konawe Utara, Sulawesi Tenggara 93352","Molore, Kecamatan Langgikima, Kabupaten Konawe Utara",SULAWESI TENGGARA,93352.0,Indonesia,,,,-3.5762972,123.0763749,https://maps.google.com/?cid=0x0:0xefa228a8a428569,
komplek housing,Masjid,Morombo,"J792+2CH, Morombo, Kec. Lasolo kepulauan, Kabupaten Konawe Utara, Sulawesi Tenggara 93352","Morombo, Kec. Lasolo kepulauan, Kabupaten Konawe Utara",SULAWESI TENGGARA,93352.0,Indonesia,,,,-3.3824479,122.2511095,https://maps.google.com/?cid=0x0:0x64303769ca29a77a,
komplek housing,Komplek perumahan,Hasniawati rikman,"863W+HF8, Jl. Poros Wawotobi - Lasolo, Matapila, Kec. Lasolo, Kabupaten Konawe Utara, Sulawesi Tenggara 93352","Jl. Poros Wawotobi - Lasolo, Matapila, Kec. Lasolo, Kabupaten Konawe Utara",SULAWESI TENGGARA,93352.0,Indonesia,,,,-3.6952727,122.2462849,https://maps.google.com/?cid=0x0:0xf01c7fe92914bd8d,
komplek housing,Gedung Apartemen,Dilaâs House,"C4MM+QCV, Ulunambo, Menui Kepulauan, Kabupaten Morowali, Sulawesi Tengah 93352","Ulunambo, Menui Kepulauan, Kabupaten Morowali",SULAWESI TENGGARA,93352.0,Indonesia,,,,-3.5664479,123.1342094,https://maps.google.com/?cid=0x0:0xc7a14d97c5390f14,
komplek housing,komplek housing,Sentral prabot icha spl,"C4GF+2QG, Ulunambo, Menui Kepulauan, Kabupaten Morowali, Sulawesi Tengah 93352","Ulunambo, Menui Kepulauan, Kabupaten Morowali",SULAWESI TENGGARA,93352.0,Indonesia,,,,-3.5749407,123.1244636,https://maps.google.com/?cid=0x0:0xe782e97c86eee3,
komplek housing,komplek housing,Rumah Leng,"8566+R5V, Andumowu, Kec. Lasolo, Kabupaten Konawe Utara, Sulawesi Tenggara 93352","Andumowu, Kec. Lasolo, Kabupaten Konawe Utara",SULAWESI TENGGARA,93352.0,Indonesia,,,,-3.6878895,122.1604131,https://maps.google.com/?cid=0x0:0xc39a2785c693e3a,
komplek housing,Pembangunan Perumahan,Rumah Sarman,"C6PC+W62, Tapunggaeya, Kec. Molawe, Kabupaten Konawe Utara, Sulawesi Tenggara 93352","Tapunggaeya, Kec. Molawe, Kabupaten Konawe Utara",SULAWESI TENGGARA,93352.0,Indonesia,,,,-3.5626194,122.2206758,https://maps.google.com/?cid=0x0:0x5df6a36a86255273,
komplek housing,Komplek perumahan,Rumah Gilang Ramadhan,"C4MM+XR9, Ulunambo, Menui Kepulauan, Kabupaten Morowali, Sulawesi Tengah 93352","Ulunambo, Menui Kepulauan, Kabupaten Morowali",SULAWESI TENGGARA,93352.0,Indonesia,,,,-3.5653262,123.1353976,https://maps.google.com/?cid=0x0:0xc8b8454b7ac3fe91,
komplek housing,komplek housing,Sulawesi Tenggara 93352,"Kabupaten Konawe Utara, Sulawesi Tenggara","Kabupaten Konawe Utara, Sulawesi Tenggara",SULAWESI TENGGARA,,Indonesia,,,,-3.7041573,122.2427,https://maps.google.com/?cid=0x0:0x888ae8f2fa8ed5e8,
komplek housing,komplek housing,Rumah Leng,"8566+R5V, Andumowu, Kec. Lasolo, Kabupaten Konawe Utara, Sulawesi Tenggara 93352","Andumowu, Kec. Lasolo, Kabupaten Konawe Utara",SULAWESI TENGGARA,93352.0,Indonesia,,,,-3.6878895,122.1604131,https://maps.google.com/?cid=0x0:0xc39a2785c693e3a,
komplek housing,Komplek perumahan,Hendra,"86PV+F54, Basule, Kec. Lasolo, Kabupaten Konawe Utara, Sulawesi Tenggara","Kabupaten Konawe Utara, Sulawesi Tenggara",SULAWESI TENGGARA,,Indonesia,,,,-3.6638535,122.242953,https://maps.google.com/?cid=0x0:0x3d35974f5e7bf7a,
komplek housing,Perkebunan Pohon,PT CENDEKIA MUDA SINERGI,"86RJ+J36, Waworaha, Kec. Lasolo, Kabupaten Konawe Utara, Sulawesi Tenggara 93352","Waworaha, Kec. Lasolo, Kabupaten Konawe Utara",SULAWESI TENGGARA,93352.0,Indonesia,,,,-3.6593014,122.2299854,https://maps.google.com/?cid=0x0:0x99f24df64a14f30d,
komplek housing,komplek housing,rumah otong,"8566+R5V, Andumowu, Kec. Lasolo, Kabupaten Konawe Utara, Sulawesi Tenggara 93352","Andumowu, Kec. Lasolo, Kabupaten Konawe Utara",SULAWESI TENGGARA,93352.0,Indonesia,,,,-3.6878895,122.1604131,https://maps.google.com/?cid=0x0:0x6260846cd46639e8,
komplek housing,Komplek perumahan,Rumah ABIN,"86HR+6QQ, Jl. Poros Bungku Sel. - Kendari, Lametono, Kec. Lasolo, Kabupaten Konawe Utara, Sulawesi Tenggara 93352","Jl. Poros Bungku Sel. - Kendari, Lametono, Kec. Lasolo, Kabupaten Konawe Utara",SULAWESI TENGGARA,93352.0,Indonesia,,,,-3.6714904,122.2414073,https://maps.google.com/?cid=0x0:0x832710cc4b225ceb,
komplek housing,Komplek perumahan,Rumah intan,"Jl. Poros Wawotobi - Lasolo No.23, Andeo, Kec. Lasolo, Kabupaten Konawe Utara, Sulawesi Tenggara 93352","Andeo, Kec. Lasolo, Kabupaten Konawe Utara",SULAWESI TENGGARA,93352.0,Indonesia,,,,-3.683312,122.254229,https://maps.google.com/?cid=0x0:0xfd8a03c4a106dede,
komplek housing,Komplek perumahan,Karman,"86PM+F69, Jl. Poros Bungku Sel. - Kendari, Andumowu, Kec. Lasolo, Kabupaten Konawe Utara, Sulawesi Tenggara 93352","Jl. Poros Bungku Sel. - Kendari, Andumowu, Kec. Lasolo, Kabupaten Konawe Utara",SULAWESI TENGGARA,93352.0,Indonesia,,,,-3.6638294,122.233124,https://maps.google.com/?cid=0x0:0xf48841d81c8c5954,
komplek housing,Komplek perumahan,Rumah Agas,"Tapunopaka, kepulauan, Kec. Lasolo, Kabupaten Konawe Utara, Sulawesi Tenggara","Kabupaten Konawe Utara, Sulawesi Tenggara",SULAWESI TENGGARA,,Indonesia,,,,-3.4802375,122.2930781,https://maps.google.com/?cid=0x0:0x363ff573a9f4fa57,
komplek housing,Komplek perumahan,Kompleks Cendana,"86PQ+VFC, Andumowu, Kec. Lasolo, Kabupaten Konawe Utara, Sulawesi Tenggara 93352","Andumowu, Kec. Lasolo, Kabupaten Konawe Utara",SULAWESI TENGGARA,93352.0,Indonesia,,,,-3.6628267,122.238743,https://maps.google.com/?cid=0x0:0xcd44f57a10eba229,
komplek housing,Komplek perumahan,Harjono,"86PJ+P95, Andumowu, Kec. Lasolo, Kabupaten Konawe Utara, Sulawesi Tenggara 93352","Andumowu, Kec. Lasolo, Kabupaten Konawe Utara",SULAWESI TENGGARA,93352.0,Indonesia,,,,-3.6632396,122.2309705,https://maps.google.com/?cid=0x0:0xeef527b148d1b666,
komplek housing,Komplek perumahan,Rumah H.Arif,"86QV+99H, Basule, Kec. Lasolo, Kabupaten Konawe Utara, Sulawesi Tenggara","Kabupaten Konawe Utara, Sulawesi Tenggara",SULAWESI TENGGARA,,Indonesia,,,,-3.6611316,122.2435625,https://maps.google.com/?cid=0x0:0xb9d626c898f9a195,
komplek housing,Komplek perumahan,Home ARIF,"68XM+HQ4, Padaleu, Kec. Lembo, Kabupaten Konawe Utara, Sulawesi Tenggara 93352","Padaleu, Kec. Lembo, Kabupaten Konawe Utara",SULAWESI TENGGARA,93352.0,Indonesia,,,,-3.7511232,122.3344652,https://maps.google.com/?cid=0x0:0x8407e770e0672a9f,
komplek housing,Komplek perumahan,Herlina Arludin,"863W+XWX, Matapila, Kec. Lasolo, Kabupaten Konawe Utara, Sulawesi Tenggara 93352","Matapila, Kec. Lasolo, Kabupaten Konawe Utara",SULAWESI TENGGARA,93352.0,Indonesia,,,,-3.6950173,122.2473547,https://maps.google.com/?cid=0x0:0xdd26916e8e580534,
komplek housing,Komplek perumahan,Rumah Ramlan Basir,"96M2+48X, Bandaeha, Kec. Molawe, Kabupaten Konawe Utara, Sulawesi Tenggara 93353","Bandaeha, Kec. Molawe, Kabupaten Konawe Utara",SULAWESI TENGGARA,93353.0,Indonesia,,,,-3.6171328,122.2008534,https://maps.google.com/?cid=0x0:0xeccc348d01dca01a,
komplek housing,Komplek perumahan,RUMAH IKI,"77XM+PFV, Jl. Poros Bungku Sel. - Kendari, Wawolesea, Kec. Lasolo, Kabupaten Konawe, Sulawesi Tenggara","Kabupaten Konawe, Sulawesi Tenggara",SULAWESI TENGGARA,,Indonesia,,,,-3.7006338,122.2836874,https://maps.google.com/?cid=0x0:0x5bd6e7a931e9a5bf,
komplek housing,Komplek perumahan,Rumah upa,"86QM+848, Jl. Poros Bungku Sel. - Kendari, Andumowu, Kec. Lasolo, Kabupaten Konawe Utara, Sulawesi Tenggara 93352","Jl. Poros Bungku Sel. - Kendari, Andumowu, Kec. Lasolo, Kabupaten Konawe Utara",SULAWESI TENGGARA,93352.0,Indonesia,,,,-3.6619664,122.2330241,https://maps.google.com/?cid=0x0:0x4f1313c53daff4ba,
komplek housing,Kantor Pemerintah,Desa laramo,"68XM+GGX, Ds, Laramo, Kec. Lembo, Kabupaten Konawe Utara","Kabupaten Konawe Utara, Sulawesi Tenggara",SULAWESI TENGGARA,,Indonesia,,,,-3.751141,122.333863,https://maps.google.com/?cid=0x0:0xe923196a015ec8b1,
komplek housing,Komplek perumahan,Hasniawati rikman,"863W+HF8, Jl. Poros Wawotobi - Lasolo, Matapila, Kec. Lasolo, Kabupaten Konawe Utara, Sulawesi Tenggara 93352","Jl. Poros Wawotobi - Lasolo, Matapila, Kec. Lasolo, Kabupaten Konawe Utara",SULAWESI TENGGARA,93352.0,Indonesia,,,,-3.6952727,122.2462849,https://maps.google.com/?cid=0x0:0xf01c7fe92914bd8d,
komplek housing,Komplek perumahan,Rumah Hana,"86VR+5FW, Tinobu, Kec. Lasolo, Kabupaten Konawe Utara, Sulawesi Tenggara 93352","Tinobu, Kec. Lasolo, Kabupaten Konawe Utara",SULAWESI TENGGARA,93352.0,Indonesia,,,,-3.656905,122.2401269,https://maps.google.com/?cid=0x0:0xceca76411e0d66ba,
komplek housing,komplek housing,Kec. Lasolo,"Kabupaten Konawe Utara, Sulawesi Tenggara","Kabupaten Konawe Utara, Sulawesi Tenggara",SULAWESI TENGGARA,,Indonesia,,,,-3.690386,122.2776355,https://maps.google.com/?cid=0x0:0xaeea21802eb51586,
komplek housing,Masjid,Morombo,"J792+2CH, Morombo, Kec. Lasolo kepulauan, Kabupaten Konawe Utara, Sulawesi Tenggara 93352","Morombo, Kec. Lasolo kepulauan, Kabupaten Konawe Utara",SULAWESI TENGGARA,93352.0,Indonesia,,,,-3.3824479,122.2511095,https://maps.google.com/?cid=0x0:0x64303769ca29a77a,
komplek housing,Pembangunan Perumahan,Rumah Dion,"86WQ+2R4, Tinobu, Kec. Lasolo, Kabupaten Konawe Utara, Sulawesi Tenggara 93352","Tinobu, Kec. Lasolo, Kabupaten Konawe Utara",SULAWESI TENGGARA,93352.0,Indonesia,,,,-3.6550929,122.2392586,https://maps.google.com/?cid=0x0:0x4cc898e50104b8be,
komplek housing,Pembangunan Perumahan,Pretty,"86HR+6QQ, Jl. Poros Bungku Sel. - Kendari, Lametono, Kec. Lasolo, Kabupaten Konawe Utara, Sulawesi Tenggara 93352","Jl. Poros Bungku Sel. - Kendari, Lametono, Kec. Lasolo, Kabupaten Konawe Utara",SULAWESI TENGGARA,93352.0,Indonesia,,,,-3.6719866,122.2410829,https://maps.google.com/?cid=0x0:0xde25e2c85ef3c000,
komplek housing,Pembangunan Perumahan,"Indranur, S.Kom, MMG","86PM+G82, Jl. Poros Bungku Sel. - Kendari, Andumowu, Kec. Lasolo, Kabupaten Konawe Utara, Sulawesi Tenggara 93352","Jl. Poros Bungku Sel. - Kendari, Andumowu, Kec. Lasolo, Kabupaten Konawe Utara",SULAWESI TENGGARA,93352.0,Indonesia,,,,-3.6637429,122.2332756,https://maps.google.com/?cid=0x0:0x23c68485c66a55ea,
komplek housing,Kantor Pemerintah,Kepala Puskesmas Lembo,"866Q+9WQ, Andeo, Kec. Lasolo, Kabupaten Konawe Utara, Sulawesi Tenggara 93352","Andeo, Kec. Lasolo, Kabupaten Konawe Utara",SULAWESI TENGGARA,93352.0,Indonesia,,,,-3.6890327,122.2398636,https://maps.google.com/?cid=0x0:0x4b0300eab653f288,
komplek housing,Komplek perumahan,Bali Home,"J792+574, Paka Indah, Kec. Oheo, Kabupaten Konawe Utara, Sulawesi Tenggara 93352","Paka Indah, Kec. Oheo, Kabupaten Konawe Utara",SULAWESI TENGGARA,93352.0,Indonesia,,,,-3.3827703,122.251343,https://maps.google.com/?cid=0x0:0x4c8b3463b80f74b3,
komplek housing,Komplek perumahan,Home laugi,"782J+72J, Jl. Poros Bungku Sel. - Kendari, Puulemo, Kec. Lembo, Kabupaten Konawe Utara, Sulawesi Tenggara 93352","Jl. Poros Bungku Sel. - Kendari, Puulemo, Kec. Lembo, Kabupaten Konawe Utara",SULAWESI TENGGARA,93352.0,Indonesia,,,,-3.7498559,122.3312298,https://maps.google.com/?cid=0x0:0xdd4689e5a287deff,
komplek housing,Komplek perumahan,Raslin/yuyun patriani,"Jl. Poros Wawotobi - Lasolo No.23, Andeo, Kec. Lasolo, Kabupaten Konawe Utara, Sulawesi Tenggara 93352","Andeo, Kec. Lasolo, Kabupaten Konawe Utara",SULAWESI TENGGARA,93352.0,Indonesia,,,,-3.6857539,122.2540671,https://maps.google.com/?cid=0x0:0xd2b0f1b2a7dde55a,
komplek housing,komplek housing,Kec. Lembo,"Kabupaten Konawe Utara, Sulawesi Tenggara","Kabupaten Konawe Utara, Sulawesi Tenggara",SULAWESI TENGGARA,,Indonesia,,,,-3.752099,122.3401906,https://maps.google.com/?cid=0x0:0x279ea38939c035e8,
komplek housing,Komplek perumahan,Home ARIF,"68XM+HQ4, Padaleu, Kec. Lembo, Kabupaten Konawe Utara, Sulawesi Tenggara 93352","Padaleu, Kec. Lembo, Kabupaten Konawe Utara",SULAWESI TENGGARA,93352.0,Indonesia,,,,-3.7511232,122.3344652,https://maps.google.com/?cid=0x0:0x8407e770e0672a9f,
komplek housing,Komplek perumahan,Athar house,"68WR+JRV, Pasir Putih, Kec. Lembo, Kabupaten Konawe Utara, Sulawesi Tenggara 93352","Pasir Putih, Kec. Lembo, Kabupaten Konawe Utara",SULAWESI TENGGARA,93352.0,Indonesia,,,,-3.7533847,122.3420561,https://maps.google.com/?cid=0x0:0xce6f8c4729dad64c,
komplek housing,Komplek perumahan,Home armis,"Jl. Poros Bungku Sel. - Kendari No.27, Padaleu, Kec. Lembo, Kabupaten Konawe Utara, Sulawesi Tenggara 93352","Padaleu, Kec. Lembo, Kabupaten Konawe Utara",SULAWESI TENGGARA,93352.0,Indonesia,,,,-3.7509346,122.3327077,https://maps.google.com/?cid=0x0:0x8087b0d577a0b319,
komplek housing,Komplek perumahan,RUMAH PAK SUKI,"68QV+FGJ, Lembo, Kec. Lembo, Kabupaten Konawe Utara, Sulawesi Tenggara","Kabupaten Konawe Utara, Sulawesi Tenggara",SULAWESI TENGGARA,,Indonesia,,,,-3.7612959,122.3437759,https://maps.google.com/?cid=0x0:0x7b72fa2e647f5346,
komplek housing,Komplek perumahan,Home laugi,"782J+72J, Jl. Poros Bungku Sel. - Kendari, Puulemo, Kec. Lembo, Kabupaten Konawe Utara, Sulawesi Tenggara 93352","Jl. Poros Bungku Sel. - Kendari, Puulemo, Kec. Lembo, Kabupaten Konawe Utara",SULAWESI TENGGARA,93352.0,Indonesia,,,,-3.7498559,122.3312298,https://maps.google.com/?cid=0x0:0xdd4689e5a287deff,
komplek housing,Komplek perumahan,Rumah padin,"68QR+XRQ, Lembo, Kec. Lembo, Kabupaten Konawe Utara, Sulawesi Tenggara 93352","Lembo, Kec. Lembo, Kabupaten Konawe Utara",SULAWESI TENGGARA,93352.0,Indonesia,,,,-3.7603975,122.3421692,https://maps.google.com/?cid=0x0:0xf2494106f4576152,
komplek housing,Komplek perumahan,Rumah Indira,"68C5+W53, Padaleu, Kec. Lembo, Kabupaten Konawe Utara, Sulawesi Tenggara 93352","Padaleu, Kec. Lembo, Kabupaten Konawe Utara",SULAWESI TENGGARA,93352.0,Indonesia,,,,-3.7777259,122.307917,https://maps.google.com/?cid=0x0:0x51295aac06f8d2db,
komplek housing,Kantor Pemerintah,Desa laramo,"68XM+GGX, Ds, Laramo, Kec. Lembo, Kabupaten Konawe Utara","Kabupaten Konawe Utara, Sulawesi Tenggara",SULAWESI TENGGARA,,Indonesia,,,,-3.751141,122.333863,https://maps.google.com/?cid=0x0:0xe923196a015ec8b1,
komplek housing,komplek housing,rumah iman,"68PW+76P, Lembo, Kec. Lembo, Kabupaten Konawe Utara, Sulawesi Tenggara 93461","Lembo, Kec. Lembo, Kabupaten Konawe Utara",SULAWESI TENGGARA,93461.0,Indonesia,,,,-3.764254,122.3455266,https://maps.google.com/?cid=0x0:0xe123d2cfd7800995,
komplek housing,Komplek perumahan,Rumah syukur hidayat,"783F+J8, Puulemo, Kec. Lembo, Kabupaten Konawe Utara, Sulawesi Tenggara","Kabupaten Konawe Utara, Sulawesi Tenggara",SULAWESI TENGGARA,,Indonesia,,,,-3.7467509,122.3244723,https://maps.google.com/?cid=0x0:0x381c0b98d6094a31,
komplek housing,Komplek perumahan,HOME LANANG,"782G+R5J, Puulemo, Kec. Lembo, Kabupaten Konawe Utara, Sulawesi Tenggara","Kabupaten Konawe Utara, Sulawesi Tenggara",SULAWESI TENGGARA,,Indonesia,,,,-3.7479141,122.3253828,https://maps.google.com/?cid=0x0:0x7cc7e893e14c98fd,
komplek housing,Pembangunan Perumahan,Home Cici fatmawati,"68XQ+89X, Padaleu, Kec. Lembo, Kabupaten Konawe Utara, Sulawesi Tenggara 93352","Padaleu, Kec. Lembo, Kabupaten Konawe Utara",SULAWESI TENGGARA,93352.0,Indonesia,,,,-3.7507882,122.3382709,https://maps.google.com/?cid=0x0:0xa9acb5b51708fc75,
komplek housing,Komplek perumahan,Rizky Arema,"69VR+X5X, Tongalino, Kec. Lembo, Kabupaten Konawe Utara, Sulawesi Tenggara 93352","Tongalino, Kec. Lembo, Kabupaten Konawe Utara",SULAWESI TENGGARA,93352.0,Indonesia,,,,-3.7550014,122.390499,https://maps.google.com/?cid=0x0:0x35c02217cd0720c6,
komplek housing,Pembangunan Perumahan,Bengkel Raya,"782H+CCV, Puulemo, Kec. Lembo, Kabupaten Konawe Utara, Sulawesi Tenggara","Kabupaten Konawe Utara, Sulawesi Tenggara",SULAWESI TENGGARA,,Indonesia,,,,-3.7488775,122.3285533,https://maps.google.com/?cid=0x0:0x528f1591b93e2ad7,
komplek housing,Komplek perumahan,Rumah ALAN KADRI,"783F+J8, Puulemo, Kec. Lembo, Kabupaten Konawe Utara, Sulawesi Tenggara","Kabupaten Konawe Utara, Sulawesi Tenggara",SULAWESI TENGGARA,,Indonesia,,,,-3.7458887,122.3235047,https://maps.google.com/?cid=0x0:0x5e5a513beeee0239,
komplek housing,Komplek perumahan,Home armis,"783G+49Q, Puulemo, Kec. Lembo, Kabupaten Konawe Utara, Sulawesi Tenggara","Kabupaten Konawe Utara, Sulawesi Tenggara",SULAWESI TENGGARA,,Indonesia,,,,-3.7471444,122.3260935,https://maps.google.com/?cid=0x0:0xe3bb75e0b8f7b363,
komplek housing,Komplek perumahan,Zakinah21,"782H+CCV, Puulemo, Kec. Lembo, Kabupaten Konawe Utara, Sulawesi Tenggara","Kabupaten Konawe Utara, Sulawesi Tenggara",SULAWESI TENGGARA,,Indonesia,,,,-3.7486335,122.3288487,https://maps.google.com/?cid=0x0:0x63690b10d947d4b4,
komplek housing,Pembangunan Perumahan,Dody,"Jl. Poros Bungku Sel. - Kendari No.16, Puulemo, Kec. Lembo, Kabupaten Konawe Utara, Sulawesi Tenggara 93561","Puulemo, Kec. Lembo, Kabupaten Konawe Utara",SULAWESI TENGGARA,93561.0,Indonesia,,,,-3.746244,122.3252979,https://maps.google.com/?cid=0x0:0x4cf7bfe8f5901648,
komplek housing,Komplek perumahan,Ardan,"782G+XVR, Puulemo, Kec. Lembo, Kabupaten Konawe Utara, Sulawesi Tenggara","Kabupaten Konawe Utara, Sulawesi Tenggara",SULAWESI TENGGARA,,Indonesia,,,,-3.7474952,122.3271342,https://maps.google.com/?cid=0x0:0x5717409389344f13,
komplek housing,Komplek perumahan,Rumah Iroko,"Podomoro Golf View Cluster Iroko B07/15, Exit Tol Cimanggis Jagorawi Toll Rd No.KM 19, Gunung Putri, Bogor Regency","Kabupaten Bogor, Jawa Barat",SULAWESI TENGGARA,,Indonesia,,,,-6.4317909,106.8906819,https://maps.google.com/?cid=0x0:0x653a33fcb7036efe,
komplek housing,Komplek perumahan,Mawar Tamansari Residence 2,"J2H8+PGC, Taman Sari, Kec. Setu, Kabupaten Bekasi, Jawa Barat","Kabupaten Bekasi, Jawa Barat",SULAWESI TENGGARA,,Indonesia, 085215033538,,,-6.3707353,107.0162582,https://maps.google.com/?cid=0x0:0x9f244b8646b408a6,
komplek housing,Perhentian bus,Komplek PWI Jaya,"FQJW+F48, Jl. Komp. Pwi, Cilebut Bar., Kec. Sukaraja, Kabupaten Bogor, Jawa Barat 16710","Jl. Komp. Pwi, Cilebut Bar., Kec. Sukaraja, Kabupaten Bogor",SULAWESI TENGGARA,16710.0,Indonesia,,,,-6.5188314,106.7953196,https://maps.google.com/?cid=0x0:0x3da49434fd749af,
komplek housing,Komplek perumahan,Alba Residence,"HPH9+HMV, Jl. Gus Dur, Waru, Kec. Parung, Kabupaten Bogor, Jawa Barat 16330","Jl. Gus Dur, Waru, Kec. Parung, Kabupaten Bogor",SULAWESI TENGGARA,16330.0,Indonesia,,,,-6.4210069,106.719167,https://maps.google.com/?cid=0x0:0x725a2b0258570dcd,
komplek housing,Komplek perumahan,Rumah Jatiasih,"Blok D3 No. 3, RT.004/RW.009, Jatiluhur, Jatiasih, Bekasi, West Java 17425","RT.004/RW.009, Jatiluhur, Jatiasih, Bekasi",SULAWESI TENGGARA,17425.0,Indonesia,,,,-6.3118438,106.9491785,https://maps.google.com/?cid=0x0:0x9233d98647117e65,
komplek housing,Komplek perumahan,Perumahan Citra Indah City Jonggol,"Jl. Raya Cileungsi - Jonggol No.Km.23, Sukamaju, Kec. Jonggol, Kabupaten Bogor, Jawa Barat 16830","Sukamaju, Kec. Jonggol, Kabupaten Bogor",SULAWESI TENGGARA,16830.0,Indonesia, 081281106515,,,-6.4398138,107.0493173,https://maps.google.com/?cid=0x0:0xf4294b08f982b372,
komplek housing,komplek housing,Komplek Housing,"Blok Bojong Nangka I, Jl. Ring Rudal Blok Bojong Nangka I No.68, RT.001/RW.007, Jatirahayu, Kec. Pd. Melati, Kota Bks, Jawa Barat 17414","Jl. Ring Rudal Blok Bojong Nangka I No.68, RT.001/RW.007, Jatirahayu, Kec. Pd. Melati, Kota Bks",SULAWESI TENGGARA,17414.0,Indonesia,,,,-6.293724,106.9165114,https://maps.google.com/?cid=0x0:0x9c50464976dee674,
komplek housing,komplek housing,Sulawesi Tenggara,,Sulawesi Tenggara,SULAWESI TENGGARA,,Indonesia,,,,-4.14491,122.174605,https://maps.google.com/?cid=0x0:0x621d7c439f04a4ed,
komplek housing,Komplek perumahan,ROMA Home,"V72G+4V6, Beteleme, Kec. Lembo, Kabupaten Morowali Utara, Sulawesi Tengah 94966","Beteleme, Kec. Lembo, Kabupaten Morowali Utara",SULAWESI TENGGARA,94966.0,Indonesia, 082199992771,,,-2.150581,121.277079,https://maps.google.com/?cid=0x0:0xdcbae82ff47f1ba9,
komplek housing,Komplek perumahan,Kalembiro's Home Sweet Home,"R6FW+3W4, Lembobaru, Kec. Lembo, Kabupaten Morowali Utara, Sulawesi Tengah 94966","Lembobaru, Kec. Lembo, Kabupaten Morowali Utara",SULAWESI TENGGARA,94966.0,Indonesia, 082292244017,,,-2.1773541,121.2473145,https://maps.google.com/?cid=0x0:0xda996a9885930ae6,
komplek housing,komplek housing,Kec. Lembo,"Kabupaten Konawe Utara, Sulawesi Tenggara","Kabupaten Konawe Utara, Sulawesi Tenggara",SULAWESI TENGGARA,,Indonesia,,,,-3.752099,122.3401906,https://maps.google.com/?cid=0x0:0x279ea38939c035e8,
komplek housing,Komplek perumahan,Rumah  Kost Iche Hambuako,"V78M+4F5, Tinompo, Kec. Lembo, Kabupaten Morowali Utara, Sulawesi Tengah 94966","Tinompo, Kec. Lembo, Kabupaten Morowali Utara",SULAWESI TENGGARA,94966.0,Indonesia,,,,-2.1347362,121.2837336,https://maps.google.com/?cid=0x0:0x72c99963b5c836fe,
komplek housing,komplek housing,Sky'house,"R6HW+J92, Korobonde, Kec. Lembo, Kabupaten Morowali Utara, Sulawesi Tengah 94966","Korobonde, Kec. Lembo, Kabupaten Morowali Utara",SULAWESI TENGGARA,94966.0,Indonesia,,,,-2.1709848,121.2458653,https://maps.google.com/?cid=0x0:0x960e18d3164a55dc,
komplek housing,Komplek perumahan,Rumah Kel.Hingkua-Tosubu,"V78M+FFJ, Tinompo, Kec. Lembo, Kabupaten Morowali Utara, Sulawesi Tengah 94966","Tinompo, Kec. Lembo, Kabupaten Morowali Utara",SULAWESI TENGGARA,94966.0,Indonesia,,,,-2.1340838,121.2835982,https://maps.google.com/?cid=0x0:0x3c622607a0ff407d,
komplek housing,Komplek perumahan,Home Inong,"V73J+W94, Beteleme, Kec. Lembo, Kabupaten Morowali Utara, Sulawesi Tengah 94966","Beteleme, Kec. Lembo, Kabupaten Morowali Utara",SULAWESI TENGGARA,94966.0,Indonesia,,,,-2.1452468,121.2809523,https://maps.google.com/?cid=0x0:0x8449d862047ee3b8,
komplek housing,Pembangunan Perumahan,Hana's Home,"V65W+P88, Tingkea'o, Kec. Lembo, Kabupaten Morowali Utara, Sulawesi Tengah 94966","Tingkea'o, Kec. Lembo, Kabupaten Morowali Utara",SULAWESI TENGGARA,94966.0,Indonesia,,,,-2.14003,121.245717,https://maps.google.com/?cid=0x0:0xf09cfef72400dec1,
komplek housing,Komplek perumahan,Lembobaru,"R6FW+HV8, Lembobaru, Kec. Lembo, Kabupaten Morowali Utara, Sulawesi Tengah 94966","Lembobaru, Kec. Lembo, Kabupaten Morowali Utara",SULAWESI TENGGARA,94966.0,Indonesia,,,,-2.1760883,121.2472137,https://maps.google.com/?cid=0x0:0xb53f4038e7cbca14,
komplek housing,Komplek perumahan,Rmh Kel.mogimpe-tanggulemba,"R6HW+RV7, Korobonde, Kec. Lembo, Kabupaten Morowali Utara, Sulawesi Tengah 94966","Korobonde, Kec. Lembo, Kabupaten Morowali Utara",SULAWESI TENGGARA,94966.0,Indonesia,,,,-2.1704637,121.2471701,https://maps.google.com/?cid=0x0:0xe62f8aa013d6a393,
komplek housing,Komplek perumahan,Rumah LIDYA dan ENDI,"V72G+PJP, Beteleme, Kec. Lembo, Kabupaten Morowali Utara, Sulawesi Tengah 94966","Beteleme, Kec. Lembo, Kabupaten Morowali Utara",SULAWESI TENGGARA,94966.0,Indonesia,,,,-2.1481199,121.2766618,https://maps.google.com/?cid=0x0:0x7f9dce292071524c,
komplek housing,Komplek perumahan,Rumah Ekky Labulu,"V77P+F9J, Lorong Garuda, Tinompo, Kec. Lembo, Kabupaten Morowali Utara, Sulawesi Tengah 94966","Lorong Garuda, Tinompo, Kec. Lembo, Kabupaten Morowali Utara",SULAWESI TENGGARA,94966.0,Indonesia,,,,-2.13629,121.2858774,https://maps.google.com/?cid=0x0:0xd4de463f392ef209,
komplek housing,Komplek perumahan,Rumah Kristo Mbayowo,"Q8HF+3HF, Ronta, Kec. Lembo, Kabupaten Morowali Utara, Sulawesi Tengah 94966","Ronta, Kec. Lembo, Kabupaten Morowali Utara",SULAWESI TENGGARA,94966.0,Indonesia,,,,-2.222293,121.323915,https://maps.google.com/?cid=0x0:0x93383985b2696af7,
komplek housing,Komplek perumahan,Rumah Ocang,"R7WC+G97, Beteleme, Kec. Lembo, Kabupaten Morowali Utara, Sulawesi Tengah 94966","Beteleme, Kec. Lembo, Kabupaten Morowali Utara",SULAWESI TENGGARA,94966.0,Indonesia,,,,-2.1537085,121.2709318,https://maps.google.com/?cid=0x0:0xf33a8cae758d22de,
komplek housing,Perhimpunan Pengembang Perumahan,Komplek REWEL KTB,"V72G+5WH, Beteleme, Kec. Lembo, Kabupaten Morowali Utara, Sulawesi Tengah 94966","Beteleme, Kec. Lembo, Kabupaten Morowali Utara",SULAWESI TENGGARA,94966.0,Indonesia,,,,-2.149665,121.277351,https://maps.google.com/?cid=0x0:0x6d8e6e94c295c34b,
komplek housing,Komplek perumahan,Rumah Kristo Mbayowo,"Q8J4+C67, Petumbea, Kec. Lembo Raya, Kabupaten Morowali Utara, Sulawesi Tengah 94966","Petumbea, Kec. Lembo Raya, Kabupaten Morowali Utara",SULAWESI TENGGARA,94966.0,Indonesia,,,,-2.2189703,121.3055486,https://maps.google.com/?cid=0x0:0x59f1a5075fb7e707,
komplek housing,Komplek perumahan,rumah geral,"R6FW+5J8, Lembobaru, Kec. Lembo, Kabupaten Morowali Utara, Sulawesi Tengah 94966","Lembobaru, Kec. Lembo, Kabupaten Morowali Utara",SULAWESI TENGGARA,94966.0,Indonesia,,,,-2.177084,121.2465897,https://maps.google.com/?cid=0x0:0x365162ff74694ee6,
komplek housing,Komplek perumahan,Rumah Rismayanto,"R78J+WF6, Pa'awaru, Kec. Lembo, Kabupaten Morowali Utara, Sulawesi Tengah 94966","Pa'awaru, Kec. Lembo, Kabupaten Morowali Utara",SULAWESI TENGGARA,94966.0,Indonesia,,,,-2.1827246,121.2811312,https://maps.google.com/?cid=0x0:0x2978d9177f8884f9,
komplek housing,Komplek perumahan,Hafiz tegar,"R7GP+2CH, Pa'awaru, Kec. Lembo, Kabupaten Morowali Utara, Sulawesi Tengah 94966","Pa'awaru, Kec. Lembo, Kabupaten Morowali Utara",SULAWESI TENGGARA,94966.0,Indonesia,,,,-2.17494,121.2860983,https://maps.google.com/?cid=0x0:0xaf4c02dc013ffd6b,
komplek housing,Pembangunan Perumahan,Novita purwanti cell,"R7M2+3W9, Korobonde, Kec. Lembo, Kabupaten Morowali Utara, Sulawesi Tengah 94966","Korobonde, Kec. Lembo, Kabupaten Morowali Utara",SULAWESI TENGGARA,94966.0,Indonesia, 081244934087,,,-2.1673432,121.2523464,https://maps.google.com/?cid=0x0:0xd1332574a5eb076e,
komplek housing,Komplek perumahan,Rumah Risal Mbawo'o,"R7M3+XJF, Dusun 4, Korobonde, Kec. Lembo, Kabupaten Morowali Utara, Sulawesi Tengah 94966","Dusun 4, Korobonde, Kec. Lembo, Kabupaten Morowali Utara",SULAWESI TENGGARA,94966.0,Indonesia,,,,-2.1650715,121.2540523,https://maps.google.com/?cid=0x0:0xa01c7673b837a78,
komplek housing,Komplek perumahan,Home rusni,"R6GX+R3H, Korobonde, Kec. Lembo, Kabupaten Morowali Utara, Sulawesi Tengah 94966","Korobonde, Kec. Lembo, Kabupaten Morowali Utara",SULAWESI TENGGARA,94966.0,Indonesia, 085242692249,,,-2.1729386,121.2477213,https://maps.google.com/?cid=0x0:0xd6892d38d8623f3c,
komplek housing,Komplek perumahan,rumah Rifqi,"R7M2+3W9, Korobonde, Kec. Lembo, Kabupaten Morowali Utara, Sulawesi Tengah 94966","Korobonde, Kec. Lembo, Kabupaten Morowali Utara",SULAWESI TENGGARA,94966.0,Indonesia,,,,-2.1672762,121.251706,https://maps.google.com/?cid=0x0:0xd6e3171474389434,
komplek housing,Komplek perumahan,Metro Parung Panjang,"Cibunar, Kec. Parung Panjang, Kabupaten Bogor, Jawa Barat 16360","Kec. Parung Panjang, Kabupaten Bogor",SULAWESI TENGGARA,16360.0,Indonesia,,,,-6.3448785,106.5562563,https://maps.google.com/?cid=0x0:0x4a6ed56a8b94c4d9,
komplek housing,komplek housing,Komplek Housing,"Blok Bojong Nangka I, Jl. Ring Rudal Blok Bojong Nangka I No.68, RT.001/RW.007, Jatirahayu, Kec. Pd. Melati, Kota Bks, Jawa Barat 17414","Jl. Ring Rudal Blok Bojong Nangka I No.68, RT.001/RW.007, Jatirahayu, Kec. Pd. Melati, Kota Bks",SULAWESI TENGGARA,17414.0,Indonesia,,,,-6.293724,106.9165114,https://maps.google.com/?cid=0x0:0x9c50464976dee674,
komplek housing,Masjid,Puuwonggia,"6F23+C4P, Wawoluri, Kec. Motui, Kabupaten Konawe Utara, Sulawesi Tenggara 93352","Wawoluri, Kec. Motui, Kabupaten Konawe Utara",SULAWESI TENGGARA,93352.0,Indonesia,,,,-3.7989189,122.4528167,https://maps.google.com/?cid=0x0:0x4c0c7897353c350a,
komplek housing,Komplek perumahan,Masjid Desa Puuwonggia,"Desa Puuwonggia Dusun, Wawoluri, Kec. Motui, Wanggudu, Sulawesi Tenggara 93352","Wawoluri, Kec. Motui, Wanggudu",SULAWESI TENGGARA,93352.0,Indonesia,,,,-3.7988138,122.4568993,https://maps.google.com/?cid=0x0:0x104360904c79b3e7,
komplek housing,Tempat Parkir,Service Barat ArTri Boat,"6F23+C4P, Wawoluri, Kec. Motui, Kabupaten Konawe Utara, Sulawesi Tenggara 93352","Wawoluri, Kec. Motui, Kabupaten Konawe Utara",SULAWESI TENGGARA,93352.0,Indonesia, 081342992293,,,-3.7991654,122.4535187,https://maps.google.com/?cid=0x0:0xba33652e7e80b24f,
komplek housing,komplek housing,Molawe,"Bandaeha, Kec. Molawe, Kabupaten Konawe Utara, Sulawesi Tenggara","Kabupaten Konawe Utara, Sulawesi Tenggara",SULAWESI TENGGARA,,Indonesia,,,,-3.624622,122.199097,https://maps.google.com/?cid=0x0:0x28e3759c14486a8e,
komplek housing,komplek housing,Motui,"Kec. Motui, Kabupaten Konawe Utara, Sulawesi Tenggara","Kabupaten Konawe Utara, Sulawesi Tenggara",SULAWESI TENGGARA,,Indonesia,,,,-3.8064225,122.4552162,https://maps.google.com/?cid=0x0:0x4be5537f48106ff6,
komplek housing,komplek housing,Kec. Motui,"Kabupaten Konawe Utara, Sulawesi Tenggara","Kabupaten Konawe Utara, Sulawesi Tenggara",SULAWESI TENGGARA,,Indonesia,,,,-3.8052813,122.4581695,https://maps.google.com/?cid=0x0:0x10f6c8115450fdc4,
komplek housing,Komplek perumahan,HOME HUSEN,"6F24+FQC, Wawoluri, Kec. Motui, Kabupaten Konawe Utara, Sulawesi Tenggara 93352","Wawoluri, Kec. Motui, Kabupaten Konawe Utara",SULAWESI TENGGARA,93352.0,Indonesia,,,,-3.7988125,122.4568906,https://maps.google.com/?cid=0x0:0x1f3f4052afb69027,
komplek housing,Komplek perumahan,Rumah Pesta,"5FM5+WR5, Banggina, Kec. Motui, Kabupaten Konawe Utara, Sulawesi Tenggara 93352","Banggina, Kec. Motui, Kabupaten Konawe Utara",SULAWESI TENGGARA,93352.0,Indonesia,,,,-3.8157815,122.4600905,https://maps.google.com/?cid=0x0:0xaf448a7f501d85a9,
komplek housing,Komplek perumahan,Rumah Jatiasih,"Blok D3 No. 3, RT.004/RW.009, Jatiluhur, Jatiasih, Bekasi, West Java 17425","RT.004/RW.009, Jatiluhur, Jatiasih, Bekasi",SULAWESI TENGGARA,17425.0,Indonesia,,,,-6.3118438,106.9491785,https://maps.google.com/?cid=0x0:0x9233d98647117e65,
komplek housing,komplek housing,Kec. Oheo,"Kabupaten Konawe Utara, Sulawesi Tenggara","Kabupaten Konawe Utara, Sulawesi Tenggara",SULAWESI TENGGARA,,Indonesia,,,,-3.4120121,122.0716764,https://maps.google.com/?cid=0x0:0x1fec54897c86d51a,
komplek housing,Vila,DESA HOROE,"H38H+WVJ, Jalan Poros Landawe, Laroonaha, Kec. Oheo, Kabupaten Konawe Utara, Sulawesi Tenggara 93353","Jalan Poros Landawe, Laroonaha, Kec. Oheo, Kabupaten Konawe Utara",SULAWESI TENGGARA,93353.0,Indonesia,,,,-3.4320192,122.0794317,https://maps.google.com/?cid=0x0:0x90be4e95cb336588,
komplek housing,Pembangunan Perumahan,Hena's Home,"M45V+W93, Paka Indah, Kec. Oheo, Kabupaten Konawe Utara, Sulawesi Tenggara 93353","Paka Indah, Kec. Oheo, Kabupaten Konawe Utara",SULAWESI TENGGARA,93353.0,Indonesia,,,,-3.3402393,122.1434128,https://maps.google.com/?cid=0x0:0x840595fafef3aa6b,
komplek housing,Pembangunan Perumahan,Trsnsmigrasi Oheo Sambandete,"H3XX+VCW, Kota Maju, Kec. Oheo, Kabupaten Konawe Utara, Sulawesi Tenggara","Kabupaten Konawe Utara, Sulawesi Tenggara",SULAWESI TENGGARA,,Indonesia,,,,-3.4002634,122.0985756,https://maps.google.com/?cid=0x0:0x983ff8e68380829f,
komplek housing,Perhimpunan Pengembang Perumahan,Lorong mopute,"J3C5+22V, Mopute, Kec. Oheo, Kabupaten Konawe Utara, Sulawesi Tenggara","Kabupaten Konawe Utara, Sulawesi Tenggara",SULAWESI TENGGARA,,Indonesia,,,,-3.3798822,122.0575526,https://maps.google.com/?cid=0x0:0x1b0d0f4f6734e8bd,
komplek housing,Komplek perumahan,Rumah Anjas,"J2XW+P65 trans, Tadoloiyo, Kec. Oheo, Kabupaten Konawe Utara, Sulawesi Tenggara","Kabupaten Konawe Utara, Sulawesi Tenggara",SULAWESI TENGGARA,,Indonesia,,,,-3.350737,122.0456044,https://maps.google.com/?cid=0x0:0x7e165a2c0ec9650e,
komplek housing,Komplek perumahan,M. Zhafran alghifari,"M45V+W97, Paka Indah, Kec. Oheo, Kabupaten Konawe Utara, Sulawesi Tenggara 93353","Paka Indah, Kec. Oheo, Kabupaten Konawe Utara",SULAWESI TENGGARA,93353.0,Indonesia, 082260526097,,,-3.3402142,122.1434081,https://maps.google.com/?cid=0x0:0x902eb192403a3a0d,
komplek housing,Komplek perumahan,Perumahan dsn 2,"G399+96W, Asera, Kec. Asera, Kabupaten Konawe Utara, Sulawesi Tenggara 93353","Asera, Kec. Asera, Kabupaten Konawe Utara",SULAWESI TENGGARA,93353.0,Indonesia,,,,-3.4815242,122.0680819,https://maps.google.com/?cid=0x0:0xd2d3af823349220a,
komplek housing,Komplek perumahan,Rumah Kios Rachel,"J3V8+RW6, Jalan Trans Sulawesi, Puuhialu, Kec. Oheo, Kabupaten Konawe Utara, Sulawesi Tenggara 93353","Jalan Trans Sulawesi, Puuhialu, Kec. Oheo, Kabupaten Konawe Utara",SULAWESI TENGGARA,93353.0,Indonesia,,,,-3.3554647,122.0672686,https://maps.google.com/?cid=0x0:0xa43ecd835d40dd2b,
komplek housing,Komplek perumahan,Fajar Homestay,"J39M+VF9, Wiwirano, Kec. Oheo, Kabupaten Konawe Utara, Sulawesi Tenggara","Kabupaten Konawe Utara, Sulawesi Tenggara",SULAWESI TENGGARA,,Indonesia,,,,-3.3803291,122.0837445,https://maps.google.com/?cid=0x0:0xdb19a0145d0e6cf7,
komplek housing,Komplek perumahan,Rumah Kiky,"J3F4+3QJ, Mopute, Kec. Oheo, Kabupaten Konawe Utara, Sulawesi Tenggara","Kabupaten Konawe Utara, Sulawesi Tenggara",SULAWESI TENGGARA,,Indonesia,,,,-3.3772117,122.0566598,https://maps.google.com/?cid=0x0:0x5abb36a8fb5be7c,
komplek housing,Pembangunan Perumahan,Erdin fix home,"J355+GQ, Landawe, Kec. Oheo, Kabupaten Konawe Utara, Sulawesi Tenggara 93353","Landawe, Kec. Oheo, Kabupaten Konawe Utara",SULAWESI TENGGARA,93353.0,Indonesia,,,,-3.3911395,122.0594539,https://maps.google.com/?cid=0x0:0xaa7fb1d57934c642,
komplek housing,Komplek perumahan,Kios barokah,"J2WW+G22, Linomoiyo, Kec. Oheo, Kabupaten Konawe Utara, Sulawesi Tenggara 93353","Linomoiyo, Kec. Oheo, Kabupaten Konawe Utara",SULAWESI TENGGARA,93353.0,Indonesia, 082350708334,,,-3.3537334,122.0450271,https://maps.google.com/?cid=0x0:0x96f53603717fa1ff,
komplek housing,Vila,Rumah JM,"J3R7+HM, Tadoloiyo, Kec. Oheo, Kabupaten Konawe Utara, Sulawesi Tenggara","Kabupaten Konawe Utara, Sulawesi Tenggara",SULAWESI TENGGARA,,Indonesia,,,,-3.3585135,122.0642172,https://maps.google.com/?cid=0x0:0xb7370154e0c7b553,
komplek housing,Komplek perumahan,Bali Home,"J792+574, Paka Indah, Kec. Oheo, Kabupaten Konawe Utara, Sulawesi Tenggara 93352","Paka Indah, Kec. Oheo, Kabupaten Konawe Utara",SULAWESI TENGGARA,93352.0,Indonesia,,,,-3.3827703,122.251343,https://maps.google.com/?cid=0x0:0x4c8b3463b80f74b3,
komplek housing,Komplek perumahan,Amorome utama,"G3J8+F4J utama, Amorome, Kec. Asera, Kabupaten Konawe Utara, Sulawesi Tenggara","Kabupaten Konawe Utara, Sulawesi Tenggara",SULAWESI TENGGARA,,Indonesia,,,,-3.4687813,122.0652791,https://maps.google.com/?cid=0x0:0x69f10048537eb82c,
komplek housing,Komplek perumahan,Mess yus,"J39M+VF9, Wiwirano, Kec. Oheo, Kabupaten Konawe Utara, Sulawesi Tenggara","Kabupaten Konawe Utara, Sulawesi Tenggara",SULAWESI TENGGARA,,Indonesia,,,,-3.3803291,122.0837445,https://maps.google.com/?cid=0x0:0xec5b58b97aeb736e,
komplek housing,Komplek perumahan,rumah afneeeee,"G399+3F4, Tangguluri, Kec. Asera, Kabupaten Konawe Utara, Sulawesi Tenggara","Kabupaten Konawe Utara, Sulawesi Tenggara",SULAWESI TENGGARA,,Indonesia,,,,-3.4823614,122.0687056,https://maps.google.com/?cid=0x0:0xbc5968d07d12ec6d,
komplek housing,Komplek perumahan,Rumah Badri,"J3X8+74J, Puuhialu, Kec. Asera, Kabupaten Konawe Utara, Sulawesi Tenggara 93353","Puuhialu, Kec. Asera, Kabupaten Konawe Utara",SULAWESI TENGGARA,93353.0,Indonesia,,,,-3.3517936,122.0652791,https://maps.google.com/?cid=0x0:0xb6057ca1a1318402,
komplek housing,Perhimpunan Pengembang Perumahan,Irman Mopute,"J3C5+G5V, Jl. Poros Lamonae-Landawe, Wiwirano, Kec. Oheo, Kabupaten Konawe Utara, Sulawesi Tenggara 93353","Jl. Poros Lamonae-Landawe, Wiwirano, Kec. Oheo, Kabupaten Konawe Utara",SULAWESI TENGGARA,93353.0,Indonesia,,,,-3.3786378,122.0579325,https://maps.google.com/?cid=0x0:0xbe3bdec467b84f2c,
komplek housing,Masjid,Morombo,"J792+2CH, Morombo, Kec. Lasolo kepulauan, Kabupaten Konawe Utara, Sulawesi Tenggara 93352","Morombo, Kec. Lasolo kepulauan, Kabupaten Konawe Utara",SULAWESI TENGGARA,93352.0,Indonesia,,,,-3.3824479,122.2511095,https://maps.google.com/?cid=0x0:0x64303769ca29a77a,
komplek housing,komplek housing,Kec. Sawa,"Kabupaten Konawe Utara, Sulawesi Tenggara","Kabupaten Konawe Utara, Sulawesi Tenggara",SULAWESI TENGGARA,,Indonesia,,,,-3.7577044,122.4235351,https://maps.google.com/?cid=0x0:0x4736a1b9bff85990,
komplek housing,komplek housing,Sawa,"Kec. Sawa, Kabupaten Konawe Utara, Sulawesi Tenggara","Kabupaten Konawe Utara, Sulawesi Tenggara",SULAWESI TENGGARA,,Indonesia,,,,-3.7601824,122.415579,https://maps.google.com/?cid=0x0:0xd9eac8d9badbcaf0,
komplek housing,Komplek perumahan,Rumah ikha,"6CP4+P73, Sawa, Kec. Sawa, Kabupaten Konawe Utara, Sulawesi Tenggara 93352","Sawa, Kec. Sawa, Kabupaten Konawe Utara",SULAWESI TENGGARA,93352.0,Indonesia,,,,-3.7632475,122.4056648,https://maps.google.com/?cid=0x0:0xade2972fa9129b19,
komplek housing,Rumah Kayu,Rumah ebe,"6CVC+FXV, Laimeo, Kec. Sawa, Kabupaten Konawe Utara, Sulawesi Tenggara 93352","Laimeo, Kec. Sawa, Kabupaten Konawe Utara",SULAWESI TENGGARA,93352.0,Indonesia,,,,-3.7562615,122.4224275,https://maps.google.com/?cid=0x0:0x79bc8b1d3f806a68,
komplek housing,Rumah wisata,ALEX JOHANIS HOME,"Sawa, Kec. Sawa, Kabupaten Konawe Utara, Sulawesi Tenggara 93352","Kec. Sawa, Kabupaten Konawe Utara",SULAWESI TENGGARA,93352.0,Indonesia,,,,-3.7573561,122.4213733,https://maps.google.com/?cid=0x0:0xcb6e2a0d1a61b6c4,
komplek housing,Komplek perumahan,Rumah fathan,"6CV8+6WV, Jl. Poros Bungku Sel. - Kendari, Sawa, Kec. Sawa, Kabupaten Konawe Utara, Sulawesi Tenggara 93352","Jl. Poros Bungku Sel. - Kendari, Sawa, Kec. Sawa, Kabupaten Konawe Utara",SULAWESI TENGGARA,93352.0,Indonesia,,,,-3.7573249,122.4175382,https://maps.google.com/?cid=0x0:0xf6b8e70dda60bef1,
komplek housing,Komplek perumahan,Rumah papa dzaky,"6CVC+2MC, Sawa, Kec. Sawa, Kabupaten Konawe Utara, Sulawesi Tenggara 93352","Sawa, Kec. Sawa, Kabupaten Konawe Utara",SULAWESI TENGGARA,93352.0,Indonesia,,,,-3.7574227,122.4216614,https://maps.google.com/?cid=0x0:0xd022e798eb5dcf5b,
komplek housing,Komplek perumahan,Rumah Pribadi Rosmini Aras,"7C2F+6GX, Laimeo, Kec. Sawa, Kabupaten Konawe Utara, Sulawesi Tenggara 93352","Laimeo, Kec. Sawa, Kabupaten Konawe Utara",SULAWESI TENGGARA,93352.0,Indonesia,,,,-3.7493995,122.4238691,https://maps.google.com/?cid=0x0:0x4bf320d6991a2a9,
komplek housing,Komplek perumahan,SVA CASA Sawangan by ISPI Group,"Jl. Raya Muchtar, Sawangan Baru, Kec. Sawangan, Kota Depok, Jawa Barat 16511","Sawangan Baru, Kec. Sawangan, Kota Depok",SULAWESI TENGGARA,16511.0,Indonesia, 081519290531,,,-6.4038493,106.7688613,https://maps.google.com/?cid=0x0:0x423fa788f3d00ee5,
komplek housing,Otoritas Perumahan,CLUSTER PREMIER SAVANNA,"MXHP+GQ9, Jl. Tirta Raya, RT.001/RW.008, Bantargebang, Vida, Kota Bks, Jawa Barat","Kota Bks, Jawa Barat",SULAWESI TENGGARA,,Indonesia,,,,-6.3212172,106.9869849,https://maps.google.com/?cid=0x0:0xd55d67d938de1090,
komplek housing,Kompleks Townhouse,Perumahan Antariksa Permai 1,"HWG9+RXV, Jl. Bumi, Bojong Nangka, Kec. Gn. Putri, Kabupaten Bogor, Jawa Barat 16963","Jl. Bumi, Bojong Nangka, Kec. Gn. Putri, Kabupaten Bogor",SULAWESI TENGGARA,16963.0,Indonesia,,,,-6.4228795,106.9199208,https://maps.google.com/?cid=0x0:0xb78a981bbcb75926,
komplek housing,Komplek perumahan,Casa Adara,"RT.006, RW.008, Jatirahayu, Pondok Melati, Bekasi, West Java 17414","RW.008, Jatirahayu, Pondok Melati, Bekasi",SULAWESI TENGGARA,17414.0,Indonesia, 081317706343,,,-6.2971206,106.9221506,https://maps.google.com/?cid=0x0:0xbf33d8f8fb7d4422,
komplek housing,Pembangunan Perumahan,Shila at Sawangan,"Jl. Raya Bojongsari No.53, Bojongsari Lama, Kec. Bojongsari, Kota Depok, Jawa Barat 16517","Bojongsari Lama, Kec. Bojongsari, Kota Depok",SULAWESI TENGGARA,16517.0,Indonesia, 081388854511,,,-6.4014403,106.7429414,https://maps.google.com/?cid=0x0:0x277ab9741aefa5d6,
komplek housing,Perumahan,Perumahan Vida Bekasi,"Bumiwedari Jl. Tirta Utama No.1, Bantargebang, Kec. Bantar Gebang, Kota Bks, Jawa Barat 17151","Bantargebang, Kec. Bantar Gebang, Kota Bks",SULAWESI TENGGARA,17151.0,Indonesia, 08111957006,,,-6.3236174,106.9861136,https://maps.google.com/?cid=0x0:0x874b0cf00b3a1111,
komplek housing,Gedung Apartemen,Podomoro Golf View,"Jalan Mochamad Thohir Cikudai, RT.32/RW.15, Bojong Nangka, Kec. Gn. Putri, Kabupaten Bogor, Jawa Barat 16963","RT.32/RW.15, Bojong Nangka, Kec. Gn. Putri, Kabupaten Bogor",SULAWESI TENGGARA,16963.0,Indonesia, 02156948888,,,-6.4276679,106.8941513,https://maps.google.com/?cid=0x0:0x13e82aa7ed1d9f05,
komplek housing,Komplek perumahan,Rumah baru,"JP4R+7RC Jl.MADU. POK INDUN, Bojongsari Baru, Kec. Sawangan, Kota Depok, Jawa Barat 16516","Bojongsari Baru, Kec. Sawangan, Kota Depok",SULAWESI TENGGARA,16516.0,Indonesia,,,,-6.3943123,106.7420176,https://maps.google.com/?cid=0x0:0x2798bed33ab12de5,
komplek housing,Komplek perumahan,Wawo,"V58C+4C7, Salu Dongka, Kec. Pakue Utara, Kabupaten Kolaka Utara, Sulawesi Tenggara","Kabupaten Kolaka Utara, Sulawesi Tenggara",SULAWESI TENGGARA,,Indonesia,,,,-3.1347227,121.1710389,https://maps.google.com/?cid=0x0:0x5c41f489f7ea101f,
komplek housing,Perhimpunan Pengembang Perumahan,Rumah uswa,"V34Q+G6M, Latali, Kec. Pakue Tengah, Kabupaten Kolaka Utara, Sulawesi Tenggara","Kabupaten Kolaka Utara, Sulawesi Tenggara",SULAWESI TENGGARA,,Indonesia,,,,-3.1436522,121.0880316,https://maps.google.com/?cid=0x0:0xae65c12142816ed3,
komplek housing,komplek housing,Kec. Wawo,"Kabupaten Kolaka Utara, Sulawesi Tenggara","Kabupaten Kolaka Utara, Sulawesi Tenggara",SULAWESI TENGGARA,,Indonesia,,,,-3.6780928,121.0413713,https://maps.google.com/?cid=0x0:0x748e72d6124032b8,
komplek housing,Pembangunan Perumahan,Rumah Bp. Edyson,"FV42+3P2, Kambilo, Kec. Wawo, Kabupaten Bima, Nusa Tenggara Bar. 84181","Kambilo, Kec. Wawo, Kabupaten Bima",SULAWESI TENGGARA,84181.0,Indonesia,,,,-8.5443453,118.8519201,https://maps.google.com/?cid=0x0:0xb488f7cc2da817fe,
komplek housing,Pembangunan Perumahan,Uma Nahu(la karama),"CVQ8+J8V, Jl. Lintas Bima-Sape, Kombo, Kec. Wawo, Kabupaten Bima, Nusa Tenggara Bar. 84181","Jl. Lintas Bima-Sape, Kombo, Kec. Wawo, Kabupaten Bima",SULAWESI TENGGARA,84181.0,Indonesia,,,,-8.5616138,118.8657168,https://maps.google.com/?cid=0x0:0x2975f0f467c03c6a,
komplek housing,Komplek perumahan,Kambilo bima nusa tenggara barat,"FV62+H5X, Kambilo, Kec. Wawo, Kabupaten Bima, Nusa Tenggara Bar. 84181","Kambilo, Kec. Wawo, Kabupaten Bima",SULAWESI TENGGARA,84181.0,Indonesia,,,,-8.5385039,118.8504805,https://maps.google.com/?cid=0x0:0x510f51c6968553c2,
komplek housing,Komplek perumahan,Rumah arjun,"FV72+9GC, Pesa, Kec. Wawo, Kabupaten Bima, Nusa Tenggara Bar. 84181","Pesa, Kec. Wawo, Kabupaten Bima",SULAWESI TENGGARA,84181.0,Indonesia,,,,-8.5358907,118.851635,https://maps.google.com/?cid=0x0:0x44c56a9daea9621e,
komplek housing,Komplek perumahan,Desa Kambilo Kec. Wawo-Bima,"FV62+J8X, Kambilo, Kec. Wawo, Kabupaten Bima, Nusa Tenggara Bar. 84181","Kambilo, Kec. Wawo, Kabupaten Bima",SULAWESI TENGGARA,84181.0,Indonesia,,,,-8.5383792,118.8508701,https://maps.google.com/?cid=0x0:0x5195cfe57f347179,
komplek housing,Komplek perumahan,Rumah Dae Puji,"CVV5+J5Q, Kombo, Kec. Wawo, Kabupaten Bima, Nusa Tenggara Bar. 84181","Kombo, Kec. Wawo, Kabupaten Bima",SULAWESI TENGGARA,84181.0,Indonesia,,,,-8.555924,118.857995,https://maps.google.com/?cid=0x0:0x6ac2bb036592d09b,
komplek housing,Pembangunan Perumahan,Hadisah home,"sahe, Gg. Rade, Kombo, Kec. Wawo, Kabupaten Bima, Nusa Tenggara Bar. 84181","Gg. Rade, Kombo, Kec. Wawo, Kabupaten Bima",SULAWESI TENGGARA,84181.0,Indonesia,,,,-8.5427953,118.8696035,https://maps.google.com/?cid=0x0:0x4c0635d719690fd1,
komplek housing,Komplek perumahan,Rumah Firman,"CVR7+3R, Raba, Kec. Wawo, Kabupaten Bima, Nusa Tenggara Bar. 84181","Raba, Kec. Wawo, Kabupaten Bima",SULAWESI TENGGARA,84181.0,Indonesia,,,,-8.5598387,118.8646406,https://maps.google.com/?cid=0x0:0x2949f9509db26a8b,
komplek housing,Komplek perumahan,Rumah,"CVQ8+J8V, Jl. Lintas Bima-Sape, Kombo, Kec. Wawo, Kabupaten Bima, Nusa Tenggara Bar. 84181","Jl. Lintas Bima-Sape, Kombo, Kec. Wawo, Kabupaten Bima",SULAWESI TENGGARA,84181.0,Indonesia,,,,-8.5608618,118.8658315,https://maps.google.com/?cid=0x0:0xa709763f28433fb1,
komplek housing,komplek housing,Rumah M.Yakub Sahidu,"CVQ7+8F4, Kombo, Kec. Wawo, Kabupaten Bima, Nusa Tenggara Bar. 84181","Kombo, Kec. Wawo, Kabupaten Bima",SULAWESI TENGGARA,84181.0,Indonesia,,,,-8.5617437,118.8637062,https://maps.google.com/?cid=0x0:0xb121db3da6a1fa16,
komplek housing,Komplek perumahan,My Home,"CVQ7+GQM, Jl. Lintas Bima-Sape, Raba, Kec. Wawo, Kabupaten Bima, Nusa Tenggara Bar. 84181","Jl. Lintas Bima-Sape, Raba, Kec. Wawo, Kabupaten Bima",SULAWESI TENGGARA,84181.0,Indonesia,,,,-8.5611503,118.8644113,https://maps.google.com/?cid=0x0:0x3b63bd7774850e2d,
komplek housing,Pembangunan Perumahan,Isma'il,"CVP8+XFF, Raba, Kec. Wawo, Kabupaten Bima, Nusa Tenggara Bar. 84181","Raba, Kec. Wawo, Kabupaten Bima",SULAWESI TENGGARA,84181.0,Indonesia,,,,-8.5625616,118.8661782,https://maps.google.com/?cid=0x0:0x944eb6850b99e9de,
komplek housing,Kios,Fana cell,"CVVQ+6GF, RT.12, Raba, Kec. Wawo, Kabupaten Bima, Nusa Tenggara Bar. 84181","RT.12, Raba, Kec. Wawo, Kabupaten Bima",SULAWESI TENGGARA,84181.0,Indonesia,,,,-8.556925,118.8887949,https://maps.google.com/?cid=0x0:0xe063c191c9c8dffe,
komplek housing,Komplek perumahan,Warung baba teho,"FV62+VMG, Kambilo, Kec. Wawo, Kabupaten Bima, Nusa Tenggara Bar. 84181","Kambilo, Kec. Wawo, Kabupaten Bima",SULAWESI TENGGARA,84181.0,Indonesia,,,,-8.53781,118.8517071,https://maps.google.com/?cid=0x0:0x8d3809d7180aa89f,
komplek housing,komplek housing,Wawo,"Kec. Wawo, Kabupaten Kolaka Utara, Sulawesi Tenggara","Kabupaten Kolaka Utara, Sulawesi Tenggara",SULAWESI TENGGARA,,Indonesia,,,,-3.626778,121.2111216,https://maps.google.com/?cid=0x0:0xef2b57cc80b408df,
komplek housing,komplek housing,Sulawesi Tenggara 93956,"Kabupaten Kolaka Utara, Sulawesi Tenggara","Kabupaten Kolaka Utara, Sulawesi Tenggara",SULAWESI TENGGARA,,Indonesia,,,,-3.5905204,121.1252135,https://maps.google.com/?cid=0x0:0x65e443ed518d4559,
komplek housing,Komplek perumahan,"Ulu Wawo, Kecamatan Wawo, Kabupaten Kolaka Utara","826M+7QQ, Ulu Wawo, Kec. Wawo, Kabupaten Kolaka Utara, Sulawesi Tenggara 93956","Ulu Wawo, Kec. Wawo, Kabupaten Kolaka Utara",SULAWESI TENGGARA,93956.0,Indonesia,,,,-3.6892787,121.034485,https://maps.google.com/?cid=0x0:0xbbc2c230e91d08ab,
komplek housing,Komplek perumahan,Rumah Feri,"826P+Q8C, Ulu Wawo, Kec. Wawo, Kabupaten Kolaka Utara, Sulawesi Tenggara 93956","Ulu Wawo, Kec. Wawo, Kabupaten Kolaka Utara",SULAWESI TENGGARA,93956.0,Indonesia,,,,-3.6880679,121.0357523,https://maps.google.com/?cid=0x0:0x5ec6f1d58f604ed4,
komplek housing,Komplek perumahan,Harianto,"Bukit Mekongga Permai, Walasiho, Kec. Wawo, Kabupaten Kolaka Utara, Sulawesi Tenggara 93552","Walasiho, Kec. Wawo, Kabupaten Kolaka Utara",SULAWESI TENGGARA,93552.0,Indonesia,,,,-3.665,121.2358333,https://maps.google.com/?cid=0x0:0xaf2f8db6000352ba,
komplek housing,Komplek perumahan,Drs Sumarno,"828W+H74, Jl. Poros Ranteangin - Kolaka, Wawo, Kec. Wawo, Kabupaten Kolaka Utara, Sulawesi Tenggara 93956","Jl. Poros Ranteangin - Kolaka, Wawo, Kec. Wawo, Kabupaten Kolaka Utara",SULAWESI TENGGARA,93956.0,Indonesia,,,,-3.6834496,121.04593,https://maps.google.com/?cid=0x0:0xa2d2ada14660712,
komplek housing,Komplek perumahan,Dusun II desa Ulu Wawo,"827M+RMF, Ulu Wawo, Kec. Wawo, Kabupaten Kolaka Utara, Sulawesi Tenggara 93956","Ulu Wawo, Kec. Wawo, Kabupaten Kolaka Utara",SULAWESI TENGGARA,93956.0,Indonesia,,,,-3.6854496,121.0341839,https://maps.google.com/?cid=0x0:0x2468207f8a50d3bb,
komplek housing,Komplek perumahan,Rumah masse,"9XHJ+QHX, Woise, Kec. Lambai, Kabupaten Kolaka Utara, Sulawesi Tenggara 93956","Woise, Kec. Lambai, Kabupaten Kolaka Utara",SULAWESI TENGGARA,93956.0,Indonesia,,,,-3.6205106,120.981498,https://maps.google.com/?cid=0x0:0x431fdd63135be213,
komplek housing,Komplek perumahan,Rumah Papa Accu,"92R4+3H, Lambai, Kec. Lambai, Kabupaten Kolaka Utara, Sulawesi Tenggara 93956","Lambai, Kec. Lambai, Kabupaten Kolaka Utara",SULAWESI TENGGARA,93956.0,Indonesia,,,,-3.6097292,121.0063637,https://maps.google.com/?cid=0x0:0x5cb257d88c374331,
komplek housing,Komplek perumahan,Rmh pa Geri,"82PW+MJW, Jln trans Sulawesi, Puumbolo, Kec. Wawo, Kabupaten Kolaka Utara, Sulawesi Tenggara 93956","Jln trans Sulawesi, Puumbolo, Kec. Wawo, Kabupaten Kolaka Utara",SULAWESI TENGGARA,93956.0,Indonesia,,,,-3.6632722,121.0465931,https://maps.google.com/?cid=0x0:0xec441fb1363090b1,
komplek housing,komplek housing,Muh. Zaigham matin lais b,"9244+CP6, Torotuo, Kecamatan Rante Angin, Kabupaten Kolaka Utara, Sulawesi Tenggara 93956","Torotuo, Kecamatan Rante Angin, Kabupaten Kolaka Utara",SULAWESI TENGGARA,93956.0,Indonesia,,,,-3.6439606,121.006767,https://maps.google.com/?cid=0x0:0x385cb77980d0d802,
komplek housing,Komplek perumahan,Rumah umi manis,"83V2+3X2, Jl. Poros Ranteangin - Kolaka, Salurengko, Kec. Wawo, Kabupaten Kolaka Utara, Sulawesi Tenggara 93956","Jl. Poros Ranteangin - Kolaka, Salurengko, Kec. Wawo, Kabupaten Kolaka Utara",SULAWESI TENGGARA,93956.0,Indonesia,,,,-3.6572048,121.0521926,https://maps.google.com/?cid=0x0:0xa8829226311b4c69,
komplek housing,Komplek perumahan,Aul's Home,"82CC+FPH, Landolia, Kecamatan Rante Angin, Kabupaten Kolaka Utara, Sulawesi Tenggara 93956","Landolia, Kecamatan Rante Angin, Kabupaten Kolaka Utara",SULAWESI TENGGARA,93956.0,Indonesia,,,,-3.6789833,121.021855,https://maps.google.com/?cid=0x0:0xe84d69e473d75816,
komplek housing,Komplek perumahan,Rumah oktazahra,"blog D, Bukit Mekongga permai, Walasiho, Kec. Wawo, Kabupaten Kolaka Utara, Sulawesi Tenggara 93552","Bukit Mekongga permai, Walasiho, Kec. Wawo, Kabupaten Kolaka Utara",SULAWESI TENGGARA,93552.0,Indonesia,,,,-3.665,121.2358333,https://maps.google.com/?cid=0x0:0x9cc7b487a167676b,
komplek housing,Komplek perumahan,Rumah H.Rimba Yusuf,"82WP+PH9, Rante Baru, Kecamatan Rante Angin, Kabupaten Kolaka Utara, Sulawesi Tenggara 93956","Rante Baru, Kecamatan Rante Angin, Kabupaten Kolaka Utara",SULAWESI TENGGARA,93956.0,Indonesia,,,,-3.6699477,121.0288489,https://maps.google.com/?cid=0x0:0x7d52277460c2a706,
komplek housing,Komplek perumahan,landolia,"82FF+795, Landolia, Kecamatan Rante Angin, Kabupaten Kolaka Utara, Sulawesi Tenggara 93956","Landolia, Kecamatan Rante Angin, Kabupaten Kolaka Utara",SULAWESI TENGGARA,93956.0,Indonesia,,,,-3.6768563,121.0234757,https://maps.google.com/?cid=0x0:0x82e97156b01ec747,
komplek housing,Komplek perumahan,Rendy,"828R+3C9, Wawo, Kec. Wawo, Kabupaten Kolaka Utara, Sulawesi Tenggara","Kabupaten Kolaka Utara, Sulawesi Tenggara",SULAWESI TENGGARA,,Indonesia,,,,-3.6848271,121.041094,https://maps.google.com/?cid=0x0:0x7e70aadbf9d0548,
komplek housing,Komplek perumahan,"Mosso,kecamatan tehoru","9XGJ+VFW, Jl. Poros Ranteangin - Kolaka, Woise, Kec. Lambai, Kabupaten Kolaka Utara, Sulawesi Tenggara 93916","Jl. Poros Ranteangin - Kolaka, Woise, Kec. Lambai, Kabupaten Kolaka Utara",SULAWESI TENGGARA,93916.0,Indonesia,,,,-3.6220077,120.9817244,https://maps.google.com/?cid=0x0:0xfabef053479558d8,
komplek housing,Komplek perumahan,My home,"82PJ+4XH, Jln lapatudu, Rante Baru, Kecamatan Rante Angin, Kabupaten Kolaka Utara, Sulawesi Tenggara 93956","Jln lapatudu, Rante Baru, Kecamatan Rante Angin, Kabupaten Kolaka Utara",SULAWESI TENGGARA,93956.0,Indonesia,,,,-3.6646843,121.0324951,https://maps.google.com/?cid=0x0:0x5db0360e74dccebc,
komplek housing,Komplek perumahan,My home,"82WP+PH2, Jln lapatudu, Rante Baru, Kecamatan Rante Angin, Kabupaten Kolaka Utara, Sulawesi Tenggara 93956","Jln lapatudu, Rante Baru, Kecamatan Rante Angin, Kabupaten Kolaka Utara",SULAWESI TENGGARA,93956.0,Indonesia,,,,-3.6532466,121.0363768,https://maps.google.com/?cid=0x0:0x1e45c3866f89da60,
komplek housing,komplek housing,Rumah Purna sari Kadie,"C26H+34J, Lorong safruddin, Woise, Kec. Lambai, Kabupaten Kolaka Utara, Sulawesi Tenggara","Kabupaten Kolaka Utara, Sulawesi Tenggara",SULAWESI TENGGARA,,Indonesia,,,,-3.5897971,121.0277763,https://maps.google.com/?cid=0x0:0xf691da378117472d,
komplek housing,komplek housing,Kec. Wawo,"Kabupaten Kolaka Utara, Sulawesi Tenggara","Kabupaten Kolaka Utara, Sulawesi Tenggara",SULAWESI TENGGARA,,Indonesia,,,,-3.6780928,121.0413713,https://maps.google.com/?cid=0x0:0x748e72d6124032b8,
komplek housing,komplek housing,Kec. Wiwirano,"Kabupaten Konawe Utara, Sulawesi Tenggara","Kabupaten Konawe Utara, Sulawesi Tenggara",SULAWESI TENGGARA,,Indonesia,,,,-3.2091132,122.0382856,https://maps.google.com/?cid=0x0:0x37bb842a30575097,
komplek housing,komplek housing,Wiwirano,"Bahomotefe, Kec. Bungku Timur, Kabupaten Morowali, Sulawesi Tengah","Kabupaten Morowali, Sulawesi Tengah",SULAWESI TENGGARA,,Indonesia,,,,-2.766667,121.783333,https://maps.google.com/?cid=0x0:0x30f54da4b06ea,
komplek housing,komplek housing,Sulawesi Tenggara,,Sulawesi Tenggara,SULAWESI TENGGARA,,Indonesia,,,,-4.14491,122.174605,https://maps.google.com/?cid=0x0:0x621d7c439f04a4ed,
komplek housing,Pembangunan Perumahan,Hasman,"Q5C3+384, Wacu Malewe, Kec. Wiwirano, Kabupaten Konawe Utara, Sulawesi Tenggara 93353","Wacu Malewe, Kec. Wiwirano, Kabupaten Konawe Utara",SULAWESI TENGGARA,93353.0,Indonesia,,,,-3.2298618,122.1533164,https://maps.google.com/?cid=0x0:0x9c233562b00e45d3,
komplek housing,Komplek perumahan,Rumah TN Saharudin,"Q532+82G, Lamonae, Kec. Wiwirano, Kabupaten Konawe Utara, Sulawesi Tenggara 93353","Lamonae, Kec. Wiwirano, Kabupaten Konawe Utara",SULAWESI TENGGARA,93353.0,Indonesia,,,,-3.2466921,122.1500712,https://maps.google.com/?cid=0x0:0x47c163e2970949cf,
komplek housing,Komplek perumahan,Muhrim,"R427+VHJ, Lamparinga (Upt Padalere), Kec. Wiwirano, Kabupaten Konawe Utara, Sulawesi Tenggara 93353","Lamparinga (Upt Padalere), Kec. Wiwirano, Kabupaten Konawe Utara",SULAWESI TENGGARA,93353.0,Indonesia,,,,-3.1977814,122.1138984,https://maps.google.com/?cid=0x0:0x3a8c8ef7347c88a,
komplek housing,komplek housing,kadek agus budiarta,"P57G+8H, Hialu Utama (Upt. Hialu II), Kec. Wiwirano, Kabupaten Konawe Utara, Sulawesi Tenggara 93353","Hialu Utama (Upt. Hialu II), Kec. Wiwirano, Kabupaten Konawe Utara",SULAWESI TENGGARA,93353.0,Indonesia,,,,-3.2860733,122.1760808,https://maps.google.com/?cid=0x0:0x92adf909da2c89be,
komplek housing,Komplek perumahan,Rumah Made Medana,"P575+HC3, Kolosua, Kec. Wiwirano, Kabupaten Konawe Utara, Sulawesi Tenggara 93353","Kolosua, Kec. Wiwirano, Kabupaten Konawe Utara",SULAWESI TENGGARA,93353.0,Indonesia, 085255007269,,,-3.2857456,122.157425,https://maps.google.com/?cid=0x0:0x35ce649bd92090c2,
komplek housing,Komplek perumahan,Rumah Mubarak,"Q46J+HVC, Lamonae Utama, Kec. Wiwirano, Kabupaten Konawe Utara, Sulawesi Tenggara 93353","Lamonae Utama, Kec. Wiwirano, Kabupaten Konawe Utara",SULAWESI TENGGARA,93353.0,Indonesia,,,,-3.2385264,122.1321402,https://maps.google.com/?cid=0x0:0x3e2e6392ddfaf108,
komplek housing,Kantor Pemerintah,Desa Kolosua,"P574+V2, Kolosua, Kec. Wiwirano, Kabupaten Konawe Utara, Sulawesi Tenggara 93353","Kolosua, Kec. Wiwirano, Kabupaten Konawe Utara",SULAWESI TENGGARA,93353.0,Indonesia,,,,-3.285865,122.15389,https://maps.google.com/?cid=0x0:0x38f589299e7d1978,
komplek housing,Kantor Perusahaan,Desa Lamonae Utama,"P3JC+MX6, Lamonae Utama, Kec. Wiwirano, Kabupaten Konawe Utara, Sulawesi Tenggara 93353","Lamonae Utama, Kec. Wiwirano, Kabupaten Konawe Utara",SULAWESI TENGGARA,93353.0,Indonesia,,,,-3.2683391,122.0723886,https://maps.google.com/?cid=0x0:0xd79836a57038d2b4,
komplek housing,Komplek perumahan,Rumah Kadek Dwi,"R44C+GQM, Lamparinga (Upt Padalere), Kec. Wiwirano, Kabupaten Konawe Utara, Sulawesi Tenggara 93353","Lamparinga (Upt Padalere), Kec. Wiwirano, Kabupaten Konawe Utara",SULAWESI TENGGARA,93353.0,Indonesia,,,,-3.1936669,122.1219162,https://maps.google.com/?cid=0x0:0x81c6b64240ed4667,
komplek housing,Perhimpunan Pengembang Perumahan,Irman Mopute,"J3C5+G5V, Jl. Poros Lamonae-Landawe, Wiwirano, Kec. Oheo, Kabupaten Konawe Utara, Sulawesi Tenggara 93353","Jl. Poros Lamonae-Landawe, Wiwirano, Kec. Oheo, Kabupaten Konawe Utara",SULAWESI TENGGARA,93353.0,Indonesia,,,,-3.3786378,122.0579325,https://maps.google.com/?cid=0x0:0xbe3bdec467b84f2c,
komplek housing,komplek housing,rumah kak runtun,"P56C+HPR, Hialu Utama (Upt. Hialu II), Kec. Wiwirano, Kabupaten Konawe Utara, Sulawesi Tenggara 93353","Hialu Utama (Upt. Hialu II), Kec. Wiwirano, Kabupaten Konawe Utara",SULAWESI TENGGARA,93353.0,Indonesia,,,,-3.2887694,122.1719653,https://maps.google.com/?cid=0x0:0x28988007b29291c3,
komplek housing,Produsen,Pabrik tahu,"P56C+HPR, Hialu Utama (Upt. Hialu II), Kec. Wiwirano, Kabupaten Konawe Utara, Sulawesi Tenggara 93353","Hialu Utama (Upt. Hialu II), Kec. Wiwirano, Kabupaten Konawe Utara",SULAWESI TENGGARA,93353.0,Indonesia,,,,-3.2880736,122.171985,https://maps.google.com/?cid=0x0:0x4fef420dfbee489b,
komplek housing,Komplek perumahan,Desa lamparinga,"Q4X6+4V6, Lamparinga (Upt Padalere), Kec. Wiwirano, Kabupaten Konawe Utara, Sulawesi Tenggara 93353","Lamparinga (Upt Padalere), Kec. Wiwirano, Kabupaten Konawe Utara",SULAWESI TENGGARA,93353.0,Indonesia,,,,-3.2022173,122.1121466,https://maps.google.com/?cid=0x0:0x308b1416a18fe75f,
perumahan,perumahan,Kec. Andowia,"Kabupaten Konawe Utara, Sulawesi Tenggara","Kabupaten Konawe Utara, Sulawesi Tenggara",SULAWESI TENGGARA,,Indonesia,,,,-3.5296127,122.1341414,https://maps.google.com/?cid=0x0:0x8e970052e7091e41,
perumahan,perumahan,Sulawesi Tenggara 93353,Sulawesi Tenggara,Sulawesi Tenggara,SULAWESI TENGGARA,,Indonesia,,,,-3.2548527,121.7195459,https://maps.google.com/?cid=0x0:0x9fb3fe070f9105ac,
perumahan,Kantor Perusahaan,Desa puuwonua,"F4PW+XR4, Unnamed Road, Laronanga, Kec. Andowia, Kabupaten Konawe Utara, Sulawesi Tenggara 93353","Unnamed Road, Laronanga, Kec. Andowia, Kabupaten Konawe Utara",SULAWESI TENGGARA,93353.0,Indonesia,,,,-3.5126014,122.1470899,https://maps.google.com/?cid=0x0:0x727b4d50bc102c46,
perumahan,Perumahan,"Desa Puusuli, kabupaten Konawe Utara, Sulawesi tenggara","F5H8+8Q6, Laronanga, Kec. Andowia, Kabupaten Konawe Utara, Sulawesi Tenggara","Kabupaten Konawe Utara, Sulawesi Tenggara",SULAWESI TENGGARA,,Indonesia, 0877837255869,,,-3.5217165,122.1668957,https://maps.google.com/?cid=0x0:0x37b5fa2fb214226b,
perumahan,Komplek perumahan,Rumahnya bonje,"F48Q+5XR, Lamondowo, Kec. Andowia, Kabupaten Konawe Utara, Sulawesi Tenggara 93353","Lamondowo, Kec. Andowia, Kabupaten Konawe Utara",SULAWESI TENGGARA,93353.0,Indonesia,,,,-3.5342756,122.1397849,https://maps.google.com/?cid=0x0:0x669781ae6f29c3b4,
perumahan,Komplek perumahan,Huntara Desa Puuwonua,"F4JV+5RJ, Laronanga, Kec. Andowia, Kabupaten Konawe Utara, Sulawesi Tenggara 93353","Laronanga, Kec. Andowia, Kabupaten Konawe Utara",SULAWESI TENGGARA,93353.0,Indonesia,,,,-3.5195484,122.144526,https://maps.google.com/?cid=0x0:0x2dc4421e9dc55792,
perumahan,Komplek perumahan,Desa anggolohipo,"F49M+XHQ, Andowia, Kec. Andowia, Kabupaten Konawe Utara, Sulawesi Tenggara 93353","Andowia, Kec. Andowia, Kabupaten Konawe Utara",SULAWESI TENGGARA,93353.0,Indonesia,,,,-3.5300311,122.1339952,https://maps.google.com/?cid=0x0:0x5d0d4bbdd3329f2d,
perumahan,Perhimpunan Pengembang Perumahan,kantor sekretariat PPK. Andowia,"F4MQ+943, Wanggudu, Kec. Asera, Kabupaten Konawe Utara, Sulawesi Tenggara 93353","Wanggudu, Kec. Asera, Kabupaten Konawe Utara",SULAWESI TENGGARA,93353.0,Indonesia,,,,-3.5166116,122.1377875,https://maps.google.com/?cid=0x0:0x91acdd2d561fdd71,
perumahan,Perumahan,Sekret Andowia Squad,"F4GP+55F, Labungga, Kec. Andowia, Kabupaten Konawe Utara, Sulawesi Tenggara","Kabupaten Konawe Utara, Sulawesi Tenggara",SULAWESI TENGGARA,,Indonesia,,,,-3.5245675,122.1354326,https://maps.google.com/?cid=0x0:0x862cf0c40e53bac9,
perumahan,Komplek perumahan,Rumah Neri,"F392+JH, Lambudoni, Kec. Andowia, Kabupaten Konawe Utara, Sulawesi Tenggara","Kabupaten Konawe Utara, Sulawesi Tenggara",SULAWESI TENGGARA,,Indonesia,,,,-3.5309162,122.0513961,https://maps.google.com/?cid=0x0:0xa4beb4a7653db968,
perumahan,Komplek perumahan,Rumah jihad Alriyadi,"F4GP+772, Andowia, Kec. Andowia, Kabupaten Konawe Utara, Sulawesi Tenggara","Kabupaten Konawe Utara, Sulawesi Tenggara",SULAWESI TENGGARA,,Indonesia,,,,-3.5243662,122.1356438,https://maps.google.com/?cid=0x0:0xf1e99c09de000371,
perumahan,Komplek perumahan,Rumah Bubu Naunceng,"F4FM+3P4, Andowia, Kec. Andowia, Kabupaten Konawe Utara, Sulawesi Tenggara","Kabupaten Konawe Utara, Sulawesi Tenggara",SULAWESI TENGGARA,,Indonesia,,,,-3.5273586,122.1343355,https://maps.google.com/?cid=0x0:0x47a48fec97e45159,
perumahan,Komplek perumahan,Kost Tiga Satu,"F4G7+FH7, Desa Ambake, Kec. Andowia, Kabupaten Konawe Utara, Sulawesi Tenggara 93353","Desa Ambake, Kec. Andowia, Kabupaten Konawe Utara",SULAWESI TENGGARA,93353.0,Indonesia,,,,-3.5236732,122.1143561,https://maps.google.com/?cid=0x0:0x2da669a2145ba685,
perumahan,Komplek perumahan,Hj. Hariani Aziz Pagala,"F4CJ+CH2, Andowia, Kec. Andowia, Kabupaten Konawe Utara, Sulawesi Tenggara","Kabupaten Konawe Utara, Sulawesi Tenggara",SULAWESI TENGGARA,,Indonesia,,,,-3.5289994,122.1314222,https://maps.google.com/?cid=0x0:0xbe6055025e6704af,
perumahan,Komplek perumahan,Kampung mertua,"F4QV+FCG, Jl. Pelabuhan, Labungga, Kec. Andowia, Kabupaten Konawe Utara, Sulawesi Tenggara 93353","Jl. Pelabuhan, Labungga, Kec. Andowia, Kabupaten Konawe Utara",SULAWESI TENGGARA,93353.0,Indonesia,,,,-3.5095669,122.1448615,https://maps.google.com/?cid=0x0:0xe24cc472014a462f,
perumahan,Perumahan,Keluar As,"F4CM+VG9, Jalan bulu, bulusa, Kec. Andowia, Kabupaten Konawe Utara, Sulawesi Tenggara","Kabupaten Konawe Utara, Sulawesi Tenggara",SULAWESI TENGGARA,,Indonesia,,,,-3.5278475,122.1338692,https://maps.google.com/?cid=0x0:0xa3fe3391928dbe7d,
perumahan,Pembangunan Perumahan,Rmh,"F49M+VRV, Jl. Poros Bungku Sel. - Kendari, Andowia, Kec. Andowia, Kabupaten Konawe Utara, Sulawesi Tenggara 93353","Jl. Poros Bungku Sel. - Kendari, Andowia, Kec. Andowia, Kabupaten Konawe Utara",SULAWESI TENGGARA,93353.0,Indonesia,,,,-3.5302715,122.1345613,https://maps.google.com/?cid=0x0:0x6401592415c9d9d5,
perumahan,Pembangunan Perumahan,Hunian Sementara (Huntara) Desa Puusuli,"F5H8+6MV, Desa, Puusuli, Kec. Andowia, Kabupaten Konawe Utara, Sulawesi Tenggara","Kabupaten Konawe Utara, Sulawesi Tenggara",SULAWESI TENGGARA,,Indonesia,,,,-3.5218952,122.166681,https://maps.google.com/?cid=0x0:0x93866deadc9ee3a2,
perumahan,Komplek perumahan,RUMAH UYENG,"F48Q+2F8, Lamondowo, Kec. Andowia, Kabupaten Konawe Utara, Sulawesi Tenggara","Kabupaten Konawe Utara, Sulawesi Tenggara",SULAWESI TENGGARA,,Indonesia,,,,-3.534972,122.1387018,https://maps.google.com/?cid=0x0:0x6f38e62345735874,
perumahan,Komplek perumahan,Home Rarafa,"F4CM+5M2, Andowia, Kec. Andowia, Kabupaten Konawe Utara, Sulawesi Tenggara","Kabupaten Konawe Utara, Sulawesi Tenggara",SULAWESI TENGGARA,,Indonesia,,,,-3.5296127,122.1341414,https://maps.google.com/?cid=0x0:0x8b905d775eae2ee1,
perumahan,Komplek perumahan,Rumahnya Mas Yon,"C3X4+Q48, Lamondowo, Kec. Andowia, Kabupaten Konawe Utara, Sulawesi Tenggara","Kabupaten Konawe Utara, Sulawesi Tenggara",SULAWESI TENGGARA,,Indonesia,,,,-3.5505968,122.0553349,https://maps.google.com/?cid=0x0:0x5f0ad124caaae37c,
perumahan,Komplek perumahan,Griya Lahimbua,"F45R+98V, Lahimbua, Kec. Andowia, Kabupaten Konawe Utara, Sulawesi Tenggara 93353","Lahimbua, Kec. Andowia, Kabupaten Konawe Utara",SULAWESI TENGGARA,93353.0,Indonesia, 082386666006,,,-3.5415071,122.1407848,https://maps.google.com/?cid=0x0:0x173cb5d43fcd076d,
perumahan,perumahan,Asera,"Asemi Nunulai, Kec. Asera, Kabupaten Konawe Utara, Sulawesi Tenggara","Kabupaten Konawe Utara, Sulawesi Tenggara",SULAWESI TENGGARA,,Indonesia,,,,-3.392804,121.749397,https://maps.google.com/?cid=0x0:0x8f84b31c6568f881,
perumahan,Komplek perumahan,Adhan Razak,"JP4X+VQC, Asemi Nunulai, Kec. Asera, Kabupaten Konawe Utara, Sulawesi Tenggara","Kabupaten Konawe Utara, Sulawesi Tenggara",SULAWESI TENGGARA,,Indonesia,,,,-3.392804,121.749397,https://maps.google.com/?cid=0x0:0x5137ed84c24d615c,
perumahan,perumahan,Perumahan Bukit Asera Moncongloe,"Blok I No.mor 4, Perumahan, Bukit, Kec. Asera, Kabupaten Konawe Utara, Sulawesi Tenggara","Kabupaten Konawe Utara, Sulawesi Tenggara",SULAWESI TENGGARA,,Indonesia,,,,-3.392804,121.749397,https://maps.google.com/?cid=0x0:0x9e500a34a34482c8,
perumahan,Perumahan,Perumahan Asera Residence,"VHF3+C8H, Jl. Rambutan, Bulu, Kec. Moncong Loe, Kabupaten Maros, Sulawesi Selatan 90562","Jl. Rambutan, Bulu, Kec. Moncong Loe, Kabupaten Maros",SULAWESI TENGGARA,90562.0,Indonesia,,,,-5.1264401,119.5533688,https://maps.google.com/?cid=0x0:0xadedd4c4f315bd26,
perumahan,Perumahan,Perumahan Asera Permai,"XG8C+FQ4, Tellumpoccoe, Kec. Marusu, Kabupaten Maros, Sulawesi Selatan 90552","Tellumpoccoe, Kec. Marusu, Kabupaten Maros",SULAWESI TENGGARA,90552.0,Indonesia, 085299521243,,,-5.0343837,119.5238129,https://maps.google.com/?cid=0x0:0xe0b0355015dff72,
perumahan,Perumahan,Perumahan Asera Regency,"XG9F+R2J, Tellumpoccoe, Kec. Marusu, Kabupaten Maros, Sulawesi Selatan 90552","Tellumpoccoe, Kec. Marusu, Kabupaten Maros",SULAWESI TENGGARA,90552.0,Indonesia, 085242533379,,,-5.029981,119.5232289,https://maps.google.com/?cid=0x0:0x81f6f4ab43233b2f,
perumahan,Komplek perumahan,Perumahan Asera Estate Galesong,"Q96W+5VV, Jl. Pendidikan, Bontolanra, Kec. Galesong Utara, Kabupaten Takalar, Sulawesi Selatan 92255","Jl. Pendidikan, Bontolanra, Kec. Galesong Utara, Kabupaten Takalar",SULAWESI TENGGARA,92255.0,Indonesia,,,,-5.2393188,119.3976438,https://maps.google.com/?cid=0x0:0x49973fe1e5403c2f,
perumahan,Perumahan,Asera Griya Harapan,"QF58+VC2, Tetebatu, Kec. Pallangga, Kabupaten Gowa, Sulawesi Selatan 92161","Tetebatu, Kec. Pallangga, Kabupaten Gowa",SULAWESI TENGGARA,92161.0,Indonesia,,,,-5.2405828,119.4660629,https://maps.google.com/?cid=0x0:0x24791a00374ff463,
perumahan,Perumahan,Lahimbua asera,"F47P+RV6 Penginapan, Amatoa, Asera, North Konawe Regency, South East Sulawesi","Kabupaten Konawe Utara, Sulawesi Tenggara",SULAWESI TENGGARA,,Indonesia,,,,-3.5354531,122.1371349,https://maps.google.com/?cid=0x0:0xa98498a0d7619d8d,
perumahan,perumahan,Kecamatan Langgikima,"Kabupaten Konawe Utara, Sulawesi Tenggara","Kabupaten Konawe Utara, Sulawesi Tenggara",SULAWESI TENGGARA,,Indonesia,,,,-3.2937576,122.2336267,https://maps.google.com/?cid=0x0:0x84f471fa9a20e886,
perumahan,Pasar,Pasar,"P64M+MP9, Pariama, Kecamatan Langgikima, Kabupaten Konawe Utara, Sulawesi Tenggara","Kabupaten Konawe Utara, Sulawesi Tenggara",SULAWESI TENGGARA,,Indonesia,,,,-3.2933415,122.2343487,https://maps.google.com/?cid=0x0:0xd9f8c9fd633a722,
perumahan,Perumahan,PENGINAPAN RIKA,"J6RV+J6F, Upt. Morombo/Tobimeita, Kecamatan Langgikima, Kabupaten Konawe Utara, Sulawesi Tenggara 93352","Upt. Morombo/Tobimeita, Kecamatan Langgikima, Kabupaten Konawe Utara",SULAWESI TENGGARA,93352.0,Indonesia, 085333695368,,,-3.3584262,122.2430415,https://maps.google.com/?cid=0x0:0xd957b90cb2bedb14,
perumahan,Komplek perumahan,RUMAH PAK HARUN,"J6RV+37, Upt. Morombo/Tobimeita, Kecamatan Langgikima, Kabupaten Konawe Utara, Sulawesi Tenggara","Kabupaten Konawe Utara, Sulawesi Tenggara",SULAWESI TENGGARA,,Indonesia,,,,-3.3597985,122.2432094,https://maps.google.com/?cid=0x0:0xb2edfe749981ad6e,
perumahan,perumahan,Rumah murayak,"M6WQ+X2, jalan bogenvil, dusun 2, Pariama, Kecamatan Langgikima, Kabupaten Konawe Utara, Sulawesi Tenggara","Kabupaten Konawe Utara, Sulawesi Tenggara",SULAWESI TENGGARA,,Indonesia,,,,-3.3028656,122.2379358,https://maps.google.com/?cid=0x0:0x8bcd0a72414b6abb,
perumahan,Komplek perumahan,Kost niar,"M7RC+RH9, Molore, Kecamatan Langgikima, Kabupaten Konawe Utara, Sulawesi Tenggara","Kabupaten Konawe Utara, Sulawesi Tenggara",SULAWESI TENGGARA,,Indonesia,,,,-3.3079634,122.2714765,https://maps.google.com/?cid=0x0:0x913dfe2c521b33fe,
perumahan,perumahan,Kurayak,"M6RM+VM8, Pariama, Kecamatan Langgikima, Kabupaten Konawe Utara, Sulawesi Tenggara","Kabupaten Konawe Utara, Sulawesi Tenggara",SULAWESI TENGGARA,,Indonesia,,,,-3.307829,122.2341905,https://maps.google.com/?cid=0x0:0x2996bc29a298262f,
perumahan,Pembangunan Perumahan,Mes u ppa langikima,"P68J+8PV, Molore, Kecamatan Langgikima, Kabupaten Konawe Utara, Sulawesi Tenggara","Kabupaten Konawe Utara, Sulawesi Tenggara",SULAWESI TENGGARA,,Indonesia,,,,-3.2841484,122.2318013,https://maps.google.com/?cid=0x0:0x6a73cc34b588f686,
perumahan,Pembangunan Perumahan,Lokasi parkir unit,"M5PH+Q8, Polora Indah, Kecamatan Langgikima, Kabupaten Konawe Utara, Sulawesi Tenggara","Kabupaten Konawe Utara, Sulawesi Tenggara",SULAWESI TENGGARA,,Indonesia,,,,-3.31309,122.1782777,https://maps.google.com/?cid=0x0:0x47afa10e5c576f07,
perumahan,Komplek perumahan,Kos kosa papa fit,"M7QG+WJH, Molore, Kecamatan Langgikima, Kabupaten Konawe Utara, Sulawesi Tenggara 93352","Molore, Kecamatan Langgikima, Kabupaten Konawe Utara",SULAWESI TENGGARA,93352.0,Indonesia, 082188141164,,,-3.3096771,122.2769935,https://maps.google.com/?cid=0x0:0x80e2bae9da55b83,
perumahan,Komplek perumahan,Kos. H NURDIN,"P66M+G59, Molore, Kecamatan Langgikima, Kabupaten Konawe Utara, Sulawesi Tenggara","Kabupaten Konawe Utara, Sulawesi Tenggara",SULAWESI TENGGARA,,Indonesia,,,,-3.2887106,122.2329979,https://maps.google.com/?cid=0x0:0x8e8974570f2edc4f,
perumahan,Kantor Perusahaan,Lameruru,"P72R+75G, desa, Lameruru, Kecamatan Langgikima, Kabupaten Konawe Utara, Sulawesi Tenggara","Kabupaten Konawe Utara, Sulawesi Tenggara",SULAWESI TENGGARA,,Indonesia,,,,-3.2993064,122.290465,https://maps.google.com/?cid=0x0:0x64823bf0cdab5a28,
perumahan,Komplek perumahan,Desa molore,"M7VG+2MQ, Molore, Kecamatan Langgikima, Kabupaten Konawe Utara, Sulawesi Tenggara","Kabupaten Konawe Utara, Sulawesi Tenggara",SULAWESI TENGGARA,,Indonesia,,,,-3.3074238,122.2767352,https://maps.google.com/?cid=0x0:0xedc0b7b82b16905d,
perumahan,Komplek perumahan,Rumah angga,"P66M+WP, Molore, Kecamatan Langgikima, Kabupaten Konawe Utara, Sulawesi Tenggara 93353","Molore, Kecamatan Langgikima, Kabupaten Konawe Utara",SULAWESI TENGGARA,93353.0,Indonesia,,,,-3.2869921,122.2337489,https://maps.google.com/?cid=0x0:0x4bb51799a32ba6a7,
perumahan,Komplek perumahan,Kost Griselle,"P65H+R7W, Langgikima, Kecamatan Langgikima, Kabupaten Konawe Utara, Sulawesi Tenggara 93353","Langgikima, Kecamatan Langgikima, Kabupaten Konawe Utara",SULAWESI TENGGARA,93353.0,Indonesia,,,,-3.2903845,122.2282078,https://maps.google.com/?cid=0x0:0x4e6c27c7f0936a2c,
perumahan,Komplek perumahan,Kost,"M7RC+RH9, Molore, Kecamatan Langgikima, Kabupaten Konawe Utara, Sulawesi Tenggara","Kabupaten Konawe Utara, Sulawesi Tenggara",SULAWESI TENGGARA,,Indonesia,,,,-3.307112,122.270976,https://maps.google.com/?cid=0x0:0x930856b2c641aee,
perumahan,perumahan,Made bayu house,"M6HF+8C, Mekarjaya, Kecamatan Langgikima, Kabupaten Konawe Utara, Sulawesi Tenggara","Kabupaten Konawe Utara, Sulawesi Tenggara",SULAWESI TENGGARA,,Indonesia,,,,-3.3215117,122.2248996,https://maps.google.com/?cid=0x0:0x7d645579abc8c166,
perumahan,perumahan,Rumah sigit niko,"P63J+V8H, Molore, Waworaha, Kec. Lasolo, Kabupaten Konawe Utara, Sulawesi Tenggara","Kabupaten Konawe Utara, Sulawesi Tenggara",SULAWESI TENGGARA,,Indonesia,,,,-3.295311,122.2308531,https://maps.google.com/?cid=0x0:0xe68807b25eda5348,
perumahan,Pembangunan Perumahan,PT. Sempo dalle,"M7F4+FJ3, Upt. Morombo/Tobimeita, Kecamatan Langgikima, Kabupaten Konawe Utara, Sulawesi Tenggara 93352","Upt. Morombo/Tobimeita, Kecamatan Langgikima, Kabupaten Konawe Utara",SULAWESI TENGGARA,93352.0,Indonesia,,,,-3.3263543,122.2565383,https://maps.google.com/?cid=0x0:0x17d3b80619810cf7,
perumahan,Brunch,Penginapan putra putri,"M6RM+VM8, Pariama, Kecamatan Langgikima, Kabupaten Konawe Utara, Sulawesi Tenggara","Kabupaten Konawe Utara, Sulawesi Tenggara",SULAWESI TENGGARA,,Indonesia,,,,-3.307829,122.2341905,https://maps.google.com/?cid=0x0:0xa1a1623c5c788395,
perumahan,Masjid,Morombo,"J792+2CH, Morombo, Kec. Lasolo kepulauan, Kabupaten Konawe Utara, Sulawesi Tenggara 93352","Morombo, Kec. Lasolo kepulauan, Kabupaten Konawe Utara",SULAWESI TENGGARA,93352.0,Indonesia,,,,-3.3824479,122.2511095,https://maps.google.com/?cid=0x0:0x64303769ca29a77a,
perumahan,Komplek perumahan,Al fatih teknikal,"M6HF+8C, Mekarjaya, Kecamatan Langgikima, Kabupaten Konawe Utara, Sulawesi Tenggara","Kabupaten Konawe Utara, Sulawesi Tenggara",SULAWESI TENGGARA,,Indonesia,,,,-3.3216631,122.2235616,https://maps.google.com/?cid=0x0:0x5964c5eea7c989c4,
perumahan,Pembangunan Perumahan,Mess onix PPA,"P77J+2X, Lameruru, Kecamatan Langgikima, Kabupaten Konawe Utara, Sulawesi Tenggara","Kabupaten Konawe Utara, Sulawesi Tenggara",SULAWESI TENGGARA,,Indonesia,,,,-3.2874303,122.2824313,https://maps.google.com/?cid=0x0:0x4d3d36b0e5051ef4,
perumahan,Perhimpunan Pengembang Perumahan,Home stay p.naila,"M7XQ+XX, Lameruru, Kecamatan Langgikima, Kabupaten Konawe Utara, Sulawesi Tenggara","Kabupaten Konawe Utara, Sulawesi Tenggara",SULAWESI TENGGARA,,Indonesia,,,,-3.2994568,122.2913772,https://maps.google.com/?cid=0x0:0x9550f1319c0cf6e9,
perumahan,perumahan,Sulawesi Tenggara 93352,"Kabupaten Konawe Utara, Sulawesi Tenggara","Kabupaten Konawe Utara, Sulawesi Tenggara",SULAWESI TENGGARA,,Indonesia,,,,-3.7041573,122.2427,https://maps.google.com/?cid=0x0:0x888ae8f2fa8ed5e8,
perumahan,perumahan,Rumah Leng,"8566+R5V, Andumowu, Kec. Lasolo, Kabupaten Konawe Utara, Sulawesi Tenggara 93352","Andumowu, Kec. Lasolo, Kabupaten Konawe Utara",SULAWESI TENGGARA,93352.0,Indonesia,,,,-3.6878895,122.1604131,https://maps.google.com/?cid=0x0:0xc39a2785c693e3a,
perumahan,Komplek perumahan,"Lusmini, AMKL","86PM+G88, Jl. Poros Bungku Sel. - Kendari, Andumowu, Kec. Lasolo, Kabupaten Konawe Utara, Sulawesi Tenggara 93352","Jl. Poros Bungku Sel. - Kendari, Andumowu, Kec. Lasolo, Kabupaten Konawe Utara",SULAWESI TENGGARA,93352.0,Indonesia,,,,-3.6637163,122.2333194,https://maps.google.com/?cid=0x0:0x2794ff04d5fa4ff,
perumahan,Komplek perumahan,Rumah intan,"Jl. Poros Wawotobi - Lasolo No.23, Andeo, Kec. Lasolo, Kabupaten Konawe Utara, Sulawesi Tenggara 93352","Andeo, Kec. Lasolo, Kabupaten Konawe Utara",SULAWESI TENGGARA,93352.0,Indonesia,,,,-3.683312,122.254229,https://maps.google.com/?cid=0x0:0xfd8a03c4a106dede,
perumahan,perumahan,rumah otong,"8566+R5V, Andumowu, Kec. Lasolo, Kabupaten Konawe Utara, Sulawesi Tenggara 93352","Andumowu, Kec. Lasolo, Kabupaten Konawe Utara",SULAWESI TENGGARA,93352.0,Indonesia,,,,-3.6878895,122.1604131,https://maps.google.com/?cid=0x0:0x6260846cd46639e8,
perumahan,Komplek perumahan,Rumah ABIN,"86HR+6QQ, Jl. Poros Bungku Sel. - Kendari, Lametono, Kec. Lasolo, Kabupaten Konawe Utara, Sulawesi Tenggara 93352","Jl. Poros Bungku Sel. - Kendari, Lametono, Kec. Lasolo, Kabupaten Konawe Utara",SULAWESI TENGGARA,93352.0,Indonesia,,,,-3.6714904,122.2414073,https://maps.google.com/?cid=0x0:0x832710cc4b225ceb,
perumahan,Pembangunan Perumahan,DESA BARASANGKA,"78Q6+7G, Lemobajo, Kec. Lasolo, Kabupaten Konawe Utara, Sulawesi Tenggara","Kabupaten Konawe Utara, Sulawesi Tenggara",SULAWESI TENGGARA,,Indonesia,,,,-3.7118172,122.3112946,https://maps.google.com/?cid=0x0:0xa7e736cb313426bd,
perumahan,Kantor Pemerintah,Desa laramo,"68XM+GGX, Ds, Laramo, Kec. Lembo, Kabupaten Konawe Utara","Kabupaten Konawe Utara, Sulawesi Tenggara",SULAWESI TENGGARA,,Indonesia,,,,-3.751141,122.333863,https://maps.google.com/?cid=0x0:0xe923196a015ec8b1,
perumahan,Pembangunan Perumahan,Iksan,"C6PF+MF, Tapunggaeya, Kec. Molawe, Kabupaten Konawe Utara, Sulawesi Tenggara 93352","Tapunggaeya, Kec. Molawe, Kabupaten Konawe Utara",SULAWESI TENGGARA,93352.0,Indonesia,,,,-3.5633054,122.2236968,https://maps.google.com/?cid=0x0:0x6a452cb569122e82,
perumahan,Komplek perumahan,Kompleks Cendana,"86PQ+VFC, Andumowu, Kec. Lasolo, Kabupaten Konawe Utara, Sulawesi Tenggara 93352","Andumowu, Kec. Lasolo, Kabupaten Konawe Utara",SULAWESI TENGGARA,93352.0,Indonesia,,,,-3.6628267,122.238743,https://maps.google.com/?cid=0x0:0xcd44f57a10eba229,
perumahan,Komplek perumahan,"Belalo,lametono,kec.lasolo,kabupaten Konawe Utara","7882+M26, Lemobajo, Kec. Lasolo, Kabupaten Konawe Utara, Sulawesi Tenggara","Kabupaten Konawe Utara, Sulawesi Tenggara",SULAWESI TENGGARA,,Indonesia,,,,-3.733333,122.3,https://maps.google.com/?cid=0x0:0xbb8a4a82a3ed4897,
perumahan,Pembangunan Perumahan,Rumah Sarman,"C6PC+W62, Tapunggaeya, Kec. Molawe, Kabupaten Konawe Utara, Sulawesi Tenggara 93352","Tapunggaeya, Kec. Molawe, Kabupaten Konawe Utara",SULAWESI TENGGARA,93352.0,Indonesia,,,,-3.5626194,122.2206758,https://maps.google.com/?cid=0x0:0x5df6a36a86255273,
perumahan,Komplek perumahan,Harjono,"86PJ+P95, Andumowu, Kec. Lasolo, Kabupaten Konawe Utara, Sulawesi Tenggara 93352","Andumowu, Kec. Lasolo, Kabupaten Konawe Utara",SULAWESI TENGGARA,93352.0,Indonesia,,,,-3.6632396,122.2309705,https://maps.google.com/?cid=0x0:0xeef527b148d1b666,
perumahan,Komplek perumahan,Hendra,"86PV+F54, Basule, Kec. Lasolo, Kabupaten Konawe Utara, Sulawesi Tenggara","Kabupaten Konawe Utara, Sulawesi Tenggara",SULAWESI TENGGARA,,Indonesia,,,,-3.6638535,122.242953,https://maps.google.com/?cid=0x0:0x3d35974f5e7bf7a,
perumahan,Komplek perumahan,RBW sederhana,"Jl. Poros Bungku Sel. - Kendari No.101, Toreo, Kec. Lasolo, Kabupaten Konawe Utara, Sulawesi Tenggara 93352","Toreo, Kec. Lasolo, Kabupaten Konawe Utara",SULAWESI TENGGARA,93352.0,Indonesia,,,,-3.6870962,122.2691075,https://maps.google.com/?cid=0x0:0xfa3e89afa0949d5b,
perumahan,perumahan,Rumah misdar,"95RR+46G, Jl. Poros Bungku Sel. - Kendari, Awila, Kec. Molawe, Kabupaten Konawe Utara, Sulawesi Tenggara 93352","Jl. Poros Bungku Sel. - Kendari, Awila, Kec. Molawe, Kabupaten Konawe Utara",SULAWESI TENGGARA,93352.0,Indonesia,,,,-3.6104024,122.1914914,https://maps.google.com/?cid=0x0:0x7754f51c1585da2,
perumahan,Komplek perumahan,RUMAH IKI,"77XM+PFV, Jl. Poros Bungku Sel. - Kendari, Wawolesea, Kec. Lasolo, Kabupaten Konawe, Sulawesi Tenggara","Kabupaten Konawe, Sulawesi Tenggara",SULAWESI TENGGARA,,Indonesia,,,,-3.7006338,122.2836874,https://maps.google.com/?cid=0x0:0x5bd6e7a931e9a5bf,
perumahan,Komplek perumahan,Hasniawati rikman,"863W+HF8, Jl. Poros Wawotobi - Lasolo, Matapila, Kec. Lasolo, Kabupaten Konawe Utara, Sulawesi Tenggara 93352","Jl. Poros Wawotobi - Lasolo, Matapila, Kec. Lasolo, Kabupaten Konawe Utara",SULAWESI TENGGARA,93352.0,Indonesia,,,,-3.6952727,122.2462849,https://maps.google.com/?cid=0x0:0xf01c7fe92914bd8d,
perumahan,Pembangunan Perumahan,Pretty,"86HR+6QQ, Jl. Poros Bungku Sel. - Kendari, Lametono, Kec. Lasolo, Kabupaten Konawe Utara, Sulawesi Tenggara 93352","Jl. Poros Bungku Sel. - Kendari, Lametono, Kec. Lasolo, Kabupaten Konawe Utara",SULAWESI TENGGARA,93352.0,Indonesia,,,,-3.6719866,122.2410829,https://maps.google.com/?cid=0x0:0xde25e2c85ef3c000,
perumahan,Komplek perumahan,"Alfan, arsa","8793+969, Jl. Poros Bungku Sel. - Kendari, Lametono, Kec. Lasolo, Kabupaten Konawe Utara, Sulawesi Tenggara 93352","Jl. Poros Bungku Sel. - Kendari, Lametono, Kec. Lasolo, Kabupaten Konawe Utara",SULAWESI TENGGARA,93352.0,Indonesia,,,,-3.6821539,122.2533303,https://maps.google.com/?cid=0x0:0xce92581140ab52cd,
perumahan,Komplek perumahan,Rumah Agas,"Tapunopaka, kepulauan, Kec. Lasolo, Kabupaten Konawe Utara, Sulawesi Tenggara","Kabupaten Konawe Utara, Sulawesi Tenggara",SULAWESI TENGGARA,,Indonesia,,,,-3.4802375,122.2930781,https://maps.google.com/?cid=0x0:0x363ff573a9f4fa57,
perumahan,Kantor Pemerintah,Perumahan Dinas NS,"C6Q9+HC7, Tapunggaeya, Kec. Molawe, Kabupaten Konawe Utara, Sulawesi Tenggara","Kabupaten Konawe Utara, Sulawesi Tenggara",SULAWESI TENGGARA,,Indonesia,,,,-3.5607394,122.218224,https://maps.google.com/?cid=0x0:0xbd5794f23460110b,
perumahan,Komplek perumahan,Desa Tudungano,"6CP5+QHF, Sawa, Kec. Sawa, Kabupaten Konawe Utara, Sulawesi Tenggara 93352","Sawa, Kec. Sawa, Kabupaten Konawe Utara",SULAWESI TENGGARA,93352.0,Indonesia,,,,-3.763125,122.4088799,https://maps.google.com/?cid=0x0:0xdd4f5954e434a29d,
perumahan,Komplek perumahan,Karman,"86PM+F69, Jl. Poros Bungku Sel. - Kendari, Andumowu, Kec. Lasolo, Kabupaten Konawe Utara, Sulawesi Tenggara 93352","Jl. Poros Bungku Sel. - Kendari, Andumowu, Kec. Lasolo, Kabupaten Konawe Utara",SULAWESI TENGGARA,93352.0,Indonesia,,,,-3.6638294,122.233124,https://maps.google.com/?cid=0x0:0xf48841d81c8c5954,
perumahan,Komplek perumahan,Rumah Ramlan Basir,"96M2+48X, Bandaeha, Kec. Molawe, Kabupaten Konawe Utara, Sulawesi Tenggara 93353","Bandaeha, Kec. Molawe, Kabupaten Konawe Utara",SULAWESI TENGGARA,93353.0,Indonesia,,,,-3.6171328,122.2008534,https://maps.google.com/?cid=0x0:0xeccc348d01dca01a,
perumahan,Komplek perumahan,Herlina Arludin,"863W+XWX, Matapila, Kec. Lasolo, Kabupaten Konawe Utara, Sulawesi Tenggara 93352","Matapila, Kec. Lasolo, Kabupaten Konawe Utara",SULAWESI TENGGARA,93352.0,Indonesia,,,,-3.6950173,122.2473547,https://maps.google.com/?cid=0x0:0xdd26916e8e580534,
perumahan,Komplek perumahan,Rumah H.Arif,"86QV+99H, Basule, Kec. Lasolo, Kabupaten Konawe Utara, Sulawesi Tenggara","Kabupaten Konawe Utara, Sulawesi Tenggara",SULAWESI TENGGARA,,Indonesia,,,,-3.6611316,122.2435625,https://maps.google.com/?cid=0x0:0xb9d626c898f9a195,
perumahan,Komplek perumahan,PITRY ALO ALO,"783C+PX2, Alo-Alo, Kec. Lembo, Kabupaten Konawe Utara, Sulawesi Tenggara","Kabupaten Konawe Utara, Sulawesi Tenggara",SULAWESI TENGGARA,,Indonesia,,,,-3.7457469,122.3223872,https://maps.google.com/?cid=0x0:0x6473f7627687550d,
perumahan,perumahan,Kec. Lembo,"Kabupaten Konawe Utara, Sulawesi Tenggara","Kabupaten Konawe Utara, Sulawesi Tenggara",SULAWESI TENGGARA,,Indonesia,,,,-3.752099,122.3401906,https://maps.google.com/?cid=0x0:0x279ea38939c035e8,
perumahan,Pembangunan Perumahan,kali,"672M+5V, Padaleu, Kec. Lembo, Kabupaten Konawe Utara, Sulawesi Tenggara","Kabupaten Konawe Utara, Sulawesi Tenggara",SULAWESI TENGGARA,,Indonesia,,,,-3.7995839,122.2847196,https://maps.google.com/?cid=0x0:0xe593d114e9bc5b0a,
perumahan,Komplek perumahan,Home ARIF,"68XM+HQ4, Padaleu, Kec. Lembo, Kabupaten Konawe Utara, Sulawesi Tenggara 93352","Padaleu, Kec. Lembo, Kabupaten Konawe Utara",SULAWESI TENGGARA,93352.0,Indonesia,,,,-3.7511232,122.3344652,https://maps.google.com/?cid=0x0:0x8407e770e0672a9f,
perumahan,Kantor Pemerintah,Desa laramo,"68XM+GGX, Ds, Laramo, Kec. Lembo, Kabupaten Konawe Utara","Kabupaten Konawe Utara, Sulawesi Tenggara",SULAWESI TENGGARA,,Indonesia,,,,-3.751141,122.333863,https://maps.google.com/?cid=0x0:0xe923196a015ec8b1,
perumahan,Komplek perumahan,RUMAH PAK SUKI,"68QV+FGJ, Lembo, Kec. Lembo, Kabupaten Konawe Utara, Sulawesi Tenggara","Kabupaten Konawe Utara, Sulawesi Tenggara",SULAWESI TENGGARA,,Indonesia,,,,-3.7612959,122.3437759,https://maps.google.com/?cid=0x0:0x7b72fa2e647f5346,
perumahan,perumahan,rumah iman,"68PW+76P, Lembo, Kec. Lembo, Kabupaten Konawe Utara, Sulawesi Tenggara 93461","Lembo, Kec. Lembo, Kabupaten Konawe Utara",SULAWESI TENGGARA,93461.0,Indonesia,,,,-3.764254,122.3455266,https://maps.google.com/?cid=0x0:0xe123d2cfd7800995,
perumahan,Komplek perumahan,Rumah syukur hidayat,"783F+J8, Puulemo, Kec. Lembo, Kabupaten Konawe Utara, Sulawesi Tenggara","Kabupaten Konawe Utara, Sulawesi Tenggara",SULAWESI TENGGARA,,Indonesia,,,,-3.7467509,122.3244723,https://maps.google.com/?cid=0x0:0x381c0b98d6094a31,
perumahan,Komplek perumahan,Rumah padin,"68QR+XRQ, Lembo, Kec. Lembo, Kabupaten Konawe Utara, Sulawesi Tenggara 93352","Lembo, Kec. Lembo, Kabupaten Konawe Utara",SULAWESI TENGGARA,93352.0,Indonesia,,,,-3.7603975,122.3421692,https://maps.google.com/?cid=0x0:0xf2494106f4576152,
perumahan,Komplek perumahan,Rumah Indira,"68C5+W53, Padaleu, Kec. Lembo, Kabupaten Konawe Utara, Sulawesi Tenggara 93352","Padaleu, Kec. Lembo, Kabupaten Konawe Utara",SULAWESI TENGGARA,93352.0,Indonesia,,,,-3.7777259,122.307917,https://maps.google.com/?cid=0x0:0x51295aac06f8d2db,
perumahan,Pembangunan Perumahan,Bengkel Raya,"782H+CCV, Puulemo, Kec. Lembo, Kabupaten Konawe Utara, Sulawesi Tenggara","Kabupaten Konawe Utara, Sulawesi Tenggara",SULAWESI TENGGARA,,Indonesia,,,,-3.7488775,122.3285533,https://maps.google.com/?cid=0x0:0x528f1591b93e2ad7,
perumahan,Komplek perumahan,PITRY ALO ALO,"783C+PX2, Alo-Alo, Kec. Lembo, Kabupaten Konawe Utara, Sulawesi Tenggara","Kabupaten Konawe Utara, Sulawesi Tenggara",SULAWESI TENGGARA,,Indonesia,,,,-3.7457469,122.3223872,https://maps.google.com/?cid=0x0:0x6473f7627687550d,
perumahan,Komplek perumahan,R.Agus Dede,"69PX+XF3, Puupi, Kec. Lembo, Kabupaten Konawe Utara, Sulawesi Tenggara 93352","Puupi, Kec. Lembo, Kabupaten Konawe Utara",SULAWESI TENGGARA,93352.0,Indonesia,,,,-3.7626166,122.3986696,https://maps.google.com/?cid=0x0:0xb0067d196f0d2b28,
perumahan,Kios,Home seli,"68MX+PMC, Jl. Poros Bungku Sel. - Kendari, Lembo, Kec. Lembo, Kabupaten Konawe Utara, Sulawesi Tenggara 93461","Jl. Poros Bungku Sel. - Kendari, Lembo, Kec. Lembo, Kabupaten Konawe Utara",SULAWESI TENGGARA,93461.0,Indonesia,,,,-3.7657109,122.3500063,https://maps.google.com/?cid=0x0:0xb56b8e9fc50743f0,
perumahan,Komplek perumahan,rumah yongki,"68PR+JVJ, Lembo, Kec. Lembo, Kabupaten Konawe Utara, Sulawesi Tenggara","Kabupaten Konawe Utara, Sulawesi Tenggara",SULAWESI TENGGARA,,Indonesia,,,,-3.7634022,122.3421523,https://maps.google.com/?cid=0x0:0xdea388e0102892e1,
perumahan,Komplek perumahan,Ardan,"782G+XVR, Puulemo, Kec. Lembo, Kabupaten Konawe Utara, Sulawesi Tenggara","Kabupaten Konawe Utara, Sulawesi Tenggara",SULAWESI TENGGARA,,Indonesia,,,,-3.7474952,122.3271342,https://maps.google.com/?cid=0x0:0x5717409389344f13,
perumahan,Pembangunan Perumahan,Dody,"Jl. Poros Bungku Sel. - Kendari No.16, Puulemo, Kec. Lembo, Kabupaten Konawe Utara, Sulawesi Tenggara 93561","Puulemo, Kec. Lembo, Kabupaten Konawe Utara",SULAWESI TENGGARA,93561.0,Indonesia,,,,-3.746244,122.3252979,https://maps.google.com/?cid=0x0:0x4cf7bfe8f5901648,
perumahan,Komplek perumahan,Zakinah21,"782H+CCV, Puulemo, Kec. Lembo, Kabupaten Konawe Utara, Sulawesi Tenggara","Kabupaten Konawe Utara, Sulawesi Tenggara",SULAWESI TENGGARA,,Indonesia,,,,-3.7486335,122.3288487,https://maps.google.com/?cid=0x0:0x63690b10d947d4b4,
perumahan,Komplek perumahan,Rumah ALAN KADRI,"783F+J8, Puulemo, Kec. Lembo, Kabupaten Konawe Utara, Sulawesi Tenggara","Kabupaten Konawe Utara, Sulawesi Tenggara",SULAWESI TENGGARA,,Indonesia,,,,-3.7458887,122.3235047,https://maps.google.com/?cid=0x0:0x5e5a513beeee0239,
perumahan,,Rumah Mitaa,"784F+6H9, Puulemo, Kec. Lembo, Kabupaten Konawe Utara, Sulawesi Tenggara","Kabupaten Konawe Utara, Sulawesi Tenggara",SULAWESI TENGGARA,,Indonesia,,,,-3.7444518,122.3239999,https://maps.google.com/?cid=0x0:0x27d7518761f87c0c,
perumahan,Komplek perumahan,Rumah ripaldi,"783F+J8, Puulemo, Kec. Lembo, Kabupaten Konawe Utara, Sulawesi Tenggara","Kabupaten Konawe Utara, Sulawesi Tenggara",SULAWESI TENGGARA,,Indonesia,,,,-3.7460119,122.323308,https://maps.google.com/?cid=0x0:0x185ee822deef2524,
perumahan,Komplek perumahan,WISMOYO HOME,"68WR+JRV, Pasir Putih, Kec. Lembo, Kabupaten Konawe Utara, Sulawesi Tenggara 93352","Pasir Putih, Kec. Lembo, Kabupaten Konawe Utara",SULAWESI TENGGARA,93352.0,Indonesia, 085399544596,,,-3.7526594,122.3418364,https://maps.google.com/?cid=0x0:0x9d6f81cfdd7976a1,
perumahan,Perhimpunan Pengembang Perumahan,PUULEMO LEMBO,"Jl. Poros Bungku Sel. - Kendari No.27, Padaleu, Kec. Lembo, Kabupaten Konawe Utara, Sulawesi Tenggara 93352","Padaleu, Kec. Lembo, Kabupaten Konawe Utara",SULAWESI TENGGARA,93352.0,Indonesia,,,,-3.7512719,122.334876,https://maps.google.com/?cid=0x0:0x96bff82004ccc8e3,
perumahan,perumahan,Lembo,"Kec. Tallo, Kota Makassar, Sulawesi Selatan","Kota Makassar, Sulawesi Selatan",SULAWESI TENGGARA,,Indonesia,,,,-5.1219413,119.425913,https://maps.google.com/?cid=0x0:0x2b45a5437af20e7,
perumahan,Perhimpunan Pengembang Perumahan,Jln lembo,"VCHG+69C, Jln lembo, RT.04, Barong tongkok","Kota Makassar, Sulawesi Selatan",SULAWESI TENGGARA,,Indonesia,,,,-5.1219361,119.4259038,https://maps.google.com/?cid=0x0:0x737ffe5976a62768,
perumahan,Komplek perumahan,Roemah koe,"Kompleks Pratama Green Apple, blok CD II No.22, Lembo, Kec. Tallo, Kota Makassar, Sulawesi Selatan","Kota Makassar, Sulawesi Selatan",SULAWESI TENGGARA,,Indonesia,,,,-5.1262855,119.425129,https://maps.google.com/?cid=0x0:0x8a879e6a19477a68,
perumahan,Komplek perumahan,HOME,"VCHG+4MQ, Lembo, Kec. Tallo, Kota Makassar, Sulawesi Selatan 90162","Lembo, Kec. Tallo, Kota Makassar",SULAWESI TENGGARA,90162.0,Indonesia,,,,-5.1222986,119.4267122,https://maps.google.com/?cid=0x0:0xed1e1a33228fa90c,
perumahan,Kantor Pemda,Kelurahan Lembo Kecamatan Tallo,"VCHG+338, Jl. Tinumbu, Lembo, Kec. Tallo, Kota Makassar, Sulawesi Selatan 90161","Jl. Tinumbu, Lembo, Kec. Tallo, Kota Makassar",SULAWESI TENGGARA,90161.0,Indonesia,,,,-5.1223333,119.4252161,https://maps.google.com/?cid=0x0:0x308b43536a9e4fe4,
perumahan,Perhimpunan Pengembang Perumahan,Komp Sapiria Garden,"Jl. Arwana VI No.4, Lembo, Kec. Tallo, Kota Makassar, Sulawesi Selatan 90213","Lembo, Kec. Tallo, Kota Makassar",SULAWESI TENGGARA,90213.0,Indonesia,,,,-5.1266131,119.4252122,https://maps.google.com/?cid=0x0:0x41fba14cd3ba9fce,
perumahan,Pembangunan Perumahan,Darman al sirri,"VCHG+HQ6, Lembo, Kec. Tallo, Kota Makassar, Sulawesi Selatan 90162","Lembo, Kec. Tallo, Kota Makassar",SULAWESI TENGGARA,90162.0,Indonesia,,,,-5.1210791,119.4268831,https://maps.google.com/?cid=0x0:0xbebc5cfe2b6a4be0,
perumahan,perumahan,Sulawesi Tengah 94966,"Kec. Lembo, Kabupaten Morowali Utara, Sulawesi Tengah","Kabupaten Morowali Utara, Sulawesi Tengah",SULAWESI TENGGARA,,Indonesia,,,,-2.206204,121.2168466,https://maps.google.com/?cid=0x0:0x31ea9a5f1875191f,
perumahan,perumahan,Lembo,"Kec. Tallo, Kota Makassar, Sulawesi Selatan","Kota Makassar, Sulawesi Selatan",SULAWESI TENGGARA,,Indonesia,,,,-5.1219413,119.425913,https://maps.google.com/?cid=0x0:0x2b45a5437af20e7,
perumahan,Perhimpunan Pengembang Perumahan,Jln lembo,"VCHG+69C, Jln lembo, RT.04, Barong tongkok","Kota Makassar, Sulawesi Selatan",SULAWESI TENGGARA,,Indonesia,,,,-5.1219361,119.4259038,https://maps.google.com/?cid=0x0:0x737ffe5976a62768,
perumahan,Kantor Pemda,Kelurahan Lembo Kecamatan Tallo,"VCHG+338, Jl. Tinumbu, Lembo, Kec. Tallo, Kota Makassar, Sulawesi Selatan 90161","Jl. Tinumbu, Lembo, Kec. Tallo, Kota Makassar",SULAWESI TENGGARA,90161.0,Indonesia,,,,-5.1223333,119.4252161,https://maps.google.com/?cid=0x0:0x308b43536a9e4fe4,
perumahan,Komplek perumahan,Roemah koe,"Kompleks Pratama Green Apple, blok CD II No.22, Lembo, Kec. Tallo, Kota Makassar, Sulawesi Selatan","Kota Makassar, Sulawesi Selatan",SULAWESI TENGGARA,,Indonesia,,,,-5.1262855,119.425129,https://maps.google.com/?cid=0x0:0x8a879e6a19477a68,
perumahan,Komplek perumahan,Luxury,"Jl. Lembo No.75-77, Lembo, Kec. Tallo, Kota Makassar, Sulawesi Selatan 90161","Lembo, Kec. Tallo, Kota Makassar",SULAWESI TENGGARA,90161.0,Indonesia,,,,-5.1182552,119.4229156,https://maps.google.com/?cid=0x0:0x7dcaf3bfa518c96c,
perumahan,Komplek perumahan,Makassar,"VCGH+G79, Jl. Sunu Komp. Unhas, Lembo, Kec. Tallo, Kota Makassar, Sulawesi Selatan","Kota Makassar, Sulawesi Selatan",SULAWESI TENGGARA,,Indonesia,,,,-5.1237016,119.4282486,https://maps.google.com/?cid=0x0:0xd721a6286b7d8358,
perumahan,Komplek perumahan,Farel home,"VCJF+JC5, Lembo, Kec. Tallo, Kota Makassar, Sulawesi Selatan 90162","Lembo, Kec. Tallo, Kota Makassar",SULAWESI TENGGARA,90162.0,Indonesia,,,,-5.1184974,119.4236177,https://maps.google.com/?cid=0x0:0xc7db62817c9713c0,
perumahan,Komplek perumahan,House,"VCGG+5R9, Lembo, Kec. Tallo, Kota Makassar, Sulawesi Selatan 90213","Lembo, Kec. Tallo, Kota Makassar",SULAWESI TENGGARA,90213.0,Indonesia,,,,-5.124589,119.4271118,https://maps.google.com/?cid=0x0:0x5f1e817828c4d3e3,
perumahan,Perhimpunan Pengembang Perumahan,Komp Sapiria Garden,"Jl. Arwana VI No.4, Lembo, Kec. Tallo, Kota Makassar, Sulawesi Selatan 90213","Lembo, Kec. Tallo, Kota Makassar",SULAWESI TENGGARA,90213.0,Indonesia,,,,-5.1266131,119.4252122,https://maps.google.com/?cid=0x0:0x41fba14cd3ba9fce,
perumahan,Komplek perumahan,The Dozen House,"VCGH+849, Lembo, Kec. Tallo, Kota Makassar, Sulawesi Selatan 90215","Lembo, Kec. Tallo, Kota Makassar",SULAWESI TENGGARA,90215.0,Indonesia,,,,-5.1244515,119.4281241,https://maps.google.com/?cid=0x0:0x6f56774d09d11756,
perumahan,Grosir,Yacob,"c 7a, Jl. Sunu Jl. Bumi Sunu Permai, Lembo, Kec. Tallo, Kota Makassar, Sulawesi Selatan 90213","Jl. Sunu Jl. Bumi Sunu Permai, Lembo, Kec. Tallo, Kota Makassar",SULAWESI TENGGARA,90213.0,Indonesia,,,,-5.1240226,119.4260568,https://maps.google.com/?cid=0x0:0x71c40590ca8951a2,
perumahan,perumahan,Pabeta House,"Pratama Green Apple, blok CD 2 No.18, Lembo, Tallo, Makassar City, South Sulawesi 90213","blok CD 2 No.18, Lembo, Tallo, Makassar City",SULAWESI TENGGARA,90213.0,Indonesia,,,,-5.1255081,119.4260796,https://maps.google.com/?cid=0x0:0x7a2f4e94b1fa453b,
perumahan,Komplek perumahan,rumah mas ali,"Jl. Lembo No.22, Lembo, Kec. Tallo, Kota Makassar, Sulawesi Selatan 90162","Lembo, Kec. Tallo, Kota Makassar",SULAWESI TENGGARA,90162.0,Indonesia,,,,-5.1178427,119.4228012,https://maps.google.com/?cid=0x0:0xc861f83264527ccf,
perumahan,Komplek perumahan,Kantor Adhy Hidayah,"VCFG+WR8, Lembo, Kec. Tallo, Kota Makassar, Sulawesi Selatan","Kota Makassar, Sulawesi Selatan",SULAWESI TENGGARA,,Indonesia,,,,-5.1252125,119.4270781,https://maps.google.com/?cid=0x0:0xd18c800d27b9c505,
perumahan,Perhimpunan Pengembang Perumahan,Rumah Aisyah,"Lrg. 2, Lembo, Kec. Tallo, Kota Makassar, Sulawesi Selatan 90162","Lembo, Kec. Tallo, Kota Makassar",SULAWESI TENGGARA,90162.0,Indonesia,,,,-5.1226122,119.4265892,https://maps.google.com/?cid=0x0:0x328377baff58ce07,
perumahan,Komplek perumahan,QQcollection,"VCGG+8Q5, Lembo, Kec. Tallo, Kota Makassar, Sulawesi Selatan 90213","Lembo, Kec. Tallo, Kota Makassar",SULAWESI TENGGARA,90213.0,Indonesia,,,,-5.1242307,119.4269928,https://maps.google.com/?cid=0x0:0x2a5aaba9cf8b6a6b,
perumahan,Komplek perumahan,Dewa,"Jl. Lembo No.282, Lembo, Kec. Tallo, Kota Makassar, Sulawesi Selatan 90161","Lembo, Kec. Tallo, Kota Makassar",SULAWESI TENGGARA,90161.0,Indonesia,,,,-5.119645,119.422744,https://maps.google.com/?cid=0x0:0x86b27680d2a8298,
perumahan,Pembangunan Perumahan,Darman al sirri,"VCHG+HQ6, Lembo, Kec. Tallo, Kota Makassar, Sulawesi Selatan 90162","Lembo, Kec. Tallo, Kota Makassar",SULAWESI TENGGARA,90162.0,Indonesia,,,,-5.1210791,119.4268831,https://maps.google.com/?cid=0x0:0xbebc5cfe2b6a4be0,
perumahan,Komplek perumahan,Komplek Unhas F. 19,"Jl. Sunu Komp. Unhas No.19 Blok F, Lembo, Kec. Tallo, Kota Makassar, Sulawesi Selatan 90213","Lembo, Kec. Tallo, Kota Makassar",SULAWESI TENGGARA,90213.0,Indonesia,,,,-5.1222551,119.4278798,https://maps.google.com/?cid=0x0:0x165cd59f0d5acef5,
perumahan,Komplek perumahan,Ikhsan Regita Castle,"Blok LX No. 2, Jl. Sunu Komp. Unhas, Lembo, Tallo, Makassar City, South Sulawesi","Kota Makassar, Sulawesi Selatan",SULAWESI TENGGARA,,Indonesia,,,,-5.1251147,119.4272024,https://maps.google.com/?cid=0x0:0x2be2379237703c53,
perumahan,perumahan,Sulawesi Tenggara 93352,"Kabupaten Konawe Utara, Sulawesi Tenggara","Kabupaten Konawe Utara, Sulawesi Tenggara",SULAWESI TENGGARA,,Indonesia,,,,-3.7041573,122.2427,https://maps.google.com/?cid=0x0:0x888ae8f2fa8ed5e8,
perumahan,perumahan,Mataiwoi,"Kec. Molawe, Kabupaten Konawe Utara, Sulawesi Tenggara","Kabupaten Konawe Utara, Sulawesi Tenggara",SULAWESI TENGGARA,,Indonesia,,,,-3.6500555,122.1263449,https://maps.google.com/?cid=0x0:0xa7f305328a347587,
perumahan,Masjid,Puuwonggia,"6F23+C4P, Wawoluri, Kec. Motui, Kabupaten Konawe Utara, Sulawesi Tenggara 93352","Wawoluri, Kec. Motui, Kabupaten Konawe Utara",SULAWESI TENGGARA,93352.0,Indonesia,,,,-3.7989189,122.4528167,https://maps.google.com/?cid=0x0:0x4c0c7897353c350a,
perumahan,Komplek perumahan,Rayya Kinan Molawe,"95QW+GXG, Molawe, Kec. Molawe, Kabupaten Konawe Utara, Sulawesi Tenggara","Kabupaten Konawe Utara, Sulawesi Tenggara",SULAWESI TENGGARA,,Indonesia,,,,-3.6111757,122.1974425,https://maps.google.com/?cid=0x0:0xe4005ee40fae06d,
perumahan,Komplek perumahan,Mataiwoi molawe,"96C5+P82 Kantor RCM, Mataiwoi, Kec. Molawe, Kabupaten Konawe Utara, Sulawesi Tenggara","Kabupaten Konawe Utara, Sulawesi Tenggara",SULAWESI TENGGARA,,Indonesia,,,,-3.6282373,122.208276,https://maps.google.com/?cid=0x0:0x337145c2634cb531,
perumahan,Komplek perumahan,Rumah Emma,"95QX+2P3, Molawe, Kec. Molawe, Kabupaten Konawe Utara, Sulawesi Tenggara 93352","Molawe, Kec. Molawe, Kabupaten Konawe Utara",SULAWESI TENGGARA,93352.0,Indonesia,,,,-3.6124934,122.1992943,https://maps.google.com/?cid=0x0:0x4d2e171ef20058d8,
perumahan,Pembangunan Perumahan,Rumah Sarman,"C6PC+W62, Tapunggaeya, Kec. Molawe, Kabupaten Konawe Utara, Sulawesi Tenggara 93352","Tapunggaeya, Kec. Molawe, Kabupaten Konawe Utara",SULAWESI TENGGARA,93352.0,Indonesia,,,,-3.5626194,122.2206758,https://maps.google.com/?cid=0x0:0x5df6a36a86255273,
perumahan,Pembangunan Perumahan,Iksan,"C6PF+MF, Tapunggaeya, Kec. Molawe, Kabupaten Konawe Utara, Sulawesi Tenggara 93352","Tapunggaeya, Kec. Molawe, Kabupaten Konawe Utara",SULAWESI TENGGARA,93352.0,Indonesia,,,,-3.5633054,122.2236968,https://maps.google.com/?cid=0x0:0x6a452cb569122e82,
perumahan,Kantor Pemerintah,Perumahan Dinas NS,"C6Q9+HC7, Tapunggaeya, Kec. Molawe, Kabupaten Konawe Utara, Sulawesi Tenggara","Kabupaten Konawe Utara, Sulawesi Tenggara",SULAWESI TENGGARA,,Indonesia,,,,-3.5607394,122.218224,https://maps.google.com/?cid=0x0:0xbd5794f23460110b,
perumahan,Komplek perumahan,Rumah Nur,"95RM+46F, Awila Puncak, Kec. Molawe, Kabupaten Konawe Utara, Sulawesi Tenggara 93352","Awila Puncak, Kec. Molawe, Kabupaten Konawe Utara",SULAWESI TENGGARA,93352.0,Indonesia,,,,-3.609691,122.1830471,https://maps.google.com/?cid=0x0:0x4fc3d627b8c34981,
perumahan,Komplek perumahan,Rumah Maskur(tola),"95PX+HPC, Molawe, Kec. Molawe, Kabupaten Konawe Utara, Sulawesi Tenggara","Kabupaten Konawe Utara, Sulawesi Tenggara",SULAWESI TENGGARA,,Indonesia,,,,-3.6135502,122.1992657,https://maps.google.com/?cid=0x0:0x2feaf6ea87b5c9b4,
perumahan,Komplek perumahan,Rumah Ramlan Basir,"96M2+48X, Bandaeha, Kec. Molawe, Kabupaten Konawe Utara, Sulawesi Tenggara 93353","Bandaeha, Kec. Molawe, Kabupaten Konawe Utara",SULAWESI TENGGARA,93353.0,Indonesia,,,,-3.6171328,122.2008534,https://maps.google.com/?cid=0x0:0xeccc348d01dca01a,
perumahan,Komplek perumahan,RUMAH ARA,"96J3+CFM, Bandaeha, Kec. Molawe, Kabupaten Konawe Utara, Sulawesi Tenggara","Kabupaten Konawe Utara, Sulawesi Tenggara",SULAWESI TENGGARA,,Indonesia,,,,-3.6189028,122.2036772,https://maps.google.com/?cid=0x0:0xa08a2c1e404bb507,
perumahan,Komplek perumahan,Rumah sunda,"95PW+VVF, Molawe, Kec. Molawe, Kabupaten Konawe Utara, Sulawesi Tenggara","Kabupaten Konawe Utara, Sulawesi Tenggara",SULAWESI TENGGARA,,Indonesia,,,,-3.6128155,122.1971812,https://maps.google.com/?cid=0x0:0x5cd2bbd7c6e690af,
perumahan,Komplek perumahan,Rumah Palliyong,"96J3+3CP, Bandaeha, Kec. Molawe, Kabupaten Konawe Utara, Sulawesi Tenggara","Kabupaten Konawe Utara, Sulawesi Tenggara",SULAWESI TENGGARA,,Indonesia,,,,-3.6197407,122.2035049,https://maps.google.com/?cid=0x0:0xaaca4cc4b189390a,
perumahan,Komplek perumahan,Rumah Syaiful,"95PW+C4G, Molawe, Kec. Molawe, Kabupaten Konawe Utara, Sulawesi Tenggara","Kabupaten Konawe Utara, Sulawesi Tenggara",SULAWESI TENGGARA,,Indonesia, 085342859587,,,-3.6139432,122.195336,https://maps.google.com/?cid=0x0:0xf79c7d54539ae31,
perumahan,Komplek perumahan,R.RN,"95QV+2W5, Jl. Poros Bungku Sel. - Kendari, Molawe, Kec. Molawe, Kabupaten Konawe Utara, Sulawesi Tenggara 93352","Jl. Poros Bungku Sel. - Kendari, Molawe, Kec. Molawe, Kabupaten Konawe Utara",SULAWESI TENGGARA,93352.0,Indonesia,,,,-3.6123839,122.1947815,https://maps.google.com/?cid=0x0:0x3e843c8fe50fe216,
perumahan,Perhimpunan Pengembang Perumahan,Mes 2 Geomin,"95GX+5J5, Lorong Taqwa, Molawe, Kec. Molawe, Kabupaten Konawe Utara, Sulawesi Tenggara","Kabupaten Konawe Utara, Sulawesi Tenggara",SULAWESI TENGGARA,,Indonesia,,,,-3.624622,122.199097,https://maps.google.com/?cid=0x0:0xbc2c429e02c87eb1,
perumahan,Kantor Pemerintahan Daerah,"Desa mowundo, lorong masjid","95WV+VCH, Molawe, Kec. Molawe, Kabupaten Konawe Utara, Sulawesi Tenggara","Kabupaten Konawe Utara, Sulawesi Tenggara",SULAWESI TENGGARA,,Indonesia,,,,-3.6028037,122.1936241,https://maps.google.com/?cid=0x0:0xb1fa116b4859d6ff,
perumahan,Komplek perumahan,Home Almaa,"C52V+6W6, Mowundo, Kec. Molawe, Kabupaten Konawe Utara, Sulawesi Tenggara","Kabupaten Konawe Utara, Sulawesi Tenggara",SULAWESI TENGGARA,,Indonesia, 082291721327,,,-3.5994583,122.1947323,https://maps.google.com/?cid=0x0:0xb7bc45b666f96e86,
perumahan,Komplek perumahan,Rumah Adel,"95RJ+FJV, Awila Puncak, Kec. Molawe, Kabupaten Konawe Utara, Sulawesi Tenggara 93352","Awila Puncak, Kec. Molawe, Kabupaten Konawe Utara",SULAWESI TENGGARA,93352.0,Indonesia,,,,-3.6087725,122.1815568,https://maps.google.com/?cid=0x0:0x461c615f10e0321e,
perumahan,Komplek perumahan,MARSHALIA,"95QV+2QM, Awila, Kec. Molawe, Kabupaten Konawe Utara, Sulawesi Tenggara 93352","Awila, Kec. Molawe, Kabupaten Konawe Utara",SULAWESI TENGGARA,93352.0,Indonesia,,,,-3.6124204,122.1944113,https://maps.google.com/?cid=0x0:0x2adebb444f0f3bd9,
perumahan,Masjid,Puuwonggia,"6F23+C4P, Wawoluri, Kec. Motui, Kabupaten Konawe Utara, Sulawesi Tenggara 93352","Wawoluri, Kec. Motui, Kabupaten Konawe Utara",SULAWESI TENGGARA,93352.0,Indonesia,,,,-3.7989189,122.4528167,https://maps.google.com/?cid=0x0:0x4c0c7897353c350a,
perumahan,Komplek perumahan,Masjid Desa Puuwonggia,"Desa Puuwonggia Dusun, Wawoluri, Kec. Motui, Wanggudu, Sulawesi Tenggara 93352","Wawoluri, Kec. Motui, Wanggudu",SULAWESI TENGGARA,93352.0,Indonesia,,,,-3.7988138,122.4568993,https://maps.google.com/?cid=0x0:0x104360904c79b3e7,
perumahan,Tempat Parkir,Service Barat ArTri Boat,"6F23+C4P, Wawoluri, Kec. Motui, Kabupaten Konawe Utara, Sulawesi Tenggara 93352","Wawoluri, Kec. Motui, Kabupaten Konawe Utara",SULAWESI TENGGARA,93352.0,Indonesia, 081342992293,,,-3.7991654,122.4535187,https://maps.google.com/?cid=0x0:0xba33652e7e80b24f,
perumahan,Sekolah Dasar,SMP Negeri 1 Motui,"5FR5+7WC, Motui, Kec. Motui, Kabupaten Konawe Utara, Sulawesi Tenggara 93352","Motui, Kec. Motui, Kabupaten Konawe Utara",SULAWESI TENGGARA,93352.0,Indonesia,,,,-3.8093072,122.4597583,https://maps.google.com/?cid=0x0:0x5b2d77871768ac26,
perumahan,Komplek perumahan,Rumah Pesta,"5FM5+WR5, Banggina, Kec. Motui, Kabupaten Konawe Utara, Sulawesi Tenggara 93352","Banggina, Kec. Motui, Kabupaten Konawe Utara",SULAWESI TENGGARA,93352.0,Indonesia,,,,-3.8157815,122.4600905,https://maps.google.com/?cid=0x0:0xaf448a7f501d85a9,
perumahan,Komplek perumahan,Posko KKN uho,"5FW5+M55, Desa ranombupulu, Motui, Kec. Motui, Kabupaten Konawe Utara, Sulawesi Tenggara 93352","Desa ranombupulu, Motui, Kec. Motui, Kabupaten Konawe Utara",SULAWESI TENGGARA,93352.0,Indonesia,,,,-3.8033658,122.4579821,https://maps.google.com/?cid=0x0:0xbac122f2989c2f95,
perumahan,Toko bahan makanan,Rumah Sinta,"5FV5+67Q, Motui, Kec. Motui, Kabupaten Konawe Utara, Sulawesi Tenggara 93352","Motui, Kec. Motui, Kabupaten Konawe Utara",SULAWESI TENGGARA,93352.0,Indonesia,,,,-3.806772,122.458194,https://maps.google.com/?cid=0x0:0x76185c1dae8936f2,
perumahan,Komplek perumahan,HOME HUSEN,"6F24+FQC, Wawoluri, Kec. Motui, Kabupaten Konawe Utara, Sulawesi Tenggara 93352","Wawoluri, Kec. Motui, Kabupaten Konawe Utara",SULAWESI TENGGARA,93352.0,Indonesia,,,,-3.7988125,122.4568906,https://maps.google.com/?cid=0x0:0x1f3f4052afb69027,
perumahan,perumahan,Kec. Oheo,"Kabupaten Konawe Utara, Sulawesi Tenggara","Kabupaten Konawe Utara, Sulawesi Tenggara",SULAWESI TENGGARA,,Indonesia,,,,-3.4120121,122.0716764,https://maps.google.com/?cid=0x0:0x1fec54897c86d51a,
perumahan,Komplek perumahan,UPT. PUUHIALU,"H3XX+VCW, Landawe, Kec. Oheo, Kabupaten Konawe Utara, Sulawesi Tenggara","Kabupaten Konawe Utara, Sulawesi Tenggara",SULAWESI TENGGARA,,Indonesia,,,,-3.4002722,122.0985815,https://maps.google.com/?cid=0x0:0x37ee88edf0562a07,
perumahan,Masjid,Desa mopute,"J3C4+3R, Wiwirano, Kec. Oheo, Kabupaten Konawe Utara, Sulawesi Tenggara 93353","Wiwirano, Kec. Oheo, Kabupaten Konawe Utara",SULAWESI TENGGARA,93353.0,Indonesia, 082199465552,,,-3.3797571,122.0571076,https://maps.google.com/?cid=0x0:0x806ba2fc751b075a,
perumahan,Komplek perumahan,M. Zhafran alghifari,"M45V+W97, Paka Indah, Kec. Oheo, Kabupaten Konawe Utara, Sulawesi Tenggara 93353","Paka Indah, Kec. Oheo, Kabupaten Konawe Utara",SULAWESI TENGGARA,93353.0,Indonesia, 082260526097,,,-3.3402142,122.1434081,https://maps.google.com/?cid=0x0:0x902eb192403a3a0d,
perumahan,Vila,Rumah Joyce Napitu,"Dusun gunung pariama, Mopute, Kec. Oheo, Kabupaten Konawe Utara, Sulawesi Tenggara 93353","Mopute, Kec. Oheo, Kabupaten Konawe Utara",SULAWESI TENGGARA,93353.0,Indonesia,,,,-3.3719444,122.0058333,https://maps.google.com/?cid=0x0:0x5d2dcdb437198b9a,
perumahan,Perhimpunan Pengembang Perumahan,Rumah Bpk.Madju Usman,"J3W8+5R4, Puuhialu, Kec. Asera, Kabupaten Konawe Utara, Sulawesi Tenggara 93353","Puuhialu, Kec. Asera, Kabupaten Konawe Utara",SULAWESI TENGGARA,93353.0,Indonesia,,,,-3.3546068,122.0670674,https://maps.google.com/?cid=0x0:0xecf2f904b5e5528b,
perumahan,perumahan,DS kota muliaya,"G3F9+FGF, Asera, Kec. Asera, Kabupaten Konawe Utara, Sulawesi Tenggara 93353","Asera, Kec. Asera, Kabupaten Konawe Utara",SULAWESI TENGGARA,93353.0,Indonesia,,,,-3.4763131,122.0688037,https://maps.google.com/?cid=0x0:0xfbcbcfc6f9d141a6,
perumahan,Komplek perumahan,Rumah Anjas,"J2XW+P65 trans, Tadoloiyo, Kec. Oheo, Kabupaten Konawe Utara, Sulawesi Tenggara","Kabupaten Konawe Utara, Sulawesi Tenggara",SULAWESI TENGGARA,,Indonesia,,,,-3.350737,122.0456044,https://maps.google.com/?cid=0x0:0x7e165a2c0ec9650e,
perumahan,Kantor Perusahaan,Desa puuwonua,"F4PW+XR4, Unnamed Road, Laronanga, Kec. Andowia, Kabupaten Konawe Utara, Sulawesi Tenggara 93353","Unnamed Road, Laronanga, Kec. Andowia, Kabupaten Konawe Utara",SULAWESI TENGGARA,93353.0,Indonesia,,,,-3.5126014,122.1470899,https://maps.google.com/?cid=0x0:0x727b4d50bc102c46,
perumahan,Pembangunan Perumahan,Trsnsmigrasi Oheo Sambandete,"H3XX+VCW, Kota Maju, Kec. Oheo, Kabupaten Konawe Utara, Sulawesi Tenggara","Kabupaten Konawe Utara, Sulawesi Tenggara",SULAWESI TENGGARA,,Indonesia,,,,-3.4002634,122.0985756,https://maps.google.com/?cid=0x0:0x983ff8e68380829f,
perumahan,Komplek perumahan,rumah afneeeee,"G399+3F4, Tangguluri, Kec. Asera, Kabupaten Konawe Utara, Sulawesi Tenggara","Kabupaten Konawe Utara, Sulawesi Tenggara",SULAWESI TENGGARA,,Indonesia,,,,-3.4823614,122.0687056,https://maps.google.com/?cid=0x0:0xbc5968d07d12ec6d,
perumahan,Rumah wisata,Rumah Jo Oheo,"H37H+VW, Laroonaha, Kec. Oheo, Kabupaten Konawe Utara, Sulawesi Tenggara","Kabupaten Konawe Utara, Sulawesi Tenggara",SULAWESI TENGGARA,,Indonesia,,,,-3.4353526,122.0797901,https://maps.google.com/?cid=0x0:0xc77b0c71e9ca52c2,
perumahan,Komplek perumahan,Rumah Kios Rachel,"J3V8+RW6, Jalan Trans Sulawesi, Puuhialu, Kec. Oheo, Kabupaten Konawe Utara, Sulawesi Tenggara 93353","Jalan Trans Sulawesi, Puuhialu, Kec. Oheo, Kabupaten Konawe Utara",SULAWESI TENGGARA,93353.0,Indonesia,,,,-3.3554647,122.0672686,https://maps.google.com/?cid=0x0:0xa43ecd835d40dd2b,
perumahan,Komplek perumahan,Rumah Badri,"J3X8+74J, Puuhialu, Kec. Asera, Kabupaten Konawe Utara, Sulawesi Tenggara 93353","Puuhialu, Kec. Asera, Kabupaten Konawe Utara",SULAWESI TENGGARA,93353.0,Indonesia,,,,-3.3517936,122.0652791,https://maps.google.com/?cid=0x0:0xb6057ca1a1318402,
perumahan,Kantor Pemerintah,Rumah Dinas DPRD Konawe autara,"F4R5+9F9, Wanggudu, Kec. Asera, Kabupaten Konawe Utara, Sulawesi Tenggara 93353","Wanggudu, Kec. Asera, Kabupaten Konawe Utara",SULAWESI TENGGARA,93353.0,Indonesia,,,,-3.5090924,122.1087375,https://maps.google.com/?cid=0x0:0xfe66907e5afa869d,
perumahan,Pembangunan Perumahan,Hena's Home,"M45V+W93, Paka Indah, Kec. Oheo, Kabupaten Konawe Utara, Sulawesi Tenggara 93353","Paka Indah, Kec. Oheo, Kabupaten Konawe Utara",SULAWESI TENGGARA,93353.0,Indonesia,,,,-3.3402393,122.1434128,https://maps.google.com/?cid=0x0:0x840595fafef3aa6b,
perumahan,Perhimpunan Pengembang Perumahan,Lorong mopute,"J3C5+22V, Mopute, Kec. Oheo, Kabupaten Konawe Utara, Sulawesi Tenggara","Kabupaten Konawe Utara, Sulawesi Tenggara",SULAWESI TENGGARA,,Indonesia,,,,-3.3798822,122.0575526,https://maps.google.com/?cid=0x0:0x1b0d0f4f6734e8bd,
perumahan,Komplek perumahan,Griya Aflah Ranomeeto,"Unnamed Road, Ranomeeto, Kec. Ranomeeto, Kabupaten Konawe Selatan, Sulawesi Tenggara 93870","Ranomeeto, Kec. Ranomeeto, Kabupaten Konawe Selatan",SULAWESI TENGGARA,93870.0,Indonesia,,,,-4.0497791,122.4585194,https://maps.google.com/?cid=0x0:0xcb4312ef50e4363c,
perumahan,Komplek perumahan,Kios barokah,"J2WW+G22, Linomoiyo, Kec. Oheo, Kabupaten Konawe Utara, Sulawesi Tenggara 93353","Linomoiyo, Kec. Oheo, Kabupaten Konawe Utara",SULAWESI TENGGARA,93353.0,Indonesia, 082350708334,,,-3.3537334,122.0450271,https://maps.google.com/?cid=0x0:0x96f53603717fa1ff,
perumahan,Komplek perumahan,Desa wunduhaka,"G426+WWC, Wunduhaka, Kec. Asera, Kabupaten Konawe Utara, Sulawesi Tenggara 93353","Wunduhaka, Kec. Asera, Kabupaten Konawe Utara",SULAWESI TENGGARA,93353.0,Indonesia,,,,-3.4976758,122.1122811,https://maps.google.com/?cid=0x0:0x52670e37d443ff04,
perumahan,Komplek perumahan,Rumah Kiky,"J3F4+3QJ, Mopute, Kec. Oheo, Kabupaten Konawe Utara, Sulawesi Tenggara","Kabupaten Konawe Utara, Sulawesi Tenggara",SULAWESI TENGGARA,,Indonesia,,,,-3.3772117,122.0566598,https://maps.google.com/?cid=0x0:0x5abb36a8fb5be7c,
perumahan,Vila,Rumah JM,"J3R7+HM, Tadoloiyo, Kec. Oheo, Kabupaten Konawe Utara, Sulawesi Tenggara","Kabupaten Konawe Utara, Sulawesi Tenggara",SULAWESI TENGGARA,,Indonesia,,,,-3.3585135,122.0642172,https://maps.google.com/?cid=0x0:0xb7370154e0c7b553,
perumahan,Komplek perumahan,Amorome utama,"G3J8+F4J utama, Amorome, Kec. Asera, Kabupaten Konawe Utara, Sulawesi Tenggara","Kabupaten Konawe Utara, Sulawesi Tenggara",SULAWESI TENGGARA,,Indonesia,,,,-3.4687813,122.0652791,https://maps.google.com/?cid=0x0:0x69f10048537eb82c,
perumahan,Masjid,Morombo,"J792+2CH, Morombo, Kec. Lasolo kepulauan, Kabupaten Konawe Utara, Sulawesi Tenggara 93352","Morombo, Kec. Lasolo kepulauan, Kabupaten Konawe Utara",SULAWESI TENGGARA,93352.0,Indonesia,,,,-3.3824479,122.2511095,https://maps.google.com/?cid=0x0:0x64303769ca29a77a,
perumahan,Perumahan,PENGINAPAN RIKA,"J6RV+J6F, Upt. Morombo/Tobimeita, Kecamatan Langgikima, Kabupaten Konawe Utara, Sulawesi Tenggara 93352","Upt. Morombo/Tobimeita, Kecamatan Langgikima, Kabupaten Konawe Utara",SULAWESI TENGGARA,93352.0,Indonesia, 085333695368,,,-3.3584262,122.2430415,https://maps.google.com/?cid=0x0:0xd957b90cb2bedb14,
perumahan,Rumah Makan,Rumah Makan Pangkep Sawa,"6CQM+JFR, Tongauna, Kec. Sawa, Kabupaten Konawe Utara, Sulawesi Tenggara 93352","Tongauna, Kec. Sawa, Kabupaten Konawe Utara",SULAWESI TENGGARA,93352.0,Indonesia, 082187406812,,,-3.7608755,122.4336357,https://maps.google.com/?cid=0x0:0xcdc77cc3a58baf1f,
perumahan,Indonesia,RM. Pangkep,"2CMR+V9R, Lakomea, Kec. Sampara, Kabupaten Konawe, Sulawesi Tenggara 93354","Lakomea, Kec. Sampara, Kabupaten Konawe",SULAWESI TENGGARA,93354.0,Indonesia, 085342222322,,,-3.9652617,122.4409045,https://maps.google.com/?cid=0x0:0xe3d06a00a093d315,
perumahan,Restoran,Rumah Makan Pangkep,"2G69+CFM, Jl. Brigjen M. Yoenoes, Bende, Kec. Kadia, Kota Kendari, Sulawesi Tenggara 93561","Jl. Brigjen M. Yoenoes, Bende, Kec. Kadia, Kota Kendari",SULAWESI TENGGARA,93561.0,Indonesia,,,,-3.9889598,122.5186354,https://maps.google.com/?cid=0x0:0x828e349f8346695f,
perumahan,perumahan,,,,SULAWESI TENGGARA,,Indonesia,,,,,,https://maps.google.com/?cid=0x0:0xcdc77cc3a58baf1fu0026onu003dCotou0026midu003d/g/11hd9nwnfn,
perumahan,perumahan,,,,SULAWESI TENGGARA,,Indonesia,,,,,,https://maps.google.com/?cid=0x0:0xcdc77cc3a58baf1fu0026onu003dKappurungu0026midu003d/g/11hd9nwnfn,
perumahan,perumahan,,,,SULAWESI TENGGARA,,Indonesia,,,,,,https://maps.google.com/?cid=0x0:0xcdc77cc3a58baf1fu0026onu003dIkan+Bakaru0026midu003d/g/11hd9nwnfn,
perumahan,perumahan,,,,SULAWESI TENGGARA,,Indonesia,,,,,,https://maps.google.com/?cid=0x0:0xcdc77cc3a58baf1fu0026onu0026midu003d/g/11hd9nwnfn,
perumahan,Komplek perumahan,Desa Tudungano,"6CP5+QHF, Sawa, Kec. Sawa, Kabupaten Konawe Utara, Sulawesi Tenggara 93352","Sawa, Kec. Sawa, Kabupaten Konawe Utara",SULAWESI TENGGARA,93352.0,Indonesia,,,,-3.763125,122.4088799,https://maps.google.com/?cid=0x0:0xdd4f5954e434a29d,
perumahan,Komplek perumahan,Rumah ikha,"6CP4+P73, Sawa, Kec. Sawa, Kabupaten Konawe Utara, Sulawesi Tenggara 93352","Sawa, Kec. Sawa, Kabupaten Konawe Utara",SULAWESI TENGGARA,93352.0,Indonesia,,,,-3.7632475,122.4056648,https://maps.google.com/?cid=0x0:0xade2972fa9129b19,
perumahan,Perhimpunan Pengembang Perumahan,RUMAHNANDA,"6CRF+X8P, Sawa, Kec. Sawa, Kabupaten Konawe Utara, Sulawesi Tenggara 93352","Sawa, Kec. Sawa, Kabupaten Konawe Utara",SULAWESI TENGGARA,93352.0,Indonesia,,,,-3.7571068,122.4234512,https://maps.google.com/?cid=0x0:0x4bc51dc40213ff1b,
perumahan,Perhimpunan Pengembang Perumahan,Jut sawa,"6CQ8+W6G, Sawa, Kec. Sawa, Kabupaten Konawe Utara, Sulawesi Tenggara 93352","Sawa, Kec. Sawa, Kabupaten Konawe Utara",SULAWESI TENGGARA,93352.0,Indonesia,,,,-3.7601824,122.415579,https://maps.google.com/?cid=0x0:0xfc96433067785a16,
perumahan,Rumah Kayu,Rumah ebe,"6CVC+FXV, Laimeo, Kec. Sawa, Kabupaten Konawe Utara, Sulawesi Tenggara 93352","Laimeo, Kec. Sawa, Kabupaten Konawe Utara",SULAWESI TENGGARA,93352.0,Indonesia,,,,-3.7562615,122.4224275,https://maps.google.com/?cid=0x0:0x79bc8b1d3f806a68,
perumahan,Perhimpunan Pengembang Perumahan,Hamadungsawa,"6CRF+X8P, Sawa, Kec. Sawa, Kabupaten Konawe Utara, Sulawesi Tenggara 93352","Sawa, Kec. Sawa, Kabupaten Konawe Utara",SULAWESI TENGGARA,93352.0,Indonesia,,,,-3.7570937,122.4233821,https://maps.google.com/?cid=0x0:0xe747efdecde2658b,
perumahan,Komplek perumahan,Rumah Papa Resta,"6CVC+65C, Jl. Poros Bungku Sel. - Kendari, Sawa, Kec. Sawa, Kabupaten Konawe Utara, Sulawesi Tenggara 93352","Jl. Poros Bungku Sel. - Kendari, Sawa, Kec. Sawa, Kabupaten Konawe Utara",SULAWESI TENGGARA,93352.0,Indonesia,,,,-3.7559573,122.4210888,https://maps.google.com/?cid=0x0:0x58993cf75718b6c9,
perumahan,Komplek perumahan,Rumah Pribadi Rosmini Aras,"7C2F+6GX, Laimeo, Kec. Sawa, Kabupaten Konawe Utara, Sulawesi Tenggara 93352","Laimeo, Kec. Sawa, Kabupaten Konawe Utara",SULAWESI TENGGARA,93352.0,Indonesia,,,,-3.7493995,122.4238691,https://maps.google.com/?cid=0x0:0x4bf320d6991a2a9,
perumahan,Rumah wisata,ALEX JOHANIS HOME,"Sawa, Kec. Sawa, Kabupaten Konawe Utara, Sulawesi Tenggara 93352","Kec. Sawa, Kabupaten Konawe Utara",SULAWESI TENGGARA,93352.0,Indonesia,,,,-3.7573561,122.4213733,https://maps.google.com/?cid=0x0:0xcb6e2a0d1a61b6c4,
perumahan,Komplek perumahan,Rumah papa dzaky,"6CVC+2MC, Sawa, Kec. Sawa, Kabupaten Konawe Utara, Sulawesi Tenggara 93352","Sawa, Kec. Sawa, Kabupaten Konawe Utara",SULAWESI TENGGARA,93352.0,Indonesia,,,,-3.7574227,122.4216614,https://maps.google.com/?cid=0x0:0xd022e798eb5dcf5b,
perumahan,Komplek perumahan,Rumah fathan,"6CV8+6WV, Jl. Poros Bungku Sel. - Kendari, Sawa, Kec. Sawa, Kabupaten Konawe Utara, Sulawesi Tenggara 93352","Jl. Poros Bungku Sel. - Kendari, Sawa, Kec. Sawa, Kabupaten Konawe Utara",SULAWESI TENGGARA,93352.0,Indonesia,,,,-3.7573249,122.4175382,https://maps.google.com/?cid=0x0:0xf6b8e70dda60bef1,
perumahan,Komplek perumahan,Rumah Papa Etha,"6CVC+65C, Jl. Poros Bungku Sel. - Kendari, Sawa, Kec. Sawa, Kabupaten Konawe Utara, Sulawesi Tenggara 93352","Jl. Poros Bungku Sel. - Kendari, Sawa, Kec. Sawa, Kabupaten Konawe Utara",SULAWESI TENGGARA,93352.0,Indonesia,,,,-3.7557328,122.4209282,https://maps.google.com/?cid=0x0:0x2b42e7fa7b175edb,
perumahan,perumahan,Sulawesi Tenggara 93352,"Kabupaten Konawe Utara, Sulawesi Tenggara","Kabupaten Konawe Utara, Sulawesi Tenggara",SULAWESI TENGGARA,,Indonesia,,,,-3.7041573,122.2427,https://maps.google.com/?cid=0x0:0x888ae8f2fa8ed5e8,
perumahan,perumahan,Kec. Wawo,"Kabupaten Kolaka Utara, Sulawesi Tenggara","Kabupaten Kolaka Utara, Sulawesi Tenggara",SULAWESI TENGGARA,,Indonesia,,,,-3.6780928,121.0413713,https://maps.google.com/?cid=0x0:0x748e72d6124032b8,
perumahan,Komplek perumahan,"Ulu Wawo, Kecamatan Wawo, Kabupaten Kolaka Utara","826M+7QQ, Ulu Wawo, Kec. Wawo, Kabupaten Kolaka Utara, Sulawesi Tenggara 93956","Ulu Wawo, Kec. Wawo, Kabupaten Kolaka Utara",SULAWESI TENGGARA,93956.0,Indonesia,,,,-3.6892787,121.034485,https://maps.google.com/?cid=0x0:0xbbc2c230e91d08ab,
perumahan,Komplek perumahan,Rumah Feri,"826P+Q8C, Ulu Wawo, Kec. Wawo, Kabupaten Kolaka Utara, Sulawesi Tenggara 93956","Ulu Wawo, Kec. Wawo, Kabupaten Kolaka Utara",SULAWESI TENGGARA,93956.0,Indonesia,,,,-3.6880679,121.0357523,https://maps.google.com/?cid=0x0:0x5ec6f1d58f604ed4,
perumahan,Komplek perumahan,Rumah wahid,"94HR+QX2, Salurengko, Kec. Wawo, Kabupaten Kolaka Utara, Sulawesi Tenggara 93956","Salurengko, Kec. Wawo, Kabupaten Kolaka Utara",SULAWESI TENGGARA,93956.0,Indonesia,,,,-3.6206159,121.1424001,https://maps.google.com/?cid=0x0:0x40bdcb8552c3d59,
perumahan,Komplek perumahan,Rumah oktazahra,"blog D, Bukit Mekongga permai, Walasiho, Kec. Wawo, Kabupaten Kolaka Utara, Sulawesi Tenggara 93552","Bukit Mekongga permai, Walasiho, Kec. Wawo, Kabupaten Kolaka Utara",SULAWESI TENGGARA,93552.0,Indonesia,,,,-3.665,121.2358333,https://maps.google.com/?cid=0x0:0x9cc7b487a167676b,
perumahan,perumahan,Rumah Wati,"825P+XC, Wawo, Kec. Wawo, Kabupaten Kolaka Utara, Sulawesi Tenggara","Kabupaten Kolaka Utara, Sulawesi Tenggara",SULAWESI TENGGARA,,Indonesia,,,,-3.6900345,121.0361158,https://maps.google.com/?cid=0x0:0x5e7b06070e33c8b1,
perumahan,Komplek perumahan,Rendy,"828R+3C9, Wawo, Kec. Wawo, Kabupaten Kolaka Utara, Sulawesi Tenggara","Kabupaten Kolaka Utara, Sulawesi Tenggara",SULAWESI TENGGARA,,Indonesia,,,,-3.6848271,121.041094,https://maps.google.com/?cid=0x0:0x7e70aadbf9d0548,
perumahan,Komplek perumahan,Rumah umi manis,"83V2+3X2, Jl. Poros Ranteangin - Kolaka, Salurengko, Kec. Wawo, Kabupaten Kolaka Utara, Sulawesi Tenggara 93956","Jl. Poros Ranteangin - Kolaka, Salurengko, Kec. Wawo, Kabupaten Kolaka Utara",SULAWESI TENGGARA,93956.0,Indonesia,,,,-3.6572048,121.0521926,https://maps.google.com/?cid=0x0:0xa8829226311b4c69,
perumahan,Komplek perumahan,landolia,"82FF+795, Landolia, Kecamatan Rante Angin, Kabupaten Kolaka Utara, Sulawesi Tenggara 93956","Landolia, Kecamatan Rante Angin, Kabupaten Kolaka Utara",SULAWESI TENGGARA,93956.0,Indonesia,,,,-3.6768563,121.0234757,https://maps.google.com/?cid=0x0:0x82e97156b01ec747,
perumahan,Komplek perumahan,Rumah H.Rimba Yusuf,"82WP+PH9, Rante Baru, Kecamatan Rante Angin, Kabupaten Kolaka Utara, Sulawesi Tenggara 93956","Rante Baru, Kecamatan Rante Angin, Kabupaten Kolaka Utara",SULAWESI TENGGARA,93956.0,Indonesia,,,,-3.6699477,121.0288489,https://maps.google.com/?cid=0x0:0x7d52277460c2a706,
perumahan,Komplek perumahan,Drs Sumarno,"828W+H74, Jl. Poros Ranteangin - Kolaka, Wawo, Kec. Wawo, Kabupaten Kolaka Utara, Sulawesi Tenggara 93956","Jl. Poros Ranteangin - Kolaka, Wawo, Kec. Wawo, Kabupaten Kolaka Utara",SULAWESI TENGGARA,93956.0,Indonesia,,,,-3.6834496,121.04593,https://maps.google.com/?cid=0x0:0xa2d2ada14660712,
perumahan,Komplek perumahan,Dusun II desa Ulu Wawo,"827M+RMF, Ulu Wawo, Kec. Wawo, Kabupaten Kolaka Utara, Sulawesi Tenggara 93956","Ulu Wawo, Kec. Wawo, Kabupaten Kolaka Utara",SULAWESI TENGGARA,93956.0,Indonesia,,,,-3.6854496,121.0341839,https://maps.google.com/?cid=0x0:0x2468207f8a50d3bb,
perumahan,Komplek perumahan,Rmh Bp Wiwi,"8299+3JW, Landolia, Kecamatan Rante Angin, Kabupaten Kolaka Utara, Sulawesi Tenggara 93956","Landolia, Kecamatan Rante Angin, Kabupaten Kolaka Utara",SULAWESI TENGGARA,93956.0,Indonesia,,,,-3.6822698,121.0190228,https://maps.google.com/?cid=0x0:0xf12c4427b0a93dbe,
perumahan,Komplek perumahan,Rumah andi richa aurora negar,"82PH+74, Lawekara, Kecamatan Rante Angin, Kabupaten Kolaka Utara, Sulawesi Tenggara","Kabupaten Kolaka Utara, Sulawesi Tenggara",SULAWESI TENGGARA,,Indonesia,,,,-3.6643561,121.0277976,https://maps.google.com/?cid=0x0:0x33739fdad7961dc8,
perumahan,Komplek perumahan,Rumah gue,"82CJ+27R, Ulu Wawo, Kec. Wawo, Kabupaten Kolaka Utara, Sulawesi Tenggara 93956","Ulu Wawo, Kec. Wawo, Kabupaten Kolaka Utara",SULAWESI TENGGARA,93956.0,Indonesia,,,,-3.6798835,121.0306432,https://maps.google.com/?cid=0x0:0x3eb80ab3b0a7782,
perumahan,Komplek perumahan,Rmh pa Geri,"82PW+MJW, Jln trans Sulawesi, Puumbolo, Kec. Wawo, Kabupaten Kolaka Utara, Sulawesi Tenggara 93956","Jln trans Sulawesi, Puumbolo, Kec. Wawo, Kabupaten Kolaka Utara",SULAWESI TENGGARA,93956.0,Indonesia,,,,-3.6632722,121.0465931,https://maps.google.com/?cid=0x0:0xec441fb1363090b1,
perumahan,Komplek perumahan,Home basman,"82MV+9VV, Jl. Poros Ranteangin - Kolaka, Puumbolo, Kec. Wawo, Kabupaten Kolaka Utara, Sulawesi Tenggara 93956","Jl. Poros Ranteangin - Kolaka, Puumbolo, Kec. Wawo, Kabupaten Kolaka Utara",SULAWESI TENGGARA,93956.0,Indonesia,,,,-3.667788,121.043613,https://maps.google.com/?cid=0x0:0x2c26e6b5b3f892f6,
perumahan,Komplek perumahan,RESKI HENDRIK SUSANTO,"943R+6X2, Puumbolo, Kec. Wawo, Kabupaten Kolaka Utara, Sulawesi Tenggara 93956","Puumbolo, Kec. Wawo, Kabupaten Kolaka Utara",SULAWESI TENGGARA,93956.0,Indonesia,,,,-3.6469854,121.1424001,https://maps.google.com/?cid=0x0:0x67b4585f9ab09105,
perumahan,Gedung Apartemen,Rumah Gian,"8324+C8W, Walasiho, Kec. Wawo, Kabupaten Kolaka Utara, Sulawesi Tenggara","Kabupaten Kolaka Utara, Sulawesi Tenggara",SULAWESI TENGGARA,,Indonesia,,,,-3.6988925,121.0558233,https://maps.google.com/?cid=0x0:0xa43ae7b6a8bdefd6,
perumahan,Komplek perumahan,Sabaruddin,"8324+J3Q, Jl. Mansyur, Walasiho, Kec. Wawo, Kabupaten Kolaka Utara, Sulawesi Tenggara 93956","Jl. Mansyur, Walasiho, Kec. Wawo, Kabupaten Kolaka Utara",SULAWESI TENGGARA,93956.0,Indonesia,,,,-3.6984176,121.0552381,https://maps.google.com/?cid=0x0:0x8b8fd68840135d59,
perumahan,Komplek perumahan,Wawo,"V58C+4C7, Salu Dongka, Kec. Pakue Utara, Kabupaten Kolaka Utara, Sulawesi Tenggara","Kabupaten Kolaka Utara, Sulawesi Tenggara",SULAWESI TENGGARA,,Indonesia,,,,-3.1347227,121.1710389,https://maps.google.com/?cid=0x0:0x5c41f489f7ea101f,
perumahan,Perhimpunan Pengembang Perumahan,Rumah uswa,"V34Q+G6M, Latali, Kec. Pakue Tengah, Kabupaten Kolaka Utara, Sulawesi Tenggara","Kabupaten Kolaka Utara, Sulawesi Tenggara",SULAWESI TENGGARA,,Indonesia,,,,-3.1436522,121.0880316,https://maps.google.com/?cid=0x0:0xae65c12142816ed3,
perumahan,perumahan,Kec. Wawo,"Kabupaten Bima, Nusa Tenggara Bar.","Kabupaten Bima, Nusa Tenggara Bar.",SULAWESI TENGGARA,,Indonesia,,,,-8.5607035,118.8638881,https://maps.google.com/?cid=0x0:0x39c7ea33ad45db43,
perumahan,Komplek perumahan,Kompleks Perumahan Loka Indah,"FRMV+25Q, Gg. 01 Lanco, Maria Utara, Kec. Wawo, Kabupaten Bima, Nusa Tenggara Bar. 84119","Gg. 01 Lanco, Maria Utara, Kec. Wawo, Kabupaten Bima",SULAWESI TENGGARA,84119.0,Indonesia,,,,-8.5174155,118.842994,https://maps.google.com/?cid=0x0:0xbd8e0877dbd3a56f,
perumahan,Komplek perumahan,Raba wawo,"CVQ8+R46, Jl. Lintas Bima-Sape, Lampe, Kec. Rasanae Tim., Kabupaten Bima, Nusa Tenggara Bar.","Kabupaten Bima, Nusa Tenggara Bar.",SULAWESI TENGGARA,,Indonesia,,,,-8.56045,118.8652538,https://maps.google.com/?cid=0x0:0x66adf68070f8178d,
perumahan,Komplek perumahan,"Jln. Ekonomi, Kambilo wawo","FV62+9X3, Jln. Lintas Dore Wau - Doro Kala, Kambilo, Kec. Wawo, Kabupaten Bima, Nusa Tenggara Bar. 84181","Jln. Lintas Dore Wau - Doro Kala, Kambilo, Kec. Wawo, Kabupaten Bima",SULAWESI TENGGARA,84181.0,Indonesia,,,,-8.5391109,118.8524178,https://maps.google.com/?cid=0x0:0x758bb611ac3abc0,
perumahan,Perumahan,Perumahan Adzkia,"FRCW+2J6, Maria, Kec. Wawo, Kabupaten Bima, Nusa Tenggara Bar. 84119","Maria, Kec. Wawo, Kabupaten Bima",SULAWESI TENGGARA,84119.0,Indonesia,,,,-8.5299718,118.8465047,https://maps.google.com/?cid=0x0:0x9b43a45b2bf8bd3f,
perumahan,Komplek perumahan,Perumahan Abdul Rahman,"CVQ6+HX6, Jl. Lintas Bima-Sape, Kombo, Kec. Wawo, Kabupaten Bima, Nusa Tenggara Bar. 84181","Jl. Lintas Bima-Sape, Kombo, Kec. Wawo, Kabupaten Bima",SULAWESI TENGGARA,84181.0,Indonesia,,,,-8.5609486,118.8618937,https://maps.google.com/?cid=0x0:0xc31c0f8bd0279ce6,
perumahan,Pembangunan Perumahan,Perumahan Kayangan,"FRHV+GJ6, Maria, Kec. Wawo, Kabupaten Bima, Nusa Tenggara Bar. 84119","Maria, Kec. Wawo, Kabupaten Bima",SULAWESI TENGGARA,84119.0,Indonesia,,,,-8.5212067,118.8440036,https://maps.google.com/?cid=0x0:0x99ff2db933311e81,
perumahan,Komplek perumahan,Wawo,"V58C+4C7, Salu Dongka, Kec. Pakue Utara, Kabupaten Kolaka Utara, Sulawesi Tenggara","Kabupaten Kolaka Utara, Sulawesi Tenggara",SULAWESI TENGGARA,,Indonesia,,,,-3.1347227,121.1710389,https://maps.google.com/?cid=0x0:0x5c41f489f7ea101f,
perumahan,Perhimpunan Pengembang Perumahan,Rumah uswa,"V34Q+G6M, Latali, Kec. Pakue Tengah, Kabupaten Kolaka Utara, Sulawesi Tenggara","Kabupaten Kolaka Utara, Sulawesi Tenggara",SULAWESI TENGGARA,,Indonesia,,,,-3.1436522,121.0880316,https://maps.google.com/?cid=0x0:0xae65c12142816ed3,
perumahan,perumahan,Sulawesi Tenggara 93956,"Kabupaten Kolaka Utara, Sulawesi Tenggara","Kabupaten Kolaka Utara, Sulawesi Tenggara",SULAWESI TENGGARA,,Indonesia,,,,-3.5905204,121.1252135,https://maps.google.com/?cid=0x0:0x65e443ed518d4559,
perumahan,Komplek perumahan,Rumah Feri,"826P+Q8C, Ulu Wawo, Kec. Wawo, Kabupaten Kolaka Utara, Sulawesi Tenggara 93956","Ulu Wawo, Kec. Wawo, Kabupaten Kolaka Utara",SULAWESI TENGGARA,93956.0,Indonesia,,,,-3.6880679,121.0357523,https://maps.google.com/?cid=0x0:0x5ec6f1d58f604ed4,
perumahan,Komplek perumahan,Harianto,"Bukit Mekongga Permai, Walasiho, Kec. Wawo, Kabupaten Kolaka Utara, Sulawesi Tenggara 93552","Walasiho, Kec. Wawo, Kabupaten Kolaka Utara",SULAWESI TENGGARA,93552.0,Indonesia,,,,-3.665,121.2358333,https://maps.google.com/?cid=0x0:0xaf2f8db6000352ba,
perumahan,Komplek perumahan,Rumah wahid,"94HR+QX2, Salurengko, Kec. Wawo, Kabupaten Kolaka Utara, Sulawesi Tenggara 93956","Salurengko, Kec. Wawo, Kabupaten Kolaka Utara",SULAWESI TENGGARA,93956.0,Indonesia,,,,-3.6206159,121.1424001,https://maps.google.com/?cid=0x0:0x40bdcb8552c3d59,
perumahan,Komplek perumahan,Rumah masse,"9XHJ+QHX, Woise, Kec. Lambai, Kabupaten Kolaka Utara, Sulawesi Tenggara 93956","Woise, Kec. Lambai, Kabupaten Kolaka Utara",SULAWESI TENGGARA,93956.0,Indonesia,,,,-3.6205106,120.981498,https://maps.google.com/?cid=0x0:0x431fdd63135be213,
perumahan,Komplek perumahan,Rumah Papa Accu,"92R4+3H, Lambai, Kec. Lambai, Kabupaten Kolaka Utara, Sulawesi Tenggara 93956","Lambai, Kec. Lambai, Kabupaten Kolaka Utara",SULAWESI TENGGARA,93956.0,Indonesia,,,,-3.6097292,121.0063637,https://maps.google.com/?cid=0x0:0x5cb257d88c374331,
perumahan,Komplek perumahan,Dusun II desa Ulu Wawo,"827M+RMF, Ulu Wawo, Kec. Wawo, Kabupaten Kolaka Utara, Sulawesi Tenggara 93956","Ulu Wawo, Kec. Wawo, Kabupaten Kolaka Utara",SULAWESI TENGGARA,93956.0,Indonesia,,,,-3.6854496,121.0341839,https://maps.google.com/?cid=0x0:0x2468207f8a50d3bb,
perumahan,Komplek perumahan,landolia,"82FF+795, Landolia, Kecamatan Rante Angin, Kabupaten Kolaka Utara, Sulawesi Tenggara 93956","Landolia, Kecamatan Rante Angin, Kabupaten Kolaka Utara",SULAWESI TENGGARA,93956.0,Indonesia,,,,-3.6768563,121.0234757,https://maps.google.com/?cid=0x0:0x82e97156b01ec747,
perumahan,Komplek perumahan,Drs Sumarno,"828W+H74, Jl. Poros Ranteangin - Kolaka, Wawo, Kec. Wawo, Kabupaten Kolaka Utara, Sulawesi Tenggara 93956","Jl. Poros Ranteangin - Kolaka, Wawo, Kec. Wawo, Kabupaten Kolaka Utara",SULAWESI TENGGARA,93956.0,Indonesia,,,,-3.6834496,121.04593,https://maps.google.com/?cid=0x0:0xa2d2ada14660712,
perumahan,Komplek perumahan,Home basman,"82MV+9VV, Jl. Poros Ranteangin - Kolaka, Puumbolo, Kec. Wawo, Kabupaten Kolaka Utara, Sulawesi Tenggara 93956","Jl. Poros Ranteangin - Kolaka, Puumbolo, Kec. Wawo, Kabupaten Kolaka Utara",SULAWESI TENGGARA,93956.0,Indonesia,,,,-3.667788,121.043613,https://maps.google.com/?cid=0x0:0x2c26e6b5b3f892f6,
perumahan,Komplek perumahan,Sabaruddin,"8324+J3Q, Jl. Mansyur, Walasiho, Kec. Wawo, Kabupaten Kolaka Utara, Sulawesi Tenggara 93956","Jl. Mansyur, Walasiho, Kec. Wawo, Kabupaten Kolaka Utara",SULAWESI TENGGARA,93956.0,Indonesia,,,,-3.6984176,121.0552381,https://maps.google.com/?cid=0x0:0x8b8fd68840135d59,
perumahan,Komplek perumahan,Rumah umi manis,"83V2+3X2, Jl. Poros Ranteangin - Kolaka, Salurengko, Kec. Wawo, Kabupaten Kolaka Utara, Sulawesi Tenggara 93956","Jl. Poros Ranteangin - Kolaka, Salurengko, Kec. Wawo, Kabupaten Kolaka Utara",SULAWESI TENGGARA,93956.0,Indonesia,,,,-3.6572048,121.0521926,https://maps.google.com/?cid=0x0:0xa8829226311b4c69,
perumahan,Komplek perumahan,Rumah H.Rimba Yusuf,"82WP+PH9, Rante Baru, Kecamatan Rante Angin, Kabupaten Kolaka Utara, Sulawesi Tenggara 93956","Rante Baru, Kecamatan Rante Angin, Kabupaten Kolaka Utara",SULAWESI TENGGARA,93956.0,Indonesia,,,,-3.6699477,121.0288489,https://maps.google.com/?cid=0x0:0x7d52277460c2a706,
perumahan,Komplek perumahan,"Mosso,kecamatan tehoru","9XGJ+VFW, Jl. Poros Ranteangin - Kolaka, Woise, Kec. Lambai, Kabupaten Kolaka Utara, Sulawesi Tenggara 93916","Jl. Poros Ranteangin - Kolaka, Woise, Kec. Lambai, Kabupaten Kolaka Utara",SULAWESI TENGGARA,93916.0,Indonesia,,,,-3.6220077,120.9817244,https://maps.google.com/?cid=0x0:0xfabef053479558d8,
perumahan,Komplek perumahan,Rendy,"828R+3C9, Wawo, Kec. Wawo, Kabupaten Kolaka Utara, Sulawesi Tenggara","Kabupaten Kolaka Utara, Sulawesi Tenggara",SULAWESI TENGGARA,,Indonesia,,,,-3.6848271,121.041094,https://maps.google.com/?cid=0x0:0x7e70aadbf9d0548,
perumahan,perumahan,Tempat kerom,"9234+Q3X, Pohu, Kecamatan Rante Angin, Kabupaten Kolaka Utara, Sulawesi Tenggara 93956","Pohu, Kecamatan Rante Angin, Kabupaten Kolaka Utara",SULAWESI TENGGARA,93956.0,Indonesia,,,,-3.6455094,121.0052418,https://maps.google.com/?cid=0x0:0x335ab4e5d62ddec9,
perumahan,perumahan,Rumah Wati,"825P+XC, Wawo, Kec. Wawo, Kabupaten Kolaka Utara, Sulawesi Tenggara","Kabupaten Kolaka Utara, Sulawesi Tenggara",SULAWESI TENGGARA,,Indonesia,,,,-3.6900345,121.0361158,https://maps.google.com/?cid=0x0:0x5e7b06070e33c8b1,
perumahan,Komplek perumahan,Rmh Bp Wiwi,"8299+3JW, Landolia, Kecamatan Rante Angin, Kabupaten Kolaka Utara, Sulawesi Tenggara 93956","Landolia, Kecamatan Rante Angin, Kabupaten Kolaka Utara",SULAWESI TENGGARA,93956.0,Indonesia,,,,-3.6822698,121.0190228,https://maps.google.com/?cid=0x0:0xf12c4427b0a93dbe,
perumahan,perumahan,Rumah Purna sari Kadie,"C26H+34J, Lorong safruddin, Woise, Kec. Lambai, Kabupaten Kolaka Utara, Sulawesi Tenggara","Kabupaten Kolaka Utara, Sulawesi Tenggara",SULAWESI TENGGARA,,Indonesia,,,,-3.5897971,121.0277763,https://maps.google.com/?cid=0x0:0xf691da378117472d,
perumahan,Komplek perumahan,Rmh pa Geri,"82PW+MJW, Jln trans Sulawesi, Puumbolo, Kec. Wawo, Kabupaten Kolaka Utara, Sulawesi Tenggara 93956","Jln trans Sulawesi, Puumbolo, Kec. Wawo, Kabupaten Kolaka Utara",SULAWESI TENGGARA,93956.0,Indonesia,,,,-3.6632722,121.0465931,https://maps.google.com/?cid=0x0:0xec441fb1363090b1,
perumahan,Pembangunan Perumahan,"Heryanto, Bpk ifah","8324+2CM, Walasiho, Kec. Wawo, Kabupaten Kolaka Utara, Sulawesi Tenggara 93956","Walasiho, Kec. Wawo, Kabupaten Kolaka Utara",SULAWESI TENGGARA,93956.0,Indonesia,,,,-3.6999046,121.0560406,https://maps.google.com/?cid=0x0:0x25ea49449a34bdf3,
perumahan,Komplek perumahan,RESKI HENDRIK SUSANTO,"943R+6X2, Puumbolo, Kec. Wawo, Kabupaten Kolaka Utara, Sulawesi Tenggara 93956","Puumbolo, Kec. Wawo, Kabupaten Kolaka Utara",SULAWESI TENGGARA,93956.0,Indonesia,,,,-3.6469854,121.1424001,https://maps.google.com/?cid=0x0:0x67b4585f9ab09105,
perumahan,Komplek perumahan,Rumah oktazahra,"blog D, Bukit Mekongga permai, Walasiho, Kec. Wawo, Kabupaten Kolaka Utara, Sulawesi Tenggara 93552","Bukit Mekongga permai, Walasiho, Kec. Wawo, Kabupaten Kolaka Utara",SULAWESI TENGGARA,93552.0,Indonesia,,,,-3.665,121.2358333,https://maps.google.com/?cid=0x0:0x9cc7b487a167676b,
perumahan,perumahan,Sulawesi Tenggara,,Sulawesi Tenggara,SULAWESI TENGGARA,,Indonesia,,,,-4.14491,122.174605,https://maps.google.com/?cid=0x0:0x621d7c439f04a4ed,
perumahan,Pembangunan Perumahan,Rumah devandra,"P588+GC9, Hialu Utama (Upt. Hialu II), Kec. Wiwirano, Kabupaten Konawe Utara, Sulawesi Tenggara 93353","Hialu Utama (Upt. Hialu II), Kec. Wiwirano, Kabupaten Konawe Utara",SULAWESI TENGGARA,93353.0,Indonesia,,,,-3.2837014,122.1661197,https://maps.google.com/?cid=0x0:0x58941ccc48b39be7,
perumahan,Masjid,Desa mopute,"J3C4+3R, Wiwirano, Kec. Oheo, Kabupaten Konawe Utara, Sulawesi Tenggara 93353","Wiwirano, Kec. Oheo, Kabupaten Konawe Utara",SULAWESI TENGGARA,93353.0,Indonesia, 082199465552,,,-3.3797571,122.0571076,https://maps.google.com/?cid=0x0:0x806ba2fc751b075a,
perumahan,Pembangunan Perumahan,Hasman,"Q5C3+384, Wacu Malewe, Kec. Wiwirano, Kabupaten Konawe Utara, Sulawesi Tenggara 93353","Wacu Malewe, Kec. Wiwirano, Kabupaten Konawe Utara",SULAWESI TENGGARA,93353.0,Indonesia,,,,-3.2298618,122.1533164,https://maps.google.com/?cid=0x0:0x9c233562b00e45d3,
perumahan,Komplek perumahan,Tn. Sidiq,"Q4JV+GQH, Wawoheo, Kec. Wiwirano, Kabupaten Konawe Utara, Sulawesi Tenggara 93353","Wawoheo, Kec. Wiwirano, Kabupaten Konawe Utara",SULAWESI TENGGARA,93353.0,Indonesia,,,,-3.218919,122.144378,https://maps.google.com/?cid=0x0:0xf3c7965026f6f449,
perumahan,Komplek perumahan,Rumah TN Saharudin,"Q532+82G, Lamonae, Kec. Wiwirano, Kabupaten Konawe Utara, Sulawesi Tenggara 93353","Lamonae, Kec. Wiwirano, Kabupaten Konawe Utara",SULAWESI TENGGARA,93353.0,Indonesia,,,,-3.2466921,122.1500712,https://maps.google.com/?cid=0x0:0x47c163e2970949cf,
perumahan,Komplek perumahan,Muhrim,"R427+VHJ, Lamparinga (Upt Padalere), Kec. Wiwirano, Kabupaten Konawe Utara, Sulawesi Tenggara 93353","Lamparinga (Upt Padalere), Kec. Wiwirano, Kabupaten Konawe Utara",SULAWESI TENGGARA,93353.0,Indonesia,,,,-3.1977814,122.1138984,https://maps.google.com/?cid=0x0:0x3a8c8ef7347c88a,
perumahan,Komplek perumahan,Rumah Mubarak,"Q46J+HVC, Lamonae Utama, Kec. Wiwirano, Kabupaten Konawe Utara, Sulawesi Tenggara 93353","Lamonae Utama, Kec. Wiwirano, Kabupaten Konawe Utara",SULAWESI TENGGARA,93353.0,Indonesia,,,,-3.2385264,122.1321402,https://maps.google.com/?cid=0x0:0x3e2e6392ddfaf108,
perumahan,Komplek perumahan,Rumah Made Medana,"P575+HC3, Kolosua, Kec. Wiwirano, Kabupaten Konawe Utara, Sulawesi Tenggara 93353","Kolosua, Kec. Wiwirano, Kabupaten Konawe Utara",SULAWESI TENGGARA,93353.0,Indonesia, 085255007269,,,-3.2857456,122.157425,https://maps.google.com/?cid=0x0:0x35ce649bd92090c2,
perumahan,Kantor Pemerintah,Desa Kolosua,"P574+V2, Kolosua, Kec. Wiwirano, Kabupaten Konawe Utara, Sulawesi Tenggara 93353","Kolosua, Kec. Wiwirano, Kabupaten Konawe Utara",SULAWESI TENGGARA,93353.0,Indonesia,,,,-3.285865,122.15389,https://maps.google.com/?cid=0x0:0x38f589299e7d1978,
perumahan,Komplek perumahan,Tumah edi,"P574+29H, Kolosua, Kec. Wiwirano, Kabupaten Konawe Utara, Sulawesi Tenggara 93353","Kolosua, Kec. Wiwirano, Kabupaten Konawe Utara",SULAWESI TENGGARA,93353.0,Indonesia,,,,-3.2874367,122.155985,https://maps.google.com/?cid=0x0:0x3eff1a237f3feeb8,
perumahan,Hostel,"Wacupinodo, Wiwirano, Konawe Utara","R44F+RHC, Lamparinga (Upt Padalere), Kec. Wiwirano, Kabupaten Konawe Utara, Sulawesi Tenggara 93353","Lamparinga (Upt Padalere), Kec. Wiwirano, Kabupaten Konawe Utara",SULAWESI TENGGARA,93353.0,Indonesia, 085340206290,,,-3.1929262,122.1238793,https://maps.google.com/?cid=0x0:0xa61f6334efb6fef1,
perumahan,Komplek perumahan,Rumah Kadek Dwi,"R44C+GQM, Lamparinga (Upt Padalere), Kec. Wiwirano, Kabupaten Konawe Utara, Sulawesi Tenggara 93353","Lamparinga (Upt Padalere), Kec. Wiwirano, Kabupaten Konawe Utara",SULAWESI TENGGARA,93353.0,Indonesia,,,,-3.1936669,122.1219162,https://maps.google.com/?cid=0x0:0x81c6b64240ed4667,
perumahan,Perhimpunan Pengembang Perumahan,Rumah Ambar family,"P572+7QM, Kolosua, Kec. Wiwirano, Kabupaten Konawe Utara, Sulawesi Tenggara 93353","Kolosua, Kec. Wiwirano, Kabupaten Konawe Utara",SULAWESI TENGGARA,93353.0,Indonesia, 082332232878,,,-3.2867903,122.1519187,https://maps.google.com/?cid=0x0:0xd28901b0f01f6cb7,
perumahan,Komplek perumahan,Desa lamparinga,"Q4X6+4V6, Lamparinga (Upt Padalere), Kec. Wiwirano, Kabupaten Konawe Utara, Sulawesi Tenggara 93353","Lamparinga (Upt Padalere), Kec. Wiwirano, Kabupaten Konawe Utara",SULAWESI TENGGARA,93353.0,Indonesia,,,,-3.2022173,122.1121466,https://maps.google.com/?cid=0x0:0x308b1416a18fe75f,
perumahan,Komplek perumahan,Rumah kios Nasrul T,"M3XW+52H, Kuratao, Kec. Wiwirano, Kabupaten Konawe Utara, Sulawesi Tenggara 93353","Kuratao, Kec. Wiwirano, Kabupaten Konawe Utara",SULAWESI TENGGARA,93353.0,Indonesia,,,,-3.3020685,122.0951062,https://maps.google.com/?cid=0x0:0xa74d4ea704e3b519,
perumahan,Produsen,Pabrik tahu,"P56C+HPR, Hialu Utama (Upt. Hialu II), Kec. Wiwirano, Kabupaten Konawe Utara, Sulawesi Tenggara 93353","Hialu Utama (Upt. Hialu II), Kec. Wiwirano, Kabupaten Konawe Utara",SULAWESI TENGGARA,93353.0,Indonesia,,,,-3.2880736,122.171985,https://maps.google.com/?cid=0x0:0x4fef420dfbee489b,
perumahan,perumahan,kadek agus budiarta,"P57G+8H, Hialu Utama (Upt. Hialu II), Kec. Wiwirano, Kabupaten Konawe Utara, Sulawesi Tenggara 93353","Hialu Utama (Upt. Hialu II), Kec. Wiwirano, Kabupaten Konawe Utara",SULAWESI TENGGARA,93353.0,Indonesia,,,,-3.2860733,122.1760808,https://maps.google.com/?cid=0x0:0x92adf909da2c89be,
perumahan,Komplek perumahan,Bukit Kolosua,"P573+QC3, Kolosua, Kec. Wiwirano, Kabupaten Konawe Utara, Sulawesi Tenggara 93353","Kolosua, Kec. Wiwirano, Kabupaten Konawe Utara",SULAWESI TENGGARA,93353.0,Indonesia,,,,-3.2856114,122.1535361,https://maps.google.com/?cid=0x0:0xbfd6458646b8df95,
perumahan,Kantor Perusahaan,Desa Lamonae Utama,"P3JC+MX6, Lamonae Utama, Kec. Wiwirano, Kabupaten Konawe Utara, Sulawesi Tenggara 93353","Lamonae Utama, Kec. Wiwirano, Kabupaten Konawe Utara",SULAWESI TENGGARA,93353.0,Indonesia,,,,-3.2683391,122.0723886,https://maps.google.com/?cid=0x0:0xd79836a57038d2b4,
perumahan,perumahan,Sulawesi Tenggara 93353,Sulawesi Tenggara,Sulawesi Tenggara,SULAWESI TENGGARA,,Indonesia,,,,-3.2548527,121.7195459,https://maps.google.com/?cid=0x0:0x9fb3fe070f9105ac,
perumahan,Komplek perumahan,Selvi,"R4H8+JX4, Tetewatu, Kec. Wiwirano, Kabupaten Konawe Utara, Sulawesi Tenggara","Kabupaten Konawe Utara, Sulawesi Tenggara",SULAWESI TENGGARA,,Indonesia,,,,-3.1718392,122.1181808,https://maps.google.com/?cid=0x0:0xb5e8825b6a3812dc,
perumahan,Komplek perumahan,Fajar Homestay,"J39M+VF9, Wiwirano, Kec. Oheo, Kabupaten Konawe Utara, Sulawesi Tenggara","Kabupaten Konawe Utara, Sulawesi Tenggara",SULAWESI TENGGARA,,Indonesia,,,,-3.3803291,122.0837445,https://maps.google.com/?cid=0x0:0xdb19a0145d0e6cf7,
perumahan,Pembangunan Perumahan,Home Yuda Iswanto,"Q532+G2, Lamonae, Kec. Wiwirano, Kabupaten Konawe Utara, Sulawesi Tenggara","Kabupaten Konawe Utara, Sulawesi Tenggara",SULAWESI TENGGARA,,Indonesia, 082223250577,,,-3.2461853,122.1500065,https://maps.google.com/?cid=0x0:0x6c0e1b374cd515b1,
perumahan,Bengkel Sepeda Motor,BENGKEL YAMAHA GOBEL SPRT,"M3XW+52H, Kuratao, Kec. Wiwirano, Kabupaten Konawe Utara, Sulawesi Tenggara","Kabupaten Konawe Utara, Sulawesi Tenggara",SULAWESI TENGGARA,,Indonesia, 082266896270,,,-3.3020685,122.0951062,https://maps.google.com/?cid=0x0:0xefae313ee7a574d2,
perumahan,Pembangunan Perumahan,Lopoo,"V32M+26, Pondoa, Kec. Wiwirano, Kabupaten Konawe Utara, Sulawesi Tenggara","Kabupaten Konawe Utara, Sulawesi Tenggara",SULAWESI TENGGARA,,Indonesia,,,,-3.1498964,122.0830963,https://maps.google.com/?cid=0x0:0x34519d4fc3df60c2,
perumahan,Komplek perumahan,Suparta home,"R44X+CW4, Culambatu (Upt. Lamonae III), Kec. Wiwirano, Kabupaten Konawe Utara, Sulawesi Tenggara","Kabupaten Konawe Utara, Sulawesi Tenggara",SULAWESI TENGGARA,,Indonesia,,,,-3.1939876,122.1498306,https://maps.google.com/?cid=0x0:0x2b21635347b84562,
perumahan,Pembangunan Perumahan,Kebun noval,"W3F8+QR, Pondoa, Kec. Wiwirano, Kabupaten Konawe Utara, Sulawesi Tenggara","Kabupaten Konawe Utara, Sulawesi Tenggara",SULAWESI TENGGARA,,Indonesia,,,,-3.075513,122.067012,https://maps.google.com/?cid=0x0:0x9831727a7639bb02,
perumahan,Pembangunan Perumahan,home anhisa,"Q42X+QW7, Jl. Trans Sulawesi, Lamonae, Kec. Wiwirano, Kabupaten Konawe Utara, Sulawesi Tenggara","Kabupaten Konawe Utara, Sulawesi Tenggara",SULAWESI TENGGARA,,Indonesia,,,,-3.2488331,122.1500653,https://maps.google.com/?cid=0x0:0x78c02684489368ce,
