Category;Real Category;Business Name;Address;City;State;Postal Code;Country;Phone;Email;Website;Latitude;Longitude;Map Link;Details Link
"hotel";"hotel";"Sumatera Utara 22851";"Sumatera Utara";"Sumatera Utara";"SUMATERA UTARA";"";"Indonesia";"";"";"";"1.2976797";"97.330053";"https://maps.google.com/?cid=0x0:0xb3058656cf8eec8e";""
"hotel";"hotel";"Hotel Kaliki";"Jl. Yos Sudarso Ujung No.43, Ombolata Ulu, Kec. Gunungsitoli, Kota Gunungsitoli, Sumatera Utara 22811";"Ombolata Ulu, Kec. Gunungsitoli, Kota Gunungsitoli";"SUMATERA UTARA";"22811";"Indonesia";" 085261924076";"";"";"1.3115065";"97.6096907";"https://maps.google.com/?cid=0x0:0xd8a96c35f191556a";""
"hotel";"hotel";"Hotel Nasional";"Jl. Kelapa No.55, Ps. Gn. Sitoli, Kec. Gunungsitoli, Kota Gunungsitoli, Sumatera Utara 22815";"Ps. Gn. Sitoli, Kec. Gunungsitoli, Kota Gunungsitoli";"SUMATERA UTARA";"22815";"Indonesia";" 08116585577";"";"";"1.2864364";"97.6245224";"https://maps.google.com/?cid=0x0:0x2875c5a273fc311";""
"hotel";"hotel";"Baloho Beach Resort Nias";"Jl. Pantai Baloho, Hiligeho, Telukdalem, Kabupaten Nias Selatan, Sumatera Utara 22865";"Hiligeho, Telukdalem, Kabupaten Nias Selatan";"SUMATERA UTARA";"22865";"Indonesia";" 082281611789";"";"";"0.5584583";"97.8053486";"https://maps.google.com/?cid=0x0:0xcf67a1d24c81a219";""
"hotel";"hotel";"Hotel Danau Toba International";"Jalan Talun Sungkit No.17, Parapat, Kec.Girsang Sipangan Bolon, Tiga Raja, Kec. Girsang Sipangan Bolon, Kabupaten Simalungun, Sumatera Utara 21174";"Parapat, Kec.Girsang Sipangan Bolon, Tiga Raja, Kec. Girsang Sipangan Bolon, Kabupaten Simalungun";"SUMATERA UTARA";"21174";"Indonesia";" 062541583";"";"";"2.664312";"98.9345151";"https://maps.google.com/?cid=0x0:0x81ac42d168dde22d";""
"hotel";"hotel";"Mega Nasional Hotel  Restaurant";"Jalan Raya Pelud Binaka km.8 Desa Laraga Luaha Laraga Gunungsitoli Selatan, Luaha Laraga, Gunungsitoli, Kabupaten Nias, Sumatera Utara 22851";"Luaha Laraga, Gunungsitoli, Kabupaten Nias";"SUMATERA UTARA";"22851";"Indonesia";" 082163336663";"";"";"1.2396038";"97.6509534";"https://maps.google.com/?cid=0x0:0x7166cae3352b50d";""
"hotel";"hotel";"Museum Pusaka Nias";"No. 134-A, Jl. Yos Sudarso Ujung, Iraonogeba, Kec. Gunungsitoli, Kota Gunungsitoli, Sumatera Utara 22812";"Jl. Yos Sudarso Ujung, Iraonogeba, Kec. Gunungsitoli, Kota Gunungsitoli";"SUMATERA UTARA";"22812";"Indonesia";" 082396049557";"";"";"1.2986641";"97.6080542";"https://maps.google.com/?cid=0x0:0x26f817428b618831";""
"hotel";"hotel";"Dian Otomosi Hotel";"Jl. Yos Sudarso Ujung No.Km. 3, 2, Ombolata Ulu, Kec. Gunungsitoli, Kota Gunungsitoli, Sumatera Utara 22811";"2, Ombolata Ulu, Kec. Gunungsitoli, Kota Gunungsitoli";"SUMATERA UTARA";"22811";"Indonesia";" 081370571116";"";"";"1.3137076";"97.6071069";"https://maps.google.com/?cid=0x0:0xddaf487f8d4d296e";""
"hotel";"hotel";"Tbi Hotel  Resort";"Jl. Baloho Indah, Hiligeho, Kec. Tlk. Dalam, Kabupaten Nias Selatan, Sumatera Utara 22865";"Hiligeho, Kec. Tlk. Dalam, Kabupaten Nias Selatan";"SUMATERA UTARA";"22865";"Indonesia";" 081348341726";"";"";"0.5605392";"97.8020019";"https://maps.google.com/?cid=0x0:0x3404c8b1c706b789";""
"hotel";"hotel";"Hotel Toba Nauli";"Jl. Haranggaol No.03, Tiga Raja, Kec. Girsang Sipangan Bolon, Kabupaten Simalungun, Sumatera Utara 21174";"Tiga Raja, Kec. Girsang Sipangan Bolon, Kabupaten Simalungun";"SUMATERA UTARA";"21174";"Indonesia";" 085166904208";"";"";"2.6645919";"98.9313612";"https://maps.google.com/?cid=0x0:0x17d67bb88be8c3c6";""
"hotel";"hotel";"Hotel Dan Penginapan Sthree";"7JFM+72H, Ilir, Kec. Gunungsitoli, Kota Gunungsitoli, Sumatera Utara";"Kota Gunungsitoli, Sumatera Utara";"SUMATERA UTARA";"";"Indonesia";" 0639323454";"";"";"1.2731834";"97.6326165";"https://maps.google.com/?cid=0x0:0x7ec2828e78e03dc9";""
"hotel";"hotel";"Hotel Toho Nias";"Sorake beach Kec.Luahagundre Nias island, Sumatera Utara 22865";"Kabupaten Nias Selatan, Sumatera Utara";"SUMATERA UTARA";"";"Indonesia";" 081397634604";"";"";"0.5736353";"97.7317801";"https://maps.google.com/?cid=0x0:0x3fab47b914649c59";""
"hotel";"hotel";"Nias Palace Hotel";"Jl. Moh. Hatta No.42, Kel. Pasar, Kec. Gunungsitoli, Kota Gunungsitoli, Sumatera Utara";"Kota Gunungsitoli, Sumatera Utara";"SUMATERA UTARA";"";"Indonesia";" 063921336";"";"";"1.2880567";"97.6149151";"https://maps.google.com/?cid=0x0:0x685742aa9cde534b";""
"hotel";"hotel";"Kec. Bawolato";"Kabupaten Nias, Sumatera Utara";"Kabupaten Nias, Sumatera Utara";"SUMATERA UTARA";"";"Indonesia";"";"";"";"0.9830852";"97.8424596";"https://maps.google.com/?cid=0x0:0x4039d80b220db60";""
"hotel";"hotel";"Sumatera Utara 22876";"Kec. Bawolato, Kabupaten Nias, Sumatera Utara";"Kabupaten Nias, Sumatera Utara";"SUMATERA UTARA";"";"Indonesia";"";"";"";"0.9634714";"97.8177601";"https://maps.google.com/?cid=0x0:0xbd072e1dfaa20192";""
"hotel";"hotel";"Labersa Hotel  Convention Center Samosir";"Simarmata, Simanindo, Kabupaten Samosir, Sumatera Utara 22395";"Simanindo, Kabupaten Samosir";"SUMATERA UTARA";"22395";"Indonesia";" 08116063555";"";"";"2.7416459";"98.7095258";"https://maps.google.com/?cid=0x0:0x6fd34e6bdf43b7af";""
"hotel";"hotel";"Hotel Nasional";"Jl. Kelapa No.55, Ps. Gn. Sitoli, Kec. Gunungsitoli, Kota Gunungsitoli, Sumatera Utara 22815";"Ps. Gn. Sitoli, Kec. Gunungsitoli, Kota Gunungsitoli";"SUMATERA UTARA";"22815";"Indonesia";" 08116585577";"";"";"1.2864364";"97.6245224";"https://maps.google.com/?cid=0x0:0x2875c5a273fc311";""
"hotel";"hotel";"Hotel Dan Penginapan Sthree";"7JFM+72H, Ilir, Kec. Gunungsitoli, Kota Gunungsitoli, Sumatera Utara";"Kota Gunungsitoli, Sumatera Utara";"SUMATERA UTARA";"";"Indonesia";" 0639323454";"";"";"1.2731834";"97.6326165";"https://maps.google.com/?cid=0x0:0x7ec2828e78e03dc9";""
"hotel";"hotel";"Ita Soposurung Hotel";"Jl. Lintas Sumatera No.252, Hinalang Bagasan, Kec. Balige, Toba, Sumatera Utara 22312";"Hinalang Bagasan, Kec. Balige, Toba";"SUMATERA UTARA";"22312";"Indonesia";" 06324320526";"";"";"2.3270655";"99.0499578";"https://maps.google.com/?cid=0x0:0x15f44678ff299e92";""
"hotel";"hotel";"Hotel Toho Nias";"Sorake beach Kec.Luahagundre Nias island, Sumatera Utara 22865";"Kabupaten Nias Selatan, Sumatera Utara";"SUMATERA UTARA";"";"Indonesia";" 081397634604";"";"";"0.5736353";"97.7317801";"https://maps.google.com/?cid=0x0:0x3fab47b914649c59";""
"hotel";"hotel";"Sorake";"";"";"SUMATERA UTARA";"";"Indonesia";"";"";"";"0.5731015";"97.7322786";"https://maps.google.com/?cid=0x0:0xfe7c0a1ce7df9709";""
"hotel";"hotel";"Baga Resort Hotel";"Lagundri, Kec. Tlk. Dalam, Kabupaten Nias Selatan, Sumatera Utara 22865";"Kec. Tlk. Dalam, Kabupaten Nias Selatan";"SUMATERA UTARA";"22865";"Indonesia";" 081292727727";"";"";"0.5821997";"97.7381083";"https://maps.google.com/?cid=0x0:0x3c3f262bc824fa";""
"hotel";"hotel";"Rumah tede natu";"WVHG+H5F, Tetehosi - Lahusa, Gazamanu, Kec. Bawolato, Kabupaten Nias, Sumatera Utara 22876";"Tetehosi - Lahusa, Gazamanu, Kec. Bawolato, Kabupaten Nias";"SUMATERA UTARA";"22876";"Indonesia";"";"";"";"0.9289424";"97.8754186";"https://maps.google.com/?cid=0x0:0x12fea3ef5ed8b24b";""
"hotel";"Tujuan Wisata";"Best camp MJ Bozihona Beach";"3RWJ+QP3, Bozihona, Kecamatan Idanogawo, Kabupaten Nias, Sumatera Utara";"Kabupaten Nias, Sumatera Utara";"SUMATERA UTARA";"";"Indonesia";"";"";"";"1.0968875";"97.8317969";"https://maps.google.com/?cid=0x0:0x307960cd653c4117";""
"hotel";"Pondok";"A.rinda ndruru";"2RX2+35X, Unnamed Road, Maliwaa, Kecamatan Idanogawo, Kabupaten Nias, Sumatera Utara 22872";"Unnamed Road, Maliwaa, Kecamatan Idanogawo, Kabupaten Nias";"SUMATERA UTARA";"22872";"Indonesia";"";"";"";"1.0477267";"97.8004733";"https://maps.google.com/?cid=0x0:0xd66e163899764ed1";""
"hotel";"hotel";"Sumatera Utara 22815";"Sumatera Utara";"Sumatera Utara";"SUMATERA UTARA";"";"Indonesia";"";"";"";"1.1349561";"97.5572231";"https://maps.google.com/?cid=0x0:0x363d3d935f4724dd";""
"hotel";"hotel";"Hotel Soliga";"Jl. Pangeran Diponegoro No.432, Miga, Kec. Gunungsitoli, Nias, Sumatera Utara 22815";"Miga, Kec. Gunungsitoli, Nias";"SUMATERA UTARA";"22815";"Indonesia";" 081370291919";"";"";"1.2629184";"97.6383988";"https://maps.google.com/?cid=0x0:0xe1786f17668a934a";""
"hotel";"hotel";"Hotel Dan Penginapan Sthree";"7JFM+72H, Ilir, Kec. Gunungsitoli, Kota Gunungsitoli, Sumatera Utara";"Kota Gunungsitoli, Sumatera Utara";"SUMATERA UTARA";"";"Indonesia";" 0639323454";"";"";"1.2731834";"97.6326165";"https://maps.google.com/?cid=0x0:0x7ec2828e78e03dc9";""
"hotel";"hotel";"Hotel Ocean";"7JJG+XMH, Jl. Diponegoro, Ilir, Kec. Gunungsitoli, Kota Gunungsitoli, Sumatera Utara 22811";"Jl. Diponegoro, Ilir, Kec. Gunungsitoli, Kota Gunungsitoli";"SUMATERA UTARA";"22811";"Indonesia";"";"";"";"1.2824438";"97.6267279";"https://maps.google.com/?cid=0x0:0x1c269c94f237efe6";""
"hotel";"hotel";"Go Nias Capsule Hostel";"Jl. Raya Pelud Binaka No.219, Binaka, Kec. Gido, Kota Gunungsitoli, Sumatera Utara 22870";"Binaka, Kec. Gido, Kota Gunungsitoli";"SUMATERA UTARA";"22870";"Indonesia";" 081260274444";"";"";"1.16952";"97.6931475";"https://maps.google.com/?cid=0x0:0x2124a496eba277d1";""
"hotel";"hotel";"Hotel Kaliki";"Jl. Yos Sudarso Ujung No.43, Ombolata Ulu, Kec. Gunungsitoli, Kota Gunungsitoli, Sumatera Utara 22811";"Ombolata Ulu, Kec. Gunungsitoli, Kota Gunungsitoli";"SUMATERA UTARA";"22811";"Indonesia";" 085261924076";"";"";"1.3115065";"97.6096907";"https://maps.google.com/?cid=0x0:0xd8a96c35f191556a";""
"hotel";"hotel";"Mega Nasional Hotel  Restaurant";"Jalan Raya Pelud Binaka km.8 Desa Laraga Luaha Laraga Gunungsitoli Selatan, Luaha Laraga, Gunungsitoli, Kabupaten Nias, Sumatera Utara 22851";"Luaha Laraga, Gunungsitoli, Kabupaten Nias";"SUMATERA UTARA";"22851";"Indonesia";" 082163336663";"";"";"1.2396038";"97.6509534";"https://maps.google.com/?cid=0x0:0x7166cae3352b50d";""
"hotel";"hotel";"Tundreheni Hill Hotel And Restaurant";"Jl. IR. Soekarno No.22, Saombo, Kec. Gunungsitoli, Kep. Nias, Sumatera Utara 22810";"Saombo, Kec. Gunungsitoli, Kep. Nias";"SUMATERA UTARA";"22810";"Indonesia";" 085277688821";"";"";"1.2887752";"97.6170351";"https://maps.google.com/?cid=0x0:0x24217d2c2ac61815";""
"hotel";"hotel";"Nias Palace Hotel";"Jl. Moh. Hatta No.42, Kel. Pasar, Kec. Gunungsitoli, Kota Gunungsitoli, Sumatera Utara";"Kota Gunungsitoli, Sumatera Utara";"SUMATERA UTARA";"";"Indonesia";" 063921336";"";"";"1.2880567";"97.6149151";"https://maps.google.com/?cid=0x0:0x685742aa9cde534b";""
"hotel";"hotel";"Museum Pusaka Nias";"No. 134-A, Jl. Yos Sudarso Ujung, Iraonogeba, Kec. Gunungsitoli, Kota Gunungsitoli, Sumatera Utara 22812";"Jl. Yos Sudarso Ujung, Iraonogeba, Kec. Gunungsitoli, Kota Gunungsitoli";"SUMATERA UTARA";"22812";"Indonesia";" 082396049557";"";"";"1.2986641";"97.6080542";"https://maps.google.com/?cid=0x0:0x26f817428b618831";""
"hotel";"hotel";"Libi Hotel";"Jl. Diponegoro No.103C, Ps. Gn. Sitoli, Kec. Gunungsitoli, Kota Gunungsitoli, Sumatera Utara";"Kota Gunungsitoli, Sumatera Utara";"SUMATERA UTARA";"";"Indonesia";" 082364504422";"";"";"1.2872759";"97.6226138";"https://maps.google.com/?cid=0x0:0x21b5893418c07b46";""
"hotel";"hotel";"Wisma Sangehao";"Tab, Jl. Diponegoro No.391, Sifalaete Tabaloho, Kec. Gunungsitoli, Kota Gunungsitoli, Sumatera Utara 22811";"Jl. Diponegoro No.391, Sifalaete Tabaloho, Kec. Gunungsitoli, Kota Gunungsitoli";"SUMATERA UTARA";"22811";"Indonesia";" 085297583255";"";"";"1.2715684";"97.6343797";"https://maps.google.com/?cid=0x0:0x17b9ae5389d4d32b";""
"hotel";"hotel";"Dian Otomosi Hotel";"Jl. Yos Sudarso Ujung No.Km. 3, 2, Ombolata Ulu, Kec. Gunungsitoli, Kota Gunungsitoli, Sumatera Utara 22811";"2, Ombolata Ulu, Kec. Gunungsitoli, Kota Gunungsitoli";"SUMATERA UTARA";"22811";"Indonesia";" 081370571116";"";"";"1.3137076";"97.6071069";"https://maps.google.com/?cid=0x0:0xddaf487f8d4d296e";""
"hotel";"hotel";"HOTRONA HOTEL";"Jl. Sisingamangaraja No.17, Ps. Laguboti, Kec. Laguboti, Toba, Sumatera Utara 22381";"Ps. Laguboti, Kec. Laguboti, Toba";"SUMATERA UTARA";"22381";"Indonesia";" 08170084128";"";"";"2.3539353";"99.1250646";"https://maps.google.com/?cid=0x0:0xe513d17041ed04";""
"hotel";"hotel";"Kec. Botomuzoi";"Kabupaten Nias, Sumatera Utara";"Kabupaten Nias, Sumatera Utara";"SUMATERA UTARA";"";"Indonesia";"";"";"";"1.1780338";"97.5446524";"https://maps.google.com/?cid=0x0:0x3ea36227f9a6c186";""
"hotel";"hotel";"Kec. Gido";"Kabupaten Nias, Sumatera Utara";"Kabupaten Nias, Sumatera Utara";"SUMATERA UTARA";"";"Indonesia";"";"";"";"1.17457";"97.6874949";"https://maps.google.com/?cid=0x0:0x9b3ac0e16891e3a9";""
"hotel";"hotel";"Go Nias Capsule Hostel";"Jl. Raya Pelud Binaka No.219, Binaka, Kec. Gido, Kota Gunungsitoli, Sumatera Utara 22870";"Binaka, Kec. Gido, Kota Gunungsitoli";"SUMATERA UTARA";"22870";"Indonesia";" 081260274444";"";"";"1.16952";"97.6931475";"https://maps.google.com/?cid=0x0:0x2124a496eba277d1";""
"hotel";"hotel";"Hotel Soliga";"Jl. Pangeran Diponegoro No.432, Miga, Kec. Gunungsitoli, Nias, Sumatera Utara 22815";"Miga, Kec. Gunungsitoli, Nias";"SUMATERA UTARA";"22815";"Indonesia";" 081370291919";"";"";"1.2629184";"97.6383988";"https://maps.google.com/?cid=0x0:0xe1786f17668a934a";""
"hotel";"hotel";"Hotel Ocean";"7JJG+XMH, Jl. Diponegoro, Ilir, Kec. Gunungsitoli, Kota Gunungsitoli, Sumatera Utara 22811";"Jl. Diponegoro, Ilir, Kec. Gunungsitoli, Kota Gunungsitoli";"SUMATERA UTARA";"22811";"Indonesia";"";"";"";"1.2824438";"97.6267279";"https://maps.google.com/?cid=0x0:0x1c269c94f237efe6";""
"hotel";"hotel";"Hotel Nasional";"Jl. Kelapa No.55, Ps. Gn. Sitoli, Kec. Gunungsitoli, Kota Gunungsitoli, Sumatera Utara 22815";"Ps. Gn. Sitoli, Kec. Gunungsitoli, Kota Gunungsitoli";"SUMATERA UTARA";"22815";"Indonesia";" 08116585577";"";"";"1.2864364";"97.6245224";"https://maps.google.com/?cid=0x0:0x2875c5a273fc311";""
"hotel";"hotel";"Hotel Pandu Samosir Lakeside";"Jl. Lingkar Tuktuk Siadong no. 26 Pulau, Tuktuk Siadong, Simanindo, Kabupaten Samosir, Sumatera Utara 22395";"Tuktuk Siadong, Simanindo, Kabupaten Samosir";"SUMATERA UTARA";"22395";"Indonesia";" 08119598008";"";"";"2.6740945";"98.8585839";"https://maps.google.com/?cid=0x0:0x3a86efbaea576043";""
"hotel";"hotel";"Mega Nasional Hotel  Restaurant";"Jalan Raya Pelud Binaka km.8 Desa Laraga Luaha Laraga Gunungsitoli Selatan, Luaha Laraga, Gunungsitoli, Kabupaten Nias, Sumatera Utara 22851";"Luaha Laraga, Gunungsitoli, Kabupaten Nias";"SUMATERA UTARA";"22851";"Indonesia";" 082163336663";"";"";"1.2396038";"97.6509534";"https://maps.google.com/?cid=0x0:0x7166cae3352b50d";""
"hotel";"hotel";"Tundreheni Hill Hotel And Restaurant";"Jl. IR. Soekarno No.22, Saombo, Kec. Gunungsitoli, Kep. Nias, Sumatera Utara 22810";"Saombo, Kec. Gunungsitoli, Kep. Nias";"SUMATERA UTARA";"22810";"Indonesia";" 085277688821";"";"";"1.2887752";"97.6170351";"https://maps.google.com/?cid=0x0:0x24217d2c2ac61815";""
"hotel";"hotel";"Nias Palace Hotel";"Jl. Moh. Hatta No.42, Kel. Pasar, Kec. Gunungsitoli, Kota Gunungsitoli, Sumatera Utara";"Kota Gunungsitoli, Sumatera Utara";"SUMATERA UTARA";"";"Indonesia";" 063921336";"";"";"1.2880567";"97.6149151";"https://maps.google.com/?cid=0x0:0x685742aa9cde534b";""
"hotel";"hotel";"Libi Hotel";"Jl. Diponegoro No.103C, Ps. Gn. Sitoli, Kec. Gunungsitoli, Kota Gunungsitoli, Sumatera Utara";"Kota Gunungsitoli, Sumatera Utara";"SUMATERA UTARA";"";"Indonesia";" 082364504422";"";"";"1.2872759";"97.6226138";"https://maps.google.com/?cid=0x0:0x21b5893418c07b46";""
"hotel";"hotel";"Mariana inn Hotel dan Cafe";"Jl. Lintas Sumatra No.km 100, Sei Suka/Deras, Kec. Sei Suka, Kabupaten Batu Bara, Sumatera Utara 21257";"Sei Suka/Deras, Kec. Sei Suka, Kabupaten Batu Bara";"SUMATERA UTARA";"21257";"Indonesia";" 081262300300";"";"";"3.3012057";"99.3448055";"https://maps.google.com/?cid=0x0:0xa5889721ce1f59b4";""
"hotel";"hotel";"Budi Mulia Hotel";"Jl. Kol. TPR Sinaga No.19, Parapat, Kec. Girsang Sipangan Bolon, Kabupaten Simalungun, Sumatera Utara 21174";"Parapat, Kec. Girsang Sipangan Bolon, Kabupaten Simalungun";"SUMATERA UTARA";"21174";"Indonesia";" 085166904208";"";"";"2.6643373";"98.9353334";"https://maps.google.com/?cid=0x0:0xb05e9cd0c9a4fb9e";""
"hotel";"hotel";"Wisma Sangehao";"Tab, Jl. Diponegoro No.391, Sifalaete Tabaloho, Kec. Gunungsitoli, Kota Gunungsitoli, Sumatera Utara 22811";"Jl. Diponegoro No.391, Sifalaete Tabaloho, Kec. Gunungsitoli, Kota Gunungsitoli";"SUMATERA UTARA";"22811";"Indonesia";" 085297583255";"";"";"1.2715684";"97.6343797";"https://maps.google.com/?cid=0x0:0x17b9ae5389d4d32b";""
"hotel";"hotel";"Wilgan Hotel";"79X2+VJ6, Sipare-Pare, Kec. Air Putih, Kabupaten Batu Bara, Sumatera Utara 21257";"Sipare-Pare, Kec. Air Putih, Kabupaten Batu Bara";"SUMATERA UTARA";"21257";"Indonesia";" 085362215943";"";"";"3.2996586";"99.3515227";"https://maps.google.com/?cid=0x0:0x7a374e542c606eae";""
"hotel";"hotel";"Dian Otomosi Hotel";"Jl. Yos Sudarso Ujung No.Km. 3, 2, Ombolata Ulu, Kec. Gunungsitoli, Kota Gunungsitoli, Sumatera Utara 22811";"2, Ombolata Ulu, Kec. Gunungsitoli, Kota Gunungsitoli";"SUMATERA UTARA";"22811";"Indonesia";" 081370571116";"";"";"1.3137076";"97.6071069";"https://maps.google.com/?cid=0x0:0xddaf487f8d4d296e";""
"hotel";"hotel";"Tbi Hotel  Resort";"Jl. Baloho Indah, Hiligeho, Kec. Tlk. Dalam, Kabupaten Nias Selatan, Sumatera Utara 22865";"Hiligeho, Kec. Tlk. Dalam, Kabupaten Nias Selatan";"SUMATERA UTARA";"22865";"Indonesia";" 081348341726";"";"";"0.5605392";"97.8020019";"https://maps.google.com/?cid=0x0:0x3404c8b1c706b789";""
"hotel";"hotel";"Reddoorz Near Micky Holiday";"Jl. Jamin Ginting, Sempajaya, Kec. Berastagi, Kabupaten Karo, Sumatera Utara 22152";"Sempajaya, Kec. Berastagi, Kabupaten Karo";"SUMATERA UTARA";"22152";"Indonesia";" 081264949233";"";"";"3.1996917";"98.5256045";"https://maps.google.com/?cid=0x0:0xed5aaa0ab66968fe";""
"hotel";"hotel";"Hotel Arkemo 3";"Jl. Lintas Sumatra, Tanah Tinggi, Kec. Air Putih, Kabupaten Batu Bara, Sumatera Utara 21256";"Tanah Tinggi, Kec. Air Putih, Kabupaten Batu Bara";"SUMATERA UTARA";"21256";"Indonesia";" 082365048276";"";"";"3.2625746";"99.3777782";"https://maps.google.com/?cid=0x0:0x6a749a4520b342ec";""
"hotel";"hotel";"N/A";"";"";"SUMATERA UTARA";"";"Indonesia";"";"";"";"";"";"https://maps.google.com/?cid=0x0:0x9703a3bf392e02d5%7C/g/11clzk9zfc%7Cen-ID";""
"hotel";"hotel";"Amaris Hotel Dr. Satrio Kuningan - Jakarta";"7, Jl. Prof. DR. Satrio No.23, RW.2, Kuningan Tim., Kecamatan Setiabudi, Kota Jakarta Selatan, Daerah Khusus Ibukota Jakarta 12950";"Jl. Prof. DR. Satrio No.23, RW.2, Kuningan Tim., Kecamatan Setiabudi, Kota Jakarta Selatan";"SUMATERA UTARA";"12950";"Indonesia";" 02129023336";"";"";"-6.2256071";"106.8296596";"https://maps.google.com/?cid=0x0:0x9703a3bf392e02d5";""
"hotel";"hotel";"N/A";"";"";"SUMATERA UTARA";"";"Indonesia";"";"";"";"";"";"https://maps.google.com/?cid=0x0:0x54fd31f2806946cb%7C/g/1tj5hl1s%7Cen-ID";""
"hotel";"hotel";"Manhattan Hotel Jakarta";"Jl. Prof. DR. Satrio No.Kav.19-24, RT.7/RW.4, Kuningan, Karet Kuningan, Kecamatan Setiabudi, Kota Jakarta Selatan, Daerah Khusus Ibukota Jakarta 12940";"RT.7/RW.4, Kuningan, Karet Kuningan, Kecamatan Setiabudi, Kota Jakarta Selatan";"SUMATERA UTARA";"12940";"Indonesia";" 02130040888";"";"";"-6.2252344";"106.8313176";"https://maps.google.com/?cid=0x0:0x54fd31f2806946cb";""
"hotel";"Prasmanan";"Central Park Restaurant";"Manhattan Hotel 3rd Floor, JL Prof. Dr. Satrio, No. 1, Casablanca Kuningan, RT.7/RW.4, Kuningan, Karet Kuningan, Jakarta Selatan, Kota Jakarta Selatan, Daerah Khusus Ibukota Jakarta 12950";"JL Prof. Dr. Satrio, No. 1, Casablanca Kuningan, RT.7/RW.4, Kuningan, Karet Kuningan, Jakarta Selatan, Kota Jakarta Selatan";"SUMATERA UTARA";"12950";"Indonesia";" 02130040888";"";"";"-6.2254615";"106.8312765";"https://maps.google.com/?cid=0x0:0x47e83ff4b2d01406";""
"hotel";"hotel";"N/A";"";"";"SUMATERA UTARA";"";"Indonesia";"";"";"";"";"";"https://maps.google.com/?cid=0x0:0xb5a37f1e4d342823%7C/g/1ptydqp1p%7Cen-ID";""
"hotel";"hotel";"Hotel D' Prima";"Jl. Mega Kuningan Timur II No.1, Kuningan, Kuningan Tim., Kecamatan Setiabudi, Kota Jakarta Selatan, Daerah Khusus Ibukota Jakarta 12950";"Kuningan, Kuningan Tim., Kecamatan Setiabudi, Kota Jakarta Selatan";"SUMATERA UTARA";"12950";"Indonesia";" 02129201234";"";"";"-6.2285905";"106.8282792";"https://maps.google.com/?cid=0x0:0xb5a37f1e4d342823";""
"hotel";"hotel";"Horison Ultima Suites  Residences Rasuna - Jakarta";"Apartment Taman Rasuna, Jl. H. R. Rasuna Said Tower 3, RT.17/RW.1, Menteng Atas, Kecamatan Setiabudi, Kota Jakarta Selatan, Daerah Khusus Ibukota Jakarta 12960";"Jl. H. R. Rasuna Said Tower 3, RT.17/RW.1, Menteng Atas, Kecamatan Setiabudi, Kota Jakarta Selatan";"SUMATERA UTARA";"12960";"Indonesia";" 02183705555";"";"";"-6.2193601";"106.8365809";"https://maps.google.com/?cid=0x0:0x27db10815b390914";""
"hotel";"Prasmanan";"Mezza Cafe";"Komplek Apartemen Taman Rasuna, Jl. H. R. Rasuna Said No.17, RT.17/RW.1, Menteng Atas, Kecamatan Setiabudi, Kota Jakarta Selatan, Daerah Khusus Ibukota Jakarta 12960";"Jl. H. R. Rasuna Said No.17, RT.17/RW.1, Menteng Atas, Kecamatan Setiabudi, Kota Jakarta Selatan";"SUMATERA UTARA";"12960";"Indonesia";" 02183705555";"";"";"-6.2193165";"106.8368211";"https://maps.google.com/?cid=0x0:0xc022045324feab53";""
"hotel";"hotel";"Hotel JS Luwansa";"Jl. H. R. Rasuna Said No.22 Kav. C, RT.2/RW.5, Karet Kuningan, Kecamatan Setiabudi, Kota Jakarta Selatan, Daerah Khusus Ibukota Jakarta 12940";"RT.2/RW.5, Karet Kuningan, Kecamatan Setiabudi, Kota Jakarta Selatan";"SUMATERA UTARA";"12940";"Indonesia";" 02129543030";"";"";"-6.2228755";"106.8330025";"https://maps.google.com/?cid=0x0:0x29a39276bac061d4";""
"hotel";"hotel";"N/A";"";"";"SUMATERA UTARA";"";"Indonesia";"";"";"";"";"";"https://maps.google.com/?cid=0x0:0x29a39276bac061d4%7C/g/1yfjcpq5y%7Cen-ID";""
"hotel";"hotel";"Kec. Hiliduho";"Kabupaten Nias, Sumatera Utara";"Kabupaten Nias, Sumatera Utara";"SUMATERA UTARA";"";"Indonesia";"";"";"";"1.2502486";"97.5332759";"https://maps.google.com/?cid=0x0:0x228ef20efa6adaf";""
"hotel";"hotel";"Hotel Soliga";"Jl. Pangeran Diponegoro No.432, Miga, Kec. Gunungsitoli, Nias, Sumatera Utara 22815";"Miga, Kec. Gunungsitoli, Nias";"SUMATERA UTARA";"22815";"Indonesia";" 081370291919";"";"";"1.2629184";"97.6383988";"https://maps.google.com/?cid=0x0:0xe1786f17668a934a";""
"hotel";"hotel";"Hotel Dan Penginapan Sthree";"7JFM+72H, Ilir, Kec. Gunungsitoli, Kota Gunungsitoli, Sumatera Utara";"Kota Gunungsitoli, Sumatera Utara";"SUMATERA UTARA";"";"Indonesia";" 0639323454";"";"";"1.2731834";"97.6326165";"https://maps.google.com/?cid=0x0:0x7ec2828e78e03dc9";""
"hotel";"hotel";"Hotel Ocean";"7JJG+XMH, Jl. Diponegoro, Ilir, Kec. Gunungsitoli, Kota Gunungsitoli, Sumatera Utara 22811";"Jl. Diponegoro, Ilir, Kec. Gunungsitoli, Kota Gunungsitoli";"SUMATERA UTARA";"22811";"Indonesia";"";"";"";"1.2824438";"97.6267279";"https://maps.google.com/?cid=0x0:0x1c269c94f237efe6";""
"hotel";"hotel";"Hotel Kaliki";"Jl. Yos Sudarso Ujung No.43, Ombolata Ulu, Kec. Gunungsitoli, Kota Gunungsitoli, Sumatera Utara 22811";"Ombolata Ulu, Kec. Gunungsitoli, Kota Gunungsitoli";"SUMATERA UTARA";"22811";"Indonesia";" 085261924076";"";"";"1.3115065";"97.6096907";"https://maps.google.com/?cid=0x0:0xd8a96c35f191556a";""
"hotel";"hotel";"Hotel Toho Nias";"Sorake beach Kec.Luahagundre Nias island, Sumatera Utara 22865";"Kabupaten Nias Selatan, Sumatera Utara";"SUMATERA UTARA";"";"Indonesia";" 081397634604";"";"";"0.5736353";"97.7317801";"https://maps.google.com/?cid=0x0:0x3fab47b914649c59";""
"hotel";"hotel";"Tundreheni Hill Hotel And Restaurant";"Jl. IR. Soekarno No.22, Saombo, Kec. Gunungsitoli, Kep. Nias, Sumatera Utara 22810";"Saombo, Kec. Gunungsitoli, Kep. Nias";"SUMATERA UTARA";"22810";"Indonesia";" 085277688821";"";"";"1.2887752";"97.6170351";"https://maps.google.com/?cid=0x0:0x24217d2c2ac61815";""
"hotel";"hotel";"Go Nias Capsule Hostel";"Jl. Raya Pelud Binaka No.219, Binaka, Kec. Gido, Kota Gunungsitoli, Sumatera Utara 22870";"Binaka, Kec. Gido, Kota Gunungsitoli";"SUMATERA UTARA";"22870";"Indonesia";" 081260274444";"";"";"1.16952";"97.6931475";"https://maps.google.com/?cid=0x0:0x2124a496eba277d1";""
"hotel";"hotel";"Museum Pusaka Nias";"No. 134-A, Jl. Yos Sudarso Ujung, Iraonogeba, Kec. Gunungsitoli, Kota Gunungsitoli, Sumatera Utara 22812";"Jl. Yos Sudarso Ujung, Iraonogeba, Kec. Gunungsitoli, Kota Gunungsitoli";"SUMATERA UTARA";"22812";"Indonesia";" 082396049557";"";"";"1.2986641";"97.6080542";"https://maps.google.com/?cid=0x0:0x26f817428b618831";""
"hotel";"hotel";"Nias Palace Hotel";"Jl. Moh. Hatta No.42, Kel. Pasar, Kec. Gunungsitoli, Kota Gunungsitoli, Sumatera Utara";"Kota Gunungsitoli, Sumatera Utara";"SUMATERA UTARA";"";"Indonesia";" 063921336";"";"";"1.2880567";"97.6149151";"https://maps.google.com/?cid=0x0:0x685742aa9cde534b";""
"hotel";"hotel";"Libi Hotel";"Jl. Diponegoro No.103C, Ps. Gn. Sitoli, Kec. Gunungsitoli, Kota Gunungsitoli, Sumatera Utara";"Kota Gunungsitoli, Sumatera Utara";"SUMATERA UTARA";"";"Indonesia";" 082364504422";"";"";"1.2872759";"97.6226138";"https://maps.google.com/?cid=0x0:0x21b5893418c07b46";""
"hotel";"hotel";"Mega Nasional Hotel  Restaurant";"Jalan Raya Pelud Binaka km.8 Desa Laraga Luaha Laraga Gunungsitoli Selatan, Luaha Laraga, Gunungsitoli, Kabupaten Nias, Sumatera Utara 22851";"Luaha Laraga, Gunungsitoli, Kabupaten Nias";"SUMATERA UTARA";"22851";"Indonesia";" 082163336663";"";"";"1.2396038";"97.6509534";"https://maps.google.com/?cid=0x0:0x7166cae3352b50d";""
"hotel";"hotel";"Dian Otomosi Hotel";"Jl. Yos Sudarso Ujung No.Km. 3, 2, Ombolata Ulu, Kec. Gunungsitoli, Kota Gunungsitoli, Sumatera Utara 22811";"2, Ombolata Ulu, Kec. Gunungsitoli, Kota Gunungsitoli";"SUMATERA UTARA";"22811";"Indonesia";" 081370571116";"";"";"1.3137076";"97.6071069";"https://maps.google.com/?cid=0x0:0xddaf487f8d4d296e";""
"hotel";"hotel";"Wisma Sangehao";"Tab, Jl. Diponegoro No.391, Sifalaete Tabaloho, Kec. Gunungsitoli, Kota Gunungsitoli, Sumatera Utara 22811";"Jl. Diponegoro No.391, Sifalaete Tabaloho, Kec. Gunungsitoli, Kota Gunungsitoli";"SUMATERA UTARA";"22811";"Indonesia";" 085297583255";"";"";"1.2715684";"97.6343797";"https://maps.google.com/?cid=0x0:0x17b9ae5389d4d32b";""
"hotel";"hotel";"Tbi Hotel  Resort";"Jl. Baloho Indah, Hiligeho, Kec. Tlk. Dalam, Kabupaten Nias Selatan, Sumatera Utara 22865";"Hiligeho, Kec. Tlk. Dalam, Kabupaten Nias Selatan";"SUMATERA UTARA";"22865";"Indonesia";" 081348341726";"";"";"0.5605392";"97.8020019";"https://maps.google.com/?cid=0x0:0x3404c8b1c706b789";""
"hotel";"hotel";"Hotel ONO NIHA";"Jl. Jenderal Ahmad Yani No.78, Ps. Tlk. Dalam, Kec. Tlk. Dalam, Kabupaten Nias Selatan, Sumatera Utara 22865";"Ps. Tlk. Dalam, Kec. Tlk. Dalam, Kabupaten Nias Selatan";"SUMATERA UTARA";"22865";"Indonesia";" 081370206809";"";"";"0.5657265";"97.8197062";"https://maps.google.com/?cid=0x0:0x73239ec3d7064ab1";""
"hotel";"hotel";"Baloho Beach Resort Nias";"Jl. Pantai Baloho, Hiligeho, Telukdalem, Kabupaten Nias Selatan, Sumatera Utara 22865";"Hiligeho, Telukdalem, Kabupaten Nias Selatan";"SUMATERA UTARA";"22865";"Indonesia";" 082281611789";"";"";"0.5584583";"97.8053486";"https://maps.google.com/?cid=0x0:0xcf67a1d24c81a219";""
"hotel";"hotel";"Sumatera Utara 22854";"Kec. Botomuzoi, Kabupaten Nias, Sumatera Utara";"Kabupaten Nias, Sumatera Utara";"SUMATERA UTARA";"";"Indonesia";"";"";"";"1.1873897";"97.5301397";"https://maps.google.com/?cid=0x0:0x6075fa9e225a1eff";""
"hotel";"hotel";"Hotel Soliga";"Jl. Pangeran Diponegoro No.432, Miga, Kec. Gunungsitoli, Nias, Sumatera Utara 22815";"Miga, Kec. Gunungsitoli, Nias";"SUMATERA UTARA";"22815";"Indonesia";" 081370291919";"";"";"1.2629184";"97.6383988";"https://maps.google.com/?cid=0x0:0xe1786f17668a934a";""
"hotel";"hotel";"Hotel Nasional";"Jl. Kelapa No.55, Ps. Gn. Sitoli, Kec. Gunungsitoli, Kota Gunungsitoli, Sumatera Utara 22815";"Ps. Gn. Sitoli, Kec. Gunungsitoli, Kota Gunungsitoli";"SUMATERA UTARA";"22815";"Indonesia";" 08116585577";"";"";"1.2864364";"97.6245224";"https://maps.google.com/?cid=0x0:0x2875c5a273fc311";""
"hotel";"hotel";"Hotel Dan Penginapan Sthree";"7JFM+72H, Ilir, Kec. Gunungsitoli, Kota Gunungsitoli, Sumatera Utara";"Kota Gunungsitoli, Sumatera Utara";"SUMATERA UTARA";"";"Indonesia";" 0639323454";"";"";"1.2731834";"97.6326165";"https://maps.google.com/?cid=0x0:0x7ec2828e78e03dc9";""
"hotel";"hotel";"Hotel Toho Nias";"Sorake beach Kec.Luahagundre Nias island, Sumatera Utara 22865";"Kabupaten Nias Selatan, Sumatera Utara";"SUMATERA UTARA";"";"Indonesia";" 081397634604";"";"";"0.5736353";"97.7317801";"https://maps.google.com/?cid=0x0:0x3fab47b914649c59";""
"hotel";"hotel";"Hotel Kaliki";"Jl. Yos Sudarso Ujung No.43, Ombolata Ulu, Kec. Gunungsitoli, Kota Gunungsitoli, Sumatera Utara 22811";"Ombolata Ulu, Kec. Gunungsitoli, Kota Gunungsitoli";"SUMATERA UTARA";"22811";"Indonesia";" 085261924076";"";"";"1.3115065";"97.6096907";"https://maps.google.com/?cid=0x0:0xd8a96c35f191556a";""
"hotel";"hotel";"Go Nias Capsule Hostel";"Jl. Raya Pelud Binaka No.219, Binaka, Kec. Gido, Kota Gunungsitoli, Sumatera Utara 22870";"Binaka, Kec. Gido, Kota Gunungsitoli";"SUMATERA UTARA";"22870";"Indonesia";" 081260274444";"";"";"1.16952";"97.6931475";"https://maps.google.com/?cid=0x0:0x2124a496eba277d1";""
"hotel";"hotel";"Tundreheni Hill Hotel And Restaurant";"Jl. IR. Soekarno No.22, Saombo, Kec. Gunungsitoli, Kep. Nias, Sumatera Utara 22810";"Saombo, Kec. Gunungsitoli, Kep. Nias";"SUMATERA UTARA";"22810";"Indonesia";" 085277688821";"";"";"1.2887752";"97.6170351";"https://maps.google.com/?cid=0x0:0x24217d2c2ac61815";""
"hotel";"hotel";"Nias Palace Hotel";"Jl. Moh. Hatta No.42, Kel. Pasar, Kec. Gunungsitoli, Kota Gunungsitoli, Sumatera Utara";"Kota Gunungsitoli, Sumatera Utara";"SUMATERA UTARA";"";"Indonesia";" 063921336";"";"";"1.2880567";"97.6149151";"https://maps.google.com/?cid=0x0:0x685742aa9cde534b";""
"hotel";"hotel";"Museum Pusaka Nias";"No. 134-A, Jl. Yos Sudarso Ujung, Iraonogeba, Kec. Gunungsitoli, Kota Gunungsitoli, Sumatera Utara 22812";"Jl. Yos Sudarso Ujung, Iraonogeba, Kec. Gunungsitoli, Kota Gunungsitoli";"SUMATERA UTARA";"22812";"Indonesia";" 082396049557";"";"";"1.2986641";"97.6080542";"https://maps.google.com/?cid=0x0:0x26f817428b618831";""
"hotel";"hotel";"Mega Nasional Hotel  Restaurant";"Jalan Raya Pelud Binaka km.8 Desa Laraga Luaha Laraga Gunungsitoli Selatan, Luaha Laraga, Gunungsitoli, Kabupaten Nias, Sumatera Utara 22851";"Luaha Laraga, Gunungsitoli, Kabupaten Nias";"SUMATERA UTARA";"22851";"Indonesia";" 082163336663";"";"";"1.2396038";"97.6509534";"https://maps.google.com/?cid=0x0:0x7166cae3352b50d";""
"hotel";"hotel";"Libi Hotel";"Jl. Diponegoro No.103C, Ps. Gn. Sitoli, Kec. Gunungsitoli, Kota Gunungsitoli, Sumatera Utara";"Kota Gunungsitoli, Sumatera Utara";"SUMATERA UTARA";"";"Indonesia";" 082364504422";"";"";"1.2872759";"97.6226138";"https://maps.google.com/?cid=0x0:0x21b5893418c07b46";""
"hotel";"hotel";"Wisma Sangehao";"Tab, Jl. Diponegoro No.391, Sifalaete Tabaloho, Kec. Gunungsitoli, Kota Gunungsitoli, Sumatera Utara 22811";"Jl. Diponegoro No.391, Sifalaete Tabaloho, Kec. Gunungsitoli, Kota Gunungsitoli";"SUMATERA UTARA";"22811";"Indonesia";" 085297583255";"";"";"1.2715684";"97.6343797";"https://maps.google.com/?cid=0x0:0x17b9ae5389d4d32b";""
"hotel";"hotel";"Dian Otomosi Hotel";"Jl. Yos Sudarso Ujung No.Km. 3, 2, Ombolata Ulu, Kec. Gunungsitoli, Kota Gunungsitoli, Sumatera Utara 22811";"2, Ombolata Ulu, Kec. Gunungsitoli, Kota Gunungsitoli";"SUMATERA UTARA";"22811";"Indonesia";" 081370571116";"";"";"1.3137076";"97.6071069";"https://maps.google.com/?cid=0x0:0xddaf487f8d4d296e";""
"hotel";"Penginapan";"Ailshie Villa";"Desa Hutagalung Lumban Hariara, Hutatoruan V, Kec. Tarutung, Kabupaten Tapanuli Utara, Sumatera Utara 22411";"Hutatoruan V, Kec. Tarutung, Kabupaten Tapanuli Utara";"SUMATERA UTARA";"22411";"Indonesia";" 085190007737";"";"";"2.0101248";"98.982385";"https://maps.google.com/?cid=0x0:0xd9eac065987cc547";""
"hotel";"hotel";"Penginapan Golat Asri";"2X8W+2J4, Jl. Jct. Simorangkir, Si Raja Hutagalung, Kec. Siatas Barita, Kabupaten Tapanuli Utara, Sumatera Utara 22416";"Jl. Jct. Simorangkir, Si Raja Hutagalung, Kec. Siatas Barita, Kabupaten Tapanuli Utara";"SUMATERA UTARA";"22416";"Indonesia";"";"";"";"2.0150195";"98.996583";"https://maps.google.com/?cid=0x0:0x9a622bff40c34888";""
"hotel";"hotel";"Hotel Kaliki";"Jl. Yos Sudarso Ujung No.43, Ombolata Ulu, Kec. Gunungsitoli, Kota Gunungsitoli, Sumatera Utara 22811";"Ombolata Ulu, Kec. Gunungsitoli, Kota Gunungsitoli";"SUMATERA UTARA";"22811";"Indonesia";" 085261924076";"";"";"1.3115065";"97.6096907";"https://maps.google.com/?cid=0x0:0xd8a96c35f191556a";""
"hotel";"hotel";"Kec. HiliSerangkai";"Kabupaten Nias, Sumatera Utara";"Kabupaten Nias, Sumatera Utara";"SUMATERA UTARA";"";"Indonesia";"";"";"";"1.2079822";"97.5725863";"https://maps.google.com/?cid=0x0:0x87e5f26307fe5db6";""
"hotel";"hotel";"Hotel Dan Penginapan Sthree";"7JFM+72H, Ilir, Kec. Gunungsitoli, Kota Gunungsitoli, Sumatera Utara";"Kota Gunungsitoli, Sumatera Utara";"SUMATERA UTARA";"";"Indonesia";" 0639323454";"";"";"1.2731834";"97.6326165";"https://maps.google.com/?cid=0x0:0x7ec2828e78e03dc9";""
"hotel";"hotel";"Hotel Soliga";"Jl. Pangeran Diponegoro No.432, Miga, Kec. Gunungsitoli, Nias, Sumatera Utara 22815";"Miga, Kec. Gunungsitoli, Nias";"SUMATERA UTARA";"22815";"Indonesia";" 081370291919";"";"";"1.2629184";"97.6383988";"https://maps.google.com/?cid=0x0:0xe1786f17668a934a";""
"hotel";"hotel";"Hotel Ocean";"7JJG+XMH, Jl. Diponegoro, Ilir, Kec. Gunungsitoli, Kota Gunungsitoli, Sumatera Utara 22811";"Jl. Diponegoro, Ilir, Kec. Gunungsitoli, Kota Gunungsitoli";"SUMATERA UTARA";"22811";"Indonesia";"";"";"";"1.2824438";"97.6267279";"https://maps.google.com/?cid=0x0:0x1c269c94f237efe6";""
"hotel";"hotel";"Hotel Nasional";"Jl. Kelapa No.55, Ps. Gn. Sitoli, Kec. Gunungsitoli, Kota Gunungsitoli, Sumatera Utara 22815";"Ps. Gn. Sitoli, Kec. Gunungsitoli, Kota Gunungsitoli";"SUMATERA UTARA";"22815";"Indonesia";" 08116585577";"";"";"1.2864364";"97.6245224";"https://maps.google.com/?cid=0x0:0x2875c5a273fc311";""
"hotel";"hotel";"Go Nias Capsule Hostel";"Jl. Raya Pelud Binaka No.219, Binaka, Kec. Gido, Kota Gunungsitoli, Sumatera Utara 22870";"Binaka, Kec. Gido, Kota Gunungsitoli";"SUMATERA UTARA";"22870";"Indonesia";" 081260274444";"";"";"1.16952";"97.6931475";"https://maps.google.com/?cid=0x0:0x2124a496eba277d1";""
"hotel";"hotel";"Tundreheni Hill Hotel And Restaurant";"Jl. IR. Soekarno No.22, Saombo, Kec. Gunungsitoli, Kep. Nias, Sumatera Utara 22810";"Saombo, Kec. Gunungsitoli, Kep. Nias";"SUMATERA UTARA";"22810";"Indonesia";" 085277688821";"";"";"1.2887752";"97.6170351";"https://maps.google.com/?cid=0x0:0x24217d2c2ac61815";""
"hotel";"hotel";"Mega Nasional Hotel  Restaurant";"Jalan Raya Pelud Binaka km.8 Desa Laraga Luaha Laraga Gunungsitoli Selatan, Luaha Laraga, Gunungsitoli, Kabupaten Nias, Sumatera Utara 22851";"Luaha Laraga, Gunungsitoli, Kabupaten Nias";"SUMATERA UTARA";"22851";"Indonesia";" 082163336663";"";"";"1.2396038";"97.6509534";"https://maps.google.com/?cid=0x0:0x7166cae3352b50d";""
"hotel";"hotel";"Nias Palace Hotel";"Jl. Moh. Hatta No.42, Kel. Pasar, Kec. Gunungsitoli, Kota Gunungsitoli, Sumatera Utara";"Kota Gunungsitoli, Sumatera Utara";"SUMATERA UTARA";"";"Indonesia";" 063921336";"";"";"1.2880567";"97.6149151";"https://maps.google.com/?cid=0x0:0x685742aa9cde534b";""
"hotel";"hotel";"Libi Hotel";"Jl. Diponegoro No.103C, Ps. Gn. Sitoli, Kec. Gunungsitoli, Kota Gunungsitoli, Sumatera Utara";"Kota Gunungsitoli, Sumatera Utara";"SUMATERA UTARA";"";"Indonesia";" 082364504422";"";"";"1.2872759";"97.6226138";"https://maps.google.com/?cid=0x0:0x21b5893418c07b46";""
"hotel";"hotel";"Museum Pusaka Nias";"No. 134-A, Jl. Yos Sudarso Ujung, Iraonogeba, Kec. Gunungsitoli, Kota Gunungsitoli, Sumatera Utara 22812";"Jl. Yos Sudarso Ujung, Iraonogeba, Kec. Gunungsitoli, Kota Gunungsitoli";"SUMATERA UTARA";"22812";"Indonesia";" 082396049557";"";"";"1.2986641";"97.6080542";"https://maps.google.com/?cid=0x0:0x26f817428b618831";""
"hotel";"hotel";"Wisma Sangehao";"Tab, Jl. Diponegoro No.391, Sifalaete Tabaloho, Kec. Gunungsitoli, Kota Gunungsitoli, Sumatera Utara 22811";"Jl. Diponegoro No.391, Sifalaete Tabaloho, Kec. Gunungsitoli, Kota Gunungsitoli";"SUMATERA UTARA";"22811";"Indonesia";" 085297583255";"";"";"1.2715684";"97.6343797";"https://maps.google.com/?cid=0x0:0x17b9ae5389d4d32b";""
"hotel";"hotel";"Dian Otomosi Hotel";"Jl. Yos Sudarso Ujung No.Km. 3, 2, Ombolata Ulu, Kec. Gunungsitoli, Kota Gunungsitoli, Sumatera Utara 22811";"2, Ombolata Ulu, Kec. Gunungsitoli, Kota Gunungsitoli";"SUMATERA UTARA";"22811";"Indonesia";" 081370571116";"";"";"1.3137076";"97.6071069";"https://maps.google.com/?cid=0x0:0xddaf487f8d4d296e";""
"hotel";"hotel";"Sumatera Utara 22872";"Kabupaten Nias, Sumatera Utara";"Kabupaten Nias, Sumatera Utara";"SUMATERA UTARA";"";"Indonesia";"";"";"";"1.0204278";"97.7742702";"https://maps.google.com/?cid=0x0:0x39c54a2144cb1830";""
"hotel";"hotel";"Hotel Soliga";"Jl. Pangeran Diponegoro No.432, Miga, Kec. Gunungsitoli, Nias, Sumatera Utara 22815";"Miga, Kec. Gunungsitoli, Nias";"SUMATERA UTARA";"22815";"Indonesia";" 081370291919";"";"";"1.2629184";"97.6383988";"https://maps.google.com/?cid=0x0:0xe1786f17668a934a";""
"hotel";"hotel";"Hotel Dan Penginapan Sthree";"7JFM+72H, Ilir, Kec. Gunungsitoli, Kota Gunungsitoli, Sumatera Utara";"Kota Gunungsitoli, Sumatera Utara";"SUMATERA UTARA";"";"Indonesia";" 0639323454";"";"";"1.2731834";"97.6326165";"https://maps.google.com/?cid=0x0:0x7ec2828e78e03dc9";""
"hotel";"hotel";"Hotel Toho Nias";"Sorake beach Kec.Luahagundre Nias island, Sumatera Utara 22865";"Kabupaten Nias Selatan, Sumatera Utara";"SUMATERA UTARA";"";"Indonesia";" 081397634604";"";"";"0.5736353";"97.7317801";"https://maps.google.com/?cid=0x0:0x3fab47b914649c59";""
"hotel";"hotel";"Mega Nasional Hotel  Restaurant";"Jalan Raya Pelud Binaka km.8 Desa Laraga Luaha Laraga Gunungsitoli Selatan, Luaha Laraga, Gunungsitoli, Kabupaten Nias, Sumatera Utara 22851";"Luaha Laraga, Gunungsitoli, Kabupaten Nias";"SUMATERA UTARA";"22851";"Indonesia";" 082163336663";"";"";"1.2396038";"97.6509534";"https://maps.google.com/?cid=0x0:0x7166cae3352b50d";""
"hotel";"hotel";"Go Nias Capsule Hostel";"Jl. Raya Pelud Binaka No.219, Binaka, Kec. Gido, Kota Gunungsitoli, Sumatera Utara 22870";"Binaka, Kec. Gido, Kota Gunungsitoli";"SUMATERA UTARA";"22870";"Indonesia";" 081260274444";"";"";"1.16952";"97.6931475";"https://maps.google.com/?cid=0x0:0x2124a496eba277d1";""
"hotel";"hotel";"Dian Otomosi Hotel";"Jl. Yos Sudarso Ujung No.Km. 3, 2, Ombolata Ulu, Kec. Gunungsitoli, Kota Gunungsitoli, Sumatera Utara 22811";"2, Ombolata Ulu, Kec. Gunungsitoli, Kota Gunungsitoli";"SUMATERA UTARA";"22811";"Indonesia";" 081370571116";"";"";"1.3137076";"97.6071069";"https://maps.google.com/?cid=0x0:0xddaf487f8d4d296e";""
"hotel";"hotel";"Wisma Sangehao";"Tab, Jl. Diponegoro No.391, Sifalaete Tabaloho, Kec. Gunungsitoli, Kota Gunungsitoli, Sumatera Utara 22811";"Jl. Diponegoro No.391, Sifalaete Tabaloho, Kec. Gunungsitoli, Kota Gunungsitoli";"SUMATERA UTARA";"22811";"Indonesia";" 085297583255";"";"";"1.2715684";"97.6343797";"https://maps.google.com/?cid=0x0:0x17b9ae5389d4d32b";""
"hotel";"hotel";"Nias Palace Hotel";"Jl. Moh. Hatta No.42, Kel. Pasar, Kec. Gunungsitoli, Kota Gunungsitoli, Sumatera Utara";"Kota Gunungsitoli, Sumatera Utara";"SUMATERA UTARA";"";"Indonesia";" 063921336";"";"";"1.2880567";"97.6149151";"https://maps.google.com/?cid=0x0:0x685742aa9cde534b";""
"hotel";"hotel";"Tbi Hotel  Resort";"Jl. Baloho Indah, Hiligeho, Kec. Tlk. Dalam, Kabupaten Nias Selatan, Sumatera Utara 22865";"Hiligeho, Kec. Tlk. Dalam, Kabupaten Nias Selatan";"SUMATERA UTARA";"22865";"Indonesia";" 081348341726";"";"";"0.5605392";"97.8020019";"https://maps.google.com/?cid=0x0:0x3404c8b1c706b789";""
"hotel";"hotel";"Kec. Ma'u";"Kabupaten Nias, Sumatera Utara";"Kabupaten Nias, Sumatera Utara";"SUMATERA UTARA";"";"Indonesia";"";"";"";"1.0167709";"97.6327641";"https://maps.google.com/?cid=0x0:0x610ae1b2430535ae";""
"hotel";"hotel";"Hotel Nasional";"Jl. Kelapa No.55, Ps. Gn. Sitoli, Kec. Gunungsitoli, Kota Gunungsitoli, Sumatera Utara 22815";"Ps. Gn. Sitoli, Kec. Gunungsitoli, Kota Gunungsitoli";"SUMATERA UTARA";"22815";"Indonesia";" 08116585577";"";"";"1.2864364";"97.6245224";"https://maps.google.com/?cid=0x0:0x2875c5a273fc311";""
"hotel";"hotel";"Go Nias Capsule Hostel";"Jl. Raya Pelud Binaka No.219, Binaka, Kec. Gido, Kota Gunungsitoli, Sumatera Utara 22870";"Binaka, Kec. Gido, Kota Gunungsitoli";"SUMATERA UTARA";"22870";"Indonesia";" 081260274444";"";"";"1.16952";"97.6931475";"https://maps.google.com/?cid=0x0:0x2124a496eba277d1";""
"hotel";"hotel";"Tbi Hotel  Resort";"Jl. Baloho Indah, Hiligeho, Kec. Tlk. Dalam, Kabupaten Nias Selatan, Sumatera Utara 22865";"Hiligeho, Kec. Tlk. Dalam, Kabupaten Nias Selatan";"SUMATERA UTARA";"22865";"Indonesia";" 081348341726";"";"";"0.5605392";"97.8020019";"https://maps.google.com/?cid=0x0:0x3404c8b1c706b789";""
"hotel";"hotel";"Dian Otomosi Hotel";"Jl. Yos Sudarso Ujung No.Km. 3, 2, Ombolata Ulu, Kec. Gunungsitoli, Kota Gunungsitoli, Sumatera Utara 22811";"2, Ombolata Ulu, Kec. Gunungsitoli, Kota Gunungsitoli";"SUMATERA UTARA";"22811";"Indonesia";" 081370571116";"";"";"1.3137076";"97.6071069";"https://maps.google.com/?cid=0x0:0xddaf487f8d4d296e";""
"hotel";"Komplek perumahan";"Rumah a/i krister hulu";"3MQ9+R92 dusun 2, Sisobahili, Kec. Gido, Kabupaten Nias, Sumatera Utara 22871";"Sisobahili, Kec. Gido, Kabupaten Nias";"SUMATERA UTARA";"22871";"Indonesia";"";"";"";"1.0895077";"97.6683756";"https://maps.google.com/?cid=0x0:0x86dad3fe312caa00";""
"hotel";"Pembangunan Perumahan";"RUMAH A. KERI";"WQWX+PV2, Jl. Sisarahili, Sifaoroasi Uluhou, Kec. Bawolato, Kabupaten Nias, Sumatera Utara 22876";"Jl. Sisarahili, Sifaoroasi Uluhou, Kec. Bawolato, Kabupaten Nias";"SUMATERA UTARA";"22876";"Indonesia";"";"";"";"0.9467038";"97.7996584";"https://maps.google.com/?cid=0x0:0x97bc56b07e3181ba";""
"hotel";"hotel";"Go Nias Capsule Hostel";"Jl. Raya Pelud Binaka No.219, Binaka, Kec. Gido, Kota Gunungsitoli, Sumatera Utara 22870";"Binaka, Kec. Gido, Kota Gunungsitoli";"SUMATERA UTARA";"22870";"Indonesia";" 081260274444";"";"";"1.16952";"97.6931475";"https://maps.google.com/?cid=0x0:0x2124a496eba277d1";""
"hotel";"hotel";"Mega Nasional Hotel  Restaurant";"Jalan Raya Pelud Binaka km.8 Desa Laraga Luaha Laraga Gunungsitoli Selatan, Luaha Laraga, Gunungsitoli, Kabupaten Nias, Sumatera Utara 22851";"Luaha Laraga, Gunungsitoli, Kabupaten Nias";"SUMATERA UTARA";"22851";"Indonesia";" 082163336663";"";"";"1.2396038";"97.6509534";"https://maps.google.com/?cid=0x0:0x7166cae3352b50d";""
"hotel";"hotel";"Sogaeadu";"Kec. Sogae'adu, Kabupaten Nias, Sumatera Utara";"Kabupaten Nias, Sumatera Utara";"SUMATERA UTARA";"";"Indonesia";"";"";"";"1.1024643";"97.7104428";"https://maps.google.com/?cid=0x0:0x1b1f447319f0c61a";""
"hotel";"hotel";"Sumatera Utara 22871";"Kabupaten Nias, Sumatera Utara";"Kabupaten Nias, Sumatera Utara";"SUMATERA UTARA";"";"Indonesia";"";"";"";"1.1060032";"97.7199454";"https://maps.google.com/?cid=0x0:0xd497e5d19a85372d";""
"hotel";"hotel";"Somolo-Molo";"Kec. Somolo-Molo, Kabupaten Nias, Sumatera Utara";"Kabupaten Nias, Sumatera Utara";"SUMATERA UTARA";"";"Indonesia";"";"";"";"1.0609605";"97.6900846";"https://maps.google.com/?cid=0x0:0x1168da738d45cc33";""
"hotel";"hotel";"Hotel Soliga";"Jl. Pangeran Diponegoro No.432, Miga, Kec. Gunungsitoli, Nias, Sumatera Utara 22815";"Miga, Kec. Gunungsitoli, Nias";"SUMATERA UTARA";"22815";"Indonesia";" 081370291919";"";"";"1.2629184";"97.6383988";"https://maps.google.com/?cid=0x0:0xe1786f17668a934a";""
"hotel";"hotel";"Mega Nasional Hotel  Restaurant";"Jalan Raya Pelud Binaka km.8 Desa Laraga Luaha Laraga Gunungsitoli Selatan, Luaha Laraga, Gunungsitoli, Kabupaten Nias, Sumatera Utara 22851";"Luaha Laraga, Gunungsitoli, Kabupaten Nias";"SUMATERA UTARA";"22851";"Indonesia";" 082163336663";"";"";"1.2396038";"97.6509534";"https://maps.google.com/?cid=0x0:0x7166cae3352b50d";""
"hotel";"Tujuan Wisata";"Taman Doa Bunda Maria";"Jl. Raya Pelud Binaka No.KM. 6,5, Fodo, Kec. Gunungsitoli Sel., Kota Gunungsitoli, Sumatera Utara";"Kota Gunungsitoli, Sumatera Utara";"SUMATERA UTARA";"";"Indonesia";" 085220178892";"";"";"1.2501649";"97.6436717";"https://maps.google.com/?cid=0x0:0xee17bd9bf31a0948";""
"hotel";"hotel";"Baloho Beach Resort Nias";"Jl. Pantai Baloho, Hiligeho, Telukdalem, Kabupaten Nias Selatan, Sumatera Utara 22865";"Hiligeho, Telukdalem, Kabupaten Nias Selatan";"SUMATERA UTARA";"22865";"Indonesia";" 082281611789";"";"";"0.5584583";"97.8053486";"https://maps.google.com/?cid=0x0:0xcf67a1d24c81a219";""
"hotel";"hotel";"Oseda Nias Surf House";"Fanayama, Jl. Sorake, Botohilitano, Kec. Tlk. Dalam, Kabupaten Nias Selatan, Sumatera Utara 22865";"Jl. Sorake, Botohilitano, Kec. Tlk. Dalam, Kabupaten Nias Selatan";"SUMATERA UTARA";"22865";"Indonesia";" 081263765554";"";"";"0.5694245";"97.7305029";"https://maps.google.com/?cid=0x0:0xe5f3b5c8f4f37023";""
"hotel";"hotel";"KeyHole Surf Camp";"Botohili, KeyHole surf camp, Jl. Pantai Jl. Sorake, Kecamatan Luahagundre, Maniamolo, South Nias Regency, North Sumatra 22834";"KeyHole surf camp, Jl. Pantai Jl. Sorake, Kecamatan Luahagundre, Maniamolo, South Nias Regency";"SUMATERA UTARA";"22834";"Indonesia";" 082276449999";"";"";"0.5697953";"97.73123";"https://maps.google.com/?cid=0x0:0xcdf8629dab0d9070";""
"hotel";"hotel";"Aloha Guest House";"HP9H+9WF, Botohilitano, Kec. Tlk. Dalam, Kabupaten Nias Selatan, Sumatera Utara 22865";"Botohilitano, Kec. Tlk. Dalam, Kabupaten Nias Selatan";"SUMATERA UTARA";"22865";"Indonesia";" 081264006743";"";"";"0.5684302";"97.7297824";"https://maps.google.com/?cid=0x0:0x802d88e7bf0063fd";""
"hotel";"hotel";"Jamburae Lodge";"Jl. Sorake, Botohilitano, Kec. Tlk. Dalam, Kabupaten Nias Selatan, Sumatera Utara 22865";"Botohilitano, Kec. Tlk. Dalam, Kabupaten Nias Selatan";"SUMATERA UTARA";"22865";"Indonesia";" 082272799664";"";"";"0.5727688";"97.7314236";"https://maps.google.com/?cid=0x0:0x965ab96075da4c59";""
"hotel";"hotel";"Hotel Toho Nias";"Sorake beach Kec.Luahagundre Nias island, Sumatera Utara 22865";"Kabupaten Nias Selatan, Sumatera Utara";"SUMATERA UTARA";"";"Indonesia";" 081397634604";"";"";"0.5736353";"97.7317801";"https://maps.google.com/?cid=0x0:0x3fab47b914649c59";""
"hotel";"hotel";"Dolin Cottage - Booking Hotel - Nias Island - Sorake Beach - Nias Room";"Sorake Beach, Botohilitano, Kec. Fanayama, Teluk Dalam - South Nias, Sumatera Utara 22865";"Botohilitano, Kec. Fanayama, Teluk Dalam - South Nias";"SUMATERA UTARA";"22865";"Indonesia";"";"";"";"0.5712781";"97.7313941";"https://maps.google.com/?cid=0x0:0xf9dcd0347c111050";""
"hotel";"hotel";"New Raya Inn | NiasHomeStay";"Sorake Botohilitano, Luahagundre, Kec. Tlk. Dalam, Kabupaten Nias Selatan, Sumatera Utara 22865";"Luahagundre, Kec. Tlk. Dalam, Kabupaten Nias Selatan";"SUMATERA UTARA";"22865";"Indonesia";" 082162970471";"";"";"0.56812";"97.729671";"https://maps.google.com/?cid=0x0:0xf94be27a147e5a17";""
"hotel";"hotel";"Barriga Feliz Surf Camp";"Botohili Sorake Kecamatan Luaha Gundre, Jl. Sorake Desa, Botohilitano, Maniamolo, South Nias Regency, North Sumatra 22865";"Jl. Sorake Desa, Botohilitano, Maniamolo, South Nias Regency";"SUMATERA UTARA";"22865";"Indonesia";" 081263773818";"";"";"0.5681585";"97.7296629";"https://maps.google.com/?cid=0x0:0x86c07d6ce757515a";""
"hotel";"hotel";"Teluk Lagundri";"";"";"SUMATERA UTARA";"";"Indonesia";"";"";"";"0.5502904";"97.7990783";"https://maps.google.com/?cid=0x0:0x355db46975776059";""
"hotel";"hotel";"Hotel Dan Penginapan Sthree";"7JFM+72H, Ilir, Kec. Gunungsitoli, Kota Gunungsitoli, Sumatera Utara";"Kota Gunungsitoli, Sumatera Utara";"SUMATERA UTARA";"";"Indonesia";" 0639323454";"";"";"1.2731834";"97.6326165";"https://maps.google.com/?cid=0x0:0x7ec2828e78e03dc9";""
"hotel";"hotel";"Hotel Nasional";"Jl. Kelapa No.55, Ps. Gn. Sitoli, Kec. Gunungsitoli, Kota Gunungsitoli, Sumatera Utara 22815";"Ps. Gn. Sitoli, Kec. Gunungsitoli, Kota Gunungsitoli";"SUMATERA UTARA";"22815";"Indonesia";" 08116585577";"";"";"1.2864364";"97.6245224";"https://maps.google.com/?cid=0x0:0x2875c5a273fc311";""
"hotel";"hotel";"Kec. Ulugawo";"Kabupaten Nias, Sumatera Utara";"Kabupaten Nias, Sumatera Utara";"SUMATERA UTARA";"";"Indonesia";"";"";"";"0.9857839";"97.7164165";"https://maps.google.com/?cid=0x0:0x7230b2fec359e534";""
"hotel";"hotel";"Tbi Hotel  Resort";"Jl. Baloho Indah, Hiligeho, Kec. Tlk. Dalam, Kabupaten Nias Selatan, Sumatera Utara 22865";"Hiligeho, Kec. Tlk. Dalam, Kabupaten Nias Selatan";"SUMATERA UTARA";"22865";"Indonesia";" 081348341726";"";"";"0.5605392";"97.8020019";"https://maps.google.com/?cid=0x0:0x3404c8b1c706b789";""
"hotel";"hotel";"Nias Palace Hotel";"Jl. Moh. Hatta No.42, Kel. Pasar, Kec. Gunungsitoli, Kota Gunungsitoli, Sumatera Utara";"Kota Gunungsitoli, Sumatera Utara";"SUMATERA UTARA";"";"Indonesia";" 063921336";"";"";"1.2880567";"97.6149151";"https://maps.google.com/?cid=0x0:0x685742aa9cde534b";""
"hotel";"hotel";"Hotel Toho Nias";"Sorake beach Kec.Luahagundre Nias island, Sumatera Utara 22865";"Kabupaten Nias Selatan, Sumatera Utara";"SUMATERA UTARA";"";"Indonesia";" 081397634604";"";"";"0.5736353";"97.7317801";"https://maps.google.com/?cid=0x0:0x3fab47b914649c59";""
"hotel";"hotel";"Sorake";"";"";"SUMATERA UTARA";"";"Indonesia";"";"";"";"0.5731015";"97.7322786";"https://maps.google.com/?cid=0x0:0xfe7c0a1ce7df9709";""
"hotel";"hotel";"Mega Nasional Hotel  Restaurant";"Jalan Raya Pelud Binaka km.8 Desa Laraga Luaha Laraga Gunungsitoli Selatan, Luaha Laraga, Gunungsitoli, Kabupaten Nias, Sumatera Utara 22851";"Luaha Laraga, Gunungsitoli, Kabupaten Nias";"SUMATERA UTARA";"22851";"Indonesia";" 082163336663";"";"";"1.2396038";"97.6509534";"https://maps.google.com/?cid=0x0:0x7166cae3352b50d";""
"hotel";"Tujuan Wisata";"Air Terjun Humogo";"Jalan Tola Maera, desa Fadoro, GunungSitoli Idanoi, 22851, Dahana, Kec. GunungSitoli Idanoi, Kota Gunungsitoli, Sumatera Utara 22871";"desa Fadoro, GunungSitoli Idanoi,";"SUMATERA UTARA";"22851";"Indonesia";"";"";"";"1.1912331";"97.6441847";"https://maps.google.com/?cid=0x0:0x1e03dc06ac3a5a85";""
"hotel";"Taman Kota";"Taman Yaahowu";"7JR9+4FH, Unnamed Road, Saombo, Kec. Gunungsitoli, Kota Gunungsitoli, Sumatera Utara 22814";"Unnamed Road, Saombo, Kec. Gunungsitoli, Kota Gunungsitoli";"SUMATERA UTARA";"22814";"Indonesia";"";"";"";"1.2902273";"97.6193682";"https://maps.google.com/?cid=0x0:0x4a8b2398a75e060f";""
"hotel";"hotel";"Oseda Nias Surf House";"Fanayama, Jl. Sorake, Botohilitano, Kec. Tlk. Dalam, Kabupaten Nias Selatan, Sumatera Utara 22865";"Jl. Sorake, Botohilitano, Kec. Tlk. Dalam, Kabupaten Nias Selatan";"SUMATERA UTARA";"22865";"Indonesia";" 081263765554";"";"";"0.5694245";"97.7305029";"https://maps.google.com/?cid=0x0:0xe5f3b5c8f4f37023";""
"restaurant";"restaurant";"Sumatera Utara 22851";"Sumatera Utara";"Sumatera Utara";"SUMATERA UTARA";"";"Indonesia";"";"";"";"1.2976797";"97.330053";"https://maps.google.com/?cid=0x0:0xb3058656cf8eec8e";""
"restaurant";"Rumah Makan";"Rumah Makan ELVAN";"99P7+C8F, Fadoro Fulolo, Kec. Lotu, Kabupaten Nias Utara, Sumatera Utara 22851";"Fadoro Fulolo, Kec. Lotu, Kabupaten Nias Utara";"SUMATERA UTARA";"22851";"Indonesia";" 085260394229";"";"";"1.3860549";"97.363289";"https://maps.google.com/?cid=0x0:0xd4223233f56e9e4a";""
"restaurant";"Restoran";"Rumah Makan NIRA";"Fadoro Fulolo, Kec. Lotu, Kabupaten Nias Utara, Sumatera Utara";"Kabupaten Nias Utara, Sumatera Utara";"SUMATERA UTARA";"";"Indonesia";" 085276563007";"";"";"1.3908276";"97.3705639";"https://maps.google.com/?cid=0x0:0x6273765e4eee5388";""
"restaurant";"Padang";"RUMAH MAKAN PONDOK SAEWE 1";"8J83+P2X, Ombolata Ulu, Kec. Gunungsitoli, Kota Gunungsitoli, Sumatera Utara";"Kota Gunungsitoli, Sumatera Utara";"SUMATERA UTARA";"";"Indonesia";" 081397696681";"";"";"1.3168528";"97.6026196";"https://maps.google.com/?cid=0x0:0x3b7d74085d028ef7";""
"restaurant";"Restoran";"RM BPK UD. Tessya";"99P6+C6V, Hilidundra, Kec. Lotu, Kabupaten Nias Utara, Sumatera Utara 22851";"Hilidundra, Kec. Lotu, Kabupaten Nias Utara";"SUMATERA UTARA";"22851";"Indonesia";" 082165499009";"";"";"1.3861017";"97.3605333";"https://maps.google.com/?cid=0x0:0xbb58ef9c1ae9326a";""
"restaurant";"Hidangan Laut";"RM Pondok Malta Ikan Bakar";"8HRP+2H9, Bawadesolo, Kec. Gunungsitoli, Kota Gunungsitoli, Sumatera Utara";"Kota Gunungsitoli, Sumatera Utara";"SUMATERA UTARA";"";"Indonesia";"";"";"";"1.3400288";"97.5864743";"https://maps.google.com/?cid=0x0:0x9d149e1945c2aab2";""
"restaurant";"Batak";"Vaniaresto";"Ps. Lahewa, Kecamaten Lahewa, Kabupaten Nias Utara, Sumatera Utara 22853";"Kecamaten Lahewa, Kabupaten Nias Utara";"SUMATERA UTARA";"22853";"Indonesia";" 081264320222";"";"";"1.3920686";"97.1728391";"https://maps.google.com/?cid=0x0:0xc65fe8b43223d488";""
"restaurant";"Brunch";"UD basuo";"99H7+54P, Jalan Alasa, Baho, Lotu, North Nias Regency, North Sumatra 22851";"Jalan Alasa, Baho, Lotu, North Nias Regency";"SUMATERA UTARA";"22851";"Indonesia";" 085261527450";"";"";"1.3779576";"97.3628384";"https://maps.google.com/?cid=0x0:0x7805c3d7e4b442a0";""
"restaurant";"Restoran";"RM. Pondok Nias Barat";"Jl. Nias Tengah No.Km. 8, Faekhu, Kec. Gunungsitoli Sel., Kota Gunungsitoli, Sumatera Utara 22851";"Faekhu, Kec. Gunungsitoli Sel., Kota Gunungsitoli";"SUMATERA UTARA";"22851";"Indonesia";"";"";"";"1.2406741";"97.6263246";"https://maps.google.com/?cid=0x0:0x6dd01261eb16ed85";""
"restaurant";"Padang";"TAMAN NAYA";"Jalan Esemka No.1, Hilidundra, Kec. Lotu, Kabupaten Nias Utara, Sumatera Utara 22852";"Hilidundra, Kec. Lotu, Kabupaten Nias Utara";"SUMATERA UTARA";"22852";"Indonesia";" 085276186666";"";"";"1.3867403";"97.3625276";"https://maps.google.com/?cid=0x0:0x650963afc3504d58";""
"restaurant";"Hidangan Laut";"Grand Kartika Restaurant";"Saombo, Kec. Gunungsitoli, Kota Gunungsitoli, Sumatera Utara";"Kota Gunungsitoli, Sumatera Utara";"SUMATERA UTARA";"";"Indonesia";"";"";"";"1.2915867";"97.6132266";"https://maps.google.com/?cid=0x0:0x68f31d95c38ab1ae";""
"restaurant";"Rumah Makan";"Warunk Bang Benn";"Jl. Mazingo, Hilidundra, Kec. Lotu, Kabupaten Nias Utara, Sumatera Utara 22851";"Hilidundra, Kec. Lotu, Kabupaten Nias Utara";"SUMATERA UTARA";"22851";"Indonesia";"";"";"";"1.3858776";"97.360113";"https://maps.google.com/?cid=0x0:0x581fb4e12d1ad2f5";""
"restaurant";"Brunch";"JJD resturant Nias Utara";"99PP+82H, Baho, Kec. Lotu, Kabupaten Nias Utara, Sumatera Utara 22852";"Baho, Kec. Lotu, Kabupaten Nias Utara";"SUMATERA UTARA";"22852";"Indonesia";"";"";"";"1.3858213";"97.3851152";"https://maps.google.com/?cid=0x0:0xbdfc5f00940971b5";""
"restaurant";"Rumah Makan";"Bakso Wong Solo";"Jl. Yos Sudarso Ujung, Ombolata Ulu, Kec. Gunungsitoli, Kota Gunungsitoli, Sumatera Utara";"Kota Gunungsitoli, Sumatera Utara";"SUMATERA UTARA";"";"Indonesia";" 082181089426";"";"";"1.301833";"97.6085803";"https://maps.google.com/?cid=0x0:0xa526005af8cb20af";""
"restaurant";"Restoran";"Kedai Mie SOP Believe Laowowaga";"79Q6+W6X, Laowowaga, Kec. Lahewa Tim., Kabupaten Nias Utara, Sumatera Utara";"Kabupaten Nias Utara, Sumatera Utara";"SUMATERA UTARA";"";"Indonesia";" 081361711725";"";"";"1.2898707";"97.3606052";"https://maps.google.com/?cid=0x0:0x3780bd2e26b5692";""
"restaurant";"Kedai Kopi";"UD.FANORAMA";"88R8+MX5, Dusun 1, Tetehosi Sorowi, Kec. Lahewa Tim., Kabupaten Nias Utara, Sumatera Utara";"Kabupaten Nias Utara, Sumatera Utara";"SUMATERA UTARA";"";"Indonesia";" 082167763637";"";"";"1.3416375";"97.3174844";"https://maps.google.com/?cid=0x0:0x44a1689e6ee4659e";""
"restaurant";"Restoran";"Warung Makan Wina";"JL Yos Sudarso, Km. 3.2, Ombolata Ulu, Kec. Gunungsitoli, Kota Gunungsitoli, Sumatera Utara 22811";"Km. 3.2, Ombolata Ulu, Kec. Gunungsitoli, Kota Gunungsitoli";"SUMATERA UTARA";"22811";"Indonesia";" 085372172671";"";"";"1.309747";"97.6085059";"https://maps.google.com/?cid=0x0:0x536260037fec98a";""
"restaurant";"Padang";"Tambua Resto";"Jl.Bungtomo No.32a,Kelurahan, Ps. Lahewa, Kecamaten Lahewa, Kabupaten Nias Utara, Sumatera Utara 22853";"Ps. Lahewa, Kecamaten Lahewa, Kabupaten Nias Utara";"SUMATERA UTARA";"22853";"Indonesia";" 081260045215";"";"";"1.3952648";"97.1681281";"https://maps.google.com/?cid=0x0:0xa4022a1f0f984fa7";""
"restaurant";"Brunch";"Kedai UD. Sahabat";"99P6+36G, Hilidundra, Kec. Lotu, Kabupaten Nias Utara, Sumatera Utara 22851";"Hilidundra, Kec. Lotu, Kabupaten Nias Utara";"SUMATERA UTARA";"22851";"Indonesia";"";"";"";"1.3851798";"97.3605878";"https://maps.google.com/?cid=0x0:0x771ca49c047d2e33";""
"restaurant";"Rumah Makan";"RM. Siang Malam";"Jl. Soekarno No.51A, Ps. Lahewa, Kecamaten Lahewa, Kabupaten Nias Utara, Sumatera Utara 22853";"Ps. Lahewa, Kecamaten Lahewa, Kabupaten Nias Utara";"SUMATERA UTARA";"22853";"Indonesia";" 082172144443";"";"";"1.3930075";"97.1692389";"https://maps.google.com/?cid=0x0:0x4bea3667661f8e2b";""
"restaurant";"Restoran";"RM. Bundo";"Jl. Pancasila No.20 C, Mudik, Kec. Gunungsitoli, Kota Gunungsitoli, Sumatera Utara";"Kota Gunungsitoli, Sumatera Utara";"SUMATERA UTARA";"";"Indonesia";"";"";"";"1.2811649";"97.6142487";"https://maps.google.com/?cid=0x0:0xc1a8639db860f0f7";""
"restaurant";"Restoran";"SITEKATA Resto  Cafe";"Jl. Ampera No.11 B, Ps. Gn. Sitoli, Kec. Gunungsitoli, Kota Gunungsitoli, Sumatera Utara 22815";"Ps. Gn. Sitoli, Kec. Gunungsitoli, Kota Gunungsitoli";"SUMATERA UTARA";"22815";"Indonesia";" 082165294712";"";"";"1.2820236";"97.6129572";"https://maps.google.com/?cid=0x0:0xd3b4ddc8b18bc387";""
"restaurant";"restaurant";"AMA PUTRA GEA";"Jl. Lotu-Lahewa No.km 42, hlidundra, Kec. Lotu, Kabupaten Nias Utara, Sumatera Utara 22851";"hlidundra, Kec. Lotu, Kabupaten Nias Utara";"SUMATERA UTARA";"22851";"Indonesia";"";"";"";"1.3806242";"97.2894044";"https://maps.google.com/?cid=0x0:0x2a63240b3843bee3";""
"restaurant";"Restoran";"RM. Muslim Mbak Ayu";"Sisarahili Bawolato, Kec. Bawolato, Kabupaten Nias, Sumatera Utara 22851";"Kec. Bawolato, Kabupaten Nias";"SUMATERA UTARA";"22851";"Indonesia";" 082347347085";"";"";"0.9298125";"97.8745625";"https://maps.google.com/?cid=0x0:0xd8a0efdd1354cf74";""
"restaurant";"Restoran";"Rumah Makan Bersama";"Jl. Arah Tlk. Dalam, Sisarahili Bawolato, Kec. Bawolato, Kabupaten Nias, Sumatera Utara 22851";"Sisarahili Bawolato, Kec. Bawolato, Kabupaten Nias";"SUMATERA UTARA";"22851";"Indonesia";"";"";"";"0.9381757";"97.8682015";"https://maps.google.com/?cid=0x0:0xc7531a881306fb11";""
"restaurant";"Restoran";"Warung Hoya";"VVGX+GH7, Jl. Bawolato, Bawolato, Kec. Lahusa, Kabupaten Nias Selatan, Sumatera Utara";"Kabupaten Nias Selatan, Sumatera Utara";"SUMATERA UTARA";"";"Indonesia";"";"";"";"0.8762797";"97.8989181";"https://maps.google.com/?cid=0x0:0xb664f68cef07f956";""
"restaurant";"Brunch";"Rumah makan indah";"VVQW+CXW, Gazamanu, Kec. Bawolato, Kabupaten Nias, Sumatera Utara 22874";"Gazamanu, Kec. Bawolato, Kabupaten Nias";"SUMATERA UTARA";"22874";"Indonesia";"";"";"";"0.8886218";"97.8974647";"https://maps.google.com/?cid=0x0:0x6cdce02ee32f0d80";""
"restaurant";"Rumah Makan";"Spaghetti Ala-ala";"jl. Arah Gomo, Siofa Banua, Kec. Bawolato, Kabupaten Nias, Sumatera Utara 22876";"Siofa Banua, Kec. Bawolato, Kabupaten Nias";"SUMATERA UTARA";"22876";"Indonesia";" 082272020460";"";"";"0.9682689";"97.7905758";"https://maps.google.com/?cid=0x0:0xbd9b9dcb7c4ed3bd";""
"restaurant";"Restoran";"RM. TOBATABO";"2QG9+QQ6, Tetehosi, Kecamatan Idanogawo, Kabupaten Nias, Sumatera Utara 22872";"Tetehosi, Kecamatan Idanogawo, Kabupaten Nias";"SUMATERA UTARA";"22872";"Indonesia";" 085262308530";"";"";"1.0269024";"97.7694014";"https://maps.google.com/?cid=0x0:0xf3a12733cf872812";""
"restaurant";"restaurant";"Sumatera Utara 22876";"Kec. Bawolato, Kabupaten Nias, Sumatera Utara";"Kabupaten Nias, Sumatera Utara";"SUMATERA UTARA";"";"Indonesia";"";"";"";"0.9634714";"97.8177601";"https://maps.google.com/?cid=0x0:0xbd072e1dfaa20192";""
"restaurant";"Restoran";"Rumah Makan Bersama";"Jl. Arah Tlk. Dalam, Sisarahili Bawolato, Kec. Bawolato, Kabupaten Nias, Sumatera Utara 22851";"Sisarahili Bawolato, Kec. Bawolato, Kabupaten Nias";"SUMATERA UTARA";"22851";"Indonesia";"";"";"";"0.9381757";"97.8682015";"https://maps.google.com/?cid=0x0:0xc7531a881306fb11";""
"restaurant";"Rumah Makan";"Spaghetti Ala-ala";"jl. Arah Gomo, Siofa Banua, Kec. Bawolato, Kabupaten Nias, Sumatera Utara 22876";"Siofa Banua, Kec. Bawolato, Kabupaten Nias";"SUMATERA UTARA";"22876";"Indonesia";" 082272020460";"";"";"0.9682689";"97.7905758";"https://maps.google.com/?cid=0x0:0xbd9b9dcb7c4ed3bd";""
"restaurant";"Restoran";"RM. GIHON";"WVJF+2MJ, Unnamed Road, Gazamanu, Kec. Bawolato, Kabupaten Nias, Sumatera Utara 22876";"Unnamed Road, Gazamanu, Kec. Bawolato, Kabupaten Nias";"SUMATERA UTARA";"22876";"Indonesia";" 085321563738";"";"";"0.9300761";"97.8741448";"https://maps.google.com/?cid=0x0:0x4764232992a8ac1d";""
"restaurant";"Restoran";"Warung Hoya";"VVGX+GH7, Jl. Bawolato, Bawolato, Kec. Lahusa, Kabupaten Nias Selatan, Sumatera Utara";"Kabupaten Nias Selatan, Sumatera Utara";"SUMATERA UTARA";"";"Indonesia";"";"";"";"0.8762797";"97.8989181";"https://maps.google.com/?cid=0x0:0xb664f68cef07f956";""
"restaurant";"Restoran";"RM Sederhana";"WVHF+VR2, desa, Sisarahili Bawolato, Kec. Bawolato, Kabupaten Nias Selatan, Sumatera Utara 22876";"desa, Sisarahili Bawolato, Kec. Bawolato, Kabupaten Nias Selatan";"SUMATERA UTARA";"22876";"Indonesia";" 082363275055";"";"";"0.9296972";"97.8745087";"https://maps.google.com/?cid=0x0:0x497fea7d5c277fb3";""
"restaurant";"Restoran";"RM. TOBATABO";"2QG9+QQ6, Tetehosi, Kecamatan Idanogawo, Kabupaten Nias, Sumatera Utara 22872";"Tetehosi, Kecamatan Idanogawo, Kabupaten Nias";"SUMATERA UTARA";"22872";"Indonesia";" 085262308530";"";"";"1.0269024";"97.7694014";"https://maps.google.com/?cid=0x0:0xf3a12733cf872812";""
"restaurant";"Brunch";"Rumah makan indah";"VVQW+CXW, Gazamanu, Kec. Bawolato, Kabupaten Nias, Sumatera Utara 22874";"Gazamanu, Kec. Bawolato, Kabupaten Nias";"SUMATERA UTARA";"22874";"Indonesia";"";"";"";"0.8886218";"97.8974647";"https://maps.google.com/?cid=0x0:0x6cdce02ee32f0d80";""
"restaurant";"Kedai Kopi";"Warung MISOP Dea Zebua";"XRMQ+9X4, Hilifaosi, Kec. Bawolato, Kabupaten Nias, Sumatera Utara 22876";"Hilifaosi, Kec. Bawolato, Kabupaten Nias";"SUMATERA UTARA";"22876";"Indonesia";"";"";"";"0.9833989";"97.8399416";"https://maps.google.com/?cid=0x0:0x6c5b106d62a44a43";""
"restaurant";"restaurant";"Lala,alio";"WWH2+PV, Gazamanu, Kec. Bawolato, Kabupaten Nias, Sumatera Utara";"Kabupaten Nias, Sumatera Utara";"SUMATERA UTARA";"";"Indonesia";"";"";"";"0.929363";"97.902236";"https://maps.google.com/?cid=0x0:0xe0c7c123ba478da0";""
"restaurant";"Rumah Makan";"UD. Desti";"WVQ9+2P6, Hiliganoita, Kec. Bawolato, Kabupaten Nias, Sumatera Utara 22876";"Hiliganoita, Kec. Bawolato, Kabupaten Nias";"SUMATERA UTARA";"22876";"Indonesia";"";"";"";"0.937561";"97.869183";"https://maps.google.com/?cid=0x0:0x3e11c8eff5ed455f";""
"restaurant";"Rumah Makan";"UD. HARDIN / RM.PACI";"Simpang Sindrõndrõ - Samping Gereja BNKP Sindrondro, Jl. Arah Tlk. Dalam No.224, Sindrõndrõ, Kec. Bawolato, Kabupaten Nias, Sumatera Utara 22876";"Jl. Arah Tlk. Dalam No.224, Sindrõndrõ, Kec. Bawolato, Kabupaten Nias";"SUMATERA UTARA";"22876";"Indonesia";" 082229199928";"";"";"0.982791";"97.8426717";"https://maps.google.com/?cid=0x0:0xd1e7be4206d529dd";""
"restaurant";"Kedai Kopi";"Aluizatulo bawamenewi";"XR22+RPP lokasi SMP negeri 3, jalan pertanian, Siofa Banua, Kec. Bawolato, Kabupaten Nias, Sumatera Utara";"Kabupaten Nias, Sumatera Utara";"SUMATERA UTARA";"";"Indonesia";"";"";"";"0.9520885";"97.8018155";"https://maps.google.com/?cid=0x0:0xddd1011d5afbbf0b";""
"restaurant";"Restoran";"RM. Briel";"2QGC+JVM, Jl. Diponegoro, Tetehosi, Kecamatan Idanogawo, Kabupaten Nias, Sumatera Utara 22872";"Jl. Diponegoro, Tetehosi, Kecamatan Idanogawo, Kabupaten Nias";"SUMATERA UTARA";"22872";"Indonesia";" 085296835172";"";"";"1.0265999";"97.7721693";"https://maps.google.com/?cid=0x0:0x3a19996960aba820";""
"restaurant";"Rumah Makan";"Warung Bg Zai";"5 Desa Hilina'a Tafu'o, Jl. Lintas Teluk Dalam No.KM. 41, Hilinaa Tafuo, Kecamatan Idanogawo, Kabupaten Nias, Sumatera Utara 22872";"Jl. Lintas Teluk Dalam No.KM. 41, Hilinaa Tafuo, Kecamatan Idanogawo, Kabupaten Nias";"SUMATERA UTARA";"22872";"Indonesia";" 085381847293";"";"";"1.0126592";"97.8052406";"https://maps.google.com/?cid=0x0:0xe73be54259a4b10f";""
"restaurant";"Rumah Makan";"WAROENG BANG JAGO";"3PHR+VRQ, Sisarahili Sogaeadu, Kec. Gido, Kabupaten Nias, Sumatera Utara 22871";"Sisarahili Sogaeadu, Kec. Gido, Kabupaten Nias";"SUMATERA UTARA";"22871";"Indonesia";" 085359553721";"";"";"1.0797142";"97.7421176";"https://maps.google.com/?cid=0x0:0xf7bae96e5353e6ed";""
"restaurant";"Rumah Makan";"Rumah Makan Mentari";"VR44+5H4, Sifaoroasi Gomo, Kec. Gomo, Kabupaten Nias Selatan, Sumatera Utara 22873";"Sifaoroasi Gomo, Kec. Gomo, Kabupaten Nias Selatan";"SUMATERA UTARA";"22873";"Indonesia";" 082368445232";"";"";"0.8553827";"97.8064477";"https://maps.google.com/?cid=0x0:0xed179814c9241f2b";""
"restaurant";"Klub Malam";"Ombolata";"XQ9R+864, Siofa Banua, Kec. Bawolato, Kabupaten Nias, Sumatera Utara 22876";"Siofa Banua, Kec. Bawolato, Kabupaten Nias";"SUMATERA UTARA";"22876";"Indonesia";" 082366883995";"";"";"0.9682689";"97.7905758";"https://maps.google.com/?cid=0x0:0x163ab5fca43d5227";""
"restaurant";"Bar";"Asaaro Zebua Asasöndu";"2VFQ+X95, Siofaewali, Kec. Bawolato, Kabupaten Nias, Sumatera Utara 22876";"Siofaewali, Kec. Bawolato, Kabupaten Nias";"SUMATERA UTARA";"22876";"Indonesia";" 081262276994";"";"";"1.0248884";"97.8884881";"https://maps.google.com/?cid=0x0:0xdba1e2090421381b";""
"restaurant";"Rumah Makan";"Rostina laia";"RRR7+8QQ, Taluzusua, Kecamatan, Hilisao'oto, Kec. Sidua'ori, Kabupaten Nias Selatan, Sumatera Utara 22874";"Taluzusua, Kecamatan, Hilisao'oto, Kec. Sidua'ori, Kabupaten Nias Selatan";"SUMATERA UTARA";"22874";"Indonesia";"";"";"";"0.8408323";"97.8144751";"https://maps.google.com/?cid=0x0:0x394fc8209d846613";""
"restaurant";"Pembangunan Perumahan";"AMA FEBRY ZEBUA";"2QHF+759, Tetehosi, Kecamatan Idanogawo, Kabupaten Nias, Sumatera Utara 22872";"Tetehosi, Kecamatan Idanogawo, Kabupaten Nias";"SUMATERA UTARA";"22872";"Indonesia";"";"";"";"1.0281636";"97.7729746";"https://maps.google.com/?cid=0x0:0xa50cf2a0c7d7e93";""
"restaurant";"Restoran";"Kedai Makan LINA";"Jl. Diponegoro No.61, Tetehosi, Kecamatan Idanogawo, Kabupaten Nias, Sumatera Utara 22872";"Tetehosi, Kecamatan Idanogawo, Kabupaten Nias";"SUMATERA UTARA";"22872";"Indonesia";" 085296835172";"";"";"1.026641";"97.7721985";"https://maps.google.com/?cid=0x0:0x49508f46aac5bad1";""
"restaurant";"Makanan Kecil";"Kedai Nasi Mak Boy";"Jl. Arah Idanogawo No.Km. 28 5, Saiwahili Hiliadulo, Kecamatan Idanogawo, Kabupaten Nias, Sumatera Utara 22871";"Saiwahili Hiliadulo, Kecamatan Idanogawo, Kabupaten Nias";"SUMATERA UTARA";"22871";"Indonesia";" 082210497577";"";"";"1.0593222";"97.7552399";"https://maps.google.com/?cid=0x0:0xf01feaf2d0bf3216";""
"restaurant";"Padang";"RUMAH MAKAN PAULA";"Sifaoroasi Gomo, Kec. Gomo, Kabupaten Nias Selatan, Sumatera Utara 22873";"Kec. Gomo, Kabupaten Nias Selatan";"SUMATERA UTARA";"22873";"Indonesia";"";"";"";"0.8554232";"97.8061087";"https://maps.google.com/?cid=0x0:0x11a3596b166ab9b6";""
"restaurant";"restaurant";"Sumatera Utara 22815";"Sumatera Utara";"Sumatera Utara";"SUMATERA UTARA";"";"Indonesia";"";"";"";"1.1349561";"97.5572231";"https://maps.google.com/?cid=0x0:0x363d3d935f4724dd";""
"restaurant";"Mi";"UD. JAMES";"5GHW+M8Q, Hiliwaele I, Kec. Botomuzoi, Kabupaten Nias, Sumatera Utara 22854";"Hiliwaele I, Kec. Botomuzoi, Kabupaten Nias";"SUMATERA UTARA";"22854";"Indonesia";" 082360771775";"";"";"1.1792056";"97.5458439";"https://maps.google.com/?cid=0x0:0xb528b72d85301ab4";""
"restaurant";"Nasi";"PONDOK MAKAN ARJUNA";"Jalan Nias Tengah No.Km 34, Lolofitu, Kec. Lolofitu Moi, Kabupaten Nias Barat, Sumatera Utara 22875";"Lolofitu, Kec. Lolofitu Moi, Kabupaten Nias Barat";"SUMATERA UTARA";"22875";"Indonesia";" 082373906901";"";"";"1.0998431";"97.5785052";"https://maps.google.com/?cid=0x0:0x8603f228b84c19";""
"restaurant";"Brunch";"RM. Muslim SUCI";"Hiliuso, Kec. Lolofitu Moi, Kabupaten Nias Barat, Sumatera Utara 22875";"Kec. Lolofitu Moi, Kabupaten Nias Barat";"SUMATERA UTARA";"22875";"Indonesia";"";"";"";"1.0901355";"97.5767397";"https://maps.google.com/?cid=0x0:0x1adb37205eb5b943";""
"restaurant";"Kolam Renang";"OSE SOLOMOITÖ LIMA BERSAUDARA";"Togizita Satu, Kec. Hilimegai, Kabupaten Nias Selatan, Sumatera Utara 22864";"Kec. Hilimegai, Kabupaten Nias Selatan";"SUMATERA UTARA";"22864";"Indonesia";" 081360920977";"";"";"0.9162744";"97.6184235";"https://maps.google.com/?cid=0x0:0xf0234db519dcbd99";""
"restaurant";"Balai Pertemuan Desa";"Kecamatan Botomuzoi";"4HX7+M3J, Simanaere Botomuzoi, Kec. Botomuzoi, Kabupaten Nias, Sumatera Utara";"Kabupaten Nias, Sumatera Utara";"SUMATERA UTARA";"";"Indonesia";"";"";"";"1.1492149";"97.5626411";"https://maps.google.com/?cid=0x0:0x655b7642ba45ca91";""
"restaurant";"Rumah Makan";"Warung Makan Sederhana A.Melfa Waruwu";"WH6P+C55, Lolomoyo, Kec. Lalowau, Kabupaten Nias Selatan, Sumatera Utara";"Kabupaten Nias Selatan, Sumatera Utara";"SUMATERA UTARA";"";"Indonesia";" 082166886087";"";"";"0.9110125";"97.5854844";"https://maps.google.com/?cid=0x0:0xc281de731f42cc0b";""
"restaurant";"Brunch";"Rumah Makan Mama Chatrine";"5H8R+W86, Jl. Nias Tengah, Hiliwaele II, Kec. Botomuzoi, Kabupaten Nias, Sumatera Utara 22851";"Jl. Nias Tengah, Hiliwaele II, Kec. Botomuzoi, Kabupaten Nias";"SUMATERA UTARA";"22851";"Indonesia";"";"";"";"1.1672921";"97.5907791";"https://maps.google.com/?cid=0x0:0x7e9ce2594cd1ac4";""
"restaurant";"Restoran";"RM. Bersama";"2F4V+C2X, Jln. Soekarno Hatta, No, Onowaembo, Kec. Lahomi, Kabupaten Nias Barat, Sumatera Utara 22864";"Jln. Soekarno Hatta, No, Onowaembo, Kec. Lahomi, Kabupaten Nias Barat";"SUMATERA UTARA";"22864";"Indonesia";"";"";"";"1.0061185";"97.4926202";"https://maps.google.com/?cid=0x0:0x41f78b7d24e529da";""
"restaurant";"Rumah Makan";"Rumah Makan SAHABAT SOLINA";"Jln. Lolowa'u, Hilifadolo, Lolowa'u, Kabupaten Nias Selatan, Sumatera Utara";"Kabupaten Nias Selatan, Sumatera Utara";"SUMATERA UTARA";"";"Indonesia";" 085260060258";"";"";"0.9075462";"97.5833498";"https://maps.google.com/?cid=0x0:0x769b671351a8b30f";""
"restaurant";"Restoran";"Soledua dua";"WJJ6+JCX, Lauso, Soledua, Kabupaten Nias Selatan, Sumatera Utara 22864";"Lauso, Soledua, Kabupaten Nias Selatan";"SUMATERA UTARA";"22864";"Indonesia";" 081362746194";"";"";"0.9316142";"97.611099";"https://maps.google.com/?cid=0x0:0xb38d2d7cae90806d";""
"restaurant";"Toko";"Rumah a.gilbert lade";"Jl. Hili Serangkai-Botomuzoi, Lasara Botomuzoi, Kec. Botomuzoi, Kabupaten Nias, Sumatera Utara 22854";"Lasara Botomuzoi, Kec. Botomuzoi, Kabupaten Nias";"SUMATERA UTARA";"22854";"Indonesia";"";"";"";"1.1794114";"97.5247456";"https://maps.google.com/?cid=0x0:0x739d7114f2189baa";""
"restaurant";"Restoran";"Rumah Makan Stabat";"XFXV+RXX, Onowaembo, Kec. Lahomi, Kabupaten Nias Barat, Sumatera Utara 22864";"Onowaembo, Kec. Lahomi, Kabupaten Nias Barat";"SUMATERA UTARA";"22864";"Indonesia";" 081396847314";"";"";"0.9996049";"97.4949759";"https://maps.google.com/?cid=0x0:0xaf6554fb541741af";""
"restaurant";"Rumah Makan";"Amarawati Nduru";"VMHM+WJX, kecamatan, Orahili Ulunoyo, Kecamatan Ulunoyo, Kabupaten Nias Selatan, Sumatera Utara 22867";"kecamatan, Orahili Ulunoyo, Kecamatan Ulunoyo, Kabupaten Nias Selatan";"SUMATERA UTARA";"22867";"Indonesia";"";"";"";"0.8798742";"97.6841047";"https://maps.google.com/?cid=0x0:0xb219a9e2e3bd297f";""
"restaurant";"Indonesia";"SOLEDUA SATU";"WJG7+X36, Lauso, Kec. Lalowau, Kabupaten Nias Selatan, Sumatera Utara 22864";"Lauso, Kec. Lalowau, Kabupaten Nias Selatan";"SUMATERA UTARA";"22864";"Indonesia";"";"";"";"0.9274054";"97.6126289";"https://maps.google.com/?cid=0x0:0xf99210e9fb5d1da";""
"restaurant";"Rumah Makan";"RM. RAMADHAN";"Desa lologolu kecamatan mandrehe kabupaten nias barat, Kota Gunungsitoli, Sumatera Utara 22862";"Kota Gunungsitoli";"SUMATERA UTARA";"22862";"Indonesia";" 085261794704";"";"";"1.0588476";"97.5462037";"https://maps.google.com/?cid=0x0:0xaaeb8e65d07d99bf";""
"restaurant";"Restoran";"Warung Kita Bersama";"Jl. Raya Pelud Binaka, Binaka, Kec. GunungSitoli Idanoi, Kabupaten Nias, Sumatera Utara 22871";"Binaka, Kec. GunungSitoli Idanoi, Kabupaten Nias";"SUMATERA UTARA";"22871";"Indonesia";"";"";"";"1.1776271";"97.6862275";"https://maps.google.com/?cid=0x0:0x80c87bf9b1b5687c";""
"restaurant";"Rumah Makan";"UD. Febri";"VHRJ+V5R, Desa, Lolowau, Kec. Lalowau, Kabupaten Nias Selatan, Sumatera Utara 22864";"Desa, Lolowau, Kec. Lalowau, Kabupaten Nias Selatan";"SUMATERA UTARA";"22864";"Indonesia";" 081396139932";"";"";"0.8922423";"97.580388";"https://maps.google.com/?cid=0x0:0x1f2ee43cd577e49d";""
"restaurant";"Rumah Makan";"Warung Bang Yoga";"4H2J+62P, Unnamed Road, Lolofaoso, Kec. Lolofitu Moi, Kabupaten Nias Barat, Sumatera Utara 22864";"Unnamed Road, Lolofaoso, Kec. Lolofitu Moi, Kabupaten Nias Barat";"SUMATERA UTARA";"22864";"Indonesia";" 082132181897";"";"";"1.1005838";"97.5800923";"https://maps.google.com/?cid=0x0:0x30e02250fccfc260";""
"restaurant";"Restoran";"UD SIDU NDRURU";"VHRJ+J6W, Jl. Hilifadölö, Lolowau, Kec. Lalowau, Kabupaten Nias Selatan, Sumatera Utara 22864";"Jl. Hilifadölö, Lolowau, Kec. Lalowau, Kabupaten Nias Selatan";"SUMATERA UTARA";"22864";"Indonesia";" 082121576169";"";"";"0.8916175";"97.5805781";"https://maps.google.com/?cid=0x0:0x99d0107b5b56af92";""
"restaurant";"Toko bahan makanan";"UD. LESTA";"4JPF+QP, Siwalu Banua I, Kec. GunungSitoli Idanoi, Kota Gunungsitoli, Sumatera Utara";"Kota Gunungsitoli, Sumatera Utara";"SUMATERA UTARA";"";"Indonesia";" 085296965610";"";"";"1.136953";"97.624279";"https://maps.google.com/?cid=0x0:0x8de5fe2b663e4cbf";""
"restaurant";"restaurant";"Kec. Botomuzoi";"Kabupaten Nias, Sumatera Utara";"Kabupaten Nias, Sumatera Utara";"SUMATERA UTARA";"";"Indonesia";"";"";"";"1.1780338";"97.5446524";"https://maps.google.com/?cid=0x0:0x3ea36227f9a6c186";""
"restaurant";"Brunch";"Rumah Makan Mervan";"Jl. Nias Tengah No.KM 19, RW.5, Dahadano Botombawo, Kec. HiliSerangkai, Kabupaten Nias, Sumatera Utara 22811";"RW.5, Dahadano Botombawo, Kec. HiliSerangkai, Kabupaten Nias";"SUMATERA UTARA";"22811";"Indonesia";"";"";"";"1.197207";"97.5678896";"https://maps.google.com/?cid=0x0:0x8f987176ae113c55";""
"restaurant";"Komplek perumahan";"Ama Yanti Mendrofa";"6H4F+W3R, Unnamed Road, Dahadano Botombawo, Kec. HiliSerangkai, Kabupaten Nias, Sumatera Utara 22811";"Unnamed Road, Dahadano Botombawo, Kec. HiliSerangkai, Kabupaten Nias";"SUMATERA UTARA";"22811";"Indonesia";"";"";"";"1.207352";"97.572653";"https://maps.google.com/?cid=0x0:0xb9d62596731a9596";""
"restaurant";"Pertanian";"MICHAEL HALAWA";"4HPF+G78, Simanaere Botomuzoi, Kec. Botomuzoi, Kabupaten Nias, Sumatera Utara";"Kabupaten Nias, Sumatera Utara";"SUMATERA UTARA";"";"Indonesia";"";"";"";"1.1362821";"97.5732025";"https://maps.google.com/?cid=0x0:0xb6f019f3aa749d04";""
"restaurant";"Bar Kopi Espresso";"Titik Temu";"Jl. Baloho Indah, Hiligeho, Kec. Tlk. Dalam, Kabupaten Nias Selatan, Sumatera Utara 22865";"Hiligeho, Kec. Tlk. Dalam, Kabupaten Nias Selatan";"SUMATERA UTARA";"22865";"Indonesia";" 082162138585";"";"";"0.5683146";"97.8079594";"https://maps.google.com/?cid=0x0:0x288d7cec2bf37275";""
"restaurant";"Rumah Makan";"UD Sahabat Sabarman";"4H4M+46J Moi, Hiliuso, Kec. Lolofitu Moi, Kabupaten Nias Barat, Sumatera Utara 22864";"Hiliuso, Kec. Lolofitu Moi, Kabupaten Nias Barat";"SUMATERA UTARA";"22864";"Indonesia";" 085275572421";"";"";"1.1053364";"97.5830149";"https://maps.google.com/?cid=0x0:0x214caae6df9d15f";""
"restaurant";"Padang";"Dalvons Mendrofa";"Jl. Nias Tengah No.Km 20, Dahadano Botombawo, Kec. HiliSerangkai, Kabupaten Nias, Sumatera Utara 22871";"Dahadano Botombawo, Kec. HiliSerangkai, Kabupaten Nias";"SUMATERA UTARA";"22871";"Indonesia";" 082272632927";"";"";"1.1933866";"97.5701502";"https://maps.google.com/?cid=0x0:0x628181abb17303e7";""
"restaurant";"Pertanian";"Durian Balaki Nias";"Kab:Nias, Kec:Hiliduho, Sisobalauru, Sumatera Utara 26584";"Kec:Hiliduho, Sisobalauru";"SUMATERA UTARA";"26584";"Indonesia";" 081270544335";"";"";"1.2065373";"97.4976536";"https://maps.google.com/?cid=0x0:0x4dbe3ac4216e6479";""
"restaurant";"restaurant";"Kec. Gido";"Kabupaten Nias, Sumatera Utara";"Kabupaten Nias, Sumatera Utara";"SUMATERA UTARA";"";"Indonesia";"";"";"";"1.17457";"97.6874949";"https://maps.google.com/?cid=0x0:0x9b3ac0e16891e3a9";""
"restaurant";"Restoran";"RM SEMANGAT BARU";"4P9F+Q3J, Jl. Merdeka, Heliweto Gido, Kec. Gido, Kabupaten Nias, Sumatera Utara 22871";"Jl. Merdeka, Heliweto Gido, Kec. Gido, Kabupaten Nias";"SUMATERA UTARA";"22871";"Indonesia";" 082361830495";"";"";"1.1194615";"97.7226261";"https://maps.google.com/?cid=0x0:0x2aa64f58142ee208";""
"restaurant";"Kafe";"de' First Cafe  Resto";"Jl. Pancasila No.06, Hiliweto, Kec. Gido, Kabupaten Nias, Sumatera Utara 22871";"Hiliweto, Kec. Gido, Kabupaten Nias";"SUMATERA UTARA";"22871";"Indonesia";"";"";"";"1.117339";"97.7247143";"https://maps.google.com/?cid=0x0:0xd348f66d73a624ff";""
"restaurant";"Restoran";"WARUNG BKN PA'SISCA CABANG GIDO";"4P9F+P5X, Heliweto Gido, Kec. Sogae'adu, Kabupaten Nias, Sumatera Utara 22871";"Heliweto Gido, Kec. Sogae'adu, Kabupaten Nias";"SUMATERA UTARA";"22871";"Indonesia";"";"";"";"1.1194791";"97.7229679";"https://maps.google.com/?cid=0x0:0xb69e483928f02ce7";""
"restaurant";"Restoran";"Rumah makan IDW";"Jalan arah teluk dalam KM 24 , 22871, kec, Heliweto, Sirete, Kec. Gido, Kabupaten Nias, Sumatera Utara 22871";"22871, kec, Heliweto, Sirete, Kec. Gido, Kabupaten Nias";"SUMATERA UTARA";"22871";"Indonesia";" 082363624807";"";"";"1.1221917";"97.7221505";"https://maps.google.com/?cid=0x0:0x9ee8ab4bc0612c3a";""
"restaurant";"Toko bahan makanan";"UD. RIA";"Desa Soewe, Kec. Gido, Kab. Nias, Kota Gunungsitoli, Sumatera Utara 22871";"Kec. Gido, Kab. Nias, Kota Gunungsitoli";"SUMATERA UTARA";"22871";"Indonesia";" 085143127678";"";"";"1.1381781";"97.7140837";"https://maps.google.com/?cid=0x0:0x10ec4b4e3d426689";""
"restaurant";"Kafe";"Warkop Archer";"Jl. Merdeka No.41, Heliweto Gido, Kec. Sogae'adu, Kabupaten Nias, Sumatera Utara 22871";"Heliweto Gido, Kec. Sogae'adu, Kabupaten Nias";"SUMATERA UTARA";"22871";"Indonesia";"";"";"";"1.1191673";"97.7231416";"https://maps.google.com/?cid=0x0:0xa5923219b7e12019";""
"restaurant";"Rumah Makan";"UD. LO'AFODA";"Dusun I Desa, Hiliotalua, Kec. Gido, Kabupaten Nias, Sumatera Utara 22871";"Hiliotalua, Kec. Gido, Kabupaten Nias";"SUMATERA UTARA";"22871";"Indonesia";" 085275714047";"";"";"1.0498724";"97.705333";"https://maps.google.com/?cid=0x0:0x2bfcb0ed9e5b94fc";""
"restaurant";"Rumah Makan";"WAROENG BANG JAGO";"3PHR+VRQ, Sisarahili Sogaeadu, Kec. Gido, Kabupaten Nias, Sumatera Utara 22871";"Sisarahili Sogaeadu, Kec. Gido, Kabupaten Nias";"SUMATERA UTARA";"22871";"Indonesia";" 085359553721";"";"";"1.0797142";"97.7421176";"https://maps.google.com/?cid=0x0:0xf7bae96e5353e6ed";""
"restaurant";"Restoran";"WARUNG HALRUM CAFE";"Jl. Pendidikan No.18, Heliweto Gido, Kec. Gido, Kabupaten Nias, Sumatera Utara 22871";"Heliweto Gido, Kec. Gido, Kabupaten Nias";"SUMATERA UTARA";"22871";"Indonesia";" 082111201017";"";"";"1.1167421";"97.7229025";"https://maps.google.com/?cid=0x0:0xd6fa2efafa8b7d1c";""
"restaurant";"Padang";"RM. Sohaga";"4P5M+52P, Jl. Gunungsitoli-Idanögawo, Tulumbaho, Kec. Gido, Kabupaten Nias, Sumatera Utara 22871";"Jl. Gunungsitoli-Idanögawo, Tulumbaho, Kec. Gido, Kabupaten Nias";"SUMATERA UTARA";"22871";"Indonesia";" 081377306432";"";"";"1.1079637";"97.732571";"https://maps.google.com/?cid=0x0:0x17d65da163702c0f";""
"restaurant";"Restoran";"Rumah Makan DEANDRA";"Jl. Merdeka No.55, Heliweto Gido, Kec. Sogae'adu, Kabupaten Nias, Sumatera Utara 22871";"Heliweto Gido, Kec. Sogae'adu, Kabupaten Nias";"SUMATERA UTARA";"22871";"Indonesia";"";"";"";"1.1184718";"97.7239862";"https://maps.google.com/?cid=0x0:0x45b82c40c4fa29ff";""
"restaurant";"Restoran";"Warung Desi Binaka";"5M7W+8JJ, Unnamed Road, Lolozasai, Kec. Gido, Kabupaten Nias, Sumatera Utara 22871";"Unnamed Road, Lolozasai, Kec. Gido, Kabupaten Nias";"SUMATERA UTARA";"22871";"Indonesia";" 082366355531";"";"";"1.1633298";"97.6965151";"https://maps.google.com/?cid=0x0:0xc803154318d4335d";""
"restaurant";"Kedai Kopi";"RM. Dani Zebua";"5P52+QF2, Jl. Raya Pelud Binaka, Binaka, Kec. GunungSitoli Idanoi, Kabupaten Nias, Sumatera Utara";"Kabupaten Nias, Sumatera Utara";"SUMATERA UTARA";"";"Indonesia";"";"";"";"1.1593798";"97.7011401";"https://maps.google.com/?cid=0x0:0xc1579a74fb48058";""
"restaurant";"Restoran";"WARUNG EXSEL";"4P9F+P4C, Heliweto Gido, Kec. Sogae'adu, Kabupaten Nias, Sumatera Utara 22871";"Heliweto Gido, Kec. Sogae'adu, Kabupaten Nias";"SUMATERA UTARA";"22871";"Indonesia";" 085276517838";"";"";"1.1193206";"97.722759";"https://maps.google.com/?cid=0x0:0x1ae8aff3d4978fdc";""
"restaurant";"Restoran";"RM PAK GAEK BARU";"4P5M+725, Jl. Gunungsitoli-Idanögawo, Tulumbaho, Kec. Gido, Kabupaten Nias, Sumatera Utara 22871";"Jl. Gunungsitoli-Idanögawo, Tulumbaho, Kec. Gido, Kabupaten Nias";"SUMATERA UTARA";"22871";"Indonesia";"";"";"";"1.1081302";"97.7326013";"https://maps.google.com/?cid=0x0:0x1cd0b64c39de4051";""
"restaurant";"Restoran";"Rumah Makan Bunda";"4P9F+7JH, Jl. Merdeka, Heliweto Gido, Kec. Sogae'adu, Kabupaten Nias, Sumatera Utara 22871";"Jl. Merdeka, Heliweto Gido, Kec. Sogae'adu, Kabupaten Nias";"SUMATERA UTARA";"22871";"Indonesia";"";"";"";"1.118188";"97.7241137";"https://maps.google.com/?cid=0x0:0x186c1577ee458a06";""
"restaurant";"Toko bahan makanan";"UD. Solomasi";"Kompleks Kantor Bupati Nias, Jl. Soekarno, Tulumbaho, Kec. Gido, Kabupaten Nias, Sumatera Utara 22871";"Jl. Soekarno, Tulumbaho, Kec. Gido, Kabupaten Nias";"SUMATERA UTARA";"22871";"Indonesia";" 082268445531";"";"";"1.0974024";"97.7246041";"https://maps.google.com/?cid=0x0:0x6c70c65e0d66895d";""
"restaurant";"Restoran";"OmoGö Resto  Cafe";"Jl. Raya Pelud Binaka No.219, Binaka, Kec. GunungSitoli Idanoi, Kota Gunungsitoli, Sumatera Utara 22871";"Binaka, Kec. GunungSitoli Idanoi, Kota Gunungsitoli";"SUMATERA UTARA";"22871";"Indonesia";" 081260274444";"";"";"1.1695082";"97.6931335";"https://maps.google.com/?cid=0x0:0x978ef1c7086eeb3d";""
"restaurant";"Restoran";"Rumah Makan";"4P5M+24X, Simpang Durian, Desa Hilizoi, Tulumbaho, Kec. Gido, Kabupaten Nias, Sumatera Utara 22871";"Simpang Durian, Desa Hilizoi, Tulumbaho, Kec. Gido, Kabupaten Nias";"SUMATERA UTARA";"22871";"Indonesia";"";"";"";"1.1076238";"97.732844";"https://maps.google.com/?cid=0x0:0xf34e10780fc53941";""
"restaurant";"Makanan Sehat";"Grainsly Catering";"Jl. Tebet Dalam IV E No.25, RT.20/RW.1, Tebet Bar., Jakarta, Kota Jakarta Selatan, Daerah Khusus Ibukota Jakarta 12810";"RT.20/RW.1, Tebet Bar., Jakarta, Kota Jakarta Selatan";"SUMATERA UTARA";"12810";"Indonesia";" 087828881442";"";"";"-6.2292708";"106.8510822";"https://maps.google.com/?cid=0x0:0x59530e80304ed727";""
"restaurant";"Restoran";"Grainsly Ground - Gunawarman";"Jl. Gunawarman No.51 4, RT.4/RW.7, Rw. Bar., Jakarta, Kota Jakarta Selatan, Daerah Khusus Ibukota Jakarta 12150";"RT.4/RW.7, Rw. Bar., Jakarta, Kota Jakarta Selatan";"SUMATERA UTARA";"12150";"Indonesia";" 081215543620";"";"";"-6.2365426";"106.8077654";"https://maps.google.com/?cid=0x0:0x313332ae3fcceaa1";""
"restaurant";"Italia";"Osteria Gia Mall Pacific Place";"Pacific Place Mall, Ground Level Unit G-05D, SCBD Lot. 3, Jl. Jend. Sudirman kav 52-53 South No.5, RT.5/RW.3, Senayan, Kec. Kby. Baru, Jakarta, Daerah Khusus Ibukota Jakarta 12190";"Ground Level Unit G-05D, SCBD Lot. 3, Jl. Jend. Sudirman kav 52-53 South No.5, RT.5/RW.3, Senayan, Kec. Kby. Baru, Jakarta";"SUMATERA UTARA";"12190";"Indonesia";" 081513153300";"";"";"-6.2250515";"106.8103228";"https://maps.google.com/?cid=0x0:0x5c4a110b59e89f8d";""
"restaurant";"Italia";"Osteria Gia Plaza Indonesia";"Jl. M.H. Thamrin No.30, RT.9/RW.5, Gondangdia, Kec. Menteng, Kota Jakarta Pusat, Daerah Khusus Ibukota Jakarta 10350";"RT.9/RW.5, Gondangdia, Kec. Menteng, Kota Jakarta Pusat";"SUMATERA UTARA";"10350";"Indonesia";" 081299073300";"";"";"-6.1939355";"106.8226376";"https://maps.google.com/?cid=0x0:0xe0b15216c2b89678";""
"restaurant";"Thailand";"Jittlada Thai Cuisine, Grand Indonesia";"Grand Indonesia, Jalan Muhammad Husni Thamrin, RT.1/RW.5, Menteng, Kec. Menteng, Kota Jakarta Pusat, Daerah Khusus Ibukota Jakarta 10310";"Jalan Muhammad Husni Thamrin, RT.1/RW.5, Menteng, Kec. Menteng, Kota Jakarta Pusat";"SUMATERA UTARA";"10310";"Indonesia";" 02123580573";"";"";"-6.1951703";"106.819369";"https://maps.google.com/?cid=0x0:0x5d5b98057ce1cf98";""
"restaurant";"Vietnam";"Saigon Delight Grand Indonesia";"Grand Indonesia, East Mall 3A, Jl. M.H. Thamrin No.1, Kb. Melati, Kecamatan Tanah Abang, Kota Jakarta Pusat, Daerah Khusus Ibukota Jakarta 10230";"East Mall 3A, Jl. M.H. Thamrin No.1, Kb. Melati, Kecamatan Tanah Abang, Kota Jakarta Pusat";"SUMATERA UTARA";"10230";"Indonesia";"";"";"";"-6.1949985";"106.8213246";"https://maps.google.com/?cid=0x0:0xb3b7fdec315e4b79";""
"restaurant";"restaurant";"Foodioz";"";"";"SUMATERA UTARA";"";"Indonesia";"";"";"";"-6.2303191";"106.7836115";"https://maps.google.com/?cid=0x0:0xaa5b949b3d119c5";""
"restaurant";"Italia";"Osteria GIA Orange Groves PIK 2";"Orange Groves Pantai Indah Kapuk 2, Jl. KH Mas Mansyur No.01B Kavling Blok E22, Kabupaten Tangerang, Banten 15214";"Jl. KH Mas Mansyur No.01B Kavling Blok E22, Kabupaten Tangerang";"SUMATERA UTARA";"15214";"Indonesia";" 08118450033";"";"";"-6.0591362";"106.6927915";"https://maps.google.com/?cid=0x0:0x36cd0d290e441c7d";""
"restaurant";"Italia";"Cafe Kissa - Grand Indonesia";"Shinta Lobby, Grand Indonesia Mall, East Mall, Jl. Tlk. Betung I No.45A Ground Floor, RT.1/RW.5, Menteng, Kec. Menteng, Kota Jakarta Pusat, Daerah Khusus Ibukota Jakarta 10310";"Grand Indonesia Mall, East Mall, Jl. Tlk. Betung I No.45A Ground Floor, RT.1/RW.5, Menteng, Kec. Menteng, Kota Jakarta Pusat";"SUMATERA UTARA";"10310";"Indonesia";" 08118001556";"";"";"-6.1963714";"106.8225994";"https://maps.google.com/?cid=0x0:0x89e344c04d23a8ad";""
"restaurant";"restaurant";"RM YUNISARA";"7G3M+HFR, Jalan, Fadoro Lauru, Hiliduho, Nias Regency, North Sumatra 22851";"Jalan, Fadoro Lauru, Hiliduho, Nias Regency";"SUMATERA UTARA";"22851";"Indonesia";"";"";"";"1.2539919";"97.5336326";"https://maps.google.com/?cid=0x0:0x74428312c656d570";""
"restaurant";"restaurant";"Sumatera Utara 22851";"Sumatera Utara";"Sumatera Utara";"SUMATERA UTARA";"";"Indonesia";"";"";"";"1.2976797";"97.330053";"https://maps.google.com/?cid=0x0:0xb3058656cf8eec8e";""
"restaurant";"Pertanian";"Durian Balaki Nias";"Kab:Nias, Kec:Hiliduho, Sisobalauru, Sumatera Utara 26584";"Kec:Hiliduho, Sisobalauru";"SUMATERA UTARA";"26584";"Indonesia";" 081270544335";"";"";"1.2065373";"97.4976536";"https://maps.google.com/?cid=0x0:0x4dbe3ac4216e6479";""
"restaurant";"Kedai Kopi";"Hilicafe";"7J9M+R2F, Ilir, Kec. Gunungsitoli, Kota Gunungsitoli, Sumatera Utara 22811";"Ilir, Kec. Gunungsitoli, Kota Gunungsitoli";"SUMATERA UTARA";"22811";"Indonesia";"";"";"";"1.2695558";"97.6326054";"https://maps.google.com/?cid=0x0:0xfcdaa7fac94a7ac";""
"restaurant";"restaurant";"KEDAI MIE CITRA";"6GXP+P6M, Fadoro Lauru, Kec. Hiliduho, Kabupaten Nias, Sumatera Utara 22851";"Fadoro Lauru, Kec. Hiliduho, Kabupaten Nias";"SUMATERA UTARA";"22851";"Indonesia";"";"";"";"1.2493425";"97.5355555";"https://maps.google.com/?cid=0x0:0xf9e2be31e9eb97b0";""
"restaurant";"restaurant";"Kec. Hiliduho";"Kabupaten Nias, Sumatera Utara";"Kabupaten Nias, Sumatera Utara";"SUMATERA UTARA";"";"Indonesia";"";"";"";"1.2502486";"97.5332759";"https://maps.google.com/?cid=0x0:0x228ef20efa6adaf";""
"restaurant";"Dapur Umum";"Kedai LYNI";"7JJ4+F35, Jl. Fondrako, Saombo, Kec. Gunungsitoli, Kota Gunungsitoli, Sumatera Utara";"Kota Gunungsitoli, Sumatera Utara";"SUMATERA UTARA";"";"Indonesia";" 082163503099";"";"";"1.2811366";"97.6052299";"https://maps.google.com/?cid=0x0:0xc16a0613954cd097";""
"restaurant";"Rumah Kayu";"Omo A/i. Dika Harefa";"8H8M+2FQ, Unnamed Road, Sisarahili Gamo, Kec. Gunungsitoli, Kota Gunungsitoli, Sumatera Utara 22811";"Unnamed Road, Sisarahili Gamo, Kec. Gunungsitoli, Kota Gunungsitoli";"SUMATERA UTARA";"22811";"Indonesia";"";"";"";"1.315095";"97.5837297";"https://maps.google.com/?cid=0x0:0xb3f63f5b7be8270";""
"restaurant";"Brunch";"RM. MOHILI SARURU";"8H4C+PX4, Iraono Lase, Kec. Gunungsitoli Alo'oa, Kota Gunungsitoli, Sumatera Utara";"Kota Gunungsitoli, Sumatera Utara";"SUMATERA UTARA";"";"Indonesia";"";"";"";"1.3067667";"97.5724652";"https://maps.google.com/?cid=0x0:0x2270b5ed66472dab";""
"restaurant";"Padang";"RM. Hj. Ridha";"Jl. Yos Sudarso Ujung No.171, Saombo, Kec. Gunungsitoli, Kota Gunungsitoli, Sumatera Utara";"Kota Gunungsitoli, Sumatera Utara";"SUMATERA UTARA";"";"Indonesia";" 081361699115";"";"";"1.3043936";"97.6084326";"https://maps.google.com/?cid=0x0:0x364bb2e3da7e51c9";""
"restaurant";"Komplek perumahan";"Ama Yanti Mendrofa";"6H4F+W3R, Unnamed Road, Dahadano Botombawo, Kec. HiliSerangkai, Kabupaten Nias, Sumatera Utara 22811";"Unnamed Road, Dahadano Botombawo, Kec. HiliSerangkai, Kabupaten Nias";"SUMATERA UTARA";"22811";"Indonesia";"";"";"";"1.207352";"97.572653";"https://maps.google.com/?cid=0x0:0xb9d62596731a9596";""
"restaurant";"Batak";"Rumah Makan "ONDO" khas Batak";"Jl. Yos Sudarso Ujung No.50, Ombolata Ulu, Kec. Gunungsitoli, Kota Gunungsitoli, Sumatera Utara 22812";"Ombolata Ulu, Kec. Gunungsitoli, Kota Gunungsitoli";"SUMATERA UTARA";"22812";"Indonesia";" 082276224772";"";"";"1.3122569";"97.6075701";"https://maps.google.com/?cid=0x0:0x530c5db2f2c7dd1";""
"restaurant";"Brunch";"Rumah Makan Mervan";"Jl. Nias Tengah No.KM 19, RW.5, Dahadano Botombawo, Kec. HiliSerangkai, Kabupaten Nias, Sumatera Utara 22811";"RW.5, Dahadano Botombawo, Kec. HiliSerangkai, Kabupaten Nias";"SUMATERA UTARA";"22811";"Indonesia";"";"";"";"1.197207";"97.5678896";"https://maps.google.com/?cid=0x0:0x8f987176ae113c55";""
"restaurant";"Brunch";"RM. MOHILI SARURU";"Iraono Lase, Jalan Arah Meteorologi, Kec. Gunungsitoli Alo'oa, Kota Gunungsitoli, Sumatera Utara";"Kota Gunungsitoli, Sumatera Utara";"SUMATERA UTARA";"";"Indonesia";" 081370064906";"";"";"1.2982299";"97.5567222";"https://maps.google.com/?cid=0x0:0xc64ac4092870b8e2";""
"restaurant";"Toko";"Rumah a.gilbert lade";"Jl. Hili Serangkai-Botomuzoi, Lasara Botomuzoi, Kec. Botomuzoi, Kabupaten Nias, Sumatera Utara 22854";"Lasara Botomuzoi, Kec. Botomuzoi, Kabupaten Nias";"SUMATERA UTARA";"22854";"Indonesia";"";"";"";"1.1794114";"97.5247456";"https://maps.google.com/?cid=0x0:0x739d7114f2189baa";""
"restaurant";"Mi";"UD. JAMES";"5GHW+M8Q, Hiliwaele I, Kec. Botomuzoi, Kabupaten Nias, Sumatera Utara 22854";"Hiliwaele I, Kec. Botomuzoi, Kabupaten Nias";"SUMATERA UTARA";"22854";"Indonesia";" 082360771775";"";"";"1.1792056";"97.5458439";"https://maps.google.com/?cid=0x0:0xb528b72d85301ab4";""
"restaurant";"Padang";"Dalvons Mendrofa";"Jl. Nias Tengah No.Km 20, Dahadano Botombawo, Kec. HiliSerangkai, Kabupaten Nias, Sumatera Utara 22871";"Dahadano Botombawo, Kec. HiliSerangkai, Kabupaten Nias";"SUMATERA UTARA";"22871";"Indonesia";" 082272632927";"";"";"1.1933866";"97.5701502";"https://maps.google.com/?cid=0x0:0x628181abb17303e7";""
"restaurant";"Restoran";"RM. Hidangan Muslimah";"Jl. Yos Sudarso Ujung No.205, Saombo, Kec. Gunungsitoli, Kota Gunungsitoli, Sumatera Utara";"Kota Gunungsitoli, Sumatera Utara";"SUMATERA UTARA";"";"Indonesia";" 081263759575";"";"";"1.3062917";"97.6087833";"https://maps.google.com/?cid=0x0:0x5ad4923d23fc39dd";""
"restaurant";"Padang";"Kaliki Resto";"8J65+HVW, Unnamed Road, Moawo, Kec. Gunungsitoli, Kota Gunungsitoli, Sumatera Utara";"Kota Gunungsitoli, Sumatera Utara";"SUMATERA UTARA";"";"Indonesia";"";"";"";"1.3114992";"97.6097041";"https://maps.google.com/?cid=0x0:0xf92e265da2324877";""
"restaurant";"Brunch";"Warung Makan Ria Ceria";"6H5F+M25, Dahadano Botombawo, Kec. HiliSerangkai, Kabupaten Nias, Sumatera Utara 22811";"Dahadano Botombawo, Kec. HiliSerangkai, Kabupaten Nias";"SUMATERA UTARA";"22811";"Indonesia";"";"";"";"1.209148";"97.5725999";"https://maps.google.com/?cid=0x0:0x957e36e77072f8c7";""
"restaurant";"Kafe";"RM.LAPO MANURUNG";"Jl. Yos Sudarso Ujung No.dekat, pelabuhan, Kec. Gunungsitoli, NIAS, Sumatera Utara 22810";"pelabuhan, Kec. Gunungsitoli, NIAS";"SUMATERA UTARA";"22810";"Indonesia";"";"";"";"1.3062287";"97.6096954";"https://maps.google.com/?cid=0x0:0x8ed539dbff0e59c5";""
"restaurant";"Brunch";"Warung Makan Larumae";"6H7F+886, Jl. Gunungsitoli, Dahadano Botombawo, Kec. HiliSerangkai, Kabupaten Nias, Sumatera Utara 22811";"Jl. Gunungsitoli, Dahadano Botombawo, Kec. HiliSerangkai, Kabupaten Nias";"SUMATERA UTARA";"22811";"Indonesia";"";"";"";"1.2132847";"97.5732695";"https://maps.google.com/?cid=0x0:0xd4301518c1dbea54";""
"restaurant";"Kafe";"Museum Nias Cafe";"Jalan Yos Sudarso No. 134-A, Ombolata Ulu, Gunung Sitoli, Iraonogeba, Kec. Gunungsitoli, Kota Gunungsitoli, Sumatera Utara 22812";"Ombolata Ulu, Gunung Sitoli, Iraonogeba, Kec. Gunungsitoli, Kota Gunungsitoli";"SUMATERA UTARA";"22812";"Indonesia";" 085277992858";"";"";"1.298716";"97.609124";"https://maps.google.com/?cid=0x0:0x575dd51bd5bc8cb4";""
"restaurant";"Brunch";"Rumah Makan Efran";"5HRF+F75, Dahadano Botombawo, Kec. HiliSerangkai, Kabupaten Nias, Sumatera Utara";"Kabupaten Nias, Sumatera Utara";"SUMATERA UTARA";"";"Indonesia";" 081377033818";"";"";"1.1911399";"97.5732453";"https://maps.google.com/?cid=0x0:0xab4ef133d512bcaa";""
"restaurant";"restaurant";"Sumatera Utara 22854";"Kec. Botomuzoi, Kabupaten Nias, Sumatera Utara";"Kabupaten Nias, Sumatera Utara";"SUMATERA UTARA";"";"Indonesia";"";"";"";"1.1873897";"97.5301397";"https://maps.google.com/?cid=0x0:0x6075fa9e225a1eff";""
"restaurant";"Mi";"UD. JAMES";"5GHW+M8Q, Hiliwaele I, Kec. Botomuzoi, Kabupaten Nias, Sumatera Utara 22854";"Hiliwaele I, Kec. Botomuzoi, Kabupaten Nias";"SUMATERA UTARA";"22854";"Indonesia";" 082360771775";"";"";"1.1792056";"97.5458439";"https://maps.google.com/?cid=0x0:0xb528b72d85301ab4";""
"restaurant";"Brunch";"Warung Makan Ria Ceria";"6H5F+M25, Dahadano Botombawo, Kec. HiliSerangkai, Kabupaten Nias, Sumatera Utara 22811";"Dahadano Botombawo, Kec. HiliSerangkai, Kabupaten Nias";"SUMATERA UTARA";"22811";"Indonesia";"";"";"";"1.209148";"97.5725999";"https://maps.google.com/?cid=0x0:0x957e36e77072f8c7";""
"restaurant";"Brunch";"Rumah Makan Mervan";"Jl. Nias Tengah No.KM 19, RW.5, Dahadano Botombawo, Kec. HiliSerangkai, Kabupaten Nias, Sumatera Utara 22811";"RW.5, Dahadano Botombawo, Kec. HiliSerangkai, Kabupaten Nias";"SUMATERA UTARA";"22811";"Indonesia";"";"";"";"1.197207";"97.5678896";"https://maps.google.com/?cid=0x0:0x8f987176ae113c55";""
"restaurant";"Komplek perumahan";"Ama Yanti Mendrofa";"6H4F+W3R, Unnamed Road, Dahadano Botombawo, Kec. HiliSerangkai, Kabupaten Nias, Sumatera Utara 22811";"Unnamed Road, Dahadano Botombawo, Kec. HiliSerangkai, Kabupaten Nias";"SUMATERA UTARA";"22811";"Indonesia";"";"";"";"1.207352";"97.572653";"https://maps.google.com/?cid=0x0:0xb9d62596731a9596";""
"restaurant";"Brunch";"Rumah Makan Efran";"5HRF+F75, Dahadano Botombawo, Kec. HiliSerangkai, Kabupaten Nias, Sumatera Utara";"Kabupaten Nias, Sumatera Utara";"SUMATERA UTARA";"";"Indonesia";" 081377033818";"";"";"1.1911399";"97.5732453";"https://maps.google.com/?cid=0x0:0xab4ef133d512bcaa";""
"restaurant";"Padang";"Dalvons Mendrofa";"Jl. Nias Tengah No.Km 20, Dahadano Botombawo, Kec. HiliSerangkai, Kabupaten Nias, Sumatera Utara 22871";"Dahadano Botombawo, Kec. HiliSerangkai, Kabupaten Nias";"SUMATERA UTARA";"22871";"Indonesia";" 082272632927";"";"";"1.1933866";"97.5701502";"https://maps.google.com/?cid=0x0:0x628181abb17303e7";""
"restaurant";"Bar Kopi Espresso";"Titik Temu";"Jl. Baloho Indah, Hiligeho, Kec. Tlk. Dalam, Kabupaten Nias Selatan, Sumatera Utara 22865";"Hiligeho, Kec. Tlk. Dalam, Kabupaten Nias Selatan";"SUMATERA UTARA";"22865";"Indonesia";" 082162138585";"";"";"0.5683146";"97.8079594";"https://maps.google.com/?cid=0x0:0x288d7cec2bf37275";""
"restaurant";"Brunch";"Warung Makan Larumae";"6H7F+886, Jl. Gunungsitoli, Dahadano Botombawo, Kec. HiliSerangkai, Kabupaten Nias, Sumatera Utara 22811";"Jl. Gunungsitoli, Dahadano Botombawo, Kec. HiliSerangkai, Kabupaten Nias";"SUMATERA UTARA";"22811";"Indonesia";"";"";"";"1.2132847";"97.5732695";"https://maps.google.com/?cid=0x0:0xd4301518c1dbea54";""
"restaurant";"Kedai Kopi";"Hilicafe";"7J9M+R2F, Ilir, Kec. Gunungsitoli, Kota Gunungsitoli, Sumatera Utara 22811";"Ilir, Kec. Gunungsitoli, Kota Gunungsitoli";"SUMATERA UTARA";"22811";"Indonesia";"";"";"";"1.2695558";"97.6326054";"https://maps.google.com/?cid=0x0:0xfcdaa7fac94a7ac";""
"restaurant";"Restoran";"Raffiel Cafe and Pizza";"Luahagundre, Jl. Sorake, Kec. Maniamolo, Kabupaten Nias Selatan, Sumatera Utara 22865";"Jl. Sorake, Kec. Maniamolo, Kabupaten Nias Selatan";"SUMATERA UTARA";"22865";"Indonesia";" 082274870319";"";"";"0.5729308";"97.7313965";"https://maps.google.com/?cid=0x0:0xa4a03b8f29f3e695";""
"restaurant";"Brunch";"Rumah Makan Mama Chatrine";"5H8R+W86, Jl. Nias Tengah, Hiliwaele II, Kec. Botomuzoi, Kabupaten Nias, Sumatera Utara 22851";"Jl. Nias Tengah, Hiliwaele II, Kec. Botomuzoi, Kabupaten Nias";"SUMATERA UTARA";"22851";"Indonesia";"";"";"";"1.1672921";"97.5907791";"https://maps.google.com/?cid=0x0:0x7e9ce2594cd1ac4";""
"restaurant";"Klub Olahraga";"Hiligeo";"9C6G+4P9, Esiwa, Kec. Namohalu Esiwa, Kabupaten Nias Utara, Sumatera Utara";"Kabupaten Nias Utara, Sumatera Utara";"SUMATERA UTARA";"";"Indonesia";"";"";"";"1.3603";"97.4268695";"https://maps.google.com/?cid=0x0:0x5c78799e04d917b3";""
"restaurant";"Dapur Umum";"Warung Mie Jordan";"5HMJ+Q4Q, Jl. Nias Tengah, Lolowua, Kec. HiliSerangkai, Kabupaten Nias, Sumatera Utara 22851";"Jl. Nias Tengah, Lolowua, Kec. HiliSerangkai, Kabupaten Nias";"SUMATERA UTARA";"22851";"Indonesia";" 082363517649";"";"";"1.1844709";"97.5803643";"https://maps.google.com/?cid=0x0:0xe54c28487ee20483";""
"restaurant";"Restoran";"RM. HAPPY";"Jl. Telukdalam Gunung Sitoli KM. 25 Hili Orudua, Bawozihono, Kec. Lahusa, Kabupaten Nias Selatan, Sumatera Utara";"Kabupaten Nias Selatan, Sumatera Utara";"SUMATERA UTARA";"";"Indonesia";" 081377467765";"";"";"0.7320065";"97.8913511";"https://maps.google.com/?cid=0x0:0x8833a62373091064";""
"restaurant";"Warnet";"Tower botombawö";"5HX8+F3R, Dahadano Botombawo, Kec. HiliSerangkai, Kabupaten Nias Utara, Sumatera Utara 22851";"Dahadano Botombawo, Kec. HiliSerangkai, Kabupaten Nias Utara";"SUMATERA UTARA";"22851";"Indonesia";"";"";"";"1.1987289";"97.565141";"https://maps.google.com/?cid=0x0:0x4a4e0dca0e58313a";""
"restaurant";"restaurant";"Warung Makan Fani";"5HW9+R4X, Jl. Nias Tengah, Dahadano Botombawo, Kec. HiliSerangkai, Kabupaten Nias, Sumatera Utara 22851";"Jl. Nias Tengah, Dahadano Botombawo, Kec. HiliSerangkai, Kabupaten Nias";"SUMATERA UTARA";"22851";"Indonesia";"";"";"";"1.1971048";"97.5678678";"https://maps.google.com/?cid=0x0:0xfe31f911b064701";""
"restaurant";"restaurant";"Kec. HiliSerangkai";"Kabupaten Nias, Sumatera Utara";"Kabupaten Nias, Sumatera Utara";"SUMATERA UTARA";"";"Indonesia";"";"";"";"1.2079822";"97.5725863";"https://maps.google.com/?cid=0x0:0x87e5f26307fe5db6";""
"restaurant";"Kedai Kopi";"Hilicafe";"7J9M+R2F, Ilir, Kec. Gunungsitoli, Kota Gunungsitoli, Sumatera Utara 22811";"Ilir, Kec. Gunungsitoli, Kota Gunungsitoli";"SUMATERA UTARA";"22811";"Indonesia";"";"";"";"1.2695558";"97.6326054";"https://maps.google.com/?cid=0x0:0xfcdaa7fac94a7ac";""
"restaurant";"Kedai Kopi";"Tempat nongkrong";"6JCC+P24, Jl. Desa Hiligara, Hiligara, Kec. Gunungsitoli Sel., Kota Gunungsitoli, Sumatera Utara";"Kota Gunungsitoli, Sumatera Utara";"SUMATERA UTARA";"";"Indonesia";" 082242078008";"";"";"1.2217535";"97.6200666";"https://maps.google.com/?cid=0x0:0x641cf256c68e130";""
"restaurant";"restaurant";"Sumatera Utara 22872";"Kabupaten Nias, Sumatera Utara";"Kabupaten Nias, Sumatera Utara";"SUMATERA UTARA";"";"Indonesia";"";"";"";"1.0204278";"97.7742702";"https://maps.google.com/?cid=0x0:0x39c54a2144cb1830";""
"restaurant";"Restoran";"RM. TOBATABO";"2QG9+QQ6, Tetehosi, Kecamatan Idanogawo, Kabupaten Nias, Sumatera Utara 22872";"Tetehosi, Kecamatan Idanogawo, Kabupaten Nias";"SUMATERA UTARA";"22872";"Indonesia";" 085262308530";"";"";"1.0269024";"97.7694014";"https://maps.google.com/?cid=0x0:0xf3a12733cf872812";""
"restaurant";"Padang";"Rumah Makan Rifka Zai";"Jl. Diponegoro No.101, Ahedano, Kecamatan Idanogawo, Kabupaten Nias, Sumatera Utara 22872";"Ahedano, Kecamatan Idanogawo, Kabupaten Nias";"SUMATERA UTARA";"22872";"Indonesia";"";"";"";"1.0266139";"97.7723554";"https://maps.google.com/?cid=0x0:0xe7eca04e689f19e1";""
"restaurant";"Restoran";"Kedai Makan LINA";"Jl. Diponegoro No.61, Tetehosi, Kecamatan Idanogawo, Kabupaten Nias, Sumatera Utara 22872";"Tetehosi, Kecamatan Idanogawo, Kabupaten Nias";"SUMATERA UTARA";"22872";"Indonesia";" 085296835172";"";"";"1.026641";"97.7721985";"https://maps.google.com/?cid=0x0:0x49508f46aac5bad1";""
"restaurant";"Pembangunan Perumahan";"AMA FEBRY ZEBUA";"2QHF+759, Tetehosi, Kecamatan Idanogawo, Kabupaten Nias, Sumatera Utara 22872";"Tetehosi, Kecamatan Idanogawo, Kabupaten Nias";"SUMATERA UTARA";"22872";"Indonesia";"";"";"";"1.0281636";"97.7729746";"https://maps.google.com/?cid=0x0:0xa50cf2a0c7d7e93";""
"restaurant";"Rumah Makan";"UD Deddy waruwu";"Oladano, Kecamatan Idanogawo, Kabupaten Nias, Sumatera Utara 22872";"Kecamatan Idanogawo, Kabupaten Nias";"SUMATERA UTARA";"22872";"Indonesia";" 082275634564";"";"";"1.0126729";"97.757129";"https://maps.google.com/?cid=0x0:0xc357242faf860ce0";""
"restaurant";"Rumah Makan";"Warung Monggo Nias";"Warung Monggo, Jalan Lintas Teluk Dalam, Ahedano, Kecamatan Idanogawo, Kabupaten Nias, Sumatera Utara 22872";"Jalan Lintas Teluk Dalam, Ahedano, Kecamatan Idanogawo, Kabupaten Nias";"SUMATERA UTARA";"22872";"Indonesia";" 085359301524";"";"";"1.0178525";"97.7859587";"https://maps.google.com/?cid=0x0:0x9d78b5a50e27e79a";""
"restaurant";"Kafe";"Cafe Ivan Zega";"2QH7+W9W, Tetehosi, Kecamatan Idanogawo, Kabupaten Nias, Sumatera Utara 22872";"Tetehosi, Kecamatan Idanogawo, Kabupaten Nias";"SUMATERA UTARA";"22872";"Indonesia";"";"";"";"1.029866";"97.7634557";"https://maps.google.com/?cid=0x0:0xb25559151d918048";""
"restaurant";"Padang";"Rumah Makan Nasional 2";"4PH9+5GW, Sirete, Kec. Gido, Kabupaten Nias, Sumatera Utara";"Kabupaten Nias, Sumatera Utara";"SUMATERA UTARA";"";"Indonesia";"";"";"";"1.1279907";"97.7188303";"https://maps.google.com/?cid=0x0:0xa261f3aca6b9ef81";""
"restaurant";"Rumah Makan";"UD. REXAN (KEDAI MAKAN REXAN)";"Jl. Mbomboaukhu, Oladano, Kecamatan Idanogawo, Kabupaten Nias, Sumatera Utara 22872";"Oladano, Kecamatan Idanogawo, Kabupaten Nias";"SUMATERA UTARA";"22872";"Indonesia";" 081362162468";"";"";"1.0131211";"97.7575345";"https://maps.google.com/?cid=0x0:0xc4044f1d5116438e";""
"restaurant";"Restoran";"RM. Briel";"2QGC+JVM, Jl. Diponegoro, Tetehosi, Kecamatan Idanogawo, Kabupaten Nias, Sumatera Utara 22872";"Jl. Diponegoro, Tetehosi, Kecamatan Idanogawo, Kabupaten Nias";"SUMATERA UTARA";"22872";"Indonesia";" 085296835172";"";"";"1.0265999";"97.7721693";"https://maps.google.com/?cid=0x0:0x3a19996960aba820";""
"restaurant";"Rumah Makan";"Rumah Makan Sakinah";"2QGF+H42, Jl. Diponegoro, Tetehosi, Kecamatan Idanogawo, Kabupaten Nias, Sumatera Utara 22872";"Jl. Diponegoro, Tetehosi, Kecamatan Idanogawo, Kabupaten Nias";"SUMATERA UTARA";"22872";"Indonesia";" 082167391000";"";"";"1.0263831";"97.7727748";"https://maps.google.com/?cid=0x0:0xf67c48e4e4684be9";""
"restaurant";"Padang";"Rumah Makan Septi";"Jl. Diponegoro No.20, Tetehosi, Kecamatan Idanogawo, Kabupaten Nias, Sumatera Utara 22872";"Tetehosi, Kecamatan Idanogawo, Kabupaten Nias";"SUMATERA UTARA";"22872";"Indonesia";" 082216772725";"";"";"1.0267469";"97.7692285";"https://maps.google.com/?cid=0x0:0x50da0228aa5548c3";""
"restaurant";"Kedai Kopi";"UD. Ningsih";"Jl. Pembangunan No.42-18, Tetehosi, Kecamatan Idanogawo, Kabupaten Nias, Sumatera Utara 22872";"Tetehosi, Kecamatan Idanogawo, Kabupaten Nias";"SUMATERA UTARA";"22872";"Indonesia";"";"";"";"1.0279692";"97.7741337";"https://maps.google.com/?cid=0x0:0xa8d4c22db98ea01a";""
"restaurant";"Toko";"Ahedanō";"2QF8+2JQ, Jl. Mbomboaukhu dusun 1, Ahedano, Kecamatan Idanogawo, Kabupaten Nias, Sumatera Utara 22872";"Jl. Mbomboaukhu dusun 1, Ahedano, Kecamatan Idanogawo, Kabupaten Nias";"SUMATERA UTARA";"22872";"Indonesia";" 082241492864";"";"";"1.0225767";"97.7666073";"https://maps.google.com/?cid=0x0:0xc16089fa91f16529";""
"restaurant";"Rumah Makan";"Warung Bg Zai";"5 Desa Hilina'a Tafu'o, Jl. Lintas Teluk Dalam No.KM. 41, Hilinaa Tafuo, Kecamatan Idanogawo, Kabupaten Nias, Sumatera Utara 22872";"Jl. Lintas Teluk Dalam No.KM. 41, Hilinaa Tafuo, Kecamatan Idanogawo, Kabupaten Nias";"SUMATERA UTARA";"22872";"Indonesia";" 085381847293";"";"";"1.0126592";"97.8052406";"https://maps.google.com/?cid=0x0:0xe73be54259a4b10f";""
"restaurant";"Makanan Kecil";"Kedai Nasi Mak Boy";"Jl. Arah Idanogawo No.Km. 28 5, Saiwahili Hiliadulo, Kecamatan Idanogawo, Kabupaten Nias, Sumatera Utara 22871";"Saiwahili Hiliadulo, Kecamatan Idanogawo, Kabupaten Nias";"SUMATERA UTARA";"22871";"Indonesia";" 082210497577";"";"";"1.0593222";"97.7552399";"https://maps.google.com/?cid=0x0:0xf01feaf2d0bf3216";""
"restaurant";"Rumah Makan";"WAROENG BANG JAGO";"3PHR+VRQ, Sisarahili Sogaeadu, Kec. Gido, Kabupaten Nias, Sumatera Utara 22871";"Sisarahili Sogaeadu, Kec. Gido, Kabupaten Nias";"SUMATERA UTARA";"22871";"Indonesia";" 085359553721";"";"";"1.0797142";"97.7421176";"https://maps.google.com/?cid=0x0:0xf7bae96e5353e6ed";""
"restaurant";"Rumah Makan";"UD. LO'AFODA";"Dusun I Desa, Hiliotalua, Kec. Gido, Kabupaten Nias, Sumatera Utara 22871";"Hiliotalua, Kec. Gido, Kabupaten Nias";"SUMATERA UTARA";"22871";"Indonesia";" 085275714047";"";"";"1.0498724";"97.705333";"https://maps.google.com/?cid=0x0:0x2bfcb0ed9e5b94fc";""
"restaurant";"Kedai Kopi";"Warung Terlalu Manis";"3RRF+H7W, Bozihona, Kecamatan Idanogawo, Kabupaten Nias, Sumatera Utara";"Kabupaten Nias, Sumatera Utara";"SUMATERA UTARA";"";"Indonesia";" 085261268827";"";"";"1.0914818";"97.8231982";"https://maps.google.com/?cid=0x0:0xb400ab171e1533d4";""
"restaurant";"Restoran";"RM SEMANGAT BARU";"4P9F+Q3J, Jl. Merdeka, Heliweto Gido, Kec. Gido, Kabupaten Nias, Sumatera Utara 22871";"Jl. Merdeka, Heliweto Gido, Kec. Gido, Kabupaten Nias";"SUMATERA UTARA";"22871";"Indonesia";" 082361830495";"";"";"1.1194615";"97.7226261";"https://maps.google.com/?cid=0x0:0x2aa64f58142ee208";""
"restaurant";"restaurant";"Kec. Ma'u";"Kabupaten Nias, Sumatera Utara";"Kabupaten Nias, Sumatera Utara";"SUMATERA UTARA";"";"Indonesia";"";"";"";"1.0167709";"97.6327641";"https://maps.google.com/?cid=0x0:0x610ae1b2430535ae";""
"restaurant";"Rumah Makan";"WARUNG MAKAN GULTOM";"3J6V+C56, Hilimbowo Mau, Kec. Lolofitu Moi, Kabupaten Nias Barat, Sumatera Utara";"Kabupaten Nias Barat, Sumatera Utara";"SUMATERA UTARA";"";"Indonesia";"";"";"";"1.0610482";"97.6428758";"https://maps.google.com/?cid=0x0:0x2fe60337c21be229";""
"restaurant";"Indonesia";"Restoran Simpang Tiga";"Jl. Mongonsidi No.26, Anggrung, Kec. Medan Polonia, Kota Medan, Sumatera Utara 20152";"Anggrung, Kec. Medan Polonia, Kota Medan";"SUMATERA UTARA";"20152";"Indonesia";" 0614519651";"";"";"3.5714616";"98.6679615";"https://maps.google.com/?cid=0x0:0x19367822fe1c83ea";""
"restaurant";"Halal";"Pondok Makan  Home Stay H. Karsim";"Jl. Josep Sinaga No.20, Danau Toba, Kec. Girsang Sipangan Bolon, Kabupaten Simalungun, Sumatera Utara 21174";"Danau Toba, Kec. Girsang Sipangan Bolon, Kabupaten Simalungun";"SUMATERA UTARA";"21174";"Indonesia";" 081370544737";"";"";"2.6621096";"98.9367381";"https://maps.google.com/?cid=0x0:0xe67757823dd9f9f3";""
"restaurant";"Restoran";"Hai Kou Restaurant Wajir";"Jl. Kol. Sugiono No.14d, A U R, Kec. Medan Maimun, Kota Medan, Sumatera Utara 20212";"A U R, Kec. Medan Maimun, Kota Medan";"SUMATERA UTARA";"20212";"Indonesia";" 081264312188";"";"";"3.5821444";"98.6808902";"https://maps.google.com/?cid=0x0:0x7259f62a894d73b5";""
"restaurant";"China";"Restaurant Asia";"Jl. Sisingamangaraja No.65, Parapat, Kec. Girsang Sipangan Bolon, Kabupaten Simalungun, Sumatera Utara 21174";"Parapat, Kec. Girsang Sipangan Bolon, Kabupaten Simalungun";"SUMATERA UTARA";"21174";"Indonesia";" 085275051925";"";"";"2.6678795";"98.9382985";"https://maps.google.com/?cid=0x0:0x8aba2643358ecc7f";""
"restaurant";"Kedai Kopi";"THE MARIO'S Eatery  Cafe";"H2RP+G3F, Jl. Siborongborong - Parapat, Sionggang Utara, Kec. Lumban Julu, Toba, Sumatera Utara 22386";"Jl. Siborongborong - Parapat, Sionggang Utara, Kec. Lumban Julu, Toba";"SUMATERA UTARA";"22386";"Indonesia";" 08116257577";"";"";"2.5902803";"99.036274";"https://maps.google.com/?cid=0x0:0x5b2d693d0200445";""
"restaurant";"Restoran";"RESTORAN MIRAMAR INDONESIA  SEAFOOD";"X3PJ+V9G, Jl. Medan - Pematang Siantar, Naga Pita., Kec. Siantar Martoba, Kota Pematang Siantar, Sumatera Utara";"Kota Pematang Siantar, Sumatera Utara";"SUMATERA UTARA";"";"Indonesia";" 082285007678";"";"";"2.9871949";"99.0809542";"https://maps.google.com/?cid=0x0:0xdbeaf74aa7362477";""
"restaurant";"Restoran";"Rumah makan muslim dan cafe HANUR";"Unnamed Road, Togu Domu Nauli, Kec. Dolok Pardamean, Kabupaten Simalungun, Sumatera Utara 21163";"Togu Domu Nauli, Kec. Dolok Pardamean, Kabupaten Simalungun";"SUMATERA UTARA";"21163";"Indonesia";" 081375220772";"";"";"2.8019284";"98.7829514";"https://maps.google.com/?cid=0x0:0x856af7714ccd99f0";""
"restaurant";"Kafe";"Budaya Resto";"Jl. Medan - Pematang Siantar, Ujung Serdang, Kec. Tj. Morawa, Kabupaten Deli Serdang, Sumatera Utara 20362";"Ujung Serdang, Kec. Tj. Morawa, Kabupaten Deli Serdang";"SUMATERA UTARA";"20362";"Indonesia";" 0617944333";"";"";"3.5261285";"98.7591073";"https://maps.google.com/?cid=0x0:0xa87c06df3c2079dd";""
"restaurant";"Perhimpunan Pengembang Perumahan";"Medan";"5CCC+CHW, Lima Puluh Kota, Kec. Lima Puluh, Kabupaten Batu Bara, Sumatera Utara";"Kabupaten Batu Bara, Sumatera Utara";"SUMATERA UTARA";"";"Indonesia";"";"";"";"3.1711095";"99.4214379";"https://maps.google.com/?cid=0x0:0x406f0bacf19e9321";""
"restaurant";"Padang";"Motel  Resto Sederhana";"Pulau Sumatera, Kabupaten Tapanuli Utara, Sumatera Utara 22476";"Kabupaten Tapanuli Utara";"SUMATERA UTARA";"22476";"Indonesia";" 081376376593";"";"";"2.3395277";"98.9082679";"https://maps.google.com/?cid=0x0:0x9fa8779638044214";""
"restaurant";"Halal";"Warung "mak legi" (Halal)";"Tiga Raja, Kec. Girsang Sipangan Bolon, Kabupaten Simalungun, Sumatera Utara 21174";"Kec. Girsang Sipangan Bolon, Kabupaten Simalungun";"SUMATERA UTARA";"21174";"Indonesia";" 082160694700";"";"";"2.660948";"98.9309829";"https://maps.google.com/?cid=0x0:0xa0ad98e37c29fd47";""
"restaurant";"Padang";"Putri Ginting";"82C7+JJC rumah makan latersia, Jl. S.M.Simanjuntak, Gurgur Aek Raja, Kec. Tampahan, Toba, Sumatera Utara 22312";"Jl. S.M.Simanjuntak, Gurgur Aek Raja, Kec. Tampahan, Toba";"SUMATERA UTARA";"22312";"Indonesia";" 082274378120";"";"";"2.3215558";"99.01401";"https://maps.google.com/?cid=0x0:0x7fab5b0af76afd7d";""
"restaurant";"Indonesia";"Restoran Koki Sunda";"Jl. Hasanuddin No.1, Petisah Hulu, Kec. Medan Baru, Kota Medan, Sumatera Utara 20152";"Petisah Hulu, Kec. Medan Baru, Kota Medan";"SUMATERA UTARA";"20152";"Indonesia";" 0614534302";"";"";"3.58273";"98.6666231";"https://maps.google.com/?cid=0x0:0x43a6e4f9d2acf3aa";""
"restaurant";"Restoran";"Kitchenette Brasserie";"Jl. Gerilya No.5, J A T I, Kec. Medan Maimun, Kota Medan, Sumatera Utara 20212";"J A T I, Kec. Medan Maimun, Kota Medan";"SUMATERA UTARA";"20212";"Indonesia";" 082272088880";"";"";"3.574065";"98.678747";"https://maps.google.com/?cid=0x0:0xc53c60b6d39b9841";""
"restaurant";"Kedai Kopi";"Rumah Makan UD. GISEL";"2JWP+P8W, Jalan Nias Tengah, Dusun IV Leweuguru, Lasara Siwalu Banua, Kec. Ma'u, Kabupaten Nias";"Kabupaten Nias, Sumatera Utara";"SUMATERA UTARA";"";"Indonesia";"";"";"";"1.0468555";"97.6358249";"https://maps.google.com/?cid=0x0:0xfb01e3d9af4e472e";""
"restaurant";"Restoran";"Rumah Makan "WAROENG IDAMAN"";"Bahal Batu, Kec. Huta Bayu Raja, Kabupaten Simalungun, Sumatera Utara 21182";"Kec. Huta Bayu Raja, Kabupaten Simalungun";"SUMATERA UTARA";"21182";"Indonesia";" 081262825066";"";"";"3.0741363";"99.3368752";"https://maps.google.com/?cid=0x0:0x118b45ccd3c0c883";""
"restaurant";"Hidangan Laut";"Wajir Seafood";"Jl. Kol. Sugiono No.3 i, A U R, Kec. Medan Maimun, Kota Medan, Sumatera Utara 20212";"A U R, Kec. Medan Maimun, Kota Medan";"SUMATERA UTARA";"20212";"Indonesia";" 0614573785";"";"";"3.5835707";"98.680365";"https://maps.google.com/?cid=0x0:0x74bb15ad16c2abf7";""
"restaurant";"Padang";"Rm meisya";"Jl. KL. Yos Sudarso No.147, Pekan Labuhan, Kec. Medan Labuhan, Kota Medan, Sumatera Utara 20253";"Pekan Labuhan, Kec. Medan Labuhan, Kota Medan";"SUMATERA UTARA";"20253";"Indonesia";" 087897890740";"";"";"3.7317648";"98.6756151";"https://maps.google.com/?cid=0x0:0x86597213485550a7";""
"restaurant";"China";"Restaurant Sehat";"Jl. Sisingamangaraja Jl. Parapat No.43, Tiga Raja, Kec. Girsang Sipangan Bolon, Kabupaten Simalungun, Sumatera Utara 21174";"Tiga Raja, Kec. Girsang Sipangan Bolon, Kabupaten Simalungun";"SUMATERA UTARA";"21174";"Indonesia";" 062541185";"";"";"2.6683531";"98.9380389";"https://maps.google.com/?cid=0x0:0x5f6388795b2fe631";""
"restaurant";"Rumah Makan";"RUMAH MAKAN SEMPURNA II (rest area)";"Desa Kilang papan, Kec. Sipirok, Sumatera Utara 22742";"Kec. Sipirok";"SUMATERA UTARA";"22742";"Indonesia";" 085362000210";"";"";"1.5220476";"99.300434";"https://maps.google.com/?cid=0x0:0xe6dd2a3946568fea";""
"restaurant";"Rumah Makan";"Rm.purba Malem";"Kuala Simeme, Kec. Namorambe, Kabupaten Deli Serdang, Sumatera Utara 20355";"Kec. Namorambe, Kabupaten Deli Serdang";"SUMATERA UTARA";"20355";"Indonesia";" 082365007090";"";"";"3.5047375";"98.6707984";"https://maps.google.com/?cid=0x0:0x581c7888cd1557da";""
"restaurant";"Dapur Umum";"Dapur Ma_Chand";"X5R9+9M2, Gg. Unyil, Senio, Kec. Gn. Malela, Kabupaten Simalungun, Sumatera Utara 21174";"Gg. Unyil, Senio, Kec. Gn. Malela, Kabupaten Simalungun";"SUMATERA UTARA";"21174";"Indonesia";" 081223110716";"";"";"2.9908974";"99.1691419";"https://maps.google.com/?cid=0x0:0xa6ba3f8b4d903e04";""
"restaurant";"Restoran";"Warung Jl. Medan Km. 4.5";"X3MJ+P8P, Naga Pita., Kec. Siantar Martoba, Kota Pematang Siantar, Sumatera Utara";"Kota Pematang Siantar, Sumatera Utara";"SUMATERA UTARA";"";"Indonesia";"";"";"";"2.980948";"99.0803132";"https://maps.google.com/?cid=0x0:0x5eff9b63068dc3c7";""
"restaurant";"Kedai Kopi";"Nirwan";"3JGR+4FQ, Lewa-lewa, Kec. Ma'u, Kabupaten Nias, Sumatera Utara";"Kabupaten Nias, Sumatera Utara";"SUMATERA UTARA";"";"Indonesia";"";"";"";"1.0753271";"97.6412489";"https://maps.google.com/?cid=0x0:0x40c5ddbe6d314b4f";""
"restaurant";"restaurant";"Gazi Siwalubanua";"3J8X+P77, Desa, RT.002/RW.001, Lasara Siwalubanua, Kec. Ma'u, Kabupaten Nias, Sumatera Utara";"Kabupaten Nias, Sumatera Utara";"SUMATERA UTARA";"";"Indonesia";"";"";"";"1.0667833";"97.6481651";"https://maps.google.com/?cid=0x0:0x67442974c1667100";""
"restaurant";"Rumah Makan";""Warung Ma'I"";"MVFF+98R, Jl. Dewa Ujung, RT.14/RW07/RW.NO.20, Ciracas, Kec. Ciracas, Kota Jakarta Timur, Daerah Khusus Ibukota Jakarta 13740";"Jl. Dewa Ujung, RT.14/RW07/RW.NO.20, Ciracas, Kec. Ciracas, Kota Jakarta Timur";"SUMATERA UTARA";"13740";"Indonesia";"";"";"";"-6.3264917";"106.8732213";"https://maps.google.com/?cid=0x0:0x41361fdb4f904a10";""
"restaurant";"Restoran";"HOME MA"AN";"Jl.Kampung Gusti TPI 2 14, RT.09/Rw014/RW.14, Pejagalan, Kec. Penjaringan, Jkt Utara, Daerah Khusus Ibukota Jakarta 14450";"RT.09/Rw014/RW.14, Pejagalan, Kec. Penjaringan, Jkt Utara";"SUMATERA UTARA";"14450";"Indonesia";"";"";"";"-6.1405584";"106.7788783";"https://maps.google.com/?cid=0x0:0x14104df9bdb4dfdf";""
"restaurant";"restaurant";"Kec. Sogae'adu";"Kabupaten Nias, Sumatera Utara";"Kabupaten Nias, Sumatera Utara";"SUMATERA UTARA";"";"Indonesia";"";"";"";"1.1175767";"97.7250639";"https://maps.google.com/?cid=0x0:0x86713347704e99ea";""
"restaurant";"Makanan Siap Saji";"AW Restoran - Bandara Soekarno Hatta Terminal 3 Departure";"Benda, 2nd Floor, RT.001/RW.010, Pajang, Kec. Benda, Kota Tangerang, Banten 15126";"2nd Floor, RT.001/RW.010, Pajang, Kec. Benda, Kota Tangerang";"SUMATERA UTARA";"15126";"Indonesia";" 085959695020";"";"";"-6.1186793";"106.665351";"https://maps.google.com/?cid=0x0:0x1c6cce241b649414";""
"restaurant";"Makanan Siap Saji";"AW Restoran - Bandara Soekarno Hatta Terminal 2E";"VMH3+622 Terminal 2, RT.001/RW.010, Pajang, Kec. Benda, Kota Tangerang, Banten 15126";"RT.001/RW.010, Pajang, Kec. Benda, Kota Tangerang";"SUMATERA UTARA";"15126";"Indonesia";" 0215505694";"";"";"-6.1224457";"106.6530236";"https://maps.google.com/?cid=0x0:0x3fa7fb6bdbb2f6f0";""
"restaurant";"restaurant";"N/A";"";"";"SUMATERA UTARA";"";"Indonesia";"";"";"";"";"";"https://maps.google.com/?cid=0x0:0x3fa7fb6bdbb2f6f0u0026onu003dRoot+Beer+Floatu0026midu003d/g/11c535zlpb";""
"restaurant";"restaurant";"N/A";"";"";"SUMATERA UTARA";"";"Indonesia";"";"";"";"";"";"https://maps.google.com/?cid=0x0:0x3fa7fb6bdbb2f6f0u0026onu003dCurly+Friesu0026midu003d/g/11c535zlpb";""
"restaurant";"restaurant";"N/A";"";"";"SUMATERA UTARA";"";"Indonesia";"";"";"";"";"";"https://maps.google.com/?cid=0x0:0x3fa7fb6bdbb2f6f0u0026onu003dBimbimbap+Prawnu0026midu003d/g/11c535zlpb";""
"restaurant";"restaurant";"N/A";"";"";"SUMATERA UTARA";"";"Indonesia";"";"";"";"";"";"https://maps.google.com/?cid=0x0:0x3fa7fb6bdbb2f6f0u0026onu003dMozza+Burgeru0026midu003d/g/11c535zlpb";""
"restaurant";"restaurant";"N/A";"";"";"SUMATERA UTARA";"";"Indonesia";"";"";"";"";"";"https://maps.google.com/?cid=0x0:0x3fa7fb6bdbb2f6f0u0026onu003dRB+Floatu0026midu003d/g/11c535zlpb";""
"restaurant";"restaurant";"N/A";"";"";"SUMATERA UTARA";"";"Indonesia";"";"";"";"";"";"https://maps.google.com/?cid=0x0:0x3fa7fb6bdbb2f6f0u0026onu003dpk+Deluxeu0026midu003d/g/11c535zlpb";""
"restaurant";"restaurant";"N/A";"";"";"SUMATERA UTARA";"";"Indonesia";"";"";"";"";"";"https://maps.google.com/?cid=0x0:0x3fa7fb6bdbb2f6f0u0026onu003dDeluxe+Burgeru0026midu003d/g/11c535zlpb";""
"restaurant";"restaurant";"N/A";"";"";"SUMATERA UTARA";"";"Indonesia";"";"";"";"";"";"https://maps.google.com/?cid=0x0:0x3fa7fb6bdbb2f6f0u0026onu003dChicken+and+Friesu0026midu003d/g/11c535zlpb";""
"restaurant";"restaurant";"N/A";"";"";"SUMATERA UTARA";"";"Indonesia";"";"";"";"";"";"https://maps.google.com/?cid=0x0:0x3fa7fb6bdbb2f6f0u0026onu003dChic+Soupsu0026midu003d/g/11c535zlpb";""
"restaurant";"restaurant";"N/A";"";"";"SUMATERA UTARA";"";"Indonesia";"";"";"";"";"";"https://maps.google.com/?cid=0x0:0x3fa7fb6bdbb2f6f0u0026onu003dCheese+Burgeru0026midu003d/g/11c535zlpb";""
"restaurant";"restaurant";"N/A";"";"";"SUMATERA UTARA";"";"Indonesia";"";"";"";"";"";"https://maps.google.com/?cid=0x0:0x3fa7fb6bdbb2f6f0u0026onu003dOrange+Juiceu0026midu003d/g/11c535zlpb";""
"restaurant";"restaurant";"N/A";"";"";"SUMATERA UTARA";"";"Indonesia";"";"";"";"";"";"https://maps.google.com/?cid=0x0:0x3fa7fb6bdbb2f6f0u0026onu003dSpicy+Chickenu0026midu003d/g/11c535zlpb";""
"restaurant";"restaurant";"N/A";"";"";"SUMATERA UTARA";"";"Indonesia";"";"";"";"";"";"https://maps.google.com/?cid=0x0:0x3fa7fb6bdbb2f6f0u0026onu003dChicken+and+Soupu0026midu003d/g/11c535zlpb";""
"restaurant";"restaurant";"N/A";"";"";"SUMATERA UTARA";"";"Indonesia";"";"";"";"";"";"https://maps.google.com/?cid=0x0:0x3fa7fb6bdbb2f6f0u0026onu003dSup+AWu0026midu003d/g/11c535zlpb";""
"restaurant";"restaurant";"N/A";"";"";"SUMATERA UTARA";"";"Indonesia";"";"";"";"";"";"https://maps.google.com/?cid=0x0:0x3fa7fb6bdbb2f6f0u0026onu003dKopiu0026midu003d/g/11c535zlpb";""
"restaurant";"restaurant";"N/A";"";"";"SUMATERA UTARA";"";"Indonesia";"";"";"";"";"";"https://maps.google.com/?cid=0x0:0x3fa7fb6bdbb2f6f0u0026onu003dNasi+Gorengu0026midu003d/g/11c535zlpb";""
"restaurant";"restaurant";"N/A";"";"";"SUMATERA UTARA";"";"Indonesia";"";"";"";"";"";"https://maps.google.com/?cid=0x0:0x3fa7fb6bdbb2f6f0u0026onu003dPaket+2+Nasi+Ayam+Sup+Minumu0026midu003d/g/11c535zlpb";""
"restaurant";"restaurant";"N/A";"";"";"SUMATERA UTARA";"";"Indonesia";"";"";"";"";"";"https://maps.google.com/?cid=0x0:0x3fa7fb6bdbb2f6f0u0026onu003dNasi+Ayam+Sop+Teloru0026midu003d/g/11c535zlpb";""
"restaurant";"restaurant";"N/A";"";"";"SUMATERA UTARA";"";"Indonesia";"";"";"";"";"";"https://maps.google.com/?cid=0x0:0x3fa7fb6bdbb2f6f0u0026onu003dSaosu0026midu003d/g/11c535zlpb";""
"restaurant";"Toko Elektronik";"Baseus terminal 2D";"Bandar Udara Internasional Soekarno–Hatta, Terminal 2, RT.001/RW.010, Pajang, Kec. Benda, Kota Tangerang, Banten 15126";"Terminal 2, RT.001/RW.010, Pajang, Kec. Benda, Kota Tangerang";"SUMATERA UTARA";"15126";"Indonesia";"";"";"";"-6.1219807";"106.6525014";"https://maps.google.com/?cid=0x0:0x456f1910557c9ed4";""
"restaurant";"restaurant";"Somolo-Molo";"Kec. Somolo-Molo, Kabupaten Nias, Sumatera Utara";"Kabupaten Nias, Sumatera Utara";"SUMATERA UTARA";"";"Indonesia";"";"";"";"1.0609605";"97.6900846";"https://maps.google.com/?cid=0x0:0x1168da738d45cc33";""
"restaurant";"restaurant";"Kec. Ulugawo";"Kabupaten Nias, Sumatera Utara";"Kabupaten Nias, Sumatera Utara";"SUMATERA UTARA";"";"Indonesia";"";"";"";"0.9857839";"97.7164165";"https://maps.google.com/?cid=0x0:0x7230b2fec359e534";""
"restaurant";"Rumah Makan";"UD. LO'AFODA";"Dusun I Desa, Hiliotalua, Kec. Gido, Kabupaten Nias, Sumatera Utara 22871";"Hiliotalua, Kec. Gido, Kabupaten Nias";"SUMATERA UTARA";"22871";"Indonesia";" 085275714047";"";"";"1.0498724";"97.705333";"https://maps.google.com/?cid=0x0:0x2bfcb0ed9e5b94fc";""
"restaurant";"Restoran";"RM. TOBATABO";"2QG9+QQ6, Tetehosi, Kecamatan Idanogawo, Kabupaten Nias, Sumatera Utara 22872";"Tetehosi, Kecamatan Idanogawo, Kabupaten Nias";"SUMATERA UTARA";"22872";"Indonesia";" 085262308530";"";"";"1.0269024";"97.7694014";"https://maps.google.com/?cid=0x0:0xf3a12733cf872812";""
"restaurant";"Rumah Makan";"WAROENG BANG JAGO";"3PHR+VRQ, Sisarahili Sogaeadu, Kec. Gido, Kabupaten Nias, Sumatera Utara 22871";"Sisarahili Sogaeadu, Kec. Gido, Kabupaten Nias";"SUMATERA UTARA";"22871";"Indonesia";" 085359553721";"";"";"1.0797142";"97.7421176";"https://maps.google.com/?cid=0x0:0xf7bae96e5353e6ed";""
"restaurant";"Padang";"Rumah Makan Rifka Zai";"Jl. Diponegoro No.101, Ahedano, Kecamatan Idanogawo, Kabupaten Nias, Sumatera Utara 22872";"Ahedano, Kecamatan Idanogawo, Kabupaten Nias";"SUMATERA UTARA";"22872";"Indonesia";"";"";"";"1.0266139";"97.7723554";"https://maps.google.com/?cid=0x0:0xe7eca04e689f19e1";""
"restaurant";"Rumah Makan";"UD. REXAN (KEDAI MAKAN REXAN)";"Jl. Mbomboaukhu, Oladano, Kecamatan Idanogawo, Kabupaten Nias, Sumatera Utara 22872";"Oladano, Kecamatan Idanogawo, Kabupaten Nias";"SUMATERA UTARA";"22872";"Indonesia";" 081362162468";"";"";"1.0131211";"97.7575345";"https://maps.google.com/?cid=0x0:0xc4044f1d5116438e";""
"restaurant";"Rumah Makan";"UD Deddy waruwu";"Oladano, Kecamatan Idanogawo, Kabupaten Nias, Sumatera Utara 22872";"Kecamatan Idanogawo, Kabupaten Nias";"SUMATERA UTARA";"22872";"Indonesia";" 082275634564";"";"";"1.0126729";"97.757129";"https://maps.google.com/?cid=0x0:0xc357242faf860ce0";""
"restaurant";"Rumah Makan";"Rumah sib. Boy zai";"2M5X+95W, Iodano, Kec. Somolo-Molo, Kabupaten Nias, Sumatera Utara 22872";"Iodano, Kec. Somolo-Molo, Kabupaten Nias";"SUMATERA UTARA";"22872";"Indonesia";"";"";"";"1.0084766";"97.6979449";"https://maps.google.com/?cid=0x0:0x65de04f06dfbe45f";""
"restaurant";"Restoran";"Kedai Tian";"Jl. Taman Bunga No.08, Tetehosi, Kecamatan Idanogawo, Kabupaten Nias, Sumatera Utara 22872";"Tetehosi, Kecamatan Idanogawo, Kabupaten Nias";"SUMATERA UTARA";"22872";"Indonesia";" 082272996434";"";"";"1.027672";"97.7745875";"https://maps.google.com/?cid=0x0:0xf3057860eaaf1b68";""
"restaurant";"Makanan Kecil";"Kedai Nasi Mak Boy";"Jl. Arah Idanogawo No.Km. 28 5, Saiwahili Hiliadulo, Kecamatan Idanogawo, Kabupaten Nias, Sumatera Utara 22871";"Saiwahili Hiliadulo, Kecamatan Idanogawo, Kabupaten Nias";"SUMATERA UTARA";"22871";"Indonesia";" 082210497577";"";"";"1.0593222";"97.7552399";"https://maps.google.com/?cid=0x0:0xf01feaf2d0bf3216";""
"restaurant";"Restoran";"RM. Briel";"2QGC+JVM, Jl. Diponegoro, Tetehosi, Kecamatan Idanogawo, Kabupaten Nias, Sumatera Utara 22872";"Jl. Diponegoro, Tetehosi, Kecamatan Idanogawo, Kabupaten Nias";"SUMATERA UTARA";"22872";"Indonesia";" 085296835172";"";"";"1.0265999";"97.7721693";"https://maps.google.com/?cid=0x0:0x3a19996960aba820";""
"restaurant";"Padang";"Rumah Makan Septi";"Jl. Diponegoro No.20, Tetehosi, Kecamatan Idanogawo, Kabupaten Nias, Sumatera Utara 22872";"Tetehosi, Kecamatan Idanogawo, Kabupaten Nias";"SUMATERA UTARA";"22872";"Indonesia";" 082216772725";"";"";"1.0267469";"97.7692285";"https://maps.google.com/?cid=0x0:0x50da0228aa5548c3";""
"restaurant";"Rumah Makan";"Kedai Bram's_94";"Dusun 1, Holi, Kec. Ulugawo, Kabupaten Nias, Sumatera Utara 22872";"Holi, Kec. Ulugawo, Kabupaten Nias";"SUMATERA UTARA";"22872";"Indonesia";" 085260570774";"";"";"0.9836471";"97.7161893";"https://maps.google.com/?cid=0x0:0xbd425a915f52298a";""
"restaurant";"restaurant";"Rumah A. Niel zai";"XP8C+FW Hiligo'o, Hilibadalu, Kec. Ulugawo, Kabupaten Nias, Sumatera Utara";"Kabupaten Nias, Sumatera Utara";"SUMATERA UTARA";"";"Indonesia";"";"";"";"0.9672706";"97.7234276";"https://maps.google.com/?cid=0x0:0xe391acdc0347a149";""
"restaurant";"restaurant";"Rumah A. Seni zebua";"XP7G+W3, Hilimbowo, Kec. Ulugawo, Kabupaten Nias, Sumatera Utara";"Kabupaten Nias, Sumatera Utara";"SUMATERA UTARA";"";"Indonesia";"";"";"";"0.9647444";"97.7251795";"https://maps.google.com/?cid=0x0:0xe1096d3826853f82";""
"restaurant";"restaurant";"Rumah A. Aldin Zai";"XP8C+FW Hiligo'o, Hilibadalu, Kec. Ulugawo, Kabupaten Nias, Sumatera Utara";"Kabupaten Nias, Sumatera Utara";"SUMATERA UTARA";"";"Indonesia";"";"";"";"0.9665747";"97.7220167";"https://maps.google.com/?cid=0x0:0x2458493c4805ea3e";""
"restaurant";"restaurant";"UD. RISTI";"2PH6+C9C, Lawa Lawaluo, Kec. Somolo-Molo, Kabupaten Nias, Sumatera Utara 22871";"Lawa Lawaluo, Kec. Somolo-Molo, Kabupaten Nias";"SUMATERA UTARA";"22871";"Indonesia";"";"";"";"1.0289707";"97.7099825";"https://maps.google.com/?cid=0x0:0x4a27c489927723d";""
"restaurant";"Kafe";"Cafe Ivan Zega";"2QH7+W9W, Tetehosi, Kecamatan Idanogawo, Kabupaten Nias, Sumatera Utara 22872";"Tetehosi, Kecamatan Idanogawo, Kabupaten Nias";"SUMATERA UTARA";"22872";"Indonesia";"";"";"";"1.029866";"97.7634557";"https://maps.google.com/?cid=0x0:0xb25559151d918048";""
"restaurant";"Toko Perlengkapan Rumah";"UD. Seniman";"XPC9+55R, Holi, Kec. Ulugawo, Kabupaten Nias, Sumatera Utara 22861";"Holi, Kec. Ulugawo, Kabupaten Nias";"SUMATERA UTARA";"22861";"Indonesia";"";"";"";"0.9704878";"97.7178784";"https://maps.google.com/?cid=0x0:0x66e10888b73767c8";""
"restaurant";"Rumah Makan";"Rumah Makan Sakinah";"2QGF+H42, Jl. Diponegoro, Tetehosi, Kecamatan Idanogawo, Kabupaten Nias, Sumatera Utara 22872";"Jl. Diponegoro, Tetehosi, Kecamatan Idanogawo, Kabupaten Nias";"SUMATERA UTARA";"22872";"Indonesia";" 082167391000";"";"";"1.0263831";"97.7727748";"https://maps.google.com/?cid=0x0:0xf67c48e4e4684be9";""
"restaurant";"Pengekspor makanan dan minuman";"Rumah makan "VORIS"";"Desa Somölömölö, Lawa Lawaluo, Kec. Ulugawo, Kota Gunungsitoli, Sumatera Utara 22872";"Lawa Lawaluo, Kec. Ulugawo, Kota Gunungsitoli";"SUMATERA UTARA";"22872";"Indonesia";" 082277417717";"";"";"1.02847";"97.7108398";"https://maps.google.com/?cid=0x0:0xc939f869d34b616e";""
"cafe";"cafe";"Sumatera Utara 22851";"Sumatera Utara";"Sumatera Utara";"SUMATERA UTARA";"";"Indonesia";"";"";"";"1.2976797";"97.330053";"https://maps.google.com/?cid=0x0:0xb3058656cf8eec8e";""
"cafe";"Rumah Makan";"Rumah Makan ELVAN";"99P7+C8F, Fadoro Fulolo, Kec. Lotu, Kabupaten Nias Utara, Sumatera Utara 22851";"Fadoro Fulolo, Kec. Lotu, Kabupaten Nias Utara";"SUMATERA UTARA";"22851";"Indonesia";" 085260394229";"";"";"1.3860549";"97.363289";"https://maps.google.com/?cid=0x0:0xd4223233f56e9e4a";""
"cafe";"Kafe";"Museum Nias Cafe";"Jalan Yos Sudarso No. 134-A, Ombolata Ulu, Gunung Sitoli, Iraonogeba, Kec. Gunungsitoli, Kota Gunungsitoli, Sumatera Utara 22812";"Ombolata Ulu, Gunung Sitoli, Iraonogeba, Kec. Gunungsitoli, Kota Gunungsitoli";"SUMATERA UTARA";"22812";"Indonesia";" 085277992858";"";"";"1.298716";"97.609124";"https://maps.google.com/?cid=0x0:0x575dd51bd5bc8cb4";""
"cafe";"Rumah Makan";"Warunk Bang Benn";"Jl. Mazingo, Hilidundra, Kec. Lotu, Kabupaten Nias Utara, Sumatera Utara 22851";"Hilidundra, Kec. Lotu, Kabupaten Nias Utara";"SUMATERA UTARA";"22851";"Indonesia";"";"";"";"1.3858776";"97.360113";"https://maps.google.com/?cid=0x0:0x581fb4e12d1ad2f5";""
"cafe";"Kedai Kopi";"Warung MISOP Dea Zebua";"XRMQ+9X4, Hilifaosi, Kec. Bawolato, Kabupaten Nias, Sumatera Utara 22876";"Hilifaosi, Kec. Bawolato, Kabupaten Nias";"SUMATERA UTARA";"22876";"Indonesia";"";"";"";"0.9833989";"97.8399416";"https://maps.google.com/?cid=0x0:0x6c5b106d62a44a43";""
"cafe";"Kedai Kopi";"UD.FANORAMA";"88R8+MX5, Dusun 1, Tetehosi Sorowi, Kec. Lahewa Tim., Kabupaten Nias Utara, Sumatera Utara";"Kabupaten Nias Utara, Sumatera Utara";"SUMATERA UTARA";"";"Indonesia";" 082167763637";"";"";"1.3416375";"97.3174844";"https://maps.google.com/?cid=0x0:0x44a1689e6ee4659e";""
"cafe";"cafe";"AMA PUTRA GEA";"Jl. Lotu-Lahewa No.km 42, hlidundra, Kec. Lotu, Kabupaten Nias Utara, Sumatera Utara 22851";"hlidundra, Kec. Lotu, Kabupaten Nias Utara";"SUMATERA UTARA";"22851";"Indonesia";"";"";"";"1.3806242";"97.2894044";"https://maps.google.com/?cid=0x0:0x2a63240b3843bee3";""
"cafe";"Kedai Kopi";"Pondok WIRNA";"796P+H3, Dahana Alasa, Kec. Alasa, Kabupaten Nias Utara, Sumatera Utara 22861";"Dahana Alasa, Kec. Alasa, Kabupaten Nias Utara";"SUMATERA UTARA";"22861";"Indonesia";"";"";"";"1.2614754";"97.3852162";"https://maps.google.com/?cid=0x0:0xc47732a0a72ff2bc";""
"cafe";"Kedai Kopi";"Mado Zebua";"Jl. Tuhemberua, Banuagea, Kec. Tuhemberua, Kabupaten Nias Utara, Sumatera Utara";"Kabupaten Nias Utara, Sumatera Utara";"SUMATERA UTARA";"";"Indonesia";"";"";"";"1.4703516";"97.4535501";"https://maps.google.com/?cid=0x0:0xa5949c5ef03b4f19";""
"cafe";"Kafe";"Merry Cafe";"Jl. Yos Sudarso Ujung No.72, Iraonogeba, Kec. Gunungsitoli, Kota Gunungsitoli, Sumatera Utara";"Kota Gunungsitoli, Sumatera Utara";"SUMATERA UTARA";"";"Indonesia";"";"";"";"1.29347";"97.6101483";"https://maps.google.com/?cid=0x0:0xb5ee70f7250fa984";""
"cafe";"Brunch";"UD basuo";"99H7+54P, Jalan Alasa, Baho, Lotu, North Nias Regency, North Sumatra 22851";"Jalan Alasa, Baho, Lotu, North Nias Regency";"SUMATERA UTARA";"22851";"Indonesia";" 085261527450";"";"";"1.3779576";"97.3628384";"https://maps.google.com/?cid=0x0:0x7805c3d7e4b442a0";""
"cafe";"Minimarket";"Cafe ZEGA";"9G7W+VFX, Unnamed Road, Gawu Gawu Bouso, Kec. Gunungsitoli Utara, Kota Gunungsitoli, Sumatera Utara";"Kota Gunungsitoli, Sumatera Utara";"SUMATERA UTARA";"";"Indonesia";"";"";"";"1.3647389";"97.5462444";"https://maps.google.com/?cid=0x0:0x50d2ec8e3648fef0";""
"cafe";"Restoran";"Mister Cafe";"Jl. Sirao No.21, Saombo, Kec. Gunungsitoli, Kota Gunungsitoli, Sumatera Utara";"Kota Gunungsitoli, Sumatera Utara";"SUMATERA UTARA";"";"Indonesia";" 081262885068";"";"";"1.2904955";"97.6161405";"https://maps.google.com/?cid=0x0:0x701f555a73222137";""
"cafe";"Kedai Kopi";"Rumah A. Willmah Hatefa";"Jalan Afulu No.68h7, Lauru Lahewa, Kec. Afulu, Kabupaten Nias Utara, Sumatera Utara";"Kabupaten Nias Utara, Sumatera Utara";"SUMATERA UTARA";"";"Indonesia";"";"";"";"1.2275653";"97.3131715";"https://maps.google.com/?cid=0x0:0xce8ab70d44d031e1";""
"cafe";"Restoran";"Kedai Mie SOP Believe Laowowaga";"79Q6+W6X, Laowowaga, Kec. Lahewa Tim., Kabupaten Nias Utara, Sumatera Utara";"Kabupaten Nias Utara, Sumatera Utara";"SUMATERA UTARA";"";"Indonesia";" 081361711725";"";"";"1.2898707";"97.3606052";"https://maps.google.com/?cid=0x0:0x3780bd2e26b5692";""
"cafe";"Rumah Makan";"Bamboo Cafe";"98HW+HGC, Hilidundra, Kec. Lotu, Kabupaten Nias Utara, Sumatera Utara 22851";"Hilidundra, Kec. Lotu, Kabupaten Nias Utara";"SUMATERA UTARA";"22851";"Indonesia";" 085270614492";"";"";"1.3789343";"97.3462545";"https://maps.google.com/?cid=0x0:0xa73600332d9597bf";""
"cafe";"cafe";"AHA Caffe Lahewa";"Jl. Mohammad Hatta, Fadoro Sitolu Hili, Kecamaten Lahewa, Kabupaten Nias Utara, Sumatera Utara";"Kabupaten Nias Utara, Sumatera Utara";"SUMATERA UTARA";"";"Indonesia";" 085261312590";"";"";"1.390561";"97.176434";"https://maps.google.com/?cid=0x0:0x59b3ad2831305b67";""
"cafe";"Komplek perumahan";"Ama Yanti Mendrofa";"6H4F+W3R, Unnamed Road, Dahadano Botombawo, Kec. HiliSerangkai, Kabupaten Nias, Sumatera Utara 22811";"Unnamed Road, Dahadano Botombawo, Kec. HiliSerangkai, Kabupaten Nias";"SUMATERA UTARA";"22811";"Indonesia";"";"";"";"1.207352";"97.572653";"https://maps.google.com/?cid=0x0:0xb9d62596731a9596";""
"cafe";"Brunch";"Kedai UD. Sahabat";"99P6+36G, Hilidundra, Kec. Lotu, Kabupaten Nias Utara, Sumatera Utara 22851";"Hilidundra, Kec. Lotu, Kabupaten Nias Utara";"SUMATERA UTARA";"22851";"Indonesia";"";"";"";"1.3851798";"97.3605878";"https://maps.google.com/?cid=0x0:0x771ca49c047d2e33";""
"cafe";"Kedai Kopi";"UD. Revan / Nite Zend";"9GGW+CFX, Jl. Afia, Afia, Kec. Gunungsitoli Utara, Kota Gunungsitoli, Sumatera Utara";"Kota Gunungsitoli, Sumatera Utara";"SUMATERA UTARA";"";"Indonesia";"";"";"";"1.3761959";"97.5461607";"https://maps.google.com/?cid=0x0:0xea913ef2a416ad3d";""
"cafe";"Kafe seni";"Murai Coffee";"Jl. Raya Pelud Binaka, Fodo, Kec. Gunungsitoli Sel., Kota Gunungsitoli, Sumatera Utara";"Kota Gunungsitoli, Sumatera Utara";"SUMATERA UTARA";"";"Indonesia";" 082214746278";"";"";"1.2462573";"97.6431035";"https://maps.google.com/?cid=0x0:0x29b7eb01822ced3d";""
"cafe";"Restoran";"RM. Muslim Mbak Ayu";"Sisarahili Bawolato, Kec. Bawolato, Kabupaten Nias, Sumatera Utara 22851";"Kec. Bawolato, Kabupaten Nias";"SUMATERA UTARA";"22851";"Indonesia";" 082347347085";"";"";"0.9298125";"97.8745625";"https://maps.google.com/?cid=0x0:0xd8a0efdd1354cf74";""
"cafe";"Restoran";"Warung Hoya";"VVGX+GH7, Jl. Bawolato, Bawolato, Kec. Lahusa, Kabupaten Nias Selatan, Sumatera Utara";"Kabupaten Nias Selatan, Sumatera Utara";"SUMATERA UTARA";"";"Indonesia";"";"";"";"0.8762797";"97.8989181";"https://maps.google.com/?cid=0x0:0xb664f68cef07f956";""
"cafe";"Kedai Kopi";"OSE A.NELIS LASE";"XW43+XF6, Sisarahili Bawolato, Kec. Bawolato, Kabupaten Nias, Sumatera Utara 22851";"Sisarahili Bawolato, Kec. Bawolato, Kabupaten Nias";"SUMATERA UTARA";"22851";"Indonesia";"";"";"";"0.9574172";"97.9036489";"https://maps.google.com/?cid=0x0:0x435ba8e6a72a6ae3";""
"cafe";"Kedai Kopi";"Ose IDANO DAMBU USO";"XW43+XG3, Sisarahili Bawolato, Kec. Bawolato, Kabupaten Nias, Sumatera Utara 22851";"Sisarahili Bawolato, Kec. Bawolato, Kabupaten Nias";"SUMATERA UTARA";"22851";"Indonesia";"";"";"";"0.9573753";"97.9037813";"https://maps.google.com/?cid=0x0:0x371d451412d8ed8a";""
"cafe";"Kedai Kopi";"Aluizatulo bawamenewi";"XR22+RPP lokasi SMP negeri 3, jalan pertanian, Siofa Banua, Kec. Bawolato, Kabupaten Nias, Sumatera Utara";"Kabupaten Nias, Sumatera Utara";"SUMATERA UTARA";"";"Indonesia";"";"";"";"0.9520885";"97.8018155";"https://maps.google.com/?cid=0x0:0xddd1011d5afbbf0b";""
"cafe";"Restoran";"Rumah Makan Bersama";"Jl. Arah Tlk. Dalam, Sisarahili Bawolato, Kec. Bawolato, Kabupaten Nias, Sumatera Utara 22851";"Sisarahili Bawolato, Kec. Bawolato, Kabupaten Nias";"SUMATERA UTARA";"22851";"Indonesia";"";"";"";"0.9381757";"97.8682015";"https://maps.google.com/?cid=0x0:0xc7531a881306fb11";""
"cafe";"cafe";"Rumah FIRMAN LASE";"2VRP+CV8, Jln.arah pantai onolimbu, Tagaule, Kec. Bawolato, Kabupaten Nias, Sumatera Utara 22876";"Jln.arah pantai onolimbu, Tagaule, Kec. Bawolato, Kabupaten Nias";"SUMATERA UTARA";"22876";"Indonesia";"";"";"";"1.0410327";"97.8872181";"https://maps.google.com/?cid=0x0:0x30ba266d6df9a140";""
"cafe";"cafe";"Netral";"WVWP+M8R, Hiliganoita, Kec. Bawolato, Kabupaten Nias, Sumatera Utara";"Kabupaten Nias, Sumatera Utara";"SUMATERA UTARA";"";"Indonesia";"";"";"";"0.94675";"97.8857665";"https://maps.google.com/?cid=0x0:0x974b8ca0e25ae33";""
"cafe";"cafe";"Sumatera Utara 22876";"Kec. Bawolato, Kabupaten Nias, Sumatera Utara";"Kabupaten Nias, Sumatera Utara";"SUMATERA UTARA";"";"Indonesia";"";"";"";"0.9634714";"97.8177601";"https://maps.google.com/?cid=0x0:0xbd072e1dfaa20192";""
"cafe";"Kedai Kopi";"Warung MISOP Dea Zebua";"XRMQ+9X4, Hilifaosi, Kec. Bawolato, Kabupaten Nias, Sumatera Utara 22876";"Hilifaosi, Kec. Bawolato, Kabupaten Nias";"SUMATERA UTARA";"22876";"Indonesia";"";"";"";"0.9833989";"97.8399416";"https://maps.google.com/?cid=0x0:0x6c5b106d62a44a43";""
"cafe";"Kedai Kopi";"CAFE VALDO (Kafe Politik)";"XFXW+6GM Sebelah Kiri BSG, Onolimbu Rd, Onolimbu, Lahomi, West Nias Regency, North Sumatra 22864";"Onolimbu Rd, Onolimbu, Lahomi, West Nias Regency";"SUMATERA UTARA";"22864";"Indonesia";"";"";"";"0.9980897";"97.4963082";"https://maps.google.com/?cid=0x0:0xd77018c297f5e852";""
"cafe";"Rumah Makan";"Spaghetti Ala-ala";"jl. Arah Gomo, Siofa Banua, Kec. Bawolato, Kabupaten Nias, Sumatera Utara 22876";"Siofa Banua, Kec. Bawolato, Kabupaten Nias";"SUMATERA UTARA";"22876";"Indonesia";" 082272020460";"";"";"0.9682689";"97.7905758";"https://maps.google.com/?cid=0x0:0xbd9b9dcb7c4ed3bd";""
"cafe";"Restoran";"Warung Hoya";"VVGX+GH7, Jl. Bawolato, Bawolato, Kec. Lahusa, Kabupaten Nias Selatan, Sumatera Utara";"Kabupaten Nias Selatan, Sumatera Utara";"SUMATERA UTARA";"";"Indonesia";"";"";"";"0.8762797";"97.8989181";"https://maps.google.com/?cid=0x0:0xb664f68cef07f956";""
"cafe";"Kedai Kopi";"Aluizatulo bawamenewi";"XR22+RPP lokasi SMP negeri 3, jalan pertanian, Siofa Banua, Kec. Bawolato, Kabupaten Nias, Sumatera Utara";"Kabupaten Nias, Sumatera Utara";"SUMATERA UTARA";"";"Indonesia";"";"";"";"0.9520885";"97.8018155";"https://maps.google.com/?cid=0x0:0xddd1011d5afbbf0b";""
"cafe";"Rumah Makan";"Warung Bg Zai";"5 Desa Hilina'a Tafu'o, Jl. Lintas Teluk Dalam No.KM. 41, Hilinaa Tafuo, Kecamatan Idanogawo, Kabupaten Nias, Sumatera Utara 22872";"Jl. Lintas Teluk Dalam No.KM. 41, Hilinaa Tafuo, Kecamatan Idanogawo, Kabupaten Nias";"SUMATERA UTARA";"22872";"Indonesia";" 085381847293";"";"";"1.0126592";"97.8052406";"https://maps.google.com/?cid=0x0:0xe73be54259a4b10f";""
"cafe";"Restoran";"Rumah Makan Bersama";"Jl. Arah Tlk. Dalam, Sisarahili Bawolato, Kec. Bawolato, Kabupaten Nias, Sumatera Utara 22851";"Sisarahili Bawolato, Kec. Bawolato, Kabupaten Nias";"SUMATERA UTARA";"22851";"Indonesia";"";"";"";"0.9381757";"97.8682015";"https://maps.google.com/?cid=0x0:0xc7531a881306fb11";""
"cafe";"Restoran";"RM. GIHON";"WVJF+2MJ, Unnamed Road, Gazamanu, Kec. Bawolato, Kabupaten Nias, Sumatera Utara 22876";"Unnamed Road, Gazamanu, Kec. Bawolato, Kabupaten Nias";"SUMATERA UTARA";"22876";"Indonesia";" 085321563738";"";"";"0.9300761";"97.8741448";"https://maps.google.com/?cid=0x0:0x4764232992a8ac1d";""
"cafe";"Restoran";"RM Sederhana";"WVHF+VR2, desa, Sisarahili Bawolato, Kec. Bawolato, Kabupaten Nias Selatan, Sumatera Utara 22876";"desa, Sisarahili Bawolato, Kec. Bawolato, Kabupaten Nias Selatan";"SUMATERA UTARA";"22876";"Indonesia";" 082363275055";"";"";"0.9296972";"97.8745087";"https://maps.google.com/?cid=0x0:0x497fea7d5c277fb3";""
"cafe";"Restoran";"RM. Muslim Mbak Ayu";"Sisarahili Bawolato, Kec. Bawolato, Kabupaten Nias, Sumatera Utara 22851";"Kec. Bawolato, Kabupaten Nias";"SUMATERA UTARA";"22851";"Indonesia";" 082347347085";"";"";"0.9298125";"97.8745625";"https://maps.google.com/?cid=0x0:0xd8a0efdd1354cf74";""
"cafe";"Kedai Kopi";"Megalit Cafe";"Sifaoroasi Gomo, Kec. Gomo, Kabupaten Nias Selatan, Sumatera Utara 22873";"Kec. Gomo, Kabupaten Nias Selatan";"SUMATERA UTARA";"22873";"Indonesia";" 082267184052";"";"";"0.8551084";"97.8064236";"https://maps.google.com/?cid=0x0:0x1c46814dbb0f2a22";""
"cafe";"Rumah Makan";"UD. Desti";"WVQ9+2P6, Hiliganoita, Kec. Bawolato, Kabupaten Nias, Sumatera Utara 22876";"Hiliganoita, Kec. Bawolato, Kabupaten Nias";"SUMATERA UTARA";"22876";"Indonesia";"";"";"";"0.937561";"97.869183";"https://maps.google.com/?cid=0x0:0x3e11c8eff5ed455f";""
"cafe";"cafe";"Lala,alio";"WWH2+PV, Gazamanu, Kec. Bawolato, Kabupaten Nias, Sumatera Utara";"Kabupaten Nias, Sumatera Utara";"SUMATERA UTARA";"";"Indonesia";"";"";"";"0.929363";"97.902236";"https://maps.google.com/?cid=0x0:0xe0c7c123ba478da0";""
"cafe";"Tujuan Wisata";"Puncak Gomo";"Puncak, Sifaoroasi Gomo, Kec. Gomo, Kabupaten Nias Selatan, Sumatera Utara 22873";"Sifaoroasi Gomo, Kec. Gomo, Kabupaten Nias Selatan";"SUMATERA UTARA";"22873";"Indonesia";"";"";"";"0.8587998";"97.8095023";"https://maps.google.com/?cid=0x0:0xdda4e1a58868a4c1";""
"cafe";"Kedai Kopi";"Ose IDANO DAMBU USO";"XW43+XG3, Sisarahili Bawolato, Kec. Bawolato, Kabupaten Nias, Sumatera Utara 22851";"Sisarahili Bawolato, Kec. Bawolato, Kabupaten Nias";"SUMATERA UTARA";"22851";"Indonesia";"";"";"";"0.9573753";"97.9037813";"https://maps.google.com/?cid=0x0:0x371d451412d8ed8a";""
"cafe";"Brunch";"Rumah makan indah";"VVQW+CXW, Gazamanu, Kec. Bawolato, Kabupaten Nias, Sumatera Utara 22874";"Gazamanu, Kec. Bawolato, Kabupaten Nias";"SUMATERA UTARA";"22874";"Indonesia";"";"";"";"0.8886218";"97.8974647";"https://maps.google.com/?cid=0x0:0x6cdce02ee32f0d80";""
"cafe";"Kedai Kopi";"Penatapan mohili";"VR46+952, Unnamed Road, Orahili Gomo, Kec. Gomo, Kabupaten Nias Selatan, Sumatera Utara 22873";"Unnamed Road, Orahili Gomo, Kec. Gomo, Kabupaten Nias Selatan";"SUMATERA UTARA";"22873";"Indonesia";" 081281933741";"";"";"0.8558902";"97.8103898";"https://maps.google.com/?cid=0x0:0xa84a525d67ae66fd";""
"cafe";"Kedai Kopi";"ALDIN TAFONAO";"VQWW+XF5, Doli Doli, Kec. Gomo, Kabupaten Nias Selatan, Sumatera Utara";"Kabupaten Nias Selatan, Sumatera Utara";"SUMATERA UTARA";"";"Indonesia";" 082267589721";"";"";"0.8973805";"97.796231";"https://maps.google.com/?cid=0x0:0x6d930fa13a7a3b15";""
"cafe";"Rumah Makan";"UD. HARDIN / RM.PACI";"Simpang Sindrõndrõ - Samping Gereja BNKP Sindrondro, Jl. Arah Tlk. Dalam No.224, Sindrõndrõ, Kec. Bawolato, Kabupaten Nias, Sumatera Utara 22876";"Jl. Arah Tlk. Dalam No.224, Sindrõndrõ, Kec. Bawolato, Kabupaten Nias";"SUMATERA UTARA";"22876";"Indonesia";" 082229199928";"";"";"0.982791";"97.8426717";"https://maps.google.com/?cid=0x0:0xd1e7be4206d529dd";""
"cafe";"cafe";"Pondok";"2VVQ+G9X, Pantai, Tagaule, Kec. Bawolato, Kabupaten Nias, Sumatera Utara";"Kabupaten Nias, Sumatera Utara";"SUMATERA UTARA";"";"Indonesia";"";"";"";"1.0438551";"97.8884881";"https://maps.google.com/?cid=0x0:0x42301586d4da902d";""
"cafe";"Bar";"Asaaro Zebua Asasöndu";"2VFQ+X95, Siofaewali, Kec. Bawolato, Kabupaten Nias, Sumatera Utara 22876";"Siofaewali, Kec. Bawolato, Kabupaten Nias";"SUMATERA UTARA";"22876";"Indonesia";" 081262276994";"";"";"1.0248884";"97.8884881";"https://maps.google.com/?cid=0x0:0xdba1e2090421381b";""
"cafe";"Klub Malam";"Ombolata";"XQ9R+864, Siofa Banua, Kec. Bawolato, Kabupaten Nias, Sumatera Utara 22876";"Siofa Banua, Kec. Bawolato, Kabupaten Nias";"SUMATERA UTARA";"22876";"Indonesia";" 082366883995";"";"";"0.9682689";"97.7905758";"https://maps.google.com/?cid=0x0:0x163ab5fca43d5227";""
"cafe";"cafe";"Sumatera Utara 22815";"Sumatera Utara";"Sumatera Utara";"SUMATERA UTARA";"";"Indonesia";"";"";"";"1.1349561";"97.5572231";"https://maps.google.com/?cid=0x0:0x363d3d935f4724dd";""
"cafe";"Balai Pertemuan Desa";"Kecamatan Botomuzoi";"4HX7+M3J, Simanaere Botomuzoi, Kec. Botomuzoi, Kabupaten Nias, Sumatera Utara";"Kabupaten Nias, Sumatera Utara";"SUMATERA UTARA";"";"Indonesia";"";"";"";"1.1492149";"97.5626411";"https://maps.google.com/?cid=0x0:0x655b7642ba45ca91";""
"cafe";"Mi";"UD. JAMES";"5GHW+M8Q, Hiliwaele I, Kec. Botomuzoi, Kabupaten Nias, Sumatera Utara 22854";"Hiliwaele I, Kec. Botomuzoi, Kabupaten Nias";"SUMATERA UTARA";"22854";"Indonesia";" 082360771775";"";"";"1.1792056";"97.5458439";"https://maps.google.com/?cid=0x0:0xb528b72d85301ab4";""
"cafe";"Toko bahan makanan";"UD. LESTA";"4JPF+QP, Siwalu Banua I, Kec. GunungSitoli Idanoi, Kota Gunungsitoli, Sumatera Utara";"Kota Gunungsitoli, Sumatera Utara";"SUMATERA UTARA";"";"Indonesia";" 085296965610";"";"";"1.136953";"97.624279";"https://maps.google.com/?cid=0x0:0x8de5fe2b663e4cbf";""
"cafe";"Pertanian";"MICHAEL HALAWA";"4HPF+G78, Simanaere Botomuzoi, Kec. Botomuzoi, Kabupaten Nias, Sumatera Utara";"Kabupaten Nias, Sumatera Utara";"SUMATERA UTARA";"";"Indonesia";"";"";"";"1.1362821";"97.5732025";"https://maps.google.com/?cid=0x0:0xb6f019f3aa749d04";""
"cafe";"Nasi";"PONDOK MAKAN ARJUNA";"Jalan Nias Tengah No.Km 34, Lolofitu, Kec. Lolofitu Moi, Kabupaten Nias Barat, Sumatera Utara 22875";"Lolofitu, Kec. Lolofitu Moi, Kabupaten Nias Barat";"SUMATERA UTARA";"22875";"Indonesia";" 082373906901";"";"";"1.0998431";"97.5785052";"https://maps.google.com/?cid=0x0:0x8603f228b84c19";""
"cafe";"Kafe";"Pemancar Wifi 5,8 Albert Cpd";"WJ86+Q8F, Soledua, Kec. Hilimegai, Kabupaten Nias Selatan, Sumatera Utara 22864";"Soledua, Kec. Hilimegai, Kabupaten Nias Selatan";"SUMATERA UTARA";"22864";"Indonesia";" 085270679835";"";"";"0.916949";"97.610803";"https://maps.google.com/?cid=0x0:0xa7e7723a5ed367b4";""
"cafe";"Kafe";"Gunung Sifatuoniha Albertcpd";"WJ86+5W9, Soledua, Kec. Hilimegai, Kabupaten Nias Selatan, Sumatera Utara 22864";"Soledua, Kec. Hilimegai, Kabupaten Nias Selatan";"SUMATERA UTARA";"22864";"Indonesia";" 085270679835";"";"";"0.9154231";"97.6123667";"https://maps.google.com/?cid=0x0:0x36050b8c5c9da7e9";""
"cafe";"Brunch";"RM. Muslim SUCI";"Hiliuso, Kec. Lolofitu Moi, Kabupaten Nias Barat, Sumatera Utara 22875";"Kec. Lolofitu Moi, Kabupaten Nias Barat";"SUMATERA UTARA";"22875";"Indonesia";"";"";"";"1.0901355";"97.5767397";"https://maps.google.com/?cid=0x0:0x1adb37205eb5b943";""
"cafe";"Toko umum";"UD. PUTRA JAYA";"3HH9+639, Jl. Raya Tuwuna, Tuwuna, Kec. Mandrehe, Kabupaten Nias Barat, Sumatera Utara 22875";"Jl. Raya Tuwuna, Tuwuna, Kec. Mandrehe, Kabupaten Nias Barat";"SUMATERA UTARA";"22875";"Indonesia";"";"";"";"1.0780449";"97.5677242";"https://maps.google.com/?cid=0x0:0x21c90c24f4512d9b";""
"cafe";"Kedai Kopi";"CAFE VALDO (Kafe Politik)";"XFXW+6GM Sebelah Kiri BSG, Onolimbu Rd, Onolimbu, Lahomi, West Nias Regency, North Sumatra 22864";"Onolimbu Rd, Onolimbu, Lahomi, West Nias Regency";"SUMATERA UTARA";"22864";"Indonesia";"";"";"";"0.9980897";"97.4963082";"https://maps.google.com/?cid=0x0:0xd77018c297f5e852";""
"cafe";"Kedai Kopi";"Pak halawa";"WJ59+R6V, Sisarahili Oyo, Kec. Onohazumba, Kabupaten Nias Selatan, Sumatera Utara 22864";"Sisarahili Oyo, Kec. Onohazumba, Kabupaten Nias Selatan";"SUMATERA UTARA";"22864";"Indonesia";"";"";"";"0.909614";"97.6180405";"https://maps.google.com/?cid=0x0:0x5534aad25d64989c";""
"cafe";"Nasi";"Rumah Makan Devon";"3HXH+XC9, Lolofaoso, Kec. Lolofitu Moi, Kabupaten Nias Barat, Sumatera Utara 22864";"Lolofaoso, Kec. Lolofitu Moi, Kabupaten Nias Barat";"SUMATERA UTARA";"22864";"Indonesia";"";"";"";"1.0999164";"97.5786186";"https://maps.google.com/?cid=0x0:0xb9b0862b93fd3118";""
"cafe";"Kafe";"Abam's Cafe";"2FXR+R77, Fadoro, Kec. Mandrehe, Kabupaten Nias Barat, Sumatera Utara 22862";"Fadoro, Kec. Mandrehe, Kabupaten Nias Barat";"SUMATERA UTARA";"22862";"Indonesia";"";"";"";"1.0495136";"97.4906437";"https://maps.google.com/?cid=0x0:0x2762fb56edc5ffdb";""
"cafe";"Brunch";"Rumah Makan Mama Chatrine";"5H8R+W86, Jl. Nias Tengah, Hiliwaele II, Kec. Botomuzoi, Kabupaten Nias, Sumatera Utara 22851";"Jl. Nias Tengah, Hiliwaele II, Kec. Botomuzoi, Kabupaten Nias";"SUMATERA UTARA";"22851";"Indonesia";"";"";"";"1.1672921";"97.5907791";"https://maps.google.com/?cid=0x0:0x7e9ce2594cd1ac4";""
"cafe";"Kedai Kopi";"CAFE KHODA FEFU";"3F66+PVV, Gn. Baru, Kec. Moro'o, Kabupaten Nias Barat, Sumatera Utara 22862";"Gn. Baru, Kec. Moro'o, Kabupaten Nias Barat";"SUMATERA UTARA";"22862";"Indonesia";"";"";"";"1.0618633";"97.4621767";"https://maps.google.com/?cid=0x0:0x5cfe79fb390a747b";""
"cafe";"Restoran";"Soledua dua";"WJJ6+JCX, Lauso, Soledua, Kabupaten Nias Selatan, Sumatera Utara 22864";"Lauso, Soledua, Kabupaten Nias Selatan";"SUMATERA UTARA";"22864";"Indonesia";" 081362746194";"";"";"0.9316142";"97.611099";"https://maps.google.com/?cid=0x0:0xb38d2d7cae90806d";""
"cafe";"Toko";"Rumah a.gilbert lade";"Jl. Hili Serangkai-Botomuzoi, Lasara Botomuzoi, Kec. Botomuzoi, Kabupaten Nias, Sumatera Utara 22854";"Lasara Botomuzoi, Kec. Botomuzoi, Kabupaten Nias";"SUMATERA UTARA";"22854";"Indonesia";"";"";"";"1.1794114";"97.5247456";"https://maps.google.com/?cid=0x0:0x739d7114f2189baa";""
"cafe";"Kedai Kopi";"Cafe dan percetakan abg";"Onolimbu, Kec. Lahomi, Kabupaten Nias Barat, Sumatera Utara 22862";"Kec. Lahomi, Kabupaten Nias Barat";"SUMATERA UTARA";"22862";"Indonesia";" 082140219243";"";"";"1.0095587";"97.4925099";"https://maps.google.com/?cid=0x0:0x30ce7a28b5175025";""
"cafe";"Kedai Kopi";"ANASBAR CAFE";"XGJ3+RHQ, Lologundre, Kec. Lahomi, Kabupaten Nias Barat, Sumatera Utara 22864";"Lologundre, Kec. Lahomi, Kabupaten Nias Barat";"SUMATERA UTARA";"22864";"Indonesia";" 085361675722";"";"";"0.9820766";"97.5039804";"https://maps.google.com/?cid=0x0:0x9077dbbebe02c014";""
"cafe";"Rumah Makan";"Warung Bang Yoga";"4H2J+62P, Unnamed Road, Lolofaoso, Kec. Lolofitu Moi, Kabupaten Nias Barat, Sumatera Utara 22864";"Unnamed Road, Lolofaoso, Kec. Lolofitu Moi, Kabupaten Nias Barat";"SUMATERA UTARA";"22864";"Indonesia";" 082132181897";"";"";"1.1005838";"97.5800923";"https://maps.google.com/?cid=0x0:0x30e02250fccfc260";""
"cafe";"Kafe";"Lafo-Lafo Faemaö";"3HH9+J83, Hilimbuasi, Kec. Lolofitu Moi, Kabupaten Nias Barat, Sumatera Utara";"Kabupaten Nias Barat, Sumatera Utara";"SUMATERA UTARA";"";"Indonesia";" 081260087122";"";"";"1.0790087";"97.5682954";"https://maps.google.com/?cid=0x0:0x398eacb25c376595";""
"cafe";"Tujuan Wisata";"Pantai Marina Desa Simanaere";"Jl. Raya Pelud Binaka No.123, Fowa, Kec. GunungSitoli Idanoi, Kabupaten Nias, Sumatera Utara";"Kabupaten Nias, Sumatera Utara";"SUMATERA UTARA";"";"Indonesia";"";"";"";"1.187814";"97.6832782";"https://maps.google.com/?cid=0x0:0x9ae54432712c4077";""
"cafe";"cafe";"Kec. Botomuzoi";"Kabupaten Nias, Sumatera Utara";"Kabupaten Nias, Sumatera Utara";"SUMATERA UTARA";"";"Indonesia";"";"";"";"1.1780338";"97.5446524";"https://maps.google.com/?cid=0x0:0x3ea36227f9a6c186";""
"cafe";"Komplek perumahan";"Ama Yanti Mendrofa";"6H4F+W3R, Unnamed Road, Dahadano Botombawo, Kec. HiliSerangkai, Kabupaten Nias, Sumatera Utara 22811";"Unnamed Road, Dahadano Botombawo, Kec. HiliSerangkai, Kabupaten Nias";"SUMATERA UTARA";"22811";"Indonesia";"";"";"";"1.207352";"97.572653";"https://maps.google.com/?cid=0x0:0xb9d62596731a9596";""
"cafe";"Brunch";"Rumah Makan Mervan";"Jl. Nias Tengah No.KM 19, RW.5, Dahadano Botombawo, Kec. HiliSerangkai, Kabupaten Nias, Sumatera Utara 22811";"RW.5, Dahadano Botombawo, Kec. HiliSerangkai, Kabupaten Nias";"SUMATERA UTARA";"22811";"Indonesia";"";"";"";"1.197207";"97.5678896";"https://maps.google.com/?cid=0x0:0x8f987176ae113c55";""
"cafe";"Rumah Makan";"UD Sahabat Sabarman";"4H4M+46J Moi, Hiliuso, Kec. Lolofitu Moi, Kabupaten Nias Barat, Sumatera Utara 22864";"Hiliuso, Kec. Lolofitu Moi, Kabupaten Nias Barat";"SUMATERA UTARA";"22864";"Indonesia";" 085275572421";"";"";"1.1053364";"97.5830149";"https://maps.google.com/?cid=0x0:0x214caae6df9d15f";""
"cafe";"Warnet";"Tower botombawö";"5HX8+F3R, Dahadano Botombawo, Kec. HiliSerangkai, Kabupaten Nias Utara, Sumatera Utara 22851";"Dahadano Botombawo, Kec. HiliSerangkai, Kabupaten Nias Utara";"SUMATERA UTARA";"22851";"Indonesia";"";"";"";"1.1987289";"97.565141";"https://maps.google.com/?cid=0x0:0x4a4e0dca0e58313a";""
"cafe";"Kedai Kopi";"WARUNG NENEK NUNU TOKE";"5H6R+8WW, Fulolo Lalai, Kec. HiliSerangkai, Kabupaten Nias, Sumatera Utara 22851";"Fulolo Lalai, Kec. HiliSerangkai, Kabupaten Nias";"SUMATERA UTARA";"22851";"Indonesia";"";"";"";"1.1604072";"97.5927432";"https://maps.google.com/?cid=0x0:0x7feedfea68808168";""
"cafe";"cafe";"Kec. Gido";"Kabupaten Nias, Sumatera Utara";"Kabupaten Nias, Sumatera Utara";"SUMATERA UTARA";"";"Indonesia";"";"";"";"1.17457";"97.6874949";"https://maps.google.com/?cid=0x0:0x9b3ac0e16891e3a9";""
"cafe";"Kafe";"de' First Cafe  Resto";"Jl. Pancasila No.06, Hiliweto, Kec. Gido, Kabupaten Nias, Sumatera Utara 22871";"Hiliweto, Kec. Gido, Kabupaten Nias";"SUMATERA UTARA";"22871";"Indonesia";"";"";"";"1.117339";"97.7247143";"https://maps.google.com/?cid=0x0:0xd348f66d73a624ff";""
"cafe";"Restoran";"WARUNG HALRUM CAFE";"Jl. Pendidikan No.18, Heliweto Gido, Kec. Gido, Kabupaten Nias, Sumatera Utara 22871";"Heliweto Gido, Kec. Gido, Kabupaten Nias";"SUMATERA UTARA";"22871";"Indonesia";" 082111201017";"";"";"1.1167421";"97.7229025";"https://maps.google.com/?cid=0x0:0xd6fa2efafa8b7d1c";""
"cafe";"Restoran";"WARUNG BKN PA'SISCA CABANG GIDO";"4P9F+P5X, Heliweto Gido, Kec. Sogae'adu, Kabupaten Nias, Sumatera Utara 22871";"Heliweto Gido, Kec. Sogae'adu, Kabupaten Nias";"SUMATERA UTARA";"22871";"Indonesia";"";"";"";"1.1194791";"97.7229679";"https://maps.google.com/?cid=0x0:0xb69e483928f02ce7";""
"cafe";"Restoran";"RM SEMANGAT BARU";"4P9F+Q3J, Jl. Merdeka, Heliweto Gido, Kec. Gido, Kabupaten Nias, Sumatera Utara 22871";"Jl. Merdeka, Heliweto Gido, Kec. Gido, Kabupaten Nias";"SUMATERA UTARA";"22871";"Indonesia";" 082361830495";"";"";"1.1194615";"97.7226261";"https://maps.google.com/?cid=0x0:0x2aa64f58142ee208";""
"cafe";"Toko bahan makanan";"UD. RIA";"Desa Soewe, Kec. Gido, Kab. Nias, Kota Gunungsitoli, Sumatera Utara 22871";"Kec. Gido, Kab. Nias, Kota Gunungsitoli";"SUMATERA UTARA";"22871";"Indonesia";" 085143127678";"";"";"1.1381781";"97.7140837";"https://maps.google.com/?cid=0x0:0x10ec4b4e3d426689";""
"cafe";"Kedai Kopi";"UD.SINAR";"4M5R+2HF, Desa Nifalo'o Lauru, Hilisebua, Kec. Gido, Kabupaten Nias, Sumatera Utara 22871";"Desa Nifalo'o Lauru, Hilisebua, Kec. Gido, Kabupaten Nias";"SUMATERA UTARA";"22871";"Indonesia";"";"";"";"1.107568";"97.6914099";"https://maps.google.com/?cid=0x0:0x3a9333c0145f731";""
"cafe";"Padang";"Rumah Makan Nasional 2";"4PH9+5GW, Sirete, Kec. Gido, Kabupaten Nias, Sumatera Utara";"Kabupaten Nias, Sumatera Utara";"SUMATERA UTARA";"";"Indonesia";"";"";"";"1.1279907";"97.7188303";"https://maps.google.com/?cid=0x0:0xa261f3aca6b9ef81";""
"cafe";"Kedai Kopi";"UD.Endang";"4PFX+FGX, Jl. Simpang Duria Menuju Pantai Somi, Somi, Kec. Gido, Kabupaten Nias, Sumatera Utara 22871";"Jl. Simpang Duria Menuju Pantai Somi, Somi, Kec. Gido, Kabupaten Nias";"SUMATERA UTARA";"22871";"Indonesia";"";"";"";"1.1237498";"97.748858";"https://maps.google.com/?cid=0x0:0x7c9def13ed38370d";""
"cafe";"Kedai Kopi";"Lafo Kofi";"5P73+MF7, Soewe, Kec. Gido, Kabupaten Nias, Sumatera Utara";"Kabupaten Nias, Sumatera Utara";"SUMATERA UTARA";"";"Indonesia";"";"";"";"1.1641718";"97.7036779";"https://maps.google.com/?cid=0x0:0xdd24ff33440e6d6";""
"cafe";"Kedai Kopi";"Kantin Winner";"5P73+JFQ, Soewe, Kec. Gido, Kabupaten Nias, Sumatera Utara";"Kabupaten Nias, Sumatera Utara";"SUMATERA UTARA";"";"Indonesia";"";"";"";"1.1640791";"97.7037492";"https://maps.google.com/?cid=0x0:0x513b5d75d9abe3af";""
"cafe";"Restoran";"Rumah makan IDW";"Jalan arah teluk dalam KM 24 , 22871, kec, Heliweto, Sirete, Kec. Gido, Kabupaten Nias, Sumatera Utara 22871";"22871, kec, Heliweto, Sirete, Kec. Gido, Kabupaten Nias";"SUMATERA UTARA";"22871";"Indonesia";" 082363624807";"";"";"1.1221917";"97.7221505";"https://maps.google.com/?cid=0x0:0x9ee8ab4bc0612c3a";""
"cafe";"Rumah Makan";"WAROENG BANG JAGO";"3PHR+VRQ, Sisarahili Sogaeadu, Kec. Gido, Kabupaten Nias, Sumatera Utara 22871";"Sisarahili Sogaeadu, Kec. Gido, Kabupaten Nias";"SUMATERA UTARA";"22871";"Indonesia";" 085359553721";"";"";"1.0797142";"97.7421176";"https://maps.google.com/?cid=0x0:0xf7bae96e5353e6ed";""
"cafe";"Rumah Makan";"UD. LO'AFODA";"Dusun I Desa, Hiliotalua, Kec. Gido, Kabupaten Nias, Sumatera Utara 22871";"Hiliotalua, Kec. Gido, Kabupaten Nias";"SUMATERA UTARA";"22871";"Indonesia";" 085275714047";"";"";"1.0498724";"97.705333";"https://maps.google.com/?cid=0x0:0x2bfcb0ed9e5b94fc";""
"cafe";"Restoran";"OmoGö Resto  Cafe";"Jl. Raya Pelud Binaka No.219, Binaka, Kec. GunungSitoli Idanoi, Kota Gunungsitoli, Sumatera Utara 22871";"Binaka, Kec. GunungSitoli Idanoi, Kota Gunungsitoli";"SUMATERA UTARA";"22871";"Indonesia";" 081260274444";"";"";"1.1695082";"97.6931335";"https://maps.google.com/?cid=0x0:0x978ef1c7086eeb3d";""
"cafe";"Restoran";"Warung Desi Binaka";"5M7W+8JJ, Unnamed Road, Lolozasai, Kec. Gido, Kabupaten Nias, Sumatera Utara 22871";"Unnamed Road, Lolozasai, Kec. Gido, Kabupaten Nias";"SUMATERA UTARA";"22871";"Indonesia";" 082366355531";"";"";"1.1633298";"97.6965151";"https://maps.google.com/?cid=0x0:0xc803154318d4335d";""
"cafe";"Restoran";"Rumah Makan DEANDRA";"Jl. Merdeka No.55, Heliweto Gido, Kec. Sogae'adu, Kabupaten Nias, Sumatera Utara 22871";"Heliweto Gido, Kec. Sogae'adu, Kabupaten Nias";"SUMATERA UTARA";"22871";"Indonesia";"";"";"";"1.1184718";"97.7239862";"https://maps.google.com/?cid=0x0:0x45b82c40c4fa29ff";""
"cafe";"Kedai Kopi";"Kantin Restu (I. Iwan Zebua)";"5P73+QQ7, Binaka, Kec. GunungSitoli Idanoi, Kota Gunungsitoli, Sumatera Utara";"Kota Gunungsitoli, Sumatera Utara";"SUMATERA UTARA";"";"Indonesia";"";"";"";"1.164416";"97.7044073";"https://maps.google.com/?cid=0x0:0xc30d0b6b70125380";""
"cafe";"Kedai Kopi";"Kantin LIORRA";"Kompleks Bandara Binaka, Soewe, Kec. Gido, Kota Gunungsitoli, Sumatera Utara 22813";"Soewe, Kec. Gido, Kota Gunungsitoli";"SUMATERA UTARA";"22813";"Indonesia";" 081265499757";"";"";"1.163961";"97.703778";"https://maps.google.com/?cid=0x0:0xf09f295c207ef99c";""
"cafe";"Restoran";"WARUNG EXSEL";"4P9F+P4C, Heliweto Gido, Kec. Sogae'adu, Kabupaten Nias, Sumatera Utara 22871";"Heliweto Gido, Kec. Sogae'adu, Kabupaten Nias";"SUMATERA UTARA";"22871";"Indonesia";" 085276517838";"";"";"1.1193206";"97.722759";"https://maps.google.com/?cid=0x0:0x1ae8aff3d4978fdc";""
"cafe";"Padang";"RM. Sohaga";"4P5M+52P, Jl. Gunungsitoli-Idanögawo, Tulumbaho, Kec. Gido, Kabupaten Nias, Sumatera Utara 22871";"Jl. Gunungsitoli-Idanögawo, Tulumbaho, Kec. Gido, Kabupaten Nias";"SUMATERA UTARA";"22871";"Indonesia";" 081377306432";"";"";"1.1079637";"97.732571";"https://maps.google.com/?cid=0x0:0x17d65da163702c0f";""
"cafe";"Toko bahan makanan";"UD. Solomasi";"Kompleks Kantor Bupati Nias, Jl. Soekarno, Tulumbaho, Kec. Gido, Kabupaten Nias, Sumatera Utara 22871";"Jl. Soekarno, Tulumbaho, Kec. Gido, Kabupaten Nias";"SUMATERA UTARA";"22871";"Indonesia";" 082268445531";"";"";"1.0974024";"97.7246041";"https://maps.google.com/?cid=0x0:0x6c70c65e0d66895d";""
"cafe";"Kedai Kopi";"Godspeed Coffee";"Jl. Al Husna No.22, Tugu Utara, Kec. Koja, Jkt Utara, Daerah Khusus Ibukota Jakarta 14260";"Tugu Utara, Kec. Koja, Jkt Utara";"SUMATERA UTARA";"14260";"Indonesia";" 082262567303";"";"";"-6.1282338";"106.9147378";"https://maps.google.com/?cid=0x0:0x3613cbe06c74322e";""
"cafe";"Malaysia";"GREYHOUND CAFE Gatot Subroto";"Jl. Gatot Subroto No.kavling 55-56, Menteng Dalam, Kec. Tebet, Kota Jakarta Selatan, Daerah Khusus Ibukota Jakarta 12830";"Menteng Dalam, Kec. Tebet, Kota Jakarta Selatan";"SUMATERA UTARA";"12830";"Indonesia";" 02138825090";"";"";"-6.2404142";"106.8353192";"https://maps.google.com/?cid=0x0:0x1529dcc51c372d1c";""
"cafe";"Kedai Kopi";"Goffee ITC Mangga Dua";"Jalan Mangga dua raya no 43, ITC Mangga Dua lantai 2, Blok A no 108-110, RT.11/RW.5, Ancol, Kec. Pademangan, Jkt Utara, Daerah Khusus Ibukota Jakarta 14430";"ITC Mangga Dua lantai 2, Blok A no 108-110, RT.11/RW.5, Ancol, Kec. Pademangan, Jkt Utara";"SUMATERA UTARA";"14430";"Indonesia";" 087880946958";"";"";"-6.1358221";"106.8244559";"https://maps.google.com/?cid=0x0:0xd5b2689b06a77478";""
"cafe";"Mesin Sangrai Kopi";"1/15 Coffee, Menteng";"Jl. Dr. Kusuma Atmaja No.79 10, RT.10/RW.4, Menteng, Kec. Menteng, Kota Jakarta Pusat, Daerah Khusus Ibukota Jakarta 10310";"RT.10/RW.4, Menteng, Kec. Menteng, Kota Jakarta Pusat";"SUMATERA UTARA";"10310";"Indonesia";" 081290002128";"";"";"-6.1978594";"106.8242186";"https://maps.google.com/?cid=0x0:0x6e20a31a303b320e";""
"cafe";"Indonesia";"Giyanti Coffee Roastery";"Jl. Surabaya No.20, RT.15/RW.5, Menteng, Kec. Menteng, Kota Jakarta Pusat, Daerah Khusus Ibukota Jakarta 10310";"RT.15/RW.5, Menteng, Kec. Menteng, Kota Jakarta Pusat";"SUMATERA UTARA";"10310";"Indonesia";" 02131923698";"";"";"-6.1988632";"106.8395423";"https://maps.google.com/?cid=0x0:0x79ac645c2aef736f";""
"cafe";"Kedai Kopi";"Coffee spot Tebet";"Jl. Prof. DR. Soepomo No.13, Tebet Bar., Kec. Tebet, Jakarta, Daerah Khusus, Jakarta, Daerah Khusus Ibukota Jakarta 12810";"Tebet Bar., Kec. Tebet, Jakarta, Daerah Khusus, Jakarta";"SUMATERA UTARA";"12810";"Indonesia";" 085716124357";"";"";"-6.2407804";"106.8452193";"https://maps.google.com/?cid=0x0:0xd5d9006306b07a77";""
"cafe";"Italia";"Cafe Kissa - Grand Indonesia";"Shinta Lobby, Grand Indonesia Mall, East Mall, Jl. Tlk. Betung I No.45A Ground Floor, RT.1/RW.5, Menteng, Kec. Menteng, Kota Jakarta Pusat, Daerah Khusus Ibukota Jakarta 10310";"Grand Indonesia Mall, East Mall, Jl. Tlk. Betung I No.45A Ground Floor, RT.1/RW.5, Menteng, Kec. Menteng, Kota Jakarta Pusat";"SUMATERA UTARA";"10310";"Indonesia";" 08118001556";"";"";"-6.1963714";"106.8225994";"https://maps.google.com/?cid=0x0:0x89e344c04d23a8ad";""
"cafe";"Kedai Kopi";"Hilicafe";"7J9M+R2F, Ilir, Kec. Gunungsitoli, Kota Gunungsitoli, Sumatera Utara 22811";"Ilir, Kec. Gunungsitoli, Kota Gunungsitoli";"SUMATERA UTARA";"22811";"Indonesia";"";"";"";"1.2695558";"97.6326054";"https://maps.google.com/?cid=0x0:0xfcdaa7fac94a7ac";""
"cafe";"Kedai Kopi";"Tempat nongkrong";"6JCC+P24, Jl. Desa Hiligara, Hiligara, Kec. Gunungsitoli Sel., Kota Gunungsitoli, Sumatera Utara";"Kota Gunungsitoli, Sumatera Utara";"SUMATERA UTARA";"";"Indonesia";" 082242078008";"";"";"1.2217535";"97.6200666";"https://maps.google.com/?cid=0x0:0x641cf256c68e130";""
"cafe";"cafe";"Sumatera Utara 22851";"Sumatera Utara";"Sumatera Utara";"SUMATERA UTARA";"";"Indonesia";"";"";"";"1.2976797";"97.330053";"https://maps.google.com/?cid=0x0:0xb3058656cf8eec8e";""
"cafe";"cafe";"KEDAI MIE CITRA";"6GXP+P6M, Fadoro Lauru, Kec. Hiliduho, Kabupaten Nias, Sumatera Utara 22851";"Fadoro Lauru, Kec. Hiliduho, Kabupaten Nias";"SUMATERA UTARA";"22851";"Indonesia";"";"";"";"1.2493425";"97.5355555";"https://maps.google.com/?cid=0x0:0xf9e2be31e9eb97b0";""
"cafe";"cafe";"A.Novita Harefa";"6J8P+Q8W, Mazingo Tabaloho, Kec. Gunungsitoli Sel., Kota Gunungsitoli, Sumatera Utara 22851";"Mazingo Tabaloho, Kec. Gunungsitoli Sel., Kota Gunungsitoli";"SUMATERA UTARA";"22851";"Indonesia";"";"";"";"1.2165862";"97.6349877";"https://maps.google.com/?cid=0x0:0x1eac2b8b2e19f031";""
"cafe";"cafe";"Kec. Hiliduho";"Kabupaten Nias, Sumatera Utara";"Kabupaten Nias, Sumatera Utara";"SUMATERA UTARA";"";"Indonesia";"";"";"";"1.2502486";"97.5332759";"https://maps.google.com/?cid=0x0:0x228ef20efa6adaf";""
"cafe";"Komplek perumahan";"Ama Yanti Mendrofa";"6H4F+W3R, Unnamed Road, Dahadano Botombawo, Kec. HiliSerangkai, Kabupaten Nias, Sumatera Utara 22811";"Unnamed Road, Dahadano Botombawo, Kec. HiliSerangkai, Kabupaten Nias";"SUMATERA UTARA";"22811";"Indonesia";"";"";"";"1.207352";"97.572653";"https://maps.google.com/?cid=0x0:0xb9d62596731a9596";""
"cafe";"Dapur Umum";"Kedai LYNI";"7JJ4+F35, Jl. Fondrako, Saombo, Kec. Gunungsitoli, Kota Gunungsitoli, Sumatera Utara";"Kota Gunungsitoli, Sumatera Utara";"SUMATERA UTARA";"";"Indonesia";" 082163503099";"";"";"1.2811366";"97.6052299";"https://maps.google.com/?cid=0x0:0xc16a0613954cd097";""
"cafe";"Kafe";"A. Efo Mendrofa";"Rumah Ama Efo Mendrofa, Desa Lolowua, Kec. HiliSerangkai, Kabupaten Nias, Sumatera Utara 22811";"Desa Lolowua, Kec. HiliSerangkai, Kabupaten Nias";"SUMATERA UTARA";"22811";"Indonesia";" 085319444887";"";"";"1.2099635";"97.5726371";"https://maps.google.com/?cid=0x0:0xe392fa4917c4d7cf";""
"cafe";"Kafe";"Museum Nias Cafe";"Jalan Yos Sudarso No. 134-A, Ombolata Ulu, Gunung Sitoli, Iraonogeba, Kec. Gunungsitoli, Kota Gunungsitoli, Sumatera Utara 22812";"Ombolata Ulu, Gunung Sitoli, Iraonogeba, Kec. Gunungsitoli, Kota Gunungsitoli";"SUMATERA UTARA";"22812";"Indonesia";" 085277992858";"";"";"1.298716";"97.609124";"https://maps.google.com/?cid=0x0:0x575dd51bd5bc8cb4";""
"cafe";"Rumah Kayu";"Omo A/i. Dika Harefa";"8H8M+2FQ, Unnamed Road, Sisarahili Gamo, Kec. Gunungsitoli, Kota Gunungsitoli, Sumatera Utara 22811";"Unnamed Road, Sisarahili Gamo, Kec. Gunungsitoli, Kota Gunungsitoli";"SUMATERA UTARA";"22811";"Indonesia";"";"";"";"1.315095";"97.5837297";"https://maps.google.com/?cid=0x0:0xb3f63f5b7be8270";""
"cafe";"Brunch";"RM. MOHILI SARURU";"Iraono Lase, Jalan Arah Meteorologi, Kec. Gunungsitoli Alo'oa, Kota Gunungsitoli, Sumatera Utara";"Kota Gunungsitoli, Sumatera Utara";"SUMATERA UTARA";"";"Indonesia";" 081370064906";"";"";"1.2982299";"97.5567222";"https://maps.google.com/?cid=0x0:0xc64ac4092870b8e2";""
"cafe";"Kafe";"Merry Cafe";"Jl. Yos Sudarso Ujung No.72, Iraonogeba, Kec. Gunungsitoli, Kota Gunungsitoli, Sumatera Utara";"Kota Gunungsitoli, Sumatera Utara";"SUMATERA UTARA";"";"Indonesia";"";"";"";"1.29347";"97.6101483";"https://maps.google.com/?cid=0x0:0xb5ee70f7250fa984";""
"cafe";"Brunch";"RM. MOHILI SARURU";"8H4C+PX4, Iraono Lase, Kec. Gunungsitoli Alo'oa, Kota Gunungsitoli, Sumatera Utara";"Kota Gunungsitoli, Sumatera Utara";"SUMATERA UTARA";"";"Indonesia";"";"";"";"1.3067667";"97.5724652";"https://maps.google.com/?cid=0x0:0x2270b5ed66472dab";""
"cafe";"Brunch";"Rumah Makan Mervan";"Jl. Nias Tengah No.KM 19, RW.5, Dahadano Botombawo, Kec. HiliSerangkai, Kabupaten Nias, Sumatera Utara 22811";"RW.5, Dahadano Botombawo, Kec. HiliSerangkai, Kabupaten Nias";"SUMATERA UTARA";"22811";"Indonesia";"";"";"";"1.197207";"97.5678896";"https://maps.google.com/?cid=0x0:0x8f987176ae113c55";""
"cafe";"Padang";"Dalvons Mendrofa";"Jl. Nias Tengah No.Km 20, Dahadano Botombawo, Kec. HiliSerangkai, Kabupaten Nias, Sumatera Utara 22871";"Dahadano Botombawo, Kec. HiliSerangkai, Kabupaten Nias";"SUMATERA UTARA";"22871";"Indonesia";" 082272632927";"";"";"1.1933866";"97.5701502";"https://maps.google.com/?cid=0x0:0x628181abb17303e7";""
"cafe";"Brunch";"Warung Makan Ria Ceria";"6H5F+M25, Dahadano Botombawo, Kec. HiliSerangkai, Kabupaten Nias, Sumatera Utara 22811";"Dahadano Botombawo, Kec. HiliSerangkai, Kabupaten Nias";"SUMATERA UTARA";"22811";"Indonesia";"";"";"";"1.209148";"97.5725999";"https://maps.google.com/?cid=0x0:0x957e36e77072f8c7";""
"cafe";"Kafe";"Domino";"Jl. Fondrako, Onozitoli Siforoasi, Kec. Gunungsitoli, Kota Gunungsitoli, Sumatera Utara";"Kota Gunungsitoli, Sumatera Utara";"SUMATERA UTARA";"";"Indonesia";"";"";"";"1.2697353";"97.6029607";"https://maps.google.com/?cid=0x0:0x4a24e432e2863f06";""
"cafe";"Warnet";"Tower botombawö";"5HX8+F3R, Dahadano Botombawo, Kec. HiliSerangkai, Kabupaten Nias Utara, Sumatera Utara 22851";"Dahadano Botombawo, Kec. HiliSerangkai, Kabupaten Nias Utara";"SUMATERA UTARA";"22851";"Indonesia";"";"";"";"1.1987289";"97.565141";"https://maps.google.com/?cid=0x0:0x4a4e0dca0e58313a";""
"cafe";"Kedai Kopi";"Toko Kopi Kana  Kana Seafood";"Jl. Yos Sudarso Ujung No.178, Ombolata Ulu, Kec. Gunungsitoli, Kota Gunungsitoli, Sumatera Utara 22814";"Ombolata Ulu, Kec. Gunungsitoli, Kota Gunungsitoli";"SUMATERA UTARA";"22814";"Indonesia";" 081213355326";"";"";"1.3041016";"97.6086929";"https://maps.google.com/?cid=0x0:0x1c3259f480b40649";""
"cafe";"Brunch";"Warung Makan Larumae";"6H7F+886, Jl. Gunungsitoli, Dahadano Botombawo, Kec. HiliSerangkai, Kabupaten Nias, Sumatera Utara 22811";"Jl. Gunungsitoli, Dahadano Botombawo, Kec. HiliSerangkai, Kabupaten Nias";"SUMATERA UTARA";"22811";"Indonesia";"";"";"";"1.2132847";"97.5732695";"https://maps.google.com/?cid=0x0:0xd4301518c1dbea54";""
"cafe";"Komplek perumahan";"Rumah A/I Theresia Zebua";"Jl. Fondrako Desa No.76, Sihareo Siwahili, Kec. Gunungsitoli, Kota Gunungsitoli, Sumatera Utara";"Kota Gunungsitoli, Sumatera Utara";"SUMATERA UTARA";"";"Indonesia";"";"";"";"1.2668516";"97.6022547";"https://maps.google.com/?cid=0x0:0x4d50467a8ceeef87";""
"cafe";"Rumah Makan";"Kedai Mie Himpun";"6HVV+7GM, Sihareo Siwahili, Kec. Gunungsitoli Bar., Kota Gunungsitoli, Sumatera Utara";"Kota Gunungsitoli, Sumatera Utara";"SUMATERA UTARA";"";"Indonesia";"";"";"";"1.2432123";"97.5938025";"https://maps.google.com/?cid=0x0:0x9da4dbd3fc95ba7b";""
"cafe";"Mi";"UD. JAMES";"5GHW+M8Q, Hiliwaele I, Kec. Botomuzoi, Kabupaten Nias, Sumatera Utara 22854";"Hiliwaele I, Kec. Botomuzoi, Kabupaten Nias";"SUMATERA UTARA";"22854";"Indonesia";" 082360771775";"";"";"1.1792056";"97.5458439";"https://maps.google.com/?cid=0x0:0xb528b72d85301ab4";""
"cafe";"cafe";"Sumatera Utara 22854";"Kec. Botomuzoi, Kabupaten Nias, Sumatera Utara";"Kabupaten Nias, Sumatera Utara";"SUMATERA UTARA";"";"Indonesia";"";"";"";"1.1873897";"97.5301397";"https://maps.google.com/?cid=0x0:0x6075fa9e225a1eff";""
"cafe";"Komplek perumahan";"Ama Yanti Mendrofa";"6H4F+W3R, Unnamed Road, Dahadano Botombawo, Kec. HiliSerangkai, Kabupaten Nias, Sumatera Utara 22811";"Unnamed Road, Dahadano Botombawo, Kec. HiliSerangkai, Kabupaten Nias";"SUMATERA UTARA";"22811";"Indonesia";"";"";"";"1.207352";"97.572653";"https://maps.google.com/?cid=0x0:0xb9d62596731a9596";""
"cafe";"Mi";"UD. JAMES";"5GHW+M8Q, Hiliwaele I, Kec. Botomuzoi, Kabupaten Nias, Sumatera Utara 22854";"Hiliwaele I, Kec. Botomuzoi, Kabupaten Nias";"SUMATERA UTARA";"22854";"Indonesia";" 082360771775";"";"";"1.1792056";"97.5458439";"https://maps.google.com/?cid=0x0:0xb528b72d85301ab4";""
"cafe";"Warnet";"Tower botombawö";"5HX8+F3R, Dahadano Botombawo, Kec. HiliSerangkai, Kabupaten Nias Utara, Sumatera Utara 22851";"Dahadano Botombawo, Kec. HiliSerangkai, Kabupaten Nias Utara";"SUMATERA UTARA";"22851";"Indonesia";"";"";"";"1.1987289";"97.565141";"https://maps.google.com/?cid=0x0:0x4a4e0dca0e58313a";""
"cafe";"Padang";"Dalvons Mendrofa";"Jl. Nias Tengah No.Km 20, Dahadano Botombawo, Kec. HiliSerangkai, Kabupaten Nias, Sumatera Utara 22871";"Dahadano Botombawo, Kec. HiliSerangkai, Kabupaten Nias";"SUMATERA UTARA";"22871";"Indonesia";" 082272632927";"";"";"1.1933866";"97.5701502";"https://maps.google.com/?cid=0x0:0x628181abb17303e7";""
"cafe";"Brunch";"Rumah Makan Mervan";"Jl. Nias Tengah No.KM 19, RW.5, Dahadano Botombawo, Kec. HiliSerangkai, Kabupaten Nias, Sumatera Utara 22811";"RW.5, Dahadano Botombawo, Kec. HiliSerangkai, Kabupaten Nias";"SUMATERA UTARA";"22811";"Indonesia";"";"";"";"1.197207";"97.5678896";"https://maps.google.com/?cid=0x0:0x8f987176ae113c55";""
"cafe";"Brunch";"Rumah Makan Efran";"5HRF+F75, Dahadano Botombawo, Kec. HiliSerangkai, Kabupaten Nias, Sumatera Utara";"Kabupaten Nias, Sumatera Utara";"SUMATERA UTARA";"";"Indonesia";" 081377033818";"";"";"1.1911399";"97.5732453";"https://maps.google.com/?cid=0x0:0xab4ef133d512bcaa";""
"cafe";"Toko";"Rumah a.gilbert lade";"Jl. Hili Serangkai-Botomuzoi, Lasara Botomuzoi, Kec. Botomuzoi, Kabupaten Nias, Sumatera Utara 22854";"Lasara Botomuzoi, Kec. Botomuzoi, Kabupaten Nias";"SUMATERA UTARA";"22854";"Indonesia";"";"";"";"1.1794114";"97.5247456";"https://maps.google.com/?cid=0x0:0x739d7114f2189baa";""
"cafe";"Kedai Kopi";"Hilicafe";"7J9M+R2F, Ilir, Kec. Gunungsitoli, Kota Gunungsitoli, Sumatera Utara 22811";"Ilir, Kec. Gunungsitoli, Kota Gunungsitoli";"SUMATERA UTARA";"22811";"Indonesia";"";"";"";"1.2695558";"97.6326054";"https://maps.google.com/?cid=0x0:0xfcdaa7fac94a7ac";""
"cafe";"Kafe";"A. Efo Mendrofa";"Rumah Ama Efo Mendrofa, Desa Lolowua, Kec. HiliSerangkai, Kabupaten Nias, Sumatera Utara 22811";"Desa Lolowua, Kec. HiliSerangkai, Kabupaten Nias";"SUMATERA UTARA";"22811";"Indonesia";" 085319444887";"";"";"1.2099635";"97.5726371";"https://maps.google.com/?cid=0x0:0xe392fa4917c4d7cf";""
"cafe";"Brunch";"Warung Makan Larumae";"6H7F+886, Jl. Gunungsitoli, Dahadano Botombawo, Kec. HiliSerangkai, Kabupaten Nias, Sumatera Utara 22811";"Jl. Gunungsitoli, Dahadano Botombawo, Kec. HiliSerangkai, Kabupaten Nias";"SUMATERA UTARA";"22811";"Indonesia";"";"";"";"1.2132847";"97.5732695";"https://maps.google.com/?cid=0x0:0xd4301518c1dbea54";""
"cafe";"Kafe";"Cafe Sawah, Food  Coffeeshop";"Jl. Perjuangan Dusun 5, Bintang Meriah, Kec. Batang Kuis, Kabupaten Deli Serdang, Sumatera Utara 20372";"Bintang Meriah, Kec. Batang Kuis, Kabupaten Deli Serdang";"SUMATERA UTARA";"20372";"Indonesia";" 085296663692";"";"";"3.6197052";"98.7967651";"https://maps.google.com/?cid=0x0:0x5c5b0aebe5efc66f";""
"cafe";"Balai Pertemuan Desa";"Kecamatan Botomuzoi";"4HX7+M3J, Simanaere Botomuzoi, Kec. Botomuzoi, Kabupaten Nias, Sumatera Utara";"Kabupaten Nias, Sumatera Utara";"SUMATERA UTARA";"";"Indonesia";"";"";"";"1.1492149";"97.5626411";"https://maps.google.com/?cid=0x0:0x655b7642ba45ca91";""
"cafe";"Kafe";"D'raja Coffee Yos Sudarso ( HUB D'raja Coffee )";"Jl. KL. Yos Sudarso Lrg. 14 A, Glugur Kota, Kec. Medan Bar., Kota Medan, Sumatera Utara 20114";"Glugur Kota, Kec. Medan Bar., Kota Medan";"SUMATERA UTARA";"20114";"Indonesia";" 085373710506";"";"";"3.6184766";"98.6712881";"https://maps.google.com/?cid=0x0:0xa4af3b24b3ba000f";""
"cafe";"Dapur Umum";"Warung Mie Jordan";"5HMJ+Q4Q, Jl. Nias Tengah, Lolowua, Kec. HiliSerangkai, Kabupaten Nias, Sumatera Utara 22851";"Jl. Nias Tengah, Lolowua, Kec. HiliSerangkai, Kabupaten Nias";"SUMATERA UTARA";"22851";"Indonesia";" 082363517649";"";"";"1.1844709";"97.5803643";"https://maps.google.com/?cid=0x0:0xe54c28487ee20483";""
"cafe";"Kafe";"PS, Hılısatarö";"3PMQ+48X, Tulumbaho, Kec. Gido, Kabupaten Nias, Sumatera Utara 22871";"Tulumbaho, Kec. Gido, Kabupaten Nias";"SUMATERA UTARA";"22871";"Indonesia";" 082267060465";"";"";"1.0828594";"97.7383571";"https://maps.google.com/?cid=0x0:0x6579cde3bdcb289a";""
"cafe";"Kedai Kopi";"hiru koffee";"Komplek Perumahan Elit 2, Jl. Perjuangan no. a5, Tj. Rejo, setiabudi, Kota Medan, Sumatera Utara 20128";"Jl. Perjuangan no. a5, Tj. Rejo, setiabudi, Kota Medan";"SUMATERA UTARA";"20128";"Indonesia";" 081375199058";"";"";"3.5721454";"98.6284515";"https://maps.google.com/?cid=0x0:0x4f5ef98f0d67699c";""
"cafe";"Toko";"UD. Killy";"99P3+HC7, Hilidundra, Kec. Lotu, Kabupaten Nias Utara, Sumatera Utara 22851";"Hilidundra, Kec. Lotu, Kabupaten Nias Utara";"SUMATERA UTARA";"22851";"Indonesia";"";"";"";"1.3864049";"97.3535553";"https://maps.google.com/?cid=0x0:0xba3fcd612932d0a7";""
"cafe";"Brunch";"Rumah Makan Mama Chatrine";"5H8R+W86, Jl. Nias Tengah, Hiliwaele II, Kec. Botomuzoi, Kabupaten Nias, Sumatera Utara 22851";"Jl. Nias Tengah, Hiliwaele II, Kec. Botomuzoi, Kabupaten Nias";"SUMATERA UTARA";"22851";"Indonesia";"";"";"";"1.1672921";"97.5907791";"https://maps.google.com/?cid=0x0:0x7e9ce2594cd1ac4";""
"cafe";"cafe";"A.soza";"Dusun 2 desa, Lasara Botomuzoi, Kec. Botomuzoi, Kabupaten Nias, Sumatera Utara 22854";"Lasara Botomuzoi, Kec. Botomuzoi, Kabupaten Nias";"SUMATERA UTARA";"22854";"Indonesia";"";"";"";"1.1750118";"97.5196337";"https://maps.google.com/?cid=0x0:0xb8a265d0c71961e7";""
"cafe";"Kedai Kopi";"Hilicafe";"7J9M+R2F, Ilir, Kec. Gunungsitoli, Kota Gunungsitoli, Sumatera Utara 22811";"Ilir, Kec. Gunungsitoli, Kota Gunungsitoli";"SUMATERA UTARA";"22811";"Indonesia";"";"";"";"1.2695558";"97.6326054";"https://maps.google.com/?cid=0x0:0xfcdaa7fac94a7ac";""
"cafe";"Kedai Kopi";"Tempat nongkrong";"6JCC+P24, Jl. Desa Hiligara, Hiligara, Kec. Gunungsitoli Sel., Kota Gunungsitoli, Sumatera Utara";"Kota Gunungsitoli, Sumatera Utara";"SUMATERA UTARA";"";"Indonesia";" 082242078008";"";"";"1.2217535";"97.6200666";"https://maps.google.com/?cid=0x0:0x641cf256c68e130";""
"cafe";"cafe";"Sumatera Utara 22872";"Kabupaten Nias, Sumatera Utara";"Kabupaten Nias, Sumatera Utara";"SUMATERA UTARA";"";"Indonesia";"";"";"";"1.0204278";"97.7742702";"https://maps.google.com/?cid=0x0:0x39c54a2144cb1830";""
"cafe";"Kafe";"Cafe Ivan Zega";"2QH7+W9W, Tetehosi, Kecamatan Idanogawo, Kabupaten Nias, Sumatera Utara 22872";"Tetehosi, Kecamatan Idanogawo, Kabupaten Nias";"SUMATERA UTARA";"22872";"Indonesia";"";"";"";"1.029866";"97.7634557";"https://maps.google.com/?cid=0x0:0xb25559151d918048";""
"cafe";"Kedai Kopi";"UD. Ningsih";"Jl. Pembangunan No.42-18, Tetehosi, Kecamatan Idanogawo, Kabupaten Nias, Sumatera Utara 22872";"Tetehosi, Kecamatan Idanogawo, Kabupaten Nias";"SUMATERA UTARA";"22872";"Indonesia";"";"";"";"1.0279692";"97.7741337";"https://maps.google.com/?cid=0x0:0xa8d4c22db98ea01a";""
"cafe";"Rumah Makan";"Warung Bg Zai";"5 Desa Hilina'a Tafu'o, Jl. Lintas Teluk Dalam No.KM. 41, Hilinaa Tafuo, Kecamatan Idanogawo, Kabupaten Nias, Sumatera Utara 22872";"Jl. Lintas Teluk Dalam No.KM. 41, Hilinaa Tafuo, Kecamatan Idanogawo, Kabupaten Nias";"SUMATERA UTARA";"22872";"Indonesia";" 085381847293";"";"";"1.0126592";"97.8052406";"https://maps.google.com/?cid=0x0:0xe73be54259a4b10f";""
"cafe";"Kedai Kopi";"Warung Terlalu Manis";"3RRF+H7W, Bozihona, Kecamatan Idanogawo, Kabupaten Nias, Sumatera Utara";"Kabupaten Nias, Sumatera Utara";"SUMATERA UTARA";"";"Indonesia";" 085261268827";"";"";"1.0914818";"97.8231982";"https://maps.google.com/?cid=0x0:0xb400ab171e1533d4";""
"cafe";"Restoran";"Kedai Tian";"Jl. Taman Bunga No.08, Tetehosi, Kecamatan Idanogawo, Kabupaten Nias, Sumatera Utara 22872";"Tetehosi, Kecamatan Idanogawo, Kabupaten Nias";"SUMATERA UTARA";"22872";"Indonesia";" 082272996434";"";"";"1.027672";"97.7745875";"https://maps.google.com/?cid=0x0:0xf3057860eaaf1b68";""
"cafe";"Kedai Kopi";"UD. Awal Karya (KOPI NIAS)";"Jl. Diponegoro No.52, Tetehosi, Kecamatan Idanogawo, Kabupaten Nias, Sumatera Utara 22872";"Tetehosi, Kecamatan Idanogawo, Kabupaten Nias";"SUMATERA UTARA";"22872";"Indonesia";" 081396581003";"";"";"1.0265131";"97.7713762";"https://maps.google.com/?cid=0x0:0xd30a2d66711729eb";""
"cafe";"Padang";"Rumah Makan Rifka Zai";"Jl. Diponegoro No.101, Ahedano, Kecamatan Idanogawo, Kabupaten Nias, Sumatera Utara 22872";"Ahedano, Kecamatan Idanogawo, Kabupaten Nias";"SUMATERA UTARA";"22872";"Indonesia";"";"";"";"1.0266139";"97.7723554";"https://maps.google.com/?cid=0x0:0xe7eca04e689f19e1";""
"cafe";"Minimarket";"Feriman gea";"3Q7R+66P, Maliwaa, Kecamatan Idanogawo, Kabupaten Nias, Sumatera Utara";"Kabupaten Nias, Sumatera Utara";"SUMATERA UTARA";"";"Indonesia";"";"";"";"1.0630806";"97.7905758";"https://maps.google.com/?cid=0x0:0x11c922f2b16ff661";""
"cafe";"Restoran";"Kedai Makan LINA";"Jl. Diponegoro No.61, Tetehosi, Kecamatan Idanogawo, Kabupaten Nias, Sumatera Utara 22872";"Tetehosi, Kecamatan Idanogawo, Kabupaten Nias";"SUMATERA UTARA";"22872";"Indonesia";" 085296835172";"";"";"1.026641";"97.7721985";"https://maps.google.com/?cid=0x0:0x49508f46aac5bad1";""
"cafe";"Rumah Kayu";"Biouti";"3RJ8+8X3, Biouti, Kecamatan Idanogawo, Kabupaten Nias, Sumatera Utara 22872";"Biouti, Kecamatan Idanogawo, Kabupaten Nias";"SUMATERA UTARA";"22872";"Indonesia";"";"";"";"1.0808023";"97.8164687";"https://maps.google.com/?cid=0x0:0x4a5c156dc64c921";""
"cafe";"Rumah Makan";"Warung Monggo Nias";"Warung Monggo, Jalan Lintas Teluk Dalam, Ahedano, Kecamatan Idanogawo, Kabupaten Nias, Sumatera Utara 22872";"Jalan Lintas Teluk Dalam, Ahedano, Kecamatan Idanogawo, Kabupaten Nias";"SUMATERA UTARA";"22872";"Indonesia";" 085359301524";"";"";"1.0178525";"97.7859587";"https://maps.google.com/?cid=0x0:0x9d78b5a50e27e79a";""
"cafe";"Pembangunan Perumahan";"AMA FEBRY ZEBUA";"2QHF+759, Tetehosi, Kecamatan Idanogawo, Kabupaten Nias, Sumatera Utara 22872";"Tetehosi, Kecamatan Idanogawo, Kabupaten Nias";"SUMATERA UTARA";"22872";"Indonesia";"";"";"";"1.0281636";"97.7729746";"https://maps.google.com/?cid=0x0:0xa50cf2a0c7d7e93";""
"cafe";"Kafe";"de' First Cafe  Resto";"Jl. Pancasila No.06, Hiliweto, Kec. Gido, Kabupaten Nias, Sumatera Utara 22871";"Hiliweto, Kec. Gido, Kabupaten Nias";"SUMATERA UTARA";"22871";"Indonesia";"";"";"";"1.117339";"97.7247143";"https://maps.google.com/?cid=0x0:0xd348f66d73a624ff";""
"cafe";"Restoran";"RM. TOBATABO";"2QG9+QQ6, Tetehosi, Kecamatan Idanogawo, Kabupaten Nias, Sumatera Utara 22872";"Tetehosi, Kecamatan Idanogawo, Kabupaten Nias";"SUMATERA UTARA";"22872";"Indonesia";" 085262308530";"";"";"1.0269024";"97.7694014";"https://maps.google.com/?cid=0x0:0xf3a12733cf872812";""
"cafe";"Rumah Makan";"UD Deddy waruwu";"Oladano, Kecamatan Idanogawo, Kabupaten Nias, Sumatera Utara 22872";"Kecamatan Idanogawo, Kabupaten Nias";"SUMATERA UTARA";"22872";"Indonesia";" 082275634564";"";"";"1.0126729";"97.757129";"https://maps.google.com/?cid=0x0:0xc357242faf860ce0";""
"cafe";"Kedai Kopi";"CAFE KHODA FEFU";"3F66+PVV, Gn. Baru, Kec. Moro'o, Kabupaten Nias Barat, Sumatera Utara 22862";"Gn. Baru, Kec. Moro'o, Kabupaten Nias Barat";"SUMATERA UTARA";"22862";"Indonesia";"";"";"";"1.0618633";"97.4621767";"https://maps.google.com/?cid=0x0:0x5cfe79fb390a747b";""
"cafe";"Warnet";"Vega168";"3RG3+564, Biouti, Kecamatan Idanogawo, Kabupaten Nias, Sumatera Utara";"Kabupaten Nias, Sumatera Utara";"SUMATERA UTARA";"";"Indonesia";"";"";"";"1.0753895";"97.8030901";"https://maps.google.com/?cid=0x0:0x3f93ddd6987e2fd1";""
"cafe";"Rumah Makan";"UD. REXAN (KEDAI MAKAN REXAN)";"Jl. Mbomboaukhu, Oladano, Kecamatan Idanogawo, Kabupaten Nias, Sumatera Utara 22872";"Oladano, Kecamatan Idanogawo, Kabupaten Nias";"SUMATERA UTARA";"22872";"Indonesia";" 081362162468";"";"";"1.0131211";"97.7575345";"https://maps.google.com/?cid=0x0:0xc4044f1d5116438e";""
"cafe";"Sekolah Menengah Atas";"Simpang SMN1 Idano Gawo";"3Q6V+V2H, Maliwaa, Kecamatan Idanogawo, Kabupaten Nias, Sumatera Utara 22872";"Maliwaa, Kecamatan Idanogawo, Kabupaten Nias";"SUMATERA UTARA";"22872";"Indonesia";"";"";"";"1.0621771";"97.792596";"https://maps.google.com/?cid=0x0:0xcc87fbb4f19b59c1";""
"cafe";"Rumah Makan";"WAROENG BANG JAGO";"3PHR+VRQ, Sisarahili Sogaeadu, Kec. Gido, Kabupaten Nias, Sumatera Utara 22871";"Sisarahili Sogaeadu, Kec. Gido, Kabupaten Nias";"SUMATERA UTARA";"22871";"Indonesia";" 085359553721";"";"";"1.0797142";"97.7421176";"https://maps.google.com/?cid=0x0:0xf7bae96e5353e6ed";""
"cafe";"Kafe";"Warkop Archer";"Jl. Merdeka No.41, Heliweto Gido, Kec. Sogae'adu, Kabupaten Nias, Sumatera Utara 22871";"Heliweto Gido, Kec. Sogae'adu, Kabupaten Nias";"SUMATERA UTARA";"22871";"Indonesia";"";"";"";"1.1191673";"97.7231416";"https://maps.google.com/?cid=0x0:0xa5923219b7e12019";""
"cafe";"cafe";"Kec. Ma'u";"Kabupaten Nias, Sumatera Utara";"Kabupaten Nias, Sumatera Utara";"SUMATERA UTARA";"";"Indonesia";"";"";"";"1.0167709";"97.6327641";"https://maps.google.com/?cid=0x0:0x610ae1b2430535ae";""
"cafe";"Kafe";"Ujung kota cafe";"FMXJ+5VV, Kedai Durian, Kec. Deli Tua, Kabupaten Deli Serdang, Sumatera Utara 20355";"Kedai Durian, Kec. Deli Tua, Kabupaten Deli Serdang";"SUMATERA UTARA";"20355";"Indonesia";" 081266668998";"";"";"3.497981";"98.6821691";"https://maps.google.com/?cid=0x0:0x935f39f26e001d9a";""
"cafe";"Kedai Kopi";"Cafe DuDu";"Graha Merah Putih, Jalan Putri Hijau Gedung, Sumatera Utara 20111";"Jalan Putri Hijau Gedung";"SUMATERA UTARA";"20111";"Indonesia";" 081375041863";"";"";"3.5932201";"98.6759207";"https://maps.google.com/?cid=0x0:0x2ac7898e1fd3c13b";""
"cafe";"Restoran";"CAFE RESTO JM2";"4XWR+P6Q, Jl. Aek Nabara - Negeri Lama, Perkebunan Pangkatan, Kec. Pangkatan, Kab. Labuhanbatu, Sumatera Utara 21462";"Jl. Aek Nabara - Negeri Lama, Perkebunan Pangkatan, Kec. Pangkatan, Kab. Labuhanbatu";"SUMATERA UTARA";"21462";"Indonesia";"";"";"";"2.1468257";"99.9906056";"https://maps.google.com/?cid=0x0:0x4791eedda526d4f7";""
"cafe";"Kafe";"Kafe Na2o";"Jl. Rumah Potong Hewan Link IX No.38, M A B A R, Kec. Medan Deli, Kota Medan, Sumatera Utara 20241";"M A B A R, Kec. Medan Deli, Kota Medan";"SUMATERA UTARA";"20241";"Indonesia";" 083169462652";"";"";"3.6565601";"98.674621";"https://maps.google.com/?cid=0x0:0xad149128af034478";""
"cafe";"Kedai Kopi";"TOMORO COFFEE - UMSU";"Jl. Kapten Muchtar Basri No.126, Glugur Darat II, Kec. Medan Tim., Kota Medan, Sumatera Utara 20238";"Glugur Darat II, Kec. Medan Tim., Kota Medan";"SUMATERA UTARA";"20238";"Indonesia";"";"";"";"3.6162812";"98.6759627";"https://maps.google.com/?cid=0x0:0xe9b9ed0ccbeba58";""
"cafe";"Kafe";"Coffee2Go";"Jl. Lkr. Tuktuk, Tuktuk Siadong, Simanindo, Kabupaten Samosir, Sumatera Utara 22395";"Tuktuk Siadong, Simanindo, Kabupaten Samosir";"SUMATERA UTARA";"22395";"Indonesia";" 082276004894";"";"";"2.6679768";"98.851282";"https://maps.google.com/?cid=0x0:0x484eefe6fb666567";""
"cafe";"Kafe";"Cafe Dudu Cabang Graha merah putih";"Jl. Karya Jaya No.226, Gedung Johor, Kec. Medan Johor, Kota Medan, Sumatera Utara 20147";"Gedung Johor, Kec. Medan Johor, Kota Medan";"SUMATERA UTARA";"20147";"Indonesia";" 081533743376";"";"";"3.5212366";"98.6761789";"https://maps.google.com/?cid=0x0:0xbf00c1de6673d187";""
"cafe";"Kedai Kopi";"Two Point Koffie";"I.II, Jl. Tengku Raja Muda, Petapahan, Kec. Lubuk Pakam, Kabupaten Deli Serdang, Sumatera Utara 20512";"Jl. Tengku Raja Muda, Petapahan, Kec. Lubuk Pakam, Kabupaten Deli Serdang";"SUMATERA UTARA";"20512";"Indonesia";" 082276533992";"";"";"3.5576645";"98.8684381";"https://maps.google.com/?cid=0x0:0xf7c94cef5e543683";""
"cafe";"Kedai Kopi";"KUPI TEUNGKU";"Jl. Tuamang No.15, Sidorejo Hilir, Kec. Medan Tembung, Kota Medan, Sumatera Utara 20222";"Sidorejo Hilir, Kec. Medan Tembung, Kota Medan";"SUMATERA UTARA";"20222";"Indonesia";" 085223268232";"";"";"3.6134848";"98.6956328";"https://maps.google.com/?cid=0x0:0x7ddf4f62f277e34b";""
"cafe";"Kedai Kopi";"TOMORO COFFEE RUKO PASAR 3";"Jl. Pasar III No.145, Tegal Rejo, Kec. Medan Perjuangan, Kota Medan, Sumatera Utara 20237";"Tegal Rejo, Kec. Medan Perjuangan, Kota Medan";"SUMATERA UTARA";"20237";"Indonesia";"";"";"";"3.616432";"98.690784";"https://maps.google.com/?cid=0x0:0x31b013055c4a6fbf";""
"cafe";"Kafe";"Coffee Marroan";"Jalan Tritura No.71 H - I, Suka Maju, Kec. Medan Johor, Kota Medan, Sumatera Utara 20146";"Suka Maju, Kec. Medan Johor, Kota Medan";"SUMATERA UTARA";"20146";"Indonesia";" 081375740303";"";"";"3.5383362";"98.6925036";"https://maps.google.com/?cid=0x0:0xf628f6e0af8f1ca6";""
"cafe";"Kafe";"Nusa Dua Coffee  Resto";"Ex Rumah sakit Tembakau deli, Jl. Putri Hijau Dalam, Kesawan, Kec. Medan Bar., Kota Medan, Sumatera Utara 20111";"Jl. Putri Hijau Dalam, Kesawan, Kec. Medan Bar., Kota Medan";"SUMATERA UTARA";"20111";"Indonesia";" 08116333086";"";"";"3.5976611";"98.6745626";"https://maps.google.com/?cid=0x0:0xde4105e9c04b645a";""
"cafe";"Kedai Kopi";"Warkop Samosir";"JRMM+QQP, Unnamed Road, Baru, Kec. Batang Kuis, Kabupaten Deli Serdang, Sumatera Utara 20552";"Unnamed Road, Baru, Kec. Batang Kuis, Kabupaten Deli Serdang";"SUMATERA UTARA";"20552";"Indonesia";"";"";"";"3.6344728";"98.8344401";"https://maps.google.com/?cid=0x0:0xcf43520b7dc6e503";""
"cafe";"Kedai Kopi";"Nirwan";"3JGR+4FQ, Lewa-lewa, Kec. Ma'u, Kabupaten Nias, Sumatera Utara";"Kabupaten Nias, Sumatera Utara";"SUMATERA UTARA";"";"Indonesia";"";"";"";"1.0753271";"97.6412489";"https://maps.google.com/?cid=0x0:0x40c5ddbe6d314b4f";""
"cafe";"Kedai Kopi";"De’ Cafe ( Coffee - Live music-Fooddrink)";"Jl. Petunia Raya No.8, Namu Gajah, Kec. Medan Tuntungan, Kota Medan, Sumatera Utara 20136";"Namu Gajah, Kec. Medan Tuntungan, Kota Medan";"SUMATERA UTARA";"20136";"Indonesia";" 08116261600";"";"";"3.5191562";"98.6013243";"https://maps.google.com/?cid=0x0:0xad76cd3ae7051a8d";""
"cafe";"Kafe seni";"CAFE MJ";"Jl. Pembangunan No.109-111, Padang Bulan, Kec. Medan Baru, Kota Medan, Sumatera Utara 20155";"Padang Bulan, Kec. Medan Baru, Kota Medan";"SUMATERA UTARA";"20155";"Indonesia";" 082167782144";"";"";"3.561244";"98.652129";"https://maps.google.com/?cid=0x0:0x2565749d073a2af8";""
"cafe";"Restoran";"Barokah358 | One Stop Service";"Jl. Lintas Medan - Tj. Balai KM. 12, Simpang Kawat, Sipaku Area, Simpang Empat, Sipaku Area, Simpang Empat, Asahan Regency, North Sumatra 21271";"Simpang Kawat, Sipaku Area, Simpang Empat, Sipaku Area, Simpang Empat, Asahan Regency";"SUMATERA UTARA";"21271";"Indonesia";" 08116522358";"";"";"2.919557";"99.71947";"https://maps.google.com/?cid=0x0:0x18aae20b8250417a";""
"cafe";"Kedai Kopi";"Waiting List Coffee";"Jl. Berdikari No.116, Padang Bulan, Kec. Medan Baru, Kota Medan, Sumatera Utara 20155";"Padang Bulan, Kec. Medan Baru, Kota Medan";"SUMATERA UTARA";"20155";"Indonesia";" 082161566692";"";"";"3.5557201";"98.6527298";"https://maps.google.com/?cid=0x0:0xb619284d0a2e53ea";""
"cafe";"Kafe";"Dovers cafe  lounge";"komplek cbd, polonia H1, Suka Damai, Kec. Medan Polonia, Kota Medan, Sumatera Utara 20219";"polonia H1, Suka Damai, Kec. Medan Polonia, Kota Medan";"SUMATERA UTARA";"20219";"Indonesia";" 0895328436108";"";"";"3.560793";"98.676587";"https://maps.google.com/?cid=0x0:0x91e634ff9eeed919";""
"cafe";"Kafe";"d'Roez Coffee";"Jl. Ngumban Surbakti No.58, Sempakata, Kec. Medan Selayang, Kota Medan, Sumatera Utara 20131";"Sempakata, Kec. Medan Selayang, Kota Medan";"SUMATERA UTARA";"20131";"Indonesia";" 081376840808";"";"";"3.5409105";"98.634641";"https://maps.google.com/?cid=0x0:0xf352b32f3f9370f8";""
"cafe";"Kafe";"Cafe Suci(nobar+wifi)";"JM6J+264, Jl. KH. Syeikh Abdul Wahab Rokan, Durian, Kec. Medan Tim., Kota Medan, Sumatera Utara 20236";"Jl. KH. Syeikh Abdul Wahab Rokan, Durian, Kec. Medan Tim., Kota Medan";"SUMATERA UTARA";"20236";"Indonesia";" 06166882358";"";"";"3.6100118";"98.6805767";"https://maps.google.com/?cid=0x0:0x19fc9860518227bb";""
"cafe";"Kedai Kopi";"Rumah Makan UD. GISEL";"2JWP+P8W, Jalan Nias Tengah, Dusun IV Leweuguru, Lasara Siwalu Banua, Kec. Ma'u, Kabupaten Nias";"Kabupaten Nias, Sumatera Utara";"SUMATERA UTARA";"";"Indonesia";"";"";"";"1.0468555";"97.6358249";"https://maps.google.com/?cid=0x0:0xfb01e3d9af4e472e";""
"cafe";"Kedai Kopi";"Point Cafe Mandala by Pass 2";"Bantan, Kec. Medan Tembung, Kota Medan, Sumatera Utara 20223";"Kec. Medan Tembung, Kota Medan";"SUMATERA UTARA";"20223";"Indonesia";" 0211500280";"";"";"3.5941349";"98.7119362";"https://maps.google.com/?cid=0x0:0x9359930818dfbe02";""
"cafe";"Kedai Kopi";"CS. Pemuda 45(kedai kopi)";"Jl. Besar Simpang Empat, Perkebunan Brussel, Kec. Marbau, Kabupaten Labuhanbatu Utara, Sumatera Utara 21452";"Perkebunan Brussel, Kec. Marbau, Kabupaten Labuhanbatu Utara";"SUMATERA UTARA";"21452";"Indonesia";" 082364404480";"";"";"2.2717195";"99.8461552";"https://maps.google.com/?cid=0x0:0x45740af9a86ee53e";""
"cafe";"Kafe";"Cafe Demang";"Sitanggor, Kec. Muara, Kabupaten Tapanuli Utara, Sumatera Utara 22476";"Kec. Muara, Kabupaten Tapanuli Utara";"SUMATERA UTARA";"22476";"Indonesia";" 08116218578";"";"";"2.3223035";"98.9542537";"https://maps.google.com/?cid=0x0:0xec386cbf6ab9e07c";""
"cafe";"Rumah Makan";"Cafe Gaul";"38X4+V54, Jl. Sangnawaluh Kerasaan, Pematang Kerasaan Rejo, Kec. Bandar, Kabupaten Simalungun, Sumatera Utara 21162";"Jl. Sangnawaluh Kerasaan, Pematang Kerasaan Rejo, Kec. Bandar, Kabupaten Simalungun";"SUMATERA UTARA";"21162";"Indonesia";"";"";"";"3.099632";"99.3054651";"https://maps.google.com/?cid=0x0:0x34f4fec73187e2a";""
"cafe";"Kafe";"Cafe Mae";"Q362+CMR, Jl. Garuda V, Mangunjaya, Kec. Tambun Sel., Kabupaten Bekasi, Jawa Barat 17510";"Jl. Garuda V, Mangunjaya, Kec. Tambun Sel., Kabupaten Bekasi";"SUMATERA UTARA";"17510";"Indonesia";" 089635406662";"";"";"-6.238876";"107.0516476";"https://maps.google.com/?cid=0x0:0x72bedc766b02b600";""
"cafe";"Kedai Kopi";"Ma2nk Coffee";"RQ75+R94, RT.7/RW.3, Kedoya Sel., Kec. Kb. Jeruk, Kota Jakarta Barat, Daerah Khusus Ibukota Jakarta 11520";"RT.7/RW.3, Kedoya Sel., Kec. Kb. Jeruk, Kota Jakarta Barat";"SUMATERA UTARA";"11520";"Indonesia";"";"";"";"-6.1854938";"106.7584567";"https://maps.google.com/?cid=0x0:0xada2a069a1334da";""
"cafe";"cafe";"Sogaeadu";"Kec. Sogae'adu, Kabupaten Nias, Sumatera Utara";"Kabupaten Nias, Sumatera Utara";"SUMATERA UTARA";"";"Indonesia";"";"";"";"1.1024643";"97.7104428";"https://maps.google.com/?cid=0x0:0x1b1f447319f0c61a";""
"cafe";"cafe";"Kec. Sogae'adu";"Kabupaten Nias, Sumatera Utara";"Kabupaten Nias, Sumatera Utara";"SUMATERA UTARA";"";"Indonesia";"";"";"";"1.1175767";"97.7250639";"https://maps.google.com/?cid=0x0:0x86713347704e99ea";""
"cafe";"cafe";"UD. ANGEL";"3PRP+XCM, Sisarahili Sogaeadu, Kec. Sogae'adu, Kabupaten Nias, Sumatera Utara 22871";"Sisarahili Sogaeadu, Kec. Sogae'adu, Kabupaten Nias";"SUMATERA UTARA";"22871";"Indonesia";"";"";"";"1.0924562";"97.7360611";"https://maps.google.com/?cid=0x0:0xc4359d88312bc243";""
"cafe";"cafe";"Somolo-Molo";"Kec. Somolo-Molo, Kabupaten Nias, Sumatera Utara";"Kabupaten Nias, Sumatera Utara";"SUMATERA UTARA";"";"Indonesia";"";"";"";"1.0609605";"97.6900846";"https://maps.google.com/?cid=0x0:0x1168da738d45cc33";""
"cafe";"Kedai Kopi";"Solomio Coffee  Baked";"Jl. Kemang Timur, Pejaten Bar., Ps. Minggu, Kota Jakarta Selatan, Daerah Khusus Ibukota Jakarta";"Kota Jakarta Selatan, Daerah Khusus Ibukota Jakarta";"SUMATERA UTARA";"";"Indonesia";" 081910914178";"";"";"-6.2712118";"106.8234557";"https://maps.google.com/?cid=0x0:0xace46bb06f63c67c";""
"cafe";"Kafe";"BAKED. KEMANG";"Jl. Kemang Utara No.39a, Bangka, Kec. Mampang Prpt., Kota Jakarta Selatan, Daerah Khusus Ibukota Jakarta 12730";"Bangka, Kec. Mampang Prpt., Kota Jakarta Selatan";"SUMATERA UTARA";"12730";"Indonesia";" 087787627769";"";"";"-6.2579365";"106.821045";"https://maps.google.com/?cid=0x0:0x3d1847031aa75665";""
"cafe";"cafe";"Kec. Ulugawo";"Kabupaten Nias, Sumatera Utara";"Kabupaten Nias, Sumatera Utara";"SUMATERA UTARA";"";"Indonesia";"";"";"";"0.9857839";"97.7164165";"https://maps.google.com/?cid=0x0:0x7230b2fec359e534";""
"cafe";"Kafe";"Cafe Ivan Zega";"2QH7+W9W, Tetehosi, Kecamatan Idanogawo, Kabupaten Nias, Sumatera Utara 22872";"Tetehosi, Kecamatan Idanogawo, Kabupaten Nias";"SUMATERA UTARA";"22872";"Indonesia";"";"";"";"1.029866";"97.7634557";"https://maps.google.com/?cid=0x0:0xb25559151d918048";""
"cafe";"Kedai Kopi";"Lapo i.kiri halawa";"XP5P+FJC, Fatodano, Kec. Ulugawo, Kabupaten Nias, Sumatera Utara 22861";"Fatodano, Kec. Ulugawo, Kabupaten Nias";"SUMATERA UTARA";"22861";"Indonesia";" 082191989633";"";"";"0.9583545";"97.7364805";"https://maps.google.com/?cid=0x0:0xa4d67874cd3367a7";""
"cafe";"Rumah Makan";"WAROENG BANG JAGO";"3PHR+VRQ, Sisarahili Sogaeadu, Kec. Gido, Kabupaten Nias, Sumatera Utara 22871";"Sisarahili Sogaeadu, Kec. Gido, Kabupaten Nias";"SUMATERA UTARA";"22871";"Indonesia";" 085359553721";"";"";"1.0797142";"97.7421176";"https://maps.google.com/?cid=0x0:0xf7bae96e5353e6ed";""
"cafe";"Kedai Kopi";"Kedai Paci Ome";"WMHP+4RQ, Marao, Kecamatan Ulunoyo, Kabupaten Nias Selatan, Sumatera Utara 22861";"Marao, Kecamatan Ulunoyo, Kabupaten Nias Selatan";"SUMATERA UTARA";"22861";"Indonesia";" 082366750657";"";"";"0.9278328";"97.6871151";"https://maps.google.com/?cid=0x0:0xd3457171b8ae4e72";""
"cafe";"Kedai Kopi";"UD. Awal Karya (KOPI NIAS)";"Jl. Diponegoro No.52, Tetehosi, Kecamatan Idanogawo, Kabupaten Nias, Sumatera Utara 22872";"Tetehosi, Kecamatan Idanogawo, Kabupaten Nias";"SUMATERA UTARA";"22872";"Indonesia";" 081396581003";"";"";"1.0265131";"97.7713762";"https://maps.google.com/?cid=0x0:0xd30a2d66711729eb";""
"cafe";"Rumah Makan";"UD. LO'AFODA";"Dusun I Desa, Hiliotalua, Kec. Gido, Kabupaten Nias, Sumatera Utara 22871";"Hiliotalua, Kec. Gido, Kabupaten Nias";"SUMATERA UTARA";"22871";"Indonesia";" 085275714047";"";"";"1.0498724";"97.705333";"https://maps.google.com/?cid=0x0:0x2bfcb0ed9e5b94fc";""
"cafe";"Toko";"Ahedanō";"2QF8+2JQ, Jl. Mbomboaukhu dusun 1, Ahedano, Kecamatan Idanogawo, Kabupaten Nias, Sumatera Utara 22872";"Jl. Mbomboaukhu dusun 1, Ahedano, Kecamatan Idanogawo, Kabupaten Nias";"SUMATERA UTARA";"22872";"Indonesia";" 082241492864";"";"";"1.0225767";"97.7666073";"https://maps.google.com/?cid=0x0:0xc16089fa91f16529";""
"cafe";"Padang";"Rumah Makan Rifka Zai";"Jl. Diponegoro No.101, Ahedano, Kecamatan Idanogawo, Kabupaten Nias, Sumatera Utara 22872";"Ahedano, Kecamatan Idanogawo, Kabupaten Nias";"SUMATERA UTARA";"22872";"Indonesia";"";"";"";"1.0266139";"97.7723554";"https://maps.google.com/?cid=0x0:0xe7eca04e689f19e1";""
"cafe";"Restoran";"Kedai Tian";"Jl. Taman Bunga No.08, Tetehosi, Kecamatan Idanogawo, Kabupaten Nias, Sumatera Utara 22872";"Tetehosi, Kecamatan Idanogawo, Kabupaten Nias";"SUMATERA UTARA";"22872";"Indonesia";" 082272996434";"";"";"1.027672";"97.7745875";"https://maps.google.com/?cid=0x0:0xf3057860eaaf1b68";""
"cafe";"Rumah Makan";"Rumah sib. Boy zai";"2M5X+95W, Iodano, Kec. Somolo-Molo, Kabupaten Nias, Sumatera Utara 22872";"Iodano, Kec. Somolo-Molo, Kabupaten Nias";"SUMATERA UTARA";"22872";"Indonesia";"";"";"";"1.0084766";"97.6979449";"https://maps.google.com/?cid=0x0:0x65de04f06dfbe45f";""
"cafe";"Kedai Kopi";"Kopi Salman Super";"Jl. Diponegoro Pasar No.52, Tetehosi, Kecamatan Idanogawo, Kabupaten Nias, Sumatera Utara 22872";"Tetehosi, Kecamatan Idanogawo, Kabupaten Nias";"SUMATERA UTARA";"22872";"Indonesia";" 081396581003";"";"";"1.0265131";"97.7713762";"https://maps.google.com/?cid=0x0:0x2e9fd4b2d28b7b5d";""
"cafe";"Rumah Makan";"Kedai Bram's_94";"Dusun 1, Holi, Kec. Ulugawo, Kabupaten Nias, Sumatera Utara 22872";"Holi, Kec. Ulugawo, Kabupaten Nias";"SUMATERA UTARA";"22872";"Indonesia";" 085260570774";"";"";"0.9836471";"97.7161893";"https://maps.google.com/?cid=0x0:0xbd425a915f52298a";""
"cafe";"Rumah Makan";"UD. REXAN (KEDAI MAKAN REXAN)";"Jl. Mbomboaukhu, Oladano, Kecamatan Idanogawo, Kabupaten Nias, Sumatera Utara 22872";"Oladano, Kecamatan Idanogawo, Kabupaten Nias";"SUMATERA UTARA";"22872";"Indonesia";" 081362162468";"";"";"1.0131211";"97.7575345";"https://maps.google.com/?cid=0x0:0xc4044f1d5116438e";""
"cafe";"Rumah Makan";"UD Deddy waruwu";"Oladano, Kecamatan Idanogawo, Kabupaten Nias, Sumatera Utara 22872";"Kecamatan Idanogawo, Kabupaten Nias";"SUMATERA UTARA";"22872";"Indonesia";" 082275634564";"";"";"1.0126729";"97.757129";"https://maps.google.com/?cid=0x0:0xc357242faf860ce0";""
"cafe";"Kedai Kopi";"kedai tuak";"2QVM+4X9, Bobozioli Loloanaa, Kecamatan Idanogawo, Kabupaten Nias, Sumatera Utara 22872";"Bobozioli Loloanaa, Kecamatan Idanogawo, Kabupaten Nias";"SUMATERA UTARA";"22872";"Indonesia";"";"";"";"1.0427806";"97.7849702";"https://maps.google.com/?cid=0x0:0x6cdc7d3d9bcb212d";""
"cafe";"Restoran";"Kedai Makan LINA";"Jl. Diponegoro No.61, Tetehosi, Kecamatan Idanogawo, Kabupaten Nias, Sumatera Utara 22872";"Tetehosi, Kecamatan Idanogawo, Kabupaten Nias";"SUMATERA UTARA";"22872";"Indonesia";" 085296835172";"";"";"1.026641";"97.7721985";"https://maps.google.com/?cid=0x0:0x49508f46aac5bad1";""
"cafe";"Kedai Kopi";"Monang lawolo";"3M6R+92P, Somolo-Molo, Kec. Somolo-Molo, Kabupaten Nias, Sumatera Utara";"Kabupaten Nias, Sumatera Utara";"SUMATERA UTARA";"";"Indonesia";"";"";"";"1.0609605";"97.6900846";"https://maps.google.com/?cid=0x0:0xc273b34c8d6e8c3";""
"cafe";"Warnet";"Maryanus Lawolo";"3P62+H57, Somolo-Molo, Kec. Somolo-Molo, Kabupaten Nias, Sumatera Utara 22871";"Somolo-Molo, Kec. Somolo-Molo, Kabupaten Nias";"SUMATERA UTARA";"22871";"Indonesia";" 085262868855";"";"";"1.0614133";"97.7004138";"https://maps.google.com/?cid=0x0:0x2e8940550e7329a4";""
"cafe";"Makanan Kecil";"Kedai Nasi Mak Boy";"Jl. Arah Idanogawo No.Km. 28 5, Saiwahili Hiliadulo, Kecamatan Idanogawo, Kabupaten Nias, Sumatera Utara 22871";"Saiwahili Hiliadulo, Kecamatan Idanogawo, Kabupaten Nias";"SUMATERA UTARA";"22871";"Indonesia";" 082210497577";"";"";"1.0593222";"97.7552399";"https://maps.google.com/?cid=0x0:0xf01feaf2d0bf3216";""
"cafe";"Bar";"Tempat nongkrong wanzun and kawan-kawan";"3PGV+MVX, Sisarahili Sogaeadu, Kec. Sogae'adu, Kabupaten Nias, Sumatera Utara 22871";"Sisarahili Sogaeadu, Kec. Sogae'adu, Kabupaten Nias";"SUMATERA UTARA";"22871";"Indonesia";"";"";"";"1.0767362";"97.7447355";"https://maps.google.com/?cid=0x0:0x8aace9f238cce6c9";""
