Category;Real Category;Business Name;Address;City;State;Postal Code;Country;Phone;Email;Website;Latitude;Longitude;Map Link;Details Link
"building materials";"building materials";"Sumatera Utara 22851";"Sumatera Utara";"Sumatera Utara";"SUMATERA UTARA";"";"Indonesia";"";"";"";"1.2976797";"97.330053";"https://maps.google.com/?cid=0x0:0xb3058656cf8eec8e";""
"building materials";"Sekolah";"Ombelata ulu";"Jl. Elang I, Ombolata Ulu, Kec. Gunungsitoli, Kota Gunungsitoli, Sumatera Utara";"Kota Gunungsitoli, Sumatera Utara";"SUMATERA UTARA";"";"Indonesia";" 085270925384";"";"";"1.3103813";"97.6089595";"https://maps.google.com/?cid=0x0:0xb8397e83cda6db56";""
"building materials";"Toko Bahan Bangunan";"Toko Bahan Bangunan Van";"WVPC+475, Sisarahili, Kec. Bawolato, Kabupaten Nias, Sumatera Utara";"Kabupaten Nias, Sumatera Utara";"SUMATERA UTARA";"";"Indonesia";" 083114785308";"";"";"0.9352594";"97.8707382";"https://maps.google.com/?cid=0x0:0x64e5df789f52852c";""
"building materials";"Toko Bahan Bangunan";"UD 251217";"Desa, Sisarahili, Kec. Bawolato, Gunungsitoli, Sumatera Utara 22876";"Sisarahili, Kec. Bawolato, Gunungsitoli";"SUMATERA UTARA";"22876";"Indonesia";" 085213921102";"";"";"0.932702";"97.8722165";"https://maps.google.com/?cid=0x0:0xe34a240be526a635";""
"building materials";"Toko Bahan Bangunan";"SIAMON GROUP (PETI MATI  BATAKO)";"98MW+QG3, Hilidundra, Kec. Lotu, Kabupaten Nias Utara, Sumatera Utara 22851";"Hilidundra, Kec. Lotu, Kabupaten Nias Utara";"SUMATERA UTARA";"22851";"Indonesia";" 085329716866";"";"";"1.3843921";"97.3463042";"https://maps.google.com/?cid=0x0:0x68cef3331160ab0d";""
"building materials";"Toko Bahan Bangunan";"Toko Bangunan Indo teknik Karya Baru";"7JP7+532, Saombo, Kec. Gunungsitoli, Kota Gunungsitoli, Sumatera Utara";"Kota Gunungsitoli, Sumatera Utara";"SUMATERA UTARA";"";"Indonesia";" 083186603738";"";"";"1.2853834";"97.6126406";"https://maps.google.com/?cid=0x0:0xa57b2f8afbafa993";""
"building materials";"Toko Bahan Bangunan";"UD. UMBU HARAZAKI";"Jl. Arah Nias Utara No.504, Afia, Kec. Gunungsitoli Utara, Kota Gunungsitoli, Sumatera Utara 22851";"Afia, Kec. Gunungsitoli Utara, Kota Gunungsitoli";"SUMATERA UTARA";"22851";"Indonesia";"";"";"";"1.3738691";"97.5588053";"https://maps.google.com/?cid=0x0:0x5b315db80b8af2c8";""
"building materials";"Toko Bahan Bangunan";"Bata Pres Nias Santo Lase";"Iraono Lase, Kec. Gunungsitoli Alo'oa, Kota Gunungsitoli, Sumatera Utara 22851";"Kec. Gunungsitoli Alo'oa, Kota Gunungsitoli";"SUMATERA UTARA";"22851";"Indonesia";" 082233533407";"";"";"1.3114966";"97.5733412";"https://maps.google.com/?cid=0x0:0xb9e5b7fcc4157eed";""
"building materials";"Toko Alat-Alat";"UD. Start Jaya";"Jl. Yos Sudarso Ujung No.KM. 5,6, Hili Hao, Kec. Gunungsitoli, Kota Gunungsitoli, Sumatera Utara";"Kota Gunungsitoli, Sumatera Utara";"SUMATERA UTARA";"";"Indonesia";" 081231645392";"";"";"1.3320776";"97.5957471";"https://maps.google.com/?cid=0x0:0xb80213d4744667a1";""
"building materials";"Toko Bahan Bangunan";"Ud Van";"Desa, sisarahili, Kec. Bawolato, Kabupaten Nias, Sumatera Utara 21185";"sisarahili, Kec. Bawolato, Kabupaten Nias";"SUMATERA UTARA";"21185";"Indonesia";" 081315254608";"";"";"0.9352693";"97.8708111";"https://maps.google.com/?cid=0x0:0xacfb58b1ecb3f2d7";""
"building materials";"Toko Bahan Bangunan";"Bintang Gemilang";"8J74+PGQ, Jl. Yos Sudarso Ujung, Ombolata Ulu, Kec. Gunungsitoli, Kota Gunungsitoli, Sumatera Utara";"Kota Gunungsitoli, Sumatera Utara";"SUMATERA UTARA";"";"Indonesia";" 082363345222";"";"";"1.3143268";"97.6063735";"https://maps.google.com/?cid=0x0:0xbd93f14995b591";""
"building materials";"Toko Bahan Bangunan";"Toko Material Bangunan Daniel";"5HW9+W7R, Dahadano Botombawo, Kec. HiliSerangkai, Kabupaten Nias, Sumatera Utara 22851";"Dahadano Botombawo, Kec. HiliSerangkai, Kabupaten Nias";"SUMATERA UTARA";"22851";"Indonesia";" 083114785308";"";"";"1.1975201";"97.5674987";"https://maps.google.com/?cid=0x0:0x5ac67810e5b018cd";""
"building materials";"Toko Bahan Bangunan";"UD. ZULFAN";"Hili Hao, Kec. Gunungsitoli, Kota Gunungsitoli, Sumatera Utara";"Kota Gunungsitoli, Sumatera Utara";"SUMATERA UTARA";"";"Indonesia";"";"";"";"1.3315433";"97.5960085";"https://maps.google.com/?cid=0x0:0xa85b7c1070ec1d4a";""
"building materials";"Toko Bahan Bangunan";"Toko ANEKA BANGUNAN";"depan rumah makan beringin baru, Jl. Sirao No.6, Saombo, Kec. Gunungsitoli, Kabupaten Nias, Sumatera Utara";"Kabupaten Nias, Sumatera Utara";"SUMATERA UTARA";"";"Indonesia";" 081231645392";"";"";"1.2903411";"97.6158857";"https://maps.google.com/?cid=0x0:0x53ca275b69ef0d2c";""
"building materials";"building materials";"UD. Berkat";"5J9F+GFQ, Sifalaete, Kec. GunungSitoli Idanoi, Kota Gunungsitoli, Sumatera Utara 22871";"Sifalaete, Kec. GunungSitoli Idanoi, Kota Gunungsitoli";"SUMATERA UTARA";"22871";"Indonesia";"";"";"";"1.1688427";"97.6237258";"https://maps.google.com/?cid=0x0:0x15f6da7c7a1bfeb6";""
"building materials";"Toko Bahan Bangunan";"FBC";"CF2W+FQV, Hilimbosi, Kec. Sitolu Ori, Kabupaten Nias Utara, Sumatera Utara 22852";"Hilimbosi, Kec. Sitolu Ori, Kabupaten Nias Utara";"SUMATERA UTARA";"22852";"Indonesia";"";"";"";"1.4012425";"97.4969313";"https://maps.google.com/?cid=0x0:0xcb77b2eaf66bbec0";""
"building materials";"Toko Bahan Bangunan";"Gudang(Ud.Nias bersama)";"99Q5+5QW, Hilidundra, Kec. Lotu, Kabupaten Nias Utara, Sumatera Utara";"Kabupaten Nias Utara, Sumatera Utara";"SUMATERA UTARA";"";"Indonesia";"";"";"";"1.3879875";"97.3594531";"https://maps.google.com/?cid=0x0:0xc0ff55daf11469c4";""
"building materials";"Toko Bahan Bangunan";"UD. DELRICH";"588J+C6, Ononamolo Tumula, Kec. Alasa, Kabupaten Nias Utara, Sumatera Utara";"Kabupaten Nias Utara, Sumatera Utara";"SUMATERA UTARA";"";"Indonesia";" 081265566528";"";"";"1.1660829";"97.3306281";"https://maps.google.com/?cid=0x0:0x8bb8a57f86f3580e";""
"building materials";"Toko";"UD. Yosef";"WQWX+QW8, Sifaoroasi Uluhou, Kec. Bawolato, Kabupaten Nias, Sumatera Utara 22876";"Sifaoroasi Uluhou, Kec. Bawolato, Kabupaten Nias";"SUMATERA UTARA";"22876";"Indonesia";" 081231645392";"";"";"0.9471454";"97.7998943";"https://maps.google.com/?cid=0x0:0x509a2b1855e2ff60";""
"building materials";"Toko Bahan Bangunan";"U D. S I A M O N";"9C9H+7FM Sisarahili, Esiwa, Kec. Namohalu Esiwa, Kabupaten Nias Utara, Sumatera Utara";"Kabupaten Nias Utara, Sumatera Utara";"SUMATERA UTARA";"";"Indonesia";" 081287458656";"";"";"1.3682203";"97.4286806";"https://maps.google.com/?cid=0x0:0xc6c824ee453ebb2a";""
"building materials";"building materials";"Kec. Bawolato";"Kabupaten Nias, Sumatera Utara";"Kabupaten Nias, Sumatera Utara";"SUMATERA UTARA";"";"Indonesia";"";"";"";"0.9830852";"97.8424596";"https://maps.google.com/?cid=0x0:0x4039d80b220db60";""
"building materials";"Toko";"UD. SUMBER BERKAT";"Desa sirahia, Hilimbowo, Sumatera Utara 22865";"Hilimbowo";"SUMATERA UTARA";"22865";"Indonesia";" 081287458656";"";"";"0.8987359";"97.8200658";"https://maps.google.com/?cid=0x0:0x8291841e69f5c6e6";""
"building materials";"Pemasok Pipa";"Surya Utama Metalindo PT.";"Jl. Gunung Sahari Raya no.1 Mangga Dua Square lt 2 blok C 61, RT.11/RW.6, Ancol, Kec. Pademangan, Jkt Utara, Daerah Khusus Ibukota Jakarta 14420";"RT.11/RW.6, Ancol, Kec. Pademangan, Jkt Utara";"SUMATERA UTARA";"14420";"Indonesia";" 082310999956";"";"";"-6.1387824";"106.8314329";"https://maps.google.com/?cid=0x0:0x213f9340f3f4865";""
"building materials";"Kontraktor Insulasi";"PT Tali Rejeki";"Jl. Taruma Jaya No.11, Setia Asih, Kec. Tarumajaya, Kota Bks, Jawa Barat 17215";"Setia Asih, Kec. Tarumajaya, Kota Bks";"SUMATERA UTARA";"17215";"Indonesia";" 02122889956";"";"";"-6.1652412";"106.9900241";"https://maps.google.com/?cid=0x0:0x15898fadc067eab7";""
"building materials";"building materials";"Sumatera Utara 22876";"Kec. Bawolato, Kabupaten Nias, Sumatera Utara";"Kabupaten Nias, Sumatera Utara";"SUMATERA UTARA";"";"Indonesia";"";"";"";"0.9634714";"97.8177601";"https://maps.google.com/?cid=0x0:0xbd072e1dfaa20192";""
"building materials";"Toko Bahan Bangunan";"Toko Bahan Bangunan Van";"WVPC+475, Sisarahili, Kec. Bawolato, Kabupaten Nias, Sumatera Utara";"Kabupaten Nias, Sumatera Utara";"SUMATERA UTARA";"";"Indonesia";" 083114785308";"";"";"0.9352594";"97.8707382";"https://maps.google.com/?cid=0x0:0x64e5df789f52852c";""
"building materials";"Toko Bahan Bangunan";"UD 251217";"Desa, Sisarahili, Kec. Bawolato, Gunungsitoli, Sumatera Utara 22876";"Sisarahili, Kec. Bawolato, Gunungsitoli";"SUMATERA UTARA";"22876";"Indonesia";" 085213921102";"";"";"0.932702";"97.8722165";"https://maps.google.com/?cid=0x0:0xe34a240be526a635";""
"building materials";"Toko Bahan Bangunan";"Ud Van";"Desa, sisarahili, Kec. Bawolato, Kabupaten Nias, Sumatera Utara 21185";"sisarahili, Kec. Bawolato, Kabupaten Nias";"SUMATERA UTARA";"21185";"Indonesia";" 081315254608";"";"";"0.9352693";"97.8708111";"https://maps.google.com/?cid=0x0:0xacfb58b1ecb3f2d7";""
"building materials";"Toko";"UD. SUMBER BERKAT";"Desa sirahia, Hilimbowo, Sumatera Utara 22865";"Hilimbowo";"SUMATERA UTARA";"22865";"Indonesia";" 081287458656";"";"";"0.8987359";"97.8200658";"https://maps.google.com/?cid=0x0:0x8291841e69f5c6e6";""
"building materials";"building materials";"Kec. Bawolato";"Kabupaten Nias, Sumatera Utara";"Kabupaten Nias, Sumatera Utara";"SUMATERA UTARA";"";"Indonesia";"";"";"";"0.9830852";"97.8424596";"https://maps.google.com/?cid=0x0:0x4039d80b220db60";""
"building materials";"building materials";"Sumatera Utara 22815";"Sumatera Utara";"Sumatera Utara";"SUMATERA UTARA";"";"Indonesia";"";"";"";"1.1349561";"97.5572231";"https://maps.google.com/?cid=0x0:0x363d3d935f4724dd";""
"building materials";"Toko Bahan Bangunan";"SANGEHAO";"4H3J+3C7, Jl. Gunungsitoli, Lolofaoso, Kec. Lolofitu Moi, Kabupaten Nias Barat, Sumatera Utara 22864";"Jl. Gunungsitoli, Lolofaoso, Kec. Lolofitu Moi, Kabupaten Nias Barat";"SUMATERA UTARA";"22864";"Indonesia";" 081287458656";"";"";"1.1026685";"97.5810422";"https://maps.google.com/?cid=0x0:0xbf83c9d7284d1ad7";""
"building materials";"Toko Bahan Bangunan";"Toko Tiga Serangkai";"5MFQ+9CJ, Jl. Raya Pelud Binaka, Lasara Idanoi, Kec. Gido, Kabupaten Nias, Sumatera Utara";"Kabupaten Nias, Sumatera Utara";"SUMATERA UTARA";"";"Indonesia";" 081287458656";"";"";"1.1734639";"97.6885163";"https://maps.google.com/?cid=0x0:0xc947e6c19ba134a6";""
"building materials";"building materials";"UD. Berkat";"Sifalaete, Kec. GunungSitoli Idanoi, Kota Gunungsitoli, Sumatera Utara 22871";"Kec. GunungSitoli Idanoi, Kota Gunungsitoli";"SUMATERA UTARA";"22871";"Indonesia";"";"";"";"1.1688427";"97.6237258";"https://maps.google.com/?cid=0x0:0x15f6da7c7a1bfeb6";""
"building materials";"Toko Mebel";"UD.FRANS";"Jl. Nias Tengah, Dahadano Botombawo, Kec. Botomuzoi, Kabupaten Nias, Sumatera Utara 22811";"Dahadano Botombawo, Kec. Botomuzoi, Kabupaten Nias";"SUMATERA UTARA";"22811";"Indonesia";" 082370375787";"";"";"1.1959077";"97.5587159";"https://maps.google.com/?cid=0x0:0x44e57674427ea493";""
"building materials";"Toko Bahan Bangunan";"Toko Material Bangunan Daniel";"5HW9+W7R, Dahadano Botombawo, Kec. HiliSerangkai, Kabupaten Nias, Sumatera Utara 22851";"Dahadano Botombawo, Kec. HiliSerangkai, Kabupaten Nias";"SUMATERA UTARA";"22851";"Indonesia";" 083114785308";"";"";"1.1975201";"97.5674987";"https://maps.google.com/?cid=0x0:0x5ac67810e5b018cd";""
"building materials";"Taman bermain";"Lestari Garden Lolomoyo - Lolowa'u";"WH7H+RXM, Lolofaoso, Kec. Lalowau, Kabupaten Nias Selatan, Sumatera Utara 22864";"Lolofaoso, Kec. Lalowau, Kabupaten Nias Selatan";"SUMATERA UTARA";"22864";"Indonesia";"";"";"";"0.9145948";"97.5799173";"https://maps.google.com/?cid=0x0:0x529597f341929281";""
"building materials";"building materials";"UD may nerfan";"3G6V+JQM dusun 2 Hiligo'o, Lakhene, Kec. Mandrehe, Kabupaten Nias Barat, Sumatera Utara 22862";"Lakhene, Kec. Mandrehe, Kabupaten Nias Barat";"SUMATERA UTARA";"22862";"Indonesia";"";"";"";"1.0615992";"97.5444337";"https://maps.google.com/?cid=0x0:0xa9fc1d5ff161abd4";""
"building materials";"Toko Bahan Bangunan";"UD. SANGEHAO";"Jl. Nias Tengah No.Km. 33, Hiliuso, Kec. HiliSerangkai, Kabupaten Nias, Sumatera Utara";"Kabupaten Nias, Sumatera Utara";"SUMATERA UTARA";"";"Indonesia";"";"";"";"1.1830273";"97.5809173";"https://maps.google.com/?cid=0x0:0xa9b531138d56902";""
"building materials";"Toko";"UD. Merry";"XF4C+8QP, Sisobandrao, Kec. Sirombu, Kabupaten Nias Barat, Sumatera Utara 22863";"Sisobandrao, Kec. Sirombu, Kabupaten Nias Barat";"SUMATERA UTARA";"22863";"Indonesia";"";"";"";"0.9560947";"97.4724321";"https://maps.google.com/?cid=0x0:0x1a2a9ad6f3670a1b";""
"building materials";"Toko";"UD. Yosef";"WQWX+QW8, Sifaoroasi Uluhou, Kec. Bawolato, Kabupaten Nias, Sumatera Utara 22876";"Sifaoroasi Uluhou, Kec. Bawolato, Kabupaten Nias";"SUMATERA UTARA";"22876";"Indonesia";" 081231645392";"";"";"0.9471454";"97.7998943";"https://maps.google.com/?cid=0x0:0x509a2b1855e2ff60";""
"building materials";"Toko";"UD. CEMERLANG";"Jl. Raya Onolimbu - Lahomi No.7, Onolimbu, Kec. Lahomi, Kabupaten Nias Barat, Sumatera Utara 22864";"Onolimbu, Kec. Lahomi, Kabupaten Nias Barat";"SUMATERA UTARA";"22864";"Indonesia";" 081287458656";"";"";"1.0096416";"97.4925114";"https://maps.google.com/?cid=0x0:0x81401eb2dfac7be5";""
"building materials";"building materials";"Kec. Botomuzoi";"Kabupaten Nias, Sumatera Utara";"Kabupaten Nias, Sumatera Utara";"SUMATERA UTARA";"";"Indonesia";"";"";"";"1.1780338";"97.5446524";"https://maps.google.com/?cid=0x0:0x3ea36227f9a6c186";""
"building materials";"building materials";"UD SEKAR KONTRUKSI BANGUNAN-BANGUNAN";"6H5F+52W Lologagi, RT./RE02, Dahadano Botombawo, Kec. HiliSerangkai, Kabupaten Nias, Sumatera Utara 22815";"RT./RE02, Dahadano Botombawo, Kec. HiliSerangkai, Kabupaten Nias";"SUMATERA UTARA";"22815";"Indonesia";"";"";"";"1.2079822";"97.5725863";"https://maps.google.com/?cid=0x0:0xdfb9b1e6364a645c";""
"building materials";"Pemasok Pipa";"Surya Utama Metalindo PT.";"Jl. Gunung Sahari Raya no.1 Mangga Dua Square lt 2 blok C 61, RT.11/RW.6, Ancol, Kec. Pademangan, Jkt Utara, Daerah Khusus Ibukota Jakarta 14420";"RT.11/RW.6, Ancol, Kec. Pademangan, Jkt Utara";"SUMATERA UTARA";"14420";"Indonesia";" 082310999956";"";"";"-6.1387824";"106.8314329";"https://maps.google.com/?cid=0x0:0x213f9340f3f4865";""
"building materials";"Kontraktor Insulasi";"PT Tali Rejeki";"Jl. Taruma Jaya No.11, Setia Asih, Kec. Tarumajaya, Kota Bks, Jawa Barat 17215";"Setia Asih, Kec. Tarumajaya, Kota Bks";"SUMATERA UTARA";"17215";"Indonesia";" 02122889956";"";"";"-6.1652412";"106.9900241";"https://maps.google.com/?cid=0x0:0x15898fadc067eab7";""
"building materials";"building materials";"Kec. Gido";"Kabupaten Nias, Sumatera Utara";"Kabupaten Nias, Sumatera Utara";"SUMATERA UTARA";"";"Indonesia";"";"";"";"1.17457";"97.6874949";"https://maps.google.com/?cid=0x0:0x9b3ac0e16891e3a9";""
"building materials";"Toko";"UD.98";"4P7J+699, Wea-Wea, Kec. Gido, Kabupaten Nias, Sumatera Utara 22871";"Wea-Wea, Kec. Gido, Kabupaten Nias";"SUMATERA UTARA";"22871";"Indonesia";" 081287458656";"";"";"1.1130302";"97.7309753";"https://maps.google.com/?cid=0x0:0x5c7440accd4d2fd5";""
"building materials";"Toko Bahan Bangunan";"Toko Tiga Serangkai";"5MFQ+9CJ, Jl. Raya Pelud Binaka, Lasara Idanoi, Kec. Gido, Kabupaten Nias, Sumatera Utara";"Kabupaten Nias, Sumatera Utara";"SUMATERA UTARA";"";"Indonesia";" 081287458656";"";"";"1.1734639";"97.6885163";"https://maps.google.com/?cid=0x0:0xc947e6c19ba134a6";""
"building materials";"Rumah Kayu";"Hilidohona";"RV44+X8P, Hilidohona, Kec. Sidua'ori, Kabupaten Nias Selatan, Sumatera Utara";"Kabupaten Nias Selatan, Sumatera Utara";"SUMATERA UTARA";"";"Indonesia";"";"";"";"0.8074682";"97.8558357";"https://maps.google.com/?cid=0x0:0xf0aba6c25707af74";""
"building materials";"Toko Bahan Bangunan";"UD. SANGEHAO";"Jl. Nias Tengah No.Km. 33, Hiliuso, Kec. HiliSerangkai, Kabupaten Nias, Sumatera Utara";"Kabupaten Nias, Sumatera Utara";"SUMATERA UTARA";"";"Indonesia";"";"";"";"1.1830273";"97.5809173";"https://maps.google.com/?cid=0x0:0xa9b531138d56902";""
"building materials";"Toko Bahan Bangunan";"FBC";"CF2W+FQV, Hilimbosi, Kec. Sitolu Ori, Kabupaten Nias Utara, Sumatera Utara 22852";"Hilimbosi, Kec. Sitolu Ori, Kabupaten Nias Utara";"SUMATERA UTARA";"22852";"Indonesia";"";"";"";"1.4012425";"97.4969313";"https://maps.google.com/?cid=0x0:0xcb77b2eaf66bbec0";""
"building materials";"Toko Bahan Bangunan";"Toko Material Bangunan Daniel";"5HW9+W7R, Dahadano Botombawo, Kec. HiliSerangkai, Kabupaten Nias, Sumatera Utara 22851";"Dahadano Botombawo, Kec. HiliSerangkai, Kabupaten Nias";"SUMATERA UTARA";"22851";"Indonesia";" 083114785308";"";"";"1.1975201";"97.5674987";"https://maps.google.com/?cid=0x0:0x5ac67810e5b018cd";""
"building materials";"Sekolah";"Ombelata ulu";"Jl. Elang I, Ombolata Ulu, Kec. Gunungsitoli, Kota Gunungsitoli, Sumatera Utara";"Kota Gunungsitoli, Sumatera Utara";"SUMATERA UTARA";"";"Indonesia";" 085270925384";"";"";"1.3103813";"97.6089595";"https://maps.google.com/?cid=0x0:0xb8397e83cda6db56";""
"building materials";"Pemasok Pipa";"Surya Utama Metalindo PT.";"Jl. Gunung Sahari Raya no.1 Mangga Dua Square lt 2 blok C 61, RT.11/RW.6, Ancol, Kec. Pademangan, Jkt Utara, Daerah Khusus Ibukota Jakarta 14420";"RT.11/RW.6, Ancol, Kec. Pademangan, Jkt Utara";"SUMATERA UTARA";"14420";"Indonesia";" 082310999956";"";"";"-6.1387824";"106.8314329";"https://maps.google.com/?cid=0x0:0x213f9340f3f4865";""
"building materials";"Kontraktor Insulasi";"PT Tali Rejeki";"Jl. Taruma Jaya No.11, Setia Asih, Kec. Tarumajaya, Kota Bks, Jawa Barat 17215";"Setia Asih, Kec. Tarumajaya, Kota Bks";"SUMATERA UTARA";"17215";"Indonesia";" 02122889956";"";"";"-6.1652412";"106.9900241";"https://maps.google.com/?cid=0x0:0x15898fadc067eab7";""
"building materials";"Jasa Konstruksi dan Bangunan";"PT. Tirta Citra Bara Persada";"Ruko Prima Sunter Jl. Agung Timur 8, kav D5-6. Sunter Agung, 14350, Sunter, Tanjung Priok, RT.10/RW.11, Sunter Jaya, Kec. Tj. Priok, Jkt Utara, Daerah Khusus Ibukota Jakarta 14450";"kav D5-6. Sunter Agung, 14350, Sunter, Tanjung Priok, RT.10/RW.11, Sunter Jaya, Kec. Tj. Priok, Jkt Utara";"SUMATERA UTARA";"14450";"Indonesia";" 02165307671";"";"";"-6.141923";"106.88518";"https://maps.google.com/?cid=0x0:0xed9a88afd6a7dd88";""
"building materials";"Insinyur Teknik Lingkungan";"PT Tetrasa Geosinindo";"ITC ROXY MAS, Business Center, Jl. Kh Hasyim Ashari No.18-20 Block C4, Cideng, Gambir, Central Jakarta City, Jakarta 10150";"Business Center, Jl. Kh Hasyim Ashari No.18-20 Block C4, Cideng, Gambir, Central Jakarta City";"SUMATERA UTARA";"10150";"Indonesia";" 0216330150";"";"";"-6.1680063";"106.8051124";"https://maps.google.com/?cid=0x0:0x7c88f7e107a42fb8";""
"building materials";"building materials";"Sumatera Utara 22854";"Kec. Botomuzoi, Kabupaten Nias, Sumatera Utara";"Kabupaten Nias, Sumatera Utara";"SUMATERA UTARA";"";"Indonesia";"";"";"";"1.1873897";"97.5301397";"https://maps.google.com/?cid=0x0:0x6075fa9e225a1eff";""
"building materials";"Toko Bahan Bangunan";"Toko Material Bangunan Daniel";"5HW9+W7R, Dahadano Botombawo, Kec. HiliSerangkai, Kabupaten Nias, Sumatera Utara 22851";"Dahadano Botombawo, Kec. HiliSerangkai, Kabupaten Nias";"SUMATERA UTARA";"22851";"Indonesia";" 083114785308";"";"";"1.1975201";"97.5674987";"https://maps.google.com/?cid=0x0:0x5ac67810e5b018cd";""
"building materials";"Toko Bahan Bangunan";"UD. SANGEHAO";"Jl. Nias Tengah No.Km. 33, Hiliuso, Kec. HiliSerangkai, Kabupaten Nias, Sumatera Utara";"Kabupaten Nias, Sumatera Utara";"SUMATERA UTARA";"";"Indonesia";"";"";"";"1.1830273";"97.5809173";"https://maps.google.com/?cid=0x0:0xa9b531138d56902";""
"building materials";"Jasa Konstruksi dan Bangunan";"PT. Tirta Citra Bara Persada";"Ruko Prima Sunter Jl. Agung Timur 8, kav D5-6. Sunter Agung, 14350, Sunter, Tanjung Priok, RT.10/RW.11, Sunter Jaya, Kec. Tj. Priok, Jkt Utara, Daerah Khusus Ibukota Jakarta 14450";"kav D5-6. Sunter Agung, 14350, Sunter, Tanjung Priok, RT.10/RW.11, Sunter Jaya, Kec. Tj. Priok, Jkt Utara";"SUMATERA UTARA";"14450";"Indonesia";" 02165307671";"";"";"-6.141923";"106.88518";"https://maps.google.com/?cid=0x0:0xed9a88afd6a7dd88";""
"building materials";"Kontraktor Insulasi";"PT Tali Rejeki";"Jl. Taruma Jaya No.11, Setia Asih, Kec. Tarumajaya, Kota Bks, Jawa Barat 17215";"Setia Asih, Kec. Tarumajaya, Kota Bks";"SUMATERA UTARA";"17215";"Indonesia";" 02122889956";"";"";"-6.1652412";"106.9900241";"https://maps.google.com/?cid=0x0:0x15898fadc067eab7";""
"building materials";"Toko Bahan Bangunan";"Toko Tiga Serangkai";"5MFQ+9CJ, Jl. Raya Pelud Binaka, Lasara Idanoi, Kec. Gido, Kabupaten Nias, Sumatera Utara";"Kabupaten Nias, Sumatera Utara";"SUMATERA UTARA";"";"Indonesia";" 081287458656";"";"";"1.1734639";"97.6885163";"https://maps.google.com/?cid=0x0:0xc947e6c19ba134a6";""
"building materials";"Toko Bahan Bangunan";"Toko Serasi";"Jl. Diponegoro No.142, Ilir, Kec. Gunungsitoli, Kota Gunungsitoli, Sumatera Utara 22811";"Ilir, Kec. Gunungsitoli, Kota Gunungsitoli";"SUMATERA UTARA";"22811";"Indonesia";"";"";"";"1.2857702";"97.6238908";"https://maps.google.com/?cid=0x0:0xe177386885c38e36";""
"building materials";"building materials";"Sumatera Utara 22872";"Kabupaten Nias, Sumatera Utara";"Kabupaten Nias, Sumatera Utara";"SUMATERA UTARA";"";"Indonesia";"";"";"";"1.0204278";"97.7742702";"https://maps.google.com/?cid=0x0:0x39c54a2144cb1830";""
"building materials";"Toko";"UD.98";"4P7J+699, Wea-Wea, Kec. Gido, Kabupaten Nias, Sumatera Utara 22871";"Wea-Wea, Kec. Gido, Kabupaten Nias";"SUMATERA UTARA";"22871";"Indonesia";" 081287458656";"";"";"1.1130302";"97.7309753";"https://maps.google.com/?cid=0x0:0x5c7440accd4d2fd5";""
"building materials";"Toko";"UD. Yosef";"WQWX+QW8, Sifaoroasi Uluhou, Kec. Bawolato, Kabupaten Nias, Sumatera Utara 22876";"Sifaoroasi Uluhou, Kec. Bawolato, Kabupaten Nias";"SUMATERA UTARA";"22876";"Indonesia";" 081231645392";"";"";"0.9471454";"97.7998943";"https://maps.google.com/?cid=0x0:0x509a2b1855e2ff60";""
"building materials";"Toko Elektronik";"UD. SEDERHANA ELECTRIC";"WJWP+9JQ, Koendrafo, Kec. Lolomatua, Kabupaten Nias Selatan, Sumatera Utara 22867";"Koendrafo, Kec. Lolomatua, Kabupaten Nias Selatan";"SUMATERA UTARA";"22867";"Indonesia";" 081287458656";"";"";"0.9459738";"97.6366155";"https://maps.google.com/?cid=0x0:0xf311ab55dbaf7faf";""
"building materials";"Toko Bahan Bangunan";"Toko Tiga Serangkai";"5MFQ+9CJ, Jl. Raya Pelud Binaka, Lasara Idanoi, Kec. Gido, Kabupaten Nias, Sumatera Utara";"Kabupaten Nias, Sumatera Utara";"SUMATERA UTARA";"";"Indonesia";" 081287458656";"";"";"1.1734639";"97.6885163";"https://maps.google.com/?cid=0x0:0xc947e6c19ba134a6";""
"building materials";"Toko Bahan Bangunan";"Toko Bahan Bangunan Van";"WVPC+475, Sisarahili, Kec. Bawolato, Kabupaten Nias, Sumatera Utara";"Kabupaten Nias, Sumatera Utara";"SUMATERA UTARA";"";"Indonesia";" 083114785308";"";"";"0.9352594";"97.8707382";"https://maps.google.com/?cid=0x0:0x64e5df789f52852c";""
"building materials";"Toko Bahan Bangunan";"U D. S I A M O N";"9C9H+7FM Sisarahili, Esiwa, Kec. Namohalu Esiwa, Kabupaten Nias Utara, Sumatera Utara";"Kabupaten Nias Utara, Sumatera Utara";"SUMATERA UTARA";"";"Indonesia";" 081287458656";"";"";"1.3682203";"97.4286806";"https://maps.google.com/?cid=0x0:0xc6c824ee453ebb2a";""
"building materials";"Toko Bahan Bangunan";"SANGEHAO";"4H3J+3C7, Jl. Gunungsitoli, Lolofaoso, Kec. Lolofitu Moi, Kabupaten Nias Barat, Sumatera Utara 22864";"Jl. Gunungsitoli, Lolofaoso, Kec. Lolofitu Moi, Kabupaten Nias Barat";"SUMATERA UTARA";"22864";"Indonesia";" 081287458656";"";"";"1.1026685";"97.5810422";"https://maps.google.com/?cid=0x0:0xbf83c9d7284d1ad7";""
"building materials";"Toko umum";"UD. Toni";"Sisarahili Sogaeadu, Kec. Sogae'adu, Kabupaten Nias, Sumatera Utara 22871";"Kec. Sogae'adu, Kabupaten Nias";"SUMATERA UTARA";"22871";"Indonesia";" 085277224334";"";"";"1.0888318";"97.7370978";"https://maps.google.com/?cid=0x0:0x525b3d470925d2ed";""
"building materials";"building materials";"UD. Berkat";"5J9F+GFQ, Sifalaete, Kec. GunungSitoli Idanoi, Kota Gunungsitoli, Sumatera Utara 22871";"Sifalaete, Kec. GunungSitoli Idanoi, Kota Gunungsitoli";"SUMATERA UTARA";"22871";"Indonesia";"";"";"";"1.1688427";"97.6237258";"https://maps.google.com/?cid=0x0:0x15f6da7c7a1bfeb6";""
"building materials";"Toko";"UD. SUMBER BERKAT";"Desa sirahia, Hilimbowo, Sumatera Utara 22865";"Hilimbowo";"SUMATERA UTARA";"22865";"Indonesia";" 081287458656";"";"";"0.8987359";"97.8200658";"https://maps.google.com/?cid=0x0:0x8291841e69f5c6e6";""
"building materials";"Toko Bahan Bangunan";"Ud Van";"Desa, sisarahili, Kec. Bawolato, Kabupaten Nias, Sumatera Utara 21185";"sisarahili, Kec. Bawolato, Kabupaten Nias";"SUMATERA UTARA";"21185";"Indonesia";" 081315254608";"";"";"0.9352693";"97.8708111";"https://maps.google.com/?cid=0x0:0xacfb58b1ecb3f2d7";""
"building materials";"building materials";"UD. MARI DAMAI";"2QCM+42F, Jl. Arah Tlk. Dalam, Bobozioli Loloanaa, Kecamatan Idanogawo, Kabupaten Nias, Sumatera Utara 22872";"Jl. Arah Tlk. Dalam, Bobozioli Loloanaa, Kecamatan Idanogawo, Kabupaten Nias";"SUMATERA UTARA";"22872";"Indonesia";"";"";"";"1.0203248";"97.7825428";"https://maps.google.com/?cid=0x0:0x1e70fa2c5e8e7ec7";""
"building materials";"building materials";"Ud.Infoz";"3G6W+5W2, jl. menuju, Lologulo, Kec. Mandrehe, Kabupaten Nias Barat, Sumatera Utara 22862";"jl. menuju, Lologulo, Kec. Mandrehe, Kabupaten Nias Barat";"SUMATERA UTARA";"22862";"Indonesia";" 085276568877";"";"";"1.0607899";"97.548066";"https://maps.google.com/?cid=0x0:0xa9abc99f30a4ccc";""
"building materials";"Toko Bahan Bangunan";"BATAKO Si@mon";"Sisarahili, Esiwa, Kec. Namohalu Esiwa, Kabupaten Nias Utara, Sumatera Utara";"Kabupaten Nias Utara, Sumatera Utara";"SUMATERA UTARA";"";"Indonesia";" 085329716866";"";"";"1.3683976";"97.4289592";"https://maps.google.com/?cid=0x0:0xbe7bf81080d14024";""
"building materials";"Toko Bahan Bangunan";"SIAMON GROUP (PETI MATI  BATAKO)";"98MW+QG3, Hilidundra, Kec. Lotu, Kabupaten Nias Utara, Sumatera Utara 22851";"Hilidundra, Kec. Lotu, Kabupaten Nias Utara";"SUMATERA UTARA";"22851";"Indonesia";" 085329716866";"";"";"1.3843921";"97.3463042";"https://maps.google.com/?cid=0x0:0x68cef3331160ab0d";""
"building materials";"building materials";"Kecamatan Idanogawo";"Kabupaten Nias, Sumatera Utara";"Kabupaten Nias, Sumatera Utara";"SUMATERA UTARA";"";"Indonesia";"";"";"";"1.0265019";"97.7726197";"https://maps.google.com/?cid=0x0:0x3a078c17e48724a2";""
"building materials";"building materials";"Kec. Ma'u";"Kabupaten Nias, Sumatera Utara";"Kabupaten Nias, Sumatera Utara";"SUMATERA UTARA";"";"Indonesia";"";"";"";"1.0167709";"97.6327641";"https://maps.google.com/?cid=0x0:0x610ae1b2430535ae";""
"building materials";"Toko bahan makanan";"UD. Solomasi";"Kompleks Kantor Bupati Nias, Jl. Soekarno, Tulumbaho, Kec. Gido, Kabupaten Nias, Sumatera Utara 22871";"Jl. Soekarno, Tulumbaho, Kec. Gido, Kabupaten Nias";"SUMATERA UTARA";"22871";"Indonesia";" 082268445531";"";"";"1.0974024";"97.7246041";"https://maps.google.com/?cid=0x0:0x6c70c65e0d66895d";""
"building materials";"Rumah Makan";"Warung gorengan solomasi";"5MCR+J9, Lolozasai, Kec. Gido, Kabupaten Nias, Sumatera Utara";"Kabupaten Nias, Sumatera Utara";"SUMATERA UTARA";"";"Indonesia";"";"";"";"1.1714732";"97.6908974";"https://maps.google.com/?cid=0x0:0x74132cfdcfb4a027";""
"building materials";"Pemasok Pipa";"Surya Utama Metalindo PT.";"Jl. Gunung Sahari Raya no.1 Mangga Dua Square lt 2 blok C 61, RT.11/RW.6, Ancol, Kec. Pademangan, Jkt Utara, Daerah Khusus Ibukota Jakarta 14420";"RT.11/RW.6, Ancol, Kec. Pademangan, Jkt Utara";"SUMATERA UTARA";"14420";"Indonesia";" 082310999956";"";"";"-6.1387824";"106.8314329";"https://maps.google.com/?cid=0x0:0x213f9340f3f4865";""
"building materials";"Pemasok Pipa";"Surya Utama Metalindo PT.";"Jl. Gunung Sahari Raya no.1 Mangga Dua Square lt 2 blok C 61, RT.11/RW.6, Ancol, Kec. Pademangan, Jkt Utara, Daerah Khusus Ibukota Jakarta 14420";"RT.11/RW.6, Ancol, Kec. Pademangan, Jkt Utara";"SUMATERA UTARA";"14420";"Indonesia";" 082310999956";"";"";"-6.1387824";"106.8314329";"https://maps.google.com/?cid=0x0:0x213f9340f3f4865";""
"building materials";"Pemasok Pipa";"PT. DWITAMA SUKSES MANDIRI";"Grand boutique Center, Jl. Mangga Dua Raya No.22 Blok B, RT.11/RW.5, Ancol, Kec. Pademangan, Jkt Utara, Daerah Khusus Ibukota Jakarta 14430";"Jl. Mangga Dua Raya No.22 Blok B, RT.11/RW.5, Ancol, Kec. Pademangan, Jkt Utara";"SUMATERA UTARA";"14430";"Indonesia";" 0216282401";"";"";"-6.1343515";"106.8292505";"https://maps.google.com/?cid=0x0:0x2cbcfa724599c6a7";""
"building materials";"Toko Bahan Bangunan";"U D. S I A M O N";"9C9H+7FM Sisarahili, Esiwa, Kec. Namohalu Esiwa, Kabupaten Nias Utara, Sumatera Utara";"Kabupaten Nias Utara, Sumatera Utara";"SUMATERA UTARA";"";"Indonesia";" 081287458656";"";"";"1.3682203";"97.4286806";"https://maps.google.com/?cid=0x0:0xc6c824ee453ebb2a";""
"building materials";"building materials";"UD. MARI DAMAI";"2QCM+42F, Jl. Arah Tlk. Dalam, Bobozioli Loloanaa, Kecamatan Idanogawo, Kabupaten Nias, Sumatera Utara 22872";"Jl. Arah Tlk. Dalam, Bobozioli Loloanaa, Kecamatan Idanogawo, Kabupaten Nias";"SUMATERA UTARA";"22872";"Indonesia";"";"";"";"1.0203248";"97.7825428";"https://maps.google.com/?cid=0x0:0x1e70fa2c5e8e7ec7";""
"toko bangunan";"toko bangunan";"Sumatera Utara 22851";"Sumatera Utara";"Sumatera Utara";"SUMATERA UTARA";"";"Indonesia";"";"";"";"1.2976797";"97.330053";"https://maps.google.com/?cid=0x0:0xb3058656cf8eec8e";""
"toko bangunan";"Toko Bahan Bangunan";"Toko Bahan Bangunan Van";"WVPC+475, Sisarahili, Kec. Bawolato, Kabupaten Nias, Sumatera Utara";"Kabupaten Nias, Sumatera Utara";"SUMATERA UTARA";"";"Indonesia";" 083114785308";"";"";"0.9352594";"97.8707382";"https://maps.google.com/?cid=0x0:0x64e5df789f52852c";""
"toko bangunan";"Toko Bahan Bangunan";"Toko Bangunan Indo teknik Karya Baru";"7JP7+532, Saombo, Kec. Gunungsitoli, Kota Gunungsitoli, Sumatera Utara";"Kota Gunungsitoli, Sumatera Utara";"SUMATERA UTARA";"";"Indonesia";" 083186603738";"";"";"1.2853834";"97.6126406";"https://maps.google.com/?cid=0x0:0xa57b2f8afbafa993";""
"toko bangunan";"Toko Bahan Bangunan";"Bata Pres Nias Santo Lase";"Iraono Lase, Kec. Gunungsitoli Alo'oa, Kota Gunungsitoli, Sumatera Utara 22851";"Kec. Gunungsitoli Alo'oa, Kota Gunungsitoli";"SUMATERA UTARA";"22851";"Indonesia";" 082233533407";"";"";"1.3114966";"97.5733412";"https://maps.google.com/?cid=0x0:0xb9e5b7fcc4157eed";""
"toko bangunan";"Toko Bahan Bangunan";"UD 251217";"Desa, Sisarahili, Kec. Bawolato, Gunungsitoli, Sumatera Utara 22876";"Sisarahili, Kec. Bawolato, Gunungsitoli";"SUMATERA UTARA";"22876";"Indonesia";" 085213921102";"";"";"0.932702";"97.8722165";"https://maps.google.com/?cid=0x0:0xe34a240be526a635";""
"toko bangunan";"Toko umum";"Wewin BATUBATA PREMIUM";"79V4+4RF, Laowowaga, Kec. Lahewa Tim., Kabupaten Nias Utara, Sumatera Utara";"Kabupaten Nias Utara, Sumatera Utara";"SUMATERA UTARA";"";"Indonesia";" 081291902169";"";"";"1.2936315";"97.3567029";"https://maps.google.com/?cid=0x0:0x4d6fa2f5d11e9482";""
"toko bangunan";"Toko Bahan Bangunan";"Toko ANEKA BANGUNAN";"depan rumah makan beringin baru, Jl. Sirao No.6, Saombo, Kec. Gunungsitoli, Kabupaten Nias, Sumatera Utara";"Kabupaten Nias, Sumatera Utara";"SUMATERA UTARA";"";"Indonesia";" 081231645392";"";"";"1.2903411";"97.6158857";"https://maps.google.com/?cid=0x0:0x53ca275b69ef0d2c";""
"toko bangunan";"Toko Alat-Alat";"UD. Start Jaya";"Jl. Yos Sudarso Ujung No.KM. 5,6, Hili Hao, Kec. Gunungsitoli, Kota Gunungsitoli, Sumatera Utara";"Kota Gunungsitoli, Sumatera Utara";"SUMATERA UTARA";"";"Indonesia";" 081231645392";"";"";"1.3320776";"97.5957471";"https://maps.google.com/?cid=0x0:0xb80213d4744667a1";""
"toko bangunan";"Toko Bahan Bangunan";"Toko Material Bangunan Daniel";"5HW9+W7R, Dahadano Botombawo, Kec. HiliSerangkai, Kabupaten Nias, Sumatera Utara 22851";"Dahadano Botombawo, Kec. HiliSerangkai, Kabupaten Nias";"SUMATERA UTARA";"22851";"Indonesia";" 083114785308";"";"";"1.1975201";"97.5674987";"https://maps.google.com/?cid=0x0:0x5ac67810e5b018cd";""
"toko bangunan";"Toko Bahan Bangunan";"UD. UMBU HARAZAKI";"Jl. Arah Nias Utara No.504, Afia, Kec. Gunungsitoli Utara, Kota Gunungsitoli, Sumatera Utara 22851";"Afia, Kec. Gunungsitoli Utara, Kota Gunungsitoli";"SUMATERA UTARA";"22851";"Indonesia";"";"";"";"1.3738691";"97.5588053";"https://maps.google.com/?cid=0x0:0x5b315db80b8af2c8";""
"toko bangunan";"Toko Bahan Bangunan";"UD. ZULFAN";"Hili Hao, Kec. Gunungsitoli, Kota Gunungsitoli, Sumatera Utara";"Kota Gunungsitoli, Sumatera Utara";"SUMATERA UTARA";"";"Indonesia";"";"";"";"1.3315433";"97.5960085";"https://maps.google.com/?cid=0x0:0xa85b7c1070ec1d4a";""
"toko bangunan";"Toko Bahan Bangunan";"Bintang Gemilang";"8J74+PGQ, Jl. Yos Sudarso Ujung, Ombolata Ulu, Kec. Gunungsitoli, Kota Gunungsitoli, Sumatera Utara";"Kota Gunungsitoli, Sumatera Utara";"SUMATERA UTARA";"";"Indonesia";" 082363345222";"";"";"1.3143268";"97.6063735";"https://maps.google.com/?cid=0x0:0xbd93f14995b591";""
"toko bangunan";"Toko Bahan Bangunan";"SIAMON GROUP (PETI MATI  BATAKO)";"98MW+QG3, Hilidundra, Kec. Lotu, Kabupaten Nias Utara, Sumatera Utara 22851";"Hilidundra, Kec. Lotu, Kabupaten Nias Utara";"SUMATERA UTARA";"22851";"Indonesia";" 085329716866";"";"";"1.3843921";"97.3463042";"https://maps.google.com/?cid=0x0:0x68cef3331160ab0d";""
"toko bangunan";"Toko";"UD. Yosef";"WQWX+QW8, Sifaoroasi Uluhou, Kec. Bawolato, Kabupaten Nias, Sumatera Utara 22876";"Sifaoroasi Uluhou, Kec. Bawolato, Kabupaten Nias";"SUMATERA UTARA";"22876";"Indonesia";" 081231645392";"";"";"0.9471454";"97.7998943";"https://maps.google.com/?cid=0x0:0x509a2b1855e2ff60";""
"toko bangunan";"Toko Bahan Bangunan";"Ud Van";"Desa, sisarahili, Kec. Bawolato, Kabupaten Nias, Sumatera Utara 21185";"sisarahili, Kec. Bawolato, Kabupaten Nias";"SUMATERA UTARA";"21185";"Indonesia";" 081315254608";"";"";"0.9352693";"97.8708111";"https://maps.google.com/?cid=0x0:0xacfb58b1ecb3f2d7";""
"toko bangunan";"Toko";"UD.CINDY";"8GPF+32H, Unnamed Road, Nazalou Lolowua, Kec. Gunungsitoli Alo'oa, Kota Gunungsitoli, Sumatera Utara 22851";"Unnamed Road, Nazalou Lolowua, Kec. Gunungsitoli Alo'oa, Kota Gunungsitoli";"SUMATERA UTARA";"22851";"Indonesia";"";"";"";"1.3351933";"97.5225995";"https://maps.google.com/?cid=0x0:0xa9c3e29592121097";""
"toko bangunan";"Toko Bahan Bangunan";"Total Bangunan 696";"Jalan Gunungsitoli -Lahewa No.km.14, RW.5, Muara Indah, Kec. Gunungsitoli Utara, Kota Gunungsitoli, Sumatera Utara 22851";"RW.5, Muara Indah, Kec. Gunungsitoli Utara, Kota Gunungsitoli";"SUMATERA UTARA";"22851";"Indonesia";" 082364705520";"";"";"1.3839234";"97.5375444";"https://maps.google.com/?cid=0x0:0x9e5edcc3989bea1d";""
"toko bangunan";"Toko Bahan Bangunan";"Toko Bintang Makmur";"7JP8+CF8, JL Sudirman, Pasar, Saombo, Gunug Sitoli, Kota Gunungsitoli, Sumatera Utara";"Kota Gunungsitoli, Sumatera Utara";"SUMATERA UTARA";"";"Indonesia";" 081231645392";"";"";"1.2860485";"97.6161985";"https://maps.google.com/?cid=0x0:0x64a2e4f2fdb09c31";""
"toko bangunan";"Toko Bahan Bangunan";"TOKO BANGUNAN 123";"7J3Q+RM6, Jl. Diponegoro, Fodo, Kec. Gunungsitoli, Kota Gunungsitoli, Sumatera Utara";"Kota Gunungsitoli, Sumatera Utara";"SUMATERA UTARA";"";"Indonesia";"";"";"";"1.2545367";"97.639141";"https://maps.google.com/?cid=0x0:0x92a58f55691c5b21";""
"toko bangunan";"Toko Alat-Alat";"Toko Karya Baru";"Jl. Sudirman Pasar No.30, Saombo, Kec. Gunungsitoli, Kota Gunungsitoli, Sumatera Utara";"Kota Gunungsitoli, Sumatera Utara";"SUMATERA UTARA";"";"Indonesia";" 08179025265";"";"";"1.2872793";"97.6175534";"https://maps.google.com/?cid=0x0:0x3f78a2a9624e44a5";""
"toko bangunan";"Toko Bahan Bangunan";"UD Noser";"9HG3+F5W, Tambalou, Afia, Kec. Gunungsitoli Utara, Kota Gunungsitoli, Sumatera Utara";"Kota Gunungsitoli, Sumatera Utara";"SUMATERA UTARA";"";"Indonesia";" 082360686231";"";"";"1.376229";"97.5529474";"https://maps.google.com/?cid=0x0:0xe37c8c1ff3150230";""
"toko bangunan";"Toko Bahan Bangunan";"U D. S I A M O N";"9C9H+7FM Sisarahili, Esiwa, Kec. Namohalu Esiwa, Kabupaten Nias Utara, Sumatera Utara";"Kabupaten Nias Utara, Sumatera Utara";"SUMATERA UTARA";"";"Indonesia";" 081287458656";"";"";"1.3682203";"97.4286806";"https://maps.google.com/?cid=0x0:0xc6c824ee453ebb2a";""
"toko bangunan";"toko bangunan";"Sumatera Utara 22876";"Kec. Bawolato, Kabupaten Nias, Sumatera Utara";"Kabupaten Nias, Sumatera Utara";"SUMATERA UTARA";"";"Indonesia";"";"";"";"0.9634714";"97.8177601";"https://maps.google.com/?cid=0x0:0xbd072e1dfaa20192";""
"toko bangunan";"Toko Bahan Bangunan";"Toko Bahan Bangunan Van";"WVPC+475, Sisarahili, Kec. Bawolato, Kabupaten Nias, Sumatera Utara";"Kabupaten Nias, Sumatera Utara";"SUMATERA UTARA";"";"Indonesia";" 083114785308";"";"";"0.9352594";"97.8707382";"https://maps.google.com/?cid=0x0:0x64e5df789f52852c";""
"toko bangunan";"Toko Bahan Bangunan";"UD 251217";"Desa, Sisarahili, Kec. Bawolato, Gunungsitoli, Sumatera Utara 22876";"Sisarahili, Kec. Bawolato, Gunungsitoli";"SUMATERA UTARA";"22876";"Indonesia";" 085213921102";"";"";"0.932702";"97.8722165";"https://maps.google.com/?cid=0x0:0xe34a240be526a635";""
"toko bangunan";"Toko Bahan Bangunan";"Ud Van";"Desa, sisarahili, Kec. Bawolato, Kabupaten Nias, Sumatera Utara 21185";"sisarahili, Kec. Bawolato, Kabupaten Nias";"SUMATERA UTARA";"21185";"Indonesia";" 081315254608";"";"";"0.9352693";"97.8708111";"https://maps.google.com/?cid=0x0:0xacfb58b1ecb3f2d7";""
"toko bangunan";"toko bangunan";"Sumatera Utara 22815";"Sumatera Utara";"Sumatera Utara";"SUMATERA UTARA";"";"Indonesia";"";"";"";"1.1349561";"97.5572231";"https://maps.google.com/?cid=0x0:0x363d3d935f4724dd";""
"toko bangunan";"Toko Bahan Bangunan";"Toko Tiga Serangkai";"5MFQ+9CJ, Jl. Raya Pelud Binaka, Lasara Idanoi, Kec. Gido, Kabupaten Nias, Sumatera Utara";"Kabupaten Nias, Sumatera Utara";"SUMATERA UTARA";"";"Indonesia";" 081287458656";"";"";"1.1734639";"97.6885163";"https://maps.google.com/?cid=0x0:0xc947e6c19ba134a6";""
"toko bangunan";"Toko Elektronik";"UD. SEDERHANA ELECTRIC";"WJWP+9JQ, Koendrafo, Kec. Lolomatua, Kabupaten Nias Selatan, Sumatera Utara 22867";"Koendrafo, Kec. Lolomatua, Kabupaten Nias Selatan";"SUMATERA UTARA";"22867";"Indonesia";" 081287458656";"";"";"0.9459738";"97.6366155";"https://maps.google.com/?cid=0x0:0xf311ab55dbaf7faf";""
"toko bangunan";"Toko Bahan Bangunan";"SANGEHAO";"4H3J+3C7, Jl. Gunungsitoli, Lolofaoso, Kec. Lolofitu Moi, Kabupaten Nias Barat, Sumatera Utara 22864";"Jl. Gunungsitoli, Lolofaoso, Kec. Lolofitu Moi, Kabupaten Nias Barat";"SUMATERA UTARA";"22864";"Indonesia";" 081287458656";"";"";"1.1026685";"97.5810422";"https://maps.google.com/?cid=0x0:0xbf83c9d7284d1ad7";""
"toko bangunan";"Toko Alat-Alat";"Toko Karya Baru";"Jl. Sudirman Pasar No.30, Saombo, Kec. Gunungsitoli, Kota Gunungsitoli, Sumatera Utara";"Kota Gunungsitoli, Sumatera Utara";"SUMATERA UTARA";"";"Indonesia";" 08179025265";"";"";"1.2872793";"97.6175534";"https://maps.google.com/?cid=0x0:0x3f78a2a9624e44a5";""
"toko bangunan";"Toko Bahan Bangunan";"Toko Material Bangunan Daniel";"5HW9+W7R, Dahadano Botombawo, Kec. HiliSerangkai, Kabupaten Nias, Sumatera Utara 22851";"Dahadano Botombawo, Kec. HiliSerangkai, Kabupaten Nias";"SUMATERA UTARA";"22851";"Indonesia";" 083114785308";"";"";"1.1975201";"97.5674987";"https://maps.google.com/?cid=0x0:0x5ac67810e5b018cd";""
"toko bangunan";"Toko Bahan Bangunan";"TOKO BANGUNAN 123";"7J3Q+RM6, Jl. Diponegoro, Fodo, Kec. Gunungsitoli, Kota Gunungsitoli, Sumatera Utara";"Kota Gunungsitoli, Sumatera Utara";"SUMATERA UTARA";"";"Indonesia";"";"";"";"1.2545367";"97.639141";"https://maps.google.com/?cid=0x0:0x92a58f55691c5b21";""
"toko bangunan";"Toko Alat-Alat";"UD. Start Jaya";"Jl. Yos Sudarso Ujung No.KM. 5,6, Hili Hao, Kec. Gunungsitoli, Kota Gunungsitoli, Sumatera Utara";"Kota Gunungsitoli, Sumatera Utara";"SUMATERA UTARA";"";"Indonesia";" 081231645392";"";"";"1.3320776";"97.5957471";"https://maps.google.com/?cid=0x0:0xb80213d4744667a1";""
"toko bangunan";"toko bangunan";"UD. Berkat";"5J9F+GFQ, Sifalaete, Kec. GunungSitoli Idanoi, Kota Gunungsitoli, Sumatera Utara 22871";"Sifalaete, Kec. GunungSitoli Idanoi, Kota Gunungsitoli";"SUMATERA UTARA";"22871";"Indonesia";"";"";"";"1.1688427";"97.6237258";"https://maps.google.com/?cid=0x0:0x15f6da7c7a1bfeb6";""
"toko bangunan";"Toko";"UD. Merry";"XF4C+8QP, Sisobandrao, Kec. Sirombu, Kabupaten Nias Barat, Sumatera Utara 22863";"Sisobandrao, Kec. Sirombu, Kabupaten Nias Barat";"SUMATERA UTARA";"22863";"Indonesia";"";"";"";"0.9560947";"97.4724321";"https://maps.google.com/?cid=0x0:0x1a2a9ad6f3670a1b";""
"toko bangunan";"Toko Bahan Bangunan";"UD. SANGEHAO";"Jl. Nias Tengah No.Km. 33, Hiliuso, Kec. HiliSerangkai, Kabupaten Nias, Sumatera Utara";"Kabupaten Nias, Sumatera Utara";"SUMATERA UTARA";"";"Indonesia";"";"";"";"1.1830273";"97.5809173";"https://maps.google.com/?cid=0x0:0xa9b531138d56902";""
"toko bangunan";"Toko Perlengkapan Rumah";"Bintang Keramik";"Jl. Diponegoro No.331, Ilir, Kec. Gunungsitoli, Kota Gunungsitoli, Sumatera Utara";"Kota Gunungsitoli, Sumatera Utara";"SUMATERA UTARA";"";"Indonesia";" 085261215008";"";"";"1.2768764";"97.6304523";"https://maps.google.com/?cid=0x0:0xc308ef56f059f942";""
"toko bangunan";"Toko Bahan Bangunan";"Toko Bangunan Medan Terlengkap - Mitra10 Medan";"Jl. Gatot Subroto No.124/152 A, Sei Sikambing C. II, Kec. Medan Helvetia, Kota Medan, Sumatera Utara 20123";"Sei Sikambing C. II, Kec. Medan Helvetia, Kota Medan";"SUMATERA UTARA";"20123";"Indonesia";" 0618440110";"";"";"3.5915939";"98.6406317";"https://maps.google.com/?cid=0x0:0x474d2a4c9901babc";""
"toko bangunan";"Toko Bahan Bangunan";"Toko Santosa Bahan bangunan dan teknik";"Jl. Brigjend Katamso No.249, Sukaraja, Kec. Medan Maimun, Kota Medan, Sumatera Utara 20212";"Sukaraja, Kec. Medan Maimun, Kota Medan";"SUMATERA UTARA";"20212";"Indonesia";" 08126590002";"";"";"3.5730958";"98.685653";"https://maps.google.com/?cid=0x0:0x49c29f25dfb0d9";""
"toko bangunan";"Toko Bahan Bangunan";"Toko Pelita Jaya";"JL Diponegoro, No. 103A, Lingkungan 2, Ilir, Ps. Gn. Sitoli, Kec. Gunungsitoli, Kota Gunungsitoli, Sumatera Utara";"Kota Gunungsitoli, Sumatera Utara";"SUMATERA UTARA";"";"Indonesia";" 085769908768";"";"";"1.2872189";"97.6226985";"https://maps.google.com/?cid=0x0:0x2843cde41dbb3cca";""
"toko bangunan";"toko bangunan";"UD may nerfan";"3G6V+JQM dusun 2 Hiligo'o, Lakhene, Kec. Mandrehe, Kabupaten Nias Barat, Sumatera Utara 22862";"Lakhene, Kec. Mandrehe, Kabupaten Nias Barat";"SUMATERA UTARA";"22862";"Indonesia";"";"";"";"1.0615992";"97.5444337";"https://maps.google.com/?cid=0x0:0xa9fc1d5ff161abd4";""
"toko bangunan";"Taman bermain";"Lestari Garden Lolomoyo - Lolowa'u";"WH7H+RXM, Lolofaoso, Kec. Lalowau, Kabupaten Nias Selatan, Sumatera Utara 22864";"Lolofaoso, Kec. Lalowau, Kabupaten Nias Selatan";"SUMATERA UTARA";"22864";"Indonesia";"";"";"";"0.9145948";"97.5799173";"https://maps.google.com/?cid=0x0:0x529597f341929281";""
"toko bangunan";"toko bangunan";"Kec. Gido";"Kabupaten Nias, Sumatera Utara";"Kabupaten Nias, Sumatera Utara";"SUMATERA UTARA";"";"Indonesia";"";"";"";"1.17457";"97.6874949";"https://maps.google.com/?cid=0x0:0x9b3ac0e16891e3a9";""
"toko bangunan";"Toko";"UD.98";"4P7J+699, Wea-Wea, Kec. Gido, Kabupaten Nias, Sumatera Utara 22871";"Wea-Wea, Kec. Gido, Kabupaten Nias";"SUMATERA UTARA";"22871";"Indonesia";" 081287458656";"";"";"1.1130302";"97.7309753";"https://maps.google.com/?cid=0x0:0x5c7440accd4d2fd5";""
"toko bangunan";"Toko Bahan Bangunan";"Toko Tiga Serangkai";"5MFQ+9CJ, Jl. Raya Pelud Binaka, Lasara Idanoi, Kec. Gido, Kabupaten Nias, Sumatera Utara";"Kabupaten Nias, Sumatera Utara";"SUMATERA UTARA";"";"Indonesia";" 081287458656";"";"";"1.1734639";"97.6885163";"https://maps.google.com/?cid=0x0:0xc947e6c19ba134a6";""
"toko bangunan";"Rumah Kayu";"Hilidohona";"RV44+X8P, Hilidohona, Kec. Sidua'ori, Kabupaten Nias Selatan, Sumatera Utara";"Kabupaten Nias Selatan, Sumatera Utara";"SUMATERA UTARA";"";"Indonesia";"";"";"";"0.8074682";"97.8558357";"https://maps.google.com/?cid=0x0:0xf0aba6c25707af74";""
"toko bangunan";"Toko Bahan Bangunan";"Toko Hinoz, Sembako  Bahan Bangunan";"Simpang 3 Bawomataluo Jln. Ds. Bawofanayama, Orahili Fau, Fanayama, South Nias Regency, North Sumatra 22865";"Orahili Fau, Fanayama, South Nias Regency";"SUMATERA UTARA";"22865";"Indonesia";" 081231645392";"";"";"0.5951276";"97.7683415";"https://maps.google.com/?cid=0x0:0x4d2b25073029b6b7";""
"toko bangunan";"Toko Peralatan Tukang Kayu";"UD JOSHY MANDIRI";"Jln rajasitipu No.72, pulau Tello, Kec. Pulau-Pulau Batu, Kabupaten Nias Selatan, Sumatera Utara 22881";"pulau Tello, Kec. Pulau-Pulau Batu, Kabupaten Nias Selatan";"SUMATERA UTARA";"22881";"Indonesia";" 082282403347";"";"";"-0.0544761";"98.2832167";"https://maps.google.com/?cid=0x0:0xfdfe39c2ee6deee5";""
"toko bangunan";"Toko Alat-Alat";"UD. Start Jaya";"Jl. Yos Sudarso Ujung No.KM. 5,6, Hili Hao, Kec. Gunungsitoli, Kota Gunungsitoli, Sumatera Utara";"Kota Gunungsitoli, Sumatera Utara";"SUMATERA UTARA";"";"Indonesia";" 081231645392";"";"";"1.3320776";"97.5957471";"https://maps.google.com/?cid=0x0:0xb80213d4744667a1";""
"toko bangunan";"Pemasok Bahan Bangunan";"UD. Joni";"HR69+4M7, Jl. Imam Bonjol, Hilitobara, Kec. Tlk. Dalam, Kabupaten Nias Selatan, Sumatera Utara 22865";"Jl. Imam Bonjol, Hilitobara, Kec. Tlk. Dalam, Kabupaten Nias Selatan";"SUMATERA UTARA";"22865";"Indonesia";" 081287458656";"";"";"0.5602933";"97.8191742";"https://maps.google.com/?cid=0x0:0x7ad9283a516e0afc";""
"toko bangunan";"Toko Swalayan";"Toko Asia Baru";"Jl. Teluk Gong Raya No.16 A, RT.10/RW.10, Pejagalan, Kec. Penjaringan, Jkt Utara, Daerah Khusus Ibukota Jakarta 14450";"RT.10/RW.10, Pejagalan, Kec. Penjaringan, Jkt Utara";"SUMATERA UTARA";"14450";"Indonesia";" 087820602888";"";"";"-6.1382537";"106.7818893";"https://maps.google.com/?cid=0x0:0x3cdea124bd5e7158";""
"toko bangunan";"Pemasok Bahan Bangunan";"TOKO CV. JENNIA NISEL JAYA";"HQGQ+5QP, Hilizihono, Kec. Fanayama, Kabupaten Nias Selatan, Sumatera Utara";"Kabupaten Nias Selatan, Sumatera Utara";"SUMATERA UTARA";"";"Indonesia";" 085293227624";"";"";"0.5754622";"97.7894523";"https://maps.google.com/?cid=0x0:0xcb4bc109b2885447";""
"toko bangunan";"Pemasok Bahan Bangunan";"TOKO BANGUNAN CV. LALA THREE";"HRCG+F24, Ps. Tlk. Dalam, Kec. Tlk. Dalam, Kabupaten Nias Selatan, Sumatera Utara 22865";"Ps. Tlk. Dalam, Kec. Tlk. Dalam, Kabupaten Nias Selatan";"SUMATERA UTARA";"22865";"Indonesia";" 081231645392";"";"";"0.5711401";"97.8250731";"https://maps.google.com/?cid=0x0:0xbcd9a459dd32a3a";""
"toko bangunan";"toko bangunan";"Sumatera Utara 22851";"Sumatera Utara";"Sumatera Utara";"SUMATERA UTARA";"";"Indonesia";"";"";"";"1.2976797";"97.330053";"https://maps.google.com/?cid=0x0:0xb3058656cf8eec8e";""
"toko bangunan";"Toko Bahan Bangunan";"UD. SANGEHAO";"Jl. Nias Tengah No.Km. 33, Hiliuso, Kec. HiliSerangkai, Kabupaten Nias, Sumatera Utara";"Kabupaten Nias, Sumatera Utara";"SUMATERA UTARA";"";"Indonesia";"";"";"";"1.1830273";"97.5809173";"https://maps.google.com/?cid=0x0:0xa9b531138d56902";""
"toko bangunan";"toko bangunan";"Sumatera Utara 22854";"Kec. Botomuzoi, Kabupaten Nias, Sumatera Utara";"Kabupaten Nias, Sumatera Utara";"SUMATERA UTARA";"";"Indonesia";"";"";"";"1.1873897";"97.5301397";"https://maps.google.com/?cid=0x0:0x6075fa9e225a1eff";""
"toko bangunan";"Toko Bahan Bangunan";"Toko Material Bangunan Daniel";"5HW9+W7R, Dahadano Botombawo, Kec. HiliSerangkai, Kabupaten Nias, Sumatera Utara 22851";"Dahadano Botombawo, Kec. HiliSerangkai, Kabupaten Nias";"SUMATERA UTARA";"22851";"Indonesia";" 083114785308";"";"";"1.1975201";"97.5674987";"https://maps.google.com/?cid=0x0:0x5ac67810e5b018cd";""
"toko bangunan";"Toko Bahan Bangunan";"UD. SANGEHAO";"Jl. Nias Tengah No.Km. 33, Hiliuso, Kec. HiliSerangkai, Kabupaten Nias, Sumatera Utara";"Kabupaten Nias, Sumatera Utara";"SUMATERA UTARA";"";"Indonesia";"";"";"";"1.1830273";"97.5809173";"https://maps.google.com/?cid=0x0:0xa9b531138d56902";""
"toko bangunan";"Toko Bahan Bangunan";"Toko Tiga Serangkai";"5MFQ+9CJ, Jl. Raya Pelud Binaka, Lasara Idanoi, Kec. Gido, Kabupaten Nias, Sumatera Utara";"Kabupaten Nias, Sumatera Utara";"SUMATERA UTARA";"";"Indonesia";" 081287458656";"";"";"1.1734639";"97.6885163";"https://maps.google.com/?cid=0x0:0xc947e6c19ba134a6";""
"toko bangunan";"Toko Bahan Bangunan";"Toko Serasi";"Jl. Diponegoro No.142, Ilir, Kec. Gunungsitoli, Kota Gunungsitoli, Sumatera Utara 22811";"Ilir, Kec. Gunungsitoli, Kota Gunungsitoli";"SUMATERA UTARA";"22811";"Indonesia";"";"";"";"1.2857702";"97.6238908";"https://maps.google.com/?cid=0x0:0xe177386885c38e36";""
"toko bangunan";"toko bangunan";"Sumatera Utara 22872";"Kabupaten Nias, Sumatera Utara";"Kabupaten Nias, Sumatera Utara";"SUMATERA UTARA";"";"Indonesia";"";"";"";"1.0204278";"97.7742702";"https://maps.google.com/?cid=0x0:0x39c54a2144cb1830";""
"toko bangunan";"Toko";"UD.98";"4P7J+699, Wea-Wea, Kec. Gido, Kabupaten Nias, Sumatera Utara 22871";"Wea-Wea, Kec. Gido, Kabupaten Nias";"SUMATERA UTARA";"22871";"Indonesia";" 081287458656";"";"";"1.1130302";"97.7309753";"https://maps.google.com/?cid=0x0:0x5c7440accd4d2fd5";""
"toko bangunan";"Toko";"UD. Yosef";"WQWX+QW8, Sifaoroasi Uluhou, Kec. Bawolato, Kabupaten Nias, Sumatera Utara 22876";"Sifaoroasi Uluhou, Kec. Bawolato, Kabupaten Nias";"SUMATERA UTARA";"22876";"Indonesia";" 081231645392";"";"";"0.9471454";"97.7998943";"https://maps.google.com/?cid=0x0:0x509a2b1855e2ff60";""
"toko bangunan";"Toko Bahan Bangunan";"Toko Bahan Bangunan Van";"WVPC+475, Sisarahili, Kec. Bawolato, Kabupaten Nias, Sumatera Utara";"Kabupaten Nias, Sumatera Utara";"SUMATERA UTARA";"";"Indonesia";" 083114785308";"";"";"0.9352594";"97.8707382";"https://maps.google.com/?cid=0x0:0x64e5df789f52852c";""
"toko bangunan";"Toko Bahan Bangunan";"Toko Hinoz, Sembako  Bahan Bangunan";"Simpang 3 Bawomataluo Jln. Ds. Bawofanayama, Orahili Fau, Fanayama, South Nias Regency, North Sumatra 22865";"Orahili Fau, Fanayama, South Nias Regency";"SUMATERA UTARA";"22865";"Indonesia";" 081231645392";"";"";"0.5951276";"97.7683415";"https://maps.google.com/?cid=0x0:0x4d2b25073029b6b7";""
"toko bangunan";"Toko Bahan Bangunan";"Toko Tiga Serangkai";"5MFQ+9CJ, Jl. Raya Pelud Binaka, Lasara Idanoi, Kec. Gido, Kabupaten Nias, Sumatera Utara";"Kabupaten Nias, Sumatera Utara";"SUMATERA UTARA";"";"Indonesia";" 081287458656";"";"";"1.1734639";"97.6885163";"https://maps.google.com/?cid=0x0:0xc947e6c19ba134a6";""
"toko bangunan";"Toko Bahan Bangunan";"TOKO BANGUNAN 123";"7J3Q+RM6, Jl. Diponegoro, Fodo, Kec. Gunungsitoli, Kota Gunungsitoli, Sumatera Utara";"Kota Gunungsitoli, Sumatera Utara";"SUMATERA UTARA";"";"Indonesia";"";"";"";"1.2545367";"97.639141";"https://maps.google.com/?cid=0x0:0x92a58f55691c5b21";""
"toko bangunan";"Toko Bahan Bangunan";"SANGEHAO";"4H3J+3C7, Jl. Gunungsitoli, Lolofaoso, Kec. Lolofitu Moi, Kabupaten Nias Barat, Sumatera Utara 22864";"Jl. Gunungsitoli, Lolofaoso, Kec. Lolofitu Moi, Kabupaten Nias Barat";"SUMATERA UTARA";"22864";"Indonesia";" 081287458656";"";"";"1.1026685";"97.5810422";"https://maps.google.com/?cid=0x0:0xbf83c9d7284d1ad7";""
"toko bangunan";"Toko Perlengkapan Rumah";"Bintang Keramik";"Jl. Diponegoro No.331, Ilir, Kec. Gunungsitoli, Kota Gunungsitoli, Sumatera Utara";"Kota Gunungsitoli, Sumatera Utara";"SUMATERA UTARA";"";"Indonesia";" 085261215008";"";"";"1.2768764";"97.6304523";"https://maps.google.com/?cid=0x0:0xc308ef56f059f942";""
"toko bangunan";"Toko Bahan Bangunan";"Toko Bangunan Anugerah Two";"Kumango, Kec. Sungai Tarab, Kabupaten Tanah Datar, Sumatera Barat";"Kabupaten Tanah Datar, Sumatera Barat";"SUMATERA UTARA";"";"Indonesia";"";"";"";"-0.3966453";"100.5785622";"https://maps.google.com/?cid=0x0:0x321e6c3c2af04f6f";""
"toko bangunan";"Toko";"UD. SUMBER BERKAT";"Desa sirahia, Hilimbowo, Sumatera Utara 22865";"Hilimbowo";"SUMATERA UTARA";"22865";"Indonesia";" 081287458656";"";"";"0.8987359";"97.8200658";"https://maps.google.com/?cid=0x0:0x8291841e69f5c6e6";""
"toko bangunan";"Toko Perlengkapan Rumah";"Toko Bangunan UD. ROMADA";"Hutabalang, Kec. Badiri, Kabupaten Tapanuli Tengah, Sumatera Utara 22612";"Kec. Badiri, Kabupaten Tapanuli Tengah";"SUMATERA UTARA";"22612";"Indonesia";" 082368850070";"";"";"1.5997491";"98.8686204";"https://maps.google.com/?cid=0x0:0xc815b44fa060b08c";""
"toko bangunan";"Toko Alat-Alat";"Toko Karya Baru";"Jl. Sudirman Pasar No.30, Saombo, Kec. Gunungsitoli, Kota Gunungsitoli, Sumatera Utara";"Kota Gunungsitoli, Sumatera Utara";"SUMATERA UTARA";"";"Indonesia";" 08179025265";"";"";"1.2872793";"97.6175534";"https://maps.google.com/?cid=0x0:0x3f78a2a9624e44a5";""
"toko bangunan";"Toko Bahan Bangunan";"Ud Van";"Desa, sisarahili, Kec. Bawolato, Kabupaten Nias, Sumatera Utara 21185";"sisarahili, Kec. Bawolato, Kabupaten Nias";"SUMATERA UTARA";"21185";"Indonesia";" 081315254608";"";"";"0.9352693";"97.8708111";"https://maps.google.com/?cid=0x0:0xacfb58b1ecb3f2d7";""
"toko bangunan";"Toko Bahan Bangunan";"Toko Inti Keramik";"JL Diponegoro, No. 103B, Lingkungan 2, Ilir, Gunungsitoli, Ps. Gn. Sitoli, Kec. Gunungsitoli, Kota Gunungsitoli, Sumatera Utara";"Kota Gunungsitoli, Sumatera Utara";"SUMATERA UTARA";"";"Indonesia";" 081231645392";"";"";"1.2870806";"97.6226972";"https://maps.google.com/?cid=0x0:0x357d246298946d5c";""
"toko bangunan";"Toko Bahan Bangunan";"Toko Material UD Talenta";"HW46+JC9, Gn. Marijo, Kec. Pinangsori, Kabupaten Tapanuli Tengah, Sumatera Utara 22654";"Gn. Marijo, Kec. Pinangsori, Kabupaten Tapanuli Tengah";"SUMATERA UTARA";"22654";"Indonesia";"";"";"";"1.5565499";"98.9111101";"https://maps.google.com/?cid=0x0:0xa8dc740e4fa10c1";""
"toko bangunan";"toko bangunan";"UD. Berkat";"5J9F+GFQ, Sifalaete, Kec. GunungSitoli Idanoi, Kota Gunungsitoli, Sumatera Utara 22871";"Sifalaete, Kec. GunungSitoli Idanoi, Kota Gunungsitoli";"SUMATERA UTARA";"22871";"Indonesia";"";"";"";"1.1688427";"97.6237258";"https://maps.google.com/?cid=0x0:0x15f6da7c7a1bfeb6";""
"toko bangunan";"toko bangunan";"UD. MARI DAMAI";"2QCM+42F, Jl. Arah Tlk. Dalam, Bobozioli Loloanaa, Kecamatan Idanogawo, Kabupaten Nias, Sumatera Utara 22872";"Jl. Arah Tlk. Dalam, Bobozioli Loloanaa, Kecamatan Idanogawo, Kabupaten Nias";"SUMATERA UTARA";"22872";"Indonesia";"";"";"";"1.0203248";"97.7825428";"https://maps.google.com/?cid=0x0:0x1e70fa2c5e8e7ec7";""
"toko bangunan";"Toko Kayu";"Panglong UD Fortuna desa dahadano gawu-gawu,jln sutomo no.101 kota gunungsitoli nias";"Jl. Sutomo No.101, Dahadano Gawu Gawu, Kec. Gunungsitoli, Kota Gunungsitoli, Sumatera Utara 22810";"Dahadano Gawu Gawu, Kec. Gunungsitoli, Kota Gunungsitoli";"SUMATERA UTARA";"22810";"Indonesia";" 081231645392";"";"";"1.2678817";"97.6136189";"https://maps.google.com/?cid=0x0:0x33c97b0eecf5a043";""
"toko bangunan";"Toko Alat-Alat";"UD. Start Jaya";"Jl. Yos Sudarso Ujung No.KM. 5,6, Hili Hao, Kec. Gunungsitoli, Kota Gunungsitoli, Sumatera Utara";"Kota Gunungsitoli, Sumatera Utara";"SUMATERA UTARA";"";"Indonesia";" 081231645392";"";"";"1.3320776";"97.5957471";"https://maps.google.com/?cid=0x0:0xb80213d4744667a1";""
"toko bangunan";"Grosir";"Ud. 99 Gunung Sitoli";"7JV6+85Q, Jl. Yos Sudarso Ujung, Iraonogeba, Kec. Gunungsitoli, Kota Gunungsitoli, Sumatera Utara";"Kota Gunungsitoli, Sumatera Utara";"SUMATERA UTARA";"";"Indonesia";" 082361093252";"";"";"1.2933366";"97.6104717";"https://maps.google.com/?cid=0x0:0xcf603407bb7b4f3c";""
"toko bangunan";"toko bangunan";"Kec. Ma'u";"Kabupaten Nias, Sumatera Utara";"Kabupaten Nias, Sumatera Utara";"SUMATERA UTARA";"";"Indonesia";"";"";"";"1.0167709";"97.6327641";"https://maps.google.com/?cid=0x0:0x610ae1b2430535ae";""
"toko bangunan";"Toko Bahan Bangunan";"Toko bangunan universal";"Jl. Panjang Kp. Baru No.26, Sukabumi Sel., Kec. Kb. Jeruk, Kota Jakarta Barat, Daerah Khusus Ibukota Jakarta 11560";"Sukabumi Sel., Kec. Kb. Jeruk, Kota Jakarta Barat";"SUMATERA UTARA";"11560";"Indonesia";" 08111900096";"";"";"-6.2206237";"106.7718805";"https://maps.google.com/?cid=0x0:0x746b2fc239b96c2e";""
"toko bangunan";"Toko Bahan Bangunan";"Toko Bangunan MURAH SETIA";"3, Jl. Utama Sakti Raya No.9, RW.7, Wijaya Kusuma, Kota Jakarta Barat, Daerah Khusus Ibukota Jakarta 11460";"Jl. Utama Sakti Raya No.9, RW.7, Wijaya Kusuma, Kota Jakarta Barat";"SUMATERA UTARA";"11460";"Indonesia";" 081294009429";"";"";"-6.1524256";"106.780811";"https://maps.google.com/?cid=0x0:0xcb20761081a28f";""
"toko bangunan";"Toko Bahan Bangunan";"Toko Bangunan Putra 2";"Jl. Pendidikan 1 No.42, Mangunjaya, Kec. Tambun Sel., Kabupaten Bekasi, Jawa Barat 17510";"Mangunjaya, Kec. Tambun Sel., Kabupaten Bekasi";"SUMATERA UTARA";"17510";"Indonesia";" 08192008838";"";"";"-6.2338913";"107.0557901";"https://maps.google.com/?cid=0x0:0x5fe8676595ef875b";""
"toko bangunan";"Toko Perlengkapan Rumah";"Toko Bahan Bangunan Dewi Ningrum";"Jl. Tj. Pura V No.3, RT.3/RW.5, Pegadungan, Kec. Kalideres, Kota Jakarta Barat, Daerah Khusus Ibukota Jakarta 11830";"RT.3/RW.5, Pegadungan, Kec. Kalideres, Kota Jakarta Barat";"SUMATERA UTARA";"11830";"Indonesia";"";"";"";"-6.1270704";"106.6954421";"https://maps.google.com/?cid=0x0:0x8d87b0aca2cfd379";""
"toko bangunan";"Toko Bahan Bangunan";"Supermarket Acc Bangunan";"Jl. Raya Sawangan No.18, Depok I, Kec. Pancoran Mas, Kota Depok, Jawa Barat 16436";"Depok I, Kec. Pancoran Mas, Kota Depok";"SUMATERA UTARA";"16436";"Indonesia";" 087781340350";"";"";"-6.398724";"106.81099";"https://maps.google.com/?cid=0x0:0xa5cc5981158e131e";""
"toko bangunan";"Toko Bahan Bangunan";"Toko Bangunan Murah";"Jl. Petojo Viy I No.6, RT.2/RW.6, Cideng, Kecamatan Gambir, Jakarta, Daerah Khusus Ibukota Jakarta 10150";"RT.2/RW.6, Cideng, Kecamatan Gambir, Jakarta";"SUMATERA UTARA";"10150";"Indonesia";" 0213841815";"";"";"-6.1722087";"106.8083734";"https://maps.google.com/?cid=0x0:0xcee6c5b8c1fd4348";""
"toko bangunan";"Toko Bahan Bangunan";"Toko bangunan Tunas baru";"Jl. Delima Raya No.1, RT.13/RW.3, Malaka Sari, Kec. Duren Sawit, Kota Jakarta Timur, Daerah Khusus Ibukota Jakarta 13460";"RT.13/RW.3, Malaka Sari, Kec. Duren Sawit, Kota Jakarta Timur";"SUMATERA UTARA";"13460";"Indonesia";" 082311967326";"";"";"-6.2201229";"106.9268608";"https://maps.google.com/?cid=0x0:0xbb08c1630bed634a";""
"toko bangunan";"Toko Bahan Bangunan";"Toko Bangunan Mandiri Jaya 2";"Taman Graha Mas No.7 Blok E 23, Sukasari, Kec. Serang Baru, Kabupaten Bekasi, Jawa Barat 17330";"Sukasari, Kec. Serang Baru, Kabupaten Bekasi";"SUMATERA UTARA";"17330";"Indonesia";" 082186748825";"";"";"-6.3876861";"107.0919869";"https://maps.google.com/?cid=0x0:0xf7e0650b99801549";""
"toko bangunan";"Toko Bahan Bangunan";"TOKO BANGUNAN RAJAWALI BANG ADE";"Jl. H. Marzuki RT01:RW02) NO.A16, RT.1/RW.6, Kemanggisan, Palmerah, West Jakarta City, Jakarta 11480";"RT.1/RW.6, Kemanggisan, Palmerah, West Jakarta City";"SUMATERA UTARA";"11480";"Indonesia";"";"";"";"-6.1911803";"106.7917124";"https://maps.google.com/?cid=0x0:0xf0f189c4fbde5a39";""
"toko bangunan";"Toko Perlengkapan Rumah";"Usaha Bangunan Toko";"Jl. Daan Mogot I No.25, RT.2/RW.12, Kalideres, Kec. Kalideres, Kota Jakarta Barat, Daerah Khusus Ibukota Jakarta 11710";"RT.2/RW.12, Kalideres, Kec. Kalideres, Kota Jakarta Barat";"SUMATERA UTARA";"11710";"Indonesia";" 0215666791";"";"";"-6.1541583";"106.715622";"https://maps.google.com/?cid=0x0:0xc69b472dd95e75e8";""
"toko bangunan";"Toko Bahan Bangunan";"Toko bahan bangunan";"2, Jl. Cideng Timur No.67B, RT.2/RW.5, Petojo Sel., Kecamatan Gambir, Kota Jakarta Pusat, Daerah Khusus Ibukota Jakarta 10160";"Jl. Cideng Timur No.67B, RT.2/RW.5, Petojo Sel., Kecamatan Gambir, Kota Jakarta Pusat";"SUMATERA UTARA";"10160";"Indonesia";"";"";"";"-6.1748884";"106.8122399";"https://maps.google.com/?cid=0x0:0x4ab134736945a1c9";""
"toko bangunan";"Toko Bahan Bangunan";"Super Bangunan";"Jl. Kejayaan I No.17-19, RT.10/RW.1, Krukut, Kec. Taman Sari, Kota Jakarta Barat, Daerah Khusus Ibukota Jakarta 11140";"RT.10/RW.1, Krukut, Kec. Taman Sari, Kota Jakarta Barat";"SUMATERA UTARA";"11140";"Indonesia";"";"";"";"-6.1564519";"106.8161472";"https://maps.google.com/?cid=0x0:0xa65f462a3ecf5cc";""
"toko bangunan";"Toko Bahan Bangunan";"TOKO EMPAT PULUH";"RRR9+M9P, Jl. Gajah Mada, RT.1/RW.8, Krukut, Kec. Taman Sari, Kota Jakarta Pusat, Daerah Khusus Ibukota Jakarta 10130";"Jl. Gajah Mada, RT.1/RW.8, Krukut, Kec. Taman Sari, Kota Jakarta Pusat";"SUMATERA UTARA";"10130";"Indonesia";" 0216340136";"";"";"-6.1582885";"106.8184462";"https://maps.google.com/?cid=0x0:0xed4d263e6794c094";""
"toko bangunan";"Toko Bahan Bangunan";"Toko Bangunan Bintang Mas";"Jl. Tanjung Duren Utara I No.4, RT.9/RW.2, Tj. Duren Utara, Kec. Grogol petamburan, Kota Jakarta Barat, Daerah Khusus Ibukota Jakarta 11470";"RT.9/RW.2, Tj. Duren Utara, Kec. Grogol petamburan, Kota Jakarta Barat";"SUMATERA UTARA";"11470";"Indonesia";" 087808780871";"";"";"-6.173329";"106.7861947";"https://maps.google.com/?cid=0x0:0x4644f7b05302e46a";""
"toko bangunan";"Toko Bahan Bangunan";"Super Bangunan";"Jl. Gajah Mada No.90 4, RT.4/RW.8, Krukut, Kec. Taman Sari, Kota Jakarta Barat, Daerah Khusus Ibukota Jakarta 11140";"RT.4/RW.8, Krukut, Kec. Taman Sari, Kota Jakarta Barat";"SUMATERA UTARA";"11140";"Indonesia";" 0216330802";"";"";"-6.155223";"106.817786";"https://maps.google.com/?cid=0x0:0xad5cbbfe71e8670a";""
"toko bangunan";"Toko Bahan Bangunan";"Toko Material  Bangunan Toko 88";"Jl. Perdana Kusuma No.8, RT.8/RW.4, Wijaya Kusuma, Kec. Grogol petamburan, Kota Jakarta Barat, Daerah Khusus Ibukota Jakarta 11460";"RT.8/RW.4, Wijaya Kusuma, Kec. Grogol petamburan, Kota Jakarta Barat";"SUMATERA UTARA";"11460";"Indonesia";"";"";"";"-6.15536";"106.7713246";"https://maps.google.com/?cid=0x0:0x82fe803db987c619";""
"toko bangunan";"toko bangunan";"N/A";"";"";"SUMATERA UTARA";"";"Indonesia";"";"";"";"-6.2297465";"106.829518";"https://maps.google.com/?cid=0x0:0xe81bb4addc3cc1b4";""
"toko bangunan";"toko bangunan";"N/A";"";"";"SUMATERA UTARA";"";"Indonesia";" 081222807697";"";"";"-6.2297465";"106.829518";"https://maps.google.com/?cid=0x0:0x81a984a574ecc674";""
"toko bangunan";"toko bangunan";"Sogaeadu";"Kec. Sogae'adu, Kabupaten Nias, Sumatera Utara";"Kabupaten Nias, Sumatera Utara";"SUMATERA UTARA";"";"Indonesia";"";"";"";"1.1024643";"97.7104428";"https://maps.google.com/?cid=0x0:0x1b1f447319f0c61a";""
"toko bangunan";"Toko Bahan Bangunan";"TOKO BANGUNAN 123";"7J3Q+RM6, Jl. Diponegoro, Fodo, Kec. Gunungsitoli, Kota Gunungsitoli, Sumatera Utara";"Kota Gunungsitoli, Sumatera Utara";"SUMATERA UTARA";"";"Indonesia";"";"";"";"1.2545367";"97.639141";"https://maps.google.com/?cid=0x0:0x92a58f55691c5b21";""
"toko bangunan";"Toko Perlengkapan Rumah";"Bintang Keramik";"Jl. Diponegoro No.331, Ilir, Kec. Gunungsitoli, Kota Gunungsitoli, Sumatera Utara";"Kota Gunungsitoli, Sumatera Utara";"SUMATERA UTARA";"";"Indonesia";" 085261215008";"";"";"1.2768764";"97.6304523";"https://maps.google.com/?cid=0x0:0xc308ef56f059f942";""
"toko bangunan";"Toko Alat-Alat";"Toko Karya Baru";"Jl. Sudirman Pasar No.30, Saombo, Kec. Gunungsitoli, Kota Gunungsitoli, Sumatera Utara";"Kota Gunungsitoli, Sumatera Utara";"SUMATERA UTARA";"";"Indonesia";" 08179025265";"";"";"1.2872793";"97.6175534";"https://maps.google.com/?cid=0x0:0x3f78a2a9624e44a5";""
"toko bangunan";"Toko Bahan Bangunan";"GSB Keramik";"Jl. Diponegoro No.365-373, Ilir, Kec. Gunungsitoli, Kota Gunungsitoli, Sumatera Utara";"Kota Gunungsitoli, Sumatera Utara";"SUMATERA UTARA";"";"Indonesia";" 082297737371";"";"";"1.2739194";"97.6324414";"https://maps.google.com/?cid=0x0:0x40854c647183e282";""
"toko bangunan";"Toko Bahan Bangunan";"Star jaya";"8HJW+R68, Unnamed Road, Hili Hao, Kec. Gunungsitoli, Kota Gunungsitoli, Sumatera Utara 22871";"Unnamed Road, Hili Hao, Kec. Gunungsitoli, Kota Gunungsitoli";"SUMATERA UTARA";"22871";"Indonesia";" 082282403347";"";"";"1.3320331";"97.5955906";"https://maps.google.com/?cid=0x0:0x6913cd5225353fdf";""
"toko bangunan";"Toko Bahan Bangunan";"Toko Inti Keramik";"JL Diponegoro, No. 103B, Lingkungan 2, Ilir, Gunungsitoli, Ps. Gn. Sitoli, Kec. Gunungsitoli, Kota Gunungsitoli, Sumatera Utara";"Kota Gunungsitoli, Sumatera Utara";"SUMATERA UTARA";"";"Indonesia";" 081231645392";"";"";"1.2870806";"97.6226972";"https://maps.google.com/?cid=0x0:0x357d246298946d5c";""
"toko bangunan";"Toko bahan makanan";"UD. Solomasi";"Kompleks Kantor Bupati Nias, Jl. Soekarno, Tulumbaho, Kec. Gido, Kabupaten Nias, Sumatera Utara 22871";"Jl. Soekarno, Tulumbaho, Kec. Gido, Kabupaten Nias";"SUMATERA UTARA";"22871";"Indonesia";" 082268445531";"";"";"1.0974024";"97.7246041";"https://maps.google.com/?cid=0x0:0x6c70c65e0d66895d";""
"toko bangunan";"Toko Bahan Bangunan";"Toko Pelita Jaya";"JL Diponegoro, No. 103A, Lingkungan 2, Ilir, Ps. Gn. Sitoli, Kec. Gunungsitoli, Kota Gunungsitoli, Sumatera Utara";"Kota Gunungsitoli, Sumatera Utara";"SUMATERA UTARA";"";"Indonesia";" 085769908768";"";"";"1.2872189";"97.6226985";"https://maps.google.com/?cid=0x0:0x2843cde41dbb3cca";""
"toko bangunan";"Toko Bahan Bangunan";"TOKO CAT UD SENTOSA";"Jl. Gomo No.39, Saombo, Kec. Gunungsitoli, Kota Gunungsitoli, Sumatera Utara 22811";"Saombo, Kec. Gunungsitoli, Kota Gunungsitoli";"SUMATERA UTARA";"22811";"Indonesia";" 081231645392";"";"";"1.2900935";"97.6160597";"https://maps.google.com/?cid=0x0:0x6b6eaa15592f0560";""
"toko bangunan";"Toko Bahan Bangunan";"UD. Makmur Jaya";"7JHH+9PF, Jl. Diponegoro Jl. Tohia, Ilir, Kec. Gunungsitoli, Kota Gunungsitoli, Sumatera Utara 22815";"Jl. Diponegoro Jl. Tohia, Ilir, Kec. Gunungsitoli, Kota Gunungsitoli";"SUMATERA UTARA";"22815";"Indonesia";" 085213366745";"";"";"1.2784446";"97.6292826";"https://maps.google.com/?cid=0x0:0x5cb53de673a8c665";""
"toko bangunan";"toko bangunan";"Sumatera Utara 22871";"Kabupaten Nias, Sumatera Utara";"Kabupaten Nias, Sumatera Utara";"SUMATERA UTARA";"";"Indonesia";"";"";"";"1.1060032";"97.7199454";"https://maps.google.com/?cid=0x0:0xd497e5d19a85372d";""
"toko bangunan";"Toko Alat-Alat";"Toko Karya Baru";"Jl. Sudirman Pasar No.30, Saombo, Kec. Gunungsitoli, Kota Gunungsitoli, Sumatera Utara";"Kota Gunungsitoli, Sumatera Utara";"SUMATERA UTARA";"";"Indonesia";" 08179025265";"";"";"1.2872793";"97.6175534";"https://maps.google.com/?cid=0x0:0x3f78a2a9624e44a5";""
"toko bangunan";"Toko Perlengkapan Rumah";"Bintang Keramik";"Jl. Diponegoro No.331, Ilir, Kec. Gunungsitoli, Kota Gunungsitoli, Sumatera Utara";"Kota Gunungsitoli, Sumatera Utara";"SUMATERA UTARA";"";"Indonesia";" 085261215008";"";"";"1.2768764";"97.6304523";"https://maps.google.com/?cid=0x0:0xc308ef56f059f942";""
"toko bangunan";"toko bangunan";"Hiligodu Somolo molo";"2PWG+R6, Tuhembuasi, Kec. Sogae'adu, Kabupaten Nias, Sumatera Utara";"Kabupaten Nias, Sumatera Utara";"SUMATERA UTARA";"";"Indonesia";"";"";"";"1.0470058";"97.7255808";"https://maps.google.com/?cid=0x0:0x1381507f387d9a10";""
"toko bangunan";"toko bangunan";"Somolo-Molo";"Kec. Somolo-Molo, Kabupaten Nias, Sumatera Utara";"Kabupaten Nias, Sumatera Utara";"SUMATERA UTARA";"";"Indonesia";"";"";"";"1.0609605";"97.6900846";"https://maps.google.com/?cid=0x0:0x1168da738d45cc33";""
"toko bangunan";"toko bangunan";"UD. MARI DAMAI";"2QCM+42F, Jl. Arah Tlk. Dalam, Bobozioli Loloanaa, Kecamatan Idanogawo, Kabupaten Nias, Sumatera Utara 22872";"Jl. Arah Tlk. Dalam, Bobozioli Loloanaa, Kecamatan Idanogawo, Kabupaten Nias";"SUMATERA UTARA";"22872";"Indonesia";"";"";"";"1.0203248";"97.7825428";"https://maps.google.com/?cid=0x0:0x1e70fa2c5e8e7ec7";""
"hardware store";"hardware store";"Sumatera Utara 22851";"Sumatera Utara";"Sumatera Utara";"SUMATERA UTARA";"";"Indonesia";"";"";"";"1.2976797";"97.330053";"https://maps.google.com/?cid=0x0:0xb3058656cf8eec8e";""
"hardware store";"Toko Bahan Bangunan";"Bata Pres Nias Santo Lase";"Iraono Lase, Kec. Gunungsitoli Alo'oa, Kota Gunungsitoli, Sumatera Utara 22851";"Kec. Gunungsitoli Alo'oa, Kota Gunungsitoli";"SUMATERA UTARA";"22851";"Indonesia";" 082233533407";"";"";"1.3114966";"97.5733412";"https://maps.google.com/?cid=0x0:0xb9e5b7fcc4157eed";""
"hardware store";"Toko Bahan Bangunan";"UD 251217";"Desa, Sisarahili, Kec. Bawolato, Gunungsitoli, Sumatera Utara 22876";"Sisarahili, Kec. Bawolato, Gunungsitoli";"SUMATERA UTARA";"22876";"Indonesia";" 085213921102";"";"";"0.932702";"97.8722165";"https://maps.google.com/?cid=0x0:0xe34a240be526a635";""
"hardware store";"Toko Bahan Bangunan";"MR.DIY";"Ruko Gunung Sitoli Nias, Jl. Diponegoro No.218, Ilir, Kec. Gunungsitoli, Kota Gunungsitoli, Sumatera Utara 22811";"Jl. Diponegoro No.218, Ilir, Kec. Gunungsitoli, Kota Gunungsitoli";"SUMATERA UTARA";"22811";"Indonesia";" 02130022789";"";"";"1.2832392";"97.6263763";"https://maps.google.com/?cid=0x0:0xea830496b6a4f508";""
"hardware store";"Toko Mebel";"OMODA INTERIOR";"Keluarahan No.80, Saombo, Kec. Gunungsitoli, Kota Gunungsitoli, Sumatera Utara 22814";"Saombo, Kec. Gunungsitoli, Kota Gunungsitoli";"SUMATERA UTARA";"22814";"Indonesia";" 082298369968";"";"";"1.2953159";"97.6090955";"https://maps.google.com/?cid=0x0:0xaaab9b6fcf21fc3d";""
"hardware store";"Toko Bahan Bangunan";"Toko Bangun";"Jl. Sirao No.46D, Pasar, Kec. Gunungsitoli, Kota Gunungsitoli, Sumatera Utara 22815";"Pasar, Kec. Gunungsitoli, Kota Gunungsitoli";"SUMATERA UTARA";"22815";"Indonesia";" 081361694919";"";"";"1.2899006";"97.6176682";"https://maps.google.com/?cid=0x0:0x9ce61f651849b821";""
"hardware store";"Toko Bahan Bangunan";"TOKO TERANG JAYA";"Ps. Gn. Sitoli, Kec. Gunungsitoli, Kota Gunungsitoli, Sumatera Utara";"Kota Gunungsitoli, Sumatera Utara";"SUMATERA UTARA";"";"Indonesia";" 082378560100";"";"";"1.2858085";"97.6241595";"https://maps.google.com/?cid=0x0:0x844ad21453a3989c";""
"hardware store";"Toko Bahan Bangunan";"Toko Bintang Makmur";"7JP8+CF8, JL Sudirman, Pasar, Saombo, Gunug Sitoli, Kota Gunungsitoli, Sumatera Utara";"Kota Gunungsitoli, Sumatera Utara";"SUMATERA UTARA";"";"Indonesia";" 081231645392";"";"";"1.2860485";"97.6161985";"https://maps.google.com/?cid=0x0:0x64a2e4f2fdb09c31";""
"hardware store";"Toko";"UD. SUMBER BERKAT";"Desa sirahia, Hilimbowo, Sumatera Utara 22865";"Hilimbowo";"SUMATERA UTARA";"22865";"Indonesia";" 081287458656";"";"";"0.8987359";"97.8200658";"https://maps.google.com/?cid=0x0:0x8291841e69f5c6e6";""
"hardware store";"Toko Bahan Bangunan";"Toko Tiga Serangkai";"5MFQ+9CJ, Jl. Raya Pelud Binaka, Lasara Idanoi, Kec. Gido, Kabupaten Nias, Sumatera Utara";"Kabupaten Nias, Sumatera Utara";"SUMATERA UTARA";"";"Indonesia";" 081287458656";"";"";"1.1734639";"97.6885163";"https://maps.google.com/?cid=0x0:0xc947e6c19ba134a6";""
"hardware store";"Toko Alat-Alat";"Toko Karya Baru";"Jl. Sudirman Pasar No.30, Saombo, Kec. Gunungsitoli, Kota Gunungsitoli, Sumatera Utara";"Kota Gunungsitoli, Sumatera Utara";"SUMATERA UTARA";"";"Indonesia";" 08179025265";"";"";"1.2872793";"97.6175534";"https://maps.google.com/?cid=0x0:0x3f78a2a9624e44a5";""
"hardware store";"Toko Perlengkapan Rumah";"Bintang Keramik";"Jl. Diponegoro No.331, Ilir, Kec. Gunungsitoli, Kota Gunungsitoli, Sumatera Utara";"Kota Gunungsitoli, Sumatera Utara";"SUMATERA UTARA";"";"Indonesia";" 085261215008";"";"";"1.2768764";"97.6304523";"https://maps.google.com/?cid=0x0:0xc308ef56f059f942";""
"hardware store";"Toko Alat Tulis Kantor";"UD. FEIVEL";"Jl. Lolomboli, Desa Siduahili, Sidua Hili, Kec. Moro'o, Kabupaten Nias Barat, Sumatera Utara 22862";"Desa Siduahili, Sidua Hili, Kec. Moro'o, Kabupaten Nias Barat";"SUMATERA UTARA";"22862";"Indonesia";" 082258818361";"";"";"1.0619718";"97.4104009";"https://maps.google.com/?cid=0x0:0x2b1640e35d39b6f4";""
"hardware store";"Toko Bahan Bangunan";"Toko Pelita Jaya";"JL Diponegoro, No. 103A, Lingkungan 2, Ilir, Ps. Gn. Sitoli, Kec. Gunungsitoli, Kota Gunungsitoli, Sumatera Utara";"Kota Gunungsitoli, Sumatera Utara";"SUMATERA UTARA";"";"Indonesia";" 085769908768";"";"";"1.2872189";"97.6226985";"https://maps.google.com/?cid=0x0:0x2843cde41dbb3cca";""
"hardware store";"Toko Bahan Bangunan";"UD.MUAMMAR";"simpang pondok pesantren putri ummi Kalsum, Jl. Pattimura No.70, Ps. Gn. Sitoli, Kec. Gunungsitoli, Kota Gunungsitoli, Sumatera Utara 22810";"Jl. Pattimura No.70, Ps. Gn. Sitoli, Kec. Gunungsitoli, Kota Gunungsitoli";"SUMATERA UTARA";"22810";"Indonesia";"";"";"";"1.283899";"97.6184811";"https://maps.google.com/?cid=0x0:0x23cda40ee34b371c";""
"hardware store";"hardware store";"Sumatera Utara 22876";"Kec. Bawolato, Kabupaten Nias, Sumatera Utara";"Kabupaten Nias, Sumatera Utara";"SUMATERA UTARA";"";"Indonesia";"";"";"";"0.9634714";"97.8177601";"https://maps.google.com/?cid=0x0:0xbd072e1dfaa20192";""
"hardware store";"Toko Bahan Bangunan";"UD 251217";"Desa, Sisarahili, Kec. Bawolato, Gunungsitoli, Sumatera Utara 22876";"Sisarahili, Kec. Bawolato, Gunungsitoli";"SUMATERA UTARA";"22876";"Indonesia";" 085213921102";"";"";"0.932702";"97.8722165";"https://maps.google.com/?cid=0x0:0xe34a240be526a635";""
"hardware store";"Toko Bahan Bangunan";"Toko Bahan Bangunan Van";"WVPC+475, Sisarahili, Kec. Bawolato, Kabupaten Nias, Sumatera Utara";"Kabupaten Nias, Sumatera Utara";"SUMATERA UTARA";"";"Indonesia";" 083114785308";"";"";"0.9352594";"97.8707382";"https://maps.google.com/?cid=0x0:0x64e5df789f52852c";""
"hardware store";"Toko";"UD. SUMBER BERKAT";"Desa sirahia, Hilimbowo, Sumatera Utara 22865";"Hilimbowo";"SUMATERA UTARA";"22865";"Indonesia";" 081287458656";"";"";"0.8987359";"97.8200658";"https://maps.google.com/?cid=0x0:0x8291841e69f5c6e6";""
"hardware store";"hardware store";"Sumatera Utara 22815";"Sumatera Utara";"Sumatera Utara";"SUMATERA UTARA";"";"Indonesia";"";"";"";"1.1349561";"97.5572231";"https://maps.google.com/?cid=0x0:0x363d3d935f4724dd";""
"hardware store";"Toko Bahan Bangunan";"Toko Tiga Serangkai";"5MFQ+9CJ, Jl. Raya Pelud Binaka, Lasara Idanoi, Kec. Gido, Kabupaten Nias, Sumatera Utara";"Kabupaten Nias, Sumatera Utara";"SUMATERA UTARA";"";"Indonesia";" 081287458656";"";"";"1.1734639";"97.6885163";"https://maps.google.com/?cid=0x0:0xc947e6c19ba134a6";""
"hardware store";"Taman";"Pasar Tradisional Foa";"5MFP+WXM, Jl. Raya Pelud Binaka, Lasara Idanoi, Kec. Gido, Kabupaten Nias, Sumatera Utara";"Kabupaten Nias, Sumatera Utara";"SUMATERA UTARA";"";"Indonesia";"";"";"";"1.1748436";"97.6874159";"https://maps.google.com/?cid=0x0:0xf35e8e58cd749592";""
"hardware store";"Toko Alat Tulis Kantor";"UD. SEmLove";"Jl. Nias Tengah No.Km. 33, Hiliuso, Kec. Lolofitu Moi, Kabupaten Nias Barat, Sumatera Utara 22875";"Hiliuso, Kec. Lolofitu Moi, Kabupaten Nias Barat";"SUMATERA UTARA";"22875";"Indonesia";"";"";"";"1.1058017";"97.5825448";"https://maps.google.com/?cid=0x0:0x5d9c1865e0168d2f";""
"hardware store";"hardware store";"Kec. Botomuzoi";"Kabupaten Nias, Sumatera Utara";"Kabupaten Nias, Sumatera Utara";"SUMATERA UTARA";"";"Indonesia";"";"";"";"1.1780338";"97.5446524";"https://maps.google.com/?cid=0x0:0x3ea36227f9a6c186";""
"hardware store";"hardware store";"Kec. Gido";"Kabupaten Nias, Sumatera Utara";"Kabupaten Nias, Sumatera Utara";"SUMATERA UTARA";"";"Indonesia";"";"";"";"1.17457";"97.6874949";"https://maps.google.com/?cid=0x0:0x9b3ac0e16891e3a9";""
"hardware store";"Toko Bahan Bangunan";"Toko Tiga Serangkai";"5MFQ+9CJ, Jl. Raya Pelud Binaka, Lasara Idanoi, Kec. Gido, Kabupaten Nias, Sumatera Utara";"Kabupaten Nias, Sumatera Utara";"SUMATERA UTARA";"";"Indonesia";" 081287458656";"";"";"1.1734639";"97.6885163";"https://maps.google.com/?cid=0x0:0xc947e6c19ba134a6";""
"hardware store";"Toko Bahan Bangunan";"CIty Hardware Indonesia - Toko Alat Teknik Terlengkap";"Jl. Panglima Denai Kompleks Pergudangan Amplas Centre Blok A5  A6, Timbang Deli, Kec. Medan Amplas, Kota Medan, Sumatera Utara 20148";"Timbang Deli, Kec. Medan Amplas, Kota Medan";"SUMATERA UTARA";"20148";"Indonesia";" 08116712600";"";"";"3.5400649";"98.7170529";"https://maps.google.com/?cid=0x0:0x149048f0c08107c2";""
"hardware store";"Toko bahan makanan";"UD. Solomasi";"Kompleks Kantor Bupati Nias, Jl. Soekarno, Tulumbaho, Kec. Gido, Kabupaten Nias, Sumatera Utara 22871";"Jl. Soekarno, Tulumbaho, Kec. Gido, Kabupaten Nias";"SUMATERA UTARA";"22871";"Indonesia";" 082268445531";"";"";"1.0974024";"97.7246041";"https://maps.google.com/?cid=0x0:0x6c70c65e0d66895d";""
"hardware store";"Toko Bahan Bangunan";"Agata DIY Sdn Bhd";"33-1, JALAN CECAWI 6/19A SEKSYEN 6, Kota Damansara, 47810 Petaling Jaya, Selangor, Malaysia";"Petaling Jaya";"SUMATERA UTARA";"47810";"Indonesia";" +60123867072";"";"";"3.1594407";"101.5737686";"https://maps.google.com/?cid=0x0:0xf686d1ecd5b4cf6";""
"hardware store";"Toko Bahan Bangunan";"GST DIY Hardware Kota Damansara";"23-G, Jln PJU 5/20e, Kota Damansara, 47810 Petaling Jaya, Selangor, Malaysia";"Petaling Jaya";"SUMATERA UTARA";"47810";"Indonesia";" +60172977694";"";"";"3.1548165";"101.5954168";"https://maps.google.com/?cid=0x0:0x5a82aacf998b9282";""
"hardware store";"Pusat Perbelanjaan";"Strand Mall";"46-G, Jalan PJU 5/22 Encorp Strand Pusat Perdagangan Kota Damansara, Pju 5 Kota Damansara, 47810 Petaling Jaya, Selangor, Malaysia";"Petaling Jaya";"SUMATERA UTARA";"47810";"Indonesia";" +60361431393";"";"";"3.155067";"101.593697";"https://maps.google.com/?cid=0x0:0xb84bab796ee96987";""
"hardware store";"hardware store";"Kec. Hiliduho";"Kabupaten Nias, Sumatera Utara";"Kabupaten Nias, Sumatera Utara";"SUMATERA UTARA";"";"Indonesia";"";"";"";"1.2502486";"97.5332759";"https://maps.google.com/?cid=0x0:0x228ef20efa6adaf";""
"hardware store";"hardware store";"Hiliduho";"Kec. Hiliduho, Kabupaten Nias, Sumatera Utara";"Kabupaten Nias, Sumatera Utara";"SUMATERA UTARA";"";"Indonesia";"";"";"";"1.2636717";"97.5301397";"https://maps.google.com/?cid=0x0:0x3e8c142936d4802f";""
"hardware store";"Toko Bahan Bangunan";"Bata Pres Nias Santo Lase";"Iraono Lase, Kec. Gunungsitoli Alo'oa, Kota Gunungsitoli, Sumatera Utara 22851";"Kec. Gunungsitoli Alo'oa, Kota Gunungsitoli";"SUMATERA UTARA";"22851";"Indonesia";" 082233533407";"";"";"1.3114966";"97.5733412";"https://maps.google.com/?cid=0x0:0xb9e5b7fcc4157eed";""
"hardware store";"hardware store";"Sumatera Utara 22854";"Kec. Botomuzoi, Kabupaten Nias, Sumatera Utara";"Kabupaten Nias, Sumatera Utara";"SUMATERA UTARA";"";"Indonesia";"";"";"";"1.1873897";"97.5301397";"https://maps.google.com/?cid=0x0:0x6075fa9e225a1eff";""
"hardware store";"hardware store";"Hotel Soliga";"Jl. Pangeran Diponegoro No.432, Miga, Kec. Gunungsitoli, Nias, Sumatera Utara 22815";"Miga, Kec. Gunungsitoli, Nias";"SUMATERA UTARA";"22815";"Indonesia";" 081370291919";"";"";"1.2629184";"97.6383988";"https://maps.google.com/?cid=0x0:0xe1786f17668a934a";""
"hardware store";"Toko Bahan Bangunan";"Bata Pres Nias Santo Lase";"Iraono Lase, Kec. Gunungsitoli Alo'oa, Kota Gunungsitoli, Sumatera Utara 22851";"Kec. Gunungsitoli Alo'oa, Kota Gunungsitoli";"SUMATERA UTARA";"22851";"Indonesia";" 082233533407";"";"";"1.3114966";"97.5733412";"https://maps.google.com/?cid=0x0:0xb9e5b7fcc4157eed";""
"hardware store";"Toko Bahan Bangunan";"Toko Tiga Serangkai";"5MFQ+9CJ, Jl. Raya Pelud Binaka, Lasara Idanoi, Kec. Gido, Kabupaten Nias, Sumatera Utara";"Kabupaten Nias, Sumatera Utara";"SUMATERA UTARA";"";"Indonesia";" 081287458656";"";"";"1.1734639";"97.6885163";"https://maps.google.com/?cid=0x0:0xc947e6c19ba134a6";""
"hardware store";"Toko Bahan Bangunan";"Toko Serasi";"Jl. Diponegoro No.142, Ilir, Kec. Gunungsitoli, Kota Gunungsitoli, Sumatera Utara 22811";"Ilir, Kec. Gunungsitoli, Kota Gunungsitoli";"SUMATERA UTARA";"22811";"Indonesia";"";"";"";"1.2857702";"97.6238908";"https://maps.google.com/?cid=0x0:0xe177386885c38e36";""
"hardware store";"hardware store";"Sumatera Utara 22872";"Kabupaten Nias, Sumatera Utara";"Kabupaten Nias, Sumatera Utara";"SUMATERA UTARA";"";"Indonesia";"";"";"";"1.0204278";"97.7742702";"https://maps.google.com/?cid=0x0:0x39c54a2144cb1830";""
"hardware store";"Toko Alat Tulis Kantor";"UD. JUSTICE";"Jl. Diponegoro No.102, Ahedano, Kecamatan Idanogawo, Kabupaten Nias, Sumatera Utara 22872";"Ahedano, Kecamatan Idanogawo, Kabupaten Nias";"SUMATERA UTARA";"22872";"Indonesia";" 085297169543";"";"";"1.0244322";"97.7738772";"https://maps.google.com/?cid=0x0:0xa6b6fef1d72e83b2";""
"hardware store";"Toko Bahan Bangunan";"Toko Tiga Serangkai";"5MFQ+9CJ, Jl. Raya Pelud Binaka, Lasara Idanoi, Kec. Gido, Kabupaten Nias, Sumatera Utara";"Kabupaten Nias, Sumatera Utara";"SUMATERA UTARA";"";"Indonesia";" 081287458656";"";"";"1.1734639";"97.6885163";"https://maps.google.com/?cid=0x0:0xc947e6c19ba134a6";""
"hardware store";"Toko";"UD. SUMBER BERKAT";"Desa sirahia, Hilimbowo, Sumatera Utara 22865";"Hilimbowo";"SUMATERA UTARA";"22865";"Indonesia";" 081287458656";"";"";"0.8987359";"97.8200658";"https://maps.google.com/?cid=0x0:0x8291841e69f5c6e6";""
"hardware store";"Toko";"Ud Enoni";"Komplek Perkantoran Kab. Nias, Jl. Maduma, Hiliweto, Kec. Gido, Kabupaten Nias, Sumatera Utara 22871";"Jl. Maduma, Hiliweto, Kec. Gido, Kabupaten Nias";"SUMATERA UTARA";"22871";"Indonesia";" 082370555527";"";"";"1.1199445";"97.7249916";"https://maps.google.com/?cid=0x0:0x2a9fbaf8ae4747fe";""
"hardware store";"Toko Bahan Bangunan";"Toko ABGHAN22 hardware alat bangunan";"Jl. Bangun Anyer No.15, Rambung Merah, Kec. Siantar, Kabupaten Simalungun, Sumatera Utara 21174";"Rambung Merah, Kec. Siantar, Kabupaten Simalungun";"SUMATERA UTARA";"21174";"Indonesia";" 082174999886";"";"";"2.9782671";"99.0961956";"https://maps.google.com/?cid=0x0:0xaec448a53c8bd510";""
"hardware store";"Toko Bahan Bangunan";"OBOR - Usaha Bahan-Bahan Bangunan";"Jl. P Diponegoro No.6, Proklamasi, Kec. Siantar Bar., Kota Pematang Siantar, Sumatera Utara 21145";"Proklamasi, Kec. Siantar Bar., Kota Pematang Siantar";"SUMATERA UTARA";"21145";"Indonesia";" 081362887567";"";"";"2.9550722";"99.0637176";"https://maps.google.com/?cid=0x0:0x154770de019eebb5";""
"hardware store";"Toko Bahan Bangunan";"MARUTHI HARDWARE";"VR9M+HQ7, MPT Road, Azizuddin, Bhavathi, Bunder, Mangaluru, Karnataka 575001, India";"MPT Road, Azizuddin, Bhavathi, Bunder, Mangaluru, Karnataka";"SUMATERA UTARA";"575001";"Indonesia";" +919591725739";"";"";"12.8689094";"74.8344367";"https://maps.google.com/?cid=0x0:0xaababb0eafdead7e";""
"hardware store";"Toko bahan makanan";"UD. Solomasi";"Kompleks Kantor Bupati Nias, Jl. Soekarno, Tulumbaho, Kec. Gido, Kabupaten Nias, Sumatera Utara 22871";"Jl. Soekarno, Tulumbaho, Kec. Gido, Kabupaten Nias";"SUMATERA UTARA";"22871";"Indonesia";" 082268445531";"";"";"1.0974024";"97.7246041";"https://maps.google.com/?cid=0x0:0x6c70c65e0d66895d";""
"hardware store";"Rumah Makan";"Warung gorengan solomasi";"5MCR+J9, Lolozasai, Kec. Gido, Kabupaten Nias, Sumatera Utara";"Kabupaten Nias, Sumatera Utara";"SUMATERA UTARA";"";"Indonesia";"";"";"";"1.1714732";"97.6908974";"https://maps.google.com/?cid=0x0:0x74132cfdcfb4a027";""
"hardware store";"hardware store";"UD. Owen Sogae'adu";"Sogaeadu, Kec. Sogae'adu, Kabupaten Nias, Sumatera Utara 22871";"Kec. Sogae'adu, Kabupaten Nias";"SUMATERA UTARA";"22871";"Indonesia";"";"";"";"1.091714";"97.7359803";"https://maps.google.com/?cid=0x0:0xbb33b86469391171";""
"hardware store";"Toko Pakaian Renang";"Toko san28";"Jl. Bumi Mutiara jk 1 No.4, Bojong Kulur, Kec. Gn. Putri, Kabupaten Bogor, Jawa Barat 16968";"Bojong Kulur, Kec. Gn. Putri, Kabupaten Bogor";"SUMATERA UTARA";"16968";"Indonesia";" 081294264312";"";"";"-6.3363432";"106.9720117";"https://maps.google.com/?cid=0x0:0xfd387b60b4d81e71";""
"hardware store";"Fasilitas Renang";"Toko Baju Renang Muslimah Syar'i";"Perum Taman Setia Mekar Jalan Mawar 5 Blok M5 No28, Setiamekar, Kec. Tambun Sel., Kabupaten Bekasi, Jawa Barat 17510";"Setiamekar, Kec. Tambun Sel., Kabupaten Bekasi";"SUMATERA UTARA";"17510";"Indonesia";" 08151664149";"";"";"-6.2491967";"107.0357733";"https://maps.google.com/?cid=0x0:0x30bcad8833febca4";""
"hardware store";"hardware store";"Kec. Somolo-Molo";"Kabupaten Nias, Sumatera Utara";"Kabupaten Nias, Sumatera Utara";"SUMATERA UTARA";"";"Indonesia";"";"";"";"1.0160735";"97.6614915";"https://maps.google.com/?cid=0x0:0x88ec4509a19c8140";""
"hardware store";"Toko Alat Tulis Kantor";"UD. JUSTICE";"Jl. Diponegoro No.102, Ahedano, Kecamatan Idanogawo, Kabupaten Nias, Sumatera Utara 22872";"Ahedano, Kecamatan Idanogawo, Kabupaten Nias";"SUMATERA UTARA";"22872";"Indonesia";" 085297169543";"";"";"1.0244322";"97.7738772";"https://maps.google.com/?cid=0x0:0xa6b6fef1d72e83b2";""
"hardware store";"Toko";"Ud Enoni";"Komplek Perkantoran Kab. Nias, Jl. Maduma, Hiliweto, Kec. Gido, Kabupaten Nias, Sumatera Utara 22871";"Jl. Maduma, Hiliweto, Kec. Gido, Kabupaten Nias";"SUMATERA UTARA";"22871";"Indonesia";" 082370555527";"";"";"1.1199445";"97.7249916";"https://maps.google.com/?cid=0x0:0x2a9fbaf8ae4747fe";""
"home improvement";"home improvement";"Sumatera Utara 22851";"Sumatera Utara";"Sumatera Utara";"SUMATERA UTARA";"";"Indonesia";"";"";"";"1.2976797";"97.330053";"https://maps.google.com/?cid=0x0:0xb3058656cf8eec8e";""
"home improvement";"Toko Mebel";"UD.HP PRABOT";"Unnamed Road, Kec. Afulu, Kabupaten Nias Utara, Sumatera Utara 22857";"Kec. Afulu, Kabupaten Nias Utara";"SUMATERA UTARA";"22857";"Indonesia";" 082223921664";"";"";"1.2565899";"97.2512719";"https://maps.google.com/?cid=0x0:0x104a02aee142719";""
"home improvement";"Toko Mebel";"Otoli Zega (A.theo)";"997H+CVM, Baho, Kec. Lotu, Kabupaten Nias Utara, Sumatera Utara 22816";"Baho, Kec. Lotu, Kabupaten Nias Utara";"SUMATERA UTARA";"22816";"Indonesia";" 085372928686";"";"";"1.364042";"97.378564";"https://maps.google.com/?cid=0x0:0x25ceac91816a06b5";""
"home improvement";"Toko Bahan Bangunan";"Toko Bangunan Indo teknik Karya Baru";"7JP7+532, Saombo, Kec. Gunungsitoli, Kota Gunungsitoli, Sumatera Utara";"Kota Gunungsitoli, Sumatera Utara";"SUMATERA UTARA";"";"Indonesia";" 083186603738";"";"";"1.2853834";"97.6126406";"https://maps.google.com/?cid=0x0:0xa57b2f8afbafa993";""
"home improvement";"Toko Mebel";"UD.FRANS";"Jl. Nias Tengah, Dahadano Botombawo, Kec. Botomuzoi, Kabupaten Nias, Sumatera Utara 22811";"Dahadano Botombawo, Kec. Botomuzoi, Kabupaten Nias";"SUMATERA UTARA";"22811";"Indonesia";" 082370375787";"";"";"1.1959077";"97.5587159";"https://maps.google.com/?cid=0x0:0x44e57674427ea493";""
"home improvement";"Toko Mebel";"UD. MELVIN PERABOT";"5HPH+FX8, Unnamed Road, Lolowua, Kec. HiliSerangkai, Kabupaten Nias, Sumatera Utara 22851";"Unnamed Road, Lolowua, Kec. HiliSerangkai, Kabupaten Nias";"SUMATERA UTARA";"22851";"Indonesia";"";"";"";"1.1861749";"97.5799589";"https://maps.google.com/?cid=0x0:0xebfd6597c6571e99";""
"home improvement";"Toko Perlengkapan Rumah";"UD.VALEN";"6CGM+9GW, Loloana'a, Kec. Tugala Oyo, Kabupaten Nias Utara, Sumatera Utara";"Kabupaten Nias Utara, Sumatera Utara";"SUMATERA UTARA";"";"Indonesia";" 085207856665";"";"";"1.2259824";"97.4338187";"https://maps.google.com/?cid=0x0:0xfd47bc1bc15a462e";""
"home improvement";"Toko Bahan Bangunan";"MR.DIY";"Ruko Gunung Sitoli Nias, Jl. Diponegoro No.218, Ilir, Kec. Gunungsitoli, Kota Gunungsitoli, Sumatera Utara 22811";"Jl. Diponegoro No.218, Ilir, Kec. Gunungsitoli, Kota Gunungsitoli";"SUMATERA UTARA";"22811";"Indonesia";" 02130022789";"";"";"1.2832392";"97.6263763";"https://maps.google.com/?cid=0x0:0xea830496b6a4f508";""
"home improvement";"Toko Perabot untuk Taman";"UD RONNY PERABOT";"Jl baho, Hilidundra, Kec. Lotu, Kabupaten Nias Utara, Sumatera Utara 22852";"Hilidundra, Kec. Lotu, Kabupaten Nias Utara";"SUMATERA UTARA";"22852";"Indonesia";" 082297859681";"";"";"1.380584";"97.3623422";"https://maps.google.com/?cid=0x0:0xe40a84f854179312";""
"home improvement";"Toko Perlengkapan Rumah";"Bintang Keramik";"Jl. Diponegoro No.331, Ilir, Kec. Gunungsitoli, Kota Gunungsitoli, Sumatera Utara";"Kota Gunungsitoli, Sumatera Utara";"SUMATERA UTARA";"";"Indonesia";" 085261215008";"";"";"1.2768764";"97.6304523";"https://maps.google.com/?cid=0x0:0xc308ef56f059f942";""
"home improvement";"Insinyur desain";"NIAS INTERIOR design";"Jl. Yos Sudarso Ujung No.162, Ombolata Ulu, Kec. Gunungsitoli, Kota Gunungsitoli, Sumatera Utara";"Kota Gunungsitoli, Sumatera Utara";"SUMATERA UTARA";"";"Indonesia";" 081265309902";"";"";"1.301698";"97.608441";"https://maps.google.com/?cid=0x0:0xd0efc3de2aa30a62";""
"home improvement";"Kelas pengerjaan kayu";"Ud. Hati BAPA, perabot";"Jl. Arah Tlk. Dalam, Tete Goenaai, Kecamatan Idanogawo, Kabupaten Nias, Sumatera Utara 22872";"Tete Goenaai, Kecamatan Idanogawo, Kabupaten Nias";"SUMATERA UTARA";"22872";"Indonesia";" 082277372298";"";"";"0.9936073";"97.8100284";"https://maps.google.com/?cid=0x0:0x9fa022f8bd02a1f9";""
"home improvement";"Toko Perabot untuk Taman";"UD. RYFMAN";"9FR4+FJW, Unnamed Road, Umbubalodano, Kec. Sitolu Ori, Kabupaten Nias Utara, Sumatera Utara 22852";"Unnamed Road, Umbubalodano, Kec. Sitolu Ori, Kabupaten Nias Utara";"SUMATERA UTARA";"22852";"Indonesia";" 085264051174";"";"";"1.391248";"97.456577";"https://maps.google.com/?cid=0x0:0xb24a3c192920cd46";""
"home improvement";"Toko Mebel";"Ike mebel/ Taylor (Rmh,B.A.Sinar Harefa)";"C97Q+GH2, Lombuzaua, Kec. Lotu, Kabupaten Nias Utara, Sumatera Utara 22852";"Lombuzaua, Kec. Lotu, Kabupaten Nias Utara";"SUMATERA UTARA";"22852";"Indonesia";"";"";"";"1.4135956";"97.3892703";"https://maps.google.com/?cid=0x0:0xfbf5700c7e4b804d";""
"home improvement";"Toko Elektronik";"Toko Nusantara";"Jl. Sirao No.115, Saombo, Kec. Gunungsitoli, Kota Gunungsitoli, Sumatera Utara 22814";"Saombo, Kec. Gunungsitoli, Kota Gunungsitoli";"SUMATERA UTARA";"22814";"Indonesia";" 081990000098";"";"";"1.2900245";"97.6185133";"https://maps.google.com/?cid=0x0:0xd9db49ea734acc60";""
"home improvement";"";"Dekorindo";"JL Diponegoro, No. 130B, Ilir, Lingkungan II, Lololawa, Kec. Gunungsitoli, Kota Gunungsitoli, Sumatera Utara 22851";"No. 130B, Ilir, Lingkungan II, Lololawa, Kec. Gunungsitoli, Kota Gunungsitoli";"SUMATERA UTARA";"22851";"Indonesia";" 085275406266";"";"";"1.33682";"97.544468";"https://maps.google.com/?cid=0x0:0x6290ec3df6617cb1";""
"home improvement";"home improvement";"UD.HARAPAN BARU";"C923+RMJ, Jl. Sawö, Lolofaoso, Kec. Lotu, Kabupaten Nias Utara, Sumatera Utara 22851";"Jl. Sawö, Lolofaoso, Kec. Lotu, Kabupaten Nias Utara";"SUMATERA UTARA";"22851";"Indonesia";"";"";"";"1.4020941";"97.3541454";"https://maps.google.com/?cid=0x0:0x88161c71ff678d9c";""
"home improvement";"Toko Mebel";"UD. BEATA";"8HGX+VG5, Hili Hao, Kec. Gunungsitoli, Kota Gunungsitoli, Sumatera Utara";"Kota Gunungsitoli, Sumatera Utara";"SUMATERA UTARA";"";"Indonesia";"";"";"";"1.3271409";"97.5988594";"https://maps.google.com/?cid=0x0:0x7f314f1a7ac31a50";""
"home improvement";"Toko Mebel";"Bapa sipa";"3G3W+MX7, Lologolu, dusun 3, simanaere, Kabupaten Nias Barat";"Kabupaten Nias Barat, Sumatera Utara";"SUMATERA UTARA";"";"Indonesia";"";"";"";"1.0541677";"97.5474153";"https://maps.google.com/?cid=0x0:0xbc9799a88cbfceb3";""
"home improvement";"Kantor Perusahaan";"ASKENA COMPANY";"Saitagari Desa Botonaai Kecamatan Tugala Oyo, Kab, Kabupaten Nias Utara, Sumatera Utara 22861";"Kab, Kabupaten Nias Utara";"SUMATERA UTARA";"22861";"Indonesia";" 081284444489";"";"";"1.1002386";"97.4685683";"https://maps.google.com/?cid=0x0:0x539553c0ad1ef82d";""
"home improvement";"home improvement";"Kec. Bawolato";"Kabupaten Nias, Sumatera Utara";"Kabupaten Nias, Sumatera Utara";"SUMATERA UTARA";"";"Indonesia";"";"";"";"0.9830852";"97.8424596";"https://maps.google.com/?cid=0x0:0x4039d80b220db60";""
"home improvement";"Toko Bahan Bangunan";"Toko Bahan Bangunan Van";"WVPC+475, Sisarahili, Kec. Bawolato, Kabupaten Nias, Sumatera Utara";"Kabupaten Nias, Sumatera Utara";"SUMATERA UTARA";"";"Indonesia";" 083114785308";"";"";"0.9352594";"97.8707382";"https://maps.google.com/?cid=0x0:0x64e5df789f52852c";""
"home improvement";"home improvement";"Sumatera Utara 22876";"Kec. Bawolato, Kabupaten Nias, Sumatera Utara";"Kabupaten Nias, Sumatera Utara";"SUMATERA UTARA";"";"Indonesia";"";"";"";"0.9634714";"97.8177601";"https://maps.google.com/?cid=0x0:0xbd072e1dfaa20192";""
"home improvement";"Toko Bahan Bangunan";"Toko Bahan Bangunan Van";"WVPC+475, Sisarahili, Kec. Bawolato, Kabupaten Nias, Sumatera Utara";"Kabupaten Nias, Sumatera Utara";"SUMATERA UTARA";"";"Indonesia";" 083114785308";"";"";"0.9352594";"97.8707382";"https://maps.google.com/?cid=0x0:0x64e5df789f52852c";""
"home improvement";"Komplek perumahan";"Edwin Home";"XV37+F8F, Tetehosi - Lahusa, Sisarahili Bawolato, Kec. Bawolato, Kabupaten Nias, Sumatera Utara 22851";"Tetehosi - Lahusa, Sisarahili Bawolato, Kec. Bawolato, Kabupaten Nias";"SUMATERA UTARA";"22851";"Indonesia";"";"";"";"0.9536831";"97.863289";"https://maps.google.com/?cid=0x0:0x47817a4d83dfaf54";""
"home improvement";"home improvement";"Kec. Bawolato";"Kabupaten Nias, Sumatera Utara";"Kabupaten Nias, Sumatera Utara";"SUMATERA UTARA";"";"Indonesia";"";"";"";"0.9830852";"97.8424596";"https://maps.google.com/?cid=0x0:0x4039d80b220db60";""
"home improvement";"home improvement";"Sumatera Utara 22815";"Sumatera Utara";"Sumatera Utara";"SUMATERA UTARA";"";"Indonesia";"";"";"";"1.1349561";"97.5572231";"https://maps.google.com/?cid=0x0:0x363d3d935f4724dd";""
"home improvement";"Toko Mebel";"UD.FRANS";"Jl. Nias Tengah, Dahadano Botombawo, Kec. Botomuzoi, Kabupaten Nias, Sumatera Utara 22811";"Dahadano Botombawo, Kec. Botomuzoi, Kabupaten Nias";"SUMATERA UTARA";"22811";"Indonesia";" 082370375787";"";"";"1.1959077";"97.5587159";"https://maps.google.com/?cid=0x0:0x44e57674427ea493";""
"home improvement";"Komplek perumahan";"@bhangfikt";"5G6R+XC3, Simanaere Botomuzoi, Kec. Botomuzoi, Kabupaten Nias, Sumatera Utara";"Kabupaten Nias, Sumatera Utara";"SUMATERA UTARA";"";"Indonesia";"";"";"";"1.1623997";"97.54104";"https://maps.google.com/?cid=0x0:0x34b8abb9e060913c";""
"home improvement";"Toko Perlengkapan Rumah";"Perabot";"WM47+7XM, Amorosa, Kecamatan Ulunoyo, Kabupaten Nias Selatan, Sumatera Utara";"Kabupaten Nias Selatan, Sumatera Utara";"SUMATERA UTARA";"";"Indonesia";"";"";"";"0.905718";"97.6649278";"https://maps.google.com/?cid=0x0:0x7893fdfd9715f1c9";""
"home improvement";"Toko Mebel";"Bapa sipa";"3G3W+MX7, Lologolu, dusun 3, simanaere, Kabupaten Nias Barat";"Kabupaten Nias Barat, Sumatera Utara";"SUMATERA UTARA";"";"Indonesia";"";"";"";"1.0541677";"97.5474153";"https://maps.google.com/?cid=0x0:0xbc9799a88cbfceb3";""
"home improvement";"Grosir Mebel";"UD. MARVEL";"WM56+M9G, Unnamed Road, Hiliwaebu, Kecamatan Ulunoyo, Kabupaten Nias Selatan, Sumatera Utara 22867";"Unnamed Road, Hiliwaebu, Kecamatan Ulunoyo, Kabupaten Nias Selatan";"SUMATERA UTARA";"22867";"Indonesia";"";"";"";"0.9091787";"97.6609616";"https://maps.google.com/?cid=0x0:0xd21928e146275b5c";""
"home improvement";"home improvement";"Kec. Botomuzoi";"Kabupaten Nias, Sumatera Utara";"Kabupaten Nias, Sumatera Utara";"SUMATERA UTARA";"";"Indonesia";"";"";"";"1.1780338";"97.5446524";"https://maps.google.com/?cid=0x0:0x3ea36227f9a6c186";""
"home improvement";"home improvement";"Studioteknik";"";"";"SUMATERA UTARA";"";"Indonesia";" 082181964227";"";"";"0.4514394";"97.99475";"https://maps.google.com/?cid=0x0:0xff7b481fbf840072";""
"home improvement";"home improvement";"Omozatua";"5HFQ+2MW, Unnamed Road, Hiliwaele II, Kec. Botomuzoi, Kabupaten Nias, Sumatera Utara 22851";"Unnamed Road, Hiliwaele II, Kec. Botomuzoi, Kabupaten Nias";"SUMATERA UTARA";"22851";"Indonesia";"";"";"";"1.1726202";"97.5892148";"https://maps.google.com/?cid=0x0:0xbde015f4898a95cc";""
"home improvement";"Toko Perlengkapan Rumah";"UD ARJUN";"4PG9+HJQ, Sirete, Kec. Gido, Kabupaten Nias, Sumatera Utara";"Kabupaten Nias, Sumatera Utara";"SUMATERA UTARA";"";"Indonesia";" 081376616875";"";"";"1.1264693";"97.7191089";"https://maps.google.com/?cid=0x0:0xb346d1a750012e21";""
"home improvement";"Toko Perlengkapan Rumah";"UD. Darren";"4P6J+W93, Wea-Wea, Kec. Gido, Kabupaten Nias, Sumatera Utara 22871";"Wea-Wea, Kec. Gido, Kabupaten Nias";"SUMATERA UTARA";"22871";"Indonesia";"";"";"";"1.1122734";"97.7309351";"https://maps.google.com/?cid=0x0:0xd2c5bd7711f21660";""
"home improvement";"Jasa Pembersih Rumah";"Hihome";"Jl. Jalur Sutera Bar. No.15, RT.003/RW.006, Panunggangan Tim., Kec. Pinang, Kota Tangerang, Banten 15143";"RT.003/RW.006, Panunggangan Tim., Kec. Pinang, Kota Tangerang";"SUMATERA UTARA";"15143";"Indonesia";" 08111115767";"";"";"-6.2256772";"106.6549791";"https://maps.google.com/?cid=0x0:0x78625207adeedaad";""
"home improvement";"Jasa Pembersih Rumah";"HoClean Tangerang";"Jl. Sutera Feronia V Alam No.39, Pd. Jagung, Sutera, Kota Tangerang Selatan, Banten 15326";"Pd. Jagung, Sutera, Kota Tangerang Selatan";"SUMATERA UTARA";"15326";"Indonesia";" 082114932322";"";"";"-6.2636862";"106.6582971";"https://maps.google.com/?cid=0x0:0x83045c102455c116";""
"home improvement";"home improvement";"Kec. Hiliduho";"Kabupaten Nias, Sumatera Utara";"Kabupaten Nias, Sumatera Utara";"SUMATERA UTARA";"";"Indonesia";"";"";"";"1.2502486";"97.5332759";"https://maps.google.com/?cid=0x0:0x228ef20efa6adaf";""
"home improvement";"home improvement";"Sumatera Utara 22854";"Kec. Botomuzoi, Kabupaten Nias, Sumatera Utara";"Kabupaten Nias, Sumatera Utara";"SUMATERA UTARA";"";"Indonesia";"";"";"";"1.1873897";"97.5301397";"https://maps.google.com/?cid=0x0:0x6075fa9e225a1eff";""
"home improvement";"home improvement";"Kec. Hiliduho";"Kabupaten Nias, Sumatera Utara";"Kabupaten Nias, Sumatera Utara";"SUMATERA UTARA";"";"Indonesia";"";"";"";"1.2502486";"97.5332759";"https://maps.google.com/?cid=0x0:0x228ef20efa6adaf";""
"home improvement";"Toko Mebel";"UD.FRANS";"Jl. Nias Tengah, Dahadano Botombawo, Kec. Botomuzoi, Kabupaten Nias, Sumatera Utara 22811";"Dahadano Botombawo, Kec. Botomuzoi, Kabupaten Nias";"SUMATERA UTARA";"22811";"Indonesia";" 082370375787";"";"";"1.1959077";"97.5587159";"https://maps.google.com/?cid=0x0:0x44e57674427ea493";""
"home improvement";"home improvement";"Kec. HiliSerangkai";"Kabupaten Nias, Sumatera Utara";"Kabupaten Nias, Sumatera Utara";"SUMATERA UTARA";"";"Indonesia";"";"";"";"1.2079822";"97.5725863";"https://maps.google.com/?cid=0x0:0x87e5f26307fe5db6";""
"home improvement";"home improvement";"Sumatera Utara 22872";"Kabupaten Nias, Sumatera Utara";"Kabupaten Nias, Sumatera Utara";"SUMATERA UTARA";"";"Indonesia";"";"";"";"1.0204278";"97.7742702";"https://maps.google.com/?cid=0x0:0x39c54a2144cb1830";""
"home improvement";"Kelas pengerjaan kayu";"Ud. Hati BAPA, perabot";"Jl. Arah Tlk. Dalam, Tete Goenaai, Kecamatan Idanogawo, Kabupaten Nias, Sumatera Utara 22872";"Tete Goenaai, Kecamatan Idanogawo, Kabupaten Nias";"SUMATERA UTARA";"22872";"Indonesia";" 082277372298";"";"";"0.9936073";"97.8100284";"https://maps.google.com/?cid=0x0:0x9fa022f8bd02a1f9";""
"home improvement";"Perajin furnitur";"ROMAN FURNITURE";"3Q54+WC4, Jalan Arah, Saiwahili Hiliadulo, Idanogawo, Nias Regency, North Sumatra 22871";"Jalan Arah, Saiwahili Hiliadulo, Idanogawo, Nias Regency";"SUMATERA UTARA";"22871";"Indonesia";" 082364462235";"";"";"1.0597662";"97.7560863";"https://maps.google.com/?cid=0x0:0x50c578cd76604a31";""
"home improvement";"Toko umum";"UD. Toni";"Sisarahili Sogaeadu, Kec. Sogae'adu, Kabupaten Nias, Sumatera Utara 22871";"Kec. Sogae'adu, Kabupaten Nias";"SUMATERA UTARA";"22871";"Indonesia";" 085277224334";"";"";"1.0888318";"97.7370978";"https://maps.google.com/?cid=0x0:0x525b3d470925d2ed";""
"home improvement";"Toko Perlengkapan Rumah";"UD ARJUN";"4PG9+HJQ, Sirete, Kec. Gido, Kabupaten Nias, Sumatera Utara";"Kabupaten Nias, Sumatera Utara";"SUMATERA UTARA";"";"Indonesia";" 081376616875";"";"";"1.1264693";"97.7191089";"https://maps.google.com/?cid=0x0:0xb346d1a750012e21";""
"home improvement";"home improvement";"A/I lani";"2QJF+3HF, Tetehosi, Kecamatan Idanogawo, Kabupaten Nias, Sumatera Utara 22872";"Tetehosi, Kecamatan Idanogawo, Kabupaten Nias";"SUMATERA UTARA";"22872";"Indonesia";"";"";"";"1.0301867";"97.7739245";"https://maps.google.com/?cid=0x0:0x9ef18d594273eab8";""
"home improvement";"home improvement";"UD.MILE";"2QPG+RQ5, Tetehosi, Kecamatan Idanogawo, Kabupaten Nias, Sumatera Utara 22872";"Tetehosi, Kecamatan Idanogawo, Kabupaten Nias";"SUMATERA UTARA";"22872";"Indonesia";"";"";"";"1.0370191";"97.7769875";"https://maps.google.com/?cid=0x0:0x8c4020cd331a5279";""
"home improvement";"home improvement";"Samudera Hening";"Jl. Diponegoro No.80-78, Ahedano, Kecamatan Idanogawo, Kabupaten Nias, Sumatera Utara 22872";"Ahedano, Kecamatan Idanogawo, Kabupaten Nias";"SUMATERA UTARA";"22872";"Indonesia";"";"";"";"1.0265757";"97.7729586";"https://maps.google.com/?cid=0x0:0x3987b58d99cdb6a7";""
"home improvement";"home improvement";"UD.MILE";"2Q9P+7F7, Bobozioli Loloanaa, Kecamatan Idanogawo, Kabupaten Nias, Sumatera Utara 22872";"Bobozioli Loloanaa, Kecamatan Idanogawo, Kabupaten Nias";"SUMATERA UTARA";"22872";"Indonesia";"";"";"";"1.018232";"97.785338";"https://maps.google.com/?cid=0x0:0xd89c960b1b3ee43f";""
"home improvement";"home improvement";"UD.MILE";"2QGF+GHG, Jl. Diponegoro, Tetehosi, Kecamatan Idanogawo, Kabupaten Nias, Sumatera Utara 22872";"Jl. Diponegoro, Tetehosi, Kecamatan Idanogawo, Kabupaten Nias";"SUMATERA UTARA";"22872";"Indonesia";"";"";"";"1.0263238";"97.7739687";"https://maps.google.com/?cid=0x0:0x9718fb19f7a7e0e6";""
"home improvement";"home improvement";"Kec. Ma'u";"Kabupaten Nias, Sumatera Utara";"Kabupaten Nias, Sumatera Utara";"SUMATERA UTARA";"";"Indonesia";"";"";"";"1.0167709";"97.6327641";"https://maps.google.com/?cid=0x0:0x610ae1b2430535ae";""
"home improvement";"Rumah Kayu";"A/i Walfred home stay";"3Q83+X2P, Jl. Arah Idanogawo, Lauri, Kec. Gido, Kabupaten Nias, Sumatera Utara 22871";"Jl. Arah Idanogawo, Lauri, Kec. Gido, Kabupaten Nias";"SUMATERA UTARA";"22871";"Indonesia";" 082368198671";"";"";"1.06746";"97.7525782";"https://maps.google.com/?cid=0x0:0xba18db5a0d7ff380";""
"home improvement";"Rumah Kayu";"Wirda";"2Q74+94V, Oladano, Kecamatan Idanogawo, Kabupaten Nias, Sumatera Utara 22872";"Oladano, Kecamatan Idanogawo, Kabupaten Nias";"SUMATERA UTARA";"22872";"Indonesia";"";"";"";"1.0134756";"97.7553035";"https://maps.google.com/?cid=0x0:0x4f1af73b0318f0b3";""
"home improvement";"home improvement";"Sogaeadu";"Kec. Sogae'adu, Kabupaten Nias, Sumatera Utara";"Kabupaten Nias, Sumatera Utara";"SUMATERA UTARA";"";"Indonesia";"";"";"";"1.1024643";"97.7104428";"https://maps.google.com/?cid=0x0:0x1b1f447319f0c61a";""
"home improvement";"home improvement";"Kec. Somolo-Molo";"Kabupaten Nias, Sumatera Utara";"Kabupaten Nias, Sumatera Utara";"SUMATERA UTARA";"";"Indonesia";"";"";"";"1.0160735";"97.6614915";"https://maps.google.com/?cid=0x0:0x88ec4509a19c8140";""
"home improvement";"home improvement";"Kec. Ulugawo";"Kabupaten Nias, Sumatera Utara";"Kabupaten Nias, Sumatera Utara";"SUMATERA UTARA";"";"Indonesia";"";"";"";"0.9857839";"97.7164165";"https://maps.google.com/?cid=0x0:0x7230b2fec359e534";""
"home improvement";"Rumah Kayu";"A/i Walfred home stay";"3Q83+X2P, Jl. Arah Idanogawo, Lauri, Kec. Gido, Kabupaten Nias, Sumatera Utara 22871";"Jl. Arah Idanogawo, Lauri, Kec. Gido, Kabupaten Nias";"SUMATERA UTARA";"22871";"Indonesia";" 082368198671";"";"";"1.06746";"97.7525782";"https://maps.google.com/?cid=0x0:0xba18db5a0d7ff380";""
"home improvement";"Grosir Mebel";"UD. MARVEL";"WM56+M9G, Unnamed Road, Hiliwaebu, Kecamatan Ulunoyo, Kabupaten Nias Selatan, Sumatera Utara 22867";"Unnamed Road, Hiliwaebu, Kecamatan Ulunoyo, Kabupaten Nias Selatan";"SUMATERA UTARA";"22867";"Indonesia";"";"";"";"0.9091787";"97.6609616";"https://maps.google.com/?cid=0x0:0xd21928e146275b5c";""
"home improvement";"Toko Perlengkapan Rumah";"Perabot";"WM47+7XM, Amorosa, Kecamatan Ulunoyo, Kabupaten Nias Selatan, Sumatera Utara";"Kabupaten Nias Selatan, Sumatera Utara";"SUMATERA UTARA";"";"Indonesia";"";"";"";"0.905718";"97.6649278";"https://maps.google.com/?cid=0x0:0x7893fdfd9715f1c9";""
"home improvement";"home improvement";"A/I lani";"2QJF+3HF, Tetehosi, Kecamatan Idanogawo, Kabupaten Nias, Sumatera Utara 22872";"Tetehosi, Kecamatan Idanogawo, Kabupaten Nias";"SUMATERA UTARA";"22872";"Indonesia";"";"";"";"1.0301867";"97.7739245";"https://maps.google.com/?cid=0x0:0x9ef18d594273eab8";""
"home improvement";"home improvement";"UD.MILE";"2QPG+RQ5, Tetehosi, Kecamatan Idanogawo, Kabupaten Nias, Sumatera Utara 22872";"Tetehosi, Kecamatan Idanogawo, Kabupaten Nias";"SUMATERA UTARA";"22872";"Indonesia";"";"";"";"1.0370191";"97.7769875";"https://maps.google.com/?cid=0x0:0x8c4020cd331a5279";""
"home improvement";"home improvement";"Samudera Hening";"Jl. Diponegoro No.80-78, Ahedano, Kecamatan Idanogawo, Kabupaten Nias, Sumatera Utara 22872";"Ahedano, Kecamatan Idanogawo, Kabupaten Nias";"SUMATERA UTARA";"22872";"Indonesia";"";"";"";"1.0265757";"97.7729586";"https://maps.google.com/?cid=0x0:0x3987b58d99cdb6a7";""
"home improvement";"home improvement";"UD.MILE";"2QGF+GHG, Jl. Diponegoro, Tetehosi, Kecamatan Idanogawo, Kabupaten Nias, Sumatera Utara 22872";"Jl. Diponegoro, Tetehosi, Kecamatan Idanogawo, Kabupaten Nias";"SUMATERA UTARA";"22872";"Indonesia";"";"";"";"1.0263238";"97.7739687";"https://maps.google.com/?cid=0x0:0x9718fb19f7a7e0e6";""
