Category;Real Category;Business Name;Address;City;State;Postal Code;Country;Phone;Email;Website;Latitude;Longitude;Map Link;Details Link
"mall";"mall";"Sumatera Utara 22851";"Sumatera Utara";"Sumatera Utara";"SUMATERA UTARA";"";"Indonesia";"";"";"";"1.2976797";"97.330053";"https://maps.google.com/?cid=0x0:0xb3058656cf8eec8e";""
"mall";"Pusat Perbelanjaan";"A/i Beni Zalukhu";"79V4+4RF, Laowowaga, Kec. Lahewa Tim., Kabupaten Nias Utara, Sumatera Utara";"Kabupaten Nias Utara, Sumatera Utara";"SUMATERA UTARA";"";"Indonesia";"";"";"";"1.2928235";"97.3570576";"https://maps.google.com/?cid=0x0:0x41e4d4f5eb2ab41d";""
"mall";"Pusat Perbelanjaan";"Laoli Lian";"99X3+HHV, Lawira Satua, Kec. Lotu, Kabupaten Nias Utara, Sumatera Utara 22851";"Lawira Satua, Kec. Lotu, Kabupaten Nias Utara";"SUMATERA UTARA";"22851";"Indonesia";" 082167075853";"";"";"1.3989817";"97.3539368";"https://maps.google.com/?cid=0x0:0x56169d8728382d20";""
"mall";"Pasar";"Pasar Tradisional Nalua";"C9H2+PC4, Lolofaoso, Kec. Lotu, Kabupaten Nias Utara, Sumatera Utara 22851";"Lolofaoso, Kec. Lotu, Kabupaten Nias Utara";"SUMATERA UTARA";"22851";"Indonesia";"";"";"";"1.429273";"97.3510873";"https://maps.google.com/?cid=0x0:0x8ae83dcb40684ca4";""
"mall";"Toko umum";"UD.NENI Desa Laowowaga";"kab, dusun IV, Laowowaga, Kec. Lahewa Tim., Kabupaten Nias Utara, Sumatera Utara 22851";"dusun IV, Laowowaga, Kec. Lahewa Tim., Kabupaten Nias Utara";"SUMATERA UTARA";"22851";"Indonesia";" 082162253066";"";"";"1.2894863";"97.3605464";"https://maps.google.com/?cid=0x0:0x28406e5800293cb8";""
"mall";"Minimarket";"UD.Marvel";"5HRC+WMC, Jl. Nias Tengah, Dahadano Botombawo, Kec. HiliSerangkai, Kabupaten Nias, Sumatera Utara 22851";"Jl. Nias Tengah, Dahadano Botombawo, Kec. HiliSerangkai, Kabupaten Nias";"SUMATERA UTARA";"22851";"Indonesia";"";"";"";"1.1923168";"97.571645";"https://maps.google.com/?cid=0x0:0x2ab9e45716feeb50";""
"mall";"Pusat Perbelanjaan";"UD KARYA ARNI JAYA";"99Q5+3WQ, Jl. Arah Gunungsitoli-Lahewa, Hilidundra, Kec. Lotu, Kabupaten Nias Utara, Sumatera Utara 22851";"Jl. Arah Gunungsitoli-Lahewa, Hilidundra, Kec. Lotu, Kabupaten Nias Utara";"SUMATERA UTARA";"22851";"Indonesia";" 081265401399";"";"";"1.3877136";"97.3598439";"https://maps.google.com/?cid=0x0:0xd34ae861af503bdf";""
"mall";"Pasar";"Nisela Ponsel";"99Q5+C78, Unnamed Road, Hilidundra, Kec. Lotu, Kabupaten Nias Utara, Sumatera Utara 22851";"Unnamed Road, Hilidundra, Kec. Lotu, Kabupaten Nias Utara";"SUMATERA UTARA";"22851";"Indonesia";" 085372937777";"";"";"1.3885399";"97.3582019";"https://maps.google.com/?cid=0x0:0xea3c5d3d7991f2aa";""
"mall";"Toko bahan makanan";"Caritas Market";"7JMC+HFR, Jl. Nilam, Ps. Gn. Sitoli, Kec. Gunungsitoli, Kota Gunungsitoli, Sumatera Utara";"Kota Gunungsitoli, Sumatera Utara";"SUMATERA UTARA";"";"Indonesia";" 081260940706";"";"";"1.2839937";"97.6211536";"https://maps.google.com/?cid=0x0:0xaf4cf2740b0acce3";""
"mall";"Pusat Perbelanjaan";"Simson Daeli";"67G8+JH, Lauru Fadoro, Kec. Afulu, Kabupaten Nias Utara, Sumatera Utara";"Kabupaten Nias Utara, Sumatera Utara";"SUMATERA UTARA";"";"Indonesia";" 081370401313";"";"";"1.2265244";"97.2664675";"https://maps.google.com/?cid=0x0:0x6a37bc47f5ec52ae";""
"mall";"Pusat Perbelanjaan";"UD SAMOLALA";"Jl. Yos Sudarso Ujung No.Km. 5, RW.6, Moawo, Kec. Gunungsitoli, Kota Gunungsitoli, Sumatera Utara";"Kota Gunungsitoli, Sumatera Utara";"SUMATERA UTARA";"";"Indonesia";"";"";"";"1.3169355";"97.6019087";"https://maps.google.com/?cid=0x0:0xceeee3552fef12a6";""
"mall";"Pusat Perbelanjaan";"UD. ENJEL SENTRAL";"Unnamed Road, Tlk. Belukar, 22851, Tlk. Belukar, Kec. Gunungsitoli Utara, Kota Gunungsitoli, Sumatera Utara 22851";"Tlk. Belukar,";"SUMATERA UTARA";"22851";"Indonesia";"";"";"";"1.3894459";"97.5267042";"https://maps.google.com/?cid=0x0:0x618956d67c183f4d";""
"mall";"Pusat Perbelanjaan";"Pekan Dahana Sowu - Banua Sibohou";"8F5P+WFV, Banua Sibohou, Kec. Namohalu Esiwa, Kabupaten Nias Utara, Sumatera Utara 22851";"Banua Sibohou, Kec. Namohalu Esiwa, Kabupaten Nias Utara";"SUMATERA UTARA";"22851";"Indonesia";"";"";"";"1.3098703";"97.4861592";"https://maps.google.com/?cid=0x0:0xa9a960d330a3963";""
"mall";"Pusat Perbelanjaan";"Warung RINDA Laowowaga";"79V7+WH4, Unnamed Road, Laowowaga, Lahewa Timur, North Nias Regency, North Sumatra 22851";"Unnamed Road, Laowowaga, Lahewa Timur, North Nias Regency";"SUMATERA UTARA";"22851";"Indonesia";" 081269103634";"";"";"1.2947626";"97.3639399";"https://maps.google.com/?cid=0x0:0x993ee309ed6f4c67";""
"mall";"Pusat Perbelanjaan";"Pames Mend";"Law-lawa, Jl. Nias Tengah, Lolowua, Kec. HiliSerangkai, Kabupaten Nias, Sumatera Utara 22851";"Jl. Nias Tengah, Lolowua, Kec. HiliSerangkai, Kabupaten Nias";"SUMATERA UTARA";"22851";"Indonesia";" 085275290088";"";"";"1.1811384";"97.582569";"https://maps.google.com/?cid=0x0:0x44f205d447b92368";""
"mall";"Toko";"UD. HAGA";"Afulu, Kec. Afulu, Kabupaten Nias Utara, Sumatera Utara 22857";"Kec. Afulu, Kabupaten Nias Utara";"SUMATERA UTARA";"22857";"Indonesia";" 085352383839";"";"";"1.2546733";"97.2524317";"https://maps.google.com/?cid=0x0:0xef38820322abc830";""
"mall";"Salon Kecantikan";"Waspin Salon";"CF9R+J65, Botolakha, Kec. Tuhemberua, Kabupaten Nias Utara, Sumatera Utara 22852";"Botolakha, Kec. Tuhemberua, Kabupaten Nias Utara";"SUMATERA UTARA";"22852";"Indonesia";" 085373406716";"";"";"1.4190041";"97.4906153";"https://maps.google.com/?cid=0x0:0x59c1080327fff62c";""
"mall";"Toko umum";"UD. JOY";"Unnamed Road, Lolowua, Kec. HiliSerangkai, Kabupaten Nias, Sumatera Utara 22851";"Lolowua, Kec. HiliSerangkai, Kabupaten Nias";"SUMATERA UTARA";"22851";"Indonesia";" 082323703170";"";"";"1.1870644";"97.5792011";"https://maps.google.com/?cid=0x0:0x31e0bf58f347437f";""
"mall";"Minimarket";"UD. RIDES";"9CXW+8J4, Tetehosi Maziaya, Kec. Sitolu Ori, Kabupaten Nias Utara, Sumatera Utara 22852";"Tetehosi Maziaya, Kec. Sitolu Ori, Kabupaten Nias Utara";"SUMATERA UTARA";"22852";"Indonesia";" 081360789484";"";"";"1.3982741";"97.4465753";"https://maps.google.com/?cid=0x0:0x3274d16d71b620af";""
"mall";"Toko";"UD. Berkah Jaya";"7JW5+V58, Jl. Yos Sudarso Ujung, Iraonogeba, Kec. Gunungsitoli, Kota Gunungsitoli, Sumatera Utara 22811";"Jl. Yos Sudarso Ujung, Iraonogeba, Kec. Gunungsitoli, Kota Gunungsitoli";"SUMATERA UTARA";"22811";"Indonesia";" 081361460766";"";"";"1.2971737";"97.6079579";"https://maps.google.com/?cid=0x0:0xea58fdb86b8f520f";""
"mall";"Toko umum";"UD.WIJER";"797M+4P3, Dahana Alasa, Kec. Alasa, Kabupaten Nias Utara, Sumatera Utara 22861";"Dahana Alasa, Kec. Alasa, Kabupaten Nias Utara";"SUMATERA UTARA";"22861";"Indonesia";"";"";"";"1.2627537";"97.3842857";"https://maps.google.com/?cid=0x0:0xa24c406296772ad7";""
"mall";"Pusat Perbelanjaan";"Japut*Shop";"99P6+R98, Hilidundra, Kec. Lotu, Kabupaten Nias Utara, Sumatera Utara 22851";"Hilidundra, Kec. Lotu, Kabupaten Nias Utara";"SUMATERA UTARA";"22851";"Indonesia";" 085275799334";"";"";"1.3870439";"97.3609611";"https://maps.google.com/?cid=0x0:0x69bc988a2d307720";""
"mall";"Pusat Perbelanjaan";"Ud. Umbunia Jln. Gowe Zalawa";"99QQ+6P7, Fadoro Fulolo, Kec. Lotu, Kabupaten Nias Utara, Sumatera Utara 22852";"Fadoro Fulolo, Kec. Lotu, Kabupaten Nias Utara";"SUMATERA UTARA";"22852";"Indonesia";"";"";"";"1.3880442";"97.389285";"https://maps.google.com/?cid=0x0:0x945f31c418dc56d";""
"mall";"Toko Pakaian";"Eiger Nagoya hill";"993C+8QW, Unnamed Road, Dahana Hiligodu, Kec. Namohalu Esiwa, Kabupaten Nias Utara, Sumatera Utara 22816";"Unnamed Road, Dahana Hiligodu, Kec. Namohalu Esiwa, Kabupaten Nias Utara";"SUMATERA UTARA";"22816";"Indonesia";"";"";"";"1.3533587";"97.3719482";"https://maps.google.com/?cid=0x0:0x331af879adfa69bd";""
"mall";"Pusat Perbelanjaan";"UD. TOMOSI";"Unnamed Road, Sifaoroasi Uluhou, Kec. Bawolato, Kabupaten Nias, Sumatera Utara 22876";"Sifaoroasi Uluhou, Kec. Bawolato, Kabupaten Nias";"SUMATERA UTARA";"22876";"Indonesia";"";"";"";"0.949518";"97.8008012";"https://maps.google.com/?cid=0x0:0x1ab9801dcd9915b5";""
"mall";"Toko";"UD wandi";"2V48+9MW, Hiliwarokha, Kec. Bawolato, Kabupaten Nias, Sumatera Utara";"Kabupaten Nias, Sumatera Utara";"SUMATERA UTARA";"";"Indonesia";"";"";"";"1.0059834";"97.8667182";"https://maps.google.com/?cid=0x0:0x852fb267024ebb9a";""
"mall";"Toko umum";"UD. DJAYA 95";"XRMV+65R, Hilifaosi, Kec. Bawolato, Kabupaten Nias, Sumatera Utara";"Kabupaten Nias, Sumatera Utara";"SUMATERA UTARA";"";"Indonesia";" 08815024677";"";"";"0.983109";"97.8428975";"https://maps.google.com/?cid=0x0:0x1f94bd403ab31556";""
"mall";"mall";"UD.Wanda Bamen";"WQMW+2RQ, Sifaoroasi Uluhou, Kec. Bawolato, Kabupaten Nias, Sumatera Utara";"Kabupaten Nias, Sumatera Utara";"SUMATERA UTARA";"";"Indonesia";"";"";"";"0.9325963";"97.7971156";"https://maps.google.com/?cid=0x0:0xd0b32645cef32d96";""
"mall";"mall";"Sumatera Utara 22876";"Kec. Bawolato, Kabupaten Nias, Sumatera Utara";"Kabupaten Nias, Sumatera Utara";"SUMATERA UTARA";"";"Indonesia";"";"";"";"0.9634714";"97.8177601";"https://maps.google.com/?cid=0x0:0xbd072e1dfaa20192";""
"mall";"Pusat Perbelanjaan";"UD. TOMOSI";"Unnamed Road, Sifaoroasi Uluhou, Kec. Bawolato, Kabupaten Nias, Sumatera Utara 22876";"Sifaoroasi Uluhou, Kec. Bawolato, Kabupaten Nias";"SUMATERA UTARA";"22876";"Indonesia";"";"";"";"0.949518";"97.8008012";"https://maps.google.com/?cid=0x0:0x1ab9801dcd9915b5";""
"mall";"Pusat Perbelanjaan";"UD. Nius Ndruru";"WQMX+542, Sifaoroasi Uluhou, Kec. Bawolato, Kabupaten Nias, Sumatera Utara 22876";"Sifaoroasi Uluhou, Kec. Bawolato, Kabupaten Nias";"SUMATERA UTARA";"22876";"Indonesia";"";"";"";"0.9328826";"97.797759";"https://maps.google.com/?cid=0x0:0x6d09d3602ad9d8d2";""
"mall";"Toko";"UD wandi";"2V48+9MW, Hiliwarokha, Kec. Bawolato, Kabupaten Nias, Sumatera Utara";"Kabupaten Nias, Sumatera Utara";"SUMATERA UTARA";"";"Indonesia";"";"";"";"1.0059834";"97.8667182";"https://maps.google.com/?cid=0x0:0x852fb267024ebb9a";""
"mall";"Pusat Perbelanjaan";"UD.ALFRED";"XP8W+59G, Mohili, Kec. Ulugawo, Kabupaten Nias, Sumatera Utara";"Kabupaten Nias, Sumatera Utara";"SUMATERA UTARA";"";"Indonesia";" 082269497048";"";"";"0.9654369";"97.7459486";"https://maps.google.com/?cid=0x0:0x65b410a6eb451751";""
"mall";"Toko";"UD.raisya zebua";"2R6C+CPP, Mondrali, Kecamatan Idanogawo, Kabupaten Nias, Sumatera Utara";"Kabupaten Nias, Sumatera Utara";"SUMATERA UTARA";"";"Indonesia";"";"";"";"1.0110756";"97.8218365";"https://maps.google.com/?cid=0x0:0x28f20eac145b690d";""
"mall";"mall";"UD. PUTRA";"WVHF+VR2, desa, sisarahili, Kec. Bawolato, Kabupaten Nias Selatan, Sumatera Utara 22876";"desa, sisarahili, Kec. Bawolato, Kabupaten Nias Selatan";"SUMATERA UTARA";"22876";"Indonesia";"";"";"";"0.9296464";"97.8745187";"https://maps.google.com/?cid=0x0:0xf0f53c2877b7821a";""
"mall";"mall";"Sumatera Utara 22815";"Sumatera Utara";"Sumatera Utara";"SUMATERA UTARA";"";"Indonesia";"";"";"";"1.1349561";"97.5572231";"https://maps.google.com/?cid=0x0:0x363d3d935f4724dd";""
"mall";"Pasar";"Pasar Togizita";"WJ3C+QGF, Togizita, Kec. Hilimegai, Kabupaten Nias Selatan, Sumatera Utara 22864";"Togizita, Kec. Hilimegai, Kabupaten Nias Selatan";"SUMATERA UTARA";"22864";"Indonesia";"";"";"";"0.9044462";"97.6212821";"https://maps.google.com/?cid=0x0:0xf33ec7719d9407a6";""
"mall";"Pusat Perbelanjaan";"Pames Mend";"Law-lawa, Jl. Nias Tengah, Lolowua, Kec. HiliSerangkai, Kabupaten Nias, Sumatera Utara 22851";"Jl. Nias Tengah, Lolowua, Kec. HiliSerangkai, Kabupaten Nias";"SUMATERA UTARA";"22851";"Indonesia";" 085275290088";"";"";"1.1811384";"97.582569";"https://maps.google.com/?cid=0x0:0x44f205d447b92368";""
"mall";"Perhimpunan Pengembang Perumahan";"Pasar Tuhemberua";"Jl. Raya, Tuhemberua, Kec. Lolomatua, Kabupaten Nias Selatan, Sumatera Utara 22852";"Tuhemberua, Kec. Lolomatua, Kabupaten Nias Selatan";"SUMATERA UTARA";"22852";"Indonesia";"";"";"";"0.9136912";"97.6574446";"https://maps.google.com/?cid=0x0:0xc4161dfb2fca2112";""
"mall";"Toko Swalayan";"Kedai STEPHAN";"VHQJ+3G8, Lolowau, Kec. Lalowau, Kabupaten Nias Selatan, Sumatera Utara 22864";"Lolowau, Kec. Lalowau, Kabupaten Nias Selatan";"SUMATERA UTARA";"22864";"Indonesia";" 082161257585";"";"";"0.8876504";"97.5813298";"https://maps.google.com/?cid=0x0:0x70c32a4a8ec47fb5";""
"mall";"Toko";"Ud. Ramos A.elima Halawa";"VHVJ+XHF, Lolowau, Kec. Lalowau, Kabupaten Nias Selatan, Sumatera Utara 22864";"Lolowau, Kec. Lalowau, Kabupaten Nias Selatan";"SUMATERA UTARA";"22864";"Indonesia";" 082164252043";"";"";"0.8949477";"97.5814274";"https://maps.google.com/?cid=0x0:0xf25e9d7b33a4cb9c";""
"mall";"Toko umum";"UD Nanda Ndr";"WJ59+X47, Satu, Togizita, Hilimegai, South Nias Regency, North Sumatra 22864";"Satu, Togizita, Hilimegai, South Nias Regency";"SUMATERA UTARA";"22864";"Indonesia";" 081362415596";"";"";"0.9099197";"97.6178029";"https://maps.google.com/?cid=0x0:0x65494df3626addb3";""
"mall";"Toko umum";"UD. UMBU HAGA";"4JJR+8C7, Ehosakhozi, Kec. HiliSerangkai, Kabupaten Nias Barat, Sumatera Utara 22871";"Ehosakhozi, Kec. HiliSerangkai, Kabupaten Nias Barat";"SUMATERA UTARA";"22871";"Indonesia";" 085371902927";"";"";"1.1307925";"97.6410532";"https://maps.google.com/?cid=0x0:0x94c12626ff095952";""
"mall";"Pusat Perbelanjaan";"Toko Syukur 2";"Lolowau, Kec. Lalowau, Kabupaten Nias Selatan, Sumatera Utara 22864";"Kec. Lalowau, Kabupaten Nias Selatan";"SUMATERA UTARA";"22864";"Indonesia";" 081269526556";"";"";"0.8931156";"97.5811666";"https://maps.google.com/?cid=0x0:0xfc79831999b28744";""
"mall";"Pusat Perbelanjaan";"UD. AERYL HULU";"5F6C+GMC, Desa, Ononazara, Kec. Tugala Oyo, Kabupaten Nias Utara, Sumatera Utara 22861";"Desa, Ononazara, Kec. Tugala Oyo, Kabupaten Nias Utara";"SUMATERA UTARA";"22861";"Indonesia";" 085296698019";"";"";"1.1613212";"97.471648";"https://maps.google.com/?cid=0x0:0xb271a7f8aa3bf168";""
"mall";"Komplek perumahan";"A. Festyn Zebua";"Jln. Pemuda No.40, Hiliweto Gido, Kode Pos, Kec. Gido, Kabupaten Nias, Sumatera Utara 22871";"Hiliweto Gido, Kode Pos, Kec. Gido, Kabupaten Nias";"SUMATERA UTARA";"22871";"Indonesia";" 081282228881";"";"";"1.1346112";"97.6873706";"https://maps.google.com/?cid=0x0:0x7fa745207f067682";""
"mall";"Minimarket";"UD.Marvel";"5HRC+WMC, Jl. Nias Tengah, Dahadano Botombawo, Kec. HiliSerangkai, Kabupaten Nias, Sumatera Utara 22851";"Jl. Nias Tengah, Dahadano Botombawo, Kec. HiliSerangkai, Kabupaten Nias";"SUMATERA UTARA";"22851";"Indonesia";"";"";"";"1.1923168";"97.571645";"https://maps.google.com/?cid=0x0:0x2ab9e45716feeb50";""
"mall";"Toko umum";"UD. JOY";"Unnamed Road, Lolowua, Kec. HiliSerangkai, Kabupaten Nias, Sumatera Utara 22851";"Lolowua, Kec. HiliSerangkai, Kabupaten Nias";"SUMATERA UTARA";"22851";"Indonesia";" 082323703170";"";"";"1.1870644";"97.5792011";"https://maps.google.com/?cid=0x0:0x31e0bf58f347437f";""
"mall";"Pusat Perbelanjaan";"UD INDRA JAYA";"Jl. Raya Pelud Binaka No.71, simanaere, Km.14, Humene, Kec. GunungSitoli Idanoi, Kota Gunungsitoli, Sumatera Utara";"Kota Gunungsitoli, Sumatera Utara";"SUMATERA UTARA";"";"Indonesia";" 081295441368";"";"";"1.1929694";"97.6757735";"https://maps.google.com/?cid=0x0:0x9e9b4a5c84418867";""
"mall";"Pasar tradisional";"Harimbale Duria";"2JJ4+GR4, Jl. Lōlōwa'u, Ehosakhozi, Lolowau, Kabupaten Nias Selatan, Sumatera Utara 22852";"Jl. Lōlōwa'u, Ehosakhozi, Lolowau, Kabupaten Nias Selatan";"SUMATERA UTARA";"22852";"Indonesia";" 083879305604";"";"";"1.0312725";"97.6070851";"https://maps.google.com/?cid=0x0:0x6a6b9f47203b7d0e";""
"mall";"Grosir Barang Kelontong";"Usaha Golden";"WMHP+67C, Unnamed Road, Marao, Kecamatan Ulunoyo, Kabupaten Nias Selatan, Sumatera Utara 22861";"Unnamed Road, Marao, Kecamatan Ulunoyo, Kabupaten Nias Selatan";"SUMATERA UTARA";"22861";"Indonesia";" 082166163843";"";"";"0.9280617";"97.6856527";"https://maps.google.com/?cid=0x0:0x18ed0bde7383a313";""
"mall";"Pusat Perbelanjaan";"UD. SABDANI";"WJWP+HJH, Jl. Ulunoyo, Koendrafo, Pekan Hililaza, Kabupaten Nias Selatan, Sumatera Utara 22867";"Jl. Ulunoyo, Koendrafo, Pekan Hililaza, Kabupaten Nias Selatan";"SUMATERA UTARA";"22867";"Indonesia";"";"";"";"0.9464456";"97.6366125";"https://maps.google.com/?cid=0x0:0x7ffba5cab50921a2";""
"mall";"Pusat Pendidikan";"Ud.Charas";"Jl. Umbunasi, Hiliwaebu, Kec. Lolomatua, Kabupaten Nias Selatan, Sumatera Utara 22852";"Hiliwaebu, Kec. Lolomatua, Kabupaten Nias Selatan";"SUMATERA UTARA";"22852";"Indonesia";" 081315370001";"";"";"0.9159644";"97.6570509";"https://maps.google.com/?cid=0x0:0x295af1e9e18e2afe";""
"mall";"Pusat Perbelanjaan";"UD.ERNI";"VHRJ+85R, Unnamed Road, Lolowau, Kec. Lalowau, Kabupaten Nias Selatan, Sumatera Utara 22864";"Unnamed Road, Lolowau, Kec. Lalowau, Kabupaten Nias Selatan";"SUMATERA UTARA";"22864";"Indonesia";"";"";"";"0.8908567";"97.5803944";"https://maps.google.com/?cid=0x0:0x586bb7786e3b947d";""
"mall";"mall";"Kec. Botomuzoi";"Kabupaten Nias, Sumatera Utara";"Kabupaten Nias, Sumatera Utara";"SUMATERA UTARA";"";"Indonesia";"";"";"";"1.1780338";"97.5446524";"https://maps.google.com/?cid=0x0:0x3ea36227f9a6c186";""
"mall";"Pusat Perbelanjaan";"UD YORIN";"Jl. Raya Pelud Binaka No.101, Humene, Kec. GunungSitoli Idanoi, Kota Gunungsitoli, Sumatera Utara";"Kota Gunungsitoli, Sumatera Utara";"SUMATERA UTARA";"";"Indonesia";" 081361002588";"";"";"1.1912186";"97.6775692";"https://maps.google.com/?cid=0x0:0xc2b40989e5857d74";""
"mall";"Makanan Kecil";"Warung ASJ";"Ononamolo II Lot, Kec. Gunungsitoli Bar., Kota Gunungsitoli, Sumatera Utara 22811";"Kec. Gunungsitoli Bar., Kota Gunungsitoli";"SUMATERA UTARA";"22811";"Indonesia";" 081358790365";"";"";"1.2210204";"97.5702745";"https://maps.google.com/?cid=0x0:0x1204d63d8d357e4d";""
"mall";"mall";"Ud.Orion";"5F9X+93C, Ononamolo Talafu, Kec. Botomuzoi, Kabupaten Nias, Sumatera Utara";"Kabupaten Nias, Sumatera Utara";"SUMATERA UTARA";"";"Indonesia";"";"";"";"1.1684284";"97.4976536";"https://maps.google.com/?cid=0x0:0x5f9db2b6ff92555f";""
"mall";"mall";"Kec. Gido";"Kabupaten Nias, Sumatera Utara";"Kabupaten Nias, Sumatera Utara";"SUMATERA UTARA";"";"Indonesia";"";"";"";"1.17457";"97.6874949";"https://maps.google.com/?cid=0x0:0x9b3ac0e16891e3a9";""
"mall";"Pusat Perbelanjaan";"UD.LILY";"5P52+JQM, Umbu, Kec. Gido, Kabupaten Nias, Sumatera Utara";"Kabupaten Nias, Sumatera Utara";"SUMATERA UTARA";"";"Indonesia";" 082276166391";"";"";"1.1590902";"97.7019371";"https://maps.google.com/?cid=0x0:0xa0de17377241b827";""
"mall";"Toko";"Pasar Hiliweto Gidӧ";"4P8G+X2M, Desa Hiliweto, Kecamatan Hiliweto Gidӧ, Wea-Wea, Kec. Sogae'adu, Kabupaten Nias, Sumatera Utara 22871";"Desa Hiliweto, Kecamatan Hiliweto Gidӧ, Wea-Wea, Kec. Sogae'adu, Kabupaten Nias";"SUMATERA UTARA";"22871";"Indonesia";"";"";"";"1.1174649";"97.7250378";"https://maps.google.com/?cid=0x0:0x4836436a61425dfc";""
"mall";"Komplek perumahan";"A. Festyn Zebua";"Jln. Pemuda No.40, Hiliweto Gido, Kode Pos, Kec. Gido, Kabupaten Nias, Sumatera Utara 22871";"Hiliweto Gido, Kode Pos, Kec. Gido, Kabupaten Nias";"SUMATERA UTARA";"22871";"Indonesia";" 081282228881";"";"";"1.1346112";"97.6873706";"https://maps.google.com/?cid=0x0:0x7fa745207f067682";""
"mall";"Toko Ponsel";"Sejoli Ponsel /Warung Sejoli";"4PW4+MC8, Lolozasai, Kec. Gido, Kabupaten Nias, Sumatera Utara 22871";"Lolozasai, Kec. Gido, Kabupaten Nias";"SUMATERA UTARA";"22871";"Indonesia";" 085262047678";"";"";"1.1466618";"97.7060712";"https://maps.google.com/?cid=0x0:0xe883f1cdcb8769f9";""
"mall";"Pusat Perbelanjaan";"UD.HARAPAN KITA";"4PV5+Q3P, Jl. Gunungsitoli-Idanögawo, Lolozasai, Kec. Gido, Kabupaten Nias, Sumatera Utara 22871";"Jl. Gunungsitoli-Idanögawo, Lolozasai, Kec. Gido, Kabupaten Nias";"SUMATERA UTARA";"22871";"Indonesia";"";"";"";"1.144455";"97.707703";"https://maps.google.com/?cid=0x0:0xfc235c06407bbf6d";""
"mall";"Minimarket";"Alfamidi Gidö";"Jl. Merdeka No.89, Wea-Wea, Kec. Gido, Kabupaten Nias, Sumatera Utara 22871";"Wea-Wea, Kec. Gido, Kabupaten Nias";"SUMATERA UTARA";"22871";"Indonesia";"";"";"";"1.1174051";"97.7256418";"https://maps.google.com/?cid=0x0:0x13375c1c346afab5";""
"mall";"Pusat Perbelanjaan";"UD Sinjaya";"Umbu, Kec. Gido, Kabupaten Nias, Sumatera Utara";"Kabupaten Nias, Sumatera Utara";"SUMATERA UTARA";"";"Indonesia";" 081361596387";"";"";"1.15828";"97.702478";"https://maps.google.com/?cid=0x0:0x8264bf3ed1c72956";""
"mall";"Toko Perlengkapan Rumah";"UD. MARSEN";"4PV4+WRM, Lolozasai, Kec. Gido, Kabupaten Nias, Sumatera Utara 22871";"Lolozasai, Kec. Gido, Kabupaten Nias";"SUMATERA UTARA";"22871";"Indonesia";" 081262342425";"";"";"1.1448482";"97.7070342";"https://maps.google.com/?cid=0x0:0xdb1a070d65f6cd05";""
"mall";"Toko";"UD. Hiro Makmur";"4QJ6+675, Jl. Simpang Duria Menuju Pantai Somi, Wea-Wea, Kec. Gido, Kabupaten Nias, Sumatera Utara 22871";"Jl. Simpang Duria Menuju Pantai Somi, Wea-Wea, Kec. Gido, Kabupaten Nias";"SUMATERA UTARA";"22871";"Indonesia";"";"";"";"1.1305233";"97.7607277";"https://maps.google.com/?cid=0x0:0x3b365665317c6191";""
"mall";"Pusat Perbelanjaan";"Warung/Kedai UD.CINDY";"5P33+GCG, Jl. Raya Pelud Binaka, Umbu, Kec. Gido, Kabupaten Nias, Sumatera Utara 22871";"Jl. Raya Pelud Binaka, Umbu, Kec. Gido, Kabupaten Nias";"SUMATERA UTARA";"22871";"Indonesia";"";"";"";"1.1538234";"97.7035936";"https://maps.google.com/?cid=0x0:0xb6daecbbec177c5d";""
"mall";"Toko Perlengkapan Rumah";"UD. BANGKIT";"4QQM+XRQ, Desa Somi Botogo'o, Wea-Wea, Kec. Gido, Kabupaten Nias, Sumatera Utara";"Kabupaten Nias, Sumatera Utara";"SUMATERA UTARA";"";"Indonesia";"";"";"";"1.1399588";"97.7846238";"https://maps.google.com/?cid=0x0:0x7637bd3e3625c3f4";""
"mall";"Toko umum";"UD. UMBU HAGA";"4JJR+8C7, Ehosakhozi, Kec. HiliSerangkai, Kabupaten Nias Barat, Sumatera Utara 22871";"Ehosakhozi, Kec. HiliSerangkai, Kabupaten Nias Barat";"SUMATERA UTARA";"22871";"Indonesia";" 085371902927";"";"";"1.1307925";"97.6410532";"https://maps.google.com/?cid=0x0:0x94c12626ff095952";""
"mall";"Pusat Perbelanjaan";"Bobby Cell Jln Osala Desa Baruzo, Kec.Sogaeadu";"Desa Kecamatan, Baruzo, Kec. Sogae'adu, Kabupaten Nias, Sumatera Utara 22871";"Baruzo, Kec. Sogae'adu, Kabupaten Nias";"SUMATERA UTARA";"22871";"Indonesia";" 085361099821";"";"";"1.097063";"97.726893";"https://maps.google.com/?cid=0x0:0xb529214fc3254ffc";""
"mall";"Pusat Perbelanjaan";"UD. LASWA";"4QM7+63, Wea-Wea, Kec. Sogae'adu, Kabupaten Nias, Sumatera Utara";"Kabupaten Nias, Sumatera Utara";"SUMATERA UTARA";"";"Indonesia";" 081397117126";"";"";"1.1330018";"97.7626909";"https://maps.google.com/?cid=0x0:0xb81692a213d4f8a7";""
"mall";"Toko";"WARUNG CERI";"5MHP+3F5, Jl. Raya Pelud Binaka, Binaka, Kec. GunungSitoli Idanoi, Kabupaten Nias, Sumatera Utara";"Kabupaten Nias, Sumatera Utara";"SUMATERA UTARA";"";"Indonesia";"";"";"";"1.1776271";"97.6862275";"https://maps.google.com/?cid=0x0:0x775030c9f707ea1d";""
"mall";"Sekolah Menengah Atas";"SMA Negeri 1 Gido";"Jl. Karya No.3, Heliweto, Kec. Gido, Kabupaten Nias, Sumatera Utara 22871";"Heliweto, Kec. Gido, Kabupaten Nias";"SUMATERA UTARA";"22871";"Indonesia";" 081397271726";"";"";"1.121367";"97.723236";"https://maps.google.com/?cid=0x0:0xc1141af71ad31705";""
"mall";"Pusat Perbelanjaan";"Grand Indonesia";"Jl. MH Thamrin No.1, Menteng, Kec. Menteng, Kota Jakarta Pusat, Daerah Khusus Ibukota Jakarta 10310";"Menteng, Kec. Menteng, Kota Jakarta Pusat";"SUMATERA UTARA";"10310";"Indonesia";" 02123580001";"";"";"-6.1950412";"106.8210081";"https://maps.google.com/?cid=0x0:0xb04ce66a7cb711d9";""
"mall";"Pusat Perbelanjaan";"Grand Indonesia Shopping Town";"Jl. M.H. Thamrin No.1, Menteng, Kec. Menteng, Kota Jakarta Pusat, Daerah Khusus Ibukota Jakarta 10310";"Menteng, Kec. Menteng, Kota Jakarta Pusat";"SUMATERA UTARA";"10310";"Indonesia";" 02123580001";"";"";"-6.1965848";"106.8224882";"https://maps.google.com/?cid=0x0:0xccfcc89b95aaf1ae";""
"mall";"Pusat Perbelanjaan";"Pondok Indah Mall 1";"Jl. Metro Pondok Indah No.Kav. 4, RT.1/RW.16, Pd. Pinang, Kec. Kby. Lama, Kota Jakarta Selatan, Daerah Khusus Ibukota Jakarta 12310";"RT.1/RW.16, Pd. Pinang, Kec. Kby. Lama, Kota Jakarta Selatan";"SUMATERA UTARA";"12310";"Indonesia";" 0217506750";"";"";"-6.2652166";"106.7843165";"https://maps.google.com/?cid=0x0:0x682837113c4ea854";""
"mall";"Pusat Perbelanjaan";"Grand Indonesia Skybridge";"Jl. Teluk Betung No.1, RT.1/RW.5, Menteng, Kec. Menteng, Kota Jakarta Pusat, Daerah Khusus Ibukota Jakarta 10230";"RT.1/RW.5, Menteng, Kec. Menteng, Kota Jakarta Pusat";"SUMATERA UTARA";"10230";"Indonesia";"";"";"";"-6.1948881";"106.8208468";"https://maps.google.com/?cid=0x0:0x3a0314f105a6bcf9";""
"mall";"Pusat Perbelanjaan";"Mall Of Indonesia";"Jl. Boulevard Bar. Raya No.12, RT.18/RW.19, Klp. Gading Bar., Kec. Klp. Gading, Jkt Utara, Daerah Khusus Ibukota Jakarta 14240";"RT.18/RW.19, Klp. Gading Bar., Kec. Klp. Gading, Jkt Utara";"SUMATERA UTARA";"14240";"Indonesia";" 02145867888";"";"";"-6.1514549";"106.8918949";"https://maps.google.com/?cid=0x0:0x3431c7aaadd1f1b6";""
"mall";"Agen real estat";"Green Sedayu Mall";"Blk. B17, Jl. Taman Palem Lestari No.2, RT.7/RW.13, Cengkareng Bar., Kecamatan Cengkareng, Kota Jakarta Barat, Daerah Khusus Ibukota Jakarta 11730";"Jl. Taman Palem Lestari No.2, RT.7/RW.13, Cengkareng Bar., Kecamatan Cengkareng, Kota Jakarta Barat";"SUMATERA UTARA";"11730";"Indonesia";" 081386635688";"";"";"-6.1388522";"106.7287214";"https://maps.google.com/?cid=0x0:0xd7fefe5d9828a2b1";""
"mall";"Toserba";"Seibu Grand Indonesia";"Jl. M.H. Thamrin No.1, RT.1/RW.5, Kb. Melati, Kec. Menteng, Kota Jakarta Pusat, Daerah Khusus Ibukota Jakarta 10310";"RT.1/RW.5, Kb. Melati, Kec. Menteng, Kota Jakarta Pusat";"SUMATERA UTARA";"10310";"Indonesia";" 02123580100";"";"";"-6.195462";"106.8197925";"https://maps.google.com/?cid=0x0:0x2a655f7752e3505c";""
"mall";"Tujuan Wisata";"Hiligeo Majinge, Fadoro";"CC3X+2HG, Umbubalodano, Kec. Sitolu Ori, Kabupaten Nias Utara, Sumatera Utara 22852";"Umbubalodano, Kec. Sitolu Ori, Kabupaten Nias Utara";"SUMATERA UTARA";"22852";"Indonesia";" 081372351165";"";"";"1.4025503";"97.4489531";"https://maps.google.com/?cid=0x0:0xf2c9d1a8888daf9b";""
"mall";"mall";"Sumatera Utara 22851";"Sumatera Utara";"Sumatera Utara";"SUMATERA UTARA";"";"Indonesia";"";"";"";"1.2976797";"97.330053";"https://maps.google.com/?cid=0x0:0xb3058656cf8eec8e";""
"mall";"Komplek perumahan";"Desa Hiligeo Afia";"Hiligeo Afia, Kec. Lotu, Kabupaten Nias Utara, Sumatera Utara 22851";"Kec. Lotu, Kabupaten Nias Utara";"SUMATERA UTARA";"22851";"Indonesia";"";"";"";"1.4566384";"97.3562008";"https://maps.google.com/?cid=0x0:0x6d16bf6d6eac8032";""
"mall";"Toko umum";"UD. JOY";"Unnamed Road, Lolowua, Kec. HiliSerangkai, Kabupaten Nias, Sumatera Utara 22851";"Lolowua, Kec. HiliSerangkai, Kabupaten Nias";"SUMATERA UTARA";"22851";"Indonesia";" 082323703170";"";"";"1.1870644";"97.5792011";"https://maps.google.com/?cid=0x0:0x31e0bf58f347437f";""
"mall";"mall";"Kec. Hiliduho";"Kabupaten Nias, Sumatera Utara";"Kabupaten Nias, Sumatera Utara";"SUMATERA UTARA";"";"Indonesia";"";"";"";"1.2502486";"97.5332759";"https://maps.google.com/?cid=0x0:0x228ef20efa6adaf";""
"mall";"Minimarket";"UD.Marvel";"5HRC+WMC, Jl. Nias Tengah, Dahadano Botombawo, Kec. HiliSerangkai, Kabupaten Nias, Sumatera Utara 22851";"Jl. Nias Tengah, Dahadano Botombawo, Kec. HiliSerangkai, Kabupaten Nias";"SUMATERA UTARA";"22851";"Indonesia";"";"";"";"1.1923168";"97.571645";"https://maps.google.com/?cid=0x0:0x2ab9e45716feeb50";""
"mall";"Toko bahan makanan";"UD. Anugrah";"Jl. Nias tengah Km 10,8 Desa Hiligodu Ombolata, Dusun 2, Tuhemberua, Kec. Gunungsitoli Bar., Kota Gunungsitoli, Sumatera Utara 22811";"Dusun 2, Tuhemberua, Kec. Gunungsitoli Bar., Kota Gunungsitoli";"SUMATERA UTARA";"22811";"Indonesia";"";"";"";"1.2277611";"97.6096154";"https://maps.google.com/?cid=0x0:0x5fe6f2510d778ac7";""
"mall";"Makanan Kecil";"Warung ASJ";"Ononamolo II Lot, Kec. Gunungsitoli Bar., Kota Gunungsitoli, Sumatera Utara 22811";"Kec. Gunungsitoli Bar., Kota Gunungsitoli";"SUMATERA UTARA";"22811";"Indonesia";" 081358790365";"";"";"1.2210204";"97.5702745";"https://maps.google.com/?cid=0x0:0x1204d63d8d357e4d";""
"mall";"Pusat Perbelanjaan";"UD. PRETTY";"7GPC+3RC, Fadoro You, Kec. Gunungsitoli Alo'oa, Kota Gunungsitoli, Sumatera Utara";"Kota Gunungsitoli, Sumatera Utara";"SUMATERA UTARA";"";"Indonesia";"";"";"";"1.2851753";"97.5220167";"https://maps.google.com/?cid=0x0:0xa1e8d9d73ffb6e95";""
"mall";"Pusat Perbelanjaan";"Pekan Dahana Sowu - Banua Sibohou";"8F5P+WFV, Banua Sibohou, Kec. Namohalu Esiwa, Kabupaten Nias Utara, Sumatera Utara 22851";"Banua Sibohou, Kec. Namohalu Esiwa, Kabupaten Nias Utara";"SUMATERA UTARA";"22851";"Indonesia";"";"";"";"1.3098703";"97.4861592";"https://maps.google.com/?cid=0x0:0xa9a960d330a3963";""
"mall";"Pusat Perbelanjaan";"Warung UD.VINCE";"7H7X+XG4, Fadoro Lasara, Kec. Gunungsitoli, Kota Gunungsitoli, Sumatera Utara 22812";"Fadoro Lasara, Kec. Gunungsitoli, Kota Gunungsitoli";"SUMATERA UTARA";"22812";"Indonesia";"";"";"";"1.2648809";"97.5988263";"https://maps.google.com/?cid=0x0:0xd65a2eead3d0d4f8";""
"mall";"Toko";"UD. Berkah Jaya";"7JW5+V58, Jl. Yos Sudarso Ujung, Iraonogeba, Kec. Gunungsitoli, Kota Gunungsitoli, Sumatera Utara 22811";"Jl. Yos Sudarso Ujung, Iraonogeba, Kec. Gunungsitoli, Kota Gunungsitoli";"SUMATERA UTARA";"22811";"Indonesia";" 081361460766";"";"";"1.2971737";"97.6079579";"https://maps.google.com/?cid=0x0:0xea58fdb86b8f520f";""
"mall";"Toko Aksesori Pakaian";"Warung Ayu Tel";"7HXM+33X, Jl. Ke Alasa, Sifalaete Ulu, Kec. Gunungsitoli, Kota Gunungsitoli, Sumatera Utara 22811";"Jl. Ke Alasa, Sifalaete Ulu, Kec. Gunungsitoli, Kota Gunungsitoli";"SUMATERA UTARA";"22811";"Indonesia";"";"";"";"1.2977427";"97.5827187";"https://maps.google.com/?cid=0x0:0x9829f189743a3e14";""
"mall";"mall";"Sumatera Utara 22854";"Kec. Botomuzoi, Kabupaten Nias, Sumatera Utara";"Kabupaten Nias, Sumatera Utara";"SUMATERA UTARA";"";"Indonesia";"";"";"";"1.1873897";"97.5301397";"https://maps.google.com/?cid=0x0:0x6075fa9e225a1eff";""
"mall";"Minimarket";"UD.Marvel";"5HRC+WMC, Jl. Nias Tengah, Dahadano Botombawo, Kec. HiliSerangkai, Kabupaten Nias, Sumatera Utara 22851";"Jl. Nias Tengah, Dahadano Botombawo, Kec. HiliSerangkai, Kabupaten Nias";"SUMATERA UTARA";"22851";"Indonesia";"";"";"";"1.1923168";"97.571645";"https://maps.google.com/?cid=0x0:0x2ab9e45716feeb50";""
"mall";"Toko umum";"UD. JOY";"Unnamed Road, Lolowua, Kec. HiliSerangkai, Kabupaten Nias, Sumatera Utara 22851";"Lolowua, Kec. HiliSerangkai, Kabupaten Nias";"SUMATERA UTARA";"22851";"Indonesia";" 082323703170";"";"";"1.1870644";"97.5792011";"https://maps.google.com/?cid=0x0:0x31e0bf58f347437f";""
"mall";"Tujuan Wisata";"Hiligeo Majinge, Fadoro";"CC3X+2HG, Umbubalodano, Kec. Sitolu Ori, Kabupaten Nias Utara, Sumatera Utara 22852";"Umbubalodano, Kec. Sitolu Ori, Kabupaten Nias Utara";"SUMATERA UTARA";"22852";"Indonesia";" 081372351165";"";"";"1.4025503";"97.4489531";"https://maps.google.com/?cid=0x0:0xf2c9d1a8888daf9b";""
"mall";"Pusat Perbelanjaan";"Pames Mend";"Law-lawa, Jl. Nias Tengah, Lolowua, Kec. HiliSerangkai, Kabupaten Nias, Sumatera Utara 22851";"Jl. Nias Tengah, Lolowua, Kec. HiliSerangkai, Kabupaten Nias";"SUMATERA UTARA";"22851";"Indonesia";" 085275290088";"";"";"1.1811384";"97.582569";"https://maps.google.com/?cid=0x0:0x44f205d447b92368";""
"mall";"Makanan Kecil";"Warung ASJ";"Ononamolo II Lot, Kec. Gunungsitoli Bar., Kota Gunungsitoli, Sumatera Utara 22811";"Kec. Gunungsitoli Bar., Kota Gunungsitoli";"SUMATERA UTARA";"22811";"Indonesia";" 081358790365";"";"";"1.2210204";"97.5702745";"https://maps.google.com/?cid=0x0:0x1204d63d8d357e4d";""
"mall";"mall";"Harimbale Dahadano Botombawo";"5HX8+MFP, Unnamed Road, Dahadano Botombawo, Kec. HiliSerangkai, Kabupaten Nias, Sumatera Utara 22851";"Unnamed Road, Dahadano Botombawo, Kec. HiliSerangkai, Kabupaten Nias";"SUMATERA UTARA";"22851";"Indonesia";"";"";"";"1.1992082";"97.5662146";"https://maps.google.com/?cid=0x0:0xe63d650ccb19a36e";""
"mall";"mall";"Kec. Hiliduho";"Kabupaten Nias, Sumatera Utara";"Kabupaten Nias, Sumatera Utara";"SUMATERA UTARA";"";"Indonesia";"";"";"";"1.2502486";"97.5332759";"https://maps.google.com/?cid=0x0:0x228ef20efa6adaf";""
"mall";"Pusat Perbelanjaan";"UD. PRETTY";"7GPC+3RC, Fadoro You, Kec. Gunungsitoli Alo'oa, Kota Gunungsitoli, Sumatera Utara";"Kota Gunungsitoli, Sumatera Utara";"SUMATERA UTARA";"";"Indonesia";"";"";"";"1.2851753";"97.5220167";"https://maps.google.com/?cid=0x0:0xa1e8d9d73ffb6e95";""
"mall";"Pusat Perbelanjaan";"Pekan Dahana Sowu - Banua Sibohou";"8F5P+WFV, Banua Sibohou, Kec. Namohalu Esiwa, Kabupaten Nias Utara, Sumatera Utara 22851";"Banua Sibohou, Kec. Namohalu Esiwa, Kabupaten Nias Utara";"SUMATERA UTARA";"22851";"Indonesia";"";"";"";"1.3098703";"97.4861592";"https://maps.google.com/?cid=0x0:0xa9a960d330a3963";""
"mall";"Pusat Perbelanjaan";"Warung UD.VINCE";"7H7X+XG4, Fadoro Lasara, Kec. Gunungsitoli, Kota Gunungsitoli, Sumatera Utara 22812";"Fadoro Lasara, Kec. Gunungsitoli, Kota Gunungsitoli";"SUMATERA UTARA";"22812";"Indonesia";"";"";"";"1.2648809";"97.5988263";"https://maps.google.com/?cid=0x0:0xd65a2eead3d0d4f8";""
"mall";"Toko Aksesori Pakaian";"Warung Ayu Tel";"7HXM+33X, Jl. Ke Alasa, Sifalaete Ulu, Kec. Gunungsitoli, Kota Gunungsitoli, Sumatera Utara 22811";"Jl. Ke Alasa, Sifalaete Ulu, Kec. Gunungsitoli, Kota Gunungsitoli";"SUMATERA UTARA";"22811";"Indonesia";"";"";"";"1.2977427";"97.5827187";"https://maps.google.com/?cid=0x0:0x9829f189743a3e14";""
"mall";"Toko";"UD. Berkah Jaya";"7JW5+V58, Jl. Yos Sudarso Ujung, Iraonogeba, Kec. Gunungsitoli, Kota Gunungsitoli, Sumatera Utara 22811";"Jl. Yos Sudarso Ujung, Iraonogeba, Kec. Gunungsitoli, Kota Gunungsitoli";"SUMATERA UTARA";"22811";"Indonesia";" 081361460766";"";"";"1.2971737";"97.6079579";"https://maps.google.com/?cid=0x0:0xea58fdb86b8f520f";""
"mall";"Toko";"Toko Obini";"Jl. Yos Sudarso Ujung No.158, Ombolata Ulu, Kec. Gunungsitoli, Kota Gunungsitoli, Sumatera Utara";"Kota Gunungsitoli, Sumatera Utara";"SUMATERA UTARA";"";"Indonesia";"";"";"";"1.3014584";"97.6085777";"https://maps.google.com/?cid=0x0:0xb4fe457c07febf80";""
"mall";"";"UD. DANDI";"Jl. Yos Sudarso Ujung No.162, Ombolata Ulu, Kec. Gunungsitoli, Kota Gunungsitoli, Sumatera Utara";"Kota Gunungsitoli, Sumatera Utara";"SUMATERA UTARA";"";"Indonesia";"";"";"";"1.3016442";"97.6085845";"https://maps.google.com/?cid=0x0:0x70245b766095a6ee";""
"mall";"Minimarket";"ALFAMIDI YOS SUDARSO 3 PELABUHAN";"8J45+GGW, Jl. Yos Sudarso Ujung, Saombo, Kec. Gunungsitoli, Kota Gunungsitoli, Sumatera Utara";"Kota Gunungsitoli, Sumatera Utara";"SUMATERA UTARA";"";"Indonesia";"";"";"";"1.3063513";"97.6088235";"https://maps.google.com/?cid=0x0:0xe189b500931094bf";""
"mall";"Toko Unggas";"Ud. SungaiBerkat";"Ombolata Ulu, Kec. Gunungsitoli, Kota Gunungsitoli, Sumatera Utara";"Kota Gunungsitoli, Sumatera Utara";"SUMATERA UTARA";"";"Indonesia";" 082167415922";"";"";"1.3091103";"97.6088211";"https://maps.google.com/?cid=0x0:0x6c615f1865fda35a";""
"mall";"Pusat Perbelanjaan";"Warung Tiawan";"7J65+7Q, Dahadano Gawu Gawu, Kec. Gunungsitoli, Kota Gunungsitoli, Sumatera Utara";"Kota Gunungsitoli, Sumatera Utara";"SUMATERA UTARA";"";"Indonesia";"";"";"";"1.2605639";"97.6094334";"https://maps.google.com/?cid=0x0:0x4e4b39c367b9b76b";""
"mall";"Biro Perjalanan dan Wisata";"Loket Tiket Selamat";"Jl. Yos Sudarso Ujung No.205, Saombo, Kec. Gunungsitoli, Kota Gunungsitoli, Sumatera Utara";"Kota Gunungsitoli, Sumatera Utara";"SUMATERA UTARA";"";"Indonesia";" 081365690990";"";"";"1.3062917";"97.6087833";"https://maps.google.com/?cid=0x0:0x74ce275eef1c006f";""
"mall";"Toko Pakaian";"UD. JAVAS FAMILY";"Jl. KL Yos Sudarso No.122 A, Saombo, Kec. Gunungsitoli, Kota Gunungsitoli, Sumatera Utara 20241";"Saombo, Kec. Gunungsitoli, Kota Gunungsitoli";"SUMATERA UTARA";"20241";"Indonesia";" 081361460766";"";"";"1.2977077";"97.6078961";"https://maps.google.com/?cid=0x0:0x356a23ecda83cdc7";""
"mall";"mall";"Kec. HiliSerangkai";"Kabupaten Nias, Sumatera Utara";"Kabupaten Nias, Sumatera Utara";"SUMATERA UTARA";"";"Indonesia";"";"";"";"1.2079822";"97.5725863";"https://maps.google.com/?cid=0x0:0x87e5f26307fe5db6";""
"mall";"mall";"Sumatera Utara 22872";"Kabupaten Nias, Sumatera Utara";"Kabupaten Nias, Sumatera Utara";"SUMATERA UTARA";"";"Indonesia";"";"";"";"1.0204278";"97.7742702";"https://maps.google.com/?cid=0x0:0x39c54a2144cb1830";""
"mall";"Toko Bunga";"KEMBAR FLORIST";"Jl. Diponegoro No.80-78, Ahedano, Kecamatan Idanogawo, Kabupaten Nias, Sumatera Utara 22872";"Ahedano, Kecamatan Idanogawo, Kabupaten Nias";"SUMATERA UTARA";"22872";"Indonesia";" 085360009696";"";"";"1.026577";"97.77293";"https://maps.google.com/?cid=0x0:0xf0ba1dbac4fdd1f7";""
"mall";"Toko";"Ud Fahuwusa";"3RRM+R43, Bozihona, Kecamatan Idanogawo, Kabupaten Nias, Sumatera Utara";"Kabupaten Nias, Sumatera Utara";"SUMATERA UTARA";"";"Indonesia";"";"";"";"1.0920114";"97.8328124";"https://maps.google.com/?cid=0x0:0x499a5182289500d";""
"mall";"Toko";"UD.raisya zebua";"2R6C+CPP, Mondrali, Kecamatan Idanogawo, Kabupaten Nias, Sumatera Utara";"Kabupaten Nias, Sumatera Utara";"SUMATERA UTARA";"";"Indonesia";"";"";"";"1.0110756";"97.8218365";"https://maps.google.com/?cid=0x0:0x28f20eac145b690d";""
"mall";"Pusat Perbelanjaan";"UD. TOMOSI";"Unnamed Road, Sifaoroasi Uluhou, Kec. Bawolato, Kabupaten Nias, Sumatera Utara 22876";"Sifaoroasi Uluhou, Kec. Bawolato, Kabupaten Nias";"SUMATERA UTARA";"22876";"Indonesia";"";"";"";"0.949518";"97.8008012";"https://maps.google.com/?cid=0x0:0x1ab9801dcd9915b5";""
"mall";"Pusat Perbelanjaan";"UD.ALFRED";"XP8W+59G, Mohili, Kec. Ulugawo, Kabupaten Nias, Sumatera Utara";"Kabupaten Nias, Sumatera Utara";"SUMATERA UTARA";"";"Indonesia";" 082269497048";"";"";"0.9654369";"97.7459486";"https://maps.google.com/?cid=0x0:0x65b410a6eb451751";""
"mall";"Pusat Perbelanjaan";"UD. LASWA";"4QM7+63, Wea-Wea, Kec. Sogae'adu, Kabupaten Nias, Sumatera Utara";"Kabupaten Nias, Sumatera Utara";"SUMATERA UTARA";"";"Indonesia";" 081397117126";"";"";"1.1330018";"97.7626909";"https://maps.google.com/?cid=0x0:0xb81692a213d4f8a7";""
"mall";"Toko umum";"UD. UMBU HAGA";"4JJR+8C7, Ehosakhozi, Kec. HiliSerangkai, Kabupaten Nias Barat, Sumatera Utara 22871";"Ehosakhozi, Kec. HiliSerangkai, Kabupaten Nias Barat";"SUMATERA UTARA";"22871";"Indonesia";" 085371902927";"";"";"1.1307925";"97.6410532";"https://maps.google.com/?cid=0x0:0x94c12626ff095952";""
"mall";"Toko Perlengkapan Rumah";"UD. BANGKIT";"4QQM+XRQ, Desa Somi Botogo'o, Wea-Wea, Kec. Gido, Kabupaten Nias, Sumatera Utara";"Kabupaten Nias, Sumatera Utara";"SUMATERA UTARA";"";"Indonesia";"";"";"";"1.1399588";"97.7846238";"https://maps.google.com/?cid=0x0:0x7637bd3e3625c3f4";""
"mall";"Toko umum";"UD. DJAYA 95";"XRMV+65R, Hilifaosi, Kec. Bawolato, Kabupaten Nias, Sumatera Utara";"Kabupaten Nias, Sumatera Utara";"SUMATERA UTARA";"";"Indonesia";" 08815024677";"";"";"0.983109";"97.8428975";"https://maps.google.com/?cid=0x0:0x1f94bd403ab31556";""
"mall";"Pusat Perbelanjaan";"Bobby Cell Jln Osala Desa Baruzo, Kec.Sogaeadu";"Desa Kecamatan, Baruzo, Kec. Sogae'adu, Kabupaten Nias, Sumatera Utara 22871";"Baruzo, Kec. Sogae'adu, Kabupaten Nias";"SUMATERA UTARA";"22871";"Indonesia";" 085361099821";"";"";"1.097063";"97.726893";"https://maps.google.com/?cid=0x0:0xb529214fc3254ffc";""
"mall";"Pusat Perbelanjaan";"UD.LILY";"5P52+JQM, Umbu, Kec. Gido, Kabupaten Nias, Sumatera Utara";"Kabupaten Nias, Sumatera Utara";"SUMATERA UTARA";"";"Indonesia";" 082276166391";"";"";"1.1590902";"97.7019371";"https://maps.google.com/?cid=0x0:0xa0de17377241b827";""
"mall";"Pusat Perbelanjaan";"UD. Tiga Sinar";"Umbu Orahua, Idanotae, Kabupaten Nias Selatan, Sumatera Utara 22873";"Idanotae, Kabupaten Nias Selatan";"SUMATERA UTARA";"22873";"Indonesia";" 082368124762";"";"";"0.9083329";"97.8147108";"https://maps.google.com/?cid=0x0:0xd7866f958c479e2f";""
"mall";"Tempat Ibadah";"Maliwa'a";"2QVP+GQ, Tetehosi, Kecamatan Idanogawo, Kabupaten Nias, Sumatera Utara 22872";"Tetehosi, Kecamatan Idanogawo, Kabupaten Nias";"SUMATERA UTARA";"22872";"Indonesia";"";"";"";"1.0437725";"97.7869631";"https://maps.google.com/?cid=0x0:0xf55044f5f964fb9d";""
"mall";"Toko";"UD. Hiro Makmur";"4QJ6+675, Jl. Simpang Duria Menuju Pantai Somi, Wea-Wea, Kec. Gido, Kabupaten Nias, Sumatera Utara 22871";"Jl. Simpang Duria Menuju Pantai Somi, Wea-Wea, Kec. Gido, Kabupaten Nias";"SUMATERA UTARA";"22871";"Indonesia";"";"";"";"1.1305233";"97.7607277";"https://maps.google.com/?cid=0x0:0x3b365665317c6191";""
"mall";"Pusat Perbelanjaan";"UD.wilman";"4QRR+2RX, Tulumbaho, Kec. Sogae'adu, Kabupaten Nias, Sumatera Utara";"Kabupaten Nias, Sumatera Utara";"SUMATERA UTARA";"";"Indonesia";"";"";"";"1.1401191";"97.7921146";"https://maps.google.com/?cid=0x0:0x96b1ec7a172cdb93";""
"mall";"Komplek perumahan";"A. Festyn Zebua";"Jln. Pemuda No.40, Hiliweto Gido, Kode Pos, Kec. Gido, Kabupaten Nias, Sumatera Utara 22871";"Hiliweto Gido, Kode Pos, Kec. Gido, Kabupaten Nias";"SUMATERA UTARA";"22871";"Indonesia";" 081282228881";"";"";"1.1346112";"97.6873706";"https://maps.google.com/?cid=0x0:0x7fa745207f067682";""
"mall";"Toko";"UD wandi";"2V48+9MW, Hiliwarokha, Kec. Bawolato, Kabupaten Nias, Sumatera Utara";"Kabupaten Nias, Sumatera Utara";"SUMATERA UTARA";"";"Indonesia";"";"";"";"1.0059834";"97.8667182";"https://maps.google.com/?cid=0x0:0x852fb267024ebb9a";""
"mall";"mall";"UD. FAMILI";"2Q8Q+W3Q, Bobozioli Loloanaa, Kecamatan Idanogawo, Kabupaten Nias, Sumatera Utara 22872";"Bobozioli Loloanaa, Kecamatan Idanogawo, Kabupaten Nias";"SUMATERA UTARA";"22872";"Indonesia";"";"";"";"1.0173302";"97.7877427";"https://maps.google.com/?cid=0x0:0xd76dc56073997196";""
"mall";"mall";"Dute Jaya";"Jl. Diponegoro Belakang Gereja BNLP No.203, Tetehosi, Kecamatan Idanogawo, Kabupaten Nias, Sumatera Utara 22872";"Tetehosi, Kecamatan Idanogawo, Kabupaten Nias";"SUMATERA UTARA";"22872";"Indonesia";"";"";"";"1.0249682";"97.7770193";"https://maps.google.com/?cid=0x0:0x451e6e94650821b2";""
"mall";"mall";"UD Fajlen";"Jalan Pancasila Desa No.12, Tetehosi, Idanogawo, Nias Regency, North Sumatra 22872";"Tetehosi, Idanogawo, Nias Regency";"SUMATERA UTARA";"22872";"Indonesia";"";"";"";"1.0256148";"97.7726347";"https://maps.google.com/?cid=0x0:0xe7ff2c9ddbc809db";""
"mall";"Pusat Perbelanjaan";"UD. Nius Ndruru";"WQMX+542, Sifaoroasi Uluhou, Kec. Bawolato, Kabupaten Nias, Sumatera Utara 22876";"Sifaoroasi Uluhou, Kec. Bawolato, Kabupaten Nias";"SUMATERA UTARA";"22876";"Indonesia";"";"";"";"0.9328826";"97.797759";"https://maps.google.com/?cid=0x0:0x6d09d3602ad9d8d2";""
"mall";"Pusat Perbelanjaan";"UD Sinjaya";"Umbu, Kec. Gido, Kabupaten Nias, Sumatera Utara";"Kabupaten Nias, Sumatera Utara";"SUMATERA UTARA";"";"Indonesia";" 081361596387";"";"";"1.15828";"97.702478";"https://maps.google.com/?cid=0x0:0x8264bf3ed1c72956";""
"mall";"mall";"Kec. Ma'u";"Kabupaten Nias, Sumatera Utara";"Kabupaten Nias, Sumatera Utara";"SUMATERA UTARA";"";"Indonesia";"";"";"";"1.0167709";"97.6327641";"https://maps.google.com/?cid=0x0:0x610ae1b2430535ae";""
"mall";"Pasar tradisional";"Harimbale Duria";"2JJ4+GR4, Jl. Lōlōwa'u, Ehosakhozi, Lolowau, Kabupaten Nias Selatan, Sumatera Utara 22852";"Jl. Lōlōwa'u, Ehosakhozi, Lolowau, Kabupaten Nias Selatan";"SUMATERA UTARA";"22852";"Indonesia";" 083879305604";"";"";"1.0312725";"97.6070851";"https://maps.google.com/?cid=0x0:0x6a6b9f47203b7d0e";""
"mall";"Pusat Perbelanjaan";"Medan Mall";"Jl. M. T. Haryono No.8, Pusat Ps., Kec. Medan Kota, Kota Medan, Sumatera Utara 20212";"Pusat Ps., Kec. Medan Kota, Kota Medan";"SUMATERA UTARA";"20212";"Indonesia";" 0614531800";"";"";"3.58767";"98.6867939";"https://maps.google.com/?cid=0x0:0x19be424c62eb0f57";""
"mall";"Pusat Perbelanjaan";"Suzuya Mall Marelan";"Jl. Marelan Raya No.207, Tanah Enam Ratus, Kec. Medan Marelan, Kota Medan, Sumatera Utara 20243";"Tanah Enam Ratus, Kec. Medan Marelan, Kota Medan";"SUMATERA UTARA";"20243";"Indonesia";" 06188810707";"";"";"3.6783197";"98.6572295";"https://maps.google.com/?cid=0x0:0xb9d1c8237d6468c7";""
"mall";"Hipermarket";"Plaza Medan Fair";"Plaza Medan Fair, Jl. Gatot Subroto No.30, Sekip, Kec. Medan Petisah, Kota Medan, Sumatera Utara 20113";"Jl. Gatot Subroto No.30, Sekip, Kec. Medan Petisah, Kota Medan";"SUMATERA UTARA";"20113";"Indonesia";" 0614140888";"";"";"3.5923784";"98.663167";"https://maps.google.com/?cid=0x0:0xd6a7308b04df6237";""
"mall";"Pusat Perbelanjaan";"Lippo Plaza Medan";"Jl. Imam Bonjol No.6, Suka Damai, Kec. Medan Polonia, Kota Medan, Sumatera Utara 20112";"Suka Damai, Kec. Medan Polonia, Kota Medan";"SUMATERA UTARA";"20112";"Indonesia";" 06180511111";"";"";"3.5864512";"98.6733531";"https://maps.google.com/?cid=0x0:0xb3196f95b6d5cdd4";""
"mall";"Pusat Perbelanjaan";"Suzuya Merdeka Mall";"Jl. Merdeka No.365, Pardomuan, Kec. Siantar Tim., Kota Pematang Siantar, Sumatera Utara 21136";"Pardomuan, Kec. Siantar Tim., Kota Pematang Siantar";"SUMATERA UTARA";"21136";"Indonesia";"";"";"";"2.9617357";"99.0728387";"https://maps.google.com/?cid=0x0:0xb0f117e79d0984e4";""
"mall";"Pusat Perbelanjaan";"Mall Of Indonesia";"Jl. Boulevard Bar. Raya No.12, RT.18/RW.19, Klp. Gading Bar., Kec. Klp. Gading, Jkt Utara, Daerah Khusus Ibukota Jakarta 14240";"RT.18/RW.19, Klp. Gading Bar., Kec. Klp. Gading, Jkt Utara";"SUMATERA UTARA";"14240";"Indonesia";" 02145867888";"";"";"-6.1514549";"106.8918949";"https://maps.google.com/?cid=0x0:0x3431c7aaadd1f1b6";""
"mall";"Toko";"UD.BALOIDO";"2JMG+83V, Balodano, Kec. Ma'u, Kabupaten Nias, Sumatera Utara 22852";"Balodano, Kec. Ma'u, Kabupaten Nias";"SUMATERA UTARA";"22852";"Indonesia";"";"";"";"1.0333733";"97.6251581";"https://maps.google.com/?cid=0x0:0x854480e49851876b";""
"mall";"Pusat Perbelanjaan";"Plaza Indonesia";"Jl. M.H. Thamrin No.Kav.28-30, Gondangdia, Kec. Menteng, Kota Jakarta Pusat, Daerah Khusus Ibukota Jakarta 10350";"Gondangdia, Kec. Menteng, Kota Jakarta Pusat";"SUMATERA UTARA";"10350";"Indonesia";" 02129920000";"";"";"-6.1935977";"106.8219468";"https://maps.google.com/?cid=0x0:0x7d7fe17ad64a053f";""
"mall";"Pusat Perbelanjaan";"Grand Indonesia Shopping Town";"Jl. M.H. Thamrin No.1, Menteng, Kec. Menteng, Kota Jakarta Pusat, Daerah Khusus Ibukota Jakarta 10310";"Menteng, Kec. Menteng, Kota Jakarta Pusat";"SUMATERA UTARA";"10310";"Indonesia";" 02123580001";"";"";"-6.1965848";"106.8224882";"https://maps.google.com/?cid=0x0:0xccfcc89b95aaf1ae";""
"mall";"Pusat Perbelanjaan";"Grand Indonesia";"Jl. MH Thamrin No.1, Menteng, Kec. Menteng, Kota Jakarta Pusat, Daerah Khusus Ibukota Jakarta 10310";"Menteng, Kec. Menteng, Kota Jakarta Pusat";"SUMATERA UTARA";"10310";"Indonesia";" 02123580001";"";"";"-6.1950412";"106.8210081";"https://maps.google.com/?cid=0x0:0xb04ce66a7cb711d9";""
"mall";"Restoran";"DILL Gourmet Cafe";"Jl. M.H. Thamrin No.28-30 9, RT.9/RW.5, Gondangdia, Kec. Menteng, Kota Jakarta Pusat, Daerah Khusus Ibukota Jakarta 10350";"RT.9/RW.5, Gondangdia, Kec. Menteng, Kota Jakarta Pusat";"SUMATERA UTARA";"10350";"Indonesia";" 02129924512";"";"";"-6.1927562";"106.8218392";"https://maps.google.com/?cid=0x0:0x459d4488c2df5aed";""
"mall";"Bioskop";"Plaza Indonesia XXI";"Jl. M.H. Thamrin No.28 30, RT.9/RW.5, Gondangdia, Menteng, Central Jakarta City, Jakarta 10350";"RT.9/RW.5, Gondangdia, Menteng, Central Jakarta City";"SUMATERA UTARA";"10350";"Indonesia";" 02139838779";"";"";"-6.1929965";"106.8222255";"https://maps.google.com/?cid=0x0:0x1a4c89bcaba1f411";""
"mall";"mall";"Keraton at The Plaza";"Jl. M.H. Thamrin No.Kav. 15, Gondangdia, Kec. Menteng, Kota Jakarta Pusat, Daerah Khusus Ibukota Jakarta 10350";"Gondangdia, Kec. Menteng, Kota Jakarta Pusat";"SUMATERA UTARA";"10350";"Indonesia";" 02151011234";"";"";"-6.1920998";"106.8217527";"https://maps.google.com/?cid=0x0:0x6b7300b1530f0b09";""
"mall";"Ayam";"La Moda";"Jl. M.H. Thamrin No.28 – 30, Gondangdia, Kec. Menteng, Kota Jakarta Pusat, Daerah Khusus Ibukota Jakarta 10350";"Gondangdia, Kec. Menteng, Kota Jakarta Pusat";"SUMATERA UTARA";"10350";"Indonesia";" 02129921298";"";"";"-6.1934336";"106.8215327";"https://maps.google.com/?cid=0x0:0x8803ba5cf055378";""
"mall";"mall";"Sogaeadu";"Kec. Sogae'adu, Kabupaten Nias, Sumatera Utara";"Kabupaten Nias, Sumatera Utara";"SUMATERA UTARA";"";"Indonesia";"";"";"";"1.1024643";"97.7104428";"https://maps.google.com/?cid=0x0:0x1b1f447319f0c61a";""
"mall";"Sekolah menengah";"SMP Negeri 1 Sogaeadu";"3PJ8+HG9, Sisarahili Sogaeadu, Kec. Gido, Kabupaten Nias, Sumatera Utara 22871";"Sisarahili Sogaeadu, Kec. Gido, Kabupaten Nias";"SUMATERA UTARA";"22871";"Indonesia";"";"";"";"1.0814104";"97.7163512";"https://maps.google.com/?cid=0x0:0xb3bd0d57e9000760";""
"mall";"Sekolah Menengah Atas";"SMP Negeri 1 Gido";"4P8G+593, Heliweto Gido, Kec. Sogae'adu, Kabupaten Nias, Sumatera Utara 22871";"Heliweto Gido, Kec. Sogae'adu, Kabupaten Nias";"SUMATERA UTARA";"22871";"Indonesia";"";"";"";"1.115384";"97.7259153";"https://maps.google.com/?cid=0x0:0xe3001401509c197d";""
"mall";"Area Mendaki";"Desa somolo molo";"3M6R+92P, Somolo-Molo, Kec. Somolo-Molo, Kabupaten Nias, Sumatera Utara 22871";"Somolo-Molo, Kec. Somolo-Molo, Kabupaten Nias";"SUMATERA UTARA";"22871";"Indonesia";"";"";"";"1.0609605";"97.6900846";"https://maps.google.com/?cid=0x0:0xba1c20f87faf557";""
"mall";"Area Mendaki";"Desa sisaratandrawa kecamatan somolo molo,kabupaten nias,sumatera utara";"2P9C+4R, Sisobahili Iraonohura, Kecamatan Idanogawo, Kabupaten Nias, Sumatera Utara";"Kabupaten Nias, Sumatera Utara";"SUMATERA UTARA";"";"Indonesia";"";"";"";"1.017763";"97.7221119";"https://maps.google.com/?cid=0x0:0x861814680742c58";""
"mall";"mall";"Kec. Somolo-Molo";"Kabupaten Nias, Sumatera Utara";"Kabupaten Nias, Sumatera Utara";"SUMATERA UTARA";"";"Indonesia";"";"";"";"1.0160735";"97.6614915";"https://maps.google.com/?cid=0x0:0x88ec4509a19c8140";""
"mall";"mall";"Kec. Ulugawo";"Kabupaten Nias, Sumatera Utara";"Kabupaten Nias, Sumatera Utara";"SUMATERA UTARA";"";"Indonesia";"";"";"";"0.9857839";"97.7164165";"https://maps.google.com/?cid=0x0:0x7230b2fec359e534";""
"mall";"Pusat Perbelanjaan";"UD.ALFRED";"XP8W+59G, Mohili, Kec. Ulugawo, Kabupaten Nias, Sumatera Utara";"Kabupaten Nias, Sumatera Utara";"SUMATERA UTARA";"";"Indonesia";" 082269497048";"";"";"0.9654369";"97.7459486";"https://maps.google.com/?cid=0x0:0x65b410a6eb451751";""
"mall";"Grosir Barang Kelontong";"Usaha Golden";"WMHP+67C, Unnamed Road, Marao, Kecamatan Ulunoyo, Kabupaten Nias Selatan, Sumatera Utara 22861";"Unnamed Road, Marao, Kecamatan Ulunoyo, Kabupaten Nias Selatan";"SUMATERA UTARA";"22861";"Indonesia";" 082166163843";"";"";"0.9280617";"97.6856527";"https://maps.google.com/?cid=0x0:0x18ed0bde7383a313";""
"mall";"Pusat Pendidikan";"Ud.Charas";"Jl. Umbunasi, Hiliwaebu, Kec. Lolomatua, Kabupaten Nias Selatan, Sumatera Utara 22852";"Hiliwaebu, Kec. Lolomatua, Kabupaten Nias Selatan";"SUMATERA UTARA";"22852";"Indonesia";" 081315370001";"";"";"0.9159644";"97.6570509";"https://maps.google.com/?cid=0x0:0x295af1e9e18e2afe";""
"supermarket";"supermarket";"Sumatera Utara 22851";"Sumatera Utara";"Sumatera Utara";"SUMATERA UTARA";"";"Indonesia";"";"";"";"1.2976797";"97.330053";"https://maps.google.com/?cid=0x0:0xb3058656cf8eec8e";""
"supermarket";"Grosir Barang Kelontong";"UD. ANEKA PRATAMA";"Hilidundra, Kec. Lotu, Kabupaten Nias Utara, Sumatera Utara 22851";"Kec. Lotu, Kabupaten Nias Utara";"SUMATERA UTARA";"22851";"Indonesia";"";"";"";"1.3878514";"97.3596305";"https://maps.google.com/?cid=0x0:0x178cccc5bff6ac48";""
"supermarket";"Grosir Barang Kelontong";"UD.Nogar Zalukhu";"7974+MR7, Ononamolo Alasa, Kec. Tugala Oyo, Kabupaten Nias Utara, Sumatera Utara 22851";"Ononamolo Alasa, Kec. Tugala Oyo, Kabupaten Nias Utara";"SUMATERA UTARA";"22851";"Indonesia";" 081261429188";"";"";"1.2641704";"97.3570576";"https://maps.google.com/?cid=0x0:0x9d0b7a7acbb0ef47";""
"supermarket";"Pasar";"Kec.bawolato";"XV4W+FMC, Dusun satu, Sisarahili Bawolato, Kec. Bawolato, Kabupaten Nias, Sumatera Utara 22851";"Dusun satu, Sisarahili Bawolato, Kec. Bawolato, Kabupaten Nias";"SUMATERA UTARA";"22851";"Indonesia";"";"";"";"0.956189";"97.8966536";"https://maps.google.com/?cid=0x0:0xaa76e7f79480e13c";""
"supermarket";"Toko bahan makanan";"City Mart";"JL Gomo, No. 8, Pasar, Saombo, Kec. Gunungsitoli, Kota Gunungsitoli, Sumatera Utara";"Kota Gunungsitoli, Sumatera Utara";"SUMATERA UTARA";"";"Indonesia";"";"";"";"1.2887554";"97.6184731";"https://maps.google.com/?cid=0x0:0xc8233bdb3cd696b5";""
"supermarket";"Toko Swalayan";"UD. 206";"7JJ8+J7R, Jl. Pattimura, Mudik, Kec. Gunungsitoli, Kota Gunungsitoli, Sumatera Utara 22813";"Jl. Pattimura, Mudik, Kec. Gunungsitoli, Kota Gunungsitoli";"SUMATERA UTARA";"22813";"Indonesia";"";"";"";"1.2816047";"97.6156343";"https://maps.google.com/?cid=0x0:0x7fc0efb08b055a57";""
"supermarket";"Pusat Perbelanjaan";"UD. 6 Bersaudara";"5MR3+6GJ, Unnamed Road, Tuhegeo I, Kec. GunungSitoli Idanoi, Kota Gunungsitoli, Sumatera Utara 22871";"Unnamed Road, Tuhegeo I, Kec. GunungSitoli Idanoi, Kota Gunungsitoli";"SUMATERA UTARA";"22871";"Indonesia";"";"";"";"1.1905931";"97.6537653";"https://maps.google.com/?cid=0x0:0xdcee3a26dd8016e8";""
"supermarket";"Toko umum";"UD. DEVI";"XVF2+M62, Jl. Arah Tlk. Dalam, Hilialawa, Kec. Bawolato, Kabupaten Nias, Sumatera Utara 22876";"Jl. Arah Tlk. Dalam, Hilialawa, Kec. Bawolato, Kabupaten Nias";"SUMATERA UTARA";"22876";"Indonesia";"";"";"";"0.974131";"97.8505157";"https://maps.google.com/?cid=0x0:0x360e5ce65fb93519";""
"supermarket";"Komplek perumahan";"Desa Teluk Belukar";"Jl. Diponegoro No.284, Tlk. Belukar, Kec. Gunungsitoli Utara, Kota Gunungsitoli, Sumatera Utara 22851";"Tlk. Belukar, Kec. Gunungsitoli Utara, Kota Gunungsitoli";"SUMATERA UTARA";"22851";"Indonesia";"";"";"";"1.3931462";"97.5208128";"https://maps.google.com/?cid=0x0:0xade9b5742550277d";""
"supermarket";"Toko bahan makanan";"Ina Kuru";"7H52+WHC, Dima, Kec. Hiliduho, Kabupaten Nias, Sumatera Utara";"Kabupaten Nias, Sumatera Utara";"SUMATERA UTARA";"";"Indonesia";"";"";"";"1.2598176";"97.5513767";"https://maps.google.com/?cid=0x0:0x171feca135213788";""
"supermarket";"Grosir Barang Kelontong";"CV. DESTIN";"Jl. Diponegoro No.175, Ilir, Kec. Gunungsitoli, Kota Gunungsitoli, Sumatera Utara 22815";"Ilir, Kec. Gunungsitoli, Kota Gunungsitoli";"SUMATERA UTARA";"22815";"Indonesia";" 063922939";"";"";"1.2850978";"97.6248071";"https://maps.google.com/?cid=0x0:0x81a9f945614cfc5e";""
"supermarket";"Minimarket";"ALFA MIDI FODO";"6JWW+73Q, Fodo, Kec. Gunungsitoli Sel., Kota Gunungsitoli, Sumatera Utara";"Kota Gunungsitoli, Sumatera Utara";"SUMATERA UTARA";"";"Indonesia";"";"";"";"1.2451883";"97.6455299";"https://maps.google.com/?cid=0x0:0x18589b47cc54873e";""
"supermarket";"Toko";"Cinta Mart";"Jl. Diponegoro No.83, Tetehosi, Kecamatan Idanogawo, Kabupaten Nias, Sumatera Utara 22872";"Tetehosi, Kecamatan Idanogawo, Kabupaten Nias";"SUMATERA UTARA";"22872";"Indonesia";"";"";"";"1.0266668";"97.7717121";"https://maps.google.com/?cid=0x0:0xe5b75e354314622b";""
"supermarket";"Toko bahan makanan";"Toko Rizal";"FF7R+PFM, Hilimbowo Siofabanua, Alooa, Kec. Tuhemberua, Kabupaten Nias Utara, Sumatera Utara 22852";"Hilimbowo Siofabanua, Alooa, Kec. Tuhemberua, Kabupaten Nias Utara";"SUMATERA UTARA";"22852";"Indonesia";" 085282851162";"";"";"1.4643289";"97.4911785";"https://maps.google.com/?cid=0x0:0x8342f2b558227abb";""
"supermarket";"Grosir Barang Kelontong";"UD. WARTA";"CFCV+H4C, Botolakha, Kec. Tuhemberua, Kabupaten Nias Utara, Sumatera Utara 22852";"Botolakha, Kec. Tuhemberua, Kabupaten Nias Utara";"SUMATERA UTARA";"22852";"Indonesia";" 082304716234";"";"";"1.421429";"97.4927754";"https://maps.google.com/?cid=0x0:0xb54b747fdfe80df5";""
"supermarket";"Minimarket";"UD Amanda";"898V+JXR, Berua, Kec. Namohalu Esiwa, Kabupaten Nias Utara, Sumatera Utara 22816";"Berua, Kec. Namohalu Esiwa, Kabupaten Nias Utara";"SUMATERA UTARA";"22816";"Indonesia";" 08222258055";"";"";"1.3166036";"97.394882";"https://maps.google.com/?cid=0x0:0x1e9d0197a35378f1";""
"supermarket";"Minimarket";"Citimart Dipo";"Jl. Diponegoro No.245, Ilir, Kec. Gunungsitoli, Kota Gunungsitoli, Sumatera Utara 22811";"Ilir, Kec. Gunungsitoli, Kota Gunungsitoli";"SUMATERA UTARA";"22811";"Indonesia";" 063922231";"";"";"1.2814756";"97.62764";"https://maps.google.com/?cid=0x0:0xeb38ea10edfec1f6";""
"supermarket";"Toko bahan makanan";"UD. ENOS-X";"Jl. Diponegoro, Sihareo II, Kec. Gunungsitoli, Kota Gunungsitoli, Sumatera Utara";"Kota Gunungsitoli, Sumatera Utara";"SUMATERA UTARA";"";"Indonesia";" 082369517756";"";"";"1.2566737";"97.6395753";"https://maps.google.com/?cid=0x0:0x760435bd12d9b653";""
"supermarket";"Pusat Perbelanjaan";"Golden Mart/ FIFORLIF ASLI";"7JCM+MGR, Sifalaete Tabaloho, Kec. Gunungsitoli, Kota Gunungsitoli, Sumatera Utara 22813";"Sifalaete Tabaloho, Kec. Gunungsitoli, Kota Gunungsitoli";"SUMATERA UTARA";"22813";"Indonesia";" 087855478817";"";"";"1.2717394";"97.6337764";"https://maps.google.com/?cid=0x0:0xfaf4c761d36b3523";""
"supermarket";"Toko Swalayan";"UD. WAHYU";"7J78+9J8 Perumahan BRR, Dahana, Kec, Kota Gunungsitoli, Sumatera Utara 22811";"Dahana, Kec, Kota Gunungsitoli";"SUMATERA UTARA";"22811";"Indonesia";"";"";"";"1.2634152";"97.616589";"https://maps.google.com/?cid=0x0:0xda2b79aa491ecd0";""
"supermarket";"Toko bahan makanan";"ORAZATO BATEE";"7G2M+27W, Fadoro Lauru, Kec. Hiliduho, Kabupaten Nias, Sumatera Utara 22851";"Fadoro Lauru, Kec. Hiliduho, Kabupaten Nias";"SUMATERA UTARA";"22851";"Indonesia";" 082276368264";"";"";"1.2501175";"97.5332179";"https://maps.google.com/?cid=0x0:0x2012462b77d72a71";""
"supermarket";"supermarket";"UD. JETRO";"9FG3+W5, Tetehosi Maziaya, Kec. Sitolu Ori, Kabupaten Nias Utara, Sumatera Utara";"Kabupaten Nias Utara, Sumatera Utara";"SUMATERA UTARA";"";"Indonesia";" 081260130623";"";"";"1.377321";"97.452997";"https://maps.google.com/?cid=0x0:0xebd756e9393d1f8c";""
"supermarket";"Gudang";"UD. Bertekun";"UD. Bertekun Jl Yos Sudarso km 5,3, Hili Hao, Kec. Gunungsitoli, Kota Gunungsitoli, Sumatera Utara";"Kota Gunungsitoli, Sumatera Utara";"SUMATERA UTARA";"";"Indonesia";" 085262609338";"";"";"1.3298463";"97.5975021";"https://maps.google.com/?cid=0x0:0x449807cbad0df1e4";""
"supermarket";"Toko";"Grosir fesra MENDROFA";"6H37+G7G, Dahadano Botombawo, Kec. Botomuzoi, Kabupaten Nias, Sumatera Utara";"Kabupaten Nias, Sumatera Utara";"SUMATERA UTARA";"";"Indonesia";"";"";"";"1.2038152";"97.5631911";"https://maps.google.com/?cid=0x0:0x1afaf1ae8378ce79";""
"supermarket";"Pusat Perbelanjaan";"UD.FAREL";"Jalan Afia-Nazalou Dusun III, Lasara Sowu, Kec. Gunungsitoli Alo'oa, Kota Gunungsitoli, Sumatera Utara 22851";"Lasara Sowu, Kec. Gunungsitoli Alo'oa, Kota Gunungsitoli";"SUMATERA UTARA";"22851";"Indonesia";"";"";"";"1.3349665";"97.5224796";"https://maps.google.com/?cid=0x0:0x5b000c0a7e1fa87";""
"supermarket";"Toko bahan makanan";"UD.Odwal";"8GWV+3JQ, Lolomoyo, Kec. Gunungsitoli Utara, Kota Gunungsitoli, Sumatera Utara";"Kota Gunungsitoli, Sumatera Utara";"SUMATERA UTARA";"";"Indonesia";" 085283759255";"";"";"1.3452017";"97.5441195";"https://maps.google.com/?cid=0x0:0xf7112b0be94cf927";""
"supermarket";"Brunch";"Aula REKOR";"99QJ+897, Fadoro Fulolo, Kec. Lotu, Kabupaten Nias Utara, Sumatera Utara 22851";"Fadoro Fulolo, Kec. Lotu, Kabupaten Nias Utara";"SUMATERA UTARA";"22851";"Indonesia";" 082290214496";"";"";"1.3882887";"97.3809149";"https://maps.google.com/?cid=0x0:0xa07adf458779f987";""
"supermarket";"Toko Swalayan";"Lolo Anaa Idanegawo";"2QH7+WCM, Tetehosi, Kecamatan Idanogawo, Kabupaten Nias, Sumatera Utara 22872";"Tetehosi, Kecamatan Idanogawo, Kabupaten Nias";"SUMATERA UTARA";"22872";"Indonesia";" 081270265274";"";"";"1.0298434";"97.7635324";"https://maps.google.com/?cid=0x0:0x2c39ec5d342201eb";""
"supermarket";"Toko Swalayan";"UD. Rm Maju Jaya";"XRJP+QPX, Jl. Arah Tlk. Dalam, Hilifaosi, Kec. Bawolato, Kabupaten Nias, Sumatera Utara 22876";"Jl. Arah Tlk. Dalam, Hilifaosi, Kec. Bawolato, Kabupaten Nias";"SUMATERA UTARA";"22876";"Indonesia";"";"";"";"0.9819985";"97.8368627";"https://maps.google.com/?cid=0x0:0x4973c0ab855fab57";""
"supermarket";"supermarket";"Sumatera Utara 22876";"Kec. Bawolato, Kabupaten Nias, Sumatera Utara";"Kabupaten Nias, Sumatera Utara";"SUMATERA UTARA";"";"Indonesia";"";"";"";"0.9634714";"97.8177601";"https://maps.google.com/?cid=0x0:0xbd072e1dfaa20192";""
"supermarket";"Toko umum";"UD. DEVI";"XVF2+M62, Jl. Arah Tlk. Dalam, Hilialawa, Kec. Bawolato, Kabupaten Nias, Sumatera Utara 22876";"Jl. Arah Tlk. Dalam, Hilialawa, Kec. Bawolato, Kabupaten Nias";"SUMATERA UTARA";"22876";"Indonesia";"";"";"";"0.974131";"97.8505157";"https://maps.google.com/?cid=0x0:0x360e5ce65fb93519";""
"supermarket";"Pasar";"Kec.bawolato";"XV4W+FMC, Dusun satu, Sisarahili Bawolato, Kec. Bawolato, Kabupaten Nias, Sumatera Utara 22851";"Dusun satu, Sisarahili Bawolato, Kec. Bawolato, Kabupaten Nias";"SUMATERA UTARA";"22851";"Indonesia";"";"";"";"0.956189";"97.8966536";"https://maps.google.com/?cid=0x0:0xaa76e7f79480e13c";""
"supermarket";"Minimarket";"UD. Asran Maju";"Jl. Diponegoro No.75, Tetehosi, Kecamatan Idanogawo, Kabupaten Nias, Sumatera Utara 22872";"Tetehosi, Kecamatan Idanogawo, Kabupaten Nias";"SUMATERA UTARA";"22872";"Indonesia";" 085275554193";"";"";"1.0266938";"97.7715478";"https://maps.google.com/?cid=0x0:0xaec618fd8626c5a6";""
"supermarket";"Toko Swalayan";"Lolo Anaa Idanegawo";"2QH7+WCM, Tetehosi, Kecamatan Idanogawo, Kabupaten Nias, Sumatera Utara 22872";"Tetehosi, Kecamatan Idanogawo, Kabupaten Nias";"SUMATERA UTARA";"22872";"Indonesia";" 081270265274";"";"";"1.0298434";"97.7635324";"https://maps.google.com/?cid=0x0:0x2c39ec5d342201eb";""
"supermarket";"Toko";"UD saudara";"WQ72+5MJ, Lawindra, Kec. Umbunasi, Kabupaten Nias Selatan, Sumatera Utara";"Kabupaten Nias Selatan, Sumatera Utara";"SUMATERA UTARA";"";"Indonesia";"";"";"";"0.9127547";"97.7515981";"https://maps.google.com/?cid=0x0:0x253278672fb8f76e";""
"supermarket";"Toko Swalayan";"UD. Rm Maju Jaya";"XRJP+QPX, Jl. Arah Tlk. Dalam, Hilifaosi, Kec. Bawolato, Kabupaten Nias, Sumatera Utara 22876";"Jl. Arah Tlk. Dalam, Hilifaosi, Kec. Bawolato, Kabupaten Nias";"SUMATERA UTARA";"22876";"Indonesia";"";"";"";"0.9819985";"97.8368627";"https://maps.google.com/?cid=0x0:0x4973c0ab855fab57";""
"supermarket";"Toko";"A. Wali lombu";"XQJR+JG7, Laowo Hilimbaruzo, Kecamatan Idanogawo, Kabupaten Nias, Sumatera Utara 22872";"Laowo Hilimbaruzo, Kecamatan Idanogawo, Kabupaten Nias";"SUMATERA UTARA";"22872";"Indonesia";"";"";"";"0.9815307";"97.791283";"https://maps.google.com/?cid=0x0:0x7d7d58311cce4928";""
"supermarket";"supermarket";"Sumatera Utara 22815";"Sumatera Utara";"Sumatera Utara";"SUMATERA UTARA";"";"Indonesia";"";"";"";"1.1349561";"97.5572231";"https://maps.google.com/?cid=0x0:0x363d3d935f4724dd";""
"supermarket";"Pusat Perbelanjaan";"UD. 6 Bersaudara";"5MR3+6GJ, Unnamed Road, Tuhegeo I, Kec. GunungSitoli Idanoi, Kota Gunungsitoli, Sumatera Utara 22871";"Unnamed Road, Tuhegeo I, Kec. GunungSitoli Idanoi, Kota Gunungsitoli";"SUMATERA UTARA";"22871";"Indonesia";"";"";"";"1.1905931";"97.6537653";"https://maps.google.com/?cid=0x0:0xdcee3a26dd8016e8";""
"supermarket";"Toko bahan makanan";"City Mart";"JL Gomo, No. 8, Pasar, Saombo, Kec. Gunungsitoli, Kota Gunungsitoli, Sumatera Utara";"Kota Gunungsitoli, Sumatera Utara";"SUMATERA UTARA";"";"Indonesia";"";"";"";"1.2887554";"97.6184731";"https://maps.google.com/?cid=0x0:0xc8233bdb3cd696b5";""
"supermarket";"Pusat Perbelanjaan";"UD. RETHA";"WH2J+GXG, Lolowau, Kec. Lalowau, Kabupaten Nias Selatan, Sumatera Utara 22864";"Lolowau, Kec. Lalowau, Kabupaten Nias Selatan";"SUMATERA UTARA";"22864";"Indonesia";" 081384503929";"";"";"0.9013094";"97.5824423";"https://maps.google.com/?cid=0x0:0xceba32412dbd9bff";""
"supermarket";"Komplek perumahan";"Rumah Stephan Gulo";"XJW9+53X, Jl. Lōlōwa'u, Ehosakhozi, Kec. Huruna, Kabupaten Nias Selatan, Sumatera Utara 22852";"Jl. Lōlōwa'u, Ehosakhozi, Kec. Huruna, Kabupaten Nias Selatan";"SUMATERA UTARA";"22852";"Indonesia";"";"";"";"0.9953803";"97.6178279";"https://maps.google.com/?cid=0x0:0x7f49955f40605a9a";""
"supermarket";"Toko umum";"UD. Tesa";"2C6X+QPQ, Sisobambowo, Mandrehe, Kabupaten Nias Barat, Sumatera Utara, Kode, Sisobambowo, Kec. Mandrehe, Kabupaten Nias Barat, Sumatera Utara 22862";"Sisobambowo, Mandrehe, Kabupaten Nias Barat, Sumatera Utara, Kode, Sisobambowo, Kec. Mandrehe, Kabupaten Nias Barat";"SUMATERA UTARA";"22862";"Indonesia";"";"";"";"1.0119664";"97.4493543";"https://maps.google.com/?cid=0x0:0xe3123b86857c60e";""
"supermarket";"Toko Swalayan";"UD.RAFIQ GAS";"VHVJ+PC7, Jl. Nias Tengah, Lolowau, Kec. Lalowau, Kabupaten Nias Selatan, Sumatera Utara 22864";"Jl. Nias Tengah, Lolowau, Kec. Lalowau, Kabupaten Nias Selatan";"SUMATERA UTARA";"22864";"Indonesia";" 082369773183";"";"";"0.8942813";"97.5810531";"https://maps.google.com/?cid=0x0:0xe62c4c4c711412be";""
"supermarket";"Toko bahan makanan";"UD. DESI PENGECER BBM";"VHGJ+VPQ, Tuhegafoa, Kec. Lalowau, Kabupaten Nias Selatan, Sumatera Utara 22864";"Tuhegafoa, Kec. Lalowau, Kabupaten Nias Selatan";"SUMATERA UTARA";"22864";"Indonesia";"";"";"";"0.8772238";"97.5818541";"https://maps.google.com/?cid=0x0:0x7cf5c53be272eead";""
"supermarket";"Toko Mebel";"UD. MELVIN PERABOT";"5HPH+FX8, Unnamed Road, Lolowua, Kec. HiliSerangkai, Kabupaten Nias, Sumatera Utara 22851";"Unnamed Road, Lolowua, Kec. HiliSerangkai, Kabupaten Nias";"SUMATERA UTARA";"22851";"Indonesia";"";"";"";"1.1861749";"97.5799589";"https://maps.google.com/?cid=0x0:0xebfd6597c6571e99";""
"supermarket";"Pusat Perbelanjaan";"UD.putra";"XJPC+VWP, Hilizoliga, Kec. Lalowau, Kabupaten Nias Selatan, Sumatera Utara 22864";"Hilizoliga, Kec. Lalowau, Kabupaten Nias Selatan";"SUMATERA UTARA";"22864";"Indonesia";" 085367320924";"";"";"0.9872172";"97.6223348";"https://maps.google.com/?cid=0x0:0xff055320a94996b0";""
"supermarket";"Grosir Mebel";"UD. MARVEL";"WM56+M9G, Unnamed Road, Hiliwaebu, Kecamatan Ulunoyo, Kabupaten Nias Selatan, Sumatera Utara 22867";"Unnamed Road, Hiliwaebu, Kecamatan Ulunoyo, Kabupaten Nias Selatan";"SUMATERA UTARA";"22867";"Indonesia";"";"";"";"0.9091787";"97.6609616";"https://maps.google.com/?cid=0x0:0xd21928e146275b5c";""
"supermarket";"supermarket";"UD.MAWAR";"5GHV+4M6, Hiliwaele I, Kec. Botomuzoi, Kabupaten Nias, Sumatera Utara";"Kabupaten Nias, Sumatera Utara";"SUMATERA UTARA";"";"Indonesia";"";"";"";"1.1777814";"97.5441503";"https://maps.google.com/?cid=0x0:0xa8a3a910898db749";""
"supermarket";"supermarket";"Kec. Botomuzoi";"Kabupaten Nias, Sumatera Utara";"Kabupaten Nias, Sumatera Utara";"SUMATERA UTARA";"";"Indonesia";"";"";"";"1.1780338";"97.5446524";"https://maps.google.com/?cid=0x0:0x3ea36227f9a6c186";""
"supermarket";"Toko";"Grosir fesra MENDROFA";"6H37+G7G, Dahadano Botombawo, Kec. Botomuzoi, Kabupaten Nias, Sumatera Utara";"Kabupaten Nias, Sumatera Utara";"SUMATERA UTARA";"";"Indonesia";"";"";"";"1.2038152";"97.5631911";"https://maps.google.com/?cid=0x0:0x1afaf1ae8378ce79";""
"supermarket";"Balai Pertemuan Desa";"Kecamatan Botomuzoi";"4HX7+M3J, Simanaere Botomuzoi, Kec. Botomuzoi, Kabupaten Nias, Sumatera Utara";"Kabupaten Nias, Sumatera Utara";"SUMATERA UTARA";"";"Indonesia";"";"";"";"1.1492149";"97.5626411";"https://maps.google.com/?cid=0x0:0x655b7642ba45ca91";""
"supermarket";"Kantor Perusahaan";"UD. DESMAN";"5H3V+9GH, Fulolo Lalai, Kec. HiliSerangkai, Kabupaten Nias, Sumatera Utara";"Kabupaten Nias, Sumatera Utara";"SUMATERA UTARA";"";"Indonesia";"";"";"";"1.154079";"97.5937579";"https://maps.google.com/?cid=0x0:0xbcc4231aa2b7a520";""
"supermarket";"Toko umum";"Sinuwe";"6F4X+J36, Desa, Sisobalauru, Hiliduho, Nias Regency, North Sumatra 22861";"Desa, Sisobalauru, Hiliduho, Nias Regency";"SUMATERA UTARA";"22861";"Indonesia";" +886905473631";"";"";"1.2065373";"97.4976536";"https://maps.google.com/?cid=0x0:0x227e05fa48306615";""
"supermarket";"Toko";"UD BALOIDO";"6H7F+55, Dahadano Botombawo, Kec. HiliSerangkai, Kabupaten Nias, Sumatera Utara";"Kabupaten Nias, Sumatera Utara";"SUMATERA UTARA";"";"Indonesia";"";"";"";"1.2129062";"97.5729807";"https://maps.google.com/?cid=0x0:0xc01a81eca76bc5ae";""
"supermarket";"Toko bahan makanan";"KEDAI SYALOM";"4H6J+6W, Onombongi, Kec. Lolofitu Moi, Kabupaten Nias Barat, Sumatera Utara";"Kabupaten Nias Barat, Sumatera Utara";"SUMATERA UTARA";"";"Indonesia";"";"";"";"1.1105625";"97.5823125";"https://maps.google.com/?cid=0x0:0xb3d2ba743a226753";""
"supermarket";"supermarket";"Kec. Gido";"Kabupaten Nias, Sumatera Utara";"Kabupaten Nias, Sumatera Utara";"SUMATERA UTARA";"";"Indonesia";"";"";"";"1.17457";"97.6874949";"https://maps.google.com/?cid=0x0:0x9b3ac0e16891e3a9";""
"supermarket";"Minimarket";"Alfamidi Gidö";"Jl. Merdeka No.89, Wea-Wea, Kec. Gido, Kabupaten Nias, Sumatera Utara 22871";"Wea-Wea, Kec. Gido, Kabupaten Nias";"SUMATERA UTARA";"22871";"Indonesia";"";"";"";"1.1174051";"97.7256418";"https://maps.google.com/?cid=0x0:0x13375c1c346afab5";""
"supermarket";"Toko";"UD PETER";"Jl. Merdeka No.41, Heliweto Gido, Kec. Sogae'adu, Kabupaten Nias, Sumatera Utara 22871";"Heliweto Gido, Kec. Sogae'adu, Kabupaten Nias";"SUMATERA UTARA";"22871";"Indonesia";" 082347340696";"";"";"1.1184898";"97.7237406";"https://maps.google.com/?cid=0x0:0x5031033a9367fb6a";""
"supermarket";"supermarket";"Ud Hikmah";"4MWM+JV3, Lolozasai, Kec. Gido, Kabupaten Nias, Sumatera Utara 22871";"Lolozasai, Kec. Gido, Kabupaten Nias";"SUMATERA UTARA";"22871";"Indonesia";" 081260483367";"";"";"1.146509";"97.6846567";"https://maps.google.com/?cid=0x0:0x236414e7d2e2bcad";""
"supermarket";"Toko Swalayan";"GS The Fresh Mampang";"Jl. Buncit Raya No.301, Duren Tiga, Kec. Pancoran, Kota Jakarta Selatan, Daerah Khusus Ibukota Jakarta 12760";"Duren Tiga, Kec. Pancoran, Kota Jakarta Selatan";"SUMATERA UTARA";"12760";"Indonesia";" 02126961986";"";"";"-6.256991";"106.828987";"https://maps.google.com/?cid=0x0:0x47a84d3b86619147";""
"supermarket";"Toko Swalayan";"Gs supermarket";"Jl. KH. Hasyim Ashari No.93, RT.002/RW.003, Poris Plawad Utara, Kec. Cipondoh, Kota Tangerang, Banten 15148";"RT.002/RW.003, Poris Plawad Utara, Kec. Cipondoh, Kota Tangerang";"SUMATERA UTARA";"15148";"Indonesia";" 02155712070";"";"";"-6.1879187";"106.661738";"https://maps.google.com/?cid=0x0:0x86a83e6d17a220b2";""
"supermarket";"Toko Swalayan";"Ranch Market Grand Indonesia";"Grand Indonesia Shoping Town East Mall, Jl. MH Thamrin No.1 Lantai LG, RT.1/RW.5, Menteng, Kec. Menteng, Kota Jakarta Pusat, Daerah Khusus Ibukota Jakarta 10310";"Jl. MH Thamrin No.1 Lantai LG, RT.1/RW.5, Menteng, Kec. Menteng, Kota Jakarta Pusat";"SUMATERA UTARA";"10310";"Indonesia";" 02123599054";"";"";"-6.1963902";"106.8225851";"https://maps.google.com/?cid=0x0:0xdb199471a47076d0";""
"supermarket";"Toko Swalayan";"GS THE FRESH JATIBENING";"Jl. Caman Raya No.7-24, RT.004/RW.003, Jatibening, Kec. Pd. Gede, Kota Bks, Jawa Barat 17412";"RT.004/RW.003, Jatibening, Kec. Pd. Gede, Kota Bks";"SUMATERA UTARA";"17412";"Indonesia";" 02184982211";"";"";"-6.2676455";"106.9436409";"https://maps.google.com/?cid=0x0:0x2cdb50c3ee3206c";""
"supermarket";"Toko Swalayan";"GS Supermarket Jatiasih";"GsSupermarket :, Jl. Wibawa Mukti II No.125, RT.002/ RW017/RW.017, Jatiasih, Kec. Jatiasih, Kota Bks, Jawa Barat 17423";"Jl. Wibawa Mukti II No.125, RT.002/ RW017/RW.017, Jatiasih, Kec. Jatiasih, Kota Bks";"SUMATERA UTARA";"17423";"Indonesia";" 02182736918";"";"";"-6.3070579";"106.955731";"https://maps.google.com/?cid=0x0:0x74efd6ce433268e6";""
"supermarket";"Toko Swalayan";"GS The Fresh Supermarket Kemang Pratama";"Linc Square Kemang Pratama, Jl. Kemang Pratama Raya, RT.004/RW.001, Bojong Rawalumbu, Kec. Rawalumbu, Kota Bks, Jawa Barat 17116";"Jl. Kemang Pratama Raya, RT.004/RW.001, Bojong Rawalumbu, Kec. Rawalumbu, Kota Bks";"SUMATERA UTARA";"17116";"Indonesia";" 02182416910";"";"";"-6.2779418";"106.9910558";"https://maps.google.com/?cid=0x0:0x4ce692f4b9ef21ee";""
"supermarket";"Toko Swalayan";"Benny Mart Poris";"Ruko Poris Indah Blok A No.21-22, Cipondoh Indah, Tangerang, RT.2/RW.4, RT.003/RW.008, Cipondoh Indah, Kec. Cipondoh, Kota Tangerang, Banten 15148";"Cipondoh Indah, Tangerang, RT.2/RW.4, RT.003/RW.008, Cipondoh Indah, Kec. Cipondoh, Kota Tangerang";"SUMATERA UTARA";"15148";"Indonesia";" 02155742344";"";"";"-6.1759408";"106.686385";"https://maps.google.com/?cid=0x0:0x9ea067045997131a";""
"supermarket";"Toko";"Hiliwosi";"RMMJ+22F, Fondrakoraya, Kec. Ulususua, Kabupaten Nias Selatan, Sumatera Utara 22864";"Fondrakoraya, Kec. Ulususua, Kabupaten Nias Selatan";"SUMATERA UTARA";"22864";"Indonesia";" 081361070735";"";"";"0.8325276";"97.6800083";"https://maps.google.com/?cid=0x0:0xfd4919e3bb9a5168";""
"supermarket";"supermarket";"Hilinangea Nius Zendrato";"8HWH+J76, Olora, Kec. Gunungsitoli Utara, Kota Gunungsitoli, Sumatera Utara";"Kota Gunungsitoli, Sumatera Utara";"SUMATERA UTARA";"";"Indonesia";" 081263228177";"";"";"1.3465461";"97.5781263";"https://maps.google.com/?cid=0x0:0x60ca8eb93504c548";""
"supermarket";"supermarket";"Sumatera Utara 22851";"Sumatera Utara";"Sumatera Utara";"SUMATERA UTARA";"";"Indonesia";"";"";"";"1.2976797";"97.330053";"https://maps.google.com/?cid=0x0:0xb3058656cf8eec8e";""
"supermarket";"supermarket";"Kec. Hiliduho";"Kabupaten Nias, Sumatera Utara";"Kabupaten Nias, Sumatera Utara";"SUMATERA UTARA";"";"Indonesia";"";"";"";"1.2502486";"97.5332759";"https://maps.google.com/?cid=0x0:0x228ef20efa6adaf";""
"supermarket";"Toko bahan makanan";"ORAZATO BATEE";"7G2M+27W, Fadoro Lauru, Kec. Hiliduho, Kabupaten Nias, Sumatera Utara 22851";"Fadoro Lauru, Kec. Hiliduho, Kabupaten Nias";"SUMATERA UTARA";"22851";"Indonesia";" 082276368264";"";"";"1.2501175";"97.5332179";"https://maps.google.com/?cid=0x0:0x2012462b77d72a71";""
"supermarket";"Toko umum";"Warung Pak Gea";"7H8C+G6H, Dima, Kec. Hiliduho, Kabupaten Nias, Sumatera Utara 22811";"Dima, Kec. Hiliduho, Kabupaten Nias";"SUMATERA UTARA";"22811";"Indonesia";"";"";"";"1.2663083";"97.5706249";"https://maps.google.com/?cid=0x0:0x55aac9229b84e58c";""
"supermarket";"Toko umum";"UD. LIDRA";"Jl. Arah Alasa No.Km 15, RW.5, Hiliduho, Kec. Hiliduho, Kabupaten Nias, Sumatera Utara 22851";"RW.5, Hiliduho, Kec. Hiliduho, Kabupaten Nias";"SUMATERA UTARA";"22851";"Indonesia";"";"";"";"1.2577899";"97.5345384";"https://maps.google.com/?cid=0x0:0x224ba386a3a89fc7";""
"supermarket";"Toko umum";"Sinuwe";"6F4X+J36, Desa, Sisobalauru, Hiliduho, Nias Regency, North Sumatra 22861";"Desa, Sisobalauru, Hiliduho, Nias Regency";"SUMATERA UTARA";"22861";"Indonesia";" +886905473631";"";"";"1.2065373";"97.4976536";"https://maps.google.com/?cid=0x0:0x227e05fa48306615";""
"supermarket";"Toko";"Grosir fesra MENDROFA";"6H37+G7G, Dahadano Botombawo, Kec. Botomuzoi, Kabupaten Nias, Sumatera Utara";"Kabupaten Nias, Sumatera Utara";"SUMATERA UTARA";"";"Indonesia";"";"";"";"1.2038152";"97.5631911";"https://maps.google.com/?cid=0x0:0x1afaf1ae8378ce79";""
"supermarket";"Toko";"UD BALOIDO";"6H7F+55, Dahadano Botombawo, Kec. HiliSerangkai, Kabupaten Nias, Sumatera Utara";"Kabupaten Nias, Sumatera Utara";"SUMATERA UTARA";"";"Indonesia";"";"";"";"1.2129062";"97.5729807";"https://maps.google.com/?cid=0x0:0xc01a81eca76bc5ae";""
"supermarket";"Komplek perumahan";"Lolowua Hiliwarasi";"5HRC+WMC, Jl. Nias Tengah, Dahadano Botombawo, Kec. HiliSerangkai, Kabupaten Nias, Sumatera Utara 22851";"Jl. Nias Tengah, Dahadano Botombawo, Kec. HiliSerangkai, Kabupaten Nias";"SUMATERA UTARA";"22851";"Indonesia";" 082369950502";"";"";"1.1904421";"97.5740161";"https://maps.google.com/?cid=0x0:0xba26e0fa689deacf";""
"supermarket";"Gedung Apartemen";"Rumah jernih Priska Waruwu";"7HG3+6R6, Sisobahili I Tanoseo, Kec. Hiliduho, Kabupaten Nias, Sumatera Utara";"Kabupaten Nias, Sumatera Utara";"SUMATERA UTARA";"";"Indonesia";"";"";"";"1.2755316";"97.5545143";"https://maps.google.com/?cid=0x0:0xbe5eb1d1e1db4870";""
"supermarket";"supermarket";"Sumatera Utara 22854";"Kec. Botomuzoi, Kabupaten Nias, Sumatera Utara";"Kabupaten Nias, Sumatera Utara";"SUMATERA UTARA";"";"Indonesia";"";"";"";"1.1873897";"97.5301397";"https://maps.google.com/?cid=0x0:0x6075fa9e225a1eff";""
"supermarket";"Toko Mebel";"UD. MELVIN PERABOT";"5HPH+FX8, Unnamed Road, Lolowua, Kec. HiliSerangkai, Kabupaten Nias, Sumatera Utara 22851";"Unnamed Road, Lolowua, Kec. HiliSerangkai, Kabupaten Nias";"SUMATERA UTARA";"22851";"Indonesia";"";"";"";"1.1861749";"97.5799589";"https://maps.google.com/?cid=0x0:0xebfd6597c6571e99";""
"supermarket";"supermarket";"Hilinangea Nius Zendrato";"8HWH+J76, Olora, Kec. Gunungsitoli Utara, Kota Gunungsitoli, Sumatera Utara";"Kota Gunungsitoli, Sumatera Utara";"SUMATERA UTARA";"";"Indonesia";" 081263228177";"";"";"1.3465461";"97.5781263";"https://maps.google.com/?cid=0x0:0x60ca8eb93504c548";""
"supermarket";"Toko";"Grosir fesra MENDROFA";"6H37+G7G, Dahadano Botombawo, Kec. Botomuzoi, Kabupaten Nias, Sumatera Utara";"Kabupaten Nias, Sumatera Utara";"SUMATERA UTARA";"";"Indonesia";"";"";"";"1.2038152";"97.5631911";"https://maps.google.com/?cid=0x0:0x1afaf1ae8378ce79";""
"supermarket";"Toko";"UD BALOIDO";"6H7F+55, Dahadano Botombawo, Kec. HiliSerangkai, Kabupaten Nias, Sumatera Utara";"Kabupaten Nias, Sumatera Utara";"SUMATERA UTARA";"";"Indonesia";"";"";"";"1.2129062";"97.5729807";"https://maps.google.com/?cid=0x0:0xc01a81eca76bc5ae";""
"supermarket";"Komplek perumahan";"Lolowua Hiliwarasi";"5HRC+WMC, Jl. Nias Tengah, Dahadano Botombawo, Kec. HiliSerangkai, Kabupaten Nias, Sumatera Utara 22851";"Jl. Nias Tengah, Dahadano Botombawo, Kec. HiliSerangkai, Kabupaten Nias";"SUMATERA UTARA";"22851";"Indonesia";" 082369950502";"";"";"1.1904421";"97.5740161";"https://maps.google.com/?cid=0x0:0xba26e0fa689deacf";""
"supermarket";"supermarket";"Kec. HiliSerangkai";"Kabupaten Nias, Sumatera Utara";"Kabupaten Nias, Sumatera Utara";"SUMATERA UTARA";"";"Indonesia";"";"";"";"1.2079822";"97.5725863";"https://maps.google.com/?cid=0x0:0x87e5f26307fe5db6";""
"supermarket";"Komplek perumahan";"Lolowua Hiliwarasi";"5HRC+WMC, Jl. Nias Tengah, Dahadano Botombawo, Kec. HiliSerangkai, Kabupaten Nias, Sumatera Utara 22851";"Jl. Nias Tengah, Dahadano Botombawo, Kec. HiliSerangkai, Kabupaten Nias";"SUMATERA UTARA";"22851";"Indonesia";" 082369950502";"";"";"1.1904421";"97.5740161";"https://maps.google.com/?cid=0x0:0xba26e0fa689deacf";""
"supermarket";"Kantor Pemerintah";"Desa Hiliuso";"Jl. Nias Tengah No.KM 34, Hiliuso, Kec. HiliSerangkai, Kabupaten Nias Barat, Sumatera Utara";"Kabupaten Nias Barat, Sumatera Utara";"SUMATERA UTARA";"";"Indonesia";"";"";"";"1.1830273";"97.5809173";"https://maps.google.com/?cid=0x0:0xbee2c195a26985ff";""
"supermarket";"supermarket";"Sumatera Utara 22872";"Kabupaten Nias, Sumatera Utara";"Kabupaten Nias, Sumatera Utara";"SUMATERA UTARA";"";"Indonesia";"";"";"";"1.0204278";"97.7742702";"https://maps.google.com/?cid=0x0:0x39c54a2144cb1830";""
"supermarket";"Toko";"Cinta Mart";"Jl. Diponegoro No.83, Tetehosi, Kecamatan Idanogawo, Kabupaten Nias, Sumatera Utara 22872";"Tetehosi, Kecamatan Idanogawo, Kabupaten Nias";"SUMATERA UTARA";"22872";"Indonesia";"";"";"";"1.0266668";"97.7717121";"https://maps.google.com/?cid=0x0:0xe5b75e354314622b";""
"supermarket";"Minimarket";"UD. Asran Maju";"Jl. Diponegoro No.75, Tetehosi, Kecamatan Idanogawo, Kabupaten Nias, Sumatera Utara 22872";"Tetehosi, Kecamatan Idanogawo, Kabupaten Nias";"SUMATERA UTARA";"22872";"Indonesia";" 085275554193";"";"";"1.0266938";"97.7715478";"https://maps.google.com/?cid=0x0:0xaec618fd8626c5a6";""
"supermarket";"Minimarket";"Alfamidi Idanögawo";"2QGF+J2F, Jl. Diponegoro, Tetehosi, Kecamatan Idanogawo, Kabupaten Nias, Sumatera Utara 22872";"Jl. Diponegoro, Tetehosi, Kecamatan Idanogawo, Kabupaten Nias";"SUMATERA UTARA";"22872";"Indonesia";"";"";"";"1.0265908";"97.7724764";"https://maps.google.com/?cid=0x0:0x22fff59eb3ed6ef5";""
"supermarket";"Toko bahan makanan";"UD Ronaldo";"3Q73+FPJ, Hilibadalu, Kecamatan Idanogawo, Kabupaten Nias, Sumatera Utara 22871";"Hilibadalu, Kecamatan Idanogawo, Kabupaten Nias";"SUMATERA UTARA";"22871";"Indonesia";"";"";"";"1.0637084";"97.7542799";"https://maps.google.com/?cid=0x0:0xcfe87c4faf17585e";""
"supermarket";"Toko umum";"UD. Berkat Syukur";"Jl. Pendidikan No.21, Tetehosi, Kecamatan Idanogawo, Kabupaten Nias, Sumatera Utara 22872";"Tetehosi, Kecamatan Idanogawo, Kabupaten Nias";"SUMATERA UTARA";"22872";"Indonesia";" 085296176328";"";"";"1.0282286";"97.7732493";"https://maps.google.com/?cid=0x0:0x269a274579c618e4";""
"supermarket";"Toko";"A. Wali lombu";"XQJR+JG7, Laowo Hilimbaruzo, Kecamatan Idanogawo, Kabupaten Nias, Sumatera Utara 22872";"Laowo Hilimbaruzo, Kecamatan Idanogawo, Kabupaten Nias";"SUMATERA UTARA";"22872";"Indonesia";"";"";"";"0.9815307";"97.791283";"https://maps.google.com/?cid=0x0:0x7d7d58311cce4928";""
"supermarket";"Grosir Barang Kelontong";"Nelis lawolo";"3QWM+45M, Olindrawa, Sisarahili Sogaeadu, Kecamatan Idanogawo, Kabupaten Nias, Sumatera Utara 22871";"Olindrawa, Sisarahili Sogaeadu, Kecamatan Idanogawo, Kabupaten Nias";"SUMATERA UTARA";"22871";"Indonesia";"";"";"";"1.095334";"97.7829357";"https://maps.google.com/?cid=0x0:0x2964c750e15215c2";""
"supermarket";"Toko umum";"UD. Toni";"Sisarahili Sogaeadu, Kec. Sogae'adu, Kabupaten Nias, Sumatera Utara 22871";"Kec. Sogae'adu, Kabupaten Nias";"SUMATERA UTARA";"22871";"Indonesia";" 085277224334";"";"";"1.0888318";"97.7370978";"https://maps.google.com/?cid=0x0:0x525b3d470925d2ed";""
"supermarket";"Grosir Barang Kelontong";"UD Yazdan";"Jln Ho Dusun IV, Lahemo, Kec. Gido, Kabupaten Nias, Sumatera Utara 22871";"Lahemo, Kec. Gido, Kabupaten Nias";"SUMATERA UTARA";"22871";"Indonesia";"";"";"";"1.0915782";"97.6942987";"https://maps.google.com/?cid=0x0:0xf6dff4d36608bedc";""
"supermarket";"supermarket";"Kec. Ma'u";"Kabupaten Nias, Sumatera Utara";"Kabupaten Nias, Sumatera Utara";"SUMATERA UTARA";"";"Indonesia";"";"";"";"1.0167709";"97.6327641";"https://maps.google.com/?cid=0x0:0x610ae1b2430535ae";""
"supermarket";"Dapur Umum";"DetaGulo";"2J96+8H9 Simpang Melati, Jl. Lōlōwa'u, Ehosakhozi, Lolowau, Kabupaten Nias Selatan, Sumatera Utara 22852";"Jl. Lōlōwa'u, Ehosakhozi, Lolowau, Kabupaten Nias Selatan";"SUMATERA UTARA";"22852";"Indonesia";"";"";"";"1.0182986";"97.6114867";"https://maps.google.com/?cid=0x0:0x325ae0b6e6297c97";""
"supermarket";"Toko Buah dan Sayuran";"Brastagi Supermarket";"Jl. Gatot Subroto No.288, Sei Putih Tengah, Kec. Medan Petisah, Kota Medan, Sumatera Utara 20113";"Sei Putih Tengah, Kec. Medan Petisah, Kota Medan";"SUMATERA UTARA";"20113";"Indonesia";" 0614572371";"";"";"3.5909151";"98.6547992";"https://maps.google.com/?cid=0x0:0x9c8d28a69d64b4f";""
"supermarket";"Toko Swalayan";"Mandiri Supermarket";"Jl. Medan - Binjai No.127, Mulyorejo, Kec. Sunggal, Kabupaten Deli Serdang, Sumatera Utara 20351";"Mulyorejo, Kec. Sunggal, Kabupaten Deli Serdang";"SUMATERA UTARA";"20351";"Indonesia";"";"";"";"3.5997108";"98.5748516";"https://maps.google.com/?cid=0x0:0x1361905e18dc4e49";""
"supermarket";"Toko bahan makanan";"Cs Swalayan 2";"GGGX+6R4, Sei Gelugur, Kec. Pancur Batu, Kabupaten Deli Serdang, Sumatera Utara 20354";"Sei Gelugur, Kec. Pancur Batu, Kabupaten Deli Serdang";"SUMATERA UTARA";"20354";"Indonesia";"";"";"";"3.525515";"98.5495889";"https://maps.google.com/?cid=0x0:0xa8aebd32ef9d56b7";""
"supermarket";"Minimarket";"Smarco Superstore Supermarket";"Jl. Gagak Hitam No.28, Tj. Rejo, Kec. Medan Sunggal, Kota Medan, Sumatera Utara 20122";"Tj. Rejo, Kec. Medan Sunggal, Kota Medan";"SUMATERA UTARA";"20122";"Indonesia";" 081239883655";"";"";"3.5754968";"98.6257062";"https://maps.google.com/?cid=0x0:0x66794b77627be68d";""
"supermarket";"Komplek perumahan";"Rumah Stephan Gulo";"XJW9+53X, Jl. Lōlōwa'u, Ehosakhozi, Kec. Huruna, Kabupaten Nias Selatan, Sumatera Utara 22852";"Jl. Lōlōwa'u, Ehosakhozi, Kec. Huruna, Kabupaten Nias Selatan";"SUMATERA UTARA";"22852";"Indonesia";"";"";"";"0.9953803";"97.6178279";"https://maps.google.com/?cid=0x0:0x7f49955f40605a9a";""
"supermarket";"Toko Swalayan";"Mandiri Supermarket";"Jl. Kapten Muslim No.8, Helvetia, Kec. Medan Helvetia, Kota Medan, Sumatera Utara 20124";"Helvetia, Kec. Medan Helvetia, Kota Medan";"SUMATERA UTARA";"20124";"Indonesia";" 0618472603";"";"";"3.6050235";"98.6452267";"https://maps.google.com/?cid=0x0:0xf01ae23c91420cc4";""
"supermarket";"Toko Swalayan";"Yuki Pasar Swalayan";"HMWP+MWH, Jl. Prof. H. M. Yamin, Sidodadi, Kec. Medan Tim., Kota Medan, Sumatera Utara 20234";"Jl. Prof. H. M. Yamin, Sidodadi, Kec. Medan Tim., Kota Medan";"SUMATERA UTARA";"20234";"Indonesia";" 0614149243";"";"";"3.5966853";"98.6873533";"https://maps.google.com/?cid=0x0:0xb9c423246c6f1784";""
"supermarket";"Toko umum";"UD.RONALD";"Siforoasi, Kec. Lolomatua, Kabupaten Nias Selatan, Sumatera Utara 22871";"Kec. Lolomatua, Kabupaten Nias Selatan";"SUMATERA UTARA";"22871";"Indonesia";"";"";"";"0.9998674";"97.6374822";"https://maps.google.com/?cid=0x0:0x6ab520b5ea3c767d";""
"supermarket";"Toko";"TOKO PASARIBU";"GM9X+8JR, Jl. Kongsi marendal, medan, Mekar Sari, Kec. Deli Tua, Kota Medan, Sumatera Utara 20131";"Jl. Kongsi marendal, medan, Mekar Sari, Kec. Deli Tua, Kota Medan";"SUMATERA UTARA";"20131";"Indonesia";" 081360506516";"";"";"3.5183611";"98.6990191";"https://maps.google.com/?cid=0x0:0xace42c6b92c42c08";""
"supermarket";"Pusat Perbelanjaan";"UD.putra";"XJPC+VWP, Hilizoliga, Kec. Lalowau, Kabupaten Nias Selatan, Sumatera Utara 22864";"Hilizoliga, Kec. Lalowau, Kabupaten Nias Selatan";"SUMATERA UTARA";"22864";"Indonesia";" 085367320924";"";"";"0.9872172";"97.6223348";"https://maps.google.com/?cid=0x0:0xff055320a94996b0";""
"supermarket";"Toko Swalayan";"Toko Sehat";"5GV5+GHQ, Jl. Veteran, Tambak Lau Mulgap I, Kec. Berastagi, Kabupaten Karo, Sumatera Utara 22152";"Jl. Veteran, Tambak Lau Mulgap I, Kec. Berastagi, Kabupaten Karo";"SUMATERA UTARA";"22152";"Indonesia";"";"";"";"3.1938323";"98.5089807";"https://maps.google.com/?cid=0x0:0x5acbd267f1180d90";""
"supermarket";"Toko bahan makanan";"Depot Fahira";"HM5Q+HQR, Kp. Baru, Kec. Medan Maimun, Kota Medan, Sumatera Utara 20215";"Kp. Baru, Kec. Medan Maimun, Kota Medan";"SUMATERA UTARA";"20215";"Indonesia";"";"";"";"3.5589825";"98.6893814";"https://maps.google.com/?cid=0x0:0xedb197d50af74f89";""
"supermarket";"Apotek";"212mart Rezeki Halal Barokah";"Jl. Kartini No.4d, Timbang Galung, Kec. Siantar Bar., Kota Pematang Siantar, Sumatera Utara 21143";"Timbang Galung, Kec. Siantar Bar., Kota Pematang Siantar";"SUMATERA UTARA";"21143";"Indonesia";"";"";"";"2.9577938";"99.0580548";"https://maps.google.com/?cid=0x0:0x61cd693bfd74dc4a";""
"supermarket";"Minimarket";"Indotop Mart";"Jl. Sibolga - Padang Sidempuan, Sarudik, Kec. Sarudik, Kabupaten Tapanuli Tengah, Sumatera Utara";"Kabupaten Tapanuli Tengah, Sumatera Utara";"SUMATERA UTARA";"";"Indonesia";" 081260145076";"";"";"1.7215923";"98.8079007";"https://maps.google.com/?cid=0x0:0x64b932323d674298";""
"supermarket";"Toko";"Toko Frans";"2JQ4+84, Sisobawino II, Kec. Lolofitu Moi, Kabupaten Nias Barat, Sumatera Utara";"Kabupaten Nias Barat, Sumatera Utara";"SUMATERA UTARA";"";"Indonesia";" 085275198881";"";"";"1.0382504";"97.6052745";"https://maps.google.com/?cid=0x0:0x244e6d99c4bb24ae";""
"supermarket";"Toko bahan makanan";"Lindagulo";"nomor110,RW 06,RT 03, jalan dinas pendidikan, Baruzo";"Kabupaten Nias, Sumatera Utara";"SUMATERA UTARA";"";"Indonesia";"";"";"";"1.1131673";"97.7063707";"https://maps.google.com/?cid=0x0:0xe8a5f0324683a72d";""
"supermarket";"Toko Swalayan";"Namma Super market";"Prem Rose Complex, opposite Mercedes Benz showroom, Mary Hill, Konchady, Mangaluru, Karnataka 575008, India";"opposite Mercedes Benz showroom, Mary Hill, Konchady, Mangaluru, Karnataka";"SUMATERA UTARA";"575008";"Indonesia";"";"";"";"12.9056217";"74.8637875";"https://maps.google.com/?cid=0x0:0x7e8f68fb30389965";""
"supermarket";"supermarket";"AMAR'S SUPER MARKET";"3-101-6, Panvel - Kochi - Kanyakumari Hwy, New Mangalore, Hosabettu, Kulai, Mangaluru, Karnataka 575019, India";"Panvel - Kochi - Kanyakumari Hwy, New Mangalore, Hosabettu, Kulai, Mangaluru, Karnataka";"SUMATERA UTARA";"575019";"Indonesia";"";"";"";"12.9594395";"74.8079543";"https://maps.google.com/?cid=0x0:0x7083d6bd612016c1";""
"supermarket";"supermarket";"Sogaeadu";"Kec. Sogae'adu, Kabupaten Nias, Sumatera Utara";"Kabupaten Nias, Sumatera Utara";"SUMATERA UTARA";"";"Indonesia";"";"";"";"1.1024643";"97.7104428";"https://maps.google.com/?cid=0x0:0x1b1f447319f0c61a";""
"supermarket";"Toko bahan makanan";"Oke Supermarket";"Jl. Gaperta Ujung No.87 C, Tj. Gusta, Kec. Medan Helvetia, Kota Medan, Sumatera Utara 20126";"Tj. Gusta, Kec. Medan Helvetia, Kota Medan";"SUMATERA UTARA";"20126";"Indonesia";" 0618442065";"";"";"3.606069";"98.6144905";"https://maps.google.com/?cid=0x0:0x1118b761c9618c65";""
"supermarket";"supermarket";"Sogaeadu";"HR99+7MC, Ps. Tlk. Dalam, Kec. Tlk. Dalam, Kabupaten Nias Selatan, Sumatera Utara";"Kabupaten Nias Selatan, Sumatera Utara";"SUMATERA UTARA";"";"Indonesia";"";"";"";"0.5681914";"97.8191333";"https://maps.google.com/?cid=0x0:0x4d1945da3bd3afb9";""
"supermarket";"Minimarket";"Smarco Superstore Supermarket";"Jl. Gagak Hitam No.28, Tj. Rejo, Kec. Medan Sunggal, Kota Medan, Sumatera Utara 20122";"Tj. Rejo, Kec. Medan Sunggal, Kota Medan";"SUMATERA UTARA";"20122";"Indonesia";" 081239883655";"";"";"3.5754968";"98.6257062";"https://maps.google.com/?cid=0x0:0x66794b77627be68d";""
"supermarket";"Grosir minuman beralkohol";"SMARCO SUPERMART";"Jl. Ir. H. Juanda No.63, Mesjid, Kec. Medan Maimun, Kota Medan, Sumatera Utara 20214";"Mesjid, Kec. Medan Maimun, Kota Medan";"SUMATERA UTARA";"20214";"Indonesia";" 081239883655";"";"";"3.5723005";"98.6802188";"https://maps.google.com/?cid=0x0:0xdd71a899ec68fd31";""
"supermarket";"supermarket";"Sumatera Utara 22871";"Kabupaten Nias, Sumatera Utara";"Kabupaten Nias, Sumatera Utara";"SUMATERA UTARA";"";"Indonesia";"";"";"";"1.1060032";"97.7199454";"https://maps.google.com/?cid=0x0:0xd497e5d19a85372d";""
"supermarket";"supermarket";"Hiligodu Somolo molo";"2PWG+R6, Tuhembuasi, Kec. Sogae'adu, Kabupaten Nias, Sumatera Utara";"Kabupaten Nias, Sumatera Utara";"SUMATERA UTARA";"";"Indonesia";"";"";"";"1.0470058";"97.7255808";"https://maps.google.com/?cid=0x0:0x1381507f387d9a10";""
"supermarket";"supermarket";"Somolo-Molo";"Kec. Somolo-Molo, Kabupaten Nias, Sumatera Utara";"Kabupaten Nias, Sumatera Utara";"SUMATERA UTARA";"";"Indonesia";"";"";"";"1.0609605";"97.6900846";"https://maps.google.com/?cid=0x0:0x1168da738d45cc33";""
"supermarket";"supermarket";"Kec. Somolo-Molo";"Kabupaten Nias, Sumatera Utara";"Kabupaten Nias, Sumatera Utara";"SUMATERA UTARA";"";"Indonesia";"";"";"";"1.0160735";"97.6614915";"https://maps.google.com/?cid=0x0:0x88ec4509a19c8140";""
"supermarket";"supermarket";"Kec. Ulugawo";"Kabupaten Nias, Sumatera Utara";"Kabupaten Nias, Sumatera Utara";"SUMATERA UTARA";"";"Indonesia";"";"";"";"0.9857839";"97.7164165";"https://maps.google.com/?cid=0x0:0x7230b2fec359e534";""
"supermarket";"Minimarket";"UD. Asran Maju";"Jl. Diponegoro No.75, Tetehosi, Kecamatan Idanogawo, Kabupaten Nias, Sumatera Utara 22872";"Tetehosi, Kecamatan Idanogawo, Kabupaten Nias";"SUMATERA UTARA";"22872";"Indonesia";" 085275554193";"";"";"1.0266938";"97.7715478";"https://maps.google.com/?cid=0x0:0xaec618fd8626c5a6";""
"supermarket";"Toko";"Cinta Mart";"Jl. Diponegoro No.83, Tetehosi, Kecamatan Idanogawo, Kabupaten Nias, Sumatera Utara 22872";"Tetehosi, Kecamatan Idanogawo, Kabupaten Nias";"SUMATERA UTARA";"22872";"Indonesia";"";"";"";"1.0266668";"97.7717121";"https://maps.google.com/?cid=0x0:0xe5b75e354314622b";""
"supermarket";"Toko";"UD saudara";"WQ72+5MJ, Lawindra, Kec. Umbunasi, Kabupaten Nias Selatan, Sumatera Utara";"Kabupaten Nias Selatan, Sumatera Utara";"SUMATERA UTARA";"";"Indonesia";"";"";"";"0.9127547";"97.7515981";"https://maps.google.com/?cid=0x0:0x253278672fb8f76e";""
"supermarket";"Grosir Mebel";"UD. MARVEL";"WM56+M9G, Unnamed Road, Hiliwaebu, Kecamatan Ulunoyo, Kabupaten Nias Selatan, Sumatera Utara 22867";"Unnamed Road, Hiliwaebu, Kecamatan Ulunoyo, Kabupaten Nias Selatan";"SUMATERA UTARA";"22867";"Indonesia";"";"";"";"0.9091787";"97.6609616";"https://maps.google.com/?cid=0x0:0xd21928e146275b5c";""
"supermarket";"supermarket";"UD.SAUDARA";"WQ35+X2W, Lolozukhu, Kec. Umbunasi, Kabupaten Nias Selatan, Sumatera Utara";"Kabupaten Nias Selatan, Sumatera Utara";"SUMATERA UTARA";"";"Indonesia";"";"";"";"0.9049892";"97.7575795";"https://maps.google.com/?cid=0x0:0xd1bc17582296e6b";""
"supermarket";"Perhimpunan Pengembang Perumahan";"Pasar Tuhemberua";"Jl. Raya, Tuhemberua, Kec. Lolomatua, Kabupaten Nias Selatan, Sumatera Utara 22852";"Tuhemberua, Kec. Lolomatua, Kabupaten Nias Selatan";"SUMATERA UTARA";"22852";"Indonesia";"";"";"";"0.9136912";"97.6574446";"https://maps.google.com/?cid=0x0:0xc4161dfb2fca2112";""
"supermarket";"Grosir Barang Kelontong";"AMA WIWI NDRURU";"WQ39+GQ2, Fanedanu, Kec. Gomo, Kabupaten Nias Selatan, Sumatera Utara 22873";"Fanedanu, Kec. Gomo, Kabupaten Nias Selatan";"SUMATERA UTARA";"22873";"Indonesia";"";"";"";"0.9037737";"97.7693807";"https://maps.google.com/?cid=0x0:0xe7bb9ce325c5f146";""
"supermarket";"Toko umum";"UD. Berkat Syukur";"Jl. Pendidikan No.21, Tetehosi, Kecamatan Idanogawo, Kabupaten Nias, Sumatera Utara 22872";"Tetehosi, Kecamatan Idanogawo, Kabupaten Nias";"SUMATERA UTARA";"22872";"Indonesia";" 085296176328";"";"";"1.0282286";"97.7732493";"https://maps.google.com/?cid=0x0:0x269a274579c618e4";""
"supermarket";"Toko bahan makanan";"UD Ronaldo";"3Q73+FPJ, Hilibadalu, Kecamatan Idanogawo, Kabupaten Nias, Sumatera Utara 22871";"Hilibadalu, Kecamatan Idanogawo, Kabupaten Nias";"SUMATERA UTARA";"22871";"Indonesia";"";"";"";"1.0637084";"97.7542799";"https://maps.google.com/?cid=0x0:0xcfe87c4faf17585e";""
"supermarket";"Sarapan";"Menjual Sembako";"WM37+V6G, Hiliwaebu, Kecamatan Ulunoyo, Kabupaten Nias Selatan, Sumatera Utara";"Kabupaten Nias Selatan, Sumatera Utara";"SUMATERA UTARA";"";"Indonesia";"";"";"";"0.9046926";"97.6630886";"https://maps.google.com/?cid=0x0:0x17ad61e355e38313";""
"supermarket";"Toko";"Ud. Adriel";"3PHV+38F, Jl. Arah Idanogawo, Lauri, Kec. Gido, Kabupaten Nias, Sumatera Utara 22871";"Jl. Arah Idanogawo, Lauri, Kec. Gido, Kabupaten Nias";"SUMATERA UTARA";"22871";"Indonesia";"";"";"";"1.0776961";"97.7432851";"https://maps.google.com/?cid=0x0:0x85fe54d1962568a6";""
