Category;Real Category;Business Name;Address;City;State;Postal Code;Country;Phone;Email;Website;Latitude;Longitude;Map Link;Details Link
hotel;hotel;Bula;"Bula, Kec. Bula, Kabupaten Seram Bagian Timur, Maluku";"Kabupaten Seram Bagian Timur, Maluku";MALUKU;;Indonesia;;;;-310.968;130.498.505;https://maps.google.com/?cid=0x0:0x20388956c533e2b;
hotel;hotel;Hotel Akham;"Bula, Kec. Bula, Kabupaten Seram Bagian Timur, Maluku";"Kabupaten Seram Bagian Timur, Maluku";MALUKU;;Indonesia;081248009664;;;-30.986.616;1.304.812.667;https://maps.google.com/?cid=0x0:0x32303aac4a1aba30;
hotel;hotel;Penginapan Damai;"Jalan Pendopo, Bula, Kec. Bula, Kabupaten Seram Bagian Timur, Maluku";"Kabupaten Seram Bagian Timur, Maluku";MALUKU;;Indonesia;085609165980;;;-31.049.345;1.304.857.384;https://maps.google.com/?cid=0x0:0xec93fa598f0990ab;
hotel;hotel;N/A;;;MALUKU;;Indonesia;;;;;;https://maps.google.com/?cid=0x0:0xd9a527375825a79%7C/g/11dzddthkt%7Cen-ID;
hotel;hotel;Syafira Hotel Langgur;"Jl. Jend. Sudirman, Kel. Ohoijang Watdek, Kec. Kei Kecil, Kabupaten Maluku Tenggara, Maluku";"Kabupaten Maluku Tenggara, Maluku";MALUKU;;Indonesia;;;;-56.482.368;132.741.602;https://maps.google.com/?cid=0x0:0xb4debeed2c65f59;
hotel;hotel;Maluku Resort and Spa;"Jl Waititiri, Suli, Salahutu, Central Maluku Regency, Maluku 97582";"Suli, Salahutu, Central Maluku Regency";MALUKU;97582;Indonesia;0911361970;;;-36.167.962;1.282.776.551;https://maps.google.com/?cid=0x0:0x399bf62f92df6277;
hotel;hotel;GC peningapan Banda Island;"Agil Nasrun - Desa kampung baru RT 02 banda neira, Maluku 97593";Maluku;MALUKU;;Indonesia;081315108555;;;-45.194.432;1.297.791.292;https://maps.google.com/?cid=0x0:0x91e37f0b98992c91;
hotel;hotel;Jusenny Hotel;"Jalan Senayan No. 29 Blok S, Jl. Senayan, RT.8/RW.5, Rw. Bar., Kec. Kby. Baru, Daerah Khusus Ibukota Jakarta 12180";"Jl. Senayan, RT.8/RW.5, Rw. Bar., Kec. Kby. Baru";MALUKU;12180;Indonesia;0217206565;;;-62.348.291;1.068.156.789;https://maps.google.com/?cid=0x0:0x85ff54b9cb5e2abe;
hotel;hotel;NEWLY Prima Orchard Hotel Bekasi;"Jl. Raya Perjuangan No.1, RT.001/RW.012, Harapan Baru, Kec. Bekasi Utara, Kota Bks, Jawa Barat 17123";"RT.001/RW.012, Harapan Baru, Kec. Bekasi Utara, Kota Bks";MALUKU;17123;Indonesia;08119004892;;;-62.199.455;107.014.824;https://maps.google.com/?cid=0x0:0x7bd67a06268625d;
hotel;hotel;Hotel NEO Tendean;"Jl. Wolter Monginsidi No.131, RT.2/RW.2, Rw. Bar., Kec. Kby. Baru, Kota Jakarta Selatan, Daerah Khusus Ibukota Jakarta 12180";"RT.2/RW.2, Rw. Bar., Kec. Kby. Baru, Kota Jakarta Selatan";MALUKU;12180;Indonesia;0217226688;;;-6.238.656;1.068.176.522;https://maps.google.com/?cid=0x0:0xa68396a69cb7f1aa;
hotel;hotel;N/A;;;MALUKU;;Indonesia;;;;;;https://maps.google.com/?cid=0x0:0xa68396a69cb7f1aa%7C/g/1pty_mv79%7Cen-ID;
hotel;hotel;Tendean Residences;"Jl. Kapten Tendean Jl. Wolter Monginsidi No.127 1, RT.2/RW.2, Rw. Bar., Kec. Kby. Baru, Kota Jakarta Selatan, Daerah Khusus Ibukota Jakarta 12180";"RT.2/RW.2, Rw. Bar., Kec. Kby. Baru, Kota Jakarta Selatan";MALUKU;12180;Indonesia;08170114527;;;-62.384.667;1.068.172.375;https://maps.google.com/?cid=0x0:0x6dbb5082311d9026;
hotel;hotel;N/A;;;MALUKU;;Indonesia;;;;;;https://maps.google.com/?cid=0x0:0x6dbb5082311d9026%7C/g/1tkfw_cs%7Cen-ID;
hotel;hotel;Mahakam24 Residence;"Jl. Mahakam No.11, RT.1/RW.6, Kramat Pela, Kec. Kby. Baru, Kota Jakarta Selatan, Daerah Khusus Ibukota Jakarta 12130";"RT.1/RW.6, Kramat Pela, Kec. Kby. Baru, Kota Jakarta Selatan";MALUKU;12130;Indonesia;0217221230;;;-62.445.969;1.067.959.879;https://maps.google.com/?cid=0x0:0x36fe88e671731da6;
hotel;hotel;Tebet Utara Residence;"Jl. Tebet Utara IV No.8B, RT.4/RW.2, Tebet Tim., Kec. Tebet, Kota Jakarta Selatan, Daerah Khusus Ibukota Jakarta 12820";"RT.4/RW.2, Tebet Tim., Kec. Tebet, Kota Jakarta Selatan";MALUKU;12820;Indonesia;081805657588;;;-62.276.582;1.068.537.073;https://maps.google.com/?cid=0x0:0xea845a37d31b864a;
hotel;hotel;Hotel Fiducia;"Jl. KH. Guru Amin No.RT.14 KM 18 No. 10, RT.14/RW.5, Pejaten Timur, Ps. Minggu, Kota Jakarta Selatan, Daerah Khusus Ibukota Jakarta 12510";"RT.14/RW.5, Pejaten Timur, Ps. Minggu, Kota Jakarta Selatan";MALUKU;12510;Indonesia;02129707601;;;-6.269.122;106.846.429;https://maps.google.com/?cid=0x0:0x5dae993032a1ba03;
hotel;hotel;N/A;;;MALUKU;;Indonesia;;;;;;https://maps.google.com/?cid=0x0:0x5dae993032a1ba03%7C/g/11xfvx9yl%7Cen-ID;
hotel;hotel;Ameera Inn;"9, Jl. Jaya Mandala I No.14, RT.9/RW.1, Menteng Dalam, Kec. Tebet, Kota Jakarta Selatan, Daerah Khusus Ibukota Jakarta 12870";"Jl. Jaya Mandala I No.14, RT.9/RW.1, Menteng Dalam, Kec. Tebet, Kota Jakarta Selatan";MALUKU;12870;Indonesia;083819338999;;;-62.393.911;1.068.378.318;https://maps.google.com/?cid=0x0:0xa6b9c7317f5bda1e;
hotel;hotel;N/A;;;MALUKU;;Indonesia;;;;;;https://maps.google.com/?cid=0x0:0xa6b9c7317f5bda1e%7C/g/11q_jn6ncg%7Cen-ID;
hotel;hotel;New Priok Indah Syariah Hotel;"Jl. Raya Cilincing No.12 2, RT.2/RW.1, Lagoa, Kec. Koja, Jkt Utara, Daerah Khusus Ibukota Jakarta 14270";"RT.2/RW.1, Lagoa, Kec. Koja, Jkt Utara";MALUKU;14270;Indonesia;02122436548;;;-61.086.139;106.915.836;https://maps.google.com/?cid=0x0:0x7ef5729c814b524b;
hotel;hotel;AN HOTEL SATRIO KUNINGAN;"Jl. Prof. DR. Satrio No.Kav 6, RT.4/RW.4, Kuningan, Karet Kuningan, Kecamatan Setiabudi, Kota Jakarta Selatan, Daerah Khusus Ibukota Jakarta 12940";"RT.4/RW.4, Kuningan, Karet Kuningan, Kecamatan Setiabudi, Kota Jakarta Selatan";MALUKU;12940;Indonesia;02157951138;;;-62.224.259;1.068.227.396;https://maps.google.com/?cid=0x0:0xad04e6a96ab52548;
hotel;hotel;RedDoorz Hostel @ Feliz Noche Cengkareng;"8, Jl. Taman Palem Lestari No.9, RT.7/RW.13, Cengkareng Bar., Jakarta, Kota Jakarta Barat, Daerah Khusus Ibukota Jakarta 11710";"Jl. Taman Palem Lestari No.9, RT.7/RW.13, Cengkareng Bar., Jakarta, Kota Jakarta Barat";MALUKU;11710;Indonesia;0895417300072;;;-61.386.487;1.067.275.808;https://maps.google.com/?cid=0x0:0xeeb996badf7f7be4;
hotel;hotel;N/A;;;MALUKU;;Indonesia;;;;;;https://maps.google.com/?cid=0x0:0xeeb996badf7f7be4%7C/g/11h7v0x6nq%7Cen-ID;
hotel;hotel;Hotel Kebayoran;"Jl. Senayan No.87, RT.7/RW.2, Rw. Bar., Kec. Kby. Baru, Kota Jakarta Selatan, Daerah Khusus Ibukota Jakarta 12180";"RT.7/RW.2, Rw. Bar., Kec. Kby. Baru, Kota Jakarta Selatan";MALUKU;12180;Indonesia;0217246208;;;-62.377.505;1.068.167.085;https://maps.google.com/?cid=0x0:0x1312ef746ad93b4c;
hotel;hotel;Tebet Utara Suites;"Jl. Tebet Utara IV D No.8, RT.4/RW.2, Tebet Tim., Kec. Tebet, Kota Jakarta Selatan, Daerah Khusus Ibukota Jakarta 12820";"RT.4/RW.2, Tebet Tim., Kec. Tebet, Kota Jakarta Selatan";MALUKU;12820;Indonesia;08156223366;;;-62.278.393;106.853.607;https://maps.google.com/?cid=0x0:0xd18e81864565e836;
hotel;hotel;N/A;;;MALUKU;;Indonesia;;;;;;https://maps.google.com/?cid=0x0:0xd18e81864565e836%7C/g/11gfhh1g4y%7Cen-ID;
hotel;hotel;D'Paragon Senopati Jakarta;"Jl. Birah II No.20, RT.6/RW.6, Rw. Bar., Kec. Kby. Baru, Kota Jakarta Selatan, Daerah Khusus Ibukota Jakarta 12180";"RT.6/RW.6, Rw. Bar., Kec. Kby. Baru, Kota Jakarta Selatan";MALUKU;12180;Indonesia;08112941549;;;-62.370.528;1.068.160.632;https://maps.google.com/?cid=0x0:0x17970eacc7aaffe;
hotel;hotel;Hotel Diradja;"Jl. Kapten Tendean No.38, RT.2/RW.5, Kuningan Bar., Kec. Mampang Prpt., Kota Jakarta Selatan, Daerah Khusus Ibukota Jakarta 12710";"RT.2/RW.5, Kuningan Bar., Kec. Mampang Prpt., Kota Jakarta Selatan";MALUKU;12710;Indonesia;02129403535;;;-62.398.878;1.068.201.797;https://maps.google.com/?cid=0x0:0xe9c1704af2384fa9;
hotel;hotel;N/A;;;MALUKU;;Indonesia;;;;;;https://maps.google.com/?cid=0x0:0xe9c1704af2384fa9%7C/g/11b5wrrx5m%7Cen-ID;
hotel;hotel;Bula;"Bula, Kec. Bula, Kabupaten Seram Bagian Timur, Maluku";"Kabupaten Seram Bagian Timur, Maluku";MALUKU;;Indonesia;;;;-310.968;130.498.505;https://maps.google.com/?cid=0x0:0x20388956c533e2b;
hotel;hotel;Syafira Hotel Langgur;"Jl. Jend. Sudirman, Kel. Ohoijang Watdek, Kec. Kei Kecil, Kabupaten Maluku Tenggara, Maluku";"Kabupaten Maluku Tenggara, Maluku";MALUKU;;Indonesia;;;;-56.482.368;132.741.602;https://maps.google.com/?cid=0x0:0xb4debeed2c65f59;
hotel;hotel;Hotel Akham;"Bula, Kec. Bula, Kabupaten Seram Bagian Timur, Maluku";"Kabupaten Seram Bagian Timur, Maluku";MALUKU;;Indonesia;081248009664;;;-30.986.616;1.304.812.667;https://maps.google.com/?cid=0x0:0x32303aac4a1aba30;
hotel;hotel;Maluku Resort and Spa;"Jl Waititiri, Suli, Salahutu, Central Maluku Regency, Maluku 97582";"Suli, Salahutu, Central Maluku Regency";MALUKU;97582;Indonesia;0911361970;;;-36.167.962;1.282.776.551;https://maps.google.com/?cid=0x0:0x399bf62f92df6277;
hotel;hotel;Nusa Nalan Beach Resort;"Saleman, Kec. Seram Utara Bar., Kabupaten Maluku Tengah, Maluku";"Kabupaten Maluku Tengah, Maluku";MALUKU;;Indonesia;082191118069;;;-29.641.794;1.291.227.794;https://maps.google.com/?cid=0x0:0x3e974595c220a8d9;
hotel;hotel;Airy Maluku City Sudirman Ambon;"85JX+J8C, Jl. Jenderal Sudirman, Hative Kecil, Kec. Sirimau, Kota Ambon, Maluku 97128";"Jl. Jenderal Sudirman, Hative Kecil, Kec. Sirimau, Kota Ambon";MALUKU;97128;Indonesia;08041112479;;;-36.684.342;1.281.982.566;https://maps.google.com/?cid=0x0:0xd9a527375825a79;
hotel;hotel;N/A;;;MALUKU;;Indonesia;;;;;;https://maps.google.com/?cid=0x0:0xd9a527375825a79%7C/g/11dzddthkt%7Cen-ID;
hotel;hotel;Budget Hotel Ambon;"Budget Hotel Ambon, Jl. Sirimau No. 12, Batumeja Ambon Kel Batu Meja Sirimau, Kel Batu Meja, maliku, Kota Ambon, Maluku 97123";"Jl. Sirimau No. 12, Batumeja Ambon Kel Batu Meja Sirimau, Kel Batu Meja, maliku, Kota Ambon";MALUKU;97123;Indonesia;085105311311;;;-36.984.668;128.186.683;https://maps.google.com/?cid=0x0:0x990aa5cdb07ff873;
hotel;hotel;HOTEL ISABELLA MASOHI;"Jl. Manusela No.17, Namasina, Kec. Kota Masohi, Kabupaten Maluku Tengah, Maluku 97511";"Namasina, Kec. Kota Masohi, Kabupaten Maluku Tengah";MALUKU;97511;Indonesia;081343393345;;;-33.100.135;1.289.465.446;https://maps.google.com/?cid=0x0:0xb41663efa6c05105;
hotel;hotel;New Masoya Maluku Cottage;"85XW+FCW, Jl. Dr. J. Leimena, Poka, Kec. Tlk. Ambon, Kota Ambon, Maluku";"Kota Ambon, Maluku";MALUKU;;Indonesia;085334047874;;;-36.512.554;1.281.960.639;https://maps.google.com/?cid=0x0:0xcc2de7647aa80c8f;
hotel;hotel;Bellarizki Resort;"24R9+922, Saleman, Kec. Seram Utara Bar., Kabupaten Maluku Tengah, Maluku";"Kabupaten Maluku Tengah, Maluku";MALUKU;;Indonesia;082198508001;;;-29.591.081;1.291.175.123;https://maps.google.com/?cid=0x0:0xc6db48cb9142d4b1;
hotel;hotel;Baguala Beach;"97MH+63G, Suli, Kec. Salahutu, Kabupaten Maluku Tengah, Maluku";"Kabupaten Maluku Tengah, Maluku";MALUKU;;Indonesia;081259490022;;;-36.169.452;1.282.777.185;https://maps.google.com/?cid=0x0:0x632f2cf306fa3e94;
hotel;hotel;RedDoorz Hostel @ Feliz Noche Cengkareng;"8, Jl. Taman Palem Lestari No.9, RT.7/RW.13, Cengkareng Bar., Jakarta, Kota Jakarta Barat, Daerah Khusus Ibukota Jakarta 11710";"Jl. Taman Palem Lestari No.9, RT.7/RW.13, Cengkareng Bar., Jakarta, Kota Jakarta Barat";MALUKU;11710;Indonesia;0895417300072;;;-61.386.487;1.067.275.808;https://maps.google.com/?cid=0x0:0xeeb996badf7f7be4;
hotel;hotel;N/A;;;MALUKU;;Indonesia;;;;;;https://maps.google.com/?cid=0x0:0xeeb996badf7f7be4%7C/g/11h7v0x6nq%7Cen-ID;
hotel;hotel;NEWLY Prima Orchard Hotel Bekasi;"Jl. Raya Perjuangan No.1, RT.001/RW.012, Harapan Baru, Kec. Bekasi Utara, Kota Bks, Jawa Barat 17123";"RT.001/RW.012, Harapan Baru, Kec. Bekasi Utara, Kota Bks";MALUKU;17123;Indonesia;08119004892;;;-62.199.455;107.014.824;https://maps.google.com/?cid=0x0:0x7bd67a06268625d;
hotel;hotel;GRAND THAMRIN HOTEL;"4, Jl. Tlk. Betung I No.45D, RT.4/RW.1, Kb. Melati, Kecamatan Tanah Abang, Kota Jakarta Pusat, Daerah Khusus Ibukota Jakarta 10230";"Jl. Tlk. Betung I No.45D, RT.4/RW.1, Kb. Melati, Kecamatan Tanah Abang, Kota Jakarta Pusat";MALUKU;10230;Indonesia;082298987955;;;-61.960.658;1.068.202.241;https://maps.google.com/?cid=0x0:0xf829520a09858ad5;
hotel;hotel;N/A;;;MALUKU;;Indonesia;;;;;;https://maps.google.com/?cid=0x0:0xf829520a09858ad5%7C/g/11pyc9v383%7Cen-ID;
hotel;hotel;New Priok Indah Syariah Hotel;"Jl. Raya Cilincing No.12 2, RT.2/RW.1, Lagoa, Kec. Koja, Jkt Utara, Daerah Khusus Ibukota Jakarta 14270";"RT.2/RW.1, Lagoa, Kec. Koja, Jkt Utara";MALUKU;14270;Indonesia;02122436548;;;-61.086.139;106.915.836;https://maps.google.com/?cid=0x0:0x7ef5729c814b524b;
hotel;hotel;Urbanview Hotel Mitra near Grand Indonesia;"Jl. Kb. Kacang XII No.3, RT.2/RW.3, Kb. Kacang, Kecamatan Tanah Abang, Kota Jakarta Pusat, Daerah Khusus Ibukota Jakarta 10240";"RT.2/RW.3, Kb. Kacang, Kecamatan Tanah Abang, Kota Jakarta Pusat";MALUKU;10240;Indonesia;0895417300072;;;-61.904.003;1.068.190.722;https://maps.google.com/?cid=0x0:0x12e80a4217f89a7a;
hotel;hotel;N/A;;;MALUKU;;Indonesia;;;;;;https://maps.google.com/?cid=0x0:0x12e80a4217f89a7a%7C/g/1tz0k3pl%7Cen-ID;
hotel;hotel;Ameera Inn;"9, Jl. Jaya Mandala I No.14, RT.9/RW.1, Menteng Dalam, Kec. Tebet, Kota Jakarta Selatan, Daerah Khusus Ibukota Jakarta 12870";"Jl. Jaya Mandala I No.14, RT.9/RW.1, Menteng Dalam, Kec. Tebet, Kota Jakarta Selatan";MALUKU;12870;Indonesia;083819338999;;;-62.393.911;1.068.378.318;https://maps.google.com/?cid=0x0:0xa6b9c7317f5bda1e;
hotel;hotel;N/A;;;MALUKU;;Indonesia;;;;;;https://maps.google.com/?cid=0x0:0xa6b9c7317f5bda1e%7C/g/11q_jn6ncg%7Cen-ID;
hotel;hotel;Clay Hotel Jakarta;"Jl. Blora No.20, RT.2/RW.6, Dukuh Atas, Menteng, Kec. Menteng, Kota Jakarta Pusat, Daerah Khusus Ibukota Jakarta 10310";"RT.2/RW.6, Dukuh Atas, Menteng, Kec. Menteng, Kota Jakarta Pusat";MALUKU;10310;Indonesia;02131923388;;;-62.007.067;1.068.236.817;https://maps.google.com/?cid=0x0:0xcb85efc01ce918aa;
hotel;hotel;N/A;;;MALUKU;;Indonesia;;;;;;https://maps.google.com/?cid=0x0:0xcb85efc01ce918aa%7C/g/11x9yrt7r%7Cen-ID;
hotel;hotel;Tebet Utara Residence;"Jl. Tebet Utara IV No.8B, RT.4/RW.2, Tebet Tim., Kec. Tebet, Kota Jakarta Selatan, Daerah Khusus Ibukota Jakarta 12820";"RT.4/RW.2, Tebet Tim., Kec. Tebet, Kota Jakarta Selatan";MALUKU;12820;Indonesia;081805657588;;;-62.276.582;1.068.537.073;https://maps.google.com/?cid=0x0:0xea845a37d31b864a;
hotel;hotel;Super OYO Flagship 101 Apple Platinum;"Jl. Kp. Bali X No.17, RT.7 / RW.9, Kp. Bali, Jalan Kampung, Bali X, Kecamatan Tanah Abang, Jakarta, Daerah Khusus Ibukota Jakarta 10250";"RT.7 / RW.9, Kp. Bali, Jalan Kampung, Bali X, Kecamatan Tanah Abang, Jakarta";MALUKU;10250;Indonesia;02129707601;;;-61.850.796;106.819.376;https://maps.google.com/?cid=0x0:0xca93ec6c1a26d6d3;
hotel;hotel;N/A;;;MALUKU;;Indonesia;;;;;;https://maps.google.com/?cid=0x0:0xca93ec6c1a26d6d3%7C/g/11f4wsvsxd%7Cen-ID;
hotel;hotel;N/A;;;MALUKU;;Indonesia;;;;;;https://maps.google.com/?cid=0x0:0x4bb43f05511bf5bd%7C/g/1tdrbh78%7Cen-ID;
hotel;hotel;Cipta Hotel Wahid Hasyim;"Jl. K.H. Wahid Hasyim No.53, Gondangdia, Kec. Menteng, DKI, Daerah Khusus Ibukota Jakarta 10350";"Gondangdia, Kec. Menteng, DKI";MALUKU;10350;Indonesia;0213904701;;;-6.187.598;1.068.286.001;https://maps.google.com/?cid=0x0:0x4bb43f05511bf5bd;
hotel;Rumah wisata;Kelluan;"4WC2+R7F, Geser, Kec. Seram Tim., Kabupaten Seram Bagian Timur, Maluku";"Kabupaten Seram Bagian Timur, Maluku";MALUKU;;Indonesia;;;;-38.777.933;1.309.004.967;https://maps.google.com/?cid=0x0:0x2aa933b0c5ac6646;
hotel;Hotel;Pentang;"4VG6+RG, Kellu, Kabupaten Seram Bagian Timur, Maluku";"Kabupaten Seram Bagian Timur, Maluku";MALUKU;;Indonesia;;;;-38.728.757;1.308.613.035;https://maps.google.com/?cid=0x0:0xc9c12cc451e6ea4b;
hotel;hotel;Kabupaten Seram Bagian Timur;Maluku;"Kabupaten Seram Bagian Timur, Maluku";MALUKU;;Indonesia;;;;-34.233.267;1.302.271.243;https://maps.google.com/?cid=0x0:0x3e3cbf11d9dac8;
hotel;hotel;The Natsepa Hotel  Resort;"Jl. Natsepa No.36, Suli, Kec. Salahutu, Kabupaten Maluku Tengah, Maluku 97582";"Suli, Kec. Salahutu, Kabupaten Maluku Tengah";MALUKU;97582;Indonesia;0911362555;;;-36.224.597;1.282.856.783;https://maps.google.com/?cid=0x0:0xb66509852ba2428c;
hotel;hotel;N/A;;;MALUKU;;Indonesia;;;;;;https://maps.google.com/?cid=0x0:0xb66509852ba2428c%7C/g/121qycpm%7Cen-ID;
hotel;hotel;MahuLodge Dive Operator | Accomodation;"Ihamahu, Kec. Saparua Timur, Kabupaten Maluku Tengah, Maluku 97585";"Kec. Saparua Timur, Kabupaten Maluku Tengah";MALUKU;97585;Indonesia;082125254789;;;-35.286.638;1.286.870.896;https://maps.google.com/?cid=0x0:0x66cdc8852940cb13;
hotel;hotel;Ora Sunrise View;"24W7+F64, Saleman, Kec. Seram Utara Bar., Kabupaten Maluku Tengah, Maluku";"Kabupaten Maluku Tengah, Maluku";MALUKU;;Indonesia;081341516987;;;-29.538.605;1.291.130.922;https://maps.google.com/?cid=0x0:0x7e5ff763da6b1066;
hotel;hotel;Ribka’s Hotel and Restaurant;"JLN RAYA RT 03 NEGERI ADM DWIWARNA KECAMATAN, Dwi Warna, Kec. Banda, Kabupaten Maluku Tengah, Maluku 97586";"Dwi Warna, Kec. Banda, Kabupaten Maluku Tengah";MALUKU;97586;Indonesia;081248744856;;;-45.279.997;1.299.027.897;https://maps.google.com/?cid=0x0:0x438e87e59ca8ab59;
hotel;hotel;RumaRuma Farvet Residence;"Jl. DR. Kayadoe, Kel Wainitu, Kec. Nusaniwe, Kota Ambon, Maluku 97114";"Kel Wainitu, Kec. Nusaniwe, Kota Ambon";MALUKU;97114;Indonesia;0911320001;;;-37.048.297;1.281.749.829;https://maps.google.com/?cid=0x0:0x157b5f43bce7d2b7;
hotel;hotel;Golden palace hotel;"Jl. Cendrawasih No.32, Kel Rijali, Kec. Sirimau, Kota Ambon, Maluku 97123";"Kel Rijali, Kec. Sirimau, Kota Ambon";MALUKU;97123;Indonesia;0911321668;;;-3.690.277;1.281.865.911;https://maps.google.com/?cid=0x0:0x2c1947e393537360;
hotel;hotel;Sing Key Beach;"Jalan Desa, Saleman, Kec. Seram Utara Bar., Masohi, Maluku 97532";"Saleman, Kec. Seram Utara Bar., Masohi";MALUKU;97532;Indonesia;085244725146;;;-29.637.247;1.291.209.378;https://maps.google.com/?cid=0x0:0xcc20ca0241000e51;
hotel;hotel;Nusa Nalan Beach Resort;"Saleman, Kec. Seram Utara Bar., Kabupaten Maluku Tengah, Maluku";"Kabupaten Maluku Tengah, Maluku";MALUKU;;Indonesia;082191118069;;;-29.641.794;1.291.227.794;https://maps.google.com/?cid=0x0:0x3e974595c220a8d9;
hotel;hotel;N/A;;;MALUKU;;Indonesia;;;;;;https://maps.google.com/?cid=0x0:0xb9db5b7a20268292%7C/g/11dxqk2mvs%7Cen-ID;
hotel;hotel;The City Hotel;"Jl. Tulukabessy No.39, Kel Rijali, Kec. Sirimau, Kota Ambon, Maluku 97123";"Kel Rijali, Kec. Sirimau, Kota Ambon";MALUKU;97123;Indonesia;08114729990;;;-36.893.286;1.281.867.568;https://maps.google.com/?cid=0x0:0xb9db5b7a20268292;
hotel;hotel;Elizabeth Hotel  Resort;"Jl. Imam Bonjol No.15, Kel Ahusen, Kec. Sirimau, Kota Ambon, Maluku";"Kota Ambon, Maluku";MALUKU;;Indonesia;0911352010;;;-36.976.664;1.281.833.704;https://maps.google.com/?cid=0x0:0x2d61c50ee17212d;
hotel;hotel;Hotel Mutiara;"Jl. Pattimura No.12, Uritetu, Kec. Sirimau, Kota Ambon, Maluku 97236";"Uritetu, Kec. Sirimau, Kota Ambon";MALUKU;97236;Indonesia;081272183527;;;-36.947.357;1.281.835.199;https://maps.google.com/?cid=0x0:0x63d864abc86620;
hotel;hotel;Hotel New Mulia;"Jl. Rijali No.19, Kel Rijali, Kec. Sirimau, Kota Ambon, Maluku";"Kota Ambon, Maluku";MALUKU;;Indonesia;082198299709;;;-36.921.909;1.281.883.361;https://maps.google.com/?cid=0x0:0x5639937481f5de6f;
hotel;hotel;Grand Avira Hotel;"Kel Rijali, Kec. Sirimau, Kota Ambon, Maluku";"Kota Ambon, Maluku";MALUKU;;Indonesia;0911345415;;;-36.873.242;1.281.875.829;https://maps.google.com/?cid=0x0:0x66de848538c4aad0;
hotel;hotel;Hotel Tirta Kencana;"74FV+HPM, Jl. Raya No.1, Amahusu, Kec. Nusaniwe, Kota Ambon, Maluku";"Kota Ambon, Maluku";MALUKU;;Indonesia;08114708800;;;-37.246.379;128.144.896;https://maps.google.com/?cid=0x0:0xcbbcb31d285ead50;
hotel;hotel;Casa Felice by Reccoma;"97M5+HG9, Sisingamangaraja, Passo, Kec. Baguala, Kota Ambon, Maluku 97232";"Sisingamangaraja, Passo, Kec. Baguala, Kota Ambon";MALUKU;97232;Indonesia;09113687438;;;-36.170.196;1.282.580.921;https://maps.google.com/?cid=0x0:0x1133739d00390611;
hotel;hotel;N/A;;;MALUKU;;Indonesia;;;;;;https://maps.google.com/?cid=0x0:0x1133739d00390611%7C/g/11hszyz8x4%7Cen-ID;
hotel;hotel;N/A;;;MALUKU;;Indonesia;;;;;;https://maps.google.com/?cid=0x0:0x613a23eacdd61bba%7C/g/11g0tp0_30%7Cen-ID;
hotel;hotel;Hotel Santika Premiere Ambon;"Jl. Jenderal Sudirman No.88, Batu Merah, Kec. Sirimau, Kota Ambon, Maluku 19728";"Batu Merah, Kec. Sirimau, Kota Ambon";MALUKU;19728;Indonesia;09113833888;;;-36.788.521;1.281.941.333;https://maps.google.com/?cid=0x0:0x613a23eacdd61bba;
hotel;hotel;Pacific Hotel;"Jl. Cendrawasih No.8, Kel Rijali, Kec. Sirimau, Kota Ambon, Maluku 97123";"Kel Rijali, Kec. Sirimau, Kota Ambon";MALUKU;97123;Indonesia;0911353900;;;-36.908.957;1.281.867.135;https://maps.google.com/?cid=0x0:0xbfb798b9476a40ec;
hotel;hotel;AZZAHRA GUEST HOUSE;"Jl. Ir. M. Putuhena, Wayame, Kec. Tlk. Ambon, Kota Ambon, Maluku";"Kota Ambon, Maluku";MALUKU;;Indonesia;02129706666;;;-36.638.198;1.281.687.823;https://maps.google.com/?cid=0x0:0xd5484a6ac4edc88f;
hotel;hotel;Kamari Hotel Ambon;"Jl. Kakialy No.25, RW.27, Kadewatan, Kel Rijali, Kec. Sirimau, Kota Ambon, Maluku 97123";"RW.27, Kadewatan, Kel Rijali, Kec. Sirimau, Kota Ambon";MALUKU;97123;Indonesia;081344083683;;;-36.947.407;1.281.860.994;https://maps.google.com/?cid=0x0:0xf199365bb460a00f;
hotel;hotel;Werinama;"Kabupaten Seram Bagian Timur, Maluku";"Kabupaten Seram Bagian Timur, Maluku";MALUKU;;Indonesia;;;;-34.233.267;1.302.271.243;https://maps.google.com/?cid=0x0:0x5d34ed8352394a25;
hotel;hotel;Hotel Akham;"Bula, Kec. Bula, Kabupaten Seram Bagian Timur, Maluku";"Kabupaten Seram Bagian Timur, Maluku";MALUKU;;Indonesia;081248009664;;;-30.986.616;1.304.812.667;https://maps.google.com/?cid=0x0:0x32303aac4a1aba30;
hotel;hotel;Penginapan Damai;"Jalan Pendopo, Bula, Kec. Bula, Kabupaten Seram Bagian Timur, Maluku";"Kabupaten Seram Bagian Timur, Maluku";MALUKU;;Indonesia;085609165980;;;-31.049.345;1.304.857.384;https://maps.google.com/?cid=0x0:0xec93fa598f0990ab;
hotel;hotel;N/A;;;MALUKU;;Indonesia;;;;;;https://maps.google.com/?cid=0x0:0xd9a527375825a79%7C/g/11dzddthkt%7Cen-ID;
hotel;hotel;Pulau Gorong;"Kabupaten Seram Bagian Timur, Maluku";"Kabupaten Seram Bagian Timur, Maluku";MALUKU;;Indonesia;;;;-4.011.202;1.314.112.125;https://maps.google.com/?cid=0x0:0x3b60b40247d61e16;
hotel;hotel;Penginapan Balili;"Ondor, Kec. Pulau Gorom, Gorom, Maluku 97593";"Kec. Pulau Gorom, Gorom";MALUKU;97593;Indonesia;082267855452;;;-39.975.854;1.313.808.729;https://maps.google.com/?cid=0x0:0x1eab2f6e94c9e7c5;
hotel;Tujuan Wisata;Sirai Mas Beach;"WCRX+M33, Kiltufa, Gorom Timur, Amarwawatu, Kabupaten Seram Bagian Timur, Maluku";"Kabupaten Seram Bagian Timur, Maluku";MALUKU;;Indonesia;;;;-40.583.687;1.314.476.677;https://maps.google.com/?cid=0x0:0xc3a95f6a822544db;
hotel;hotel;Kec. Wakate;"Kabupaten Seram Bagian Timur, Maluku";"Kabupaten Seram Bagian Timur, Maluku";MALUKU;;Indonesia;;;;-45.139.238;1.316.542.349;https://maps.google.com/?cid=0x0:0x5b89d23106f26061;
hotel;hotel;Abas Rumalauw;"HJQ4+99X, Lahema, Kec. Wakate, Kabupaten Seram Bagian Timur, Maluku";"Kabupaten Seram Bagian Timur, Maluku";MALUKU;;Indonesia;;;;-44.115.137;1.316.059.878;https://maps.google.com/?cid=0x0:0xe1aec021fd3ca01;
hotel;hotel;Faruk Kelirey;"HJP4+R2V, Lahema, Kec. Wakate, Kabupaten Seram Bagian Timur, Maluku";"Kabupaten Seram Bagian Timur, Maluku";MALUKU;;Indonesia;;;;-44.128.953;1.316.050.422;https://maps.google.com/?cid=0x0:0x20cad1f12f0e2c1e;
hotel;hotel;Singkey Water Cottage;"24PC+G9Q Nemo Tour, BlackDog Motor Studio, Lesane, Kota Masohi, Kabupaten Maluku Tengah, Maluku";"Kabupaten Maluku Tengah, Maluku";MALUKU;;Indonesia;085218110003;;;-29.636.705;1.291.209.951;https://maps.google.com/?cid=0x0:0xcdfc3a5a4eb0162f;
hotel;hotel;Airy Maluku City Sudirman Ambon;"85JX+J8C, Jl. Jenderal Sudirman, Hative Kecil, Kec. Sirimau, Kota Ambon, Maluku 97128";"Jl. Jenderal Sudirman, Hative Kecil, Kec. Sirimau, Kota Ambon";MALUKU;97128;Indonesia;08041112479;;;-36.684.342;1.281.982.566;https://maps.google.com/?cid=0x0:0xd9a527375825a79;
hotel;hotel;N/A;;;MALUKU;;Indonesia;;;;;;https://maps.google.com/?cid=0x0:0xd9a527375825a79%7C/g/11dzddthkt%7Cen-ID;
hotel;hotel;Le Mansion Senopati;"Jl. Empu Sendok No.51, RT.8/RW.3, Selong, Kec. Kby. Baru, Kota Jakarta Selatan, Daerah Khusus Ibukota Jakarta 12110";"RT.8/RW.3, Selong, Kec. Kby. Baru, Kota Jakarta Selatan";MALUKU;12110;Indonesia;082120009951;;;-62.327.014;1.068.128.197;https://maps.google.com/?cid=0x0:0x8b4c3fab4d180fc8;
hotel;hotel;N/A;;;MALUKU;;Indonesia;;;;;;https://maps.google.com/?cid=0x0:0x8b4c3fab4d180fc8%7C/g/11bxdtk9gl%7Cen-ID;
hotel;hotel;Best Western Senayan;"Senayan Trade Center (STC), Jl. Asia Afrika No.1, RT.1/RW.3, Gelora, Kecamatan Tanah Abang, Jakarta, Daerah Khusus Ibukota Jakarta 10270";"Jl. Asia Afrika No.1, RT.1/RW.3, Gelora, Kecamatan Tanah Abang, Jakarta";MALUKU;10270;Indonesia;02129037345;;;-62.276.927;1.067.988.202;https://maps.google.com/?cid=0x0:0xf8df1390afdea625;
hotel;hotel;N/A;;;MALUKU;;Indonesia;;;;;;https://maps.google.com/?cid=0x0:0xf8df1390afdea625%7C/g/11r8cn2wl%7Cen-ID;
hotel;hotel;Artotel Gelora Senayan;"Jl. Pintu Satu Senayan No.1 1, RT.1/RW.3, Gelora, Kecamatan Tanah Abang, Jakarta, Daerah Khusus Ibukota Jakarta 10270";"RT.1/RW.3, Gelora, Kecamatan Tanah Abang, Jakarta";MALUKU;10270;Indonesia;02150959000;;;-62.231.849;1.068.029.466;https://maps.google.com/?cid=0x0:0x4f4a14a3933939f5;
hotel;hotel;N/A;;;MALUKU;;Indonesia;;;;;;https://maps.google.com/?cid=0x0:0x4f4a14a3933939f5%7C/g/1yhbl7c9l%7Cen-ID;
hotel;hotel;MK House SCBD;"jalan tulodong bawah ix no. 65-66, kebayoran baru jakarta selatan 12910 1, RT.1/RW.1, Senayan, Kec. Kby. Baru, Jakarta, Daerah Khusus Ibukota Jakarta 12910";1;MALUKU;12910;Indonesia;02127933336;;;-62.287.302;1.068.109.549;https://maps.google.com/?cid=0x0:0xb50da378aa952680;
hotel;hotel;ARTOTEL Casa Kuningan;"Jl. Denpasar Raya, RT.8/RW.3, Kuningan, Kuningan Tim., Kecamatan Setiabudi, Kota Jakarta Selatan, Daerah Khusus Ibukota Jakarta 12950";"RT.8/RW.3, Kuningan, Kuningan Tim., Kecamatan Setiabudi, Kota Jakarta Selatan";MALUKU;12950;Indonesia;08111539539;;;-62.347.461;1.068.268.999;https://maps.google.com/?cid=0x0:0xb27da9c90bfeec74;
hotel;hotel;N/A;;;MALUKU;;Indonesia;;;;;;https://maps.google.com/?cid=0x0:0xb27da9c90bfeec74%7C/g/11t77mm2hq%7Cen-ID;
hotel;hotel;The Gunawarman;"Jl. Gunawarman No.3 6, RT.6/RW.3, Selong, Kec. Kby. Baru, Kota Jakarta Selatan, Daerah Khusus Ibukota Jakarta 12110";"RT.6/RW.3, Selong, Kec. Kby. Baru, Kota Jakarta Selatan";MALUKU;12110;Indonesia;02122770007;;;-62.316.305;1.068.078.434;https://maps.google.com/?cid=0x0:0x6a8444898e7fcf93;
hotel;hotel;N/A;;;MALUKU;;Indonesia;;;;;;https://maps.google.com/?cid=0x0:0x6a8444898e7fcf93%7C/g/11bzsp_7dn%7Cen-ID;
hotel;hotel;Hotel NEO Tendean;"Jl. Wolter Monginsidi No.131, RT.2/RW.2, Rw. Bar., Kec. Kby. Baru, Kota Jakarta Selatan, Daerah Khusus Ibukota Jakarta 12180";"RT.2/RW.2, Rw. Bar., Kec. Kby. Baru, Kota Jakarta Selatan";MALUKU;12180;Indonesia;0217226688;;;-6.238.656;1.068.176.522;https://maps.google.com/?cid=0x0:0xa68396a69cb7f1aa;
hotel;hotel;N/A;;;MALUKU;;Indonesia;;;;;;https://maps.google.com/?cid=0x0:0xa68396a69cb7f1aa%7C/g/1pty_mv79%7Cen-ID;
hotel;hotel;Casa Living Senopati;"Jl. Cikatomas II No.11, RT.4/RW.4, Rw. Bar., Kec. Kby. Baru, Kota Jakarta Selatan, Daerah Khusus Ibukota Jakarta 12180";"RT.4/RW.4, Rw. Bar., Kec. Kby. Baru, Kota Jakarta Selatan";MALUKU;12180;Indonesia;08118515566;;;-62.369.961;1.068.121.584;https://maps.google.com/?cid=0x0:0x5879d82868b2c327;
hotel;hotel;favehotel Gatot Subroto Jakarta;"Jl. Kartika Candra No.Kav. A-9, Karet Semanggi, Kecamatan Setiabudi, Kota Jakarta Selatan, Daerah Khusus Ibukota Jakarta 12930";"Karet Semanggi, Kecamatan Setiabudi, Kota Jakarta Selatan";MALUKU;12930;Indonesia;02129419888;;;-62.271.941;1.068.195.971;https://maps.google.com/?cid=0x0:0x211de77bb11fbee6;
hotel;hotel;N/A;;;MALUKU;;Indonesia;;;;;;https://maps.google.com/?cid=0x0:0x211de77bb11fbee6%7C/g/1pp2t_26r%7Cen-ID;
hotel;hotel;"The Langham, Jakarta";"Sudirman Central Business District 8 Lot.28, Senayan, Kec. Kby. Baru, Kota Jakarta Selatan, Daerah Khusus Ibukota Jakarta 12190";"Senayan, Kec. Kby. Baru, Kota Jakarta Selatan";MALUKU;12190;Indonesia;02127087888;;;-62.273.812;1.068.067.669;https://maps.google.com/?cid=0x0:0xd36ec787c1cbe0a8;
hotel;hotel;N/A;;;MALUKU;;Indonesia;;;;;;https://maps.google.com/?cid=0x0:0xd36ec787c1cbe0a8%7C/g/11c53qxdv7%7Cen-ID;
hotel;hotel;Hotel Mercure Jakarta Gatot Subroto;"Jl. Gatot Subroto No.Kav. 1, Kuningan Bar., Jakarta, Kota Jakarta Selatan, Daerah Khusus Ibukota Jakarta 12790";"Kuningan Bar., Jakarta, Kota Jakarta Selatan";MALUKU;12790;Indonesia;02150825400;;;-62.395.588;1.068.307.447;https://maps.google.com/?cid=0x0:0xae2c6b053bbf55c2;
hotel;hotel;N/A;;;MALUKU;;Indonesia;;;;;;https://maps.google.com/?cid=0x0:0xae2c6b053bbf55c2%7C/g/11fjz2dbln%7Cen-ID;
hotel;hotel;HARRIS Suites fX Sudirman - Jakarta;"Jl. Jenderal Sudirman, RT.1/RW.3, Senayan, Kecamatan Tanah Abang, Kota Jakarta Pusat, Daerah Khusus Ibukota Jakarta 10270";"RT.1/RW.3, Senayan, Kecamatan Tanah Abang, Kota Jakarta Pusat";MALUKU;10270;Indonesia;02125554333;;;-62.248.726;1.068.040.593;https://maps.google.com/?cid=0x0:0x36b8b5df8dc7a118;
hotel;hotel;N/A;;;MALUKU;;Indonesia;;;;;;https://maps.google.com/?cid=0x0:0x36b8b5df8dc7a118%7C/g/11b6b90hmq%7Cen-ID;
hotel;hotel;Hotel Kartika Chandra;"Jl. Gatot Subroto No.18-20 8, RT.8/RW.2, Karet Semanggi, Kecamatan Setiabudi, Kota Jakarta Selatan, Daerah Khusus Ibukota Jakarta 12930";"RT.8/RW.2, Karet Semanggi, Kecamatan Setiabudi, Kota Jakarta Selatan";MALUKU;12930;Indonesia;0215251008;;;-6.227.333;1.068.186.554;https://maps.google.com/?cid=0x0:0x2962bebbf28bd2ca;
hotel;hotel;Kec. Tutuk Tolu;"Kabupaten Seram Bagian Timur, Maluku";"Kabupaten Seram Bagian Timur, Maluku";MALUKU;;Indonesia;;;;-35.511.893;1.308.594.177;https://maps.google.com/?cid=0x0:0x66cd00a169ac09c7;
hotel;Hotel;"Keltogar,Nama,Kianlaut";"7RHG+7F, Kian Laut, Kec. Lian Fitu, Kabupaten Seram Bagian Timur, Maluku";"Kabupaten Seram Bagian Timur, Maluku";MALUKU;;Indonesia;;;;-37.218.413;1.308.261.284;https://maps.google.com/?cid=0x0:0xaaed7a0b46925253;
hotel;Komplek perumahan;Tava;"6R3G+C3, Kwaos, Kec. Lian Fitu, Kabupaten Seram Bagian Timur, Maluku";"Kabupaten Seram Bagian Timur, Maluku";MALUKU;;Indonesia;;;;-37.959.793;1.308.249.787;https://maps.google.com/?cid=0x0:0xeaf4d975303b1ca2;
hotel;hotel;Maluku;;Maluku;MALUKU;;Indonesia;;;;-32.384.616;1.301.452.734;https://maps.google.com/?cid=0x0:0x5e30e8db04649a51;
hotel;Tempat Ibadah;Masihulan;"2R3M+MRC, Waimusi, Kec. Seram Utara Tim. Kobi, Kabupaten Maluku Tengah, Maluku";"Kabupaten Maluku Tengah, Maluku";MALUKU;;Indonesia;;;;-29.958.071;1.298.345.109;https://maps.google.com/?cid=0x0:0x528945c0f8af2f41;
hotel;hotel;Penginapan Serena Kobisonta;"samping tk putra demak), praptan, Jl. Lintas Seram, Kobisonta, Kec. Seram Utara Tim. Seti, Kabupaten Maluku Tengah, Maluku 97534";"praptan, Jl. Lintas Seram, Kobisonta, Kec. Seram Utara Tim. Seti, Kabupaten Maluku Tengah";MALUKU;97534;Indonesia;081357581222;;;-29.922.684;1.299.273.897;https://maps.google.com/?cid=0x0:0x7544b0857ba0e298;
hotel;hotel;Pantai Ora;"Jl. Kabupaten, Kec. Seram Utara, Kabupaten Maluku Tengah, Maluku";"Kabupaten Maluku Tengah, Maluku";MALUKU;;Indonesia;;;;-29.598.946;1.291.392.275;https://maps.google.com/?cid=0x0:0xf8e9bb942190466b;
hotel;hotel;"Air Terjun Tona, Negeri Nuniali";"49GP+GVX, Nuniali, Kec. Taniwel, Kabupaten Seram Bagian Barat, Maluku";"Kabupaten Seram Bagian Barat, Maluku";MALUKU;;Indonesia;;;;-28.736.401;128.387.247;https://maps.google.com/?cid=0x0:0x7248a3fd949c7b52;
hotel;hotel;Nakaela Lodge;"Taniwel, Kec. Taniwel, Kabupaten Seram Bagian Barat, Maluku";"Kabupaten Seram Bagian Barat, Maluku";MALUKU;;Indonesia;08123881337;;;-28.470.515;1.284.527.411;https://maps.google.com/?cid=0x0:0x3c326965219ae550;
hotel;Tujuan Wisata;Pantai Ngurbloat Desa Ngilngof - Kei Islands;"Ngurbloat, Kabupaten Maluku Tenggara, Maluku";"Kabupaten Maluku Tenggara, Maluku";MALUKU;;Indonesia;0811477719;;;-56.624.981;1.326.362.396;https://maps.google.com/?cid=0x0:0xd3a4a88054e326f;
hotel;hotel;Suita Hotel;"8PWR+V8H, Kel. Ohoijang Watdek, Kec. Kei Kecil, Kabupaten Maluku Tenggara, Maluku";"Kabupaten Maluku Tenggara, Maluku";MALUKU;;Indonesia;091624007;;;-56.528.181;13.274.087;https://maps.google.com/?cid=0x0:0x44818b2730e9d9f7;
hotel;hotel;"Air Belanda Resort, Near Ora Beach";"Bar.,, Saleman, Kec. Seram Utara Bar., Kabupaten Maluku Tengah, Maluku";"Kabupaten Maluku Tengah, Maluku";MALUKU;;Indonesia;085343852368;;;-29.696.582;1.291.301.286;https://maps.google.com/?cid=0x0:0x422a9bf330aa0cfd;
hotel;hotel;Penginapan Damai;"Jalan Pendopo, Bula, Kec. Bula, Kabupaten Seram Bagian Timur, Maluku";"Kabupaten Seram Bagian Timur, Maluku";MALUKU;;Indonesia;085609165980;;;-31.049.345;1.304.857.384;https://maps.google.com/?cid=0x0:0xec93fa598f0990ab;
hotel;hotel;Gumumae Beach;"Jl. Wailola, Bula, Kec. Bula, Kabupaten Seram Bagian Timur, Maluku";"Kabupaten Seram Bagian Timur, Maluku";MALUKU;;Indonesia;;;;-30.672.653;1.304.715.293;https://maps.google.com/?cid=0x0:0x6bbfa41021bd997d;
hotel;hotel;Roneela Cottage;"25VV+R28 Rumah Olat, Sawai, Kec. Seram Utara, Kabupaten Maluku Tengah, Maluku";"Kabupaten Maluku Tengah, Maluku";MALUKU;;Indonesia;082198126956;;;-29.554.705;1.291.925.736;https://maps.google.com/?cid=0x0:0xc19687f88c2d3959;
hotel;hotel;Syafira Hotel Langgur;"Jl. Jend. Sudirman, Kel. Ohoijang Watdek, Kec. Kei Kecil, Kabupaten Maluku Tenggara, Maluku";"Kabupaten Maluku Tenggara, Maluku";MALUKU;;Indonesia;;;;-56.482.368;132.741.602;https://maps.google.com/?cid=0x0:0xb4debeed2c65f59;
hotel;hotel;N/A;;;MALUKU;;Indonesia;;;;;;https://maps.google.com/?cid=0x0:0x80fb28ed089099ce%7C/g/1q67cz98h%7Cen-ID;
hotel;hotel;Swiss-Belhotel Ambon;"Jl. Benteng Kapaha No.88, Uritetu, Kec. Sirimau, Kota Ambon, Maluku 97124";"Uritetu, Kec. Sirimau, Kota Ambon";MALUKU;97124;Indonesia;0911322888;;;-36.944.935;1.281.853.354;https://maps.google.com/?cid=0x0:0x80fb28ed089099ce;
hotel;Balai masyarakat;Jembatan Merah Putih;"Jl. Jemb. Merah Putih, Kec. Sirimau, Kota Ambon, Maluku";"Kota Ambon, Maluku";MALUKU;;Indonesia;;;;-36.619.296;1.281.982.884;https://maps.google.com/?cid=0x0:0x51809566a7c4728c;
hotel;hotel;Bellarizki Resort;"24R9+922, Saleman, Kec. Seram Utara Bar., Kabupaten Maluku Tengah, Maluku";"Kabupaten Maluku Tengah, Maluku";MALUKU;;Indonesia;082198508001;;;-29.591.081;1.291.175.123;https://maps.google.com/?cid=0x0:0xc6db48cb9142d4b1;
hotel;hotel;N/A;;;MALUKU;;Indonesia;;;;;;https://maps.google.com/?cid=0x0:0x602282c2fc284226%7C/g/11bc7s8rt9%7Cen-ID;
hotel;hotel;Hotel Grand Vilia;"Jl. Telaver No.1, Langgur, Kec. Kei Kecil, Kabupaten Maluku Tenggara, Maluku";"Kabupaten Maluku Tenggara, Maluku";MALUKU;;Indonesia;082197830643;;;-56.704.304;1.327.377.086;https://maps.google.com/?cid=0x0:0x602282c2fc284226;
hotel;Hotel;Wisma Matahari;"8PHM+CV5, Jl. Kabupaten, Langgur, Kec. Kei Kecil, Kabupaten Maluku Tenggara, Maluku 97611";"Jl. Kabupaten, Langgur, Kec. Kei Kecil, Kabupaten Maluku Tenggara";MALUKU;97611;Indonesia;09162520254;;;-5.671.478;132.734.719;https://maps.google.com/?cid=0x0:0x7ef0db4fba741ff2;
hotel;hotel;Hote;"Kec. Bula Barat, Kabupaten Seram Bagian Timur, Maluku";"Kabupaten Seram Bagian Timur, Maluku";MALUKU;;Indonesia;;;;-31.201.732;1.303.292.795;https://maps.google.com/?cid=0x0:0x6b3b9a0287ae46c3;
hotel;hotel;Ora Sunrise View;"24W7+F64, Saleman, Kec. Seram Utara Bar., Kabupaten Maluku Tengah, Maluku";"Kabupaten Maluku Tengah, Maluku";MALUKU;;Indonesia;081341516987;;;-29.538.605;1.291.130.922;https://maps.google.com/?cid=0x0:0x7e5ff763da6b1066;
hotel;hotel;N/A;;;MALUKU;;Indonesia;;;;;;https://maps.google.com/?cid=0x0:0xb21959aef3d161b1%7C/g/11f4wtlgqx%7Cen-ID;
hotel;hotel;LeGreen Suite Waihaong;"Jl. Sultan Babullah No.48, Kel Waihaong, Kec. Nusaniwe, Kota Ambon, Maluku 97115";"Kel Waihaong, Kec. Nusaniwe, Kota Ambon";MALUKU;97115;Indonesia;0911350068;;;-36.996.254;1.281.756.492;https://maps.google.com/?cid=0x0:0xb21959aef3d161b1;
hotel;Tujuan Wisata;Pantai Pintu Kota Ambon;"65H2+QXM, Nusaniwe, Kec. Nusaniwe, Kota Ambon, Maluku";"Kota Ambon, Maluku";MALUKU;;Indonesia;;;;-37.705.365;1.281.524.331;https://maps.google.com/?cid=0x0:0x456317295a6201a6;
hotel;hotel;SURYA INN;"Jl. Pelita, Langgur, Kec. Kei Kecil, Kabupaten Maluku Tenggara, Maluku";"Kabupaten Maluku Tenggara, Maluku";MALUKU;;Indonesia;081281425505;;;-56.538.155;1.327.347.042;https://maps.google.com/?cid=0x0:0xb0a10184948650b8;
hotel;hotel;Putih Lessi Indah;"GH3Q+59F, Kulur, Kec. Saparua, Kabupaten Maluku Tengah, Maluku";"Kabupaten Maluku Tengah, Maluku";MALUKU;;Indonesia;081247486647;;;-34.970.565;1.285.884.321;https://maps.google.com/?cid=0x0:0xe57c1dc22e4f6b20;
hotel;hotel;The Natsepa Hotel  Resort;"Jl. Natsepa No.36, Suli, Kec. Salahutu, Kabupaten Maluku Tengah, Maluku 97582";"Suli, Kec. Salahutu, Kabupaten Maluku Tengah";MALUKU;97582;Indonesia;0911362555;;;-36.224.597;1.282.856.783;https://maps.google.com/?cid=0x0:0xb66509852ba2428c;
hotel;Perusahaan Konstruksi;Pantai Kulur;"GH4H+954, Unnamed Road, Kulur, Kec. Saparua, Kabupaten Maluku Tengah, Maluku";"Kabupaten Maluku Tengah, Maluku";MALUKU;;Indonesia;;;;-3.494.104;1.285.779.576;https://maps.google.com/?cid=0x0:0x73ab73fc521e874a;
hotel;hotel;Kilmury;"Kec. Seram Tim., Kabupaten Seram Bagian Timur, Maluku";"Kabupaten Seram Bagian Timur, Maluku";MALUKU;;Indonesia;;;;-36.249.497;1.305.940.565;https://maps.google.com/?cid=0x0:0x935e27a1be02d187;
hotel;hotel;Hotel Akham;"Bula, Kec. Bula, Kabupaten Seram Bagian Timur, Maluku";"Kabupaten Seram Bagian Timur, Maluku";MALUKU;;Indonesia;081248009664;;;-30.986.616;1.304.812.667;https://maps.google.com/?cid=0x0:0x32303aac4a1aba30;
hotel;hotel;Gumumae Beach;"Jl. Wailola, Bula, Kec. Bula, Kabupaten Seram Bagian Timur, Maluku";"Kabupaten Seram Bagian Timur, Maluku";MALUKU;;Indonesia;;;;-30.672.653;1.304.715.293;https://maps.google.com/?cid=0x0:0x6bbfa41021bd997d;
hotel;Hotel;Hotel Surya;"VFVV+R3H, Bula, Kec. Bula, Kabupaten Seram Bagian Timur, Maluku";"Kabupaten Seram Bagian Timur, Maluku";MALUKU;;Indonesia;085244415666;;;-31.054.384;1.304.927.449;https://maps.google.com/?cid=0x0:0xa07cfe5ce7b6c7df;
hotel;hotel;Le Mansion Senopati;"Jl. Empu Sendok No.51, RT.8/RW.3, Selong, Kec. Kby. Baru, Kota Jakarta Selatan, Daerah Khusus Ibukota Jakarta 12110";"RT.8/RW.3, Selong, Kec. Kby. Baru, Kota Jakarta Selatan";MALUKU;12110;Indonesia;082120009951;;;-62.327.014;1.068.128.197;https://maps.google.com/?cid=0x0:0x8b4c3fab4d180fc8;
hotel;hotel;N/A;;;MALUKU;;Indonesia;;;;;;https://maps.google.com/?cid=0x0:0x8b4c3fab4d180fc8%7C/g/11bxdtk9gl%7Cen-ID;
hotel;hotel;Artotel Gelora Senayan;"Jl. Pintu Satu Senayan No.1 1, RT.1/RW.3, Gelora, Kecamatan Tanah Abang, Jakarta, Daerah Khusus Ibukota Jakarta 10270";"RT.1/RW.3, Gelora, Kecamatan Tanah Abang, Jakarta";MALUKU;10270;Indonesia;02150959000;;;-62.231.849;1.068.029.466;https://maps.google.com/?cid=0x0:0x4f4a14a3933939f5;
hotel;hotel;N/A;;;MALUKU;;Indonesia;;;;;;https://maps.google.com/?cid=0x0:0x4f4a14a3933939f5%7C/g/1yhbl7c9l%7Cen-ID;
hotel;hotel;Best Western Senayan;"Senayan Trade Center (STC), Jl. Asia Afrika No.1, RT.1/RW.3, Gelora, Kecamatan Tanah Abang, Jakarta, Daerah Khusus Ibukota Jakarta 10270";"Jl. Asia Afrika No.1, RT.1/RW.3, Gelora, Kecamatan Tanah Abang, Jakarta";MALUKU;10270;Indonesia;02129037345;;;-62.276.927;1.067.988.202;https://maps.google.com/?cid=0x0:0xf8df1390afdea625;
hotel;hotel;N/A;;;MALUKU;;Indonesia;;;;;;https://maps.google.com/?cid=0x0:0xf8df1390afdea625%7C/g/11r8cn2wl%7Cen-ID;
hotel;hotel;MK House SCBD;"jalan tulodong bawah ix no. 65-66, kebayoran baru jakarta selatan 12910 1, RT.1/RW.1, Senayan, Kec. Kby. Baru, Jakarta, Daerah Khusus Ibukota Jakarta 12910";1;MALUKU;12910;Indonesia;02127933336;;;-62.287.302;1.068.109.549;https://maps.google.com/?cid=0x0:0xb50da378aa952680;
hotel;hotel;ARTOTEL Casa Kuningan;"Jl. Denpasar Raya, RT.8/RW.3, Kuningan, Kuningan Tim., Kecamatan Setiabudi, Kota Jakarta Selatan, Daerah Khusus Ibukota Jakarta 12950";"RT.8/RW.3, Kuningan, Kuningan Tim., Kecamatan Setiabudi, Kota Jakarta Selatan";MALUKU;12950;Indonesia;08111539539;;;-62.347.461;1.068.268.999;https://maps.google.com/?cid=0x0:0xb27da9c90bfeec74;
hotel;hotel;N/A;;;MALUKU;;Indonesia;;;;;;https://maps.google.com/?cid=0x0:0xb27da9c90bfeec74%7C/g/11t77mm2hq%7Cen-ID;
hotel;hotel;The Gunawarman;"Jl. Gunawarman No.3 6, RT.6/RW.3, Selong, Kec. Kby. Baru, Kota Jakarta Selatan, Daerah Khusus Ibukota Jakarta 12110";"RT.6/RW.3, Selong, Kec. Kby. Baru, Kota Jakarta Selatan";MALUKU;12110;Indonesia;02122770007;;;-62.316.305;1.068.078.434;https://maps.google.com/?cid=0x0:0x6a8444898e7fcf93;
hotel;hotel;N/A;;;MALUKU;;Indonesia;;;;;;https://maps.google.com/?cid=0x0:0x6a8444898e7fcf93%7C/g/11bzsp_7dn%7Cen-ID;
hotel;hotel;Hotel NEO Tendean;"Jl. Wolter Monginsidi No.131, RT.2/RW.2, Rw. Bar., Kec. Kby. Baru, Kota Jakarta Selatan, Daerah Khusus Ibukota Jakarta 12180";"RT.2/RW.2, Rw. Bar., Kec. Kby. Baru, Kota Jakarta Selatan";MALUKU;12180;Indonesia;0217226688;;;-6.238.656;1.068.176.522;https://maps.google.com/?cid=0x0:0xa68396a69cb7f1aa;
hotel;hotel;N/A;;;MALUKU;;Indonesia;;;;;;https://maps.google.com/?cid=0x0:0xa68396a69cb7f1aa%7C/g/1pty_mv79%7Cen-ID;
hotel;hotel;Casa Living Senopati;"Jl. Cikatomas II No.11, RT.4/RW.4, Rw. Bar., Kec. Kby. Baru, Kota Jakarta Selatan, Daerah Khusus Ibukota Jakarta 12180";"RT.4/RW.4, Rw. Bar., Kec. Kby. Baru, Kota Jakarta Selatan";MALUKU;12180;Indonesia;08118515566;;;-62.369.961;1.068.121.584;https://maps.google.com/?cid=0x0:0x5879d82868b2c327;
hotel;hotel;favehotel Gatot Subroto Jakarta;"Jl. Kartika Candra No.Kav. A-9, Karet Semanggi, Kecamatan Setiabudi, Kota Jakarta Selatan, Daerah Khusus Ibukota Jakarta 12930";"Karet Semanggi, Kecamatan Setiabudi, Kota Jakarta Selatan";MALUKU;12930;Indonesia;02129419888;;;-62.271.941;1.068.195.971;https://maps.google.com/?cid=0x0:0x211de77bb11fbee6;
hotel;hotel;N/A;;;MALUKU;;Indonesia;;;;;;https://maps.google.com/?cid=0x0:0x211de77bb11fbee6%7C/g/1pp2t_26r%7Cen-ID;
hotel;hotel;"The Langham, Jakarta";"Sudirman Central Business District 8 Lot.28, Senayan, Kec. Kby. Baru, Kota Jakarta Selatan, Daerah Khusus Ibukota Jakarta 12190";"Senayan, Kec. Kby. Baru, Kota Jakarta Selatan";MALUKU;12190;Indonesia;02127087888;;;-62.273.812;1.068.067.669;https://maps.google.com/?cid=0x0:0xd36ec787c1cbe0a8;
hotel;hotel;N/A;;;MALUKU;;Indonesia;;;;;;https://maps.google.com/?cid=0x0:0xd36ec787c1cbe0a8%7C/g/11c53qxdv7%7Cen-ID;
hotel;hotel;Hotel Mercure Jakarta Gatot Subroto;"Jl. Gatot Subroto No.Kav. 1, Kuningan Bar., Jakarta, Kota Jakarta Selatan, Daerah Khusus Ibukota Jakarta 12790";"Kuningan Bar., Jakarta, Kota Jakarta Selatan";MALUKU;12790;Indonesia;02150825400;;;-62.395.588;1.068.307.447;https://maps.google.com/?cid=0x0:0xae2c6b053bbf55c2;
hotel;hotel;N/A;;;MALUKU;;Indonesia;;;;;;https://maps.google.com/?cid=0x0:0xae2c6b053bbf55c2%7C/g/11fjz2dbln%7Cen-ID;
hotel;hotel;N/A;;;MALUKU;;Indonesia;;;;;;https://maps.google.com/?cid=0x0:0x36b8b5df8dc7a118%7C/g/11b6b90hmq%7Cen-ID;
hotel;hotel;HARRIS Suites fX Sudirman - Jakarta;"Jl. Jenderal Sudirman, RT.1/RW.3, Senayan, Kecamatan Tanah Abang, Kota Jakarta Pusat, Daerah Khusus Ibukota Jakarta 10270";"RT.1/RW.3, Senayan, Kecamatan Tanah Abang, Kota Jakarta Pusat";MALUKU;10270;Indonesia;02125554333;;;-62.248.726;1.068.040.593;https://maps.google.com/?cid=0x0:0x36b8b5df8dc7a118;
hotel;hotel;Hotel Kartika Chandra;"Jl. Gatot Subroto No.18-20 8, RT.8/RW.2, Karet Semanggi, Kecamatan Setiabudi, Kota Jakarta Selatan, Daerah Khusus Ibukota Jakarta 12930";"RT.8/RW.2, Karet Semanggi, Kecamatan Setiabudi, Kota Jakarta Selatan";MALUKU;12930;Indonesia;0215251008;;;-6.227.333;1.068.186.554;https://maps.google.com/?cid=0x0:0x2962bebbf28bd2ca;
hotel;hotel;N/A;;;MALUKU;;Indonesia;;;;;;https://maps.google.com/?cid=0x0:0x2962bebbf28bd2ca%7C/g/1tkzjv5h%7Cen-ID;
hotel;hotel;Jusenny Hotel;"Jalan Senayan No. 29 Blok S, Jl. Senayan, RT.8/RW.5, Rw. Bar., Kec. Kby. Baru, Daerah Khusus Ibukota Jakarta 12180";"Jl. Senayan, RT.8/RW.5, Rw. Bar., Kec. Kby. Baru";MALUKU;12180;Indonesia;0217206565;;;-62.348.291;1.068.156.789;https://maps.google.com/?cid=0x0:0x85ff54b9cb5e2abe;
hotel;hotel;GiiA Maluku Hotel;"Jl. Kebon Kacang Raya No.20, RT.4/RW.8, Kb. Kacang, Kecamatan Tanah Abang, Kota Jakarta Pusat, Daerah Khusus Ibukota Jakarta 10240";"RT.4/RW.8, Kb. Kacang, Kecamatan Tanah Abang, Kota Jakarta Pusat";MALUKU;10240;Indonesia;02123599336;;;-61.937.563;106.818.043;https://maps.google.com/?cid=0x0:0x961073ca19c5d948;
hotel;Museum Sejarah Lokal;Monumen Nasional;"Merdeka Square, Jalan Lapangan Monas, Gambir, Kecamatan Gambir, Kota Jakarta Pusat, Daerah Khusus Ibukota Jakarta 10110";"Jalan Lapangan Monas, Gambir, Kecamatan Gambir, Kota Jakarta Pusat";MALUKU;10110;Indonesia;0213853040;;;-61.753.924;1.068.271.528;https://maps.google.com/?cid=0x0:0x3d2ad6e1e0e9bcc8;
hotel;Perhentian bus;Stadiun Karet;"Kb. Melati, Kecamatan Tanah Abang, Kota Jakarta Pusat, Daerah Khusus Ibukota Jakarta";"Kota Jakarta Pusat, Daerah Khusus Ibukota Jakarta";MALUKU;;Indonesia;;;;-62.008.419;1.068.159.048;https://maps.google.com/?cid=0x0:0x6b67090796653b2b;
hotel;hotel;Hotel Dragon;"Jl. Jend. Sudirman, Langgur, Kec. Kei Kecil, Kabupaten Maluku Tenggara, Maluku";"Kabupaten Maluku Tenggara, Maluku";MALUKU;;Indonesia;;;;-56.556.244;1.327.400.133;https://maps.google.com/?cid=0x0:0x2fa72a608601774c;
hotel;hotel;Hotel Grand Vilia;"Jl. Telaver No.1, Langgur, Kec. Kei Kecil, Kabupaten Maluku Tenggara, Maluku";"Kabupaten Maluku Tenggara, Maluku";MALUKU;;Indonesia;082197830643;;;-56.704.304;1.327.377.086;https://maps.google.com/?cid=0x0:0x602282c2fc284226;
hotel;hotel;SURYA INN;"Jl. Pelita, Langgur, Kec. Kei Kecil, Kabupaten Maluku Tenggara, Maluku";"Kabupaten Maluku Tenggara, Maluku";MALUKU;;Indonesia;081281425505;;;-56.538.155;1.327.347.042;https://maps.google.com/?cid=0x0:0xb0a10184948650b8;
hotel;hotel;Vid Fauw OasisVilla;"8MRX+9V, Kelanit, Kabupaten Maluku Tenggara, Maluku";"Kabupaten Maluku Tenggara, Maluku";MALUKU;;Indonesia;082170390076;;;-56.590.873;1.326.996.393;https://maps.google.com/?cid=0x0:0xf2b6d4ca0c5d2823;
hotel;hotel;Aurelia Hotel By KIMSON;"Jalan Jenderal Sudirman, Kel. Ohoijang Watdek, Kec. Kei Kecil, Kabupaten Maluku Tenggara, Maluku";"Kabupaten Maluku Tenggara, Maluku";MALUKU;;Indonesia;0811477881;;;-5.650.942;1.327.409.983;https://maps.google.com/?cid=0x0:0xe4999f098a6624b5;
hotel;hotel;Suita Hotel;"8PWR+V8H, Kel. Ohoijang Watdek, Kec. Kei Kecil, Kabupaten Maluku Tenggara, Maluku";"Kabupaten Maluku Tenggara, Maluku";MALUKU;;Indonesia;091624007;;;-56.528.181;13.274.087;https://maps.google.com/?cid=0x0:0x44818b2730e9d9f7;
hotel;hotel;Savana Cottages;"Unnamed Road, Ohoidertawun, Kec. Kei Kecil, Kabupaten Maluku Tenggara, Maluku";"Kabupaten Maluku Tenggara, Maluku";MALUKU;;Indonesia;081343083856;;;-56.305.661;1.326.689.339;https://maps.google.com/?cid=0x0:0x395f4446208940e7;
hotel;Tujuan Wisata;Pantai Ngurbloat Desa Ngilngof - Kei Islands;"Ngurbloat, Kabupaten Maluku Tenggara, Maluku";"Kabupaten Maluku Tenggara, Maluku";MALUKU;;Indonesia;0811477719;;;-56.624.981;1.326.362.396;https://maps.google.com/?cid=0x0:0xd3a4a88054e326f;
hotel;hotel;Pulau Panjang;"Pulo Panjang, Kec. Puloampel, Kabupaten Serang, Banten";"Kabupaten Serang, Banten";MALUKU;;Indonesia;;;;-59.268.769;1.061.522.126;https://maps.google.com/?cid=0x0:0x49cd227a61a155cc;
hotel;hotel;Mutiara Tidung Resort;"Jl. Johar Baru Utara 3 No.25C, RT.4/RW.3, Pulau Tidung, Kec. Kepulauan Seribu Sel., Kab. Administrasi Kepulauan Seribu, Daerah Khusus Ibukota Jakarta 10560";"RT.4/RW.3, Pulau Tidung, Kec. Kepulauan Seribu Sel., Kab. Administrasi Kepulauan Seribu";MALUKU;10560;Indonesia;081310011880;;;-58.016.481;1.065.068.207;https://maps.google.com/?cid=0x0:0xb7a05d6407e8dbd2;
hotel;hotel;Deluma Hotel Syariah RedPartner;"Kawasan Industri Bojonegara Industrial Park, Jl. Raya Bojonegara No.km, RW.6, Bojonegara, Kec. Bojonegara, Kabupaten Serang, Banten 42454";"Jl. Raya Bojonegara No.km, RW.6, Bojonegara, Kec. Bojonegara, Kabupaten Serang";MALUKU;42454;Indonesia;0895417300072;;;-59.743.336;1.060.953.875;https://maps.google.com/?cid=0x0:0xe62e057ffabd3bf1;
hotel;hotel;Penginapan Samudera Tidung RedPartner;"Jalan Pantai Selatan, Pulau Tidung, Kec. Kepulauan Seribu Sel., Kab. Administrasi Kepulauan Seribu, Daerah Khusus Ibukota Jakarta 14520";"Pulau Tidung, Kec. Kepulauan Seribu Sel., Kab. Administrasi Kepulauan Seribu";MALUKU;14520;Indonesia;02180629666;;;-58.032.053;1.065.237.907;https://maps.google.com/?cid=0x0:0x8b9296338c31e83d;
hotel;hotel;Penginapan Mutiara;"5GX4+8JW, Jln . Pantai timur, RT.007/RW.002, Pulau Tidung, Kec. Kepulauan Seribu Sel., Kab. Administrasi Kepulauan Seribu, Daerah Khusus Ibukota Jakarta 14520";"Jln . Pantai timur, RT.007/RW.002, Pulau Tidung, Kec. Kepulauan Seribu Sel., Kab. Administrasi Kepulauan Seribu";MALUKU;14520;Indonesia;081220437051;;;-58.016.298;1.065.065.701;https://maps.google.com/?cid=0x0:0x278e36026430f0a5;
hotel;hotel;Reservasi Penginapan/Homestay Pulau Tidung;"Pulau Tidung Besar, RT.001/RW.003, Pulau Tidung, Kec. Kepulauan Seribu Sel., Kab. Administrasi Kepulauan Seribu, Daerah Khusus Ibukota Jakarta 14520";"RT.001/RW.003, Pulau Tidung, Kec. Kepulauan Seribu Sel., Kab. Administrasi Kepulauan Seribu";MALUKU;14520;Indonesia;;;;-57.983.352;1.064.973.465;https://maps.google.com/?cid=0x0:0x8417a5148202b8b;
hotel;hotel;Tidung Lagoon;"Kecil, Pulau Tidung, Kec. Kepulauan Seribu Sel., Kab. Administrasi Kepulauan Seribu, Daerah Khusus Ibukota Jakarta 14520";"Pulau Tidung, Kec. Kepulauan Seribu Sel., Kab. Administrasi Kepulauan Seribu";MALUKU;14520;Indonesia;081586607377;;;-58.020.214;1.065.164.825;https://maps.google.com/?cid=0x0:0x93bf57b493b6f2ae;
hotel;hotel;Suita Hotel;"8PWR+V8H, Kel. Ohoijang Watdek, Kec. Kei Kecil, Kabupaten Maluku Tenggara, Maluku";"Kabupaten Maluku Tenggara, Maluku";MALUKU;;Indonesia;091624007;;;-56.528.181;13.274.087;https://maps.google.com/?cid=0x0:0x44818b2730e9d9f7;
hotel;hotel;Hotel Grand Vilia;"Jl. Telaver No.1, Langgur, Kec. Kei Kecil, Kabupaten Maluku Tenggara, Maluku";"Kabupaten Maluku Tenggara, Maluku";MALUKU;;Indonesia;082197830643;;;-56.704.304;1.327.377.086;https://maps.google.com/?cid=0x0:0x602282c2fc284226;
hotel;hotel;SURYA INN;"Jl. Pelita, Langgur, Kec. Kei Kecil, Kabupaten Maluku Tenggara, Maluku";"Kabupaten Maluku Tenggara, Maluku";MALUKU;;Indonesia;081281425505;;;-56.538.155;1.327.347.042;https://maps.google.com/?cid=0x0:0xb0a10184948650b8;
hotel;hotel;Aurelia Hotel By KIMSON;"Jalan Jenderal Sudirman, Kel. Ohoijang Watdek, Kec. Kei Kecil, Kabupaten Maluku Tenggara, Maluku";"Kabupaten Maluku Tenggara, Maluku";MALUKU;;Indonesia;0811477881;;;-5.650.942;1.327.409.983;https://maps.google.com/?cid=0x0:0xe4999f098a6624b5;
hotel;hotel;Hotel Dragon;"Jl. Jend. Sudirman, Langgur, Kec. Kei Kecil, Kabupaten Maluku Tenggara, Maluku";"Kabupaten Maluku Tenggara, Maluku";MALUKU;;Indonesia;;;;-56.556.244;1.327.400.133;https://maps.google.com/?cid=0x0:0x2fa72a608601774c;
hotel;hotel;Savana Cottages;"Unnamed Road, Ohoidertawun, Kec. Kei Kecil, Kabupaten Maluku Tenggara, Maluku";"Kabupaten Maluku Tenggara, Maluku";MALUKU;;Indonesia;081343083856;;;-56.305.661;1.326.689.339;https://maps.google.com/?cid=0x0:0x395f4446208940e7;
hotel;Tujuan Wisata;Pantai Ngurbloat Desa Ngilngof - Kei Islands;"Ngurbloat, Kabupaten Maluku Tenggara, Maluku";"Kabupaten Maluku Tenggara, Maluku";MALUKU;;Indonesia;0811477719;;;-56.624.981;1.326.362.396;https://maps.google.com/?cid=0x0:0xd3a4a88054e326f;
hotel;hotel;Teor;"Teor, Kabupaten Seram Bagian Timur, Maluku";"Kabupaten Seram Bagian Timur, Maluku";MALUKU;;Indonesia;;;;-4.737.805;131.745.717;https://maps.google.com/?cid=0x0:0x455015039ed48829;
hotel;hotel;Maluku Resort and Spa;"Jl Waititiri, Suli, Salahutu, Central Maluku Regency, Maluku 97582";"Suli, Salahutu, Central Maluku Regency";MALUKU;97582;Indonesia;0911361970;;;-36.167.962;1.282.776.551;https://maps.google.com/?cid=0x0:0x399bf62f92df6277;
hotel;hotel;Bellarizki Resort;"24R9+922, Saleman, Kec. Seram Utara Bar., Kabupaten Maluku Tengah, Maluku";"Kabupaten Maluku Tengah, Maluku";MALUKU;;Indonesia;082198508001;;;-29.591.081;1.291.175.123;https://maps.google.com/?cid=0x0:0xc6db48cb9142d4b1;
hotel;hotel;Singkey Water Cottage;"24PC+G9Q Nemo Tour, BlackDog Motor Studio, Lesane, Kota Masohi, Kabupaten Maluku Tengah, Maluku";"Kabupaten Maluku Tengah, Maluku";MALUKU;;Indonesia;085218110003;;;-29.636.705;1.291.209.951;https://maps.google.com/?cid=0x0:0xcdfc3a5a4eb0162f;
hotel;hotel;Teor;"33061 Rivignano Teor, Provinsi Udine, Italia";Rivignano Teor;MALUKU;33061;Indonesia;;;;458.751.964;130.414.917;https://maps.google.com/?cid=0x0:0xbd8ca85c68549a8a;
hotel;hotel;BB Palazzo Strassoldo;"Via S. Marco, 3, 33061 Rivignano Teor UD, Italia";Rivignano Teor UD;MALUKU;33061;Indonesia;"3,93454E+11";;;45.848.534;130.693.208;https://maps.google.com/?cid=0x0:0x325ae825c1360670;
hotel;hotel;Principato di Ariis (Ristorante Hotel Bar);"Via L. Savorgnan Giulietta, 2, 33061 Ariis UD, Italia";Ariis UD;MALUKU;33061;Indonesia;"3,90433E+11";;;458.724.594;130.867.128;https://maps.google.com/?cid=0x0:0xb71af41326e6294a;
hotel;hotel;BB - I Prati Di Varmo;"Via dei Prati, 17, 33030 Romans UD, Italia";Romans UD;MALUKU;33030;Indonesia;"3,93759E+11";;;45.893.896;13.020.533;https://maps.google.com/?cid=0x0:0xe4c15cccbe36ad5e;
hotel;hotel;da Gastone;"Via Gabriele D'Annunzio, 48, 33050 Flambruzzo UD, Italia";Flambruzzo UD;MALUKU;33050;Indonesia;"3,93333E+11";;;458.791.078;130.726.211;https://maps.google.com/?cid=0x0:0xc7f6c25a794bfdd0;
hotel;hotel;Casa Masciò;"Via Don Eugenio Zanini, 5, 33030 Rivarotta UD, Italia";Rivarotta UD;MALUKU;33030;Indonesia;"3,93347E+11";;;45.822.138;130.820.941;https://maps.google.com/?cid=0x0:0x87bfdd5ec75256e1;
hotel;hotel;N/A;;;MALUKU;;Indonesia;;;;;;https://maps.google.com/?cid=0x0:0xdf92462a4b40fb7b%7C/g/1tgx5flq%7Cen-ID;
hotel;hotel;Il Milione Country House;"Via Casali Isola, Acqua Bona, 9, 33056 Palazzolo dello Stella UD, Italia";Palazzolo dello Stella UD;MALUKU;33056;Indonesia;"3,90432E+11";;;4.580.683;130.300.685;https://maps.google.com/?cid=0x0:0xdf92462a4b40fb7b;
hotel;hotel;N/A;;;MALUKU;;Indonesia;;;;;;https://maps.google.com/?cid=0x0:0x2a43404efc8f20c8%7C/g/1tf9x7rt%7Cen-ID;
hotel;hotel;Hotel Bella Venezia;"Via del Marinaio, 3, 33053 Latisana UD, Italia";Latisana UD;MALUKU;33053;Indonesia;39043159860;;;457.796.588;129.943.899;https://maps.google.com/?cid=0x0:0x2a43404efc8f20c8;
hotel;hotel;Jo Hotel;"Via Udine, 7/9, 33050 Marano Lagunare UD, Italia";Marano Lagunare UD;MALUKU;33050;Indonesia;;;;457.661.201;131.677.173;https://maps.google.com/?cid=0x0:0xe6f8b3431bd9d4e6;
hotel;hotel;Agriturismo Villa Ambra;"Via Paolo Solimbergo, 19, 33061 Rivignano Teor UD, Italia";Rivignano Teor UD;MALUKU;33061;Indonesia;"3,93405E+11";;;45.867.575;13.040.932;https://maps.google.com/?cid=0x0:0x579f628b5c7dd4c5;
hotel;hotel;N/A;;;MALUKU;;Indonesia;;;;;;https://maps.google.com/?cid=0x0:0xa2dec23443d623c%7C/g/1tcwvkh1%7Cen-ID;
hotel;hotel;Agriturismo Albafiorita;"Via Crosere, 115, 33053 Latisana UD, Italia";Latisana UD;MALUKU;33053;Indonesia;"3,93409E+11";;;457.967.646;130.300.746;https://maps.google.com/?cid=0x0:0xa2dec23443d623c;
hotel;hotel;Borgo Stalis Resort;"Via Stalis, 11, 33079 Sesto al Reghena PN, Italia";Sesto al Reghena PN;MALUKU;33079;Indonesia;"3,93762E+11";;;45.850.548;128.617.187;https://maps.google.com/?cid=0x0:0xb071a803b44304b5;
hotel;hotel;Agriturismo La Di Anselmi;"Via Palazzolo, 71, 33055 Muzzana del Turgnano UD, Italia";Muzzana del Turgnano UD;MALUKU;33055;Indonesia;"3,90432E+11";;;458.128.611;131.124.525;https://maps.google.com/?cid=0x0:0xffb9aadb2fb54331;
hotel;hotel;affittacamere All'Antico Borgo;"Via Tagliamento, 16, 33030 Camino Al Tagliamento UD, Italia";Camino Al Tagliamento UD;MALUKU;33030;Indonesia;"3,93394E+11";;;459.261.436;129.410.896;https://maps.google.com/?cid=0x0:0xec7046bd4d70d4cb;
hotel;hotel;Pra' Grande;"Viale Martin Luther King, 17, 30025 Fossalta di Portogruaro VE, Italia";Fossalta di Portogruaro VE;MALUKU;30025;Indonesia;"3,93296E+11";;;457.767.411;129.326.719;https://maps.google.com/?cid=0x0:0x7ca2b170b7d7a44d;
hotel;hotel;Kec. Gorom Timur;"Kabupaten Seram Bagian Timur, Maluku";"Kabupaten Seram Bagian Timur, Maluku";MALUKU;;Indonesia;;;;-39.797.121;1.314.112.125;https://maps.google.com/?cid=0x0:0xaee5fbc2b0124a41;
hotel;hotel;Penginapan Balili;"Ondor, Kec. Pulau Gorom, Gorom, Maluku 97593";"Kec. Pulau Gorom, Gorom";MALUKU;97593;Indonesia;082267855452;;;-39.975.854;1.313.808.729;https://maps.google.com/?cid=0x0:0x1eab2f6e94c9e7c5;
hotel;Tujuan Wisata;Sirai Mas Beach;"WCRX+M33, Kiltufa, Gorom Timur, Amarwawatu, Kabupaten Seram Bagian Timur, Maluku";"Kabupaten Seram Bagian Timur, Maluku";MALUKU;;Indonesia;;;;-40.583.687;1.314.476.677;https://maps.google.com/?cid=0x0:0xc3a95f6a822544db;
hotel;hotel;Kec. Bula Barat;"Kabupaten Seram Bagian Timur, Maluku";"Kabupaten Seram Bagian Timur, Maluku";MALUKU;;Indonesia;;;;-30.472.432;1.301.469.398;https://maps.google.com/?cid=0x0:0x12c29f15f276cac6;
hotel;hotel;Hotel Akham;"Bula, Kec. Bula, Kabupaten Seram Bagian Timur, Maluku";"Kabupaten Seram Bagian Timur, Maluku";MALUKU;;Indonesia;081248009664;;;-30.986.616;1.304.812.667;https://maps.google.com/?cid=0x0:0x32303aac4a1aba30;
hotel;hotel;Penginapan Damai;"Jalan Pendopo, Bula, Kec. Bula, Kabupaten Seram Bagian Timur, Maluku";"Kabupaten Seram Bagian Timur, Maluku";MALUKU;;Indonesia;085609165980;;;-31.049.345;1.304.857.384;https://maps.google.com/?cid=0x0:0xec93fa598f0990ab;
hotel;hotel;GC peningapan Banda Island;"Agil Nasrun - Desa kampung baru RT 02 banda neira, Maluku 97593";Maluku;MALUKU;;Indonesia;081315108555;;;-45.194.432;1.297.791.292;https://maps.google.com/?cid=0x0:0x91e37f0b98992c91;
hotel;Hotel;"Keltogar,Nama,Kianlaut";"7RHG+7F, Kian Laut, Kec. Lian Fitu, Kabupaten Seram Bagian Timur, Maluku";"Kabupaten Seram Bagian Timur, Maluku";MALUKU;;Indonesia;;;;-37.218.413;1.308.261.284;https://maps.google.com/?cid=0x0:0xaaed7a0b46925253;
hotel;Rumah wisata;Kelluan;"4WC2+R7F, Geser, Kec. Seram Tim., Kabupaten Seram Bagian Timur, Maluku";"Kabupaten Seram Bagian Timur, Maluku";MALUKU;;Indonesia;;;;-38.777.933;1.309.004.967;https://maps.google.com/?cid=0x0:0x2aa933b0c5ac6646;
hotel;hotel;Kec. Lian Fitu;"Kabupaten Seram Bagian Timur, Maluku";"Kabupaten Seram Bagian Timur, Maluku";MALUKU;;Indonesia;;;;-37.413.684;1.308.286.316;https://maps.google.com/?cid=0x0:0x240a3775e9ef412c;
hotel;Hotel;"Keltogar,Nama,Kianlaut";"7RHG+7F, Kian Laut, Kec. Lian Fitu, Kabupaten Seram Bagian Timur, Maluku";"Kabupaten Seram Bagian Timur, Maluku";MALUKU;;Indonesia;;;;-37.218.413;1.308.261.284;https://maps.google.com/?cid=0x0:0xaaed7a0b46925253;
hotel;Komplek perumahan;Tava;"6R3G+C3, Kwaos, Kec. Lian Fitu, Kabupaten Seram Bagian Timur, Maluku";"Kabupaten Seram Bagian Timur, Maluku";MALUKU;;Indonesia;;;;-37.959.793;1.308.249.787;https://maps.google.com/?cid=0x0:0xeaf4d975303b1ca2;
hotel;hotel;Kec. Tlk. Waru;"Kabupaten Seram Bagian Timur, Maluku";"Kabupaten Seram Bagian Timur, Maluku";MALUKU;;Indonesia;;;;-3.404.276;1.306.715.092;https://maps.google.com/?cid=0x0:0x8093b034c7ac82;
hotel;hotel;Hotel Akham;"Bula, Kec. Bula, Kabupaten Seram Bagian Timur, Maluku";"Kabupaten Seram Bagian Timur, Maluku";MALUKU;;Indonesia;081248009664;;;-30.986.616;1.304.812.667;https://maps.google.com/?cid=0x0:0x32303aac4a1aba30;
hotel;hotel;Penginapan Damai;"Jalan Pendopo, Bula, Kec. Bula, Kabupaten Seram Bagian Timur, Maluku";"Kabupaten Seram Bagian Timur, Maluku";MALUKU;;Indonesia;085609165980;;;-31.049.345;1.304.857.384;https://maps.google.com/?cid=0x0:0xec93fa598f0990ab;
hotel;hotel;N/A;;;MALUKU;;Indonesia;;;;;;https://maps.google.com/?cid=0x0:0xd9a527375825a79%7C/g/11dzddthkt%7Cen-ID;
hotel;Hotel;Penginapan S.S;"VFWP+GQX, Bula, Kec. Bula, Kabupaten Seram Bagian Timur, Maluku";"Kabupaten Seram Bagian Timur, Maluku";MALUKU;;Indonesia;082199283337;;;-3.103.643;1.304.869.804;https://maps.google.com/?cid=0x0:0x112e6d99e3552faa;
hotel;Hotel;Hotel Surya;"VFVV+R3H, Bula, Kec. Bula, Kabupaten Seram Bagian Timur, Maluku";"Kabupaten Seram Bagian Timur, Maluku";MALUKU;;Indonesia;085244415666;;;-31.054.384;1.304.927.449;https://maps.google.com/?cid=0x0:0xa07cfe5ce7b6c7df;
restaurant;restaurant;Bula;"Bula, Kec. Bula, Kabupaten Seram Bagian Timur, Maluku";"Kabupaten Seram Bagian Timur, Maluku";MALUKU;;Indonesia;;;;-310.968;130.498.505;https://maps.google.com/?cid=0x0:0x20388956c533e2b;
restaurant;Rumah Makan;Sigafua Cafe  Resto;"Jl. Protokol, Bula, Kec. Bula, Bula, Maluku 97581";"Bula, Kec. Bula, Bula";MALUKU;97581;Indonesia;081252012344;;;-31.009.058;1.304.840.422;https://maps.google.com/?cid=0x0:0x594f66c0e757d804;
restaurant;Restoran;CAFE  RESTO MANDIRI;"WF6P+F8X, Jl. Wailola, pantai, Bula, Kec. Bula, Kabupaten Seram Bagian Timur, Maluku";"Kabupaten Seram Bagian Timur, Maluku";MALUKU;;Indonesia;089519455899;;;-30.887.593;1.304.858.533;https://maps.google.com/?cid=0x0:0x431de1cd3b13b0be;
restaurant;Restoran;Kedai AA" Bula";"VFXM+52W, Bula, Kec. Bula, Kabupaten Seram Bagian Timur, Maluku";"Kabupaten Seram Bagian Timur, Maluku";MALUKU;;Indonesia;;;;-31.020.099;1.304.825.656;https://maps.google.com/?cid=0x0:0x447d0e505b04045c;
restaurant;Rumah Makan;Jln Gisa;"VFRX+4CC, Jln, Bula, Kec. Bula, Kabupaten Seram Bagian Timur, Maluku";"Kabupaten Seram Bagian Timur, Maluku";MALUKU;;Indonesia;;;;-310.968;130.498.505;https://maps.google.com/?cid=0x0:0x14d1cb89ef255c76;
restaurant;Restoran;Bela Cafe;"WF5C+9F4, Jl. Wailola, Bula, Kec. Bula, Kabupaten Seram Bagian Timur, Maluku";"Kabupaten Seram Bagian Timur, Maluku";MALUKU;;Indonesia;081344141990;;;-30.916.236;1.304.712.029;https://maps.google.com/?cid=0x0:0xd10b839b7b3e76f1;
restaurant;Rumah Makan;Bula;"VFRX+4CC, Bula, Kec. Bula, Kabupaten Seram Bagian Timur, Maluku";"Kabupaten Seram Bagian Timur, Maluku";MALUKU;;Indonesia;;;;-310.968;130.498.505;https://maps.google.com/?cid=0x0:0x2dff7e5de4bc234b;
restaurant;Padang;RUMAH MAKAN SINAR BULA;"Jl. Air Kabur, Kabur, Kec. Bula, Kabupaten Seram Bagian Timur, Maluku 97555";"Kabur, Kec. Bula, Kabupaten Seram Bagian Timur";MALUKU;97555;Indonesia;;;;-31.020.255;1.304.785.486;https://maps.google.com/?cid=0x0:0x57c1b62d9ef19db3;
restaurant;Padang;Rumah Makan Soleha;"VFWQ+GQW, Jl. A. Tamaela, Bula, Kec. Bula, Kabupaten Seram Bagian Timur, Maluku";"Kabupaten Seram Bagian Timur, Maluku";MALUKU;;Indonesia;081243460269;;;-31.036.315;1.304.894.404;https://maps.google.com/?cid=0x0:0xb12ed417ee03a3fe;
restaurant;Rumah Makan;Rumah Makan Sinar Bula;"Jl. A. Tamaela, Bula, Kec. Bula, Kabupaten Seram Bagian Timur, Maluku";"Kabupaten Seram Bagian Timur, Maluku";MALUKU;;Indonesia;082299431869;;;-31.039.958;1.304.908.305;https://maps.google.com/?cid=0x0:0x92df184a9fd07d38;
restaurant;Rumah Makan;Rumah Makan Simpang Tiga;"VG9G+QG9, Bula, Kec. Bula, Kabupaten Seram Bagian Timur, Maluku";"Kabupaten Seram Bagian Timur, Maluku";MALUKU;;Indonesia;;;;-313.059;1.305.263.572;https://maps.google.com/?cid=0x0:0xa04288c582a00b00;
restaurant;Rumah Makan;Timur Nusa Perdana. PT;"VFRX+595, Jl. Wailola, Bula, Kec. Bula, Kabupaten Seram Bagian Timur, Maluku 97555";"Jl. Wailola, Bula, Kec. Bula, Kabupaten Seram Bagian Timur";MALUKU;97555;Indonesia;091521327;;;-310.962;130.498.481;https://maps.google.com/?cid=0x0:0x7a1a47cb1c50aaab;
restaurant;Restoran;Bula Vinaka Ubud;"Jl. Suweta Banjar Bentuyung Sakti No.39 km.2,5, Ubud, Gianyar Regency, Bali 80571";"Ubud, Gianyar Regency";MALUKU;80571;Indonesia;081237879537;;;-84.845.642;1.152.654.653;https://maps.google.com/?cid=0x0:0xd7eeb714a6b2d066;
restaurant;restaurant;Bula;"Janjang, Kec. Jiken, Kabupaten Blora, Jawa Tengah";"Kabupaten Blora, Jawa Tengah";MALUKU;;Indonesia;;;;-70.218.838;1.115.814.849;https://maps.google.com/?cid=0x0:0x9aff675fcc26923b;
restaurant;restaurant;Bula;"Bula, Kec. Bula, Kabupaten Seram Bagian Timur, Maluku";"Kabupaten Seram Bagian Timur, Maluku";MALUKU;;Indonesia;;;;-310.968;130.498.505;https://maps.google.com/?cid=0x0:0x20388956c533e2b;
restaurant;Rumah Makan;Sigafua Cafe  Resto;"Jl. Protokol, Bula, Kec. Bula, Bula, Maluku 97581";"Bula, Kec. Bula, Bula";MALUKU;97581;Indonesia;081252012344;;;-31.009.058;1.304.840.422;https://maps.google.com/?cid=0x0:0x594f66c0e757d804;
restaurant;Restoran;CAFE  RESTO MANDIRI;"WF6P+F8X, Jl. Wailola, pantai, Bula, Kec. Bula, Kabupaten Seram Bagian Timur, Maluku";"Kabupaten Seram Bagian Timur, Maluku";MALUKU;;Indonesia;089519455899;;;-30.887.593;1.304.858.533;https://maps.google.com/?cid=0x0:0x431de1cd3b13b0be;
restaurant;Rumah Makan;Jln Gisa;"VFRX+4CC, Jln, Bula, Kec. Bula, Kabupaten Seram Bagian Timur, Maluku";"Kabupaten Seram Bagian Timur, Maluku";MALUKU;;Indonesia;;;;-310.968;130.498.505;https://maps.google.com/?cid=0x0:0x14d1cb89ef255c76;
restaurant;Padang;RUMAH MAKAN SINAR BULA;"Jl. Air Kabur, Kabur, Kec. Bula, Kabupaten Seram Bagian Timur, Maluku 97555";"Kabur, Kec. Bula, Kabupaten Seram Bagian Timur";MALUKU;97555;Indonesia;;;;-31.020.255;1.304.785.486;https://maps.google.com/?cid=0x0:0x57c1b62d9ef19db3;
restaurant;Restoran;RM Luna Limura 2;"WF4Q+96Q, Jl. Wailola, Bula, Kec. Bula, Kabupaten Seram Bagian Timur, Maluku";"Kabupaten Seram Bagian Timur, Maluku";MALUKU;;Indonesia;;;;-30.928.608;1.304.877.385;https://maps.google.com/?cid=0x0:0x2b83a1d5e4434325;
restaurant;Rumah Makan;Timur Nusa Perdana. PT;"VFRX+595, Jl. Wailola, Bula, Kec. Bula, Kabupaten Seram Bagian Timur, Maluku 97555";"Jl. Wailola, Bula, Kec. Bula, Kabupaten Seram Bagian Timur";MALUKU;97555;Indonesia;091521327;;;-310.962;130.498.481;https://maps.google.com/?cid=0x0:0x7a1a47cb1c50aaab;
restaurant;Rumah Makan;Bula;"VFRX+4CC, Bula, Kec. Bula, Kabupaten Seram Bagian Timur, Maluku";"Kabupaten Seram Bagian Timur, Maluku";MALUKU;;Indonesia;;;;-310.968;130.498.505;https://maps.google.com/?cid=0x0:0x2dff7e5de4bc234b;
restaurant;Padang;Rumah Makan Soleha;"VFWQ+GQW, Jl. A. Tamaela, Bula, Kec. Bula, Kabupaten Seram Bagian Timur, Maluku";"Kabupaten Seram Bagian Timur, Maluku";MALUKU;;Indonesia;081243460269;;;-31.036.315;1.304.894.404;https://maps.google.com/?cid=0x0:0xb12ed417ee03a3fe;
restaurant;Restoran;Bula Vinaka Ubud;"Jl. Suweta Banjar Bentuyung Sakti No.39 km.2,5, Ubud, Gianyar Regency, Bali 80571";"Ubud, Gianyar Regency";MALUKU;80571;Indonesia;081237879537;;;-84.845.642;1.152.654.653;https://maps.google.com/?cid=0x0:0xd7eeb714a6b2d066;
restaurant;restaurant;Kec. Seram Tim.;"Kabupaten Seram Bagian Timur, Maluku";"Kabupaten Seram Bagian Timur, Maluku";MALUKU;;Indonesia;;;;-38.324.657;1.308.204.099;https://maps.google.com/?cid=0x0:0x70947c7ca6669763;
restaurant;Kedai Kopi;Cafe;"8FQ3+R7C, Kilmury, Kec. Seram Tim., Kabupaten Seram Bagian Timur, Maluku";"Kabupaten Seram Bagian Timur, Maluku";MALUKU;;Indonesia;;;;-36.606.512;1.304.536.624;https://maps.google.com/?cid=0x0:0x7fa6045f30bf3ad9;
restaurant;restaurant;Nasi kuning arab;"4WC2+G7H, Geser, Kec. Seram Tim., Kabupaten Seram Bagian Timur, Maluku";"Kabupaten Seram Bagian Timur, Maluku";MALUKU;;Indonesia;;;;-38.790.912;130.900.663;https://maps.google.com/?cid=0x0:0xa2fb33d9212f7661;
restaurant;Restoran;rumah makan rezky nur;"4WC2+GG4, Geser, Kec. Seram Tim., Kabupaten Seram Bagian Timur, Maluku";"Kabupaten Seram Bagian Timur, Maluku";MALUKU;;Indonesia;;;;-38.787.443;1.309.013.211;https://maps.google.com/?cid=0x0:0xba9b1fc35a03c1aa;
restaurant;Sarapan;Nasi Kuning Mama Na;"4WC2+G7H, Geser, Kec. Seram Tim., Kabupaten Seram Bagian Timur, Maluku";"Kabupaten Seram Bagian Timur, Maluku";MALUKU;;Indonesia;;;;-38.788.901;1.309.005.889;https://maps.google.com/?cid=0x0:0x7c5bea629684d486;
restaurant;Brunch;Warung Nasi Kuning Mama Em;"8F4F+6FC, Kilmury, Kec. Seram Tim., Kabupaten Seram Bagian Timur, Maluku";"Kabupaten Seram Bagian Timur, Maluku";MALUKU;;Indonesia;;;;-36.944.473;1.304.736.539;https://maps.google.com/?cid=0x0:0xc97fffbece756864;
restaurant;restaurant;Rumah makan pingkan;"4WC2+CM2, Geser, Kec. Seram Tim., Kabupaten Seram Bagian Timur, Maluku";"Kabupaten Seram Bagian Timur, Maluku";MALUKU;;Indonesia;;;;-38.789.718;1.309.019.571;https://maps.google.com/?cid=0x0:0xa3b3c1077fab9182;
restaurant;Nasi;Warung Makan Matelas Mandiri;"Desa Air Kasar, Kec. Tutuk Tolu, Maluku";"Kabupaten Seram Bagian Timur, Maluku";MALUKU;;Indonesia;081266535311;;;-35.506.331;1.308.570.203;https://maps.google.com/?cid=0x0:0x9cd92a7c67eaaf33;
restaurant;Brunch;Resto Putri;"34HR+R6H, Negeri Kawa, Kec. Seram Bar., Kabupaten Seram Bagian Barat, Maluku";"Kabupaten Seram Bagian Barat, Maluku";MALUKU;;Indonesia;;;;-29.208.117;1.281.407.627;https://maps.google.com/?cid=0x0:0x812725d65d5a9f70;
restaurant;restaurant;Werinama;"Kabupaten Seram Bagian Timur, Maluku";"Kabupaten Seram Bagian Timur, Maluku";MALUKU;;Indonesia;;;;-34.233.267;1.302.271.243;https://maps.google.com/?cid=0x0:0x5d34ed8352394a25;
restaurant;Rumah Makan;Restoran Seafood 88 Poka;"Q46W+J46, Atiahu, Werinama, Kabupaten Seram Bagian Timur, Maluku";"Kabupaten Seram Bagian Timur, Maluku";MALUKU;;Indonesia;082397929174;;;-32.384.616;1.301.452.734;https://maps.google.com/?cid=0x0:0x5eb3f2c9ba59dbb2;
restaurant;Rumah Makan;Nimurih Catering;"Q46W+J46, Atiahu, Werinama, Kabupaten Seram Bagian Timur, Maluku";"Kabupaten Seram Bagian Timur, Maluku";MALUKU;;Indonesia;081248284459;;;-32.384.616;1.301.452.734;https://maps.google.com/?cid=0x0:0xa5d32b0c31f21fcb;
restaurant;Indonesia;Naila Resto;"M982+QGJ, Waimital, Kec. Kairatu, Kabupaten Seram Bagian Barat, Maluku";"Kabupaten Seram Bagian Barat, Maluku";MALUKU;;Indonesia;;;;-33.330.315;1.283.512.671;https://maps.google.com/?cid=0x0:0xece1a87c9e176a25;
restaurant;Rumah Makan;Arema Rumah Makan;"Q46W+J4X, JL. Leo Wattimena Passo, Atiahu, Werinama, Kabupaten Seram Bagian Timur, Maluku";"Kabupaten Seram Bagian Timur, Maluku";MALUKU;;Indonesia;0911361370;;;-3.238.383;130.145.366;https://maps.google.com/?cid=0x0:0xd93bbcd372a096a0;
restaurant;Dapur Umum;Abdul Somad cafe;"Maluku no, RW.8, Atiahu, Werinama, Kabupaten Seram Bagian Timur, Maluku";"Kabupaten Seram Bagian Timur, Maluku";MALUKU;;Indonesia;0812141777713;;;-32.384.616;1.301.452.734;https://maps.google.com/?cid=0x0:0x6684c65a41d86951;
restaurant;Inspektur Tempat Tinggal;Roof coffe;"H6GG+MR9, Hatumeten, Werinama, Kabupaten Seram Bagian Timur, Maluku";"Kabupaten Seram Bagian Timur, Maluku";MALUKU;;Indonesia;;;;-34.233.267;1.302.271.243;https://maps.google.com/?cid=0x0:0xdc1096059fa4ac2c;
restaurant;restaurant;Liya;"Q46W+J46, Atiahu, Werinama, Kabupaten Seram Bagian Timur, Maluku";"Kabupaten Seram Bagian Timur, Maluku";MALUKU;;Indonesia;;;;-32.384.616;1.301.452.734;https://maps.google.com/?cid=0x0:0x6ad4119aa81ce19a;
restaurant;restaurant;Pulau Gorong;"Kabupaten Seram Bagian Timur, Maluku";"Kabupaten Seram Bagian Timur, Maluku";MALUKU;;Indonesia;;;;-4.011.202;1.314.112.125;https://maps.google.com/?cid=0x0:0x3b60b40247d61e16;
restaurant;restaurant;Nasi kuning mama nur;"295H+329, Ondor, Kec. Pulau Gorom, Kabupaten Seram Bagian Timur, Maluku";"Kabupaten Seram Bagian Timur, Maluku";MALUKU;;Indonesia;081389141099;;;-39.924.212;1.313.777.773;https://maps.google.com/?cid=0x0:0x4c7a388bab25bca3;
restaurant;restaurant;Warung syarfia;"292J+HC7, Unnamed Road, Ondor, Kec. Pulau Gorom, Kabupaten Seram Bagian Timur, Maluku";"Kabupaten Seram Bagian Timur, Maluku";MALUKU;;Indonesia;;;;-39.985.801;1.313.810.454;https://maps.google.com/?cid=0x0:0x2911e88a9a3b573b;
restaurant;restaurant;Kepulauan Gorong;"Kilkoda, Kec. Gorom Timur, Kabupaten Seram Bagian Timur, Maluku";"Kabupaten Seram Bagian Timur, Maluku";MALUKU;;Indonesia;;;;-4.022.778;131.416.944;https://maps.google.com/?cid=0x0:0xd58f4832f5536ef9;
restaurant;restaurant;Kec. Wakate;"Kabupaten Seram Bagian Timur, Maluku";"Kabupaten Seram Bagian Timur, Maluku";MALUKU;;Indonesia;;;;-45.139.238;1.316.542.349;https://maps.google.com/?cid=0x0:0x5b89d23106f26061;
restaurant;Restoran;Wailela Cafe and Resto | Ambon;"Jl. Kampus, Rumah Tiga, Kec. Tlk. Ambon, Kota Ambon, Maluku";"Kota Ambon, Maluku";MALUKU;;Indonesia;082399522113;;;-36.610.624;128.180.609;https://maps.google.com/?cid=0x0:0x3acbc85ce4ef2d6d;
restaurant;restaurant;Bakso Jamila;"HJC8+G76, Utta, Kec. Wakate, Kabupaten Seram Bagian Timur, Maluku";"Kabupaten Seram Bagian Timur, Maluku";MALUKU;;Indonesia;;;;-44.287.026;1.316.156.522;https://maps.google.com/?cid=0x0:0x28c18be08f132174;
restaurant;restaurant;Moluccas Restaurant;"Jl. Natsepa No.36, Suli, Kec. Salahutu, Kabupaten Maluku Tengah, Maluku 97582";"Suli, Kec. Salahutu, Kabupaten Maluku Tengah";MALUKU;97582;Indonesia;;;;-36.228.916;1.282.856.889;https://maps.google.com/?cid=0x0:0xb337eb8a08cdf9c7;
restaurant;restaurant;Gaba-gaba Resto  Cafe;"97JH+XWG, Suli, Kec. Salahutu, Kabupaten Maluku Tengah, Maluku";"Kabupaten Maluku Tengah, Maluku";MALUKU;;Indonesia;082191805211;;;-36.175.738;1.282.798.417;https://maps.google.com/?cid=0x0:0xd891e4a3743fd2ef;
restaurant;Jepang;Wagyu Ya;"Jl. Senopati No.71-75, Selong, Kec. Kby. Baru, Kota Jakarta Selatan, Daerah Khusus Ibukota Jakarta 12110";"Selong, Kec. Kby. Baru, Kota Jakarta Selatan";MALUKU;12110;Indonesia;082299117711;;;-6.232.551;106.811.691;https://maps.google.com/?cid=0x0:0x9e3294a6f59f0119;
restaurant;Restoran Hidangan Laut Donburi;Bika Suisan - Authentic Japanese Live Seafood;"Jl. Senopati No.71-75 8, RT.8/RW.3, Selong, Kec. Kby. Baru, Kota Jakarta Selatan, Daerah Khusus Ibukota Jakarta 12110";"RT.8/RW.3, Selong, Kec. Kby. Baru, Kota Jakarta Selatan";MALUKU;12110;Indonesia;0215202563;;;-62.327.761;1.068.118.128;https://maps.google.com/?cid=0x0:0x1f7917f111edad96;
restaurant;restaurant;Kec. Tutuk Tolu;"Kabupaten Seram Bagian Timur, Maluku";"Kabupaten Seram Bagian Timur, Maluku";MALUKU;;Indonesia;;;;-35.511.893;1.308.594.177;https://maps.google.com/?cid=0x0:0x66cd00a169ac09c7;
restaurant;Nasi;Warung Makan Matelas Mandiri;"Desa Air Kasar, Kec. Tutuk Tolu, Maluku";"Kabupaten Seram Bagian Timur, Maluku";MALUKU;;Indonesia;081266535311;;;-35.506.331;1.308.570.203;https://maps.google.com/?cid=0x0:0x9cd92a7c67eaaf33;
restaurant;Nasi;Nasi kuning bibi nur;"CV8J+96, Kilmoy, Kec. Tutuk Tolu, Kabupaten Seram Bagian Timur, Maluku";"Kabupaten Seram Bagian Timur, Maluku";MALUKU;;Indonesia;;;;-35.840.614;1.308.805.273;https://maps.google.com/?cid=0x0:0x78493a15aa0857d2;
restaurant;restaurant;Warung Dua Putra;"FV24+3QR Negeri, Airkasar, Kec. Tutuk Tolu, Kabupaten Seram Bagian Timur";Kabupaten Seram Bagian Timur;MALUKU;;Indonesia;;;;-35.497.707;1.308.568.933;https://maps.google.com/?cid=0x0:0x3a558ae83b606947;
restaurant;restaurant;Maluku;;Maluku;MALUKU;;Indonesia;;;;-32.384.616;1.301.452.734;https://maps.google.com/?cid=0x0:0x5e30e8db04649a51;
restaurant;Pempek;Warung SS;"233M+H42, Jl. Lintas Seram, Horale, Kec. Seram Utara, Kabupaten Maluku Tengah, Maluku";"Kabupaten Maluku Tengah, Maluku";MALUKU;;Indonesia;;;;-29.961.104;1.290.827.501;https://maps.google.com/?cid=0x0:0x345808edd1f7b933;
restaurant;Restoran;Warung makan RM. Lestari;"W6C4+5HQ, Jl. Trans Seram, Piru, Kec. Seram Bar., Kabupaten Seram Bagian Barat, Maluku";"Kabupaten Seram Bagian Barat, Maluku";MALUKU;;Indonesia;;;;-30.795.459;1.282.064.857;https://maps.google.com/?cid=0x0:0xf0be3f58e3cfd753;
restaurant;Brunch;Rumah Makan Dzaqiila;"WF98+94M, Jl. Wailola, Bula, Kec. Bula, Kabupaten Seram Bagian Timur, Maluku";"Kabupaten Seram Bagian Timur, Maluku";MALUKU;;Indonesia;;;;-30.815.476;1.304.653.082;https://maps.google.com/?cid=0x0:0xf179815a05524596;
restaurant;Restoran;Wailela Cafe and Resto | Ambon;"Jl. Kampus, Rumah Tiga, Kec. Tlk. Ambon, Kota Ambon, Maluku";"Kota Ambon, Maluku";MALUKU;;Indonesia;082399522113;;;-36.610.624;128.180.609;https://maps.google.com/?cid=0x0:0x3acbc85ce4ef2d6d;
restaurant;Rumah Makan;Rumah Makan 99;"W5HW+CXM, Jl. Ahmad Yani, Piru, Kec. Seram Bar., Kabupaten Seram Bagian Barat, Maluku";"Kabupaten Seram Bagian Barat, Maluku";MALUKU;;Indonesia;;;;-30.714.191;1.281.974.274;https://maps.google.com/?cid=0x0:0xf267466d277624c4;
restaurant;Indonesia;Deteras;"VFXH+3MG, Jl. Wailola, Baru, Kec. Bula, Kabupaten Seram Bagian Timur, Maluku";"Kabupaten Seram Bagian Timur, Maluku";MALUKU;;Indonesia;;;;-31.023.163;1.304.792.003;https://maps.google.com/?cid=0x0:0x7269a08ff6ee98f8;
restaurant;Rumah Makan;WM. Sherin Lala;"XWRM+5H5, Wailoping, Kec. Seram Utara Tim. Seti, Kabupaten Maluku Tengah, Maluku";"Kabupaten Maluku Tengah, Maluku";MALUKU;;Indonesia;;;;-30.097.402;1.299.340.324;https://maps.google.com/?cid=0x0:0x66a83470928e78ed;
restaurant;Sarapan;WARUNG SINGGA DOLO;"Dusun Amaholu Losy, Luhu, Kec. Huamual Belakang, Kabupaten Seram Bagian Barat, Maluku";"Kabupaten Seram Bagian Barat, Maluku";MALUKU;;Indonesia;081211537745;;;-33.841.041;1.279.414.184;https://maps.google.com/?cid=0x0:0x2b6e145f8b1a1f34;
restaurant;Rumah Makan;Rumah Makan Sinar Bula;"Jl. A. Tamaela, Bula, Kec. Bula, Kabupaten Seram Bagian Timur, Maluku";"Kabupaten Seram Bagian Timur, Maluku";MALUKU;;Indonesia;082299431869;;;-31.039.958;1.304.908.305;https://maps.google.com/?cid=0x0:0x92df184a9fd07d38;
restaurant;Dapur Umum;WARUNG MAKAN ALETA;"Q7PH+VX7, Kamal, Kec. Kairatu Bar., Kabupaten Seram Bagian Barat, Maluku";"Kabupaten Seram Bagian Barat, Maluku";MALUKU;;Indonesia;;;;-32.128.085;1.282.799.892;https://maps.google.com/?cid=0x0:0x44885dc9999ff1af;
restaurant;Toko bahan makanan;Warung Makan Sifa Gale-Gale;"52G3+V4, Gale-Gale, Kec. Seram Utara Bar., Kabupaten Maluku Tengah, Maluku";"Kabupaten Maluku Tengah, Maluku";MALUKU;;Indonesia;081377187023;;;-2.822.152;1.290.020.573;https://maps.google.com/?cid=0x0:0x2beca66976ca3fae;
restaurant;Restoran;Rumah Makan Hatutelu;"W5PV+2V2, Piru, Kec. Seram Bar., Kabupaten Seram Bagian Barat, Maluku";"Kabupaten Seram Bagian Barat, Maluku";MALUKU;;Indonesia;;;;-3.064.981;1.281.946.433;https://maps.google.com/?cid=0x0:0x6a51342465b30c7;
restaurant;Restoran;Rumah Makan Lisa;"WF69+4MW, Jl. Wailola, Bula, Kec. Bula, Kabupaten Seram Bagian Timur, Maluku";"Kabupaten Seram Bagian Timur, Maluku";MALUKU;;Indonesia;;;;-30.896.485;1.304.692.043;https://maps.google.com/?cid=0x0:0x93d6829a55885c3d;
restaurant;Restoran;Warung Sate;"M975+3C7, Jl. Trans Seram, Waimital, Kec. Kairatu, Kabupaten Seram Bagian Barat, Maluku";"Kabupaten Seram Bagian Barat, Maluku";MALUKU;;Indonesia;;;;-33.373.362;1.283.585.362;https://maps.google.com/?cid=0x0:0x8adec035c8c81bac;
restaurant;Sate;Warung Nasi Kuning Talalu Sadap.;"J9JF+CHX, Kairatu, Kec. Kairatu, Kabupaten Seram Bagian Barat, Maluku";"Kabupaten Seram Bagian Barat, Maluku";MALUKU;;Indonesia;085244194009;;;-33.688.972;1.283.739.722;https://maps.google.com/?cid=0x0:0xe9a6ebbab8b93365;
restaurant;Ikan Bakar;Walang Resto;"85RX+6R8, Unnamed Road, Poka, Kec. Tlk. Ambon, Kota Ambon, Maluku";"Kota Ambon, Maluku";MALUKU;;Indonesia;082248472693;;;-365.947;1.281.995.628;https://maps.google.com/?cid=0x0:0x67c2a9c152347aff;
restaurant;Hidangan Laut;SMORGAN Resto;"PXJV+JGQ, Jl. Pemerintahan, depan KODIM, Halut, Mkcm, Tobelo, North Halmahera Regency, North Maluku";"Kabupaten Halmahera Utara, Maluku Utara";MALUKU;;Indonesia;085201115150;;;17.315.784;1.279.938.588;https://maps.google.com/?cid=0x0:0xd45d6fcd651f0c5c;
restaurant;Komplek perumahan;Kel lessy;"4FW9+PVJ, Taniwel, Kec. Taniwel, Kabupaten Seram Bagian Barat, Maluku";"Kabupaten Seram Bagian Barat, Maluku";MALUKU;;Indonesia;;;;-28.527.902;1.284.696.331;https://maps.google.com/?cid=0x0:0x8ded4342969aabd9;
restaurant;Indonesia;OLina caferesto;"97H4+2QG, Passo, Kec. Baguala, Kota Ambon, Maluku";"Kota Ambon, Maluku";MALUKU;;Indonesia;082199231798;;;-36.225.066;1.282.574.029;https://maps.google.com/?cid=0x0:0xb19ebc731e4d5590;
restaurant;Nasi;Warung nasi kuning ashyfa;"VFXV+6CV, Jl pantai pos, dusun waitilang, Bula, Kec. Bula, Kabupaten Seram Bagian Timur, Maluku";"Kabupaten Seram Bagian Timur, Maluku";MALUKU;;Indonesia;081247820503;;;-31.018.769;1.304.935.582;https://maps.google.com/?cid=0x0:0x9e7f7c3c9b454131;
restaurant;Hidangan Laut;Lateri Beach Restaurant;"Lateri, Kec. Baguala, Kota Ambon, Maluku";"Kota Ambon, Maluku";MALUKU;;Indonesia;081240783897;;;-36.479.651;1.282.330.484;https://maps.google.com/?cid=0x0:0x17f2f5444327987a;
restaurant;Padang;Kedai makan 3 saudara;"Jl. Hatutelu, Piru, Kec. Seram Bar., Kabupaten Seram Bagian Barat, Maluku";"Kabupaten Seram Bagian Barat, Maluku";MALUKU;;Indonesia;;;;-30.666.159;1.281.936.814;https://maps.google.com/?cid=0x0:0x58ccb7ad838c8bc;
restaurant;restaurant;Warung Makan Sinar Bula;"M36P+7RP, Jl. Trans Seram, Piru, Kec. Amahai, Kabupaten Maluku Tengah, Maluku";"Kabupaten Maluku Tengah, Maluku";MALUKU;;Indonesia;;;;-33.392.827;129.087.087;https://maps.google.com/?cid=0x0:0xac1b8014ba93866e;
restaurant;Brunch;Warung noliga;"HG3R+66C, Rumahkay, Kec. Amalatu, Kabupaten Seram Bagian Barat, Maluku";"Kabupaten Seram Bagian Barat, Maluku";MALUKU;;Indonesia;082198829188;;;-34.469.268;1.285.405.045;https://maps.google.com/?cid=0x0:0xe02c42b349dc9545;
restaurant;Kios;Bella Suatrean;"4GXX+7CH, Kasie, Kec. Taniwel, Kabupaten Seram Bagian Barat, Maluku";"Kabupaten Seram Bagian Barat, Maluku";MALUKU;;Indonesia;;;;-28.518.229;1.285.486.118;https://maps.google.com/?cid=0x0:0x1a4cc7379d959021;
restaurant;Brunch;RM LATANSA 99;"M975+28V, Waimital, Kec. Kairatu, Kabupaten Seram Bagian Barat, Maluku";"Kabupaten Seram Bagian Barat, Maluku";MALUKU;;Indonesia;085243230055;;;-33.373.956;1.283.582.844;https://maps.google.com/?cid=0x0:0x32e81c5b4c36f3da;
restaurant;restaurant;Kilmury;"Kec. Seram Tim., Kabupaten Seram Bagian Timur, Maluku";"Kabupaten Seram Bagian Timur, Maluku";MALUKU;;Indonesia;;;;-36.249.497;1.305.940.565;https://maps.google.com/?cid=0x0:0x935e27a1be02d187;
restaurant;Kedai Kopi;Cafe;"8FQ3+R7C, Kilmury, Kec. Seram Tim., Kabupaten Seram Bagian Timur, Maluku";"Kabupaten Seram Bagian Timur, Maluku";MALUKU;;Indonesia;;;;-36.606.512;1.304.536.624;https://maps.google.com/?cid=0x0:0x7fa6045f30bf3ad9;
restaurant;Brunch;Warung Nasi Kuning Mama Em;"8F4F+6FC, Kilmury, Kec. Seram Tim., Kabupaten Seram Bagian Timur, Maluku";"Kabupaten Seram Bagian Timur, Maluku";MALUKU;;Indonesia;;;;-36.944.473;1.304.736.539;https://maps.google.com/?cid=0x0:0xc97fffbece756864;
restaurant;Bar;"Yuki Japanese Restaurant, Bar  Karaoke";"Jl. Melawai 6 No.8, RT.3/RW.1, Melawai, Kec. Kby. Baru, Kota Jakarta Selatan, Daerah Khusus Ibukota Jakarta 12160";"RT.3/RW.1, Melawai, Kec. Kby. Baru, Kota Jakarta Selatan";MALUKU;12160;Indonesia;081295621060;;;-62.445.442;1.067.986.681;https://maps.google.com/?cid=0x0:0x9f52bf5a98a9e4aa;
restaurant;Jepang;Rumu;"QQ3X+WX4, Melawai, Kec. Kby. Baru, Kota Jakarta Selatan, Daerah Khusus Ibukota Jakarta";"Kota Jakarta Selatan, Daerah Khusus Ibukota Jakarta";MALUKU;;Indonesia;;;;-62.452.337;1.067.999.471;https://maps.google.com/?cid=0x0:0xbf67f5f0d2e480f;
restaurant;Jepang;RAIMU japanese bar and resto;"Jl. Melawai 9 No.10, RT.3/RW.1, Melawai, Kec. Kby. Baru, Kota Jakarta Selatan, Daerah Khusus Ibukota Jakarta 12160";"RT.3/RW.1, Melawai, Kec. Kby. Baru, Kota Jakarta Selatan";MALUKU;12160;Indonesia;;;;-62.453.308;1.067.993.764;https://maps.google.com/?cid=0x0:0x4715555a05bcd0bc;
restaurant;restaurant;N/A;;;MALUKU;;Indonesia;;;;;;https://maps.google.com/?cid=0x0:0x94f4bbb640ab4374u0026onu003dBrisket+Karubiu0026midu003d/g/11sb8_drgp;
restaurant;restaurant;N/A;;;MALUKU;;Indonesia;;;;;;https://maps.google.com/?cid=0x0:0x94f4bbb640ab4374u0026onu003dBeef+Platteru0026midu003d/g/11sb8_drgp;
restaurant;restaurant;N/A;;;MALUKU;;Indonesia;;;;;;https://maps.google.com/?cid=0x0:0x94f4bbb640ab4374u0026onu003dSeafood+Platteru0026midu003d/g/11sb8_drgp;
restaurant;restaurant;N/A;;;MALUKU;;Indonesia;;;;;;https://maps.google.com/?cid=0x0:0x94f4bbb640ab4374u0026onu003dShabu+Shabuu0026midu003d/g/11sb8_drgp;
restaurant;restaurant;N/A;;;MALUKU;;Indonesia;;;;;;https://maps.google.com/?cid=0x0:0x94f4bbb640ab4374u0026onu003dPuddingu0026midu003d/g/11sb8_drgp;
restaurant;restaurant;N/A;;;MALUKU;;Indonesia;;;;;;https://maps.google.com/?cid=0x0:0x94f4bbb640ab4374u0026onu003dLobster+Mushroom+Gratinu0026midu003d/g/11sb8_drgp;
restaurant;restaurant;N/A;;;MALUKU;;Indonesia;;;;;;https://maps.google.com/?cid=0x0:0x94f4bbb640ab4374u0026onu003dChicken+Wingu0026midu003d/g/11sb8_drgp;
restaurant;restaurant;N/A;;;MALUKU;;Indonesia;;;;;;https://maps.google.com/?cid=0x0:0x94f4bbb640ab4374u0026onu003dSushi+Rollu0026midu003d/g/11sb8_drgp;
restaurant;restaurant;N/A;;;MALUKU;;Indonesia;;;;;;https://maps.google.com/?cid=0x0:0x94f4bbb640ab4374u0026onu003dMatcha+Tiramisu+Cakeu0026midu003d/g/11sb8_drgp;
restaurant;restaurant;N/A;;;MALUKU;;Indonesia;;;;;;https://maps.google.com/?cid=0x0:0x94f4bbb640ab4374u0026onu0026midu003d/g/11sb8_drgp;
restaurant;restaurant;Pulau Panjang;"Kec. Pulau Gorom, Kabupaten Seram Bagian Timur, Maluku";"Kabupaten Seram Bagian Timur, Maluku";MALUKU;;Indonesia;;;;-40.065.038;13.123.064;https://maps.google.com/?cid=0x0:0x32cd940c1ce4e9ae;
restaurant;Restoran;Walang Matasiri Maluku Resto;"JV98+824, Jl. Ir. H. Juanda, Cisalak, Kec. Sukmajaya, Kota Depok, Jawa Barat 16416";"Jl. Ir. H. Juanda, Cisalak, Kec. Sukmajaya, Kota Depok";MALUKU;16416;Indonesia;;;;-63.817.486;1.068.651.251;https://maps.google.com/?cid=0x0:0x63334b622f58bba5;
restaurant;Ikan Bakar;Walang Resto;"85RX+6R8, Unnamed Road, Poka, Kec. Tlk. Ambon, Kota Ambon, Maluku";"Kota Ambon, Maluku";MALUKU;;Indonesia;082248472693;;;-365.947;1.281.995.628;https://maps.google.com/?cid=0x0:0x67c2a9c152347aff;
restaurant;restaurant;Moluccas Restaurant;"Jl. Natsepa No.36, Suli, Kec. Salahutu, Kabupaten Maluku Tengah, Maluku 97582";"Suli, Kec. Salahutu, Kabupaten Maluku Tengah";MALUKU;97582;Indonesia;;;;-36.228.916;1.282.856.889;https://maps.google.com/?cid=0x0:0xb337eb8a08cdf9c7;
restaurant;Restoran;The Malinan Kei Islands Resto and Cafe;"Jl. Raya Merdeka, Kel. Ohoijang Watdek, Kec. Kei Kecil, Kabupaten Maluku Tenggara, Maluku";"Kabupaten Maluku Tenggara, Maluku";MALUKU;;Indonesia;081289094253;;;-56.462.414;1.327.393.326;https://maps.google.com/?cid=0x0:0x13f8227fc228798a;
restaurant;Restoran;Wailela Cafe and Resto | Ambon;"Jl. Kampus, Rumah Tiga, Kec. Tlk. Ambon, Kota Ambon, Maluku";"Kota Ambon, Maluku";MALUKU;;Indonesia;082399522113;;;-36.610.624;128.180.609;https://maps.google.com/?cid=0x0:0x3acbc85ce4ef2d6d;
restaurant;Hidangan Laut;Istana Berkat;"852J+878, Jl. Diponegoro, Kel Ahusen, Kec. Sirimau, Kota Ambon, Maluku";"Kota Ambon, Maluku";MALUKU;;Indonesia;0911355899;;;-36.992;1.281.806.895;https://maps.google.com/?cid=0x0:0x33d905559f0c0858;
restaurant;Hidangan Laut;Rumah Makan Apong Wayame Ambon;"85M8+QWV, Wayame, Kec. Tlk. Ambon, Kota Ambon, Maluku";"Kota Ambon, Maluku";MALUKU;;Indonesia;081248190849;;;-36.655.121;1.281.673.018;https://maps.google.com/?cid=0x0:0x6ed6b36e06e5de48;
restaurant;Restoran;Sari Gurih Restaurant;"853J+639, Jl. Anthony Rebok, Kel Honipopu, Kec. Sirimau, Kota Ambon, Maluku 97127";"Jl. Anthony Rebok, Kel Honipopu, Kec. Sirimau, Kota Ambon";MALUKU;97127;Indonesia;0911341888;;;-36.969.553;1.281.802.475;https://maps.google.com/?cid=0x0:0x275f6b1eabec66d9;
restaurant;Hidangan Laut;Lateri Beach Restaurant;"Lateri, Kec. Baguala, Kota Ambon, Maluku";"Kota Ambon, Maluku";MALUKU;;Indonesia;081240783897;;;-36.479.651;1.282.330.484;https://maps.google.com/?cid=0x0:0x17f2f5444327987a;
restaurant;Hidangan Laut;RAJA SEAFOOD RESTAURANT AMBON;"Jl. Wolter Monginsidi No.17-20, Latta, Kec. Baguala, Kota Ambon, Maluku 97231";"Latta, Kec. Baguala, Kota Ambon";MALUKU;97231;Indonesia;082199813100;;;-36.550.534;1.282.251.124;https://maps.google.com/?cid=0x0:0xe3f5c7a37493c8de;
restaurant;Kafe;Cafe Panorama;"Pituina, Kel Amantelu, Kec. Sirimau, Kota Ambon, Maluku";"Kota Ambon, Maluku";MALUKU;;Indonesia;0911351884;;;-36.905.991;1.281.914.767;https://maps.google.com/?cid=0x0:0x894526da3ed3413c;
restaurant;Restoran;Rumah Makan Apung Mina Bahari;Balai Perikanan Budidaya Laut ambon;;MALUKU;;Indonesia;;;;-36.336.174;1.282.149.543;https://maps.google.com/?cid=0x0:0x4ed818d91c761ab8;
restaurant;Hidangan Laut;Rumah Makan Ratu Gurih;"Jl. Diponegoro No.26, Kel Ahusen, Kec. Sirimau, Kota Ambon, Maluku";"Kota Ambon, Maluku";MALUKU;;Indonesia;0911341202;;;-36.996.863;1.281.811.859;https://maps.google.com/?cid=0x0:0x6d46a58903276417;
restaurant;Hidangan Laut;Cili Padi Restaurant;"Said Perintah No.52, Kel Honipopu, Kec. Sirimau, Kota Ambon, Maluku";"Kota Ambon, Maluku";MALUKU;;Indonesia;0911348736;;;-36.977.926;1.281.806.173;https://maps.google.com/?cid=0x0:0x4da49f6c344ede1a;
restaurant;Ikan Bakar;MARTHAFONS WALANG;"86R2+628, Poka, Kec. Tlk. Ambon, Maluku";Maluku;MALUKU;;Indonesia;081343205555;;;-3.659.465;1.282.000.875;https://maps.google.com/?cid=0x0:0xe5c8c8951ea638fa;
restaurant;Sesuai untuk keluarga;Rumah Makan Apung Emas Biru;"75X8+CXQ, Langsat, Kel Wainitu, Kec. Nusaniwe, Kota Ambon, Maluku";"Kota Ambon, Maluku";MALUKU;;Indonesia;081343383349;;;-37.014.203;1.281.674.876;https://maps.google.com/?cid=0x0:0xaa1b98d1f39db86;
restaurant;Restoran;Royal's Resto  Function Hall;"Q9QM+GMJ, Jalan Branjangan, Santiong, Ternate Tengah, Kalumpang, Kec. Ternate Tengah, Kota Ternate, Maluku Utara";"Kota Ternate, Maluku Utara";MALUKU;;Indonesia;09213122333;;;0.7888473;1.273.841.502;https://maps.google.com/?cid=0x0:0x2e13a20e470af244;
restaurant;Hidangan Laut;SMORGAN Resto;"PXJV+JGQ, Jl. Pemerintahan, depan KODIM, Halut, Mkcm, Tobelo, North Halmahera Regency, North Maluku";"Kabupaten Halmahera Utara, Maluku Utara";MALUKU;;Indonesia;085201115150;;;17.315.784;1.279.938.588;https://maps.google.com/?cid=0x0:0xd45d6fcd651f0c5c;
restaurant;Betawi;Dapur Fizzul - Rumah Makan Khas Maluku Jakarta No.1 Halal di Dunia;"Food Court Depan Grha Essi, Jl. Raya Ceger No.5, RT.5/RW.1, Ceger, Kec. Cipayung, Kota Jakarta Timur, Daerah Khusus Ibukota Jakarta 13820";"Jl. Raya Ceger No.5, RT.5/RW.1, Ceger, Kec. Cipayung, Kota Jakarta Timur";MALUKU;13820;Indonesia;082131529069;;;-6.307.207;1.068.886.462;https://maps.google.com/?cid=0x0:0xb39e6e8a1a4f4d03;
restaurant;Padang;tanjoeng daloha cafe;"RRF4+W54 Bar, Duma, Kec. Galela Bar., Kabupaten Halmahera Utara, Maluku Utara";"Kabupaten Halmahera Utara, Maluku Utara";MALUKU;;Indonesia;081342493853;;;18.247.626;1.278.054.464;https://maps.google.com/?cid=0x0:0x5130f44a4c48b936;
restaurant;Rumah Makan;Warung Panjang;"QVJ3+WM2, Batu Ampar, Kec. Balikpapan Utara, Kota Balikpapan, Kalimantan Timur 76136";"Batu Ampar, Kec. Balikpapan Utara, Kota Balikpapan";MALUKU;76136;Indonesia;;;;-12.177.305;1.168.541.533;https://maps.google.com/?cid=0x0:0x6328694d60470f8d;
restaurant;Nasi;Rumah Makan Mitra Sahabat;"3553+9VV, Jl. Buyut Sani, Pulo Panjang, Kec. Puloampel, Kabupaten Serang, Banten 42191";"Jl. Buyut Sani, Pulo Panjang, Kec. Puloampel, Kabupaten Serang";MALUKU;42191;Indonesia;;;;-59.415.234;1.061.546.758;https://maps.google.com/?cid=0x0:0x5d18cc9c90f7b31e;
restaurant;Kedai Kopi;TERAS CAFE;"348R+2F6, jalan pelabuhan pasir putih Pulau Panjang, Pulo Panjang, Kec. Puloampel, Kabupaten Serang, Banten 42191";"jalan pelabuhan pasir putih Pulau Panjang, Pulo Panjang, Kec. Puloampel, Kabupaten Serang";MALUKU;42191;Indonesia;;;;-59.349.563;1.061.411.284;https://maps.google.com/?cid=0x0:0x38ffff012ec4c69;
restaurant;Katering;Dapoer Amyra;"Jl. Komp. BPK II No.C6 14, RT.14/RW.2, Kb. Jeruk, Kec. Kb. Jeruk, Kota Jakarta Barat, Daerah Khusus Ibukota Jakarta 11530";"RT.14/RW.2, Kb. Jeruk, Kec. Kb. Jeruk, Kota Jakarta Barat";MALUKU;11530;Indonesia;089517584838;;;-62.014.793;1.067.742.542;https://maps.google.com/?cid=0x0:0x61d5da3a8f52bdfb;
restaurant;Restoran;Mujigae Korean Delivery Binus Palmerah;"2, Jl. Kyai H. Syahdan No.1, RT.1/RW.12, Kec. Palmerah, Kota Jakarta Barat, Daerah Khusus Ibukota Jakarta 11480";"Jl. Kyai H. Syahdan No.1, RT.1/RW.12, Kec. Palmerah, Kota Jakarta Barat";MALUKU;11480;Indonesia;081113310841;;;-6.200.469;1.067.862.817;https://maps.google.com/?cid=0x0:0xee2699605555e690;
restaurant;Restoran;Tanjung Duren;"Jl. Tanjung Duren Raya No.57-160 2, RT.7/RW.5, Tj. Duren Utara, Kec. Grogol petamburan, Kota Jakarta Barat, Daerah Khusus Ibukota Jakarta 11470";"RT.7/RW.5, Tj. Duren Utara, Kec. Grogol petamburan, Kota Jakarta Barat";MALUKU;11470;Indonesia;;;;-61.737.254;1.067.842.858;https://maps.google.com/?cid=0x0:0x1241b433bb7dbec9;
restaurant;Sate;Nasi Tempong Sambal Jablay  Sate Taichan Tempong Ayam;"8, Jl. Tj. Duren Utara 4 No.229, RT.8/RW.3, Tj. Duren Utara, Kec. Grogol petamburan, Kota Jakarta Barat, Daerah Khusus Ibukota Jakarta 11470";"Jl. Tj. Duren Utara 4 No.229, RT.8/RW.3, Tj. Duren Utara, Kec. Grogol petamburan, Kota Jakarta Barat";MALUKU;11470;Indonesia;085288887028;;;-61.726.665;1.067.831.917;https://maps.google.com/?cid=0x0:0x235eef28aa426d8e;
restaurant;Pemasok makanan dan minuman katering;Warung Kempoel (Katering);"I No, Jl. Kemanggisan Pulo No.2, RT.2/RW.3, Palmerah, Kec. Palmerah, Kota Jakarta Barat, Daerah Khusus Ibukota Jakarta 11480";"Jl. Kemanggisan Pulo No.2, RT.2/RW.3, Palmerah, Kec. Palmerah, Kota Jakarta Barat";MALUKU;11480;Indonesia;081387100425;;;-62.038.042;1.067.907.307;https://maps.google.com/?cid=0x0:0xcb505f3d81882d4a;
restaurant;Hidangan Laut;SMORGAN Resto;"PXJV+JGQ, Jl. Pemerintahan, depan KODIM, Halut, Mkcm, Tobelo, North Halmahera Regency, North Maluku";"Kabupaten Halmahera Utara, Maluku Utara";MALUKU;;Indonesia;085201115150;;;17.315.784;1.279.938.588;https://maps.google.com/?cid=0x0:0xd45d6fcd651f0c5c;
restaurant;Restoran;WarungJembatan;"P286+X5M, Jl. Kemakmuran, Gosoma, Kec. Tobelo, Kabupaten Halmahera Utara, Maluku Utara";"Kabupaten Halmahera Utara, Maluku Utara";MALUKU;;Indonesia;;;;17.174.532;1.280.104.319;https://maps.google.com/?cid=0x0:0xa2d92bf092b3f9a8;
restaurant;Rumah Makan;Rm Mutiara gosoma;"Jl. Sengkanaung, Gosoma, Kec. Tobelo, Kabupaten Halmahera Utara, Maluku Utara 97762";"Gosoma, Kec. Tobelo, Kabupaten Halmahera Utara";MALUKU;97762;Indonesia;081220409360;;;17.194.263;1.280.102.699;https://maps.google.com/?cid=0x0:0x18809a7b12a58026;
restaurant;Restoran;Paling Restoran;"Jl. Wolter Monginsidi No.36, Petogogan, Kec. Kby. Baru, Jakarta, Daerah Khusus Ibukota Jakarta 12170";"Petogogan, Kec. Kby. Baru, Jakarta";MALUKU;12170;Indonesia;085123930899;;;-62.392.551;1.068.095.473;https://maps.google.com/?cid=0x0:0xb16dc3bbd27b1f56;
restaurant;restaurant;Fairmont Jakarta;"Jl. Asia Afrika No.8, Gelora, Kecamatan Tanah Abang, JAKARTA, Daerah Khusus Ibukota Jakarta 10270";"Gelora, Kecamatan Tanah Abang, JAKARTA";MALUKU;10270;Indonesia;02129703333;;;-62.220.386;1.067.990.167;https://maps.google.com/?cid=0x0:0x63e8f2ff2aa408d2;
restaurant;restaurant;N/A;;;MALUKU;;Indonesia;;;;;;https://maps.google.com/?cid=0x0:0x63e8f2ff2aa408d2%7C/g/11ddwvky8w%7Cen-ID;
restaurant;restaurant;Alila SCBD Jakarta;"SCBD Lot Jl. Jend. Sudirman kav 52-53 No.11, Senayan, Kec. Kby. Baru, Jakarta, Daerah Khusus Ibukota Jakarta 12190";"Senayan, Kec. Kby. Baru, Jakarta";MALUKU;12190;Indonesia;02150808777;;;-62.254.669;1.068.087.839;https://maps.google.com/?cid=0x0:0xe04ba29d6fc9b76e;
restaurant;restaurant;"The Langham, Jakarta";"Sudirman Central Business District 8 Lot.28, Senayan, Kec. Kby. Baru, Kota Jakarta Selatan, Daerah Khusus Ibukota Jakarta 12190";"Senayan, Kec. Kby. Baru, Kota Jakarta Selatan";MALUKU;12190;Indonesia;02127087888;;;-62.273.812;1.068.067.669;https://maps.google.com/?cid=0x0:0xd36ec787c1cbe0a8;
restaurant;restaurant;The Gunawarman;"Jl. Gunawarman No.3 6, RT.6/RW.3, Selong, Kec. Kby. Baru, Kota Jakarta Selatan, Daerah Khusus Ibukota Jakarta 12110";"RT.6/RW.3, Selong, Kec. Kby. Baru, Kota Jakarta Selatan";MALUKU;12110;Indonesia;02122770007;;;-62.316.305;1.068.078.434;https://maps.google.com/?cid=0x0:0x6a8444898e7fcf93;
restaurant;restaurant;"The Residences at The Ritz-Carlton Jakarta, Pacific Place";"Jl. Jenderal Sudirman No.Kav 52-53, Senayan, Kec. Kby. Baru, Jakarta, Daerah Khusus Ibukota Jakarta 12190";"Senayan, Kec. Kby. Baru, Jakarta";MALUKU;12190;Indonesia;02125501888;;;-62.235.293;1.068.098.018;https://maps.google.com/?cid=0x0:0x6b984b9c63275bd2;
restaurant;restaurant;25hours Hotel Jakarta The Oddbird;"Sudirman Central Business District 8, Jl. Jenderal Sudirman Lot 28, Jakarta, Daerah Khusus Ibukota Jakarta 12190";"Jl. Jenderal Sudirman Lot 28, Jakarta";MALUKU;12190;Indonesia;02172888888;;;-62.297.055;1.068.065.931;https://maps.google.com/?cid=0x0:0x31cff4f4d5167b3a;
restaurant;Museum Sejarah Lokal;Monumen Nasional;"Merdeka Square, Jalan Lapangan Monas, Gambir, Kecamatan Gambir, Kota Jakarta Pusat, Daerah Khusus Ibukota Jakarta 10110";"Jalan Lapangan Monas, Gambir, Kecamatan Gambir, Kota Jakarta Pusat";MALUKU;10110;Indonesia;0213853040;;;-61.753.924;1.068.271.528;https://maps.google.com/?cid=0x0:0x3d2ad6e1e0e9bcc8;
restaurant;Kantor Perusahaan;Palmerah;"Gelora, Kecamatan Tanah Abang, Kota Jakarta Pusat, Daerah Khusus Ibukota Jakarta";"Kota Jakarta Pusat, Daerah Khusus Ibukota Jakarta";MALUKU;;Indonesia;;;;-62.075.944;106.797.382;https://maps.google.com/?cid=0x0:0x116987b9272f716d;
restaurant;restaurant;Kecamatan Tanah Abang;"Kota Jakarta Pusat, Daerah Khusus Ibukota Jakarta";"Kota Jakarta Pusat, Daerah Khusus Ibukota Jakarta";MALUKU;;Indonesia;;;;-62.039.723;1.068.051.365;https://maps.google.com/?cid=0x0:0xb1f4d9d25da21eea;
restaurant;Steak;Wolfgang's Steakhouse Jakarta;"ELYSEE SCBD Jakarta, Level 6 Rooftop, Lot 21 SCBD RT.7/RW.1, Senayan, Kec. Kby. Baru, Kota Jakarta Selatan, RT.7/RW.1, Senayan, Kec. Kby. Baru, Jakarta, Daerah Khusus Ibukota Jakarta 12190";"Level 6 Rooftop, Lot 21 SCBD RT.7/RW.1, Senayan, Kec. Kby. Baru, Kota Jakarta Selatan, RT.7/RW.1, Senayan, Kec. Kby. Baru, Jakarta";MALUKU;12190;Indonesia;02150110955;;;-62.256.472;1.068.131.685;https://maps.google.com/?cid=0x0:0xb9a1a3ab20c00e52;
restaurant;Restoran;View Restaurant  Bar;"Fairmont Jakarta, Jl. Asia Afrika No.8, Gelora, Kecamatan Tanah Abang, Jakarta, Daerah Khusus Ibukota Jakarta 10270";"Jl. Asia Afrika No.8, Gelora, Kecamatan Tanah Abang, Jakarta";MALUKU;10270;Indonesia;02129703333;;;-62.220.693;1.067.990.436;https://maps.google.com/?cid=0x0:0x48db5a8e00f75a5b;
restaurant;restaurant;Kec. Gorom Timur;"Kabupaten Seram Bagian Timur, Maluku";"Kabupaten Seram Bagian Timur, Maluku";MALUKU;;Indonesia;;;;-39.797.121;1.314.112.125;https://maps.google.com/?cid=0x0:0xaee5fbc2b0124a41;
restaurant;Toko umum;RF Coffee Shop;"293H+WJV, Kataloka, Kec. Pulau Gorom, Kabupaten Seram Bagian Timur, Maluku";"Kabupaten Seram Bagian Timur, Maluku";MALUKU;;Indonesia;;;;-39.951.467;1.313.795.908;https://maps.google.com/?cid=0x0:0xcf26ba2fc220f8fe;
restaurant;Kios;Ok;"Kataloka, Gorom, Kabupaten Seram Bagian Timur, Maluku";"Kabupaten Seram Bagian Timur, Maluku";MALUKU;;Indonesia;081360246169;;;-39.910.155;1.313.783.419;https://maps.google.com/?cid=0x0:0xf70f836a7a579deb;
restaurant;restaurant;KEMBAR HOTSPOT;"WCV7+99X, Mida, Kec. Pulau Gorom, Kabupaten Seram Bagian Timur, Maluku";"Kabupaten Seram Bagian Timur, Maluku";MALUKU;;Indonesia;;;;-40.571.665;1.314.144.089;https://maps.google.com/?cid=0x0:0xa086b3bcab12707d;
restaurant;Restoran;Walang Matasiri Maluku Resto;"JV98+824, Jl. Ir. H. Juanda, Cisalak, Kec. Sukmajaya, Kota Depok, Jawa Barat 16416";"Jl. Ir. H. Juanda, Cisalak, Kec. Sukmajaya, Kota Depok";MALUKU;16416;Indonesia;;;;-63.817.486;1.068.651.251;https://maps.google.com/?cid=0x0:0x63334b622f58bba5;
restaurant;Hidangan Laut;SMORGAN Resto;"PXJV+JGQ, Jl. Pemerintahan, depan KODIM, Halut, Mkcm, Tobelo, North Halmahera Regency, North Maluku";"Kabupaten Halmahera Utara, Maluku Utara";MALUKU;;Indonesia;085201115150;;;17.315.784;1.279.938.588;https://maps.google.com/?cid=0x0:0xd45d6fcd651f0c5c;
restaurant;Hidangan Laut;Ar-Rahmah Cafe 88  Resto;"11, Poka, Kec. Tlk. Ambon, Kota Ambon, Maluku";"Kota Ambon, Maluku";MALUKU;;Indonesia;;;;-36.399.409;128.193.698;https://maps.google.com/?cid=0x0:0xcd121b2819e980c9;
restaurant;restaurant;Rio warteg;"WCV7+M74, Mida, Kec. Pulau Gorom, Kabupaten Seram Bagian Timur, Maluku";"Kabupaten Seram Bagian Timur, Maluku";MALUKU;;Indonesia;;;;-40.551.813;1.314.130.611;https://maps.google.com/?cid=0x0:0x98b3866679704280;
restaurant;restaurant;PERCETAKAN DAN PHOTOCOPY ANISA;"X9XM+X2G, Ondor, Kec. Pulau Gorom, Kabupaten Seram Bagian Timur, Maluku";"Kabupaten Seram Bagian Timur, Maluku";MALUKU;;Indonesia;;;;-40.000.663;1.313.825.899;https://maps.google.com/?cid=0x0:0x1fb173fd02a2163c;
restaurant;Hidangan Laut;Restaurant Sari Gurih Beach;"963M+565, Lateri, Kec. Baguala, Kota Ambon, Maluku";"Kota Ambon, Maluku";MALUKU;;Indonesia;08119798598;;;-36.471.037;1.282.330.997;https://maps.google.com/?cid=0x0:0x56400b7db74be6ae;
restaurant;Restoran;88 Seafood Restaurant;"954V+J9Q, Jl. Y. Syaranamual, Poka, Kec. Tlk. Ambon, Kota Ambon, Maluku";"Kota Ambon, Maluku";MALUKU;;Indonesia;081244017203;;;-3.643.413;1.281.934.707;https://maps.google.com/?cid=0x0:0xe0e80a6465ae7fa5;
restaurant;Hidangan Laut;Rumah Makan Apong Wayame Ambon;"85M8+QWV, Wayame, Kec. Tlk. Ambon, Kota Ambon, Maluku";"Kota Ambon, Maluku";MALUKU;;Indonesia;081248190849;;;-36.655.121;1.281.673.018;https://maps.google.com/?cid=0x0:0x6ed6b36e06e5de48;
restaurant;Padang;Rumah Makan Tamaria"";"8PGP+FMQ, Faan, Kec. Kei Kecil, Kabupaten Maluku Tenggara, Maluku";"Kabupaten Maluku Tenggara, Maluku";MALUKU;;Indonesia;;;;-56.737.993;1.327.367.275;https://maps.google.com/?cid=0x0:0x644ae0fc251f38ed;
restaurant;Hidangan Laut;Lateri Beach Restaurant;"Lateri, Kec. Baguala, Kota Ambon, Maluku";"Kota Ambon, Maluku";MALUKU;;Indonesia;081240783897;;;-36.479.651;1.282.330.484;https://maps.google.com/?cid=0x0:0x17f2f5444327987a;
restaurant;Hidangan Laut;Istana Berkat;"852J+878, Jl. Diponegoro, Kel Ahusen, Kec. Sirimau, Kota Ambon, Maluku";"Kota Ambon, Maluku";MALUKU;;Indonesia;0911355899;;;-36.992;1.281.806.895;https://maps.google.com/?cid=0x0:0x33d905559f0c0858;
restaurant;restaurant;AFIQ PLAYSTATION 3 DAN 4;"WCVR+RMF, Amarwawatu, Kec. Gorom Timur, Kabupaten Seram Bagian Timur, Maluku";"Kabupaten Seram Bagian Timur, Maluku";MALUKU;;Indonesia;085220240797;;;-40.552.489;131.440.997;https://maps.google.com/?cid=0x0:0x4e0e122aaf49aee8;
restaurant;restaurant;Warung syarfia;"292J+HC7, Unnamed Road, Ondor, Kec. Pulau Gorom, Kabupaten Seram Bagian Timur, Maluku";"Kabupaten Seram Bagian Timur, Maluku";MALUKU;;Indonesia;;;;-39.985.801;1.313.810.454;https://maps.google.com/?cid=0x0:0x2911e88a9a3b573b;
restaurant;restaurant;Rm Mutiara Masakan Padang;"293H+HHW kataloka gorom, Ondor, Kec. Pulau Gorom, Kabupaten Seram Bagian Timur, Maluku";"Kabupaten Seram Bagian Timur, Maluku";MALUKU;;Indonesia;;;;-39.960.097;1.313.789.404;https://maps.google.com/?cid=0x0:0xaaa3305c64c2f3fd;
restaurant;restaurant;Kec. Bula Barat;"Kabupaten Seram Bagian Timur, Maluku";"Kabupaten Seram Bagian Timur, Maluku";MALUKU;;Indonesia;;;;-30.472.432;1.301.469.398;https://maps.google.com/?cid=0x0:0x12c29f15f276cac6;
restaurant;Restoran;Restauran Istana Rasa;"WCPR+7HH, Jl. Wailola, Bula, Kec. Bula, Kabupaten Seram Bagian Timur, Maluku";"Kabupaten Seram Bagian Timur, Maluku";MALUKU;;Indonesia;081240571999;;;-30.643.004;1.304.414.865;https://maps.google.com/?cid=0x0:0x3af166ba3856ef4f;
restaurant;Brunch;Rumah Makan Dzaqiila;"WF98+94M, Jl. Wailola, Bula, Kec. Bula, Kabupaten Seram Bagian Timur, Maluku";"Kabupaten Seram Bagian Timur, Maluku";MALUKU;;Indonesia;;;;-30.815.476;1.304.653.082;https://maps.google.com/?cid=0x0:0xf179815a05524596;
restaurant;Restoran;Bela Cafe;"WF5C+9F4, Jl. Wailola, Bula, Kec. Bula, Kabupaten Seram Bagian Timur, Maluku";"Kabupaten Seram Bagian Timur, Maluku";MALUKU;;Indonesia;081344141990;;;-30.916.236;1.304.712.029;https://maps.google.com/?cid=0x0:0xd10b839b7b3e76f1;
restaurant;Rumah Makan;Resto seafood Gia gamalama;"WFQ6+H2C, Bula, Kec. Bula, Kabupaten Seram Bagian Timur, Maluku";"Kabupaten Seram Bagian Timur, Maluku";MALUKU;;Indonesia;;;;-30.603.243;1.304.592.964;https://maps.google.com/?cid=0x0:0x1946c0118a1d0b87;
restaurant;Jawa;"Warung Makan,DELAPAN BERSAUDARA";"W7Q9+JQ6, Upt T. Jkt Baru, Kec. Bula Barat, Kabupaten Seram Bagian Timur, Maluku";"Kabupaten Seram Bagian Timur, Maluku";MALUKU;;Indonesia;082238506127;;;-30.609.671;130.269.398;https://maps.google.com/?cid=0x0:0xa0f17db2cf0f481d;
restaurant;Rumah Makan;Wm.Queenza;"W7Q8+QMW, Upt T. Jkt Baru, Kec. Bula Barat, Kabupaten Seram Bagian Timur, Maluku";"Kabupaten Seram Bagian Timur, Maluku";MALUKU;;Indonesia;081316415439;;;-30.605.108;1.302.667.178;https://maps.google.com/?cid=0x0:0x5368b02d70080a01;
restaurant;Rumah Makan;Sigafua Cafe  Resto;"Jl. Protokol, Bula, Kec. Bula, Bula, Maluku 97581";"Bula, Kec. Bula, Bula";MALUKU;97581;Indonesia;081252012344;;;-31.009.058;1.304.840.422;https://maps.google.com/?cid=0x0:0x594f66c0e757d804;
restaurant;Rumah Makan;RM. SINGGAH DULU;"WFP2+77R, Bula, Kec. Bula, Kabupaten Seram Bagian Timur, Maluku";"Kabupaten Seram Bagian Timur, Maluku";MALUKU;;Indonesia;;;;-30.636.766;130.450.798;https://maps.google.com/?cid=0x0:0x7ab3e9edd7e3f1a3;
restaurant;Restoran;CAFE  RESTO MANDIRI;"WF6P+F8X, Jl. Wailola, pantai, Bula, Kec. Bula, Kabupaten Seram Bagian Timur, Maluku";"Kabupaten Seram Bagian Timur, Maluku";MALUKU;;Indonesia;089519455899;;;-30.887.593;1.304.858.533;https://maps.google.com/?cid=0x0:0x431de1cd3b13b0be;
restaurant;Bakso;R.M Bakso Solo;"WCPX+J5W, Jl. Wailola, Bula, Kec. Bula, Kabupaten Seram Bagian Timur, Maluku";"Kabupaten Seram Bagian Timur, Maluku";MALUKU;;Indonesia;082238610960;;;-30.633.848;1.304.479.625;https://maps.google.com/?cid=0x0:0x1f634d8031a14c45;
restaurant;Komplek perumahan;Pertigaan Sumber Agung;"W8X2+X7V, Unnamed Road, Sumber Agung, Kec. Bula, Kabupaten Seram Bagian Timur, Maluku";"Kabupaten Seram Bagian Timur, Maluku";MALUKU;;Indonesia;;;;-30.500.162;1.303.006.632;https://maps.google.com/?cid=0x0:0xadced6343829edc6;
restaurant;Restoran;Warung Mas Dirfa;"WF79+7C6, Jl. Wailola, Raya, Kec. Bula, Kabupaten Seram Bagian Timur, Maluku";"Kabupaten Seram Bagian Timur, Maluku";MALUKU;;Indonesia;081343007800;;;-30.868.269;1.304.685.134;https://maps.google.com/?cid=0x0:0x6f4a32af679482a1;
restaurant;Restoran;Rumah Makan Lisa;"WF69+4MW, Jl. Wailola, Bula, Kec. Bula, Kabupaten Seram Bagian Timur, Maluku";"Kabupaten Seram Bagian Timur, Maluku";MALUKU;;Indonesia;;;;-30.896.485;1.304.692.043;https://maps.google.com/?cid=0x0:0x93d6829a55885c3d;
restaurant;Kantor Perusahaan;Ambon Maluku Indonesia;"VC9J+HGC, Bula, Kec. Bula, Kabupaten Seram Bagian Timur, Maluku";"Kabupaten Seram Bagian Timur, Maluku";MALUKU;;Indonesia;;;;-31.310.656;1.304.312.584;https://maps.google.com/?cid=0x0:0x8706d468ca540096;
restaurant;Padang;rumah makan sinar minang;"Jl. Wailola, Bula, Kec. Bula, Kabupaten Seram Bagian Timur, Maluku";"Kabupaten Seram Bagian Timur, Maluku";MALUKU;;Indonesia;;;;-30.859.745;1.304.679.208;https://maps.google.com/?cid=0x0:0xd1e237dfda16ef10;
restaurant;Restoran;Mie pangsit ijo;"WF67+2XV, Kampung Jawa limumir, Bula, Kec. Bula, Kabupaten Seram Bagian Timur, Maluku";"Kabupaten Seram Bagian Timur, Maluku";MALUKU;;Indonesia;085242915586;;;-30.898.892;1.304.649.314;https://maps.google.com/?cid=0x0:0xf7a57fd8c3412bd3;
restaurant;Restoran;Kedai AA" Bula";"VFXM+52W, Bula, Kec. Bula, Kabupaten Seram Bagian Timur, Maluku";"Kabupaten Seram Bagian Timur, Maluku";MALUKU;;Indonesia;;;;-31.020.099;1.304.825.656;https://maps.google.com/?cid=0x0:0x447d0e505b04045c;
restaurant;Restoran;RM Luna Limura 2;"WF4Q+96Q, Jl. Wailola, Bula, Kec. Bula, Kabupaten Seram Bagian Timur, Maluku";"Kabupaten Seram Bagian Timur, Maluku";MALUKU;;Indonesia;;;;-30.928.608;1.304.877.385;https://maps.google.com/?cid=0x0:0x2b83a1d5e4434325;
restaurant;Rumah Makan;Restoran Seafood 88 Poka;"Q46W+J46, Atiahu, Werinama, Kabupaten Seram Bagian Timur, Maluku";"Kabupaten Seram Bagian Timur, Maluku";MALUKU;;Indonesia;082397929174;;;-32.384.616;1.301.452.734;https://maps.google.com/?cid=0x0:0x5eb3f2c9ba59dbb2;
restaurant;Restoran;Kedai Makan BACALEPO;"WF2F+966, Bula, Kec. Bula, Kabupaten Seram Bagian Timur, Maluku";"Kabupaten Seram Bagian Timur, Maluku";MALUKU;;Indonesia;081240909975;;;-30.990.981;1.304.730.135;https://maps.google.com/?cid=0x0:0x82677051d2e65492;
restaurant;Rumah Makan;Warung Pandaza Bula;"VFXR+QWF, Bula, Kec. Bula, Kabupaten Seram Bagian Timur, Maluku";"Kabupaten Seram Bagian Timur, Maluku";MALUKU;;Indonesia;;;;-31.005.659;1.304.923.114;https://maps.google.com/?cid=0x0:0xbb9e7390582cb96e;
restaurant;Brunch;Rumah dini;"W9QV+JM6, Hote, Kec. Bula Barat, Kabupaten Seram Bagian Timur, Maluku";"Kabupaten Seram Bagian Timur, Maluku";MALUKU;;Indonesia;;;;-30.608.754;1.303.955.088;https://maps.google.com/?cid=0x0:0x1f8e9ccdd9f44908;
restaurant;Padang;RUMAH MAKAN SINAR BULA;"Jl. Air Kabur, Kabur, Kec. Bula, Kabupaten Seram Bagian Timur, Maluku 97555";"Kabur, Kec. Bula, Kabupaten Seram Bagian Timur";MALUKU;97555;Indonesia;;;;-31.020.255;1.304.785.486;https://maps.google.com/?cid=0x0:0x57c1b62d9ef19db3;
restaurant;Sulawesi Selatan;Coto Makassar Hj Herawaty;"WF79+J57, Jl. Wailola, Bula, Kec. Bula, Kabupaten Seram Bagian Timur, Maluku";"Kabupaten Seram Bagian Timur, Maluku";MALUKU;;Indonesia;085243642006;;;-30.859.745;1.304.679.208;https://maps.google.com/?cid=0x0:0xf8fd1b6a2d1a02c1;
restaurant;Toko;Ayam Iris crispy LALA;"WF78+9F8, Bula, Kec. Bula, Kabupaten Seram Bagian Timur, Maluku";"Kabupaten Seram Bagian Timur, Maluku";MALUKU;;Indonesia;081240610016;;;-30.865.827;1.304.662.126;https://maps.google.com/?cid=0x0:0x98a370e120aa6ec8;
restaurant;Toko bahan makanan;Warung bu jarwo;"Waiketam Baru, Kec. Bula Barat, Kabupaten Seram Bagian Timur, Maluku 97555";"Kec. Bula Barat, Kabupaten Seram Bagian Timur";MALUKU;97555;Indonesia;081247930443;;;-30.496.633;1.301.880.164;https://maps.google.com/?cid=0x0:0xddfe5587cbff21d6;
restaurant;Pembangunan Perumahan;Negeri Kian;"8RQJ+55X, Kiandarat, Kian Darat, Kabupaten Seram Bagian Timur, Maluku";"Kabupaten Seram Bagian Timur, Maluku";MALUKU;;Indonesia;;;;-36.617.754;1.308.308.662;https://maps.google.com/?cid=0x0:0x6fefa1fa06337d42;
restaurant;Perumahan;Kilga;"Kiandarat, Kian Darat, Kabupaten Seram Bagian Timur, Maluku";"Kabupaten Seram Bagian Timur, Maluku";MALUKU;;Indonesia;;;;-36.853.452;1.307.867.889;https://maps.google.com/?cid=0x0:0x7c59cd733dfd3479;
restaurant;restaurant;Kian Darat;"Kiandarat, Kabupaten Seram Bagian Timur, Maluku";"Kabupaten Seram Bagian Timur, Maluku";MALUKU;;Indonesia;;;;-36.853.452;1.307.867.889;https://maps.google.com/?cid=0x0:0x63cc3443f68b9180;
restaurant;restaurant;Moluccas Restaurant;"Jl. Natsepa No.36, Suli, Kec. Salahutu, Kabupaten Maluku Tengah, Maluku 97582";"Suli, Kec. Salahutu, Kabupaten Maluku Tengah";MALUKU;97582;Indonesia;;;;-36.228.916;1.282.856.889;https://maps.google.com/?cid=0x0:0xb337eb8a08cdf9c7;
restaurant;Betawi;Dapur Fizzul - Rumah Makan Khas Maluku Jakarta No.1 Halal di Dunia;"Food Court Depan Grha Essi, Jl. Raya Ceger No.5, RT.5/RW.1, Ceger, Kec. Cipayung, Kota Jakarta Timur, Daerah Khusus Ibukota Jakarta 13820";"Jl. Raya Ceger No.5, RT.5/RW.1, Ceger, Kec. Cipayung, Kota Jakarta Timur";MALUKU;13820;Indonesia;082131529069;;;-6.307.207;1.068.886.462;https://maps.google.com/?cid=0x0:0xb39e6e8a1a4f4d03;
restaurant;Rumah Makan;Dapoer Almaasz;"Jl. Kelapa No.17, RT.5/RW.2, Ceger, Kec. Cipayung, Kota Jakarta Timur, Daerah Khusus Ibukota Jakarta 13820";"RT.5/RW.2, Ceger, Kec. Cipayung, Kota Jakarta Timur";MALUKU;13820;Indonesia;;;;-63.104.883;1.068.904.197;https://maps.google.com/?cid=0x0:0xf8fac86c3d9adcb0;
restaurant;Restoran;Markas Foodcourt Pusat Kuliner;"MVMR+CQP, RT.5/RW.3, Ceger, Kec. Cipayung, Kota Jakarta Timur, Daerah Khusus Ibukota Jakarta 13820";"RT.5/RW.3, Ceger, Kec. Cipayung, Kota Jakarta Timur";MALUKU;13820;Indonesia;081286064048;;;-63.164.127;1.068.919.666;https://maps.google.com/?cid=0x0:0xed51600e5d024fa9;
restaurant;restaurant;N/A;;;MALUKU;;Indonesia;;;;;;https://maps.google.com/?cid=0x0:0xb39e6e8a1a4f4d03u0026onu003dPapeda+Beserta+Ikan+Masak+Kuningu0026midu003d/g/11l2zyx1f4;
restaurant;Soto;Rumah Makan Betawi Hj. Dahlia;"Jalan Raya Hankam No.28 RT.1/RW.2 Bambu Apus, RT.1/RW.2, Ceger, Kec. Cipayung, Kota Jakarta Timur, Daerah Khusus Ibukota Jakarta 13820";"RT.1/RW.2, Ceger, Kec. Cipayung, Kota Jakarta Timur";MALUKU;13820;Indonesia;082344455579;;;-63.048.759;1.068.872.261;https://maps.google.com/?cid=0x0:0x47572f8d80dc021b;
restaurant;restaurant;N/A;;;MALUKU;;Indonesia;;;;;;https://maps.google.com/?cid=0x0:0xb39e6e8a1a4f4d03u0026onu003dPisang+Ijou0026midu003d/g/11l2zyx1f4;
restaurant;restaurant;N/A;;;MALUKU;;Indonesia;;;;;;https://maps.google.com/?cid=0x0:0xb39e6e8a1a4f4d03u0026onu003dPapeda+Dan+Ikan+Kuah+Kuning+Dan+Ikan+Bakaru0026midu003d/g/11l2zyx1f4;
restaurant;restaurant;N/A;;;MALUKU;;Indonesia;;;;;;https://maps.google.com/?cid=0x0:0xb39e6e8a1a4f4d03u0026onu0026midu003d/g/11l2zyx1f4;
restaurant;Restoran;Walang Matasiri Maluku Resto;"JV98+824, Jl. Ir. H. Juanda, Cisalak, Kec. Sukmajaya, Kota Depok, Jawa Barat 16416";"Jl. Ir. H. Juanda, Cisalak, Kec. Sukmajaya, Kota Depok";MALUKU;16416;Indonesia;;;;-63.817.486;1.068.651.251;https://maps.google.com/?cid=0x0:0x63334b622f58bba5;
restaurant;Indonesia;Resto Bandar Maluku;"Jl. Kramat No.123C, Leuwinanggung, Kec. Tapos, Kota Depok, Jawa Barat 16454";"Leuwinanggung, Kec. Tapos, Kota Depok";MALUKU;16454;Indonesia;0895346050079;;;-64.089.745;1.069.075.172;https://maps.google.com/?cid=0x0:0x1bc5b27b0e99808e;
restaurant;Restoran;Rumah Makan Lamongan Wanrisal;"Jl. Radar Auri No.06, RT.2 RT/RW.11, Mekarsari, Kec. Cimanggis, Kota Depok, Jawa Barat 16452";"RT.2 RT/RW.11, Mekarsari, Kec. Cimanggis, Kota Depok";MALUKU;16452;Indonesia;085691088000;;;-63.716.449;1.068.811.383;https://maps.google.com/?cid=0x0:0xf543a3dee45a4941;
restaurant;restaurant;N/A;;;MALUKU;;Indonesia;;;;;;https://maps.google.com/?cid=0x0:0x63334b622f58bba5u0026onu003dPapeda+Dan+Ikan+Kuah+Kuningu0026midu003d/g/11ty76cgyq;
restaurant;restaurant;N/A;;;MALUKU;;Indonesia;;;;;;https://maps.google.com/?cid=0x0:0x63334b622f58bba5u0026onu003dAmpas+Tariguu0026midu003d/g/11ty76cgyq;
restaurant;restaurant;N/A;;;MALUKU;;Indonesia;;;;;;https://maps.google.com/?cid=0x0:0x63334b622f58bba5u0026onu003dPapeda+Ikan+Kuah+Kuning+Ikan+Cakalang+Bakaru0026midu003d/g/11ty76cgyq;
restaurant;restaurant;N/A;;;MALUKU;;Indonesia;;;;;;https://maps.google.com/?cid=0x0:0x63334b622f58bba5u0026onu0026midu003d/g/11ty76cgyq;
restaurant;Hidangan Laut;SMORGAN Resto;"PXJV+JGQ, Jl. Pemerintahan, depan KODIM, Halut, Mkcm, Tobelo, North Halmahera Regency, North Maluku";"Kabupaten Halmahera Utara, Maluku Utara";MALUKU;;Indonesia;085201115150;;;17.315.784;1.279.938.588;https://maps.google.com/?cid=0x0:0xd45d6fcd651f0c5c;
restaurant;Restoran;WarungJembatan;"P286+X5M, Jl. Kemakmuran, Gosoma, Kec. Tobelo, Kabupaten Halmahera Utara, Maluku Utara";"Kabupaten Halmahera Utara, Maluku Utara";MALUKU;;Indonesia;;;;17.174.532;1.280.104.319;https://maps.google.com/?cid=0x0:0xa2d92bf092b3f9a8;
restaurant;Rumah Makan;Rm Mutiara gosoma;"Jl. Sengkanaung, Gosoma, Kec. Tobelo, Kabupaten Halmahera Utara, Maluku Utara 97762";"Gosoma, Kec. Tobelo, Kabupaten Halmahera Utara";MALUKU;97762;Indonesia;081220409360;;;17.194.263;1.280.102.699;https://maps.google.com/?cid=0x0:0x18809a7b12a58026;
restaurant;Restoran;Rm. Ambonger;"PXGX+3VR, Gosoma, jln RSUD, Gamsungi, Kec. Tobelo, Kabupaten Halmahera Utara, Maluku Utara";"Kabupaten Halmahera Utara, Maluku Utara";MALUKU;;Indonesia;081243156434;;;17.252.443;1.279.996.512;https://maps.google.com/?cid=0x0:0x6dc1f1fec5b89eff;
restaurant;restaurant;Kec. Lian Fitu;"Kabupaten Seram Bagian Timur, Maluku";"Kabupaten Seram Bagian Timur, Maluku";MALUKU;;Indonesia;;;;-37.413.684;1.308.286.316;https://maps.google.com/?cid=0x0:0x240a3775e9ef412c;
restaurant;restaurant;Kec. Tlk. Waru;"Kabupaten Seram Bagian Timur, Maluku";"Kabupaten Seram Bagian Timur, Maluku";MALUKU;;Indonesia;;;;-3.404.276;1.306.715.092;https://maps.google.com/?cid=0x0:0x8093b034c7ac82;
restaurant;Rumah Makan;Sigafua Cafe  Resto;"Jl. Protokol, Bula, Kec. Bula, Bula, Maluku 97581";"Bula, Kec. Bula, Bula";MALUKU;97581;Indonesia;081252012344;;;-31.009.058;1.304.840.422;https://maps.google.com/?cid=0x0:0x594f66c0e757d804;
restaurant;Rumah Makan;Warung Pandaza Bula;"VFXR+QWF, Bula, Kec. Bula, Kabupaten Seram Bagian Timur, Maluku";"Kabupaten Seram Bagian Timur, Maluku";MALUKU;;Indonesia;;;;-31.005.659;1.304.923.114;https://maps.google.com/?cid=0x0:0xbb9e7390582cb96e;
restaurant;Padang;RM. nursayang;"WF2R+G8M, Unnamed Road, Kec. Bula, Kabupaten Seram Bagian Timur, Maluku";"Kabupaten Seram Bagian Timur, Maluku";MALUKU;;Indonesia;081248339026;;;-30.986.726;1.304.907.836;https://maps.google.com/?cid=0x0:0x259d6ea4eb2a41ae;
restaurant;Indonesia;Deteras;"VFXH+3MG, Jl. Wailola, Baru, Kec. Bula, Kabupaten Seram Bagian Timur, Maluku";"Kabupaten Seram Bagian Timur, Maluku";MALUKU;;Indonesia;;;;-31.023.163;1.304.792.003;https://maps.google.com/?cid=0x0:0x7269a08ff6ee98f8;
restaurant;Rumah Makan;RUMAH MAKAN PELANGI;"VFWV+CQ2, Bula, Kec. Bula, Kabupaten Seram Bagian Timur, Maluku";"Kabupaten Seram Bagian Timur, Maluku";MALUKU;;Indonesia;;;;-31.039.752;1.304.943.858;https://maps.google.com/?cid=0x0:0xe7e8eee26ef461e2;
restaurant;Restoran;Rumah Makan Restu Ibu;"Bula, Kec. Bula, Kabupaten Seram Bagian Timur, Maluku";"Kabupaten Seram Bagian Timur, Maluku";MALUKU;;Indonesia;;;;-30.985.887;1.304.905.596;https://maps.google.com/?cid=0x0:0x7b50b3c229419fb8;
restaurant;Restoran;RM.PAK YAN;"VFXQ+8CC, Jl. Wailola, Bula, Kec. Bula, Kabupaten Seram Bagian Timur, Maluku";"Kabupaten Seram Bagian Timur, Maluku";MALUKU;;Indonesia;085243301071;;;-31.016.968;1.304.885.206;https://maps.google.com/?cid=0x0:0xf2fe9e8d652c63fd;
restaurant;Indonesia;RM Luna Limura;"VG6H+476, Bula, Kec. Bula, Kabupaten Seram Bagian Timur, Maluku";"Kabupaten Seram Bagian Timur, Maluku";MALUKU;;Indonesia;;;;-31.397.198;1.305.281.363;https://maps.google.com/?cid=0x0:0xb65a5907c39bff0b;
restaurant;Padang;Rumah Makan Soleha;"VFWQ+GQW, Jl. A. Tamaela, Bula, Kec. Bula, Kabupaten Seram Bagian Timur, Maluku";"Kabupaten Seram Bagian Timur, Maluku";MALUKU;;Indonesia;081243460269;;;-31.036.315;1.304.894.404;https://maps.google.com/?cid=0x0:0xb12ed417ee03a3fe;
restaurant;Padang;RUMAH MAKAN SINAR BULA;"Jl. Air Kabur, Kabur, Kec. Bula, Kabupaten Seram Bagian Timur, Maluku 97555";"Kabur, Kec. Bula, Kabupaten Seram Bagian Timur";MALUKU;97555;Indonesia;;;;-31.020.255;1.304.785.486;https://maps.google.com/?cid=0x0:0x57c1b62d9ef19db3;
restaurant;Rumah Makan;Rumah Makan Simpang Tiga;"VG9G+QG9, Bula, Kec. Bula, Kabupaten Seram Bagian Timur, Maluku";"Kabupaten Seram Bagian Timur, Maluku";MALUKU;;Indonesia;;;;-313.059;1.305.263.572;https://maps.google.com/?cid=0x0:0xa04288c582a00b00;
restaurant;Rumah Makan;Rumah Makan Para Para;"VFXP+PC5, Jl. Wailola, Bula, Kec. Bula, Kabupaten Seram Bagian Timur, Maluku";"Kabupaten Seram Bagian Timur, Maluku";MALUKU;;Indonesia;082238123967;;;-31.007.393;1.304.861.151;https://maps.google.com/?cid=0x0:0x89aeda9faee211ec;
restaurant;Rumah Makan;Jln Gisa;"VFRX+4CC, Jln, Bula, Kec. Bula, Kabupaten Seram Bagian Timur, Maluku";"Kabupaten Seram Bagian Timur, Maluku";MALUKU;;Indonesia;;;;-310.968;130.498.505;https://maps.google.com/?cid=0x0:0x14d1cb89ef255c76;
restaurant;Rumah Makan;RM DEVI;"Jl. Wailola No.atas, Bula, Kec. Bula, Kabupaten Seram Bagian Timur, Maluku";"Kabupaten Seram Bagian Timur, Maluku";MALUKU;;Indonesia;;;;-31.005.197;1.304.751.161;https://maps.google.com/?cid=0x0:0xfeed65d53f773fdf;
restaurant;Padang;Rumah Makan SRI WULAN;"VFXP+HW5, Bula, Kec. Bula, Kabupaten Seram Bagian Timur, Maluku";"Kabupaten Seram Bagian Timur, Maluku";MALUKU;;Indonesia;081344617570;;;-31.011.244;1.304.873.582;https://maps.google.com/?cid=0x0:0x5aa12c62ca9ff073;
restaurant;Jawa;Rumah makan barokah 2bula;"VFXM+XVH, Jl. Wailola, Bula, Kec. Bula, Kabupaten Seram Bagian Timur, Maluku";"Kabupaten Seram Bagian Timur, Maluku";MALUKU;;Indonesia;;;;-3.100.074;130.484.725;https://maps.google.com/?cid=0x0:0x65fb596670b4d908;
restaurant;Sulawesi Selatan;Coto Makassar;"VFXQ+C77, Bula, Kec. Bula, Kabupaten Seram Bagian Timur, Maluku";"Kabupaten Seram Bagian Timur, Maluku";MALUKU;;Indonesia;085243642006;;;-31.014.737;1.304.881.739;https://maps.google.com/?cid=0x0:0xe67a1d3ea5b54900;
restaurant;Kedai Kopi;OKE_Main"";"VFVW+J3J, Unnamed Road, Bula, Kec. Bula, Kabupaten Seram Bagian Timur, Maluku";"Kabupaten Seram Bagian Timur, Maluku";MALUKU;;Indonesia;081344761233;;;-31.059.223;1.304.951.429;https://maps.google.com/?cid=0x0:0xc1aecbd4afbc5bca;
restaurant;Restoran;Rumah Makan DS;"VFXH+5GC, Jalan A. Tamaela, Bula, East Seram, Maluku";"Kabupaten Seram Bagian Timur, Maluku";MALUKU;;Indonesia;082238127056;;;-31.020.673;1.304.787.644;https://maps.google.com/?cid=0x0:0xb1fe2bab14d6a2b8;
restaurant;Kafe;Cafe Classik  pup;"Tanah merah arah ke sidomampir Dekat, Bula, Kec. Bula, Kabupaten Seram Bagian Timur, Maluku 97581";"Bula, Kec. Bula, Kabupaten Seram Bagian Timur";MALUKU;97581;Indonesia;081248234576;;;-31.255.497;1.305.191.509;https://maps.google.com/?cid=0x0:0xcf2f4f902c8dce3a;
restaurant;restaurant;Moluccas Restaurant;"Jl. Natsepa No.36, Suli, Kec. Salahutu, Kabupaten Maluku Tengah, Maluku 97582";"Suli, Kec. Salahutu, Kabupaten Maluku Tengah";MALUKU;97582;Indonesia;;;;-36.228.916;1.282.856.889;https://maps.google.com/?cid=0x0:0xb337eb8a08cdf9c7;
cafe;cafe;Bula;"Bula, Kec. Bula, Kabupaten Seram Bagian Timur, Maluku";"Kabupaten Seram Bagian Timur, Maluku";MALUKU;;Indonesia;;;;-310.968;130.498.505;https://maps.google.com/?cid=0x0:0x20388956c533e2b;
cafe;Kedai Kopi;Kafe PUNCAK BULA;"VGJ6+JJW, Bula, Kec. Bula, Kabupaten Seram Bagian Timur, Maluku";"Kabupaten Seram Bagian Timur, Maluku";MALUKU;;Indonesia;081340712440;;;-31.183.904;1.305.115.904;https://maps.google.com/?cid=0x0:0x55b0dbdf1f7f2462;
cafe;Restoran;CAFE  RESTO MANDIRI;"WF6P+F8X, Jl. Wailola, pantai, Bula, Kec. Bula, Kabupaten Seram Bagian Timur, Maluku";"Kabupaten Seram Bagian Timur, Maluku";MALUKU;;Indonesia;089519455899;;;-30.887.593;1.304.858.533;https://maps.google.com/?cid=0x0:0x431de1cd3b13b0be;
cafe;Kedai Kopi;OKE_Main"";"VFVW+J3J, Unnamed Road, Bula, Kec. Bula, Kabupaten Seram Bagian Timur, Maluku";"Kabupaten Seram Bagian Timur, Maluku";MALUKU;;Indonesia;081344761233;;;-31.059.223;1.304.951.429;https://maps.google.com/?cid=0x0:0xc1aecbd4afbc5bca;
cafe;Kantor Perusahaan;Ambon Maluku Indonesia;"VC9J+HGC, Bula, Kec. Bula, Kabupaten Seram Bagian Timur, Maluku";"Kabupaten Seram Bagian Timur, Maluku";MALUKU;;Indonesia;;;;-31.310.656;1.304.312.584;https://maps.google.com/?cid=0x0:0x8706d468ca540096;
cafe;Kafe seni;Cafe 8 Ball;"WF3J+C5Q, Bula, Kec. Bula, Kabupaten Seram Bagian Timur, Maluku";"Kabupaten Seram Bagian Timur, Maluku";MALUKU;;Indonesia;081240988082;;;-30.964.005;1.304.804.708;https://maps.google.com/?cid=0x0:0x59e4fc16f98aa6ec;
cafe;Kafe;Cafe Classik  pup;"Tanah merah arah ke sidomampir Dekat, Bula, Kec. Bula, Kabupaten Seram Bagian Timur, Maluku 97581";"Bula, Kec. Bula, Kabupaten Seram Bagian Timur";MALUKU;97581;Indonesia;081248234576;;;-31.255.497;1.305.191.509;https://maps.google.com/?cid=0x0:0xcf2f4f902c8dce3a;
cafe;Restoran;Kedai AA" Bula";"VFXM+52W, Bula, Kec. Bula, Kabupaten Seram Bagian Timur, Maluku";"Kabupaten Seram Bagian Timur, Maluku";MALUKU;;Indonesia;;;;-31.020.099;1.304.825.656;https://maps.google.com/?cid=0x0:0x447d0e505b04045c;
cafe;Kedai Kopi;Coffee Alzeef;"VFXJ+4JQ, Bula, Kec. Bula, Kabupaten Seram Bagian Timur, Maluku";"Kabupaten Seram Bagian Timur, Maluku";MALUKU;;Indonesia;;;;-31.021.675;1.304.816.157;https://maps.google.com/?cid=0x0:0x87df58fdaf88fc;
cafe;Rumah Makan;Timur Nusa Perdana. PT;"VFRX+595, Jl. Wailola, Bula, Kec. Bula, Kabupaten Seram Bagian Timur, Maluku 97555";"Jl. Wailola, Bula, Kec. Bula, Kabupaten Seram Bagian Timur";MALUKU;97555;Indonesia;091521327;;;-310.962;130.498.481;https://maps.google.com/?cid=0x0:0x7a1a47cb1c50aaab;
cafe;Kedai Kopi;FANDAZACOFFEE.ID;"Jalan pantai rolex, Bula, Kec. Bula, Kabupaten Seram Bagian Timur, Maluku";"Kabupaten Seram Bagian Timur, Maluku";MALUKU;;Indonesia;081315123816;;;-30.917.018;1.304.871.348;https://maps.google.com/?cid=0x0:0x1cd687bdacb59c0c;
cafe;Rumah Makan;Jln Gisa;"VFRX+4CC, Jln, Bula, Kec. Bula, Kabupaten Seram Bagian Timur, Maluku";"Kabupaten Seram Bagian Timur, Maluku";MALUKU;;Indonesia;;;;-310.968;130.498.505;https://maps.google.com/?cid=0x0:0x14d1cb89ef255c76;
cafe;Kedai Kopi;Coffe HITAM MANIS;"VFRX+4CC, Unnamed Road, Bula, Kec. Bula, Kabupaten Seram Bagian Timur, Maluku";"Kabupaten Seram Bagian Timur, Maluku";MALUKU;;Indonesia;082132322751;;;-310.968;130.498.505;https://maps.google.com/?cid=0x0:0xd542545e0b1b71dd;
cafe;Rumah Makan;Bula;"VFRX+4CC, Bula, Kec. Bula, Kabupaten Seram Bagian Timur, Maluku";"Kabupaten Seram Bagian Timur, Maluku";MALUKU;;Indonesia;;;;-310.968;130.498.505;https://maps.google.com/?cid=0x0:0x2dff7e5de4bc234b;
cafe;Kafe;Kedai pohon tikar;"WF5P+VP9, Bula, Kec. Bula, Kabupaten Seram Bagian Timur, Maluku";"Kabupaten Seram Bagian Timur, Maluku";MALUKU;;Indonesia;;;;-30.898.602;1.304.866.527;https://maps.google.com/?cid=0x0:0x4dda08cff8087e90;
cafe;Restoran;Kios Ababus Nini;"WF4G+55G, Jl Baru KPU, Bula, Kec. Bula, Kabupaten Seram Bagian Timur, Maluku";"Kabupaten Seram Bagian Timur, Maluku";MALUKU;;Indonesia;082198042605;;;-30.945.634;1.304.754.455;https://maps.google.com/?cid=0x0:0x13c88d3ccc04776d;
cafe;Kafe;Kedai Puncak 229;"VFJJ+WRR, Bula, Kec. Bula, Kabupaten Seram Bagian Timur, Maluku";"Kabupaten Seram Bagian Timur, Maluku";MALUKU;;Indonesia;082236234748;;;-31.176.555;1.304.819.939;https://maps.google.com/?cid=0x0:0x54ea165310219877;
cafe;Kedai Kopi;Kedai Citra;"WF5P+RR9, Bula, Kec. Bula, Kabupaten Seram Bagian Timur, Maluku";"Kabupaten Seram Bagian Timur, Maluku";MALUKU;;Indonesia;082238099696;;;-30.903.606;1.304.868.906;https://maps.google.com/?cid=0x0:0x2c33bac3888c6830;
cafe;Dapur Umum;Mabes Umi Bozz;"VFRX+VPH, Jln Tamaela, Bula, Kec. Bula, Kabupaten Seram Bagian Timur, Maluku";"Kabupaten Seram Bagian Timur, Maluku";MALUKU;;Indonesia;;;;-31.078.083;1.304.993.749;https://maps.google.com/?cid=0x0:0xa3dbc2b2329d3cd2;
cafe;Kedai Kopi;Kedai Kubiza;"WF5P+GV4, Bula, Kec. Bula, Kabupaten Seram Bagian Timur, Maluku";"Kabupaten Seram Bagian Timur, Maluku";MALUKU;;Indonesia;081344213515;;;-30.912.388;1.304.871.914;https://maps.google.com/?cid=0x0:0x38ee7518ca67a707;
cafe;Kafe;Bulaf Cafe;"Jl. Cilandak Tengah No.35 9, RT.9/RW.13, Cilandak Bar., Kec. Cilandak, Kota Jakarta Selatan, Daerah Khusus Ibukota Jakarta 12430";"RT.9/RW.13, Cilandak Bar., Kec. Cilandak, Kota Jakarta Selatan";MALUKU;12430;Indonesia;089517318443;;;-62.869.846;1.068.013.309;https://maps.google.com/?cid=0x0:0x8c4506be8c2706ff;
cafe;Kafe;Bulaf;"Pasar Mayestik Lantai Dasar Blok CKS no. 14, Jl. Tebah III, RT.14/RW.3, Gunung, Kec. Kby. Baru, Kota Jakarta Selatan, Daerah Khusus Ibukota Jakarta 12120";"Jl. Tebah III, RT.14/RW.3, Gunung, Kec. Kby. Baru, Kota Jakarta Selatan";MALUKU;12120;Indonesia;081399001800;;;-62.412.321;1.067.911.485;https://maps.google.com/?cid=0x0:0x9d661659d1a7ec50;
cafe;Kafe;Kisah LA.lu Cafe;"Jl. Pondok Bambu Batas No.5A, RT.5/RW.4, Pd. Bambu, Kec. Duren Sawit, Kota Jakarta Timur, Daerah Khusus Ibukota Jakarta 13430";"RT.5/RW.4, Pd. Bambu, Kec. Duren Sawit, Kota Jakarta Timur";MALUKU;13430;Indonesia;081380198765;;;-62.415.002;106.898.252;https://maps.google.com/?cid=0x0:0x14881c3efe91f0c6;
cafe;cafe;Bulaf Cafe  Lounge;"7 RW.9, RT.7/RW.9, Pancoran, South Jakarta City, Jakarta 12780";"RT.7/RW.9, Pancoran, South Jakarta City";MALUKU;12780;Indonesia;08111311848;;;-62.487.301;1.068.441.989;https://maps.google.com/?cid=0x0:0x204ac17a8da3617b;
cafe;Rumah Makan;Sigafua Cafe  Resto;"Jl. Protokol, Bula, Kec. Bula, Bula, Maluku 97581";"Bula, Kec. Bula, Bula";MALUKU;97581;Indonesia;081252012344;;;-31.009.058;1.304.840.422;https://maps.google.com/?cid=0x0:0x594f66c0e757d804;
cafe;Minimarket;Gumumae Bakery N Cafe;"Jl. Wailola, Bula, Kec. Bula, Kabupaten Seram Bagian Timur, Maluku";"Kabupaten Seram Bagian Timur, Maluku";MALUKU;;Indonesia;081247680399;;;-30.944.342;1.304.750.723;https://maps.google.com/?cid=0x0:0xf9df459a574df4ff;
cafe;cafe;Bula;"Bula, Kec. Bula, Kabupaten Seram Bagian Timur, Maluku";"Kabupaten Seram Bagian Timur, Maluku";MALUKU;;Indonesia;;;;-310.968;130.498.505;https://maps.google.com/?cid=0x0:0x20388956c533e2b;
cafe;Restoran;CAFE  RESTO MANDIRI;"WF6P+F8X, Jl. Wailola, pantai, Bula, Kec. Bula, Kabupaten Seram Bagian Timur, Maluku";"Kabupaten Seram Bagian Timur, Maluku";MALUKU;;Indonesia;089519455899;;;-30.887.593;1.304.858.533;https://maps.google.com/?cid=0x0:0x431de1cd3b13b0be;
cafe;Kafe;Cafe Classik  pup;"Tanah merah arah ke sidomampir Dekat, Bula, Kec. Bula, Kabupaten Seram Bagian Timur, Maluku 97581";"Bula, Kec. Bula, Kabupaten Seram Bagian Timur";MALUKU;97581;Indonesia;081248234576;;;-31.255.497;1.305.191.509;https://maps.google.com/?cid=0x0:0xcf2f4f902c8dce3a;
cafe;Kafe seni;Cafe 8 Ball;"WF3J+C5Q, Bula, Kec. Bula, Kabupaten Seram Bagian Timur, Maluku";"Kabupaten Seram Bagian Timur, Maluku";MALUKU;;Indonesia;081240988082;;;-30.964.005;1.304.804.708;https://maps.google.com/?cid=0x0:0x59e4fc16f98aa6ec;
cafe;Restoran;Bela Cafe;"WF5C+9F4, Jl. Wailola, Bula, Kec. Bula, Kabupaten Seram Bagian Timur, Maluku";"Kabupaten Seram Bagian Timur, Maluku";MALUKU;;Indonesia;081344141990;;;-30.916.236;1.304.712.029;https://maps.google.com/?cid=0x0:0xd10b839b7b3e76f1;
cafe;Kedai Kopi;OKE_Main"";"VFVW+J3J, Unnamed Road, Bula, Kec. Bula, Kabupaten Seram Bagian Timur, Maluku";"Kabupaten Seram Bagian Timur, Maluku";MALUKU;;Indonesia;081344761233;;;-31.059.223;1.304.951.429;https://maps.google.com/?cid=0x0:0xc1aecbd4afbc5bca;
cafe;Kantor Perusahaan;Ambon Maluku Indonesia;"VC9J+HGC, Bula, Kec. Bula, Kabupaten Seram Bagian Timur, Maluku";"Kabupaten Seram Bagian Timur, Maluku";MALUKU;;Indonesia;;;;-31.310.656;1.304.312.584;https://maps.google.com/?cid=0x0:0x8706d468ca540096;
cafe;Kedai Kopi;Coffee Alzeef;"VFXJ+4JQ, Bula, Kec. Bula, Kabupaten Seram Bagian Timur, Maluku";"Kabupaten Seram Bagian Timur, Maluku";MALUKU;;Indonesia;;;;-31.021.675;1.304.816.157;https://maps.google.com/?cid=0x0:0x87df58fdaf88fc;
cafe;Rumah Makan;Timur Nusa Perdana. PT;"VFRX+595, Jl. Wailola, Bula, Kec. Bula, Kabupaten Seram Bagian Timur, Maluku 97555";"Jl. Wailola, Bula, Kec. Bula, Kabupaten Seram Bagian Timur";MALUKU;97555;Indonesia;091521327;;;-310.962;130.498.481;https://maps.google.com/?cid=0x0:0x7a1a47cb1c50aaab;
cafe;Kedai Kopi;FANDAZACOFFEE.ID;"Jalan pantai rolex, Bula, Kec. Bula, Kabupaten Seram Bagian Timur, Maluku";"Kabupaten Seram Bagian Timur, Maluku";MALUKU;;Indonesia;081315123816;;;-30.917.018;1.304.871.348;https://maps.google.com/?cid=0x0:0x1cd687bdacb59c0c;
cafe;Restoran;Kedai AA" Bula";"VFXM+52W, Bula, Kec. Bula, Kabupaten Seram Bagian Timur, Maluku";"Kabupaten Seram Bagian Timur, Maluku";MALUKU;;Indonesia;;;;-31.020.099;1.304.825.656;https://maps.google.com/?cid=0x0:0x447d0e505b04045c;
cafe;Rumah Makan;Bula;"VFRX+4CC, Bula, Kec. Bula, Kabupaten Seram Bagian Timur, Maluku";"Kabupaten Seram Bagian Timur, Maluku";MALUKU;;Indonesia;;;;-310.968;130.498.505;https://maps.google.com/?cid=0x0:0x2dff7e5de4bc234b;
cafe;Rumah Makan;Jln Gisa;"VFRX+4CC, Jln, Bula, Kec. Bula, Kabupaten Seram Bagian Timur, Maluku";"Kabupaten Seram Bagian Timur, Maluku";MALUKU;;Indonesia;;;;-310.968;130.498.505;https://maps.google.com/?cid=0x0:0x14d1cb89ef255c76;
cafe;Kedai Kopi;Coffe HITAM MANIS;"VFRX+4CC, Unnamed Road, Bula, Kec. Bula, Kabupaten Seram Bagian Timur, Maluku";"Kabupaten Seram Bagian Timur, Maluku";MALUKU;;Indonesia;082132322751;;;-310.968;130.498.505;https://maps.google.com/?cid=0x0:0xd542545e0b1b71dd;
cafe;Restoran;Kios Ababus Nini;"WF4G+55G, Jl Baru KPU, Bula, Kec. Bula, Kabupaten Seram Bagian Timur, Maluku";"Kabupaten Seram Bagian Timur, Maluku";MALUKU;;Indonesia;082198042605;;;-30.945.634;1.304.754.455;https://maps.google.com/?cid=0x0:0x13c88d3ccc04776d;
cafe;Kafe;Kedai Puncak 229;"VFJJ+WRR, Bula, Kec. Bula, Kabupaten Seram Bagian Timur, Maluku";"Kabupaten Seram Bagian Timur, Maluku";MALUKU;;Indonesia;082236234748;;;-31.176.555;1.304.819.939;https://maps.google.com/?cid=0x0:0x54ea165310219877;
cafe;Brunch;D Tea Thai Tea;"VFWJ+XFV, Jl. Klp. Dua, Bula, Kec. Bula, Kabupaten Seram Bagian Timur, Maluku";"Kabupaten Seram Bagian Timur, Maluku";MALUKU;;Indonesia;081245667742;;;-31.025.241;1.304.811.724;https://maps.google.com/?cid=0x0:0xe66b69e9033cd524;
cafe;Kedai Kopi;Kedai 3 saudara;"WF5P+VP9, Bula, Kec. Bula, Kabupaten Seram Bagian Timur, Maluku";"Kabupaten Seram Bagian Timur, Maluku";MALUKU;;Indonesia;;;;-30.902.722;1.304.868.612;https://maps.google.com/?cid=0x0:0x85ad87e861f34806;
cafe;Kafe;Cafe Classik;"VGH7+QPR, Bula, Kec. Bula, Kabupaten Seram Bagian Timur, Maluku";"Kabupaten Seram Bagian Timur, Maluku";MALUKU;;Indonesia;;;;-31.205.102;1.305.142.689;https://maps.google.com/?cid=0x0:0x8f7fe50afbeb51cc;
cafe;Kafe;Cafe Ball D'hand 4238"";"WF3J+F59, Jl. Wailola, Bula, Kec. Bula, Kabupaten Seram Bagian Timur, Maluku";"Kabupaten Seram Bagian Timur, Maluku";MALUKU;;Indonesia;081240988082;;;-30.963.431;130.480.484;https://maps.google.com/?cid=0x0:0x6a2fbd7a9ce77f1;
cafe;Brunch;Kedai fiqah;"WF5P+GV4, Bula, Kec. Bula, Kabupaten Seram Bagian Timur, Maluku";"Kabupaten Seram Bagian Timur, Maluku";MALUKU;;Indonesia;081344492252;;;-30.910.158;1.304.872.286;https://maps.google.com/?cid=0x0:0x577e70262d7fd36b;
cafe;Kafe;Bulaf Cafe;"Jl. Cilandak Tengah No.35 9, RT.9/RW.13, Cilandak Bar., Kec. Cilandak, Kota Jakarta Selatan, Daerah Khusus Ibukota Jakarta 12430";"RT.9/RW.13, Cilandak Bar., Kec. Cilandak, Kota Jakarta Selatan";MALUKU;12430;Indonesia;089517318443;;;-62.869.846;1.068.013.309;https://maps.google.com/?cid=0x0:0x8c4506be8c2706ff;
cafe;Kafe;Bulaf;"Pasar Mayestik Lantai Dasar Blok CKS no. 14, Jl. Tebah III, RT.14/RW.3, Gunung, Kec. Kby. Baru, Kota Jakarta Selatan, Daerah Khusus Ibukota Jakarta 12120";"Jl. Tebah III, RT.14/RW.3, Gunung, Kec. Kby. Baru, Kota Jakarta Selatan";MALUKU;12120;Indonesia;081399001800;;;-62.412.321;1.067.911.485;https://maps.google.com/?cid=0x0:0x9d661659d1a7ec50;
cafe;Kafe;Kisah LA.lu Cafe;"Jl. Pondok Bambu Batas No.5A, RT.5/RW.4, Pd. Bambu, Kec. Duren Sawit, Kota Jakarta Timur, Daerah Khusus Ibukota Jakarta 13430";"RT.5/RW.4, Pd. Bambu, Kec. Duren Sawit, Kota Jakarta Timur";MALUKU;13430;Indonesia;081380198765;;;-62.415.002;106.898.252;https://maps.google.com/?cid=0x0:0x14881c3efe91f0c6;
cafe;cafe;Bulaf Cafe  Lounge;"7 RW.9, RT.7/RW.9, Pancoran, South Jakarta City, Jakarta 12780";"RT.7/RW.9, Pancoran, South Jakarta City";MALUKU;12780;Indonesia;08111311848;;;-62.487.301;1.068.441.989;https://maps.google.com/?cid=0x0:0x204ac17a8da3617b;
cafe;cafe;Kec. Seram Tim.;"Kabupaten Seram Bagian Timur, Maluku";"Kabupaten Seram Bagian Timur, Maluku";MALUKU;;Indonesia;;;;-38.324.657;1.308.204.099;https://maps.google.com/?cid=0x0:0x70947c7ca6669763;
cafe;Kedai Kopi;Cafe;"8FQ3+R7C, Kilmury, Kec. Seram Tim., Kabupaten Seram Bagian Timur, Maluku";"Kabupaten Seram Bagian Timur, Maluku";MALUKU;;Indonesia;;;;-36.606.512;1.304.536.624;https://maps.google.com/?cid=0x0:0x7fa6045f30bf3ad9;
cafe;cafe;Tampa Kumpul ANGKATAN;"Dusun Lomin, Geser, Kec. Seram Tim., Kabupaten Seram Bagian Timur, Maluku 97594";"Geser, Kec. Seram Tim., Kabupaten Seram Bagian Timur";MALUKU;97594;Indonesia;081391365254;;;-3.885.392;1.308.958.729;https://maps.google.com/?cid=0x0:0xe7d2926797ec7108;
cafe;Kafe;Forganza Resto  Cafe;"Kelanit, Kec. Kei Kecil, Kabupaten Maluku Tenggara, Maluku";"Kabupaten Maluku Tenggara, Maluku";MALUKU;;Indonesia;082231789845;;;-56.575.049;1.327.029.619;https://maps.google.com/?cid=0x0:0x35e7e74d6d2279bc;
cafe;Sarapan;Nasi Kuning Mama Na;"4WC2+G7H, Geser, Kec. Seram Tim., Kabupaten Seram Bagian Timur, Maluku";"Kabupaten Seram Bagian Timur, Maluku";MALUKU;;Indonesia;;;;-38.788.901;1.309.005.889;https://maps.google.com/?cid=0x0:0x7c5bea629684d486;
cafe;Brunch;Warung Nasi Kuning Mama Em;"8F4F+6FC, Kilmury, Kec. Seram Tim., Kabupaten Seram Bagian Timur, Maluku";"Kabupaten Seram Bagian Timur, Maluku";MALUKU;;Indonesia;;;;-36.944.473;1.304.736.539;https://maps.google.com/?cid=0x0:0xc97fffbece756864;
cafe;Restoran;rumah makan rezky nur;"4WC2+GG4, Geser, Kec. Seram Tim., Kabupaten Seram Bagian Timur, Maluku";"Kabupaten Seram Bagian Timur, Maluku";MALUKU;;Indonesia;;;;-38.787.443;1.309.013.211;https://maps.google.com/?cid=0x0:0xba9b1fc35a03c1aa;
cafe;Kedai Kopi;Jom Coffee;"Jl. Kayu Putih Raya. 20, Jl. Kayu Putih Raya No.20, RT.4/RW.1, Kayu Putih, Kec. Pulo Gadung, Kota Jakarta Timur, Daerah Khusus Ibukota Jakarta 13210";"Jl. Kayu Putih Raya No.20, RT.4/RW.1, Kayu Putih, Kec. Pulo Gadung, Kota Jakarta Timur";MALUKU;13210;Indonesia;085887602130;;;-61.882.182;1.068.909.616;https://maps.google.com/?cid=0x0:0x3d3abe4721a8a2a0;
cafe;Kedai Kopi;SamPan Cafe;"3, Jl. Villa Jatipadang No.52, Kota Jakarta Selatan, Daerah Khusus Ibukota Jakarta 12540";"Jl. Villa Jatipadang No.52, Kota Jakarta Selatan";MALUKU;12540;Indonesia;088905791880;;;-6.296.687;1.068.322.504;https://maps.google.com/?cid=0x0:0x60cb329f4570c19e;
cafe;Kedai Kopi;Tigalima - Coffee  Kitchen;"Jalan K.H. Wahid Hasyim No.35 RT.016/RW.006 Gondangdia Menteng, RT.16/RW.6, Kb. Sirih, Jakarta, Kota Jakarta Pusat, Daerah Khusus Ibukota Jakarta 10350";"RT.16/RW.6, Kb. Sirih, Jakarta, Kota Jakarta Pusat";MALUKU;10350;Indonesia;;;;-6.186.987;106.830.715;https://maps.google.com/?cid=0x0:0xf8871501d38faea;
cafe;Kedai Kopi;Coffee 31 Menteng;"Jl. Dr. GSSJ Ratulangi No.31 2, RT.2/RW.3, Gondangdia, Kec. Menteng, Kota Jakarta Pusat, Daerah Khusus Ibukota Jakarta 10350";"RT.2/RW.3, Gondangdia, Kec. Menteng, Kota Jakarta Pusat";MALUKU;10350;Indonesia;;;;-61.912.948;1.068.298.039;https://maps.google.com/?cid=0x0:0x2c03957699608151;
cafe;Kafe;ROCKET CAFE FATMAWATI;"Gedung DKM Lantai Rooftop, Jl. RS. Fatmawati Raya No.01, Cilandak Bar., Kec. Cilandak, Kota Jakarta Selatan, Daerah Khusus Ibukota Jakarta 12340";"Jl. RS. Fatmawati Raya No.01, Cilandak Bar., Kec. Cilandak, Kota Jakarta Selatan";MALUKU;12340;Indonesia;081280607089;;;-629.045;1.067.950.872;https://maps.google.com/?cid=0x0:0xf763dbdd925957f8;
cafe;Restoran;TEMOE TEMAN MAKAN;"No. 9j, Jl. Arjuna Utara, RT.8/RW.1, Duri Kepa, Kec. Kb. Jeruk, Kota Jakarta Barat, Daerah Khusus Ibukota Jakarta 11510";"Jl. Arjuna Utara, RT.8/RW.1, Duri Kepa, Kec. Kb. Jeruk, Kota Jakarta Barat";MALUKU;11510;Indonesia;087818133381;;;-61.892.733;1.067.705.276;https://maps.google.com/?cid=0x0:0xdb8396e907197879;
cafe;cafe;Werinama;"Kabupaten Seram Bagian Timur, Maluku";"Kabupaten Seram Bagian Timur, Maluku";MALUKU;;Indonesia;;;;-34.233.267;1.302.271.243;https://maps.google.com/?cid=0x0:0x5d34ed8352394a25;
cafe;Dapur Umum;Abdul Somad cafe;"Maluku no, RW.8, Atiahu, Werinama, Kabupaten Seram Bagian Timur, Maluku";"Kabupaten Seram Bagian Timur, Maluku";MALUKU;;Indonesia;0812141777713;;;-32.384.616;1.301.452.734;https://maps.google.com/?cid=0x0:0x6684c65a41d86951;
cafe;Inspektur Tempat Tinggal;Roof coffe;"H6GG+MR9, Hatumeten, Werinama, Kabupaten Seram Bagian Timur, Maluku";"Kabupaten Seram Bagian Timur, Maluku";MALUKU;;Indonesia;;;;-34.233.267;1.302.271.243;https://maps.google.com/?cid=0x0:0xdc1096059fa4ac2c;
cafe;Komplek perumahan;Toko Malukutoto;"Jalan , maluku, Atiahu, Werinama, Kabupaten Seram Bagian Timur, Maluku 97541";"maluku, Atiahu, Werinama, Kabupaten Seram Bagian Timur";MALUKU;97541;Indonesia;087831442252;;;-32.430.007;1.301.439.476;https://maps.google.com/?cid=0x0:0x4ed8e7abf4144d07;
cafe;Kedai Kopi;Cafe;"8FQ3+R7C, Kilmury, Kec. Seram Tim., Kabupaten Seram Bagian Timur, Maluku";"Kabupaten Seram Bagian Timur, Maluku";MALUKU;;Indonesia;;;;-36.606.512;1.304.536.624;https://maps.google.com/?cid=0x0:0x7fa6045f30bf3ad9;
cafe;Rumah Makan;Restoran Seafood 88 Poka;"Q46W+J46, Atiahu, Werinama, Kabupaten Seram Bagian Timur, Maluku";"Kabupaten Seram Bagian Timur, Maluku";MALUKU;;Indonesia;082397929174;;;-32.384.616;1.301.452.734;https://maps.google.com/?cid=0x0:0x5eb3f2c9ba59dbb2;
cafe;Rumah Makan;Arema Rumah Makan;"Q46W+J4X, JL. Leo Wattimena Passo, Atiahu, Werinama, Kabupaten Seram Bagian Timur, Maluku";"Kabupaten Seram Bagian Timur, Maluku";MALUKU;;Indonesia;0911361370;;;-3.238.383;130.145.366;https://maps.google.com/?cid=0x0:0xd93bbcd372a096a0;
cafe;cafe;Pulau Gorong;"Kabupaten Seram Bagian Timur, Maluku";"Kabupaten Seram Bagian Timur, Maluku";MALUKU;;Indonesia;;;;-4.011.202;1.314.112.125;https://maps.google.com/?cid=0x0:0x3b60b40247d61e16;
cafe;Toko umum;RF Coffee Shop;"293H+WJV, Kataloka, Kec. Pulau Gorom, Kabupaten Seram Bagian Timur, Maluku";"Kabupaten Seram Bagian Timur, Maluku";MALUKU;;Indonesia;;;;-39.951.467;1.313.795.908;https://maps.google.com/?cid=0x0:0xcf26ba2fc220f8fe;
cafe;cafe;PERCETAKAN DAN PHOTOCOPY ANISA;"X9XM+X2G, Ondor, Kec. Pulau Gorom, Kabupaten Seram Bagian Timur, Maluku";"Kabupaten Seram Bagian Timur, Maluku";MALUKU;;Indonesia;;;;-40.000.663;1.313.825.899;https://maps.google.com/?cid=0x0:0x1fb173fd02a2163c;
cafe;cafe;Rio warteg;"WCV7+M74, Mida, Kec. Pulau Gorom, Kabupaten Seram Bagian Timur, Maluku";"Kabupaten Seram Bagian Timur, Maluku";MALUKU;;Indonesia;;;;-40.551.813;1.314.130.611;https://maps.google.com/?cid=0x0:0x98b3866679704280;
cafe;Kios;Ok;"Kataloka, Gorom, Kabupaten Seram Bagian Timur, Maluku";"Kabupaten Seram Bagian Timur, Maluku";MALUKU;;Indonesia;081360246169;;;-39.910.155;1.313.783.419;https://maps.google.com/?cid=0x0:0xf70f836a7a579deb;
cafe;cafe;AFIQ PLAYSTATION 3 DAN 4;"WCVR+RMF, Amarwawatu, Kec. Gorom Timur, Kabupaten Seram Bagian Timur, Maluku";"Kabupaten Seram Bagian Timur, Maluku";MALUKU;;Indonesia;085220240797;;;-40.552.489;131.440.997;https://maps.google.com/?cid=0x0:0x4e0e122aaf49aee8;
cafe;cafe;Nasi kuning mama nur;"295H+329, Ondor, Kec. Pulau Gorom, Kabupaten Seram Bagian Timur, Maluku";"Kabupaten Seram Bagian Timur, Maluku";MALUKU;;Indonesia;081389141099;;;-39.924.212;1.313.777.773;https://maps.google.com/?cid=0x0:0x4c7a388bab25bca3;
cafe;Kafe;Cerita Senja Cafe;"85QG+72, Rumah Tiga, Kec. Tlk. Ambon, Kota Ambon, Maluku";"Kota Ambon, Maluku";MALUKU;;Indonesia;;;;-36.618.372;1.281.749.931;https://maps.google.com/?cid=0x0:0xb7502dc88c359;
cafe;cafe;Kec. Wakate;"Kabupaten Seram Bagian Timur, Maluku";"Kabupaten Seram Bagian Timur, Maluku";MALUKU;;Indonesia;;;;-45.139.238;1.316.542.349;https://maps.google.com/?cid=0x0:0x5b89d23106f26061;
cafe;Kedai Kopi;Wakafé;"Jl. Cisanggiri V No.6, Petogogan, Kec. Kby. Baru, Kota Jakarta Selatan, Daerah Khusus Ibukota Jakarta 12170";"Petogogan, Kec. Kby. Baru, Kota Jakarta Selatan";MALUKU;12170;Indonesia;0813808824015;;;-62.406.783;1.068.121.199;https://maps.google.com/?cid=0x0:0xaf2a50d9274979b8;
cafe;cafe;Warung Umi Musa'ad. Rumauw;"GM29+HC, Tamher Warat, Kec. Wakate, Kabupaten Seram Bagian Timur, Maluku";"Kabupaten Seram Bagian Timur, Maluku";MALUKU;;Indonesia;;;;-44.986.153;1.316.685.234;https://maps.google.com/?cid=0x0:0x74f77d4a7bfaa0e9;
cafe;Kafe;Forganza Resto  Cafe;"Kelanit, Kec. Kei Kecil, Kabupaten Maluku Tenggara, Maluku";"Kabupaten Maluku Tenggara, Maluku";MALUKU;;Indonesia;082231789845;;;-56.575.049;1.327.029.619;https://maps.google.com/?cid=0x0:0x35e7e74d6d2279bc;
cafe;Kedai Kopi;Wastu Coffee;"Jl. Al-Falah No.16, RT.04/RW.05, Harapan Jaya, Kec. Cibinong, Kabupaten Bogor, Jawa Barat 16914";"RT.04/RW.05, Harapan Jaya, Kec. Cibinong, Kabupaten Bogor";MALUKU;16914;Indonesia;085179818373;;;-64.583.122;1.068.399.868;https://maps.google.com/?cid=0x0:0xc845ccdfc57de563;
cafe;Dapur Umum;Warung Wa Ker;"Jl. Cakung Drainase No.28 8, RT.8/RW.3, Semper Tim., Kec. Cilincing, Jkt Utara, Daerah Khusus Ibukota Jakarta 14130";"RT.8/RW.3, Semper Tim., Kec. Cilincing, Jkt Utara";MALUKU;14130;Indonesia;;;;-61.296.585;1.069.400.503;https://maps.google.com/?cid=0x0:0x5271aa5d0296d024;
cafe;Kafe;Caffe Wakwaw;"QMPQ+F23, Jl. Pinang-Kunciran, RT.001/RW.003, Pinang, Kec. Pinang, Kota Tangerang, Banten 15145";"Jl. Pinang-Kunciran, RT.001/RW.003, Pinang, Kec. Pinang, Kota Tangerang";MALUKU;15145;Indonesia;083870615669;;;-6.213.873;106.687.539;https://maps.google.com/?cid=0x0:0x878562bee901e885;
cafe;Kedai Kopi;Warung Wakwaw;"VV9Q+CPH, Jl. Jati IX, RT.8/RW.9, Sungai Bambu, Kec. Tj. Priok, Jkt Utara, Daerah Khusus Ibukota Jakarta 14330";"Jl. Jati IX, RT.8/RW.9, Sungai Bambu, Kec. Tj. Priok, Jkt Utara";MALUKU;14330;Indonesia;;;;-61.314.274;106.889.367;https://maps.google.com/?cid=0x0:0x270a81d4c0fe1732;
cafe;Kedai Kopi;Hot Road Cafe Vintage;"Jl. Raden Saleh No.49, RT.5/RW.005, Karang Mulya, Kec. Karang Tengah, Kota Tangerang, Banten 15157";"RT.5/RW.005, Karang Mulya, Kec. Karang Tengah, Kota Tangerang";MALUKU;15157;Indonesia;;;;-61.981.183;1.067.222.868;https://maps.google.com/?cid=0x0:0xf3719c33e2991a09;
cafe;cafe;cafe wakwaw;"blok D2, Jl. Kramat Jaya Baru, RT.2/RW.10, Johar Baru, Kec. Johar Baru, Kota Jakarta Pusat, Daerah Khusus Ibukota Jakarta 10560";"Jl. Kramat Jaya Baru, RT.2/RW.10, Johar Baru, Kec. Johar Baru, Kota Jakarta Pusat";MALUKU;10560;Indonesia;;;;-61.823.225;1.068.540.493;https://maps.google.com/?cid=0x0:0x1b4488a9ec67cb4a;
cafe;cafe;Kec. Tutuk Tolu;"Kabupaten Seram Bagian Timur, Maluku";"Kabupaten Seram Bagian Timur, Maluku";MALUKU;;Indonesia;;;;-35.511.893;1.308.594.177;https://maps.google.com/?cid=0x0:0x66cd00a169ac09c7;
cafe;Nasi;Warung Makan Matelas Mandiri;"Desa Air Kasar, Kec. Tutuk Tolu, Maluku";"Kabupaten Seram Bagian Timur, Maluku";MALUKU;;Indonesia;081266535311;;;-35.506.331;1.308.570.203;https://maps.google.com/?cid=0x0:0x9cd92a7c67eaaf33;
cafe;Kedai Kopi;Kopi Tuli (KOPTUL);"Jl. Tebet Raya No.46, Tebet Tim., Kec. Tebet, Kota Jakarta Selatan, Daerah Khusus Ibukota Jakarta 12820";"Tebet Tim., Kec. Tebet, Kota Jakarta Selatan";MALUKU;12820;Indonesia;08118554888;;;-62.293.534;1.068.538.125;https://maps.google.com/?cid=0x0:0xccf477bf123fff62;
cafe;Sarapan;Nasi Kuning dan Pisang Ijo Mama La;"Negeri, Airkasar, Kec. Tutuk Tolu, Kabupaten Seram Bagian Timur, Maluku";"Kabupaten Seram Bagian Timur, Maluku";MALUKU;;Indonesia;085254413335;;;-35.507.978;1.308.572.761;https://maps.google.com/?cid=0x0:0xc6b9b3e524890b9f;
cafe;Kafe;Forganza Resto  Cafe;"Kelanit, Kec. Kei Kecil, Kabupaten Maluku Tenggara, Maluku";"Kabupaten Maluku Tenggara, Maluku";MALUKU;;Indonesia;082231789845;;;-56.575.049;1.327.029.619;https://maps.google.com/?cid=0x0:0x35e7e74d6d2279bc;
cafe;cafe;Tabulik Coffee Shop;"CVX4+JXJ, Jln. Lintas seram, Negeri, Airkasar, Kec. Tutuk Tolu, Kabupaten Seram Bagian Timur, Maluku";"Kabupaten Seram Bagian Timur, Maluku";MALUKU;;Indonesia;;;;-3.550.901;1.308.573.791;https://maps.google.com/?cid=0x0:0x71c0db6575b03f14;
cafe;cafe;Warung Dua Putra;"FV24+3QR Negeri, Airkasar, Kec. Tutuk Tolu, Kabupaten Seram Bagian Timur";Kabupaten Seram Bagian Timur;MALUKU;;Indonesia;;;;-35.497.707;1.308.568.933;https://maps.google.com/?cid=0x0:0x3a558ae83b606947;
cafe;cafe;Maluku;;Maluku;MALUKU;;Indonesia;;;;-32.384.616;1.301.452.734;https://maps.google.com/?cid=0x0:0x5e30e8db04649a51;
cafe;Restoran;Wailela Cafe and Resto | Ambon;"Jl. Kampus, Rumah Tiga, Kec. Tlk. Ambon, Kota Ambon, Maluku";"Kota Ambon, Maluku";MALUKU;;Indonesia;082399522113;;;-36.610.624;128.180.609;https://maps.google.com/?cid=0x0:0x3acbc85ce4ef2d6d;
cafe;Pempek;Warung SS;"233M+H42, Jl. Lintas Seram, Horale, Kec. Seram Utara, Kabupaten Maluku Tengah, Maluku";"Kabupaten Maluku Tengah, Maluku";MALUKU;;Indonesia;;;;-29.961.104;1.290.827.501;https://maps.google.com/?cid=0x0:0x345808edd1f7b933;
cafe;Restoran;Kedai Es Ilayka;"Waimital, Kec. Kairatu, Kabupaten Seram Bagian Barat, Maluku";"Kabupaten Seram Bagian Barat, Maluku";MALUKU;;Indonesia;082131185891;;;-33.319.674;1.283.526.299;https://maps.google.com/?cid=0x0:0x7a24b16ab14a6b9f;
cafe;Kafe;Forganza Resto  Cafe;"Kelanit, Kec. Kei Kecil, Kabupaten Maluku Tenggara, Maluku";"Kabupaten Maluku Tenggara, Maluku";MALUKU;;Indonesia;082231789845;;;-56.575.049;1.327.029.619;https://maps.google.com/?cid=0x0:0x35e7e74d6d2279bc;
cafe;Rumah Makan;CAFE MABAR;"6F4W+5JG, Wahai, Kec. Seram Utara, Kabupaten Maluku Tengah, Maluku";"Kabupaten Maluku Tengah, Maluku";MALUKU;;Indonesia;082329570662;;;-27.948.994;1.294.974.583;https://maps.google.com/?cid=0x0:0xb47bcd02f9ceb1ab;
cafe;Dapur Umum;Abdul Somad cafe;"Maluku no, RW.8, Atiahu, Werinama, Kabupaten Seram Bagian Timur, Maluku";"Kabupaten Seram Bagian Timur, Maluku";MALUKU;;Indonesia;0812141777713;;;-32.384.616;1.301.452.734;https://maps.google.com/?cid=0x0:0x6684c65a41d86951;
cafe;Brunch;Walang gorengan umi nailah;"HMMR+H4W, Latu, Kec. Amalatu, Kabupaten Seram Bagian Barat, Maluku";"Kabupaten Seram Bagian Barat, Maluku";MALUKU;;Indonesia;082238982466;;;-34.160.032;1.286.903.437;https://maps.google.com/?cid=0x0:0xc57207414a07ea52;
cafe;Kedai Kopi;SAMA-SAMA COFFEE;"F697+MG2, Morela, Kec. Leihitu, Kabupaten Maluku Tengah, Maluku";"Kabupaten Maluku Tengah, Maluku";MALUKU;;Indonesia;;;;-35.308.617;1.282.137.746;https://maps.google.com/?cid=0x0:0xdc7f81baa9b812ee;
cafe;Dapur Umum;"Tomollo Rizky-Vikry Cafe, Latu";"HM98+7V6, Tomalehu, Kec. Amalatu, Kabupaten Seram Bagian Barat, Maluku";"Kabupaten Seram Bagian Barat, Maluku";MALUKU;;Indonesia;081240733356;;;-3.431.845;1.286.671.427;https://maps.google.com/?cid=0x0:0x6b475872c430db2f;
cafe;Kedai Kopi;Cafe Chalalerang"";"M2X8+R73, Savanajaya, Kec. Waeapo, Kabupaten Buru, Maluku";"Kabupaten Buru, Maluku";MALUKU;;Indonesia;08219918183;;;-33.004.751;1.270.156.699;https://maps.google.com/?cid=0x0:0x26b59f4fbfad1282;
cafe;Kedai Kopi;Kedai  CIRCLE KITA "";"WF6P+JCF, Bula, Kec. Bula, Kabupaten Seram Bagian Timur, Maluku";"Kabupaten Seram Bagian Timur, Maluku";MALUKU;;Indonesia;081346532744;;;-3.088.624;1.304.863.702;https://maps.google.com/?cid=0x0:0x92d4022b930aad01;
cafe;Indonesia;VOILA DESSERT  EATERY;"Jl. Jend. A Yani, Kel Batu Meja, Kec. Sirimau, Kota Ambon, Maluku 97125";"Kel Batu Meja, Kec. Sirimau, Kota Ambon";MALUKU;97125;Indonesia;082229911005;;;-369.803;128.185.768;https://maps.google.com/?cid=0x0:0x263c84f16d8e6461;
cafe;Rumah Makan;CAFE DAN KEDAI MAKAN BUNDA;"W5HW+CVF, Piru, Kec. Seram Bar., Kabupaten Seram Bagian Barat, Maluku";"Kabupaten Seram Bagian Barat, Maluku";MALUKU;;Indonesia;082199188114;;;-30.714.344;1.281.971.814;https://maps.google.com/?cid=0x0:0x6070410c5eff9bd8;
cafe;Kedai Kopi;Walang sopibel;"M953+84M, Kairatu, Kec. Kairatu, Kabupaten Seram Bagian Barat, Maluku";"Kabupaten Seram Bagian Barat, Maluku";MALUKU;;Indonesia;;;;-3.341.675;128.352.798;https://maps.google.com/?cid=0x0:0x5b197c1ebeca5d59;
cafe;Rumah Makan;WM. Sherin Lala;"XWRM+5H5, Wailoping, Kec. Seram Utara Tim. Seti, Kabupaten Maluku Tengah, Maluku";"Kabupaten Maluku Tengah, Maluku";MALUKU;;Indonesia;;;;-30.097.402;1.299.340.324;https://maps.google.com/?cid=0x0:0x66a83470928e78ed;
cafe;Kedai Kopi;WTG (WALANG TAMPA GARAM);"6F3W+JJ6, Wahai, Kec. Seram Utara, Kabupaten Maluku Tengah, Maluku";"Kabupaten Maluku Tengah, Maluku";MALUKU;;Indonesia;;;;-27.961.483;129.496.446;https://maps.google.com/?cid=0x0:0x4aaefb70bc1350ea;
cafe;Kafe;Cafe Pelangi;"Jl. Kapiten Yongke Jl. Soa Bali, Kel Silale, Kec. Nusaniwe, Kota Ambon, Maluku";"Kota Ambon, Maluku";MALUKU;;Indonesia;082190524225;;;-36.994.864;1.281.767.123;https://maps.google.com/?cid=0x0:0x7b28c73d8bc48668;
cafe;Dapur Umum;Siluman perbatasan;"XFMP+8HP, Kanikeh, Kec. Seram Utara, Kabupaten Maluku Tengah, Maluku";"Kabupaten Maluku Tengah, Maluku";MALUKU;;Indonesia;082198897218;;;-30.166.501;1.294.864.411;https://maps.google.com/?cid=0x0:0xae0dee80d3148875;
cafe;Kedai Kopi;Warung somay;"P93R+F4V, Waimital, Kec. Kairatu, Kabupaten Seram Bagian Barat, Maluku";"Kabupaten Seram Bagian Barat, Maluku";MALUKU;;Indonesia;;;;-32.962.591;1.283.903.087;https://maps.google.com/?cid=0x0:0x4fd1b71eb1c14ded;
cafe;Kafe;Cerita Senja Cafe;"85QG+72, Rumah Tiga, Kec. Tlk. Ambon, Kota Ambon, Maluku";"Kota Ambon, Maluku";MALUKU;;Indonesia;;;;-36.618.372;1.281.749.931;https://maps.google.com/?cid=0x0:0xb7502dc88c359;
cafe;Kedai Kopi;Kedai 3 saudara;"WF5P+VP9, Bula, Kec. Bula, Kabupaten Seram Bagian Timur, Maluku";"Kabupaten Seram Bagian Timur, Maluku";MALUKU;;Indonesia;;;;-30.902.722;1.304.868.612;https://maps.google.com/?cid=0x0:0x85ad87e861f34806;
cafe;Restoran;RIJZEN CAFE  EATERY;"9792+JV8, Passo, Kec. Baguala, Kota Ambon, Maluku";"Kota Ambon, Maluku";MALUKU;;Indonesia;08114722204;;;-36.309.924;1.282.521.755;https://maps.google.com/?cid=0x0:0x7e5754a82fd98d7;
cafe;Kafe;Four Palms Cafe;"Jl. Raja, Halong, Baru Atas, Kota Ambon, Maluku";"Kota Ambon, Maluku";MALUKU;;Indonesia;0811470599;;;-36.551.658;1.282.342.334;https://maps.google.com/?cid=0x0:0x3116d9e359ad016b;
cafe;Toko umum;Kedai Lawataka;"HMVR+9GH, Jl. Trans Seram, Hualoy, Kec. Amalatu, Kabupaten Seram Bagian Barat, Maluku";"Kabupaten Seram Bagian Barat, Maluku";MALUKU;;Indonesia;;;;-34.066.686;1.286.912.344;https://maps.google.com/?cid=0x0:0x70df753b182f43d0;
cafe;Kedai Kopi;Matalawang.co - Coffee  Eatery -;"MXW8+MF5, Jl Kali Durian, Namaelo, Kec. Kota Masohi, Kabupaten Maluku Tengah, Maluku 97511";"Jl Kali Durian, Namaelo, Kec. Kota Masohi, Kabupaten Maluku Tengah";MALUKU;97511;Indonesia;082198941992;;;-33.035.012;128.966.264;https://maps.google.com/?cid=0x0:0xf820018fea300d3f;
cafe;cafe;KAFE CALISTA;"M964+6HW, TIRTOULYO, Waimital, Kec. Kairatu, Kabupaten Seram Bagian Barat, Maluku";"Kabupaten Seram Bagian Barat, Maluku";MALUKU;;Indonesia;082210266758;;;-33.393.885;1.283.564.568;https://maps.google.com/?cid=0x0:0x8d8be17dcf5fde29;
cafe;Kios;Bella Suatrean;"4GXX+7CH, Kasie, Kec. Taniwel, Kabupaten Seram Bagian Barat, Maluku";"Kabupaten Seram Bagian Barat, Maluku";MALUKU;;Indonesia;;;;-28.518.229;1.285.486.118;https://maps.google.com/?cid=0x0:0x1a4cc7379d959021;
cafe;Kedai Kopi;Hot Road Cafe Vintage;"Jl. Raden Saleh No.49, RT.5/RW.005, Karang Mulya, Kec. Karang Tengah, Kota Tangerang, Banten 15157";"RT.5/RW.005, Karang Mulya, Kec. Karang Tengah, Kota Tangerang";MALUKU;15157;Indonesia;;;;-61.981.183;1.067.222.868;https://maps.google.com/?cid=0x0:0xf3719c33e2991a09;
cafe;Kedai Kopi;Cafe;"8FQ3+R7C, Kilmury, Kec. Seram Tim., Kabupaten Seram Bagian Timur, Maluku";"Kabupaten Seram Bagian Timur, Maluku";MALUKU;;Indonesia;;;;-36.606.512;1.304.536.624;https://maps.google.com/?cid=0x0:0x7fa6045f30bf3ad9;
cafe;Kedai Kopi;Kedai Kopi;"HMVC+FG8, Belis, Kec. Bula, Kabupaten Seram Bagian Timur, Maluku";"Kabupaten Seram Bagian Timur, Maluku";MALUKU;;Indonesia;;;;-34.063.068;130.671.313;https://maps.google.com/?cid=0x0:0xa6997bc6e632da4e;
cafe;Kedai Kopi;Koultoura Coffee;"Jl. Ciniru I No.1, Rw. Bar., Kec. Kby. Baru, Jakarta, Daerah Khusus Ibukota Jakarta 12180";"Rw. Bar., Kec. Kby. Baru, Jakarta";MALUKU;12180;Indonesia;081286869082;;;-62.355.801;1.068.110.022;https://maps.google.com/?cid=0x0:0x4599600ab8419ed2;
cafe;Kafe;Kuru A Coffee Shop;"D Jl. Panglima Polim No.127, RT.2/RW.1, Pulo, Kebayoran Baru, South Jakarta City, Jakarta 12160";"RT.2/RW.1, Pulo, Kebayoran Baru, South Jakarta City";MALUKU;12160;Indonesia;;;;-62.553.556;1.067.977.956;https://maps.google.com/?cid=0x0:0xe414169e676fd8d2;
cafe;Kedai Kopi;Koultoura Kemang;"Jl. Kemang I No.10A-B, RT.10/RW.1, Bangka, Kec. Mampang Prpt., Kota Jakarta Selatan, Daerah Khusus Ibukota Jakarta 12730";"RT.10/RW.1, Bangka, Kec. Mampang Prpt., Kota Jakarta Selatan";MALUKU;12730;Indonesia;08170575815;;;-62.575.089;1.068.131.831;https://maps.google.com/?cid=0x0:0xf911a77d86b7f70c;
cafe;Kedai Kopi;Caffe Love Story Waemitena;"JXJR+C6M, Luhu, Kec. Huamual Belakang, Kabupaten Seram Bagian Barat, Maluku";"Kabupaten Seram Bagian Barat, Maluku";MALUKU;;Indonesia;;;;-33.689.045;1.279.905.372;https://maps.google.com/?cid=0x0:0xd3e0534722fd1f67;
cafe;Kedai Kopi;Four Senja;"VW4F+563, Waesala, Kabupaten Seram Bagian Barat, Maluku";"Kabupaten Seram Bagian Barat, Maluku";MALUKU;;Indonesia;;;;-31.446.234;1.279.230.475;https://maps.google.com/?cid=0x0:0x445d09832bc90519;
cafe;Kafe;Kedai minuman teory drink indonesia;"Jl. Kebon Kelapa No.39, Tambun, Kec. Tambun Sel., Kabupaten Bekasi, Jawa Barat 17510";"Tambun, Kec. Tambun Sel., Kabupaten Bekasi";MALUKU;17510;Indonesia;082125631701;;;-62.654.429;1.070.682.035;https://maps.google.com/?cid=0x0:0x9c9e5d911895e6d2;
cafe;Toko umum;RF Coffee Shop;"293H+WJV, Kataloka, Kec. Pulau Gorom, Kabupaten Seram Bagian Timur, Maluku";"Kabupaten Seram Bagian Timur, Maluku";MALUKU;;Indonesia;;;;-39.951.467;1.313.795.908;https://maps.google.com/?cid=0x0:0xcf26ba2fc220f8fe;
cafe;cafe;Kec. Gorom Timur;"Kabupaten Seram Bagian Timur, Maluku";"Kabupaten Seram Bagian Timur, Maluku";MALUKU;;Indonesia;;;;-39.797.121;1.314.112.125;https://maps.google.com/?cid=0x0:0xaee5fbc2b0124a41;
cafe;cafe;KEMBAR HOTSPOT;"WCV7+99X, Mida, Kec. Pulau Gorom, Kabupaten Seram Bagian Timur, Maluku";"Kabupaten Seram Bagian Timur, Maluku";MALUKU;;Indonesia;;;;-40.571.665;1.314.144.089;https://maps.google.com/?cid=0x0:0xa086b3bcab12707d;
cafe;Kafe;Forganza Resto  Cafe;"Kelanit, Kec. Kei Kecil, Kabupaten Maluku Tenggara, Maluku";"Kabupaten Maluku Tenggara, Maluku";MALUKU;;Indonesia;082231789845;;;-56.575.049;1.327.029.619;https://maps.google.com/?cid=0x0:0x35e7e74d6d2279bc;
cafe;cafe;AFIQ PLAYSTATION 3 DAN 4;"WCVR+RMF, Amarwawatu, Kec. Gorom Timur, Kabupaten Seram Bagian Timur, Maluku";"Kabupaten Seram Bagian Timur, Maluku";MALUKU;;Indonesia;085220240797;;;-40.552.489;131.440.997;https://maps.google.com/?cid=0x0:0x4e0e122aaf49aee8;
cafe;Kafe;HOME_HOPE;"3RC2+PX6, Kobi Mukti, Kec. Seram Utara Tim. Kobi, Kabupaten Maluku Tengah, Maluku";"Kabupaten Maluku Tengah, Maluku";MALUKU;;Indonesia;085254838444;;;-2.928.209;1.298.024.046;https://maps.google.com/?cid=0x0:0x647a04d7162ed91c;
cafe;cafe;PERCETAKAN DAN PHOTOCOPY ANISA;"X9XM+X2G, Ondor, Kec. Pulau Gorom, Kabupaten Seram Bagian Timur, Maluku";"Kabupaten Seram Bagian Timur, Maluku";MALUKU;;Indonesia;;;;-40.000.663;1.313.825.899;https://maps.google.com/?cid=0x0:0x1fb173fd02a2163c;
cafe;cafe;Rio warteg;"WCV7+M74, Mida, Kec. Pulau Gorom, Kabupaten Seram Bagian Timur, Maluku";"Kabupaten Seram Bagian Timur, Maluku";MALUKU;;Indonesia;;;;-40.551.813;1.314.130.611;https://maps.google.com/?cid=0x0:0x98b3866679704280;
cafe;Kafe;Cerita Senja Cafe;"85QG+72, Rumah Tiga, Kec. Tlk. Ambon, Kota Ambon, Maluku";"Kota Ambon, Maluku";MALUKU;;Indonesia;;;;-36.618.372;1.281.749.931;https://maps.google.com/?cid=0x0:0xb7502dc88c359;
cafe;Kafe;Four Palms Cafe;"Jl. Raja, Halong, Baru Atas, Kota Ambon, Maluku";"Kota Ambon, Maluku";MALUKU;;Indonesia;0811470599;;;-36.551.658;1.282.342.334;https://maps.google.com/?cid=0x0:0x3116d9e359ad016b;
cafe;Kedai Kopi;GOSPEL Cafe  Resto;"Siwalima, Kec. Pulau-Pulau Aru, Kabupaten Kepulauan Aru, Maluku 97662";"Kec. Pulau-Pulau Aru, Kabupaten Kepulauan Aru";MALUKU;97662;Indonesia;082239884671;;;-57.746.617;134.210.218;https://maps.google.com/?cid=0x0:0xa10d26e691897360;
cafe;Kafe;INFINITY CAFE  EATERY;"85CV+M7G, Pandan Kasturi, Kec. Sirimau, Kota Ambon, Maluku";"Kota Ambon, Maluku";MALUKU;;Indonesia;081241568878;;;-36.783.317;1.281.931.931;https://maps.google.com/?cid=0x0:0x619ec9a16acc810f;
cafe;Kafe;Jarod Cafe;"Q9MM+C8M, Jl. Stadion, Stadion, Kec. Ternate Tengah, Kota Ternate, Maluku Utara";"Kota Ternate, Maluku Utara";MALUKU;;Indonesia;09213110098;;;0.783593;1.273.832.983;https://maps.google.com/?cid=0x0:0x110db354f85f7437;
cafe;Kedai Kopi;Root Coffee;"86F7+FXP, Batu Merah, Kec. Sirimau, Kota Ambon, Maluku";"Kota Ambon, Maluku";MALUKU;;Indonesia;082199252753;;;-36.762.982;1.282.149.452;https://maps.google.com/?cid=0x0:0xc1e9eaf334540c17;
cafe;Hidangan Laut;SMORGAN Resto;"PXJV+JGQ, Jl. Pemerintahan, depan KODIM, Halut, Mkcm, Tobelo, North Halmahera Regency, North Maluku";"Kabupaten Halmahera Utara, Maluku Utara";MALUKU;;Indonesia;085201115150;;;17.315.784;1.279.938.588;https://maps.google.com/?cid=0x0:0xd45d6fcd651f0c5c;
cafe;Toko;Toko Kopi Palma;"Lrg. Sagu Gg. 2, Kel Ahusen, Sirimau, Kota Ambon, Maluku";"Kota Ambon, Maluku";MALUKU;;Indonesia;;;;-36.997.642;1.281.829.544;https://maps.google.com/?cid=0x0:0xeeb09bdbc6d30e3;
cafe;Kafe;Gaek Coffee Idn;"Jl. AM Sangaji, Kel Honipopu, Kec. Sirimau, Kota Ambon, Maluku 97126";"Kel Honipopu, Kec. Sirimau, Kota Ambon";MALUKU;97126;Indonesia;082199755028;;;-36.976.287;1.281.791.853;https://maps.google.com/?cid=0x0:0xf27f68d2600d9e21;
cafe;Indonesia;OLina caferesto;"97H4+2QG, Passo, Kec. Baguala, Kota Ambon, Maluku";"Kota Ambon, Maluku";MALUKU;;Indonesia;082199231798;;;-36.225.066;1.282.574.029;https://maps.google.com/?cid=0x0:0xb19ebc731e4d5590;
cafe;Sarapan;Warkop sarminto jomblo;"W2WR+2PV, Unnamed Road, Aketernate, Kec. Seram Utara Tim. Seti, Kabupaten Maluku Tengah, Maluku";"Kabupaten Maluku Tengah, Maluku";MALUKU;;Indonesia;;;;-3.054.893;1.300.417.855;https://maps.google.com/?cid=0x0:0x9d08806bdf861f34;
cafe;Kedai Kopi;Lokarama Ambon #1 - Coffee  Music;"Jl. Diponegoro No.1, Kel Ahusen, Kec. Sirimau, Kota Ambon, Maluku";"Kota Ambon, Maluku";MALUKU;;Indonesia;;;;-36.984.328;1.281.803.163;https://maps.google.com/?cid=0x0:0x1ff86f8dbcef2496;
cafe;cafe;Tampa Kumpul ANGKATAN;"Dusun Lomin, Geser, Kec. Seram Tim., Kabupaten Seram Bagian Timur, Maluku 97594";"Geser, Kec. Seram Tim., Kabupaten Seram Bagian Timur";MALUKU;97594;Indonesia;081391365254;;;-3.885.392;1.308.958.729;https://maps.google.com/?cid=0x0:0xe7d2926797ec7108;
cafe;Kedai Kopi;Hot Road Cafe Vintage;"Jl. Raden Saleh No.49, RT.5/RW.005, Karang Mulya, Kec. Karang Tengah, Kota Tangerang, Banten 15157";"RT.5/RW.005, Karang Mulya, Kec. Karang Tengah, Kota Tangerang";MALUKU;15157;Indonesia;;;;-61.981.183;1.067.222.868;https://maps.google.com/?cid=0x0:0xf3719c33e2991a09;
cafe;Kedai Kopi;Curated Coffee Space;"8R5G+WR3 Lansot Lingkungan V Kecamatan Tomohon Selatan, Jl. Mandey, Lansot, Ling. V Tomohon, Kota Tomohon, Sulawesi Utara 95431";"Jl. Mandey, Lansot, Ling. V Tomohon, Kota Tomohon";MALUKU;95431;Indonesia;081258762898;;;13.098.125;1.248.270.625;https://maps.google.com/?cid=0x0:0x5a5e3b3cd71afd1c;
cafe;Kedai Kopi;Jordnära Cafe;"Ruko Paladium Golf Island Blok G No. 18-19, Golf Island, Jkt Utara, Daerah Khusus Ibukota Jakarta 14460";"Golf Island, Jkt Utara";MALUKU;14460;Indonesia;081999899913;;;-60.919.871;1.067.476.956;https://maps.google.com/?cid=0x0:0x5dadab1b11ebd789;
cafe;Kedai Kopi;Goffee Donuts  Coffee;"Jl. Wahid Hasyim, Ngropoh, Condongcatur, Kec. Depok, Kota Yogyakarta, Daerah Istimewa Yogyakarta 55281";"Ngropoh, Condongcatur, Kec. Depok, Kota Yogyakarta";MALUKU;55281;Indonesia;085946760740;;;-77.609.032;1.104.035.928;https://maps.google.com/?cid=0x0:0x21b4ab3879b9c008;
cafe;cafe;Nasi kuning mama nur;"295H+329, Ondor, Kec. Pulau Gorom, Kabupaten Seram Bagian Timur, Maluku";"Kabupaten Seram Bagian Timur, Maluku";MALUKU;;Indonesia;081389141099;;;-39.924.212;1.313.777.773;https://maps.google.com/?cid=0x0:0x4c7a388bab25bca3;
cafe;cafe;Kec. Bula Barat;"Kabupaten Seram Bagian Timur, Maluku";"Kabupaten Seram Bagian Timur, Maluku";MALUKU;;Indonesia;;;;-30.472.432;1.301.469.398;https://maps.google.com/?cid=0x0:0x12c29f15f276cac6;
cafe;Restoran;Bela Cafe;"WF5C+9F4, Jl. Wailola, Bula, Kec. Bula, Kabupaten Seram Bagian Timur, Maluku";"Kabupaten Seram Bagian Timur, Maluku";MALUKU;;Indonesia;081344141990;;;-30.916.236;1.304.712.029;https://maps.google.com/?cid=0x0:0xd10b839b7b3e76f1;
cafe;Kantor Perusahaan;Ambon Maluku Indonesia;"VC9J+HGC, Bula, Kec. Bula, Kabupaten Seram Bagian Timur, Maluku";"Kabupaten Seram Bagian Timur, Maluku";MALUKU;;Indonesia;;;;-31.310.656;1.304.312.584;https://maps.google.com/?cid=0x0:0x8706d468ca540096;
cafe;Minimarket;Gumumae Bakery N Cafe;"Jl. Wailola, Bula, Kec. Bula, Kabupaten Seram Bagian Timur, Maluku";"Kabupaten Seram Bagian Timur, Maluku";MALUKU;;Indonesia;081247680399;;;-30.944.342;1.304.750.723;https://maps.google.com/?cid=0x0:0xf9df459a574df4ff;
cafe;Rumah Makan;Wm.Queenza;"W7Q8+QMW, Upt T. Jkt Baru, Kec. Bula Barat, Kabupaten Seram Bagian Timur, Maluku";"Kabupaten Seram Bagian Timur, Maluku";MALUKU;;Indonesia;081316415439;;;-30.605.108;1.302.667.178;https://maps.google.com/?cid=0x0:0x5368b02d70080a01;
cafe;Kafe seni;Cafe 8 Ball;"WF3J+C5Q, Bula, Kec. Bula, Kabupaten Seram Bagian Timur, Maluku";"Kabupaten Seram Bagian Timur, Maluku";MALUKU;;Indonesia;081240988082;;;-30.964.005;1.304.804.708;https://maps.google.com/?cid=0x0:0x59e4fc16f98aa6ec;
cafe;Jawa;"Warung Makan,DELAPAN BERSAUDARA";"W7Q9+JQ6, Upt T. Jkt Baru, Kec. Bula Barat, Kabupaten Seram Bagian Timur, Maluku";"Kabupaten Seram Bagian Timur, Maluku";MALUKU;;Indonesia;082238506127;;;-30.609.671;130.269.398;https://maps.google.com/?cid=0x0:0xa0f17db2cf0f481d;
cafe;Kedai Kopi;Kafe PUNCAK BULA;"VGJ6+JJW, Bula, Kec. Bula, Kabupaten Seram Bagian Timur, Maluku";"Kabupaten Seram Bagian Timur, Maluku";MALUKU;;Indonesia;081340712440;;;-31.183.904;1.305.115.904;https://maps.google.com/?cid=0x0:0x55b0dbdf1f7f2462;
cafe;Dapur Umum;Abdul Somad cafe;"Maluku no, RW.8, Atiahu, Werinama, Kabupaten Seram Bagian Timur, Maluku";"Kabupaten Seram Bagian Timur, Maluku";MALUKU;;Indonesia;0812141777713;;;-32.384.616;1.301.452.734;https://maps.google.com/?cid=0x0:0x6684c65a41d86951;
cafe;Brunch;Rumah Makan Dzaqiila;"WF98+94M, Jl. Wailola, Bula, Kec. Bula, Kabupaten Seram Bagian Timur, Maluku";"Kabupaten Seram Bagian Timur, Maluku";MALUKU;;Indonesia;;;;-30.815.476;1.304.653.082;https://maps.google.com/?cid=0x0:0xf179815a05524596;
cafe;Restoran;Warung Mas Dirfa;"WF79+7C6, Jl. Wailola, Raya, Kec. Bula, Kabupaten Seram Bagian Timur, Maluku";"Kabupaten Seram Bagian Timur, Maluku";MALUKU;;Indonesia;081343007800;;;-30.868.269;1.304.685.134;https://maps.google.com/?cid=0x0:0x6f4a32af679482a1;
cafe;Kedai Kopi;OKE_Main"";"VFVW+J3J, Unnamed Road, Bula, Kec. Bula, Kabupaten Seram Bagian Timur, Maluku";"Kabupaten Seram Bagian Timur, Maluku";MALUKU;;Indonesia;081344761233;;;-31.059.223;1.304.951.429;https://maps.google.com/?cid=0x0:0xc1aecbd4afbc5bca;
cafe;Sulawesi Selatan;RM. DUA SAUDARA;"WF5C+F34, Bula, Kec. Bula, Kabupaten Seram Bagian Timur, Maluku";"Kabupaten Seram Bagian Timur, Maluku";MALUKU;;Indonesia;;;;-30.913.605;1.304.702.046;https://maps.google.com/?cid=0x0:0xe1acd521f05e3428;
cafe;Kafe;Cafe Classik  pup;"Tanah merah arah ke sidomampir Dekat, Bula, Kec. Bula, Kabupaten Seram Bagian Timur, Maluku 97581";"Bula, Kec. Bula, Kabupaten Seram Bagian Timur";MALUKU;97581;Indonesia;081248234576;;;-31.255.497;1.305.191.509;https://maps.google.com/?cid=0x0:0xcf2f4f902c8dce3a;
cafe;Kedai Kopi;FANDAZACOFFEE.ID;"Jalan pantai rolex, Bula, Kec. Bula, Kabupaten Seram Bagian Timur, Maluku";"Kabupaten Seram Bagian Timur, Maluku";MALUKU;;Indonesia;081315123816;;;-30.917.018;1.304.871.348;https://maps.google.com/?cid=0x0:0x1cd687bdacb59c0c;
cafe;Komplek perumahan;Pertigaan Sumber Agung;"W8X2+X7V, Unnamed Road, Sumber Agung, Kec. Bula, Kabupaten Seram Bagian Timur, Maluku";"Kabupaten Seram Bagian Timur, Maluku";MALUKU;;Indonesia;;;;-30.500.162;1.303.006.632;https://maps.google.com/?cid=0x0:0xadced6343829edc6;
cafe;Restoran;Kedai AA" Bula";"VFXM+52W, Bula, Kec. Bula, Kabupaten Seram Bagian Timur, Maluku";"Kabupaten Seram Bagian Timur, Maluku";MALUKU;;Indonesia;;;;-31.020.099;1.304.825.656;https://maps.google.com/?cid=0x0:0x447d0e505b04045c;
cafe;Kedai Kopi;Coffee Alzeef;"VFXJ+4JQ, Bula, Kec. Bula, Kabupaten Seram Bagian Timur, Maluku";"Kabupaten Seram Bagian Timur, Maluku";MALUKU;;Indonesia;;;;-31.021.675;1.304.816.157;https://maps.google.com/?cid=0x0:0x87df58fdaf88fc;
cafe;Restoran;Kios Ababus Nini;"WF4G+55G, Jl Baru KPU, Bula, Kec. Bula, Kabupaten Seram Bagian Timur, Maluku";"Kabupaten Seram Bagian Timur, Maluku";MALUKU;;Indonesia;082198042605;;;-30.945.634;1.304.754.455;https://maps.google.com/?cid=0x0:0x13c88d3ccc04776d;
cafe;Rumah Makan;Resto seafood Gia gamalama;"WFQ6+H2C, Bula, Kec. Bula, Kabupaten Seram Bagian Timur, Maluku";"Kabupaten Seram Bagian Timur, Maluku";MALUKU;;Indonesia;;;;-30.603.243;1.304.592.964;https://maps.google.com/?cid=0x0:0x1946c0118a1d0b87;
cafe;Bakso;R.M Bakso Solo;"WCPX+J5W, Jl. Wailola, Bula, Kec. Bula, Kabupaten Seram Bagian Timur, Maluku";"Kabupaten Seram Bagian Timur, Maluku";MALUKU;;Indonesia;082238610960;;;-30.633.848;1.304.479.625;https://maps.google.com/?cid=0x0:0x1f634d8031a14c45;
cafe;Restoran;Mie pangsit ijo;"WF67+2XV, Kampung Jawa limumir, Bula, Kec. Bula, Kabupaten Seram Bagian Timur, Maluku";"Kabupaten Seram Bagian Timur, Maluku";MALUKU;;Indonesia;085242915586;;;-30.898.892;1.304.649.314;https://maps.google.com/?cid=0x0:0xf7a57fd8c3412bd3;
cafe;Rumah Makan;RM. SINGGAH DULU;"WFP2+77R, Bula, Kec. Bula, Kabupaten Seram Bagian Timur, Maluku";"Kabupaten Seram Bagian Timur, Maluku";MALUKU;;Indonesia;;;;-30.636.766;130.450.798;https://maps.google.com/?cid=0x0:0x7ab3e9edd7e3f1a3;
cafe;Warnet;Akmal pu Rmh;"Jl. Wailola, Bula, Kec. Bula, Kabupaten Seram Bagian Timur, Maluku";"Kabupaten Seram Bagian Timur, Maluku";MALUKU;;Indonesia;;;;-30.645.285;1.304.540.805;https://maps.google.com/?cid=0x0:0xf2a03f82e329f182;
cafe;cafe;Kian Darat;"Kiandarat, Kabupaten Seram Bagian Timur, Maluku";"Kabupaten Seram Bagian Timur, Maluku";MALUKU;;Indonesia;;;;-36.853.452;1.307.867.889;https://maps.google.com/?cid=0x0:0x63cc3443f68b9180;
cafe;Kedai Kopi;Kala Askara;"Ratu Plaza, Jl. Jenderal Sudirman No.Kav. 9 Lantai 1, RT.1/RW.3, Gelora, Kecamatan Tanah Abang, Kota Jakarta Pusat, Daerah Khusus Ibukota Jakarta 10270";"Jl. Jenderal Sudirman No.Kav. 9 Lantai 1, RT.1/RW.3, Gelora, Kecamatan Tanah Abang, Kota Jakarta Pusat";MALUKU;10270;Indonesia;082261291938;;;-6.226.913;1.068.011.973;https://maps.google.com/?cid=0x0:0x1bbecfafc22b50f5;
cafe;cafe;Cafe Joas;"W5JX+X7P, Jl. Trans Seram, Piru, Kec. Seram Bar., Kabupaten Seram Bagian Barat, Maluku";"Kabupaten Seram Bagian Barat, Maluku";MALUKU;;Indonesia;;;;-30.675.367;1.281.981.943;https://maps.google.com/?cid=0x0:0x6245fc6d4311b0a9;
cafe;cafe;#DE_KAP;"M982+HV6, Jl. Trans Seram, Waimital, Kec. Kairatu, Kabupaten Seram Bagian Barat, Maluku";"Kabupaten Seram Bagian Barat, Maluku";MALUKU;;Indonesia;085344289610;;;-33.335.954;1.283.521.523;https://maps.google.com/?cid=0x0:0xa5c53058bdeec9c2;
cafe;Kedai Kopi;LOOPLINE COFFEE SCBD;"Food Court Electronic City, Lt. Mezanine unit F-24, Kota Jakarta Selatan, Daerah Khusus Ibukota Jakarta 12190";"Lt. Mezanine unit F-24, Kota Jakarta Selatan";MALUKU;12190;Indonesia;08174895816;;;-62.264.093;1.068.112.929;https://maps.google.com/?cid=0x0:0x10bafc08485ff80c;
cafe;cafe;Kec. Lian Fitu;"Kabupaten Seram Bagian Timur, Maluku";"Kabupaten Seram Bagian Timur, Maluku";MALUKU;;Indonesia;;;;-37.413.684;1.308.286.316;https://maps.google.com/?cid=0x0:0x240a3775e9ef412c;
cafe;cafe;Cafe Sindi;"W5PQ+GJG, Unnamed Road, Piru, Kec. Seram Bar., Kabupaten Seram Bagian Barat, Maluku";"Kabupaten Seram Bagian Barat, Maluku";MALUKU;;Indonesia;;;;-30.636.752;1.281.890.866;https://maps.google.com/?cid=0x0:0x75e1ec0f696e68a4;
cafe;Kafe;Forganza Resto  Cafe;"Kelanit, Kec. Kei Kecil, Kabupaten Maluku Tenggara, Maluku";"Kabupaten Maluku Tenggara, Maluku";MALUKU;;Indonesia;082231789845;;;-56.575.049;1.327.029.619;https://maps.google.com/?cid=0x0:0x35e7e74d6d2279bc;
cafe;Kedai Kopi;Rumah Kopi Sibu Sibu;"852J+V96, Said Perintah, Kel Ahusen, Kec. Sirimau, Kota Ambon, Maluku";"Kota Ambon, Maluku";MALUKU;;Indonesia;;;;-36.978.326;1.281.808.936;https://maps.google.com/?cid=0x0:0x7ea4fc8102835ef2;
cafe;Kedai Kopi;Makna Senja Coffee;"Jl. Ir H. Juanda Jl. Situ Gintung No.26, Cireundeu, Kec. Ciputat, Kota Tangerang Selatan, Banten 15419";"Cireundeu, Kec. Ciputat, Kota Tangerang Selatan";MALUKU;15419;Indonesia;081805021119;;;-63.013.669;1.067.618.945;https://maps.google.com/?cid=0x0:0x27a14366ab433fc4;
cafe;cafe;Celestial Coffee;"Jl. Maribaya No.16, Kayuambon, Kec. Lembang, Kabupaten Bandung Barat, Jawa Barat 40391";"Kayuambon, Kec. Lembang, Kabupaten Bandung Barat";MALUKU;40391;Indonesia;;;;-68.152.365;1.076.243.653;https://maps.google.com/?cid=0x0:0x432886028a7d791c;
cafe;cafe;Kec. Tlk. Waru;"Kabupaten Seram Bagian Timur, Maluku";"Kabupaten Seram Bagian Timur, Maluku";MALUKU;;Indonesia;;;;-3.404.276;1.306.715.092;https://maps.google.com/?cid=0x0:0x8093b034c7ac82;
cafe;Kafe;Cafe Classik  pup;"Tanah merah arah ke sidomampir Dekat, Bula, Kec. Bula, Kabupaten Seram Bagian Timur, Maluku 97581";"Bula, Kec. Bula, Kabupaten Seram Bagian Timur";MALUKU;97581;Indonesia;081248234576;;;-31.255.497;1.305.191.509;https://maps.google.com/?cid=0x0:0xcf2f4f902c8dce3a;
cafe;Sarapan;Fira NET  Nong'Q Coffee;"VFXM+WP2, Bula, Kec. Bula, Kabupaten Seram Bagian Timur, Maluku";"Kabupaten Seram Bagian Timur, Maluku";MALUKU;;Indonesia;081340520209;;;-31.002.463;1.304.842.609;https://maps.google.com/?cid=0x0:0xe6e0e087874a2fb8;
cafe;Kedai Kopi;Kafe PUNCAK BULA;"VGJ6+JJW, Bula, Kec. Bula, Kabupaten Seram Bagian Timur, Maluku";"Kabupaten Seram Bagian Timur, Maluku";MALUKU;;Indonesia;081340712440;;;-31.183.904;1.305.115.904;https://maps.google.com/?cid=0x0:0x55b0dbdf1f7f2462;
cafe;Kantor Perusahaan;Ambon Maluku Indonesia;"VC9J+HGC, Bula, Kec. Bula, Kabupaten Seram Bagian Timur, Maluku";"Kabupaten Seram Bagian Timur, Maluku";MALUKU;;Indonesia;;;;-31.310.656;1.304.312.584;https://maps.google.com/?cid=0x0:0x8706d468ca540096;
cafe;Restoran;Kedai AA" Bula";"VFXM+52W, Bula, Kec. Bula, Kabupaten Seram Bagian Timur, Maluku";"Kabupaten Seram Bagian Timur, Maluku";MALUKU;;Indonesia;;;;-31.020.099;1.304.825.656;https://maps.google.com/?cid=0x0:0x447d0e505b04045c;
cafe;Kedai Kopi;Coffee Alzeef;"VFXJ+4JQ, Bula, Kec. Bula, Kabupaten Seram Bagian Timur, Maluku";"Kabupaten Seram Bagian Timur, Maluku";MALUKU;;Indonesia;;;;-31.021.675;1.304.816.157;https://maps.google.com/?cid=0x0:0x87df58fdaf88fc;
cafe;Rumah Makan;Sigafua Cafe  Resto;"Jl. Protokol, Bula, Kec. Bula, Bula, Maluku 97581";"Bula, Kec. Bula, Bula";MALUKU;97581;Indonesia;081252012344;;;-31.009.058;1.304.840.422;https://maps.google.com/?cid=0x0:0x594f66c0e757d804;
cafe;Gudang;Bumdesma Teluk Waru;"JM45+XQ7, Unnamed Road, Belis, Bula, Kabupaten Seram Bagian Timur, Maluku";"Kabupaten Seram Bagian Timur, Maluku";MALUKU;;Indonesia;;;;-3.392.587;130.659.426;https://maps.google.com/?cid=0x0:0x7725ce970a29cc9c;
cafe;Kedai Kopi;Kedai Kopi;"HMVC+FG8, Belis, Kec. Bula, Kabupaten Seram Bagian Timur, Maluku";"Kabupaten Seram Bagian Timur, Maluku";MALUKU;;Indonesia;;;;-34.063.068;130.671.313;https://maps.google.com/?cid=0x0:0xa6997bc6e632da4e;
cafe;cafe;Rumah Makan Wullan;"HMX7+M84, Waru, Bula, Kabupaten Seram Bagian Timur, Maluku";"Kabupaten Seram Bagian Timur, Maluku";MALUKU;;Indonesia;;;;-34.008.595;1.306.633.344;https://maps.google.com/?cid=0x0:0xf00db2207a982797;
cafe;Kedai Kopi;Koultoura Coffee;"Jl. Ciniru I No.1, Rw. Bar., Kec. Kby. Baru, Jakarta, Daerah Khusus Ibukota Jakarta 12180";"Rw. Bar., Kec. Kby. Baru, Jakarta";MALUKU;12180;Indonesia;081286869082;;;-62.355.801;1.068.110.022;https://maps.google.com/?cid=0x0:0x4599600ab8419ed2;
cafe;cafe;rumah makan;"QH84+28F Pulau Seram, Salas, Kec. Bula, Kabupaten Seram Bagian Timur, Maluku";"Kabupaten Seram Bagian Timur, Maluku";MALUKU;;Indonesia;;;;-32.349.335;130.555.786;https://maps.google.com/?cid=0x0:0xb7474ea1108032f1;
cafe;Kedai Kopi;Koultoura Coffee - Wang Plaza;"Wang Plaza, Jl. Panjang No.kav 17, RT.14/RW.7, Kedoya Utara, Kec. Kb. Jeruk, Kota Jakarta Barat, Daerah Khusus Ibukota Jakarta 11520";"Jl. Panjang No.kav 17, RT.14/RW.7, Kedoya Utara, Kec. Kb. Jeruk, Kota Jakarta Barat";MALUKU;11520;Indonesia;;;;-6.172.884;1.067.659.683;https://maps.google.com/?cid=0x0:0xfa6361f5f9be5f4c;
