Category;Real Category;Business Name;Address;City;State;Postal Code;Country;Phone;Email;Website;Latitude;Longitude;Map Link;Details Link
building materials;building materials;Bula;"Bula, Kec. Bula, Kabupaten Seram Bagian Timur, Maluku";"Kabupaten Seram Bagian Timur, Maluku";MALUKU;;Indonesia;;;;-310.968;130.498.505;https://maps.google.com/?cid=0x0:0x20388956c533e2b;
building materials;Toko Perlengkapan Rumah;Toko bangunan Arifa Indah;"WF69+CFX, Jl. Wailola, Bula, Kec. Bula, Kabupaten Seram Bagian Timur, Maluku";"Kabupaten Seram Bagian Timur, Maluku";MALUKU;;Indonesia;081231274235;;;-30.888.906;1.304.687.493;https://maps.google.com/?cid=0x0:0x6d2adbab81a89335;
building materials;Toko Bahan Bangunan;UD.NISKY SERAM DEPO BANGUNAN BULA;"WF4F+CH5, Bula, Kec. Bula, Kabupaten Seram Bagian Timur, Maluku";"Kabupaten Seram Bagian Timur, Maluku";MALUKU;;Indonesia;082198535070;;;-30.939.921;1.304.739.724;https://maps.google.com/?cid=0x0:0xc38c7b6a3f0d1249;
building materials;Toserba;Toko Bangunan Bintang Timur;"Kecil Atas, Jl. Wailola, Bula, Kec. Bula, Kabupaten Seram Bagian Timur, Maluku";"Kabupaten Seram Bagian Timur, Maluku";MALUKU;;Indonesia;082378990826;;;-31.020.661;1.304.795.478;https://maps.google.com/?cid=0x0:0x4aef66ef96eb16a8;
building materials;Kantor Perusahaan;Perusahaan Listrik Negara. PT;"VFRX+4G8, JL. Hombo, Bula, Kec. Bula, Kabupaten Seram Bagian Timur, Maluku 97555";"JL. Hombo, Bula, Kec. Bula, Kabupaten Seram Bagian Timur";MALUKU;97555;Indonesia;091521177;;;-3.109.706;130.498.824;https://maps.google.com/?cid=0x0:0x7efe5b67fde51b2e;
building materials;Komplek perumahan;Manusela Bangunan;"NO WA OI54O54249, Jl Manusela No.2, Sariputih, Timur, Seram Bagian Utara, Maluku";"Seram Bagian Utara, Maluku";MALUKU;;Indonesia;08113622262;;;-29.068.033;1.297.601.032;https://maps.google.com/?cid=0x0:0x88daa0e37101ec98;
building materials;Toko Bahan Bangunan;Matrial Bulak Karya;"Jl. Betung Raya No.8, Pd. Bambu, Kec. Duren Sawit, Kota Jakarta Timur, Daerah Khusus Ibukota Jakarta 13430";"Pd. Bambu, Kec. Duren Sawit, Kota Jakarta Timur";MALUKU;13430;Indonesia;082310106567;;;-62.357.653;1.069.034.594;https://maps.google.com/?cid=0x0:0x1b73901cf2a7a966;
building materials;Toko Bahan Bangunan;TB. BERKAT MAKMUR;"Jl. Masjid Abidin No.24, RT.8/RW.6, Pd. Bambu, Kec. Duren Sawit, Kota Jakarta Timur, Daerah Khusus Ibukota Jakarta 13430";"RT.8/RW.6, Pd. Bambu, Kec. Duren Sawit, Kota Jakarta Timur";MALUKU;13430;Indonesia;;;;-62.290.933;1.069.029.323;https://maps.google.com/?cid=0x0:0xa0e6cebea53b5c2a;
building materials;building materials;Bula;"Bula, Kec. Bula, Kabupaten Seram Bagian Timur, Maluku";"Kabupaten Seram Bagian Timur, Maluku";MALUKU;;Indonesia;;;;-310.968;130.498.505;https://maps.google.com/?cid=0x0:0x20388956c533e2b;
building materials;Toko Perlengkapan Rumah;Toko bangunan Arifa Indah;"WF69+CFX, Jl. Wailola, Bula, Kec. Bula, Kabupaten Seram Bagian Timur, Maluku";"Kabupaten Seram Bagian Timur, Maluku";MALUKU;;Indonesia;081231274235;;;-30.888.906;1.304.687.493;https://maps.google.com/?cid=0x0:0x6d2adbab81a89335;
building materials;Toko Bahan Bangunan;UD.NISKY SERAM DEPO BANGUNAN BULA;"WF4F+CH5, Bula, Kec. Bula, Kabupaten Seram Bagian Timur, Maluku";"Kabupaten Seram Bagian Timur, Maluku";MALUKU;;Indonesia;082198535070;;;-30.939.921;1.304.739.724;https://maps.google.com/?cid=0x0:0xc38c7b6a3f0d1249;
building materials;Toserba;Toko Bangunan Bintang Timur;"Kecil Atas, Jl. Wailola, Bula, Kec. Bula, Kabupaten Seram Bagian Timur, Maluku";"Kabupaten Seram Bagian Timur, Maluku";MALUKU;;Indonesia;082378990826;;;-31.020.661;1.304.795.478;https://maps.google.com/?cid=0x0:0x4aef66ef96eb16a8;
building materials;Kantor Perusahaan;Perusahaan Listrik Negara. PT;"VFRX+4G8, JL. Hombo, Bula, Kec. Bula, Kabupaten Seram Bagian Timur, Maluku 97555";"JL. Hombo, Bula, Kec. Bula, Kabupaten Seram Bagian Timur";MALUKU;97555;Indonesia;091521177;;;-3.109.706;130.498.824;https://maps.google.com/?cid=0x0:0x7efe5b67fde51b2e;
building materials;Toko Bahan Bangunan;Matrial Bulak Karya;"Jl. Betung Raya No.8, Pd. Bambu, Kec. Duren Sawit, Kota Jakarta Timur, Daerah Khusus Ibukota Jakarta 13430";"Pd. Bambu, Kec. Duren Sawit, Kota Jakarta Timur";MALUKU;13430;Indonesia;082310106567;;;-62.357.653;1.069.034.594;https://maps.google.com/?cid=0x0:0x1b73901cf2a7a966;
building materials;Toko Bahan Bangunan;Gunung Madu;"Jelambar Madya Utara Blok A19 no 114, RT.14/RW.2, Jelambar, Kec. Grogol petamburan, Kota Jakarta Barat, Daerah Khusus Ibukota Jakarta 11460";"RT.14/RW.2, Jelambar, Kec. Grogol petamburan, Kota Jakarta Barat";MALUKU;11460;Indonesia;082111748687;;;-61.555.828;1.067.804.722;https://maps.google.com/?cid=0x0:0x133e2d963d3cfb67;
building materials;building materials;Kec. Seram Tim.;"Kabupaten Seram Bagian Timur, Maluku";"Kabupaten Seram Bagian Timur, Maluku";MALUKU;;Indonesia;;;;-38.324.657;1.308.204.099;https://maps.google.com/?cid=0x0:0x70947c7ca6669763;
building materials;Toko Bahan Bangunan;UD.NISKY SERAM DEPO BANGUNAN BULA;"WF4F+CH5, Bula, Kec. Bula, Kabupaten Seram Bagian Timur, Maluku";"Kabupaten Seram Bagian Timur, Maluku";MALUKU;;Indonesia;082198535070;;;-30.939.921;1.304.739.724;https://maps.google.com/?cid=0x0:0xc38c7b6a3f0d1249;
building materials;Toserba;Toko Bangunan Bintang Timur;"Kecil Atas, Jl. Wailola, Bula, Kec. Bula, Kabupaten Seram Bagian Timur, Maluku";"Kabupaten Seram Bagian Timur, Maluku";MALUKU;;Indonesia;082378990826;;;-31.020.661;1.304.795.478;https://maps.google.com/?cid=0x0:0x4aef66ef96eb16a8;
building materials;Komplek perumahan;Manusela Bangunan;"NO WA OI54O54249, Jl Manusela No.2, Sariputih, Timur, Seram Bagian Utara, Maluku";"Seram Bagian Utara, Maluku";MALUKU;;Indonesia;08113622262;;;-29.068.033;1.297.601.032;https://maps.google.com/?cid=0x0:0x88daa0e37101ec98;
building materials;Toko Perlengkapan Rumah;Toko Bangunan Manusela;"Jl Manusela No.05, Sari Putih, Werinama, Kabupaten Seram Bagian Timur, Maluku";"Kabupaten Seram Bagian Timur, Maluku";MALUKU;;Indonesia;083125236425;;;-34.233.267;1.302.271.243;https://maps.google.com/?cid=0x0:0xa3a109db57d60060;
building materials;Toko Bahan Bangunan;Eka Pratama;"JWQV+6P5, Luhu, Kec. Huamual Belakang, Kabupaten Seram Bagian Barat, Maluku";"Kabupaten Seram Bagian Barat, Maluku";MALUKU;;Indonesia;081385661699;;;-33.619.763;1.279.443.737;https://maps.google.com/?cid=0x0:0x9297fa79318e74fa;
building materials;Komplek perumahan;Jalan air kuning seram bagian Barat;"W685+HCR, Piru, Kec. Seram Bar., Kabupaten Seram Bagian Barat, Maluku";"Kabupaten Seram Bagian Barat, Maluku";MALUKU;;Indonesia;;;;-30.835.033;1.282.085.127;https://maps.google.com/?cid=0x0:0x8bd7b2153f9ebc35;
building materials;building materials;Werinama;"Kabupaten Seram Bagian Timur, Maluku";"Kabupaten Seram Bagian Timur, Maluku";MALUKU;;Indonesia;;;;-34.233.267;1.302.271.243;https://maps.google.com/?cid=0x0:0x5d34ed8352394a25;
building materials;Toko Bahan Bangunan;Jati Maluku Timber. PT;"Q46W+J4X, JL. Aipda Ks Tubun Passo, Atiahu, Werinama, Kabupaten Seram Bagian Timur, Maluku";"Kabupaten Seram Bagian Timur, Maluku";MALUKU;;Indonesia;082378990826;;;-3.238.383;130.145.366;https://maps.google.com/?cid=0x0:0x5457b144078426c5;
building materials;Toko Perlengkapan Rumah;Toko Bangunan Manusela;"Jl Manusela No.05, Sari Putih, Werinama, Kabupaten Seram Bagian Timur, Maluku";"Kabupaten Seram Bagian Timur, Maluku";MALUKU;;Indonesia;083125236425;;;-34.233.267;1.302.271.243;https://maps.google.com/?cid=0x0:0xa3a109db57d60060;
building materials;Toko Bahan Bangunan;toko kei bahan bangunan;"HXJC+XXW, Jl. Propinsi, Bemo, Werinama, Kabupaten Seram Bagian Timur, Maluku";"Kabupaten Seram Bagian Timur, Maluku";MALUKU;;Indonesia;085299873874;;;-33.492.375;1.299.519.197;https://maps.google.com/?cid=0x0:0x1218f1c4ce74ce62;
building materials;Toko Bahan Bangunan;Mangole Timber. PT;"Q46W+J4X, Kompl Airport Pattimura Passo, Atiahu, Werinama, Kabupaten Seram Bagian Timur, Maluku";"Kabupaten Seram Bagian Timur, Maluku";MALUKU;;Indonesia;0911361700;;;-3.238.383;130.145.366;https://maps.google.com/?cid=0x0:0xff8ce4edf70b53f6;
building materials;Komplek perumahan;Manusela Bangunan;"NO WA OI54O54249, Jl Manusela No.2, Sariputih, Timur, Seram Bagian Utara, Maluku";"Seram Bagian Utara, Maluku";MALUKU;;Indonesia;08113622262;;;-29.068.033;1.297.601.032;https://maps.google.com/?cid=0x0:0x88daa0e37101ec98;
building materials;Toko Bahan Bangunan;Eka Pratama;"JWQV+6P5, Luhu, Kec. Huamual Belakang, Kabupaten Seram Bagian Barat, Maluku";"Kabupaten Seram Bagian Barat, Maluku";MALUKU;;Indonesia;081385661699;;;-33.619.763;1.279.443.737;https://maps.google.com/?cid=0x0:0x9297fa79318e74fa;
building materials;Toko Bahan Bangunan;Eka Pratama;"JWQV+6P5, Luhu, Kec. Huamual Belakang, Kabupaten Seram Bagian Barat, Maluku";"Kabupaten Seram Bagian Barat, Maluku";MALUKU;;Indonesia;081385661699;;;-33.619.763;1.279.443.737;https://maps.google.com/?cid=0x0:0x9297fa79318e74fa;
building materials;building materials;Pulau Gorong;"Kabupaten Seram Bagian Timur, Maluku";"Kabupaten Seram Bagian Timur, Maluku";MALUKU;;Indonesia;;;;-4.011.202;1.314.112.125;https://maps.google.com/?cid=0x0:0x3b60b40247d61e16;
building materials;Produsen;PT Nusantara Baja Prima;"Jl. Rotan Delta III Lippo No.25 C Blok F27, Cicau, Kec. Cikarang Pusat, Kabupaten Bekasi, Jawa Barat 17530";"Cicau, Kec. Cikarang Pusat, Kabupaten Bekasi";MALUKU;17530;Indonesia;08115252266;;;-63.711.636;1.071.589.037;https://maps.google.com/?cid=0x0:0x626a6832a3515bfa;
building materials;Toko Bahan Bangunan;Agus gorong gorong;"WC53+96H, Plandan, Mrayan, Kec. Ngrayun, Kabupaten Ponorogo, Jawa Timur 63464";"Plandan, Mrayan, Kec. Ngrayun, Kabupaten Ponorogo";MALUKU;63464;Indonesia;;;;-80.915.531;1.114.031.053;https://maps.google.com/?cid=0x0:0x8dd811b7c892ef4d;
building materials;Badan sertifikasi;PT. Heritage Pijar Manajemen;"Jl. Raya Muchtar No.11, RW.2, Sawangan Baru, Kec. Sawangan, Kota Depok, Jawa Barat 16511";"RW.2, Sawangan Baru, Kec. Sawangan, Kota Depok";MALUKU;16511;Indonesia;081110019915;;;-64.060.202;1.067.609.642;https://maps.google.com/?cid=0x0:0x27a31073fe6ecf96;
building materials;building materials;UD. POHON KELAPA KESUI;"GM2F+7PF, Tamher Warat, Kec. Wakate, Kabupaten Seram Bagian Timur, Maluku";"Kabupaten Seram Bagian Timur, Maluku";MALUKU;;Indonesia;;;;-44.997.905;1.316.746.432;https://maps.google.com/?cid=0x0:0x1e6c6e9ed5380a20;
building materials;Toko Cat;PT. PUTRA IDAMAN (DISTRIBUTOR RESMI CAT JOTUN);"Jl. F Raya No.1 8, RT.8/RW.4, Rawabadak Utara, Kec. Koja, Jkt Utara, Daerah Khusus Ibukota Jakarta 14230";"RT.8/RW.4, Rawabadak Utara, Kec. Koja, Jkt Utara";MALUKU;14230;Indonesia;0817209291;;;-61.154.358;1.069.001.876;https://maps.google.com/?cid=0x0:0x3d6d8248e1e2347a;
building materials;Toko Bahan Bangunan;Kartek;"RPJ5+Q4P, Jl. Raya Duri Kosambi Duri Kosambi Cengkareng Jakarta Barat DKI Jakarta, RT.4/RW.8, Semanan, Kec. Kalideres, Kota Jakarta Barat, Daerah Khusus Ibukota Jakarta 11750";"Jl. Raya Duri Kosambi Duri Kosambi Cengkareng Jakarta Barat DKI Jakarta, RT.4/RW.8, Semanan, Kec. Kalideres, Kota Jakarta Barat";MALUKU;11750;Indonesia;0215444297;;;-6.168.033;1.067.078.233;https://maps.google.com/?cid=0x0:0x8f39bba2a5ff71b1;
building materials;building materials;N/A;;;MALUKU;;Indonesia;082240489951;;;-62.297.465;106.829.518;https://maps.google.com/?cid=0x0:0x7f92eb034c3773b6;
building materials;Toko Cat;Dulux Catylac;"Jl. Meruya Ilir Raya No.34 5, RT.5/RW.8, Srengseng, Kec. Kembangan, Kota Jakarta Barat, Daerah Khusus Ibukota Jakarta 11630";"RT.5/RW.8, Srengseng, Kec. Kembangan, Kota Jakarta Barat";MALUKU;11630;Indonesia;0215846937;;;-61.973.443;1.067.489.869;https://maps.google.com/?cid=0x0:0xa4b1421323d3a0b2;
building materials;Toko;Toko Tunas Baru;"M966+FP8, Jl. Trans Seram, Waimital, Kec. Kairatu, Kabupaten Seram Bagian Barat, Maluku";"Kabupaten Seram Bagian Barat, Maluku";MALUKU;;Indonesia;081385661699;;;-33.388.259;1.283.618.245;https://maps.google.com/?cid=0x0:0x20a66a8197b5b440;
building materials;Toko Bahan Bangunan;Toko Bangunan Lestari Baru;"Waihatu, Kec. Kairatu Bar., Kabupaten Seram Bagian Barat, Maluku";"Kabupaten Seram Bagian Barat, Maluku";MALUKU;;Indonesia;082238832490;;;-32.864.381;1.283.222.819;https://maps.google.com/?cid=0x0:0xb14d86a65046c260;
building materials;Toko;Tokoh Bangunan;"CVCH+47, Kilmoy, Kec. Tutuk Tolu, Kabupaten Seram Bagian Timur, Maluku";"Kabupaten Seram Bagian Timur, Maluku";MALUKU;;Indonesia;;;;-35.797.428;1.308.781.934;https://maps.google.com/?cid=0x0:0xa058e35e74bfa9fe;
building materials;Toko Bahan Bangunan;Toko Bangunan;"M2MC+H73, Jl. Zamrud Selatan, RT.001/RW.021, Padurenan, Kec. Mustika Jaya, Kota Bks, Jawa Barat 17155";"Jl. Zamrud Selatan, RT.001/RW.021, Padurenan, Kec. Mustika Jaya, Kota Bks";MALUKU;17155;Indonesia;;;;-63.161.105;1.070.206.839;https://maps.google.com/?cid=0x0:0xfd1262a5489e10b5;
building materials;;THE Bangunan CIMUNING ( toko alat dan bahan bangunan / toko material);"samping masjid nurul insan, Jl. WR. Supratman, RT.002/RW.006, Cimuning, Kec. Mustika Jaya, Kota Bks, Jawa Barat 17155";"Jl. WR. Supratman, RT.002/RW.006, Cimuning, Kec. Mustika Jaya, Kota Bks";MALUKU;17155;Indonesia;02182594213;;;-63.112.924;1.070.276.565;https://maps.google.com/?cid=0x0:0xdf5471e58ee9279f;
building materials;building materials;Maluku;;Maluku;MALUKU;;Indonesia;;;;-32.384.616;1.301.452.734;https://maps.google.com/?cid=0x0:0x5e30e8db04649a51;
building materials;Komplek perumahan;Manusela Bangunan;"NO WA OI54O54249, Jl Manusela No.2, Sariputih, Timur, Seram Bagian Utara, Maluku";"Seram Bagian Utara, Maluku";MALUKU;;Indonesia;08113622262;;;-29.068.033;1.297.601.032;https://maps.google.com/?cid=0x0:0x88daa0e37101ec98;
building materials;Toko Bahan Bangunan;Toko Sumber Alam;"M966+8R6, Jl. Trans Seram, Waimital, Kec. Kairatu, Kabupaten Seram Bagian Barat, Maluku";"Kabupaten Seram Bagian Barat, Maluku";MALUKU;;Indonesia;082378990826;;;-33.392.156;128.362.011;https://maps.google.com/?cid=0x0:0x4a1586af5326e028;
building materials;Toko;Toko Tunas Baru;"M966+FP8, Jl. Trans Seram, Waimital, Kec. Kairatu, Kabupaten Seram Bagian Barat, Maluku";"Kabupaten Seram Bagian Barat, Maluku";MALUKU;;Indonesia;081385661699;;;-33.388.259;1.283.618.245;https://maps.google.com/?cid=0x0:0x20a66a8197b5b440;
building materials;;Aneka Bangunan;"HMRR+HR7, Tomalehu, Kec. Amalatu, Kabupaten Seram Bagian Barat, Maluku";"Kabupaten Seram Bagian Barat, Maluku";MALUKU;;Indonesia;082378990826;;;-34.086.133;1.286.919.824;https://maps.google.com/?cid=0x0:0xce54d8093551ed41;
building materials;building materials;"nWE1aN6QAdrK1sQP0qnhyAk-,null,null,1,null,""https://www.google.com/maps/preview/place/Online/@-3.304414,128.957973,3983a,13.1y/datau003d!4m2!3m1!1s0x2d6b9944d43adc89:0x7b73c37994f187ca""";;;MALUKU;;Indonesia;081248773339;;;-3.304.414;128.957.973;https://maps.google.com/?cid=0x0:0x7b73c37994f187ca;
building materials;Sekolah Dasar;Bangunan Sekolah;"4PVR+PCH, Walakone, Kec. Taniwel Tim., Kabupaten Seram Bagian Barat, Maluku";"Kabupaten Seram Bagian Barat, Maluku";MALUKU;;Indonesia;;;;-28.556.831;1.287.411.075;https://maps.google.com/?cid=0x0:0xbbdebb033a15919f;
building materials;Toserba;Toko Bangunan Bintang Timur;"Kecil Atas, Jl. Wailola, Bula, Kec. Bula, Kabupaten Seram Bagian Timur, Maluku";"Kabupaten Seram Bagian Timur, Maluku";MALUKU;;Indonesia;082378990826;;;-31.020.661;1.304.795.478;https://maps.google.com/?cid=0x0:0x4aef66ef96eb16a8;
building materials;Toko Perlengkapan Rumah;Toko Bangunan Manusela;"Jl Manusela No.05, Sari Putih, Werinama, Kabupaten Seram Bagian Timur, Maluku";"Kabupaten Seram Bagian Timur, Maluku";MALUKU;;Indonesia;083125236425;;;-34.233.267;1.302.271.243;https://maps.google.com/?cid=0x0:0xa3a109db57d60060;
building materials;Toko;Toko Rifky Jkt Bru;"P385+MC7, Lokki, Kec. Huamual Belakang, Kabupaten Seram Bagian Barat, Maluku";"Kabupaten Seram Bagian Barat, Maluku";MALUKU;;Indonesia;082378990826;;;-32.833.419;1.280.585.336;https://maps.google.com/?cid=0x0:0xfc53f32c414a25a3;
building materials;Toko;Toko Riski;"Piru, Dusun Telaga, Piru, Maluku 97562";"Dusun Telaga, Piru";MALUKU;97562;Indonesia;082239048105;;;-30.954.541;1.281.270.434;https://maps.google.com/?cid=0x0:0x2bd91aae7e620771;
building materials;Toko Bahan Bangunan;Makmur Utama Supermarket Bahan Bangunan;"Jl. Yasin Gamsungi No.2 Kec. ternate tengah, Kel, Makassar Tim., Makassar Timur, Kota Ternate, Maluku Utara 97724";"Kel, Makassar Tim., Makassar Timur, Kota Ternate";MALUKU;97724;Indonesia;08114313799;;;0.7940352;1.273.876.695;https://maps.google.com/?cid=0x0:0x2f492ae87bf64247;
building materials;Toko Bahan Bangunan;Kilmurrays Homevalue Hardware;"Zone C, Mullingar Business Park, Mullingar, Co. Westmeath, N91 R504, Irlandia";"Mullingar, County Westmeath, Irlandia";MALUKU;;Indonesia;"3,53449E+11";;;535.187.657;-73.620.942;https://maps.google.com/?cid=0x0:0x5436078ca86d522d;
building materials;Toko Bahan Bangunan;Mullingar Hardware - Topline;"Zone A, Mullingar Business Park, Mullingar, Co. Westmeath, N91 FK4X, Irlandia";"Mullingar, County Westmeath, Irlandia";MALUKU;;Indonesia;"3,53449E+11";;;535.200.793;-73.459.951;https://maps.google.com/?cid=0x0:0xb0de1f2da0378129;
building materials;Toko Pipa;Mullingar Business Park;"Clonmore, Mullingar, Co. Westmeath, Irlandia";"Mullingar, County Westmeath, Irlandia";MALUKU;;Indonesia;;;;535.164.645;-73.634.553;https://maps.google.com/?cid=0x0:0x4cdbc9e947ab5c1d;
building materials;Toko Kayu;Naturanexa - Timber Merchant - Building materials supplier;"Jl. Padat Karya, Belega, Kec. Blahbatuh, Kabupaten Gianyar, Bali 80581";"Belega, Kec. Blahbatuh, Kabupaten Gianyar";MALUKU;80581;Indonesia;082341415241;;;-85.761.436;1.153.113.337;https://maps.google.com/?cid=0x0:0xe6983e5e55e7f6c;
building materials;Toko Kayu;Kaltimber - Timber merchant - Flooring Shop;"Jl. Raya Sakah No.22 X, Batuan, Kec. Sukawati, Kabupaten Gianyar, Bali 80582";"Batuan, Kec. Sukawati, Kabupaten Gianyar";MALUKU;80582;Indonesia;0361975219;;;-85.748.112;1.152.765.136;https://maps.google.com/?cid=0x0:0xfa92c946e5449f5f;
building materials;Pemasok Bahan Bangunan;Distributor JUAL Sika MU Fosroc Pentens Propan CV Tabgha Bangun Persada SURABAYA SIDOARJO;"Jalan Palem II TE 43-44 Pertokoan Pondok Candra, Palem, Wadungasri, Waru, Sidoarjo Regency, East Java 61256";"Palem, Wadungasri, Waru, Sidoarjo Regency";MALUKU;61256;Indonesia;082230861985;;;-73.424.738;1.127.698.044;https://maps.google.com/?cid=0x0:0x4093032bd728f0f4;
building materials;Toko Bahan Bangunan;TB. Pulau Panjang;"Jl. Bojonegara No.88, Kertasana, Kec. Bojonegara, Kabupaten Serang, Banten 42454";"Kertasana, Kec. Bojonegara, Kabupaten Serang";MALUKU;42454;Indonesia;085966114948;;;-59.956.104;1.060.760.362;https://maps.google.com/?cid=0x0:0xaef92a91f8623256;
building materials;Toko Bahan Bangunan;TB. Panglima;"233F+PFW, Jl. Jayanegara Raya, Kertasana, Kec. Bojonegara, Kabupaten Serang, Banten 42454";"Jl. Jayanegara Raya, Kertasana, Kec. Bojonegara, Kabupaten Serang";MALUKU;42454;Indonesia;081317619000;;;-5.995.548;10.607.378;https://maps.google.com/?cid=0x0:0xaba576137296352d;
building materials;building materials;Teor;"Teor, Kabupaten Seram Bagian Timur, Maluku";"Kabupaten Seram Bagian Timur, Maluku";MALUKU;;Indonesia;;;;-4.737.805;131.745.717;https://maps.google.com/?cid=0x0:0x455015039ed48829;
building materials;Komplek perumahan;Manusela Bangunan;"NO WA OI54O54249, Jl Manusela No.2, Sariputih, Timur, Seram Bagian Utara, Maluku";"Seram Bagian Utara, Maluku";MALUKU;;Indonesia;08113622262;;;-29.068.033;1.297.601.032;https://maps.google.com/?cid=0x0:0x88daa0e37101ec98;
building materials;Pembangunan Perumahan;Kompleks Rumah Tiga;"XXV2+W5, Buano Utara, Kec. Huamual Belakang, Kabupaten Seram Bagian Barat, Maluku";"Kabupaten Seram Bagian Barat, Maluku";MALUKU;;Indonesia;;;;-30.051.172;1.279.504.017;https://maps.google.com/?cid=0x0:0x39c20c8416743982;
building materials;Toko Bahan Bangunan;Toko Hanna;"JWPV+GV, Luhu, Kec. Huamual Belakang, Kabupaten Seram Bagian Barat, Maluku";"Kabupaten Seram Bagian Barat, Maluku";MALUKU;;Indonesia;082199904646;;;-33.636.349;1.279.446.434;https://maps.google.com/?cid=0x0:0x78aff0296928fc4c;
building materials;Toko;Nord Est Vernici S.R.L.S.;"Via VIII Bersaglieri, 33, 33061 Rivignano Teor UD, Italia";Rivignano Teor UD;MALUKU;33061;Indonesia;39337202710;;;458.734.624;130.467.757;https://maps.google.com/?cid=0x0:0x3d01465f5b89f1e3;
building materials;Toko;Sorgente del Colore Srl;"Via Umberto I°, 19, 33061 Rivignano Teor UD, Italia";Rivignano Teor UD;MALUKU;33061;Indonesia;"3,90433E+11";;;458.754.597;130.413.211;https://maps.google.com/?cid=0x0:0x3d1a328cb3a94659;
building materials;building materials;Kec. Bula Barat;"Kabupaten Seram Bagian Timur, Maluku";"Kabupaten Seram Bagian Timur, Maluku";MALUKU;;Indonesia;;;;-30.472.432;1.301.469.398;https://maps.google.com/?cid=0x0:0x12c29f15f276cac6;
building materials;Toko Perlengkapan Rumah;Toko bangunan Arifa Indah;"WF69+CFX, Jl. Wailola, Bula, Kec. Bula, Kabupaten Seram Bagian Timur, Maluku";"Kabupaten Seram Bagian Timur, Maluku";MALUKU;;Indonesia;081231274235;;;-30.888.906;1.304.687.493;https://maps.google.com/?cid=0x0:0x6d2adbab81a89335;
building materials;Toko Bahan Bangunan;Jati Maluku Timber. PT;"Q46W+J4X, JL. Aipda Ks Tubun Passo, Atiahu, Werinama, Kabupaten Seram Bagian Timur, Maluku";"Kabupaten Seram Bagian Timur, Maluku";MALUKU;;Indonesia;082378990826;;;-3.238.383;130.145.366;https://maps.google.com/?cid=0x0:0x5457b144078426c5;
building materials;Pusat Perbelanjaan;Toko Wiliam Jaya;"X539+F4M, jalan lintas seram, Benggoi, Kec. Bula Barat, Kabupaten Seram Bagian Timur, Maluku";"Kabupaten Seram Bagian Timur, Maluku";MALUKU;;Indonesia;;;;-304.628;1.301.677.978;https://maps.google.com/?cid=0x0:0x217df7aec4769d63;
building materials;Toko Bahan Bangunan;Djajanti Group;"Q46W+J4X, JL. Waisarissa Passo, Atiahu, Werinama, Kabupaten Seram Bagian Timur, Maluku";"Kabupaten Seram Bagian Timur, Maluku";MALUKU;;Indonesia;082378990826;;;-3.238.383;130.145.366;https://maps.google.com/?cid=0x0:0xe6482d4f0771f7b0;
building materials;Toko Perlengkapan Rumah;TOKO FIRZANAH;"Bula, Kec. Bula, Kabupaten Seram Bagian Timur, Maluku";"Kabupaten Seram Bagian Timur, Maluku";MALUKU;;Indonesia;081385661699;;;-30.792.459;1.304.651.366;https://maps.google.com/?cid=0x0:0x8d53e72d3dd962ab;
building materials;Toko Bahan Bangunan;Mangole Timber. PT;"Q46W+J4X, Kompl Airport Pattimura Passo, Atiahu, Werinama, Kabupaten Seram Bagian Timur, Maluku";"Kabupaten Seram Bagian Timur, Maluku";MALUKU;;Indonesia;0911361700;;;-3.238.383;130.145.366;https://maps.google.com/?cid=0x0:0xff8ce4edf70b53f6;
building materials;Toserba;Toko Bangunan Bintang Timur;"Kecil Atas, Jl. Wailola, Bula, Kec. Bula, Kabupaten Seram Bagian Timur, Maluku";"Kabupaten Seram Bagian Timur, Maluku";MALUKU;;Indonesia;082378990826;;;-31.020.661;1.304.795.478;https://maps.google.com/?cid=0x0:0x4aef66ef96eb16a8;
building materials;Toko Perlengkapan Rumah;Toko Duta Bangunan;"Jl. A.R Unawekla, Bula, Kec. Bula, Kabupaten Seram Bagian Timur, Maluku";"Kabupaten Seram Bagian Timur, Maluku";MALUKU;;Indonesia;081272987200;;;-31.021.843;1.304.885.667;https://maps.google.com/?cid=0x0:0x799165d536f28f53;
building materials;Toserba;Toko GAJAH MADA;"VFXM+4C8, Jl. A. Tamaela, Bula, Kec. Bula, Kabupaten Seram Bagian Timur, Maluku";"Kabupaten Seram Bagian Timur, Maluku";MALUKU;;Indonesia;081247445398;;;-31.022.107;130.483.577;https://maps.google.com/?cid=0x0:0x973ad295d2df7395;
building materials;Toko Bahan Bangunan;UD.NISKY SERAM DEPO BANGUNAN BULA;"WF4F+CH5, Bula, Kec. Bula, Kabupaten Seram Bagian Timur, Maluku";"Kabupaten Seram Bagian Timur, Maluku";MALUKU;;Indonesia;082198535070;;;-30.939.921;1.304.739.724;https://maps.google.com/?cid=0x0:0xc38c7b6a3f0d1249;
building materials;Toko Perlengkapan Rumah;Toko bangunan Arifa Indah;"WF69+CFX, Jl. Wailola, Bula, Kec. Bula, Kabupaten Seram Bagian Timur, Maluku";"Kabupaten Seram Bagian Timur, Maluku";MALUKU;;Indonesia;081231274235;;;-30.888.906;1.304.687.493;https://maps.google.com/?cid=0x0:0x6d2adbab81a89335;
building materials;building materials;Kian Darat;"Kiandarat, Kabupaten Seram Bagian Timur, Maluku";"Kabupaten Seram Bagian Timur, Maluku";MALUKU;;Indonesia;;;;-36.853.452;1.307.867.889;https://maps.google.com/?cid=0x0:0x63cc3443f68b9180;
building materials;Komplek perumahan;Manusela Bangunan;"NO WA OI54O54249, Jl Manusela No.2, Sariputih, Timur, Seram Bagian Utara, Maluku";"Seram Bagian Utara, Maluku";MALUKU;;Indonesia;08113622262;;;-29.068.033;1.297.601.032;https://maps.google.com/?cid=0x0:0x88daa0e37101ec98;
building materials;Toko Bahan Bangunan;toko kei bahan bangunan;"HXJC+XXW, Jl. Propinsi, Bemo, Werinama, Kabupaten Seram Bagian Timur, Maluku";"Kabupaten Seram Bagian Timur, Maluku";MALUKU;;Indonesia;085299873874;;;-33.492.375;1.299.519.197;https://maps.google.com/?cid=0x0:0x1218f1c4ce74ce62;
building materials;Pemasok mebel sesuai pesanan;HPL Multindo Makmur;"Jl. Cisaranten Kulon No.20, Cisaranten Kulon, Kec. Arcamanik, Kota Bandung, Jawa Barat 40293";"Cisaranten Kulon, Kec. Arcamanik, Kota Bandung";MALUKU;40293;Indonesia;082129511857;;;-69.312.907;1.076.793.054;https://maps.google.com/?cid=0x0:0xce2dde4ccfec320d;
building materials;Toko Bahan Bangunan;Toko Buana HPL Kopo;"Jl. Raya Kopo No.273-275, Situsaeur, Kec. Bojongloa Kidul, Kota Bandung, Jawa Barat 40234";"Situsaeur, Kec. Bojongloa Kidul, Kota Bandung";MALUKU;40234;Indonesia;085721002715;;;-69.417.771;1.075.924.027;https://maps.google.com/?cid=0x0:0x3174cc7b76dbdbcc;
building materials;building materials;Kec. Lian Fitu;"Kabupaten Seram Bagian Timur, Maluku";"Kabupaten Seram Bagian Timur, Maluku";MALUKU;;Indonesia;;;;-37.413.684;1.308.286.316;https://maps.google.com/?cid=0x0:0x240a3775e9ef412c;
building materials;Toko Elektronik;MAJU JAYA;"Fattah Nomer Ciledug, Jl. Raden Fatah No.19, RT.001/RW.009, Sudimara Bar., Tangerang, Kota Tangerang, Banten 15151";"Jl. Raden Fatah No.19, RT.001/RW.009, Sudimara Bar., Tangerang, Kota Tangerang";MALUKU;15151;Indonesia;081280507760;;;-62.376.369;1.067.032.634;https://maps.google.com/?cid=0x0:0xe4da03dcc6bb4f15;
building materials;building materials;Pangkalan Pasir dan Material Bangunan;"Jl. Raya Parung Panjang No.77, Caringin, Kec. Legok, Kabupaten Tangerang, Banten 15820";"Caringin, Kec. Legok, Kabupaten Tangerang";MALUKU;15820;Indonesia;;;;-63.213.878;1.065.804.616;https://maps.google.com/?cid=0x0:0xe77cdd526fbec992;
building materials;Gudang;Bumdesma Teluk Waru;"JM45+XQ7, Unnamed Road, Belis, Bula, Kabupaten Seram Bagian Timur, Maluku";"Kabupaten Seram Bagian Timur, Maluku";MALUKU;;Indonesia;;;;-3.392.587;130.659.426;https://maps.google.com/?cid=0x0:0x7725ce970a29cc9c;
building materials;building materials;Kec. Tlk. Waru;"Kabupaten Seram Bagian Timur, Maluku";"Kabupaten Seram Bagian Timur, Maluku";MALUKU;;Indonesia;;;;-3.404.276;1.306.715.092;https://maps.google.com/?cid=0x0:0x8093b034c7ac82;
building materials;Toserba;Toko Bangunan Bintang Timur;"Kecil Atas, Jl. Wailola, Bula, Kec. Bula, Kabupaten Seram Bagian Timur, Maluku";"Kabupaten Seram Bagian Timur, Maluku";MALUKU;;Indonesia;082378990826;;;-31.020.661;1.304.795.478;https://maps.google.com/?cid=0x0:0x4aef66ef96eb16a8;
building materials;Toko Perlengkapan Rumah;Toko bangunan Arifa Indah;"WF69+CFX, Jl. Wailola, Bula, Kec. Bula, Kabupaten Seram Bagian Timur, Maluku";"Kabupaten Seram Bagian Timur, Maluku";MALUKU;;Indonesia;081231274235;;;-30.888.906;1.304.687.493;https://maps.google.com/?cid=0x0:0x6d2adbab81a89335;
building materials;Komplek perumahan;Manusela Bangunan;"NO WA OI54O54249, Jl Manusela No.2, Sariputih, Timur, Seram Bagian Utara, Maluku";"Seram Bagian Utara, Maluku";MALUKU;;Indonesia;08113622262;;;-29.068.033;1.297.601.032;https://maps.google.com/?cid=0x0:0x88daa0e37101ec98;
building materials;Toko;Toko Tunas Baru;"M966+FP8, Jl. Trans Seram, Waimital, Kec. Kairatu, Kabupaten Seram Bagian Barat, Maluku";"Kabupaten Seram Bagian Barat, Maluku";MALUKU;;Indonesia;081385661699;;;-33.388.259;1.283.618.245;https://maps.google.com/?cid=0x0:0x20a66a8197b5b440;
building materials;Toserba;Toko GAJAH MADA;"VFXM+4C8, Jl. A. Tamaela, Bula, Kec. Bula, Kabupaten Seram Bagian Timur, Maluku";"Kabupaten Seram Bagian Timur, Maluku";MALUKU;;Indonesia;081247445398;;;-31.022.107;130.483.577;https://maps.google.com/?cid=0x0:0x973ad295d2df7395;
building materials;Perajin furnitur;Abdullah ODAR;"samping hotel surya, Jalan, galala, Kec. Bula, Kabupaten Seram Bagian Timur, Maluku 97554";"Jalan, galala, Kec. Bula, Kabupaten Seram Bagian Timur";MALUKU;97554;Indonesia;082378990826;;;-3.104.452;130.488.088;https://maps.google.com/?cid=0x0:0x42993e8ef39331ef;
building materials;Toko Bahan Bangunan;Toko Bangunan Central Surya Baru Mandiri Kobi;"Mandiri, Jl. Lintas Seram, Kobi, Kec. Seram Utara Tim. Kobi, Kabupaten Maluku Tengah, Maluku 97533";"Jl. Lintas Seram, Kobi, Kec. Seram Utara Tim. Kobi, Kabupaten Maluku Tengah";MALUKU;97533;Indonesia;082230010024;;;-29.320.301;129.804.093;https://maps.google.com/?cid=0x0:0xf1c882c04b646d61;
building materials;Kantor Perusahaan;Perusahaan Listrik Negara. PT;"VFRX+4G8, JL. Hombo, Bula, Kec. Bula, Kabupaten Seram Bagian Timur, Maluku 97555";"JL. Hombo, Bula, Kec. Bula, Kabupaten Seram Bagian Timur";MALUKU;97555;Indonesia;091521177;;;-3.109.706;130.498.824;https://maps.google.com/?cid=0x0:0x7efe5b67fde51b2e;
building materials;Pusat Perbelanjaan;MR.DIY;"Jl. MS Pardede, Bula, Kec. Bula, Kabupaten Seram Bagian Timur, Maluku 97521";"Bula, Kec. Bula, Kabupaten Seram Bagian Timur";MALUKU;97521;Indonesia;;;;-31.026.211;1.304.918.778;https://maps.google.com/?cid=0x0:0xaf0d1edaaebd0381;
building materials;building materials;Puncak kadato;"VFWQ+668, Bula, Kec. Bula, Kabupaten Seram Bagian Timur, Maluku";"Kabupaten Seram Bagian Timur, Maluku";MALUKU;;Indonesia;;;;-3.104.452;130.488.088;https://maps.google.com/?cid=0x0:0x401eec6d693edb84;
building materials;Toko Bahan Bangunan;UD.NISKY SERAM DEPO BANGUNAN BULA;"WF4F+CH5, Bula, Kec. Bula, Kabupaten Seram Bagian Timur, Maluku";"Kabupaten Seram Bagian Timur, Maluku";MALUKU;;Indonesia;082198535070;;;-30.939.921;1.304.739.724;https://maps.google.com/?cid=0x0:0xc38c7b6a3f0d1249;
toko bangunan;Toko Bahan Bangunan;UD.NISKY SERAM DEPO BANGUNAN BULA;"WF4F+CH5, Bula, Kec. Bula, Kabupaten Seram Bagian Timur, Maluku";"Kabupaten Seram Bagian Timur, Maluku";MALUKU;;Indonesia;082198535070;;;-30.939.921;1.304.739.724;https://maps.google.com/?cid=0x0:0xc38c7b6a3f0d1249;
toko bangunan;Toko Perlengkapan Rumah;Toko bangunan Arifa Indah;"WF69+CFX, Jl. Wailola, Bula, Kec. Bula, Kabupaten Seram Bagian Timur, Maluku";"Kabupaten Seram Bagian Timur, Maluku";MALUKU;;Indonesia;081231274235;;;-30.888.906;1.304.687.493;https://maps.google.com/?cid=0x0:0x6d2adbab81a89335;
toko bangunan;Toko Perlengkapan Rumah;Toko Duta Bangunan;"Jl. A.R Unawekla, Bula, Kec. Bula, Kabupaten Seram Bagian Timur, Maluku";"Kabupaten Seram Bagian Timur, Maluku";MALUKU;;Indonesia;081272987200;;;-31.021.843;1.304.885.667;https://maps.google.com/?cid=0x0:0x799165d536f28f53;
toko bangunan;Toserba;Toko GAJAH MADA;"VFXM+4C8, Jl. A. Tamaela, Bula, Kec. Bula, Kabupaten Seram Bagian Timur, Maluku";"Kabupaten Seram Bagian Timur, Maluku";MALUKU;;Indonesia;081247445398;;;-31.022.107;130.483.577;https://maps.google.com/?cid=0x0:0x973ad295d2df7395;
toko bangunan;toko bangunan;Kec. Bula;"Kabupaten Seram Bagian Timur, Maluku";"Kabupaten Seram Bagian Timur, Maluku";MALUKU;;Indonesia;;;;-31.045.002;1.304.880.292;https://maps.google.com/?cid=0x0:0x6befde0c8b8d88ed;
toko bangunan;Toko Bahan Bangunan;Toko Cat Wailola (Nippon Paint);"VFVW+G9X, Jalan Bhayangkari, Bula, Kec. Bula, Kabupaten Seram Bagian Timur, Maluku";"Kabupaten Seram Bagian Timur, Maluku";MALUKU;;Indonesia;087848035298;;;-31.078.083;1.304.993.749;https://maps.google.com/?cid=0x0:0x7695f53c41074e25;
toko bangunan;Toko Perlengkapan Rumah;TOKO FIRZANAH;"Bula, Kec. Bula, Kabupaten Seram Bagian Timur, Maluku";"Kabupaten Seram Bagian Timur, Maluku";MALUKU;;Indonesia;081385661699;;;-30.792.459;1.304.651.366;https://maps.google.com/?cid=0x0:0x8d53e72d3dd962ab;
toko bangunan;Toko Alat Tulis;Toko Mitra Abadi;"Jl. Pendopo-Bula, Kab, Bula, Kec. Bula, Kabupaten Seram Bagian Timur, Maluku 97555";"Kab, Bula, Kec. Bula, Kabupaten Seram Bagian Timur";MALUKU;97555;Indonesia;082197723941;;;-31.052.482;130.486.435;https://maps.google.com/?cid=0x0:0xcec842016e537dfd;
toko bangunan;Pusat Perbelanjaan;CENTRAL SURYA BARU;"Jl. Wailola, Bula, Kec. Bula, Kabupaten Seram Bagian Timur, Maluku";"Kabupaten Seram Bagian Timur, Maluku";MALUKU;;Indonesia;081252420811;;;-30.736.662;1.304.596.047;https://maps.google.com/?cid=0x0:0x2414b3e56b070a1c;
toko bangunan;Perajin furnitur;Abdullah ODAR;"samping hotel surya, Jalan, galala, Kec. Bula, Kabupaten Seram Bagian Timur, Maluku 97554";"Jalan, galala, Kec. Bula, Kabupaten Seram Bagian Timur";MALUKU;97554;Indonesia;082378990826;;;-3.104.452;130.488.088;https://maps.google.com/?cid=0x0:0x42993e8ef39331ef;
toko bangunan;Toko Bahan Bangunan;Persada Bangka;"Jl.bangka Raya no.1 Perapatan Bangka 7 Dan 8, Dekat Kemang, RT.8/RW.7, Pela Mampang, Kec. Mampang Prpt., Kota Jakarta Selatan, Daerah Khusus Ibukota Jakarta 12720";"Dekat Kemang, RT.8/RW.7, Pela Mampang, Kec. Mampang Prpt., Kota Jakarta Selatan";MALUKU;12720;Indonesia;08111995519;;;-6.249.422;1.068.144.831;https://maps.google.com/?cid=0x0:0x952917c64239e610;
toko bangunan;Toko Bahan Bangunan;Toko bangunan universal;"Jl. Panjang Kp. Baru No.26, Sukabumi Sel., Kec. Kb. Jeruk, Kota Jakarta Barat, Daerah Khusus Ibukota Jakarta 11560";"Sukabumi Sel., Kec. Kb. Jeruk, Kota Jakarta Barat";MALUKU;11560;Indonesia;08111900096;;;-62.206.237;1.067.718.805;https://maps.google.com/?cid=0x0:0x746b2fc239b96c2e;
toko bangunan;Toko Bahan Bangunan;Matrial Bulak Karya;"Jl. Betung Raya No.8, Pd. Bambu, Kec. Duren Sawit, Kota Jakarta Timur, Daerah Khusus Ibukota Jakarta 13430";"Pd. Bambu, Kec. Duren Sawit, Kota Jakarta Timur";MALUKU;13430;Indonesia;082310106567;;;-62.357.653;1.069.034.594;https://maps.google.com/?cid=0x0:0x1b73901cf2a7a966;
toko bangunan;Toko Bahan Bangunan;TB. Usaha Baru;"Jl. Swadaya Rw. Binong No.29 8, RT.8/RW.3, Bambu Apus, Kec. Cipayung, Kota Jakarta Timur, Daerah Khusus Ibukota Jakarta 13810";"RT.8/RW.3, Bambu Apus, Kec. Cipayung, Kota Jakarta Timur";MALUKU;13810;Indonesia;02184994252;;;-63.049.244;1.069.113.824;https://maps.google.com/?cid=0x0:0x893de8d7a26c6fdf;
toko bangunan;Toko Bahan Bangunan;TB.Salsabila;"Jl. Jati Bunder No.1 5, RT.5/RW.14, Kb. Melati, Kecamatan Tanah Abang, Kota Jakarta Pusat, Daerah Khusus Ibukota Jakarta 10230";"RT.5/RW.14, Kb. Melati, Kecamatan Tanah Abang, Kota Jakarta Pusat";MALUKU;10230;Indonesia;;;;-61.924.533;1.068.120.117;https://maps.google.com/?cid=0x0:0xf977ab983d508acb;
toko bangunan;Toko Bahan Bangunan;Toko matrial usaha Baru;"Jl. Pulo Nangka Bar. No.59, Kayu Putih, Kec. Pulo Gadung, Kota Jakarta Timur, Daerah Khusus Ibukota Jakarta 13210";"Kayu Putih, Kec. Pulo Gadung, Kota Jakarta Timur";MALUKU;13210;Indonesia;;;;-61.752.253;1.068.916.811;https://maps.google.com/?cid=0x0:0xf7419c5cb4ccd164;
toko bangunan;Toko Bahan Bangunan;Toko Bangunan TB. Villa Terusan;"Jl. Pd. Cabe 1 Jl. Villa Terusan No.8A, Pd. Cabe Ilir, Kec. Pamulang, Kota Tangerang Selatan, Banten 15419";"Pd. Cabe Ilir, Kec. Pamulang, Kota Tangerang Selatan";MALUKU;15419;Indonesia;085717140303;;;-6.325.913;10.677.184;https://maps.google.com/?cid=0x0:0xb0450b7b41c527e4;
toko bangunan;Toko Bahan Bangunan;Toko Bangunan VIVA;"8, Jl. Pancawarga III No.1, RT.8/RW.5, Cipinang Besar Sel., Kecamatan Jatinegara, Kota Jakarta Timur, Daerah Khusus Ibukota Jakarta 13410";"Jl. Pancawarga III No.1, RT.8/RW.5, Cipinang Besar Sel., Kecamatan Jatinegara, Kota Jakarta Timur";MALUKU;13410;Indonesia;082110701820;;;-6.233.982;1.068.834.585;https://maps.google.com/?cid=0x0:0x1a3724c9799a6a81;
toko bangunan;Toko Bahan Bangunan;TB. Usaha Baru;"PPM4+CGM, Jl. Jombang Raya, Pd. Kacang Tim., Kec. Pd. Aren, Kota Tangerang Selatan, Banten 15224";"Jl. Jombang Raya, Pd. Kacang Tim., Kec. Pd. Aren, Kota Tangerang Selatan";MALUKU;15224;Indonesia;02195263350;;;-62.664.065;1.067.062.813;https://maps.google.com/?cid=0x0:0x1485c9fd13cf8fb9;
toko bangunan;Toko Bahan Bangunan;TB. Bangunan Baru;"Jl. Kayu Putih No.8, Pd. Cabe Udik, Kec. Pamulang, Kota Tangerang Selatan, Banten 15418";"Pd. Cabe Udik, Kec. Pamulang, Kota Tangerang Selatan";MALUKU;15418;Indonesia;087771358308;;;-6.360.062;106.762.374;https://maps.google.com/?cid=0x0:0xfed108a8da383888;
toko bangunan;Toko Bahan Bangunan;Betkapal Toko Marterial Bangunan TERBAIK;"Jl. Sunter Karya Bar. No.18-16 18, RT.18/RW.13, Sunter Agung, Kec. Tj. Priok, Jkt Utara, Daerah Khusus Ibukota Jakarta 14350";"RT.18/RW.13, Sunter Agung, Kec. Tj. Priok, Jkt Utara";MALUKU;14350;Indonesia;081264671628;;;-61.411.402;1.068.710.266;https://maps.google.com/?cid=0x0:0x5497e6b3c0ac3864;
toko bangunan;Toko Bahan Bangunan;Toko Bahan Bangunan Aneka Maju;"Blok i14 8, Jl. Pd. Kelapa Raya No.8, RT.7/RW.9, Pd. Klp., Kec. Duren Sawit, Kota Jakarta Timur, Daerah Khusus Ibukota Jakarta 13450";"Jl. Pd. Kelapa Raya No.8, RT.7/RW.9, Pd. Klp., Kec. Duren Sawit, Kota Jakarta Timur";MALUKU;13450;Indonesia;0218651606;;;-62.366.944;1.069.342.234;https://maps.google.com/?cid=0x0:0xc1d06a35075c2497;
toko bangunan;Toko Bahan Bangunan;TB. BUMI AGUNG;"Jl. Raya Cirendeu No.18, RT.1/RW.010, Pisangan, Kec. Ciputat Tim., Kota Tangerang Selatan, Banten 15419";"RT.1/RW.010, Pisangan, Kec. Ciputat Tim., Kota Tangerang Selatan";MALUKU;15419;Indonesia;087708780896;;;-63.172.677;1.067.688.875;https://maps.google.com/?cid=0x0:0xbc9a97e05c986788;
toko bangunan;Toko Bahan Bangunan;Toko Anda Mulya;"JL. Casablanca 27 RT 004/01, Jakarta, 12860, RT.14/RW.5, Menteng Dalam, Tebet, South Jakarta City, Jakarta 12960";"Jakarta,";MALUKU;12860;Indonesia;02183704071;;;-62.250.189;1.068.432.305;https://maps.google.com/?cid=0x0:0x9b1301c38fabfe92;
toko bangunan;Toko Bahan Bangunan;Toko Bangunan Pualam;"Jl. Kihajar Dewantoro No.99, RT.004/RW.002, Gondrong, Kec. Cipondoh, Kota Tangerang, Banten 15146";"RT.004/RW.002, Gondrong, Kec. Cipondoh, Kota Tangerang";MALUKU;15146;Indonesia;0817814453;;;-61.919.305;1.066.964.634;https://maps.google.com/?cid=0x0:0xdea78a0b8d9ae9b4;
toko bangunan;Toko Bahan Bangunan;BUN BANGUNAN | PUSAT BAHAN BANGUNAN;"151711, Jalan Raya Ranca Serdang Jl. Raya Rancaiyuh No.156, Ranca Iyuh, Kec. Panongan, Kabupaten Tangerang, Banten 15711";"Jalan Raya Ranca Serdang Jl. Raya Rancaiyuh No.156, Ranca Iyuh, Kec. Panongan, Kabupaten Tangerang";MALUKU;15711;Indonesia;;;;-63.102.942;1.065.344.627;https://maps.google.com/?cid=0x0:0x3ffc6e95ffec98d1;
toko bangunan;Toko Bahan Bangunan;Toko Bangunan Tiga Putra;"HJ92+7C8, Unnamed Road, Cipinang, Kec. Rumpin, Kabupaten Bogor, Jawa Barat 16350";"Unnamed Road, Cipinang, Kec. Rumpin, Kabupaten Bogor";MALUKU;16350;Indonesia;08159973352;;;-64.318.383;1.066.010.776;https://maps.google.com/?cid=0x0:0xfefd299b16cb3dd9;
toko bangunan;Toko Bahan Bangunan;TOKO BANGUNAN (TB);"Jl. Pd. Jaya No.16, Pd. Jaya, Kec. Pd. Aren, Kota Tangerang Selatan, Banten 15220";"Pd. Jaya, Kec. Pd. Aren, Kota Tangerang Selatan";MALUKU;15220;Indonesia;0857180968597;;;-62.727.846;1.067.171.299;https://maps.google.com/?cid=0x0:0x6241e7aaf26244dd;
toko bangunan;Toko Bahan Bangunan;"Kopal Bahan bangunan abu, batu split";"Cipinang, Janala, Kabupaten Bogor, Jawa Barat 16350";"Janala, Kabupaten Bogor";MALUKU;16350;Indonesia;083875702894;;;-64.320.883;1.066.310.546;https://maps.google.com/?cid=0x0:0x4c14e764cc5dd421;
toko bangunan;Toko Bahan Bangunan;UD.NISKY SERAM DEPO BANGUNAN BULA;"WF4F+CH5, Bula, Kec. Bula, Kabupaten Seram Bagian Timur, Maluku";"Kabupaten Seram Bagian Timur, Maluku";MALUKU;;Indonesia;082198535070;;;-30.939.921;1.304.739.724;https://maps.google.com/?cid=0x0:0xc38c7b6a3f0d1249;
toko bangunan;Toko Perlengkapan Rumah;Toko bangunan Arifa Indah;"WF69+CFX, Jl. Wailola, Bula, Kec. Bula, Kabupaten Seram Bagian Timur, Maluku";"Kabupaten Seram Bagian Timur, Maluku";MALUKU;;Indonesia;081231274235;;;-30.888.906;1.304.687.493;https://maps.google.com/?cid=0x0:0x6d2adbab81a89335;
toko bangunan;Toko Perlengkapan Rumah;Toko Duta Bangunan;"Jl. A.R Unawekla, Bula, Kec. Bula, Kabupaten Seram Bagian Timur, Maluku";"Kabupaten Seram Bagian Timur, Maluku";MALUKU;;Indonesia;081272987200;;;-31.021.843;1.304.885.667;https://maps.google.com/?cid=0x0:0x799165d536f28f53;
toko bangunan;toko bangunan;Kec. Bula;"Kabupaten Seram Bagian Timur, Maluku";"Kabupaten Seram Bagian Timur, Maluku";MALUKU;;Indonesia;;;;-31.045.002;1.304.880.292;https://maps.google.com/?cid=0x0:0x6befde0c8b8d88ed;
toko bangunan;Toserba;Toko GAJAH MADA;"VFXM+4C8, Jl. A. Tamaela, Bula, Kec. Bula, Kabupaten Seram Bagian Timur, Maluku";"Kabupaten Seram Bagian Timur, Maluku";MALUKU;;Indonesia;081247445398;;;-31.022.107;130.483.577;https://maps.google.com/?cid=0x0:0x973ad295d2df7395;
toko bangunan;Toko Bahan Bangunan;Toko Cat Wailola (Nippon Paint);"VFVW+G9X, Jalan Bhayangkari, Bula, Kec. Bula, Kabupaten Seram Bagian Timur, Maluku";"Kabupaten Seram Bagian Timur, Maluku";MALUKU;;Indonesia;087848035298;;;-31.078.083;1.304.993.749;https://maps.google.com/?cid=0x0:0x7695f53c41074e25;
toko bangunan;Toko Perlengkapan Rumah;TOKO FIRZANAH;"Bula, Kec. Bula, Kabupaten Seram Bagian Timur, Maluku";"Kabupaten Seram Bagian Timur, Maluku";MALUKU;;Indonesia;081385661699;;;-30.792.459;1.304.651.366;https://maps.google.com/?cid=0x0:0x8d53e72d3dd962ab;
toko bangunan;Toko Alat Tulis;Toko Mitra Abadi;"Jl. Pendopo-Bula, Kab, Bula, Kec. Bula, Kabupaten Seram Bagian Timur, Maluku 97555";"Kab, Bula, Kec. Bula, Kabupaten Seram Bagian Timur";MALUKU;97555;Indonesia;082197723941;;;-31.052.482;130.486.435;https://maps.google.com/?cid=0x0:0xcec842016e537dfd;
toko bangunan;Pusat Perbelanjaan;CENTRAL SURYA BARU;"Jl. Wailola, Bula, Kec. Bula, Kabupaten Seram Bagian Timur, Maluku";"Kabupaten Seram Bagian Timur, Maluku";MALUKU;;Indonesia;081252420811;;;-30.736.662;1.304.596.047;https://maps.google.com/?cid=0x0:0x2414b3e56b070a1c;
toko bangunan;Pusat Perbelanjaan;Wailola Shop;"Jalan Bhayangkari, Bula, East Seram, Maluku";"Kabupaten Seram Bagian Timur, Maluku";MALUKU;;Indonesia;081331422430;;;-3.106.128;130.495.989;https://maps.google.com/?cid=0x0:0x6c0e86a4807da275;
toko bangunan;Perajin furnitur;Abdullah ODAR;"samping hotel surya, Jalan, galala, Kec. Bula, Kabupaten Seram Bagian Timur, Maluku 97554";"Jalan, galala, Kec. Bula, Kabupaten Seram Bagian Timur";MALUKU;97554;Indonesia;082378990826;;;-3.104.452;130.488.088;https://maps.google.com/?cid=0x0:0x42993e8ef39331ef;
toko bangunan;Toko Bahan Bangunan;Toko bangunan universal;"Jl. Panjang Kp. Baru No.26, Sukabumi Sel., Kec. Kb. Jeruk, Kota Jakarta Barat, Daerah Khusus Ibukota Jakarta 11560";"Sukabumi Sel., Kec. Kb. Jeruk, Kota Jakarta Barat";MALUKU;11560;Indonesia;08111900096;;;-62.206.237;1.067.718.805;https://maps.google.com/?cid=0x0:0x746b2fc239b96c2e;
toko bangunan;Toko Bahan Bangunan;Matrial Bulak Karya;"Jl. Betung Raya No.8, Pd. Bambu, Kec. Duren Sawit, Kota Jakarta Timur, Daerah Khusus Ibukota Jakarta 13430";"Pd. Bambu, Kec. Duren Sawit, Kota Jakarta Timur";MALUKU;13430;Indonesia;082310106567;;;-62.357.653;1.069.034.594;https://maps.google.com/?cid=0x0:0x1b73901cf2a7a966;
toko bangunan;Toko Bahan Bangunan;Toko matrial usaha Baru;"Jl. Pulo Nangka Bar. No.59, Kayu Putih, Kec. Pulo Gadung, Kota Jakarta Timur, Daerah Khusus Ibukota Jakarta 13210";"Kayu Putih, Kec. Pulo Gadung, Kota Jakarta Timur";MALUKU;13210;Indonesia;;;;-61.752.253;1.068.916.811;https://maps.google.com/?cid=0x0:0xf7419c5cb4ccd164;
toko bangunan;Toko Bahan Bangunan;Toko Bangunan TB. Villa Terusan;"Jl. Pd. Cabe 1 Jl. Villa Terusan No.8A, Pd. Cabe Ilir, Kec. Pamulang, Kota Tangerang Selatan, Banten 15419";"Pd. Cabe Ilir, Kec. Pamulang, Kota Tangerang Selatan";MALUKU;15419;Indonesia;085717140303;;;-6.325.913;10.677.184;https://maps.google.com/?cid=0x0:0xb0450b7b41c527e4;
toko bangunan;Toko Bahan Bangunan;Toko Cat  Bangunan : MAKMUR BANGUNAN;"Jl. Percetakan Negara No.66D, Johar Baru, Kec. Johar Baru, Kota Jakarta Pusat, Daerah Khusus Ibukota Jakarta 10560";"Johar Baru, Kec. Johar Baru, Kota Jakarta Pusat";MALUKU;10560;Indonesia;087885709000;;;-61.881.347;1.068.633.217;https://maps.google.com/?cid=0x0:0x7d97590353e5c577;
toko bangunan;Toko Bahan Bangunan;Toko Bangunan VIVA;"8, Jl. Pancawarga III No.1, RT.8/RW.5, Cipinang Besar Sel., Kecamatan Jatinegara, Kota Jakarta Timur, Daerah Khusus Ibukota Jakarta 13410";"Jl. Pancawarga III No.1, RT.8/RW.5, Cipinang Besar Sel., Kecamatan Jatinegara, Kota Jakarta Timur";MALUKU;13410;Indonesia;082110701820;;;-6.233.982;1.068.834.585;https://maps.google.com/?cid=0x0:0x1a3724c9799a6a81;
toko bangunan;Toko Bahan Bangunan;TB. Usaha Baru;"PPM4+CGM, Jl. Jombang Raya, Pd. Kacang Tim., Kec. Pd. Aren, Kota Tangerang Selatan, Banten 15224";"Jl. Jombang Raya, Pd. Kacang Tim., Kec. Pd. Aren, Kota Tangerang Selatan";MALUKU;15224;Indonesia;02195263350;;;-62.664.065;1.067.062.813;https://maps.google.com/?cid=0x0:0x1485c9fd13cf8fb9;
toko bangunan;Toko Bahan Bangunan;TB.BUMI AGUNG Tarumanegara;"Jl. Jambu No.23, Pisangan, Kec. Ciputat Tim., Kota Tangerang Selatan, Banten 15419";"Pisangan, Kec. Ciputat Tim., Kota Tangerang Selatan";MALUKU;15419;Indonesia;02122740600;;;-63.152.295;1.067.585.824;https://maps.google.com/?cid=0x0:0xe9d6f6d9030eab0c;
toko bangunan;Toko Bahan Bangunan;Toko Bahan Bangunan Aneka Maju;"Blok i14 8, Jl. Pd. Kelapa Raya No.8, RT.7/RW.9, Pd. Klp., Kec. Duren Sawit, Kota Jakarta Timur, Daerah Khusus Ibukota Jakarta 13450";"Jl. Pd. Kelapa Raya No.8, RT.7/RW.9, Pd. Klp., Kec. Duren Sawit, Kota Jakarta Timur";MALUKU;13450;Indonesia;0218651606;;;-62.366.944;1.069.342.234;https://maps.google.com/?cid=0x0:0xc1d06a35075c2497;
toko bangunan;Toko Bahan Bangunan;TB. BUMI AGUNG;"Jl. Raya Cirendeu No.18, RT.1/RW.010, Pisangan, Kec. Ciputat Tim., Kota Tangerang Selatan, Banten 15419";"RT.1/RW.010, Pisangan, Kec. Ciputat Tim., Kota Tangerang Selatan";MALUKU;15419;Indonesia;087708780896;;;-63.172.677;1.067.688.875;https://maps.google.com/?cid=0x0:0xbc9a97e05c986788;
toko bangunan;Toko Bahan Bangunan;Toko Sumber Bangunan;"RVH3+6PX, Jl. Tembaga Raya-Timah, RT.3/RW.1, Harapan Mulya, Kec. Kemayoran, Kota Jakarta Pusat, Daerah Khusus Ibukota Jakarta 10640";"Jl. Tembaga Raya-Timah, RT.3/RW.1, Harapan Mulya, Kec. Kemayoran, Kota Jakarta Pusat";MALUKU;10640;Indonesia;082164465822;;;-6.171.877;1.068.543.446;https://maps.google.com/?cid=0x0:0xf59d7662826a2c4;
toko bangunan;Toko Bahan Bangunan;BUN BANGUNAN | PUSAT BAHAN BANGUNAN;"151711, Jalan Raya Ranca Serdang Jl. Raya Rancaiyuh No.156, Ranca Iyuh, Kec. Panongan, Kabupaten Tangerang, Banten 15711";"Jalan Raya Ranca Serdang Jl. Raya Rancaiyuh No.156, Ranca Iyuh, Kec. Panongan, Kabupaten Tangerang";MALUKU;15711;Indonesia;;;;-63.102.942;1.065.344.627;https://maps.google.com/?cid=0x0:0x3ffc6e95ffec98d1;
toko bangunan;Toko Bahan Bangunan;Toko Bangunan Tiga Putra;"HJ92+7C8, Unnamed Road, Cipinang, Kec. Rumpin, Kabupaten Bogor, Jawa Barat 16350";"Unnamed Road, Cipinang, Kec. Rumpin, Kabupaten Bogor";MALUKU;16350;Indonesia;08159973352;;;-64.318.383;1.066.010.776;https://maps.google.com/?cid=0x0:0xfefd299b16cb3dd9;
toko bangunan;Toko Bahan Bangunan;UD. Karya Baru;"Jl. Bintaro Utama 5 No.3A, RT.4/RW.1, Jurang Manggu Tim., Kec. Pd. Aren, Kota Tangerang Selatan, Banten 15222";"RT.4/RW.1, Jurang Manggu Tim., Kec. Pd. Aren, Kota Tangerang Selatan";MALUKU;15222;Indonesia;02173885458;;;-62.702.002;106.730.621;https://maps.google.com/?cid=0x0:0x939086d0d9aca87f;
toko bangunan;Toko Bahan Bangunan;TOKO BANGUNAN (TB);"Jl. Pd. Jaya No.16, Pd. Jaya, Kec. Pd. Aren, Kota Tangerang Selatan, Banten 15220";"Pd. Jaya, Kec. Pd. Aren, Kota Tangerang Selatan";MALUKU;15220;Indonesia;0857180968597;;;-62.727.846;1.067.171.299;https://maps.google.com/?cid=0x0:0x6241e7aaf26244dd;
toko bangunan;Toko Bahan Bangunan;"Kopal Bahan bangunan abu, batu split";"Cipinang, Janala, Kabupaten Bogor, Jawa Barat 16350";"Janala, Kabupaten Bogor";MALUKU;16350;Indonesia;083875702894;;;-64.320.883;1.066.310.546;https://maps.google.com/?cid=0x0:0x4c14e764cc5dd421;
toko bangunan;toko bangunan;N/A;;;MALUKU;;Indonesia;082116168655;;;-62.297.465;106.829.518;https://maps.google.com/?cid=0x0:0xe81bb4addc3cc1b4;
toko bangunan;Toko Bahan Bangunan;UD. Bumi Djaja;"Jl. Mandar Utama No.10, Pd. Karya, Kec. Pd. Aren, Kota Tangerang Selatan, Banten 15225";"Pd. Karya, Kec. Pd. Aren, Kota Tangerang Selatan";MALUKU;15225;Indonesia;0217497107;;;-62.708.816;1.067.387.704;https://maps.google.com/?cid=0x0:0xb7068db413a04b39;
toko bangunan;toko bangunan;Kec. Seram Tim.;"Kabupaten Seram Bagian Timur, Maluku";"Kabupaten Seram Bagian Timur, Maluku";MALUKU;;Indonesia;;;;-38.324.657;1.308.204.099;https://maps.google.com/?cid=0x0:0x70947c7ca6669763;
toko bangunan;Toko Perlengkapan Rumah;Toko Duta Bangunan;"Jl. A.R Unawekla, Bula, Kec. Bula, Kabupaten Seram Bagian Timur, Maluku";"Kabupaten Seram Bagian Timur, Maluku";MALUKU;;Indonesia;081272987200;;;-31.021.843;1.304.885.667;https://maps.google.com/?cid=0x0:0x799165d536f28f53;
toko bangunan;Toko Perlengkapan Rumah;Toko bangunan Arifa Indah;"WF69+CFX, Jl. Wailola, Bula, Kec. Bula, Kabupaten Seram Bagian Timur, Maluku";"Kabupaten Seram Bagian Timur, Maluku";MALUKU;;Indonesia;081231274235;;;-30.888.906;1.304.687.493;https://maps.google.com/?cid=0x0:0x6d2adbab81a89335;
toko bangunan;Toko Bahan Bangunan;Toko Bangunan Central Surya Baru Mandiri Kobi;"Mandiri, Jl. Lintas Seram, Kobi, Kec. Seram Utara Tim. Kobi, Kabupaten Maluku Tengah, Maluku 97533";"Jl. Lintas Seram, Kobi, Kec. Seram Utara Tim. Kobi, Kabupaten Maluku Tengah";MALUKU;97533;Indonesia;082230010024;;;-29.320.301;129.804.093;https://maps.google.com/?cid=0x0:0xf1c882c04b646d61;
toko bangunan;Komplek perumahan;Manusela Bangunan;"NO WA OI54O54249, Jl Manusela No.2, Sariputih, Timur, Seram Bagian Utara, Maluku";"Seram Bagian Utara, Maluku";MALUKU;;Indonesia;08113622262;;;-29.068.033;1.297.601.032;https://maps.google.com/?cid=0x0:0x88daa0e37101ec98;
toko bangunan;Toserba;Toko Bangunan Bintang Timur;"Kecil Atas, Jl. Wailola, Bula, Kec. Bula, Kabupaten Seram Bagian Timur, Maluku";"Kabupaten Seram Bagian Timur, Maluku";MALUKU;;Indonesia;082378990826;;;-31.020.661;1.304.795.478;https://maps.google.com/?cid=0x0:0x4aef66ef96eb16a8;
toko bangunan;Toko Bahan Bangunan;Toko Bangunan Lestari Baru;"Waihatu, Kec. Kairatu Bar., Kabupaten Seram Bagian Barat, Maluku";"Kabupaten Seram Bagian Barat, Maluku";MALUKU;;Indonesia;082238832490;;;-32.864.381;1.283.222.819;https://maps.google.com/?cid=0x0:0xb14d86a65046c260;
toko bangunan;Toko Bahan Bangunan;Toko Sumber Alam;"M966+8R6, Jl. Trans Seram, Waimital, Kec. Kairatu, Kabupaten Seram Bagian Barat, Maluku";"Kabupaten Seram Bagian Barat, Maluku";MALUKU;;Indonesia;082378990826;;;-33.392.156;128.362.011;https://maps.google.com/?cid=0x0:0x4a1586af5326e028;
toko bangunan;Toko Bahan Bangunan;Eka Pratama;"JWQV+6P5, Luhu, Kec. Huamual Belakang, Kabupaten Seram Bagian Barat, Maluku";"Kabupaten Seram Bagian Barat, Maluku";MALUKU;;Indonesia;081385661699;;;-33.619.763;1.279.443.737;https://maps.google.com/?cid=0x0:0x9297fa79318e74fa;
toko bangunan;Toko;Toko Tunas Baru;"M966+FP8, Jl. Trans Seram, Waimital, Kec. Kairatu, Kabupaten Seram Bagian Barat, Maluku";"Kabupaten Seram Bagian Barat, Maluku";MALUKU;;Indonesia;081385661699;;;-33.388.259;1.283.618.245;https://maps.google.com/?cid=0x0:0x20a66a8197b5b440;
toko bangunan;Toko Bahan Bangunan;CV. NESSTA AMBON( Cat  Bahan Bangunan );"86XJ+7HQ, Jl. Wolter Monginsidi, Lateri, Kec. Baguala, Kota Ambon, Maluku 97112";"Jl. Wolter Monginsidi, Lateri, Kec. Baguala, Kota Ambon";MALUKU;97112;Indonesia;0911356394;;;-3.651.793;128.231.489;https://maps.google.com/?cid=0x0:0x826e5740b2e0ac2f;
toko bangunan;Toko Bahan Bangunan;toko kei bahan bangunan;"HXJC+XXW, Jl. Propinsi, Bemo, Werinama, Kabupaten Seram Bagian Timur, Maluku";"Kabupaten Seram Bagian Timur, Maluku";MALUKU;;Indonesia;085299873874;;;-33.492.375;1.299.519.197;https://maps.google.com/?cid=0x0:0x1218f1c4ce74ce62;
toko bangunan;Toko;Tokoh Bangunan;"CVCH+47, Kilmoy, Kec. Tutuk Tolu, Kabupaten Seram Bagian Timur, Maluku";"Kabupaten Seram Bagian Timur, Maluku";MALUKU;;Indonesia;;;;-35.797.428;1.308.781.934;https://maps.google.com/?cid=0x0:0xa058e35e74bfa9fe;
toko bangunan;Toko Bahan Bangunan;UD.NISKY SERAM DEPO BANGUNAN BULA;"WF4F+CH5, Bula, Kec. Bula, Kabupaten Seram Bagian Timur, Maluku";"Kabupaten Seram Bagian Timur, Maluku";MALUKU;;Indonesia;082198535070;;;-30.939.921;1.304.739.724;https://maps.google.com/?cid=0x0:0xc38c7b6a3f0d1249;
toko bangunan;Pasar bahan bangunan;Toko Material Cahaya Timur;"Jl. Cahaya Titis No.53, Beji, Kecamatan Beji, Kota Depok, Jawa Barat 16426";"Beji, Kecamatan Beji, Kota Depok";MALUKU;16426;Indonesia;081398939889;;;-63.830.733;1.068.078.713;https://maps.google.com/?cid=0x0:0x6c059f8f34ac6229;
toko bangunan;Toko Perlengkapan Rumah;Toko Bangunan Manusela;"Jl Manusela No.05, Sari Putih, Werinama, Kabupaten Seram Bagian Timur, Maluku";"Kabupaten Seram Bagian Timur, Maluku";MALUKU;;Indonesia;083125236425;;;-34.233.267;1.302.271.243;https://maps.google.com/?cid=0x0:0xa3a109db57d60060;
toko bangunan;toko bangunan;Werinama;"Kabupaten Seram Bagian Timur, Maluku";"Kabupaten Seram Bagian Timur, Maluku";MALUKU;;Indonesia;;;;-34.233.267;1.302.271.243;https://maps.google.com/?cid=0x0:0x5d34ed8352394a25;
toko bangunan;Toko Bahan Bangunan;toko kei bahan bangunan;"HXJC+XXW, Jl. Propinsi, Bemo, Werinama, Kabupaten Seram Bagian Timur, Maluku";"Kabupaten Seram Bagian Timur, Maluku";MALUKU;;Indonesia;085299873874;;;-33.492.375;1.299.519.197;https://maps.google.com/?cid=0x0:0x1218f1c4ce74ce62;
toko bangunan;Toko Bahan Bangunan;Djajanti Group;"Q46W+J4X, JL. Waisarissa Passo, Atiahu, Werinama, Kabupaten Seram Bagian Timur, Maluku";"Kabupaten Seram Bagian Timur, Maluku";MALUKU;;Indonesia;082378990826;;;-3.238.383;130.145.366;https://maps.google.com/?cid=0x0:0xe6482d4f0771f7b0;
toko bangunan;Komplek perumahan;Manusela Bangunan;"NO WA OI54O54249, Jl Manusela No.2, Sariputih, Timur, Seram Bagian Utara, Maluku";"Seram Bagian Utara, Maluku";MALUKU;;Indonesia;08113622262;;;-29.068.033;1.297.601.032;https://maps.google.com/?cid=0x0:0x88daa0e37101ec98;
toko bangunan;Toko Bahan Bangunan;Mangole Timber. PT;"Q46W+J4X, Kompl Airport Pattimura Passo, Atiahu, Werinama, Kabupaten Seram Bagian Timur, Maluku";"Kabupaten Seram Bagian Timur, Maluku";MALUKU;;Indonesia;0911361700;;;-3.238.383;130.145.366;https://maps.google.com/?cid=0x0:0xff8ce4edf70b53f6;
toko bangunan;Toko Bahan Bangunan;Toko bangunan Dinda Barokah;"P85C+XWC, Waihatu, Kec. Kairatu Bar., Kabupaten Seram Bagian Barat, Maluku";"Kabupaten Seram Bagian Barat, Maluku";MALUKU;;Indonesia;081356194953;;;-32.900.692;1.283.222.692;https://maps.google.com/?cid=0x0:0x634ca5cb31d21d51;
toko bangunan;Toko;Toko Serba Bangunan Ambon;"Jl. Philip Latumahina No.10, Kel Honipopu, Kec. Sirimau, Kota Ambon, Maluku";"Kota Ambon, Maluku";MALUKU;;Indonesia;081283093876;;;-3.696.513;1.281.813.331;https://maps.google.com/?cid=0x0:0x38f3a5a63eb288ff;
toko bangunan;Komplek perumahan;Kel F Kaya;"86XJ+4G8, Jl. Wolter Monginsidi, RT.005/RW.002, Halong, baru, Kota Ambon, Maluku";"Kota Ambon, Maluku";MALUKU;;Indonesia;;;;-365.222;1.282.313.183;https://maps.google.com/?cid=0x0:0x577539fb66030f1d;
toko bangunan;Toko Bahan Bangunan;CV. NESSTA AMBON( Cat  Bahan Bangunan );"86XJ+7HQ, Jl. Wolter Monginsidi, Lateri, Kec. Baguala, Kota Ambon, Maluku 97112";"Jl. Wolter Monginsidi, Lateri, Kec. Baguala, Kota Ambon";MALUKU;97112;Indonesia;0911356394;;;-3.651.793;128.231.489;https://maps.google.com/?cid=0x0:0x826e5740b2e0ac2f;
toko bangunan;Pembangunan Perumahan;Tiara;"WC52+WV8, Plandan, Mrayan, Kec. Ngrayun, Kabupaten Ponorogo, Jawa Timur 63464";"Plandan, Mrayan, Kec. Ngrayun, Kabupaten Ponorogo";MALUKU;63464;Indonesia;;;;-80.899.896;1.114.022.952;https://maps.google.com/?cid=0x0:0xa5eca1408cc6b681;
toko bangunan;Toko Bahan Bangunan;Jual Gorong gorong;"Q9HF+9VV, Jl. Raya Sudimoro, Sudimoro, Gn. Rejo, Kec. Sudimoro, Kabupaten Pacitan, Jawa Timur 63573";"Jl. Raya Sudimoro, Sudimoro, Gn. Rejo, Kec. Sudimoro, Kabupaten Pacitan";MALUKU;63573;Indonesia;;;;-82.222.273;1.113.745.814;https://maps.google.com/?cid=0x0:0xf322ccdd68b868cf;
toko bangunan;toko bangunan;Kec. Wakate;"Kabupaten Seram Bagian Timur, Maluku";"Kabupaten Seram Bagian Timur, Maluku";MALUKU;;Indonesia;;;;-45.139.238;1.316.542.349;https://maps.google.com/?cid=0x0:0x5b89d23106f26061;
toko bangunan;toko bangunan;UD. POHON KELAPA KESUI;"GM2F+7PF, Tamher Warat, Kec. Wakate, Kabupaten Seram Bagian Timur, Maluku";"Kabupaten Seram Bagian Timur, Maluku";MALUKU;;Indonesia;;;;-44.997.905;1.316.746.432;https://maps.google.com/?cid=0x0:0x1e6c6e9ed5380a20;
toko bangunan;Toko Bahan Bangunan;Toko bangunan Dinda Barokah;"P85C+XWC, Waihatu, Kec. Kairatu Bar., Kabupaten Seram Bagian Barat, Maluku";"Kabupaten Seram Bagian Barat, Maluku";MALUKU;;Indonesia;081356194953;;;-32.900.692;1.283.222.692;https://maps.google.com/?cid=0x0:0x634ca5cb31d21d51;
toko bangunan;Toko Perlengkapan Rumah;Toko Bangunan Manusela;"Jl Manusela No.05, Sari Putih, Werinama, Kabupaten Seram Bagian Timur, Maluku";"Kabupaten Seram Bagian Timur, Maluku";MALUKU;;Indonesia;083125236425;;;-34.233.267;1.302.271.243;https://maps.google.com/?cid=0x0:0xa3a109db57d60060;
toko bangunan;Komplek perumahan;Manusela Bangunan;"NO WA OI54O54249, Jl Manusela No.2, Sariputih, Timur, Seram Bagian Utara, Maluku";"Seram Bagian Utara, Maluku";MALUKU;;Indonesia;08113622262;;;-29.068.033;1.297.601.032;https://maps.google.com/?cid=0x0:0x88daa0e37101ec98;
toko bangunan;Kebun Buah;Walang KEBUN VITA NOVI DERLAUW;"HJC7+7RH, Utta, Kec. Wakate, Kabupaten Seram Bagian Timur, Maluku";"Kabupaten Seram Bagian Timur, Maluku";MALUKU;;Indonesia;;;;-44.293.125;1.316.146.094;https://maps.google.com/?cid=0x0:0x100e82d6c672326;
toko bangunan;Toko;Tokoh Bangunan;"CVCH+47, Kilmoy, Kec. Tutuk Tolu, Kabupaten Seram Bagian Timur, Maluku";"Kabupaten Seram Bagian Timur, Maluku";MALUKU;;Indonesia;;;;-35.797.428;1.308.781.934;https://maps.google.com/?cid=0x0:0xa058e35e74bfa9fe;
toko bangunan;Pembangunan Perumahan;Sukri home;"CVX5+PGG, Waras-Waras, Kec. Tutuk Tolu, Kabupaten Seram Bagian Timur, Maluku";"Kabupaten Seram Bagian Timur, Maluku";MALUKU;;Indonesia;;;;-35.506.788;130.858.218;https://maps.google.com/?cid=0x0:0xa934ae08b74e836a;
toko bangunan;;THE Bangunan CIMUNING ( toko alat dan bahan bangunan / toko material);"samping masjid nurul insan, Jl. WR. Supratman, RT.002/RW.006, Cimuning, Kec. Mustika Jaya, Kota Bks, Jawa Barat 17155";"Jl. WR. Supratman, RT.002/RW.006, Cimuning, Kec. Mustika Jaya, Kota Bks";MALUKU;17155;Indonesia;02182594213;;;-63.112.924;1.070.276.565;https://maps.google.com/?cid=0x0:0xdf5471e58ee9279f;
toko bangunan;toko bangunan;Maluku;;Maluku;MALUKU;;Indonesia;;;;-32.384.616;1.301.452.734;https://maps.google.com/?cid=0x0:0x5e30e8db04649a51;
toko bangunan;Toserba;Toko Bangunan Bintang Timur;"Kecil Atas, Jl. Wailola, Bula, Kec. Bula, Kabupaten Seram Bagian Timur, Maluku";"Kabupaten Seram Bagian Timur, Maluku";MALUKU;;Indonesia;082378990826;;;-31.020.661;1.304.795.478;https://maps.google.com/?cid=0x0:0x4aef66ef96eb16a8;
toko bangunan;Toko Bahan Bangunan;Toko Bangunan Lestari Baru;"Waihatu, Kec. Kairatu Bar., Kabupaten Seram Bagian Barat, Maluku";"Kabupaten Seram Bagian Barat, Maluku";MALUKU;;Indonesia;082238832490;;;-32.864.381;1.283.222.819;https://maps.google.com/?cid=0x0:0xb14d86a65046c260;
toko bangunan;Komplek perumahan;Manusela Bangunan;"NO WA OI54O54249, Jl Manusela No.2, Sariputih, Timur, Seram Bagian Utara, Maluku";"Seram Bagian Utara, Maluku";MALUKU;;Indonesia;08113622262;;;-29.068.033;1.297.601.032;https://maps.google.com/?cid=0x0:0x88daa0e37101ec98;
toko bangunan;Toko Perlengkapan Rumah;Toko bangunan Arifa Indah;"WF69+CFX, Jl. Wailola, Bula, Kec. Bula, Kabupaten Seram Bagian Timur, Maluku";"Kabupaten Seram Bagian Timur, Maluku";MALUKU;;Indonesia;081231274235;;;-30.888.906;1.304.687.493;https://maps.google.com/?cid=0x0:0x6d2adbab81a89335;
toko bangunan;Toko Perlengkapan Rumah;Toko Duta Bangunan;"Jl. A.R Unawekla, Bula, Kec. Bula, Kabupaten Seram Bagian Timur, Maluku";"Kabupaten Seram Bagian Timur, Maluku";MALUKU;;Indonesia;081272987200;;;-31.021.843;1.304.885.667;https://maps.google.com/?cid=0x0:0x799165d536f28f53;
toko bangunan;Toko bahan makanan;Toko Bangunan Sinar Wajo;"MXX6+986, Namaelo, Kec. Kota Masohi, Kabupaten Maluku Tengah, Maluku";"Kabupaten Maluku Tengah, Maluku";MALUKU;;Indonesia;087773968995;;;-33.015.852;1.289.607.569;https://maps.google.com/?cid=0x0:0xee8368ef93b442cb;
toko bangunan;Toko Bahan Bangunan;Toko Bangunan MITRA TAN;"97MF+8VH NO WA OI54O54249, Suli, Kec. Salahutu, Kabupaten Maluku Tengah, Maluku";"Kabupaten Maluku Tengah, Maluku";MALUKU;;Indonesia;081343488879;;;-36.166.875;1.282.747.344;https://maps.google.com/?cid=0x0:0x55252b65239f9a78;
toko bangunan;Toko Bahan Bangunan;Toko Bangunan Central Surya Baru Mandiri Kobi;"Mandiri, Jl. Lintas Seram, Kobi, Kec. Seram Utara Tim. Kobi, Kabupaten Maluku Tengah, Maluku 97533";"Jl. Lintas Seram, Kobi, Kec. Seram Utara Tim. Kobi, Kabupaten Maluku Tengah";MALUKU;97533;Indonesia;082230010024;;;-29.320.301;129.804.093;https://maps.google.com/?cid=0x0:0xf1c882c04b646d61;
toko bangunan;Toko Bahan Bangunan;Toko Sinar Galaxi;"9P2R+MG8, Kel. Ohoijang Watdek, Kec. Kei Kecil, Kabupaten Maluku Tenggara, Maluku";"Kabupaten Maluku Tenggara, Maluku";MALUKU;;Indonesia;082174980884;;;-56.483.332;132.741.336;https://maps.google.com/?cid=0x0:0x4055388efa428fa;
toko bangunan;Toko Perlengkapan Rumah;Gudang UD. DINA (Toko Bahan Bangunan);"PX46+9J3 NO WA OI54O54249, Letwaru, Kec. Kota Masohi, Kabupaten Maluku Tengah, Maluku 97511";"Letwaru, Kec. Kota Masohi, Kabupaten Maluku Tengah";MALUKU;97511;Indonesia;081334075073;;;-32.941;1.289.615.377;https://maps.google.com/?cid=0x0:0x19f72d6dac071e6c;
toko bangunan;Toko umum;Toko SHERLY;"Jalan Pasar lama .desa, Dwi Warna, Kecamatan, Kabupaten Maluku Tengah, Maluku";"Kabupaten Maluku Tengah, Maluku";MALUKU;;Indonesia;082378990826;;;-45.299.938;1.299.033.663;https://maps.google.com/?cid=0x0:0x2d87e4127d898ba0;
toko bangunan;Toko;Toko Tunas Baru;"M966+FP8, Jl. Trans Seram, Waimital, Kec. Kairatu, Kabupaten Seram Bagian Barat, Maluku";"Kabupaten Seram Bagian Barat, Maluku";MALUKU;;Indonesia;081385661699;;;-33.388.259;1.283.618.245;https://maps.google.com/?cid=0x0:0x20a66a8197b5b440;
toko bangunan;Toko Perlengkapan Rumah;Toko Bangunan Manusela;"Jl Manusela No.05, Sari Putih, Werinama, Kabupaten Seram Bagian Timur, Maluku";"Kabupaten Seram Bagian Timur, Maluku";MALUKU;;Indonesia;083125236425;;;-34.233.267;1.302.271.243;https://maps.google.com/?cid=0x0:0xa3a109db57d60060;
toko bangunan;Toko Bahan Bangunan;Toko DOLIF DESA LUHU;"JX7M+655, kmp bunga 1, Luhu, Kec. Huamual Belakang, Kabupaten Seram Bagian Barat, Maluku";"Kabupaten Seram Bagian Barat, Maluku";MALUKU;;Indonesia;;;;-33.869.784;1.279.829.825;https://maps.google.com/?cid=0x0:0xe28303e624ccca63;
toko bangunan;Toko Elektronik;Toko Bangunan Dan Listrik CEMRA;"Namaelo, Kec. Kota Masohi, Kabupaten Maluku Tengah, Maluku";"Kabupaten Maluku Tengah, Maluku";MALUKU;;Indonesia;082399119777;;;-32.995.422;128.957.025;https://maps.google.com/?cid=0x0:0xf35d16ec43ce896a;
toko bangunan;Toko Bahan Bangunan;Toko bangunan Dinda Barokah;"P85C+XWC, Waihatu, Kec. Kairatu Bar., Kabupaten Seram Bagian Barat, Maluku";"Kabupaten Seram Bagian Barat, Maluku";MALUKU;;Indonesia;081356194953;;;-32.900.692;1.283.222.692;https://maps.google.com/?cid=0x0:0x634ca5cb31d21d51;
toko bangunan;Toko Perlengkapan Rumah;Toko Bangun Bintang Timur;"M965+7HC, Waimital, Kec. Kairatu, Kabupaten Seram Bagian Barat, Maluku";"Kabupaten Seram Bagian Barat, Maluku";MALUKU;;Indonesia;081356015298;;;-33.393.218;1.283.589.023;https://maps.google.com/?cid=0x0:0x4b850a79fd1e21e1;
toko bangunan;Toko Perlengkapan Rumah;TOKO BANGUNAN HORAS SUDE;"98P2+CRC, Unnamed Road, Suli, Kec. Salahutu, Kabupaten Maluku Tengah, Maluku";"Kabupaten Maluku Tengah, Maluku";MALUKU;;Indonesia;082378990826;;;-36.139.382;1.283.020.017;https://maps.google.com/?cid=0x0:0x6995e3509d85c95b;
toko bangunan;Komplek perumahan;TOKO BANGUNAN ANGEL;"97MG+F66, Suli, Kec. Salahutu, Kabupaten Maluku Tengah, Maluku";"Kabupaten Maluku Tengah, Maluku";MALUKU;;Indonesia;081343490500;;;-36.163.464;1.282.755.073;https://maps.google.com/?cid=0x0:0x6b74a75f1baf410c;
toko bangunan;Pusat Perbelanjaan;Toko Wiliam Jaya;"X539+F4M, jalan lintas seram, Benggoi, Kec. Bula Barat, Kabupaten Seram Bagian Timur, Maluku";"Kabupaten Seram Bagian Timur, Maluku";MALUKU;;Indonesia;;;;-304.628;1.301.677.978;https://maps.google.com/?cid=0x0:0x217df7aec4769d63;
toko bangunan;;Aneka Bangunan;"HMRR+HR7, Tomalehu, Kec. Amalatu, Kabupaten Seram Bagian Barat, Maluku";"Kabupaten Seram Bagian Barat, Maluku";MALUKU;;Indonesia;082378990826;;;-34.086.133;1.286.919.824;https://maps.google.com/?cid=0x0:0xce54d8093551ed41;
toko bangunan;Toko Bahan Bangunan;TOKO ILHAM;"28R5+VPH, Unnamed Road, Sifnana, Tanimbar Sel., Kab. Kepulauan Tanimbar, Maluku";"Kab. Kepulauan Tanimbar, Maluku";MALUKU;;Indonesia;083125236425;;;-79.578.237;1.313.093.484;https://maps.google.com/?cid=0x0:0xdc8ca2706d30ea1a;
toko bangunan;Toko Bahan Bangunan;toko berkah jaya.tulehu;"Tulehu, Kec. Salahutu, Kabupaten Maluku Tengah, Maluku";"Kabupaten Maluku Tengah, Maluku";MALUKU;;Indonesia;082178000783;;;-35.906.284;1.283.344.883;https://maps.google.com/?cid=0x0:0x1ca090d4efad3f4d;
toko bangunan;Toko Bahan Bangunan;Toko bangunan Al Mubarak;"279W+294, Pasar, Olilit, Tanimbar Sel., Kab. Kepulauan Tanimbar, Maluku";"Kab. Kepulauan Tanimbar, Maluku";MALUKU;;Indonesia;08123746174;;;-79.824.933;1.312.959.625;https://maps.google.com/?cid=0x0:0xd6b97f6e48819bac;
toko bangunan;Toko Bahan Bangunan;Toko Bangunan MITRA BANGUNAN"";"8VMJ+P37, Fidi Jaya, Kec. Weda Tengah, Kabupaten Halmahera Tengah, Maluku Utara";"Kabupaten Halmahera Tengah, Maluku Utara";MALUKU;;Indonesia;08971539577;;;0.334292;1.278.801.666;https://maps.google.com/?cid=0x0:0x6db8eb4715256fc8;
toko bangunan;Kantor Pemerintah;PENDOPO BUPATI KABUPATEN SERAM BAGIAN TIMUR;"VFWJ+8FJ, Bula, Kec. Bula, Kabupaten Seram Bagian Timur, Maluku";"Kabupaten Seram Bagian Timur, Maluku";MALUKU;;Indonesia;082239570453;;;-31.041.635;1.304.811.434;https://maps.google.com/?cid=0x0:0xacf969e03d0175ad;
toko bangunan;Toko Bahan Bangunan;Toko Bangunan Lestari Baru;"Waihatu, Kec. Kairatu Bar., Kabupaten Seram Bagian Barat, Maluku";"Kabupaten Seram Bagian Barat, Maluku";MALUKU;;Indonesia;082238832490;;;-32.864.381;1.283.222.819;https://maps.google.com/?cid=0x0:0xb14d86a65046c260;
toko bangunan;toko bangunan;Kilmury;"Kec. Seram Tim., Kabupaten Seram Bagian Timur, Maluku";"Kabupaten Seram Bagian Timur, Maluku";MALUKU;;Indonesia;;;;-36.249.497;1.305.940.565;https://maps.google.com/?cid=0x0:0x935e27a1be02d187;
toko bangunan;Toko Perlengkapan Rumah;Toko bangunan Arifa Indah;"WF69+CFX, Jl. Wailola, Bula, Kec. Bula, Kabupaten Seram Bagian Timur, Maluku";"Kabupaten Seram Bagian Timur, Maluku";MALUKU;;Indonesia;081231274235;;;-30.888.906;1.304.687.493;https://maps.google.com/?cid=0x0:0x6d2adbab81a89335;
toko bangunan;Toko Bahan Bangunan;Toko Bangunan Central Surya Baru Mandiri Kobi;"Mandiri, Jl. Lintas Seram, Kobi, Kec. Seram Utara Tim. Kobi, Kabupaten Maluku Tengah, Maluku 97533";"Jl. Lintas Seram, Kobi, Kec. Seram Utara Tim. Kobi, Kabupaten Maluku Tengah";MALUKU;97533;Indonesia;082230010024;;;-29.320.301;129.804.093;https://maps.google.com/?cid=0x0:0xf1c882c04b646d61;
toko bangunan;Toko Bahan Bangunan;Toko bangunan Dinda Barokah;"P85C+XWC, Waihatu, Kec. Kairatu Bar., Kabupaten Seram Bagian Barat, Maluku";"Kabupaten Seram Bagian Barat, Maluku";MALUKU;;Indonesia;081356194953;;;-32.900.692;1.283.222.692;https://maps.google.com/?cid=0x0:0x634ca5cb31d21d51;
toko bangunan;Toko;Toko Rifky Jkt Bru;"P385+MC7, Lokki, Kec. Huamual Belakang, Kabupaten Seram Bagian Barat, Maluku";"Kabupaten Seram Bagian Barat, Maluku";MALUKU;;Indonesia;082378990826;;;-32.833.419;1.280.585.336;https://maps.google.com/?cid=0x0:0xfc53f32c414a25a3;
toko bangunan;Toko Bahan Bangunan;CV. NESSTA AMBON( Cat  Bahan Bangunan );"86XJ+7HQ, Jl. Wolter Monginsidi, Lateri, Kec. Baguala, Kota Ambon, Maluku 97112";"Jl. Wolter Monginsidi, Lateri, Kec. Baguala, Kota Ambon";MALUKU;97112;Indonesia;0911356394;;;-3.651.793;128.231.489;https://maps.google.com/?cid=0x0:0x826e5740b2e0ac2f;
toko bangunan;Toko;Toko Serba Bangunan Ambon;"Jl. Philip Latumahina No.10, Kel Honipopu, Kec. Sirimau, Kota Ambon, Maluku";"Kota Ambon, Maluku";MALUKU;;Indonesia;081283093876;;;-3.696.513;1.281.813.331;https://maps.google.com/?cid=0x0:0x38f3a5a63eb288ff;
toko bangunan;Toko Bahan Bangunan;Eka Pratama;"JWQV+6P5, Luhu, Kec. Huamual Belakang, Kabupaten Seram Bagian Barat, Maluku";"Kabupaten Seram Bagian Barat, Maluku";MALUKU;;Indonesia;081385661699;;;-33.619.763;1.279.443.737;https://maps.google.com/?cid=0x0:0x9297fa79318e74fa;
toko bangunan;Toko Bahan Bangunan;Toko Duta Bangunan;"Jl. Danau Rana, Namlea, Kec. Namlea, Kabupaten Buru, Maluku";"Kabupaten Buru, Maluku";MALUKU;;Indonesia;091322010;;;-3.269.268;1.271.034.228;https://maps.google.com/?cid=0x0:0x4d2e61629ea407b9;
toko bangunan;Toko Bahan Bangunan;toko kei bahan bangunan;"HXJC+XXW, Jl. Propinsi, Bemo, Werinama, Kabupaten Seram Bagian Timur, Maluku";"Kabupaten Seram Bagian Timur, Maluku";MALUKU;;Indonesia;085299873874;;;-33.492.375;1.299.519.197;https://maps.google.com/?cid=0x0:0x1218f1c4ce74ce62;
toko bangunan;Toko;Tokoh Bangunan;"CVCH+47, Kilmoy, Kec. Tutuk Tolu, Kabupaten Seram Bagian Timur, Maluku";"Kabupaten Seram Bagian Timur, Maluku";MALUKU;;Indonesia;;;;-35.797.428;1.308.781.934;https://maps.google.com/?cid=0x0:0xa058e35e74bfa9fe;
toko bangunan;Pembangunan Perumahan;Sukri home;"CVX5+PGG, Waras-Waras, Kec. Tutuk Tolu, Kabupaten Seram Bagian Timur, Maluku";"Kabupaten Seram Bagian Timur, Maluku";MALUKU;;Indonesia;;;;-35.506.788;130.858.218;https://maps.google.com/?cid=0x0:0xa934ae08b74e836a;
toko bangunan;Toko Bahan Bangunan;Toko Bangunan Lestari Baru;"Waihatu, Kec. Kairatu Bar., Kabupaten Seram Bagian Barat, Maluku";"Kabupaten Seram Bagian Barat, Maluku";MALUKU;;Indonesia;082238832490;;;-32.864.381;1.283.222.819;https://maps.google.com/?cid=0x0:0xb14d86a65046c260;
toko bangunan;toko bangunan;Maluku;;Maluku;MALUKU;;Indonesia;;;;-32.384.616;1.301.452.734;https://maps.google.com/?cid=0x0:0x5e30e8db04649a51;
toko bangunan;Kebun Buah;Walang KEBUN VITA NOVI DERLAUW;"HJC7+7RH, Utta, Kec. Wakate, Kabupaten Seram Bagian Timur, Maluku";"Kabupaten Seram Bagian Timur, Maluku";MALUKU;;Indonesia;;;;-44.293.125;1.316.146.094;https://maps.google.com/?cid=0x0:0x100e82d6c672326;
toko bangunan;Toko;Toko Tunas Baru;"M966+FP8, Jl. Trans Seram, Waimital, Kec. Kairatu, Kabupaten Seram Bagian Barat, Maluku";"Kabupaten Seram Bagian Barat, Maluku";MALUKU;;Indonesia;081385661699;;;-33.388.259;1.283.618.245;https://maps.google.com/?cid=0x0:0x20a66a8197b5b440;
toko bangunan;Toko Bahan Bangunan;TB. Pulau Panjang;"Jl. Bojonegara No.88, Kertasana, Kec. Bojonegara, Kabupaten Serang, Banten 42454";"Kertasana, Kec. Bojonegara, Kabupaten Serang";MALUKU;42454;Indonesia;085966114948;;;-59.956.104;1.060.760.362;https://maps.google.com/?cid=0x0:0xaef92a91f8623256;
toko bangunan;toko bangunan;UD. POHON KELAPA KESUI;"GM2F+7PF, Tamher Warat, Kec. Wakate, Kabupaten Seram Bagian Timur, Maluku";"Kabupaten Seram Bagian Timur, Maluku";MALUKU;;Indonesia;;;;-44.997.905;1.316.746.432;https://maps.google.com/?cid=0x0:0x1e6c6e9ed5380a20;
toko bangunan;Toko Bahan Bangunan;Toko Hasil Karya;"Jl. Bangka Raya No.16, Pela Mampang, Kec. Mampang Prpt., Kota Jakarta Selatan, Daerah Khusus Ibukota Jakarta 12720";"Pela Mampang, Kec. Mampang Prpt., Kota Jakarta Selatan";MALUKU;12720;Indonesia;083188185895;;;-62.427.411;1.068.168.101;https://maps.google.com/?cid=0x0:0x31e6d4ea215a3cda;
toko bangunan;Toko Bahan Bangunan;Toko Bangunan Hari-hari;"Jl. Mandala Utara No.21, RT.17/RW.4, Tomang, Kec. Grogol petamburan, Kota Jakarta Barat, Daerah Khusus Ibukota Jakarta 11440";"RT.17/RW.4, Tomang, Kec. Grogol petamburan, Kota Jakarta Barat";MALUKU;11440;Indonesia;0215642893;;;-61.721.247;1.067.983.298;https://maps.google.com/?cid=0x0:0x91aa30314dd11ef;
toko bangunan;Toko Bahan Bangunan;Roda Selatan Benhil;"Jl. Bendungan Hilir No.68, RT.5/RW.1, Bend. Hilir, Kecamatan Tanah Abang, Kota Jakarta Pusat, Daerah Khusus Ibukota Jakarta 10210";"RT.5/RW.1, Bend. Hilir, Kecamatan Tanah Abang, Kota Jakarta Pusat";MALUKU;10210;Indonesia;0818811622;;;-62.129.113;1.068.127.439;https://maps.google.com/?cid=0x0:0xf89d982b6d24dcf0;
toko bangunan;Toko Bahan Bangunan;TB. Alam Makmur Jalan Bangka;"Jl. Bangka VIII No.61, Pela Mampang, Kec. Mampang Prpt., Kota Jakarta Selatan, Daerah Khusus Ibukota Jakarta 12720";"Pela Mampang, Kec. Mampang Prpt., Kota Jakarta Selatan";MALUKU;12720;Indonesia;081233332837;;;-62.490.354;106.820.588;https://maps.google.com/?cid=0x0:0x288f8ed419a419c3;
toko bangunan;Toko Bahan Bangunan;Toko Abu Sofyan;"Jl. Tulodong Atas No.9a 6, RT.6/RW.3, Senayan, Kec. Kby. Baru, Kota Jakarta Selatan, Daerah Khusus Ibukota Jakarta 12110";"RT.6/RW.3, Senayan, Kec. Kby. Baru, Kota Jakarta Selatan";MALUKU;12110;Indonesia;;;;-62.302.552;1.068.086.506;https://maps.google.com/?cid=0x0:0xccf6ad4ed60e494;
toko bangunan;Toko Bahan Bangunan;Toko Bangunan Fajar;"Jl. Cempaka Putih Barat II No.28A, Cemp. Putih Bar., Kec. Cemp. Putih, Kota Jakarta Pusat, Daerah Khusus Ibukota Jakarta 10520";"Cemp. Putih Bar., Kec. Cemp. Putih, Kota Jakarta Pusat";MALUKU;10520;Indonesia;02142801747;;;-61.748.033;1.068.637.371;https://maps.google.com/?cid=0x0:0xf356c194d2623b6;
toko bangunan;Toko Bahan Bangunan;TB ACC;"Jl Bendungan Hilir Raya no 54. Bendungan Hilir Tanah Abang Jakarta Pusat DKI Jakarta, RT.8, RT.8/RW.1, Bendungan Hilir, Tanah Abang, Central Jakarta City, Jakarta 10210";"RT.8, RT.8/RW.1, Bendungan Hilir, Tanah Abang, Central Jakarta City";MALUKU;10210;Indonesia;082123538385;;;-62.137.603;1.068.134.825;https://maps.google.com/?cid=0x0:0x5ad0a3d63ad4cf0f;
toko bangunan;Toko Bahan Bangunan;TB. Sami Jaya;"Santa Modern Market, Jl. Cipaku I, RT.5/RW.4, Petogogan, Kec. Kby. Baru, Kota Jakarta Selatan, Daerah Khusus Ibukota Jakarta 12170";"Jl. Cipaku I, RT.5/RW.4, Petogogan, Kec. Kby. Baru, Kota Jakarta Selatan";MALUKU;12170;Indonesia;081294460041;;;-62.398.695;1.068.116.984;https://maps.google.com/?cid=0x0:0x1fb50bea73666b30;
toko bangunan;Toko Bahan Bangunan;Toko Terang Jaya;"Jl. Kapten Tendean No.1, RT.1/RW.3, Kuningan Bar., Kec. Mampang Prpt., Kota Jakarta Selatan, Daerah Khusus Ibukota Jakarta 12790";"RT.1/RW.3, Kuningan Bar., Kec. Mampang Prpt., Kota Jakarta Selatan";MALUKU;12790;Indonesia;0215251000;;;-62.397.081;1.068.252.906;https://maps.google.com/?cid=0x0:0x1d1c97a315798bd7;
toko bangunan;Toko Bahan Bangunan;Toko Besi Sabar;"Santa Modern Market, Jl. Cipaku I No.181-183 Lt. 1 Loo Bks, RT.5/RW.4, Petogogan, Kec. Kby. Baru, Kota Jakarta Selatan, Daerah Khusus Ibukota Jakarta 12170";"Jl. Cipaku I No.181-183 Lt. 1 Loo Bks, RT.5/RW.4, Petogogan, Kec. Kby. Baru, Kota Jakarta Selatan";MALUKU;12170;Indonesia;;;;-62.398.766;1.068.121.225;https://maps.google.com/?cid=0x0:0x3d9b1f620e32fe90;
toko bangunan;Toko Bahan Bangunan;TB. Sinar Pedurenan;"Jl. Pedurenan Mesjid Raya No.72 9, RT.9/RW.4, Kuningan, Karet Kuningan, Kecamatan Setiabudi, Kota Jakarta Selatan, Daerah Khusus Ibukota Jakarta 12940";"RT.9/RW.4, Kuningan, Karet Kuningan, Kecamatan Setiabudi, Kota Jakarta Selatan";MALUKU;12940;Indonesia;0818810677;;;-62.211.396;1.068.277.684;https://maps.google.com/?cid=0x0:0x12debf374f265a41;
toko bangunan;Toko Bahan Bangunan;Toko Makmur;"Jl. Kapten Tendean No.12, RT.1/RW.3, Kuningan Bar., Kec. Mampang Prpt., Kota Jakarta Selatan, Daerah Khusus Ibukota Jakarta 12710";"RT.1/RW.3, Kuningan Bar., Kec. Mampang Prpt., Kota Jakarta Selatan";MALUKU;12710;Indonesia;08159333385;;;-62.398.459;1.068.250.111;https://maps.google.com/?cid=0x0:0x6cb829b63fde1abb;
toko bangunan;Toko Bahan Bangunan;TB.Dd Bangunan Karet;"Jl. Anggrek I No.22, RT.10/RW.1, Kuningan, Karet Kuningan, Kecamatan Setiabudi, Kota Jakarta Selatan, Daerah Khusus Ibukota Jakarta 12940";"RT.10/RW.1, Kuningan, Karet Kuningan, Kecamatan Setiabudi, Kota Jakarta Selatan";MALUKU;12940;Indonesia;082299001171;;;-62.171.933;1.068.236.779;https://maps.google.com/?cid=0x0:0x86a0f50a61b9149b;
toko bangunan;Toko Bahan Bangunan;Toko Bangunan;"Jl. Martimbang Raya No.1, RT.1/RW.5, Gunung, Kec. Kby. Baru, Kota Jakarta Selatan, Daerah Khusus Ibukota Jakarta 12220";"RT.1/RW.5, Gunung, Kec. Kby. Baru, Kota Jakarta Selatan";MALUKU;12220;Indonesia;085102121495;;;-62.321.591;1.067.909.595;https://maps.google.com/?cid=0x0:0x94aa8af43244773f;
toko bangunan;Pemasok Bahan Bangunan;TB Kawan Niaga;"Jl. Melawai 9 No.165 3, RT.3/RW.1, Melawai, Kec. Kby. Baru, Kota Jakarta Selatan, Daerah Khusus Ibukota Jakarta 12160";"RT.3/RW.1, Melawai, Kec. Kby. Baru, Kota Jakarta Selatan";MALUKU;12160;Indonesia;;;;-6.245.294;1.068.015.668;https://maps.google.com/?cid=0x0:0x52ba52ebfe771859;
toko bangunan;Toko Tegel;Bangunan Baru - Toko Keramik  Sanitary;"Jl. Panglima Polim No.48, Pulo, Kec. Kby. Lama, Kota Jakarta Selatan, Daerah Khusus Ibukota Jakarta 12310";"Pulo, Kec. Kby. Lama, Kota Jakarta Selatan";MALUKU;12310;Indonesia;0217251233;;;-62.514.165;10.679.727;https://maps.google.com/?cid=0x0:0x43f93161f39d996f;
toko bangunan;Toko Bahan Bangunan;TB Berkah Jaya;"QRC4+9H9 dusun 2, Jl wuni, RT.8/RW.3, Senayan, Kec. Kby. Baru, Kota Jakarta Selatan, Daerah Khusus Ibukota Jakarta";"Kota Jakarta Selatan, Daerah Khusus Ibukota Jakarta";MALUKU;;Indonesia;;;;-62.290.878;1.068.064.799;https://maps.google.com/?cid=0x0:0xc667407d640bf57a;
toko bangunan;Pemasok Bahan Bangunan;Toko Indo Bangunan;"Jl. Panglima Polim No.52 A 9, RT.9/RW.7, Pulo, Kec. Kby. Baru, Kota Jakarta Selatan, Daerah Khusus Ibukota Jakarta 12160";"RT.9/RW.7, Pulo, Kec. Kby. Baru, Kota Jakarta Selatan";MALUKU;12160;Indonesia;0217392172;;;-6.251.485;10.679.727;https://maps.google.com/?cid=0x0:0x9fe04d1826dbb33b;
toko bangunan;Toko Bahan Bangunan;Toko Bangunan Alam Makmur;"Jl. Karbela Barat Jl. Karet Belakang Barat No.7, Kuningan, Karet, Kecamatan Setiabudi, Kota Jakarta Selatan, Daerah Khusus Ibukota Jakarta 12920";"Kuningan, Karet, Kecamatan Setiabudi, Kota Jakarta Selatan";MALUKU;12920;Indonesia;085174458168;;;-62.150.307;1.068.257.246;https://maps.google.com/?cid=0x0:0x401d10d91f85a554;
toko bangunan;Toko;Toko Tunas Baru;"M966+FP8, Jl. Trans Seram, Waimital, Kec. Kairatu, Kabupaten Seram Bagian Barat, Maluku";"Kabupaten Seram Bagian Barat, Maluku";MALUKU;;Indonesia;081385661699;;;-33.388.259;1.283.618.245;https://maps.google.com/?cid=0x0:0x20a66a8197b5b440;
toko bangunan;Toko Bahan Bangunan;Toko Bangunan Lestari Baru;"Waihatu, Kec. Kairatu Bar., Kabupaten Seram Bagian Barat, Maluku";"Kabupaten Seram Bagian Barat, Maluku";MALUKU;;Indonesia;082238832490;;;-32.864.381;1.283.222.819;https://maps.google.com/?cid=0x0:0xb14d86a65046c260;
toko bangunan;Toko Bahan Bangunan;Toko bangunan Dinda Barokah;"P85C+XWC, Waihatu, Kec. Kairatu Bar., Kabupaten Seram Bagian Barat, Maluku";"Kabupaten Seram Bagian Barat, Maluku";MALUKU;;Indonesia;081356194953;;;-32.900.692;1.283.222.692;https://maps.google.com/?cid=0x0:0x634ca5cb31d21d51;
toko bangunan;toko bangunan;BB Palazzo Strassoldo;"Via S. Marco, 3, 33061 Rivignano Teor UD, Italia";Rivignano Teor UD;MALUKU;33061;Indonesia;"3,93454E+11";;;45.848.534;130.693.208;https://maps.google.com/?cid=0x0:0x325ae825c1360670;
toko bangunan;Toko umum;Toko Sinar Gorom;"294H+HC7, Kataloka, Kec. Pulau Gorom, Kabupaten Seram Bagian Timur, Maluku";"Kabupaten Seram Bagian Timur, Maluku";MALUKU;;Indonesia;;;;-39.935.769;1.313.785.526;https://maps.google.com/?cid=0x0:0xeb1bddb46afd2682;
toko bangunan;Toko Perlengkapan Rumah;Toko Ceria Gorom;"294H+F9Q, Jl jou besi, desa kataloka, Kec. Pulau Gorom, Kabupaten Seram Bagian Timur, Maluku";"Kabupaten Seram Bagian Timur, Maluku";MALUKU;;Indonesia;;;;-39.936.513;1.313.784.086;https://maps.google.com/?cid=0x0:0xfb550a49ffeafdbd;
toko bangunan;Kantor Pemerintah;PENDOPO BUPATI KABUPATEN SERAM BAGIAN TIMUR;"VFWJ+8FJ, Bula, Kec. Bula, Kabupaten Seram Bagian Timur, Maluku";"Kabupaten Seram Bagian Timur, Maluku";MALUKU;;Indonesia;082239570453;;;-31.041.635;1.304.811.434;https://maps.google.com/?cid=0x0:0xacf969e03d0175ad;
toko bangunan;Toserba;Toko Bangunan Bintang Timur;"Kecil Atas, Jl. Wailola, Bula, Kec. Bula, Kabupaten Seram Bagian Timur, Maluku";"Kabupaten Seram Bagian Timur, Maluku";MALUKU;;Indonesia;082378990826;;;-31.020.661;1.304.795.478;https://maps.google.com/?cid=0x0:0x4aef66ef96eb16a8;
toko bangunan;Toko Perlengkapan Rumah;Toko bangunan Arifa Indah;"WF69+CFX, Jl. Wailola, Bula, Kec. Bula, Kabupaten Seram Bagian Timur, Maluku";"Kabupaten Seram Bagian Timur, Maluku";MALUKU;;Indonesia;081231274235;;;-30.888.906;1.304.687.493;https://maps.google.com/?cid=0x0:0x6d2adbab81a89335;
toko bangunan;toko bangunan;Kec. Bula Barat;"Kabupaten Seram Bagian Timur, Maluku";"Kabupaten Seram Bagian Timur, Maluku";MALUKU;;Indonesia;;;;-30.472.432;1.301.469.398;https://maps.google.com/?cid=0x0:0x12c29f15f276cac6;
toko bangunan;Toko Bahan Bangunan;UD.NISKY SERAM DEPO BANGUNAN BULA;"WF4F+CH5, Bula, Kec. Bula, Kabupaten Seram Bagian Timur, Maluku";"Kabupaten Seram Bagian Timur, Maluku";MALUKU;;Indonesia;082198535070;;;-30.939.921;1.304.739.724;https://maps.google.com/?cid=0x0:0xc38c7b6a3f0d1249;
toko bangunan;Toserba;Toko GAJAH MADA;"VFXM+4C8, Jl. A. Tamaela, Bula, Kec. Bula, Kabupaten Seram Bagian Timur, Maluku";"Kabupaten Seram Bagian Timur, Maluku";MALUKU;;Indonesia;081247445398;;;-31.022.107;130.483.577;https://maps.google.com/?cid=0x0:0x973ad295d2df7395;
toko bangunan;Toserba;Toko Bangunan Bintang Timur;"Kecil Atas, Jl. Wailola, Bula, Kec. Bula, Kabupaten Seram Bagian Timur, Maluku";"Kabupaten Seram Bagian Timur, Maluku";MALUKU;;Indonesia;082378990826;;;-31.020.661;1.304.795.478;https://maps.google.com/?cid=0x0:0x4aef66ef96eb16a8;
toko bangunan;Pusat Perbelanjaan;Toko Wiliam Jaya;"X539+F4M, jalan lintas seram, Benggoi, Kec. Bula Barat, Kabupaten Seram Bagian Timur, Maluku";"Kabupaten Seram Bagian Timur, Maluku";MALUKU;;Indonesia;;;;-304.628;1.301.677.978;https://maps.google.com/?cid=0x0:0x217df7aec4769d63;
toko bangunan;Toko Bahan Bangunan;Toko Cat Wailola (Nippon Paint);"VFVW+G9X, Jalan Bhayangkari, Bula, Kec. Bula, Kabupaten Seram Bagian Timur, Maluku";"Kabupaten Seram Bagian Timur, Maluku";MALUKU;;Indonesia;087848035298;;;-31.078.083;1.304.993.749;https://maps.google.com/?cid=0x0:0x7695f53c41074e25;
toko bangunan;Toko bahan makanan;Toko NURIDA;"Unnamed Road, Upt T. Jkt Baru, Bula, Kabupaten Seram Bagian Timur, Maluku";"Kabupaten Seram Bagian Timur, Maluku";MALUKU;;Indonesia;;;;-30.601.964;1.302.595.453;https://maps.google.com/?cid=0x0:0xb0271f9afc60e84b;
toko bangunan;Toko Bahan Bangunan;Toko Bangunan Lestari Baru;"Waihatu, Kec. Kairatu Bar., Kabupaten Seram Bagian Barat, Maluku";"Kabupaten Seram Bagian Barat, Maluku";MALUKU;;Indonesia;082238832490;;;-32.864.381;1.283.222.819;https://maps.google.com/?cid=0x0:0xb14d86a65046c260;
toko bangunan;Toko Alat Tulis;Toko Mitra Abadi;"Jl. Pendopo-Bula, Kab, Bula, Kec. Bula, Kabupaten Seram Bagian Timur, Maluku 97555";"Kab, Bula, Kec. Bula, Kabupaten Seram Bagian Timur";MALUKU;97555;Indonesia;082197723941;;;-31.052.482;130.486.435;https://maps.google.com/?cid=0x0:0xcec842016e537dfd;
toko bangunan;Pembangunan Perumahan;TOKO GAYATRI;"X52F+R28, Waiketam Baru, Bula, Kabupaten Seram Bagian Timur, Maluku";"Kabupaten Seram Bagian Timur, Maluku";MALUKU;;Indonesia;081344021860;;;-30.479.595;130.172.585;https://maps.google.com/?cid=0x0:0xdb341f75814e5576;
toko bangunan;toko bangunan;Kian Darat;"Kiandarat, Kabupaten Seram Bagian Timur, Maluku";"Kabupaten Seram Bagian Timur, Maluku";MALUKU;;Indonesia;;;;-36.853.452;1.307.867.889;https://maps.google.com/?cid=0x0:0x63cc3443f68b9180;
toko bangunan;Toko Perlengkapan Rumah;Toko bangunan Arifa Indah;"WF69+CFX, Jl. Wailola, Bula, Kec. Bula, Kabupaten Seram Bagian Timur, Maluku";"Kabupaten Seram Bagian Timur, Maluku";MALUKU;;Indonesia;081231274235;;;-30.888.906;1.304.687.493;https://maps.google.com/?cid=0x0:0x6d2adbab81a89335;
toko bangunan;Toko Perlengkapan Rumah;Toko Duta Bangunan;"Jl. A.R Unawekla, Bula, Kec. Bula, Kabupaten Seram Bagian Timur, Maluku";"Kabupaten Seram Bagian Timur, Maluku";MALUKU;;Indonesia;081272987200;;;-31.021.843;1.304.885.667;https://maps.google.com/?cid=0x0:0x799165d536f28f53;
toko bangunan;Toko Bahan Bangunan;Toko Duta Bangunan;"Jl. Danau Rana, Namlea, Kec. Namlea, Kabupaten Buru, Maluku";"Kabupaten Buru, Maluku";MALUKU;;Indonesia;091322010;;;-3.269.268;1.271.034.228;https://maps.google.com/?cid=0x0:0x4d2e61629ea407b9;
toko bangunan;Toko Bahan Bangunan;Toko bangunan Dinda Barokah;"P85C+XWC, Waihatu, Kec. Kairatu Bar., Kabupaten Seram Bagian Barat, Maluku";"Kabupaten Seram Bagian Barat, Maluku";MALUKU;;Indonesia;081356194953;;;-32.900.692;1.283.222.692;https://maps.google.com/?cid=0x0:0x634ca5cb31d21d51;
toko bangunan;Toko;Toko Tunas Baru;"M966+FP8, Jl. Trans Seram, Waimital, Kec. Kairatu, Kabupaten Seram Bagian Barat, Maluku";"Kabupaten Seram Bagian Barat, Maluku";MALUKU;;Indonesia;081385661699;;;-33.388.259;1.283.618.245;https://maps.google.com/?cid=0x0:0x20a66a8197b5b440;
toko bangunan;Toko Bahan Bangunan;toko kei bahan bangunan;"HXJC+XXW, Jl. Propinsi, Bemo, Werinama, Kabupaten Seram Bagian Timur, Maluku";"Kabupaten Seram Bagian Timur, Maluku";MALUKU;;Indonesia;085299873874;;;-33.492.375;1.299.519.197;https://maps.google.com/?cid=0x0:0x1218f1c4ce74ce62;
toko bangunan;Toko;Tokoh Bangunan;"CVCH+47, Kilmoy, Kec. Tutuk Tolu, Kabupaten Seram Bagian Timur, Maluku";"Kabupaten Seram Bagian Timur, Maluku";MALUKU;;Indonesia;;;;-35.797.428;1.308.781.934;https://maps.google.com/?cid=0x0:0xa058e35e74bfa9fe;
toko bangunan;Toko Perlengkapan Rumah;Toko Bangunan Manusela;"Jl Manusela No.05, Sari Putih, Werinama, Kabupaten Seram Bagian Timur, Maluku";"Kabupaten Seram Bagian Timur, Maluku";MALUKU;;Indonesia;083125236425;;;-34.233.267;1.302.271.243;https://maps.google.com/?cid=0x0:0xa3a109db57d60060;
toko bangunan;Toko Bahan Bangunan;Eka Pratama;"JWQV+6P5, Luhu, Kec. Huamual Belakang, Kabupaten Seram Bagian Barat, Maluku";"Kabupaten Seram Bagian Barat, Maluku";MALUKU;;Indonesia;081385661699;;;-33.619.763;1.279.443.737;https://maps.google.com/?cid=0x0:0x9297fa79318e74fa;
toko bangunan;Toko Bahan Bangunan;CV. NESSTA AMBON( Cat  Bahan Bangunan );"86XJ+7HQ, Jl. Wolter Monginsidi, Lateri, Kec. Baguala, Kota Ambon, Maluku 97112";"Jl. Wolter Monginsidi, Lateri, Kec. Baguala, Kota Ambon";MALUKU;97112;Indonesia;0911356394;;;-3.651.793;128.231.489;https://maps.google.com/?cid=0x0:0x826e5740b2e0ac2f;
toko bangunan;Toko Bahan Bangunan;Toko Bata/batako;"J9QC+8G8, Kairatu, Kec. Kairatu, Kabupaten Seram Bagian Barat, Maluku";"Kabupaten Seram Bagian Barat, Maluku";MALUKU;;Indonesia;081385661699;;;-33.617.156;1.283.713.198;https://maps.google.com/?cid=0x0:0x481586af2d254d67;
toko bangunan;toko bangunan;Toko bangunan;"M994+PJG, Waimital, Kec. Kairatu, Kabupaten Seram Bagian Barat, Maluku";"Kabupaten Seram Bagian Barat, Maluku";MALUKU;;Indonesia;;;;-33.306.794;1.283.565.723;https://maps.google.com/?cid=0x0:0x24639d7d98e3c1a9;
toko bangunan;toko bangunan;Toko Bangunan Sumber Risky;"P87V+F57, Waihatu, Kec. Kairatu Bar., Kabupaten Seram Bagian Barat, Maluku";"Kabupaten Seram Bagian Barat, Maluku";MALUKU;;Indonesia;;;;-32.863.352;1.283.429.162;https://maps.google.com/?cid=0x0:0x910f4eba0867c34e;
toko bangunan;Toko Bahan Bangunan;Toko bangunan Dinda Barokah;"P85C+XWC, Waihatu, Kec. Kairatu Bar., Kabupaten Seram Bagian Barat, Maluku";"Kabupaten Seram Bagian Barat, Maluku";MALUKU;;Indonesia;081356194953;;;-32.900.692;1.283.222.692;https://maps.google.com/?cid=0x0:0x634ca5cb31d21d51;
toko bangunan;Toko;Toko Tunas Baru;"M966+FP8, Jl. Trans Seram, Waimital, Kec. Kairatu, Kabupaten Seram Bagian Barat, Maluku";"Kabupaten Seram Bagian Barat, Maluku";MALUKU;;Indonesia;081385661699;;;-33.388.259;1.283.618.245;https://maps.google.com/?cid=0x0:0x20a66a8197b5b440;
toko bangunan;toko bangunan;Kec. Tlk. Waru;"Kabupaten Seram Bagian Timur, Maluku";"Kabupaten Seram Bagian Timur, Maluku";MALUKU;;Indonesia;;;;-3.404.276;1.306.715.092;https://maps.google.com/?cid=0x0:0x8093b034c7ac82;
toko bangunan;Toko Perlengkapan Rumah;Toko Duta Bangunan;"Jl. A.R Unawekla, Bula, Kec. Bula, Kabupaten Seram Bagian Timur, Maluku";"Kabupaten Seram Bagian Timur, Maluku";MALUKU;;Indonesia;081272987200;;;-31.021.843;1.304.885.667;https://maps.google.com/?cid=0x0:0x799165d536f28f53;
toko bangunan;Toko Perlengkapan Rumah;Toko bangunan Arifa Indah;"WF69+CFX, Jl. Wailola, Bula, Kec. Bula, Kabupaten Seram Bagian Timur, Maluku";"Kabupaten Seram Bagian Timur, Maluku";MALUKU;;Indonesia;081231274235;;;-30.888.906;1.304.687.493;https://maps.google.com/?cid=0x0:0x6d2adbab81a89335;
toko bangunan;Toko Bahan Bangunan;Toko Sumber Alam;"M966+8R6, Jl. Trans Seram, Waimital, Kec. Kairatu, Kabupaten Seram Bagian Barat, Maluku";"Kabupaten Seram Bagian Barat, Maluku";MALUKU;;Indonesia;082378990826;;;-33.392.156;128.362.011;https://maps.google.com/?cid=0x0:0x4a1586af5326e028;
toko bangunan;Toko Bahan Bangunan;Toko Bangunan Central Surya Baru Mandiri Kobi;"Mandiri, Jl. Lintas Seram, Kobi, Kec. Seram Utara Tim. Kobi, Kabupaten Maluku Tengah, Maluku 97533";"Jl. Lintas Seram, Kobi, Kec. Seram Utara Tim. Kobi, Kabupaten Maluku Tengah";MALUKU;97533;Indonesia;082230010024;;;-29.320.301;129.804.093;https://maps.google.com/?cid=0x0:0xf1c882c04b646d61;
toko bangunan;Toko Bahan Bangunan;Toko Cat Wailola (Nippon Paint);"VFVW+G9X, Jalan Bhayangkari, Bula, Kec. Bula, Kabupaten Seram Bagian Timur, Maluku";"Kabupaten Seram Bagian Timur, Maluku";MALUKU;;Indonesia;087848035298;;;-31.078.083;1.304.993.749;https://maps.google.com/?cid=0x0:0x7695f53c41074e25;
toko bangunan;Toko Bahan Bangunan;Toko Bangunan Lestari Baru;"Waihatu, Kec. Kairatu Bar., Kabupaten Seram Bagian Barat, Maluku";"Kabupaten Seram Bagian Barat, Maluku";MALUKU;;Indonesia;082238832490;;;-32.864.381;1.283.222.819;https://maps.google.com/?cid=0x0:0xb14d86a65046c260;
toko bangunan;Toko;Toko Tunas Baru;"M966+FP8, Jl. Trans Seram, Waimital, Kec. Kairatu, Kabupaten Seram Bagian Barat, Maluku";"Kabupaten Seram Bagian Barat, Maluku";MALUKU;;Indonesia;081385661699;;;-33.388.259;1.283.618.245;https://maps.google.com/?cid=0x0:0x20a66a8197b5b440;
toko bangunan;Toko Bahan Bangunan;Toko bangunan Dinda Barokah;"P85C+XWC, Waihatu, Kec. Kairatu Bar., Kabupaten Seram Bagian Barat, Maluku";"Kabupaten Seram Bagian Barat, Maluku";MALUKU;;Indonesia;081356194953;;;-32.900.692;1.283.222.692;https://maps.google.com/?cid=0x0:0x634ca5cb31d21d51;
toko bangunan;Toko;Tokoh Bangunan;"CVCH+47, Kilmoy, Kec. Tutuk Tolu, Kabupaten Seram Bagian Timur, Maluku";"Kabupaten Seram Bagian Timur, Maluku";MALUKU;;Indonesia;;;;-35.797.428;1.308.781.934;https://maps.google.com/?cid=0x0:0xa058e35e74bfa9fe;
toko bangunan;Pusat Perbelanjaan;Toko Wiliam Jaya;"X539+F4M, jalan lintas seram, Benggoi, Kec. Bula Barat, Kabupaten Seram Bagian Timur, Maluku";"Kabupaten Seram Bagian Timur, Maluku";MALUKU;;Indonesia;;;;-304.628;1.301.677.978;https://maps.google.com/?cid=0x0:0x217df7aec4769d63;
toko bangunan;Toserba;Toko GAJAH MADA;"VFXM+4C8, Jl. A. Tamaela, Bula, Kec. Bula, Kabupaten Seram Bagian Timur, Maluku";"Kabupaten Seram Bagian Timur, Maluku";MALUKU;;Indonesia;081247445398;;;-31.022.107;130.483.577;https://maps.google.com/?cid=0x0:0x973ad295d2df7395;
toko bangunan;Toko Bahan Bangunan;Eka Pratama;"JWQV+6P5, Luhu, Kec. Huamual Belakang, Kabupaten Seram Bagian Barat, Maluku";"Kabupaten Seram Bagian Barat, Maluku";MALUKU;;Indonesia;081385661699;;;-33.619.763;1.279.443.737;https://maps.google.com/?cid=0x0:0x9297fa79318e74fa;
toko bangunan;Toko Perlengkapan Rumah;Toko Bangun Bintang Timur;"M965+7HC, Waimital, Kec. Kairatu, Kabupaten Seram Bagian Barat, Maluku";"Kabupaten Seram Bagian Barat, Maluku";MALUKU;;Indonesia;081356015298;;;-33.393.218;1.283.589.023;https://maps.google.com/?cid=0x0:0x4b850a79fd1e21e1;
toko bangunan;Toko;Toko Rifky Jkt Bru;"P385+MC7, Lokki, Kec. Huamual Belakang, Kabupaten Seram Bagian Barat, Maluku";"Kabupaten Seram Bagian Barat, Maluku";MALUKU;;Indonesia;082378990826;;;-32.833.419;1.280.585.336;https://maps.google.com/?cid=0x0:0xfc53f32c414a25a3;
toko bangunan;Toko Bahan Bangunan;CV. NESSTA AMBON( Cat  Bahan Bangunan );"86XJ+7HQ, Jl. Wolter Monginsidi, Lateri, Kec. Baguala, Kota Ambon, Maluku 97112";"Jl. Wolter Monginsidi, Lateri, Kec. Baguala, Kota Ambon";MALUKU;97112;Indonesia;0911356394;;;-3.651.793;128.231.489;https://maps.google.com/?cid=0x0:0x826e5740b2e0ac2f;
toko bangunan;Pembangunan Perumahan;TOKO GAYATRI;"X52F+R28, Waiketam Baru, Bula, Kabupaten Seram Bagian Timur, Maluku";"Kabupaten Seram Bagian Timur, Maluku";MALUKU;;Indonesia;081344021860;;;-30.479.595;130.172.585;https://maps.google.com/?cid=0x0:0xdb341f75814e5576;
toko bangunan;Toko Bahan Bangunan;Toko Bata/batako;"J9QC+8G8, Kairatu, Kec. Kairatu, Kabupaten Seram Bagian Barat, Maluku";"Kabupaten Seram Bagian Barat, Maluku";MALUKU;;Indonesia;081385661699;;;-33.617.156;1.283.713.198;https://maps.google.com/?cid=0x0:0x481586af2d254d67;
toko bangunan;Toko Bahan Bangunan;Toko Bangunan MITRA BANGUNAN"";"8VMJ+P37, Fidi Jaya, Kec. Weda Tengah, Kabupaten Halmahera Tengah, Maluku Utara";"Kabupaten Halmahera Tengah, Maluku Utara";MALUKU;;Indonesia;08971539577;;;0.334292;1.278.801.666;https://maps.google.com/?cid=0x0:0x6db8eb4715256fc8;
toko bangunan;Toko;Toko Serba Bangunan Ambon;"Jl. Philip Latumahina No.10, Kel Honipopu, Kec. Sirimau, Kota Ambon, Maluku";"Kota Ambon, Maluku";MALUKU;;Indonesia;081283093876;;;-3.696.513;1.281.813.331;https://maps.google.com/?cid=0x0:0x38f3a5a63eb288ff;
toko bangunan;Toko Perlengkapan Rumah;Toko Bangunan Manusela;"Jl Manusela No.05, Sari Putih, Werinama, Kabupaten Seram Bagian Timur, Maluku";"Kabupaten Seram Bagian Timur, Maluku";MALUKU;;Indonesia;083125236425;;;-34.233.267;1.302.271.243;https://maps.google.com/?cid=0x0:0xa3a109db57d60060;
toko bangunan;Komplek perumahan;Manusela Bangunan;"NO WA OI54O54249, Jl Manusela No.2, Sariputih, Timur, Seram Bagian Utara, Maluku";"Seram Bagian Utara, Maluku";MALUKU;;Indonesia;08113622262;;;-29.068.033;1.297.601.032;https://maps.google.com/?cid=0x0:0x88daa0e37101ec98;
toko bangunan;Perajin furnitur;Abdullah ODAR;"samping hotel surya, Jalan, galala, Kec. Bula, Kabupaten Seram Bagian Timur, Maluku 97554";"Jalan, galala, Kec. Bula, Kabupaten Seram Bagian Timur";MALUKU;97554;Indonesia;082378990826;;;-3.104.452;130.488.088;https://maps.google.com/?cid=0x0:0x42993e8ef39331ef;
hardware store;hardware store;Bula;"Bula, Kec. Bula, Kabupaten Seram Bagian Timur, Maluku";"Kabupaten Seram Bagian Timur, Maluku";MALUKU;;Indonesia;;;;-310.968;130.498.505;https://maps.google.com/?cid=0x0:0x20388956c533e2b;
hardware store;Toko Perlengkapan Rumah;Toko Duta Bangunan;"Jl. A.R Unawekla, Bula, Kec. Bula, Kabupaten Seram Bagian Timur, Maluku";"Kabupaten Seram Bagian Timur, Maluku";MALUKU;;Indonesia;081272987200;;;-31.021.843;1.304.885.667;https://maps.google.com/?cid=0x0:0x799165d536f28f53;
hardware store;Toko Elektronik;TOKO GALAXY ELEKTRONIK BULA;"WF2F+6R5 TOKO GALAXY ELEKTRONIK, Bula, Kec. Bula, Kabupaten Seram Bagian Timur, Maluku";"Kabupaten Seram Bagian Timur, Maluku";MALUKU;;Indonesia;081222105309;;;-30.997.612;1.304.745.899;https://maps.google.com/?cid=0x0:0xda8040de5432e87c;
hardware store;Toko Bahan Bangunan;UD.NISKY SERAM DEPO BANGUNAN BULA;"WF4F+CH5, Bula, Kec. Bula, Kabupaten Seram Bagian Timur, Maluku";"Kabupaten Seram Bagian Timur, Maluku";MALUKU;;Indonesia;082198535070;;;-30.939.921;1.304.739.724;https://maps.google.com/?cid=0x0:0xc38c7b6a3f0d1249;
hardware store;hardware store;Kec. Tebet;"Kota Jakarta Selatan, Daerah Khusus Ibukota Jakarta";"Kota Jakarta Selatan, Daerah Khusus Ibukota Jakarta";MALUKU;;Indonesia;;;;-62.251.223;1.068.549.881;https://maps.google.com/?cid=0x0:0xd575e31c807295f9;
hardware store;hardware store;Bula;"Bula, Kec. Bula, Kabupaten Seram Bagian Timur, Maluku";"Kabupaten Seram Bagian Timur, Maluku";MALUKU;;Indonesia;;;;-310.968;130.498.505;https://maps.google.com/?cid=0x0:0x20388956c533e2b;
hardware store;Toserba;Toko GAJAH MADA;"VFXM+4C8, Jl. A. Tamaela, Bula, Kec. Bula, Kabupaten Seram Bagian Timur, Maluku";"Kabupaten Seram Bagian Timur, Maluku";MALUKU;;Indonesia;081247445398;;;-31.022.107;130.483.577;https://maps.google.com/?cid=0x0:0x973ad295d2df7395;
hardware store;Toko Perlengkapan Rumah;Toko Duta Bangunan;"Jl. A.R Unawekla, Bula, Kec. Bula, Kabupaten Seram Bagian Timur, Maluku";"Kabupaten Seram Bagian Timur, Maluku";MALUKU;;Indonesia;081272987200;;;-31.021.843;1.304.885.667;https://maps.google.com/?cid=0x0:0x799165d536f28f53;
hardware store;Toko Elektronik;TOKO GALAXY ELEKTRONIK BULA;"WF2F+6R5 TOKO GALAXY ELEKTRONIK, Bula, Kec. Bula, Kabupaten Seram Bagian Timur, Maluku";"Kabupaten Seram Bagian Timur, Maluku";MALUKU;;Indonesia;081222105309;;;-30.997.612;1.304.745.899;https://maps.google.com/?cid=0x0:0xda8040de5432e87c;
hardware store;hardware store;Kec. Tebet;"Kota Jakarta Selatan, Daerah Khusus Ibukota Jakarta";"Kota Jakarta Selatan, Daerah Khusus Ibukota Jakarta";MALUKU;;Indonesia;;;;-62.251.223;1.068.549.881;https://maps.google.com/?cid=0x0:0xd575e31c807295f9;
hardware store;hardware store;Kec. Seram Tim.;"Kabupaten Seram Bagian Timur, Maluku";"Kabupaten Seram Bagian Timur, Maluku";MALUKU;;Indonesia;;;;-38.324.657;1.308.204.099;https://maps.google.com/?cid=0x0:0x70947c7ca6669763;
hardware store;Toko Bahan Bangunan;Eka Pratama;"JWQV+6P5, Luhu, Kec. Huamual Belakang, Kabupaten Seram Bagian Barat, Maluku";"Kabupaten Seram Bagian Barat, Maluku";MALUKU;;Indonesia;081385661699;;;-33.619.763;1.279.443.737;https://maps.google.com/?cid=0x0:0x9297fa79318e74fa;
hardware store;hardware store;Toko Bangunan Sumber Risky;"P87V+F57, Waihatu, Kec. Kairatu Bar., Kabupaten Seram Bagian Barat, Maluku";"Kabupaten Seram Bagian Barat, Maluku";MALUKU;;Indonesia;;;;-32.863.352;1.283.429.162;https://maps.google.com/?cid=0x0:0x910f4eba0867c34e;
hardware store;Toko Perlengkapan Rumah;Toko Bangunan Manusela;"Jl Manusela No.05, Sari Putih, Werinama, Kabupaten Seram Bagian Timur, Maluku";"Kabupaten Seram Bagian Timur, Maluku";MALUKU;;Indonesia;083125236425;;;-34.233.267;1.302.271.243;https://maps.google.com/?cid=0x0:0xa3a109db57d60060;
hardware store;Toko Bahan Bangunan;UD.NISKY SERAM DEPO BANGUNAN BULA;"WF4F+CH5, Bula, Kec. Bula, Kabupaten Seram Bagian Timur, Maluku";"Kabupaten Seram Bagian Timur, Maluku";MALUKU;;Indonesia;082198535070;;;-30.939.921;1.304.739.724;https://maps.google.com/?cid=0x0:0xc38c7b6a3f0d1249;
hardware store;hardware store;Kepulauan Gorong;"Kilkoda, Kec. Gorom Timur, Kabupaten Seram Bagian Timur, Maluku";"Kabupaten Seram Bagian Timur, Maluku";MALUKU;;Indonesia;;;;-4.022.778;131.416.944;https://maps.google.com/?cid=0x0:0xd58f4832f5536ef9;
hardware store;hardware store;Pulau Gorong;"Kabupaten Seram Bagian Timur, Maluku";"Kabupaten Seram Bagian Timur, Maluku";MALUKU;;Indonesia;;;;-4.011.202;1.314.112.125;https://maps.google.com/?cid=0x0:0x3b60b40247d61e16;
hardware store;Toko Mebel;AZKO Maluku City Mall;"Maluku City Mall (MCM), Jl. Sultan Hasanudin, Tantui, Kec, Kota Ambon, Maluku 97128";"Jl. Sultan Hasanudin, Tantui, Kec, Kota Ambon";MALUKU;97128;Indonesia;085243845863;;;-36.703.085;1.281.982.929;https://maps.google.com/?cid=0x0:0x32acbca964b44d25;
hardware store;Toko Mebel;Informa Maluku City Mall;"Maluku City Mall Ground Floor - Lower Ground, Jl. Jenderal Sudirman, Hative Kecil, Tantui - Sirimau, Kota Ambon, Maluku 97128";"Jl. Jenderal Sudirman, Hative Kecil, Tantui - Sirimau, Kota Ambon";MALUKU;97128;Indonesia;081511002000;;;-366.989;1.281.972.726;https://maps.google.com/?cid=0x0:0xf2c666983c27ae62;
hardware store;Toko Perlengkapan Rumah;AZKO UBERTOS SQUARE;"Jl. AH. Nasution No.46A, Pakemitan, Kec. Cinambo, Kota Bandung, Jawa Barat 40294";"Pakemitan, Kec. Cinambo, Kota Bandung";MALUKU;40294;Indonesia;089527303405;;;-69.156.946;1.076.966.931;https://maps.google.com/?cid=0x0:0xee1cdb743ece197d;
hardware store;Pusat Perbelanjaan;Ujung Berung Town Square (Ubertos);"Jl. AH. Nasution No.46A, Pakemitan, Kec. Ujung Berung, Kota Bandung, Jawa Barat 40611";"Pakemitan, Kec. Ujung Berung, Kota Bandung";MALUKU;40611;Indonesia;02263723279;;;-69.154.952;1.076.967.302;https://maps.google.com/?cid=0x0:0xd16643bd4882117e;
hardware store;ATM;ATM BCA Super Indo Ubertos;"46 A, Bandung Tim. Plaza Jl. A.H. Nasution No, Pakemitan, Kec. Cinambo, Kota Bandung, Jawa Barat 40612";"Bandung Tim. Plaza Jl. A.H. Nasution No, Pakemitan, Kec. Cinambo, Kota Bandung";MALUKU;40612;Indonesia;;;;-69.160.175;1.076.963.678;https://maps.google.com/?cid=0x0:0xdb387079d7843d5e;
hardware store;hardware store;Kec. Tutuk Tolu;"Kabupaten Seram Bagian Timur, Maluku";"Kabupaten Seram Bagian Timur, Maluku";MALUKU;;Indonesia;;;;-35.511.893;1.308.594.177;https://maps.google.com/?cid=0x0:0x66cd00a169ac09c7;
hardware store;Toko Bahan Bangunan;Toko bangunan Dinda Barokah;"P85C+XWC, Waihatu, Kec. Kairatu Bar., Kabupaten Seram Bagian Barat, Maluku";"Kabupaten Seram Bagian Barat, Maluku";MALUKU;;Indonesia;081356194953;;;-32.900.692;1.283.222.692;https://maps.google.com/?cid=0x0:0x634ca5cb31d21d51;
hardware store;hardware store;Maluku;;Maluku;MALUKU;;Indonesia;;;;-32.384.616;1.301.452.734;https://maps.google.com/?cid=0x0:0x5e30e8db04649a51;
hardware store;Toko Elektronik;MM ELEKTRO;"2W49+6F6, Kobisonta, Kec. Seram Utara Tim. Seti, Kabupaten Maluku Tengah, Maluku";"Kabupaten Maluku Tengah, Maluku";MALUKU;;Indonesia;087851162082;;;-2.994.458;1.299.186.494;https://maps.google.com/?cid=0x0:0xa12b27e84d0f09cf;
hardware store;Toko Mebel;AZKO Maluku City Mall;"Maluku City Mall (MCM), Jl. Sultan Hasanudin, Tantui, Kec, Kota Ambon, Maluku 97128";"Jl. Sultan Hasanudin, Tantui, Kec, Kota Ambon";MALUKU;97128;Indonesia;085243845863;;;-36.703.085;1.281.982.929;https://maps.google.com/?cid=0x0:0x32acbca964b44d25;
hardware store;hardware store;Kilmury;"Kec. Seram Tim., Kabupaten Seram Bagian Timur, Maluku";"Kabupaten Seram Bagian Timur, Maluku";MALUKU;;Indonesia;;;;-36.249.497;1.305.940.565;https://maps.google.com/?cid=0x0:0x935e27a1be02d187;
hardware store;Toko Mebel;Informa Maluku City Mall;"Maluku City Mall Ground Floor - Lower Ground, Jl. Jenderal Sudirman, Hative Kecil, Tantui - Sirimau, Kota Ambon, Maluku 97128";"Jl. Jenderal Sudirman, Hative Kecil, Tantui - Sirimau, Kota Ambon";MALUKU;97128;Indonesia;081511002000;;;-366.989;1.281.972.726;https://maps.google.com/?cid=0x0:0xf2c666983c27ae62;
hardware store;Toko Bahan Bangunan;Mullingar Hardware - Topline;"Zone A, Mullingar Business Park, Mullingar, Co. Westmeath, N91 FK4X, Irlandia";"Mullingar, County Westmeath, Irlandia";MALUKU;;Indonesia;"3,53449E+11";;;535.200.793;-73.459.951;https://maps.google.com/?cid=0x0:0xb0de1f2da0378129;
hardware store;Toko Pipa;Mullingar Business Park;"Clonmore, Mullingar, Co. Westmeath, Irlandia";"Mullingar, County Westmeath, Irlandia";MALUKU;;Indonesia;;;;535.164.645;-73.634.553;https://maps.google.com/?cid=0x0:0x4cdbc9e947ab5c1d;
hardware store;Restoran;Kedai Baterek;"MXX6+GHC, Namaelo, Kec. Kota Masohi, Kabupaten Maluku Tengah, Maluku 97511";"Namaelo, Kec. Kota Masohi, Kabupaten Maluku Tengah";MALUKU;97511;Indonesia;;;;-33.011.798;1.289.614.156;https://maps.google.com/?cid=0x0:0x3a9df1618ad896c8;
hardware store;hardware store;Pulau Panjang;"Pulau Panjang, Kec. Pulau Gorom, Kabupaten Seram Bagian Timur, Maluku";"Kabupaten Seram Bagian Timur, Maluku";MALUKU;;Indonesia;;;;-40.065.038;13.123.064;https://maps.google.com/?cid=0x0:0x5a2b2dae8021abd6;
hardware store;hardware store;Pulau Panjang;"Kec. Pulau Gorom, Kabupaten Seram Bagian Timur, Maluku";"Kabupaten Seram Bagian Timur, Maluku";MALUKU;;Indonesia;;;;-40.065.038;13.123.064;https://maps.google.com/?cid=0x0:0x32cd940c1ce4e9ae;
hardware store;Distributor Baja;Talang Air Rumah Metal Galvanis | Roynal's House;"Jalan Rumakso No.18B Jatiranggon Jatisampurna, Ujung Aspal, Kec. Pd. Gede, Kota Bks, Jawa Barat 17432";"Ujung Aspal, Kec. Pd. Gede, Kota Bks";MALUKU;17432;Indonesia;0818201336;;;-63.387.764;106.926.067;https://maps.google.com/?cid=0x0:0x8a787b49cf708ce4;
hardware store;Toko Bahan Bangunan;TB. Pulau Panjang;"Jl. Bojonegara No.88, Kertasana, Kec. Bojonegara, Kabupaten Serang, Banten 42454";"Kertasana, Kec. Bojonegara, Kabupaten Serang";MALUKU;42454;Indonesia;085966114948;;;-59.956.104;1.060.760.362;https://maps.google.com/?cid=0x0:0xaef92a91f8623256;
hardware store;Toko Bahan Bangunan;PD. Jamjuri 2;"3243+5XH, Jalan, Merak, Gerem, Purwakarta, Cilegon, Banten 42438";"Jalan, Merak, Gerem, Purwakarta, Cilegon";MALUKU;42438;Indonesia;;;;-59.445.635;1.060.049.764;https://maps.google.com/?cid=0x0:0x44a79c443af937ad;
hardware store;Toko Alat-Alat;AZKO Cilegon;"Jl. Ahmad Yani, Sukmajaya, Kec. Jombang, Kota Cilegon, Banten 42426";"Sukmajaya, Kec. Jombang, Kota Cilegon";MALUKU;42426;Indonesia;087829206066;;;-60.249.043;1.060.700.188;https://maps.google.com/?cid=0x0:0x338667c07cb5eafb;
hardware store;hardware store;N/A;;;MALUKU;;Indonesia;081393821514;;;-244.565;1.178.888;https://maps.google.com/?cid=0x0:0x9d0928aaafc1cb7f;
hardware store;Toko Mebel;Informa Maluku City Mall;"Maluku City Mall Ground Floor - Lower Ground, Jl. Jenderal Sudirman, Hative Kecil, Tantui - Sirimau, Kota Ambon, Maluku 97128";"Jl. Jenderal Sudirman, Hative Kecil, Tantui - Sirimau, Kota Ambon";MALUKU;97128;Indonesia;081511002000;;;-366.989;1.281.972.726;https://maps.google.com/?cid=0x0:0xf2c666983c27ae62;
hardware store;Toko Mebel;AZKO Maluku City Mall;"Maluku City Mall (MCM), Jl. Sultan Hasanudin, Tantui, Kec, Kota Ambon, Maluku 97128";"Jl. Sultan Hasanudin, Tantui, Kec, Kota Ambon";MALUKU;97128;Indonesia;085243845863;;;-36.703.085;1.281.982.929;https://maps.google.com/?cid=0x0:0x32acbca964b44d25;
hardware store;Komplek perumahan;Terra Home Center;"Jalan Merdeka Barat, Langgur, Kec. Kei Kecil, Kabupaten Maluku Tenggara, Maluku";"Kabupaten Maluku Tenggara, Maluku";MALUKU;;Indonesia;082115000320;;;-56.535.181;1.327.366.852;https://maps.google.com/?cid=0x0:0x5a5a72c61af81494;
hardware store;Toko Suku Cadang Motor;J.Y parts shop;"Jl. Raya Kutabumi Ruko boluevard No.2, Karet, Kec. Sepatan, Kabupaten Tangerang, Banten 15520";"Karet, Kec. Sepatan, Kabupaten Tangerang";MALUKU;15520;Indonesia;085691962265;;;-61.521.499;1.065.902.311;https://maps.google.com/?cid=0x0:0x5b9cc6c9e0be156e;
hardware store;Toko Suku Cadang Motor;Yayank Spare Part;"Jl. Puri Jaya No.32, RT.06/RW.05, Sukaasih, Kec. Ps. Kemis, Kabupaten Tangerang, Banten 15560";"RT.06/RW.05, Sukaasih, Kec. Ps. Kemis, Kabupaten Tangerang";MALUKU;15560;Indonesia;085312092905;;;-6.165.077;1.065.391.294;https://maps.google.com/?cid=0x0:0xb9d69d03824b58e2;
hardware store;hardware store;Kec. Gorom Timur;"Kabupaten Seram Bagian Timur, Maluku";"Kabupaten Seram Bagian Timur, Maluku";MALUKU;;Indonesia;;;;-39.797.121;1.314.112.125;https://maps.google.com/?cid=0x0:0xaee5fbc2b0124a41;
hardware store;hardware store;Kec. Bula Barat;"Kabupaten Seram Bagian Timur, Maluku";"Kabupaten Seram Bagian Timur, Maluku";MALUKU;;Indonesia;;;;-30.472.432;1.301.469.398;https://maps.google.com/?cid=0x0:0x12c29f15f276cac6;
hardware store;Toko bahan makanan;Toko NURIDA;"Unnamed Road, Upt T. Jkt Baru, Bula, Kabupaten Seram Bagian Timur, Maluku";"Kabupaten Seram Bagian Timur, Maluku";MALUKU;;Indonesia;;;;-30.601.964;1.302.595.453;https://maps.google.com/?cid=0x0:0xb0271f9afc60e84b;
hardware store;Toko Perlengkapan Rumah;Toko Duta Bangunan;"Jl. A.R Unawekla, Bula, Kec. Bula, Kabupaten Seram Bagian Timur, Maluku";"Kabupaten Seram Bagian Timur, Maluku";MALUKU;;Indonesia;081272987200;;;-31.021.843;1.304.885.667;https://maps.google.com/?cid=0x0:0x799165d536f28f53;
hardware store;Toko Alat Tulis Kantor;Fotocopy AURA;"Jl. PLN Baru, Bula, Kec. Bula, Kabupaten Seram Bagian Timur, Maluku 97521";"Bula, Kec. Bula, Kabupaten Seram Bagian Timur";MALUKU;97521;Indonesia;081343344506;;;-30.970.592;1.304.683.882;https://maps.google.com/?cid=0x0:0xe41c5f5ac9d58291;
hardware store;Toko Alat Tulis Kantor;"Fotocopy  ATK, AURA";"Jln: air kabur2, Bula, Kec. Bula, Kabupaten Seram Bagian Timur, Maluku 97521";"Bula, Kec. Bula, Kabupaten Seram Bagian Timur";MALUKU;97521;Indonesia;081343477509;;;-30.981.148;1.304.700.995;https://maps.google.com/?cid=0x0:0xc811073aa84f31ec;
hardware store;Toko Elektronik;TOKO GALAXY ELEKTRONIK BULA;"WF2F+6R5 TOKO GALAXY ELEKTRONIK, Bula, Kec. Bula, Kabupaten Seram Bagian Timur, Maluku";"Kabupaten Seram Bagian Timur, Maluku";MALUKU;;Indonesia;081222105309;;;-30.997.612;1.304.745.899;https://maps.google.com/?cid=0x0:0xda8040de5432e87c;
hardware store;hardware store;Kian Darat;"Kiandarat, Kabupaten Seram Bagian Timur, Maluku";"Kabupaten Seram Bagian Timur, Maluku";MALUKU;;Indonesia;;;;-36.853.452;1.307.867.889;https://maps.google.com/?cid=0x0:0x63cc3443f68b9180;
hardware store;Toko;ruko kairatu;"M953+84M, Kairatu, Kec. Kairatu, Kabupaten Seram Bagian Barat, Maluku";"Kabupaten Seram Bagian Barat, Maluku";MALUKU;;Indonesia;;;;-3.341.675;128.352.798;https://maps.google.com/?cid=0x0:0x321809d6505119af;
hardware store;Toko;Kios Kei;"Waipirit, Kec. Kairatu, Kabupaten Seram Bagian Barat, Maluku";"Kabupaten Seram Bagian Barat, Maluku";MALUKU;;Indonesia;;;;-33.342.561;1.283.423.415;https://maps.google.com/?cid=0x0:0x6f3998f34abe8c2b;
hardware store;hardware store;Kec. Lian Fitu;"Kabupaten Seram Bagian Timur, Maluku";"Kabupaten Seram Bagian Timur, Maluku";MALUKU;;Indonesia;;;;-37.413.684;1.308.286.316;https://maps.google.com/?cid=0x0:0x240a3775e9ef412c;
hardware store;hardware store;Kec. Tlk. Waru;"Kabupaten Seram Bagian Timur, Maluku";"Kabupaten Seram Bagian Timur, Maluku";MALUKU;;Indonesia;;;;-3.404.276;1.306.715.092;https://maps.google.com/?cid=0x0:0x8093b034c7ac82;
hardware store;Pusat Perbelanjaan;MR.DIY;"Jl. MS Pardede, Bula, Kec. Bula, Kabupaten Seram Bagian Timur, Maluku 97521";"Bula, Kec. Bula, Kabupaten Seram Bagian Timur";MALUKU;97521;Indonesia;;;;-31.026.211;1.304.918.778;https://maps.google.com/?cid=0x0:0xaf0d1edaaebd0381;
hardware store;Toko Bahan Bangunan;Toko Cat Wailola (Nippon Paint);"VFVW+G9X, Jalan Bhayangkari, Bula, Kec. Bula, Kabupaten Seram Bagian Timur, Maluku";"Kabupaten Seram Bagian Timur, Maluku";MALUKU;;Indonesia;087848035298;;;-31.078.083;1.304.993.749;https://maps.google.com/?cid=0x0:0x7695f53c41074e25;
hardware store;hardware store;Tlk. Waru;"Kec. Long Ikis, Kabupaten Paser, Kalimantan Timur";"Kabupaten Paser, Kalimantan Timur";MALUKU;;Indonesia;;;;-16.375.156;1.163.308.478;https://maps.google.com/?cid=0x0:0x3a3c255a6c0eb58c;
home improvement;Pusat Perbelanjaan;MR.DIY;"Jl. MS Pardede, Bula, Kec. Bula, Kabupaten Seram Bagian Timur, Maluku 97521";"Bula, Kec. Bula, Kabupaten Seram Bagian Timur";MALUKU;97521;Indonesia;;;;-31.026.211;1.304.918.778;https://maps.google.com/?cid=0x0:0xaf0d1edaaebd0381;
home improvement;Pasar;Toko BULA RAYA;"VFWV+H8C, Jl. Wailola, Bula, Kec. Bula, Kabupaten Seram Bagian Timur, Maluku";"Kabupaten Seram Bagian Timur, Maluku";MALUKU;;Indonesia;081240788950;;;-31.035.611;1.304.932.737;https://maps.google.com/?cid=0x0:0x23a0e0b256e88ad8;
home improvement;home improvement;Bula;"Bula, Kec. Bula, Kabupaten Seram Bagian Timur, Maluku";"Kabupaten Seram Bagian Timur, Maluku";MALUKU;;Indonesia;;;;-310.968;130.498.505;https://maps.google.com/?cid=0x0:0x20388956c533e2b;
home improvement;Pusat Perbelanjaan;MR.DIY;"Jl. MS Pardede, Bula, Kec. Bula, Kabupaten Seram Bagian Timur, Maluku 97521";"Bula, Kec. Bula, Kabupaten Seram Bagian Timur";MALUKU;97521;Indonesia;;;;-31.026.211;1.304.918.778;https://maps.google.com/?cid=0x0:0xaf0d1edaaebd0381;
home improvement;Toko Bahan Bangunan;UD.NISKY SERAM DEPO BANGUNAN BULA;"WF4F+CH5, Bula, Kec. Bula, Kabupaten Seram Bagian Timur, Maluku";"Kabupaten Seram Bagian Timur, Maluku";MALUKU;;Indonesia;082198535070;;;-30.939.921;1.304.739.724;https://maps.google.com/?cid=0x0:0xc38c7b6a3f0d1249;
home improvement;Toko Perlengkapan Rumah;TOKO FIRZANAH;"Bula, Kec. Bula, Kabupaten Seram Bagian Timur, Maluku";"Kabupaten Seram Bagian Timur, Maluku";MALUKU;;Indonesia;081385661699;;;-30.792.459;1.304.651.366;https://maps.google.com/?cid=0x0:0x8d53e72d3dd962ab;
home improvement;Komplek perumahan;HOME EzaWokas;"VGV9+9PF, Jl. Kompleks Limumir Indah, Bula, Kec. Bula, Kabupaten Seram Bagian Timur, Maluku";"Kabupaten Seram Bagian Timur, Maluku";MALUKU;;Indonesia;;;;-31.065.606;1.305.192.927;https://maps.google.com/?cid=0x0:0x5dfef5219b9b4f97;
home improvement;Dekorator interior;Workshop Interior Skala Ruang;"Bula, Kec. Bula, Kabupaten Seram Bagian Timur, Maluku";"Kabupaten Seram Bagian Timur, Maluku";MALUKU;;Indonesia;081247680399;;;-30.867.194;13.046.579;https://maps.google.com/?cid=0x0:0xa5cc1b37954f3535;
home improvement;Pasar;Toko BULA RAYA;"VFWV+H8C, Jl. Wailola, Bula, Kec. Bula, Kabupaten Seram Bagian Timur, Maluku";"Kabupaten Seram Bagian Timur, Maluku";MALUKU;;Indonesia;081240788950;;;-31.035.611;1.304.932.737;https://maps.google.com/?cid=0x0:0x23a0e0b256e88ad8;
home improvement;home improvement;Kec. Seram Tim.;"Kabupaten Seram Bagian Timur, Maluku";"Kabupaten Seram Bagian Timur, Maluku";MALUKU;;Indonesia;;;;-38.324.657;1.308.204.099;https://maps.google.com/?cid=0x0:0x70947c7ca6669763;
home improvement;home improvement;Kabupaten Seram Bagian Timur;Maluku;"Kabupaten Seram Bagian Timur, Maluku";MALUKU;;Indonesia;;;;-34.233.267;1.302.271.243;https://maps.google.com/?cid=0x0:0x3e3cbf11d9dac8;
home improvement;home improvement;Werinama;"Kabupaten Seram Bagian Timur, Maluku";"Kabupaten Seram Bagian Timur, Maluku";MALUKU;;Indonesia;;;;-34.233.267;1.302.271.243;https://maps.google.com/?cid=0x0:0x5d34ed8352394a25;
home improvement;Komplek perumahan;Japen Home;"GXVW+VXH, Jl. Propinsi, Werinama, Kabupaten Seram Bagian Timur, Maluku";"Kabupaten Seram Bagian Timur, Maluku";MALUKU;;Indonesia;;;;-34.557.156;1.299.973.835;https://maps.google.com/?cid=0x0:0xa6c36fb0c3971cf6;
home improvement;Grosir Mebel;Mebel PARAHIANGAN;"HXHF+CP9, Bemo, Werinama, Kabupaten Seram Bagian Timur, Maluku";"Kabupaten Seram Bagian Timur, Maluku";MALUKU;;Indonesia;;;;-34.214.555;1.299.743.611;https://maps.google.com/?cid=0x0:0x895314be0cc74595;
home improvement;Toko Bahan Bangunan;toko kei bahan bangunan;"HXJC+XXW, Jl. Propinsi, Bemo, Werinama, Kabupaten Seram Bagian Timur, Maluku";"Kabupaten Seram Bagian Timur, Maluku";MALUKU;;Indonesia;085299873874;;;-33.492.375;1.299.519.197;https://maps.google.com/?cid=0x0:0x1218f1c4ce74ce62;
home improvement;Tujuan Wisata;waiobi;"HX8P+68, Bemo, Werinama, Kabupaten Seram Bagian Timur, Maluku";"Kabupaten Seram Bagian Timur, Maluku";MALUKU;;Indonesia;;;;-34.343.859;1.299.858.344;https://maps.google.com/?cid=0x0:0xdc395938555314dc;
home improvement;Komplek perumahan;Rumah ifka;"MV7W+VC5, Polin, Werinama, Kabupaten Seram Bagian Timur, Maluku";"Kabupaten Seram Bagian Timur, Maluku";MALUKU;;Indonesia;;;;-33.353.546;1.298.961.043;https://maps.google.com/?cid=0x0:0x572c66012d83ef45;
home improvement;Taman;Rumah Fhito;"C7G5+4M3, Batuasa, Werinama, Kabupaten Seram Bagian Timur, Maluku";"Kabupaten Seram Bagian Timur, Maluku";MALUKU;;Indonesia;;;;-35.747.385;1.302.591.811;https://maps.google.com/?cid=0x0:0xbf9fb2993493fdd4;
home improvement;home improvement;Pulau Gorong;"Kabupaten Seram Bagian Timur, Maluku";"Kabupaten Seram Bagian Timur, Maluku";MALUKU;;Indonesia;;;;-4.011.202;1.314.112.125;https://maps.google.com/?cid=0x0:0x3b60b40247d61e16;
home improvement;home improvement;Kepulauan Gorong;"Kilkoda, Kec. Gorom Timur, Kabupaten Seram Bagian Timur, Maluku";"Kabupaten Seram Bagian Timur, Maluku";MALUKU;;Indonesia;;;;-4.022.778;131.416.944;https://maps.google.com/?cid=0x0:0xd58f4832f5536ef9;
home improvement;home improvement;Kec. Wakate;"Kabupaten Seram Bagian Timur, Maluku";"Kabupaten Seram Bagian Timur, Maluku";MALUKU;;Indonesia;;;;-45.139.238;1.316.542.349;https://maps.google.com/?cid=0x0:0x5b89d23106f26061;
home improvement;home improvement;Kec. Tutuk Tolu;"Kabupaten Seram Bagian Timur, Maluku";"Kabupaten Seram Bagian Timur, Maluku";MALUKU;;Indonesia;;;;-35.511.893;1.308.594.177;https://maps.google.com/?cid=0x0:0x66cd00a169ac09c7;
home improvement;home improvement;Maluku;;Maluku;MALUKU;;Indonesia;;;;-32.384.616;1.301.452.734;https://maps.google.com/?cid=0x0:0x5e30e8db04649a51;
home improvement;Komplek perumahan;Qiffa Home Stay;"W5JX+JG9, Piru, Kec. Seram Bar., Kabupaten Seram Bagian Barat, Maluku";"Kabupaten Seram Bagian Barat, Maluku";MALUKU;;Indonesia;;;;-30.685.432;1.281.988.222;https://maps.google.com/?cid=0x0:0xd3fe0dbbce7dfc22;
home improvement;Komplek perumahan;home wan;"QVVF+RRC, Jl. Syaikh Khidhir Al-Limboriy, Waesala, Kec. Huamual Belakang, Kabupaten Seram Bagian Barat, Maluku";"Kabupaten Seram Bagian Barat, Maluku";MALUKU;;Indonesia;;;;-32.051.222;127.874.577;https://maps.google.com/?cid=0x0:0xd7a97fa2668e9b55;
home improvement;Komplek perumahan;Home Simal;"Q7MG+H3X, Kamal, Kec. Kairatu Bar., Kabupaten Seram Bagian Barat, Maluku";"Kabupaten Seram Bagian Barat, Maluku";MALUKU;;Indonesia;;;;-32.168.348;1.282.757.553;https://maps.google.com/?cid=0x0:0x15b1853a168d5a21;
home improvement;Komplek perumahan;HOME EzaWokas;"VGV9+9PF, Jl. Kompleks Limumir Indah, Bula, Kec. Bula, Kabupaten Seram Bagian Timur, Maluku";"Kabupaten Seram Bagian Timur, Maluku";MALUKU;;Indonesia;;;;-31.065.606;1.305.192.927;https://maps.google.com/?cid=0x0:0x5dfef5219b9b4f97;
home improvement;Komplek perumahan;Aita home;"MW2H+VG3, Jl. Trans Seram, Soahuku, Kec. Kota Masohi, Kabupaten Maluku Tengah, Maluku";"Kabupaten Maluku Tengah, Maluku";MALUKU;;Indonesia;;;;-33.478.688;1.289.288.172;https://maps.google.com/?cid=0x0:0x3ad5d66493364dc2;
home improvement;Pembangunan Perumahan;"Nasiri, Maluku, Indonesia";"Luhu, Kec. Huamual Belakang, Kabupaten Seram Bagian Barat, Maluku";"Kabupaten Seram Bagian Barat, Maluku";MALUKU;;Indonesia;;;;-33.413.969;1.279.385.706;https://maps.google.com/?cid=0x0:0x816bf775356ebf3d;
home improvement;Komplek perumahan;ISNAIN HOME;"JX8M+45J, Luhu, Kec. Huamual Belakang, Kabupaten Seram Bagian Barat, Maluku";"Kabupaten Seram Bagian Barat, Maluku";MALUKU;;Indonesia;;;;-33.846.729;1.279.828.757;https://maps.google.com/?cid=0x0:0x3dcce4c9c91fd518;
home improvement;Komplek perumahan;Rumah fiki soulisa;"9X5F+8PV kompleks silin indah, Negeri Lima, Soa nau, Kabupaten Maluku Tengah, Maluku";"Kabupaten Maluku Tengah, Maluku";MALUKU;;Indonesia;;;;-36.416.455;1.279.742.821;https://maps.google.com/?cid=0x0:0x75e1b8ba209b7da4;
home improvement;Komplek perumahan;ACESS SIAHAYA;"V7MW+P5Q, Lumoli, Kec. Seram Bar., Kabupaten Seram Bagian Barat, Maluku";"Kabupaten Seram Bagian Barat, Maluku";MALUKU;;Indonesia;;;;-3.115.656;12.829.549;https://maps.google.com/?cid=0x0:0x7d426e891ebec85;
home improvement;home improvement;"wnA1aPX_K6uY4-EP6LCOyQM-,null,null,1,null,""https://www.google.com/maps/preview/place/Online/@-3.304414,128.957973,3983a,13.1y/datau003d!4m2!3m1!1s0x2d6b9944d43adc89:0x7b73c37994f187ca""";;;MALUKU;;Indonesia;081248773339;;;-3.304.414;128.957.973;https://maps.google.com/?cid=0x0:0x7b73c37994f187ca;
home improvement;home improvement;Kilmury;"Kec. Seram Tim., Kabupaten Seram Bagian Timur, Maluku";"Kabupaten Seram Bagian Timur, Maluku";MALUKU;;Indonesia;;;;-36.249.497;1.305.940.565;https://maps.google.com/?cid=0x0:0x935e27a1be02d187;
home improvement;home improvement;Pulau Panjang;"Kec. Pulau Gorom, Kabupaten Seram Bagian Timur, Maluku";"Kabupaten Seram Bagian Timur, Maluku";MALUKU;;Indonesia;;;;-40.065.038;13.123.064;https://maps.google.com/?cid=0x0:0x32cd940c1ce4e9ae;
home improvement;home improvement;Pulau Panjang;"Pulo Panjang, Kec. Puloampel, Kabupaten Serang, Banten";"Kabupaten Serang, Banten";MALUKU;;Indonesia;;;;-59.268.769;1.061.522.126;https://maps.google.com/?cid=0x0:0x49cd227a61a155cc;
home improvement;home improvement;Teor;"Teor, Kabupaten Seram Bagian Timur, Maluku";"Kabupaten Seram Bagian Timur, Maluku";MALUKU;;Indonesia;;;;-4.737.805;131.745.717;https://maps.google.com/?cid=0x0:0x455015039ed48829;
home improvement;Komplek perumahan;Terra Home Center;"Jalan Merdeka Barat, Langgur, Kec. Kei Kecil, Kabupaten Maluku Tenggara, Maluku";"Kabupaten Maluku Tenggara, Maluku";MALUKU;;Indonesia;082115000320;;;-56.535.181;1.327.366.852;https://maps.google.com/?cid=0x0:0x5a5a72c61af81494;
home improvement;Otoritas Pelabuhan;WC UMUM;"6PMM+CHX, Pulau Tioor, Teor, Kabupaten Seram Bagian Timur, Maluku";"Kabupaten Seram Bagian Timur, Maluku";MALUKU;;Indonesia;;;;-47.663.855;1.317.339.998;https://maps.google.com/?cid=0x0:0x77baec1236356be6;
home improvement;home improvement;Kec. Gorom Timur;"Kabupaten Seram Bagian Timur, Maluku";"Kabupaten Seram Bagian Timur, Maluku";MALUKU;;Indonesia;;;;-39.797.121;1.314.112.125;https://maps.google.com/?cid=0x0:0xaee5fbc2b0124a41;
home improvement;home improvement;Kec. Bula Barat;"Kabupaten Seram Bagian Timur, Maluku";"Kabupaten Seram Bagian Timur, Maluku";MALUKU;;Indonesia;;;;-30.472.432;1.301.469.398;https://maps.google.com/?cid=0x0:0x12c29f15f276cac6;
home improvement;Pusat Perbelanjaan;MR.DIY;"Jl. MS Pardede, Bula, Kec. Bula, Kabupaten Seram Bagian Timur, Maluku 97521";"Bula, Kec. Bula, Kabupaten Seram Bagian Timur";MALUKU;97521;Indonesia;;;;-31.026.211;1.304.918.778;https://maps.google.com/?cid=0x0:0xaf0d1edaaebd0381;
home improvement;Toko Perlengkapan Rumah;Toko bangunan Arifa Indah;"WF69+CFX, Jl. Wailola, Bula, Kec. Bula, Kabupaten Seram Bagian Timur, Maluku";"Kabupaten Seram Bagian Timur, Maluku";MALUKU;;Indonesia;081231274235;;;-30.888.906;1.304.687.493;https://maps.google.com/?cid=0x0:0x6d2adbab81a89335;
home improvement;Komplek perumahan;Home Arifwidya;"WF5C+F34, Bula, Kec. Bula, Kabupaten Seram Bagian Timur, Maluku";"Kabupaten Seram Bagian Timur, Maluku";MALUKU;;Indonesia;;;;-30.913.852;1.304.700.868;https://maps.google.com/?cid=0x0:0xba26a722a3ba82d7;
home improvement;Toko Sofa;Mebel Sofa - FJA;"WF79+Q3W, Banggoi - Bula, Bula, Kec. Bula, Kabupaten Seram Bagian Timur, Maluku 97554";"Banggoi - Bula, Bula, Kec. Bula, Kabupaten Seram Bagian Timur";MALUKU;97554;Indonesia;;;;-30.855.226;1.304.676.944;https://maps.google.com/?cid=0x0:0xe750b2737b8ea094;
home improvement;Dekorator interior;Workshop Interior Skala Ruang;"Bula, Kec. Bula, Kabupaten Seram Bagian Timur, Maluku";"Kabupaten Seram Bagian Timur, Maluku";MALUKU;;Indonesia;081247680399;;;-30.867.194;13.046.579;https://maps.google.com/?cid=0x0:0xa5cc1b37954f3535;
home improvement;Toko Perlengkapan Rumah;TOKO FIRZANAH;"Bula, Kec. Bula, Kabupaten Seram Bagian Timur, Maluku";"Kabupaten Seram Bagian Timur, Maluku";MALUKU;;Indonesia;081385661699;;;-30.792.459;1.304.651.366;https://maps.google.com/?cid=0x0:0x8d53e72d3dd962ab;
home improvement;Toko bahan makanan;Toko NURIDA;"Unnamed Road, Upt T. Jkt Baru, Bula, Kabupaten Seram Bagian Timur, Maluku";"Kabupaten Seram Bagian Timur, Maluku";MALUKU;;Indonesia;;;;-30.601.964;1.302.595.453;https://maps.google.com/?cid=0x0:0xb0271f9afc60e84b;
home improvement;Toko Perlengkapan Rumah;Toko Duta Bangunan;"Jl. A.R Unawekla, Bula, Kec. Bula, Kabupaten Seram Bagian Timur, Maluku";"Kabupaten Seram Bagian Timur, Maluku";MALUKU;;Indonesia;081272987200;;;-31.021.843;1.304.885.667;https://maps.google.com/?cid=0x0:0x799165d536f28f53;
home improvement;Komplek perumahan;HOME EzaWokas;"VGV9+9PF, Jl. Kompleks Limumir Indah, Bula, Kec. Bula, Kabupaten Seram Bagian Timur, Maluku";"Kabupaten Seram Bagian Timur, Maluku";MALUKU;;Indonesia;;;;-31.065.606;1.305.192.927;https://maps.google.com/?cid=0x0:0x5dfef5219b9b4f97;
home improvement;Perhimpunan Pengembang Perumahan;Rumah bpa lily;"WF3C+4P7, Bula, Kec. Bula, Kabupaten Seram Bagian Timur, Maluku";"Kabupaten Seram Bagian Timur, Maluku";MALUKU;;Indonesia;;;;-3.095.899;1.304.712.973;https://maps.google.com/?cid=0x0:0xc17f35c793133312;
home improvement;Toko Perlengkapan Rumah;Toko RN;"VFVV+HV9, Unnamed Road, Bula, Kec. Bula, Kabupaten Seram Bagian Timur, Maluku";"Kabupaten Seram Bagian Timur, Maluku";MALUKU;;Indonesia;;;;-31.060.885;1.304.947.385;https://maps.google.com/?cid=0x0:0x14a739eb1ef4bfe5;
home improvement;Pemasok Air Minum Dalam Kemasan;Air isi ulang ALVA_RO;"Jl. PLN Baru, Bula, Kec. Bula, Kabupaten Seram Bagian Timur, Maluku";"Kabupaten Seram Bagian Timur, Maluku";MALUKU;;Indonesia;081240999450;;;-30.968.781;1.304.714.415;https://maps.google.com/?cid=0x0:0xd20e98c637271b02;
home improvement;Perajin furnitur;Suargaun;"WF2Q+4HC, Jl. Tumbuh, Parang, Kec. Bula, Kabupaten Seram Bagian Timur, Maluku";"Kabupaten Seram Bagian Timur, Maluku";MALUKU;;Indonesia;;;;-30.996.854;1.304.888.969;https://maps.google.com/?cid=0x0:0x8cf996d6101eaae3;
home improvement;home improvement;Maicor design (BULA);"WF69+GMR, Jl. Wailola, Bula, Kec. Bula, Kabupaten Seram Bagian Timur, Maluku";"Kabupaten Seram Bagian Timur, Maluku";MALUKU;;Indonesia;085726937890;;;-30.886.526;1.304.691.082;https://maps.google.com/?cid=0x0:0x76f803c509cc9b7f;
home improvement;home improvement;Kian Darat;"Kiandarat, Kabupaten Seram Bagian Timur, Maluku";"Kabupaten Seram Bagian Timur, Maluku";MALUKU;;Indonesia;;;;-36.853.452;1.307.867.889;https://maps.google.com/?cid=0x0:0x63cc3443f68b9180;
home improvement;home improvement;Kec. Lian Fitu;"Kabupaten Seram Bagian Timur, Maluku";"Kabupaten Seram Bagian Timur, Maluku";MALUKU;;Indonesia;;;;-37.413.684;1.308.286.316;https://maps.google.com/?cid=0x0:0x240a3775e9ef412c;
home improvement;home improvement;Kec. Tlk. Waru;"Kabupaten Seram Bagian Timur, Maluku";"Kabupaten Seram Bagian Timur, Maluku";MALUKU;;Indonesia;;;;-3.404.276;1.306.715.092;https://maps.google.com/?cid=0x0:0x8093b034c7ac82;
home improvement;home improvement;Tlk. Waru;"Kec. Long Ikis, Kabupaten Paser, Kalimantan Timur";"Kabupaten Paser, Kalimantan Timur";MALUKU;;Indonesia;;;;-16.375.156;1.163.308.478;https://maps.google.com/?cid=0x0:0x3a3c255a6c0eb58c;
