Category;Real Category;Business Name;Address;City;State;Postal Code;Country;Phone;Email;Website;Latitude;Longitude;Map Link;Details Link
"mall";"mall";"Bula";"Bula, Kec. Bula, Kabupaten Seram Bagian Timur, Maluku";"Kabupaten Seram Bagian Timur, Maluku";"MALUKU";"";"Indonesia";"";"";"";"-3.10968";"130.498505";"https://maps.google.com/?cid=0x0:0x20388956c533e2b";""
"mall";"Pusat Perbelanjaan";"Wailola Shop";"Jalan Bhayangkari, Bula, East Seram, Maluku";"Kabupaten Seram Bagian Timur, Maluku";"MALUKU";"";"Indonesia";" 081331422430";"";"";"-3.106128";"130.495989";"https://maps.google.com/?cid=0x0:0x6c0e86a4807da275";""
"mall";"Toko";"Pusat perbelanjaan";"Bula, Kec. Bula, Kabupaten Seram Bagian Timur, Maluku 97555";"Kec. Bula, Kabupaten Seram Bagian Timur";"MALUKU";"97555";"Indonesia";" 085399910989";"";"";"-3.1004284";"130.4853461";"https://maps.google.com/?cid=0x0:0xd40209d031d84d29";""
"mall";"Pusat Perbelanjaan";"CENTRAL SURYA BARU";"Jl. Wailola, Bula, Kec. Bula, Kabupaten Seram Bagian Timur, Maluku";"Kabupaten Seram Bagian Timur, Maluku";"MALUKU";"";"Indonesia";" 081252420811";"";"";"-3.0736662";"130.4596047";"https://maps.google.com/?cid=0x0:0x2414b3e56b070a1c";""
"mall";"Toko Swalayan";"Jus KDI";"VFVR+CR9, Jl. Klp. Dua, Bula, Kec. Bula, Kabupaten Seram Bagian Timur, Maluku";"Kabupaten Seram Bagian Timur, Maluku";"MALUKU";"";"Indonesia";" 082199189596";"";"";"-3.1064573";"130.4920947";"https://maps.google.com/?cid=0x0:0x8c9c98f3cf721621";""
"mall";"Pusat Perbelanjaan";"paloma DS Bula";"VFXM+3Q2, Bula, Kec. Bula, Kabupaten Seram Bagian Timur, Maluku";"Kabupaten Seram Bagian Timur, Maluku";"MALUKU";"";"Indonesia";" 081297434797";"";"";"-3.1023734";"130.4844019";"https://maps.google.com/?cid=0x0:0xcb076b3ad0c7f0dd";""
"mall";"Pom bensin/SPBU";"PT. Pertamina, Terminal BBM Bula";"VGV3+5J3, Jl. Airport, Bula, Kec. Bula, Kabupaten Seram Bagian Timur, Maluku";"Kabupaten Seram Bagian Timur, Maluku";"MALUKU";"";"Indonesia";"";"";"";"-3.1071157";"130.50404";"https://maps.google.com/?cid=0x0:0x1c88c849178e25ea";""
"mall";"Toko Kosmetik";"iMUFTAR KOSMETIK BULA";"Pantai rolex, Bula, Kec. Bula, Kabupaten Seram Bagian Timur, Maluku 97521";"Bula, Kec. Bula, Kabupaten Seram Bagian Timur";"MALUKU";"97521";"Indonesia";" 081343471074";"";"";"-3.0964857";"130.4895072";"https://maps.google.com/?cid=0x0:0xe8cc4afa94d30682";""
"mall";"Pusat Perbelanjaan";"Maluku City Mall (MCM)";"Jl. Jenderal Sudirman No.1, Hative Kecil, Kec. Sirimau, Kota Ambon, Maluku";"Kota Ambon, Maluku";"MALUKU";"";"Indonesia";" 0911352871";"";"";"-3.6702679";"128.1981163";"https://maps.google.com/?cid=0x0:0x2f29bf0afe09144e";""
"mall";"Toko";"Kios mas budi";"WF69+CFX, Jl. Wailola, Bula, Kec. Bula, Kabupaten Seram Bagian Timur, Maluku";"Kabupaten Seram Bagian Timur, Maluku";"MALUKU";"";"Indonesia";"";"";"";"-3.0859745";"130.4679208";"https://maps.google.com/?cid=0x0:0xbb0541384b7683cc";""
"mall";"Toko";"Kios";"X43W+H4J, Waimatakabu, Bula, Kabupaten Seram Bagian Timur, Maluku";"Kabupaten Seram Bagian Timur, Maluku";"MALUKU";"";"Indonesia";" 081248812201";"";"";"-3.0460434";"130.1452768";"https://maps.google.com/?cid=0x0:0xe5608da97d7c81e6";""
"mall";"Toko";"Pusat perbelanjaan";"Bula, Kec. Bula, Kabupaten Seram Bagian Timur, Maluku 97555";"Kec. Bula, Kabupaten Seram Bagian Timur";"MALUKU";"97555";"Indonesia";" 085399910989";"";"";"-3.1004284";"130.4853461";"https://maps.google.com/?cid=0x0:0xd40209d031d84d29";""
"mall";"Pusat Perbelanjaan";"Wailola Shop";"Jalan Bhayangkari, Bula, East Seram, Maluku";"Kabupaten Seram Bagian Timur, Maluku";"MALUKU";"";"Indonesia";" 081331422430";"";"";"-3.106128";"130.495989";"https://maps.google.com/?cid=0x0:0x6c0e86a4807da275";""
"mall";"Pusat Perbelanjaan";"CENTRAL SURYA BARU";"Jl. Wailola, Bula, Kec. Bula, Kabupaten Seram Bagian Timur, Maluku";"Kabupaten Seram Bagian Timur, Maluku";"MALUKU";"";"Indonesia";" 081252420811";"";"";"-3.0736662";"130.4596047";"https://maps.google.com/?cid=0x0:0x2414b3e56b070a1c";""
"mall";"Pusat Perbelanjaan";"Bula seram bagian timur";"VFVQ+JGH, Jl. Klp. Dua, Bula, Kec. Bula, Kabupaten Seram Bagian Timur, Maluku";"Kabupaten Seram Bagian Timur, Maluku";"MALUKU";"";"Indonesia";"";"";"";"-3.1059251";"130.4888482";"https://maps.google.com/?cid=0x0:0x9d1aa064a94d709d";""
"mall";"mall";"Kec. Seram Tim.";"Kabupaten Seram Bagian Timur, Maluku";"Kabupaten Seram Bagian Timur, Maluku";"MALUKU";"";"Indonesia";"";"";"";"-3.8324657";"130.8204099";"https://maps.google.com/?cid=0x0:0x70947c7ca6669763";""
"mall";"Pusat Perbelanjaan";"Maluku City Mall (MCM)";"Jl. Jenderal Sudirman No.1, Hative Kecil, Kec. Sirimau, Kota Ambon, Maluku";"Kota Ambon, Maluku";"MALUKU";"";"Indonesia";" 0911352871";"";"";"-3.6702679";"128.1981163";"https://maps.google.com/?cid=0x0:0x2f29bf0afe09144e";""
"mall";"Pusat Perbelanjaan";"Gramedia Maluku City Mall";"Jalan Jenderal Sudirman. 1 Tantui Ambon UP Floor Blok UG No. 2, Jl. Jenderal Sudirman, Hative Kecil, Kec. Sirimau, Kota Ambon, Maluku 97128";"Jl. Jenderal Sudirman, Hative Kecil, Kec. Sirimau, Kota Ambon";"MALUKU";"97128";"Indonesia";" 081248557414";"";"";"-3.6703427";"128.1983406";"https://maps.google.com/?cid=0x0:0xe751f5e37fa0f5c3";""
"mall";"Komplek perumahan";"Mcm";"Q46W+J46, Atiahu, Werinama, Kabupaten Seram Bagian Timur, Maluku";"Kabupaten Seram Bagian Timur, Maluku";"MALUKU";"";"Indonesia";"";"";"";"-3.2384616";"130.1452734";"https://maps.google.com/?cid=0x0:0x82537424dd46445b";""
"mall";"Pusat Perbelanjaan";"Toko Sinar Manis";"W5MV+RM2, Piru, Kec. Seram Bar., Kabupaten Seram Bagian Barat, Maluku";"Kabupaten Seram Bagian Barat, Maluku";"MALUKU";"";"Indonesia";"";"";"";"-3.0654936";"128.1941501";"https://maps.google.com/?cid=0x0:0x34f0f4ffa1d52afa";""
"mall";"Pembangunan Perumahan";"Maluku";"Q46W+J46, Atiahu, Werinama, Kabupaten Seram Bagian Timur, Maluku";"Kabupaten Seram Bagian Timur, Maluku";"MALUKU";"";"Indonesia";"";"";"";"-3.2384616";"130.1452734";"https://maps.google.com/?cid=0x0:0x4626ced6dd1ccc6e";""
"mall";"mall";"Werinama";"Kabupaten Seram Bagian Timur, Maluku";"Kabupaten Seram Bagian Timur, Maluku";"MALUKU";"";"Indonesia";"";"";"";"-3.4233267";"130.2271243";"https://maps.google.com/?cid=0x0:0x5d34ed8352394a25";""
"mall";"Komplek perumahan";"Mcm";"Q46W+J46, Atiahu, Werinama, Kabupaten Seram Bagian Timur, Maluku";"Kabupaten Seram Bagian Timur, Maluku";"MALUKU";"";"Indonesia";"";"";"";"-3.2384616";"130.1452734";"https://maps.google.com/?cid=0x0:0x82537424dd46445b";""
"mall";"Toko Swalayan";"Toko Usaha Baru";"Atiahu, Werinama, Kabupaten Seram Bagian Timur, Maluku";"Kabupaten Seram Bagian Timur, Maluku";"MALUKU";"";"Indonesia";" 081343235656";"";"";"-3.3649354";"129.963071";"https://maps.google.com/?cid=0x0:0xfce1f9a32991b08d";""
"mall";"mall";"Pulau Gorong";"Kabupaten Seram Bagian Timur, Maluku";"Kabupaten Seram Bagian Timur, Maluku";"MALUKU";"";"Indonesia";"";"";"";"-4.011202";"131.4112125";"https://maps.google.com/?cid=0x0:0x3b60b40247d61e16";""
"mall";"Pasar tradisional";"Pusat Kota Pulau Gorom";"294H+7GR, Kataloka, Kec. Pulau Gorom, Kabupaten Seram Bagian Timur, Maluku";"Kabupaten Seram Bagian Timur, Maluku";"MALUKU";"";"Indonesia";" 085282663740";"";"";"-3.9942649";"131.3787588";"https://maps.google.com/?cid=0x0:0xb12bcb82e59bdcf8";""
"mall";"Otoritas Pelabuhan";"Pelabuhan Gorom";"X9XJ+RQJ, Unnamed Road, Ondor, Pulau Gorom, East Seram, Maluku";"Kabupaten Seram Bagian Timur, Maluku";"MALUKU";"";"Indonesia";"";"";"";"-4.0004023";"131.3818854";"https://maps.google.com/?cid=0x0:0xdc4d6741587bfdee";""
"mall";"mall";"Kios Ar-Rahman";"JHCM+62Q, Ilili, Kec. Wakate, Kabupaten Seram Bagian Timur, Maluku";"Kabupaten Seram Bagian Timur, Maluku";"MALUKU";"";"Indonesia";"";"";"";"-4.3794155";"131.5826099";"https://maps.google.com/?cid=0x0:0xa87413e0c212bbbb";""
"mall";"Pusat Perbelanjaan";"Plaza Indonesia";"Jl. M.H. Thamrin No.Kav.28-30, Gondangdia, Kec. Menteng, Kota Jakarta Pusat, Daerah Khusus Ibukota Jakarta 10350";"Gondangdia, Kec. Menteng, Kota Jakarta Pusat";"MALUKU";"10350";"Indonesia";" 02129920000";"";"";"-6.1935977";"106.8219468";"https://maps.google.com/?cid=0x0:0x7d7fe17ad64a053f";""
"mall";"Mal outlet";"Supermal Karawaci";"Jl. Boulevard Diponegoro No.105, Bencongan, Kec. Klp. Dua, Kabupaten Tangerang, Banten 15810";"Bencongan, Kec. Klp. Dua, Kabupaten Tangerang";"MALUKU";"15810";"Indonesia";" 0215466666";"";"";"-6.2268116";"106.6070233";"https://maps.google.com/?cid=0x0:0xc5927a7be82e23b8";""
"mall";"Pusat Perbelanjaan";"Tangcity Mall";"Jl. Jenderal Sudirman No.1, Cikokol, Kec. Tangerang, Kota Tangerang, Banten 15117";"Cikokol, Kec. Tangerang, Kota Tangerang";"MALUKU";"15117";"Indonesia";" 02155733333";"";"";"-6.1939327";"106.6341002";"https://maps.google.com/?cid=0x0:0xdcbd7b5bf0b8b249";""
"mall";"Toko Sepatu";"Wakai Kota Kasablanka";"Jl. Raya Casablanca No.88, RT.16/RW.5, Menteng Dalam, Kec. Tebet, Kota Jakarta Selatan, Daerah Khusus Ibukota Jakarta 12870";"RT.16/RW.5, Menteng Dalam, Kec. Tebet, Kota Jakarta Selatan";"MALUKU";"12870";"Indonesia";" 02129488519";"";"";"-6.2234404";"106.8429516";"https://maps.google.com/?cid=0x0:0xda0f3bc530aaae42";""
"mall";"Pusat Perbelanjaan";"Summarecon Mall Kelapa Gading";"Jl. Boulevard Raya, Klp. Gading Tim., Kec. Klp. Gading, Jkt Utara, Daerah Khusus Ibukota Jakarta 14240";"Klp. Gading Tim., Kec. Klp. Gading, Jkt Utara";"MALUKU";"14240";"Indonesia";" 0214531101";"";"";"-6.1572666";"106.9084263";"https://maps.google.com/?cid=0x0:0x1c1a278e20ff1c47";""
"mall";"mall";"Wakai";"Supermall Karawaci Lt UG Blok J3 No 3 eCenter, Bencongan, Karawaci, Tangerang Regency, Banten 15810";"Bencongan, Karawaci, Tangerang Regency";"MALUKU";"15810";"Indonesia";"";"";"";"-6.2265617";"106.6058943";"https://maps.google.com/?cid=0x0:0x8f1f65058c70a064";""
"mall";"mall";"Kec. Tutuk Tolu";"Kabupaten Seram Bagian Timur, Maluku";"Kabupaten Seram Bagian Timur, Maluku";"MALUKU";"";"Indonesia";"";"";"";"-3.5511893";"130.8594177";"https://maps.google.com/?cid=0x0:0x66cd00a169ac09c7";""
"mall";"Tempat Ziarah";"Bandar Udara Kufar";"GQPQ+FF8, Gah, Kec. Tutuk Tolu, Kabupaten Seram Bagian Timur, Maluku";"Kabupaten Seram Bagian Timur, Maluku";"MALUKU";"";"Indonesia";"";"";"";"-3.4638406";"130.7886901";"https://maps.google.com/?cid=0x0:0x61ed8c89aa85623d";""
"mall";"Komplek perumahan";"Kufar pantai";"GQCW+8C2, Gah, Kec. Tutuk Tolu, Kabupaten Seram Bagian Timur, Maluku";"Kabupaten Seram Bagian Timur, Maluku";"MALUKU";"";"Indonesia";"";"";"";"-3.479245";"130.796005";"https://maps.google.com/?cid=0x0:0xa114fa016873aace";""
"mall";"mall";"Maluku";"";"Maluku";"MALUKU";"";"Indonesia";"";"";"";"-3.2384616";"130.1452734";"https://maps.google.com/?cid=0x0:0x5e30e8db04649a51";""
"mall";"Pusat Perbelanjaan";"Maluku City Mall (MCM)";"Jl. Jenderal Sudirman No.1, Hative Kecil, Kec. Sirimau, Kota Ambon, Maluku";"Kota Ambon, Maluku";"MALUKU";"";"Indonesia";" 0911352871";"";"";"-3.6702679";"128.1981163";"https://maps.google.com/?cid=0x0:0x2f29bf0afe09144e";""
"mall";"Pusat Perbelanjaan";"Wailola Shop";"Jalan Bhayangkari, Bula, East Seram, Maluku";"Kabupaten Seram Bagian Timur, Maluku";"MALUKU";"";"Indonesia";" 081331422430";"";"";"-3.106128";"130.495989";"https://maps.google.com/?cid=0x0:0x6c0e86a4807da275";""
"mall";"Toko Swalayan";"SINAR MART";"Jl. Trans Seram, Barat, Piru, Kec. Seram Bar., Kabupaten Seram Bagian Barat, Maluku";"Kabupaten Seram Bagian Barat, Maluku";"MALUKU";"";"Indonesia";"";"";"";"-3.0705292";"128.2004269";"https://maps.google.com/?cid=0x0:0xba952c381ba33726";""
"mall";"Dapur Umum";"toko kilat";"HMHM+9XM, Latu, Kec. Amalatu, Kabupaten Seram Bagian Barat, Maluku";"Kabupaten Seram Bagian Barat, Maluku";"MALUKU";"";"Indonesia";" 081247339950";"";"";"-3.4215392";"128.6849233";"https://maps.google.com/?cid=0x0:0xef326a5b7b4c54b8";""
"mall";"Pusat Perbelanjaan";"Gramedia Maluku City Mall";"Jalan Jenderal Sudirman. 1 Tantui Ambon UP Floor Blok UG No. 2, Jl. Jenderal Sudirman, Hative Kecil, Kec. Sirimau, Kota Ambon, Maluku 97128";"Jl. Jenderal Sudirman, Hative Kecil, Kec. Sirimau, Kota Ambon";"MALUKU";"97128";"Indonesia";" 081248557414";"";"";"-3.6703427";"128.1983406";"https://maps.google.com/?cid=0x0:0xe751f5e37fa0f5c3";""
"mall";"Toko sembako pemerintah";"Kios Sulistiawati";"M3R5+255, Lokki, Kec. Huamual Belakang, Kabupaten Seram Bagian Barat, Maluku";"Kabupaten Seram Bagian Barat, Maluku";"MALUKU";"";"Indonesia";" 081394788830";"";"";"-3.3099995";"128.0579747";"https://maps.google.com/?cid=0x0:0x165d5ba94e586f04";""
"mall";"Pusat Perbelanjaan";"CantikQue olsop";"Jl. Ir. Mohamad Khosim, Waimital, Kec. Kairatu, Kabupaten Seram Bagian Barat, Maluku";"Kabupaten Seram Bagian Barat, Maluku";"MALUKU";"";"Indonesia";" 081240951216";"";"";"-3.3312981";"128.3561684";"https://maps.google.com/?cid=0x0:0xd2616fcb3f72700d";""
"mall";"Toko";"Kios";"X43W+H4J, Waimatakabu, Bula, Kabupaten Seram Bagian Timur, Maluku";"Kabupaten Seram Bagian Timur, Maluku";"MALUKU";"";"Indonesia";" 081248812201";"";"";"-3.0460434";"130.1452768";"https://maps.google.com/?cid=0x0:0xe5608da97d7c81e6";""
"mall";"Toko umum";"Kios ILDA";"Negeri Kawa, Kec. Seram Bar., Kabupaten Seram Bagian Barat, Maluku";"Kabupaten Seram Bagian Barat, Maluku";"MALUKU";"";"Indonesia";"";"";"";"-2.9580756";"128.1243274";"https://maps.google.com/?cid=0x0:0x17521554bf21fa65";""
"mall";"Toko Pakaian";"Azael Collection";"Perumahan Passo vila indah transit passo td 08, Kota Ambon, Maluku 97232";"Kota Ambon";"MALUKU";"97232";"Indonesia";" 081215525751";"";"";"-3.607376";"128.2489643";"https://maps.google.com/?cid=0x0:0x66799607d33cad5e";""
"mall";"Toko umum";"Rumah Sandra";"8XV6+WHW, Negeri Lima, dusun waimuli, Kabupaten Maluku Tengah, Maluku";"Kabupaten Maluku Tengah, Maluku";"MALUKU";"";"Indonesia";"";"";"";"-3.6551391";"127.9614669";"https://maps.google.com/?cid=0x0:0xe7b3100c908a8f0b";""
"mall";"Pusat Perbelanjaan";"Kios Sul Assililu";"8WCJ+JMJ, Asilulu, Kec. Leihitu, Kabupaten Maluku Tengah, Maluku";"Kabupaten Maluku Tengah, Maluku";"MALUKU";"";"Indonesia";" 081343457241";"";"";"-3.6784106";"127.9316543";"https://maps.google.com/?cid=0x0:0xe7177c1b088e8f32";""
"mall";"mall";"Kilmury";"Kec. Seram Tim., Kabupaten Seram Bagian Timur, Maluku";"Kabupaten Seram Bagian Timur, Maluku";"MALUKU";"";"Indonesia";"";"";"";"-3.6249497";"130.5940565";"https://maps.google.com/?cid=0x0:0x935e27a1be02d187";""
"mall";"Pusat Perbelanjaan";"Mall Plaza Senayan";"Jl. Asia Afrika No.8, RT.1/RW.3, Gelora, Kecamatan Tanah Abang, Kota Jakarta Pusat, Daerah Khusus Ibukota Jakarta 10270";"RT.1/RW.3, Gelora, Kecamatan Tanah Abang, Kota Jakarta Pusat";"MALUKU";"10270";"Indonesia";" 0215725555";"";"";"-6.2255918";"106.7993027";"https://maps.google.com/?cid=0x0:0x788e3a1eef75ac94";""
"mall";"Pusat Perbelanjaan";"Mall Senayan City";"Jl. Asia Afrika No.Lot 19, Gelora, Kecamatan Tanah Abang, Kota Jakarta Pusat, Daerah Khusus Ibukota Jakarta 10270";"Gelora, Kecamatan Tanah Abang, Kota Jakarta Pusat";"MALUKU";"10270";"Indonesia";" 02172781000";"";"";"-6.2271953";"106.7970117";"https://maps.google.com/?cid=0x0:0x300c043104acc004";""
"mall";"Pusat Perbelanjaan";"Pacific Place Mall";"Jl. Jend. Sudirman kav 52-53, Senayan, Kec. Kby. Baru, Kota Jakarta Selatan, Daerah Khusus Ibukota Jakarta 12190";"Senayan, Kec. Kby. Baru, Kota Jakarta Selatan";"MALUKU";"12190";"Indonesia";" 02151402828";"";"";"-6.2240197";"106.8101858";"https://maps.google.com/?cid=0x0:0xc4a608b34b5f03cc";""
"mall";"Toserba";"METRO Plaza Senayan";"Mall Plaza Senayan, Central Jakarta Ground Floor, Jl. Asia Afrika No.8, RT.1/RW.3, Gelora, Kecamatan Tanah Abang, Kota Jakarta Pusat, Daerah Khusus Ibukota Jakarta 10270";"Central Jakarta Ground Floor, Jl. Asia Afrika No.8, RT.1/RW.3, Gelora, Kecamatan Tanah Abang, Kota Jakarta Pusat";"MALUKU";"10270";"Indonesia";" 0215725428";"";"";"-6.2263718";"106.7987176";"https://maps.google.com/?cid=0x0:0xae0a818b2266470f";""
"mall";"Brasserie";"UNION Plaza Senayan";"Plaza Senayan, Jl. Asia Afrika No.8 Ground Floor, Gelora, Kecamatan Tanah Abang, Kota Jakarta Pusat, Daerah Khusus Ibukota Jakarta 10270";"Jl. Asia Afrika No.8 Ground Floor, Gelora, Kecamatan Tanah Abang, Kota Jakarta Pusat";"MALUKU";"10270";"Indonesia";" 02157905861";"";"";"-6.224386";"106.7990009";"https://maps.google.com/?cid=0x0:0xbf8f02390870ee8e";""
"mall";"Restoran";"Bakerzin Plaza Senayan";"Jl. Asia Afrika No.19, RT.1/RW.3, Gelora, Kecamatan Tanah Abang, Kota Jakarta Pusat, Daerah Khusus Ibukota Jakarta 10270";"RT.1/RW.3, Gelora, Kecamatan Tanah Abang, Kota Jakarta Pusat";"MALUKU";"10270";"Indonesia";"";"";"";"-6.2271849";"106.7972822";"https://maps.google.com/?cid=0x0:0xb58c14e9bb2e675a";""
"mall";"Ramen";"Marutama Ramen";"Sentral Senayan I, Jl. Asia Afrika No.8 Lantai Basement Unit.10BC, RT.1/RW.3, Gelora, Kecamatan Tanah Abang, Kota Jakarta Pusat, Daerah Khusus Ibukota Jakarta 10270";"Jl. Asia Afrika No.8 Lantai Basement Unit.10BC, RT.1/RW.3, Gelora, Kecamatan Tanah Abang, Kota Jakarta Pusat";"MALUKU";"10270";"Indonesia";" 0215724050";"";"";"-6.224101";"106.7994056";"https://maps.google.com/?cid=0x0:0x7072e91e6d5b49a5";""
"mall";"Restoran";"Monolog Coffee Company Plaza Senayan";"Plaza Senayan Mall, Palm Gate Entrance, Jl. Asia Afrika No.8 CP 101 B, Gelora, Jakarta 10270";"Palm Gate Entrance, Jl. Asia Afrika No.8 CP 101 B, Gelora";"MALUKU";"10270";"Indonesia";" 0215725144";"";"";"-6.2255785";"106.7990353";"https://maps.google.com/?cid=0x0:0x8de7aee6b0e4167d";""
"mall";"mall";"Pulau Panjang";"Kec. Pulau Gorom, Kabupaten Seram Bagian Timur, Maluku";"Kabupaten Seram Bagian Timur, Maluku";"MALUKU";"";"Indonesia";"";"";"";"-4.0065038";"131.23064";"https://maps.google.com/?cid=0x0:0x32cd940c1ce4e9ae";""
"mall";"Pusat Perbelanjaan";"Senandungbetta";"Jl. Komp. Dep Keuangan No.99, RT.8/RW.6, Joglo, Kec. Kembangan, Kota Jakarta Barat, Daerah Khusus Ibukota Jakarta 11640";"RT.8/RW.6, Joglo, Kec. Kembangan, Kota Jakarta Barat";"MALUKU";"11640";"Indonesia";" 087779288004";"";"";"-6.2196428";"106.7201912";"https://maps.google.com/?cid=0x0:0xf0d00818a6ece97b";""
"mall";"Grosir";"TOKO ICE";"Jalan Pluit Karang Jelita I Muara karang blok S 4 Selatan no.9, RT.9/RW.3, Pluit, Kec. Penjaringan, Jkt Utara, Daerah Khusus Ibukota Jakarta 14450";"RT.9/RW.3, Pluit, Kec. Penjaringan, Jkt Utara";"MALUKU";"14450";"Indonesia";" 0216614434";"";"";"-6.1153962";"106.7797921";"https://maps.google.com/?cid=0x0:0x6d14afce0317f8d6";""
"mall";"Bengkel Sepeda Motor";"bengkel GTT jakarta barat";"Jalan 3, RT.2/RW.1, Rw. Buaya, Kecamatan Cengkareng, Kota Jakarta Barat, Daerah Khusus Ibukota Jakarta 11740";"RT.2/RW.1, Rw. Buaya, Kecamatan Cengkareng, Kota Jakarta Barat";"MALUKU";"11740";"Indonesia";" 081287000177";"";"";"-6.1570341";"106.7307635";"https://maps.google.com/?cid=0x0:0x819270e1cb32df3c";""
"mall";"Kedai Kopi";"Warung Radius3Kilo Jakarta Vintage";"Jl. Kentang Jl. Pd. Cabe Raya No.36, RT.02/RW.07, Pd. Cabe Ilir, Kec. Pamulang, Kota Tangerang Selatan, Banten 15418";"RT.02/RW.07, Pd. Cabe Ilir, Kec. Pamulang, Kota Tangerang Selatan";"MALUKU";"15418";"Indonesia";" 086902865355";"";"";"-6.3264365";"106.7738902";"https://maps.google.com/?cid=0x0:0xc10a95d1b6c55d1";""
"mall";"mall";"Kilwouw Kecamatan Teor";"6PPP+RFF, Teor, Kabupaten Seram Bagian Timur, Maluku";"Kabupaten Seram Bagian Timur, Maluku";"MALUKU";"";"Indonesia";"";"";"";"-4.7629481";"131.7361808";"https://maps.google.com/?cid=0x0:0x5cf874af530f271";""
"mall";"Petugas Perbatasan";"TEMPAT ZIARAH";"Pulau Tioor, Teor, Kabupaten Seram Bagian Timur, Maluku";"Kabupaten Seram Bagian Timur, Maluku";"MALUKU";"";"Indonesia";"";"";"";"-4.7599049";"131.7331596";"https://maps.google.com/?cid=0x0:0x14f3fe0e10312fb1";""
"mall";"Pusat Perbelanjaan";"Tamma Resseler";"Jl. An-Nur 1 No.32a, RT.06/RW012, Satriamekar, Kec. Tambun Utara, Kabupaten Bekasi, Jawa Barat 17510";"RT.06/RW012, Satriamekar, Kec. Tambun Utara, Kabupaten Bekasi";"MALUKU";"17510";"Indonesia";"";"";"";"-6.1971888";"107.0592622";"https://maps.google.com/?cid=0x0:0xf456a4dd2951270c";""
"mall";"mall";"Kec. Gorom Timur";"Kabupaten Seram Bagian Timur, Maluku";"Kabupaten Seram Bagian Timur, Maluku";"MALUKU";"";"Indonesia";"";"";"";"-3.9797121";"131.4112125";"https://maps.google.com/?cid=0x0:0xaee5fbc2b0124a41";""
"mall";"mall";"Kios Jumila";"29WX+9H6, Unnamed Road, Kataloka, Kec. Pulau Gorom, Kabupaten Seram Bagian Timur, Maluku";"Kabupaten Seram Bagian Timur, Maluku";"MALUKU";"";"Indonesia";"";"";"";"-3.9540768";"131.398888";"https://maps.google.com/?cid=0x0:0x94f5264d55cfe9aa";""
"mall";"Pasar tradisional";"Pusat Kota Pulau Gorom";"294H+7GR, Kataloka, Kec. Pulau Gorom, Kabupaten Seram Bagian Timur, Maluku";"Kabupaten Seram Bagian Timur, Maluku";"MALUKU";"";"Indonesia";" 085282663740";"";"";"-3.9942649";"131.3787588";"https://maps.google.com/?cid=0x0:0xb12bcb82e59bdcf8";""
"mall";"mall";"Kec. Bula Barat";"Kabupaten Seram Bagian Timur, Maluku";"Kabupaten Seram Bagian Timur, Maluku";"MALUKU";"";"Indonesia";"";"";"";"-3.0472432";"130.1469398";"https://maps.google.com/?cid=0x0:0x12c29f15f276cac6";""
"mall";"Pusat Perbelanjaan";"CENTRAL SURYA BARU";"Jl. Wailola, Bula, Kec. Bula, Kabupaten Seram Bagian Timur, Maluku";"Kabupaten Seram Bagian Timur, Maluku";"MALUKU";"";"Indonesia";" 081252420811";"";"";"-3.0736662";"130.4596047";"https://maps.google.com/?cid=0x0:0x2414b3e56b070a1c";""
"mall";"Toko";"Pusat perbelanjaan";"Bula, Kec. Bula, Kabupaten Seram Bagian Timur, Maluku 97555";"Kec. Bula, Kabupaten Seram Bagian Timur";"MALUKU";"97555";"Indonesia";" 085399910989";"";"";"-3.1004284";"130.4853461";"https://maps.google.com/?cid=0x0:0xd40209d031d84d29";""
"mall";"Pusat Perbelanjaan";"Wailola Shop";"Jalan Bhayangkari, Bula, East Seram, Maluku";"Kabupaten Seram Bagian Timur, Maluku";"MALUKU";"";"Indonesia";" 081331422430";"";"";"-3.106128";"130.495989";"https://maps.google.com/?cid=0x0:0x6c0e86a4807da275";""
"mall";"Toko";"Kios";"X43W+H4J, Waimatakabu, Bula, Kabupaten Seram Bagian Timur, Maluku";"Kabupaten Seram Bagian Timur, Maluku";"MALUKU";"";"Indonesia";" 081248812201";"";"";"-3.0460434";"130.1452768";"https://maps.google.com/?cid=0x0:0xe5608da97d7c81e6";""
"mall";"Pasar";"Toko BULA RAYA";"VFWV+H8C, Jl. Wailola, Bula, Kec. Bula, Kabupaten Seram Bagian Timur, Maluku";"Kabupaten Seram Bagian Timur, Maluku";"MALUKU";"";"Indonesia";" 081240788950";"";"";"-3.1035611";"130.4932737";"https://maps.google.com/?cid=0x0:0x23a0e0b256e88ad8";""
"mall";"Komplek perumahan";"Mcm";"Q46W+J46, Atiahu, Werinama, Kabupaten Seram Bagian Timur, Maluku";"Kabupaten Seram Bagian Timur, Maluku";"MALUKU";"";"Indonesia";"";"";"";"-3.2384616";"130.1452734";"https://maps.google.com/?cid=0x0:0x82537424dd46445b";""
"mall";"Toko Buku";"Toko Buku Intan";"VFWP+23G, Bula, Kec. Bula, Kabupaten Seram Bagian Timur, Maluku";"Kabupaten Seram Bagian Timur, Maluku";"MALUKU";"";"Indonesia";" 091521476";"";"";"-3.1049283";"130.4852078";"https://maps.google.com/?cid=0x0:0x76da43977f140972";""
"mall";"Toko bahan makanan";"Toko Niar's";"WF69+GMR, Jl. Wailola, Bula, Kec. Bula, Kabupaten Seram Bagian Timur, Maluku";"Kabupaten Seram Bagian Timur, Maluku";"MALUKU";"";"Indonesia";"";"";"";"-3.0886403";"130.469127";"https://maps.google.com/?cid=0x0:0xea09b41d510f6cce";""
"mall";"Toko Swalayan";"Jus KDI";"VFVR+CR9, Jl. Klp. Dua, Bula, Kec. Bula, Kabupaten Seram Bagian Timur, Maluku";"Kabupaten Seram Bagian Timur, Maluku";"MALUKU";"";"Indonesia";" 082199189596";"";"";"-3.1064573";"130.4920947";"https://maps.google.com/?cid=0x0:0x8c9c98f3cf721621";""
"mall";"Toko Elektronik";"Revolusi cell";"Jl. Ujung rel, Bula, Kec. Bula, Kabupaten Seram Bagian Timur, Maluku 97555";"Bula, Kec. Bula, Kabupaten Seram Bagian Timur";"MALUKU";"97555";"Indonesia";" 081344555355";"";"";"-3.101072";"130.4870655";"https://maps.google.com/?cid=0x0:0x916e23ea844c1e39";""
"mall";"Toko";"Kios mama Aldan";"WF79+H5G, Jl. Wailola, Bula, Kec. Bula, Kabupaten Seram Bagian Timur, Maluku";"Kabupaten Seram Bagian Timur, Maluku";"MALUKU";"";"Indonesia";" 082199183767";"";"";"-3.0860683";"130.4679385";"https://maps.google.com/?cid=0x0:0x4fb387514afb9ca8";""
"mall";"Toko";"Kios mas budi";"WF69+CFX, Jl. Wailola, Bula, Kec. Bula, Kabupaten Seram Bagian Timur, Maluku";"Kabupaten Seram Bagian Timur, Maluku";"MALUKU";"";"Indonesia";"";"";"";"-3.0859745";"130.4679208";"https://maps.google.com/?cid=0x0:0xbb0541384b7683cc";""
"mall";"Pusat Perbelanjaan";"paloma DS Bula";"VFXM+3Q2, Bula, Kec. Bula, Kabupaten Seram Bagian Timur, Maluku";"Kabupaten Seram Bagian Timur, Maluku";"MALUKU";"";"Indonesia";" 081297434797";"";"";"-3.1023734";"130.4844019";"https://maps.google.com/?cid=0x0:0xcb076b3ad0c7f0dd";""
"mall";"Tempat Penjualan Teh";"Warung Sembako Meka";"W7R6+259, Upt T. Jkt Baru, kec bulbar, Kabupaten Seram Bagian Timur, Maluku";"Kabupaten Seram Bagian Timur, Maluku";"MALUKU";"";"Indonesia";"";"";"";"-3.0599674";"130.2604917";"https://maps.google.com/?cid=0x0:0xe04bdf078a259622";""
"mall";"mall";"Angling Dharmo Olshop";"X43W+4Q4, Desa Waisamet, Kec. Bula Barat, Kabupaten Seram Bagian Timur, Maluku";"Kabupaten Seram Bagian Timur, Maluku";"MALUKU";"";"Indonesia";"";"";"";"-3.0472432";"130.1469398";"https://maps.google.com/?cid=0x0:0xc61c8d12e7ea5826";""
"mall";"Pusat Perbelanjaan";"Mall Plaza Senayan";"Jl. Asia Afrika No.8, RT.1/RW.3, Gelora, Kecamatan Tanah Abang, Kota Jakarta Pusat, Daerah Khusus Ibukota Jakarta 10270";"RT.1/RW.3, Gelora, Kecamatan Tanah Abang, Kota Jakarta Pusat";"MALUKU";"10270";"Indonesia";" 0215725555";"";"";"-6.2255918";"106.7993027";"https://maps.google.com/?cid=0x0:0x788e3a1eef75ac94";""
"mall";"Pusat Perbelanjaan";"Mall Senayan City";"Jl. Asia Afrika No.Lot 19, Gelora, Kecamatan Tanah Abang, Kota Jakarta Pusat, Daerah Khusus Ibukota Jakarta 10270";"Gelora, Kecamatan Tanah Abang, Kota Jakarta Pusat";"MALUKU";"10270";"Indonesia";" 02172781000";"";"";"-6.2271953";"106.7970117";"https://maps.google.com/?cid=0x0:0x300c043104acc004";""
"mall";"Taman";"Senayan Park";"Jl. Gerbang Pemuda No.3, RT.1/RW.3, Gelora, Kecamatan Tanah Abang, Kota Jakarta Pusat, Daerah Khusus Ibukota Jakarta 10270";"RT.1/RW.3, Gelora, Kecamatan Tanah Abang, Kota Jakarta Pusat";"MALUKU";"10270";"Indonesia";" 0212512030";"";"";"-6.2128077";"106.8036757";"https://maps.google.com/?cid=0x0:0xc0ea4d9a9d1b2936";""
"mall";"Toserba";"METRO Plaza Senayan";"Mall Plaza Senayan, Central Jakarta Ground Floor, Jl. Asia Afrika No.8, RT.1/RW.3, Gelora, Kecamatan Tanah Abang, Kota Jakarta Pusat, Daerah Khusus Ibukota Jakarta 10270";"Central Jakarta Ground Floor, Jl. Asia Afrika No.8, RT.1/RW.3, Gelora, Kecamatan Tanah Abang, Kota Jakarta Pusat";"MALUKU";"10270";"Indonesia";" 0215725428";"";"";"-6.2263718";"106.7987176";"https://maps.google.com/?cid=0x0:0xae0a818b2266470f";""
"mall";"Brasserie";"UNION Plaza Senayan";"Plaza Senayan, Jl. Asia Afrika No.8 Ground Floor, Gelora, Kecamatan Tanah Abang, Kota Jakarta Pusat, Daerah Khusus Ibukota Jakarta 10270";"Jl. Asia Afrika No.8 Ground Floor, Gelora, Kecamatan Tanah Abang, Kota Jakarta Pusat";"MALUKU";"10270";"Indonesia";" 02157905861";"";"";"-6.224386";"106.7990009";"https://maps.google.com/?cid=0x0:0xbf8f02390870ee8e";""
"mall";"Restoran";"Bakerzin Plaza Senayan";"Jl. Asia Afrika No.19, RT.1/RW.3, Gelora, Kecamatan Tanah Abang, Kota Jakarta Pusat, Daerah Khusus Ibukota Jakarta 10270";"RT.1/RW.3, Gelora, Kecamatan Tanah Abang, Kota Jakarta Pusat";"MALUKU";"10270";"Indonesia";"";"";"";"-6.2271849";"106.7972822";"https://maps.google.com/?cid=0x0:0xb58c14e9bb2e675a";""
"mall";"Restoran";"Monolog Coffee Company Plaza Senayan";"Plaza Senayan Mall, Palm Gate Entrance, Jl. Asia Afrika No.8 CP 101 B, Gelora, Jakarta 10270";"Palm Gate Entrance, Jl. Asia Afrika No.8 CP 101 B, Gelora";"MALUKU";"10270";"Indonesia";" 0215725144";"";"";"-6.2255785";"106.7990353";"https://maps.google.com/?cid=0x0:0x8de7aee6b0e4167d";""
"mall";"Ramen";"Marutama Ramen";"Sentral Senayan I, Jl. Asia Afrika No.8 Lantai Basement Unit.10BC, RT.1/RW.3, Gelora, Kecamatan Tanah Abang, Kota Jakarta Pusat, Daerah Khusus Ibukota Jakarta 10270";"Jl. Asia Afrika No.8 Lantai Basement Unit.10BC, RT.1/RW.3, Gelora, Kecamatan Tanah Abang, Kota Jakarta Pusat";"MALUKU";"10270";"Indonesia";" 0215724050";"";"";"-6.224101";"106.7994056";"https://maps.google.com/?cid=0x0:0x7072e91e6d5b49a5";""
"mall";"mall";"Kian Darat";"Kiandarat, Kabupaten Seram Bagian Timur, Maluku";"Kabupaten Seram Bagian Timur, Maluku";"MALUKU";"";"Indonesia";"";"";"";"-3.6853452";"130.7867889";"https://maps.google.com/?cid=0x0:0x63cc3443f68b9180";""
"mall";"Masjid";"Kileser";"8Q7P+VP7, Kiandarat, Kec. Seram Tim., Kabupaten Seram Bagian Timur, Maluku";"Kabupaten Seram Bagian Timur, Maluku";"MALUKU";"";"Indonesia";"";"";"";"-3.6853452";"130.7867889";"https://maps.google.com/?cid=0x0:0x4e590da08866cd64";""
"mall";"Toko Swalayan";"SINAR MART";"Jl. Trans Seram, Barat, Piru, Kec. Seram Bar., Kabupaten Seram Bagian Barat, Maluku";"Kabupaten Seram Bagian Barat, Maluku";"MALUKU";"";"Indonesia";"";"";"";"-3.0705292";"128.2004269";"https://maps.google.com/?cid=0x0:0xba952c381ba33726";""
"mall";"Pusat Perbelanjaan";"Ratu Plaza";"Jl. Jenderal Sudirman No.Kav. 9, RT.1/RW.3, Gelora, Kecamatan Tanah Abang, Kota Jakarta Pusat, Daerah Khusus Ibukota Jakarta 10270";"RT.1/RW.3, Gelora, Kecamatan Tanah Abang, Kota Jakarta Pusat";"MALUKU";"10270";"Indonesia";" 0217394499";"";"";"-6.2266481";"106.8015903";"https://maps.google.com/?cid=0x0:0x1fa8acd75c6678b";""
"mall";"Pusat Perbelanjaan";"Maluku City Mall (MCM)";"Jl. Jenderal Sudirman No.1, Hative Kecil, Kec. Sirimau, Kota Ambon, Maluku";"Kota Ambon, Maluku";"MALUKU";"";"Indonesia";" 0911352871";"";"";"-3.6702679";"128.1981163";"https://maps.google.com/?cid=0x0:0x2f29bf0afe09144e";""
"mall";"Pusat Perbelanjaan";"Gramedia Maluku City Mall";"Jalan Jenderal Sudirman. 1 Tantui Ambon UP Floor Blok UG No. 2, Jl. Jenderal Sudirman, Hative Kecil, Kec. Sirimau, Kota Ambon, Maluku 97128";"Jl. Jenderal Sudirman, Hative Kecil, Kec. Sirimau, Kota Ambon";"MALUKU";"97128";"Indonesia";" 081248557414";"";"";"-3.6703427";"128.1983406";"https://maps.google.com/?cid=0x0:0xe751f5e37fa0f5c3";""
"mall";"mall";"Kec. Lian Fitu";"Kabupaten Seram Bagian Timur, Maluku";"Kabupaten Seram Bagian Timur, Maluku";"MALUKU";"";"Indonesia";"";"";"";"-3.7413684";"130.8286316";"https://maps.google.com/?cid=0x0:0x240a3775e9ef412c";""
"mall";"Pusat Perbelanjaan";"Maluku City Mall (MCM)";"Jl. Jenderal Sudirman No.1, Hative Kecil, Kec. Sirimau, Kota Ambon, Maluku";"Kota Ambon, Maluku";"MALUKU";"";"Indonesia";" 0911352871";"";"";"-3.6702679";"128.1981163";"https://maps.google.com/?cid=0x0:0x2f29bf0afe09144e";""
"mall";"Pusat Perbelanjaan";"Ambon City Center (ACC)";"Jl. Wolter Monginsidi, Passo, Kec. Baguala, Kota Ambon, Maluku 97232";"Passo, Kec. Baguala, Kota Ambon";"MALUKU";"97232";"Indonesia";" 09113869522";"";"";"-3.6320889";"128.2495582";"https://maps.google.com/?cid=0x0:0x91b8ed9da337adeb";""
"mall";"Tujuan Wisata";"Salagur kota";"8R2C+HPG, Kian Laut, Kec. Seram Tim., Kabupaten Seram Bagian Timur, Maluku";"Kabupaten Seram Bagian Timur, Maluku";"MALUKU";"";"Indonesia";"";"";"";"-3.698572";"130.8218271";"https://maps.google.com/?cid=0x0:0x734cdea5e93e0ef";""
"mall";"Taman";"Salagor kota";"7RXC+JQ, Kian Laut, Kec. Lian Fitu, Kabupaten Seram Bagian Timur, Maluku";"Kabupaten Seram Bagian Timur, Maluku";"MALUKU";"";"Indonesia";"";"";"";"-3.7008977";"130.8219331";"https://maps.google.com/?cid=0x0:0x24507af7e5b48de8";""
"mall";"mall";"Kec. Tlk. Waru";"Kabupaten Seram Bagian Timur, Maluku";"Kabupaten Seram Bagian Timur, Maluku";"MALUKU";"";"Indonesia";"";"";"";"-3.404276";"130.6715092";"https://maps.google.com/?cid=0x0:0x8093b034c7ac82";""
"mall";"Pusat Perbelanjaan";"Wailola Shop";"Jalan Bhayangkari, Bula, East Seram, Maluku";"Kabupaten Seram Bagian Timur, Maluku";"MALUKU";"";"Indonesia";" 081331422430";"";"";"-3.106128";"130.495989";"https://maps.google.com/?cid=0x0:0x6c0e86a4807da275";""
"mall";"Gudang";"Bumdesma Teluk Waru";"JM45+XQ7, Unnamed Road, Belis, Bula, Kabupaten Seram Bagian Timur, Maluku";"Kabupaten Seram Bagian Timur, Maluku";"MALUKU";"";"Indonesia";"";"";"";"-3.392587";"130.659426";"https://maps.google.com/?cid=0x0:0x7725ce970a29cc9c";""
"mall";"Pusat Perbelanjaan";"Maluku City Mall (MCM)";"Jl. Jenderal Sudirman No.1, Hative Kecil, Kec. Sirimau, Kota Ambon, Maluku";"Kota Ambon, Maluku";"MALUKU";"";"Indonesia";" 0911352871";"";"";"-3.6702679";"128.1981163";"https://maps.google.com/?cid=0x0:0x2f29bf0afe09144e";""
"mall";"Toko Elektronik";"Revolusi cell";"Jl. Ujung rel, Bula, Kec. Bula, Kabupaten Seram Bagian Timur, Maluku 97555";"Bula, Kec. Bula, Kabupaten Seram Bagian Timur";"MALUKU";"97555";"Indonesia";" 081344555355";"";"";"-3.101072";"130.4870655";"https://maps.google.com/?cid=0x0:0x916e23ea844c1e39";""
"mall";"Pusat Perbelanjaan";"Gramedia Maluku City Mall";"Jalan Jenderal Sudirman. 1 Tantui Ambon UP Floor Blok UG No. 2, Jl. Jenderal Sudirman, Hative Kecil, Kec. Sirimau, Kota Ambon, Maluku 97128";"Jl. Jenderal Sudirman, Hative Kecil, Kec. Sirimau, Kota Ambon";"MALUKU";"97128";"Indonesia";" 081248557414";"";"";"-3.6703427";"128.1983406";"https://maps.google.com/?cid=0x0:0xe751f5e37fa0f5c3";""
"mall";"Toko Swalayan";"Jus KDI";"VFVR+CR9, Jl. Klp. Dua, Bula, Kec. Bula, Kabupaten Seram Bagian Timur, Maluku";"Kabupaten Seram Bagian Timur, Maluku";"MALUKU";"";"Indonesia";" 082199189596";"";"";"-3.1064573";"130.4920947";"https://maps.google.com/?cid=0x0:0x8c9c98f3cf721621";""
"mall";"Pasar";"Toko BULA RAYA";"VFWV+H8C, Jl. Wailola, Bula, Kec. Bula, Kabupaten Seram Bagian Timur, Maluku";"Kabupaten Seram Bagian Timur, Maluku";"MALUKU";"";"Indonesia";" 081240788950";"";"";"-3.1035611";"130.4932737";"https://maps.google.com/?cid=0x0:0x23a0e0b256e88ad8";""
"mall";"Toko Buku";"Toko Buku Intan";"VFWP+23G, Bula, Kec. Bula, Kabupaten Seram Bagian Timur, Maluku";"Kabupaten Seram Bagian Timur, Maluku";"MALUKU";"";"Indonesia";" 091521476";"";"";"-3.1049283";"130.4852078";"https://maps.google.com/?cid=0x0:0x76da43977f140972";""
"mall";"Pusat Perbelanjaan";"Winkel Supermarket";"VFXR+3QM, Bula, Kec. Bula, Kabupaten Seram Bagian Timur, Maluku";"Kabupaten Seram Bagian Timur, Maluku";"MALUKU";"";"Indonesia";" 081240251423";"";"";"-3.1022975";"130.4919094";"https://maps.google.com/?cid=0x0:0xcc0933f2fab5253f";""
"mall";"Studio Fotografi";"Foto Copy ADINDA";"VFWQ+HJ4, Jl. A. Tamaela, Bula, Kec. Bula, Kabupaten Seram Bagian Timur, Maluku";"Kabupaten Seram Bagian Timur, Maluku";"MALUKU";"";"Indonesia";" 081344251504";"";"";"-3.1036146";"130.4890757";"https://maps.google.com/?cid=0x0:0x8678612f4f056d0c";""
"mall";"Pusat Perbelanjaan";"paloma DS Bula";"VFXM+3Q2, Bula, Kec. Bula, Kabupaten Seram Bagian Timur, Maluku";"Kabupaten Seram Bagian Timur, Maluku";"MALUKU";"";"Indonesia";" 081297434797";"";"";"-3.1023734";"130.4844019";"https://maps.google.com/?cid=0x0:0xcb076b3ad0c7f0dd";""
"mall";"Pusat Perbelanjaan";"Mall Artha Gading Jakarta";"Jl. Artha Gading Sel. No.1, Klp. Gading Bar., Kec. Klp. Gading, Jkt Utara, Daerah Khusus Ibukota Jakarta 14240";"Klp. Gading Bar., Kec. Klp. Gading, Jkt Utara";"MALUKU";"14240";"Indonesia";" 02145864000";"";"";"-6.1457739";"106.8919187";"https://maps.google.com/?cid=0x0:0x176166b3d087c724";""
"mall";"mall";"Eraphone_Cell";"VFVR+W29, Jl. Klp. Dua, Bula, Kec. Bula, Kabupaten Seram Bagian Timur, Maluku";"Kabupaten Seram Bagian Timur, Maluku";"MALUKU";"";"Indonesia";"";"";"";"-3.1052218";"130.4901083";"https://maps.google.com/?cid=0x0:0xb5b0255f0e34c335";""
"mall";"Pondok pedesaan";"Nama Andan";"MRJ2+5RV, Pualu Parang, Waru, Kec. Tlk. Waru, Kabupaten Seram Bagian Timur, Maluku";"Kabupaten Seram Bagian Timur, Maluku";"MALUKU";"";"Indonesia";"";"";"";"-3.3195144";"130.8020515";"https://maps.google.com/?cid=0x0:0x9b8525b5c972d83f";""
"mall";"Perhimpunan Pengembang Perumahan";"MADAK";"GPCQ+2W3, Madak, Kec. Tlk. Waru, Kabupaten Seram Bagian Timur, Maluku";"Kabupaten Seram Bagian Timur, Maluku";"MALUKU";"";"Indonesia";"";"";"";"-3.4799846";"130.7397827";"https://maps.google.com/?cid=0x0:0x62295c41ab510df";""
"mall";"Gudang";"Bumdes Bula Permai";"VFWV+HWV, Bula, Kec. Bula, Kabupaten Seram Bagian Timur, Maluku";"Kabupaten Seram Bagian Timur, Maluku";"MALUKU";"";"Indonesia";"";"";"";"-3.1035157";"130.4948032";"https://maps.google.com/?cid=0x0:0xc3df4bfb95c3390f";""
"supermarket";"supermarket";"Bula";"Bula, Kec. Bula, Kabupaten Seram Bagian Timur, Maluku";"Kabupaten Seram Bagian Timur, Maluku";"MALUKU";"";"Indonesia";"";"";"";"-3.10968";"130.498505";"https://maps.google.com/?cid=0x0:0x20388956c533e2b";""
"supermarket";"Pusat Perbelanjaan";"Winkel Supermarket";"VFXR+3QM, Bula, Kec. Bula, Kabupaten Seram Bagian Timur, Maluku";"Kabupaten Seram Bagian Timur, Maluku";"MALUKU";"";"Indonesia";" 081240251423";"";"";"-3.1022975";"130.4919094";"https://maps.google.com/?cid=0x0:0xcc0933f2fab5253f";""
"supermarket";"Toko Swalayan";"Big mart";"Bula, Kec. Bula, Kabupaten Seram Bagian Timur, Maluku";"Kabupaten Seram Bagian Timur, Maluku";"MALUKU";"";"Indonesia";" 091521496";"";"";"-3.1034642";"130.4927309";"https://maps.google.com/?cid=0x0:0x26acc0ca8f9adb44";""
"supermarket";"Toko Swalayan";"Toko 26";"VFVQ+HVW, Jl. Syaikh Muhammad Al-Khidhir, Bula, Kec. Bula, Kabupaten Seram Bagian Timur, Maluku";"Kabupaten Seram Bagian Timur, Maluku";"MALUKU";"";"Indonesia";" 082238614878";"";"";"-3.1060068";"130.4897147";"https://maps.google.com/?cid=0x0:0x2644056dffea592a";""
"supermarket";"Toko bahan makanan";"TOKO RAMA";"VFXP+Q44, EastJl Bula Rd, EastJl. Wailola, Bula, East Seram, Maluku";"Kabupaten Seram Bagian Timur, Maluku";"MALUKU";"";"Indonesia";"";"";"";"-3.1006123";"130.4853384";"https://maps.google.com/?cid=0x0:0xe60cad3e2dba6dbd";""
"supermarket";"Toko bahan makanan";"Kios GITIFA";"VFWW+4X2, Bula, Kec. Bula, Kabupaten Seram Bagian Timur, Maluku";"Kabupaten Seram Bagian Timur, Maluku";"MALUKU";"";"Indonesia";"";"";"";"-3.1047489";"130.4973862";"https://maps.google.com/?cid=0x0:0x22fc17da6a8b041a";""
"supermarket";"Toko Swalayan";"BIGMART CENTER";"Jl. Wailola, Bula, Kec. Bula, Kabupaten Seram Bagian Timur, Maluku 97555";"Bula, Kec. Bula, Kabupaten Seram Bagian Timur";"MALUKU";"97555";"Indonesia";" 082228202835";"";"";"-3.1020554";"130.4889317";"https://maps.google.com/?cid=0x0:0xeff1b59138728cf4";""
"supermarket";"Toko bahan makanan";"Toko Niar's";"WF69+GMR, Jl. Wailola, Bula, Kec. Bula, Kabupaten Seram Bagian Timur, Maluku";"Kabupaten Seram Bagian Timur, Maluku";"MALUKU";"";"Indonesia";"";"";"";"-3.0886403";"130.469127";"https://maps.google.com/?cid=0x0:0xea09b41d510f6cce";""
"supermarket";"Toko Swalayan";"Toko Puspa Indah";"VFVP+MXV, Bula, Kec. Bula, Kabupaten Seram Bagian Timur, Maluku";"Kabupaten Seram Bagian Timur, Maluku";"MALUKU";"";"Indonesia";"";"";"";"-3.1057622";"130.4874212";"https://maps.google.com/?cid=0x0:0x867d2906062bc2ec";""
"supermarket";"Toko bahan makanan";"Sumber Rasa";"Jln Ampera, Bula, Kec. Bula, Kabupaten Seram Bagian Timur, Maluku 97555";"Bula, Kec. Bula, Kabupaten Seram Bagian Timur";"MALUKU";"97555";"Indonesia";" 081248178405";"";"";"-3.1034473";"130.486328";"https://maps.google.com/?cid=0x0:0x6485f3ad3cd386ab";""
"supermarket";"Toko bahan makanan";"Toko Vina";"WF4G+727, Bula, Kec. Bula, Kabupaten Seram Bagian Timur, Maluku";"Kabupaten Seram Bagian Timur, Maluku";"MALUKU";"";"Indonesia";"";"";"";"-3.094335";"130.475048";"https://maps.google.com/?cid=0x0:0x89402e7f344d5e9f";""
"supermarket";"Pasar";"PASAR BARU";"VFXR+VF4, Bula, Kec. Bula, Kabupaten Seram Bagian Timur, Maluku";"Kabupaten Seram Bagian Timur, Maluku";"MALUKU";"";"Indonesia";"";"";"";"-3.1003649";"130.4912085";"https://maps.google.com/?cid=0x0:0x648d9a92b39cd018";""
"supermarket";"Minimarket";"Amzul Mart";"Jl. Poros KPU, Bula, Kec. Bula, Kabupaten Seram Bagian Timur, Maluku 97554";"Bula, Kec. Bula, Kabupaten Seram Bagian Timur";"MALUKU";"97554";"Indonesia";" 081235438189";"";"";"-3.0879244";"130.4821786";"https://maps.google.com/?cid=0x0:0xc12c2160791aeed4";""
"supermarket";"Toko Swalayan";"Nindy store";"VFRX+4CC, Bula, Kec. Bula, Kabupaten Seram Bagian Timur, Maluku";"Kabupaten Seram Bagian Timur, Maluku";"MALUKU";"";"Indonesia";"";"";"";"-3.10968";"130.498505";"https://maps.google.com/?cid=0x0:0xa82b7e93c164cbd9";""
"supermarket";"Toko";"Toko sinar pagi";"VFWR+523, Bula, Kec. Bula, Kabupaten Seram Bagian Timur, Maluku";"Kabupaten Seram Bagian Timur, Maluku";"MALUKU";"";"Indonesia";" 081240135834";"";"";"-3.1046091";"130.4900473";"https://maps.google.com/?cid=0x0:0xb9964ec4204ef869";""
"supermarket";"Toko";"TOKO HARAPAN UMMI";"WF69+MC8, Jl. Wailola, Bula, Kec. Bula, Kabupaten Seram Bagian Timur, Maluku";"Kabupaten Seram Bagian Timur, Maluku";"MALUKU";"";"Indonesia";" 081343323869";"";"";"-3.0877141";"130.4685085";"https://maps.google.com/?cid=0x0:0xe3ec7f7f322e23d0";""
"supermarket";"Toko bahan makanan";"Toko Rama 2";"WF4G+CCG, Bula, Kec. Bula, Kabupaten Seram Bagian Timur, Maluku";"Kabupaten Seram Bagian Timur, Maluku";"MALUKU";"";"Indonesia";"";"";"";"-3.0939378";"130.476086";"https://maps.google.com/?cid=0x0:0xdc87ebe446188e6a";""
"supermarket";"Toko Swalayan";"Warung BuLas";"Jl. Gg. Burung Dalam No.21, RT.8/RW.2, Pinangsia, Kec. Taman Sari, Kota Jakarta Barat, Daerah Khusus Ibukota Jakarta 11110";"RT.8/RW.2, Pinangsia, Kec. Taman Sari, Kota Jakarta Barat";"MALUKU";"11110";"Indonesia";" 082111210004";"";"";"-6.1379193";"106.8217256";"https://maps.google.com/?cid=0x0:0x37cdf2500705ff2e";""
"supermarket";"Smart shop";"Warung Bu Is";"Warung Mba Is, Jl. Madrasah II No.26 14, RT.14/RW.4, Rw. Buaya, Kecamatan Cengkareng, Kota Jakarta Barat, Daerah Khusus Ibukota Jakarta 11740";"Jl. Madrasah II No.26 14, RT.14/RW.4, Rw. Buaya, Kecamatan Cengkareng, Kota Jakarta Barat";"MALUKU";"11740";"Indonesia";"";"";"";"-6.1698164";"106.7315347";"https://maps.google.com/?cid=0x0:0xe8d27b86770df96f";""
"supermarket";"supermarket";"Bula";"Bula, Kec. Bula, Kabupaten Seram Bagian Timur, Maluku";"Kabupaten Seram Bagian Timur, Maluku";"MALUKU";"";"Indonesia";"";"";"";"-3.10968";"130.498505";"https://maps.google.com/?cid=0x0:0x20388956c533e2b";""
"supermarket";"Pusat Perbelanjaan";"Winkel Supermarket";"VFXR+3QM, Bula, Kec. Bula, Kabupaten Seram Bagian Timur, Maluku";"Kabupaten Seram Bagian Timur, Maluku";"MALUKU";"";"Indonesia";" 081240251423";"";"";"-3.1022975";"130.4919094";"https://maps.google.com/?cid=0x0:0xcc0933f2fab5253f";""
"supermarket";"Toko Swalayan";"Big mart";"Bula, Kec. Bula, Kabupaten Seram Bagian Timur, Maluku";"Kabupaten Seram Bagian Timur, Maluku";"MALUKU";"";"Indonesia";" 091521496";"";"";"-3.1034642";"130.4927309";"https://maps.google.com/?cid=0x0:0x26acc0ca8f9adb44";""
"supermarket";"Toko bahan makanan";"Toko Livarbo";"VFWR+W7J, Bula, Kec. Bula, Kabupaten Seram Bagian Timur, Maluku";"Kabupaten Seram Bagian Timur, Maluku";"MALUKU";"";"Indonesia";" 082199283337";"";"";"-3.1026647";"130.4906303";"https://maps.google.com/?cid=0x0:0x719b36b2665d5b62";""
"supermarket";"Toko Swalayan";"Toko 26";"VFVQ+HVW, Jl. Syaikh Muhammad Al-Khidhir, Bula, Kec. Bula, Kabupaten Seram Bagian Timur, Maluku";"Kabupaten Seram Bagian Timur, Maluku";"MALUKU";"";"Indonesia";" 082238614878";"";"";"-3.1060068";"130.4897147";"https://maps.google.com/?cid=0x0:0x2644056dffea592a";""
"supermarket";"Toko bahan makanan";"Sumber Rasa";"Jln Ampera, Bula, Kec. Bula, Kabupaten Seram Bagian Timur, Maluku 97555";"Bula, Kec. Bula, Kabupaten Seram Bagian Timur";"MALUKU";"97555";"Indonesia";" 081248178405";"";"";"-3.1034473";"130.486328";"https://maps.google.com/?cid=0x0:0x6485f3ad3cd386ab";""
"supermarket";"Toko bahan makanan";"Kios GITIFA";"VFWW+4X2, Bula, Kec. Bula, Kabupaten Seram Bagian Timur, Maluku";"Kabupaten Seram Bagian Timur, Maluku";"MALUKU";"";"Indonesia";"";"";"";"-3.1047489";"130.4973862";"https://maps.google.com/?cid=0x0:0x22fc17da6a8b041a";""
"supermarket";"Toko bahan makanan";"TOKO RAMA";"VFXP+Q44, EastJl Bula Rd, EastJl. Wailola, Bula, East Seram, Maluku";"Kabupaten Seram Bagian Timur, Maluku";"MALUKU";"";"Indonesia";"";"";"";"-3.1006123";"130.4853384";"https://maps.google.com/?cid=0x0:0xe60cad3e2dba6dbd";""
"supermarket";"Pusat Perbelanjaan";"Wailola Shop";"Jalan Bhayangkari, Bula, East Seram, Maluku";"Kabupaten Seram Bagian Timur, Maluku";"MALUKU";"";"Indonesia";" 081331422430";"";"";"-3.106128";"130.495989";"https://maps.google.com/?cid=0x0:0x6c0e86a4807da275";""
"supermarket";"Toko bahan makanan";"Toko Niar's";"WF69+GMR, Jl. Wailola, Bula, Kec. Bula, Kabupaten Seram Bagian Timur, Maluku";"Kabupaten Seram Bagian Timur, Maluku";"MALUKU";"";"Indonesia";"";"";"";"-3.0886403";"130.469127";"https://maps.google.com/?cid=0x0:0xea09b41d510f6cce";""
"supermarket";"Toko Swalayan";"Toko Puspa Indah";"VFVP+MXV, Bula, Kec. Bula, Kabupaten Seram Bagian Timur, Maluku";"Kabupaten Seram Bagian Timur, Maluku";"MALUKU";"";"Indonesia";"";"";"";"-3.1057622";"130.4874212";"https://maps.google.com/?cid=0x0:0x867d2906062bc2ec";""
"supermarket";"Toko bahan makanan";"Toko Vina";"WF4G+727, Bula, Kec. Bula, Kabupaten Seram Bagian Timur, Maluku";"Kabupaten Seram Bagian Timur, Maluku";"MALUKU";"";"Indonesia";"";"";"";"-3.094335";"130.475048";"https://maps.google.com/?cid=0x0:0x89402e7f344d5e9f";""
"supermarket";"Toko Swalayan";"Nindy store";"VFRX+4CC, Bula, Kec. Bula, Kabupaten Seram Bagian Timur, Maluku";"Kabupaten Seram Bagian Timur, Maluku";"MALUKU";"";"Indonesia";"";"";"";"-3.10968";"130.498505";"https://maps.google.com/?cid=0x0:0xa82b7e93c164cbd9";""
"supermarket";"Toko";"Toko sinar pagi";"VFWR+523, Bula, Kec. Bula, Kabupaten Seram Bagian Timur, Maluku";"Kabupaten Seram Bagian Timur, Maluku";"MALUKU";"";"Indonesia";" 081240135834";"";"";"-3.1046091";"130.4900473";"https://maps.google.com/?cid=0x0:0xb9964ec4204ef869";""
"supermarket";"Minimarket";"Amzul Mart";"Jl. Poros KPU, Bula, Kec. Bula, Kabupaten Seram Bagian Timur, Maluku 97554";"Bula, Kec. Bula, Kabupaten Seram Bagian Timur";"MALUKU";"97554";"Indonesia";" 081235438189";"";"";"-3.0879244";"130.4821786";"https://maps.google.com/?cid=0x0:0xc12c2160791aeed4";""
"supermarket";"Toko";"TOKO HARAPAN UMMI";"WF69+MC8, Jl. Wailola, Bula, Kec. Bula, Kabupaten Seram Bagian Timur, Maluku";"Kabupaten Seram Bagian Timur, Maluku";"MALUKU";"";"Indonesia";" 081343323869";"";"";"-3.0877141";"130.4685085";"https://maps.google.com/?cid=0x0:0xe3ec7f7f322e23d0";""
"supermarket";"Toko bahan makanan";"Toko Rama 2";"WF4G+CCG, Bula, Kec. Bula, Kabupaten Seram Bagian Timur, Maluku";"Kabupaten Seram Bagian Timur, Maluku";"MALUKU";"";"Indonesia";"";"";"";"-3.0939378";"130.476086";"https://maps.google.com/?cid=0x0:0xdc87ebe446188e6a";""
"supermarket";"Toko bahan makanan";"Toko Bandung";"Trans Seram, Bula, Kec. Bula, Kabupaten Seram Bagian Timur, Maluku";"Kabupaten Seram Bagian Timur, Maluku";"MALUKU";"";"Indonesia";"";"";"";"-3.0827502";"130.464456";"https://maps.google.com/?cid=0x0:0xfa85a2f8cdb25e3e";""
"supermarket";"Toko Swalayan";"Warung BuLas";"Jl. Gg. Burung Dalam No.21, RT.8/RW.2, Pinangsia, Kec. Taman Sari, Kota Jakarta Barat, Daerah Khusus Ibukota Jakarta 11110";"RT.8/RW.2, Pinangsia, Kec. Taman Sari, Kota Jakarta Barat";"MALUKU";"11110";"Indonesia";" 082111210004";"";"";"-6.1379193";"106.8217256";"https://maps.google.com/?cid=0x0:0x37cdf2500705ff2e";""
"supermarket";"Smart shop";"Warung Bu Is";"Warung Mba Is, Jl. Madrasah II No.26 14, RT.14/RW.4, Rw. Buaya, Kecamatan Cengkareng, Kota Jakarta Barat, Daerah Khusus Ibukota Jakarta 11740";"Jl. Madrasah II No.26 14, RT.14/RW.4, Rw. Buaya, Kecamatan Cengkareng, Kota Jakarta Barat";"MALUKU";"11740";"Indonesia";"";"";"";"-6.1698164";"106.7315347";"https://maps.google.com/?cid=0x0:0xe8d27b86770df96f";""
"supermarket";"supermarket";"Kec. Seram Tim.";"Kabupaten Seram Bagian Timur, Maluku";"Kabupaten Seram Bagian Timur, Maluku";"MALUKU";"";"Indonesia";"";"";"";"-3.8324657";"130.8204099";"https://maps.google.com/?cid=0x0:0x70947c7ca6669763";""
"supermarket";"Toko";"Toko Marsya";"4WC2+FH2, Geser, Kec. Seram Tim., Kabupaten Seram Bagian Timur, Maluku";"Kabupaten Seram Bagian Timur, Maluku";"MALUKU";"";"Indonesia";"";"";"";"-3.8788965";"130.901243";"https://maps.google.com/?cid=0x0:0x31635ae0815a286a";""
"supermarket";"Pusat Perbelanjaan";"Winkel Supermarket";"VFXR+3QM, Bula, Kec. Bula, Kabupaten Seram Bagian Timur, Maluku";"Kabupaten Seram Bagian Timur, Maluku";"MALUKU";"";"Indonesia";" 081240251423";"";"";"-3.1022975";"130.4919094";"https://maps.google.com/?cid=0x0:0xcc0933f2fab5253f";""
"supermarket";"Pusat Perbelanjaan";"Fajar Mart";"W5MV+PFF, Piru, Kec. Seram Bar., Kabupaten Seram Bagian Barat, Maluku";"Kabupaten Seram Bagian Barat, Maluku";"MALUKU";"";"Indonesia";"";"";"";"-3.0656914";"128.1936727";"https://maps.google.com/?cid=0x0:0x40a2277adf2e3d56";""
"supermarket";"Toko umum";"Kios Keisha";"8Q7P+VP7, Kiandarat, Kian Darat, Kabupaten Seram Bagian Timur, Maluku";"Kabupaten Seram Bagian Timur, Maluku";"MALUKU";"";"Indonesia";" 085392168224";"";"";"-3.6853452";"130.7867889";"https://maps.google.com/?cid=0x0:0x37d2a72921fb100";""
"supermarket";"supermarket";"Toko Sumber Jaya Baru";"4WC2+FH2, Geser, Kec. Seram Tim., Kabupaten Seram Bagian Timur, Maluku";"Kabupaten Seram Bagian Timur, Maluku";"MALUKU";"";"Indonesia";"";"";"";"-3.8788701";"130.9013757";"https://maps.google.com/?cid=0x0:0xb22ded71e91f8098";""
"supermarket";"supermarket";"Kilfura Village. SBT. Maluku";"4W46+G65, Kellu, Kec. Seram Tim., Kabupaten Seram Bagian Timur, Maluku";"Kabupaten Seram Bagian Timur, Maluku";"MALUKU";"";"Indonesia";"";"";"";"-3.893744";"130.910603";"https://maps.google.com/?cid=0x0:0xf05439609fbb2740";""
"supermarket";"supermarket";"Mini Market Naga Timur";"JM36+2C6, Belis, Bula, Kabupaten Seram Bagian Timur, Maluku";"Kabupaten Seram Bagian Timur, Maluku";"MALUKU";"";"Indonesia";"";"";"";"-3.397451";"130.661017";"https://maps.google.com/?cid=0x0:0x732f1cdd6a7bca85";""
"supermarket";"Toko Swalayan";"The Gourmet by Ranch Market";"ASHTA Lantai Dasar Unit LG-01, Jl. Senopati No.Raya, RT.8/RW.3, Senayan, Kec. Kby. Baru, Kota Jakarta Selatan, Daerah Khusus Ibukota Jakarta 12190";"Jl. Senopati No.Raya, RT.8/RW.3, Senayan, Kec. Kby. Baru, Kota Jakarta Selatan";"MALUKU";"12190";"Indonesia";" 081282091909";"";"";"-6.2292324";"106.8067785";"https://maps.google.com/?cid=0x0:0x32d5081bb2c4af19";""
"supermarket";"Toko Swalayan";"Naga Swalayan Pondok Gede";"Plaza Pd. Gede, Jl. Raya Pd. Gede Lt.1, RT.001/RW.001, Jatiwaringin, Kec. Pd. Gede, Kota Bks, Jawa Barat 17411";"Jl. Raya Pd. Gede Lt.1, RT.001/RW.001, Jatiwaringin, Kec. Pd. Gede, Kota Bks";"MALUKU";"17411";"Indonesia";" 0218465909";"";"";"-6.2849924";"106.9118489";"https://maps.google.com/?cid=0x0:0x3e6be2f7672cf373";""
"supermarket";"Toko Swalayan";"GS THE FRESH JATIBENING";"Jl. Caman Raya No.7-24, RT.004/RW.003, Jatibening, Kec. Pd. Gede, Kota Bks, Jawa Barat 17412";"RT.004/RW.003, Jatibening, Kec. Pd. Gede, Kota Bks";"MALUKU";"17412";"Indonesia";" 02184982211";"";"";"-6.2676455";"106.9436409";"https://maps.google.com/?cid=0x0:0x2cdb50c3ee3206c";""
"supermarket";"Pasar";"Santa Swalayan";"Jl. Wolter Monginsidi No.82 2, RT.2/RW.4, Petogogan, Kec. Kby. Baru, Kota Jakarta Selatan, Daerah Khusus Ibukota Jakarta 12170";"RT.2/RW.4, Petogogan, Kec. Kby. Baru, Kota Jakarta Selatan";"MALUKU";"12170";"Indonesia";" 0217222006";"";"";"-6.239018";"106.8124009";"https://maps.google.com/?cid=0x0:0xb4cafd99972d232f";""
"supermarket";"Toko Swalayan";"GS The Fresh Mampang";"Jl. Buncit Raya No.301, Duren Tiga, Kec. Pancoran, Kota Jakarta Selatan, Daerah Khusus Ibukota Jakarta 12760";"Duren Tiga, Kec. Pancoran, Kota Jakarta Selatan";"MALUKU";"12760";"Indonesia";" 02126961986";"";"";"-6.256991";"106.828987";"https://maps.google.com/?cid=0x0:0x47a84d3b86619147";""
"supermarket";"Toko Swalayan";"Aneka Buana Supermarket - Pondok Labu";"Jl. RS. Fatmawati Raya No.15, RT.2/RW.1, Pd. Labu, Kec. Cilandak, Kota Jakarta Selatan, Daerah Khusus Ibukota Jakarta 12450";"RT.2/RW.1, Pd. Labu, Kec. Cilandak, Kota Jakarta Selatan";"MALUKU";"12450";"Indonesia";" 0217692010";"";"";"-6.3093895";"106.7939361";"https://maps.google.com/?cid=0x0:0x3f7935d87cf91289";""
"supermarket";"supermarket";"Werinama";"Kabupaten Seram Bagian Timur, Maluku";"Kabupaten Seram Bagian Timur, Maluku";"MALUKU";"";"Indonesia";"";"";"";"-3.4233267";"130.2271243";"https://maps.google.com/?cid=0x0:0x5d34ed8352394a25";""
"supermarket";"Pusat Perbelanjaan";"Toko Arab";"JXP6+JXW, Atiahu, Werinama, Kabupaten Seram Bagian Timur, Maluku";"Kabupaten Seram Bagian Timur, Maluku";"MALUKU";"";"Indonesia";" 085210951429";"";"";"-3.3633853";"129.9624655";"https://maps.google.com/?cid=0x0:0xd7c9686aa6b9a73c";""
"supermarket";"Pusat Perbelanjaan";"Winkel Supermarket";"VFXR+3QM, Bula, Kec. Bula, Kabupaten Seram Bagian Timur, Maluku";"Kabupaten Seram Bagian Timur, Maluku";"MALUKU";"";"Indonesia";" 081240251423";"";"";"-3.1022975";"130.4919094";"https://maps.google.com/?cid=0x0:0xcc0933f2fab5253f";""
"supermarket";"Toko Swalayan";"Toko Usaha Baru";"Atiahu, Werinama, Kabupaten Seram Bagian Timur, Maluku";"Kabupaten Seram Bagian Timur, Maluku";"MALUKU";"";"Indonesia";" 081343235656";"";"";"-3.3649354";"129.963071";"https://maps.google.com/?cid=0x0:0xfce1f9a32991b08d";""
"supermarket";"Minimarket";"GOTA Supermarket";"8PXR+5C6, Kel. Ohoijang Watdek, Kec. Kei Kecil, Kabupaten Maluku Tenggara, Maluku";"Kabupaten Maluku Tenggara, Maluku";"MALUKU";"";"Indonesia";"";"";"";"-5.652084";"132.7410211";"https://maps.google.com/?cid=0x0:0xcce642eed6fb72d5";""
"supermarket";"Toko Swalayan";"Gota";"8PRJ+PR3, Langgur, Kec. Kei Kecil, Kabupaten Maluku Tenggara, Maluku";"Kabupaten Maluku Tenggara, Maluku";"MALUKU";"";"Indonesia";"";"";"";"-5.6582473";"132.7320445";"https://maps.google.com/?cid=0x0:0xc119859c70743b7c";""
"supermarket";"Toko Perlengkapan Rumah";"Kios Pargo";"295H+W7X, Ondor, Kec. Pulau Gorom, Kabupaten Seram Bagian Timur, Maluku";"Kabupaten Seram Bagian Timur, Maluku";"MALUKU";"";"Indonesia";" 081344978908";"";"";"-3.9901303";"131.3782257";"https://maps.google.com/?cid=0x0:0x724ee7ddb39715bf";""
"supermarket";"Komplek perumahan";"samboru eri";"296H+3H, Ondor, Kec. Pulau Gorom, Kabupaten Seram Bagian Timur, Maluku";"Kabupaten Seram Bagian Timur, Maluku";"MALUKU";"";"Indonesia";"";"";"";"-3.9898395";"131.3789893";"https://maps.google.com/?cid=0x0:0xe75e09eab631818d";""
"supermarket";"supermarket";"Pulau Gorong";"Kabupaten Seram Bagian Timur, Maluku";"Kabupaten Seram Bagian Timur, Maluku";"MALUKU";"";"Indonesia";"";"";"";"-4.011202";"131.4112125";"https://maps.google.com/?cid=0x0:0x3b60b40247d61e16";""
"supermarket";"Kios";"Kios Wahyu Rmkt";"295H+58J, Samboru, Kec. Pulau Gorom, Kabupaten Seram Bagian Timur, Maluku";"Kabupaten Seram Bagian Timur, Maluku";"MALUKU";"";"Indonesia";" 082165991168";"";"";"-3.991195";"131.3781293";"https://maps.google.com/?cid=0x0:0x6d587b3f6f382395";""
"supermarket";"supermarket";"Kios Lahasani";"294H+HX6, Ondor, Kec. Pulau Gorom, Kabupaten Seram Bagian Timur, Maluku";"Kabupaten Seram Bagian Timur, Maluku";"MALUKU";"";"Indonesia";"";"";"";"-3.9935774";"131.3798838";"https://maps.google.com/?cid=0x0:0xc2b55a3b0eac7335";""
"supermarket";"supermarket";"Kios Damai Usun";"2CCF+WQW, Kec. Gorom Timur, Kabupaten Seram Bagian Timur, Maluku";"Kabupaten Seram Bagian Timur, Maluku";"MALUKU";"";"Indonesia";"";"";"";"-3.9776415";"131.4244561";"https://maps.google.com/?cid=0x0:0x46ee11ea97bd8422";""
"supermarket";"supermarket";"Kios RDJ";"294H+F9Q, Jl jou besi, desa kataloka, Kec. Pulau Gorom, Kabupaten Seram Bagian Timur, Maluku";"Kabupaten Seram Bagian Timur, Maluku";"MALUKU";"";"Indonesia";"";"";"";"-3.9937895";"131.3784951";"https://maps.google.com/?cid=0x0:0xec7ea738ad0a5c94";""
"supermarket";"supermarket";"Kec. Wakate";"Kabupaten Seram Bagian Timur, Maluku";"Kabupaten Seram Bagian Timur, Maluku";"MALUKU";"";"Indonesia";"";"";"";"-4.5139238";"131.6542349";"https://maps.google.com/?cid=0x0:0x5b89d23106f26061";""
"supermarket";"supermarket";"Kios 3 putri";"JH9J+RXG, Ilili, Kec. Wakate, Kabupaten Seram Bagian Timur, Maluku";"Kabupaten Seram Bagian Timur, Maluku";"MALUKU";"";"Indonesia";"";"";"";"-4.3804457";"131.5824635";"https://maps.google.com/?cid=0x0:0x5f5605250809d459";""
"supermarket";"supermarket";"Toko Unyil";"HJC8+FC9, Utta, Kec. Wakate, Kabupaten Seram Bagian Timur, Maluku";"Kabupaten Seram Bagian Timur, Maluku";"MALUKU";"";"Indonesia";"";"";"";"-4.42883";"131.6161036";"https://maps.google.com/?cid=0x0:0x817a9ae2ab94ee9b";""
"supermarket";"Toko Daging Premium";"Wadaku";"Pergudangan alam sutera t8 No.26, Pakulonan, Kec. Serpong Utara, Kota Tangerang Selatan, Banten 15325";"Pakulonan, Kec. Serpong Utara, Kota Tangerang Selatan";"MALUKU";"15325";"Indonesia";"";"";"";"-6.2384551";"106.6491895";"https://maps.google.com/?cid=0x0:0x9573ccfbcb8bd2e8";""
"supermarket";"Rumah wisata";"Pie Susu Jumbo Kita Kenyang";"Depan Alfamart, Jl. Raya Condet No.321B 2, RT.2/RW.3, Balekambang, Kec. Kramat jati, Kota Jakarta Timur, Daerah Khusus Ibukota Jakarta 13530";"Jl. Raya Condet No.321B 2, RT.2/RW.3, Balekambang, Kec. Kramat jati, Kota Jakarta Timur";"MALUKU";"13530";"Indonesia";" 081213573537";"";"";"-6.2851606";"106.8552264";"https://maps.google.com/?cid=0x0:0x6daa29e144ad295f";""
"supermarket";"Sarapan";"Warkop sederhana";"Jl. Ancol Selatan No.12B, RT.001/RW01, Sunter Agung, Kec. Tj. Priok, Jkt Utara, Daerah Khusus Ibukota Jakarta 14350";"RT.001/RW01, Sunter Agung, Kec. Tj. Priok, Jkt Utara";"MALUKU";"14350";"Indonesia";"";"";"";"-6.1277489";"106.8517346";"https://maps.google.com/?cid=0x0:0x1c45d60a4fd52270";""
"supermarket";"supermarket";"Kec. Tutuk Tolu";"Kabupaten Seram Bagian Timur, Maluku";"Kabupaten Seram Bagian Timur, Maluku";"MALUKU";"";"Indonesia";"";"";"";"-3.5511893";"130.8594177";"https://maps.google.com/?cid=0x0:0x66cd00a169ac09c7";""
"supermarket";"Minimarket";"GOTA Supermarket";"8PXR+5C6, Kel. Ohoijang Watdek, Kec. Kei Kecil, Kabupaten Maluku Tenggara, Maluku";"Kabupaten Maluku Tenggara, Maluku";"MALUKU";"";"Indonesia";"";"";"";"-5.652084";"132.7410211";"https://maps.google.com/?cid=0x0:0xcce642eed6fb72d5";""
"supermarket";"Toko umum";"Kios Keisha";"8Q7P+VP7, Kiandarat, Kian Darat, Kabupaten Seram Bagian Timur, Maluku";"Kabupaten Seram Bagian Timur, Maluku";"MALUKU";"";"Indonesia";" 085392168224";"";"";"-3.6853452";"130.7867889";"https://maps.google.com/?cid=0x0:0x37d2a72921fb100";""
"supermarket";"supermarket";"Mini Market Naga Timur";"JM36+2C6, Belis, Bula, Kabupaten Seram Bagian Timur, Maluku";"Kabupaten Seram Bagian Timur, Maluku";"MALUKU";"";"Indonesia";"";"";"";"-3.397451";"130.661017";"https://maps.google.com/?cid=0x0:0x732f1cdd6a7bca85";""
"supermarket";"Toko bahan makanan";"Rumah Nia dan sarmi";"8RVJ+CRG, Kiandarat, Kian Darat, Kabupaten Seram Bagian Timur, Maluku";"Kabupaten Seram Bagian Timur, Maluku";"MALUKU";"";"Indonesia";"";"";"";"-3.655222";"130.8323612";"https://maps.google.com/?cid=0x0:0x5022e8062e5607fc";""
"supermarket";"supermarket";"Maluku";"";"Maluku";"MALUKU";"";"Indonesia";"";"";"";"-3.2384616";"130.1452734";"https://maps.google.com/?cid=0x0:0x5e30e8db04649a51";""
"supermarket";"Pusat Perbelanjaan";"Winkel Supermarket";"VFXR+3QM, Bula, Kec. Bula, Kabupaten Seram Bagian Timur, Maluku";"Kabupaten Seram Bagian Timur, Maluku";"MALUKU";"";"Indonesia";" 081240251423";"";"";"-3.1022975";"130.4919094";"https://maps.google.com/?cid=0x0:0xcc0933f2fab5253f";""
"supermarket";"Toko Swalayan";"TOKO SURYA BARU";"XWJR+6G6, Wailoping, Kec. Seram Utara Tim. Seti, Kabupaten Maluku Tengah, Maluku";"Kabupaten Maluku Tengah, Maluku";"MALUKU";"";"Indonesia";" 081234928881";"";"";"-3.0194538";"129.9412622";"https://maps.google.com/?cid=0x0:0xaf2e6172c5dac737";""
"supermarket";"Pusat Perbelanjaan";"Fajar Mart";"W5MV+PFF, Piru, Kec. Seram Bar., Kabupaten Seram Bagian Barat, Maluku";"Kabupaten Seram Bagian Barat, Maluku";"MALUKU";"";"Indonesia";"";"";"";"-3.0656914";"128.1936727";"https://maps.google.com/?cid=0x0:0x40a2277adf2e3d56";""
"supermarket";"Pusat Perbelanjaan";"Toko Sinar Manis";"W5MV+RM2, Piru, Kec. Seram Bar., Kabupaten Seram Bagian Barat, Maluku";"Kabupaten Seram Bagian Barat, Maluku";"MALUKU";"";"Indonesia";"";"";"";"-3.0654936";"128.1941501";"https://maps.google.com/?cid=0x0:0x34f0f4ffa1d52afa";""
"supermarket";"Toko umum";"Kios Lila";"Jl. Kota raja No.Blok B, Luhu, Kec. Huamual Belakang, Kabupaten Seram Bagian Barat, Maluku";"Kabupaten Seram Bagian Barat, Maluku";"MALUKU";"";"Indonesia";" 082198695633";"";"";"-3.3886236";"127.9813628";"https://maps.google.com/?cid=0x0:0x2488d0ff56a2aedc";""
"supermarket";"Toko bahan makanan";"Pasar Waesala";"VW3C+VQF, Jl. Syaikh Khidhir Al-Mulkiy, Waesala, Kec. Huamual Belakang, Kabupaten Seram Bagian Barat, Maluku";"Kabupaten Seram Bagian Barat, Maluku";"MALUKU";"";"Indonesia";" 081343270030";"";"";"-3.1453243";"127.9219299";"https://maps.google.com/?cid=0x0:0xc4a33c95f4376a3f";""
"supermarket";"Toko Swalayan";"Toko istiqomah";"M983+C3G, Jl. Trans Seram, Waimital, Kec. Kairatu, Kabupaten Seram Bagian Barat, Maluku";"Kabupaten Seram Bagian Barat, Maluku";"MALUKU";"";"Indonesia";" 082197970083";"";"";"-3.3339433";"128.352715";"https://maps.google.com/?cid=0x0:0x63ad95867c1f8c68";""
"supermarket";"Toko Swalayan";"Winkel Supermarket";"96FG+323, Waiheru, Kec. Baguala, Kota Ambon, Maluku";"Kota Ambon, Maluku";"MALUKU";"";"Indonesia";" 09113869351";"";"";"-3.6273656";"128.2250609";"https://maps.google.com/?cid=0x0:0xec37cd1cfdfa6412";""
"supermarket";"Pusat Perbelanjaan";"Hypermart Maluku City Mall";"Jalan Jend. Sudirman, Hative Kecil, Kec. Sirimau, Kota Ambon, Maluku";"Kota Ambon, Maluku";"MALUKU";"";"Indonesia";" 0911319999";"";"";"-3.6702679";"128.1981163";"https://maps.google.com/?cid=0x0:0xf361af34b2474744";""
"supermarket";"Toko bahan makanan";"Sumber Rasa";"Jln Ampera, Bula, Kec. Bula, Kabupaten Seram Bagian Timur, Maluku 97555";"Bula, Kec. Bula, Kabupaten Seram Bagian Timur";"MALUKU";"97555";"Indonesia";" 081248178405";"";"";"-3.1034473";"130.486328";"https://maps.google.com/?cid=0x0:0x6485f3ad3cd386ab";""
"supermarket";"Toko Swalayan";"Toko sindy";"XX7H+FFF, Waitila, Kec. Seram Utara Tim. Seti, Kabupaten Maluku Tengah, Maluku";"Kabupaten Maluku Tengah, Maluku";"MALUKU";"";"Indonesia";"";"";"";"-3.0363151";"129.978668";"https://maps.google.com/?cid=0x0:0xad5312dbe60f0903";""
"supermarket";"Toko";"Toko Indah lestari WAIHATU";"P86G+M4M, Unnamed Road, Waihatu, Kec. Kairatu Bar., Kabupaten Seram Bagian Barat, Maluku";"Kabupaten Seram Bagian Barat, Maluku";"MALUKU";"";"Indonesia";" 082248040163";"";"";"-3.2882868";"128.3253115";"https://maps.google.com/?cid=0x0:0x8b7b9361ba6d631e";""
"supermarket";"Hipermarket";"Hypermart Ambon City Center";"Desa, Passo, Kec. Baguala, Kota Ambon, Maluku";"Kota Ambon, Maluku";"MALUKU";"";"Indonesia";" 0911361739";"";"";"-3.6316235";"128.2496246";"https://maps.google.com/?cid=0x0:0xa5054eb80169380e";""
"supermarket";"Minimarket";"UD.TITASOMI";"Sugiarto, Sebelum naik tanjakan lorong cinta, Jl. Trans Seram, RT./RW/RW.15, Namaelo, Kec. Kota Masohi, Kabupaten Maluku Tengah, Maluku 97511";"Sebelum naik tanjakan lorong cinta, Jl. Trans Seram, RT./RW/RW.15, Namaelo, Kec. Kota Masohi, Kabupaten Maluku Tengah";"MALUKU";"97511";"Indonesia";" 081240243835";"";"";"-3.3039163";"128.9672413";"https://maps.google.com/?cid=0x0:0xd593ba38119675ef";""
"supermarket";"Toko bahan makanan";"Toko Niar's";"WF69+GMR, Jl. Wailola, Bula, Kec. Bula, Kabupaten Seram Bagian Timur, Maluku";"Kabupaten Seram Bagian Timur, Maluku";"MALUKU";"";"Indonesia";"";"";"";"-3.0886403";"130.469127";"https://maps.google.com/?cid=0x0:0xea09b41d510f6cce";""
"supermarket";"Toko bahan makanan";"Kios mbak sri";"XVXG+VP, Marasahua, Kec. Seram Utara Tim. Kobi, Kabupaten Maluku Tengah, Maluku";"Kabupaten Maluku Tengah, Maluku";"MALUKU";"";"Indonesia";"";"";"";"-3.0002496";"129.8767747";"https://maps.google.com/?cid=0x0:0xfadb9fe14167fd35";""
"supermarket";"Toko Swalayan";"GS THE FRESH JATIBENING";"Jl. Caman Raya No.7-24, RT.004/RW.003, Jatibening, Kec. Pd. Gede, Kota Bks, Jawa Barat 17412";"RT.004/RW.003, Jatibening, Kec. Pd. Gede, Kota Bks";"MALUKU";"17412";"Indonesia";" 02184982211";"";"";"-6.2676455";"106.9436409";"https://maps.google.com/?cid=0x0:0x2cdb50c3ee3206c";""
"supermarket";"Toko Swalayan";"GS The Fresh Mampang";"Jl. Buncit Raya No.301, Duren Tiga, Kec. Pancoran, Kota Jakarta Selatan, Daerah Khusus Ibukota Jakarta 12760";"Duren Tiga, Kec. Pancoran, Kota Jakarta Selatan";"MALUKU";"12760";"Indonesia";" 02126961986";"";"";"-6.256991";"106.828987";"https://maps.google.com/?cid=0x0:0x47a84d3b86619147";""
"supermarket";"Toko Swalayan";"GS Supermarket Jatiasih";"GsSupermarket :, Jl. Wibawa Mukti II No.125, RT.002/ RW017/RW.017, Jatiasih, Kec. Jatiasih, Kota Bks, Jawa Barat 17423";"Jl. Wibawa Mukti II No.125, RT.002/ RW017/RW.017, Jatiasih, Kec. Jatiasih, Kota Bks";"MALUKU";"17423";"Indonesia";" 02182736918";"";"";"-6.3070579";"106.955731";"https://maps.google.com/?cid=0x0:0x74efd6ce433268e6";""
"supermarket";"Toko Swalayan";"GS The Fresh Supermarket Kemang Pratama";"Linc Square Kemang Pratama, Jl. Kemang Pratama Raya, RT.004/RW.001, Bojong Rawalumbu, Kec. Rawalumbu, Kota Bks, Jawa Barat 17116";"Jl. Kemang Pratama Raya, RT.004/RW.001, Bojong Rawalumbu, Kec. Rawalumbu, Kota Bks";"MALUKU";"17116";"Indonesia";" 02182416910";"";"";"-6.2779418";"106.9910558";"https://maps.google.com/?cid=0x0:0x4ce692f4b9ef21ee";""
"supermarket";"Pusat Perbelanjaan";"GS The Fresh BOXIES";"Jl. Raya Tajur No.125, RT.01/RW.06, Tajur, Kec. Bogor Tim., Kota Bogor, Jawa Barat 16141";"RT.01/RW.06, Tajur, Kec. Bogor Tim., Kota Bogor";"MALUKU";"16141";"Indonesia";"";"";"";"-6.6338534";"106.8265902";"https://maps.google.com/?cid=0x0:0xf2e999dd0f1bdf6";""
"supermarket";"supermarket";"Warda Kilmury";"Kilmury, Kec. Seram Tim., Kabupaten Seram Bagian Timur, Maluku";"Kabupaten Seram Bagian Timur, Maluku";"MALUKU";"";"Indonesia";" 082268561706";"";"";"-3.6930171";"130.4746853";"https://maps.google.com/?cid=0x0:0x391412a372cfc87e";""
"supermarket";"Toko Swalayan";"The Gourmet by Ranch Market";"ASHTA Lantai Dasar Unit LG-01, Jl. Senopati No.Raya, RT.8/RW.3, Senayan, Kec. Kby. Baru, Kota Jakarta Selatan, Daerah Khusus Ibukota Jakarta 12190";"Jl. Senopati No.Raya, RT.8/RW.3, Senayan, Kec. Kby. Baru, Kota Jakarta Selatan";"MALUKU";"12190";"Indonesia";" 081282091909";"";"";"-6.2292324";"106.8067785";"https://maps.google.com/?cid=0x0:0x32d5081bb2c4af19";""
"supermarket";"Toko Swalayan";"GrandLucky - SCBD";"Kawasan Niaga Terpadu Sudirman (SCBD, Jl. Jenderal Sudirman LOT-12, Senayan, Kec. Kby. Baru, Kota Jakarta Selatan, Daerah Khusus Ibukota Jakarta 12190";"Jl. Jenderal Sudirman LOT-12, Senayan, Kec. Kby. Baru, Kota Jakarta Selatan";"MALUKU";"12190";"Indonesia";" 0215153832";"";"";"-6.22691";"106.8059153";"https://maps.google.com/?cid=0x0:0x4efcd0d8d64cad53";""
"supermarket";"Toko Kelontong Korea";"Mu Gung Hwa Supermarket - Senopati";"Jl. Senayan No.43, RT.8/RW.5, Rw. Bar., Kec. Kby. Baru, Kota Jakarta Selatan, Daerah Khusus Ibukota Jakarta 12180";"RT.8/RW.5, Rw. Bar., Kec. Kby. Baru, Kota Jakarta Selatan";"MALUKU";"12180";"Indonesia";" 0217222214";"";"";"-6.2353938";"106.8158782";"https://maps.google.com/?cid=0x0:0x9ffba79e59c537d5";""
"supermarket";"Toko bahan makanan";"Mu Gung Hwa Supermarket - Cikarang";"Ruko Galaria Singaraja Blok C1-3, Jl. M.H Thamrin, Lippo Cikarang, Cibatu, Cikarang Sel., Kabupaten Bekasi, Jawa Barat 17530";"Jl. M.H Thamrin, Lippo Cikarang, Cibatu, Cikarang Sel., Kabupaten Bekasi";"MALUKU";"17530";"Indonesia";" 0218973330";"";"";"-6.3313655";"107.1404415";"https://maps.google.com/?cid=0x0:0x737ae730ac14113f";""
"supermarket";"Pembangunan Perumahan";"Happy Harvest Summarecon Mall Bandung";"Summarecon Bandung, Jl. Grand Bulevar No.1, Cisaranten Kidul, Kec. Gedebage, Kota Bandung, Jawa Barat 42294";"Jl. Grand Bulevar No.1, Cisaranten Kidul, Kec. Gedebage, Kota Bandung";"MALUKU";"42294";"Indonesia";" 087838983889";"";"";"-6.9544867";"107.6986639";"https://maps.google.com/?cid=0x0:0x212b94425606a2f6";""
"supermarket";"Toserba";"STAR Department Store - Summarecon Mall Bekasi";"Sumarecon Mal Bks, Summarecon Mall Bekasi, Jl. Bulevar Ahmad Yani, RT.006/RW.002, Marga Mulya, Kec. Bekasi Utara, Kota Bks, Jawa Barat 17142";"Summarecon Mall Bekasi, Jl. Bulevar Ahmad Yani, RT.006/RW.002, Marga Mulya, Kec. Bekasi Utara, Kota Bks";"MALUKU";"17142";"Indonesia";" 02129572388";"";"";"-6.2257825";"107.0016338";"https://maps.google.com/?cid=0x0:0x6534b7f6e7d74422";""
"supermarket";"Toserba";"Rambla Super Departement Store";"Jl. Boulevard Raya No.19, RT.13/RW.18, Klp. Gading Tim., Kec. Klp. Gading, Jkt Utara, Daerah Khusus Ibukota Jakarta 14240";"RT.13/RW.18, Klp. Gading Tim., Kec. Klp. Gading, Jkt Utara";"MALUKU";"14240";"Indonesia";" 081908192582";"";"";"-6.158576";"106.907394";"https://maps.google.com/?cid=0x0:0x9bc0c4ec24d3878f";""
"supermarket";"Toko Swalayan";"Winkel Supermarket";"96FG+323, Waiheru, Kec. Baguala, Kota Ambon, Maluku";"Kota Ambon, Maluku";"MALUKU";"";"Indonesia";" 09113869351";"";"";"-3.6273656";"128.2250609";"https://maps.google.com/?cid=0x0:0xec37cd1cfdfa6412";""
"supermarket";"Toko";"Winkel Xpress";"9792+JWJ, Passo, Kec. Baguala, Kota Ambon, Maluku";"Kota Ambon, Maluku";"MALUKU";"";"Indonesia";"";"";"";"-3.6309238";"128.2522702";"https://maps.google.com/?cid=0x0:0xecc0d241b9b11ca4";""
"supermarket";"Toko bahan makanan";"Warung Sembako HS";"34CW+22H, Kp Jl. Kebalen, Pulo Panjang, Kec. Puloampel, Kabupaten Serang, Banten 42191";"Kp Jl. Kebalen, Pulo Panjang, Kec. Puloampel, Kabupaten Serang";"MALUKU";"42191";"Indonesia";"";"";"";"-5.929928";"106.145112";"https://maps.google.com/?cid=0x0:0x733c210b7ef7b5a2";""
"supermarket";"Toko bahan makanan";"Warung Adia";"Jl. Pintu Air, Gerem, Kec. Gerogol, Kota Cilegon, Banten 42438";"Gerem, Kec. Gerogol, Kota Cilegon";"MALUKU";"42438";"Indonesia";" 081911180182";"";"";"-5.9569929";"106.0342509";"https://maps.google.com/?cid=0x0:0x782487c95dab1c22";""
"supermarket";"Minimarket";"ALFAMIDI BUKIT PALEM";"Jl. Bukit Palem, Kotabumi, Kec. Purwakarta, Kota Cilegon, Banten 42434";"Kotabumi, Kec. Purwakarta, Kota Cilegon";"MALUKU";"42434";"Indonesia";"";"";"";"-5.9852364";"106.0369441";"https://maps.google.com/?cid=0x0:0x36ce0c296ab93112";""
"supermarket";"Pusat Perbelanjaan";"WARUNG FAIZUL";"link, Jl. H. Leman Pintu Air talang, RT.01/RW.08, Gerem, Kec. Gerogol, Kota Cilegon, Banten 42438";"Jl. H. Leman Pintu Air talang, RT.01/RW.08, Gerem, Kec. Gerogol, Kota Cilegon";"MALUKU";"42438";"Indonesia";" 083188000684";"";"";"-5.9570484";"106.0336129";"https://maps.google.com/?cid=0x0:0xbfb55d4feb5e942f";""
"supermarket";"Toko Swalayan";"SuperIndo Cilegon";"Supermall, Jl. Jenderal Sudirman Jl. Simpang Tiga, Ramanuju, Cilegon, Banten 42411";"Jl. Jenderal Sudirman Jl. Simpang Tiga, Ramanuju, Cilegon";"MALUKU";"42411";"Indonesia";" 0254377097";"";"";"-6.014553";"106.0458452";"https://maps.google.com/?cid=0x0:0x347542dc362be6e4";""
"supermarket";"Toko";"Tamam cell";"Jl. Ciare Wista No.115, RT.7/RW.2, Grogol, Kec. Gerogol, Kota Cilegon, Banten 42436";"RT.7/RW.2, Grogol, Kec. Gerogol, Kota Cilegon";"MALUKU";"42436";"Indonesia";"";"";"";"-5.9785091";"106.0296649";"https://maps.google.com/?cid=0x0:0xd7060c5afc9afacc";""
"supermarket";"Toko bahan makanan";"Shop Satmarindo";"436F+4X3, Jalan, Sumuranja, Puloampel, Serang Regency, Banten 42455";"Jalan, Sumuranja, Puloampel, Serang Regency";"MALUKU";"42455";"Indonesia";"";"";"";"-5.8897348";"106.0749215";"https://maps.google.com/?cid=0x0:0x7ba8f85924c7b878";""
"supermarket";"";"Warung sumber banyu manis";"Jl. Nn No.149, RT.7/RW.2, Masigit, Kec. Jombang, Kota Cilegon, Banten 42414";"RT.7/RW.2, Masigit, Kec. Jombang, Kota Cilegon";"MALUKU";"42414";"Indonesia";"";"";"";"-6.0174781";"106.0491884";"https://maps.google.com/?cid=0x0:0x8a13906ebd0dac9e";""
"supermarket";"Toko Swalayan";"Indomaret Bojonegara 3";"237Q+MJP, Karangkepuh, Kec. Bojonegara, Kota Cilegon, Banten 42454";"Karangkepuh, Kec. Bojonegara, Kota Cilegon";"MALUKU";"42454";"Indonesia";"";"";"";"-5.9857875";"106.0890781";"https://maps.google.com/?cid=0x0:0xa5976dbea4968e93";""
"supermarket";"Toko bahan makanan";"Hypermart - Cilegon";"MAYOFIELD MALL JL SA TIRTASAYA SIMPANG TIGA, Kota Cilegon, Banten 42431";"Kota Cilegon";"MALUKU";"42431";"Indonesia";" 0254388741";"";"";"-6.0131239";"106.0452553";"https://maps.google.com/?cid=0x0:0x76e8c77645e65068";""
"supermarket";"Toko";"Toko Sitong Ali";"4373+7RM, Salira, Kec. Puloampel, Kabupaten Serang, Banten 42455";"Salira, Kec. Puloampel, Kabupaten Serang";"MALUKU";"42455";"Indonesia";"";"";"";"-5.8867995";"106.0545476";"https://maps.google.com/?cid=0x0:0xc0ec391ac7d9857a";""
"supermarket";"Toko makanan beku";"Karangantu Frozen Food";"X556+P83, Jl. Ps. Karangantu, Banten, Kec. Kasemen, Kota Serang, Banten 42191";"Jl. Ps. Karangantu, Banten, Kec. Kasemen, Kota Serang";"MALUKU";"42191";"Indonesia";" 087771190060";"";"";"-6.0407254";"106.1608113";"https://maps.google.com/?cid=0x0:0x1ba259f6aad67c78";""
"supermarket";"Toko Swalayan";"Rumah adittyaceo";"X3J4+56G, Jombang Wetan, Kec. Jombang, Kota Cilegon, Banten 42411";"Jombang Wetan, Kec. Jombang, Kota Cilegon";"MALUKU";"42411";"Indonesia";" 085155332768";"";"";"-6.0195684";"106.0555844";"https://maps.google.com/?cid=0x0:0xc007c6e7cab00fcd";""
"supermarket";"Minimarket";"Alfamart Kranggot Sukmajaya";"Jl. KH. Wasyid Jl. Raya Kranggot, Sukmajaya, Kec. Jombang, Kota Cilegon, Banten 42416";"Sukmajaya, Kec. Jombang, Kota Cilegon";"MALUKU";"42416";"Indonesia";" 1500959";"";"";"-6.0219063";"106.0651541";"https://maps.google.com/?cid=0x0:0xa06085902fdab37d";""
"supermarket";"Toko Makanan";"FROZEN FOOD CILEGON BY BELLA";"Jl. Boulevard Raya No.119, Cibeber, Kec. Cibeber, Kota Cilegon, Banten 42426";"Cibeber, Kec. Cibeber, Kota Cilegon";"MALUKU";"42426";"Indonesia";" 081288704114";"";"";"-6.0278342";"106.0695309";"https://maps.google.com/?cid=0x0:0x555c27538e1b6aa3";""
"supermarket";"Minimarket";"Alfamart Suralaya";"Jl. Ki Kahal Rt 01/02 Suralaya, Grogol, Suralaya, Kec. Pulomerak, Kota Cilegon, Banten 42439";"Grogol, Suralaya, Kec. Pulomerak, Kota Cilegon";"MALUKU";"42439";"Indonesia";" 1500959";"";"";"-5.8980876";"106.0282796";"https://maps.google.com/?cid=0x0:0xd8dba1696a623664";""
"supermarket";"Toko bahan makanan";"Toko Kartini";"Sawah Luhur, Kec. Kasemen, Kota Serang, Banten 42191";"Kec. Kasemen, Kota Serang";"MALUKU";"42191";"Indonesia";" 087772231396";"";"";"-6.0351834";"106.2230914";"https://maps.google.com/?cid=0x0:0x1456665b02c5bec6";""
"supermarket";"Toko Swalayan";"Rumah ibu hud";"Link.ciora jaya 42436 No.41, RT.03/RW.01, Grogol, Kec. Gerogol, Kota Cilegon, Banten 42436";"No.41";"MALUKU";"42436";"Indonesia";"";"";"";"-5.9739238";"106.0320782";"https://maps.google.com/?cid=0x0:0x858bdc12906f8e30";""
"supermarket";"Toko bahan makanan";"Toko PENDI JAYA";"X3J4+246, Jombang Wetan, Kec. Jombang, Kota Cilegon, Banten 42411";"Jombang Wetan, Kec. Jombang, Kota Cilegon";"MALUKU";"42411";"Indonesia";"";"";"";"-6.0199733";"106.0552681";"https://maps.google.com/?cid=0x0:0xd46164e946135e06";""
"supermarket";"Toko sembako pemerintah";"Toko Bude Tiyas";"Jl. Tegal Padang Dalam No.22, Kebondalem, Kec. Purwakarta, Kota Cilegon, Banten 42434";"Kebondalem, Kec. Purwakarta, Kota Cilegon";"MALUKU";"42434";"Indonesia";" 081998888317";"";"";"-5.994706";"106.0526843";"https://maps.google.com/?cid=0x0:0x75fa58a910429b1c";""
"supermarket";"supermarket";"Teor";"Teor, Kabupaten Seram Bagian Timur, Maluku";"Kabupaten Seram Bagian Timur, Maluku";"MALUKU";"";"Indonesia";"";"";"";"-4.737805";"131.745717";"https://maps.google.com/?cid=0x0:0x455015039ed48829";""
"supermarket";"Toko Swalayan";"The Gourmet by Ranch Market";"ASHTA Lantai Dasar Unit LG-01, Jl. Senopati No.Raya, RT.8/RW.3, Senayan, Kec. Kby. Baru, Kota Jakarta Selatan, Daerah Khusus Ibukota Jakarta 12190";"Jl. Senopati No.Raya, RT.8/RW.3, Senayan, Kec. Kby. Baru, Kota Jakarta Selatan";"MALUKU";"12190";"Indonesia";" 081282091909";"";"";"-6.2292324";"106.8067785";"https://maps.google.com/?cid=0x0:0x32d5081bb2c4af19";""
"supermarket";"supermarket";"Toko Sumber Jaya Baru";"4WC2+FH2, Geser, Kec. Seram Tim., Kabupaten Seram Bagian Timur, Maluku";"Kabupaten Seram Bagian Timur, Maluku";"MALUKU";"";"Indonesia";"";"";"";"-3.8788701";"130.9013757";"https://maps.google.com/?cid=0x0:0xb22ded71e91f8098";""
"supermarket";"Toko Teh";"Nippies - ASHTA District 8";"The Gourmet by Ranch Market, ASHTA, Jl. Senopati No.Raya Lantai Dasar Unit LG-01, RT.8/RW.3, Senayan, Kebayoran Baru, South Jakarta City, Jakarta 12190";"ASHTA, Jl. Senopati No.Raya Lantai Dasar Unit LG-01, RT.8/RW.3, Senayan, Kebayoran Baru, South Jakarta City";"MALUKU";"12190";"Indonesia";"";"";"";"-6.2292324";"106.8067785";"https://maps.google.com/?cid=0x0:0x1c44fcc8ab2d86b2";""
"supermarket";"Toko Swalayan";"Despar";"Via Umberto I°, 42, 33061 Rivignano Teor UD, Italia";"Rivignano Teor UD";"MALUKU";"33061";"Indonesia";" +39 432 776 210";"";"";"45.8766989";"13.0411261";"https://maps.google.com/?cid=0x0:0x99cd526f23ae5267";""
"supermarket";"Toko Rak";"Rak Supermarket Rak Minimarket - Sinar Karya";"Jl. Mangga Dua Raya No.24 3, RT.3/RW.4, Pinangsia, Kec. Taman Sari, Kota Jakarta Barat, Daerah Khusus Ibukota Jakarta 11180";"RT.3/RW.4, Pinangsia, Kec. Taman Sari, Kota Jakarta Barat";"MALUKU";"11180";"Indonesia";" 0216903869";"";"";"-6.1374101";"106.8180694";"https://maps.google.com/?cid=0x0:0xbddbcf61c2e74236";""
"supermarket";"Toko Swalayan";"Supermercato Coop";"Via Giuseppe Ungaretti, 2, 33061 Rivignano Teor UD, Italia";"Rivignano Teor UD";"MALUKU";"33061";"Indonesia";" +390432823977";"";"";"45.8778217";"13.0377448";"https://maps.google.com/?cid=0x0:0x175f1313dc61b4e";""
"supermarket";"Toko Swalayan";"Supermercato Coop";"Via Varmo, 29, 33061 Rivignano Teor UD, Italia";"Rivignano Teor UD";"MALUKU";"33061";"Indonesia";" +390432823977";"";"";"45.8781926";"13.0360281";"https://maps.google.com/?cid=0x0:0xedaebab182678e91";""
"supermarket";"supermarket";"Kec. Gorom Timur";"Kabupaten Seram Bagian Timur, Maluku";"Kabupaten Seram Bagian Timur, Maluku";"MALUKU";"";"Indonesia";"";"";"";"-3.9797121";"131.4112125";"https://maps.google.com/?cid=0x0:0xaee5fbc2b0124a41";""
"supermarket";"Toko Perlengkapan Rumah";"Toko Ceria Gorom";"294H+F9Q, Jl jou besi, desa kataloka, Kec. Pulau Gorom, Kabupaten Seram Bagian Timur, Maluku";"Kabupaten Seram Bagian Timur, Maluku";"MALUKU";"";"Indonesia";"";"";"";"-3.9936513";"131.3784086";"https://maps.google.com/?cid=0x0:0xfb550a49ffeafdbd";""
"supermarket";"Toko Swalayan";"The Gourmet by Ranch Market";"ASHTA Lantai Dasar Unit LG-01, Jl. Senopati No.Raya, RT.8/RW.3, Senayan, Kec. Kby. Baru, Kota Jakarta Selatan, Daerah Khusus Ibukota Jakarta 12190";"Jl. Senopati No.Raya, RT.8/RW.3, Senayan, Kec. Kby. Baru, Kota Jakarta Selatan";"MALUKU";"12190";"Indonesia";" 081282091909";"";"";"-6.2292324";"106.8067785";"https://maps.google.com/?cid=0x0:0x32d5081bb2c4af19";""
"supermarket";"supermarket";"Kios Damai Usun";"2CCF+WQW, Kec. Gorom Timur, Kabupaten Seram Bagian Timur, Maluku";"Kabupaten Seram Bagian Timur, Maluku";"MALUKU";"";"Indonesia";"";"";"";"-3.9776415";"131.4244561";"https://maps.google.com/?cid=0x0:0x46ee11ea97bd8422";""
"supermarket";"supermarket";"Kios Lahasani";"294H+HX6, Ondor, Kec. Pulau Gorom, Kabupaten Seram Bagian Timur, Maluku";"Kabupaten Seram Bagian Timur, Maluku";"MALUKU";"";"Indonesia";"";"";"";"-3.9935774";"131.3798838";"https://maps.google.com/?cid=0x0:0xc2b55a3b0eac7335";""
"supermarket";"supermarket";"Kec. Bula Barat";"Kabupaten Seram Bagian Timur, Maluku";"Kabupaten Seram Bagian Timur, Maluku";"MALUKU";"";"Indonesia";"";"";"";"-3.0472432";"130.1469398";"https://maps.google.com/?cid=0x0:0x12c29f15f276cac6";""
"supermarket";"Toko bahan makanan";"Toko Niar's";"WF69+GMR, Jl. Wailola, Bula, Kec. Bula, Kabupaten Seram Bagian Timur, Maluku";"Kabupaten Seram Bagian Timur, Maluku";"MALUKU";"";"Indonesia";"";"";"";"-3.0886403";"130.469127";"https://maps.google.com/?cid=0x0:0xea09b41d510f6cce";""
"supermarket";"Toko Swalayan";"Big mart";"Bula, Kec. Bula, Kabupaten Seram Bagian Timur, Maluku";"Kabupaten Seram Bagian Timur, Maluku";"MALUKU";"";"Indonesia";" 091521496";"";"";"-3.1034642";"130.4927309";"https://maps.google.com/?cid=0x0:0x26acc0ca8f9adb44";""
"supermarket";"Toko bahan makanan";"TOKO RAMA";"VFXP+Q44, EastJl Bula Rd, EastJl. Wailola, Bula, East Seram, Maluku";"Kabupaten Seram Bagian Timur, Maluku";"MALUKU";"";"Indonesia";"";"";"";"-3.1006123";"130.4853384";"https://maps.google.com/?cid=0x0:0xe60cad3e2dba6dbd";""
"supermarket";"Toko";"TOKO HARAPAN UMMI";"WF69+MC8, Jl. Wailola, Bula, Kec. Bula, Kabupaten Seram Bagian Timur, Maluku";"Kabupaten Seram Bagian Timur, Maluku";"MALUKU";"";"Indonesia";" 081343323869";"";"";"-3.0877141";"130.4685085";"https://maps.google.com/?cid=0x0:0xe3ec7f7f322e23d0";""
"supermarket";"Toko bahan makanan";"Toko Vina";"WF4G+727, Bula, Kec. Bula, Kabupaten Seram Bagian Timur, Maluku";"Kabupaten Seram Bagian Timur, Maluku";"MALUKU";"";"Indonesia";"";"";"";"-3.094335";"130.475048";"https://maps.google.com/?cid=0x0:0x89402e7f344d5e9f";""
"supermarket";"Toko bahan makanan";"Toko Bandung";"Trans Seram, Bula, Kec. Bula, Kabupaten Seram Bagian Timur, Maluku";"Kabupaten Seram Bagian Timur, Maluku";"MALUKU";"";"Indonesia";"";"";"";"-3.0827502";"130.464456";"https://maps.google.com/?cid=0x0:0xfa85a2f8cdb25e3e";""
"supermarket";"Toko bahan makanan";"Toko Livarbo";"VFWR+W7J, Bula, Kec. Bula, Kabupaten Seram Bagian Timur, Maluku";"Kabupaten Seram Bagian Timur, Maluku";"MALUKU";"";"Indonesia";" 082199283337";"";"";"-3.1026647";"130.4906303";"https://maps.google.com/?cid=0x0:0x719b36b2665d5b62";""
"supermarket";"Toko Swalayan";"Toko 26";"VFVQ+HVW, Jl. Syaikh Muhammad Al-Khidhir, Bula, Kec. Bula, Kabupaten Seram Bagian Timur, Maluku";"Kabupaten Seram Bagian Timur, Maluku";"MALUKU";"";"Indonesia";" 082238614878";"";"";"-3.1060068";"130.4897147";"https://maps.google.com/?cid=0x0:0x2644056dffea592a";""
"supermarket";"Toko";"Warung wiwik";"Unnamed Road, Upt U. Airmatakabu, Bula, Kabupaten Seram Bagian Timur, Maluku";"Kabupaten Seram Bagian Timur, Maluku";"MALUKU";"";"Indonesia";" 081248304390";"";"";"-3.0293866";"130.1334641";"https://maps.google.com/?cid=0x0:0xd763f48878ef8cfd";""
"supermarket";"Toko bahan makanan";"Toko Rama 2";"WF4G+CCG, Bula, Kec. Bula, Kabupaten Seram Bagian Timur, Maluku";"Kabupaten Seram Bagian Timur, Maluku";"MALUKU";"";"Indonesia";"";"";"";"-3.0939378";"130.476086";"https://maps.google.com/?cid=0x0:0xdc87ebe446188e6a";""
"supermarket";"Toko bahan makanan";"Sumber Rasa";"Jln Ampera, Bula, Kec. Bula, Kabupaten Seram Bagian Timur, Maluku 97555";"Bula, Kec. Bula, Kabupaten Seram Bagian Timur";"MALUKU";"97555";"Indonesia";" 081248178405";"";"";"-3.1034473";"130.486328";"https://maps.google.com/?cid=0x0:0x6485f3ad3cd386ab";""
"supermarket";"Toko Swalayan";"BIGMART CENTER";"Jl. Wailola, Bula, Kec. Bula, Kabupaten Seram Bagian Timur, Maluku 97555";"Bula, Kec. Bula, Kabupaten Seram Bagian Timur";"MALUKU";"97555";"Indonesia";" 082228202835";"";"";"-3.1020554";"130.4889317";"https://maps.google.com/?cid=0x0:0xeff1b59138728cf4";""
"supermarket";"Kios";"Agenbrilink Km.nangun";"X539+CQW, Benggoi, Bula, Kabupaten Seram Bagian Timur, Maluku";"Kabupaten Seram Bagian Timur, Maluku";"MALUKU";"";"Indonesia";"";"";"";"-3.0463973";"130.1694401";"https://maps.google.com/?cid=0x0:0x3a1998926a9711dc";""
"supermarket";"Minimarket";"Amzul Mart";"Jl. Poros KPU, Bula, Kec. Bula, Kabupaten Seram Bagian Timur, Maluku 97554";"Bula, Kec. Bula, Kabupaten Seram Bagian Timur";"MALUKU";"97554";"Indonesia";" 081235438189";"";"";"-3.0879244";"130.4821786";"https://maps.google.com/?cid=0x0:0xc12c2160791aeed4";""
"supermarket";"Toko Swalayan";"Toko Puspa Indah";"VFVP+MXV, Bula, Kec. Bula, Kabupaten Seram Bagian Timur, Maluku";"Kabupaten Seram Bagian Timur, Maluku";"MALUKU";"";"Indonesia";"";"";"";"-3.1057622";"130.4874212";"https://maps.google.com/?cid=0x0:0x867d2906062bc2ec";""
"supermarket";"Pusat Perbelanjaan";"toko sembako meka jakarta baru. jlr 4 / 1 bula barat";"Upt T. Jkt Baru, Kec. Bula Barat, Kabupaten Seram Bagian Timur, Maluku 97522";"Kec. Bula Barat, Kabupaten Seram Bagian Timur";"MALUKU";"97522";"Indonesia";" 085212625400";"";"";"-3.0628";"130.260344";"https://maps.google.com/?cid=0x0:0xbfbab69ecc02cbc2";""
"supermarket";"Minimarket";"Kios RERE";"XCM7+P5, Hote, Kec. Bula Barat, Kabupaten Seram Bagian Timur, Maluku";"Kabupaten Seram Bagian Timur, Maluku";"MALUKU";"";"Indonesia";"";"";"";"-3.0156697";"130.4129629";"https://maps.google.com/?cid=0x0:0x81429e12cdec5458";""
"supermarket";"Toko bahan makanan";"Kios GITIFA";"VFWW+4X2, Bula, Kec. Bula, Kabupaten Seram Bagian Timur, Maluku";"Kabupaten Seram Bagian Timur, Maluku";"MALUKU";"";"Indonesia";"";"";"";"-3.1047489";"130.4973862";"https://maps.google.com/?cid=0x0:0x22fc17da6a8b041a";""
"supermarket";"Toko bahan makanan";"KIOS NAFLA";"WF78+QC3, Jln. Itanun, Kampung Baru, Wailola Besar, Desa Lemumir, Bula, Kec. Bula, Kabupaten Seram Bagian Timur, Maluku";"Kabupaten Seram Bagian Timur, Maluku";"MALUKU";"";"Indonesia";" 081354014657";"";"";"-3.0858738";"130.4659184";"https://maps.google.com/?cid=0x0:0x6f2cce39a6402f72";""
"supermarket";"Toko";"Toko kanty izzah";"X4HR+944, Upt U. Airmatakabu, Kec. Bula, Kabupaten Seram Bagian Timur, Maluku";"Kabupaten Seram Bagian Timur, Maluku";"MALUKU";"";"Indonesia";"";"";"";"-3.0215436";"130.1407231";"https://maps.google.com/?cid=0x0:0x32cb4ae9a13336c";""
"supermarket";"supermarket";"AMAR MARKET";"WF69+9JQ, Jl. Wailola, Bula, Kec. Bula, Kabupaten Seram Bagian Timur, Maluku";"Kabupaten Seram Bagian Timur, Maluku";"MALUKU";"";"Indonesia";"";"";"";"-3.0890485";"130.4691144";"https://maps.google.com/?cid=0x0:0x8a5a5739165252cf";""
"supermarket";"supermarket";"Kian Darat";"Kiandarat, Kabupaten Seram Bagian Timur, Maluku";"Kabupaten Seram Bagian Timur, Maluku";"MALUKU";"";"Indonesia";"";"";"";"-3.6853452";"130.7867889";"https://maps.google.com/?cid=0x0:0x63cc3443f68b9180";""
"supermarket";"supermarket";"Inafut mart";"M953+84M, Kairatu, Kec. Kairatu, Kabupaten Seram Bagian Barat, Maluku";"Kabupaten Seram Bagian Barat, Maluku";"MALUKU";"";"Indonesia";"";"";"";"-3.341675";"128.352798";"https://maps.google.com/?cid=0x0:0xacb09532db57b792";""
"supermarket";"Toko Swalayan";"Sesa Organic Store Grand Indonesia";"Grand Indonesia East Mall Lantai Ground (EM-LG-10 Jl. Tlk. Betung I No.45A, RT.1/RW.5, Kb. Melati, Kecamatan Tanah Abang Kota Jakarta Pusat, DKI, Daerah Khusus Ibukota Jakarta 10310";"RT.1/RW.5, Kb. Melati, Kecamatan Tanah Abang Kota Jakarta Pusat, DKI";"MALUKU";"10310";"Indonesia";" 085179895354";"";"";"-6.1958737";"106.8206723";"https://maps.google.com/?cid=0x0:0x4575b226fe93133f";""
"supermarket";"Pembangunan Perumahan";"Negeri Kian";"8RQJ+55X, Kiandarat, Kian Darat, Kabupaten Seram Bagian Timur, Maluku";"Kabupaten Seram Bagian Timur, Maluku";"MALUKU";"";"Indonesia";"";"";"";"-3.6617754";"130.8308662";"https://maps.google.com/?cid=0x0:0x6fefa1fa06337d42";""
"supermarket";"Pusat Perbelanjaan";"Fajar Mart";"W5MV+PFF, Piru, Kec. Seram Bar., Kabupaten Seram Bagian Barat, Maluku";"Kabupaten Seram Bagian Barat, Maluku";"MALUKU";"";"Indonesia";"";"";"";"-3.0656914";"128.1936727";"https://maps.google.com/?cid=0x0:0x40a2277adf2e3d56";""
"supermarket";"Minimarket";"GOTA Supermarket";"8PXR+5C6, Kel. Ohoijang Watdek, Kec. Kei Kecil, Kabupaten Maluku Tenggara, Maluku";"Kabupaten Maluku Tenggara, Maluku";"MALUKU";"";"Indonesia";"";"";"";"-5.652084";"132.7410211";"https://maps.google.com/?cid=0x0:0xcce642eed6fb72d5";""
"supermarket";"Toko bahan makanan";"Kios Charunia";"Jalan M.S Padede, Bula, Kec. Bula, Kabupaten Seram Bagian Timur, Maluku 97555";"Bula, Kec. Bula, Kabupaten Seram Bagian Timur";"MALUKU";"97555";"Indonesia";" 082198670071";"";"";"-3.1042301";"130.4957929";"https://maps.google.com/?cid=0x0:0x7b3128c65262568d";""
"supermarket";"Toko Makanan";"DARREL CAMP";"Jl. Kabupaten, Seakasale, Kec. Taniwel Tim., Kabupaten Seram Bagian Barat, Maluku";"Kabupaten Seram Bagian Barat, Maluku";"MALUKU";"";"Indonesia";" 085259034531";"";"";"-2.862496";"128.7120751";"https://maps.google.com/?cid=0x0:0x4277bc338db0dfc4";""
"supermarket";"Toko umum";"Kios Lila";"Jl. Kota raja No.Blok B, Luhu, Kec. Huamual Belakang, Kabupaten Seram Bagian Barat, Maluku";"Kabupaten Seram Bagian Barat, Maluku";"MALUKU";"";"Indonesia";" 082198695633";"";"";"-3.3886236";"127.9813628";"https://maps.google.com/?cid=0x0:0x2488d0ff56a2aedc";""
"supermarket";"Masjid";"Kileser";"8Q7P+VP7, Kiandarat, Kec. Seram Tim., Kabupaten Seram Bagian Timur, Maluku";"Kabupaten Seram Bagian Timur, Maluku";"MALUKU";"";"Indonesia";"";"";"";"-3.6853452";"130.7867889";"https://maps.google.com/?cid=0x0:0x4e590da08866cd64";""
"supermarket";"supermarket";"Kec. Lian Fitu";"Kabupaten Seram Bagian Timur, Maluku";"Kabupaten Seram Bagian Timur, Maluku";"MALUKU";"";"Indonesia";"";"";"";"-3.7413684";"130.8286316";"https://maps.google.com/?cid=0x0:0x240a3775e9ef412c";""
"supermarket";"Toko Swalayan";"Winkel Supermarket";"96FG+323, Waiheru, Kec. Baguala, Kota Ambon, Maluku";"Kota Ambon, Maluku";"MALUKU";"";"Indonesia";" 09113869351";"";"";"-3.6273656";"128.2250609";"https://maps.google.com/?cid=0x0:0xec37cd1cfdfa6412";""
"supermarket";"Toko umum";"Kios Keisha";"8Q7P+VP7, Kiandarat, Kian Darat, Kabupaten Seram Bagian Timur, Maluku";"Kabupaten Seram Bagian Timur, Maluku";"MALUKU";"";"Indonesia";" 085392168224";"";"";"-3.6853452";"130.7867889";"https://maps.google.com/?cid=0x0:0x37d2a72921fb100";""
"supermarket";"Toko";"Winkel Xpress";"9792+JWJ, Passo, Kec. Baguala, Kota Ambon, Maluku";"Kota Ambon, Maluku";"MALUKU";"";"Indonesia";"";"";"";"-3.6309238";"128.2522702";"https://maps.google.com/?cid=0x0:0xecc0d241b9b11ca4";""
"supermarket";"Gudang";"Bumdesma Teluk Waru";"JM45+XQ7, Unnamed Road, Belis, Bula, Kabupaten Seram Bagian Timur, Maluku";"Kabupaten Seram Bagian Timur, Maluku";"MALUKU";"";"Indonesia";"";"";"";"-3.392587";"130.659426";"https://maps.google.com/?cid=0x0:0x7725ce970a29cc9c";""
"supermarket";"Toko Swalayan";"Big mart";"Bula, Kec. Bula, Kabupaten Seram Bagian Timur, Maluku";"Kabupaten Seram Bagian Timur, Maluku";"MALUKU";"";"Indonesia";" 091521496";"";"";"-3.1034642";"130.4927309";"https://maps.google.com/?cid=0x0:0x26acc0ca8f9adb44";""
"supermarket";"supermarket";"Kec. Tlk. Waru";"Kabupaten Seram Bagian Timur, Maluku";"Kabupaten Seram Bagian Timur, Maluku";"MALUKU";"";"Indonesia";"";"";"";"-3.404276";"130.6715092";"https://maps.google.com/?cid=0x0:0x8093b034c7ac82";""
"supermarket";"Toko bahan makanan";"Toko Livarbo";"VFWR+W7J, Bula, Kec. Bula, Kabupaten Seram Bagian Timur, Maluku";"Kabupaten Seram Bagian Timur, Maluku";"MALUKU";"";"Indonesia";" 082199283337";"";"";"-3.1026647";"130.4906303";"https://maps.google.com/?cid=0x0:0x719b36b2665d5b62";""
"supermarket";"Toko bahan makanan";"TOKO RAMA";"VFXP+Q44, EastJl Bula Rd, EastJl. Wailola, Bula, East Seram, Maluku";"Kabupaten Seram Bagian Timur, Maluku";"MALUKU";"";"Indonesia";"";"";"";"-3.1006123";"130.4853384";"https://maps.google.com/?cid=0x0:0xe60cad3e2dba6dbd";""
"supermarket";"Toko Swalayan";"Toko 26";"VFVQ+HVW, Jl. Syaikh Muhammad Al-Khidhir, Bula, Kec. Bula, Kabupaten Seram Bagian Timur, Maluku";"Kabupaten Seram Bagian Timur, Maluku";"MALUKU";"";"Indonesia";" 082238614878";"";"";"-3.1060068";"130.4897147";"https://maps.google.com/?cid=0x0:0x2644056dffea592a";""
"supermarket";"Toko Swalayan";"BIGMART CENTER";"Jl. Wailola, Bula, Kec. Bula, Kabupaten Seram Bagian Timur, Maluku 97555";"Bula, Kec. Bula, Kabupaten Seram Bagian Timur";"MALUKU";"97555";"Indonesia";" 082228202835";"";"";"-3.1020554";"130.4889317";"https://maps.google.com/?cid=0x0:0xeff1b59138728cf4";""
"supermarket";"Toko bahan makanan";"Kios GITIFA";"VFWW+4X2, Bula, Kec. Bula, Kabupaten Seram Bagian Timur, Maluku";"Kabupaten Seram Bagian Timur, Maluku";"MALUKU";"";"Indonesia";"";"";"";"-3.1047489";"130.4973862";"https://maps.google.com/?cid=0x0:0x22fc17da6a8b041a";""
"supermarket";"Toko Swalayan";"Winkel Supermarket";"96FG+323, Waiheru, Kec. Baguala, Kota Ambon, Maluku";"Kota Ambon, Maluku";"MALUKU";"";"Indonesia";" 09113869351";"";"";"-3.6273656";"128.2250609";"https://maps.google.com/?cid=0x0:0xec37cd1cfdfa6412";""
"supermarket";"supermarket";"Mini Market Naga Timur";"JM36+2C6, Belis, Bula, Kabupaten Seram Bagian Timur, Maluku";"Kabupaten Seram Bagian Timur, Maluku";"MALUKU";"";"Indonesia";"";"";"";"-3.397451";"130.661017";"https://maps.google.com/?cid=0x0:0x732f1cdd6a7bca85";""
"supermarket";"Toko bahan makanan";"Kios Charunia";"Jalan M.S Padede, Bula, Kec. Bula, Kabupaten Seram Bagian Timur, Maluku 97555";"Bula, Kec. Bula, Kabupaten Seram Bagian Timur";"MALUKU";"97555";"Indonesia";" 082198670071";"";"";"-3.1042301";"130.4957929";"https://maps.google.com/?cid=0x0:0x7b3128c65262568d";""
"supermarket";"Toko";"Toko Lestari";"Jl. Raya Tropodo No.30, Tropodo Wetan, Tropodo, Kec. Waru, Kabupaten Sidoarjo, Jawa Timur 61256";"Tropodo Wetan, Tropodo, Kec. Waru, Kabupaten Sidoarjo";"MALUKU";"61256";"Indonesia";" 0318665121";"";"";"-7.3648995";"112.764156";"https://maps.google.com/?cid=0x0:0xb92da16485f5bcc7";""
"supermarket";"Toko Swalayan";"Reny Swalayan";"Jl. Brigjend Katamso No.132, Janti, Kec. Waru, Kabupaten Sidoarjo, Jawa Timur 61256";"Janti, Kec. Waru, Kabupaten Sidoarjo";"MALUKU";"61256";"Indonesia";" 081359931247";"";"";"-7.34902";"112.7433593";"https://maps.google.com/?cid=0x0:0x425151da9a642eb1";""
"supermarket";"Toko Swalayan";"LOTTE GROSIR SIDOARJO";"Jalan Raya Pepelegi Indah kav. IV, Gg. Sawo, Dusun Sawo, Sawotratap, Kec. Waru, Kabupaten Sidoarjo, Jawa Timur 61256";"Gg. Sawo, Dusun Sawo, Sawotratap, Kec. Waru, Kabupaten Sidoarjo";"MALUKU";"61256";"Indonesia";" 0318532244";"";"";"-7.3693285";"112.7268144";"https://maps.google.com/?cid=0x0:0x3007dff48dd845c1";""
"supermarket";"Pusat Perbelanjaan";"Hypermart Maluku City Mall";"Jalan Jend. Sudirman, Hative Kecil, Kec. Sirimau, Kota Ambon, Maluku";"Kota Ambon, Maluku";"MALUKU";"";"Indonesia";" 0911319999";"";"";"-3.6702679";"128.1981163";"https://maps.google.com/?cid=0x0:0xf361af34b2474744";""
"supermarket";"Hipermarket";"Hypermart Ambon City Center";"Desa, Passo, Kec. Baguala, Kota Ambon, Maluku";"Kota Ambon, Maluku";"MALUKU";"";"Indonesia";" 0911361739";"";"";"-3.6316235";"128.2496246";"https://maps.google.com/?cid=0x0:0xa5054eb80169380e";""
"supermarket";"Toko Swalayan";"MULYO LESTARI SWALAYAN";"GJWJ+QRP, Kepuh Kemiri, RT.07/RW.03, Kemiri Lor, Kepuhkemiri, Kec. Tulangan, Kabupaten Sidoarjo, Jawa Timur 61273";"Kepuh Kemiri, RT.07/RW.03, Kemiri Lor, Kepuhkemiri, Kec. Tulangan, Kabupaten Sidoarjo";"MALUKU";"61273";"Indonesia";" 03199891159";"";"";"-7.4530414";"112.6320913";"https://maps.google.com/?cid=0x0:0x380a6184b3339ad";""
"supermarket";"supermarket";"REZEKI SUPERMARKET";"12, Jl. Pluit Sakti No.26, RT.2/RW.6, Pluit, Kec. Penjaringan, Jkt Utara, Daerah Khusus Ibukota Jakarta 14450";"Jl. Pluit Sakti No.26, RT.2/RW.6, Pluit, Kec. Penjaringan, Jkt Utara";"MALUKU";"14450";"Indonesia";" 02166693350";"";"";"-6.1220354";"106.7905553";"https://maps.google.com/?cid=0x0:0xf1e04d8dd8951394";""
