Category;Real Category;Business Name;Address;City;State;Postal Code;Country;Phone;Email;Website;Latitude;Longitude;Map Link;Details Link
"komplek housing";"komplek housing";"Bula";"Bula, Kec. Bula, Kabupaten Seram Bagian Timur, Maluku";"Kabupaten Seram Bagian Timur, Maluku";"MALUKU";"";"Indonesia";"";"";"";"-3.10968";"130.498505";"https://maps.google.com/?cid=0x0:0x20388956c533e2b";""
"komplek housing";"Komplek perumahan";"Adun komplek";"VFXQ+J7R, Bula, Kec. Bula, Kabupaten Seram Bagian Timur, Maluku";"Kabupaten Seram Bagian Timur, Maluku";"MALUKU";"";"Indonesia";"";"";"";"-3.1008986";"130.4881371";"https://maps.google.com/?cid=0x0:0x7e22cf3d280084d3";""
"komplek housing";"Komplek perumahan";"Jalan protokol";"VFWQ+MH5, Jalan A. Tamaela, Bula, East Seram, Maluku";"Kabupaten Seram Bagian Timur, Maluku";"MALUKU";"";"Indonesia";"";"";"";"-3.1033701";"130.488969";"https://maps.google.com/?cid=0x0:0x656918ce8379ae27";""
"komplek housing";"Komplek perumahan";"RUMAH KITA";"VGV6+HRG, Bula, Kec. Bula, Kabupaten Seram Bagian Timur, Maluku";"Kabupaten Seram Bagian Timur, Maluku";"MALUKU";"";"Indonesia";"";"";"";"-3.1060744";"130.5120724";"https://maps.google.com/?cid=0x0:0x87ae43abfb4e2079";""
"komplek housing";"Komplek perumahan";"bula";"V9F2+RCP, Amarsekaru, Kec. Pulau Gorom, Kabupaten Seram Bagian Timur, Maluku";"Kabupaten Seram Bagian Timur, Maluku";"MALUKU";"";"Indonesia";"";"";"";"-4.1254105";"131.3510866";"https://maps.google.com/?cid=0x0:0xa88b1cac1186e42c";""
"komplek housing";"Komplek perumahan";"Pondok Gede Housing 1";"Jl. Cipta Raya No.45-3, RT.001/RW.003, Jatirahayu, Kec. Pd. Melati, Kota Bks, Jawa Barat 17414";"RT.001/RW.003, Jatirahayu, Kec. Pd. Melati, Kota Bks";"MALUKU";"17414";"Indonesia";"";"";"";"-6.2852504";"106.9163397";"https://maps.google.com/?cid=0x0:0x3132afedbf38cd61";""
"komplek housing";"Komplek perumahan";"Pondok Gede Housing II";"Housing II, Jl. Raya Hankam, RT.001/RW.004, Jatirahayu, Pondok Gede, Bekasi, West Java";"Kota Bks, Jawa Barat";"MALUKU";"";"Indonesia";"";"";"";"-6.2876701";"106.9147674";"https://maps.google.com/?cid=0x0:0x2a52e601c20d18f2";""
"komplek housing";"Komplek perumahan";"Pondok gede housing";"PW69+G7J, Jl. Teratai, RT.005/RW.003, Jatirahayu, Kec. Pd. Melati, Kota Bks, Jawa Barat 17414";"Jl. Teratai, RT.005/RW.003, Jatirahayu, Kec. Pd. Melati, Kota Bks";"MALUKU";"17414";"Indonesia";"";"";"";"-6.2886631";"106.9181392";"https://maps.google.com/?cid=0x0:0xe09247830c5049e9";""
"komplek housing";"Komplek perumahan";"Komplek Bina Lindung";"PWJ5+49V, Jl. Bina Loka, RT.007/RW.011, Jaticempaka, Kec. Pd. Gede, Kota Bks, Jawa Barat 17411";"Jl. Bina Loka, RT.007/RW.011, Jaticempaka, Kec. Pd. Gede, Kota Bks";"MALUKU";"17411";"Indonesia";"";"";"";"-6.2696294";"106.9084203";"https://maps.google.com/?cid=0x0:0x3e834652721e8817";""
"komplek housing";"Pembangunan Perumahan";"Andalas Housing Binalindung";"Jl. Bina Loka II Atas No.42, RT.002/RW.009, Jaticempaka, Kec. Pd. Gede, Kota Bks, Jawa Barat";"Kota Bks, Jawa Barat";"MALUKU";"";"Indonesia";" 02184995116";"";"";"-6.2682566";"106.9079967";"https://maps.google.com/?cid=0x0:0xe2d885d5eec924af";""
"komplek housing";"Komplek perumahan";"Jalan protokol";"VFWQ+MH5, Jalan A. Tamaela, Bula, East Seram, Maluku";"Kabupaten Seram Bagian Timur, Maluku";"MALUKU";"";"Indonesia";"";"";"";"-3.1033701";"130.488969";"https://maps.google.com/?cid=0x0:0x656918ce8379ae27";""
"komplek housing";"Pembangunan Perumahan";"Bula";"VFXP+XRQ, Jl. Mufakat, Bula, Kec. Bula, Kabupaten Seram Bagian Timur, Maluku";"Kabupaten Seram Bagian Timur, Maluku";"MALUKU";"";"Indonesia";"";"";"";"-3.1000416";"130.487117";"https://maps.google.com/?cid=0x0:0x62ab4a59c61bd784";""
"komplek housing";"komplek housing";"Kec. Bula";"Kabupaten Seram Bagian Timur, Maluku";"Kabupaten Seram Bagian Timur, Maluku";"MALUKU";"";"Indonesia";"";"";"";"-3.1045002";"130.4880292";"https://maps.google.com/?cid=0x0:0x6befde0c8b8d88ed";""
"komplek housing";"Komplek perumahan";"Nofel Alkatiri";"Jl.gisa No.123, Bula, Kec. Bula, Kabupaten Seram Bagian Timur, Maluku 97555";"Bula, Kec. Bula, Kabupaten Seram Bagian Timur";"MALUKU";"97555";"Indonesia";" 081228123486";"";"";"-3.1016934";"130.4789398";"https://maps.google.com/?cid=0x0:0xf21045f47dfa8f39";""
"komplek housing";"Komplek perumahan";"Rumah Fahmi Bahalwan Pane";"Jalan damai, Bula, Kec. Bula, Kabupaten Seram Bagian Timur, Maluku 97555";"Bula, Kec. Bula, Kabupaten Seram Bagian Timur";"MALUKU";"97555";"Indonesia";"";"";"";"-3.0937804";"130.4778084";"https://maps.google.com/?cid=0x0:0xbcb8f611f04f97a8";""
"komplek housing";"Komplek perumahan";"bula";"V9F2+RCP, Amarsekaru, Kec. Pulau Gorom, Kabupaten Seram Bagian Timur, Maluku";"Kabupaten Seram Bagian Timur, Maluku";"MALUKU";"";"Indonesia";"";"";"";"-4.1254105";"131.3510866";"https://maps.google.com/?cid=0x0:0xa88b1cac1186e42c";""
"komplek housing";"Komplek perumahan";"Pondok Gede Housing 1";"Jl. Cipta Raya No.45-3, RT.001/RW.003, Jatirahayu, Kec. Pd. Melati, Kota Bks, Jawa Barat 17414";"RT.001/RW.003, Jatirahayu, Kec. Pd. Melati, Kota Bks";"MALUKU";"17414";"Indonesia";"";"";"";"-6.2852504";"106.9163397";"https://maps.google.com/?cid=0x0:0x3132afedbf38cd61";""
"komplek housing";"Komplek perumahan";"Pondok Gede Housing II";"Housing II, Jl. Raya Hankam, RT.001/RW.004, Jatirahayu, Pondok Gede, Bekasi, West Java";"Kota Bks, Jawa Barat";"MALUKU";"";"Indonesia";"";"";"";"-6.2876701";"106.9147674";"https://maps.google.com/?cid=0x0:0x2a52e601c20d18f2";""
"komplek housing";"Komplek perumahan";"Pondok gede housing";"PW69+G7J, Jl. Teratai, RT.005/RW.003, Jatirahayu, Kec. Pd. Melati, Kota Bks, Jawa Barat 17414";"Jl. Teratai, RT.005/RW.003, Jatirahayu, Kec. Pd. Melati, Kota Bks";"MALUKU";"17414";"Indonesia";"";"";"";"-6.2886631";"106.9181392";"https://maps.google.com/?cid=0x0:0xe09247830c5049e9";""
"komplek housing";"Komplek perumahan";"Komplek Bina Lindung";"PWJ5+49V, Jl. Bina Loka, RT.007/RW.011, Jaticempaka, Kec. Pd. Gede, Kota Bks, Jawa Barat 17411";"Jl. Bina Loka, RT.007/RW.011, Jaticempaka, Kec. Pd. Gede, Kota Bks";"MALUKU";"17411";"Indonesia";"";"";"";"-6.2696294";"106.9084203";"https://maps.google.com/?cid=0x0:0x3e834652721e8817";""
"komplek housing";"komplek housing";"Kec. Seram Tim.";"Kabupaten Seram Bagian Timur, Maluku";"Kabupaten Seram Bagian Timur, Maluku";"MALUKU";"";"Indonesia";"";"";"";"-3.8324657";"130.8204099";"https://maps.google.com/?cid=0x0:0x70947c7ca6669763";""
"komplek housing";"komplek housing";"Kabupaten Seram Bagian Timur";"Maluku";"Kabupaten Seram Bagian Timur, Maluku";"MALUKU";"";"Indonesia";"";"";"";"-3.4233267";"130.2271243";"https://maps.google.com/?cid=0x0:0x3e3cbf11d9dac8";""
"komplek housing";"komplek housing";"Werinama";"Kabupaten Seram Bagian Timur, Maluku";"Kabupaten Seram Bagian Timur, Maluku";"MALUKU";"";"Indonesia";"";"";"";"-3.4233267";"130.2271243";"https://maps.google.com/?cid=0x0:0x5d34ed8352394a25";""
"komplek housing";"Kantor Pemerintah";"Werinama";"GXVX+66Q, Jl. Propinsi, kotarumby, Werinama, Kabupaten Seram Bagian Timur, Maluku";"Kabupaten Seram Bagian Timur, Maluku";"MALUKU";"";"Indonesia";"";"";"";"-3.4569051";"129.9981229";"https://maps.google.com/?cid=0x0:0x63ebccbb92041fc9";""
"komplek housing";"Pembangunan Perumahan";"Basecamp MOVIN";"M3HM+XG7, Atiahu, Werinama, Kabupaten Seram Bagian Timur, Maluku";"Kabupaten Seram Bagian Timur, Maluku";"MALUKU";"";"Indonesia";"";"";"";"-3.3200868";"130.0838114";"https://maps.google.com/?cid=0x0:0xe53e6b5fa9792a95";""
"komplek housing";"Pembangunan Perumahan";"Posko rama";"GXVW+XPX, Jl. Propinsi, Bemo, Werinama, Kabupaten Seram Bagian Timur, Maluku";"Kabupaten Seram Bagian Timur, Maluku";"MALUKU";"";"Indonesia";"";"";"";"-3.455018";"129.9968708";"https://maps.google.com/?cid=0x0:0x45ff2958f8c7a3c";""
"komplek housing";"komplek housing";"Pulau Gorong";"Kabupaten Seram Bagian Timur, Maluku";"Kabupaten Seram Bagian Timur, Maluku";"MALUKU";"";"Indonesia";"";"";"";"-4.011202";"131.4112125";"https://maps.google.com/?cid=0x0:0x3b60b40247d61e16";""
"komplek housing";"komplek housing";"Kepulauan Gorong";"Kilkoda, Kec. Gorom Timur, Kabupaten Seram Bagian Timur, Maluku";"Kabupaten Seram Bagian Timur, Maluku";"MALUKU";"";"Indonesia";"";"";"";"-4.022778";"131.416944";"https://maps.google.com/?cid=0x0:0xd58f4832f5536ef9";""
"komplek housing";"komplek housing";"Kesuy, komples Otademan";"FMP3+JVJ, Tamher Warat, Kec. Wakate, Kabupaten Seram Bagian Timur, Maluku";"Kabupaten Seram Bagian Timur, Maluku";"MALUKU";"";"Indonesia";"";"";"";"-4.5134156";"131.654648";"https://maps.google.com/?cid=0x0:0x7caaafd414bed8b1";""
"komplek housing";"komplek housing";"Kec. Wakate";"Kabupaten Seram Bagian Timur, Maluku";"Kabupaten Seram Bagian Timur, Maluku";"MALUKU";"";"Indonesia";"";"";"";"-4.5139238";"131.6542349";"https://maps.google.com/?cid=0x0:0x5b89d23106f26061";""
"komplek housing";"Kantor Pemerintah";"Desa Lahema";"HJP3+VWP, Lahema, Kec. Wakate, Kabupaten Seram Bagian Timur, Maluku";"Kabupaten Seram Bagian Timur, Maluku";"MALUKU";"";"Indonesia";" 082399167121";"";"";"-4.4127853";"131.6048347";"https://maps.google.com/?cid=0x0:0x282581366709be38";""
"komplek housing";"komplek housing";"Kec. Tutuk Tolu";"Kabupaten Seram Bagian Timur, Maluku";"Kabupaten Seram Bagian Timur, Maluku";"MALUKU";"";"Indonesia";"";"";"";"-3.5511893";"130.8594177";"https://maps.google.com/?cid=0x0:0x66cd00a169ac09c7";""
"komplek housing";"komplek housing";"Maluku";"";"Maluku";"MALUKU";"";"Indonesia";"";"";"";"-3.2384616";"130.1452734";"https://maps.google.com/?cid=0x0:0x5e30e8db04649a51";""
"komplek housing";"Kios";"Valli.";"VXH3+PX2, Alang Asaude, Kec. Huamual Belakang, Kabupaten Seram Bagian Barat, Maluku";"Kabupaten Seram Bagian Barat, Maluku";"MALUKU";"";"Indonesia";"";"";"";"-3.1207375";"127.9548906";"https://maps.google.com/?cid=0x0:0x26fb43098d1183ce";""
"komplek housing";"Komplek perumahan";"Dilan Sohilait";"W5MX+3HQ, Piru, Kec. Seram Bar., Kabupaten Seram Bagian Barat, Maluku";"Kabupaten Seram Bagian Barat, Maluku";"MALUKU";"";"Indonesia";"";"";"";"-3.067609";"128.199032";"https://maps.google.com/?cid=0x0:0x2b0654983d3cf05a";""
"komplek housing";"Komplek perumahan";"daud samallo home";"HMVV+229, Hualoy, Kec. Amalatu, Kabupaten Seram Bagian Barat, Maluku";"Kabupaten Seram Bagian Barat, Maluku";"MALUKU";"";"Indonesia";"";"";"";"-3.4074625";"128.6926132";"https://maps.google.com/?cid=0x0:0x3eb334d2eeca7b21";""
"komplek housing";"komplek housing";"N/A";"";"";"MALUKU";"";"Indonesia";"";"";"";"-2.44565";"117.8888";"https://maps.google.com/?cid=0x0:0x419da35c0c3b00f9";""
"komplek housing";"Perumahan";"Perum Citra Swarna Grande";"Blk. C No.14/9, Pancawati, Kec. Klari, Karawang Timur, Jawa Barat 41371";"Pancawati, Kec. Klari, Karawang Timur";"MALUKU";"41371";"Indonesia";"";"";"";"-6.3628698";"107.385772";"https://maps.google.com/?cid=0x0:0xe6726d6126d59f19";""
"komplek housing";"Pembangunan Perumahan";"Perumahan De' Keraton";"2, Jl. Raya Telagasari - Kosambi No.KM, Pancawati, Kec. Klari, Karawang, Jawa Barat 41371";"Jl. Raya Telagasari - Kosambi No.KM, Pancawati, Kec. Klari, Karawang";"MALUKU";"41371";"Indonesia";" 02678402117";"";"";"-6.3569733";"107.3794638";"https://maps.google.com/?cid=0x0:0x93ab94c88cdb683f";""
"komplek housing";"komplek housing";"Komplek Housing";"Blok Bojong Nangka I, Jl. Ring Rudal Blok Bojong Nangka I No.68, RT.001/RW.007, Jatirahayu, Kec. Pd. Melati, Kota Bks, Jawa Barat 17414";"Jl. Ring Rudal Blok Bojong Nangka I No.68, RT.001/RW.007, Jatirahayu, Kec. Pd. Melati, Kota Bks";"MALUKU";"17414";"Indonesia";"";"";"";"-6.293724";"106.9165114";"https://maps.google.com/?cid=0x0:0x9c50464976dee674";""
"komplek housing";"komplek housing";"Kilmury";"Kec. Seram Tim., Kabupaten Seram Bagian Timur, Maluku";"Kabupaten Seram Bagian Timur, Maluku";"MALUKU";"";"Indonesia";"";"";"";"-3.6249497";"130.5940565";"https://maps.google.com/?cid=0x0:0x935e27a1be02d187";""
"komplek housing";"komplek housing";"Desa Gunak";"5MXC+772, Kilmury, Kec. Seram Tim., Kabupaten Seram Bagian Timur, Maluku";"Kabupaten Seram Bagian Timur, Maluku";"MALUKU";"";"Indonesia";"";"";"";"-3.8018535";"130.6706464";"https://maps.google.com/?cid=0x0:0xc12cccf738815ef5";""
"komplek housing";"Kantor Pemerintah";"Kantor Camat Kilmury";"8F3H+V6J, Kilmury, Kec. Seram Tim., Kabupaten Seram Bagian Timur, Maluku";"Kabupaten Seram Bagian Timur, Maluku";"MALUKU";"";"Indonesia";"";"";"";"-3.695282";"130.4780074";"https://maps.google.com/?cid=0x0:0x648fa8fd28932a48";""
"komplek housing";"komplek housing";"Pulau Panjang";"Kec. Pulau Gorom, Kabupaten Seram Bagian Timur, Maluku";"Kabupaten Seram Bagian Timur, Maluku";"MALUKU";"";"Indonesia";"";"";"";"-4.0065038";"131.23064";"https://maps.google.com/?cid=0x0:0x32cd940c1ce4e9ae";""
"komplek housing";"komplek housing";"Pulau Panjang";"Pulo Panjang, Kec. Puloampel, Kabupaten Serang, Banten";"Kabupaten Serang, Banten";"MALUKU";"";"Indonesia";"";"";"";"-5.9268769";"106.1522126";"https://maps.google.com/?cid=0x0:0x49cd227a61a155cc";""
"komplek housing";"komplek housing";"Teor";"Teor, Kabupaten Seram Bagian Timur, Maluku";"Kabupaten Seram Bagian Timur, Maluku";"MALUKU";"";"Indonesia";"";"";"";"-4.737805";"131.745717";"https://maps.google.com/?cid=0x0:0x455015039ed48829";""
"komplek housing";"Komplek perumahan";"Pondok Gede Housing II";"Housing II, Jl. Raya Hankam, RT.001/RW.004, Jatirahayu, Pondok Gede, Bekasi, West Java";"Kota Bks, Jawa Barat";"MALUKU";"";"Indonesia";"";"";"";"-6.2876701";"106.9147674";"https://maps.google.com/?cid=0x0:0x2a52e601c20d18f2";""
"komplek housing";"Komplek perumahan";"Pondok gede housing";"PW69+G7J, Jl. Teratai, RT.005/RW.003, Jatirahayu, Kec. Pd. Melati, Kota Bks, Jawa Barat 17414";"Jl. Teratai, RT.005/RW.003, Jatirahayu, Kec. Pd. Melati, Kota Bks";"MALUKU";"17414";"Indonesia";"";"";"";"-6.2886631";"106.9181392";"https://maps.google.com/?cid=0x0:0xe09247830c5049e9";""
"komplek housing";"Komplek perumahan";"Komplek KELUMUN";"X9VM+XR, Dai, Kec. Pulau Gorom, Kabupaten Seram Bagian Timur, Maluku";"Kabupaten Seram Bagian Timur, Maluku";"MALUKU";"";"Indonesia";"";"";"";"-4.0050547";"131.3845931";"https://maps.google.com/?cid=0x0:0x9367f513fa4d7d75";""
"komplek housing";"Komplek perumahan";"Kelbaun Complex";"X9WM+XHW, Ondor, Kec. Pulau Gorom, Kabupaten Seram Bagian Timur, Maluku";"Kabupaten Seram Bagian Timur, Maluku";"MALUKU";"";"Indonesia";"";"";"";"-4.0031855";"131.3843299";"https://maps.google.com/?cid=0x0:0x6e85e349e9186436";""
"komplek housing";"komplek housing";"Kec. Gorom Timur";"Kabupaten Seram Bagian Timur, Maluku";"Kabupaten Seram Bagian Timur, Maluku";"MALUKU";"";"Indonesia";"";"";"";"-3.9797121";"131.4112125";"https://maps.google.com/?cid=0x0:0xaee5fbc2b0124a41";""
"komplek housing";"Komplek perumahan";"Jalan protokol";"VFWQ+MH5, Jalan A. Tamaela, Bula, East Seram, Maluku";"Kabupaten Seram Bagian Timur, Maluku";"MALUKU";"";"Indonesia";"";"";"";"-3.1033701";"130.488969";"https://maps.google.com/?cid=0x0:0x656918ce8379ae27";""
"komplek housing";"Pembangunan Perumahan";"Bula";"VFXP+XRQ, Jl. Mufakat, Bula, Kec. Bula, Kabupaten Seram Bagian Timur, Maluku";"Kabupaten Seram Bagian Timur, Maluku";"MALUKU";"";"Indonesia";"";"";"";"-3.1000416";"130.487117";"https://maps.google.com/?cid=0x0:0x62ab4a59c61bd784";""
"komplek housing";"komplek housing";"Kec. Bula Barat";"Kabupaten Seram Bagian Timur, Maluku";"Kabupaten Seram Bagian Timur, Maluku";"MALUKU";"";"Indonesia";"";"";"";"-3.0472432";"130.1469398";"https://maps.google.com/?cid=0x0:0x12c29f15f276cac6";""
"komplek housing";"komplek housing";"Kian Darat";"Kiandarat, Kabupaten Seram Bagian Timur, Maluku";"Kabupaten Seram Bagian Timur, Maluku";"MALUKU";"";"Indonesia";"";"";"";"-3.6853452";"130.7867889";"https://maps.google.com/?cid=0x0:0x63cc3443f68b9180";""
"komplek housing";"komplek housing";"Komplek Housing";"Blok Bojong Nangka I, Jl. Ring Rudal Blok Bojong Nangka I No.68, RT.001/RW.007, Jatirahayu, Kec. Pd. Melati, Kota Bks, Jawa Barat 17414";"Jl. Ring Rudal Blok Bojong Nangka I No.68, RT.001/RW.007, Jatirahayu, Kec. Pd. Melati, Kota Bks";"MALUKU";"17414";"Indonesia";"";"";"";"-6.293724";"106.9165114";"https://maps.google.com/?cid=0x0:0x9c50464976dee674";""
"komplek housing";"Pondok pedesaan";"Suru, Kec. Siritaun Wida Timur., Kabupaten Seram Bagian Timur., Maluku";"6RMH+5H8, Suru, Kec. Lian Fitu, Kabupaten Seram Bagian Timur, Maluku";"Kabupaten Seram Bagian Timur, Maluku";"MALUKU";"";"Indonesia";" 081240763048";"";"";"-3.7670875";"130.8289531";"https://maps.google.com/?cid=0x0:0xcee7c0c43b3c0148";""
"komplek housing";"Komplek perumahan";"Desa suru";"6RMH+5H8, Kwaos, Kec. Seram Tim., Kabupaten Seram Bagian Timur, Maluku";"Kabupaten Seram Bagian Timur, Maluku";"MALUKU";"";"Indonesia";"";"";"";"-3.767303";"130.8279003";"https://maps.google.com/?cid=0x0:0x360110bb23225523";""
"komplek housing";"Taman";"Jainudin Rumaru";"6RMH+5H8, Suru, Kec. Lian Fitu, Kabupaten Seram Bagian Timur, Maluku";"Kabupaten Seram Bagian Timur, Maluku";"MALUKU";"";"Indonesia";"";"";"";"-3.7670875";"130.8289531";"https://maps.google.com/?cid=0x0:0xad87bd53d869c044";""
"komplek housing";"komplek housing";"Kec. Tlk. Waru";"Kabupaten Seram Bagian Timur, Maluku";"Kabupaten Seram Bagian Timur, Maluku";"MALUKU";"";"Indonesia";"";"";"";"-3.404276";"130.6715092";"https://maps.google.com/?cid=0x0:0x8093b034c7ac82";""
"komplek housing";"komplek housing";"Tlk. Waru";"Kec. Long Ikis, Kabupaten Paser, Kalimantan Timur";"Kabupaten Paser, Kalimantan Timur";"MALUKU";"";"Indonesia";"";"";"";"-1.6375156";"116.3308478";"https://maps.google.com/?cid=0x0:0x3a3c255a6c0eb58c";""
"perumahan";"perumahan";"Kec. Bula";"Kabupaten Seram Bagian Timur, Maluku";"Kabupaten Seram Bagian Timur, Maluku";"MALUKU";"";"Indonesia";"";"";"";"-3.1045002";"130.4880292";"https://maps.google.com/?cid=0x0:0x6befde0c8b8d88ed";""
"perumahan";"Komplek perumahan";"Fika";"WF65+H9Q, Bula, Kec. Bula, Kabupaten Seram Bagian Timur, Maluku";"Kabupaten Seram Bagian Timur, Maluku";"MALUKU";"";"Indonesia";"";"";"";"-3.0859133";"130.459167";"https://maps.google.com/?cid=0x0:0xceb25d59d6a42c28";""
"perumahan";"Pembangunan Perumahan";"Bula";"VFXP+XRQ, Jl. Mufakat, Bula, Kec. Bula, Kabupaten Seram Bagian Timur, Maluku";"Kabupaten Seram Bagian Timur, Maluku";"MALUKU";"";"Indonesia";"";"";"";"-3.1000416";"130.487117";"https://maps.google.com/?cid=0x0:0x62ab4a59c61bd784";""
"perumahan";"Toko Makanan Sehat";"SBT Indah";"WF3G+JRP, Bula, Kec. Bula, Kabupaten Seram Bagian Timur, Maluku";"Kabupaten Seram Bagian Timur, Maluku";"MALUKU";"";"Indonesia";"";"";"";"-3.0959136";"130.4770674";"https://maps.google.com/?cid=0x0:0x9714c7e5ade6cd22";""
"perumahan";"Komplek perumahan";"Rumah firman";"VFVR+RMM, Bula, Kec. Bula, Kabupaten Seram Bagian Timur, Maluku";"Kabupaten Seram Bagian Timur, Maluku";"MALUKU";"";"Indonesia";"";"";"";"-3.1054062";"130.4916606";"https://maps.google.com/?cid=0x0:0x454f8cf3cf14f42";""
"perumahan";"Gedung Apartemen";"Kontrakan ARIAS";"Jln. Damai, Lorong Damai II, Desa Jl. Wailola, Kabupaten Seram Bagian Timur, Maluku 97555";"Lorong Damai II, Desa Jl. Wailola, Kabupaten Seram Bagian Timur";"MALUKU";"97555";"Indonesia";" 085328450465";"";"";"-3.0938139";"130.4782366";"https://maps.google.com/?cid=0x0:0xa25f1ee05351c567";""
"perumahan";"Komplek perumahan";"Rumah Om Guru Mar";"WF4H+M46, Bula, Kec. Bula, Kabupaten Seram Bagian Timur, Maluku";"Kabupaten Seram Bagian Timur, Maluku";"MALUKU";"";"Indonesia";"";"";"";"-3.0933479";"130.4777718";"https://maps.google.com/?cid=0x0:0xe3627fdd4d8c4096";""
"perumahan";"Komplek perumahan";"Base task";"WF79+J57, Jl. Wailola, Bula, Kec. Bula, Kabupaten Seram Bagian Timur, Maluku";"Kabupaten Seram Bagian Timur, Maluku";"MALUKU";"";"Indonesia";"";"";"";"-3.0859745";"130.4679208";"https://maps.google.com/?cid=0x0:0xb5dae4a945eb7cf8";""
"perumahan";"Komplek perumahan";"FM Pro Atamari";"VFWQ+2P9, Jl. A. Tamaela, Bula, Kec. Bula, Kabupaten Seram Bagian Timur, Maluku";"Kabupaten Seram Bagian Timur, Maluku";"MALUKU";"";"Indonesia";"";"";"";"-3.104955";"130.4893717";"https://maps.google.com/?cid=0x0:0xe06e257f8488159f";""
"perumahan";"Komplek perumahan";"Adun komplek";"VFXQ+J7R, Bula, Kec. Bula, Kabupaten Seram Bagian Timur, Maluku";"Kabupaten Seram Bagian Timur, Maluku";"MALUKU";"";"Indonesia";"";"";"";"-3.1008986";"130.4881371";"https://maps.google.com/?cid=0x0:0x7e22cf3d280084d3";""
"perumahan";"perumahan";"Rumah Alina Rumaisa";"VFWQ+668, JL. AIRPORT DESA TANSI AMBON, Kec. Bula";"Kabupaten Seram Bagian Timur, Maluku";"MALUKU";"";"Indonesia";"";"";"";"-3.104452";"130.488088";"https://maps.google.com/?cid=0x0:0xe82c74425b1a1a06";""
"perumahan";"Kompleks Kondominium";"Rumah Tinggal";"VFWV+9H3, Bula, Kec. Bula, Kabupaten Seram Bagian Timur, Maluku";"Kabupaten Seram Bagian Timur, Maluku";"MALUKU";"";"Indonesia";"";"";"";"-3.1041177";"130.4939264";"https://maps.google.com/?cid=0x0:0xa0fd60470a678574";""
"perumahan";"Pembangunan Perumahan";"Desa sesar";"WFP3+6H2, Bula, Kec. Bula, Kabupaten Seram Bagian Timur, Maluku";"Kabupaten Seram Bagian Timur, Maluku";"MALUKU";"";"Indonesia";"";"";"";"-3.0644223";"130.4539484";"https://maps.google.com/?cid=0x0:0xd5861a8501791c38";""
"perumahan";"Komplek perumahan";"Posal Bula";"VFXQ+5RF, Jl. Wailola, Bula, Kec. Bula, Kabupaten Seram Bagian Timur, Maluku";"Kabupaten Seram Bagian Timur, Maluku";"MALUKU";"";"Indonesia";"";"";"";"-3.1019499";"130.4897294";"https://maps.google.com/?cid=0x0:0xe83fada5dcd5c154";""
"perumahan";"Komplek perumahan";"R.veerhan";"WF8F+2R2, Bula, Kec. Bula, Kabupaten Seram Bagian Timur, Maluku";"Kabupaten Seram Bagian Timur, Maluku";"MALUKU";"";"Indonesia";"";"";"";"-3.0850254";"130.474543";"https://maps.google.com/?cid=0x0:0x52a5059c1a47ffd";""
"perumahan";"Komplek perumahan";"Nofel Alkatiri";"Jl.gisa No.123, Bula, Kec. Bula, Kabupaten Seram Bagian Timur, Maluku 97555";"Bula, Kec. Bula, Kabupaten Seram Bagian Timur";"MALUKU";"97555";"Indonesia";" 081228123486";"";"";"-3.1016934";"130.4789398";"https://maps.google.com/?cid=0x0:0xf21045f47dfa8f39";""
"perumahan";"Pembangunan Perumahan";"Rumah wahidah Aineka";"WF58+W6H, Bula, Kec. Bula, Kabupaten Seram Bagian Timur, Maluku";"Kabupaten Seram Bagian Timur, Maluku";"MALUKU";"";"Indonesia";"";"";"";"-3.0901946";"130.4656013";"https://maps.google.com/?cid=0x0:0xe3ddc4a2308b0faf";""
"perumahan";"Komplek perumahan";"Zaky Rumah";"WF69+22Q, Bula, Kec. Bula, Kabupaten Seram Bagian Timur, Maluku";"Kabupaten Seram Bagian Timur, Maluku";"MALUKU";"";"Indonesia";"";"";"";"-3.089905";"130.4676065";"https://maps.google.com/?cid=0x0:0x4a88869a35576a8a";""
"perumahan";"Komplek perumahan";"RMH KELUARGA IRIYANTO RUMODAR";"VFVQ+6Q7, Bula, Kec. Bula, Kabupaten Seram Bagian Timur, Maluku";"Kabupaten Seram Bagian Timur, Maluku";"MALUKU";"";"Indonesia";"";"";"";"-3.1069489";"130.4894418";"https://maps.google.com/?cid=0x0:0xc2b2f765903162ef";""
"perumahan";"Kantor Pemerintah";"Desa bula kabupaten seram bagian timur";"VFWQ+97W, Jl. A.R Unawekla, Bula, Kec. Bula, Kabupaten Seram Bagian Timur, Maluku 97555";"Jl. A.R Unawekla, Bula, Kec. Bula, Kabupaten Seram Bagian Timur";"MALUKU";"97555";"Indonesia";"";"";"";"-3.1040082";"130.4881991";"https://maps.google.com/?cid=0x0:0x90959f4d252b0e20";""
"perumahan";"Pembangunan Perumahan";"Rumah Fahmi Saimima";"WF4H+CXF, Jl. Adhyaksa, Bula, Kec. Bula, Kabupaten Seram Bagian Timur, Maluku";"Kabupaten Seram Bagian Timur, Maluku";"MALUKU";"";"Indonesia";"";"";"";"-3.0929503";"130.479636";"https://maps.google.com/?cid=0x0:0xdba19d15d39e71a4";""
"perumahan";"Komplek perumahan";"bula";"V9F2+RCP, Amarsekaru, Kec. Pulau Gorom, Kabupaten Seram Bagian Timur, Maluku";"Kabupaten Seram Bagian Timur, Maluku";"MALUKU";"";"Indonesia";"";"";"";"-4.1254105";"131.3510866";"https://maps.google.com/?cid=0x0:0xa88b1cac1186e42c";""
"perumahan";"perumahan";"Kec. Bula";"Kabupaten Seram Bagian Timur, Maluku";"Kabupaten Seram Bagian Timur, Maluku";"MALUKU";"";"Indonesia";"";"";"";"-3.1045002";"130.4880292";"https://maps.google.com/?cid=0x0:0x6befde0c8b8d88ed";""
"perumahan";"Komplek perumahan";"Fika";"WF65+H9Q, Bula, Kec. Bula, Kabupaten Seram Bagian Timur, Maluku";"Kabupaten Seram Bagian Timur, Maluku";"MALUKU";"";"Indonesia";"";"";"";"-3.0859133";"130.459167";"https://maps.google.com/?cid=0x0:0xceb25d59d6a42c28";""
"perumahan";"Pembangunan Perumahan";"Awan Bula";"VFVV+8GV, Jl. Klp. Dua, Bula, Kec. Bula, Kabupaten Seram Bagian Timur, Maluku";"Kabupaten Seram Bagian Timur, Maluku";"MALUKU";"";"Indonesia";"";"";"";"-3.1066315";"130.4937926";"https://maps.google.com/?cid=0x0:0xd22db347635fd215";""
"perumahan";"Komplek perumahan";"Rumah firman";"VFVR+RMM, Bula, Kec. Bula, Kabupaten Seram Bagian Timur, Maluku";"Kabupaten Seram Bagian Timur, Maluku";"MALUKU";"";"Indonesia";"";"";"";"-3.1054062";"130.4916606";"https://maps.google.com/?cid=0x0:0x454f8cf3cf14f42";""
"perumahan";"Toko Makanan Sehat";"SBT Indah";"WF3G+JRP, Bula, Kec. Bula, Kabupaten Seram Bagian Timur, Maluku";"Kabupaten Seram Bagian Timur, Maluku";"MALUKU";"";"Indonesia";"";"";"";"-3.0959136";"130.4770674";"https://maps.google.com/?cid=0x0:0x9714c7e5ade6cd22";""
"perumahan";"Gedung Apartemen";"Kontrakan ARIAS";"Jln. Damai, Lorong Damai II, Desa Jl. Wailola, Kabupaten Seram Bagian Timur, Maluku 97555";"Lorong Damai II, Desa Jl. Wailola, Kabupaten Seram Bagian Timur";"MALUKU";"97555";"Indonesia";" 085328450465";"";"";"-3.0938139";"130.4782366";"https://maps.google.com/?cid=0x0:0xa25f1ee05351c567";""
"perumahan";"Komplek perumahan";"Adun komplek";"VFXQ+J7R, Bula, Kec. Bula, Kabupaten Seram Bagian Timur, Maluku";"Kabupaten Seram Bagian Timur, Maluku";"MALUKU";"";"Indonesia";"";"";"";"-3.1008986";"130.4881371";"https://maps.google.com/?cid=0x0:0x7e22cf3d280084d3";""
"perumahan";"Komplek perumahan";"Rumah Om Guru Mar";"WF4H+M46, Bula, Kec. Bula, Kabupaten Seram Bagian Timur, Maluku";"Kabupaten Seram Bagian Timur, Maluku";"MALUKU";"";"Indonesia";"";"";"";"-3.0933479";"130.4777718";"https://maps.google.com/?cid=0x0:0xe3627fdd4d8c4096";""
"perumahan";"Komplek perumahan";"Nofel Alkatiri";"Jl.gisa No.123, Bula, Kec. Bula, Kabupaten Seram Bagian Timur, Maluku 97555";"Bula, Kec. Bula, Kabupaten Seram Bagian Timur";"MALUKU";"97555";"Indonesia";" 081228123486";"";"";"-3.1016934";"130.4789398";"https://maps.google.com/?cid=0x0:0xf21045f47dfa8f39";""
"perumahan";"perumahan";"Rumah Alina Rumaisa";"VFWQ+668, JL. AIRPORT DESA TANSI AMBON, Kec. Bula";"Kabupaten Seram Bagian Timur, Maluku";"MALUKU";"";"Indonesia";"";"";"";"-3.104452";"130.488088";"https://maps.google.com/?cid=0x0:0xe82c74425b1a1a06";""
"perumahan";"Komplek perumahan";"Posal Bula";"VFXQ+5RF, Jl. Wailola, Bula, Kec. Bula, Kabupaten Seram Bagian Timur, Maluku";"Kabupaten Seram Bagian Timur, Maluku";"MALUKU";"";"Indonesia";"";"";"";"-3.1019499";"130.4897294";"https://maps.google.com/?cid=0x0:0xe83fada5dcd5c154";""
"perumahan";"Kantor Pemerintah";"Desa bula kabupaten seram bagian timur";"VFWQ+97W, Jl. A.R Unawekla, Bula, Kec. Bula, Kabupaten Seram Bagian Timur, Maluku 97555";"Jl. A.R Unawekla, Bula, Kec. Bula, Kabupaten Seram Bagian Timur";"MALUKU";"97555";"Indonesia";"";"";"";"-3.1040082";"130.4881991";"https://maps.google.com/?cid=0x0:0x90959f4d252b0e20";""
"perumahan";"Kompleks Kondominium";"Rumah Tinggal";"VFWV+9H3, Bula, Kec. Bula, Kabupaten Seram Bagian Timur, Maluku";"Kabupaten Seram Bagian Timur, Maluku";"MALUKU";"";"Indonesia";"";"";"";"-3.1041177";"130.4939264";"https://maps.google.com/?cid=0x0:0xa0fd60470a678574";""
"perumahan";"perumahan";"Intan home bula";"WF78+8F4, Kampung Jawa Jl. Wailola, Bula, Kec. Bula, Kabupaten Seram Bagian Timur, Maluku";"Kabupaten Seram Bagian Timur, Maluku";"MALUKU";"";"Indonesia";"";"";"";"-3.0867462";"130.4662185";"https://maps.google.com/?cid=0x0:0x29d148019a9cd945";""
"perumahan";"Komplek perumahan";"FM Pro Atamari";"VFWQ+2P9, Jl. A. Tamaela, Bula, Kec. Bula, Kabupaten Seram Bagian Timur, Maluku";"Kabupaten Seram Bagian Timur, Maluku";"MALUKU";"";"Indonesia";"";"";"";"-3.104955";"130.4893717";"https://maps.google.com/?cid=0x0:0xe06e257f8488159f";""
"perumahan";"Komplek perumahan";"Villa CJ";"WF5F+P78, Bula, Kec. Bula, Kabupaten Seram Bagian Timur, Maluku";"Kabupaten Seram Bagian Timur, Maluku";"MALUKU";"";"Indonesia";"";"";"";"-3.0903891";"130.4736006";"https://maps.google.com/?cid=0x0:0x743c2b7fdda4fddf";""
"perumahan";"Komplek perumahan";"RMH KELUARGA IRIYANTO RUMODAR";"VFVQ+6Q7, Bula, Kec. Bula, Kabupaten Seram Bagian Timur, Maluku";"Kabupaten Seram Bagian Timur, Maluku";"MALUKU";"";"Indonesia";"";"";"";"-3.1069489";"130.4894418";"https://maps.google.com/?cid=0x0:0xc2b2f765903162ef";""
"perumahan";"Pembangunan Perumahan";"Rumah Fahmi Saimima";"WF4H+CXF, Jl. Adhyaksa, Bula, Kec. Bula, Kabupaten Seram Bagian Timur, Maluku";"Kabupaten Seram Bagian Timur, Maluku";"MALUKU";"";"Indonesia";"";"";"";"-3.0929503";"130.479636";"https://maps.google.com/?cid=0x0:0xdba19d15d39e71a4";""
"perumahan";"Pembangunan Perumahan";"Rumah wahidah Aineka";"WF58+W6H, Bula, Kec. Bula, Kabupaten Seram Bagian Timur, Maluku";"Kabupaten Seram Bagian Timur, Maluku";"MALUKU";"";"Indonesia";"";"";"";"-3.0901946";"130.4656013";"https://maps.google.com/?cid=0x0:0xe3ddc4a2308b0faf";""
"perumahan";"Komplek perumahan";"R.veerhan";"WF8F+2R2, Bula, Kec. Bula, Kabupaten Seram Bagian Timur, Maluku";"Kabupaten Seram Bagian Timur, Maluku";"MALUKU";"";"Indonesia";"";"";"";"-3.0850254";"130.474543";"https://maps.google.com/?cid=0x0:0x52a5059c1a47ffd";""
"perumahan";"Komplek perumahan";"Zaky Rumah";"WF69+22Q, Bula, Kec. Bula, Kabupaten Seram Bagian Timur, Maluku";"Kabupaten Seram Bagian Timur, Maluku";"MALUKU";"";"Indonesia";"";"";"";"-3.089905";"130.4676065";"https://maps.google.com/?cid=0x0:0x4a88869a35576a8a";""
"perumahan";"Komplek perumahan";"bula";"V9F2+RCP, Amarsekaru, Kec. Pulau Gorom, Kabupaten Seram Bagian Timur, Maluku";"Kabupaten Seram Bagian Timur, Maluku";"MALUKU";"";"Indonesia";"";"";"";"-4.1254105";"131.3510866";"https://maps.google.com/?cid=0x0:0xa88b1cac1186e42c";""
"perumahan";"Pembangunan Perumahan";"BULA";"HPQ7+976, Akedotilou, Kec. Oba Tengah, Kota Tidore Kepulauan, Maluku Utara";"Kota Tidore Kepulauan, Maluku Utara";"MALUKU";"";"Indonesia";"";"";"";"0.5884012";"127.7131353";"https://maps.google.com/?cid=0x0:0x4a4de6cee29e12b0";""
"perumahan";"perumahan";"Kec. Seram Tim.";"Kabupaten Seram Bagian Timur, Maluku";"Kabupaten Seram Bagian Timur, Maluku";"MALUKU";"";"Indonesia";"";"";"";"-3.8324657";"130.8204099";"https://maps.google.com/?cid=0x0:0x70947c7ca6669763";""
"perumahan";"Pembangunan Perumahan";"Dusun Birit, Desa Kwaos";"5RPF+R4Q, Kwaos, Kec. Seram Tim., Kabupaten Seram Bagian Timur, Maluku";"Kabupaten Seram Bagian Timur, Maluku";"MALUKU";"";"Indonesia";"";"";"";"-3.8129055";"130.8228604";"https://maps.google.com/?cid=0x0:0xbc4468635ab0b884";""
"perumahan";"Komplek perumahan";"Kompleks Jalan Baru";"4VJ6+26, Keffing, Kabupaten Seram Bagian Timur, Maluku";"Kabupaten Seram Bagian Timur, Maluku";"MALUKU";"";"Indonesia";"";"";"";"-3.8699375";"130.8605625";"https://maps.google.com/?cid=0x0:0x8f0cca87e6ac3cf9";""
"perumahan";"Komplek perumahan";"RUMAH DATU DAN NENE MA KELIAN";"4WC6+JJ, Kilwaru, Kec. Seram Tim., Kabupaten Seram Bagian Timur, Maluku";"Kabupaten Seram Bagian Timur, Maluku";"MALUKU";"";"Indonesia";"";"";"";"-3.8784549";"130.9116094";"https://maps.google.com/?cid=0x0:0xa2ae93598b9f1a22";""
"perumahan";"Balai masyarakat";"Desa Undur";"6J97+52, Kilmury, Kec. Seram Tim., Kabupaten Seram Bagian Timur, Maluku";"Kabupaten Seram Bagian Timur, Maluku";"MALUKU";"";"Indonesia";"";"";"";"-3.7811148";"130.612179";"https://maps.google.com/?cid=0x0:0xab3eac7a9aa252c4";""
"perumahan";"Komplek perumahan";"Dusun Wolok";"6JP5+X3Q, Kilmury, Kec. Seram Tim., Kabupaten Seram Bagian Timur, Maluku";"Kabupaten Seram Bagian Timur, Maluku";"MALUKU";"";"Indonesia";"";"";"";"-3.7625285";"130.6077432";"https://maps.google.com/?cid=0x0:0x6d9c2c451037e57a";""
"perumahan";"perumahan";"Belakang soya";"4RP3+F4C, Urung, Kec. Seram Tim., Kabupaten Seram Bagian Timur, Maluku";"Kabupaten Seram Bagian Timur, Maluku";"MALUKU";"";"Indonesia";"";"";"";"-3.8634809";"130.8030778";"https://maps.google.com/?cid=0x0:0x6afd596f49bf80c6";""
"perumahan";"Komplek perumahan";"Desa kiltai";"4WF6+88M, Kiltai, Kec. Seram Tim., Kabupaten Seram Bagian Timur, Maluku";"Kabupaten Seram Bagian Timur, Maluku";"MALUKU";"";"Indonesia";"";"";"";"-3.8766569";"130.9107841";"https://maps.google.com/?cid=0x0:0x47906ec175b2032";""
"perumahan";"Pembangunan Perumahan";"Keffing Kota";"4VP8+389, Keffing, Kec. Seram Tim., Kabupaten Seram Bagian Timur, Maluku";"Kabupaten Seram Bagian Timur, Maluku";"MALUKU";"";"Indonesia";"";"";"";"-3.8648304";"130.8658508";"https://maps.google.com/?cid=0x0:0x71880f9dc3493cda";""
"perumahan";"Pembangunan Perumahan";"Desa taa";"6HXW+398, Kilmury, Kec. Seram Tim., Kabupaten Seram Bagian Timur, Maluku";"Kabupaten Seram Bagian Timur, Maluku";"MALUKU";"";"Indonesia";"";"";"";"-3.7523364";"130.5959687";"https://maps.google.com/?cid=0x0:0x87345891860d9d00";""
"perumahan";"perumahan";"My Home";"5Q3H+2H6, Urung, Kec. Seram Tim., Kabupaten Seram Bagian Timur, Maluku";"Kabupaten Seram Bagian Timur, Maluku";"MALUKU";"";"Indonesia";"";"";"";"-3.8471588";"130.7797429";"https://maps.google.com/?cid=0x0:0x7eaa0882920a9e97";""
"perumahan";"Perhimpunan Pengembang Perumahan";"Negeri Kiltay";"4WF6+C85, Kiltai, Kec. Seram Tim., Kabupaten Seram Bagian Timur, Maluku";"Kabupaten Seram Bagian Timur, Maluku";"MALUKU";"";"Indonesia";"";"";"";"-3.8764947";"130.9108739";"https://maps.google.com/?cid=0x0:0x568e2a0764705c7d";""
"perumahan";"perumahan";"Rumah Sukri";"4X93+XRG, Kilwaru, Kec. Seram Tim., Kabupaten Seram Bagian Timur, Maluku";"Kabupaten Seram Bagian Timur, Maluku";"MALUKU";"";"Indonesia";"";"";"";"-3.8800552";"130.9545737";"https://maps.google.com/?cid=0x0:0xd837a61dc5f4e028";""
"perumahan";"Komplek perumahan";"Keluarga aldi rumadan";"5R9C+257, Urung, Kec. Seram Tim., Kabupaten Seram Bagian Timur, Maluku";"Kabupaten Seram Bagian Timur, Maluku";"MALUKU";"";"Indonesia";"";"";"";"-3.8319058";"130.8205424";"https://maps.google.com/?cid=0x0:0xf412d8e3f11a7338";""
"perumahan";"Kantor Pemerintah";"AINENA";"5PCX+W64, Urung, Kec. Seram Tim., Kabupaten Seram Bagian Timur, Maluku";"Kabupaten Seram Bagian Timur, Maluku";"MALUKU";"";"Indonesia";"";"";"";"-3.8277493";"130.7480828";"https://maps.google.com/?cid=0x0:0x8890ac28b34bc09f";""
"perumahan";"Pembangunan Perumahan";"Rumah Dinas Cabang Kejaksaan Negeri Seram Bagian Timur di Geser";"4VCW+FWF, Geser, Kec. Seram Tim., Kabupaten Seram Bagian Timur, Maluku";"Kabupaten Seram Bagian Timur, Maluku";"MALUKU";"";"Indonesia";"";"";"";"-3.8794046";"130.8974859";"https://maps.google.com/?cid=0x0:0x542acb52a2d9e940";""
"perumahan";"Komplek perumahan";"Rumah andi kelian";"4W92+X3G, Geser, Kec. Seram Tim., Kabupaten Seram Bagian Timur, Maluku";"Kabupaten Seram Bagian Timur, Maluku";"MALUKU";"";"Indonesia";"";"";"";"-3.8794906";"130.8998305";"https://maps.google.com/?cid=0x0:0xfb6886bf8afe15bc";""
"perumahan";"Masjid";"KILBON TEWA";"7FXH+Q8M, Kilmury, Kec. Seram Tim., Kabupaten Seram Bagian Timur, Maluku";"Kabupaten Seram Bagian Timur, Maluku";"MALUKU";"";"Indonesia";"";"";"";"-3.7005256";"130.4782864";"https://maps.google.com/?cid=0x0:0x63cf702fa6e438d1";""
"perumahan";"Perhimpunan Pengembang Perumahan";"Jamal letsoen";"4W5V+7C, Kilwaru, Kec. Seram Tim., Kabupaten Seram Bagian Timur, Maluku";"Kabupaten Seram Bagian Timur, Maluku";"MALUKU";"";"Indonesia";"";"";"";"-3.8917546";"130.9435726";"https://maps.google.com/?cid=0x0:0x4c630340805ce3ff";""
"perumahan";"Komplek perumahan";"Rumah raja geser";"Geser, Kec. Seram Tim., Kabupaten Seram Bagian Timur, Maluku";"Kabupaten Seram Bagian Timur, Maluku";"MALUKU";"";"Indonesia";"";"";"";"-3.878581";"130.9003537";"https://maps.google.com/?cid=0x0:0x8df696f1a3d80c2f";""
"perumahan";"Komplek perumahan";"Bati";"CR8Q+RQ, Kilbat, Kec. Tutuk Tolu, Kabupaten Seram Bagian Timur, Maluku";"Kabupaten Seram Bagian Timur, Maluku";"MALUKU";"";"Indonesia";"";"";"";"-3.582999";"130.8394449";"https://maps.google.com/?cid=0x0:0x60813c4d074f0364";""
"perumahan";"Kantor Pemerintah";"Desa";"CVX5+PGG, Sesar, Kec. Tutuk Tolu, Kabupaten Seram Bagian Timur, Maluku";"Kabupaten Seram Bagian Timur, Maluku";"MALUKU";"";"Indonesia";"";"";"";"-3.5506875";"130.8588281";"https://maps.google.com/?cid=0x0:0xd66d255a5ff20215";""
"perumahan";"Pembangunan Perumahan";"Kompleks kelapa 2";"8R2C+MMQ, Kian Laut, Kec. Lian Fitu, Kabupaten Seram Bagian Timur, Maluku";"Kabupaten Seram Bagian Timur, Maluku";"MALUKU";"";"Indonesia";"";"";"";"-3.6982978";"130.8217497";"https://maps.google.com/?cid=0x0:0x73cf0095877c31d1";""
"perumahan";"Pondok pedesaan";"Suru, Kec. Siritaun Wida Timur., Kabupaten Seram Bagian Timur., Maluku";"6RMH+5H8, Suru, Kec. Lian Fitu, Kabupaten Seram Bagian Timur, Maluku";"Kabupaten Seram Bagian Timur, Maluku";"MALUKU";"";"Indonesia";" 081240763048";"";"";"-3.7670875";"130.8289531";"https://maps.google.com/?cid=0x0:0xcee7c0c43b3c0148";""
"perumahan";"Komplek perumahan";"Negeri kilbat";"CVR7+RW7, Negeri, Kilbat, Kec. Tutuk Tolu, Kabupaten Seram Bagian Timur, Maluku";"Kabupaten Seram Bagian Timur, Maluku";"MALUKU";"";"Indonesia";"";"";"";"-3.5579708";"130.8648083";"https://maps.google.com/?cid=0x0:0x7731dcac881156e";""
"perumahan";"Pembangunan Perumahan";"KELABA";"9V72+6JP, Kelaba, Kiandarat, Kabupaten Seram Bagian Timur, Maluku";"Kabupaten Seram Bagian Timur, Maluku";"MALUKU";"";"Indonesia";"";"";"";"-3.6369052";"130.8515882";"https://maps.google.com/?cid=0x0:0xe9c6144654b8cc06";""
"perumahan";"Pembangunan Perumahan";"Kampung nama";"7RGH+J3G, Kian Laut, Kec. Seram Tim., Kabupaten Seram Bagian Timur, Maluku";"Kabupaten Seram Bagian Timur, Maluku";"MALUKU";"";"Indonesia";"";"";"";"-3.7234345";"130.8276878";"https://maps.google.com/?cid=0x0:0x5e576fb23304a25a";""
"perumahan";"Perumahan";"Kilga";"Kiandarat, Kian Darat, Kabupaten Seram Bagian Timur, Maluku";"Kabupaten Seram Bagian Timur, Maluku";"MALUKU";"";"Indonesia";"";"";"";"-3.6853452";"130.7867889";"https://maps.google.com/?cid=0x0:0x7c59cd733dfd3479";""
"perumahan";"Pembangunan Perumahan";"Kompleks Tanjakan Eden";"RGH4+PCR, Rambatu, Kec. Inamosol, Kabupaten Seram Bagian Barat, Maluku";"Kabupaten Seram Bagian Barat, Maluku";"MALUKU";"";"Indonesia";"";"";"";"-3.1706451";"128.5060147";"https://maps.google.com/?cid=0x0:0xefc3315ef278da9f";""
"perumahan";"perumahan";"Werinama";"Kabupaten Seram Bagian Timur, Maluku";"Kabupaten Seram Bagian Timur, Maluku";"MALUKU";"";"Indonesia";"";"";"";"-3.4233267";"130.2271243";"https://maps.google.com/?cid=0x0:0x5d34ed8352394a25";""
"perumahan";"Pembangunan Perumahan";"Maluku";"Q46W+J46, Atiahu, Werinama, Kabupaten Seram Bagian Timur, Maluku";"Kabupaten Seram Bagian Timur, Maluku";"MALUKU";"";"Indonesia";"";"";"";"-3.2384616";"130.1452734";"https://maps.google.com/?cid=0x0:0x4626ced6dd1ccc6e";""
"perumahan";"Komplek perumahan";"Suely kompleks";"GXWW+HCF, Werinama, Kabupaten Seram Bagian Timur, Maluku";"Kabupaten Seram Bagian Timur, Maluku";"MALUKU";"";"Indonesia";"";"";"";"-3.4534971";"129.9958191";"https://maps.google.com/?cid=0x0:0x1601e0573a34fd39";""
"perumahan";"Kompleks Apartemen";"Kompleks Namaranja,";"GXVW+HV4, Werinama, Kabupaten Seram Bagian Timur, Maluku";"Kabupaten Seram Bagian Timur, Maluku";"MALUKU";"";"Indonesia";"";"";"";"-3.4561032";"129.9972107";"https://maps.google.com/?cid=0x0:0x8d90cf1f07a0ec27";""
"perumahan";"Komplek perumahan";"Rizky silawane";"GXVW+XRW, Jl. Propinsi, Bemo, Werinama, Kabupaten Seram Bagian Timur, Maluku";"Kabupaten Seram Bagian Timur, Maluku";"MALUKU";"";"Indonesia";"";"";"";"-3.4550131";"129.9970854";"https://maps.google.com/?cid=0x0:0x92bfa5ac21afb54c";""
"perumahan";"Komplek perumahan";"Rumah OTES";"MV7W+777, Polin, Werinama, Kabupaten Seram Bagian Timur, Maluku";"Kabupaten Seram Bagian Timur, Maluku";"MALUKU";"";"Indonesia";"";"";"";"-3.336833";"129.8956613";"https://maps.google.com/?cid=0x0:0x7c94b81045ff43cc";""
"perumahan";"Pembangunan Perumahan";"Waipia";"Q46W+J46, Atiahu, Werinama, Kabupaten Seram Bagian Timur, Maluku";"Kabupaten Seram Bagian Timur, Maluku";"MALUKU";"";"Indonesia";"";"";"";"-3.2384616";"130.1452734";"https://maps.google.com/?cid=0x0:0x291eea07d27cdf9c";""
"perumahan";"Komplek perumahan";"Wai baru kompleks";"GXWV+QW9, Werinama, Kabupaten Seram Bagian Timur, Maluku";"Kabupaten Seram Bagian Timur, Maluku";"MALUKU";"";"Indonesia";"";"";"";"-3.4528659";"129.9961768";"https://maps.google.com/?cid=0x0:0x6a871809326bce14";""
"perumahan";"Kompleks Apartemen";"Kamteng, werinama";"GXWW+3MG, Werinama, Kabupaten Seram Bagian Timur, Maluku";"Kabupaten Seram Bagian Timur, Maluku";"MALUKU";"";"Indonesia";"";"";"";"-3.4548125";"129.9967031";"https://maps.google.com/?cid=0x0:0x1fa681ae0ad44c9e";""
"perumahan";"Komplek perumahan";"El";"GXVX+66Q, Jl. Propinsi, kotarumby, Werinama, Kabupaten Seram Bagian Timur, Maluku";"Kabupaten Seram Bagian Timur, Maluku";"MALUKU";"";"Indonesia";"";"";"";"-3.4571868";"129.9982954";"https://maps.google.com/?cid=0x0:0xcbf36b359e88cdd";""
"perumahan";"Pembangunan Perumahan";"Rumah munifa";"Q46W+J46, Atiahu, Werinama, Kabupaten Seram Bagian Timur, Maluku";"Kabupaten Seram Bagian Timur, Maluku";"MALUKU";"";"Indonesia";"";"";"";"-3.2384616";"130.1452734";"https://maps.google.com/?cid=0x0:0xa1cefd16f8d13592";""
"perumahan";"Pembangunan Perumahan";"Kampung Naiaba";"J47X+Q9, Werinama, Kabupaten Seram Bagian Timur, Maluku";"Kabupaten Seram Bagian Timur, Maluku";"MALUKU";"";"Indonesia";"";"";"";"-3.3855298";"130.1484327";"https://maps.google.com/?cid=0x0:0xdec8c5ab08581429";""
"perumahan";"Komplek perumahan";"Kompleks Kotalalan";"GXVX+637, Werinama, Kabupaten Seram Bagian Timur, Maluku";"Kabupaten Seram Bagian Timur, Maluku";"MALUKU";"";"Indonesia";"";"";"";"-3.4567753";"129.9978242";"https://maps.google.com/?cid=0x0:0x71d3dacbd9061b74";""
"perumahan";"Komplek perumahan";"Waheru nania";"Q46W+J46, Atiahu, Werinama, Kabupaten Seram Bagian Timur, Maluku";"Kabupaten Seram Bagian Timur, Maluku";"MALUKU";"";"Indonesia";"";"";"";"-3.2384616";"130.1452734";"https://maps.google.com/?cid=0x0:0xbba7536d2723275d";""
"perumahan";"Komplek perumahan";"Namalalat";"G26X+5X, Werinama, Kabupaten Seram Bagian Timur, Maluku";"Kabupaten Seram Bagian Timur, Maluku";"MALUKU";"";"Indonesia";"";"";"";"-3.4895799";"130.0499836";"https://maps.google.com/?cid=0x0:0xee2f069b9b6ea79b";""
"perumahan";"Komplek perumahan";"elmiii";"GXWW+HCF, Werinama, Kabupaten Seram Bagian Timur, Maluku";"Kabupaten Seram Bagian Timur, Maluku";"MALUKU";"";"Indonesia";"";"";"";"-3.4535744";"129.9957446";"https://maps.google.com/?cid=0x0:0xdfce276f9a4b8457";""
"perumahan";"Komplek perumahan";"Mex";"GXWV+QW9, Werinama, Kabupaten Seram Bagian Timur, Maluku";"Kabupaten Seram Bagian Timur, Maluku";"MALUKU";"";"Indonesia";"";"";"";"-3.452028";"129.995835";"https://maps.google.com/?cid=0x0:0x45e1635b2c6a6fa5";""
"perumahan";"Komplek perumahan";"Win madaul";"C6W3+GJH, Batuasa, Werinama, Kabupaten Seram Bagian Timur, Maluku";"Kabupaten Seram Bagian Timur, Maluku";"MALUKU";"";"Indonesia";"";"";"";"-3.5536841";"130.2041067";"https://maps.google.com/?cid=0x0:0xd878ee9d4a3ea7ef";""
"perumahan";"perumahan";"Markaz Billahmar";"JXP6+2RQ, Atiahu, Werinama, Kabupaten Seram Bagian Timur, Maluku";"Kabupaten Seram Bagian Timur, Maluku";"MALUKU";"";"Indonesia";"";"";"";"-3.3640059";"129.9619173";"https://maps.google.com/?cid=0x0:0x20ad944f45dc7d5";""
"perumahan";"Komplek perumahan";"Tete aka pung ruma";"GXWW+4Q, Werinama, Kabupaten Seram Bagian Timur, Maluku";"Kabupaten Seram Bagian Timur, Maluku";"MALUKU";"";"Indonesia";"";"";"";"-3.4544947";"129.9973526";"https://maps.google.com/?cid=0x0:0x94634b0d1356cec1";""
"perumahan";"Pembangunan Perumahan";"Sp dua";"Q46W+J46, Atiahu, Werinama, Kabupaten Seram Bagian Timur, Maluku";"Kabupaten Seram Bagian Timur, Maluku";"MALUKU";"";"Indonesia";"";"";"";"-3.2384616";"130.1452734";"https://maps.google.com/?cid=0x0:0xda660771c427781a";""
"perumahan";"Komplek perumahan";"de Fretes";"GXRX+QRF, Werinama, Kabupaten Seram Bagian Timur, Maluku";"Kabupaten Seram Bagian Timur, Maluku";"MALUKU";"";"Indonesia";"";"";"";"-3.4580692";"129.999551";"https://maps.google.com/?cid=0x0:0xa6f9ec9879a5d556";""
"perumahan";"perumahan";"Pulau Gorong";"Kabupaten Seram Bagian Timur, Maluku";"Kabupaten Seram Bagian Timur, Maluku";"MALUKU";"";"Indonesia";"";"";"";"-4.011202";"131.4112125";"https://maps.google.com/?cid=0x0:0x3b60b40247d61e16";""
"perumahan";"Pembangunan Perumahan";"Kelibingan Gorom Maluku";"XC24+4P9, Kelibingan, Kec. Gorom Timur, Kabupaten Seram Bagian Timur, Maluku";"Kabupaten Seram Bagian Timur, Maluku";"MALUKU";"";"Indonesia";" 081218415359";"";"";"-4.0497246";"131.4068628";"https://maps.google.com/?cid=0x0:0x96115553826e48e5";""
"perumahan";"Perhimpunan Pengembang Perumahan";"Ondor, Pulau Gorom, SBT, Maluku";"292J+7VQ, Ondor, Kec. Pulau Gorom, Kabupaten Seram Bagian Timur, Maluku";"Kabupaten Seram Bagian Timur, Maluku";"MALUKU";"";"Indonesia";"";"";"";"-3.9992883";"131.3822432";"https://maps.google.com/?cid=0x0:0x92f46029b3ffe825";""
"perumahan";"perumahan";"Pertigaan turet";"Gorom, Senegal, Ondor, Kec. Pulau Gorom, Kabupaten Seram Bagian Timur, Maluku";"Kabupaten Seram Bagian Timur, Maluku";"MALUKU";"";"Indonesia";"";"";"";"-3.999561";"131.3818444";"https://maps.google.com/?cid=0x0:0xb2ea038339cd2032";""
"perumahan";"Pembangunan Perumahan";"YUSRAN RUMANAMA";"29WX+FQ8, Kataloka, Kec. Pulau Gorom, Kabupaten Seram Bagian Timur, Maluku";"Kabupaten Seram Bagian Timur, Maluku";"MALUKU";"";"Indonesia";"";"";"";"-3.9539099";"131.3993543";"https://maps.google.com/?cid=0x0:0x6e4e9ed76e7e8920";""
"perumahan";"Komplek perumahan";"PERUMAHAN GURU SMA NEGERI 4 SERAM BAGIAN TIMUR";"295H+58C, Ondor, Kec. Pulau Gorom, Kabupaten Seram Bagian Timur, Maluku";"Kabupaten Seram Bagian Timur, Maluku";"MALUKU";"";"Indonesia";"";"";"";"-3.9918322";"131.3790054";"https://maps.google.com/?cid=0x0:0xe34f23639d73841b";""
"perumahan";"Pembangunan Perumahan";"Kilalir Maluku Indonesia";"X9HV+G7R, Dai, Kec. Pulau Gorom, Kabupaten Seram Bagian Timur, Maluku";"Kabupaten Seram Bagian Timur, Maluku";"MALUKU";"";"Indonesia";"";"";"";"-4.0211393";"131.3931447";"https://maps.google.com/?cid=0x0:0x2d8aff7db2c3e7e5";""
"perumahan";"Komplek perumahan";"Gorom timur";"XCQJ+F5, Kilkoda, Kec. Gorom Timur, Kabupaten Seram Bagian Timur, Maluku";"Kabupaten Seram Bagian Timur, Maluku";"MALUKU";"";"Indonesia";"";"";"";"-4.0112734";"131.4304619";"https://maps.google.com/?cid=0x0:0x23d190ae4a4e0736";""
"perumahan";"Pusat Perkumpulan Remaja";"RUMEON BERDIKARI";"29MJ+XJ3, Kataloka, Kec. Pulau Gorom, Kabupaten Seram Bagian Timur, Maluku";"Kabupaten Seram Bagian Timur, Maluku";"MALUKU";"";"Indonesia";"";"";"";"-3.9647327";"131.3815225";"https://maps.google.com/?cid=0x0:0x9812eae723ec545e";""
"perumahan";"perumahan";"Rumah Mama Oni";"296G+M93, Ondor, Kec. Pulau Gorom, Kabupaten Seram Bagian Timur, Maluku";"Kabupaten Seram Bagian Timur, Maluku";"MALUKU";"";"Indonesia";"";"";"";"-3.9883745";"131.3759327";"https://maps.google.com/?cid=0x0:0x8f5e09c20b634531";""
"perumahan";"Komplek perumahan";"Kampoeng Namalean";"2CVC+46W, Kataloka, Kec. Pulau Gorom, Kabupaten Seram Bagian Timur, Maluku";"Kabupaten Seram Bagian Timur, Maluku";"MALUKU";"";"Indonesia";"";"";"";"-3.9571467";"131.4205931";"https://maps.google.com/?cid=0x0:0xd977f74d00dc2984";""
"perumahan";"Komplek perumahan";"Rumah Sohilauw";"297G+99, Ondor, Kec. Pulau Gorom, Kabupaten Seram Bagian Timur, Maluku";"Kabupaten Seram Bagian Timur, Maluku";"MALUKU";"";"Indonesia";"";"";"";"-3.9869751";"131.3760255";"https://maps.google.com/?cid=0x0:0xaebad91be027cf46";""
"perumahan";"Perhimpunan Pengembang Perumahan";"Domun Dada,a";"2CW2+QG, Kataloka, Kec. Pulau Gorom, Kabupaten Seram Bagian Timur, Maluku";"Kabupaten Seram Bagian Timur, Maluku";"MALUKU";"";"Indonesia";"";"";"";"-3.953032";"131.401298";"https://maps.google.com/?cid=0x0:0x43c22087dcfbdff6";""
"perumahan";"Pembangunan Perumahan";"Dada,a Rumena";"29WX+FQ8, Unnamed Road, Kataloka, Kec. Pulau Gorom, Kabupaten Seram Bagian Timur, Maluku";"Kabupaten Seram Bagian Timur, Maluku";"MALUKU";"";"Indonesia";"";"";"";"-3.9538342";"131.3994545";"https://maps.google.com/?cid=0x0:0x1283edc82d08434e";""
"perumahan";"Komplek perumahan";"RIZKI KELILAUW";"29VX+QCV, Kataloka, Kec. Pulau Gorom, Kabupaten Seram Bagian Timur, Maluku";"Kabupaten Seram Bagian Timur, Maluku";"MALUKU";"";"Indonesia";"";"";"";"-3.9555192";"131.3985352";"https://maps.google.com/?cid=0x0:0xfb0be2242711ccd6";""
"perumahan";"Pembangunan Perumahan";"Kediaman Raja Kataloka";"293H+MM8, Kataloka, Kec. Pulau Gorom, Kabupaten Seram Bagian Timur, Maluku";"Kabupaten Seram Bagian Timur, Maluku";"MALUKU";"";"Indonesia";"";"";"";"-3.9958604";"131.3792648";"https://maps.google.com/?cid=0x0:0xcf7d083ea92b120e";""
"perumahan";"Komplek perumahan";"Kelibingan Maluku Indonesia";"XC24+F63, Kilkoda, Kec. Gorom Timur, Kabupaten Seram Bagian Timur, Maluku";"Kabupaten Seram Bagian Timur, Maluku";"MALUKU";"";"Indonesia";"";"";"";"-4.0488735";"131.4055526";"https://maps.google.com/?cid=0x0:0x7551b8f5a406cc61";""
"perumahan";"Komplek perumahan";"Desa DULAK";"X9VP+37, Dai, Kec. Pulau Gorom, Kabupaten Seram Bagian Timur, Maluku";"Kabupaten Seram Bagian Timur, Maluku";"MALUKU";"";"Indonesia";"";"";"";"-4.0072687";"131.3857691";"https://maps.google.com/?cid=0x0:0xc174da7cbb4a2a79";""
"perumahan";"Komplek perumahan";"Kelbaun Complex";"X9WM+XHW, Ondor, Kec. Pulau Gorom, Kabupaten Seram Bagian Timur, Maluku";"Kabupaten Seram Bagian Timur, Maluku";"MALUKU";"";"Indonesia";"";"";"";"-4.0031855";"131.3843299";"https://maps.google.com/?cid=0x0:0x6e85e349e9186436";""
"perumahan";"Pembangunan Perumahan";"H Rumalean";"29WX+9H6, Kataloka, Kec. Pulau Gorom, Kabupaten Seram Bagian Timur, Maluku";"Kabupaten Seram Bagian Timur, Maluku";"MALUKU";"";"Indonesia";"";"";"";"-3.9543755";"131.3986147";"https://maps.google.com/?cid=0x0:0x87eb6700ffe5d0f";""
"perumahan";"Perhimpunan Pengembang Perumahan";"Dusun Samboru Ery";"295G+CV9, Samboru Erry, Kataloka, Kec. Pulau Gorom, Kabupaten Seram Bagian Timur, Maluku";"Kabupaten Seram Bagian Timur, Maluku";"MALUKU";"";"Indonesia";"";"";"";"-3.9914669";"131.3772378";"https://maps.google.com/?cid=0x0:0x543816ce7668fc0f";""
"perumahan";"perumahan";"Kec. Wakate";"Kabupaten Seram Bagian Timur, Maluku";"Kabupaten Seram Bagian Timur, Maluku";"MALUKU";"";"Indonesia";"";"";"";"-4.5139238";"131.6542349";"https://maps.google.com/?cid=0x0:0x5b89d23106f26061";""
"perumahan";"Pembangunan Perumahan";"Air Kampung";"GJWH+6H5, Dusun Air Kampung Desa, Amar Laut, Kec. Wakate, Kabupaten Seram Bagian Timur, Maluku";"Kabupaten Seram Bagian Timur, Maluku";"MALUKU";"";"Indonesia";"";"";"";"-4.4544784";"131.6289905";"https://maps.google.com/?cid=0x0:0x2f0873c83b65a69b";""
"perumahan";"Kantor Pemerintahan Wilayah";"Kecamatan wakate";"HJQ5+CFV, Lahema, Kec. Wakate, Kabupaten Seram Bagian Timur, Maluku";"Kabupaten Seram Bagian Timur, Maluku";"MALUKU";"";"Indonesia";"";"";"";"-4.4113808";"131.6086667";"https://maps.google.com/?cid=0x0:0x59572b575bbebc85";""
"perumahan";"Komplek perumahan";"Rumah Tete WK";"HJC8+584, Utta, Kec. Wakate, Kabupaten Seram Bagian Timur, Maluku";"Kabupaten Seram Bagian Timur, Maluku";"MALUKU";"";"Indonesia";"";"";"";"-4.4294768";"131.6159886";"https://maps.google.com/?cid=0x0:0x5d6656e7923b7477";""
"perumahan";"Komplek perumahan";"Tamher, tamher timur";"FMWG+H9H, Tamher Warat, Kec. Wakate, Kabupaten Seram Bagian Timur, Maluku";"Kabupaten Seram Bagian Timur, Maluku";"MALUKU";"";"Indonesia";"";"";"";"-4.5035625";"131.6759844";"https://maps.google.com/?cid=0x0:0x5336beafe42aef7d";""
"perumahan";"Komplek perumahan";"CeceKoko";"FMXF+JHC, Tamher Warat, Kec. Wakate, Kabupaten Seram Bagian Timur, Maluku";"Kabupaten Seram Bagian Timur, Maluku";"MALUKU";"";"Indonesia";"";"";"";"-4.5017695";"131.674607";"https://maps.google.com/?cid=0x0:0xb28896d5e409151c";""
"perumahan";"Komplek perumahan";"RUMAH SYAMSUDIN RUMAKEFING";"HJQ4+2FC, Lahema, Kec. Wakate, Kabupaten Seram Bagian Timur, Maluku";"Kabupaten Seram Bagian Timur, Maluku";"MALUKU";"";"Indonesia";" 082271573902";"";"";"-4.4124483";"131.6061295";"https://maps.google.com/?cid=0x0:0x7eaea1a7b52b04b2";""
"perumahan";"Pembangunan Perumahan";"KOTA KECAMATAN ( TANAH BARU )";"GM2F+8GW, Tamher Warat, Kec. Wakate, Kabupaten Seram Bagian Timur, Maluku";"Kabupaten Seram Bagian Timur, Maluku";"MALUKU";"";"Indonesia";"";"";"";"-4.4987453";"131.6740454";"https://maps.google.com/?cid=0x0:0x54913f3a1ff4a6d3";""
"perumahan";"Pembangunan Perumahan";"Yusran kelarat";"GJVR+X26, Amar Laut, Kec. Wakate, Kabupaten Seram Bagian Timur, Maluku";"Kabupaten Seram Bagian Timur, Maluku";"MALUKU";"";"Indonesia";"";"";"";"-4.4549107";"131.639866";"https://maps.google.com/?cid=0x0:0x26d8588a2a8e5df5";""
"perumahan";"Pembangunan Perumahan";"Negeri Amarlaut(Emar Ratu)";"GJVR+V8H, Negeri, Amar Laut, Kec. Wakate, Kabupaten Seram Bagian Timur, Maluku";"Kabupaten Seram Bagian Timur, Maluku";"MALUKU";"";"Indonesia";"";"";"";"-4.4553222";"131.6408514";"https://maps.google.com/?cid=0x0:0x831539009bac26fa";""
"perumahan";"Pembangunan Perumahan";"Otademan";"FMP3+CMX, Tamher Warat, Kec. Wakate, Kabupaten Seram Bagian Timur, Maluku";"Kabupaten Seram Bagian Timur, Maluku";"MALUKU";"";"Indonesia";"";"";"";"-4.513658";"131.65387";"https://maps.google.com/?cid=0x0:0x5139bbc953c13106";""
"perumahan";"Komplek perumahan";"Rumah Ongen Tanrobak";"HJ98+X9G, Utta, Kec. Wakate, Kabupaten Seram Bagian Timur, Maluku";"Kabupaten Seram Bagian Timur, Maluku";"MALUKU";"";"Indonesia";"";"";"";"-4.4300521";"131.6159555";"https://maps.google.com/?cid=0x0:0x6ac9bf8f254b016e";""
"perumahan";"perumahan";"Rumah aku";"GJ9Q+79, Amar Laut, Kec. Wakate, Kabupaten Seram Bagian Timur, Maluku";"Kabupaten Seram Bagian Timur, Maluku";"MALUKU";"";"Indonesia";"";"";"";"-4.480948";"131.6380327";"https://maps.google.com/?cid=0x0:0x3ef6390d5a0b1621";""
"perumahan";"Pembangunan Perumahan";"Dusun kelbo";"FMMH+3J7, Tamher Tim., Kec. Wakate, Kabupaten Seram Bagian Timur, Maluku";"Kabupaten Seram Bagian Timur, Maluku";"MALUKU";"";"Indonesia";"";"";"";"-4.5173458";"131.6790314";"https://maps.google.com/?cid=0x0:0x443b9bbb6b72ed8";""
"perumahan";"Komplek perumahan";"Rumah Rizki Derlauw";"HJ98+PX7, Utta, Kec. Wakate, Kabupaten Seram Bagian Timur, Maluku";"Kabupaten Seram Bagian Timur, Maluku";"MALUKU";"";"Indonesia";"";"";"";"-4.430738";"131.6174478";"https://maps.google.com/?cid=0x0:0x7322adab0f9bbfd7";""
"perumahan";"Komplek perumahan";"Desa Guliar";"FM8G+XG7, Tamher Tim., Kec. Wakate, Kabupaten Seram Bagian Timur, Maluku";"Kabupaten Seram Bagian Timur, Maluku";"MALUKU";"";"Indonesia";"";"";"";"-4.5325843";"131.6763082";"https://maps.google.com/?cid=0x0:0xe85dc72463b59384";""
"perumahan";"perumahan";"Bpk.Hasan B Reliubun";"FMFH+XR, Tamher Tim., Kec. Wakate, Kabupaten Seram Bagian Timur, Maluku";"Kabupaten Seram Bagian Timur, Maluku";"MALUKU";"";"Indonesia";"";"";"";"-4.5250899";"131.6795245";"https://maps.google.com/?cid=0x0:0x36af9df62d18951e";""
"perumahan";"Pembangunan Perumahan";"ANSAR ASLIN";"GJVR+V8H Negeri, Amar Laut, Kec. Wakate, Kabupaten Seram Bagian Timur, Maluku";"Kabupaten Seram Bagian Timur, Maluku";"MALUKU";"";"Indonesia";"";"";"";"-4.4552182";"131.6409298";"https://maps.google.com/?cid=0x0:0x5ed83132354b8f01";""
"perumahan";"Perhimpunan Pengembang Perumahan";"Rmh Fanita";"FMFH+XR, Tamher Tim., Kec. Wakate, Kabupaten Seram Bagian Timur, Maluku";"Kabupaten Seram Bagian Timur, Maluku";"MALUKU";"";"Indonesia";"";"";"";"-4.5243566";"131.6798363";"https://maps.google.com/?cid=0x0:0x31acc2da6808fa4b";""
"perumahan";"perumahan";"Ota";"FMP4+G32, Tamher Warat, Kec. Wakate, Kabupaten Seram Bagian Timur, Maluku";"Kabupaten Seram Bagian Timur, Maluku";"MALUKU";"";"Indonesia";"";"";"";"-4.5144552";"131.6549269";"https://maps.google.com/?cid=0x0:0x4bfcf586a48e53b2";""
"perumahan";"Perhimpunan Pengembang Perumahan";"Guliar";"GMJ3+QW, Amar Laut, Kec. Wakate, Kabupaten Seram Bagian Timur, Maluku";"Kabupaten Seram Bagian Timur, Maluku";"MALUKU";"";"Indonesia";"";"";"";"-4.468012";"131.654871";"https://maps.google.com/?cid=0x0:0x620235672ab447c1";""
"perumahan";"Komplek perumahan";"Jemi Paidjala";"HJC8+2JM, Utta, Kec. Wakate, Kabupaten Seram Bagian Timur, Maluku";"Kabupaten Seram Bagian Timur, Maluku";"MALUKU";"";"Indonesia";" 081383730803";"";"";"-4.4299217";"131.6165556";"https://maps.google.com/?cid=0x0:0x37274a674585602";""
"perumahan";"Komplek perumahan";"PERUMAHAN METRO PERMATA";"QPW7+WXX, RT.011/RW.014, Karang Mulya, Kec. Karang Tengah, Kota Tangerang, Banten 15157";"RT.011/RW.014, Karang Mulya, Kec. Karang Tengah, Kota Tangerang";"MALUKU";"15157";"Indonesia";"";"";"";"-6.2026484";"106.7149905";"https://maps.google.com/?cid=0x0:0xb360043720ede299";""
"perumahan";"Balai masyarakat";"Negeri Administratif Kildor";"GJCP+CR2, Kildor, Wakate, East Seram, Maluku";"Kabupaten Seram Bagian Timur, Maluku";"MALUKU";"";"Indonesia";"";"";"";"-4.4789973";"131.6370276";"https://maps.google.com/?cid=0x0:0x6aafb0f67290a066";""
"perumahan";"perumahan";"Kec. Tutuk Tolu";"Kabupaten Seram Bagian Timur, Maluku";"Kabupaten Seram Bagian Timur, Maluku";"MALUKU";"";"Indonesia";"";"";"";"-3.5511893";"130.8594177";"https://maps.google.com/?cid=0x0:0x66cd00a169ac09c7";""
"perumahan";"Kantor Pemerintah";"Desa";"CVX5+PGG, Sesar, Kec. Tutuk Tolu, Kabupaten Seram Bagian Timur, Maluku";"Kabupaten Seram Bagian Timur, Maluku";"MALUKU";"";"Indonesia";"";"";"";"-3.5506875";"130.8588281";"https://maps.google.com/?cid=0x0:0xd66d255a5ff20215";""
"perumahan";"Komplek perumahan";"Bati";"CR8Q+RQ, Kilbat, Kec. Tutuk Tolu, Kabupaten Seram Bagian Timur, Maluku";"Kabupaten Seram Bagian Timur, Maluku";"MALUKU";"";"Indonesia";"";"";"";"-3.582999";"130.8394449";"https://maps.google.com/?cid=0x0:0x60813c4d074f0364";""
"perumahan";"Komplek perumahan";"Kompleks kampung Tengah";"9RJX+92C, Danama, Kec. Tutuk Tolu, Kabupaten Seram Bagian Timur, Maluku";"Kabupaten Seram Bagian Timur, Maluku";"MALUKU";"";"Indonesia";"";"";"";"-3.6190667";"130.8475181";"https://maps.google.com/?cid=0x0:0x91dae00404001043";""
"perumahan";"Komplek perumahan";"Dusun Erlan";"CVP9+W6, Sesar, Kec. Tutuk Tolu, Kabupaten Seram Bagian Timur, Maluku";"Kabupaten Seram Bagian Timur, Maluku";"MALUKU";"";"Indonesia";"";"";"";"-3.5628355";"130.868261";"https://maps.google.com/?cid=0x0:0x6a74b7768820536f";""
"perumahan";"Komplek perumahan";"Kilgagu";"CVR7+VQR, Kilbat, Kec. Tutuk Tolu, Kabupaten Seram Bagian Timur, Maluku";"Kabupaten Seram Bagian Timur, Maluku";"MALUKU";"";"Indonesia";"";"";"";"-3.557771";"130.8643957";"https://maps.google.com/?cid=0x0:0x77622dd06ffa7fe2";""
"perumahan";"Komplek perumahan";"Rumah Pak Cano";"FRFJ+35F, Gah, Kec. Tutuk Tolu, Kabupaten Seram Bagian Timur, Maluku";"Kabupaten Seram Bagian Timur, Maluku";"MALUKU";"";"Indonesia";"";"";"";"-3.5273125";"130.8304219";"https://maps.google.com/?cid=0x0:0x2aee0c01dadd90a7";""
"perumahan";"Pembangunan Perumahan";"Lorong Tembo";"CVQ8+PPV, Kilmoy, Kec. Tutuk Tolu, Kabupaten Seram Bagian Timur, Maluku";"Kabupaten Seram Bagian Timur, Maluku";"MALUKU";"";"Indonesia";"";"";"";"-3.5606388";"130.8668476";"https://maps.google.com/?cid=0x0:0x8e6c7ef95fb64504";""
"perumahan";"Komplek perumahan";"Kampung Buton";"CVPC+22, Kilbat, Kec. Tutuk Tolu, Kabupaten Seram Bagian Timur, Maluku";"Kabupaten Seram Bagian Timur, Maluku";"MALUKU";"";"Indonesia";"";"";"";"-3.5649012";"130.8700569";"https://maps.google.com/?cid=0x0:0xbd9dd8bd3261ad78";""
"perumahan";"Kantor Pemerintah";"Desa Kilmoy";"CVQ8+PPV, Sesar, Kec. Tutuk Tolu, Kabupaten Seram Bagian Timur, Maluku";"Kabupaten Seram Bagian Timur, Maluku";"MALUKU";"";"Indonesia";"";"";"";"-3.5606428";"130.8668463";"https://maps.google.com/?cid=0x0:0x142507a0eb35ce6c";""
"perumahan";"Komplek perumahan";"Lorong tembok";"9Q68+8J7, Kilmoy, Kec. Tutuk Tolu, Kabupaten Seram Bagian Timur, Maluku";"Kabupaten Seram Bagian Timur, Maluku";"MALUKU";"";"Indonesia";"";"";"";"-3.6392127";"130.7665315";"https://maps.google.com/?cid=0x0:0x4053352e285ca612";""
"perumahan";"Pembangunan Perumahan";"Dusun Kelsaur";"9VP2+JX, Danama, Kec. Tutuk Tolu, Kabupaten Seram Bagian Timur, Maluku";"Kabupaten Seram Bagian Timur, Maluku";"MALUKU";"";"Indonesia";"";"";"";"-3.6135553";"130.852493";"https://maps.google.com/?cid=0x0:0x84fe37a79b0a7b2b";""
"perumahan";"Pembangunan Perumahan";"Desa Taruy";"CVHF+4RV, Taruy, Kec. Tutuk Tolu, Kabupaten Seram Bagian Timur, Maluku";"Kabupaten Seram Bagian Timur, Maluku";"MALUKU";"";"Indonesia";" 082197770915";"";"";"-3.5722051";"130.875077";"https://maps.google.com/?cid=0x0:0xa09732fb5f0f193e";""
"perumahan";"Pembangunan Perumahan";"Sesar Gunung, Kec. Tutuk Tolu";"CRFC+4V5, Sesar Gunung, Sesar, Kec. Tutuk Tolu, Kabupaten Seram Bagian Timur, Maluku";"Kabupaten Seram Bagian Timur, Maluku";"MALUKU";"";"Indonesia";" 082197770915";"";"";"-3.5772319";"130.8222221";"https://maps.google.com/?cid=0x0:0x734ed56f4f5eccdd";""
"perumahan";"Pembangunan Perumahan";"Desa kufar";"GR46+384, Jalan pendidikan, Kec. Tutuk Tolu, Kabupaten Seram Bagian Timur, Maluku";"Kabupaten Seram Bagian Timur, Maluku";"MALUKU";"";"Indonesia";"";"";"";"-3.494855";"130.8108294";"https://maps.google.com/?cid=0x0:0xf8b6d174b28663a";""
"perumahan";"Komplek perumahan";"Rumah aco";"CVX6+G5, Waras-Waras, Kec. Tutuk Tolu, Kabupaten Seram Bagian Timur, Maluku";"Kabupaten Seram Bagian Timur, Maluku";"MALUKU";"";"Indonesia";"";"";"";"-3.5525447";"130.8603386";"https://maps.google.com/?cid=0x0:0xd26ba703fdaf27c2";""
"perumahan";"Komplek perumahan";"Jack";"CVX5+PGG, Waras-Waras, Kec. Tutuk Tolu, Kabupaten Seram Bagian Timur, Maluku";"Kabupaten Seram Bagian Timur, Maluku";"MALUKU";"";"Indonesia";"";"";"";"-3.5508712";"130.8585627";"https://maps.google.com/?cid=0x0:0xa935c5742e8acf0c";""
"perumahan";"Perhimpunan Pengembang Perumahan";"Rizal";"CRFC+4V5, Sesar, Kec. Tutuk Tolu, Kabupaten Seram Bagian Timur, Maluku";"Kabupaten Seram Bagian Timur, Maluku";"MALUKU";"";"Indonesia";"";"";"";"-3.5772319";"130.8222221";"https://maps.google.com/?cid=0x0:0x7c4a3e9a21de4cd1";""
"perumahan";"perumahan";"Dusun Lowaklen";"CVHF+MX, Kilbat, Kec. Tutuk Tolu, Kabupaten Seram Bagian Timur, Maluku";"Kabupaten Seram Bagian Timur, Maluku";"MALUKU";"";"Indonesia";"";"";"";"-3.5703553";"130.8741269";"https://maps.google.com/?cid=0x0:0x341b6295c458ab4f";""
"perumahan";"Kantor Perusahaan";"Rumah Dinas Gah";"FRFJ+35F, Gah, Kec. Tutuk Tolu, Kabupaten Seram Bagian Timur, Maluku";"Kabupaten Seram Bagian Timur, Maluku";"MALUKU";"";"Indonesia";"";"";"";"-3.5275972";"130.8291683";"https://maps.google.com/?cid=0x0:0x24216864fad1840a";""
"perumahan";"perumahan";"Maluku";"";"Maluku";"MALUKU";"";"Indonesia";"";"";"";"-3.2384616";"130.1452734";"https://maps.google.com/?cid=0x0:0x5e30e8db04649a51";""
"perumahan";"perumahan";"Kilmury";"Kec. Seram Tim., Kabupaten Seram Bagian Timur, Maluku";"Kabupaten Seram Bagian Timur, Maluku";"MALUKU";"";"Indonesia";"";"";"";"-3.6249497";"130.5940565";"https://maps.google.com/?cid=0x0:0x935e27a1be02d187";""
"perumahan";"Komplek perumahan";"Dusun Wolok";"6JP5+X3Q, Kilmury, Kec. Seram Tim., Kabupaten Seram Bagian Timur, Maluku";"Kabupaten Seram Bagian Timur, Maluku";"MALUKU";"";"Indonesia";"";"";"";"-3.7625285";"130.6077432";"https://maps.google.com/?cid=0x0:0x6d9c2c451037e57a";""
"perumahan";"Balai masyarakat";"Desa Undur";"6J97+52, Kilmury, Kec. Seram Tim., Kabupaten Seram Bagian Timur, Maluku";"Kabupaten Seram Bagian Timur, Maluku";"MALUKU";"";"Indonesia";"";"";"";"-3.7811148";"130.612179";"https://maps.google.com/?cid=0x0:0xab3eac7a9aa252c4";""
"perumahan";"Komplek perumahan";"Desa Selor";"8FQ3+R7C, Kilmury, Kec. Seram Tim., Kabupaten Seram Bagian Timur, Maluku";"Kabupaten Seram Bagian Timur, Maluku";"MALUKU";"";"Indonesia";"";"";"";"-3.6615045";"130.4539982";"https://maps.google.com/?cid=0x0:0x13454fbd447150b7";""
"perumahan";"Masjid";"KILBON TEWA";"7FXH+Q8M, Kilmury, Kec. Seram Tim., Kabupaten Seram Bagian Timur, Maluku";"Kabupaten Seram Bagian Timur, Maluku";"MALUKU";"";"Indonesia";"";"";"";"-3.7005256";"130.4782864";"https://maps.google.com/?cid=0x0:0x63cf702fa6e438d1";""
"perumahan";"Komplek perumahan";"Rumah vanat Sokanfutty";"8FP4+W2, Kilmury, Kec. Seram Tim., Kabupaten Seram Bagian Timur, Maluku";"Kabupaten Seram Bagian Timur, Maluku";"MALUKU";"";"Indonesia";"";"";"";"-3.6630551";"130.4555079";"https://maps.google.com/?cid=0x0:0x8e56229e7bf9ec1e";""
"perumahan";"perumahan";"Rumah tukin";"7GVH+28, Kilmury, Kec. Seram Tim., Kabupaten Seram Bagian Timur, Maluku";"Kabupaten Seram Bagian Timur, Maluku";"MALUKU";"";"Indonesia";"";"";"";"-3.7075012";"130.5285034";"https://maps.google.com/?cid=0x0:0xb51b471ef0f2790a";""
"perumahan";"Pembangunan Perumahan";"Desa taa";"6HXW+398, Kilmury, Kec. Seram Tim., Kabupaten Seram Bagian Timur, Maluku";"Kabupaten Seram Bagian Timur, Maluku";"MALUKU";"";"Indonesia";"";"";"";"-3.7523364";"130.5959687";"https://maps.google.com/?cid=0x0:0x87345891860d9d00";""
"perumahan";"Komplek perumahan";"komplex lengkong";"9C2R+549, Kilmury, Kec. Seram Tim., Kabupaten Seram Bagian Timur, Maluku";"Kabupaten Seram Bagian Timur, Maluku";"MALUKU";"";"Indonesia";"";"";"";"-3.649153";"130.439379";"https://maps.google.com/?cid=0x0:0x76332d486153e967";""
"perumahan";"Komplek perumahan";"Sumbawa";"5MJX+VQ, Kilmury, Sumbawa, Kabupaten Seram Bagian Timur, Maluku";"Kabupaten Seram Bagian Timur, Maluku";"MALUKU";"";"Indonesia";"";"";"";"-3.8178125";"130.6994375";"https://maps.google.com/?cid=0x0:0x450a162e914aff2c";""
"perumahan";"Komplek perumahan";"Mess Guru";"8F4F+3PW, Kilmury, Kec. Seram Tim., Kabupaten Seram Bagian Timur, Maluku";"Kabupaten Seram Bagian Timur, Maluku";"MALUKU";"";"Indonesia";"";"";"";"-3.6947582";"130.4743217";"https://maps.google.com/?cid=0x0:0x96e36288645fa727";""
"perumahan";"perumahan";"Rumah Al-Fatih";"7FWM+44Q, Kilmury, Kec. Seram Tim., Kabupaten Seram Bagian Timur, Maluku";"Kabupaten Seram Bagian Timur, Maluku";"MALUKU";"";"Indonesia";"";"";"";"-3.7045298";"130.4822779";"https://maps.google.com/?cid=0x0:0xcf78f3e72c6e1de";""
"perumahan";"Komplek perumahan";"Daerah rawan bencana";"7FXH+Q65, Kilmury, Kec. Seram Tim., Kabupaten Seram Bagian Timur, Maluku";"Kabupaten Seram Bagian Timur, Maluku";"MALUKU";"";"Indonesia";"";"";"";"-3.7006186";"130.4781118";"https://maps.google.com/?cid=0x0:0x5abc84436ca8d2a8";""
"perumahan";"Komplek perumahan";"Rumah Kepala Desa Undur";"6J97+52, Kilmury, Kec. Seram Tim., Kabupaten Seram Bagian Timur, Maluku";"Kabupaten Seram Bagian Timur, Maluku";"MALUKU";"";"Indonesia";" 081240240504";"";"";"-3.7832452";"130.613802";"https://maps.google.com/?cid=0x0:0xf3b2f149199a18ad";""
"perumahan";"Rumah Kaca";"Rumah Jamal";"9C2R+549, Kilmury, Kec. Seram Tim., Kabupaten Seram Bagian Timur, Maluku";"Kabupaten Seram Bagian Timur, Maluku";"MALUKU";"";"Indonesia";"";"";"";"-3.6496838";"130.4398879";"https://maps.google.com/?cid=0x0:0xc00f900c9b89d054";""
"perumahan";"Komplek perumahan";"Salanotan";"99JP+9WV, Batuasa, Werinama, Kabupaten Seram Bagian Timur, Maluku";"Kabupaten Seram Bagian Timur, Maluku";"MALUKU";"";"Indonesia";"";"";"";"-3.619009";"130.387299";"https://maps.google.com/?cid=0x0:0x8b7711f7475f2d94";""
"perumahan";"Perumahan";"Kilga";"Kiandarat, Kian Darat, Kabupaten Seram Bagian Timur, Maluku";"Kabupaten Seram Bagian Timur, Maluku";"MALUKU";"";"Indonesia";"";"";"";"-3.6853452";"130.7867889";"https://maps.google.com/?cid=0x0:0x7c59cd733dfd3479";""
"perumahan";"Pembangunan Perumahan";"Desa Tum";"99MP+CF, Batuasa, Werinama, Kabupaten Seram Bagian Timur, Maluku";"Kabupaten Seram Bagian Timur, Maluku";"MALUKU";"";"Indonesia";"";"";"";"-3.6163835";"130.3862035";"https://maps.google.com/?cid=0x0:0x8f5f548d95c27128";""
"perumahan";"Komplek perumahan";"Mess Pegawai PKM Afang";"7HCF+24Q, Kilmury, Kec. Seram Tim., Kabupaten Seram Bagian Timur, Maluku";"Kabupaten Seram Bagian Timur, Maluku";"MALUKU";"";"Indonesia";"";"";"";"-3.729543";"130.57238";"https://maps.google.com/?cid=0x0:0x6357b294c6b4b3fb";""
"perumahan";"Rumah Kaca";"rumah rijal";"9C2R+549, Kilmury, Kec. Seram Tim., Kabupaten Seram Bagian Timur, Maluku";"Kabupaten Seram Bagian Timur, Maluku";"MALUKU";"";"Indonesia";"";"";"";"-3.64961";"130.4397";"https://maps.google.com/?cid=0x0:0x9f3674ffdd5b20c3";""
"perumahan";"Komplek perumahan";"Mess Dokter PKM Afang";"7HCF+24Q, Kilmury, Kec. Seram Tim., Kabupaten Seram Bagian Timur, Maluku";"Kabupaten Seram Bagian Timur, Maluku";"MALUKU";"";"Indonesia";"";"";"";"-3.7294156";"130.5723594";"https://maps.google.com/?cid=0x0:0xc529a4606c47080a";""
"perumahan";"Komplek perumahan";"Keta kwaos";"6QCP+2P3 Keta, Kwaos, Bula, Kabupaten Seram Bagian Timur, Maluku";"Kabupaten Seram Bagian Timur, Maluku";"MALUKU";"";"Indonesia";"";"";"";"-3.7799936";"130.7867889";"https://maps.google.com/?cid=0x0:0xdb5c9eb642f3ef21";""
"perumahan";"Komplek perumahan";"desa karai";"HMWC+7JJ, Belis, Kec. Tlk. Waru, Kabupaten Seram Bagian Timur, Maluku";"Kabupaten Seram Bagian Timur, Maluku";"MALUKU";"";"Indonesia";"";"";"";"-3.404276";"130.6715092";"https://maps.google.com/?cid=0x0:0x5af7837886ae1421";""
"perumahan";"perumahan";"Pulau Panjang";"Kec. Pulau Gorom, Kabupaten Seram Bagian Timur, Maluku";"Kabupaten Seram Bagian Timur, Maluku";"MALUKU";"";"Indonesia";"";"";"";"-4.0065038";"131.23064";"https://maps.google.com/?cid=0x0:0x32cd940c1ce4e9ae";""
"perumahan";"Pembangunan Perumahan";"Magat";"26C6+MXX, Pulau Panjang, Kec. Pulau Gorom, Kabupaten Seram Bagian Timur, Maluku";"Kabupaten Seram Bagian Timur, Maluku";"MALUKU";"";"Indonesia";"";"";"";"-3.9782625";"131.2124844";"https://maps.google.com/?cid=0x0:0x8cc1a6baa4c23279";""
"perumahan";"perumahan";"Desa Perik- Basaranggi";"2688+HRM, Pulau Panjang, Kec. Pulau Gorom, Kabupaten Seram Bagian Timur, Maluku";"Kabupaten Seram Bagian Timur, Maluku";"MALUKU";"";"Indonesia";"";"";"";"-3.9835328";"131.2170553";"https://maps.google.com/?cid=0x0:0x1a402f354bfb8b7a";""
"perumahan";"perumahan";"SUHERHOUSE";"DEPDIKBUD PEJATEN BLOK A415, Gelora, Ps. Minggu, Kota Jakarta Pusat, Daerah Khusus Ibukota Jakarta 10270";"Gelora, Ps. Minggu, Kota Jakarta Pusat";"MALUKU";"10270";"Indonesia";"";"";"";"-6.2239973";"106.8032274";"https://maps.google.com/?cid=0x0:0x8e35b7515caeb233";""
"perumahan";"perumahan";"Puskesmas Pulau Panjang";"X6QQ+GV3, Jl. Jou Patty Wisalean, Pulau Panjang, East Seram, Maluku";"Kabupaten Seram Bagian Timur, Maluku";"MALUKU";"";"Indonesia";"";"";"";"-4.0112433";"131.2396852";"https://maps.google.com/?cid=0x0:0x906acb23e4106ec5";""
"perumahan";"perumahan";"Teor";"Teor, Kabupaten Seram Bagian Timur, Maluku";"Kabupaten Seram Bagian Timur, Maluku";"MALUKU";"";"Indonesia";"";"";"";"-4.737805";"131.745717";"https://maps.google.com/?cid=0x0:0x455015039ed48829";""
"perumahan";"Komplek perumahan";"Desa Ker-ker";"7P9H+6R, Teor, Kabupaten Seram Bagian Timur, Maluku";"Kabupaten Seram Bagian Timur, Maluku";"MALUKU";"";"Indonesia";"";"";"";"-4.7319827";"131.7295898";"https://maps.google.com/?cid=0x0:0x55b97075f53744f0";""
"perumahan";"perumahan";"Rumah Berto";"7P7H+7R, Teor, Kabupaten Seram Bagian Timur, Maluku";"Kabupaten Seram Bagian Timur, Maluku";"MALUKU";"";"Indonesia";"";"";"";"-4.7368098";"131.7295675";"https://maps.google.com/?cid=0x0:0xcdab0070d833d94e";""
"perumahan";"Komplek perumahan";"Rumah Viona";"7PWP+88, Teor, Kabupaten Seram Bagian Timur, Maluku";"Kabupaten Seram Bagian Timur, Maluku";"MALUKU";"";"Indonesia";"";"";"";"-4.7041391";"131.7358351";"https://maps.google.com/?cid=0x0:0xe2acb88e3164f9b1";""
"perumahan";"Balai masyarakat";"Kades Kp. Tengah Wermaf";"7Q95+39, Teor, Kabupaten Seram Bagian Timur, Maluku";"Kabupaten Seram Bagian Timur, Maluku";"MALUKU";"";"Indonesia";"";"";"";"-4.7322727";"131.7584166";"https://maps.google.com/?cid=0x0:0xaa79dd1d6c831315";""
"perumahan";"perumahan";"Rumah Elsa Elvira kolatlena";"7PGJ+FR2, Teor, Kabupaten Seram Bagian Timur, Maluku";"Kabupaten Seram Bagian Timur, Maluku";"MALUKU";"";"Indonesia";"";"";"";"-4.7243887";"131.7315536";"https://maps.google.com/?cid=0x0:0xc41a0dd08bdfc86d";""
"perumahan";"Komplek perumahan";"Rumah Welem";"7PGJ+FR2, Teor, Kabupaten Seram Bagian Timur, Maluku";"Kabupaten Seram Bagian Timur, Maluku";"MALUKU";"";"Indonesia";"";"";"";"-4.7232794";"131.7315613";"https://maps.google.com/?cid=0x0:0xdc543e5594c5c1d0";""
"perumahan";"Komplek perumahan";"Desa Rumalusi";"7PWQ+67, Teor, Kabupaten Seram Bagian Timur, Maluku";"Kabupaten Seram Bagian Timur, Maluku";"MALUKU";"";"Indonesia";"";"";"";"-4.7044375";"131.7381875";"https://maps.google.com/?cid=0x0:0xea9597cc3996de4f";""
"perumahan";"perumahan";"Rumah Pk Gora";"6PMM+HP6, Teor, Kabupaten Seram Bagian Timur, Maluku";"Kabupaten Seram Bagian Timur, Maluku";"MALUKU";"";"Indonesia";"";"";"";"-4.7660487";"131.7343351";"https://maps.google.com/?cid=0x0:0xba41291068158883";""
"perumahan";"Pelayanan Kesehatan Kerja";"puskesmas teor";"7QC4+MRC, Teor, Kabupaten Seram Bagian Timur, Maluku";"Kabupaten Seram Bagian Timur, Maluku";"MALUKU";"";"Indonesia";" 082188388033";"";"";"-4.7283018";"131.7570289";"https://maps.google.com/?cid=0x0:0xf913069745037332";""
"perumahan";"Pembangunan Perumahan";"MAROTAN BAMBU KUNING";"6PHP+V68, Pulau Tioor, Teor, Kabupaten Seram Bagian Timur, Maluku";"Kabupaten Seram Bagian Timur, Maluku";"MALUKU";"";"Indonesia";"";"";"";"-4.7703494";"131.7355659";"https://maps.google.com/?cid=0x0:0xe0c0c7ce62d04e5e";""
"perumahan";"Lokasi daur ulang";"Kilwouw Pintu Masuk";"6PQM+M5, Teor, Kabupaten Seram Bagian Timur, Maluku";"Kabupaten Seram Bagian Timur, Maluku";"MALUKU";"";"Indonesia";"";"";"";"-4.7619968";"131.7332937";"https://maps.google.com/?cid=0x0:0x3d128bb74764a79e";""
"perumahan";"Komplek perumahan";"PERUMAHAN METRO PERMATA";"QPW7+WXX, RT.011/RW.014, Karang Mulya, Kec. Karang Tengah, Kota Tangerang, Banten 15157";"RT.011/RW.014, Karang Mulya, Kec. Karang Tengah, Kota Tangerang";"MALUKU";"15157";"Indonesia";"";"";"";"-6.2026484";"106.7149905";"https://maps.google.com/?cid=0x0:0xb360043720ede299";""
"perumahan";"Komplek perumahan";"Elora Tera Damai TE.10-12";"CLUSTER ELORA TE, Jl. Perumahan Tera Damai No.10-07, Sriamur, Kec. Tambun Utara, Kabupaten Bekasi, Jawa Barat 17610";"Jl. Perumahan Tera Damai No.10-07, Sriamur, Kec. Tambun Utara, Kabupaten Bekasi";"MALUKU";"17610";"Indonesia";"";"";"";"-6.1708213";"107.057174";"https://maps.google.com/?cid=0x0:0xec376ce6b8a89e44";""
"perumahan";"Komplek perumahan";"Gorom timur";"XCQJ+F5, Kilkoda, Kec. Gorom Timur, Kabupaten Seram Bagian Timur, Maluku";"Kabupaten Seram Bagian Timur, Maluku";"MALUKU";"";"Indonesia";"";"";"";"-4.0112734";"131.4304619";"https://maps.google.com/?cid=0x0:0x23d190ae4a4e0736";""
"perumahan";"perumahan";"Kec. Gorom Timur";"Kabupaten Seram Bagian Timur, Maluku";"Kabupaten Seram Bagian Timur, Maluku";"MALUKU";"";"Indonesia";"";"";"";"-3.9797121";"131.4112125";"https://maps.google.com/?cid=0x0:0xaee5fbc2b0124a41";""
"perumahan";"Pembangunan Perumahan";"Kelibingan Gorom Maluku";"XC24+4P9, Kelibingan, Kec. Gorom Timur, Kabupaten Seram Bagian Timur, Maluku";"Kabupaten Seram Bagian Timur, Maluku";"MALUKU";"";"Indonesia";" 081218415359";"";"";"-4.0497246";"131.4068628";"https://maps.google.com/?cid=0x0:0x96115553826e48e5";""
"perumahan";"Komplek perumahan";"Keluarga Besar Rumida";"WCXQ+VW, Amarwawatu, Kec. Gorom Timur, Kabupaten Seram Bagian Timur, Maluku";"Kabupaten Seram Bagian Timur, Maluku";"MALUKU";"";"Indonesia";"";"";"";"-4.05025";"131.439854";"https://maps.google.com/?cid=0x0:0xf6d77f80fa8d644d";""
"perumahan";"Pembangunan Perumahan";"YUSRAN RUMANAMA";"29WX+FQ8, Kataloka, Kec. Pulau Gorom, Kabupaten Seram Bagian Timur, Maluku";"Kabupaten Seram Bagian Timur, Maluku";"MALUKU";"";"Indonesia";"";"";"";"-3.9539099";"131.3993543";"https://maps.google.com/?cid=0x0:0x6e4e9ed76e7e8920";""
"perumahan";"Perhimpunan Pengembang Perumahan";"Ondor, Pulau Gorom, SBT, Maluku";"292J+7VQ, Ondor, Kec. Pulau Gorom, Kabupaten Seram Bagian Timur, Maluku";"Kabupaten Seram Bagian Timur, Maluku";"MALUKU";"";"Indonesia";"";"";"";"-3.9992883";"131.3822432";"https://maps.google.com/?cid=0x0:0x92f46029b3ffe825";""
"perumahan";"Komplek perumahan";"Kampoeng Namalean";"2CVC+46W, Kataloka, Kec. Pulau Gorom, Kabupaten Seram Bagian Timur, Maluku";"Kabupaten Seram Bagian Timur, Maluku";"MALUKU";"";"Indonesia";"";"";"";"-3.9571467";"131.4205931";"https://maps.google.com/?cid=0x0:0xd977f74d00dc2984";""
"perumahan";"Pembangunan Perumahan";"H Rumalean";"29WX+9H6, Kataloka, Kec. Pulau Gorom, Kabupaten Seram Bagian Timur, Maluku";"Kabupaten Seram Bagian Timur, Maluku";"MALUKU";"";"Indonesia";"";"";"";"-3.9543755";"131.3986147";"https://maps.google.com/?cid=0x0:0x87eb6700ffe5d0f";""
"perumahan";"Perhimpunan Pengembang Perumahan";"Domun Dada,a";"2CW2+QG, Kataloka, Kec. Pulau Gorom, Kabupaten Seram Bagian Timur, Maluku";"Kabupaten Seram Bagian Timur, Maluku";"MALUKU";"";"Indonesia";"";"";"";"-3.953032";"131.401298";"https://maps.google.com/?cid=0x0:0x43c22087dcfbdff6";""
"perumahan";"Pembangunan Perumahan";"Dada,a Rumena";"29WX+FQ8, Unnamed Road, Kataloka, Kec. Pulau Gorom, Kabupaten Seram Bagian Timur, Maluku";"Kabupaten Seram Bagian Timur, Maluku";"MALUKU";"";"Indonesia";"";"";"";"-3.9538342";"131.3994545";"https://maps.google.com/?cid=0x0:0x1283edc82d08434e";""
"perumahan";"Komplek perumahan";"Kelibingan Maluku Indonesia";"XC24+F63, Kilkoda, Kec. Gorom Timur, Kabupaten Seram Bagian Timur, Maluku";"Kabupaten Seram Bagian Timur, Maluku";"MALUKU";"";"Indonesia";"";"";"";"-4.0488735";"131.4055526";"https://maps.google.com/?cid=0x0:0x7551b8f5a406cc61";""
"perumahan";"Komplek perumahan";"DUSUN KILMUDA";"XC2R+P6, Amarwawatu, Kec. Gorom Timur, Kabupaten Seram Bagian Timur, Maluku";"Kabupaten Seram Bagian Timur, Maluku";"MALUKU";"";"Indonesia";"";"";"";"-4.0502283";"131.4396495";"https://maps.google.com/?cid=0x0:0x56308de0a1e0404c";""
"perumahan";"perumahan";"Desa Adm, Kilmuda, Gorom Timur, Kab. SBT";"WCWR+6CX, Amarwawatu, Kec. Gorom Timur, Kabupaten Seram Bagian Timur, Maluku";"Kabupaten Seram Bagian Timur, Maluku";"MALUKU";"";"Indonesia";"";"";"";"-4.0545332";"131.4410067";"https://maps.google.com/?cid=0x0:0x67882232dce30703";""
"perumahan";"Komplek perumahan";"RIZKI KELILAUW";"29VX+QCV, Kataloka, Kec. Pulau Gorom, Kabupaten Seram Bagian Timur, Maluku";"Kabupaten Seram Bagian Timur, Maluku";"MALUKU";"";"Indonesia";"";"";"";"-3.9555192";"131.3985352";"https://maps.google.com/?cid=0x0:0xfb0be2242711ccd6";""
"perumahan";"Pusat Perkumpulan Remaja";"RUMEON BERDIKARI";"29MJ+XJ3, Kataloka, Kec. Pulau Gorom, Kabupaten Seram Bagian Timur, Maluku";"Kabupaten Seram Bagian Timur, Maluku";"MALUKU";"";"Indonesia";"";"";"";"-3.9647327";"131.3815225";"https://maps.google.com/?cid=0x0:0x9812eae723ec545e";""
"perumahan";"Komplek perumahan";"Rumah Sohilauw";"297G+99, Ondor, Kec. Pulau Gorom, Kabupaten Seram Bagian Timur, Maluku";"Kabupaten Seram Bagian Timur, Maluku";"MALUKU";"";"Indonesia";"";"";"";"-3.9869751";"131.3760255";"https://maps.google.com/?cid=0x0:0xaebad91be027cf46";""
"perumahan";"Balai Pertemuan Desa";"Desa Adm, Etaralu";"XC2Q+3W4, Etaralu, Kec. Gorom Timur, Kabupaten Seram Bagian Timur, Maluku";"Kabupaten Seram Bagian Timur, Maluku";"MALUKU";"";"Indonesia";"";"";"";"-4.0498501";"131.4398309";"https://maps.google.com/?cid=0x0:0x581880c517d3258c";""
"perumahan";"Perhimpunan Pengembang Perumahan";"tinarin";"2C59+538, Miran, Kec. Gorom Timur, Kabupaten Seram Bagian Timur, Maluku";"Kabupaten Seram Bagian Timur, Maluku";"MALUKU";"";"Indonesia";"";"";"";"-3.992084";"131.417708";"https://maps.google.com/?cid=0x0:0x69bd5d954f285577";""
"perumahan";"Komplek perumahan";"PERUMAHAN GURU SMA NEGERI 4 SERAM BAGIAN TIMUR";"295H+58C, Ondor, Kec. Pulau Gorom, Kabupaten Seram Bagian Timur, Maluku";"Kabupaten Seram Bagian Timur, Maluku";"MALUKU";"";"Indonesia";"";"";"";"-3.9918322";"131.3790054";"https://maps.google.com/?cid=0x0:0xe34f23639d73841b";""
"perumahan";"Pembangunan Perumahan";"KILMUDA";"WCVR+RMF, Amarwawatu, Kec. Gorom Timur, Kabupaten Seram Bagian Timur, Maluku";"Kabupaten Seram Bagian Timur, Maluku";"MALUKU";"";"Indonesia";"";"";"";"-4.0554402";"131.4416789";"https://maps.google.com/?cid=0x0:0x3b9c6ddeed687e9c";""
"perumahan";"Komplek perumahan";"the house of the Rumodar Rumakur Muhdin family. tinar highway";"2C59+538, Miran, Kec. Gorom Timur, Kabupaten Seram Bagian Timur, Maluku";"Kabupaten Seram Bagian Timur, Maluku";"MALUKU";"";"Indonesia";"";"";"";"-3.992084";"131.417708";"https://maps.google.com/?cid=0x0:0xb4f38ab34c1bfc89";""
"perumahan";"Komplek perumahan";"Hasim House";"3C25+5M9 Aroa, Desa Adm, Kataloka, Kec. Pulau Gorom, Kabupaten Seram Bagian Timur";"Kabupaten Seram Bagian Timur, Maluku";"MALUKU";"";"Indonesia";"";"";"";"-3.9495771";"131.4092408";"https://maps.google.com/?cid=0x0:0xcddc46cd577df68c";""
"perumahan";"perumahan";"Kec. Bula Barat";"Kabupaten Seram Bagian Timur, Maluku";"Kabupaten Seram Bagian Timur, Maluku";"MALUKU";"";"Indonesia";"";"";"";"-3.0472432";"130.1469398";"https://maps.google.com/?cid=0x0:0x12c29f15f276cac6";""
"perumahan";"perumahan";"BULA";"WF88+MJF, Bula, Limumir, Kabupaten Seram Bagian Timur, Maluku";"Kabupaten Seram Bagian Timur, Maluku";"MALUKU";"";"Indonesia";"";"";"";"-3.0833079";"130.4665528";"https://maps.google.com/?cid=0x0:0xfd03e7efede01691";""
"perumahan";"Perumahan";"Rumah zinta";"W9MP+56M, Upt Z. Jemb. Basah, Kec. Bula Barat, Kabupaten Seram Bagian Timur, Maluku";"Kabupaten Seram Bagian Timur, Maluku";"MALUKU";"";"Indonesia";"";"";"";"-3.0670373";"130.3855494";"https://maps.google.com/?cid=0x0:0xe2db5761c7f55f10";""
"perumahan";"Rumah Pondokan";"PENGINAPAN MASARETA";"WCPW+G5, Bula, Kec. Bula, Kabupaten Seram Bagian Timur, Maluku";"Kabupaten Seram Bagian Timur, Maluku";"MALUKU";"";"Indonesia";"";"";"";"-3.0638125";"130.4454375";"https://maps.google.com/?cid=0x0:0x41c81a062e2ba706";""
"perumahan";"Komplek perumahan";"Rumah Umi PUPIT";"WFM4+QP, Bula, Kec. Bula, Kabupaten Seram Bagian Timur, Maluku";"Kabupaten Seram Bagian Timur, Maluku";"MALUKU";"";"Indonesia";"";"";"";"-3.065592";"130.4568709";"https://maps.google.com/?cid=0x0:0x5ee41930f72fa5b8";""
"perumahan";"perumahan";"rumah fajar";"X48J+756, Upt U. Airmatakabu, Kec. Bula Barat, Kabupaten Seram Bagian Timur, Maluku";"Kabupaten Seram Bagian Timur, Maluku";"MALUKU";"";"Indonesia";"";"";"";"-3.0343468";"130.1304011";"https://maps.google.com/?cid=0x0:0x87df973c40023f95";""
"perumahan";"Pembangunan Perumahan";"Desa";"28G4+4G, Benggoi, Kec. Bula Barat, Kabupaten Seram Bagian Timur, Maluku";"Kabupaten Seram Bagian Timur, Maluku";"MALUKU";"";"Indonesia";"";"";"";"-2.974672";"130.30637";"https://maps.google.com/?cid=0x0:0xa567001d622bd751";""
"perumahan";"Pembangunan Perumahan";"Rumah wahidah Aineka";"WF58+W6H, Bula, Kec. Bula, Kabupaten Seram Bagian Timur, Maluku";"Kabupaten Seram Bagian Timur, Maluku";"MALUKU";"";"Indonesia";"";"";"";"-3.0901946";"130.4656013";"https://maps.google.com/?cid=0x0:0xe3ddc4a2308b0faf";""
"perumahan";"Komplek perumahan";"Rumah mama Awa";"WFP4+86V, Kec. Bula, Pulau Seram, Maluku";"Pulau Seram, Maluku";"MALUKU";"";"Indonesia";"";"";"";"-3.0641386";"130.455775";"https://maps.google.com/?cid=0x0:0x6c13d8ef8ec9da62";""
"perumahan";"Komplek perumahan";"Pertigaan Jalan Sahla";"WF78+799, Kpg Jawa baru Limumir, Bula, Kec. Bula, Kabupaten Seram Bagian Timur, Maluku";"Kabupaten Seram Bagian Timur, Maluku";"MALUKU";"";"Indonesia";"";"";"";"-3.0868254";"130.465971";"https://maps.google.com/?cid=0x0:0x15b8c6ec4902eb28";""
"perumahan";"Komplek perumahan";"Rumah yaya madaul";"WF79+J57, Jln. #gisa desa Jl. Wailola, Bula, Kec. Bula, Kabupaten Seram Bagian Timur, Maluku";"Kabupaten Seram Bagian Timur, Maluku";"MALUKU";"";"Indonesia";"";"";"";"-3.0859745";"130.4679208";"https://maps.google.com/?cid=0x0:0x893a3f1f9b596542";""
"perumahan";"Komplek perumahan";"Abdillah";"X4FP+M5, Upt U. Airmatakabu, Kec. Bula Barat, Kabupaten Seram Bagian Timur, Maluku";"Kabupaten Seram Bagian Timur, Maluku";"MALUKU";"";"Indonesia";"";"";"";"-3.0257698";"130.1353673";"https://maps.google.com/?cid=0x0:0x4fc6ac6ecfd7c4d6";""
"perumahan";"Komplek perumahan";"Rumah Yeni";"W9JJ+GV5, Trans Seram, Hote, Kec. Bula, Kabupaten Seram Bagian Timur, Maluku";"Kabupaten Seram Bagian Timur, Maluku";"MALUKU";"";"Indonesia";"";"";"";"-3.0687347";"130.3822241";"https://maps.google.com/?cid=0x0:0xd772032c8e67b413";""
"perumahan";"Pembangunan Perumahan";"Pos al";"WF79+J57, Jl. Wailola, Bula, Kec. Bula, Kabupaten Seram Bagian Timur, Maluku";"Kabupaten Seram Bagian Timur, Maluku";"MALUKU";"";"Indonesia";"";"";"";"-3.0859745";"130.4679208";"https://maps.google.com/?cid=0x0:0x339886718a8cdb77";""
"perumahan";"Komplek perumahan";"Mess MEP";"Bula, Kec. Bula, Kabupaten Seram Bagian Timur, Maluku";"Kabupaten Seram Bagian Timur, Maluku";"MALUKU";"";"Indonesia";"";"";"";"-3.0966493";"130.4711762";"https://maps.google.com/?cid=0x0:0xf4d719f5c072795c";""
"perumahan";"perumahan";"rumah heru";"X48H+VF3, Upt U. Airmatakabu, Kec. Bula Barat, Kabupaten Seram Bagian Timur, Maluku";"Kabupaten Seram Bagian Timur, Maluku";"MALUKU";"";"Indonesia";"";"";"";"-3.0328679";"130.128687";"https://maps.google.com/?cid=0x0:0x9d3ef18a7d506542";""
"perumahan";"Komplek perumahan";"BPK. Isman";"X4CM+F5, Upt U. Airmatakabu, Kec. Bula Barat, Kabupaten Seram Bagian Timur, Maluku";"Kabupaten Seram Bagian Timur, Maluku";"MALUKU";"";"Indonesia";"";"";"";"-3.0287879";"130.1328786";"https://maps.google.com/?cid=0x0:0x87b89a16334ff4d9";""
"perumahan";"Perusahaan investasi properti";"Bestu jaya";"WF88+CJM, Jl. Wailola, Bula, Kec. Bula, Kabupaten Seram Bagian Timur, Maluku";"Kabupaten Seram Bagian Timur, Maluku";"MALUKU";"";"Indonesia";"";"";"";"-3.0835189";"130.4672344";"https://maps.google.com/?cid=0x0:0x2f101ee3d6bc7516";""
"perumahan";"perumahan";"Rmh bt";"WF89+XC, Bula, Kec. Bula, Kabupaten Seram Bagian Timur, Maluku";"Kabupaten Seram Bagian Timur, Maluku";"MALUKU";"";"Indonesia";"";"";"";"-3.0835435";"130.4693044";"https://maps.google.com/?cid=0x0:0xfe14a627f86e6b64";""
"perumahan";"perumahan";"Rumah Keli";"WF39+W65, Bula, Kec. Bula, Kabupaten Seram Bagian Timur, Maluku";"Kabupaten Seram Bagian Timur, Maluku";"MALUKU";"";"Indonesia";"";"";"";"-3.0952371";"130.4681225";"https://maps.google.com/?cid=0x0:0xb18ef0efacbe2826";""
"perumahan";"perumahan";"Kian Darat";"Kiandarat, Kabupaten Seram Bagian Timur, Maluku";"Kabupaten Seram Bagian Timur, Maluku";"MALUKU";"";"Indonesia";"";"";"";"-3.6853452";"130.7867889";"https://maps.google.com/?cid=0x0:0x63cc3443f68b9180";""
"perumahan";"Perumahan";"Kilga";"Kiandarat, Kian Darat, Kabupaten Seram Bagian Timur, Maluku";"Kabupaten Seram Bagian Timur, Maluku";"MALUKU";"";"Indonesia";"";"";"";"-3.6853452";"130.7867889";"https://maps.google.com/?cid=0x0:0x7c59cd733dfd3479";""
"perumahan";"Pembangunan Perumahan";"Negeri Kian";"8RQJ+55X, Kiandarat, Kian Darat, Kabupaten Seram Bagian Timur, Maluku";"Kabupaten Seram Bagian Timur, Maluku";"MALUKU";"";"Indonesia";"";"";"";"-3.6617754";"130.8308662";"https://maps.google.com/?cid=0x0:0x6fefa1fa06337d42";""
"perumahan";"Pembangunan Perumahan";"Kompleks kelapa 2";"8R2C+MMQ, Kian Laut, Kec. Lian Fitu, Kabupaten Seram Bagian Timur, Maluku";"Kabupaten Seram Bagian Timur, Maluku";"MALUKU";"";"Indonesia";"";"";"";"-3.6982978";"130.8217497";"https://maps.google.com/?cid=0x0:0x73cf0095877c31d1";""
"perumahan";"Pembangunan Perumahan";"KELABA";"9V72+6JP, Kelaba, Kiandarat, Kabupaten Seram Bagian Timur, Maluku";"Kabupaten Seram Bagian Timur, Maluku";"MALUKU";"";"Indonesia";"";"";"";"-3.6369052";"130.8515882";"https://maps.google.com/?cid=0x0:0xe9c6144654b8cc06";""
"perumahan";"Pembangunan Perumahan";"Desa aruan";"8R9G+C8V, Kian Laut Kec Sirtaun, Kiandarat, Kec. Lian Fitu, Kabupaten Seram Bagian Timur, Maluku";"Kabupaten Seram Bagian Timur, Maluku";"MALUKU";"";"Indonesia";"";"";"";"-3.6814331";"130.8258421";"https://maps.google.com/?cid=0x0:0x87635325650ff582";""
"perumahan";"Pembangunan Perumahan";"AIR LEO";"8Q7P+VP7, Kiandarat, Kian Darat, Kabupaten Seram Bagian Timur, Maluku";"Kabupaten Seram Bagian Timur, Maluku";"MALUKU";"";"Indonesia";"";"";"";"-3.6853452";"130.7867889";"https://maps.google.com/?cid=0x0:0xccd675908fbe9fc7";""
"perumahan";"Pembangunan Perumahan";"Kampung nama";"7RGH+J3G, Kian Laut, Kec. Seram Tim., Kabupaten Seram Bagian Timur, Maluku";"Kabupaten Seram Bagian Timur, Maluku";"MALUKU";"";"Indonesia";"";"";"";"-3.7234345";"130.8276878";"https://maps.google.com/?cid=0x0:0x5e576fb23304a25a";""
"perumahan";"Komplek perumahan";"Kilga Kilwow";"9V98+9M, Danama, Kilga, Kabupaten Seram Bagian Timur, Maluku";"Kabupaten Seram Bagian Timur, Maluku";"MALUKU";"";"Indonesia";" 082250621421";"";"";"-3.6316345";"130.8667769";"https://maps.google.com/?cid=0x0:0x5213d623b1531445";""
"perumahan";"Komplek perumahan";"Kampung Baru";"8R4C+34, Kian Laut, Kec. Lian Fitu, Kabupaten Seram Bagian Timur, Maluku";"Kabupaten Seram Bagian Timur, Maluku";"MALUKU";"";"Indonesia";"";"";"";"-3.6947615";"130.8203522";"https://maps.google.com/?cid=0x0:0xf3339c73c70fed84";""
"perumahan";"Pembangunan Perumahan";"Lurung genacu";"9V62+WP7, Danama, Kian Darat, Kabupaten Seram Bagian Timur, Maluku";"Kabupaten Seram Bagian Timur, Maluku";"MALUKU";"";"Indonesia";"";"";"";"-3.6377072";"130.8517895";"https://maps.google.com/?cid=0x0:0x5f9ea0a0360ce3bf";""
"perumahan";"Pembangunan Perumahan";"Kampung gaur";"8RGH+J3F, Desa, aruan, gaur, Kabupaten Seram Bagian Timur, Maluku";"Kabupaten Seram Bagian Timur, Maluku";"MALUKU";"";"Indonesia";"";"";"";"-3.6734262";"130.8276808";"https://maps.google.com/?cid=0x0:0x7d27f4b2a4a42013";""
"perumahan";"Komplek perumahan";"Kompleks kampung Tengah";"9RJX+92C, Danama, Kec. Tutuk Tolu, Kabupaten Seram Bagian Timur, Maluku";"Kabupaten Seram Bagian Timur, Maluku";"MALUKU";"";"Indonesia";"";"";"";"-3.6190667";"130.8475181";"https://maps.google.com/?cid=0x0:0x91dae00404001043";""
"perumahan";"Taman";"Salagor kota";"7RXC+JQ, Kian Laut, Kec. Lian Fitu, Kabupaten Seram Bagian Timur, Maluku";"Kabupaten Seram Bagian Timur, Maluku";"MALUKU";"";"Indonesia";"";"";"";"-3.7008977";"130.8219331";"https://maps.google.com/?cid=0x0:0x24507af7e5b48de8";""
"perumahan";"Pembangunan Perumahan";"Keta Rumada";"6QVG+6MV, Kwaos, Kec. Lian Fitu, Kabupaten Seram Bagian Timur, Maluku";"Kabupaten Seram Bagian Timur, Maluku";"MALUKU";"";"Indonesia";"";"";"";"-3.7568814";"130.7766611";"https://maps.google.com/?cid=0x0:0x8f56c26385aeac05";""
"perumahan";"Pembangunan Perumahan";"Dusun Kelsaur";"9VP2+JX, Danama, Kec. Tutuk Tolu, Kabupaten Seram Bagian Timur, Maluku";"Kabupaten Seram Bagian Timur, Maluku";"MALUKU";"";"Indonesia";"";"";"";"-3.6135553";"130.852493";"https://maps.google.com/?cid=0x0:0x84fe37a79b0a7b2b";""
"perumahan";"Komplek perumahan";"Kompleks Rumah Tua";"7RGG+MQ4, Kian Laut, Kec. Lian Fitu, Kabupaten Seram Bagian Timur, Maluku";"Kabupaten Seram Bagian Timur, Maluku";"MALUKU";"";"Indonesia";"";"";"";"-3.7233556";"130.82695";"https://maps.google.com/?cid=0x0:0x8df5674eb5aa671b";""
"perumahan";"Komplek perumahan";"Desa Artafella";"8Q7P+VP7, Desa Artafella, Kian Darat, Kabupaten Seram Bagian Timur, Maluku";"Kabupaten Seram Bagian Timur, Maluku";"MALUKU";"";"Indonesia";"";"";"";"-3.6853452";"130.7867889";"https://maps.google.com/?cid=0x0:0xefc494429c15936e";""
"perumahan";"perumahan";"DESA RUMFAKAR";"9VPH+VFV, Desa Rumfakar, Kian Darat, Kabupaten Seram Bagian Timur, Maluku";"Kabupaten Seram Bagian Timur, Maluku";"MALUKU";"";"Indonesia";"";"";"";"-3.612769";"130.878677";"https://maps.google.com/?cid=0x0:0x9afee97fe5c6cc9a";""
"perumahan";"Komplek perumahan";"Keluarga Keley";"7R5H+FF2, Kian Laut, Kec. Lian Fitu, Kabupaten Seram Bagian Timur, Maluku";"Kabupaten Seram Bagian Timur, Maluku";"MALUKU";"";"Indonesia";"";"";"";"-3.7409831";"130.8277813";"https://maps.google.com/?cid=0x0:0xa458da035462fcfe";""
"perumahan";"Toko bahan makanan";"Rumah Nia dan sarmi";"8RVJ+CRG, Kiandarat, Kian Darat, Kabupaten Seram Bagian Timur, Maluku";"Kabupaten Seram Bagian Timur, Maluku";"MALUKU";"";"Indonesia";"";"";"";"-3.655222";"130.8323612";"https://maps.google.com/?cid=0x0:0x5022e8062e5607fc";""
"perumahan";"perumahan";"Kec. Lian Fitu";"Kabupaten Seram Bagian Timur, Maluku";"Kabupaten Seram Bagian Timur, Maluku";"MALUKU";"";"Indonesia";"";"";"";"-3.7413684";"130.8286316";"https://maps.google.com/?cid=0x0:0x240a3775e9ef412c";""
"perumahan";"Pondok pedesaan";"Suru, Kec. Siritaun Wida Timur., Kabupaten Seram Bagian Timur., Maluku";"6RMH+5H8, Suru, Kec. Lian Fitu, Kabupaten Seram Bagian Timur, Maluku";"Kabupaten Seram Bagian Timur, Maluku";"MALUKU";"";"Indonesia";" 081240763048";"";"";"-3.7670875";"130.8289531";"https://maps.google.com/?cid=0x0:0xcee7c0c43b3c0148";""
"perumahan";"Pembangunan Perumahan";"Dusun Birit, Desa Kwaos";"5RPF+R4Q, Kwaos, Kec. Seram Tim., Kabupaten Seram Bagian Timur, Maluku";"Kabupaten Seram Bagian Timur, Maluku";"MALUKU";"";"Indonesia";"";"";"";"-3.8129055";"130.8228604";"https://maps.google.com/?cid=0x0:0xbc4468635ab0b884";""
"perumahan";"Komplek perumahan";"VHINA HATALA";"6R3G+C3, Kwaos, Kec. Lian Fitu, Kabupaten Seram Bagian Timur, Maluku";"Kabupaten Seram Bagian Timur, Maluku";"MALUKU";"";"Indonesia";"";"";"";"-3.7965604";"130.8252667";"https://maps.google.com/?cid=0x0:0xff441b4dbe8c3a0b";""
"perumahan";"Komplek perumahan";"Tawarei";"6R3G+C3, Kwaos, Kec. Lian Fitu, Kabupaten Seram Bagian Timur, Maluku";"Kabupaten Seram Bagian Timur, Maluku";"MALUKU";"";"Indonesia";"";"";"";"-3.7968056";"130.8249794";"https://maps.google.com/?cid=0x0:0xcdd0037c4834c384";""
"perumahan";"Komplek perumahan";"UkiNi";"6R3G+44Q, Jln trikora, Kwaos, Kec. Lian Fitu, Kabupaten Seram Bagian Timur, Maluku";"Kabupaten Seram Bagian Timur, Maluku";"MALUKU";"";"Indonesia";"";"";"";"-3.7971629";"130.8253599";"https://maps.google.com/?cid=0x0:0x794c779eeee591";""
"perumahan";"Komplek perumahan";"Kompleks Rumah Tua";"7RGG+MQ4, Kian Laut, Kec. Lian Fitu, Kabupaten Seram Bagian Timur, Maluku";"Kabupaten Seram Bagian Timur, Maluku";"MALUKU";"";"Indonesia";"";"";"";"-3.7233556";"130.82695";"https://maps.google.com/?cid=0x0:0x8df5674eb5aa671b";""
"perumahan";"Pembangunan Perumahan";"Kompleks kelapa 2";"8R2C+MMQ, Kian Laut, Kec. Lian Fitu, Kabupaten Seram Bagian Timur, Maluku";"Kabupaten Seram Bagian Timur, Maluku";"MALUKU";"";"Indonesia";"";"";"";"-3.6982978";"130.8217497";"https://maps.google.com/?cid=0x0:0x73cf0095877c31d1";""
"perumahan";"Komplek perumahan";"Keluarga aldi rumadan";"5R9C+257, Urung, Kec. Seram Tim., Kabupaten Seram Bagian Timur, Maluku";"Kabupaten Seram Bagian Timur, Maluku";"MALUKU";"";"Indonesia";"";"";"";"-3.8319058";"130.8205424";"https://maps.google.com/?cid=0x0:0xf412d8e3f11a7338";""
"perumahan";"Komplek perumahan";"Keta kwaos";"6QCP+2P3 Keta, Kwaos, Bula, Kabupaten Seram Bagian Timur, Maluku";"Kabupaten Seram Bagian Timur, Maluku";"MALUKU";"";"Indonesia";"";"";"";"-3.7799936";"130.7867889";"https://maps.google.com/?cid=0x0:0xdb5c9eb642f3ef21";""
"perumahan";"Komplek perumahan";"Irfani Rumakat";"6QCP+5MP, Kwaos, Kec. Lian Fitu, Kabupaten Seram Bagian Timur, Maluku";"Kabupaten Seram Bagian Timur, Maluku";"MALUKU";"";"Indonesia";"";"";"";"-3.7795455";"130.7866969";"https://maps.google.com/?cid=0x0:0x7105074584bcd031";""
"perumahan";"Pembangunan Perumahan";"Kampung nama";"7RGH+J3G, Kian Laut, Kec. Seram Tim., Kabupaten Seram Bagian Timur, Maluku";"Kabupaten Seram Bagian Timur, Maluku";"MALUKU";"";"Indonesia";"";"";"";"-3.7234345";"130.8276878";"https://maps.google.com/?cid=0x0:0x5e576fb23304a25a";""
"perumahan";"Komplek perumahan";"Rumadaul Yadi";"6R3G+42H, Kwaos, Kec. Seram Tim., Kabupaten Seram Bagian Timur, Maluku";"Kabupaten Seram Bagian Timur, Maluku";"MALUKU";"";"Indonesia";"";"";"";"-3.7971953";"130.8251031";"https://maps.google.com/?cid=0x0:0x9ed1b3a0fb8b5c51";""
"perumahan";"perumahan";"Markas Madrid";"5R9C+257, Urung, Kec. Seram Tim., Kabupaten Seram Bagian Timur, Maluku";"Kabupaten Seram Bagian Timur, Maluku";"MALUKU";"";"Indonesia";"";"";"";"-3.8324657";"130.8204099";"https://maps.google.com/?cid=0x0:0x7ac00e7fb1aa1022";""
"perumahan";"Komplek perumahan";"Askia Rumakat";"6R3G+C3, Kwaos, Kec. Lian Fitu, Kabupaten Seram Bagian Timur, Maluku";"Kabupaten Seram Bagian Timur, Maluku";"MALUKU";"";"Indonesia";"";"";"";"-3.796819";"130.8255443";"https://maps.google.com/?cid=0x0:0x54d2483c7edd16ae";""
"perumahan";"Pembangunan Perumahan";"Rumakat";"6R3G+C3, Kwaos, Kec. Lian Fitu, Kabupaten Seram Bagian Timur, Maluku";"Kabupaten Seram Bagian Timur, Maluku";"MALUKU";"";"Indonesia";"";"";"";"-3.7964375";"130.8251875";"https://maps.google.com/?cid=0x0:0x7cf3c4929f43ae59";""
"perumahan";"Pembangunan Perumahan";"Kecamatan Lian Fitu";"7RGG+QW7, Kian Laut, Kec. Seram Tim., Kabupaten Seram Bagian Timur, Maluku";"Kabupaten Seram Bagian Timur, Maluku";"MALUKU";"";"Indonesia";"";"";"";"-3.7231695";"130.8272151";"https://maps.google.com/?cid=0x0:0xbae10ff2f5be3e7a";""
"perumahan";"Komplek perumahan";"Aronin";"7RHG+7F, Kian Laut, Kec. Lian Fitu, Kabupaten Seram Bagian Timur, Maluku";"Kabupaten Seram Bagian Timur, Maluku";"MALUKU";"";"Indonesia";"";"";"";"-3.7228684";"130.8261824";"https://maps.google.com/?cid=0x0:0xa77fe5b7aff99043";""
"perumahan";"Komplek perumahan";"Sakina Rumadaul";"6R4G+77V, Jl. Rumeon, Kwaos, Kec. Lian Fitu, Kabupaten Seram Bagian Timur, Maluku";"Kabupaten Seram Bagian Timur, Maluku";"MALUKU";"";"Indonesia";" 081299213832";"";"";"-3.794252";"130.8256828";"https://maps.google.com/?cid=0x0:0xcb67590971ee4cd3";""
"perumahan";"Komplek perumahan";"Kampung Baru";"8R4C+34, Kian Laut, Kec. Lian Fitu, Kabupaten Seram Bagian Timur, Maluku";"Kabupaten Seram Bagian Timur, Maluku";"MALUKU";"";"Indonesia";"";"";"";"-3.6947615";"130.8203522";"https://maps.google.com/?cid=0x0:0xf3339c73c70fed84";""
"perumahan";"Pembangunan Perumahan";"Desa aruan";"8R9G+C8V, Kian Laut Kec Sirtaun, Kiandarat, Kec. Lian Fitu, Kabupaten Seram Bagian Timur, Maluku";"Kabupaten Seram Bagian Timur, Maluku";"MALUKU";"";"Indonesia";"";"";"";"-3.6814331";"130.8258421";"https://maps.google.com/?cid=0x0:0x87635325650ff582";""
"perumahan";"perumahan";"Kec. Tlk. Waru";"Kabupaten Seram Bagian Timur, Maluku";"Kabupaten Seram Bagian Timur, Maluku";"MALUKU";"";"Indonesia";"";"";"";"-3.404276";"130.6715092";"https://maps.google.com/?cid=0x0:0x8093b034c7ac82";""
"perumahan";"Komplek perumahan";"desa karai";"HMWC+7JJ, Belis, Kec. Tlk. Waru, Kabupaten Seram Bagian Timur, Maluku";"Kabupaten Seram Bagian Timur, Maluku";"MALUKU";"";"Indonesia";"";"";"";"-3.404276";"130.6715092";"https://maps.google.com/?cid=0x0:0x5af7837886ae1421";""
"perumahan";"Pondok pedesaan";"Nama Andan";"MRJ2+5RV, Pualu Parang, Waru, Kec. Tlk. Waru, Kabupaten Seram Bagian Timur, Maluku";"Kabupaten Seram Bagian Timur, Maluku";"MALUKU";"";"Indonesia";"";"";"";"-3.3195144";"130.8020515";"https://maps.google.com/?cid=0x0:0x9b8525b5c972d83f";""
"perumahan";"Perhimpunan Pengembang Perumahan";"MADAK";"GPCQ+2W3, Madak, Kec. Tlk. Waru, Kabupaten Seram Bagian Timur, Maluku";"Kabupaten Seram Bagian Timur, Maluku";"MALUKU";"";"Indonesia";"";"";"";"-3.4799846";"130.7397827";"https://maps.google.com/?cid=0x0:0x62295c41ab510df";""
"perumahan";"Pembangunan Perumahan";"AB SEHWAKY";"HMX7+98Q, Belis, Kec. Tlk. Waru, Kabupaten Seram Bagian Timur, Maluku";"Kabupaten Seram Bagian Timur, Maluku";"MALUKU";"";"Indonesia";"";"";"";"-3.4015356";"130.6633522";"https://maps.google.com/?cid=0x0:0x6191567a3f880bfb";""
"perumahan";"Balai masyarakat";"Lopong desa waru";"JM55+PPC, Belis, Waru, Kabupaten Seram Bagian Timur, Maluku";"Kabupaten Seram Bagian Timur, Maluku";"MALUKU";"";"Indonesia";"";"";"";"-3.3906876";"130.6592552";"https://maps.google.com/?cid=0x0:0x60bf6ff283c759d4";""
"perumahan";"Komplek perumahan";"DESA Adm KARAY";"HMWC+7JJ, Desa Karai, Kec. Tlk. Waru, Kabupaten Seram Bagian Timur, Maluku";"Kabupaten Seram Bagian Timur, Maluku";"MALUKU";"";"Indonesia";"";"";"";"-3.404276";"130.6715092";"https://maps.google.com/?cid=0x0:0xf71e3ba3919d1f2b";""
"perumahan";"perumahan";"Tubir Masiwang 2";"GMVW+673, Waru, Kec. Tlk. Waru, Kabupaten Seram Bagian Timur, Maluku";"Kabupaten Seram Bagian Timur, Maluku";"MALUKU";"";"Indonesia";"";"";"";"-3.456019";"130.695863";"https://maps.google.com/?cid=0x0:0x300f943be6bba4f";""
"perumahan";"Komplek perumahan";"Salas Kon";"QHJ3+2J9, Unnamed Road, Salas, Kec. Bula, Kabupaten Seram Bagian Timur, Maluku";"Kabupaten Seram Bagian Timur, Maluku";"MALUKU";"";"Indonesia";"";"";"";"-3.219962";"130.554123";"https://maps.google.com/?cid=0x0:0xac759d004c3ba629";""
"perumahan";"Komplek perumahan";"Vila Raja Dawang";"PHCW+5X, Dawang, Kec. Tlk. Waru, Kabupaten Seram Bagian Timur, Maluku";"Kabupaten Seram Bagian Timur, Maluku";"MALUKU";"";"Indonesia";"";"";"";"-3.2795512";"130.5973819";"https://maps.google.com/?cid=0x0:0xd1b8ae7fc4d7e598";""
"perumahan";"Pembangunan Perumahan";"Pos solat sala";"HMWF+859, Waru, Bula, Kabupaten Seram Bagian Timur, Maluku";"Kabupaten Seram Bagian Timur, Maluku";"MALUKU";"";"Indonesia";"";"";"";"-3.404204";"130.6729914";"https://maps.google.com/?cid=0x0:0x436e892e5ca88f39";""
"perumahan";"Komplek perumahan";"FM Pro Atamari";"VFWQ+2P9, Jl. A. Tamaela, Bula, Kec. Bula, Kabupaten Seram Bagian Timur, Maluku";"Kabupaten Seram Bagian Timur, Maluku";"MALUKU";"";"Indonesia";"";"";"";"-3.104955";"130.4893717";"https://maps.google.com/?cid=0x0:0xe06e257f8488159f";""
"perumahan";"perumahan";"Rumah Alina Rumaisa";"VFWQ+668, JL. AIRPORT DESA TANSI AMBON, Kec. Bula";"Kabupaten Seram Bagian Timur, Maluku";"MALUKU";"";"Indonesia";"";"";"";"-3.104452";"130.488088";"https://maps.google.com/?cid=0x0:0xe82c74425b1a1a06";""
"perumahan";"Perhimpunan Pengembang Perumahan";"AREAL PERKAMPUNGAN WARU REY";"VFPG+W62, Bula, Kec. Bula, Kabupaten Seram Bagian Timur, Maluku";"Kabupaten Seram Bagian Timur, Maluku";"MALUKU";"";"Indonesia";"";"";"";"-3.1127471";"130.4755166";"https://maps.google.com/?cid=0x0:0x81393872dade0ea8";""
"perumahan";"Perhimpunan Pengembang Perumahan";"Rumah Abang eghy rdy";"FQVG+XM3, Gah, Kec. Tutuk Tolu, Kabupaten Seram Bagian Timur, Maluku";"Kabupaten Seram Bagian Timur, Maluku";"MALUKU";"";"Indonesia";"";"";"";"-3.5051043";"130.7766611";"https://maps.google.com/?cid=0x0:0x43deb0d246794c76";""
"perumahan";"Komplek perumahan";"Rumah firman";"VFVR+RMM, Bula, Kec. Bula, Kabupaten Seram Bagian Timur, Maluku";"Kabupaten Seram Bagian Timur, Maluku";"MALUKU";"";"Indonesia";"";"";"";"-3.1054062";"130.4916606";"https://maps.google.com/?cid=0x0:0x454f8cf3cf14f42";""
"perumahan";"Perhimpunan Pengembang Perumahan";"Areal Waru Rey";"VFWQ+668, Jalan Belakang Pendopo, Bula, Kec. Bula, Kabupaten Seram Bagian Timur, Maluku";"Kabupaten Seram Bagian Timur, Maluku";"MALUKU";"";"Indonesia";"";"";"";"-3.104452";"130.488088";"https://maps.google.com/?cid=0x0:0x65c6a77189a2bed7";""
"perumahan";"Balai masyarakat";"Belis";"JJCW+6X6, Belis, Kec. Bula, Kabupaten Seram Bagian Timur, Maluku";"Kabupaten Seram Bagian Timur, Maluku";"MALUKU";"";"Indonesia";"";"";"";"-3.3794665";"130.647387";"https://maps.google.com/?cid=0x0:0x41630874f45f1452";""
"perumahan";"Kantor Pemerintah";"Desa teluk waru";"972X+M46, Tlk. Waru, Kec. Long Ikis, Kabupaten Paser, Kalimantan Timur 76282";"Tlk. Waru, Kec. Long Ikis, Kabupaten Paser";"MALUKU";"76282";"Indonesia";"";"";"";"-1.6483263";"116.2977749";"https://maps.google.com/?cid=0x0:0xe5b8b752ef3a8ab7";""
"perumahan";"Perhimpunan Pengembang Perumahan";"Teluk waru blok A";"986J+X8X, Jln poros, Tlk. Waru, Kec. Long Ikis, Kabupaten Paser, Kalimantan Timur";"Kabupaten Paser, Kalimantan Timur";"MALUKU";"";"Indonesia";"";"";"";"-1.6375156";"116.3308478";"https://maps.google.com/?cid=0x0:0xf1760be755ecd496";""
