Category;Real Category;Business Name;Address;City;State;Postal Code;Country;Phone;Email;Website;Latitude;Longitude;Map Link;Details Link
hotel;hotel;Papua 99558;Kabupaten Yalimo, Papua;Kabupaten Yalimo, Papua;PAPUA;;Indonesia;;;;-36.880.907;1.394.059.435;https://maps.google.com/?cid=0x0:0x3b5f63f09d51baad;
hotel;hotel;Hotel Baliem Pilamo;Jl. Trikora No.114, Wamena Kota, Distrik Wamena, Kabupaten Jayawijaya, Papua 99511;Wamena Kota, Distrik Wamena, Kabupaten Jayawijaya;PAPUA;99511;Indonesia;81344090719;;;-4.089.872;1.389.452.891;https://maps.google.com/?cid=0x0:0x4c66aca0c6c4c202;
hotel;hotel;The Baliem Valley Resort;Desa Sekan Kecamatan Siepkosi, Pugima, Distrik Wamena, Kabupaten Jayawijaya, Papua 80034;Pugima, Distrik Wamena, Kabupaten Jayawijaya;PAPUA;80034;Indonesia;;;;-40.595.129;1.390.293.485;https://maps.google.com/?cid=0x0:0xa5f70df54e54f86c;
hotel;hotel;SAMUMAMBO HOTEL;jl. cenderawasih belakang manna bakerei, Kwamki, Kec. Mimika Baru, Kabupaten Mimika, Papua 99910;Kwamki, Kec. Mimika Baru, Kabupaten Mimika;PAPUA;99910;Indonesia;81344090664;;;-45.424.836;1.368.797.497;https://maps.google.com/?cid=0x0:0xcb5241de257efb93;
hotel;Penginapan;Wamena;698M+FX, Elelim, Distrik Elelim, Kabupaten Yalimo, Papua;Kabupaten Yalimo, Papua;PAPUA;;Indonesia;;;;-3.783.783;139.384.914;https://maps.google.com/?cid=0x0:0x3b46a51c2e24c0fb;
hotel;Hotel;Yakikma;699C+FC2, Jl.Andreas Mabel, Yakikma, Elelim, Yalimo Regency, Papua 99558;Jl.Andreas Mabel, Yakikma, Elelim, Yalimo Regency;PAPUA;99558;Indonesia;82116132027;;;-3.781.355;139.371.012;https://maps.google.com/?cid=0x0:0x848721af96d45e82;
hotel;hotel;Papua 99553;Kabupaten Mamberamo Tengah, Papua;Kabupaten Mamberamo Tengah, Papua;PAPUA;;Indonesia;;;;-35.985.594;1.389.202.828;https://maps.google.com/?cid=0x0:0xaaa3e440e190d1a5;
hotel;hotel;Distrik Kelila;Kabupaten Mamberamo Tengah, Papua;Kabupaten Mamberamo Tengah, Papua;PAPUA;;Indonesia;;;;-37.316.725;1.387.109.221;https://maps.google.com/?cid=0x0:0xa0ae0cb94004cada;
hotel;hotel;Amaris Hotel Dr. Satrio Kuningan - Jakarta;7, Jl. Prof. DR. Satrio No.23, RW.2, Kuningan Tim., Kecamatan Setiabudi, Kota Jakarta Selatan, Daerah Khusus Ibukota Jakarta 12950;Jl. Prof. DR. Satrio No.23, RW.2, Kuningan Tim., Kecamatan Setiabudi, Kota Jakarta Selatan;PAPUA;12950;Indonesia;2129023336;;;-62.256.071;1.068.296.596;https://maps.google.com/?cid=0x0:0x9703a3bf392e02d5;
hotel;hotel;Manhattan Hotel Jakarta;Jl. Prof. DR. Satrio No.Kav.19-24, RT.7/RW.4, Kuningan, Karet Kuningan, Kecamatan Setiabudi, Kota Jakarta Selatan, Daerah Khusus Ibukota Jakarta 12940;RT.7/RW.4, Kuningan, Karet Kuningan, Kecamatan Setiabudi, Kota Jakarta Selatan;PAPUA;12940;Indonesia;2130040888;;;-62.252.344;1.068.313.176;https://maps.google.com/?cid=0x0:0x54fd31f2806946cb;
hotel;hotel;N/A;;;PAPUA;;Indonesia;;;;;;https://maps.google.com/?cid=0x0:0x54fd31f2806946cb%7C/g/1tj5hl1s%7Cen-ID;
hotel;Prasmanan;Central Park Restaurant;Manhattan Hotel 3rd Floor, JL Prof. Dr. Satrio, No. 1, Casablanca Kuningan, RT.7/RW.4, Kuningan, Karet Kuningan, Jakarta Selatan, Kota Jakarta Selatan, Daerah Khusus Ibukota Jakarta 12950;JL Prof. Dr. Satrio, No. 1, Casablanca Kuningan, RT.7/RW.4, Kuningan, Karet Kuningan, Jakarta Selatan, Kota Jakarta Selatan;PAPUA;12950;Indonesia;2130040888;;;-62.254.615;1.068.312.765;https://maps.google.com/?cid=0x0:0x47e83ff4b2d01406;
hotel;hotel;Hotel D' Prima;Jl. Mega Kuningan Timur II No.1, Kuningan, Kuningan Tim., Kecamatan Setiabudi, Kota Jakarta Selatan, Daerah Khusus Ibukota Jakarta 12950;Kuningan, Kuningan Tim., Kecamatan Setiabudi, Kota Jakarta Selatan;PAPUA;12950;Indonesia;2129201234;;;-62.285.905;1.068.282.792;https://maps.google.com/?cid=0x0:0xb5a37f1e4d342823;
hotel;hotel;Hotel Rasuna Icon;Jl. Karet Pedurenan No.3, RT.6/RW.7, Kuningan, Karet Kuningan, Kecamatan Setiabudi, Kota Jakarta Selatan, Daerah Khusus Ibukota Jakarta 12940;RT.6/RW.7, Kuningan, Karet Kuningan, Kecamatan Setiabudi, Kota Jakarta Selatan;PAPUA;12940;Indonesia;215201642;;;-62.207.481;1.068.291.792;https://maps.google.com/?cid=0x0:0x96ed03281906a8bb;
hotel;hotel;N/A;;;PAPUA;;Indonesia;;;;;;https://maps.google.com/?cid=0x0:0xb5a37f1e4d342823%7C/g/1ptydqp1p%7Cen-ID;
hotel;hotel;N/A;;;PAPUA;;Indonesia;;;;;;https://maps.google.com/?cid=0x0:0x96ed03281906a8bb%7C/g/1w3sx3cl%7Cen-ID;
hotel;hotel;N/A;;;PAPUA;;Indonesia;;;;;;https://maps.google.com/?cid=0x0:0xb27da9c90bfeec74%7C/g/11t77mm2hq%7Cen-ID;
hotel;hotel;ARTOTEL Casa Kuningan;Jl. Denpasar Raya, RT.8/RW.3, Kuningan, Kuningan Tim., Kecamatan Setiabudi, Kota Jakarta Selatan, Daerah Khusus Ibukota Jakarta 12950;RT.8/RW.3, Kuningan, Kuningan Tim., Kecamatan Setiabudi, Kota Jakarta Selatan;PAPUA;12950;Indonesia;8111539539;;;-62.347.461;1.068.268.999;https://maps.google.com/?cid=0x0:0xb27da9c90bfeec74;
hotel;hotel;Hotel JS Luwansa;Jl. H. R. Rasuna Said No.22 Kav. C, RT.2/RW.5, Karet Kuningan, Kecamatan Setiabudi, Kota Jakarta Selatan, Daerah Khusus Ibukota Jakarta 12940;RT.2/RW.5, Karet Kuningan, Kecamatan Setiabudi, Kota Jakarta Selatan;PAPUA;12940;Indonesia;2129543030;;;-62.228.755;1.068.330.025;https://maps.google.com/?cid=0x0:0x29a39276bac061d4;
hotel;hotel;N/A;;;PAPUA;;Indonesia;;;;;;https://maps.google.com/?cid=0x0:0x29a39276bac061d4%7C/g/1yfjcpq5y%7Cen-ID;
hotel;hotel;Hotel Mercure Jakarta Gatot Subroto;Jl. Gatot Subroto No.Kav. 1, Kuningan Bar., Jakarta, Kota Jakarta Selatan, Daerah Khusus Ibukota Jakarta 12790;Kuningan Bar., Jakarta, Kota Jakarta Selatan;PAPUA;12790;Indonesia;2150825400;;;-62.395.588;1.068.307.447;https://maps.google.com/?cid=0x0:0xae2c6b053bbf55c2;
hotel;hotel;N/A;;;PAPUA;;Indonesia;;;;;;https://maps.google.com/?cid=0x0:0xae2c6b053bbf55c2%7C/g/11fjz2dbln%7Cen-ID;
hotel;hotel;Horison Ultima Suites  Residences Rasuna - Jakarta;Apartment Taman Rasuna, Jl. H. R. Rasuna Said Tower 3, RT.17/RW.1, Menteng Atas, Kecamatan Setiabudi, Kota Jakarta Selatan, Daerah Khusus Ibukota Jakarta 12960;Jl. H. R. Rasuna Said Tower 3, RT.17/RW.1, Menteng Atas, Kecamatan Setiabudi, Kota Jakarta Selatan;PAPUA;12960;Indonesia;2183705555;;;-62.193.601;1.068.365.809;https://maps.google.com/?cid=0x0:0x27db10815b390914;
hotel;Prasmanan;Mezza Cafe;Komplek Apartemen Taman Rasuna, Jl. H. R. Rasuna Said No.17, RT.17/RW.1, Menteng Atas, Kecamatan Setiabudi, Kota Jakarta Selatan, Daerah Khusus Ibukota Jakarta 12960;Jl. H. R. Rasuna Said No.17, RT.17/RW.1, Menteng Atas, Kecamatan Setiabudi, Kota Jakarta Selatan;PAPUA;12960;Indonesia;2183705555;;;-62.193.165;1.068.368.211;https://maps.google.com/?cid=0x0:0xc022045324feab53;
hotel;hotel;Habitare Apart Hotel Rasuna Jakarta;Jl. H. R. Rasuna Said No.Kav.20, RT.1/RW.5, Karet Kuningan, Kecamatan Setiabudi, Kota Jakarta Selatan, Daerah Khusus Ibukota Jakarta 12940;RT.1/RW.5, Karet Kuningan, Kecamatan Setiabudi, Kota Jakarta Selatan;PAPUA;12940;Indonesia;81110107752;;;-62.196.302;106.832.079;https://maps.google.com/?cid=0x0:0xe870ec225dfe6799;
hotel;hotel;The Westin Jakarta;Jl. H. R. Rasuna Said No.Kav.C-22A, RT.2/RW.5, Karet Kuningan, Kecamatan Setiabudi, Kota Jakarta Selatan, Daerah Khusus Ibukota Jakarta 12940;RT.2/RW.5, Karet Kuningan, Kecamatan Setiabudi, Kota Jakarta Selatan;PAPUA;12940;Indonesia;2127887788;;;-62.237.501;1.068.338.607;https://maps.google.com/?cid=0x0:0x55b5886634b5a317;
hotel;hotel;N/A;;;PAPUA;;Indonesia;;;;;;https://maps.google.com/?cid=0x0:0x55b5886634b5a317%7C/g/11ckvvj713%7Cen-ID;
hotel;hotel;favehotel Gatot Subroto Jakarta;Jl. Kartika Candra No.Kav. A-9, Karet Semanggi, Kecamatan Setiabudi, Kota Jakarta Selatan, Daerah Khusus Ibukota Jakarta 12930;Karet Semanggi, Kecamatan Setiabudi, Kota Jakarta Selatan;PAPUA;12930;Indonesia;2129419888;;;-62.271.941;1.068.195.971;https://maps.google.com/?cid=0x0:0x211de77bb11fbee6;
hotel;hotel;N/A;;;PAPUA;;Indonesia;;;;;;https://maps.google.com/?cid=0x0:0x211de77bb11fbee6%7C/g/1pp2t_26r%7Cen-ID;
hotel;hotel;Wyndham Casablanca Jakarta;Jl. Raya Casablanca No.18, RT.4/RW.12, Menteng Dalam, Kec. Tebet, Kota Jakarta Selatan, Daerah Khusus Ibukota Jakarta 12870;RT.4/RW.12, Menteng Dalam, Kec. Tebet, Kota Jakarta Selatan;PAPUA;12870;Indonesia;218282000;;;-62.248.964;1.068.400.434;https://maps.google.com/?cid=0x0:0x70e5ae0ff55cdac1;
hotel;hotel;N/A;;;PAPUA;;Indonesia;;;;;;https://maps.google.com/?cid=0x0:0x70e5ae0ff55cdac1%7C/g/11h081m9fz%7Cen-ID;
hotel;hotel;The Grove Suites by GRAND ASTON;Kawasan Rasuna Epicentrum, Jl. H. R. Rasuna Said, Kuningan, Setiabudi, South Jakarta City, Jakarta 12960;Jl. H. R. Rasuna Said, Kuningan, Setiabudi, South Jakarta City;PAPUA;12960;Indonesia;2129941880;;;-6.218.023;106.834.088;https://maps.google.com/?cid=0x0:0x5286b4af4df2a6d6;
hotel;hotel;N/A;;;PAPUA;;Indonesia;;;;;;https://maps.google.com/?cid=0x0:0x5286b4af4df2a6d6%7C/g/1pv5ww3hm%7Cen-ID;
hotel;hotel;Hotel Raffles Jakarta;Ciputra World, Jl. Prof. DR. Satrio No.Kav 3 – 5, Kuningan, Karet Kuningan, Setiabudi, South Jakarta City, Jakarta 12940;Jl. Prof. DR. Satrio No.Kav 3 – 5, Kuningan, Karet Kuningan, Setiabudi, South Jakarta City;PAPUA;12940;Indonesia;2129880888;;;-6.224.109;1.068.243.478;https://maps.google.com/?cid=0x0:0x739094cdcbcb594d;
hotel;hotel;N/A;;;PAPUA;;Indonesia;;;;;;https://maps.google.com/?cid=0x0:0x739094cdcbcb594d%7C/g/11b6_rfyyb%7Cen-ID;
hotel;hotel;Papua 99553;Kabupaten Mamberamo Tengah, Papua;Kabupaten Mamberamo Tengah, Papua;PAPUA;;Indonesia;;;;-35.985.594;1.389.202.828;https://maps.google.com/?cid=0x0:0xaaa3e440e190d1a5;
hotel;hotel;Rimba Papua Hotel;Jl. Kwamki Narama No. 1, Kwamki, Kec. Mimika Baru, Kabupaten Mimika, Papua 99971;Kwamki, Kec. Mimika Baru, Kabupaten Mimika;PAPUA;99971;Indonesia;901494949;;;-45.151.124;136.884.599;https://maps.google.com/?cid=0x0:0xa65056700db32492;
hotel;Taman;Pusat kota kuala kencana;JV39+Q2H, Kuala Kencana, Kec. Kuala Kencana, Kabupaten Mimika, Papua;Kabupaten Mimika, Papua;PAPUA;;Indonesia;;;;-43.955.572;1.368.676.097;https://maps.google.com/?cid=0x0:0xc130e6059a0d59c3;
hotel;Tujuan Wisata;Pasir Putih Wamena;XX72+4CQ, Aikima, Kec. Kurulu, Kabupaten Jayawijaya, Papua 99566;Aikima, Kec. Kurulu, Kabupaten Jayawijaya;PAPUA;99566;Indonesia;;;;-40.371.623;1.389.511.044;https://maps.google.com/?cid=0x0:0xb7451fcd39daf555;
hotel;hotel;The Baliem Valley Resort;Desa Sekan Kecamatan Siepkosi, Pugima, Distrik Wamena, Kabupaten Jayawijaya, Papua 80034;Pugima, Distrik Wamena, Kabupaten Jayawijaya;PAPUA;80034;Indonesia;;;;-40.595.129;1.390.293.485;https://maps.google.com/?cid=0x0:0xa5f70df54e54f86c;
hotel;hotel;Hotel Baliem Pilamo;Jl. Trikora No.114, Wamena Kota, Distrik Wamena, Kabupaten Jayawijaya, Papua 99511;Wamena Kota, Distrik Wamena, Kabupaten Jayawijaya;PAPUA;99511;Indonesia;81344090719;;;-4.089.872;1.389.452.891;https://maps.google.com/?cid=0x0:0x4c66aca0c6c4c202;
hotel;hotel;Hotel Putri Dani;Jl. Irian No.40, Hurekama, Distrik Wamena, Kabupaten Jayawijaya, Papua 99511;Hurekama, Distrik Wamena, Kabupaten Jayawijaya;PAPUA;99511;Indonesia;81315241808;;;-40.957.582;1.389.392.487;https://maps.google.com/?cid=0x0:0x8f74e0c2ea557b12;
hotel;hotel;Hotel Cartenz Wamena;Jl. Yos Sudarso No.45, Hurekama, Distrik Wamena, Kabupaten Jayawijaya, Papua 99511;Hurekama, Distrik Wamena, Kabupaten Jayawijaya;PAPUA;99511;Indonesia;81344804750;;;-41.012.558;1.389.376.982;https://maps.google.com/?cid=0x0:0xf2c5765f17cbf383;
hotel;hotel;Hotel Anggrek;Jl. Ambon No.1, Wamena Kota, Distrik Wamena, Kabupaten Jayawijaya, Papua 99511;Wamena Kota, Distrik Wamena, Kabupaten Jayawijaya;PAPUA;99511;Indonesia;;;;-40.951.401;1.389.486.951;https://maps.google.com/?cid=0x0:0x8c14510cd7032458;
hotel;hotel;Hotel Rainbow;Jl. Irian No.26, Wamena Kota, Distrik Wamena, Kabupaten Jayawijaya, Papua 99511;Wamena Kota, Distrik Wamena, Kabupaten Jayawijaya;PAPUA;99511;Indonesia;81248000685;;;-40.943.536;1.389.419.192;https://maps.google.com/?cid=0x0:0x8a8c32fe134fd547;
hotel;hotel;Hotel Rannu Jaya;WW6V+7RM, Wamena Kota, Distrik Wamena, Kabupaten Jayawijaya, Papua 99511;Wamena Kota, Distrik Wamena, Kabupaten Jayawijaya;PAPUA;99511;Indonesia;82195455765;;;-40.892.985;1.389.445.592;https://maps.google.com/?cid=0x0:0xdd25cadd9590097a;
hotel;hotel;Pintu Biru Hostel;Jl. Yos Sudarso No.88, Hurekama, Distrik Wamena, Kabupaten Jayawijaya, Papua Pegunungan, 99511;Hurekama, Distrik Wamena, Kabupaten Jayawijaya;PAPUA;99511;Indonesia;82269369789;;;-4.101.998;1.389.353.285;https://maps.google.com/?cid=0x0:0xc884605b24325550;
hotel;hotel;Papua 99558;Kabupaten Yalimo, Papua;Kabupaten Yalimo, Papua;PAPUA;;Indonesia;;;;-36.880.907;1.394.059.435;https://maps.google.com/?cid=0x0:0x3b5f63f09d51baad;
hotel;hotel;Megambilis;Kabupaten Mamberamo Tengah, Papua;Kabupaten Mamberamo Tengah, Papua;PAPUA;;Indonesia;;;;-34.819.907;1.390.817.124;https://maps.google.com/?cid=0x0:0xefd46c1238e2d969;
hotel;Penginapan;Wamena;698M+FX, Elelim, Distrik Elelim, Kabupaten Yalimo, Papua;Kabupaten Yalimo, Papua;PAPUA;;Indonesia;;;;-3.783.783;139.384.914;https://maps.google.com/?cid=0x0:0x3b46a51c2e24c0fb;
hotel;hotel;N/A;;;PAPUA;;Indonesia;;;;;;https://maps.google.com/?cid=0x0:0xbc067e79eb286899%7C/g/11fk3c9tbc%7Cen-ID;
hotel;hotel;Grand Mutiara Hotel Puncak;Jl. Raya puncak km. 75 ( JL.R Mustahar no.199, Cipayung Datar, Kec. Megamendung, Kabupaten Bogor, Jawa Barat 16770;Cipayung Datar, Kec. Megamendung, Kabupaten Bogor;PAPUA;16770;Indonesia;2518255665;;;-66.521.769;1.068.931.701;https://maps.google.com/?cid=0x0:0x6277940783a95d6b;
hotel;hotel;The kanzi hotel;Jl. Raya Puncak Cipayung No.Km. 75, No. 79, Cipayung Datar, Kec. Megamendung, Kabupaten Bogor, Jawa Barat 16770;No. 79, Cipayung Datar, Kec. Megamendung, Kabupaten Bogor;PAPUA;16770;Indonesia;2518250253;;;-66.504.567;1.068.920.927;https://maps.google.com/?cid=0x0:0xe5f2b29bd865a274;
hotel;hotel;Hotel Purnama;Jl. Raya Puncak - Gadog No.220 KM. 75, Cipayung Datar, Kec. Megamendung, Kabupaten Bogor, Jawa Barat 16770;Cipayung Datar, Kec. Megamendung, Kabupaten Bogor;PAPUA;16770;Indonesia;2518252538;;;-66.510.023;1.068.918.791;https://maps.google.com/?cid=0x0:0xa21c65c1eeca557c;
hotel;hotel;Gumilang Hotel;Jl. Raya Puncak KM 75.5, Cipayung, RT.Puncak, Cipayung Datar, Kec. Cisarua, Kabupaten Bogor, Jawa Barat 16750;Cipayung, RT.Puncak, Cipayung Datar, Kec. Cisarua, Kabupaten Bogor;PAPUA;16750;Indonesia;2518254604;;;-6.650.428;1.068.964.482;https://maps.google.com/?cid=0x0:0x41b647b178cceba2;
hotel;hotel;Hotel Bogor Indah Nirwana;Jl. Raya Puncak No.Km. 71, Cipayung Datar, Kec. Megamendung, Kabupaten Bogor, Jawa Barat 16770;Cipayung Datar, Kec. Megamendung, Kabupaten Bogor;PAPUA;16770;Indonesia;2518251046;;;-66.505.642;1.068.931.619;https://maps.google.com/?cid=0x0:0xb451b0da28408711;
hotel;hotel;Hotel Bahtera Pelni;Jl. Raya Puncak No.256, Cipayung Girang, Kec. Megamendung, Kabupaten Bogor, Jawa Barat 16770;Cipayung Girang, Kec. Megamendung, Kabupaten Bogor;PAPUA;16770;Indonesia;2518254251;;;-6.650.482;1.068.989.312;https://maps.google.com/?cid=0x0:0xf256e7a751653af0;
hotel;hotel;Jimmers Mountain Resort;Jl. Cijulang Peuntas No.77, Kopo, Kec. Cisarua, Kabupaten Bogor, Jawa Barat 16750;Kopo, Kec. Cisarua, Kabupaten Bogor;PAPUA;16750;Indonesia;2518295112;;;-66.589.066;1.068.992.916;https://maps.google.com/?cid=0x0:0x8321f159942109f2;
hotel;hotel;Hotel New Ayuda Puncak;Jl. Raya Puncak No.KM. 17, Cipayung Girang, Kec. Megamendung, Kabupaten Bogor, Jawa Barat 16770;Cipayung Girang, Kec. Megamendung, Kabupaten Bogor;PAPUA;16770;Indonesia;8111248262;;;-66.501.875;106.904.219;https://maps.google.com/?cid=0x0:0x407da7dc4c44cbe1;
hotel;Perhentian bus;Jl. Habib Umar Selatan;Cipayung Datar, Kec. Megamendung, Kabupaten Bogor, Jawa Barat;Kabupaten Bogor, Jawa Barat;PAPUA;;Indonesia;;;;-665.063;10.689.353;https://maps.google.com/?cid=0x0:0xe96b628c8050e324;
hotel;Kebun Binatang;Taman Safari Indonesia Bogor;Jalan Kapten Harun Kabir No.724, Cibeureum, Kec. Cisarua, Kabupaten Bogor, Jawa Barat 16750;Cibeureum, Kec. Cisarua, Kabupaten Bogor;PAPUA;16750;Indonesia;2518250000;;;-67.206.492;1.069.508.355;https://maps.google.com/?cid=0x0:0x6586bb20b8f11d9;
hotel;hotel;Papua 99557;Kabupaten Mamberamo Tengah, Papua;Kabupaten Mamberamo Tengah, Papua;PAPUA;;Indonesia;;;;-37.408.827;1.389.404.364;https://maps.google.com/?cid=0x0:0xb128d87fca34f08d;
hotel;hotel;Agung Hotel;R36V+MW8, Mandala, Kec. Biak Kota, Kabupaten Biak Numfor, Papua 98111;Mandala, Kec. Biak Kota, Kabupaten Biak Numfor;PAPUA;98111;Indonesia;;;;-11.883.413;1.360.948.382;https://maps.google.com/?cid=0x0:0x30d4b4e3f34c7a61;
hotel;hotel;Horison Inn Relat Jayapura;Jl. Pantai Klp. No.21 - 23, Argapura, Distrik Jayapura Selatan, Kota Jayapura, Papua;Kota Jayapura, Papua;PAPUA;;Indonesia;9675160779;;;-25.537.101;1.407.148.929;https://maps.google.com/?cid=0x0:0xb98fc1bbb5c5c494;
hotel;hotel;Hotel Karya Papua;JGX6+2PM, Jl. R.E. Martadinata Kalinona, Nabarua, Distrik Nabire, Papua 98816;Jl. R.E. Martadinata Kalinona, Nabarua, Distrik Nabire;PAPUA;98816;Indonesia;82164655697;;;-33.524.082;1.355.118.114;https://maps.google.com/?cid=0x0:0x8196bf4b8aafbb3f;
hotel;hotel;Lavela Inn Timika;Kwamki, Kec. Mimika Baru, Kabupaten Mimika, Papua 99971;Kec. Mimika Baru, Kabupaten Mimika;PAPUA;99971;Indonesia;8114994940;;;-45.391.172;1.368.759.273;https://maps.google.com/?cid=0x0:0xa4c513a55702dcad;
hotel;hotel;Numbay Hotel;Jl. Trikora No.23, Dok V, Trikora, Kec. Jayapura Utara, Kota Jayapura, Papua 99114;Dok V, Trikora, Kec. Jayapura Utara, Kota Jayapura;PAPUA;99114;Indonesia;9675166939;;;-2.527.363;1.407.185.297;https://maps.google.com/?cid=0x0:0x2a95e5b69088c98d;
hotel;hotel;Hotel Maureen;46GR+P4R, Jl. Sudirman, Serui Kota, Kec. Yapen Sel., Kabupaten Kepulauan Yapen, Papua 98213;Jl. Sudirman, Serui Kota, Kec. Yapen Sel., Kabupaten Kepulauan Yapen;PAPUA;98213;Indonesia;81354165909;;;-18.731.433;1.362.401.965;https://maps.google.com/?cid=0x0:0xb028b61c6c000d80;
hotel;hotel;Hotel Bunga Youtefa;9MRJ+339, Wai Mhorock, Kec. Abepura, Kota Jayapura, Papua 99225;Wai Mhorock, Kec. Abepura, Kota Jayapura;PAPUA;99225;Indonesia;;;;-2.609.849;14.068.022;https://maps.google.com/?cid=0x0:0x6ed44eab0b6f0605;
hotel;hotel;Hotel Matoa;Jl. Ahmad Yani No.14, Gurabesi, Kec. Jayapura Utara, Kota Jayapura, Papua 99222;Gurabesi, Kec. Jayapura Utara, Kota Jayapura;PAPUA;99222;Indonesia;967531633;;;-25.431.901;1.407.035.183;https://maps.google.com/?cid=0x0:0x81bb053fbf57415d;
hotel;hotel;Hotel Mapia;Jl. Jend. Ahmad Yani No.23, Mandala, Kec. Biak Kota, Kabupaten Biak Numfor, Papua 98111;Mandala, Kec. Biak Kota, Kabupaten Biak Numfor;PAPUA;98111;Indonesia;98121383;;;-11.848.375;1.360.856.602;https://maps.google.com/?cid=0x0:0x15f6e40202cd7120;
hotel;hotel;Jaya Hotel;CVJP+XV2, Jl. Raya Sp1, Inauga, Kec. Mimika Baru, Kabupaten Mimika, Papua 99971;Jl. Raya Sp1, Inauga, Kec. Mimika Baru, Kabupaten Mimika;PAPUA;99971;Indonesia;87777677405;;;-45.676.146;1.368.871.472;https://maps.google.com/?cid=0x0:0x854e1f8dfba40a6c;
hotel;hotel;Hotel Sawitto 1;FV4V+3QV, Timika Jaya, Kec. Mimika Baru, Kabupaten Mimika, Papua 99971;Timika Jaya, Kec. Mimika Baru, Kabupaten Mimika;PAPUA;99971;Indonesia;;;;-45.447.575;1.368.944.296;https://maps.google.com/?cid=0x0:0xa49800860bcb43de;
hotel;hotel;Hotel Manna;Jl. Imam Bonjol, Fandoi, Biak Papua, Kabupaten Biak Numfor, Papua 98112;Fandoi, Biak Papua, Kabupaten Biak Numfor;PAPUA;98112;Indonesia;98122224;;;-11.808.075;1.360.821.667;https://maps.google.com/?cid=0x0:0x58ba27a7cb3a5bd6;
hotel;hotel;Penginapan Paparisa Amungsa;Koperapoka, Kec. Mimika Baru, Kabupaten Mimika, Papua 99971;Kec. Mimika Baru, Kabupaten Mimika;PAPUA;99971;Indonesia;81343206383;;;-45.385.795;1.368.755.667;https://maps.google.com/?cid=0x0:0xfd07a1d4446c8f23;
hotel;hotel;Penginapan 69;Kp. Waena, Kec. Heram, Kota Jayapura, Papua 99225;Kec. Heram, Kota Jayapura;PAPUA;99225;Indonesia;81248523621;;;-2.593.495;1.406.310.796;https://maps.google.com/?cid=0x0:0x12711ec27878fab8;
hotel;hotel;OYO 93073 Penginapan 69;CM59+9JM, Jl. kp Waena, Vim, Heram, Jayapura City, Papua 99226;Jl. kp Waena, Vim, Heram, Jayapura City;PAPUA;99226;Indonesia;817788016;;;-25.915.361;1.406.690.328;https://maps.google.com/?cid=0x0:0x45a2e9e9e4762fe5;
hotel;hotel;Penginapan lestari;Jl.Yan Mamoribo No.80, Mamoribo, Waisai, Kabupaten Biak Numfor, Papua 98481;Mamoribo, Waisai, Kabupaten Biak Numfor;PAPUA;98481;Indonesia;2198826634;;;-0.976628;13.583.272;https://maps.google.com/?cid=0x0:0x335024486992d26;
hotel;hotel;Rimba Papua Hotel;Jl. Kwamki Narama No. 1, Kwamki, Kec. Mimika Baru, Kabupaten Mimika, Papua 99971;Kwamki, Kec. Mimika Baru, Kabupaten Mimika;PAPUA;99971;Indonesia;901494949;;;-45.151.124;136.884.599;https://maps.google.com/?cid=0x0:0xa65056700db32492;
hotel;hotel;Horison Diana Timika;Jl. Budi Utomo No.8, Kwamki, Kec. Mimika Baru, Kabupaten Mimika, Papua 99971;Kwamki, Kec. Mimika Baru, Kabupaten Mimika;PAPUA;99971;Indonesia;8114941818;;;-45.421.375;1.368.835.025;https://maps.google.com/?cid=0x0:0xc5f75bca5af54755;
hotel;hotel;Hotel Horison Ultima Timika;Jl. Hasanuddin No.9, Nawaripi, Kec. Mimika Baru, Kabupaten Mimika, Papua 99971;Nawaripi, Kec. Mimika Baru, Kabupaten Mimika;PAPUA;99971;Indonesia;9013264888;;;-45.657.683;1.368.827.914;https://maps.google.com/?cid=0x0:0x2acb1e774fc2c064;
hotel;hotel;Noken Hotel Timika;FV5M+62C, Jl. Budi Utomo, Kwamki, Kec. Mimika Baru, Kabupaten Mimika, Papua 99910;Jl. Budi Utomo, Kwamki, Kec. Mimika Baru, Kabupaten Mimika;PAPUA;99910;Indonesia;8114991033;;;-45.419.296;1.368.825.128;https://maps.google.com/?cid=0x0:0x2fc89f236a139de5;
hotel;hotel;SAMUMAMBO HOTEL;jl. cenderawasih belakang manna bakerei, Kwamki, Kec. Mimika Baru, Kabupaten Mimika, Papua 99910;Kwamki, Kec. Mimika Baru, Kabupaten Mimika;PAPUA;99910;Indonesia;81344090664;;;-45.424.836;1.368.797.497;https://maps.google.com/?cid=0x0:0xcb5241de257efb93;
hotel;hotel;Emerald Hotel;Jl. Cendrawasih, Timika Jaya, Kec. Mimika Baru, Kabupaten Mimika, Papua 99963;Timika Jaya, Kec. Mimika Baru, Kabupaten Mimika;PAPUA;99963;Indonesia;9013260124;;;-45.405.312;1.368.759.912;https://maps.google.com/?cid=0x0:0x731314059a512d0f;
hotel;hotel;RedDoorz @ Jalan Cendrawasih Timika;Jalan Cendrawasih Belakang Manna, Kwamki, Bakerei, Kabupaten Mimika, Papua 99910;Kwamki, Bakerei, Kabupaten Mimika;PAPUA;99910;Indonesia;8,95417E+11;;;-45.424.845;1.368.797.499;https://maps.google.com/?cid=0x0:0xe497a05bd4efc640;
hotel;hotel;Komoro Tame Hotel  Resort;Jalan Cendrawasih SP II, Kwamki, Kec. Mimika Baru, Kabupaten Mimika, Papua 99910;Kwamki, Kec. Mimika Baru, Kabupaten Mimika;PAPUA;99910;Indonesia;9013260059;;;-45.411.009;1.368.800.714;https://maps.google.com/?cid=0x0:0xe4c13d4863f484f5;
hotel;hotel;Homestay Warna-warni;Jl. Kelimutu, Kwamki, Kec. Mimika Baru, Kabupaten Mimika, Papua 99971;Kwamki, Kec. Mimika Baru, Kabupaten Mimika;PAPUA;99971;Indonesia;81354006789;;;-45.378.258;1.368.756.732;https://maps.google.com/?cid=0x0:0x28995f5ad663d932;
hotel;Taman;Pusat kota kuala kencana;JV39+Q2H, Kuala Kencana, Kec. Kuala Kencana, Kabupaten Mimika, Papua;Kabupaten Mimika, Papua;PAPUA;;Indonesia;;;;-43.955.572;1.368.676.097;https://maps.google.com/?cid=0x0:0xc130e6059a0d59c3;
hotel;Restoran;SUSHI BAR ADJA;Rimba Papua Hotel, Kwamki, Kec. Mimika Baru, Kabupaten Mimika, Papua;Kabupaten Mimika, Papua;PAPUA;;Indonesia;81212369151;;;-45.151.124;136.884.599;https://maps.google.com/?cid=0x0:0xdbf7c5bd59350554;
hotel;hotel;Hotel Sinar Mulia;Simpang Raya, Kec. Barong Tongkok, Kabupaten Kutai Barat, Kalimantan Timur 75777;Kec. Barong Tongkok, Kabupaten Kutai Barat;PAPUA;75777;Indonesia;82250006492;;;-0.2464763;115.695.348;https://maps.google.com/?cid=0x0:0x3c9bc4d9ea3cbb8e;
restaurant;restaurant;Papua 99558;Kabupaten Yalimo, Papua;Kabupaten Yalimo, Papua;PAPUA;;Indonesia;;;;-36.880.907;1.394.059.435;https://maps.google.com/?cid=0x0:0x3b5f63f09d51baad;
restaurant;Kafe;warung makan lumayan;69HJ+5HV, Unnamed Road, Elelim, Distrik Elelim, Kabupaten Yalimo, Papua 99558;Unnamed Road, Elelim, Distrik Elelim, Kabupaten Yalimo;PAPUA;99558;Indonesia;85244955800;;;-3.772.016;139.381.411;https://maps.google.com/?cid=0x0:0xbc4ad3c4c7484ec;
restaurant;Restoran;Rm Telago Biru;69JM+55F, Unnamed Road, Elelim, Distrik Elelim, Kabupaten Yalimo, Papua 99558;Unnamed Road, Elelim, Distrik Elelim, Kabupaten Yalimo;PAPUA;99558;Indonesia;85211887759;;;-37.695.505;1.393.829.323;https://maps.google.com/?cid=0x0:0x3dfa9d5b02f381e0;
restaurant;Bubur;Rolenda Organic Restaurant;Jl. Trans Papua,KM-130-Wamena Tengon Jl. Ohoam, Elelim, Distrik Elelim, Kabupaten Yalimo, Papua 99082;Elelim, Distrik Elelim, Kabupaten Yalimo;PAPUA;99082;Indonesia;81247068008;;;-37.792.593;139.381.862;https://maps.google.com/?cid=0x0:0x13f13fd67511f555;
restaurant;Restoran;Elelim Cafe;Elelim, Distrik Elelim, Kabupaten Yalimo, Papua 99558;Distrik Elelim, Kabupaten Yalimo;PAPUA;99558;Indonesia;81240090528;;;-37.700.989;1.393.833.279;https://maps.google.com/?cid=0x0:0xb4f215888727433b;
restaurant;restaurant;Warung Makan Palopo;Jln. Pirip (Trans Jayapura-Wamena, Elelim, Distrik Elelim, Kabupaten Yalimo, Papua 99584;Elelim, Distrik Elelim, Kabupaten Yalimo;PAPUA;99584;Indonesia;;;;-37.646.549;1.393.879.892;https://maps.google.com/?cid=0x0:0x53d4d21efc1f1fd5;
restaurant;restaurant;Warkop Pricia  Blackbox Barbershop;69JM+3C5, Elelim, Distrik Elelim, Kabupaten Yalimo, Papua 99558;Elelim, Distrik Elelim, Kabupaten Yalimo;PAPUA;99558;Indonesia;81280644306;;;-37.698.723;1.393.836.133;https://maps.google.com/?cid=0x0:0x176e588b2c546517;
restaurant;Italia;Casa Cuomo Ristorante  Lounge;Jl. Gunawarman No.57, Rw. Bar., Kec. Kby. Baru, Kota Jakarta Selatan, Daerah Khusus Ibukota Jakarta 12180;Rw. Bar., Kec. Kby. Baru, Kota Jakarta Selatan;PAPUA;12180;Indonesia;2172120073;;;-6.236.945;106.807.781;https://maps.google.com/?cid=0x0:0x26b8da6fa3bec391;
restaurant;Restoran;PA.SO.LA Restaurant;Sudirman Central Business District (SCBD, Jl. Jend. Sudirman kav 52-53, RT.5/RW.3, Senayan, Kec. Kby. Baru, Kota Jakarta Selatan, Daerah Khusus Ibukota Jakarta 12190;Jl. Jend. Sudirman kav 52-53, RT.5/RW.3, Senayan, Kec. Kby. Baru, Kota Jakarta Selatan;PAPUA;12190;Indonesia;2125501993;;;-62.235.233;1.068.097.302;https://maps.google.com/?cid=0x0:0x6f8a97dabcb7d15f;
restaurant;Kafe;Warung makan Afrizal;69QQ+C8J, Elelim, Distrik Elelim, Kabupaten Yalimo, Papua;Kabupaten Yalimo, Papua;PAPUA;;Indonesia;;;;-37.602.085;1.393.892.694;https://maps.google.com/?cid=0x0:0xfdb8154eb88dffc9;
restaurant;Restoran;Table8;Hotel Mulia Jakarta, Jl. Asia Afrika, RT.1/RW.3, Gelora, Kecamatan Tanah Abang, Kota Jakarta Pusat, Daerah Khusus Ibukota Jakarta 10270;Jl. Asia Afrika, RT.1/RW.3, Gelora, Kecamatan Tanah Abang, Kota Jakarta Pusat;PAPUA;10270;Indonesia;215753271;;;-62.151.359;1.067.971.881;https://maps.google.com/?cid=0x0:0x804f4e72512817bc;
restaurant;Jepang;Edogin;Jl. Asia Afrika, Senayan, Kecamatan Tanah Abang, Kota Jakarta Pusat, Daerah Khusus Ibukota Jakarta 10270;Senayan, Kecamatan Tanah Abang, Kota Jakarta Pusat;PAPUA;10270;Indonesia;215753274;;;-62.151.383;1.067.970.056;https://maps.google.com/?cid=0x0:0x7a6f43dc1d1d2214;
restaurant;China;Sugar  Spice;InterContinental Jakarta Pondok Indah, Level 1 Jalan Metro Pondok Indah Kav. IV, 1, RT.1/RW.16, TA, Kec. Kby. Lama, Kota Jakarta Selatan, Daerah Khusus Ibukota Jakarta 12310;Level 1 Jalan Metro Pondok Indah Kav. IV, 1, RT.1/RW.16, TA, Kec. Kby. Lama, Kota Jakarta Selatan;PAPUA;12310;Indonesia;2139507355;;;-62.645.466;1.067.824.862;https://maps.google.com/?cid=0x0:0x9af012019d2158b4;
restaurant;Bar Minuman Koktail;KITA ?? Restaurant;Park Hyatt Jakarta, Jl. Kebon Sirih No.17-19, Kb. Sirih, Kec. Menteng, Jakarta, Daerah Khusus Ibukota Jakarta 10340;Jl. Kebon Sirih No.17-19, Kb. Sirih, Kec. Menteng, Jakarta;PAPUA;10340;Indonesia;2131190333;;;-61.847.782;1.068.304.992;https://maps.google.com/?cid=0x0:0x83fcb222c73a90e7;
restaurant;restaurant;Papua 99553;Kabupaten Mamberamo Tengah, Papua;Kabupaten Mamberamo Tengah, Papua;PAPUA;;Indonesia;;;;-35.985.594;1.389.202.828;https://maps.google.com/?cid=0x0:0xaaa3e440e190d1a5;
restaurant;restaurant;KIOS GABRIEL;7JFM+24M, puskesmas, Dogobak, Kelila, Central Mamberamo Regency, Papua;Kabupaten Mamberamo Tengah, Papua;PAPUA;;Indonesia;;;;-37.274.138;138.632.803;https://maps.google.com/?cid=0x0:0xa0d37f21949d0ee2;
restaurant;Mesin Sangrai Kopi;Alenia Papua Coffee  Kitchen;Jl. Kemang Raya No.66 B 8, RT.8/RW.2, Bangka, Kec. Mampang Prpt., Kota Jakarta Selatan, Daerah Khusus Ibukota Jakarta 12730;RT.8/RW.2, Bangka, Kec. Mampang Prpt., Kota Jakarta Selatan;PAPUA;12730;Indonesia;2171790141;;;-62.638.119;1.068.158.777;https://maps.google.com/?cid=0x0:0xe49807fcfab68b48;
restaurant;restaurant;Papua 99553;Kabupaten Mamberamo Tengah, Papua;Kabupaten Mamberamo Tengah, Papua;PAPUA;;Indonesia;;;;-35.985.594;1.389.202.828;https://maps.google.com/?cid=0x0:0xaaa3e440e190d1a5;
restaurant;restaurant;Mm ani;9X96+565, Seralema, Distrik Kobagma, Kabupaten Mamberamo Tengah, Papua;Kabupaten Mamberamo Tengah, Papua;PAPUA;;Indonesia;;;;-36.321.083;1.389.605.972;https://maps.google.com/?cid=0x0:0x84ad925293d8b1f6;
restaurant;Warnet;Diroma Net.;5WMW+3W4, Melenggama, Kec. Ilugwa, Kabupaten Mamberamo Tengah, Papua;Kabupaten Mamberamo Tengah, Papua;PAPUA;;Indonesia;;;;-38.173.572;1.389.473.357;https://maps.google.com/?cid=0x0:0x3e27955e0867ba20;
restaurant;Kedai Kopi;Cafe Batavia;Jl. Pintu Besar Utara No.14, RT.7/RW.6, Pinangsia, Kec. Taman Sari, Kota Jakarta Barat, Daerah Khusus Ibukota Jakarta 11110;RT.7/RW.6, Pinangsia, Kec. Taman Sari, Kota Jakarta Barat;PAPUA;11110;Indonesia;216915534;;;-61.344.394;1.068.127.579;https://maps.google.com/?cid=0x0:0xa38223eb6637cf44;
restaurant;Restoran;NEW BATAVIA Cafe;Taman Fatahillah No.3, RW.7, Pinangsia, Kec. Taman Sari, Kota Jakarta Barat, Daerah Khusus Ibukota Jakarta 11110;RW.7, Pinangsia, Kec. Taman Sari, Kota Jakarta Barat;PAPUA;11110;Indonesia;;;;-6.134.157;1.068.134.594;https://maps.google.com/?cid=0x0:0x342579e3d7434194;
restaurant;Restoran;Batavia Kantine;VR86+7XC Kantin Batavia, RT.7/RW.7, Pinangsia, Taman Sari, West Jakarta City, Jakarta 11110;RT.7/RW.7, Pinangsia, Taman Sari, West Jakarta City;PAPUA;11110;Indonesia;;;;-61.343.144;1.068.123.865;https://maps.google.com/?cid=0x0:0x66244ffd008bfdd4;
restaurant;Restoran;Batavia Marina;Jl. Ancol Barat IV, RT.1/RW.3, Ancol, Kec. Pademangan, Jkt Utara, Daerah Khusus Ibukota Jakarta 14430;RT.1/RW.3, Ancol, Kec. Pademangan, Jkt Utara;PAPUA;14430;Indonesia;216915599;;;-61.202.274;1.068.126.682;https://maps.google.com/?cid=0x0:0x15e16cb09adfb86b;
restaurant;restaurant;Papua 99558;Kabupaten Yalimo, Papua;Kabupaten Yalimo, Papua;PAPUA;;Indonesia;;;;-36.880.907;1.394.059.435;https://maps.google.com/?cid=0x0:0x3b5f63f09d51baad;
restaurant;Kafe;Umega cafe;69GJ+2J4, Elelim, Distrik Elelim, Kabupaten Yalimo, Papua 99558;Elelim, Distrik Elelim, Kabupaten Yalimo;PAPUA;99558;Indonesia;;;;-37.749.983;1.393.815.822;https://maps.google.com/?cid=0x0:0x1d57878ccf670700;
restaurant;Restoran;Rm Telago Biru;69JM+55F, Unnamed Road, Elelim, Distrik Elelim, Kabupaten Yalimo, Papua 99558;Unnamed Road, Elelim, Distrik Elelim, Kabupaten Yalimo;PAPUA;99558;Indonesia;85211887759;;;-37.695.505;1.393.829.323;https://maps.google.com/?cid=0x0:0x3dfa9d5b02f381e0;
restaurant;Kafe;warung makan lumayan;69HJ+5HV, Unnamed Road, Elelim, Distrik Elelim, Kabupaten Yalimo, Papua 99558;Unnamed Road, Elelim, Distrik Elelim, Kabupaten Yalimo;PAPUA;99558;Indonesia;85244955800;;;-3.772.016;139.381.411;https://maps.google.com/?cid=0x0:0xbc4ad3c4c7484ec;
restaurant;Restoran;Elelim Cafe;Elelim, Distrik Elelim, Kabupaten Yalimo, Papua 99558;Distrik Elelim, Kabupaten Yalimo;PAPUA;99558;Indonesia;81240090528;;;-37.700.989;1.393.833.279;https://maps.google.com/?cid=0x0:0xb4f215888727433b;
restaurant;restaurant;Warung Makan Palopo;Jln. Pirip (Trans Jayapura-Wamena, Elelim, Distrik Elelim, Kabupaten Yalimo, Papua 99584;Elelim, Distrik Elelim, Kabupaten Yalimo;PAPUA;99584;Indonesia;;;;-37.646.549;1.393.879.892;https://maps.google.com/?cid=0x0:0x53d4d21efc1f1fd5;
restaurant;Kafe;MASSILIA Cucina Italiana Gatot Subroto;Jl. Gatot Subroto No.Kav 55, Menteng Dalam, Kec. Tebet, Kota Jakarta Selatan, Daerah Khusus Ibukota Jakarta 12830;Menteng Dalam, Kec. Tebet, Kota Jakarta Selatan;PAPUA;12830;Indonesia;81110020320;;;-62.404.097;1.068.351.037;https://maps.google.com/?cid=0x0:0x9cd0105b79c2e7ca;
restaurant;restaurant;Warkop Pricia  Blackbox Barbershop;69JM+3C5, Elelim, Distrik Elelim, Kabupaten Yalimo, Papua 99558;Elelim, Distrik Elelim, Kabupaten Yalimo;PAPUA;99558;Indonesia;81280644306;;;-37.698.723;1.393.836.133;https://maps.google.com/?cid=0x0:0x176e588b2c546517;
restaurant;Kafe;Warung makan Afrizal;69QQ+C8J, Elelim, Distrik Elelim, Kabupaten Yalimo, Papua;Kabupaten Yalimo, Papua;PAPUA;;Indonesia;;;;-37.602.085;1.393.892.694;https://maps.google.com/?cid=0x0:0xfdb8154eb88dffc9;
restaurant;restaurant;Megambilis;Kabupaten Mamberamo Tengah, Papua;Kabupaten Mamberamo Tengah, Papua;PAPUA;;Indonesia;;;;-34.819.907;1.390.817.124;https://maps.google.com/?cid=0x0:0xefd46c1238e2d969;
restaurant;restaurant;Megabilis;Megambilis, Kabupaten Mamberamo Tengah, Papua;Kabupaten Mamberamo Tengah, Papua;PAPUA;;Indonesia;;;;-34.901.723;1.389.404.364;https://maps.google.com/?cid=0x0:0x49606c89a01734fd;
restaurant;restaurant;Papua 99557;Kabupaten Mamberamo Tengah, Papua;Kabupaten Mamberamo Tengah, Papua;PAPUA;;Indonesia;;;;-37.408.827;1.389.404.364;https://maps.google.com/?cid=0x0:0xb128d87fca34f08d;
restaurant;Restoran;Restaurant Yougwa;CJ63+H23, Jl. Raya Abepura - Sentani, Asei Kecil, Kec. Sentani Tim., Kabupaten Jayapura, Papua 99351;Jl. Raya Abepura - Sentani, Asei Kecil, Kec. Sentani Tim., Kabupaten Jayapura;PAPUA;99351;Indonesia;8114801448;;;-25.886.245;140.602.559;https://maps.google.com/?cid=0x0:0x65e60fc66014e79c;
restaurant;Restoran;Rumah Makan Joglo;Semangga Jaya, Kec. Semangga, Kabupaten Merauke, Papua 99651;Kec. Semangga, Kabupaten Merauke;PAPUA;99651;Indonesia;;;;-84.257.351;1.404.610.449;https://maps.google.com/?cid=0x0:0x8012e9c9873b80e7;
restaurant;Ikan Bakar;D'Jimbaran Papua;9PX8+3VF, Engros, Kec. Abepura, Kota Jayapura, Papua;Kota Jayapura, Papua;PAPUA;;Indonesia;;;;-26.020.736;1.407.168.784;https://maps.google.com/?cid=0x0:0xb6125c5e0138c416;
restaurant;Warnet;Diroma Net.;5WMW+3W4, Melenggama, Kec. Ilugwa, Kabupaten Mamberamo Tengah, Papua;Kabupaten Mamberamo Tengah, Papua;PAPUA;;Indonesia;;;;-38.173.572;1.389.473.357;https://maps.google.com/?cid=0x0:0x3e27955e0867ba20;
restaurant;Kantor Pemerintah;Gunarimo;jln naik logot paga, Jln kimbim Jl. Pyramid, Asologaima, Muliama, Kabupaten Jayawijaya, Papua;Kabupaten Jayawijaya, Papua;PAPUA;;Indonesia;;;;-39.327.433;13.878.402;https://maps.google.com/?cid=0x0:0xbea97391cecc3ae8;
restaurant;Warnet;Diroma Net;Kampung Pikhe Sebelah Timur lapangan Sepak Bola Pikhe, Jl. Pikhe Arah kali Baliem, Okoloma, Distrik Wamena, Kabupaten Jayawijaya, Papua 99511;Jl. Pikhe Arah kali Baliem, Okoloma, Distrik Wamena, Kabupaten Jayawijaya;PAPUA;99511;Indonesia;81247370516;;;-40.510.524;1.389.418.959;https://maps.google.com/?cid=0x0:0x5109acce7db58cbb;
restaurant;BBQ Korea;DEUSEYO KOREAN BBQ  JJIGAE - Juanda;Raffles Square, Jl. Ir. H. Juanda 1 No.11 - 12, Ps. Baru, Kecamatan Sawah Besar, Kota Jakarta Pusat, Daerah Khusus Ibukota Jakarta 10710;Jl. Ir. H. Juanda 1 No.11 - 12, Ps. Baru, Kecamatan Sawah Besar, Kota Jakarta Pusat;PAPUA;10710;Indonesia;213857241;;;-61.672.257;1.068.311.588;https://maps.google.com/?cid=0x0:0x3ae424471cf00282;
restaurant;Produsen makanan;Doeun Menteng;3, Jl. Yusuf Adiwinata No.29, RT.6/RW.5, Gondangdia, Kec. Menteng, Jakarta, Daerah Khusus Ibukota Jakarta 10350;Jl. Yusuf Adiwinata No.29, RT.6/RW.5, Gondangdia, Kec. Menteng, Jakarta;PAPUA;10350;Indonesia;81111128900;;;-61.918.771;1.068.283.324;https://maps.google.com/?cid=0x0:0x2bb4761fb9bc4f5c;
restaurant;Korea;MAGAL Korean BBQ House Pecenongan;jalan pecenongan no 67 ABC, RT.2/RW.4, Kb. Klp., Kecamatan Gambir, Kota Jakarta Pusat, Daerah Khusus Ibukota Jakarta 10120;RT.2/RW.4, Kb. Klp., Kecamatan Gambir, Kota Jakarta Pusat;PAPUA;10120;Indonesia;87880888882;;;-61.627.676;1.068.264.865;https://maps.google.com/?cid=0x0:0xe3522e49dd4a2684;
restaurant;BBQ Korea;ILLUA SOJU BAR ??? ?? ?;Jl. K.H. Wahid Hasyim No.87, RT.1/RW.4, Gondangdia, Kec. Menteng, Kota Jakarta Pusat, Daerah Khusus Ibukota Jakarta 10350;RT.1/RW.4, Gondangdia, Kec. Menteng, Kota Jakarta Pusat;PAPUA;10350;Indonesia;81818888840;;;-61.874.494;1.068.261.191;https://maps.google.com/?cid=0x0:0x97fc8a61460a1284;
cafe;cafe;Papua 99558;Kabupaten Yalimo, Papua;Kabupaten Yalimo, Papua;PAPUA;;Indonesia;;;;-36.880.907;1.394.059.435;https://maps.google.com/?cid=0x0:0x3b5f63f09d51baad;
cafe;Restoran;Elelim Cafe;Elelim, Distrik Elelim, Kabupaten Yalimo, Papua 99558;Distrik Elelim, Kabupaten Yalimo;PAPUA;99558;Indonesia;81240090528;;;-37.700.989;1.393.833.279;https://maps.google.com/?cid=0x0:0xb4f215888727433b;
cafe;Kafe;Umega cafe;69GJ+2J4, Elelim, Distrik Elelim, Kabupaten Yalimo, Papua 99558;Elelim, Distrik Elelim, Kabupaten Yalimo;PAPUA;99558;Indonesia;;;;-37.749.983;1.393.815.822;https://maps.google.com/?cid=0x0:0x1d57878ccf670700;
cafe;cafe;Warkop Pricia  Blackbox Barbershop;69JM+3C5, Elelim, Distrik Elelim, Kabupaten Yalimo, Papua 99558;Elelim, Distrik Elelim, Kabupaten Yalimo;PAPUA;99558;Indonesia;81280644306;;;-37.698.723;1.393.836.133;https://maps.google.com/?cid=0x0:0x176e588b2c546517;
cafe;Restoran;Rm Telago Biru;69JM+55F, Unnamed Road, Elelim, Distrik Elelim, Kabupaten Yalimo, Papua 99558;Unnamed Road, Elelim, Distrik Elelim, Kabupaten Yalimo;PAPUA;99558;Indonesia;85211887759;;;-37.695.505;1.393.829.323;https://maps.google.com/?cid=0x0:0x3dfa9d5b02f381e0;
cafe;Bubur;Rolenda Organic Restaurant;Jl. Trans Papua,KM-130-Wamena Tengon Jl. Ohoam, Elelim, Distrik Elelim, Kabupaten Yalimo, Papua 99082;Elelim, Distrik Elelim, Kabupaten Yalimo;PAPUA;99082;Indonesia;81247068008;;;-37.792.593;139.381.862;https://maps.google.com/?cid=0x0:0x13f13fd67511f555;
cafe;Kafe;Koultoura Coffee - Sudirman;Jl. K.H. Mas Mansyur No.12 Kav. 24, RT.12/RW.11, Karet Tengsin, Tanah Abang, Central Jakarta City, Jakarta 10220;RT.12/RW.11, Karet Tengsin, Tanah Abang, Central Jakarta City;PAPUA;10220;Indonesia;;;;-62.077.019;1.068.177.914;https://maps.google.com/?cid=0x0:0x5ccaa9545b1265be;
cafe;Kedai Kopi;Kohicha Japanese Cafe;Ruko Gading Kirana Jalan Boulevard Artha Gading No.Blok A.6a No.21, RT.18/RW.8, Klp. Gading Bar., Kec. Klp. Gading, Jkt Utara, Daerah Khusus Ibukota Jakarta 14240;RT.18/RW.8, Klp. Gading Bar., Kec. Klp. Gading, Jkt Utara;PAPUA;14240;Indonesia;87878431807;;;-61.454.907;1.068.961.152;https://maps.google.com/?cid=0x0:0x2924c951c90023db;
cafe;Kedai Kopi;Mamo Coffee  Eatery;MAMO COFFEE  EATERY, Jl. Prof. Joko Sutono SH No.1A, RT.1/RW.2, Petogogan, Kec. Kby. Baru, Kota Jakarta Selatan, Daerah Khusus Ibukota Jakarta 12170;Jl. Prof. Joko Sutono SH No.1A, RT.1/RW.2, Petogogan, Kec. Kby. Baru, Kota Jakarta Selatan;PAPUA;12170;Indonesia;81312842296;;;-6.241.126;1.068.076.417;https://maps.google.com/?cid=0x0:0x459ac36c2029df6a;
cafe;cafe;Warung Makan Palopo;Jln. Pirip (Trans Jayapura-Wamena, Elelim, Distrik Elelim, Kabupaten Yalimo, Papua 99584;Elelim, Distrik Elelim, Kabupaten Yalimo;PAPUA;99584;Indonesia;;;;-37.646.549;1.393.879.892;https://maps.google.com/?cid=0x0:0x53d4d21efc1f1fd5;
cafe;Kedai Kopi;Koultoura Coffee;Jl. Ciniru I No.1, Rw. Bar., Kec. Kby. Baru, Jakarta, Daerah Khusus Ibukota Jakarta 12180;Rw. Bar., Kec. Kby. Baru, Jakarta;PAPUA;12180;Indonesia;81286869082;;;-62.355.801;1.068.110.022;https://maps.google.com/?cid=0x0:0x4599600ab8419ed2;
cafe;Kedai Kopi;Common Grounds Coffee Roaster Menteng;Jl. Teuku Cik Ditiro No.10, RT.10/RW.5, Menteng, Kec. Menteng, Kota Jakarta Pusat, Daerah Khusus Ibukota Jakarta 10310;RT.10/RW.5, Menteng, Kec. Menteng, Kota Jakarta Pusat;PAPUA;10310;Indonesia;81933697697;;;-61.995.782;1.068.371.027;https://maps.google.com/?cid=0x0:0x40636b200cbc6254;
cafe;Kedai Kopi;Koultoura Coffee - Wang Plaza;Wang Plaza, Jl. Panjang No.kav 17, RT.14/RW.7, Kedoya Utara, Kec. Kb. Jeruk, Kota Jakarta Barat, Daerah Khusus Ibukota Jakarta 11520;Jl. Panjang No.kav 17, RT.14/RW.7, Kedoya Utara, Kec. Kb. Jeruk, Kota Jakarta Barat;PAPUA;11520;Indonesia;;;;-6.172.884;1.067.659.683;https://maps.google.com/?cid=0x0:0xfa6361f5f9be5f4c;
cafe;Kafe;Koyu Cafe;Jl. Bangka Raya No.45, Pela Mampang, Kec. Mampang Prpt., Kota Jakarta Selatan, Daerah Khusus Ibukota Jakarta 12720;Pela Mampang, Kec. Mampang Prpt., Kota Jakarta Selatan;PAPUA;12720;Indonesia;;;;-6.248.026;1.068.151.472;https://maps.google.com/?cid=0x0:0x7294707809022325;
cafe;Kafe;Marora Coffee Beach;9PGV+GM, Nafri, Kec. Abepura, Kota Jayapura, Papua 99351;Nafri, Kec. Abepura, Kota Jayapura;PAPUA;99351;Indonesia;81248098465;;;-26.233.468;1.407.447.343;https://maps.google.com/?cid=0x0:0xb18aaee88b3d5b85;
cafe;Restoran;Pison Coffee Jakarta;Jl. Kertanegara Jl. Senopati No.70, Rw. Bar., Kec. Kby. Baru, Kota Jakarta Selatan, Daerah Khusus Ibukota Jakarta 12160;Rw. Bar., Kec. Kby. Baru, Kota Jakarta Selatan;PAPUA;12160;Indonesia;2127081698;;;-62.336.553;1.068.118.554;https://maps.google.com/?cid=0x0:0xa7f64e78df23723a;
cafe;Kedai Kopi;Koultoura Kemang;Jl. Kemang I No.10A-B, RT.10/RW.1, Bangka, Kec. Mampang Prpt., Kota Jakarta Selatan, Daerah Khusus Ibukota Jakarta 12730;RT.10/RW.1, Bangka, Kec. Mampang Prpt., Kota Jakarta Selatan;PAPUA;12730;Indonesia;8170575815;;;-62.575.089;1.068.131.831;https://maps.google.com/?cid=0x0:0xf911a77d86b7f70c;
cafe;Kafe;Warung makan Afrizal;69QQ+C8J, Elelim, Distrik Elelim, Kabupaten Yalimo, Papua;Kabupaten Yalimo, Papua;PAPUA;;Indonesia;;;;-37.602.085;1.393.892.694;https://maps.google.com/?cid=0x0:0xfdb8154eb88dffc9;
cafe;Kafe;Umah Mama Koba;Jl.Pos Raya No.26, Koba, Kec. Koba, Kabupaten Bangka Tengah, Kepulauan Bangka Belitung 33181;Koba, Kec. Koba, Kabupaten Bangka Tengah;PAPUA;33181;Indonesia;82164342996;;;-24.945.404;1.064.078.043;https://maps.google.com/?cid=0x0:0xa894442c2bf4c07f;
cafe;cafe;Papua 99553;Kabupaten Mamberamo Tengah, Papua;Kabupaten Mamberamo Tengah, Papua;PAPUA;;Indonesia;;;;-35.985.594;1.389.202.828;https://maps.google.com/?cid=0x0:0xaaa3e440e190d1a5;
cafe;cafe;KIOS GABRIEL;7JFM+24M, puskesmas, Dogobak, Kelila, Central Mamberamo Regency, Papua;Kabupaten Mamberamo Tengah, Papua;PAPUA;;Indonesia;;;;-37.274.138;138.632.803;https://maps.google.com/?cid=0x0:0xa0d37f21949d0ee2;
cafe;Kedai Kopi;Coffee Kelir;M9QF+88F, Gertas, Brongkol, Kec. Jambu, Kabupaten Semarang, Jawa Tengah 50663;Gertas, Brongkol, Kec. Jambu, Kabupaten Semarang;PAPUA;50663;Indonesia;;;;-73.116.786;1.103.732.895;https://maps.google.com/?cid=0x0:0xbd5080b3fb5e71a9;
cafe;cafe;Papua 99553;Kabupaten Mamberamo Tengah, Papua;Kabupaten Mamberamo Tengah, Papua;PAPUA;;Indonesia;;;;-35.985.594;1.389.202.828;https://maps.google.com/?cid=0x0:0xaaa3e440e190d1a5;
cafe;Mesin Sangrai Kopi;Alenia Papua Coffee  Kitchen;Jl. Kemang Raya No.66 B 8, RT.8/RW.2, Bangka, Kec. Mampang Prpt., Kota Jakarta Selatan, Daerah Khusus Ibukota Jakarta 12730;RT.8/RW.2, Bangka, Kec. Mampang Prpt., Kota Jakarta Selatan;PAPUA;12730;Indonesia;2171790141;;;-62.638.119;1.068.158.777;https://maps.google.com/?cid=0x0:0xe49807fcfab68b48;
cafe;cafe;Mm ani;9X96+565, Seralema, Distrik Kobagma, Kabupaten Mamberamo Tengah, Papua;Kabupaten Mamberamo Tengah, Papua;PAPUA;;Indonesia;;;;-36.321.083;1.389.605.972;https://maps.google.com/?cid=0x0:0x84ad925293d8b1f6;
cafe;Warnet;Diroma Net.;5WMW+3W4, Melenggama, Kec. Ilugwa, Kabupaten Mamberamo Tengah, Papua;Kabupaten Mamberamo Tengah, Papua;PAPUA;;Indonesia;;;;-38.173.572;1.389.473.357;https://maps.google.com/?cid=0x0:0x3e27955e0867ba20;
cafe;Kafe;SEATAP Tea and Sky;Jl. Raya Mabes Hankam No.36, RT.2/RW.3, Bambu Apus, Kec. Cipayung, Kota Jakarta Timur, Daerah Khusus Ibukota Jakarta 13890;RT.2/RW.3, Bambu Apus, Kec. Cipayung, Kota Jakarta Timur;PAPUA;13890;Indonesia;8119957589;;;-6.312.606;1.069.041.461;https://maps.google.com/?cid=0x0:0x978b88223e8c258;
cafe;Kafe;cafe bakau holtekam kota jayapura;9PRF+58, Nafri, Kec. Abepura, Kota Jayapura, Papua;Kota Jayapura, Papua;PAPUA;;Indonesia;8124022007;;;-26.095.335;1.407.232.587;https://maps.google.com/?cid=0x0:0x440c4543fd3a011e;
cafe;Restoran;DeLoRet Resto, Bar  Cafe;Jl. Pangeran Antasari No.39, RT.10/RW.1, Cilandak Bar., Kec. Cilandak, Kota Jakarta Selatan, Daerah Khusus Ibukota Jakarta 12430;RT.10/RW.1, Cilandak Bar., Kec. Cilandak, Kota Jakarta Selatan;PAPUA;12430;Indonesia;2175906663;;;-6.287.844;1.068.071.949;https://maps.google.com/?cid=0x0:0x5d1bc6880f433767;
cafe;Kafe;La Mera Coffee;Jl. Kemang Timur No.57 6, RT.6/RW.3, Bangka, Kec. Mampang Prpt., Kota Jakarta Selatan, Daerah Khusus Ibukota Jakarta 12710;RT.6/RW.3, Bangka, Kec. Mampang Prpt., Kota Jakarta Selatan;PAPUA;12710;Indonesia;2122720822;;;-62.680.747;1.068.238.337;https://maps.google.com/?cid=0x0:0x459697d68838e085;
cafe;cafe;Livin's Sky Lounge Rooftop  Shisha Kemang;Jl. Kemang Timur Blk. A-B No.57, RT.6/RW.3, Bangka, Kec. Mampang Prpt., Kota Jakarta Selatan, Daerah Khusus Ibukota Jakarta 12710;RT.6/RW.3, Bangka, Kec. Mampang Prpt., Kota Jakarta Selatan;PAPUA;12710;Indonesia;81324564434;;;-6.267.938;106.823.646;https://maps.google.com/?cid=0x0:0xb38de2e6314d73f5;
cafe;cafe;Papua 99558;Kabupaten Yalimo, Papua;Kabupaten Yalimo, Papua;PAPUA;;Indonesia;;;;-36.880.907;1.394.059.435;https://maps.google.com/?cid=0x0:0x3b5f63f09d51baad;
cafe;Kafe;Umega cafe;69GJ+2J4, Elelim, Distrik Elelim, Kabupaten Yalimo, Papua 99558;Elelim, Distrik Elelim, Kabupaten Yalimo;PAPUA;99558;Indonesia;;;;-37.749.983;1.393.815.822;https://maps.google.com/?cid=0x0:0x1d57878ccf670700;
cafe;Restoran;Elelim Cafe;Elelim, Distrik Elelim, Kabupaten Yalimo, Papua 99558;Distrik Elelim, Kabupaten Yalimo;PAPUA;99558;Indonesia;81240090528;;;-37.700.989;1.393.833.279;https://maps.google.com/?cid=0x0:0xb4f215888727433b;
cafe;Restoran;Rm Telago Biru;69JM+55F, Unnamed Road, Elelim, Distrik Elelim, Kabupaten Yalimo, Papua 99558;Unnamed Road, Elelim, Distrik Elelim, Kabupaten Yalimo;PAPUA;99558;Indonesia;85211887759;;;-37.695.505;1.393.829.323;https://maps.google.com/?cid=0x0:0x3dfa9d5b02f381e0;
cafe;Kafe;warung makan lumayan;69HJ+5HV, Unnamed Road, Elelim, Distrik Elelim, Kabupaten Yalimo, Papua 99558;Unnamed Road, Elelim, Distrik Elelim, Kabupaten Yalimo;PAPUA;99558;Indonesia;85244955800;;;-3.772.016;139.381.411;https://maps.google.com/?cid=0x0:0xbc4ad3c4c7484ec;
cafe;Mi;Megaria 10;Jl. Komp. Megaria No.10 10, RT.10/RW.1, Pegangsaan, Kec. Menteng, Kota Jakarta Pusat, Daerah Khusus Ibukota Jakarta 10320;RT.10/RW.1, Pegangsaan, Kec. Menteng, Kota Jakarta Pusat;PAPUA;10320;Indonesia;213142659;;;-61.991.329;1.068.436.741;https://maps.google.com/?cid=0x0:0x42c237093ed9418a;
cafe;Bubur;Rolenda Organic Restaurant;Jl. Trans Papua,KM-130-Wamena Tengon Jl. Ohoam, Elelim, Distrik Elelim, Kabupaten Yalimo, Papua 99082;Elelim, Distrik Elelim, Kabupaten Yalimo;PAPUA;99082;Indonesia;81247068008;;;-37.792.593;139.381.862;https://maps.google.com/?cid=0x0:0x13f13fd67511f555;
cafe;Kedai Kopi;Kaiju Coffee;1, Jl. Komp. Megaria No.10, RT.01/RW.01, Pegangsaan, Kec. Menteng, Kota Jakarta Pusat, Daerah Khusus Ibukota Jakarta 10320;Jl. Komp. Megaria No.10, RT.01/RW.01, Pegangsaan, Kec. Menteng, Kota Jakarta Pusat;PAPUA;10320;Indonesia;85691662862;;;-6.199.171;10.684.363;https://maps.google.com/?cid=0x0:0xb032a46d7248425a;
cafe;Kafe;Mattea Social Space - Cempaka Putih;Jl. Rawasari Bar. I No.35, RT.7/RW.1, Cemp. Putih Tim., Kec. Cemp. Putih, Kota Jakarta Pusat, Daerah Khusus Ibukota Jakarta 10520;RT.7/RW.1, Cemp. Putih Tim., Kec. Cemp. Putih, Kota Jakarta Pusat;PAPUA;10520;Indonesia;82124092481;;;-61.827.132;1.068.692.214;https://maps.google.com/?cid=0x0:0x479e2127c3dc75da;
cafe;Kedai Kopi;Mattea Social Space - Blok M;Jl. Melawai Raya No.71, RT.7/RW.5, Kramat Pela, Kec. Kby. Baru, Kota Jakarta Selatan, Daerah Khusus Ibukota Jakarta 12130;RT.7/RW.5, Kramat Pela, Kec. Kby. Baru, Kota Jakarta Selatan;PAPUA;12130;Indonesia;85211550240;;;-62.456.783;1.067.968.386;https://maps.google.com/?cid=0x0:0x427066e2a30cbf6;
cafe;Kedai Kopi;Cafe Brata Mangi PNG;Jl. Soa Siu, Mandala, Kec. Jayapura Utara, Kota Jayapura, Papua;Kota Jayapura, Papua;PAPUA;;Indonesia;82396138782;;;-25.350.311;140.717.898;https://maps.google.com/?cid=0x0:0xf716be1fee265f;
cafe;Kedai Kopi;IN VIEW 24;FP78+QWX, Jl. Soa Siu, Mandala, Kota Jayapura, Papua;Kota Jayapura, Papua;PAPUA;;Indonesia;;;;-25.355.061;1.407.173.736;https://maps.google.com/?cid=0x0:0x652ee365f225b998;
cafe;cafe;Warung Makan Palopo;Jln. Pirip (Trans Jayapura-Wamena, Elelim, Distrik Elelim, Kabupaten Yalimo, Papua 99584;Elelim, Distrik Elelim, Kabupaten Yalimo;PAPUA;99584;Indonesia;;;;-37.646.549;1.393.879.892;https://maps.google.com/?cid=0x0:0x53d4d21efc1f1fd5;
cafe;Kafe;Warung makan Afrizal;69QQ+C8J, Elelim, Distrik Elelim, Kabupaten Yalimo, Papua;Kabupaten Yalimo, Papua;PAPUA;;Indonesia;;;;-37.602.085;1.393.892.694;https://maps.google.com/?cid=0x0:0xfdb8154eb88dffc9;
cafe;cafe;Megabilis;Megambilis, Kabupaten Mamberamo Tengah, Papua;Kabupaten Mamberamo Tengah, Papua;PAPUA;;Indonesia;;;;-34.901.723;1.389.404.364;https://maps.google.com/?cid=0x0:0x49606c89a01734fd;
cafe;cafe;Papua 99557;Kabupaten Mamberamo Tengah, Papua;Kabupaten Mamberamo Tengah, Papua;PAPUA;;Indonesia;;;;-37.408.827;1.389.404.364;https://maps.google.com/?cid=0x0:0xb128d87fca34f08d;
cafe;Mesin Sangrai Kopi;Alenia Papua Coffee  Kitchen;Jl. Kemang Raya No.66 B 8, RT.8/RW.2, Bangka, Kec. Mampang Prpt., Kota Jakarta Selatan, Daerah Khusus Ibukota Jakarta 12730;RT.8/RW.2, Bangka, Kec. Mampang Prpt., Kota Jakarta Selatan;PAPUA;12730;Indonesia;2171790141;;;-62.638.119;1.068.158.777;https://maps.google.com/?cid=0x0:0xe49807fcfab68b48;
cafe;Kedai Kopi;Sinilagi - Food and Coffee;Ruko Puri Kencana. Jalan Puri Kencana Blok K7/3U, RT.11/RW.7, Kembangan Sel., Kec. Kembangan, Kota Jakarta Barat, Daerah Khusus Ibukota Jakarta 11610;RT.11/RW.7, Kembangan Sel., Kec. Kembangan, Kota Jakarta Barat;PAPUA;11610;Indonesia;;;;-61.907.131;1.067.477.643;https://maps.google.com/?cid=0x0:0x542750392acff889;
cafe;Kedai Kopi;Cafe Oi;Jl. Condronegoro, Samofa, Kec. Samofa, Kabupaten Biak Numfor, Papua;Kabupaten Biak Numfor, Papua;PAPUA;;Indonesia;;;;-11.708.078;1.360.881.238;https://maps.google.com/?cid=0x0:0x3b03e029ded148a5;
cafe;Warnet;Diroma Net.;5WMW+3W4, Melenggama, Kec. Ilugwa, Kabupaten Mamberamo Tengah, Papua;Kabupaten Mamberamo Tengah, Papua;PAPUA;;Indonesia;;;;-38.173.572;1.389.473.357;https://maps.google.com/?cid=0x0:0x3e27955e0867ba20;
cafe;Kafe;PUA-PUA CAFE;Jl. Budi Utomo, Nawaripi, Kec. Mimika Baru, Kabupaten Mimika, Papua 99952;Nawaripi, Kec. Mimika Baru, Kabupaten Mimika;PAPUA;99952;Indonesia;82346750560;;;-45.620.805;1.368.806.057;https://maps.google.com/?cid=0x0:0xb7cc07f877baacb2;
cafe;Toko Game;LUGUA Cafe;8, Jl. Gedung Hijau Raya No.294, RT.8/RW.12, Pd. Pinang, Kec. Kby. Lama, Kota Jakarta Selatan, Daerah Khusus Ibukota Jakarta 12310;Jl. Gedung Hijau Raya No.294, RT.8/RW.12, Pd. Pinang, Kec. Kby. Lama, Kota Jakarta Selatan;PAPUA;12310;Indonesia;;;;-62.733.571;106.774.046;https://maps.google.com/?cid=0x0:0x35f4704cd0c422bf;
cafe;Restoran;Milou Farm House - Grand Indonesia;Central Dept. Store, Grand Indonesia East Mall, Jl. M.H. Thamrin No.1 UG Floor, Menteng, Kec. Menteng, Jakarta, Daerah Khusus Ibukota Jakarta 10310;Grand Indonesia East Mall, Jl. M.H. Thamrin No.1 UG Floor, Menteng, Kec. Menteng, Jakarta;PAPUA;10310;Indonesia;81990162023;;;-61.964.877;1.068.221.113;https://maps.google.com/?cid=0x0:0x1512e4058d50dbc8;
cafe;Kafe;Milou Farm House;Jl. Ciranjang No.30, Rw. Bar., Kec. Kby. Baru, Jakarta, Daerah Khusus Ibukota Jakarta 12180;Rw. Bar., Kec. Kby. Baru, Jakarta;PAPUA;12180;Indonesia;2127099488;;;-6.236.119;106.811.269;https://maps.google.com/?cid=0x0:0x138847d5235f6f84;
cafe;Kedai Kopi;Lugua Board Game;Jl. M.H. Thamrin No.1, Kb. Melati, Kecamatan Tanah Abang, Kota Jakarta Pusat, Daerah Khusus Ibukota Jakarta 10310;Kb. Melati, Kecamatan Tanah Abang, Kota Jakarta Pusat;PAPUA;10310;Indonesia;82113006455;;;-61.949.461;1.068.200.097;https://maps.google.com/?cid=0x0:0x8a5d6045e887d32f;
cafe;Kedai Kopi;Enyui Coffee;Jl. Palagan Tentara Pelajar No.KM. 14, Kasenan, Donoharjo, Kec. Ngaglik, Kabupaten Sleman, Daerah Istimewa Yogyakarta 55581;Kasenan, Donoharjo, Kec. Ngaglik, Kabupaten Sleman;PAPUA;55581;Indonesia;85711882018;;;-76.852.178;1.103.892.842;https://maps.google.com/?cid=0x0:0x1a73c5bb6c527f7f;
