Category,Real Category,Business Name,Address,City,State,Postal Code,Country,Phone,Email,Website,Latitude,Longitude,Map Link,Details Link
mall,mall,Sulawesi Tengah 94972,"Kabupaten Morowali Utara, Sulawesi Tengah","Kabupaten Morowali Utara, Sulawesi Tengah",SULAWESI TENGAH,,Indonesia,,,,-1.6248083,121.7195459,https://maps.google.com/?cid=0x0:0xe9e478f27d681886,
mall,Kios,Ks Ramdan,"6QVH+GQR, Kalombang, Kec. Bungku Utara, Kabupaten Morowali Utara, Sulawesi Tengah 94972","Kalombang, Kec. Bungku Utara, Kabupaten Morowali Utara",SULAWESI TENGAH,94972.0,Indonesia, 082259117938,,,-1.7561471,121.7793949,https://maps.google.com/?cid=0x0:0xcdd9eeec4a18e7a0,
mall,mall,Kios Dua Dua,"Tambarobone, Kec. Bungku Utara, Kabupaten Morowali Utara, Sulawesi Tengah 94972","Kec. Bungku Utara, Kabupaten Morowali Utara",SULAWESI TENGAH,94972.0,Indonesia, 085299904120,,,-1.760532,121.7257133,https://maps.google.com/?cid=0x0:0x2ff51810a4586e2,
mall,Toko Fotokopi,Toko Fitry Jaya,"7Q95+XR5, Tanaku Raya, Kec. Bungku Utara, Kabupaten Morowali Utara, Sulawesi Tengah 94972","Tanaku Raya, Kec. Bungku Utara, Kabupaten Morowali Utara",SULAWESI TENGAH,94972.0,Indonesia,,,,-1.7301064,121.759598,https://maps.google.com/?cid=0x0:0x60ecb3126a83d153,
mall,Toko Pakaian,Pasar Tanasumpu,"9X7F+WGW, Tana Sumpu, Kec. Mamosalato, Kabupaten Morowali, Sulawesi Tengah 94972","Tana Sumpu, Kec. Mamosalato, Kabupaten Morowali",SULAWESI TENGAH,94972.0,Indonesia,,,,-1.6351485,121.9738383,https://maps.google.com/?cid=0x0:0xbab2c30c402e97b0,
mall,Toko umum,Js shop,"HC9W+X6Q, Taronggo, Kec. Bungku Utara, Kabupaten Morowali Utara, Sulawesi Tengah 94972","Taronggo, Kec. Bungku Utara, Kabupaten Morowali Utara",SULAWESI TENGAH,94972.0,Indonesia, 081524577770,,,-1.4300254,121.4456179,https://maps.google.com/?cid=0x0:0xf4e6f1b52b853748,
mall,Toko Ponsel,Konter RENHA,"9X59+Q5C, Unnamed Road, Tana Sumpu, Kec. Mamosalato, Kabupaten Morowali Utara, Sulawesi Tengah 94972","Unnamed Road, Tana Sumpu, Kec. Mamosalato, Kabupaten Morowali Utara",SULAWESI TENGAH,94972.0,Indonesia, 082188855502,,,-1.6405535,121.9679042,https://maps.google.com/?cid=0x0:0x4b37c3ce5a739304,
mall,Pusat Perbelanjaan,Pasar Sentral Wua-Wua,"X8GR+QQ6, Korololama, Kec. Petasia, Kabupaten Morowali Utara, Sulawesi Tengah 94971","Korololama, Kec. Petasia, Kabupaten Morowali Utara",SULAWESI TENGAH,94971.0,Indonesia,,,,-2.023087,121.341904,https://maps.google.com/?cid=0x0:0xedc671ecdded0cec,
mall,Toko Perlengkapan Rumah,Home Anggun_toko Razka,"9X58+MXX, Tana Sumpu, Kec. Mamosalato, Kabupaten Morowali Utara, Sulawesi Tengah 94972","Tana Sumpu, Kec. Mamosalato, Kabupaten Morowali Utara",SULAWESI TENGAH,94972.0,Indonesia, 082248071141,,,-1.640762,121.9674759,https://maps.google.com/?cid=0x0:0xff64549ebae58275,
mall,Toko,Pasar Sabtu Bunta,"X948+M7X, Bunta, Kec. Petasia, Kabupaten Morowali Utara, Sulawesi Tengah 94971","Bunta, Kec. Petasia, Kabupaten Morowali Utara",SULAWESI TENGAH,94971.0,Indonesia,,,,-2.0432693,121.3657198,https://maps.google.com/?cid=0x0:0xf46ec77aced5aa7b,
mall,,Pasar Kolonodale,"286R+34V, Jl. Yos Sudarso, Kolonodale, Kec. Petasia, Kabupaten Morowali Utara, Sulawesi Tengah 94971","Jl. Yos Sudarso, Kolonodale, Kec. Petasia, Kabupaten Morowali Utara",SULAWESI TENGAH,94971.0,Indonesia,,,,-1.9897507,121.3402836,https://maps.google.com/?cid=0x0:0x2967383c58a005b,
mall,Pemasok air minum,Depot Air Annasya,"9XHQ+9V8, Pandauke, Kec. Mamosalato, Kabupaten Morowali Utara, Sulawesi Tengah 94972","Pandauke, Kec. Mamosalato, Kabupaten Morowali Utara",SULAWESI TENGAH,94972.0,Indonesia, 082291694184,,,-1.6215952,121.9896919,https://maps.google.com/?cid=0x0:0x67a4eade5054eaa1,
mall,mall,Sulawesi Tenggara 93352,"Kabupaten Konawe Utara, Sulawesi Tenggara","Kabupaten Konawe Utara, Sulawesi Tenggara",SULAWESI TENGAH,,Indonesia,,,,-3.7041573,122.2427,https://maps.google.com/?cid=0x0:0x888ae8f2fa8ed5e8,
mall,Komplek perumahan,Kompleks Pasar Baru Beteleme,"V75Q+VHJ, Desa, Beteleme, Kec. Lembo, Kabupaten Morowali Utara, Sulawesi Tengah 94966","Desa, Beteleme, Kec. Lembo, Kabupaten Morowali Utara",SULAWESI TENGAH,94966.0,Indonesia,,,,-2.1404597,121.2880661,https://maps.google.com/?cid=0x0:0xcf52747d14f42c5a,
mall,Toko umum,Mori Farm,"R6WG+G4, Wara'a, Kec. Lembo, Kabupaten Morowali, Sulawesi Tengah 94966","Wara'a, Kec. Lembo, Kabupaten Morowali",SULAWESI TENGAH,94966.0,Indonesia, 082297629308,,,-2.1536618,121.2252709,https://maps.google.com/?cid=0x0:0x8bb4e6a420a6c660,
mall,mall,Pasar Baru,"V72H+6PP, Jl. Beteleme, Beteleme, Kec. Lembo, Kabupaten Morowali Utara, Sulawesi Tengah 94966","Jl. Beteleme, Beteleme, Kec. Lembo, Kabupaten Morowali Utara",SULAWESI TENGAH,94966.0,Indonesia, 081343708988,,,-2.1494154,121.2793127,https://maps.google.com/?cid=0x0:0x9701e494a55c43c6,
mall,Pusat Perbelanjaan,Amey Mart,"68QR+XRQ, Jl. Poros Bungku Sel. - Kendari No.19, Lembo, Kec. Lembo, Kabupaten Konawe Utara, Sulawesi Tenggara 93352","Jl. Poros Bungku Sel. - Kendari No.19, Lembo, Kec. Lembo, Kabupaten Konawe Utara",SULAWESI TENGAH,93352.0,Indonesia, 082292014864,,,-3.759618,122.341909,https://maps.google.com/?cid=0x0:0xa8a8653627007019,
mall,Toko,Amry Mart,"3G52+4MP, Jl. Osumentundu, Wawombalata, Kec. Mandonga, Kota Kendari, Sulawesi Tenggara 93113","Jl. Osumentundu, Wawombalata, Kec. Mandonga, Kota Kendari",SULAWESI TENGAH,93113.0,Indonesia, 082990709193,,,-3.9421728,122.501693,https://maps.google.com/?cid=0x0:0x1959d3c1f681868d,
mall,Pusat Perbelanjaan,Grand Indonesia Shopping Town,"Jl. M.H. Thamrin No.1, Menteng, Kec. Menteng, Kota Jakarta Pusat, Daerah Khusus Ibukota Jakarta 10310","Menteng, Kec. Menteng, Kota Jakarta Pusat",SULAWESI TENGAH,10310.0,Indonesia, 02123580001,,,-6.1965848,106.8224882,https://maps.google.com/?cid=0x0:0xccfcc89b95aaf1ae,
mall,Pusat Perbelanjaan,Summarecon Mall Serpong,"Jl. Boulevard Raya Gading Serpong, Pakulonan Bar., Kec. Klp. Dua, Kabupaten Tangerang, Banten 15810","Pakulonan Bar., Kec. Klp. Dua, Kabupaten Tangerang",SULAWESI TENGAH,15810.0,Indonesia, 0215460888,,,-6.2409034,106.6288212,https://maps.google.com/?cid=0x0:0x355ee4742c69b52c,
mall,Salon Kecantikan,Moz5 Salon Muslimah BSD,"Ruko Tol Boulevard Blok E No. 25, Rw. Buntu, Kec. Serpong, Kota Tangerang Selatan, Banten 15310","Rw. Buntu, Kec. Serpong, Kota Tangerang Selatan",SULAWESI TENGAH,15310.0,Indonesia, 081210126689,,,-6.3031513,106.6690256,https://maps.google.com/?cid=0x0:0x4a3b80761f71d1c,
mall,Salon Kecantikan,Moz5 Salon Muslimah Pejaten,"Jl. Pejaten Raya No.H 20, Ps. Minggu, Kota Jakarta Selatan, Daerah Khusus Ibukota Jakarta 12520","Ps. Minggu, Kota Jakarta Selatan",SULAWESI TENGAH,12520.0,Indonesia, 089669615055,,,-6.2786778,106.8447519,https://maps.google.com/?cid=0x0:0x3a0575e502cf4afa,
mall,Salon Kecantikan,Moz5 Salon Muslimah Margonda,"Jl. Margonda No.533, RT.1/RW.7, Pondok Cina, Kecamatan Beji, Kota Depok, Jawa Barat 16424","RT.1/RW.7, Pondok Cina, Kecamatan Beji, Kota Depok",SULAWESI TENGAH,16424.0,Indonesia, 088289236383,,,-6.3588041,106.8323924,https://maps.google.com/?cid=0x0:0x70a73c6c2a814cc4,
mall,mall,Kec. Lembo,"Wawopada, Kabupaten Morowali Utara, Sulawesi Tengah","Kabupaten Morowali Utara, Sulawesi Tengah",SULAWESI TENGAH,,Indonesia,,,,-2.1606442,121.2127322,https://maps.google.com/?cid=0x0:0x4030bfbcaf78100,
mall,Toko umum,Mori Farm,"R6WG+G4, Wara'a, Kec. Lembo, Kabupaten Morowali, Sulawesi Tengah 94966","Wara'a, Kec. Lembo, Kabupaten Morowali",SULAWESI TENGAH,94966.0,Indonesia, 082297629308,,,-2.1536618,121.2252709,https://maps.google.com/?cid=0x0:0x8bb4e6a420a6c660,
mall,Komplek perumahan,Kompleks Pasar Baru Beteleme,"V75Q+VHJ, Desa, Beteleme, Kec. Lembo, Kabupaten Morowali Utara, Sulawesi Tengah 94966","Desa, Beteleme, Kec. Lembo, Kabupaten Morowali Utara",SULAWESI TENGAH,94966.0,Indonesia,,,,-2.1404597,121.2880661,https://maps.google.com/?cid=0x0:0xcf52747d14f42c5a,
mall,mall,Sulawesi Tengah 94966,"Kec. Lembo, Kabupaten Morowali Utara, Sulawesi Tengah","Kabupaten Morowali Utara, Sulawesi Tengah",SULAWESI TENGAH,,Indonesia,,,,-2.206204,121.2168466,https://maps.google.com/?cid=0x0:0x31ea9a5f1875191f,
mall,Toko,ADHIPUTRA,"Beteleme, Kec. Lembo, Kabupaten Morowali Utara, Sulawesi Tengah","Kabupaten Morowali Utara, Sulawesi Tengah",SULAWESI TENGAH,,Indonesia,,,,-2.1462595,121.2805063,https://maps.google.com/?cid=0x0:0xf9808756e5083880,
mall,Toko Perlengkapan Rumah,Toko Kembang Kosmetik,"V75P+VQ8, Beteleme, Kec. Lembo, Kabupaten Morowali Utara, Sulawesi Tengah 94966","Beteleme, Kec. Lembo, Kabupaten Morowali Utara",SULAWESI TENGAH,94966.0,Indonesia, 082236230715,,,-2.1403447,121.286958,https://maps.google.com/?cid=0x0:0x5bb688e5943191be,
mall,Toko,Toko Ramadhan,"Pasar baru, Beteleme, Kec. Lembo, Kabupaten Morowali Utara, Sulawesi Tengah","Kabupaten Morowali Utara, Sulawesi Tengah",SULAWESI TENGAH,,Indonesia, 082375628740,,,-2.1401899,121.2872329,https://maps.google.com/?cid=0x0:0xb3ef8b61a73632ed,
mall,Toko,Varash VanVan,"R7XG+Q7J, Beteleme, Kec. Lembo, Kabupaten Morowali Utara, Sulawesi Tengah 94966","Beteleme, Kec. Lembo, Kabupaten Morowali Utara",SULAWESI TENGAH,94966.0,Indonesia, 081310836069,,,-2.1505313,121.2756541,https://maps.google.com/?cid=0x0:0x27fcb2fbbce2ebc8,
mall,Toko Sablon,REY Print Kaos Beteleme,"Beteleme, Kec. Lembo, Kabupaten Morowali Utara, Sulawesi Tengah 94966","Kec. Lembo, Kabupaten Morowali Utara",SULAWESI TENGAH,94966.0,Indonesia, 081244417890,,,-2.1490609,121.2782248,https://maps.google.com/?cid=0x0:0x66bd540a3d41de03,
mall,Toko,Toko Tani Nur,"V75Q+WM3, Beteleme, Kec. Lembo, Kabupaten Morowali Utara, Sulawesi Tengah 94966","Beteleme, Kec. Lembo, Kabupaten Morowali Utara",SULAWESI TENGAH,94966.0,Indonesia,,,,-2.1402442,121.2891866,https://maps.google.com/?cid=0x0:0xddbb229c204b2b36,
mall,Organisasi Nonprofit,Kios Cahaya Putri Lemboroma samping Asrama Brimob Lemboroma Kec.Lembo Kab.Morowali Utara,"V8F9+P4P, Samping Asrama Brimob, Lemboroma, Kec. Lembo, Kabupaten Morowali Utara, Sulawesi Tengah 94971","Samping Asrama Brimob, Lemboroma, Kec. Lembo, Kabupaten Morowali Utara",SULAWESI TENGAH,94971.0,Indonesia,,,,-2.125671,121.317834,https://maps.google.com/?cid=0x0:0xfd3f9bd902b7f3ac,
mall,Kantor Perusahaan,CV.Raja Motor Beteleme,"R7XF+4CF, Beteleme, Kec. Lembo, Kabupaten Morowali, Sulawesi Tengah 94966","Beteleme, Kec. Lembo, Kabupaten Morowali",SULAWESI TENGAH,94966.0,Indonesia, 085256219496,,,-2.1521807,121.2735396,https://maps.google.com/?cid=0x0:0xa563dd45feac5544,
mall,Tempat Cukur Rambut,pangkas rambut madura,"V75P+V9V, Beteleme, Kec. Lembo, Kabupaten Morowali, Sulawesi Tengah 94966","Beteleme, Kec. Lembo, Kabupaten Morowali",SULAWESI TENGAH,94966.0,Indonesia, 085393608509,,,-2.1402616,121.2859267,https://maps.google.com/?cid=0x0:0xb344c29ca132a89b,
mall,Toko Perlengkapan Rumah,H.Malik'House Agen Kembang Api Dan Bunga,"Beteleme, Kec. Lembo, Kabupaten Morowali Utara, Sulawesi Tengah 94966","Kec. Lembo, Kabupaten Morowali Utara",SULAWESI TENGAH,94966.0,Indonesia, 082191159426,,,-2.1411981,121.2864178,https://maps.google.com/?cid=0x0:0xd7b7507fde791743,
mall,Toko umum,Toko Taqiyyah,"V75P+H66, Beteleme, Kec. Lembo, Kabupaten Morowali, Sulawesi Tengah 94966","Beteleme, Kec. Lembo, Kabupaten Morowali",SULAWESI TENGAH,94966.0,Indonesia, 085394539990,,,-2.1410888,121.2855296,https://maps.google.com/?cid=0x0:0x5dcde751c64ef93a,
mall,mall,Pasar Baru,"V72H+6PP, Jl. Beteleme, Beteleme, Kec. Lembo, Kabupaten Morowali Utara, Sulawesi Tengah 94966","Jl. Beteleme, Beteleme, Kec. Lembo, Kabupaten Morowali Utara",SULAWESI TENGAH,94966.0,Indonesia, 081343708988,,,-2.1494154,121.2793127,https://maps.google.com/?cid=0x0:0x9701e494a55c43c6,
mall,mall,PANORAMA CELL BETELEME,"V72H+FGV, Jl. Beteleme, Beteleme, Kec. Lembo, Kabupaten Morowali Utara, Sulawesi Tengah 94966","Jl. Beteleme, Beteleme, Kec. Lembo, Kabupaten Morowali Utara",SULAWESI TENGAH,94966.0,Indonesia, 082350716930,,,-2.1487526,121.2787883,https://maps.google.com/?cid=0x0:0xa6f544694b215608,
mall,Taman Rekreasi Air,Mall Top 100 Tembesi,"Tembesi, Kec. Sagulung, Kota Batam, Kepulauan Riau 29424","Kec. Sagulung, Kota Batam",SULAWESI TENGAH,29424.0,Indonesia, 07787492001,,,1.0404721,104.0023094,https://maps.google.com/?cid=0x0:0xdf183ebb471c2bdb,
mall,Toko Swalayan,TOP 100 Department Store,"434G+8J9, Belian, Kec. Batam Kota, Kota Batam, Kepulauan Riau","Kota Batam, Kepulauan Riau",SULAWESI TENGAH,,Indonesia,,,,1.1057821,104.0766214,https://maps.google.com/?cid=0x0:0xb40a8f3978c5af61,
mall,Pusat Perbelanjaan,Top 100 Tiban,"4X7G+2WQ, Patam Lestari, Kec. Sekupang, Kota Batam, Kepulauan Riau 29424","Patam Lestari, Kec. Sekupang, Kota Batam",SULAWESI TENGAH,29424.0,Indonesia,,,,1.1125898,103.9773506,https://maps.google.com/?cid=0x0:0x28904e8a9ec56d2d,
mall,Toko bahan makanan,Top 100 Swalayan Grand Batam Mall,"Jalan Pembangunan Batu Selicin Lubuk Baja, Batu Selicin, Kec. Batam Kota, Kota Batam, Kepulauan Riau 29444","Batu Selicin, Kec. Batam Kota, Kota Batam",SULAWESI TENGAH,29444.0,Indonesia,,,,1.1351995,104.0077429,https://maps.google.com/?cid=0x0:0xd1acc80bf37c89d6,
mall,Makanan Siap Saji,HR Crispy Fried Chicken,"FCB 15 mall top 100, Tembesi","Kota Batam, Kepulauan Riau",SULAWESI TENGAH,,Indonesia,,,,1.0396731,104.0028561,https://maps.google.com/?cid=0x0:0xc1cefe41a72de4d7,
mall,Sarapan,Aulia @ngkringan,"22R2+9PF Lestari, Jalan Suprapto, Tembesi, Sagulung, Batam City, Riau Islands 29424","Jalan Suprapto, Tembesi, Sagulung, Batam City",SULAWESI TENGAH,29424.0,Indonesia,,,,1.0409358,104.001812,https://maps.google.com/?cid=0x0:0xa629dbb097f57330,
mall,mall,Sulawesi Tengah 94966,"Kec. Lembo, Kabupaten Morowali Utara, Sulawesi Tengah","Kabupaten Morowali Utara, Sulawesi Tengah",SULAWESI TENGAH,,Indonesia,,,,-2.206204,121.2168466,https://maps.google.com/?cid=0x0:0x31ea9a5f1875191f,
mall,Komplek perumahan,Kompleks Pasar Baru Beteleme,"V75Q+VHJ, Desa, Beteleme, Kec. Lembo, Kabupaten Morowali Utara, Sulawesi Tengah 94966","Desa, Beteleme, Kec. Lembo, Kabupaten Morowali Utara",SULAWESI TENGAH,94966.0,Indonesia,,,,-2.1404597,121.2880661,https://maps.google.com/?cid=0x0:0xcf52747d14f42c5a,
mall,Toko umum,Mori Farm,"R6WG+G4, Wara'a, Kec. Lembo, Kabupaten Morowali, Sulawesi Tengah 94966","Wara'a, Kec. Lembo, Kabupaten Morowali",SULAWESI TENGAH,94966.0,Indonesia, 082297629308,,,-2.1536618,121.2252709,https://maps.google.com/?cid=0x0:0x8bb4e6a420a6c660,
mall,mall,Kec. Lembo Raya,"Kabupaten Morowali Utara, Sulawesi Tengah","Kabupaten Morowali Utara, Sulawesi Tengah",SULAWESI TENGAH,,Indonesia,,,,-2.1924426,121.3166642,https://maps.google.com/?cid=0x0:0x1a1cf142d855fe15,
mall,Toko Perlengkapan Rumah,Toko Kembang Kosmetik,"V75P+VQ8, Beteleme, Kec. Lembo, Kabupaten Morowali Utara, Sulawesi Tengah 94966","Beteleme, Kec. Lembo, Kabupaten Morowali Utara",SULAWESI TENGAH,94966.0,Indonesia, 082236230715,,,-2.1403447,121.286958,https://maps.google.com/?cid=0x0:0x5bb688e5943191be,
mall,Minimarket,TOKO AAN,"Tinompo, Kec. Lembo, Kabupaten Morowali Utara, Sulawesi Tengah 94966","Kec. Lembo, Kabupaten Morowali Utara",SULAWESI TENGAH,94966.0,Indonesia, 082256573371,,,-2.1261664,121.2885375,https://maps.google.com/?cid=0x0:0x9c88c4305fb4891e,
mall,Toko,Varash VanVan,"R7XG+Q7J, Beteleme, Kec. Lembo, Kabupaten Morowali Utara, Sulawesi Tengah 94966","Beteleme, Kec. Lembo, Kabupaten Morowali Utara",SULAWESI TENGAH,94966.0,Indonesia, 081310836069,,,-2.1505313,121.2756541,https://maps.google.com/?cid=0x0:0x27fcb2fbbce2ebc8,
mall,Toko,Toko Ramadhan,"Pasar baru, Beteleme, Kec. Lembo, Kabupaten Morowali Utara, Sulawesi Tengah","Kabupaten Morowali Utara, Sulawesi Tengah",SULAWESI TENGAH,,Indonesia, 082375628740,,,-2.1401899,121.2872329,https://maps.google.com/?cid=0x0:0xb3ef8b61a73632ed,
mall,Toko Sablon,REY Print Kaos Beteleme,"Beteleme, Kec. Lembo, Kabupaten Morowali Utara, Sulawesi Tengah 94966","Kec. Lembo, Kabupaten Morowali Utara",SULAWESI TENGAH,94966.0,Indonesia, 081244417890,,,-2.1490609,121.2782248,https://maps.google.com/?cid=0x0:0x66bd540a3d41de03,
mall,mall,Kec. Lembo,"Wawopada, Kabupaten Morowali Utara, Sulawesi Tengah","Kabupaten Morowali Utara, Sulawesi Tengah",SULAWESI TENGAH,,Indonesia,,,,-2.1606442,121.2127322,https://maps.google.com/?cid=0x0:0x4030bfbcaf78100,
mall,Toko,Toko Tani Nur,"V75Q+WM3, Beteleme, Kec. Lembo, Kabupaten Morowali Utara, Sulawesi Tengah 94966","Beteleme, Kec. Lembo, Kabupaten Morowali Utara",SULAWESI TENGAH,94966.0,Indonesia,,,,-2.1402442,121.2891866,https://maps.google.com/?cid=0x0:0xddbb229c204b2b36,
mall,Kantor Perusahaan,CV.Raja Motor Beteleme,"R7XF+4CF, Beteleme, Kec. Lembo, Kabupaten Morowali, Sulawesi Tengah 94966","Beteleme, Kec. Lembo, Kabupaten Morowali",SULAWESI TENGAH,94966.0,Indonesia, 085256219496,,,-2.1521807,121.2735396,https://maps.google.com/?cid=0x0:0xa563dd45feac5544,
mall,Toko umum,Toko Taqiyyah,"V75P+H66, Beteleme, Kec. Lembo, Kabupaten Morowali, Sulawesi Tengah 94966","Beteleme, Kec. Lembo, Kabupaten Morowali",SULAWESI TENGAH,94966.0,Indonesia, 085394539990,,,-2.1410888,121.2855296,https://maps.google.com/?cid=0x0:0x5dcde751c64ef93a,
mall,Toko Perlengkapan Rumah,H.Malik'House Agen Kembang Api Dan Bunga,"Beteleme, Kec. Lembo, Kabupaten Morowali Utara, Sulawesi Tengah 94966","Kec. Lembo, Kabupaten Morowali Utara",SULAWESI TENGAH,94966.0,Indonesia, 082191159426,,,-2.1411981,121.2864178,https://maps.google.com/?cid=0x0:0xd7b7507fde791743,
mall,Toko,Toko 26 raja murah,"V75P+V8Q, Beteleme, Kec. Lembo, Kabupaten Morowali Utara, Sulawesi Tengah","Kabupaten Morowali Utara, Sulawesi Tengah",SULAWESI TENGAH,,Indonesia,,,,-2.1402965,121.285862,https://maps.google.com/?cid=0x0:0x1d6c448926846e05,
mall,Tempat Cukur Rambut,pangkas rambut madura,"V75P+V9V, Beteleme, Kec. Lembo, Kabupaten Morowali, Sulawesi Tengah 94966","Beteleme, Kec. Lembo, Kabupaten Morowali",SULAWESI TENGAH,94966.0,Indonesia, 085393608509,,,-2.1402616,121.2859267,https://maps.google.com/?cid=0x0:0xb344c29ca132a89b,
mall,Organisasi Nonprofit,Kios Cahaya Putri Lemboroma samping Asrama Brimob Lemboroma Kec.Lembo Kab.Morowali Utara,"V8F9+P4P, Samping Asrama Brimob, Lemboroma, Kec. Lembo, Kabupaten Morowali Utara, Sulawesi Tengah 94971","Samping Asrama Brimob, Lemboroma, Kec. Lembo, Kabupaten Morowali Utara",SULAWESI TENGAH,94971.0,Indonesia,,,,-2.125671,121.317834,https://maps.google.com/?cid=0x0:0xfd3f9bd902b7f3ac,
mall,mall,Pasar Baru,"V72H+6PP, Jl. Beteleme, Beteleme, Kec. Lembo, Kabupaten Morowali Utara, Sulawesi Tengah 94966","Jl. Beteleme, Beteleme, Kec. Lembo, Kabupaten Morowali Utara",SULAWESI TENGAH,94966.0,Indonesia, 081343708988,,,-2.1494154,121.2793127,https://maps.google.com/?cid=0x0:0x9701e494a55c43c6,
mall,mall,PANORAMA CELL BETELEME,"V72H+FGV, Jl. Beteleme, Beteleme, Kec. Lembo, Kabupaten Morowali Utara, Sulawesi Tengah 94966","Jl. Beteleme, Beteleme, Kec. Lembo, Kabupaten Morowali Utara",SULAWESI TENGAH,94966.0,Indonesia, 082350716930,,,-2.1487526,121.2787883,https://maps.google.com/?cid=0x0:0xa6f544694b215608,
mall,mall,Sulawesi Tengah 94972,"Kabupaten Morowali Utara, Sulawesi Tengah","Kabupaten Morowali Utara, Sulawesi Tengah",SULAWESI TENGAH,,Indonesia,,,,-1.6248083,121.7195459,https://maps.google.com/?cid=0x0:0xe9e478f27d681886,
mall,Toko Pakaian,Pasar Tanasumpu,"9X7F+WGW, Tana Sumpu, Kec. Mamosalato, Kabupaten Morowali, Sulawesi Tengah 94972","Tana Sumpu, Kec. Mamosalato, Kabupaten Morowali",SULAWESI TENGAH,94972.0,Indonesia,,,,-1.6351485,121.9738383,https://maps.google.com/?cid=0x0:0xbab2c30c402e97b0,
mall,Pusat Perbelanjaan,Maliana,"9XHQ+CRR, Unnamed Road, Pandauke, Kec. Mamosalato, Kabupaten Morowali Utara, Sulawesi Tengah 94972","Unnamed Road, Pandauke, Kec. Mamosalato, Kabupaten Morowali Utara",SULAWESI TENGAH,94972.0,Indonesia, 082291057324,,,-1.6213955,121.9895262,https://maps.google.com/?cid=0x0:0x572a6b1618718f5,
mall,Toko Perlengkapan Rumah,Home Anggun_toko Razka,"9X58+MXX, Tana Sumpu, Kec. Mamosalato, Kabupaten Morowali Utara, Sulawesi Tengah 94972","Tana Sumpu, Kec. Mamosalato, Kabupaten Morowali Utara",SULAWESI TENGAH,94972.0,Indonesia, 082248071141,,,-1.640762,121.9674759,https://maps.google.com/?cid=0x0:0xff64549ebae58275,
mall,mall,Kios Dua Dua,"Tambarobone, Kec. Bungku Utara, Kabupaten Morowali Utara, Sulawesi Tengah 94972","Kec. Bungku Utara, Kabupaten Morowali Utara",SULAWESI TENGAH,94972.0,Indonesia, 085299904120,,,-1.760532,121.7257133,https://maps.google.com/?cid=0x0:0x2ff51810a4586e2,
mall,Pemasok air minum,Depot Air Annasya,"9XHQ+9V8, Pandauke, Kec. Mamosalato, Kabupaten Morowali Utara, Sulawesi Tengah 94972","Pandauke, Kec. Mamosalato, Kabupaten Morowali Utara",SULAWESI TENGAH,94972.0,Indonesia, 082291694184,,,-1.6215952,121.9896919,https://maps.google.com/?cid=0x0:0x67a4eade5054eaa1,
mall,Kios,Ks Ramdan,"6QVH+GQR, Kalombang, Kec. Bungku Utara, Kabupaten Morowali Utara, Sulawesi Tengah 94972","Kalombang, Kec. Bungku Utara, Kabupaten Morowali Utara",SULAWESI TENGAH,94972.0,Indonesia, 082259117938,,,-1.7561471,121.7793949,https://maps.google.com/?cid=0x0:0xcdd9eeec4a18e7a0,
mall,Toko Fotokopi,Toko Fitry Jaya,"7Q95+XR5, Tanaku Raya, Kec. Bungku Utara, Kabupaten Morowali Utara, Sulawesi Tengah 94972","Tanaku Raya, Kec. Bungku Utara, Kabupaten Morowali Utara",SULAWESI TENGAH,94972.0,Indonesia,,,,-1.7301064,121.759598,https://maps.google.com/?cid=0x0:0x60ecb3126a83d153,
mall,Pusat Perbelanjaan,Pasar Sentral Wua-Wua,"X8GR+QQ6, Korololama, Kec. Petasia, Kabupaten Morowali Utara, Sulawesi Tengah 94971","Korololama, Kec. Petasia, Kabupaten Morowali Utara",SULAWESI TENGAH,94971.0,Indonesia,,,,-2.023087,121.341904,https://maps.google.com/?cid=0x0:0xedc671ecdded0cec,
mall,Toko umum,Js shop,"HC9W+X6Q, Taronggo, Kec. Bungku Utara, Kabupaten Morowali Utara, Sulawesi Tengah 94972","Taronggo, Kec. Bungku Utara, Kabupaten Morowali Utara",SULAWESI TENGAH,94972.0,Indonesia, 081524577770,,,-1.4300254,121.4456179,https://maps.google.com/?cid=0x0:0xf4e6f1b52b853748,
mall,mall,Sulawesi Tengah 94965,"Kabupaten Morowali Utara, Sulawesi Tengah","Kabupaten Morowali Utara, Sulawesi Tengah",SULAWESI TENGAH,,Indonesia,,,,-1.9065553,120.9876321,https://maps.google.com/?cid=0x0:0x7343a4638efc8db3,
mall,Toko,Kios ALIYYA,"2X2G+2V6, Jl. Trans Sulawesi, Tomata, Kec. Mori Atas, Kabupaten Morowali Utara, Sulawesi Tengah 94965","Jl. Trans Sulawesi, Tomata, Kec. Mori Atas, Kabupaten Morowali Utara",SULAWESI TENGAH,94965.0,Indonesia,,,,-1.9999617,120.9771487,https://maps.google.com/?cid=0x0:0x1a027f5cb03bbb,
mall,Pusat Perbelanjaan,TOKO CITRA MUDA,"Lembontonara, Kec. Mori Utara, Kabupaten Morowali, Sulawesi Tengah 94965","Kec. Mori Utara, Kabupaten Morowali",SULAWESI TENGAH,94965.0,Indonesia, 085329888866,,,-1.9436754,120.9320097,https://maps.google.com/?cid=0x0:0x72e719c5eef1b13f,
mall,mall,Kec. Mori Atas,"Kabupaten Morowali Utara, Sulawesi Tengah","Kabupaten Morowali Utara, Sulawesi Tengah",SULAWESI TENGAH,,Indonesia,,,,-2.0002929,120.9771708,https://maps.google.com/?cid=0x0:0xb482718602ff4a56,
mall,Toko Elektronik,Pasar Rakyat Taliwan,"Taliwan Desa Tabarano, Kecamatan Mori Utara, Kabupaten Morowali Utara Provinsi Sulawesi Tengah, Kode, Tabarano, Kec. Mori Utara, Kabupaten Morowali Utara, Sulawesi Tengah 94965","Kecamatan Mori Utara, Kabupaten Morowali Utara Provinsi Sulawesi Tengah, Kode, Tabarano, Kec. Mori Utara, Kabupaten Morowali Utara",SULAWESI TENGAH,94965.0,Indonesia, 085298502654,,,-1.9716729,120.9769471,https://maps.google.com/?cid=0x0:0xd62113f442e9515f,
mall,Toko,TOKO MBA YANTI,"Jl. Trans Sulawesi, Lembontonara, Kec. Mori Utara, Kabupaten Morowali Utara, Sulawesi Tengah 94965","Lembontonara, Kec. Mori Utara, Kabupaten Morowali Utara",SULAWESI TENGAH,94965.0,Indonesia,,,,-1.9423935,120.9291825,https://maps.google.com/?cid=0x0:0xf043633530b94706,
mall,Pembangunan Perumahan,Agen Crystal X  Pupuk Organik Nasa Tomata Morowali Sul-teng,"Desa, Tomata, Kec. Mori Atas, Kabupaten Morowali Utara, Sulawesi Tengah 94965","Tomata, Kec. Mori Atas, Kabupaten Morowali Utara",SULAWESI TENGAH,94965.0,Indonesia, 082247425323,,,-2.0020889,120.9736053,https://maps.google.com/?cid=0x0:0x9256d793a421972f,
mall,Taman,Juragan Durian,"X472+W9, Peonea, Kec. Mori Atas, Kabupaten Morowali Utara, Sulawesi Tengah","Kabupaten Morowali Utara, Sulawesi Tengah",SULAWESI TENGAH,,Indonesia,,,,-2.0352329,121.100885,https://maps.google.com/?cid=0x0:0xdffa53241389af96,
mall,Toko Ponsel,ONLINE CELL,"2WXQ+VW3, Lembontonara, Kec. Mori Utara, Kabupaten Morowali Utara, Sulawesi Tengah 94965","Lembontonara, Kec. Mori Utara, Kabupaten Morowali Utara",SULAWESI TENGAH,94965.0,Indonesia, 082292505567,,,-1.9503731,120.9398093,https://maps.google.com/?cid=0x0:0x7ab33c42e8fd820e,
mall,Toko Ikan,Toko Audry Jaya dan pangkalan ikan piranha,"2X2J+37M, Tomata, Kec. Mori Atas, Kabupaten Morowali, Sulawesi Tengah 94965","Tomata, Kec. Mori Atas, Kabupaten Morowali",SULAWESI TENGAH,94965.0,Indonesia, 082291604631,,,-1.9997882,120.9806752,https://maps.google.com/?cid=0x0:0x2b960a0aa11844a9,
mall,mall,Bunta,"227J+F6, Taende, Kec. Mori Atas, Kabupaten Morowali, Sulawesi Tengah","Kabupaten Morowali, Sulawesi Tengah",SULAWESI TENGAH,,Indonesia,,,,-1.9863229,121.030574,https://maps.google.com/?cid=0x0:0x7579423b1a302e3f,
mall,mall,Sulawesi Tengah 94965,"Kabupaten Morowali Utara, Sulawesi Tengah","Kabupaten Morowali Utara, Sulawesi Tengah",SULAWESI TENGAH,,Indonesia,,,,-1.9065553,120.9876321,https://maps.google.com/?cid=0x0:0x7343a4638efc8db3,
mall,Toko,Kios ALIYYA,"2X2G+2V6, Jl. Trans Sulawesi, Tomata, Kec. Mori Atas, Kabupaten Morowali Utara, Sulawesi Tengah 94965","Jl. Trans Sulawesi, Tomata, Kec. Mori Atas, Kabupaten Morowali Utara",SULAWESI TENGAH,94965.0,Indonesia,,,,-1.9999617,120.9771487,https://maps.google.com/?cid=0x0:0x1a027f5cb03bbb,
mall,Toko umum,Mori Farm,"R6WG+G4, Wara'a, Kec. Lembo, Kabupaten Morowali, Sulawesi Tengah 94966","Wara'a, Kec. Lembo, Kabupaten Morowali",SULAWESI TENGAH,94966.0,Indonesia, 082297629308,,,-2.1536618,121.2252709,https://maps.google.com/?cid=0x0:0x8bb4e6a420a6c660,
mall,Toko,TOKO MBA YANTI,"Jl. Trans Sulawesi, Lembontonara, Kec. Mori Utara, Kabupaten Morowali Utara, Sulawesi Tengah 94965","Lembontonara, Kec. Mori Utara, Kabupaten Morowali Utara",SULAWESI TENGAH,94965.0,Indonesia,,,,-1.9423935,120.9291825,https://maps.google.com/?cid=0x0:0xf043633530b94706,
mall,Toko Elektronik,Pasar Rakyat Taliwan,"Taliwan Desa Tabarano, Kecamatan Mori Utara, Kabupaten Morowali Utara Provinsi Sulawesi Tengah, Kode, Tabarano, Kec. Mori Utara, Kabupaten Morowali Utara, Sulawesi Tengah 94965","Kecamatan Mori Utara, Kabupaten Morowali Utara Provinsi Sulawesi Tengah, Kode, Tabarano, Kec. Mori Utara, Kabupaten Morowali Utara",SULAWESI TENGAH,94965.0,Indonesia, 085298502654,,,-1.9716729,120.9769471,https://maps.google.com/?cid=0x0:0xd62113f442e9515f,
mall,Pembangunan Perumahan,Agen Crystal X  Pupuk Organik Nasa Tomata Morowali Sul-teng,"Desa, Tomata, Kec. Mori Atas, Kabupaten Morowali Utara, Sulawesi Tengah 94965","Tomata, Kec. Mori Atas, Kabupaten Morowali Utara",SULAWESI TENGAH,94965.0,Indonesia, 082247425323,,,-2.0020889,120.9736053,https://maps.google.com/?cid=0x0:0x9256d793a421972f,
mall,Taman,Juragan Durian,"X472+W9, Peonea, Kec. Mori Atas, Kabupaten Morowali Utara, Sulawesi Tengah","Kabupaten Morowali Utara, Sulawesi Tengah",SULAWESI TENGAH,,Indonesia,,,,-2.0352329,121.100885,https://maps.google.com/?cid=0x0:0xdffa53241389af96,
mall,Toko Ponsel,ONLINE CELL,"2WXQ+VW3, Lembontonara, Kec. Mori Utara, Kabupaten Morowali Utara, Sulawesi Tengah 94965","Lembontonara, Kec. Mori Utara, Kabupaten Morowali Utara",SULAWESI TENGAH,94965.0,Indonesia, 082292505567,,,-1.9503731,120.9398093,https://maps.google.com/?cid=0x0:0x7ab33c42e8fd820e,
mall,Toko Ikan,Toko Audry Jaya dan pangkalan ikan piranha,"2X2J+37M, Tomata, Kec. Mori Atas, Kabupaten Morowali, Sulawesi Tengah 94965","Tomata, Kec. Mori Atas, Kabupaten Morowali",SULAWESI TENGAH,94965.0,Indonesia, 082291604631,,,-1.9997882,120.9806752,https://maps.google.com/?cid=0x0:0x2b960a0aa11844a9,
mall,mall,kios fhatir,"33Q3+C7Q, Unnamed Road, Peleru, Kec. Mori Utara, Kabupaten Morowali Utara, Sulawesi Tengah 94965","Unnamed Road, Peleru, Kec. Mori Utara, Kabupaten Morowali Utara",SULAWESI TENGAH,94965.0,Indonesia,,,,-1.9114011,121.053219,https://maps.google.com/?cid=0x0:0x480ed2dc3850ad1b,
mall,mall,Kec. Mori Utara,"Kabupaten Morowali Utara, Sulawesi Tengah","Kabupaten Morowali Utara, Sulawesi Tengah",SULAWESI TENGAH,,Indonesia,,,,-1.8045656,121.03351,https://maps.google.com/?cid=0x0:0x714f058e61875b3d,
mall,mall,Sulawesi Tengah 94971,"Kabupaten Morowali, Sulawesi Tengah","Kabupaten Morowali, Sulawesi Tengah",SULAWESI TENGAH,,Indonesia,,,,-1.8683068,121.2168466,https://maps.google.com/?cid=0x0:0x200eae1003365f6b,
mall,Pusat Perbelanjaan,Pasar Sentral Wua-Wua,"X8GR+QQ6, Korololama, Kec. Petasia, Kabupaten Morowali Utara, Sulawesi Tengah 94971","Korololama, Kec. Petasia, Kabupaten Morowali Utara",SULAWESI TENGAH,94971.0,Indonesia,,,,-2.023087,121.341904,https://maps.google.com/?cid=0x0:0xedc671ecdded0cec,
mall,Toko umum,Idha Shop,"RGP4+J53, Keuno, Kec. Petasia, Kabupaten Morowali, Sulawesi Tengah 94971","Keuno, Kec. Petasia, Kabupaten Morowali",SULAWESI TENGAH,94971.0,Indonesia, 085242708335,,,-2.1634943,121.5054319,https://maps.google.com/?cid=0x0:0x643db3f2b350e68f,
mall,Minimarket,Kios bilal,"Jl. Trans Sulawesi, Bungintimbe, Kec. Petasia, Kabupaten Morowali Utara, Sulawesi Tengah 94971","Bungintimbe, Kec. Petasia, Kabupaten Morowali Utara",SULAWESI TENGAH,94971.0,Indonesia, 085241401414,,,-2.0786233,121.4507007,https://maps.google.com/?cid=0x0:0xee1aadb69f1e94e0,
mall,mall,Pasar camat petasia barat,"X7RQ+J5H, Unnamed Road, Tiu, Kec. Petasia, Kabupaten Morowali Utara, Sulawesi Tengah 94971","Unnamed Road, Tiu, Kec. Petasia, Kabupaten Morowali Utara",SULAWESI TENGAH,94971.0,Indonesia,,,,-2.0084357,121.2879863,https://maps.google.com/?cid=0x0:0x9e4da3787c9e4ac,
mall,Toko,Pasar Sabtu Bunta,"X948+M7X, Bunta, Kec. Petasia, Kabupaten Morowali Utara, Sulawesi Tengah 94971","Bunta, Kec. Petasia, Kabupaten Morowali Utara",SULAWESI TENGAH,94971.0,Indonesia,,,,-2.0432693,121.3657198,https://maps.google.com/?cid=0x0:0xf46ec77aced5aa7b,
mall,Toko,Toko Tiga Putra Poranda,"WCFX+G68, Jl. Trans Sulawesi, Bungintimbe, Kec. Petasia Timur, Kabupaten Morowali Utara, Sulawesi Tengah 94971","Jl. Trans Sulawesi, Bungintimbe, Kec. Petasia Timur, Kabupaten Morowali Utara",SULAWESI TENGAH,94971.0,Indonesia,,,,-2.0762133,121.4480708,https://maps.google.com/?cid=0x0:0xecf30d91be9c6654,
mall,Toko sembako pemerintah,Adeenaolshop Morut,"288Q+QF5, Bahontula, Kec. Petasia, Kabupaten Morowali Utara, Sulawesi Tengah 94971","Bahontula, Kec. Petasia, Kabupaten Morowali Utara",SULAWESI TENGAH,94971.0,Indonesia, 082266665479,,,-1.9831166,121.3387384,https://maps.google.com/?cid=0x0:0x1d990a99c04303c7,
mall,,Pasar Kolonodale,"286R+34V, Jl. Yos Sudarso, Kolonodale, Kec. Petasia, Kabupaten Morowali Utara, Sulawesi Tengah 94971","Jl. Yos Sudarso, Kolonodale, Kec. Petasia, Kabupaten Morowali Utara",SULAWESI TENGAH,94971.0,Indonesia,,,,-1.9897507,121.3402836,https://maps.google.com/?cid=0x0:0x2967383c58a005b,
mall,Minimarket,Kios Jumarni,"WCFX+XFW, Bungintimbe, Kec. Petasia, Kabupaten Morowali, Sulawesi Tengah 94971","Bungintimbe, Kec. Petasia, Kabupaten Morowali",SULAWESI TENGAH,94971.0,Indonesia, 085246552518,,,-2.0750245,121.4486895,https://maps.google.com/?cid=0x0:0x6645f6fa920effbd,
mall,mall,TOKO ANEKA,"W7VX+7P8, Sampalowo, Kec. Petasia Barat, Kabupaten Morowali Utara, Sulawesi Tengah 94971","Sampalowo, Kec. Petasia Barat, Kabupaten Morowali Utara",SULAWESI TENGAH,94971.0,Indonesia,,,,-2.0568298,121.299321,https://maps.google.com/?cid=0x0:0x40796706983284d9,
mall,Pusat Perbelanjaan,Arfa Center,"287Q+P59, Bahontula, Kec. Petasia, Kabupaten Morowali, Sulawesi Tengah 94971","Bahontula, Kec. Petasia, Kabupaten Morowali",SULAWESI TENGAH,94971.0,Indonesia, 081241352200,,,-1.9857161,121.3379893,https://maps.google.com/?cid=0x0:0xf3180ec360065298,
mall,Pusat Perbelanjaan,Delvi olshoop,"RGQ2+75P, Molores, Kec. Petasia, Kabupaten Morowali, Sulawesi Tengah 94971","Molores, Kec. Petasia, Kabupaten Morowali",SULAWESI TENGAH,94971.0,Indonesia, 085397600283,,,-2.1617785,121.5004456,https://maps.google.com/?cid=0x0:0x87862cf0061bf58f,
mall,Toko Barang Pecah Belah,"Jual barang campuran (perabot RT, kosmetik dll)","X8PP+2J9, Korololama, Kec. Petasia, Kabupaten Morowali, Sulawesi Tengah 94971","Korololama, Kec. Petasia, Kabupaten Morowali",SULAWESI TENGAH,94971.0,Indonesia, 082217465326,,,-2.015447,121.335917,https://maps.google.com/?cid=0x0:0x48282edb9f836230,
mall,Toko,Toko Galaxi,"286Q+HWF, Jl. Yos Sudarso, Kolonodale, Kec. Petasia, Kabupaten Morowali Utara, Sulawesi Tengah 94971","Jl. Yos Sudarso, Kolonodale, Kec. Petasia, Kabupaten Morowali Utara",SULAWESI TENGAH,94971.0,Indonesia,,,,-1.9885596,121.3398069,https://maps.google.com/?cid=0x0:0xd1245382fdd40d58,
mall,Pusat Perbelanjaan,CITRA MEDIA COMPUTER  Smartphone 757,"WCHV+2G2, Jl. Trans Sulawesi, Bungintimbe, Kec. Petasia, Kabupaten Morowali Utara, Sulawesi Tengah 94971","Jl. Trans Sulawesi, Bungintimbe, Kec. Petasia, Kabupaten Morowali Utara",SULAWESI TENGAH,94971.0,Indonesia,,,,-2.0724948,121.443767,https://maps.google.com/?cid=0x0:0x7d992dfa78518eeb,
mall,Pusat Perbelanjaan,Ancha Cell,"Jl. Jend. Sudirman, Bahontula, Kec. Petasia, Kabupaten Morowali Utara, Sulawesi Tengah 94971","Bahontula, Kec. Petasia, Kabupaten Morowali Utara",SULAWESI TENGAH,94971.0,Indonesia,,,,-1.9844279,121.337866,https://maps.google.com/?cid=0x0:0x95e8c6d8e34acf56,
mall,Pusat Perbelanjaan,Depo Ice Cream Diamond Kolodale,"288Q+WQV, Bahontula, Kec. Petasia, Kabupaten Morowali, Sulawesi Tengah 94971","Bahontula, Kec. Petasia, Kabupaten Morowali",SULAWESI TENGAH,94971.0,Indonesia, 081340377887,,,-1.9826362,121.3394341,https://maps.google.com/?cid=0x0:0xfba25da66bdf169c,
mall,Taman,Jajanan kodal morut,"Kos Orens, Belakang Gereja Toraja Jl. Gn. Radio, Kolonodale, Kec. Petasia, Kabupaten Morowali Utara, Sulawesi Tengah 94971","Belakang Gereja Toraja Jl. Gn. Radio, Kolonodale, Kec. Petasia, Kabupaten Morowali Utara",SULAWESI TENGAH,94971.0,Indonesia, 081242926896,,,-1.9840303,121.3338074,https://maps.google.com/?cid=0x0:0xc90522cf8d611543,
mall,Pabrik stiker,Dewa sticker,"Tompira, Kec. Petasia Timur, Kabupaten Morowali Utara, Sulawesi Tengah 94971","Kec. Petasia Timur, Kabupaten Morowali Utara",SULAWESI TENGAH,94971.0,Indonesia, 082152580032,,,-2.0703954,121.387633,https://maps.google.com/?cid=0x0:0xa8a439df4ffeef4,
mall,Toko Bahan Bangunan,Tokoh sumber indra jaya,"Jl. Trans Sulawesi, Bungintimbe, Kec. Petasia, Kabupaten Morowali Utara, Sulawesi Tengah 94971","Bungintimbe, Kec. Petasia, Kabupaten Morowali Utara",SULAWESI TENGAH,94971.0,Indonesia, 085241568605,,,-2.0742415,121.4384377,https://maps.google.com/?cid=0x0:0xa34431a84cc95a75,
mall,mall,Kec. Petasia,"Kabupaten Morowali Utara, Sulawesi Tengah","Kabupaten Morowali Utara, Sulawesi Tengah",SULAWESI TENGAH,,Indonesia,,,,-2.1146417,121.5195993,https://maps.google.com/?cid=0x0:0xb7809558875ad34b,
mall,Toko,Toko parfum  kios 24 jam,"WF25+QVV, Molino, Kec. Petasia, Kabupaten Morowali, Sulawesi Tengah 94971","Molino, Kec. Petasia, Kabupaten Morowali",SULAWESI TENGAH,94971.0,Indonesia, 081242343797,,,-2.0980142,121.4596855,https://maps.google.com/?cid=0x0:0xbcfb5017da8707ce,
mall,mall,IrsyamShop,"Mohoni, Kec. Petasia, Kabupaten Morowali, Sulawesi Tengah 94971","Kec. Petasia, Kabupaten Morowali",SULAWESI TENGAH,94971.0,Indonesia,,,,-2.1463838,121.4981026,https://maps.google.com/?cid=0x0:0x74c7d6b4432afcd1,
mall,mall,NiwanaShop(Rumah Cantik Nirwana),"WCFX+7G9, Jl. Trans Sulawesi, Bungintimbe, Kec. Petasia, Kabupaten Morowali Utara, Sulawesi Tengah 94971","Jl. Trans Sulawesi, Bungintimbe, Kec. Petasia, Kabupaten Morowali Utara",SULAWESI TENGAH,94971.0,Indonesia, 081343547048,,,-2.0768409,121.4488701,https://maps.google.com/?cid=0x0:0x5607231db1e81306,
mall,mall,Kios Amar,"WF84+53M, Towara, Kec. Petasia, Kabupaten Morowali, Sulawesi Tengah 94971","Towara, Kec. Petasia, Kabupaten Morowali",SULAWESI TENGAH,94971.0,Indonesia,,,,-2.0845388,121.4551757,https://maps.google.com/?cid=0x0:0xc0bae8d077977317,
mall,mall,Kec. Petasia Barat,"Kabupaten Morowali Utara, Sulawesi Tengah","Kabupaten Morowali Utara, Sulawesi Tengah",SULAWESI TENGAH,,Indonesia,,,,-2.0117169,121.2965127,https://maps.google.com/?cid=0x0:0xa1b3a15e083efa64,
mall,Pusat Perbelanjaan,Pasar Sentral Wua-Wua,"X8GR+QQ6, Korololama, Kec. Petasia, Kabupaten Morowali Utara, Sulawesi Tengah 94971","Korololama, Kec. Petasia, Kabupaten Morowali Utara",SULAWESI TENGAH,94971.0,Indonesia,,,,-2.023087,121.341904,https://maps.google.com/?cid=0x0:0xedc671ecdded0cec,
mall,Toko,Pasar Sabtu Bunta,"X948+M7X, Bunta, Kec. Petasia, Kabupaten Morowali Utara, Sulawesi Tengah 94971","Bunta, Kec. Petasia, Kabupaten Morowali Utara",SULAWESI TENGAH,94971.0,Indonesia,,,,-2.0432693,121.3657198,https://maps.google.com/?cid=0x0:0xf46ec77aced5aa7b,
mall,,Pasar Kolonodale,"286R+34V, Jl. Yos Sudarso, Kolonodale, Kec. Petasia, Kabupaten Morowali Utara, Sulawesi Tengah 94971","Jl. Yos Sudarso, Kolonodale, Kec. Petasia, Kabupaten Morowali Utara",SULAWESI TENGAH,94971.0,Indonesia,,,,-1.9897507,121.3402836,https://maps.google.com/?cid=0x0:0x2967383c58a005b,
mall,mall,TOKO ANEKA,"W7VX+7P8, Sampalowo, Kec. Petasia Barat, Kabupaten Morowali Utara, Sulawesi Tengah 94971","Sampalowo, Kec. Petasia Barat, Kabupaten Morowali Utara",SULAWESI TENGAH,94971.0,Indonesia,,,,-2.0568298,121.299321,https://maps.google.com/?cid=0x0:0x40796706983284d9,
mall,Pusat Perbelanjaan,Arfa Center,"287Q+P59, Bahontula, Kec. Petasia, Kabupaten Morowali, Sulawesi Tengah 94971","Bahontula, Kec. Petasia, Kabupaten Morowali",SULAWESI TENGAH,94971.0,Indonesia, 081241352200,,,-1.9857161,121.3379893,https://maps.google.com/?cid=0x0:0xf3180ec360065298,
mall,mall,Kec. Petasia,"Kabupaten Morowali Utara, Sulawesi Tengah","Kabupaten Morowali Utara, Sulawesi Tengah",SULAWESI TENGAH,,Indonesia,,,,-1.9826888,121.3362697,https://maps.google.com/?cid=0x0:0xa1fc0f209d1fef2d,
mall,Toko Barang Pecah Belah,"Jual barang campuran (perabot RT, kosmetik dll)","X8PP+2J9, Korololama, Kec. Petasia, Kabupaten Morowali, Sulawesi Tengah 94971","Korololama, Kec. Petasia, Kabupaten Morowali",SULAWESI TENGAH,94971.0,Indonesia, 082217465326,,,-2.015447,121.335917,https://maps.google.com/?cid=0x0:0x48282edb9f836230,
mall,Toko Pakaian,Athifah shopLampi,"X987+9C, Bunta, Kec. Petasia Timur, Kabupaten Morowali, Sulawesi Tengah","Kabupaten Morowali, Sulawesi Tengah",SULAWESI TENGAH,,Indonesia,,,,-2.03406,121.3635117,https://maps.google.com/?cid=0x0:0x5cb3edd7e49185c3,
mall,Toko,Toko Galaxi,"286Q+HWF, Jl. Yos Sudarso, Kolonodale, Kec. Petasia, Kabupaten Morowali Utara, Sulawesi Tengah 94971","Jl. Yos Sudarso, Kolonodale, Kec. Petasia, Kabupaten Morowali Utara",SULAWESI TENGAH,94971.0,Indonesia,,,,-1.9885596,121.3398069,https://maps.google.com/?cid=0x0:0xd1245382fdd40d58,
mall,Pusat Perbelanjaan,Ancha Cell,"Jl. Jend. Sudirman, Bahontula, Kec. Petasia, Kabupaten Morowali Utara, Sulawesi Tengah 94971","Bahontula, Kec. Petasia, Kabupaten Morowali Utara",SULAWESI TENGAH,94971.0,Indonesia,,,,-1.9844279,121.337866,https://maps.google.com/?cid=0x0:0x95e8c6d8e34acf56,
mall,Pusat Perbelanjaan,Depo Ice Cream Diamond Kolodale,"288Q+WQV, Bahontula, Kec. Petasia, Kabupaten Morowali, Sulawesi Tengah 94971","Bahontula, Kec. Petasia, Kabupaten Morowali",SULAWESI TENGAH,94971.0,Indonesia, 081340377887,,,-1.9826362,121.3394341,https://maps.google.com/?cid=0x0:0xfba25da66bdf169c,
mall,Toko Fotokopi,MamberambePratamaFotoCopy,"28GM+QR9, Bahoue, Kec. Petasia, Kabupaten Morowali, Sulawesi Tengah 94971","Bahoue, Kec. Petasia, Kabupaten Morowali",SULAWESI TENGAH,94971.0,Indonesia, 082258165245,,,-1.9730861,121.3346073,https://maps.google.com/?cid=0x0:0xee3206b0105eb14e,
mall,Taman,Jajanan kodal morut,"Kos Orens, Belakang Gereja Toraja Jl. Gn. Radio, Kolonodale, Kec. Petasia, Kabupaten Morowali Utara, Sulawesi Tengah 94971","Belakang Gereja Toraja Jl. Gn. Radio, Kolonodale, Kec. Petasia, Kabupaten Morowali Utara",SULAWESI TENGAH,94971.0,Indonesia, 081242926896,,,-1.9840303,121.3338074,https://maps.google.com/?cid=0x0:0xc90522cf8d611543,
mall,Pabrik stiker,Dewa sticker,"Tompira, Kec. Petasia Timur, Kabupaten Morowali Utara, Sulawesi Tengah 94971","Kec. Petasia Timur, Kabupaten Morowali Utara",SULAWESI TENGAH,94971.0,Indonesia, 082152580032,,,-2.0703954,121.387633,https://maps.google.com/?cid=0x0:0xa8a439df4ffeef4,
mall,Toko Ponsel,PLAZA HANDPHONE,"28GR+H6V, Jl. Dr. Sahardjo, Bahoue, Kec. Petasia, Kabupaten Morowali Utara, Sulawesi Tengah 94971","Jl. Dr. Sahardjo, Bahoue, Kec. Petasia, Kabupaten Morowali Utara",SULAWESI TENGAH,94971.0,Indonesia, 081342155554,,,-1.9735007,121.3405444,https://maps.google.com/?cid=0x0:0x509d44f96d947551,
mall,mall,Pasar camat petasia barat,"X7RQ+J5H, Unnamed Road, Tiu, Kec. Petasia, Kabupaten Morowali Utara, Sulawesi Tengah 94971","Unnamed Road, Tiu, Kec. Petasia, Kabupaten Morowali Utara",SULAWESI TENGAH,94971.0,Indonesia,,,,-2.0084357,121.2879863,https://maps.google.com/?cid=0x0:0x9e4da3787c9e4ac,
mall,Toko umum,Toko Pakan Ternak  agen BRILink,"289Q+C8W, Bahoue, Kec. Petasia, Kabupaten Morowali, Sulawesi Tengah 94971","Bahoue, Kec. Petasia, Kabupaten Morowali",SULAWESI TENGAH,94971.0,Indonesia,,,,-1.9813919,121.3383375,https://maps.google.com/?cid=0x0:0xed541e12aa3b4d09,
mall,Pusat Perbelanjaan,CITRA MEDIA COMPUTER  Smartphone 757,"WCHV+2G2, Jl. Trans Sulawesi, Bungintimbe, Kec. Petasia, Kabupaten Morowali Utara, Sulawesi Tengah 94971","Jl. Trans Sulawesi, Bungintimbe, Kec. Petasia, Kabupaten Morowali Utara",SULAWESI TENGAH,94971.0,Indonesia,,,,-2.0724948,121.443767,https://maps.google.com/?cid=0x0:0x7d992dfa78518eeb,
mall,mall,Kec. Petasia Timur,"Kabupaten Morowali Utara, Sulawesi Tengah","Kabupaten Morowali Utara, Sulawesi Tengah",SULAWESI TENGAH,,Indonesia,,,,-2.116671,121.4659893,https://maps.google.com/?cid=0x0:0xd22775cddb1fcbf7,
mall,Pusat Perbelanjaan,Pasar Sentral Wua-Wua,"X8GR+QQ6, Korololama, Kec. Petasia, Kabupaten Morowali Utara, Sulawesi Tengah 94971","Korololama, Kec. Petasia, Kabupaten Morowali Utara",SULAWESI TENGAH,94971.0,Indonesia,,,,-2.023087,121.341904,https://maps.google.com/?cid=0x0:0xedc671ecdded0cec,
mall,Toko,Pasar Sabtu Bunta,"X948+M7X, Bunta, Kec. Petasia, Kabupaten Morowali Utara, Sulawesi Tengah 94971","Bunta, Kec. Petasia, Kabupaten Morowali Utara",SULAWESI TENGAH,94971.0,Indonesia,,,,-2.0432693,121.3657198,https://maps.google.com/?cid=0x0:0xf46ec77aced5aa7b,
mall,Minimarket,Kios Jumarni,"WCFX+XFW, Bungintimbe, Kec. Petasia, Kabupaten Morowali, Sulawesi Tengah 94971","Bungintimbe, Kec. Petasia, Kabupaten Morowali",SULAWESI TENGAH,94971.0,Indonesia, 085246552518,,,-2.0750245,121.4486895,https://maps.google.com/?cid=0x0:0x6645f6fa920effbd,
mall,Pusat Perbelanjaan,Delvi olshoop,"RGQ2+75P, Molores, Kec. Petasia, Kabupaten Morowali, Sulawesi Tengah 94971","Molores, Kec. Petasia, Kabupaten Morowali",SULAWESI TENGAH,94971.0,Indonesia, 085397600283,,,-2.1617785,121.5004456,https://maps.google.com/?cid=0x0:0x87862cf0061bf58f,
mall,Toko Pakaian,Athifah shopLampi,"X987+9C, Bunta, Kec. Petasia Timur, Kabupaten Morowali, Sulawesi Tengah","Kabupaten Morowali, Sulawesi Tengah",SULAWESI TENGAH,,Indonesia,,,,-2.03406,121.3635117,https://maps.google.com/?cid=0x0:0x5cb3edd7e49185c3,
mall,Toko umum,Idha Shop,"RGP4+J53, Keuno, Kec. Petasia, Kabupaten Morowali, Sulawesi Tengah 94971","Keuno, Kec. Petasia, Kabupaten Morowali",SULAWESI TENGAH,94971.0,Indonesia, 085242708335,,,-2.1634943,121.5054319,https://maps.google.com/?cid=0x0:0x643db3f2b350e68f,
mall,Toko sembako pemerintah,Adeenaolshop Morut,"288Q+QF5, Bahontula, Kec. Petasia, Kabupaten Morowali Utara, Sulawesi Tengah 94971","Bahontula, Kec. Petasia, Kabupaten Morowali Utara",SULAWESI TENGAH,94971.0,Indonesia, 082266665479,,,-1.9831166,121.3387384,https://maps.google.com/?cid=0x0:0x1d990a99c04303c7,
mall,Pabrik stiker,Dewa sticker,"Tompira, Kec. Petasia Timur, Kabupaten Morowali Utara, Sulawesi Tengah 94971","Kec. Petasia Timur, Kabupaten Morowali Utara",SULAWESI TENGAH,94971.0,Indonesia, 082152580032,,,-2.0703954,121.387633,https://maps.google.com/?cid=0x0:0xa8a439df4ffeef4,
mall,Pusat Perbelanjaan,CITRA MEDIA COMPUTER  Smartphone 757,"WCHV+2G2, Jl. Trans Sulawesi, Bungintimbe, Kec. Petasia, Kabupaten Morowali Utara, Sulawesi Tengah 94971","Jl. Trans Sulawesi, Bungintimbe, Kec. Petasia, Kabupaten Morowali Utara",SULAWESI TENGAH,94971.0,Indonesia,,,,-2.0724948,121.443767,https://maps.google.com/?cid=0x0:0x7d992dfa78518eeb,
mall,Toko Barang Pecah Belah,"Jual barang campuran (perabot RT, kosmetik dll)","X8PP+2J9, Korololama, Kec. Petasia, Kabupaten Morowali, Sulawesi Tengah 94971","Korololama, Kec. Petasia, Kabupaten Morowali",SULAWESI TENGAH,94971.0,Indonesia, 082217465326,,,-2.015447,121.335917,https://maps.google.com/?cid=0x0:0x48282edb9f836230,
mall,Komplek perumahan,m@ega Aluminium  santhyfashion,"RG4Q+JXV, Solonsa Jaya, Kec. Wita Ponda, Kabupaten Morowali, Sulawesi Tengah 94976","Solonsa Jaya, Kec. Wita Ponda, Kabupaten Morowali",SULAWESI TENGAH,94976.0,Indonesia, 081352345088,,,-2.1933858,121.5399112,https://maps.google.com/?cid=0x0:0x76459a2e77886cbe,
mall,Toko Bahan Bangunan,Tokoh sumber indra jaya,"Jl. Trans Sulawesi, Bungintimbe, Kec. Petasia, Kabupaten Morowali Utara, Sulawesi Tengah 94971","Bungintimbe, Kec. Petasia, Kabupaten Morowali Utara",SULAWESI TENGAH,94971.0,Indonesia, 085241568605,,,-2.0742415,121.4384377,https://maps.google.com/?cid=0x0:0xa34431a84cc95a75,
mall,,Pasar Kolonodale,"286R+34V, Jl. Yos Sudarso, Kolonodale, Kec. Petasia, Kabupaten Morowali Utara, Sulawesi Tengah 94971","Jl. Yos Sudarso, Kolonodale, Kec. Petasia, Kabupaten Morowali Utara",SULAWESI TENGAH,94971.0,Indonesia,,,,-1.9897507,121.3402836,https://maps.google.com/?cid=0x0:0x2967383c58a005b,
mall,Minimarket,Kios bilal,"Jl. Trans Sulawesi, Bungintimbe, Kec. Petasia, Kabupaten Morowali Utara, Sulawesi Tengah 94971","Bungintimbe, Kec. Petasia, Kabupaten Morowali Utara",SULAWESI TENGAH,94971.0,Indonesia, 085241401414,,,-2.0786233,121.4507007,https://maps.google.com/?cid=0x0:0xee1aadb69f1e94e0,
mall,mall,Kec. Petasia,"Kabupaten Morowali Utara, Sulawesi Tengah","Kabupaten Morowali Utara, Sulawesi Tengah",SULAWESI TENGAH,,Indonesia,,,,-1.9826888,121.3362697,https://maps.google.com/?cid=0x0:0xa1fc0f209d1fef2d,
mall,Toko,Toko parfum  kios 24 jam,"WF25+QVV, Molino, Kec. Petasia, Kabupaten Morowali, Sulawesi Tengah 94971","Molino, Kec. Petasia, Kabupaten Morowali",SULAWESI TENGAH,94971.0,Indonesia, 081242343797,,,-2.0980142,121.4596855,https://maps.google.com/?cid=0x0:0xbcfb5017da8707ce,
mall,mall,TOKO ANEKA,"W7VX+7P8, Sampalowo, Kec. Petasia Barat, Kabupaten Morowali Utara, Sulawesi Tengah 94971","Sampalowo, Kec. Petasia Barat, Kabupaten Morowali Utara",SULAWESI TENGAH,94971.0,Indonesia,,,,-2.0568298,121.299321,https://maps.google.com/?cid=0x0:0x40796706983284d9,
mall,Pusat Perbelanjaan,Arfa Center,"287Q+P59, Bahontula, Kec. Petasia, Kabupaten Morowali, Sulawesi Tengah 94971","Bahontula, Kec. Petasia, Kabupaten Morowali",SULAWESI TENGAH,94971.0,Indonesia, 081241352200,,,-1.9857161,121.3379893,https://maps.google.com/?cid=0x0:0xf3180ec360065298,
mall,Seafood,Pelelangan Ikan Desa Moahino,"RH8X+XRH, Moahino, Kec. Wita Ponda, Kabupaten Morowali, Sulawesi Tengah","Kabupaten Morowali, Sulawesi Tengah",SULAWESI TENGAH,,Indonesia,,,,-2.1825533,121.5996035,https://maps.google.com/?cid=0x0:0xf446449405b87c9f,
mall,Kantor Perusahaan,Pt NNI,"XCP8+3CR, Bungintimbe, Kec. Petasia, Kabupaten Morowali, Sulawesi Tengah","Kabupaten Morowali, Sulawesi Tengah",SULAWESI TENGAH,,Indonesia, 082347649833,,,-2.0147554,121.4160004,https://maps.google.com/?cid=0x0:0xcc5af172957f936a,
mall,mall,Sulawesi Tengah 94971,"Kabupaten Morowali, Sulawesi Tengah","Kabupaten Morowali, Sulawesi Tengah",SULAWESI TENGAH,,Indonesia,,,,-1.8683068,121.2168466,https://maps.google.com/?cid=0x0:0x200eae1003365f6b,
mall,Pusat Perbelanjaan,Pasar Sentral Soyo Jaya Desa Lembah Sumara,"77FX+59, Lembah Sumara, Kec. Soyo Jaya, Kabupaten Morowali, Sulawesi Tengah 94971","Lembah Sumara, Kec. Soyo Jaya, Kabupaten Morowali",SULAWESI TENGAH,94971.0,Indonesia,,,,-1.727034,121.29848,https://maps.google.com/?cid=0x0:0xf63b437f2c243705,
mall,Pusat Perbelanjaan,Pasar Sentral Wua-Wua,"X8GR+QQ6, Korololama, Kec. Petasia, Kabupaten Morowali Utara, Sulawesi Tengah 94971","Korololama, Kec. Petasia, Kabupaten Morowali Utara",SULAWESI TENGAH,94971.0,Indonesia,,,,-2.023087,121.341904,https://maps.google.com/?cid=0x0:0xedc671ecdded0cec,
mall,Toko Bahan Bangunan,Tokoh sumber indra jaya,"Jl. Trans Sulawesi, Bungintimbe, Kec. Petasia, Kabupaten Morowali Utara, Sulawesi Tengah 94971","Bungintimbe, Kec. Petasia, Kabupaten Morowali Utara",SULAWESI TENGAH,94971.0,Indonesia, 085241568605,,,-2.0742415,121.4384377,https://maps.google.com/?cid=0x0:0xa34431a84cc95a75,
mall,Toko sembako pemerintah,Adeenaolshop Morut,"288Q+QF5, Bahontula, Kec. Petasia, Kabupaten Morowali Utara, Sulawesi Tengah 94971","Bahontula, Kec. Petasia, Kabupaten Morowali Utara",SULAWESI TENGAH,94971.0,Indonesia, 082266665479,,,-1.9831166,121.3387384,https://maps.google.com/?cid=0x0:0x1d990a99c04303c7,
mall,,Pasar Kolonodale,"286R+34V, Jl. Yos Sudarso, Kolonodale, Kec. Petasia, Kabupaten Morowali Utara, Sulawesi Tengah 94971","Jl. Yos Sudarso, Kolonodale, Kec. Petasia, Kabupaten Morowali Utara",SULAWESI TENGAH,94971.0,Indonesia,,,,-1.9897507,121.3402836,https://maps.google.com/?cid=0x0:0x2967383c58a005b,
mall,Minimarket,Kios Jumarni,"WCFX+XFW, Bungintimbe, Kec. Petasia, Kabupaten Morowali, Sulawesi Tengah 94971","Bungintimbe, Kec. Petasia, Kabupaten Morowali",SULAWESI TENGAH,94971.0,Indonesia, 085246552518,,,-2.0750245,121.4486895,https://maps.google.com/?cid=0x0:0x6645f6fa920effbd,
mall,Komplek perumahan,m@ega Aluminium  santhyfashion,"RG4Q+JXV, Solonsa Jaya, Kec. Wita Ponda, Kabupaten Morowali, Sulawesi Tengah 94976","Solonsa Jaya, Kec. Wita Ponda, Kabupaten Morowali",SULAWESI TENGAH,94976.0,Indonesia, 081352345088,,,-2.1933858,121.5399112,https://maps.google.com/?cid=0x0:0x76459a2e77886cbe,
mall,Toko,Pasar Sabtu Bunta,"X948+M7X, Bunta, Kec. Petasia, Kabupaten Morowali Utara, Sulawesi Tengah 94971","Bunta, Kec. Petasia, Kabupaten Morowali Utara",SULAWESI TENGAH,94971.0,Indonesia,,,,-2.0432693,121.3657198,https://maps.google.com/?cid=0x0:0xf46ec77aced5aa7b,
mall,Toko,Toko Tiga Putra Poranda,"WCFX+G68, Jl. Trans Sulawesi, Bungintimbe, Kec. Petasia Timur, Kabupaten Morowali Utara, Sulawesi Tengah 94971","Jl. Trans Sulawesi, Bungintimbe, Kec. Petasia Timur, Kabupaten Morowali Utara",SULAWESI TENGAH,94971.0,Indonesia,,,,-2.0762133,121.4480708,https://maps.google.com/?cid=0x0:0xecf30d91be9c6654,
mall,Toko,ADHIPUTRA,"Beteleme, Kec. Lembo, Kabupaten Morowali Utara, Sulawesi Tengah","Kabupaten Morowali Utara, Sulawesi Tengah",SULAWESI TENGAH,,Indonesia,,,,-2.1462595,121.2805063,https://maps.google.com/?cid=0x0:0xf9808756e5083880,
mall,Komplek perumahan,Kompleks Pasar Baru Beteleme,"V75Q+VHJ, Desa, Beteleme, Kec. Lembo, Kabupaten Morowali Utara, Sulawesi Tengah 94966","Desa, Beteleme, Kec. Lembo, Kabupaten Morowali Utara",SULAWESI TENGAH,94966.0,Indonesia,,,,-2.1404597,121.2880661,https://maps.google.com/?cid=0x0:0xcf52747d14f42c5a,
mall,mall,TOKO ANEKA,"W7VX+7P8, Sampalowo, Kec. Petasia Barat, Kabupaten Morowali Utara, Sulawesi Tengah 94971","Sampalowo, Kec. Petasia Barat, Kabupaten Morowali Utara",SULAWESI TENGAH,94971.0,Indonesia,,,,-2.0568298,121.299321,https://maps.google.com/?cid=0x0:0x40796706983284d9,
mall,Pusat Perbelanjaan,Depo Ice Cream Diamond Kolodale,"288Q+WQV, Bahontula, Kec. Petasia, Kabupaten Morowali, Sulawesi Tengah 94971","Bahontula, Kec. Petasia, Kabupaten Morowali",SULAWESI TENGAH,94971.0,Indonesia, 081340377887,,,-1.9826362,121.3394341,https://maps.google.com/?cid=0x0:0xfba25da66bdf169c,
mall,Toko Pakaian,Athifah shopLampi,"X987+9C, Bunta, Kec. Petasia Timur, Kabupaten Morowali, Sulawesi Tengah","Kabupaten Morowali, Sulawesi Tengah",SULAWESI TENGAH,,Indonesia,,,,-2.03406,121.3635117,https://maps.google.com/?cid=0x0:0x5cb3edd7e49185c3,
mall,Pusat Perbelanjaan,Arfa Center,"287Q+P59, Bahontula, Kec. Petasia, Kabupaten Morowali, Sulawesi Tengah 94971","Bahontula, Kec. Petasia, Kabupaten Morowali",SULAWESI TENGAH,94971.0,Indonesia, 081241352200,,,-1.9857161,121.3379893,https://maps.google.com/?cid=0x0:0xf3180ec360065298,
mall,Toko,Varash VanVan,"R7XG+Q7J, Beteleme, Kec. Lembo, Kabupaten Morowali Utara, Sulawesi Tengah 94966","Beteleme, Kec. Lembo, Kabupaten Morowali Utara",SULAWESI TENGAH,94966.0,Indonesia, 081310836069,,,-2.1505313,121.2756541,https://maps.google.com/?cid=0x0:0x27fcb2fbbce2ebc8,
mall,Pusat Perbelanjaan,Sragen Jaya Plasindo,"Lantula Jaya, Kec. Wita Ponda, Kabupaten Morowali, Sulawesi Tengah 94976","Kec. Wita Ponda, Kabupaten Morowali",SULAWESI TENGAH,94976.0,Indonesia, 081234123241,,,-2.2186528,121.6212995,https://maps.google.com/?cid=0x0:0x3b49dd20074224ff,
mall,Toko Barang Pecah Belah,"Jual barang campuran (perabot RT, kosmetik dll)","X8PP+2J9, Korololama, Kec. Petasia, Kabupaten Morowali, Sulawesi Tengah 94971","Korololama, Kec. Petasia, Kabupaten Morowali",SULAWESI TENGAH,94971.0,Indonesia, 082217465326,,,-2.015447,121.335917,https://maps.google.com/?cid=0x0:0x48282edb9f836230,
mall,Toko umum,Idha Shop,"RGP4+J53, Keuno, Kec. Petasia, Kabupaten Morowali, Sulawesi Tengah 94971","Keuno, Kec. Petasia, Kabupaten Morowali",SULAWESI TENGAH,94971.0,Indonesia, 085242708335,,,-2.1634943,121.5054319,https://maps.google.com/?cid=0x0:0x643db3f2b350e68f,
mall,Toko,Toko parfum  kios 24 jam,"WF25+QVV, Molino, Kec. Petasia, Kabupaten Morowali, Sulawesi Tengah 94971","Molino, Kec. Petasia, Kabupaten Morowali",SULAWESI TENGAH,94971.0,Indonesia, 081242343797,,,-2.0980142,121.4596855,https://maps.google.com/?cid=0x0:0xbcfb5017da8707ce,
mall,Pusat Perbelanjaan,CITRA MEDIA COMPUTER  Smartphone 757,"WCHV+2G2, Jl. Trans Sulawesi, Bungintimbe, Kec. Petasia, Kabupaten Morowali Utara, Sulawesi Tengah 94971","Jl. Trans Sulawesi, Bungintimbe, Kec. Petasia, Kabupaten Morowali Utara",SULAWESI TENGAH,94971.0,Indonesia,,,,-2.0724948,121.443767,https://maps.google.com/?cid=0x0:0x7d992dfa78518eeb,
mall,Taman,Jajanan kodal morut,"Kos Orens, Belakang Gereja Toraja Jl. Gn. Radio, Kolonodale, Kec. Petasia, Kabupaten Morowali Utara, Sulawesi Tengah 94971","Belakang Gereja Toraja Jl. Gn. Radio, Kolonodale, Kec. Petasia, Kabupaten Morowali Utara",SULAWESI TENGAH,94971.0,Indonesia, 081242926896,,,-1.9840303,121.3338074,https://maps.google.com/?cid=0x0:0xc90522cf8d611543,
supermarket,supermarket,Sulawesi Tengah 94972,"Kabupaten Morowali Utara, Sulawesi Tengah","Kabupaten Morowali Utara, Sulawesi Tengah",SULAWESI TENGAH,,Indonesia,,,,-1.6248083,121.7195459,https://maps.google.com/?cid=0x0:0xe9e478f27d681886,
supermarket,Toko bahan makanan,UD.BINTANG FAJAR,"Jl. Nangka, Baturube, Kec. Bungku Utara, Kabupaten Morowali Utara, Sulawesi Tengah 94972","Baturube, Kec. Bungku Utara, Kabupaten Morowali Utara",SULAWESI TENGAH,94972.0,Indonesia, 081377763262,,,-1.7699291,121.7926258,https://maps.google.com/?cid=0x0:0x19712942f05dd46f,
supermarket,Toko,TOKO BUNGA TANI SPC,"7Q95+59J, Tanaku Raya, Kec. Bungku Utara, Kabupaten Morowali Utara, Sulawesi Tengah 94972","Tanaku Raya, Kec. Bungku Utara, Kabupaten Morowali Utara",SULAWESI TENGAH,94972.0,Indonesia, 082292962147,,,-1.7320357,121.7583981,https://maps.google.com/?cid=0x0:0xb3c62475c05dd8d3,
supermarket,supermarket,Toko Ramayanti,"HC9W+X6Q, Taronggo, Kec. Bungku Utara, Kabupaten Morowali Utara, Sulawesi Tengah","Kabupaten Morowali Utara, Sulawesi Tengah",SULAWESI TENGAH,,Indonesia,,,,-1.4300254,121.4456179,https://maps.google.com/?cid=0x0:0x2fa4c0cd208afc45,
supermarket,supermarket,Kios AGUS,"HC9W+X6Q, Taronggo, Kec. Bungku Utara, Kabupaten Morowali Utara, Sulawesi Tengah","Kabupaten Morowali Utara, Sulawesi Tengah",SULAWESI TENGAH,,Indonesia,,,,-1.4300254,121.4456179,https://maps.google.com/?cid=0x0:0xe10d401065714c61,
supermarket,Toko bahan makanan,Kios UMEGA,"Baturube, Kec. Bungku Utara, Kabupaten Morowali, Sulawesi Tengah 94972","Kec. Bungku Utara, Kabupaten Morowali",SULAWESI TENGAH,94972.0,Indonesia,,,,-1.7706912,121.794152,https://maps.google.com/?cid=0x0:0x21d1f4f2123b51ae,
supermarket,Toko bahan makanan,Mitra Mart,"QJMF+M57, Jl. Trans Sulawesi, Sampeantaba, Kec. Wita Ponda, Kabupaten Morowali, Sulawesi Tengah 94976","Jl. Trans Sulawesi, Sampeantaba, Kec. Wita Ponda, Kabupaten Morowali",SULAWESI TENGAH,94976.0,Indonesia, 082194396847,,,-2.2158442,121.6229066,https://maps.google.com/?cid=0x0:0x1c80328d594a5702,
supermarket,Toko Swalayan,Toko chun,"FX4C+8PX, Jl. Abdurrabie, Marsaoleh, Kec. Bungku Tengah, Kabupaten Morowali, Sulawesi Tengah 94973","Jl. Abdurrabie, Marsaoleh, Kec. Bungku Tengah, Kabupaten Morowali",SULAWESI TENGAH,94973.0,Indonesia, 081342950000,,,-2.5441308,121.9718543,https://maps.google.com/?cid=0x0:0xd4778c4ec5e9e873,
supermarket,Toko Swalayan,Toko Tomy,"X948+G8P, Unnamed Road, Bunta, Kec. Petasia, Kabupaten Morowali Utara, Sulawesi Tengah 94971","Unnamed Road, Bunta, Kec. Petasia, Kabupaten Morowali Utara",SULAWESI TENGAH,94971.0,Indonesia, 085299365921,,,-2.0436539,121.3658186,https://maps.google.com/?cid=0x0:0x713ce963dcac7df9,
supermarket,supermarket,Sulawesi Tenggara 93352,"Kabupaten Konawe Utara, Sulawesi Tenggara","Kabupaten Konawe Utara, Sulawesi Tenggara",SULAWESI TENGAH,,Indonesia,,,,-3.7041573,122.2427,https://maps.google.com/?cid=0x0:0x888ae8f2fa8ed5e8,
supermarket,Toko Swalayan,Rapa Abadi,"W974+VG5, Korowou, Kec. Lembo, Kabupaten Morowali, Sulawesi Tengah 94971","Korowou, Kec. Lembo, Kabupaten Morowali",SULAWESI TENGAH,94971.0,Indonesia, 082292040998,,,-2.0853682,121.3563562,https://maps.google.com/?cid=0x0:0x329fbf472cc4c097,
supermarket,Kios,Kios Andry,"R6P6+P3G, desa, Wawopada, Kec. Lembo, Kabupaten Morowali Utara, Sulawesi Tengah 94966","desa, Wawopada, Kec. Lembo, Kabupaten Morowali Utara",SULAWESI TENGAH,94966.0,Indonesia,,,,-2.1631837,121.2101918,https://maps.google.com/?cid=0x0:0xa7e4e0ce3c99ced4,
supermarket,Toko bahan makanan,Kios Fermala,"X938+RC3, Bunta, Kec. Petasia, Kabupaten Morowali Utara, Sulawesi Tengah 94971","Bunta, Kec. Petasia, Kabupaten Morowali Utara",SULAWESI TENGAH,94971.0,Indonesia, 082217772657,,,-2.0454937,121.3660537,https://maps.google.com/?cid=0x0:0x846af6606bc382ae,
supermarket,Toko bahan makanan,Toko Susan,"28GR+XC7, Unnamed Road, Bahoue, Kec. Petasia, Kabupaten Morowali Utara, Sulawesi Tengah 94971","Unnamed Road, Bahoue, Kec. Petasia, Kabupaten Morowali Utara",SULAWESI TENGAH,94971.0,Indonesia,,,,-1.9725853,121.3410464,https://maps.google.com/?cid=0x0:0x32786ec9ddd31bc9,
supermarket,Toko umum,Toko Salsabila,"W9HQ+GCX, Tompira, Kec. Petasia, Kabupaten Morowali Utara, Sulawesi Tengah 94971","Tompira, Kec. Petasia, Kabupaten Morowali Utara",SULAWESI TENGAH,94971.0,Indonesia, 082264740835,,,-2.0711301,121.3886033,https://maps.google.com/?cid=0x0:0x63dc704708bc30fc,
supermarket,supermarket,Rmh.MOGELEA MAKULUBI,"V72H+GJF, Beteleme, Kec. Lembo, Kabupaten Morowali Utara, Sulawesi Tengah","Kabupaten Morowali Utara, Sulawesi Tengah",SULAWESI TENGAH,,Indonesia,,,,-2.1486963,121.2790418,https://maps.google.com/?cid=0x0:0x2f697fc7ddb3896f,
supermarket,Toko Swalayan,Aneka Buana Cirendeu,"Jl. Raya Cirendeu No.38, Cireundeu, Kec. Ciputat Tim., Kota Tangerang Selatan, Banten 15419","Cireundeu, Kec. Ciputat Tim., Kota Tangerang Selatan",SULAWESI TENGAH,15419.0,Indonesia, 0217423906,,,-6.3117335,106.7705024,https://maps.google.com/?cid=0x0:0x1bfb5dff05fdda3c,
supermarket,Toko Swalayan,Aneka Buana Supermarket - Pondok Labu,"Jl. RS. Fatmawati Raya No.15, RT.2/RW.1, Pd. Labu, Kec. Cilandak, Kota Jakarta Selatan, Daerah Khusus Ibukota Jakarta 12450","RT.2/RW.1, Pd. Labu, Kec. Cilandak, Kota Jakarta Selatan",SULAWESI TENGAH,12450.0,Indonesia, 0217692010,,,-6.3093895,106.7939361,https://maps.google.com/?cid=0x0:0x3f7935d87cf91289,
supermarket,Toko Swalayan,Pujasari Swalayan Bojongsari,"Jl. Raya Parung - Ciputat No.101, Bojongsari Baru, Kec. Bojongsari, Kota Depok, Jawa Barat 16517","Bojongsari Baru, Kec. Bojongsari, Kota Depok",SULAWESI TENGAH,16517.0,Indonesia,,,,-6.3996211,106.7422721,https://maps.google.com/?cid=0x0:0x222c094bdfaf338d,
supermarket,Toko Swalayan,Fortuna Swalayan,"Jl. Moh. Kahfi 1 No.1 9, RT.9/RW.4, Cipedak, Kec. Jagakarsa, Kota Jakarta Selatan, Daerah Khusus Ibukota Jakarta 12630","RT.9/RW.4, Cipedak, Kec. Jagakarsa, Kota Jakarta Selatan",SULAWESI TENGAH,12630.0,Indonesia, 02178885739,,,-6.3534406,106.8017381,https://maps.google.com/?cid=0x0:0x98646deb131851d7,
supermarket,Toko Swalayan,GS Supermarket Jatiasih,"GsSupermarket :, Jl. Wibawa Mukti II No.125, RT.002/ RW017/RW.017, Jatiasih, Kec. Jatiasih, Kota Bks, Jawa Barat 17423","Jl. Wibawa Mukti II No.125, RT.002/ RW017/RW.017, Jatiasih, Kec. Jatiasih, Kota Bks",SULAWESI TENGAH,17423.0,Indonesia, 02182736918,,,-6.3070579,106.955731,https://maps.google.com/?cid=0x0:0x74efd6ce433268e6,
supermarket,Kios,Kios Andry,"R6P6+P3G, desa, Wawopada, Kec. Lembo, Kabupaten Morowali Utara, Sulawesi Tengah 94966","desa, Wawopada, Kec. Lembo, Kabupaten Morowali Utara",SULAWESI TENGAH,94966.0,Indonesia,,,,-2.1631837,121.2101918,https://maps.google.com/?cid=0x0:0xa7e4e0ce3c99ced4,
supermarket,Kios,Kios Astrid,"V727+G3Q, Jl. Poros Trans Sulawesi, Beteleme, Kec. Lembo, Kabupaten Morowali Utara, Sulawesi Tengah 94966","Jl. Poros Trans Sulawesi, Beteleme, Kec. Lembo, Kabupaten Morowali Utara",SULAWESI TENGAH,94966.0,Indonesia, 082248274588,,,-2.1486613,121.2627305,https://maps.google.com/?cid=0x0:0x1a3457dfb0b78d2c,
supermarket,supermarket,Sulawesi Tengah 94966,"Kec. Lembo, Kabupaten Morowali Utara, Sulawesi Tengah","Kabupaten Morowali Utara, Sulawesi Tengah",SULAWESI TENGAH,,Indonesia,,,,-2.206204,121.2168466,https://maps.google.com/?cid=0x0:0x31ea9a5f1875191f,
supermarket,Toko Swalayan,Rapa Abadi,"W974+VG5, Korowou, Kec. Lembo, Kabupaten Morowali, Sulawesi Tengah 94971","Korowou, Kec. Lembo, Kabupaten Morowali",SULAWESI TENGAH,94971.0,Indonesia, 082292040998,,,-2.0853682,121.3563562,https://maps.google.com/?cid=0x0:0x329fbf472cc4c097,
supermarket,supermarket,Toko Hasanah Tinompo,"V78P+J64, Jl. Trans Sulawesi, Tinompo, Kec. Lembo, Kabupaten Morowali Utara, Sulawesi Tengah 94966","Jl. Trans Sulawesi, Tinompo, Kec. Lembo, Kabupaten Morowali Utara",SULAWESI TENGAH,94966.0,Indonesia,,,,-2.1334974,121.2855654,https://maps.google.com/?cid=0x0:0x87f603124cf91909,
supermarket,supermarket,Rmh.MOGELEA MAKULUBI,"V72H+GJF, Beteleme, Kec. Lembo, Kabupaten Morowali Utara, Sulawesi Tengah","Kabupaten Morowali Utara, Sulawesi Tengah",SULAWESI TENGAH,,Indonesia,,,,-2.1486963,121.2790418,https://maps.google.com/?cid=0x0:0x2f697fc7ddb3896f,
supermarket,supermarket,Toko adelia,"V74M+4G9, jl, Genting Tanah, Kec. Lembo Raya, Kabupaten Morowali Utara, Sulawesi Tengah rt10","Kabupaten Morowali Utara, Sulawesi Tengah",SULAWESI TENGAH,,Indonesia,,,,-2.1447235,121.2838586,https://maps.google.com/?cid=0x0:0x3b13d396cd5bffb3,
supermarket,Mal outlet,RAMAYANA Cahaya Bintaro,"Plaza Bintaro Jaya Lantai Dasar Jl. Bintaro Utama Sektor 3A, Pd. Karya, Tangerang, Kota Tangerang Selatan, Banten 15225","Pd. Karya, Tangerang, Kota Tangerang Selatan",SULAWESI TENGAH,15225.0,Indonesia, 0217353902,,,-6.2725275,106.7419655,https://maps.google.com/?cid=0x0:0x7e3f15154ff65858,
supermarket,Toserba,Ramayana Cikupa,"Jalan Raya Serang No.KM.16 No.200, Sukamulya, Kec. Cikupa, Kabupaten Tangerang, Banten 15710","Sukamulya, Kec. Cikupa, Kabupaten Tangerang",SULAWESI TENGAH,15710.0,Indonesia,,,,-6.2288176,106.5143663,https://maps.google.com/?cid=0x0:0x290deb305a1e1124,
supermarket,supermarket,Sulawesi Tengah 94966,"Kec. Lembo, Kabupaten Morowali Utara, Sulawesi Tengah","Kabupaten Morowali Utara, Sulawesi Tengah",SULAWESI TENGAH,,Indonesia,,,,-2.206204,121.2168466,https://maps.google.com/?cid=0x0:0x31ea9a5f1875191f,
supermarket,Kios,Kios Andry,"R6P6+P3G, desa, Wawopada, Kec. Lembo, Kabupaten Morowali Utara, Sulawesi Tengah 94966","desa, Wawopada, Kec. Lembo, Kabupaten Morowali Utara",SULAWESI TENGAH,94966.0,Indonesia,,,,-2.1631837,121.2101918,https://maps.google.com/?cid=0x0:0xa7e4e0ce3c99ced4,
supermarket,Toko,Toko Kembang,"P76Q+V3V, Depan lapangan desa Dolupo Karya, kec, Dolupo Karya, Kec. Lembo Raya, Kabupaten Morowali Utara, Sulawesi Tengah 94966","Depan lapangan desa Dolupo Karya, kec, Dolupo Karya, Kec. Lembo Raya, Kabupaten Morowali Utara",SULAWESI TENGAH,94966.0,Indonesia,,,,-2.2877721,121.2876681,https://maps.google.com/?cid=0x0:0x93ad8d9c6b375f87,
supermarket,Toko,SEHATIBETELEME,"V76M+JRX, Beteleme, Kec. Lembo, Kabupaten Morowali Utara, Sulawesi Tengah 94966","Beteleme, Kec. Lembo, Kabupaten Morowali Utara",SULAWESI TENGAH,94966.0,Indonesia,,,,-2.1383588,121.2846086,https://maps.google.com/?cid=0x0:0x8d8aca3c2794c6a5,
supermarket,Toko bahan makanan,Kios Muzacky,"V72G+4V6, Beteleme, Kec. Lembo, Kabupaten Morowali Utara, Sulawesi Tengah 94966","Beteleme, Kec. Lembo, Kabupaten Morowali Utara",SULAWESI TENGAH,94966.0,Indonesia, 082346845391,,,-2.1497111,121.277134,https://maps.google.com/?cid=0x0:0xbb06c86a0a2704b6,
supermarket,supermarket,TOKO MUTIARA,"R7XF+GRC, Beteleme - Tompira, Beteleme, Kec. Lembo, Kabupaten Morowali Utara, Sulawesi Tengah 94966","Beteleme - Tompira, Beteleme, Kec. Lembo, Kabupaten Morowali Utara",SULAWESI TENGAH,94966.0,Indonesia,,,,-2.151183,121.2745201,https://maps.google.com/?cid=0x0:0x42660992263f08ce,
supermarket,Kios,Toko Mega Ria 1,"V72H+XX2, Beteleme, Kec. Lembo, Kabupaten Morowali Utara, Sulawesi Tengah 94966","Beteleme, Kec. Lembo, Kabupaten Morowali Utara",SULAWESI TENGAH,94966.0,Indonesia, 0811418912,,,-2.1476027,121.2798907,https://maps.google.com/?cid=0x0:0x1a46c6a232343447,
supermarket,Toko Swalayan,Rapa Abadi,"W974+VG5, Korowou, Kec. Lembo, Kabupaten Morowali, Sulawesi Tengah 94971","Korowou, Kec. Lembo, Kabupaten Morowali",SULAWESI TENGAH,94971.0,Indonesia, 082292040998,,,-2.0853682,121.3563562,https://maps.google.com/?cid=0x0:0x329fbf472cc4c097,
supermarket,Pusat Perbelanjaan,Ronta,"R839+7Q, Ronta, Kec. Lembo Raya, Kabupaten Morowali Utara, Sulawesi Tengah","Kabupaten Morowali Utara, Sulawesi Tengah",SULAWESI TENGAH,,Indonesia,,,,-2.1968103,121.3194855,https://maps.google.com/?cid=0x0:0xb4c6e5d57e5cda1b,
supermarket,Toko bahan makanan,Toko Fortuna,"Korompeeli, Kec. Lembo, Kabupaten Morowali, Sulawesi Tengah 94971","Kec. Lembo, Kabupaten Morowali",SULAWESI TENGAH,94971.0,Indonesia, 085222266614,,,-2.117346,121.3055486,https://maps.google.com/?cid=0x0:0x6aa29b238f4741d5,
supermarket,supermarket,WinWin Frozen Beteleme,"V76Q+2CG, Beteleme, Kec. Lembo, Kabupaten Morowali Utara, Sulawesi Tengah","Kabupaten Morowali Utara, Sulawesi Tengah",SULAWESI TENGAH,,Indonesia,,,,-2.1399461,121.288592,https://maps.google.com/?cid=0x0:0xfb258e7dfbab8304,
supermarket,Komplek perumahan,Afdeling Carly,"Q8FP+WV, Ronta, Kec. Lembo Raya, Kabupaten Morowali Utara, Sulawesi Tengah","Kabupaten Morowali Utara, Sulawesi Tengah",SULAWESI TENGAH,,Indonesia,,,,-2.2251875,121.3371875,https://maps.google.com/?cid=0x0:0xc26a212d20ba0ae8,
supermarket,Toko umum,Kios ibrahim,"W953+GFX, Beteleme - Tompira, Korowou, Kec. Lembo, Kabupaten Morowali Utara, Sulawesi Tengah 94971","Beteleme - Tompira, Korowou, Kec. Lembo, Kabupaten Morowali Utara",SULAWESI TENGAH,94971.0,Indonesia, 082393279826,,,-2.0911433,121.3537463,https://maps.google.com/?cid=0x0:0x34c1734f5384a8e6,
supermarket,Toko bahan makanan,Mitra Mart,"QJMF+M57, Jl. Trans Sulawesi, Sampeantaba, Kec. Wita Ponda, Kabupaten Morowali, Sulawesi Tengah 94976","Jl. Trans Sulawesi, Sampeantaba, Kec. Wita Ponda, Kabupaten Morowali",SULAWESI TENGAH,94976.0,Indonesia, 082194396847,,,-2.2158442,121.6229066,https://maps.google.com/?cid=0x0:0x1c80328d594a5702,
supermarket,Toko Swalayan,Toko Tomy,"X948+G8P, Unnamed Road, Bunta, Kec. Petasia, Kabupaten Morowali Utara, Sulawesi Tengah 94971","Unnamed Road, Bunta, Kec. Petasia, Kabupaten Morowali Utara",SULAWESI TENGAH,94971.0,Indonesia, 085299365921,,,-2.0436539,121.3658186,https://maps.google.com/?cid=0x0:0x713ce963dcac7df9,
supermarket,supermarket,Toko Putra Mandiri,"Beteleme, Kec. Lembo, Kabupaten Morowali Utara, Sulawesi Tengah","Kabupaten Morowali Utara, Sulawesi Tengah",SULAWESI TENGAH,,Indonesia,,,,-2.1465364,121.2804353,https://maps.google.com/?cid=0x0:0x9c437eb17466638c,
supermarket,supermarket,Toko Fortuna Mart,"Korompeeli, Kec. Lembo, Kabupaten Morowali Utara, Sulawesi Tengah","Kabupaten Morowali Utara, Sulawesi Tengah",SULAWESI TENGAH,,Indonesia,,,,-2.1299163,121.3038589,https://maps.google.com/?cid=0x0:0xf744e2299c56c127,
supermarket,Kantor Perusahaan,Pabrik Tahu AA Tinompo,"V78P+W8M, Tinompo, Kec. Lembo, Kabupaten Morowali Utara, Sulawesi Tengah","Kabupaten Morowali Utara, Sulawesi Tengah",SULAWESI TENGAH,,Indonesia,,,,-2.1326669,121.2857922,https://maps.google.com/?cid=0x0:0x8a44457b927ac5bc,
supermarket,Brunch,warung mama ayu lawangke,"P76V+J5, Dolupo Karya, Kec. Lembo Raya, Kabupaten Morowali, Sulawesi Tengah 94966","Dolupo Karya, Kec. Lembo Raya, Kabupaten Morowali",SULAWESI TENGAH,94966.0,Indonesia,,,,-2.2884592,121.2929202,https://maps.google.com/?cid=0x0:0x3152fdc7e0cfd62a,
supermarket,Toko,Toko Dua Putra,"W9JM+JPP, Tompira, Kec. Petasia, Kabupaten Morowali, Sulawesi Tengah 94971","Tompira, Kec. Petasia, Kabupaten Morowali",SULAWESI TENGAH,94971.0,Indonesia,,,,-2.068401,121.3843291,https://maps.google.com/?cid=0x0:0xb80aa412438f5284,
supermarket,supermarket,Toko adelia,"V74M+4G9, jl, Genting Tanah, Kec. Lembo Raya, Kabupaten Morowali Utara, Sulawesi Tengah rt10","Kabupaten Morowali Utara, Sulawesi Tengah",SULAWESI TENGAH,,Indonesia,,,,-2.1447235,121.2838586,https://maps.google.com/?cid=0x0:0x3b13d396cd5bffb3,
supermarket,supermarket,Rmh.MOGELEA MAKULUBI,"V72H+GJF, Beteleme, Kec. Lembo, Kabupaten Morowali Utara, Sulawesi Tengah","Kabupaten Morowali Utara, Sulawesi Tengah",SULAWESI TENGAH,,Indonesia,,,,-2.1486963,121.2790418,https://maps.google.com/?cid=0x0:0x2f697fc7ddb3896f,
supermarket,supermarket,Sulawesi Tengah 94972,"Kabupaten Morowali Utara, Sulawesi Tengah","Kabupaten Morowali Utara, Sulawesi Tengah",SULAWESI TENGAH,,Indonesia,,,,-1.6248083,121.7195459,https://maps.google.com/?cid=0x0:0xe9e478f27d681886,
supermarket,Toko bahan makanan,Toko Ani,"9X7C+4JF, Tana Sumpu, Kec. Mamosalato, Kabupaten Morowali, Sulawesi Tengah 94972","Tana Sumpu, Kec. Mamosalato, Kabupaten Morowali",SULAWESI TENGAH,94972.0,Indonesia, 085394850852,,,-1.6371868,121.9715341,https://maps.google.com/?cid=0x0:0x6c901bc7ee68b723,
supermarket,Toko,TOKO BUNGA TANI SPC,"7Q95+59J, Tanaku Raya, Kec. Bungku Utara, Kabupaten Morowali Utara, Sulawesi Tengah 94972","Tanaku Raya, Kec. Bungku Utara, Kabupaten Morowali Utara",SULAWESI TENGAH,94972.0,Indonesia, 082292962147,,,-1.7320357,121.7583981,https://maps.google.com/?cid=0x0:0xb3c62475c05dd8d3,
supermarket,Toko bahan makanan,UD.BINTANG FAJAR,"Jl. Nangka, Baturube, Kec. Bungku Utara, Kabupaten Morowali Utara, Sulawesi Tengah 94972","Baturube, Kec. Bungku Utara, Kabupaten Morowali Utara",SULAWESI TENGAH,94972.0,Indonesia, 081377763262,,,-1.7699291,121.7926258,https://maps.google.com/?cid=0x0:0x19712942f05dd46f,
supermarket,supermarket,Toko Ramayanti,"HC9W+X6Q, Taronggo, Kec. Bungku Utara, Kabupaten Morowali Utara, Sulawesi Tengah","Kabupaten Morowali Utara, Sulawesi Tengah",SULAWESI TENGAH,,Indonesia,,,,-1.4300254,121.4456179,https://maps.google.com/?cid=0x0:0x2fa4c0cd208afc45,
supermarket,supermarket,Toko Pak Marno,"9X32+9RP, Tananagaya, Kec. Mamosalato, Kabupaten Morowali, Sulawesi Tengah 94972","Tananagaya, Kec. Mamosalato, Kabupaten Morowali",SULAWESI TENGAH,94972.0,Indonesia,,,,-1.6465263,121.9520781,https://maps.google.com/?cid=0x0:0xa24ff6144a9dc200,
supermarket,Toko bahan makanan,Mitra Mart,"QJMF+M57, Jl. Trans Sulawesi, Sampeantaba, Kec. Wita Ponda, Kabupaten Morowali, Sulawesi Tengah 94976","Jl. Trans Sulawesi, Sampeantaba, Kec. Wita Ponda, Kabupaten Morowali",SULAWESI TENGAH,94976.0,Indonesia, 082194396847,,,-2.2158442,121.6229066,https://maps.google.com/?cid=0x0:0x1c80328d594a5702,
supermarket,Toko bahan makanan,Toko Marco,"2X3H+W6Q, Tomata, Kec. Mori Atas, Kabupaten Morowali Utara, Sulawesi Tengah 94965","Tomata, Kec. Mori Atas, Kabupaten Morowali Utara",SULAWESI TENGAH,94965.0,Indonesia,,,,-1.9951593,120.9781034,https://maps.google.com/?cid=0x0:0xd6080573b47a3d3b,
supermarket,Toko Swalayan,Toko Tomy,"X948+G8P, Unnamed Road, Bunta, Kec. Petasia, Kabupaten Morowali Utara, Sulawesi Tengah 94971","Unnamed Road, Bunta, Kec. Petasia, Kabupaten Morowali Utara",SULAWESI TENGAH,94971.0,Indonesia, 085299365921,,,-2.0436539,121.3658186,https://maps.google.com/?cid=0x0:0x713ce963dcac7df9,
supermarket,Toko Swalayan,Ananda Mart,"Jl. Yos Sudarso No.50, Kolonodale, Kec. Petasia, Kabupaten Morowali Utara, Sulawesi Tengah 94671","Kolonodale, Kec. Petasia, Kabupaten Morowali Utara",SULAWESI TENGAH,94671.0,Indonesia, 085211031224,,,-1.9863805,121.3394645,https://maps.google.com/?cid=0x0:0xa0bb31e54a99449f,
supermarket,Toko bahan makanan,Kios Fermala,"X938+RC3, Bunta, Kec. Petasia, Kabupaten Morowali Utara, Sulawesi Tengah 94971","Bunta, Kec. Petasia, Kabupaten Morowali Utara",SULAWESI TENGAH,94971.0,Indonesia, 082217772657,,,-2.0454937,121.3660537,https://maps.google.com/?cid=0x0:0x846af6606bc382ae,
supermarket,Toko Swalayan,Toko Sehati,"284Q+MPJ, Jl. Tinumbu, Kolonodale, Kec. Petasia, Kabupaten Morowali Utara, Sulawesi Tengah 94971","Jl. Tinumbu, Kolonodale, Kec. Petasia, Kabupaten Morowali Utara",SULAWESI TENGAH,94971.0,Indonesia, 082192001691,,,-1.993283,121.3392781,https://maps.google.com/?cid=0x0:0x25a0ab8cd8e8fc36,
supermarket,,Toko Sumber Rejeki,"7Q97+VM2, Tanaku Raya, Kec. Bungku Utara, Kabupaten Morowali Utara, Sulawesi Tengah 94972","Tanaku Raya, Kec. Bungku Utara, Kabupaten Morowali Utara",SULAWESI TENGAH,94972.0,Indonesia,,,,-1.7303732,121.7641301,https://maps.google.com/?cid=0x0:0xf49aa6ffbd599e61,
supermarket,Toko Pakaian,Sergeant Ochims,"9X6G+CJG, Tana Sumpu, Kec. Mamosalato, Kabupaten Morowali, Sulawesi Tengah 94972","Tana Sumpu, Kec. Mamosalato, Kabupaten Morowali",SULAWESI TENGAH,94972.0,Indonesia, 081241825222,,,-1.6389338,121.9765659,https://maps.google.com/?cid=0x0:0xd97fec8008dfb3d4,
supermarket,Toko umum,Dapoerku Wayau,"Jl Moh Hatta No.141, Kelurahan Muara Toba, Kecamatan Ratolindo, Kabupaten Morowali Utara, Sulawesi Tengah","Kabupaten Morowali Utara, Sulawesi Tengah",SULAWESI TENGAH,,Indonesia, 082194886886,,,-1.4300254,121.4456179,https://maps.google.com/?cid=0x0:0xdd33040349d63b42,
supermarket,Toko bahan makanan,Gracia 2,"6Q8Q+GXR, Uewajo, Kec. Bungku Utara, Kabupaten Morowali Utara, Sulawesi Tengah 94972","Uewajo, Kec. Bungku Utara, Kabupaten Morowali Utara",SULAWESI TENGAH,94972.0,Indonesia, 085241186451,,,-1.7836273,121.7898951,https://maps.google.com/?cid=0x0:0xa4a663dfc1ca12cd,
supermarket,Kios,Kios pak ica,"6PCH+XGJ, Tokala Atas, Kec. Bungku Utara, Kabupaten Morowali Utara, Sulawesi Tengah 94972","Tokala Atas, Kec. Bungku Utara, Kabupaten Morowali Utara",SULAWESI TENGAH,94972.0,Indonesia,,,,-1.7775369,121.7287755,https://maps.google.com/?cid=0x0:0xd9091f399617c31d,
supermarket,Toko Pakaian,TOKO WIDIA,"9X8G+WHC, Rata - Baturube, Tana Sumpu, Kec. Mamosalato, Kabupaten Morowali Utara, Sulawesi Tengah 94972","Rata - Baturube, Tana Sumpu, Kec. Mamosalato, Kabupaten Morowali Utara",SULAWESI TENGAH,94972.0,Indonesia,,,,-1.6326759,121.9763774,https://maps.google.com/?cid=0x0:0xd84cebd5d42e7f6,
supermarket,Kios,TOKO AL KAHFI,"9X33+9XG, Rata - Baturube, Tananagaya, Kec. Mamosalato, Kabupaten Morowali Utara, Sulawesi Tengah 94972","Rata - Baturube, Tananagaya, Kec. Mamosalato, Kabupaten Morowali Utara",SULAWESI TENGAH,94972.0,Indonesia,,,,-1.6465666,121.9549565,https://maps.google.com/?cid=0x0:0x7fdae0f2544daa45,
supermarket,Toko bahan makanan,Uewajo,"6Q8Q+FXV, Uewajo, Kec. Bungku Utara, Kabupaten Morowali Utara, Sulawesi Tengah 94972","Uewajo, Kec. Bungku Utara, Kabupaten Morowali Utara",SULAWESI TENGAH,94972.0,Indonesia, 085241186451,,,-1.7837553,121.7899168,https://maps.google.com/?cid=0x0:0x6d6dab482f6e3a01,
supermarket,Komplek perumahan,Desa Lero Kabupatan Donggala,"HC9W+X6Q, Taronggo, Kec. Bungku Utara, Kabupaten Morowali, Sulawesi Tengah 94972","Taronggo, Kec. Bungku Utara, Kabupaten Morowali",SULAWESI TENGAH,94972.0,Indonesia, 082293041988,,,-1.4300254,121.4456179,https://maps.google.com/?cid=0x0:0x51e9784c830deb42,
supermarket,Toko,Mama Dina,"6PQX+85H, Woomparigi, Kec. Bungku Utara, Kabupaten Morowali Utara, Sulawesi Tengah 94972","Woomparigi, Kec. Bungku Utara, Kabupaten Morowali Utara",SULAWESI TENGAH,94972.0,Indonesia,,,,-1.7616953,121.7479932,https://maps.google.com/?cid=0x0:0x14d2e0b139942f98,
supermarket,supermarket,KIOS SINTIA CICA,"6PMW+P7, Woomparigi, Kec. Bungku Utara, Kabupaten Morowali Utara, Sulawesi Tengah","Kabupaten Morowali Utara, Sulawesi Tengah",SULAWESI TENGAH,,Indonesia,,,,-1.765692,121.745634,https://maps.google.com/?cid=0x0:0x9097950d6aada123,
supermarket,Toko bahan makanan,Kios UMEGA,"Baturube, Kec. Bungku Utara, Kabupaten Morowali, Sulawesi Tengah 94972","Kec. Bungku Utara, Kabupaten Morowali",SULAWESI TENGAH,94972.0,Indonesia,,,,-1.7706912,121.794152,https://maps.google.com/?cid=0x0:0x21d1f4f2123b51ae,
supermarket,Toko bahan makanan,TOKO WAHYU,"7Q95+C8X, Rata - Baturube, Tirongan Atas, Kec. Bungku Utara, Kabupaten Morowali Utara, Sulawesi Tengah 94972","Rata - Baturube, Tirongan Atas, Kec. Bungku Utara, Kabupaten Morowali Utara",SULAWESI TENGAH,94972.0,Indonesia,,,,-1.731386,121.7583579,https://maps.google.com/?cid=0x0:0x5eb7cc42e9a54b60,
supermarket,supermarket,Toko Pak Misidi,"9X34+96H, Jl. Pendidikan, Tananagaya, Kec. Mamosalato, Kabupaten Morowali Utara, Sulawesi Tengah 94972","Jl. Pendidikan, Tananagaya, Kec. Mamosalato, Kabupaten Morowali Utara",SULAWESI TENGAH,94972.0,Indonesia,,,,-1.6465635,121.9556152,https://maps.google.com/?cid=0x0:0xc2662283748f66f2,
supermarket,supermarket,Sulawesi Tengah 94965,"Kabupaten Morowali Utara, Sulawesi Tengah","Kabupaten Morowali Utara, Sulawesi Tengah",SULAWESI TENGAH,,Indonesia,,,,-1.9065553,120.9876321,https://maps.google.com/?cid=0x0:0x7343a4638efc8db3,
supermarket,Toko bahan makanan,Toko Marco,"2X3H+W6Q, Tomata, Kec. Mori Atas, Kabupaten Morowali Utara, Sulawesi Tengah 94965","Tomata, Kec. Mori Atas, Kabupaten Morowali Utara",SULAWESI TENGAH,94965.0,Indonesia,,,,-1.9951593,120.9781034,https://maps.google.com/?cid=0x0:0xd6080573b47a3d3b,
supermarket,Toko umum,Kios Rafaabadi,"Lembontonara, Kec. Mori Utara, Kabupaten Morowali Utara, Sulawesi Tengah 94965","Kec. Mori Utara, Kabupaten Morowali Utara",SULAWESI TENGAH,94965.0,Indonesia, 085298785521,,,-1.9487269,120.9383415,https://maps.google.com/?cid=0x0:0x426400b35001102d,
supermarket,supermarket,Toko Lisya Tomata,"2X3G+MQR, Tomata, Kec. Mori Atas, Kabupaten Morowali, Sulawesi Tengah 94965","Tomata, Kec. Mori Atas, Kabupaten Morowali",SULAWESI TENGAH,94965.0,Indonesia,,,,-1.995763,120.9769026,https://maps.google.com/?cid=0x0:0xae07ba0423387f87,
supermarket,Kios,KIOS ASRI WASUMPU'U,"Unnamed Road, 94965, Ensa, Kec. Mori Atas, Kabupaten Morowali Utara, Sulawesi Tengah 94965","94965, Ensa, Kec. Mori Atas, Kabupaten Morowali Utara",SULAWESI TENGAH,94965.0,Indonesia,,,,-2.0179992,121.06849,https://maps.google.com/?cid=0x0:0x9198e638a8566726,
supermarket,Toko,toko alif,"2X3H+WPV, Jl. Trans Sulawesi, Tomata, Kec. Mori Atas, Kabupaten Morowali Utara, Sulawesi Tengah 94965","Jl. Trans Sulawesi, Tomata, Kec. Mori Atas, Kabupaten Morowali Utara",SULAWESI TENGAH,94965.0,Indonesia,,,,-1.9951259,120.9792858,https://maps.google.com/?cid=0x0:0xd1f1446151474777,
supermarket,Toko,KIOS INAL,"843Q+HMF, Panca Makmur, Kec. Soyo Jaya, Kabupaten Morowali, Sulawesi Tengah","Kabupaten Morowali, Sulawesi Tengah",SULAWESI TENGAH,,Indonesia, 082259669379,,,-1.6960613,121.1391709,https://maps.google.com/?cid=0x0:0xda65405acaa6161,
supermarket,Toko,KIOS IKBAL,"3W5G+JQP, Jl. Trans Sulawesi, Lembontonara, Kec. Mori Utara, Kabupaten Morowali Utara, Sulawesi Tengah 94965","Jl. Trans Sulawesi, Lembontonara, Kec. Mori Utara, Kabupaten Morowali Utara",SULAWESI TENGAH,94965.0,Indonesia,,,,-1.9409119,120.9269648,https://maps.google.com/?cid=0x0:0x6630878d65c622ec,
supermarket,Pusat Perbelanjaan,Toko Stamart,"Londi, Kec. Mori Atas, Kabupaten Morowali Utara, Sulawesi Tengah","Kabupaten Morowali Utara, Sulawesi Tengah",SULAWESI TENGAH,,Indonesia, 082292942849,,,-2.0041941,121.0014745,https://maps.google.com/?cid=0x0:0x8d3dcaa534584cc6,
supermarket,Pasar,Pasar Desa Ensa,"X3JC+R45, Ensa, Kec. Mori Atas, Kabupaten Morowali Utara, Sulawesi Tengah 94965","Ensa, Kec. Mori Atas, Kabupaten Morowali Utara",SULAWESI TENGAH,94965.0,Indonesia,,,,-2.0179937,121.0703618,https://maps.google.com/?cid=0x0:0x4ddad60d8d1ae6ec,
supermarket,Toko Ikan,Pangkalan Ikan S.B.T NARUTO,"2X4H+V53, Tomata, Kec. Mori Atas, Kabupaten Morowali, Sulawesi Tengah 94965","Tomata, Kec. Mori Atas, Kabupaten Morowali",SULAWESI TENGAH,94965.0,Indonesia, 082190993060,,,-1.9928568,120.9779355,https://maps.google.com/?cid=0x0:0x156ae30dddb87514,
supermarket,Toko Perlengkapan Rumah,Batam Plastik,"2X2J+6V3, Tomata, Kec. Mori Atas, Kabupaten Morowali Utara, Sulawesi Tengah 94965","Tomata, Kec. Mori Atas, Kabupaten Morowali Utara",SULAWESI TENGAH,94965.0,Indonesia, 085241337678,,,-1.9994785,120.982169,https://maps.google.com/?cid=0x0:0x12e63c0a3c37a75,
supermarket,Toko,Kios Gerald,"2XFR+G5Q, Wawondula, Kec. Mori Utara, Kabupaten Morowali Utara, Sulawesi Tengah 94965","Wawondula, Kec. Mori Utara, Kabupaten Morowali Utara",SULAWESI TENGAH,94965.0,Indonesia,,,,-1.9761729,120.9905,https://maps.google.com/?cid=0x0:0x7730c31994c0774,
supermarket,Toko bahan makanan,Mitra Mart,"QJMF+M57, Jl. Trans Sulawesi, Sampeantaba, Kec. Wita Ponda, Kabupaten Morowali, Sulawesi Tengah 94976","Jl. Trans Sulawesi, Sampeantaba, Kec. Wita Ponda, Kabupaten Morowali",SULAWESI TENGAH,94976.0,Indonesia, 082194396847,,,-2.2158442,121.6229066,https://maps.google.com/?cid=0x0:0x1c80328d594a5702,
supermarket,supermarket,Kios mama lisa,"3XGF+P5X, Mayumba, Kec. Mori Utara, Kabupaten Morowali Utara, Sulawesi Tengah","Kabupaten Morowali Utara, Sulawesi Tengah",SULAWESI TENGAH,,Indonesia,,,,-1.9238623,120.9720387,https://maps.google.com/?cid=0x0:0x4e7768aebe5c9e58,
supermarket,Toko umum,Toko Merah Putih,"Taliwan, Wawondula, Kec. Mori Utara, Kabupaten Morowali Utara, Sulawesi Tengah 94965","Wawondula, Kec. Mori Utara, Kabupaten Morowali Utara",SULAWESI TENGAH,94965.0,Indonesia, 081343905905,,,-1.9698587,120.9830547,https://maps.google.com/?cid=0x0:0xa2dee59fbb12e62c,
supermarket,Toko Swalayan,Ananda Mart,"Jl. Yos Sudarso No.50, Kolonodale, Kec. Petasia, Kabupaten Morowali Utara, Sulawesi Tengah 94671","Kolonodale, Kec. Petasia, Kabupaten Morowali Utara",SULAWESI TENGAH,94671.0,Indonesia, 085211031224,,,-1.9863805,121.3394645,https://maps.google.com/?cid=0x0:0xa0bb31e54a99449f,
supermarket,supermarket,TOKO MITRA TANI,"Kolaka, Kec. Mori Atas, Kabupaten Morowali Utara, Sulawesi Tengah","Kabupaten Morowali Utara, Sulawesi Tengah",SULAWESI TENGAH,,Indonesia,,,,-2.0495471,121.1021279,https://maps.google.com/?cid=0x0:0x5dc689fa5228022c,
supermarket,supermarket,Kec. Mori Atas,"Kabupaten Morowali Utara, Sulawesi Tengah","Kabupaten Morowali Utara, Sulawesi Tengah",SULAWESI TENGAH,,Indonesia,,,,-2.0002929,120.9771708,https://maps.google.com/?cid=0x0:0xb482718602ff4a56,
supermarket,supermarket,Sulawesi Tengah 94965,"Kabupaten Morowali Utara, Sulawesi Tengah","Kabupaten Morowali Utara, Sulawesi Tengah",SULAWESI TENGAH,,Indonesia,,,,-1.9065553,120.9876321,https://maps.google.com/?cid=0x0:0x7343a4638efc8db3,
supermarket,Toko bahan makanan,Toko Marco,"2X3H+W6Q, Tomata, Kec. Mori Atas, Kabupaten Morowali Utara, Sulawesi Tengah 94965","Tomata, Kec. Mori Atas, Kabupaten Morowali Utara",SULAWESI TENGAH,94965.0,Indonesia,,,,-1.9951593,120.9781034,https://maps.google.com/?cid=0x0:0xd6080573b47a3d3b,
supermarket,Toko umum,Kios Rafaabadi,"Lembontonara, Kec. Mori Utara, Kabupaten Morowali Utara, Sulawesi Tengah 94965","Kec. Mori Utara, Kabupaten Morowali Utara",SULAWESI TENGAH,94965.0,Indonesia, 085298785521,,,-1.9487269,120.9383415,https://maps.google.com/?cid=0x0:0x426400b35001102d,
supermarket,Toko,KIOS INAL,"843Q+HMF, Panca Makmur, Kec. Soyo Jaya, Kabupaten Morowali, Sulawesi Tengah","Kabupaten Morowali, Sulawesi Tengah",SULAWESI TENGAH,,Indonesia, 082259669379,,,-1.6960613,121.1391709,https://maps.google.com/?cid=0x0:0xda65405acaa6161,
supermarket,Toko Swalayan,Ananda Mart,"Jl. Yos Sudarso No.50, Kolonodale, Kec. Petasia, Kabupaten Morowali Utara, Sulawesi Tengah 94671","Kolonodale, Kec. Petasia, Kabupaten Morowali Utara",SULAWESI TENGAH,94671.0,Indonesia, 085211031224,,,-1.9863805,121.3394645,https://maps.google.com/?cid=0x0:0xa0bb31e54a99449f,
supermarket,Kios,Kios Andry,"R6P6+P3G, desa, Wawopada, Kec. Lembo, Kabupaten Morowali Utara, Sulawesi Tengah 94966","desa, Wawopada, Kec. Lembo, Kabupaten Morowali Utara",SULAWESI TENGAH,94966.0,Indonesia,,,,-2.1631837,121.2101918,https://maps.google.com/?cid=0x0:0xa7e4e0ce3c99ced4,
supermarket,supermarket,Toko Taufik,"3W3M+RV5, desa, Lembontonara, Kec. Mori Utara, Kabupaten Morowali Utara, Sulawesi Tengah 94965","desa, Lembontonara, Kec. Mori Utara, Kabupaten Morowali Utara",SULAWESI TENGAH,94965.0,Indonesia,,,,-1.9454752,120.9347303,https://maps.google.com/?cid=0x0:0x30d822365312d52,
supermarket,Toko umum,282 mart,"3W3P+4VG, Jl. Trans Sulawesi, Lembontonara, Kec. Mori Utara, Kabupaten Morowali Utara, Sulawesi Tengah 94965","Jl. Trans Sulawesi, Lembontonara, Kec. Mori Utara, Kabupaten Morowali Utara",SULAWESI TENGAH,94965.0,Indonesia,,,,-1.9471841,120.9372182,https://maps.google.com/?cid=0x0:0xe38adf2822381e22,
supermarket,Kios,KIOS ASRI WASUMPU'U,"Unnamed Road, 94965, Ensa, Kec. Mori Atas, Kabupaten Morowali Utara, Sulawesi Tengah 94965","94965, Ensa, Kec. Mori Atas, Kabupaten Morowali Utara",SULAWESI TENGAH,94965.0,Indonesia,,,,-2.0179992,121.06849,https://maps.google.com/?cid=0x0:0x9198e638a8566726,
supermarket,Toko,KIOS IKBAL,"3W5G+JQP, Jl. Trans Sulawesi, Lembontonara, Kec. Mori Utara, Kabupaten Morowali Utara, Sulawesi Tengah 94965","Jl. Trans Sulawesi, Lembontonara, Kec. Mori Utara, Kabupaten Morowali Utara",SULAWESI TENGAH,94965.0,Indonesia,,,,-1.9409119,120.9269648,https://maps.google.com/?cid=0x0:0x6630878d65c622ec,
supermarket,Toko,toko alif,"2X3H+WPV, Jl. Trans Sulawesi, Tomata, Kec. Mori Atas, Kabupaten Morowali Utara, Sulawesi Tengah 94965","Jl. Trans Sulawesi, Tomata, Kec. Mori Atas, Kabupaten Morowali Utara",SULAWESI TENGAH,94965.0,Indonesia,,,,-1.9951259,120.9792858,https://maps.google.com/?cid=0x0:0xd1f1446151474777,
supermarket,Toko Ikan,Pangkalan Ikan S.B.T NARUTO,"2X4H+V53, Tomata, Kec. Mori Atas, Kabupaten Morowali, Sulawesi Tengah 94965","Tomata, Kec. Mori Atas, Kabupaten Morowali",SULAWESI TENGAH,94965.0,Indonesia, 082190993060,,,-1.9928568,120.9779355,https://maps.google.com/?cid=0x0:0x156ae30dddb87514,
supermarket,Pasar,Pasar Desa Ensa,"X3JC+R45, Ensa, Kec. Mori Atas, Kabupaten Morowali Utara, Sulawesi Tengah 94965","Ensa, Kec. Mori Atas, Kabupaten Morowali Utara",SULAWESI TENGAH,94965.0,Indonesia,,,,-2.0179937,121.0703618,https://maps.google.com/?cid=0x0:0x4ddad60d8d1ae6ec,
supermarket,Pusat Perbelanjaan,Toko Stamart,"Londi, Kec. Mori Atas, Kabupaten Morowali Utara, Sulawesi Tengah","Kabupaten Morowali Utara, Sulawesi Tengah",SULAWESI TENGAH,,Indonesia, 082292942849,,,-2.0041941,121.0014745,https://maps.google.com/?cid=0x0:0x8d3dcaa534584cc6,
supermarket,Toko,Kios Gerald,"2XFR+G5Q, Wawondula, Kec. Mori Utara, Kabupaten Morowali Utara, Sulawesi Tengah 94965","Wawondula, Kec. Mori Utara, Kabupaten Morowali Utara",SULAWESI TENGAH,94965.0,Indonesia,,,,-1.9761729,120.9905,https://maps.google.com/?cid=0x0:0x7730c31994c0774,
supermarket,Toko umum,Toko Merah Putih,"Taliwan, Wawondula, Kec. Mori Utara, Kabupaten Morowali Utara, Sulawesi Tengah 94965","Wawondula, Kec. Mori Utara, Kabupaten Morowali Utara",SULAWESI TENGAH,94965.0,Indonesia, 081343905905,,,-1.9698587,120.9830547,https://maps.google.com/?cid=0x0:0xa2dee59fbb12e62c,
supermarket,supermarket,Kios mama lisa,"3XGF+P5X, Mayumba, Kec. Mori Utara, Kabupaten Morowali Utara, Sulawesi Tengah","Kabupaten Morowali Utara, Sulawesi Tengah",SULAWESI TENGAH,,Indonesia,,,,-1.9238623,120.9720387,https://maps.google.com/?cid=0x0:0x4e7768aebe5c9e58,
supermarket,Toko Perlengkapan Rumah,Batam Plastik,"2X2J+6V3, Tomata, Kec. Mori Atas, Kabupaten Morowali Utara, Sulawesi Tengah 94965","Tomata, Kec. Mori Atas, Kabupaten Morowali Utara",SULAWESI TENGAH,94965.0,Indonesia, 085241337678,,,-1.9994785,120.982169,https://maps.google.com/?cid=0x0:0x12e63c0a3c37a75,
supermarket,Toko bahan makanan,Mitra Mart,"QJMF+M57, Jl. Trans Sulawesi, Sampeantaba, Kec. Wita Ponda, Kabupaten Morowali, Sulawesi Tengah 94976","Jl. Trans Sulawesi, Sampeantaba, Kec. Wita Ponda, Kabupaten Morowali",SULAWESI TENGAH,94976.0,Indonesia, 082194396847,,,-2.2158442,121.6229066,https://maps.google.com/?cid=0x0:0x1c80328d594a5702,
supermarket,supermarket,TOKO MITRA TANI,"Kolaka, Kec. Mori Atas, Kabupaten Morowali Utara, Sulawesi Tengah","Kabupaten Morowali Utara, Sulawesi Tengah",SULAWESI TENGAH,,Indonesia,,,,-2.0495471,121.1021279,https://maps.google.com/?cid=0x0:0x5dc689fa5228022c,
supermarket,supermarket,Kec. Mori Utara,"Kabupaten Morowali Utara, Sulawesi Tengah","Kabupaten Morowali Utara, Sulawesi Tengah",SULAWESI TENGAH,,Indonesia,,,,-1.8045656,121.03351,https://maps.google.com/?cid=0x0:0x714f058e61875b3d,
supermarket,supermarket,Sulawesi Tengah 94971,"Kabupaten Morowali, Sulawesi Tengah","Kabupaten Morowali, Sulawesi Tengah",SULAWESI TENGAH,,Indonesia,,,,-1.8683068,121.2168466,https://maps.google.com/?cid=0x0:0x200eae1003365f6b,
supermarket,Toko Swalayan,Toko Tomy,"X948+G8P, Unnamed Road, Bunta, Kec. Petasia, Kabupaten Morowali Utara, Sulawesi Tengah 94971","Unnamed Road, Bunta, Kec. Petasia, Kabupaten Morowali Utara",SULAWESI TENGAH,94971.0,Indonesia, 085299365921,,,-2.0436539,121.3658186,https://maps.google.com/?cid=0x0:0x713ce963dcac7df9,
supermarket,Toko Perlengkapan Rumah,KIOS INDAH,"287Q+8V6, Jl. Yos Sudarso, Kolonodale, Kec. Petasia, Kabupaten Morowali Utara, Sulawesi Tengah 94971","Jl. Yos Sudarso, Kolonodale, Kec. Petasia, Kabupaten Morowali Utara",SULAWESI TENGAH,94971.0,Indonesia,,,,-1.9867079,121.3396402,https://maps.google.com/?cid=0x0:0xcffe643f240a2db0,
supermarket,Toko umum,Royal Mart,"Jl. Trans Sulawesi Desa, Tompira, Kec. Petasia Timur, Kabupaten Morowali Utara, Sulawesi Tengah 94671","Tompira, Kec. Petasia Timur, Kabupaten Morowali Utara",SULAWESI TENGAH,94671.0,Indonesia, 082244379239,,,-2.0789256,121.3852177,https://maps.google.com/?cid=0x0:0xa344e5980376cb5f,
supermarket,Toko Swalayan,Toko Sehati,"284Q+MPJ, Jl. Tinumbu, Kolonodale, Kec. Petasia, Kabupaten Morowali Utara, Sulawesi Tengah 94971","Jl. Tinumbu, Kolonodale, Kec. Petasia, Kabupaten Morowali Utara",SULAWESI TENGAH,94971.0,Indonesia, 082192001691,,,-1.993283,121.3392781,https://maps.google.com/?cid=0x0:0x25a0ab8cd8e8fc36,
supermarket,Toko bahan makanan,Toko sinar fajar,"Jl. Trans Sulawesi, Tompira, Kec. Petasia Timur, Kabupaten Morowali Utara, Sulawesi Tengah 94971","Tompira, Kec. Petasia Timur, Kabupaten Morowali Utara",SULAWESI TENGAH,94971.0,Indonesia, 082345690669,,,-2.0738789,121.3914535,https://maps.google.com/?cid=0x0:0xd9eef6a1f6af7979,
supermarket,Toko,Toko Dua Putra,"W9JM+JPP, Tompira, Kec. Petasia, Kabupaten Morowali, Sulawesi Tengah 94971","Tompira, Kec. Petasia, Kabupaten Morowali",SULAWESI TENGAH,94971.0,Indonesia,,,,-2.068401,121.3843291,https://maps.google.com/?cid=0x0:0xb80aa412438f5284,
supermarket,Toko bahan makanan,TOKO HOKI,"Jl. Trans Sulawesi, Dusun 1, Towara, Kec. Petasia Timur, Kabupaten Morowali Utara, Sulawesi Tengah 94971","Dusun 1, Towara, Kec. Petasia Timur, Kabupaten Morowali Utara",SULAWESI TENGAH,94971.0,Indonesia, 085321009185,,,-2.0797065,121.451362,https://maps.google.com/?cid=0x0:0xbe4531cbb64d4bb3,
supermarket,Toko bahan makanan,Tampese Mart,"X84G+49V, Koromatantu, Kec. Petasia, Kabupaten Morowali, Sulawesi Tengah 94971","Koromatantu, Kec. Petasia, Kabupaten Morowali",SULAWESI TENGAH,94971.0,Indonesia, 082189464029,,,-2.0446271,121.3259143,https://maps.google.com/?cid=0x0:0x10ba52f694086db0,
supermarket,Kios,A3 Mart,"289Q+77W, Jl. Dr. Sahardjo, Bahoue, Kec. Petasia, Kabupaten Morowali Utara, Sulawesi Tengah 94971","Jl. Dr. Sahardjo, Bahoue, Kec. Petasia, Kabupaten Morowali Utara",SULAWESI TENGAH,94971.0,Indonesia, 085213480345,,,-1.981763,121.3382112,https://maps.google.com/?cid=0x0:0xfa37d086985d51a2,
supermarket,Toko bahan makanan,Toko Susan,"28GR+XC7, Unnamed Road, Bahoue, Kec. Petasia, Kabupaten Morowali Utara, Sulawesi Tengah 94971","Unnamed Road, Bahoue, Kec. Petasia, Kabupaten Morowali Utara",SULAWESI TENGAH,94971.0,Indonesia,,,,-1.9725853,121.3410464,https://maps.google.com/?cid=0x0:0x32786ec9ddd31bc9,
supermarket,Kantor Perusahaan,PT. TEKNIK PERSADA INDONESIA (CABANG MOROWALI),"Molino, Kec. Petasia Timur, Kabupaten Morowali Utara, Sulawesi Tengah 94971","Kec. Petasia Timur, Kabupaten Morowali Utara",SULAWESI TENGAH,94971.0,Indonesia, 082110924747,,,-2.1145084,121.4652379,https://maps.google.com/?cid=0x0:0x30715d15a6e7e74a,
supermarket,Toko Swalayan,Ananda Mart,"Jl. Yos Sudarso No.50, Kolonodale, Kec. Petasia, Kabupaten Morowali Utara, Sulawesi Tengah 94671","Kolonodale, Kec. Petasia, Kabupaten Morowali Utara",SULAWESI TENGAH,94671.0,Indonesia, 085211031224,,,-1.9863805,121.3394645,https://maps.google.com/?cid=0x0:0xa0bb31e54a99449f,
supermarket,Toko umum,Toko Salsabila,"W9HQ+GCX, Tompira, Kec. Petasia, Kabupaten Morowali Utara, Sulawesi Tengah 94971","Tompira, Kec. Petasia, Kabupaten Morowali Utara",SULAWESI TENGAH,94971.0,Indonesia, 082264740835,,,-2.0711301,121.3886033,https://maps.google.com/?cid=0x0:0x63dc704708bc30fc,
supermarket,Toko Swalayan,Toko Lany,"289Q+JGQ, Jl. Dr. Sahardjo, Bahoue, Kec. Petasia, Kabupaten Morowali Utara, Sulawesi Tengah 94971","Jl. Dr. Sahardjo, Bahoue, Kec. Petasia, Kabupaten Morowali Utara",SULAWESI TENGAH,94971.0,Indonesia,,,,-1.980916,121.3388747,https://maps.google.com/?cid=0x0:0x865f881054193cd0,
supermarket,Toko,Aneka Plastik Tompira,"Samping SPBU, Tompira, Kec. Petasia Timur, Kabupaten Morowali Utara, Sulawesi Tengah 94971","Tompira, Kec. Petasia Timur, Kabupaten Morowali Utara",SULAWESI TENGAH,94971.0,Indonesia, 081340556778,,,-2.0659397,121.4000681,https://maps.google.com/?cid=0x0:0x41291f58b2427b58,
supermarket,Minimarket,Toko IMMORTAL,"X8WM+J2X, Korololaki, Kec. Petasia, Kabupaten Morowali, Sulawesi Tengah","Kabupaten Morowali, Sulawesi Tengah",SULAWESI TENGAH,,Indonesia,,,,-2.0033875,121.3326094,https://maps.google.com/?cid=0x0:0x769c7a8feb0f7cc9,
supermarket,Minimarket,FIA Shop,"WF92+PR, Towara, Kec. Petasia Timur, Kabupaten Morowali, Sulawesi Tengah 94971","Towara, Kec. Petasia Timur, Kabupaten Morowali",SULAWESI TENGAH,94971.0,Indonesia,,,,-2.0806562,121.452018,https://maps.google.com/?cid=0x0:0x78e34c690d734554,
supermarket,Toko umum,Toko tri putri,"WF93+689, Bungintimbe, Kec. Petasia, Kabupaten Morowali Utara, Sulawesi Tengah 94971","Bungintimbe, Kec. Petasia, Kabupaten Morowali Utara",SULAWESI TENGAH,94971.0,Indonesia, 082292046178,,,-2.0819625,121.4533594,https://maps.google.com/?cid=0x0:0x705fcf7254d9f9fa,
supermarket,Toko Pakaian,FN MART,"Jl.rano, Tiu, Kec. Petasia Barat, Kabupaten Morowali Utara, Sulawesi Tengah 94964","Tiu, Kec. Petasia Barat, Kabupaten Morowali Utara",SULAWESI TENGAH,94964.0,Indonesia, 082330668142,,,-2.0110105,121.2935008,https://maps.google.com/?cid=0x0:0x18b76eb23dddb6af,
supermarket,Dapur Umum,Windi kios tompira,"W9JX+Q83, Tompira, Kec. Petasia Timur, Kabupaten Morowali, Sulawesi Tengah 94971","Tompira, Kec. Petasia Timur, Kabupaten Morowali",SULAWESI TENGAH,94971.0,Indonesia, 085295262005,,,-2.0681222,121.3982843,https://maps.google.com/?cid=0x0:0x8822602e546e947e,
supermarket,Toko Swalayan,Kios dan Kost syahirah,"W9V8+MRH, Bunta, Kec. Petasia, Kabupaten Morowali Utara, Sulawesi Tengah 94971","Bunta, Kec. Petasia, Kabupaten Morowali Utara",SULAWESI TENGAH,94971.0,Indonesia, 082293632283,,,-2.0558009,121.367096,https://maps.google.com/?cid=0x0:0x2d735fde8393fe21,
supermarket,Toko bahan makanan,Mitra Mart,"QJMF+M57, Jl. Trans Sulawesi, Sampeantaba, Kec. Wita Ponda, Kabupaten Morowali, Sulawesi Tengah 94976","Jl. Trans Sulawesi, Sampeantaba, Kec. Wita Ponda, Kabupaten Morowali",SULAWESI TENGAH,94976.0,Indonesia, 082194396847,,,-2.2158442,121.6229066,https://maps.google.com/?cid=0x0:0x1c80328d594a5702,
supermarket,Toko umum,Toko Tujuh Tujuh,"287Q+5RV, Jl. Yos Sudarso, Kolonodale, Kec. Petasia, Kabupaten Morowali Utara, Sulawesi Tengah 94971","Jl. Yos Sudarso, Kolonodale, Kec. Petasia, Kabupaten Morowali Utara",SULAWESI TENGAH,94971.0,Indonesia,,,,-1.9870154,121.3395449,https://maps.google.com/?cid=0x0:0x372d4297a3216209,
supermarket,Toko Swalayan,Kios Dan Kos-kosan MENGKILALA 1,"Bunta, Kec. Petasia Timur, Kabupaten Morowali Utara, Sulawesi Tengah 94971","Kec. Petasia Timur, Kabupaten Morowali Utara",SULAWESI TENGAH,94971.0,Indonesia, 08124449321,,,-2.0516814,121.3673357,https://maps.google.com/?cid=0x0:0x972b7cb1b9041429,
supermarket,supermarket,Toko Berkah Abadi Sembako,"WF65+P7, Towara, Kec. Petasia Timur, Kabupaten Morowali Utara, Sulawesi Tengah","Kabupaten Morowali Utara, Sulawesi Tengah",SULAWESI TENGAH,,Indonesia,,,,-2.088153,121.4582019,https://maps.google.com/?cid=0x0:0x9de4c5d8199655c8,
supermarket,Toko Fotokopi,Ciputra Jaya Fotocopy,"28FP+FF4, Bahoue, Kec. Petasia, Kabupaten Morowali Utara, Sulawesi Tengah 94971","Bahoue, Kec. Petasia, Kabupaten Morowali Utara",SULAWESI TENGAH,94971.0,Indonesia, 082380925264,,,-1.9763608,121.3361995,https://maps.google.com/?cid=0x0:0xd59db9dfee0e3030,
supermarket,supermarket,Kec. Petasia,"Kabupaten Morowali Utara, Sulawesi Tengah","Kabupaten Morowali Utara, Sulawesi Tengah",SULAWESI TENGAH,,Indonesia,,,,-2.1146417,121.5195993,https://maps.google.com/?cid=0x0:0xb7809558875ad34b,
supermarket,supermarket,MORINES FROZEN FOOD,"Molino, Kec. Petasia Timur, Kabupaten Morowali Utara, Sulawesi Tengah 94971","Kec. Petasia Timur, Kabupaten Morowali Utara",SULAWESI TENGAH,94971.0,Indonesia, 082290490014,,,-2.1176573,121.4673804,https://maps.google.com/?cid=0x0:0x9904204bd8a8d7b0,
supermarket,supermarket,Kec. Petasia Barat,"Kabupaten Morowali Utara, Sulawesi Tengah","Kabupaten Morowali Utara, Sulawesi Tengah",SULAWESI TENGAH,,Indonesia,,,,-2.0117169,121.2965127,https://maps.google.com/?cid=0x0:0xa1b3a15e083efa64,
supermarket,Toko Swalayan,Toko Tomy,"X948+G8P, Unnamed Road, Bunta, Kec. Petasia, Kabupaten Morowali Utara, Sulawesi Tengah 94971","Unnamed Road, Bunta, Kec. Petasia, Kabupaten Morowali Utara",SULAWESI TENGAH,94971.0,Indonesia, 085299365921,,,-2.0436539,121.3658186,https://maps.google.com/?cid=0x0:0x713ce963dcac7df9,
supermarket,Toko,Toko Dua Putra,"W9JM+JPP, Tompira, Kec. Petasia, Kabupaten Morowali, Sulawesi Tengah 94971","Tompira, Kec. Petasia, Kabupaten Morowali",SULAWESI TENGAH,94971.0,Indonesia,,,,-2.068401,121.3843291,https://maps.google.com/?cid=0x0:0xb80aa412438f5284,
supermarket,Toko bahan makanan,Kios Fermala,"X938+RC3, Bunta, Kec. Petasia, Kabupaten Morowali Utara, Sulawesi Tengah 94971","Bunta, Kec. Petasia, Kabupaten Morowali Utara",SULAWESI TENGAH,94971.0,Indonesia, 082217772657,,,-2.0454937,121.3660537,https://maps.google.com/?cid=0x0:0x846af6606bc382ae,
supermarket,Dapur Umum,Windi kios tompira,"W9JX+Q83, Tompira, Kec. Petasia Timur, Kabupaten Morowali, Sulawesi Tengah 94971","Tompira, Kec. Petasia Timur, Kabupaten Morowali",SULAWESI TENGAH,94971.0,Indonesia, 085295262005,,,-2.0681222,121.3982843,https://maps.google.com/?cid=0x0:0x8822602e546e947e,
supermarket,Toko,Kios Agung,"W99G+4HX, Tompira, Kec. Petasia, Kabupaten Morowali, Sulawesi Tengah 94971","Tompira, Kec. Petasia, Kabupaten Morowali",SULAWESI TENGAH,94971.0,Indonesia, 082259935646,,,-2.0821371,121.376472,https://maps.google.com/?cid=0x0:0x51b033d050169e6f,
supermarket,Toko Swalayan,Kios dan Kost syahirah,"W9V8+MRH, Bunta, Kec. Petasia, Kabupaten Morowali Utara, Sulawesi Tengah 94971","Bunta, Kec. Petasia, Kabupaten Morowali Utara",SULAWESI TENGAH,94971.0,Indonesia, 082293632283,,,-2.0558009,121.367096,https://maps.google.com/?cid=0x0:0x2d735fde8393fe21,
supermarket,Toko bahan makanan,Toko Susan,"28GR+XC7, Unnamed Road, Bahoue, Kec. Petasia, Kabupaten Morowali Utara, Sulawesi Tengah 94971","Unnamed Road, Bahoue, Kec. Petasia, Kabupaten Morowali Utara",SULAWESI TENGAH,94971.0,Indonesia,,,,-1.9725853,121.3410464,https://maps.google.com/?cid=0x0:0x32786ec9ddd31bc9,
supermarket,Toko Swalayan,Toko Sehati,"284Q+MPJ, Jl. Tinumbu, Kolonodale, Kec. Petasia, Kabupaten Morowali Utara, Sulawesi Tengah 94971","Jl. Tinumbu, Kolonodale, Kec. Petasia, Kabupaten Morowali Utara",SULAWESI TENGAH,94971.0,Indonesia, 082192001691,,,-1.993283,121.3392781,https://maps.google.com/?cid=0x0:0x25a0ab8cd8e8fc36,
supermarket,Toko umum,Toko Tujuh Tujuh,"287Q+5RV, Jl. Yos Sudarso, Kolonodale, Kec. Petasia, Kabupaten Morowali Utara, Sulawesi Tengah 94971","Jl. Yos Sudarso, Kolonodale, Kec. Petasia, Kabupaten Morowali Utara",SULAWESI TENGAH,94971.0,Indonesia,,,,-1.9870154,121.3395449,https://maps.google.com/?cid=0x0:0x372d4297a3216209,
supermarket,Toko bahan makanan,Toko sinar fajar,"Jl. Trans Sulawesi, Tompira, Kec. Petasia Timur, Kabupaten Morowali Utara, Sulawesi Tengah 94971","Tompira, Kec. Petasia Timur, Kabupaten Morowali Utara",SULAWESI TENGAH,94971.0,Indonesia, 082345690669,,,-2.0738789,121.3914535,https://maps.google.com/?cid=0x0:0xd9eef6a1f6af7979,
supermarket,Toko Swalayan,Toko Lany,"289Q+JGQ, Jl. Dr. Sahardjo, Bahoue, Kec. Petasia, Kabupaten Morowali Utara, Sulawesi Tengah 94971","Jl. Dr. Sahardjo, Bahoue, Kec. Petasia, Kabupaten Morowali Utara",SULAWESI TENGAH,94971.0,Indonesia,,,,-1.980916,121.3388747,https://maps.google.com/?cid=0x0:0x865f881054193cd0,
supermarket,Kios,Kios Sinar November,"X7MW+R24, Tiu, Kec. Petasia Barat, Kabupaten Morowali Utara, Sulawesi Tengah 94971","Tiu, Kec. Petasia Barat, Kabupaten Morowali Utara",SULAWESI TENGAH,94971.0,Indonesia, 081215308222,,,-2.0154755,121.2950643,https://maps.google.com/?cid=0x0:0x796c28e5b63e3c00,
supermarket,Toko Swalayan,Ananda Mart,"Jl. Yos Sudarso No.50, Kolonodale, Kec. Petasia, Kabupaten Morowali Utara, Sulawesi Tengah 94671","Kolonodale, Kec. Petasia, Kabupaten Morowali Utara",SULAWESI TENGAH,94671.0,Indonesia, 085211031224,,,-1.9863805,121.3394645,https://maps.google.com/?cid=0x0:0xa0bb31e54a99449f,
supermarket,Toko Fotokopi,Ciputra Jaya Fotocopy,"28FP+FF4, Bahoue, Kec. Petasia, Kabupaten Morowali Utara, Sulawesi Tengah 94971","Bahoue, Kec. Petasia, Kabupaten Morowali Utara",SULAWESI TENGAH,94971.0,Indonesia, 082380925264,,,-1.9763608,121.3361995,https://maps.google.com/?cid=0x0:0xd59db9dfee0e3030,
supermarket,Toko bahan makanan,RShop Frozen Food,"Jl.trans, Tompira, Kec. Petasia Timur, Kabupaten Morowali Utara, Sulawesi Tengah 94971","Tompira, Kec. Petasia Timur, Kabupaten Morowali Utara",SULAWESI TENGAH,94971.0,Indonesia, 085241147691,,,-2.0642743,121.3781015,https://maps.google.com/?cid=0x0:0x4bba139d35460981,
supermarket,Minimarket,TOKO ASRI MAHID,"X7PW+H4P, Unnamed Road, Tiu, Kec. Petasia, Kabupaten Morowali Utara, Sulawesi Tengah 94971","Unnamed Road, Tiu, Kec. Petasia, Kabupaten Morowali Utara",SULAWESI TENGAH,94971.0,Indonesia,,,,-2.0135465,121.29532,https://maps.google.com/?cid=0x0:0x51659112f1a15995,
supermarket,Kios,A3 Mart,"289Q+77W, Jl. Dr. Sahardjo, Bahoue, Kec. Petasia, Kabupaten Morowali Utara, Sulawesi Tengah 94971","Jl. Dr. Sahardjo, Bahoue, Kec. Petasia, Kabupaten Morowali Utara",SULAWESI TENGAH,94971.0,Indonesia, 085213480345,,,-1.981763,121.3382112,https://maps.google.com/?cid=0x0:0xfa37d086985d51a2,
supermarket,Toko umum,Kios ibrahim,"W953+GFX, Beteleme - Tompira, Korowou, Kec. Lembo, Kabupaten Morowali Utara, Sulawesi Tengah 94971","Beteleme - Tompira, Korowou, Kec. Lembo, Kabupaten Morowali Utara",SULAWESI TENGAH,94971.0,Indonesia, 082393279826,,,-2.0911433,121.3537463,https://maps.google.com/?cid=0x0:0x34c1734f5384a8e6,
supermarket,Toko sembako pemerintah,KIOS WAHYU LUTRA,"Bunta, Kec. Petasia Timur, Kabupaten Morowali Utara, Sulawesi Tengah 94971","Kec. Petasia Timur, Kabupaten Morowali Utara",SULAWESI TENGAH,94971.0,Indonesia, 082283919132,,,-2.0553382,121.3669274,https://maps.google.com/?cid=0x0:0x3fa0f7d30a60785a,
supermarket,Toko bahan makanan,Tampese Mart,"X84G+49V, Koromatantu, Kec. Petasia, Kabupaten Morowali, Sulawesi Tengah 94971","Koromatantu, Kec. Petasia, Kabupaten Morowali",SULAWESI TENGAH,94971.0,Indonesia, 082189464029,,,-2.0446271,121.3259143,https://maps.google.com/?cid=0x0:0x10ba52f694086db0,
supermarket,Toko Swalayan,Kios Dan Kos-kosan MENGKILALA 1,"Bunta, Kec. Petasia Timur, Kabupaten Morowali Utara, Sulawesi Tengah 94971","Kec. Petasia Timur, Kabupaten Morowali Utara",SULAWESI TENGAH,94971.0,Indonesia, 08124449321,,,-2.0516814,121.3673357,https://maps.google.com/?cid=0x0:0x972b7cb1b9041429,
supermarket,Toko Swalayan,Rapa Abadi,"W974+VG5, Korowou, Kec. Lembo, Kabupaten Morowali, Sulawesi Tengah 94971","Korowou, Kec. Lembo, Kabupaten Morowali",SULAWESI TENGAH,94971.0,Indonesia, 082292040998,,,-2.0853682,121.3563562,https://maps.google.com/?cid=0x0:0x329fbf472cc4c097,
supermarket,Toko Alat Tulis Kantor,Toko Dutama Jaya ATK,"28CP+6JJ, Bahoue, Kec. Petasia, Kabupaten Morowali Utara, Sulawesi Tengah 94971","Bahoue, Kec. Petasia, Kabupaten Morowali Utara",SULAWESI TENGAH,94971.0,Indonesia, 082259972832,,,-1.9794167,121.3365207,https://maps.google.com/?cid=0x0:0xccc198e06569eb1f,
supermarket,Toko Pertanian,Kios SEKAR TANI,"X8MR+C3P, Jl. Lkr. Luar Kolonodale, Korololama, Kec. Petasia, Kabupaten Morowali Utara, Sulawesi Tengah 94971","Jl. Lkr. Luar Kolonodale, Korololama, Kec. Petasia, Kabupaten Morowali Utara",SULAWESI TENGAH,94971.0,Indonesia,,,,-2.01637,121.3401341,https://maps.google.com/?cid=0x0:0x482fe7e0ac467cd7,
supermarket,Toko umum,Toko Salsabila,"W9HQ+GCX, Tompira, Kec. Petasia, Kabupaten Morowali Utara, Sulawesi Tengah 94971","Tompira, Kec. Petasia, Kabupaten Morowali Utara",SULAWESI TENGAH,94971.0,Indonesia, 082264740835,,,-2.0711301,121.3886033,https://maps.google.com/?cid=0x0:0x63dc704708bc30fc,
supermarket,supermarket,Kec. Petasia Timur,"Kabupaten Morowali Utara, Sulawesi Tengah","Kabupaten Morowali Utara, Sulawesi Tengah",SULAWESI TENGAH,,Indonesia,,,,-2.116671,121.4659893,https://maps.google.com/?cid=0x0:0xd22775cddb1fcbf7,
supermarket,Toko Swalayan,Toko Tomy,"X948+G8P, Unnamed Road, Bunta, Kec. Petasia, Kabupaten Morowali Utara, Sulawesi Tengah 94971","Unnamed Road, Bunta, Kec. Petasia, Kabupaten Morowali Utara",SULAWESI TENGAH,94971.0,Indonesia, 085299365921,,,-2.0436539,121.3658186,https://maps.google.com/?cid=0x0:0x713ce963dcac7df9,
supermarket,Toko umum,Royal Mart,"Jl. Trans Sulawesi Desa, Tompira, Kec. Petasia Timur, Kabupaten Morowali Utara, Sulawesi Tengah 94671","Tompira, Kec. Petasia Timur, Kabupaten Morowali Utara",SULAWESI TENGAH,94671.0,Indonesia, 082244379239,,,-2.0789256,121.3852177,https://maps.google.com/?cid=0x0:0xa344e5980376cb5f,
supermarket,Toko bahan makanan,SIDRAP MART,"WCGQ+86G, Jl. Trans Sulawesi, Bungintimbe, Kec. Petasia, Kabupaten Morowali Utara, Sulawesi Tengah 94971","Jl. Trans Sulawesi, Bungintimbe, Kec. Petasia, Kabupaten Morowali Utara",SULAWESI TENGAH,94971.0,Indonesia,,,,-2.0741952,121.4380636,https://maps.google.com/?cid=0x0:0xe1458c01f32493fc,
supermarket,Toko,Toko Dua Putra,"W9JM+JPP, Tompira, Kec. Petasia, Kabupaten Morowali, Sulawesi Tengah 94971","Tompira, Kec. Petasia, Kabupaten Morowali",SULAWESI TENGAH,94971.0,Indonesia,,,,-2.068401,121.3843291,https://maps.google.com/?cid=0x0:0xb80aa412438f5284,
supermarket,Dapur Umum,Windi kios tompira,"W9JX+Q83, Tompira, Kec. Petasia Timur, Kabupaten Morowali, Sulawesi Tengah 94971","Tompira, Kec. Petasia Timur, Kabupaten Morowali",SULAWESI TENGAH,94971.0,Indonesia, 085295262005,,,-2.0681222,121.3982843,https://maps.google.com/?cid=0x0:0x8822602e546e947e,
supermarket,Toko,TokoMasagena,"XF54+XR3, Bungintimbe, Kec. Petasia Timur, Kabupaten Morowali Utara, Sulawesi Tengah","Kabupaten Morowali Utara, Sulawesi Tengah",SULAWESI TENGAH,,Indonesia, 085259515987,,,-2.0401227,121.4570447,https://maps.google.com/?cid=0x0:0x833f17592ee06740,
supermarket,supermarket,MORINES FROZEN FOOD,"Molino, Kec. Petasia Timur, Kabupaten Morowali Utara, Sulawesi Tengah 94971","Kec. Petasia Timur, Kabupaten Morowali Utara",SULAWESI TENGAH,94971.0,Indonesia, 082290490014,,,-2.1176573,121.4673804,https://maps.google.com/?cid=0x0:0x9904204bd8a8d7b0,
supermarket,Toko umum,Toko Nurmi,"RGQ2+96W, Molores, Kec. Petasia, Kabupaten Morowali, Sulawesi Tengah 94971","Molores, Kec. Petasia, Kabupaten Morowali",SULAWESI TENGAH,94971.0,Indonesia, 082259655055,,,-2.1615032,121.5005717,https://maps.google.com/?cid=0x0:0x5488758d3089007a,
supermarket,Toko bahan makanan,Kios Fermala,"X938+RC3, Bunta, Kec. Petasia, Kabupaten Morowali Utara, Sulawesi Tengah 94971","Bunta, Kec. Petasia, Kabupaten Morowali Utara",SULAWESI TENGAH,94971.0,Indonesia, 082217772657,,,-2.0454937,121.3660537,https://maps.google.com/?cid=0x0:0x846af6606bc382ae,
supermarket,Toko bahan makanan,TOKO HOKI,"Jl. Trans Sulawesi, Dusun 1, Towara, Kec. Petasia Timur, Kabupaten Morowali Utara, Sulawesi Tengah 94971","Dusun 1, Towara, Kec. Petasia Timur, Kabupaten Morowali Utara",SULAWESI TENGAH,94971.0,Indonesia, 085321009185,,,-2.0797065,121.451362,https://maps.google.com/?cid=0x0:0xbe4531cbb64d4bb3,
supermarket,Minimarket,FIA Shop,"WF92+PR, Towara, Kec. Petasia Timur, Kabupaten Morowali, Sulawesi Tengah 94971","Towara, Kec. Petasia Timur, Kabupaten Morowali",SULAWESI TENGAH,94971.0,Indonesia,,,,-2.0806562,121.452018,https://maps.google.com/?cid=0x0:0x78e34c690d734554,
supermarket,Toko,Kios Agung,"W99G+4HX, Tompira, Kec. Petasia, Kabupaten Morowali, Sulawesi Tengah 94971","Tompira, Kec. Petasia, Kabupaten Morowali",SULAWESI TENGAH,94971.0,Indonesia, 082259935646,,,-2.0821371,121.376472,https://maps.google.com/?cid=0x0:0x51b033d050169e6f,
supermarket,Toko Swalayan,Kios dan Kost syahirah,"W9V8+MRH, Bunta, Kec. Petasia, Kabupaten Morowali Utara, Sulawesi Tengah 94971","Bunta, Kec. Petasia, Kabupaten Morowali Utara",SULAWESI TENGAH,94971.0,Indonesia, 082293632283,,,-2.0558009,121.367096,https://maps.google.com/?cid=0x0:0x2d735fde8393fe21,
supermarket,Toko bahan makanan,RATU MART,"WCFM+QGW, Jl. Trans Sulawesi, Bungintimbe, Kec. Petasia, Kabupaten Morowali Utara, Sulawesi Tengah 94971","Jl. Trans Sulawesi, Bungintimbe, Kec. Petasia, Kabupaten Morowali Utara",SULAWESI TENGAH,94971.0,Indonesia,,,,-2.0755076,121.4338252,https://maps.google.com/?cid=0x0:0x551d474d86efeac4,
supermarket,Toko bahan makanan,RShop Frozen Food,"Jl.trans, Tompira, Kec. Petasia Timur, Kabupaten Morowali Utara, Sulawesi Tengah 94971","Tompira, Kec. Petasia Timur, Kabupaten Morowali Utara",SULAWESI TENGAH,94971.0,Indonesia, 085241147691,,,-2.0642743,121.3781015,https://maps.google.com/?cid=0x0:0x4bba139d35460981,
supermarket,Toko Swalayan,Kios Dan Kos-kosan MENGKILALA 1,"Bunta, Kec. Petasia Timur, Kabupaten Morowali Utara, Sulawesi Tengah 94971","Kec. Petasia Timur, Kabupaten Morowali Utara",SULAWESI TENGAH,94971.0,Indonesia, 08124449321,,,-2.0516814,121.3673357,https://maps.google.com/?cid=0x0:0x972b7cb1b9041429,
supermarket,Toko sembako pemerintah,KIOS WAHYU LUTRA,"Bunta, Kec. Petasia Timur, Kabupaten Morowali Utara, Sulawesi Tengah 94971","Kec. Petasia Timur, Kabupaten Morowali Utara",SULAWESI TENGAH,94971.0,Indonesia, 082283919132,,,-2.0553382,121.3669274,https://maps.google.com/?cid=0x0:0x3fa0f7d30a60785a,
supermarket,Toko umum,Kios Diana,"Jl. Trans Sulawesi, Solonsa, Kec. Wita Ponda, Kabupaten Morowali, Sulawesi Tengah 94976","Solonsa, Kec. Wita Ponda, Kabupaten Morowali",SULAWESI TENGAH,94976.0,Indonesia,,,,-2.1840466,121.5337329,https://maps.google.com/?cid=0x0:0x92f64078493ba5ac,
supermarket,,Toko Angriani,"WCGR+H45, Jl. Trans Sulawesi, Bungintimbe, Kec. Petasia, Kabupaten Morowali, Sulawesi Tengah 94971","Jl. Trans Sulawesi, Bungintimbe, Kec. Petasia, Kabupaten Morowali",SULAWESI TENGAH,94971.0,Indonesia,,,,-2.07361,121.4403565,https://maps.google.com/?cid=0x0:0x539860b64be515fa,
supermarket,Toko umum,Kios ibrahim,"W953+GFX, Beteleme - Tompira, Korowou, Kec. Lembo, Kabupaten Morowali Utara, Sulawesi Tengah 94971","Beteleme - Tompira, Korowou, Kec. Lembo, Kabupaten Morowali Utara",SULAWESI TENGAH,94971.0,Indonesia, 082393279826,,,-2.0911433,121.3537463,https://maps.google.com/?cid=0x0:0x34c1734f5384a8e6,
supermarket,Toko Swalayan,Rapa Abadi,"W974+VG5, Korowou, Kec. Lembo, Kabupaten Morowali, Sulawesi Tengah 94971","Korowou, Kec. Lembo, Kabupaten Morowali",SULAWESI TENGAH,94971.0,Indonesia, 082292040998,,,-2.0853682,121.3563562,https://maps.google.com/?cid=0x0:0x329fbf472cc4c097,
supermarket,Kantor Perusahaan,PT. TEKNIK PERSADA INDONESIA (CABANG MOROWALI),"Molino, Kec. Petasia Timur, Kabupaten Morowali Utara, Sulawesi Tengah 94971","Kec. Petasia Timur, Kabupaten Morowali Utara",SULAWESI TENGAH,94971.0,Indonesia, 082110924747,,,-2.1145084,121.4652379,https://maps.google.com/?cid=0x0:0x30715d15a6e7e74a,
supermarket,Toko bahan makanan,Mitra Mart,"QJMF+M57, Jl. Trans Sulawesi, Sampeantaba, Kec. Wita Ponda, Kabupaten Morowali, Sulawesi Tengah 94976","Jl. Trans Sulawesi, Sampeantaba, Kec. Wita Ponda, Kabupaten Morowali",SULAWESI TENGAH,94976.0,Indonesia, 082194396847,,,-2.2158442,121.6229066,https://maps.google.com/?cid=0x0:0x1c80328d594a5702,
supermarket,supermarket,Toko Berkah Abadi Sembako,"WF65+P7, Towara, Kec. Petasia Timur, Kabupaten Morowali Utara, Sulawesi Tengah","Kabupaten Morowali Utara, Sulawesi Tengah",SULAWESI TENGAH,,Indonesia,,,,-2.088153,121.4582019,https://maps.google.com/?cid=0x0:0x9de4c5d8199655c8,
supermarket,Toko Perlengkapan Rumah,KIOS INDAH,"287Q+8V6, Jl. Yos Sudarso, Kolonodale, Kec. Petasia, Kabupaten Morowali Utara, Sulawesi Tengah 94971","Jl. Yos Sudarso, Kolonodale, Kec. Petasia, Kabupaten Morowali Utara",SULAWESI TENGAH,94971.0,Indonesia,,,,-1.9867079,121.3396402,https://maps.google.com/?cid=0x0:0xcffe643f240a2db0,
supermarket,Toko bahan makanan,Tampese Mart,"X84G+49V, Koromatantu, Kec. Petasia, Kabupaten Morowali, Sulawesi Tengah 94971","Koromatantu, Kec. Petasia, Kabupaten Morowali",SULAWESI TENGAH,94971.0,Indonesia, 082189464029,,,-2.0446271,121.3259143,https://maps.google.com/?cid=0x0:0x10ba52f694086db0,
supermarket,Toko umum,Tokoh Subur,"RG5Q+5M5, Solonsa Jaya, Kec. Wita Ponda, Kabupaten Morowali, Sulawesi Tengah 94976","Solonsa Jaya, Kec. Wita Ponda, Kabupaten Morowali",SULAWESI TENGAH,94976.0,Indonesia,,,,-2.1921196,121.5392224,https://maps.google.com/?cid=0x0:0x9a741a864bec1586,
supermarket,Toko Swalayan,Toko Sehati,"284Q+MPJ, Jl. Tinumbu, Kolonodale, Kec. Petasia, Kabupaten Morowali Utara, Sulawesi Tengah 94971","Jl. Tinumbu, Kolonodale, Kec. Petasia, Kabupaten Morowali Utara",SULAWESI TENGAH,94971.0,Indonesia, 082192001691,,,-1.993283,121.3392781,https://maps.google.com/?cid=0x0:0x25a0ab8cd8e8fc36,
supermarket,supermarket,Sulawesi Tengah 94971,"Kabupaten Morowali, Sulawesi Tengah","Kabupaten Morowali, Sulawesi Tengah",SULAWESI TENGAH,,Indonesia,,,,-1.8683068,121.2168466,https://maps.google.com/?cid=0x0:0x200eae1003365f6b,
supermarket,Pusat Perbelanjaan,Pasar Sentral Soyo Jaya Desa Lembah Sumara,"77FX+59, Lembah Sumara, Kec. Soyo Jaya, Kabupaten Morowali, Sulawesi Tengah 94971","Lembah Sumara, Kec. Soyo Jaya, Kabupaten Morowali",SULAWESI TENGAH,94971.0,Indonesia,,,,-1.727034,121.29848,https://maps.google.com/?cid=0x0:0xf63b437f2c243705,
supermarket,Toko Fotokopi,Ciputra Jaya Fotocopy,"28FP+FF4, Bahoue, Kec. Petasia, Kabupaten Morowali Utara, Sulawesi Tengah 94971","Bahoue, Kec. Petasia, Kabupaten Morowali Utara",SULAWESI TENGAH,94971.0,Indonesia, 082380925264,,,-1.9763608,121.3361995,https://maps.google.com/?cid=0x0:0xd59db9dfee0e3030,
supermarket,Toko,KIOS INAL,"843Q+HMF, Panca Makmur, Kec. Soyo Jaya, Kabupaten Morowali, Sulawesi Tengah","Kabupaten Morowali, Sulawesi Tengah",SULAWESI TENGAH,,Indonesia, 082259669379,,,-1.6960613,121.1391709,https://maps.google.com/?cid=0x0:0xda65405acaa6161,
supermarket,Toko bahan makanan,Toko sinar fajar,"Jl. Trans Sulawesi, Tompira, Kec. Petasia Timur, Kabupaten Morowali Utara, Sulawesi Tengah 94971","Tompira, Kec. Petasia Timur, Kabupaten Morowali Utara",SULAWESI TENGAH,94971.0,Indonesia, 082345690669,,,-2.0738789,121.3914535,https://maps.google.com/?cid=0x0:0xd9eef6a1f6af7979,
supermarket,Toko Swalayan,Toko Sehati,"284Q+MPJ, Jl. Tinumbu, Kolonodale, Kec. Petasia, Kabupaten Morowali Utara, Sulawesi Tengah 94971","Jl. Tinumbu, Kolonodale, Kec. Petasia, Kabupaten Morowali Utara",SULAWESI TENGAH,94971.0,Indonesia, 082192001691,,,-1.993283,121.3392781,https://maps.google.com/?cid=0x0:0x25a0ab8cd8e8fc36,
supermarket,Toko,Toko Dua Putra,"W9JM+JPP, Tompira, Kec. Petasia, Kabupaten Morowali, Sulawesi Tengah 94971","Tompira, Kec. Petasia, Kabupaten Morowali",SULAWESI TENGAH,94971.0,Indonesia,,,,-2.068401,121.3843291,https://maps.google.com/?cid=0x0:0xb80aa412438f5284,
supermarket,Toko bahan makanan,Toko Susan,"28GR+XC7, Unnamed Road, Bahoue, Kec. Petasia, Kabupaten Morowali Utara, Sulawesi Tengah 94971","Unnamed Road, Bahoue, Kec. Petasia, Kabupaten Morowali Utara",SULAWESI TENGAH,94971.0,Indonesia,,,,-1.9725853,121.3410464,https://maps.google.com/?cid=0x0:0x32786ec9ddd31bc9,
supermarket,Toko Swalayan,Toko Lany,"289Q+JGQ, Jl. Dr. Sahardjo, Bahoue, Kec. Petasia, Kabupaten Morowali Utara, Sulawesi Tengah 94971","Jl. Dr. Sahardjo, Bahoue, Kec. Petasia, Kabupaten Morowali Utara",SULAWESI TENGAH,94971.0,Indonesia,,,,-1.980916,121.3388747,https://maps.google.com/?cid=0x0:0x865f881054193cd0,
supermarket,Toko Swalayan,Ananda Mart,"Jl. Yos Sudarso No.50, Kolonodale, Kec. Petasia, Kabupaten Morowali Utara, Sulawesi Tengah 94671","Kolonodale, Kec. Petasia, Kabupaten Morowali Utara",SULAWESI TENGAH,94671.0,Indonesia, 085211031224,,,-1.9863805,121.3394645,https://maps.google.com/?cid=0x0:0xa0bb31e54a99449f,
supermarket,Toko umum,Toko Tujuh Tujuh,"287Q+5RV, Jl. Yos Sudarso, Kolonodale, Kec. Petasia, Kabupaten Morowali Utara, Sulawesi Tengah 94971","Jl. Yos Sudarso, Kolonodale, Kec. Petasia, Kabupaten Morowali Utara",SULAWESI TENGAH,94971.0,Indonesia,,,,-1.9870154,121.3395449,https://maps.google.com/?cid=0x0:0x372d4297a3216209,
supermarket,Toko umum,Toko Nurmi,"RGQ2+96W, Molores, Kec. Petasia, Kabupaten Morowali, Sulawesi Tengah 94971","Molores, Kec. Petasia, Kabupaten Morowali",SULAWESI TENGAH,94971.0,Indonesia, 082259655055,,,-2.1615032,121.5005717,https://maps.google.com/?cid=0x0:0x5488758d3089007a,
supermarket,Toko Perlengkapan Rumah,KIOS INDAH,"287Q+8V6, Jl. Yos Sudarso, Kolonodale, Kec. Petasia, Kabupaten Morowali Utara, Sulawesi Tengah 94971","Jl. Yos Sudarso, Kolonodale, Kec. Petasia, Kabupaten Morowali Utara",SULAWESI TENGAH,94971.0,Indonesia,,,,-1.9867079,121.3396402,https://maps.google.com/?cid=0x0:0xcffe643f240a2db0,
supermarket,Toko Alat Tulis Kantor,Toko Dutama Jaya ATK,"28CP+6JJ, Bahoue, Kec. Petasia, Kabupaten Morowali Utara, Sulawesi Tengah 94971","Bahoue, Kec. Petasia, Kabupaten Morowali Utara",SULAWESI TENGAH,94971.0,Indonesia, 082259972832,,,-1.9794167,121.3365207,https://maps.google.com/?cid=0x0:0xccc198e06569eb1f,
supermarket,Toko Swalayan,Kios dan Kost syahirah,"W9V8+MRH, Bunta, Kec. Petasia, Kabupaten Morowali Utara, Sulawesi Tengah 94971","Bunta, Kec. Petasia, Kabupaten Morowali Utara",SULAWESI TENGAH,94971.0,Indonesia, 082293632283,,,-2.0558009,121.367096,https://maps.google.com/?cid=0x0:0x2d735fde8393fe21,
supermarket,Toko bahan makanan,SIDRAP MART,"WCGQ+86G, Jl. Trans Sulawesi, Bungintimbe, Kec. Petasia, Kabupaten Morowali Utara, Sulawesi Tengah 94971","Jl. Trans Sulawesi, Bungintimbe, Kec. Petasia, Kabupaten Morowali Utara",SULAWESI TENGAH,94971.0,Indonesia,,,,-2.0741952,121.4380636,https://maps.google.com/?cid=0x0:0xe1458c01f32493fc,
supermarket,Toko umum,Royal Mart,"Jl. Trans Sulawesi Desa, Tompira, Kec. Petasia Timur, Kabupaten Morowali Utara, Sulawesi Tengah 94671","Tompira, Kec. Petasia Timur, Kabupaten Morowali Utara",SULAWESI TENGAH,94671.0,Indonesia, 082244379239,,,-2.0789256,121.3852177,https://maps.google.com/?cid=0x0:0xa344e5980376cb5f,
supermarket,Dapur Umum,Windi kios tompira,"W9JX+Q83, Tompira, Kec. Petasia Timur, Kabupaten Morowali, Sulawesi Tengah 94971","Tompira, Kec. Petasia Timur, Kabupaten Morowali",SULAWESI TENGAH,94971.0,Indonesia, 085295262005,,,-2.0681222,121.3982843,https://maps.google.com/?cid=0x0:0x8822602e546e947e,
supermarket,Toko bahan makanan,Toko Jaya Mandiri,"RGH8+RFP, Jl. Trans Sulawesi, Solonsa, Kec. Wita Ponda, Kabupaten Morowali, Sulawesi Tengah 94976","Jl. Trans Sulawesi, Solonsa, Kec. Wita Ponda, Kabupaten Morowali",SULAWESI TENGAH,94976.0,Indonesia, 085240741000,,,-2.1704145,121.5161975,https://maps.google.com/?cid=0x0:0x77783a14cac1b843,
supermarket,Toko bahan makanan,Kios Fermala,"X938+RC3, Bunta, Kec. Petasia, Kabupaten Morowali Utara, Sulawesi Tengah 94971","Bunta, Kec. Petasia, Kabupaten Morowali Utara",SULAWESI TENGAH,94971.0,Indonesia, 082217772657,,,-2.0454937,121.3660537,https://maps.google.com/?cid=0x0:0x846af6606bc382ae,
supermarket,Minimarket,FIA Shop,"WF92+PR, Towara, Kec. Petasia Timur, Kabupaten Morowali, Sulawesi Tengah 94971","Towara, Kec. Petasia Timur, Kabupaten Morowali",SULAWESI TENGAH,94971.0,Indonesia,,,,-2.0806562,121.452018,https://maps.google.com/?cid=0x0:0x78e34c690d734554,
supermarket,Toko umum,Kios ibrahim,"W953+GFX, Beteleme - Tompira, Korowou, Kec. Lembo, Kabupaten Morowali Utara, Sulawesi Tengah 94971","Beteleme - Tompira, Korowou, Kec. Lembo, Kabupaten Morowali Utara",SULAWESI TENGAH,94971.0,Indonesia, 082393279826,,,-2.0911433,121.3537463,https://maps.google.com/?cid=0x0:0x34c1734f5384a8e6,
supermarket,Toko bahan makanan,RShop Frozen Food,"Jl.trans, Tompira, Kec. Petasia Timur, Kabupaten Morowali Utara, Sulawesi Tengah 94971","Tompira, Kec. Petasia Timur, Kabupaten Morowali Utara",SULAWESI TENGAH,94971.0,Indonesia, 085241147691,,,-2.0642743,121.3781015,https://maps.google.com/?cid=0x0:0x4bba139d35460981,
