Category,Real Category,Business Name,Address,City,State,Postal Code,Country,Phone,Email,Website,Latitude,Longitude,Map Link,Details Link
komplek housing,komplek housing,Sulawesi Tengah 94972,"Kabupaten Morowali Utara, Sulawesi Tengah","Kabupaten Morowali Utara, Sulawesi Tengah",SULAWESI TENGAH,,Indonesia,,,,-1.6248083,121.7195459,https://maps.google.com/?cid=0x0:0xe9e478f27d681886,
komplek housing,Pembangunan Perumahan,"Sulteng, morowali utara, petasia timur poranda, bungintimbe","HC9W+59H, Taronggo, Kec. Bungku Utara, Kabupaten Morowali Utara, Sulawesi Tengah","Kabupaten Morowali Utara, Sulawesi Tengah",SULAWESI TENGAH,,Indonesia, 082171124485,,,-1.4320653,121.4459985,https://maps.google.com/?cid=0x0:0xd66516c8e4a80915,
komplek housing,Komplek perumahan,Lemo,"8Q93+2FH, Lemo, Kec. Bungku Utara, Kabupaten Morowali, Sulawesi Tengah 94972","Lemo, Kec. Bungku Utara, Kabupaten Morowali",SULAWESI TENGAH,94972.0,Indonesia,,,,-1.6824256,121.7537404,https://maps.google.com/?cid=0x0:0x39a90714a2aa0067,
komplek housing,Komplek perumahan,Tempat ba kendu¬≤,"HC9W+X6Q, Taronggo, Kec. Bungku Utara, Kabupaten Morowali Utara, Sulawesi Tengah","Kabupaten Morowali Utara, Sulawesi Tengah",SULAWESI TENGAH,,Indonesia,,,,-1.4300254,121.4456179,https://maps.google.com/?cid=0x0:0xa8f7a8c8ae27000f,
komplek housing,Komplek perumahan,rumah anca,"7RC4+2FG, Siliti, Kec. Bungku Utara, Kabupaten Morowali Utara, Sulawesi Tengah 94972","Siliti, Kec. Bungku Utara, Kabupaten Morowali Utara",SULAWESI TENGAH,94972.0,Indonesia,,,,-1.7298263,121.8067828,https://maps.google.com/?cid=0x0:0x75aa65c8456f4282,
komplek housing,Perhimpunan Pengembang Perumahan,Home indi,"HC9W+X6Q, Taronggo, Kec. Bungku Utara, Kabupaten Morowali Utara, Sulawesi Tengah","Kabupaten Morowali Utara, Sulawesi Tengah",SULAWESI TENGAH,,Indonesia,,,,-1.4300254,121.4456179,https://maps.google.com/?cid=0x0:0x5c042c18186b74d1,
komplek housing,Komplek perumahan,Aqsa Home,"Jln Tinumbu No.Rt 02, Dusun Ini, Siliti, Kec. Bungku Utara, Kabupaten Morowali Utara, Sulawesi Tengah 94972","Dusun Ini, Siliti, Kec. Bungku Utara, Kabupaten Morowali Utara",SULAWESI TENGAH,94972.0,Indonesia,,,,-1.7285542,121.8074229,https://maps.google.com/?cid=0x0:0xe7b688dec4a4f6b6,
komplek housing,Komplek perumahan,Lorong,"7Q55+F75, Tirongan Atas, Kec. Bungku Utara, Kabupaten Morowali Utara, Sulawesi Tengah","Kabupaten Morowali Utara, Sulawesi Tengah",SULAWESI TENGAH,,Indonesia,,,,-1.7416905,121.7575755,https://maps.google.com/?cid=0x0:0x5fdef3c09719ec61,
komplek housing,Komplek perumahan,Pondok mulia jaya,"9993+GMF, Matube, Kec. Bungku Utara, Kabupaten Morowali Utara, Sulawesi Tengah","Kabupaten Morowali Utara, Sulawesi Tengah",SULAWESI TENGAH,,Indonesia,,,,-1.6311761,121.3541631,https://maps.google.com/?cid=0x0:0x3e14ffc9902ebe03,
komplek housing,Komplek perumahan,Hanga Hanga,"HC9W+X6Q, Taronggo, Kec. Bungku Utara, Kabupaten Morowali Utara, Sulawesi Tengah","Kabupaten Morowali Utara, Sulawesi Tengah",SULAWESI TENGAH,,Indonesia,,,,-1.4300254,121.4456179,https://maps.google.com/?cid=0x0:0xb98df470084a28a2,
komplek housing,Komplek perumahan,Wainci bau bau,"HC9W+X6Q, Taronggo, Kec. Bungku Utara, Kabupaten Morowali Utara, Sulawesi Tengah","Kabupaten Morowali Utara, Sulawesi Tengah",SULAWESI TENGAH,,Indonesia,,,,-1.4300254,121.4456179,https://maps.google.com/?cid=0x0:0x24b84236bf4f0965,
komplek housing,Komplek perumahan,kabinuang,"HC9W+X6Q, Taronggo, Kec. Bungku Utara, Kabupaten Morowali Utara, Sulawesi Tengah","Kabupaten Morowali Utara, Sulawesi Tengah",SULAWESI TENGAH,,Indonesia,,,,-1.4300254,121.4456179,https://maps.google.com/?cid=0x0:0x868e9a4909bf35ae,
komplek housing,komplek housing,Gendhis Kodal,"9993+GMF, Lorong Sehati, Desa Korolama, Kec. Bungku Utara, Kabupaten Morowali Utara, Sulawesi Tengah","Kabupaten Morowali Utara, Sulawesi Tengah",SULAWESI TENGAH,,Indonesia,,,,-1.6311761,121.3541631,https://maps.google.com/?cid=0x0:0xd9e69ced0e0ee558,
komplek housing,Komplek perumahan,Bunta,"HC9W+X6Q, Taronggo, Kec. Bungku Utara, Kabupaten Morowali Utara, Sulawesi Tengah","Kabupaten Morowali Utara, Sulawesi Tengah",SULAWESI TENGAH,,Indonesia,,,,-1.4300254,121.4456179,https://maps.google.com/?cid=0x0:0xd7942c665bcdfcc0,
komplek housing,Komplek perumahan,SEKDES UEWAJO (ABD. HAFID),"6Q8Q+FXV, Uewajo, Kec. Bungku Utara, Kabupaten Morowali Utara, Sulawesi Tengah 94972","Uewajo, Kec. Bungku Utara, Kabupaten Morowali Utara",SULAWESI TENGAH,94972.0,Indonesia,,,,-1.7842677,121.7904501,https://maps.google.com/?cid=0x0:0x93bd69d6bd071f6,
komplek housing,Komplek perumahan,Napu desa biau,"HC9W+X6Q, Taronggo, Kec. Bungku Utara, Kabupaten Morowali Utara, Sulawesi Tengah","Kabupaten Morowali Utara, Sulawesi Tengah",SULAWESI TENGAH,,Indonesia,,,,-1.4300254,121.4456179,https://maps.google.com/?cid=0x0:0x504affc8123d7460,
komplek housing,komplek housing,Watusongu,"HC9W+X6Q, Taronggo, Kec. Bungku Utara, Kabupaten Morowali Utara, Sulawesi Tengah","Kabupaten Morowali Utara, Sulawesi Tengah",SULAWESI TENGAH,,Indonesia,,,,-1.4300254,121.4456179,https://maps.google.com/?cid=0x0:0x8f91955b2cbe16cd,
komplek housing,komplek housing,Rumah murtia,"HC9W+X6Q, Jalan trans tirtasari, Taronggo, Kec. Bungku Utara, Kabupaten Morowali Utara, Sulawesi Tengah","Kabupaten Morowali Utara, Sulawesi Tengah",SULAWESI TENGAH,,Indonesia,,,,-1.4300254,121.4456179,https://maps.google.com/?cid=0x0:0xb2cf40a3d9cce86b,
komplek housing,,Waldi,"6Q8R+P49, Uewajo, Kec. Bungku Utara, Kabupaten Morowali Utara, Sulawesi Tengah 94972","Uewajo, Kec. Bungku Utara, Kabupaten Morowali Utara",SULAWESI TENGAH,94972.0,Indonesia,,,,-1.7832036,121.7903594,https://maps.google.com/?cid=0x0:0xf69b2e2a37212ade,
komplek housing,Perhimpunan Pengembang Perumahan,Sambulangan,"HC9W+X6Q, Taronggo, Kec. Bungku Utara, Kabupaten Morowali Utara, Sulawesi Tengah","Kabupaten Morowali Utara, Sulawesi Tengah",SULAWESI TENGAH,,Indonesia,,,,-1.4300254,121.4456179,https://maps.google.com/?cid=0x0:0x9948025d7e91c9f7,
komplek housing,komplek housing,Kec. Bungku Utara,"Kabupaten Morowali Utara, Sulawesi Tengah","Kabupaten Morowali Utara, Sulawesi Tengah",SULAWESI TENGAH,,Indonesia,,,,-1.6279979,121.5370003,https://maps.google.com/?cid=0x0:0x23a4d8f0d31b4ae7,
komplek housing,Komplek perumahan,Rumah Ece Baturube,"6QMV+MF6, Tirongan Bawah, Kec. Bungku Utara, Kabupaten Morowali Utara, Sulawesi Tengah 94972","Tirongan Bawah, Kec. Bungku Utara, Kabupaten Morowali Utara",SULAWESI TENGAH,94972.0,Indonesia,,,,-1.7658297,121.7936379,https://maps.google.com/?cid=0x0:0xf8acc6d4651f59f3,
komplek housing,Toko umum,ùòíùò™ùò∞ùò¥ ùòôùò™ùò¨ùò©ùò¢,"6PQX+86F, Woomparigi, Kec. Bungku Utara, Kabupaten Morowali Utara, Sulawesi Tengah 94972","Woomparigi, Kec. Bungku Utara, Kabupaten Morowali Utara",SULAWESI TENGAH,94972.0,Indonesia,,,,-1.7616882,121.748042,https://maps.google.com/?cid=0x0:0xabf462c07dadd84e,
komplek housing,Komplek perumahan,Rumah Marta,"7QG8+54H, Opo, Kec. Bungku Utara, Kabupaten Morowali Utara, Sulawesi Tengah 94972","Opo, Kec. Bungku Utara, Kabupaten Morowali Utara",SULAWESI TENGAH,94972.0,Indonesia,,,,-1.7245659,121.7653745,https://maps.google.com/?cid=0x0:0x4f6a7cc8f2774914,
komplek housing,Gereja Kristen,Rumah Pastori GKST Petra Baturube,"6QHV+8GR, Baturube, Kec. Bungku Utara, Kabupaten Morowali Utara, Sulawesi Tengah 94972","Baturube, Kec. Bungku Utara, Kabupaten Morowali Utara",SULAWESI TENGAH,94972.0,Indonesia,,,,-1.7716535,121.7939101,https://maps.google.com/?cid=0x0:0x7bc80a24e8cf1d30,
komplek housing,Komplek perumahan,Rumah Alim,"6QPV+6WM, Tirongan Bawah, Kec. Bungku Utara, Kabupaten Morowali Utara, Sulawesi Tengah 94972","Tirongan Bawah, Kec. Bungku Utara, Kabupaten Morowali Utara",SULAWESI TENGAH,94972.0,Indonesia,,,,-1.7644014,121.7947944,https://maps.google.com/?cid=0x0:0x408834cdf7aede50,
komplek housing,Komplek perumahan,Rumah Pak Aminudin,"7Q98+R6P, Tanaku Raya, Kec. Bungku Utara, Kabupaten Morowali Utara, Sulawesi Tengah 94972","Tanaku Raya, Kec. Bungku Utara, Kabupaten Morowali Utara",SULAWESI TENGAH,94972.0,Indonesia,,,,-1.72939,121.7653625,https://maps.google.com/?cid=0x0:0x1e7949f015424af1,
komplek housing,Perhimpunan Pengembang Perumahan,Rumah Wabup Morut,"9W2H+P9X, Giri Mulya, Kec. Mamosalato, Kabupaten Morowali Utara, Sulawesi Tengah 94972","Giri Mulya, Kec. Mamosalato, Kabupaten Morowali Utara",SULAWESI TENGAH,94972.0,Indonesia,,,,-1.6478343,121.9287717,https://maps.google.com/?cid=0x0:0x9c600378c09679fa,
komplek housing,Komplek perumahan,Perumahan BTN Bahoruru,"Fat Residence Blok B No. 8, Bahoruru, Kec. Bungku Tengah, Kabupaten Morowali, Sulawesi Tengah","Kabupaten Morowali, Sulawesi Tengah",SULAWESI TENGAH,,Indonesia,,,,-2.5215709,121.9488189,https://maps.google.com/?cid=0x0:0xfb7d8742f2f6e14d,
komplek housing,komplek housing,Sulawesi Tenggara 93352,"Kabupaten Konawe Utara, Sulawesi Tenggara","Kabupaten Konawe Utara, Sulawesi Tenggara",SULAWESI TENGAH,,Indonesia,,,,-3.7041573,122.2427,https://maps.google.com/?cid=0x0:0x888ae8f2fa8ed5e8,
komplek housing,komplek housing,Kec. Lembo,"Wawopada, Kabupaten Morowali Utara, Sulawesi Tengah","Kabupaten Morowali Utara, Sulawesi Tengah",SULAWESI TENGAH,,Indonesia,,,,-2.1606442,121.2127322,https://maps.google.com/?cid=0x0:0x4030bfbcaf78100,
komplek housing,komplek housing,Sulawesi Tengah,,Sulawesi Tengah,SULAWESI TENGAH,,Indonesia,,,,-1.4300254,121.4456179,https://maps.google.com/?cid=0x0:0x436e33fd8cdb6299,
komplek housing,Kantor Pemerintah,Kepala Puskesmas Lembo,"866Q+9WQ, Andeo, Kec. Lasolo, Kabupaten Konawe Utara, Sulawesi Tenggara 93352","Andeo, Kec. Lasolo, Kabupaten Konawe Utara",SULAWESI TENGAH,93352.0,Indonesia,,,,-3.6890327,122.2398636,https://maps.google.com/?cid=0x0:0x4b0300eab653f288,
komplek housing,Komplek perumahan,Home armis,"Jl. Poros Bungku Sel. - Kendari No.27, Padaleu, Kec. Lembo, Kabupaten Konawe Utara, Sulawesi Tenggara 93352","Padaleu, Kec. Lembo, Kabupaten Konawe Utara",SULAWESI TENGAH,93352.0,Indonesia,,,,-3.7509346,122.3327077,https://maps.google.com/?cid=0x0:0x8087b0d577a0b319,
komplek housing,Komplek perumahan,Athar house,"68WR+JRV, Pasir Putih, Kec. Lembo, Kabupaten Konawe Utara, Sulawesi Tenggara 93352","Pasir Putih, Kec. Lembo, Kabupaten Konawe Utara",SULAWESI TENGAH,93352.0,Indonesia,,,,-3.7533847,122.3420561,https://maps.google.com/?cid=0x0:0xce6f8c4729dad64c,
komplek housing,Komplek perumahan,Home laugi,"782J+72J, Jl. Poros Bungku Sel. - Kendari, Puulemo, Kec. Lembo, Kabupaten Konawe Utara, Sulawesi Tenggara 93352","Jl. Poros Bungku Sel. - Kendari, Puulemo, Kec. Lembo, Kabupaten Konawe Utara",SULAWESI TENGAH,93352.0,Indonesia,,,,-3.7498559,122.3312298,https://maps.google.com/?cid=0x0:0xdd4689e5a287deff,
komplek housing,Komplek perumahan,Rumah padin,"68QR+XRQ, Lembo, Kec. Lembo, Kabupaten Konawe Utara, Sulawesi Tenggara 93352","Lembo, Kec. Lembo, Kabupaten Konawe Utara",SULAWESI TENGAH,93352.0,Indonesia,,,,-3.7603975,122.3421692,https://maps.google.com/?cid=0x0:0xf2494106f4576152,
komplek housing,Komplek perumahan,Rumah Indira,"68C5+W53, Padaleu, Kec. Lembo, Kabupaten Konawe Utara, Sulawesi Tenggara 93352","Padaleu, Kec. Lembo, Kabupaten Konawe Utara",SULAWESI TENGAH,93352.0,Indonesia,,,,-3.7777259,122.307917,https://maps.google.com/?cid=0x0:0x51295aac06f8d2db,
komplek housing,Komplek perumahan,Rumah Iroko,"Podomoro Golf View Cluster Iroko B07/15, Exit Tol Cimanggis Jagorawi Toll Rd No.KM 19, Gunung Putri, Bogor Regency","Kabupaten Bogor, Jawa Barat",SULAWESI TENGAH,,Indonesia,,,,-6.4317909,106.8906819,https://maps.google.com/?cid=0x0:0x653a33fcb7036efe,
komplek housing,Komplek perumahan,Rumah Jatiasih,"Blok D3 No. 3, RT.004/RW.009, Jatiluhur, Jatiasih, Bekasi, West Java 17425","RT.004/RW.009, Jatiluhur, Jatiasih, Bekasi",SULAWESI TENGAH,17425.0,Indonesia,,,,-6.3118438,106.9491785,https://maps.google.com/?cid=0x0:0x9233d98647117e65,
komplek housing,komplek housing,Komplek Housing,"Blok Bojong Nangka I, Jl. Ring Rudal Blok Bojong Nangka I No.68, RT.001/RW.007, Jatirahayu, Kec. Pd. Melati, Kota Bks, Jawa Barat 17414","Jl. Ring Rudal Blok Bojong Nangka I No.68, RT.001/RW.007, Jatirahayu, Kec. Pd. Melati, Kota Bks",SULAWESI TENGAH,17414.0,Indonesia,,,,-6.293724,106.9165114,https://maps.google.com/?cid=0x0:0x9c50464976dee674,
komplek housing,komplek housing,Jalur 6,"R8GX+J94, Pontango'a, Kec. Lembo, Kabupaten Morowali, Sulawesi Tengah","Kabupaten Morowali, Sulawesi Tengah",SULAWESI TENGAH,,Indonesia,,,,-2.1734872,121.3484448,https://maps.google.com/?cid=0x0:0x3b6d0130e1e6f96c,
komplek housing,Komplek perumahan,Rumah Gian,"R6FV+6RQ, Lembobaru, Kec. Lembo, Kabupaten Morowali Utara, Sulawesi Tengah 94966","Lembobaru, Kec. Lembo, Kabupaten Morowali Utara",SULAWESI TENGAH,94966.0,Indonesia,,,,-2.1764364,121.2442676,https://maps.google.com/?cid=0x0:0xee883c75a2d6f8c8,
komplek housing,Komplek perumahan,Kalembiro's Home Sweet Home,"R6FW+3W4, Lembobaru, Kec. Lembo, Kabupaten Morowali Utara, Sulawesi Tengah 94966","Lembobaru, Kec. Lembo, Kabupaten Morowali Utara",SULAWESI TENGAH,94966.0,Indonesia, 082292244017,,,-2.1773541,121.2473145,https://maps.google.com/?cid=0x0:0xda996a9885930ae6,
komplek housing,Pembangunan Perumahan,Hana's Home,"V65W+P88, Tingkea'o, Kec. Lembo, Kabupaten Morowali Utara, Sulawesi Tengah 94966","Tingkea'o, Kec. Lembo, Kabupaten Morowali Utara",SULAWESI TENGAH,94966.0,Indonesia,,,,-2.14003,121.245717,https://maps.google.com/?cid=0x0:0xf09cfef72400dec1,
komplek housing,komplek housing,Sky'house,"R6HW+J92, Korobonde, Kec. Lembo, Kabupaten Morowali Utara, Sulawesi Tengah 94966","Korobonde, Kec. Lembo, Kabupaten Morowali Utara",SULAWESI TENGAH,94966.0,Indonesia,,,,-2.1709848,121.2458653,https://maps.google.com/?cid=0x0:0x960e18d3164a55dc,
komplek housing,Komplek perumahan,rumah geral,"R6FW+5J8, Lembobaru, Kec. Lembo, Kabupaten Morowali Utara, Sulawesi Tengah 94966","Lembobaru, Kec. Lembo, Kabupaten Morowali Utara",SULAWESI TENGAH,94966.0,Indonesia,,,,-2.177084,121.2465897,https://maps.google.com/?cid=0x0:0x365162ff74694ee6,
komplek housing,Komplek perumahan,Rmh Kel.mogimpe-tanggulemba,"R6HW+RV7, Korobonde, Kec. Lembo, Kabupaten Morowali Utara, Sulawesi Tengah 94966","Korobonde, Kec. Lembo, Kabupaten Morowali Utara",SULAWESI TENGAH,94966.0,Indonesia,,,,-2.1704637,121.2471701,https://maps.google.com/?cid=0x0:0xe62f8aa013d6a393,
komplek housing,Komplek perumahan,Home rusni,"R6GX+R3H, Korobonde, Kec. Lembo, Kabupaten Morowali Utara, Sulawesi Tengah 94966","Korobonde, Kec. Lembo, Kabupaten Morowali Utara",SULAWESI TENGAH,94966.0,Indonesia, 085242692249,,,-2.1729386,121.2477213,https://maps.google.com/?cid=0x0:0xd6892d38d8623f3c,
komplek housing,Pembangunan Perumahan,Novita purwanti cell,"R7M2+3W9, Korobonde, Kec. Lembo, Kabupaten Morowali Utara, Sulawesi Tengah 94966","Korobonde, Kec. Lembo, Kabupaten Morowali Utara",SULAWESI TENGAH,94966.0,Indonesia, 081244934087,,,-2.1673432,121.2523464,https://maps.google.com/?cid=0x0:0xd1332574a5eb076e,
komplek housing,Komplek perumahan,Rumah Risal Mbawo'o,"R7M3+XJF, Dusun 4, Korobonde, Kec. Lembo, Kabupaten Morowali Utara, Sulawesi Tengah 94966","Dusun 4, Korobonde, Kec. Lembo, Kabupaten Morowali Utara",SULAWESI TENGAH,94966.0,Indonesia,,,,-2.1650715,121.2540523,https://maps.google.com/?cid=0x0:0xa01c7673b837a78,
komplek housing,Komplek perumahan,rumah Rifqi,"R7M2+3W9, Korobonde, Kec. Lembo, Kabupaten Morowali Utara, Sulawesi Tengah 94966","Korobonde, Kec. Lembo, Kabupaten Morowali Utara",SULAWESI TENGAH,94966.0,Indonesia,,,,-2.1672762,121.251706,https://maps.google.com/?cid=0x0:0xd6e3171474389434,
komplek housing,Kantor Pemerintah,Desa Lembobelala,"Q6MP+55M, Lembobelala, Kec. Lembo Raya, Kabupaten Morowali Utara, Sulawesi Tengah 94966","Lembobelala, Kec. Lembo Raya, Kabupaten Morowali Utara",SULAWESI TENGAH,94966.0,Indonesia,,,,-2.2170443,121.2354156,https://maps.google.com/?cid=0x0:0xcc3929f78c6ad000,
komplek housing,Komplek perumahan,Dewi Rhmwti,"R7H3+HJJ, Korobonde, Kec. Lembo, Kabupaten Morowali Utara, Sulawesi Tengah 94966","Korobonde, Kec. Lembo, Kabupaten Morowali Utara",SULAWESI TENGAH,94966.0,Indonesia,,,,-2.1710321,121.2540135,https://maps.google.com/?cid=0x0:0xed75ed73b48a381e,
komplek housing,Pembibitan Tanaman,"Penjual kelapa tua, muda","R7J3+9JX, Korobonde, Kec. Lembo, Kabupaten Morowali Utara, Sulawesi Tengah 94966","Korobonde, Kec. Lembo, Kabupaten Morowali Utara",SULAWESI TENGAH,94966.0,Indonesia,,,,-2.1690492,121.2541072,https://maps.google.com/?cid=0x0:0xcd7c5242364746eb,
komplek housing,Komplek perumahan,IREN WENGKU,"R6R8+3RX, Wawopada, Kec. Lembo, Kabupaten Morowali Utara, Sulawesi Tengah 94966","Wawopada, Kec. Lembo, Kabupaten Morowali Utara",SULAWESI TENGAH,94966.0,Indonesia,,,,-2.1597536,121.2171018,https://maps.google.com/?cid=0x0:0xaf565f338d0d001,
komplek housing,Komplek perumahan,Iwan Mandesa,"R6P6+W6F, Unnamed Road, Wawopada, Kec. Lembo, Kabupaten Morowali Utara, Sulawesi Tengah 94966","Unnamed Road, Wawopada, Kec. Lembo, Kabupaten Morowali Utara",SULAWESI TENGAH,94966.0,Indonesia,,,,-2.1626975,121.2105562,https://maps.google.com/?cid=0x0:0x3ded5f350382fdf2,
komplek housing,Perhimpunan Pengembang Perumahan,alang arb,"WM54+277, Kb. Cau, Kec. Teluknaga, Kabupaten Tangerang, Banten","Kabupaten Tangerang, Banten",SULAWESI TENGAH,,Indonesia,,,,-6.0924676,106.6556626,https://maps.google.com/?cid=0x0:0xadd0dde44b12086d,
komplek housing,komplek housing,Komplek Housing,"Blok Bojong Nangka I, Jl. Ring Rudal Blok Bojong Nangka I No.68, RT.001/RW.007, Jatirahayu, Kec. Pd. Melati, Kota Bks, Jawa Barat 17414","Jl. Ring Rudal Blok Bojong Nangka I No.68, RT.001/RW.007, Jatirahayu, Kec. Pd. Melati, Kota Bks",SULAWESI TENGAH,17414.0,Indonesia,,,,-6.293724,106.9165114,https://maps.google.com/?cid=0x0:0x9c50464976dee674,
komplek housing,komplek housing,Sulawesi Tengah 94966,"Kec. Lembo, Kabupaten Morowali Utara, Sulawesi Tengah","Kabupaten Morowali Utara, Sulawesi Tengah",SULAWESI TENGAH,,Indonesia,,,,-2.206204,121.2168466,https://maps.google.com/?cid=0x0:0x31ea9a5f1875191f,
komplek housing,Komplek perumahan,ROMA Home,"V72G+4V6, Beteleme, Kec. Lembo, Kabupaten Morowali Utara, Sulawesi Tengah 94966","Beteleme, Kec. Lembo, Kabupaten Morowali Utara",SULAWESI TENGAH,94966.0,Indonesia, 082199992771,,,-2.150581,121.277079,https://maps.google.com/?cid=0x0:0xdcbae82ff47f1ba9,
komplek housing,komplek housing,Ecie‚Äôs House,"R6R5+7X, Wawopada, Kec. Lembo, Kabupaten Morowali Utara, Sulawesi Tengah","Kabupaten Morowali Utara, Sulawesi Tengah",SULAWESI TENGAH,,Indonesia,,,,-2.1592906,121.2099219,https://maps.google.com/?cid=0x0:0xc8deb1374bdf8d1f,
komplek housing,Komplek perumahan,Kalembiro's Home Sweet Home,"R6FW+3W4, Lembobaru, Kec. Lembo, Kabupaten Morowali Utara, Sulawesi Tengah 94966","Lembobaru, Kec. Lembo, Kabupaten Morowali Utara",SULAWESI TENGAH,94966.0,Indonesia, 082292244017,,,-2.1773541,121.2473145,https://maps.google.com/?cid=0x0:0xda996a9885930ae6,
komplek housing,Komplek perumahan,Lembobaru,"R6FW+HV8, Lembobaru, Kec. Lembo, Kabupaten Morowali, Sulawesi Tengah 94966","Lembobaru, Kec. Lembo, Kabupaten Morowali",SULAWESI TENGAH,94966.0,Indonesia,,,,-2.1760883,121.2472137,https://maps.google.com/?cid=0x0:0xb53f4038e7cbca14,
komplek housing,komplek housing,Sky'house,"R6HW+J92, Korobonde, Kec. Lembo, Kabupaten Morowali Utara, Sulawesi Tengah 94966","Korobonde, Kec. Lembo, Kabupaten Morowali Utara",SULAWESI TENGAH,94966.0,Indonesia,,,,-2.1709848,121.2458653,https://maps.google.com/?cid=0x0:0x960e18d3164a55dc,
komplek housing,Komplek perumahan,Lorong Ue Tolesa,"V7CP+FJ4, Tinompo, Kec. Lembo, Kabupaten Morowali Utara, Sulawesi Tengah","Kabupaten Morowali Utara, Sulawesi Tengah",SULAWESI TENGAH,,Indonesia,,,,-2.1288669,121.2865772,https://maps.google.com/?cid=0x0:0xa7a95e43b4f4469e,
komplek housing,Pembangunan Perumahan,Hana's Home,"V65W+P88, Tingkea'o, Kec. Lembo, Kabupaten Morowali Utara, Sulawesi Tengah 94966","Tingkea'o, Kec. Lembo, Kabupaten Morowali Utara",SULAWESI TENGAH,94966.0,Indonesia,,,,-2.14003,121.245717,https://maps.google.com/?cid=0x0:0xf09cfef72400dec1,
komplek housing,Komplek perumahan,rumah geral,"R6FW+5J8, Lembobaru, Kec. Lembo, Kabupaten Morowali Utara, Sulawesi Tengah 94966","Lembobaru, Kec. Lembo, Kabupaten Morowali Utara",SULAWESI TENGAH,94966.0,Indonesia,,,,-2.177084,121.2465897,https://maps.google.com/?cid=0x0:0x365162ff74694ee6,
komplek housing,Komplek perumahan,Rumah Kel.Hingkua-Tosubu,"V78M+FFJ, Tinompo, Kec. Lembo, Kabupaten Morowali Utara, Sulawesi Tengah 94966","Tinompo, Kec. Lembo, Kabupaten Morowali Utara",SULAWESI TENGAH,94966.0,Indonesia,,,,-2.1340838,121.2835982,https://maps.google.com/?cid=0x0:0x3c622607a0ff407d,
komplek housing,Komplek perumahan,Nadia HM,"V75M+94M, Beteleme, Kec. Lembo, Kabupaten Morowali Utara, Sulawesi Tengah 94966","Beteleme, Kec. Lembo, Kabupaten Morowali Utara",SULAWESI TENGAH,94966.0,Indonesia,,,,-2.1415264,121.2828109,https://maps.google.com/?cid=0x0:0x51e2d743bbcfa03,
komplek housing,Komplek perumahan,Home Inong,"V73J+W94, Beteleme, Kec. Lembo, Kabupaten Morowali Utara, Sulawesi Tengah 94966","Beteleme, Kec. Lembo, Kabupaten Morowali Utara",SULAWESI TENGAH,94966.0,Indonesia,,,,-2.1452468,121.2809523,https://maps.google.com/?cid=0x0:0x8449d862047ee3b8,
komplek housing,Komplek perumahan,"Kel, randalongi,pede. Hambuako randalongi","R835+3R, Petumbea, Kec. Lembo Raya, Kabupaten Morowali, Sulawesi Tengah","Kabupaten Morowali, Sulawesi Tengah",SULAWESI TENGAH,,Indonesia,,,,-2.1968927,121.3096998,https://maps.google.com/?cid=0x0:0xcb82d4bd01999a50,
komplek housing,Komplek perumahan,Rumah Om Deltar,"Petumbea, Kec. Lembo Raya, Kabupaten Morowali, Sulawesi Tengah 94966","Kec. Lembo Raya, Kabupaten Morowali",SULAWESI TENGAH,94966.0,Indonesia, 082293919116,,,-2.201206,121.3104366,https://maps.google.com/?cid=0x0:0xdb5c6d474cd87190,
komplek housing,Komplek perumahan,Achox rahmat home,"depan ruko haji usman, Kompleks pasar baru, Beteleme, Kec. Lembo, Kabupaten Morowali Utara, Sulawesi Tengah","Kabupaten Morowali Utara, Sulawesi Tengah",SULAWESI TENGAH,,Indonesia,,,,-2.1398418,121.2891964,https://maps.google.com/?cid=0x0:0x9a218fadc2ca47e,
komplek housing,Pembangunan Perumahan,HOME STAY ARBONG,"R7FM+4P, Pa'awaru, Kec. Lembo Raya, Kabupaten Morowali Utara, Sulawesi Tengah","Kabupaten Morowali Utara, Sulawesi Tengah",SULAWESI TENGAH,,Indonesia,,,,-2.1771342,121.2842945,https://maps.google.com/?cid=0x0:0xe6edc40814a09aa3,
komplek housing,Komplek perumahan,Rumah  Kost Iche Hambuako,"V78M+4F5, Tinompo, Kec. Lembo, Kabupaten Morowali Utara, Sulawesi Tengah 94966","Tinompo, Kec. Lembo, Kabupaten Morowali Utara",SULAWESI TENGAH,94966.0,Indonesia,,,,-2.1347362,121.2837336,https://maps.google.com/?cid=0x0:0x72c99963b5c836fe,
komplek housing,Pembangunan Perumahan,Rumah dasar arrayan,"R72P+9Q6, Jamor Jaya, Kec. Lembo Raya, Kabupaten Morowali Utara, Sulawesi Tengah","Kabupaten Morowali Utara, Sulawesi Tengah",SULAWESI TENGAH,,Indonesia,,,,-2.1990848,121.2868802,https://maps.google.com/?cid=0x0:0x19f097d5369f00c8,
komplek housing,Perhimpunan Pengembang Perumahan,Rumah,"V65W+M85, Tingkea'o, Kec. Lembo, Kabupaten Morowali Utara, Sulawesi Tengah","Kabupaten Morowali Utara, Sulawesi Tengah",SULAWESI TENGAH,,Indonesia,,,,-2.141512,121.245932,https://maps.google.com/?cid=0x0:0xa9be76ba084e5f18,
komplek housing,Komplek perumahan,Rumah onal,"Q8J4+C67, Petumbea, Kec. Lembo Raya, Kabupaten Morowali Utara, Sulawesi Tengah 94966","Petumbea, Kec. Lembo Raya, Kabupaten Morowali Utara",SULAWESI TENGAH,94966.0,Indonesia,,,,-2.2189703,121.3055486,https://maps.google.com/?cid=0x0:0x2e2fe375b2efd175,
komplek housing,komplek housing,Kec. Lembo Raya,"Kabupaten Morowali Utara, Sulawesi Tengah","Kabupaten Morowali Utara, Sulawesi Tengah",SULAWESI TENGAH,,Indonesia,,,,-2.1924426,121.3166642,https://maps.google.com/?cid=0x0:0x1a1cf142d855fe15,
komplek housing,Komplek perumahan,Rmh Kel.mogimpe-tanggulemba,"R6HW+RV7, Korobonde, Kec. Lembo, Kabupaten Morowali Utara, Sulawesi Tengah 94966","Korobonde, Kec. Lembo, Kabupaten Morowali Utara",SULAWESI TENGAH,94966.0,Indonesia,,,,-2.1704637,121.2471701,https://maps.google.com/?cid=0x0:0xe62f8aa013d6a393,
komplek housing,Komplek perumahan,Rumah Kristo Mbayowo,"Q8HF+3HF, Ronta, Kec. Lembo, Kabupaten Morowali Utara, Sulawesi Tengah 94966","Ronta, Kec. Lembo, Kabupaten Morowali Utara",SULAWESI TENGAH,94966.0,Indonesia,,,,-2.222293,121.323915,https://maps.google.com/?cid=0x0:0x93383985b2696af7,
komplek housing,Komplek perumahan,Rumah LIDYA dan ENDI,"V72G+PJP, Beteleme, Kec. Lembo, Kabupaten Morowali Utara, Sulawesi Tengah 94966","Beteleme, Kec. Lembo, Kabupaten Morowali Utara",SULAWESI TENGAH,94966.0,Indonesia,,,,-2.1481199,121.2766618,https://maps.google.com/?cid=0x0:0x7f9dce292071524c,
komplek housing,Komplek perumahan,Rumah Ekky Labulu,"V77P+F9J, Lorong Garuda, Tinompo, Kec. Lembo, Kabupaten Morowali Utara, Sulawesi Tengah 94966","Lorong Garuda, Tinompo, Kec. Lembo, Kabupaten Morowali Utara",SULAWESI TENGAH,94966.0,Indonesia,,,,-2.13629,121.2858774,https://maps.google.com/?cid=0x0:0xd4de463f392ef209,
komplek housing,Komplek perumahan,Home rusni,"R6GX+R3H, Korobonde, Kec. Lembo, Kabupaten Morowali Utara, Sulawesi Tengah 94966","Korobonde, Kec. Lembo, Kabupaten Morowali Utara",SULAWESI TENGAH,94966.0,Indonesia, 085242692249,,,-2.1729386,121.2477213,https://maps.google.com/?cid=0x0:0xd6892d38d8623f3c,
komplek housing,Komplek perumahan,Rumah Kristo Mbayowo,"Q8J4+C67, Petumbea, Kec. Lembo Raya, Kabupaten Morowali Utara, Sulawesi Tengah 94966","Petumbea, Kec. Lembo Raya, Kabupaten Morowali Utara",SULAWESI TENGAH,94966.0,Indonesia,,,,-2.2189703,121.3055486,https://maps.google.com/?cid=0x0:0x59f1a5075fb7e707,
komplek housing,Komplek perumahan,Rumah Ocang,"R7WC+G97, Beteleme, Kec. Lembo, Kabupaten Morowali Utara, Sulawesi Tengah 94966","Beteleme, Kec. Lembo, Kabupaten Morowali Utara",SULAWESI TENGAH,94966.0,Indonesia,,,,-2.1537085,121.2709318,https://maps.google.com/?cid=0x0:0xf33a8cae758d22de,
komplek housing,Komplek perumahan,Hafiz tegar,"R7GP+2CH, Pa'awaru, Kec. Lembo, Kabupaten Morowali Utara, Sulawesi Tengah 94966","Pa'awaru, Kec. Lembo, Kabupaten Morowali Utara",SULAWESI TENGAH,94966.0,Indonesia,,,,-2.17494,121.2860983,https://maps.google.com/?cid=0x0:0xaf4c02dc013ffd6b,
komplek housing,komplek housing,Sulawesi Tengah 94972,"Kabupaten Morowali Utara, Sulawesi Tengah","Kabupaten Morowali Utara, Sulawesi Tengah",SULAWESI TENGAH,,Indonesia,,,,-1.6248083,121.7195459,https://maps.google.com/?cid=0x0:0xe9e478f27d681886,
komplek housing,Komplek perumahan,Spa,"GW62+9P7, Parangisi, Kec. Mamosalato, Kabupaten Morowali Utara, Sulawesi Tengah","Kabupaten Morowali Utara, Sulawesi Tengah",SULAWESI TENGAH,,Indonesia,,,,-1.4890967,121.9017954,https://maps.google.com/?cid=0x0:0x57bb461ab17a4b32,
komplek housing,Pembangunan Perumahan,Sulawesi tengah,"GJM2+82J, Menyo'e, Kec. Mamosalato, Kabupaten Morowali Utara, Sulawesi Tengah","Kabupaten Morowali Utara, Sulawesi Tengah",SULAWESI TENGAH,,Indonesia,,,,-1.466667,121.6,https://maps.google.com/?cid=0x0:0xc2c0361406de01df,
komplek housing,Komplek perumahan,Kecamatan mamosalato,"FW6F+MR3, Winangabino, Kec. Mamosalato, Kabupaten Morowali Utara, Sulawesi Tengah","Kabupaten Morowali Utara, Sulawesi Tengah",SULAWESI TENGAH,,Indonesia,,,,-1.5383518,121.9245556,https://maps.google.com/?cid=0x0:0x1a01d059fb978ecd,
komplek housing,Pembangunan Perumahan,Wandi kntl,"9W3J+C34, Giri Mulya, Kec. Mamosalato, Kabupaten Morowali Utara, Sulawesi Tengah","Kabupaten Morowali Utara, Sulawesi Tengah",SULAWESI TENGAH,,Indonesia,,,,-1.6463376,121.928784,https://maps.google.com/?cid=0x0:0xd8530b006dec204f,
komplek housing,Balai masyarakat,Desa momo,"8WVC+7C7, Momo, Kec. Mamosalato, Kabupaten Morowali Utara, Sulawesi Tengah","Kabupaten Morowali Utara, Sulawesi Tengah",SULAWESI TENGAH,,Indonesia,,,,-1.6568411,121.9210372,https://maps.google.com/?cid=0x0:0x2ff95ab3e0eef478,
komplek housing,Komplek perumahan,Lemo,"8Q93+2FH, Lemo, Kec. Bungku Utara, Kabupaten Morowali, Sulawesi Tengah 94972","Lemo, Kec. Bungku Utara, Kabupaten Morowali",SULAWESI TENGAH,94972.0,Indonesia,,,,-1.6824256,121.7537404,https://maps.google.com/?cid=0x0:0x39a90714a2aa0067,
komplek housing,Komplek perumahan,Pandauke kec. Mamosalato,"GW62+9P7, Parangisi, Kec. Mamosalato, Kabupaten Morowali Utara, Sulawesi Tengah","Kabupaten Morowali Utara, Sulawesi Tengah",SULAWESI TENGAH,,Indonesia,,,,-1.4890967,121.9017954,https://maps.google.com/?cid=0x0:0xd9a69d4eb727c36b,
komplek housing,Komplek perumahan,Rumah ghea,"8XX4+C5X, Tananagaya, Kec. Mamosalato, Kabupaten Morowali Utara, Sulawesi Tengah 94972","Tananagaya, Kec. Mamosalato, Kabupaten Morowali Utara",SULAWESI TENGAH,94972.0,Indonesia,,,,-1.6513871,121.9554778,https://maps.google.com/?cid=0x0:0xec81cdc5d3c7ee87,
komplek housing,Komplek perumahan,WELLY SULU,"9X9C+WW2, Tana Sumpu, Kec. Mamosalato, Kabupaten Morowali Utara, Sulawesi Tengah","Kabupaten Morowali Utara, Sulawesi Tengah",SULAWESI TENGAH,,Indonesia,,,,-1.6302409,121.972262,https://maps.google.com/?cid=0x0:0xf96e023e93083956,
komplek housing,Komplek perumahan,"Mata Uekoyo, Mamosalato","GRPJ+36, Uepakatu, Kec. Mamosalato, Kabupaten Morowali Utara, Sulawesi Tengah","Kabupaten Morowali Utara, Sulawesi Tengah",SULAWESI TENGAH,,Indonesia,,,,-1.4648093,121.8318494,https://maps.google.com/?cid=0x0:0x7d22eb79579ba8e,
komplek housing,Komplek perumahan,RumahSofiii,"9X87+RPH, Tana Sumpu, Kec. Mamosalato, Kabupaten Morowali Utara, Sulawesi Tengah","Kabupaten Morowali Utara, Sulawesi Tengah",SULAWESI TENGAH,,Indonesia,,,,-1.6329434,121.9643745,https://maps.google.com/?cid=0x0:0xe9b70267534ab0c7,
komplek housing,Pembangunan Perumahan,Perumahan Trans,"6P7P+6MC, Tokala Atas, Kec. Bungku Utara, Kabupaten Morowali, Sulawesi Tengah","Kabupaten Morowali, Sulawesi Tengah",SULAWESI TENGAH,,Indonesia,,,,-1.7869405,121.7366444,https://maps.google.com/?cid=0x0:0x116eb913f1a5c2dd,
komplek housing,Komplek perumahan,Rumah Nurul Iman Santoso,"9XJP+F92, Pandauke, Kec. Mamosalato, Kabupaten Morowali, Sulawesi Tengah","Kabupaten Morowali, Sulawesi Tengah",SULAWESI TENGAH,,Indonesia,,,,-1.6188503,121.985877,https://maps.google.com/?cid=0x0:0xa9b30c37ff801341,
komplek housing,Komplek perumahan,Aqsa Home,"Jln Tinumbu No.Rt 02, Dusun Ini, Siliti, Kec. Bungku Utara, Kabupaten Morowali Utara, Sulawesi Tengah 94972","Dusun Ini, Siliti, Kec. Bungku Utara, Kabupaten Morowali Utara",SULAWESI TENGAH,94972.0,Indonesia,,,,-1.7285542,121.8074229,https://maps.google.com/?cid=0x0:0xe7b688dec4a4f6b6,
komplek housing,komplek housing,Rumah putra,"9X44+84F, Tananagaya, Kec. Mamosalato, Kabupaten Morowali Utara, Sulawesi Tengah 94972","Tananagaya, Kec. Mamosalato, Kabupaten Morowali Utara",SULAWESI TENGAH,94972.0,Indonesia,,,,-1.644584,121.954805,https://maps.google.com/?cid=0x0:0x6305bf5dabf0d601,
komplek housing,Pembangunan Perumahan,"Sulteng, morowali utara, petasia timur poranda, bungintimbe","HC9W+59H, Taronggo, Kec. Bungku Utara, Kabupaten Morowali Utara, Sulawesi Tengah","Kabupaten Morowali Utara, Sulawesi Tengah",SULAWESI TENGAH,,Indonesia, 082171124485,,,-1.4320653,121.4459985,https://maps.google.com/?cid=0x0:0xd66516c8e4a80915,
komplek housing,Perhimpunan Pengembang Perumahan,Rumah Wabup Morut,"9W2H+P9X, Giri Mulya, Kec. Mamosalato, Kabupaten Morowali Utara, Sulawesi Tengah 94972","Giri Mulya, Kec. Mamosalato, Kabupaten Morowali Utara",SULAWESI TENGAH,94972.0,Indonesia,,,,-1.6478343,121.9287717,https://maps.google.com/?cid=0x0:0x9c600378c09679fa,
komplek housing,komplek housing,Rumah pak tudon,"9X33+MRF, Tananagaya, Kec. Mamosalato, Kabupaten Morowali Utara, Sulawesi Tengah 94972","Tananagaya, Kec. Mamosalato, Kabupaten Morowali Utara",SULAWESI TENGAH,94972.0,Indonesia,,,,-1.6452806,121.9546724,https://maps.google.com/?cid=0x0:0xa6fe57136febcae,
komplek housing,Komplek perumahan,Pak kasmani,"9W5H+2V8, Giri Mulya, Kec. Mamosalato, Kabupaten Morowali Utara, Sulawesi Tengah 94972","Giri Mulya, Kec. Mamosalato, Kabupaten Morowali Utara",SULAWESI TENGAH,94972.0,Indonesia,,,,-1.6424505,121.9297081,https://maps.google.com/?cid=0x0:0xaa27f637d10a6b2f,
komplek housing,komplek housing,Kec. Mamosalato,"Kabupaten Morowali Utara, Sulawesi Tengah","Kabupaten Morowali Utara, Sulawesi Tengah",SULAWESI TENGAH,,Indonesia,,,,-1.4890967,121.9017954,https://maps.google.com/?cid=0x0:0xf9983161391e2a71,
komplek housing,Komplek perumahan,Rumah sariati aulia,"8XX4+F56, Tananagaya, Kec. Mamosalato, Kabupaten Morowali, Sulawesi Tengah 94972","Tananagaya, Kec. Mamosalato, Kabupaten Morowali",SULAWESI TENGAH,94972.0,Indonesia,,,,-1.6513469,121.9554003,https://maps.google.com/?cid=0x0:0x892773e8d9b75918,
komplek housing,Komplek perumahan,Rumah agsel,"9X44+84F, Tananagaya, Kec. Mamosalato, Kabupaten Morowali Utara, Sulawesi Tengah 94972","Tananagaya, Kec. Mamosalato, Kabupaten Morowali Utara",SULAWESI TENGAH,94972.0,Indonesia,,,,-1.645215,121.9552984,https://maps.google.com/?cid=0x0:0xebd4f2f029a1233e,
komplek housing,Komplek perumahan,Rumah Bidan EMI,"9XJQ+5M7, Pandauke, Kec. Mamosalato, Kabupaten Morowali Utara, Sulawesi Tengah 94972","Pandauke, Kec. Mamosalato, Kabupaten Morowali Utara",SULAWESI TENGAH,94972.0,Indonesia,,,,-1.6195885,121.9891727,https://maps.google.com/?cid=0x0:0x49e2e18c0dbc835a,
komplek housing,Komplek perumahan,Rumah Rahel,"9W4M+F64, Giri Mulya, Kec. Mamosalato, Kabupaten Morowali Utara, Sulawesi Tengah 94972","Giri Mulya, Kec. Mamosalato, Kabupaten Morowali Utara",SULAWESI TENGAH,94972.0,Indonesia,,,,-1.6438717,121.9330894,https://maps.google.com/?cid=0x0:0xd80de9409a8dbf69,
komplek housing,komplek housing,Rumah Elfrilias Atasa,"FVH4+FR2, Sea, Kec. Mamosalato, Kabupaten Morowali Utara, Sulawesi Tengah 94972","Sea, Kec. Mamosalato, Kabupaten Morowali Utara",SULAWESI TENGAH,94972.0,Indonesia,,,,-1.5213533,121.8570089,https://maps.google.com/?cid=0x0:0x253b44b9707352da,
komplek housing,Komplek perumahan,Amin Prasetyo,"9W2H+P9X, Giri Mulya, Kec. Mamosalato, Kabupaten Morowali, Sulawesi Tengah 94972","Giri Mulya, Kec. Mamosalato, Kabupaten Morowali",SULAWESI TENGAH,94972.0,Indonesia,,,,-1.648147,121.9284756,https://maps.google.com/?cid=0x0:0x795b93cfa01cddfc,
komplek housing,Komplek perumahan,Rumah Eko Arya Wibisono,"9W4J+64X, Giri Mulya, Kec. Mamosalato, Kabupaten Morowali Utara, Sulawesi Tengah 94972","Giri Mulya, Kec. Mamosalato, Kabupaten Morowali Utara",SULAWESI TENGAH,94972.0,Indonesia,,,,-1.6443925,121.9303726,https://maps.google.com/?cid=0x0:0xf5531065cdd2ddaf,
komplek housing,Perhimpunan Pengembang Perumahan,Dusun kamunjang,"FR6M+395, Dusun Kamunjang, Sea, Kec. Mamosalato, Kabupaten Morowali Utara, Sulawesi Tengah 94972","Dusun Kamunjang, Sea, Kec. Mamosalato, Kabupaten Morowali Utara",SULAWESI TENGAH,94972.0,Indonesia,,,,-1.5398725,121.8334868,https://maps.google.com/?cid=0x0:0xdfc4d2111a4e0e02,
komplek housing,komplek housing,Sulawesi Tengah 94965,"Kabupaten Morowali Utara, Sulawesi Tengah","Kabupaten Morowali Utara, Sulawesi Tengah",SULAWESI TENGAH,,Indonesia,,,,-1.9065553,120.9876321,https://maps.google.com/?cid=0x0:0x7343a4638efc8db3,
komplek housing,Komplek perumahan,Perumahan Guru SD Tunas Lestari Korola,"W2M2+XQF, Londi, Kec. Mori Atas, Kabupaten Morowali, Sulawesi Tengah","Kabupaten Morowali, Sulawesi Tengah",SULAWESI TENGAH,,Indonesia,,,,-2.0650583,121.001935,https://maps.google.com/?cid=0x0:0x67ce09a120f7290a,
komplek housing,Komplek perumahan,TOMUI KARYA,"XVPH+6C9, Tomui Karya, Kec. Mori Atas, Kabupaten Morowali Utara, Sulawesi Tengah 94965","Tomui Karya, Kec. Mori Atas, Kabupaten Morowali Utara",SULAWESI TENGAH,94965.0,Indonesia,,,,-2.0144701,120.8786026,https://maps.google.com/?cid=0x0:0x3a1e8ebc8d978e9e,
komplek housing,Komplek perumahan,RumahQ desa Tiwaa,"3W79+WJW, Jl.desa, Tiwaa, Kec. Mori Utara, Kabupaten Morowali Utara, Sulawesi Tengah 94965","Jl.desa, Tiwaa, Kec. Mori Utara, Kabupaten Morowali Utara",SULAWESI TENGAH,94965.0,Indonesia,,,,-1.9351438,120.9190628,https://maps.google.com/?cid=0x0:0xa2444b1ad3080c73,
komplek housing,Kantor Perusahaan,Mess Management PT Timurjaya Indomakmur,"W2G2+5MV, Londi, Kec. Mori Atas, Kabupaten Morowali, Sulawesi Tengah 94965","Londi, Kec. Mori Atas, Kabupaten Morowali",SULAWESI TENGAH,94965.0,Indonesia,,,,-2.0745202,121.0016769,https://maps.google.com/?cid=0x0:0x1955ee0109a55c02,
komplek housing,Komplek perumahan,Perumahan afdeling 6,"33VF+CX, Era, Kec. Mori Utara, Kabupaten Morowali Utara, Sulawesi Tengah","Kabupaten Morowali Utara, Sulawesi Tengah",SULAWESI TENGAH,,Indonesia,,,,-1.9063756,121.074977,https://maps.google.com/?cid=0x0:0xf7c717651cdddb36,
komplek housing,Komplek perumahan,Lily's Village,"2X7H+P2F, Tomata, Kec. Mori Atas, Kabupaten Morowali, Sulawesi Tengah","Kabupaten Morowali, Sulawesi Tengah",SULAWESI TENGAH,,Indonesia,,,,-1.9856834,120.9775409,https://maps.google.com/?cid=0x0:0x854c1c125d0b2cce,
komplek housing,komplek housing,Rumah HL,"WWJF+5R, Gontara, Kec. Mori Atas, Kabupaten Morowali Utara, Sulawesi Tengah","Kabupaten Morowali Utara, Sulawesi Tengah",SULAWESI TENGAH,,Indonesia,,,,-2.0694946,120.9245928,https://maps.google.com/?cid=0x0:0x3896658525d20619,
komplek housing,Komplek perumahan,Rumah pribadi,"2X7H+F3G, Jl. Trans Sulawesi, Tomata, Kec. Mori Atas, Kabupaten Morowali Utara, Sulawesi Tengah","Kabupaten Morowali Utara, Sulawesi Tengah",SULAWESI TENGAH,,Indonesia,,,,-1.9867964,120.9784979,https://maps.google.com/?cid=0x0:0xf34ef283e7ff09ee,
komplek housing,Komplek perumahan,Home risman,"2XFR+G5Q Indonesian food, Wawondula, Kec. Mori Utara, Kabupaten Morowali Utara, Sulawesi Tengah 94965","Wawondula, Kec. Mori Utara, Kabupaten Morowali Utara",SULAWESI TENGAH,94965.0,Indonesia,,,,-1.9761729,120.9905,https://maps.google.com/?cid=0x0:0x61e1f98cf082d32e,
komplek housing,Komplek perumahan,Perumahan Divisi 2 KRLE-KRLM PT. TIMURJAYA INDOMAKMUR,"R2JC+PR3, Taende, Kec. Mori Atas, Kabupaten Morowali, Sulawesi Tengah","Kabupaten Morowali, Sulawesi Tengah",SULAWESI TENGAH,,Indonesia,,,,-2.1682463,121.0220422,https://maps.google.com/?cid=0x0:0xedaf37b0edfb5d3,
komplek housing,Perhimpunan Pengembang Perumahan,Premahan sawit,"XW8J+54C, Tomata, Kec. Mori Atas, Kabupaten Morowali Utara, Sulawesi Tengah 94965","Tomata, Kec. Mori Atas, Kabupaten Morowali Utara",SULAWESI TENGAH,94965.0,Indonesia,,,,-2.0345558,120.9302603,https://maps.google.com/?cid=0x0:0x67dfe2d1ec783aa8,
komplek housing,komplek housing,Rumah Leon Tandole,"RW39+HG3, Gontara, Kec. Mori Atas, Kabupaten Morowali Utara, Sulawesi Tengah","Kabupaten Morowali Utara, Sulawesi Tengah",SULAWESI TENGAH,,Indonesia,,,,-2.1961042,120.9187827,https://maps.google.com/?cid=0x0:0x173b231598b8c44c,
komplek housing,Komplek perumahan,HOME DheaDelon,"4332+5QG, Peleru, Kec. Mori Utara, Kabupaten Morowali Utara, Sulawesi Tengah 94965","Peleru, Kec. Mori Utara, Kabupaten Morowali Utara",SULAWESI TENGAH,94965.0,Indonesia,,,,-1.8980604,121.0519805,https://maps.google.com/?cid=0x0:0xeaefc154c0b9f933,
komplek housing,komplek housing,Rumah Leon M,"WWRF+R36, Gontara, Kec. Mori Atas, Kabupaten Morowali Utara, Sulawesi Tengah 94965","Gontara, Kec. Mori Atas, Kabupaten Morowali Utara",SULAWESI TENGAH,94965.0,Indonesia,,,,-2.058167,120.922804,https://maps.google.com/?cid=0x0:0x958b25abd1bc5802,
komplek housing,Komplek perumahan,Rumah Handri,"XVGV+J88, Tomui Karya, Kec. Mori Atas, Kabupaten Morowali Utara, Sulawesi Tengah 94965","Tomui Karya, Kec. Mori Atas, Kabupaten Morowali Utara",SULAWESI TENGAH,94965.0,Indonesia,,,,-2.02347,120.8933263,https://maps.google.com/?cid=0x0:0xc5f85088e8b472d,
komplek housing,Komplek perumahan,Rumah Ningsi,"X2V6+XJ7, Tomata - Beteleme, Londi, Kec. Mori Atas, Kabupaten Morowali Utara, Sulawesi Tengah 94965","Tomata - Beteleme, Londi, Kec. Mori Atas, Kabupaten Morowali Utara",SULAWESI TENGAH,94965.0,Indonesia,,,,-2.0050815,121.0115393,https://maps.google.com/?cid=0x0:0x9a51d7e724d344cf,
komplek housing,Pembangunan Perumahan,Base barakka,"2474+JJ2, Peonea, Kec. Mori Atas, Kabupaten Morowali Utara, Sulawesi Tengah 94965","Peonea, Kec. Mori Atas, Kabupaten Morowali Utara",SULAWESI TENGAH,94965.0,Indonesia,,,,-1.9859778,121.106501,https://maps.google.com/?cid=0x0:0x5ef70956b4e50cb5,
komplek housing,Perhimpunan Pengembang Perumahan,RAMAH ERA,"443F+P3G, Era, Kec. Mori Utara, Kabupaten Morowali, Sulawesi Tengah","Kabupaten Morowali, Sulawesi Tengah",SULAWESI TENGAH,,Indonesia,,,,-1.8956984,121.1227089,https://maps.google.com/?cid=0x0:0x4261e1c920292860,
komplek housing,Komplek perumahan,Perum Divisi 4 - PT. Timurjaya Indomakmur,"X226+M2G, Londi, Kec. Mori Atas, Kabupaten Morowali Utara, Sulawesi Tengah 94965","Londi, Kec. Mori Atas, Kabupaten Morowali Utara",SULAWESI TENGAH,94965.0,Indonesia,,,,-2.0483224,121.0100655,https://maps.google.com/?cid=0x0:0xca401e46a8482edd,
komplek housing,komplek housing,Kec. Mori Atas,"Kabupaten Morowali Utara, Sulawesi Tengah","Kabupaten Morowali Utara, Sulawesi Tengah",SULAWESI TENGAH,,Indonesia,,,,-2.0002929,120.9771708,https://maps.google.com/?cid=0x0:0xb482718602ff4a56,
komplek housing,Komplek perumahan,Rumah Fabio,"2X4H+R5V, Tomata, Kec. Mori Atas, Kabupaten Morowali Utara, Sulawesi Tengah 94965","Tomata, Kec. Mori Atas, Kabupaten Morowali Utara",SULAWESI TENGAH,94965.0,Indonesia,,,,-1.9923768,120.977832,https://maps.google.com/?cid=0x0:0x2c79ebc6041d245f,
komplek housing,Komplek perumahan,kel. Pembolo-Dengkidala,"2X3H+VMJ, Tomata, Kec. Mori Atas, Kabupaten Morowali Utara, Sulawesi Tengah 94965","Tomata, Kec. Mori Atas, Kabupaten Morowali Utara",SULAWESI TENGAH,94965.0,Indonesia,,,,-1.9952691,120.9791563,https://maps.google.com/?cid=0x0:0xeb6a9898b27b2b2d,
komplek housing,Komplek perumahan,Rumah shenna,"2XHM+4W6, Wawondula, Kec. Mori Utara, Kabupaten Morowali Utara, Sulawesi Tengah 94965","Wawondula, Kec. Mori Utara, Kabupaten Morowali Utara",SULAWESI TENGAH,94965.0,Indonesia,,,,-1.9722236,120.9847515,https://maps.google.com/?cid=0x0:0xbd3de65ed7aca874,
komplek housing,Komplek perumahan,Papa dole house,"XVGW+8VG, Tomui Karya, Kec. Mori Atas, Kabupaten Morowali Utara, Sulawesi Tengah 94965","Tomui Karya, Kec. Mori Atas, Kabupaten Morowali Utara",SULAWESI TENGAH,94965.0,Indonesia,,,,-2.0241918,120.897213,https://maps.google.com/?cid=0x0:0xe3faead3c6887d2d,
komplek housing,komplek housing,Rumah mas nono,"W4M4+C94, Kolaka, Kec. Mori Atas, Kabupaten Morowali Utara, Sulawesi Tengah 94965","Kolaka, Kec. Mori Atas, Kabupaten Morowali Utara",SULAWESI TENGAH,94965.0,Indonesia,,,,-2.0663314,121.1066357,https://maps.google.com/?cid=0x0:0x9ebce845a02af40c,
komplek housing,Komplek perumahan,Eddy sangkalabu,"2X3J+WMW, Tomata, Kec. Mori Atas, Kabupaten Morowali Utara, Sulawesi Tengah 94965","Tomata, Kec. Mori Atas, Kabupaten Morowali Utara",SULAWESI TENGAH,94965.0,Indonesia,,,,-1.9942746,120.9811945,https://maps.google.com/?cid=0x0:0x68511942ac5fe300,
komplek housing,Komplek perumahan,Sangkide - Tawero,"2X2G+RJ8, Jl. Trans Sulawesi, Tomata, Kec. Mori Atas, Kabupaten Morowali Utara, Sulawesi Tengah 94965","Jl. Trans Sulawesi, Tomata, Kec. Mori Atas, Kabupaten Morowali Utara",SULAWESI TENGAH,94965.0,Indonesia,,,,-1.997931,120.976788,https://maps.google.com/?cid=0x0:0xc262155e69f8a487,
komplek housing,Pembangunan Perumahan,Berkat florist pambarea,"2X4H+M74, Tomata, Kec. Mori Atas, Kabupaten Morowali, Sulawesi Tengah 94965","Tomata, Kec. Mori Atas, Kabupaten Morowali",SULAWESI TENGAH,94965.0,Indonesia,,,,-1.9926987,120.9789757,https://maps.google.com/?cid=0x0:0x150972ee0c120b1b,
komplek housing,komplek housing,Sulawesi Tengah 94965,"Kabupaten Morowali Utara, Sulawesi Tengah","Kabupaten Morowali Utara, Sulawesi Tengah",SULAWESI TENGAH,,Indonesia,,,,-1.9065553,120.9876321,https://maps.google.com/?cid=0x0:0x7343a4638efc8db3,
komplek housing,Komplek perumahan,Perumahan Guru SD Tunas Lestari Korola,"W2M2+XQF, Londi, Kec. Mori Atas, Kabupaten Morowali, Sulawesi Tengah","Kabupaten Morowali, Sulawesi Tengah",SULAWESI TENGAH,,Indonesia,,,,-2.0650583,121.001935,https://maps.google.com/?cid=0x0:0x67ce09a120f7290a,
komplek housing,Komplek perumahan,Perumahan afdeling 6,"33VF+CX, Era, Kec. Mori Utara, Kabupaten Morowali Utara, Sulawesi Tengah","Kabupaten Morowali Utara, Sulawesi Tengah",SULAWESI TENGAH,,Indonesia,,,,-1.9063756,121.074977,https://maps.google.com/?cid=0x0:0xf7c717651cdddb36,
komplek housing,komplek housing,Rumah Leon M,"WWRF+R36, Gontara, Kec. Mori Atas, Kabupaten Morowali Utara, Sulawesi Tengah 94965","Gontara, Kec. Mori Atas, Kabupaten Morowali Utara",SULAWESI TENGAH,94965.0,Indonesia,,,,-2.058167,120.922804,https://maps.google.com/?cid=0x0:0x958b25abd1bc5802,
komplek housing,Komplek perumahan,TOMUI KARYA,"XVPH+6C9, Tomui Karya, Kec. Mori Atas, Kabupaten Morowali Utara, Sulawesi Tengah 94965","Tomui Karya, Kec. Mori Atas, Kabupaten Morowali Utara",SULAWESI TENGAH,94965.0,Indonesia,,,,-2.0144701,120.8786026,https://maps.google.com/?cid=0x0:0x3a1e8ebc8d978e9e,
komplek housing,komplek housing,Ecie‚Äôs House,"R6R5+7X, Wawopada, Kec. Lembo, Kabupaten Morowali Utara, Sulawesi Tengah","Kabupaten Morowali Utara, Sulawesi Tengah",SULAWESI TENGAH,,Indonesia,,,,-2.1592906,121.2099219,https://maps.google.com/?cid=0x0:0xc8deb1374bdf8d1f,
komplek housing,Komplek perumahan,Rumah Ningsi,"X2V6+XJ7, Tomata - Beteleme, Londi, Kec. Mori Atas, Kabupaten Morowali Utara, Sulawesi Tengah 94965","Tomata - Beteleme, Londi, Kec. Mori Atas, Kabupaten Morowali Utara",SULAWESI TENGAH,94965.0,Indonesia,,,,-2.0050815,121.0115393,https://maps.google.com/?cid=0x0:0x9a51d7e724d344cf,
komplek housing,Komplek perumahan,Rumah Agan,"3XGG+3Q6, Mayumba, Kec. Mori Utara, Kabupaten Morowali Utara, Sulawesi Tengah 94965","Mayumba, Kec. Mori Utara, Kabupaten Morowali Utara",SULAWESI TENGAH,94965.0,Indonesia,,,,-1.9248343,120.9769037,https://maps.google.com/?cid=0x0:0x482a27620ea1d8ed,
komplek housing,Komplek perumahan,kel. Pembolo-Dengkidala,"2X3H+VMJ, Tomata, Kec. Mori Atas, Kabupaten Morowali Utara, Sulawesi Tengah 94965","Tomata, Kec. Mori Atas, Kabupaten Morowali Utara",SULAWESI TENGAH,94965.0,Indonesia,,,,-1.9952691,120.9791563,https://maps.google.com/?cid=0x0:0xeb6a9898b27b2b2d,
komplek housing,Komplek perumahan,Home risman,"2XFR+G5Q Indonesian food, Wawondula, Kec. Mori Utara, Kabupaten Morowali Utara, Sulawesi Tengah 94965","Wawondula, Kec. Mori Utara, Kabupaten Morowali Utara",SULAWESI TENGAH,94965.0,Indonesia,,,,-1.9761729,120.9905,https://maps.google.com/?cid=0x0:0x61e1f98cf082d32e,
komplek housing,Kantor Perusahaan,Mess Management PT Timurjaya Indomakmur,"W2G2+5MV, Londi, Kec. Mori Atas, Kabupaten Morowali, Sulawesi Tengah 94965","Londi, Kec. Mori Atas, Kabupaten Morowali",SULAWESI TENGAH,94965.0,Indonesia,,,,-2.0745202,121.0016769,https://maps.google.com/?cid=0x0:0x1955ee0109a55c02,
komplek housing,Komplek perumahan,Kalembiro's Home Sweet Home,"R6FW+3W4, Lembobaru, Kec. Lembo, Kabupaten Morowali Utara, Sulawesi Tengah 94966","Lembobaru, Kec. Lembo, Kabupaten Morowali Utara",SULAWESI TENGAH,94966.0,Indonesia, 082292244017,,,-2.1773541,121.2473145,https://maps.google.com/?cid=0x0:0xda996a9885930ae6,
komplek housing,Komplek perumahan,Perumahan Divisi 2 KRLE-KRLM PT. TIMURJAYA INDOMAKMUR,"R2JC+PR3, Taende, Kec. Mori Atas, Kabupaten Morowali, Sulawesi Tengah","Kabupaten Morowali, Sulawesi Tengah",SULAWESI TENGAH,,Indonesia,,,,-2.1682463,121.0220422,https://maps.google.com/?cid=0x0:0xedaf37b0edfb5d3,
komplek housing,komplek housing,Rumah Leon Tandole,"RW39+HG3, Gontara, Kec. Mori Atas, Kabupaten Morowali Utara, Sulawesi Tengah","Kabupaten Morowali Utara, Sulawesi Tengah",SULAWESI TENGAH,,Indonesia,,,,-2.1961042,120.9187827,https://maps.google.com/?cid=0x0:0x173b231598b8c44c,
komplek housing,Komplek perumahan,Rumah Handri,"XVGV+J88, Tomui Karya, Kec. Mori Atas, Kabupaten Morowali Utara, Sulawesi Tengah 94965","Tomui Karya, Kec. Mori Atas, Kabupaten Morowali Utara",SULAWESI TENGAH,94965.0,Indonesia,,,,-2.02347,120.8933263,https://maps.google.com/?cid=0x0:0xc5f85088e8b472d,
komplek housing,Kantor Perusahaan,Perumahan pt spn watumesono,"WX8X+CJQ, Londi, Kec. Mori Atas, Kabupaten Morowali, Sulawesi Tengah 94965","Londi, Kec. Mori Atas, Kabupaten Morowali",SULAWESI TENGAH,94965.0,Indonesia,,,,-2.0839139,120.9991032,https://maps.google.com/?cid=0x0:0xdcbb97c8afff31e1,
komplek housing,komplek housing,Rumah HL,"WWJF+5R, Gontara, Kec. Mori Atas, Kabupaten Morowali Utara, Sulawesi Tengah","Kabupaten Morowali Utara, Sulawesi Tengah",SULAWESI TENGAH,,Indonesia,,,,-2.0694946,120.9245928,https://maps.google.com/?cid=0x0:0x3896658525d20619,
komplek housing,Komplek perumahan,Rumah shenna,"2XHM+4W6, Wawondula, Kec. Mori Utara, Kabupaten Morowali Utara, Sulawesi Tengah 94965","Wawondula, Kec. Mori Utara, Kabupaten Morowali Utara",SULAWESI TENGAH,94965.0,Indonesia,,,,-1.9722236,120.9847515,https://maps.google.com/?cid=0x0:0xbd3de65ed7aca874,
komplek housing,Komplek perumahan,HOME DheaDelon,"4332+5QG, Peleru, Kec. Mori Utara, Kabupaten Morowali Utara, Sulawesi Tengah 94965","Peleru, Kec. Mori Utara, Kabupaten Morowali Utara",SULAWESI TENGAH,94965.0,Indonesia,,,,-1.8980604,121.0519805,https://maps.google.com/?cid=0x0:0xeaefc154c0b9f933,
komplek housing,Toko Elektronik,"TALIWAN - TABARANO, LIOKA, WAWONDULA","2XJP+G87, Wawondula, Kec. Mori Utara, Kabupaten Morowali Utara, Sulawesi Tengah 94965","Wawondula, Kec. Mori Utara, Kabupaten Morowali Utara",SULAWESI TENGAH,94965.0,Indonesia,,,,-1.9687028,120.9858087,https://maps.google.com/?cid=0x0:0x167adcfc4a76f644,
komplek housing,komplek housing,Kec. Mori Utara,"Kabupaten Morowali Utara, Sulawesi Tengah","Kabupaten Morowali Utara, Sulawesi Tengah",SULAWESI TENGAH,,Indonesia,,,,-1.8045656,121.03351,https://maps.google.com/?cid=0x0:0x714f058e61875b3d,
komplek housing,Komplek perumahan,Home raynel,"2XFR+G5Q, Wawondula, Kec. Mori Utara, Kabupaten Morowali Utara, Sulawesi Tengah 94965","Wawondula, Kec. Mori Utara, Kabupaten Morowali Utara",SULAWESI TENGAH,94965.0,Indonesia,,,,-1.9761729,120.9905,https://maps.google.com/?cid=0x0:0x642ccb19dd552685,
komplek housing,Komplek perumahan,Kel.sanyoto/indri,"3W6G+3XV, Lembontonara, Kec. Mori Utara, Kabupaten Morowali Utara, Sulawesi Tengah 94965","Lembontonara, Kec. Mori Utara, Kabupaten Morowali Utara",SULAWESI TENGAH,94965.0,Indonesia,,,,-1.93976,120.9274162,https://maps.google.com/?cid=0x0:0x5793f29cbce81606,
komplek housing,Komplek perumahan,Rumah Fabio,"2X4H+R5V, Tomata, Kec. Mori Atas, Kabupaten Morowali Utara, Sulawesi Tengah 94965","Tomata, Kec. Mori Atas, Kabupaten Morowali Utara",SULAWESI TENGAH,94965.0,Indonesia,,,,-1.9923768,120.977832,https://maps.google.com/?cid=0x0:0x2c79ebc6041d245f,
komplek housing,Komplek perumahan,Afdeling Bravo,"34M3+QQ3, Unnamed Road, Era, Kec. Mori Utara, Kabupaten Morowali Utara, Sulawesi Tengah 94965","Unnamed Road, Era, Kec. Mori Utara, Kabupaten Morowali Utara",SULAWESI TENGAH,94965.0,Indonesia,,,,-1.9156173,121.1044259,https://maps.google.com/?cid=0x0:0xaabb9791860e7613,
komplek housing,Perhimpunan Pengembang Perumahan,Premahan sawit,"XW8J+54C, Tomata, Kec. Mori Atas, Kabupaten Morowali Utara, Sulawesi Tengah 94965","Tomata, Kec. Mori Atas, Kabupaten Morowali Utara",SULAWESI TENGAH,94965.0,Indonesia,,,,-2.0345558,120.9302603,https://maps.google.com/?cid=0x0:0x67dfe2d1ec783aa8,
komplek housing,Komplek perumahan,Rumah Nene HP,"2XJM+7QV, Wawondula, Kec. Mori Utara, Kabupaten Morowali Utara, Sulawesi Tengah 94965","Wawondula, Kec. Mori Utara, Kabupaten Morowali Utara",SULAWESI TENGAH,94965.0,Indonesia,,,,-1.9692712,120.9850931,https://maps.google.com/?cid=0x0:0xf8469dbaf145794f,
komplek housing,Komplek perumahan,Papa dole house,"XVGW+8VG, Tomui Karya, Kec. Mori Atas, Kabupaten Morowali Utara, Sulawesi Tengah 94965","Tomui Karya, Kec. Mori Atas, Kabupaten Morowali Utara",SULAWESI TENGAH,94965.0,Indonesia,,,,-2.0241918,120.897213,https://maps.google.com/?cid=0x0:0xe3faead3c6887d2d,
komplek housing,Komplek perumahan,Sangkide - Tawero,"2X2G+RJ8, Jl. Trans Sulawesi, Tomata, Kec. Mori Atas, Kabupaten Morowali Utara, Sulawesi Tengah 94965","Jl. Trans Sulawesi, Tomata, Kec. Mori Atas, Kabupaten Morowali Utara",SULAWESI TENGAH,94965.0,Indonesia,,,,-1.997931,120.976788,https://maps.google.com/?cid=0x0:0xc262155e69f8a487,
komplek housing,komplek housing,Sulawesi Tengah 94971,"Kabupaten Morowali, Sulawesi Tengah","Kabupaten Morowali, Sulawesi Tengah",SULAWESI TENGAH,,Indonesia,,,,-1.8683068,121.2168466,https://maps.google.com/?cid=0x0:0x200eae1003365f6b,
komplek housing,Pembangunan Perumahan,"Sulteng, morowali utara, petasia timur poranda, bungintimbe","HC9W+59H, Taronggo, Kec. Bungku Utara, Kabupaten Morowali Utara, Sulawesi Tengah","Kabupaten Morowali Utara, Sulawesi Tengah",SULAWESI TENGAH,,Indonesia, 082171124485,,,-1.4320653,121.4459985,https://maps.google.com/?cid=0x0:0xd66516c8e4a80915,
komplek housing,komplek housing,Kec. Petasia,"Kabupaten Morowali Utara, Sulawesi Tengah","Kabupaten Morowali Utara, Sulawesi Tengah",SULAWESI TENGAH,,Indonesia,,,,-1.9826888,121.3362697,https://maps.google.com/?cid=0x0:0xa1fc0f209d1fef2d,
komplek housing,Pembangunan Perumahan,KOMPLEK JALDU,"284J+W55, Kolonodale, Kec. Petasia, Kabupaten Morowali Utara, Sulawesi Tengah 94971","Kolonodale, Kec. Petasia, Kabupaten Morowali Utara",SULAWESI TENGAH,94971.0,Indonesia,,,,-1.9927383,121.3304942,https://maps.google.com/?cid=0x0:0xe37b4ef7ed594893,
komplek housing,Pembangunan Perumahan,Ispriawan,"VFP8+8PP, Molino, Kec. Petasia Timur, Kabupaten Morowali Utara, Sulawesi Tengah 94971","Molino, Kec. Petasia Timur, Kabupaten Morowali Utara",SULAWESI TENGAH,94971.0,Indonesia,,,,-2.1141511,121.4668336,https://maps.google.com/?cid=0x0:0x2d591ab3b50349c3,
komplek housing,Apartemen sewa liburan,Kos CAHAYA PINRANG,"X9JR+5Q4, Korololama, Kec. Petasia, Kabupaten Morowali Utara, Sulawesi Tengah 94971","Korololama, Kec. Petasia, Kabupaten Morowali Utara",SULAWESI TENGAH,94971.0,Indonesia, 082295410070,,,-2.0196076,121.3919557,https://maps.google.com/?cid=0x0:0x4dab7bcd449c3278,
komplek housing,Komplek perumahan,Matabolo perasia timur Morowali Utara,"W9R8+7QQ, Bunta, Kec. Petasia, Kabupaten Morowali, Sulawesi Tengah 94971","Bunta, Kec. Petasia, Kabupaten Morowali",SULAWESI TENGAH,94971.0,Indonesia,,,,-2.0592965,121.3669941,https://maps.google.com/?cid=0x0:0x5cbae07cf52ef31d,
komplek housing,Komplek perumahan,PANDESIA Homes,"288P+V9R, Bahontula, Kec. Petasia, Kabupaten Morowali Utara, Sulawesi Tengah 94971","Bahontula, Kec. Petasia, Kabupaten Morowali Utara",SULAWESI TENGAH,94971.0,Indonesia,,,,-1.9827561,121.3358878,https://maps.google.com/?cid=0x0:0x8c73cbf712dc2d43,
komplek housing,Pembangunan Perumahan,Tompira ttg,"Jl. Trans Sulawesi, Tompira, Kec. Petasia, Kabupaten Morowali Utara, Sulawesi Tengah 94971","Tompira, Kec. Petasia, Kabupaten Morowali Utara",SULAWESI TENGAH,94971.0,Indonesia,,,,-2.1257824,121.4677751,https://maps.google.com/?cid=0x0:0xef4b6bb255bdf37d,
komplek housing,Komplek perumahan,kos,"WGG3+V4M, Towara, Kec. Petasia Timur, Kabupaten Morowali Utara, Sulawesi Tengah","Kabupaten Morowali Utara, Sulawesi Tengah",SULAWESI TENGAH,,Indonesia,,,,-2.0727924,121.502797,https://maps.google.com/?cid=0x0:0xf6c0a93da8cf9665,
komplek housing,komplek housing,Home Putry  Naila ( Muli ),"VFM8+CXP, Molino, Kec. Petasia Timur, Kabupaten Morowali Utara, Sulawesi Tengah 94971","Molino, Kec. Petasia Timur, Kabupaten Morowali Utara",SULAWESI TENGAH,94971.0,Indonesia,,,,-2.1157704,121.4671195,https://maps.google.com/?cid=0x0:0x664901b08fed297f,
komplek housing,Komplek perumahan,Molores,"RGQ2+HCV, Molores, Kec. Petasia, Kabupaten Morowali, Sulawesi Tengah 94971","Molores, Kec. Petasia, Kabupaten Morowali",SULAWESI TENGAH,94971.0,Indonesia, 082235938483,,,-2.161008,121.5010579,https://maps.google.com/?cid=0x0:0x1f811e2bdb39752a,
komplek housing,Komplek perumahan,Perumahan Astra PT.ANA afdeling Alfa,"WCHF+GCX, Bungintimbe, Kec. Petasia Timur, Kabupaten Morowali Utara, Sulawesi Tengah","Kabupaten Morowali Utara, Sulawesi Tengah",SULAWESI TENGAH,,Indonesia,,,,-2.0711301,121.4236152,https://maps.google.com/?cid=0x0:0x5adaa03cfc71ecc6,
komplek housing,Komplek perumahan,Rumah Wais,"WCFW+XFJ, Jl. Trans Sulawesi, Bungintimbe, Kec. Petasia, Kabupaten Morowali Utara, Sulawesi Tengah 94971","Jl. Trans Sulawesi, Bungintimbe, Kec. Petasia, Kabupaten Morowali Utara",SULAWESI TENGAH,94971.0,Indonesia,,,,-2.0749785,121.4460879,https://maps.google.com/?cid=0x0:0xb4058c3cec461c94,
komplek housing,Komplek perumahan,Rumah Nasri,"RGP2+XWR, Jl. Trans Sulawesi, Molores, Kec. Petasia, Kabupaten Morowali Utara, Sulawesi Tengah 94971","Jl. Trans Sulawesi, Molores, Kec. Petasia, Kabupaten Morowali Utara",SULAWESI TENGAH,94971.0,Indonesia,,,,-2.1625174,121.5022273,https://maps.google.com/?cid=0x0:0x22aec72c99aa4c52,
komplek housing,Rumah wisata,KOST AMIRA Lrg. Polsek Petasia Timur,"WCC9+8R5, Bungintimbe, Kec. Petasia Timur, Kabupaten Morowali Utara, Sulawesi Tengah","Kabupaten Morowali Utara, Sulawesi Tengah",SULAWESI TENGAH,,Indonesia,,,,-2.0792278,121.4196043,https://maps.google.com/?cid=0x0:0x28c6e4928bb5d919,
komplek housing,Komplek perumahan,Kompleks Rumah PU,"28CP+8V7, Bahoue, Kec. Petasia, Kabupaten Morowali Utara, Sulawesi Tengah 94971","Bahoue, Kec. Petasia, Kabupaten Morowali Utara",SULAWESI TENGAH,94971.0,Indonesia,,,,-1.9792169,121.3371574,https://maps.google.com/?cid=0x0:0x9d8296fb26fc317,
komplek housing,Komplek perumahan,Eka's Home,"WFC2+972, Bungintimbe, Kec. Petasia, Kabupaten Morowali, Sulawesi Tengah 94971","Bungintimbe, Kec. Petasia, Kabupaten Morowali",SULAWESI TENGAH,94971.0,Indonesia,,,,-2.0791222,121.4506535,https://maps.google.com/?cid=0x0:0x967081306b6975d4,
komplek housing,Komplek perumahan,Home Roofi,"288Q+VQ2, Bahontula, Kec. Petasia, Kabupaten Morowali, Sulawesi Tengah 94971","Bahontula, Kec. Petasia, Kabupaten Morowali",SULAWESI TENGAH,94971.0,Indonesia,,,,-1.9828536,121.3393942,https://maps.google.com/?cid=0x0:0xa0ac6ddfcb512751,
komplek housing,Komplek perumahan,mega‚Äôs home,"287M+37R, Bahontula, Kec. Petasia, Kabupaten Morowali Utara, Sulawesi Tengah 94971","Bahontula, Kec. Petasia, Kabupaten Morowali Utara",SULAWESI TENGAH,94971.0,Indonesia,,,,-1.9875919,121.3333605,https://maps.google.com/?cid=0x0:0x21e1cd1c84d83afa,
komplek housing,Komplek perumahan,Lorong Mengkendek,"W9RH+P4W, Bunta, Kec. Petasia, Kabupaten Morowali, Sulawesi Tengah 94971","Bunta, Kec. Petasia, Kabupaten Morowali",SULAWESI TENGAH,94971.0,Indonesia,,,,-2.0581399,121.3778252,https://maps.google.com/?cid=0x0:0xefaa75c7e45effee,
komplek housing,komplek housing,Kost,"W9CM+734, Tompira, Kec. Petasia Timur, Kabupaten Morowali Utara, Sulawesi Tengah 94971","Tompira, Kec. Petasia Timur, Kabupaten Morowali Utara",SULAWESI TENGAH,94971.0,Indonesia,,,,-2.0793725,121.38269,https://maps.google.com/?cid=0x0:0xcde15d224102198b,
komplek housing,Komplek perumahan,Asri,"VGH8+CG, Polewali, Kec. Petasia, Kabupaten Morowali, Sulawesi Tengah","Kabupaten Morowali, Sulawesi Tengah",SULAWESI TENGAH,,Indonesia,,,,-2.1214964,121.5163136,https://maps.google.com/?cid=0x0:0xae55ae28290be7b0,
komplek housing,Toko Pakaian,Perumahan TEKNIK PT ANA,"VFGM+5R8, Molino, Kec. Petasia Timur, Kabupaten Morowali Utara, Sulawesi Tengah 94971","Molino, Kec. Petasia Timur, Kabupaten Morowali Utara",SULAWESI TENGAH,94971.0,Indonesia,,,,-2.1230594,121.4855145,https://maps.google.com/?cid=0x0:0x6f1d5e46266e3fc9,
komplek housing,komplek housing,Kec. Petasia,"Kabupaten Morowali Utara, Sulawesi Tengah","Kabupaten Morowali Utara, Sulawesi Tengah",SULAWESI TENGAH,,Indonesia,,,,-2.1146417,121.5195993,https://maps.google.com/?cid=0x0:0xb7809558875ad34b,
komplek housing,Komplek perumahan,Perumhn afdeling juliet,"VFGM+5XM, Molino, Kec. Petasia Timur, Kabupaten Morowali Utara, Sulawesi Tengah 94971","Molino, Kec. Petasia Timur, Kabupaten Morowali Utara",SULAWESI TENGAH,94971.0,Indonesia,,,,-2.12453,121.4849362,https://maps.google.com/?cid=0x0:0x4ecb5c21d94b4c1b,
komplek housing,Komplek perumahan,Rumah BABINSA TA' Serma(Purn)A.Azis Husain,"VF9H+CQ2, Molino, Kec. Petasia, Kabupaten Morowali Utara, Sulawesi Tengah 94971","Molino, Kec. Petasia, Kabupaten Morowali Utara",SULAWESI TENGAH,94971.0,Indonesia,,,,-2.131265,121.4798504,https://maps.google.com/?cid=0x0:0x1033a0a07b38af6c,
komplek housing,komplek housing,KOS,"X978+J48, Bunta, Kec. Petasia Timur, Kabupaten Morowali Utara, Sulawesi Tengah 94971","Bunta, Kec. Petasia Timur, Kabupaten Morowali Utara",SULAWESI TENGAH,94971.0,Indonesia,,,,-2.0359662,121.3653328,https://maps.google.com/?cid=0x0:0x4f4f56a85df4ee2,
komplek housing,Komplek perumahan,Kost,"W9R9+X6M, Bunta, Kec. Petasia Timur, Kabupaten Morowali Utara, Sulawesi Tengah 94971","Bunta, Kec. Petasia Timur, Kabupaten Morowali Utara",SULAWESI TENGAH,94971.0,Indonesia,,,,-2.0581671,121.3681481,https://maps.google.com/?cid=0x0:0x8f818b31de9b70fc,
komplek housing,komplek housing,Kec. Petasia Barat,"Kabupaten Morowali Utara, Sulawesi Tengah","Kabupaten Morowali Utara, Sulawesi Tengah",SULAWESI TENGAH,,Indonesia,,,,-2.0117169,121.2965127,https://maps.google.com/?cid=0x0:0xa1b3a15e083efa64,
komplek housing,komplek housing,One CeryA,"Jl. Kampung Damai, Eppe, Korololama, Kec. Petasia, Kabupaten Morowali Utara, Sulawesi Tengah 94971","Eppe, Korololama, Kec. Petasia, Kabupaten Morowali Utara",SULAWESI TENGAH,94971.0,Indonesia,,,,-2.0216875,121.3370625,https://maps.google.com/?cid=0x0:0xf595e2fa1ec6fc6f,
komplek housing,komplek housing,Perumahan Afdeling OB PT.ANQ,"X98W+JG, Bunta, Kec. Petasia Timur, Kabupaten Morowali Utara, Sulawesi Tengah","Kabupaten Morowali Utara, Sulawesi Tengah",SULAWESI TENGAH,,Indonesia,,,,-2.033488,121.396262,https://maps.google.com/?cid=0x0:0x71841cb12ec44b63,
komplek housing,Hotel,RAFA KOST,"28HM+WQ4, Bahoue, Kec. Petasia, Kabupaten Morowali Utara, Sulawesi Tengah 94971","Bahoue, Kec. Petasia, Kabupaten Morowali Utara",SULAWESI TENGAH,94971.0,Indonesia, 082194443001,,,-1.9702483,121.3344596,https://maps.google.com/?cid=0x0:0x373dd5d2147b4e9d,
komplek housing,komplek housing,Rumah kecil,"X874+567, Mondowe, Kec. Petasia Barat, Kabupaten Morowali Utara, Sulawesi Tengah 94971","Mondowe, Kec. Petasia Barat, Kabupaten Morowali Utara",SULAWESI TENGAH,94971.0,Indonesia,,,,-2.0370823,121.3055486,https://maps.google.com/?cid=0x0:0xc9216db6753fde3,
komplek housing,Komplek perumahan,Rumah Kel. Balebu Muya,"X7QV+7RX, Tiu, Kec. Petasia, Kabupaten Morowali Utara, Sulawesi Tengah 94971","Tiu, Kec. Petasia, Kabupaten Morowali Utara",SULAWESI TENGAH,94971.0,Indonesia,,,,-2.0119089,121.294362,https://maps.google.com/?cid=0x0:0xcf8e3d8819cde5df,
komplek housing,Komplek perumahan,Home Roofi,"288Q+VQ2, Bahontula, Kec. Petasia, Kabupaten Morowali, Sulawesi Tengah 94971","Bahontula, Kec. Petasia, Kabupaten Morowali",SULAWESI TENGAH,94971.0,Indonesia,,,,-1.9828536,121.3393942,https://maps.google.com/?cid=0x0:0xa0ac6ddfcb512751,
komplek housing,Komplek perumahan,Kamasean Kost,"X8PM+WG4, Jalur Dua, Korololama, Kec. Petasia, Kabupaten Morowali Utara, Sulawesi Tengah 94971","Jalur Dua, Korololama, Kec. Petasia, Kabupaten Morowali Utara",SULAWESI TENGAH,94971.0,Indonesia, 082292300045,,,-2.0145651,121.3335188,https://maps.google.com/?cid=0x0:0x4790d5264c6148b0,
komplek housing,Komplek perumahan,Rumah MELLY JECO LAWANDI,"289P+F3V, Bahontula, Kec. Petasia, Kabupaten Morowali, Sulawesi Tengah 94971","Bahontula, Kec. Petasia, Kabupaten Morowali",SULAWESI TENGAH,94971.0,Indonesia,,,,-1.9812579,121.3351612,https://maps.google.com/?cid=0x0:0x163e8ea4d808083e,
komplek housing,Komplek perumahan,Matabolo perasia timur Morowali Utara,"W9R8+7QQ, Bunta, Kec. Petasia, Kabupaten Morowali, Sulawesi Tengah 94971","Bunta, Kec. Petasia, Kabupaten Morowali",SULAWESI TENGAH,94971.0,Indonesia,,,,-2.0592965,121.3669941,https://maps.google.com/?cid=0x0:0x5cbae07cf52ef31d,
komplek housing,Komplek perumahan,Lorong Mengkendek,"W9RH+P4W, Bunta, Kec. Petasia, Kabupaten Morowali, Sulawesi Tengah 94971","Bunta, Kec. Petasia, Kabupaten Morowali",SULAWESI TENGAH,94971.0,Indonesia,,,,-2.0581399,121.3778252,https://maps.google.com/?cid=0x0:0xefaa75c7e45effee,
komplek housing,Komplek perumahan,JAKARTA KOST,"X949+H89, Jalan Lorong Trans, Bunta, Petasia Timur, North Morowali Regency, Central Sulawesi","Kabupaten Morowali Utara, Sulawesi Tengah",SULAWESI TENGAH,,Indonesia, 085173099550,,,-2.0435845,121.3683701,https://maps.google.com/?cid=0x0:0xc94c7de96e103a5c,
komplek housing,Komplek perumahan,PANDESIA Homes,"288P+V9R, Bahontula, Kec. Petasia, Kabupaten Morowali Utara, Sulawesi Tengah 94971","Bahontula, Kec. Petasia, Kabupaten Morowali Utara",SULAWESI TENGAH,94971.0,Indonesia,,,,-1.9827561,121.3358878,https://maps.google.com/?cid=0x0:0x8c73cbf712dc2d43,
komplek housing,Komplek perumahan,Kompleks Rumah PU,"28CP+8V7, Bahoue, Kec. Petasia, Kabupaten Morowali Utara, Sulawesi Tengah 94971","Bahoue, Kec. Petasia, Kabupaten Morowali Utara",SULAWESI TENGAH,94971.0,Indonesia,,,,-1.9792169,121.3371574,https://maps.google.com/?cid=0x0:0x9d8296fb26fc317,
komplek housing,komplek housing,rumah arwina mbata,"X7QW+344, Tiu, Kec. Petasia Barat, Kabupaten Morowali Utara, Sulawesi Tengah 94971","Tiu, Kec. Petasia Barat, Kabupaten Morowali Utara",SULAWESI TENGAH,94971.0,Indonesia,,,,-2.0123674,121.2953372,https://maps.google.com/?cid=0x0:0xc0baa46332f39d46,
komplek housing,komplek housing,home alexx,"285H+2WF, Bahontula, Kec. Petasia, Kabupaten Morowali Utara, Sulawesi Tengah 94971","Bahontula, Kec. Petasia, Kabupaten Morowali Utara",SULAWESI TENGAH,94971.0,Indonesia,,,,-1.9924474,121.3297999,https://maps.google.com/?cid=0x0:0x71ceb276ea5e2f3c,
komplek housing,Pembangunan Perumahan,pondok Bharaduta korolama,"X8PP+JF2 pondok bharaduta, Korololama, Kec. Petasia, Kabupaten Morowali, Sulawesi Tengah 94971","Korololama, Kec. Petasia, Kabupaten Morowali",SULAWESI TENGAH,94971.0,Indonesia, 085244735808,,,-2.0134999,121.3361386,https://maps.google.com/?cid=0x0:0x93f2b8b72217a378,
komplek housing,komplek housing,Rumah raffasya,"Perumahan Morita Hills, blok 1 No.14, Kolonodale, Kec. Petasia, Kabupaten Morowali Utara, Sulawesi Tengah 94971","blok 1 No.14, Kolonodale, Kec. Petasia, Kabupaten Morowali Utara",SULAWESI TENGAH,94971.0,Indonesia,,,,-1.9930703,121.332122,https://maps.google.com/?cid=0x0:0x98138f2c32d9d723,
komplek housing,Komplek perumahan,Rumah Gina,"X8MQ+QH4, Jl. Lkr. Luar Kolonodale, Korololama, Kec. Petasia, Kabupaten Morowali Utara, Sulawesi Tengah 94971","Jl. Lkr. Luar Kolonodale, Korololama, Kec. Petasia, Kabupaten Morowali Utara",SULAWESI TENGAH,94971.0,Indonesia,,,,-2.0156406,121.3389325,https://maps.google.com/?cid=0x0:0x5b734ffc6e0921c9,
komplek housing,Pembangunan Perumahan,Perumahan BKP,"X8XG+8X, Korololaki, Kec. Petasia, Kabupaten Morowali, Sulawesi Tengah","Kabupaten Morowali, Sulawesi Tengah",SULAWESI TENGAH,,Indonesia,,,,-2.0017477,121.3274087,https://maps.google.com/?cid=0x0:0x430efa68d6bc572c,
komplek housing,Komplek perumahan,RAGASATRIA KOS,"X8JP+HCC, Korololama, Kec. Petasia, Kabupaten Morowali Utara, Sulawesi Tengah 94971","Korololama, Kec. Petasia, Kabupaten Morowali Utara",SULAWESI TENGAH,94971.0,Indonesia, 085215848324,,,-2.0185713,121.336031,https://maps.google.com/?cid=0x0:0x6eab543387dcb03a,
komplek housing,Penginapan,Kos dan Home Stay FYL GURAD,"287P+J4P, Jl. Gn. Radio, Bahontula, Kec. Petasia, Kabupaten Morowali Utara, Sulawesi Tengah 94971","Jl. Gn. Radio, Bahontula, Kec. Petasia, Kabupaten Morowali Utara",SULAWESI TENGAH,94971.0,Indonesia,,,,-1.9862558,121.3359071,https://maps.google.com/?cid=0x0:0xd720ee79d3b15c96,
komplek housing,Apartemen sewa liburan,KOS FAYO,"Korololama, Kec. Petasia, Kabupaten Morowali, Sulawesi Tengah 94971","Kec. Petasia, Kabupaten Morowali",SULAWESI TENGAH,94971.0,Indonesia, 085342433783,,,-2.0167776,121.3397737,https://maps.google.com/?cid=0x0:0x150159f64cd8d24d,
komplek housing,Komplek perumahan,Fanny Home,"287M+37R, Bahontula, Kec. Petasia, Kabupaten Morowali Utara, Sulawesi Tengah 94971","Bahontula, Kec. Petasia, Kabupaten Morowali Utara",SULAWESI TENGAH,94971.0,Indonesia,,,,-1.9872708,121.3331466,https://maps.google.com/?cid=0x0:0xa1e4ff4ceff80974,
komplek housing,Komplek perumahan,mega‚Äôs home,"287M+37R, Bahontula, Kec. Petasia, Kabupaten Morowali Utara, Sulawesi Tengah 94971","Bahontula, Kec. Petasia, Kabupaten Morowali Utara",SULAWESI TENGAH,94971.0,Indonesia,,,,-1.9875919,121.3333605,https://maps.google.com/?cid=0x0:0x21e1cd1c84d83afa,
komplek housing,komplek housing,Home Mayumi,"28HR+V3G Kuda laut, Bahoue, Kec. Petasia, Kabupaten Morowali Utara, Sulawesi Tengah 94971","Bahoue, Kec. Petasia, Kabupaten Morowali Utara",SULAWESI TENGAH,94971.0,Indonesia,,,,-1.9703038,121.3402096,https://maps.google.com/?cid=0x0:0x4c0cf2d2c1d2a5c9,
komplek housing,komplek housing,KOS,"X978+J48, Bunta, Kec. Petasia Timur, Kabupaten Morowali Utara, Sulawesi Tengah 94971","Bunta, Kec. Petasia Timur, Kabupaten Morowali Utara",SULAWESI TENGAH,94971.0,Indonesia,,,,-2.0359662,121.3653328,https://maps.google.com/?cid=0x0:0x4f4f56a85df4ee2,
komplek housing,Komplek perumahan,Kost,"W9R9+X6M, Bunta, Kec. Petasia Timur, Kabupaten Morowali Utara, Sulawesi Tengah 94971","Bunta, Kec. Petasia Timur, Kabupaten Morowali Utara",SULAWESI TENGAH,94971.0,Indonesia,,,,-2.0581671,121.3681481,https://maps.google.com/?cid=0x0:0x8f818b31de9b70fc,
komplek housing,Komplek perumahan,Lorong kecebong,"W9RF+PFC, Bunta, Kec. Petasia Timur, Kabupaten Morowali Utara, Sulawesi Tengah 94971","Bunta, Kec. Petasia Timur, Kabupaten Morowali Utara",SULAWESI TENGAH,94971.0,Indonesia,,,,-2.0582233,121.3736621,https://maps.google.com/?cid=0x0:0xac5594ff83a0c4d7,
komplek housing,komplek housing,Kec. Petasia Timur,"Kabupaten Morowali Utara, Sulawesi Tengah","Kabupaten Morowali Utara, Sulawesi Tengah",SULAWESI TENGAH,,Indonesia,,,,-2.116671,121.4659893,https://maps.google.com/?cid=0x0:0xd22775cddb1fcbf7,
komplek housing,komplek housing,Perumahan Afdeling OB PT.ANQ,"X98W+JG, Bunta, Kec. Petasia Timur, Kabupaten Morowali Utara, Sulawesi Tengah","Kabupaten Morowali Utara, Sulawesi Tengah",SULAWESI TENGAH,,Indonesia,,,,-2.033488,121.396262,https://maps.google.com/?cid=0x0:0x71841cb12ec44b63,
komplek housing,Pembangunan Perumahan,Ispriawan,"VFP8+8PP, Molino, Kec. Petasia Timur, Kabupaten Morowali Utara, Sulawesi Tengah 94971","Molino, Kec. Petasia Timur, Kabupaten Morowali Utara",SULAWESI TENGAH,94971.0,Indonesia,,,,-2.1141511,121.4668336,https://maps.google.com/?cid=0x0:0x2d591ab3b50349c3,
komplek housing,Komplek perumahan,Matabolo perasia timur Morowali Utara,"W9R8+7QQ, Bunta, Kec. Petasia, Kabupaten Morowali, Sulawesi Tengah 94971","Bunta, Kec. Petasia, Kabupaten Morowali",SULAWESI TENGAH,94971.0,Indonesia,,,,-2.0592965,121.3669941,https://maps.google.com/?cid=0x0:0x5cbae07cf52ef31d,
komplek housing,Guest house,Penginapan  Kost Harapan Kita Tompira,"Jl. Trans Tompira, Tompira, Kec. Petasia Timur, Kabupaten Morowali Utara, Sulawesi Tengah","Kabupaten Morowali Utara, Sulawesi Tengah",SULAWESI TENGAH,,Indonesia, 082299507978,,,-2.0823551,121.3695951,https://maps.google.com/?cid=0x0:0xf291a3c3a55620e5,
komplek housing,komplek housing,KOS JAYATE,"X995+QHV, Bunta, Kec. Petasia Timur, Kabupaten Morowali Utara, Sulawesi Tengah 94971","Bunta, Kec. Petasia Timur, Kabupaten Morowali Utara",SULAWESI TENGAH,94971.0,Indonesia,,,,-2.0312222,121.3598333,https://maps.google.com/?cid=0x0:0xd0fc54c82f8f304,
komplek housing,Toko Pakaian,Perumahan TEKNIK PT ANA,"VFGM+5R8, Molino, Kec. Petasia Timur, Kabupaten Morowali Utara, Sulawesi Tengah 94971","Molino, Kec. Petasia Timur, Kabupaten Morowali Utara",SULAWESI TENGAH,94971.0,Indonesia,,,,-2.1230594,121.4855145,https://maps.google.com/?cid=0x0:0x6f1d5e46266e3fc9,
komplek housing,komplek housing,Home Putry  Naila ( Muli ),"VFM8+CXP, Molino, Kec. Petasia Timur, Kabupaten Morowali Utara, Sulawesi Tengah 94971","Molino, Kec. Petasia Timur, Kabupaten Morowali Utara",SULAWESI TENGAH,94971.0,Indonesia,,,,-2.1157704,121.4671195,https://maps.google.com/?cid=0x0:0x664901b08fed297f,
komplek housing,Pembangunan Perumahan,Tompira ttg,"Jl. Trans Sulawesi, Tompira, Kec. Petasia, Kabupaten Morowali Utara, Sulawesi Tengah 94971","Tompira, Kec. Petasia, Kabupaten Morowali Utara",SULAWESI TENGAH,94971.0,Indonesia,,,,-2.1257824,121.4677751,https://maps.google.com/?cid=0x0:0xef4b6bb255bdf37d,
komplek housing,Komplek perumahan,kos,"WGG3+V4M, Towara, Kec. Petasia Timur, Kabupaten Morowali Utara, Sulawesi Tengah","Kabupaten Morowali Utara, Sulawesi Tengah",SULAWESI TENGAH,,Indonesia,,,,-2.0727924,121.502797,https://maps.google.com/?cid=0x0:0xf6c0a93da8cf9665,
komplek housing,Apartemen sewa liburan,Kos CAHAYA PINRANG,"X9JR+5Q4, Korololama, Kec. Petasia, Kabupaten Morowali Utara, Sulawesi Tengah 94971","Korololama, Kec. Petasia, Kabupaten Morowali Utara",SULAWESI TENGAH,94971.0,Indonesia, 082295410070,,,-2.0196076,121.3919557,https://maps.google.com/?cid=0x0:0x4dab7bcd449c3278,
komplek housing,Apartemen sewa liburan,KOS NAYYARA,"WCH8+7WH, Jl. Trans Sulawesi, Tompira, Kec. Petasia Timur, Kabupaten Morowali Utara, Sulawesi Tengah","Kabupaten Morowali Utara, Sulawesi Tengah",SULAWESI TENGAH,,Indonesia,,,,-2.0718113,121.4173749,https://maps.google.com/?cid=0x0:0xe2c6ccf9b01cf2b7,
komplek housing,Komplek perumahan,JAKARTA KOST,"X949+H89, Jalan Lorong Trans, Bunta, Petasia Timur, North Morowali Regency, Central Sulawesi","Kabupaten Morowali Utara, Sulawesi Tengah",SULAWESI TENGAH,,Indonesia, 085173099550,,,-2.0435845,121.3683701,https://maps.google.com/?cid=0x0:0xc94c7de96e103a5c,
komplek housing,Komplek perumahan,Lorong Mengkendek,"W9RH+P4W, Bunta, Kec. Petasia, Kabupaten Morowali, Sulawesi Tengah 94971","Bunta, Kec. Petasia, Kabupaten Morowali",SULAWESI TENGAH,94971.0,Indonesia,,,,-2.0581399,121.3778252,https://maps.google.com/?cid=0x0:0xefaa75c7e45effee,
komplek housing,Rumah wisata,KOST AMIRA Lrg. Polsek Petasia Timur,"WCC9+8R5, Bungintimbe, Kec. Petasia Timur, Kabupaten Morowali Utara, Sulawesi Tengah","Kabupaten Morowali Utara, Sulawesi Tengah",SULAWESI TENGAH,,Indonesia,,,,-2.0792278,121.4196043,https://maps.google.com/?cid=0x0:0x28c6e4928bb5d919,
komplek housing,komplek housing,KOS,"X978+J48, Bunta, Kec. Petasia Timur, Kabupaten Morowali Utara, Sulawesi Tengah 94971","Bunta, Kec. Petasia Timur, Kabupaten Morowali Utara",SULAWESI TENGAH,94971.0,Indonesia,,,,-2.0359662,121.3653328,https://maps.google.com/?cid=0x0:0x4f4f56a85df4ee2,
komplek housing,Komplek perumahan,Rumah Wais,"WCFW+XFJ, Jl. Trans Sulawesi, Bungintimbe, Kec. Petasia, Kabupaten Morowali Utara, Sulawesi Tengah 94971","Jl. Trans Sulawesi, Bungintimbe, Kec. Petasia, Kabupaten Morowali Utara",SULAWESI TENGAH,94971.0,Indonesia,,,,-2.0749785,121.4460879,https://maps.google.com/?cid=0x0:0xb4058c3cec461c94,
komplek housing,Komplek perumahan,Molores,"RGQ2+HCV, Molores, Kec. Petasia, Kabupaten Morowali, Sulawesi Tengah 94971","Molores, Kec. Petasia, Kabupaten Morowali",SULAWESI TENGAH,94971.0,Indonesia, 082235938483,,,-2.161008,121.5010579,https://maps.google.com/?cid=0x0:0x1f811e2bdb39752a,
komplek housing,Komplek perumahan,Perumhn afdeling juliet,"VFGM+5XM, Molino, Kec. Petasia Timur, Kabupaten Morowali Utara, Sulawesi Tengah 94971","Molino, Kec. Petasia Timur, Kabupaten Morowali Utara",SULAWESI TENGAH,94971.0,Indonesia,,,,-2.12453,121.4849362,https://maps.google.com/?cid=0x0:0x4ecb5c21d94b4c1b,
komplek housing,Komplek perumahan,Perumahan Afd. Alfa PT ANA,"WCHF+H35, Bungintimbe, Kec. Petasia, Kabupaten Morowali Utara, Sulawesi Tengah 94971","Bungintimbe, Kec. Petasia, Kabupaten Morowali Utara",SULAWESI TENGAH,94971.0,Indonesia,,,,-2.0712317,121.4231508,https://maps.google.com/?cid=0x0:0xc0a90e4007137ca8,
komplek housing,Komplek perumahan,Asti House,"W9FQ+V94, Tompira, Kec. Petasia Timur, Kabupaten Morowali, Sulawesi Tengah 94971","Tompira, Kec. Petasia Timur, Kabupaten Morowali",SULAWESI TENGAH,94971.0,Indonesia,,,,-2.0753645,121.3884671,https://maps.google.com/?cid=0x0:0x3640117cb8c4f12,
komplek housing,Pembangunan Perumahan,Rumah saya,"W9JP+79Q, Tompira, Kec. Petasia Timur, Kabupaten Morowali Utara, Sulawesi Tengah 94971","Tompira, Kec. Petasia Timur, Kabupaten Morowali Utara",SULAWESI TENGAH,94971.0,Indonesia,,,,-2.0692475,121.3859917,https://maps.google.com/?cid=0x0:0x427d1429e16f1485,
komplek housing,Kantor Perusahaan,Mess TDJ,"VFP7+8XM, Molino, Kec. Petasia Timur, Kabupaten Morowali Utara, Sulawesi Tengah 94971","Molino, Kec. Petasia Timur, Kabupaten Morowali Utara",SULAWESI TENGAH,94971.0,Indonesia,,,,-2.1134883,121.4654867,https://maps.google.com/?cid=0x0:0xb8e98befc40d4a8e,
komplek housing,,Rumah kita,"W9HQ+9H6, Tompira, Kec. Petasia Timur, Kabupaten Morowali Utara, Sulawesi Tengah 94971","Tompira, Kec. Petasia Timur, Kabupaten Morowali Utara",SULAWESI TENGAH,94971.0,Indonesia,,,,-2.0715771,121.3888916,https://maps.google.com/?cid=0x0:0xa1efdc0f0964b1bd,
komplek housing,Komplek perumahan,Kost,"W9R9+X6M, Bunta, Kec. Petasia Timur, Kabupaten Morowali Utara, Sulawesi Tengah 94971","Bunta, Kec. Petasia Timur, Kabupaten Morowali Utara",SULAWESI TENGAH,94971.0,Indonesia,,,,-2.0581671,121.3681481,https://maps.google.com/?cid=0x0:0x8f818b31de9b70fc,
komplek housing,komplek housing,Kost,"W9CM+734, Tompira, Kec. Petasia Timur, Kabupaten Morowali Utara, Sulawesi Tengah 94971","Tompira, Kec. Petasia Timur, Kabupaten Morowali Utara",SULAWESI TENGAH,94971.0,Indonesia,,,,-2.0793725,121.38269,https://maps.google.com/?cid=0x0:0xcde15d224102198b,
komplek housing,Komplek perumahan,KOS HIDAYAT,"W98F+RWP, Tompira, Kec. Petasia Timur, Kabupaten Morowali Utara, Sulawesi Tengah 94971","Tompira, Kec. Petasia Timur, Kabupaten Morowali Utara",SULAWESI TENGAH,94971.0,Indonesia,,,,-2.0829125,121.3748281,https://maps.google.com/?cid=0x0:0xb1546383877e5fd,
komplek housing,Komplek perumahan,RAGASATRIA KOS,"X8JP+HCC, Korololama, Kec. Petasia, Kabupaten Morowali Utara, Sulawesi Tengah 94971","Korololama, Kec. Petasia, Kabupaten Morowali Utara",SULAWESI TENGAH,94971.0,Indonesia, 085215848324,,,-2.0185713,121.336031,https://maps.google.com/?cid=0x0:0x6eab543387dcb03a,
komplek housing,Komplek perumahan,Lorong krluarga,"W9VC+944 dusun 3 matabolo, Bunta, Kec. Petasia Timur, Kabupaten Morowali Utara, Sulawesi Tengah 94971","Bunta, Kec. Petasia Timur, Kabupaten Morowali Utara",SULAWESI TENGAH,94971.0,Indonesia,,,,-2.0566248,121.3703381,https://maps.google.com/?cid=0x0:0x23091b9b57141b7b,
komplek housing,komplek housing,Sulawesi Tengah 94971,"Kabupaten Morowali, Sulawesi Tengah","Kabupaten Morowali, Sulawesi Tengah",SULAWESI TENGAH,,Indonesia,,,,-1.8683068,121.2168466,https://maps.google.com/?cid=0x0:0x200eae1003365f6b,
komplek housing,komplek housing,One CeryA,"Jl. Kampung Damai, Eppe, Korololama, Kec. Petasia, Kabupaten Morowali Utara, Sulawesi Tengah 94971","Eppe, Korololama, Kec. Petasia, Kabupaten Morowali Utara",SULAWESI TENGAH,94971.0,Indonesia,,,,-2.0216875,121.3370625,https://maps.google.com/?cid=0x0:0xf595e2fa1ec6fc6f,
komplek housing,Komplek perumahan,Rumah pak sariah,"95Q6+Q8M, Malino Jaya, Kec. Soyo Jaya, Kabupaten Morowali Utara, Sulawesi Tengah 94971","Malino Jaya, Kec. Soyo Jaya, Kabupaten Morowali Utara",SULAWESI TENGAH,94971.0,Indonesia,,,,-1.6105818,121.1608251,https://maps.google.com/?cid=0x0:0x7d34674be8285517,
komplek housing,Pembangunan Perumahan,KOMPLEK JALDU,"284J+W55, Kolonodale, Kec. Petasia, Kabupaten Morowali Utara, Sulawesi Tengah 94971","Kolonodale, Kec. Petasia, Kabupaten Morowali Utara",SULAWESI TENGAH,94971.0,Indonesia,,,,-1.9927383,121.3304942,https://maps.google.com/?cid=0x0:0xe37b4ef7ed594893,
komplek housing,komplek housing,Home Mayumi,"28HR+V3G Kuda laut, Bahoue, Kec. Petasia, Kabupaten Morowali Utara, Sulawesi Tengah 94971","Bahoue, Kec. Petasia, Kabupaten Morowali Utara",SULAWESI TENGAH,94971.0,Indonesia,,,,-1.9703038,121.3402096,https://maps.google.com/?cid=0x0:0x4c0cf2d2c1d2a5c9,
komplek housing,Penginapan,Kos dan Home Stay FYL GURAD,"287P+J4P, Jl. Gn. Radio, Bahontula, Kec. Petasia, Kabupaten Morowali Utara, Sulawesi Tengah 94971","Jl. Gn. Radio, Bahontula, Kec. Petasia, Kabupaten Morowali Utara",SULAWESI TENGAH,94971.0,Indonesia,,,,-1.9862558,121.3359071,https://maps.google.com/?cid=0x0:0xd720ee79d3b15c96,
komplek housing,Komplek perumahan,Rumah MELLY JECO LAWANDI,"289P+F3V, Bahontula, Kec. Petasia, Kabupaten Morowali, Sulawesi Tengah 94971","Bahontula, Kec. Petasia, Kabupaten Morowali",SULAWESI TENGAH,94971.0,Indonesia,,,,-1.9812579,121.3351612,https://maps.google.com/?cid=0x0:0x163e8ea4d808083e,
komplek housing,Balai masyarakat,Desa Tadaku Jaya,"X77R+H92, Mondowe, Kec. Petasia Barat, Kabupaten Morowali Utara, Sulawesi Tengah 94971","Mondowe, Kec. Petasia Barat, Kabupaten Morowali Utara",SULAWESI TENGAH,94971.0,Indonesia,,,,-2.0361116,121.2908985,https://maps.google.com/?cid=0x0:0x8afe8a79c8546ef0,
komplek housing,Komplek perumahan,Rumah Alm.SUWONO,"787F+9G, Tambayoli, Kec. Soyo Jaya, Kabupaten Morowali, Sulawesi Tengah","Kabupaten Morowali, Sulawesi Tengah",SULAWESI TENGAH,,Indonesia,,,,-1.7355127,121.3234282,https://maps.google.com/?cid=0x0:0xf7800f6598db6b90,
komplek housing,Komplek perumahan,Rumah sekdes Panca Makmur,"845W+QR, Panca Makmur, Kec. Soyo Jaya, Kabupaten Morowali, Sulawesi Tengah 94971","Panca Makmur, Kec. Soyo Jaya, Kabupaten Morowali",SULAWESI TENGAH,94971.0,Indonesia,,,,-1.6906277,121.1470212,https://maps.google.com/?cid=0x0:0xe920a98454c6d351,
komplek housing,Komplek perumahan,Jonatan Ji,"X997+78J, Bunta, Kec. Petasia Timur, Kabupaten Morowali Utara, Sulawesi Tengah 94971","Bunta, Kec. Petasia Timur, Kabupaten Morowali Utara",SULAWESI TENGAH,94971.0,Indonesia,,,,-2.0317785,121.3632523,https://maps.google.com/?cid=0x0:0x22439e40e3a911f8,
komplek housing,Komplek perumahan,Tabayoli,"787G+2C6, Tambayoli, Kec. Soyo Jaya, Kabupaten Morowali Utara, Sulawesi Tengah 94971","Tambayoli, Kec. Soyo Jaya, Kabupaten Morowali Utara",SULAWESI TENGAH,94971.0,Indonesia,,,,-1.7374631,121.3260176,https://maps.google.com/?cid=0x0:0x45ec19533e010aa2,
komplek housing,komplek housing,Perumahan Afdeling OB PT.ANQ,"X98W+JG, Bunta, Kec. Petasia Timur, Kabupaten Morowali Utara, Sulawesi Tengah","Kabupaten Morowali Utara, Sulawesi Tengah",SULAWESI TENGAH,,Indonesia,,,,-2.033488,121.396262,https://maps.google.com/?cid=0x0:0x71841cb12ec44b63,
komplek housing,Komplek perumahan,Usman  Keluarga,"67MW+72J, Ganda Ganda, Kec. Soyo Jaya, Kabupaten Morowali Utara, Sulawesi Tengah","Kabupaten Morowali Utara, Sulawesi Tengah",SULAWESI TENGAH,,Indonesia,,,,-1.7667994,121.2950227,https://maps.google.com/?cid=0x0:0xfc133bfd55364c8c,
komplek housing,Komplek perumahan,Rumah Rahmat Hidayat,"78H6+4R8, Lembah Sumara, Kec. Soyo Jaya, Kabupaten Morowali, Sulawesi Tengah 94971","Lembah Sumara, Kec. Soyo Jaya, Kabupaten Morowali",SULAWESI TENGAH,94971.0,Indonesia,,,,-1.7222247,121.312067,https://maps.google.com/?cid=0x0:0x4227768dcefad259,
komplek housing,Komplek perumahan,rumah JoCe,"287M+783, Bahontula, Kec. Petasia, Kabupaten Morowali Utara, Sulawesi Tengah 94971","Bahontula, Kec. Petasia, Kabupaten Morowali Utara",SULAWESI TENGAH,94971.0,Indonesia,,,,-1.9868547,121.3333015,https://maps.google.com/?cid=0x0:0x1e28c460a517a158,
komplek housing,Komplek perumahan,Usaha beton Mbah Surip sumara jaya,"87RF+WJW, Sumara Jaya, Kec. Soyo Jaya, Kabupaten Morowali Utara, Sulawesi Tengah 94971","Sumara Jaya, Kec. Soyo Jaya, Kabupaten Morowali Utara",SULAWESI TENGAH,94971.0,Indonesia,,,,-1.6576298,121.2740813,https://maps.google.com/?cid=0x0:0x926a7fc103d3d297,
komplek housing,Komplek perumahan,Perumnas 76,"285Q+9GG, Jl. Tinumbu, Kolonodale, Kec. Petasia, Kabupaten Morowali Utara, Sulawesi Tengah 94971","Jl. Tinumbu, Kolonodale, Kec. Petasia, Kabupaten Morowali Utara",SULAWESI TENGAH,94971.0,Indonesia, 085395333095,,,-1.9915601,121.3388322,https://maps.google.com/?cid=0x0:0x8ddaa9234ffc1ae9,
komplek housing,Komplek perumahan,Rumah Aldion,"X7QW+8CM, Tiu, Kec. Petasia, Kabupaten Morowali Utara, Sulawesi Tengah 94971","Tiu, Kec. Petasia, Kabupaten Morowali Utara",SULAWESI TENGAH,94971.0,Indonesia,,,,-2.012482,121.2961331,https://maps.google.com/?cid=0x0:0xf34f65565d3ec682,
komplek housing,Hotel,RAFA KOST,"28HM+WQ4, Bahoue, Kec. Petasia, Kabupaten Morowali Utara, Sulawesi Tengah 94971","Bahoue, Kec. Petasia, Kabupaten Morowali Utara",SULAWESI TENGAH,94971.0,Indonesia, 082194443001,,,-1.9702483,121.3344596,https://maps.google.com/?cid=0x0:0x373dd5d2147b4e9d,
komplek housing,Komplek perumahan,Home Roofi,"288Q+VQ2, Bahontula, Kec. Petasia, Kabupaten Morowali, Sulawesi Tengah 94971","Bahontula, Kec. Petasia, Kabupaten Morowali",SULAWESI TENGAH,94971.0,Indonesia,,,,-1.9828536,121.3393942,https://maps.google.com/?cid=0x0:0xa0ac6ddfcb512751,
komplek housing,Komplek perumahan,Kamasean Kost,"X8PM+WG4, Jalur Dua, Korololama, Kec. Petasia, Kabupaten Morowali Utara, Sulawesi Tengah 94971","Jalur Dua, Korololama, Kec. Petasia, Kabupaten Morowali Utara",SULAWESI TENGAH,94971.0,Indonesia, 082292300045,,,-2.0145651,121.3335188,https://maps.google.com/?cid=0x0:0x4790d5264c6148b0,
komplek housing,Komplek perumahan,Rumah surya alvarez,"94RP+3M7, Malino Jaya, Kec. Soyo Jaya, Kabupaten Morowali Utara, Sulawesi Tengah","Kabupaten Morowali Utara, Sulawesi Tengah",SULAWESI TENGAH,,Indonesia,,,,-1.6098486,121.1366715,https://maps.google.com/?cid=0x0:0x86e6808cc7aa9cd1,
komplek housing,Komplek perumahan,Ibu Cici,"87MM+JH, Sumara Jaya, Kec. Soyo Jaya, Kabupaten Morowali Utara, Sulawesi Tengah","Kabupaten Morowali Utara, Sulawesi Tengah",SULAWESI TENGAH,,Indonesia,,,,-1.6658069,121.283934,https://maps.google.com/?cid=0x0:0xb00349327067d1a1,
komplek housing,Komplek perumahan,Rumah Kel. Tamangga Pokote,"X7QV+XF, Tiu, Kec. Petasia Barat, Kabupaten Morowali Utara, Sulawesi Tengah","Kabupaten Morowali Utara, Sulawesi Tengah",SULAWESI TENGAH,,Indonesia,,,,-2.0100119,121.2936605,https://maps.google.com/?cid=0x0:0x47b495467c8d14a,
komplek housing,komplek housing,Kec. Soyo Jaya,"Kabupaten Morowali Utara, Sulawesi Tengah","Kabupaten Morowali Utara, Sulawesi Tengah",SULAWESI TENGAH,,Indonesia,,,,-1.7262628,121.3051827,https://maps.google.com/?cid=0x0:0xfaf52fc57858629f,
komplek housing,Komplek perumahan,Calo motor,"846W+F9R, Panca Makmur, Kec. Soyo Jaya, Kabupaten Morowali, Sulawesi Tengah 94971","Panca Makmur, Kec. Soyo Jaya, Kabupaten Morowali",SULAWESI TENGAH,94971.0,Indonesia,,,,-1.688744,121.1458565,https://maps.google.com/?cid=0x0:0xee2dde6e4e70526c,
perumahan,perumahan,Sulawesi Tengah 94972,"Kabupaten Morowali Utara, Sulawesi Tengah","Kabupaten Morowali Utara, Sulawesi Tengah",SULAWESI TENGAH,,Indonesia,,,,-1.6248083,121.7195459,https://maps.google.com/?cid=0x0:0xe9e478f27d681886,
perumahan,Komplek perumahan,rumah anca,"7RC4+2FG, Siliti, Kec. Bungku Utara, Kabupaten Morowali Utara, Sulawesi Tengah 94972","Siliti, Kec. Bungku Utara, Kabupaten Morowali Utara",SULAWESI TENGAH,94972.0,Indonesia,,,,-1.7298263,121.8067828,https://maps.google.com/?cid=0x0:0x75aa65c8456f4282,
perumahan,Pembangunan Perumahan,"Sulteng, morowali utara, petasia timur poranda, bungintimbe","HC9W+59H, Taronggo, Kec. Bungku Utara, Kabupaten Morowali Utara, Sulawesi Tengah","Kabupaten Morowali Utara, Sulawesi Tengah",SULAWESI TENGAH,,Indonesia, 082171124485,,,-1.4320653,121.4459985,https://maps.google.com/?cid=0x0:0xd66516c8e4a80915,
perumahan,Komplek perumahan,Rumah Wayan landra,"6PQ5+W7Q, Tambarobone, Kec. Bungku Utara, Kabupaten Morowali Utara, Sulawesi Tengah 94972","Tambarobone, Kec. Bungku Utara, Kabupaten Morowali Utara",SULAWESI TENGAH,94972.0,Indonesia,,,,-1.7601336,121.7076499,https://maps.google.com/?cid=0x0:0x68ad98e07bba3f56,
perumahan,Pembangunan Perumahan,Perumahan Trans,"6P7P+6MC, Tokala Atas, Kec. Bungku Utara, Kabupaten Morowali, Sulawesi Tengah","Kabupaten Morowali, Sulawesi Tengah",SULAWESI TENGAH,,Indonesia,,,,-1.7869405,121.7366444,https://maps.google.com/?cid=0x0:0x116eb913f1a5c2dd,
perumahan,perumahan,Rumah murtia,"HC9W+X6Q, Jalan trans tirtasari, Taronggo, Kec. Bungku Utara, Kabupaten Morowali Utara, Sulawesi Tengah","Kabupaten Morowali Utara, Sulawesi Tengah",SULAWESI TENGAH,,Indonesia,,,,-1.4300254,121.4456179,https://maps.google.com/?cid=0x0:0xb2cf40a3d9cce86b,
perumahan,Komplek perumahan,Lorong,"7Q55+F75, Tirongan Atas, Kec. Bungku Utara, Kabupaten Morowali Utara, Sulawesi Tengah","Kabupaten Morowali Utara, Sulawesi Tengah",SULAWESI TENGAH,,Indonesia,,,,-1.7416905,121.7575755,https://maps.google.com/?cid=0x0:0x5fdef3c09719ec61,
perumahan,Perhimpunan Pengembang Perumahan,Bungku,"HC9W+X6Q, Taronggo, Kec. Bungku Utara, Kabupaten Morowali Utara, Sulawesi Tengah","Kabupaten Morowali Utara, Sulawesi Tengah",SULAWESI TENGAH,,Indonesia,,,,-1.4300254,121.4456179,https://maps.google.com/?cid=0x0:0x35b5f7b29b2fc7f5,
perumahan,Kantor Pemerintah,DESA UERURU,"8QCV+XCQ, Ueruru, Kec. Bungku Utara, Kabupaten Morowali, Sulawesi Tengah","Kabupaten Morowali, Sulawesi Tengah",SULAWESI TENGAH,,Indonesia,,,,-1.6775413,121.7936207,https://maps.google.com/?cid=0x0:0x40e4ea7b3c0a7092,
perumahan,Komplek perumahan,kabinuang,"HC9W+X6Q, Taronggo, Kec. Bungku Utara, Kabupaten Morowali Utara, Sulawesi Tengah","Kabupaten Morowali Utara, Sulawesi Tengah",SULAWESI TENGAH,,Indonesia,,,,-1.4300254,121.4456179,https://maps.google.com/?cid=0x0:0x868e9a4909bf35ae,
perumahan,Komplek perumahan,Rumah nenek,"6P6R+GH, Tokala Atas, Kec. Bungku Utara, Kabupaten Morowali, Sulawesi Tengah 94972","Tokala Atas, Kec. Bungku Utara, Kabupaten Morowali",SULAWESI TENGAH,94972.0,Indonesia,,,,-1.7885932,121.7414036,https://maps.google.com/?cid=0x0:0xee7d906132cc89a5,
perumahan,Komplek perumahan,Bunta,"HC9W+X6Q, Taronggo, Kec. Bungku Utara, Kabupaten Morowali Utara, Sulawesi Tengah","Kabupaten Morowali Utara, Sulawesi Tengah",SULAWESI TENGAH,,Indonesia,,,,-1.4300254,121.4456179,https://maps.google.com/?cid=0x0:0xd7942c665bcdfcc0,
perumahan,Komplek perumahan,Rumah Marta,"7QG8+54H, Opo, Kec. Bungku Utara, Kabupaten Morowali Utara, Sulawesi Tengah 94972","Opo, Kec. Bungku Utara, Kabupaten Morowali Utara",SULAWESI TENGAH,94972.0,Indonesia,,,,-1.7245659,121.7653745,https://maps.google.com/?cid=0x0:0x4f6a7cc8f2774914,
perumahan,Perhimpunan Pengembang Perumahan,Sambulangan,"HC9W+X6Q, Taronggo, Kec. Bungku Utara, Kabupaten Morowali Utara, Sulawesi Tengah","Kabupaten Morowali Utara, Sulawesi Tengah",SULAWESI TENGAH,,Indonesia,,,,-1.4300254,121.4456179,https://maps.google.com/?cid=0x0:0x9948025d7e91c9f7,
perumahan,perumahan,Watusongu,"HC9W+X6Q, Taronggo, Kec. Bungku Utara, Kabupaten Morowali Utara, Sulawesi Tengah","Kabupaten Morowali Utara, Sulawesi Tengah",SULAWESI TENGAH,,Indonesia,,,,-1.4300254,121.4456179,https://maps.google.com/?cid=0x0:0x8f91955b2cbe16cd,
perumahan,,Waldi,"6Q8R+P49, Uewajo, Kec. Bungku Utara, Kabupaten Morowali Utara, Sulawesi Tengah 94972","Uewajo, Kec. Bungku Utara, Kabupaten Morowali Utara",SULAWESI TENGAH,94972.0,Indonesia,,,,-1.7832036,121.7903594,https://maps.google.com/?cid=0x0:0xf69b2e2a37212ade,
perumahan,perumahan,Rumah Andika,"7RC3+6Q, Siliti, Kec. Bungku Utara, Kabupaten Morowali Utara, Sulawesi Tengah","Kabupaten Morowali Utara, Sulawesi Tengah",SULAWESI TENGAH,,Indonesia,,,,-1.7293813,121.8044751,https://maps.google.com/?cid=0x0:0x72ad19936c232d84,
perumahan,Komplek perumahan,Rumah Ece Baturube,"6QMV+MF6, Tirongan Bawah, Kec. Bungku Utara, Kabupaten Morowali Utara, Sulawesi Tengah 94972","Tirongan Bawah, Kec. Bungku Utara, Kabupaten Morowali Utara",SULAWESI TENGAH,94972.0,Indonesia,,,,-1.7658297,121.7936379,https://maps.google.com/?cid=0x0:0xf8acc6d4651f59f3,
perumahan,Pembangunan Perumahan,Wandi kntl,"9W3J+C34, Giri Mulya, Kec. Mamosalato, Kabupaten Morowali Utara, Sulawesi Tengah","Kabupaten Morowali Utara, Sulawesi Tengah",SULAWESI TENGAH,,Indonesia,,,,-1.6463376,121.928784,https://maps.google.com/?cid=0x0:0xd8530b006dec204f,
perumahan,Komplek perumahan,Aqsa Home,"Jln Tinumbu No.Rt 02, Dusun Ini, Siliti, Kec. Bungku Utara, Kabupaten Morowali Utara, Sulawesi Tengah 94972","Dusun Ini, Siliti, Kec. Bungku Utara, Kabupaten Morowali Utara",SULAWESI TENGAH,94972.0,Indonesia,,,,-1.7285542,121.8074229,https://maps.google.com/?cid=0x0:0xe7b688dec4a4f6b6,
perumahan,,Rumah RANGGA,"6QRW+8F, Tirongan Bawah, Kec. Bungku Utara, Kabupaten Morowali Utara, Sulawesi Tengah","Kabupaten Morowali Utara, Sulawesi Tengah",SULAWESI TENGAH,,Indonesia,,,,-1.7592315,121.7961284,https://maps.google.com/?cid=0x0:0xe8049cdb648ffbbb,
perumahan,Gereja Kristen,Rumah Pastori GKST Petra Baturube,"6QHV+8GR, Baturube, Kec. Bungku Utara, Kabupaten Morowali Utara, Sulawesi Tengah 94972","Baturube, Kec. Bungku Utara, Kabupaten Morowali Utara",SULAWESI TENGAH,94972.0,Indonesia,,,,-1.7716535,121.7939101,https://maps.google.com/?cid=0x0:0x7bc80a24e8cf1d30,
perumahan,Komplek perumahan,Rumah Alim,"6QPV+6WM, Tirongan Bawah, Kec. Bungku Utara, Kabupaten Morowali Utara, Sulawesi Tengah 94972","Tirongan Bawah, Kec. Bungku Utara, Kabupaten Morowali Utara",SULAWESI TENGAH,94972.0,Indonesia,,,,-1.7644014,121.7947944,https://maps.google.com/?cid=0x0:0x408834cdf7aede50,
perumahan,perumahan,Kec. Lembo,"Kabupaten Konawe Utara, Sulawesi Tenggara","Kabupaten Konawe Utara, Sulawesi Tenggara",SULAWESI TENGAH,,Indonesia,,,,-3.752099,122.3401906,https://maps.google.com/?cid=0x0:0x279ea38939c035e8,
perumahan,Kios,Home seli,"68MX+PMC, Jl. Poros Bungku Sel. - Kendari, Lembo, Kec. Lembo, Kabupaten Konawe Utara, Sulawesi Tenggara 93461","Jl. Poros Bungku Sel. - Kendari, Lembo, Kec. Lembo, Kabupaten Konawe Utara",SULAWESI TENGAH,93461.0,Indonesia,,,,-3.7657109,122.3500063,https://maps.google.com/?cid=0x0:0xb56b8e9fc50743f0,
perumahan,Komplek perumahan,Home ARIF,"68XM+HQ4, Padaleu, Kec. Lembo, Kabupaten Konawe Utara, Sulawesi Tenggara 93352","Padaleu, Kec. Lembo, Kabupaten Konawe Utara",SULAWESI TENGAH,93352.0,Indonesia,,,,-3.7511232,122.3344652,https://maps.google.com/?cid=0x0:0x8407e770e0672a9f,
perumahan,Pembangunan Perumahan,kali,"672M+5V, Padaleu, Kec. Lembo, Kabupaten Konawe Utara, Sulawesi Tenggara","Kabupaten Konawe Utara, Sulawesi Tenggara",SULAWESI TENGAH,,Indonesia,,,,-3.7995839,122.2847196,https://maps.google.com/?cid=0x0:0xe593d114e9bc5b0a,
perumahan,Kantor Pemerintah,Desa laramo,"68XM+GGX, Ds, Laramo, Kec. Lembo, Kabupaten Konawe Utara","Kabupaten Konawe Utara, Sulawesi Tenggara",SULAWESI TENGAH,,Indonesia,,,,-3.751141,122.333863,https://maps.google.com/?cid=0x0:0xe923196a015ec8b1,
perumahan,Perhimpunan Pengembang Perumahan,PUULEMO LEMBO,"Jl. Poros Bungku Sel. - Kendari No.27, Padaleu, Kec. Lembo, Kabupaten Konawe Utara, Sulawesi Tenggara 93352","Padaleu, Kec. Lembo, Kabupaten Konawe Utara",SULAWESI TENGAH,93352.0,Indonesia,,,,-3.7512719,122.334876,https://maps.google.com/?cid=0x0:0x96bff82004ccc8e3,
perumahan,Pembangunan Perumahan,Dody,"Jl. Poros Bungku Sel. - Kendari No.16, Puulemo, Kec. Lembo, Kabupaten Konawe Utara, Sulawesi Tenggara 93561","Puulemo, Kec. Lembo, Kabupaten Konawe Utara",SULAWESI TENGAH,93561.0,Indonesia,,,,-3.746244,122.3252979,https://maps.google.com/?cid=0x0:0x4cf7bfe8f5901648,
perumahan,Pembangunan Perumahan,Kabupaten Konawe Utara,"68PV+RHR, Lembo, Kec. Lembo, Kabupaten Konawe Utara, Sulawesi Tenggara","Kabupaten Konawe Utara, Sulawesi Tenggara",SULAWESI TENGAH,,Indonesia,,,,-3.7628784,122.3438757,https://maps.google.com/?cid=0x0:0xac0f4be661a5324e,
perumahan,Komplek perumahan,RUMAH PAK SUKI,"68QV+FGJ, Lembo, Kec. Lembo, Kabupaten Konawe Utara, Sulawesi Tenggara","Kabupaten Konawe Utara, Sulawesi Tenggara",SULAWESI TENGAH,,Indonesia,,,,-3.7612959,122.3437759,https://maps.google.com/?cid=0x0:0x7b72fa2e647f5346,
perumahan,Komplek perumahan,Rumah syukur hidayat,"783F+J8, Puulemo, Kec. Lembo, Kabupaten Konawe Utara, Sulawesi Tenggara","Kabupaten Konawe Utara, Sulawesi Tenggara",SULAWESI TENGAH,,Indonesia,,,,-3.7467509,122.3244723,https://maps.google.com/?cid=0x0:0x381c0b98d6094a31,
perumahan,Komplek perumahan,Rumah padin,"68QR+XRQ, Lembo, Kec. Lembo, Kabupaten Konawe Utara, Sulawesi Tenggara 93352","Lembo, Kec. Lembo, Kabupaten Konawe Utara",SULAWESI TENGAH,93352.0,Indonesia,,,,-3.7603975,122.3421692,https://maps.google.com/?cid=0x0:0xf2494106f4576152,
perumahan,perumahan,Rumah Tantri/Nais,"784F+5CP, Jl. Poros Bungku Sel. - Kendari, Alo-Alo, Kec. Lembo, Kabupaten Konawe Utara, Sulawesi Tenggara 93561","Jl. Poros Bungku Sel. - Kendari, Alo-Alo, Kec. Lembo, Kabupaten Konawe Utara",SULAWESI TENGAH,93561.0,Indonesia,,,,-3.7444943,122.3236237,https://maps.google.com/?cid=0x0:0x3399c237df60caf1,
perumahan,Komplek perumahan,Rumah Indira,"68C5+W53, Padaleu, Kec. Lembo, Kabupaten Konawe Utara, Sulawesi Tenggara 93352","Padaleu, Kec. Lembo, Kabupaten Konawe Utara",SULAWESI TENGAH,93352.0,Indonesia,,,,-3.7777259,122.307917,https://maps.google.com/?cid=0x0:0x51295aac06f8d2db,
perumahan,Komplek perumahan,R.Agus Dede,"69PX+XF3, Puupi, Kec. Lembo, Kabupaten Konawe Utara, Sulawesi Tenggara 93352","Puupi, Kec. Lembo, Kabupaten Konawe Utara",SULAWESI TENGAH,93352.0,Indonesia,,,,-3.7626166,122.3986696,https://maps.google.com/?cid=0x0:0xb0067d196f0d2b28,
perumahan,Komplek perumahan,Home armis,"Jl. Poros Bungku Sel. - Kendari No.27, Padaleu, Kec. Lembo, Kabupaten Konawe Utara, Sulawesi Tenggara 93352","Padaleu, Kec. Lembo, Kabupaten Konawe Utara",SULAWESI TENGAH,93352.0,Indonesia,,,,-3.7509346,122.3327077,https://maps.google.com/?cid=0x0:0x8087b0d577a0b319,
perumahan,perumahan,rumah iman,"68PW+76P, Lembo, Kec. Lembo, Kabupaten Konawe Utara, Sulawesi Tenggara 93461","Lembo, Kec. Lembo, Kabupaten Konawe Utara",SULAWESI TENGAH,93461.0,Indonesia,,,,-3.764254,122.3455266,https://maps.google.com/?cid=0x0:0xe123d2cfd7800995,
perumahan,Komplek perumahan,Rumah ALAN KADRI,"783F+J8, Puulemo, Kec. Lembo, Kabupaten Konawe Utara, Sulawesi Tenggara","Kabupaten Konawe Utara, Sulawesi Tenggara",SULAWESI TENGAH,,Indonesia,,,,-3.7458887,122.3235047,https://maps.google.com/?cid=0x0:0x5e5a513beeee0239,
perumahan,,Rumah Mitaa,"784F+6H9, Puulemo, Kec. Lembo, Kabupaten Konawe Utara, Sulawesi Tenggara","Kabupaten Konawe Utara, Sulawesi Tenggara",SULAWESI TENGAH,,Indonesia,,,,-3.7444518,122.3239999,https://maps.google.com/?cid=0x0:0x27d7518761f87c0c,
perumahan,Komplek perumahan,rumah yongki,"68PR+JVJ, Lembo, Kec. Lembo, Kabupaten Konawe Utara, Sulawesi Tenggara","Kabupaten Konawe Utara, Sulawesi Tenggara",SULAWESI TENGAH,,Indonesia,,,,-3.7634022,122.3421523,https://maps.google.com/?cid=0x0:0xdea388e0102892e1,
perumahan,Komplek perumahan,Ardan,"782G+XVR, Puulemo, Kec. Lembo, Kabupaten Konawe Utara, Sulawesi Tenggara","Kabupaten Konawe Utara, Sulawesi Tenggara",SULAWESI TENGAH,,Indonesia,,,,-3.7474952,122.3271342,https://maps.google.com/?cid=0x0:0x5717409389344f13,
perumahan,perumahan,Lembo,"Kec. Tallo, Kota Makassar, Sulawesi Selatan","Kota Makassar, Sulawesi Selatan",SULAWESI TENGAH,,Indonesia,,,,-5.1219413,119.425913,https://maps.google.com/?cid=0x0:0x2b45a5437af20e7,
perumahan,Perhimpunan Pengembang Perumahan,Jln lembo,"VCHG+69C, Jln lembo, RT.04, Barong tongkok","Kota Makassar, Sulawesi Selatan",SULAWESI TENGAH,,Indonesia,,,,-5.1219361,119.4259038,https://maps.google.com/?cid=0x0:0x737ffe5976a62768,
perumahan,Komplek perumahan,Roemah koe,"Kompleks Pratama Green Apple, blok CD II No.22, Lembo, Kec. Tallo, Kota Makassar, Sulawesi Selatan","Kota Makassar, Sulawesi Selatan",SULAWESI TENGAH,,Indonesia,,,,-5.1262855,119.425129,https://maps.google.com/?cid=0x0:0x8a879e6a19477a68,
perumahan,Komplek perumahan,HOME,"VCHG+4MQ, Lembo, Kec. Tallo, Kota Makassar, Sulawesi Selatan 90162","Lembo, Kec. Tallo, Kota Makassar",SULAWESI TENGAH,90162.0,Indonesia,,,,-5.1222986,119.4267122,https://maps.google.com/?cid=0x0:0xed1e1a33228fa90c,
perumahan,Kantor Pemda,Kelurahan Lembo Kecamatan Tallo,"VCHG+338, Jl. Tinumbu, Lembo, Kec. Tallo, Kota Makassar, Sulawesi Selatan 90161","Jl. Tinumbu, Lembo, Kec. Tallo, Kota Makassar",SULAWESI TENGAH,90161.0,Indonesia,,,,-5.1223333,119.4252161,https://maps.google.com/?cid=0x0:0x308b43536a9e4fe4,
perumahan,Perhimpunan Pengembang Perumahan,Komp Sapiria Garden,"Jl. Arwana VI No.4, Lembo, Kec. Tallo, Kota Makassar, Sulawesi Selatan 90213","Lembo, Kec. Tallo, Kota Makassar",SULAWESI TENGAH,90213.0,Indonesia,,,,-5.1266131,119.4252122,https://maps.google.com/?cid=0x0:0x41fba14cd3ba9fce,
perumahan,Pembangunan Perumahan,Darman al sirri,"VCHG+HQ6, Lembo, Kec. Tallo, Kota Makassar, Sulawesi Selatan 90162","Lembo, Kec. Tallo, Kota Makassar",SULAWESI TENGAH,90162.0,Indonesia,,,,-5.1210791,119.4268831,https://maps.google.com/?cid=0x0:0xbebc5cfe2b6a4be0,
perumahan,Komplek perumahan,Makassar,"VCGH+G79, Jl. Sunu Komp. Unhas, Lembo, Kec. Tallo, Kota Makassar, Sulawesi Selatan","Kota Makassar, Sulawesi Selatan",SULAWESI TENGAH,,Indonesia,,,,-5.1237016,119.4282486,https://maps.google.com/?cid=0x0:0xd721a6286b7d8358,
perumahan,Komplek perumahan,Farel home,"VCJF+JC5, Lembo, Kec. Tallo, Kota Makassar, Sulawesi Selatan 90162","Lembo, Kec. Tallo, Kota Makassar",SULAWESI TENGAH,90162.0,Indonesia,,,,-5.1184974,119.4236177,https://maps.google.com/?cid=0x0:0xc7db62817c9713c0,
perumahan,perumahan,Kec. Lembo,"Wawopada, Kabupaten Morowali Utara, Sulawesi Tengah","Kabupaten Morowali Utara, Sulawesi Tengah",SULAWESI TENGAH,,Indonesia,,,,-2.1606442,121.2127322,https://maps.google.com/?cid=0x0:0x4030bfbcaf78100,
perumahan,perumahan,Sulawesi Tengah 94966,"Kec. Lembo, Kabupaten Morowali Utara, Sulawesi Tengah","Kabupaten Morowali Utara, Sulawesi Tengah",SULAWESI TENGAH,,Indonesia,,,,-2.206204,121.2168466,https://maps.google.com/?cid=0x0:0x31ea9a5f1875191f,
perumahan,Komplek perumahan,Rumah Gian,"R6FV+6RQ, Lembobaru, Kec. Lembo, Kabupaten Morowali Utara, Sulawesi Tengah 94966","Lembobaru, Kec. Lembo, Kabupaten Morowali Utara",SULAWESI TENGAH,94966.0,Indonesia,,,,-2.1764364,121.2442676,https://maps.google.com/?cid=0x0:0xee883c75a2d6f8c8,
perumahan,Komplek perumahan,Lembobaru,"R6FW+HV8, Lembobaru, Kec. Lembo, Kabupaten Morowali, Sulawesi Tengah 94966","Lembobaru, Kec. Lembo, Kabupaten Morowali",SULAWESI TENGAH,94966.0,Indonesia,,,,-2.1760883,121.2472137,https://maps.google.com/?cid=0x0:0xb53f4038e7cbca14,
perumahan,Komplek perumahan,Kalembiro's Home Sweet Home,"R6FW+3W4, Lembobaru, Kec. Lembo, Kabupaten Morowali Utara, Sulawesi Tengah 94966","Lembobaru, Kec. Lembo, Kabupaten Morowali Utara",SULAWESI TENGAH,94966.0,Indonesia, 082292244017,,,-2.1773541,121.2473145,https://maps.google.com/?cid=0x0:0xda996a9885930ae6,
perumahan,perumahan,Ecie‚Äôs House,"R6R5+7X, Wawopada, Kec. Lembo, Kabupaten Morowali Utara, Sulawesi Tengah","Kabupaten Morowali Utara, Sulawesi Tengah",SULAWESI TENGAH,,Indonesia,,,,-2.1592906,121.2099219,https://maps.google.com/?cid=0x0:0xc8deb1374bdf8d1f,
perumahan,Komplek perumahan,PERUMAHAN LAHUBALA TEKOSI,"V73M+9G4, Beteleme, Kec. Lembo, Kabupaten Morowali Utara, Sulawesi Tengah","Kabupaten Morowali Utara, Sulawesi Tengah",SULAWESI TENGAH,,Indonesia,,,,-2.1466053,121.2838195,https://maps.google.com/?cid=0x0:0x2c71ffef2457720c,
perumahan,Komplek perumahan,Lorong Ue Tolesa,"V7CP+FJ4, Tinompo, Kec. Lembo, Kabupaten Morowali Utara, Sulawesi Tengah","Kabupaten Morowali Utara, Sulawesi Tengah",SULAWESI TENGAH,,Indonesia,,,,-2.1288669,121.2865772,https://maps.google.com/?cid=0x0:0xa7a95e43b4f4469e,
perumahan,Komplek perumahan,Rumah LIDYA dan ENDI,"V72G+PJP, Beteleme, Kec. Lembo, Kabupaten Morowali Utara, Sulawesi Tengah 94966","Beteleme, Kec. Lembo, Kabupaten Morowali Utara",SULAWESI TENGAH,94966.0,Indonesia,,,,-2.1481199,121.2766618,https://maps.google.com/?cid=0x0:0x7f9dce292071524c,
perumahan,perumahan,Rumah Dinda Imut,"V78M+798, Tinompo, Kec. Lembo, Kabupaten Morowali Utara, Sulawesi Tengah","Kabupaten Morowali Utara, Sulawesi Tengah",SULAWESI TENGAH,,Indonesia,,,,-2.134332,121.2834376,https://maps.google.com/?cid=0x0:0x279f0c4767108f1f,
perumahan,Komplek perumahan,Kontrakan AFGA,"V76Q+RJQ, Unnamed Road, Beteleme, Kec. Lembo, Kabupaten Morowali Utara, Sulawesi Tengah 94966","Unnamed Road, Beteleme, Kec. Lembo, Kabupaten Morowali Utara",SULAWESI TENGAH,94966.0,Indonesia, 085256465333,,,-2.1379039,121.2891014,https://maps.google.com/?cid=0x0:0x91caf11cdf248a33,
perumahan,Perhimpunan Pengembang Perumahan,Rumah,"V65W+M85, Tingkea'o, Kec. Lembo, Kabupaten Morowali Utara, Sulawesi Tengah","Kabupaten Morowali Utara, Sulawesi Tengah",SULAWESI TENGAH,,Indonesia,,,,-2.141512,121.245932,https://maps.google.com/?cid=0x0:0xa9be76ba084e5f18,
perumahan,Komplek perumahan,Rumah Rismayanto,"R78J+WF6, Pa'awaru, Kec. Lembo, Kabupaten Morowali Utara, Sulawesi Tengah 94966","Pa'awaru, Kec. Lembo, Kabupaten Morowali Utara",SULAWESI TENGAH,94966.0,Indonesia,,,,-2.1827246,121.2811312,https://maps.google.com/?cid=0x0:0x2978d9177f8884f9,
perumahan,Komplek perumahan,Rumah Kel.Hingkua-Tosubu,"V78M+FFJ, Tinompo, Kec. Lembo, Kabupaten Morowali Utara, Sulawesi Tengah 94966","Tinompo, Kec. Lembo, Kabupaten Morowali Utara",SULAWESI TENGAH,94966.0,Indonesia,,,,-2.1340838,121.2835982,https://maps.google.com/?cid=0x0:0x3c622607a0ff407d,
perumahan,Pembangunan Perumahan,Perumahan Korobubu,"V872+7R, Kumpi, Kec. Lembo, Kabupaten Morowali Utara, Sulawesi Tengah","Kabupaten Morowali Utara, Sulawesi Tengah",SULAWESI TENGAH,,Indonesia,,,,-2.1360692,121.3032578,https://maps.google.com/?cid=0x0:0x26a784c9bf91123d,
perumahan,Komplek perumahan,rumah geral,"R6FW+5J8, Lembobaru, Kec. Lembo, Kabupaten Morowali Utara, Sulawesi Tengah 94966","Lembobaru, Kec. Lembo, Kabupaten Morowali Utara",SULAWESI TENGAH,94966.0,Indonesia,,,,-2.177084,121.2465897,https://maps.google.com/?cid=0x0:0x365162ff74694ee6,
perumahan,Komplek perumahan,Rumah Ocang,"R7WC+G97, Beteleme, Kec. Lembo, Kabupaten Morowali Utara, Sulawesi Tengah 94966","Beteleme, Kec. Lembo, Kabupaten Morowali Utara",SULAWESI TENGAH,94966.0,Indonesia,,,,-2.1537085,121.2709318,https://maps.google.com/?cid=0x0:0xf33a8cae758d22de,
perumahan,Pembangunan Perumahan,Etha palese,"V64V+QH6, Tingkea'o, Kec. Lembo, Kabupaten Morowali Utara, Sulawesi Tengah 94966","Tingkea'o, Kec. Lembo, Kabupaten Morowali Utara",SULAWESI TENGAH,94966.0,Indonesia,,,,-2.1430846,121.2438833,https://maps.google.com/?cid=0x0:0x4605b4d477be06b3,
perumahan,Komplek perumahan,Chaika's Home,"V78M+6GQ, Tinompo, Kec. Lembo, Kabupaten Morowali Utara, Sulawesi Tengah 94966","Tinompo, Kec. Lembo, Kabupaten Morowali Utara",SULAWESI TENGAH,94966.0,Indonesia,,,,-2.1344213,121.2838469,https://maps.google.com/?cid=0x0:0x48d94b30f5096ce1,
perumahan,Komplek perumahan,rumah kel: siliwako palatu,"V62M+67, Wara'a, Kec. Lembo, Kabupaten Morowali Utara, Sulawesi Tengah","Kabupaten Morowali Utara, Sulawesi Tengah",SULAWESI TENGAH,,Indonesia,,,,-2.149473,121.233185,https://maps.google.com/?cid=0x0:0xd2208c093d3cba95,
perumahan,Komplek perumahan,Rumah Ekky Labulu,"V77P+F9J, Lorong Garuda, Tinompo, Kec. Lembo, Kabupaten Morowali Utara, Sulawesi Tengah 94966","Lorong Garuda, Tinompo, Kec. Lembo, Kabupaten Morowali Utara",SULAWESI TENGAH,94966.0,Indonesia,,,,-2.13629,121.2858774,https://maps.google.com/?cid=0x0:0xd4de463f392ef209,
perumahan,perumahan,Lembo,"Kec. Tallo, Kota Makassar, Sulawesi Selatan","Kota Makassar, Sulawesi Selatan",SULAWESI TENGAH,,Indonesia,,,,-5.1219413,119.425913,https://maps.google.com/?cid=0x0:0x2b45a5437af20e7,
perumahan,Perhimpunan Pengembang Perumahan,Jln lembo,"VCHG+69C, Jln lembo, RT.04, Barong tongkok","Kota Makassar, Sulawesi Selatan",SULAWESI TENGAH,,Indonesia,,,,-5.1219361,119.4259038,https://maps.google.com/?cid=0x0:0x737ffe5976a62768,
perumahan,Komplek perumahan,HOME,"VCHG+4MQ, Lembo, Kec. Tallo, Kota Makassar, Sulawesi Selatan 90162","Lembo, Kec. Tallo, Kota Makassar",SULAWESI TENGAH,90162.0,Indonesia,,,,-5.1222986,119.4267122,https://maps.google.com/?cid=0x0:0xed1e1a33228fa90c,
perumahan,Kantor Pemda,Kelurahan Lembo Kecamatan Tallo,"VCHG+338, Jl. Tinumbu, Lembo, Kec. Tallo, Kota Makassar, Sulawesi Selatan 90161","Jl. Tinumbu, Lembo, Kec. Tallo, Kota Makassar",SULAWESI TENGAH,90161.0,Indonesia,,,,-5.1223333,119.4252161,https://maps.google.com/?cid=0x0:0x308b43536a9e4fe4,
perumahan,Komplek perumahan,Roemah koe,"Kompleks Pratama Green Apple, blok CD II No.22, Lembo, Kec. Tallo, Kota Makassar, Sulawesi Selatan","Kota Makassar, Sulawesi Selatan",SULAWESI TENGAH,,Indonesia,,,,-5.1262855,119.425129,https://maps.google.com/?cid=0x0:0x8a879e6a19477a68,
perumahan,Komplek perumahan,Luxury,"Jl. Lembo No.75-77, Lembo, Kec. Tallo, Kota Makassar, Sulawesi Selatan 90161","Lembo, Kec. Tallo, Kota Makassar",SULAWESI TENGAH,90161.0,Indonesia,,,,-5.1182552,119.4229156,https://maps.google.com/?cid=0x0:0x7dcaf3bfa518c96c,
perumahan,Komplek perumahan,Makassar,"VCGH+G79, Jl. Sunu Komp. Unhas, Lembo, Kec. Tallo, Kota Makassar, Sulawesi Selatan","Kota Makassar, Sulawesi Selatan",SULAWESI TENGAH,,Indonesia,,,,-5.1237016,119.4282486,https://maps.google.com/?cid=0x0:0xd721a6286b7d8358,
perumahan,Komplek perumahan,Farel home,"VCJF+JC5, Lembo, Kec. Tallo, Kota Makassar, Sulawesi Selatan 90162","Lembo, Kec. Tallo, Kota Makassar",SULAWESI TENGAH,90162.0,Indonesia,,,,-5.1184974,119.4236177,https://maps.google.com/?cid=0x0:0xc7db62817c9713c0,
perumahan,perumahan,Sulawesi Tengah 94966,"Kec. Lembo, Kabupaten Morowali Utara, Sulawesi Tengah","Kabupaten Morowali Utara, Sulawesi Tengah",SULAWESI TENGAH,,Indonesia,,,,-2.206204,121.2168466,https://maps.google.com/?cid=0x0:0x31ea9a5f1875191f,
perumahan,Komplek perumahan,ROMA Home,"V72G+4V6, Beteleme, Kec. Lembo, Kabupaten Morowali Utara, Sulawesi Tengah 94966","Beteleme, Kec. Lembo, Kabupaten Morowali Utara",SULAWESI TENGAH,94966.0,Indonesia, 082199992771,,,-2.150581,121.277079,https://maps.google.com/?cid=0x0:0xdcbae82ff47f1ba9,
perumahan,Komplek perumahan,Lembobaru,"R6FW+HV8, Lembobaru, Kec. Lembo, Kabupaten Morowali, Sulawesi Tengah 94966","Lembobaru, Kec. Lembo, Kabupaten Morowali",SULAWESI TENGAH,94966.0,Indonesia,,,,-2.1760883,121.2472137,https://maps.google.com/?cid=0x0:0xb53f4038e7cbca14,
perumahan,Komplek perumahan,Perumahan bravo,"Q896+3W, Petumbea, Kec. Lembo Raya, Kabupaten Morowali Utara, Sulawesi Tengah","Kabupaten Morowali Utara, Sulawesi Tengah",SULAWESI TENGAH,,Indonesia,,,,-2.2322972,121.3123177,https://maps.google.com/?cid=0x0:0xfceedfce588f1570,
perumahan,Komplek perumahan,Kalembiro's Home Sweet Home,"R6FW+3W4, Lembobaru, Kec. Lembo, Kabupaten Morowali Utara, Sulawesi Tengah 94966","Lembobaru, Kec. Lembo, Kabupaten Morowali Utara",SULAWESI TENGAH,94966.0,Indonesia, 082292244017,,,-2.1773541,121.2473145,https://maps.google.com/?cid=0x0:0xda996a9885930ae6,
perumahan,perumahan,Ecie‚Äôs House,"R6R5+7X, Wawopada, Kec. Lembo, Kabupaten Morowali Utara, Sulawesi Tengah","Kabupaten Morowali Utara, Sulawesi Tengah",SULAWESI TENGAH,,Indonesia,,,,-2.1592906,121.2099219,https://maps.google.com/?cid=0x0:0xc8deb1374bdf8d1f,
perumahan,Komplek perumahan,Lorong Ue Tolesa,"V7CP+FJ4, Tinompo, Kec. Lembo, Kabupaten Morowali Utara, Sulawesi Tengah","Kabupaten Morowali Utara, Sulawesi Tengah",SULAWESI TENGAH,,Indonesia,,,,-2.1288669,121.2865772,https://maps.google.com/?cid=0x0:0xa7a95e43b4f4469e,
perumahan,Komplek perumahan,Rumah Kristo Mbayowo,"Q8J4+C67, Petumbea, Kec. Lembo Raya, Kabupaten Morowali Utara, Sulawesi Tengah 94966","Petumbea, Kec. Lembo Raya, Kabupaten Morowali Utara",SULAWESI TENGAH,94966.0,Indonesia,,,,-2.2189703,121.3055486,https://maps.google.com/?cid=0x0:0x59f1a5075fb7e707,
perumahan,Komplek perumahan,PERUMAHAN LAHUBALA TEKOSI,"V73M+9G4, Beteleme, Kec. Lembo, Kabupaten Morowali Utara, Sulawesi Tengah","Kabupaten Morowali Utara, Sulawesi Tengah",SULAWESI TENGAH,,Indonesia,,,,-2.1466053,121.2838195,https://maps.google.com/?cid=0x0:0x2c71ffef2457720c,
perumahan,Pembangunan Perumahan,Perumahan Korobubu,"V872+7R, Kumpi, Kec. Lembo, Kabupaten Morowali Utara, Sulawesi Tengah","Kabupaten Morowali Utara, Sulawesi Tengah",SULAWESI TENGAH,,Indonesia,,,,-2.1360692,121.3032578,https://maps.google.com/?cid=0x0:0x26a784c9bf91123d,
perumahan,Komplek perumahan,Rumah onal,"Q8J4+C67, Petumbea, Kec. Lembo Raya, Kabupaten Morowali Utara, Sulawesi Tengah 94966","Petumbea, Kec. Lembo Raya, Kabupaten Morowali Utara",SULAWESI TENGAH,94966.0,Indonesia,,,,-2.2189703,121.3055486,https://maps.google.com/?cid=0x0:0x2e2fe375b2efd175,
perumahan,Komplek perumahan,Rumah Rismayanto,"R78J+WF6, Pa'awaru, Kec. Lembo, Kabupaten Morowali Utara, Sulawesi Tengah 94966","Pa'awaru, Kec. Lembo, Kabupaten Morowali Utara",SULAWESI TENGAH,94966.0,Indonesia,,,,-2.1827246,121.2811312,https://maps.google.com/?cid=0x0:0x2978d9177f8884f9,
perumahan,Komplek perumahan,Rumah LIDYA dan ENDI,"V72G+PJP, Beteleme, Kec. Lembo, Kabupaten Morowali Utara, Sulawesi Tengah 94966","Beteleme, Kec. Lembo, Kabupaten Morowali Utara",SULAWESI TENGAH,94966.0,Indonesia,,,,-2.1481199,121.2766618,https://maps.google.com/?cid=0x0:0x7f9dce292071524c,
perumahan,Komplek perumahan,Chaika's Home,"V78M+6GQ, Tinompo, Kec. Lembo, Kabupaten Morowali Utara, Sulawesi Tengah 94966","Tinompo, Kec. Lembo, Kabupaten Morowali Utara",SULAWESI TENGAH,94966.0,Indonesia,,,,-2.1344213,121.2838469,https://maps.google.com/?cid=0x0:0x48d94b30f5096ce1,
perumahan,Komplek perumahan,Rumah Beta,"Q8J4+C67, Petumbea, Kec. Lembo Raya, Kabupaten Morowali Utara, Sulawesi Tengah 94966","Petumbea, Kec. Lembo Raya, Kabupaten Morowali Utara",SULAWESI TENGAH,94966.0,Indonesia,,,,-2.2189703,121.3055486,https://maps.google.com/?cid=0x0:0x570def800a21a6fc,
perumahan,Pembangunan Perumahan,Etha palese,"V64V+QH6, Tingkea'o, Kec. Lembo, Kabupaten Morowali Utara, Sulawesi Tengah 94966","Tingkea'o, Kec. Lembo, Kabupaten Morowali Utara",SULAWESI TENGAH,94966.0,Indonesia,,,,-2.1430846,121.2438833,https://maps.google.com/?cid=0x0:0x4605b4d477be06b3,
perumahan,Komplek perumahan,Rumah Kel.Hingkua-Tosubu,"V78M+FFJ, Tinompo, Kec. Lembo, Kabupaten Morowali Utara, Sulawesi Tengah 94966","Tinompo, Kec. Lembo, Kabupaten Morowali Utara",SULAWESI TENGAH,94966.0,Indonesia,,,,-2.1340838,121.2835982,https://maps.google.com/?cid=0x0:0x3c622607a0ff407d,
perumahan,Komplek perumahan,rumah geral,"R6FW+5J8, Lembobaru, Kec. Lembo, Kabupaten Morowali Utara, Sulawesi Tengah 94966","Lembobaru, Kec. Lembo, Kabupaten Morowali Utara",SULAWESI TENGAH,94966.0,Indonesia,,,,-2.177084,121.2465897,https://maps.google.com/?cid=0x0:0x365162ff74694ee6,
perumahan,Komplek perumahan,Tri widhaa,"R79J+5MW Puput Sane, Pa'awaru, Kec. Lembo Raya, Kabupaten Morowali Utara, Sulawesi Tengah 94966","Pa'awaru, Kec. Lembo Raya, Kabupaten Morowali Utara",SULAWESI TENGAH,94966.0,Indonesia,,,,-2.1824934,121.2813639,https://maps.google.com/?cid=0x0:0x19350e6bfac699d5,
perumahan,Komplek perumahan,Rumah Kristo Mbayowo,"Q8HF+3HF, Ronta, Kec. Lembo, Kabupaten Morowali Utara, Sulawesi Tengah 94966","Ronta, Kec. Lembo, Kabupaten Morowali Utara",SULAWESI TENGAH,94966.0,Indonesia,,,,-2.222293,121.323915,https://maps.google.com/?cid=0x0:0x93383985b2696af7,
perumahan,Pembangunan Perumahan,Novita purwanti cell,"R7M2+3W9, Korobonde, Kec. Lembo, Kabupaten Morowali Utara, Sulawesi Tengah 94966","Korobonde, Kec. Lembo, Kabupaten Morowali Utara",SULAWESI TENGAH,94966.0,Indonesia, 081244934087,,,-2.1673432,121.2523464,https://maps.google.com/?cid=0x0:0xd1332574a5eb076e,
perumahan,Komplek perumahan,Kontrakan AFGA,"V76Q+RJQ, Unnamed Road, Beteleme, Kec. Lembo, Kabupaten Morowali Utara, Sulawesi Tengah 94966","Unnamed Road, Beteleme, Kec. Lembo, Kabupaten Morowali Utara",SULAWESI TENGAH,94966.0,Indonesia, 085256465333,,,-2.1379039,121.2891014,https://maps.google.com/?cid=0x0:0x91caf11cdf248a33,
perumahan,Pembangunan Perumahan,Rumah dasar arrayan,"R72P+9Q6, Jamor Jaya, Kec. Lembo Raya, Kabupaten Morowali Utara, Sulawesi Tengah","Kabupaten Morowali Utara, Sulawesi Tengah",SULAWESI TENGAH,,Indonesia,,,,-2.1990848,121.2868802,https://maps.google.com/?cid=0x0:0x19f097d5369f00c8,
perumahan,Komplek perumahan,Rumah Om Deltar,"Petumbea, Kec. Lembo Raya, Kabupaten Morowali, Sulawesi Tengah 94966","Kec. Lembo Raya, Kabupaten Morowali",SULAWESI TENGAH,94966.0,Indonesia, 082293919116,,,-2.201206,121.3104366,https://maps.google.com/?cid=0x0:0xdb5c6d474cd87190,
perumahan,perumahan,Sulawesi Tengah 94972,"Kabupaten Morowali Utara, Sulawesi Tengah","Kabupaten Morowali Utara, Sulawesi Tengah",SULAWESI TENGAH,,Indonesia,,,,-1.6248083,121.7195459,https://maps.google.com/?cid=0x0:0xe9e478f27d681886,
perumahan,Komplek perumahan,Spa,"GW62+9P7, Parangisi, Kec. Mamosalato, Kabupaten Morowali Utara, Sulawesi Tengah","Kabupaten Morowali Utara, Sulawesi Tengah",SULAWESI TENGAH,,Indonesia,,,,-1.4890967,121.9017954,https://maps.google.com/?cid=0x0:0x57bb461ab17a4b32,
perumahan,Pembangunan Perumahan,Sulawesi tengah,"GJM2+82J, Menyo'e, Kec. Mamosalato, Kabupaten Morowali Utara, Sulawesi Tengah","Kabupaten Morowali Utara, Sulawesi Tengah",SULAWESI TENGAH,,Indonesia,,,,-1.466667,121.6,https://maps.google.com/?cid=0x0:0xc2c0361406de01df,
perumahan,Balai masyarakat,Desa momo,"8WVC+7C7, Momo, Kec. Mamosalato, Kabupaten Morowali Utara, Sulawesi Tengah","Kabupaten Morowali Utara, Sulawesi Tengah",SULAWESI TENGAH,,Indonesia,,,,-1.6568411,121.9210372,https://maps.google.com/?cid=0x0:0x2ff95ab3e0eef478,
perumahan,Gereja,Pastori GKST Jemaat Efata Paramba,"JQGH+9WH, Menyo'e, Kec. Mamosalato, Kabupaten Morowali Utara, Sulawesi Tengah","Kabupaten Morowali Utara, Sulawesi Tengah",SULAWESI TENGAH,,Indonesia,,,,-1.3741338,121.7799322,https://maps.google.com/?cid=0x0:0x8a66ed087d8c98d8,
perumahan,Pembangunan Perumahan,Wandi kntl,"9W3J+C34, Giri Mulya, Kec. Mamosalato, Kabupaten Morowali Utara, Sulawesi Tengah","Kabupaten Morowali Utara, Sulawesi Tengah",SULAWESI TENGAH,,Indonesia,,,,-1.6463376,121.928784,https://maps.google.com/?cid=0x0:0xd8530b006dec204f,
perumahan,Kantor Pemerintah,Desa sea,"FR6M+395, Sea, Kec. Mamosalato, Kabupaten Morowali Utara, Sulawesi Tengah 94972","Sea, Kec. Mamosalato, Kabupaten Morowali Utara",SULAWESI TENGAH,94972.0,Indonesia,,,,-1.5398725,121.8334868,https://maps.google.com/?cid=0x0:0xb4fd48e54c2dc217,
perumahan,perumahan,Rumah putra,"9X44+84F, Tananagaya, Kec. Mamosalato, Kabupaten Morowali Utara, Sulawesi Tengah 94972","Tananagaya, Kec. Mamosalato, Kabupaten Morowali Utara",SULAWESI TENGAH,94972.0,Indonesia,,,,-1.644584,121.954805,https://maps.google.com/?cid=0x0:0x6305bf5dabf0d601,
perumahan,Komplek perumahan,Rumah ghea,"8XX4+C5X, Tananagaya, Kec. Mamosalato, Kabupaten Morowali Utara, Sulawesi Tengah 94972","Tananagaya, Kec. Mamosalato, Kabupaten Morowali Utara",SULAWESI TENGAH,94972.0,Indonesia,,,,-1.6513871,121.9554778,https://maps.google.com/?cid=0x0:0xec81cdc5d3c7ee87,
perumahan,Komplek perumahan,Rumah Nurul Iman Santoso,"9XJP+F92, Pandauke, Kec. Mamosalato, Kabupaten Morowali, Sulawesi Tengah","Kabupaten Morowali, Sulawesi Tengah",SULAWESI TENGAH,,Indonesia,,,,-1.6188503,121.985877,https://maps.google.com/?cid=0x0:0xa9b30c37ff801341,
perumahan,Komplek perumahan,WELLY SULU,"9X9C+WW2, Tana Sumpu, Kec. Mamosalato, Kabupaten Morowali Utara, Sulawesi Tengah","Kabupaten Morowali Utara, Sulawesi Tengah",SULAWESI TENGAH,,Indonesia,,,,-1.6302409,121.972262,https://maps.google.com/?cid=0x0:0xf96e023e93083956,
perumahan,Komplek perumahan,"Mata Uekoyo, Mamosalato","GRPJ+36, Uepakatu, Kec. Mamosalato, Kabupaten Morowali Utara, Sulawesi Tengah","Kabupaten Morowali Utara, Sulawesi Tengah",SULAWESI TENGAH,,Indonesia,,,,-1.4648093,121.8318494,https://maps.google.com/?cid=0x0:0x7d22eb79579ba8e,
perumahan,Perhimpunan Pengembang Perumahan,Rumah Wabup Morut,"9W2H+P9X, Giri Mulya, Kec. Mamosalato, Kabupaten Morowali Utara, Sulawesi Tengah 94972","Giri Mulya, Kec. Mamosalato, Kabupaten Morowali Utara",SULAWESI TENGAH,94972.0,Indonesia,,,,-1.6478343,121.9287717,https://maps.google.com/?cid=0x0:0x9c600378c09679fa,
perumahan,Pembangunan Perumahan,Kolo bawah,"8V5V+446, Kolo Bawah, Kec. Mamosalato, Kabupaten Morowali Utara, Sulawesi Tengah 94972","Kolo Bawah, Kec. Mamosalato, Kabupaten Morowali Utara",SULAWESI TENGAH,94972.0,Indonesia,,,,-1.6922248,121.8927587,https://maps.google.com/?cid=0x0:0x4b3e6b1fca86583,
perumahan,Komplek perumahan,rumah anca,"7RC4+2FG, Siliti, Kec. Bungku Utara, Kabupaten Morowali Utara, Sulawesi Tengah 94972","Siliti, Kec. Bungku Utara, Kabupaten Morowali Utara",SULAWESI TENGAH,94972.0,Indonesia,,,,-1.7298263,121.8067828,https://maps.google.com/?cid=0x0:0x75aa65c8456f4282,
perumahan,Pembangunan Perumahan,"Sulteng, morowali utara, petasia timur poranda, bungintimbe","HC9W+59H, Taronggo, Kec. Bungku Utara, Kabupaten Morowali Utara, Sulawesi Tengah","Kabupaten Morowali Utara, Sulawesi Tengah",SULAWESI TENGAH,,Indonesia, 082171124485,,,-1.4320653,121.4459985,https://maps.google.com/?cid=0x0:0xd66516c8e4a80915,
perumahan,Komplek perumahan,DUSUN NGOYO,"HRP8+3V, Menyo'e, Kec. Mamosalato, Kabupaten Morowali Utara, Sulawesi Tengah","Kabupaten Morowali Utara, Sulawesi Tengah",SULAWESI TENGAH,,Indonesia,,,,-1.4148764,121.8171195,https://maps.google.com/?cid=0x0:0x4c0f1a529cde086c,
perumahan,Komplek perumahan,Rumah Yus,"9X87+RPH, Tana Sumpu, Kec. Mamosalato, Kabupaten Morowali Utara, Sulawesi Tengah","Kabupaten Morowali Utara, Sulawesi Tengah",SULAWESI TENGAH,,Indonesia,,,,-1.6329434,121.9643745,https://maps.google.com/?cid=0x0:0x6ca0254082b3c579,
perumahan,Komplek perumahan,Rumah agsel,"9X44+84F, Tananagaya, Kec. Mamosalato, Kabupaten Morowali Utara, Sulawesi Tengah 94972","Tananagaya, Kec. Mamosalato, Kabupaten Morowali Utara",SULAWESI TENGAH,94972.0,Indonesia,,,,-1.645215,121.9552984,https://maps.google.com/?cid=0x0:0xebd4f2f029a1233e,
perumahan,Komplek perumahan,Momo,"9W37+F7F, Momo, Kec. Mamosalato, Kabupaten Morowali, Sulawesi Tengah 94972","Momo, Kec. Mamosalato, Kabupaten Morowali",SULAWESI TENGAH,94972.0,Indonesia,,,,-1.6463028,121.9131761,https://maps.google.com/?cid=0x0:0x2f4704f08efc2254,
perumahan,Komplek perumahan,Kecamatan mamosalato,"FW6F+MR3, Winangabino, Kec. Mamosalato, Kabupaten Morowali Utara, Sulawesi Tengah","Kabupaten Morowali Utara, Sulawesi Tengah",SULAWESI TENGAH,,Indonesia,,,,-1.5383518,121.9245556,https://maps.google.com/?cid=0x0:0x1a01d059fb978ecd,
perumahan,Komplek perumahan,Lemo,"8Q93+2FH, Lemo, Kec. Bungku Utara, Kabupaten Morowali, Sulawesi Tengah 94972","Lemo, Kec. Bungku Utara, Kabupaten Morowali",SULAWESI TENGAH,94972.0,Indonesia,,,,-1.6824256,121.7537404,https://maps.google.com/?cid=0x0:0x39a90714a2aa0067,
perumahan,Komplek perumahan,Rumah sariati aulia,"8XX4+F56, Tananagaya, Kec. Mamosalato, Kabupaten Morowali, Sulawesi Tengah 94972","Tananagaya, Kec. Mamosalato, Kabupaten Morowali",SULAWESI TENGAH,94972.0,Indonesia,,,,-1.6513469,121.9554003,https://maps.google.com/?cid=0x0:0x892773e8d9b75918,
perumahan,perumahan,Sulawesi Tengah 94965,"Kabupaten Morowali Utara, Sulawesi Tengah","Kabupaten Morowali Utara, Sulawesi Tengah",SULAWESI TENGAH,,Indonesia,,,,-1.9065553,120.9876321,https://maps.google.com/?cid=0x0:0x7343a4638efc8db3,
perumahan,Komplek perumahan,Perumahan Guru SD Tunas Lestari Korola,"W2M2+XQF, Londi, Kec. Mori Atas, Kabupaten Morowali, Sulawesi Tengah","Kabupaten Morowali, Sulawesi Tengah",SULAWESI TENGAH,,Indonesia,,,,-2.0650583,121.001935,https://maps.google.com/?cid=0x0:0x67ce09a120f7290a,
perumahan,Kantor Perusahaan,Perumahan PKS PT. Sinergi Perkebunan Nusantara (persero),"2285+MH8, Londi, Kec. Mori Atas, Kabupaten Morowali Utara, Sulawesi Tengah 94965","Londi, Kec. Mori Atas, Kabupaten Morowali Utara",SULAWESI TENGAH,94965.0,Indonesia,,,,-1.9833371,121.0089648,https://maps.google.com/?cid=0x0:0xd674d956c896a37e,
perumahan,Komplek perumahan,TOMUI KARYA,"XVPH+6C9, Tomui Karya, Kec. Mori Atas, Kabupaten Morowali Utara, Sulawesi Tengah 94965","Tomui Karya, Kec. Mori Atas, Kabupaten Morowali Utara",SULAWESI TENGAH,94965.0,Indonesia,,,,-2.0144701,120.8786026,https://maps.google.com/?cid=0x0:0x3a1e8ebc8d978e9e,
perumahan,Komplek perumahan,Rumah pribadi,"2X7H+F3G, Jl. Trans Sulawesi, Tomata, Kec. Mori Atas, Kabupaten Morowali Utara, Sulawesi Tengah","Kabupaten Morowali Utara, Sulawesi Tengah",SULAWESI TENGAH,,Indonesia,,,,-1.9867964,120.9784979,https://maps.google.com/?cid=0x0:0xf34ef283e7ff09ee,
perumahan,Komplek perumahan,RumahQ desa Tiwaa,"3W79+WJW, Jl.desa, Tiwaa, Kec. Mori Utara, Kabupaten Morowali Utara, Sulawesi Tengah 94965","Jl.desa, Tiwaa, Kec. Mori Utara, Kabupaten Morowali Utara",SULAWESI TENGAH,94965.0,Indonesia,,,,-1.9351438,120.9190628,https://maps.google.com/?cid=0x0:0xa2444b1ad3080c73,
perumahan,Kantor Perusahaan,Perumahan pt spn watumesono,"WX8X+CJQ, Londi, Kec. Mori Atas, Kabupaten Morowali, Sulawesi Tengah 94965","Londi, Kec. Mori Atas, Kabupaten Morowali",SULAWESI TENGAH,94965.0,Indonesia,,,,-2.0839139,120.9991032,https://maps.google.com/?cid=0x0:0xdcbb97c8afff31e1,
perumahan,Perhimpunan Pengembang Perumahan,Taende Morowali Utara mini,"X2PV+2Q, Taende, Kec. Mori Atas, Kabupaten Morowali, Sulawesi Tengah 94965","Taende, Kec. Mori Atas, Kabupaten Morowali",SULAWESI TENGAH,94965.0,Indonesia,,,,-2.0149625,121.0443917,https://maps.google.com/?cid=0x0:0x6414f663de60994f,
perumahan,Pembangunan Perumahan,Kolaka,"X43P+5MF, Kolaka, Kec. Mori Atas, Kabupaten Morowali Utara, Sulawesi Tengah","Kabupaten Morowali Utara, Sulawesi Tengah",SULAWESI TENGAH,,Indonesia,,,,-2.0470636,121.1366715,https://maps.google.com/?cid=0x0:0x2a016f4cdbb1928c,
perumahan,Komplek perumahan,Perumahan afdeling 6,"33VF+CX, Era, Kec. Mori Utara, Kabupaten Morowali Utara, Sulawesi Tengah","Kabupaten Morowali Utara, Sulawesi Tengah",SULAWESI TENGAH,,Indonesia,,,,-1.9063756,121.074977,https://maps.google.com/?cid=0x0:0xf7c717651cdddb36,
perumahan,Komplek perumahan,Lily's Village,"2X7H+P2F, Tomata, Kec. Mori Atas, Kabupaten Morowali, Sulawesi Tengah","Kabupaten Morowali, Sulawesi Tengah",SULAWESI TENGAH,,Indonesia,,,,-1.9856834,120.9775409,https://maps.google.com/?cid=0x0:0x854c1c125d0b2cce,
perumahan,Komplek perumahan,Afdeling Bravo,"34M3+QQ3, Unnamed Road, Era, Kec. Mori Utara, Kabupaten Morowali Utara, Sulawesi Tengah 94965","Unnamed Road, Era, Kec. Mori Utara, Kabupaten Morowali Utara",SULAWESI TENGAH,94965.0,Indonesia,,,,-1.9156173,121.1044259,https://maps.google.com/?cid=0x0:0xaabb9791860e7613,
perumahan,perumahan,Rumah Leon M,"WWRF+R36, Gontara, Kec. Mori Atas, Kabupaten Morowali Utara, Sulawesi Tengah 94965","Gontara, Kec. Mori Atas, Kabupaten Morowali Utara",SULAWESI TENGAH,94965.0,Indonesia,,,,-2.058167,120.922804,https://maps.google.com/?cid=0x0:0x958b25abd1bc5802,
perumahan,Perhimpunan Pengembang Perumahan,Premahan sawit,"XW8J+54C, Tomata, Kec. Mori Atas, Kabupaten Morowali Utara, Sulawesi Tengah 94965","Tomata, Kec. Mori Atas, Kabupaten Morowali Utara",SULAWESI TENGAH,94965.0,Indonesia,,,,-2.0345558,120.9302603,https://maps.google.com/?cid=0x0:0x67dfe2d1ec783aa8,
perumahan,Komplek perumahan,Perumahan Divisi 2 KRLE-KRLM PT. TIMURJAYA INDOMAKMUR,"R2JC+PR3, Taende, Kec. Mori Atas, Kabupaten Morowali, Sulawesi Tengah","Kabupaten Morowali, Sulawesi Tengah",SULAWESI TENGAH,,Indonesia,,,,-2.1682463,121.0220422,https://maps.google.com/?cid=0x0:0xedaf37b0edfb5d3,
perumahan,Komplek perumahan,Rumah Ningsi,"X2V6+XJ7, Tomata - Beteleme, Londi, Kec. Mori Atas, Kabupaten Morowali Utara, Sulawesi Tengah 94965","Tomata - Beteleme, Londi, Kec. Mori Atas, Kabupaten Morowali Utara",SULAWESI TENGAH,94965.0,Indonesia,,,,-2.0050815,121.0115393,https://maps.google.com/?cid=0x0:0x9a51d7e724d344cf,
perumahan,Komplek perumahan,Pabokori,"X3JW+J7, Ensa, Kec. Mori Atas, Kabupaten Morowali Utara, Sulawesi Tengah","Kabupaten Morowali Utara, Sulawesi Tengah",SULAWESI TENGAH,,Indonesia,,,,-2.0184134,121.0956873,https://maps.google.com/?cid=0x0:0x256d10d378941673,
perumahan,Komplek perumahan,Roman R suro,"2X2F+6XP, Tomata, Kec. Mori Atas, Kabupaten Morowali Utara, Sulawesi Tengah 94965","Tomata, Kec. Mori Atas, Kabupaten Morowali Utara",SULAWESI TENGAH,94965.0,Indonesia,,,,-1.9997704,120.9746419,https://maps.google.com/?cid=0x0:0x4811d0d8f89ca886,
perumahan,Perhimpunan Pengembang Perumahan,Kebun,"XV9M+7PP, Tomui Karya, Kec. Mori Atas, Kabupaten Morowali Utara, Sulawesi Tengah 94965","Tomui Karya, Kec. Mori Atas, Kabupaten Morowali Utara",SULAWESI TENGAH,94965.0,Indonesia,,,,-2.0317913,120.8843363,https://maps.google.com/?cid=0x0:0xade73f1c6319b661,
perumahan,Komplek perumahan,kel. Pembolo-Dengkidala,"2X3H+VMJ, Tomata, Kec. Mori Atas, Kabupaten Morowali Utara, Sulawesi Tengah 94965","Tomata, Kec. Mori Atas, Kabupaten Morowali Utara",SULAWESI TENGAH,94965.0,Indonesia,,,,-1.9952691,120.9791563,https://maps.google.com/?cid=0x0:0xeb6a9898b27b2b2d,
perumahan,perumahan,Rumah Leon Tandole,"RW39+HG3, Gontara, Kec. Mori Atas, Kabupaten Morowali Utara, Sulawesi Tengah","Kabupaten Morowali Utara, Sulawesi Tengah",SULAWESI TENGAH,,Indonesia,,,,-2.1961042,120.9187827,https://maps.google.com/?cid=0x0:0x173b231598b8c44c,
perumahan,Kantor Perusahaan,Mess Management PT Timurjaya Indomakmur,"W2G2+5MV, Londi, Kec. Mori Atas, Kabupaten Morowali, Sulawesi Tengah 94965","Londi, Kec. Mori Atas, Kabupaten Morowali",SULAWESI TENGAH,94965.0,Indonesia,,,,-2.0745202,121.0016769,https://maps.google.com/?cid=0x0:0x1955ee0109a55c02,
perumahan,Komplek perumahan,Rumah Agan,"3XGG+3Q6, Mayumba, Kec. Mori Utara, Kabupaten Morowali Utara, Sulawesi Tengah 94965","Mayumba, Kec. Mori Utara, Kabupaten Morowali Utara",SULAWESI TENGAH,94965.0,Indonesia,,,,-1.9248343,120.9769037,https://maps.google.com/?cid=0x0:0x482a27620ea1d8ed,
perumahan,Toko Percetakan,Cetak,"X38W+555, Tomata - Beteleme, Peonea, Kec. Mori Atas, Kabupaten Morowali Utara, Sulawesi Tengah 94965","Tomata - Beteleme, Peonea, Kec. Mori Atas, Kabupaten Morowali Utara",SULAWESI TENGAH,94965.0,Indonesia,,,,-2.0346152,121.0954865,https://maps.google.com/?cid=0x0:0x23784b10af3427b9,
perumahan,Komplek perumahan,Rumah Fabio,"2X4H+R5V, Tomata, Kec. Mori Atas, Kabupaten Morowali Utara, Sulawesi Tengah 94965","Tomata, Kec. Mori Atas, Kabupaten Morowali Utara",SULAWESI TENGAH,94965.0,Indonesia,,,,-1.9923768,120.977832,https://maps.google.com/?cid=0x0:0x2c79ebc6041d245f,
perumahan,Komplek perumahan,Rumah Handri,"XVGV+J88, Tomui Karya, Kec. Mori Atas, Kabupaten Morowali Utara, Sulawesi Tengah 94965","Tomui Karya, Kec. Mori Atas, Kabupaten Morowali Utara",SULAWESI TENGAH,94965.0,Indonesia,,,,-2.02347,120.8933263,https://maps.google.com/?cid=0x0:0xc5f85088e8b472d,
perumahan,perumahan,Rumah mas nono,"W4M4+C94, Kolaka, Kec. Mori Atas, Kabupaten Morowali Utara, Sulawesi Tengah 94965","Kolaka, Kec. Mori Atas, Kabupaten Morowali Utara",SULAWESI TENGAH,94965.0,Indonesia,,,,-2.0663314,121.1066357,https://maps.google.com/?cid=0x0:0x9ebce845a02af40c,
perumahan,Gedung Apartemen,Rumah Kel.Purangga-Pepone,"2437+7G6, Peonea, Kec. Mori Atas, Kabupaten Morowali Utara, Sulawesi Tengah 94965","Peonea, Kec. Mori Atas, Kabupaten Morowali Utara",SULAWESI TENGAH,94965.0,Indonesia,,,,-1.9968401,121.1137544,https://maps.google.com/?cid=0x0:0x6e158a8d281f1ed7,
perumahan,Komplek perumahan,Perum Divisi 4 - PT. Timurjaya Indomakmur,"X226+M2G, Londi, Kec. Mori Atas, Kabupaten Morowali Utara, Sulawesi Tengah 94965","Londi, Kec. Mori Atas, Kabupaten Morowali Utara",SULAWESI TENGAH,94965.0,Indonesia,,,,-2.0483224,121.0100655,https://maps.google.com/?cid=0x0:0xca401e46a8482edd,
perumahan,perumahan,Sulawesi Tengah 94965,"Kabupaten Morowali Utara, Sulawesi Tengah","Kabupaten Morowali Utara, Sulawesi Tengah",SULAWESI TENGAH,,Indonesia,,,,-1.9065553,120.9876321,https://maps.google.com/?cid=0x0:0x7343a4638efc8db3,
perumahan,Komplek perumahan,RumahQ desa Tiwaa,"3W79+WJW, Jl.desa, Tiwaa, Kec. Mori Utara, Kabupaten Morowali Utara, Sulawesi Tengah 94965","Jl.desa, Tiwaa, Kec. Mori Utara, Kabupaten Morowali Utara",SULAWESI TENGAH,94965.0,Indonesia,,,,-1.9351438,120.9190628,https://maps.google.com/?cid=0x0:0xa2444b1ad3080c73,
perumahan,Perhimpunan Pengembang Perumahan,Taende Morowali Utara mini,"X2PV+2Q, Taende, Kec. Mori Atas, Kabupaten Morowali, Sulawesi Tengah 94965","Taende, Kec. Mori Atas, Kabupaten Morowali",SULAWESI TENGAH,94965.0,Indonesia,,,,-2.0149625,121.0443917,https://maps.google.com/?cid=0x0:0x6414f663de60994f,
perumahan,Komplek perumahan,Perumahan Guru SD Tunas Lestari Korola,"W2M2+XQF, Londi, Kec. Mori Atas, Kabupaten Morowali, Sulawesi Tengah","Kabupaten Morowali, Sulawesi Tengah",SULAWESI TENGAH,,Indonesia,,,,-2.0650583,121.001935,https://maps.google.com/?cid=0x0:0x67ce09a120f7290a,
perumahan,Komplek perumahan,Rumah pribadi,"2X7H+F3G, Jl. Trans Sulawesi, Tomata, Kec. Mori Atas, Kabupaten Morowali Utara, Sulawesi Tengah","Kabupaten Morowali Utara, Sulawesi Tengah",SULAWESI TENGAH,,Indonesia,,,,-1.9867964,120.9784979,https://maps.google.com/?cid=0x0:0xf34ef283e7ff09ee,
perumahan,Komplek perumahan,Perumahan afdeling 6,"33VF+CX, Era, Kec. Mori Utara, Kabupaten Morowali Utara, Sulawesi Tengah","Kabupaten Morowali Utara, Sulawesi Tengah",SULAWESI TENGAH,,Indonesia,,,,-1.9063756,121.074977,https://maps.google.com/?cid=0x0:0xf7c717651cdddb36,
perumahan,Kantor Perusahaan,Perumahan PKS PT. Sinergi Perkebunan Nusantara (persero),"2285+MH8, Londi, Kec. Mori Atas, Kabupaten Morowali Utara, Sulawesi Tengah 94965","Londi, Kec. Mori Atas, Kabupaten Morowali Utara",SULAWESI TENGAH,94965.0,Indonesia,,,,-1.9833371,121.0089648,https://maps.google.com/?cid=0x0:0xd674d956c896a37e,
perumahan,Komplek perumahan,Afdeling Bravo,"34M3+QQ3, Unnamed Road, Era, Kec. Mori Utara, Kabupaten Morowali Utara, Sulawesi Tengah 94965","Unnamed Road, Era, Kec. Mori Utara, Kabupaten Morowali Utara",SULAWESI TENGAH,94965.0,Indonesia,,,,-1.9156173,121.1044259,https://maps.google.com/?cid=0x0:0xaabb9791860e7613,
perumahan,Komplek perumahan,Rumah Agan,"3XGG+3Q6, Mayumba, Kec. Mori Utara, Kabupaten Morowali Utara, Sulawesi Tengah 94965","Mayumba, Kec. Mori Utara, Kabupaten Morowali Utara",SULAWESI TENGAH,94965.0,Indonesia,,,,-1.9248343,120.9769037,https://maps.google.com/?cid=0x0:0x482a27620ea1d8ed,
perumahan,Komplek perumahan,Perumahan spn watumesono,"6XV7+RVV perumahan spn watumesono, Peleru, Kec. Mori Utara, Kabupaten Morowali Utara, Sulawesi Tengah 94965","Peleru, Kec. Mori Utara, Kabupaten Morowali Utara",SULAWESI TENGAH,94965.0,Indonesia,,,,-1.7553958,120.9646866,https://maps.google.com/?cid=0x0:0xafc6f66c0772dba0,
perumahan,Toko Percetakan,Cetak,"X38W+555, Tomata - Beteleme, Peonea, Kec. Mori Atas, Kabupaten Morowali Utara, Sulawesi Tengah 94965","Tomata - Beteleme, Peonea, Kec. Mori Atas, Kabupaten Morowali Utara",SULAWESI TENGAH,94965.0,Indonesia,,,,-2.0346152,121.0954865,https://maps.google.com/?cid=0x0:0x23784b10af3427b9,
perumahan,Komplek perumahan,kel. Pembolo-Dengkidala,"2X3H+VMJ, Tomata, Kec. Mori Atas, Kabupaten Morowali Utara, Sulawesi Tengah 94965","Tomata, Kec. Mori Atas, Kabupaten Morowali Utara",SULAWESI TENGAH,94965.0,Indonesia,,,,-1.9952691,120.9791563,https://maps.google.com/?cid=0x0:0xeb6a9898b27b2b2d,
perumahan,Kantor Perusahaan,Perumahan pt spn watumesono,"WX8X+CJQ, Londi, Kec. Mori Atas, Kabupaten Morowali, Sulawesi Tengah 94965","Londi, Kec. Mori Atas, Kabupaten Morowali",SULAWESI TENGAH,94965.0,Indonesia,,,,-2.0839139,120.9991032,https://maps.google.com/?cid=0x0:0xdcbb97c8afff31e1,
perumahan,Pembangunan Perumahan,Kolaka,"X43P+5MF, Kolaka, Kec. Mori Atas, Kabupaten Morowali Utara, Sulawesi Tengah","Kabupaten Morowali Utara, Sulawesi Tengah",SULAWESI TENGAH,,Indonesia,,,,-2.0470636,121.1366715,https://maps.google.com/?cid=0x0:0x2a016f4cdbb1928c,
perumahan,Perhimpunan Pengembang Perumahan,Lorong Tugu,"4449+Q23, Era, Kec. Mori Utara, Kabupaten Morowali Utara, Sulawesi Tengah","Kabupaten Morowali Utara, Sulawesi Tengah",SULAWESI TENGAH,,Indonesia,,,,-1.8963104,121.118479,https://maps.google.com/?cid=0x0:0x597141124d071dd5,
perumahan,Komplek perumahan,Rumah Ningsi,"X2V6+XJ7, Tomata - Beteleme, Londi, Kec. Mori Atas, Kabupaten Morowali Utara, Sulawesi Tengah 94965","Tomata - Beteleme, Londi, Kec. Mori Atas, Kabupaten Morowali Utara",SULAWESI TENGAH,94965.0,Indonesia,,,,-2.0050815,121.0115393,https://maps.google.com/?cid=0x0:0x9a51d7e724d344cf,
perumahan,Perumahan,Chris Montiley,"3XFH+P95, Mayumba, Kec. Mori Utara, Kabupaten Morowali Utara, Sulawesi Tengah","Kabupaten Morowali Utara, Sulawesi Tengah",SULAWESI TENGAH,,Indonesia,,,,-1.9257413,120.9784741,https://maps.google.com/?cid=0x0:0xf5b7f011677f8fa2,
perumahan,perumahan,Rumah Leon M,"WWRF+R36, Gontara, Kec. Mori Atas, Kabupaten Morowali Utara, Sulawesi Tengah 94965","Gontara, Kec. Mori Atas, Kabupaten Morowali Utara",SULAWESI TENGAH,94965.0,Indonesia,,,,-2.058167,120.922804,https://maps.google.com/?cid=0x0:0x958b25abd1bc5802,
perumahan,Toko Elektronik,"TALIWAN - TABARANO, LIOKA, WAWONDULA","2XJP+G87, Wawondula, Kec. Mori Utara, Kabupaten Morowali Utara, Sulawesi Tengah 94965","Wawondula, Kec. Mori Utara, Kabupaten Morowali Utara",SULAWESI TENGAH,94965.0,Indonesia,,,,-1.9687028,120.9858087,https://maps.google.com/?cid=0x0:0x167adcfc4a76f644,
perumahan,Komplek perumahan,Roman R suro,"2X2F+6XP, Tomata, Kec. Mori Atas, Kabupaten Morowali Utara, Sulawesi Tengah 94965","Tomata, Kec. Mori Atas, Kabupaten Morowali Utara",SULAWESI TENGAH,94965.0,Indonesia,,,,-1.9997704,120.9746419,https://maps.google.com/?cid=0x0:0x4811d0d8f89ca886,
perumahan,Perhimpunan Pengembang Perumahan,RAMAH ERA,"443F+P3G, Era, Kec. Mori Utara, Kabupaten Morowali, Sulawesi Tengah","Kabupaten Morowali, Sulawesi Tengah",SULAWESI TENGAH,,Indonesia,,,,-1.8956984,121.1227089,https://maps.google.com/?cid=0x0:0x4261e1c920292860,
perumahan,Komplek perumahan,RumahMilo,"2XJH+CJ, Tabarano, Kec. Mori Utara, Kabupaten Morowali Utara, Sulawesi Tengah","Kabupaten Morowali Utara, Sulawesi Tengah",SULAWESI TENGAH,,Indonesia,,,,-1.9689542,120.9788918,https://maps.google.com/?cid=0x0:0x9da9ca11d8906080,
perumahan,Komplek perumahan,Keluarga Wani-Dupa,"3W79+VHR, Tiwaa, Kec. Mori Utara, Kabupaten Morowali Utara, Sulawesi Tengah","Kabupaten Morowali Utara, Sulawesi Tengah",SULAWESI TENGAH,,Indonesia,,,,-1.9349887,120.9191899,https://maps.google.com/?cid=0x0:0xdd6c84210834eae2,
perumahan,Kantor Perusahaan,SPN PERUSAHAAN KELAPA SAWIT,"6XV7+RVV, Peleru, Kec. Mori Utara, Kabupaten Morowali, Sulawesi Tengah","Kabupaten Morowali, Sulawesi Tengah",SULAWESI TENGAH,,Indonesia,,,,-1.7553958,120.9646866,https://maps.google.com/?cid=0x0:0x73ff4c5b033ca8ba,
perumahan,perumahan,Sulawesi Tengah 94971,"Kabupaten Morowali, Sulawesi Tengah","Kabupaten Morowali, Sulawesi Tengah",SULAWESI TENGAH,,Indonesia,,,,-1.8683068,121.2168466,https://maps.google.com/?cid=0x0:0x200eae1003365f6b,
perumahan,Pembangunan Perumahan,"Sulteng, morowali utara, petasia timur poranda, bungintimbe","HC9W+59H, Taronggo, Kec. Bungku Utara, Kabupaten Morowali Utara, Sulawesi Tengah","Kabupaten Morowali Utara, Sulawesi Tengah",SULAWESI TENGAH,,Indonesia, 082171124485,,,-1.4320653,121.4459985,https://maps.google.com/?cid=0x0:0xd66516c8e4a80915,
perumahan,perumahan,Kec. Petasia,"Kabupaten Morowali Utara, Sulawesi Tengah","Kabupaten Morowali Utara, Sulawesi Tengah",SULAWESI TENGAH,,Indonesia,,,,-1.9826888,121.3362697,https://maps.google.com/?cid=0x0:0xa1fc0f209d1fef2d,
perumahan,Rumah wisata,KOST AMIRA Lrg. Polsek Petasia Timur,"WCC9+8R5, Bungintimbe, Kec. Petasia Timur, Kabupaten Morowali Utara, Sulawesi Tengah","Kabupaten Morowali Utara, Sulawesi Tengah",SULAWESI TENGAH,,Indonesia,,,,-2.0792278,121.4196043,https://maps.google.com/?cid=0x0:0x28c6e4928bb5d919,
perumahan,Komplek perumahan,Rumah Nasri,"RGP2+XWR, Jl. Trans Sulawesi, Molores, Kec. Petasia, Kabupaten Morowali Utara, Sulawesi Tengah 94971","Jl. Trans Sulawesi, Molores, Kec. Petasia, Kabupaten Morowali Utara",SULAWESI TENGAH,94971.0,Indonesia,,,,-2.1625174,121.5022273,https://maps.google.com/?cid=0x0:0x22aec72c99aa4c52,
perumahan,Pembangunan Perumahan,Ispriawan,"VFP8+8PP, Molino, Kec. Petasia Timur, Kabupaten Morowali Utara, Sulawesi Tengah 94971","Molino, Kec. Petasia Timur, Kabupaten Morowali Utara",SULAWESI TENGAH,94971.0,Indonesia,,,,-2.1141511,121.4668336,https://maps.google.com/?cid=0x0:0x2d591ab3b50349c3,
perumahan,Pembangunan Perumahan,Tompira ttg,"Jl. Trans Sulawesi, Tompira, Kec. Petasia, Kabupaten Morowali Utara, Sulawesi Tengah 94971","Tompira, Kec. Petasia, Kabupaten Morowali Utara",SULAWESI TENGAH,94971.0,Indonesia,,,,-2.1257824,121.4677751,https://maps.google.com/?cid=0x0:0xef4b6bb255bdf37d,
perumahan,Komplek perumahan,Kost Tuan,"RFRW+2C4, Jl. Trans Sulawesi, Molores, Kec. Petasia, Kabupaten Morowali Utara, Sulawesi Tengah 94971","Jl. Trans Sulawesi, Molores, Kec. Petasia, Kabupaten Morowali Utara",SULAWESI TENGAH,94971.0,Indonesia,,,,-2.1600361,121.4960256,https://maps.google.com/?cid=0x0:0x885a8c96f6b7203a,
perumahan,Komplek perumahan,Rumah Wais,"WCFW+XFJ, Jl. Trans Sulawesi, Bungintimbe, Kec. Petasia, Kabupaten Morowali Utara, Sulawesi Tengah 94971","Jl. Trans Sulawesi, Bungintimbe, Kec. Petasia, Kabupaten Morowali Utara",SULAWESI TENGAH,94971.0,Indonesia,,,,-2.0749785,121.4460879,https://maps.google.com/?cid=0x0:0xb4058c3cec461c94,
perumahan,Komplek perumahan,Perumahan Suhrahwardy,"282H+8QJ, Korololaki, Kec. Petasia, Kabupaten Morowali Utara, Sulawesi Tengah 94971","Korololaki, Kec. Petasia, Kabupaten Morowali Utara",SULAWESI TENGAH,94971.0,Indonesia,,,,-1.9991721,121.3293879,https://maps.google.com/?cid=0x0:0xb498c97580f04cae,
perumahan,Pembangunan Perumahan,Tentena,"X8PM+WG4, Korololama, Kec. Petasia, Kabupaten Morowali Utara, Sulawesi Tengah 94971","Korololama, Kec. Petasia, Kabupaten Morowali Utara",SULAWESI TENGAH,94971.0,Indonesia,,,,-2.0131983,121.3334536,https://maps.google.com/?cid=0x0:0x5cd48ed3a6af393b,
perumahan,Komplek perumahan,Rumah Tita,"284J+3JQ, Jl. Lkr. Luar Kolonodale, Korololaki, Kec. Petasia, Kabupaten Morowali Utara, Sulawesi Tengah 94971","Jl. Lkr. Luar Kolonodale, Korololaki, Kec. Petasia, Kabupaten Morowali Utara",SULAWESI TENGAH,94971.0,Indonesia,,,,-1.9948,121.3316131,https://maps.google.com/?cid=0x0:0x36713e41c54fbbdf,
perumahan,Komplek perumahan,Molores,"RGQ2+HCV, Molores, Kec. Petasia, Kabupaten Morowali, Sulawesi Tengah 94971","Molores, Kec. Petasia, Kabupaten Morowali",SULAWESI TENGAH,94971.0,Indonesia, 082235938483,,,-2.161008,121.5010579,https://maps.google.com/?cid=0x0:0x1f811e2bdb39752a,
perumahan,Komplek perumahan,kos,"WGG3+V4M, Towara, Kec. Petasia Timur, Kabupaten Morowali Utara, Sulawesi Tengah","Kabupaten Morowali Utara, Sulawesi Tengah",SULAWESI TENGAH,,Indonesia,,,,-2.0727924,121.502797,https://maps.google.com/?cid=0x0:0xf6c0a93da8cf9665,
perumahan,Pembangunan Perumahan,Perumahan Tompira Glen Recidence,"WC98+FMQ, Unnamed Road, Bungintimbe, Kec. Petasia, Kabupaten Morowali Utara, Sulawesi Tengah 94971","Unnamed Road, Bungintimbe, Kec. Petasia, Kabupaten Morowali Utara",SULAWESI TENGAH,94971.0,Indonesia, 082241409081,,,-2.0812985,121.4167309,https://maps.google.com/?cid=0x0:0x21e0a3a681d1223e,
perumahan,Pembangunan Perumahan,Rumah pendeta Dangari,"Jl. Trans Sulawesi No.120, Pebooa, Kec. Petasia Timur, Kabupaten Morowali Utara, Sulawesi Tengah 94963","Pebooa, Kec. Petasia Timur, Kabupaten Morowali Utara",SULAWESI TENGAH,94963.0,Indonesia,,,,-2.1421901,121.4861978,https://maps.google.com/?cid=0x0:0xa69eff22e13c9935,
perumahan,Komplek perumahan,Kost vania,"27GM+6FX, Tontowea, Kec. Petasia, Kabupaten Morowali Utara, Sulawesi Tengah 94971","Tontowea, Kec. Petasia, Kabupaten Morowali Utara",SULAWESI TENGAH,94971.0,Indonesia,,,,-1.9743982,121.2837462,https://maps.google.com/?cid=0x0:0x70c371210ae230fb,
perumahan,Komplek perumahan,Rumah Gina,"X8MQ+QH4, Jl. Lkr. Luar Kolonodale, Korololama, Kec. Petasia, Kabupaten Morowali Utara, Sulawesi Tengah 94971","Jl. Lkr. Luar Kolonodale, Korololama, Kec. Petasia, Kabupaten Morowali Utara",SULAWESI TENGAH,94971.0,Indonesia,,,,-2.0156406,121.3389325,https://maps.google.com/?cid=0x0:0x5b734ffc6e0921c9,
perumahan,Komplek perumahan,Rumah nisa,"X85G+7HR, Koromatantu, Kec. Petasia, Kabupaten Morowali Utara, Sulawesi Tengah 94971","Koromatantu, Kec. Petasia, Kabupaten Morowali Utara",SULAWESI TENGAH,94971.0,Indonesia,,,,-2.0417172,121.3269965,https://maps.google.com/?cid=0x0:0x6f4f692f848ba5df,
perumahan,Komplek perumahan,Asri,"VGH8+CG, Polewali, Kec. Petasia, Kabupaten Morowali, Sulawesi Tengah","Kabupaten Morowali, Sulawesi Tengah",SULAWESI TENGAH,,Indonesia,,,,-2.1214964,121.5163136,https://maps.google.com/?cid=0x0:0xae55ae28290be7b0,
perumahan,Komplek perumahan,Rumah Rasya,"X84G+V3Q, Koromatantu, Kec. Petasia, Kabupaten Morowali Utara, Sulawesi Tengah 94971","Koromatantu, Kec. Petasia, Kabupaten Morowali Utara",SULAWESI TENGAH,94971.0,Indonesia,,,,-2.0433124,121.3247268,https://maps.google.com/?cid=0x0:0x8f09e0566a27573c,
perumahan,perumahan,Kost,"W9CM+734, Tompira, Kec. Petasia Timur, Kabupaten Morowali Utara, Sulawesi Tengah 94971","Tompira, Kec. Petasia Timur, Kabupaten Morowali Utara",SULAWESI TENGAH,94971.0,Indonesia,,,,-2.0793725,121.38269,https://maps.google.com/?cid=0x0:0xcde15d224102198b,
perumahan,Komplek perumahan,Kos Qiana,"WCFV+3J, Bungintimbe, Kec. Petasia Timur, Kabupaten Morowali Utara, Sulawesi Tengah","Kabupaten Morowali Utara, Sulawesi Tengah",SULAWESI TENGAH,,Indonesia,,,,-2.0772885,121.4440328,https://maps.google.com/?cid=0x0:0x13b308cba5b49f,
perumahan,Toko Pakaian,Perumahan TEKNIK PT ANA,"VFGM+5R8, Molino, Kec. Petasia Timur, Kabupaten Morowali Utara, Sulawesi Tengah 94971","Molino, Kec. Petasia Timur, Kabupaten Morowali Utara",SULAWESI TENGAH,94971.0,Indonesia,,,,-2.1230594,121.4855145,https://maps.google.com/?cid=0x0:0x6f1d5e46266e3fc9,
perumahan,Komplek perumahan,Perumhn afdeling juliet,"VFGM+5XM, Molino, Kec. Petasia Timur, Kabupaten Morowali Utara, Sulawesi Tengah 94971","Molino, Kec. Petasia Timur, Kabupaten Morowali Utara",SULAWESI TENGAH,94971.0,Indonesia,,,,-2.12453,121.4849362,https://maps.google.com/?cid=0x0:0x4ecb5c21d94b4c1b,
perumahan,Kantor Perusahaan,Hillcon site Keinz Ventura,"WF34+FF, Towara, Kec. Petasia Timur, Kabupaten Morowali, Sulawesi Tengah 94971","Towara, Kec. Petasia Timur, Kabupaten Morowali",SULAWESI TENGAH,94971.0,Indonesia,,,,-2.0962567,121.4561852,https://maps.google.com/?cid=0x0:0xbc450f0eca3aee21,
perumahan,Komplek perumahan,Poranda bungintimbe,"WCFW+PFP, Bungintimbe, Kec. Petasia, Kabupaten Morowali Utara, Sulawesi Tengah 94971","Bungintimbe, Kec. Petasia, Kabupaten Morowali Utara",SULAWESI TENGAH,94971.0,Indonesia,,,,-2.0756544,121.4461947,https://maps.google.com/?cid=0x0:0x20067ffb35766204,
perumahan,Toko Swalayan,Kios Zakiyah  Kos Rasyid Arsyad,"WF93+J5V, Jl. Trans Sulawesi, Towara, Kec. Petasia, Kabupaten Morowali Utara, Sulawesi Tengah 94971","Jl. Trans Sulawesi, Towara, Kec. Petasia, Kabupaten Morowali Utara",SULAWESI TENGAH,94971.0,Indonesia, 082188678185,,,-2.080897,121.45314,https://maps.google.com/?cid=0x0:0xb64d608dd3c9297,
perumahan,Perhimpunan Pengembang Perumahan,Perumahan pabrik pt ana,"VFCM+4XR, Jl. Trans Sulawesi, Mohoni, Kec. Petasia, Kabupaten Morowali Utara, Sulawesi Tengah 94971","Jl. Trans Sulawesi, Mohoni, Kec. Petasia, Kabupaten Morowali Utara",SULAWESI TENGAH,94971.0,Indonesia, 082393886650,,,-2.1296274,121.4848968,https://maps.google.com/?cid=0x0:0x7cfa796253a74b00,
perumahan,perumahan,Kec. Petasia Barat,"Kabupaten Morowali Utara, Sulawesi Tengah","Kabupaten Morowali Utara, Sulawesi Tengah",SULAWESI TENGAH,,Indonesia,,,,-2.0117169,121.2965127,https://maps.google.com/?cid=0x0:0xa1b3a15e083efa64,
perumahan,Komplek perumahan,Rumah Tita,"284J+3JQ, Jl. Lkr. Luar Kolonodale, Korololaki, Kec. Petasia, Kabupaten Morowali Utara, Sulawesi Tengah 94971","Jl. Lkr. Luar Kolonodale, Korololaki, Kec. Petasia, Kabupaten Morowali Utara",SULAWESI TENGAH,94971.0,Indonesia,,,,-1.9948,121.3316131,https://maps.google.com/?cid=0x0:0x36713e41c54fbbdf,
perumahan,Vila,Pondok Andi sukriadi,"X94C+H4, Bunta, Kec. Petasia Timur, Kabupaten Morowali, Sulawesi Tengah 94971","Bunta, Kec. Petasia Timur, Kabupaten Morowali",SULAWESI TENGAH,94971.0,Indonesia,,,,-2.0435674,121.3702657,https://maps.google.com/?cid=0x0:0xfb43716e23c7d6c6,
perumahan,Komplek perumahan,Kost vania,"27GM+6FX, Tontowea, Kec. Petasia, Kabupaten Morowali Utara, Sulawesi Tengah 94971","Tontowea, Kec. Petasia, Kabupaten Morowali Utara",SULAWESI TENGAH,94971.0,Indonesia,,,,-1.9743982,121.2837462,https://maps.google.com/?cid=0x0:0x70c371210ae230fb,
perumahan,Komplek perumahan,Rumah Kel. Tamangga Pokote,"X7QV+XF, Tiu, Kec. Petasia Barat, Kabupaten Morowali Utara, Sulawesi Tengah","Kabupaten Morowali Utara, Sulawesi Tengah",SULAWESI TENGAH,,Indonesia,,,,-2.0100119,121.2936605,https://maps.google.com/?cid=0x0:0x47b495467c8d14a,
perumahan,Komplek perumahan,Rumah Gina,"X8MQ+QH4, Jl. Lkr. Luar Kolonodale, Korololama, Kec. Petasia, Kabupaten Morowali Utara, Sulawesi Tengah 94971","Jl. Lkr. Luar Kolonodale, Korololama, Kec. Petasia, Kabupaten Morowali Utara",SULAWESI TENGAH,94971.0,Indonesia,,,,-2.0156406,121.3389325,https://maps.google.com/?cid=0x0:0x5b734ffc6e0921c9,
perumahan,Komplek perumahan,Perumahan Suhrahwardy,"282H+8QJ, Korololaki, Kec. Petasia, Kabupaten Morowali Utara, Sulawesi Tengah 94971","Korololaki, Kec. Petasia, Kabupaten Morowali Utara",SULAWESI TENGAH,94971.0,Indonesia,,,,-1.9991721,121.3293879,https://maps.google.com/?cid=0x0:0xb498c97580f04cae,
perumahan,perumahan,Rumah kecil,"X874+567, Mondowe, Kec. Petasia Barat, Kabupaten Morowali Utara, Sulawesi Tengah 94971","Mondowe, Kec. Petasia Barat, Kabupaten Morowali Utara",SULAWESI TENGAH,94971.0,Indonesia,,,,-2.0370823,121.3055486,https://maps.google.com/?cid=0x0:0xc9216db6753fde3,
perumahan,Kompleks Kondominium,Bunta,"X968+W55, Bunta, Kec. Petasia, Kabupaten Morowali Utara, Sulawesi Tengah 94971","Bunta, Kec. Petasia, Kabupaten Morowali Utara",SULAWESI TENGAH,94971.0,Indonesia,,,,-2.03837,121.3650033,https://maps.google.com/?cid=0x0:0x4647021d75ce725f,
perumahan,perumahan,One CeryA,"Jl. Kampung Damai, Eppe, Korololama, Kec. Petasia, Kabupaten Morowali Utara, Sulawesi Tengah 94971","Eppe, Korololama, Kec. Petasia, Kabupaten Morowali Utara",SULAWESI TENGAH,94971.0,Indonesia,,,,-2.0216875,121.3370625,https://maps.google.com/?cid=0x0:0xf595e2fa1ec6fc6f,
perumahan,Komplek perumahan,Rumah Kel. Balebu Muya,"X7QV+7RX, Tiu, Kec. Petasia, Kabupaten Morowali Utara, Sulawesi Tengah 94971","Tiu, Kec. Petasia, Kabupaten Morowali Utara",SULAWESI TENGAH,94971.0,Indonesia,,,,-2.0119089,121.294362,https://maps.google.com/?cid=0x0:0xcf8e3d8819cde5df,
perumahan,Komplek perumahan,Perumnas 76,"285Q+9GG, Jl. Tinumbu, Kolonodale, Kec. Petasia, Kabupaten Morowali Utara, Sulawesi Tengah 94971","Jl. Tinumbu, Kolonodale, Kec. Petasia, Kabupaten Morowali Utara",SULAWESI TENGAH,94971.0,Indonesia, 085395333095,,,-1.9915601,121.3388322,https://maps.google.com/?cid=0x0:0x8ddaa9234ffc1ae9,
perumahan,Komplek perumahan,RAGASATRIA KOS,"X8JP+HCC, Korololama, Kec. Petasia, Kabupaten Morowali Utara, Sulawesi Tengah 94971","Korololama, Kec. Petasia, Kabupaten Morowali Utara",SULAWESI TENGAH,94971.0,Indonesia, 085215848324,,,-2.0185713,121.336031,https://maps.google.com/?cid=0x0:0x6eab543387dcb03a,
perumahan,Komplek perumahan,Perumahan Berjaya Korololaki Permai,"282H+PG, Kolonodale, Kec. Petasia, Kabupaten Morowali, Sulawesi Tengah 94971","Kolonodale, Kec. Petasia, Kabupaten Morowali",SULAWESI TENGAH,94971.0,Indonesia, 087803581576,,,-1.9981041,121.3288657,https://maps.google.com/?cid=0x0:0xfadb4f04c787f849,
perumahan,Komplek perumahan,Rumah R Buluade,"28CP+2G2, Bahoue, Kec. Petasia, Kabupaten Morowali Utara, Sulawesi Tengah 94971","Bahoue, Kec. Petasia, Kabupaten Morowali Utara",SULAWESI TENGAH,94971.0,Indonesia,,,,-1.9799875,121.3362656,https://maps.google.com/?cid=0x0:0xedc7f0a2cb4607e4,
perumahan,Komplek perumahan,Lorong Mengkendek,"W9RH+P4W, Bunta, Kec. Petasia, Kabupaten Morowali, Sulawesi Tengah 94971","Bunta, Kec. Petasia, Kabupaten Morowali",SULAWESI TENGAH,94971.0,Indonesia,,,,-2.0581399,121.3778252,https://maps.google.com/?cid=0x0:0xefaa75c7e45effee,
perumahan,Komplek perumahan,Rumah Dayat rongka,"X86H+FF, Koromatantu, Kec. Petasia Barat, Kabupaten Morowali Utara, Sulawesi Tengah","Kabupaten Morowali Utara, Sulawesi Tengah",SULAWESI TENGAH,,Indonesia,,,,-2.0387741,121.3287005,https://maps.google.com/?cid=0x0:0xee5d629829eb0562,
perumahan,Komplek perumahan,Rumah MELLY JECO LAWANDI,"289P+F3V, Bahontula, Kec. Petasia, Kabupaten Morowali, Sulawesi Tengah 94971","Bahontula, Kec. Petasia, Kabupaten Morowali",SULAWESI TENGAH,94971.0,Indonesia,,,,-1.9812579,121.3351612,https://maps.google.com/?cid=0x0:0x163e8ea4d808083e,
perumahan,Komplek perumahan,Rumah GIVAR SUMAILA,"X83P+6R2, Koromatantu, Kec. Petasia Barat, Kabupaten Morowali Utara, Sulawesi Tengah 94971","Koromatantu, Kec. Petasia Barat, Kabupaten Morowali Utara",SULAWESI TENGAH,94971.0,Indonesia,,,,-2.0469821,121.3370154,https://maps.google.com/?cid=0x0:0x7ee1e2dce835c674,
perumahan,perumahan,Rumah raffasya,"Perumahan Morita Hills, blok 1 No.14, Kolonodale, Kec. Petasia, Kabupaten Morowali Utara, Sulawesi Tengah 94971","blok 1 No.14, Kolonodale, Kec. Petasia, Kabupaten Morowali Utara",SULAWESI TENGAH,94971.0,Indonesia,,,,-1.9930703,121.332122,https://maps.google.com/?cid=0x0:0x98138f2c32d9d723,
perumahan,Komplek perumahan,Rumah Rasya,"X84G+V3Q, Koromatantu, Kec. Petasia, Kabupaten Morowali Utara, Sulawesi Tengah 94971","Koromatantu, Kec. Petasia, Kabupaten Morowali Utara",SULAWESI TENGAH,94971.0,Indonesia,,,,-2.0433124,121.3247268,https://maps.google.com/?cid=0x0:0x8f09e0566a27573c,
perumahan,Komplek perumahan,Rumah nisa,"X85G+7HR, Koromatantu, Kec. Petasia, Kabupaten Morowali Utara, Sulawesi Tengah 94971","Koromatantu, Kec. Petasia, Kabupaten Morowali Utara",SULAWESI TENGAH,94971.0,Indonesia,,,,-2.0417172,121.3269965,https://maps.google.com/?cid=0x0:0x6f4f692f848ba5df,
perumahan,Komplek perumahan,Rumah Tatha,"28GR+P9F, Lorong.Papoji, Bahoue, Kec. Petasia, Kabupaten Morowali Utara, Sulawesi Tengah 94971","Lorong.Papoji, Bahoue, Kec. Petasia, Kabupaten Morowali Utara",SULAWESI TENGAH,94971.0,Indonesia,,,,-1.9731806,121.3409364,https://maps.google.com/?cid=0x0:0xb7aa5ee323a932d0,
perumahan,Komplek perumahan,Candra,"X7R2+RM3, Togo Mulyo, Kec. Petasia, Kabupaten Morowali Utara, Sulawesi Tengah 94971","Togo Mulyo, Kec. Petasia, Kabupaten Morowali Utara",SULAWESI TENGAH,94971.0,Indonesia,,,,-2.0074815,121.2508152,https://maps.google.com/?cid=0x0:0x426a321fb5f36d25,
perumahan,Balai masyarakat,Desa Tadaku Jaya,"X77R+H92, Mondowe, Kec. Petasia Barat, Kabupaten Morowali Utara, Sulawesi Tengah 94971","Mondowe, Kec. Petasia Barat, Kabupaten Morowali Utara",SULAWESI TENGAH,94971.0,Indonesia,,,,-2.0361116,121.2908985,https://maps.google.com/?cid=0x0:0x8afe8a79c8546ef0,
perumahan,Komplek perumahan,Arumpone-Ellu,"X7RW+92, Tiu, Kec. Petasia Barat, Kabupaten Morowali, Sulawesi Tengah 94971","Tiu, Kec. Petasia Barat, Kabupaten Morowali",SULAWESI TENGAH,94971.0,Indonesia,,,,-2.0090985,121.2950037,https://maps.google.com/?cid=0x0:0x960f1cfc3c750681,
perumahan,Komplek perumahan,Home Roofi,"288Q+VQ2, Bahontula, Kec. Petasia, Kabupaten Morowali, Sulawesi Tengah 94971","Bahontula, Kec. Petasia, Kabupaten Morowali",SULAWESI TENGAH,94971.0,Indonesia,,,,-1.9828536,121.3393942,https://maps.google.com/?cid=0x0:0xa0ac6ddfcb512751,
perumahan,perumahan,rumah arwina mbata,"X7QW+344, Tiu, Kec. Petasia Barat, Kabupaten Morowali Utara, Sulawesi Tengah 94971","Tiu, Kec. Petasia Barat, Kabupaten Morowali Utara",SULAWESI TENGAH,94971.0,Indonesia,,,,-2.0123674,121.2953372,https://maps.google.com/?cid=0x0:0xc0baa46332f39d46,
perumahan,Komplek perumahan,Karta Home,"W7QW+R4M, Moleono, Kec. Petasia Barat, Kabupaten Morowali Utara, Sulawesi Tengah 94971","Moleono, Kec. Petasia Barat, Kabupaten Morowali Utara",SULAWESI TENGAH,94971.0,Indonesia,,,,-2.0604197,121.2952899,https://maps.google.com/?cid=0x0:0x37621bdeca7b1021,
perumahan,perumahan,Kec. Petasia Timur,"Kabupaten Morowali Utara, Sulawesi Tengah","Kabupaten Morowali Utara, Sulawesi Tengah",SULAWESI TENGAH,,Indonesia,,,,-2.116671,121.4659893,https://maps.google.com/?cid=0x0:0xd22775cddb1fcbf7,
perumahan,Komplek perumahan,Matabolo perasia timur Morowali Utara,"W9R8+7QQ, Bunta, Kec. Petasia, Kabupaten Morowali, Sulawesi Tengah 94971","Bunta, Kec. Petasia, Kabupaten Morowali",SULAWESI TENGAH,94971.0,Indonesia,,,,-2.0592965,121.3669941,https://maps.google.com/?cid=0x0:0x5cbae07cf52ef31d,
perumahan,Komplek perumahan,Kos Qiana,"WCFV+3J, Bungintimbe, Kec. Petasia Timur, Kabupaten Morowali Utara, Sulawesi Tengah","Kabupaten Morowali Utara, Sulawesi Tengah",SULAWESI TENGAH,,Indonesia,,,,-2.0772885,121.4440328,https://maps.google.com/?cid=0x0:0x13b308cba5b49f,
perumahan,Kantor Perusahaan,Hillcon site Keinz Ventura,"WF34+FF, Towara, Kec. Petasia Timur, Kabupaten Morowali, Sulawesi Tengah 94971","Towara, Kec. Petasia Timur, Kabupaten Morowali",SULAWESI TENGAH,94971.0,Indonesia,,,,-2.0962567,121.4561852,https://maps.google.com/?cid=0x0:0xbc450f0eca3aee21,
perumahan,Toko Pakaian,Perumahan TEKNIK PT ANA,"VFGM+5R8, Molino, Kec. Petasia Timur, Kabupaten Morowali Utara, Sulawesi Tengah 94971","Molino, Kec. Petasia Timur, Kabupaten Morowali Utara",SULAWESI TENGAH,94971.0,Indonesia,,,,-2.1230594,121.4855145,https://maps.google.com/?cid=0x0:0x6f1d5e46266e3fc9,
perumahan,Pembangunan Perumahan,Ispriawan,"VFP8+8PP, Molino, Kec. Petasia Timur, Kabupaten Morowali Utara, Sulawesi Tengah 94971","Molino, Kec. Petasia Timur, Kabupaten Morowali Utara",SULAWESI TENGAH,94971.0,Indonesia,,,,-2.1141511,121.4668336,https://maps.google.com/?cid=0x0:0x2d591ab3b50349c3,
perumahan,Pembangunan Perumahan,Perumahan Tompira Glen Recidence,"WC98+FMQ, Unnamed Road, Bungintimbe, Kec. Petasia, Kabupaten Morowali Utara, Sulawesi Tengah 94971","Unnamed Road, Bungintimbe, Kec. Petasia, Kabupaten Morowali Utara",SULAWESI TENGAH,94971.0,Indonesia, 082241409081,,,-2.0812985,121.4167309,https://maps.google.com/?cid=0x0:0x21e0a3a681d1223e,
perumahan,Apartemen sewa liburan,KOS NAYYARA,"WCH8+7WH, Jl. Trans Sulawesi, Tompira, Kec. Petasia Timur, Kabupaten Morowali Utara, Sulawesi Tengah","Kabupaten Morowali Utara, Sulawesi Tengah",SULAWESI TENGAH,,Indonesia,,,,-2.0718113,121.4173749,https://maps.google.com/?cid=0x0:0xe2c6ccf9b01cf2b7,
perumahan,Komplek perumahan,Perumhn afdeling juliet,"VFGM+5XM, Molino, Kec. Petasia Timur, Kabupaten Morowali Utara, Sulawesi Tengah 94971","Molino, Kec. Petasia Timur, Kabupaten Morowali Utara",SULAWESI TENGAH,94971.0,Indonesia,,,,-2.12453,121.4849362,https://maps.google.com/?cid=0x0:0x4ecb5c21d94b4c1b,
perumahan,Polisi Sipil,Tompira,"W9FQ+V94, Tompira, Kec. Petasia Timur, Kabupaten Morowali Utara, Sulawesi Tengah 94971","Tompira, Kec. Petasia Timur, Kabupaten Morowali Utara",SULAWESI TENGAH,94971.0,Indonesia, 085311870847,,,-2.0753645,121.3884671,https://maps.google.com/?cid=0x0:0x6f01d4c47d550d3e,
perumahan,Guest house,Penginapan  Kost Harapan Kita Tompira,"Jl. Trans Tompira, Tompira, Kec. Petasia Timur, Kabupaten Morowali Utara, Sulawesi Tengah","Kabupaten Morowali Utara, Sulawesi Tengah",SULAWESI TENGAH,,Indonesia, 082299507978,,,-2.0823551,121.3695951,https://maps.google.com/?cid=0x0:0xf291a3c3a55620e5,
perumahan,Komplek perumahan,Rumah Nasri,"RGP2+XWR, Jl. Trans Sulawesi, Molores, Kec. Petasia, Kabupaten Morowali Utara, Sulawesi Tengah 94971","Jl. Trans Sulawesi, Molores, Kec. Petasia, Kabupaten Morowali Utara",SULAWESI TENGAH,94971.0,Indonesia,,,,-2.1625174,121.5022273,https://maps.google.com/?cid=0x0:0x22aec72c99aa4c52,
perumahan,Pembangunan Perumahan,Rumah saya,"W9JP+79Q, Tompira, Kec. Petasia Timur, Kabupaten Morowali Utara, Sulawesi Tengah 94971","Tompira, Kec. Petasia Timur, Kabupaten Morowali Utara",SULAWESI TENGAH,94971.0,Indonesia,,,,-2.0692475,121.3859917,https://maps.google.com/?cid=0x0:0x427d1429e16f1485,
perumahan,Pembangunan Perumahan,Tompira ttg,"Jl. Trans Sulawesi, Tompira, Kec. Petasia, Kabupaten Morowali Utara, Sulawesi Tengah 94971","Tompira, Kec. Petasia, Kabupaten Morowali Utara",SULAWESI TENGAH,94971.0,Indonesia,,,,-2.1257824,121.4677751,https://maps.google.com/?cid=0x0:0xef4b6bb255bdf37d,
perumahan,,Rumah kita,"W9HQ+9H6, Tompira, Kec. Petasia Timur, Kabupaten Morowali Utara, Sulawesi Tengah 94971","Tompira, Kec. Petasia Timur, Kabupaten Morowali Utara",SULAWESI TENGAH,94971.0,Indonesia,,,,-2.0715771,121.3888916,https://maps.google.com/?cid=0x0:0xa1efdc0f0964b1bd,
perumahan,Pembangunan Perumahan,Kos-kosan chaaya,"VFR6+XP7, Molino, Kec. Petasia Timur, Kabupaten Morowali, Sulawesi Tengah 94971","Molino, Kec. Petasia Timur, Kabupaten Morowali",SULAWESI TENGAH,94971.0,Indonesia, 082311487787,,,-2.1075769,121.461783,https://maps.google.com/?cid=0x0:0xe4110f27c3515f31,
perumahan,Komplek perumahan,JAKARTA KOST,"X949+H89, Jalan Lorong Trans, Bunta, Petasia Timur, North Morowali Regency, Central Sulawesi","Kabupaten Morowali Utara, Sulawesi Tengah",SULAWESI TENGAH,,Indonesia, 085173099550,,,-2.0435845,121.3683701,https://maps.google.com/?cid=0x0:0xc94c7de96e103a5c,
perumahan,Komplek perumahan,Kost Tuan,"RFRW+2C4, Jl. Trans Sulawesi, Molores, Kec. Petasia, Kabupaten Morowali Utara, Sulawesi Tengah 94971","Jl. Trans Sulawesi, Molores, Kec. Petasia, Kabupaten Morowali Utara",SULAWESI TENGAH,94971.0,Indonesia,,,,-2.1600361,121.4960256,https://maps.google.com/?cid=0x0:0x885a8c96f6b7203a,
perumahan,perumahan,Home Putry  Naila ( Muli ),"VFM8+CXP, Molino, Kec. Petasia Timur, Kabupaten Morowali Utara, Sulawesi Tengah 94971","Molino, Kec. Petasia Timur, Kabupaten Morowali Utara",SULAWESI TENGAH,94971.0,Indonesia,,,,-2.1157704,121.4671195,https://maps.google.com/?cid=0x0:0x664901b08fed297f,
perumahan,Penyewaan Tanah,Kos padaidi'tompira,"W9HV+H88, Tompira, Kec. Petasia Timur, Kabupaten Morowali, Sulawesi Tengah","Kabupaten Morowali, Sulawesi Tengah",SULAWESI TENGAH,,Indonesia,,,,-2.0710996,121.3933233,https://maps.google.com/?cid=0x0:0xaf2393f9dc5504db,
perumahan,Komplek perumahan,Rumah Wais,"WCFW+XFJ, Jl. Trans Sulawesi, Bungintimbe, Kec. Petasia, Kabupaten Morowali Utara, Sulawesi Tengah 94971","Jl. Trans Sulawesi, Bungintimbe, Kec. Petasia, Kabupaten Morowali Utara",SULAWESI TENGAH,94971.0,Indonesia,,,,-2.0749785,121.4460879,https://maps.google.com/?cid=0x0:0xb4058c3cec461c94,
perumahan,Komplek perumahan,Molores,"RGQ2+HCV, Molores, Kec. Petasia, Kabupaten Morowali, Sulawesi Tengah 94971","Molores, Kec. Petasia, Kabupaten Morowali",SULAWESI TENGAH,94971.0,Indonesia, 082235938483,,,-2.161008,121.5010579,https://maps.google.com/?cid=0x0:0x1f811e2bdb39752a,
perumahan,Komplek perumahan,Lorong krluarga,"W9VC+944 dusun 3 matabolo, Bunta, Kec. Petasia Timur, Kabupaten Morowali Utara, Sulawesi Tengah 94971","Bunta, Kec. Petasia Timur, Kabupaten Morowali Utara",SULAWESI TENGAH,94971.0,Indonesia,,,,-2.0566248,121.3703381,https://maps.google.com/?cid=0x0:0x23091b9b57141b7b,
perumahan,Bengkel Ganti Oli,BENGKEL PUTRI TUNGGAL,"W9FQ+V94, Dusun 1, Tompira, Kec. Petasia Timur, Kabupaten Morowali Utara, Sulawesi Tengah 94971","Dusun 1, Tompira, Kec. Petasia Timur, Kabupaten Morowali Utara",SULAWESI TENGAH,94971.0,Indonesia,,,,-2.0753645,121.3884671,https://maps.google.com/?cid=0x0:0x6f4b4664c3e9deca,
perumahan,Komplek perumahan,Kos pak sukri,"W98C+9X, Tompira, Kec. Petasia Timur, Kabupaten Morowali, Sulawesi Tengah 94971","Tompira, Kec. Petasia Timur, Kabupaten Morowali",SULAWESI TENGAH,94971.0,Indonesia,,,,-2.0840013,121.372444,https://maps.google.com/?cid=0x0:0x22c1204c11b6a44e,
perumahan,Komplek perumahan,Kos Rubiansyah Soko,"WFC2+5H7, Jl. Trans Sulawesi, Bungintimbe, Kec. Petasia, Kabupaten Morowali Utara, Sulawesi Tengah 94971","Jl. Trans Sulawesi, Bungintimbe, Kec. Petasia, Kabupaten Morowali Utara",SULAWESI TENGAH,94971.0,Indonesia,,,,-2.0803083,121.450799,https://maps.google.com/?cid=0x0:0xba86df137c80609c,
perumahan,Komplek perumahan,Cem,"VFCG+9MX, Molino, Kec. Petasia Timur, Kabupaten Morowali Utara, Sulawesi Tengah","Kabupaten Morowali Utara, Sulawesi Tengah",SULAWESI TENGAH,,Indonesia,,,,-2.128558,121.4760567,https://maps.google.com/?cid=0x0:0x1d820945da03647,
perumahan,Komplek perumahan,Rumah sulaeman efendi,"RGM3+8VP, Keuno, Kec. Petasia Timur, Kabupaten Morowali Utara, Sulawesi Tengah","Kabupaten Morowali Utara, Sulawesi Tengah",SULAWESI TENGAH,,Indonesia,,,,-2.1666746,121.5047083,https://maps.google.com/?cid=0x0:0xa8eb2570e35a77ae,
perumahan,perumahan,Sulawesi Tengah 94971,"Kabupaten Morowali, Sulawesi Tengah","Kabupaten Morowali, Sulawesi Tengah",SULAWESI TENGAH,,Indonesia,,,,-1.8683068,121.2168466,https://maps.google.com/?cid=0x0:0x200eae1003365f6b,
perumahan,Komplek perumahan,Tandoyondo,"67VX+66, Tandoyondo, Kec. Soyo Jaya, Kabupaten Morowali, Sulawesi Tengah","Kabupaten Morowali, Sulawesi Tengah",SULAWESI TENGAH,,Indonesia,,,,-1.7569992,121.2980566,https://maps.google.com/?cid=0x0:0x872a178e96d3a53c,
perumahan,Komplek perumahan,Rumah pak sariah,"95Q6+Q8M, Malino Jaya, Kec. Soyo Jaya, Kabupaten Morowali Utara, Sulawesi Tengah 94971","Malino Jaya, Kec. Soyo Jaya, Kabupaten Morowali Utara",SULAWESI TENGAH,94971.0,Indonesia,,,,-1.6105818,121.1608251,https://maps.google.com/?cid=0x0:0x7d34674be8285517,
perumahan,Komplek perumahan,Tabayoli,"787G+2C6, Tambayoli, Kec. Soyo Jaya, Kabupaten Morowali Utara, Sulawesi Tengah 94971","Tambayoli, Kec. Soyo Jaya, Kabupaten Morowali Utara",SULAWESI TENGAH,94971.0,Indonesia,,,,-1.7374631,121.3260176,https://maps.google.com/?cid=0x0:0x45ec19533e010aa2,
perumahan,Balai masyarakat,Desa Tadaku Jaya,"X77R+H92, Mondowe, Kec. Petasia Barat, Kabupaten Morowali Utara, Sulawesi Tengah 94971","Mondowe, Kec. Petasia Barat, Kabupaten Morowali Utara",SULAWESI TENGAH,94971.0,Indonesia,,,,-2.0361116,121.2908985,https://maps.google.com/?cid=0x0:0x8afe8a79c8546ef0,
perumahan,Komplek perumahan,Rumah MELLY JECO LAWANDI,"289P+F3V, Bahontula, Kec. Petasia, Kabupaten Morowali, Sulawesi Tengah 94971","Bahontula, Kec. Petasia, Kabupaten Morowali",SULAWESI TENGAH,94971.0,Indonesia,,,,-1.9812579,121.3351612,https://maps.google.com/?cid=0x0:0x163e8ea4d808083e,
perumahan,Komplek perumahan,Rumah Alm.SUWONO,"787F+9G, Tambayoli, Kec. Soyo Jaya, Kabupaten Morowali, Sulawesi Tengah","Kabupaten Morowali, Sulawesi Tengah",SULAWESI TENGAH,,Indonesia,,,,-1.7355127,121.3234282,https://maps.google.com/?cid=0x0:0xf7800f6598db6b90,
perumahan,Pembangunan Perumahan,Lorong bali,"64XX+57R, Panca Makmur, Kec. Soyo Jaya, Kabupaten Morowali Utara, Sulawesi Tengah","Kabupaten Morowali Utara, Sulawesi Tengah",SULAWESI TENGAH,,Indonesia,,,,-1.7520166,121.1481284,https://maps.google.com/?cid=0x0:0xb5fb6a1197fa5b35,
perumahan,Komplek perumahan,Perumahan Suhrahwardy,"282H+8QJ, Korololaki, Kec. Petasia, Kabupaten Morowali Utara, Sulawesi Tengah 94971","Korololaki, Kec. Petasia, Kabupaten Morowali Utara",SULAWESI TENGAH,94971.0,Indonesia,,,,-1.9991721,121.3293879,https://maps.google.com/?cid=0x0:0xb498c97580f04cae,
perumahan,Komplek perumahan,Rumah sekdes Panca Makmur,"845W+QR, Panca Makmur, Kec. Soyo Jaya, Kabupaten Morowali, Sulawesi Tengah 94971","Panca Makmur, Kec. Soyo Jaya, Kabupaten Morowali",SULAWESI TENGAH,94971.0,Indonesia,,,,-1.6906277,121.1470212,https://maps.google.com/?cid=0x0:0xe920a98454c6d351,
perumahan,Komplek perumahan,Ibu Cici,"87MM+JH, Sumara Jaya, Kec. Soyo Jaya, Kabupaten Morowali Utara, Sulawesi Tengah","Kabupaten Morowali Utara, Sulawesi Tengah",SULAWESI TENGAH,,Indonesia,,,,-1.6658069,121.283934,https://maps.google.com/?cid=0x0:0xb00349327067d1a1,
perumahan,Komplek perumahan,Rumah Rahmat Hidayat,"78H6+4R8, Lembah Sumara, Kec. Soyo Jaya, Kabupaten Morowali, Sulawesi Tengah 94971","Lembah Sumara, Kec. Soyo Jaya, Kabupaten Morowali",SULAWESI TENGAH,94971.0,Indonesia,,,,-1.7222247,121.312067,https://maps.google.com/?cid=0x0:0x4227768dcefad259,
perumahan,Komplek perumahan,Usaha beton Mbah Surip sumara jaya,"87RF+WJW, Sumara Jaya, Kec. Soyo Jaya, Kabupaten Morowali Utara, Sulawesi Tengah 94971","Sumara Jaya, Kec. Soyo Jaya, Kabupaten Morowali Utara",SULAWESI TENGAH,94971.0,Indonesia,,,,-1.6576298,121.2740813,https://maps.google.com/?cid=0x0:0x926a7fc103d3d297,
perumahan,Komplek perumahan,Calo motor,"846W+F9R, Panca Makmur, Kec. Soyo Jaya, Kabupaten Morowali, Sulawesi Tengah 94971","Panca Makmur, Kec. Soyo Jaya, Kabupaten Morowali",SULAWESI TENGAH,94971.0,Indonesia,,,,-1.688744,121.1458565,https://maps.google.com/?cid=0x0:0xee2dde6e4e70526c,
perumahan,Komplek perumahan,Perumahan Berjaya Korololaki Permai,"282H+PG, Kolonodale, Kec. Petasia, Kabupaten Morowali, Sulawesi Tengah 94971","Kolonodale, Kec. Petasia, Kabupaten Morowali",SULAWESI TENGAH,94971.0,Indonesia, 087803581576,,,-1.9981041,121.3288657,https://maps.google.com/?cid=0x0:0xfadb4f04c787f849,
perumahan,Komplek perumahan,Afrizal prayoga,"735X+XJ, Panca Makmur, Kec. Soyo Jaya, Kabupaten Morowali Utara, Sulawesi Tengah","Kabupaten Morowali Utara, Sulawesi Tengah",SULAWESI TENGAH,,Indonesia,,,,-1.740076,121.099088,https://maps.google.com/?cid=0x0:0x15e0125dea9efbff,
perumahan,Perhimpunan Pengembang Perumahan,Rumah anwar,"64XX+57R, Panca Makmur, Kec. Soyo Jaya, Kabupaten Morowali Utara, Sulawesi Tengah","Kabupaten Morowali Utara, Sulawesi Tengah",SULAWESI TENGAH,,Indonesia,,,,-1.7520166,121.1481284,https://maps.google.com/?cid=0x0:0xfd8a203a2c61c17,
perumahan,perumahan,Home Mayumi,"28HR+V3G Kuda laut, Bahoue, Kec. Petasia, Kabupaten Morowali Utara, Sulawesi Tengah 94971","Bahoue, Kec. Petasia, Kabupaten Morowali Utara",SULAWESI TENGAH,94971.0,Indonesia,,,,-1.9703038,121.3402096,https://maps.google.com/?cid=0x0:0x4c0cf2d2c1d2a5c9,
perumahan,Komplek perumahan,Rumah Aldion,"X7QW+8CM, Tiu, Kec. Petasia, Kabupaten Morowali Utara, Sulawesi Tengah 94971","Tiu, Kec. Petasia, Kabupaten Morowali Utara",SULAWESI TENGAH,94971.0,Indonesia,,,,-2.012482,121.2961331,https://maps.google.com/?cid=0x0:0xf34f65565d3ec682,
perumahan,Komplek perumahan,Rumah ayu rara ayra,"843W+CH3, Panca Makmur, Kec. Soyo Jaya, Kabupaten Morowali Utara, Sulawesi Tengah","Kabupaten Morowali Utara, Sulawesi Tengah",SULAWESI TENGAH,,Indonesia,,,,-1.6964997,121.1464354,https://maps.google.com/?cid=0x0:0x50b370329b874844,
perumahan,Komplek perumahan,Rumah surya alvarez,"94RP+3M7, Malino Jaya, Kec. Soyo Jaya, Kabupaten Morowali Utara, Sulawesi Tengah","Kabupaten Morowali Utara, Sulawesi Tengah",SULAWESI TENGAH,,Indonesia,,,,-1.6098486,121.1366715,https://maps.google.com/?cid=0x0:0x86e6808cc7aa9cd1,
perumahan,Komplek perumahan,Rumah Rubi tapi Matla',"95Q5+24F, Malino Jaya, Kec. Soyo Jaya, Kabupaten Morowali Utara, Sulawesi Tengah","Kabupaten Morowali Utara, Sulawesi Tengah",SULAWESI TENGAH,,Indonesia,,,,-1.612445,121.1578117,https://maps.google.com/?cid=0x0:0x53b43468e20db749,
perumahan,Komplek perumahan,Kamasean Kost,"X8PM+WG4, Jalur Dua, Korololama, Kec. Petasia, Kabupaten Morowali Utara, Sulawesi Tengah 94971","Jalur Dua, Korololama, Kec. Petasia, Kabupaten Morowali Utara",SULAWESI TENGAH,94971.0,Indonesia, 082292300045,,,-2.0145651,121.3335188,https://maps.google.com/?cid=0x0:0x4790d5264c6148b0,
perumahan,Komplek perumahan,Rumah Tita,"284J+3JQ, Jl. Lkr. Luar Kolonodale, Korololaki, Kec. Petasia, Kabupaten Morowali Utara, Sulawesi Tengah 94971","Jl. Lkr. Luar Kolonodale, Korololaki, Kec. Petasia, Kabupaten Morowali Utara",SULAWESI TENGAH,94971.0,Indonesia,,,,-1.9948,121.3316131,https://maps.google.com/?cid=0x0:0x36713e41c54fbbdf,
perumahan,Komplek perumahan,Tunas Jaya Tamama,"47QP+53X, Ganda Ganda, Kec. Petasia, Kabupaten Morowali Utara, Sulawesi Tengah 94971","Ganda Ganda, Kec. Petasia, Kabupaten Morowali Utara",SULAWESI TENGAH,94971.0,Indonesia,,,,-1.8620134,121.2852215,https://maps.google.com/?cid=0x0:0xa1298a201ee04166,
perumahan,Komplek perumahan,Usman  Keluarga,"67MW+72J, Ganda Ganda, Kec. Soyo Jaya, Kabupaten Morowali Utara, Sulawesi Tengah","Kabupaten Morowali Utara, Sulawesi Tengah",SULAWESI TENGAH,,Indonesia,,,,-1.7667994,121.2950227,https://maps.google.com/?cid=0x0:0xfc133bfd55364c8c,
perumahan,Komplek perumahan,Stevy,"28CP+9RH, Jl. Tarundungi, Bahoue, Kec. Petasia, Kabupaten Morowali Utara, Sulawesi Tengah 94971","Jl. Tarundungi, Bahoue, Kec. Petasia, Kabupaten Morowali Utara",SULAWESI TENGAH,94971.0,Indonesia,,,,-1.979068,121.337109,https://maps.google.com/?cid=0x0:0x99e01d80c359a3fe,
