Category;Real Category;Business Name;Address;City;State;Postal Code;Country;Phone;Latitude;Longitude;Map Link
"perumahan";"Pembangunan Perumahan";"Rumah saya";"5V69+QQQ, Ulee Gle, Kec. Makmur, Kabupaten Bireuen, Aceh 24184";"Ulee Gle, Kec. Makmur, Kabupaten Bireuen";"ACEH";"24184";"Indonesia";"";"5.1622697";"96.8697575";"https://maps.google.com/?cid=0x0:0x1a1b2f9393fe2571"
"perumahan";"perumahan";"Aceh 24184";"Kabupaten Aceh Utara, Aceh";"Kabupaten Aceh Utara, Aceh";"ACEH";"";"Indonesia";"";"5.1373361";"96.8887202";"https://maps.google.com/?cid=0x0:0x9968bf9e9ed3fc5b"
"perumahan";"perumahan";"mardiansyah";"4QXW+58M, Jl. Peusangan, Awe Geutah, Peusangan Siblah Krueng, Kabupaten Bireuen, Aceh 24356";"Jl. Peusangan, Awe Geutah, Peusangan Siblah Krueng, Kabupaten Bireuen";"ACEH";"24356";"Indonesia";"";"5.1481028";"96.7960072";"https://maps.google.com/?cid=0x0:0x5682bcd67dbf08f9"
"perumahan";"Pembangunan Perumahan";"MURHADI";"5W66+4GV, Rambong Payong, Kec. Sawang, Kabupaten Aceh Utara, Aceh 24184";"Rambong Payong, Kec. Sawang, Kabupaten Aceh Utara";"ACEH";"24184";"Indonesia";"";"5.1603723";"96.9103189";"https://maps.google.com/?cid=0x0:0x95981c9851cd6b68"
"perumahan";"Pembangunan Perumahan";"Za";"4VMV+P2C, Blang Teurakan, Kec. Sawang, Kabupaten Aceh Utara, Aceh 24184";"Blang Teurakan, Kec. Sawang, Kabupaten Aceh Utara";"ACEH";"24184";"Indonesia";"";"5.1342938";"96.8924144";"https://maps.google.com/?cid=0x0:0xd85462eddfba09db"
"perumahan";"Komplek perumahan";"RUMAH RAHMAT ASNAWI";"Jln. Lancok, Mns Manyang, Kec. Bandar Baru, Kabupaten Pidie Jaya, Aceh 24184";"Mns Manyang, Kec. Bandar Baru, Kabupaten Pidie Jaya";"ACEH";"24184";"Indonesia";" 082320096946";"5.2704132";"96.0740064";"https://maps.google.com/?cid=0x0:0x2d2d732121a10372"
"perumahan";"Komplek perumahan";"Rumah. Tgk jamal";"3VGW+8G, Riseh Tunong, Kec. Sawang, Kabupaten Aceh Utara, Aceh";"Kabupaten Aceh Utara, Aceh";"ACEH";"";"Indonesia";"";"5.0762721";"96.8967593";"https://maps.google.com/?cid=0x0:0x82bf9a66dc34f790"
"perumahan";"Pembangunan Perumahan";"Mustafa daot";"5WP3+VJ9, Paya Seupat, Kecamatan Gandapura, Kabupaten Bireuen, Aceh 24184";"Paya Seupat, Kecamatan Gandapura, Kabupaten Bireuen";"ACEH";"24184";"Indonesia";"";"5.18717";"96.9041073";"https://maps.google.com/?cid=0x0:0x194a40d8e9d938e4"
"perumahan";"Komplek perumahan";"Rumah";"5VCC+7H3, Lapehan Mesjid, Kec. Makmur, Kabupaten Bireuen, Aceh 24184";"Lapehan Mesjid, Kec. Makmur, Kabupaten Bireuen";"ACEH";"24184";"Indonesia";"";"5.1706392";"96.8714125";"https://maps.google.com/?cid=0x0:0x9d6b106898de534c"
"perumahan";"Pembangunan Perumahan";"Tempat pengambilan sampel";"6W72+W46, Jl. Gle Kuprai, Cot Teubee, Kecamatan Gandapura, Kabupaten Bireuen, Aceh 24184";"Jl. Gle Kuprai, Cot Teubee, Kecamatan Gandapura, Kabupaten Bireuen";"ACEH";"24184";"Indonesia";"";"5.2149194";"96.9003448";"https://maps.google.com/?cid=0x0:0x88f18eb28e13a9e8"
"perumahan";"Perhimpunan Pengembang Perumahan";"Rumah bg Ali";"5WH3+9QW, Krueng Baro, Kec. Sawang, Kabupaten Aceh Utara, Aceh 24184";"Krueng Baro, Kec. Sawang, Kabupaten Aceh Utara";"ACEH";"24184";"Indonesia";"";"5.178475";"96.9044398";"https://maps.google.com/?cid=0x0:0xb9f45fe2612facd7"
"perumahan";"Pembangunan Perumahan";"Apayuh Alue dua";"4V97+M98, Blang Dalam, Kec. Makmur, Kabupaten Bireuen, Aceh 24184";"Blang Dalam, Kec. Makmur, Kabupaten Bireuen";"ACEH";"24184";"Indonesia";"";"5.1197831";"96.8636096";"https://maps.google.com/?cid=0x0:0xaa32dde3e77107cc"
"perumahan";"Kedai Kopi";"Tongkrongan kede subi";"4VCJ+6RJ, Kubu, Kec. Sawang, Kabupaten Aceh Utara, Aceh 24184";"Kubu, Kec. Sawang, Kabupaten Aceh Utara";"ACEH";"24184";"Indonesia";"";"5.1205811";"96.8820152";"https://maps.google.com/?cid=0x0:0x45601ac004e6ec7e"
"perumahan";"Komplek perumahan";"Rumah nyak man";"4WX6+52X, Babah Krueng, Kec. Sawang, Kabupaten Aceh Utara, Aceh 24184";"Babah Krueng, Kec. Sawang, Kabupaten Aceh Utara";"ACEH";"24184";"Indonesia";"";"5.147504";"96.90971";"https://maps.google.com/?cid=0x0:0x971e0561076f1894"
"perumahan";"Kedai Kopi";"Simpang Cubo";"7479+923, Mns Paru Keude, Kec. Bandar Baru, Kabupaten Pidie Jaya, Aceh 24188";"Mns Paru Keude, Kec. Bandar Baru, Kabupaten Pidie Jaya";"ACEH";"24188";"Indonesia";"";"5.263519";"96.117455";"https://maps.google.com/?cid=0x0:0xd3402b727b2d791e"
"perumahan";"perumahan";"Aceh 24188";"Hutan (Bandar Dua), Kec. Bandar Dua, Kabupaten Pidie Jaya, Aceh";"Kabupaten Pidie Jaya, Aceh";"ACEH";"";"Indonesia";"";"5.119276";"96.1155932";"https://maps.google.com/?cid=0x0:0xb55f6220579e0177"
"perumahan";"Perhimpunan Pengembang Perumahan";"Rumah iswandi";"64XH+9HJ, Lhok Pu'uk, Kec. Panteraja, Kabupaten Pidie Jaya, Aceh";"Kabupaten Pidie Jaya, Aceh";"ACEH";"";"Indonesia";"";"5.247904";"96.128283";"https://maps.google.com/?cid=0x0:0x50770a91c25ab79"
"perumahan";"Gedung Apartemen";"Takwi";"633Q+55R, Mns Sarah Panyang, Kec. Bandar Baru, Kabupaten Pidie Jaya, Aceh 24188";"Mns Sarah Panyang, Kec. Bandar Baru, Kabupaten Pidie Jaya";"ACEH";"24188";"Indonesia";"";"5.2028467";"96.0864904";"https://maps.google.com/?cid=0x0:0x6009951630a45c37"
"perumahan";"Komplek perumahan";"Zakia /Aby junaidi";"7498+V5W meunasah, Mns Paru Keude, Kec. Bandar Baru, Kabupaten Pidie Jaya, Aceh";"Kabupaten Pidie Jaya, Aceh";"ACEH";"";"Indonesia";"";"5.2697452";"96.1154536";"https://maps.google.com/?cid=0x0:0xacb3b97f45ce37ac"
"perumahan";"Pembangunan Perumahan";"Rumah nuzul fahmi";"64H9+H32, Mns Kayee Jatoe, Kec. Bandar Baru, Kabupaten Pidie Jaya, Aceh 24187";"Mns Kayee Jatoe, Kec. Bandar Baru, Kabupaten Pidie Jaya";"ACEH";"24187";"Indonesia";"";"5.2287352";"96.1171391";"https://maps.google.com/?cid=0x0:0x6698913919cdd90c"
"perumahan";"Komplek perumahan";"Rumah sekda, bandar baru";"64C6+HJ, Mns Kayee Jatoe, Kec. Bandar Baru, Kabupaten Pidie Jaya, Aceh 24188";"Mns Kayee Jatoe, Kec. Bandar Baru, Kabupaten Pidie Jaya";"ACEH";"24188";"Indonesia";"";"5.2213743";"96.1115484";"https://maps.google.com/?cid=0x0:0xa65ae85db3d81a30"
"perumahan";"perumahan";"Rmoh zilaa";"735M+42, Meunasah Balee, Kec. Bandar Baru, Kabupaten Pidie Jaya, Aceh";"Kabupaten Pidie Jaya, Aceh";"ACEH";"";"Indonesia";"";"5.2578894";"96.0826031";"https://maps.google.com/?cid=0x0:0xcad433ee580be63f"
"perumahan";"Komplek perumahan";"Salamiah";"747C+G8H, Jl. Medan Banda Aceh, Mns Paru Cot, Kec. Bandar Baru, Kabupaten Pidie Jaya, Aceh 24188";"Jl. Medan Banda Aceh, Mns Paru Cot, Kec. Bandar Baru, Kabupaten Pidie Jaya";"ACEH";"24188";"Indonesia";"";"5.263808";"96.1208691";"https://maps.google.com/?cid=0x0:0x1e928258ddf9b4ea"
"perumahan";"perumahan";"Rumah shiseiwangyy";"57G8+QR, Drien Tujoh, Kec. Bandar Dua, Kabupaten Pidie Jaya, Aceh 23892";"Drien Tujoh, Kec. Bandar Dua, Kabupaten Pidie Jaya";"ACEH";"23892";"Indonesia";"";"5.1768329";"96.2672405";"https://maps.google.com/?cid=0x0:0x8c4774eeecddc6dd"
"perumahan";"Praktisi Pengobatan Alternatif";"Pengobatan Terapi Tgk Dedi";"735J+M64, Jl. Lintas Sumatra, Meunasah Balee, Kec. Bandar Baru, Kabupaten Pidie Jaya, Aceh 24171";"Jl. Lintas Sumatra, Meunasah Balee, Kec. Bandar Baru, Kabupaten Pidie Jaya";"ACEH";"24171";"Indonesia";" 085297970758";"5.2585661";"96.0797077";"https://maps.google.com/?cid=0x0:0x413f656dce49aaf9"
"perumahan";"Lapangan Voli";"Lapangan volly";"64Q7+R3, Mns Blang Baro, Kec. Bandar Baru, Kabupaten Pidie Jaya, Aceh";"Kabupaten Pidie Jaya, Aceh";"ACEH";"";"Indonesia";"";"5.2396079";"96.112748";"https://maps.google.com/?cid=0x0:0xf5d183d5f15eed4f"
"perumahan";"Pertanian";"Iqbal walet,lungputu";"734C+XJ6, Mns Blang Glong, Kec. Bandar Baru, Kabupaten Pidie Jaya, Aceh 24182";"Mns Blang Glong, Kec. Bandar Baru, Kabupaten Pidie Jaya";"ACEH";"24182";"Indonesia";"";"5.2574196";"96.0715093";"https://maps.google.com/?cid=0x0:0xa1e32dc7375f08fd"
"perumahan";"Kantor Pemerintah";"Gp.Blang Baroh,Paru.Kec.Bandar Baru";"7429+G48, Mns Blang Baro, Kec. Bandar Baru, Kabupaten Pidie Jaya, Aceh 24188";"Mns Blang Baro, Kec. Bandar Baru, Kabupaten Pidie Jaya";"ACEH";"24188";"Indonesia";"";"5.252315";"96.118765";"https://maps.google.com/?cid=0x0:0x42aea67cf32eb35c"
"perumahan";"perumahan";"Kec. Jangka Buya";"Kabupaten Pidie Jaya, Aceh";"Kabupaten Pidie Jaya, Aceh";"ACEH";"";"Indonesia";"";"5.2242158";"96.3121613";"https://maps.google.com/?cid=0x0:0xd6fccc30f37acb80"
"perumahan";"Tempat Ibadah";"Perumahan";"687P+74H, Meuko Meugit, Kec. Jangka Buya, Kabupaten Pidie Jaya, Aceh";"Kabupaten Pidie Jaya, Aceh";"ACEH";"";"Indonesia";"";"5.2131948";"96.3353472";"https://maps.google.com/?cid=0x0:0x43c9cd5e8f2d66f3"
"perumahan";"Komplek perumahan";"Simpang Jangka Buya";"6827+VXF, Gampong Ulee Gle, Kec. Bandar Dua, Kabupaten Pidie Jaya, Aceh";"Kabupaten Pidie Jaya, Aceh";"ACEH";"";"Indonesia";"";"5.2021985";"96.3149244";"https://maps.google.com/?cid=0x0:0x23286c1ff7459047"
"perumahan";"Komplek perumahan";"Ziki";"68FH+P6, Keurisi Meunasah Lueng, Kec. Jangka Buya, Kabupaten Pidie Jaya, Aceh";"Kabupaten Pidie Jaya, Aceh";"ACEH";"";"Indonesia";"";"5.2243667";"96.328073";"https://maps.google.com/?cid=0x0:0xac9cb0805f9f6e3d"
"perumahan";"Komplek perumahan";"Rumah Syarwi";"68G5+H44, Jurong Ara, Kec. Jangka Buya, Kabupaten Pidie Jaya, Aceh";"Kabupaten Pidie Jaya, Aceh";"ACEH";"";"Indonesia";"";"5.2261316";"96.30897";"https://maps.google.com/?cid=0x0:0x67710ab7b2459cab"
"perumahan";"Perumahan";"Intan";"6898+XHP, Reului Mangat, Kec. Jangka Buya, Kabupaten Pidie Jaya, Aceh";"Kabupaten Pidie Jaya, Aceh";"ACEH";"";"Indonesia";"";"5.2199622";"96.316446";"https://maps.google.com/?cid=0x0:0x7f01bccb101f04ac"
"perumahan";"Komplek perumahan";"rumah azmi";"68FH+P6, Keurisi Meunasah Lueng, Kec. Jangka Buya, Kabupaten Pidie Jaya, Aceh";"Kabupaten Pidie Jaya, Aceh";"ACEH";"";"Indonesia";"";"5.224574";"96.3270846";"https://maps.google.com/?cid=0x0:0xeb657d3cd22c496d"
"perumahan";"Restoran";"Rumah Fauzan";"68G7+X6, Jurong Teungoh, Kec. Jangka Buya, Kabupaten Pidie Jaya, Aceh";"Kabupaten Pidie Jaya, Aceh";"ACEH";"";"Indonesia";"";"5.227422";"96.3130247";"https://maps.google.com/?cid=0x0:0x3b96c9400f30a0b0"
"perumahan";"Perumahan";"rumah bang ZAHRI";"687M+2QV, Meuko Meugit, Kec. Jangka Buya, Kabupaten Pidie Jaya, Aceh";"Kabupaten Pidie Jaya, Aceh";"ACEH";"";"Indonesia";"";"5.2126061";"96.3344309";"https://maps.google.com/?cid=0x0:0xe3f903a652050bc0"
"perumahan";"Rumah wisata";"pesta";"688W+9MP, Kiran Dayah, Kec. Jangka Buya, Kabupaten Pidie Jaya, Aceh";"Kabupaten Pidie Jaya, Aceh";"ACEH";"";"Indonesia";"";"5.215952";"96.3466895";"https://maps.google.com/?cid=0x0:0xda96383e301485ad"
"perumahan";"Perumahan";"Rumah Kelahiran HAITAMI";"686M+XJ5, Meuko Meugit, Kec. Jangka Buya, Kabupaten Pidie Jaya, Aceh";"Kabupaten Pidie Jaya, Aceh";"ACEH";"";"Indonesia";"";"5.2123765";"96.3341127";"https://maps.google.com/?cid=0x0:0x21c4469df8c921b0"
"perumahan";"Vila";"Gampong Siblah Coh";"68G3+WP7, Siblahco, Kec. Ulim, Kabupaten Pidie Jaya, Aceh";"Kabupaten Pidie Jaya, Aceh";"ACEH";"";"Indonesia";"";"5.2274057";"96.3043286";"https://maps.google.com/?cid=0x0:0xe4afa058d1c61dff"
"perumahan";"Vila";"Rumah pribadi";"6857+QX5, Buket Teungoh, Kec. Jangka Buya, Kabupaten Pidie Jaya, Aceh";"Kabupaten Pidie Jaya, Aceh";"ACEH";"";"Indonesia";"";"5.2103594";"96.3143937";"https://maps.google.com/?cid=0x0:0xb602481b5196ac18"
"perumahan";"perumahan";"Khisyal";"67MV+W9, Grong Grong Capa, Kec. Ulim, Kabupaten Pidie Jaya, Aceh";"Kabupaten Pidie Jaya, Aceh";"ACEH";"";"Indonesia";"";"5.2347504";"96.2934142";"https://maps.google.com/?cid=0x0:0x48d819585f49a44c"
"perumahan";"Komplek perumahan";"Perumahan Ds. Mns. Bie, Meurah Dua, Pidie Jaya, Aceh";"Meunasah Bie, Kec. Meurah Dua, Kabupaten Pidie Jaya, Aceh 24186";"Kec. Meurah Dua, Kabupaten Pidie Jaya";"ACEH";"24186";"Indonesia";" 081312262663";"5.2309201";"96.261254";"https://maps.google.com/?cid=0x0:0x1994fa9d6da63a56"
"perumahan";"perumahan";"Kec. Meurah Dua";"Kabupaten Pidie Jaya, Aceh";"Kabupaten Pidie Jaya, Aceh";"ACEH";"";"Indonesia";"";"5.2327384";"96.2601989";"https://maps.google.com/?cid=0x0:0x18b794cb75a359ca"
"perumahan";"perumahan";"Perumahan Ibu Fauziah";"66QX+XP6, Meunasah Lhok, Kec. Meureudu, Kabupaten Pidie Jaya, Aceh";"Kabupaten Pidie Jaya, Aceh";"ACEH";"";"Indonesia";" 081269202033";"5.2402062";"96.2499624";"https://maps.google.com/?cid=0x0:0x1dc3f51172525d54"
"perumahan";"Komplek perumahan";"بيتي";"67R3+7F6, Meunasah Lhok, Kec. Meureudu, Kabupaten Pidie Jaya, Aceh";"Kabupaten Pidie Jaya, Aceh";"ACEH";"";"Indonesia";"";"5.240671";"96.2536424";"https://maps.google.com/?cid=0x0:0x2a385167903b11db"
"perumahan";"Vila";"Griya meurah setia";"67M6+33W, Meurah dua, Meunasah Bie, Kec. Meureudu, Kabupaten Pidie Jaya, Aceh 24186";"Meurah dua, Meunasah Bie, Kec. Meureudu, Kabupaten Pidie Jaya";"ACEH";"24186";"Indonesia";" 081269200991";"5.2327384";"96.2601989";"https://maps.google.com/?cid=0x0:0x17c7fe3a083bf972"
"perumahan";"Pembangunan Perumahan";"RUMOH BATEE";"67V6+94H, Dayah Kruet, Kec. Meurah Dua, Kabupaten Pidie Jaya, Aceh";"Kabupaten Pidie Jaya, Aceh";"ACEH";"";"Indonesia";"";"5.2434361";"96.2603747";"https://maps.google.com/?cid=0x0:0xf860f94265903538"
"perumahan";"Komplek perumahan";"Amiruddin's House";"67R5+6P7, Blang Cut, Kec. Meurah Dua, Kabupaten Pidie Jaya, Aceh";"Kabupaten Pidie Jaya, Aceh";"ACEH";"";"Indonesia";"";"5.2405491";"96.2593063";"https://maps.google.com/?cid=0x0:0x5a6cf5e027d0d430"
"perumahan";"Komplek perumahan";"Rumah Syukri";"67V6+M24, Dayah Kruet, Kec. Meurah Dua, Kabupaten Pidie Jaya, Aceh";"Kabupaten Pidie Jaya, Aceh";"ACEH";"";"Indonesia";"";"5.2441008";"96.2600497";"https://maps.google.com/?cid=0x0:0x309454b01bfabc64"
"perumahan";"Komplek perumahan";"Rumah H Muhammad SH";"7726+4RF, Beuringen, Kec. Meurah Dua, Kabupaten Pidie Jaya, Aceh";"Kabupaten Pidie Jaya, Aceh";"ACEH";"";"Indonesia";"";"5.2503045";"96.2620575";"https://maps.google.com/?cid=0x0:0x247f8a46b9f9330c"
"perumahan";"Komplek perumahan";"Rumah Nurathiah";"67V6+36Q, Dayah Kruet, Kec. Meurah Dua, Kabupaten Pidie Jaya, Aceh";"Kabupaten Pidie Jaya, Aceh";"ACEH";"";"Indonesia";"";"5.242719";"96.2606071";"https://maps.google.com/?cid=0x0:0xb1346b9744788210"
"perumahan";"Komplek perumahan";"Meunasah Dayah usen, kec. Meurah dua";"67V3+5G5, Meunasah Dayah Usen, Kec. Meurah Dua, Kabupaten Pidie Jaya, Aceh";"Kabupaten Pidie Jaya, Aceh";"ACEH";"";"Indonesia";"";"5.242162";"96.252815";"https://maps.google.com/?cid=0x0:0x138a134c22209a87"
"perumahan";"Perumahan";"Rumah Misrawati Hasbi";"67M6+59Q, Meunasah Bie, Kec. Meurah Dua, Kabupaten Pidie Jaya, Aceh";"Kabupaten Pidie Jaya, Aceh";"ACEH";"";"Indonesia";"";"5.2329505";"96.2609771";"https://maps.google.com/?cid=0x0:0x85d43ff93c51ca27"
"perumahan";"Komplek perumahan";"Husnul Habibi Home Stay";"67R6+V24, Jl. Iskandar Muda, Blang Cut, Kec. Meurah Dua, Kabupaten Pidie Jaya, Aceh";"Kabupaten Pidie Jaya, Aceh";"ACEH";"";"Indonesia";"";"5.2422335";"96.2600532";"https://maps.google.com/?cid=0x0:0xfddef12f7b77f767"
"perumahan";"Komplek perumahan";"Perumahan Zunif Permai";"67H3+7M2, Manyang Lancok, Kec. Meureudu, Kabupaten Pidie Jaya, Aceh";"Kabupaten Pidie Jaya, Aceh";"ACEH";"";"Indonesia";"";"5.2281152";"96.2541158";"https://maps.google.com/?cid=0x0:0x1b5989917bb57f3e"
"perumahan";"perumahan";"Aceh 24186";"Kec. Meureudu, Kabupaten Pidie, Aceh";"Kabupaten Pidie, Aceh";"ACEH";"";"Indonesia";"";"4.9071931";"96.1102943";"https://maps.google.com/?cid=0x0:0xdafdcbfd9953f40d"
"perumahan";"Komplek perumahan";"Perumahan Keluarga Ahmad Lahi";"R4PX+VP5, Pulo Loih, Kec. Geumpang, Kabupaten Pidie, Aceh 24186";"Pulo Loih, Kec. Geumpang, Kabupaten Pidie";"ACEH";"24186";"Indonesia";" 082275452127";"4.8367966";"96.1491924";"https://maps.google.com/?cid=0x0:0xbf7e161488dc1ad8"
"perumahan";"Pembangunan Perumahan";"RUMAH IBU MAR";"V4C9+68G, Blang Dalam, Kec. Mane, Kabupaten Pidie, Aceh 24186";"Blang Dalam, Kec. Mane, Kabupaten Pidie";"ACEH";"24186";"Indonesia";"";"4.8705611";"96.1183149";"https://maps.google.com/?cid=0x0:0xe627909bb9027bfe"
"perumahan";"Pembangunan Perumahan";"Tempat berteduh";"V4C8+676 Tempat berteduh, Blang Dalam, Kec. Mane, Kabupaten Pidie, Aceh 24186";"Blang Dalam, Kec. Mane, Kabupaten Pidie";"ACEH";"24186";"Indonesia";"";"4.8705292";"96.1156359";"https://maps.google.com/?cid=0x0:0x3ea9fdb90f80fcc1"
"perumahan";"Komplek perumahan";"Rumah Umam";"R4PM+CW, Pulo Loih, Kec. Geumpang, Kabupaten Pidie, Aceh 24186";"Pulo Loih, Kec. Geumpang, Kabupaten Pidie";"ACEH";"24186";"Indonesia";"";"4.8353908";"96.1354153";"https://maps.google.com/?cid=0x0:0x19af15fe95c1a8"
"perumahan";"";"Aceh";"553W+W3C, Hutan (Meureudu), Kec. Meureudu, Kabupaten Pidie Jaya, Aceh";"Kabupaten Pidie Jaya, Aceh";"ACEH";"";"Indonesia";"";"5.1548063";"96.195132";"https://maps.google.com/?cid=0x0:0x38a5ee1ace602f0b"
"perumahan";"Komplek perumahan";"Leupu";"V43H+4GP, Leupu, Kec. Geumpang, Kabupaten Pidie, Aceh 24186";"Leupu, Kec. Geumpang, Kabupaten Pidie";"ACEH";"24186";"Indonesia";"";"4.8528286";"96.1288426";"https://maps.google.com/?cid=0x0:0xf62f7440aa778092"
"perumahan";"Asosiasi pemilik rumah";"Tarmizi";"V423+5XQ, Turue Cut, Kec. Mane, Kabupaten Pidie, Aceh 24186";"Turue Cut, Kec. Mane, Kabupaten Pidie";"ACEH";"24186";"Indonesia";"";"4.8504646";"96.1049958";"https://maps.google.com/?cid=0x0:0x2cd754ff6ab49779"
"perumahan";"Pembangunan Perumahan";"Rumah PAN GAMING";"V3GJ+2HV, Mane, Kec. Mane, Kabupaten Pidie, Aceh 24186";"Mane, Kec. Mane, Kabupaten Pidie";"ACEH";"24186";"Indonesia";"";"4.8751241";"96.0814188";"https://maps.google.com/?cid=0x0:0x50f3939e7b28cb99"
"perumahan";"perumahan";"Rumah nenek";"V4P4+46W, Lutueng, Kec. Mane, Kabupaten Pidie, Aceh 24186";"Lutueng, Kec. Mane, Kabupaten Pidie";"ACEH";"24186";"Indonesia";"";"4.8849134";"96.1050859";"https://maps.google.com/?cid=0x0:0xc531afecc495386a"
"perumahan";"Komplek perumahan";"pidie aceh geupang";"R4XV+2V9, Pucok, Kec. Geumpang, Kabupaten Pidie, Aceh 24186";"Pucok, Kec. Geumpang, Kabupaten Pidie";"ACEH";"24186";"Indonesia";"";"4.847526";"96.1447455";"https://maps.google.com/?cid=0x0:0xf16de8be186a1afb"
"perumahan";"Pembangunan Perumahan";"M Thahir";"V37W+M77, Jln Beureunun Meulaboh, Turue Cut, Kec. Mane, Kabupaten Pidie, Aceh 24186";"Jln Beureunun Meulaboh, Turue Cut, Kec. Mane, Kabupaten Pidie";"ACEH";"24186";"Indonesia";"";"4.8641573";"96.0956839";"https://maps.google.com/?cid=0x0:0x5948f9d9a144c33e"
"perumahan";"Komplek perumahan";"Geumpang";"R4PP+6R5, Pulo Loih, Kec. Geumpang, Kabupaten Pidie, Aceh 24186";"Pulo Loih, Kec. Geumpang, Kabupaten Pidie";"ACEH";"24186";"Indonesia";"";"4.8355197";"96.1370664";"https://maps.google.com/?cid=0x0:0xd6d14da0c3a7e680"
"perumahan";"Komplek perumahan";"Rumah";"7XCQ+9F9, Gampong Lada, Kec. Mutiara Tim., Kabupaten Pidie, Aceh 24186";"Gampong Lada, Kec. Mutiara Tim., Kabupaten Pidie";"ACEH";"24186";"Indonesia";"";"5.2709163";"95.9887237";"https://maps.google.com/?cid=0x0:0x7ca6305e2ae97ce4"
"perumahan";"perumahan";"Kec. Panteraja";"Kabupaten Pidie Jaya, Aceh";"Kabupaten Pidie Jaya, Aceh";"ACEH";"";"Indonesia";"";"5.2718147";"96.1449859";"https://maps.google.com/?cid=0x0:0x316e7cb7d66a0d00"
"perumahan";"Pembangunan Perumahan";"Keude panteraja";"74HP+8PC, Kec. Panteraja, Kabupaten Pidie Jaya, Aceh";"Kabupaten Pidie Jaya, Aceh";"ACEH";"";"Indonesia";"";"5.2783125";"96.1367656";"https://maps.google.com/?cid=0x0:0x673f0c3622d9e2a9"
"perumahan";"Perhimpunan Pengembang Perumahan";"Rumah iswandi";"64XH+9HJ, Lhok Pu'uk, Kec. Panteraja, Kabupaten Pidie Jaya, Aceh";"Kabupaten Pidie Jaya, Aceh";"ACEH";"";"Indonesia";"";"5.247904";"96.128283";"https://maps.google.com/?cid=0x0:0x50770a91c25ab79"
"perumahan";"Komplek perumahan";"RUMAH MUNZIR";"748R+7HC, Keude, Kec. Panteraja, Kabupaten Pidie Jaya, Aceh";"Kabupaten Pidie Jaya, Aceh";"ACEH";"";"Indonesia";"";"5.265681";"96.1413802";"https://maps.google.com/?cid=0x0:0xe225f2ab5e657099"
"perumahan";"Komplek perumahan";"khatijah";"74FP+J8F, Tu Pantee Raja, Kec. Panteraja, Kabupaten Pidie Jaya, Aceh";"Kabupaten Pidie Jaya, Aceh";"ACEH";"";"Indonesia";"";"5.2740727";"96.1358092";"https://maps.google.com/?cid=0x0:0xc4d69997d4eec4ad"
"perumahan";"Kantor Pemerintah";"Gampong Tu";"74CH+FW7 Tu, Hagu, Kec. Panteraja, Kabupaten Pidie Jaya, Aceh";"Kabupaten Pidie Jaya, Aceh";"ACEH";"";"Indonesia";"";"5.2703577";"96.1304479";"https://maps.google.com/?cid=0x0:0x566deab82d440f46"
"perumahan";"Komplek perumahan";"Rumah pak MD";"64VH+XVM, Lhok Pu'uk, Kec. Panteraja, Kabupaten Pidie Jaya, Aceh";"Kabupaten Pidie Jaya, Aceh";"ACEH";"";"Indonesia";"";"5.2449709";"96.1296843";"https://maps.google.com/?cid=0x0:0x7ffd7318dc29d80"
"perumahan";"Perhimpunan Pengembang Perumahan";"Rumah uning aluih";"74CV+PXH, kecamatan, pasie raja, Panteraja, Pidie Jaya Regency, Aceh";"Kabupaten Pidie Jaya, Aceh";"ACEH";"";"Indonesia";"";"5.2718147";"96.1449859";"https://maps.google.com/?cid=0x0:0x55c80843dfc2507f"
"perumahan";"Komplek perumahan";"Rumah pak ismail";"74CW+H4J, Keude, Kec. Panteraja, Kabupaten Pidie Jaya, Aceh";"Kabupaten Pidie Jaya, Aceh";"ACEH";"";"Indonesia";"";"5.271165";"96.1450049";"https://maps.google.com/?cid=0x0:0x166390847d37a36a"
"perumahan";"Komplek perumahan";"Wahuddin";"74CV+PXH, Keude, Kec. Panteraja, Kabupaten Pidie Jaya, Aceh";"Kabupaten Pidie Jaya, Aceh";"ACEH";"";"Indonesia";"";"5.2718147";"96.1449859";"https://maps.google.com/?cid=0x0:0xd78d3f3e73507ca6"
"perumahan";"Peternakan Sapi";"TAMITA FARM";"744V+GR7, Teungoh, Kec. Panteraja, Kabupaten Pidie Jaya, Aceh";"Kabupaten Pidie Jaya, Aceh";"ACEH";"";"Indonesia";"";"5.2562995";"96.1445404";"https://maps.google.com/?cid=0x0:0x500bfe1fa424d049"
"perumahan";"Pembangunan Perumahan";"Simpang Balee Matang";"7586+26P, Jl. Medan Banda Aceh, Peurade, Kec. Panteraja, Kabupaten Pidie Jaya, Aceh";"Kabupaten Pidie Jaya, Aceh";"ACEH";"";"Indonesia";"";"5.2650872";"96.1605923";"https://maps.google.com/?cid=0x0:0x94c3c894a16de2b5"
"perumahan";"Komplek perumahan";"Rumah paija";"755H+7RW, Sagoe, Kec. Trienggadeng, Kabupaten Pidie Jaya, Aceh";"Kabupaten Pidie Jaya, Aceh";"ACEH";"";"Indonesia";"";"5.2582442";"96.1795806";"https://maps.google.com/?cid=0x0:0x7d85d9d467dd77b4"
"perumahan";"Komplek perumahan";"Rumah Nadia";"Lrg. Pelajar No.3, Sagoe, Kec. Trienggadeng, Kabupaten Pidie Jaya, Aceh";"Kabupaten Pidie Jaya, Aceh";"ACEH";"";"Indonesia";"";"5.255619";"96.18114";"https://maps.google.com/?cid=0x0:0x98d96f7803a990ce"
"perumahan";"perumahan";"Kec. Trienggadeng";"Kabupaten Pidie Jaya, Aceh";"Kabupaten Pidie Jaya, Aceh";"ACEH";"";"Indonesia";"";"5.259028";"96.1834886";"https://maps.google.com/?cid=0x0:0x47f2879d2ad38e99"
"perumahan";"Komplek perumahan";"Trienggadeng";"752F+JQQ, Lrg. Tu Yaman, Mee Peuduek, Kec. Trienggadeng, Kabupaten Pidie Jaya, Aceh";"Kabupaten Pidie Jaya, Aceh";"ACEH";"";"Indonesia";"";"5.2515778";"96.1744875";"https://maps.google.com/?cid=0x0:0x4b5c3784ea5ebf03"
"perumahan";"Pembangunan Perumahan";"Perumahan Bhara Daksa Polres Pidie Jaya Gp. Kuta Pangwa Kec. Trienggadeng Kab. Pidie Jaya";"66R7+9C2 Gp, Kuta, Kec. Trienggadeng, Kabupaten Pidie Jaya, Aceh";"Kabupaten Pidie Jaya, Aceh";"ACEH";"";"Indonesia";"";"5.2408927";"96.2135092";"https://maps.google.com/?cid=0x0:0x24f039757dc47e3f"
"perumahan";"Komplek perumahan";"Ex Kompleks PLTD Trienggadeng";"753H+HQ9, Sagoe, Kec. Trienggadeng, Kabupaten Pidie Jaya, Aceh";"Kabupaten Pidie Jaya, Aceh";"ACEH";"";"Indonesia";"";"5.253582";"96.1794";"https://maps.google.com/?cid=0x0:0x9d46a7fe65f82e3f"
"perumahan";"Pembangunan Perumahan";"TRANSMIGRASI GP.BULOH";"65CW+GMQ, Hutan (Trienggadeng), Kec. Trienggadeng, Kabupaten Pidie Jaya, Aceh";"Kabupaten Pidie Jaya, Aceh";"ACEH";"";"Indonesia";"";"5.2213335";"96.1967223";"https://maps.google.com/?cid=0x0:0xab1530d85065d3b2"
"perumahan";"Komplek perumahan";"RUMAH TGK";"65XF+WQ7, Mee Peuduek, Kec. Trienggadeng, Kabupaten Pidie Jaya, Aceh";"Kabupaten Pidie Jaya, Aceh";"ACEH";"";"Indonesia";"";"5.2497817";"96.1744083";"https://maps.google.com/?cid=0x0:0xebb6402ddac22a4d"
"perumahan";"perumahan";"Rumah M. Daud Ubit";"66R2+X4G, Rawasari, Kec. Trienggadeng, Kabupaten Pidie Jaya, Aceh";"Kabupaten Pidie Jaya, Aceh";"ACEH";"";"Indonesia";"";"5.2424382";"96.2003389";"https://maps.google.com/?cid=0x0:0x7e877a295d20e24b"
"perumahan";"Komplek perumahan";"Rumah Tringgadeng";"Jl. Medan - Banda Aceh No.Km 150, Sagoe, Kec. Trienggadeng, Kabupaten Pidie Jaya, Aceh";"Kabupaten Pidie Jaya, Aceh";"ACEH";"";"Indonesia";"";"5.2610297";"96.1799071";"https://maps.google.com/?cid=0x0:0xa9321199283578e9"
"perumahan";"Gedung Apartemen";"THE SULAIMAN HOUSE";"756C+VQ8, Jl. Medan Banda Aceh, Sagoe, Kec. Trienggadeng, Kabupaten Pidie Jaya, Aceh";"Kabupaten Pidie Jaya, Aceh";"ACEH";"";"Indonesia";"";"5.2621609";"96.1719445";"https://maps.google.com/?cid=0x0:0xdc27ff4a7a2ce2c2"
"perumahan";"Komplek perumahan";"Rmh NURDIN";"65RF+PJV, Tuha, Kec. Trienggadeng, Kabupaten Pidie Jaya, Aceh";"Kabupaten Pidie Jaya, Aceh";"ACEH";"";"Indonesia";"";"5.2418512";"96.1740535";"https://maps.google.com/?cid=0x0:0x99e2408b0c3dd817"
"perumahan";"Komplek perumahan";"Rumah Nadia";"Lrg. Pelajar No.3, Sagoe, Kec. Trienggadeng, Kabupaten Pidie Jaya, Aceh";"Kabupaten Pidie Jaya, Aceh";"ACEH";"";"Indonesia";"";"5.255619";"96.18114";"https://maps.google.com/?cid=0x0:0x98d96f7803a990ce"
"perumahan";"Komplek perumahan";"Tujuan";"65QF+RX, Tuha, Kec. Trienggadeng, Kabupaten Pidie Jaya, Aceh";"Kabupaten Pidie Jaya, Aceh";"ACEH";"";"Indonesia";"";"5.2393659";"96.1757568";"https://maps.google.com/?cid=0x0:0x7286af05e2e276c"
"perumahan";"Komplek perumahan";"Nasruddin";"7649+8J6, Cot Lheue Rheung, Kec. Trienggadeng, Kabupaten Pidie Jaya, Aceh";"Kabupaten Pidie Jaya, Aceh";"ACEH";"";"Indonesia";"";"5.2557931";"96.2190137";"https://maps.google.com/?cid=0x0:0x694e2d61ca8a0f2"
"perumahan";"Sekolah";"Dayah najatul mubtadi.";"66Q4+JR8, Alamat nya, Rawasari, Kec. Trienggadeng, Kabupaten Pidie Jaya, Aceh";"Kabupaten Pidie Jaya, Aceh";"ACEH";"";"Indonesia";"";"5.2390289";"96.2070717";"https://maps.google.com/?cid=0x0:0x45f55873ffbb1936"
"perumahan";"Komplek perumahan";"rumah terakhir lorong ini";"6VCP+W96, Papeuen Nicah, Kec. Keumala, Kabupaten Pidie, Aceh 24187";"Papeuen Nicah, Kec. Keumala, Kabupaten Pidie";"ACEH";"24187";"Indonesia";"";"5.2222796";"95.8858767";"https://maps.google.com/?cid=0x0:0x3c90dde3df313739"
"perumahan";"Komplek perumahan";"Keude simpang";"6W7J+P9G, Unnamed Road, Lhok Panah, Kec. Sakti, Kabupaten Pidie, Aceh 24187";"Unnamed Road, Lhok Panah, Kec. Sakti, Kabupaten Pidie";"ACEH";"24187";"Indonesia";"";"5.2143157";"95.9309629";"https://maps.google.com/?cid=0x0:0x2087b6f5f6f024e5"
"perumahan";"perumahan";"Aceh 24187";"Kabupaten Pidie, Aceh";"Kabupaten Pidie, Aceh";"ACEH";"";"Indonesia";"";"5.1830255";"95.956825";"https://maps.google.com/?cid=0x0:0x882e17494b2bb8c"
"perumahan";"Agen Properti";"Flat mutiara";"6V8F+79, Ugadeng, Kec. Keumala, Kabupaten Pidie, Aceh";"Kabupaten Pidie, Aceh";"ACEH";"";"Indonesia";" 085275934776";"5.215682";"95.873447";"https://maps.google.com/?cid=0x0:0xddf5f18ff4fa2237"
"perumahan";"Perumahan";"Sayed noh";"6VMR+25X, Jijiem, Kec. Keumala, Kabupaten Pidie, Aceh 24187";"Jijiem, Kec. Keumala, Kabupaten Pidie";"ACEH";"24187";"Indonesia";"";"5.23261";"95.8904813";"https://maps.google.com/?cid=0x0:0xbb5d34cabbe4acbf"
"perumahan";"Perhimpunan Pengembang Perumahan";"Rumah Achlul";"4VQH+FJ3, Pulo Iee, Kec. Tangse, Kabupaten Pidie, Aceh";"Kabupaten Pidie, Aceh";"ACEH";"";"Indonesia";"";"5.1386493";"95.8790568";"https://maps.google.com/?cid=0x0:0x155a2b672682757f"
"perumahan";"Komplek perumahan";"Rumah Ikram";"6X72+J7Q, Pulo Glumpang, Kec. Tiro/Truseb, Kabupaten Pidie, Aceh";"Kabupaten Pidie, Aceh";"ACEH";"";"Indonesia";"";"5.214084";"95.9507211";"https://maps.google.com/?cid=0x0:0x9802067ced9c380"
"perumahan";"Pembangunan Perumahan";"Rumah ibu zainab";"6WQC+RR3, Pante Siren, Kec. Titeue, Kabupaten Pidie, Aceh";"Kabupaten Pidie, Aceh";"ACEH";"";"Indonesia";"";"5.2395241";"95.9220406";"https://maps.google.com/?cid=0x0:0x6b0c92af68f326e"
"perumahan";"Komplek perumahan";"Rumah bg Amiruddin";"7X29+3G3, Unnamed Road, Ulee Gampong, Kec. Mutiara Tim., Kabupaten Pidie, Aceh 24181";"Unnamed Road, Ulee Gampong, Kec. Mutiara Tim., Kabupaten Pidie";"ACEH";"24181";"Indonesia";"";"5.250171";"95.9687389";"https://maps.google.com/?cid=0x0:0xf9843951f6c3340"
"perumahan";"Komplek perumahan";"Rumah Keuchik mnsh teungoh";"6VPV+W6F, Meunasah Teungoh, Kec. Keumala, Kabupaten Pidie, Aceh";"Kabupaten Pidie, Aceh";"ACEH";"";"Indonesia";"";"5.2373087";"95.8930489";"https://maps.google.com/?cid=0x0:0x484227849914c92d"
"perumahan";"Taman";"Desa alue";"6W72+2H2, Alue, Kec. Titeue, Kabupaten Pidie, Aceh";"Kabupaten Pidie, Aceh";"ACEH";"";"Indonesia";"";"5.2125244";"95.9014023";"https://maps.google.com/?cid=0x0:0x298ec53567ac1352"
"perumahan";"Pembangunan Perumahan";"Honor of king";"6VFQ+CPG, Mesjid Nicah, Kec. Keumala, Kabupaten Pidie, Aceh 24187";"Mesjid Nicah, Kec. Keumala, Kabupaten Pidie";"ACEH";"24187";"Indonesia";"";"5.223558";"95.8893414";"https://maps.google.com/?cid=0x0:0xf11ccb3be7fe3bef"
"perumahan";"Pembangunan Perumahan";"Rumoh apa karya";"6VJP+WQF, Beureunuen-Keumala, Rheng, Kec. Keumala, Kabupaten Pidie, Aceh 24187";"Beureunuen-Keumala, Rheng, Kec. Keumala, Kabupaten Pidie";"ACEH";"24187";"Indonesia";"";"5.2323025";"95.8869257";"https://maps.google.com/?cid=0x0:0xa0e29745fa61d894"
"perumahan";"perumahan";"Rumah hasballah Blang cot";"6W9P+8R2, Blang Cot, Kec. Sakti, Kabupaten Pidie, Aceh 24181";"Blang Cot, Kec. Sakti, Kabupaten Pidie";"ACEH";"24181";"Indonesia";"";"5.2182624";"95.9370081";"https://maps.google.com/?cid=0x0:0x4986eb897d954dd1"
"housing complex";"housing complex";"Aceh 24184";"Kabupaten Aceh Utara, Aceh";"Kabupaten Aceh Utara, Aceh";"ACEH";"";"Indonesia";"";"5.1373361";"96.8887202";"https://maps.google.com/?cid=0x0:0x9968bf9e9ed3fc5b"
"housing complex";"Toko Kesehatan dan Kecantikan";"Rumah Abdullah Ahmad";"Jl. Medan - Banda Aceh No.22, Meunasah Keude, Kec. Bandar Baru, Kabupaten Pidie Jaya, Aceh 24184";"Meunasah Keude, Kec. Bandar Baru, Kabupaten Pidie Jaya";"ACEH";"24184";"Indonesia";"";"5.2548416";"96.056212";"https://maps.google.com/?cid=0x0:0x90b2916a2839eda4"
"housing complex";"Komplek perumahan";"RUMAH RAHMAT ASNAWI";"Jln. Lancok, Mns Manyang, Kec. Bandar Baru, Kabupaten Pidie Jaya, Aceh 24184";"Mns Manyang, Kec. Bandar Baru, Kabupaten Pidie Jaya";"ACEH";"24184";"Indonesia";" 082320096946";"5.2704132";"96.0740064";"https://maps.google.com/?cid=0x0:0x2d2d732121a10372"
"housing complex";"Pembangunan Perumahan";"JEUMPET RESIDENCE";"G7CW+866, Unnamed Road, Jeumpet Ajun, Kec. Darul Imarah, Kabupaten Aceh Besar, Aceh 23233";"Unnamed Road, Jeumpet Ajun, Kec. Darul Imarah, Kabupaten Aceh Besar";"ACEH";"23233";"Indonesia";"";"5.5207976";"95.2955014";"https://maps.google.com/?cid=0x0:0x1dae5d257382a77f"
"housing complex";"Komplek perumahan";"Rumah muhammad alfandi";"Meunasah Keude, Kec. Bandar Baru, Kabupaten Pidie Jaya, Aceh 24184";"Kec. Bandar Baru, Kabupaten Pidie Jaya";"ACEH";"24184";"Indonesia";" 082362849787";"5.2568193";"96.0662953";"https://maps.google.com/?cid=0x0:0xad2b4aae584ac87e"
"housing complex";"Program Rumah Murah";"Housing Complex";"CR6F+5X6, Unnamed Road, Bagerpang, Kec. Bangun Purba, Kabupaten Deli Serdang, Sumatera Utara 20581";"Unnamed Road, Bagerpang, Kec. Bangun Purba, Kabupaten Deli Serdang";"ACEH";"20581";"Indonesia";"";"3.4104248";"98.8248881";"https://maps.google.com/?cid=0x0:0x4be5ba656a9b7095"
"housing complex";"Perhimpunan Pengembang Perumahan";"Complex city";"CJFV+M3C, Rumah Mbacang, Kec. Namorambe, Kabupaten Deli Serdang, Sumatera Utara 20356";"Rumah Mbacang, Kec. Namorambe, Kabupaten Deli Serdang";"ACEH";"20356";"Indonesia";"";"3.4241943";"98.6426371";"https://maps.google.com/?cid=0x0:0x1decf3fd7fc2a587"
"housing complex";"housing complex";"Aceh 24188";"Hutan (Bandar Dua), Kec. Bandar Dua, Kabupaten Pidie Jaya, Aceh";"Kabupaten Pidie Jaya, Aceh";"ACEH";"";"Indonesia";"";"5.119276";"96.1155932";"https://maps.google.com/?cid=0x0:0xb55f6220579e0177"
"housing complex";"housing complex";"Rmoh zilaa";"735M+42, Meunasah Balee, Kec. Bandar Baru, Kabupaten Pidie Jaya, Aceh";"Kabupaten Pidie Jaya, Aceh";"ACEH";"";"Indonesia";"";"5.2578894";"96.0826031";"https://maps.google.com/?cid=0x0:0xcad433ee580be63f"
"housing complex";"Pertanian";"Iqbal walet,lungputu";"734C+XJ6, Mns Blang Glong, Kec. Bandar Baru, Kabupaten Pidie Jaya, Aceh 24182";"Mns Blang Glong, Kec. Bandar Baru, Kabupaten Pidie Jaya";"ACEH";"24182";"Indonesia";"";"5.2574196";"96.0715093";"https://maps.google.com/?cid=0x0:0xa1e32dc7375f08fd"
"housing complex";"Rumah wisata";"Sedhey House";"58W7+GQP, Lorong Imum Piah, Keude Ulee Gle, Bandar Dua, Pidie Jaya Regency, Aceh 24152";"Lorong Imum Piah, Keude Ulee Gle, Bandar Dua, Pidie Jaya Regency";"ACEH";"24152";"Indonesia";" 085767993696";"5.1963365";"96.3144675";"https://maps.google.com/?cid=0x0:0x1bb562c246f53f5e"
"housing complex";"Gedung Apartemen";"Takwi";"633Q+55R, Mns Sarah Panyang, Kec. Bandar Baru, Kabupaten Pidie Jaya, Aceh 24188";"Mns Sarah Panyang, Kec. Bandar Baru, Kabupaten Pidie Jaya";"ACEH";"24188";"Indonesia";"";"5.2028467";"96.0864904";"https://maps.google.com/?cid=0x0:0x6009951630a45c37"
"housing complex";"Perhimpunan Pengembang Perumahan";"Rumah iswandi";"64XH+9HJ, Lhok Pu'uk, Kec. Panteraja, Kabupaten Pidie Jaya, Aceh";"Kabupaten Pidie Jaya, Aceh";"ACEH";"";"Indonesia";"";"5.247904";"96.128283";"https://maps.google.com/?cid=0x0:0x50770a91c25ab79"
"housing complex";"Komplek perumahan";"Jamil house";"735H+QRH, Meunasah Balee, Kec. Bandar Baru, Kabupaten Pidie Jaya, Aceh 24171";"Meunasah Balee, Kec. Bandar Baru, Kabupaten Pidie Jaya";"ACEH";"24171";"Indonesia";"";"5.2592535";"96.0797954";"https://maps.google.com/?cid=0x0:0xdb3462b6ec448868"
"housing complex";"Komplek perumahan";"Zakia /Aby junaidi";"7498+V5W meunasah, Mns Paru Keude, Kec. Bandar Baru, Kabupaten Pidie Jaya, Aceh";"Kabupaten Pidie Jaya, Aceh";"ACEH";"";"Indonesia";"";"5.2697452";"96.1154536";"https://maps.google.com/?cid=0x0:0xacb3b97f45ce37ac"
"housing complex";"housing complex";"Rumah shiseiwangyy";"57G8+QR, Drien Tujoh, Kec. Bandar Dua, Kabupaten Pidie Jaya, Aceh 23892";"Drien Tujoh, Kec. Bandar Dua, Kabupaten Pidie Jaya";"ACEH";"23892";"Indonesia";"";"5.1768329";"96.2672405";"https://maps.google.com/?cid=0x0:0x8c4774eeecddc6dd"
"housing complex";"Lapangan Voli";"Lapangan volly";"64Q7+R3, Mns Blang Baro, Kec. Bandar Baru, Kabupaten Pidie Jaya, Aceh";"Kabupaten Pidie Jaya, Aceh";"ACEH";"";"Indonesia";"";"5.2396079";"96.112748";"https://maps.google.com/?cid=0x0:0xf5d183d5f15eed4f"
"housing complex";"Praktisi Pengobatan Alternatif";"Pengobatan Terapi Tgk Dedi";"735J+M64, Jl. Lintas Sumatra, Meunasah Balee, Kec. Bandar Baru, Kabupaten Pidie Jaya, Aceh 24171";"Jl. Lintas Sumatra, Meunasah Balee, Kec. Bandar Baru, Kabupaten Pidie Jaya";"ACEH";"24171";"Indonesia";" 085297970758";"5.2585661";"96.0797077";"https://maps.google.com/?cid=0x0:0x413f656dce49aaf9"
"housing complex";"housing complex";"Mnsh";"7487+V5W, Mns Paru Keude, Kec. Bandar Baru, Kabupaten Pidie Jaya, Aceh";"Kabupaten Pidie Jaya, Aceh";"ACEH";"";"Indonesia";"";"5.2672322";"96.1129437";"https://maps.google.com/?cid=0x0:0x987adb69ae1d249d"
"housing complex";"Pembangunan Perumahan";"Rumah nuzul fahmi";"64H9+H32, Mns Kayee Jatoe, Kec. Bandar Baru, Kabupaten Pidie Jaya, Aceh 24187";"Mns Kayee Jatoe, Kec. Bandar Baru, Kabupaten Pidie Jaya";"ACEH";"24187";"Indonesia";"";"5.2287352";"96.1171391";"https://maps.google.com/?cid=0x0:0x6698913919cdd90c"
"housing complex";"Komplek perumahan";"Family gathering";"7329+XM9, Meunasah Keude, Kec. Bandar Baru, Kabupaten Pidie Jaya, Aceh 24171";"Meunasah Keude, Kec. Bandar Baru, Kabupaten Pidie Jaya";"ACEH";"24171";"Indonesia";"";"5.2514467";"96.0690957";"https://maps.google.com/?cid=0x0:0x33d99c19a5b7a4b0"
"housing complex";"Komplek perumahan";"Simpang Jangka Buya";"6827+VXF, Gampong Ulee Gle, Kec. Bandar Dua, Kabupaten Pidie Jaya, Aceh";"Kabupaten Pidie Jaya, Aceh";"ACEH";"";"Indonesia";"";"5.2021985";"96.3149244";"https://maps.google.com/?cid=0x0:0x23286c1ff7459047"
"housing complex";"housing complex";"Kec. Jangka Buya";"Kabupaten Pidie Jaya, Aceh";"Kabupaten Pidie Jaya, Aceh";"ACEH";"";"Indonesia";"";"5.2242158";"96.3121613";"https://maps.google.com/?cid=0x0:0xd6fccc30f37acb80"
"housing complex";"Komplek perumahan";"Rumah Muzakkir";"68G5+W7F, Jurong Ara, Kec. Jangka Buya, Kabupaten Pidie Jaya, Aceh";"Kabupaten Pidie Jaya, Aceh";"ACEH";"";"Indonesia";"";"5.2273249";"96.3081867";"https://maps.google.com/?cid=0x0:0xc9dcca60ab4d87a"
"housing complex";"Perumahan";"rumah bang ZAHRI";"687M+2QV, Meuko Meugit, Kec. Jangka Buya, Kabupaten Pidie Jaya, Aceh";"Kabupaten Pidie Jaya, Aceh";"ACEH";"";"Indonesia";"";"5.2126061";"96.3344309";"https://maps.google.com/?cid=0x0:0xe3f903a652050bc0"
"housing complex";"Vila";"Gampong Siblah Coh";"68G3+WP7, Siblahco, Kec. Ulim, Kabupaten Pidie Jaya, Aceh";"Kabupaten Pidie Jaya, Aceh";"ACEH";"";"Indonesia";"";"5.2274057";"96.3043286";"https://maps.google.com/?cid=0x0:0xe4afa058d1c61dff"
"housing complex";"Perumahan";"Rumah Kelahiran HAITAMI";"686M+XJ5, Meuko Meugit, Kec. Jangka Buya, Kabupaten Pidie Jaya, Aceh";"Kabupaten Pidie Jaya, Aceh";"ACEH";"";"Indonesia";"";"5.2123765";"96.3341127";"https://maps.google.com/?cid=0x0:0x21c4469df8c921b0"
"housing complex";"Komplek perumahan";"Rumah Syarwi";"68G5+H44, Jurong Ara, Kec. Jangka Buya, Kabupaten Pidie Jaya, Aceh";"Kabupaten Pidie Jaya, Aceh";"ACEH";"";"Indonesia";"";"5.2261316";"96.30897";"https://maps.google.com/?cid=0x0:0x67710ab7b2459cab"
"housing complex";"Restoran";"Rumah Fauzan";"68G7+X6, Jurong Teungoh, Kec. Jangka Buya, Kabupaten Pidie Jaya, Aceh";"Kabupaten Pidie Jaya, Aceh";"ACEH";"";"Indonesia";"";"5.227422";"96.3130247";"https://maps.google.com/?cid=0x0:0x3b96c9400f30a0b0"
"housing complex";"Komplek perumahan";"Desa buket teungoh";"6867+R83, Buket Teungoh, Kec. Jangka Buya, Kabupaten Pidie Jaya, Aceh";"Kabupaten Pidie Jaya, Aceh";"ACEH";"";"Indonesia";"";"5.2120108";"96.3133033";"https://maps.google.com/?cid=0x0:0x77dd83158d412c31"
"housing complex";"Komplek perumahan";"rumah azmi";"68FH+P6, Keurisi Meunasah Lueng, Kec. Jangka Buya, Kabupaten Pidie Jaya, Aceh";"Kabupaten Pidie Jaya, Aceh";"ACEH";"";"Indonesia";"";"5.224574";"96.3270846";"https://maps.google.com/?cid=0x0:0xeb657d3cd22c496d"
"housing complex";"Komplek perumahan";"Muhammad nur";"68J4+3J, Siblah Coh, Kec. Jangka Buya, Kabupaten Pidie Jaya, Aceh";"Kabupaten Pidie Jaya, Aceh";"ACEH";"";"Indonesia";"";"5.230207";"96.3065638";"https://maps.google.com/?cid=0x0:0x4e13756f5117d41d"
"housing complex";"Perhimpunan Pengembang Perumahan";"Rumah Eka Satria";"686M+XJ5, Meuko Meugit, Kec. Jangka Buya, Kabupaten Pidie Jaya, Aceh";"Kabupaten Pidie Jaya, Aceh";"ACEH";"";"Indonesia";"";"5.2126155";"96.333872";"https://maps.google.com/?cid=0x0:0xed291b9e73237661"
"housing complex";"Komplek perumahan";"Toke Mirza Anwar";"68G6+32V, Jl. Rel Kereta Api, Jurong Teungoh, Kec. Jangka Buya, Kabupaten Pidie Jaya, Aceh";"Kabupaten Pidie Jaya, Aceh";"ACEH";"";"Indonesia";"";"5.2252339";"96.3100042";"https://maps.google.com/?cid=0x0:0xe68140318e57abf6"
"housing complex";"housing complex";"Kec. Meurah Dua";"Kabupaten Pidie Jaya, Aceh";"Kabupaten Pidie Jaya, Aceh";"ACEH";"";"Indonesia";"";"5.2327384";"96.2601989";"https://maps.google.com/?cid=0x0:0x18b794cb75a359ca"
"housing complex";"Komplek perumahan";"Amiruddin's House";"67R5+6P7, Blang Cut, Kec. Meurah Dua, Kabupaten Pidie Jaya, Aceh";"Kabupaten Pidie Jaya, Aceh";"ACEH";"";"Indonesia";"";"5.2405491";"96.2593063";"https://maps.google.com/?cid=0x0:0x5a6cf5e027d0d430"
"housing complex";"Pembangunan Perumahan";"RUMOH BATEE";"67V6+94H, Dayah Kruet, Kec. Meurah Dua, Kabupaten Pidie Jaya, Aceh";"Kabupaten Pidie Jaya, Aceh";"ACEH";"";"Indonesia";"";"5.2434361";"96.2603747";"https://maps.google.com/?cid=0x0:0xf860f94265903538"
"housing complex";"Komplek perumahan";"بيتي";"67R3+7F6, Meunasah Lhok, Kec. Meureudu, Kabupaten Pidie Jaya, Aceh";"Kabupaten Pidie Jaya, Aceh";"ACEH";"";"Indonesia";"";"5.240671";"96.2536424";"https://maps.google.com/?cid=0x0:0x2a385167903b11db"
"housing complex";"Gedung Apartemen";"Tgk. Ahmad Family's House";"67Q6+778, Gampong Blang, Kec. Meurah Dua, Kabupaten Pidie Jaya, Aceh";"Kabupaten Pidie Jaya, Aceh";"ACEH";"";"Indonesia";"";"5.2382861";"96.2608066";"https://maps.google.com/?cid=0x0:0x9381276109c526ae"
"housing complex";"Komplek perumahan";"Husnul Habibi Home Stay";"67R6+V24, Jl. Iskandar Muda, Blang Cut, Kec. Meurah Dua, Kabupaten Pidie Jaya, Aceh";"Kabupaten Pidie Jaya, Aceh";"ACEH";"";"Indonesia";"";"5.2422335";"96.2600532";"https://maps.google.com/?cid=0x0:0xfddef12f7b77f767"
"housing complex";"Komplek perumahan";"MY HOUSE";"765X+3GH, Meuraksa, Kec. Meureudu, Kabupaten Pidie Jaya, Aceh";"Kabupaten Pidie Jaya, Aceh";"ACEH";"";"Indonesia";"";"5.2585358";"96.2492117";"https://maps.google.com/?cid=0x0:0xbf78a22aa3c5c60b"
"housing complex";"Komplek perumahan";"Rumah H Muhammad SH";"7726+4RF, Beuringen, Kec. Meurah Dua, Kabupaten Pidie Jaya, Aceh";"Kabupaten Pidie Jaya, Aceh";"ACEH";"";"Indonesia";"";"5.2503045";"96.2620575";"https://maps.google.com/?cid=0x0:0x247f8a46b9f9330c"
"housing complex";"Komplek perumahan";"Zaheer";"7744+V62, Meunasah Balek, Kec. Meureudu, Kabupaten Pidie Jaya, Aceh 24186";"Meunasah Balek, Kec. Meureudu, Kabupaten Pidie Jaya";"ACEH";"24186";"Indonesia";"";"5.257108";"96.2554243";"https://maps.google.com/?cid=0x0:0xf6a3e6201a5b8c5"
"housing complex";"Komplek perumahan";"Masykurah's house";"67R4+437, JL. Tengku Chik Di Pante Geulima, Meunasah Lhok, Kec. Meureudu, Kabupaten Pidie Jaya, Aceh";"Kabupaten Pidie Jaya, Aceh";"ACEH";"";"Indonesia";"";"5.2410663";"96.2553731";"https://maps.google.com/?cid=0x0:0xc472c2ccbc78d697"
"housing complex";"housing complex";"Rumah Nyakda";"67F4+4RP, Meunasah Teungoh, Kec. Meurah Dua, Kabupaten Pidie Jaya, Aceh";"Kabupaten Pidie Jaya, Aceh";"ACEH";"";"Indonesia";"";"5.2228336";"96.2570852";"https://maps.google.com/?cid=0x0:0xbe40272997d02698"
"housing complex";"Perumahan";"Rumah Misrawati Hasbi";"67M6+59Q, Meunasah Bie, Kec. Meurah Dua, Kabupaten Pidie Jaya, Aceh";"Kabupaten Pidie Jaya, Aceh";"ACEH";"";"Indonesia";"";"5.2329505";"96.2609771";"https://maps.google.com/?cid=0x0:0x85d43ff93c51ca27"
"housing complex";"Komplek perumahan";"TGK IMUM LHOKNGa";"66XX+HRM, Mesjid Tuha, Kec. Meureudu, Kabupaten Pidie Jaya, Aceh";"Kabupaten Pidie Jaya, Aceh";"ACEH";"";"Indonesia";"";"5.2489553";"96.2495337";"https://maps.google.com/?cid=0x0:0x8cdec1a5beeb03bb"
"housing complex";"Komplek perumahan";"Mukhsan zikrillah";"67X3+G93, Mesjid Tuha, Kec. Meureudu, Kabupaten Pidie Jaya, Aceh";"Kabupaten Pidie Jaya, Aceh";"ACEH";"";"Indonesia";"";"5.248921";"96.25327";"https://maps.google.com/?cid=0x0:0x1344e00e0a069913"
"housing complex";"Komplek perumahan";"Perumahan Keluarga Ahmad Lahi";"R4PX+VP5, Pulo Loih, Kec. Geumpang, Kabupaten Pidie, Aceh 24186";"Pulo Loih, Kec. Geumpang, Kabupaten Pidie";"ACEH";"24186";"Indonesia";" 082275452127";"4.8367966";"96.1491924";"https://maps.google.com/?cid=0x0:0xbf7e161488dc1ad8"
"housing complex";"housing complex";"Aceh 24186";"Kec. Meureudu, Kabupaten Pidie, Aceh";"Kabupaten Pidie, Aceh";"ACEH";"";"Indonesia";"";"4.9071931";"96.1102943";"https://maps.google.com/?cid=0x0:0xdafdcbfd9953f40d"
"housing complex";"Layanan Binatu";"Ceudah laundry";"73J3+3J6, Meunasah Baro, Kec. Bandar Baru, Kabupaten Pidie Jaya, Aceh 24186";"Meunasah Baro, Kec. Bandar Baru, Kabupaten Pidie Jaya";"ACEH";"24186";"Indonesia";"";"5.2801527";"96.0540215";"https://maps.google.com/?cid=0x0:0x584c2d804a1a0cce"
"housing complex";"Komplek perumahan";"Kos Zuzu";"66QW+Q7P kode pos 24186, Gp.Mns.Lhok, dusun mns pulo ,lorong depan RM coffe, Meureudu, Pidie Jaya Regency";"Kabupaten Pidie Jaya, Aceh";"ACEH";"";"Indonesia";"";"5.2394734";"96.2457165";"https://maps.google.com/?cid=0x0:0x51dbbd075e91789a"
"housing complex";"Komplek perumahan";"House family";"72V3+QCQ, Lampoh Sirong, Kec. Mutiara, Kabupaten Pidie, Aceh 24186";"Lampoh Sirong, Kec. Mutiara, Kabupaten Pidie";"ACEH";"24186";"Indonesia";"";"5.2944618";"96.0036136";"https://maps.google.com/?cid=0x0:0x1086b9ebe92ad858"
"housing complex";"Komplek perumahan";"Rumah ziana";"R4VW+VH5, Pucok, Kec. Geumpang, Kabupaten Pidie, Aceh 24186";"Pucok, Kec. Geumpang, Kabupaten Pidie";"ACEH";"24186";"Indonesia";"";"4.8434428";"96.1464255";"https://maps.google.com/?cid=0x0:0x994d047e229e34d"
"housing complex";"housing complex";"Pendi";"V4R5+69, Lutueng, Kec. Mane, Kabupaten Pidie, Aceh";"Kabupaten Pidie, Aceh";"ACEH";"";"Indonesia";"";"4.8905603";"96.1084806";"https://maps.google.com/?cid=0x0:0x5bd41fcb138c699f"
"housing complex";"Komplek perumahan";"Olen family";"R4WF+RG2, Bangkeh, Kec. Geumpang, Kabupaten Pidie, Aceh 24186";"Bangkeh, Kec. Geumpang, Kabupaten Pidie";"ACEH";"24186";"Indonesia";" 0821349783";"4.8470069";"96.1237734";"https://maps.google.com/?cid=0x0:0x44229b341d01aead"
"housing complex";"Komplek perumahan";"Zaheer";"7744+V62, Meunasah Balek, Kec. Meureudu, Kabupaten Pidie Jaya, Aceh 24186";"Meunasah Balek, Kec. Meureudu, Kabupaten Pidie Jaya";"ACEH";"24186";"Indonesia";"";"5.257108";"96.2554243";"https://maps.google.com/?cid=0x0:0xf6a3e6201a5b8c5"
"housing complex";"housing complex";"Rmoh zilaa";"735M+42, Meunasah Balee, Kec. Bandar Baru, Kabupaten Pidie Jaya, Aceh";"Kabupaten Pidie Jaya, Aceh";"ACEH";"";"Indonesia";"";"5.2578894";"96.0826031";"https://maps.google.com/?cid=0x0:0xcad433ee580be63f"
"housing complex";"Komplek perumahan";"Leupu";"V43H+4GP, Leupu, Kec. Geumpang, Kabupaten Pidie, Aceh 24186";"Leupu, Kec. Geumpang, Kabupaten Pidie";"ACEH";"24186";"Indonesia";"";"4.8528286";"96.1288426";"https://maps.google.com/?cid=0x0:0xf62f7440aa778092"
"housing complex";"Komplek perumahan";"بيتي";"67R3+7F6, Meunasah Lhok, Kec. Meureudu, Kabupaten Pidie Jaya, Aceh";"Kabupaten Pidie Jaya, Aceh";"ACEH";"";"Indonesia";"";"5.240671";"96.2536424";"https://maps.google.com/?cid=0x0:0x2a385167903b11db"
"housing complex";"Perumahan";"Arisa Sweet Home";"7XJW+Q6M, Beureu Eh II, Kec. Mutiara Tim., Kabupaten Pidie, Aceh 24186";"Beureu Eh II, Kec. Mutiara Tim., Kabupaten Pidie";"ACEH";"24186";"Indonesia";"";"5.2814391";"95.995107";"https://maps.google.com/?cid=0x0:0x7aaa1e5ce0469192"
"housing complex";"Komplek perumahan";"Lutueng dusun cut rumoh raya";"V4J8+7PJ, Blang Dalam, Kec. Mane, Kabupaten Pidie, Aceh 24186";"Blang Dalam, Kec. Mane, Kabupaten Pidie";"ACEH";"24186";"Indonesia";"";"4.8807141";"96.116764";"https://maps.google.com/?cid=0x0:0xa2b354843650021c"
"housing complex";"housing complex";"Kec. Panteraja";"Kabupaten Pidie Jaya, Aceh";"Kabupaten Pidie Jaya, Aceh";"ACEH";"";"Indonesia";"";"5.2718147";"96.1449859";"https://maps.google.com/?cid=0x0:0x316e7cb7d66a0d00"
"housing complex";"Pembangunan Perumahan";"Keude panteraja";"74HP+8PC, Kec. Panteraja, Kabupaten Pidie Jaya, Aceh";"Kabupaten Pidie Jaya, Aceh";"ACEH";"";"Indonesia";"";"5.2783125";"96.1367656";"https://maps.google.com/?cid=0x0:0x673f0c3622d9e2a9"
"housing complex";"Perhimpunan Pengembang Perumahan";"Rumah iswandi";"64XH+9HJ, Lhok Pu'uk, Kec. Panteraja, Kabupaten Pidie Jaya, Aceh";"Kabupaten Pidie Jaya, Aceh";"ACEH";"";"Indonesia";"";"5.247904";"96.128283";"https://maps.google.com/?cid=0x0:0x50770a91c25ab79"
"housing complex";"Komplek perumahan";"Rumah pak MD";"64VH+XVM, Lhok Pu'uk, Kec. Panteraja, Kabupaten Pidie Jaya, Aceh";"Kabupaten Pidie Jaya, Aceh";"ACEH";"";"Indonesia";"";"5.2449709";"96.1296843";"https://maps.google.com/?cid=0x0:0x7ffd7318dc29d80"
"housing complex";"Komplek perumahan";"RUMAH MUNZIR";"748R+7HC, Keude, Kec. Panteraja, Kabupaten Pidie Jaya, Aceh";"Kabupaten Pidie Jaya, Aceh";"ACEH";"";"Indonesia";"";"5.265681";"96.1413802";"https://maps.google.com/?cid=0x0:0xe225f2ab5e657099"
"housing complex";"Komplek perumahan";"khatijah";"74FP+J8F, Tu Pantee Raja, Kec. Panteraja, Kabupaten Pidie Jaya, Aceh";"Kabupaten Pidie Jaya, Aceh";"ACEH";"";"Indonesia";"";"5.2740727";"96.1358092";"https://maps.google.com/?cid=0x0:0xc4d69997d4eec4ad"
"housing complex";"Komplek perumahan";"Wahuddin";"74CV+PXH, Keude, Kec. Panteraja, Kabupaten Pidie Jaya, Aceh";"Kabupaten Pidie Jaya, Aceh";"ACEH";"";"Indonesia";"";"5.2718147";"96.1449859";"https://maps.google.com/?cid=0x0:0xd78d3f3e73507ca6"
"housing complex";"Pembangunan Perumahan";"Simpang Balee Matang";"7586+26P, Jl. Medan Banda Aceh, Peurade, Kec. Panteraja, Kabupaten Pidie Jaya, Aceh";"Kabupaten Pidie Jaya, Aceh";"ACEH";"";"Indonesia";"";"5.2650872";"96.1605923";"https://maps.google.com/?cid=0x0:0x94c3c894a16de2b5"
"housing complex";"Kantor Pemerintah";"Gampong Tu";"74CH+FW7 Tu, Hagu, Kec. Panteraja, Kabupaten Pidie Jaya, Aceh";"Kabupaten Pidie Jaya, Aceh";"ACEH";"";"Indonesia";"";"5.2703577";"96.1304479";"https://maps.google.com/?cid=0x0:0x566deab82d440f46"
"housing complex";"Masjid";"Keude panteraja";"74CW+J5G, Jl. Medan Banda Aceh, Keude, Kec. Panteraja, Kabupaten Pidie Jaya, Aceh";"Kabupaten Pidie Jaya, Aceh";"ACEH";"";"Indonesia";"";"5.271562";"96.1454667";"https://maps.google.com/?cid=0x0:0x5a7a6439ff4dcb9a"
"housing complex";"Perhimpunan Pengembang Perumahan";"Rumah uning aluih";"74CV+PXH, kecamatan, pasie raja, Panteraja, Pidie Jaya Regency, Aceh";"Kabupaten Pidie Jaya, Aceh";"ACEH";"";"Indonesia";"";"5.2718147";"96.1449859";"https://maps.google.com/?cid=0x0:0x55c80843dfc2507f"
"housing complex";"Komplek perumahan";"Rumoh dek put";"745W+747, Teungoh, Kec. Panteraja, Kabupaten Pidie Jaya, Aceh";"Kabupaten Pidie Jaya, Aceh";"ACEH";"";"Indonesia";"";"5.2576119";"96.1449619";"https://maps.google.com/?cid=0x0:0x5227dee89b85557b"
"housing complex";"Komplek perumahan";"Ex Kompleks PLTD Trienggadeng";"753H+HQ9, Sagoe, Kec. Trienggadeng, Kabupaten Pidie Jaya, Aceh";"Kabupaten Pidie Jaya, Aceh";"ACEH";"";"Indonesia";"";"5.253582";"96.1794";"https://maps.google.com/?cid=0x0:0x9d46a7fe65f82e3f"
"housing complex";"Komplek perumahan";"Shah Arahman.AR";"748X+GW5 Makam Tgk. Chik Di Kupula, Keude, Kec. Panteraja, Kabupaten Pidie Jaya, Aceh";"Kabupaten Pidie Jaya, Aceh";"ACEH";"";"Indonesia";"";"5.266275";"96.1498647";"https://maps.google.com/?cid=0x0:0xef90dc2cef5e283e"
"housing complex";"Komplek perumahan";"Ex Kompleks PLTD Trienggadeng";"753H+HQ9, Sagoe, Kec. Trienggadeng, Kabupaten Pidie Jaya, Aceh";"Kabupaten Pidie Jaya, Aceh";"ACEH";"";"Indonesia";"";"5.253582";"96.1794";"https://maps.google.com/?cid=0x0:0x9d46a7fe65f82e3f"
"housing complex";"Komplek perumahan";"Trienggadeng";"752F+JQQ, Lrg. Tu Yaman, Mee Peuduek, Kec. Trienggadeng, Kabupaten Pidie Jaya, Aceh";"Kabupaten Pidie Jaya, Aceh";"ACEH";"";"Indonesia";"";"5.2515778";"96.1744875";"https://maps.google.com/?cid=0x0:0x4b5c3784ea5ebf03"
"housing complex";"housing complex";"Kec. Trienggadeng";"Kabupaten Pidie Jaya, Aceh";"Kabupaten Pidie Jaya, Aceh";"ACEH";"";"Indonesia";"";"5.259028";"96.1834886";"https://maps.google.com/?cid=0x0:0x47f2879d2ad38e99"
"housing complex";"Gedung Apartemen";"THE SULAIMAN HOUSE";"756C+VQ8, Jl. Medan Banda Aceh, Sagoe, Kec. Trienggadeng, Kabupaten Pidie Jaya, Aceh";"Kabupaten Pidie Jaya, Aceh";"ACEH";"";"Indonesia";"";"5.2621609";"96.1719445";"https://maps.google.com/?cid=0x0:0xdc27ff4a7a2ce2c2"
"housing complex";"housing complex";"Rumah M. Daud Ubit";"66R2+X4G, Rawasari, Kec. Trienggadeng, Kabupaten Pidie Jaya, Aceh";"Kabupaten Pidie Jaya, Aceh";"ACEH";"";"Indonesia";"";"5.2424382";"96.2003389";"https://maps.google.com/?cid=0x0:0x7e877a295d20e24b"
"housing complex";"Pembangunan Perumahan";"TRANSMIGRASI GP.BULOH";"65CW+GMQ, Hutan (Trienggadeng), Kec. Trienggadeng, Kabupaten Pidie Jaya, Aceh";"Kabupaten Pidie Jaya, Aceh";"ACEH";"";"Indonesia";"";"5.2213335";"96.1967223";"https://maps.google.com/?cid=0x0:0xab1530d85065d3b2"
"housing complex";"Pembangunan Perumahan";"Perumahan";"755H+V3V, Sagoe, Kec. Trienggadeng, Kabupaten Pidie Jaya, Aceh";"Kabupaten Pidie Jaya, Aceh";"ACEH";"";"Indonesia";"";"5.2596439";"96.1775126";"https://maps.google.com/?cid=0x0:0xdcd866bdf5bfb868"
"housing complex";"Komplek perumahan";"Dun shopping";"65XX+6RF, Tueng Kluet, Kec. Trienggadeng, Kabupaten Pidie Jaya, Aceh";"Kabupaten Pidie Jaya, Aceh";"ACEH";"";"Indonesia";"";"5.2480506";"96.1995454";"https://maps.google.com/?cid=0x0:0x73eb81140bcb1884"
"housing complex";"Pembangunan Perumahan";"Chicago";"754J+57F, Sagoe, Kec. Trienggadeng, Kabupaten Pidie Jaya, Aceh";"Kabupaten Pidie Jaya, Aceh";"ACEH";"";"Indonesia";"";"5.2554523";"96.1806976";"https://maps.google.com/?cid=0x0:0xbcb9f9fb7ae341d0"
"housing complex";"Komplek perumahan";"RUMAH TGK";"65XF+WQ7, Mee Peuduek, Kec. Trienggadeng, Kabupaten Pidie Jaya, Aceh";"Kabupaten Pidie Jaya, Aceh";"ACEH";"";"Indonesia";"";"5.2497817";"96.1744083";"https://maps.google.com/?cid=0x0:0xebb6402ddac22a4d"
"housing complex";"Perumahan";"Mul";"65XF+9FJ, Mee Peuduek, Kec. Trienggadeng, Kabupaten Pidie Jaya, Aceh";"Kabupaten Pidie Jaya, Aceh";"ACEH";"";"Indonesia";"";"5.2481206";"96.1743008";"https://maps.google.com/?cid=0x0:0xd9e68a3752969d56"
"housing complex";"Komplek perumahan";"Tujuan";"65QF+RX, Tuha, Kec. Trienggadeng, Kabupaten Pidie Jaya, Aceh";"Kabupaten Pidie Jaya, Aceh";"ACEH";"";"Indonesia";"";"5.2393659";"96.1757568";"https://maps.google.com/?cid=0x0:0x7286af05e2e276c"
"housing complex";"Komplek perumahan";"Rumah Tringgadeng";"Jl. Medan - Banda Aceh No.Km 150, Sagoe, Kec. Trienggadeng, Kabupaten Pidie Jaya, Aceh";"Kabupaten Pidie Jaya, Aceh";"ACEH";"";"Indonesia";"";"5.2610297";"96.1799071";"https://maps.google.com/?cid=0x0:0xa9321199283578e9"
"housing complex";"Komplek perumahan";"Tuha";"65RG+Q3H, Tuha, Kec. Trienggadeng, Kabupaten Pidie Jaya, Aceh";"Kabupaten Pidie Jaya, Aceh";"ACEH";"";"Indonesia";"";"5.2419348";"96.1752471";"https://maps.google.com/?cid=0x0:0xf8bf460c1f14efa5"
"housing complex";"housing complex";"Aceh 24187";"Kabupaten Pidie, Aceh";"Kabupaten Pidie, Aceh";"ACEH";"";"Indonesia";"";"5.1830255";"95.956825";"https://maps.google.com/?cid=0x0:0x882e17494b2bb8c"
"housing complex";"Komplek perumahan";"rumah terakhir lorong ini";"6VCP+W96, Papeuen Nicah, Kec. Keumala, Kabupaten Pidie, Aceh 24187";"Papeuen Nicah, Kec. Keumala, Kabupaten Pidie";"ACEH";"24187";"Indonesia";"";"5.2222796";"95.8858767";"https://maps.google.com/?cid=0x0:0x3c90dde3df313739"
"housing complex";"housing complex";"Rumah salmi";"4VQH+WJ4, Pulo Iee, Kec. Tangse, Kabupaten Pidie, Aceh 24185";"Pulo Iee, Kec. Tangse, Kabupaten Pidie";"ACEH";"24185";"Indonesia";"";"5.1397631";"95.8790663";"https://maps.google.com/?cid=0x0:0xa7093568c36b15ff"
"housing complex";"Pembangunan Perumahan";"Rumah aurel";"6VMP+HRW, Jijiem, Kec. Keumala, Kabupaten Pidie, Aceh 24187";"Jijiem, Kec. Keumala, Kabupaten Pidie";"ACEH";"24187";"Indonesia";"";"5.2339898";"95.8870642";"https://maps.google.com/?cid=0x0:0x96be98645a82d164"
"housing complex";"Komplek perumahan";"Rumah Ikram";"6X72+J7Q, Pulo Glumpang, Kec. Tiro/Truseb, Kabupaten Pidie, Aceh";"Kabupaten Pidie, Aceh";"ACEH";"";"Indonesia";"";"5.214084";"95.9507211";"https://maps.google.com/?cid=0x0:0x9802067ced9c380"
"housing complex";"Perumahan rakyat";"Thaliban";"6V8X+FHM, Alue, Kec. Titeue, Kabupaten Pidie, Aceh 24185";"Alue, Kec. Titeue, Kabupaten Pidie";"ACEH";"24185";"Indonesia";"";"5.2162085";"95.8989277";"https://maps.google.com/?cid=0x0:0x8201887ddb567756"
"housing complex";"Perhimpunan Pengembang Perumahan";"Rumah Achlul";"4VQH+FJ3, Pulo Iee, Kec. Tangse, Kabupaten Pidie, Aceh";"Kabupaten Pidie, Aceh";"ACEH";"";"Indonesia";"";"5.1386493";"95.8790568";"https://maps.google.com/?cid=0x0:0x155a2b672682757f"
"housing complex";"Komplek perumahan";"Liva’s";"6WM2+X5M, Paloh Teungoh, Kec. Keumala, Kabupaten Pidie, Aceh 24181";"Paloh Teungoh, Kec. Keumala, Kabupaten Pidie";"ACEH";"24181";"Indonesia";"";"5.2342027";"95.9009635";"https://maps.google.com/?cid=0x0:0xc623d269f98f18d7"
"housing complex";"Komplek perumahan";"Reumoh M jafar Hasan";"6V8F+4GX, Ugadeng, Kec. Keumala, Kabupaten Pidie, Aceh 24187";"Ugadeng, Kec. Keumala, Kabupaten Pidie";"ACEH";"24187";"Indonesia";"";"5.2153521";"95.8738626";"https://maps.google.com/?cid=0x0:0x6b2c6ca31163de69"
"housing complex";"Pembangunan Perumahan";"Recydent Abi Musa";"6VGH+X2G, Sagoe, Kec. Keumala, Kabupaten Pidie, Aceh 24187";"Sagoe, Kec. Keumala, Kabupaten Pidie";"ACEH";"24187";"Indonesia";"";"5.2274323";"95.87757";"https://maps.google.com/?cid=0x0:0xe4caf6e6c99029cc"
"housing complex";"Perhimpunan Pengembang Perumahan";"Khairil Ramsey";"6VMQ+PCW, Lorong Krueng, Jijiem, Kec. Keumala, Kabupaten Pidie, Aceh 24187";"Lorong Krueng, Jijiem, Kec. Keumala, Kabupaten Pidie";"ACEH";"24187";"Indonesia";"";"5.2343637";"95.8885773";"https://maps.google.com/?cid=0x0:0xbb6252e0c37f9e50"
"housing complex";"Komplek perumahan";"Rmh Keuchik Lhok panah";"6W4F+VC, Hutan, Kec. Titeue, Kabupaten Pidie, Aceh";"Kabupaten Pidie, Aceh";"ACEH";"";"Indonesia";"";"5.2072012";"95.9235415";"https://maps.google.com/?cid=0x0:0x7e7a226e2f15b2d3"
"housing complex";"Komplek perumahan";"Rumah Keuchik mnsh teungoh";"6VPV+W6F, Meunasah Teungoh, Kec. Keumala, Kabupaten Pidie, Aceh";"Kabupaten Pidie, Aceh";"ACEH";"";"Indonesia";"";"5.2373087";"95.8930489";"https://maps.google.com/?cid=0x0:0x484227849914c92d"
"housing complex";"Pembangunan Perumahan";"Rumah ibu zainab";"6WQC+RR3, Pante Siren, Kec. Titeue, Kabupaten Pidie, Aceh";"Kabupaten Pidie, Aceh";"ACEH";"";"Indonesia";"";"5.2395241";"95.9220406";"https://maps.google.com/?cid=0x0:0x6b0c92af68f326e"
"toko bangunan";"Toko Perlengkapan Rumah";"TOKO BANGUNAN JAYA BARU KSP";"5326+36P, Krueng Seupeng, Kec. Kuta Makmur, Kabupaten Aceh Utara, Aceh 24355";"Krueng Seupeng, Kec. Kuta Makmur, Kabupaten Aceh Utara";"ACEH";"24355";"Indonesia";" 085169986740";"5.1502022";"97.0605927";"https://maps.google.com/?cid=0x0:0x29a6049b69529a67"
"toko bangunan";"Toko Bahan Bangunan";"Toko Bangunan Pacific Jaya";"62R4+5VM, Paloh Lada, Kec. Dewantara, Kabupaten Aceh Utara, Aceh";"Kabupaten Aceh Utara, Aceh";"ACEH";"";"Indonesia";" 085769908922";"5.2404522";"97.0071786";"https://maps.google.com/?cid=0x0:0xb01dad4468be43c1"
"toko bangunan";"Toko Bahan Bangunan";"Mudah Utama";"Simpang Bundaran Jl Baru, Blk. Sawah, Kec. Kota Sigli, Kabupaten Pidie, Aceh 24111";"Blk. Sawah, Kec. Kota Sigli, Kabupaten Pidie";"ACEH";"24111";"Indonesia";" 08388827765";"5.3801168";"95.9593483";"https://maps.google.com/?cid=0x0:0xba135d63b6a42e52"
"toko bangunan";"Toko Bahan Bangunan";"Toko Bangunan Sejahtera Baru";"F9VF+2VR, Lambarih Bakmee, Kec. SukaMakmur, Kabupaten Aceh Besar, Aceh 23363";"Lambarih Bakmee, Kec. SukaMakmur, Kabupaten Aceh Besar";"ACEH";"23363";"Indonesia";" 081374134491";"5.4926174";"95.3746298";"https://maps.google.com/?cid=0x0:0x13f51277a759d9b5"
"toko bangunan";"Toko Bahan Bangunan";"Toko Bangunan Sahabat Baru";"Jl. Teuku Iskandar No.2, Lamglumpang, Kec. Ulee Kareng, Kota Banda Aceh, Aceh 23127";"Lamglumpang, Kec. Ulee Kareng, Kota Banda Aceh";"ACEH";"23127";"Indonesia";" 081374134491";"5.5497336";"95.3587896";"https://maps.google.com/?cid=0x0:0xed8d0ee3ba9bd01b"
"toko bangunan";"Toko Bahan Bangunan";"Toko Bangunan Mudah Rezeki";"7XGH+VWJ, Jl. Medan - Banda Aceh, Baro Yaman, Kec. Mutiara, Kabupaten Pidie, Aceh 24186";"Jl. Medan - Banda Aceh, Baro Yaman, Kec. Mutiara, Kabupaten Pidie";"ACEH";"24186";"Indonesia";" 083869600323";"5.2772135";"95.9797531";"https://maps.google.com/?cid=0x0:0x35c5fb47563cbc1d"
"toko bangunan";"Toko Bahan Bangunan";"Toko bangunan hidup baru";"Jl. Medan - Banda Aceh, Rapana, Kec. Mutiara, Kabupaten Pidie, Aceh";"Kabupaten Pidie, Aceh";"ACEH";"";"Indonesia";" 083177680118";"5.2778736";"95.9730691";"https://maps.google.com/?cid=0x0:0x8ecaf417110d795a"
"toko bangunan";"Toko Bahan Bangunan";"BERKAH SAUDARA";"Meunasah Keude, Kec. Bandar Baru, Kabupaten Pidie Jaya, Aceh 24171";"Kec. Bandar Baru, Kabupaten Pidie Jaya";"ACEH";"24171";"Indonesia";" 082367051036";"5.2557613";"96.0620743";"https://maps.google.com/?cid=0x0:0xc2c062fb24a849f9"
"toko bangunan";"Toko Bahan Bangunan";"Toko Bangunan Wahyu Kana";"7346+9VQ, Jl. Medan Banda Aceh, Meunasah Keude, Kec. Bandar Baru, Kabupaten Pidie Jaya, Aceh 24184";"Jl. Medan Banda Aceh, Meunasah Keude, Kec. Bandar Baru, Kabupaten Pidie Jaya";"ACEH";"24184";"Indonesia";" 085221885838";"5.2559643";"96.0622409";"https://maps.google.com/?cid=0x0:0x84abd2d8e80fc248"
"toko bangunan";"Toko Bahan Bangunan";"Toko Bangunan Restu Baru";"Punge Jurong, Kec. Meuraxa, Kota Banda Aceh, Aceh";"Kota Banda Aceh, Aceh";"ACEH";"";"Indonesia";" 081374134491";"5.5505698";"95.3063395";"https://maps.google.com/?cid=0x0:0x19be35fae5e58e08"
"toko bangunan";"Toko Bahan Bangunan";"Toko Bangunan BAHAGIA BARU";"Jl. Rel Kereta Api, Bineh Blang, Kec. Ingin Jaya, Kabupaten Aceh Besar, Aceh 23116";"Bineh Blang, Kec. Ingin Jaya, Kabupaten Aceh Besar";"ACEH";"23116";"Indonesia";" 081374134491";"5.5259913";"95.354522";"https://maps.google.com/?cid=0x0:0x54f2941ccf5a8b5d"
"toko bangunan";"Toko Bahan Bangunan";"TOKO BANGUNAN MANDIRI BARU";"Jl. Teuku Iskandar, Lamglumpang, Kec. Ulee Kareng, Kota Banda Aceh, Aceh 23127";"Lamglumpang, Kec. Ulee Kareng, Kota Banda Aceh";"ACEH";"23127";"Indonesia";" 087773953144";"5.5520791";"95.3492516";"https://maps.google.com/?cid=0x0:0x2dfc9d8d2d36fce8"
"toko bangunan";"Toko Bahan Bangunan";"Toko Dunia Bangunan. 24 Jam.";"H82H+CVX, Jl. Teuku Imuem Jl. Teuku Chik Di Tiro, Ateuk Pahlawan, Kec. Baiturrahman, Kota Banda Aceh, Aceh 174_175";"Kota Banda Aceh, Aceh";"ACEH";"";"Indonesia";" 085260178145";"5.5511237";"95.3297328";"https://maps.google.com/?cid=0x0:0xc5443108175d2ef2"
"toko bangunan";"Toko Bahan Bangunan";"Zahra Bangunan";"Jl. Dr. Mr. Mohd Hasan, Batoh, Kec. Lueng Bata, Kota Banda Aceh, Aceh 23127";"Batoh, Kec. Lueng Bata, Kota Banda Aceh";"ACEH";"23127";"Indonesia";" 087773953144";"5.5425651";"95.3305542";"https://maps.google.com/?cid=0x0:0x9785538145c2ac3"
"toko bangunan";"Toko Perlengkapan Rumah";"TB AFKA JAYA";"Gampong Ulee Gle, Kec. Bandar Dua, Kabupaten Pidie Jaya, Aceh";"Kabupaten Pidie Jaya, Aceh";"ACEH";"";"Indonesia";" 085296969202";"5.2024372";"96.313986";"https://maps.google.com/?cid=0x0:0xb37ba3ae8946fab0"
"toko bangunan";"toko bangunan";"Aceh 24188";"Hutan (Bandar Dua), Kec. Bandar Dua, Kabupaten Pidie Jaya, Aceh";"Kabupaten Pidie Jaya, Aceh";"ACEH";"";"Indonesia";"";"5.119276";"96.1155932";"https://maps.google.com/?cid=0x0:0xb55f6220579e0177"
"toko bangunan";"Toko Bahan Bangunan";"Dagang Bahan Bangunan  Alat Listrik";"Meunasah Keude, Kec. Bandar Baru, Kabupaten Pidie Jaya, Aceh 24184";"Kec. Bandar Baru, Kabupaten Pidie Jaya";"ACEH";"24184";"Indonesia";" 085211567255";"5.2557611";"96.062074";"https://maps.google.com/?cid=0x0:0x5fd42e6c627e6160"
"toko bangunan";"Toko Bahan Bangunan";"Toko Bangunan Aleppo";"Mee Pangwa, Kec. Trienggadeng, Kabupaten Pidie Jaya, Aceh";"Kabupaten Pidie Jaya, Aceh";"ACEH";"";"Indonesia";" 081269751447";"5.2469036";"96.2121451";"https://maps.google.com/?cid=0x0:0x14c386f8a4769331"
"toko bangunan";"Toko Bahan Bangunan";"BERKAH SAUDARA";"Meunasah Keude, Kec. Bandar Baru, Kabupaten Pidie Jaya, Aceh 24171";"Kec. Bandar Baru, Kabupaten Pidie Jaya";"ACEH";"24171";"Indonesia";" 082367051036";"5.2557613";"96.0620743";"https://maps.google.com/?cid=0x0:0xc2c062fb24a849f9"
"toko bangunan";"Toko Bahan Bangunan";"Toko Bangunan Wahyu Kana";"7346+9VQ, Jl. Medan Banda Aceh, Meunasah Keude, Kec. Bandar Baru, Kabupaten Pidie Jaya, Aceh 24184";"Jl. Medan Banda Aceh, Meunasah Keude, Kec. Bandar Baru, Kabupaten Pidie Jaya";"ACEH";"24184";"Indonesia";" 085221885838";"5.2559643";"96.0622409";"https://maps.google.com/?cid=0x0:0x84abd2d8e80fc248"
"toko bangunan";"Toko Bahan Bangunan";"Toko besi dan bangunan bilal jaya";"Nangrhoe Timu, Kec. Ulim, Kabupaten Pidie Jaya, Aceh";"Kabupaten Pidie Jaya, Aceh";"ACEH";"";"Indonesia";" 087773968995";"5.2170553";"96.2948234";"https://maps.google.com/?cid=0x0:0x489e789aabadc9ac"
"toko bangunan";"Toko Bahan Bangunan";"TOKO BANGUNAN MULYA JAYA";"Gp, Jl. Medan B. Aceh, Simpang 4 Meureudu, Meunasah Bie, Kec. Meurah Dua, Kabupaten Pidie Jaya, Aceh 24186";"Jl. Medan B. Aceh, Simpang 4 Meureudu, Meunasah Bie, Kec. Meurah Dua, Kabupaten Pidie Jaya";"ACEH";"24186";"Indonesia";" 087773968995";"5.232774";"96.2594669";"https://maps.google.com/?cid=0x0:0xa07a25e4046f9d58"
"toko bangunan";"Toko Bahan Bangunan";"Toko";"Meunasah Keude, Kec. Bandar Baru, Kabupaten Pidie Jaya, Aceh 24171";"Kec. Bandar Baru, Kabupaten Pidie Jaya";"ACEH";"24171";"Indonesia";" 082316157407";"5.2558089";"96.0620884";"https://maps.google.com/?cid=0x0:0x92b4c19f4b378182"
"toko bangunan";"Toko Bahan Bangunan";"SEJAHTERA";"7346+659, Meunasah Keude, Kec. Bandar Baru, Kabupaten Pidie Jaya, Aceh 24171";"Meunasah Keude, Kec. Bandar Baru, Kabupaten Pidie Jaya";"ACEH";"24171";"Indonesia";"";"5.2555436";"96.0603962";"https://maps.google.com/?cid=0x0:0x11e2f091c540041c"
"toko bangunan";"Toko Elektronik";"Toko Karya Melati";"754M+QMV, Jl. Medan Banda Aceh, Raya, Kec. Trienggadeng, Kabupaten Pidie Jaya, Aceh";"Kabupaten Pidie Jaya, Aceh";"ACEH";"";"Indonesia";"";"5.2569754";"96.1841634";"https://maps.google.com/?cid=0x0:0xb8b195d6f9a03925"
"toko bangunan";"Toko Bahan Bangunan";"Toko Bangunan Mudah Rezeki";"7XGH+VWJ, Jl. Medan - Banda Aceh, Baro Yaman, Kec. Mutiara, Kabupaten Pidie, Aceh 24186";"Jl. Medan - Banda Aceh, Baro Yaman, Kec. Mutiara, Kabupaten Pidie";"ACEH";"24186";"Indonesia";" 083869600323";"5.2772135";"95.9797531";"https://maps.google.com/?cid=0x0:0x35c5fb47563cbc1d"
"toko bangunan";"Toko Perlengkapan Rumah";"Toko Bahan Bangunan Indah Warna";"7XQC+X9V, Blang Lileue, Kec. Mutiara, Kabupaten Pidie, Aceh 24151";"Blang Lileue, Kec. Mutiara, Kabupaten Pidie";"ACEH";"24151";"Indonesia";" 087773953144";"5.2896524";"95.970922";"https://maps.google.com/?cid=0x0:0xe5e998d92e92f0ea"
"toko bangunan";"Toko Bahan Bangunan";"Melati";"Jl. Lintas Timur No.1, Hutan (Meureudu), Kec. Meureudu, Kabupaten Pidie Jaya, Aceh 24152";"Hutan (Meureudu), Kec. Meureudu, Kabupaten Pidie Jaya";"ACEH";"24152";"Indonesia";" 085262534449";"4.988346";"96.280718";"https://maps.google.com/?cid=0x0:0xa1e048f68e0a18ee"
"toko bangunan";"toko bangunan";"Kec. Jangka Buya";"Kabupaten Pidie Jaya, Aceh";"Kabupaten Pidie Jaya, Aceh";"ACEH";"";"Indonesia";"";"5.2242158";"96.3121613";"https://maps.google.com/?cid=0x0:0xd6fccc30f37acb80"
"toko bangunan";"Toko Bahan Bangunan";"Toko besi dan bangunan bilal jaya";"Nangrhoe Timu, Kec. Ulim, Kabupaten Pidie Jaya, Aceh";"Kabupaten Pidie Jaya, Aceh";"ACEH";"";"Indonesia";" 087773968995";"5.2170553";"96.2948234";"https://maps.google.com/?cid=0x0:0x489e789aabadc9ac"
"toko bangunan";"Toko Bahan Bangunan";"Toko Bangunan Sinar Abadi";"68C8+VX4, Jl. Rel Kereta Api, Keude Jangka Buya, Kec. Jangka Buya, Kabupaten Pidie Jaya, Aceh";"Kabupaten Pidie Jaya, Aceh";"ACEH";"";"Indonesia";"";"5.222146";"96.317438";"https://maps.google.com/?cid=0x0:0x2eaa1b525552d37f"
"toko bangunan";"toko bangunan";"Kec. Meurah Dua";"Kabupaten Pidie Jaya, Aceh";"Kabupaten Pidie Jaya, Aceh";"ACEH";"";"Indonesia";"";"5.2327384";"96.2601989";"https://maps.google.com/?cid=0x0:0x18b794cb75a359ca"
"toko bangunan";"Toko Bahan Bangunan";"Toko Surya Indah";"67M5+5G5, Meunasah Bie, Kec. Meurah Dua, Kabupaten Pidie Jaya, Aceh";"Kabupaten Pidie Jaya, Aceh";"ACEH";"";"Indonesia";" 085276674462";"5.232871";"96.2589498";"https://maps.google.com/?cid=0x0:0xab7f7f0642b488f5"
"toko bangunan";"Toko Bahan Bangunan";"TOKO BANGUNAN MULYA JAYA";"Gp, Jl. Medan B. Aceh, Simpang 4 Meureudu, Meunasah Bie, Kec. Meurah Dua, Kabupaten Pidie Jaya, Aceh 24186";"Jl. Medan B. Aceh, Simpang 4 Meureudu, Meunasah Bie, Kec. Meurah Dua, Kabupaten Pidie Jaya";"ACEH";"24186";"Indonesia";" 087773968995";"5.232774";"96.2594669";"https://maps.google.com/?cid=0x0:0xa07a25e4046f9d58"
"toko bangunan";"Toko Bahan Bangunan";"NAIFA BANGUNAN";"66VW+3QM, Meunasah Lhok, Kec. Meureudu, Kabupaten Pidie Jaya, Aceh";"Kabupaten Pidie Jaya, Aceh";"ACEH";"";"Indonesia";" 081269523034";"5.2431493";"96.2470901";"https://maps.google.com/?cid=0x0:0x29b6ee3eb6bc4202"
"toko bangunan";"Toko Bahan Bangunan";"PUTRA HUSEIN";"7723+RXH, Jl. Iskandar Muda, Beuringen, Kec. Meurah Dua, Kabupaten Pidie Jaya, Aceh";"Kabupaten Pidie Jaya, Aceh";"ACEH";"";"Indonesia";" 082329120744";"5.252069";"96.2549746";"https://maps.google.com/?cid=0x0:0x4e37ce741806bb20"
"toko bangunan";"Toko Bahan Bangunan";"Toko besi dan bangunan bilal jaya";"Nangrhoe Timu, Kec. Ulim, Kabupaten Pidie Jaya, Aceh";"Kabupaten Pidie Jaya, Aceh";"ACEH";"";"Indonesia";" 087773968995";"5.2170553";"96.2948234";"https://maps.google.com/?cid=0x0:0x489e789aabadc9ac"
"toko bangunan";"Minimarket";"THREE PUT";"679Q+X5P, AH25, Nangrhoe Bar., Kec. Ulim, Kabupaten Pidie Jaya, Aceh";"Kabupaten Pidie Jaya, Aceh";"ACEH";"";"Indonesia";" 085360151601";"5.2199672";"96.2879489";"https://maps.google.com/?cid=0x0:0xbdd07f2aed7515c5"
"toko bangunan";"Toko Bahan Bangunan";"Mudah Utama";"Simpang Bundaran Jl Baru, Blk. Sawah, Kec. Kota Sigli, Kabupaten Pidie, Aceh 24111";"Blk. Sawah, Kec. Kota Sigli, Kabupaten Pidie";"ACEH";"24111";"Indonesia";" 08388827765";"5.3801168";"95.9593483";"https://maps.google.com/?cid=0x0:0xba135d63b6a42e52"
"toko bangunan";"Toko Perlengkapan Rumah";"Medan Keramik";"Jl. Tgk. Syik Pante Geulima, Dayah Timu, Kec. Meureudu, Kabupaten Pidie Jaya, Aceh 24186";"Dayah Timu, Kec. Meureudu, Kabupaten Pidie Jaya";"ACEH";"24186";"Indonesia";" 085275572172";"5.2362328";"96.2469779";"https://maps.google.com/?cid=0x0:0x7f1657fe570a18d1"
"toko bangunan";"Toko Bahan Bangunan";"TB Mudah Rezeki";"Jl. Rel Kereta Api, Rhieng Blang, Kec. Meureudu, Kabupaten Pidie Jaya, Aceh";"Kabupaten Pidie Jaya, Aceh";"ACEH";"";"Indonesia";" 085261026580";"5.251043";"96.2392657";"https://maps.google.com/?cid=0x0:0x2315124d5e81f0a2"
"toko bangunan";"Toko Bahan Bangunan";"TB. Mitra abadi";"67GM+J9V, Jl. Medan Banda Aceh, Keude Ulim, Kec. Ulim, Kabupaten Pidie Jaya, Aceh";"Kabupaten Pidie Jaya, Aceh";"ACEH";"";"Indonesia";" 082164465822";"5.2266238";"96.283415";"https://maps.google.com/?cid=0x0:0x58ab66dc63bf25a5"
"toko bangunan";"Minimarket";"Makmur Swalayan";"Rhieng Blang, Kec. Meureudu, Kabupaten Pidie Jaya, Aceh";"Kabupaten Pidie Jaya, Aceh";"ACEH";"";"Indonesia";"";"5.2510253";"96.2466713";"https://maps.google.com/?cid=0x0:0xd9335c9dc67c1dcb"
"toko bangunan";"Toko Bahan Bangunan";"BERKAH SAUDARA";"Meunasah Keude, Kec. Bandar Baru, Kabupaten Pidie Jaya, Aceh 24171";"Kec. Bandar Baru, Kabupaten Pidie Jaya";"ACEH";"24171";"Indonesia";" 082367051036";"5.2557613";"96.0620743";"https://maps.google.com/?cid=0x0:0xc2c062fb24a849f9"
"toko bangunan";"Toko Bahan Bangunan";"Toko Bangunan Mudah Rezeki";"7XGH+VWJ, Jl. Medan - Banda Aceh, Baro Yaman, Kec. Mutiara, Kabupaten Pidie, Aceh 24186";"Jl. Medan - Banda Aceh, Baro Yaman, Kec. Mutiara, Kabupaten Pidie";"ACEH";"24186";"Indonesia";" 083869600323";"5.2772135";"95.9797531";"https://maps.google.com/?cid=0x0:0x35c5fb47563cbc1d"
"toko bangunan";"toko bangunan";"Aceh 24186";"Kec. Meureudu, Kabupaten Pidie, Aceh";"Kabupaten Pidie, Aceh";"ACEH";"";"Indonesia";"";"4.9071931";"96.1102943";"https://maps.google.com/?cid=0x0:0xdafdcbfd9953f40d"
"toko bangunan";"Toko Bahan Bangunan";"Toko Bangunan Mudah Rezeki";"7XGH+VWJ, Jl. Medan - Banda Aceh, Baro Yaman, Kec. Mutiara, Kabupaten Pidie, Aceh 24186";"Jl. Medan - Banda Aceh, Baro Yaman, Kec. Mutiara, Kabupaten Pidie";"ACEH";"24186";"Indonesia";" 083869600323";"5.2772135";"95.9797531";"https://maps.google.com/?cid=0x0:0x35c5fb47563cbc1d"
"toko bangunan";"Toko Bahan Bangunan";"toko bangunan beuna jaya";"Bangkeh, Kec. Geumpang, Kabupaten Pidie, Aceh 24186";"Kec. Geumpang, Kabupaten Pidie";"ACEH";"24186";"Indonesia";" 083177680118";"4.8474143";"96.1241671";"https://maps.google.com/?cid=0x0:0xae05d3a8c0fbbe19"
"toko bangunan";"Toko Perlengkapan Rumah";"Toko Bahan Bangunan Indah Warna";"7XQC+X9V, Blang Lileue, Kec. Mutiara, Kabupaten Pidie, Aceh 24151";"Blang Lileue, Kec. Mutiara, Kabupaten Pidie";"ACEH";"24151";"Indonesia";" 087773953144";"5.2896524";"95.970922";"https://maps.google.com/?cid=0x0:0xe5e998d92e92f0ea"
"toko bangunan";"Toko Bahan Bangunan";"BERKAH SAUDARA";"Meunasah Keude, Kec. Bandar Baru, Kabupaten Pidie Jaya, Aceh 24171";"Kec. Bandar Baru, Kabupaten Pidie Jaya";"ACEH";"24171";"Indonesia";" 082367051036";"5.2557613";"96.0620743";"https://maps.google.com/?cid=0x0:0xc2c062fb24a849f9"
"toko bangunan";"Toko Bahan Bangunan";"Mudah Utama";"Simpang Bundaran Jl Baru, Blk. Sawah, Kec. Kota Sigli, Kabupaten Pidie, Aceh 24111";"Blk. Sawah, Kec. Kota Sigli, Kabupaten Pidie";"ACEH";"24111";"Indonesia";" 08388827765";"5.3801168";"95.9593483";"https://maps.google.com/?cid=0x0:0xba135d63b6a42e52"
"toko bangunan";"Toko Bahan Bangunan";"Toko Bangunan Wahyu Kana";"7346+9VQ, Jl. Medan Banda Aceh, Meunasah Keude, Kec. Bandar Baru, Kabupaten Pidie Jaya, Aceh 24184";"Jl. Medan Banda Aceh, Meunasah Keude, Kec. Bandar Baru, Kabupaten Pidie Jaya";"ACEH";"24184";"Indonesia";" 085221885838";"5.2559643";"96.0622409";"https://maps.google.com/?cid=0x0:0x84abd2d8e80fc248"
"toko bangunan";"Gudang";"Toko Bina Beuna";"Jl. Pasi lhok, Kembang Tanjung, Aron Asan Kumbang, Kec. Kembang Tj., Kabupaten Pidie, Aceh 24182";"Kembang Tanjung, Aron Asan Kumbang, Kec. Kembang Tj., Kabupaten Pidie";"ACEH";"24182";"Indonesia";" 081377444563";"5.3051003";"96.0155452";"https://maps.google.com/?cid=0x0:0x210cb29d4d489af7"
"toko bangunan";"Pusat Perbelanjaan";"Asia Utama Beureunuen";"Jl. Medan - Banda Aceh, Beureunuen, Blang Lileue, Kec. Mutiara, Kabupaten Pidie, Aceh 24173";"Beureunuen, Blang Lileue, Kec. Mutiara, Kabupaten Pidie";"ACEH";"24173";"Indonesia";" 085270448445";"5.2884393";"95.9717897";"https://maps.google.com/?cid=0x0:0xc070ae80ed4eef5c"
"toko bangunan";"Toko Bahan Bangunan";"Toko SEHATI";"Jl. Tgk. Chik di Tiro No.31 - 33, Mesjid Yaman, Kec. Mutiara, Kabupaten Pidie, Aceh 24173";"Mesjid Yaman, Kec. Mutiara, Kabupaten Pidie";"ACEH";"24173";"Indonesia";" 0653821661";"5.279591";"95.978447";"https://maps.google.com/?cid=0x0:0xadb0768d54ab1a4e"
"toko bangunan";"Toko Perlengkapan Rumah";"Mitra Plafon PVC meureudu";"66PW+FQX, Dayah Timu, Kec. Meureudu, Kabupaten Pidie Jaya, Aceh";"Kabupaten Pidie Jaya, Aceh";"ACEH";"";"Indonesia";" 082317258085";"5.2362385";"96.2469701";"https://maps.google.com/?cid=0x0:0x9aa35be37ba1358b"
"toko bangunan";"Pusat Perbelanjaan";"Toko bangunan mila jaya";"toko mila jaya, Jl. Reubee-Grong Grong, Grong Grong, Kec. Grong-grong, Kabupaten Pidie, Aceh";"Kabupaten Pidie, Aceh";"ACEH";"";"Indonesia";" 085276592934";"5.3798778";"95.9082512";"https://maps.google.com/?cid=0x0:0x8a30399083552720"
"toko bangunan";"Toko Bahan Bangunan";"Tuah Mata";"Di depan Mesjid Taqwa, JLN. Medan-Banda Aceh, Lampoh Saka, KM. 8, Kec. Peukan Baro, Aceh 24172";"JLN. Medan-Banda Aceh, Lampoh Saka, KM. 8, Kec. Peukan Baro";"ACEH";"24172";"Indonesia";" 081269075098";"5.3076256";"95.963832";"https://maps.google.com/?cid=0x0:0xb77f52f93a38bb5b"
"toko bangunan";"Toko Bahan Bangunan";"Toko Bangunan Bina Sabena";"Keubang, Kec. Indra Jaya, Kabupaten Pidie, Aceh 24183";"Kec. Indra Jaya, Kabupaten Pidie";"ACEH";"24183";"Indonesia";" 081317013239";"5.3264888";"95.9221148";"https://maps.google.com/?cid=0x0:0x95305576d5d18f3a"
"toko bangunan";"toko bangunan";"Kec. Panteraja";"Kabupaten Pidie Jaya, Aceh";"Kabupaten Pidie Jaya, Aceh";"ACEH";"";"Indonesia";"";"5.2718147";"96.1449859";"https://maps.google.com/?cid=0x0:0x316e7cb7d66a0d00"
"toko bangunan";"Toko Elektronik";"Toko Karya Melati";"754M+QMV, Jl. Medan Banda Aceh, Raya, Kec. Trienggadeng, Kabupaten Pidie Jaya, Aceh";"Kabupaten Pidie Jaya, Aceh";"ACEH";"";"Indonesia";"";"5.2569754";"96.1841634";"https://maps.google.com/?cid=0x0:0xb8b195d6f9a03925"
"toko bangunan";"Toko Bahan Bangunan";"Toko Bangunan sinar Indah";"754M+RMQ depan Masjid Islamic Center At-Taqarrub, Jl. Medan - Banda Aceh, Raya, Kec. Trienggadeng, Kabupaten Pidie Jaya, Aceh";"Kabupaten Pidie Jaya, Aceh";"ACEH";"";"Indonesia";" 083869600323";"5.2570824";"96.1842205";"https://maps.google.com/?cid=0x0:0x6704e686e67381bf"
"toko bangunan";"Toko Bahan Bangunan";"Dagang Bahan Bangunan  Alat Listrik";"Meunasah Keude, Kec. Bandar Baru, Kabupaten Pidie Jaya, Aceh 24184";"Kec. Bandar Baru, Kabupaten Pidie Jaya";"ACEH";"24184";"Indonesia";" 085211567255";"5.2557611";"96.062074";"https://maps.google.com/?cid=0x0:0x5fd42e6c627e6160"
"toko bangunan";"toko bangunan";"toko mirana bangunan";"74FQ+HQF, Keude, Kec. Panteraja, Kabupaten Pidie Jaya, Aceh";"Kabupaten Pidie Jaya, Aceh";"ACEH";"";"Indonesia";"";"5.2739455";"96.1394294";"https://maps.google.com/?cid=0x0:0xdc1400c03c1a2c96"
"toko bangunan";"Toko Bahan Bangunan";"Toko bangunan hidup baru";"Jl. Medan - Banda Aceh, Rapana, Kec. Mutiara, Kabupaten Pidie, Aceh";"Kabupaten Pidie, Aceh";"ACEH";"";"Indonesia";" 083177680118";"5.2778736";"95.9730691";"https://maps.google.com/?cid=0x0:0x8ecaf417110d795a"
"toko bangunan";"toko bangunan";"N/A";"";"";"ACEH";"";"Indonesia";"";"5.1047825";"96.195215";"https://maps.google.com/?cid=0x0:0x57855a559945a759"
"toko bangunan";"toko bangunan";"Kec. Trienggadeng";"Kabupaten Pidie Jaya, Aceh";"Kabupaten Pidie Jaya, Aceh";"ACEH";"";"Indonesia";"";"5.259028";"96.1834886";"https://maps.google.com/?cid=0x0:0x47f2879d2ad38e99"
"toko bangunan";"Toko Bahan Bangunan";"Toko Bangunan Aleppo";"Mee Pangwa, Kec. Trienggadeng, Kabupaten Pidie Jaya, Aceh";"Kabupaten Pidie Jaya, Aceh";"ACEH";"";"Indonesia";" 081269751447";"5.2469036";"96.2121451";"https://maps.google.com/?cid=0x0:0x14c386f8a4769331"
"toko bangunan";"Toko Bahan Bangunan";"Toko Bangunan sinar Indah";"754M+RMQ depan Masjid Islamic Center At-Taqarrub, Jl. Medan - Banda Aceh, Raya, Kec. Trienggadeng, Kabupaten Pidie Jaya, Aceh";"Kabupaten Pidie Jaya, Aceh";"ACEH";"";"Indonesia";" 083869600323";"5.2570824";"96.1842205";"https://maps.google.com/?cid=0x0:0x6704e686e67381bf"
"toko bangunan";"Toko Bahan Bangunan";"TB. TALAGO PANGWA";"66RF+R4W, Jl. Medan B. Aceh, Gampong Meucat, Mee Pangwa, Kec. Trienggadeng, Kabupaten Pidie Jaya, Aceh";"Kabupaten Pidie Jaya, Aceh";"ACEH";"";"Indonesia";"";"5.2421181";"96.2228269";"https://maps.google.com/?cid=0x0:0x77f7d474494206bc"
"toko bangunan";"Toko Bahan Bangunan";"Toko Besi Putra Dayah";"762M+J2H, Jl. Rel Kereta Api, Deah Pangwa, Kec. Trienggadeng, Kabupaten Pidie Jaya, Aceh";"Kabupaten Pidie Jaya, Aceh";"ACEH";"";"Indonesia";" 085371585066";"5.2515522";"96.2325998";"https://maps.google.com/?cid=0x0:0x3ab5bda44630b35a"
"toko bangunan";"Toko Bahan Bangunan";"TB Mudah Rezeki";"Jl. Rel Kereta Api, Rhieng Blang, Kec. Meureudu, Kabupaten Pidie Jaya, Aceh";"Kabupaten Pidie Jaya, Aceh";"ACEH";"";"Indonesia";" 085261026580";"5.251043";"96.2392657";"https://maps.google.com/?cid=0x0:0x2315124d5e81f0a2"
"toko bangunan";"Toko Bahan Bangunan";"NAIFA BANGUNAN";"66VW+3QM, Meunasah Lhok, Kec. Meureudu, Kabupaten Pidie Jaya, Aceh";"Kabupaten Pidie Jaya, Aceh";"ACEH";"";"Indonesia";" 081269523034";"5.2431493";"96.2470901";"https://maps.google.com/?cid=0x0:0x29b6ee3eb6bc4202"
"toko bangunan";"Toko Bahan Bangunan";"TOKO BANGUNAN MULYA JAYA";"Gp, Jl. Medan B. Aceh, Simpang 4 Meureudu, Meunasah Bie, Kec. Meurah Dua, Kabupaten Pidie Jaya, Aceh 24186";"Jl. Medan B. Aceh, Simpang 4 Meureudu, Meunasah Bie, Kec. Meurah Dua, Kabupaten Pidie Jaya";"ACEH";"24186";"Indonesia";" 087773968995";"5.232774";"96.2594669";"https://maps.google.com/?cid=0x0:0xa07a25e4046f9d58"
"toko bangunan";"Toko Bahan Bangunan";"PUTRA HUSEIN";"7723+RXH, Jl. Iskandar Muda, Beuringen, Kec. Meurah Dua, Kabupaten Pidie Jaya, Aceh";"Kabupaten Pidie Jaya, Aceh";"ACEH";"";"Indonesia";" 082329120744";"5.252069";"96.2549746";"https://maps.google.com/?cid=0x0:0x4e37ce741806bb20"
"toko bangunan";"Grosir";"UD Irhca";"Reudeup, Kec. Panteraja, Kabupaten Pidie Jaya, Aceh 24185";"Kec. Panteraja, Kabupaten Pidie Jaya";"ACEH";"24185";"Indonesia";" 081377271193";"5.2628266";"96.16463";"https://maps.google.com/?cid=0x0:0xb07d6413513aede1"
"toko bangunan";"Toko Perlengkapan Rumah";"Mitra Plafon PVC meureudu";"66PW+FQX, Dayah Timu, Kec. Meureudu, Kabupaten Pidie Jaya, Aceh";"Kabupaten Pidie Jaya, Aceh";"ACEH";"";"Indonesia";" 082317258085";"5.2362385";"96.2469701";"https://maps.google.com/?cid=0x0:0x9aa35be37ba1358b"
"toko bangunan";"Toko Bahan Bangunan";"Toko Surya Indah";"67M5+5G5, Meunasah Bie, Kec. Meurah Dua, Kabupaten Pidie Jaya, Aceh";"Kabupaten Pidie Jaya, Aceh";"ACEH";"";"Indonesia";" 085276674462";"5.232871";"96.2589498";"https://maps.google.com/?cid=0x0:0xab7f7f0642b488f5"
"toko bangunan";"Toko Perlengkapan Rumah";"Medan Keramik";"Jl. Tgk. Syik Pante Geulima, Dayah Timu, Kec. Meureudu, Kabupaten Pidie Jaya, Aceh 24186";"Dayah Timu, Kec. Meureudu, Kabupaten Pidie Jaya";"ACEH";"24186";"Indonesia";" 085275572172";"5.2362328";"96.2469779";"https://maps.google.com/?cid=0x0:0x7f1657fe570a18d1"
"toko bangunan";"Toko Bahan Bangunan";"Toko Bangunan Mudah Rezeki";"7XGH+VWJ, Jl. Medan - Banda Aceh, Baro Yaman, Kec. Mutiara, Kabupaten Pidie, Aceh 24186";"Jl. Medan - Banda Aceh, Baro Yaman, Kec. Mutiara, Kabupaten Pidie";"ACEH";"24186";"Indonesia";" 083869600323";"5.2772135";"95.9797531";"https://maps.google.com/?cid=0x0:0x35c5fb47563cbc1d"
"toko bangunan";"toko bangunan";"Aceh 24187";"Kabupaten Pidie, Aceh";"Kabupaten Pidie, Aceh";"ACEH";"";"Indonesia";"";"5.1830255";"95.956825";"https://maps.google.com/?cid=0x0:0x882e17494b2bb8c"
"toko bangunan";"Gudang";"Meuligoe Bangunan";"4VJP+M7M, Beungga, Kec. Tangse, Kabupaten Pidie, Aceh 24165";"Beungga, Kec. Tangse, Kabupaten Pidie";"ACEH";"24165";"Indonesia";"";"5.1317175";"95.8856637";"https://maps.google.com/?cid=0x0:0xb432fde1e0b64f7e"
"toko bangunan";"Toko Bahan Bangunan";"Semangat Baru";"6VMQ+MHW, Jijiem, Kec. Keumala, Kabupaten Pidie, Aceh 24187";"Jijiem, Kec. Keumala, Kabupaten Pidie";"ACEH";"24187";"Indonesia";" 082317688769";"5.2342481";"95.8889515";"https://maps.google.com/?cid=0x0:0xc3a6d4ee529abfec"
"toko bangunan";"Toko Bahan Bangunan";"Toko Bangunan Sejahtera Baru";"F9VF+2VR, Lambarih Bakmee, Kec. SukaMakmur, Kabupaten Aceh Besar, Aceh 23363";"Lambarih Bakmee, Kec. SukaMakmur, Kabupaten Aceh Besar";"ACEH";"23363";"Indonesia";" 081374134491";"5.4926174";"95.3746298";"https://maps.google.com/?cid=0x0:0x13f51277a759d9b5"
"toko bangunan";"Toko Bahan Bangunan";"TOKO REZA JAYA";"5V4F+QC, Lhok Keutapang, Kec. Tangse, Kabupaten Pidie, Aceh 24187";"Lhok Keutapang, Kec. Tangse, Kabupaten Pidie";"ACEH";"24187";"Indonesia";" 08126910072";"5.1569413";"95.873566";"https://maps.google.com/?cid=0x0:0x5f4b1645c5f9c801"
"toko bangunan";"Toko Bahan Bangunan";"Toko Bangunan Aleppo";"Mee Pangwa, Kec. Trienggadeng, Kabupaten Pidie Jaya, Aceh";"Kabupaten Pidie Jaya, Aceh";"ACEH";"";"Indonesia";" 081269751447";"5.2469036";"96.2121451";"https://maps.google.com/?cid=0x0:0x14c386f8a4769331"
"toko bangunan";"Toko Bahan Bangunan";"TOKO BANGUNAN MANDIRI BARU";"Jl. Teuku Iskandar, Lamglumpang, Kec. Ulee Kareng, Kota Banda Aceh, Aceh 23127";"Lamglumpang, Kec. Ulee Kareng, Kota Banda Aceh";"ACEH";"23127";"Indonesia";" 087773953144";"5.5520791";"95.3492516";"https://maps.google.com/?cid=0x0:0x2dfc9d8d2d36fce8"
"toko bangunan";"Toko Bahan Bangunan";"Toko Bangunan Mudah Rezeki";"7XGH+VWJ, Jl. Medan - Banda Aceh, Baro Yaman, Kec. Mutiara, Kabupaten Pidie, Aceh 24186";"Jl. Medan - Banda Aceh, Baro Yaman, Kec. Mutiara, Kabupaten Pidie";"ACEH";"24186";"Indonesia";" 083869600323";"5.2772135";"95.9797531";"https://maps.google.com/?cid=0x0:0x35c5fb47563cbc1d"
"toko bangunan";"Toko Bahan Bangunan";"TOKO BESI BINTANG BANGUNAN";"Jl. Pocut Baren No.29, Keuramat, Kec. Kuta Alam, Kota Banda Aceh, Aceh 23126";"Keuramat, Kec. Kuta Alam, Kota Banda Aceh";"ACEH";"23126";"Indonesia";" 081374134491";"5.5617508";"95.3240203";"https://maps.google.com/?cid=0x0:0xa98c67e001462b53"
"toko bangunan";"Toko";"Toko bangunan sinar baru";"rima, Jalan ulee lheu - simpang, Lamjamee, Kec. Jaya Baru, Kota Banda Aceh, Aceh 23234";"Jalan ulee lheu - simpang, Lamjamee, Kec. Jaya Baru, Kota Banda Aceh";"ACEH";"23234";"Indonesia";" 081374134491";"5.5398079";"95.2848595";"https://maps.google.com/?cid=0x0:0x7657166469a743c7"
"toko bangunan";"Toko Elektronik";"Toko Karya Melati";"754M+QMV, Jl. Medan Banda Aceh, Raya, Kec. Trienggadeng, Kabupaten Pidie Jaya, Aceh";"Kabupaten Pidie Jaya, Aceh";"ACEH";"";"Indonesia";"";"5.2569754";"96.1841634";"https://maps.google.com/?cid=0x0:0xb8b195d6f9a03925"
"toko bangunan";"Toko Bahan Bangunan";"Toko Bangunan Wahyu Kana";"7346+9VQ, Jl. Medan Banda Aceh, Meunasah Keude, Kec. Bandar Baru, Kabupaten Pidie Jaya, Aceh 24184";"Jl. Medan Banda Aceh, Meunasah Keude, Kec. Bandar Baru, Kabupaten Pidie Jaya";"ACEH";"24184";"Indonesia";" 085221885838";"5.2559643";"96.0622409";"https://maps.google.com/?cid=0x0:0x84abd2d8e80fc248"
"toko bangunan";"Toko Bahan Bangunan";"Toko SEHATI";"Jl. Tgk. Chik di Tiro No.31 - 33, Mesjid Yaman, Kec. Mutiara, Kabupaten Pidie, Aceh 24173";"Mesjid Yaman, Kec. Mutiara, Kabupaten Pidie";"ACEH";"24173";"Indonesia";" 0653821661";"5.279591";"95.978447";"https://maps.google.com/?cid=0x0:0xadb0768d54ab1a4e"
"toko bangunan";"Toko Bahan Bangunan";"Toko LANGKAH BARU";"7W3V+JR3, Mns Blang, Kec. Sakti, Kabupaten Pidie, Aceh 24181";"Mns Blang, Kec. Sakti, Kabupaten Pidie";"ACEH";"24181";"Indonesia";"";"5.2540217";"95.9445515";"https://maps.google.com/?cid=0x0:0xd5ab449fa9713bf4"
"building materials";"building materials";"Aceh 24184";"Kabupaten Aceh Utara, Aceh";"Kabupaten Aceh Utara, Aceh";"ACEH";"";"Indonesia";"";"5.1373361";"96.8887202";"https://maps.google.com/?cid=0x0:0x9968bf9e9ed3fc5b"
"building materials";"Toko Bahan Bangunan";"Construction Materials IBN";"Blang Reuling, Kec. Sawang, Kabupaten Aceh Utara, Aceh 24352";"Kec. Sawang, Kabupaten Aceh Utara";"ACEH";"24352";"Indonesia";" 081375777927";"5.18328";"96.9151938";"https://maps.google.com/?cid=0x0:0x1a0d40f586810d3d"
"building materials";"Toko Bahan Bangunan";"Nadilah";"JL. Elak, No. 19, Gampang Cot, Keumuneng, Muara Batu, Cot Keumuneng, Lhoksukon, Kabupaten Aceh Utara, Aceh 24351";"No. 19, Gampang Cot, Keumuneng, Muara Batu, Cot Keumuneng, Lhoksukon, Kabupaten Aceh Utara";"ACEH";"24351";"Indonesia";" 085207070901";"5.225083";"96.974947";"https://maps.google.com/?cid=0x0:0x769e578978026fb8"
"building materials";"Toko Bahan Bangunan";"Sahal";"JL Medan - Banda Aceh, No. 33, Krueng, Geukuh, Tambon Baroh, Banda Aceh, Kabupaten Aceh Utara, Aceh 24184";"No. 33, Krueng, Geukuh, Tambon Baroh, Banda Aceh, Kabupaten Aceh Utara";"ACEH";"24184";"Indonesia";" 085260478086";"5.236658";"97.0247774";"https://maps.google.com/?cid=0x0:0xed0f83b6986472cb"
"building materials";"Toko Perlengkapan Rumah";"Toko bangunan pacific baru";"62Q4+HH4, Jl. PT. KKA, Paloh Lada, Kec. Dewantara, Kabupaten Aceh Utara, Aceh";"Kabupaten Aceh Utara, Aceh";"ACEH";"";"Indonesia";" 083869600323";"5.23888";"97.00644";"https://maps.google.com/?cid=0x0:0x7f761c0e1a87072"
"building materials";"Toko Perlengkapan Rumah";"TOKO BANGUNAN JAYA BARU KSP";"5326+36P, Krueng Seupeng, Kec. Kuta Makmur, Kabupaten Aceh Utara, Aceh 24355";"Krueng Seupeng, Kec. Kuta Makmur, Kabupaten Aceh Utara";"ACEH";"24355";"Indonesia";" 085169986740";"5.1502022";"97.0605927";"https://maps.google.com/?cid=0x0:0x29a6049b69529a67"
"building materials";"Toko Bahan Bangunan";"Colection Baru";"Jl.Ramai, No.31, Kruna Geukueh, Dewantara, Tambon Baroh, Kec. Dewantara, Kabupaten Aceh Utara, Aceh 24184";"No.31, Kruna Geukueh, Dewantara, Tambon Baroh, Kec. Dewantara, Kabupaten Aceh Utara";"ACEH";"24184";"Indonesia";" 085362690780";"5.2377166";"97.0235144";"https://maps.google.com/?cid=0x0:0x8e1a39c531d6a6fe"
"building materials";"Toko Bahan Bangunan";"Munira";"JL. Elak, No. 22, Gampang Cot Keumuneng, Muara Baru, Cot Keumuneng, Lhoksukon, Kabupaten Aceh Utara, Aceh 24351";"No. 22, Gampang Cot Keumuneng, Muara Baru, Cot Keumuneng, Lhoksukon, Kabupaten Aceh Utara";"ACEH";"24351";"Indonesia";" 085260762473";"5.224822";"96.975222";"https://maps.google.com/?cid=0x0:0x2fb992a389d62ea5"
"building materials";"Toko Bahan Bangunan";"Fajar Baru";"JL Medan-Banda Aceh, Km. 232, Tingkeum Manyang, Kota Blang, Kulu Kuta, Kec. Kuta Blang, Kabupaten Bireuen, Aceh 24356";"Km. 232, Tingkeum Manyang, Kota Blang, Kulu Kuta, Kec. Kuta Blang, Kabupaten Bireuen";"ACEH";"24356";"Indonesia";" 081360155487";"5.2119459";"96.8351622";"https://maps.google.com/?cid=0x0:0x271b5f98a2e85d13"
"building materials";"Toko Bahan Bangunan";"AR";"Jl. Medan - Banda Aceh No.6, Batuphat Timur, Kec. Muara Satu, Kota Lhokseumawe, Aceh 24355";"Batuphat Timur, Kec. Muara Satu, Kota Lhokseumawe";"ACEH";"24355";"Indonesia";" 082368914301";"5.2177277";"97.0555315";"https://maps.google.com/?cid=0x0:0xa70072af438de383"
"building materials";"Toko Bahan Bangunan";"Andalas jaya";"Jl. Medan - Banda Aceh, Cot Seurani, Krueng mane, Kabupaten Aceh Utara, Aceh 24355";"Cot Seurani, Krueng mane, Kabupaten Aceh Utara";"ACEH";"24355";"Indonesia";" 085697225016";"5.246745";"96.9225606";"https://maps.google.com/?cid=0x0:0xa55684a2d9f4f898"
"building materials";"Toko Perlengkapan Rumah";"TOKO AQIL JAYA";"6XCR+7HH, Jl. Elak, Paloh Igeuh, Kec. Dewantara, Kabupaten Aceh Utara, Aceh 24313";"Jl. Elak, Paloh Igeuh, Kec. Dewantara, Kabupaten Aceh Utara";"ACEH";"24313";"Indonesia";"";"5.221245";"96.991155";"https://maps.google.com/?cid=0x0:0x731f63bd373b159"
"building materials";"Toko Bahan Bangunan";"Toko besi dan cat sinar mubarak jaya";"52C6+4HR, Jl. Cot Mambong, Mns Meucat, Kec. Nisam, Kabupaten Aceh Utara, Aceh 24184";"Jl. Cot Mambong, Mns Meucat, Kec. Nisam, Kabupaten Aceh Utara";"ACEH";"24184";"Indonesia";" 082281041514";"5.169936";"97.0117859";"https://maps.google.com/?cid=0x0:0xe1e1b5688a74fb9"
"building materials";"Toko Bahan Bangunan";"Bikdah";"JL. Elak, No. 19, Gampang Cot, Keumuneng, Muara Batu, Cot Keumuneng, Lhoksukon, Kabupaten Aceh Utara, Aceh 24313";"No. 19, Gampang Cot, Keumuneng, Muara Batu, Cot Keumuneng, Lhoksukon, Kabupaten Aceh Utara";"ACEH";"24313";"Indonesia";" 085206677555";"5.22504";"96.977052";"https://maps.google.com/?cid=0x0:0xd2adf3d431c99a74"
"building materials";"building materials";"Aceh 24188";"Hutan (Bandar Dua), Kec. Bandar Dua, Kabupaten Pidie Jaya, Aceh";"Kabupaten Pidie Jaya, Aceh";"ACEH";"";"Indonesia";"";"5.119276";"96.1155932";"https://maps.google.com/?cid=0x0:0xb55f6220579e0177"
"building materials";"Toko Perlengkapan Rumah";"TB AFKA JAYA";"Gampong Ulee Gle, Kec. Bandar Dua, Kabupaten Pidie Jaya, Aceh";"Kabupaten Pidie Jaya, Aceh";"ACEH";"";"Indonesia";" 085296969202";"5.2024372";"96.313986";"https://maps.google.com/?cid=0x0:0xb37ba3ae8946fab0"
"building materials";"Toko Bahan Bangunan";"BERKAH SAUDARA";"Meunasah Keude, Kec. Bandar Baru, Kabupaten Pidie Jaya, Aceh 24171";"Kec. Bandar Baru, Kabupaten Pidie Jaya";"ACEH";"24171";"Indonesia";" 082367051036";"5.2557613";"96.0620743";"https://maps.google.com/?cid=0x0:0xc2c062fb24a849f9"
"building materials";"Toko Bahan Bangunan";"SEJAHTERA";"7346+659, Meunasah Keude, Kec. Bandar Baru, Kabupaten Pidie Jaya, Aceh 24171";"Meunasah Keude, Kec. Bandar Baru, Kabupaten Pidie Jaya";"ACEH";"24171";"Indonesia";"";"5.2555436";"96.0603962";"https://maps.google.com/?cid=0x0:0x11e2f091c540041c"
"building materials";"Toko Bahan Bangunan";"Melati";"Jl. Lintas Timur No.1, Hutan (Meureudu), Kec. Meureudu, Kabupaten Pidie Jaya, Aceh 24152";"Hutan (Meureudu), Kec. Meureudu, Kabupaten Pidie Jaya";"ACEH";"24152";"Indonesia";" 085262534449";"4.988346";"96.280718";"https://maps.google.com/?cid=0x0:0xa1e048f68e0a18ee"
"building materials";"Toko Pakaian";"Modis";"58QC+QFC, Jl. Veteran, Ulee Gle, Muko Dayah, Kec. Bandar Dua, Kabupaten Pidie Jaya, Aceh 24162";"Jl. Veteran, Ulee Gle, Muko Dayah, Kec. Bandar Dua, Kabupaten Pidie Jaya";"ACEH";"24162";"Indonesia";" 081360180190";"5.189445";"96.321126";"https://maps.google.com/?cid=0x0:0xb63d32bb2bd1b7e6"
"building materials";"Toko Bahan Bangunan";"TOKO BANGUNAN MULYA JAYA";"Gp, Jl. Medan B. Aceh, Simpang 4 Meureudu, Meunasah Bie, Kec. Meurah Dua, Kabupaten Pidie Jaya, Aceh 24186";"Jl. Medan B. Aceh, Simpang 4 Meureudu, Meunasah Bie, Kec. Meurah Dua, Kabupaten Pidie Jaya";"ACEH";"24186";"Indonesia";" 087773968995";"5.232774";"96.2594669";"https://maps.google.com/?cid=0x0:0xa07a25e4046f9d58"
"building materials";"Toko Bahan Bangunan";"Toko besi dan bangunan bilal jaya";"Nangrhoe Timu, Kec. Ulim, Kabupaten Pidie Jaya, Aceh";"Kabupaten Pidie Jaya, Aceh";"ACEH";"";"Indonesia";" 087773968995";"5.2170553";"96.2948234";"https://maps.google.com/?cid=0x0:0x489e789aabadc9ac"
"building materials";"Toko Bahan Bangunan";"Toko";"Meunasah Keude, Kec. Bandar Baru, Kabupaten Pidie Jaya, Aceh 24171";"Kec. Bandar Baru, Kabupaten Pidie Jaya";"ACEH";"24171";"Indonesia";" 082316157407";"5.2558089";"96.0620884";"https://maps.google.com/?cid=0x0:0x92b4c19f4b378182"
"building materials";"Toko Bahan Bangunan";"Kakti Colection";"Jl. Pasar, No. 58, Meurudu, Hutan (Meureudu), Kec. Meureudu, Kabupaten Pidie Jaya, Aceh 24152";"No. 58, Meurudu, Hutan (Meureudu), Kec. Meureudu, Kabupaten Pidie Jaya";"ACEH";"24152";"Indonesia";" 085277961660";"4.990056";"96.280346";"https://maps.google.com/?cid=0x0:0x337d9a61171d288c"
"building materials";"Toko Bahan Bangunan";"Toko Bangunan Wahyu Kana";"7346+9VQ, Jl. Medan Banda Aceh, Meunasah Keude, Kec. Bandar Baru, Kabupaten Pidie Jaya, Aceh 24184";"Jl. Medan Banda Aceh, Meunasah Keude, Kec. Bandar Baru, Kabupaten Pidie Jaya";"ACEH";"24184";"Indonesia";" 085221885838";"5.2559643";"96.0622409";"https://maps.google.com/?cid=0x0:0x84abd2d8e80fc248"
"building materials";"Pusat Perbelanjaan";"Asia Utama Beureunuen";"Jl. Medan - Banda Aceh, Beureunuen, Blang Lileue, Kec. Mutiara, Kabupaten Pidie, Aceh 24173";"Beureunuen, Blang Lileue, Kec. Mutiara, Kabupaten Pidie";"ACEH";"24173";"Indonesia";" 085270448445";"5.2884393";"95.9717897";"https://maps.google.com/?cid=0x0:0xc070ae80ed4eef5c"
"building materials";"Toko Elektronik";"Toko Karya Melati";"754M+QMV, Jl. Medan Banda Aceh, Raya, Kec. Trienggadeng, Kabupaten Pidie Jaya, Aceh";"Kabupaten Pidie Jaya, Aceh";"ACEH";"";"Indonesia";"";"5.2569754";"96.1841634";"https://maps.google.com/?cid=0x0:0xb8b195d6f9a03925"
"building materials";"Toko Bahan Bangunan";"Toko Bangunan Aleppo";"Mee Pangwa, Kec. Trienggadeng, Kabupaten Pidie Jaya, Aceh";"Kabupaten Pidie Jaya, Aceh";"ACEH";"";"Indonesia";" 081269751447";"5.2469036";"96.2121451";"https://maps.google.com/?cid=0x0:0x14c386f8a4769331"
"building materials";"building materials";"Kec. Jangka Buya";"Kabupaten Pidie Jaya, Aceh";"Kabupaten Pidie Jaya, Aceh";"ACEH";"";"Indonesia";"";"5.2242158";"96.3121613";"https://maps.google.com/?cid=0x0:0xd6fccc30f37acb80"
"building materials";"Toko Bahan Bangunan";"Toko Bangunan Sinar Abadi";"68C8+VX4, Jl. Rel Kereta Api, Keude Jangka Buya, Kec. Jangka Buya, Kabupaten Pidie Jaya, Aceh";"Kabupaten Pidie Jaya, Aceh";"ACEH";"";"Indonesia";"";"5.222146";"96.317438";"https://maps.google.com/?cid=0x0:0x2eaa1b525552d37f"
"building materials";"Toko Bahan Bangunan";"Toko besi dan bangunan bilal jaya";"Nangrhoe Timu, Kec. Ulim, Kabupaten Pidie Jaya, Aceh";"Kabupaten Pidie Jaya, Aceh";"ACEH";"";"Indonesia";" 087773968995";"5.2170553";"96.2948234";"https://maps.google.com/?cid=0x0:0x489e789aabadc9ac"
"building materials";"Minimarket";"THREE PUT";"679Q+X5P, AH25, Nangrhoe Bar., Kec. Ulim, Kabupaten Pidie Jaya, Aceh";"Kabupaten Pidie Jaya, Aceh";"ACEH";"";"Indonesia";" 085360151601";"5.2199672";"96.2879489";"https://maps.google.com/?cid=0x0:0xbdd07f2aed7515c5"
"building materials";"Toko Bahan Bangunan";"Pembuatan bata";"676V+CM3, Nangrhoe Timu, Kec. Ulim, Kabupaten Pidie Jaya, Aceh";"Kabupaten Pidie Jaya, Aceh";"ACEH";"";"Indonesia";" 085294626283";"5.2110092";"96.2941736";"https://maps.google.com/?cid=0x0:0xfeae24ce398508c5"
"building materials";"building materials";"Kec. Meurah Dua";"Kabupaten Pidie Jaya, Aceh";"Kabupaten Pidie Jaya, Aceh";"ACEH";"";"Indonesia";"";"5.2327384";"96.2601989";"https://maps.google.com/?cid=0x0:0x18b794cb75a359ca"
"building materials";"Toko Bahan Bangunan";"TOKO BANGUNAN MULYA JAYA";"Gp, Jl. Medan B. Aceh, Simpang 4 Meureudu, Meunasah Bie, Kec. Meurah Dua, Kabupaten Pidie Jaya, Aceh 24186";"Jl. Medan B. Aceh, Simpang 4 Meureudu, Meunasah Bie, Kec. Meurah Dua, Kabupaten Pidie Jaya";"ACEH";"24186";"Indonesia";" 087773968995";"5.232774";"96.2594669";"https://maps.google.com/?cid=0x0:0xa07a25e4046f9d58"
"building materials";"Toko Bahan Bangunan";"Toko Surya Indah";"67M5+5G5, Meunasah Bie, Kec. Meurah Dua, Kabupaten Pidie Jaya, Aceh";"Kabupaten Pidie Jaya, Aceh";"ACEH";"";"Indonesia";" 085276674462";"5.232871";"96.2589498";"https://maps.google.com/?cid=0x0:0xab7f7f0642b488f5"
"building materials";"Toko Bahan Bangunan";"PUTRA HUSEIN";"7723+RXH, Jl. Iskandar Muda, Beuringen, Kec. Meurah Dua, Kabupaten Pidie Jaya, Aceh";"Kabupaten Pidie Jaya, Aceh";"ACEH";"";"Indonesia";" 082329120744";"5.252069";"96.2549746";"https://maps.google.com/?cid=0x0:0x4e37ce741806bb20"
"building materials";"Toko Bahan Bangunan";"NAIFA BANGUNAN";"66VW+3QM, Meunasah Lhok, Kec. Meureudu, Kabupaten Pidie Jaya, Aceh";"Kabupaten Pidie Jaya, Aceh";"ACEH";"";"Indonesia";" 081269523034";"5.2431493";"96.2470901";"https://maps.google.com/?cid=0x0:0x29b6ee3eb6bc4202"
"building materials";"Toko Bahan Bangunan";"Toko besi dan bangunan bilal jaya";"Nangrhoe Timu, Kec. Ulim, Kabupaten Pidie Jaya, Aceh";"Kabupaten Pidie Jaya, Aceh";"ACEH";"";"Indonesia";" 087773968995";"5.2170553";"96.2948234";"https://maps.google.com/?cid=0x0:0x489e789aabadc9ac"
"building materials";"Minimarket";"THREE PUT";"679Q+X5P, AH25, Nangrhoe Bar., Kec. Ulim, Kabupaten Pidie Jaya, Aceh";"Kabupaten Pidie Jaya, Aceh";"ACEH";"";"Indonesia";" 085360151601";"5.2199672";"96.2879489";"https://maps.google.com/?cid=0x0:0xbdd07f2aed7515c5"
"building materials";"Toko Bahan Bangunan";"TB Mudah Rezeki";"Jl. Rel Kereta Api, Rhieng Blang, Kec. Meureudu, Kabupaten Pidie Jaya, Aceh";"Kabupaten Pidie Jaya, Aceh";"ACEH";"";"Indonesia";" 085261026580";"5.251043";"96.2392657";"https://maps.google.com/?cid=0x0:0x2315124d5e81f0a2"
"building materials";"Toko Bahan Bangunan";"TB. Mitra abadi";"67GM+J9V, Jl. Medan Banda Aceh, Keude Ulim, Kec. Ulim, Kabupaten Pidie Jaya, Aceh";"Kabupaten Pidie Jaya, Aceh";"ACEH";"";"Indonesia";" 082164465822";"5.2266238";"96.283415";"https://maps.google.com/?cid=0x0:0x58ab66dc63bf25a5"
"building materials";"Toko Perlengkapan Rumah";"Medan Keramik";"Jl. Tgk. Syik Pante Geulima, Dayah Timu, Kec. Meureudu, Kabupaten Pidie Jaya, Aceh 24186";"Dayah Timu, Kec. Meureudu, Kabupaten Pidie Jaya";"ACEH";"24186";"Indonesia";" 085275572172";"5.2362328";"96.2469779";"https://maps.google.com/?cid=0x0:0x7f1657fe570a18d1"
"building materials";"Toko Bahan Bangunan";"Pembuatan bata";"676V+CM3, Nangrhoe Timu, Kec. Ulim, Kabupaten Pidie Jaya, Aceh";"Kabupaten Pidie Jaya, Aceh";"ACEH";"";"Indonesia";" 085294626283";"5.2110092";"96.2941736";"https://maps.google.com/?cid=0x0:0xfeae24ce398508c5"
"building materials";"building materials";"Aceh 24186";"Kec. Meureudu, Kabupaten Pidie, Aceh";"Kabupaten Pidie, Aceh";"ACEH";"";"Indonesia";"";"4.9071931";"96.1102943";"https://maps.google.com/?cid=0x0:0xdafdcbfd9953f40d"
"building materials";"Toko Bahan Bangunan";"toko bangunan beuna jaya";"Bangkeh, Kec. Geumpang, Kabupaten Pidie, Aceh 24186";"Kec. Geumpang, Kabupaten Pidie";"ACEH";"24186";"Indonesia";" 083177680118";"4.8474143";"96.1241671";"https://maps.google.com/?cid=0x0:0xae05d3a8c0fbbe19"
"building materials";"Toko Bahan Bangunan";"BERKAH SAUDARA";"Meunasah Keude, Kec. Bandar Baru, Kabupaten Pidie Jaya, Aceh 24171";"Kec. Bandar Baru, Kabupaten Pidie Jaya";"ACEH";"24171";"Indonesia";" 082367051036";"5.2557613";"96.0620743";"https://maps.google.com/?cid=0x0:0xc2c062fb24a849f9"
"building materials";"Toko Bahan Bangunan";"Toko Bangunan Mudah Rezeki";"7XGH+VWJ, Jl. Medan - Banda Aceh, Baro Yaman, Kec. Mutiara, Kabupaten Pidie, Aceh 24186";"Jl. Medan - Banda Aceh, Baro Yaman, Kec. Mutiara, Kabupaten Pidie";"ACEH";"24186";"Indonesia";" 083869600323";"5.2772135";"95.9797531";"https://maps.google.com/?cid=0x0:0x35c5fb47563cbc1d"
"building materials";"Toko Bahan Bangunan";"TOKO BANGUNAN MULYA JAYA";"Gp, Jl. Medan B. Aceh, Simpang 4 Meureudu, Meunasah Bie, Kec. Meurah Dua, Kabupaten Pidie Jaya, Aceh 24186";"Jl. Medan B. Aceh, Simpang 4 Meureudu, Meunasah Bie, Kec. Meurah Dua, Kabupaten Pidie Jaya";"ACEH";"24186";"Indonesia";" 087773968995";"5.232774";"96.2594669";"https://maps.google.com/?cid=0x0:0xa07a25e4046f9d58"
"building materials";"Toko Perlengkapan Rumah";"Mitra Plafon PVC meureudu";"66PW+FQX, Dayah Timu, Kec. Meureudu, Kabupaten Pidie Jaya, Aceh";"Kabupaten Pidie Jaya, Aceh";"ACEH";"";"Indonesia";" 082317258085";"5.2362385";"96.2469701";"https://maps.google.com/?cid=0x0:0x9aa35be37ba1358b"
"building materials";"Toko Bahan Bangunan";"Mudah Utama";"Simpang Bundaran Jl Baru, Blk. Sawah, Kec. Kota Sigli, Kabupaten Pidie, Aceh 24111";"Blk. Sawah, Kec. Kota Sigli, Kabupaten Pidie";"ACEH";"24111";"Indonesia";" 08388827765";"5.3801168";"95.9593483";"https://maps.google.com/?cid=0x0:0xba135d63b6a42e52"
"building materials";"Toko Perlengkapan Rumah";"Toko Bahan Bangunan Indah Warna";"7XQC+X9V, Blang Lileue, Kec. Mutiara, Kabupaten Pidie, Aceh 24151";"Blang Lileue, Kec. Mutiara, Kabupaten Pidie";"ACEH";"24151";"Indonesia";" 087773953144";"5.2896524";"95.970922";"https://maps.google.com/?cid=0x0:0xe5e998d92e92f0ea"
"building materials";"Toko Bahan Bangunan";"Toko SEHATI";"Jl. Tgk. Chik di Tiro No.31 - 33, Mesjid Yaman, Kec. Mutiara, Kabupaten Pidie, Aceh 24173";"Mesjid Yaman, Kec. Mutiara, Kabupaten Pidie";"ACEH";"24173";"Indonesia";" 0653821661";"5.279591";"95.978447";"https://maps.google.com/?cid=0x0:0xadb0768d54ab1a4e"
"building materials";"Toko Bahan Bangunan";"MANDIRI keramic";"7XMG+887, Baroh Bar. Yaman, Kec. Mutiara, Kabupaten Pidie, Aceh 24151";"Baroh Bar. Yaman, Kec. Mutiara, Kabupaten Pidie";"ACEH";"24151";"Indonesia";"";"5.2832817";"95.9756837";"https://maps.google.com/?cid=0x0:0x2ccc73e4c038e00b"
"building materials";"Toko Bahan Bangunan";"SEJAHTERA";"7346+659, Meunasah Keude, Kec. Bandar Baru, Kabupaten Pidie Jaya, Aceh 24171";"Meunasah Keude, Kec. Bandar Baru, Kabupaten Pidie Jaya";"ACEH";"24171";"Indonesia";"";"5.2555436";"96.0603962";"https://maps.google.com/?cid=0x0:0x11e2f091c540041c"
"building materials";"Gudang";"Toko Bina Beuna";"Jl. Pasi lhok, Kembang Tanjung, Aron Asan Kumbang, Kec. Kembang Tj., Kabupaten Pidie, Aceh 24182";"Kembang Tanjung, Aron Asan Kumbang, Kec. Kembang Tj., Kabupaten Pidie";"ACEH";"24182";"Indonesia";" 081377444563";"5.3051003";"96.0155452";"https://maps.google.com/?cid=0x0:0x210cb29d4d489af7"
"building materials";"Toko Perlengkapan Rumah";"Medan Keramik";"Jl. Tgk. Syik Pante Geulima, Dayah Timu, Kec. Meureudu, Kabupaten Pidie Jaya, Aceh 24186";"Dayah Timu, Kec. Meureudu, Kabupaten Pidie Jaya";"ACEH";"24186";"Indonesia";" 085275572172";"5.2362328";"96.2469779";"https://maps.google.com/?cid=0x0:0x7f1657fe570a18d1"
"building materials";"Toko Bahan Bangunan";"NAIFA BANGUNAN";"66VW+3QM, Meunasah Lhok, Kec. Meureudu, Kabupaten Pidie Jaya, Aceh";"Kabupaten Pidie Jaya, Aceh";"ACEH";"";"Indonesia";" 081269523034";"5.2431493";"96.2470901";"https://maps.google.com/?cid=0x0:0x29b6ee3eb6bc4202"
"building materials";"building materials";"Kec. Panteraja";"Kabupaten Pidie Jaya, Aceh";"Kabupaten Pidie Jaya, Aceh";"ACEH";"";"Indonesia";"";"5.2718147";"96.1449859";"https://maps.google.com/?cid=0x0:0x316e7cb7d66a0d00"
"building materials";"Grosir";"UD Irhca";"Reudeup, Kec. Panteraja, Kabupaten Pidie Jaya, Aceh 24185";"Kec. Panteraja, Kabupaten Pidie Jaya";"ACEH";"24185";"Indonesia";" 081377271193";"5.2628266";"96.16463";"https://maps.google.com/?cid=0x0:0xb07d6413513aede1"
"building materials";"Toko Elektronik";"Toko Karya Melati";"754M+QMV, Jl. Medan Banda Aceh, Raya, Kec. Trienggadeng, Kabupaten Pidie Jaya, Aceh";"Kabupaten Pidie Jaya, Aceh";"ACEH";"";"Indonesia";"";"5.2569754";"96.1841634";"https://maps.google.com/?cid=0x0:0xb8b195d6f9a03925"
"building materials";"Toko Bahan Bangunan";"Toko Bangunan Aleppo";"Mee Pangwa, Kec. Trienggadeng, Kabupaten Pidie Jaya, Aceh";"Kabupaten Pidie Jaya, Aceh";"ACEH";"";"Indonesia";" 081269751447";"5.2469036";"96.2121451";"https://maps.google.com/?cid=0x0:0x14c386f8a4769331"
"building materials";"building materials";"Kec. Trienggadeng";"Kabupaten Pidie Jaya, Aceh";"Kabupaten Pidie Jaya, Aceh";"ACEH";"";"Indonesia";"";"5.259028";"96.1834886";"https://maps.google.com/?cid=0x0:0x47f2879d2ad38e99"
"building materials";"Toko Elektronik";"Toko Karya Melati";"754M+QMV, Jl. Medan Banda Aceh, Raya, Kec. Trienggadeng, Kabupaten Pidie Jaya, Aceh";"Kabupaten Pidie Jaya, Aceh";"ACEH";"";"Indonesia";"";"5.2569754";"96.1841634";"https://maps.google.com/?cid=0x0:0xb8b195d6f9a03925"
"building materials";"Toko Bahan Bangunan";"Toko Bangunan sinar Indah";"754M+RMQ depan Masjid Islamic Center At-Taqarrub, Jl. Medan - Banda Aceh, Raya, Kec. Trienggadeng, Kabupaten Pidie Jaya, Aceh";"Kabupaten Pidie Jaya, Aceh";"ACEH";"";"Indonesia";" 083869600323";"5.2570824";"96.1842205";"https://maps.google.com/?cid=0x0:0x6704e686e67381bf"
"building materials";"Toko Bahan Bangunan";"TB Mudah Rezeki";"Jl. Rel Kereta Api, Rhieng Blang, Kec. Meureudu, Kabupaten Pidie Jaya, Aceh";"Kabupaten Pidie Jaya, Aceh";"ACEH";"";"Indonesia";" 085261026580";"5.251043";"96.2392657";"https://maps.google.com/?cid=0x0:0x2315124d5e81f0a2"
"building materials";"Toko Perlengkapan Rumah";"Mitra Plafon PVC meureudu";"66PW+FQX, Dayah Timu, Kec. Meureudu, Kabupaten Pidie Jaya, Aceh";"Kabupaten Pidie Jaya, Aceh";"ACEH";"";"Indonesia";" 082317258085";"5.2362385";"96.2469701";"https://maps.google.com/?cid=0x0:0x9aa35be37ba1358b"
"building materials";"Toko Bahan Bangunan";"Toko Besi Putra Dayah";"762M+J2H, Jl. Rel Kereta Api, Deah Pangwa, Kec. Trienggadeng, Kabupaten Pidie Jaya, Aceh";"Kabupaten Pidie Jaya, Aceh";"ACEH";"";"Indonesia";" 085371585066";"5.2515522";"96.2325998";"https://maps.google.com/?cid=0x0:0x3ab5bda44630b35a"
"building materials";"Grosir";"UD Irhca";"Reudeup, Kec. Panteraja, Kabupaten Pidie Jaya, Aceh 24185";"Kec. Panteraja, Kabupaten Pidie Jaya";"ACEH";"24185";"Indonesia";" 081377271193";"5.2628266";"96.16463";"https://maps.google.com/?cid=0x0:0xb07d6413513aede1"
"building materials";"Toko Bahan Bangunan";"TOKO BANGUNAN MULYA JAYA";"Gp, Jl. Medan B. Aceh, Simpang 4 Meureudu, Meunasah Bie, Kec. Meurah Dua, Kabupaten Pidie Jaya, Aceh 24186";"Jl. Medan B. Aceh, Simpang 4 Meureudu, Meunasah Bie, Kec. Meurah Dua, Kabupaten Pidie Jaya";"ACEH";"24186";"Indonesia";" 087773968995";"5.232774";"96.2594669";"https://maps.google.com/?cid=0x0:0xa07a25e4046f9d58"
"building materials";"Toko Bahan Bangunan";"PUTRA HUSEIN";"7723+RXH, Jl. Iskandar Muda, Beuringen, Kec. Meurah Dua, Kabupaten Pidie Jaya, Aceh";"Kabupaten Pidie Jaya, Aceh";"ACEH";"";"Indonesia";" 082329120744";"5.252069";"96.2549746";"https://maps.google.com/?cid=0x0:0x4e37ce741806bb20"
"building materials";"Toko Bahan Bangunan";"NAIFA BANGUNAN";"66VW+3QM, Meunasah Lhok, Kec. Meureudu, Kabupaten Pidie Jaya, Aceh";"Kabupaten Pidie Jaya, Aceh";"ACEH";"";"Indonesia";" 081269523034";"5.2431493";"96.2470901";"https://maps.google.com/?cid=0x0:0x29b6ee3eb6bc4202"
"building materials";"Toko Bahan Bangunan";"Mudah Utama";"Simpang Bundaran Jl Baru, Blk. Sawah, Kec. Kota Sigli, Kabupaten Pidie, Aceh 24111";"Blk. Sawah, Kec. Kota Sigli, Kabupaten Pidie";"ACEH";"24111";"Indonesia";" 08388827765";"5.3801168";"95.9593483";"https://maps.google.com/?cid=0x0:0xba135d63b6a42e52"
"building materials";"Toko Perlengkapan Rumah";"Medan Keramik";"Jl. Tgk. Syik Pante Geulima, Dayah Timu, Kec. Meureudu, Kabupaten Pidie Jaya, Aceh 24186";"Dayah Timu, Kec. Meureudu, Kabupaten Pidie Jaya";"ACEH";"24186";"Indonesia";" 085275572172";"5.2362328";"96.2469779";"https://maps.google.com/?cid=0x0:0x7f1657fe570a18d1"
"building materials";"Toko Bahan Bangunan";"Toko Surya Indah";"67M5+5G5, Meunasah Bie, Kec. Meurah Dua, Kabupaten Pidie Jaya, Aceh";"Kabupaten Pidie Jaya, Aceh";"ACEH";"";"Indonesia";" 085276674462";"5.232871";"96.2589498";"https://maps.google.com/?cid=0x0:0xab7f7f0642b488f5"
"building materials";"Toko Bahan Bangunan";"Semangat Baru";"6VMQ+MHW, Jijiem, Kec. Keumala, Kabupaten Pidie, Aceh 24187";"Jijiem, Kec. Keumala, Kabupaten Pidie";"ACEH";"24187";"Indonesia";" 082317688769";"5.2342481";"95.8889515";"https://maps.google.com/?cid=0x0:0xc3a6d4ee529abfec"
"building materials";"Toko Perlengkapan Rumah";"Usaha Jaya";"7W2V+G57, Ps. Kota Bakti, Kec. Sakti, Kabupaten Pidie, Aceh 24181";"Ps. Kota Bakti, Kec. Sakti, Kabupaten Pidie";"ACEH";"24181";"Indonesia";"";"5.251282";"95.9429116";"https://maps.google.com/?cid=0x0:0x97fd72d25f43056"
"building materials";"Toko Bahan Bangunan";"TB. Mitra abadi";"67GM+J9V, Jl. Medan Banda Aceh, Keude Ulim, Kec. Ulim, Kabupaten Pidie Jaya, Aceh";"Kabupaten Pidie Jaya, Aceh";"ACEH";"";"Indonesia";" 082164465822";"5.2266238";"96.283415";"https://maps.google.com/?cid=0x0:0x58ab66dc63bf25a5"
"building materials";"Toko Bahan Bangunan";"Toko besi dan bangunan bilal jaya";"Nangrhoe Timu, Kec. Ulim, Kabupaten Pidie Jaya, Aceh";"Kabupaten Pidie Jaya, Aceh";"ACEH";"";"Indonesia";" 087773968995";"5.2170553";"96.2948234";"https://maps.google.com/?cid=0x0:0x489e789aabadc9ac"
"building materials";"building materials";"Kec. Ulim";"Kabupaten Pidie Jaya, Aceh";"Kabupaten Pidie Jaya, Aceh";"ACEH";"";"Indonesia";"";"5.2265932";"96.2837548";"https://maps.google.com/?cid=0x0:0x29b2fedc75191114"
"building materials";"Minimarket";"THREE PUT";"679Q+X5P, AH25, Nangrhoe Bar., Kec. Ulim, Kabupaten Pidie Jaya, Aceh";"Kabupaten Pidie Jaya, Aceh";"ACEH";"";"Indonesia";" 085360151601";"5.2199672";"96.2879489";"https://maps.google.com/?cid=0x0:0xbdd07f2aed7515c5"
"building materials";"Toko Bahan Bangunan";"TOKO BANGUNAN MULYA JAYA";"Gp, Jl. Medan B. Aceh, Simpang 4 Meureudu, Meunasah Bie, Kec. Meurah Dua, Kabupaten Pidie Jaya, Aceh 24186";"Jl. Medan B. Aceh, Simpang 4 Meureudu, Meunasah Bie, Kec. Meurah Dua, Kabupaten Pidie Jaya";"ACEH";"24186";"Indonesia";" 087773968995";"5.232774";"96.2594669";"https://maps.google.com/?cid=0x0:0xa07a25e4046f9d58"
"building materials";"Toko Perlengkapan Rumah";"TB AFKA JAYA";"Gampong Ulee Gle, Kec. Bandar Dua, Kabupaten Pidie Jaya, Aceh";"Kabupaten Pidie Jaya, Aceh";"ACEH";"";"Indonesia";" 085296969202";"5.2024372";"96.313986";"https://maps.google.com/?cid=0x0:0xb37ba3ae8946fab0"
"building materials";"Toko Bahan Bangunan";"Toko Bangunan Sinar Abadi";"68C8+VX4, Jl. Rel Kereta Api, Keude Jangka Buya, Kec. Jangka Buya, Kabupaten Pidie Jaya, Aceh";"Kabupaten Pidie Jaya, Aceh";"ACEH";"";"Indonesia";"";"5.222146";"96.317438";"https://maps.google.com/?cid=0x0:0x2eaa1b525552d37f"
"building materials";"Toko Bahan Bangunan";"Pembuatan bata";"676V+CM3, Nangrhoe Timu, Kec. Ulim, Kabupaten Pidie Jaya, Aceh";"Kabupaten Pidie Jaya, Aceh";"ACEH";"";"Indonesia";" 085294626283";"5.2110092";"96.2941736";"https://maps.google.com/?cid=0x0:0xfeae24ce398508c5"
"building materials";"Toko Bahan Bangunan";"Toko Surya Indah";"67M5+5G5, Meunasah Bie, Kec. Meurah Dua, Kabupaten Pidie Jaya, Aceh";"Kabupaten Pidie Jaya, Aceh";"ACEH";"";"Indonesia";" 085276674462";"5.232871";"96.2589498";"https://maps.google.com/?cid=0x0:0xab7f7f0642b488f5"
"building materials";"Toko Bahan Bangunan";"PUTRA HUSEIN";"7723+RXH, Jl. Iskandar Muda, Beuringen, Kec. Meurah Dua, Kabupaten Pidie Jaya, Aceh";"Kabupaten Pidie Jaya, Aceh";"ACEH";"";"Indonesia";" 082329120744";"5.252069";"96.2549746";"https://maps.google.com/?cid=0x0:0x4e37ce741806bb20"
"building materials";"Toko Perlengkapan Rumah";"Mitra Plafon PVC meureudu";"66PW+FQX, Dayah Timu, Kec. Meureudu, Kabupaten Pidie Jaya, Aceh";"Kabupaten Pidie Jaya, Aceh";"ACEH";"";"Indonesia";" 082317258085";"5.2362385";"96.2469701";"https://maps.google.com/?cid=0x0:0x9aa35be37ba1358b"
"building materials";"Toko Bahan Bangunan";"NAIFA BANGUNAN";"66VW+3QM, Meunasah Lhok, Kec. Meureudu, Kabupaten Pidie Jaya, Aceh";"Kabupaten Pidie Jaya, Aceh";"ACEH";"";"Indonesia";" 081269523034";"5.2431493";"96.2470901";"https://maps.google.com/?cid=0x0:0x29b6ee3eb6bc4202"
"hardware store";"hardware store";"JAYA BARU";"Jl. Medan - Banda Aceh, Mesjid Runtoh, Kec. Pidie, Kabupaten Pidie, Aceh 24164";"Mesjid Runtoh, Kec. Pidie, Kabupaten Pidie";"ACEH";"24164";"Indonesia";"";"5.3554292";"95.9618097";"https://maps.google.com/?cid=0x0:0x9dc7df5fa793136c"
"hardware store";"hardware store";"Aceh 24184";"Kabupaten Aceh Utara, Aceh";"Kabupaten Aceh Utara, Aceh";"ACEH";"";"Indonesia";"";"5.1373361";"96.8887202";"https://maps.google.com/?cid=0x0:0x9968bf9e9ed3fc5b"
"hardware store";"Toko Bahan Bangunan";"One HARDWARE";"Jl. Moh. Jam No.99, Kp. Baru, Kec. Baiturrahman, Kota Banda Aceh, Aceh 23242";"Kp. Baru, Kec. Baiturrahman, Kota Banda Aceh";"ACEH";"23242";"Indonesia";" 085167599087";"5.5533946";"95.3143585";"https://maps.google.com/?cid=0x0:0x96558df6ca96ec5a"
"hardware store";"Toko Bahan Bangunan";"Kampung Baru Hardware Sdn Bhd";"49, Jalan Raja Muda Abdul Aziz, Chow Kit, 50300 Kuala Lumpur, Wilayah Persekutuan Kuala Lumpur, Malaysia";"Kuala Lumpur";"ACEH";"50300";"Indonesia";" +60326977988";"3.1677741";"101.7008644";"https://maps.google.com/?cid=0x0:0xafedbc111aa9c4d4"
"hardware store";"hardware store";"Aceh 24188";"Hutan (Bandar Dua), Kec. Bandar Dua, Kabupaten Pidie Jaya, Aceh";"Kabupaten Pidie Jaya, Aceh";"ACEH";"";"Indonesia";"";"5.119276";"96.1155932";"https://maps.google.com/?cid=0x0:0xb55f6220579e0177"
"hardware store";"Toko Perlengkapan Rumah";"TB AFKA JAYA";"Gampong Ulee Gle, Kec. Bandar Dua, Kabupaten Pidie Jaya, Aceh";"Kabupaten Pidie Jaya, Aceh";"ACEH";"";"Indonesia";" 085296969202";"5.2024372";"96.313986";"https://maps.google.com/?cid=0x0:0xb37ba3ae8946fab0"
"hardware store";"Toko Bahan Bangunan";"FAJAR INDAH";"Unnamed Road, Blang Pulo, Kec. Muara Satu, Kota Lhokseumawe, Aceh";"Kota Lhokseumawe, Aceh";"ACEH";"";"Indonesia";" 083821475758";"5.2111613";"97.0677421";"https://maps.google.com/?cid=0x0:0xa270d1544808bcbf"
"hardware store";"Kedai Kopi";"Sabat Nabat";"Alue Papeun, Kec. Nisam Antara, Kabupaten Aceh Utara, Aceh 24385";"Kec. Nisam Antara, Kabupaten Aceh Utara";"ACEH";"24385";"Indonesia";" 082214918388";"5.0799737";"96.9870817";"https://maps.google.com/?cid=0x0:0x44043bf3ec38635e"
"hardware store";"Toko Elektronik";"Aneka Elektro";"Jl. Medan - Banda Aceh No.3, Keude Ulee Gle, Kec. Bandar Dua, Kabupaten Pidie Jaya, Aceh 24188";"Keude Ulee Gle, Kec. Bandar Dua, Kabupaten Pidie Jaya";"ACEH";"24188";"Indonesia";" 085229453582";"5.1972346";"96.320357";"https://maps.google.com/?cid=0x0:0xcb6e0c3e864088b4"
"hardware store";"Toko Elektronik";"Medan Elektronik  Medan Meubel";"Jln Medan Banda Aceh Gampong Blang Glong, Simpang Poroh, Mns Blang Glong, Kec. Bandar Baru, Kabupaten Pidie Jaya, Aceh 24184";"Simpang Poroh, Mns Blang Glong, Kec. Bandar Baru, Kabupaten Pidie Jaya";"ACEH";"24184";"Indonesia";" 081374134491";"5.2570299";"96.0744294";"https://maps.google.com/?cid=0x0:0xdd0aada93fffe49c"
"hardware store";"Pusat Perbelanjaan";"Asia Utama Beureunuen";"Jl. Medan - Banda Aceh, Beureunuen, Blang Lileue, Kec. Mutiara, Kabupaten Pidie, Aceh 24173";"Beureunuen, Blang Lileue, Kec. Mutiara, Kabupaten Pidie";"ACEH";"24173";"Indonesia";" 085270448445";"5.2884393";"95.9717897";"https://maps.google.com/?cid=0x0:0xc070ae80ed4eef5c"
"hardware store";"Toko Bahan Bangunan";"Andalas jaya";"Jl. Medan - Banda Aceh, Cot Seurani, Krueng mane, Kabupaten Aceh Utara, Aceh 24355";"Cot Seurani, Krueng mane, Kabupaten Aceh Utara";"ACEH";"24355";"Indonesia";" 085697225016";"5.246745";"96.9225606";"https://maps.google.com/?cid=0x0:0xa55684a2d9f4f898"
"hardware store";"Toko Perlengkapan Rumah";"Toko bangunan pacific baru";"62Q4+HH4, Jl. PT. KKA, Paloh Lada, Kec. Dewantara, Kabupaten Aceh Utara, Aceh";"Kabupaten Aceh Utara, Aceh";"ACEH";"";"Indonesia";" 083869600323";"5.23888";"97.00644";"https://maps.google.com/?cid=0x0:0x7f761c0e1a87072"
"hardware store";"Toko Bahan Bangunan";"Toko Bangunan Aleppo";"Mee Pangwa, Kec. Trienggadeng, Kabupaten Pidie Jaya, Aceh";"Kabupaten Pidie Jaya, Aceh";"ACEH";"";"Indonesia";" 081269751447";"5.2469036";"96.2121451";"https://maps.google.com/?cid=0x0:0x14c386f8a4769331"
"hardware store";"Toko Perlengkapan Rumah";"MR.DIY";"Ruko, Jl. Medan Banda Aceh, Beurawang, Kec. Meureudu, Kabupaten Pidie Jaya, Aceh 24186";"Jl. Medan Banda Aceh, Beurawang, Kec. Meureudu, Kabupaten Pidie Jaya";"ACEH";"24186";"Indonesia";"";"5.2344528";"96.2473563";"https://maps.google.com/?cid=0x0:0x62561f5d08bec2da"
"hardware store";"Toko Bahan Bangunan";"TB. AlBarakah Jaya";"Blang Karieng, Kec. Nisam, Kabupaten Aceh Utara, Aceh 43746";"Kec. Nisam, Kabupaten Aceh Utara";"ACEH";"43746";"Indonesia";" 083869600323";"5.1948256";"97.0130554";"https://maps.google.com/?cid=0x0:0xa27445e45d59f7d3"
"hardware store";"Toko Elektronik";"YOERI CELL";"ULEEGLE, Gampong Ulee Gle, Kec. Bandar Dua, Kabupaten Pidie Jaya, Aceh 24152";"Gampong Ulee Gle, Kec. Bandar Dua, Kabupaten Pidie Jaya";"ACEH";"24152";"Indonesia";" 082360000223";"5.1968732";"96.3228721";"https://maps.google.com/?cid=0x0:0x924aaa697d664584"
"hardware store";"Lembaga Swadaya Masyarakat (LSM)";"Amel jaya olshop";"66MW+XQP, Jl. Medan Banda Aceh, Beurawang, Kec. Meureudu, Kabupaten Pidie Jaya, Aceh";"Kabupaten Pidie Jaya, Aceh";"ACEH";"";"Indonesia";"";"5.2349664";"96.2469533";"https://maps.google.com/?cid=0x0:0x5bf82fd8b27a7d30"
"hardware store";"Toko Perlengkapan Rumah";"TB AFKA JAYA";"Gampong Ulee Gle, Kec. Bandar Dua, Kabupaten Pidie Jaya, Aceh";"Kabupaten Pidie Jaya, Aceh";"ACEH";"";"Indonesia";" 085296969202";"5.2024372";"96.313986";"https://maps.google.com/?cid=0x0:0xb37ba3ae8946fab0"
"hardware store";"Toko";"Afifah Jaya";"58VF+87F, Muko Dayah, Kec. Bandar Dua, Kabupaten Pidie Jaya, Aceh 24162";"Muko Dayah, Kec. Bandar Dua, Kabupaten Pidie Jaya";"ACEH";"24162";"Indonesia";" 085388323893";"5.1933215";"96.3231769";"https://maps.google.com/?cid=0x0:0x721a2950ecd884e0"
"hardware store";"hardware store";"Kec. Meurah Dua";"Kabupaten Pidie Jaya, Aceh";"Kabupaten Pidie Jaya, Aceh";"ACEH";"";"Indonesia";"";"5.2327384";"96.2601989";"https://maps.google.com/?cid=0x0:0x18b794cb75a359ca"
"hardware store";"Toko Perlengkapan Rumah";"MR.DIY";"Ruko, Jl. Medan Banda Aceh, Beurawang, Kec. Meureudu, Kabupaten Pidie Jaya, Aceh 24186";"Jl. Medan Banda Aceh, Beurawang, Kec. Meureudu, Kabupaten Pidie Jaya";"ACEH";"24186";"Indonesia";"";"5.2344528";"96.2473563";"https://maps.google.com/?cid=0x0:0x62561f5d08bec2da"
"hardware store";"Toko Perlengkapan Rumah";"Mustika Shop";"67HF+3HR, Lorong Sekata Gampong, Dayah Baroh, Kec. Ulim, Kabupaten Pidie Jaya, Aceh";"Kabupaten Pidie Jaya, Aceh";"ACEH";"";"Indonesia";" 085260088088";"5.2277325";"96.2738887";"https://maps.google.com/?cid=0x0:0x66648c84bc066263"
"hardware store";"Toko Bahan Bangunan";"TB Mudah Rezeki";"Jl. Rel Kereta Api, Rhieng Blang, Kec. Meureudu, Kabupaten Pidie Jaya, Aceh";"Kabupaten Pidie Jaya, Aceh";"ACEH";"";"Indonesia";" 085261026580";"5.251043";"96.2392657";"https://maps.google.com/?cid=0x0:0x2315124d5e81f0a2"
"hardware store";"Lembaga Swadaya Masyarakat (LSM)";"Amel jaya olshop";"66MW+XQP, Jl. Medan Banda Aceh, Beurawang, Kec. Meureudu, Kabupaten Pidie Jaya, Aceh";"Kabupaten Pidie Jaya, Aceh";"ACEH";"";"Indonesia";"";"5.2349664";"96.2469533";"https://maps.google.com/?cid=0x0:0x5bf82fd8b27a7d30"
"hardware store";"Toko Perlengkapan Rumah";"Toko Perabot Pidie Jaya 2";"66MW+V9H, Dayah Timu, Kec. Meureudu, Kabupaten Pidie Jaya, Aceh";"Kabupaten Pidie Jaya, Aceh";"ACEH";"";"Indonesia";"";"5.2346817";"96.2459847";"https://maps.google.com/?cid=0x0:0xd10412303be76a63"
"hardware store";"Toko Elektronik";"Toko Jakarta Elektronik 2 Meureudu";"66PV+4XM, Jl. Lintas Sumatra, Dayah Timu, Kec. Meureudu, Kabupaten Pidie Jaya, Aceh";"Kabupaten Pidie Jaya, Aceh";"ACEH";"";"Indonesia";" 083129623921";"5.2353373";"96.244922";"https://maps.google.com/?cid=0x0:0xff67d77dd1cb5073"
"hardware store";"Toko Elektronik";"JUMPA ELEKTRONIK";"67M5+3W8, Meunasah Bie, Kec. Meurah Dua, Kabupaten Pidie Jaya, Aceh";"Kabupaten Pidie Jaya, Aceh";"ACEH";"";"Indonesia";" 082360066066";"5.2326735";"96.2598178";"https://maps.google.com/?cid=0x0:0xdd8178d56e8281f2"
"hardware store";"Toko Elektronik";"BINA ELEKTRONIK";"7724+X44, Pante Beureune, Kec. Meurah Dua, Kabupaten Pidie Jaya, Aceh";"Kabupaten Pidie Jaya, Aceh";"ACEH";"";"Indonesia";" 085260605959";"5.2523798";"96.2553333";"https://maps.google.com/?cid=0x0:0x443c9957696caff9"
"hardware store";"hardware store";"Aceh 24186";"Kec. Meureudu, Kabupaten Pidie, Aceh";"Kabupaten Pidie, Aceh";"ACEH";"";"Indonesia";"";"4.9071931";"96.1102943";"https://maps.google.com/?cid=0x0:0xdafdcbfd9953f40d"
"hardware store";"Toko Perlengkapan Rumah";"MR.DIY";"Ruko, Jl. Medan Banda Aceh, Beurawang, Kec. Meureudu, Kabupaten Pidie Jaya, Aceh 24186";"Jl. Medan Banda Aceh, Beurawang, Kec. Meureudu, Kabupaten Pidie Jaya";"ACEH";"24186";"Indonesia";"";"5.2344528";"96.2473563";"https://maps.google.com/?cid=0x0:0x62561f5d08bec2da"
"hardware store";"Pusat Perbelanjaan";"Asia Utama Beureunuen";"Jl. Medan - Banda Aceh, Beureunuen, Blang Lileue, Kec. Mutiara, Kabupaten Pidie, Aceh 24173";"Beureunuen, Blang Lileue, Kec. Mutiara, Kabupaten Pidie";"ACEH";"24173";"Indonesia";" 085270448445";"5.2884393";"95.9717897";"https://maps.google.com/?cid=0x0:0xc070ae80ed4eef5c"
"hardware store";"Toko Bahan Bangunan";"Toko SEHATI";"Jl. Tgk. Chik di Tiro No.31 - 33, Mesjid Yaman, Kec. Mutiara, Kabupaten Pidie, Aceh 24173";"Mesjid Yaman, Kec. Mutiara, Kabupaten Pidie";"ACEH";"24173";"Indonesia";" 0653821661";"5.279591";"95.978447";"https://maps.google.com/?cid=0x0:0xadb0768d54ab1a4e"
"hardware store";"Pusat Perbelanjaan";"MR.DIY";"Jl. Medan Banda Aceh, Mee Tanjong Usi, Kec. Mutiara Tim., Kabupaten Pidie, Aceh 24161";"Mee Tanjong Usi, Kec. Mutiara Tim., Kabupaten Pidie";"ACEH";"24161";"Indonesia";"";"5.26485";"95.9895404";"https://maps.google.com/?cid=0x0:0x79a898e3c71870cf"
"hardware store";"Toko Perlengkapan Rumah";"Medan Keramik";"Jl. Tgk. Syik Pante Geulima, Dayah Timu, Kec. Meureudu, Kabupaten Pidie Jaya, Aceh 24186";"Dayah Timu, Kec. Meureudu, Kabupaten Pidie Jaya";"ACEH";"24186";"Indonesia";" 085275572172";"5.2362328";"96.2469779";"https://maps.google.com/?cid=0x0:0x7f1657fe570a18d1"
"hardware store";"Toko Gorden";"Zuhry Gordyn";"7XJG+6X5, Mesjid Yaman, Kec. Mutiara, Kabupaten Pidie, Aceh 24151";"Mesjid Yaman, Kec. Mutiara, Kabupaten Pidie";"ACEH";"24151";"Indonesia";" 081360591701";"5.2805016";"95.9774704";"https://maps.google.com/?cid=0x0:0xf78302a5b8d89212"
"hardware store";"Grosir";"CV UTHYA SAMARA";"Baroh Bar. Yaman, Kec. Mutiara, Kabupaten Pidie, Aceh 24151";"Kec. Mutiara, Kabupaten Pidie";"ACEH";"24151";"Indonesia";" 082370727205";"5.2813189";"95.9764398";"https://maps.google.com/?cid=0x0:0xd58c561a6c981d58"
"hardware store";"Toko Bahan Bangunan";"Multazam Hardware Store";"6P38+9V7, Geulanggang Teungoh, Kec. Kota Juang, Kabupaten Bireuen, Aceh";"Kabupaten Bireuen, Aceh";"ACEH";"";"Indonesia";" 0818405644";"5.2034125";"96.7171719";"https://maps.google.com/?cid=0x0:0x618162c733c0f905"
"hardware store";"Toko Bahan Bangunan";"Baro murni";"Baro Yaman, Beureunuen, Kabupaten Pidie, Aceh 24175";"Beureunuen, Kabupaten Pidie";"ACEH";"24175";"Indonesia";" 089608114074";"5.2760737";"95.9797295";"https://maps.google.com/?cid=0x0:0x3550c0840cb4f417"
"hardware store";"Lembaga Swadaya Masyarakat (LSM)";"Amel jaya olshop";"66MW+XQP, Jl. Medan Banda Aceh, Beurawang, Kec. Meureudu, Kabupaten Pidie Jaya, Aceh";"Kabupaten Pidie Jaya, Aceh";"ACEH";"";"Indonesia";"";"5.2349664";"96.2469533";"https://maps.google.com/?cid=0x0:0x5bf82fd8b27a7d30"
"hardware store";"Toko Elektronik";"Medan Elektronik  Medan Meubel";"Jln Medan Banda Aceh Gampong Blang Glong, Simpang Poroh, Mns Blang Glong, Kec. Bandar Baru, Kabupaten Pidie Jaya, Aceh 24184";"Simpang Poroh, Mns Blang Glong, Kec. Bandar Baru, Kabupaten Pidie Jaya";"ACEH";"24184";"Indonesia";" 081374134491";"5.2570299";"96.0744294";"https://maps.google.com/?cid=0x0:0xdd0aada93fffe49c"
"hardware store";"Toko Bahan Bangunan";"Mr. DIY Sigli";"Jl. Profesor Abdul Majid Ibrahim No.3, Gampong Asan, Kec. Kota Sigli, Kabupaten Pidie, Aceh 24112";"Gampong Asan, Kec. Kota Sigli, Kabupaten Pidie";"ACEH";"24112";"Indonesia";" 02130022789";"5.3745476";"95.9580955";"https://maps.google.com/?cid=0x0:0x48600031c59c9300"
"hardware store";"Toko Perlengkapan Rumah";"Toko Bahan Bangunan Indah Warna";"7XQC+X9V, Blang Lileue, Kec. Mutiara, Kabupaten Pidie, Aceh 24151";"Blang Lileue, Kec. Mutiara, Kabupaten Pidie";"ACEH";"24151";"Indonesia";" 087773953144";"5.2896524";"95.970922";"https://maps.google.com/?cid=0x0:0xe5e998d92e92f0ea"
"hardware store";"hardware store";"Kec. Panteraja";"Kabupaten Pidie Jaya, Aceh";"Kabupaten Pidie Jaya, Aceh";"ACEH";"";"Indonesia";"";"5.2718147";"96.1449859";"https://maps.google.com/?cid=0x0:0x316e7cb7d66a0d00"
"hardware store";"Toko Alat Tulis Kantor";"Toko Sabang fotocopy";"755M+2M4, Jl Banda Aceh, Keude Trienggadeng Jaya, Raya, Kec. Trienggadeng, Kabupaten Pidie, Aceh";"Kabupaten Pidie, Aceh";"ACEH";"";"Indonesia";"";"5.2575237";"96.1841943";"https://maps.google.com/?cid=0x0:0xdfa0a89dd6542ac7"
"hardware store";"Toko Alat Tulis Kantor";"Gemilang Fotocopy";"Keude, Kec. Trienggadeng, Kabupaten Pidie Jaya, Aceh";"Kabupaten Pidie Jaya, Aceh";"ACEH";"";"Indonesia";" 081360119986";"5.2587116";"96.1837088";"https://maps.google.com/?cid=0x0:0x644ab0ea931e9072"
"hardware store";"hardware store";"Kec. Trienggadeng";"Kabupaten Pidie Jaya, Aceh";"Kabupaten Pidie Jaya, Aceh";"ACEH";"";"Indonesia";"";"5.259028";"96.1834886";"https://maps.google.com/?cid=0x0:0x47f2879d2ad38e99"
"hardware store";"Toko Bahan Bangunan";"Toko Bangunan Aleppo";"Mee Pangwa, Kec. Trienggadeng, Kabupaten Pidie Jaya, Aceh";"Kabupaten Pidie Jaya, Aceh";"ACEH";"";"Indonesia";" 081269751447";"5.2469036";"96.2121451";"https://maps.google.com/?cid=0x0:0x14c386f8a4769331"
"hardware store";"Toko Perlengkapan Rumah";"Sinar Jepara";"Tueng Kluet, Kec. Trienggadeng, Kabupaten Pidie Jaya, Aceh";"Kabupaten Pidie Jaya, Aceh";"ACEH";"";"Indonesia";" 082366755115";"5.2462731";"96.2045568";"https://maps.google.com/?cid=0x0:0xc70339a3e072fa78"
"hardware store";"Toko Alat Tulis Kantor";"Gemilang Fotocopy";"Keude, Kec. Trienggadeng, Kabupaten Pidie Jaya, Aceh";"Kabupaten Pidie Jaya, Aceh";"ACEH";"";"Indonesia";" 081360119986";"5.2587116";"96.1837088";"https://maps.google.com/?cid=0x0:0x644ab0ea931e9072"
"hardware store";"Lembaga Swadaya Masyarakat (LSM)";"Amel jaya olshop";"66MW+XQP, Jl. Medan Banda Aceh, Beurawang, Kec. Meureudu, Kabupaten Pidie Jaya, Aceh";"Kabupaten Pidie Jaya, Aceh";"ACEH";"";"Indonesia";"";"5.2349664";"96.2469533";"https://maps.google.com/?cid=0x0:0x5bf82fd8b27a7d30"
"hardware store";"Toko Perlengkapan Rumah";"MR.DIY";"Ruko, Jl. Medan Banda Aceh, Beurawang, Kec. Meureudu, Kabupaten Pidie Jaya, Aceh 24186";"Jl. Medan Banda Aceh, Beurawang, Kec. Meureudu, Kabupaten Pidie Jaya";"ACEH";"24186";"Indonesia";"";"5.2344528";"96.2473563";"https://maps.google.com/?cid=0x0:0x62561f5d08bec2da"
"hardware store";"Toko Bahan Bangunan";"TB Mudah Rezeki";"Jl. Rel Kereta Api, Rhieng Blang, Kec. Meureudu, Kabupaten Pidie Jaya, Aceh";"Kabupaten Pidie Jaya, Aceh";"ACEH";"";"Indonesia";" 085261026580";"5.251043";"96.2392657";"https://maps.google.com/?cid=0x0:0x2315124d5e81f0a2"
"hardware store";"Toko Bahan Bangunan";"TB. TALAGO PANGWA";"66RF+R4W, Jl. Medan B. Aceh, Gampong Meucat, Mee Pangwa, Kec. Trienggadeng, Kabupaten Pidie Jaya, Aceh";"Kabupaten Pidie Jaya, Aceh";"ACEH";"";"Indonesia";"";"5.2421181";"96.2228269";"https://maps.google.com/?cid=0x0:0x77f7d474494206bc"
"hardware store";"Toko Perlengkapan Rumah";"Medan Keramik";"Jl. Tgk. Syik Pante Geulima, Dayah Timu, Kec. Meureudu, Kabupaten Pidie Jaya, Aceh 24186";"Dayah Timu, Kec. Meureudu, Kabupaten Pidie Jaya";"ACEH";"24186";"Indonesia";" 085275572172";"5.2362328";"96.2469779";"https://maps.google.com/?cid=0x0:0x7f1657fe570a18d1"
"hardware store";"Apotek";"Sejahtera";"6547+J5Q, Hutan (Trienggadeng), Kec. Trienggadeng, Kabupaten Pidie Jaya, Aceh 23893";"Hutan (Trienggadeng), Kec. Trienggadeng, Kabupaten Pidie Jaya";"ACEH";"23893";"Indonesia";" 081269094239";"5.206589";"96.162995";"https://maps.google.com/?cid=0x0:0xaee879d4e296decf"
"hardware store";"hardware store";"Kec. Ulim";"Kabupaten Pidie Jaya, Aceh";"Kabupaten Pidie Jaya, Aceh";"ACEH";"";"Indonesia";"";"5.2265932";"96.2837548";"https://maps.google.com/?cid=0x0:0x29b2fedc75191114"
"hardware store";"Toko Bahan Bangunan";"Pvcindo One";"Jl. Teuku Umar No.88, Sukaramai, Kec. Baiturrahman, Kota Banda Aceh, Aceh 23116";"Sukaramai, Kec. Baiturrahman, Kota Banda Aceh";"ACEH";"23116";"Indonesia";" 065147248";"5.5435951";"95.3124615";"https://maps.google.com/?cid=0x0:0xce5c39f56118ad09"
"hardware store";"Toko Bahan Bangunan";"One HARDWARE";"Jl. Moh. Jam No.99, Kp. Baru, Kec. Baiturrahman, Kota Banda Aceh, Aceh 23242";"Kp. Baru, Kec. Baiturrahman, Kota Banda Aceh";"ACEH";"23242";"Indonesia";" 085167599087";"5.5533946";"95.3143585";"https://maps.google.com/?cid=0x0:0x96558df6ca96ec5a"
"hardware store";"Lembaga Swadaya Masyarakat (LSM)";"Amel jaya olshop";"66MW+XQP, Jl. Medan Banda Aceh, Beurawang, Kec. Meureudu, Kabupaten Pidie Jaya, Aceh";"Kabupaten Pidie Jaya, Aceh";"ACEH";"";"Indonesia";"";"5.2349664";"96.2469533";"https://maps.google.com/?cid=0x0:0x5bf82fd8b27a7d30"
"hardware store";"Toko Perlengkapan Rumah";"TB AFKA JAYA";"Gampong Ulee Gle, Kec. Bandar Dua, Kabupaten Pidie Jaya, Aceh";"Kabupaten Pidie Jaya, Aceh";"ACEH";"";"Indonesia";" 085296969202";"5.2024372";"96.313986";"https://maps.google.com/?cid=0x0:0xb37ba3ae8946fab0"
"hardware store";"Toko Perlengkapan Rumah";"Medan Keramik";"Jl. Tgk. Syik Pante Geulima, Dayah Timu, Kec. Meureudu, Kabupaten Pidie Jaya, Aceh 24186";"Dayah Timu, Kec. Meureudu, Kabupaten Pidie Jaya";"ACEH";"24186";"Indonesia";" 085275572172";"5.2362328";"96.2469779";"https://maps.google.com/?cid=0x0:0x7f1657fe570a18d1"
"supermarket bangunan";"Toko Bahan Bangunan";"Toko Bangunan Sejahtera Baru";"F9VF+2VR, Lambarih Bakmee, Kec. SukaMakmur, Kabupaten Aceh Besar, Aceh 23363";"Lambarih Bakmee, Kec. SukaMakmur, Kabupaten Aceh Besar";"ACEH";"23363";"Indonesia";" 081374134491";"5.4926174";"95.3746298";"https://maps.google.com/?cid=0x0:0x13f51277a759d9b5"
"supermarket bangunan";"supermarket bangunan";"Aceh 24184";"Kabupaten Aceh Utara, Aceh";"Kabupaten Aceh Utara, Aceh";"ACEH";"";"Indonesia";"";"5.1373361";"96.8887202";"https://maps.google.com/?cid=0x0:0x9968bf9e9ed3fc5b"
"supermarket bangunan";"Toko Bahan Bangunan";"Toko Bangunan Sahabat Baru";"Jl. Teuku Iskandar No.2, Lamglumpang, Kec. Ulee Kareng, Kota Banda Aceh, Aceh 23127";"Lamglumpang, Kec. Ulee Kareng, Kota Banda Aceh";"ACEH";"23127";"Indonesia";" 081374134491";"5.5497336";"95.3587896";"https://maps.google.com/?cid=0x0:0xed8d0ee3ba9bd01b"
"supermarket bangunan";"Toko Bahan Bangunan";"Toko Bangunan Wahyu Kana";"7346+9VQ, Jl. Medan Banda Aceh, Meunasah Keude, Kec. Bandar Baru, Kabupaten Pidie Jaya, Aceh 24184";"Jl. Medan Banda Aceh, Meunasah Keude, Kec. Bandar Baru, Kabupaten Pidie Jaya";"ACEH";"24184";"Indonesia";" 085221885838";"5.2559643";"96.0622409";"https://maps.google.com/?cid=0x0:0x84abd2d8e80fc248"
"supermarket bangunan";"Toko Bahan Bangunan";"TOKO BANGUNAN MANDIRI BARU";"Jl. Teuku Iskandar, Lamglumpang, Kec. Ulee Kareng, Kota Banda Aceh, Aceh 23127";"Lamglumpang, Kec. Ulee Kareng, Kota Banda Aceh";"ACEH";"23127";"Indonesia";" 087773953144";"5.5520791";"95.3492516";"https://maps.google.com/?cid=0x0:0x2dfc9d8d2d36fce8"
"supermarket bangunan";"Toko";"Toko bangunan sinar baru";"rima, Jalan ulee lheu - simpang, Lamjamee, Kec. Jaya Baru, Kota Banda Aceh, Aceh 23234";"Jalan ulee lheu - simpang, Lamjamee, Kec. Jaya Baru, Kota Banda Aceh";"ACEH";"23234";"Indonesia";" 081374134491";"5.5398079";"95.2848595";"https://maps.google.com/?cid=0x0:0x7657166469a743c7"
"supermarket bangunan";"Toko Bahan Bangunan";"Dagang Bahan Bangunan  Alat Listrik";"Meunasah Keude, Kec. Bandar Baru, Kabupaten Pidie Jaya, Aceh 24184";"Kec. Bandar Baru, Kabupaten Pidie Jaya";"ACEH";"24184";"Indonesia";" 085211567255";"5.2557611";"96.062074";"https://maps.google.com/?cid=0x0:0x5fd42e6c627e6160"
"supermarket bangunan";"Toko Bahan Bangunan";"Toko bangunan hidup baru";"Jl. Medan - Banda Aceh, Rapana, Kec. Mutiara, Kabupaten Pidie, Aceh";"Kabupaten Pidie, Aceh";"ACEH";"";"Indonesia";" 083177680118";"5.2778736";"95.9730691";"https://maps.google.com/?cid=0x0:0x8ecaf417110d795a"
"supermarket bangunan";"Toko Bahan Bangunan";"Toko Bangunan Mudah Rezeki";"7XGH+VWJ, Jl. Medan - Banda Aceh, Baro Yaman, Kec. Mutiara, Kabupaten Pidie, Aceh 24186";"Jl. Medan - Banda Aceh, Baro Yaman, Kec. Mutiara, Kabupaten Pidie";"ACEH";"24186";"Indonesia";" 083869600323";"5.2772135";"95.9797531";"https://maps.google.com/?cid=0x0:0x35c5fb47563cbc1d"
"supermarket bangunan";"Toko Bahan Bangunan";"TOKO BESI BINTANG BANGUNAN";"Jl. Pocut Baren No.29, Keuramat, Kec. Kuta Alam, Kota Banda Aceh, Aceh 23126";"Keuramat, Kec. Kuta Alam, Kota Banda Aceh";"ACEH";"23126";"Indonesia";" 081374134491";"5.5617508";"95.3240203";"https://maps.google.com/?cid=0x0:0xa98c67e001462b53"
"supermarket bangunan";"Toko Bahan Bangunan";"Toko Dunia Bangunan. 24 Jam.";"H82H+CVX, Jl. Teuku Imuem Jl. Teuku Chik Di Tiro, Ateuk Pahlawan, Kec. Baiturrahman, Kota Banda Aceh, Aceh 174_175";"Kota Banda Aceh, Aceh";"ACEH";"";"Indonesia";" 085260178145";"5.5511237";"95.3297328";"https://maps.google.com/?cid=0x0:0xc5443108175d2ef2"
"supermarket bangunan";"Toko Bahan Bangunan";"Toko bangunan / toko bahan bangunan";"H9J7+PM3, Rukoh, Kec. Syiah Kuala, Kota Banda Aceh, Aceh";"Kota Banda Aceh, Aceh";"ACEH";"";"Indonesia";" 082183195877";"5.581784";"95.3641847";"https://maps.google.com/?cid=0x0:0xca53fca6947362de"
"supermarket bangunan";"Toko Bahan Bangunan";"toko bahan bangunan her";"RQ97+4G3, Blang Makmur, Kec. Kuala Batee, Kabupaten Aceh Barat Daya, Aceh 23764";"Blang Makmur, Kec. Kuala Batee, Kabupaten Aceh Barat Daya";"ACEH";"23764";"Indonesia";"";"3.8177648";"96.763799";"https://maps.google.com/?cid=0x0:0x1d4451bcc2d5b818"
"supermarket bangunan";"Toko Perlengkapan Rumah";"Toko Besi Tunas Baru";"722R+FH4, Jl. Medan - Banda Aceh Jl. Teupin Raya, Sukon Mesjid, Kec. Glumpang Tiga, Kabupaten Pidie, Aceh 24161";"Jl. Medan - Banda Aceh Jl. Teupin Raya, Sukon Mesjid, Kec. Glumpang Tiga, Kabupaten Pidie";"ACEH";"24161";"Indonesia";" 085277642135";"5.2511272";"96.0414638";"https://maps.google.com/?cid=0x0:0x5884f0274a96721"
"supermarket bangunan";"supermarket bangunan";"Aceh 24188";"Hutan (Bandar Dua), Kec. Bandar Dua, Kabupaten Pidie Jaya, Aceh";"Kabupaten Pidie Jaya, Aceh";"ACEH";"";"Indonesia";"";"5.119276";"96.1155932";"https://maps.google.com/?cid=0x0:0xb55f6220579e0177"
"supermarket bangunan";"Toko Perlengkapan Rumah";"TB AFKA JAYA";"Gampong Ulee Gle, Kec. Bandar Dua, Kabupaten Pidie Jaya, Aceh";"Kabupaten Pidie Jaya, Aceh";"ACEH";"";"Indonesia";" 085296969202";"5.2024372";"96.313986";"https://maps.google.com/?cid=0x0:0xb37ba3ae8946fab0"
"supermarket bangunan";"Toko Bahan Bangunan";"SEJAHTERA";"7346+659, Meunasah Keude, Kec. Bandar Baru, Kabupaten Pidie Jaya, Aceh 24171";"Meunasah Keude, Kec. Bandar Baru, Kabupaten Pidie Jaya";"ACEH";"24171";"Indonesia";"";"5.2555436";"96.0603962";"https://maps.google.com/?cid=0x0:0x11e2f091c540041c"
"supermarket bangunan";"Toko Bahan Bangunan";"Dagang Bahan Bangunan  Alat Listrik";"Meunasah Keude, Kec. Bandar Baru, Kabupaten Pidie Jaya, Aceh 24184";"Kec. Bandar Baru, Kabupaten Pidie Jaya";"ACEH";"24184";"Indonesia";" 085211567255";"5.2557611";"96.062074";"https://maps.google.com/?cid=0x0:0x5fd42e6c627e6160"
"supermarket bangunan";"Toko Bahan Bangunan";"Toko Mudah Rezeki";"7464+C93, Mns Paru Keude, Kec. Bandar Baru, Kabupaten Pidie Jaya, Aceh 24188";"Mns Paru Keude, Kec. Bandar Baru, Kabupaten Pidie Jaya";"ACEH";"24188";"Indonesia";" 081269110111";"5.261008";"96.105935";"https://maps.google.com/?cid=0x0:0xcde2c2283748b109"
"supermarket bangunan";"Toko Perlengkapan Rumah";"Toko Bahan Bangunan Indah Warna";"7XQC+X9V, Blang Lileue, Kec. Mutiara, Kabupaten Pidie, Aceh 24151";"Blang Lileue, Kec. Mutiara, Kabupaten Pidie";"ACEH";"24151";"Indonesia";" 087773953144";"5.2896524";"95.970922";"https://maps.google.com/?cid=0x0:0xe5e998d92e92f0ea"
"supermarket bangunan";"Toko Bahan Bangunan";"Toko Bangunan Aleppo";"Mee Pangwa, Kec. Trienggadeng, Kabupaten Pidie Jaya, Aceh";"Kabupaten Pidie Jaya, Aceh";"ACEH";"";"Indonesia";" 081269751447";"5.2469036";"96.2121451";"https://maps.google.com/?cid=0x0:0x14c386f8a4769331"
"supermarket bangunan";"Toko Bahan Bangunan";"Toko besi dan bangunan bilal jaya";"Nangrhoe Timu, Kec. Ulim, Kabupaten Pidie Jaya, Aceh";"Kabupaten Pidie Jaya, Aceh";"ACEH";"";"Indonesia";" 087773968995";"5.2170553";"96.2948234";"https://maps.google.com/?cid=0x0:0x489e789aabadc9ac"
"supermarket bangunan";"Toko Bahan Bangunan";"Melati";"Jl. Lintas Timur No.1, Hutan (Meureudu), Kec. Meureudu, Kabupaten Pidie Jaya, Aceh 24152";"Hutan (Meureudu), Kec. Meureudu, Kabupaten Pidie Jaya";"ACEH";"24152";"Indonesia";" 085262534449";"4.988346";"96.280718";"https://maps.google.com/?cid=0x0:0xa1e048f68e0a18ee"
"supermarket bangunan";"Toko Bahan Bangunan";"Toko";"Meunasah Keude, Kec. Bandar Baru, Kabupaten Pidie Jaya, Aceh 24171";"Kec. Bandar Baru, Kabupaten Pidie Jaya";"ACEH";"24171";"Indonesia";" 082316157407";"5.2558089";"96.0620884";"https://maps.google.com/?cid=0x0:0x92b4c19f4b378182"
"supermarket bangunan";"Toko Bahan Bangunan";"Toko Bangunan Wahyu Kana";"7346+9VQ, Jl. Medan Banda Aceh, Meunasah Keude, Kec. Bandar Baru, Kabupaten Pidie Jaya, Aceh 24184";"Jl. Medan Banda Aceh, Meunasah Keude, Kec. Bandar Baru, Kabupaten Pidie Jaya";"ACEH";"24184";"Indonesia";" 085221885838";"5.2559643";"96.0622409";"https://maps.google.com/?cid=0x0:0x84abd2d8e80fc248"
"supermarket bangunan";"Toko Bahan Bangunan";"ZF Bangunan";"Jl. Medan - Banda Aceh, Lhok Dagang, Kec. Pandrah, Kabupaten Bireuen, Aceh";"Kabupaten Bireuen, Aceh";"ACEH";"";"Indonesia";"";"5.1863192";"96.4721469";"https://maps.google.com/?cid=0x0:0x81bb2e05f963961"
"supermarket bangunan";"Toko Bahan Bangunan";"PUTRA HUSEIN";"7723+RXH, Jl. Iskandar Muda, Beuringen, Kec. Meurah Dua, Kabupaten Pidie Jaya, Aceh";"Kabupaten Pidie Jaya, Aceh";"ACEH";"";"Indonesia";" 082329120744";"5.252069";"96.2549746";"https://maps.google.com/?cid=0x0:0x4e37ce741806bb20"
"supermarket bangunan";"Toko Bahan Bangunan";"Kakti Colection";"Jl. Pasar, No. 58, Meurudu, Hutan (Meureudu), Kec. Meureudu, Kabupaten Pidie Jaya, Aceh 24152";"No. 58, Meurudu, Hutan (Meureudu), Kec. Meureudu, Kabupaten Pidie Jaya";"ACEH";"24152";"Indonesia";" 085277961660";"4.990056";"96.280346";"https://maps.google.com/?cid=0x0:0x337d9a61171d288c"
"supermarket bangunan";"Toko Bahan Bangunan";"Toko Bangunan Sinar Abadi";"68C8+VX4, Jl. Rel Kereta Api, Keude Jangka Buya, Kec. Jangka Buya, Kabupaten Pidie Jaya, Aceh";"Kabupaten Pidie Jaya, Aceh";"ACEH";"";"Indonesia";"";"5.222146";"96.317438";"https://maps.google.com/?cid=0x0:0x2eaa1b525552d37f"
"supermarket bangunan";"supermarket bangunan";"Kec. Jangka Buya";"Kabupaten Pidie Jaya, Aceh";"Kabupaten Pidie Jaya, Aceh";"ACEH";"";"Indonesia";"";"5.2242158";"96.3121613";"https://maps.google.com/?cid=0x0:0xd6fccc30f37acb80"
"supermarket bangunan";"Toko Perlengkapan Rumah";"TB AFKA JAYA";"Gampong Ulee Gle, Kec. Bandar Dua, Kabupaten Pidie Jaya, Aceh";"Kabupaten Pidie Jaya, Aceh";"ACEH";"";"Indonesia";" 085296969202";"5.2024372";"96.313986";"https://maps.google.com/?cid=0x0:0xb37ba3ae8946fab0"
"supermarket bangunan";"Minimarket";"Asia Market";"6898+CXQ, Reului Mangat, Kec. Jangka Buya, Kabupaten Pidie Jaya, Aceh";"Kabupaten Pidie Jaya, Aceh";"ACEH";"";"Indonesia";"";"5.2183066";"96.3177521";"https://maps.google.com/?cid=0x0:0xf9fc184f351a7383"
"supermarket bangunan";"supermarket bangunan";"Kec. Meurah Dua";"Kabupaten Pidie Jaya, Aceh";"Kabupaten Pidie Jaya, Aceh";"ACEH";"";"Indonesia";"";"5.2327384";"96.2601989";"https://maps.google.com/?cid=0x0:0x18b794cb75a359ca"
"supermarket bangunan";"Toko Bahan Bangunan";"TOKO BANGUNAN MULYA JAYA";"Gp, Jl. Medan B. Aceh, Simpang 4 Meureudu, Meunasah Bie, Kec. Meurah Dua, Kabupaten Pidie Jaya, Aceh 24186";"Jl. Medan B. Aceh, Simpang 4 Meureudu, Meunasah Bie, Kec. Meurah Dua, Kabupaten Pidie Jaya";"ACEH";"24186";"Indonesia";" 087773968995";"5.232774";"96.2594669";"https://maps.google.com/?cid=0x0:0xa07a25e4046f9d58"
"supermarket bangunan";"Toko Bahan Bangunan";"Toko Surya Indah";"67M5+5G5, Meunasah Bie, Kec. Meurah Dua, Kabupaten Pidie Jaya, Aceh";"Kabupaten Pidie Jaya, Aceh";"ACEH";"";"Indonesia";" 085276674462";"5.232871";"96.2589498";"https://maps.google.com/?cid=0x0:0xab7f7f0642b488f5"
"supermarket bangunan";"Minimarket";"Makmur Swalayan";"Rhieng Blang, Kec. Meureudu, Kabupaten Pidie Jaya, Aceh";"Kabupaten Pidie Jaya, Aceh";"ACEH";"";"Indonesia";"";"5.2510253";"96.2466713";"https://maps.google.com/?cid=0x0:0xd9335c9dc67c1dcb"
"supermarket bangunan";"Toko Bahan Bangunan";"NAIFA BANGUNAN";"66VW+3QM, Meunasah Lhok, Kec. Meureudu, Kabupaten Pidie Jaya, Aceh";"Kabupaten Pidie Jaya, Aceh";"ACEH";"";"Indonesia";" 081269523034";"5.2431493";"96.2470901";"https://maps.google.com/?cid=0x0:0x29b6ee3eb6bc4202"
"supermarket bangunan";"Toko Perlengkapan Rumah";"Mitra Plafon PVC meureudu";"66PW+FQX, Dayah Timu, Kec. Meureudu, Kabupaten Pidie Jaya, Aceh";"Kabupaten Pidie Jaya, Aceh";"ACEH";"";"Indonesia";" 082317258085";"5.2362385";"96.2469701";"https://maps.google.com/?cid=0x0:0x9aa35be37ba1358b"
"supermarket bangunan";"Toko Bahan Bangunan";"Toko besi dan bangunan bilal jaya";"Nangrhoe Timu, Kec. Ulim, Kabupaten Pidie Jaya, Aceh";"Kabupaten Pidie Jaya, Aceh";"ACEH";"";"Indonesia";" 087773968995";"5.2170553";"96.2948234";"https://maps.google.com/?cid=0x0:0x489e789aabadc9ac"
"supermarket bangunan";"Toko Perlengkapan Rumah";"Medan Keramik";"Jl. Tgk. Syik Pante Geulima, Dayah Timu, Kec. Meureudu, Kabupaten Pidie Jaya, Aceh 24186";"Dayah Timu, Kec. Meureudu, Kabupaten Pidie Jaya";"ACEH";"24186";"Indonesia";" 085275572172";"5.2362328";"96.2469779";"https://maps.google.com/?cid=0x0:0x7f1657fe570a18d1"
"supermarket bangunan";"Minimarket";"THREE PUT";"679Q+X5P, AH25, Nangrhoe Bar., Kec. Ulim, Kabupaten Pidie Jaya, Aceh";"Kabupaten Pidie Jaya, Aceh";"ACEH";"";"Indonesia";" 085360151601";"5.2199672";"96.2879489";"https://maps.google.com/?cid=0x0:0xbdd07f2aed7515c5"
"supermarket bangunan";"Toko Bahan Bangunan";"TB Mudah Rezeki";"Jl. Rel Kereta Api, Rhieng Blang, Kec. Meureudu, Kabupaten Pidie Jaya, Aceh";"Kabupaten Pidie Jaya, Aceh";"ACEH";"";"Indonesia";" 085261026580";"5.251043";"96.2392657";"https://maps.google.com/?cid=0x0:0x2315124d5e81f0a2"
"supermarket bangunan";"Toko Bahan Bangunan";"TB. Mitra abadi";"67GM+J9V, Jl. Medan Banda Aceh, Keude Ulim, Kec. Ulim, Kabupaten Pidie Jaya, Aceh";"Kabupaten Pidie Jaya, Aceh";"ACEH";"";"Indonesia";" 082164465822";"5.2266238";"96.283415";"https://maps.google.com/?cid=0x0:0x58ab66dc63bf25a5"
"supermarket bangunan";"Toko Bahan Bangunan";"Toko Bangunan Mudah Rezeki";"7XGH+VWJ, Jl. Medan - Banda Aceh, Baro Yaman, Kec. Mutiara, Kabupaten Pidie, Aceh 24186";"Jl. Medan - Banda Aceh, Baro Yaman, Kec. Mutiara, Kabupaten Pidie";"ACEH";"24186";"Indonesia";" 083869600323";"5.2772135";"95.9797531";"https://maps.google.com/?cid=0x0:0x35c5fb47563cbc1d"
"supermarket bangunan";"Toko Perlengkapan Rumah";"Toko Bahan Bangunan Indah Warna";"7XQC+X9V, Blang Lileue, Kec. Mutiara, Kabupaten Pidie, Aceh 24151";"Blang Lileue, Kec. Mutiara, Kabupaten Pidie";"ACEH";"24151";"Indonesia";" 087773953144";"5.2896524";"95.970922";"https://maps.google.com/?cid=0x0:0xe5e998d92e92f0ea"
"supermarket bangunan";"Pedagang tekstil";"Toko sinar listrkik";"7722+MQM, Kota Meureudu, Kec. Meureudu, Kabupaten Pidie Jaya, Aceh";"Kabupaten Pidie Jaya, Aceh";"ACEH";"";"Indonesia";" 085213192047";"5.2517213";"96.2519228";"https://maps.google.com/?cid=0x0:0x5421e6677580eaea"
"supermarket bangunan";"Toko Bahan Bangunan";"Mudah Utama";"Simpang Bundaran Jl Baru, Blk. Sawah, Kec. Kota Sigli, Kabupaten Pidie, Aceh 24111";"Blk. Sawah, Kec. Kota Sigli, Kabupaten Pidie";"ACEH";"24111";"Indonesia";" 08388827765";"5.3801168";"95.9593483";"https://maps.google.com/?cid=0x0:0xba135d63b6a42e52"
"supermarket bangunan";"supermarket bangunan";"Aceh 24186";"Kec. Meureudu, Kabupaten Pidie, Aceh";"Kabupaten Pidie, Aceh";"ACEH";"";"Indonesia";"";"4.9071931";"96.1102943";"https://maps.google.com/?cid=0x0:0xdafdcbfd9953f40d"
"supermarket bangunan";"Toko Bahan Bangunan";"Toko Bangunan Mudah Rezeki";"7XGH+VWJ, Jl. Medan - Banda Aceh, Baro Yaman, Kec. Mutiara, Kabupaten Pidie, Aceh 24186";"Jl. Medan - Banda Aceh, Baro Yaman, Kec. Mutiara, Kabupaten Pidie";"ACEH";"24186";"Indonesia";" 083869600323";"5.2772135";"95.9797531";"https://maps.google.com/?cid=0x0:0x35c5fb47563cbc1d"
"supermarket bangunan";"Toko Bahan Bangunan";"SEJAHTERA";"7346+659, Meunasah Keude, Kec. Bandar Baru, Kabupaten Pidie Jaya, Aceh 24171";"Meunasah Keude, Kec. Bandar Baru, Kabupaten Pidie Jaya";"ACEH";"24171";"Indonesia";"";"5.2555436";"96.0603962";"https://maps.google.com/?cid=0x0:0x11e2f091c540041c"
"supermarket bangunan";"Toko Bahan Bangunan";"Toko SEHATI";"Jl. Tgk. Chik di Tiro No.31 - 33, Mesjid Yaman, Kec. Mutiara, Kabupaten Pidie, Aceh 24173";"Mesjid Yaman, Kec. Mutiara, Kabupaten Pidie";"ACEH";"24173";"Indonesia";" 0653821661";"5.279591";"95.978447";"https://maps.google.com/?cid=0x0:0xadb0768d54ab1a4e"
"supermarket bangunan";"Toko Bahan Bangunan";"BERKAH SAUDARA";"Meunasah Keude, Kec. Bandar Baru, Kabupaten Pidie Jaya, Aceh 24171";"Kec. Bandar Baru, Kabupaten Pidie Jaya";"ACEH";"24171";"Indonesia";" 082367051036";"5.2557613";"96.0620743";"https://maps.google.com/?cid=0x0:0xc2c062fb24a849f9"
"supermarket bangunan";"supermarket bangunan";"USAHA JAYA ELECTRIC BU YUSNIDAR";"8WHF+77M, Keubang, Kec. Indra Jaya, Kabupaten Pidie, Aceh 24171";"Keubang, Kec. Indra Jaya, Kabupaten Pidie";"ACEH";"24171";"Indonesia";"";"5.3287108";"95.9239627";"https://maps.google.com/?cid=0x0:0x74f791c27876a751"
"supermarket bangunan";"Toko Perlengkapan Rumah";"Toko Bahan Bangunan Indah Warna";"7XQC+X9V, Blang Lileue, Kec. Mutiara, Kabupaten Pidie, Aceh 24151";"Blang Lileue, Kec. Mutiara, Kabupaten Pidie";"ACEH";"24151";"Indonesia";" 087773953144";"5.2896524";"95.970922";"https://maps.google.com/?cid=0x0:0xe5e998d92e92f0ea"
"supermarket bangunan";"Toko Bahan Bangunan";"TOKO MEKAR UTAMA";"7W3V+JR7, Mns Blang, Kec. Sakti, Kabupaten Pidie, Aceh 24181";"Mns Blang, Kec. Sakti, Kabupaten Pidie";"ACEH";"24181";"Indonesia";"";"5.2540388";"95.944562";"https://maps.google.com/?cid=0x0:0x4a6af34b63cbcfc0"
"supermarket bangunan";"Toko Bahan Bangunan";"Toko Bangunan Pulo Rahmat";"8XQ9+J3W, Balee Rastong, Kec. Peukan Baro, Kabupaten Pidie, Aceh 24164";"Balee Rastong, Kec. Peukan Baro, Kabupaten Pidie";"ACEH";"24164";"Indonesia";" 083869600323";"5.3389616";"95.9677126";"https://maps.google.com/?cid=0x0:0xafcdd465f1171fa1"
"supermarket bangunan";"Toko Perlengkapan Rumah";"Usaha Jaya";"7W2V+G57, Ps. Kota Bakti, Kec. Sakti, Kabupaten Pidie, Aceh 24181";"Ps. Kota Bakti, Kec. Sakti, Kabupaten Pidie";"ACEH";"24181";"Indonesia";"";"5.251282";"95.9429116";"https://maps.google.com/?cid=0x0:0x97fd72d25f43056"
"supermarket bangunan";"Toko Bahan Bangunan";"Toko Bangunan Wahyu Kana";"7346+9VQ, Jl. Medan Banda Aceh, Meunasah Keude, Kec. Bandar Baru, Kabupaten Pidie Jaya, Aceh 24184";"Jl. Medan Banda Aceh, Meunasah Keude, Kec. Bandar Baru, Kabupaten Pidie Jaya";"ACEH";"24184";"Indonesia";" 085221885838";"5.2559643";"96.0622409";"https://maps.google.com/?cid=0x0:0x84abd2d8e80fc248"
"supermarket bangunan";"Toko";"Toko Bahan Bangunan Siha Baru";"JALAN TEUBENG, Tijue, Kec. Pidie, Kabupaten Pidie, Aceh 24151";"Tijue, Kec. Pidie, Kabupaten Pidie";"ACEH";"24151";"Indonesia";"";"5.3578292";"95.9604301";"https://maps.google.com/?cid=0x0:0x47709ff6cfea92a6"
"supermarket bangunan";"Gudang";"Toko Bina Beuna";"Jl. Pasi lhok, Kembang Tanjung, Aron Asan Kumbang, Kec. Kembang Tj., Kabupaten Pidie, Aceh 24182";"Kembang Tanjung, Aron Asan Kumbang, Kec. Kembang Tj., Kabupaten Pidie";"ACEH";"24182";"Indonesia";" 081377444563";"5.3051003";"96.0155452";"https://maps.google.com/?cid=0x0:0x210cb29d4d489af7"
"supermarket bangunan";"supermarket bangunan";"Kec. Panteraja";"Kabupaten Pidie Jaya, Aceh";"Kabupaten Pidie Jaya, Aceh";"ACEH";"";"Indonesia";"";"5.2718147";"96.1449859";"https://maps.google.com/?cid=0x0:0x316e7cb7d66a0d00"
"supermarket bangunan";"Grosir";"UD Irhca";"Reudeup, Kec. Panteraja, Kabupaten Pidie Jaya, Aceh 24185";"Kec. Panteraja, Kabupaten Pidie Jaya";"ACEH";"24185";"Indonesia";" 081377271193";"5.2628266";"96.16463";"https://maps.google.com/?cid=0x0:0xb07d6413513aede1"
"supermarket bangunan";"Toko Bahan Bangunan";"Toko Bangunan sinar Indah";"754M+RMQ depan Masjid Islamic Center At-Taqarrub, Jl. Medan - Banda Aceh, Raya, Kec. Trienggadeng, Kabupaten Pidie Jaya, Aceh";"Kabupaten Pidie Jaya, Aceh";"ACEH";"";"Indonesia";" 083869600323";"5.2570824";"96.1842205";"https://maps.google.com/?cid=0x0:0x6704e686e67381bf"
"supermarket bangunan";"Toko Perlengkapan Rumah";"Toko Bahan Bangunan Indah Warna";"7XQC+X9V, Blang Lileue, Kec. Mutiara, Kabupaten Pidie, Aceh 24151";"Blang Lileue, Kec. Mutiara, Kabupaten Pidie";"ACEH";"24151";"Indonesia";" 087773953144";"5.2896524";"95.970922";"https://maps.google.com/?cid=0x0:0xe5e998d92e92f0ea"
"supermarket bangunan";"Toko Bahan Bangunan";"Toko Bangunan Terlengkap";"7XGC+H5V, Jl. Medan - Banda Aceh, Rapana, Kec. Mutiara, Kabupaten Pidie, Aceh 24151";"Jl. Medan - Banda Aceh, Rapana, Kec. Mutiara, Kabupaten Pidie";"ACEH";"24151";"Indonesia";"";"5.2764798";"95.9704222";"https://maps.google.com/?cid=0x0:0xfabf3360da110390"
"supermarket bangunan";"Toko Bahan Bangunan";"Toko bangunan hidup baru";"Jl. Medan - Banda Aceh, Rapana, Kec. Mutiara, Kabupaten Pidie, Aceh";"Kabupaten Pidie, Aceh";"ACEH";"";"Indonesia";" 083177680118";"5.2778736";"95.9730691";"https://maps.google.com/?cid=0x0:0x8ecaf417110d795a"
"supermarket bangunan";"supermarket bangunan";"toko mirana bangunan";"74FQ+HQF, Keude, Kec. Panteraja, Kabupaten Pidie Jaya, Aceh";"Kabupaten Pidie Jaya, Aceh";"ACEH";"";"Indonesia";"";"5.2739455";"96.1394294";"https://maps.google.com/?cid=0x0:0xdc1400c03c1a2c96"
"supermarket bangunan";"supermarket bangunan";"N/A";"";"";"ACEH";"";"Indonesia";"";"5.1047825";"96.195215";"https://maps.google.com/?cid=0x0:0x57855a559945a759"
"supermarket bangunan";"Masjid";"Keude panteraja";"74CW+J5G, Jl. Medan Banda Aceh, Keude, Kec. Panteraja, Kabupaten Pidie Jaya, Aceh";"Kabupaten Pidie Jaya, Aceh";"ACEH";"";"Indonesia";"";"5.271562";"96.1454667";"https://maps.google.com/?cid=0x0:0x5a7a6439ff4dcb9a"
