Category;Real Category;Business Name;Address;City;State;Postal Code;Country;Phone;Latitude;Longitude;Map Link
"supermarket bangunan";"supermarket bangunan";"Kec. Trienggadeng";"Kabupaten Pidie Jaya, Aceh";"Kabupaten Pidie Jaya, Aceh";"ACEH";"";"Indonesia";"";"5.259028";"96.1834886";"https://maps.google.com/?cid=0x0:0x47f2879d2ad38e99"
"supermarket bangunan";"Toko Bahan Bangunan";"Toko Bangunan Aleppo";"Mee Pangwa, Kec. Trienggadeng, Kabupaten Pidie Jaya, Aceh";"Kabupaten Pidie Jaya, Aceh";"ACEH";"";"Indonesia";" 081269751447";"5.2469036";"96.2121451";"https://maps.google.com/?cid=0x0:0x14c386f8a4769331"
"supermarket bangunan";"Toko Elektronik";"Toko Karya Melati";"754M+QMV, Jl. Medan Banda Aceh, Raya, Kec. Trienggadeng, Kabupaten Pidie Jaya, Aceh";"Kabupaten Pidie Jaya, Aceh";"ACEH";"";"Indonesia";"";"5.2569754";"96.1841634";"https://maps.google.com/?cid=0x0:0xb8b195d6f9a03925"
"supermarket bangunan";"Toko Bahan Bangunan";"TB. TALAGO PANGWA";"66RF+R4W, Jl. Medan B. Aceh, Gampong Meucat, Mee Pangwa, Kec. Trienggadeng, Kabupaten Pidie Jaya, Aceh";"Kabupaten Pidie Jaya, Aceh";"ACEH";"";"Indonesia";"";"5.2421181";"96.2228269";"https://maps.google.com/?cid=0x0:0x77f7d474494206bc"
"supermarket bangunan";"Toko Bahan Bangunan";"TB Mudah Rezeki";"Jl. Rel Kereta Api, Rhieng Blang, Kec. Meureudu, Kabupaten Pidie Jaya, Aceh";"Kabupaten Pidie Jaya, Aceh";"ACEH";"";"Indonesia";" 085261026580";"5.251043";"96.2392657";"https://maps.google.com/?cid=0x0:0x2315124d5e81f0a2"
"supermarket bangunan";"Toko Bahan Bangunan";"Toko Besi Putra Dayah";"762M+J2H, Jl. Rel Kereta Api, Deah Pangwa, Kec. Trienggadeng, Kabupaten Pidie Jaya, Aceh";"Kabupaten Pidie Jaya, Aceh";"ACEH";"";"Indonesia";" 085371585066";"5.2515522";"96.2325998";"https://maps.google.com/?cid=0x0:0x3ab5bda44630b35a"
"supermarket bangunan";"Toko Bahan Bangunan";"PUTRA HUSEIN";"7723+RXH, Jl. Iskandar Muda, Beuringen, Kec. Meurah Dua, Kabupaten Pidie Jaya, Aceh";"Kabupaten Pidie Jaya, Aceh";"ACEH";"";"Indonesia";" 082329120744";"5.252069";"96.2549746";"https://maps.google.com/?cid=0x0:0x4e37ce741806bb20"
"supermarket bangunan";"Grosir";"UD Irhca";"Reudeup, Kec. Panteraja, Kabupaten Pidie Jaya, Aceh 24185";"Kec. Panteraja, Kabupaten Pidie Jaya";"ACEH";"24185";"Indonesia";" 081377271193";"5.2628266";"96.16463";"https://maps.google.com/?cid=0x0:0xb07d6413513aede1"
"supermarket bangunan";"Toko Perlengkapan Rumah";"Mitra Plafon PVC meureudu";"66PW+FQX, Dayah Timu, Kec. Meureudu, Kabupaten Pidie Jaya, Aceh";"Kabupaten Pidie Jaya, Aceh";"ACEH";"";"Indonesia";" 082317258085";"5.2362385";"96.2469701";"https://maps.google.com/?cid=0x0:0x9aa35be37ba1358b"
"supermarket bangunan";"Toko Perlengkapan Rumah";"Medan Keramik";"Jl. Tgk. Syik Pante Geulima, Dayah Timu, Kec. Meureudu, Kabupaten Pidie Jaya, Aceh 24186";"Dayah Timu, Kec. Meureudu, Kabupaten Pidie Jaya";"ACEH";"24186";"Indonesia";" 085275572172";"5.2362328";"96.2469779";"https://maps.google.com/?cid=0x0:0x7f1657fe570a18d1"
"supermarket bangunan";"Toko Bahan Bangunan";"NAIFA BANGUNAN";"66VW+3QM, Meunasah Lhok, Kec. Meureudu, Kabupaten Pidie Jaya, Aceh";"Kabupaten Pidie Jaya, Aceh";"ACEH";"";"Indonesia";" 081269523034";"5.2431493";"96.2470901";"https://maps.google.com/?cid=0x0:0x29b6ee3eb6bc4202"
"supermarket bangunan";"Toko Bahan Bangunan";"Toko Surya Indah";"67M5+5G5, Meunasah Bie, Kec. Meurah Dua, Kabupaten Pidie Jaya, Aceh";"Kabupaten Pidie Jaya, Aceh";"ACEH";"";"Indonesia";" 085276674462";"5.232871";"96.2589498";"https://maps.google.com/?cid=0x0:0xab7f7f0642b488f5"
"supermarket bangunan";"Toko Perlengkapan Rumah";"Toko Bahan Bangunan Indah Warna";"7XQC+X9V, Blang Lileue, Kec. Mutiara, Kabupaten Pidie, Aceh 24151";"Blang Lileue, Kec. Mutiara, Kabupaten Pidie";"ACEH";"24151";"Indonesia";" 087773953144";"5.2896524";"95.970922";"https://maps.google.com/?cid=0x0:0xe5e998d92e92f0ea"
"supermarket bangunan";"Toko Bahan Bangunan";"Toko Bangunan Mudah Rezeki";"7XGH+VWJ, Jl. Medan - Banda Aceh, Baro Yaman, Kec. Mutiara, Kabupaten Pidie, Aceh 24186";"Jl. Medan - Banda Aceh, Baro Yaman, Kec. Mutiara, Kabupaten Pidie";"ACEH";"24186";"Indonesia";" 083869600323";"5.2772135";"95.9797531";"https://maps.google.com/?cid=0x0:0x35c5fb47563cbc1d"
"supermarket bangunan";"supermarket bangunan";"Aceh 24187";"Kabupaten Pidie, Aceh";"Kabupaten Pidie, Aceh";"ACEH";"";"Indonesia";"";"5.1830255";"95.956825";"https://maps.google.com/?cid=0x0:0x882e17494b2bb8c"
"supermarket bangunan";"Gudang";"Meuligoe Bangunan";"4VJP+M7M, Beungga, Kec. Tangse, Kabupaten Pidie, Aceh 24165";"Beungga, Kec. Tangse, Kabupaten Pidie";"ACEH";"24165";"Indonesia";"";"5.1317175";"95.8856637";"https://maps.google.com/?cid=0x0:0xb432fde1e0b64f7e"
"supermarket bangunan";"Toko Bahan Bangunan";"Semangat Baru";"6VMQ+MHW, Jijiem, Kec. Keumala, Kabupaten Pidie, Aceh 24187";"Jijiem, Kec. Keumala, Kabupaten Pidie";"ACEH";"24187";"Indonesia";" 082317688769";"5.2342481";"95.8889515";"https://maps.google.com/?cid=0x0:0xc3a6d4ee529abfec"
"supermarket bangunan";"Toko Bahan Bangunan";"Toko Bangunan Hidup Baru";"3H98+G8X, Blang Me, Kec. Simpang Ulim, Kabupaten Aceh Timur, Aceh";"Kabupaten Aceh Timur, Aceh";"ACEH";"";"Indonesia";"";"5.0688635";"97.5658504";"https://maps.google.com/?cid=0x0:0x3d0404705a905233"
"supermarket bangunan";"Toko Bahan Bangunan";"TOKO REZA JAYA";"5V4F+QC, Lhok Keutapang, Kec. Tangse, Kabupaten Pidie, Aceh 24187";"Lhok Keutapang, Kec. Tangse, Kabupaten Pidie";"ACEH";"24187";"Indonesia";" 08126910072";"5.1569413";"95.873566";"https://maps.google.com/?cid=0x0:0x5f4b1645c5f9c801"
"supermarket bangunan";"Toko Bahan Bangunan";"Toko Bangunan Mudah Rezeki";"7XGH+VWJ, Jl. Medan - Banda Aceh, Baro Yaman, Kec. Mutiara, Kabupaten Pidie, Aceh 24186";"Jl. Medan - Banda Aceh, Baro Yaman, Kec. Mutiara, Kabupaten Pidie";"ACEH";"24186";"Indonesia";" 083869600323";"5.2772135";"95.9797531";"https://maps.google.com/?cid=0x0:0x35c5fb47563cbc1d"
"supermarket bangunan";"Toko Bahan Bangunan";"Toko Bangunan Aleppo";"Mee Pangwa, Kec. Trienggadeng, Kabupaten Pidie Jaya, Aceh";"Kabupaten Pidie Jaya, Aceh";"ACEH";"";"Indonesia";" 081269751447";"5.2469036";"96.2121451";"https://maps.google.com/?cid=0x0:0x14c386f8a4769331"
"supermarket bangunan";"Toko Elektronik";"Toko Karya Melati";"754M+QMV, Jl. Medan Banda Aceh, Raya, Kec. Trienggadeng, Kabupaten Pidie Jaya, Aceh";"Kabupaten Pidie Jaya, Aceh";"ACEH";"";"Indonesia";"";"5.2569754";"96.1841634";"https://maps.google.com/?cid=0x0:0xb8b195d6f9a03925"
"supermarket bangunan";"Toko Bahan Bangunan";"Toko Dunia Bangunan. 24 Jam.";"H82H+CVX, Jl. Teuku Imuem Jl. Teuku Chik Di Tiro, Ateuk Pahlawan, Kec. Baiturrahman, Kota Banda Aceh, Aceh 174_175";"Kota Banda Aceh, Aceh";"ACEH";"";"Indonesia";" 085260178145";"5.5511237";"95.3297328";"https://maps.google.com/?cid=0x0:0xc5443108175d2ef2"
"supermarket bangunan";"Toko Bahan Bangunan";"Toko Bangunan Terlengkap";"7XGC+H5V, Jl. Medan - Banda Aceh, Rapana, Kec. Mutiara, Kabupaten Pidie, Aceh 24151";"Jl. Medan - Banda Aceh, Rapana, Kec. Mutiara, Kabupaten Pidie";"ACEH";"24151";"Indonesia";"";"5.2764798";"95.9704222";"https://maps.google.com/?cid=0x0:0xfabf3360da110390"
"supermarket bangunan";"Toko Bahan Bangunan";"TOKO BESI BINTANG BANGUNAN";"Jl. Pocut Baren No.29, Keuramat, Kec. Kuta Alam, Kota Banda Aceh, Aceh 23126";"Keuramat, Kec. Kuta Alam, Kota Banda Aceh";"ACEH";"23126";"Indonesia";" 081376436425";"5.5617508";"95.3240203";"https://maps.google.com/?cid=0x0:0xa98c67e001462b53"
"supermarket bangunan";"Toko";"Toko Bangunan Baru Mandiri";"7WCG+5QH, Jl. Jabal Ghafur, Lameue Mns Raya, Kec. Sakti, Kabupaten Pidie, Aceh 24181";"Jl. Jabal Ghafur, Lameue Mns Raya, Kec. Sakti, Kabupaten Pidie";"ACEH";"24181";"Indonesia";"";"5.2704442";"95.9269742";"https://maps.google.com/?cid=0x0:0x485d902863234f10"
"supermarket bangunan";"Toko Bahan Bangunan";"Toko bangunan hidup baru";"Jl. Medan - Banda Aceh, Rapana, Kec. Mutiara, Kabupaten Pidie, Aceh";"Kabupaten Pidie, Aceh";"ACEH";"";"Indonesia";" 083177680118";"5.2778736";"95.9730691";"https://maps.google.com/?cid=0x0:0x8ecaf417110d795a"
"supermarket bangunan";"Toko Bahan Bangunan";"Toko bangunan / toko bahan bangunan";"H9J7+PM3, Rukoh, Kec. Syiah Kuala, Kota Banda Aceh, Aceh";"Kota Banda Aceh, Aceh";"ACEH";"";"Indonesia";" 082183195877";"5.581784";"95.3641847";"https://maps.google.com/?cid=0x0:0xca53fca6947362de"
"mall";"Pusat Perbelanjaan";"SUZUYA SIMPANG LIMA";"H83C+RG9, Jl. H. Dimurthala Kuta Alam No.1, Kuta Alam, Kec. Kuta Alam, Kota Banda Aceh, Aceh 23127";"Jl. H. Dimurthala Kuta Alam No.1, Kuta Alam, Kec. Kuta Alam, Kota Banda Aceh";"ACEH";"23127";"Indonesia";" 06518011020";"5.55524";"95.3217643";"https://maps.google.com/?cid=0x0:0x9ad84c8879185816"
"mall";"Toko Swalayan";"Suzuya Mall Banda Aceh";"Jl. Teuku Umar, Lamtemen Tim., Kec. Jaya Baru, Kota Banda Aceh, Aceh 23232";"Lamtemen Tim., Kec. Jaya Baru, Kota Banda Aceh";"ACEH";"23232";"Indonesia";" 06518011022";"5.5377324";"95.3068005";"https://maps.google.com/?cid=0x0:0xc5c56efc74442dea"
"mall";"Toko Ponsel";"rusLan ceLL Lueng putu Bandar baru pidie jaya aceh";"Meureudu, Kec. Bandar Baru, Aceh";"Kabupaten Pidie Jaya, Aceh";"ACEH";"";"Indonesia";" 081370135777";"5.254801";"96.0608456";"https://maps.google.com/?cid=0x0:0xc57f001ebc1951c6"
"mall";"Pusat Perbelanjaan";"Medan Mall";"Jl. M. T. Haryono No.8, Pusat Ps., Kec. Medan Kota, Kota Medan, Sumatera Utara 20212";"Pusat Ps., Kec. Medan Kota, Kota Medan";"ACEH";"20212";"Indonesia";" 0614531800";"3.58767";"98.6867939";"https://maps.google.com/?cid=0x0:0x19be424c62eb0f57"
"mall";"Pusat Perbelanjaan";"Mall Centre Point (Medan)";"Jl. Jawa No.8, Gg. Buntu, Kec. Medan Tim., Kota Medan, Sumatera Utara 20231";"Gg. Buntu, Kec. Medan Tim., Kota Medan";"ACEH";"20231";"Indonesia";" 06180510733";"3.5915164";"98.6806315";"https://maps.google.com/?cid=0x0:0x4d9985cafc1a23c6"
"mall";"Kedai Kopi";"Kedai Ndeso";"Centre Point, Jl. Timor No.1, Gg. Buntu, Kec. Medan Tim., Kota Medan, Sumatera Utara 20232";"Jl. Timor No.1, Gg. Buntu, Kec. Medan Tim., Kota Medan";"ACEH";"20232";"Indonesia";" 082299966724";"3.5920142";"98.6808841";"https://maps.google.com/?cid=0x0:0x4b1a78d380e55794"
"mall";"Bioskop";"Cinema XXI - Centre Point Mall Medan";"Lt.3a Mall Centre Point, Jl. Jawa No.8, Gg. Buntu, Kec. Medan Tim., Kota Medan, Sumatera Utara 20236";"Jl. Jawa No.8, Gg. Buntu, Kec. Medan Tim., Kota Medan";"ACEH";"20236";"Indonesia";" 06180510321";"3.5917411";"98.6805543";"https://maps.google.com/?cid=0x0:0x81d23c1549bc3b01"
"mall";"mall";"Aceh 24188";"Hutan (Bandar Dua), Kec. Bandar Dua, Kabupaten Pidie Jaya, Aceh";"Kabupaten Pidie Jaya, Aceh";"ACEH";"";"Indonesia";"";"5.119276";"96.1155932";"https://maps.google.com/?cid=0x0:0xb55f6220579e0177"
"mall";"Toko Ponsel";"rusLan ceLL Lueng putu Bandar baru pidie jaya aceh";"Meureudu, Kec. Bandar Baru, Aceh";"Kabupaten Pidie Jaya, Aceh";"ACEH";"";"Indonesia";" 081370135777";"5.254801";"96.0608456";"https://maps.google.com/?cid=0x0:0xc57f001ebc1951c6"
"mall";"Toko";"UD Awak Awai Dua (Agen BSi)";"Jl. Medan - Banda Aceh, Mns Paru Cot, Kec. Bandar Baru, Kabupaten Pidie Jaya, Aceh 24188";"Mns Paru Cot, Kec. Bandar Baru, Kabupaten Pidie Jaya";"ACEH";"24188";"Indonesia";"";"5.2643739";"96.1236344";"https://maps.google.com/?cid=0x0:0x629c6b5295398b1f"
"mall";"Produsen";"Ternak aceh";"Garam Santri, Mns Lancang, Kec. Bandar Baru, Kabupaten Pidie Jaya, Aceh";"Kabupaten Pidie Jaya, Aceh";"ACEH";"";"Indonesia";" 082274623202";"5.2768441";"96.1253976";"https://maps.google.com/?cid=0x0:0x770865658a6770dd"
"mall";"Pasar tradisional";"Pasai suboh";"7336+X97, Jl. Lintas Sumatra, Meunasah Keude, Kec. Bandar Baru, Kabupaten Pidie Jaya, Aceh 24171";"Jl. Lintas Sumatra, Meunasah Keude, Kec. Bandar Baru, Kabupaten Pidie Jaya";"ACEH";"24171";"Indonesia";" 081396766467";"5.2549216";"96.0609081";"https://maps.google.com/?cid=0x0:0x9520064b0257438"
"mall";"Toko bahan makanan";"Toko Family Lueng Putu";"7346+HGG, Meunasah Keude, Kec. Bandar Baru, Kabupaten Pidie Jaya, Aceh 24171";"Meunasah Keude, Kec. Bandar Baru, Kabupaten Pidie Jaya";"ACEH";"24171";"Indonesia";" 081360191517";"5.2564351";"96.0613135";"https://maps.google.com/?cid=0x0:0xa3e23e4398b260db"
"mall";"Toko Pakaian";"Marjaya";"58W9+V6W, Gampong Ulee Gle, Kec. Bandar Dua, Kabupaten Pidie Jaya, Aceh 24162";"Gampong Ulee Gle, Kec. Bandar Dua, Kabupaten Pidie Jaya";"ACEH";"24162";"Indonesia";" 085294451275";"5.1972311";"96.3180684";"https://maps.google.com/?cid=0x0:0x176fdf3b8587e9dc"
"mall";"Perhimpunan Pengembang Perumahan";"Yuni Fitria Kede Paru 03";"7498+XJ2, Mns Paru Keude, kede paru, Kabupaten Pidie Jaya, Aceh 24188";"Mns Paru Keude, kede paru, Kabupaten Pidie Jaya";"ACEH";"24188";"Indonesia";" 082279217020";"5.269896";"96.1165148";"https://maps.google.com/?cid=0x0:0x7a82a3ac63643e2d"
"mall";"Toko";"Tempe Aceh";"7346+28F, Meunasah Keude, Kec. Bandar Baru, Kabupaten Pidie Jaya, Aceh 24171";"Meunasah Keude, Kec. Bandar Baru, Kabupaten Pidie Jaya";"ACEH";"24171";"Indonesia";" 085270521990";"5.2550658";"96.0608023";"https://maps.google.com/?cid=0x0:0xdc596933bd20fc21"
"mall";"Grosir Perlengkapan Rumah Tangga";"Dua Saudara Toko Kelontong Pijay";"Keude, Kec. Panteraja, Kabupaten Pidie Jaya, Aceh";"Kabupaten Pidie Jaya, Aceh";"ACEH";"";"Indonesia";" 081269786192";"5.2739434";"96.1389401";"https://maps.google.com/?cid=0x0:0x629e620dcb46422"
"mall";"Seafood";"Pasar | Keude Trienggadeng";"755M+M9V, Keude, Kec. Trienggadeng, Kabupaten Pidie Jaya, Aceh";"Kabupaten Pidie Jaya, Aceh";"ACEH";"";"Indonesia";"";"5.2592253";"96.1834277";"https://maps.google.com/?cid=0x0:0x96345cca60050d3d"
"mall";"Pasar";"Toko Al-Munawwarah Ulee Gle";"Jln. Pasar Ulee Gle, berhadapan dgn jalan Pusat Pasar Ikan, Keude Ulee Gle, Kec. Bandar Dua, Kabupaten Pidie Jaya, Aceh 24188";"berhadapan dgn jalan Pusat Pasar Ikan, Keude Ulee Gle, Kec. Bandar Dua, Kabupaten Pidie Jaya";"ACEH";"24188";"Indonesia";" 082277667500";"5.1968312";"96.3158593";"https://maps.google.com/?cid=0x0:0xbd3918c3905ddf58"
"mall";"Toko Mebel";"Yusnida perabot ulee glee";"58X8+6R4, Gampong Ulee Gle, Kec. Bandar Dua, Kabupaten Pidie Jaya, Aceh 24162";"Gampong Ulee Gle, Kec. Bandar Dua, Kabupaten Pidie Jaya";"ACEH";"24162";"Indonesia";"";"5.1980169";"96.317075";"https://maps.google.com/?cid=0x0:0x657cb2f22adc1f86"
"mall";"Toko Aksesori Pakaian";"ARUL accessories";"7336+W6H, 7336+W7GMeunasah KeudeKec, Kec. Bandar Baru, Kabupaten Pidie Jaya, Aceh 24171";"7336+W7GMeunasah KeudeKec, Kec. Bandar Baru, Kabupaten Pidie Jaya";"ACEH";"24171";"Indonesia";" 081268914427";"5.2548132";"96.0606213";"https://maps.google.com/?cid=0x0:0x26fa70c3c691f563"
"mall";"mall";"Kec. Jangka Buya";"Kabupaten Pidie Jaya, Aceh";"Kabupaten Pidie Jaya, Aceh";"ACEH";"";"Indonesia";"";"5.2242158";"96.3121613";"https://maps.google.com/?cid=0x0:0xd6fccc30f37acb80"
"mall";"Toko Kesehatan dan Kecantikan";"Bisnis olshop izzahfitri";"68G6+HM9, Jl. Pribadi, Jurong Ara, Kec. Jangka Buya, Kabupaten Pidie Jaya, Aceh 24186";"Jl. Pribadi, Jurong Ara, Kec. Jangka Buya, Kabupaten Pidie Jaya";"ACEH";"24186";"Indonesia";"";"5.2264093";"96.3117477";"https://maps.google.com/?cid=0x0:0x5f48988bd195105a"
"mall";"Pusat Perbelanjaan";"Kios Fakrudin";"68G6+32V, Jl. Rel Kereta Api, Jurong Teungoh, Kec. Jangka Buya, Kabupaten Pidie Jaya, Aceh";"Kabupaten Pidie Jaya, Aceh";"ACEH";"";"Indonesia";"";"5.2252468";"96.3100518";"https://maps.google.com/?cid=0x0:0x1a83da168dbe72f4"
"mall";"Toko Pakaian";"Marjaya";"58W9+V6W, Gampong Ulee Gle, Kec. Bandar Dua, Kabupaten Pidie Jaya, Aceh 24162";"Gampong Ulee Gle, Kec. Bandar Dua, Kabupaten Pidie Jaya";"ACEH";"24162";"Indonesia";" 085294451275";"5.1972311";"96.3180684";"https://maps.google.com/?cid=0x0:0x176fdf3b8587e9dc"
"mall";"Pusat Perbelanjaan";"Warung arif";"68F6+MX8, Jl. Rel Kereta Api, Jurong Binje, Kec. Jangka Buya, Kabupaten Pidie Jaya, Aceh";"Kabupaten Pidie Jaya, Aceh";"ACEH";"";"Indonesia";" 085275485262";"5.2241547";"96.3124382";"https://maps.google.com/?cid=0x0:0x551e783dd195e283"
"mall";"Toko Mebel";"Yusnida perabot ulee glee";"58X8+6R4, Gampong Ulee Gle, Kec. Bandar Dua, Kabupaten Pidie Jaya, Aceh 24162";"Gampong Ulee Gle, Kec. Bandar Dua, Kabupaten Pidie Jaya";"ACEH";"24162";"Indonesia";"";"5.1980169";"96.317075";"https://maps.google.com/?cid=0x0:0x657cb2f22adc1f86"
"mall";"Pusat Perbelanjaan";"Pasai";"67HM+HXQ, Keude Ulim, Kec. Ulim, Kabupaten Pidie Jaya, Aceh";"Kabupaten Pidie Jaya, Aceh";"ACEH";"";"Indonesia";"";"5.2289686";"96.2849771";"https://maps.google.com/?cid=0x0:0xf24336e2173d636"
"mall";"Kios";"Kios M Nur";"6993+8GG, Jl. Angkieng, timu, Kec. Samalanga, Kabupaten Bireuen, Aceh";"Kabupaten Bireuen, Aceh";"ACEH";"";"Indonesia";" 082160003826";"5.2183033";"96.3538336";"https://maps.google.com/?cid=0x0:0x2d78be8ee009075"
"mall";"Pusat Perbelanjaan";"Toko Budi Mekar";"58W9+V3Q, Gampong Ulee Gle, Kec. Bandar Dua, Kabupaten Pidie Jaya, Aceh 24162";"Gampong Ulee Gle, Kec. Bandar Dua, Kabupaten Pidie Jaya";"ACEH";"24162";"Indonesia";"";"5.197223";"96.3177351";"https://maps.google.com/?cid=0x0:0x77980d7f1e29ea97"
"mall";"Grosir kantong plastik";"TOKO HIDUP BARU PLASTIK";"Keude Ulee Gle, Kec. Bandar Dua, Kabupaten Pidie Jaya, Aceh 24162";"Kec. Bandar Dua, Kabupaten Pidie Jaya";"ACEH";"24162";"Indonesia";" 085207110682";"5.1980497";"96.3174389";"https://maps.google.com/?cid=0x0:0x80a2472dc64fb59f"
"mall";"Toko Ponsel";"Keude Parek Cell";"67GR+V27, Tanjong Ulim, Kec. Ulim, Kabupaten Pidie Jaya, Aceh";"Kabupaten Pidie Jaya, Aceh";"ACEH";"";"Indonesia";" 081263039404";"5.2271684";"96.2900495";"https://maps.google.com/?cid=0x0:0xe175e2d89386f128"
"mall";"Toko";"UD ANANDA";"58W8+WXV, Unnamed Road, Keude Ulee Gle, Kec. Bandar Dua, Kabupaten Pidie Jaya, Aceh 24162";"Unnamed Road, Keude Ulee Gle, Kec. Bandar Dua, Kabupaten Pidie Jaya";"ACEH";"24162";"Indonesia";" 081262479730";"5.1973541";"96.317413";"https://maps.google.com/?cid=0x0:0x89647ff5cdab656d"
"mall";"mall";"Ud Jafar";"68CC+WGC, Keude Jangka Buya, Kec. Jangka Buya, Kabupaten Pidie Jaya, Aceh";"Kabupaten Pidie Jaya, Aceh";"ACEH";"";"Indonesia";"";"5.2223128";"96.321278";"https://maps.google.com/?cid=0x0:0x96533e81f8b1567c"
"mall";"Toko";"YUA Fotocopy  Advertising";"6933+4V7, Mideun Jok, Kec. Samalanga, Kabupaten Bireuen, Aceh";"Kabupaten Bireuen, Aceh";"ACEH";"";"Indonesia";" 081282381992";"5.2027788";"96.3546704";"https://maps.google.com/?cid=0x0:0x133f7351c313b32"
"mall";"mall";"Kec. Meurah Dua";"Kabupaten Pidie Jaya, Aceh";"Kabupaten Pidie Jaya, Aceh";"ACEH";"";"Indonesia";"";"5.2327384";"96.2601989";"https://maps.google.com/?cid=0x0:0x18b794cb75a359ca"
"mall";"Toko Kue";"Adee Kak Nah | Zahra";"Jl. Simpang Tiga, Manyang Cut, Kec. Meureudu, Kabupaten Pidie Jaya, Aceh";"Kabupaten Pidie Jaya, Aceh";"ACEH";"";"Indonesia";" 085277760007";"5.233889";"96.2521419";"https://maps.google.com/?cid=0x0:0xe6d83d4b3bbb0b6"
"mall";"Grosir";"BERKAH IBU";"Jl. Medan - Banda Aceh depan KUD, Dayah Timu, Kec. Meureudu, Kabupaten Pidie Jaya, Aceh 24186";"Dayah Timu, Kec. Meureudu, Kabupaten Pidie Jaya";"ACEH";"24186";"Indonesia";" 082279518665";"5.2356406";"96.242636";"https://maps.google.com/?cid=0x0:0x10b6a6385149f787"
"mall";"Toko bahan makanan";"Warung kelontong";"67V4+PC5, Unnamed Road, Meunasah Dayah Usen, Kec. Meurah Dua, Kabupaten Pidie Jaya, Aceh";"Kabupaten Pidie Jaya, Aceh";"ACEH";"";"Indonesia";"";"5.2442692";"96.2561059";"https://maps.google.com/?cid=0x0:0x91f0aa2db9a8bc4f"
"mall";"Toko Percetakan";"Foto Copy Tari";"66MX+MQH, Beurawang, Kec. Meureudu, Kabupaten Pidie Jaya, Aceh";"Kabupaten Pidie Jaya, Aceh";"ACEH";"";"Indonesia";" 081360223135";"5.2341787";"96.2494831";"https://maps.google.com/?cid=0x0:0x60e177699934c34e"
"mall";"Toko Ponsel";"Mulba Ponsel";"Jl. Iskandar Muda No.2, Kota Meureudu, Kec. Meureudu, Kabupaten Pidie Jaya, Aceh";"Kabupaten Pidie Jaya, Aceh";"ACEH";"";"Indonesia";" 085321316868";"5.2517197";"96.2514545";"https://maps.google.com/?cid=0x0:0xcc2c6bb6c9e20edd"
"mall";"Minimarket";"Makmur Swalayan";"Rhieng Blang, Kec. Meureudu, Kabupaten Pidie Jaya, Aceh";"Kabupaten Pidie Jaya, Aceh";"ACEH";"";"Indonesia";"";"5.2510253";"96.2466713";"https://maps.google.com/?cid=0x0:0xd9335c9dc67c1dcb"
"mall";"Kafe";"Kide Musliadi";"589R+WF2, Jl. Medan Banda Aceh, Meurandeh Alue, Kec. Bandar Dua, Kabupaten Pidie Jaya, Aceh 24264";"Jl. Medan Banda Aceh, Meurandeh Alue, Kec. Bandar Dua, Kabupaten Pidie Jaya";"ACEH";"24264";"Indonesia";" 081294348435";"5.169754";"96.3411458";"https://maps.google.com/?cid=0x0:0x5dc8bbdaa5b4c04c"
"mall";"Toko bahan makanan";"Suzuya Mall beurawang";"67P2+FXQ, Beurawang, Kec. Meureudu, Kabupaten Pidie Jaya, Aceh";"Kabupaten Pidie Jaya, Aceh";"ACEH";"";"Indonesia";"";"5.236568";"96.253104";"https://maps.google.com/?cid=0x0:0x12e4cca56784a868"
"mall";"Pusat Perbelanjaan";"Pasai";"67HM+HXQ, Keude Ulim, Kec. Ulim, Kabupaten Pidie Jaya, Aceh";"Kabupaten Pidie Jaya, Aceh";"ACEH";"";"Indonesia";"";"5.2289686";"96.2849771";"https://maps.google.com/?cid=0x0:0xf24336e2173d636"
"mall";"Kios";"Bika Kak Nah";"67M6+38Q, Jl. Medan Banda Aceh, Meunasah Bie, Kec. Meurah Dua, Kabupaten Pidie Jaya, Aceh";"Kabupaten Pidie Jaya, Aceh";"ACEH";"";"Indonesia";" 081264616767";"5.2327083";"96.2608548";"https://maps.google.com/?cid=0x0:0x635f83f890d8c0ba"
"mall";"Toko Buah dan Sayuran";"Wan Buah";"7722+P87, Jl. Rel Kereta Api, Kota Meureudu, Kec. Meureudu, Kabupaten Pidie Jaya, Aceh";"Kabupaten Pidie Jaya, Aceh";"ACEH";"";"Indonesia";" 085260273070";"5.2517839";"96.2508076";"https://maps.google.com/?cid=0x0:0x9249d09516518e06"
"mall";"Bengkel Perawatan Bodi Mobil";"Salon Mobil X Pro Detailing";"Bunot, Kec. Meureudu, Kabupaten Pidie Jaya, Aceh";"Kabupaten Pidie Jaya, Aceh";"ACEH";"";"Indonesia";" 082279205436";"5.2363042";"96.2388358";"https://maps.google.com/?cid=0x0:0x58ba490bacd742b3"
"mall";"Toko Perlengkapan Rumah";"Tukang kaleng (Zakaria)Family jaya";"Kota Meureudu, Kec. Meureudu, Kabupaten Pidie Jaya, Aceh";"Kabupaten Pidie Jaya, Aceh";"ACEH";"";"Indonesia";" 082384291496";"5.2529506";"96.2516609";"https://maps.google.com/?cid=0x0:0xcba60d09e0f992d1"
"mall";"mall";"Aceh 24186";"Kec. Meureudu, Kabupaten Pidie, Aceh";"Kabupaten Pidie, Aceh";"ACEH";"";"Indonesia";"";"4.9071931";"96.1102943";"https://maps.google.com/?cid=0x0:0xdafdcbfd9953f40d"
"mall";"Toko Ponsel";"rusLan ceLL Lueng putu Bandar baru pidie jaya aceh";"Meureudu, Kec. Bandar Baru, Aceh";"Kabupaten Pidie Jaya, Aceh";"ACEH";"";"Indonesia";" 081370135777";"5.254801";"96.0608456";"https://maps.google.com/?cid=0x0:0xc57f001ebc1951c6"
"mall";"Pembangunan Perumahan";"Kota Beureuneun";"Medan Terminal Beureunuen, Jl. Medan Banda Aceh, Mesjid Yaman, Kec. Mutiara, Kabupaten Pidie, Aceh";"Kabupaten Pidie, Aceh";"ACEH";"";"Indonesia";"";"5.2793979";"95.978201";"https://maps.google.com/?cid=0x0:0x8e792c2056029da4"
"mall";"Grosir";"BERKAH IBU";"Jl. Medan - Banda Aceh depan KUD, Dayah Timu, Kec. Meureudu, Kabupaten Pidie Jaya, Aceh 24186";"Dayah Timu, Kec. Meureudu, Kabupaten Pidie Jaya";"ACEH";"24186";"Indonesia";" 082279518665";"5.2356406";"96.242636";"https://maps.google.com/?cid=0x0:0x10b6a6385149f787"
"mall";"Pusat Perbelanjaan";"SRC MUZAKKIR";"7XPW+987, Blang Beureueh, Kec. Mutiara, Kabupaten Pidie, Aceh 24186";"Blang Beureueh, Kec. Mutiara, Kabupaten Pidie";"ACEH";"24186";"Indonesia";"";"5.2859247";"95.9957937";"https://maps.google.com/?cid=0x0:0x1c193a831391fe5c"
"mall";"Pusat Perbelanjaan";"Toko Central";"8227+QHW, Jurong Bale, Kec. Kembang Tj., Kabupaten Pidie, Aceh 24186";"Jurong Bale, Kec. Kembang Tj., Kabupaten Pidie";"ACEH";"24186";"Indonesia";" 085370462284";"5.3019867";"96.0139596";"https://maps.google.com/?cid=0x0:0xc0285eeca375130d"
"mall";"Toko Aksesori Pakaian";"ARUL accessories";"7336+W6H, 7336+W7GMeunasah KeudeKec, Kec. Bandar Baru, Kabupaten Pidie Jaya, Aceh 24171";"7336+W7GMeunasah KeudeKec, Kec. Bandar Baru, Kabupaten Pidie Jaya";"ACEH";"24171";"Indonesia";" 081268914427";"5.2548132";"96.0606213";"https://maps.google.com/?cid=0x0:0x26fa70c3c691f563"
"mall";"Toko";"Tempe Aceh";"7346+28F, Meunasah Keude, Kec. Bandar Baru, Kabupaten Pidie Jaya, Aceh 24171";"Meunasah Keude, Kec. Bandar Baru, Kabupaten Pidie Jaya";"ACEH";"24171";"Indonesia";" 085270521990";"5.2550658";"96.0608023";"https://maps.google.com/?cid=0x0:0xdc596933bd20fc21"
"mall";"Pasar tradisional";"Pasai suboh";"7336+X97, Jl. Lintas Sumatra, Meunasah Keude, Kec. Bandar Baru, Kabupaten Pidie Jaya, Aceh 24171";"Jl. Lintas Sumatra, Meunasah Keude, Kec. Bandar Baru, Kabupaten Pidie Jaya";"ACEH";"24171";"Indonesia";" 081396766467";"5.2549216";"96.0609081";"https://maps.google.com/?cid=0x0:0x9520064b0257438"
"mall";"Toko Elektronik";"Alif Media";"72RG+8W3, Kumbang Unoe, Kec. Glumpang Baro, Kabupaten Pidie, Aceh 24186";"Kumbang Unoe, Kec. Glumpang Baro, Kabupaten Pidie";"ACEH";"24186";"Indonesia";" 081263822739";"5.2907613";"96.0272946";"https://maps.google.com/?cid=0x0:0xb31847eacfc49d6d"
"mall";"Toko";"Putra jeumpa";"62W7+5W6, Gampong jeumpa, Kec. Glumpang Tiga, Kabupaten Pidie, Aceh 24173";"Gampong jeumpa, Kec. Glumpang Tiga, Kabupaten Pidie";"ACEH";"24173";"Indonesia";" 082273722781";"5.2454043";"96.0147776";"https://maps.google.com/?cid=0x0:0x8e53b0ecdf189c1e"
"mall";"Pusat Perbelanjaan";"Rumah Nova Cherry";"8226+9WQ, Jurong Bale, Kec. Kembang Tj., Kabupaten Pidie, Aceh 24186";"Jurong Bale, Kec. Kembang Tj., Kabupaten Pidie";"ACEH";"24186";"Indonesia";"";"5.300843";"96.0126107";"https://maps.google.com/?cid=0x0:0x21f8b65286c11328"
"mall";"Pusat Perbelanjaan";"Acl photowork";"72X6+HQR, Jumphoih Adan, Kec. Mutiara Tim., Kabupaten Pidie, Aceh 24186";"Jumphoih Adan, Kec. Mutiara Tim., Kabupaten Pidie";"ACEH";"24186";"Indonesia";" 085222891312";"5.2989938";"96.0118962";"https://maps.google.com/?cid=0x0:0x8650cb9058728a41"
"mall";"Toko Pakaian Wanita";"Munaco Mukhtar";"7XHJ+FJV, Baro Yaman, Kec. Mutiara, Kabupaten Pidie, Aceh 24186";"Baro Yaman, Kec. Mutiara, Kabupaten Pidie";"ACEH";"24186";"Indonesia";" 085222455636";"5.2787369";"95.9815357";"https://maps.google.com/?cid=0x0:0x3ebf58adb24617ed"
"mall";"mall";"Kec. Panteraja";"Kabupaten Pidie Jaya, Aceh";"Kabupaten Pidie Jaya, Aceh";"ACEH";"";"Indonesia";"";"5.2718147";"96.1449859";"https://maps.google.com/?cid=0x0:0x316e7cb7d66a0d00"
"mall";"Seafood";"Pasar | Keude Trienggadeng";"755M+M9V, Keude, Kec. Trienggadeng, Kabupaten Pidie Jaya, Aceh";"Kabupaten Pidie Jaya, Aceh";"ACEH";"";"Indonesia";"";"5.2592253";"96.1834277";"https://maps.google.com/?cid=0x0:0x96345cca60050d3d"
"mall";"Grosir Perlengkapan Rumah Tangga";"Dua Saudara Toko Kelontong Pijay";"Keude, Kec. Panteraja, Kabupaten Pidie Jaya, Aceh";"Kabupaten Pidie Jaya, Aceh";"ACEH";"";"Indonesia";" 081269786192";"5.2739434";"96.1389401";"https://maps.google.com/?cid=0x0:0x629e620dcb46422"
"mall";"Produsen";"Ternak aceh";"Garam Santri, Mns Lancang, Kec. Bandar Baru, Kabupaten Pidie Jaya, Aceh";"Kabupaten Pidie Jaya, Aceh";"ACEH";"";"Indonesia";" 082274623202";"5.2768441";"96.1253976";"https://maps.google.com/?cid=0x0:0x770865658a6770dd"
"mall";"Toko";"CEK IS STIKER";"74FM+MQ3, Jl. Medan Banda Aceh, Tu Pantee Raja, Kec. Panteraja, Kabupaten Pidie Jaya, Aceh";"Kabupaten Pidie Jaya, Aceh";"ACEH";"";"Indonesia";" 081370219074";"5.2741387";"96.1344185";"https://maps.google.com/?cid=0x0:0xa3d08ee3d60ff6bb"
"mall";"Toko";"Ayasofyashop";"65QV+W5W, Dayah Ujong Baroh, Kec. Trienggadeng, Kabupaten Pidie Jaya, Aceh";"Kabupaten Pidie Jaya, Aceh";"ACEH";"";"Indonesia";" 082353081252";"5.2398683";"96.1929685";"https://maps.google.com/?cid=0x0:0xc979ef7d22d2c009"
"mall";"Kios";"Depot Isi Ulang Hexa";"Lrg. Tu Yaman, Keude, Kec. Trienggadeng, Kabupaten Pidie Jaya, Aceh";"Kabupaten Pidie Jaya, Aceh";"ACEH";"";"Indonesia";"";"5.2585098";"96.1827228";"https://maps.google.com/?cid=0x0:0x65277d88d64816a7"
"mall";"Toko";"UD Awak Awai Dua (Agen BSi)";"Jl. Medan - Banda Aceh, Mns Paru Cot, Kec. Bandar Baru, Kabupaten Pidie Jaya, Aceh 24188";"Mns Paru Cot, Kec. Bandar Baru, Kabupaten Pidie Jaya";"ACEH";"24188";"Indonesia";"";"5.2643739";"96.1236344";"https://maps.google.com/?cid=0x0:0x629c6b5295398b1f"
"mall";"Toko";"Toko";"65F2+399, Tampui, Kec. Trienggadeng, Kabupaten Pidie Jaya, Aceh 24187";"Tampui, Kec. Trienggadeng, Kabupaten Pidie Jaya";"ACEH";"24187";"Indonesia";"";"5.2231998";"96.1520889";"https://maps.google.com/?cid=0x0:0xb10ee2fbdc22d17e"
"mall";"Perhimpunan Pengembang Perumahan";"Yuni Fitria Kede Paru 03";"7498+XJ2, Mns Paru Keude, kede paru, Kabupaten Pidie Jaya, Aceh 24188";"Mns Paru Keude, kede paru, Kabupaten Pidie Jaya";"ACEH";"24188";"Indonesia";" 082279217020";"5.269896";"96.1165148";"https://maps.google.com/?cid=0x0:0x7a82a3ac63643e2d"
"mall";"Pusat Perbelanjaan";"Keude Parek Cell";"74CW+9C5, Keude parek, Ulim, Kabupaten Pidie Jaya, Aceh";"Kabupaten Pidie Jaya, Aceh";"ACEH";"";"Indonesia";" 08126559814";"5.2708824";"96.1460998";"https://maps.google.com/?cid=0x0:0x58d3afc7520fbd10"
"mall";"mall";"Kec. Trienggadeng";"Kabupaten Pidie Jaya, Aceh";"Kabupaten Pidie Jaya, Aceh";"ACEH";"";"Indonesia";"";"5.259028";"96.1834886";"https://maps.google.com/?cid=0x0:0x47f2879d2ad38e99"
"mall";"Seafood";"Pasar | Keude Trienggadeng";"755M+M9V, Keude, Kec. Trienggadeng, Kabupaten Pidie Jaya, Aceh";"Kabupaten Pidie Jaya, Aceh";"ACEH";"";"Indonesia";"";"5.2592253";"96.1834277";"https://maps.google.com/?cid=0x0:0x96345cca60050d3d"
"mall";"Toko";"Ayasofyashop";"65QV+W5W, Dayah Ujong Baroh, Kec. Trienggadeng, Kabupaten Pidie Jaya, Aceh";"Kabupaten Pidie Jaya, Aceh";"ACEH";"";"Indonesia";" 082353081252";"5.2398683";"96.1929685";"https://maps.google.com/?cid=0x0:0xc979ef7d22d2c009"
"mall";"Pusat Perbelanjaan";"TOKO IYUS PANGWA";"66W6+MJ6, Jl. Medan Banda Aceh, Mee Pangwa, Kec. Trienggadeng, Kabupaten Pidie Jaya, Aceh";"Kabupaten Pidie Jaya, Aceh";"ACEH";"";"Indonesia";"";"5.246669";"96.2115076";"https://maps.google.com/?cid=0x0:0x530613a5bf8b588a"
"mall";"Toko";"Toko";"65F2+399, Tampui, Kec. Trienggadeng, Kabupaten Pidie Jaya, Aceh 24187";"Tampui, Kec. Trienggadeng, Kabupaten Pidie Jaya";"ACEH";"24187";"Indonesia";"";"5.2231998";"96.1520889";"https://maps.google.com/?cid=0x0:0xb10ee2fbdc22d17e"
"mall";"Kios";"Depot Isi Ulang Hexa";"Lrg. Tu Yaman, Keude, Kec. Trienggadeng, Kabupaten Pidie Jaya, Aceh";"Kabupaten Pidie Jaya, Aceh";"ACEH";"";"Indonesia";"";"5.2585098";"96.1827228";"https://maps.google.com/?cid=0x0:0x65277d88d64816a7"
"mall";"Grosir";"BERKAH IBU";"Jl. Medan - Banda Aceh depan KUD, Dayah Timu, Kec. Meureudu, Kabupaten Pidie Jaya, Aceh 24186";"Dayah Timu, Kec. Meureudu, Kabupaten Pidie Jaya";"ACEH";"24186";"Indonesia";" 082279518665";"5.2356406";"96.242636";"https://maps.google.com/?cid=0x0:0x10b6a6385149f787"
"mall";"Pusat Perbelanjaan";"Toko Munagro";"Mee Pangwa, Kec. Trienggadeng, Kabupaten Pidie Jaya, Aceh";"Kabupaten Pidie Jaya, Aceh";"ACEH";"";"Indonesia";" 08126910284";"5.2456826";"96.2081713";"https://maps.google.com/?cid=0x0:0x2773a94dd0c24b83"
"mall";"Pusat Perbelanjaan";"Gudang Benih MUNAGRO";"Rambong, Kec. Meureudu, Kabupaten Pidie Jaya, Aceh 24153";"Kec. Meureudu, Kabupaten Pidie Jaya";"ACEH";"24153";"Indonesia";" 08126910284";"5.2296737";"96.2200863";"https://maps.google.com/?cid=0x0:0x6319a49003a92995"
"mall";"Pembangunan Perumahan";"Teupin Peuraho Dusun Mesjid";"66RG+8J5, Teupin Peuraho, Kec. Meureudu, Kabupaten Pidie Jaya, Aceh";"Kabupaten Pidie Jaya, Aceh";"ACEH";"";"Indonesia";"";"5.2407685";"96.2266245";"https://maps.google.com/?cid=0x0:0xebe09650ec315164"
"mall";"Toko Kue";"Adee Kak Nah | Zahra";"Jl. Simpang Tiga, Manyang Cut, Kec. Meureudu, Kabupaten Pidie Jaya, Aceh";"Kabupaten Pidie Jaya, Aceh";"ACEH";"";"Indonesia";" 085277760007";"5.233889";"96.2521419";"https://maps.google.com/?cid=0x0:0xe6d83d4b3bbb0b6"
"mall";"Pusat Perbelanjaan";"Jazila Store";"Raya, Lorong Gapura, Kabupaten Pidie Jaya, Aceh 24185";"Lorong Gapura, Kabupaten Pidie Jaya";"ACEH";"24185";"Indonesia";" 081262978779";"5.2535181";"96.1841183";"https://maps.google.com/?cid=0x0:0xf2b4ade8426ae9bc"
"mall";"Bengkel Perawatan Bodi Mobil";"Salon Mobil X Pro Detailing";"Bunot, Kec. Meureudu, Kabupaten Pidie Jaya, Aceh";"Kabupaten Pidie Jaya, Aceh";"ACEH";"";"Indonesia";" 082279205436";"5.2363042";"96.2388358";"https://maps.google.com/?cid=0x0:0x58ba490bacd742b3"
"mall";"Pusat Perbelanjaan";"Burhan Puteh";"Mns Blang Sukon, Kec. Bandar Baru, Kabupaten Pidie Jaya, Aceh 24188";"Kec. Bandar Baru, Kabupaten Pidie Jaya";"ACEH";"24188";"Indonesia";" 082144553310";"5.2154708";"96.1099954";"https://maps.google.com/?cid=0x0:0xe0b305e068158f6b"
"mall";"mall";"Aceh 24187";"Kabupaten Pidie, Aceh";"Kabupaten Pidie, Aceh";"ACEH";"";"Indonesia";"";"5.1830255";"95.956825";"https://maps.google.com/?cid=0x0:0x882e17494b2bb8c"
"mall";"Penjahit";"Izza Collection";"6WRG+Q74, Jl. Beureunuen - Tangse, Cut, Kec. Titeue, Kabupaten Pidie, Aceh 24114";"Jl. Beureunuen - Tangse, Cut, Kec. Titeue, Kabupaten Pidie";"ACEH";"24114";"Indonesia";" 085277146747";"5.2418971";"95.9257114";"https://maps.google.com/?cid=0x0:0xe34ef4d9dbf59884"
"mall";"Toko";"Ayasofyashop";"65QV+W5W, Dayah Ujong Baroh, Kec. Trienggadeng, Kabupaten Pidie Jaya, Aceh";"Kabupaten Pidie Jaya, Aceh";"ACEH";"";"Indonesia";" 082353081252";"5.2398683";"96.1929685";"https://maps.google.com/?cid=0x0:0xc979ef7d22d2c009"
"mall";"Pusat Perbelanjaan";"Grosir Marzuki";"Jalan Bereunuen-Tiro km. 7.1,, Lhok Igeuh, Kec. Tiro/Truseb, Kabupaten Pidie, Aceh 24181";"Lhok Igeuh, Kec. Tiro/Truseb, Kabupaten Pidie";"ACEH";"24181";"Indonesia";"";"5.2219051";"95.9551276";"https://maps.google.com/?cid=0x0:0xa82d73ed6616fa8f"
"mall";"Toko Pakaian";"Atahillah serba 35.000";"7W4W+M6Q, Jl. Beureunuen - Tangse, Mns Bale, Kec. Sakti, Kabupaten Pidie, Aceh 24181";"Jl. Beureunuen - Tangse, Mns Bale, Kec. Sakti, Kabupaten Pidie";"ACEH";"24181";"Indonesia";"";"5.2567071";"95.9456217";"https://maps.google.com/?cid=0x0:0xd2f0036d19a0c17a"
"mall";"Peternak";"Tami Ayam Potong";"6VJP+VPP, Jl. Nicah, Jijiem, Kec. Keumala, Kabupaten Pidie, Aceh 24187";"Jl. Nicah, Jijiem, Kec. Keumala, Kabupaten Pidie";"ACEH";"24187";"Indonesia";" 081220048828";"5.2322107";"95.8868218";"https://maps.google.com/?cid=0x0:0x5381b545ebc0b7ca"
"mall";"Toko";"Toko Langganan";"6VMQ+HGV, Jijiem, Kec. Keumala, Kabupaten Pidie, Aceh 24187";"Jijiem, Kec. Keumala, Kabupaten Pidie";"ACEH";"24187";"Indonesia";"";"5.2339887";"95.888783";"https://maps.google.com/?cid=0x0:0xf9020911f8411f7"
"mall";"Toko umum";"Keude kak wi";"6V64+2JQ, Unnamed Road, Tunong, Kec. Keumala, Kabupaten Pidie, Aceh 24165";"Unnamed Road, Tunong, Kec. Keumala, Kabupaten Pidie";"ACEH";"24165";"Indonesia";"";"5.2100797";"95.856624";"https://maps.google.com/?cid=0x0:0x7020750fae8d3a09"
"mall";"Toko";"Waido Cell";"Jl. Beureunuen - Tangse simpang lamlo No.4, Pulo Iee, Kec. Tangse, Kabupaten Pidie, Aceh 24185";"Pulo Iee, Kec. Tangse, Kabupaten Pidie";"ACEH";"24185";"Indonesia";" 082365520498";"5.1389556";"95.8845089";"https://maps.google.com/?cid=0x0:0xc825e8c8fa369755"
"mall";"Pembangunan Perumahan";"Kota Beureuneun";"Medan Terminal Beureunuen, Jl. Medan Banda Aceh, Mesjid Yaman, Kec. Mutiara, Kabupaten Pidie, Aceh";"Kabupaten Pidie, Aceh";"ACEH";"";"Indonesia";"";"5.2793979";"95.978201";"https://maps.google.com/?cid=0x0:0x8e792c2056029da4"
"mall";"Toko Ponsel";"rusLan ceLL Lueng putu Bandar baru pidie jaya aceh";"Meureudu, Kec. Bandar Baru, Aceh";"Kabupaten Pidie Jaya, Aceh";"ACEH";"";"Indonesia";" 081370135777";"5.254801";"96.0608456";"https://maps.google.com/?cid=0x0:0xc57f001ebc1951c6"
"mall";"Pusat Perbelanjaan";"Burhan Puteh";"Mns Blang Sukon, Kec. Bandar Baru, Kabupaten Pidie Jaya, Aceh 24188";"Kec. Bandar Baru, Kabupaten Pidie Jaya";"ACEH";"24188";"Indonesia";" 082144553310";"5.2154708";"96.1099954";"https://maps.google.com/?cid=0x0:0xe0b305e068158f6b"
"mall";"Toko";"UD Awak Awai Dua (Agen BSi)";"Jl. Medan - Banda Aceh, Mns Paru Cot, Kec. Bandar Baru, Kabupaten Pidie Jaya, Aceh 24188";"Mns Paru Cot, Kec. Bandar Baru, Kabupaten Pidie Jaya";"ACEH";"24188";"Indonesia";"";"5.2643739";"96.1236344";"https://maps.google.com/?cid=0x0:0x629c6b5295398b1f"
"mall";"Toko Ponsel";"Global Comcell";"7XHH+J79 Komplek Terminal Beureunuen, Jl. Medan Banda Aceh, Mesjid Yaman, Kec. Mutiara, Kabupaten Pidie, Aceh 24151";"Jl. Medan Banda Aceh, Mesjid Yaman, Kec. Mutiara, Kabupaten Pidie";"ACEH";"24151";"Indonesia";" 085260787300";"5.2790253";"95.9782342";"https://maps.google.com/?cid=0x0:0x1f4b2d1006e30c5b"
"supermarket";"supermarket";"Aceh 24184";"Kabupaten Aceh Utara, Aceh";"Kabupaten Aceh Utara, Aceh";"ACEH";"";"Indonesia";"";"5.1373361";"96.8887202";"https://maps.google.com/?cid=0x0:0x9968bf9e9ed3fc5b"
"supermarket";"Toko Swalayan";"Cherry Mart";"Jl. Lintas Medan Jl. Banda Aceh, Baro Yaman, Mutiara, Kabupaten Pidie, Aceh, Indonesia, Jl. Lintas Sumatra, Baro Yaman, Kec. Mutiara, Kabupaten Pidie, Aceh 24186";"Baro Yaman, Mutiara, Kabupaten Pidie, Aceh, Indonesia, Jl. Lintas Sumatra, Baro Yaman, Kec. Mutiara, Kabupaten Pidie";"ACEH";"24186";"Indonesia";" 08126933666";"5.2782468";"95.9795015";"https://maps.google.com/?cid=0x0:0x1fb20a7e998eded9"
"supermarket";"Toko bahan makanan";"MARKET SIANG MALAM";"7346+459, Meunasah Keude, Kec. Bandar Baru, Kabupaten Pidie Jaya, Aceh 24171";"Meunasah Keude, Kec. Bandar Baru, Kabupaten Pidie Jaya";"ACEH";"24171";"Indonesia";" 081377419154";"5.2552779";"96.0604901";"https://maps.google.com/?cid=0x0:0x50df54919229c354"
"supermarket";"Toko Kelontong Asia";"Maya Baru";"9XM6+J8H, Kramat Dalam, Kec. Kota Sigli, Kabupaten Pidie, Aceh 24114";"Kramat Dalam, Kec. Kota Sigli, Kabupaten Pidie";"ACEH";"24114";"Indonesia";"";"5.3840682";"95.9608594";"https://maps.google.com/?cid=0x0:0x601f1f5aac49844d"
"supermarket";"Toko Swalayan";"Awana Mart";"Jalan Baru Pisang Depan SPBU, Pulo Pisang, Kec. Pidie, Kabupaten Pidie, Aceh 24151";"Pulo Pisang, Kec. Pidie, Kabupaten Pidie";"ACEH";"24151";"Indonesia";"";"5.3778115";"95.9453874";"https://maps.google.com/?cid=0x0:0x126435bdbb4f5b2"
"supermarket";"Toko Swalayan";"Keude Bg Ade";"64F8+W5C, Mns Kayee Jatoe, Kec. Bandar Baru, Kabupaten Pidie Jaya, Aceh 23893";"Mns Kayee Jatoe, Kec. Bandar Baru, Kabupaten Pidie Jaya";"ACEH";"23893";"Indonesia";" 082363835963";"5.2248137";"96.1153825";"https://maps.google.com/?cid=0x0:0xf438225e1e732824"
"supermarket";"Toko Bahan Bangunan";"UD. Cahaya Niaga";"7336+X93, Meunasah Keude, Kec. Bandar Baru, Kabupaten Pidie Jaya, Aceh 24171";"Meunasah Keude, Kec. Bandar Baru, Kabupaten Pidie Jaya";"ACEH";"24171";"Indonesia";" 081311115833";"5.2548919";"96.0609231";"https://maps.google.com/?cid=0x0:0xa9dd2fafcb2e53e7"
"supermarket";"Toko Swalayan";"Kede Mutiara Hati Cabang 3";"7XJM+HG4, Sentosa, Beureunuen, Kabupaten Pidie, Aceh 24186";"Sentosa, Beureunuen, Kabupaten Pidie";"ACEH";"24186";"Indonesia";"";"5.2813947";"95.9838185";"https://maps.google.com/?cid=0x0:0x3129313ebd34e07d"
"supermarket";"Toko Swalayan";"ASEAN SUPERMARKET";"7XHH+8QP, Baro Yaman, Kec. Mutiara, Kabupaten Pidie, Aceh 24186";"Baro Yaman, Kec. Mutiara, Kabupaten Pidie";"ACEH";"24186";"Indonesia";" 082360818158";"5.2783396";"95.9794464";"https://maps.google.com/?cid=0x0:0xd33fc6f369e2884a"
"supermarket";"Minimarket";"Kios ONLINE";"Jl. Paya raoh depan meunasah kide Gp, Kayee Jatoe, Kec. Glumpang Tiga, Kabupaten Pidie, Aceh 24183";"Kayee Jatoe, Kec. Glumpang Tiga, Kabupaten Pidie";"ACEH";"24183";"Indonesia";" 085280642686";"5.2519929";"96.0437665";"https://maps.google.com/?cid=0x0:0x1ca75f4e7677bac"
"supermarket";"Toko bahan makanan";"TOKO AHMED";"Jl. Rel Kereta Api, Deah Pangwa, Kec. Trienggadeng, Kabupaten Pidie Jaya, Aceh";"Kabupaten Pidie Jaya, Aceh";"ACEH";"";"Indonesia";" 085204040402";"5.2512875";"96.2327842";"https://maps.google.com/?cid=0x0:0x494ef1902c49f9fe"
"supermarket";"Toko bahan makanan";"DAMAI BARU SWALAYAN";"548M+34W, Jl. Sisingamangaraja, Gampa, Kec. Johan Pahlawan, Kabupaten Aceh Barat, Aceh 23611";"Jl. Sisingamangaraja, Gampa, Kec. Johan Pahlawan, Kabupaten Aceh Barat";"ACEH";"23611";"Indonesia";" 085359693979";"4.1654188";"96.1329108";"https://maps.google.com/?cid=0x0:0x7e124ab6f26ec2"
"supermarket";"Toko bahan makanan";"Kios Melli";"7344+HX4, Mns Pueb Lueng Nibong, Kec. Bandar Baru, Kabupaten Pidie Jaya, Aceh 24171";"Mns Pueb Lueng Nibong, Kec. Bandar Baru, Kabupaten Pidie Jaya";"ACEH";"24171";"Indonesia";" 082364603131";"5.256398";"96.0574641";"https://maps.google.com/?cid=0x0:0xa27ad2a46e3791ae"
"supermarket";"Toko Swalayan";"Mitra Swalayan";"7XGJ+JJ8, Baro Yaman, Kec. Mutiara, Kabupaten Pidie, Aceh 24186";"Baro Yaman, Kec. Mutiara, Kabupaten Pidie";"ACEH";"24186";"Indonesia";" 081248679192";"5.2765496";"95.9815795";"https://maps.google.com/?cid=0x0:0x2f7f8d793598e337"
"supermarket";"supermarket";"Aceh 24188";"Hutan (Bandar Dua), Kec. Bandar Dua, Kabupaten Pidie Jaya, Aceh";"Kabupaten Pidie Jaya, Aceh";"ACEH";"";"Indonesia";"";"5.119276";"96.1155932";"https://maps.google.com/?cid=0x0:0xb55f6220579e0177"
"supermarket";"Toko Swalayan";"Keude Bg Ade";"64F8+W5C, Mns Kayee Jatoe, Kec. Bandar Baru, Kabupaten Pidie Jaya, Aceh 23893";"Mns Kayee Jatoe, Kec. Bandar Baru, Kabupaten Pidie Jaya";"ACEH";"23893";"Indonesia";" 082363835963";"5.2248137";"96.1153825";"https://maps.google.com/?cid=0x0:0xf438225e1e732824"
"supermarket";"Minimarket";"Aulia Mart";"755M+HCC, Keude, Kec. Trienggadeng, Kabupaten Pidie Jaya, Aceh";"Kabupaten Pidie Jaya, Aceh";"ACEH";"";"Indonesia";"";"5.258932";"96.183501";"https://maps.google.com/?cid=0x0:0xa8899d3a7cdefcd2"
"supermarket";"Toko bahan makanan";"Al amal";"64JC+H5X, Mns Kayee Jatoe, Kec. Bandar Baru, Kabupaten Pidie Jaya, Aceh 24187";"Mns Kayee Jatoe, Kec. Bandar Baru, Kabupaten Pidie Jaya";"ACEH";"24187";"Indonesia";"";"5.2314912";"96.1205";"https://maps.google.com/?cid=0x0:0xbfc1c6b6c3d23db1"
"supermarket";"Toko bahan makanan";"PUTRA JAYA";"58X9+36P, Jl. Lintas Sumatra, Keude Ulee Gle, Kec. Bandar Dua, Kabupaten Pidie Jaya, Aceh 24162";"Jl. Lintas Sumatra, Keude Ulee Gle, Kec. Bandar Dua, Kabupaten Pidie Jaya";"ACEH";"24162";"Indonesia";"";"5.1977238";"96.3180829";"https://maps.google.com/?cid=0x0:0x4ce24aa4f0a5b27f"
"supermarket";"Toko Swalayan";"Toko Lestari ulee gle";"58X9+29G, Keude Ulee Gle, Kec. Bandar Dua, Kabupaten Pidie Jaya, Aceh 24162";"Keude Ulee Gle, Kec. Bandar Dua, Kabupaten Pidie Jaya";"ACEH";"24162";"Indonesia";"";"5.1975994";"96.3184565";"https://maps.google.com/?cid=0x0:0x856d149dad09a9a6"
"supermarket";"supermarket";"Awak away";"74FW+JH9, Keude, Kec. Panteraja, Kabupaten Pidie Jaya, Aceh";"Kabupaten Pidie Jaya, Aceh";"ACEH";"";"Indonesia";"";"5.2740398";"96.1464703";"https://maps.google.com/?cid=0x0:0x9be26ef7bf45e380"
"supermarket";"Toko bahan makanan";"MARKET SIANG MALAM";"7346+459, Meunasah Keude, Kec. Bandar Baru, Kabupaten Pidie Jaya, Aceh 24171";"Meunasah Keude, Kec. Bandar Baru, Kabupaten Pidie Jaya";"ACEH";"24171";"Indonesia";" 081377419154";"5.2552779";"96.0604901";"https://maps.google.com/?cid=0x0:0x50df54919229c354"
"supermarket";"Toko umum";"UD Mansur";"58QF+69G, Jl. Medan Banda Aceh, Muko Dayah, Kec. Bandar Dua, Kabupaten Pidie Jaya, Aceh 24162";"Jl. Medan Banda Aceh, Muko Dayah, Kec. Bandar Dua, Kabupaten Pidie Jaya";"ACEH";"24162";"Indonesia";"";"5.1880742";"96.3234395";"https://maps.google.com/?cid=0x0:0xf3d00848f83a934d"
"supermarket";"Toko";"Adee Meutia Merdu";"Meunasah Bie, Kec. Meurah Dua, Kabupaten Pidie Jaya, Aceh";"Kabupaten Pidie Jaya, Aceh";"ACEH";"";"Indonesia";"";"5.232613";"96.2603074";"https://maps.google.com/?cid=0x0:0x96033bd287b2627d"
"supermarket";"Minimarket";"KIOS TAMiTA .Blang Gapu.Keude Lueng Putu";"733C+9FP, Unnamed Road, Mns Baroh Cot, Kec. Bandar Baru, Kabupaten Pidie Jaya, Aceh 24171";"Unnamed Road, Mns Baroh Cot, Kec. Bandar Baru, Kabupaten Pidie Jaya";"ACEH";"24171";"Indonesia";"";"5.2534504";"96.0712154";"https://maps.google.com/?cid=0x0:0xb42192c695bb6468"
"supermarket";"Minimarket";"Makmur Swalayan";"Rhieng Blang, Kec. Meureudu, Kabupaten Pidie Jaya, Aceh";"Kabupaten Pidie Jaya, Aceh";"ACEH";"";"Indonesia";"";"5.2510253";"96.2466713";"https://maps.google.com/?cid=0x0:0xd9335c9dc67c1dcb"
"supermarket";"Minimarket";"Kios yasir";"63WG+P8H, Mns Baroh Cot, Kec. Bandar Baru, Kabupaten Pidie Jaya, Aceh 24171";"Mns Baroh Cot, Kec. Bandar Baru, Kabupaten Pidie Jaya";"ACEH";"24171";"Indonesia";"";"5.2468072";"96.0758624";"https://maps.google.com/?cid=0x0:0x5c819afa63514e5c"
"supermarket";"Toko Alat Dapur";"MODERN Houseware";"Gp, Jl. Mata Ie No.3A, Gampong Ulee Gle, Kec. Bandar Dua, Kabupaten Pidie Jaya, Aceh 24188";"Jl. Mata Ie No.3A, Gampong Ulee Gle, Kec. Bandar Dua, Kabupaten Pidie Jaya";"ACEH";"24188";"Indonesia";"";"5.1969495";"96.3196879";"https://maps.google.com/?cid=0x0:0xf93a2d3ccc468eb6"
"supermarket";"supermarket";"Kec. Jangka Buya";"Kabupaten Pidie Jaya, Aceh";"Kabupaten Pidie Jaya, Aceh";"ACEH";"";"Indonesia";"";"5.2242158";"96.3121613";"https://maps.google.com/?cid=0x0:0xd6fccc30f37acb80"
"supermarket";"Minimarket";"Asia Market";"6898+CXQ, Reului Mangat, Kec. Jangka Buya, Kabupaten Pidie Jaya, Aceh";"Kabupaten Pidie Jaya, Aceh";"ACEH";"";"Indonesia";"";"5.2183066";"96.3177521";"https://maps.google.com/?cid=0x0:0xf9fc184f351a7383"
"supermarket";"Toko Swalayan";"PRIMAmart";"68CC+68G, Keude Jangka Buya, Kec. Jangka Buya, Kabupaten Pidie Jaya, Aceh";"Kabupaten Pidie Jaya, Aceh";"ACEH";"";"Indonesia";"";"5.2205582";"96.3208435";"https://maps.google.com/?cid=0x0:0x9e3158205d784b8e"
"supermarket";"supermarket";"Warung jaya";"68HC+2G2, Gampong Cot, Kec. Jangka Buya, Kabupaten Pidie Jaya, Aceh";"Kabupaten Pidie Jaya, Aceh";"ACEH";"";"Indonesia";"";"5.2275044";"96.321278";"https://maps.google.com/?cid=0x0:0x53dfb469951cbc95"
"supermarket";"Toko Swalayan";"putrajaya";"Reului Mangat, Kec. Jangka Buya, Kabupaten Pidie Jaya, Aceh";"Kabupaten Pidie Jaya, Aceh";"ACEH";"";"Indonesia";"";"5.2198693";"96.3182459";"https://maps.google.com/?cid=0x0:0xd772b972989277d5"
"supermarket";"Toko Elektronik";"AlMalik store";"68C9+P7X, Keude Jangka Buya, Kec. Jangka Buya, Kabupaten Pidie Jaya, Aceh";"Kabupaten Pidie Jaya, Aceh";"ACEH";"";"Indonesia";" 082262500995";"5.2218598";"96.3182245";"https://maps.google.com/?cid=0x0:0xb740a2233dcce748"
"supermarket";"Toko Roti";"Ida cookies";"Keurisi Meunasah Raya, Kec. Jangka Buya, Kabupaten Pidie Jaya, Aceh 24188";"Kec. Jangka Buya, Kabupaten Pidie Jaya";"ACEH";"24188";"Indonesia";" 085322420753";"5.2192418";"96.32303";"https://maps.google.com/?cid=0x0:0x9f2e42156f73829f"
"supermarket";"Kios";"AZRAQUA";"Meunasah Mee, Kec. Jangka Buya, Kabupaten Pidie Jaya, Aceh 24188";"Kec. Jangka Buya, Kabupaten Pidie Jaya";"ACEH";"24188";"Indonesia";" 085370076699";"5.2178935";"96.3239495";"https://maps.google.com/?cid=0x0:0x26e394c1bb6d2e8d"
"supermarket";"Toko Bahan Bangunan";"Awie plafon";"Jl. Rel Kereta Api, Keude Jangka Buya, Kec. Jangka Buya, Kabupaten Pidie Jaya, Aceh";"Kabupaten Pidie Jaya, Aceh";"ACEH";"";"Indonesia";"";"5.2224014";"96.3157553";"https://maps.google.com/?cid=0x0:0x5ef0bc8554192c23"
"supermarket";"Toko Obat";"Mutiara Ibu";"68C9+P7X, Keude Jangka Buya, Kec. Jangka Buya, Kabupaten Pidie Jaya, Aceh";"Kabupaten Pidie Jaya, Aceh";"ACEH";"";"Indonesia";"";"5.2218791";"96.3181932";"https://maps.google.com/?cid=0x0:0x41c667965c81af61"
"supermarket";"Toko Bahan Bangunan";"Toko Bangunan Sinar Abadi";"68C8+VX4, Jl. Rel Kereta Api, Keude Jangka Buya, Kec. Jangka Buya, Kabupaten Pidie Jaya, Aceh";"Kabupaten Pidie Jaya, Aceh";"ACEH";"";"Indonesia";"";"5.222146";"96.317438";"https://maps.google.com/?cid=0x0:0x2eaa1b525552d37f"
"supermarket";"Minimarket";"Kios Herizal";"Tanjong Baro, Kec. Samalanga, Kabupaten Bireuen, Aceh";"Kabupaten Bireuen, Aceh";"ACEH";"";"Indonesia";" 082273814609";"5.2175082";"96.354783";"https://maps.google.com/?cid=0x0:0xcb9219dbe06fe45e"
"supermarket";"supermarket";"Pangkalan Gas Beuna Rizki";"688J+VH5, Kiran Dayah, Kec. Jangka Buya, Kabupaten Pidie Jaya, Aceh";"Kabupaten Pidie Jaya, Aceh";"ACEH";"";"Indonesia";"";"5.2177175";"96.331866";"https://maps.google.com/?cid=0x0:0x83fd21cbad42cfc8"
"supermarket";"Tempat Ibadah";"Desa Tanjong Baro Samalanga";"6993+WWP, Jl.tgk di Jl. Angkieng, Meunasah Lincah, Kec. Samalanga, Kabupaten Bireuen, Aceh";"Kabupaten Bireuen, Aceh";"ACEH";"";"Indonesia";"";"5.2198439";"96.3548435";"https://maps.google.com/?cid=0x0:0x4100873fb2dcba6b"
"supermarket";"supermarket";"Kec. Meurah Dua";"Kabupaten Pidie Jaya, Aceh";"Kabupaten Pidie Jaya, Aceh";"ACEH";"";"Indonesia";"";"5.2327384";"96.2601989";"https://maps.google.com/?cid=0x0:0x18b794cb75a359ca"
"supermarket";"Toko";"Adee Meutia Merdu";"Meunasah Bie, Kec. Meurah Dua, Kabupaten Pidie Jaya, Aceh";"Kabupaten Pidie Jaya, Aceh";"ACEH";"";"Indonesia";"";"5.232613";"96.2603074";"https://maps.google.com/?cid=0x0:0x96033bd287b2627d"
"supermarket";"Minimarket";"Makmur Swalayan";"Rhieng Blang, Kec. Meureudu, Kabupaten Pidie Jaya, Aceh";"Kabupaten Pidie Jaya, Aceh";"ACEH";"";"Indonesia";"";"5.2510253";"96.2466713";"https://maps.google.com/?cid=0x0:0xd9335c9dc67c1dcb"
"supermarket";"Minimarket";"Ananda Mart Meureudu";"Mesjid Tuha, Kec. Meureudu, Kabupaten Pidie Jaya, Aceh";"Kabupaten Pidie Jaya, Aceh";"ACEH";"";"Indonesia";" 0895601928880";"5.2454921";"96.2488379";"https://maps.google.com/?cid=0x0:0x58e3509bd9f97d9d"
"supermarket";"Toko bahan makanan";"Ilham mart";"Kota Meureudu, Kec. Meureudu, Kabupaten Pidie Jaya, Aceh 24186";"Kec. Meureudu, Kabupaten Pidie Jaya";"ACEH";"24186";"Indonesia";" 085260783516";"5.2519671";"96.2522787";"https://maps.google.com/?cid=0x0:0xb432ddcb198bc5e6"
"supermarket";"Toko bahan makanan";"INDOMARET MEURAH DUA";"67M5+6RM, Meunasah Bie, Kec. Meurah Dua, Kabupaten Pidie Jaya, Aceh";"Kabupaten Pidie Jaya, Aceh";"ACEH";"";"Indonesia";"";"5.2330439";"96.2595084";"https://maps.google.com/?cid=0x0:0x71cb8dcbd0c967c8"
"supermarket";"Pusat Perbelanjaan";"Toko kue adee kak nah";"Jl. Medan Banda Aceh, Meunasah Bie, Kec. Meurah Dua, Kabupaten Pidie Jaya, Aceh";"Kabupaten Pidie Jaya, Aceh";"ACEH";"";"Indonesia";" 081360941743";"5.2327806";"96.2607802";"https://maps.google.com/?cid=0x0:0xcab568e461c51102"
"supermarket";"Toko Swalayan";"Ck Mart";"67M5+4P7, Jln Medan - Banda Aceh, Meurah Dua, Meunasah Bie, Kec. Meureudu, Kabupaten Pidie Jaya, Aceh 24186";"Jln Medan - Banda Aceh, Meurah Dua, Meunasah Bie, Kec. Meureudu, Kabupaten Pidie Jaya";"ACEH";"24186";"Indonesia";" 0895358706203";"5.2327901";"96.2592828";"https://maps.google.com/?cid=0x0:0x56a8391b70ec6768"
"supermarket";"Toko bahan makanan";"Mini Market Afkar";"Jln. Iskandar muda No. 22 meurah dua pidie jaya, Pante Beureune, Kec. Meurah Dua, Meurdu, Aceh 24186";"Pante Beureune, Kec. Meurah Dua, Meurdu";"ACEH";"24186";"Indonesia";" 082233236280";"5.2520563";"96.2551509";"https://maps.google.com/?cid=0x0:0x54cd4c3d647cd78a"
"supermarket";"Toko bahan makanan";"Omera Aneka Kue";"Meunasah Bie, Kec. Meurah Dua, Kabupaten Pidie Jaya, Aceh 24186";"Kec. Meurah Dua, Kabupaten Pidie Jaya";"ACEH";"24186";"Indonesia";" 082365541889";"5.2327936";"96.2602571";"https://maps.google.com/?cid=0x0:0x966f00653f8fa1fc"
"supermarket";"Toko Swalayan";"Alput jaya";"67Q9+976, Blang Cut, Kec. Meurah Dua, Kabupaten Pidie Jaya, Aceh";"Kabupaten Pidie Jaya, Aceh";"ACEH";"";"Indonesia";"";"5.2384221";"96.2681327";"https://maps.google.com/?cid=0x0:0x6f0e3f542841dd20"
"supermarket";"Toko bahan makanan";"ADE MEUTIA MERDU";"67M2+FXM, Manyang Cut, Kec. Meureudu, Kabupaten Pidie Jaya, Aceh";"Kabupaten Pidie Jaya, Aceh";"ACEH";"";"Indonesia";" 082362230657";"5.2337216";"96.2524191";"https://maps.google.com/?cid=0x0:0x384e049a170d98a3"
"supermarket";"Minimarket";"Toko INAYA Mart";"66PW+2G4, Dayah Timu, Kec. Meureudu, Kabupaten Pidie Jaya, Aceh";"Kabupaten Pidie Jaya, Aceh";"ACEH";"";"Indonesia";"";"5.2349794";"96.2463347";"https://maps.google.com/?cid=0x0:0x3d3fb56502862c36"
"supermarket";"Toko Roti";"Latisya kue";"Meunasah Bie, Kec. Meurah Dua, Kabupaten Pidie Jaya, Aceh 24186";"Kec. Meurah Dua, Kabupaten Pidie Jaya";"ACEH";"24186";"Indonesia";" 082281200456";"5.2306856";"96.2628206";"https://maps.google.com/?cid=0x0:0x2907996c963c611"
"supermarket";"supermarket";"Aceh 24186";"Kec. Meureudu, Kabupaten Pidie, Aceh";"Kabupaten Pidie, Aceh";"ACEH";"";"Indonesia";"";"4.9071931";"96.1102943";"https://maps.google.com/?cid=0x0:0xdafdcbfd9953f40d"
"supermarket";"Minimarket";"Makmur Swalayan";"Rhieng Blang, Kec. Meureudu, Kabupaten Pidie Jaya, Aceh";"Kabupaten Pidie Jaya, Aceh";"ACEH";"";"Indonesia";"";"5.2510253";"96.2466713";"https://maps.google.com/?cid=0x0:0xd9335c9dc67c1dcb"
"supermarket";"Toko Swalayan";"Cherry Mart";"Jl. Lintas Medan Jl. Banda Aceh, Baro Yaman, Mutiara, Kabupaten Pidie, Aceh, Indonesia, Jl. Lintas Sumatra, Baro Yaman, Kec. Mutiara, Kabupaten Pidie, Aceh 24186";"Baro Yaman, Mutiara, Kabupaten Pidie, Aceh, Indonesia, Jl. Lintas Sumatra, Baro Yaman, Kec. Mutiara, Kabupaten Pidie";"ACEH";"24186";"Indonesia";" 08126933666";"5.2782468";"95.9795015";"https://maps.google.com/?cid=0x0:0x1fb20a7e998eded9"
"supermarket";"Toko Swalayan";"Mitra Swalayan";"7XGJ+JJ8, Baro Yaman, Kec. Mutiara, Kabupaten Pidie, Aceh 24186";"Baro Yaman, Kec. Mutiara, Kabupaten Pidie";"ACEH";"24186";"Indonesia";" 081248679192";"5.2765496";"95.9815795";"https://maps.google.com/?cid=0x0:0x2f7f8d793598e337"
"supermarket";"Tempat Penjualan Teh";"Pasar Meureudu";"7722+VJW, Kota Meureudu, Kec. Meureudu, Kabupaten Pidie Jaya, Aceh";"Kabupaten Pidie Jaya, Aceh";"ACEH";"";"Indonesia";"";"5.2522485";"96.2515799";"https://maps.google.com/?cid=0x0:0x8c5c70482fb77bb5"
"supermarket";"Minimarket";"Ananda Mart Meureudu";"Mesjid Tuha, Kec. Meureudu, Kabupaten Pidie Jaya, Aceh";"Kabupaten Pidie Jaya, Aceh";"ACEH";"";"Indonesia";" 0895601928880";"5.2454921";"96.2488379";"https://maps.google.com/?cid=0x0:0x58e3509bd9f97d9d"
"supermarket";"Toko Swalayan";"PT GROUP JAYA BEUSAMA";"Jl. Medan Banda Aceh, Simpang Keumangan, Kec. Mutiara, Kabupaten Pidie, Aceh 24173";"Simpang Keumangan, Kec. Mutiara, Kabupaten Pidie";"ACEH";"24173";"Indonesia";" 0812903332";"5.2848408";"95.9744671";"https://maps.google.com/?cid=0x0:0x901ea84e38d81d34"
"supermarket";"Minimarket";"FAMART Sentosa";"7XJJ+XQF, Sentosa, Kec. Mutiara, Kabupaten Pidie, Aceh 24186";"Sentosa, Kec. Mutiara, Kabupaten Pidie";"ACEH";"24186";"Indonesia";"";"5.2823419";"95.9815323";"https://maps.google.com/?cid=0x0:0x6d39cfc967ec8c2a"
"supermarket";"Es Krim";"Zero Zero Bernuen";"7XGH+VR9, Bernuen, Baro Yaman, Mutiara, Pidie Regency, Aceh 24186";"Bernuen, Baro Yaman, Mutiara, Pidie Regency";"ACEH";"24186";"Indonesia";"";"5.2771568";"95.9796109";"https://maps.google.com/?cid=0x0:0x40b40fda3eba30af"
"supermarket";"Toko Swalayan";"Keude Mita Bacut";"728C+7QG, Meunasah Sagoe, Kec. Glumpang Baro, Kabupaten Pidie, Aceh 24186";"Meunasah Sagoe, Kec. Glumpang Baro, Kabupaten Pidie";"ACEH";"24186";"Indonesia";"";"5.2656922";"96.0219501";"https://maps.google.com/?cid=0x0:0x2303ed4aa03a82e"
"supermarket";"Minimarket";"Ulil Azmi Berkat";"6XQR+PV4, Jalan Nasa Baru Ujong Rimba Meugit Mutiara Timur, Jalan, Baro Ujong Rimba, Aceh, Kabupaten Pidie, Aceh 24161";"Jalan Nasa Baru Ujong Rimba Meugit Mutiara Timur, Jalan, Baro Ujong Rimba, Aceh, Kabupaten Pidie";"ACEH";"24161";"Indonesia";" 082165656995";"5.2392584";"95.9921998";"https://maps.google.com/?cid=0x0:0xb69c0f55b0143a30"
"supermarket";"Toko Swalayan";"UD. AZWAR";"Keutapang, Kec. Indra Jaya, Kabupaten Pidie, Aceh";"Kabupaten Pidie, Aceh";"ACEH";"";"Indonesia";" 085358284550";"5.3119574";"95.9584877";"https://maps.google.com/?cid=0x0:0xf9a81668fa5268b1"
"supermarket";"Toko bahan makanan";"Toke Adi";"7XMR+2R5, Beureu Eh II, Kec. Mutiara Tim., Kabupaten Pidie, Aceh 24186";"Beureu Eh II, Kec. Mutiara Tim., Kabupaten Pidie";"ACEH";"24186";"Indonesia";"";"5.282513";"95.9921207";"https://maps.google.com/?cid=0x0:0x82c89e9333dba7d7"
"supermarket";"Pusat Perbelanjaan";"Ami Swalayan";"9WGV+3X4, Keuniree, Kec. Pidie, Kabupaten Pidie, Aceh 24164";"Keuniree, Kec. Pidie, Kabupaten Pidie";"ACEH";"24164";"Indonesia";"";"5.375139";"95.944954";"https://maps.google.com/?cid=0x0:0xff126a40b312e24b"
"supermarket";"supermarket";"Kec. Panteraja";"Kabupaten Pidie Jaya, Aceh";"Kabupaten Pidie Jaya, Aceh";"ACEH";"";"Indonesia";"";"5.2718147";"96.1449859";"https://maps.google.com/?cid=0x0:0x316e7cb7d66a0d00"
"supermarket";"Pasar";"Pasar Panteraja";"74FQ+MQC, Keude, Kec. Panteraja, Kabupaten Pidie Jaya, Aceh";"Kabupaten Pidie Jaya, Aceh";"ACEH";"";"Indonesia";"";"5.2741838";"96.1394061";"https://maps.google.com/?cid=0x0:0x83a8a27da945dd17"
"supermarket";"Toko bahan makanan";"Toko Kelontong M.NUR MAJU";"748V+5H8, Keude, Kec. Panteraja, Kabupaten Pidie Jaya, Aceh";"Kabupaten Pidie Jaya, Aceh";"ACEH";"";"Indonesia";"";"5.2654203";"96.143939";"https://maps.google.com/?cid=0x0:0xb013fb90a6b30454"
"supermarket";"supermarket";"Awak away";"74FW+JH9, Keude, Kec. Panteraja, Kabupaten Pidie Jaya, Aceh";"Kabupaten Pidie Jaya, Aceh";"ACEH";"";"Indonesia";"";"5.2740398";"96.1464703";"https://maps.google.com/?cid=0x0:0x9be26ef7bf45e380"
"supermarket";"Grosir";"Kedai Asra";"748W+8Q, Keude, Kec. Panteraja, Kabupaten Pidie Jaya, Aceh";"Kabupaten Pidie Jaya, Aceh";"ACEH";"";"Indonesia";"";"5.2658132";"96.1468824";"https://maps.google.com/?cid=0x0:0x5ddb57956cf20fad"
"supermarket";"Toko";"B.in Mart";"65WF+7CR, Mesjid Peudeuek Baroh, Kec. Trienggadeng, Kabupaten Pidie Jaya, Aceh";"Kabupaten Pidie Jaya, Aceh";"ACEH";"";"Indonesia";"";"5.2457285";"96.1735002";"https://maps.google.com/?cid=0x0:0xfa521b0db9a40163"
"supermarket";"Toko Swalayan";"ALFAMART TRIENGGADENG";"754M+QMV, Jl. Medan Banda Aceh, Raya, Kec. Trienggadeng, Kabupaten Pidie Jaya, Aceh";"Kabupaten Pidie Jaya, Aceh";"ACEH";"";"Indonesia";" 08116137080";"5.2568847";"96.1842319";"https://maps.google.com/?cid=0x0:0x8675fd22c9294291"
"supermarket";"Toko Swalayan";"Cherry Mart";"Jl. Lintas Medan Jl. Banda Aceh, Baro Yaman, Mutiara, Kabupaten Pidie, Aceh, Indonesia, Jl. Lintas Sumatra, Baro Yaman, Kec. Mutiara, Kabupaten Pidie, Aceh 24186";"Baro Yaman, Mutiara, Kabupaten Pidie, Aceh, Indonesia, Jl. Lintas Sumatra, Baro Yaman, Kec. Mutiara, Kabupaten Pidie";"ACEH";"24186";"Indonesia";" 08126933666";"5.2782468";"95.9795015";"https://maps.google.com/?cid=0x0:0x1fb20a7e998eded9"
"supermarket";"Toko Cokelat";"Wisata kuliner coklat kabupaten pidie jaya";"Mns Paru Cot, Kec. Bandar Baru, Kabupaten Pidie Jaya, Aceh";"Kabupaten Pidie Jaya, Aceh";"ACEH";"";"Indonesia";"";"5.2650553";"96.1245877";"https://maps.google.com/?cid=0x0:0x4c95964710147314"
"supermarket";"Toko bahan makanan";"Pondak k yam";"757F+8QR, Sagoe, Kec. Trienggadeng, Kabupaten Pidie Jaya, Aceh";"Kabupaten Pidie Jaya, Aceh";"ACEH";"";"Indonesia";"";"5.2632091";"96.1743583";"https://maps.google.com/?cid=0x0:0x4857e1deac215c06"
"supermarket";"Taman Kanak-kanak";"Paru cot";"74CG+V2R, Mns Lancang, Kec. Bandar Baru, Kabupaten Pidie Jaya, Aceh";"Kabupaten Pidie Jaya, Aceh";"ACEH";"";"Indonesia";"";"5.2722494";"96.1250173";"https://maps.google.com/?cid=0x0:0x7aa00160165e2e03"
"supermarket";"Toko";"Cek Agus Olshop";"74GP+FGH, Keude, Kec. Panteraja, Kabupaten Pidie Jaya, Aceh";"Kabupaten Pidie Jaya, Aceh";"ACEH";"";"Indonesia";" 082210432181";"5.2761886";"96.1363608";"https://maps.google.com/?cid=0x0:0x1372d0278fa3266c"
"supermarket";"Masjid";"Keude panteraja";"74CW+J5G, Jl. Medan Banda Aceh, Keude, Kec. Panteraja, Kabupaten Pidie Jaya, Aceh";"Kabupaten Pidie Jaya, Aceh";"ACEH";"";"Indonesia";"";"5.271562";"96.1454667";"https://maps.google.com/?cid=0x0:0x5a7a6439ff4dcb9a"
"supermarket";"Taman";"Putra Jaya Cell.puduek Mesjid";"65XF+Q9P, Unnamed Rd, Trienggadeng, Pidie Jaya, Aceh, Mee Peuduek, Kec. Trienggadeng, Kabupaten Pidie Jaya, Aceh";"Kabupaten Pidie Jaya, Aceh";"ACEH";"";"Indonesia";" 082363274595";"5.2494725";"96.1734564";"https://maps.google.com/?cid=0x0:0x881e8a25dea2c291"
"supermarket";"supermarket";"Kec. Trienggadeng";"Kabupaten Pidie Jaya, Aceh";"Kabupaten Pidie Jaya, Aceh";"ACEH";"";"Indonesia";"";"5.259028";"96.1834886";"https://maps.google.com/?cid=0x0:0x47f2879d2ad38e99"
"supermarket";"Minimarket";"Aulia Mart";"755M+HCC, Keude, Kec. Trienggadeng, Kabupaten Pidie Jaya, Aceh";"Kabupaten Pidie Jaya, Aceh";"ACEH";"";"Indonesia";"";"5.258932";"96.183501";"https://maps.google.com/?cid=0x0:0xa8899d3a7cdefcd2"
"supermarket";"Toko Swalayan";"ALFAMART TRIENGGADENG";"754M+QMV, Jl. Medan Banda Aceh, Raya, Kec. Trienggadeng, Kabupaten Pidie Jaya, Aceh";"Kabupaten Pidie Jaya, Aceh";"ACEH";"";"Indonesia";" 08116137080";"5.2568847";"96.1842319";"https://maps.google.com/?cid=0x0:0x8675fd22c9294291"
"supermarket";"Toko";"B.in Mart";"65WF+7CR, Mesjid Peudeuek Baroh, Kec. Trienggadeng, Kabupaten Pidie Jaya, Aceh";"Kabupaten Pidie Jaya, Aceh";"ACEH";"";"Indonesia";"";"5.2457285";"96.1735002";"https://maps.google.com/?cid=0x0:0xfa521b0db9a40163"
"supermarket";"Toko Swalayan";"Keude Bg Ade";"64F8+W5C, Mns Kayee Jatoe, Kec. Bandar Baru, Kabupaten Pidie Jaya, Aceh 23893";"Mns Kayee Jatoe, Kec. Bandar Baru, Kabupaten Pidie Jaya";"ACEH";"23893";"Indonesia";" 082363835963";"5.2248137";"96.1153825";"https://maps.google.com/?cid=0x0:0xf438225e1e732824"
"supermarket";"Toko bahan makanan";"HARAPAN BARU";"Rawasari, Kec. Trienggadeng, Kabupaten Pidie Jaya, Aceh";"Kabupaten Pidie Jaya, Aceh";"ACEH";"";"Indonesia";"";"5.2431124";"96.200764";"https://maps.google.com/?cid=0x0:0x2d44923e5a61cb8c"
"supermarket";"Pusat Perbelanjaan";"depot isi ulang air minum ro dan hexa el syaarawi";"Jln B. Aceh-Medan km 154, Hutan (Trienggadeng), Kec. Trienggadeng, Kabupaten Pidie Jaya, Aceh 23893";"Hutan (Trienggadeng), Kec. Trienggadeng, Kabupaten Pidie Jaya";"ACEH";"23893";"Indonesia";" 081375912706";"5.2070047";"96.1633042";"https://maps.google.com/?cid=0x0:0x458274aaf479415e"
"supermarket";"Minimarket";"Makmur Swalayan";"Rhieng Blang, Kec. Meureudu, Kabupaten Pidie Jaya, Aceh";"Kabupaten Pidie Jaya, Aceh";"ACEH";"";"Indonesia";"";"5.2510253";"96.2466713";"https://maps.google.com/?cid=0x0:0xd9335c9dc67c1dcb"
"supermarket";"Minimarket";"Keude Cikok";"762J+M88, Deah Pangwa, Kec. Trienggadeng, Kabupaten Pidie Jaya, Aceh";"Kabupaten Pidie Jaya, Aceh";"ACEH";"";"Indonesia";" 085277876379";"5.2516644";"96.2308135";"https://maps.google.com/?cid=0x0:0xe3f6d22598c079e6"
"supermarket";"Minimarket";"TOKO PUTRI KEMBAR";"66W7+7JP, Jl. Medan Banda Aceh, Mee Pangwa, Kec. Trienggadeng, Kabupaten Pidie Jaya, Aceh";"Kabupaten Pidie Jaya, Aceh";"ACEH";"";"Indonesia";"";"5.2457028";"96.2140904";"https://maps.google.com/?cid=0x0:0xac8ce5e9f20cf0c1"
"supermarket";"Taman";"Putra Jaya Cell.puduek Mesjid";"65XF+Q9P, Unnamed Rd, Trienggadeng, Pidie Jaya, Aceh, Mee Peuduek, Kec. Trienggadeng, Kabupaten Pidie Jaya, Aceh";"Kabupaten Pidie Jaya, Aceh";"ACEH";"";"Indonesia";" 082363274595";"5.2494725";"96.1734564";"https://maps.google.com/?cid=0x0:0x881e8a25dea2c291"
"supermarket";"Toko Elektronik";"Market Online";"Andi, Desa meue tringgadeng RT.2/RW.1 Tgk. Afriandi, Jl. Tgk Sabi, Meue, Kec. Trienggadeng, Kabupaten Pidie Jaya, Aceh 24185";"Desa meue tringgadeng RT.2/RW.1 Tgk. Afriandi, Jl. Tgk Sabi, Meue, Kec. Trienggadeng, Kabupaten Pidie Jaya";"ACEH";"24185";"Indonesia";" 085225431253";"5.2563565";"96.1984221";"https://maps.google.com/?cid=0x0:0xbbd6f578665101a3"
"supermarket";"Toko bahan makanan";"Kana water";"7639+GJF, Jl. Rel Kereta Api, Cot Lheue Rheung, Kec. Trienggadeng, Kabupaten Pidie Jaya, Aceh";"Kabupaten Pidie Jaya, Aceh";"ACEH";"";"Indonesia";" 081360431654";"5.2538175";"96.2190463";"https://maps.google.com/?cid=0x0:0xc524d91b09273afe"
"supermarket";"Toko Kosmetik";"safril kosmetik";"756F+C9F, Sagoe, Kec. Trienggadeng, Kabupaten Pidie Jaya, Aceh";"Kabupaten Pidie Jaya, Aceh";"ACEH";"";"Indonesia";" 085279066641";"5.2610701";"96.1734144";"https://maps.google.com/?cid=0x0:0xf8f85fde3d3ea883"
"supermarket";"supermarket";"Aceh 24187";"Kabupaten Pidie, Aceh";"Kabupaten Pidie, Aceh";"ACEH";"";"Indonesia";"";"5.1830255";"95.956825";"https://maps.google.com/?cid=0x0:0x882e17494b2bb8c"
"supermarket";"supermarket";"Toko pinto mudah raseuki";"simpang lamlo, Jl. Beureunuen - Tangse, Pulo Iee, Kec. Tangse, Kabupaten Pidie, Aceh";"Kabupaten Pidie, Aceh";"ACEH";"";"Indonesia";"";"5.1389557";"95.8845089";"https://maps.google.com/?cid=0x0:0x2b2b32c54ebd5bea"
"supermarket";"Toko bahan makanan";"Kios ANDI";"6VFF+38V, Kumbang, Kec. Keumala, Kabupaten Pidie, Aceh 24187";"Kumbang, Kec. Keumala, Kabupaten Pidie";"ACEH";"24187";"Indonesia";"";"5.2227482";"95.8732975";"https://maps.google.com/?cid=0x0:0x7cf4229facad6bca"
"supermarket";"Minimarket";"Ulil Azmi Berkat";"6XQR+PV4, Jalan Nasa Baru Ujong Rimba Meugit Mutiara Timur, Jalan, Baro Ujong Rimba, Aceh, Kabupaten Pidie, Aceh 24161";"Jalan Nasa Baru Ujong Rimba Meugit Mutiara Timur, Jalan, Baro Ujong Rimba, Aceh, Kabupaten Pidie";"ACEH";"24161";"Indonesia";" 082165656995";"5.2392584";"95.9921998";"https://maps.google.com/?cid=0x0:0xb69c0f55b0143a30"
"supermarket";"Kedai Kopi";"KEDAI TEUNGKU USMAN";"Jl. Tong Peudeng, Pulo Raya, Kec. Titeue, Kabupaten Pidie, Aceh 24111";"Pulo Raya, Kec. Titeue, Kabupaten Pidie";"ACEH";"24111";"Indonesia";"";"5.2304538";"95.9142291";"https://maps.google.com/?cid=0x0:0x2527ce1f110fa663"
"supermarket";"Toko bahan makanan";"Al amal";"64JC+H5X, Mns Kayee Jatoe, Kec. Bandar Baru, Kabupaten Pidie Jaya, Aceh 24187";"Mns Kayee Jatoe, Kec. Bandar Baru, Kabupaten Pidie Jaya";"ACEH";"24187";"Indonesia";"";"5.2314912";"96.1205";"https://maps.google.com/?cid=0x0:0xbfc1c6b6c3d23db1"
"supermarket";"Minimarket";"hijrah";"6WRG+WRQ, Cut, Kec. Titeue, Kabupaten Pidie, Aceh 24181";"Cut, Kec. Titeue, Kabupaten Pidie";"ACEH";"24181";"Indonesia";" 081370181828";"5.242337";"95.9270974";"https://maps.google.com/?cid=0x0:0xc2901fc3edb18a43"
"supermarket";"Toko Pertanian";"UD. Sabena Tani";"6VHH+776, Unnamed Road, Sagoe, Kec. Keumala, Kabupaten Pidie, Aceh 24187";"Unnamed Road, Sagoe, Kec. Keumala, Kabupaten Pidie";"ACEH";"24187";"Indonesia";" 085260713668";"5.2281626";"95.8781378";"https://maps.google.com/?cid=0x0:0xbe6d3aa1656816a1"
"supermarket";"Pasar";"Putra Lamlo, Dahlan Sulaiman";"7W2R+GVM, Ps. Kota Bakti, Kec. Sakti, Kabupaten Pidie, Aceh 24181";"Ps. Kota Bakti, Kec. Sakti, Kabupaten Pidie";"ACEH";"24181";"Indonesia";" 082299755952";"5.251347";"95.9421787";"https://maps.google.com/?cid=0x0:0x774e89a663cfe7d4"
"supermarket";"Kios";"Kios sufi";"6W82+RCQ, Alue, Kec. Titeue, Kabupaten Pidie, Aceh 24187";"Alue, Kec. Titeue, Kabupaten Pidie";"ACEH";"24187";"Indonesia";"";"5.2170834";"95.9009521";"https://maps.google.com/?cid=0x0:0xc563fccd4628e159"
"supermarket";"Minimarket";"toko kelontong IRWANDI";"6WRF+5XM, Dayah Menara, Kec. Titeue, Kabupaten Pidie, Aceh 24114";"Dayah Menara, Kec. Titeue, Kabupaten Pidie";"ACEH";"24114";"Indonesia";" 085206153721";"5.2404506";"95.9249293";"https://maps.google.com/?cid=0x0:0x4dfeb87871bc846f"
"supermarket";"Kedai Kopi";"Alfakring";"6WVF+9CM, jalan berenun tangse, Cut, Kec. Titeue";"Kabupaten Pidie, Aceh";"ACEH";"";"Indonesia";"";"5.2434605";"95.9235366";"https://maps.google.com/?cid=0x0:0x1b3906fce978bf38"
"supermarket";"Brunch";"Warung Wulan  Bilqis";"5W9R+Q5H, Panton Beunot, Kec. Tiro/Truseb, Kabupaten Pidie, Aceh 24187";"Panton Beunot, Kec. Tiro/Truseb, Kabupaten Pidie";"ACEH";"24187";"Indonesia";"";"5.1694341";"95.9404704";"https://maps.google.com/?cid=0x0:0x522d970ecaa3f90"
"supermarket";"Toko bahan makanan";"Toko Adnan (Bang Ad)";"6VMQ+PJG, Jijiem, Kec. Keumala, Kabupaten Pidie, Aceh 24187";"Jijiem, Kec. Keumala, Kabupaten Pidie";"ACEH";"24187";"Indonesia";" 0525866998";"5.2343103";"95.8890702";"https://maps.google.com/?cid=0x0:0x2a9296d7b3b91952"
"cafe";"cafe";"24184 Coffee";"Gampong Meunasah Ara, Kec. Bandar Baru, Meunasah Ara, Kec. Bandar Baru, Kabupaten Pidie Jaya, Aceh 24184";"Kec. Bandar Baru, Meunasah Ara, Kec. Bandar Baru, Kabupaten Pidie Jaya";"ACEH";"24184";"Indonesia";" 085359689434";"5.262907";"96.078048";"https://maps.google.com/?cid=0x0:0x604fc67d129d6945"
"cafe";"Kedai Kopi";"jakarta cafe";"Jl. Medan - Banda Aceh luengputu No.6, Meunasah Keude, Kec. Bandar Baru, Kabupaten Pidie Jaya, Aceh 24184";"Meunasah Keude, Kec. Bandar Baru, Kabupaten Pidie Jaya";"ACEH";"24184";"Indonesia";" 082316265591";"5.2551296";"96.0600249";"https://maps.google.com/?cid=0x0:0x49ddb45baf2f1d33"
"cafe";"Restoran";"The Atjeh Connection Cipete";"Jl. Cipete Raya No.8f, RT.8/RW.4, Cipete Sel., Kec. Cilandak, Kota Jakarta Selatan, Daerah Khusus Ibukota Jakarta 12410";"RT.8/RW.4, Cipete Sel., Kec. Cilandak, Kota Jakarta Selatan";"ACEH";"12410";"Indonesia";"";"-6.2780581";"106.8043778";"https://maps.google.com/?cid=0x0:0x5e29d81eac85be2"
"cafe";"Kedai Kopi";"Mie cek ram Lung putu";"7344+268, Jl. Medan Banda Aceh, Meunasah Keude, Kec. Bandar Baru, Kabupaten Pidie Jaya, Aceh 24171";"Jl. Medan Banda Aceh, Meunasah Keude, Kec. Bandar Baru, Kabupaten Pidie Jaya";"ACEH";"24171";"Indonesia";"";"5.2550305";"96.0555686";"https://maps.google.com/?cid=0x0:0xadad77b19f98c4bf"
"cafe";"Restoran";"The Atjeh Connection SCBD";"Jl. Tulodong Bawah No.1 Blok D No, Selong, Kec. Kby. Baru, Kota Jakarta Selatan, Daerah Khusus Ibukota Jakarta 12190";"Selong, Kec. Kby. Baru, Kota Jakarta Selatan";"ACEH";"12190";"Indonesia";" 02127932084";"-6.2310524";"106.8103021";"https://maps.google.com/?cid=0x0:0x7b0a302296ecb470"
"cafe";"Kedai Kopi";"Warkop Dewi";"7335+XQJ, Jl. Lintas Medan-Jalan Banda Aceh, Meunasah Keude, Kec. Bandar Baru, Kabupaten Pidie Jaya, Aceh 24171";"Jl. Lintas Medan-Jalan Banda Aceh, Meunasah Keude, Kec. Bandar Baru, Kabupaten Pidie Jaya";"ACEH";"24171";"Indonesia";" 082165082186";"5.2549527";"96.0593976";"https://maps.google.com/?cid=0x0:0xfe6c721b2402edc9"
"cafe";"Kafe";"BALEI OEN";"Jl. Medan - Banda Aceh No.Km. 140, Paru, Keude, Kec. Bandar Baru, Kabupaten Pidie Jaya, Aceh 24184";"Paru, Keude, Kec. Bandar Baru, Kabupaten Pidie Jaya";"ACEH";"24184";"Indonesia";" 085217241240";"5.2640576";"96.1186039";"https://maps.google.com/?cid=0x0:0x8e8dbeeafbf4b59d"
"cafe";"Kedai Kopi";"Warkop Afwadi";"7374+WP7, Gampoeng, Mns Kayee Raya, Kec. Bandar Baru, Kabupaten Pidie Jaya, Aceh 24171";"Gampoeng, Mns Kayee Raya, Kec. Bandar Baru, Kabupaten Pidie Jaya";"ACEH";"24171";"Indonesia";"";"5.2647881";"96.0567867";"https://maps.google.com/?cid=0x0:0xc8615fbec9851e8"
"cafe";"Kedai Kopi";"TIME COFFE PREMIUM";"Desa cut langien, Kec. Bandar Baru, Kabupaten Pidie Jaya, Aceh 24184";"Kec. Bandar Baru, Kabupaten Pidie Jaya";"ACEH";"24184";"Indonesia";" 081394249978";"5.2462375";"96.0553256";"https://maps.google.com/?cid=0x0:0x1707ddd10dc2a75b"
"cafe";"Bar Kopi Espresso";"Cek mun kupy";"Asian Highway No.25, Mns Baroh Musa, Bandar Baru, Pidie Jaya Regency, Aceh 24186";"Mns Baroh Musa, Bandar Baru, Pidie Jaya Regency";"ACEH";"24186";"Indonesia";"";"5.2607252";"96.0944141";"https://maps.google.com/?cid=0x0:0xe8876ab863e95e7d"
"cafe";"Kedai Kopi";"the els coffee house";"Meunasah Keude, Kec. Bandar Baru, Kabupaten Pidie Jaya, Aceh 24171";"Kec. Bandar Baru, Kabupaten Pidie Jaya";"ACEH";"24171";"Indonesia";"";"5.2544826";"96.0581147";"https://maps.google.com/?cid=0x0:0xb4e611e8ab673368"
"cafe";"Kedai Kopi";"Cek Kur Kupi";"Gp, Meunasah Balee, Kec. Bandar Baru, Kabupaten Pidie Jaya, Aceh 24184";"Meunasah Balee, Kec. Bandar Baru, Kabupaten Pidie Jaya";"ACEH";"24184";"Indonesia";" 085275417765";"5.2593757";"96.0796081";"https://maps.google.com/?cid=0x0:0x8bb78656ad92b2f2"
"cafe";"Kafe";"Rumoh kupi";"7347+4CR, Jl. Medan Banda Aceh, Meunasah Keude, Kec. Bandar Baru, Kabupaten Pidie Jaya, Aceh 24171";"Jl. Medan Banda Aceh, Meunasah Keude, Kec. Bandar Baru, Kabupaten Pidie Jaya";"ACEH";"24171";"Indonesia";" 082165082213";"5.2557563";"96.0634816";"https://maps.google.com/?cid=0x0:0x8b6e84097196d572"
"cafe";"Kedai Kopi";"Warkop pak keuchik";"63HJ+JXM, Mns Blang Iboih, Kec. Bandar Baru, Kabupaten Pidie Jaya, Aceh 24184";"Mns Blang Iboih, Kec. Bandar Baru, Kabupaten Pidie Jaya";"ACEH";"24184";"Indonesia";"";"5.2302717";"96.0826958";"https://maps.google.com/?cid=0x0:0xa770a7114bf38d5f"
"cafe";"cafe";"Aceh 24188";"Hutan (Bandar Dua), Kec. Bandar Dua, Kabupaten Pidie Jaya, Aceh";"Kabupaten Pidie Jaya, Aceh";"ACEH";"";"Indonesia";"";"5.119276";"96.1155932";"https://maps.google.com/?cid=0x0:0xb55f6220579e0177"
"cafe";"Pom bensin/SPBU";"WARKOP SPBU ULEE GLE";"58WC+V4X, Jl. Medan - Banda Aceh, Meuko Kuthang, Kec. Bandar Dua, Kabupaten Pidie Jaya, Aceh 24188";"Jl. Medan - Banda Aceh, Meuko Kuthang, Kec. Bandar Dua, Kabupaten Pidie Jaya";"ACEH";"24188";"Indonesia";"";"5.1972288";"96.3203675";"https://maps.google.com/?cid=0x0:0x7f8dbadeb4b6f0e2"
"cafe";"Kafe";"CAFE BUNGONG KUPI";"Depan SPBU Ulee Gle, Keude Ulee Gle, Kec. Bandar Dua, Kabupaten Pidie Jaya, Aceh 24188";"Keude Ulee Gle, Kec. Bandar Dua, Kabupaten Pidie Jaya";"ACEH";"24188";"Indonesia";" 081382565628";"5.1968646";"96.3202928";"https://maps.google.com/?cid=0x0:0x7d90a4940da7029d"
"cafe";"Kedai Kopi";"RANGKANG KUPI";"Jl. Medan Banda Aceh No.1, Gampong Ulee Gle, Kec. Bandar Dua, Kabupaten Pidie Jaya, Aceh 24188";"Gampong Ulee Gle, Kec. Bandar Dua, Kabupaten Pidie Jaya";"ACEH";"24188";"Indonesia";"";"5.1983294";"96.3177183";"https://maps.google.com/?cid=0x0:0xa21d7164fe38222c"
"cafe";"Kafe";"Pojok Cofee";"6838+63C, Jalan Jangka Buya, Gampong Ulee Gle, Kec. Bandar Dua, Kabupaten Pidie Jaya, Aceh 24188";"Jalan Jangka Buya, Gampong Ulee Gle, Kec. Bandar Dua, Kabupaten Pidie Jaya";"ACEH";"24188";"Indonesia";" 082274485229";"5.2030729";"96.3151284";"https://maps.google.com/?cid=0x0:0x9bc341b6f9d7aca7"
"cafe";"Kafe";"Ground Coffe";"58W7+8PF, Jalan Kumba, Pulo, Kec. Bandar Dua, Kabupaten Pidie Jaya, Aceh 24188";"Jalan Kumba, Pulo, Kec. Bandar Dua, Kabupaten Pidie Jaya";"ACEH";"24188";"Indonesia";"";"5.1958121";"96.3143083";"https://maps.google.com/?cid=0x0:0x8be719c3abadb692"
"cafe";"Toko bahan makanan";"Socolatte aceh";"Mns Baroh Musa, Kec. Bandar Baru, Kabupaten Pidie Jaya, Aceh";"Kabupaten Pidie Jaya, Aceh";"ACEH";"";"Indonesia";" 085371945237";"5.2610914";"96.0953398";"https://maps.google.com/?cid=0x0:0x86be894a35d9b57d"
"cafe";"Kedai Kopi";"Kedai jali cofe";"735J+M64, Jl. Lintas Sumatra, Meunasah Balee, Kec. Bandar Baru, Kabupaten Pidie Jaya, Aceh 24171";"Jl. Lintas Sumatra, Meunasah Balee, Kec. Bandar Baru, Kabupaten Pidie Jaya";"ACEH";"24171";"Indonesia";" 081260804286";"5.259143";"96.0805663";"https://maps.google.com/?cid=0x0:0xfa0c52fec65f137c"
"cafe";"Kedai Kopi";"Coffe shop";"Keude Ulee Gle, Kec. Bandar Dua, Kabupaten Pidie Jaya, Aceh 24188";"Kec. Bandar Dua, Kabupaten Pidie Jaya";"ACEH";"24188";"Indonesia";" 081360821610";"5.198109";"96.3178512";"https://maps.google.com/?cid=0x0:0x625f8f22df86b394"
"cafe";"Kedai Kopi";"RANGKANG ATEUH COET";"7479+MHC, Mns Paru Keude, Kec. Bandar Baru, Kabupaten Pidie Jaya, Aceh 24188";"Mns Paru Keude, Kec. Bandar Baru, Kabupaten Pidie Jaya";"ACEH";"24188";"Indonesia";" 081397583440";"5.2641288";"96.1189989";"https://maps.google.com/?cid=0x0:0xf266287f0170db8d"
"cafe";"Kedai Kopi";"Loket Teuhah Sabee";"735M+XJF, Jl. Medan Banda Aceh, Mns Teungoh, Kec. Bandar Baru, Kabupaten Pidie Jaya, Aceh 24171";"Jl. Medan Banda Aceh, Mns Teungoh, Kec. Bandar Baru, Kabupaten Pidie Jaya";"ACEH";"24171";"Indonesia";"";"5.2599497";"96.0840555";"https://maps.google.com/?cid=0x0:0x241e924a4aa57aed"
"cafe";"Kedai Kopi";"Seutel kupi";"cubo indonesia, Meunasah, Kec. Meureudu, Kabupaten Pidie Jaya, Aceh 24188";"Meunasah, Kec. Meureudu, Kabupaten Pidie Jaya";"ACEH";"24188";"Indonesia";" 082279247104";"5.2167967";"96.1105682";"https://maps.google.com/?cid=0x0:0x10b7644eb387ffae"
"cafe";"Kedai Kopi";"Warung Kopi Simpang 4 Uteun Bayu";"58Q6+PV2, Uteun Bayu, Kec. Bandar Dua, Kabupaten Pidie Jaya, Aceh 24188";"Uteun Bayu, Kec. Bandar Dua, Kabupaten Pidie Jaya";"ACEH";"24188";"Indonesia";"";"5.1892589";"96.3121555";"https://maps.google.com/?cid=0x0:0xa6e0d4f8e507e204"
"cafe";"Kedai Kopi";"Jambo Diruy Cafe | Musa";"736X+62P, Jl. Lintas Sumatra Musa, Mns Baroh Musa, Kec. Bandar Baru, Kabupaten Pidie Jaya, Aceh 24186";"Jl. Lintas Sumatra Musa, Mns Baroh Musa, Kec. Bandar Baru, Kabupaten Pidie Jaya";"ACEH";"24186";"Indonesia";" 082362687920";"5.260592";"96.09757";"https://maps.google.com/?cid=0x0:0xf6c630da62096381"
"cafe";"cafe";"Kec. Jangka Buya";"Kabupaten Pidie Jaya, Aceh";"Kabupaten Pidie Jaya, Aceh";"ACEH";"";"Indonesia";"";"5.2242158";"96.3121613";"https://maps.google.com/?cid=0x0:0xd6fccc30f37acb80"
"cafe";"Kedai Kopi";"Kedei Kupi Mustafa";"689J+WFF, Kiran Dayah, Kec. Jangka Buya, Kabupaten Pidie Jaya, Aceh";"Kabupaten Pidie Jaya, Aceh";"ACEH";"";"Indonesia";" 082165518366";"5.219801";"96.3311689";"https://maps.google.com/?cid=0x0:0x38cc255423f12556"
"cafe";"Kedai Kopi";"Caffe Apami";"Jurong Teungoh, Kec. Jangka Buya, Kabupaten Pidie Jaya, Aceh";"Kabupaten Pidie Jaya, Aceh";"ACEH";"";"Indonesia";"";"5.233925";"96.3140667";"https://maps.google.com/?cid=0x0:0x16b93ef0ae8a0a8f"
"cafe";"Kedai Kopi";"Ariep kupi";"68F5+6XQ, Jurong Teungoh, Kec. Jangka Buya, Kabupaten Pidie Jaya, Aceh";"Kabupaten Pidie Jaya, Aceh";"ACEH";"";"Indonesia";"";"5.2230751";"96.3099808";"https://maps.google.com/?cid=0x0:0x99284df6f5624e"
"cafe";"Kafe";"Pojok Cofee";"6838+63C, Jalan Jangka Buya, Gampong Ulee Gle, Kec. Bandar Dua, Kabupaten Pidie Jaya, Aceh 24188";"Jalan Jangka Buya, Gampong Ulee Gle, Kec. Bandar Dua, Kabupaten Pidie Jaya";"ACEH";"24188";"Indonesia";" 082274485229";"5.2030729";"96.3151284";"https://maps.google.com/?cid=0x0:0x9bc341b6f9d7aca7"
"cafe";"Kedai Kopi";"RJ COFFEE";"Keude Jangka Buya, Kec. Jangka Buya, Kabupaten Pidie Jaya, Aceh 24186";"Kec. Jangka Buya, Kabupaten Pidie Jaya";"ACEH";"24186";"Indonesia";" 085373020318";"5.2210779";"96.3196952";"https://maps.google.com/?cid=0x0:0xf1649ed6f572b5f9"
"cafe";"Sarapan";"Murah mulia kupi";"58W9+QRV, Gampong Ulee Gle, Kec. Bandar Dua, Kabupaten Pidie Jaya, Aceh 24162";"Gampong Ulee Gle, Kec. Bandar Dua, Kabupaten Pidie Jaya";"ACEH";"24162";"Indonesia";" 082272260421";"5.1969847";"96.3195572";"https://maps.google.com/?cid=0x0:0x32d5d7aaa3131113"
"cafe";"Kedai Kopi";"Ren Kupie";"Jurong Teungoh, Kec. Jangka Buya, Kabupaten Pidie Jaya, Aceh 24186";"Kec. Jangka Buya, Kabupaten Pidie Jaya";"ACEH";"24186";"Indonesia";" 082363202075";"5.2242547";"96.3121769";"https://maps.google.com/?cid=0x0:0xc8044318be96c917"
"cafe";"Kedai Kopi";"Warkop Cek mat";"6868+69G ulee gle, Jlan, Buket Teungoh, Kec. Jangka Buya, Kabupaten Pidie Jaya, Aceh 24187";"Jlan, Buket Teungoh, Kec. Jangka Buya, Kabupaten Pidie Jaya";"ACEH";"24187";"Indonesia";" 085217959486";"5.2105742";"96.3159667";"https://maps.google.com/?cid=0x0:0x9aa96ffb38e2bed"
"cafe";"Kafe";"SPANYOL COFFEE";"68HH+RJR, Keurisi Meunasah Beurembang, Kec. Jangka Buya, Kabupaten Pidie Jaya, Aceh";"Kabupaten Pidie Jaya, Aceh";"ACEH";"";"Indonesia";"";"5.2296123";"96.3290061";"https://maps.google.com/?cid=0x0:0xd8628baf6f185836"
"cafe";"Komplek perumahan";"FAUZAN COFFE";"68F9+HXM, Unnamed Road, Keude Jangka Buya, Kec. Jangka Buya, Kabupaten Pidie Jaya, Aceh";"Kabupaten Pidie Jaya, Aceh";"ACEH";"";"Indonesia";"";"5.2239687";"96.3199299";"https://maps.google.com/?cid=0x0:0xf6188835fbea3b3c"
"cafe";"Kafe";"TANDJONG PREMIUM COFFEE";"Jl. Medan - Banda Aceh, Meuko Kuthang, Kec. Bandar Dua, Kabupaten Pidie Jaya, Aceh 24162";"Meuko Kuthang, Kec. Bandar Dua, Kabupaten Pidie Jaya";"ACEH";"24162";"Indonesia";" 082239258783";"5.1968524";"96.3204592";"https://maps.google.com/?cid=0x0:0xa2c034597c6bde38"
"cafe";"Kafe";"FUJI COFFEE";"Jl. Medan - Banda Aceh, Gampong Ulee Gle, Kec. Bandar Dua, Kabupaten Pidie Jaya, Aceh";"Kabupaten Pidie Jaya, Aceh";"ACEH";"";"Indonesia";" 085254096585";"5.2017787";"96.316129";"https://maps.google.com/?cid=0x0:0xbfdc4c9aa7d87549"
"cafe";"Kedai Kopi";"Warkop Mahrizal";"68FC+49P, Keude Jangka Buya, Kec. Jangka Buya, Kabupaten Pidie Jaya, Aceh";"Kabupaten Pidie Jaya, Aceh";"ACEH";"";"Indonesia";" 085260704988";"5.222848";"96.3209538";"https://maps.google.com/?cid=0x0:0xd5e923e66dfb74fa"
"cafe";"cafe";"Kec. Meurah Dua";"Kabupaten Pidie Jaya, Aceh";"Kabupaten Pidie Jaya, Aceh";"ACEH";"";"Indonesia";"";"5.2327384";"96.2601989";"https://maps.google.com/?cid=0x0:0x18b794cb75a359ca"
"cafe";"Restoran";"UZAY COFFE MEUREUDU";"7722+MG9, Kota Meureudu, Kec. Meureudu, Kabupaten Pidie Jaya, Aceh";"Kabupaten Pidie Jaya, Aceh";"ACEH";"";"Indonesia";"";"5.2516687";"96.2513541";"https://maps.google.com/?cid=0x0:0xcc062edc68b64cee"
"cafe";"Kafe";"HAMBA KOPI";"Meunasah Bie, Kec. Meurah Dua, Kabupaten Pidie Jaya, Aceh 24186";"Kec. Meurah Dua, Kabupaten Pidie Jaya";"ACEH";"24186";"Indonesia";" 082273440010";"5.2330503";"96.2593914";"https://maps.google.com/?cid=0x0:0x768187208c7d806b"
"cafe";"Kedai Kopi";"Balee kupi";"7728+CCV, Jalan Rel Kereta Api, Meunasah Juroeng, Teupin Pukat, Beuringen, Meurah Dua, Pidie Jaya Regency, Aceh";"Kabupaten Pidie Jaya, Aceh";"ACEH";"";"Indonesia";"";"5.2515873";"96.2653955";"https://maps.google.com/?cid=0x0:0x8243f4a1d082d853"
"cafe";"Kedai Kopi";"Warkop Mawar Dua";"66PW+2FM, Dayah Timu, Kec. Meureudu, Kabupaten Pidie Jaya, Aceh";"Kabupaten Pidie Jaya, Aceh";"ACEH";"";"Indonesia";" 081360455465";"5.2350889";"96.2461684";"https://maps.google.com/?cid=0x0:0x17aec78d8481b855"
"cafe";"Kedai Kopi";"terminalTOR Coffe";"67J6+RVF, Meunasah Bie, Kec. Meurah Dua, Kabupaten Pidie Jaya, Aceh";"Kabupaten Pidie Jaya, Aceh";"ACEH";"";"Indonesia";" 085262704212";"5.2320682";"96.2621647";"https://maps.google.com/?cid=0x0:0xc282b1d40415aa94"
"cafe";"Sarapan";"Murah mulia kupi";"58W9+QRV, Gampong Ulee Gle, Kec. Bandar Dua, Kabupaten Pidie Jaya, Aceh 24162";"Gampong Ulee Gle, Kec. Bandar Dua, Kabupaten Pidie Jaya";"ACEH";"24162";"Indonesia";" 082272260421";"5.1969847";"96.3195572";"https://maps.google.com/?cid=0x0:0x32d5d7aaa3131113"
"cafe";"Kafe";"WAROENG MUISMA COFFEE GARDEN";"Taman Kota, Komplek Perkantoran Pemerintah, Manyang Lancok, Kec. Meureudu, Kabupaten Pidie Jaya, Aceh 24186";"Komplek Perkantoran Pemerintah, Manyang Lancok, Kec. Meureudu, Kabupaten Pidie Jaya";"ACEH";"24186";"Indonesia";" 082272535853";"5.2286908";"96.2438354";"https://maps.google.com/?cid=0x0:0x91f20e2424eee0ee"
"cafe";"Restoran";"Family-16 coffe mereudu";"66RW+WR8, Meunasah Lhok, Kec. Meureudu, Kabupaten Pidie Jaya, Aceh";"Kabupaten Pidie Jaya, Aceh";"ACEH";"";"Indonesia";"";"5.242295";"96.2470707";"https://maps.google.com/?cid=0x0:0xf979dc63dfbcdc99"
"cafe";"Kedai Kopi";"TUWAGA Kupi";"Jl. Tgk. Syik Pante Geulima, gampong pulo, Kec. Meureudu, Kabupaten Pidie Jaya, Aceh 23186";"gampong pulo, Kec. Meureudu, Kabupaten Pidie Jaya";"ACEH";"23186";"Indonesia";" 085360008393";"5.2367827";"96.2470418";"https://maps.google.com/?cid=0x0:0xac7fe193206320bd"
"cafe";"Kafe";"Warkop Ulee Tutue";"7723+V3F, Kota Meureudu, Kec. Meureudu, Kabupaten Pidie Jaya, Aceh";"Kabupaten Pidie Jaya, Aceh";"ACEH";"";"Indonesia";"";"5.2521856";"96.2526825";"https://maps.google.com/?cid=0x0:0x9e2f80d45ddb89fa"
"cafe";"Kedai Kopi";"Wali Kupi";"7722+MJF, Jl. Rel Kereta Api, Kota Meureudu, Kec. Meureudu, Kabupaten Pidie Jaya, Aceh";"Kabupaten Pidie Jaya, Aceh";"ACEH";"";"Indonesia";" 081362181757";"5.2516986";"96.2515439";"https://maps.google.com/?cid=0x0:0x70e5127d4f4b474a"
"cafe";"Bar Kopi Espresso";"Hawana Caffe";"7724+X9R, Pante Beureune, Kec. Meurah Dua, Kabupaten Pidie Jaya, Aceh";"Kabupaten Pidie Jaya, Aceh";"ACEH";"";"Indonesia";"";"5.2524997";"96.2558978";"https://maps.google.com/?cid=0x0:0x4e792667ff8aab41"
"cafe";"Kedai Kopi";"Pulo Kupie";"66QX+M3C, Jl. Tgk. Syik Pante Geulima, Meunasah Lhok, Kec. Meureudu, Kabupaten Pidie Jaya, Aceh";"Kabupaten Pidie Jaya, Aceh";"ACEH";"";"Indonesia";" 082166341779";"5.2391856";"96.247653";"https://maps.google.com/?cid=0x0:0xa40be909eb28d964"
"cafe";"cafe";"Aceh 24186";"Kec. Meureudu, Kabupaten Pidie, Aceh";"Kabupaten Pidie, Aceh";"ACEH";"";"Indonesia";"";"4.9071931";"96.1102943";"https://maps.google.com/?cid=0x0:0xdafdcbfd9953f40d"
"cafe";"Restoran";"UZAY COFFE MEUREUDU";"7722+MG9, Kota Meureudu, Kec. Meureudu, Kabupaten Pidie Jaya, Aceh";"Kabupaten Pidie Jaya, Aceh";"ACEH";"";"Indonesia";"";"5.2516687";"96.2513541";"https://maps.google.com/?cid=0x0:0xcc062edc68b64cee"
"cafe";"Kafe";"WAROENG MUISMA COFFEE GARDEN";"Taman Kota, Komplek Perkantoran Pemerintah, Manyang Lancok, Kec. Meureudu, Kabupaten Pidie Jaya, Aceh 24186";"Komplek Perkantoran Pemerintah, Manyang Lancok, Kec. Meureudu, Kabupaten Pidie Jaya";"ACEH";"24186";"Indonesia";" 082272535853";"5.2286908";"96.2438354";"https://maps.google.com/?cid=0x0:0x91f20e2424eee0ee"
"cafe";"Dapur Umum";"CEK LEM CAFE";"V43H+4GP, Leupu, Kec. Geumpang, Kabupaten Pidie, Aceh 24186";"Leupu, Kec. Geumpang, Kabupaten Pidie";"ACEH";"24186";"Indonesia";"";"4.8528286";"96.1288426";"https://maps.google.com/?cid=0x0:0x952ea9e1bfadb1d7"
"cafe";"Kedai Kopi";"Jambo Diruy Cafe | Musa";"736X+62P, Jl. Lintas Sumatra Musa, Mns Baroh Musa, Kec. Bandar Baru, Kabupaten Pidie Jaya, Aceh 24186";"Jl. Lintas Sumatra Musa, Mns Baroh Musa, Kec. Bandar Baru, Kabupaten Pidie Jaya";"ACEH";"24186";"Indonesia";" 082362687920";"5.260592";"96.09757";"https://maps.google.com/?cid=0x0:0xf6c630da62096381"
"cafe";"Sarapan";"Murah mulia kupi";"58W9+QRV, Gampong Ulee Gle, Kec. Bandar Dua, Kabupaten Pidie Jaya, Aceh 24162";"Gampong Ulee Gle, Kec. Bandar Dua, Kabupaten Pidie Jaya";"ACEH";"24162";"Indonesia";" 082272260421";"5.1969847";"96.3195572";"https://maps.google.com/?cid=0x0:0x32d5d7aaa3131113"
"cafe";"Kedai Kopi";"Keudai Kopi Ie Leubeu";"82FQ+H57, Unnamed Road, Keude Ie Leubeue, Kec. Kembang Tj., Kabupaten Pidie, Aceh";"Kabupaten Pidie, Aceh";"ACEH";"";"Indonesia";"";"5.3239167";"96.0379188";"https://maps.google.com/?cid=0x0:0x52218ecb88da4c50"
"cafe";"Kedai Kopi";"Candu Kupi";"Jl. Medan Banda Aceh, Beureunuen, Kec. Mutiara, Kabupaten Pidie, Aceh 24173";"Beureunuen, Kec. Mutiara, Kabupaten Pidie";"ACEH";"24173";"Indonesia";"";"5.277065";"95.9813315";"https://maps.google.com/?cid=0x0:0x99504e3d321b17c6"
"cafe";"Kedai Kopi";"Cek Min Kupi";"9WGV+3X7, Keuniree, Kec. Pidie, Kabupaten Pidie, Aceh 24164";"Keuniree, Kec. Pidie, Kabupaten Pidie";"ACEH";"24164";"Indonesia";" 085213933211";"5.3751634";"95.944914";"https://maps.google.com/?cid=0x0:0x77a597d47bb9b302"
"cafe";"Kedai Kopi";"Seutel kupi";"cubo indonesia, Meunasah, Kec. Meureudu, Kabupaten Pidie Jaya, Aceh 24188";"Meunasah, Kec. Meureudu, Kabupaten Pidie Jaya";"ACEH";"24188";"Indonesia";" 082279247104";"5.2167967";"96.1105682";"https://maps.google.com/?cid=0x0:0x10b7644eb387ffae"
"cafe";"Kedai Kopi";"Warung Kopi Cek Pon Bahtera";"7722+QVM, Jl. Rel Kereta Api, Kota Meureudu, Kec. Meureudu, Kabupaten Pidie Jaya, Aceh";"Kabupaten Pidie Jaya, Aceh";"ACEH";"";"Indonesia";"";"5.2519579";"96.2521713";"https://maps.google.com/?cid=0x0:0x6621b8d59d7ad8f3"
"cafe";"Kafe";"J.MO Coffee";"Simpang PT, Turue Cut, Sigli, Kabupaten Pidie, Aceh 24167";"Turue Cut, Sigli, Kabupaten Pidie";"ACEH";"24167";"Indonesia";" 082277185591";"4.854135";"96.1021192";"https://maps.google.com/?cid=0x0:0x666f30bb790c31e8"
"cafe";"Kafe";"Warkop Ulee Tutue";"7723+V3F, Kota Meureudu, Kec. Meureudu, Kabupaten Pidie Jaya, Aceh";"Kabupaten Pidie Jaya, Aceh";"ACEH";"";"Indonesia";"";"5.2521856";"96.2526825";"https://maps.google.com/?cid=0x0:0x9e2f80d45ddb89fa"
"cafe";"Kafe";"Puncak Jaya Kafe";"R4HH+29W, Hutan, Kec. Geumpang, Kabupaten Pidie, Aceh 24186";"Hutan, Kec. Geumpang, Kabupaten Pidie";"ACEH";"24186";"Indonesia";"";"4.8276065";"96.1284527";"https://maps.google.com/?cid=0x0:0xc62c8f33fe7b902f"
"cafe";"cafe";"Kec. Panteraja";"Kabupaten Pidie Jaya, Aceh";"Kabupaten Pidie Jaya, Aceh";"ACEH";"";"Indonesia";"";"5.2718147";"96.1449859";"https://maps.google.com/?cid=0x0:0x316e7cb7d66a0d00"
"cafe";"Kedai Kopi";"Uwais Kupi";"Tu Pantee Raja, Kec. Panteraja, Kabupaten Pidie Jaya, Aceh";"Kabupaten Pidie Jaya, Aceh";"ACEH";"";"Indonesia";" 082261106128";"5.2718407";"96.1311769";"https://maps.google.com/?cid=0x0:0x9fa91057e30e9f27"
"cafe";"Kafe";"Uleetiti.coffe";"Keude, Kec. Panteraja, Kabupaten Pidie Jaya, Aceh";"Kabupaten Pidie Jaya, Aceh";"ACEH";"";"Indonesia";" 085360124440";"5.2737133";"96.1399905";"https://maps.google.com/?cid=0x0:0x55c72d970401d1b6"
"cafe";"Kedai Kopi";"Aceh Kupi";"755J+WCJ, Jl. Medan Banda Aceh, Sagoe, Kec. Trienggadeng, Kabupaten Pidie Jaya, Aceh";"Kabupaten Pidie Jaya, Aceh";"ACEH";"";"Indonesia";"";"5.2598331";"96.181021";"https://maps.google.com/?cid=0x0:0x3a393976f1cc3881"
"cafe";"Dapur Umum";"WARUNG TERATAI";"Jl. Medan - Banda Aceh, Keude, Kec. Panteraja, Kabupaten Pidie Jaya, Aceh";"Kabupaten Pidie Jaya, Aceh";"ACEH";"";"Indonesia";" 087734984414";"5.2709728";"96.1458824";"https://maps.google.com/?cid=0x0:0xa13baba8d9fa2601"
"cafe";"";"PONDOK BERKAH";"Wisata Islami Trienggadeng, Sagoe, Kec. Meureudu, Kabupaten Pidie Jaya, Aceh 24185";"Sagoe, Kec. Meureudu, Kabupaten Pidie Jaya";"ACEH";"24185";"Indonesia";" 082294643637";"5.2629038";"96.1752588";"https://maps.google.com/?cid=0x0:0x5a48d372a313af91"
"cafe";"Kafe";"KATARI Coffee";"Jl. Medan - Banda Aceh No.desa, Sagoe, Kec. Trienggadeng, Kabupaten Pidie Jaya, Aceh";"Kabupaten Pidie Jaya, Aceh";"ACEH";"";"Indonesia";"";"5.2620229";"96.170801";"https://maps.google.com/?cid=0x0:0xef95c03dc989157b"
"cafe";"Kafe";"Cafe  Resto Pusaka Indatu";"748H+RV, Hagu, Kec. Panteraja, Kabupaten Pidie Jaya, Aceh";"Kabupaten Pidie Jaya, Aceh";"ACEH";"";"Indonesia";"";"5.26705";"96.129664";"https://maps.google.com/?cid=0x0:0x426dcd43b62b8ce4"
"cafe";"Kedai Kopi";"Cek Sal Kopi";"755J+VJM, Sagoe, Kec. Trienggadeng, Kabupaten Pidie Jaya, Aceh";"Kabupaten Pidie Jaya, Aceh";"ACEH";"";"Indonesia";"";"5.2597113";"96.1815543";"https://maps.google.com/?cid=0x0:0x4ef98a2dd9bc518a"
"cafe";"Restoran";"Warung Arafah - wifi hotspot";"Gampong, Reudeup, Kec. Panteraja, Kabupaten Pidie Jaya, Aceh 24185";"Reudeup, Kec. Panteraja, Kabupaten Pidie Jaya";"ACEH";"24185";"Indonesia";" 081236328019";"5.2651737";"96.1659093";"https://maps.google.com/?cid=0x0:0x3d69027f9be16b6e"
"cafe";"Kafe";"Deha Cafe";"Jl. Lingkar Blang Paseh No.3A, Lampeudeu Baroh, Kec. Pidie, Kabupaten Pidie, Aceh 24112";"Lampeudeu Baroh, Kec. Pidie, Kabupaten Pidie";"ACEH";"24112";"Indonesia";" 082211222011";"5.3688736";"95.9601549";"https://maps.google.com/?cid=0x0:0xf98ecb62154e62f9"
"cafe";"Kedai Kopi";"Rumah brunos";"64XJ+23M, Lhok Pu'uk, Kec. Panteraja, Kabupaten Pidie Jaya, Aceh";"Kabupaten Pidie Jaya, Aceh";"ACEH";"";"Indonesia";"";"5.2468333";"96.1307258";"https://maps.google.com/?cid=0x0:0x923ee06564236bd9"
"cafe";"Kafe";"BALEI OEN";"Jl. Medan - Banda Aceh No.Km. 140, Paru, Keude, Kec. Bandar Baru, Kabupaten Pidie Jaya, Aceh 24184";"Paru, Keude, Kec. Bandar Baru, Kabupaten Pidie Jaya";"ACEH";"24184";"Indonesia";" 085217241240";"5.2640576";"96.1186039";"https://maps.google.com/?cid=0x0:0x8e8dbeeafbf4b59d"
"cafe";"Kedai Kopi";"NIKMAT KOPI TRIENGGADENG";"Jl. Medan - Banda Aceh No.KM. 147, Sagoe, Kec. Trienggadeng, Kabupaten Pidie Jaya, Aceh 24185";"Sagoe, Kec. Trienggadeng, Kabupaten Pidie Jaya";"ACEH";"24185";"Indonesia";" 082136381970";"5.259928";"96.1806127";"https://maps.google.com/?cid=0x0:0xe3799aadf0d3e698"
"cafe";"cafe";"Kec. Trienggadeng";"Kabupaten Pidie Jaya, Aceh";"Kabupaten Pidie Jaya, Aceh";"ACEH";"";"Indonesia";"";"5.259028";"96.1834886";"https://maps.google.com/?cid=0x0:0x47f2879d2ad38e99"
"cafe";"Kedai Kopi";"NIKMAT KOPI TRIENGGADENG";"Jl. Medan - Banda Aceh No.KM. 147, Sagoe, Kec. Trienggadeng, Kabupaten Pidie Jaya, Aceh 24185";"Sagoe, Kec. Trienggadeng, Kabupaten Pidie Jaya";"ACEH";"24185";"Indonesia";" 082136381970";"5.259928";"96.1806127";"https://maps.google.com/?cid=0x0:0xe3799aadf0d3e698"
"cafe";"Kedai Kopi";"Aceh Kupi";"755J+WCJ, Jl. Medan Banda Aceh, Sagoe, Kec. Trienggadeng, Kabupaten Pidie Jaya, Aceh";"Kabupaten Pidie Jaya, Aceh";"ACEH";"";"Indonesia";"";"5.2598331";"96.181021";"https://maps.google.com/?cid=0x0:0x3a393976f1cc3881"
"cafe";"Kedai Kopi";"Kuala Cot Pasi Trienggadeng";"755M+XW3, Keude, Kec. Trienggadeng, Kabupaten Pidie Jaya, Aceh";"Kabupaten Pidie Jaya, Aceh";"ACEH";"";"Indonesia";" 081220743214";"5.2598835";"96.1847878";"https://maps.google.com/?cid=0x0:0xc70960eaeb2cabd"
"cafe";"";"PONDOK BERKAH";"Wisata Islami Trienggadeng, Sagoe, Kec. Meureudu, Kabupaten Pidie Jaya, Aceh 24185";"Sagoe, Kec. Meureudu, Kabupaten Pidie Jaya";"ACEH";"24185";"Indonesia";" 082294643637";"5.2629038";"96.1752588";"https://maps.google.com/?cid=0x0:0x5a48d372a313af91"
"cafe";"Kedai Kopi";"Meugah Coffee";"66QG+PQ2, Kuta Trieng, Kec. Meureudu, Kabupaten Pidie Jaya, Aceh";"Kabupaten Pidie Jaya, Aceh";"ACEH";"";"Indonesia";" 081269178889";"5.2392566";"96.2268838";"https://maps.google.com/?cid=0x0:0xca0dcc60239f0d56"
"cafe";"Kafe";"KATARI Coffee";"Jl. Medan - Banda Aceh No.desa, Sagoe, Kec. Trienggadeng, Kabupaten Pidie Jaya, Aceh";"Kabupaten Pidie Jaya, Aceh";"ACEH";"";"Indonesia";"";"5.2620229";"96.170801";"https://maps.google.com/?cid=0x0:0xef95c03dc989157b"
"cafe";"Kedai Kopi";"Cek Sal Kopi";"755J+VJM, Sagoe, Kec. Trienggadeng, Kabupaten Pidie Jaya, Aceh";"Kabupaten Pidie Jaya, Aceh";"ACEH";"";"Indonesia";"";"5.2597113";"96.1815543";"https://maps.google.com/?cid=0x0:0x4ef98a2dd9bc518a"
"cafe";"Kafe";"Deah Coffe";"Deah Pangwa, Kec. Trienggadeng, Kabupaten Pidie Jaya, Aceh";"Kabupaten Pidie Jaya, Aceh";"ACEH";"";"Indonesia";" 085217225779";"5.2516507";"96.2308546";"https://maps.google.com/?cid=0x0:0x8a1f63802499bfbe"
"cafe";"Restoran";"MUN KUPI";"Mee Pangwa, Kec. Trienggadeng, Kabupaten Pidie Jaya, Aceh";"Kabupaten Pidie Jaya, Aceh";"ACEH";"";"Indonesia";" 081263701577";"5.2472336";"96.212153";"https://maps.google.com/?cid=0x0:0xc9826054a963674b"
"cafe";"Kafe";"Warkop Memet Anderus";"65QC+82X, Reuseb, Kec. Trienggadeng, Kabupaten Pidie Jaya, Aceh";"Kabupaten Pidie Jaya, Aceh";"ACEH";"";"Indonesia";"";"5.2383749";"96.1701012";"https://maps.google.com/?cid=0x0:0x42d442d38ca76fe7"
"cafe";"Kafe";"Pondok 1212";"757G+X86, Sagoe, Kec. Trienggadeng, Kabupaten Pidie Jaya, Aceh";"Kabupaten Pidie Jaya, Aceh";"ACEH";"";"Indonesia";" 085276279750";"5.2649091";"96.1757621";"https://maps.google.com/?cid=0x0:0xad95839528072988"
"cafe";"Kafe";"TRG kupi";"754M+HHF, Keude, Kec. Trienggadeng, Kabupaten Pidie Jaya, Aceh";"Kabupaten Pidie Jaya, Aceh";"ACEH";"";"Indonesia";"";"5.2565388";"96.1839073";"https://maps.google.com/?cid=0x0:0xd4821c9bf3ac8c9d"
"cafe";"Kedai Kopi";"Kedai Kopi Nidar";"65G4+98F, Tampui, Kec. Trienggadeng, Kabupaten Pidie Jaya, Aceh 24187";"Tampui, Kec. Trienggadeng, Kabupaten Pidie Jaya";"ACEH";"24187";"Indonesia";"";"5.2259429";"96.1557933";"https://maps.google.com/?cid=0x0:0x987db993feb305d8"
"cafe";"cafe";"Aceh 24187";"Kabupaten Pidie, Aceh";"Kabupaten Pidie, Aceh";"ACEH";"";"Indonesia";"";"5.1830255";"95.956825";"https://maps.google.com/?cid=0x0:0x882e17494b2bb8c"
"cafe";"Kedai Kopi";"Warong Kupi Kawe";"Jl. Beureunuen - Tangse No.Desa, Kawe, Kec. Titeue, Kabupaten Pidie, Aceh 24181";"Kawe, Kec. Titeue, Kabupaten Pidie";"ACEH";"24181";"Indonesia";" 081262984442";"5.2410871";"95.9191312";"https://maps.google.com/?cid=0x0:0xbd1783ea25684aee"
"cafe";"Toko umum";"Simpang Pulo Raya";"6WJ7+2Q, Pulo Raya, Kec. Titeue, Kabupaten Pidie, Aceh";"Kabupaten Pidie, Aceh";"ACEH";"";"Indonesia";"";"5.2300234";"95.9143258";"https://maps.google.com/?cid=0x0:0xbfbfad57b3730abb"
"cafe";"Kedai Kopi";"Warkop ismail";"5WJM+JVG, Blang Rikui, Kec. Tiro/Truseb, Kabupaten Pidie, Aceh 24187";"Blang Rikui, Kec. Tiro/Truseb, Kabupaten Pidie";"ACEH";"24187";"Indonesia";"";"5.1815502";"95.9347182";"https://maps.google.com/?cid=0x0:0xe7ce368d43ed86be"
"cafe";"Kafe";"kuala kupi";"Kuala Simpang Ulim, Kec. Simpang Ulim, Kabupaten Aceh Timur, Aceh";"Kabupaten Aceh Timur, Aceh";"ACEH";"";"Indonesia";" 082276025103";"5.1417929";"97.594698";"https://maps.google.com/?cid=0x0:0x489195f4c8992b5f"
"cafe";"Kafe";"Warung Kopi Sulaiman";"6VCP+H9F, Unnamed Road, Papeuen Nicah, Kec. Keumala, Kabupaten Pidie, Aceh 24187";"Unnamed Road, Papeuen Nicah, Kec. Keumala, Kabupaten Pidie";"ACEH";"24187";"Indonesia";" 082365511855";"5.2214305";"95.8859149";"https://maps.google.com/?cid=0x0:0x305653be69edbed"
"cafe";"Kafe";"Warkop Cek Mi";"6W5R+HH6, Pulo Tambo, Kec. Tiro/Truseb, Kabupaten Pidie, Aceh 24181";"Pulo Tambo, Kec. Tiro/Truseb, Kabupaten Pidie";"ACEH";"24181";"Indonesia";" 081336808480";"5.2089183";"95.941401";"https://maps.google.com/?cid=0x0:0xb1ff1c94bc90ae0d"
"cafe";"Kedai Kopi";"Keudee Kupi Yusri";"6X57+57P, Jl. Simpang Blang Lincah, Mns. Panah, Kec. Tiro/Truseb, Kabupaten Pidie, Aceh 24116";"Jl. Simpang Blang Lincah, Mns. Panah, Kec. Tiro/Truseb, Kabupaten Pidie";"ACEH";"24116";"Indonesia";"";"5.2079671";"95.963193";"https://maps.google.com/?cid=0x0:0xd9012ec6d8fa009a"
"cafe";"Kafe";"Keude bg lias";"6WF8+JW6, Pulo Loih, Kec. Titeue, Kabupaten Pidie, Aceh";"Kabupaten Pidie, Aceh";"ACEH";"";"Indonesia";"";"5.2240378";"95.9172729";"https://maps.google.com/?cid=0x0:0x205ffb6ccda703d9"
"cafe";"Kafe";"Warong kopi murah jaya";"6VMQ+QQG, Jijiem, Kec. Keumala, Kabupaten Pidie, Aceh 24187";"Jijiem, Kec. Keumala, Kabupaten Pidie";"ACEH";"24187";"Indonesia";" 082284821346";"5.2344298";"95.889448";"https://maps.google.com/?cid=0x0:0xb1a501e0e8f9fb6d"
"cafe";"Kedai Kopi";"Jambo Kupi Abusyik";"6WQ6+872, Jl. Beureunuen - Tangse, Paloh Naleung, Kec. Titeue, Kabupaten Pidie, Aceh 24181";"Jl. Beureunuen - Tangse, Paloh Naleung, Kec. Titeue, Kabupaten Pidie";"ACEH";"24181";"Indonesia";" 082366210336";"5.2382676";"95.9106338";"https://maps.google.com/?cid=0x0:0x5a0929fe14ba1d06"
"cafe";"Kafe";"Warkop Sp Ulim";"FR2C+9WX, Tanoh Anou, Kec. Teunom, Kabupaten Aceh Jaya, Aceh 23653";"Tanoh Anou, Kec. Teunom, Kabupaten Aceh Jaya";"ACEH";"23653";"Indonesia";"";"4.4509802";"95.8223467";"https://maps.google.com/?cid=0x0:0x74f1cad8660a5e4e"
"cafe";"Kedai Kopi";"Aneuk titeue coffee";"6WRF+2MM, Dayah Menara, Kec. Titeue, Kabupaten Pidie, Aceh 24114";"Dayah Menara, Kec. Titeue, Kabupaten Pidie";"ACEH";"24114";"Indonesia";" 085359846090";"5.2400886";"95.9241734";"https://maps.google.com/?cid=0x0:0x95f2885def27995b"
"cafe";"Kafe";"Air tebu mustajab";"Jl. Tong Peudeng, Pulo Raya, Kec. Titeue, Kabupaten Pidie, Aceh 24111";"Pulo Raya, Kec. Titeue, Kabupaten Pidie";"ACEH";"24111";"Indonesia";" 085359056815";"5.2323428";"95.915918";"https://maps.google.com/?cid=0x0:0x3bbf1bece018a00d"
"hotel";"hotel";"Aceh 24184";"Kabupaten Aceh Utara, Aceh";"Kabupaten Aceh Utara, Aceh";"ACEH";"";"Indonesia";"";"5.1373361";"96.8887202";"https://maps.google.com/?cid=0x0:0x9968bf9e9ed3fc5b"
"hotel";"hotel";"N/A";"";"";"ACEH";"";"Indonesia";"";"";"";"https://maps.google.com/?cid=0x0:0xe852c31754754718%7C/g/11clv_q3dk%7Cid-ID"
"hotel";"hotel";"Grand Aceh Hotel";"Jl. Dr. Mr. Mohd Hasan, Sukadamai, Kec. Lueng Bata, Kota Banda Aceh, Aceh 23127";"Sukadamai, Kec. Lueng Bata, Kota Banda Aceh";"ACEH";"23127";"Indonesia";" 082283801100";"5.5485836";"95.3299402";"https://maps.google.com/?cid=0x0:0xe852c31754754718"
"hotel";"hotel";"My Home Hotel Aceh";"Jl Sri Ratu Safiatuddin Block 6-8 C, Peunayong, Kota Banda Aceh, Aceh 23122";"Peunayong, Kota Banda Aceh";"ACEH";"23122";"Indonesia";" 08116880309";"5.5562393";"95.3202007";"https://maps.google.com/?cid=0x0:0x3e065603363be38c"
"hotel";"hotel";"SEI Hotel Banda Aceh";"Jl. Tanoh Abee No.71, Mulia, Kec. Kuta Alam, Kota Banda Aceh, Aceh 23123";"Mulia, Kec. Kuta Alam, Kota Banda Aceh";"ACEH";"23123";"Indonesia";" 082185106952";"5.5628844";"95.322844";"https://maps.google.com/?cid=0x0:0xd10e8fa03b750c2e"
"hotel";"hotel";"Ayani Hotel Banda Aceh";"Jl. Jend. Ahmad Yani No.20, Peunayong, Kec. Kuta Alam, Kota Banda Aceh, Aceh 23122";"Peunayong, Kec. Kuta Alam, Kota Banda Aceh";"ACEH";"23122";"Indonesia";" 06518012111";"5.5570339";"95.3193251";"https://maps.google.com/?cid=0x0:0xc7d116533d0b5450"
"hotel";"hotel";"N/A";"";"";"ACEH";"";"Indonesia";"";"";"";"https://maps.google.com/?cid=0x0:0xc7d116533d0b5450%7C/g/11c1l49977%7Cid-ID"
"hotel";"hotel";"Hotel Amoda dan Cafe";"Landom, Kec. Lueng Bata, Kota Banda Aceh, Aceh 23122";"Kec. Lueng Bata, Kota Banda Aceh";"ACEH";"23122";"Indonesia";" 06517316039";"5.5320287";"95.3386727";"https://maps.google.com/?cid=0x0:0xe8b4e4d38b5a3c6e"
"hotel";"hotel";"Abaka Hotel";"H923+746, Lamglumpang, Kec. Ulee Kareng, Kota Banda Aceh, Aceh";"Kota Banda Aceh, Aceh";"ACEH";"";"Indonesia";" 08116820333";"5.5506624";"95.3527724";"https://maps.google.com/?cid=0x0:0x369db8e386d736b6"
"hotel";"hotel";"Hotel Kuta Karang Baru";"54GV+CCP, Jl. Panglateh, Simpang Empat, Kec. Banda Sakti, Kota Lhokseumawe, Aceh 24351";"Jl. Panglateh, Simpang Empat, Kec. Banda Sakti, Kota Lhokseumawe";"ACEH";"24351";"Indonesia";" 02129707601";"5.1762103";"97.1435902";"https://maps.google.com/?cid=0x0:0x871c9eeab8441fdb"
"hotel";"hotel";"N/A";"";"";"ACEH";"";"Indonesia";"";"";"";"https://maps.google.com/?cid=0x0:0x871c9eeab8441fdb%7C/g/1pzrvc1lt%7Cid-ID"
"hotel";"hotel";"Quanza Hotel";"Jl. T. Panglima Nyak Makam, Doi, Kec. Ulee Kareng, Kota Banda Aceh, Aceh 23117";"Doi, Kec. Ulee Kareng, Kota Banda Aceh";"ACEH";"23117";"Indonesia";" 082113199476";"5.55557";"95.3446425";"https://maps.google.com/?cid=0x0:0xe237be3cffbe8963"
"hotel";"hotel";"Homestay Kanaya 150ribu/malam";"Jl. Antara, Kuta Blang, Kec. Banda Sakti, Kota Lhokseumawe, Aceh 24351";"Kuta Blang, Kec. Banda Sakti, Kota Lhokseumawe";"ACEH";"24351";"Indonesia";" 08116800065";"5.1853415";"97.1375902";"https://maps.google.com/?cid=0x0:0xcb7b5a23fe71fcfe"
"hotel";"hotel";"Hotel Madinah";"Jl. T. Daud Beureueh, Kuta Alam, Bandar Baru, Kec. Kuta Alam, Kota Banda Aceh, Aceh";"Kota Banda Aceh, Aceh";"ACEH";"";"Indonesia";" 065121415";"5.5660745";"95.3373368";"https://maps.google.com/?cid=0x0:0x93db35951bec102a"
"hotel";"hotel";"Aceh 24188";"Hutan (Bandar Dua), Kec. Bandar Dua, Kabupaten Pidie Jaya, Aceh";"Kabupaten Pidie Jaya, Aceh";"ACEH";"";"Indonesia";"";"5.119276";"96.1155932";"https://maps.google.com/?cid=0x0:0xb55f6220579e0177"
"hotel";"hotel";"Grand Aceh Hotel";"Jl. Dr. Mr. Mohd Hasan, Sukadamai, Kec. Lueng Bata, Kota Banda Aceh, Aceh 23127";"Sukadamai, Kec. Lueng Bata, Kota Banda Aceh";"ACEH";"23127";"Indonesia";" 082283801100";"5.5485836";"95.3299402";"https://maps.google.com/?cid=0x0:0xe852c31754754718"
"hotel";"hotel";"N/A";"";"";"ACEH";"";"Indonesia";"";"";"";"https://maps.google.com/?cid=0x0:0xe852c31754754718%7C/g/11clv_q3dk%7Cid-ID"
"hotel";"hotel";"N/A";"";"";"ACEH";"";"Indonesia";"";"";"";"https://maps.google.com/?cid=0x0:0xc7d116533d0b5450%7C/g/11c1l49977%7Cid-ID"
"hotel";"hotel";"N/A";"";"";"ACEH";"";"Indonesia";"";"";"";"https://maps.google.com/?cid=0x0:0x6cd89c85700bbc70%7C/g/11bw66kkg8%7Cid-ID"
"hotel";"hotel";"Hotel Mekkah";"Daud Beureu'eh Lampriet, Jl. Tgk Daud Beureueh, Bandar Baru, Kec. Kuta Alam, Kota Banda Aceh, Aceh 23126";"Jl. Tgk Daud Beureueh, Bandar Baru, Kec. Kuta Alam, Kota Banda Aceh";"ACEH";"23126";"Indonesia";" 081262975052";"5.566531";"95.3379111";"https://maps.google.com/?cid=0x0:0x6cd89c85700bbc70"
"hotel";"hotel";"Hotel Amoda dan Cafe";"Landom, Kec. Lueng Bata, Kota Banda Aceh, Aceh 23122";"Kec. Lueng Bata, Kota Banda Aceh";"ACEH";"23122";"Indonesia";" 06517316039";"5.5320287";"95.3386727";"https://maps.google.com/?cid=0x0:0xe8b4e4d38b5a3c6e"
"hotel";"hotel";"Hotel Madinah";"Jl. T. Daud Beureueh, Kuta Alam, Bandar Baru, Kec. Kuta Alam, Kota Banda Aceh, Aceh";"Kota Banda Aceh, Aceh";"ACEH";"";"Indonesia";" 065121415";"5.5660745";"95.3373368";"https://maps.google.com/?cid=0x0:0x93db35951bec102a"
"hotel";"hotel";"Hotel Medan";"Jl. Jend. Ahmad Yani No.17, Peunayong, Kec. Kuta Alam, Kota Banda Aceh, Aceh";"Kota Banda Aceh, Aceh";"ACEH";"";"Indonesia";" 065121501";"5.5574522";"95.3187103";"https://maps.google.com/?cid=0x0:0x42083d304b99e444"
"hotel";"hotel";"N/A";"";"";"ACEH";"";"Indonesia";"";"";"";"https://maps.google.com/?cid=0x0:0x42083d304b99e444%7C/g/1ptxwt8_b%7Cid-ID"
"hotel";"hotel";"Quanza Hotel";"Jl. T. Panglima Nyak Makam, Doi, Kec. Ulee Kareng, Kota Banda Aceh, Aceh 23117";"Doi, Kec. Ulee Kareng, Kota Banda Aceh";"ACEH";"23117";"Indonesia";" 082113199476";"5.55557";"95.3446425";"https://maps.google.com/?cid=0x0:0xe237be3cffbe8963"
"hotel";"hotel";"Grand Emperom Hotel Banda Aceh";"Jl. H. Binti, Garot, Kec. Darul Imarah, Kabupaten Aceh Besar, Aceh 20233";"Garot, Kec. Darul Imarah, Kabupaten Aceh Besar";"ACEH";"20233";"Indonesia";" 08116820224";"5.527447";"95.2953434";"https://maps.google.com/?cid=0x0:0x6e768e99fe4cac8d"
"hotel";"hotel";"N/A";"";"";"ACEH";"";"Indonesia";"";"";"";"https://maps.google.com/?cid=0x0:0x6e768e99fe4cac8d%7C/g/11h8918dwd%7Cid-ID"
"hotel";"hotel";"Hotel GM Inn Syariah";"Jl. Khairil Anwar No.15-19, Peunayong, Kec. Kuta Alam, Kota Banda Aceh, Aceh 24415";"Peunayong, Kec. Kuta Alam, Kota Banda Aceh";"ACEH";"24415";"Indonesia";" 085320377277";"5.5578239";"95.3210393";"https://maps.google.com/?cid=0x0:0xd71753ea4dca80bb"
"hotel";"hotel";"Kec. Jangka Buya";"Kabupaten Pidie Jaya, Aceh";"Kabupaten Pidie Jaya, Aceh";"ACEH";"";"Indonesia";"";"5.2242158";"96.3121613";"https://maps.google.com/?cid=0x0:0xd6fccc30f37acb80"
"hotel";"hotel";"Hotel Ananda";"66WX+5FJ, Jl. Tgk. Syik Pante Geulima, Mesjid Tuha, Kec. Meureudu, Kabupaten Pidie Jaya, Aceh";"Kabupaten Pidie Jaya, Aceh";"ACEH";"";"Indonesia";" 081377271359";"5.2452178";"96.2487874";"https://maps.google.com/?cid=0x0:0x3ae8e6be024f64c9"
"hotel";"hotel";"RedDoorz Syariah @ Dynamic Samalanga";"6928+CW5, Namploh Krueng, Kec. Samalanga, Kabupaten Bireuen, Aceh";"Kabupaten Bireuen, Aceh";"ACEH";"";"Indonesia";" 0895417300072";"5.2009806";"96.3673259";"https://maps.google.com/?cid=0x0:0x4bc0626748b63cdc"
"hotel";"hotel";"Wisma Ayu Pidie Jaya";"Meureudu, Jl. Tgk. Syik Pante Geulima, Mesjid Tuha, Kec. Meureudu, Kabupaten Pidie Jaya, Aceh 24186";"Jl. Tgk. Syik Pante Geulima, Mesjid Tuha, Kec. Meureudu, Kabupaten Pidie Jaya";"ACEH";"24186";"Indonesia";" 085373821129";"5.2503385";"96.2495111";"https://maps.google.com/?cid=0x0:0x586ec3ca31d0c093"
"hotel";"hotel";"Pidie Hotel";"Jl. Medan - Banda Aceh No.Km. 1, SP. Pidie, Kec. Kota Sigli, Kabupaten Pidie, Aceh 24173";"SP. Pidie, Kec. Kota Sigli, Kabupaten Pidie";"ACEH";"24173";"Indonesia";" 082116968401";"5.3794001";"95.9496961";"https://maps.google.com/?cid=0x0:0x2d732ee8b6c6cc6"
"hotel";"hotel";"PLUM Hotel Lading Banda Aceh";"Jl. Cut Mutia No.19, Kp. Baru, Kec. Baiturrahman, Kota Banda Aceh, Aceh 23242";"Kp. Baru, Kec. Baiturrahman, Kota Banda Aceh";"ACEH";"23242";"Indonesia";" 08116888089";"5.5558086";"95.3174426";"https://maps.google.com/?cid=0x0:0x9ff50911ab5454e1"
"hotel";"hotel";"Hotel Cempaka";"Blang Asan, Kec. Kota Sigli, Kabupaten Pidie, Aceh 24114";"Kec. Kota Sigli, Kabupaten Pidie";"ACEH";"24114";"Indonesia";" 065325370";"5.3800456";"95.9553681";"https://maps.google.com/?cid=0x0:0x8635f2338e510a0"
"hotel";"hotel";"Grand Blang Asan Hotel";"Jln.Tengku Chik Ditiro No.6, Blang Asan, Kec. Kota Sigli, Kabupaten Pidie, Aceh 24112";"Blang Asan, Kec. Kota Sigli, Kabupaten Pidie";"ACEH";"24112";"Indonesia";" 02129707601";"5.3789873";"95.9520578";"https://maps.google.com/?cid=0x0:0x404439b738a98d83"
"hotel";"hotel";"N/A";"";"";"ACEH";"";"Indonesia";"";"";"";"https://maps.google.com/?cid=0x0:0x404439b738a98d83%7C/g/11b6grsh53%7Cid-ID"
"hotel";"hotel";"Kec. Meurah Dua";"Kabupaten Pidie Jaya, Aceh";"Kabupaten Pidie Jaya, Aceh";"ACEH";"";"Indonesia";"";"5.2327384";"96.2601989";"https://maps.google.com/?cid=0x0:0x18b794cb75a359ca"
"hotel";"hotel";"Hotel Ananda";"66WX+5FJ, Jl. Tgk. Syik Pante Geulima, Mesjid Tuha, Kec. Meureudu, Kabupaten Pidie Jaya, Aceh";"Kabupaten Pidie Jaya, Aceh";"ACEH";"";"Indonesia";" 081377271359";"5.2452178";"96.2487874";"https://maps.google.com/?cid=0x0:0x3ae8e6be024f64c9"
"hotel";"hotel";"Quanza Hotel";"Jl. T. Panglima Nyak Makam, Doi, Kec. Ulee Kareng, Kota Banda Aceh, Aceh 23117";"Doi, Kec. Ulee Kareng, Kota Banda Aceh";"ACEH";"23117";"Indonesia";" 082113199476";"5.55557";"95.3446425";"https://maps.google.com/?cid=0x0:0xe237be3cffbe8963"
"hotel";"hotel";"Pidie Hotel";"Jl. Medan - Banda Aceh No.Km. 1, SP. Pidie, Kec. Kota Sigli, Kabupaten Pidie, Aceh 24173";"SP. Pidie, Kec. Kota Sigli, Kabupaten Pidie";"ACEH";"24173";"Indonesia";" 082116968401";"5.3794001";"95.9496961";"https://maps.google.com/?cid=0x0:0x2d732ee8b6c6cc6"
"hotel";"hotel";"Safira Hotel";"Jalan Diniah Lorong Walet No.4, Blang Paseh, Kec. Kota Sigli, Kabupaten Pidie, Aceh 24113";"Blang Paseh, Kec. Kota Sigli, Kabupaten Pidie";"ACEH";"24113";"Indonesia";" 081360007654";"5.3751333";"95.9697682";"https://maps.google.com/?cid=0x0:0x92e98654e369d432"
"hotel";"hotel";"Hotel Metro";"Jl. T. Ben Mahmud No.31, Hilir, Kec. Tapak Tuan, Kabupaten Aceh Selatan, Aceh 23711";"Hilir, Kec. Tapak Tuan, Kabupaten Aceh Selatan";"ACEH";"23711";"Indonesia";"";"3.2565036";"97.1720143";"https://maps.google.com/?cid=0x0:0x63a5e21910110d9b"
"hotel";"hotel";"Hotel Cempaka";"Blang Asan, Kec. Kota Sigli, Kabupaten Pidie, Aceh 24114";"Kec. Kota Sigli, Kabupaten Pidie";"ACEH";"24114";"Indonesia";" 065325370";"5.3800456";"95.9553681";"https://maps.google.com/?cid=0x0:0x8635f2338e510a0"
"hotel";"hotel";"Hotel Matang Raya";"Gampong, Bireun Meunasah Dayah, Matangglumpangdua, Peusangan, Kabupaten Bireuen, Aceh 24261";"Bireun Meunasah Dayah, Matangglumpangdua, Peusangan, Kabupaten Bireuen";"ACEH";"24261";"Indonesia";" 085217020150";"5.1974569";"96.7829449";"https://maps.google.com/?cid=0x0:0x808dc5079fc246b7"
"hotel";"hotel";"N/A";"";"";"ACEH";"";"Indonesia";"";"";"";"https://maps.google.com/?cid=0x0:0x404439b738a98d83%7C/g/11b6grsh53%7Cid-ID"
"hotel";"hotel";"Grand Blang Asan Hotel";"Jln.Tengku Chik Ditiro No.6, Blang Asan, Kec. Kota Sigli, Kabupaten Pidie, Aceh 24112";"Blang Asan, Kec. Kota Sigli, Kabupaten Pidie";"ACEH";"24112";"Indonesia";" 02129707601";"5.3789873";"95.9520578";"https://maps.google.com/?cid=0x0:0x404439b738a98d83"
"hotel";"hotel";"Aceh 24186";"Kec. Meureudu, Kabupaten Pidie, Aceh";"Kabupaten Pidie, Aceh";"ACEH";"";"Indonesia";"";"4.9071931";"96.1102943";"https://maps.google.com/?cid=0x0:0xdafdcbfd9953f40d"
"hotel";"hotel";"Grand Aceh Hotel";"Jl. Dr. Mr. Mohd Hasan, Sukadamai, Kec. Lueng Bata, Kota Banda Aceh, Aceh 23127";"Sukadamai, Kec. Lueng Bata, Kota Banda Aceh";"ACEH";"23127";"Indonesia";" 082283801100";"5.5485836";"95.3299402";"https://maps.google.com/?cid=0x0:0xe852c31754754718"
"hotel";"hotel";"N/A";"";"";"ACEH";"";"Indonesia";"";"";"";"https://maps.google.com/?cid=0x0:0xe852c31754754718%7C/g/11clv_q3dk%7Cid-ID"
"hotel";"hotel";"N/A";"";"";"ACEH";"";"Indonesia";"";"";"";"https://maps.google.com/?cid=0x0:0x2b3f5320e65030a8%7C/g/11h2p310xs%7Cid-ID"
"hotel";"hotel";"Ayani Hotel Banda Aceh";"Jl. Jend. Ahmad Yani No.20, Peunayong, Kec. Kuta Alam, Kota Banda Aceh, Aceh 23122";"Peunayong, Kec. Kuta Alam, Kota Banda Aceh";"ACEH";"23122";"Indonesia";" 06518012111";"5.5570339";"95.3193251";"https://maps.google.com/?cid=0x0:0xc7d116533d0b5450"
"hotel";"hotel";"N/A";"";"";"ACEH";"";"Indonesia";"";"";"";"https://maps.google.com/?cid=0x0:0xc7d116533d0b5450%7C/g/11c1l49977%7Cid-ID"
"hotel";"hotel";"SEI Hotel Banda Aceh";"Jl. Tanoh Abee No.71, Mulia, Kec. Kuta Alam, Kota Banda Aceh, Aceh 23123";"Mulia, Kec. Kuta Alam, Kota Banda Aceh";"ACEH";"23123";"Indonesia";" 082185106952";"5.5628844";"95.322844";"https://maps.google.com/?cid=0x0:0xd10e8fa03b750c2e"
"hotel";"hotel";"Hotel Grand Bayu Hill";"Mongal, Kec. Bebesen, Kabupaten Aceh Tengah, Aceh 24471";"Kec. Bebesen, Kabupaten Aceh Tengah";"ACEH";"24471";"Indonesia";" 06432626534";"4.6420249";"96.8393528";"https://maps.google.com/?cid=0x0:0x9989eec058460473"
"hotel";"hotel";"Portola Grand Renggali Hotel";"Danau, Kabupaten Aceh Tengah, Aceh 24519";"Kabupaten Aceh Tengah";"ACEH";"24519";"Indonesia";" 08116837100";"4.6121859";"96.8641628";"https://maps.google.com/?cid=0x0:0xcd3d745aa1299e22"
"hotel";"hotel";"Hotel Ananda";"66WX+5FJ, Jl. Tgk. Syik Pante Geulima, Mesjid Tuha, Kec. Meureudu, Kabupaten Pidie Jaya, Aceh";"Kabupaten Pidie Jaya, Aceh";"ACEH";"";"Indonesia";" 081377271359";"5.2452178";"96.2487874";"https://maps.google.com/?cid=0x0:0x3ae8e6be024f64c9"
"hotel";"hotel";"Hotel Amoda dan Cafe";"Landom, Kec. Lueng Bata, Kota Banda Aceh, Aceh 23122";"Kec. Lueng Bata, Kota Banda Aceh";"ACEH";"23122";"Indonesia";" 06517316039";"5.5320287";"95.3386727";"https://maps.google.com/?cid=0x0:0xe8b4e4d38b5a3c6e"
"hotel";"hotel";"My Home Hotel Aceh";"Jl Sri Ratu Safiatuddin Block 6-8 C, Peunayong, Kota Banda Aceh, Aceh 23122";"Peunayong, Kota Banda Aceh";"ACEH";"23122";"Indonesia";" 08116880309";"5.5562393";"95.3202007";"https://maps.google.com/?cid=0x0:0x3e065603363be38c"
"hotel";"hotel";"Petro Inn Takengon";"Jl. Sengeda, Nunang Antara, Kec. Bebesen, Kabupaten Aceh Tengah, Aceh 24519";"Nunang Antara, Kec. Bebesen, Kabupaten Aceh Tengah";"ACEH";"24519";"Indonesia";" 085710765975";"4.6318419";"96.8535458";"https://maps.google.com/?cid=0x0:0xda70b7aebfa35504"
"hotel";"hotel";"HOTEL BAYU HILL";"Jl. Lebe Kader No.398 B, Merah Mersa, Kec. Bebesen, Kabupaten Aceh Tengah, Aceh 24552";"Merah Mersa, Kec. Bebesen, Kabupaten Aceh Tengah";"ACEH";"24552";"Indonesia";" 02129706666";"4.6232586";"96.8467951";"https://maps.google.com/?cid=0x0:0x949badc7113edbc0"
"hotel";"hotel";"Kec. Panteraja";"Kabupaten Pidie Jaya, Aceh";"Kabupaten Pidie Jaya, Aceh";"ACEH";"";"Indonesia";"";"5.2718147";"96.1449859";"https://maps.google.com/?cid=0x0:0x316e7cb7d66a0d00"
"hotel";"hotel";"N/A";"";"";"ACEH";"";"Indonesia";"";"";"";"https://maps.google.com/?cid=0x0:0xe852c31754754718%7C/g/11clv_q3dk%7Cid-ID"
"hotel";"hotel";"Grand Aceh Hotel";"Jl. Dr. Mr. Mohd Hasan, Sukadamai, Kec. Lueng Bata, Kota Banda Aceh, Aceh 23127";"Sukadamai, Kec. Lueng Bata, Kota Banda Aceh";"ACEH";"23127";"Indonesia";" 082283801100";"5.5485836";"95.3299402";"https://maps.google.com/?cid=0x0:0xe852c31754754718"
"hotel";"hotel";"N/A";"";"";"ACEH";"";"Indonesia";"";"";"";"https://maps.google.com/?cid=0x0:0x70e72305d8d7d91%7C/m/0c3tz97%7Cid-ID"
"hotel";"hotel";"Hotel Ananda";"66WX+5FJ, Jl. Tgk. Syik Pante Geulima, Mesjid Tuha, Kec. Meureudu, Kabupaten Pidie Jaya, Aceh";"Kabupaten Pidie Jaya, Aceh";"ACEH";"";"Indonesia";" 081377271359";"5.2452178";"96.2487874";"https://maps.google.com/?cid=0x0:0x3ae8e6be024f64c9"
"hotel";"hotel";"Seventeen Hotel";"Jl. Teuku Umar No.350, Seutui, Kec. Baiturrahman, Kota Banda Aceh, Aceh 23243";"Seutui, Kec. Baiturrahman, Kota Banda Aceh";"ACEH";"23243";"Indonesia";" 034971425588";"5.54001";"95.309364";"https://maps.google.com/?cid=0x0:0x8bf5e6dedb221119"
"hotel";"hotel";"Quanza Hotel";"Jl. T. Panglima Nyak Makam, Doi, Kec. Ulee Kareng, Kota Banda Aceh, Aceh 23117";"Doi, Kec. Ulee Kareng, Kota Banda Aceh";"ACEH";"23117";"Indonesia";" 082113199476";"5.55557";"95.3446425";"https://maps.google.com/?cid=0x0:0xe237be3cffbe8963"
"hotel";"hotel";"N/A";"";"";"ACEH";"";"Indonesia";"";"";"";"https://maps.google.com/?cid=0x0:0xfb73b63d05e6fa0f%7C/g/1229dtlm%7Cid-ID"
"hotel";"hotel";"Hotel The Pade";"Jl. Soekarno - Hatta No.1, Daroy Kameu, Kec. Darul Imarah, Kabupaten Aceh Besar, Aceh 23231";"Daroy Kameu, Kec. Darul Imarah, Kabupaten Aceh Besar";"ACEH";"23231";"Indonesia";" 08116807074";"5.5172831";"95.3167276";"https://maps.google.com/?cid=0x0:0xfb73b63d05e6fa0f"
"hotel";"hotel";"Hotel Medan";"Jl. Jend. Ahmad Yani No.17, Peunayong, Kec. Kuta Alam, Kota Banda Aceh, Aceh";"Kota Banda Aceh, Aceh";"ACEH";"";"Indonesia";" 065121501";"5.5574522";"95.3187103";"https://maps.google.com/?cid=0x0:0x42083d304b99e444"
"hotel";"hotel";"N/A";"";"";"ACEH";"";"Indonesia";"";"";"";"https://maps.google.com/?cid=0x0:0x42083d304b99e444%7C/g/1ptxwt8_b%7Cid-ID"
"hotel";"Hotel";"UB Caisar Hotel";"Jl. Teuku Nyak Arief No.17-20, Jeulingke, Kec. Syiah Kuala, Kota Banda Aceh, Aceh 24415";"Jeulingke, Kec. Syiah Kuala, Kota Banda Aceh";"ACEH";"24415";"Indonesia";" 06517555750";"5.5755187";"95.3472215";"https://maps.google.com/?cid=0x0:0x7008cc8ff02a529c"
"hotel";"hotel";"N/A";"";"";"ACEH";"";"Indonesia";"";"";"";"https://maps.google.com/?cid=0x0:0x7008cc8ff02a529c%7C/g/1pzsg48qm%7Cid-ID"
"hotel";"hotel";"Hotel 889 Syariah Redpartner Banda Aceh";"H86G+R73, Jl. Pocut Baren, Keuramat, Kec. Kuta Alam, Kota Banda Aceh, Aceh 24415";"Jl. Pocut Baren, Keuramat, Kec. Kuta Alam, Kota Banda Aceh";"ACEH";"24415";"Indonesia";" 0895417300072";"5.5620572";"95.3255373";"https://maps.google.com/?cid=0x0:0x5605b3a6744be5ee"
"hotel";"hotel";"Kec. Trienggadeng";"Kabupaten Pidie Jaya, Aceh";"Kabupaten Pidie Jaya, Aceh";"ACEH";"";"Indonesia";"";"5.259028";"96.1834886";"https://maps.google.com/?cid=0x0:0x47f2879d2ad38e99"
"hotel";"hotel";"Hotel Ananda";"66WX+5FJ, Jl. Tgk. Syik Pante Geulima, Mesjid Tuha, Kec. Meureudu, Kabupaten Pidie Jaya, Aceh";"Kabupaten Pidie Jaya, Aceh";"ACEH";"";"Indonesia";" 081377271359";"5.2452178";"96.2487874";"https://maps.google.com/?cid=0x0:0x3ae8e6be024f64c9"
"hotel";"hotel";"Grand Aceh Hotel";"Jl. Dr. Mr. Mohd Hasan, Sukadamai, Kec. Lueng Bata, Kota Banda Aceh, Aceh 23127";"Sukadamai, Kec. Lueng Bata, Kota Banda Aceh";"ACEH";"23127";"Indonesia";" 082283801100";"5.5485836";"95.3299402";"https://maps.google.com/?cid=0x0:0xe852c31754754718"
"hotel";"hotel";"Wisma Ayu Pidie Jaya";"Meureudu, Jl. Tgk. Syik Pante Geulima, Mesjid Tuha, Kec. Meureudu, Kabupaten Pidie Jaya, Aceh 24186";"Jl. Tgk. Syik Pante Geulima, Mesjid Tuha, Kec. Meureudu, Kabupaten Pidie Jaya";"ACEH";"24186";"Indonesia";" 085373821129";"5.2503385";"96.2495111";"https://maps.google.com/?cid=0x0:0x586ec3ca31d0c093"
"hotel";"hotel";"Pidie Hotel";"Jl. Medan - Banda Aceh No.Km. 1, SP. Pidie, Kec. Kota Sigli, Kabupaten Pidie, Aceh 24173";"SP. Pidie, Kec. Kota Sigli, Kabupaten Pidie";"ACEH";"24173";"Indonesia";" 082116968401";"5.3794001";"95.9496961";"https://maps.google.com/?cid=0x0:0x2d732ee8b6c6cc6"
"hotel";"hotel";"Rumoh Aceh Hotel";"Jl. Cut Mutia, Kuta Ateueh, Sukakarya, Kota Sabang, Aceh";"Kota Sabang, Aceh";"ACEH";"";"Indonesia";" 082294608916";"5.8951825";"95.3207359";"https://maps.google.com/?cid=0x0:0x3353b3afc950ca5a"
"hotel";"hotel";"Hotel Cempaka";"Blang Asan, Kec. Kota Sigli, Kabupaten Pidie, Aceh 24114";"Kec. Kota Sigli, Kabupaten Pidie";"ACEH";"24114";"Indonesia";" 065325370";"5.3800456";"95.9553681";"https://maps.google.com/?cid=0x0:0x8635f2338e510a0"
"hotel";"hotel";"Grand Blang Asan Hotel";"Jln.Tengku Chik Ditiro No.6, Blang Asan, Kec. Kota Sigli, Kabupaten Pidie, Aceh 24112";"Blang Asan, Kec. Kota Sigli, Kabupaten Pidie";"ACEH";"24112";"Indonesia";" 02129707601";"5.3789873";"95.9520578";"https://maps.google.com/?cid=0x0:0x404439b738a98d83"
"hotel";"hotel";"N/A";"";"";"ACEH";"";"Indonesia";"";"";"";"https://maps.google.com/?cid=0x0:0x404439b738a98d83%7C/g/11b6grsh53%7Cid-ID"
"hotel";"hotel";"Aceh 24187";"Kabupaten Pidie, Aceh";"Kabupaten Pidie, Aceh";"ACEH";"";"Indonesia";"";"5.1830255";"95.956825";"https://maps.google.com/?cid=0x0:0x882e17494b2bb8c"
"hotel";"hotel";"Grand Aceh Hotel";"Jl. Dr. Mr. Mohd Hasan, Sukadamai, Kec. Lueng Bata, Kota Banda Aceh, Aceh 23127";"Sukadamai, Kec. Lueng Bata, Kota Banda Aceh";"ACEH";"23127";"Indonesia";" 082283801100";"5.5485836";"95.3299402";"https://maps.google.com/?cid=0x0:0xe852c31754754718"
"hotel";"hotel";"N/A";"";"";"ACEH";"";"Indonesia";"";"";"";"https://maps.google.com/?cid=0x0:0xe852c31754754718%7C/g/11clv_q3dk%7Cid-ID"
"hotel";"hotel";"N/A";"";"";"ACEH";"";"Indonesia";"";"";"";"https://maps.google.com/?cid=0x0:0x9828ac1cd87d07d0%7C/g/11ckqrc334%7Cid-ID"
"hotel";"hotel";"N/A";"";"";"ACEH";"";"Indonesia";"";"";"";"https://maps.google.com/?cid=0x0:0xc7d116533d0b5450%7C/g/11c1l49977%7Cid-ID"
"hotel";"hotel";"Ayani Hotel Banda Aceh";"Jl. Jend. Ahmad Yani No.20, Peunayong, Kec. Kuta Alam, Kota Banda Aceh, Aceh 23122";"Peunayong, Kec. Kuta Alam, Kota Banda Aceh";"ACEH";"23122";"Indonesia";" 06518012111";"5.5570339";"95.3193251";"https://maps.google.com/?cid=0x0:0xc7d116533d0b5450"
"hotel";"hotel";"Hotel Amel Convention Hall";"Gp, Jl. Sultan Iskandar Muda, Blang Oi, Kec. Meuraxa, Kota Banda Aceh, Aceh 23233";"Jl. Sultan Iskandar Muda, Blang Oi, Kec. Meuraxa, Kota Banda Aceh";"ACEH";"23233";"Indonesia";" 082320000048";"5.5521329";"95.3023152";"https://maps.google.com/?cid=0x0:0xca46af412c292978"
"hotel";"hotel";"N/A";"";"";"ACEH";"";"Indonesia";"";"";"";"https://maps.google.com/?cid=0x0:0x70e72305d8d7d91%7C/m/0c3tz97%7Cid-ID"
"hotel";"hotel";"Hermes Palace Hotel";"Jl. T. Panglima Nyak Makam, Lambhuk, Kec. Ulee Kareng, Kota Banda Aceh, Aceh 23117";"Lambhuk, Kec. Ulee Kareng, Kota Banda Aceh";"ACEH";"23117";"Indonesia";" 06517555888";"5.5559751";"95.3437379";"https://maps.google.com/?cid=0x0:0x70e72305d8d7d91"
"hotel";"hotel";"SEI Hotel Banda Aceh";"Jl. Tanoh Abee No.71, Mulia, Kec. Kuta Alam, Kota Banda Aceh, Aceh 23123";"Mulia, Kec. Kuta Alam, Kota Banda Aceh";"ACEH";"23123";"Indonesia";" 082185106952";"5.5628844";"95.322844";"https://maps.google.com/?cid=0x0:0xd10e8fa03b750c2e"
"hotel";"hotel";"Hotel Amoda dan Cafe";"Landom, Kec. Lueng Bata, Kota Banda Aceh, Aceh 23122";"Kec. Lueng Bata, Kota Banda Aceh";"ACEH";"23122";"Indonesia";" 06517316039";"5.5320287";"95.3386727";"https://maps.google.com/?cid=0x0:0xe8b4e4d38b5a3c6e"
"hotel";"hotel";"Pavilliun Selawa Hotel";"Jl. Prof. A. Majid Ibrahim II No.3, Kp. Baru, Kec. Baiturrahman, Kota Banda Aceh, Aceh 23116";"Kp. Baru, Kec. Baiturrahman, Kota Banda Aceh";"ACEH";"23116";"Indonesia";" 06265122788";"5.5517431";"95.3133024";"https://maps.google.com/?cid=0x0:0xf8e8ec5d0e4e796f"
"hotel";"hotel";"Abaka Hotel";"H923+746, Lamglumpang, Kec. Ulee Kareng, Kota Banda Aceh, Aceh";"Kota Banda Aceh, Aceh";"ACEH";"";"Indonesia";" 08116820333";"5.5506624";"95.3527724";"https://maps.google.com/?cid=0x0:0x369db8e386d736b6"
"hotel";"hotel";"My Home Hotel Aceh";"Jl Sri Ratu Safiatuddin Block 6-8 C, Peunayong, Kota Banda Aceh, Aceh 23122";"Peunayong, Kota Banda Aceh";"ACEH";"23122";"Indonesia";" 08116880309";"5.5562393";"95.3202007";"https://maps.google.com/?cid=0x0:0x3e065603363be38c"
"restaurant";"restaurant";"Aceh 24184";"Kabupaten Aceh Utara, Aceh";"Kabupaten Aceh Utara, Aceh";"ACEH";"";"Indonesia";"";"5.1373361";"96.8887202";"https://maps.google.com/?cid=0x0:0x9968bf9e9ed3fc5b"
"restaurant";"Kafe";"BALEI OEN";"Jl. Medan - Banda Aceh No.Km. 140, Paru, Keude, Kec. Bandar Baru, Kabupaten Pidie Jaya, Aceh 24184";"Paru, Keude, Kec. Bandar Baru, Kabupaten Pidie Jaya";"ACEH";"24184";"Indonesia";" 085217241240";"5.2640576";"96.1186039";"https://maps.google.com/?cid=0x0:0x8e8dbeeafbf4b59d"
"restaurant";"restaurant";"24184 Coffee";"Gampong Meunasah Ara, Kec. Bandar Baru, Meunasah Ara, Kec. Bandar Baru, Kabupaten Pidie Jaya, Aceh 24184";"Kec. Bandar Baru, Meunasah Ara, Kec. Bandar Baru, Kabupaten Pidie Jaya";"ACEH";"24184";"Indonesia";" 085359689434";"5.262907";"96.078048";"https://maps.google.com/?cid=0x0:0x604fc67d129d6945"
"restaurant";"Restoran";"The Atjeh Connection Cipete";"Jl. Cipete Raya No.8f, RT.8/RW.4, Cipete Sel., Kec. Cilandak, Kota Jakarta Selatan, Daerah Khusus Ibukota Jakarta 12410";"RT.8/RW.4, Cipete Sel., Kec. Cilandak, Kota Jakarta Selatan";"ACEH";"12410";"Indonesia";"";"-6.2780581";"106.8043778";"https://maps.google.com/?cid=0x0:0x5e29d81eac85be2"
"restaurant";"Mi";"Kanabu Resto";"Jl. Bendungan Hilir No.44A, RT.8/RW.1, Bend. Hilir, Kecamatan Tanah Abang, Kota Jakarta Pusat, Daerah Khusus Ibukota Jakarta 10210";"RT.8/RW.1, Bend. Hilir, Kecamatan Tanah Abang, Kota Jakarta Pusat";"ACEH";"10210";"Indonesia";" 0212527286";"-6.2140919";"106.8143178";"https://maps.google.com/?cid=0x0:0x7b7f81b0202b35d4"
"restaurant";"Rumah Makan";"Menuciya";"63V3+QM9, Mns Cut Langien, Kec. Bandar Baru, Kabupaten Pidie Jaya, Aceh 24171";"Mns Cut Langien, Kec. Bandar Baru, Kabupaten Pidie Jaya";"ACEH";"24171";"Indonesia";" 082364629559";"5.2444191";"96.0542189";"https://maps.google.com/?cid=0x0:0x99e6715bde965a4f"
"restaurant";"Kedai Kopi";"Mie cek ram Lung putu";"7344+268, Jl. Medan Banda Aceh, Meunasah Keude, Kec. Bandar Baru, Kabupaten Pidie Jaya, Aceh 24171";"Jl. Medan Banda Aceh, Meunasah Keude, Kec. Bandar Baru, Kabupaten Pidie Jaya";"ACEH";"24171";"Indonesia";"";"5.2550305";"96.0555686";"https://maps.google.com/?cid=0x0:0xadad77b19f98c4bf"
"restaurant";"Restoran";"The Atjeh Connection SCBD";"Jl. Tulodong Bawah No.1 Blok D No, Selong, Kec. Kby. Baru, Kota Jakarta Selatan, Daerah Khusus Ibukota Jakarta 12190";"Selong, Kec. Kby. Baru, Kota Jakarta Selatan";"ACEH";"12190";"Indonesia";" 02127932084";"-6.2310524";"106.8103021";"https://maps.google.com/?cid=0x0:0x7b0a302296ecb470"
"restaurant";"Mi";"The Atjeh Connection Tebet";"Jl. Tebet Timur Dalam Raya No.31B, Tebet Tim., Kec. Tebet, Kota Jakarta Selatan, Daerah Khusus Ibukota Jakarta 12820";"Tebet Tim., Kec. Tebet, Kota Jakarta Selatan";"ACEH";"12820";"Indonesia";" 02182850185";"-6.2321076";"106.85592";"https://maps.google.com/?cid=0x0:0xbb592d6029b697da"
"restaurant";"Indonesia";"Rumah Makan Aceh Seulawah";"Jl. Bendungan Hilir No.8 Blok G2, RT.5/RW.3, Bend. Hilir, Kecamatan Tanah Abang, Kota Jakarta Pusat, Daerah Khusus Ibukota Jakarta 10210";"RT.5/RW.3, Bend. Hilir, Kecamatan Tanah Abang, Kota Jakarta Pusat";"ACEH";"10210";"Indonesia";" 0215708660";"-6.2108361";"106.8124404";"https://maps.google.com/?cid=0x0:0xefbd6e96dfbb258b"
"restaurant";"Kafe";"Bege( Bataigajah";"Jl. Medan - Banda Aceh, Mns Blang Glong, Kec. Bandar Baru, Kabupaten Pidie Jaya, Aceh 24171";"Mns Blang Glong, Kec. Bandar Baru, Kabupaten Pidie Jaya";"ACEH";"24171";"Indonesia";" 085277100214";"5.256023";"96.071362";"https://maps.google.com/?cid=0x0:0x541bc67e14715272"
"restaurant";"Produsen makanan";"Dapur Nasi Gurih";"Meunasah Balee, Kec. Bandar Baru, Kabupaten Pidie Jaya, Aceh 24184";"Kec. Bandar Baru, Kabupaten Pidie Jaya";"ACEH";"24184";"Indonesia";" 085297886815";"5.255862";"96.0798344";"https://maps.google.com/?cid=0x0:0x76bda0ef02dbec47"
"restaurant";"Mi";"The Atjeh Connection Bendungan Hilir Raya";"RT.8/RW.1, Bend. Hilir, Kecamatan Tanah Abang, Kota Jakarta Pusat, Daerah Khusus Ibukota Jakarta 10210";"Bend. Hilir, Kecamatan Tanah Abang, Kota Jakarta Pusat";"ACEH";"10210";"Indonesia";" 082213769342";"-6.2136036";"106.8133984";"https://maps.google.com/?cid=0x0:0xde3518030c9c30ce"
"restaurant";"Restoran";"Balee Raja";"R4RH+Q87, Bangkeh, Geumpang, Bangkeh, Pidie, Kabupaten Pidie, Aceh 24186";"Bangkeh, Geumpang, Bangkeh, Pidie, Kabupaten Pidie";"ACEH";"24186";"Indonesia";"";"4.8419098";"96.1283079";"https://maps.google.com/?cid=0x0:0xa2560fc23474c9db"
"restaurant";"restaurant";"Aceh 24188";"Hutan (Bandar Dua), Kec. Bandar Dua, Kabupaten Pidie Jaya, Aceh";"Kabupaten Pidie Jaya, Aceh";"ACEH";"";"Indonesia";"";"5.119276";"96.1155932";"https://maps.google.com/?cid=0x0:0xb55f6220579e0177"
"restaurant";"Rumah Makan";"RM Blang Dalam";"6845+6X5, Jl. Medan Banda Aceh, Blang Dalam, Kec. Bandar Dua, Kabupaten Pidie Jaya, Aceh";"Kabupaten Pidie Jaya, Aceh";"ACEH";"";"Indonesia";" 081360688655";"5.2055136";"96.3099808";"https://maps.google.com/?cid=0x0:0xd923d60658a21e06"
"restaurant";"Kedai Kopi";"RM Cek Sal";"755J+VHW, Sagoe, Kec. Trienggadeng, Kabupaten Pidie Jaya, Aceh";"Kabupaten Pidie Jaya, Aceh";"ACEH";"";"Indonesia";" 085276581185";"5.259725";"96.1814474";"https://maps.google.com/?cid=0x0:0x73baaed126c3b77d"
"restaurant";"Kafe";"Bege( Bataigajah";"Jl. Medan - Banda Aceh, Mns Blang Glong, Kec. Bandar Baru, Kabupaten Pidie Jaya, Aceh 24171";"Mns Blang Glong, Kec. Bandar Baru, Kabupaten Pidie Jaya";"ACEH";"24171";"Indonesia";" 085277100214";"5.256023";"96.071362";"https://maps.google.com/?cid=0x0:0x541bc67e14715272"
"restaurant";"Kafe";"Bang Mae Mie Bieng";"6828+X26, Gampong Ulee Gle, Kec. Bandar Dua, Kabupaten Pidie Jaya, Aceh";"Kabupaten Pidie Jaya, Aceh";"ACEH";"";"Indonesia";" 085260891515";"5.202404";"96.3150118";"https://maps.google.com/?cid=0x0:0xfdb53b7fed9b2728"
"restaurant";"Toko bahan makanan";"Kelapa Bakar ( U Teuutoet) Jamboe Ateuh Glee";"6864+359, Blang Dalam, Kec. Bandar Dua, Kabupaten Pidie Jaya, Aceh";"Kabupaten Pidie Jaya, Aceh";"ACEH";"";"Indonesia";" 081362812557";"5.2101622";"96.3054999";"https://maps.google.com/?cid=0x0:0xd8daaa87aeb81206"
"restaurant";"Kafe";"Ridha aulia";"63X8+JWQ, Mns Cut Langien, Kec. Bandar Baru, Kabupaten Pidie Jaya, Aceh 24171";"Mns Cut Langien, Kec. Bandar Baru, Kabupaten Pidie Jaya";"ACEH";"24171";"Indonesia";"";"5.2503534";"96.0679366";"https://maps.google.com/?cid=0x0:0x268341211625688e"
"restaurant";"Dapur Umum";"WARUNG TERATAI";"Jl. Medan - Banda Aceh, Keude, Kec. Panteraja, Kabupaten Pidie Jaya, Aceh";"Kabupaten Pidie Jaya, Aceh";"ACEH";"";"Indonesia";" 087734984414";"5.2709728";"96.1458824";"https://maps.google.com/?cid=0x0:0xa13baba8d9fa2601"
"restaurant";"Restoran";"Bakso  Mie Goreng Mantap";"58HG+9RH, Desa, Drien Bungong, Bandar Dua, Pidie Jaya Regency, Aceh 24188";"Desa, Drien Bungong, Bandar Dua, Pidie Jaya Regency";"ACEH";"24188";"Indonesia";"";"5.1796815";"96.326918";"https://maps.google.com/?cid=0x0:0x8f9c4f05f3b2adb8"
"restaurant";"Rumah Makan";"Menuciya";"63V3+QM9, Mns Cut Langien, Kec. Bandar Baru, Kabupaten Pidie Jaya, Aceh 24171";"Mns Cut Langien, Kec. Bandar Baru, Kabupaten Pidie Jaya";"ACEH";"24171";"Indonesia";" 082364629559";"5.2444191";"96.0542189";"https://maps.google.com/?cid=0x0:0x99e6715bde965a4f"
"restaurant";"Ayam Goreng";"(Hfc) Helmi fried chiken";"58X8+CRJ, Unnamed Road, Gampong Ulee Gle, Kec. Bandar Dua, Kabupaten Pidie Jaya, Aceh";"Kabupaten Pidie Jaya, Aceh";"ACEH";"";"Indonesia";" 08126085125";"5.1985907";"96.3170039";"https://maps.google.com/?cid=0x0:0x518ab47aa78f1fdf"
"restaurant";"Restoran";"Rumah Makan Jembatan Bate Ilek";"Asan Kumbang, Kec. Bandar Dua, Kabupaten Pidie Jaya, Aceh";"Kabupaten Pidie Jaya, Aceh";"ACEH";"";"Indonesia";"";"5.1661875";"96.3395625";"https://maps.google.com/?cid=0x0:0x89ee3da197fe3885"
"restaurant";"Kedai Kopi";"NIKMAT KOPI TRIENGGADENG";"Jl. Medan - Banda Aceh No.KM. 147, Sagoe, Kec. Trienggadeng, Kabupaten Pidie Jaya, Aceh 24185";"Sagoe, Kec. Trienggadeng, Kabupaten Pidie Jaya";"ACEH";"24185";"Indonesia";" 082136381970";"5.259928";"96.1806127";"https://maps.google.com/?cid=0x0:0xe3799aadf0d3e698"
"restaurant";"Restoran";"Wadurikumis";"58GQ+J55, Meurandeh Alue, Kec. Bandar Dua, Kabupaten Pidie Jaya, Aceh 24264";"Meurandeh Alue, Kec. Bandar Dua, Kabupaten Pidie Jaya";"ACEH";"24264";"Indonesia";" 085260121494";"5.176501";"96.338";"https://maps.google.com/?cid=0x0:0x426ad01f7c034384"
"restaurant";"restaurant";"Kec. Jangka Buya";"Kabupaten Pidie Jaya, Aceh";"Kabupaten Pidie Jaya, Aceh";"ACEH";"";"Indonesia";"";"5.2242158";"96.3121613";"https://maps.google.com/?cid=0x0:0xd6fccc30f37acb80"
"restaurant";"Kafe";"Beda rasa";"Jalan, Buket Teungoh, Kec. Jangka Buya, Kabupaten Pidie Jaya, Aceh 24188";"Buket Teungoh, Kec. Jangka Buya, Kabupaten Pidie Jaya";"ACEH";"24188";"Indonesia";" 081377713937";"5.2067476";"96.315144";"https://maps.google.com/?cid=0x0:0xe49c9616babc52e9"
"restaurant";"restaurant";"RUMAH MAKAN UMMI AISYAH";"68C9+HGR, Jl. Rel Kereta Api, Keude Jangka Buya, Kec. Jangka Buya, Kabupaten Pidie Jaya, Aceh";"Kabupaten Pidie Jaya, Aceh";"ACEH";"";"Indonesia";"";"5.2214965";"96.3187597";"https://maps.google.com/?cid=0x0:0x37b694c51bac54c2"
"restaurant";"Rumah Makan";"RM Blang Dalam";"6845+6X5, Jl. Medan Banda Aceh, Blang Dalam, Kec. Bandar Dua, Kabupaten Pidie Jaya, Aceh";"Kabupaten Pidie Jaya, Aceh";"ACEH";"";"Indonesia";" 081360688655";"5.2055136";"96.3099808";"https://maps.google.com/?cid=0x0:0xd923d60658a21e06"
"restaurant";"Komplek perumahan";"FAUZAN COFFE";"68F9+HXM, Unnamed Road, Keude Jangka Buya, Kec. Jangka Buya, Kabupaten Pidie Jaya, Aceh";"Kabupaten Pidie Jaya, Aceh";"ACEH";"";"Indonesia";"";"5.2239687";"96.3199299";"https://maps.google.com/?cid=0x0:0xf6188835fbea3b3c"
"restaurant";"Kedai Kopi";"Caffe Apami";"Jurong Teungoh, Kec. Jangka Buya, Kabupaten Pidie Jaya, Aceh";"Kabupaten Pidie Jaya, Aceh";"ACEH";"";"Indonesia";"";"5.233925";"96.3140667";"https://maps.google.com/?cid=0x0:0x16b93ef0ae8a0a8f"
"restaurant";"Restoran";"MIE UNGKOT SURE BINEH REN";"689C+XHG, Keude Jangka Buya, Kec. Jangka Buya, Kabupaten Pidie Jaya, Aceh";"Kabupaten Pidie Jaya, Aceh";"ACEH";"";"Indonesia";" 081375692068";"5.2198512";"96.3225634";"https://maps.google.com/?cid=0x0:0x74e14894eadba2b4"
"restaurant";"Toko bahan makanan";"Kelapa Bakar ( U Teuutoet) Jamboe Ateuh Glee";"6864+359, Blang Dalam, Kec. Bandar Dua, Kabupaten Pidie Jaya, Aceh";"Kabupaten Pidie Jaya, Aceh";"ACEH";"";"Indonesia";" 081362812557";"5.2101622";"96.3054999";"https://maps.google.com/?cid=0x0:0xd8daaa87aeb81206"
"restaurant";"Kafe";"Caffee Nangkasatu";"678X+XQC, Medan, Jalan Banda Aceh GP, Balee Ulim, Kec. Ulim, Kabupaten Pidie Jaya, Aceh";"Kabupaten Pidie Jaya, Aceh";"ACEH";"";"Indonesia";"";"5.2174413";"96.2993779";"https://maps.google.com/?cid=0x0:0x5d461da3956a46bc"
"restaurant";"Kedai Kopi";"Warkop Id";"68G4+JJF, Jl. Rel Kereta Api, Jurong Ara, Kec. Jangka Buya, Kabupaten Pidie Jaya, Aceh";"Kabupaten Pidie Jaya, Aceh";"ACEH";"";"Indonesia";" 082363202075";"5.2265679";"96.306543";"https://maps.google.com/?cid=0x0:0x7404300975334cbc"
"restaurant";"Kedai Kopi";"Salak Pliek Kak Lina";"6873+C8, Blang Dalam, Kec. Bandar Dua, Kabupaten Pidie Jaya, Aceh";"Kabupaten Pidie Jaya, Aceh";"ACEH";"";"Indonesia";" 081285621834";"5.2134553";"96.3033329";"https://maps.google.com/?cid=0x0:0x171d8e260edd1529"
"restaurant";"Kedai Kopi";"Ariep kupi";"68F5+6XQ, Jurong Teungoh, Kec. Jangka Buya, Kabupaten Pidie Jaya, Aceh";"Kabupaten Pidie Jaya, Aceh";"ACEH";"";"Indonesia";"";"5.2230751";"96.3099808";"https://maps.google.com/?cid=0x0:0x99284df6f5624e"
"restaurant";"Kafe";"Pojok Cofee";"6838+63C, Jalan Jangka Buya, Gampong Ulee Gle, Kec. Bandar Dua, Kabupaten Pidie Jaya, Aceh 24188";"Jalan Jangka Buya, Gampong Ulee Gle, Kec. Bandar Dua, Kabupaten Pidie Jaya";"ACEH";"24188";"Indonesia";" 082274485229";"5.2030729";"96.3151284";"https://maps.google.com/?cid=0x0:0x9bc341b6f9d7aca7"
"restaurant";"Kedai Kopi";"Warkop Cek mat";"6868+69G ulee gle, Jlan, Buket Teungoh, Kec. Jangka Buya, Kabupaten Pidie Jaya, Aceh 24187";"Jlan, Buket Teungoh, Kec. Jangka Buya, Kabupaten Pidie Jaya";"ACEH";"24187";"Indonesia";" 085217959486";"5.2105742";"96.3159667";"https://maps.google.com/?cid=0x0:0x9aa96ffb38e2bed"
"restaurant";"restaurant";"Kec. Meurah Dua";"Kabupaten Pidie Jaya, Aceh";"Kabupaten Pidie Jaya, Aceh";"ACEH";"";"Indonesia";"";"5.2327384";"96.2601989";"https://maps.google.com/?cid=0x0:0x18b794cb75a359ca"
"restaurant";"Kafe";"Cafe Hitam_Putih";"7736+VPX, Meunasah Jurong, Kec. Meurah Dua, Kabupaten Pidie Jaya, Aceh";"Kabupaten Pidie Jaya, Aceh";"ACEH";"";"Indonesia";" 085360141475";"5.2547271";"96.2618463";"https://maps.google.com/?cid=0x0:0x8624e68d5b275e9a"
"restaurant";"Bar Kopi Espresso";"Raja KupiIda Cake";"Jl. Tgk. Syik Pante Geulima, Meunasah Lhok, Kec. Meureudu, Kabupaten Pidie Jaya, Aceh 24186";"Meunasah Lhok, Kec. Meureudu, Kabupaten Pidie Jaya";"ACEH";"24186";"Indonesia";" 085260964748";"5.23988";"96.2477306";"https://maps.google.com/?cid=0x0:0x51fa8313e858e0ec"
"restaurant";"Padang";"RM Keluarga";"67M5+5V6, Jl. Lintas Sumatra, Meunasah Bie, Kec. Meurah Dua, Kabupaten Pidie Jaya, Aceh";"Kabupaten Pidie Jaya, Aceh";"ACEH";"";"Indonesia";" 085370518626";"5.2329105";"96.2596343";"https://maps.google.com/?cid=0x0:0x85531c34f6a1c808"
"restaurant";"Kedai Kopi";"Lamkuta Nasi";"Jl. Tgk. Syik Pante Geulima, Meunasah Lhok, Kec. Meureudu, Kabupaten Pidie Jaya, Aceh 24186";"Meunasah Lhok, Kec. Meureudu, Kabupaten Pidie Jaya";"ACEH";"24186";"Indonesia";" 082165427878";"5.2416623";"96.2470187";"https://maps.google.com/?cid=0x0:0xd9cbfb7f4412273"
"restaurant";"Kafe";"HAMBA KOPI";"Meunasah Bie, Kec. Meurah Dua, Kabupaten Pidie Jaya, Aceh 24186";"Kec. Meurah Dua, Kabupaten Pidie Jaya";"ACEH";"24186";"Indonesia";" 082273440010";"5.2330503";"96.2593914";"https://maps.google.com/?cid=0x0:0x768187208c7d806b"
"restaurant";"Bar Kopi Espresso";"Kabi Kopi";"Beurawang, Kec. Meureudu, Kabupaten Pidie Jaya, Aceh";"Kabupaten Pidie Jaya, Aceh";"ACEH";"";"Indonesia";" 085362742612";"5.2337344";"96.2480419";"https://maps.google.com/?cid=0x0:0x72bd0926b6bd78fe"
"restaurant";"Kafe";"dubai cafe";"66PW+393, Jl. Medan Banda Aceh, Dayah Timu, Kec. Meureudu, Kabupaten Pidie Jaya, Aceh";"Kabupaten Pidie Jaya, Aceh";"ACEH";"";"Indonesia";" 082261966512";"5.235134";"96.245935";"https://maps.google.com/?cid=0x0:0x8ae39b67ae20ac52"
"restaurant";"Kafe";"DOORSMEER paya raya";"67P6+P82, Meunasah Raya, Kec. Meurah Dua, Kabupaten Pidie Jaya, Aceh";"Kabupaten Pidie Jaya, Aceh";"ACEH";"";"Indonesia";" 082272228842";"5.2367736";"96.2607635";"https://maps.google.com/?cid=0x0:0xf86f7337244def82"
"restaurant";"Kedai Kopi";"Kuta Awe Kupi";"67M3+952, Jl. Medan Banda Aceh, Manyang Cut, Kec. Meureudu, Kabupaten Pidie Jaya, Aceh";"Kabupaten Pidie Jaya, Aceh";"ACEH";"";"Indonesia";"";"5.2333779";"96.252882";"https://maps.google.com/?cid=0x0:0xd5f5b27c1eb3be52"
"restaurant";"Kantor Perusahaan";"Home Industri ADEE KAK MAH";"764X+RM8, Meuraksa, Kec. Meureudu, Kabupaten Pidie Jaya, Aceh";"Kabupaten Pidie Jaya, Aceh";"ACEH";"";"Indonesia";" 081377233511";"5.2570385";"96.2492178";"https://maps.google.com/?cid=0x0:0x18cfefd8d4f507f8"
"restaurant";"Bar Kopi Espresso";"Hawana Caffe";"7724+X9R, Pante Beureune, Kec. Meurah Dua, Kabupaten Pidie Jaya, Aceh";"Kabupaten Pidie Jaya, Aceh";"ACEH";"";"Indonesia";"";"5.2524997";"96.2558978";"https://maps.google.com/?cid=0x0:0x4e792667ff8aab41"
"restaurant";"Toko Roti";"Azizah cake";"Tijien Daboh, Kec. Meurah Dua, Kabupaten Pidie Jaya, Aceh 24187";"Kec. Meurah Dua, Kabupaten Pidie Jaya";"ACEH";"24187";"Indonesia";" 082167646057";"5.2494762";"96.2760158";"https://maps.google.com/?cid=0x0:0x59f24cbdd990a255"
"restaurant";"Ayam Goreng";"KUTARADJA FRIED CHICKEN MEUREUDU";"Kota Meureudu, Kec. Trienggadeng, Kabupaten Pidie Jaya, Aceh 24188";"Kec. Trienggadeng, Kabupaten Pidie Jaya";"ACEH";"24188";"Indonesia";" 08116801100";"5.2512093";"96.2470072";"https://maps.google.com/?cid=0x0:0xeb138c0105c894cc"
"restaurant";"restaurant";"Aceh 24186";"Kec. Meureudu, Kabupaten Pidie, Aceh";"Kabupaten Pidie, Aceh";"ACEH";"";"Indonesia";"";"4.9071931";"96.1102943";"https://maps.google.com/?cid=0x0:0xdafdcbfd9953f40d"
"restaurant";"Bar Kopi Espresso";"Raja KupiIda Cake";"Jl. Tgk. Syik Pante Geulima, Meunasah Lhok, Kec. Meureudu, Kabupaten Pidie Jaya, Aceh 24186";"Meunasah Lhok, Kec. Meureudu, Kabupaten Pidie Jaya";"ACEH";"24186";"Indonesia";" 085260964748";"5.23988";"96.2477306";"https://maps.google.com/?cid=0x0:0x51fa8313e858e0ec"
"restaurant";"Kafe";"WAROENG MUISMA COFFEE GARDEN";"Taman Kota, Komplek Perkantoran Pemerintah, Manyang Lancok, Kec. Meureudu, Kabupaten Pidie Jaya, Aceh 24186";"Komplek Perkantoran Pemerintah, Manyang Lancok, Kec. Meureudu, Kabupaten Pidie Jaya";"ACEH";"24186";"Indonesia";" 082272535853";"5.2286908";"96.2438354";"https://maps.google.com/?cid=0x0:0x91f20e2424eee0ee"
"restaurant";"restaurant";"Warong ule tutu";"musa, Meunasah Balee, Meureudu, Kabupaten Pidie Jaya, Aceh 24184";"Meunasah Balee, Meureudu, Kabupaten Pidie Jaya";"ACEH";"24184";"Indonesia";"";"5.2588309";"96.0778536";"https://maps.google.com/?cid=0x0:0xbe5e0fe62e475ea"
"restaurant";"Kedai Kopi";"Warung Kopi Cek Pon Bahtera";"7722+QVM, Jl. Rel Kereta Api, Kota Meureudu, Kec. Meureudu, Kabupaten Pidie Jaya, Aceh";"Kabupaten Pidie Jaya, Aceh";"ACEH";"";"Indonesia";"";"5.2519579";"96.2521713";"https://maps.google.com/?cid=0x0:0x6621b8d59d7ad8f3"
"restaurant";"Kedai Kopi";"RM Cek Sal";"755J+VHW, Sagoe, Kec. Trienggadeng, Kabupaten Pidie Jaya, Aceh";"Kabupaten Pidie Jaya, Aceh";"ACEH";"";"Indonesia";" 085276581185";"5.259725";"96.1814474";"https://maps.google.com/?cid=0x0:0x73baaed126c3b77d"
"restaurant";"Indonesia";"Rumah Makan Tutue Cot Kuala";"WXHR+M6M, Jl. Tangse - Geumpang, Hutan, Kec. Tangse, Kabupaten Pidie, Aceh 24165";"Jl. Tangse - Geumpang, Hutan, Kec. Tangse, Kabupaten Pidie";"ACEH";"24165";"Indonesia";"";"4.9292194";"95.9905385";"https://maps.google.com/?cid=0x0:0x449e796de3b6bfd3"
"restaurant";"Kantor Perusahaan";"Keude Mane";"V3J9+3GH, Jl. Tangse - Geumpang, Mane, Kec. Mane, Kabupaten Pidie, Aceh 24186";"Jl. Tangse - Geumpang, Mane, Kec. Mane, Kabupaten Pidie";"ACEH";"24186";"Indonesia";"";"4.8801841";"96.0688489";"https://maps.google.com/?cid=0x0:0x4f978cee8d1aadf6"
"restaurant";"Kedai Kopi";"Nasi goreng Murah mulia";"58GJ+64F, Jl. Tgk chik pante geulima, Pulo, Kec. Meureudu, Kabupaten Pidie Jaya, Aceh 24186";"Jl. Tgk chik pante geulima, Pulo, Kec. Meureudu, Kabupaten Pidie Jaya";"ACEH";"24186";"Indonesia";" 082247248889";"5.1755625";"96.3303125";"https://maps.google.com/?cid=0x0:0x10c53d04ec321af6"
"restaurant";"Toko bahan makanan";"Mie Caluk Lapangan";"762X+GWJ, Kota Meureudu, Kec. Meureudu, Kabupaten Pidie Jaya, Aceh";"Kabupaten Pidie Jaya, Aceh";"ACEH";"";"Indonesia";" 085260777017";"5.2513422";"96.2497706";"https://maps.google.com/?cid=0x0:0x861de0b7132dab29"
"restaurant";"Mi";"Rumah makan NAGOYA";"66MX+J89, Beurawang, Kec. Meureudu, Kabupaten Pidie Jaya, Aceh";"Kabupaten Pidie Jaya, Aceh";"ACEH";"";"Indonesia";"";"5.2340388";"96.2483705";"https://maps.google.com/?cid=0x0:0x28a6d0993cfc1063"
"restaurant";"Restoran";"King Fried Chicken Meureudu";"Jl. Tgk. Syik Pante Geulima, Beurawang, Kec. Meureudu, Kabupaten Pidie Jaya, Aceh";"Kabupaten Pidie Jaya, Aceh";"ACEH";"";"Indonesia";" 082155846655";"5.2355375";"96.2470816";"https://maps.google.com/?cid=0x0:0x6badd28328c5fc39"
"restaurant";"Restoran";"PONDOK SERAMBI";"66GW+F49, Rungkom, Kec. Meureudu, Kabupaten Pidie Jaya, Aceh";"Kabupaten Pidie Jaya, Aceh";"ACEH";"";"Indonesia";" 085210333767";"5.2261606";"96.2453483";"https://maps.google.com/?cid=0x0:0xaca4a2dd2b4b93f5"
"restaurant";"Kafe";"dubai cafe";"66PW+393, Jl. Medan Banda Aceh, Dayah Timu, Kec. Meureudu, Kabupaten Pidie Jaya, Aceh";"Kabupaten Pidie Jaya, Aceh";"ACEH";"";"Indonesia";" 082261966512";"5.235134";"96.245935";"https://maps.google.com/?cid=0x0:0x8ae39b67ae20ac52"
"restaurant";"restaurant";"Kec. Panteraja";"Kabupaten Pidie Jaya, Aceh";"Kabupaten Pidie Jaya, Aceh";"ACEH";"";"Indonesia";"";"5.2718147";"96.1449859";"https://maps.google.com/?cid=0x0:0x316e7cb7d66a0d00"
"restaurant";"Dapur Umum";"WARUNG TERATAI";"Jl. Medan - Banda Aceh, Keude, Kec. Panteraja, Kabupaten Pidie Jaya, Aceh";"Kabupaten Pidie Jaya, Aceh";"ACEH";"";"Indonesia";" 087734984414";"5.2709728";"96.1458824";"https://maps.google.com/?cid=0x0:0xa13baba8d9fa2601"
"restaurant";"Kedai Kopi";"RM Cek Sal";"755J+VHW, Sagoe, Kec. Trienggadeng, Kabupaten Pidie Jaya, Aceh";"Kabupaten Pidie Jaya, Aceh";"ACEH";"";"Indonesia";" 085276581185";"5.259725";"96.1814474";"https://maps.google.com/?cid=0x0:0x73baaed126c3b77d"
"restaurant";"Kedai Kopi";"NIKMAT KOPI TRIENGGADENG";"Jl. Medan - Banda Aceh No.KM. 147, Sagoe, Kec. Trienggadeng, Kabupaten Pidie Jaya, Aceh 24185";"Sagoe, Kec. Trienggadeng, Kabupaten Pidie Jaya";"ACEH";"24185";"Indonesia";" 082136381970";"5.259928";"96.1806127";"https://maps.google.com/?cid=0x0:0xe3799aadf0d3e698"
"restaurant";"Kedai Kopi";"Uwais Kupi";"Tu Pantee Raja, Kec. Panteraja, Kabupaten Pidie Jaya, Aceh";"Kabupaten Pidie Jaya, Aceh";"ACEH";"";"Indonesia";" 082261106128";"5.2718407";"96.1311769";"https://maps.google.com/?cid=0x0:0x9fa91057e30e9f27"
"restaurant";"Kafe";"Rek Kuala Tripa";"749X+WHH, Jl. Medan Banda Aceh, Keude, Kec. Panteraja, Kabupaten Pidie Jaya, Aceh";"Kabupaten Pidie Jaya, Aceh";"ACEH";"";"Indonesia";"";"5.2698138";"96.1489778";"https://maps.google.com/?cid=0x0:0x36725d36354b16a6"
"restaurant";"Restoran";"Warung Arafah - wifi hotspot";"Gampong, Reudeup, Kec. Panteraja, Kabupaten Pidie Jaya, Aceh 24185";"Reudeup, Kec. Panteraja, Kabupaten Pidie Jaya";"ACEH";"24185";"Indonesia";" 081236328019";"5.2651737";"96.1659093";"https://maps.google.com/?cid=0x0:0x3d69027f9be16b6e"
"restaurant";"Kafe";"Uleetiti.coffe";"Keude, Kec. Panteraja, Kabupaten Pidie Jaya, Aceh";"Kabupaten Pidie Jaya, Aceh";"ACEH";"";"Indonesia";" 085360124440";"5.2737133";"96.1399905";"https://maps.google.com/?cid=0x0:0x55c72d970401d1b6"
"restaurant";"Kafe";"Cafe  Resto Pusaka Indatu";"748H+RV, Hagu, Kec. Panteraja, Kabupaten Pidie Jaya, Aceh";"Kabupaten Pidie Jaya, Aceh";"ACEH";"";"Indonesia";"";"5.26705";"96.129664";"https://maps.google.com/?cid=0x0:0x426dcd43b62b8ce4"
"restaurant";"Kedai Kopi";"Aceh Kupi";"755J+WCJ, Jl. Medan Banda Aceh, Sagoe, Kec. Trienggadeng, Kabupaten Pidie Jaya, Aceh";"Kabupaten Pidie Jaya, Aceh";"ACEH";"";"Indonesia";"";"5.2598331";"96.181021";"https://maps.google.com/?cid=0x0:0x3a393976f1cc3881"
"restaurant";"Rumah Makan";"rumah makan cut dah droeteuh";"756H+59P, Sagoe, Kec. Trienggadeng, Kabupaten Pidie Jaya, Aceh";"Kabupaten Pidie Jaya, Aceh";"ACEH";"";"Indonesia";" 082237836586";"5.2605052";"96.178509";"https://maps.google.com/?cid=0x0:0xf73d6635bb14d5bc"
"restaurant";"Kafe";"BALEI OEN";"Jl. Medan - Banda Aceh No.Km. 140, Paru, Keude, Kec. Bandar Baru, Kabupaten Pidie Jaya, Aceh 24184";"Paru, Keude, Kec. Bandar Baru, Kabupaten Pidie Jaya";"ACEH";"24184";"Indonesia";" 085217241240";"5.2640576";"96.1186039";"https://maps.google.com/?cid=0x0:0x8e8dbeeafbf4b59d"
"restaurant";"Rumah Makan";"Rumah Makan Pidie Jaya";"755M+J4Q, Keude, Kec. Trienggadeng, Kabupaten Pidie Jaya, Aceh";"Kabupaten Pidie Jaya, Aceh";"ACEH";"";"Indonesia";"";"5.2590804";"96.1828619";"https://maps.google.com/?cid=0x0:0x6ffa55906a36d064"
"restaurant";"Padang";"RM Qadar";"755M+P8R, Jl. Medan Banda Aceh, Keude, Kec. Trienggadeng, Kabupaten Pidie Jaya, Aceh";"Kabupaten Pidie Jaya, Aceh";"ACEH";"";"Indonesia";"";"5.25936";"96.1832656";"https://maps.google.com/?cid=0x0:0x2f88299942726fc2"
"restaurant";"restaurant";"Kec. Trienggadeng";"Kabupaten Pidie Jaya, Aceh";"Kabupaten Pidie Jaya, Aceh";"ACEH";"";"Indonesia";"";"5.259028";"96.1834886";"https://maps.google.com/?cid=0x0:0x47f2879d2ad38e99"
"restaurant";"Kedai Kopi";"NIKMAT KOPI TRIENGGADENG";"Jl. Medan - Banda Aceh No.KM. 147, Sagoe, Kec. Trienggadeng, Kabupaten Pidie Jaya, Aceh 24185";"Sagoe, Kec. Trienggadeng, Kabupaten Pidie Jaya";"ACEH";"24185";"Indonesia";" 082136381970";"5.259928";"96.1806127";"https://maps.google.com/?cid=0x0:0xe3799aadf0d3e698"
"restaurant";"";"PONDOK BERKAH";"Wisata Islami Trienggadeng, Sagoe, Kec. Meureudu, Kabupaten Pidie Jaya, Aceh 24185";"Sagoe, Kec. Meureudu, Kabupaten Pidie Jaya";"ACEH";"24185";"Indonesia";" 082294643637";"5.2629038";"96.1752588";"https://maps.google.com/?cid=0x0:0x5a48d372a313af91"
"restaurant";"Kedai Kopi";"Aceh Kupi";"755J+WCJ, Jl. Medan Banda Aceh, Sagoe, Kec. Trienggadeng, Kabupaten Pidie Jaya, Aceh";"Kabupaten Pidie Jaya, Aceh";"ACEH";"";"Indonesia";"";"5.2598331";"96.181021";"https://maps.google.com/?cid=0x0:0x3a393976f1cc3881"
"restaurant";"Padang";"RM Qadar";"755M+P8R, Jl. Medan Banda Aceh, Keude, Kec. Trienggadeng, Kabupaten Pidie Jaya, Aceh";"Kabupaten Pidie Jaya, Aceh";"ACEH";"";"Indonesia";"";"5.25936";"96.1832656";"https://maps.google.com/?cid=0x0:0x2f88299942726fc2"
"restaurant";"Padang";"Rumah makan Trienggadeng";"Jl. Medan - Banda Aceh, Keude, Kec. Trienggadeng, Kabupaten Pidie Jaya, Aceh 24185";"Keude, Kec. Trienggadeng, Kabupaten Pidie Jaya";"ACEH";"24185";"Indonesia";" 082168429470";"5.2592251";"96.1834279";"https://maps.google.com/?cid=0x0:0x75b7174f8958abce"
"restaurant";"Kepiting";"Martabak Kepiting Aceh";"762J+JV3, Jl. Rel Kereta Api, Deah Pangwa, Kec. Trienggadeng, Kabupaten Pidie Jaya, Aceh";"Kabupaten Pidie Jaya, Aceh";"ACEH";"";"Indonesia";"";"5.2515088";"96.2321627";"https://maps.google.com/?cid=0x0:0xf26b8b361bf79c15"
"restaurant";"Rumah Makan";"Rumah Makan Pidie Jaya";"755M+J4Q, Keude, Kec. Trienggadeng, Kabupaten Pidie Jaya, Aceh";"Kabupaten Pidie Jaya, Aceh";"ACEH";"";"Indonesia";"";"5.2590804";"96.1828619";"https://maps.google.com/?cid=0x0:0x6ffa55906a36d064"
"restaurant";"Rumah Makan";"rumah makan cut dah droeteuh";"756H+59P, Sagoe, Kec. Trienggadeng, Kabupaten Pidie Jaya, Aceh";"Kabupaten Pidie Jaya, Aceh";"ACEH";"";"Indonesia";" 082237836586";"5.2605052";"96.178509";"https://maps.google.com/?cid=0x0:0xf73d6635bb14d5bc"
"restaurant";"";"Daratan Bambu";"66MW+QQ7, Beurawang, Kec. Meureudu, Kabupaten Pidie Jaya, Aceh";"Kabupaten Pidie Jaya, Aceh";"ACEH";"";"Indonesia";"";"5.2344246";"96.2469269";"https://maps.google.com/?cid=0x0:0x55277dedb8f1d864"
"restaurant";"Kedai Kopi";"Kuala Cot Pasi Trienggadeng";"755M+XW3, Keude, Kec. Trienggadeng, Kabupaten Pidie Jaya, Aceh";"Kabupaten Pidie Jaya, Aceh";"ACEH";"";"Indonesia";" 081220743214";"5.2598835";"96.1847878";"https://maps.google.com/?cid=0x0:0xc70960eaeb2cabd"
"restaurant";"Rumah Makan";"RM ACEH MALAYA";"JL.BANDA-MEDAN GAMPOENG SAGOE.83AD, Kec. Trienggadeng, Kabupaten Pidie Jaya, Aceh 24185";"Kec. Trienggadeng, Kabupaten Pidie Jaya";"ACEH";"24185";"Indonesia";" 085361335975";"5.2604606";"96.1783667";"https://maps.google.com/?cid=0x0:0x77e8b003716bb3f4"
"restaurant";"Kedai Kopi";"Cek Sal Kopi";"755J+VJM, Sagoe, Kec. Trienggadeng, Kabupaten Pidie Jaya, Aceh";"Kabupaten Pidie Jaya, Aceh";"ACEH";"";"Indonesia";"";"5.2597113";"96.1815543";"https://maps.google.com/?cid=0x0:0x4ef98a2dd9bc518a"
"restaurant";"Bakso";"Mie B.Budiman Trienggadeng";"755J+RF6, Sagoe, Kec. Trienggadeng, Kabupaten Pidie Jaya, Aceh";"Kabupaten Pidie Jaya, Aceh";"ACEH";"";"Indonesia";"";"5.2595456";"96.1811327";"https://maps.google.com/?cid=0x0:0x3f7b5f0aae273ebf"
"restaurant";"restaurant";"Aceh 24187";"Kabupaten Pidie, Aceh";"Kabupaten Pidie, Aceh";"ACEH";"";"Indonesia";"";"5.1830255";"95.956825";"https://maps.google.com/?cid=0x0:0x882e17494b2bb8c"
"restaurant";"Bakso";"MIE BAKSO AYAM COTWENG";"5V4F+5M9, Jl. Beureunuen - Tangse, Lhok Keutapang, Kec. Tangse, Kabupaten Pidie, Aceh 24187";"Jl. Beureunuen - Tangse, Lhok Keutapang, Kec. Tangse, Kabupaten Pidie";"ACEH";"24187";"Indonesia";"";"5.1554005";"95.8742241";"https://maps.google.com/?cid=0x0:0x3fb2c1aed1022b30"
"restaurant";"Mi";"Mie kak salma";"6V98+WP9, Jl. Beureunuen - Tangse, Ugadeng, Kec. Keumala, Kabupaten Pidie, Aceh 24187";"Jl. Beureunuen - Tangse, Ugadeng, Kec. Keumala, Kabupaten Pidie";"ACEH";"24187";"Indonesia";" 082364770988";"5.2197974";"95.8668513";"https://maps.google.com/?cid=0x0:0xda02e170f7494a69"
"restaurant";"Kafe";"Bakso Aroma";"6VMQ+HH3, Unnamed Rd,, Jijiem, Kec. Keumala, Kabupaten Pidie, Aceh 24187";"Unnamed Rd,, Jijiem, Kec. Keumala, Kabupaten Pidie";"ACEH";"24187";"Indonesia";"";"5.2338784";"95.8889286";"https://maps.google.com/?cid=0x0:0x91483743c85621f1"
"restaurant";"Kafe";"bokir";"Jl. Beureunuen - Tangse, Rheng, Kec. Keumala, Kabupaten Pidie, Aceh 24187";"Rheng, Kec. Keumala, Kabupaten Pidie";"ACEH";"24187";"Indonesia";"";"5.2328249";"95.8834613";"https://maps.google.com/?cid=0x0:0x55b91d15c6f15b82"
"restaurant";"Rumah Kaca";"Desa lam ujong";"6XM2+33G, Lam Ujong, Kec. Sakti, Kabupaten Pidie, Aceh 24181";"Lam Ujong, Kec. Sakti, Kabupaten Pidie";"ACEH";"24181";"Indonesia";"";"5.2326877";"95.9502115";"https://maps.google.com/?cid=0x0:0x8c3f00bb6e4b5d44"
"restaurant";"Sarapan";"lontong kak eli";"6VJP+Q69, Rheng, Kec. Keumala, Kabupaten Pidie, Aceh 24187";"Rheng, Kec. Keumala, Kabupaten Pidie";"ACEH";"24187";"Indonesia";" 085359910521";"5.231903";"95.8856093";"https://maps.google.com/?cid=0x0:0x6825786f52bbb753"
"restaurant";"Bakso";"Kedai K'EPONG'S";"Rambong, Ugadeng, Kec. Mutiara Tim., Kabupaten Pidie, Aceh 24187";"Ugadeng, Kec. Mutiara Tim., Kabupaten Pidie";"ACEH";"24187";"Indonesia";" 085320587578";"5.2627628";"95.9920188";"https://maps.google.com/?cid=0x0:0x57ccd362b8eb4743"
"restaurant";"restaurant";"Namie";"Jl. Beureunuen - Tangse, Mali Cot, Kec. Sakti, Kabupaten Pidie, Aceh 24164";"Mali Cot, Kec. Sakti, Kabupaten Pidie";"ACEH";"24164";"Indonesia";"";"5.2721725";"95.9617971";"https://maps.google.com/?cid=0x0:0xd46f1a6f272bb2aa"
"restaurant";"Kedai Kopi";"Mie Cek Am Lameue";"Jl. Lamlo Jl. Jabal Ghafur, Lameue Mns Raya, Kec. Sakti, Kabupaten Pidie, Aceh 24164";"Lameue Mns Raya, Kec. Sakti, Kabupaten Pidie";"ACEH";"24164";"Indonesia";"";"5.2689806";"95.9284832";"https://maps.google.com/?cid=0x0:0x3a41a6ea7c3808ae"
"restaurant";"Restoran";"Bakso teulomlom";"6VGW+PG, Asan Nicah, Kec. Keumala, Kabupaten Pidie, Aceh 24181";"Asan Nicah, Kec. Keumala, Kabupaten Pidie";"ACEH";"24181";"Indonesia";" 085351265260";"5.2270042";"95.8963002";"https://maps.google.com/?cid=0x0:0xf0d76bcfddf2791e"
"restaurant";"Kedai Kopi";"WARUNG ADI MIE";"Jalan Banda Aceh-Medan Kec Glumpang Tiga, Kab Pidie, Km 120, Lambaro, Kec. Glumpang Tiga, Kabupaten Pidie, Aceh 24183";"Kab Pidie, Km 120, Lambaro, Kec. Glumpang Tiga, Kabupaten Pidie";"ACEH";"24183";"Indonesia";" 082370560020";"5.2610995";"96.0113152";"https://maps.google.com/?cid=0x0:0x78e78e1a84af944d"
"restaurant";"Bakso";"Bakso jiran Keumala";"6VGH+X2G, Sagoe, Kec. Keumala, Kabupaten Pidie, Aceh 24187";"Sagoe, Kec. Keumala, Kabupaten Pidie";"ACEH";"24187";"Indonesia";"";"5.2274264";"95.8775749";"https://maps.google.com/?cid=0x0:0xdbde0c9e2f5df4d8"
"restaurant";"Dapur Umum";"bakso melayu";"7X9Q+9F4, Tim., Gampong Lada, Kec. Mutiara Tim., Kabupaten Pidie, Aceh 24161";"Tim., Gampong Lada, Kec. Mutiara Tim., Kabupaten Pidie";"ACEH";"24161";"Indonesia";"";"5.2683783";"95.9887085";"https://maps.google.com/?cid=0x0:0x1f5a5c2dacbb4e95"
