Category,Real Category,Business Name,Address,City,State,Postal Code,Country,Phone,Latitude,Longitude,Map Link
hotel,Komplek perumahan,Mess PT MRI,"X98W+3J, Kapaleo, Kec. Pulau Gebe, Kabupaten Halmahera Tengah, Maluku Utara","Kabupaten Halmahera Tengah, Maluku Utara",MALUKU UTARA,,Indonesia,,-0.0348733,129.3965164,https://maps.google.com/?cid=0x0:0x203795a3f02fff71
cafe,Warnet,WARNET ARTHUR JB,"WCGJ+884, Kapaleo, Kec. Pulau Gebe, Kabupaten Halmahera Tengah, Maluku Utara 98481","Kapaleo, Kec. Pulau Gebe, Kabupaten Halmahera Tengah",MALUKU UTARA,98481.0,Indonesia,,-0.0742289,129.4308141,https://maps.google.com/?cid=0x0:0x9cc55234dc49b5d4
cafe,Terminal Feri,Pasar Gebe,"WCCM+W6X, Kapaleo, Kec. Pulau Gebe, Kabupaten Halmahera Tengah, Maluku Utara 98481","Kapaleo, Kec. Pulau Gebe, Kabupaten Halmahera Tengah",MALUKU UTARA,98481.0,Indonesia,,-0.0776499,129.433103,https://maps.google.com/?cid=0x0:0x6fa9beb628acc57e
hotel,hotel,Penginapan Athira,"WCCM+PHC, Kapaleo, Kec. Pulau Gebe, Kabupaten Halmahera Tengah, Maluku Utara 98481","Kapaleo, Kec. Pulau Gebe, Kabupaten Halmahera Tengah",MALUKU UTARA,98481.0,Indonesia,,-0.0781873,129.4338759,https://maps.google.com/?cid=0x0:0x3b53dd982bcdcbe0
cafe,Warnet,Rumah Makan Bulalei,"WCCH+X79, Gebe, Kapaleo, Pulau Gebe, Central Halmahera Regency, North Maluku","Kabupaten Halmahera Tengah, Maluku Utara",MALUKU UTARA,,Indonesia,,-0.0775982,129.4282275,https://maps.google.com/?cid=0x0:0x849b23a81eca397
hotel,Motel,COVE RESORT P.GEBE,"WC9J+5WC, Kapaleo, Kec. Pulau Gebe, Kabupaten Halmahera Tengah, Maluku Utara 98481","Kapaleo, Kec. Pulau Gebe, Kabupaten Halmahera Tengah",MALUKU UTARA,98481.0,Indonesia,,-0.0820521,129.4322611,https://maps.google.com/?cid=0x0:0xf1da05da8914c092
restaurant,Restoran,Rumah Makan AYU NUR NUR,"Unnamed Road, Wairoro Indah, Kec. Weda Sel., Kabupaten Halmahera Tengah, Maluku Utara","Kabupaten Halmahera Tengah, Maluku Utara",MALUKU UTARA,,Indonesia,81242194218.0,0.1560832,127.881514,https://maps.google.com/?cid=0x0:0x57b038c4d91fcf2a
restaurant,Indonesia,RM.Eby,"Unnamed Road, Lelilef Waibulan, Kec. Weda Tengah, Kabupaten Halmahera Tengah, Maluku Utara","Kabupaten Halmahera Tengah, Maluku Utara",MALUKU UTARA,,Indonesia,82195716262.0,0.4787423,127.8962412,https://maps.google.com/?cid=0x0:0x6bc8520f7d6cda92
restaurant,Rumah Makan,RM OLALA 2 LELILEF,"Unnamed Road, Lelilef Waibulan, Kec. Weda Tengah, Kabupaten Halmahera Tengah, Maluku Utara","Kabupaten Halmahera Tengah, Maluku Utara",MALUKU UTARA,,Indonesia,82322633603.0,0.4781612,127.8980892,https://maps.google.com/?cid=0x0:0xb375d233f8524ea4
restaurant,Rumah Makan,Warung Pojok mbak yuni,"Unnamed Road, Fidi Jaya, Kec. Weda, Kabupaten Halmahera Tengah, Maluku Utara","Kabupaten Halmahera Tengah, Maluku Utara",MALUKU UTARA,,Indonesia,8124444325.0,0.3345844,127.8782635,https://maps.google.com/?cid=0x0:0xc355ce806056716f
restaurant,Dapur Umum,Warung lamongan (sagea),"Sagea, Kec. Weda Utara, Kabupaten Halmahera Tengah, Maluku Utara 97854","Kec. Weda Utara, Kabupaten Halmahera Tengah",MALUKU UTARA,97854.0,Indonesia,81229422520.0,0.4619582,128.0904727,https://maps.google.com/?cid=0x0:0x7f4db8856b725de
restaurant,Kafetaria,Cafe Teras Kawinet,"Sagea, Kec. Weda Utara, Kabupaten Halmahera Tengah, Maluku Utara 97853","Kec. Weda Utara, Kabupaten Halmahera Tengah",MALUKU UTARA,97853.0,Indonesia,,0.465399,128.090897,https://maps.google.com/?cid=0x0:0xd3414018519ea135
restaurant,Gudang,PT SINERGI WEDA LAND,"Sagea, Kec. Weda Utara, Kabupaten Halmahera Tengah, Maluku Utara 97853","Kec. Weda Utara, Kabupaten Halmahera Tengah",MALUKU UTARA,97853.0,Indonesia,82367893333.0,0.4741749,128.0620793,https://maps.google.com/?cid=0x0:0xbb22bf5af40b8604
hotel,hotel,Pattani,"Sabarang, Mueang Pattani District, Provinsi Pattani 94000, Thailand","Mueang Pattani District, Provinsi Pattani",MALUKU UTARA,94000.0,Indonesia,,6.869516,101.2504562,https://maps.google.com/?cid=0x0:0xeed26f7fee591f73
restaurant,Komplek perumahan,Rumah Kopi HALMAHERA,"Rumah Kopi Halmahera, Gemia, Kec. Patani Utara, Kabupaten Halmahera Tengah, Maluku Utara","Kabupaten Halmahera Tengah, Maluku Utara",MALUKU UTARA,,Indonesia,,0.3170707,128.760065,https://maps.google.com/?cid=0x0:0xa5b401b6a04f5ca5
cafe,Komplek perumahan,Rumah Kopi HALMAHERA,"Rumah Kopi Halmahera, Gemia, Kec. Patani Utara, Kabupaten Halmahera Tengah, Maluku Utara","Kabupaten Halmahera Tengah, Maluku Utara",MALUKU UTARA,,Indonesia,,0.3170707,128.760065,https://maps.google.com/?cid=0x0:0xa5b401b6a04f5ca5
restaurant,Komplek perumahan,Rumah Kopi HALMAHERA,"Rumah Kopi Halmahera, Gemia, Kec. Patani Utara, Kabupaten Halmahera Tengah, Maluku Utara","Kabupaten Halmahera Tengah, Maluku Utara",MALUKU UTARA,,Indonesia,,0.3170707,128.760065,https://maps.google.com/?cid=0x0:0xa5b401b6a04f5ca5
cafe,Komplek perumahan,Rumah Kopi HALMAHERA,"Rumah Kopi Halmahera, Gemia, Kec. Patani Utara, Kabupaten Halmahera Tengah, Maluku Utara","Kabupaten Halmahera Tengah, Maluku Utara",MALUKU UTARA,,Indonesia,,0.3170707,128.760065,https://maps.google.com/?cid=0x0:0xa5b401b6a04f5ca5
cafe,Kedai Kopi,Rotomcoffee,"Q9VP+5H9, Gamalama, Kec. Ternate Tengah, Kota Ternate, Maluku Utara","Kota Ternate, Maluku Utara",MALUKU UTARA,,Indonesia,,0.7929055,127.3864935,https://maps.google.com/?cid=0x0:0xe497ea208aafd763
cafe,Kedai Kopi,ROTOM GARAGE,"Q97C+XVC, Jl. Falajawa Dua, Bastiong Karance, Kec. Ternate Sel., Kota Ternate, Maluku Utara","Kota Ternate, Maluku Utara",MALUKU UTARA,,Indonesia,,0.7649292,127.3721305,https://maps.google.com/?cid=0x0:0x5b79c41491b45fc9
restaurant,Hidangan Laut,SMORGAN Resto,"PXJV+JGQ, Jl. Pemerintahan, depan KODIM, Halut, Mkcm, Tobelo, North Halmahera Regency, North Maluku","Kabupaten Halmahera Utara, Maluku Utara",MALUKU UTARA,,Indonesia,85201115150.0,1.7315784,127.9938588,https://maps.google.com/?cid=0x0:0xd45d6fcd651f0c5c
restaurant,Hidangan Laut,SMORGAN Resto,"PXJV+JGQ, Jl. Pemerintahan, depan KODIM, Halut, Mkcm, Tobelo, North Halmahera Regency, North Maluku","Kabupaten Halmahera Utara, Maluku Utara",MALUKU UTARA,,Indonesia,85201115150.0,1.7315784,127.9938588,https://maps.google.com/?cid=0x0:0xd45d6fcd651f0c5c
hotel,hotel,D'Lodge Village Tobelo,"PXFM+G47, Jl Dukono, Gamsungi, Kec. Tobelo, Kabupaten Halmahera Utara, Maluku Utara","Kabupaten Halmahera Utara, Maluku Utara",MALUKU UTARA,,Indonesia,82187899793.0,1.7237953,127.9828016,https://maps.google.com/?cid=0x0:0x97255e7444041343
hotel,hotel,Hotel President,"P2H6+3F9, Jl. Kemakmuran, RT.02/RW.03, Gamsungi, Kec. Tobelo, Kabupaten Halmahera Utara, Maluku Utara 97762","Jl. Kemakmuran, RT.02/RW.03, Gamsungi, Kec. Tobelo, Kabupaten Halmahera Utara",MALUKU UTARA,97762.0,Indonesia,9242621353.0,1.7276524,128.0112339,https://maps.google.com/?cid=0x0:0x48545677de481d5
hotel,hotel,Bianda Hotel,"P2G6+VGM, Jl. Kemakmuran, Gamsungi, Kec. Tobelo, Kabupaten Halmahera Utara, Maluku Utara","Kabupaten Halmahera Utara, Maluku Utara",MALUKU UTARA,,Indonesia,,1.7272204,128.011288,https://maps.google.com/?cid=0x0:0x94545d064d6051e5
hotel,hotel,Bianda Hotel,"P2G6+VGM, Jl. Kemakmuran, Gamsungi, Kec. Tobelo, Kabupaten Halmahera Utara, Maluku Utara","Kabupaten Halmahera Utara, Maluku Utara",MALUKU UTARA,,Indonesia,,1.7272204,128.011288,https://maps.google.com/?cid=0x0:0x94545d064d6051e5
restaurant,Hidangan Laut,Rumah Makan Chokent,"P2F6+QJQ, Gamsungi, Kec. Tobelo, Kabupaten Halmahera Utara, Maluku Utara","Kabupaten Halmahera Utara, Maluku Utara",MALUKU UTARA,,Indonesia,85146223636.0,1.7244736,128.0116017,https://maps.google.com/?cid=0x0:0xb2418c82a0f026be
hotel,hotel,Johana Hotel,"P2F6+F4F, Gosoma, Kec. Tobelo, Kabupaten Halmahera Utara, Maluku Utara","Kabupaten Halmahera Utara, Maluku Utara",MALUKU UTARA,,Indonesia,9242623343.0,1.7236844,128.0102915,https://maps.google.com/?cid=0x0:0x1b997a52170a6c31
restaurant,Kedai Kopi,Restoran Patani 2,"NO. 79, C4, Sri Dagangan Bussiness Centre, 25000 Kuantan, Pahang, Malaysia",Kuantan,MALUKU UTARA,25000.0,Indonesia,60165617800.0,3.8115727,103.3249985,https://maps.google.com/?cid=0x0:0xca2c09abe1c27324
restaurant,Masakan Asia,Berkah89' Cafe  Resto,"M7PV+5H6, Jl. Kompleks perumahan dewan, Soa Gimalaha, Kec. Kota Maba, Kabupaten Halmahera Timur, Maluku Utara","Kabupaten Halmahera Timur, Maluku Utara",MALUKU UTARA,,Indonesia,81355463881.0,0.6854141,128.2938954,https://maps.google.com/?cid=0x0:0xdf2222a061f7b7e
restaurant,Restoran,RM. Moro Seneng,"M7PJ+23Q, Soa Gimalaha, Kec. Kota Maba, Kabupaten Halmahera Timur, Maluku Utara","Kabupaten Halmahera Timur, Maluku Utara",MALUKU UTARA,,Indonesia,,0.6850772,128.2802416,https://maps.google.com/?cid=0x0:0xc4ea86b21baa9494
cafe,Rumah Makan,Kampong Tenga Cafe  Eatery,"Lopong, Jalan Lintas, Gemaf, Sagea, Kabupaten Halmahera Tengah, Maluku Utara 97854","Jalan Lintas, Gemaf, Sagea, Kabupaten Halmahera Tengah",MALUKU UTARA,97854.0,Indonesia,85240125688.0,0.4784814,128.040269,https://maps.google.com/?cid=0x0:0xbebb2772151e4d05
restaurant,Dapur Umum,Lelilef Home Stay,"Lelilef Waibulan, Kec. Weda Tengah, Kabupaten Halmahera Tengah, Maluku Utara 97853","Kec. Weda Tengah, Kabupaten Halmahera Tengah",MALUKU UTARA,97853.0,Indonesia,81318610174.0,0.4700226,127.9180373,https://maps.google.com/?cid=0x0:0x955e0c7e311bfca8
restaurant,Brunch,RM SAUNG BANDUNG,"Lelilef Waibulan, Kec. Weda Tengah, Kabupaten Halmahera Tengah, Maluku Utara 97853","Kec. Weda Tengah, Kabupaten Halmahera Tengah",MALUKU UTARA,97853.0,Indonesia,,0.4775862,127.9024284,https://maps.google.com/?cid=0x0:0x941ba47492659b38
cafe,Dapur Umum,Lelilef Home Stay,"Lelilef Waibulan, Kec. Weda Tengah, Kabupaten Halmahera Tengah, Maluku Utara 97853","Kec. Weda Tengah, Kabupaten Halmahera Tengah",MALUKU UTARA,97853.0,Indonesia,81318610174.0,0.4700226,127.9180373,https://maps.google.com/?cid=0x0:0x955e0c7e311bfca8
cafe,Kafe,Wedrink Gemaf,"Lelilef Sawai, Kec. Weda Tengah, Kabupaten Halmahera Tengah, Maluku Utara 97853","Kec. Weda Tengah, Kabupaten Halmahera Tengah",MALUKU UTARA,97853.0,Indonesia,81213597801.0,0.4765211,128.0209071,https://maps.google.com/?cid=0x0:0x95431a64e5868f70
cafe,Rumah wisata,Tiberias Kost  Cafe,"Lelilef Sawai, Kec. Weda Tengah, Kabupaten Halmahera Tengah, Maluku Utara 97853","Kec. Weda Tengah, Kabupaten Halmahera Tengah",MALUKU UTARA,97853.0,Indonesia,811433378.0,0.4703544,127.9372769,https://maps.google.com/?cid=0x0:0x364088c1e6b82aca
restaurant,Hidangan Laut,RM OLALA BERKAH,"Lelilef Sawai, Kec. Weda Tengah, Kabupaten Halmahera Tengah, Maluku Utara 97853","Kec. Weda Tengah, Kabupaten Halmahera Tengah",MALUKU UTARA,97853.0,Indonesia,82322633603.0,0.4765087,128.0220221,https://maps.google.com/?cid=0x0:0xa04140f85bfe9820
restaurant,Hidangan Laut,RM OLALA BERKAH,"Lelilef Sawai, Kec. Weda Tengah, Kabupaten Halmahera Tengah, Maluku Utara 97853","Kec. Weda Tengah, Kabupaten Halmahera Tengah",MALUKU UTARA,97853.0,Indonesia,82322633603.0,0.4765087,128.0220221,https://maps.google.com/?cid=0x0:0xa04140f85bfe9820
restaurant,Kafe,Wedrink Gemaf,"Lelilef Sawai, Kec. Weda Tengah, Kabupaten Halmahera Tengah, Maluku Utara 97853","Kec. Weda Tengah, Kabupaten Halmahera Tengah",MALUKU UTARA,97853.0,Indonesia,81213597801.0,0.4765211,128.0209071,https://maps.google.com/?cid=0x0:0x95431a64e5868f70
hotel,hotel,Pulau Gebe,"Kec. Pulau Gebe, Kabupaten Halmahera Tengah, Maluku Utara","Kabupaten Halmahera Tengah, Maluku Utara",MALUKU UTARA,,Indonesia,,-0.1225875,129.49679,https://maps.google.com/?cid=0x0:0xba7b6f89abd5d56b
restaurant,restaurant,Pulau Gebe,"Kec. Pulau Gebe, Kabupaten Halmahera Tengah, Maluku Utara","Kabupaten Halmahera Tengah, Maluku Utara",MALUKU UTARA,,Indonesia,,-0.1225875,129.49679,https://maps.google.com/?cid=0x0:0xba7b6f89abd5d56b
cafe,cafe,Pulau Gebe,"Kec. Pulau Gebe, Kabupaten Halmahera Tengah, Maluku Utara","Kabupaten Halmahera Tengah, Maluku Utara",MALUKU UTARA,,Indonesia,,-0.1225875,129.49679,https://maps.google.com/?cid=0x0:0xba7b6f89abd5d56b
cafe,cafe,Penginapan Jayadi,"Kapaleo, Kec. Pulau Gebe, Kabupaten Halmahera Tengah, Maluku Utara 98481","Kec. Pulau Gebe, Kabupaten Halmahera Tengah",MALUKU UTARA,98481.0,Indonesia,,-0.0779989,129.4331567,https://maps.google.com/?cid=0x0:0xdeb08948d256d586
restaurant,restaurant,Kec. Pulau Gebe,"Kabupaten Halmahera Tengah, Maluku Utara","Kabupaten Halmahera Tengah, Maluku Utara",MALUKU UTARA,,Indonesia,,-0.074305,129.4308119,https://maps.google.com/?cid=0x0:0xcefe941ada208f4f
hotel,hotel,Kec. Patani,"Kabupaten Halmahera Tengah, Maluku Utara","Kabupaten Halmahera Tengah, Maluku Utara",MALUKU UTARA,,Indonesia,,0.2823971,128.757242,https://maps.google.com/?cid=0x0:0x935c3db9732688f2
hotel,hotel,Kec. Weda Utara,"Kabupaten Halmahera Tengah, Maluku Utara","Kabupaten Halmahera Tengah, Maluku Utara",MALUKU UTARA,,Indonesia,,0.40168,128.2936565,https://maps.google.com/?cid=0x0:0x5339e13af3bc03e7
hotel,hotel,Kec. Weda,"Kabupaten Halmahera Tengah, Maluku Utara","Kabupaten Halmahera Tengah, Maluku Utara",MALUKU UTARA,,Indonesia,,0.3274273,127.875202,https://maps.google.com/?cid=0x0:0x264d24e9fe19132d
restaurant,restaurant,Kec. Patani,"Kabupaten Halmahera Tengah, Maluku Utara","Kabupaten Halmahera Tengah, Maluku Utara",MALUKU UTARA,,Indonesia,,0.2823971,128.757242,https://maps.google.com/?cid=0x0:0x935c3db9732688f2
restaurant,restaurant,Kec. Weda Utara,"Kabupaten Halmahera Tengah, Maluku Utara","Kabupaten Halmahera Tengah, Maluku Utara",MALUKU UTARA,,Indonesia,,0.40168,128.2936565,https://maps.google.com/?cid=0x0:0x5339e13af3bc03e7
cafe,cafe,Kec. Patani Bar.,"Kabupaten Halmahera Tengah, Maluku Utara","Kabupaten Halmahera Tengah, Maluku Utara",MALUKU UTARA,,Indonesia,,0.3426344,128.5231413,https://maps.google.com/?cid=0x0:0x7a5f069631e1e820
cafe,cafe,Kec. Weda Tengah,"Kabupaten Halmahera Tengah, Maluku Utara","Kabupaten Halmahera Tengah, Maluku Utara",MALUKU UTARA,,Indonesia,,0.4681816,127.9343748,https://maps.google.com/?cid=0x0:0x190f4edba6db3d20
restaurant,restaurant,Kec. Weda,"Kabupaten Halmahera Tengah, Maluku Utara","Kabupaten Halmahera Tengah, Maluku Utara",MALUKU UTARA,,Indonesia,,0.3274273,127.875202,https://maps.google.com/?cid=0x0:0x264d24e9fe19132d
restaurant,restaurant,Kec. Weda Sel.,"Kabupaten Halmahera Tengah, Maluku Utara","Kabupaten Halmahera Tengah, Maluku Utara",MALUKU UTARA,,Indonesia,,0.1601245,127.8816535,https://maps.google.com/?cid=0x0:0x546082dc9350974a
cafe,cafe,Kec. Patani Utara,"Kabupaten Halmahera Tengah, Maluku Utara","Kabupaten Halmahera Tengah, Maluku Utara",MALUKU UTARA,,Indonesia,,0.3191627,128.7454942,https://maps.google.com/?cid=0x0:0xa52c99a051937008
cafe,cafe,Kec. Patani,"Kabupaten Halmahera Tengah, Maluku Utara","Kabupaten Halmahera Tengah, Maluku Utara",MALUKU UTARA,,Indonesia,,0.2823971,128.757242,https://maps.google.com/?cid=0x0:0x935c3db9732688f2
cafe,cafe,Kec. Weda Sel.,"Kabupaten Halmahera Tengah, Maluku Utara","Kabupaten Halmahera Tengah, Maluku Utara",MALUKU UTARA,,Indonesia,,0.1601245,127.8816535,https://maps.google.com/?cid=0x0:0x546082dc9350974a
hotel,hotel,Kec. Pulau Gebe,"Kabupaten Halmahera Tengah, Maluku Utara","Kabupaten Halmahera Tengah, Maluku Utara",MALUKU UTARA,,Indonesia,,-0.074305,129.4308119,https://maps.google.com/?cid=0x0:0xcefe941ada208f4f
hotel,hotel,Kec. Weda Tengah,"Kabupaten Halmahera Tengah, Maluku Utara","Kabupaten Halmahera Tengah, Maluku Utara",MALUKU UTARA,,Indonesia,,0.4681816,127.9343748,https://maps.google.com/?cid=0x0:0x190f4edba6db3d20
restaurant,restaurant,Kec. Patani Utara,"Kabupaten Halmahera Tengah, Maluku Utara","Kabupaten Halmahera Tengah, Maluku Utara",MALUKU UTARA,,Indonesia,,0.3191627,128.7454942,https://maps.google.com/?cid=0x0:0xa52c99a051937008
restaurant,restaurant,Kec. Weda Tengah,"Kabupaten Halmahera Tengah, Maluku Utara","Kabupaten Halmahera Tengah, Maluku Utara",MALUKU UTARA,,Indonesia,,0.4681816,127.9343748,https://maps.google.com/?cid=0x0:0x190f4edba6db3d20
hotel,hotel,Kec. Patani Utara,"Kabupaten Halmahera Tengah, Maluku Utara","Kabupaten Halmahera Tengah, Maluku Utara",MALUKU UTARA,,Indonesia,,0.3191627,128.7454942,https://maps.google.com/?cid=0x0:0xa52c99a051937008
hotel,hotel,Kec. Weda Sel.,"Kabupaten Halmahera Tengah, Maluku Utara","Kabupaten Halmahera Tengah, Maluku Utara",MALUKU UTARA,,Indonesia,,0.1601245,127.8816535,https://maps.google.com/?cid=0x0:0x546082dc9350974a
restaurant,restaurant,Kec. Patani Bar.,"Kabupaten Halmahera Tengah, Maluku Utara","Kabupaten Halmahera Tengah, Maluku Utara",MALUKU UTARA,,Indonesia,,0.3426344,128.5231413,https://maps.google.com/?cid=0x0:0x7a5f069631e1e820
cafe,cafe,Kec. Weda Utara,"Kabupaten Halmahera Tengah, Maluku Utara","Kabupaten Halmahera Tengah, Maluku Utara",MALUKU UTARA,,Indonesia,,0.40168,128.2936565,https://maps.google.com/?cid=0x0:0x5339e13af3bc03e7
cafe,cafe,Kec. Weda,"Kabupaten Halmahera Tengah, Maluku Utara","Kabupaten Halmahera Tengah, Maluku Utara",MALUKU UTARA,,Indonesia,,0.3274273,127.875202,https://maps.google.com/?cid=0x0:0x264d24e9fe19132d
cafe,cafe,CAFE OBATA,"JX74+545, Lelilef Sawai, Kec. Weda Tengah, Kabupaten Halmahera Tengah, Maluku Utara","Kabupaten Halmahera Tengah, Maluku Utara",MALUKU UTARA,,Indonesia,,0.6128858,127.9553517,https://maps.google.com/?cid=0x0:0x726989325cfc3ce5
cafe,cafe,Cafe Obata (Fanky Berkah),"JW5X+F2X, Lelilef Sawai, Kec. Weda Tengah, Kabupaten Halmahera Tengah, Maluku Utara","Kabupaten Halmahera Tengah, Maluku Utara",MALUKU UTARA,,Indonesia,82324787864.0,0.6087481,127.9476021,https://maps.google.com/?cid=0x0:0x53698b958116d9e7
hotel,hotel,Muara Inn Ternate,"Jl. Seruni, Kp. Pisang, Kec. Ternate Tengah, Kota Ternate, Maluku Utara 97712","Kp. Pisang, Kec. Ternate Tengah, Kota Ternate",MALUKU UTARA,97712.0,Indonesia,9216205200.0,0.7834742,127.3826265,https://maps.google.com/?cid=0x0:0x126e3446c8f963cb
hotel,hotel,Muara Inn Ternate,"Jl. Seruni, Kp. Pisang, Kec. Ternate Tengah, Kota Ternate, Maluku Utara 97712","Kp. Pisang, Kec. Ternate Tengah, Kota Ternate",MALUKU UTARA,97712.0,Indonesia,9216205200.0,0.7834742,127.3826265,https://maps.google.com/?cid=0x0:0x126e3446c8f963cb
hotel,hotel,Belson Hotel,"Jl. Rambutan, Makassar Bar., Kec. Ternate Tengah, Kota Ternate, Maluku Utara","Kota Ternate, Maluku Utara",MALUKU UTARA,,Indonesia,82236447778.0,0.7954817,127.3821387,https://maps.google.com/?cid=0x0:0x7bce70b8ddc88542
cafe,cafe,Kafe ning,"Jl. Pulau fao No.27a, desa elfanun, Kec. Pulau Gebe, Kabupaten Halmahera Tengah, Maluku Utara 97859","desa elfanun, Kec. Pulau Gebe, Kabupaten Halmahera Tengah",MALUKU UTARA,97859.0,Indonesia,,-0.0764121,129.4321679,https://maps.google.com/?cid=0x0:0x77ff123d029ce5a8
restaurant,restaurant,Kafe ning,"Jl. Pulau fao No.27a, desa elfanun, Kec. Pulau Gebe, Kabupaten Halmahera Tengah, Maluku Utara 97859","desa elfanun, Kec. Pulau Gebe, Kabupaten Halmahera Tengah",MALUKU UTARA,97859.0,Indonesia,,-0.0764121,129.4321679,https://maps.google.com/?cid=0x0:0x77ff123d029ce5a8
hotel,hotel,New Elshinta Hotel,"Jl. Pahlawan Revolusi No.58-60, Gamalama, Kec. Ternate Tengah, Kota Ternate, Maluku Utara 97721","Gamalama, Kec. Ternate Tengah, Kota Ternate",MALUKU UTARA,97721.0,Indonesia,9213121059.0,0.7876913,127.3886475,https://maps.google.com/?cid=0x0:0x389548d6595850cd
hotel,hotel,Muara Hotel and Mall Ternate,"Jl. Merdeka No.19, Gamalama, Kec. Ternate Tengah, Kota Ternate, Maluku Utara","Kota Ternate, Maluku Utara",MALUKU UTARA,,Indonesia,9213125553.0,0.7911445,127.3861909,https://maps.google.com/?cid=0x0:0x67cf3fcc0f55895
hotel,hotel,Muara Hotel and Mall Ternate,"Jl. Merdeka No.19, Gamalama, Kec. Ternate Tengah, Kota Ternate, Maluku Utara","Kota Ternate, Maluku Utara",MALUKU UTARA,,Indonesia,9213125553.0,0.7911445,127.3861909,https://maps.google.com/?cid=0x0:0x67cf3fcc0f55895
restaurant,Rumah Makan,OâBoss Resto And Cafe,"Jl. Kilo 3 arah perempatan, lelief, Kec. Weda, Maluku Utara","Kabupaten Halmahera Tengah, Maluku Utara",MALUKU UTARA,,Indonesia,82291662553.0,0.3483066,127.8576546,https://maps.google.com/?cid=0x0:0x2e790d689e413b8c
cafe,Rumah Makan,OâBoss Resto And Cafe,"Jl. Kilo 3 arah perempatan, lelief, Kec. Weda, Maluku Utara","Kabupaten Halmahera Tengah, Maluku Utara",MALUKU UTARA,,Indonesia,82291662553.0,0.3483066,127.8576546,https://maps.google.com/?cid=0x0:0x2e790d689e413b8c
cafe,Rumah Makan,OâBoss Resto And Cafe,"Jl. Kilo 3 arah perempatan, lelief, Kec. Weda, Maluku Utara","Kabupaten Halmahera Tengah, Maluku Utara",MALUKU UTARA,,Indonesia,82291662553.0,0.3483066,127.8576546,https://maps.google.com/?cid=0x0:0x2e790d689e413b8c
restaurant,Rumah Makan,OâBoss Resto And Cafe,"Jl. Kilo 3 arah perempatan, lelief, Kec. Weda, Maluku Utara","Kabupaten Halmahera Tengah, Maluku Utara",MALUKU UTARA,,Indonesia,82291662553.0,0.3483066,127.8576546,https://maps.google.com/?cid=0x0:0x2e790d689e413b8c
hotel,hotel,Marahai Park Hotel,"Jl. Kemakmuran, Wosia, Kec. Tobelo, Kabupaten Halmahera Utara, Maluku Utara 97762","Wosia, Kec. Tobelo, Kabupaten Halmahera Utara",MALUKU UTARA,97762.0,Indonesia,9242321470.0,1.7123424,128.0113095,https://maps.google.com/?cid=0x0:0x1773edc1a70bea03
hotel,hotel,Marahai Park Hotel,"Jl. Kemakmuran, Wosia, Kec. Tobelo, Kabupaten Halmahera Utara, Maluku Utara 97762","Wosia, Kec. Tobelo, Kabupaten Halmahera Utara",MALUKU UTARA,97762.0,Indonesia,9242321470.0,1.7123424,128.0113095,https://maps.google.com/?cid=0x0:0x1773edc1a70bea03
hotel,hotel,Hotel Elizabeth,"Jl. Kemakmuran, Gura, Kec. Tobelo, Kabupaten Halmahera Utara, Maluku Utara 97762","Gura, Kec. Tobelo, Kabupaten Halmahera Utara",MALUKU UTARA,97762.0,Indonesia,,1.7308941,128.0102163,https://maps.google.com/?cid=0x0:0x64ae6c4240cbb4c7
hotel,hotel,Hotel Elizabeth,"Jl. Kemakmuran, Gura, Kec. Tobelo, Kabupaten Halmahera Utara, Maluku Utara 97762","Gura, Kec. Tobelo, Kabupaten Halmahera Utara",MALUKU UTARA,97762.0,Indonesia,,1.7308941,128.0102163,https://maps.google.com/?cid=0x0:0x64ae6c4240cbb4c7
hotel,hotel,Hotel Elizabeth,"Jl. Kemakmuran, Gura, Kec. Tobelo, Kabupaten Halmahera Utara, Maluku Utara 97762","Gura, Kec. Tobelo, Kabupaten Halmahera Utara",MALUKU UTARA,97762.0,Indonesia,,1.7308941,128.0102163,https://maps.google.com/?cid=0x0:0x64ae6c4240cbb4c7
hotel,hotel,The Batik Hotel,"Jl. Kapitan Pattimura, Stadion, Kec. Ternate Tengah, Kota Ternate, Maluku Utara","Kota Ternate, Maluku Utara",MALUKU UTARA,,Indonesia,8114343343.0,0.7877576,127.3845077,https://maps.google.com/?cid=0x0:0x328d07a18d098e8d
hotel,hotel,Jati Hotel,"Jl. Jati Besar, Jati, Kec. Ternate Sel., Kota Ternate, Maluku Utara","Kota Ternate, Maluku Utara",MALUKU UTARA,,Indonesia,82317749090.0,0.7741052,127.3746306,https://maps.google.com/?cid=0x0:0x677ab57329945678
hotel,hotel,Grand Majang Hotel Ternate,"Jl. Arnold Mononutu No.275, Stadion, Kec. Ternate Tengah, Kota Ternate, Maluku Utara","Kota Ternate, Maluku Utara",MALUKU UTARA,,Indonesia,81289376601.0,0.7836107,127.3845012,https://maps.google.com/?cid=0x0:0xf6e7394b3e66015f
restaurant,Kedai Kopi,Jajan di ning,"jalan pulau fao, dusun ll, Gebe, Kec. Pulau Gebe, Kabupaten Halmahera Tengah, Maluku Utara 97859","dusun ll, Gebe, Kec. Pulau Gebe, Kabupaten Halmahera Tengah",MALUKU UTARA,97859.0,Indonesia,81225837338.0,-0.0766483,129.43213,https://maps.google.com/?cid=0x0:0x6f1c3d9489cfcad7
cafe,Kedai Kopi,Jajan di ning,"jalan pulau fao, dusun ll, Gebe, Kec. Pulau Gebe, Kabupaten Halmahera Tengah, Maluku Utara 97859","dusun ll, Gebe, Kec. Pulau Gebe, Kabupaten Halmahera Tengah",MALUKU UTARA,97859.0,Indonesia,81225837338.0,-0.0766483,129.43213,https://maps.google.com/?cid=0x0:0x6f1c3d9489cfcad7
cafe,Kedai Kopi,Acrual Coffee,"Jalan perumahan DPRD, Belakang RSUD, Kec. Kota Maba, Kabupaten Halmahera Timur, Maluku Utara 97862","Belakang RSUD, Kec. Kota Maba, Kabupaten Halmahera Timur",MALUKU UTARA,97862.0,Indonesia,81298830190.0,0.6855788,128.2940999,https://maps.google.com/?cid=0x0:0xc9f1240dd4753844
restaurant,Restoran,SRI PATANI TOMYAM  SEAFOOD,"jalan langgar bt 5 1/2 langgar, 06500 Alor Setar, Kedah, Malaysia",Alor Setar,MALUKU UTARA,6500.0,Indonesia,60134561526.0,6.1468798,100.426767,https://maps.google.com/?cid=0x0:0x135520386dc48674
hotel,hotel,Bela Hotel Ternate,"Jalan Jati Raya No.500, Jati, Kec. Ternate Sel., Kota Ternate, Maluku Utara","Kota Ternate, Maluku Utara",MALUKU UTARA,,Indonesia,9213121800.0,0.778607,127.376382,https://maps.google.com/?cid=0x0:0xadc0715ea2e729ec
hotel,hotel,Bela Hotel Ternate,"Jalan Jati Raya No.500, Jati, Kec. Ternate Sel., Kota Ternate, Maluku Utara","Kota Ternate, Maluku Utara",MALUKU UTARA,,Indonesia,9213121800.0,0.778607,127.376382,https://maps.google.com/?cid=0x0:0xadc0715ea2e729ec
hotel,hotel,Bela Hotel Ternate,"Jalan Jati Raya No.500, Jati, Kec. Ternate Sel., Kota Ternate, Maluku Utara","Kota Ternate, Maluku Utara",MALUKU UTARA,,Indonesia,9213121800.0,0.778607,127.376382,https://maps.google.com/?cid=0x0:0xadc0715ea2e729ec
cafe,Kedai Kopi,Obat cafe sakeulen,"GXX4+JW2, Lelilef Sawai, Kec. Weda Tengah, Kabupaten Halmahera Tengah, Maluku Utara","Kabupaten Halmahera Tengah, Maluku Utara",MALUKU UTARA,,Indonesia,,0.5490101,127.9572703,https://maps.google.com/?cid=0x0:0xca7f310a6c1bfbd1
hotel,hotel,Hotel Astonia Tobelo,"Gosoma, Kec. Tobelo, Kabupaten Halmahera Utara, Maluku Utara","Kabupaten Halmahera Utara, Maluku Utara",MALUKU UTARA,,Indonesia,9242621900.0,1.7223761,127.9947995,https://maps.google.com/?cid=0x0:0x99ff7dd9ff5c49af
hotel,hotel,Hotel Astonia Tobelo,"Gosoma, Kec. Tobelo, Kabupaten Halmahera Utara, Maluku Utara","Kabupaten Halmahera Utara, Maluku Utara",MALUKU UTARA,,Indonesia,9242621900.0,1.7223761,127.9947995,https://maps.google.com/?cid=0x0:0x99ff7dd9ff5c49af
hotel,hotel,Patani,"Gemia, Kec. Patani Utara, Kabupaten Halmahera Tengah, Maluku Utara","Kabupaten Halmahera Tengah, Maluku Utara",MALUKU UTARA,,Indonesia,,0.306088,128.754196,https://maps.google.com/?cid=0x0:0x2ab3fee4210c9b9c
cafe,Warnet,Umera JR Net 01,"Gebe, Umera, Kec. Pulau Gebe, Kabupaten Halmahera Tengah, Maluku Utara 97859","Umera, Kec. Pulau Gebe, Kabupaten Halmahera Tengah",MALUKU UTARA,97859.0,Indonesia,,-0.1974671,129.5725988,https://maps.google.com/?cid=0x0:0x7b5ce3a6af4f4181
restaurant,Warnet,Umera JR Net 01,"Gebe, Umera, Kec. Pulau Gebe, Kabupaten Halmahera Tengah, Maluku Utara 97859","Umera, Kec. Pulau Gebe, Kabupaten Halmahera Tengah",MALUKU UTARA,97859.0,Indonesia,,-0.1974671,129.5725988,https://maps.google.com/?cid=0x0:0x7b5ce3a6af4f4181
hotel,hotel,Juliana Hotel,"Gamsungi, Kec. Tobelo, Kabupaten Halmahera Utara, Maluku Utara","Kabupaten Halmahera Utara, Maluku Utara",MALUKU UTARA,,Indonesia,82191159141.0,1.7272579,128.0105717,https://maps.google.com/?cid=0x0:0x97231ba37bd2cf65
hotel,hotel,Juliana Hotel,"Gamsungi, Kec. Tobelo, Kabupaten Halmahera Utara, Maluku Utara","Kabupaten Halmahera Utara, Maluku Utara",MALUKU UTARA,,Indonesia,82191159141.0,1.7272579,128.0105717,https://maps.google.com/?cid=0x0:0x97231ba37bd2cf65
restaurant,Motel,Mess C PT DNA,"FXMX+QJ5, Lelilef Sawai, Kec. Weda Tengah, Kabupaten Halmahera Tengah, Maluku Utara","Kabupaten Halmahera Tengah, Maluku Utara",MALUKU UTARA,,Indonesia,82188587746.0,0.4843814,127.9991186,https://maps.google.com/?cid=0x0:0x6c8963e5c8b5805b
cafe,Rumah Makan,MAROON Kedai Kopi  Resto,"FWJC+2R7, Lelilef Waibulan, Kec. Weda Tengah, Kabupaten Halmahera Tengah, Maluku Utara","Kabupaten Halmahera Tengah, Maluku Utara",MALUKU UTARA,,Indonesia,85395965579.0,0.4800484,127.922044,https://maps.google.com/?cid=0x0:0x17bbcb54317bed33
cafe,Restoran,Restoran cafe puncak 2 jari,"FWGG+52M, Lelilef Waibulan, Kec. Weda Tengah, Kabupaten Halmahera Tengah, Maluku Utara","Kabupaten Halmahera Tengah, Maluku Utara",MALUKU UTARA,,Indonesia,,0.4754657,127.9250356,https://maps.google.com/?cid=0x0:0x93641ca5d729c69
restaurant,Dapur Umum,RM Yuchen,"FWCM+M9R, Lelilef Sawai, Kec. Weda Tengah, Kabupaten Halmahera Tengah, Maluku Utara","Kabupaten Halmahera Tengah, Maluku Utara",MALUKU UTARA,,Indonesia,81340030037.0,0.4717399,127.9333884,https://maps.google.com/?cid=0x0:0x58b6cdfac55b49d8
cafe,Kedai Kopi,BOBA KAMSIA,"FWCM+H4P, Lelilef Sawai, Kec. Weda Tengah, Kabupaten Halmahera Tengah, Maluku Utara","Kabupaten Halmahera Tengah, Maluku Utara",MALUKU UTARA,,Indonesia,,0.471176,127.9325341,https://maps.google.com/?cid=0x0:0xe9f1167acb48283c
cafe,Kedai Kopi,Coffee shop MW 91,"FW9P+MWG, Lelilef Sawai, Kec. Weda Tengah, Kabupaten Halmahera Tengah, Maluku Utara","Kabupaten Halmahera Tengah, Maluku Utara",MALUKU UTARA,,Indonesia,,0.4691792,127.9373202,https://maps.google.com/?cid=0x0:0xed7903f8dc8d8bba
restaurant,Makanan Siap Saji,CFC,"FW9M+G97, Lelilef Sawai, Kec. Weda Tengah, Kabupaten Halmahera Tengah, Maluku Utara","Kabupaten Halmahera Tengah, Maluku Utara",MALUKU UTARA,,Indonesia,,0.4690797,127.933295,https://maps.google.com/?cid=0x0:0x2c97d8d7816abf9e
restaurant,Restoran,Puncak Amora Cafe  Resto,"FW9F+9M3, Lelilef Waibulan, Kec. Weda Tengah, Kabupaten Halmahera Tengah, Maluku Utara","Kabupaten Halmahera Tengah, Maluku Utara",MALUKU UTARA,,Indonesia,81396310677.0,0.469445,127.92492,https://maps.google.com/?cid=0x0:0xd782d3a8b642bdc0
cafe,Restoran,Puncak Amora Cafe  Resto,"FW9F+9M3, Lelilef Waibulan, Kec. Weda Tengah, Kabupaten Halmahera Tengah, Maluku Utara","Kabupaten Halmahera Tengah, Maluku Utara",MALUKU UTARA,,Indonesia,81396310677.0,0.469445,127.92492,https://maps.google.com/?cid=0x0:0xd782d3a8b642bdc0
restaurant,Rumah Makan,Warung Sabar Menanti,"FW9F+9J4, Lelilef Waibulan, Kec. Weda Tengah, Kabupaten Halmahera Tengah, Maluku Utara","Kabupaten Halmahera Tengah, Maluku Utara",MALUKU UTARA,,Indonesia,,0.4683819,127.9240892,https://maps.google.com/?cid=0x0:0xd6a7f9e0fc2c037e
restaurant,Restoran,RM. Mie ayam bakso wong solo 02 cabang weda,"FW9F+97W, Lelilef Waibulan, Kec. Weda Tengah, Kabupaten Halmahera Tengah, Maluku Utara","Kabupaten Halmahera Tengah, Maluku Utara",MALUKU UTARA,,Indonesia,82195659182.0,0.4686802,127.9232104,https://maps.google.com/?cid=0x0:0xa0ae0cb1b1fa77eb
restaurant,Padang,Rumah makan bungo tanjuang,"FW9F+6VH, Lelilef Sawai, Kec. Weda Tengah, Kabupaten Halmahera Tengah, Maluku Utara","Kabupaten Halmahera Tengah, Maluku Utara",MALUKU UTARA,,Indonesia,,0.4680567,127.9247246,https://maps.google.com/?cid=0x0:0x8f0cc14d5a6ed127
restaurant,Rumah Makan,Warung Ijo Barokah Wahyu Yayu,"FW9C+GXR, Lelilef Waibulan, Kec. Weda Tengah, Kabupaten Halmahera Tengah, Maluku Utara","Kabupaten Halmahera Tengah, Maluku Utara",MALUKU UTARA,,Indonesia,85396109987.0,0.4688617,127.9223998,https://maps.google.com/?cid=0x0:0x6ee53a55efe5b633
cafe,Kedai Kopi,zona cafe,"FW99+X4, Lelilef Waibulan, Kec. Weda Tengah, Kabupaten Halmahera Tengah, Maluku Utara","Kabupaten Halmahera Tengah, Maluku Utara",MALUKU UTARA,,Indonesia,,0.4699768,127.9177833,https://maps.google.com/?cid=0x0:0x184af3561b5222e9
cafe,Kedai Kopi,zona cafe,"FW99+X4, Lelilef Waibulan, Kec. Weda Tengah, Kabupaten Halmahera Tengah, Maluku Utara","Kabupaten Halmahera Tengah, Maluku Utara",MALUKU UTARA,,Indonesia,,0.4699768,127.9177833,https://maps.google.com/?cid=0x0:0x184af3561b5222e9
cafe,Kedai Kopi,zona cafe,"FW99+X4, Lelilef Waibulan, Kec. Weda Tengah, Kabupaten Halmahera Tengah, Maluku Utara","Kabupaten Halmahera Tengah, Maluku Utara",MALUKU UTARA,,Indonesia,,0.4699768,127.9177833,https://maps.google.com/?cid=0x0:0x184af3561b5222e9
cafe,Kedai Kopi,zona cafe,"FW99+X4, Lelilef Waibulan, Kec. Weda Tengah, Kabupaten Halmahera Tengah, Maluku Utara","Kabupaten Halmahera Tengah, Maluku Utara",MALUKU UTARA,,Indonesia,,0.4699768,127.9177833,https://maps.google.com/?cid=0x0:0x184af3561b5222e9
restaurant,Padang,RUMAH MAKAN PADANG RAYA 2,"Fidi Jaya, Kec. Weda, Kabupaten Halmahera Tengah, Maluku Utara","Kabupaten Halmahera Tengah, Maluku Utara",MALUKU UTARA,,Indonesia,81340464129.0,0.3353241,127.8795778,https://maps.google.com/?cid=0x0:0x1850f03d9df88dd1
cafe,Kedai Kopi,Weda Town Cafe,"Fidi Jaya, Kec. Weda Tengah, Kabupaten Halmahera Tengah, Maluku Utara","Kabupaten Halmahera Tengah, Maluku Utara",MALUKU UTARA,,Indonesia,8124113545.0,0.3344287,127.8805734,https://maps.google.com/?cid=0x0:0x8d9505e856ee1997
cafe,Kedai Kopi,Weda Town Cafe,"Fidi Jaya, Kec. Weda Tengah, Kabupaten Halmahera Tengah, Maluku Utara","Kabupaten Halmahera Tengah, Maluku Utara",MALUKU UTARA,,Indonesia,8124113545.0,0.3344287,127.8805734,https://maps.google.com/?cid=0x0:0x8d9505e856ee1997
cafe,Kedai Kopi,Weda Town Cafe,"Fidi Jaya, Kec. Weda Tengah, Kabupaten Halmahera Tengah, Maluku Utara","Kabupaten Halmahera Tengah, Maluku Utara",MALUKU UTARA,,Indonesia,8124113545.0,0.3344287,127.8805734,https://maps.google.com/?cid=0x0:0x8d9505e856ee1997
cafe,Rumah Makan,NICKEL RESTO,"F3F6+PG, Sagea, Kec. Weda Utara, Kabupaten Halmahera Tengah, Maluku Utara","Kabupaten Halmahera Tengah, Maluku Utara",MALUKU UTARA,,Indonesia,,0.4743174,128.0612698,https://maps.google.com/?cid=0x0:0x84291ac344688e58
restaurant,Rumah Makan,NICKEL RESTO,"F3F6+PG, Sagea, Kec. Weda Utara, Kabupaten Halmahera Tengah, Maluku Utara","Kabupaten Halmahera Tengah, Maluku Utara",MALUKU UTARA,,Indonesia,,0.4743174,128.0612698,https://maps.google.com/?cid=0x0:0x84291ac344688e58
restaurant,Rumah Makan,NICKEL RESTO,"F3F6+PG, Sagea, Kec. Weda Utara, Kabupaten Halmahera Tengah, Maluku Utara","Kabupaten Halmahera Tengah, Maluku Utara",MALUKU UTARA,,Indonesia,,0.4743174,128.0612698,https://maps.google.com/?cid=0x0:0x84291ac344688e58
cafe,Komplek perumahan,SAGEA LOVER,"F38R+592, Sagea, Kec. Weda Utara, Kabupaten Halmahera Tengah, Maluku Utara","Kabupaten Halmahera Tengah, Maluku Utara",MALUKU UTARA,,Indonesia,81347545016.0,0.465399,128.090897,https://maps.google.com/?cid=0x0:0x143c3e11aa7e5b3
restaurant,Komplek perumahan,SAGEA LOVER,"F38R+592, Sagea, Kec. Weda Utara, Kabupaten Halmahera Tengah, Maluku Utara","Kabupaten Halmahera Tengah, Maluku Utara",MALUKU UTARA,,Indonesia,81347545016.0,0.465399,128.090897,https://maps.google.com/?cid=0x0:0x143c3e11aa7e5b3
cafe,Organisasi Nonprofit,Folklore kopi dan Perpustakaan,"F37W+4R7, Sagea, Kec. Weda Utara, Kabupaten Halmahera Tengah, Maluku Utara","Kabupaten Halmahera Tengah, Maluku Utara",MALUKU UTARA,,Indonesia,,0.4627857,128.0970357,https://maps.google.com/?cid=0x0:0x951da8fe5d0d2307
restaurant,Nasi,Terangbulan daeng ga'ga,"F36R+VG7, Sagea, Kec. Weda Utara, Kabupaten Halmahera Tengah, Maluku Utara","Kabupaten Halmahera Tengah, Maluku Utara",MALUKU UTARA,,Indonesia,,0.461816,128.091202,https://maps.google.com/?cid=0x0:0x32187ebb3430caee
cafe,Pusat Perbelanjaan,Weda,"F2P4+6W, Lelilef Sawai, Kec. Weda Tengah, Kabupaten Halmahera Tengah, Maluku Utara","Kabupaten Halmahera Tengah, Maluku Utara",MALUKU UTARA,,Indonesia,82239454574.0,0.4855173,128.0072773,https://maps.google.com/?cid=0x0:0x4e8818e53c9647cb
cafe,Pusat Perbelanjaan,Weda,"F2P4+6W, Lelilef Sawai, Kec. Weda Tengah, Kabupaten Halmahera Tengah, Maluku Utara","Kabupaten Halmahera Tengah, Maluku Utara",MALUKU UTARA,,Indonesia,82239454574.0,0.4855173,128.0072773,https://maps.google.com/?cid=0x0:0x4e8818e53c9647cb
restaurant,Dapur Umum,RM. Salu-Meda,"F2HM+4PV, Gemaf, Kec. Weda Utara, Kabupaten Halmahera Tengah, Maluku Utara","Kabupaten Halmahera Tengah, Maluku Utara",MALUKU UTARA,,Indonesia,,0.4778729,128.0342951,https://maps.google.com/?cid=0x0:0xd0dcffa33073963b
cafe,Kedai Kopi,UMAH DUREN,"F2GC+JX, Lelilef Sawai, Kec. Weda Tengah, Kabupaten Halmahera Tengah, Maluku Utara","Kabupaten Halmahera Tengah, Maluku Utara",MALUKU UTARA,,Indonesia,,0.4765882,128.0224589,https://maps.google.com/?cid=0x0:0x23fc67a002567736
restaurant,Kedai Kopi,UMAH DUREN,"F2GC+JX, Lelilef Sawai, Kec. Weda Tengah, Kabupaten Halmahera Tengah, Maluku Utara","Kabupaten Halmahera Tengah, Maluku Utara",MALUKU UTARA,,Indonesia,,0.4765882,128.0224589,https://maps.google.com/?cid=0x0:0x23fc67a002567736
hotel,hotel,Homestay Grand Teluk Weda,"Desa Wedana, Nurweda, Kec. Weda, Kabupaten Halmahera Tengah, Maluku Utara 97853","Nurweda, Kec. Weda, Kabupaten Halmahera Tengah",MALUKU UTARA,97853.0,Indonesia,85236358315.0,0.3258973,127.8647391,https://maps.google.com/?cid=0x0:0xfcfa652b498e186c
hotel,hotel,Homestay Grand Teluk Weda,"Desa Wedana, Nurweda, Kec. Weda, Kabupaten Halmahera Tengah, Maluku Utara 97853","Nurweda, Kec. Weda, Kabupaten Halmahera Tengah",MALUKU UTARA,97853.0,Indonesia,85236358315.0,0.3258973,127.8647391,https://maps.google.com/?cid=0x0:0xfcfa652b498e186c
hotel,hotel,Homestay Grand Teluk Weda,"Desa Wedana, Nurweda, Kec. Weda, Kabupaten Halmahera Tengah, Maluku Utara 97853","Nurweda, Kec. Weda, Kabupaten Halmahera Tengah",MALUKU UTARA,97853.0,Indonesia,85236358315.0,0.3258973,127.8647391,https://maps.google.com/?cid=0x0:0xfcfa652b498e186c
hotel,hotel,Homestay Grand Teluk Weda,"Desa Wedana, Nurweda, Kec. Weda, Kabupaten Halmahera Tengah, Maluku Utara 97853","Nurweda, Kec. Weda, Kabupaten Halmahera Tengah",MALUKU UTARA,97853.0,Indonesia,85236358315.0,0.3258973,127.8647391,https://maps.google.com/?cid=0x0:0xfcfa652b498e186c
hotel,hotel,Homestay Grand Teluk Weda,"Desa Wedana, Nurweda, Kec. Weda, Kabupaten Halmahera Tengah, Maluku Utara 97853","Nurweda, Kec. Weda, Kabupaten Halmahera Tengah",MALUKU UTARA,97853.0,Indonesia,85236358315.0,0.3258973,127.8647391,https://maps.google.com/?cid=0x0:0xfcfa652b498e186c
hotel,hotel,HOTEL SIMORE WEDA,"depan SPBU kompak, Nurweda, Kec. Weda, Kabupaten Halmahera Tengah, Maluku Utara 97853","Nurweda, Kec. Weda, Kabupaten Halmahera Tengah",MALUKU UTARA,97853.0,Indonesia,85136412778.0,0.3216514,127.8723579,https://maps.google.com/?cid=0x0:0x3e6c86eb9ef28d79
hotel,hotel,HOTEL SIMORE WEDA,"depan SPBU kompak, Nurweda, Kec. Weda, Kabupaten Halmahera Tengah, Maluku Utara 97853","Nurweda, Kec. Weda, Kabupaten Halmahera Tengah",MALUKU UTARA,97853.0,Indonesia,85136412778.0,0.3216514,127.8723579,https://maps.google.com/?cid=0x0:0x3e6c86eb9ef28d79
hotel,hotel,HOTEL SIMORE WEDA,"depan SPBU kompak, Nurweda, Kec. Weda, Kabupaten Halmahera Tengah, Maluku Utara 97853","Nurweda, Kec. Weda, Kabupaten Halmahera Tengah",MALUKU UTARA,97853.0,Indonesia,85136412778.0,0.3216514,127.8723579,https://maps.google.com/?cid=0x0:0x3e6c86eb9ef28d79
hotel,hotel,HOTEL SIMORE WEDA,"depan SPBU kompak, Nurweda, Kec. Weda, Kabupaten Halmahera Tengah, Maluku Utara 97853","Nurweda, Kec. Weda, Kabupaten Halmahera Tengah",MALUKU UTARA,97853.0,Indonesia,85136412778.0,0.3216514,127.8723579,https://maps.google.com/?cid=0x0:0x3e6c86eb9ef28d79
hotel,hotel,HOTEL SIMORE WEDA,"depan SPBU kompak, Nurweda, Kec. Weda, Kabupaten Halmahera Tengah, Maluku Utara 97853","Nurweda, Kec. Weda, Kabupaten Halmahera Tengah",MALUKU UTARA,97853.0,Indonesia,85136412778.0,0.3216514,127.8723579,https://maps.google.com/?cid=0x0:0x3e6c86eb9ef28d79
cafe,Kafetaria,WEDRINK WEDA,"DEPAN KANTOR CAPIL, Nurweda, Kec. Weda, Kabupaten Halmahera Tengah, Maluku Utara 97853","Nurweda, Kec. Weda, Kabupaten Halmahera Tengah",MALUKU UTARA,97853.0,Indonesia,82289369108.0,0.3194315,127.8729759,https://maps.google.com/?cid=0x0:0x86805571e34262f1
cafe,Kafetaria,WEDRINK WEDA,"DEPAN KANTOR CAPIL, Nurweda, Kec. Weda, Kabupaten Halmahera Tengah, Maluku Utara 97853","Nurweda, Kec. Weda, Kabupaten Halmahera Tengah",MALUKU UTARA,97853.0,Indonesia,82289369108.0,0.3194315,127.8729759,https://maps.google.com/?cid=0x0:0x86805571e34262f1
hotel,hotel,Weda Resort,"CWC3+WQR, Sawai Itepo, Kec. Weda Tengah, Kabupaten Halmahera Tengah, Maluku Utara","Kabupaten Halmahera Tengah, Maluku Utara",MALUKU UTARA,,Indonesia,8124433754.0,0.4223656,127.9044058,https://maps.google.com/?cid=0x0:0xe2414953297afc97
hotel,hotel,Weda Resort,"CWC3+WQR, Sawai Itepo, Kec. Weda Tengah, Kabupaten Halmahera Tengah, Maluku Utara","Kabupaten Halmahera Tengah, Maluku Utara",MALUKU UTARA,,Indonesia,8124433754.0,0.4223656,127.9044058,https://maps.google.com/?cid=0x0:0xe2414953297afc97
hotel,hotel,SDN Tayawi,"CPRQ+VWW, Koli, Kec. Oba, Kota Tidore Kepulauan, Maluku Utara","Kota Tidore Kepulauan, Maluku Utara",MALUKU UTARA,,Indonesia,81356444202.0,0.4422262,127.7398169,https://maps.google.com/?cid=0x0:0x3ae330742f86b98a
cafe,cafe,Pantai bou masure beach,"9MHG+8PH, Masure, Kec. Patani Utara, Kabupaten Halmahera Tengah, Maluku Utara","Kabupaten Halmahera Tengah, Maluku Utara",MALUKU UTARA,,Indonesia,,0.3783017,128.6768683,https://maps.google.com/?cid=0x0:0x3f1ffd864134d6d
restaurant,Kedai Kopi,Kafe Kenangan,"9HQH+GRV, Bobane Jaya, Kec. Patani Bar., Kabupaten Halmahera Tengah, Maluku Utara","Kabupaten Halmahera Tengah, Maluku Utara",MALUKU UTARA,,Indonesia,,0.3888709,128.5795405,https://maps.google.com/?cid=0x0:0xf654887c69f08d0f
cafe,Kedai Kopi,Kafe Kenangan,"9HQH+GRV, Bobane Jaya, Kec. Patani Bar., Kabupaten Halmahera Tengah, Maluku Utara","Kabupaten Halmahera Tengah, Maluku Utara",MALUKU UTARA,,Indonesia,,0.3888709,128.5795405,https://maps.google.com/?cid=0x0:0xf654887c69f08d0f
restaurant,Kedai Kopi,Kafe Kenangan,"9HQH+GRV, Bobane Jaya, Kec. Patani Bar., Kabupaten Halmahera Tengah, Maluku Utara","Kabupaten Halmahera Tengah, Maluku Utara",MALUKU UTARA,,Indonesia,,0.3888709,128.5795405,https://maps.google.com/?cid=0x0:0xf654887c69f08d0f
cafe,Klub Olahraga,Kafe Karaoke,"8VW6+J8, Fidi Jaya, Kec. Weda, Kabupaten Halmahera Tengah, Maluku Utara","Kabupaten Halmahera Tengah, Maluku Utara",MALUKU UTARA,,Indonesia,82195459966.0,0.3465249,127.8607981,https://maps.google.com/?cid=0x0:0x8c6a2754680c86a9
restaurant,restaurant,Waroeng Sego Rame,"8VR9+M6W, Fidi Jaya, Kec. Weda, Kabupaten Halmahera Tengah, Maluku Utara","Kabupaten Halmahera Tengah, Maluku Utara",MALUKU UTARA,,Indonesia,,0.341065,127.8681517,https://maps.google.com/?cid=0x0:0x22e77db0549295b3
restaurant,restaurant,Waroeng Sego Rame,"8VR9+M6W, Fidi Jaya, Kec. Weda, Kabupaten Halmahera Tengah, Maluku Utara","Kabupaten Halmahera Tengah, Maluku Utara",MALUKU UTARA,,Indonesia,,0.341065,127.8681517,https://maps.google.com/?cid=0x0:0x22e77db0549295b3
cafe,Pusat Perbelanjaan,POSISI PLAZA WEDA,"8VPH+G7G, Fidi Jaya, Kec. Weda, Kabupaten Halmahera Tengah, Maluku Utara","Kabupaten Halmahera Tengah, Maluku Utara",MALUKU UTARA,,Indonesia,,0.3363223,127.8782,https://maps.google.com/?cid=0x0:0xc4386dca687905b4
cafe,Pusat Perbelanjaan,POSISI PLAZA WEDA,"8VPH+G7G, Fidi Jaya, Kec. Weda, Kabupaten Halmahera Tengah, Maluku Utara","Kabupaten Halmahera Tengah, Maluku Utara",MALUKU UTARA,,Indonesia,,0.3363223,127.8782,https://maps.google.com/?cid=0x0:0xc4386dca687905b4
cafe,Kafetaria,Caffe Azkan,"8VPH+2M3, Unnamed Road, Fidi Jaya, Weda Tengah, Central Halmahera Regency, North Maluku","Kabupaten Halmahera Tengah, Maluku Utara",MALUKU UTARA,,Indonesia,,0.3350052,127.8791709,https://maps.google.com/?cid=0x0:0x33b4d9f4148650cb
restaurant,Jawa,Rumah Makan Weda Pury,"8VMJ+G5F, Fidi Jaya, Kec. Weda Tengah, Kabupaten Halmahera Tengah, Maluku Utara","Kabupaten Halmahera Tengah, Maluku Utara",MALUKU UTARA,,Indonesia,82194140546.0,0.3338165,127.8804252,https://maps.google.com/?cid=0x0:0x9963278fa6cee45e
restaurant,Jawa,Rumah Makan Weda Pury,"8VMJ+G5F, Fidi Jaya, Kec. Weda Tengah, Kabupaten Halmahera Tengah, Maluku Utara","Kabupaten Halmahera Tengah, Maluku Utara",MALUKU UTARA,,Indonesia,82194140546.0,0.3338165,127.8804252,https://maps.google.com/?cid=0x0:0x9963278fa6cee45e
restaurant,Restoran,Rumah Makan Jawa,"8VMH+RP5, Unnamed Road, Fidi Jaya, Kec. Weda Tengah, Kabupaten Halmahera Tengah, Maluku Utara","Kabupaten Halmahera Tengah, Maluku Utara",MALUKU UTARA,,Indonesia,,0.3345171,127.8793742,https://maps.google.com/?cid=0x0:0xe953af6f720abbce
restaurant,Restoran,Rumah Makan Jawa,"8VMH+RP5, Unnamed Road, Fidi Jaya, Kec. Weda Tengah, Kabupaten Halmahera Tengah, Maluku Utara","Kabupaten Halmahera Tengah, Maluku Utara",MALUKU UTARA,,Indonesia,,0.3345171,127.8793742,https://maps.google.com/?cid=0x0:0xe953af6f720abbce
restaurant,Rumah Makan,RUMAH MAKAN TANJUNG JAYA,"8VMH+86C depan tower indosat, desa, Fidi Jaya, Kec. Weda, Kabupaten Halmahera Tengah, Maluku Utara","Kabupaten Halmahera Tengah, Maluku Utara",MALUKU UTARA,,Indonesia,81244383069.0,0.3333186,127.8780063,https://maps.google.com/?cid=0x0:0xc68ed1f3318529f8
restaurant,Rumah Makan,RUMAH MAKAN TANJUNG JAYA,"8VMH+86C depan tower indosat, desa, Fidi Jaya, Kec. Weda, Kabupaten Halmahera Tengah, Maluku Utara","Kabupaten Halmahera Tengah, Maluku Utara",MALUKU UTARA,,Indonesia,81244383069.0,0.3333186,127.8780063,https://maps.google.com/?cid=0x0:0xc68ed1f3318529f8
restaurant,Rumah Makan,RUMAH MAKAN MALUKU,"8VMG+WWC, Unnamed Road, Fidi Jaya, Kec. Weda, Kabupaten Halmahera Tengah, Maluku Utara","Kabupaten Halmahera Tengah, Maluku Utara",MALUKU UTARA,,Indonesia,,0.3348085,127.8772649,https://maps.google.com/?cid=0x0:0xefab6646d51dc28c
restaurant,Rumah Makan,RUMAH MAKAN MALUKU,"8VMG+WWC, Unnamed Road, Fidi Jaya, Kec. Weda, Kabupaten Halmahera Tengah, Maluku Utara","Kabupaten Halmahera Tengah, Maluku Utara",MALUKU UTARA,,Indonesia,,0.3348085,127.8772649,https://maps.google.com/?cid=0x0:0xefab6646d51dc28c
cafe,Kafetaria,E TO E COFFEE SHOP,"8VMG+568, Fidi Jaya, Kec. Weda Tengah, Kabupaten Halmahera Tengah, Maluku Utara","Kabupaten Halmahera Tengah, Maluku Utara",MALUKU UTARA,,Indonesia,81340106037.0,0.3331268,127.8765503,https://maps.google.com/?cid=0x0:0xd6be26bb324c154
cafe,Kafetaria,E TO E COFFEE SHOP,"8VMG+568, Fidi Jaya, Kec. Weda Tengah, Kabupaten Halmahera Tengah, Maluku Utara","Kabupaten Halmahera Tengah, Maluku Utara",MALUKU UTARA,,Indonesia,81340106037.0,0.3331268,127.8765503,https://maps.google.com/?cid=0x0:0xd6be26bb324c154
cafe,Kafetaria,E TO E COFFEE SHOP,"8VMG+568, Fidi Jaya, Kec. Weda Tengah, Kabupaten Halmahera Tengah, Maluku Utara","Kabupaten Halmahera Tengah, Maluku Utara",MALUKU UTARA,,Indonesia,81340106037.0,0.3331268,127.8765503,https://maps.google.com/?cid=0x0:0xd6be26bb324c154
cafe,Kedai Kopi,Gara Gara Kopi,"8VJH+9CG, Fidi Jaya, Kec. Weda Tengah, Kabupaten Halmahera Tengah, Maluku Utara","Kabupaten Halmahera Tengah, Maluku Utara",MALUKU UTARA,,Indonesia,,0.3309455,127.8785687,https://maps.google.com/?cid=0x0:0x54568a7258011fcc
cafe,Kafetaria,Santui Weda cafe,"8VJG+QQH, Fidi Jaya, Kec. Weda Tengah, Kabupaten Halmahera Tengah, Maluku Utara","Kabupaten Halmahera Tengah, Maluku Utara",MALUKU UTARA,,Indonesia,,0.331947,127.8768595,https://maps.google.com/?cid=0x0:0xb165a3589af98b92
cafe,Kafetaria,Santui Weda cafe,"8VJG+QQH, Fidi Jaya, Kec. Weda Tengah, Kabupaten Halmahera Tengah, Maluku Utara","Kabupaten Halmahera Tengah, Maluku Utara",MALUKU UTARA,,Indonesia,,0.331947,127.8768595,https://maps.google.com/?cid=0x0:0xb165a3589af98b92
restaurant,Restoran,RM anugrah,"8VJG+PHX, Fidi Jaya, Kec. Weda Tengah, Kabupaten Halmahera Tengah, Maluku Utara","Kabupaten Halmahera Tengah, Maluku Utara",MALUKU UTARA,,Indonesia,81243480479.0,0.3318575,127.8764899,https://maps.google.com/?cid=0x0:0x2ff7fd44dfb87203
restaurant,Restoran,RM anugrah,"8VJG+PHX, Fidi Jaya, Kec. Weda Tengah, Kabupaten Halmahera Tengah, Maluku Utara","Kabupaten Halmahera Tengah, Maluku Utara",MALUKU UTARA,,Indonesia,81243480479.0,0.3318575,127.8764899,https://maps.google.com/?cid=0x0:0x2ff7fd44dfb87203
cafe,Kafetaria,Monocrome Cafe,"8VHF+56X, Were, Kec. Weda Tengah, Kabupaten Halmahera Tengah, Maluku Utara","Kabupaten Halmahera Tengah, Maluku Utara",MALUKU UTARA,,Indonesia,81339422503.0,0.3279962,127.8731228,https://maps.google.com/?cid=0x0:0xad615662720ee90b
cafe,Kafetaria,Monocrome Cafe,"8VHF+56X, Were, Kec. Weda Tengah, Kabupaten Halmahera Tengah, Maluku Utara","Kabupaten Halmahera Tengah, Maluku Utara",MALUKU UTARA,,Indonesia,81339422503.0,0.3279962,127.8731228,https://maps.google.com/?cid=0x0:0xad615662720ee90b
cafe,Kafetaria,Monocrome Cafe,"8VHF+56X, Were, Kec. Weda Tengah, Kabupaten Halmahera Tengah, Maluku Utara","Kabupaten Halmahera Tengah, Maluku Utara",MALUKU UTARA,,Indonesia,81339422503.0,0.3279962,127.8731228,https://maps.google.com/?cid=0x0:0xad615662720ee90b
cafe,Kedai Kopi,MATINAT COFFE,"8VGF+HWM, Were, Kec. Weda, Kabupaten Halmahera Tengah, Maluku Utara","Kabupaten Halmahera Tengah, Maluku Utara",MALUKU UTARA,,Indonesia,,0.3264522,127.8747855,https://maps.google.com/?cid=0x0:0xba9dbf1582b2048b
cafe,Kedai Kopi,MATINAT COFFE,"8VGF+HWM, Were, Kec. Weda, Kabupaten Halmahera Tengah, Maluku Utara","Kabupaten Halmahera Tengah, Maluku Utara",MALUKU UTARA,,Indonesia,,0.3264522,127.8747855,https://maps.google.com/?cid=0x0:0xba9dbf1582b2048b
restaurant,Restoran,GOBI CAFE AND RESTO,"8VGC+7F5, Nurweda, Kec. Weda, Kabupaten Halmahera Tengah, Maluku Utara","Kabupaten Halmahera Tengah, Maluku Utara",MALUKU UTARA,,Indonesia,,0.3257961,127.8713667,https://maps.google.com/?cid=0x0:0x1ffe77153d12022e
cafe,Restoran,GOBI CAFE AND RESTO,"8VGC+7F5, Nurweda, Kec. Weda, Kabupaten Halmahera Tengah, Maluku Utara","Kabupaten Halmahera Tengah, Maluku Utara",MALUKU UTARA,,Indonesia,,0.3257961,127.8713667,https://maps.google.com/?cid=0x0:0x1ffe77153d12022e
restaurant,Restoran,GOBI CAFE AND RESTO,"8VGC+7F5, Nurweda, Kec. Weda, Kabupaten Halmahera Tengah, Maluku Utara","Kabupaten Halmahera Tengah, Maluku Utara",MALUKU UTARA,,Indonesia,,0.3257961,127.8713667,https://maps.google.com/?cid=0x0:0x1ffe77153d12022e
cafe,Restoran,GOBI CAFE AND RESTO,"8VGC+7F5, Nurweda, Kec. Weda, Kabupaten Halmahera Tengah, Maluku Utara","Kabupaten Halmahera Tengah, Maluku Utara",MALUKU UTARA,,Indonesia,,0.3257961,127.8713667,https://maps.google.com/?cid=0x0:0x1ffe77153d12022e
restaurant,Kafetaria,Cafe  Resto Bukit Goeng,"8V8C+FFF, Nurweda, Kec. Weda, Kabupaten Halmahera Tengah, Maluku Utara","Kabupaten Halmahera Tengah, Maluku Utara",MALUKU UTARA,,Indonesia,,0.3161947,127.8711746,https://maps.google.com/?cid=0x0:0xe62e2db8984f9cb2
cafe,Kafetaria,Cafe  Resto Bukit Goeng,"8V8C+FFF, Nurweda, Kec. Weda, Kabupaten Halmahera Tengah, Maluku Utara","Kabupaten Halmahera Tengah, Maluku Utara",MALUKU UTARA,,Indonesia,,0.3161947,127.8711746,https://maps.google.com/?cid=0x0:0xe62e2db8984f9cb2
cafe,Kafetaria,Cafe  Resto Bukit Goeng,"8V8C+FFF, Nurweda, Kec. Weda, Kabupaten Halmahera Tengah, Maluku Utara","Kabupaten Halmahera Tengah, Maluku Utara",MALUKU UTARA,,Indonesia,,0.3161947,127.8711746,https://maps.google.com/?cid=0x0:0xe62e2db8984f9cb2
cafe,Kafetaria,Cafe  Resto Bukit Goeng,"8V8C+FFF, Nurweda, Kec. Weda, Kabupaten Halmahera Tengah, Maluku Utara","Kabupaten Halmahera Tengah, Maluku Utara",MALUKU UTARA,,Indonesia,,0.3161947,127.8711746,https://maps.google.com/?cid=0x0:0xe62e2db8984f9cb2
restaurant,Kafetaria,Cafe  Resto Bukit Goeng,"8V8C+FFF, Nurweda, Kec. Weda, Kabupaten Halmahera Tengah, Maluku Utara","Kabupaten Halmahera Tengah, Maluku Utara",MALUKU UTARA,,Indonesia,,0.3161947,127.8711746,https://maps.google.com/?cid=0x0:0xe62e2db8984f9cb2
cafe,Tempat Istirahat,Talaga indah Nosliko,"8V2F+2JP, Fidi Jaya, Weda Tengah, Kabupaten Halmahera Tengah, Maluku Utara","Kabupaten Halmahera Tengah, Maluku Utara",MALUKU UTARA,,Indonesia,82194140546.0,0.3000795,127.8740707,https://maps.google.com/?cid=0x0:0xbd2556c6a239ffc6
restaurant,Tempat Istirahat,Talaga indah Nosliko,"8V2F+2JP, Fidi Jaya, Weda Tengah, Kabupaten Halmahera Tengah, Maluku Utara","Kabupaten Halmahera Tengah, Maluku Utara",MALUKU UTARA,,Indonesia,82194140546.0,0.3000795,127.8740707,https://maps.google.com/?cid=0x0:0xbd2556c6a239ffc6
cafe,Kantor Pemerintah,Capil,"8RRJ+72J, Nurweda, Kec. Weda, Kabupaten Halmahera Tengah, Maluku Utara","Kabupaten Halmahera Tengah, Maluku Utara",MALUKU UTARA,,Indonesia,83854563917.0,0.3407154,127.8300034,https://maps.google.com/?cid=0x0:0x85dda40159d8c762
restaurant,Bakso,RM. Bakso Nuklir,"8RGX+F4, Nurweda, Kec. Weda, Kabupaten Halmahera Tengah, Maluku Utara","Kabupaten Halmahera Tengah, Maluku Utara",MALUKU UTARA,,Indonesia,81383631272.0,0.3261528,127.8478417,https://maps.google.com/?cid=0x0:0x1ea135180e2f2807
restaurant,Bakso,RM. Bakso Nuklir,"8RGX+F4, Nurweda, Kec. Weda, Kabupaten Halmahera Tengah, Maluku Utara","Kabupaten Halmahera Tengah, Maluku Utara",MALUKU UTARA,,Indonesia,81383631272.0,0.3261528,127.8478417,https://maps.google.com/?cid=0x0:0x1ea135180e2f2807
cafe,Komplek perumahan,Rumah om baim,"8Q85+CQQ, Gemia, Kec. Patani Utara, Kabupaten Halmahera Tengah, Maluku Utara","Kabupaten Halmahera Tengah, Maluku Utara",MALUKU UTARA,,Indonesia,,0.3154295,128.7596627,https://maps.google.com/?cid=0x0:0x64c2f5f7b87c7fec
hotel,Restoran,Pantai Cib Cebe,"8Q7Q+JQW, Bilifitu, Kec. Patani Utara, Halmahera, Maluku Utara","Halmahera, Maluku Utara",MALUKU UTARA,,Indonesia,,0.3141139,128.7894516,https://maps.google.com/?cid=0x0:0x2e9a52da8a59d166
cafe,Area Mendaki,Wisata Pantai Sibem Mara,"8MRF+49M, Desa Palo, Kecamatan Patani Timur, Pantura Jaya, Kec. Patani Utara, Kabupaten Halmahera Tengah, Maluku Utara","Kabupaten Halmahera Tengah, Maluku Utara",MALUKU UTARA,,Indonesia,81244251991.0,0.3403425,128.6734364,https://maps.google.com/?cid=0x0:0x1e3b2172fcc3f7de
restaurant,Area Mendaki,Wisata Pantai Sibem Mara,"8MRF+49M, Desa Palo, Kecamatan Patani Timur, Pantura Jaya, Kec. Patani Utara, Kabupaten Halmahera Tengah, Maluku Utara","Kabupaten Halmahera Tengah, Maluku Utara",MALUKU UTARA,,Indonesia,81244251991.0,0.3403425,128.6734364,https://maps.google.com/?cid=0x0:0x1e3b2172fcc3f7de
restaurant,Restoran,Bukit sibenmara,"8HCG+48, Bobane Indah, Kec. Patani Bar., Kabupaten Halmahera Tengah, Maluku Utara","Kabupaten Halmahera Tengah, Maluku Utara",MALUKU UTARA,,Indonesia,,0.3203302,128.5757906,https://maps.google.com/?cid=0x0:0x2acd3e82b3446000
cafe,Kedai Kopi,Berdikari Caffe,"8HC8+3J2, Bobane Jaya, Kec. Patani Bar., Kabupaten Halmahera Tengah, Maluku Utara","Kabupaten Halmahera Tengah, Maluku Utara",MALUKU UTARA,,Indonesia,,0.3202216,128.5668444,https://maps.google.com/?cid=0x0:0xef1361cd9a2b365b
cafe,Kedai Kopi,Berdikari Caffe,"8HC8+3J2, Bobane Jaya, Kec. Patani Bar., Kabupaten Halmahera Tengah, Maluku Utara","Kabupaten Halmahera Tengah, Maluku Utara",MALUKU UTARA,,Indonesia,,0.3202216,128.5668444,https://maps.google.com/?cid=0x0:0xef1361cd9a2b365b
restaurant,restaurant,marni,"8H97+WX2, Bobane Jaya, Kec. Patani Bar., Kabupaten Halmahera Tengah, Maluku Utara","Kabupaten Halmahera Tengah, Maluku Utara",MALUKU UTARA,,Indonesia,,0.3197639,128.5649041,https://maps.google.com/?cid=0x0:0xf166a7b6faef9d25
restaurant,restaurant,marni,"8H97+WX2, Bobane Jaya, Kec. Patani Bar., Kabupaten Halmahera Tengah, Maluku Utara","Kabupaten Halmahera Tengah, Maluku Utara",MALUKU UTARA,,Indonesia,,0.3197639,128.5649041,https://maps.google.com/?cid=0x0:0xf166a7b6faef9d25
restaurant,Klub Malam,Woye Roth Resto Bar  Karaoke,"7VRJ+GMP, Nusliko, Kec. Weda, Kabupaten Halmahera Tengah, Maluku Utara","Kabupaten Halmahera Tengah, Maluku Utara",MALUKU UTARA,,Indonesia,82271057236.0,0.2913289,127.881712,https://maps.google.com/?cid=0x0:0xf0674c20d18c506b
restaurant,Klub Malam,Woye Roth Resto Bar  Karaoke,"7VRJ+GMP, Nusliko, Kec. Weda, Kabupaten Halmahera Tengah, Maluku Utara","Kabupaten Halmahera Tengah, Maluku Utara",MALUKU UTARA,,Indonesia,82271057236.0,0.2913289,127.881712,https://maps.google.com/?cid=0x0:0xf0674c20d18c506b
cafe,Toko,Kios paraikatte kec.patani,"7QJ4+PQR, Yondeliu, Kec. Patani, Kabupaten Halmahera Tengah, Maluku Utara","Kabupaten Halmahera Tengah, Maluku Utara",MALUKU UTARA,,Indonesia,82352438591.0,0.2824288,128.7563901,https://maps.google.com/?cid=0x0:0x8d1fba4e61251750
cafe,Toko,Kios paraikatte kec.patani,"7QJ4+PQR, Yondeliu, Kec. Patani, Kabupaten Halmahera Tengah, Maluku Utara","Kabupaten Halmahera Tengah, Maluku Utara",MALUKU UTARA,,Indonesia,82352438591.0,0.2824288,128.7563901,https://maps.google.com/?cid=0x0:0x8d1fba4e61251750
cafe,Kafe,Tajong - muzium cafÃ© de pattani,"7 3 à¸à¸à¸ à¸«à¸à¸­à¸à¸à¸´à¸ Tambon Sabarang, à¹à¸¡à¸·à¸­à¸ Pattani 94000, Thailand",à¹à¸¡à¸·à¸­à¸ Pattani,MALUKU UTARA,94000.0,Indonesia,66987356900.0,6.8681268,101.2479213,https://maps.google.com/?cid=0x0:0x2035494ee0c9cda6
restaurant,Restoran,Tist Makan,"47 à¸à¸à¸à¸ªà¸²à¸¡à¸±à¸à¸à¸µà¸ªà¸²à¸¢ à¸ Sabarang, Mueang Pattani District, Pattani 94000, Thailand","Mueang Pattani District, Pattani",MALUKU UTARA,94000.0,Indonesia,6673330754.0,6.8739694,101.2490056,https://maps.google.com/?cid=0x0:0x968642abd46321a3
cafe,Restoran,The Pattanion (à¹à¸à¸­à¸° à¸à¸±à¸à¸à¸²à¹à¸à¸µà¹à¸¢à¸),"47 à¸à¸à¸à¸ªà¸²à¸¡à¸±à¸à¸à¸µà¸ªà¸²à¸¢ à¸ Sabarang, Mueang Pattani District, Pattani 94000, Thailand","Mueang Pattani District, Pattani",MALUKU UTARA,94000.0,Indonesia,66897359920.0,6.8736548,101.2487993,https://maps.google.com/?cid=0x0:0xadb7c6664fb1065d
hotel,hotel,The Wood Pattani Hotel,"17 10 à¸«à¸¡à¸¹à¹à¸à¸µà¹ 6 à¸à¸à¸à¹à¸à¸£à¸´à¸à¸à¸£à¸°à¸à¸´à¸©à¸à¹ à¸à¸­à¸¢ 10 Rusamilae, Mueang Pattani District, Pattani 94000, Thailand","Mueang Pattani District, Pattani",MALUKU UTARA,94000.0,Indonesia,66914790666.0,6.8715947,101.2389064,https://maps.google.com/?cid=0x0:0x289e1528d79a5f19
hotel,hotel,,,,MALUKU UTARA,,Indonesia,,,,https://maps.google.com/?cid=0x0:0xadc0715ea2e729ec%7C/g/121hftnj%7Cid-ID
hotel,hotel,,,,MALUKU UTARA,,Indonesia,,,,https://maps.google.com/?cid=0x0:0x126e3446c8f963cb%7C/g/11fhrgz5r3%7Cid-ID
hotel,hotel,,,,MALUKU UTARA,,Indonesia,,,,https://maps.google.com/?cid=0x0:0x67cf3fcc0f55895%7C/g/11b6d93y9z%7Cid-ID
hotel,hotel,,,,MALUKU UTARA,,Indonesia,,,,https://maps.google.com/?cid=0x0:0x126e3446c8f963cb%7C/g/11fhrgz5r3%7Cid-ID
hotel,hotel,,,,MALUKU UTARA,,Indonesia,,,,https://maps.google.com/?cid=0x0:0x328d07a18d098e8d%7C/g/11b7wc8rqw%7Cid-ID
hotel,hotel,,,,MALUKU UTARA,,Indonesia,,,,https://maps.google.com/?cid=0x0:0x328d07a18d098e8d%7C/g/11b7wc8rqw%7Cid-ID
hotel,hotel,,,,MALUKU UTARA,,Indonesia,,,,https://maps.google.com/?cid=0x0:0x67cf3fcc0f55895%7C/g/11b6d93y9z%7Cid-ID
hotel,hotel,,,,MALUKU UTARA,,Indonesia,,,,https://maps.google.com/?cid=0x0:0x328d07a18d098e8d%7C/g/11b7wc8rqw%7Cid-ID
hotel,hotel,,,,MALUKU UTARA,,Indonesia,,,,https://maps.google.com/?cid=0x0:0xadc0715ea2e729ec%7C/g/121hftnj%7Cid-ID
