Category,Real Category,Business Name,Address,City,State,Postal Code,Country,Phone,Latitude,Longitude,Map Link
toko bangunan,Toko Perlengkapan Rumah,TOKO Bahan Bangunan Bobohoo,"Unnamed Road, Soa Gimalaha, Kec. Kota Maba, Kabupaten Halmahera Timur, Maluku Utara","Kabupaten Halmahera Timur, Maluku Utara",MALUKU UTARA,,Indonesia,82344091888.0,0.6902266,128.2950041,https://maps.google.com/?cid=0x0:0x4372c85023912b79
toko bangunan,Toko Perlengkapan Rumah,TOKO Bahan Bangunan Bobohoo,"Unnamed Road, Soa Gimalaha, Kec. Kota Maba, Kabupaten Halmahera Timur, Maluku Utara","Kabupaten Halmahera Timur, Maluku Utara",MALUKU UTARA,,Indonesia,82344091888.0,0.6902266,128.2950041,https://maps.google.com/?cid=0x0:0x4372c85023912b79
hardware store,Kantor Perusahaan,PT IWIP,"Unnamed Road, Lelilef Sawai, Kec. Weda Tengah, Kabupaten Halmahera Tengah, Maluku Utara","Kabupaten Halmahera Tengah, Maluku Utara",MALUKU UTARA,,Indonesia,,0.4790098,127.9823237,https://maps.google.com/?cid=0x0:0x5058b3191200f1bf
housing complex,Kantor Perusahaan,PT IWIP,"Unnamed Road, Lelilef Sawai, Kec. Weda Tengah, Kabupaten Halmahera Tengah, Maluku Utara","Kabupaten Halmahera Tengah, Maluku Utara",MALUKU UTARA,,Indonesia,,0.4790098,127.9823237,https://maps.google.com/?cid=0x0:0x5058b3191200f1bf
toko bangunan,Kantor Perusahaan,PT IWIP,"Unnamed Road, Lelilef Sawai, Kec. Weda Tengah, Kabupaten Halmahera Tengah, Maluku Utara","Kabupaten Halmahera Tengah, Maluku Utara",MALUKU UTARA,,Indonesia,,0.4790098,127.9823237,https://maps.google.com/?cid=0x0:0x5058b3191200f1bf
building materials,Kantor Perusahaan,PT IWIP,"Unnamed Road, Lelilef Sawai, Kec. Weda Tengah, Kabupaten Halmahera Tengah, Maluku Utara","Kabupaten Halmahera Tengah, Maluku Utara",MALUKU UTARA,,Indonesia,,0.4790098,127.9823237,https://maps.google.com/?cid=0x0:0x5058b3191200f1bf
building materials,Kantor Perusahaan,PT IWIP,"Unnamed Road, Lelilef Sawai, Kec. Weda Tengah, Kabupaten Halmahera Tengah, Maluku Utara","Kabupaten Halmahera Tengah, Maluku Utara",MALUKU UTARA,,Indonesia,,0.4790098,127.9823237,https://maps.google.com/?cid=0x0:0x5058b3191200f1bf
hardware store,Toko Bahan Bangunan,Siddhanath hardware and motor Reyanding,"to, Ranmasle, Khuneshwar, Maharashtra 413222, India","Ranmasle, Khuneshwar, Maharashtra",MALUKU UTARA,413222.0,Indonesia,919145234821.0,17.844155,75.7943789,https://maps.google.com/?cid=0x0:0xf234114237c767c2
supermarket bangunan,Toko Bahan Bangunan,Makmur Utama Supermarket Bahan bangunan,"Tj. Niara, Kec. Tobelo Tengah, Kabupaten Halmahera Utara, Maluku Utara","Kabupaten Halmahera Utara, Maluku Utara",MALUKU UTARA,,Indonesia,85117420324.0,1.7019679,128.0155893,https://maps.google.com/?cid=0x0:0x47ecdf114648cbc2
supermarket bangunan,Toko Swalayan,Pt.Makmur Utama kencana Tobelo,"Tj. Niara, Kec. Tobelo Tengah, Kabupaten Halmahera Utara, Maluku Utara","Kabupaten Halmahera Utara, Maluku Utara",MALUKU UTARA,,Indonesia,,1.6998616,128.0181686,https://maps.google.com/?cid=0x0:0x77e76b5a8a91cb45
supermarket bangunan,Toko Bahan Bangunan,Makmur Utama Supermarket Bahan bangunan,"Tj. Niara, Kec. Tobelo Tengah, Kabupaten Halmahera Utara, Maluku Utara","Kabupaten Halmahera Utara, Maluku Utara",MALUKU UTARA,,Indonesia,85117420324.0,1.7019679,128.0155893,https://maps.google.com/?cid=0x0:0x47ecdf114648cbc2
supermarket bangunan,Toko Swalayan,Pt.Makmur Utama kencana Tobelo,"Tj. Niara, Kec. Tobelo Tengah, Kabupaten Halmahera Utara, Maluku Utara","Kabupaten Halmahera Utara, Maluku Utara",MALUKU UTARA,,Indonesia,,1.6998616,128.0181686,https://maps.google.com/?cid=0x0:0x77e76b5a8a91cb45
supermarket bangunan,Toko Bahan Bangunan,Makmur Utama Supermarket Bahan bangunan,"Tj. Niara, Kec. Tobelo Tengah, Kabupaten Halmahera Utara, Maluku Utara","Kabupaten Halmahera Utara, Maluku Utara",MALUKU UTARA,,Indonesia,85117420324.0,1.7019679,128.0155893,https://maps.google.com/?cid=0x0:0x47ecdf114648cbc2
supermarket bangunan,Toko Swalayan,Pt.Makmur Utama kencana Tobelo,"Tj. Niara, Kec. Tobelo Tengah, Kabupaten Halmahera Utara, Maluku Utara","Kabupaten Halmahera Utara, Maluku Utara",MALUKU UTARA,,Indonesia,,1.6998616,128.0181686,https://maps.google.com/?cid=0x0:0x77e76b5a8a91cb45
supermarket bangunan,Toko Bahan Bangunan,Makmur Utama Supermarket Bahan bangunan,"Tj. Niara, Kec. Tobelo Tengah, Kabupaten Halmahera Utara, Maluku Utara","Kabupaten Halmahera Utara, Maluku Utara",MALUKU UTARA,,Indonesia,85117420324.0,1.7019679,128.0155893,https://maps.google.com/?cid=0x0:0x47ecdf114648cbc2
supermarket bangunan,Toko Bahan Bangunan,Makmur Utama Supermarket Bahan bangunan,"Tj. Niara, Kec. Tobelo Tengah, Kabupaten Halmahera Utara, Maluku Utara","Kabupaten Halmahera Utara, Maluku Utara",MALUKU UTARA,,Indonesia,85117420324.0,1.7019679,128.0155893,https://maps.google.com/?cid=0x0:0x47ecdf114648cbc2
hardware store,Toko Bahan Bangunan,Siddhant Hardware,"Shop No 2 Lamboti Nera, Hotel Gauri Sokapur, Maharashtra 413213, India","Hotel Gauri Sokapur, Maharashtra",MALUKU UTARA,413213.0,Indonesia,919561626977.0,17.7831195,75.7186791,https://maps.google.com/?cid=0x0:0x9565c8fa388c2b62
toko bangunan,toko bangunan,Pattani,"Sabarang, Mueang Pattani District, Provinsi Pattani 94000, Thailand","Mueang Pattani District, Provinsi Pattani",MALUKU UTARA,94000.0,Indonesia,,6.869516,101.2504562,https://maps.google.com/?cid=0x0:0xeed26f7fee591f73
building materials,building materials,Pattani,"Sabarang, Mueang Pattani District, Provinsi Pattani 94000, Thailand","Mueang Pattani District, Provinsi Pattani",MALUKU UTARA,94000.0,Indonesia,,6.869516,101.2504562,https://maps.google.com/?cid=0x0:0xeed26f7fee591f73
housing complex,housing complex,Pattani,"Sabarang, Mueang Pattani District, Provinsi Pattani 94000, Thailand","Mueang Pattani District, Provinsi Pattani",MALUKU UTARA,94000.0,Indonesia,,6.869516,101.2504562,https://maps.google.com/?cid=0x0:0xeed26f7fee591f73
toko bangunan,Pasar bahan bangunan,Toko Intisari2,"PHRH+XHX, Jl. Hijra, Galala, Oba Utara, Kota Tidore Kepulauan, Maluku Utara","Kota Tidore Kepulauan, Maluku Utara",MALUKU UTARA,,Indonesia,8124751378.0,0.7424771,127.5789924,https://maps.google.com/?cid=0x0:0x25129a2cfa046c97
supermarket bangunan,Pasar bahan bangunan,Toko Sumber Bangunan,"P2G6+2MM, Gamsungi, Kec. Tobelo, Kabupaten Halmahera Utara, Maluku Utara","Kabupaten Halmahera Utara, Maluku Utara",MALUKU UTARA,,Indonesia,9242621455.0,1.7250967,128.0116677,https://maps.google.com/?cid=0x0:0x14835095227102f4
supermarket bangunan,Pasar bahan bangunan,Toko Sumber Bangunan,"P2G6+2MM, Gamsungi, Kec. Tobelo, Kabupaten Halmahera Utara, Maluku Utara","Kabupaten Halmahera Utara, Maluku Utara",MALUKU UTARA,,Indonesia,9242621455.0,1.7250967,128.0116677,https://maps.google.com/?cid=0x0:0x14835095227102f4
toko bangunan,Pasar bahan bangunan,Toko Sumber Bangunan,"P2G6+2MM, Gamsungi, Kec. Tobelo, Kabupaten Halmahera Utara, Maluku Utara","Kabupaten Halmahera Utara, Maluku Utara",MALUKU UTARA,,Indonesia,9242621455.0,1.7250967,128.0116677,https://maps.google.com/?cid=0x0:0x14835095227102f4
toko bangunan,Pasar bahan bangunan,Toko Sumber Bangunan,"P2G6+2MM, Gamsungi, Kec. Tobelo, Kabupaten Halmahera Utara, Maluku Utara","Kabupaten Halmahera Utara, Maluku Utara",MALUKU UTARA,,Indonesia,9242621455.0,1.7250967,128.0116677,https://maps.google.com/?cid=0x0:0x14835095227102f4
toko bangunan,Pasar bahan bangunan,Toko Sumber Bangunan,"P2G6+2MM, Gamsungi, Kec. Tobelo, Kabupaten Halmahera Utara, Maluku Utara","Kabupaten Halmahera Utara, Maluku Utara",MALUKU UTARA,,Indonesia,9242621455.0,1.7250967,128.0116677,https://maps.google.com/?cid=0x0:0x14835095227102f4
toko bangunan,Pasar bahan bangunan,Toko Sumber Bangunan,"P2G6+2MM, Gamsungi, Kec. Tobelo, Kabupaten Halmahera Utara, Maluku Utara","Kabupaten Halmahera Utara, Maluku Utara",MALUKU UTARA,,Indonesia,9242621455.0,1.7250967,128.0116677,https://maps.google.com/?cid=0x0:0x14835095227102f4
supermarket bangunan,Pasar bahan bangunan,Toko Sumber Bangunan,"P2G6+2MM, Gamsungi, Kec. Tobelo, Kabupaten Halmahera Utara, Maluku Utara","Kabupaten Halmahera Utara, Maluku Utara",MALUKU UTARA,,Indonesia,9242621455.0,1.7250967,128.0116677,https://maps.google.com/?cid=0x0:0x14835095227102f4
supermarket bangunan,Toko Bahan Bangunan,Toko Bangunan SENTOSA,"P266+52G O.Sasingan, Wosia, Kec. Tobelo Tengah, Kabupaten Halmahera Utara, Maluku Utara","Kabupaten Halmahera Utara, Maluku Utara",MALUKU UTARA,,Indonesia,82144648989.0,1.7104491,128.0100684,https://maps.google.com/?cid=0x0:0xe043f9c8ba78bb16
toko bangunan,Toko Bahan Bangunan,Toko Bangunan SENTOSA,"P266+52G O.Sasingan, Wosia, Kec. Tobelo Tengah, Kabupaten Halmahera Utara, Maluku Utara","Kabupaten Halmahera Utara, Maluku Utara",MALUKU UTARA,,Indonesia,82144648989.0,1.7104491,128.0100684,https://maps.google.com/?cid=0x0:0xe043f9c8ba78bb16
toko bangunan,Toko Bahan Bangunan,Toko Bangunan SENTOSA,"P266+52G O.Sasingan, Wosia, Kec. Tobelo Tengah, Kabupaten Halmahera Utara, Maluku Utara","Kabupaten Halmahera Utara, Maluku Utara",MALUKU UTARA,,Indonesia,82144648989.0,1.7104491,128.0100684,https://maps.google.com/?cid=0x0:0xe043f9c8ba78bb16
supermarket bangunan,Komplek perumahan,McWill,"P227+XVC, Tj. Niara, Kec. Tobelo Tengah, Kabupaten Halmahera Utara, Maluku Utara","Kabupaten Halmahera Utara, Maluku Utara",MALUKU UTARA,,Indonesia,,1.7024277,128.0146347,https://maps.google.com/?cid=0x0:0xb692ab3f20ea8292
supermarket bangunan,Komplek perumahan,McWill,"P227+XVC, Tj. Niara, Kec. Tobelo Tengah, Kabupaten Halmahera Utara, Maluku Utara","Kabupaten Halmahera Utara, Maluku Utara",MALUKU UTARA,,Indonesia,,1.7024277,128.0146347,https://maps.google.com/?cid=0x0:0xb692ab3f20ea8292
supermarket bangunan,Komplek perumahan,McWill,"P227+XVC, Tj. Niara, Kec. Tobelo Tengah, Kabupaten Halmahera Utara, Maluku Utara","Kabupaten Halmahera Utara, Maluku Utara",MALUKU UTARA,,Indonesia,,1.7024277,128.0146347,https://maps.google.com/?cid=0x0:0xb692ab3f20ea8292
toko bangunan,Toko,Toko Maba Bangunan,"M7WM+MHQ, Unnamed Road, Maba Sangaji, Kec. Kota Maba, Kabupaten Halmahera Timur, Maluku Utara","Kabupaten Halmahera Timur, Maluku Utara",MALUKU UTARA,,Indonesia,82187925434.0,0.6967101,128.2839897,https://maps.google.com/?cid=0x0:0xb5997f32a3da9b72
toko bangunan,Toko,Toko Maba Bangunan,"M7WM+MHQ, Unnamed Road, Maba Sangaji, Kec. Kota Maba, Kabupaten Halmahera Timur, Maluku Utara","Kabupaten Halmahera Timur, Maluku Utara",MALUKU UTARA,,Indonesia,82187925434.0,0.6967101,128.2839897,https://maps.google.com/?cid=0x0:0xb5997f32a3da9b72
building materials,Toko Bahan Bangunan,"Toko Sinar Jaya Rembulan Lelilef Waibulen, Halmahera tengah, Maluku utara","Lelilef Waibulan, Kec. Weda Tengah, Kabupaten Halmahera Tengah, Maluku Utara 97853","Kec. Weda Tengah, Kabupaten Halmahera Tengah",MALUKU UTARA,97853.0,Indonesia,82339999502.0,0.5273982,127.840618,https://maps.google.com/?cid=0x0:0x672096ae9eecd36b
toko bangunan,Toko Bahan Bangunan,"Toko Sinar Jaya Rembulan Lelilef Waibulen, Halmahera tengah, Maluku utara","Lelilef Waibulan, Kec. Weda Tengah, Kabupaten Halmahera Tengah, Maluku Utara 97853","Kec. Weda Tengah, Kabupaten Halmahera Tengah",MALUKU UTARA,97853.0,Indonesia,82339999502.0,0.5273982,127.840618,https://maps.google.com/?cid=0x0:0x672096ae9eecd36b
supermarket bangunan,Toko Bahan Bangunan,"Toko Sinar Jaya Rembulan Lelilef Waibulen, Halmahera tengah, Maluku utara","Lelilef Waibulan, Kec. Weda Tengah, Kabupaten Halmahera Tengah, Maluku Utara 97853","Kec. Weda Tengah, Kabupaten Halmahera Tengah",MALUKU UTARA,97853.0,Indonesia,82339999502.0,0.5273982,127.840618,https://maps.google.com/?cid=0x0:0x672096ae9eecd36b
hardware store,hardware store,Kec. Tebet,"Kota Jakarta Selatan, Daerah Khusus Ibukota Jakarta","Kota Jakarta Selatan, Daerah Khusus Ibukota Jakarta",MALUKU UTARA,,Indonesia,,-6.2251223,106.8549881,https://maps.google.com/?cid=0x0:0xd575e31c807295f9
toko bangunan,toko bangunan,Kec. Tebet,"Kota Jakarta Selatan, Daerah Khusus Ibukota Jakarta","Kota Jakarta Selatan, Daerah Khusus Ibukota Jakarta",MALUKU UTARA,,Indonesia,,-6.2251223,106.8549881,https://maps.google.com/?cid=0x0:0xd575e31c807295f9
building materials,building materials,Kec. Tebet,"Kota Jakarta Selatan, Daerah Khusus Ibukota Jakarta","Kota Jakarta Selatan, Daerah Khusus Ibukota Jakarta",MALUKU UTARA,,Indonesia,,-6.2251223,106.8549881,https://maps.google.com/?cid=0x0:0xd575e31c807295f9
housing complex,housing complex,Kec. Tebet,"Kota Jakarta Selatan, Daerah Khusus Ibukota Jakarta","Kota Jakarta Selatan, Daerah Khusus Ibukota Jakarta",MALUKU UTARA,,Indonesia,,-6.2251223,106.8549881,https://maps.google.com/?cid=0x0:0xd575e31c807295f9
hardware store,hardware store,Pulau Gebe,"Kec. Pulau Gebe, Kabupaten Halmahera Tengah, Maluku Utara","Kabupaten Halmahera Tengah, Maluku Utara",MALUKU UTARA,,Indonesia,,-0.1225875,129.49679,https://maps.google.com/?cid=0x0:0xba7b6f89abd5d56b
building materials,building materials,Pulau Gebe,"Kec. Pulau Gebe, Kabupaten Halmahera Tengah, Maluku Utara","Kabupaten Halmahera Tengah, Maluku Utara",MALUKU UTARA,,Indonesia,,-0.1225875,129.49679,https://maps.google.com/?cid=0x0:0xba7b6f89abd5d56b
supermarket bangunan,supermarket bangunan,Pulau Gebe,"Kec. Pulau Gebe, Kabupaten Halmahera Tengah, Maluku Utara","Kabupaten Halmahera Tengah, Maluku Utara",MALUKU UTARA,,Indonesia,,-0.1225875,129.49679,https://maps.google.com/?cid=0x0:0xba7b6f89abd5d56b
housing complex,housing complex,Pulau Gebe,"Kec. Pulau Gebe, Kabupaten Halmahera Tengah, Maluku Utara","Kabupaten Halmahera Tengah, Maluku Utara",MALUKU UTARA,,Indonesia,,-0.1225875,129.49679,https://maps.google.com/?cid=0x0:0xba7b6f89abd5d56b
building materials,building materials,Kec. Patani,"Kabupaten Halmahera Tengah, Maluku Utara","Kabupaten Halmahera Tengah, Maluku Utara",MALUKU UTARA,,Indonesia,,0.2823971,128.757242,https://maps.google.com/?cid=0x0:0x935c3db9732688f2
housing complex,housing complex,Kec. Weda Utara,"Kabupaten Halmahera Tengah, Maluku Utara","Kabupaten Halmahera Tengah, Maluku Utara",MALUKU UTARA,,Indonesia,,0.40168,128.2936565,https://maps.google.com/?cid=0x0:0x5339e13af3bc03e7
housing complex,housing complex,Kec. Pulau Gebe,"Kabupaten Halmahera Tengah, Maluku Utara","Kabupaten Halmahera Tengah, Maluku Utara",MALUKU UTARA,,Indonesia,,-0.074305,129.4308119,https://maps.google.com/?cid=0x0:0xcefe941ada208f4f
housing complex,housing complex,Kec. Weda Sel.,"Kabupaten Halmahera Tengah, Maluku Utara","Kabupaten Halmahera Tengah, Maluku Utara",MALUKU UTARA,,Indonesia,,0.1601245,127.8816535,https://maps.google.com/?cid=0x0:0x546082dc9350974a
building materials,building materials,Kec. Weda,"Kabupaten Halmahera Tengah, Maluku Utara","Kabupaten Halmahera Tengah, Maluku Utara",MALUKU UTARA,,Indonesia,,0.3274273,127.875202,https://maps.google.com/?cid=0x0:0x264d24e9fe19132d
building materials,building materials,Kec. Weda Sel.,"Kabupaten Halmahera Tengah, Maluku Utara","Kabupaten Halmahera Tengah, Maluku Utara",MALUKU UTARA,,Indonesia,,0.1601245,127.8816535,https://maps.google.com/?cid=0x0:0x546082dc9350974a
housing complex,housing complex,Kec. Patani Utara,"Kabupaten Halmahera Tengah, Maluku Utara","Kabupaten Halmahera Tengah, Maluku Utara",MALUKU UTARA,,Indonesia,,0.3191627,128.7454942,https://maps.google.com/?cid=0x0:0xa52c99a051937008
building materials,building materials,Kec. Pulau Gebe,"Kabupaten Halmahera Tengah, Maluku Utara","Kabupaten Halmahera Tengah, Maluku Utara",MALUKU UTARA,,Indonesia,,-0.074305,129.4308119,https://maps.google.com/?cid=0x0:0xcefe941ada208f4f
housing complex,housing complex,Kec. Weda Tengah,"Kabupaten Halmahera Tengah, Maluku Utara","Kabupaten Halmahera Tengah, Maluku Utara",MALUKU UTARA,,Indonesia,,0.4681816,127.9343748,https://maps.google.com/?cid=0x0:0x190f4edba6db3d20
housing complex,housing complex,Kec. Patani Bar.,"Kabupaten Halmahera Tengah, Maluku Utara","Kabupaten Halmahera Tengah, Maluku Utara",MALUKU UTARA,,Indonesia,,0.3426344,128.5231413,https://maps.google.com/?cid=0x0:0x7a5f069631e1e820
toko bangunan,toko bangunan,Kec. Weda,"Kabupaten Halmahera Tengah, Maluku Utara","Kabupaten Halmahera Tengah, Maluku Utara",MALUKU UTARA,,Indonesia,,0.3274273,127.875202,https://maps.google.com/?cid=0x0:0x264d24e9fe19132d
toko bangunan,toko bangunan,Kec. Patani Bar.,"Kabupaten Halmahera Tengah, Maluku Utara","Kabupaten Halmahera Tengah, Maluku Utara",MALUKU UTARA,,Indonesia,,0.3426344,128.5231413,https://maps.google.com/?cid=0x0:0x7a5f069631e1e820
housing complex,housing complex,Kec. Weda,"Kabupaten Halmahera Tengah, Maluku Utara","Kabupaten Halmahera Tengah, Maluku Utara",MALUKU UTARA,,Indonesia,,0.3274273,127.875202,https://maps.google.com/?cid=0x0:0x264d24e9fe19132d
hardware store,hardware store,Kec. Weda,"Kabupaten Halmahera Tengah, Maluku Utara","Kabupaten Halmahera Tengah, Maluku Utara",MALUKU UTARA,,Indonesia,,0.3274273,127.875202,https://maps.google.com/?cid=0x0:0x264d24e9fe19132d
building materials,building materials,Kec. Patani Utara,"Kabupaten Halmahera Tengah, Maluku Utara","Kabupaten Halmahera Tengah, Maluku Utara",MALUKU UTARA,,Indonesia,,0.3191627,128.7454942,https://maps.google.com/?cid=0x0:0xa52c99a051937008
hardware store,hardware store,Kec. Patani,"Kabupaten Halmahera Tengah, Maluku Utara","Kabupaten Halmahera Tengah, Maluku Utara",MALUKU UTARA,,Indonesia,,0.2823971,128.757242,https://maps.google.com/?cid=0x0:0x935c3db9732688f2
toko bangunan,toko bangunan,Kec. Weda Utara,"Kabupaten Halmahera Tengah, Maluku Utara","Kabupaten Halmahera Tengah, Maluku Utara",MALUKU UTARA,,Indonesia,,0.40168,128.2936565,https://maps.google.com/?cid=0x0:0x5339e13af3bc03e7
toko bangunan,toko bangunan,Kec. Weda Sel.,"Kabupaten Halmahera Tengah, Maluku Utara","Kabupaten Halmahera Tengah, Maluku Utara",MALUKU UTARA,,Indonesia,,0.1601245,127.8816535,https://maps.google.com/?cid=0x0:0x546082dc9350974a
hardware store,hardware store,Kec. Pulau Gebe,"Kabupaten Halmahera Tengah, Maluku Utara","Kabupaten Halmahera Tengah, Maluku Utara",MALUKU UTARA,,Indonesia,,-0.074305,129.4308119,https://maps.google.com/?cid=0x0:0xcefe941ada208f4f
hardware store,hardware store,Kec. Weda Utara,"Kabupaten Halmahera Tengah, Maluku Utara","Kabupaten Halmahera Tengah, Maluku Utara",MALUKU UTARA,,Indonesia,,0.40168,128.2936565,https://maps.google.com/?cid=0x0:0x5339e13af3bc03e7
hardware store,hardware store,Kec. Weda Sel.,"Kabupaten Halmahera Tengah, Maluku Utara","Kabupaten Halmahera Tengah, Maluku Utara",MALUKU UTARA,,Indonesia,,0.1601245,127.8816535,https://maps.google.com/?cid=0x0:0x546082dc9350974a
hardware store,hardware store,Kec. Patani Utara,"Kabupaten Halmahera Tengah, Maluku Utara","Kabupaten Halmahera Tengah, Maluku Utara",MALUKU UTARA,,Indonesia,,0.3191627,128.7454942,https://maps.google.com/?cid=0x0:0xa52c99a051937008
hardware store,hardware store,Kec. Weda Tengah,"Kabupaten Halmahera Tengah, Maluku Utara","Kabupaten Halmahera Tengah, Maluku Utara",MALUKU UTARA,,Indonesia,,0.4681816,127.9343748,https://maps.google.com/?cid=0x0:0x190f4edba6db3d20
hardware store,hardware store,Kec. Patani Bar.,"Kabupaten Halmahera Tengah, Maluku Utara","Kabupaten Halmahera Tengah, Maluku Utara",MALUKU UTARA,,Indonesia,,0.3426344,128.5231413,https://maps.google.com/?cid=0x0:0x7a5f069631e1e820
supermarket bangunan,supermarket bangunan,Kec. Weda,"Kabupaten Halmahera Tengah, Maluku Utara","Kabupaten Halmahera Tengah, Maluku Utara",MALUKU UTARA,,Indonesia,,0.3274273,127.875202,https://maps.google.com/?cid=0x0:0x264d24e9fe19132d
supermarket bangunan,supermarket bangunan,Kec. Weda Utara,"Kabupaten Halmahera Tengah, Maluku Utara","Kabupaten Halmahera Tengah, Maluku Utara",MALUKU UTARA,,Indonesia,,0.40168,128.2936565,https://maps.google.com/?cid=0x0:0x5339e13af3bc03e7
building materials,building materials,Kec. Patani Bar.,"Kabupaten Halmahera Tengah, Maluku Utara","Kabupaten Halmahera Tengah, Maluku Utara",MALUKU UTARA,,Indonesia,,0.3426344,128.5231413,https://maps.google.com/?cid=0x0:0x7a5f069631e1e820
supermarket bangunan,supermarket bangunan,Kec. Pulau Gebe,"Kabupaten Halmahera Tengah, Maluku Utara","Kabupaten Halmahera Tengah, Maluku Utara",MALUKU UTARA,,Indonesia,,-0.074305,129.4308119,https://maps.google.com/?cid=0x0:0xcefe941ada208f4f
supermarket bangunan,supermarket bangunan,Kec. Weda Sel.,"Kabupaten Halmahera Tengah, Maluku Utara","Kabupaten Halmahera Tengah, Maluku Utara",MALUKU UTARA,,Indonesia,,0.1601245,127.8816535,https://maps.google.com/?cid=0x0:0x546082dc9350974a
building materials,building materials,Kec. Weda Tengah,"Kabupaten Halmahera Tengah, Maluku Utara","Kabupaten Halmahera Tengah, Maluku Utara",MALUKU UTARA,,Indonesia,,0.4681816,127.9343748,https://maps.google.com/?cid=0x0:0x190f4edba6db3d20
housing complex,housing complex,Kec. Patani,"Kabupaten Halmahera Tengah, Maluku Utara","Kabupaten Halmahera Tengah, Maluku Utara",MALUKU UTARA,,Indonesia,,0.2823971,128.757242,https://maps.google.com/?cid=0x0:0x935c3db9732688f2
building materials,building materials,Kec. Weda Utara,"Kabupaten Halmahera Tengah, Maluku Utara","Kabupaten Halmahera Tengah, Maluku Utara",MALUKU UTARA,,Indonesia,,0.40168,128.2936565,https://maps.google.com/?cid=0x0:0x5339e13af3bc03e7
supermarket bangunan,supermarket bangunan,Kec. Weda Tengah,"Kabupaten Halmahera Tengah, Maluku Utara","Kabupaten Halmahera Tengah, Maluku Utara",MALUKU UTARA,,Indonesia,,0.4681816,127.9343748,https://maps.google.com/?cid=0x0:0x190f4edba6db3d20
supermarket bangunan,supermarket bangunan,Kec. Patani Bar.,"Kabupaten Halmahera Tengah, Maluku Utara","Kabupaten Halmahera Tengah, Maluku Utara",MALUKU UTARA,,Indonesia,,0.3426344,128.5231413,https://maps.google.com/?cid=0x0:0x7a5f069631e1e820
supermarket bangunan,Toko Bahan Bangunan,Makmur Utama Supermarket Bahan Bangunan,"Jl. Yasin Gamsungi No.2 Kec. ternate tengah, Kel, Makassar Tim., Makassar Timur, Kota Ternate, Maluku Utara 97724","Kel, Makassar Tim., Makassar Timur, Kota Ternate",MALUKU UTARA,97724.0,Indonesia,8114313799.0,0.7940352,127.3876695,https://maps.google.com/?cid=0x0:0x2f492ae87bf64247
supermarket bangunan,Toko Bahan Bangunan,Makmur Utama Supermarket Bahan Bangunan,"Jl. Yasin Gamsungi No.2 Kec. ternate tengah, Kel, Makassar Tim., Makassar Timur, Kota Ternate, Maluku Utara 97724","Kel, Makassar Tim., Makassar Timur, Kota Ternate",MALUKU UTARA,97724.0,Indonesia,8114313799.0,0.7940352,127.3876695,https://maps.google.com/?cid=0x0:0x2f492ae87bf64247
supermarket bangunan,Toko Bahan Bangunan,Makmur Utama Supermarket Bahan Bangunan,"Jl. Yasin Gamsungi No.2 Kec. ternate tengah, Kel, Makassar Tim., Makassar Timur, Kota Ternate, Maluku Utara 97724","Kel, Makassar Tim., Makassar Timur, Kota Ternate",MALUKU UTARA,97724.0,Indonesia,8114313799.0,0.7940352,127.3876695,https://maps.google.com/?cid=0x0:0x2f492ae87bf64247
toko bangunan,Toko Bahan Bangunan,Makmur Utama Supermarket Bahan Bangunan,"Jl. Yasin Gamsungi No.2 Kec. ternate tengah, Kel, Makassar Tim., Makassar Timur, Kota Ternate, Maluku Utara 97724","Kel, Makassar Tim., Makassar Timur, Kota Ternate",MALUKU UTARA,97724.0,Indonesia,8114313799.0,0.7940352,127.3876695,https://maps.google.com/?cid=0x0:0x2f492ae87bf64247
supermarket bangunan,Toko Bahan Bangunan,Makmur Utama Supermarket Bahan Bangunan,"Jl. Yasin Gamsungi No.2 Kec. ternate tengah, Kel, Makassar Tim., Makassar Timur, Kota Ternate, Maluku Utara 97724","Kel, Makassar Tim., Makassar Timur, Kota Ternate",MALUKU UTARA,97724.0,Indonesia,8114313799.0,0.7940352,127.3876695,https://maps.google.com/?cid=0x0:0x2f492ae87bf64247
hardware store,Toko Alat Tulis,Foto Copy ALTO Toko Alat Tulis Kantor,"Jl. Siswa, Kabupaten TengahWeda,, Were, Kec. Weda, Kabupaten Halmahera Tengah, Maluku Utara","Kabupaten Halmahera Tengah, Maluku Utara",MALUKU UTARA,,Indonesia,85242233725.0,0.329825,127.8764146,https://maps.google.com/?cid=0x0:0x2a4486fbab9951ca
building materials,Toko Bahan Bangunan,JOTUN Decopaint Weda,"Jl. Raya Lintas Weda, Lelilef, Desa Fidijaya, Kabupaten Halmahera Tengah, Maluku Utara 97850","Lelilef, Desa Fidijaya, Kabupaten Halmahera Tengah",MALUKU UTARA,97850.0,Indonesia,81320239198.0,0.3323155,127.8758067,https://maps.google.com/?cid=0x0:0x4799344979869f32
building materials,Toko Bahan Bangunan,JOTUN Decopaint Weda,"Jl. Raya Lintas Weda, Lelilef, Desa Fidijaya, Kabupaten Halmahera Tengah, Maluku Utara 97850","Lelilef, Desa Fidijaya, Kabupaten Halmahera Tengah",MALUKU UTARA,97850.0,Indonesia,81320239198.0,0.3323155,127.8758067,https://maps.google.com/?cid=0x0:0x4799344979869f32
toko bangunan,Toko Bahan Bangunan,JOTUN Decopaint Weda,"Jl. Raya Lintas Weda, Lelilef, Desa Fidijaya, Kabupaten Halmahera Tengah, Maluku Utara 97850","Lelilef, Desa Fidijaya, Kabupaten Halmahera Tengah",MALUKU UTARA,97850.0,Indonesia,81320239198.0,0.3323155,127.8758067,https://maps.google.com/?cid=0x0:0x4799344979869f32
toko bangunan,Toko Bahan Bangunan,JOTUN Decopaint Weda,"Jl. Raya Lintas Weda, Lelilef, Desa Fidijaya, Kabupaten Halmahera Tengah, Maluku Utara 97850","Lelilef, Desa Fidijaya, Kabupaten Halmahera Tengah",MALUKU UTARA,97850.0,Indonesia,81320239198.0,0.3323155,127.8758067,https://maps.google.com/?cid=0x0:0x4799344979869f32
building materials,Toko Bahan Bangunan,JOTUN Decopaint Weda,"Jl. Raya Lintas Weda, Lelilef, Desa Fidijaya, Kabupaten Halmahera Tengah, Maluku Utara 97850","Lelilef, Desa Fidijaya, Kabupaten Halmahera Tengah",MALUKU UTARA,97850.0,Indonesia,81320239198.0,0.3323155,127.8758067,https://maps.google.com/?cid=0x0:0x4799344979869f32
hardware store,Pemasok peralatan percetakan,Benteng Fotocopy,"Jl. R.A. Kartini (Depan Perumahan Anggota DPRD, Dusun II, Were, Kec. Weda, Maluku Utara 97850","Dusun II, Were, Kec. Weda",MALUKU UTARA,97850.0,Indonesia,81355444248.0,0.3286069,127.87517,https://maps.google.com/?cid=0x0:0x358bf46d9357fcad
supermarket bangunan,Toko Bahan Bangunan,Pratama Supermarket Bahan Bangunan Sukatani,"Jl. Pilar Sukatani No.204, Sukaraya, Kec. Karangbahagia, Kabupaten Bekasi, Jawa Barat 17535","Sukaraya, Kec. Karangbahagia, Kabupaten Bekasi",MALUKU UTARA,17535.0,Indonesia,2189072770.0,-6.217434,107.1664019,https://maps.google.com/?cid=0x0:0xcc40347a47d8a121
supermarket bangunan,Toko bahan makanan,SBA (Supermarket Bangunan Abadi),"Jl. Pd. Kacang No.88B, Pd. Kacang Bar., Kec. Pd. Aren, Kota Tangerang Selatan, Banten 15226","Pd. Kacang Bar., Kec. Pd. Aren, Kota Tangerang Selatan",MALUKU UTARA,15226.0,Indonesia,2173460185.0,-6.254577,106.688324,https://maps.google.com/?cid=0x0:0x370ec3ee4dda53b
supermarket bangunan,Toko Bahan Bangunan,Toko Bangunan Hari-hari,"Jl. Mandala Utara No.21, RT.17/RW.4, Tomang, Kec. Grogol petamburan, Kota Jakarta Barat, Daerah Khusus Ibukota Jakarta 11440","RT.17/RW.4, Tomang, Kec. Grogol petamburan, Kota Jakarta Barat",MALUKU UTARA,11440.0,Indonesia,215642893.0,-6.1721247,106.7983298,https://maps.google.com/?cid=0x0:0x91aa30314dd11ef
supermarket bangunan,Toko Bahan Bangunan,Toko Bangunan Hari-hari,"Jl. Mandala Utara No.21, RT.17/RW.4, Tomang, Kec. Grogol petamburan, Kota Jakarta Barat, Daerah Khusus Ibukota Jakarta 11440","RT.17/RW.4, Tomang, Kec. Grogol petamburan, Kota Jakarta Barat",MALUKU UTARA,11440.0,Indonesia,215642893.0,-6.1721247,106.7983298,https://maps.google.com/?cid=0x0:0x91aa30314dd11ef
toko bangunan,Toko Bahan Bangunan,Toko Bangunan Hari-hari,"Jl. Mandala Utara No.21, RT.17/RW.4, Tomang, Kec. Grogol petamburan, Kota Jakarta Barat, Daerah Khusus Ibukota Jakarta 11440","RT.17/RW.4, Tomang, Kec. Grogol petamburan, Kota Jakarta Barat",MALUKU UTARA,11440.0,Indonesia,215642893.0,-6.1721247,106.7983298,https://maps.google.com/?cid=0x0:0x91aa30314dd11ef
toko bangunan,Toko Bahan Bangunan,Toko Bangunan Hari-hari,"Jl. Mandala Utara No.21, RT.17/RW.4, Tomang, Kec. Grogol petamburan, Kota Jakarta Barat, Daerah Khusus Ibukota Jakarta 11440","RT.17/RW.4, Tomang, Kec. Grogol petamburan, Kota Jakarta Barat",MALUKU UTARA,11440.0,Indonesia,215642893.0,-6.1721247,106.7983298,https://maps.google.com/?cid=0x0:0x91aa30314dd11ef
supermarket bangunan,Toko Perlengkapan Rumah,JEFRI SUPPLIER BAHAN BANGUNAN,"Jl. Industri Jl. Rw. Bogo, Pasir Mukti, Kec. Citeureup, Kabupaten Bogor Jawa Barat 16810, Kabupaten Bogor, Jawa Barat 16811","Pasir Mukti, Kec. Citeureup, Kabupaten Bogor Jawa Barat",MALUKU UTARA,16810.0,Indonesia,85747107419.0,-6.5023051,106.8983691,https://maps.google.com/?cid=0x0:0x817997c380156414
supermarket bangunan,Toko Bahan Bangunan,Depo Kreasi BSD,"Jl. Ciater Raya No.61, RT./RW/RW.005/007, Ciater, Kec. Serpong, Kota Tangerang Selatan, Banten 15310","RT./RW/RW.005/007, Ciater, Kec. Serpong, Kota Tangerang Selatan",MALUKU UTARA,15310.0,Indonesia,81226062605.0,-6.3138819,106.69496,https://maps.google.com/?cid=0x0:0xdc3fda0c4195eef4
toko bangunan,Toko Bahan Bangunan,Toko Bangunan Fajar,"Jl. Cempaka Putih Barat II No.28A, Cemp. Putih Bar., Kec. Cemp. Putih, Kota Jakarta Pusat, Daerah Khusus Ibukota Jakarta 10520","Cemp. Putih Bar., Kec. Cemp. Putih, Kota Jakarta Pusat",MALUKU UTARA,10520.0,Indonesia,2142801747.0,-6.1748033,106.8637371,https://maps.google.com/?cid=0x0:0xf356c194d2623b6
toko bangunan,Toko Bahan Bangunan,Makmur Utama Supermarket Bahan Bangunan,"Jambula, Kec. Pulau Ternate, Kota Ternate, Maluku Utara","Kota Ternate, Maluku Utara",MALUKU UTARA,,Indonesia,8114313899.0,0.7581804,127.3220409,https://maps.google.com/?cid=0x0:0xe3a01731f7851efa
supermarket bangunan,Toko Bahan Bangunan,Makmur Utama Supermarket Bahan Bangunan,"Jambula, Kec. Pulau Ternate, Kota Ternate, Maluku Utara","Kota Ternate, Maluku Utara",MALUKU UTARA,,Indonesia,8114313899.0,0.7581804,127.3220409,https://maps.google.com/?cid=0x0:0xe3a01731f7851efa
supermarket bangunan,Toko Bahan Bangunan,Makmur Utama Supermarket Bahan Bangunan,"Jambula, Kec. Pulau Ternate, Kota Ternate, Maluku Utara","Kota Ternate, Maluku Utara",MALUKU UTARA,,Indonesia,8114313899.0,0.7581804,127.3220409,https://maps.google.com/?cid=0x0:0xe3a01731f7851efa
supermarket bangunan,Toko Bahan Bangunan,Makmur Utama Supermarket Bahan Bangunan,"Jambula, Kec. Pulau Ternate, Kota Ternate, Maluku Utara","Kota Ternate, Maluku Utara",MALUKU UTARA,,Indonesia,8114313899.0,0.7581804,127.3220409,https://maps.google.com/?cid=0x0:0xe3a01731f7851efa
supermarket bangunan,Toko Bahan Bangunan,Makmur Utama Supermarket Bahan Bangunan,"Jambula, Kec. Pulau Ternate, Kota Ternate, Maluku Utara","Kota Ternate, Maluku Utara",MALUKU UTARA,,Indonesia,8114313899.0,0.7581804,127.3220409,https://maps.google.com/?cid=0x0:0xe3a01731f7851efa
toko bangunan,Toko Bahan Bangunan,Makmur Utama Supermarket Bahan Bangunan,"Jambula, Kec. Pulau Ternate, Kota Ternate, Maluku Utara","Kota Ternate, Maluku Utara",MALUKU UTARA,,Indonesia,8114313899.0,0.7581804,127.3220409,https://maps.google.com/?cid=0x0:0xe3a01731f7851efa
toko bangunan,Toko Bahan Bangunan,Toko Sejati Bangunan,"Jalan Raya Wosia, Depan Saro Nifero, Samping Dealer Honda CV.Lion, Mahia, Kec. Tobelo, Maluku Utara 97762","Depan Saro Nifero, Samping Dealer Honda CV.Lion, Mahia, Kec. Tobelo",MALUKU UTARA,97762.0,Indonesia,82195215789.0,1.7063845,128.0084905,https://maps.google.com/?cid=0x0:0xe07acc47d25781c8
supermarket bangunan,Toko Bahan Bangunan,Toko Sejati Bangunan,"Jalan Raya Wosia, Depan Saro Nifero, Samping Dealer Honda CV.Lion, Mahia, Kec. Tobelo, Maluku Utara 97762","Depan Saro Nifero, Samping Dealer Honda CV.Lion, Mahia, Kec. Tobelo",MALUKU UTARA,97762.0,Indonesia,82195215789.0,1.7063845,128.0084905,https://maps.google.com/?cid=0x0:0xe07acc47d25781c8
supermarket bangunan,Toko Bahan Bangunan,Toko Sejati Bangunan,"Jalan Raya Wosia, Depan Saro Nifero, Samping Dealer Honda CV.Lion, Mahia, Kec. Tobelo, Maluku Utara 97762","Depan Saro Nifero, Samping Dealer Honda CV.Lion, Mahia, Kec. Tobelo",MALUKU UTARA,97762.0,Indonesia,82195215789.0,1.7063845,128.0084905,https://maps.google.com/?cid=0x0:0xe07acc47d25781c8
toko bangunan,Toko Bahan Bangunan,Toko Sejati Bangunan,"Jalan Raya Wosia, Depan Saro Nifero, Samping Dealer Honda CV.Lion, Mahia, Kec. Tobelo, Maluku Utara 97762","Depan Saro Nifero, Samping Dealer Honda CV.Lion, Mahia, Kec. Tobelo",MALUKU UTARA,97762.0,Indonesia,82195215789.0,1.7063845,128.0084905,https://maps.google.com/?cid=0x0:0xe07acc47d25781c8
hardware store,Toko Bahan Bangunan,Pangkalan kayu mutiara obi,"GV5M+778, Kobe, Kec. Weda Tengah, Kabupaten Halmahera Tengah, Maluku Utara","Kabupaten Halmahera Tengah, Maluku Utara",MALUKU UTARA,,Indonesia,,0.5080929,127.8831121,https://maps.google.com/?cid=0x0:0xe2b61124b8f624c5
building materials,Toko Bahan Bangunan,Toko Bangunan Mutiara Halmahera,"GV4Q+CG6 kilo 15, Jl. Trans, Kobe, Kec. Weda Tengah, Kabupaten Halmahera Tengah, Maluku Utara","Kabupaten Halmahera Tengah, Maluku Utara",MALUKU UTARA,,Indonesia,,0.5060438,127.8887732,https://maps.google.com/?cid=0x0:0xa793425433e4819d
building materials,Toko Bahan Bangunan,Toko Bangunan Mutiara Halmahera,"GV4Q+CG6 kilo 15, Jl. Trans, Kobe, Kec. Weda Tengah, Kabupaten Halmahera Tengah, Maluku Utara","Kabupaten Halmahera Tengah, Maluku Utara",MALUKU UTARA,,Indonesia,,0.5060438,127.8887732,https://maps.google.com/?cid=0x0:0xa793425433e4819d
toko bangunan,Toko Bahan Bangunan,Toko Bangunan Mutiara Halmahera,"GV4Q+CG6 kilo 15, Jl. Trans, Kobe, Kec. Weda Tengah, Kabupaten Halmahera Tengah, Maluku Utara","Kabupaten Halmahera Tengah, Maluku Utara",MALUKU UTARA,,Indonesia,,0.5060438,127.8887732,https://maps.google.com/?cid=0x0:0xa793425433e4819d
supermarket bangunan,Toko Bahan Bangunan,Toko Bangunan Mutiara Halmahera,"GV4Q+CG6 kilo 15, Jl. Trans, Kobe, Kec. Weda Tengah, Kabupaten Halmahera Tengah, Maluku Utara","Kabupaten Halmahera Tengah, Maluku Utara",MALUKU UTARA,,Indonesia,,0.5060438,127.8887732,https://maps.google.com/?cid=0x0:0xa793425433e4819d
supermarket bangunan,Toko Bahan Bangunan,Toko Bangunan Mutiara Halmahera,"GV4Q+CG6 kilo 15, Jl. Trans, Kobe, Kec. Weda Tengah, Kabupaten Halmahera Tengah, Maluku Utara","Kabupaten Halmahera Tengah, Maluku Utara",MALUKU UTARA,,Indonesia,,0.5060438,127.8887732,https://maps.google.com/?cid=0x0:0xa793425433e4819d
toko bangunan,Toko Bahan Bangunan,Toko Bangunan Mutiara Halmahera,"GV4Q+CG6 kilo 15, Jl. Trans, Kobe, Kec. Weda Tengah, Kabupaten Halmahera Tengah, Maluku Utara","Kabupaten Halmahera Tengah, Maluku Utara",MALUKU UTARA,,Indonesia,,0.5060438,127.8887732,https://maps.google.com/?cid=0x0:0xa793425433e4819d
toko bangunan,Toko Bahan Bangunan,Toko Bangunan Mutiara Halmahera,"GV4Q+CG6 kilo 15, Jl. Trans, Kobe, Kec. Weda Tengah, Kabupaten Halmahera Tengah, Maluku Utara","Kabupaten Halmahera Tengah, Maluku Utara",MALUKU UTARA,,Indonesia,,0.5060438,127.8887732,https://maps.google.com/?cid=0x0:0xa793425433e4819d
building materials,Toko Bahan Bangunan,Toko Bangunan Mutiara Halmahera,"GV4Q+CG6 kilo 15, Jl. Trans, Kobe, Kec. Weda Tengah, Kabupaten Halmahera Tengah, Maluku Utara","Kabupaten Halmahera Tengah, Maluku Utara",MALUKU UTARA,,Indonesia,,0.5060438,127.8887732,https://maps.google.com/?cid=0x0:0xa793425433e4819d
building materials,Toko Bahan Bangunan,Toko Bangunan Mutiara Halmahera,"GV4Q+CG6 kilo 15, Jl. Trans, Kobe, Kec. Weda Tengah, Kabupaten Halmahera Tengah, Maluku Utara","Kabupaten Halmahera Tengah, Maluku Utara",MALUKU UTARA,,Indonesia,,0.5060438,127.8887732,https://maps.google.com/?cid=0x0:0xa793425433e4819d
toko bangunan,Toko Bahan Bangunan,Toko Bangunan Mutiara Halmahera,"GV4Q+CG6 kilo 15, Jl. Trans, Kobe, Kec. Weda Tengah, Kabupaten Halmahera Tengah, Maluku Utara","Kabupaten Halmahera Tengah, Maluku Utara",MALUKU UTARA,,Indonesia,,0.5060438,127.8887732,https://maps.google.com/?cid=0x0:0xa793425433e4819d
supermarket bangunan,Toko Bahan Bangunan,Toko Bangunan Mutiara Halmahera,"GV4Q+CG6 kilo 15, Jl. Trans, Kobe, Kec. Weda Tengah, Kabupaten Halmahera Tengah, Maluku Utara","Kabupaten Halmahera Tengah, Maluku Utara",MALUKU UTARA,,Indonesia,,0.5060438,127.8887732,https://maps.google.com/?cid=0x0:0xa793425433e4819d
supermarket bangunan,Toko Bahan Bangunan,Toko Bangunan Mutiara Halmahera,"GV4Q+CG6 kilo 15, Jl. Trans, Kobe, Kec. Weda Tengah, Kabupaten Halmahera Tengah, Maluku Utara","Kabupaten Halmahera Tengah, Maluku Utara",MALUKU UTARA,,Indonesia,,0.5060438,127.8887732,https://maps.google.com/?cid=0x0:0xa793425433e4819d
housing complex,Kantor Pemerintah,Desa lelilef,"GRGR+X65, Lelilef Waibulan, Kec. Weda Tengah, Kabupaten Halmahera Tengah, Maluku Utara","Kabupaten Halmahera Tengah, Maluku Utara",MALUKU UTARA,,Indonesia,,0.5273982,127.840618,https://maps.google.com/?cid=0x0:0x27f91f8c6f0c67ba
hardware store,Toko Bahan Bangunan,Bangunan dan bahan perabotan RT,"Gemaf, Kec. Weda Utara, Kabupaten Halmahera Tengah, Maluku Utara 95371","Kec. Weda Utara, Kabupaten Halmahera Tengah",MALUKU UTARA,95371.0,Indonesia,82192753095.0,0.4784757,128.0355546,https://maps.google.com/?cid=0x0:0xfbc2061473327f74
supermarket bangunan,Toko Bahan Bangunan,Bangunan dan bahan perabotan RT,"Gemaf, Kec. Weda Utara, Kabupaten Halmahera Tengah, Maluku Utara 95371","Kec. Weda Utara, Kabupaten Halmahera Tengah",MALUKU UTARA,95371.0,Indonesia,82192753095.0,0.4784757,128.0355546,https://maps.google.com/?cid=0x0:0xfbc2061473327f74
hardware store,Toko Bahan Bangunan,Bangunan dan bahan perabotan RT,"Gemaf, Kec. Weda Utara, Kabupaten Halmahera Tengah, Maluku Utara 95371","Kec. Weda Utara, Kabupaten Halmahera Tengah",MALUKU UTARA,95371.0,Indonesia,82192753095.0,0.4784757,128.0355546,https://maps.google.com/?cid=0x0:0xfbc2061473327f74
housing complex,Gedung Apartemen,Apartemen Tjetju IWIP Indonesia Wedabay Industrial Park,"FXJM+V3V Site Tanjung Ulie, Lelilef Sawai, Weda Tengah, Central Halmahera Regency, North Maluku","Kabupaten Halmahera Tengah, Maluku Utara",MALUKU UTARA,,Indonesia,,0.4822451,127.9826748,https://maps.google.com/?cid=0x0:0xea950ba64da0449b
building materials,Kantor Perusahaan,WEDA BAY NICKEL,"FXHM+7FJ, Lelilef Sawai, Kec. Weda Tengah, Kabupaten Halmahera Tengah, Maluku Utara","Kabupaten Halmahera Tengah, Maluku Utara",MALUKU UTARA,,Indonesia,85254454537.0,0.4782086,127.9836487,https://maps.google.com/?cid=0x0:0x4b6278cfb31e9ac5
building materials,Kantor Perusahaan,WEDA BAY NICKEL,"FXHM+7FJ, Lelilef Sawai, Kec. Weda Tengah, Kabupaten Halmahera Tengah, Maluku Utara","Kabupaten Halmahera Tengah, Maluku Utara",MALUKU UTARA,,Indonesia,85254454537.0,0.4782086,127.9836487,https://maps.google.com/?cid=0x0:0x4b6278cfb31e9ac5
housing complex,Kantor Perusahaan,WEDA BAY NICKEL,"FXHM+7FJ, Lelilef Sawai, Kec. Weda Tengah, Kabupaten Halmahera Tengah, Maluku Utara","Kabupaten Halmahera Tengah, Maluku Utara",MALUKU UTARA,,Indonesia,85254454537.0,0.4782086,127.9836487,https://maps.google.com/?cid=0x0:0x4b6278cfb31e9ac5
housing complex,Kantor Perusahaan,WEDA BAY NICKEL,"FXHM+7FJ, Lelilef Sawai, Kec. Weda Tengah, Kabupaten Halmahera Tengah, Maluku Utara","Kabupaten Halmahera Tengah, Maluku Utara",MALUKU UTARA,,Indonesia,85254454537.0,0.4782086,127.9836487,https://maps.google.com/?cid=0x0:0x4b6278cfb31e9ac5
housing complex,Rumah wisata,Kost Mikhayla,"FWJ9+5P8, Lelilef Waibulan, Kec. Weda Tengah, Kabupaten Halmahera Tengah, Maluku Utara","Kabupaten Halmahera Tengah, Maluku Utara",MALUKU UTARA,,Indonesia,81356831172.0,0.4797926,127.9196874,https://maps.google.com/?cid=0x0:0x793427b700f10f14
housing complex,Apartemen sewa liburan,Kos kosan,"FWHF+X8G, Lelilef Waibulan, Kec. Weda Tengah, Kabupaten Halmahera Tengah, Maluku Utara","Kabupaten Halmahera Tengah, Maluku Utara",MALUKU UTARA,,Indonesia,,0.479865,127.923395,https://maps.google.com/?cid=0x0:0xa5d41daa724a3efa
building materials,Toko Bahan Bangunan,TOKO BANGUNAN SINAR ALWA,"FW9F+G42, Lelilef Waibulan, Kec. Weda Tengah, Kabupaten Halmahera Tengah, Maluku Utara","Kabupaten Halmahera Tengah, Maluku Utara",MALUKU UTARA,,Indonesia,85167702404.0,0.4688305,127.9229748,https://maps.google.com/?cid=0x0:0xb8137106c2556d8a
building materials,Toko Bahan Bangunan,TOKO BANGUNAN SINAR ALWA,"FW9F+G42, Lelilef Waibulan, Kec. Weda Tengah, Kabupaten Halmahera Tengah, Maluku Utara","Kabupaten Halmahera Tengah, Maluku Utara",MALUKU UTARA,,Indonesia,85167702404.0,0.4688305,127.9229748,https://maps.google.com/?cid=0x0:0xb8137106c2556d8a
toko bangunan,Toko Bahan Bangunan,TOKO BANGUNAN SINAR ALWA,"FW9F+G42, Lelilef Waibulan, Kec. Weda Tengah, Kabupaten Halmahera Tengah, Maluku Utara","Kabupaten Halmahera Tengah, Maluku Utara",MALUKU UTARA,,Indonesia,85167702404.0,0.4688305,127.9229748,https://maps.google.com/?cid=0x0:0xb8137106c2556d8a
supermarket bangunan,Toko Bahan Bangunan,TOKO BANGUNAN SINAR ALWA,"FW9F+G42, Lelilef Waibulan, Kec. Weda Tengah, Kabupaten Halmahera Tengah, Maluku Utara","Kabupaten Halmahera Tengah, Maluku Utara",MALUKU UTARA,,Indonesia,85167702404.0,0.4688305,127.9229748,https://maps.google.com/?cid=0x0:0xb8137106c2556d8a
supermarket bangunan,Toko Bahan Bangunan,TOKO BANGUNAN SINAR ALWA,"FW9F+G42, Lelilef Waibulan, Kec. Weda Tengah, Kabupaten Halmahera Tengah, Maluku Utara","Kabupaten Halmahera Tengah, Maluku Utara",MALUKU UTARA,,Indonesia,85167702404.0,0.4688305,127.9229748,https://maps.google.com/?cid=0x0:0xb8137106c2556d8a
supermarket bangunan,Toko Bahan Bangunan,TOKO BANGUNAN SINAR ALWA,"FW9F+G42, Lelilef Waibulan, Kec. Weda Tengah, Kabupaten Halmahera Tengah, Maluku Utara","Kabupaten Halmahera Tengah, Maluku Utara",MALUKU UTARA,,Indonesia,85167702404.0,0.4688305,127.9229748,https://maps.google.com/?cid=0x0:0xb8137106c2556d8a
toko bangunan,Toko Bahan Bangunan,TOKO BANGUNAN SINAR ALWA,"FW9F+G42, Lelilef Waibulan, Kec. Weda Tengah, Kabupaten Halmahera Tengah, Maluku Utara","Kabupaten Halmahera Tengah, Maluku Utara",MALUKU UTARA,,Indonesia,85167702404.0,0.4688305,127.9229748,https://maps.google.com/?cid=0x0:0xb8137106c2556d8a
toko bangunan,Toko Bahan Bangunan,TOKO BANGUNAN SINAR ALWA,"FW9F+G42, Lelilef Waibulan, Kec. Weda Tengah, Kabupaten Halmahera Tengah, Maluku Utara","Kabupaten Halmahera Tengah, Maluku Utara",MALUKU UTARA,,Indonesia,85167702404.0,0.4688305,127.9229748,https://maps.google.com/?cid=0x0:0xb8137106c2556d8a
hardware store,Toko Bahan Bangunan,Gemilang jaya,"FW9F+8QW, Lelilef Waibulan, Kec. Weda Tengah, Kabupaten Halmahera Tengah, Maluku Utara","Kabupaten Halmahera Tengah, Maluku Utara",MALUKU UTARA,,Indonesia,,0.4683636,127.9244377,https://maps.google.com/?cid=0x0:0xb7a9968da9935462
housing complex,Kantor Pemerintah,Taman Nasional Aketajawe Lolobata,"FPVW+556, Akeguraci, Kec. Oba Tengah, Kota Tidore Kepulauan, Maluku Utara","Kota Tidore Kepulauan, Maluku Utara",MALUKU UTARA,,Indonesia,81356444202.0,0.4929155,127.7453813,https://maps.google.com/?cid=0x0:0x1a395341b25de1ae
housing complex,Kantor Pemerintah,Taman Nasional Aketajawe Lolobata,"FPVW+556, Akeguraci, Kec. Oba Tengah, Kota Tidore Kepulauan, Maluku Utara","Kota Tidore Kepulauan, Maluku Utara",MALUKU UTARA,,Indonesia,81356444202.0,0.4929155,127.7453813,https://maps.google.com/?cid=0x0:0x1a395341b25de1ae
toko bangunan,Toko Elektronik,Toko Listrik Cahaya Weda,"Fidi Jaya, Kec. Weda, Kabupaten Halmahera Tengah, Maluku Utara 97850","Kec. Weda, Kabupaten Halmahera Tengah",MALUKU UTARA,97850.0,Indonesia,,0.3323856,127.8758256,https://maps.google.com/?cid=0x0:0x3803744be289ed97
toko bangunan,Toko Elektronik,Toko Listrik Cahaya Weda,"Fidi Jaya, Kec. Weda, Kabupaten Halmahera Tengah, Maluku Utara 97850","Kec. Weda, Kabupaten Halmahera Tengah",MALUKU UTARA,97850.0,Indonesia,,0.3323856,127.8758256,https://maps.google.com/?cid=0x0:0x3803744be289ed97
toko bangunan,Toko Elektronik,Toko Listrik Cahaya Weda,"Fidi Jaya, Kec. Weda, Kabupaten Halmahera Tengah, Maluku Utara 97850","Kec. Weda, Kabupaten Halmahera Tengah",MALUKU UTARA,97850.0,Indonesia,,0.3323856,127.8758256,https://maps.google.com/?cid=0x0:0x3803744be289ed97
toko bangunan,Toko Bahan Bangunan,Toko Laris Jaya,"Fidi Jaya, Kec. Weda, Kabupaten Halmahera Tengah, Maluku Utara","Kabupaten Halmahera Tengah, Maluku Utara",MALUKU UTARA,,Indonesia,82262270112.0,0.3356742,127.8739285,https://maps.google.com/?cid=0x0:0x9a04738bb237a2b7
hardware store,Toko Bahan Bangunan,Toko Laris Jaya,"Fidi Jaya, Kec. Weda, Kabupaten Halmahera Tengah, Maluku Utara","Kabupaten Halmahera Tengah, Maluku Utara",MALUKU UTARA,,Indonesia,82262270112.0,0.3356742,127.8739285,https://maps.google.com/?cid=0x0:0x9a04738bb237a2b7
hardware store,Toko Bahan Bangunan,Toko Laris Jaya,"Fidi Jaya, Kec. Weda, Kabupaten Halmahera Tengah, Maluku Utara","Kabupaten Halmahera Tengah, Maluku Utara",MALUKU UTARA,,Indonesia,82262270112.0,0.3356742,127.8739285,https://maps.google.com/?cid=0x0:0x9a04738bb237a2b7
toko bangunan,Toko Bahan Bangunan,Toko Royal Berkat,"Fidi Jaya, Kec. Weda, Kabupaten Halmahera Tengah, Maluku Utara","Kabupaten Halmahera Tengah, Maluku Utara",MALUKU UTARA,,Indonesia,,0.3366136,127.8744648,https://maps.google.com/?cid=0x0:0x1ba28ed8202b8f7
toko bangunan,Toko Bahan Bangunan,Toko Laris Jaya,"Fidi Jaya, Kec. Weda, Kabupaten Halmahera Tengah, Maluku Utara","Kabupaten Halmahera Tengah, Maluku Utara",MALUKU UTARA,,Indonesia,82262270112.0,0.3356742,127.8739285,https://maps.google.com/?cid=0x0:0x9a04738bb237a2b7
hardware store,Toko Perlengkapan Rumah,MR.DIY,"Fidi Jaya, Kec. Weda Tengah, Kabupaten Halmahera Tengah, Maluku Utara 97850","Kec. Weda Tengah, Kabupaten Halmahera Tengah",MALUKU UTARA,97850.0,Indonesia,85395886700.0,0.3364069,127.8781619,https://maps.google.com/?cid=0x0:0x9b8fc1b866b13459
hardware store,Toko Perlengkapan Rumah,MR.DIY,"Fidi Jaya, Kec. Weda Tengah, Kabupaten Halmahera Tengah, Maluku Utara 97850","Kec. Weda Tengah, Kabupaten Halmahera Tengah",MALUKU UTARA,97850.0,Indonesia,85395886700.0,0.3364069,127.8781619,https://maps.google.com/?cid=0x0:0x9b8fc1b866b13459
toko bangunan,Toko,TOKO INTI SARI,"Fidi Jaya, Kec. Weda Tengah, Kabupaten Halmahera Tengah, Maluku Utara","Kabupaten Halmahera Tengah, Maluku Utara",MALUKU UTARA,,Indonesia,,0.3366249,127.8744101,https://maps.google.com/?cid=0x0:0xdc47236c2f0e15c7
toko bangunan,Toko,TOKO INTI SARI,"Fidi Jaya, Kec. Weda Tengah, Kabupaten Halmahera Tengah, Maluku Utara","Kabupaten Halmahera Tengah, Maluku Utara",MALUKU UTARA,,Indonesia,,0.3366249,127.8744101,https://maps.google.com/?cid=0x0:0xdc47236c2f0e15c7
building materials,Toko,TOKO INTI SARI,"Fidi Jaya, Kec. Weda Tengah, Kabupaten Halmahera Tengah, Maluku Utara","Kabupaten Halmahera Tengah, Maluku Utara",MALUKU UTARA,,Indonesia,,0.3366249,127.8744101,https://maps.google.com/?cid=0x0:0xdc47236c2f0e15c7
toko bangunan,Toko,TOKO INTI SARI,"Fidi Jaya, Kec. Weda Tengah, Kabupaten Halmahera Tengah, Maluku Utara","Kabupaten Halmahera Tengah, Maluku Utara",MALUKU UTARA,,Indonesia,,0.3366249,127.8744101,https://maps.google.com/?cid=0x0:0xdc47236c2f0e15c7
toko bangunan,Toko,TOKO INTI SARI,"Fidi Jaya, Kec. Weda Tengah, Kabupaten Halmahera Tengah, Maluku Utara","Kabupaten Halmahera Tengah, Maluku Utara",MALUKU UTARA,,Indonesia,,0.3366249,127.8744101,https://maps.google.com/?cid=0x0:0xdc47236c2f0e15c7
toko bangunan,Toko,TOKO INTI SARI,"Fidi Jaya, Kec. Weda Tengah, Kabupaten Halmahera Tengah, Maluku Utara","Kabupaten Halmahera Tengah, Maluku Utara",MALUKU UTARA,,Indonesia,,0.3366249,127.8744101,https://maps.google.com/?cid=0x0:0xdc47236c2f0e15c7
supermarket bangunan,Toko,TOKO INTI SARI,"Fidi Jaya, Kec. Weda Tengah, Kabupaten Halmahera Tengah, Maluku Utara","Kabupaten Halmahera Tengah, Maluku Utara",MALUKU UTARA,,Indonesia,,0.3366249,127.8744101,https://maps.google.com/?cid=0x0:0xdc47236c2f0e15c7
toko bangunan,Toko,TOKO INTI SARI,"Fidi Jaya, Kec. Weda Tengah, Kabupaten Halmahera Tengah, Maluku Utara","Kabupaten Halmahera Tengah, Maluku Utara",MALUKU UTARA,,Indonesia,,0.3366249,127.8744101,https://maps.google.com/?cid=0x0:0xdc47236c2f0e15c7
toko bangunan,Toko,TOKO INTI SARI,"Fidi Jaya, Kec. Weda Tengah, Kabupaten Halmahera Tengah, Maluku Utara","Kabupaten Halmahera Tengah, Maluku Utara",MALUKU UTARA,,Indonesia,,0.3366249,127.8744101,https://maps.google.com/?cid=0x0:0xdc47236c2f0e15c7
supermarket bangunan,Toko,TOKO INTI SARI,"Fidi Jaya, Kec. Weda Tengah, Kabupaten Halmahera Tengah, Maluku Utara","Kabupaten Halmahera Tengah, Maluku Utara",MALUKU UTARA,,Indonesia,,0.3366249,127.8744101,https://maps.google.com/?cid=0x0:0xdc47236c2f0e15c7
building materials,Toko,TOKO INTI SARI,"Fidi Jaya, Kec. Weda Tengah, Kabupaten Halmahera Tengah, Maluku Utara","Kabupaten Halmahera Tengah, Maluku Utara",MALUKU UTARA,,Indonesia,,0.3366249,127.8744101,https://maps.google.com/?cid=0x0:0xdc47236c2f0e15c7
toko bangunan,Toko Bahan Bangunan,TB BERKAH JAYA,"F2FH+XQ, Gemaf, Kec. Weda Utara, Kabupaten Halmahera Tengah, Maluku Utara","Kabupaten Halmahera Tengah, Maluku Utara",MALUKU UTARA,,Indonesia,,0.474964,128.029461,https://maps.google.com/?cid=0x0:0xb9fcd6c3c1a9486e
hardware store,Toko Bahan Bangunan,TB BERKAH JAYA,"F2FH+XQ, Gemaf, Kec. Weda Utara, Kabupaten Halmahera Tengah, Maluku Utara","Kabupaten Halmahera Tengah, Maluku Utara",MALUKU UTARA,,Indonesia,,0.474964,128.029461,https://maps.google.com/?cid=0x0:0xb9fcd6c3c1a9486e
hardware store,Toko Bahan Bangunan,TB BERKAH JAYA,"F2FH+XQ, Gemaf, Kec. Weda Utara, Kabupaten Halmahera Tengah, Maluku Utara","Kabupaten Halmahera Tengah, Maluku Utara",MALUKU UTARA,,Indonesia,,0.474964,128.029461,https://maps.google.com/?cid=0x0:0xb9fcd6c3c1a9486e
toko bangunan,Toko Bahan Bangunan,Toko Halmahera Jaya,"Dusun II, Nurweda, Kec. Weda, Kabupaten Halmahera Tengah, Maluku Utara 97853","Nurweda, Kec. Weda, Kabupaten Halmahera Tengah",MALUKU UTARA,97853.0,Indonesia,81215104460.0,0.3211812,127.8733441,https://maps.google.com/?cid=0x0:0xb1ee0956a6b95b1
building materials,Toko Bahan Bangunan,Toko Halmahera Jaya,"Dusun II, Nurweda, Kec. Weda, Kabupaten Halmahera Tengah, Maluku Utara 97853","Nurweda, Kec. Weda, Kabupaten Halmahera Tengah",MALUKU UTARA,97853.0,Indonesia,81215104460.0,0.3211812,127.8733441,https://maps.google.com/?cid=0x0:0xb1ee0956a6b95b1
supermarket bangunan,Toko Bahan Bangunan,Toko Halmahera Jaya,"Dusun II, Nurweda, Kec. Weda, Kabupaten Halmahera Tengah, Maluku Utara 97853","Nurweda, Kec. Weda, Kabupaten Halmahera Tengah",MALUKU UTARA,97853.0,Indonesia,81215104460.0,0.3211812,127.8733441,https://maps.google.com/?cid=0x0:0xb1ee0956a6b95b1
building materials,Toko Bahan Bangunan,Toko Halmahera Jaya,"Dusun II, Nurweda, Kec. Weda, Kabupaten Halmahera Tengah, Maluku Utara 97853","Nurweda, Kec. Weda, Kabupaten Halmahera Tengah",MALUKU UTARA,97853.0,Indonesia,81215104460.0,0.3211812,127.8733441,https://maps.google.com/?cid=0x0:0xb1ee0956a6b95b1
toko bangunan,Toko Bahan Bangunan,Toko Halmahera Jaya,"Dusun II, Nurweda, Kec. Weda, Kabupaten Halmahera Tengah, Maluku Utara 97853","Nurweda, Kec. Weda, Kabupaten Halmahera Tengah",MALUKU UTARA,97853.0,Indonesia,81215104460.0,0.3211812,127.8733441,https://maps.google.com/?cid=0x0:0xb1ee0956a6b95b1
supermarket bangunan,Toko Bahan Bangunan,Toko Halmahera Jaya,"Dusun II, Nurweda, Kec. Weda, Kabupaten Halmahera Tengah, Maluku Utara 97853","Nurweda, Kec. Weda, Kabupaten Halmahera Tengah",MALUKU UTARA,97853.0,Indonesia,81215104460.0,0.3211812,127.8733441,https://maps.google.com/?cid=0x0:0xb1ee0956a6b95b1
toko bangunan,Toko Bahan Bangunan,Toko Halmahera Jaya,"Dusun II, Nurweda, Kec. Weda, Kabupaten Halmahera Tengah, Maluku Utara 97853","Nurweda, Kec. Weda, Kabupaten Halmahera Tengah",MALUKU UTARA,97853.0,Indonesia,81215104460.0,0.3211812,127.8733441,https://maps.google.com/?cid=0x0:0xb1ee0956a6b95b1
hardware store,Toko Bahan Bangunan,Toko Halmahera Jaya,"Dusun II, Nurweda, Kec. Weda, Kabupaten Halmahera Tengah, Maluku Utara 97853","Nurweda, Kec. Weda, Kabupaten Halmahera Tengah",MALUKU UTARA,97853.0,Indonesia,81215104460.0,0.3211812,127.8733441,https://maps.google.com/?cid=0x0:0xb1ee0956a6b95b1
hardware store,Toko Bahan Bangunan,Toko Halmahera Jaya,"Dusun II, Nurweda, Kec. Weda, Kabupaten Halmahera Tengah, Maluku Utara 97853","Nurweda, Kec. Weda, Kabupaten Halmahera Tengah",MALUKU UTARA,97853.0,Indonesia,81215104460.0,0.3211812,127.8733441,https://maps.google.com/?cid=0x0:0xb1ee0956a6b95b1
hardware store,Toko Bahan Bangunan,Toko Halmahera Jaya,"Dusun II, Nurweda, Kec. Weda, Kabupaten Halmahera Tengah, Maluku Utara 97853","Nurweda, Kec. Weda, Kabupaten Halmahera Tengah",MALUKU UTARA,97853.0,Indonesia,81215104460.0,0.3211812,127.8733441,https://maps.google.com/?cid=0x0:0xb1ee0956a6b95b1
housing complex,Kantor Perusahaan,desa wedana,"Desa Wedana Perumahan No.100, Were, Kec. Weda, Kabupaten Halmahera Tengah, Maluku Utara","Kabupaten Halmahera Tengah, Maluku Utara",MALUKU UTARA,,Indonesia,,0.3274273,127.875202,https://maps.google.com/?cid=0x0:0x4a01681a4397f1a9
housing complex,housing complex,Weda Resort,"CWC3+WQR, Sawai Itepo, Kec. Weda Tengah, Kabupaten Halmahera Tengah, Maluku Utara","Kabupaten Halmahera Tengah, Maluku Utara",MALUKU UTARA,,Indonesia,8124433754.0,0.4223656,127.9044058,https://maps.google.com/?cid=0x0:0xe2414953297afc97
housing complex,housing complex,Weda Resort,"CWC3+WQR, Sawai Itepo, Kec. Weda Tengah, Kabupaten Halmahera Tengah, Maluku Utara","Kabupaten Halmahera Tengah, Maluku Utara",MALUKU UTARA,,Indonesia,8124433754.0,0.4223656,127.9044058,https://maps.google.com/?cid=0x0:0xe2414953297afc97
toko bangunan,Toko Bahan Bangunan,Toko Surya Jaya - Labuha,"9FCJ+69H, Unnamed Road, Labuha, Kec. Bacan, Kabupaten Halmahera Selatan, Maluku Utara","Kabupaten Halmahera Selatan, Maluku Utara",MALUKU UTARA,,Indonesia,9272321732.0,-0.6294262,127.4809969,https://maps.google.com/?cid=0x0:0xdad7b98c88e223e3
supermarket bangunan,Toko Bahan Bangunan,Toko Surya Jaya - Labuha,"9FCJ+69H, Unnamed Road, Labuha, Kec. Bacan, Kabupaten Halmahera Selatan, Maluku Utara","Kabupaten Halmahera Selatan, Maluku Utara",MALUKU UTARA,,Indonesia,9272321732.0,-0.6294262,127.4809969,https://maps.google.com/?cid=0x0:0xdad7b98c88e223e3
toko bangunan,Toko Bahan Bangunan,Toko Surya Jaya - Labuha,"9FCJ+69H, Unnamed Road, Labuha, Kec. Bacan, Kabupaten Halmahera Selatan, Maluku Utara","Kabupaten Halmahera Selatan, Maluku Utara",MALUKU UTARA,,Indonesia,9272321732.0,-0.6294262,127.4809969,https://maps.google.com/?cid=0x0:0xdad7b98c88e223e3
toko bangunan,Toko Bahan Bangunan,Toko Surya Jaya - Labuha,"9FCJ+69H, Unnamed Road, Labuha, Kec. Bacan, Kabupaten Halmahera Selatan, Maluku Utara","Kabupaten Halmahera Selatan, Maluku Utara",MALUKU UTARA,,Indonesia,9272321732.0,-0.6294262,127.4809969,https://maps.google.com/?cid=0x0:0xdad7b98c88e223e3
toko bangunan,Toko Bahan Bangunan,Toko Surya Jaya - Labuha,"9FCJ+69H, Unnamed Road, Labuha, Kec. Bacan, Kabupaten Halmahera Selatan, Maluku Utara","Kabupaten Halmahera Selatan, Maluku Utara",MALUKU UTARA,,Indonesia,9272321732.0,-0.6294262,127.4809969,https://maps.google.com/?cid=0x0:0xdad7b98c88e223e3
housing complex,Pembangunan Perumahan,Kilo 3,"8VV8+W74, Fidi Jaya, Kec. Weda, Kabupaten Halmahera Tengah, Maluku Utara","Kabupaten Halmahera Tengah, Maluku Utara",MALUKU UTARA,,Indonesia,,0.3447533,127.8657159,https://maps.google.com/?cid=0x0:0x89e806293868a701
housing complex,Pembangunan Perumahan,Kilo 3,"8VV8+W74, Fidi Jaya, Kec. Weda, Kabupaten Halmahera Tengah, Maluku Utara","Kabupaten Halmahera Tengah, Maluku Utara",MALUKU UTARA,,Indonesia,,0.3447533,127.8657159,https://maps.google.com/?cid=0x0:0x89e806293868a701
toko bangunan,Toko Bahan Bangunan,Toko.Timur Raya,"8VPJ+29R, Unnamed Road, Fidi Jaya, Kec. Weda, Kabupaten Halmahera Tengah, Maluku Utara","Kabupaten Halmahera Tengah, Maluku Utara",MALUKU UTARA,,Indonesia,,0.3351116,127.8809053,https://maps.google.com/?cid=0x0:0x23faf8ae84e5052a
hardware store,Toko Bahan Bangunan,Toko.Timur Raya,"8VPJ+29R, Unnamed Road, Fidi Jaya, Kec. Weda, Kabupaten Halmahera Tengah, Maluku Utara","Kabupaten Halmahera Tengah, Maluku Utara",MALUKU UTARA,,Indonesia,,0.3351116,127.8809053,https://maps.google.com/?cid=0x0:0x23faf8ae84e5052a
building materials,Toko Bahan Bangunan,Toko.Timur Raya,"8VPJ+29R, Unnamed Road, Fidi Jaya, Kec. Weda, Kabupaten Halmahera Tengah, Maluku Utara","Kabupaten Halmahera Tengah, Maluku Utara",MALUKU UTARA,,Indonesia,,0.3351116,127.8809053,https://maps.google.com/?cid=0x0:0x23faf8ae84e5052a
supermarket bangunan,Toko Bahan Bangunan,Toko.Timur Raya,"8VPJ+29R, Unnamed Road, Fidi Jaya, Kec. Weda, Kabupaten Halmahera Tengah, Maluku Utara","Kabupaten Halmahera Tengah, Maluku Utara",MALUKU UTARA,,Indonesia,,0.3351116,127.8809053,https://maps.google.com/?cid=0x0:0x23faf8ae84e5052a
hardware store,Toko Bahan Bangunan,Toko.Timur Raya,"8VPJ+29R, Unnamed Road, Fidi Jaya, Kec. Weda, Kabupaten Halmahera Tengah, Maluku Utara","Kabupaten Halmahera Tengah, Maluku Utara",MALUKU UTARA,,Indonesia,,0.3351116,127.8809053,https://maps.google.com/?cid=0x0:0x23faf8ae84e5052a
toko bangunan,Toko Bahan Bangunan,Toko.Timur Raya,"8VPJ+29R, Unnamed Road, Fidi Jaya, Kec. Weda, Kabupaten Halmahera Tengah, Maluku Utara","Kabupaten Halmahera Tengah, Maluku Utara",MALUKU UTARA,,Indonesia,,0.3351116,127.8809053,https://maps.google.com/?cid=0x0:0x23faf8ae84e5052a
hardware store,Toko Bahan Bangunan,Toko.Timur Raya,"8VPJ+29R, Unnamed Road, Fidi Jaya, Kec. Weda, Kabupaten Halmahera Tengah, Maluku Utara","Kabupaten Halmahera Tengah, Maluku Utara",MALUKU UTARA,,Indonesia,,0.3351116,127.8809053,https://maps.google.com/?cid=0x0:0x23faf8ae84e5052a
supermarket bangunan,Toko Bahan Bangunan,Toko.Timur Raya,"8VPJ+29R, Unnamed Road, Fidi Jaya, Kec. Weda, Kabupaten Halmahera Tengah, Maluku Utara","Kabupaten Halmahera Tengah, Maluku Utara",MALUKU UTARA,,Indonesia,,0.3351116,127.8809053,https://maps.google.com/?cid=0x0:0x23faf8ae84e5052a
toko bangunan,Toko Bahan Bangunan,Toko.Timur Raya,"8VPJ+29R, Unnamed Road, Fidi Jaya, Kec. Weda, Kabupaten Halmahera Tengah, Maluku Utara","Kabupaten Halmahera Tengah, Maluku Utara",MALUKU UTARA,,Indonesia,,0.3351116,127.8809053,https://maps.google.com/?cid=0x0:0x23faf8ae84e5052a
building materials,Toko Bahan Bangunan,Toko.Timur Raya,"8VPJ+29R, Unnamed Road, Fidi Jaya, Kec. Weda, Kabupaten Halmahera Tengah, Maluku Utara","Kabupaten Halmahera Tengah, Maluku Utara",MALUKU UTARA,,Indonesia,,0.3351116,127.8809053,https://maps.google.com/?cid=0x0:0x23faf8ae84e5052a
supermarket bangunan,Toko Bahan Bangunan,Toko.Timur Raya,"8VPJ+29R, Unnamed Road, Fidi Jaya, Kec. Weda, Kabupaten Halmahera Tengah, Maluku Utara","Kabupaten Halmahera Tengah, Maluku Utara",MALUKU UTARA,,Indonesia,,0.3351116,127.8809053,https://maps.google.com/?cid=0x0:0x23faf8ae84e5052a
building materials,Toko Bahan Bangunan,Toko.Timur Raya,"8VPJ+29R, Unnamed Road, Fidi Jaya, Kec. Weda, Kabupaten Halmahera Tengah, Maluku Utara","Kabupaten Halmahera Tengah, Maluku Utara",MALUKU UTARA,,Indonesia,,0.3351116,127.8809053,https://maps.google.com/?cid=0x0:0x23faf8ae84e5052a
toko bangunan,Toko Bahan Bangunan,Toko.Timur Raya,"8VPJ+29R, Unnamed Road, Fidi Jaya, Kec. Weda, Kabupaten Halmahera Tengah, Maluku Utara","Kabupaten Halmahera Tengah, Maluku Utara",MALUKU UTARA,,Indonesia,,0.3351116,127.8809053,https://maps.google.com/?cid=0x0:0x23faf8ae84e5052a
supermarket bangunan,Pusat Perbelanjaan,Multimart PLAZA WEDA,"8VPG+GC6, Fidi Jaya, Kec. Weda Tengah, Kabupaten Halmahera Tengah, Maluku Utara","Kabupaten Halmahera Tengah, Maluku Utara",MALUKU UTARA,,Indonesia,82296758295.0,0.3363001,127.8781859,https://maps.google.com/?cid=0x0:0xc7ccca75408256b4
hardware store,Toko,Bintang Labobar Weda,"8VPC+8VM, Fidi Jaya, Kec. Weda, Kabupaten Halmahera Tengah, Maluku Utara","Kabupaten Halmahera Tengah, Maluku Utara",MALUKU UTARA,,Indonesia,,0.3358271,127.8721647,https://maps.google.com/?cid=0x0:0x1117af6cdbd7e3fc
hardware store,Toko,Bintang Labobar Weda,"8VPC+8VM, Fidi Jaya, Kec. Weda, Kabupaten Halmahera Tengah, Maluku Utara","Kabupaten Halmahera Tengah, Maluku Utara",MALUKU UTARA,,Indonesia,,0.3358271,127.8721647,https://maps.google.com/?cid=0x0:0x1117af6cdbd7e3fc
hardware store,Toko Bahan Bangunan,Bezli gorden,"8VMH+82R, Fidi Jaya, Kec. Weda Tengah, Kabupaten Halmahera Tengah, Maluku Utara 97850","Fidi Jaya, Kec. Weda Tengah, Kabupaten Halmahera Tengah",MALUKU UTARA,97850.0,Indonesia,81241158703.0,0.333368,127.8775203,https://maps.google.com/?cid=0x0:0x49aac64ced551832
hardware store,Toko Perlengkapan Rumah,Domika Store,"8VMF+44H, Unnamed Road, Fidi Jaya, Kec. Weda Tengah, Kabupaten Halmahera Tengah, Maluku Utara","Kabupaten Halmahera Tengah, Maluku Utara",MALUKU UTARA,,Indonesia,85320444995.0,0.3328071,127.8728677,https://maps.google.com/?cid=0x0:0xfea2653995be19c9
hardware store,Toko Perlengkapan Rumah,Domika Store,"8VMF+44H, Unnamed Road, Fidi Jaya, Kec. Weda Tengah, Kabupaten Halmahera Tengah, Maluku Utara","Kabupaten Halmahera Tengah, Maluku Utara",MALUKU UTARA,,Indonesia,85320444995.0,0.3328071,127.8728677,https://maps.google.com/?cid=0x0:0xfea2653995be19c9
hardware store,Toko Ponsel,Konter Caseholic Weda,"8VJG+X82, Fidi Jaya, Kec. Weda, Kabupaten Halmahera Tengah, Maluku Utara","Kabupaten Halmahera Tengah, Maluku Utara",MALUKU UTARA,,Indonesia,85315110927.0,0.3323905,127.8757576,https://maps.google.com/?cid=0x0:0x83531240ee7e5615
toko bangunan,Toko Bahan Bangunan,UD. PERSADA INTI BANGUNAN,"8VHG+HGX, Jalan siswa, Were, Kec. Weda, Kabupaten Halmahera Tengah, Maluku Utara","Kabupaten Halmahera Tengah, Maluku Utara",MALUKU UTARA,,Indonesia,82352386436.0,0.3289936,127.8763544,https://maps.google.com/?cid=0x0:0x275c1f952e5b60a1
toko bangunan,Toko Bahan Bangunan,UD. PERSADA INTI BANGUNAN,"8VHG+HGX, Jalan siswa, Were, Kec. Weda, Kabupaten Halmahera Tengah, Maluku Utara","Kabupaten Halmahera Tengah, Maluku Utara",MALUKU UTARA,,Indonesia,82352386436.0,0.3289936,127.8763544,https://maps.google.com/?cid=0x0:0x275c1f952e5b60a1
building materials,Toko Bahan Bangunan,UD. PERSADA INTI BANGUNAN,"8VHG+HGX, Jalan siswa, Were, Kec. Weda, Kabupaten Halmahera Tengah, Maluku Utara","Kabupaten Halmahera Tengah, Maluku Utara",MALUKU UTARA,,Indonesia,82352386436.0,0.3289936,127.8763544,https://maps.google.com/?cid=0x0:0x275c1f952e5b60a1
toko bangunan,Toko Bahan Bangunan,UD. PERSADA INTI BANGUNAN,"8VHG+HGX, Jalan siswa, Were, Kec. Weda, Kabupaten Halmahera Tengah, Maluku Utara","Kabupaten Halmahera Tengah, Maluku Utara",MALUKU UTARA,,Indonesia,82352386436.0,0.3289936,127.8763544,https://maps.google.com/?cid=0x0:0x275c1f952e5b60a1
building materials,Toko Bahan Bangunan,UD. PERSADA INTI BANGUNAN,"8VHG+HGX, Jalan siswa, Were, Kec. Weda, Kabupaten Halmahera Tengah, Maluku Utara","Kabupaten Halmahera Tengah, Maluku Utara",MALUKU UTARA,,Indonesia,82352386436.0,0.3289936,127.8763544,https://maps.google.com/?cid=0x0:0x275c1f952e5b60a1
toko bangunan,Toko Bahan Bangunan,UD. PERSADA INTI BANGUNAN,"8VHG+HGX, Jalan siswa, Were, Kec. Weda, Kabupaten Halmahera Tengah, Maluku Utara","Kabupaten Halmahera Tengah, Maluku Utara",MALUKU UTARA,,Indonesia,82352386436.0,0.3289936,127.8763544,https://maps.google.com/?cid=0x0:0x275c1f952e5b60a1
building materials,Toko Bahan Bangunan,UD. PERSADA INTI BANGUNAN,"8VHG+HGX, Jalan siswa, Were, Kec. Weda, Kabupaten Halmahera Tengah, Maluku Utara","Kabupaten Halmahera Tengah, Maluku Utara",MALUKU UTARA,,Indonesia,82352386436.0,0.3289936,127.8763544,https://maps.google.com/?cid=0x0:0x275c1f952e5b60a1
building materials,Toko Bahan Bangunan,UD. PERSADA INTI BANGUNAN,"8VHG+HGX, Jalan siswa, Were, Kec. Weda, Kabupaten Halmahera Tengah, Maluku Utara","Kabupaten Halmahera Tengah, Maluku Utara",MALUKU UTARA,,Indonesia,82352386436.0,0.3289936,127.8763544,https://maps.google.com/?cid=0x0:0x275c1f952e5b60a1
building materials,building materials,Weda jaya,"8VH9+MVQ, Were, Kec. Weda, Kabupaten Halmahera Tengah, Maluku Utara","Kabupaten Halmahera Tengah, Maluku Utara",MALUKU UTARA,,Indonesia,,0.3292031,127.8697463,https://maps.google.com/?cid=0x0:0x2de4b0fbbbf55cd1
housing complex,Komplek perumahan,Perumahan 100,"8VH5+C28, Nurweda, Kec. Weda, Kabupaten Halmahera Tengah, Maluku Utara","Kabupaten Halmahera Tengah, Maluku Utara",MALUKU UTARA,,Indonesia,,0.3285413,127.8575664,https://maps.google.com/?cid=0x0:0x6ddad3f13a841ea9
housing complex,Komplek perumahan,Perumahan 100,"8VH5+C28, Nurweda, Kec. Weda, Kabupaten Halmahera Tengah, Maluku Utara","Kabupaten Halmahera Tengah, Maluku Utara",MALUKU UTARA,,Indonesia,,0.3285413,127.8575664,https://maps.google.com/?cid=0x0:0x6ddad3f13a841ea9
housing complex,Komplek perumahan,Perumahan 100,"8VH5+C28, Nurweda, Kec. Weda, Kabupaten Halmahera Tengah, Maluku Utara","Kabupaten Halmahera Tengah, Maluku Utara",MALUKU UTARA,,Indonesia,,0.3285413,127.8575664,https://maps.google.com/?cid=0x0:0x6ddad3f13a841ea9
housing complex,Komplek perumahan,Perumahan seratus,"8VH5+9GR, Nurweda, Kec. Weda, Kabupaten Halmahera Tengah, Maluku Utara","Kabupaten Halmahera Tengah, Maluku Utara",MALUKU UTARA,,Indonesia,,0.3284755,127.8587669,https://maps.google.com/?cid=0x0:0xbbd16185b0470e5e
toko bangunan,Toko Bahan Bangunan,Akbar,"8VGG+X3G, Were, Kec. Weda, Kabupaten Halmahera Tengah, Maluku Utara","Kabupaten Halmahera Tengah, Maluku Utara",MALUKU UTARA,,Indonesia,,0.3274273,127.875202,https://maps.google.com/?cid=0x0:0x4a7f6e9f0a3311a2
building materials,Toko Bahan Bangunan,Akbar,"8VGG+X3G, Were, Kec. Weda, Kabupaten Halmahera Tengah, Maluku Utara","Kabupaten Halmahera Tengah, Maluku Utara",MALUKU UTARA,,Indonesia,,0.3274273,127.875202,https://maps.google.com/?cid=0x0:0x4a7f6e9f0a3311a2
hardware store,Toko sembako pemerintah,Kios Putra Blambangan,"5V6M+3RC, Wairoro Indah, Kec. Weda Sel., Kabupaten Halmahera Tengah, Maluku Utara","Kabupaten Halmahera Tengah, Maluku Utara",MALUKU UTARA,,Indonesia,,0.1601833,127.8845001,https://maps.google.com/?cid=0x0:0x3dd3482d286956cb
hardware store,Toko Elektronik,Toko ATK ( Alat Tulis Kantor ),"5V6J+HMH, Unnamed Road, Weda Sel., Wairoro Indah, Kec. Weda Sel., Kabupaten Halmahera Tengah, Maluku Utara","Kabupaten Halmahera Tengah, Maluku Utara",MALUKU UTARA,,Indonesia,82292187333.0,0.161447,127.8817487,https://maps.google.com/?cid=0x0:0xa96f49675849e979
hardware store,hardware store,Qiandra printing dan foto copy,"4VRG+4GW, Kluting Jaya, Kec. Weda Sel., Kabupaten Halmahera Tengah, Maluku Utara","Kabupaten Halmahera Tengah, Maluku Utara",MALUKU UTARA,,Indonesia,,0.1403706,127.8763171,https://maps.google.com/?cid=0x0:0x18ed4cf81a64a07b
toko bangunan,toko bangunan,Maluku Utara,,Maluku Utara,MALUKU UTARA,,Indonesia,,1.5709993,127.8087693,https://maps.google.com/?cid=0x0:0x1030bfbcaf71ac0
hardware store,hardware store,Maluku Utara,,Maluku Utara,MALUKU UTARA,,Indonesia,,1.5709993,127.8087693,https://maps.google.com/?cid=0x0:0x1030bfbcaf71ac0
toko bangunan,toko bangunan,Maluku Utara,,Maluku Utara,MALUKU UTARA,,Indonesia,,1.5709993,127.8087693,https://maps.google.com/?cid=0x0:0x1030bfbcaf71ac0
