Category,Real Category,Business Name,Address,City,State,Postal Code,Country,Phone,Latitude,Longitude,Map Link
mall,Kafe,Nile Cafe' @Asean Mall,"à¸à¸±à¹à¸ 1 à¸«à¹à¸²à¸à¸­à¸²à¹à¸à¸µà¹à¸¢à¸à¸¡à¸­à¸¥à¸¥à¹ Talubo, Mueang Pattani District, Pattani 94000, Thailand","Mueang Pattani District, Pattani",MALUKU UTARA,94000.0,Indonesia,66990068094.0,6.8637117,101.273353,https://maps.google.com/?cid=0x0:0xcf929cba69ee9b01
supermarket,Toko,Toko WEDA JAYA,"Were, Kec. Weda, Kabupaten Halmahera Tengah, Maluku Utara","Kabupaten Halmahera Tengah, Maluku Utara",MALUKU UTARA,,Indonesia,,0.3306152,127.8749667,https://maps.google.com/?cid=0x0:0x6f26a4f6786230f1
supermarket,Toko,Toko WEDA JAYA,"Were, Kec. Weda, Kabupaten Halmahera Tengah, Maluku Utara","Kabupaten Halmahera Tengah, Maluku Utara",MALUKU UTARA,,Indonesia,,0.3306152,127.8749667,https://maps.google.com/?cid=0x0:0x6f26a4f6786230f1
supermarket,Toko,Toko WEDA JAYA,"Were, Kec. Weda, Kabupaten Halmahera Tengah, Maluku Utara","Kabupaten Halmahera Tengah, Maluku Utara",MALUKU UTARA,,Indonesia,,0.3306152,127.8749667,https://maps.google.com/?cid=0x0:0x6f26a4f6786230f1
supermarket,Pasar,"Produksi Tempe Bu Iin, Pulau Gebe, Maluku Utara","WCGP+26C, Jl. Batubara, Selpele, Kec. Pulau Gebe, Kabupaten Halmahera Tengah, Maluku Utara 98481","Jl. Batubara, Selpele, Kec. Pulau Gebe, Kabupaten Halmahera Tengah",MALUKU UTARA,98481.0,Indonesia,82116765414.0,-0.0749466,129.435525,https://maps.google.com/?cid=0x0:0x99e799a81aebce87
supermarket,Toko Elektronik,Kios ATK 2Noer,"WCGJ+4JX, Kapaleo, Kec. Pulau Gebe, Kabupaten Halmahera Tengah, Maluku Utara 98481","Kapaleo, Kec. Pulau Gebe, Kabupaten Halmahera Tengah",MALUKU UTARA,98481.0,Indonesia,85241962019.0,-0.0746422,129.4316035,https://maps.google.com/?cid=0x0:0xe2a05e5516cffa2e
supermarket,Komplek perumahan,Muhammad zikril,"WCFJ+P7F, Jl. Intan, Selpele, Kec. Pulau Gebe, Kabupaten Halmahera Tengah, Maluku Utara 98481","Jl. Intan, Selpele, Kec. Pulau Gebe, Kabupaten Halmahera Tengah",MALUKU UTARA,98481.0,Indonesia,,-0.075682,129.4306867,https://maps.google.com/?cid=0x0:0xc5ee326a11f01bc1
mall,mall,Toko Dua Sekawan,"WCFJ+3WX, Kapaleo, Kec. Pulau Gebe, Kabupaten Halmahera Tengah, Maluku Utara 98481","Kapaleo, Kec. Pulau Gebe, Kabupaten Halmahera Tengah",MALUKU UTARA,98481.0,Indonesia,,-0.0772594,129.4323747,https://maps.google.com/?cid=0x0:0xf6032f612795854a
supermarket,Minimarket,Penginapan Bone Raya Pulau Gebe,"WCFJ+2Q8, Kapaleo, Kec. Pulau Gebe, Kabupaten Halmahera Tengah, Maluku Utara 98481","Kapaleo, Kec. Pulau Gebe, Kabupaten Halmahera Tengah",MALUKU UTARA,98481.0,Indonesia,81233224229.0,-0.0774504,129.4319391,https://maps.google.com/?cid=0x0:0x7e4d57ce7857e146
supermarket,Toko umum,Gebe,"WCCQ+RGR, Sonof Kacepo, Kec. Pulau Gebe, Kabupaten Halmahera Tengah, Maluku Utara 98481","Sonof Kacepo, Kec. Pulau Gebe, Kabupaten Halmahera Tengah",MALUKU UTARA,98481.0,Indonesia,85293039975.0,-0.0778896,129.4387664,https://maps.google.com/?cid=0x0:0xdc5c8616c4b7fac8
supermarket,supermarket,UD AYHU,"WCCM+R5V, Kapaleo, Kec. Pulau Gebe, Kabupaten Halmahera Tengah, Maluku Utara 98481","Kapaleo, Kec. Pulau Gebe, Kabupaten Halmahera Tengah",MALUKU UTARA,98481.0,Indonesia,,-0.077895,129.4329371,https://maps.google.com/?cid=0x0:0x1ba76246c11ab2ab
supermarket,Toko Alat Tulis,Kios Eka,"WCCJ+WR9, Jl. Pelabuhan, Kapaleo, Kec. Pulau Gebe, Kabupaten Halmahera Tengah, Maluku Utara 98481","Jl. Pelabuhan, Kapaleo, Kec. Pulau Gebe, Kabupaten Halmahera Tengah",MALUKU UTARA,98481.0,Indonesia,81244749800.0,-0.0777016,129.4321049,https://maps.google.com/?cid=0x0:0x456bbc5dc505f294
supermarket,supermarket,Kios 5 Putrii,"WC8Q+FPH, Jl. Raya Desa Kacepi, Selpele, Kec. Pulau Gebe, Kabupaten Halmahera Tengah, Maluku Utara 98481","Jl. Raya Desa Kacepi, Selpele, Kec. Pulau Gebe, Kabupaten Halmahera Tengah",MALUKU UTARA,98481.0,Indonesia,,-0.0838183,129.439367,https://maps.google.com/?cid=0x0:0xaf58516d9d2b71c
supermarket,Minimarket,Ical ical,"VFGW+XP7, Sonof Kacepo, Kec. Pulau Gebe, Kabupaten Halmahera Tengah, Maluku Utara 98481","Sonof Kacepo, Kec. Pulau Gebe, Kabupaten Halmahera Tengah",MALUKU UTARA,98481.0,Indonesia,82399635783.0,-0.1225875,129.49679,https://maps.google.com/?cid=0x0:0xe5271f7e1ab7206d
mall,Toko Kosmetik,atomy pattani sugoi,"V6JW+6JG, Rusamilae, Mueang Pattani District, Pattani 94000, Thailand","Rusamilae, Mueang Pattani District, Pattani",MALUKU UTARA,94000.0,Indonesia,66847490400.0,6.8805608,101.2465923,https://maps.google.com/?cid=0x0:0x6931a07100dcb68c
mall,Kantor Perusahaan,PT IWIP,"Unnamed Road, Lelilef Sawai, Kec. Weda Tengah, Kabupaten Halmahera Tengah, Maluku Utara","Kabupaten Halmahera Tengah, Maluku Utara",MALUKU UTARA,,Indonesia,,0.4790098,127.9823237,https://maps.google.com/?cid=0x0:0x5058b3191200f1bf
mall,Toko Ponsel,CENTRAL PHONE,"Unnamed Road, Lelilef Sawai, Kec. Weda Tengah, Kabupaten Halmahera Tengah, Maluku Utara","Kabupaten Halmahera Tengah, Maluku Utara",MALUKU UTARA,,Indonesia,85211133397.0,0.4679965,127.9339666,https://maps.google.com/?cid=0x0:0x3e0fa5892bc0357c
mall,Kantor Perusahaan,PT IWIP,"Unnamed Road, Lelilef Sawai, Kec. Weda Tengah, Kabupaten Halmahera Tengah, Maluku Utara","Kabupaten Halmahera Tengah, Maluku Utara",MALUKU UTARA,,Indonesia,,0.4790098,127.9823237,https://maps.google.com/?cid=0x0:0x5058b3191200f1bf
mall,Kantor Perusahaan,PT IWIP,"Unnamed Road, Lelilef Sawai, Kec. Weda Tengah, Kabupaten Halmahera Tengah, Maluku Utara","Kabupaten Halmahera Tengah, Maluku Utara",MALUKU UTARA,,Indonesia,,0.4790098,127.9823237,https://maps.google.com/?cid=0x0:0x5058b3191200f1bf
mall,Pusat Perbelanjaan,Salfamart,"Sp 2, Blok A, Wairoro Indah, Kec. Weda Sel., Kabupaten Halmahera Tengah, Maluku Utara","Kabupaten Halmahera Tengah, Maluku Utara",MALUKU UTARA,,Indonesia,,0.1615134,127.8894898,https://maps.google.com/?cid=0x0:0xa2c72c7752d57b46
supermarket,Toko Pakaian,Etong,"Samping SD 2gemia, Bilifitu, Kec. Patani Utara, Kabupaten Halmahera Tengah, Maluku Utara","Kabupaten Halmahera Tengah, Maluku Utara",MALUKU UTARA,,Indonesia,82320035553.0,0.3175682,128.7698132,https://maps.google.com/?cid=0x0:0x23be3d109487cb5c
supermarket,Toko,Kios 4 putri 1 Dewa,"Nurweda, Kec. Weda, Kabupaten Halmahera Tengah, Maluku Utara 97853","Kec. Weda, Kabupaten Halmahera Tengah",MALUKU UTARA,97853.0,Indonesia,81344683736.0,0.3251199,127.8710142,https://maps.google.com/?cid=0x0:0xbb2b9bf0edfdcf82
mall,Pusat Perbelanjaan,Limketkai Center,"National Highway, Cagayan de Oro, 9000 Misamis Oriental, Filipina","Cagayan de Oro, Misamis Oriental, Filipina",MALUKU UTARA,,Indonesia,63888565226.0,8.4815828,124.6560603,https://maps.google.com/?cid=0x0:0xa0bf5f4d72f3c4ac
supermarket,Kafe,Wedrink Gemaf,"Lelilef Sawai, Kec. Weda Tengah, Kabupaten Halmahera Tengah, Maluku Utara 97853","Kec. Weda Tengah, Kabupaten Halmahera Tengah",MALUKU UTARA,97853.0,Indonesia,81213597801.0,0.4765211,128.0209071,https://maps.google.com/?cid=0x0:0x95431a64e5868f70
supermarket,Toko Swalayan,INDOMARET - LELILEF,"Lelilef Sawai, Kec. Weda Tengah, Kabupaten Halmahera Tengah, Maluku Utara","Kabupaten Halmahera Tengah, Maluku Utara",MALUKU UTARA,,Indonesia,,0.469209,127.9385748,https://maps.google.com/?cid=0x0:0x357c4b048a8f2ecf
mall,Pusat Perbelanjaan,Phone Cell 88,"Lelilef Sawai, Kec. Weda Tengah, Kabupaten Halmahera Tengah, Maluku Utara","Kabupaten Halmahera Tengah, Maluku Utara",MALUKU UTARA,,Indonesia,82218214949.0,0.4682045,127.9345847,https://maps.google.com/?cid=0x0:0x19491ea85d0e628
mall,mall,Pulau Gebe,"Kec. Pulau Gebe, Kabupaten Halmahera Tengah, Maluku Utara","Kabupaten Halmahera Tengah, Maluku Utara",MALUKU UTARA,,Indonesia,,-0.1225875,129.49679,https://maps.google.com/?cid=0x0:0xba7b6f89abd5d56b
supermarket,supermarket,Pulau Gebe,"Kec. Pulau Gebe, Kabupaten Halmahera Tengah, Maluku Utara","Kabupaten Halmahera Tengah, Maluku Utara",MALUKU UTARA,,Indonesia,,-0.1225875,129.49679,https://maps.google.com/?cid=0x0:0xba7b6f89abd5d56b
supermarket,supermarket,Kec. Weda Utara,"Kabupaten Halmahera Tengah, Maluku Utara","Kabupaten Halmahera Tengah, Maluku Utara",MALUKU UTARA,,Indonesia,,0.40168,128.2936565,https://maps.google.com/?cid=0x0:0x5339e13af3bc03e7
supermarket,supermarket,Kec. Weda Tengah,"Kabupaten Halmahera Tengah, Maluku Utara","Kabupaten Halmahera Tengah, Maluku Utara",MALUKU UTARA,,Indonesia,,0.4681816,127.9343748,https://maps.google.com/?cid=0x0:0x190f4edba6db3d20
mall,mall,Kec. Patani Bar.,"Kabupaten Halmahera Tengah, Maluku Utara","Kabupaten Halmahera Tengah, Maluku Utara",MALUKU UTARA,,Indonesia,,0.3426344,128.5231413,https://maps.google.com/?cid=0x0:0x7a5f069631e1e820
mall,mall,Kec. Weda,"Kabupaten Halmahera Tengah, Maluku Utara","Kabupaten Halmahera Tengah, Maluku Utara",MALUKU UTARA,,Indonesia,,0.3274273,127.875202,https://maps.google.com/?cid=0x0:0x264d24e9fe19132d
supermarket,supermarket,Kec. Weda Sel.,"Kabupaten Halmahera Tengah, Maluku Utara","Kabupaten Halmahera Tengah, Maluku Utara",MALUKU UTARA,,Indonesia,,0.1601245,127.8816535,https://maps.google.com/?cid=0x0:0x546082dc9350974a
mall,mall,Kec. Weda Utara,"Kabupaten Halmahera Tengah, Maluku Utara","Kabupaten Halmahera Tengah, Maluku Utara",MALUKU UTARA,,Indonesia,,0.40168,128.2936565,https://maps.google.com/?cid=0x0:0x5339e13af3bc03e7
supermarket,supermarket,Kec. Patani Bar.,"Kabupaten Halmahera Tengah, Maluku Utara","Kabupaten Halmahera Tengah, Maluku Utara",MALUKU UTARA,,Indonesia,,0.3426344,128.5231413,https://maps.google.com/?cid=0x0:0x7a5f069631e1e820
mall,mall,Kec. Weda Tengah,"Kabupaten Halmahera Tengah, Maluku Utara","Kabupaten Halmahera Tengah, Maluku Utara",MALUKU UTARA,,Indonesia,,0.4681816,127.9343748,https://maps.google.com/?cid=0x0:0x190f4edba6db3d20
mall,mall,Kec. Weda Sel.,"Kabupaten Halmahera Tengah, Maluku Utara","Kabupaten Halmahera Tengah, Maluku Utara",MALUKU UTARA,,Indonesia,,0.1601245,127.8816535,https://maps.google.com/?cid=0x0:0x546082dc9350974a
supermarket,supermarket,Kec. Patani,"Kabupaten Halmahera Tengah, Maluku Utara","Kabupaten Halmahera Tengah, Maluku Utara",MALUKU UTARA,,Indonesia,,0.2823971,128.757242,https://maps.google.com/?cid=0x0:0x935c3db9732688f2
mall,mall,Kec. Patani,"Kabupaten Halmahera Tengah, Maluku Utara","Kabupaten Halmahera Tengah, Maluku Utara",MALUKU UTARA,,Indonesia,,0.2823971,128.757242,https://maps.google.com/?cid=0x0:0x935c3db9732688f2
supermarket,supermarket,Kec. Weda,"Kabupaten Halmahera Tengah, Maluku Utara","Kabupaten Halmahera Tengah, Maluku Utara",MALUKU UTARA,,Indonesia,,0.3274273,127.875202,https://maps.google.com/?cid=0x0:0x264d24e9fe19132d
mall,mall,Kec. Patani Utara,"Kabupaten Halmahera Tengah, Maluku Utara","Kabupaten Halmahera Tengah, Maluku Utara",MALUKU UTARA,,Indonesia,,0.3191627,128.7454942,https://maps.google.com/?cid=0x0:0xa52c99a051937008
supermarket,supermarket,Kec. Patani Utara,"Kabupaten Halmahera Tengah, Maluku Utara","Kabupaten Halmahera Tengah, Maluku Utara",MALUKU UTARA,,Indonesia,,0.3191627,128.7454942,https://maps.google.com/?cid=0x0:0xa52c99a051937008
supermarket,Pusat Perbelanjaan,KIOS BINTANG SELATAN,"Jln. Poros Weda - Mafa Desa Lembah Asri Sp1. Kec. Weda Selatan kab, Lembah Asri, Kec. Weda Sel., Kabupaten Halmahera Tengah, Maluku Utara","Kabupaten Halmahera Tengah, Maluku Utara",MALUKU UTARA,,Indonesia,82194207515.0,0.15637,127.8816637,https://maps.google.com/?cid=0x0:0xfa76e057edffb75e
supermarket,Toko Swalayan,PURWANTO TOKO SRI REJEKI,"Jln poros sp3 - sp2b, blok F, Kluting Jaya, Kec. Weda Sel., Kabupaten Halmahera Tengah","Kabupaten Halmahera Tengah, Maluku Utara",MALUKU UTARA,,Indonesia,81356862060.0,0.141244,127.8766704,https://maps.google.com/?cid=0x0:0xd63d2329695c37
mall,Toko,KIOS PELANGI SELATAN,"Jl.poros Weda - Mafa sp1 desa lembah asri kec.weda selatan kab, Lembah Asri, Kec. Weda Sel., Kabupaten Halmahera Tengah, Maluku Utara","Kabupaten Halmahera Tengah, Maluku Utara",MALUKU UTARA,,Indonesia,82194207515.0,0.1876701,127.8813643,https://maps.google.com/?cid=0x0:0x76d68bf132366c1f
mall,Toko,Bisnis Bahan Pokok,"Jl. Poros, Gemaf, Kec. Weda, Kabupaten Halmahera Tengah, Maluku Utara","Kabupaten Halmahera Tengah, Maluku Utara",MALUKU UTARA,,Indonesia,,0.5708959,128.0314002,https://maps.google.com/?cid=0x0:0x49cd8ba19df43a4f
supermarket,Pusat Perbelanjaan,Swalayan Ada Pati,"Jl. Pemuda No.302 A, Cengkok, Sidoharjo, Kec. Pati, Kabupaten Pati, Jawa Tengah 59117","Cengkok, Sidoharjo, Kec. Pati, Kabupaten Pati",MALUKU UTARA,59117.0,Indonesia,295385295.0,-6.752566,111.0518653,https://maps.google.com/?cid=0x0:0xc4dfa855edffb79b
mall,Pusat Perbelanjaan,Jatiland Mall,"Jl. Pahlawan Revolusi, Gamalama, Kec. Ternate Tengah, Kota Ternate, Maluku Utara","Kota Ternate, Maluku Utara",MALUKU UTARA,,Indonesia,,0.7913034,127.3904651,https://maps.google.com/?cid=0x0:0xc88fc50abd8f2993
mall,Pusat Perbelanjaan,Jatiland Mall,"Jl. Pahlawan Revolusi, Gamalama, Kec. Ternate Tengah, Kota Ternate, Maluku Utara","Kota Ternate, Maluku Utara",MALUKU UTARA,,Indonesia,,0.7913034,127.3904651,https://maps.google.com/?cid=0x0:0xc88fc50abd8f2993
mall,Pusat Perbelanjaan,Jatiland Mall,"Jl. Pahlawan Revolusi, Gamalama, Kec. Ternate Tengah, Kota Ternate, Maluku Utara","Kota Ternate, Maluku Utara",MALUKU UTARA,,Indonesia,,0.7913034,127.3904651,https://maps.google.com/?cid=0x0:0xc88fc50abd8f2993
supermarket,Toko Swalayan,Luwes Pati,"Jl. Dr. Sutomo No.26, Pati Kidul, Kec. Pati, Kabupaten Pati, Jawa Tengah 59114","Pati Kidul, Kec. Pati, Kabupaten Pati",MALUKU UTARA,59114.0,Indonesia,,-6.7569522,111.0395375,https://maps.google.com/?cid=0x0:0x44e16dc66cbdca11
supermarket,Minimarket,Delti,"Jl. Alumina, Sonof Kacepo, Kec. Pulau Gebe, Kabupaten Halmahera Tengah, Maluku Utara 98481","Sonof Kacepo, Kec. Pulau Gebe, Kabupaten Halmahera Tengah",MALUKU UTARA,98481.0,Indonesia,,-0.0770927,129.4392046,https://maps.google.com/?cid=0x0:0x9d9e20b62654fdcb
mall,Pusat Perbelanjaan,M Mall,"Jalan Dato Keramat, 10150 George Town, Pulau Pinang, Malaysia",George Town,MALUKU UTARA,10150.0,Indonesia,6043713333.0,5.4125569,100.3247849,https://maps.google.com/?cid=0x0:0x91e2220d9dfa8386
mall,Pusat Perbelanjaan,M Mall,"Jalan Dato Keramat, 10150 George Town, Pulau Pinang, Malaysia",George Town,MALUKU UTARA,10150.0,Indonesia,6043713333.0,5.4125569,100.3247849,https://maps.google.com/?cid=0x0:0x91e2220d9dfa8386
supermarket,Toko,Kios Indah Buton,"H2CJ+9H2, Gemaf, Kec. Weda Utara, Kabupaten Halmahera Tengah, Maluku Utara","Kabupaten Halmahera Tengah, Maluku Utara",MALUKU UTARA,,Indonesia,,0.5708959,128.0314002,https://maps.google.com/?cid=0x0:0xfce8cfbfbadfb4ff
supermarket,Toko,Weda Halmera Tengah maluku Utara,"H2CJ+9H2, Gemaf, Kec. Weda Utara, Kabupaten Halmahera Tengah, Maluku Utara","Kabupaten Halmahera Tengah, Maluku Utara",MALUKU UTARA,,Indonesia,,0.5708959,128.0314002,https://maps.google.com/?cid=0x0:0x2ffb8c8ce642e4b7
mall,Toko bahan makanan,Kios Ahmad Haziq,"GRGR+X69, Lelilef Waibulan, Kec. Weda Tengah, Kabupaten Halmahera Tengah, Maluku Utara","Kabupaten Halmahera Tengah, Maluku Utara",MALUKU UTARA,,Indonesia,,0.5273982,127.840618,https://maps.google.com/?cid=0x0:0xb3c83c13e49223e6
supermarket,Toko umum,Kios tuty,"Gebe, Sonof Kacepo, Kec. Pulau Gebe, Kabupaten Halmahera Tengah, Maluku Utara 98481","Sonof Kacepo, Kec. Pulau Gebe, Kabupaten Halmahera Tengah",MALUKU UTARA,98481.0,Indonesia,,-0.1225875,129.49679,https://maps.google.com/?cid=0x0:0x6ed6f018c956843b
mall,Tambang,HSXR Weda Bay Nickel Halmahera Tengah,"FXMX+FX8, Unnamed Road, Lelilef Sawai, Kec. Weda Tengah, Kabupaten Halmahera Tengah, Maluku Utara","Kabupaten Halmahera Tengah, Maluku Utara",MALUKU UTARA,,Indonesia,,0.4836637,127.9999476,https://maps.google.com/?cid=0x0:0x4ccf1a96f846f835
mall,Perusahaan Pertambangan,Weda.Hal-teng/lelilef waibulen.PT.iwip.indonesia weda bay industri park,"FXJC+HQ3 Tempat kerja.Pt.iwip, Lelilef Sawai, Kec. Weda Tengah, Kabupaten Halmahera Tengah, Maluku Utara","Kabupaten Halmahera Tengah, Maluku Utara",MALUKU UTARA,,Indonesia,81341547786.0,0.4813878,127.9719375,https://maps.google.com/?cid=0x0:0xfe6b0a0cc8dae72a
mall,Kantor Perusahaan,WEDA BAY NICKEL,"FXHM+7FJ, Lelilef Sawai, Kec. Weda Tengah, Kabupaten Halmahera Tengah, Maluku Utara","Kabupaten Halmahera Tengah, Maluku Utara",MALUKU UTARA,,Indonesia,85254454537.0,0.4782086,127.9836487,https://maps.google.com/?cid=0x0:0x4b6278cfb31e9ac5
mall,Kantor Perusahaan,WEDA BAY NICKEL,"FXHM+7FJ, Lelilef Sawai, Kec. Weda Tengah, Kabupaten Halmahera Tengah, Maluku Utara","Kabupaten Halmahera Tengah, Maluku Utara",MALUKU UTARA,,Indonesia,85254454537.0,0.4782086,127.9836487,https://maps.google.com/?cid=0x0:0x4b6278cfb31e9ac5
mall,Pusat Perbelanjaan,Bagris Mart,"FWHF+X8G, Lelilef Waibulan, Kec. Weda Tengah, Kabupaten Halmahera Tengah, Maluku Utara","Kabupaten Halmahera Tengah, Maluku Utara",MALUKU UTARA,,Indonesia,82220090389.0,0.4800337,127.9225523,https://maps.google.com/?cid=0x0:0x182e4098232c5c8f
mall,Toko,Kios DD ANUGERAH,"FWCH+H4H dua jari, Lelilef Waibulan, Weda, Central Halmahera Regency, North Maluku","Kabupaten Halmahera Tengah, Maluku Utara",MALUKU UTARA,,Indonesia,,0.4714399,127.9278567,https://maps.google.com/?cid=0x0:0x36435799e44f110b
mall,Toko,TOKO ANDA,"FWC7+G8R, Weda Lelilef, Lelilef Waibulan, Kec. Weda Tengah, Kabupaten Halmahera Tengah, Maluku Utara","Kabupaten Halmahera Tengah, Maluku Utara",MALUKU UTARA,,Indonesia,,0.4713611,127.9132778,https://maps.google.com/?cid=0x0:0x472bbfc2504c345c
mall,Toko,TOKO ANDA,"FWC7+G8R, Weda Lelilef, Lelilef Waibulan, Kec. Weda Tengah, Kabupaten Halmahera Tengah, Maluku Utara","Kabupaten Halmahera Tengah, Maluku Utara",MALUKU UTARA,,Indonesia,,0.4713611,127.9132778,https://maps.google.com/?cid=0x0:0x472bbfc2504c345c
supermarket,Minimarket,Toko Sampurna02,"FW9Q+P85, Unnamed Road, Lelilef Sawai, Kec. Weda Tengah, Kabupaten Halmahera Tengah, Maluku Utara","Kabupaten Halmahera Tengah, Maluku Utara",MALUKU UTARA,,Indonesia,,0.4692586,127.9383713,https://maps.google.com/?cid=0x0:0x42ebb83aedeac1a5
supermarket,Toko Swalayan,Empat Putra Sawai,"FW9P+J33, Lelilef Sawai, Kec. Weda, Kabupaten Halmahera Tengah, Maluku Utara","Kabupaten Halmahera Tengah, Maluku Utara",MALUKU UTARA,,Indonesia,82187478331.0,0.4690229,127.935161,https://maps.google.com/?cid=0x0:0xdc21295d28eb5507
supermarket,Toko bahan makanan,Toko Satu Putra sawai,"FW9M+9MG, Lelilef Sawai, Kec. Weda Tengah, Kabupaten Halmahera Tengah, Maluku Utara","Kabupaten Halmahera Tengah, Maluku Utara",MALUKU UTARA,,Indonesia,,0.4684479,127.9341934,https://maps.google.com/?cid=0x0:0x547c6a3eb85d76c6
mall,Toko,KIOS NURUL AINI,"FW9M+7G4, Unnamed Road, Lelilef Sawai, Kec. Weda Tengah, Kabupaten Halmahera Tengah, Maluku Utara","Kabupaten Halmahera Tengah, Maluku Utara",MALUKU UTARA,,Indonesia,82188989196.0,0.4681455,127.9338417,https://maps.google.com/?cid=0x0:0xf585a297acce9742
mall,Toko Ponsel,BOSS CELLULAR,"FW9M+6JJ, Lelilef Sawai, Kec. Weda Tengah, Kabupaten Halmahera Tengah, Maluku Utara","Kabupaten Halmahera Tengah, Maluku Utara",MALUKU UTARA,,Indonesia,,0.4680845,127.9340114,https://maps.google.com/?cid=0x0:0xa8de3cea78def121
supermarket,Minimarket,ALFAMIDI - Lelilef,"FW9M+529, Lelilef Sawai, Kec. Weda Tengah, Kabupaten Halmahera Tengah, Maluku Utara","Kabupaten Halmahera Tengah, Maluku Utara",MALUKU UTARA,,Indonesia,,0.4681234,127.9325667,https://maps.google.com/?cid=0x0:0x71ca5b59b6bf7156
supermarket,Toko Swalayan,Toko Pretty,"FW9M+529, Lelilef Sawai, Kec. Weda Tengah, Kabupaten Halmahera Tengah, Maluku Utara","Kabupaten Halmahera Tengah, Maluku Utara",MALUKU UTARA,,Indonesia,,0.4679142,127.9326248,https://maps.google.com/?cid=0x0:0x154992f91f112038
supermarket,Toko Swalayan,INDOMARET - LELILEF 36,"FW9J+5V6, Jl. Bandara Lililef, Lelilef Sawai, Kec. Weda Tengah, Kabupaten Halmahera Tengah, Maluku Utara","Kabupaten Halmahera Tengah, Maluku Utara",MALUKU UTARA,,Indonesia,,0.4679162,127.9321496,https://maps.google.com/?cid=0x0:0x729071df4a5e8e83
mall,Toko Bahan Bangunan,Sinar Jaya Rembulan,"FW9J+4Q8, Lelilef Waibulan, Kec. Weda Tengah, Kabupaten Halmahera Tengah, Maluku Utara","Kabupaten Halmahera Tengah, Maluku Utara",MALUKU UTARA,,Indonesia,82339999502.0,0.4677949,127.9319575,https://maps.google.com/?cid=0x0:0x159c40348c5b5ace
mall,Pembangunan Perumahan,"Lelilef sawai ,kec, Weda tenga kabupaten Halmahera tenga","FW8P+H9C, Lelilef Sawai, Kec. Weda Tengah, Kabupaten Halmahera Tengah, Maluku Utara","Kabupaten Halmahera Tengah, Maluku Utara",MALUKU UTARA,,Indonesia,,0.4664417,127.9358899,https://maps.google.com/?cid=0x0:0x94bce62b77d5dc0b
supermarket,Toko bahan makanan,Habib mart 2,"FW8J+MVC, Lelilef Waibulan, Kec. Weda Tengah, Kabupaten Halmahera Tengah, Maluku Utara","Kabupaten Halmahera Tengah, Maluku Utara",MALUKU UTARA,,Indonesia,,0.465494,127.932071,https://maps.google.com/?cid=0x0:0x4dd7595c80143da3
supermarket,supermarket,Toko SINAR WATAMPONE,"FW8J+MP5, Lelilef Waibulan, Kec. Weda Tengah, Kabupaten Halmahera Tengah, Maluku Utara","Kabupaten Halmahera Tengah, Maluku Utara",MALUKU UTARA,,Indonesia,85343918837.0,0.4666382,127.9318723,https://maps.google.com/?cid=0x0:0xd04ac0a6189311df
supermarket,Pusat Perbelanjaan,INA Market,"FVHX+5QP, Lelilef Waibulan, Kec. Weda Tengah, Kabupaten Halmahera Tengah, Maluku Utara","Kabupaten Halmahera Tengah, Maluku Utara",MALUKU UTARA,,Indonesia,,0.4780573,127.8993871,https://maps.google.com/?cid=0x0:0x3b2b53386414a574
supermarket,Kios,Kios Fadlan,"FMQ9+4P9, Sakam, Kec. Patani Utara, Kabupaten Halmahera Tengah, Maluku Utara","Kabupaten Halmahera Tengah, Maluku Utara",MALUKU UTARA,,Indonesia,,0.4883241,128.6706425,https://maps.google.com/?cid=0x0:0xd6d1d1c619f77668
mall,Pusat Perbelanjaan,Toko Aneka,"Fidi Jaya, Kec. Weda Tengah, Kabupaten Halmahera Tengah, Maluku Utara","Kabupaten Halmahera Tengah, Maluku Utara",MALUKU UTARA,,Indonesia,81245727263.0,0.3313206,127.8794235,https://maps.google.com/?cid=0x0:0x9d3612d5e33c3b35
mall,Pusat Perbelanjaan,Toko Aneka,"Fidi Jaya, Kec. Weda Tengah, Kabupaten Halmahera Tengah, Maluku Utara","Kabupaten Halmahera Tengah, Maluku Utara",MALUKU UTARA,,Indonesia,81245727263.0,0.3313206,127.8794235,https://maps.google.com/?cid=0x0:0x9d3612d5e33c3b35
supermarket,Toko,TOKO INTI SARI,"Fidi Jaya, Kec. Weda Tengah, Kabupaten Halmahera Tengah, Maluku Utara","Kabupaten Halmahera Tengah, Maluku Utara",MALUKU UTARA,,Indonesia,,0.3366249,127.8744101,https://maps.google.com/?cid=0x0:0xdc47236c2f0e15c7
supermarket,Toko,Kios jiguna.indah,"F44C+9XM, Fritu, Kec. Weda Utara, Kabupaten Halmahera Tengah, Maluku Utara","Kabupaten Halmahera Tengah, Maluku Utara",MALUKU UTARA,,Indonesia,,0.4552227,128.1227406,https://maps.google.com/?cid=0x0:0xbf2a904161f97dd5
mall,Pusat Perbelanjaan,Kameko_Store,"F38R+592, Sagea, Kec. Weda Utara, Kabupaten Halmahera Tengah, Maluku Utara","Kabupaten Halmahera Tengah, Maluku Utara",MALUKU UTARA,,Indonesia,,0.465399,128.090897,https://maps.google.com/?cid=0x0:0x9a409776facbc294
supermarket,Toko,Toko Maliforo,"F37X+JWC, Jln.Trans Halmahera, Sagea, Kec. Weda Utara, Kabupaten Halmahera Tengah, Maluku Utara","Kabupaten Halmahera Tengah, Maluku Utara",MALUKU UTARA,,Indonesia,,0.4640566,128.0997736,https://maps.google.com/?cid=0x0:0x99ebbf4000e8fb59
supermarket,Toko Swalayan,Perla,"F36W+RWW, Sagea, Kec. Weda Utara, Kabupaten Halmahera Tengah, Maluku Utara","Kabupaten Halmahera Tengah, Maluku Utara",MALUKU UTARA,,Indonesia,,0.4620337,128.0978125,https://maps.google.com/?cid=0x0:0xb132b7dc5eea773c
supermarket,supermarket,Kios Reva,"F36Q+MVP Komplex dinas pertanian, Sagea, Kec. Weda Utara, Kabupaten Halmahera Tengah, Maluku Utara","Kabupaten Halmahera Tengah, Maluku Utara",MALUKU UTARA,,Indonesia,,0.4617095,128.0896895,https://maps.google.com/?cid=0x0:0x5f39ca607de4cc6
supermarket,Toko bahan makanan,SASAMI MART,"F2HM+53F, Gemaf, Kec. Weda Utara, Kabupaten Halmahera Tengah, Maluku Utara","Kabupaten Halmahera Tengah, Maluku Utara",MALUKU UTARA,,Indonesia,81242404068.0,0.4779266,128.0326734,https://maps.google.com/?cid=0x0:0xd132d8e85d9671d7
supermarket,Toko,Kios Adilah Makmur,"F2HM+2J, Gemaf, Kec. Weda Utara, Kabupaten Halmahera Tengah, Maluku Utara","Kabupaten Halmahera Tengah, Maluku Utara",MALUKU UTARA,,Indonesia,81333984373.0,0.477567,128.034117,https://maps.google.com/?cid=0x0:0x1abea2616b7827ed
supermarket,Toko Bahan Bangunan,TB BERKAH JAYA,"F2FH+XQ, Gemaf, Kec. Weda Utara, Kabupaten Halmahera Tengah, Maluku Utara","Kabupaten Halmahera Tengah, Maluku Utara",MALUKU UTARA,,Indonesia,,0.474964,128.029461,https://maps.google.com/?cid=0x0:0xb9fcd6c3c1a9486e
supermarket,Toko sembako pemerintah,Lapak Ellyana,"F2FH+MCX, Gemaf, Kec. Weda Utara, Kabupaten Halmahera Tengah, Maluku Utara","Kabupaten Halmahera Tengah, Maluku Utara",MALUKU UTARA,,Indonesia,85394361689.0,0.4744408,128.0290243,https://maps.google.com/?cid=0x0:0x6b476a516631fe4
supermarket,Toko sembako pemerintah,Lapak Ellyana,"F2FH+MCX, Gemaf, Kec. Weda Utara, Kabupaten Halmahera Tengah, Maluku Utara","Kabupaten Halmahera Tengah, Maluku Utara",MALUKU UTARA,,Indonesia,85394361689.0,0.4744408,128.0290243,https://maps.google.com/?cid=0x0:0x6b476a516631fe4
supermarket,Kios,Kios Atthar R.M,"C5MQ+GQH, Waleh, Kec. Weda Utara, Kabupaten Halmahera Tengah, Maluku Utara","Kabupaten Halmahera Tengah, Maluku Utara",MALUKU UTARA,,Indonesia,,0.4334264,128.1896976,https://maps.google.com/?cid=0x0:0x2ea8fa67268761a4
supermarket,Kios,Kios Ati Woyobeb,"Bobane Jaya, Kec. Patani Bar., Kabupaten Halmahera Tengah, Maluku Utara","Kabupaten Halmahera Tengah, Maluku Utara",MALUKU UTARA,,Indonesia,8151630001.0,0.3202766,128.5639667,https://maps.google.com/?cid=0x0:0x69334e87781b29a4
supermarket,Kios,Kios harlis,"9MQH+FG, Masure, Kec. Patani Utara, Kabupaten Halmahera Tengah, Maluku Utara","Kabupaten Halmahera Tengah, Maluku Utara",MALUKU UTARA,,Indonesia,,0.3886533,128.678765,https://maps.google.com/?cid=0x0:0x2a9202f3b0ccf07f
supermarket,Sekolah,Rumah Soedarmi Masure,"9MMH+62, Masure, Kec. Patani Utara, Kabupaten Halmahera Tengah, Maluku Utara","Kabupaten Halmahera Tengah, Maluku Utara",MALUKU UTARA,,Indonesia,,0.3831222,128.6775479,https://maps.google.com/?cid=0x0:0x5990b2c28bba8c3d
supermarket,Sekolah,Rumah Soedarmi Masure,"9MMH+62, Masure, Kec. Patani Utara, Kabupaten Halmahera Tengah, Maluku Utara","Kabupaten Halmahera Tengah, Maluku Utara",MALUKU UTARA,,Indonesia,,0.3831222,128.6775479,https://maps.google.com/?cid=0x0:0x5990b2c28bba8c3d
mall,Pusat Perbelanjaan,Central Mahachai,"98 Rama II Rd, Tambon Na Di, Amphoe Mueang Samut Sakhon, Samut Sakhon 74000, Thailand","Tambon Na Di, Amphoe Mueang Samut Sakhon, Samut Sakhon",MALUKU UTARA,74000.0,Indonesia,6634112777.0,13.5736089,100.2891216,https://maps.google.com/?cid=0x0:0xdff7b56c8352aa5e
mall,Toko,Toko Do'a Ibu,"8VX5+H7M, Fidi Jaya, Kec. Weda, Kabupaten Halmahera Tengah, Maluku Utara","Kabupaten Halmahera Tengah, Maluku Utara",MALUKU UTARA,,Indonesia,,0.3489609,127.8581588,https://maps.google.com/?cid=0x0:0x70e37d4750e9a614
supermarket,,Kios Chaniago,"8VR8+VHM, Fidi Jaya, Kec. Weda, Kabupaten Halmahera Tengah, Maluku Utara","Kabupaten Halmahera Tengah, Maluku Utara",MALUKU UTARA,,Indonesia,81244850600.0,0.3422069,127.8664089,https://maps.google.com/?cid=0x0:0x6d722f3bf0b2ae7d
supermarket,Pusat Perbelanjaan,Anggun M.T,"8VPH+56W, tengah, depan pasar, Maluku utara, halmahera, Fidi Jaya, Kec. Weda, Kabupaten Halmahera Tengah, Maluku Utara","Kabupaten Halmahera Tengah, Maluku Utara",MALUKU UTARA,,Indonesia,81241215841.0,0.3354807,127.8780768,https://maps.google.com/?cid=0x0:0xc7ac71d6822533d0
supermarket,Pusat Perbelanjaan,Anggun M.T,"8VPH+56W, tengah, depan pasar, Maluku utara, halmahera, Fidi Jaya, Kec. Weda, Kabupaten Halmahera Tengah, Maluku Utara","Kabupaten Halmahera Tengah, Maluku Utara",MALUKU UTARA,,Indonesia,81241215841.0,0.3354807,127.8780768,https://maps.google.com/?cid=0x0:0xc7ac71d6822533d0
supermarket,Toko Swalayan,TOKO MOLAGINA JAYA,"8VPG+H9J, jalan kilometer 3, Fidi Jaya, Kec. Weda, Kabupaten Halmahera Tengah, Maluku Utara 97853","jalan kilometer 3, Fidi Jaya, Kec. Weda, Kabupaten Halmahera Tengah",MALUKU UTARA,97853.0,Indonesia,82195630275.0,0.3364688,127.8758956,https://maps.google.com/?cid=0x0:0x9a674cbda896d7a3
mall,Pusat Perbelanjaan,Pasar Weda,"8VPG+GC6, Fidi Jaya, Kec. Weda, Kabupaten Halmahera Tengah, Maluku Utara","Kabupaten Halmahera Tengah, Maluku Utara",MALUKU UTARA,,Indonesia,,0.3358955,127.8785203,https://maps.google.com/?cid=0x0:0xdba34be9cfcab5aa
mall,Pusat Perbelanjaan,Pasar Weda,"8VPG+GC6, Fidi Jaya, Kec. Weda, Kabupaten Halmahera Tengah, Maluku Utara","Kabupaten Halmahera Tengah, Maluku Utara",MALUKU UTARA,,Indonesia,,0.3358955,127.8785203,https://maps.google.com/?cid=0x0:0xdba34be9cfcab5aa
mall,Pusat Perbelanjaan,Pasar Weda,"8VPG+GC6, Fidi Jaya, Kec. Weda, Kabupaten Halmahera Tengah, Maluku Utara","Kabupaten Halmahera Tengah, Maluku Utara",MALUKU UTARA,,Indonesia,,0.3358955,127.8785203,https://maps.google.com/?cid=0x0:0xdba34be9cfcab5aa
supermarket,Pusat Perbelanjaan,Multimart PLAZA WEDA,"8VPG+GC6, Fidi Jaya, Kec. Weda Tengah, Kabupaten Halmahera Tengah, Maluku Utara","Kabupaten Halmahera Tengah, Maluku Utara",MALUKU UTARA,,Indonesia,82296758295.0,0.3363001,127.8781859,https://maps.google.com/?cid=0x0:0xc7ccca75408256b4
supermarket,Pusat Perbelanjaan,Multimart PLAZA WEDA,"8VPG+GC6, Fidi Jaya, Kec. Weda Tengah, Kabupaten Halmahera Tengah, Maluku Utara","Kabupaten Halmahera Tengah, Maluku Utara",MALUKU UTARA,,Indonesia,82296758295.0,0.3363001,127.8781859,https://maps.google.com/?cid=0x0:0xc7ccca75408256b4
mall,Pusat Perbelanjaan,Multimart PLAZA WEDA,"8VPG+GC6, Fidi Jaya, Kec. Weda Tengah, Kabupaten Halmahera Tengah, Maluku Utara","Kabupaten Halmahera Tengah, Maluku Utara",MALUKU UTARA,,Indonesia,82296758295.0,0.3363001,127.8781859,https://maps.google.com/?cid=0x0:0xc7ccca75408256b4
supermarket,Pusat Perbelanjaan,Multimart PLAZA WEDA,"8VPG+GC6, Fidi Jaya, Kec. Weda Tengah, Kabupaten Halmahera Tengah, Maluku Utara","Kabupaten Halmahera Tengah, Maluku Utara",MALUKU UTARA,,Indonesia,82296758295.0,0.3363001,127.8781859,https://maps.google.com/?cid=0x0:0xc7ccca75408256b4
mall,Pusat Perbelanjaan,Multimart PLAZA WEDA,"8VPG+GC6, Fidi Jaya, Kec. Weda Tengah, Kabupaten Halmahera Tengah, Maluku Utara","Kabupaten Halmahera Tengah, Maluku Utara",MALUKU UTARA,,Indonesia,82296758295.0,0.3363001,127.8781859,https://maps.google.com/?cid=0x0:0xc7ccca75408256b4
mall,Pusat Perbelanjaan,Multimart PLAZA WEDA,"8VPG+GC6, Fidi Jaya, Kec. Weda Tengah, Kabupaten Halmahera Tengah, Maluku Utara","Kabupaten Halmahera Tengah, Maluku Utara",MALUKU UTARA,,Indonesia,82296758295.0,0.3363001,127.8781859,https://maps.google.com/?cid=0x0:0xc7ccca75408256b4
mall,Pusat Perbelanjaan,Multimart PLAZA WEDA,"8VPG+GC6, Fidi Jaya, Kec. Weda Tengah, Kabupaten Halmahera Tengah, Maluku Utara","Kabupaten Halmahera Tengah, Maluku Utara",MALUKU UTARA,,Indonesia,82296758295.0,0.3363001,127.8781859,https://maps.google.com/?cid=0x0:0xc7ccca75408256b4
mall,Pusat Perbelanjaan,Multimart PLAZA WEDA,"8VPG+GC6, Fidi Jaya, Kec. Weda Tengah, Kabupaten Halmahera Tengah, Maluku Utara","Kabupaten Halmahera Tengah, Maluku Utara",MALUKU UTARA,,Indonesia,82296758295.0,0.3363001,127.8781859,https://maps.google.com/?cid=0x0:0xc7ccca75408256b4
mall,Pusat Perbelanjaan,Multimart PLAZA WEDA,"8VPG+GC6, Fidi Jaya, Kec. Weda Tengah, Kabupaten Halmahera Tengah, Maluku Utara","Kabupaten Halmahera Tengah, Maluku Utara",MALUKU UTARA,,Indonesia,82296758295.0,0.3363001,127.8781859,https://maps.google.com/?cid=0x0:0xc7ccca75408256b4
mall,Pusat Perbelanjaan,Toko CAHAYA GAMALAMA,"8VPG+CJP, Fidi Jaya, Kec. Weda Tengah, Kabupaten Halmahera Tengah, Maluku Utara","Kabupaten Halmahera Tengah, Maluku Utara",MALUKU UTARA,,Indonesia,,0.3366498,127.8771814,https://maps.google.com/?cid=0x0:0xdddc6061a8cf0e38
mall,Pusat Perbelanjaan,Toko CAHAYA GAMALAMA,"8VPG+CJP, Fidi Jaya, Kec. Weda Tengah, Kabupaten Halmahera Tengah, Maluku Utara","Kabupaten Halmahera Tengah, Maluku Utara",MALUKU UTARA,,Indonesia,,0.3366498,127.8771814,https://maps.google.com/?cid=0x0:0xdddc6061a8cf0e38
mall,Pusat Perbelanjaan,Toko Tamas Weda,"8VPF+FJF, Fidi Jaya, Kec. Weda Tengah, Kabupaten Halmahera Tengah, Maluku Utara","Kabupaten Halmahera Tengah, Maluku Utara",MALUKU UTARA,,Indonesia,,0.3361453,127.8740474,https://maps.google.com/?cid=0x0:0x8371a4e392197f27
mall,Pusat Perbelanjaan,Toko Tamas Weda,"8VPF+FJF, Fidi Jaya, Kec. Weda Tengah, Kabupaten Halmahera Tengah, Maluku Utara","Kabupaten Halmahera Tengah, Maluku Utara",MALUKU UTARA,,Indonesia,,0.3361453,127.8740474,https://maps.google.com/?cid=0x0:0x8371a4e392197f27
mall,Pusat Perbelanjaan,Toko Tamas Weda,"8VPF+FJF, Fidi Jaya, Kec. Weda Tengah, Kabupaten Halmahera Tengah, Maluku Utara","Kabupaten Halmahera Tengah, Maluku Utara",MALUKU UTARA,,Indonesia,,0.3361453,127.8740474,https://maps.google.com/?cid=0x0:0x8371a4e392197f27
mall,Pusat Perbelanjaan,Toko Tamas Weda,"8VPF+FJF, Fidi Jaya, Kec. Weda Tengah, Kabupaten Halmahera Tengah, Maluku Utara","Kabupaten Halmahera Tengah, Maluku Utara",MALUKU UTARA,,Indonesia,,0.3361453,127.8740474,https://maps.google.com/?cid=0x0:0x8371a4e392197f27
supermarket,Minimarket,Habib Mart,"8VMJ+P58, Fidi Jaya, Kec. Weda Tengah, Kabupaten Halmahera Tengah, Maluku Utara","Kabupaten Halmahera Tengah, Maluku Utara",MALUKU UTARA,,Indonesia,,0.334293,127.8804429,https://maps.google.com/?cid=0x0:0xc48c4e3d818ad8a8
supermarket,Minimarket,Habib Mart,"8VMJ+P58, Fidi Jaya, Kec. Weda Tengah, Kabupaten Halmahera Tengah, Maluku Utara","Kabupaten Halmahera Tengah, Maluku Utara",MALUKU UTARA,,Indonesia,,0.334293,127.8804429,https://maps.google.com/?cid=0x0:0xc48c4e3d818ad8a8
mall,Pusat Perbelanjaan,Kios Anggun MT,"8VMJ+48J, fidijaya, Fidi Jaya, Kec. Weda Tengah, Kabupaten Halmahera Tengah, Maluku Utara","Kabupaten Halmahera Tengah, Maluku Utara",MALUKU UTARA,,Indonesia,81340508228.0,0.3328298,127.8807623,https://maps.google.com/?cid=0x0:0x197d01bad19079d7
mall,Pusat Perbelanjaan,KIOS ANGGUN NAYLA,"8VMJ+37M, desa, Fidi Jaya, Kec. Weda, Kabupaten Halmahera Tengah, Maluku Utara","Kabupaten Halmahera Tengah, Maluku Utara",MALUKU UTARA,,Indonesia,81242194204.0,0.3327155,127.8806817,https://maps.google.com/?cid=0x0:0x53fcf6541b73d637
mall,Pusat Perbelanjaan,KIOS ANGGUN NAYLA,"8VMJ+37M, desa, Fidi Jaya, Kec. Weda, Kabupaten Halmahera Tengah, Maluku Utara","Kabupaten Halmahera Tengah, Maluku Utara",MALUKU UTARA,,Indonesia,81242194204.0,0.3327155,127.8806817,https://maps.google.com/?cid=0x0:0x53fcf6541b73d637
supermarket,Toko umum,Kios Adelia Pengumpul Rupiah,"8VJG+9H6, Fidi Jaya, Kec. Weda Tengah, Kabupaten Halmahera Tengah, Maluku Utara","Kabupaten Halmahera Tengah, Maluku Utara",MALUKU UTARA,,Indonesia,82393026686.0,0.3309163,127.8763908,https://maps.google.com/?cid=0x0:0x3f93d60009560023
supermarket,Minimarket,Kios Gibran28,"8VJ6+4MF, Jl. Trans Halmahera, Nurweda, Kec. Weda, Kabupaten Halmahera Tengah, Maluku Utara","Kabupaten Halmahera Tengah, Maluku Utara",MALUKU UTARA,,Indonesia,,0.3303054,127.8616767,https://maps.google.com/?cid=0x0:0x4dae3ed3051af5c8
mall,Pusat Perbelanjaan,UD.Benteng,"8VHG+C4J, Were, Kec. Weda Tengah, Kabupaten Halmahera Tengah, Maluku Utara","Kabupaten Halmahera Tengah, Maluku Utara",MALUKU UTARA,,Indonesia,,0.3285852,127.8752633,https://maps.google.com/?cid=0x0:0xe52e432f69caf0a6
mall,Pusat Perbelanjaan,UD.Benteng,"8VHG+C4J, Were, Kec. Weda Tengah, Kabupaten Halmahera Tengah, Maluku Utara","Kabupaten Halmahera Tengah, Maluku Utara",MALUKU UTARA,,Indonesia,,0.3285852,127.8752633,https://maps.google.com/?cid=0x0:0xe52e432f69caf0a6
supermarket,Minimarket,INDOMARET MOH HATTA,"8VHF+MGC, Were, Kec. Weda Tengah, Kabupaten Halmahera Tengah, Maluku Utara","Kabupaten Halmahera Tengah, Maluku Utara",MALUKU UTARA,,Indonesia,,0.3291825,127.8737719,https://maps.google.com/?cid=0x0:0xdf2dbbab90020792
supermarket,Toko Swalayan,UD.DENIS,"8VFF+54P, Nurweda, Kec. Weda, Kabupaten Halmahera Tengah, Maluku Utara","Kabupaten Halmahera Tengah, Maluku Utara",MALUKU UTARA,,Indonesia,81245558968.0,0.3229656,127.8728367,https://maps.google.com/?cid=0x0:0xe90072803636d431
supermarket,Minimarket,Alfamidi Nurweda,"8VFF+54P, Nurweda, Kec. Weda, Kabupaten Halmahera Tengah, Maluku Utara","Kabupaten Halmahera Tengah, Maluku Utara",MALUKU UTARA,,Indonesia,,0.322958,127.8725966,https://maps.google.com/?cid=0x0:0x54cba6588c55be6d
mall,Pusat Perbelanjaan,Tk.Niar Jaya,"8VFC+6GG, Jl. Adhyaksa, Nurweda, Kec. Weda, Kabupaten Halmahera Tengah, Maluku Utara","Kabupaten Halmahera Tengah, Maluku Utara",MALUKU UTARA,,Indonesia,81243563095.0,0.3230512,127.8713203,https://maps.google.com/?cid=0x0:0x95142c3a1536ead5
mall,Pusat Perbelanjaan,Tk.Niar Jaya,"8VFC+6GG, Jl. Adhyaksa, Nurweda, Kec. Weda, Kabupaten Halmahera Tengah, Maluku Utara","Kabupaten Halmahera Tengah, Maluku Utara",MALUKU UTARA,,Indonesia,81243563095.0,0.3230512,127.8713203,https://maps.google.com/?cid=0x0:0x95142c3a1536ead5
mall,Pusat Perbelanjaan,Maulana Alif,"8VCF+PCP Depan PLN, Nurweda, Kec. Weda, Kabupaten Halmahera Tengah, Maluku Utara","Kabupaten Halmahera Tengah, Maluku Utara",MALUKU UTARA,,Indonesia,82215385277.0,0.3218458,127.873565,https://maps.google.com/?cid=0x0:0xd7c50f719cae3def
mall,Pusat Perbelanjaan,Maulana Alif,"8VCF+PCP Depan PLN, Nurweda, Kec. Weda, Kabupaten Halmahera Tengah, Maluku Utara","Kabupaten Halmahera Tengah, Maluku Utara",MALUKU UTARA,,Indonesia,82215385277.0,0.3218458,127.873565,https://maps.google.com/?cid=0x0:0xd7c50f719cae3def
supermarket,Pusat Perbelanjaan,Multi mart weda,"8R9R+86Q, Nurweda, Kec. Weda, Kabupaten Halmahera Tengah, Maluku Utara","Kabupaten Halmahera Tengah, Maluku Utara",MALUKU UTARA,,Indonesia,,0.3183335,127.840618,https://maps.google.com/?cid=0x0:0xc115365bb86cae15
mall,mall,Dwi Mart,"8Q89+XF4, Bilifitu, Kec. Patani Utara, Kabupaten Halmahera Tengah, Maluku Utara","Kabupaten Halmahera Tengah, Maluku Utara",MALUKU UTARA,,Indonesia,,0.3173872,128.768691,https://maps.google.com/?cid=0x0:0x98fe5b0a51ef6fd
mall,mall,Dwi Mart,"8Q89+XF4, Bilifitu, Kec. Patani Utara, Kabupaten Halmahera Tengah, Maluku Utara","Kabupaten Halmahera Tengah, Maluku Utara",MALUKU UTARA,,Indonesia,,0.3173872,128.768691,https://maps.google.com/?cid=0x0:0x98fe5b0a51ef6fd
supermarket,supermarket,Kios Novita,"8Q87+565, Gemia, Kec. Patani Utara, Kabupaten Halmahera Tengah, Maluku Utara","Kabupaten Halmahera Tengah, Maluku Utara",MALUKU UTARA,,Indonesia,,0.3153937,128.763105,https://maps.google.com/?cid=0x0:0xfb6fcedd6eb028bd
supermarket,Ahli tembakau,Kios Oko,"8Q86+P47, Gemia, Kec. Patani Utara, Kabupaten Halmahera Tengah, Maluku Utara","Kabupaten Halmahera Tengah, Maluku Utara",MALUKU UTARA,,Indonesia,,0.3167555,128.7601861,https://maps.google.com/?cid=0x0:0xed90bb52681fe0a3
supermarket,Toko Pakaian,Kios buton,"8Q86+7J4, Gemia, Kec. Patani Utara, Kabupaten Halmahera Tengah, Maluku Utara","Kabupaten Halmahera Tengah, Maluku Utara",MALUKU UTARA,,Indonesia,,0.3156449,128.7615721,https://maps.google.com/?cid=0x0:0x660f86ad7c1bcd2
supermarket,Toko Pakaian,Kios buton,"8Q86+7J4, Gemia, Kec. Patani Utara, Kabupaten Halmahera Tengah, Maluku Utara","Kabupaten Halmahera Tengah, Maluku Utara",MALUKU UTARA,,Indonesia,,0.3156449,128.7615721,https://maps.google.com/?cid=0x0:0x660f86ad7c1bcd2
supermarket,Toko Pakaian,Kios etong abnur,"8Q3V+7Q6, Bilifitu, Kec. Patani Utara, Kabupaten Halmahera Tengah, Maluku Utara","Kabupaten Halmahera Tengah, Maluku Utara",MALUKU UTARA,,Indonesia,82320035553.0,0.3031587,128.7943925,https://maps.google.com/?cid=0x0:0x51125cd7b13eaa0c
supermarket,Toko Pakaian,Kios etong abnur,"8Q3V+7Q6, Bilifitu, Kec. Patani Utara, Kabupaten Halmahera Tengah, Maluku Utara","Kabupaten Halmahera Tengah, Maluku Utara",MALUKU UTARA,,Indonesia,82320035553.0,0.3031587,128.7943925,https://maps.google.com/?cid=0x0:0x51125cd7b13eaa0c
mall,mall,RUKO MANOKWARI,"8PHG+275, Pantura Jaya, Kec. Patani Utara, Kabupaten Halmahera Tengah, Maluku Utara","Kabupaten Halmahera Tengah, Maluku Utara",MALUKU UTARA,,Indonesia,,0.3275016,128.7257351,https://maps.google.com/?cid=0x0:0x3375d0d04d7ff4b4
mall,mall,RUKO MANOKWARI,"8PHG+275, Pantura Jaya, Kec. Patani Utara, Kabupaten Halmahera Tengah, Maluku Utara","Kabupaten Halmahera Tengah, Maluku Utara",MALUKU UTARA,,Indonesia,,0.3275016,128.7257351,https://maps.google.com/?cid=0x0:0x3375d0d04d7ff4b4
mall,mall,RUKO MANOKWARI,"8PHG+275, Pantura Jaya, Kec. Patani Utara, Kabupaten Halmahera Tengah, Maluku Utara","Kabupaten Halmahera Tengah, Maluku Utara",MALUKU UTARA,,Indonesia,,0.3275016,128.7257351,https://maps.google.com/?cid=0x0:0x3375d0d04d7ff4b4
supermarket,supermarket,Kios Nurul Qolbi,"8PGG+X94, Pantura Jaya, Kec. Patani Utara, Kabupaten Halmahera Tengah, Maluku Utara","Kabupaten Halmahera Tengah, Maluku Utara",MALUKU UTARA,,Indonesia,,0.3273937,128.7259395,https://maps.google.com/?cid=0x0:0x7ed1a522f2603eb0
mall,mall,Kios Cuta pantura jaya,"8PGG+RP4, Pantura Jaya, Kec. Patani Utara, Kabupaten Halmahera Tengah, Maluku Utara","Kabupaten Halmahera Tengah, Maluku Utara",MALUKU UTARA,,Indonesia,,0.3270094,128.7268368,https://maps.google.com/?cid=0x0:0xce539158fdea4696
supermarket,Kios,Kios Dua Putri,"8PGG+RP4, Pantura Jaya, Kec. Patani Utara, Kabupaten Halmahera Tengah, Maluku Utara","Kabupaten Halmahera Tengah, Maluku Utara",MALUKU UTARA,,Indonesia,,0.3266366,128.7269733,https://maps.google.com/?cid=0x0:0x8aef9cac4210a2c8
mall,mall,Kios Cuta pantura jaya,"8PGG+RP4, Pantura Jaya, Kec. Patani Utara, Kabupaten Halmahera Tengah, Maluku Utara","Kabupaten Halmahera Tengah, Maluku Utara",MALUKU UTARA,,Indonesia,,0.3270094,128.7268368,https://maps.google.com/?cid=0x0:0xce539158fdea4696
supermarket,Kios,Kios Dua Putri,"8PGG+RP4, Pantura Jaya, Kec. Patani Utara, Kabupaten Halmahera Tengah, Maluku Utara","Kabupaten Halmahera Tengah, Maluku Utara",MALUKU UTARA,,Indonesia,,0.3266366,128.7269733,https://maps.google.com/?cid=0x0:0x8aef9cac4210a2c8
supermarket,supermarket,Tepeleo,"8PCV+3G6, Tepeleo Batu Dua, Kec. Patani Utara, Kabupaten Halmahera Tengah, Maluku Utara","Kabupaten Halmahera Tengah, Maluku Utara",MALUKU UTARA,,Indonesia,,0.3201619,128.7437515,https://maps.google.com/?cid=0x0:0xef061e65dfaf1b5f
supermarket,supermarket,Tepeleo,"8PCV+3G6, Tepeleo Batu Dua, Kec. Patani Utara, Kabupaten Halmahera Tengah, Maluku Utara","Kabupaten Halmahera Tengah, Maluku Utara",MALUKU UTARA,,Indonesia,,0.3201619,128.7437515,https://maps.google.com/?cid=0x0:0xef061e65dfaf1b5f
supermarket,supermarket,Toko Annisa,"8P9W+6G5, Tepeleo, Kec. Patani Utara, Kabupaten Halmahera Tengah, Maluku Utara","Kabupaten Halmahera Tengah, Maluku Utara",MALUKU UTARA,,Indonesia,,0.3180188,128.74637,https://maps.google.com/?cid=0x0:0x7d22f7dba0d12de6
supermarket,Toko umum,Bobane indah,"8HG7+WRX, Bobane Jaya, Kec. Patani Bar., Kabupaten Halmahera Tengah, Maluku Utara","Kabupaten Halmahera Tengah, Maluku Utara",MALUKU UTARA,,Indonesia,,0.327361,128.564606,https://maps.google.com/?cid=0x0:0xbdb40a0a3ad2fb76
supermarket,Toko,Masker AICO,"8HC9+454, Bobane Jaya, Kec. Patani Bar., Kabupaten Halmahera Tengah, Maluku Utara","Kabupaten Halmahera Tengah, Maluku Utara",MALUKU UTARA,,Indonesia,,0.3202573,128.5679583,https://maps.google.com/?cid=0x0:0x3cc99c55d72f90f8
supermarket,Toko umum,Kios Maryamzein,"8HC8+84Q, Bobane Jaya, Kec. Patani Bar., Kabupaten Halmahera Tengah, Maluku Utara","Kabupaten Halmahera Tengah, Maluku Utara",MALUKU UTARA,,Indonesia,,0.321521,128.564774,https://maps.google.com/?cid=0x0:0xf43ba99b572a35f
supermarket,Toko,Kios ibu rabia,"8HC8+3J6, Bobane Jaya, Kec. Patani Bar., Kabupaten Halmahera Tengah, Maluku Utara","Kabupaten Halmahera Tengah, Maluku Utara",MALUKU UTARA,,Indonesia,81337020819.0,0.3201627,128.5665259,https://maps.google.com/?cid=0x0:0x3a2af3dedbf542c4
supermarket,Kios,Kios Jadi jaya,"8HC6+5R, Bobane Remdi, Bobane Jaya, Kec. Patani Bar., Kabupaten Halmahera Tengah, Maluku Utara 97856","Bobane Remdi, Bobane Jaya, Kec. Patani Bar., Kabupaten Halmahera Tengah",MALUKU UTARA,97856.0,Indonesia,82113300616.0,0.3204174,128.5620593,https://maps.google.com/?cid=0x0:0x2880644a5d53d7f
supermarket,Kios,minimarket Moreala,"8GVF+52X, Moreala, Kec. Patani Bar., Kabupaten Halmahera Tengah, Maluku Utara","Kabupaten Halmahera Tengah, Maluku Utara",MALUKU UTARA,,Indonesia,,0.342981,128.5226195,https://maps.google.com/?cid=0x0:0xe60fef73f261761b
supermarket,Toko Pakaian Wanita,Syafia fashion,"8GRH+R7F, Moreala, Kec. Patani Bar., Kabupaten Halmahera Tengah, Maluku Utara","Kabupaten Halmahera Tengah, Maluku Utara",MALUKU UTARA,,Indonesia,81360380808.0,0.3420642,128.5281856,https://maps.google.com/?cid=0x0:0xb702481f9be645a8
supermarket,Toko,Kios paraikatte kec.patani,"7QJ4+PQR, Yondeliu, Kec. Patani, Kabupaten Halmahera Tengah, Maluku Utara","Kabupaten Halmahera Tengah, Maluku Utara",MALUKU UTARA,,Indonesia,82352438591.0,0.2824288,128.7563901,https://maps.google.com/?cid=0x0:0x8d1fba4e61251750
supermarket,Toko,Kios paraikatte kec.patani,"7QJ4+PQR, Yondeliu, Kec. Patani, Kabupaten Halmahera Tengah, Maluku Utara","Kabupaten Halmahera Tengah, Maluku Utara",MALUKU UTARA,,Indonesia,82352438591.0,0.2824288,128.7563901,https://maps.google.com/?cid=0x0:0x8d1fba4e61251750
mall,mall,Minimarket,"7QH8+8C4, Wailegi, Kec. Patani, Kabupaten Halmahera Tengah, Maluku Utara","Kabupaten Halmahera Tengah, Maluku Utara",MALUKU UTARA,,Indonesia,,0.2782625,128.7660781,https://maps.google.com/?cid=0x0:0x6cd767033acb9591
mall,mall,Minimarket,"7QH8+8C4, Wailegi, Kec. Patani, Kabupaten Halmahera Tengah, Maluku Utara","Kabupaten Halmahera Tengah, Maluku Utara",MALUKU UTARA,,Indonesia,,0.2782625,128.7660781,https://maps.google.com/?cid=0x0:0x6cd767033acb9591
supermarket,Toko Pakaian,House of Fashion,"7QH7+MFW, Kipai, Kec. Patani, Kabupaten Halmahera Tengah, Maluku Utara","Kabupaten Halmahera Tengah, Maluku Utara",MALUKU UTARA,,Indonesia,,0.279248,128.7637077,https://maps.google.com/?cid=0x0:0x17f2975aa74c748d
supermarket,Kios,Saleha jalaluddin,"7QH7+JPQ, Kipai, Kec. Patani, Kabupaten Halmahera Tengah, Maluku Utara","Kabupaten Halmahera Tengah, Maluku Utara",MALUKU UTARA,,Indonesia,,0.278402,128.76449,https://maps.google.com/?cid=0x0:0x63adb8910719fc24
supermarket,Kios,Saleha jalaluddin,"7QH7+JPQ, Kipai, Kec. Patani, Kabupaten Halmahera Tengah, Maluku Utara","Kabupaten Halmahera Tengah, Maluku Utara",MALUKU UTARA,,Indonesia,,0.278402,128.76449,https://maps.google.com/?cid=0x0:0x63adb8910719fc24
mall,Pusat Perbelanjaan,Pattani ASEAN MALL,"73 à¸«à¸¡à¸¹à¹ 9 à¸ Talubo, à¸­.à¹à¸¡à¸·à¸­à¸ Pattani, Thailand","à¸­.à¹à¸¡à¸·à¸­à¸ Pattani, Thailand",MALUKU UTARA,,Indonesia,6673336007.0,6.8637117,101.273353,https://maps.google.com/?cid=0x0:0x886530025710b8ea
supermarket,Toko,KIOS SUMBER REJEKI,"5VMP+PV5, Lembah Asri, Kec. Weda Sel., Kabupaten Halmahera Tengah, Maluku Utara","Kabupaten Halmahera Tengah, Maluku Utara",MALUKU UTARA,,Indonesia,81242267374.0,0.184266,127.8872341,https://maps.google.com/?cid=0x0:0xb984e3bfb3771141
supermarket,Toko,SINAR PRATAMA,"5VMP+33, Lembah Asri, Kec. Weda Sel., Kabupaten Halmahera Tengah, Maluku Utara","Kabupaten Halmahera Tengah, Maluku Utara",MALUKU UTARA,,Indonesia,81356617510.0,0.1822759,127.8852488,https://maps.google.com/?cid=0x0:0xbb0c0f6310fbc8e6
supermarket,Toko,Kios Sembako dan Agen Brilink,"5V6P+347, Wairoro Indah, Kec. Weda Sel., Kabupaten Halmahera Tengah, Maluku Utara","Kabupaten Halmahera Tengah, Maluku Utara",MALUKU UTARA,,Indonesia,85219666670.0,0.1601528,127.8852964,https://maps.google.com/?cid=0x0:0xc87d577196addf75
supermarket,Minimarket,Indomart,"5V6P+347, Wairoro Indah, Kec. Weda Sel., Kabupaten Halmahera Tengah, Maluku Utara","Kabupaten Halmahera Tengah, Maluku Utara",MALUKU UTARA,,Indonesia,,0.160185,127.8850892,https://maps.google.com/?cid=0x0:0xe3b9a99d881b1af1
supermarket,Toko Swalayan,Sumber Rejeki,"5R2F+HV4, Kluting Jaya, Kec. Weda Sel., Kabupaten Halmahera Tengah, Maluku Utara","Kabupaten Halmahera Tengah, Maluku Utara",MALUKU UTARA,,Indonesia,82116315660.0,0.1513829,127.8246955,https://maps.google.com/?cid=0x0:0x6cd5c5f46572f628
supermarket,Kedai Teh,Tong Tji Tea House Pati,"59117, Cengkok, Sidoharjo, Kec. Pati, Kabupaten Pati, Jawa Tengah 59117","Cengkok, Sidoharjo, Kec. Pati, Kabupaten Pati",MALUKU UTARA,59117.0,Indonesia,,-6.7529504,111.0519866,https://maps.google.com/?cid=0x0:0x7cf0b326e8362230
supermarket,Toko Swalayan,Toko Maulana Akbar,"4VRH+XPV, Kluting Jaya, Kec. Weda Sel., Kabupaten Halmahera Tengah, Maluku Utara","Kabupaten Halmahera Tengah, Maluku Utara",MALUKU UTARA,,Indonesia,,0.1424788,127.8793097,https://maps.google.com/?cid=0x0:0x7e75c19558cf296a
supermarket,Toko Swalayan,Putri Tunggal,"4VQJ+X78, Kluting Jaya, Kec. Weda Sel., Kabupaten Halmahera Tengah, Maluku Utara","Kabupaten Halmahera Tengah, Maluku Utara",MALUKU UTARA,,Indonesia,,0.1399015,127.8807051,https://maps.google.com/?cid=0x0:0xd74a59da2d54846a
