Category;Real Category;Business Name;Address;City;State;Postal Code;Country;Phone;Email;Website;Latitude;Longitude;Map Link;Details Link
"komplek housing";"komplek housing";"Kec. Tebet";"Kota Jakarta Selatan, Daerah Khusus Ibukota Jakarta";"Kota Jakarta Selatan, Daerah Khusus Ibukota Jakarta";"SULAWESI UTARA";"";"Indonesia";"";"";"";"-6.2251223";"106.8549881";"https://maps.google.com/?cid=0x0:0xd575e31c807295f9";""
"komplek housing";"komplek housing";"Sulawesi Utara 95774";"Momalia I, Kec. Posigadan, Kabupaten Bolaang Mongondow Selatan, Sulawesi Utara";"Kabupaten Bolaang Mongondow Selatan, Sulawesi Utara";"SULAWESI UTARA";"";"Indonesia";"";"";"";"0.3179007";"123.5774024";"https://maps.google.com/?cid=0x0:0xe8ed2e820dc45687";""
"komplek housing";"komplek housing";"Kec. Bolaang Uki";"Kabupaten Bolaang Mongondow Selatan, Sulawesi Utara";"Kabupaten Bolaang Mongondow Selatan, Sulawesi Utara";"SULAWESI UTARA";"";"Indonesia";"";"";"";"0.3828564";"123.9828414";"https://maps.google.com/?cid=0x0:0xe21c23fc1263f3c5";""
"komplek housing";"Komplek perumahan";"Yudi Ganteng";"Jl. Mawar No.2, Modisi, Kec. Pinolosian Tim., Kabupaten Bolaang Mongondow Selatan, Sulawesi Utara 95777";"Modisi, Kec. Pinolosian Tim., Kabupaten Bolaang Mongondow Selatan";"SULAWESI UTARA";"95777";"Indonesia";"";"";"";"0.4531386";"124.4364565";"https://maps.google.com/?cid=0x0:0xa00b1eff0afdb3e3";""
"komplek housing";"Perhimpunan Pengembang Perumahan";"Rumah jesinta";"FC3P+8PP, Jl. Anggrek 2, Modisi, Kec. Pinolosian Tim., Kabupaten Bolaang Mongondow Selatan, Sulawesi Utara 95775";"Jl. Anggrek 2, Modisi, Kec. Pinolosian Tim., Kabupaten Bolaang Mongondow Selatan";"SULAWESI UTARA";"95775";"Indonesia";"";"";"";"0.4533396";"124.4368188";"https://maps.google.com/?cid=0x0:0xe9ede022a7142b21";""
"komplek housing";"komplek housing";"Kec. Pinolosian Tim.";"Kabupaten Bolaang Mongondow Selatan, Sulawesi Utara";"Kabupaten Bolaang Mongondow Selatan, Sulawesi Utara";"SULAWESI UTARA";"";"Indonesia";"";"";"";"0.45883";"124.3828463";"https://maps.google.com/?cid=0x0:0xe0e81fc077785da3";""
"komplek housing";"Komplek perumahan";"Rumah septia";"Lrg. Perumahan No.1, Modisi, Kec. Pinolosian Tim., Kabupaten Bolaang Mongondow Selatan, Sulawesi Utara 95775";"Modisi, Kec. Pinolosian Tim., Kabupaten Bolaang Mongondow Selatan";"SULAWESI UTARA";"95775";"Indonesia";"";"";"";"0.4538046";"124.4368262";"https://maps.google.com/?cid=0x0:0x2614aca799758122";""
"komplek housing";"komplek housing";"Pinolosian";"Kec. Pinolosian, Kabupaten Bolaang Mongondow Selatan, Sulawesi Utara";"Kabupaten Bolaang Mongondow Selatan, Sulawesi Utara";"SULAWESI UTARA";"";"Indonesia";"";"";"";"0.4686331";"124.1058963";"https://maps.google.com/?cid=0x0:0xf5109e6126637104";""
"komplek housing";"komplek housing";"Kec. Pinolosian Tengah";"Kabupaten Bolaang Mongondow Selatan, Sulawesi Utara";"Kabupaten Bolaang Mongondow Selatan, Sulawesi Utara";"SULAWESI UTARA";"";"Indonesia";"";"";"";"0.4814411";"124.2643871";"https://maps.google.com/?cid=0x0:0x202271dfbca50638";""
"komplek housing";"komplek housing";"Sulawesi Utara 95775";"Modisi, Kec. Pinolosian Tim., Kabupaten Bolaang Mongondow Selatan, Sulawesi Utara";"Kabupaten Bolaang Mongondow Selatan, Sulawesi Utara";"SULAWESI UTARA";"";"Indonesia";"";"";"";"0.4528494";"124.4356892";"https://maps.google.com/?cid=0x0:0x5956b774c20081f1";""
"komplek housing";"Pembangunan Perumahan";"Kec. Pinolosian Timur";"Jl. Salea No.9, Modisi, Kec. Pinolosian Tim., Kabupaten Bolaang Mongondow Selatan, Sulawesi Utara 95775";"Modisi, Kec. Pinolosian Tim., Kabupaten Bolaang Mongondow Selatan";"SULAWESI UTARA";"95775";"Indonesia";"";"";"";"0.4512904";"124.4368986";"https://maps.google.com/?cid=0x0:0xf0af2f818241152b";""
"komplek housing";"Komplek perumahan";"Yudi Ganteng";"Jl. Mawar No.2, Modisi, Kec. Pinolosian Tim., Kabupaten Bolaang Mongondow Selatan, Sulawesi Utara 95777";"Modisi, Kec. Pinolosian Tim., Kabupaten Bolaang Mongondow Selatan";"SULAWESI UTARA";"95777";"Indonesia";"";"";"";"0.4531386";"124.4364565";"https://maps.google.com/?cid=0x0:0xa00b1eff0afdb3e3";""
"komplek housing";"komplek housing";"Kec. Pinolosian Tim.";"Kabupaten Bolaang Mongondow Selatan, Sulawesi Utara";"Kabupaten Bolaang Mongondow Selatan, Sulawesi Utara";"SULAWESI UTARA";"";"Indonesia";"";"";"";"0.45883";"124.3828463";"https://maps.google.com/?cid=0x0:0xe0e81fc077785da3";""
"komplek housing";"Perhimpunan Pengembang Perumahan";"Rumah jesinta";"FC3P+8PP, Jl. Anggrek 2, Modisi, Kec. Pinolosian Tim., Kabupaten Bolaang Mongondow Selatan, Sulawesi Utara 95775";"Jl. Anggrek 2, Modisi, Kec. Pinolosian Tim., Kabupaten Bolaang Mongondow Selatan";"SULAWESI UTARA";"95775";"Indonesia";"";"";"";"0.4533396";"124.4368188";"https://maps.google.com/?cid=0x0:0xe9ede022a7142b21";""
"komplek housing";"Komplek perumahan";"Rumah Mario misa";"FC2P+XQC, Jl. Beriman, Modisi, Kec. Pinolosian Tim., Kabupaten Bolaang Mongondow Selatan, Sulawesi Utara 95775";"Jl. Beriman, Modisi, Kec. Pinolosian Tim., Kabupaten Bolaang Mongondow Selatan";"SULAWESI UTARA";"95775";"Indonesia";"";"";"";"0.4524441";"124.4369047";"https://maps.google.com/?cid=0x0:0x1d32a80d27bf837a";""
"komplek housing";"Komplek perumahan";"Rumah septia";"Lrg. Perumahan No.1, Modisi, Kec. Pinolosian Tim., Kabupaten Bolaang Mongondow Selatan, Sulawesi Utara 95775";"Modisi, Kec. Pinolosian Tim., Kabupaten Bolaang Mongondow Selatan";"SULAWESI UTARA";"95775";"Indonesia";"";"";"";"0.4538046";"124.4368262";"https://maps.google.com/?cid=0x0:0x2614aca799758122";""
"komplek housing";"Taman Kanak-kanak";"Rumah Kel Dundo Payuhi";"8HCG+984, Momalia I, Kec. Posigadan, Kabupaten Bolaang Mongondow Selatan, Sulawesi Utara";"Kabupaten Bolaang Mongondow Selatan, Sulawesi Utara";"SULAWESI UTARA";"";"Indonesia";"";"";"";"0.3208911";"123.5758149";"https://maps.google.com/?cid=0x0:0xb7be2af0ac2d3470";""
"komplek housing";"Sekolah Dasar";"PAUD Mandiri Momalia 1";"8HCH+756, Momalia I, Kec. Posigadan, Kabupaten Bolaang Mongondow Selatan, Sulawesi Utara";"Kabupaten Bolaang Mongondow Selatan, Sulawesi Utara";"SULAWESI UTARA";"";"Indonesia";"";"";"";"0.3206687";"123.5778772";"https://maps.google.com/?cid=0x0:0xeabb3b75b61bb5a5";""
"komplek housing";"komplek housing";"Kec. Posigadan";"Kabupaten Bolaang Mongondow Selatan, Sulawesi Utara";"Kabupaten Bolaang Mongondow Selatan, Sulawesi Utara";"SULAWESI UTARA";"";"Indonesia";"";"";"";"0.459718";"123.5610105";"https://maps.google.com/?cid=0x0:0x2fc8a29778e7dd20";""
"komplek housing";"Komplek perumahan";"Rumah idan";"8GFW+HQ2, Jl. Trans Sulawesi, Meyambanga, Kec. Posigadan, Kabupaten Bolaang Mongondow Selatan, Sulawesi Utara";"Kabupaten Bolaang Mongondow Selatan, Sulawesi Utara";"SULAWESI UTARA";"";"Indonesia";"";"";"";"0.3236653";"123.5470823";"https://maps.google.com/?cid=0x0:0x3eea60bbfbc00409";""
"perumahan";"perumahan";"Sulawesi Utara 95774";"Momalia I, Kec. Posigadan, Kabupaten Bolaang Mongondow Selatan, Sulawesi Utara";"Kabupaten Bolaang Mongondow Selatan, Sulawesi Utara";"SULAWESI UTARA";"";"Indonesia";"";"";"";"0.3179007";"123.5774024";"https://maps.google.com/?cid=0x0:0xe8ed2e820dc45687";""
"perumahan";"perumahan";"Kec. Tebet";"Kota Jakarta Selatan, Daerah Khusus Ibukota Jakarta";"Kota Jakarta Selatan, Daerah Khusus Ibukota Jakarta";"SULAWESI UTARA";"";"Indonesia";"";"";"";"-6.2251223";"106.8549881";"https://maps.google.com/?cid=0x0:0xd575e31c807295f9";""
"perumahan";"perumahan";"Kec. Bolaang Uki";"Kabupaten Bolaang Mongondow Selatan, Sulawesi Utara";"Kabupaten Bolaang Mongondow Selatan, Sulawesi Utara";"SULAWESI UTARA";"";"Indonesia";"";"";"";"0.3828564";"123.9828414";"https://maps.google.com/?cid=0x0:0xe21c23fc1263f3c5";""
"perumahan";"Gedung Apartemen";"AT House";"9XMJ+5CR, Jl. Trans Sulawesi, Toluaya, Kec. Bolaang Uki, Kabupaten Bolaang Mongondow Selatan, Sulawesi Utara";"Kabupaten Bolaang Mongondow Selatan, Sulawesi Utara";"SULAWESI UTARA";"";"Indonesia";"";"";"";"0.383263";"123.9809932";"https://maps.google.com/?cid=0x0:0x4c7ac876b3205ea";""
"perumahan";"Gedung Apartemen";"Rumah fidya";"9XGV+556, Unnamed Road, Sondana, Kec. Bolaang Uki, Kabupaten Bolaang Mongondow Selatan, Sulawesi Utara";"Kabupaten Bolaang Mongondow Selatan, Sulawesi Utara";"SULAWESI UTARA";"";"Indonesia";"";"";"";"0.3754032";"123.9929055";"https://maps.google.com/?cid=0x0:0x60f327752b487463";""
"perumahan";"Gedung Apartemen";"Rumah Keluarga";"9XPH+FH8, Toluaya, Kec. Bolaang Uki, Kabupaten Bolaang Mongondow Selatan, Sulawesi Utara";"Kabupaten Bolaang Mongondow Selatan, Sulawesi Utara";"SULAWESI UTARA";"";"Indonesia";"";"";"";"0.3861664";"123.9789607";"https://maps.google.com/?cid=0x0:0x886b5fcef3fb5b2";""
"perumahan";"Komplek perumahan";"Rumah Nanang Bukulu";"9XMJ+6HF, Toluaya, Kec. Bolaang Uki, Kabupaten Bolaang Mongondow Selatan, Sulawesi Utara";"Kabupaten Bolaang Mongondow Selatan, Sulawesi Utara";"SULAWESI UTARA";"";"Indonesia";"";"";"";"0.3830676";"123.9814089";"https://maps.google.com/?cid=0x0:0xb93da3ba7f1daef9";""
"perumahan";"Inspektur Tempat Tinggal";"Ameylf house";"9XJP+J3V, Popodu, Kec. Bolaang Uki, Kabupaten Bolaang Mongondow Selatan, Sulawesi Utara";"Kabupaten Bolaang Mongondow Selatan, Sulawesi Utara";"SULAWESI UTARA";"";"Indonesia";"";"";"";"0.3816219";"123.9851697";"https://maps.google.com/?cid=0x0:0x7f12ce4228c6ac17";""
"perumahan";"Gedung Apartemen";"Rumah Hikmah Marwan";"9XMP+97X, Popodu, Kec. Bolaang Uki, Kabupaten Bolaang Mongondow Selatan, Sulawesi Utara";"Kabupaten Bolaang Mongondow Selatan, Sulawesi Utara";"SULAWESI UTARA";"";"Indonesia";"";"";"";"0.383494";"123.9857229";"https://maps.google.com/?cid=0x0:0x635f02053cac6164";""
"perumahan";"Komplek perumahan";"JUGO House";"92M4+45P, Sondana, Kec. Bolaang Uki, Kabupaten Bolaang Mongondow Selatan, Sulawesi Utara";"Kabupaten Bolaang Mongondow Selatan, Sulawesi Utara";"SULAWESI UTARA";"";"Indonesia";"";"";"";"0.3828379";"124.0054553";"https://maps.google.com/?cid=0x0:0x169b4a05f7998022";""
"perumahan";"Komplek perumahan";"Rumah Rahmat Harun";"9X7H+X9C, Salongo Tim., Kec. Bolaang Uki, Kabupaten Bolaang Mongondow Selatan, Sulawesi Utara";"Kabupaten Bolaang Mongondow Selatan, Sulawesi Utara";"SULAWESI UTARA";"";"Indonesia";"";"";"";"0.3648926";"123.9784528";"https://maps.google.com/?cid=0x0:0x429727ef3a1a48bb";""
"perumahan";"Komplek perumahan";"Rumah Meyra Syanin";"92G3+7FW, Sondana, Kec. Bolaang Uki, Kabupaten Bolaang Mongondow Selatan, Sulawesi Utara";"Kabupaten Bolaang Mongondow Selatan, Sulawesi Utara";"SULAWESI UTARA";"";"Indonesia";"";"";"";"0.3763732";"124.0029601";"https://maps.google.com/?cid=0x0:0x48ea21a49c4b0797";""
"perumahan";"Pembangunan Perumahan";"Gimin meronda";"9XMH+HRW, Jl. Trans Sulawesi, Toluaya, Kec. Bolaang Uki, Kabupaten Bolaang Mongondow Selatan, Sulawesi Utara";"Kabupaten Bolaang Mongondow Selatan, Sulawesi Utara";"SULAWESI UTARA";"";"Indonesia";"";"";"";"0.383993";"123.979586";"https://maps.google.com/?cid=0x0:0x69446be2ca14569f";""
"perumahan";"Komplek perumahan";"Home Fitriamili";"9W22+5VF, Tangagah, Kec. Bolaang Uki, Kabupaten Bolaang Mongondow Selatan, Sulawesi Utara";"Kabupaten Bolaang Mongondow Selatan, Sulawesi Utara";"SULAWESI UTARA";"";"Indonesia";"";"";"";"0.3504411";"123.9021773";"https://maps.google.com/?cid=0x0:0x53a90075bbe928ce";""
"perumahan";"Pembangunan Perumahan";"Del Home’s";"92M3+JQX, Sondana, Kec. Bolaang Uki, Kabupaten Bolaang Mongondow Selatan, Sulawesi Utara";"Kabupaten Bolaang Mongondow Selatan, Sulawesi Utara";"SULAWESI UTARA";"";"Indonesia";"";"";"";"0.3841176";"124.0044739";"https://maps.google.com/?cid=0x0:0x4ed0d4bfd80d259c";""
"perumahan";"Komplek perumahan";"Perumahan NaNaSi";"92M4+G63, Sondana, Kec. Bolaang Uki, Kabupaten Bolaang Mongondow Selatan, Sulawesi Utara";"Kabupaten Bolaang Mongondow Selatan, Sulawesi Utara";"SULAWESI UTARA";"";"Indonesia";"";"";"";"0.3837629";"124.0055525";"https://maps.google.com/?cid=0x0:0x127dc3815079ff78";""
"perumahan";"Komplek perumahan";"HOME EKA";"92M4+66C, Sondana, Kec. Bolaang Uki, Kabupaten Bolaang Mongondow Selatan, Sulawesi Utara";"Kabupaten Bolaang Mongondow Selatan, Sulawesi Utara";"SULAWESI UTARA";"";"Indonesia";"";"";"";"0.3830737";"124.005529";"https://maps.google.com/?cid=0x0:0xb6b0418fcf6872be";""
"perumahan";"perumahan";"URAWAN Hill'S Residence";"9XWJ+G79, Molibagu, Kec. Bolaang Uki, Kabupaten Bolaang Mongondow Selatan, Sulawesi Utara";"Kabupaten Bolaang Mongondow Selatan, Sulawesi Utara";"SULAWESI UTARA";"";"Indonesia";"";"";"";"0.3962939";"123.9807246";"https://maps.google.com/?cid=0x0:0xa0360074dcd6a5a5";""
"perumahan";"Komplek perumahan";"Rumah Dasya";"Salongo, Kec. Bolaang Uki, Kabupaten Bolaang Mongondow Selatan, Sulawesi Utara 95774";"Kec. Bolaang Uki, Kabupaten Bolaang Mongondow Selatan";"SULAWESI UTARA";"95774";"Indonesia";"";"";"";"0.3654184";"123.9694787";"https://maps.google.com/?cid=0x0:0xf7f6c268824e5bbb";""
"perumahan";"Pembangunan Perumahan";"Desa Tabilaa kecamatan bolaanguki kab bolael";"Jl. Trans Sulawesi No.1234, Tabilaa, Kec. Bolaang Uki, Kabupaten Bolaang Mongondow Selatan, Sulawesi Utara 95774";"Tabilaa, Kec. Bolaang Uki, Kabupaten Bolaang Mongondow Selatan";"SULAWESI UTARA";"95774";"Indonesia";"";"";"";"0.3789547";"124.0227586";"https://maps.google.com/?cid=0x0:0xeff9e78a7ada907d";""
"perumahan";"Pembangunan Perumahan";"Perumahan Pintadia";"9XFP+M34, Perumahan, Pintadia, Kec. Bolaang Uki, Kabupaten Bolaang Mongondow Selatan, Sulawesi Utara";"Kabupaten Bolaang Mongondow Selatan, Sulawesi Utara";"SULAWESI UTARA";"";"Indonesia";"";"";"";"0.3741333";"123.985214";"https://maps.google.com/?cid=0x0:0xc5ac39d3fe3d32f8";""
"perumahan";"Komplek perumahan";"AZAHRA HOME";"9XJH+573, Soguo, Kec. Bolaang Uki, Kabupaten Bolaang Mongondow Selatan, Sulawesi Utara";"Kabupaten Bolaang Mongondow Selatan, Sulawesi Utara";"SULAWESI UTARA";"";"Indonesia";"";"";"";"0.3803874";"123.9781692";"https://maps.google.com/?cid=0x0:0x4202908ff6ad01b3";""
"perumahan";"Komplek perumahan";"Yudi Ganteng";"Jl. Mawar No.2, Modisi, Kec. Pinolosian Tim., Kabupaten Bolaang Mongondow Selatan, Sulawesi Utara 95777";"Modisi, Kec. Pinolosian Tim., Kabupaten Bolaang Mongondow Selatan";"SULAWESI UTARA";"95777";"Indonesia";"";"";"";"0.4531386";"124.4364565";"https://maps.google.com/?cid=0x0:0xa00b1eff0afdb3e3";""
"perumahan";"Perhimpunan Pengembang Perumahan";"Rumah jesinta";"FC3P+8PP, Jl. Anggrek 2, Modisi, Kec. Pinolosian Tim., Kabupaten Bolaang Mongondow Selatan, Sulawesi Utara 95775";"Jl. Anggrek 2, Modisi, Kec. Pinolosian Tim., Kabupaten Bolaang Mongondow Selatan";"SULAWESI UTARA";"95775";"Indonesia";"";"";"";"0.4533396";"124.4368188";"https://maps.google.com/?cid=0x0:0xe9ede022a7142b21";""
"perumahan";"Balai masyarakat";"BPU Pinolosian";"94W8+RJH, Pinolosian, Kec. Pinolosian, Kabupaten Bolaang Mongondow Selatan, Sulawesi Utara";"Kabupaten Bolaang Mongondow Selatan, Sulawesi Utara";"SULAWESI UTARA";"";"Indonesia";"";"";"";"0.3970556";"124.1166209";"https://maps.google.com/?cid=0x0:0x38d0754983970a31";""
"perumahan";"Komplek perumahan";"Rumah Refki (Papa Nazla)";"94V7+39X, Ilomata, Kec. Pinolosian, Kabupaten Bolaang Mongondow Selatan, Sulawesi Utara";"Kabupaten Bolaang Mongondow Selatan, Sulawesi Utara";"SULAWESI UTARA";"";"Indonesia";" 085395666851";"";"";"0.391826";"124.113814";"https://maps.google.com/?cid=0x0:0xff412cf859da5745";""
"perumahan";"Komplek perumahan";"Feibe home";"94V9+R35, Jl. Siswa Desa Rilisnya, Pinolosian, Kec. Pinolosian, Kabupaten Bolaang Mongondow Selatan, Sulawesi Utara";"Kabupaten Bolaang Mongondow Selatan, Sulawesi Utara";"SULAWESI UTARA";"";"Indonesia";" 082259664223";"";"";"0.3949743";"124.1185389";"https://maps.google.com/?cid=0x0:0xb4ee2b25a0a1043d";""
"perumahan";"Komplek perumahan";"Rawanto Paputungan";"C423+674, Nunuk, Kec. Pinolosian, Kabupaten Bolaang Mongondow Selatan, Sulawesi Utara";"Kabupaten Bolaang Mongondow Selatan, Sulawesi Utara";"SULAWESI UTARA";"";"Indonesia";"";"";"";"0.4005039";"124.1032184";"https://maps.google.com/?cid=0x0:0xb042bb656bb0ad4e";""
"perumahan";"Pembangunan Perumahan";"Pilomonu";"C449+38, Tolotoyon, Kec. Pinolosian, Kabupaten Bolaang Mongondow Selatan, Sulawesi Utara";"Kabupaten Bolaang Mongondow Selatan, Sulawesi Utara";"SULAWESI UTARA";"";"Indonesia";"";"";"";"0.4051882";"124.118336";"https://maps.google.com/?cid=0x0:0xaf6ee1c40283931e";""
"perumahan";"Kompleks Apartemen";"Fikram Asnawi";"94R6+CWW, Ilomata, Kec. Pinolosian, Kabupaten Bolaang Mongondow Selatan, Sulawesi Utara";"Kabupaten Bolaang Mongondow Selatan, Sulawesi Utara";"SULAWESI UTARA";"";"Indonesia";"";"";"";"0.3911207";"124.1123373";"https://maps.google.com/?cid=0x0:0xbf62bd18e915592e";""
"perumahan";"Komplek perumahan";"Fatma Yahya";"94V9+4QR, Pinolosian Sel., Kec. Pinolosian, Kabupaten Bolaang Mongondow Selatan, Sulawesi Utara";"Kabupaten Bolaang Mongondow Selatan, Sulawesi Utara";"SULAWESI UTARA";"";"Indonesia";"";"";"";"0.3928457";"124.1194925";"https://maps.google.com/?cid=0x0:0x1d0effc1ad7a151b";""
"perumahan";"Komplek perumahan";"Eling Home";"94W9+99F, Tolotoyon, Kec. Pinolosian, Kabupaten Bolaang Mongondow Selatan, Sulawesi Utara";"Kabupaten Bolaang Mongondow Selatan, Sulawesi Utara";"SULAWESI UTARA";"";"Indonesia";"";"";"";"0.3965353";"124.1193154";"https://maps.google.com/?cid=0x0:0xeadd8a9afb40e63";""
"perumahan";"Komplek perumahan";"Rumah Winda Mou";"94R9+WQF, Pinolosian Sel., Kec. Pinolosian, Kabupaten Bolaang Mongondow Selatan, Sulawesi Utara";"Kabupaten Bolaang Mongondow Selatan, Sulawesi Utara";"SULAWESI UTARA";"";"Indonesia";"";"";"";"0.3923047";"124.1194123";"https://maps.google.com/?cid=0x0:0xfc78e01e60b6fdc0";""
"perumahan";"Komplek perumahan";"Ruko kendis";"94X6+7XX, Pinolosian, Kec. Pinolosian, Kabupaten Bolaang Mongondow Selatan, Sulawesi Utara";"Kabupaten Bolaang Mongondow Selatan, Sulawesi Utara";"SULAWESI UTARA";"";"Indonesia";"";"";"";"0.3982339";"124.1124766";"https://maps.google.com/?cid=0x0:0x6b1e61a44fde6511";""
"perumahan";"perumahan";"Rumah Carliyansah Gonibala";"93VW+55, Linawan, Kec. Pinolosian, Kabupaten Bolaang Mongondow Selatan, Sulawesi Utara";"Kabupaten Bolaang Mongondow Selatan, Sulawesi Utara";"SULAWESI UTARA";"";"Indonesia";"";"";"";"0.3928148";"124.0944861";"https://maps.google.com/?cid=0x0:0xae6fe03424c3b12c";""
"perumahan";"Komplek perumahan";"Rumah Sopyan Dugian";"94V9+2Q5, Pinolosian Sel., Kec. Pinolosian, Kabupaten Bolaang Mongondow Selatan, Sulawesi Utara";"Kabupaten Bolaang Mongondow Selatan, Sulawesi Utara";"SULAWESI UTARA";"";"Indonesia";"";"";"";"0.392507";"124.1194721";"https://maps.google.com/?cid=0x0:0x1551cac5b0858169";""
"perumahan";"Komplek perumahan";"Rumah Nabila dali";"94W8+WMP, Pinolosian, Kec. Pinolosian, Kabupaten Bolaang Mongondow Selatan, Sulawesi Utara";"Kabupaten Bolaang Mongondow Selatan, Sulawesi Utara";"SULAWESI UTARA";"";"Indonesia";"";"";"";"0.3973255";"124.1167125";"https://maps.google.com/?cid=0x0:0xe49b012982240b6c";""
"perumahan";"Komplek perumahan";"Rumah Mama Akbar";"94WC+25G, Tolotoyon, Kec. Pinolosian, Kabupaten Bolaang Mongondow Selatan, Sulawesi Utara";"Kabupaten Bolaang Mongondow Selatan, Sulawesi Utara";"SULAWESI UTARA";"";"Indonesia";" 082346268175";"";"";"0.3950614";"124.1197472";"https://maps.google.com/?cid=0x0:0xb5fc676c4f7f3edd";""
"perumahan";"Komplek perumahan";"Rumah Yudha Prasetya Ningrat";"Pinolosian Sel., Kec. Pinolosian, Kabupaten Bolaang Mongondow Selatan, Sulawesi Utara";"Kabupaten Bolaang Mongondow Selatan, Sulawesi Utara";"SULAWESI UTARA";"";"Indonesia";" 085243033703";"";"";"0.3921242";"124.1179987";"https://maps.google.com/?cid=0x0:0xb789a826c292f253";""
"perumahan";"Komplek perumahan";"Sella'House";"94W9+PQ5, Tolotoyon, Kec. Pinolosian, Kabupaten Bolaang Mongondow Selatan, Sulawesi Utara";"Kabupaten Bolaang Mongondow Selatan, Sulawesi Utara";"SULAWESI UTARA";"";"Indonesia";"";"";"";"0.3967601";"124.1194935";"https://maps.google.com/?cid=0x0:0x82a9fadcd992cffc";""
"perumahan";"Komplek perumahan";"Nadia Home";"94V9+WQH, Pinolosian, Kec. Pinolosian, Kabupaten Bolaang Mongondow Selatan, Sulawesi Utara";"Kabupaten Bolaang Mongondow Selatan, Sulawesi Utara";"SULAWESI UTARA";"";"Indonesia";"";"";"";"0.3948245";"124.1194877";"https://maps.google.com/?cid=0x0:0x46b62727642c7da7";""
"perumahan";"Perumahan";"Rumah R.Huntua";"94V8+CMC, Jl. Siswa Desa Rilisnya, Ilomata, Kec. Pinolosian, Kabupaten Bolaang Mongondow Selatan, Sulawesi Utara";"Kabupaten Bolaang Mongondow Selatan, Sulawesi Utara";"SULAWESI UTARA";"";"Indonesia";"";"";"";"0.3935507";"124.116656";"https://maps.google.com/?cid=0x0:0x9f72035018fd69c";""
"perumahan";"Komplek perumahan";"Fimilya Home";"94X4+52R, Nunuk, Kec. Pinolosian, Kabupaten Bolaang Mongondow Selatan, Sulawesi Utara";"Kabupaten Bolaang Mongondow Selatan, Sulawesi Utara";"SULAWESI UTARA";"";"Indonesia";"";"";"";"0.3978215";"124.1049837";"https://maps.google.com/?cid=0x0:0x39a6faaa204f125";""
"perumahan";"Komplek perumahan";"Yudi Ganteng";"Jl. Mawar No.2, Modisi, Kec. Pinolosian Tim., Kabupaten Bolaang Mongondow Selatan, Sulawesi Utara 95777";"Modisi, Kec. Pinolosian Tim., Kabupaten Bolaang Mongondow Selatan";"SULAWESI UTARA";"95777";"Indonesia";"";"";"";"0.4531386";"124.4364565";"https://maps.google.com/?cid=0x0:0xa00b1eff0afdb3e3";""
"perumahan";"Perhimpunan Pengembang Perumahan";"Rumah jesinta";"FC3P+8PP, Jl. Anggrek 2, Modisi, Kec. Pinolosian Tim., Kabupaten Bolaang Mongondow Selatan, Sulawesi Utara 95775";"Jl. Anggrek 2, Modisi, Kec. Pinolosian Tim., Kabupaten Bolaang Mongondow Selatan";"SULAWESI UTARA";"95775";"Indonesia";"";"";"";"0.4533396";"124.4368188";"https://maps.google.com/?cid=0x0:0xe9ede022a7142b21";""
"perumahan";"perumahan";"Sulawesi Utara 95775";"Modisi, Kec. Pinolosian Tim., Kabupaten Bolaang Mongondow Selatan, Sulawesi Utara";"Kabupaten Bolaang Mongondow Selatan, Sulawesi Utara";"SULAWESI UTARA";"";"Indonesia";"";"";"";"0.4528494";"124.4356892";"https://maps.google.com/?cid=0x0:0x5956b774c20081f1";""
"perumahan";"Pembangunan Perumahan";"Kec. Pinolosian Timur";"Jl. Salea No.9, Modisi, Kec. Pinolosian Tim., Kabupaten Bolaang Mongondow Selatan, Sulawesi Utara 95775";"Modisi, Kec. Pinolosian Tim., Kabupaten Bolaang Mongondow Selatan";"SULAWESI UTARA";"95775";"Indonesia";"";"";"";"0.4512904";"124.4368986";"https://maps.google.com/?cid=0x0:0xf0af2f818241152b";""
"perumahan";"Komplek perumahan";"Yudi Ganteng";"Jl. Mawar No.2, Modisi, Kec. Pinolosian Tim., Kabupaten Bolaang Mongondow Selatan, Sulawesi Utara 95777";"Modisi, Kec. Pinolosian Tim., Kabupaten Bolaang Mongondow Selatan";"SULAWESI UTARA";"95777";"Indonesia";"";"";"";"0.4531386";"124.4364565";"https://maps.google.com/?cid=0x0:0xa00b1eff0afdb3e3";""
"perumahan";"perumahan";"Sulawesi Utara 95774";"Momalia I, Kec. Posigadan, Kabupaten Bolaang Mongondow Selatan, Sulawesi Utara";"Kabupaten Bolaang Mongondow Selatan, Sulawesi Utara";"SULAWESI UTARA";"";"Indonesia";"";"";"";"0.3179007";"123.5774024";"https://maps.google.com/?cid=0x0:0xe8ed2e820dc45687";""
"perumahan";"perumahan";"Kec. Tebet";"Kota Jakarta Selatan, Daerah Khusus Ibukota Jakarta";"Kota Jakarta Selatan, Daerah Khusus Ibukota Jakarta";"SULAWESI UTARA";"";"Indonesia";"";"";"";"-6.2251223";"106.8549881";"https://maps.google.com/?cid=0x0:0xd575e31c807295f9";""
"building materials";"building materials";"Sulawesi Utara 95774";"Momalia I, Kec. Posigadan, Kabupaten Bolaang Mongondow Selatan, Sulawesi Utara";"Kabupaten Bolaang Mongondow Selatan, Sulawesi Utara";"SULAWESI UTARA";"";"Indonesia";"";"";"";"0.3179007";"123.5774024";"https://maps.google.com/?cid=0x0:0xe8ed2e820dc45687";""
"building materials";"Toko umum";"Reza Prima -TOKO BAHAN BANGUNAN";"Jln trans sulawesi desa momalia II kecamatan posigadan, mongodow selatan, Kec. Bolaang, Kabupaten Bolaang Mongondow Selatan, Sulawesi Utara 95774";"mongodow selatan, Kec. Bolaang, Kabupaten Bolaang Mongondow Selatan";"SULAWESI UTARA";"95774";"Indonesia";" 081524846253";"";"";"0.3218918";"123.5681504";"https://maps.google.com/?cid=0x0:0xd734f3aff6733cac";""
"building materials";"Toko Bahan Bangunan";"Toko Bangunan Sejahtera";"8VR9+JJM, Duminanga, Kec. Bolaang Uki, Kabupaten Bolaang Mongondow Selatan, Sulawesi Utara";"Kabupaten Bolaang Mongondow Selatan, Sulawesi Utara";"SULAWESI UTARA";"";"Indonesia";" 085823541634";"";"";"0.3422371";"123.8689399";"https://maps.google.com/?cid=0x0:0xf3d6ae4885cd314b";""
"building materials";"Toko";"UD. CIPTA KARYA";"Toluaya, Kec. Bolaang Uki, Kabupaten Bolaang Mongondow Selatan, Sulawesi Utara";"Kabupaten Bolaang Mongondow Selatan, Sulawesi Utara";"SULAWESI UTARA";"";"Indonesia";" 085398193936";"";"";"0.3872728";"123.9793875";"https://maps.google.com/?cid=0x0:0xace0ab89a325fd84";""
"building materials";"building materials";"Toko Bangunan UD Sukses Mandiri";"9XWJ+GXH, Jl. Trans Sulawesi, Molibagu, Kec. Bolaang Uki, Kabupaten Bolaang Mongondow Selatan, Sulawesi Utara";"Kabupaten Bolaang Mongondow Selatan, Sulawesi Utara";"SULAWESI UTARA";"";"Indonesia";" 08135433600";"";"";"0.3963045";"123.9824769";"https://maps.google.com/?cid=0x0:0x49a52895d30400e6";""
"building materials";"building materials";"Toko Bangunan UD. Sukses Mandiri";"8RQ6+Q8V, Jl. Trans Sulawesi, Sinandaka, Kec. Bolaang Uki, Kabupaten Bolaang Mongondow Selatan, Sulawesi Utara";"Kabupaten Bolaang Mongondow Selatan, Sulawesi Utara";"SULAWESI UTARA";"";"Indonesia";"";"";"";"0.3394842";"123.8108104";"https://maps.google.com/?cid=0x0:0x263b4d5db98cdf71";""
"building materials";"Toko Alat Pancing";"Tempat pancing harga tanah";"9XJF+MQ9, Soguo, Kec. Bolaang Uki, Kabupaten Bolaang Mongondow Selatan, Sulawesi Utara";"Kabupaten Bolaang Mongondow Selatan, Sulawesi Utara";"SULAWESI UTARA";"";"Indonesia";"";"";"";"0.3807757";"123.9735165";"https://maps.google.com/?cid=0x0:0xbb042038e675761";""
"building materials";"Toko";"Toko Bangunan BERKAT USAHA";"HXCM+XF5, Jl. Siswa, Mopuya Utara, Kec. Dumoga Utara, Kabupaten Bolaang Mongondow, Sulawesi Utara 95773";"Jl. Siswa, Mopuya Utara, Kec. Dumoga Utara, Kabupaten Bolaang Mongondow";"SULAWESI UTARA";"95773";"Indonesia";" 081242571251";"";"";"0.5729163";"123.9839941";"https://maps.google.com/?cid=0x0:0xa2d5c51a7aabf88a";""
"building materials";"building materials";"Sulawesi Utara 95775";"Modisi, Kec. Pinolosian Tim., Kabupaten Bolaang Mongondow Selatan, Sulawesi Utara";"Kabupaten Bolaang Mongondow Selatan, Sulawesi Utara";"SULAWESI UTARA";"";"Indonesia";"";"";"";"0.4528494";"124.4356892";"https://maps.google.com/?cid=0x0:0x5956b774c20081f1";""
"building materials";"Minimarket";"Toko bangunan";"FC3P+2C6, Modisi, Kec. Pinolosian Tim., Kabupaten Bolaang Mongondow Selatan, Sulawesi Utara";"Kabupaten Bolaang Mongondow Selatan, Sulawesi Utara";"SULAWESI UTARA";"";"Indonesia";" 085658741232";"";"";"0.4534033";"124.4372044";"https://maps.google.com/?cid=0x0:0x2f8d72c1be60ff49";""
"building materials";"Toko Bahan Bangunan";"UD. Batako";"Ilomata, Kec. Pinolosian, Kabupaten Bolaang Mongondow Selatan, Sulawesi Utara 95775";"Kec. Pinolosian, Kabupaten Bolaang Mongondow Selatan";"SULAWESI UTARA";"95775";"Indonesia";" 085825184100";"";"";"0.3938819";"124.1128363";"https://maps.google.com/?cid=0x0:0xdcce26f7a761200d";""
"building materials";"Minimarket";"Toko bangunan";"FC3P+2C6, Modisi, Kec. Pinolosian Tim., Kabupaten Bolaang Mongondow Selatan, Sulawesi Utara";"Kabupaten Bolaang Mongondow Selatan, Sulawesi Utara";"SULAWESI UTARA";"";"Indonesia";" 085658741232";"";"";"0.4534033";"124.4372044";"https://maps.google.com/?cid=0x0:0x2f8d72c1be60ff49";""
"building materials";"Minimarket";"Kios Liani";"Jl. Siswa No.3, Modisi, Kec. Pinolosian Tim., Kabupaten Bolaang Mongondow Selatan, Sulawesi Utara 95775";"Modisi, Kec. Pinolosian Tim., Kabupaten Bolaang Mongondow Selatan";"SULAWESI UTARA";"95775";"Indonesia";"";"";"";"0.4530895";"124.4360397";"https://maps.google.com/?cid=0x0:0xd7ad6d3529f1fcab";""
"building materials";"building materials";"Kec. Pinolosian Tengah";"Kabupaten Bolaang Mongondow Selatan, Sulawesi Utara";"Kabupaten Bolaang Mongondow Selatan, Sulawesi Utara";"SULAWESI UTARA";"";"Indonesia";"";"";"";"0.4814411";"124.2643871";"https://maps.google.com/?cid=0x0:0x202271dfbca50638";""
"building materials";"Toko Bahan Bangunan";"UD. Batako";"Ilomata, Kec. Pinolosian, Kabupaten Bolaang Mongondow Selatan, Sulawesi Utara 95775";"Kec. Pinolosian, Kabupaten Bolaang Mongondow Selatan";"SULAWESI UTARA";"95775";"Indonesia";" 085825184100";"";"";"0.3938819";"124.1128363";"https://maps.google.com/?cid=0x0:0xdcce26f7a761200d";""
"building materials";"Minimarket";"Toko bangunan";"FC3P+2C6, Modisi, Kec. Pinolosian Tim., Kabupaten Bolaang Mongondow Selatan, Sulawesi Utara";"Kabupaten Bolaang Mongondow Selatan, Sulawesi Utara";"SULAWESI UTARA";"";"Indonesia";" 085658741232";"";"";"0.4534033";"124.4372044";"https://maps.google.com/?cid=0x0:0x2f8d72c1be60ff49";""
"building materials";"Minimarket";"Kios Liani";"Jl. Siswa No.3, Modisi, Kec. Pinolosian Tim., Kabupaten Bolaang Mongondow Selatan, Sulawesi Utara 95775";"Modisi, Kec. Pinolosian Tim., Kabupaten Bolaang Mongondow Selatan";"SULAWESI UTARA";"95775";"Indonesia";"";"";"";"0.4530895";"124.4360397";"https://maps.google.com/?cid=0x0:0xd7ad6d3529f1fcab";""
"building materials";"building materials";"Sulawesi Utara 95775";"Modisi, Kec. Pinolosian Tim., Kabupaten Bolaang Mongondow Selatan, Sulawesi Utara";"Kabupaten Bolaang Mongondow Selatan, Sulawesi Utara";"SULAWESI UTARA";"";"Indonesia";"";"";"";"0.4528494";"124.4356892";"https://maps.google.com/?cid=0x0:0x5956b774c20081f1";""
"building materials";"Toko umum";"Reza Prima -TOKO BAHAN BANGUNAN";"Jln trans sulawesi desa momalia II kecamatan posigadan, mongodow selatan, Kec. Bolaang, Kabupaten Bolaang Mongondow Selatan, Sulawesi Utara 95774";"mongodow selatan, Kec. Bolaang, Kabupaten Bolaang Mongondow Selatan";"SULAWESI UTARA";"95774";"Indonesia";" 081524846253";"";"";"0.3218918";"123.5681504";"https://maps.google.com/?cid=0x0:0xd734f3aff6733cac";""
"building materials";"Grosir";"TK REZA PRIMA";"8HC9+Q65, Jl. Trans Sulawesi, Momalia II, Kec. Posigadan, Kabupaten Bolaang Mongondow Selatan, Sulawesi Utara";"Kabupaten Bolaang Mongondow Selatan, Sulawesi Utara";"SULAWESI UTARA";"";"Indonesia";" 085796159799";"";"";"0.3218909";"123.5681013";"https://maps.google.com/?cid=0x0:0x713d3ff248ca1c50";""
"building materials";"building materials";"TOKO SINAR BANGUNAN, milangodaa";"8PFF+4FP, Milangodaa, Kec. Posigadan, Kabupaten Bolaang Mongondow Selatan, Sulawesi Utara";"Kabupaten Bolaang Mongondow Selatan, Sulawesi Utara";"SULAWESI UTARA";"";"Indonesia";" 085757714286";"";"";"0.3228343";"123.7237117";"https://maps.google.com/?cid=0x0:0xbae12257c297c56d";""
"toko bangunan";"toko bangunan";"Sulawesi Utara 95774";"Momalia I, Kec. Posigadan, Kabupaten Bolaang Mongondow Selatan, Sulawesi Utara";"Kabupaten Bolaang Mongondow Selatan, Sulawesi Utara";"SULAWESI UTARA";"";"Indonesia";"";"";"";"0.3179007";"123.5774024";"https://maps.google.com/?cid=0x0:0xe8ed2e820dc45687";""
"toko bangunan";"Toko Bahan Bangunan";"Toko Bangunan Sejahtera";"8VR9+JJM, Duminanga, Kec. Bolaang Uki, Kabupaten Bolaang Mongondow Selatan, Sulawesi Utara";"Kabupaten Bolaang Mongondow Selatan, Sulawesi Utara";"SULAWESI UTARA";"";"Indonesia";" 085823541634";"";"";"0.3422371";"123.8689399";"https://maps.google.com/?cid=0x0:0xf3d6ae4885cd314b";""
"toko bangunan";"Toko Bahan Bangunan";"Toko Usaha Bangunan";"Jalan Raya, Liberia, Kec. Modayag, Kabupaten Bolaang Mongondow Timur, Sulawesi Utara 95781";"Liberia, Kec. Modayag, Kabupaten Bolaang Mongondow Timur";"SULAWESI UTARA";"95781";"Indonesia";"";"";"";"0.7139293";"124.3841074";"https://maps.google.com/?cid=0x0:0x92166ed9588551f";""
"toko bangunan";"toko bangunan";"Toko Bangunan asriana";"Molibagu, Kec. Bolaang Uki, Kabupaten Bolaang Mongondow Selatan, Sulawesi Utara";"Kabupaten Bolaang Mongondow Selatan, Sulawesi Utara";"SULAWESI UTARA";"";"Indonesia";"";"";"";"0.3855625";"123.9808125";"https://maps.google.com/?cid=0x0:0xf520fb1f2a393624";""
"toko bangunan";"Pasar bahan bangunan";"toko bangunan usaha immanuel";"P96P+4F7, Modayag, Kec. Modayag, Kabupaten Bolaang Mongondow Timur, Sulawesi Utara";"Kabupaten Bolaang Mongondow Timur, Sulawesi Utara";"SULAWESI UTARA";"";"Indonesia";" 085756658246";"";"";"0.7103444";"124.3862345";"https://maps.google.com/?cid=0x0:0xb9e2ffd8f4205bc1";""
"toko bangunan";"Minimarket";"Toko bangunan";"FC3P+2C6, Modisi, Kec. Pinolosian Tim., Kabupaten Bolaang Mongondow Selatan, Sulawesi Utara";"Kabupaten Bolaang Mongondow Selatan, Sulawesi Utara";"SULAWESI UTARA";"";"Indonesia";" 085658741232";"";"";"0.4534033";"124.4372044";"https://maps.google.com/?cid=0x0:0x2f8d72c1be60ff49";""
"toko bangunan";"Toko";"UD. CIPTA KARYA";"Toluaya, Kec. Bolaang Uki, Kabupaten Bolaang Mongondow Selatan, Sulawesi Utara";"Kabupaten Bolaang Mongondow Selatan, Sulawesi Utara";"SULAWESI UTARA";"";"Indonesia";" 085398193936";"";"";"0.3872728";"123.9793875";"https://maps.google.com/?cid=0x0:0xace0ab89a325fd84";""
"toko bangunan";"Gudang";"Toko Bahan Bangunan BOROBUDUR";"Q853+V3G, Passi II, Kec. Passi Bar., Kabupaten Bolaang Mongondow, Sulawesi Utara";"Kabupaten Bolaang Mongondow, Sulawesi Utara";"SULAWESI UTARA";"";"Indonesia";"";"";"";"0.7596792";"124.3027097";"https://maps.google.com/?cid=0x0:0x5d850252030234be";""
"toko bangunan";"Toko";"Toko Awan Bangunan";"Tanoyan Sel., Kec. Lolayan, Kabupaten Bolaang Mongondow, Sulawesi Utara";"Kabupaten Bolaang Mongondow, Sulawesi Utara";"SULAWESI UTARA";"";"Indonesia";" 085823966338";"";"";"0.6048681";"124.2745268";"https://maps.google.com/?cid=0x0:0x7f4c65ea9b27dee4";""
"toko bangunan";"Toko";"Toko Bangunan BERKAT USAHA";"HXCM+XF5, Jl. Siswa, Mopuya Utara, Kec. Dumoga Utara, Kabupaten Bolaang Mongondow, Sulawesi Utara 95773";"Jl. Siswa, Mopuya Utara, Kec. Dumoga Utara, Kabupaten Bolaang Mongondow";"SULAWESI UTARA";"95773";"Indonesia";" 081242571251";"";"";"0.5729163";"123.9839941";"https://maps.google.com/?cid=0x0:0xa2d5c51a7aabf88a";""
"toko bangunan";"Toko Bahan Bangunan";"Toko Babul Rizky";"W74C+FHH, Kuala, Kec. Kaidipang, Kabupaten Bolaang Mongondow Utara, Sulawesi Utara";"Kabupaten Bolaang Mongondow Utara, Sulawesi Utara";"SULAWESI UTARA";"";"Indonesia";"";"";"";"0.9061913";"123.2714797";"https://maps.google.com/?cid=0x0:0x6b70789c19fe4d8e";""
"toko bangunan";"Toko Bahan Bangunan";"Toko Bangunan Dipta";"W55R+77X, Jl. Trans-Sulawesi, Tuntung Tim., Kec. Pinogaluman, Kabupaten Bolaang Mongondow Utara, Sulawesi Utara";"Kabupaten Bolaang Mongondow Utara, Sulawesi Utara";"SULAWESI UTARA";"";"Indonesia";"";"";"";"0.9082313";"123.1907257";"https://maps.google.com/?cid=0x0:0x8804fc0c16f5667c";""
"toko bangunan";"Toko Bahan Bangunan";"Amri Bangunan";"W39W+GGW, Jl. Trans-Sulawesi, Inobonto Satu, Kec. Bolaang, Kabupaten Bolaang Mongondow, Sulawesi Utara";"Kabupaten Bolaang Mongondow, Sulawesi Utara";"SULAWESI UTARA";"";"Indonesia";"";"";"";"0.918851";"124.0963413";"https://maps.google.com/?cid=0x0:0xf4d67fc7cef3b68a";""
"toko bangunan";"Toko Bahan Bangunan";"Toko bahan bangunan";"MHG7+VJQ, Jl. Ratahan - Kotamobagu, Motongkad, Kec. Nuangan, Kabupaten Bolaang Mongondow Timur, Sulawesi Utara";"Kabupaten Bolaang Mongondow Timur, Sulawesi Utara";"SULAWESI UTARA";"";"Indonesia";"";"";"";"0.6772249";"124.5640951";"https://maps.google.com/?cid=0x0:0x3e712dc6efe5c308";""
"toko bangunan";"Toko Bahan Bangunan";"TOKO BAGUNAN BERKAT MANDIRI";"Bohabak I, Kec. Bolang Itang Tim., Kabupaten Bolaang Mongondow Utara, Sulawesi Utara 95764";"Kec. Bolang Itang Tim., Kabupaten Bolaang Mongondow Utara";"SULAWESI UTARA";"95764";"Indonesia";" 082192780897";"";"";"0.8800935";"123.4553345";"https://maps.google.com/?cid=0x0:0x590e31c4c91a9eb2";""
"toko bangunan";"Toko Bahan Bangunan";"Toko Naulas";"W836+F7X, Bolangitang, Kec. Bolang Itang Bar., Kabupaten Bolaang Mongondow Utara, Sulawesi Utara";"Kabupaten Bolaang Mongondow Utara, Sulawesi Utara";"SULAWESI UTARA";"";"Indonesia";"";"";"";"0.9037345";"123.3107313";"https://maps.google.com/?cid=0x0:0x77429f25fd08e7ea";""
"toko bangunan";"Toko Perlengkapan Rumah";"Toko Bangunan UD.Fadhil";"RM44+R47, Jl. Ratahan - Kotamobagu, Kotabunan, Kabupaten Bolaang Mongondow Timur, Sulawesi Utara";"Kabupaten Bolaang Mongondow Timur, Sulawesi Utara";"SULAWESI UTARA";"";"Indonesia";"";"";"";"0.8070264";"124.6553068";"https://maps.google.com/?cid=0x0:0x93a4f968aa67105";""
"toko bangunan";"toko bangunan";"Kec. Bolaang Uki";"Kabupaten Bolaang Mongondow Selatan, Sulawesi Utara";"Kabupaten Bolaang Mongondow Selatan, Sulawesi Utara";"SULAWESI UTARA";"";"Indonesia";"";"";"";"0.3828564";"123.9828414";"https://maps.google.com/?cid=0x0:0xe21c23fc1263f3c5";""
"toko bangunan";"toko bangunan";"Toko Bangunan UD. Sukses Mandiri";"8RQ6+Q8V, Jl. Trans Sulawesi, Sinandaka, Kec. Bolaang Uki, Kabupaten Bolaang Mongondow Selatan, Sulawesi Utara";"Kabupaten Bolaang Mongondow Selatan, Sulawesi Utara";"SULAWESI UTARA";"";"Indonesia";"";"";"";"0.3394842";"123.8108104";"https://maps.google.com/?cid=0x0:0x263b4d5db98cdf71";""
"toko bangunan";"toko bangunan";"Toko Bangunan UD Sukses Mandiri";"9XWJ+GXH, Jl. Trans Sulawesi, Molibagu, Kec. Bolaang Uki, Kabupaten Bolaang Mongondow Selatan, Sulawesi Utara";"Kabupaten Bolaang Mongondow Selatan, Sulawesi Utara";"SULAWESI UTARA";"";"Indonesia";" 08135433600";"";"";"0.3963045";"123.9824769";"https://maps.google.com/?cid=0x0:0x49a52895d30400e6";""
"toko bangunan";"Toko Alat Pancing";"Tempat pancing harga tanah";"9XJF+MQ9, Soguo, Kec. Bolaang Uki, Kabupaten Bolaang Mongondow Selatan, Sulawesi Utara";"Kabupaten Bolaang Mongondow Selatan, Sulawesi Utara";"SULAWESI UTARA";"";"Indonesia";"";"";"";"0.3807757";"123.9735165";"https://maps.google.com/?cid=0x0:0xbb042038e675761";""
"toko bangunan";"Minimarket";"Toko bangunan";"FC3P+2C6, Modisi, Kec. Pinolosian Tim., Kabupaten Bolaang Mongondow Selatan, Sulawesi Utara";"Kabupaten Bolaang Mongondow Selatan, Sulawesi Utara";"SULAWESI UTARA";"";"Indonesia";" 085658741232";"";"";"0.4534033";"124.4372044";"https://maps.google.com/?cid=0x0:0x2f8d72c1be60ff49";""
"toko bangunan";"Minimarket";"Kios Liani";"Jl. Siswa No.3, Modisi, Kec. Pinolosian Tim., Kabupaten Bolaang Mongondow Selatan, Sulawesi Utara 95775";"Modisi, Kec. Pinolosian Tim., Kabupaten Bolaang Mongondow Selatan";"SULAWESI UTARA";"95775";"Indonesia";"";"";"";"0.4530895";"124.4360397";"https://maps.google.com/?cid=0x0:0xd7ad6d3529f1fcab";""
"toko bangunan";"Toko Bahan Bangunan";"Toko bangunan universal";"Jl. Panjang Kp. Baru No.26, Sukabumi Sel., Kec. Kb. Jeruk, Kota Jakarta Barat, Daerah Khusus Ibukota Jakarta 11560";"Sukabumi Sel., Kec. Kb. Jeruk, Kota Jakarta Barat";"SULAWESI UTARA";"11560";"Indonesia";" 08111900096";"";"";"-6.2206237";"106.7718805";"https://maps.google.com/?cid=0x0:0x746b2fc239b96c2e";""
"toko bangunan";"Minimarket";"toko sinar pinolosian";"94X9+3QH, Tolotoyon, Kec. Pinolosian, Kabupaten Bolaang Mongondow Selatan, Sulawesi Utara";"Kabupaten Bolaang Mongondow Selatan, Sulawesi Utara";"SULAWESI UTARA";"";"Indonesia";"";"";"";"0.3976869";"124.1194934";"https://maps.google.com/?cid=0x0:0x3b43dd9bda448d57";""
"toko bangunan";"Toko Perlengkapan Rumah";"Toko Bangunan Tesalonika";"QJVH+MM6, Paret, Kotabunan, Kabupaten Bolaang Mongondow Timur, Sulawesi Utara";"Kabupaten Bolaang Mongondow Timur, Sulawesi Utara";"SULAWESI UTARA";"";"Indonesia";" 081218883767";"";"";"0.7941531";"124.629155";"https://maps.google.com/?cid=0x0:0x9def8c78a1ebe897";""
"toko bangunan";"Toko Bahan Bangunan";"Lokon Bangunan";"Walian, Kec. Tomohon Sel., Kota Tomohon, Sulawesi Utara";"Kota Tomohon, Sulawesi Utara";"SULAWESI UTARA";"";"Indonesia";"";"";"";"1.3121072";"124.8377988";"https://maps.google.com/?cid=0x0:0x944037bebd3943d9";""
"toko bangunan";"Toko Bahan Bangunan";"Toko Bangunan Dipta";"W55R+77X, Jl. Trans-Sulawesi, Tuntung Tim., Kec. Pinogaluman, Kabupaten Bolaang Mongondow Utara, Sulawesi Utara";"Kabupaten Bolaang Mongondow Utara, Sulawesi Utara";"SULAWESI UTARA";"";"Indonesia";"";"";"";"0.9082313";"123.1907257";"https://maps.google.com/?cid=0x0:0x8804fc0c16f5667c";""
"toko bangunan";"Gudang";"Toko Bahan Bangunan BOROBUDUR";"Q853+V3G, Passi II, Kec. Passi Bar., Kabupaten Bolaang Mongondow, Sulawesi Utara";"Kabupaten Bolaang Mongondow, Sulawesi Utara";"SULAWESI UTARA";"";"Indonesia";"";"";"";"0.7596792";"124.3027097";"https://maps.google.com/?cid=0x0:0x5d850252030234be";""
"toko bangunan";"Toko Bahan Bangunan";"Toko Bangunan Mangimbali";"P9C7+94X, Jl. Ratahan - Kotamobagu, Bangunan Wuwuk, Kec. Modayag Bar., Kabupaten Bolaang Mongondow Timur, Sulawesi Utara";"Kabupaten Bolaang Mongondow Timur, Sulawesi Utara";"SULAWESI UTARA";"";"Indonesia";"";"";"";"0.720995";"124.3628459";"https://maps.google.com/?cid=0x0:0x5ebff676b0e909a2";""
"toko bangunan";"Toko";"Toko Awan Bangunan";"Tanoyan Sel., Kec. Lolayan, Kabupaten Bolaang Mongondow, Sulawesi Utara";"Kabupaten Bolaang Mongondow, Sulawesi Utara";"SULAWESI UTARA";"";"Indonesia";" 085823966338";"";"";"0.6048681";"124.2745268";"https://maps.google.com/?cid=0x0:0x7f4c65ea9b27dee4";""
"toko bangunan";"toko bangunan";"N/A";"";"";"SULAWESI UTARA";"";"Indonesia";" 082116168655";"";"";"-6.2297465";"106.829518";"https://maps.google.com/?cid=0x0:0xe81bb4addc3cc1b4";""
"toko bangunan";"toko bangunan";"Toko Bangunan asriana";"Molibagu, Kec. Bolaang Uki, Kabupaten Bolaang Mongondow Selatan, Sulawesi Utara";"Kabupaten Bolaang Mongondow Selatan, Sulawesi Utara";"SULAWESI UTARA";"";"Indonesia";"";"";"";"0.3855625";"123.9808125";"https://maps.google.com/?cid=0x0:0xf520fb1f2a393624";""
"toko bangunan";"Toko Bahan Bangunan";"Toko Bangunan Sejahtera";"8VR9+JJM, Duminanga, Kec. Bolaang Uki, Kabupaten Bolaang Mongondow Selatan, Sulawesi Utara";"Kabupaten Bolaang Mongondow Selatan, Sulawesi Utara";"SULAWESI UTARA";"";"Indonesia";" 085823541634";"";"";"0.3422371";"123.8689399";"https://maps.google.com/?cid=0x0:0xf3d6ae4885cd314b";""
"toko bangunan";"Toko Bahan Bangunan";"Toko Rania,Bahan Bangunan";"VHM2+75J, Talaga, Kec. Bintauna, Kabupaten Bolaang Mongondow Utara, Sulawesi Utara";"Kabupaten Bolaang Mongondow Utara, Sulawesi Utara";"SULAWESI UTARA";"";"Indonesia";"";"";"";"0.8832198";"123.5503793";"https://maps.google.com/?cid=0x0:0x82bd09d5a612927b";""
"toko bangunan";"Toko umum";"Reza Prima -TOKO BAHAN BANGUNAN";"Jln trans sulawesi desa momalia II kecamatan posigadan, mongodow selatan, Kec. Bolaang, Kabupaten Bolaang Mongondow Selatan, Sulawesi Utara 95774";"mongodow selatan, Kec. Bolaang, Kabupaten Bolaang Mongondow Selatan";"SULAWESI UTARA";"95774";"Indonesia";" 081524846253";"";"";"0.3218918";"123.5681504";"https://maps.google.com/?cid=0x0:0xd734f3aff6733cac";""
"toko bangunan";"Toko Bahan Bangunan";"Toko Sumber Bangunan Pineleng";"CRGQ+VCG, Jl. Raya Manado Tomohon, Pineleng I, Kec. Pineleng, Kabupaten Minahasa, Sulawesi Utara";"Kabupaten Minahasa, Sulawesi Utara";"SULAWESI UTARA";"";"Indonesia";"";"";"";"1.4271958";"124.8385828";"https://maps.google.com/?cid=0x0:0x5bfd3a32058d5029";""
"toko bangunan";"Kios";"Kios Kapur";"R663+2PV, Jl. Inobonto - Kotamobagu, Komangaan, Kec. Bolaang, Kabupaten Bolaang Mongondow, Sulawesi Utara";"Kabupaten Bolaang Mongondow, Sulawesi Utara";"SULAWESI UTARA";"";"Indonesia";" 085342563065";"";"";"0.8101228";"124.2042828";"https://maps.google.com/?cid=0x0:0xd7c25a94bb816b29";""
"toko bangunan";"Pasar bahan bangunan";"Toko Bangunan Wapon Jaya";"Jl. Sea induk, Sea I, Kec. Pineleng, Kabupaten Minahasa, Sulawesi Utara";"Kabupaten Minahasa, Sulawesi Utara";"SULAWESI UTARA";"";"Indonesia";" 085340309099";"";"";"1.4291092";"124.7997913";"https://maps.google.com/?cid=0x0:0x2216e5af37ff6b7a";""
"toko bangunan";"Toko Bahan Bangunan";"Toko Naulas";"W836+F7X, Bolangitang, Kec. Bolang Itang Bar., Kabupaten Bolaang Mongondow Utara, Sulawesi Utara";"Kabupaten Bolaang Mongondow Utara, Sulawesi Utara";"SULAWESI UTARA";"";"Indonesia";"";"";"";"0.9037345";"123.3107313";"https://maps.google.com/?cid=0x0:0x77429f25fd08e7ea";""
"toko bangunan";"Pasar bahan bangunan";"toko bangunan usaha immanuel";"P96P+4F7, Modayag, Kec. Modayag, Kabupaten Bolaang Mongondow Timur, Sulawesi Utara";"Kabupaten Bolaang Mongondow Timur, Sulawesi Utara";"SULAWESI UTARA";"";"Indonesia";" 085756658246";"";"";"0.7103444";"124.3862345";"https://maps.google.com/?cid=0x0:0xb9e2ffd8f4205bc1";""
"toko bangunan";"Minimarket";"Toko bangunan";"FC3P+2C6, Modisi, Kec. Pinolosian Tim., Kabupaten Bolaang Mongondow Selatan, Sulawesi Utara";"Kabupaten Bolaang Mongondow Selatan, Sulawesi Utara";"SULAWESI UTARA";"";"Indonesia";" 085658741232";"";"";"0.4534033";"124.4372044";"https://maps.google.com/?cid=0x0:0x2f8d72c1be60ff49";""
"toko bangunan";"Minimarket";"Kios Liani";"Jl. Siswa No.3, Modisi, Kec. Pinolosian Tim., Kabupaten Bolaang Mongondow Selatan, Sulawesi Utara 95775";"Modisi, Kec. Pinolosian Tim., Kabupaten Bolaang Mongondow Selatan";"SULAWESI UTARA";"95775";"Indonesia";"";"";"";"0.4530895";"124.4360397";"https://maps.google.com/?cid=0x0:0xd7ad6d3529f1fcab";""
"toko bangunan";"Minimarket";"Toko bangunan";"FC3P+2C6, Modisi, Kec. Pinolosian Tim., Kabupaten Bolaang Mongondow Selatan, Sulawesi Utara";"Kabupaten Bolaang Mongondow Selatan, Sulawesi Utara";"SULAWESI UTARA";"";"Indonesia";" 085658741232";"";"";"0.4534033";"124.4372044";"https://maps.google.com/?cid=0x0:0x2f8d72c1be60ff49";""
"toko bangunan";"Minimarket";"Kios Liani";"Jl. Siswa No.3, Modisi, Kec. Pinolosian Tim., Kabupaten Bolaang Mongondow Selatan, Sulawesi Utara 95775";"Modisi, Kec. Pinolosian Tim., Kabupaten Bolaang Mongondow Selatan";"SULAWESI UTARA";"95775";"Indonesia";"";"";"";"0.4530895";"124.4360397";"https://maps.google.com/?cid=0x0:0xd7ad6d3529f1fcab";""
"toko bangunan";"Grosir";"TK REZA PRIMA";"8HC9+Q65, Jl. Trans Sulawesi, Momalia II, Kec. Posigadan, Kabupaten Bolaang Mongondow Selatan, Sulawesi Utara";"Kabupaten Bolaang Mongondow Selatan, Sulawesi Utara";"SULAWESI UTARA";"";"Indonesia";" 085796159799";"";"";"0.3218909";"123.5681013";"https://maps.google.com/?cid=0x0:0x713d3ff248ca1c50";""
"toko bangunan";"Toko umum";"Reza Prima -TOKO BAHAN BANGUNAN";"Jln trans sulawesi desa momalia II kecamatan posigadan, mongodow selatan, Kec. Bolaang, Kabupaten Bolaang Mongondow Selatan, Sulawesi Utara 95774";"mongodow selatan, Kec. Bolaang, Kabupaten Bolaang Mongondow Selatan";"SULAWESI UTARA";"95774";"Indonesia";" 081524846253";"";"";"0.3218918";"123.5681504";"https://maps.google.com/?cid=0x0:0xd734f3aff6733cac";""
"toko bangunan";"toko bangunan";"Sulawesi Utara 95774";"Momalia I, Kec. Posigadan, Kabupaten Bolaang Mongondow Selatan, Sulawesi Utara";"Kabupaten Bolaang Mongondow Selatan, Sulawesi Utara";"SULAWESI UTARA";"";"Indonesia";"";"";"";"0.3179007";"123.5774024";"https://maps.google.com/?cid=0x0:0xe8ed2e820dc45687";""
"toko bangunan";"Gudang";"Toko Bahan Bangunan BOROBUDUR";"Q853+V3G, Passi II, Kec. Passi Bar., Kabupaten Bolaang Mongondow, Sulawesi Utara";"Kabupaten Bolaang Mongondow, Sulawesi Utara";"SULAWESI UTARA";"";"Indonesia";"";"";"";"0.7596792";"124.3027097";"https://maps.google.com/?cid=0x0:0x5d850252030234be";""
"toko bangunan";"Toko Bahan Bangunan";"TOKO SANDIK JAYA BANGUNAN";"HXFP+H54, Unnamed Road, Mopuya Utara, Kec. Dumoga Utara, Kabupaten Bolaang Mongondow, Sulawesi Utara";"Kabupaten Bolaang Mongondow, Sulawesi Utara";"SULAWESI UTARA";"";"Indonesia";" 081340377799";"";"";"0.5738776";"123.9854565";"https://maps.google.com/?cid=0x0:0xab61f06dc1f54b10";""
"toko bangunan";"Minimarket";"Toko bangunan";"FC3P+2C6, Modisi, Kec. Pinolosian Tim., Kabupaten Bolaang Mongondow Selatan, Sulawesi Utara";"Kabupaten Bolaang Mongondow Selatan, Sulawesi Utara";"SULAWESI UTARA";"";"Indonesia";" 085658741232";"";"";"0.4534033";"124.4372044";"https://maps.google.com/?cid=0x0:0x2f8d72c1be60ff49";""
"toko bangunan";"Toko";"Toko Fadilah";"X7XP+9X8, Poigar II, Kec. Poigar, Kabupaten Bolaang Mongondow, Sulawesi Utara";"Kabupaten Bolaang Mongondow, Sulawesi Utara";"SULAWESI UTARA";"";"Indonesia";"";"";"";"0.9984053";"124.2874415";"https://maps.google.com/?cid=0x0:0x14fbfbc4598e73a0";""
"toko bangunan";"Toko Bahan Bangunan";"Toko Bangunan Dipta";"W55R+77X, Jl. Trans-Sulawesi, Tuntung Tim., Kec. Pinogaluman, Kabupaten Bolaang Mongondow Utara, Sulawesi Utara";"Kabupaten Bolaang Mongondow Utara, Sulawesi Utara";"SULAWESI UTARA";"";"Indonesia";"";"";"";"0.9082313";"123.1907257";"https://maps.google.com/?cid=0x0:0x8804fc0c16f5667c";""
"toko bangunan";"Pasar bahan bangunan";"toko bangunan usaha immanuel";"P96P+4F7, Modayag, Kec. Modayag, Kabupaten Bolaang Mongondow Timur, Sulawesi Utara";"Kabupaten Bolaang Mongondow Timur, Sulawesi Utara";"SULAWESI UTARA";"";"Indonesia";" 085756658246";"";"";"0.7103444";"124.3862345";"https://maps.google.com/?cid=0x0:0xb9e2ffd8f4205bc1";""
"toko bangunan";"Toko Bahan Bangunan";"Toko Bintang Bangunan Pobundayan";"P874+R63, Jl. DC. Manoppo, Pobundayan, Kec. Kotamobagu Sel., Kota Kotamobagu, Sulawesi Utara";"Kota Kotamobagu, Sulawesi Utara";"SULAWESI UTARA";"";"Indonesia";" 08124299389";"";"";"0.7144986";"124.3053012";"https://maps.google.com/?cid=0x0:0x2939644c33cc6b03";""
"toko bangunan";"Toko Bahan Bangunan";"Toko bahan bangunan";"MHG7+VJQ, Jl. Ratahan - Kotamobagu, Motongkad, Kec. Nuangan, Kabupaten Bolaang Mongondow Timur, Sulawesi Utara";"Kabupaten Bolaang Mongondow Timur, Sulawesi Utara";"SULAWESI UTARA";"";"Indonesia";"";"";"";"0.6772249";"124.5640951";"https://maps.google.com/?cid=0x0:0x3e712dc6efe5c308";""
"toko bangunan";"Toko Perlengkapan Rumah";"Toko Bangunan UD.Fadhil";"RM44+R47, Jl. Ratahan - Kotamobagu, Kotabunan, Kabupaten Bolaang Mongondow Timur, Sulawesi Utara";"Kabupaten Bolaang Mongondow Timur, Sulawesi Utara";"SULAWESI UTARA";"";"Indonesia";"";"";"";"0.8070264";"124.6553068";"https://maps.google.com/?cid=0x0:0x93a4f968aa67105";""
"toko bangunan";"Toko Bahan Bangunan";"Toko Naulas";"W836+F7X, Bolangitang, Kec. Bolang Itang Bar., Kabupaten Bolaang Mongondow Utara, Sulawesi Utara";"Kabupaten Bolaang Mongondow Utara, Sulawesi Utara";"SULAWESI UTARA";"";"Indonesia";"";"";"";"0.9037345";"123.3107313";"https://maps.google.com/?cid=0x0:0x77429f25fd08e7ea";""
"toko bangunan";"Toko Bahan Bangunan";"UD.SINAR NAJWA";"Jalan Trans Sulawesi Manado Gorontalo.36, Keakar, Dusun 1, Boroko, Kec. Kaidipang, Kabupaten Bolaang Mongondow Utara, Sulawesi Utara";"Kabupaten Bolaang Mongondow Utara, Sulawesi Utara";"SULAWESI UTARA";"";"Indonesia";" 082191655859";"";"";"0.9052344";"123.2556191";"https://maps.google.com/?cid=0x0:0x1b430d379f12d434";""
"toko bangunan";"Toko Elektronik";"Toko dewata motor";"HXCP+27M, Jl. Bogani, Mopuya Sel., Kec. Dumoga Utara, Kabupaten Bolaang Mongondow, Sulawesi Utara";"Kabupaten Bolaang Mongondow, Sulawesi Utara";"SULAWESI UTARA";"";"Indonesia";"";"";"";"0.5700941";"123.9856783";"https://maps.google.com/?cid=0x0:0x4e3c4fe8ecff1ab8";""
"toko bangunan";"toko bangunan";"TOKO SINAR BANGUNAN, milangodaa";"8PFF+4FP, Milangodaa, Kec. Posigadan, Kabupaten Bolaang Mongondow Selatan, Sulawesi Utara";"Kabupaten Bolaang Mongondow Selatan, Sulawesi Utara";"SULAWESI UTARA";"";"Indonesia";" 085757714286";"";"";"0.3228343";"123.7237117";"https://maps.google.com/?cid=0x0:0xbae12257c297c56d";""
"hardware store";"Kantor Perusahaan";"Kuma Hardware Store";"Jl. Trans-Sulawesi, Tandu, Kec. Lolak, Kabupaten Bolaang Mongondow, Sulawesi Utara 95761";"Tandu, Kec. Lolak, Kabupaten Bolaang Mongondow";"SULAWESI UTARA";"95761";"Indonesia";" 082244559590";"";"";"0.8763154";"124.0749894";"https://maps.google.com/?cid=0x0:0xc937b5a48781fcf8";""
"hardware store";"Percetakan Komersial";"I-Home Bolmong digital printing  offset";"V2JM+QQV, Jl. Trans-Sulawesi, Lolak Tambolango, Kec. Lolak, Kabupaten Bolaang Mongondow, Sulawesi Utara";"Kabupaten Bolaang Mongondow, Sulawesi Utara";"SULAWESI UTARA";"";"Indonesia";" 085299959990";"";"";"0.8819863";"124.0344101";"https://maps.google.com/?cid=0x0:0xa02b031e2dce8dce";""
"hardware store";"hardware store";"Kec. Bolaang Uki";"Kabupaten Bolaang Mongondow Selatan, Sulawesi Utara";"Kabupaten Bolaang Mongondow Selatan, Sulawesi Utara";"SULAWESI UTARA";"";"Indonesia";"";"";"";"0.3828564";"123.9828414";"https://maps.google.com/?cid=0x0:0xe21c23fc1263f3c5";""
"hardware store";"Toko Perlengkapan Rumah";"Grand Hardware";"Komplek Marina Plaza Blok B No. 7-10, Jl. Piere Tendean Boulevard,manado, Manado, Sulawesi Utara, 95111";"Jl. Piere Tendean Boulevard,manado, Manado";"SULAWESI UTARA";"95111";"Indonesia";" 085255443510";"";"";"1.4924543";"124.838346";"https://maps.google.com/?cid=0x0:0x513c63d19209ca5";""
"hardware store";"Percetakan Komersial";"Qiana Printing";"Duminanga, Kecamatan Helumo, Kabupaten Bolaang Mongondow Selatan, Sulawesi Utara 95774";"Kecamatan Helumo, Kabupaten Bolaang Mongondow Selatan";"SULAWESI UTARA";"95774";"Indonesia";" 082188333347";"";"";"0.3423005";"123.8669068";"https://maps.google.com/?cid=0x0:0xbb2fbff69bf1bb4c";""
"hardware store";"Sekolah Menengah Umum";"SMA NEGERI 1 BOLAANG UKI";"9XPJ+WGP, Molibagu, Kec. Bolaang Uki, Kabupaten Bolaang Mongondow Selatan, Sulawesi Utara";"Kabupaten Bolaang Mongondow Selatan, Sulawesi Utara";"SULAWESI UTARA";"";"Indonesia";" 04342629511";"";"";"0.3873319";"123.9813326";"https://maps.google.com/?cid=0x0:0xdd36eb29374bae6b";""
"hardware store";"Minimarket";"Toko bangunan";"FC3P+2C6, Modisi, Kec. Pinolosian Tim., Kabupaten Bolaang Mongondow Selatan, Sulawesi Utara";"Kabupaten Bolaang Mongondow Selatan, Sulawesi Utara";"SULAWESI UTARA";"";"Indonesia";" 085658741232";"";"";"0.4534033";"124.4372044";"https://maps.google.com/?cid=0x0:0x2f8d72c1be60ff49";""
"hardware store";"Minimarket";"Kios Liani";"Jl. Siswa No.3, Modisi, Kec. Pinolosian Tim., Kabupaten Bolaang Mongondow Selatan, Sulawesi Utara 95775";"Modisi, Kec. Pinolosian Tim., Kabupaten Bolaang Mongondow Selatan";"SULAWESI UTARA";"95775";"Indonesia";"";"";"";"0.4530895";"124.4360397";"https://maps.google.com/?cid=0x0:0xd7ad6d3529f1fcab";""
"hardware store";"hardware store";"Pinolosian";"Kec. Pinolosian, Kabupaten Bolaang Mongondow Selatan, Sulawesi Utara";"Kabupaten Bolaang Mongondow Selatan, Sulawesi Utara";"SULAWESI UTARA";"";"Indonesia";"";"";"";"0.4686331";"124.1058963";"https://maps.google.com/?cid=0x0:0xf5109e6126637104";""
"hardware store";"Minimarket";"Toko bangunan";"FC3P+2C6, Modisi, Kec. Pinolosian Tim., Kabupaten Bolaang Mongondow Selatan, Sulawesi Utara";"Kabupaten Bolaang Mongondow Selatan, Sulawesi Utara";"SULAWESI UTARA";"";"Indonesia";" 085658741232";"";"";"0.4534033";"124.4372044";"https://maps.google.com/?cid=0x0:0x2f8d72c1be60ff49";""
"hardware store";"Minimarket";"Kios Liani";"Jl. Siswa No.3, Modisi, Kec. Pinolosian Tim., Kabupaten Bolaang Mongondow Selatan, Sulawesi Utara 95775";"Modisi, Kec. Pinolosian Tim., Kabupaten Bolaang Mongondow Selatan";"SULAWESI UTARA";"95775";"Indonesia";"";"";"";"0.4530895";"124.4360397";"https://maps.google.com/?cid=0x0:0xd7ad6d3529f1fcab";""
"hardware store";"hardware store";"Kec. Pinolosian Tengah";"Kabupaten Bolaang Mongondow Selatan, Sulawesi Utara";"Kabupaten Bolaang Mongondow Selatan, Sulawesi Utara";"SULAWESI UTARA";"";"Indonesia";"";"";"";"0.4814411";"124.2643871";"https://maps.google.com/?cid=0x0:0x202271dfbca50638";""
"hardware store";"Minimarket";"Toko bangunan";"FC3P+2C6, Modisi, Kec. Pinolosian Tim., Kabupaten Bolaang Mongondow Selatan, Sulawesi Utara";"Kabupaten Bolaang Mongondow Selatan, Sulawesi Utara";"SULAWESI UTARA";"";"Indonesia";" 085658741232";"";"";"0.4534033";"124.4372044";"https://maps.google.com/?cid=0x0:0x2f8d72c1be60ff49";""
"hardware store";"Minimarket";"Kios Liani";"Jl. Siswa No.3, Modisi, Kec. Pinolosian Tim., Kabupaten Bolaang Mongondow Selatan, Sulawesi Utara 95775";"Modisi, Kec. Pinolosian Tim., Kabupaten Bolaang Mongondow Selatan";"SULAWESI UTARA";"95775";"Indonesia";"";"";"";"0.4530895";"124.4360397";"https://maps.google.com/?cid=0x0:0xd7ad6d3529f1fcab";""
"hardware store";"hardware store";"Sulawesi Utara 95775";"Modisi, Kec. Pinolosian Tim., Kabupaten Bolaang Mongondow Selatan, Sulawesi Utara";"Kabupaten Bolaang Mongondow Selatan, Sulawesi Utara";"SULAWESI UTARA";"";"Indonesia";"";"";"";"0.4528494";"124.4356892";"https://maps.google.com/?cid=0x0:0x5956b774c20081f1";""
"hardware store";"Toko";"Toko GRAND HARDWARE";"CXJH+22P, Sarongsong I, Kec. Airmadidi, Kabupaten Minahasa Utara, Sulawesi Utara";"Kabupaten Minahasa Utara, Sulawesi Utara";"SULAWESI UTARA";"";"Indonesia";"";"";"";"1.4300932";"124.9775741";"https://maps.google.com/?cid=0x0:0xd5bea6e4e94329b1";""
"hardware store";"Toko Swalayan";"Toko Grand";"CXFH+RV4, Pasar, Airmadidi Atas, Kec. Airmadidi, Manado, Sulawesi Utara 95371";"Pasar, Airmadidi Atas, Kec. Airmadidi, Manado";"SULAWESI UTARA";"95371";"Indonesia";" 081617151289";"";"";"1.4245104";"124.9797052";"https://maps.google.com/?cid=0x0:0x817a9599f52c4d18";""
"hardware store";"Toko Perlengkapan Rumah";"Grand Hardware";"Komplek Marina Plaza Blok B No. 7-10, Jl. Piere Tendean Boulevard,manado, Manado, Sulawesi Utara, 95111";"Jl. Piere Tendean Boulevard,manado, Manado";"SULAWESI UTARA";"95111";"Indonesia";" 085255443510";"";"";"1.4924543";"124.838346";"https://maps.google.com/?cid=0x0:0x513c63d19209ca5";""
"hardware store";"hardware store";"Sulawesi Utara 95774";"Momalia I, Kec. Posigadan, Kabupaten Bolaang Mongondow Selatan, Sulawesi Utara";"Kabupaten Bolaang Mongondow Selatan, Sulawesi Utara";"SULAWESI UTARA";"";"Indonesia";"";"";"";"0.3179007";"123.5774024";"https://maps.google.com/?cid=0x0:0xe8ed2e820dc45687";""
"hardware store";"hardware store";"Kec. Tebet";"Kota Jakarta Selatan, Daerah Khusus Ibukota Jakarta";"Kota Jakarta Selatan, Daerah Khusus Ibukota Jakarta";"SULAWESI UTARA";"";"Indonesia";"";"";"";"-6.2251223";"106.8549881";"https://maps.google.com/?cid=0x0:0xd575e31c807295f9";""
"home improvement";"home improvement";"Sulawesi Utara 95774";"Momalia I, Kec. Posigadan, Kabupaten Bolaang Mongondow Selatan, Sulawesi Utara";"Kabupaten Bolaang Mongondow Selatan, Sulawesi Utara";"SULAWESI UTARA";"";"Indonesia";"";"";"";"0.3179007";"123.5774024";"https://maps.google.com/?cid=0x0:0xe8ed2e820dc45687";""
"home improvement";"home improvement";"Kec. Tebet";"Kota Jakarta Selatan, Daerah Khusus Ibukota Jakarta";"Kota Jakarta Selatan, Daerah Khusus Ibukota Jakarta";"SULAWESI UTARA";"";"Indonesia";"";"";"";"-6.2251223";"106.8549881";"https://maps.google.com/?cid=0x0:0xd575e31c807295f9";""
"home improvement";"home improvement";"Kec. Bolaang Uki";"Kabupaten Bolaang Mongondow Selatan, Sulawesi Utara";"Kabupaten Bolaang Mongondow Selatan, Sulawesi Utara";"SULAWESI UTARA";"";"Indonesia";"";"";"";"0.3828564";"123.9828414";"https://maps.google.com/?cid=0x0:0xe21c23fc1263f3c5";""
"home improvement";"home improvement";"Sulawesi Utara 95775";"Modisi, Kec. Pinolosian Tim., Kabupaten Bolaang Mongondow Selatan, Sulawesi Utara";"Kabupaten Bolaang Mongondow Selatan, Sulawesi Utara";"SULAWESI UTARA";"";"Indonesia";"";"";"";"0.4528494";"124.4356892";"https://maps.google.com/?cid=0x0:0x5956b774c20081f1";""
"home improvement";"Toko Bahan Bangunan";"PRO AS HOME CENTER";"P7FR+WMJ, Mongondow, Kec. Kotamobagu Sel., Kota Kotamobagu, Sulawesi Utara 95716";"Mongondow, Kec. Kotamobagu Sel., Kota Kotamobagu";"SULAWESI UTARA";"95716";"Indonesia";"";"";"";"0.7325748";"124.2949183";"https://maps.google.com/?cid=0x0:0xdbd23c615ac9195c";""
"home improvement";"Rumah Kayu";"Home Imaa";"VCQ5+PCP, Jl suplir, dusun 4, Saleo Satu, Kec. Bolang Itang Tim., Kabupaten Bolaang Mongondow Utara, Sulawesi Utara";"Kabupaten Bolaang Mongondow Utara, Sulawesi Utara";"SULAWESI UTARA";"";"Indonesia";"";"";"";"0.88933";"123.4085788";"https://maps.google.com/?cid=0x0:0x8153c51dd86923f9";""
"home improvement";"Rumah Kayu";"Brill Home";"F94M+GVC, Dumagin A, Kec. Pinolosian Tim., Kabupaten Bolaang Mongondow Selatan, Sulawesi Utara";"Kabupaten Bolaang Mongondow Selatan, Sulawesi Utara";"SULAWESI UTARA";"";"Indonesia";"";"";"";"0.4563125";"124.3846406";"https://maps.google.com/?cid=0x0:0xe531db8bfb2138c1";""
"home improvement";"Bar";"Home Nicky";"F96J+R63, Dumagin B, Kec. Pinolosian Tim., Kabupaten Bolaang Mongondow Selatan, Sulawesi Utara";"Kabupaten Bolaang Mongondow Selatan, Sulawesi Utara";"SULAWESI UTARA";"";"Indonesia";"";"";"";"0.462003";"124.3805585";"https://maps.google.com/?cid=0x0:0xfb68fbdb80aad39a";""
"home improvement";"Komplek perumahan";"Christian home";"FCH8+PJ8, Trans Sulawesi Torosik-Onggunoi, Onggunoi, Kec. Pinolosian Tim., Kabupaten Bolaang Mongondow Selatan, Sulawesi Utara";"Kabupaten Bolaang Mongondow Selatan, Sulawesi Utara";"SULAWESI UTARA";"";"Indonesia";"";"";"";"0.4797031";"124.4165548";"https://maps.google.com/?cid=0x0:0xf05194450acf8591";""
"home improvement";"Hostel";"DIN HOME";"F96J+6QR, Dumagin B, Kec. Pinolosian Tim., Kabupaten Bolaang Mongondow Selatan, Sulawesi Utara";"Kabupaten Bolaang Mongondow Selatan, Sulawesi Utara";"SULAWESI UTARA";"";"Indonesia";"";"";"";"0.4606166";"124.381882";"https://maps.google.com/?cid=0x0:0xb4a7df2d7efba528";""
"home improvement";"Klub Malam";"Fhais Home";"M7MG+844, Jl. Raya Desa, Mopait, Kec. Lolayan, Kabupaten Bolaang Mongondow, Sulawesi Utara";"Kabupaten Bolaang Mongondow, Sulawesi Utara";"SULAWESI UTARA";"";"Indonesia";"";"";"";"0.6832562";"124.2753364";"https://maps.google.com/?cid=0x0:0x43afa2e19563032b";""
"home improvement";"Rumah Kayu";"Home poluan karisoh";"H3CM+M9, Pinonobatuan Bar., Kec. Dumoga Tim., Kabupaten Bolaang Mongondow, Sulawesi Utara";"Kabupaten Bolaang Mongondow, Sulawesi Utara";"SULAWESI UTARA";"";"Indonesia";"";"";"";"0.5716989";"124.0835111";"https://maps.google.com/?cid=0x0:0xfe86bebd25327e0c";""
"home improvement";"Perhimpunan Pengembang Perumahan";"Home";"Mariri II, Kec. Poigar, Kabupaten Bolaang Mongondow, Sulawesi Utara 95753";"Kec. Poigar, Kabupaten Bolaang Mongondow";"SULAWESI UTARA";"95753";"Indonesia";"";"";"";"0.9594088";"124.1886782";"https://maps.google.com/?cid=0x0:0xaf92fe578789429c";""
"home improvement";"Tujuan Wisata";"HOME";"W767+969, Boroko, Kec. Kaidipang, Kabupaten Bolaang Mongondow Utara, Sulawesi Utara";"Kabupaten Bolaang Mongondow Utara, Sulawesi Utara";"SULAWESI UTARA";"";"Indonesia";"";"";"";"0.9109464";"123.2628136";"https://maps.google.com/?cid=0x0:0x494b84750eb76ae3";""
"home improvement";"Rumah Kayu";"Home MEX";"RC47+323, Unnamed Road, Sinsingon, Kec. Passi Tim., Kabupaten Bolaang Mongondow, Sulawesi Utara";"Kabupaten Bolaang Mongondow, Sulawesi Utara";"SULAWESI UTARA";"";"Indonesia";" +81527999386";"";"";"0.8051393";"124.4125357";"https://maps.google.com/?cid=0x0:0xa140d5e03855c581";""
"home improvement";"Pembangunan Perumahan";"Prince Home";"QC9X+VQH, Guaan, Kec. Modayag, Kabupaten Bolaang Mongondow Timur, Sulawesi Utara";"Kabupaten Bolaang Mongondow Timur, Sulawesi Utara";"SULAWESI UTARA";"";"Indonesia";"";"";"";"0.7696756";"124.4494755";"https://maps.google.com/?cid=0x0:0xd57e159223cd39b";""
"home improvement";"home improvement";"Julia Home Store";"94W8+WMG, Dusun 2, Pinolosian Sel., Kec. Pinolosian, Kabupaten Bolaang Mongondow Selatan, Sulawesi Utara";"Kabupaten Bolaang Mongondow Selatan, Sulawesi Utara";"SULAWESI UTARA";"";"Indonesia";" 085298802015";"";"";"0.3973221";"124.116718";"https://maps.google.com/?cid=0x0:0xcab9d7bc809c7cad";""
"home improvement";"home improvement";"Pinolosian";"Kec. Pinolosian, Kabupaten Bolaang Mongondow Selatan, Sulawesi Utara";"Kabupaten Bolaang Mongondow Selatan, Sulawesi Utara";"SULAWESI UTARA";"";"Indonesia";"";"";"";"0.4686331";"124.1058963";"https://maps.google.com/?cid=0x0:0xf5109e6126637104";""
"home improvement";"home improvement";"Sulawesi Utara 95775";"Modisi, Kec. Pinolosian Tim., Kabupaten Bolaang Mongondow Selatan, Sulawesi Utara";"Kabupaten Bolaang Mongondow Selatan, Sulawesi Utara";"SULAWESI UTARA";"";"Indonesia";"";"";"";"0.4528494";"124.4356892";"https://maps.google.com/?cid=0x0:0x5956b774c20081f1";""
"home improvement";"Bar";"Home Nicky";"F96J+R63, Dumagin B, Kec. Pinolosian Tim., Kabupaten Bolaang Mongondow Selatan, Sulawesi Utara";"Kabupaten Bolaang Mongondow Selatan, Sulawesi Utara";"SULAWESI UTARA";"";"Indonesia";"";"";"";"0.462003";"124.3805585";"https://maps.google.com/?cid=0x0:0xfb68fbdb80aad39a";""
"home improvement";"Minimarket";"Toko bangunan";"FC3P+2C6, Modisi, Kec. Pinolosian Tim., Kabupaten Bolaang Mongondow Selatan, Sulawesi Utara";"Kabupaten Bolaang Mongondow Selatan, Sulawesi Utara";"SULAWESI UTARA";"";"Indonesia";" 085658741232";"";"";"0.4534033";"124.4372044";"https://maps.google.com/?cid=0x0:0x2f8d72c1be60ff49";""
"home improvement";"Klub Malam";"Fhais Home";"M7MG+844, Jl. Raya Desa, Mopait, Kec. Lolayan, Kabupaten Bolaang Mongondow, Sulawesi Utara";"Kabupaten Bolaang Mongondow, Sulawesi Utara";"SULAWESI UTARA";"";"Indonesia";"";"";"";"0.6832562";"124.2753364";"https://maps.google.com/?cid=0x0:0x43afa2e19563032b";""
"home improvement";"home improvement";"Kec. Pinolosian Tengah";"Kabupaten Bolaang Mongondow Selatan, Sulawesi Utara";"Kabupaten Bolaang Mongondow Selatan, Sulawesi Utara";"SULAWESI UTARA";"";"Indonesia";"";"";"";"0.4814411";"124.2643871";"https://maps.google.com/?cid=0x0:0x202271dfbca50638";""
"home improvement";"home improvement";"Sulawesi Utara 95775";"Modisi, Kec. Pinolosian Tim., Kabupaten Bolaang Mongondow Selatan, Sulawesi Utara";"Kabupaten Bolaang Mongondow Selatan, Sulawesi Utara";"SULAWESI UTARA";"";"Indonesia";"";"";"";"0.4528494";"124.4356892";"https://maps.google.com/?cid=0x0:0x5956b774c20081f1";""
"home improvement";"Rumah Kayu";"Brill Home";"F94M+GVC, Dumagin A, Kec. Pinolosian Tim., Kabupaten Bolaang Mongondow Selatan, Sulawesi Utara";"Kabupaten Bolaang Mongondow Selatan, Sulawesi Utara";"SULAWESI UTARA";"";"Indonesia";"";"";"";"0.4563125";"124.3846406";"https://maps.google.com/?cid=0x0:0xe531db8bfb2138c1";""
"home improvement";"Minimarket";"Toko bangunan";"FC3P+2C6, Modisi, Kec. Pinolosian Tim., Kabupaten Bolaang Mongondow Selatan, Sulawesi Utara";"Kabupaten Bolaang Mongondow Selatan, Sulawesi Utara";"SULAWESI UTARA";"";"Indonesia";" 085658741232";"";"";"0.4534033";"124.4372044";"https://maps.google.com/?cid=0x0:0x2f8d72c1be60ff49";""
"home improvement";"Komplek perumahan";"Christian home";"FCH8+PJ8, Trans Sulawesi Torosik-Onggunoi, Onggunoi, Kec. Pinolosian Tim., Kabupaten Bolaang Mongondow Selatan, Sulawesi Utara";"Kabupaten Bolaang Mongondow Selatan, Sulawesi Utara";"SULAWESI UTARA";"";"Indonesia";"";"";"";"0.4797031";"124.4165548";"https://maps.google.com/?cid=0x0:0xf05194450acf8591";""
"home improvement";"Hostel";"DIN HOME";"F96J+6QR, Dumagin B, Kec. Pinolosian Tim., Kabupaten Bolaang Mongondow Selatan, Sulawesi Utara";"Kabupaten Bolaang Mongondow Selatan, Sulawesi Utara";"SULAWESI UTARA";"";"Indonesia";"";"";"";"0.4606166";"124.381882";"https://maps.google.com/?cid=0x0:0xb4a7df2d7efba528";""
"home improvement";"Rumah Kayu";"Home Imaa";"VCQ5+PCP, Jl suplir, dusun 4, Saleo Satu, Kec. Bolang Itang Tim., Kabupaten Bolaang Mongondow Utara, Sulawesi Utara";"Kabupaten Bolaang Mongondow Utara, Sulawesi Utara";"SULAWESI UTARA";"";"Indonesia";"";"";"";"0.88933";"123.4085788";"https://maps.google.com/?cid=0x0:0x8153c51dd86923f9";""
"home improvement";"Kamar Mandi Umum";"Toilet Siswa";"FC2P+GH, Modisi, Kec. Pinolosian Tim., Kabupaten Bolaang Mongondow Selatan, Sulawesi Utara";"Kabupaten Bolaang Mongondow Selatan, Sulawesi Utara";"SULAWESI UTARA";"";"Indonesia";"";"";"";"0.4520508";"124.4362744";"https://maps.google.com/?cid=0x0:0xc72f1496285feed1";""
"home improvement";"Klub Malam";"Fhais Home";"M7MG+844, Jl. Raya Desa, Mopait, Kec. Lolayan, Kabupaten Bolaang Mongondow, Sulawesi Utara";"Kabupaten Bolaang Mongondow, Sulawesi Utara";"SULAWESI UTARA";"";"Indonesia";"";"";"";"0.6832562";"124.2753364";"https://maps.google.com/?cid=0x0:0x43afa2e19563032b";""
"home improvement";"Restoran";"Kedai Tomini";"8PCQ+VJ, Nunuka Raya, Kec. Posigadan, Kabupaten Bolaang Mongondow Selatan, Sulawesi Utara";"Kabupaten Bolaang Mongondow Selatan, Sulawesi Utara";"SULAWESI UTARA";"";"Indonesia";"";"";"";"0.3225668";"123.7389803";"https://maps.google.com/?cid=0x0:0xaa52fb10d88d2548";""
"home improvement";"Indonesia";"Home Gintulangi Djauhari";"8PFM+JW9, Tolutu, Kec. Posigadan, Kabupaten Bolaang Mongondow Selatan, Sulawesi Utara";"Kabupaten Bolaang Mongondow Selatan, Sulawesi Utara";"SULAWESI UTARA";"";"Indonesia";"";"";"";"0.3239344";"123.73487";"https://maps.google.com/?cid=0x0:0x74a0dbaa916d4881";""
"home improvement";"home improvement";"Sulawesi Utara 95774";"Momalia I, Kec. Posigadan, Kabupaten Bolaang Mongondow Selatan, Sulawesi Utara";"Kabupaten Bolaang Mongondow Selatan, Sulawesi Utara";"SULAWESI UTARA";"";"Indonesia";"";"";"";"0.3179007";"123.5774024";"https://maps.google.com/?cid=0x0:0xe8ed2e820dc45687";""
"hotel";"hotel";"Sulawesi Utara 95774";"Momalia I, Kec. Posigadan, Kabupaten Bolaang Mongondow Selatan, Sulawesi Utara";"Kabupaten Bolaang Mongondow Selatan, Sulawesi Utara";"SULAWESI UTARA";"";"Indonesia";"";"";"";"0.3179007";"123.5774024";"https://maps.google.com/?cid=0x0:0xe8ed2e820dc45687";""
"hotel";"hotel";"Hotel Mulia Lolak";"Jl. Trans-Sulawesi, Lalow, Kec. Lolak, Kabupaten Bolaang Mongondow, Sulawesi Utara";"Kabupaten Bolaang Mongondow, Sulawesi Utara";"SULAWESI UTARA";"";"Indonesia";" 085298113269";"";"";"0.882613";"124.0267222";"https://maps.google.com/?cid=0x0:0x7cf22d3b0f737f84";""
"hotel";"hotel";"New Kendy's Hotel";"Jl. Trans-Sulawesi, Lalow, Kec. Lolak, Kabupaten Bolaang Mongondow, Sulawesi Utara";"Kabupaten Bolaang Mongondow, Sulawesi Utara";"SULAWESI UTARA";"";"Indonesia";" 04342623531";"";"";"0.882084";"124.0318867";"https://maps.google.com/?cid=0x0:0xc533c7e47c683f5";""
"hotel";"hotel";"Fhie Homestay";"Popodu, Kec. Bolaang Uki, Kabupaten Bolaang Mongondow Selatan, Sulawesi Utara 95774";"Kec. Bolaang Uki, Kabupaten Bolaang Mongondow Selatan";"SULAWESI UTARA";"95774";"Indonesia";" 081241326800";"";"";"0.3772941";"123.9891732";"https://maps.google.com/?cid=0x0:0x57b104c2d1bc4c8";""
"hotel";"hotel";"Bogani-Cottages";"Biniha Tim., Kec. Bolaang Uki, Kabupaten Bolaang Mongondow Selatan, Sulawesi Utara";"Kabupaten Bolaang Mongondow Selatan, Sulawesi Utara";"SULAWESI UTARA";"";"Indonesia";" 082188093264";"";"";"0.348852";"123.8900173";"https://maps.google.com/?cid=0x0:0x63f61934ef33b56e";""
"hotel";"hotel";"Sulawesi Utara 95775";"Modisi, Kec. Pinolosian Tim., Kabupaten Bolaang Mongondow Selatan, Sulawesi Utara";"Kabupaten Bolaang Mongondow Selatan, Sulawesi Utara";"SULAWESI UTARA";"";"Indonesia";"";"";"";"0.4528494";"124.4356892";"https://maps.google.com/?cid=0x0:0x5956b774c20081f1";""
"hotel";"hotel";"Hotel Mulia Lolak";"Jl. Trans-Sulawesi, Lalow, Kec. Lolak, Kabupaten Bolaang Mongondow, Sulawesi Utara";"Kabupaten Bolaang Mongondow, Sulawesi Utara";"SULAWESI UTARA";"";"Indonesia";" 085298113269";"";"";"0.882613";"124.0267222";"https://maps.google.com/?cid=0x0:0x7cf22d3b0f737f84";""
"hotel";"hotel";"Tountemboan Hotel";"Jl. Sam Ratulangi No.110, Tj. Batu, Kec. Sario, Kota Manado, Sulawesi Utara 95116";"Tj. Batu, Kec. Sario, Kota Manado";"SULAWESI UTARA";"95116";"Indonesia";" 0431851117";"";"";"1.4674018";"124.8395495";"https://maps.google.com/?cid=0x0:0x259768f7a36a667b";""
"hotel";"hotel";"Modoinding Lodge";"QCXX+GRR, Jl. Raya, Utara, Pinasungkulan, Kec. Modoinding, Kabupaten Minahasa Selatan, Sulawesi Utara 95358";"Jl. Raya, Utara, Pinasungkulan, Kec. Modoinding, Kabupaten Minahasa Selatan";"SULAWESI UTARA";"95358";"Indonesia";" 0895352812257";"";"";"0.7988503";"124.4495146";"https://maps.google.com/?cid=0x0:0x9f8e7846b8ae1b0e";""
"hotel";"Hotel";"Trisno Hinondaleng";"Jl. Beriman No.3, Modisi, Kec. Pinolosian Tim., Kabupaten Bolaang Mongondow Selatan, Sulawesi Utara 95775";"Modisi, Kec. Pinolosian Tim., Kabupaten Bolaang Mongondow Selatan";"SULAWESI UTARA";"95775";"Indonesia";"";"";"";"0.451593";"124.436077";"https://maps.google.com/?cid=0x0:0xf954349fa44c3195";""
"hotel";"Hotel Resor";"Uyo pamondolang";"FC2P+844, Modisi, Kec. Pinolosian Tim., Kabupaten Bolaang Mongondow Selatan, Sulawesi Utara";"Kabupaten Bolaang Mongondow Selatan, Sulawesi Utara";"SULAWESI UTARA";"";"Indonesia";" 085219760487";"";"";"0.4490891";"124.4343408";"https://maps.google.com/?cid=0x0:0x758c1146d80e5b67";""
"hotel";"hotel";"Pinolosian";"Kec. Pinolosian, Kabupaten Bolaang Mongondow Selatan, Sulawesi Utara";"Kabupaten Bolaang Mongondow Selatan, Sulawesi Utara";"SULAWESI UTARA";"";"Indonesia";"";"";"";"0.4686331";"124.1058963";"https://maps.google.com/?cid=0x0:0xf5109e6126637104";""
"hotel";"hotel";"Fhie Homestay";"Popodu, Kec. Bolaang Uki, Kabupaten Bolaang Mongondow Selatan, Sulawesi Utara 95774";"Kec. Bolaang Uki, Kabupaten Bolaang Mongondow Selatan";"SULAWESI UTARA";"95774";"Indonesia";" 081241326800";"";"";"0.3772941";"123.9891732";"https://maps.google.com/?cid=0x0:0x57b104c2d1bc4c8";""
"hotel";"hotel";"Sulawesi Utara 95775";"Modisi, Kec. Pinolosian Tim., Kabupaten Bolaang Mongondow Selatan, Sulawesi Utara";"Kabupaten Bolaang Mongondow Selatan, Sulawesi Utara";"SULAWESI UTARA";"";"Indonesia";"";"";"";"0.4528494";"124.4356892";"https://maps.google.com/?cid=0x0:0x5956b774c20081f1";""
"hotel";"hotel";"Hotel Mulia Lolak";"Jl. Trans-Sulawesi, Lalow, Kec. Lolak, Kabupaten Bolaang Mongondow, Sulawesi Utara";"Kabupaten Bolaang Mongondow, Sulawesi Utara";"SULAWESI UTARA";"";"Indonesia";" 085298113269";"";"";"0.882613";"124.0267222";"https://maps.google.com/?cid=0x0:0x7cf22d3b0f737f84";""
"hotel";"hotel";"New Kendy's Hotel";"Jl. Trans-Sulawesi, Lalow, Kec. Lolak, Kabupaten Bolaang Mongondow, Sulawesi Utara";"Kabupaten Bolaang Mongondow, Sulawesi Utara";"SULAWESI UTARA";"";"Indonesia";" 04342623531";"";"";"0.882084";"124.0318867";"https://maps.google.com/?cid=0x0:0xc533c7e47c683f5";""
"hotel";"Hotel";"Trisno Hinondaleng";"Jl. Beriman No.3, Modisi, Kec. Pinolosian Tim., Kabupaten Bolaang Mongondow Selatan, Sulawesi Utara 95775";"Modisi, Kec. Pinolosian Tim., Kabupaten Bolaang Mongondow Selatan";"SULAWESI UTARA";"95775";"Indonesia";"";"";"";"0.451593";"124.436077";"https://maps.google.com/?cid=0x0:0xf954349fa44c3195";""
"hotel";"Hotel Resor";"Uyo pamondolang";"FC2P+844, Modisi, Kec. Pinolosian Tim., Kabupaten Bolaang Mongondow Selatan, Sulawesi Utara";"Kabupaten Bolaang Mongondow Selatan, Sulawesi Utara";"SULAWESI UTARA";"";"Indonesia";" 085219760487";"";"";"0.4490891";"124.4343408";"https://maps.google.com/?cid=0x0:0x758c1146d80e5b67";""
"hotel";"hotel";"Sulawesi Utara 95775";"Modisi, Kec. Pinolosian Tim., Kabupaten Bolaang Mongondow Selatan, Sulawesi Utara";"Kabupaten Bolaang Mongondow Selatan, Sulawesi Utara";"SULAWESI UTARA";"";"Indonesia";"";"";"";"0.4528494";"124.4356892";"https://maps.google.com/?cid=0x0:0x5956b774c20081f1";""
"hotel";"hotel";"Lun Hotel Manado";"Jl. Sugiono No.15, Pinaesaan, Kec. Wenang, Kota Manado, Sulawesi Utara 95122";"Pinaesaan, Kec. Wenang, Kota Manado";"SULAWESI UTARA";"95122";"Indonesia";" 04318805807";"";"";"1.4924525";"124.8455141";"https://maps.google.com/?cid=0x0:0x2c221bc57867d689";""
"hotel";"hotel";"N/A";"";"";"SULAWESI UTARA";"";"Indonesia";"";"";"";"";"";"https://maps.google.com/?cid=0x0:0x2c221bc57867d689%7C/g/11rf9y66kk%7Cen-ID";""
"hotel";"hotel";"Tountemboan Hotel";"Jl. Sam Ratulangi No.110, Tj. Batu, Kec. Sario, Kota Manado, Sulawesi Utara 95116";"Tj. Batu, Kec. Sario, Kota Manado";"SULAWESI UTARA";"95116";"Indonesia";" 0431851117";"";"";"1.4674018";"124.8395495";"https://maps.google.com/?cid=0x0:0x259768f7a36a667b";""
"hotel";"hotel";"New Kendy's Hotel";"Jl. Trans-Sulawesi, Lalow, Kec. Lolak, Kabupaten Bolaang Mongondow, Sulawesi Utara";"Kabupaten Bolaang Mongondow, Sulawesi Utara";"SULAWESI UTARA";"";"Indonesia";" 04342623531";"";"";"0.882084";"124.0318867";"https://maps.google.com/?cid=0x0:0xc533c7e47c683f5";""
"hotel";"hotel";"Modoinding Lodge";"QCXX+GRR, Jl. Raya, Utara, Pinasungkulan, Kec. Modoinding, Kabupaten Minahasa Selatan, Sulawesi Utara 95358";"Jl. Raya, Utara, Pinasungkulan, Kec. Modoinding, Kabupaten Minahasa Selatan";"SULAWESI UTARA";"95358";"Indonesia";" 0895352812257";"";"";"0.7988503";"124.4495146";"https://maps.google.com/?cid=0x0:0x9f8e7846b8ae1b0e";""
"hotel";"Hotel";"Trisno Hinondaleng";"Jl. Beriman No.3, Modisi, Kec. Pinolosian Tim., Kabupaten Bolaang Mongondow Selatan, Sulawesi Utara 95775";"Modisi, Kec. Pinolosian Tim., Kabupaten Bolaang Mongondow Selatan";"SULAWESI UTARA";"95775";"Indonesia";"";"";"";"0.451593";"124.436077";"https://maps.google.com/?cid=0x0:0xf954349fa44c3195";""
"hotel";"Hotel Resor";"Uyo pamondolang";"FC2P+844, Modisi, Kec. Pinolosian Tim., Kabupaten Bolaang Mongondow Selatan, Sulawesi Utara";"Kabupaten Bolaang Mongondow Selatan, Sulawesi Utara";"SULAWESI UTARA";"";"Indonesia";" 085219760487";"";"";"0.4490891";"124.4343408";"https://maps.google.com/?cid=0x0:0x758c1146d80e5b67";""
"hotel";"hotel";"Sulawesi Utara 95774";"Momalia I, Kec. Posigadan, Kabupaten Bolaang Mongondow Selatan, Sulawesi Utara";"Kabupaten Bolaang Mongondow Selatan, Sulawesi Utara";"SULAWESI UTARA";"";"Indonesia";"";"";"";"0.3179007";"123.5774024";"https://maps.google.com/?cid=0x0:0xe8ed2e820dc45687";""
"hotel";"hotel";"Hotel Totabuan Citawaya Kotamobagu";"Jl. Lintas Sinindian Sinindian Kotamobagu Timur, Mogolaing, Kec. Kotamobagu Bar., Kota Kotamobagu, Sulawesi Utara 95716";"Mogolaing, Kec. Kotamobagu Bar., Kota Kotamobagu";"SULAWESI UTARA";"95716";"Indonesia";" 043424100";"";"";"0.7287365";"124.3065549";"https://maps.google.com/?cid=0x0:0xcb6aedbd82abd616";""
"hotel";"hotel";"Modoinding Lodge";"QCXX+GRR, Jl. Raya, Utara, Pinasungkulan, Kec. Modoinding, Kabupaten Minahasa Selatan, Sulawesi Utara 95358";"Jl. Raya, Utara, Pinasungkulan, Kec. Modoinding, Kabupaten Minahasa Selatan";"SULAWESI UTARA";"95358";"Indonesia";" 0895352812257";"";"";"0.7988503";"124.4495146";"https://maps.google.com/?cid=0x0:0x9f8e7846b8ae1b0e";""
"hotel";"hotel";"MY PLACE Kost  Guest House - Manado";"Jl. Parigi 7 No.15, Malalayang Satu, Kec. Malalayang, Kota Manado, Sulawesi Utara 95162";"Malalayang Satu, Kec. Malalayang, Kota Manado";"SULAWESI UTARA";"95162";"Indonesia";" 082278595775";"";"";"1.454658";"124.819839";"https://maps.google.com/?cid=0x0:0xb9dcb4b7f66d76fb";""
"hotel";"hotel";"Hotel Mulia Lolak";"Jl. Trans-Sulawesi, Lalow, Kec. Lolak, Kabupaten Bolaang Mongondow, Sulawesi Utara";"Kabupaten Bolaang Mongondow, Sulawesi Utara";"SULAWESI UTARA";"";"Indonesia";" 085298113269";"";"";"0.882613";"124.0267222";"https://maps.google.com/?cid=0x0:0x7cf22d3b0f737f84";""
"hotel";"hotel";"OYO 1769 Rid's Hotel";"Jl. Daan Mogot No.62, Tikala Baru, Kec. Tikala, Kota Manado, Sulawesi Utara 95126";"Tikala Baru, Kec. Tikala, Kota Manado";"SULAWESI UTARA";"95126";"Indonesia";" 02129707601";"";"";"1.479812";"124.8569627";"https://maps.google.com/?cid=0x0:0xc65b2d2c46edc67d";""
"hotel";"hotel";"N/A";"";"";"SULAWESI UTARA";"";"Indonesia";"";"";"";"";"";"https://maps.google.com/?cid=0x0:0xc65b2d2c46edc67d%7C/g/11h810mcqt%7Cen-ID";""
"hotel";"hotel";"RedDoorz Plus @ Jalan Pumorow Manado";"Tikala Baru, Kec. Tikala, Kota Manado, Sulawesi Utara";"Kota Manado, Sulawesi Utara";"SULAWESI UTARA";"";"Indonesia";" 0895417300072";"";"";"1.4683577";"124.8562533";"https://maps.google.com/?cid=0x0:0x4e900087b958fd0";""
"hotel";"hotel";"RedDoorz Near Jalan Jendral Sudirman";"Jl. Beringin No.54 - 57, Karame, Kec. Singkil, Kota Manado, Sulawesi Utara 95111";"Karame, Kec. Singkil, Kota Manado";"SULAWESI UTARA";"95111";"Indonesia";" 02180629666";"";"";"1.4915742";"124.849813";"https://maps.google.com/?cid=0x0:0x9b6a905aa107704a";""
"hotel";"hotel";"OYO 1838 COZY Home";"Jl. R E Martadinata No.99, Paal Dua, Kec. Paal Dua, Kota Manado, Sulawesi Utara";"Kota Manado, Sulawesi Utara";"SULAWESI UTARA";"";"Indonesia";" 02129707601";"";"";"1.4861114";"124.8594991";"https://maps.google.com/?cid=0x0:0x8a101f99d80f86eb";""
"hotel";"hotel";"Hotel Elfah Manado";"Jl. Yos Sudarso No.3, Paal Dua, Kec. Paal Dua, Kota Manado, Sulawesi Utara 95111";"Paal Dua, Kec. Paal Dua, Kota Manado";"SULAWESI UTARA";"95111";"Indonesia";" 0431840223";"";"";"1.4867416";"124.8599932";"https://maps.google.com/?cid=0x0:0xa4eb31cc5bb7cc31";""
"hotel";"hotel";"Cozy Home Stay  Interior";"Jl. R E Martadinata No.99, Paal Dua, Kec. Paal Dua, Kota Manado, Sulawesi Utara";"Kota Manado, Sulawesi Utara";"SULAWESI UTARA";"";"Indonesia";" 0431864851";"";"";"1.4860968";"124.8595033";"https://maps.google.com/?cid=0x0:0xb4db9584be6f4cd2";""
"hotel";"hotel";"Bunaken";"Sulawesi Utara";"Sulawesi Utara";"SULAWESI UTARA";"";"Indonesia";"";"";"";"1.6235162";"124.7602683";"https://maps.google.com/?cid=0x0:0xe07329f226330faf";""
"restaurant";"restaurant";"Rumah makan";"Desa, tolondadu, Kec. Posigadan, Kabupaten Bolaang Mongondow Selatan, Sulawesi Utara 95774";"tolondadu, Kec. Posigadan, Kabupaten Bolaang Mongondow Selatan";"SULAWESI UTARA";"95774";"Indonesia";" 081543127292";"";"";"0.3178394";"123.577342";"https://maps.google.com/?cid=0x0:0x468576a915d89986";""
"restaurant";"restaurant";"Kec. Bolaang Uki";"Kabupaten Bolaang Mongondow Selatan, Sulawesi Utara";"Kabupaten Bolaang Mongondow Selatan, Sulawesi Utara";"SULAWESI UTARA";"";"Indonesia";"";"";"";"0.3828564";"123.9828414";"https://maps.google.com/?cid=0x0:0xe21c23fc1263f3c5";""
"restaurant";"Restoran";"Wisata Kuliner";"9XFR+XMX, Sondana, Kec. Bolaang Uki, Kabupaten Bolaang Mongondow Selatan, Sulawesi Utara";"Kabupaten Bolaang Mongondow Selatan, Sulawesi Utara";"SULAWESI UTARA";"";"Indonesia";"";"";"";"0.37498";"123.9917495";"https://maps.google.com/?cid=0x0:0x99fb97a83f66a664";""
"restaurant";"Rumah Makan";"RM. Jum";"9XGV+4GC, Sondana, Kec. Bolaang Uki, Kabupaten Bolaang Mongondow Selatan, Sulawesi Utara";"Kabupaten Bolaang Mongondow Selatan, Sulawesi Utara";"SULAWESI UTARA";"";"Indonesia";"";"";"";"0.3753218";"123.9937581";"https://maps.google.com/?cid=0x0:0x7f5c6d028cf1689a";""
"restaurant";"Rumah Makan";"RM. WITA";"9XFQ+W6C, Pintadia, Kec. Bolaang Uki, Kabupaten Bolaang Mongondow Selatan, Sulawesi Utara";"Kabupaten Bolaang Mongondow Selatan, Sulawesi Utara";"SULAWESI UTARA";"";"Indonesia";" 081354299950";"";"";"0.3748012";"123.9880202";"https://maps.google.com/?cid=0x0:0x45b50e085b2b22b";""
"restaurant";"Rumah Makan";"Molibagu Delicious Cafe";"9XMM+59Q, Jl. Trans Sulawesi, Popodu, Kec. Bolaang Uki, Kabupaten Bolaang Mongondow Selatan, Sulawesi Utara";"Kabupaten Bolaang Mongondow Selatan, Sulawesi Utara";"SULAWESI UTARA";"";"Indonesia";"";"";"";"0.3829708";"123.9834883";"https://maps.google.com/?cid=0x0:0x1b7050e66d62a2b";""
"restaurant";"Restoran";"mieBAKSOYUMMY";"Desa pintadia, dusun 1, Molibagu, Kec. Bolaang Uki, Kabupaten Bolaang Mongondow Selatan, Sulawesi Utara 95774";"dusun 1, Molibagu, Kec. Bolaang Uki, Kabupaten Bolaang Mongondow Selatan";"SULAWESI UTARA";"95774";"Indonesia";" 082291304953";"";"";"0.3737318";"123.9865304";"https://maps.google.com/?cid=0x0:0x9bac4e9e0172a478";""
"restaurant";"Rumah Makan";"RM Ikan Bakar NUR 'AIN";"9XGV+5M8, Unnamed Road, Sondana, Bolaang Uki, South Bolaang Mongondow Regency, North Sulawesi";"Kabupaten Bolaang Mongondow Selatan, Sulawesi Utara";"SULAWESI UTARA";"";"Indonesia";"";"";"";"0.375401";"123.994193";"https://maps.google.com/?cid=0x0:0xd5d226cf14298b8d";""
"restaurant";"Restoran Lophiiformes";"Rumah Makan Nunung";"9XFR+R7W, jalan, Sondana, Kec. Bolaang Uki, Kabupaten Bolaang Mongondow Selatan, Sulawesi Utara";"Kabupaten Bolaang Mongondow Selatan, Sulawesi Utara";"SULAWESI UTARA";"";"Indonesia";" 082313338451";"";"";"0.3746165";"123.9906942";"https://maps.google.com/?cid=0x0:0x4ffc04eb01ede206";""
"restaurant";"restaurant";"D' Huk Coffee  Eatery";"9XFQ+PC6, Pintadia, Kec. Bolaang Uki, Kabupaten Bolaang Mongondow Selatan, Sulawesi Utara";"Kabupaten Bolaang Mongondow Selatan, Sulawesi Utara";"SULAWESI UTARA";"";"Indonesia";" 082189307085";"";"";"0.3743115";"123.9885201";"https://maps.google.com/?cid=0x0:0x3ddff1bca7c73579";""
"restaurant";"Brunch";"Kedai Kampoeng Bolango";"9XHP+QC6, Popodu, Kec. Bolaang Uki, Kabupaten Bolaang Mongondow Selatan, Sulawesi Utara";"Kabupaten Bolaang Mongondow Selatan, Sulawesi Utara";"SULAWESI UTARA";"";"Indonesia";"";"";"";"0.3794248";"123.9860268";"https://maps.google.com/?cid=0x0:0xb8950da8d9dd23d5";""
"restaurant";"Dapur Umum";"Rumah Makan Zaid Al-Kahfi";"Pasar, Soguo, Kec. Bolaang Uki, Kabupaten Bolaang Mongondow Selatan, Sulawesi Utara";"Kabupaten Bolaang Mongondow Selatan, Sulawesi Utara";"SULAWESI UTARA";"";"Indonesia";" 085395605922";"";"";"0.3796089";"123.9745039";"https://maps.google.com/?cid=0x0:0xa95ccbfe5a99025e";""
"restaurant";"Guest house";"Penginapan Sejahtera";"Toluaya, Kec. Bolaang Uki, Kabupaten Bolaang Mongondow Selatan, Sulawesi Utara 95774";"Kec. Bolaang Uki, Kabupaten Bolaang Mongondow Selatan";"SULAWESI UTARA";"95774";"Indonesia";" 085642441233";"";"";"0.3852392";"123.980097";"https://maps.google.com/?cid=0x0:0xc1166037b888476c";""
"restaurant";"Restoran";"Bananalicious";"92P8+VHQ, Tolondadu I, Kec. Bolaang Uki, Kabupaten Bolaang Mongondow Selatan, Sulawesi Utara";"Kabupaten Bolaang Mongondow Selatan, Sulawesi Utara";"SULAWESI UTARA";"";"Indonesia";" 082296503714";"";"";"0.3865692";"124.0173785";"https://maps.google.com/?cid=0x0:0x25927f339a1b92cf";""
"restaurant";"Restoran";"Wisata Kuliner Sondana";"92G5+34Q, Unnamed Road, Tolondadu II, Kec. Bolaang Uki, Kabupaten Bolaang Mongondow Selatan, Sulawesi Utara";"Kabupaten Bolaang Mongondow Selatan, Sulawesi Utara";"SULAWESI UTARA";"";"Indonesia";"";"";"";"0.3752215";"124.0078563";"https://maps.google.com/?cid=0x0:0x68cae83bf17b8651";""
"restaurant";"Padang";"RM.SYAHILLAH";"9XGP+WM5, Popodu, Kec. Bolaang Uki, Kabupaten Bolaang Mongondow Selatan, Sulawesi Utara";"Kabupaten Bolaang Mongondow Selatan, Sulawesi Utara";"SULAWESI UTARA";"";"Indonesia";"";"";"";"0.3772721";"123.9866786";"https://maps.google.com/?cid=0x0:0xf65cf01d9d7cfe6c";""
"restaurant";"Brunch";"Kedai Senjakala";"Jalan Veteran Kompleks Trans Fajar, Pintadia, Kec. Bolaang Uki, Kabupaten Bolaang Mongondow Selatan, Sulawesi Utara 95774";"Pintadia, Kec. Bolaang Uki, Kabupaten Bolaang Mongondow Selatan";"SULAWESI UTARA";"95774";"Indonesia";" 081210002042";"";"";"0.3753549";"123.9840177";"https://maps.google.com/?cid=0x0:0x91b9c8ddccf2eea4";""
"restaurant";"Dapur Umum";"Kantin mama iki";"9XXJ+F47, Jl. Trans Sulawesi, Molibagu, Kec. Bolaang Uki, Kabupaten Bolaang Mongondow Selatan, Sulawesi Utara";"Kabupaten Bolaang Mongondow Selatan, Sulawesi Utara";"SULAWESI UTARA";"";"Indonesia";"";"";"";"0.3986746";"123.9803005";"https://maps.google.com/?cid=0x0:0x66304e75d0b8c9be";""
"restaurant";"Paviliun Pantai";"Sondana Beach Resto";"92G4+6X6, Tolondadu II, Kec. Bolaang Uki, Kabupaten Bolaang Mongondow Selatan, Sulawesi Utara";"Kabupaten Bolaang Mongondow Selatan, Sulawesi Utara";"SULAWESI UTARA";"";"Indonesia";" 085395556681";"";"";"0.3755493";"124.0073759";"https://maps.google.com/?cid=0x0:0xbdce30978f17532f";""
"restaurant";"Restoran";"Kebab A4";"Pintadia, Kec. Bolaang Uki, Kabupaten Bolaang Mongondow Selatan, Sulawesi Utara 95774";"Kec. Bolaang Uki, Kabupaten Bolaang Mongondow Selatan";"SULAWESI UTARA";"95774";"Indonesia";" 085696409596";"";"";"0.3734196";"123.9855051";"https://maps.google.com/?cid=0x0:0x71855fda7403e8d3";""
"restaurant";"Jawa";"Soto Bang Arvan";"9XMJ+443, Jl. Trans Sulawesi, Toluaya, Kec. Bolaang Uki, Kabupaten Bolaang Mongondow Selatan, Sulawesi Utara";"Kabupaten Bolaang Mongondow Selatan, Sulawesi Utara";"SULAWESI UTARA";"";"Indonesia";"";"";"";"0.3827651";"123.9802993";"https://maps.google.com/?cid=0x0:0x4169566499060fad";""
"restaurant";"Brunch";"Kantin GPDI";"FC3P+4WC, Modisi, Kec. Pinolosian Tim., Kabupaten Bolaang Mongondow Selatan, Sulawesi Utara";"Kabupaten Bolaang Mongondow Selatan, Sulawesi Utara";"SULAWESI UTARA";"";"Indonesia";" 085696966366";"";"";"0.4531277";"124.437249";"https://maps.google.com/?cid=0x0:0xb5f278eaf9ff6135";""
"restaurant";"Rumah Makan";"Kantin Bestie";"C7V6+53R, Dusun 1, Adow, Kec. Pinolosian Tengah, Kabupaten Bolaang Mongondow Selatan, Sulawesi Utara";"Kabupaten Bolaang Mongondow Selatan, Sulawesi Utara";"SULAWESI UTARA";"";"Indonesia";"";"";"";"0.4429782";"124.2601503";"https://maps.google.com/?cid=0x0:0x4090bcb26ce4c724";""
"restaurant";"restaurant";"Sulawesi Utara 95775";"Modisi, Kec. Pinolosian Tim., Kabupaten Bolaang Mongondow Selatan, Sulawesi Utara";"Kabupaten Bolaang Mongondow Selatan, Sulawesi Utara";"SULAWESI UTARA";"";"Indonesia";"";"";"";"0.4528494";"124.4356892";"https://maps.google.com/?cid=0x0:0x5956b774c20081f1";""
"restaurant";"Rumah Makan";"Warung Makan dan Penginapan Friska";"Ilomata, Kec. Pinolosian, Kabupaten Bolaang Mongondow Selatan, Sulawesi Utara";"Kabupaten Bolaang Mongondow Selatan, Sulawesi Utara";"SULAWESI UTARA";"";"Indonesia";" 082291963708";"";"";"0.3976186";"124.1113769";"https://maps.google.com/?cid=0x0:0xe97de35f9c537a54";""
"restaurant";"Kedai Kopi";"UMM’BURGER";"Pojok Lapangan, Pinolosian, Kec. Pinolosian, Kabupaten Bolaang Mongondow Selatan, Sulawesi Utara 95775";"Pinolosian, Kec. Pinolosian, Kabupaten Bolaang Mongondow Selatan";"SULAWESI UTARA";"95775";"Indonesia";" 085242841819";"";"";"0.3966009";"124.1179679";"https://maps.google.com/?cid=0x0:0xb035f8a6ef80750e";""
"restaurant";"Restoran";"Warung makan Villy (Bakso)";"Dumagin B RT 4, Kabupaten Bolaang Mongondow Selatan, Sulawesi Utara 95775";"Kabupaten Bolaang Mongondow Selatan";"SULAWESI UTARA";"95775";"Indonesia";" 081355802127";"";"";"0.4600568";"124.3819278";"https://maps.google.com/?cid=0x0:0x1b941520d5eff886";""
"restaurant";"Toko bahan makanan";"Pondok Kismis Ponsel";"94Q9+V69, Unnamed Road, Pinolosian Sel., Kec. Pinolosian, Kabupaten Bolaang Mongondow Selatan, Sulawesi Utara";"Kabupaten Bolaang Mongondow Selatan, Sulawesi Utara";"SULAWESI UTARA";"";"Indonesia";"";"";"";"0.3896633";"124.1181056";"https://maps.google.com/?cid=0x0:0xf40fd27a99faea07";""
"restaurant";"Kedai Kopi";"DasengCoffee";"94RC+WWM, Pinolosian Sel., Kec. Pinolosian, Kabupaten Bolaang Mongondow Selatan, Sulawesi Utara";"Kabupaten Bolaang Mongondow Selatan, Sulawesi Utara";"SULAWESI UTARA";"";"Indonesia";"";"";"";"0.3923283";"124.1222826";"https://maps.google.com/?cid=0x0:0x2b4d48473733bf11";""
"restaurant";"Kedai Kopi";"Nadhifa papping";"93RX+FFF, Linawan I, Kec. Pinolosian, Kabupaten Bolaang Mongondow Selatan, Sulawesi Utara";"Kabupaten Bolaang Mongondow Selatan, Sulawesi Utara";"SULAWESI UTARA";"";"Indonesia";" 081524055376";"";"";"0.391186";"124.0986776";"https://maps.google.com/?cid=0x0:0x9d8ff17eab4c75de";""
"restaurant";"Kedai Kopi";"_DeSabua_";"94R6+RXC, Ilomata, Kec. Pinolosian, Kabupaten Bolaang Mongondow Selatan, Sulawesi Utara";"Kabupaten Bolaang Mongondow Selatan, Sulawesi Utara";"SULAWESI UTARA";"";"Indonesia";" 085757839831";"";"";"0.3920709";"124.1123899";"https://maps.google.com/?cid=0x0:0xb60db227b0a33ed1";""
"restaurant";"Rumah Kaca";"Rumah Ewing Djauhari";"94R9+662, Pinolosian Sel., Kec. Pinolosian, Kabupaten Bolaang Mongondow Selatan, Sulawesi Utara";"Kabupaten Bolaang Mongondow Selatan, Sulawesi Utara";"SULAWESI UTARA";"";"Indonesia";"";"";"";"0.390598";"124.118086";"https://maps.google.com/?cid=0x0:0xbcaeff1d756db56f";""
"restaurant";"Kedai Kopi";"Kedai Sudut kampung";"Jl. Trans Sulawesi No.9, Tolotoyon, Kec. Pinolosian, Kabupaten Bolaang Mongondow Selatan, Sulawesi Utara";"Kabupaten Bolaang Mongondow Selatan, Sulawesi Utara";"SULAWESI UTARA";"";"Indonesia";"";"";"";"0.4011891";"124.1199903";"https://maps.google.com/?cid=0x0:0xdcd1dbfb73e7418d";""
"restaurant";"Kedai Kopi";"BERTEPI "Berleen Tepi Pantai"";"93QX+RH6, Linawan I, Kec. Pinolosian, Kabupaten Bolaang Mongondow Selatan, Sulawesi Utara";"Kabupaten Bolaang Mongondow Selatan, Sulawesi Utara";"SULAWESI UTARA";"";"Indonesia";"";"";"";"0.3895372";"124.0988802";"https://maps.google.com/?cid=0x0:0xcf152a7be8ce2cc6";""
"restaurant";"Kedai Kopi";"Teras Coffee, BobaKu-Janji";"Ilomata, Kec. Pinolosian, Kabupaten Bolaang Mongondow Selatan, Sulawesi Utara";"Kabupaten Bolaang Mongondow Selatan, Sulawesi Utara";"SULAWESI UTARA";"";"Indonesia";" 082296019981";"";"";"0.3936808";"124.1123488";"https://maps.google.com/?cid=0x0:0x58fd04534fa038c5";""
"restaurant";"Toko Makanan";"KEDAI NORMAL";"Ilomata, Kec. Pinolosian, Kabupaten Bolaang Mongondow Selatan, Sulawesi Utara";"Kabupaten Bolaang Mongondow Selatan, Sulawesi Utara";"SULAWESI UTARA";"";"Indonesia";" 085244167094";"";"";"0.3894739";"124.1126373";"https://maps.google.com/?cid=0x0:0x88c62511c24289bb";""
"restaurant";"Kedai Kopi";"Teras Bambu Alfathunnisa";"94W8+2WQ, Pinolosian, Kec. Pinolosian, Kabupaten Bolaang Mongondow Selatan, Sulawesi Utara";"Kabupaten Bolaang Mongondow Selatan, Sulawesi Utara";"SULAWESI UTARA";"";"Indonesia";" 085219579003";"";"";"0.3952398";"124.1172766";"https://maps.google.com/?cid=0x0:0x388c1be7217fd633";""
"restaurant";"Bar";"Piyuhk Tempat Miras";"94X9+HGJ, Tolotoyon, Kec. Pinolosian, Kabupaten Bolaang Mongondow Selatan, Sulawesi Utara";"Kabupaten Bolaang Mongondow Selatan, Sulawesi Utara";"SULAWESI UTARA";"";"Indonesia";"";"";"";"0.398972";"124.1187776";"https://maps.google.com/?cid=0x0:0x21957f6fe4dc1e2e";""
"restaurant";"Toko sembako pemerintah";"Kios Ayyasha";"94R6+VW5, Jl. Siswa Desa Rilisnya, Ilomata, Kec. Pinolosian, Kabupaten Bolaang Mongondow Selatan, Sulawesi Utara";"Kabupaten Bolaang Mongondow Selatan, Sulawesi Utara";"SULAWESI UTARA";"";"Indonesia";" 085757839831";"";"";"0.3921473";"124.1123597";"https://maps.google.com/?cid=0x0:0x8f9f05cf96790e70";""
"restaurant";"Kedai Kopi";"Kedai BO Dunia";"C3VG+84J, Linawan, Kec. Pinolosian, Kabupaten Bolaang Mongondow Selatan, Sulawesi Utara";"Kabupaten Bolaang Mongondow Selatan, Sulawesi Utara";"SULAWESI UTARA";"";"Indonesia";"";"";"";"0.4433409";"124.0752783";"https://maps.google.com/?cid=0x0:0xc7cbcd3324b8f995";""
"restaurant";"Dapur Umum";"GEPREK A3C";"94X6+3G7, Ilomata, Kec. Pinolosian, Kabupaten Bolaang Mongondow Selatan, Sulawesi Utara";"Kabupaten Bolaang Mongondow Selatan, Sulawesi Utara";"SULAWESI UTARA";"";"Indonesia";" 081527746169";"";"";"0.3976596";"124.1112951";"https://maps.google.com/?cid=0x0:0xa814a76e67a55168";""
"restaurant";"restaurant";"Rumah makan sudi mampir";"94W5+PRM, Unnamed Road, Ilomata, Kec. Pinolosian, Kabupaten Bolaang Mongondow Selatan, Sulawesi Utara";"Kabupaten Bolaang Mongondow Selatan, Sulawesi Utara";"SULAWESI UTARA";"";"Indonesia";"";"";"";"0.3968367";"124.1095488";"https://maps.google.com/?cid=0x0:0x6e026c679a930b";""
"restaurant";"restaurant";"Sulawesi Utara 95775";"Modisi, Kec. Pinolosian Tim., Kabupaten Bolaang Mongondow Selatan, Sulawesi Utara";"Kabupaten Bolaang Mongondow Selatan, Sulawesi Utara";"SULAWESI UTARA";"";"Indonesia";"";"";"";"0.4528494";"124.4356892";"https://maps.google.com/?cid=0x0:0x5956b774c20081f1";""
"restaurant";"restaurant";"Kec. Pinolosian Tengah";"Kabupaten Bolaang Mongondow Selatan, Sulawesi Utara";"Kabupaten Bolaang Mongondow Selatan, Sulawesi Utara";"SULAWESI UTARA";"";"Indonesia";"";"";"";"0.4814411";"124.2643871";"https://maps.google.com/?cid=0x0:0x202271dfbca50638";""
"restaurant";"Rumah Makan";"Warung Makan dan Penginapan Friska";"Ilomata, Kec. Pinolosian, Kabupaten Bolaang Mongondow Selatan, Sulawesi Utara";"Kabupaten Bolaang Mongondow Selatan, Sulawesi Utara";"SULAWESI UTARA";"";"Indonesia";" 082291963708";"";"";"0.3976186";"124.1113769";"https://maps.google.com/?cid=0x0:0xe97de35f9c537a54";""
"restaurant";"Toko umum";"Warung Li mama";"W45X+6GR, Dalapuli, Kec. Pinogaluman, Kabupaten Bolaang Mongondow Utara, Sulawesi Utara";"Kabupaten Bolaang Mongondow Utara, Sulawesi Utara";"SULAWESI UTARA";"";"Indonesia";"";"";"";"0.9081204";"123.148756";"https://maps.google.com/?cid=0x0:0x508d90ad1115874d";""
"restaurant";"Restoran";"Warung makan Villy (Bakso)";"Dumagin B RT 4, Kabupaten Bolaang Mongondow Selatan, Sulawesi Utara 95775";"Kabupaten Bolaang Mongondow Selatan";"SULAWESI UTARA";"95775";"Indonesia";" 081355802127";"";"";"0.4600568";"124.3819278";"https://maps.google.com/?cid=0x0:0x1b941520d5eff886";""
"restaurant";"Toko bahan makanan";"Pondok Kismis Ponsel";"94Q9+V69, Unnamed Road, Pinolosian Sel., Kec. Pinolosian, Kabupaten Bolaang Mongondow Selatan, Sulawesi Utara";"Kabupaten Bolaang Mongondow Selatan, Sulawesi Utara";"SULAWESI UTARA";"";"Indonesia";"";"";"";"0.3896633";"124.1181056";"https://maps.google.com/?cid=0x0:0xf40fd27a99faea07";""
"restaurant";"Brunch";"Kantin Dindah (Momz Yatri)";"Adow, Kec. Pinolosian Tengah, Kabupaten Bolaang Mongondow Selatan, Sulawesi Utara 95776";"Kec. Pinolosian Tengah, Kabupaten Bolaang Mongondow Selatan";"SULAWESI UTARA";"95776";"Indonesia";" 082349868975";"";"";"0.4395658";"124.2629671";"https://maps.google.com/?cid=0x0:0xaa1339de37bb6ff2";""
"restaurant";"Es Krim";"Kantin Ne Fika'";"Dusun II, Dumagin B, Kec. Pinolosian Tim., Kabupaten Bolaang Mongondow Selatan, Sulawesi Utara 95775";"Dumagin B, Kec. Pinolosian Tim., Kabupaten Bolaang Mongondow Selatan";"SULAWESI UTARA";"95775";"Indonesia";" 085757153215";"";"";"0.4618291";"124.3807297";"https://maps.google.com/?cid=0x0:0xf73dbc9f8f3167e5";""
"restaurant";"Kedai Kopi";"UMM’BURGER";"Pojok Lapangan, Pinolosian, Kec. Pinolosian, Kabupaten Bolaang Mongondow Selatan, Sulawesi Utara 95775";"Pinolosian, Kec. Pinolosian, Kabupaten Bolaang Mongondow Selatan";"SULAWESI UTARA";"95775";"Indonesia";" 085242841819";"";"";"0.3966009";"124.1179679";"https://maps.google.com/?cid=0x0:0xb035f8a6ef80750e";""
"restaurant";"Restoran";"Warung makan Villy (Bakso)";"Dumagin B RT 4, Kabupaten Bolaang Mongondow Selatan, Sulawesi Utara 95775";"Kabupaten Bolaang Mongondow Selatan";"SULAWESI UTARA";"95775";"Indonesia";" 081355802127";"";"";"0.4600568";"124.3819278";"https://maps.google.com/?cid=0x0:0x1b941520d5eff886";""
"restaurant";"Toko umum";"Warung Makan Barokah";"C53V+68C, Lungkap, Kec. Pinolosian, Kabupaten Bolaang Mongondow Selatan, Sulawesi Utara";"Kabupaten Bolaang Mongondow Selatan, Sulawesi Utara";"SULAWESI UTARA";"";"Indonesia";"";"";"";"0.4019688";"124.193657";"https://maps.google.com/?cid=0x0:0x9af38fea4027dc1f";""
"restaurant";"Es Krim";"Kantin Ne Fika'";"Dusun II, Dumagin B, Kec. Pinolosian Tim., Kabupaten Bolaang Mongondow Selatan, Sulawesi Utara 95775";"Dumagin B, Kec. Pinolosian Tim., Kabupaten Bolaang Mongondow Selatan";"SULAWESI UTARA";"95775";"Indonesia";" 085757153215";"";"";"0.4618291";"124.3807297";"https://maps.google.com/?cid=0x0:0xf73dbc9f8f3167e5";""
"restaurant";"restaurant";"Rumah makan";"Desa, tolondadu, Kec. Posigadan, Kabupaten Bolaang Mongondow Selatan, Sulawesi Utara 95774";"tolondadu, Kec. Posigadan, Kabupaten Bolaang Mongondow Selatan";"SULAWESI UTARA";"95774";"Indonesia";" 081543127292";"";"";"0.3178394";"123.577342";"https://maps.google.com/?cid=0x0:0x468576a915d89986";""
"cafe";"cafe";"Sulawesi Utara 95774";"Momalia I, Kec. Posigadan, Kabupaten Bolaang Mongondow Selatan, Sulawesi Utara";"Kabupaten Bolaang Mongondow Selatan, Sulawesi Utara";"SULAWESI UTARA";"";"Indonesia";"";"";"";"0.3179007";"123.5774024";"https://maps.google.com/?cid=0x0:0xe8ed2e820dc45687";""
"cafe";"Restoran";"MORPHIC COFFE HOUSE";"Tutuyan, Kec. Tutuyan, Kabupaten Bolaang Mongondow Timur, Sulawesi Utara";"Kabupaten Bolaang Mongondow Timur, Sulawesi Utara";"SULAWESI UTARA";"";"Indonesia";"";"";"";"0.7615435";"124.6137736";"https://maps.google.com/?cid=0x0:0x90ae3205501e9094";""
"cafe";"cafe";"Rumah makan";"Desa, tolondadu, Kec. Posigadan, Kabupaten Bolaang Mongondow Selatan, Sulawesi Utara 95774";"tolondadu, Kec. Posigadan, Kabupaten Bolaang Mongondow Selatan";"SULAWESI UTARA";"95774";"Indonesia";" 081543127292";"";"";"0.3178394";"123.577342";"https://maps.google.com/?cid=0x0:0x468576a915d89986";""
"cafe";"cafe";"D' Huk Coffee  Eatery";"9XFQ+PC6, Pintadia, Kec. Bolaang Uki, Kabupaten Bolaang Mongondow Selatan, Sulawesi Utara";"Kabupaten Bolaang Mongondow Selatan, Sulawesi Utara";"SULAWESI UTARA";"";"Indonesia";" 082189307085";"";"";"0.3743115";"123.9885201";"https://maps.google.com/?cid=0x0:0x3ddff1bca7c73579";""
"cafe";"Kedai Kopi";"KEMANG Kedai Coffee Nation";"Popodu, Kec. Bolaang Uki, Kabupaten Bolaang Mongondow Selatan, Sulawesi Utara";"Kabupaten Bolaang Mongondow Selatan, Sulawesi Utara";"SULAWESI UTARA";"";"Indonesia";" 0816261999";"";"";"0.3765";"123.9874308";"https://maps.google.com/?cid=0x0:0xb0a746d942cc9ae9";""
"cafe";"Brunch";"Kedai Kampoeng Bolango";"9XHP+QC6, Popodu, Kec. Bolaang Uki, Kabupaten Bolaang Mongondow Selatan, Sulawesi Utara";"Kabupaten Bolaang Mongondow Selatan, Sulawesi Utara";"SULAWESI UTARA";"";"Indonesia";"";"";"";"0.3794248";"123.9860268";"https://maps.google.com/?cid=0x0:0xb8950da8d9dd23d5";""
"cafe";"Kedai Kopi";"Butola Coffe";"92G7+7R2, Tolondadu II, Kec. Bolaang Uki, Kabupaten Bolaang Mongondow Selatan, Sulawesi Utara";"Kabupaten Bolaang Mongondow Selatan, Sulawesi Utara";"SULAWESI UTARA";"";"Indonesia";" 085340146428";"";"";"0.3756315";"124.0145024";"https://maps.google.com/?cid=0x0:0x758fbac06ca93a4";""
"cafe";"Rumah Makan";"Molibagu Delicious Cafe";"9XMM+59Q, Jl. Trans Sulawesi, Popodu, Kec. Bolaang Uki, Kabupaten Bolaang Mongondow Selatan, Sulawesi Utara";"Kabupaten Bolaang Mongondow Selatan, Sulawesi Utara";"SULAWESI UTARA";"";"Indonesia";"";"";"";"0.3829708";"123.9834883";"https://maps.google.com/?cid=0x0:0x1b7050e66d62a2b";""
"cafe";"Kedai Kopi";"Lorong Pante Tangagah";"9W23+537, Jl. Trans Sulawesi, Tangagah, Kec. Bolaang Uki, Kabupaten Bolaang Mongondow Selatan, Sulawesi Utara";"Kabupaten Bolaang Mongondow Selatan, Sulawesi Utara";"SULAWESI UTARA";"";"Indonesia";"";"";"";"0.350406";"123.902671";"https://maps.google.com/?cid=0x0:0x734710ddf181a4d3";""
"cafe";"Bed >>u0026 Breakfast";"Homestay";"Tangagah, Kec. Bolaang Uki, Kabupaten Bolaang Mongondow Selatan, Sulawesi Utara 95774";"Kec. Bolaang Uki, Kabupaten Bolaang Mongondow Selatan";"SULAWESI UTARA";"95774";"Indonesia";" 082217480107";"";"";"0.3491111";"123.8965423";"https://maps.google.com/?cid=0x0:0x518b9f440c7236cf";""
"cafe";"Kedai Kopi";"Cuan Kopi";"9XMJ+4X2, Jl. Trans Sulawesi, Molibagu, Kec. Bolaang Uki, Kabupaten Bolaang Mongondow Selatan, Sulawesi Utara";"Kabupaten Bolaang Mongondow Selatan, Sulawesi Utara";"SULAWESI UTARA";"";"Indonesia";"";"";"";"0.3827729";"123.9823926";"https://maps.google.com/?cid=0x0:0x9e8d584e8a479d92";""
"cafe";"Kedai Kopi";"SHERLOCK COFFEE";"8QCW+728, Pangia, Kec. Bolaang Uki, Kabupaten Bolaang Mongondow Selatan, Sulawesi Utara";"Kabupaten Bolaang Mongondow Selatan, Sulawesi Utara";"SULAWESI UTARA";"";"Indonesia";"";"";"";"0.3211895";"123.7952894";"https://maps.google.com/?cid=0x0:0xdd59d4422550b87e";""
"cafe";"Kedai Kopi";"BARABA COFFE";"9X7F+339, Dusun 4, Salongo, Kec. Bolaang Uki, Kabupaten Bolaang Mongondow Selatan, Sulawesi Utara";"Kabupaten Bolaang Mongondow Selatan, Sulawesi Utara";"SULAWESI UTARA";"";"Indonesia";"";"";"";"0.3626526";"123.9727291";"https://maps.google.com/?cid=0x0:0xa1bef396ec71565a";""
"cafe";"Restoran";"mieBAKSOYUMMY";"Desa pintadia, dusun 1, Molibagu, Kec. Bolaang Uki, Kabupaten Bolaang Mongondow Selatan, Sulawesi Utara 95774";"dusun 1, Molibagu, Kec. Bolaang Uki, Kabupaten Bolaang Mongondow Selatan";"SULAWESI UTARA";"95774";"Indonesia";" 082291304953";"";"";"0.3737318";"123.9865304";"https://maps.google.com/?cid=0x0:0x9bac4e9e0172a478";""
"cafe";"Kedai Kopi";"DkyAliu";"Popodu, Kec. Bolaang Uki, Kabupaten Bolaang Mongondow Selatan, Sulawesi Utara 95774";"Kec. Bolaang Uki, Kabupaten Bolaang Mongondow Selatan";"SULAWESI UTARA";"95774";"Indonesia";" 082291710738";"";"";"0.3804394";"123.9864377";"https://maps.google.com/?cid=0x0:0x5f591fb7bdc048e4";""
"cafe";"Restoran";"Wisata Kuliner";"9XFR+XMX, Sondana, Kec. Bolaang Uki, Kabupaten Bolaang Mongondow Selatan, Sulawesi Utara";"Kabupaten Bolaang Mongondow Selatan, Sulawesi Utara";"SULAWESI UTARA";"";"Indonesia";"";"";"";"0.37498";"123.9917495";"https://maps.google.com/?cid=0x0:0x99fb97a83f66a664";""
"cafe";"Rumah Makan";"Nyot Nyot Thai Tea Molibagu";"Jln. Soman Van Gobel, Dusun 2, Desa Toluaya, Kecamatan, Kec. Bolaang Uki, Kabupaten Bolaang Mongondow Selatan, Sulawesi Utara 95774";"Dusun 2, Desa Toluaya, Kecamatan, Kec. Bolaang Uki, Kabupaten Bolaang Mongondow Selatan";"SULAWESI UTARA";"95774";"Indonesia";" 082349757820";"";"";"0.3814824";"123.9807954";"https://maps.google.com/?cid=0x0:0xda7707320bb558a6";""
"cafe";"Brunch";"Kedai Senjakala";"Jalan Veteran Kompleks Trans Fajar, Pintadia, Kec. Bolaang Uki, Kabupaten Bolaang Mongondow Selatan, Sulawesi Utara 95774";"Pintadia, Kec. Bolaang Uki, Kabupaten Bolaang Mongondow Selatan";"SULAWESI UTARA";"95774";"Indonesia";" 081210002042";"";"";"0.3753549";"123.9840177";"https://maps.google.com/?cid=0x0:0x91b9c8ddccf2eea4";""
"cafe";"Kedai Kopi";"Mayako Kantin ( Aneka kue dan makanan )";"Jl Trans Sulawesi, Dusun 1, RT 2 Desa Tangagah, kecamatan Bolaang Uji, Kabupaten Bolaang Mongondow Selatan";"Kabupaten Bolaang Mongondow Selatan, Sulawesi Utara";"SULAWESI UTARA";"";"Indonesia";"";"";"";"0.3528459";"123.9118906";"https://maps.google.com/?cid=0x0:0xedfc217d0094f5e8";""
"cafe";"Restoran";"Kebab A4";"Pintadia, Kec. Bolaang Uki, Kabupaten Bolaang Mongondow Selatan, Sulawesi Utara 95774";"Kec. Bolaang Uki, Kabupaten Bolaang Mongondow Selatan";"SULAWESI UTARA";"95774";"Indonesia";" 085696409596";"";"";"0.3734196";"123.9855051";"https://maps.google.com/?cid=0x0:0x71855fda7403e8d3";""
"cafe";"Kedai Kopi";"Wistara Coffee";"8VQ9+H5R, Duminanga, Kec. Bolaang Uki, Kabupaten Bolaang Mongondow Selatan, Sulawesi Utara";"Kabupaten Bolaang Mongondow Selatan, Sulawesi Utara";"SULAWESI UTARA";"";"Indonesia";"";"";"";"0.3382715";"123.8676759";"https://maps.google.com/?cid=0x0:0x4b294330ce9824f1";""
"cafe";"Kedai Kopi";"TORANG PE WARKOP";"8RPC+J99, Bakida, Kec. Bolaang Uki, Kabupaten Bolaang Mongondow Selatan, Sulawesi Utara";"Kabupaten Bolaang Mongondow Selatan, Sulawesi Utara";"SULAWESI UTARA";"";"Indonesia";" 081242591906";"";"";"0.3371359";"123.8206571";"https://maps.google.com/?cid=0x0:0xd14f7387e0cf36fb";""
"cafe";"Restoran";"Wisata Kuliner Sondana";"92G5+34Q, Unnamed Road, Tolondadu II, Kec. Bolaang Uki, Kabupaten Bolaang Mongondow Selatan, Sulawesi Utara";"Kabupaten Bolaang Mongondow Selatan, Sulawesi Utara";"SULAWESI UTARA";"";"Indonesia";"";"";"";"0.3752215";"124.0078563";"https://maps.google.com/?cid=0x0:0x68cae83bf17b8651";""
"cafe";"cafe";"Sulawesi Utara 95775";"Modisi, Kec. Pinolosian Tim., Kabupaten Bolaang Mongondow Selatan, Sulawesi Utara";"Kabupaten Bolaang Mongondow Selatan, Sulawesi Utara";"SULAWESI UTARA";"";"Indonesia";"";"";"";"0.4528494";"124.4356892";"https://maps.google.com/?cid=0x0:0x5956b774c20081f1";""
"cafe";"Toko Makanan";"Perspektif Coffee";"Pinolosian, Kec. Pinolosian, Kabupaten Bolaang Mongondow Selatan, Sulawesi Utara 95775";"Kec. Pinolosian, Kabupaten Bolaang Mongondow Selatan";"SULAWESI UTARA";"95775";"Indonesia";" 082344100880";"";"";"0.3968473";"124.1143791";"https://maps.google.com/?cid=0x0:0x63b4aee4e1c1dc8e";""
"cafe";"Restoran";"D'philocoffee";"W74F+JCC, Kuala, Kec. Kaidipang, Kabupaten Bolaang Mongondow Utara, Sulawesi Utara";"Kabupaten Bolaang Mongondow Utara, Sulawesi Utara";"SULAWESI UTARA";"";"Indonesia";"";"";"";"0.9065577";"123.2735035";"https://maps.google.com/?cid=0x0:0x70991c658bddced6";""
"cafe";"Kafe";"Cafe Pootan Jci Bianconeri Kosio Kuala Moyogang";"GXHQ+VPR, Kosio, Kec. Dumoga Bar., Kabupaten Bolaang Mongondow, Sulawesi Utara";"Kabupaten Bolaang Mongondow, Sulawesi Utara";"SULAWESI UTARA";"";"Indonesia";" 082291736976";"";"";"0.5297257";"123.9892654";"https://maps.google.com/?cid=0x0:0xa39c8a26679baa29";""
"cafe";"Komplek perumahan";"Rumah Glen";"FCGV+HQP, Posilagon, Kec. Pinolosian Tim., Kabupaten Bolaang Mongondow Selatan, Sulawesi Utara";"Kabupaten Bolaang Mongondow Selatan, Sulawesi Utara";"SULAWESI UTARA";"";"Indonesia";"";"";"";"0.4757466";"124.4439128";"https://maps.google.com/?cid=0x0:0x1baf26bf5868b0c5";""
"cafe";"cafe";"Sulawesi Utara 95775";"Modisi, Kec. Pinolosian Tim., Kabupaten Bolaang Mongondow Selatan, Sulawesi Utara";"Kabupaten Bolaang Mongondow Selatan, Sulawesi Utara";"SULAWESI UTARA";"";"Indonesia";"";"";"";"0.4528494";"124.4356892";"https://maps.google.com/?cid=0x0:0x5956b774c20081f1";""
"cafe";"Toko Makanan";"Perspektif Coffee";"Pinolosian, Kec. Pinolosian, Kabupaten Bolaang Mongondow Selatan, Sulawesi Utara 95775";"Kec. Pinolosian, Kabupaten Bolaang Mongondow Selatan";"SULAWESI UTARA";"95775";"Indonesia";" 082344100880";"";"";"0.3968473";"124.1143791";"https://maps.google.com/?cid=0x0:0x63b4aee4e1c1dc8e";""
"cafe";"Restoran";"D'philocoffee";"W74F+JCC, Kuala, Kec. Kaidipang, Kabupaten Bolaang Mongondow Utara, Sulawesi Utara";"Kabupaten Bolaang Mongondow Utara, Sulawesi Utara";"SULAWESI UTARA";"";"Indonesia";"";"";"";"0.9065577";"123.2735035";"https://maps.google.com/?cid=0x0:0x70991c658bddced6";""
"cafe";"Kafe";"Cafe Pootan Jci Bianconeri Kosio Kuala Moyogang";"GXHQ+VPR, Kosio, Kec. Dumoga Bar., Kabupaten Bolaang Mongondow, Sulawesi Utara";"Kabupaten Bolaang Mongondow, Sulawesi Utara";"SULAWESI UTARA";"";"Indonesia";" 082291736976";"";"";"0.5297257";"123.9892654";"https://maps.google.com/?cid=0x0:0xa39c8a26679baa29";""
"cafe";"Kedai Kopi";"Nadhifa papping";"93RX+FFF, Linawan I, Kec. Pinolosian, Kabupaten Bolaang Mongondow Selatan, Sulawesi Utara";"Kabupaten Bolaang Mongondow Selatan, Sulawesi Utara";"SULAWESI UTARA";"";"Indonesia";" 081524055376";"";"";"0.391186";"124.0986776";"https://maps.google.com/?cid=0x0:0x9d8ff17eab4c75de";""
"cafe";"Komplek perumahan";"Rumah Glen";"FCGV+HQP, Posilagon, Kec. Pinolosian Tim., Kabupaten Bolaang Mongondow Selatan, Sulawesi Utara";"Kabupaten Bolaang Mongondow Selatan, Sulawesi Utara";"SULAWESI UTARA";"";"Indonesia";"";"";"";"0.4757466";"124.4439128";"https://maps.google.com/?cid=0x0:0x1baf26bf5868b0c5";""
"cafe";"cafe";"Kec. Pinolosian Tengah";"Kabupaten Bolaang Mongondow Selatan, Sulawesi Utara";"Kabupaten Bolaang Mongondow Selatan, Sulawesi Utara";"SULAWESI UTARA";"";"Indonesia";"";"";"";"0.4814411";"124.2643871";"https://maps.google.com/?cid=0x0:0x202271dfbca50638";""
"cafe";"Es Krim";"Kantin Ne Fika'";"Dusun II, Dumagin B, Kec. Pinolosian Tim., Kabupaten Bolaang Mongondow Selatan, Sulawesi Utara 95775";"Dumagin B, Kec. Pinolosian Tim., Kabupaten Bolaang Mongondow Selatan";"SULAWESI UTARA";"95775";"Indonesia";" 085757153215";"";"";"0.4618291";"124.3807297";"https://maps.google.com/?cid=0x0:0xf73dbc9f8f3167e5";""
"cafe";"cafe";"Sulawesi Utara 95775";"Modisi, Kec. Pinolosian Tim., Kabupaten Bolaang Mongondow Selatan, Sulawesi Utara";"Kabupaten Bolaang Mongondow Selatan, Sulawesi Utara";"SULAWESI UTARA";"";"Indonesia";"";"";"";"0.4528494";"124.4356892";"https://maps.google.com/?cid=0x0:0x5956b774c20081f1";""
"cafe";"Indonesia";"Cafe Naton";"QJPF+G9P, Jl. Trans Sulawesi Lkr. Sel., Kayumoyondi, Kec. Tutuyan, Kabupaten Bolaang Mongondow Timur, Sulawesi Utara";"Kabupaten Bolaang Mongondow Timur, Sulawesi Utara";"SULAWESI UTARA";"";"Indonesia";"";"";"";"0.7863427";"124.6234479";"https://maps.google.com/?cid=0x0:0xcdba696a63a471ff";""
"cafe";"Toko Makanan";"Perspektif Coffee";"Pinolosian, Kec. Pinolosian, Kabupaten Bolaang Mongondow Selatan, Sulawesi Utara 95775";"Kec. Pinolosian, Kabupaten Bolaang Mongondow Selatan";"SULAWESI UTARA";"95775";"Indonesia";" 082344100880";"";"";"0.3968473";"124.1143791";"https://maps.google.com/?cid=0x0:0x63b4aee4e1c1dc8e";""
"cafe";"Restoran";"D'philocoffee";"W74F+JCC, Kuala, Kec. Kaidipang, Kabupaten Bolaang Mongondow Utara, Sulawesi Utara";"Kabupaten Bolaang Mongondow Utara, Sulawesi Utara";"SULAWESI UTARA";"";"Indonesia";"";"";"";"0.9065577";"123.2735035";"https://maps.google.com/?cid=0x0:0x70991c658bddced6";""
"cafe";"Kedai Kopi";"DasengCoffee";"94RC+WWM, Pinolosian Sel., Kec. Pinolosian, Kabupaten Bolaang Mongondow Selatan, Sulawesi Utara";"Kabupaten Bolaang Mongondow Selatan, Sulawesi Utara";"SULAWESI UTARA";"";"Indonesia";"";"";"";"0.3923283";"124.1222826";"https://maps.google.com/?cid=0x0:0x2b4d48473733bf11";""
"cafe";"Kafe";"Cafe Pootan Jci Bianconeri Kosio Kuala Moyogang";"GXHQ+VPR, Kosio, Kec. Dumoga Bar., Kabupaten Bolaang Mongondow, Sulawesi Utara";"Kabupaten Bolaang Mongondow, Sulawesi Utara";"SULAWESI UTARA";"";"Indonesia";" 082291736976";"";"";"0.5297257";"123.9892654";"https://maps.google.com/?cid=0x0:0xa39c8a26679baa29";""
"cafe";"Grosir Kopi";"Mobalang Coffee Plantation";"J8XW+V3V, Bongkudai, Kec. Modayag Bar., Kabupaten Bolaang Mongondow Timur, Sulawesi Utara";"Kabupaten Bolaang Mongondow Timur, Sulawesi Utara";"SULAWESI UTARA";"";"Indonesia";"";"";"";"0.6497257";"124.3451684";"https://maps.google.com/?cid=0x0:0x3d14795fee101bb0";""
"cafe";"cafe";"Sulawesi Utara 95774";"Momalia I, Kec. Posigadan, Kabupaten Bolaang Mongondow Selatan, Sulawesi Utara";"Kabupaten Bolaang Mongondow Selatan, Sulawesi Utara";"SULAWESI UTARA";"";"Indonesia";"";"";"";"0.3179007";"123.5774024";"https://maps.google.com/?cid=0x0:0xe8ed2e820dc45687";""
"cafe";"Kedai Kopi";"Kedai Sudut Desa";"8HCG+6JP, Momalia I, Kec. Posigadan, Kabupaten Bolaang Mongondow Selatan, Sulawesi Utara";"Kabupaten Bolaang Mongondow Selatan, Sulawesi Utara";"SULAWESI UTARA";"";"Indonesia";" 082311642927";"";"";"0.3205942";"123.5765929";"https://maps.google.com/?cid=0x0:0x1e2c7cd9a0cfb40e";""
"cafe";"Kedai Kopi";"Kedai cofee NurulHuda";"8HFG+473, Momalia I, Kec. Posigadan, Kabupaten Bolaang Mongondow Selatan, Sulawesi Utara";"Kabupaten Bolaang Mongondow Selatan, Sulawesi Utara";"SULAWESI UTARA";"";"Indonesia";" 082271541931";"";"";"0.3226441";"123.5757672";"https://maps.google.com/?cid=0x0:0xe20641d73817eec5";""
"cafe";"Kedai Kopi";"LEPUT COFFEE MINIMART";"8GC9+F5M, Saibuah, Kec. Posigadan, Kabupaten Bolaang Mongondow Selatan, Sulawesi Utara";"Kabupaten Bolaang Mongondow Selatan, Sulawesi Utara";"SULAWESI UTARA";"";"Indonesia";"";"";"";"0.3203986";"123.5192385";"https://maps.google.com/?cid=0x0:0x634bc0d74782d05b";""
"cafe";"Restoran";"warkop Althira Coffe";"Jl. Trans Sulawesi, Milangodaa, Kec. Posigadan, Kabupaten Bolaang Mongondow Selatan, Sulawesi Utara 95000";"Milangodaa, Kec. Posigadan, Kabupaten Bolaang Mongondow Selatan";"SULAWESI UTARA";"95000";"Indonesia";" 082217461282";"";"";"0.3220739";"123.7254208";"https://maps.google.com/?cid=0x0:0x109920e2f2b4b002";""
"cafe";"Toko Makanan";"Perspektif Coffee";"Pinolosian, Kec. Pinolosian, Kabupaten Bolaang Mongondow Selatan, Sulawesi Utara 95775";"Kec. Pinolosian, Kabupaten Bolaang Mongondow Selatan";"SULAWESI UTARA";"95775";"Indonesia";" 082344100880";"";"";"0.3968473";"124.1143791";"https://maps.google.com/?cid=0x0:0x63b4aee4e1c1dc8e";""
"cafe";"Kedai Kopi";"Waroenk Sisyan";"8GC9+F49, Saibuah, Kec. Posigadan, Kabupaten Bolaang Mongondow Selatan, Sulawesi Utara";"Kabupaten Bolaang Mongondow Selatan, Sulawesi Utara";"SULAWESI UTARA";"";"Indonesia";"";"";"";"0.3213505";"123.518712";"https://maps.google.com/?cid=0x0:0x71a0e0a5c84441bc";""
"cafe";"cafe";"Rumah makan";"Desa, tolondadu, Kec. Posigadan, Kabupaten Bolaang Mongondow Selatan, Sulawesi Utara 95774";"tolondadu, Kec. Posigadan, Kabupaten Bolaang Mongondow Selatan";"SULAWESI UTARA";"95774";"Indonesia";" 081543127292";"";"";"0.3178394";"123.577342";"https://maps.google.com/?cid=0x0:0x468576a915d89986";""
"cafe";"Kedai Kopi";"Warkop Rasa(Rafel Saira)";"3, Momalia I, Kec. Posigadan, Kabupaten Bolaang Mongondow Selatan, Sulawesi Utara";"Kabupaten Bolaang Mongondow Selatan, Sulawesi Utara";"SULAWESI UTARA";"";"Indonesia";"";"";"";"0.3184949";"123.578635";"https://maps.google.com/?cid=0x0:0xa25527513c7972ff";""
"cafe";"cafe";"Warkop Davia";"8H9H+H4P, Jl. Trans Sulawesi, Momalia I, Kec. Posigadan, Kabupaten Bolaang Mongondow Selatan, Sulawesi Utara";"Kabupaten Bolaang Mongondow Selatan, Sulawesi Utara";"SULAWESI UTARA";"";"Indonesia";"";"";"";"0.3189706";"123.577824";"https://maps.google.com/?cid=0x0:0x345733c939e0b7fb";""
"mall";"Taman Kota";"Molibagu";"CXF9+PQ7, Molibagu, Kec. Bolaang Uki, Kabupaten Bolaang Mongondow Selatan, Sulawesi Utara";"Kabupaten Bolaang Mongondow Selatan, Sulawesi Utara";"SULAWESI UTARA";"";"Indonesia";"";"";"";"0.4242972";"123.9694276";"https://maps.google.com/?cid=0x0:0xfe2d512595be47b5";""
"mall";"Lapangan Atletik";"Alun Alun Molibagu";"9XMM+2JP, Popodu, Kec. Bolaang Uki, Kabupaten Bolaang Mongondow Selatan, Sulawesi Utara";"Kabupaten Bolaang Mongondow Selatan, Sulawesi Utara";"SULAWESI UTARA";"";"Indonesia";"";"";"";"0.3825898";"123.9840767";"https://maps.google.com/?cid=0x0:0x488a306ef75d25d";""
"mall";"mall";"Kec. Bolaang Uki";"Kabupaten Bolaang Mongondow Selatan, Sulawesi Utara";"Kabupaten Bolaang Mongondow Selatan, Sulawesi Utara";"SULAWESI UTARA";"";"Indonesia";"";"";"";"0.3828564";"123.9828414";"https://maps.google.com/?cid=0x0:0xe21c23fc1263f3c5";""
"mall";"Toko Ponsel";"GinobelTech";"9XPM+82F, Jl. Trans Sulawesi, Molibagu, Kec. Bolaang Uki, Kabupaten Bolaang Mongondow Selatan, Sulawesi Utara";"Kabupaten Bolaang Mongondow Selatan, Sulawesi Utara";"SULAWESI UTARA";"";"Indonesia";" 082292750300";"";"";"0.3858028";"123.9825564";"https://maps.google.com/?cid=0x0:0xb15addc16cc784b5";""
"mall";"Pusat Perbelanjaan";"Sr.shoope";"Salongo, Kec. Bolaang Uki, Kabupaten Bolaang Mongondow Selatan, Sulawesi Utara 95774";"Kec. Bolaang Uki, Kabupaten Bolaang Mongondow Selatan";"SULAWESI UTARA";"95774";"Indonesia";" 082191275936";"";"";"0.3641401";"123.9719075";"https://maps.google.com/?cid=0x0:0xb3344bddd0c802b3";""
"mall";"Toko Parfum";"Toko Parfum  Pakaian";"9XMG+3G2, Soguo, Kec. Bolaang Uki, Kabupaten Bolaang Mongondow Selatan, Sulawesi Utara";"Kabupaten Bolaang Mongondow Selatan, Sulawesi Utara";"SULAWESI UTARA";"";"Indonesia";" 0811430614";"";"";"0.3826444";"123.9762514";"https://maps.google.com/?cid=0x0:0x3e17e0e7d3fcd012";""
"mall";"Kios";"KIOS NIAR";"Popodu, Kec. Bolaang Uki, Kabupaten Bolaang Mongondow Selatan, Sulawesi Utara";"Kabupaten Bolaang Mongondow Selatan, Sulawesi Utara";"SULAWESI UTARA";"";"Indonesia";" 082190879392";"";"";"0.3788708";"123.9862034";"https://maps.google.com/?cid=0x0:0xf4443699df1b2a14";""
"mall";"Toko Alat Dapur";"Pak rafi pelengkapan dapur";"8QCV+8M4, Pangia, Kec. Bolaang Uki, Kabupaten Bolaang Mongondow Selatan, Sulawesi Utara";"Kabupaten Bolaang Mongondow Selatan, Sulawesi Utara";"SULAWESI UTARA";"";"Indonesia";" 085256041508";"";"";"0.3207547";"123.7942082";"https://maps.google.com/?cid=0x0:0x1b412a11465ddb0e";""
"mall";"mall";"Sulawesi Utara 95775";"Modisi, Kec. Pinolosian Tim., Kabupaten Bolaang Mongondow Selatan, Sulawesi Utara";"Kabupaten Bolaang Mongondow Selatan, Sulawesi Utara";"SULAWESI UTARA";"";"Indonesia";"";"";"";"0.4528494";"124.4356892";"https://maps.google.com/?cid=0x0:0x5956b774c20081f1";""
"mall";"Pusat Perbelanjaan";"Pasar Tradisional Desa Pinolosian Selatan";"94V9+8H7, Pinolosian Sel., Kec. Pinolosian, Kabupaten Bolaang Mongondow Selatan, Sulawesi Utara";"Kabupaten Bolaang Mongondow Selatan, Sulawesi Utara";"SULAWESI UTARA";"";"Indonesia";"";"";"";"0.3932778";"124.1189228";"https://maps.google.com/?cid=0x0:0x56333944ac89b0cc";""
"mall";"Pusat Perbelanjaan";"Toko Trisakti Desa Pinolosian Selatan";"94R9+X3R, Pinolosian Sel., Kec. Pinolosian, Kabupaten Bolaang Mongondow Selatan, Sulawesi Utara";"Kabupaten Bolaang Mongondow Selatan, Sulawesi Utara";"SULAWESI UTARA";"";"Indonesia";" 081340427877";"";"";"0.3924968";"124.1176406";"https://maps.google.com/?cid=0x0:0xb55dfba917af6a1c";""
"mall";"Hipermarket";"AEON MALL Jakarta Garden City";"Jl. Jkt Garden City Boulevard No.1, RT.8/RW.6, Cakung Tim., Kec. Cakung, Kota Jakarta Timur, Daerah Khusus Ibukota Jakarta 13910";"RT.8/RW.6, Cakung Tim., Kec. Cakung, Kota Jakarta Timur";"SULAWESI UTARA";"13910";"Indonesia";" 02122462525";"";"";"-6.1721883";"106.9522209";"https://maps.google.com/?cid=0x0:0x2c473319d7d1eef6";""
"mall";"mall";"Lapak Tikungan";"94W6+WGM, Ilomata, Kec. Pinolosian, Kabupaten Bolaang Mongondow Selatan, Sulawesi Utara";"Kabupaten Bolaang Mongondow Selatan, Sulawesi Utara";"SULAWESI UTARA";"";"Indonesia";"";"";"";"0.3973409";"124.1112962";"https://maps.google.com/?cid=0x0:0x78944253a894b4a0";""
"mall";"mall";"Kios F2";"Jln. SMA N 1, Pinolosian, Kec. Pinolosian, Kabupaten Bolaang Mongondow Selatan, Sulawesi Utara";"Kabupaten Bolaang Mongondow Selatan, Sulawesi Utara";"SULAWESI UTARA";"";"Indonesia";"";"";"";"0.3934804";"124.1165119";"https://maps.google.com/?cid=0x0:0xe760d1acb0cfa92b";""
"mall";"mall";"Sulawesi Utara 95775";"Modisi, Kec. Pinolosian Tim., Kabupaten Bolaang Mongondow Selatan, Sulawesi Utara";"Kabupaten Bolaang Mongondow Selatan, Sulawesi Utara";"SULAWESI UTARA";"";"Indonesia";"";"";"";"0.4528494";"124.4356892";"https://maps.google.com/?cid=0x0:0x5956b774c20081f1";""
"mall";"Pusat Perbelanjaan";"Pasar Tradisional Desa Pinolosian Selatan";"94V9+8H7, Pinolosian Sel., Kec. Pinolosian, Kabupaten Bolaang Mongondow Selatan, Sulawesi Utara";"Kabupaten Bolaang Mongondow Selatan, Sulawesi Utara";"SULAWESI UTARA";"";"Indonesia";"";"";"";"0.3932778";"124.1189228";"https://maps.google.com/?cid=0x0:0x56333944ac89b0cc";""
"mall";"mall";"Kios F2";"Jln. SMA N 1, Pinolosian, Kec. Pinolosian, Kabupaten Bolaang Mongondow Selatan, Sulawesi Utara";"Kabupaten Bolaang Mongondow Selatan, Sulawesi Utara";"SULAWESI UTARA";"";"Indonesia";"";"";"";"0.3934804";"124.1165119";"https://maps.google.com/?cid=0x0:0xe760d1acb0cfa92b";""
"mall";"Pusat Perbelanjaan";"Toko Trisakti Desa Pinolosian Selatan";"94R9+X3R, Pinolosian Sel., Kec. Pinolosian, Kabupaten Bolaang Mongondow Selatan, Sulawesi Utara";"Kabupaten Bolaang Mongondow Selatan, Sulawesi Utara";"SULAWESI UTARA";"";"Indonesia";" 081340427877";"";"";"0.3924968";"124.1176406";"https://maps.google.com/?cid=0x0:0xb55dfba917af6a1c";""
"mall";"Toko Swalayan";"POM MINI";"C7V6+JPP, Adow Sel., Kec. Pinolosian Tengah, Kabupaten Bolaang Mongondow Selatan, Sulawesi Utara";"Kabupaten Bolaang Mongondow Selatan, Sulawesi Utara";"SULAWESI UTARA";"";"Indonesia";"";"";"";"0.4440844";"124.2618428";"https://maps.google.com/?cid=0x0:0xa8c49256fb062175";""
"mall";"Toko Swalayan";"Pasar Tanoyan Selatan";"H7X9+99V, Tanoyan Sel., Kec. Lolayan, Kabupaten Bolaang Mongondow, Sulawesi Utara";"Kabupaten Bolaang Mongondow, Sulawesi Utara";"SULAWESI UTARA";"";"Indonesia";"";"";"";"0.5984922";"124.2684157";"https://maps.google.com/?cid=0x0:0x9f953014aab25e6d";""
"mall";"Toko";"KIOS MUTIARA";"J74G+PFX, Tanoyan Utara, Kec. Lolayan, Kabupaten Bolaang Mongondow, Sulawesi Utara";"Kabupaten Bolaang Mongondow, Sulawesi Utara";"SULAWESI UTARA";"";"Indonesia";" 085696266603";"";"";"0.6068659";"124.2762438";"https://maps.google.com/?cid=0x0:0x7fc1bed0a9717bb3";""
"mall";"Toko";"Kios Angkasa";"J75H+RP3, Unnamed Road, Tungoi II, Kec. Lolayan, Kabupaten Bolaang Mongondow, Sulawesi Utara";"Kabupaten Bolaang Mongondow, Sulawesi Utara";"SULAWESI UTARA";"";"Indonesia";" 085340307101";"";"";"0.6095203";"124.2793085";"https://maps.google.com/?cid=0x0:0x160033416c7be084";""
"mall";"Minimarket";"Raja Goropa";"Jl. Pantai No.15, Modisi, Kec. Pinolosian Tim., Kabupaten Bolaang Mongondow Selatan, Sulawesi Utara 95777";"Modisi, Kec. Pinolosian Tim., Kabupaten Bolaang Mongondow Selatan";"SULAWESI UTARA";"95777";"Indonesia";"";"";"";"0.4481091";"124.4318306";"https://maps.google.com/?cid=0x0:0xb3e56aae54f79c7f";""
"mall";"Minimarket";"Kios Opa Papi";"Jl. Mimosa No.1, Modisi, Kec. Pinolosian Tim., Kabupaten Bolaang Mongondow Selatan, Sulawesi Utara 95777";"Modisi, Kec. Pinolosian Tim., Kabupaten Bolaang Mongondow Selatan";"SULAWESI UTARA";"95777";"Indonesia";"";"";"";"0.4495128";"124.4352679";"https://maps.google.com/?cid=0x0:0x7076371fed6776ee";""
"mall";"mall";"Sulawesi Utara 95775";"Modisi, Kec. Pinolosian Tim., Kabupaten Bolaang Mongondow Selatan, Sulawesi Utara";"Kabupaten Bolaang Mongondow Selatan, Sulawesi Utara";"SULAWESI UTARA";"";"Indonesia";"";"";"";"0.4528494";"124.4356892";"https://maps.google.com/?cid=0x0:0x5956b774c20081f1";""
"mall";"Minimarket";"Kios Mauren";"Jl. Beriman No.4, Modisi, Kec. Pinolosian Tim., Kabupaten Bolaang Mongondow Selatan, Sulawesi Utara 95775";"Modisi, Kec. Pinolosian Tim., Kabupaten Bolaang Mongondow Selatan";"SULAWESI UTARA";"95775";"Indonesia";"";"";"";"0.4516961";"124.4362465";"https://maps.google.com/?cid=0x0:0xb0fca48ec97af6c2";""
"mall";"Pusat Perbelanjaan";"Warung Marlon";"QJXJ+33F, Paret, Kotabunan, Kabupaten Bolaang Mongondow Timur, Sulawesi Utara";"Kabupaten Bolaang Mongondow Timur, Sulawesi Utara";"SULAWESI UTARA";"";"Indonesia";" 081342197837";"";"";"0.7976836";"124.6301759";"https://maps.google.com/?cid=0x0:0x5a95941f467b5005";""
"mall";"mall";"Lapak Tikungan";"94W6+WGM, Ilomata, Kec. Pinolosian, Kabupaten Bolaang Mongondow Selatan, Sulawesi Utara";"Kabupaten Bolaang Mongondow Selatan, Sulawesi Utara";"SULAWESI UTARA";"";"Indonesia";"";"";"";"0.3973409";"124.1112962";"https://maps.google.com/?cid=0x0:0x78944253a894b4a0";""
"mall";"mall";"Kios F2";"Jln. SMA N 1, Pinolosian, Kec. Pinolosian, Kabupaten Bolaang Mongondow Selatan, Sulawesi Utara";"Kabupaten Bolaang Mongondow Selatan, Sulawesi Utara";"SULAWESI UTARA";"";"Indonesia";"";"";"";"0.3934804";"124.1165119";"https://maps.google.com/?cid=0x0:0xe760d1acb0cfa92b";""
"mall";"Kantor Pemerintah";"Pasar Desa Sakti";"8M44+G6V, Sakti, Kec. Posigadan, Kabupaten Bolaang Mongondow Selatan, Sulawesi Utara";"Kabupaten Bolaang Mongondow Selatan, Sulawesi Utara";"SULAWESI UTARA";"";"Indonesia";"";"";"";"0.3063692";"123.655544";"https://maps.google.com/?cid=0x0:0x38c752bcca0b9e50";""
"mall";"Kantor Pemerintahan Wilayah";"Kantor Desa Sakti";"8M44+PMP, Sakti, Kec. Posigadan, Kabupaten Bolaang Mongondow Selatan, Sulawesi Utara";"Kabupaten Bolaang Mongondow Selatan, Sulawesi Utara";"SULAWESI UTARA";"";"Indonesia";"";"";"";"0.3068446";"123.6567012";"https://maps.google.com/?cid=0x0:0x43e777864254da60";""
"mall";"mall";"Sulawesi Utara 95774";"Momalia I, Kec. Posigadan, Kabupaten Bolaang Mongondow Selatan, Sulawesi Utara";"Kabupaten Bolaang Mongondow Selatan, Sulawesi Utara";"SULAWESI UTARA";"";"Indonesia";"";"";"";"0.3179007";"123.5774024";"https://maps.google.com/?cid=0x0:0xe8ed2e820dc45687";""
"mall";"Kantor Pemerintahan Daerah";"KANTOR CAMAT POSIGADAN";"8HCG+9HV, Momalia I, Kec. Posigadan, Kabupaten Bolaang Mongondow Selatan, Sulawesi Utara";"Kabupaten Bolaang Mongondow Selatan, Sulawesi Utara";"SULAWESI UTARA";"";"Indonesia";"";"";"";"0.3209915";"123.5764258";"https://maps.google.com/?cid=0x0:0xf014ece00dd9d9ea";""
"mall";"Toko Ponsel";"Tiyandra Cell";"8GFX+R5, Meyambanga, Kec. Posigadan, Kabupaten Bolaang Mongondow Selatan, Sulawesi Utara";"Kabupaten Bolaang Mongondow Selatan, Sulawesi Utara";"SULAWESI UTARA";"";"Indonesia";"";"";"";"0.3245409";"123.5479205";"https://maps.google.com/?cid=0x0:0x2033853af3983f67";""
"supermarket";"supermarket";"Sulawesi Utara 95774";"Momalia I, Kec. Posigadan, Kabupaten Bolaang Mongondow Selatan, Sulawesi Utara";"Kabupaten Bolaang Mongondow Selatan, Sulawesi Utara";"SULAWESI UTARA";"";"Indonesia";"";"";"";"0.3179007";"123.5774024";"https://maps.google.com/?cid=0x0:0xe8ed2e820dc45687";""
"supermarket";"Minimarket";"Alfamart Labuan Uki";"RXQP+QPP, Jl. Trans-Sulawesi, Pinogaluman, Kec. Lolak, Kabupaten Bolaang Mongondow, Sulawesi Utara";"Kabupaten Bolaang Mongondow, Sulawesi Utara";"SULAWESI UTARA";"";"Indonesia";"";"";"";"0.8394656";"123.9868371";"https://maps.google.com/?cid=0x0:0x6e3c3527a32e725d";""
"supermarket";"Toko Swalayan";"Alin Mart";"Sondana, Kec. Bolaang Uki, Kabupaten Bolaang Mongondow Selatan, Sulawesi Utara";"Kabupaten Bolaang Mongondow Selatan, Sulawesi Utara";"SULAWESI UTARA";"";"Indonesia";"";"";"";"0.376277";"124.0012693";"https://maps.google.com/?cid=0x0:0x72e476b44701df24";""
"supermarket";"Minimarket";"Toko Fajar";"9XJF+PRP, Soguo, Kec. Bolaang Uki, Kabupaten Bolaang Mongondow Selatan, Sulawesi Utara";"Kabupaten Bolaang Mongondow Selatan, Sulawesi Utara";"SULAWESI UTARA";"";"Indonesia";"";"";"";"0.3818455";"123.9745643";"https://maps.google.com/?cid=0x0:0x6e780c2fe0ca443";""
"supermarket";"Minimarket";"Alfamart";"Jl. Raya Modayag Kel, Bangunan Wuwuk, Kec. Modayag Bar., Kabupaten Bolaang Mongondow Timur, Sulawesi Utara 95761";"Bangunan Wuwuk, Kec. Modayag Bar., Kabupaten Bolaang Mongondow Timur";"SULAWESI UTARA";"95761";"Indonesia";" 1500959";"";"";"0.7221314";"124.3611942";"https://maps.google.com/?cid=0x0:0xd61d8a43def0967";""
"supermarket";"Minimarket";"Alfamart Lolak";"Jl. Trans-Sulawesi, Mongkoinit, Kec. Lolak, Kabupaten Bolaang Mongondow, Sulawesi Utara 95761";"Mongkoinit, Kec. Lolak, Kabupaten Bolaang Mongondow";"SULAWESI UTARA";"95761";"Indonesia";" 0211500959";"";"";"0.8728313";"124.0046627";"https://maps.google.com/?cid=0x0:0xb1c9bbbf48a860d9";""
"supermarket";"supermarket";"Kec. Bolaang Uki";"Kabupaten Bolaang Mongondow Selatan, Sulawesi Utara";"Kabupaten Bolaang Mongondow Selatan, Sulawesi Utara";"SULAWESI UTARA";"";"Indonesia";"";"";"";"0.3828564";"123.9828414";"https://maps.google.com/?cid=0x0:0xe21c23fc1263f3c5";""
"supermarket";"Minimarket";"Alfamart Kosio";"Jl. Akd Trans Kotamobagu Doloduo Kosio, Dumoga, Tengah, Kab, Bolaang Mongondow Regency, North Sulawesi 95772";"Dumoga, Tengah, Kab, Bolaang Mongondow Regency";"SULAWESI UTARA";"95772";"Indonesia";" 1500959";"";"";"0.5389032";"124.0053319";"https://maps.google.com/?cid=0x0:0x83855362b97ee9f2";""
"supermarket";"Toko Swalayan";"Hail mart";"9XFQ+W79, Pintadia, Kec. Bolaang Uki, Kabupaten Bolaang Mongondow Selatan, Sulawesi Utara";"Kabupaten Bolaang Mongondow Selatan, Sulawesi Utara";"SULAWESI UTARA";"";"Indonesia";" 085240583362";"";"";"0.3747857";"123.9882318";"https://maps.google.com/?cid=0x0:0x49345e7f44e60218";""
"supermarket";"Minimarket";"Toko Alfa Tania";"Unnamed Road, Popodu, Kec. Bolaang Uki, Kabupaten Bolaang Mongondow Selatan, Sulawesi Utara";"Kabupaten Bolaang Mongondow Selatan, Sulawesi Utara";"SULAWESI UTARA";"";"Indonesia";" 082194305943";"";"";"0.377";"123.9872131";"https://maps.google.com/?cid=0x0:0x8df7dc3d4acd57e7";""
"supermarket";"Minimarket";"Kios Tantri";"Tabilaa, Kec. Bolaang Uki, Kabupaten Bolaang Mongondow Selatan, Sulawesi Utara 95770";"Kec. Bolaang Uki, Kabupaten Bolaang Mongondow Selatan";"SULAWESI UTARA";"95770";"Indonesia";"";"";"";"0.372166";"124.0272147";"https://maps.google.com/?cid=0x0:0xe6e1ce0d3bb81437";""
"supermarket";"Toko Swalayan";"Sondana Jaya";"9XGX+G46, Sondana, Kec. Bolaang Uki, Kabupaten Bolaang Mongondow Selatan, Sulawesi Utara";"Kabupaten Bolaang Mongondow Selatan, Sulawesi Utara";"SULAWESI UTARA";"";"Indonesia";"";"";"";"0.3757901";"123.9979599";"https://maps.google.com/?cid=0x0:0xc2b9dfef02271c95";""
"supermarket";"Minimarket";"Warung"AkRi"";"8Q96+52M, Botuliodu, Kec. Posigadan, Kabupaten Bolaang Mongondow Selatan, Sulawesi Utara";"Kabupaten Bolaang Mongondow Selatan, Sulawesi Utara";"SULAWESI UTARA";"";"Indonesia";"";"";"";"0.317327";"123.7604838";"https://maps.google.com/?cid=0x0:0xa2faf1a68d00c077";""
"supermarket";"supermarket";"Tokoh angra";"Desa popodu, Molibagu, Kec. Bolaang Uki, Kabupaten Bolaang Mongondow Selatan, Sulawesi Utara 95774";"Molibagu, Kec. Bolaang Uki, Kabupaten Bolaang Mongondow Selatan";"SULAWESI UTARA";"95774";"Indonesia";" 085824043540";"";"";"0.4242972";"123.9694276";"https://maps.google.com/?cid=0x0:0x7335430b51197f10";""
"supermarket";"supermarket";"Sulawesi Utara 95775";"Modisi, Kec. Pinolosian Tim., Kabupaten Bolaang Mongondow Selatan, Sulawesi Utara";"Kabupaten Bolaang Mongondow Selatan, Sulawesi Utara";"SULAWESI UTARA";"";"Indonesia";"";"";"";"0.4528494";"124.4356892";"https://maps.google.com/?cid=0x0:0x5956b774c20081f1";""
"supermarket";"Minimarket";"Kios Liani";"Jl. Siswa No.3, Modisi, Kec. Pinolosian Tim., Kabupaten Bolaang Mongondow Selatan, Sulawesi Utara 95775";"Modisi, Kec. Pinolosian Tim., Kabupaten Bolaang Mongondow Selatan";"SULAWESI UTARA";"95775";"Indonesia";"";"";"";"0.4530895";"124.4360397";"https://maps.google.com/?cid=0x0:0xd7ad6d3529f1fcab";""
"supermarket";"Toko";"Prima Store Sonuo";"Jl. Trans-Sulawesi, Sonuo, Kec. Bolang Itang Bar., Kabupaten Bolaang Mongondow Utara, Sulawesi Utara";"Kabupaten Bolaang Mongondow Utara, Sulawesi Utara";"SULAWESI UTARA";"";"Indonesia";" 081243664949";"";"";"0.893012";"123.3140126";"https://maps.google.com/?cid=0x0:0x5fc6df3905d406e0";""
"supermarket";"Minimarket";"Kios s.s";"Posilagon, Kec. Pinolosian Tim., Kabupaten Bolaang Mongondow Selatan, Sulawesi Utara";"Kabupaten Bolaang Mongondow Selatan, Sulawesi Utara";"SULAWESI UTARA";"";"Indonesia";"";"";"";"0.4692968";"124.4449419";"https://maps.google.com/?cid=0x0:0xff9fbbbc7ea43be5";""
"supermarket";"Minimarket";"Indomaret Pinolosian";"94W8+WMP, Pinolosian, Kec. Pinolosian, Kabupaten Bolaang Mongondow Selatan, Sulawesi Utara";"Kabupaten Bolaang Mongondow Selatan, Sulawesi Utara";"SULAWESI UTARA";"";"Indonesia";"";"";"";"0.3973278";"124.1167285";"https://maps.google.com/?cid=0x0:0x4b10a4e37f07b9fd";""
"supermarket";"supermarket";"Dapur pinseL";"94Q9+X6F, Pinolosian Sel., Kec. Pinolosian, Kabupaten Bolaang Mongondow Selatan, Sulawesi Utara";"Kabupaten Bolaang Mongondow Selatan, Sulawesi Utara";"SULAWESI UTARA";"";"Indonesia";"";"";"";"0.3899325";"124.1180488";"https://maps.google.com/?cid=0x0:0x498093faa8137b24";""
"supermarket";"Kios";"Kios";"94Q7+J59, Ilomata, Kec. Pinolosian, Kabupaten Bolaang Mongondow Selatan, Sulawesi Utara";"Kabupaten Bolaang Mongondow Selatan, Sulawesi Utara";"SULAWESI UTARA";"";"Indonesia";"";"";"";"0.3889212";"124.1129411";"https://maps.google.com/?cid=0x0:0x598c181cb040ea9d";""
"supermarket";"Pusat Perbelanjaan";"Toko PORODISA Tanoyan Selatan";"J74C+5X4, Lorong Bulawan, Tanoyan Sel., Tanoyan Sel., Kec. Lolayan, Kabupaten Bolaang Mongondow, Sulawesi Utara";"Kabupaten Bolaang Mongondow, Sulawesi Utara";"SULAWESI UTARA";"";"Indonesia";"";"";"";"0.605381";"124.2724398";"https://maps.google.com/?cid=0x0:0xff4f1a0e3891383d";""
"supermarket";"supermarket";"Sulawesi Utara 95775";"Modisi, Kec. Pinolosian Tim., Kabupaten Bolaang Mongondow Selatan, Sulawesi Utara";"Kabupaten Bolaang Mongondow Selatan, Sulawesi Utara";"SULAWESI UTARA";"";"Indonesia";"";"";"";"0.4528494";"124.4356892";"https://maps.google.com/?cid=0x0:0x5956b774c20081f1";""
"supermarket";"Toko";"Prima Store Sonuo";"Jl. Trans-Sulawesi, Sonuo, Kec. Bolang Itang Bar., Kabupaten Bolaang Mongondow Utara, Sulawesi Utara";"Kabupaten Bolaang Mongondow Utara, Sulawesi Utara";"SULAWESI UTARA";"";"Indonesia";" 081243664949";"";"";"0.893012";"123.3140126";"https://maps.google.com/?cid=0x0:0x5fc6df3905d406e0";""
"supermarket";"Minimarket";"Kios Khiar";"Jl. K.A Katili Desa Linawan I, Dusun II, Kompleks Lapangan, Kabupaten Bolaang Mongondow Selatan, Sulawesi Utara 95775";"Dusun II, Kompleks Lapangan, Kabupaten Bolaang Mongondow Selatan";"SULAWESI UTARA";"95775";"Indonesia";" 085299752259";"";"";"0.3911115";"124.0993704";"https://maps.google.com/?cid=0x0:0xbfe97bff01f3f877";""
"supermarket";"Toko Swalayan";"KIOS SOFIAN MOKOGINTA";"R5R4+QXM, Solimandungan Satu, Baru, Kabupaten Bolaang Mongondow, Sulawesi Utara 95752";"Solimandungan Satu, Baru, Kabupaten Bolaang Mongondow";"SULAWESI UTARA";"95752";"Indonesia";" 085825307235";"";"";"0.8416264";"124.157731";"https://maps.google.com/?cid=0x0:0xe866fb8cd9e1cf2e";""
"supermarket";"Pusat Perbelanjaan";"PASAR LOLAYAN/tanoyan Utara";"J75H+RV8, Tanoyan Utara, Kec. Lolayan, Kabupaten Bolaang Mongondow, Sulawesi Utara";"Kabupaten Bolaang Mongondow, Sulawesi Utara";"SULAWESI UTARA";"";"Indonesia";"";"";"";"0.609538";"124.2797015";"https://maps.google.com/?cid=0x0:0x14b667819c14d3a1";""
"supermarket";"Kios";"Kios";"94Q7+J59, Ilomata, Kec. Pinolosian, Kabupaten Bolaang Mongondow Selatan, Sulawesi Utara";"Kabupaten Bolaang Mongondow Selatan, Sulawesi Utara";"SULAWESI UTARA";"";"Indonesia";"";"";"";"0.3889212";"124.1129411";"https://maps.google.com/?cid=0x0:0x598c181cb040ea9d";""
"supermarket";"Minimarket";"Kios s.s";"Posilagon, Kec. Pinolosian Tim., Kabupaten Bolaang Mongondow Selatan, Sulawesi Utara";"Kabupaten Bolaang Mongondow Selatan, Sulawesi Utara";"SULAWESI UTARA";"";"Indonesia";"";"";"";"0.4692968";"124.4449419";"https://maps.google.com/?cid=0x0:0xff9fbbbc7ea43be5";""
"supermarket";"supermarket";"Kec. Pinolosian Tengah";"Kabupaten Bolaang Mongondow Selatan, Sulawesi Utara";"Kabupaten Bolaang Mongondow Selatan, Sulawesi Utara";"SULAWESI UTARA";"";"Indonesia";"";"";"";"0.4814411";"124.2643871";"https://maps.google.com/?cid=0x0:0x202271dfbca50638";""
"supermarket";"Pusat Perbelanjaan";"Indomaret Adow";"C7R6+WQR, Adow Sel., Kec. Pinolosian Tengah, Kabupaten Bolaang Mongondow Selatan, Sulawesi Utara";"Kabupaten Bolaang Mongondow Selatan, Sulawesi Utara";"SULAWESI UTARA";"";"Indonesia";"";"";"";"0.4423925";"124.2618414";"https://maps.google.com/?cid=0x0:0xe0bd52cfae5865d4";""
"supermarket";"Minimarket";"Kios papa fira";"C54W+QRG, Lungkap, Kec. Pinolosian, Kabupaten Bolaang Mongondow Selatan, Sulawesi Utara";"Kabupaten Bolaang Mongondow Selatan, Sulawesi Utara";"SULAWESI UTARA";"";"Indonesia";"";"";"";"0.406943";"124.19708";"https://maps.google.com/?cid=0x0:0x3c78ffc0396595e3";""
"supermarket";"Minimarket";"Kios Yoga";"F82M+53G, Motandoi, Kec. Pinolosian Tim., Kabupaten Bolaang Mongondow Selatan, Sulawesi Utara";"Kabupaten Bolaang Mongondow Selatan, Sulawesi Utara";"SULAWESI UTARA";"";"Indonesia";"";"";"";"0.4504267";"124.3326927";"https://maps.google.com/?cid=0x0:0xfea720e8bff30bec";""
"supermarket";"Minimarket";"Indomaret Lolayan";"J75G+5VF, Tanoyan Utara, Kec. Lolayan, Kabupaten Bolaang Mongondow, Sulawesi Utara";"Kabupaten Bolaang Mongondow, Sulawesi Utara";"SULAWESI UTARA";"";"Indonesia";"";"";"";"0.6079475";"124.2771577";"https://maps.google.com/?cid=0x0:0xa95dfcdf53a0e844";""
"supermarket";"Toko umum";"Warong ko' bocil oren";"C7HQ+3Q, Deaga, Kabupaten Bolaang Mongondow Selatan, Sulawesi Utara";"Kabupaten Bolaang Mongondow Selatan, Sulawesi Utara";"SULAWESI UTARA";"";"Indonesia";"";"";"";"0.427753";"124.289876";"https://maps.google.com/?cid=0x0:0xaaa8284e9c5c51e4";""
"supermarket";"supermarket";"Dapur pinseL";"94Q9+X6F, Pinolosian Sel., Kec. Pinolosian, Kabupaten Bolaang Mongondow Selatan, Sulawesi Utara";"Kabupaten Bolaang Mongondow Selatan, Sulawesi Utara";"SULAWESI UTARA";"";"Indonesia";"";"";"";"0.3899325";"124.1180488";"https://maps.google.com/?cid=0x0:0x498093faa8137b24";""
"supermarket";"Minimarket";"Alfamart Bakan Bolmong";"J73Q+MCW, Desa, Bakan, Kec. Lolayan, Kabupaten Bolaang Mongondow, Sulawesi Utara";"Kabupaten Bolaang Mongondow, Sulawesi Utara";"SULAWESI UTARA";"";"Indonesia";"";"";"";"0.6042371";"124.2885836";"https://maps.google.com/?cid=0x0:0xa411bbecc528bcab";""
"supermarket";"Toko";"LOKET SIENNA";"J72P+269, Unnamed Road, Bakan, Kec. Lolayan, Kabupaten Bolaang Mongondow, Sulawesi Utara";"Kabupaten Bolaang Mongondow, Sulawesi Utara";"SULAWESI UTARA";"";"Indonesia";" 081241040721";"";"";"0.6000468";"124.285618";"https://maps.google.com/?cid=0x0:0xe9c055d6be20069b";""
"supermarket";"supermarket";"Sulawesi Utara 95775";"Modisi, Kec. Pinolosian Tim., Kabupaten Bolaang Mongondow Selatan, Sulawesi Utara";"Kabupaten Bolaang Mongondow Selatan, Sulawesi Utara";"SULAWESI UTARA";"";"Indonesia";"";"";"";"0.4528494";"124.4356892";"https://maps.google.com/?cid=0x0:0x5956b774c20081f1";""
"supermarket";"Toko";"Prima Store Sonuo";"Jl. Trans-Sulawesi, Sonuo, Kec. Bolang Itang Bar., Kabupaten Bolaang Mongondow Utara, Sulawesi Utara";"Kabupaten Bolaang Mongondow Utara, Sulawesi Utara";"SULAWESI UTARA";"";"Indonesia";" 081243664949";"";"";"0.893012";"123.3140126";"https://maps.google.com/?cid=0x0:0x5fc6df3905d406e0";""
"supermarket";"Minimarket";"Kios s.s";"Posilagon, Kec. Pinolosian Tim., Kabupaten Bolaang Mongondow Selatan, Sulawesi Utara";"Kabupaten Bolaang Mongondow Selatan, Sulawesi Utara";"SULAWESI UTARA";"";"Indonesia";"";"";"";"0.4692968";"124.4449419";"https://maps.google.com/?cid=0x0:0xff9fbbbc7ea43be5";""
"supermarket";"Pusat Perbelanjaan";"Toko PORODISA Tanoyan Selatan";"J74C+5X4, Lorong Bulawan, Tanoyan Sel., Tanoyan Sel., Kec. Lolayan, Kabupaten Bolaang Mongondow, Sulawesi Utara";"Kabupaten Bolaang Mongondow, Sulawesi Utara";"SULAWESI UTARA";"";"Indonesia";"";"";"";"0.605381";"124.2724398";"https://maps.google.com/?cid=0x0:0xff4f1a0e3891383d";""
"supermarket";"Minimarket";"Alfamart Ponompiaan";"Jl. Akd Jl. Trans Sulawesi, Ponompiaan, Kec. Dumoga Tim., Kabupaten Bolaang Mongondow, Sulawesi Utara 95763";"Ponompiaan, Kec. Dumoga Tim., Kabupaten Bolaang Mongondow";"SULAWESI UTARA";"95763";"Indonesia";" 1500959";"";"";"0.6660326";"124.1371505";"https://maps.google.com/?cid=0x0:0x47870039137ed5d9";""
"supermarket";"Pusat Perbelanjaan";"PASAR LOLAYAN/tanoyan Utara";"J75H+RV8, Tanoyan Utara, Kec. Lolayan, Kabupaten Bolaang Mongondow, Sulawesi Utara";"Kabupaten Bolaang Mongondow, Sulawesi Utara";"SULAWESI UTARA";"";"Indonesia";"";"";"";"0.609538";"124.2797015";"https://maps.google.com/?cid=0x0:0x14b667819c14d3a1";""
"supermarket";"Minimarket";"toko sinar pinolosian";"94X9+3QH, Tolotoyon, Kec. Pinolosian, Kabupaten Bolaang Mongondow Selatan, Sulawesi Utara";"Kabupaten Bolaang Mongondow Selatan, Sulawesi Utara";"SULAWESI UTARA";"";"Indonesia";"";"";"";"0.3976869";"124.1194934";"https://maps.google.com/?cid=0x0:0x3b43dd9bda448d57";""
"supermarket";"Toko Swalayan";"KIOS SOFIAN MOKOGINTA";"R5R4+QXM, Solimandungan Satu, Baru, Kabupaten Bolaang Mongondow, Sulawesi Utara 95752";"Solimandungan Satu, Baru, Kabupaten Bolaang Mongondow";"SULAWESI UTARA";"95752";"Indonesia";" 085825307235";"";"";"0.8416264";"124.157731";"https://maps.google.com/?cid=0x0:0xe866fb8cd9e1cf2e";""
"supermarket";"Minimarket";"Indomaret Pinogaluman";"W49R+33X, Jl. Trans-Sulawesi, Buko, Kec. Pinogaluman, Kabupaten Bolaang Mongondow Utara, Sulawesi Utara 96253";"Jl. Trans-Sulawesi, Buko, Kec. Pinogaluman, Kabupaten Bolaang Mongondow Utara";"SULAWESI UTARA";"96253";"Indonesia";"";"";"";"0.9177258";"123.1402467";"https://maps.google.com/?cid=0x0:0x959fb11ecf677375";""
"supermarket";"Kios";"Kios";"94Q7+J59, Ilomata, Kec. Pinolosian, Kabupaten Bolaang Mongondow Selatan, Sulawesi Utara";"Kabupaten Bolaang Mongondow Selatan, Sulawesi Utara";"SULAWESI UTARA";"";"Indonesia";"";"";"";"0.3889212";"124.1129411";"https://maps.google.com/?cid=0x0:0x598c181cb040ea9d";""
"supermarket";"supermarket";"Toko Aliwu/Layla";"94V9+9PQ, Pinolosian Sel., Kec. Pinolosian, Kabupaten Bolaang Mongondow Selatan, Sulawesi Utara";"Kabupaten Bolaang Mongondow Selatan, Sulawesi Utara";"SULAWESI UTARA";"";"Indonesia";"";"";"";"0.3934518";"124.1193488";"https://maps.google.com/?cid=0x0:0x7642e39dbe40854a";""
"supermarket";"supermarket";"Sulawesi Utara 95774";"Momalia I, Kec. Posigadan, Kabupaten Bolaang Mongondow Selatan, Sulawesi Utara";"Kabupaten Bolaang Mongondow Selatan, Sulawesi Utara";"SULAWESI UTARA";"";"Indonesia";"";"";"";"0.3179007";"123.5774024";"https://maps.google.com/?cid=0x0:0xe8ed2e820dc45687";""
"supermarket";"Minimarket";"ALFAKIOS";"8J4P+3PP, Jl. Trans Sulawesi, Inosota, Kec. Posigadan, Kabupaten Bolaang Mongondow Selatan, Sulawesi Utara";"Kabupaten Bolaang Mongondow Selatan, Sulawesi Utara";"SULAWESI UTARA";"";"Indonesia";" 082394691184";"";"";"0.3052089";"123.6368394";"https://maps.google.com/?cid=0x0:0xb39576868a0d4aca";""
"supermarket";"Toko bahan makanan";"Awal Kios";"8PCF+FQJ, Milangodaa, Kec. Posigadan, Kabupaten Bolaang Mongondow Selatan, Sulawesi Utara";"Kabupaten Bolaang Mongondow Selatan, Sulawesi Utara";"SULAWESI UTARA";"";"Indonesia";" 081356946712";"";"";"0.3212163";"123.7244062";"https://maps.google.com/?cid=0x0:0x712d15cee99eaf7f";""
"supermarket";"Pusat Perbelanjaan";"Toko PORODISA Tanoyan Selatan";"J74C+5X4, Lorong Bulawan, Tanoyan Sel., Tanoyan Sel., Kec. Lolayan, Kabupaten Bolaang Mongondow, Sulawesi Utara";"Kabupaten Bolaang Mongondow, Sulawesi Utara";"SULAWESI UTARA";"";"Indonesia";"";"";"";"0.605381";"124.2724398";"https://maps.google.com/?cid=0x0:0xff4f1a0e3891383d";""
"supermarket";"Minimarket";"Warung"AkRi"";"8Q96+52M, Botuliodu, Kec. Posigadan, Kabupaten Bolaang Mongondow Selatan, Sulawesi Utara";"Kabupaten Bolaang Mongondow Selatan, Sulawesi Utara";"SULAWESI UTARA";"";"Indonesia";"";"";"";"0.317327";"123.7604838";"https://maps.google.com/?cid=0x0:0xa2faf1a68d00c077";""
"supermarket";"Layanan Transfer Uang";"BRI LINK";"8H9G+5WW, Momalia TIGA, Kec. Posigadan, Kabupaten Bolaang Mongondow Selatan, Sulawesi Utara";"Kabupaten Bolaang Mongondow Selatan, Sulawesi Utara";"SULAWESI UTARA";"";"Indonesia";"";"";"";"0.317981";"123.5773227";"https://maps.google.com/?cid=0x0:0xf6798e85f3ccaece";""
"supermarket";"supermarket";"kb paud mekar";"pangia, Kec. Posigadan, Kabupaten Bolaang Mongondow Selatan, Sulawesi Utara 95774";"Kec. Posigadan, Kabupaten Bolaang Mongondow Selatan";"SULAWESI UTARA";"95774";"Indonesia";" 085343535489";"";"";"0.3178394";"123.577342";"https://maps.google.com/?cid=0x0:0x209fed047687ac25";""
"supermarket";"supermarket";"Toko AGRIL";"8H9G+6VW, Momalia I, Kec. Posigadan, Kabupaten Bolaang Mongondow Selatan, Sulawesi Utara";"Kabupaten Bolaang Mongondow Selatan, Sulawesi Utara";"SULAWESI UTARA";"";"Indonesia";"";"";"";"0.3181108";"123.577201";"https://maps.google.com/?cid=0x0:0xa711ac4e8f5ce592";""
