Category,Real Category,Business Name,Address,City,State,Postal Code,Country,Phone,Latitude,Longitude,Map Link
cafe,,PALLAWARUKKA cafe,"4PVX+HFJ, Jl. Inres Kalibagre, Sarmi, Kec. Sarmi, Kabupaten Sarmi, Papua 99373","Jl. Inres Kalibagre, Sarmi, Kec. Sarmi, Kabupaten Sarmi",PAPUA,99373.0,Indonesia,,-1.8560306,138.7486541,https://maps.google.com/?cid=0x0:0x6d69bd8aab18b606
cafe,cafe,Sarmi,"Sarmi, Kec. Sarmi, Kabupaten Sarmi, Papua","Kabupaten Sarmi, Papua",PAPUA,,Indonesia,,-1.8526967,138.7507552,https://maps.google.com/?cid=0x0:0x1b3c48b9f289ecb6
cafe,Toko Swalayan,S-ONE CAFE,"4QW2+W7M, JL. INPRES, Sarmi, KOTA, Kabupaten Sarmi, Papua 91373","JL. INPRES, Sarmi, KOTA, Kabupaten Sarmi",PAPUA,91373.0,Indonesia, 082211363699,-1.8526669,138.7506824,https://maps.google.com/?cid=0x0:0x22941e780f8778b2
cafe,Kafe,FAUSTA CAFE,"4Q52+CQG, Jalan Raya Neidam Lembah Neidam, Sawar, Kec. Sarmi, Kabupaten Sarmi, Papua 99373","Jalan Raya Neidam Lembah Neidam, Sawar, Kec. Sarmi, Kabupaten Sarmi",PAPUA,99373.0,Indonesia, 082199592579,-1.8914353,138.7519529,https://maps.google.com/?cid=0x0:0x61453bcb39d884ac
cafe,Kedai Kopi,Kedai Kopi 1001,"Jl. Raya Klp. Satu, Sawar, Kec. Sarmi, Kabupaten Sarmi, Papua 99373","Sawar, Kec. Sarmi, Kabupaten Sarmi",PAPUA,99373.0,Indonesia, 085340709027,-1.8888776,138.7519762,https://maps.google.com/?cid=0x0:0xc4d4317041e00684
cafe,Kafe,Kedai mami,"4QF3+5FG, Jl. Inres Kalibagre, Mararena, Kec. Sarmi, Kabupaten Sarmi, Papua 99373","Jl. Inres Kalibagre, Mararena, Kec. Sarmi, Kabupaten Sarmi",PAPUA,99373.0,Indonesia, 082251980168,-1.877126,138.7537354,https://maps.google.com/?cid=0x0:0x2111f4d63d8ec228
cafe,Restoran,Kafe Dinar,"4Q63+HV3, Jl. Raya Klp. Satu, Sawar, Kec. Sarmi, Kabupaten Sarmi, Papua 99373","Jl. Raya Klp. Satu, Sawar, Kec. Sarmi, Kabupaten Sarmi",PAPUA,99373.0,Indonesia, 082238948480,-1.8886076,138.7546628,https://maps.google.com/?cid=0x0:0x600db20f6665a045
cafe,Minimarket,Toko Sultan Sarmi,"4PWX+MW7, Sarmi, Kec. Sarmi, Kabupaten Sarmi, Papua 99373","Sarmi, Kec. Sarmi, Kabupaten Sarmi",PAPUA,99373.0,Indonesia,,-1.8533343,138.7497929,https://maps.google.com/?cid=0x0:0xc3304ba18728f2a9
cafe,Rumah Makan,Warung Nasi Kuning,"4QW2+F25, Sarmi, Kec. Sarmi, Kabupaten Sarmi, Papua 99373","Sarmi, Kec. Sarmi, Kabupaten Sarmi",PAPUA,99373.0,Indonesia, 082234342529,-1.8538554,138.7501057,https://maps.google.com/?cid=0x0:0x75088dabaa28196f
cafe,,Cafe Rasya Garsa,"3QX3+R42, Neidam, Kota, Jalan Raya Kantor Bupati, Sarmi, Kec. Sarmi, Kabupaten Sarmi, Papua 99373","Neidam, Kota, Jalan Raya Kantor Bupati, Sarmi, Kec. Sarmi, Kabupaten Sarmi",PAPUA,99373.0,Indonesia,,-1.900485,138.7527504,https://maps.google.com/?cid=0x0:0x8b637d78f51483e8
cafe,Kafe,HARVEST Coffeeshop,"Mararena, Kec. Sarmi, Kabupaten Sarmi, Papua 99373","Kec. Sarmi, Kabupaten Sarmi",PAPUA,99373.0,Indonesia, 082199688020,-1.8854568,138.7506672,https://maps.google.com/?cid=0x0:0x20b737d4c2ec55a7
cafe,cafe,Papua 99372,"Kabupaten Sarmi, Papua","Kabupaten Sarmi, Papua",PAPUA,,Indonesia,,-2.3921952,138.7995122,https://maps.google.com/?cid=0x0:0x8adfd51c064e390b
cafe,,PALLAWARUKKA cafe,"4PVX+HFJ, Jl. Inres Kalibagre, Sarmi, Kec. Sarmi, Kabupaten Sarmi, Papua 99373","Jl. Inres Kalibagre, Sarmi, Kec. Sarmi, Kabupaten Sarmi",PAPUA,99373.0,Indonesia,,-1.8560306,138.7486541,https://maps.google.com/?cid=0x0:0x6d69bd8aab18b606
cafe,Kafe,FAUSTA CAFE,"4Q52+CQG, Jalan Raya Neidam Lembah Neidam, Sawar, Kec. Sarmi, Kabupaten Sarmi, Papua 99373","Jalan Raya Neidam Lembah Neidam, Sawar, Kec. Sarmi, Kabupaten Sarmi",PAPUA,99373.0,Indonesia, 082199592579,-1.8914353,138.7519529,https://maps.google.com/?cid=0x0:0x61453bcb39d884ac
cafe,Kafe,Tana Papua Coffee and Roastery,"Jl. Raya Abepura, Vim, Kec. Abepura, Kota Jayapura, Papua 99220","Vim, Kec. Abepura, Kota Jayapura",PAPUA,99220.0,Indonesia, 082175416609,-2.6047712,140.6727079,https://maps.google.com/?cid=0x0:0x747c727d4b94ebf6
cafe,Kedai Kopi,Cafe Zora Nep'orwar (Kelapa goyang + Saraba),"4QG3+H7H, Mararena, Kec. Sarmi, Kabupaten Sarmi, Papua","Kabupaten Sarmi, Papua",PAPUA,,Indonesia, 082397262699,-1.8735732,138.7532399,https://maps.google.com/?cid=0x0:0x6ac0b1e9529172ef
cafe,Restoran,Kafe Dinar,"4Q63+HV3, Jl. Raya Klp. Satu, Sawar, Kec. Sarmi, Kabupaten Sarmi, Papua 99373","Jl. Raya Klp. Satu, Sawar, Kec. Sarmi, Kabupaten Sarmi",PAPUA,99373.0,Indonesia, 082238948480,-1.8886076,138.7546628,https://maps.google.com/?cid=0x0:0x600db20f6665a045
cafe,Kedai Kopi,Kedai Kopi 1001,"Jl. Raya Klp. Satu, Sawar, Kec. Sarmi, Kabupaten Sarmi, Papua 99373","Sawar, Kec. Sarmi, Kabupaten Sarmi",PAPUA,99373.0,Indonesia, 085340709027,-1.8888776,138.7519762,https://maps.google.com/?cid=0x0:0xc4d4317041e00684
cafe,Kedai Kopi,Cafe D'Korasa,"G6J3+V6G, Betaf II / Tamnir, Kec. Pantai Tim., Kabupaten Sarmi, Papua","Kabupaten Sarmi, Papua",PAPUA,,Indonesia,,-2.4678144,139.2030851,https://maps.google.com/?cid=0x0:0x44bdbd750a55de9f
cafe,Kafe,Messy cafe,"XPPQ+9M5, Jln. Raya Petam, Kasukwe, Distrik Sarmi Selatan, Kabupaten Sarmi, Papua 99373","Jln. Raya Petam, Kasukwe, Distrik Sarmi Selatan, Kabupaten Sarmi",PAPUA,99373.0,Indonesia,,-2.0141157,138.739224,https://maps.google.com/?cid=0x0:0xaff6be381bed7db5
cafe,Kafe,CAFE D'KORASA,"4PVX+HV5, Jl. Inpres Kalibagre, Sarmi, Kec. Sarmi, Kabupaten Sarmi, Papua 99373","Jl. Inpres Kalibagre, Sarmi, Kec. Sarmi, Kabupaten Sarmi",PAPUA,99373.0,Indonesia,,-1.8561125,138.7497344,https://maps.google.com/?cid=0x0:0xb9f4d75653151149
cafe,Sarapan,Cafe BLACKANCA,"Sarmi, BLACKANCA, Kabupaten Sarmi, Papua 99373","BLACKANCA, Kabupaten Sarmi",PAPUA,99373.0,Indonesia, 082272050328,-1.85604,138.75232,https://maps.google.com/?cid=0x0:0x2015563b169433da
cafe,Restoran,Warung Es Campur,"3QXH+283, Unnamed Rd, Sawar, Kec. Sarmi, Kabupaten Sarmi, Papua 99373","Unnamed Rd, Sawar, Kec. Sarmi, Kabupaten Sarmi",PAPUA,99373.0,Indonesia, 085244979850,-1.9024957,138.7782915,https://maps.google.com/?cid=0x0:0xa5d11b6100227bf8
cafe,cafe,Distrik Pantai Barat,"Kabupaten Sarmi, Papua","Kabupaten Sarmi, Papua",PAPUA,,Indonesia,,-1.7332657,138.4123611,https://maps.google.com/?cid=0x0:0xf929d33f427f240b
cafe,Indonesia,Cafe Pantai Fasharkan TNI AL,"43H9+C4, Sanggeng, Kec. Manokwari Bar., Kabupaten Manokwari, Papua Bar.","Kabupaten Manokwari, Papua Bar.",PAPUA,,Indonesia,,-0.8715115,134.0678559,https://maps.google.com/?cid=0x0:0x7da1dcd9f7d226d3
cafe,cafe,Cafe Cafe,"9QGM+77G Holtekamp Beach, Papua 99351",Papua,PAPUA,,Indonesia,,-2.6243045,140.783206,https://maps.google.com/?cid=0x0:0xcee4689e9d89e8c5
cafe,Kafe,KAFE,"49, Jl. Raya Pos Pengumben No.49, RT.7/RW.6, Sukabumi Sel., Kec. Kb. Jeruk, Kota Jakarta Barat, Daerah Khusus Ibukota Jakarta 11560","Jl. Raya Pos Pengumben No.49, RT.7/RW.6, Sukabumi Sel., Kec. Kb. Jeruk, Kota Jakarta Barat",PAPUA,11560.0,Indonesia,,-6.216623,106.765761,https://maps.google.com/?cid=0x0:0xdd68a72abbd39172
cafe,cafe,,,,PAPUA,,Indonesia,,,,https://maps.google.com/?cid=0x0:0xfc4de29ef8fdf841u0026onu0026midu003d/g/11l4n0cqy7
cafe,cafe,,,,PAPUA,,Indonesia,,,,https://maps.google.com/?cid=0x0:0xfc4de29ef8fdf841u0026onu003dBlackpepperu0026midu003d/g/11l4n0cqy7
cafe,cafe,Papua 99371,"Kabupaten Sarmi, Papua","Kabupaten Sarmi, Papua",PAPUA,,Indonesia,,-2.7126367,139.2030851,https://maps.google.com/?cid=0x0:0x8507074767d67bf9
cafe,Kedai Kopi,Cafe D'Korasa,"G6J3+V6G, Betaf II / Tamnir, Kec. Pantai Tim., Kabupaten Sarmi, Papua","Kabupaten Sarmi, Papua",PAPUA,,Indonesia,,-2.4678144,139.2030851,https://maps.google.com/?cid=0x0:0x44bdbd750a55de9f
cafe,Kedai Kopi,Warung makan jalur 2,"G6J3+V6G, Betaf II / Tamnir, Kec. Pantai Tim., Kabupaten Sarmi, Papua","Kabupaten Sarmi, Papua",PAPUA,,Indonesia,,-2.4678144,139.2030851,https://maps.google.com/?cid=0x0:0x4ba8e7424511f2a2
cafe,Kafe,RESISTANCE CAFE (24 JAM),"Ruko, Jl. Pacific Permai, belakang kantor, KADIN, Papua",Papua,PAPUA,,Indonesia,,-2.5376957,140.7086088,https://maps.google.com/?cid=0x0:0x633297421a426da1
cafe,Restoran,Pit's Corner ( Papua Specialty Coffee ),"Jalan kasuari no.2 Dok V Atas, Mandala, Jayapura Utara, Jayapura City, Papua 99114","Mandala, Jayapura Utara, Jayapura City",PAPUA,99114.0,Indonesia, 09675160443,-2.5310642,140.71875,https://maps.google.com/?cid=0x0:0xf39f3950a3bf5ed2
cafe,,Cafe Rasya Garsa,"3QX3+R42, Neidam, Kota, Jalan Raya Kantor Bupati, Sarmi, Kec. Sarmi, Kabupaten Sarmi, Papua 99373","Neidam, Kota, Jalan Raya Kantor Bupati, Sarmi, Kec. Sarmi, Kabupaten Sarmi",PAPUA,99373.0,Indonesia,,-1.900485,138.7527504,https://maps.google.com/?cid=0x0:0x8b637d78f51483e8
cafe,Kafe,HARVEST Coffeeshop,"Mararena, Kec. Sarmi, Kabupaten Sarmi, Papua 99373","Kec. Sarmi, Kabupaten Sarmi",PAPUA,99373.0,Indonesia, 082199688020,-1.8854568,138.7506672,https://maps.google.com/?cid=0x0:0x20b737d4c2ec55a7
cafe,Toko Swalayan,S-ONE CAFE,"4QW2+W7M, JL. INPRES, Sarmi, KOTA, Kabupaten Sarmi, Papua 91373","JL. INPRES, Sarmi, KOTA, Kabupaten Sarmi",PAPUA,91373.0,Indonesia, 082211363699,-1.8526669,138.7506824,https://maps.google.com/?cid=0x0:0x22941e780f8778b2
cafe,Kedai Kopi,Kedai Kopi 1001,"Jl. Raya Klp. Satu, Sawar, Kec. Sarmi, Kabupaten Sarmi, Papua 99373","Sawar, Kec. Sarmi, Kabupaten Sarmi",PAPUA,99373.0,Indonesia, 085340709027,-1.8888776,138.7519762,https://maps.google.com/?cid=0x0:0xc4d4317041e00684
cafe,Kedai Kopi,Three - C Caffe  Resto,"Kios Putih, Belakang, Yafdas, Samofa, Biak Numfor Regency, Papua","Kabupaten Biak Numfor, Papua",PAPUA,,Indonesia, 08124825299,-1.1568604,136.0741199,https://maps.google.com/?cid=0x0:0xda23b17446b60b0c
cafe,Kedai Kopi,Cafe Zora Nep'orwar (Kelapa goyang + Saraba),"4QG3+H7H, Mararena, Kec. Sarmi, Kabupaten Sarmi, Papua","Kabupaten Sarmi, Papua",PAPUA,,Indonesia, 082397262699,-1.8735732,138.7532399,https://maps.google.com/?cid=0x0:0x6ac0b1e9529172ef
cafe,Kafe,PUA-PUA CAFE,"Jl. Budi Utomo, Nawaripi, Kec. Mimika Baru, Kabupaten Mimika, Papua 99952","Nawaripi, Kec. Mimika Baru, Kabupaten Mimika",PAPUA,99952.0,Indonesia, 082346750560,-4.5620805,136.8806057,https://maps.google.com/?cid=0x0:0xb7cc07f877baacb2
cafe,Komplek perumahan,Pasar Nengke,"X47G+R48, Nengke, Distrik Pantai Timur Bagian Barat, Kabupaten Sarmi, Papua 99371","Nengke, Distrik Pantai Timur Bagian Barat, Kabupaten Sarmi",PAPUA,99371.0,Indonesia,,-2.035473,139.1253142,https://maps.google.com/?cid=0x0:0xc8b58b39cadc189c
cafe,Dapur Umum,Warung Makan Bersama,"QCRV+5X9, Rimsersari, Kec. Bonggo, Kabupaten Sarmi, Papua 99371","Rimsersari, Kec. Bonggo, Kabupaten Sarmi",PAPUA,99371.0,Indonesia,,-2.2095931,139.4449996,https://maps.google.com/?cid=0x0:0xa359fa9c50d122d
cafe,cafe,Papua 99355,Papua,Papua,PAPUA,,Indonesia,,-2.3923553,139.6503106,https://maps.google.com/?cid=0x0:0x3416a324572abbb9
cafe,Restoran,R.M MANGGA 1 Sp-2 BONGGO,"JM42+W4H, Unnamed Road, Bebon Jaya, Kec. Bonggo, Kabupaten Sarmi, Papua 99355","Unnamed Road, Bebon Jaya, Kec. Bonggo, Kabupaten Sarmi",PAPUA,99355.0,Indonesia,,-2.3926803,139.6503449,https://maps.google.com/?cid=0x0:0x452c10748b60c1f9
cafe,Restoran,Rumah makan agung,"PG8W+W7H, Unnamed Road, Bebon Jaya, Kec. Bonggo, Kabupaten Sarmi, Papua 99355","Unnamed Road, Bebon Jaya, Kec. Bonggo, Kabupaten Sarmi",PAPUA,99355.0,Indonesia,,-2.2826854,139.5457311,https://maps.google.com/?cid=0x0:0x44871d21890ec34d
cafe,Jawa,RM.VANDY.OK,"Unnamed Road, Bebon Jaya, Kec. Bonggo, Kabupaten Sarmi, Papua 99355","Bebon Jaya, Kec. Bonggo, Kabupaten Sarmi",PAPUA,99355.0,Indonesia, 081247263895,-2.2737106,139.5458018,https://maps.google.com/?cid=0x0:0x25a0a165724ef57e
cafe,Kedai Kopi,Warkop Bu Tris,"MHX8+MCC, Kiren, Kec. Bonggo, Kabupaten Sarmi, Papua 99355","Kiren, Kec. Bonggo, Kabupaten Sarmi",PAPUA,99355.0,Indonesia, 085254042713,-2.3008223,139.5660267,https://maps.google.com/?cid=0x0:0xa73563e14facedfc
cafe,Dapur Umum,Warung Lesehan 4 Putri,"PH28+RFV, Kiren, Kec. Bonggo, Kabupaten Sarmi, Papua 99355","Kiren, Kec. Bonggo, Kabupaten Sarmi",PAPUA,99355.0,Indonesia, 082398005049,-2.297882,139.5661822,https://maps.google.com/?cid=0x0:0xcef4c9f687eb9c59
cafe,Brunch,RM. Bilqis,"PH28+JGR, Unnamed Road, Kiren, Kec. Bonggo, Kabupaten Sarmi, Papua 99355","Unnamed Road, Kiren, Kec. Bonggo, Kabupaten Sarmi",PAPUA,99355.0,Indonesia, 081247998293,-2.2983831,139.566277,https://maps.google.com/?cid=0x0:0x8112ba02c1bf95c3
cafe,Dapur Umum,RM. SELERAKU,"JMJQ+C6H, Tamar Sari, Distrik Bonggo Timur, Kabupaten Sarmi, Papua 99355","Tamar Sari, Distrik Bonggo Timur, Kabupaten Sarmi",PAPUA,99355.0,Indonesia,,-2.3689294,139.6881195,https://maps.google.com/?cid=0x0:0xd5147e080b68445f
cafe,Dapur Umum,Warung Makan Bersama,"QCRV+5X9, Rimsersari, Kec. Bonggo, Kabupaten Sarmi, Papua 99371","Rimsersari, Kec. Bonggo, Kabupaten Sarmi",PAPUA,99371.0,Indonesia,,-2.2095931,139.4449996,https://maps.google.com/?cid=0x0:0xa359fa9c50d122d
cafe,Brunch,RM.MANGGA 1,"PGGW+V7H, Bebon Jaya, Kec. Bonggo, Kabupaten Sarmi, Papua 99355","Bebon Jaya, Kec. Bonggo, Kabupaten Sarmi",PAPUA,99355.0,Indonesia,,-2.2728125,139.5457344,https://maps.google.com/?cid=0x0:0xa99358ef8d2c9a
cafe,Dapur Umum,Ayam Bakar kk24,"Kiren, Kec. Bonggo, Kabupaten Sarmi, Papua 99355","Kec. Bonggo, Kabupaten Sarmi",PAPUA,99355.0,Indonesia, 081248038543,-2.3008617,139.5661526,https://maps.google.com/?cid=0x0:0xb2bda6f893b8946
cafe,Dapur Umum,RM SABAR MENANTI,"JMJP+QQ, Tamar Sari, Distrik Bonggo Timur, Kabupaten Sarmi, Papua","Kabupaten Sarmi, Papua",PAPUA,,Indonesia,,-2.3683009,139.6869108,https://maps.google.com/?cid=0x0:0x6df605376aa92383
cafe,Toko,Toko Barokah Sp2,"PGFW+45V, Unnamed Road, Bebon Jaya, Kec. Bonggo, Kabupaten Sarmi, Papua 99355","Unnamed Road, Bebon Jaya, Kec. Bonggo, Kabupaten Sarmi",PAPUA,99355.0,Indonesia,,-2.2771463,139.5454172,https://maps.google.com/?cid=0x0:0xc7e932ea944c44ad
cafe,cafe,Es Buah Kila SP4,"MJ3V+MMH, Gwinjaya, Distrik Bonggo Timur, Kabupaten Sarmi, Papua 99355","Gwinjaya, Distrik Bonggo Timur, Kabupaten Sarmi",PAPUA,99355.0,Indonesia,,-2.345812,139.6442436,https://maps.google.com/?cid=0x0:0xea8f53eac07a16b5
cafe,Kafe,Xanorah Coffee,"Jl. Stadion Bola Bas Yauwe, depan Lapangan Karate Shorinji, Sentani Kota, Kec. Sentani, Kabupaten Jayapura, Papua 99352","depan Lapangan Karate Shorinji, Sentani Kota, Kec. Sentani, Kabupaten Jayapura",PAPUA,99352.0,Indonesia, 082197790001,-2.5702948,140.5231233,https://maps.google.com/?cid=0x0:0x68608ffa73092001
cafe,cafe,Papua 99374,"Kabupaten Sarmi, Papua","Kabupaten Sarmi, Papua",PAPUA,,Indonesia,,-2.0159736,138.3190276,https://maps.google.com/?cid=0x0:0xfafa718b5be371f4
cafe,,PALLAWARUKKA cafe,"4PVX+HFJ, Jl. Inres Kalibagre, Sarmi, Kec. Sarmi, Kabupaten Sarmi, Papua 99373","Jl. Inres Kalibagre, Sarmi, Kec. Sarmi, Kabupaten Sarmi",PAPUA,99373.0,Indonesia,,-1.8560306,138.7486541,https://maps.google.com/?cid=0x0:0x6d69bd8aab18b606
cafe,Kafe,Maharu Coffee,"Jl. Mardani Raya, RT.2/RW.5, Johar Baru, Kec. Johar Baru, Kota Jakarta Pusat, Daerah Khusus Ibukota Jakarta 10560","RT.2/RW.5, Johar Baru, Kec. Johar Baru, Kota Jakarta Pusat",PAPUA,10560.0,Indonesia, 082125268885,-6.1823431,106.8617216,https://maps.google.com/?cid=0x0:0xcbec4a1114b37096
cafe,Kedai Kopi,MARDANI RAYA (ZERMAN 05),"Jl. Mardani Raya No.3, RT.6/RW.5, Johar Baru, Kec. Johar Baru, Kota Jakarta Pusat, Daerah Khusus Ibukota Jakarta 10560","RT.6/RW.5, Johar Baru, Kec. Johar Baru, Kota Jakarta Pusat",PAPUA,10560.0,Indonesia, 087851000018,-6.1828641,106.8619094,https://maps.google.com/?cid=0x0:0x6b1deb0b1c855f6c
cafe,cafe,Papua 99373,"Kabupaten Sarmi, Papua","Kabupaten Sarmi, Papua",PAPUA,,Indonesia,,-2.0309427,138.7995122,https://maps.google.com/?cid=0x0:0x94ecbde644ea8853
cafe,,Cafe Rasya Garsa,"3QX3+R42, Neidam, Kota, Jalan Raya Kantor Bupati, Sarmi, Kec. Sarmi, Kabupaten Sarmi, Papua 99373","Neidam, Kota, Jalan Raya Kantor Bupati, Sarmi, Kec. Sarmi, Kabupaten Sarmi",PAPUA,99373.0,Indonesia,,-1.900485,138.7527504,https://maps.google.com/?cid=0x0:0x8b637d78f51483e8
cafe,Kafe,HARVEST Coffeeshop,"Mararena, Kec. Sarmi, Kabupaten Sarmi, Papua 99373","Kec. Sarmi, Kabupaten Sarmi",PAPUA,99373.0,Indonesia, 082199688020,-1.8854568,138.7506672,https://maps.google.com/?cid=0x0:0x20b737d4c2ec55a7
cafe,,PALLAWARUKKA cafe,"4PVX+HFJ, Jl. Inres Kalibagre, Sarmi, Kec. Sarmi, Kabupaten Sarmi, Papua 99373","Jl. Inres Kalibagre, Sarmi, Kec. Sarmi, Kabupaten Sarmi",PAPUA,99373.0,Indonesia,,-1.8560306,138.7486541,https://maps.google.com/?cid=0x0:0x6d69bd8aab18b606
cafe,Toko Swalayan,S-ONE CAFE,"4QW2+W7M, JL. INPRES, Sarmi, KOTA, Kabupaten Sarmi, Papua 91373","JL. INPRES, Sarmi, KOTA, Kabupaten Sarmi",PAPUA,91373.0,Indonesia, 082211363699,-1.8526669,138.7506824,https://maps.google.com/?cid=0x0:0x22941e780f8778b2
cafe,Kedai Kopi,Kedai Kopi 1001,"Jl. Raya Klp. Satu, Sawar, Kec. Sarmi, Kabupaten Sarmi, Papua 99373","Sawar, Kec. Sarmi, Kabupaten Sarmi",PAPUA,99373.0,Indonesia, 085340709027,-1.8888776,138.7519762,https://maps.google.com/?cid=0x0:0xc4d4317041e00684
cafe,Kafe,Messy cafe,"XPPQ+9M5, Jln. Raya Petam, Kasukwe, Distrik Sarmi Selatan, Kabupaten Sarmi, Papua 99373","Jln. Raya Petam, Kasukwe, Distrik Sarmi Selatan, Kabupaten Sarmi",PAPUA,99373.0,Indonesia,,-2.0141157,138.739224,https://maps.google.com/?cid=0x0:0xaff6be381bed7db5
cafe,Sarapan,Cafe BLACKANCA,"Sarmi, BLACKANCA, Kabupaten Sarmi, Papua 99373","BLACKANCA, Kabupaten Sarmi",PAPUA,99373.0,Indonesia, 082272050328,-1.85604,138.75232,https://maps.google.com/?cid=0x0:0x2015563b169433da
cafe,Restoran,Kafe Dinar,"4Q63+HV3, Jl. Raya Klp. Satu, Sawar, Kec. Sarmi, Kabupaten Sarmi, Papua 99373","Jl. Raya Klp. Satu, Sawar, Kec. Sarmi, Kabupaten Sarmi",PAPUA,99373.0,Indonesia, 082238948480,-1.8886076,138.7546628,https://maps.google.com/?cid=0x0:0x600db20f6665a045
cafe,Kedai Kopi,Cafe Zora Nep'orwar (Kelapa goyang + Saraba),"4QG3+H7H, Mararena, Kec. Sarmi, Kabupaten Sarmi, Papua","Kabupaten Sarmi, Papua",PAPUA,,Indonesia, 082397262699,-1.8735732,138.7532399,https://maps.google.com/?cid=0x0:0x6ac0b1e9529172ef
cafe,Jawa,Warung Pojok,"Unnamed Road, 99373, Mararena, Kec. Sarmi, Kabupaten Sarmi, Papua 99373","99373, Mararena, Kec. Sarmi, Kabupaten Sarmi",PAPUA,99373.0,Indonesia,,-1.8845965,138.7509235,https://maps.google.com/?cid=0x0:0xe99d0edad8f6871a
cafe,Restoran,Warung Es Campur,"3QXH+283, Unnamed Rd, Sawar, Kec. Sarmi, Kabupaten Sarmi, Papua 99373","Unnamed Rd, Sawar, Kec. Sarmi, Kabupaten Sarmi",PAPUA,99373.0,Indonesia, 085244979850,-1.9024957,138.7782915,https://maps.google.com/?cid=0x0:0xa5d11b6100227bf8
cafe,Kafe,CAFE D'KORASA,"4PVX+HV5, Jl. Inpres Kalibagre, Sarmi, Kec. Sarmi, Kabupaten Sarmi, Papua 99373","Jl. Inpres Kalibagre, Sarmi, Kec. Sarmi, Kabupaten Sarmi",PAPUA,99373.0,Indonesia,,-1.8561125,138.7497344,https://maps.google.com/?cid=0x0:0xb9f4d75653151149
cafe,Kedai Kopi,Kopi pak de pelabuhan,"4QV2+Q2G, Sarmi, Kec. Sarmi, Kabupaten Sarmi, Papua 99373","Sarmi, Kec. Sarmi, Kabupaten Sarmi",PAPUA,99373.0,Indonesia,,-1.8555652,138.7500724,https://maps.google.com/?cid=0x0:0x6ec919738ab16efa
cafe,Kafe,HARVEST Coffeeshop,"Mararena, Kec. Sarmi, Kabupaten Sarmi, Papua 99373","Kec. Sarmi, Kabupaten Sarmi",PAPUA,99373.0,Indonesia, 082199688020,-1.8854568,138.7506672,https://maps.google.com/?cid=0x0:0x20b737d4c2ec55a7
cafe,cafe,Distrik Sarmi Timur,"Kabupaten Sarmi, Papua","Kabupaten Sarmi, Papua",PAPUA,,Indonesia,,-2.0023384,138.7951543,https://maps.google.com/?cid=0x0:0xa6223e91f97c29b5
cafe,,PALLAWARUKKA cafe,"4PVX+HFJ, Jl. Inres Kalibagre, Sarmi, Kec. Sarmi, Kabupaten Sarmi, Papua 99373","Jl. Inres Kalibagre, Sarmi, Kec. Sarmi, Kabupaten Sarmi",PAPUA,99373.0,Indonesia,,-1.8560306,138.7486541,https://maps.google.com/?cid=0x0:0x6d69bd8aab18b606
cafe,,Cafe Rasya Garsa,"3QX3+R42, Neidam, Kota, Jalan Raya Kantor Bupati, Sarmi, Kec. Sarmi, Kabupaten Sarmi, Papua 99373","Neidam, Kota, Jalan Raya Kantor Bupati, Sarmi, Kec. Sarmi, Kabupaten Sarmi",PAPUA,99373.0,Indonesia,,-1.900485,138.7527504,https://maps.google.com/?cid=0x0:0x8b637d78f51483e8
cafe,Toko Swalayan,S-ONE CAFE,"4QW2+W7M, JL. INPRES, Sarmi, KOTA, Kabupaten Sarmi, Papua 91373","JL. INPRES, Sarmi, KOTA, Kabupaten Sarmi",PAPUA,91373.0,Indonesia, 082211363699,-1.8526669,138.7506824,https://maps.google.com/?cid=0x0:0x22941e780f8778b2
cafe,Kedai Kopi,Cafe Zora Nep'orwar (Kelapa goyang + Saraba),"4QG3+H7H, Mararena, Kec. Sarmi, Kabupaten Sarmi, Papua","Kabupaten Sarmi, Papua",PAPUA,,Indonesia, 082397262699,-1.8735732,138.7532399,https://maps.google.com/?cid=0x0:0x6ac0b1e9529172ef
cafe,Kedai Kopi,Kedai Kopi 1001,"Jl. Raya Klp. Satu, Sawar, Kec. Sarmi, Kabupaten Sarmi, Papua 99373","Sawar, Kec. Sarmi, Kabupaten Sarmi",PAPUA,99373.0,Indonesia, 085340709027,-1.8888776,138.7519762,https://maps.google.com/?cid=0x0:0xc4d4317041e00684
cafe,Restoran,Kafe Dinar,"4Q63+HV3, Jl. Raya Klp. Satu, Sawar, Kec. Sarmi, Kabupaten Sarmi, Papua 99373","Jl. Raya Klp. Satu, Sawar, Kec. Sarmi, Kabupaten Sarmi",PAPUA,99373.0,Indonesia, 082238948480,-1.8886076,138.7546628,https://maps.google.com/?cid=0x0:0x600db20f6665a045
cafe,Kedai Kopi,Kopi pak de pelabuhan,"4QV2+Q2G, Sarmi, Kec. Sarmi, Kabupaten Sarmi, Papua 99373","Sarmi, Kec. Sarmi, Kabupaten Sarmi",PAPUA,99373.0,Indonesia,,-1.8555652,138.7500724,https://maps.google.com/?cid=0x0:0x6ec919738ab16efa
cafe,Sarapan,Cafe BLACKANCA,"Sarmi, BLACKANCA, Kabupaten Sarmi, Papua 99373","BLACKANCA, Kabupaten Sarmi",PAPUA,99373.0,Indonesia, 082272050328,-1.85604,138.75232,https://maps.google.com/?cid=0x0:0x2015563b169433da
cafe,Restoran,Warung Es Campur,"3QXH+283, Unnamed Rd, Sawar, Kec. Sarmi, Kabupaten Sarmi, Papua 99373","Unnamed Rd, Sawar, Kec. Sarmi, Kabupaten Sarmi",PAPUA,99373.0,Indonesia, 085244979850,-1.9024957,138.7782915,https://maps.google.com/?cid=0x0:0xa5d11b6100227bf8
cafe,Kafe,Kedai mami,"4QF3+5FG, Jl. Inres Kalibagre, Mararena, Kec. Sarmi, Kabupaten Sarmi, Papua 99373","Jl. Inres Kalibagre, Mararena, Kec. Sarmi, Kabupaten Sarmi",PAPUA,99373.0,Indonesia, 082251980168,-1.877126,138.7537354,https://maps.google.com/?cid=0x0:0x2111f4d63d8ec228
cafe,Kafe,Messy cafe,"XPPQ+9M5, Jln. Raya Petam, Kasukwe, Distrik Sarmi Selatan, Kabupaten Sarmi, Papua 99373","Jln. Raya Petam, Kasukwe, Distrik Sarmi Selatan, Kabupaten Sarmi",PAPUA,99373.0,Indonesia,,-2.0141157,138.739224,https://maps.google.com/?cid=0x0:0xaff6be381bed7db5
cafe,Jawa,Warung Pojok,"Unnamed Road, 99373, Mararena, Kec. Sarmi, Kabupaten Sarmi, Papua 99373","99373, Mararena, Kec. Sarmi, Kabupaten Sarmi",PAPUA,99373.0,Indonesia,,-1.8845965,138.7509235,https://maps.google.com/?cid=0x0:0xe99d0edad8f6871a
cafe,Kedai Kopi,Cafe D'Korasa,"G6J3+V6G, Betaf II / Tamnir, Kec. Pantai Tim., Kabupaten Sarmi, Papua","Kabupaten Sarmi, Papua",PAPUA,,Indonesia,,-2.4678144,139.2030851,https://maps.google.com/?cid=0x0:0x44bdbd750a55de9f
cafe,cafe,Papua 99371,"Kabupaten Sarmi, Papua","Kabupaten Sarmi, Papua",PAPUA,,Indonesia,,-2.7126367,139.2030851,https://maps.google.com/?cid=0x0:0x8507074767d67bf9
cafe,Kedai Kopi,Warung makan jalur 2,"G6J3+V6G, Betaf II / Tamnir, Kec. Pantai Tim., Kabupaten Sarmi, Papua","Kabupaten Sarmi, Papua",PAPUA,,Indonesia,,-2.4678144,139.2030851,https://maps.google.com/?cid=0x0:0x4ba8e7424511f2a2
cafe,Kafe,Tropical Beach Cafe  Coffe House,"CP27+J8V, Engros, Kec. Abepura, Kota Jayapura, Papua","Kota Jayapura, Papua",PAPUA,,Indonesia,,-2.5983991,140.7133027,https://maps.google.com/?cid=0x0:0xdbf482c211ef3125
cafe,Kafe,Waanal Coffee And Resto,"Jl. Cendrawasih, Karang Senang, Kec. Kuala Kencana, Kabupaten Mimika, Papua 99910","Karang Senang, Kec. Kuala Kencana, Kabupaten Mimika",PAPUA,99910.0,Indonesia, 081248677897,-4.4916566,136.8474106,https://maps.google.com/?cid=0x0:0xe6f6936c8a14d771
cafe,Toko Swalayan,S-ONE CAFE,"4QW2+W7M, JL. INPRES, Sarmi, KOTA, Kabupaten Sarmi, Papua 91373","JL. INPRES, Sarmi, KOTA, Kabupaten Sarmi",PAPUA,91373.0,Indonesia, 082211363699,-1.8526669,138.7506824,https://maps.google.com/?cid=0x0:0x22941e780f8778b2
cafe,Dapur Umum,Warung Makan Bersama,"QCRV+5X9, Rimsersari, Kec. Bonggo, Kabupaten Sarmi, Papua 99371","Rimsersari, Kec. Bonggo, Kabupaten Sarmi",PAPUA,99371.0,Indonesia,,-2.2095931,139.4449996,https://maps.google.com/?cid=0x0:0xa359fa9c50d122d
cafe,Kedai Kopi,Three - C Caffe  Resto,"Kios Putih, Belakang, Yafdas, Samofa, Biak Numfor Regency, Papua","Kabupaten Biak Numfor, Papua",PAPUA,,Indonesia, 08124825299,-1.1568604,136.0741199,https://maps.google.com/?cid=0x0:0xda23b17446b60b0c
cafe,,Cafe Rasya Garsa,"3QX3+R42, Neidam, Kota, Jalan Raya Kantor Bupati, Sarmi, Kec. Sarmi, Kabupaten Sarmi, Papua 99373","Neidam, Kota, Jalan Raya Kantor Bupati, Sarmi, Kec. Sarmi, Kabupaten Sarmi",PAPUA,99373.0,Indonesia,,-1.900485,138.7527504,https://maps.google.com/?cid=0x0:0x8b637d78f51483e8
cafe,Kafe,HARVEST Coffeeshop,"Mararena, Kec. Sarmi, Kabupaten Sarmi, Papua 99373","Kec. Sarmi, Kabupaten Sarmi",PAPUA,99373.0,Indonesia, 082199688020,-1.8854568,138.7506672,https://maps.google.com/?cid=0x0:0x20b737d4c2ec55a7
cafe,Restoran,Pit's Corner ( Papua Specialty Coffee ),"Jalan kasuari no.2 Dok V Atas, Mandala, Jayapura Utara, Jayapura City, Papua 99114","Mandala, Jayapura Utara, Jayapura City",PAPUA,99114.0,Indonesia, 09675160443,-2.5310642,140.71875,https://maps.google.com/?cid=0x0:0xf39f3950a3bf5ed2
cafe,cafe,Kios Yaung,"Mamberamu situ naira, Trikora, Benawa, Kabupaten Yalimo, Papua","Kabupaten Yalimo, Papua",PAPUA,,Indonesia, 081247781323,-3.6081581,139.8670634,https://maps.google.com/?cid=0x0:0xedc5f6fd040b7845
cafe,cafe,WASALMA CAFFE65,"Jl.trans Wamena -jayapura No.km 65, Lulum, Talambo, Dosumo, Papua 99085","Lulum, Talambo, Dosumo",PAPUA,99085.0,Indonesia, 081340047467,-3.6974746,140.0015642,https://maps.google.com/?cid=0x0:0x7cb1549015dd2b58
cafe,Kafe,Umega cafe,"69GJ+2J4, Elelim, Distrik Elelim, Kabupaten Yalimo, Papua 99558","Elelim, Distrik Elelim, Kabupaten Yalimo",PAPUA,99558.0,Indonesia,,-3.7749983,139.3815822,https://maps.google.com/?cid=0x0:0x1d57878ccf670700
cafe,cafe,Distrik Bonggo Timur,"Kabupaten Sarmi, Papua","Kabupaten Sarmi, Papua",PAPUA,,Indonesia,,-2.3646918,139.6790312,https://maps.google.com/?cid=0x0:0xebe7f4b7afe3bd51
cafe,Kedai Kopi,Warung Makan Mbah Rusdi,"MJ4R+8JG, Gwinjaya, Distrik Bonggo Timur, Kabupaten Sarmi, Papua 99355","Gwinjaya, Distrik Bonggo Timur, Kabupaten Sarmi",PAPUA,99355.0,Indonesia,,-2.3441993,139.6415687,https://maps.google.com/?cid=0x0:0x8fbc2171166090f7
cafe,Kedai Kopi,Warkop Bu Tris,"MHX8+MCC, Kiren, Kec. Bonggo, Kabupaten Sarmi, Papua 99355","Kiren, Kec. Bonggo, Kabupaten Sarmi",PAPUA,99355.0,Indonesia, 085254042713,-2.3008223,139.5660267,https://maps.google.com/?cid=0x0:0xa73563e14facedfc
cafe,Restoran,R.M MANGGA 1 Sp-2 BONGGO,"JM42+W4H, Unnamed Road, Bebon Jaya, Kec. Bonggo, Kabupaten Sarmi, Papua 99355","Unnamed Road, Bebon Jaya, Kec. Bonggo, Kabupaten Sarmi",PAPUA,99355.0,Indonesia,,-2.3926803,139.6503449,https://maps.google.com/?cid=0x0:0x452c10748b60c1f9
cafe,Dapur Umum,RM SABAR MENANTI,"JMJP+QQ, Tamar Sari, Distrik Bonggo Timur, Kabupaten Sarmi, Papua","Kabupaten Sarmi, Papua",PAPUA,,Indonesia,,-2.3683009,139.6869108,https://maps.google.com/?cid=0x0:0x6df605376aa92383
cafe,Restoran,Rumah makan agung,"PG8W+W7H, Unnamed Road, Bebon Jaya, Kec. Bonggo, Kabupaten Sarmi, Papua 99355","Unnamed Road, Bebon Jaya, Kec. Bonggo, Kabupaten Sarmi",PAPUA,99355.0,Indonesia,,-2.2826854,139.5457311,https://maps.google.com/?cid=0x0:0x44871d21890ec34d
cafe,Jawa,RM.VANDY.OK,"Unnamed Road, Bebon Jaya, Kec. Bonggo, Kabupaten Sarmi, Papua 99355","Bebon Jaya, Kec. Bonggo, Kabupaten Sarmi",PAPUA,99355.0,Indonesia, 081247263895,-2.2737106,139.5458018,https://maps.google.com/?cid=0x0:0x25a0a165724ef57e
cafe,Dapur Umum,Warung Lesehan 4 Putri,"PH28+RFV, Kiren, Kec. Bonggo, Kabupaten Sarmi, Papua 99355","Kiren, Kec. Bonggo, Kabupaten Sarmi",PAPUA,99355.0,Indonesia, 082398005049,-2.297882,139.5661822,https://maps.google.com/?cid=0x0:0xcef4c9f687eb9c59
cafe,Brunch,RM. Bilqis,"PH28+JGR, Unnamed Road, Kiren, Kec. Bonggo, Kabupaten Sarmi, Papua 99355","Unnamed Road, Kiren, Kec. Bonggo, Kabupaten Sarmi",PAPUA,99355.0,Indonesia, 081247998293,-2.2983831,139.566277,https://maps.google.com/?cid=0x0:0x8112ba02c1bf95c3
cafe,cafe,Es Buah Kila SP4,"MJ3V+MMH, Gwinjaya, Distrik Bonggo Timur, Kabupaten Sarmi, Papua 99355","Gwinjaya, Distrik Bonggo Timur, Kabupaten Sarmi",PAPUA,99355.0,Indonesia,,-2.345812,139.6442436,https://maps.google.com/?cid=0x0:0xea8f53eac07a16b5
cafe,Minimarket,Kios Nova,"MJ6R+J29, Gwinjaya, Distrik Bonggo Timur, Kabupaten Sarmi, Papua 99355","Gwinjaya, Distrik Bonggo Timur, Kabupaten Sarmi",PAPUA,99355.0,Indonesia,,-2.3384514,139.6401083,https://maps.google.com/?cid=0x0:0x458d665e34d4162c
cafe,Minimarket,Kios iqfa,"MJ4J+9Q7, Gwinjaya, Distrik Bonggo Timur, Kabupaten Sarmi, Papua 99355","Gwinjaya, Distrik Bonggo Timur, Kabupaten Sarmi",PAPUA,99355.0,Indonesia,,-2.3436967,139.6327466,https://maps.google.com/?cid=0x0:0x320d8e2df5fde34d
cafe,Minimarket,Kios Nova SP4,"MJ4R+87Q, Gwinjaya, Distrik Bonggo Timur, Kabupaten Sarmi, Papua 99355","Gwinjaya, Distrik Bonggo Timur, Kabupaten Sarmi",PAPUA,99355.0,Indonesia,,-2.344156,139.6407466,https://maps.google.com/?cid=0x0:0xab0f36347165710f
hotel,hotel,Sarmi,"Sarmi, Kec. Sarmi, Kabupaten Sarmi, Papua","Kabupaten Sarmi, Papua",PAPUA,,Indonesia,,-1.8526967,138.7507552,https://maps.google.com/?cid=0x0:0x1b3c48b9f289ecb6
hotel,hotel,Hotel Rivior Sarmi,"4PVX+XHH, Sarmi, Kec. Sarmi, Kabupaten Sarmi, Papua 99373","Sarmi, Kec. Sarmi, Kabupaten Sarmi",PAPUA,99373.0,Indonesia, 081247768282,-1.8550507,138.7489752,https://maps.google.com/?cid=0x0:0x687222ae96a90f78
hotel,Tujuan Wisata,Sarmi - Kota Ombak,"4PVW+P5F, Sarmi, Kec. Sarmi, Kabupaten Sarmi, Papua 99373","Sarmi, Kec. Sarmi, Kabupaten Sarmi",PAPUA,99373.0,Indonesia,,-1.8556873,138.7454374,https://maps.google.com/?cid=0x0:0xb555186714175968
hotel,Hotel bintang 2,Hotel Narwastu,"4QV2+W2G, Sarmi, Kec. Sarmi, Kabupaten Sarmi, Papua 99373","Sarmi, Kec. Sarmi, Kabupaten Sarmi",PAPUA,99373.0,Indonesia,,-1.855188,138.7500896,https://maps.google.com/?cid=0x0:0x951ddb6547f4e633
hotel,Hotel,Hotel Damar Inn,"4Q63+R8X, Sawar, Kec. Sarmi, Kabupaten Sarmi, Papua 99373","Sawar, Kec. Sarmi, Kabupaten Sarmi",PAPUA,99373.0,Indonesia, 081247285874,-1.8878788,138.7533749,https://maps.google.com/?cid=0x0:0xe086c712d0612021
hotel,Apartemen sewa liburan,Losmen Al-hidayah Sarmi,"jl. diponegoro No.1, Sarmi, Kec. Sarmi, Kabupaten Sarmi, Papua 99373","Sarmi, Kec. Sarmi, Kabupaten Sarmi",PAPUA,99373.0,Indonesia,,-1.8534713,138.7507397,https://maps.google.com/?cid=0x0:0x3300ac916e893606
hotel,Hotel,Penginapan El-Roy,"4QF3+FCP, Jalan INPRES, Mararena, Kec. Sarmi, Kabupaten Sarmi, Papua 99373","Jalan INPRES, Mararena, Kec. Sarmi, Kabupaten Sarmi",PAPUA,99373.0,Indonesia,,-1.8762798,138.7535728,https://maps.google.com/?cid=0x0:0x3c72392d6fa6a9e6
hotel,hotel,Penginapan 69,"Kp. Waena, Kec. Heram, Kota Jayapura, Papua 99225","Kec. Heram, Kota Jayapura",PAPUA,99225.0,Indonesia, 081248523621,-2.593495,140.6310796,https://maps.google.com/?cid=0x0:0x12711ec27878fab8
hotel,hotel,Kartini Hotel,"Unnamed Road, Gurabesi, Kec. Jayapura Utara, Kota Jayapura, Papua 99221","Gurabesi, Kec. Jayapura Utara, Kota Jayapura",PAPUA,99221.0,Indonesia, 0967531557,-2.5437639,140.69813,https://maps.google.com/?cid=0x0:0x67ced8468132987b
hotel,hotel,Hotel Best Western Sagita Jayapura,"Jl. Klp. 2, Entrop, Distrik Jayapura Selatan, Kota Jayapura, Papua 99221","Entrop, Distrik Jayapura Selatan, Kota Jayapura",PAPUA,99221.0,Indonesia, 09675166888,-2.5676407,140.7023793,https://maps.google.com/?cid=0x0:0x741f2100c3f7bc5a
hotel,hotel,Hotel Grand Papua Sentani,"Jalan Sosial No.388, Hinekombe, Kec. Sentani, Kabupaten Jayapura, Papua 99352","Hinekombe, Kec. Sentani, Kabupaten Jayapura",PAPUA,99352.0,Indonesia, 08114827899,-2.557344,140.4958181,https://maps.google.com/?cid=0x0:0x9afaf186d23bb377
hotel,hotel,ASTON Jayapura Hotel  Convention Center,"Jl. Percetakan Negara No.50 - 58, Gurabesi, Kec. Jayapura Utara, Kota Jayapura, Papua 99111","Gurabesi, Kec. Jayapura Utara, Kota Jayapura",PAPUA,99111.0,Indonesia, 0967537700,-2.5412731,140.7031631,https://maps.google.com/?cid=0x0:0x1a1d78b4fd358a65
hotel,hotel,Papua 99372,"Kabupaten Sarmi, Papua","Kabupaten Sarmi, Papua",PAPUA,,Indonesia,,-2.3921952,138.7995122,https://maps.google.com/?cid=0x0:0x8adfd51c064e390b
hotel,hotel,Tahara Hotel,"JL. Kemiri, No. 26, Sentani, Mandala, Kec. Jayapura Utara, Kota Jayapura, Papua","Kota Jayapura, Papua",PAPUA,,Indonesia, 0967591388,-2.533,140.717,https://maps.google.com/?cid=0x0:0xd8524eddaaa461a3
hotel,hotel,Hotel Sahid Papua,"Jl. Klp. 2 No.18, Entrop, Distrik Jayapura Selatan, Kota Jayapura, Papua 99221","Entrop, Distrik Jayapura Selatan, Kota Jayapura",PAPUA,99221.0,Indonesia, 08114814009,-2.5661461,140.6996539,https://maps.google.com/?cid=0x0:0x9c8a2fd141b3aa33
hotel,hotel,SIP Azana Hotel Jayapura,"Jl. Ahmad Yani No.50, Gurabesi, Kec. Jayapura Utara, Kota Jayapura, Papua 99221","Gurabesi, Kec. Jayapura Utara, Kota Jayapura",PAPUA,99221.0,Indonesia, 082197886688,-2.5436754,140.7014241,https://maps.google.com/?cid=0x0:0xc311c59465e76f9e
hotel,hotel,,,,PAPUA,,Indonesia,,,,https://maps.google.com/?cid=0x0:0x9c8a2fd141b3aa33%7C/g/11b73kkp76%7Cid-ID
hotel,hotel,Horison Inn Relat Jayapura,"Jl. Pantai Klp. No.21 - 23, Argapura, Distrik Jayapura Selatan, Kota Jayapura, Papua","Kota Jayapura, Papua",PAPUA,,Indonesia, 09675160779,-2.5537101,140.7148929,https://maps.google.com/?cid=0x0:0xb98fc1bbb5c5c494
hotel,hotel,Numbay Hotel,"Jl. Trikora No.23, Dok V, Trikora, Kec. Jayapura Utara, Kota Jayapura, Papua 99114","Dok V, Trikora, Kec. Jayapura Utara, Kota Jayapura",PAPUA,99114.0,Indonesia, 09675166939,-2.527363,140.7185297,https://maps.google.com/?cid=0x0:0x2a95e5b69088c98d
hotel,hotel,Hotel Rivior Sarmi,"4PVX+XHH, Sarmi, Kec. Sarmi, Kabupaten Sarmi, Papua 99373","Sarmi, Kec. Sarmi, Kabupaten Sarmi",PAPUA,99373.0,Indonesia, 081247768282,-1.8550507,138.7489752,https://maps.google.com/?cid=0x0:0x687222ae96a90f78
hotel,hotel,Hotel Bunga Youtefa,"9MRJ+339, Wai Mhorock, Kec. Abepura, Kota Jayapura, Papua 99225","Wai Mhorock, Kec. Abepura, Kota Jayapura",PAPUA,99225.0,Indonesia,,-2.609849,140.68022,https://maps.google.com/?cid=0x0:0x6ed44eab0b6f0605
hotel,hotel,Hotel Matoa,"Jl. Ahmad Yani No.14, Gurabesi, Kec. Jayapura Utara, Kota Jayapura, Papua 99222","Gurabesi, Kec. Jayapura Utara, Kota Jayapura",PAPUA,99222.0,Indonesia, 0967531633,-2.5431901,140.7035183,https://maps.google.com/?cid=0x0:0x81bb053fbf57415d
hotel,hotel,Hotel Dafonsoro,"Jl. Percetakan Negara No.20-24, Gurabesi, Kec. Jayapura Utara, Kota Jayapura, Papua 99221","Gurabesi, Kec. Jayapura Utara, Kota Jayapura",PAPUA,99221.0,Indonesia, 085788877739,-2.5406973,140.7041061,https://maps.google.com/?cid=0x0:0xda20a7d826a77577
hotel,hotel,Kartini Hotel,"Unnamed Road, Gurabesi, Kec. Jayapura Utara, Kota Jayapura, Papua 99221","Gurabesi, Kec. Jayapura Utara, Kota Jayapura",PAPUA,99221.0,Indonesia, 0967531557,-2.5437639,140.69813,https://maps.google.com/?cid=0x0:0x67ced8468132987b
hotel,hotel,Distrik Pantai Barat,"Kabupaten Sarmi, Papua","Kabupaten Sarmi, Papua",PAPUA,,Indonesia,,-1.7332657,138.4123611,https://maps.google.com/?cid=0x0:0xf929d33f427f240b
hotel,hotel,,,,PAPUA,,Indonesia,,,,https://maps.google.com/?cid=0x0:0x1a1d78b4fd358a65%7C/g/1tctxpcc%7Cid-ID
hotel,hotel,ASTON Jayapura Hotel  Convention Center,"Jl. Percetakan Negara No.50 - 58, Gurabesi, Kec. Jayapura Utara, Kota Jayapura, Papua 99111","Gurabesi, Kec. Jayapura Utara, Kota Jayapura",PAPUA,99111.0,Indonesia, 0967537700,-2.5412731,140.7031631,https://maps.google.com/?cid=0x0:0x1a1d78b4fd358a65
hotel,hotel,SIP Azana Hotel Jayapura,"Jl. Ahmad Yani No.50, Gurabesi, Kec. Jayapura Utara, Kota Jayapura, Papua 99221","Gurabesi, Kec. Jayapura Utara, Kota Jayapura",PAPUA,99221.0,Indonesia, 082197886688,-2.5436754,140.7014241,https://maps.google.com/?cid=0x0:0xc311c59465e76f9e
hotel,hotel,Horison Inn Relat Jayapura,"Jl. Pantai Klp. No.21 - 23, Argapura, Distrik Jayapura Selatan, Kota Jayapura, Papua","Kota Jayapura, Papua",PAPUA,,Indonesia, 09675160779,-2.5537101,140.7148929,https://maps.google.com/?cid=0x0:0xb98fc1bbb5c5c494
hotel,hotel,Hotel Rivior Sarmi,"4PVX+XHH, Sarmi, Kec. Sarmi, Kabupaten Sarmi, Papua 99373","Sarmi, Kec. Sarmi, Kabupaten Sarmi",PAPUA,99373.0,Indonesia, 081247768282,-1.8550507,138.7489752,https://maps.google.com/?cid=0x0:0x687222ae96a90f78
hotel,hotel,Hotel Pantai Mutiara,"Jl. Raya Cisolok, Karangpapak, Kec. Cisolok, Kabupaten Sukabumi, Jawa Barat 43366","Karangpapak, Kec. Cisolok, Kabupaten Sukabumi",PAPUA,43366.0,Indonesia, 085798448587,-6.9571129,106.4669026,https://maps.google.com/?cid=0x0:0xe344b811a436fd84
hotel,hotel,Hotel Grand Papua Sentani,"Jalan Sosial No.388, Hinekombe, Kec. Sentani, Kabupaten Jayapura, Papua 99352","Hinekombe, Kec. Sentani, Kabupaten Jayapura",PAPUA,99352.0,Indonesia, 08114827899,-2.557344,140.4958181,https://maps.google.com/?cid=0x0:0x9afaf186d23bb377
hotel,hotel,Ocean Queen Resort Hotel,"Jl. Raya Cisolok, Cikahuripan, Kec. Cisolok, Kabupaten Sukabumi, Jawa Barat 43366","Cikahuripan, Kec. Cisolok, Kabupaten Sukabumi",PAPUA,43366.0,Indonesia, 0816986200,-6.957489,106.4336833,https://maps.google.com/?cid=0x0:0x9eeabed420a38950
hotel,hotel,Grand Desa Resort,"Jl. Raya Cisolok No.KM. 8 No.23, Cimaja, Kec. Cikakak, Kabupaten Sukabumi, Jawa Barat 43365","Cimaja, Kec. Cikakak, Kabupaten Sukabumi",PAPUA,43365.0,Indonesia, 085846976282,-6.95901,106.4877737,https://maps.google.com/?cid=0x0:0xeb9173b408327927
hotel,hotel,77 Sunset Plaza,"Jl. Raya Cisolok - Pelabuhanratu, Karangpapak, Kec. Cisolok, Kabupaten Sukabumi, Jawa Barat 43366","Karangpapak, Kec. Cisolok, Kabupaten Sukabumi",PAPUA,43366.0,Indonesia, 0266431125,-6.956524,106.464498,https://maps.google.com/?cid=0x0:0xa07e29ae9abb62e0
hotel,hotel,Villa Karang Aji,"Jl. Raya Cisolok No.KM 24, Cikahuripan, Kec. Cisolok, Kabupaten Sukabumi, Jawa Barat 43366","Cikahuripan, Kec. Cisolok, Kabupaten Sukabumi",PAPUA,43366.0,Indonesia, 082178881962,-6.9541386,106.4344412,https://maps.google.com/?cid=0x0:0xef238486bb359851
hotel,hotel,Seavibes,"Jl. Cisolok Raya No. 21, RT. 001 / RW. 004, Karangpapak, Cisolok, Karangpapak, Sukabumi, Kabupaten Sukabumi, Jawa Barat 43366","RT. 001 / RW. 004, Karangpapak, Cisolok, Karangpapak, Sukabumi, Kabupaten Sukabumi",PAPUA,43366.0,Indonesia, 08119922480,-6.9578107,106.4677482,https://maps.google.com/?cid=0x0:0x96cecf0e59f5020f
hotel,hotel,Cimaja Square Hotel  Restaurant,"Jl. Raya Cisolok No.Km.5, Cimaja, Kec. Cikakak, Kabupaten Sukabumi, Jawa Barat 43365","Cimaja, Kec. Cikakak, Kabupaten Sukabumi",PAPUA,43365.0,Indonesia, 02666440800,-6.9577344,106.4861491,https://maps.google.com/?cid=0x0:0x65b833b4292ca574
hotel,hotel,Papua 99371,"Kabupaten Sarmi, Papua","Kabupaten Sarmi, Papua",PAPUA,,Indonesia,,-2.7126367,139.2030851,https://maps.google.com/?cid=0x0:0x8507074767d67bf9
hotel,hotel,Hotel Rivior Sarmi,"4PVX+XHH, Sarmi, Kec. Sarmi, Kabupaten Sarmi, Papua 99373","Sarmi, Kec. Sarmi, Kabupaten Sarmi",PAPUA,99373.0,Indonesia, 081247768282,-1.8550507,138.7489752,https://maps.google.com/?cid=0x0:0x687222ae96a90f78
hotel,hotel,Penginapan 69,"Kp. Waena, Kec. Heram, Kota Jayapura, Papua 99225","Kec. Heram, Kota Jayapura",PAPUA,99225.0,Indonesia, 081248523621,-2.593495,140.6310796,https://maps.google.com/?cid=0x0:0x12711ec27878fab8
hotel,Hostel,PENGINAPAN PAK DEDE,"MHX8+PCH, Kiren, Kec. Bonggo, Kabupaten Sarmi, Papua 99355","Kiren, Kec. Bonggo, Kabupaten Sarmi",PAPUA,99355.0,Indonesia,,-2.300689,139.5661162,https://maps.google.com/?cid=0x0:0x36ac67a3daf4cc1
hotel,Apartemen sewa liburan,Penginapan,"PGCW+668, Bebon Jaya, Kec. Bonggo, Kabupaten Sarmi, Papua","Kabupaten Sarmi, Papua",PAPUA,,Indonesia,,-2.2794737,139.5455801,https://maps.google.com/?cid=0x0:0x6f6a7405b41ab333
hotel,hotel,Papua 99355,Papua,Papua,PAPUA,,Indonesia,,-2.3923553,139.6503106,https://maps.google.com/?cid=0x0:0x3416a324572abbb9
hotel,Hostel,PENGINAPAN PAK DEDE,"MHX8+PCH, Kiren, Kec. Bonggo, Kabupaten Sarmi, Papua 99355","Kiren, Kec. Bonggo, Kabupaten Sarmi",PAPUA,99355.0,Indonesia,,-2.300689,139.5661162,https://maps.google.com/?cid=0x0:0x36ac67a3daf4cc1
hotel,hotel,Ggg,"CGP4+37F, Hinekombe, Kec. Sentani, Kabupaten Jayapura, Papua","Kabupaten Jayapura, Papua",PAPUA,,Indonesia,,-2.5648168,140.5056744,https://maps.google.com/?cid=0x0:0x4a7dc7cc8adb5439
hotel,Hotel,Penginapan Ar-Rozzaaq,"PG8W+Q44, Unnamed Road, Bebon Jaya, Bonggo, Sarmi Regency, Papua 99355","Unnamed Road, Bebon Jaya, Bonggo, Sarmi Regency",PAPUA,99355.0,Indonesia, 081247055844,-2.2831038,139.5453294,https://maps.google.com/?cid=0x0:0x828c301fdd89e26e
hotel,hotel,HOTEL PARKSIDE WAENA,"Jl. Raya Waena, Kp. Waena, Kec. Abepura, Kota Jayapura, Papua 99532","Kp. Waena, Kec. Abepura, Kota Jayapura",PAPUA,99532.0,Indonesia, 08114829200,-2.5965369,140.6348713,https://maps.google.com/?cid=0x0:0xeecc070595c2799f
hotel,hotel,Hotel Clarence,"CJ3H+G8Q, Kp. Waena, Kec. Heram, Kota Jayapura, Papua 99351","Kp. Waena, Kec. Heram, Kota Jayapura",PAPUA,99351.0,Indonesia, 085354572838,-2.596157,140.6283658,https://maps.google.com/?cid=0x0:0x8de34d35f89fb65e
hotel,hotel,RedDoorz @ Waena Jayapura,"Jl. Belut 1 No.11, Kp. Waena, Kec. Heram, Kota Jayapura, Papua 99351","Kp. Waena, Kec. Heram, Kota Jayapura",PAPUA,99351.0,Indonesia, 0895417300072,-2.5969613,140.6285719,https://maps.google.com/?cid=0x0:0xb7db755dfe7a037
hotel,hotel,Homestay Galpera Papua,"Yabansai, Kec. Heram, Kota Jayapura, Papua 99225","Kec. Heram, Kota Jayapura",PAPUA,99225.0,Indonesia, 082398738885,-2.5925929,140.6389683,https://maps.google.com/?cid=0x0:0x14836218d55585f8
hotel,hotel,Citihub Hotel,"Wai Mhorock, Abepura, Kota Jayapura, Papua 99225, Wai Mhorock, Kec. Abepura, Kota Jayapura, Papua 99552","Abepura, Kota Jayapura, Papua",PAPUA,99225.0,Indonesia, 09675180123,-2.6081763,140.6741417,https://maps.google.com/?cid=0x0:0x5a25068c30daecb0
hotel,hotel,RedDoorz near Mal Abepura,"Jl. Worut, Vim, Kec. Abepura, Kota Jayapura, Papua 99225","Vim, Kec. Abepura, Kota Jayapura",PAPUA,99225.0,Indonesia, 0895417300072,-2.605853,140.6675198,https://maps.google.com/?cid=0x0:0x9eab273d9acf6758
hotel,hotel,Hotel Horison Kotaraja,"Jl. Raya Abepura No.80, Wai Mhorock, Kec. Abepura, Kota Jayapura, Papua 99221","Wai Mhorock, Kec. Abepura, Kota Jayapura",PAPUA,99221.0,Indonesia,,-2.6004891,140.676497,https://maps.google.com/?cid=0x0:0x928b6846e61f91de
hotel,hotel,Grand ABE Hotel Jayapura,"Jl. Raya Abepura, Kotabaru, Kota Baru, Kec. Abepura, Kota Jayapura, Papua 99351","Kotabaru, Kota Baru, Kec. Abepura, Kota Jayapura",PAPUA,99351.0,Indonesia, 08114825123,-2.6106174,140.6659805,https://maps.google.com/?cid=0x0:0xadc84ceab536f6a
hotel,hotel,Galaxy Hotel Abepura,"Kp. Waena, Kec. Heram, Kota Jayapura, Papua 99351","Kec. Heram, Kota Jayapura",PAPUA,99351.0,Indonesia, 081150500147,-2.5944039,140.6254198,https://maps.google.com/?cid=0x0:0xf9951793f247fc13
hotel,hotel,Pantai Base-G,"Tj. Ria, Kec. Jayapura Utara, Kota Jayapura, Papua","Kota Jayapura, Papua",PAPUA,,Indonesia,,-2.5174272,140.7397204,https://maps.google.com/?cid=0x0:0x9c239c300165aea7
hotel,hotel,BW Beach Cafe  Villas,"Pantai Karang Papak Jl. Cisolok Raya Km. 11, Karangpapak, Kec. Cisolok, Kabupaten Sukabumi, Jawa Barat 43366","Karangpapak, Kec. Cisolok, Kabupaten Sukabumi",PAPUA,43366.0,Indonesia, 082124212210,-6.9612588,106.4729766,https://maps.google.com/?cid=0x0:0x731512ce8a019cac
hotel,hotel,Hotel Lagusa,"2FRG+V23, Jl. Lagusa, Karangpapak, Kec. Cisolok, Kabupaten Sukabumi, Jawa Barat 43366","Jl. Lagusa, Karangpapak, Kec. Cisolok, Kabupaten Sukabumi",PAPUA,43366.0,Indonesia, 02129706666,-6.9578528,106.4750518,https://maps.google.com/?cid=0x0:0x92fa499df9e357a7
hotel,hotel,Arya âs Surf Camp,"Jalan Raya Kp. Cibiuk, RT.01/RW.01, Cimaja, Cikakak, Sukabumi Regency, West Java 43365","RT.01/RW.01, Cimaja, Cikakak, Sukabumi Regency",PAPUA,43365.0,Indonesia, 081315253867,-6.9575939,106.4856579,https://maps.google.com/?cid=0x0:0x7fb76c4625f7e1c0
hotel,hotel,Hotel Pantai Mutiara,"Jl. Raya Cisolok, Karangpapak, Kec. Cisolok, Kabupaten Sukabumi, Jawa Barat 43366","Karangpapak, Kec. Cisolok, Kabupaten Sukabumi",PAPUA,43366.0,Indonesia, 085798448587,-6.9571129,106.4669026,https://maps.google.com/?cid=0x0:0xe344b811a436fd84
hotel,hotel,Papua 99373,"Kabupaten Sarmi, Papua","Kabupaten Sarmi, Papua",PAPUA,,Indonesia,,-2.0309427,138.7995122,https://maps.google.com/?cid=0x0:0x94ecbde644ea8853
hotel,Hotel bintang 2,TWELVE HOTEL,"Jl. Raya Klp. Satu, Sawar, Kec. Sarmi, Kabupaten Sarmi, Papua 99373","Sawar, Kec. Sarmi, Kabupaten Sarmi",PAPUA,99373.0,Indonesia, 081249356939,-1.890778,138.7526548,https://maps.google.com/?cid=0x0:0xbc1999d77633f730
hotel,Hotel bintang 2,Hotel Narwastu,"4QV2+W2G, Sarmi, Kec. Sarmi, Kabupaten Sarmi, Papua 99373","Sarmi, Kec. Sarmi, Kabupaten Sarmi",PAPUA,99373.0,Indonesia,,-1.855188,138.7500896,https://maps.google.com/?cid=0x0:0x951ddb6547f4e633
hotel,Hotel,Hotel Damar Inn,"4Q63+R8X, Sawar, Kec. Sarmi, Kabupaten Sarmi, Papua 99373","Sawar, Kec. Sarmi, Kabupaten Sarmi",PAPUA,99373.0,Indonesia, 081247285874,-1.8878788,138.7533749,https://maps.google.com/?cid=0x0:0xe086c712d0612021
hotel,hotel,Hotel Rivior Sarmi,"4PVX+XHH, Sarmi, Kec. Sarmi, Kabupaten Sarmi, Papua 99373","Sarmi, Kec. Sarmi, Kabupaten Sarmi",PAPUA,99373.0,Indonesia, 081247768282,-1.8550507,138.7489752,https://maps.google.com/?cid=0x0:0x687222ae96a90f78
hotel,Hotel,Penginapan El-Roy,"4QF3+FCP, Jalan INPRES, Mararena, Kec. Sarmi, Kabupaten Sarmi, Papua 99373","Jalan INPRES, Mararena, Kec. Sarmi, Kabupaten Sarmi",PAPUA,99373.0,Indonesia,,-1.8762798,138.7535728,https://maps.google.com/?cid=0x0:0x3c72392d6fa6a9e6
hotel,Komplek perumahan,Zona Kuning,"3QW3+3Q8, Unnamed Road, Sawar, Kec. Sarmi, Kabupaten Sarmi, Papua 99373","Unnamed Road, Sawar, Kec. Sarmi, Kabupaten Sarmi",PAPUA,99373.0,Indonesia,,-1.9048309,138.7544643,https://maps.google.com/?cid=0x0:0xa84aa7ac333b1d1f
hotel,Hotel,PENGINAPAN SUMBER REJEKI,"Sawar, Kec. Sarmi, Kabupaten Sarmi, Papua","Kabupaten Sarmi, Papua",PAPUA,,Indonesia, 081230938923,-1.9062468,138.7551501,https://maps.google.com/?cid=0x0:0x234edda97460c921
hotel,Apartemen sewa liburan,Losmen Al-hidayah Sarmi,"jl. diponegoro No.1, Sarmi, Kec. Sarmi, Kabupaten Sarmi, Papua 99373","Sarmi, Kec. Sarmi, Kabupaten Sarmi",PAPUA,99373.0,Indonesia,,-1.8534713,138.7507397,https://maps.google.com/?cid=0x0:0x3300ac916e893606
hotel,Hotel,Penginapan HMK Sarmi,"4PPW+789, Sarmi, Kec. Sarmi, Kabupaten Sarmi, Papua 99373","Sarmi, Kec. Sarmi, Kabupaten Sarmi",PAPUA,99373.0,Indonesia, 081248416465,-1.864596,138.7457461,https://maps.google.com/?cid=0x0:0xbd96dead7b6dfe98
hotel,Apartemen sewa liburan,Official Noken Gank,"4QH2+5FF, Mararena, Kec. Sarmi, Kabupaten Sarmi, Papua 99373","Mararena, Kec. Sarmi, Kabupaten Sarmi",PAPUA,99373.0,Indonesia, 082248858699,-1.8720535,138.7511658,https://maps.google.com/?cid=0x0:0x5d479a271b541f7a
hotel,Hotel,Penginapan Citra Melonaria,"4QF3+R7P, Mararena, Kec. Sarmi, Kabupaten Sarmi, Papua 99373","Mararena, Kec. Sarmi, Kabupaten Sarmi",PAPUA,99373.0,Indonesia,,-1.8754196,138.7531956,https://maps.google.com/?cid=0x0:0x33c9fa4513f9527
hotel,hotel,Distrik Sarmi Timur,"Kabupaten Sarmi, Papua","Kabupaten Sarmi, Papua",PAPUA,,Indonesia,,-2.0023384,138.7951543,https://maps.google.com/?cid=0x0:0xa6223e91f97c29b5
hotel,Hotel bintang 2,TWELVE HOTEL,"Jl. Raya Klp. Satu, Sawar, Kec. Sarmi, Kabupaten Sarmi, Papua 99373","Sawar, Kec. Sarmi, Kabupaten Sarmi",PAPUA,99373.0,Indonesia, 081249356939,-1.890778,138.7526548,https://maps.google.com/?cid=0x0:0xbc1999d77633f730
hotel,hotel,Hotel Rivior Sarmi,"4PVX+XHH, Sarmi, Kec. Sarmi, Kabupaten Sarmi, Papua 99373","Sarmi, Kec. Sarmi, Kabupaten Sarmi",PAPUA,99373.0,Indonesia, 081247768282,-1.8550507,138.7489752,https://maps.google.com/?cid=0x0:0x687222ae96a90f78
hotel,Hotel bintang 2,Hotel Narwastu,"4QV2+W2G, Sarmi, Kec. Sarmi, Kabupaten Sarmi, Papua 99373","Sarmi, Kec. Sarmi, Kabupaten Sarmi",PAPUA,99373.0,Indonesia,,-1.855188,138.7500896,https://maps.google.com/?cid=0x0:0x951ddb6547f4e633
hotel,Hotel,Penginapan El-Roy,"4QF3+FCP, Jalan INPRES, Mararena, Kec. Sarmi, Kabupaten Sarmi, Papua 99373","Jalan INPRES, Mararena, Kec. Sarmi, Kabupaten Sarmi",PAPUA,99373.0,Indonesia,,-1.8762798,138.7535728,https://maps.google.com/?cid=0x0:0x3c72392d6fa6a9e6
hotel,Hotel,Hotel Damar Inn,"4Q63+R8X, Sawar, Kec. Sarmi, Kabupaten Sarmi, Papua 99373","Sawar, Kec. Sarmi, Kabupaten Sarmi",PAPUA,99373.0,Indonesia, 081247285874,-1.8878788,138.7533749,https://maps.google.com/?cid=0x0:0xe086c712d0612021
hotel,Komplek perumahan,Zona Kuning,"3QW3+3Q8, Unnamed Road, Sawar, Kec. Sarmi, Kabupaten Sarmi, Papua 99373","Unnamed Road, Sawar, Kec. Sarmi, Kabupaten Sarmi",PAPUA,99373.0,Indonesia,,-1.9048309,138.7544643,https://maps.google.com/?cid=0x0:0xa84aa7ac333b1d1f
hotel,Hotel,PENGINAPAN SUMBER REJEKI,"Sawar, Kec. Sarmi, Kabupaten Sarmi, Papua","Kabupaten Sarmi, Papua",PAPUA,,Indonesia, 081230938923,-1.9062468,138.7551501,https://maps.google.com/?cid=0x0:0x234edda97460c921
hotel,Apartemen sewa liburan,Official Noken Gank,"4QH2+5FF, Mararena, Kec. Sarmi, Kabupaten Sarmi, Papua 99373","Mararena, Kec. Sarmi, Kabupaten Sarmi",PAPUA,99373.0,Indonesia, 082248858699,-1.8720535,138.7511658,https://maps.google.com/?cid=0x0:0x5d479a271b541f7a
hotel,Apartemen sewa liburan,Losmen Al-hidayah Sarmi,"jl. diponegoro No.1, Sarmi, Kec. Sarmi, Kabupaten Sarmi, Papua 99373","Sarmi, Kec. Sarmi, Kabupaten Sarmi",PAPUA,99373.0,Indonesia,,-1.8534713,138.7507397,https://maps.google.com/?cid=0x0:0x3300ac916e893606
hotel,hotel,Papua 99371,"Kabupaten Sarmi, Papua","Kabupaten Sarmi, Papua",PAPUA,,Indonesia,,-2.7126367,139.2030851,https://maps.google.com/?cid=0x0:0x8507074767d67bf9
hotel,Hotel bintang 2,TWELVE HOTEL,"Jl. Raya Klp. Satu, Sawar, Kec. Sarmi, Kabupaten Sarmi, Papua 99373","Sawar, Kec. Sarmi, Kabupaten Sarmi",PAPUA,99373.0,Indonesia, 081249356939,-1.890778,138.7526548,https://maps.google.com/?cid=0x0:0xbc1999d77633f730
hotel,Apartemen sewa liburan,Penginapan,"PGCW+668, Bebon Jaya, Kec. Bonggo, Kabupaten Sarmi, Papua","Kabupaten Sarmi, Papua",PAPUA,,Indonesia,,-2.2794737,139.5455801,https://maps.google.com/?cid=0x0:0x6f6a7405b41ab333
hotel,hotel,,,,PAPUA,,Indonesia,,,,https://maps.google.com/?cid=0x0:0x64ba22bac6d0249d%7C/g/1pp2t_23y%7Cid-ID
hotel,hotel,OYO 540 De Viana Hotel  Apartments,"Lot 2992, Viana Court Service Apartment, 15150 Kota Bharu, Kelantan, Malaysia",Kota Bharu,PAPUA,15150.0,Indonesia," ||1) It's near to Wakaf Che Yeh, where the night markets are.  You just need to cross the road.||2) Room is spacious.||||What's bad about this hotel:||||1)  Hygiene and cleanliness! This is the biggest problem.  It seems as if this hotel doesn't have a proper maintenance / cleaning crew.  ||||As you walk into the lobby, you notice muddy shoe prints on the tiled floor.  The indoor swimming pool to your left is filled with murky green water.  It's like they're giving you signs of what's to come. ||||Once you're in your room, the toilet greets you with a strong and funky smell.  It smells of mold, it smells of someone not cleaning the toilet properly.  And you could see the brown yellowish mold at the corners of the floor, walls and edges of the sink.  The chrome taps and bidet are covered in water spots, another indication that the cleaner did not do his/her job properly.  The toilet bowl is filled with brown water, which you are then required to flush first before doing your business.  You have to do all this quickly though, as the smell is too overpowering.  As you rush out of the toilet and lie down on the bed, you realise that you will have to shower in that despicable toilet soon.  You've made a mistake for booking this hotel.  Let that sink in.||||2)  The location of the hotel is not so strategic if you go to the city center a lot.  Wakaf Che Yeh is the only attraction that's just across the main road...and a McDonald's...if you're that kind of traveler. ||||3)  Gym's a joke.  It's outside the hotel near the trash area.  And it only has a treadmill and a stationary bike.  Plus the room smells of, you've guess it, mold.  ||||4)  Do a bit of exploring and observing around the hotel and you will see the disorganization of the place i.e boxes stacked up against the wall near the conference room, papers littered on the front desk etc.||||5)  WiFi is weak. ||||Conclusion:||||I don't mean to bash this place so much.  But what would all this say about the kind of culture the hotel is practicing?  The state of cleanliness alone gave me doubts about their breakfast spread in the morning, of which I went out to have instead.  How could I trust their food hygiene is their overall hygiene is disappointing?  I just hope the hotel will improve on this.",6.087089,102.2393482,https://maps.google.com/?cid=0x0:0x7fb4a959529e7cf6
hotel,hotel,OYO 89498 Sri Seroja Inn Budget Hotel,"Lot 700, Block C, Pasar Awam Bersepadu, Wakaf Che Yeh, 15150 Kota Bharu, Kelantan, Malaysia",Kota Bharu,PAPUA,15150.0,Indonesia, +60350378296,6.0879091,102.2362932,https://maps.google.com/?cid=0x0:0xed8e5cd3b48da224
hotel,hotel,H Elite Design Hotel,"AG- G -09 , AlWaqf @ Tunjong, Jalan Kuala Krai, 16010 Kota Bharu, Kelantan, Malaysia",Kota Bharu,PAPUA,16010.0,Indonesia, +6097405757,6.0691916,102.2390807,https://maps.google.com/?cid=0x0:0x5516cb061d62c5d7
hotel,hotel,DE'VIANA HOTEL  APARTMENT,"Wakaf Che Yeh, 15150 Kota Bharu, Kelantan, Malaysia",Kota Bharu,PAPUA,15150.0,Indonesia, +6097441122,6.0870486,102.2393421,https://maps.google.com/?cid=0x0:0xee615cb4b4d6a3d6
hotel,hotel,Darussalam Homestay dan Wadi Isfa Inn,"PT 949, Kampung Pintu Geng, Wakaf Che Yeh, 15100 Kota Bharu, Kelantan, Malaysia",Kota Bharu,PAPUA,15100.0,Indonesia, +6097406584,6.0891547,102.2352823,https://maps.google.com/?cid=0x0:0x6d8244c8aefeaf22
hotel,hotel,Teratak Ibunda,"Lot 1954 15100, Lorong Sri Cemerlang 2/27, Kampung Dalam Kota, 15300 Kota Bharu, Kelantan, Malaysia",Kota Bharu,PAPUA,15300.0,Indonesia, +60129856769,6.0879131,102.2288612,https://maps.google.com/?cid=0x0:0xc4f5d15a134379ef
hotel,hotel,Berkat WCY Homestay,"Level 5-12, Viana Court Service Apartment,, Jalan Kuala Krai, Wakaf Che Yeh, 15150 Kota Bharu, Kelantan, Malaysia",Kota Bharu,PAPUA,15150.0,Indonesia,,6.0867189,102.2382987,https://maps.google.com/?cid=0x0:0x299c4f3453402ee
hotel,Museum,Istana Jahar,"Jalan Sultan, Bandar Kota Bharu, 15000 Kota Bharu, Kelantan, Malaysia",Kota Bharu,PAPUA,15000.0,Indonesia, +6097484477,6.1315565,102.2371368,https://maps.google.com/?cid=0x0:0x8c295b7ed0bdc4be
hotel,Layanan Transportasi,Bandara Sultan Ismail Petra Kelantan,"Pengkalan Chepa, 16100 Kota Bharu, Kelantan, Malaysia",Kota Bharu,PAPUA,16100.0,Indonesia, +6097737400,6.1667301,102.295747,https://maps.google.com/?cid=0x0:0xada502dc9b494fa7
hotel,Apartemen sewa liburan,Penginapan,"PGCW+668, Bebon Jaya, Kec. Bonggo, Kabupaten Sarmi, Papua","Kabupaten Sarmi, Papua",PAPUA,,Indonesia,,-2.2794737,139.5455801,https://maps.google.com/?cid=0x0:0x6f6a7405b41ab333
hotel,Hostel,PENGINAPAN PAK DEDE,"MHX8+PCH, Kiren, Kec. Bonggo, Kabupaten Sarmi, Papua 99355","Kiren, Kec. Bonggo, Kabupaten Sarmi",PAPUA,99355.0,Indonesia,,-2.300689,139.5661162,https://maps.google.com/?cid=0x0:0x36ac67a3daf4cc1
restaurant,Toko Swalayan,S-ONE CAFE,"4QW2+W7M, JL. INPRES, Sarmi, KOTA, Kabupaten Sarmi, Papua 91373","JL. INPRES, Sarmi, KOTA, Kabupaten Sarmi",PAPUA,91373.0,Indonesia, 082211363699,-1.8526669,138.7506824,https://maps.google.com/?cid=0x0:0x22941e780f8778b2
restaurant,restaurant,Sarmi,"Sarmi, Kec. Sarmi, Kabupaten Sarmi, Papua","Kabupaten Sarmi, Papua",PAPUA,,Indonesia,,-1.8526967,138.7507552,https://maps.google.com/?cid=0x0:0x1b3c48b9f289ecb6
restaurant,Jawa,Warung Pojok,"Unnamed Road, 99373, Mararena, Kec. Sarmi, Kabupaten Sarmi, Papua 99373","99373, Mararena, Kec. Sarmi, Kabupaten Sarmi",PAPUA,99373.0,Indonesia,,-1.8845965,138.7509235,https://maps.google.com/?cid=0x0:0xe99d0edad8f6871a
restaurant,Padang,Andalas RM Padang,"Unnamed Road No.99373, Sarmi, Kec. Sarmi, Kabupaten Sarmi, Papua 99373","Sarmi, Kec. Sarmi, Kabupaten Sarmi",PAPUA,99373.0,Indonesia,,-1.8560944,138.7486383,https://maps.google.com/?cid=0x0:0x64bfdfddb828f45c
restaurant,restaurant,Rumah Makan Sumber Rejeki,"4QW2+W7M, Sarmi, Kec. Sarmi, Kabupaten Sarmi, Papua 99373","Sarmi, Kec. Sarmi, Kabupaten Sarmi",PAPUA,99373.0,Indonesia,,-1.8526669,138.7506824,https://maps.google.com/?cid=0x0:0x839a8708cf37ab78
restaurant,Restoran,Warung Makan BAROKAH,"Sarmi, Kec. Sarmi, Kabupaten Sarmi, Papua 99373","Kec. Sarmi, Kabupaten Sarmi",PAPUA,99373.0,Indonesia, 081344450969,-1.855487,138.748841,https://maps.google.com/?cid=0x0:0x1a4fa3c32b6f99a2
restaurant,Rumah Makan,Warung Makan Melati,"4PRW+MJR, Jl. Inres Kalibagre, Sarmi, Kec. Sarmi, Kabupaten Sarmi, Papua 99373","Jl. Inres Kalibagre, Sarmi, Kec. Sarmi, Kabupaten Sarmi",PAPUA,99373.0,Indonesia,,-1.8582646,138.7465289,https://maps.google.com/?cid=0x0:0x8cabfc9866d96ffd
restaurant,Rumah Makan,Rumah Makan SEDERHANA,"Sarmi, Kec. Sarmi, Kabupaten Sarmi, Papua 99373","Kec. Sarmi, Kabupaten Sarmi",PAPUA,99373.0,Indonesia, 082234342529,-1.8560338,138.7487234,https://maps.google.com/?cid=0x0:0x800363bd0b15e818
restaurant,Jawa,WARUNG MAKAN YULI,"4Q52+7PP, naidam, Kec. Sarmi, Kabupaten Sarmi, Papua 99373","naidam, Kec. Sarmi, Kabupaten Sarmi",PAPUA,99373.0,Indonesia,,-1.891779,138.7518153,https://maps.google.com/?cid=0x0:0xba15ed7a19714735
restaurant,restaurant,Papua 99372,"Kabupaten Sarmi, Papua","Kabupaten Sarmi, Papua",PAPUA,,Indonesia,,-2.3921952,138.7995122,https://maps.google.com/?cid=0x0:0x8adfd51c064e390b
restaurant,Toko Swalayan,S-ONE CAFE,"4QW2+W7M, JL. INPRES, Sarmi, KOTA, Kabupaten Sarmi, Papua 91373","JL. INPRES, Sarmi, KOTA, Kabupaten Sarmi",PAPUA,91373.0,Indonesia, 082211363699,-1.8526669,138.7506824,https://maps.google.com/?cid=0x0:0x22941e780f8778b2
restaurant,,Cafe Rasya Garsa,"3QX3+R42, Neidam, Kota, Jalan Raya Kantor Bupati, Sarmi, Kec. Sarmi, Kabupaten Sarmi, Papua 99373","Neidam, Kota, Jalan Raya Kantor Bupati, Sarmi, Kec. Sarmi, Kabupaten Sarmi",PAPUA,99373.0,Indonesia,,-1.900485,138.7527504,https://maps.google.com/?cid=0x0:0x8b637d78f51483e8
restaurant,Jawa,Warung Pojok,"Unnamed Road, 99373, Mararena, Kec. Sarmi, Kabupaten Sarmi, Papua 99373","99373, Mararena, Kec. Sarmi, Kabupaten Sarmi",PAPUA,99373.0,Indonesia,,-1.8845965,138.7509235,https://maps.google.com/?cid=0x0:0xe99d0edad8f6871a
restaurant,Restoran,Warung tenda biru,"Mararena, Kec. Sarmi, Kabupaten Sarmi, Papua 99373","Kec. Sarmi, Kabupaten Sarmi",PAPUA,99373.0,Indonesia, 082248937179,-1.8851293,138.750586,https://maps.google.com/?cid=0x0:0x52db16511940f631
restaurant,Padang,Andalas RM Padang,"Unnamed Road No.99373, Sarmi, Kec. Sarmi, Kabupaten Sarmi, Papua 99373","Sarmi, Kec. Sarmi, Kabupaten Sarmi",PAPUA,99373.0,Indonesia,,-1.8560944,138.7486383,https://maps.google.com/?cid=0x0:0x64bfdfddb828f45c
restaurant,Restoran,Warung restu agung,"4Q82+57W, Mararena, Kec. Sarmi, Kabupaten Sarmi, Papua 99373","Mararena, Kec. Sarmi, Kabupaten Sarmi",PAPUA,99373.0,Indonesia,,-1.8845325,138.7506613,https://maps.google.com/?cid=0x0:0x1d28caa2ad729432
restaurant,Restoran,Warung Es Campur,"3QXH+283, Unnamed Rd, Sawar, Kec. Sarmi, Kabupaten Sarmi, Papua 99373","Unnamed Rd, Sawar, Kec. Sarmi, Kabupaten Sarmi",PAPUA,99373.0,Indonesia, 085244979850,-1.9024957,138.7782915,https://maps.google.com/?cid=0x0:0xa5d11b6100227bf8
restaurant,Rumah Makan,Rumah Makan SEDERHANA,"Sarmi, Kec. Sarmi, Kabupaten Sarmi, Papua 99373","Kec. Sarmi, Kabupaten Sarmi",PAPUA,99373.0,Indonesia, 082234342529,-1.8560338,138.7487234,https://maps.google.com/?cid=0x0:0x800363bd0b15e818
restaurant,Sulawesi Selatan,Coto Makassar Pantura Sarmi,"4PCX+2M3, Unnamed Road, Mararena, Kec. Sarmi, Kabupaten Sarmi, Papua 99373","Unnamed Road, Mararena, Kec. Sarmi, Kabupaten Sarmi",PAPUA,99373.0,Indonesia, 081248265194,-1.8799833,138.7491833,https://maps.google.com/?cid=0x0:0xf06c35e689aa4ddb
restaurant,Dapur Umum,Bakar menyala,"4Q72+988, Mararena, Kec. Sarmi, Kabupaten Sarmi, Papua","Kabupaten Sarmi, Papua",PAPUA,,Indonesia, 082198057600,-1.8865428,138.7508403,https://maps.google.com/?cid=0x0:0x1d051c4e98a58dac
restaurant,Rumah Makan,WARUNG BAROKAH KELAPA 1,"4Q64+XC6, Jl. Raya Klp. Satu, Sawar, Kec. Sarmi, Kabupaten Sarmi, Papua 99373","Jl. Raya Klp. Satu, Sawar, Kec. Sarmi, Kabupaten Sarmi",PAPUA,99373.0,Indonesia,,-1.8875853,138.7560092,https://maps.google.com/?cid=0x0:0x5e087adcf9386d75
restaurant,Padang,RM. Putri Andalas,"4P8X+WW3, Jln. Syamor, Mararena, Sarmi, Sarmi Regency, Papua 99373","Jln. Syamor, Mararena, Sarmi, Sarmi Regency",PAPUA,99373.0,Indonesia,,-1.8827467,138.7497942,https://maps.google.com/?cid=0x0:0x4b6619912da991ef
restaurant,Indonesia,Manokwari Water Sport dan Resto Pantai Yen Beba,"Jl. Pasir Putih Kwawi No.110, Pasir Putih, Kec. Manokwari Tim., Kabupaten Manokwari, Papua Bar. 98313","Pasir Putih, Kec. Manokwari Tim., Kabupaten Manokwari",PAPUA,98313.0,Indonesia, 082197928585,-0.8703003,134.1077717,https://maps.google.com/?cid=0x0:0x600b70ef9df77bb7
restaurant,Layanan Rental Peralatan Olahraga Air,Resto Pantai Yen Beba,"44H5+W5R, Jl. Pasir Putih, Pasir Putih, Kec. Manokwari Tim., Kabupaten Manokwari, Papua Bar.","Kabupaten Manokwari, Papua Bar.",PAPUA,,Indonesia, 082197878781,-0.8701414,134.1078875,https://maps.google.com/?cid=0x0:0x5b07a2981a5d483f
restaurant,restaurant,,,,PAPUA,,Indonesia,,,,https://maps.google.com/?cid=0x0:0x5b07a2981a5d483fu0026onu0026midu003d/g/11vpt6cdlz
restaurant,restaurant,Papua 99371,"Kabupaten Sarmi, Papua","Kabupaten Sarmi, Papua",PAPUA,,Indonesia,,-2.7126367,139.2030851,https://maps.google.com/?cid=0x0:0x8507074767d67bf9
restaurant,Restoran,RM. Central Betaf,"V7J5+QH8, Unnamed Road, Betaf, Kec. Pantai Tim., Kabupaten Sarmi, Papua 99371","Unnamed Road, Betaf, Kec. Pantai Tim., Kabupaten Sarmi",PAPUA,99371.0,Indonesia,,-2.1180912,139.2589395,https://maps.google.com/?cid=0x0:0xdb7cfa5ab27d386b
restaurant,Dapur Umum,Warung Makan Bersama,"QCRV+5X9, Rimsersari, Kec. Bonggo, Kabupaten Sarmi, Papua 99371","Rimsersari, Kec. Bonggo, Kabupaten Sarmi",PAPUA,99371.0,Indonesia,,-2.2095931,139.4449996,https://maps.google.com/?cid=0x0:0xa359fa9c50d122d
restaurant,Dapur Umum,Warung Lesehan 4 Putri,"PH28+RFV, Kiren, Kec. Bonggo, Kabupaten Sarmi, Papua 99355","Kiren, Kec. Bonggo, Kabupaten Sarmi",PAPUA,99355.0,Indonesia, 082398005049,-2.297882,139.5661822,https://maps.google.com/?cid=0x0:0xcef4c9f687eb9c59
restaurant,Dapur Umum,RM. SELERAKU,"JMJQ+C6H, Tamar Sari, Distrik Bonggo Timur, Kabupaten Sarmi, Papua 99355","Tamar Sari, Distrik Bonggo Timur, Kabupaten Sarmi",PAPUA,99355.0,Indonesia,,-2.3689294,139.6881195,https://maps.google.com/?cid=0x0:0xd5147e080b68445f
restaurant,Dapur Umum,Warung Makan Pak Slamet Nengke,"Mararena, Bonggo - Betaf - Sarmi, Kabupaten Sarmi, Papua","Kabupaten Sarmi, Papua",PAPUA,,Indonesia, 081247559894,-2.0341139,139.1226716,https://maps.google.com/?cid=0x0:0xfe8dcfe3be9e33c
restaurant,Kedai Kopi,Cafe D'Korasa,"G6J3+V6G, Betaf II / Tamnir, Kec. Pantai Tim., Kabupaten Sarmi, Papua","Kabupaten Sarmi, Papua",PAPUA,,Indonesia,,-2.4678144,139.2030851,https://maps.google.com/?cid=0x0:0x44bdbd750a55de9f
restaurant,Kedai Kopi,Warung makan jalur 2,"G6J3+V6G, Betaf II / Tamnir, Kec. Pantai Tim., Kabupaten Sarmi, Papua","Kabupaten Sarmi, Papua",PAPUA,,Indonesia,,-2.4678144,139.2030851,https://maps.google.com/?cid=0x0:0x4ba8e7424511f2a2
restaurant,Restoran,RUMAH MAKAN QUEEN,"Jl. Raya Klp. Satu, Sawar, Kec. Sarmi, Kabupaten Sarmi, Papua 99373","Sawar, Kec. Sarmi, Kabupaten Sarmi",PAPUA,99373.0,Indonesia, 081344259799,-1.8889397,138.7520242,https://maps.google.com/?cid=0x0:0x416ff774e29c9e57
restaurant,Rumah Makan,RestoCafe Rumah Laut,"Jl. Koti, Numbai, Distrik Jayapura Selatan, Kota Jayapura, Papua 99222","Numbai, Distrik Jayapura Selatan, Kota Jayapura",PAPUA,99222.0,Indonesia, 09675160842,-2.5443152,140.7078561,https://maps.google.com/?cid=0x0:0xa0b850e17d17f09d
restaurant,Padang,RM. Putri Andalas,"4P8X+WW3, Jln. Syamor, Mararena, Sarmi, Sarmi Regency, Papua 99373","Jln. Syamor, Mararena, Sarmi, Sarmi Regency",PAPUA,99373.0,Indonesia,,-1.8827467,138.7497942,https://maps.google.com/?cid=0x0:0x4b6619912da991ef
restaurant,Toko Swalayan,S-ONE CAFE,"4QW2+W7M, JL. INPRES, Sarmi, KOTA, Kabupaten Sarmi, Papua 91373","JL. INPRES, Sarmi, KOTA, Kabupaten Sarmi",PAPUA,91373.0,Indonesia, 082211363699,-1.8526669,138.7506824,https://maps.google.com/?cid=0x0:0x22941e780f8778b2
restaurant,Brunch,RM. Bilqis,"PH28+JGR, Unnamed Road, Kiren, Kec. Bonggo, Kabupaten Sarmi, Papua 99355","Unnamed Road, Kiren, Kec. Bonggo, Kabupaten Sarmi",PAPUA,99355.0,Indonesia, 081247998293,-2.2983831,139.566277,https://maps.google.com/?cid=0x0:0x8112ba02c1bf95c3
restaurant,Restoran,So Yummy Resto,"FV3Q+QR9, Kwamki, Kec. Mimika Baru, Kabupaten Mimika, Papua 99971","Kwamki, Kec. Mimika Baru, Kabupaten Mimika",PAPUA,99971.0,Indonesia, 081240005760,-4.5455973,136.8896159,https://maps.google.com/?cid=0x0:0xad18f6a2fb6ee6f8
restaurant,restaurant,Papua 99355,Papua,Papua,PAPUA,,Indonesia,,-2.3923553,139.6503106,https://maps.google.com/?cid=0x0:0x3416a324572abbb9
restaurant,Dapur Umum,Warung Lesehan 4 Putri,"PH28+RFV, Kiren, Kec. Bonggo, Kabupaten Sarmi, Papua 99355","Kiren, Kec. Bonggo, Kabupaten Sarmi",PAPUA,99355.0,Indonesia, 082398005049,-2.297882,139.5661822,https://maps.google.com/?cid=0x0:0xcef4c9f687eb9c59
restaurant,Restoran,R.M MANGGA 1 Sp-2 BONGGO,"JM42+W4H, Unnamed Road, Bebon Jaya, Kec. Bonggo, Kabupaten Sarmi, Papua 99355","Unnamed Road, Bebon Jaya, Kec. Bonggo, Kabupaten Sarmi",PAPUA,99355.0,Indonesia,,-2.3926803,139.6503449,https://maps.google.com/?cid=0x0:0x452c10748b60c1f9
restaurant,Restoran,Rumah makan agung,"PG8W+W7H, Unnamed Road, Bebon Jaya, Kec. Bonggo, Kabupaten Sarmi, Papua 99355","Unnamed Road, Bebon Jaya, Kec. Bonggo, Kabupaten Sarmi",PAPUA,99355.0,Indonesia,,-2.2826854,139.5457311,https://maps.google.com/?cid=0x0:0x44871d21890ec34d
restaurant,Dapur Umum,RM. SELERAKU,"JMJQ+C6H, Tamar Sari, Distrik Bonggo Timur, Kabupaten Sarmi, Papua 99355","Tamar Sari, Distrik Bonggo Timur, Kabupaten Sarmi",PAPUA,99355.0,Indonesia,,-2.3689294,139.6881195,https://maps.google.com/?cid=0x0:0xd5147e080b68445f
restaurant,Brunch,RM. Bilqis,"PH28+JGR, Unnamed Road, Kiren, Kec. Bonggo, Kabupaten Sarmi, Papua 99355","Unnamed Road, Kiren, Kec. Bonggo, Kabupaten Sarmi",PAPUA,99355.0,Indonesia, 081247998293,-2.2983831,139.566277,https://maps.google.com/?cid=0x0:0x8112ba02c1bf95c3
restaurant,Dapur Umum,Warung Makan Bersama,"QCRV+5X9, Rimsersari, Kec. Bonggo, Kabupaten Sarmi, Papua 99371","Rimsersari, Kec. Bonggo, Kabupaten Sarmi",PAPUA,99371.0,Indonesia,,-2.2095931,139.4449996,https://maps.google.com/?cid=0x0:0xa359fa9c50d122d
restaurant,Dapur Umum,RM SABAR MENANTI,"JMJP+QQ, Tamar Sari, Distrik Bonggo Timur, Kabupaten Sarmi, Papua","Kabupaten Sarmi, Papua",PAPUA,,Indonesia,,-2.3683009,139.6869108,https://maps.google.com/?cid=0x0:0x6df605376aa92383
restaurant,Brunch,RM.MANGGA 1,"PGGW+V7H, Bebon Jaya, Kec. Bonggo, Kabupaten Sarmi, Papua 99355","Bebon Jaya, Kec. Bonggo, Kabupaten Sarmi",PAPUA,99355.0,Indonesia,,-2.2728125,139.5457344,https://maps.google.com/?cid=0x0:0xa99358ef8d2c9a
restaurant,Dapur Umum,Ayam Bakar kk24,"Kiren, Kec. Bonggo, Kabupaten Sarmi, Papua 99355","Kec. Bonggo, Kabupaten Sarmi",PAPUA,99355.0,Indonesia, 081248038543,-2.3008617,139.5661526,https://maps.google.com/?cid=0x0:0xb2bda6f893b8946
restaurant,Kedai Kopi,Warung Makan Mbah Rusdi,"MJ4R+8JG, Gwinjaya, Distrik Bonggo Timur, Kabupaten Sarmi, Papua 99355","Gwinjaya, Distrik Bonggo Timur, Kabupaten Sarmi",PAPUA,99355.0,Indonesia,,-2.3441993,139.6415687,https://maps.google.com/?cid=0x0:0x8fbc2171166090f7
restaurant,Restoran,Mie Ayam  Lalapan Bu Rofitah,"JMMJ+HHP Tamarsari, Desa, RT.004/RW.001, Tamar Sari, Distrik Bonggo Timur, Kabupatern Sarmi, Papua","Kabupatern Sarmi, Papua",PAPUA,,Indonesia, 081299272250,-2.3660347,139.6814388,https://maps.google.com/?cid=0x0:0xa42e5b693aa025cd
restaurant,Restoran,Warung Lalapan  Ikan Bakar WAâKOBA,"JMR9+4H, Tamar Sari, Distrik Bonggo Timur, Kabupaten Sarmi, Papua","Kabupaten Sarmi, Papua",PAPUA,,Indonesia,,-2.3595382,139.6686818,https://maps.google.com/?cid=0x0:0x44cd398ab8015e8e
restaurant,restaurant,Papua 99374,"Kabupaten Sarmi, Papua","Kabupaten Sarmi, Papua",PAPUA,,Indonesia,,-2.0159736,138.3190276,https://maps.google.com/?cid=0x0:0xfafa718b5be371f4
restaurant,restaurant,Warung Makan Indralis,"M29H+VG, Danau Bira, Kec. Mamberamo Tengah, Kabupaten Mamberamo Raya, Papua 99376","Danau Bira, Kec. Mamberamo Tengah, Kabupaten Mamberamo Raya",PAPUA,99376.0,Indonesia,,-2.3298513,138.0287306,https://maps.google.com/?cid=0x0:0x7117e9954e3840a5
restaurant,restaurant,Kampung Baso 1,"R46C+6F9, Anggreso, Mamberamo Ulu, Kabupaten Mamberamo Raya, Papua","Kabupaten Mamberamo Raya, Papua",PAPUA,,Indonesia,,-2.1894565,138.1212412,https://maps.google.com/?cid=0x0:0xe1e0b200e37f46cf
restaurant,Restoran,Restaurant Yougwa,"CJ63+H23, Jl. Raya Abepura - Sentani, Asei Kecil, Kec. Sentani Tim., Kabupaten Jayapura, Papua 99351","Jl. Raya Abepura - Sentani, Asei Kecil, Kec. Sentani Tim., Kabupaten Jayapura",PAPUA,99351.0,Indonesia, 08114801448,-2.5886245,140.602559,https://maps.google.com/?cid=0x0:0x65e60fc66014e79c
restaurant,Dapur Umum,Warung Makan Maduratna Kasonaweja,"Kasonaweja, Kec. Mamberamo Tengah, Kabupaten Mamberamo Raya, Papua 99376","Kec. Mamberamo Tengah, Kabupaten Mamberamo Raya",PAPUA,99376.0,Indonesia, 081383138382,-2.3014354,138.0301517,https://maps.google.com/?cid=0x0:0xadc21a2996f23f5f
restaurant,restaurant,Papua 99373,"Kabupaten Sarmi, Papua","Kabupaten Sarmi, Papua",PAPUA,,Indonesia,,-2.0309427,138.7995122,https://maps.google.com/?cid=0x0:0x94ecbde644ea8853
restaurant,Padang,Andalas RM Padang,"Unnamed Road No.99373, Sarmi, Kec. Sarmi, Kabupaten Sarmi, Papua 99373","Sarmi, Kec. Sarmi, Kabupaten Sarmi",PAPUA,99373.0,Indonesia,,-1.8560944,138.7486383,https://maps.google.com/?cid=0x0:0x64bfdfddb828f45c
restaurant,Restoran,RUMAH MAKAN QUEEN,"Jl. Raya Klp. Satu, Sawar, Kec. Sarmi, Kabupaten Sarmi, Papua 99373","Sawar, Kec. Sarmi, Kabupaten Sarmi",PAPUA,99373.0,Indonesia, 081344259799,-1.8889397,138.7520242,https://maps.google.com/?cid=0x0:0x416ff774e29c9e57
restaurant,Bakso,Sandi Jaya,"4Q66+73Q, Unnamed Road, Sawar, Kec. Sarmi, Kabupaten Sarmi, Papua 99373","Unnamed Road, Sawar, Kec. Sarmi, Kabupaten Sarmi",PAPUA,99373.0,Indonesia, 081336952310,-1.88929,138.7602273,https://maps.google.com/?cid=0x0:0x7b06bdee3b640f96
restaurant,Jawa,Warung Pojok,"Unnamed Road, 99373, Mararena, Kec. Sarmi, Kabupaten Sarmi, Papua 99373","99373, Mararena, Kec. Sarmi, Kabupaten Sarmi",PAPUA,99373.0,Indonesia,,-1.8845965,138.7509235,https://maps.google.com/?cid=0x0:0xe99d0edad8f6871a
restaurant,Toko Swalayan,S-ONE CAFE,"4QW2+W7M, JL. INPRES, Sarmi, KOTA, Kabupaten Sarmi, Papua 91373","JL. INPRES, Sarmi, KOTA, Kabupaten Sarmi",PAPUA,91373.0,Indonesia, 082211363699,-1.8526669,138.7506824,https://maps.google.com/?cid=0x0:0x22941e780f8778b2
restaurant,Restoran,Warung Makan BAROKAH,"Sarmi, Kec. Sarmi, Kabupaten Sarmi, Papua 99373","Kec. Sarmi, Kabupaten Sarmi",PAPUA,99373.0,Indonesia, 081344450969,-1.855487,138.748841,https://maps.google.com/?cid=0x0:0x1a4fa3c32b6f99a2
restaurant,,Cafe Rasya Garsa,"3QX3+R42, Neidam, Kota, Jalan Raya Kantor Bupati, Sarmi, Kec. Sarmi, Kabupaten Sarmi, Papua 99373","Neidam, Kota, Jalan Raya Kantor Bupati, Sarmi, Kec. Sarmi, Kabupaten Sarmi",PAPUA,99373.0,Indonesia,,-1.900485,138.7527504,https://maps.google.com/?cid=0x0:0x8b637d78f51483e8
restaurant,Padang,Masakan Padang RM Putra Andalas,"4Q82+293, Unnamed Rd, Sarmi, Kec. Sarmi, Kabupaten Sarmi, Papua 99373","Unnamed Rd, Sarmi, Kec. Sarmi, Kabupaten Sarmi",PAPUA,99373.0,Indonesia,,-1.8849964,138.7509114,https://maps.google.com/?cid=0x0:0xe91f34a73212c8a9
restaurant,Rumah Makan,Rumah Makan SEDERHANA,"Sarmi, Kec. Sarmi, Kabupaten Sarmi, Papua 99373","Kec. Sarmi, Kabupaten Sarmi",PAPUA,99373.0,Indonesia, 082234342529,-1.8560338,138.7487234,https://maps.google.com/?cid=0x0:0x800363bd0b15e818
restaurant,Rumah Makan,Warung Makan Melati,"4PRW+MJR, Jl. Inres Kalibagre, Sarmi, Kec. Sarmi, Kabupaten Sarmi, Papua 99373","Jl. Inres Kalibagre, Sarmi, Kec. Sarmi, Kabupaten Sarmi",PAPUA,99373.0,Indonesia,,-1.8582646,138.7465289,https://maps.google.com/?cid=0x0:0x8cabfc9866d96ffd
restaurant,Ayam,WM Chicken Sarmi,"4Q82+G4P, Unnamed Rd, Mararena, Kec. Sarmi, Kabupaten Sarmi, Papua 99373","Unnamed Rd, Mararena, Kec. Sarmi, Kabupaten Sarmi",PAPUA,99373.0,Indonesia, 082197811133,-1.8836752,138.7503485,https://maps.google.com/?cid=0x0:0xdcabc2885207b44
restaurant,Restoran,Warung Es Campur,"3QXH+283, Unnamed Rd, Sawar, Kec. Sarmi, Kabupaten Sarmi, Papua 99373","Unnamed Rd, Sawar, Kec. Sarmi, Kabupaten Sarmi",PAPUA,99373.0,Indonesia, 085244979850,-1.9024957,138.7782915,https://maps.google.com/?cid=0x0:0xa5d11b6100227bf8
restaurant,Padang,RM. Putri Andalas,"4P8X+WW3, Jln. Syamor, Mararena, Sarmi, Sarmi Regency, Papua 99373","Jln. Syamor, Mararena, Sarmi, Sarmi Regency",PAPUA,99373.0,Indonesia,,-1.8827467,138.7497942,https://maps.google.com/?cid=0x0:0x4b6619912da991ef
restaurant,restaurant,Distrik Sarmi Timur,"Kabupaten Sarmi, Papua","Kabupaten Sarmi, Papua",PAPUA,,Indonesia,,-2.0023384,138.7951543,https://maps.google.com/?cid=0x0:0xa6223e91f97c29b5
restaurant,,Cafe Rasya Garsa,"3QX3+R42, Neidam, Kota, Jalan Raya Kantor Bupati, Sarmi, Kec. Sarmi, Kabupaten Sarmi, Papua 99373","Neidam, Kota, Jalan Raya Kantor Bupati, Sarmi, Kec. Sarmi, Kabupaten Sarmi",PAPUA,99373.0,Indonesia,,-1.900485,138.7527504,https://maps.google.com/?cid=0x0:0x8b637d78f51483e8
restaurant,Padang,Andalas RM Padang,"Unnamed Road No.99373, Sarmi, Kec. Sarmi, Kabupaten Sarmi, Papua 99373","Sarmi, Kec. Sarmi, Kabupaten Sarmi",PAPUA,99373.0,Indonesia,,-1.8560944,138.7486383,https://maps.google.com/?cid=0x0:0x64bfdfddb828f45c
restaurant,Toko Swalayan,S-ONE CAFE,"4QW2+W7M, JL. INPRES, Sarmi, KOTA, Kabupaten Sarmi, Papua 91373","JL. INPRES, Sarmi, KOTA, Kabupaten Sarmi",PAPUA,91373.0,Indonesia, 082211363699,-1.8526669,138.7506824,https://maps.google.com/?cid=0x0:0x22941e780f8778b2
restaurant,Rumah Makan,Rumah Makan SEDERHANA,"Sarmi, Kec. Sarmi, Kabupaten Sarmi, Papua 99373","Kec. Sarmi, Kabupaten Sarmi",PAPUA,99373.0,Indonesia, 082234342529,-1.8560338,138.7487234,https://maps.google.com/?cid=0x0:0x800363bd0b15e818
restaurant,Jawa,Warung Pojok,"Unnamed Road, 99373, Mararena, Kec. Sarmi, Kabupaten Sarmi, Papua 99373","99373, Mararena, Kec. Sarmi, Kabupaten Sarmi",PAPUA,99373.0,Indonesia,,-1.8845965,138.7509235,https://maps.google.com/?cid=0x0:0xe99d0edad8f6871a
restaurant,Restoran,Warung Es Campur,"3QXH+283, Unnamed Rd, Sawar, Kec. Sarmi, Kabupaten Sarmi, Papua 99373","Unnamed Rd, Sawar, Kec. Sarmi, Kabupaten Sarmi",PAPUA,99373.0,Indonesia, 085244979850,-1.9024957,138.7782915,https://maps.google.com/?cid=0x0:0xa5d11b6100227bf8
restaurant,Bakso,Sandi Jaya,"4Q66+73Q, Unnamed Road, Sawar, Kec. Sarmi, Kabupaten Sarmi, Papua 99373","Unnamed Road, Sawar, Kec. Sarmi, Kabupaten Sarmi",PAPUA,99373.0,Indonesia, 081336952310,-1.88929,138.7602273,https://maps.google.com/?cid=0x0:0x7b06bdee3b640f96
restaurant,Ayam,WM Chicken Sarmi,"4Q82+G4P, Unnamed Rd, Mararena, Kec. Sarmi, Kabupaten Sarmi, Papua 99373","Unnamed Rd, Mararena, Kec. Sarmi, Kabupaten Sarmi",PAPUA,99373.0,Indonesia, 082197811133,-1.8836752,138.7503485,https://maps.google.com/?cid=0x0:0xdcabc2885207b44
restaurant,Padang,RM. Putri Andalas,"4P8X+WW3, Jln. Syamor, Mararena, Sarmi, Sarmi Regency, Papua 99373","Jln. Syamor, Mararena, Sarmi, Sarmi Regency",PAPUA,99373.0,Indonesia,,-1.8827467,138.7497942,https://maps.google.com/?cid=0x0:0x4b6619912da991ef
restaurant,Rumah Makan,Warung Makan Melati,"4PRW+MJR, Jl. Inres Kalibagre, Sarmi, Kec. Sarmi, Kabupaten Sarmi, Papua 99373","Jl. Inres Kalibagre, Sarmi, Kec. Sarmi, Kabupaten Sarmi",PAPUA,99373.0,Indonesia,,-1.8582646,138.7465289,https://maps.google.com/?cid=0x0:0x8cabfc9866d96ffd
restaurant,Restoran,Warung Makan BAROKAH,"Sarmi, Kec. Sarmi, Kabupaten Sarmi, Papua 99373","Kec. Sarmi, Kabupaten Sarmi",PAPUA,99373.0,Indonesia, 081344450969,-1.855487,138.748841,https://maps.google.com/?cid=0x0:0x1a4fa3c32b6f99a2
restaurant,Jawa,Warung Makan Bu Bambang,"4QF3+M92, Mararena, Kec. Sarmi, Kabupaten Sarmi, Papua 99373","Mararena, Kec. Sarmi, Kabupaten Sarmi",PAPUA,99373.0,Indonesia,,-1.875872,138.7533923,https://maps.google.com/?cid=0x0:0xe3a135463a72bac1
restaurant,restaurant,Papua 99371,"Kabupaten Sarmi, Papua","Kabupaten Sarmi, Papua",PAPUA,,Indonesia,,-2.7126367,139.2030851,https://maps.google.com/?cid=0x0:0x8507074767d67bf9
restaurant,Restoran,RM. Central Betaf,"V7J5+QH8, Unnamed Road, Betaf, Kec. Pantai Tim., Kabupaten Sarmi, Papua 99371","Unnamed Road, Betaf, Kec. Pantai Tim., Kabupaten Sarmi",PAPUA,99371.0,Indonesia,,-2.1180912,139.2589395,https://maps.google.com/?cid=0x0:0xdb7cfa5ab27d386b
restaurant,Dapur Umum,Warung Lesehan 4 Putri,"PH28+RFV, Kiren, Kec. Bonggo, Kabupaten Sarmi, Papua 99355","Kiren, Kec. Bonggo, Kabupaten Sarmi",PAPUA,99355.0,Indonesia, 082398005049,-2.297882,139.5661822,https://maps.google.com/?cid=0x0:0xcef4c9f687eb9c59
restaurant,Layanan Rental Peralatan Olahraga Air,Resto Pantai Yen Beba,"44H5+W5R, Jl. Pasir Putih, Pasir Putih, Kec. Manokwari Tim., Kabupaten Manokwari, Papua Bar.","Kabupaten Manokwari, Papua Bar.",PAPUA,,Indonesia, 082197878781,-0.8701414,134.1078875,https://maps.google.com/?cid=0x0:0x5b07a2981a5d483f
restaurant,Jawa,RM.VANDY.OK,"Unnamed Road, Bebon Jaya, Kec. Bonggo, Kabupaten Sarmi, Papua 99355","Bebon Jaya, Kec. Bonggo, Kabupaten Sarmi",PAPUA,99355.0,Indonesia, 081247263895,-2.2737106,139.5458018,https://maps.google.com/?cid=0x0:0x25a0a165724ef57e
restaurant,Dapur Umum,Warung Makan Bersama,"QCRV+5X9, Rimsersari, Kec. Bonggo, Kabupaten Sarmi, Papua 99371","Rimsersari, Kec. Bonggo, Kabupaten Sarmi",PAPUA,99371.0,Indonesia,,-2.2095931,139.4449996,https://maps.google.com/?cid=0x0:0xa359fa9c50d122d
restaurant,Rumah Makan,RestoCafe Rumah Laut,"Jl. Koti, Numbai, Distrik Jayapura Selatan, Kota Jayapura, Papua 99222","Numbai, Distrik Jayapura Selatan, Kota Jayapura",PAPUA,99222.0,Indonesia, 09675160842,-2.5443152,140.7078561,https://maps.google.com/?cid=0x0:0xa0b850e17d17f09d
restaurant,Kafe,warung makan lumayan,"69HJ+5HV, Unnamed Road, Elelim, Distrik Elelim, Kabupaten Yalimo, Papua 99558","Unnamed Road, Elelim, Distrik Elelim, Kabupaten Yalimo",PAPUA,99558.0,Indonesia, 085244955800,-3.772016,139.381411,https://maps.google.com/?cid=0x0:0xbc4ad3c4c7484ec
restaurant,Restoran,Inggandi Beach Restaurant,"43GV+7Q3, Jl. Pasir Putih No.33, Pasir Putih, Kec. Manokwari Tim., Kabupaten Manokwari, Papua Bar. 98313","Jl. Pasir Putih No.33, Pasir Putih, Kec. Manokwari Tim., Kabupaten Manokwari",PAPUA,98313.0,Indonesia, 081240372255,-0.8780927,134.0933631,https://maps.google.com/?cid=0x0:0xba66c7a3124731e6
restaurant,Restoran,So Yummy Resto,"FV3Q+QR9, Kwamki, Kec. Mimika Baru, Kabupaten Mimika, Papua 99971","Kwamki, Kec. Mimika Baru, Kabupaten Mimika",PAPUA,99971.0,Indonesia, 081240005760,-4.5455973,136.8896159,https://maps.google.com/?cid=0x0:0xad18f6a2fb6ee6f8
restaurant,Masakan Asia,RM Kuala Oriental,"Jl. Budi Utomo No.88A, Kwamki, Kec. Mimika Baru, Kabupaten Mimika, Papua 99971","Kwamki, Kec. Mimika Baru, Kabupaten Mimika",PAPUA,99971.0,Indonesia, 081224989888,-4.5432787,136.8840215,https://maps.google.com/?cid=0x0:0xa200bb016a6f04d5
restaurant,Dapur Umum,Warung Makan Pak Slamet Nengke,"Mararena, Bonggo - Betaf - Sarmi, Kabupaten Sarmi, Papua","Kabupaten Sarmi, Papua",PAPUA,,Indonesia, 081247559894,-2.0341139,139.1226716,https://maps.google.com/?cid=0x0:0xfe8dcfe3be9e33c
restaurant,Dapur Umum,RM SABAR MENANTI,"JMJP+QQ, Tamar Sari, Distrik Bonggo Timur, Kabupaten Sarmi, Papua","Kabupaten Sarmi, Papua",PAPUA,,Indonesia,,-2.3683009,139.6869108,https://maps.google.com/?cid=0x0:0x6df605376aa92383
restaurant,Toko Swalayan,S-ONE CAFE,"4QW2+W7M, JL. INPRES, Sarmi, KOTA, Kabupaten Sarmi, Papua 91373","JL. INPRES, Sarmi, KOTA, Kabupaten Sarmi",PAPUA,91373.0,Indonesia, 082211363699,-1.8526669,138.7506824,https://maps.google.com/?cid=0x0:0x22941e780f8778b2
restaurant,restaurant,Distrik Bonggo Timur,"Kabupaten Sarmi, Papua","Kabupaten Sarmi, Papua",PAPUA,,Indonesia,,-2.3646918,139.6790312,https://maps.google.com/?cid=0x0:0xebe7f4b7afe3bd51
restaurant,Dapur Umum,RM. SELERAKU,"JMJQ+C6H, Tamar Sari, Distrik Bonggo Timur, Kabupaten Sarmi, Papua 99355","Tamar Sari, Distrik Bonggo Timur, Kabupaten Sarmi",PAPUA,99355.0,Indonesia,,-2.3689294,139.6881195,https://maps.google.com/?cid=0x0:0xd5147e080b68445f
restaurant,Dapur Umum,RM SABAR MENANTI,"JMJP+QQ, Tamar Sari, Distrik Bonggo Timur, Kabupaten Sarmi, Papua","Kabupaten Sarmi, Papua",PAPUA,,Indonesia,,-2.3683009,139.6869108,https://maps.google.com/?cid=0x0:0x6df605376aa92383
restaurant,Jawa,RM.VANDY.OK,"Unnamed Road, Bebon Jaya, Kec. Bonggo, Kabupaten Sarmi, Papua 99355","Bebon Jaya, Kec. Bonggo, Kabupaten Sarmi",PAPUA,99355.0,Indonesia, 081247263895,-2.2737106,139.5458018,https://maps.google.com/?cid=0x0:0x25a0a165724ef57e
restaurant,Dapur Umum,Warung Lesehan 4 Putri,"PH28+RFV, Kiren, Kec. Bonggo, Kabupaten Sarmi, Papua 99355","Kiren, Kec. Bonggo, Kabupaten Sarmi",PAPUA,99355.0,Indonesia, 082398005049,-2.297882,139.5661822,https://maps.google.com/?cid=0x0:0xcef4c9f687eb9c59
restaurant,Brunch,RM. Bilqis,"PH28+JGR, Unnamed Road, Kiren, Kec. Bonggo, Kabupaten Sarmi, Papua 99355","Unnamed Road, Kiren, Kec. Bonggo, Kabupaten Sarmi",PAPUA,99355.0,Indonesia, 081247998293,-2.2983831,139.566277,https://maps.google.com/?cid=0x0:0x8112ba02c1bf95c3
restaurant,Restoran,Rumah makan agung,"PG8W+W7H, Unnamed Road, Bebon Jaya, Kec. Bonggo, Kabupaten Sarmi, Papua 99355","Unnamed Road, Bebon Jaya, Kec. Bonggo, Kabupaten Sarmi",PAPUA,99355.0,Indonesia,,-2.2826854,139.5457311,https://maps.google.com/?cid=0x0:0x44871d21890ec34d
restaurant,Kedai Kopi,Warung Makan Mbah Rusdi,"MJ4R+8JG, Gwinjaya, Distrik Bonggo Timur, Kabupaten Sarmi, Papua 99355","Gwinjaya, Distrik Bonggo Timur, Kabupaten Sarmi",PAPUA,99355.0,Indonesia,,-2.3441993,139.6415687,https://maps.google.com/?cid=0x0:0x8fbc2171166090f7
restaurant,Restoran,Warung Lalapan  Ikan Bakar WAâKOBA,"JMR9+4H, Tamar Sari, Distrik Bonggo Timur, Kabupaten Sarmi, Papua","Kabupaten Sarmi, Papua",PAPUA,,Indonesia,,-2.3595382,139.6686818,https://maps.google.com/?cid=0x0:0x44cd398ab8015e8e
restaurant,Dapur Umum,Ayam Bakar kk24,"Kiren, Kec. Bonggo, Kabupaten Sarmi, Papua 99355","Kec. Bonggo, Kabupaten Sarmi",PAPUA,99355.0,Indonesia, 081248038543,-2.3008617,139.5661526,https://maps.google.com/?cid=0x0:0xb2bda6f893b8946
restaurant,Brunch,RM.MANGGA 1,"PGGW+V7H, Bebon Jaya, Kec. Bonggo, Kabupaten Sarmi, Papua 99355","Bebon Jaya, Kec. Bonggo, Kabupaten Sarmi",PAPUA,99355.0,Indonesia,,-2.2728125,139.5457344,https://maps.google.com/?cid=0x0:0xa99358ef8d2c9a
restaurant,Restoran,Mie Ayam  Lalapan Bu Rofitah,"JMMJ+HHP Tamarsari, Desa, RT.004/RW.001, Tamar Sari, Distrik Bonggo Timur, Kabupatern Sarmi, Papua","Kabupatern Sarmi, Papua",PAPUA,,Indonesia, 081299272250,-2.3660347,139.6814388,https://maps.google.com/?cid=0x0:0xa42e5b693aa025cd
