Category,Real Category,Business Name,Address,City,State,Postal Code,Country,Phone,Latitude,Longitude,Map Link
toko bangunan,toko bangunan,Sarmi,"Sarmi, Kec. Sarmi, Kabupaten Sarmi, Papua","Kabupaten Sarmi, Papua",PAPUA,,Indonesia,,-1.8526967,138.7507552,https://maps.google.com/?cid=0x0:0x1b3c48b9f289ecb6
toko bangunan,Toko Bahan Bangunan,Toko bangunan sumber rejeki,"Unnamed Road, Sawar, Kec. Sarmi, Kabupaten Sarmi, Papua 99373","Sawar, Kec. Sarmi, Kabupaten Sarmi",PAPUA,99373.0,Indonesia, 081234899589,-1.8894659,138.7600852,https://maps.google.com/?cid=0x0:0x4e88a9dfadd071fc
toko bangunan,Minimarket,Toko Sultan Sarmi,"4PWX+MW7, Sarmi, Kec. Sarmi, Kabupaten Sarmi, Papua 99373","Sarmi, Kec. Sarmi, Kabupaten Sarmi",PAPUA,99373.0,Indonesia,,-1.8533343,138.7497929,https://maps.google.com/?cid=0x0:0xc3304ba18728f2a9
toko bangunan,Toko Perlengkapan Rumah,Toko Cahaya Baru,"4Q63+MMQ, Unnamed Road, Sawar, Kec. Sarmi, Kabupaten Sarmi, Papua 99373","Unnamed Road, Sawar, Kec. Sarmi, Kabupaten Sarmi",PAPUA,99373.0,Indonesia, 085394888289,-1.8882766,138.7542343,https://maps.google.com/?cid=0x0:0xac40e5e1b664410a
toko bangunan,toko bangunan,Toko Mandala Bangunan,"4QW2+W7M, Jalan Dipenogoro, Sarmi, Kec. Sarmi, Kabupaten Sarmi, Papua 99373","Jalan Dipenogoro, Sarmi, Kec. Sarmi, Kabupaten Sarmi",PAPUA,99373.0,Indonesia,,-1.8526669,138.7506824,https://maps.google.com/?cid=0x0:0xaf99369eb7bf4cbe
toko bangunan,Toko Bahan Bangunan,Toko Jaya Abadi,"Jl. Neidam - Petam, Kota Baru, Kec. Sarmi, Kabupaten Sarmi, Papua 99373","Kota Baru, Kec. Sarmi, Kabupaten Sarmi",PAPUA,99373.0,Indonesia, 082122228701,-1.891142,138.7522426,https://maps.google.com/?cid=0x0:0x5df6637e3be4bf96
toko bangunan,toko bangunan,Toko Bangunan Intijaya,"4PVX+93R, Jl. Inres Kalibagre, Sarmi, Kec. Sarmi, Kabupaten Sarmi, Papua 99373","Jl. Inres Kalibagre, Sarmi, Kec. Sarmi, Kabupaten Sarmi",PAPUA,99373.0,Indonesia,,-1.8565194,138.7476267,https://maps.google.com/?cid=0x0:0xb92d73a8776d40be
toko bangunan,toko bangunan,Papua 99372,"Kabupaten Sarmi, Papua","Kabupaten Sarmi, Papua",PAPUA,,Indonesia,,-2.3921952,138.7995122,https://maps.google.com/?cid=0x0:0x8adfd51c064e390b
toko bangunan,Toko Perlengkapan Rumah,Toko Cahaya Baru,"4Q63+MMQ, Unnamed Road, Sawar, Kec. Sarmi, Kabupaten Sarmi, Papua 99373","Unnamed Road, Sawar, Kec. Sarmi, Kabupaten Sarmi",PAPUA,99373.0,Indonesia, 085394888289,-1.8882766,138.7542343,https://maps.google.com/?cid=0x0:0xac40e5e1b664410a
toko bangunan,Toko Bahan Bangunan,Toko bangunan sumber rejeki,"Unnamed Road, Sawar, Kec. Sarmi, Kabupaten Sarmi, Papua 99373","Sawar, Kec. Sarmi, Kabupaten Sarmi",PAPUA,99373.0,Indonesia, 081234899589,-1.8894659,138.7600852,https://maps.google.com/?cid=0x0:0x4e88a9dfadd071fc
toko bangunan,Toko Bahan Bangunan,TOKO BANGUNAN NABIRE SANTOSO MITRA SEJAHTERA,"Jl. Dr. Sam Ratulangi No.2, Oyehe, Distrik Nabire, Kabupaten Nabire, Papua 98817","Oyehe, Distrik Nabire, Kabupaten Nabire",PAPUA,98817.0,Indonesia, 085787541264,-3.3600958,135.5020964,https://maps.google.com/?cid=0x0:0xb6a38fe67511aebd
toko bangunan,Toko Bahan Bangunan,TOKO bangunan TANETE,"FV5J+76V, Timika Jaya, Kec. Mimika Baru, Kabupaten Mimika, Papua 99971","Timika Jaya, Kec. Mimika Baru, Kabupaten Mimika",PAPUA,99971.0,Indonesia, 081240257889,-4.5417578,136.8805502,https://maps.google.com/?cid=0x0:0x2430321c278c3c39
toko bangunan,Toko Bahan Bangunan,ANEKA BANGUNAN,"Wosi, Kec. Manokwari Bar., Kabupaten Manokwari, Papua Bar. 98312","Kec. Manokwari Bar., Kabupaten Manokwari",PAPUA,98312.0,Indonesia, 081344843001,-0.8631883,134.0498559,https://maps.google.com/?cid=0x0:0x3598159af16f30ea
toko bangunan,Toko Bahan Bangunan,TOKO BAHAN BANGUNAN âTRINITY HOMEâ,"Jalan Baru Pasar Lama, Wahno, Kec. Abepura, Kota Jayapura, Papua 99224","Wahno, Kec. Abepura, Kota Jayapura",PAPUA,99224.0,Indonesia, 081232337934,-2.5958248,140.6809957,https://maps.google.com/?cid=0x0:0x41c321d86b054228
toko bangunan,Toko Bahan Bangunan,Toko Duta Bangunan,"Jalan Sempan Nawaripi, Inauga, Kec. Mimika Baru, Kabupaten Mimika, Papua 99971","Inauga, Kec. Mimika Baru, Kabupaten Mimika",PAPUA,99971.0,Indonesia,,-4.573777,136.883006,https://maps.google.com/?cid=0x0:0xcf9557e74c78736d
toko bangunan,Toko bahan makanan,Toko Inti Pembangunan,"Sawar, Kec. Sarmi, Kabupaten Sarmi, Papua 99373","Kec. Sarmi, Kabupaten Sarmi",PAPUA,99373.0,Indonesia, 081286929260,-1.8888753,138.7523781,https://maps.google.com/?cid=0x0:0xc62de493673b96c9
toko bangunan,Toko,TOKO BANGUNAN SUMBER ANUGERAH,"Persatuan, Kec. Mandobo, Kabupaten Boven Digoel, Papua 99663","Kec. Mandobo, Kabupaten Boven Digoel",PAPUA,99663.0,Indonesia,,-6.0903965,140.3331897,https://maps.google.com/?cid=0x0:0x9b0d3e5a6263752a
toko bangunan,Toko Bahan Bangunan,Horukie Toko Bangunan,"R38J+883 Wa Toko Îá¨á¨-89Î3-Î541 kami, Fandoi, Kec. Biak Kota, Kabupaten Biak Numfor, Papua 98111","Fandoi, Kec. Biak Kota, Kabupaten Biak Numfor",PAPUA,98111.0,Indonesia, 081344944374,-1.1842375,136.0807969,https://maps.google.com/?cid=0x0:0x9ef95c0249a63970
toko bangunan,Toko Bahan Bangunan,Toko Jaya Abadi,"Jl. Neidam - Petam, Kota Baru, Kec. Sarmi, Kabupaten Sarmi, Papua 99373","Kota Baru, Kec. Sarmi, Kabupaten Sarmi",PAPUA,99373.0,Indonesia, 082122228701,-1.891142,138.7522426,https://maps.google.com/?cid=0x0:0x5df6637e3be4bf96
toko bangunan,Toko Bahan Bangunan,Toko Bangunan Saudara,"Jl. Pasir, pantai, Wosi, Kec. Manokwari Bar., Kabupaten Manokwari, Papua Bar. 98312","pantai, Wosi, Kec. Manokwari Bar., Kabupaten Manokwari",PAPUA,98312.0,Indonesia, 081219608601,-0.8691435,134.0499159,https://maps.google.com/?cid=0x0:0xd3c286debc960345
toko bangunan,toko bangunan,Distrik Pantai Barat,"Kabupaten Sarmi, Papua","Kabupaten Sarmi, Papua",PAPUA,,Indonesia,,-1.7332657,138.4123611,https://maps.google.com/?cid=0x0:0xf929d33f427f240b
toko bangunan,Toko Bahan Bangunan,Toko Central Bangunan,"42JW+2CG, Wosi, Kec. Manokwari Bar., Kabupaten Manokwari, Papua Bar. 98312","Wosi, Kec. Manokwari Bar., Kabupaten Manokwari",PAPUA,98312.0,Indonesia,,-0.8696454,134.0463667,https://maps.google.com/?cid=0x0:0x7ec708d770758168
toko bangunan,Toko Bahan Bangunan,TB Jaya Abadi PIK,"Jl. Pantai Indah Selatan No.38 Blok B, RT.3/RW.3, Kamal Muara, Kec. Penjaringan, Jkt Utara, Daerah Khusus Ibukota Jakarta 14470","RT.3/RW.3, Kamal Muara, Kec. Penjaringan, Jkt Utara",PAPUA,14470.0,Indonesia, 02129219155,-6.1240958,106.7444119,https://maps.google.com/?cid=0x0:0x40af2abd84bbcba4
toko bangunan,Toko Bahan Bangunan,Toko Bangunan Mutiara timur,"CJ3R+33F, Unnamed Road, Kp. Waena, Kec. Heram, Kota Jayapura, Papua 99225","Unnamed Road, Kp. Waena, Kec. Heram, Kota Jayapura",PAPUA,99225.0,Indonesia,,-2.5973134,140.6401625,https://maps.google.com/?cid=0x0:0x392e56b1342d758c
toko bangunan,Toko Bahan Bangunan,TOKO BAHAN BANGUNAN âTRINITY HOMEâ,"Jalan Baru Pasar Lama, Wahno, Kec. Abepura, Kota Jayapura, Papua 99224","Wahno, Kec. Abepura, Kota Jayapura",PAPUA,99224.0,Indonesia, 081232337934,-2.5958248,140.6809957,https://maps.google.com/?cid=0x0:0x41c321d86b054228
toko bangunan,toko bangunan,Papua 99371,"Kabupaten Sarmi, Papua","Kabupaten Sarmi, Papua",PAPUA,,Indonesia,,-2.7126367,139.2030851,https://maps.google.com/?cid=0x0:0x8507074767d67bf9
toko bangunan,Toko Bahan Bangunan,TOKO BANGUNAN RYSTER MULIA,"9MXG+G7R, Wai Mhorock, Kec. Abepura, Kota Jayapura, Papua 99225","Wai Mhorock, Kec. Abepura, Kota Jayapura",PAPUA,99225.0,Indonesia, 085100115858,-2.6011446,140.6756371,https://maps.google.com/?cid=0x0:0x4886e2a9293c5411
toko bangunan,Toko Bahan Bangunan,Supermarket Multi Bangunan,"Jl Baru No.98, Wai Mhorock, Abepura, Jayapura City, Papua 99225","Wai Mhorock, Abepura, Jayapura City",PAPUA,99225.0,Indonesia, 0967588677,-2.6077336,140.6742812,https://maps.google.com/?cid=0x0:0x3b19f301c68f1d6f
toko bangunan,toko bangunan,Toko Mitra Bangunan,"8F8G+WJ5, Karubaga, Kec. Karubaga, Kabupaten Tolikara, Papua 99567","Karubaga, Kec. Karubaga, Kabupaten Tolikara",PAPUA,99567.0,Indonesia, 081317225643,-3.682733,138.4766089,https://maps.google.com/?cid=0x0:0x94f019f9132886e9
toko bangunan,Toko Bahan Bangunan,Surya Prima,"Jl. Kelapa Dua Raya Entrop No.18, Entrop, Jayapura Selatan, Jayapura City, Papua 99221","Entrop, Jayapura Selatan, Jayapura City",PAPUA,99221.0,Indonesia, 082199367291,-2.5685557,140.7022939,https://maps.google.com/?cid=0x0:0x52a2d9ba8f08d112
toko bangunan,Toko Bahan Bangunan,TOKO BANGUNAN DIKA JAYA,"Jl. Dermaga Aikai. Enarotali Distrik Paniai Timur Kabupaten Paniai. Papua, Aikai, Paniai Tim., Enarotali, Papua 98711","Aikai, Paniai Tim., Enarotali",PAPUA,98711.0,Indonesia, 081935935177,-3.9309089,136.3727901,https://maps.google.com/?cid=0x0:0x814ba48a8059765f
toko bangunan,Toko bahan makanan,Toko Inti Pembangunan,"Sawar, Kec. Sarmi, Kabupaten Sarmi, Papua 99373","Kec. Sarmi, Kabupaten Sarmi",PAPUA,99373.0,Indonesia, 081286929260,-1.8888753,138.7523781,https://maps.google.com/?cid=0x0:0xc62de493673b96c9
toko bangunan,Toko Perlengkapan Rumah,Toko Jarwal Bangunan,"Kamoro Jaya, Kec. Mimika Baru, Kabupaten Mimika, Papua 99971","Kec. Mimika Baru, Kabupaten Mimika",PAPUA,99971.0,Indonesia,,-4.5656564,136.8718615,https://maps.google.com/?cid=0x0:0x6cdc385accf4a8b
toko bangunan,Toko Perlengkapan Rumah,Toko Cahaya Baru,"4Q63+MMQ, Unnamed Road, Sawar, Kec. Sarmi, Kabupaten Sarmi, Papua 99373","Unnamed Road, Sawar, Kec. Sarmi, Kabupaten Sarmi",PAPUA,99373.0,Indonesia, 085394888289,-1.8882766,138.7542343,https://maps.google.com/?cid=0x0:0xac40e5e1b664410a
toko bangunan,Toko,TOKO BANGUNAN SUMBER ANUGERAH,"Persatuan, Kec. Mandobo, Kabupaten Boven Digoel, Papua 99663","Kec. Mandobo, Kabupaten Boven Digoel",PAPUA,99663.0,Indonesia,,-6.0903965,140.3331897,https://maps.google.com/?cid=0x0:0x9b0d3e5a6263752a
toko bangunan,Toko Bahan Bangunan,Toko Central Bangunan / AMK,"Jl. Perikanan No.08, Hamadi, Distrik Jayapura Selatan, Kota Jayapura, Papua 99222","Hamadi, Distrik Jayapura Selatan, Kota Jayapura",PAPUA,99222.0,Indonesia, 082261057928,-2.5584767,140.7173289,https://maps.google.com/?cid=0x0:0xcfdf592c00fbd20d
toko bangunan,Toko Bahan Bangunan,Toko Bangunan USAHA JAYA,"Jln Raya Tanah Hitam, Asano, Abepura, Jayapura City, Papua 93351","Asano, Abepura, Jayapura City",PAPUA,93351.0,Indonesia, 0811482182,-2.6176324,140.683841,https://maps.google.com/?cid=0x0:0xb6995fd87d51be7
toko bangunan,toko bangunan,Papua 99355,Papua,Papua,PAPUA,,Indonesia,,-2.3923553,139.6503106,https://maps.google.com/?cid=0x0:0x3416a324572abbb9
toko bangunan,Toko bahan makanan,Toko bangunan ABADI JAYA,"Jl. Raya sarmi No.blok A, Bunyom, Distrik Nimbokrang, Kabupaten Jayapura, Papua 99361","Bunyom, Distrik Nimbokrang, Kabupaten Jayapura",PAPUA,99361.0,Indonesia, 085382577209,-2.557175,140.1088301,https://maps.google.com/?cid=0x0:0x1ca51d4d8a0ae01a
toko bangunan,Toko Bahan Bangunan,Toko bangunan sumber rejeki,"Unnamed Road, Sawar, Kec. Sarmi, Kabupaten Sarmi, Papua 99373","Sawar, Kec. Sarmi, Kabupaten Sarmi",PAPUA,99373.0,Indonesia, 081234899589,-1.8894659,138.7600852,https://maps.google.com/?cid=0x0:0x4e88a9dfadd071fc
toko bangunan,toko bangunan,Somilbatu tela vandy.ok,"Jl.1 timur, Bebon Jaya, Kec. Bonggo, Kabupaten Sarmi, Papua 99381","Bebon Jaya, Kec. Bonggo, Kabupaten Sarmi",PAPUA,99381.0,Indonesia, 081247263895,-2.2736502,139.5464527,https://maps.google.com/?cid=0x0:0x603d08da04103670
toko bangunan,Toko bahan makanan,DEPO MESIN N28  DEPO BANGUNAN,"Bunyom, Distrik Nimbokrang, Kabupaten Jayapura, Papua 99361","Distrik Nimbokrang, Kabupaten Jayapura",PAPUA,99361.0,Indonesia, 085247266989,-2.5571645,140.1086582,https://maps.google.com/?cid=0x0:0xf97268af26927065
toko bangunan,Pemasok Bahan Bangunan,Toko bangunan Sumber Makmur,"32CM+75G, Jl. Manokwari - Maruni, Anday, Distrik Manokwari, Kabupaten Manokwari, Papua Bar. 98315","Jl. Manokwari - Maruni, Anday, Distrik Manokwari, Kabupaten Manokwari",PAPUA,98315.0,Indonesia, 08114846060,-0.9293075,134.0329487,https://maps.google.com/?cid=0x0:0xa0a85c7270dde255
toko bangunan,Toko Bahan Bangunan,Toko Bangunan Murah,"Jln. Paniai, Koya Bar., Kec. Muara Tami, Kota Jayapura, Papua 99351","Koya Bar., Kec. Muara Tami, Kota Jayapura",PAPUA,99351.0,Indonesia, 081240619776,-2.6723927,140.8048351,https://maps.google.com/?cid=0x0:0xe1e0b7ba8ced921
toko bangunan,Toko Bahan Bangunan,Toko Santoso,"F43Q+9HG, Unnamed Road, Nembukrang, Distrik Nimbokrang, Kabupaten Jayapura, Papua 99361","Unnamed Road, Nembukrang, Distrik Nimbokrang, Kabupaten Jayapura",PAPUA,99361.0,Indonesia, 082398311412,-2.54657,140.138942,https://maps.google.com/?cid=0x0:0xc6d2f7128dba649f
toko bangunan,Toko Bahan Bangunan,TOKO BANGUNAN HONGGO,"W52Q+PMR, Wates, Kec. Bumi Ratu Nuban, Kabupaten Lampung Tengah, Lampung 34161","Wates, Kec. Bumi Ratu Nuban, Kabupaten Lampung Tengah",PAPUA,34161.0,Indonesia,,-5.0981403,105.189156,https://maps.google.com/?cid=0x0:0xdb5a310e9b59c7e0
toko bangunan,Toko Bahan Bangunan,Toko Bong Jaya Material Bangunan,"523V+CC4, Sadai, Kec. Bengkong, Kota Batam, Kepulauan Riau","Kota Batam, Kepulauan Riau",PAPUA,,Indonesia, 081364066299,1.1535008,104.043587,https://maps.google.com/?cid=0x0:0xce8be2d894610691
toko bangunan,toko bangunan,Toko Bangunan Biru,"Jalan Gempol, kp Jl. Kongsi, RT./Rw/RW.012/006, Jayasampurna, Kabupaten Bekasi, Jawa Barat 17530","kp Jl. Kongsi, RT./Rw/RW.012/006, Jayasampurna, Kabupaten Bekasi",PAPUA,17530.0,Indonesia, 081299988855,-6.3730595,107.0923115,https://maps.google.com/?cid=0x0:0xc276fd2147c5d7c6
toko bangunan,Toko Bahan Bangunan,TB. PUTRI BUNGSU,"2, Rawa, Kec. Lumbung, Kabupaten Ciamis, Jawa Barat 46258","Rawa, Kec. Lumbung, Kabupaten Ciamis",PAPUA,46258.0,Indonesia, 081320687778,-7.1552196,108.3136875,https://maps.google.com/?cid=0x0:0x4cf255e2512ee3a8
toko bangunan,Toko,Toko Bangunan Lestari Jaya,"Bunyom, Distrik Nimbokrang, Kabupaten Jayapura, Papua 99361","Distrik Nimbokrang, Kabupaten Jayapura",PAPUA,99361.0,Indonesia, 081248093799,-2.5574445,140.1144634,https://maps.google.com/?cid=0x0:0xb8c6a63e30cb594a
toko bangunan,Toko Bahan Bangunan,Toko Putri Bongan,"66WW+46R, Bukit Harapan, Kec. Bongan, Kabupaten Kutai Barat, Kalimantan Timur 75772","Bukit Harapan, Kec. Bongan, Kabupaten Kutai Barat",PAPUA,75772.0,Indonesia, 081254637074,-0.7546271,116.2455151,https://maps.google.com/?cid=0x0:0xf465468907a05907
toko bangunan,Toko bahan makanan,Toko Inti Pembangunan,"Sawar, Kec. Sarmi, Kabupaten Sarmi, Papua 99373","Kec. Sarmi, Kabupaten Sarmi",PAPUA,99373.0,Indonesia, 081286929260,-1.8888753,138.7523781,https://maps.google.com/?cid=0x0:0xc62de493673b96c9
toko bangunan,toko bangunan,Papua 99374,"Kabupaten Sarmi, Papua","Kabupaten Sarmi, Papua",PAPUA,,Indonesia,,-2.0159736,138.3190276,https://maps.google.com/?cid=0x0:0xfafa718b5be371f4
toko bangunan,toko bangunan,Apawer Hulu,"Kabupaten Sarmi, Papua","Kabupaten Sarmi, Papua",PAPUA,,Indonesia,,-2.0469798,138.3589086,https://maps.google.com/?cid=0x0:0x8817582a1beb01b6
toko bangunan,Toko Bahan Bangunan,Toko bangunan sumber rejeki,"Unnamed Road, Sawar, Kec. Sarmi, Kabupaten Sarmi, Papua 99373","Sawar, Kec. Sarmi, Kabupaten Sarmi",PAPUA,99373.0,Indonesia, 081234899589,-1.8894659,138.7600852,https://maps.google.com/?cid=0x0:0x4e88a9dfadd071fc
toko bangunan,Toko Bahan Bangunan,ANEKA BANGUNAN,"Wosi, Kec. Manokwari Bar., Kabupaten Manokwari, Papua Bar. 98312","Kec. Manokwari Bar., Kabupaten Manokwari",PAPUA,98312.0,Indonesia, 081344843001,-0.8631883,134.0498559,https://maps.google.com/?cid=0x0:0x3598159af16f30ea
toko bangunan,Toko Bahan Bangunan,Toko Bangunan Mutiara timur,"CJ3R+33F, Unnamed Road, Kp. Waena, Kec. Heram, Kota Jayapura, Papua 99225","Unnamed Road, Kp. Waena, Kec. Heram, Kota Jayapura",PAPUA,99225.0,Indonesia,,-2.5973134,140.6401625,https://maps.google.com/?cid=0x0:0x392e56b1342d758c
toko bangunan,Toko Perlengkapan Rumah,Toko Cahaya Baru,"4Q63+MMQ, Unnamed Road, Sawar, Kec. Sarmi, Kabupaten Sarmi, Papua 99373","Unnamed Road, Sawar, Kec. Sarmi, Kabupaten Sarmi",PAPUA,99373.0,Indonesia, 085394888289,-1.8882766,138.7542343,https://maps.google.com/?cid=0x0:0xac40e5e1b664410a
toko bangunan,Toko Bahan Bangunan,Toko Central Bangunan / AMK,"Jl. Perikanan No.08, Hamadi, Distrik Jayapura Selatan, Kota Jayapura, Papua 99222","Hamadi, Distrik Jayapura Selatan, Kota Jayapura",PAPUA,99222.0,Indonesia, 082261057928,-2.5584767,140.7173289,https://maps.google.com/?cid=0x0:0xcfdf592c00fbd20d
toko bangunan,Toko Bahan Bangunan,PAPUA BANGUNAN,"42GX+945, Wosi, Kec. Manokwari Bar., Kabupaten Manokwari, Papua Bar. 98312","Wosi, Kec. Manokwari Bar., Kabupaten Manokwari",PAPUA,98312.0,Indonesia, 082198055550,-0.874101,134.0478473,https://maps.google.com/?cid=0x0:0x2c3683b193d9430f
toko bangunan,Toko Bahan Bangunan,Harapan Makmur,"pulo gebang permai rt.01/04 no:10, RT.13/RW.4, Pulo Gebang, Kec. Cakung, Kota Jakarta Timur, Daerah Khusus Ibukota Jakarta 13950","RT.13/RW.4, Pulo Gebang, Kec. Cakung, Kota Jakarta Timur",PAPUA,13950.0,Indonesia,,-6.1965532,106.9548097,https://maps.google.com/?cid=0x0:0xfc788602c1366326
toko bangunan,Toko,TOKO BANGUNAN SUMBER ANUGERAH,"Persatuan, Kec. Mandobo, Kabupaten Boven Digoel, Papua 99663","Kec. Mandobo, Kabupaten Boven Digoel",PAPUA,99663.0,Indonesia,,-6.0903965,140.3331897,https://maps.google.com/?cid=0x0:0x9b0d3e5a6263752a
toko bangunan,Toko Bahan Bangunan,TB Jaya Makmur,"Jl. Raya Pulo Gebang No.162, RT.5/RW.4, Ujung Menteng, Kec. Cakung, Kota Jakarta Timur, Daerah Khusus Ibukota Jakarta 13960","RT.5/RW.4, Ujung Menteng, Kec. Cakung, Kota Jakarta Timur",PAPUA,13960.0,Indonesia, 081513442818,-6.1933787,106.9576911,https://maps.google.com/?cid=0x0:0x55d6ac3173ff1f0e
toko bangunan,Toko Bahan Bangunan,Toko bangunan sumber rejeki,"Unnamed Road, Sawar, Kec. Sarmi, Kabupaten Sarmi, Papua 99373","Sawar, Kec. Sarmi, Kabupaten Sarmi",PAPUA,99373.0,Indonesia, 081234899589,-1.8894659,138.7600852,https://maps.google.com/?cid=0x0:0x4e88a9dfadd071fc
toko bangunan,Toko Perlengkapan Rumah,Toko Cahaya Baru,"4Q63+MMQ, Unnamed Road, Sawar, Kec. Sarmi, Kabupaten Sarmi, Papua 99373","Unnamed Road, Sawar, Kec. Sarmi, Kabupaten Sarmi",PAPUA,99373.0,Indonesia, 085394888289,-1.8882766,138.7542343,https://maps.google.com/?cid=0x0:0xac40e5e1b664410a
toko bangunan,toko bangunan,Papua 99373,"Kabupaten Sarmi, Papua","Kabupaten Sarmi, Papua",PAPUA,,Indonesia,,-2.0309427,138.7995122,https://maps.google.com/?cid=0x0:0x94ecbde644ea8853
toko bangunan,Toko Bahan Bangunan,Toko Jaya Abadi,"Jl. Neidam - Petam, Kota Baru, Kec. Sarmi, Kabupaten Sarmi, Papua 99373","Kota Baru, Kec. Sarmi, Kabupaten Sarmi",PAPUA,99373.0,Indonesia, 082122228701,-1.891142,138.7522426,https://maps.google.com/?cid=0x0:0x5df6637e3be4bf96
toko bangunan,Kantor Arsitek Interior,MR. DIY SARMI,"Jl. Inres Kalibrage, RT.001/RW.010, Kota, Sarmi, Sarmi Regency, Papua 99373","RT.001/RW.010, Kota, Sarmi, Sarmi Regency",PAPUA,99373.0,Indonesia, 082227004622,-1.85508,138.749182,https://maps.google.com/?cid=0x0:0x8d59f1c899dd2bc5
toko bangunan,Toko Bahan Bangunan,Toko bangunan sumber rejeki,"Unnamed Road, Sawar, Kec. Sarmi, Kabupaten Sarmi, Papua 99373","Sawar, Kec. Sarmi, Kabupaten Sarmi",PAPUA,99373.0,Indonesia, 081234899589,-1.8894659,138.7600852,https://maps.google.com/?cid=0x0:0x4e88a9dfadd071fc
toko bangunan,toko bangunan,Distrik Sarmi Timur,"Kabupaten Sarmi, Papua","Kabupaten Sarmi, Papua",PAPUA,,Indonesia,,-2.0023384,138.7951543,https://maps.google.com/?cid=0x0:0xa6223e91f97c29b5
toko bangunan,Toko Perlengkapan Rumah,Toko Cahaya Baru,"4Q63+MMQ, Unnamed Road, Sawar, Kec. Sarmi, Kabupaten Sarmi, Papua 99373","Unnamed Road, Sawar, Kec. Sarmi, Kabupaten Sarmi",PAPUA,99373.0,Indonesia, 085394888289,-1.8882766,138.7542343,https://maps.google.com/?cid=0x0:0xac40e5e1b664410a
toko bangunan,Toko Bahan Bangunan,Toko Jaya Abadi,"Jl. Neidam - Petam, Kota Baru, Kec. Sarmi, Kabupaten Sarmi, Papua 99373","Kota Baru, Kec. Sarmi, Kabupaten Sarmi",PAPUA,99373.0,Indonesia, 082122228701,-1.891142,138.7522426,https://maps.google.com/?cid=0x0:0x5df6637e3be4bf96
toko bangunan,Kantor Arsitek Interior,MR. DIY SARMI,"Jl. Inres Kalibrage, RT.001/RW.010, Kota, Sarmi, Sarmi Regency, Papua 99373","RT.001/RW.010, Kota, Sarmi, Sarmi Regency",PAPUA,99373.0,Indonesia, 082227004622,-1.85508,138.749182,https://maps.google.com/?cid=0x0:0x8d59f1c899dd2bc5
toko bangunan,Toko Bahan Bangunan,Toko Bangunan Mutiara timur,"CJ3R+33F, Unnamed Road, Kp. Waena, Kec. Heram, Kota Jayapura, Papua 99225","Unnamed Road, Kp. Waena, Kec. Heram, Kota Jayapura",PAPUA,99225.0,Indonesia,,-2.5973134,140.6401625,https://maps.google.com/?cid=0x0:0x392e56b1342d758c
toko bangunan,toko bangunan,Papua 99371,"Kabupaten Sarmi, Papua","Kabupaten Sarmi, Papua",PAPUA,,Indonesia,,-2.7126367,139.2030851,https://maps.google.com/?cid=0x0:0x8507074767d67bf9
toko bangunan,Toko Bahan Bangunan,Toko Central Bangunan / AMK,"Jl. Perikanan No.08, Hamadi, Distrik Jayapura Selatan, Kota Jayapura, Papua 99222","Hamadi, Distrik Jayapura Selatan, Kota Jayapura",PAPUA,99222.0,Indonesia, 082261057928,-2.5584767,140.7173289,https://maps.google.com/?cid=0x0:0xcfdf592c00fbd20d
toko bangunan,Toko Bahan Bangunan,Supermarket Multi Bangunan,"Jl Baru No.98, Wai Mhorock, Abepura, Jayapura City, Papua 99225","Wai Mhorock, Abepura, Jayapura City",PAPUA,99225.0,Indonesia, 0967588677,-2.6077336,140.6742812,https://maps.google.com/?cid=0x0:0x3b19f301c68f1d6f
toko bangunan,Toko Bahan Bangunan,TOKO BAHAN BANGUNAN âTRINITY HOMEâ,"Jalan Baru Pasar Lama, Wahno, Kec. Abepura, Kota Jayapura, Papua 99224","Wahno, Kec. Abepura, Kota Jayapura",PAPUA,99224.0,Indonesia, 081232337934,-2.5958248,140.6809957,https://maps.google.com/?cid=0x0:0x41c321d86b054228
toko bangunan,Toko Bahan Bangunan,TOKO BANGUNAN RYSTER MULIA,"9MXG+G7R, Wai Mhorock, Kec. Abepura, Kota Jayapura, Papua 99225","Wai Mhorock, Kec. Abepura, Kota Jayapura",PAPUA,99225.0,Indonesia, 085100115858,-2.6011446,140.6756371,https://maps.google.com/?cid=0x0:0x4886e2a9293c5411
toko bangunan,Toko bahan makanan,Toko bangunan ABADI JAYA,"Jl. Raya sarmi No.blok A, Bunyom, Distrik Nimbokrang, Kabupaten Jayapura, Papua 99361","Bunyom, Distrik Nimbokrang, Kabupaten Jayapura",PAPUA,99361.0,Indonesia, 085382577209,-2.557175,140.1088301,https://maps.google.com/?cid=0x0:0x1ca51d4d8a0ae01a
toko bangunan,toko bangunan,Toko Mitra Bangunan,"8F8G+WJ5, Karubaga, Kec. Karubaga, Kabupaten Tolikara, Papua 99567","Karubaga, Kec. Karubaga, Kabupaten Tolikara",PAPUA,99567.0,Indonesia, 081317225643,-3.682733,138.4766089,https://maps.google.com/?cid=0x0:0x94f019f9132886e9
toko bangunan,toko bangunan,Somilbatu tela vandy.ok,"Jl.1 timur, Bebon Jaya, Kec. Bonggo, Kabupaten Sarmi, Papua 99381","Bebon Jaya, Kec. Bonggo, Kabupaten Sarmi",PAPUA,99381.0,Indonesia, 081247263895,-2.2736502,139.5464527,https://maps.google.com/?cid=0x0:0x603d08da04103670
toko bangunan,Pasar bahan bangunan,Toko Material Cahaya Timur,"Jl. Cahaya Titis No.53, Beji, Kecamatan Beji, Kota Depok, Jawa Barat 16426","Beji, Kecamatan Beji, Kota Depok",PAPUA,16426.0,Indonesia, 081398939889,-6.3830733,106.8078713,https://maps.google.com/?cid=0x0:0x6c059f8f34ac6229
toko bangunan,Toko Bahan Bangunan,TB CAHAYA BANGUNAN,"Jl. Tanah Baru No.67, Tanah Baru, Kecamatan Beji, Kota Depok, Jawa Barat 16426","Tanah Baru, Kecamatan Beji, Kota Depok",PAPUA,16426.0,Indonesia, 08111218988,-6.3722112,106.8085928,https://maps.google.com/?cid=0x0:0xb79573a777c1ba2a
toko bangunan,toko bangunan,Distrik Bonggo Timur,"Kabupaten Sarmi, Papua","Kabupaten Sarmi, Papua",PAPUA,,Indonesia,,-2.3646918,139.6790312,https://maps.google.com/?cid=0x0:0xebe7f4b7afe3bd51
toko bangunan,Toko Bahan Bangunan,Toko Bangunan Mutiara timur,"CJ3R+33F, Unnamed Road, Kp. Waena, Kec. Heram, Kota Jayapura, Papua 99225","Unnamed Road, Kp. Waena, Kec. Heram, Kota Jayapura",PAPUA,99225.0,Indonesia,,-2.5973134,140.6401625,https://maps.google.com/?cid=0x0:0x392e56b1342d758c
toko bangunan,Toko Bahan Bangunan,Supermarket Multi Bangunan,"Jl Baru No.98, Wai Mhorock, Abepura, Jayapura City, Papua 99225","Wai Mhorock, Abepura, Jayapura City",PAPUA,99225.0,Indonesia, 0967588677,-2.6077336,140.6742812,https://maps.google.com/?cid=0x0:0x3b19f301c68f1d6f
toko bangunan,Toko Bahan Bangunan,Toko bangunan sumber rejeki,"Unnamed Road, Sawar, Kec. Sarmi, Kabupaten Sarmi, Papua 99373","Sawar, Kec. Sarmi, Kabupaten Sarmi",PAPUA,99373.0,Indonesia, 081234899589,-1.8894659,138.7600852,https://maps.google.com/?cid=0x0:0x4e88a9dfadd071fc
toko bangunan,toko bangunan,Somilbatu tela vandy.ok,"Jl.1 timur, Bebon Jaya, Kec. Bonggo, Kabupaten Sarmi, Papua 99381","Bebon Jaya, Kec. Bonggo, Kabupaten Sarmi",PAPUA,99381.0,Indonesia, 081247263895,-2.2736502,139.5464527,https://maps.google.com/?cid=0x0:0x603d08da04103670
building materials,building materials,Sarmi,"Sarmi, Kec. Sarmi, Kabupaten Sarmi, Papua","Kabupaten Sarmi, Papua",PAPUA,,Indonesia,,-1.8526967,138.7507552,https://maps.google.com/?cid=0x0:0x1b3c48b9f289ecb6
building materials,Toko bahan makanan,Toko Inti Pembangunan,"Sawar, Kec. Sarmi, Kabupaten Sarmi, Papua 99373","Kec. Sarmi, Kabupaten Sarmi",PAPUA,99373.0,Indonesia, 081286929260,-1.8888753,138.7523781,https://maps.google.com/?cid=0x0:0xc62de493673b96c9
building materials,building materials,Toko Mandala Bangunan,"4QW2+W7M, Jalan Dipenogoro, Sarmi, Kec. Sarmi, Kabupaten Sarmi, Papua 99373","Jalan Dipenogoro, Sarmi, Kec. Sarmi, Kabupaten Sarmi",PAPUA,99373.0,Indonesia,,-1.8526669,138.7506824,https://maps.google.com/?cid=0x0:0xaf99369eb7bf4cbe
building materials,Toko Perlengkapan Rumah,Toko Cahaya Baru,"4Q63+MMQ, Unnamed Road, Sawar, Kec. Sarmi, Kabupaten Sarmi, Papua 99373","Unnamed Road, Sawar, Kec. Sarmi, Kabupaten Sarmi",PAPUA,99373.0,Indonesia, 085394888289,-1.8882766,138.7542343,https://maps.google.com/?cid=0x0:0xac40e5e1b664410a
building materials,Kantor Pemerintah,BANGUNAN COLDSTORAGE SARMI,"4PXX+9P4, Unnamed Rd, Sarmi, Kec. Sarmi, Kabupaten Sarmi, Papua 99373","Unnamed Rd, Sarmi, Kec. Sarmi, Kabupaten Sarmi",PAPUA,99373.0,Indonesia,,-1.8519543,138.7492903,https://maps.google.com/?cid=0x0:0x8e7c709a20ab382a
building materials,building materials,Papua 99372,"Kabupaten Sarmi, Papua","Kabupaten Sarmi, Papua",PAPUA,,Indonesia,,-2.3921952,138.7995122,https://maps.google.com/?cid=0x0:0x8adfd51c064e390b
building materials,Toko Perlengkapan Rumah,Toko Cahaya Baru,"4Q63+MMQ, Unnamed Road, Sawar, Kec. Sarmi, Kabupaten Sarmi, Papua 99373","Unnamed Road, Sawar, Kec. Sarmi, Kabupaten Sarmi",PAPUA,99373.0,Indonesia, 085394888289,-1.8882766,138.7542343,https://maps.google.com/?cid=0x0:0xac40e5e1b664410a
building materials,Toko bahan makanan,Toko Inti Pembangunan,"Sawar, Kec. Sarmi, Kabupaten Sarmi, Papua 99373","Kec. Sarmi, Kabupaten Sarmi",PAPUA,99373.0,Indonesia, 081286929260,-1.8888753,138.7523781,https://maps.google.com/?cid=0x0:0xc62de493673b96c9
building materials,Kantor Arsitek Interior,MR. DIY SARMI,"Jl. Inres Kalibrage, RT.001/RW.010, Kota, Sarmi, Sarmi Regency, Papua 99373","RT.001/RW.010, Kota, Sarmi, Sarmi Regency",PAPUA,99373.0,Indonesia, 082227004622,-1.85508,138.749182,https://maps.google.com/?cid=0x0:0x8d59f1c899dd2bc5
building materials,building materials,Toko Mandala Bangunan,"4QW2+W7M, Jalan Dipenogoro, Sarmi, Kec. Sarmi, Kabupaten Sarmi, Papua 99373","Jalan Dipenogoro, Sarmi, Kec. Sarmi, Kabupaten Sarmi",PAPUA,99373.0,Indonesia,,-1.8526669,138.7506824,https://maps.google.com/?cid=0x0:0xaf99369eb7bf4cbe
building materials,Toko Bahan Bangunan,Toko bangunan sumber rejeki,"Unnamed Road, Sawar, Kec. Sarmi, Kabupaten Sarmi, Papua 99373","Sawar, Kec. Sarmi, Kabupaten Sarmi",PAPUA,99373.0,Indonesia, 081234899589,-1.8894659,138.7600852,https://maps.google.com/?cid=0x0:0x4e88a9dfadd071fc
building materials,Pemasok Bahan Bangunan,toko bangun nusantara,"CVJP+PHG, Nawaripi, Kec. Mimika Baru, Kabupaten Mimika, Papua 99971","Nawaripi, Kec. Mimika Baru, Kabupaten Mimika",PAPUA,99971.0,Indonesia, 081230986888,-4.5681877,136.886467,https://maps.google.com/?cid=0x0:0xf98d3361fd0298e0
building materials,Toko Bahan Bangunan,Toko Bangunan Tetus Papua,"CVFF+528, Jl. Budi Utomo, Nawaripi, Kec. Mimika Baru, Kabupaten Mimika, Papua","Kabupaten Mimika, Papua",PAPUA,,Indonesia, 081344834492,-4.577093,136.8725648,https://maps.google.com/?cid=0x0:0x70179859b1a22306
building materials,Toko Bahan Bangunan,"Papua Bangunan, CV PAPUA ABADI","Jl. Basuki Rahmat No.780, Klawuyuk, Distrik Sorong Timur, Kota Sorong, Papua Bar. 98416","Klawuyuk, Distrik Sorong Timur, Kota Sorong",PAPUA,98416.0,Indonesia, 081332017550,-0.8954087,131.3186922,https://maps.google.com/?cid=0x0:0x851804bc3aa7f033
building materials,building materials,Distrik Pantai Barat,"Kabupaten Sarmi, Papua","Kabupaten Sarmi, Papua",PAPUA,,Indonesia,,-1.7332657,138.4123611,https://maps.google.com/?cid=0x0:0xf929d33f427f240b
building materials,building materials,Somilbatu tela vandy.ok,"Jl.1 timur, Bebon Jaya, Kec. Bonggo, Kabupaten Sarmi, Papua 99381","Bebon Jaya, Kec. Bonggo, Kabupaten Sarmi",PAPUA,99381.0,Indonesia, 081247263895,-2.2736502,139.5464527,https://maps.google.com/?cid=0x0:0x603d08da04103670
building materials,building materials,Kec. Pantai Tim.,"Kabupaten Sarmi, Papua","Kabupaten Sarmi, Papua",PAPUA,,Indonesia,,-2.7126367,139.2030851,https://maps.google.com/?cid=0x0:0x662778776ad81bf2
building materials,building materials,Papua 99355,Papua,Papua,PAPUA,,Indonesia,,-2.3923553,139.6503106,https://maps.google.com/?cid=0x0:0x3416a324572abbb9
building materials,building materials,Somilbatu tela vandy.ok,"Jl.1 timur, Bebon Jaya, Kec. Bonggo, Kabupaten Sarmi, Papua 99381","Bebon Jaya, Kec. Bonggo, Kabupaten Sarmi",PAPUA,99381.0,Indonesia, 081247263895,-2.2736502,139.5464527,https://maps.google.com/?cid=0x0:0x603d08da04103670
building materials,Toko bahan makanan,DEPO MESIN N28  DEPO BANGUNAN,"Bunyom, Distrik Nimbokrang, Kabupaten Jayapura, Papua 99361","Distrik Nimbokrang, Kabupaten Jayapura",PAPUA,99361.0,Indonesia, 085247266989,-2.5571645,140.1086582,https://maps.google.com/?cid=0x0:0xf97268af26927065
building materials,Toko bahan makanan,Toko Inti Pembangunan,"Sawar, Kec. Sarmi, Kabupaten Sarmi, Papua 99373","Kec. Sarmi, Kabupaten Sarmi",PAPUA,99373.0,Indonesia, 081286929260,-1.8888753,138.7523781,https://maps.google.com/?cid=0x0:0xc62de493673b96c9
building materials,Toko bahan makanan,INTI MART SARMI,"4Q65+P6H, Sawar, Kec. Sarmi, Kabupaten Sarmi, Papua 99373","Sawar, Kec. Sarmi, Kabupaten Sarmi",PAPUA,99373.0,Indonesia, 085244979850,-1.8881828,138.7580996,https://maps.google.com/?cid=0x0:0x4a9e5c0503dbfbbd
building materials,building materials,Apawer Hulu,"Kabupaten Sarmi, Papua","Kabupaten Sarmi, Papua",PAPUA,,Indonesia,,-2.0469798,138.3589086,https://maps.google.com/?cid=0x0:0x8817582a1beb01b6
building materials,building materials,Papua 99373,"Kabupaten Sarmi, Papua","Kabupaten Sarmi, Papua",PAPUA,,Indonesia,,-2.0309427,138.7995122,https://maps.google.com/?cid=0x0:0x94ecbde644ea8853
building materials,Toko Perlengkapan Rumah,Toko Cahaya Baru,"4Q63+MMQ, Unnamed Road, Sawar, Kec. Sarmi, Kabupaten Sarmi, Papua 99373","Unnamed Road, Sawar, Kec. Sarmi, Kabupaten Sarmi",PAPUA,99373.0,Indonesia, 085394888289,-1.8882766,138.7542343,https://maps.google.com/?cid=0x0:0xac40e5e1b664410a
building materials,building materials,Toko Mandala Bangunan,"4QW2+W7M, Jalan Dipenogoro, Sarmi, Kec. Sarmi, Kabupaten Sarmi, Papua 99373","Jalan Dipenogoro, Sarmi, Kec. Sarmi, Kabupaten Sarmi",PAPUA,99373.0,Indonesia,,-1.8526669,138.7506824,https://maps.google.com/?cid=0x0:0xaf99369eb7bf4cbe
building materials,building materials,Distrik Sarmi Selatan,"Kabupaten Sarmi, Papua","Kabupaten Sarmi, Papua",PAPUA,,Indonesia,,-1.9461182,138.7355963,https://maps.google.com/?cid=0x0:0x915e902015c4d877
building materials,Toko bahan makanan,Toko Inti Pembangunan,"Sawar, Kec. Sarmi, Kabupaten Sarmi, Papua 99373","Kec. Sarmi, Kabupaten Sarmi",PAPUA,99373.0,Indonesia, 081286929260,-1.8888753,138.7523781,https://maps.google.com/?cid=0x0:0xc62de493673b96c9
building materials,Toko Bahan Bangunan,Toko bangunan sumber rejeki,"Unnamed Road, Sawar, Kec. Sarmi, Kabupaten Sarmi, Papua 99373","Sawar, Kec. Sarmi, Kabupaten Sarmi",PAPUA,99373.0,Indonesia, 081234899589,-1.8894659,138.7600852,https://maps.google.com/?cid=0x0:0x4e88a9dfadd071fc
building materials,building materials,Distrik Sarmi Timur,"Kabupaten Sarmi, Papua","Kabupaten Sarmi, Papua",PAPUA,,Indonesia,,-2.0023384,138.7951543,https://maps.google.com/?cid=0x0:0xa6223e91f97c29b5
building materials,Toko bahan makanan,Toko Inti Pembangunan,"Sawar, Kec. Sarmi, Kabupaten Sarmi, Papua 99373","Kec. Sarmi, Kabupaten Sarmi",PAPUA,99373.0,Indonesia, 081286929260,-1.8888753,138.7523781,https://maps.google.com/?cid=0x0:0xc62de493673b96c9
building materials,Toko Perlengkapan Rumah,Toko Cahaya Baru,"4Q63+MMQ, Unnamed Road, Sawar, Kec. Sarmi, Kabupaten Sarmi, Papua 99373","Unnamed Road, Sawar, Kec. Sarmi, Kabupaten Sarmi",PAPUA,99373.0,Indonesia, 085394888289,-1.8882766,138.7542343,https://maps.google.com/?cid=0x0:0xac40e5e1b664410a
building materials,building materials,Toko Mandala Bangunan,"4QW2+W7M, Jalan Dipenogoro, Sarmi, Kec. Sarmi, Kabupaten Sarmi, Papua 99373","Jalan Dipenogoro, Sarmi, Kec. Sarmi, Kabupaten Sarmi",PAPUA,99373.0,Indonesia,,-1.8526669,138.7506824,https://maps.google.com/?cid=0x0:0xaf99369eb7bf4cbe
building materials,building materials,Toko Bangunan Intijaya,"4PVX+93R, Jl. Inres Kalibagre, Sarmi, Kec. Sarmi, Kabupaten Sarmi, Papua 99373","Jl. Inres Kalibagre, Sarmi, Kec. Sarmi, Kabupaten Sarmi",PAPUA,99373.0,Indonesia,,-1.8565194,138.7476267,https://maps.google.com/?cid=0x0:0xb92d73a8776d40be
building materials,Toko Bahan Bangunan,Toko bangunan sumber rejeki,"Unnamed Road, Sawar, Kec. Sarmi, Kabupaten Sarmi, Papua 99373","Sawar, Kec. Sarmi, Kabupaten Sarmi",PAPUA,99373.0,Indonesia, 081234899589,-1.8894659,138.7600852,https://maps.google.com/?cid=0x0:0x4e88a9dfadd071fc
building materials,building materials,Somilbatu tela vandy.ok,"Jl.1 timur, Bebon Jaya, Kec. Bonggo, Kabupaten Sarmi, Papua 99381","Bebon Jaya, Kec. Bonggo, Kabupaten Sarmi",PAPUA,99381.0,Indonesia, 081247263895,-2.2736502,139.5464527,https://maps.google.com/?cid=0x0:0x603d08da04103670
building materials,Toko Bahan Bangunan,BJ Timber Sdn Bhd,"Lot 238, Jalan PBR 27, Kawasan Perindustrian Bukit Rambai, 75250 Melaka, Malaysia",Melaka,PAPUA,75250.0,Indonesia, +60128773100,2.27636,102.1828977,https://maps.google.com/?cid=0x0:0xd3180ead7008523
building materials,Toko Kayu,Kilang Papan RT (Melaka) Sdn. Bhd.,"Lot 80881, Kawasan Perindustrian Bukit Rambai, Melaka, 75250 Malacca, Malaysia",Malacca,PAPUA,75250.0,Indonesia, +6063514210,2.2679126,102.1828079,https://maps.google.com/?cid=0x0:0x93a8251cf016fe78
building materials,building materials,Somilbatu tela vandy.ok,"Jl.1 timur, Bebon Jaya, Kec. Bonggo, Kabupaten Sarmi, Papua 99381","Bebon Jaya, Kec. Bonggo, Kabupaten Sarmi",PAPUA,99381.0,Indonesia, 081247263895,-2.2736502,139.5464527,https://maps.google.com/?cid=0x0:0x603d08da04103670
building materials,building materials,Distrik Bonggo Timur,"Kabupaten Sarmi, Papua","Kabupaten Sarmi, Papua",PAPUA,,Indonesia,,-2.3646918,139.6790312,https://maps.google.com/?cid=0x0:0xebe7f4b7afe3bd51
hardware store,hardware store,Sarmi,"Sarmi, Kec. Sarmi, Kabupaten Sarmi, Papua","Kabupaten Sarmi, Papua",PAPUA,,Indonesia,,-1.8526967,138.7507552,https://maps.google.com/?cid=0x0:0x1b3c48b9f289ecb6
hardware store,Toko Perlengkapan Rumah,Toko Cahaya Baru,"4Q63+MMQ, Unnamed Road, Sawar, Kec. Sarmi, Kabupaten Sarmi, Papua 99373","Unnamed Road, Sawar, Kec. Sarmi, Kabupaten Sarmi",PAPUA,99373.0,Indonesia, 085394888289,-1.8882766,138.7542343,https://maps.google.com/?cid=0x0:0xac40e5e1b664410a
hardware store,Kantor Arsitek Interior,MR. DIY SARMI,"Jl. Inres Kalibrage, RT.001/RW.010, Kota, Sarmi, Sarmi Regency, Papua 99373","RT.001/RW.010, Kota, Sarmi, Sarmi Regency",PAPUA,99373.0,Indonesia, 082227004622,-1.85508,138.749182,https://maps.google.com/?cid=0x0:0x8d59f1c899dd2bc5
hardware store,Toko Bahan Bangunan,Toko bangunan sumber rejeki,"Unnamed Road, Sawar, Kec. Sarmi, Kabupaten Sarmi, Papua 99373","Sawar, Kec. Sarmi, Kabupaten Sarmi",PAPUA,99373.0,Indonesia, 081234899589,-1.8894659,138.7600852,https://maps.google.com/?cid=0x0:0x4e88a9dfadd071fc
hardware store,Toko Perlengkapan Rumah,Toko Cahaya Baru,"4Q63+MMQ, Unnamed Road, Sawar, Kec. Sarmi, Kabupaten Sarmi, Papua 99373","Unnamed Road, Sawar, Kec. Sarmi, Kabupaten Sarmi",PAPUA,99373.0,Indonesia, 085394888289,-1.8882766,138.7542343,https://maps.google.com/?cid=0x0:0xac40e5e1b664410a
hardware store,hardware store,Papua 99372,"Kabupaten Sarmi, Papua","Kabupaten Sarmi, Papua",PAPUA,,Indonesia,,-2.3921952,138.7995122,https://maps.google.com/?cid=0x0:0x8adfd51c064e390b
hardware store,Kantor Arsitek Interior,MR. DIY SARMI,"Jl. Inres Kalibrage, RT.001/RW.010, Kota, Sarmi, Sarmi Regency, Papua 99373","RT.001/RW.010, Kota, Sarmi, Sarmi Regency",PAPUA,99373.0,Indonesia, 082227004622,-1.85508,138.749182,https://maps.google.com/?cid=0x0:0x8d59f1c899dd2bc5
hardware store,hardware store,Tor Atas,"Kabupaten Sarmi, Papua","Kabupaten Sarmi, Papua",PAPUA,,Indonesia,,-2.2713596,138.7995122,https://maps.google.com/?cid=0x0:0xb84b4aacbe6bc491
hardware store,hardware store,Papua 99374,"Kabupaten Sarmi, Papua","Kabupaten Sarmi, Papua",PAPUA,,Indonesia,,-2.0159736,138.3190276,https://maps.google.com/?cid=0x0:0xfafa718b5be371f4
hardware store,hardware store,Distrik Pantai Barat,"Kabupaten Sarmi, Papua","Kabupaten Sarmi, Papua",PAPUA,,Indonesia,,-1.7332657,138.4123611,https://maps.google.com/?cid=0x0:0xf929d33f427f240b
hardware store,Toko Bahan Bangunan,Toko Jaya Abadi,"Jl. Neidam - Petam, Kota Baru, Kec. Sarmi, Kabupaten Sarmi, Papua 99373","Kota Baru, Kec. Sarmi, Kabupaten Sarmi",PAPUA,99373.0,Indonesia, 082122228701,-1.891142,138.7522426,https://maps.google.com/?cid=0x0:0x5df6637e3be4bf96
hardware store,Toko Perlengkapan Rumah,Toko Cahaya Baru,"4Q63+MMQ, Unnamed Road, Sawar, Kec. Sarmi, Kabupaten Sarmi, Papua 99373","Unnamed Road, Sawar, Kec. Sarmi, Kabupaten Sarmi",PAPUA,99373.0,Indonesia, 085394888289,-1.8882766,138.7542343,https://maps.google.com/?cid=0x0:0xac40e5e1b664410a
hardware store,Toko Bahan Bangunan,Pantai Timor Hardware / Kedai Hardware,"PT B52, Pkink, D18 Jalan Pasir Puteh, 18500 Machang, Kelantan, Malaysia",Machang,PAPUA,18500.0,Indonesia, +6099752276,5.7638324,102.2207429,https://maps.google.com/?cid=0x0:0xc52f4faee52c4558
hardware store,hardware store,Papua 99371,"Kabupaten Sarmi, Papua","Kabupaten Sarmi, Papua",PAPUA,,Indonesia,,-2.7126367,139.2030851,https://maps.google.com/?cid=0x0:0x8507074767d67bf9
hardware store,Toko Bahan Bangunan,Tegoh Aman Trading,"A161, Jalan Kuala Krai, Bandar Lama, Kelantan, 18500 Machang, Malaysia",Machang,PAPUA,18500.0,Indonesia, +6099751882,5.7622689,102.2156496,https://maps.google.com/?cid=0x0:0xb7f406e9c7f47bd7
hardware store,Pusat Perbelanjaan,TOKO INTIJAYA,"C4V5+4WH, Unnamed Road, Bunyom, Distrik Nimbokrang, Kabupaten Jayapura, Papua 99361","Unnamed Road, Bunyom, Distrik Nimbokrang, Kabupaten Jayapura",PAPUA,99361.0,Indonesia,,-2.5571904,140.10986,https://maps.google.com/?cid=0x0:0xa876a6407efcabf0
hardware store,Toko Bahan Bangunan,Toko Santoso,"F43Q+9HG, Unnamed Road, Nembukrang, Distrik Nimbokrang, Kabupaten Jayapura, Papua 99361","Unnamed Road, Nembukrang, Distrik Nimbokrang, Kabupaten Jayapura",PAPUA,99361.0,Indonesia, 082398311412,-2.54657,140.138942,https://maps.google.com/?cid=0x0:0xc6d2f7128dba649f
hardware store,hardware store,Kec. Bonggo,"Kabupaten Sarmi, Papua","Kabupaten Sarmi, Papua",PAPUA,,Indonesia,,-2.2794737,139.5455801,https://maps.google.com/?cid=0x0:0x74c7b43d0aa511ce
hardware store,hardware store,Papua 99374,"Kabupaten Sarmi, Papua","Kabupaten Sarmi, Papua",PAPUA,,Indonesia,,-2.0159736,138.3190276,https://maps.google.com/?cid=0x0:0xfafa718b5be371f4
hardware store,hardware store,Apawer Hulu,"Kabupaten Sarmi, Papua","Kabupaten Sarmi, Papua",PAPUA,,Indonesia,,-2.0469798,138.3589086,https://maps.google.com/?cid=0x0:0x8817582a1beb01b6
hardware store,Kantor Arsitek Interior,MR. DIY SARMI,"Jl. Inres Kalibrage, RT.001/RW.010, Kota, Sarmi, Sarmi Regency, Papua 99373","RT.001/RW.010, Kota, Sarmi, Sarmi Regency",PAPUA,99373.0,Indonesia, 082227004622,-1.85508,138.749182,https://maps.google.com/?cid=0x0:0x8d59f1c899dd2bc5
hardware store,hardware store,Papua 99373,"Kabupaten Sarmi, Papua","Kabupaten Sarmi, Papua",PAPUA,,Indonesia,,-2.0309427,138.7995122,https://maps.google.com/?cid=0x0:0x94ecbde644ea8853
hardware store,Toko Perlengkapan Rumah,Toko Cahaya Baru,"4Q63+MMQ, Unnamed Road, Sawar, Kec. Sarmi, Kabupaten Sarmi, Papua 99373","Unnamed Road, Sawar, Kec. Sarmi, Kabupaten Sarmi",PAPUA,99373.0,Indonesia, 085394888289,-1.8882766,138.7542343,https://maps.google.com/?cid=0x0:0xac40e5e1b664410a
hardware store,Toko Bahan Bangunan,Toko bangunan sumber rejeki,"Unnamed Road, Sawar, Kec. Sarmi, Kabupaten Sarmi, Papua 99373","Sawar, Kec. Sarmi, Kabupaten Sarmi",PAPUA,99373.0,Indonesia, 081234899589,-1.8894659,138.7600852,https://maps.google.com/?cid=0x0:0x4e88a9dfadd071fc
hardware store,hardware store,Distrik Sarmi Timur,"Kabupaten Sarmi, Papua","Kabupaten Sarmi, Papua",PAPUA,,Indonesia,,-2.0023384,138.7951543,https://maps.google.com/?cid=0x0:0xa6223e91f97c29b5
hardware store,Kantor Arsitek Interior,MR. DIY SARMI,"Jl. Inres Kalibrage, RT.001/RW.010, Kota, Sarmi, Sarmi Regency, Papua 99373","RT.001/RW.010, Kota, Sarmi, Sarmi Regency",PAPUA,99373.0,Indonesia, 082227004622,-1.85508,138.749182,https://maps.google.com/?cid=0x0:0x8d59f1c899dd2bc5
hardware store,Toko Perlengkapan Rumah,Toko Cahaya Baru,"4Q63+MMQ, Unnamed Road, Sawar, Kec. Sarmi, Kabupaten Sarmi, Papua 99373","Unnamed Road, Sawar, Kec. Sarmi, Kabupaten Sarmi",PAPUA,99373.0,Indonesia, 085394888289,-1.8882766,138.7542343,https://maps.google.com/?cid=0x0:0xac40e5e1b664410a
hardware store,Toko Bahan Bangunan,Toko bangunan sumber rejeki,"Unnamed Road, Sawar, Kec. Sarmi, Kabupaten Sarmi, Papua 99373","Sawar, Kec. Sarmi, Kabupaten Sarmi",PAPUA,99373.0,Indonesia, 081234899589,-1.8894659,138.7600852,https://maps.google.com/?cid=0x0:0x4e88a9dfadd071fc
hardware store,Toko Perlengkapan Rumah,Toko Cahaya Baru,"4Q63+MMQ, Unnamed Road, Sawar, Kec. Sarmi, Kabupaten Sarmi, Papua 99373","Unnamed Road, Sawar, Kec. Sarmi, Kabupaten Sarmi",PAPUA,99373.0,Indonesia, 085394888289,-1.8882766,138.7542343,https://maps.google.com/?cid=0x0:0xac40e5e1b664410a
hardware store,Toko Bahan Bangunan,Toko Jaya Abadi,"Jl. Neidam - Petam, Kota Baru, Kec. Sarmi, Kabupaten Sarmi, Papua 99373","Kota Baru, Kec. Sarmi, Kabupaten Sarmi",PAPUA,99373.0,Indonesia, 082122228701,-1.891142,138.7522426,https://maps.google.com/?cid=0x0:0x5df6637e3be4bf96
hardware store,hardware store,Kec. Pantai Tim.,"Kabupaten Sarmi, Papua","Kabupaten Sarmi, Papua",PAPUA,,Indonesia,,-2.7126367,139.2030851,https://maps.google.com/?cid=0x0:0x662778776ad81bf2
hardware store,Toko Bahan Bangunan,Tegoh Aman Trading,"A161, Jalan Kuala Krai, Bandar Lama, Kelantan, 18500 Machang, Malaysia",Machang,PAPUA,18500.0,Indonesia, +6099751882,5.7622689,102.2156496,https://maps.google.com/?cid=0x0:0xb7f406e9c7f47bd7
hardware store,Toko Bahan Bangunan,Pantai Timor Hardware / Kedai Hardware,"PT B52, Pkink, D18 Jalan Pasir Puteh, 18500 Machang, Kelantan, Malaysia",Machang,PAPUA,18500.0,Indonesia, +6099752276,5.7638324,102.2207429,https://maps.google.com/?cid=0x0:0xc52f4faee52c4558
hardware store,hardware store,Papua 99355,Papua,Papua,PAPUA,,Indonesia,,-2.3923553,139.6503106,https://maps.google.com/?cid=0x0:0x3416a324572abbb9
hardware store,Toko Bahan Bangunan,Hardware Haus Depot,"G5WP+PRX, Port Moresby National Capital District, Papua Nugini","Port Moresby, Papua Nugini",PAPUA,,Indonesia, +67579254555,-9.453144,147.1871122,https://maps.google.com/?cid=0x0:0x90af1a4bb255158c
hardware store,Toko Bahan Bangunan,Sunshine Hardware,"Kawai Dr, Port Moresby National Capital District, Papua Nugini","Port Moresby, Papua Nugini",PAPUA,,Indonesia, +6753233221,-9.4479798,147.1871482,https://maps.google.com/?cid=0x0:0x3d98e0d0ab5a64f6
supermarket bangunan,supermarket bangunan,Sarmi,"Sarmi, Kec. Sarmi, Kabupaten Sarmi, Papua","Kabupaten Sarmi, Papua",PAPUA,,Indonesia,,-1.8526967,138.7507552,https://maps.google.com/?cid=0x0:0x1b3c48b9f289ecb6
supermarket bangunan,Toko Bahan Bangunan,Toko bangunan sumber rejeki,"Unnamed Road, Sawar, Kec. Sarmi, Kabupaten Sarmi, Papua 99373","Sawar, Kec. Sarmi, Kabupaten Sarmi",PAPUA,99373.0,Indonesia, 081234899589,-1.8894659,138.7600852,https://maps.google.com/?cid=0x0:0x4e88a9dfadd071fc
supermarket bangunan,Gedung Apartemen,SWALAYAN SARMI,"4PVX+C38, Jl. Inres Kalibagre, Sarmi, Kec. Sarmi, Kabupaten Sarmi, Papua 99373","Jl. Inres Kalibagre, Sarmi, Kec. Sarmi, Kabupaten Sarmi",PAPUA,99373.0,Indonesia,,-1.8564537,138.7477149,https://maps.google.com/?cid=0x0:0x962caa721c6345ee
supermarket bangunan,Toko Bahan Bangunan,Supermarket Multi Bangunan,"Jl Baru No.98, Wai Mhorock, Abepura, Jayapura City, Papua 99225","Wai Mhorock, Abepura, Jayapura City",PAPUA,99225.0,Indonesia, 0967588677,-2.6077336,140.6742812,https://maps.google.com/?cid=0x0:0x3b19f301c68f1d6f
supermarket bangunan,supermarket bangunan,Papua 99372,"Kabupaten Sarmi, Papua","Kabupaten Sarmi, Papua",PAPUA,,Indonesia,,-2.3921952,138.7995122,https://maps.google.com/?cid=0x0:0x8adfd51c064e390b
supermarket bangunan,Toko Bahan Bangunan,Supermarket Multi Bangunan,"Jl Baru No.98, Wai Mhorock, Abepura, Jayapura City, Papua 99225","Wai Mhorock, Abepura, Jayapura City",PAPUA,99225.0,Indonesia, 0967588677,-2.6077336,140.6742812,https://maps.google.com/?cid=0x0:0x3b19f301c68f1d6f
supermarket bangunan,Toko Bahan Bangunan,Toko bangunan sumber rejeki,"Unnamed Road, Sawar, Kec. Sarmi, Kabupaten Sarmi, Papua 99373","Sawar, Kec. Sarmi, Kabupaten Sarmi",PAPUA,99373.0,Indonesia, 081234899589,-1.8894659,138.7600852,https://maps.google.com/?cid=0x0:0x4e88a9dfadd071fc
supermarket bangunan,Toko bahan makanan,Toko Inti Pembangunan,"Sawar, Kec. Sarmi, Kabupaten Sarmi, Papua 99373","Kec. Sarmi, Kabupaten Sarmi",PAPUA,99373.0,Indonesia, 081286929260,-1.8888753,138.7523781,https://maps.google.com/?cid=0x0:0xc62de493673b96c9
supermarket bangunan,Toko,TOKO BANGUNAN SUMBER ANUGERAH,"Persatuan, Kec. Mandobo, Kabupaten Boven Digoel, Papua 99663","Kec. Mandobo, Kabupaten Boven Digoel",PAPUA,99663.0,Indonesia,,-6.0903965,140.3331897,https://maps.google.com/?cid=0x0:0x9b0d3e5a6263752a
supermarket bangunan,Toko Bahan Bangunan,TOKO BAHAN BANGUNAN âTRINITY HOMEâ,"Jalan Baru Pasar Lama, Wahno, Kec. Abepura, Kota Jayapura, Papua 99224","Wahno, Kec. Abepura, Kota Jayapura",PAPUA,99224.0,Indonesia, 081232337934,-2.5958248,140.6809957,https://maps.google.com/?cid=0x0:0x41c321d86b054228
supermarket bangunan,Toko Bahan Bangunan,ANEKA BANGUNAN,"Wosi, Kec. Manokwari Bar., Kabupaten Manokwari, Papua Bar. 98312","Kec. Manokwari Bar., Kabupaten Manokwari",PAPUA,98312.0,Indonesia, 081344843001,-0.8631883,134.0498559,https://maps.google.com/?cid=0x0:0x3598159af16f30ea
supermarket bangunan,Pemasok Bahan Bangunan,Toko bangunan Sumber Makmur,"32CM+75G, Jl. Manokwari - Maruni, Anday, Distrik Manokwari, Kabupaten Manokwari, Papua Bar. 98315","Jl. Manokwari - Maruni, Anday, Distrik Manokwari, Kabupaten Manokwari",PAPUA,98315.0,Indonesia, 08114846060,-0.9293075,134.0329487,https://maps.google.com/?cid=0x0:0xa0a85c7270dde255
supermarket bangunan,Toko Bahan Bangunan,DEPO GRAHA SIMPATI,"Kamundu, Jl. Poros Simpati Jl. Blorep No.88, Klp. Lima, Kec. Merauke, Kabupaten Merauke, Papua 99615","Jl. Poros Simpati Jl. Blorep No.88, Klp. Lima, Kec. Merauke, Kabupaten Merauke",PAPUA,99615.0,Indonesia,,-8.5023088,140.41837,https://maps.google.com/?cid=0x0:0xd02bc8a1b88f33a3
supermarket bangunan,Pemasok Bahan Bangunan,Pasar Bangunan Bekasi,"Jl. Parpostel No.99, RT.001/RW.008, Jatiasih, Kec. Jatiasih, Kota Bks, Jawa Barat 17423","RT.001/RW.008, Jatiasih, Kec. Jatiasih, Kota Bks",PAPUA,17423.0,Indonesia, 087884244268,-6.3136193,106.9555786,https://maps.google.com/?cid=0x0:0xe940e617696ffc44
supermarket bangunan,Toko Bahan Bangunan,Toko Jaya Abadi,"Jl. Neidam - Petam, Kota Baru, Kec. Sarmi, Kabupaten Sarmi, Papua 99373","Kota Baru, Kec. Sarmi, Kabupaten Sarmi",PAPUA,99373.0,Indonesia, 082122228701,-1.891142,138.7522426,https://maps.google.com/?cid=0x0:0x5df6637e3be4bf96
supermarket bangunan,Toko Bahan Bangunan,PAPUA BANGUNAN,"42GX+945, Wosi, Kec. Manokwari Bar., Kabupaten Manokwari, Papua Bar. 98312","Wosi, Kec. Manokwari Bar., Kabupaten Manokwari",PAPUA,98312.0,Indonesia, 082198055550,-0.874101,134.0478473,https://maps.google.com/?cid=0x0:0x2c3683b193d9430f
supermarket bangunan,Toko Bahan Bangunan,Toko Arso Bangunan,"Jl. Garuda No.17, D, Yuwanain, Kec. Arso, Kabupaten Keerom, Papua 99468","D, Yuwanain, Kec. Arso, Kabupaten Keerom",PAPUA,99468.0,Indonesia, 082199906967,-2.9009028,140.7566149,https://maps.google.com/?cid=0x0:0xd6c7fd0a6c50c3ab
supermarket bangunan,Kantor Arsitek Interior,MR. DIY SARMI,"Jl. Inres Kalibrage, RT.001/RW.010, Kota, Sarmi, Sarmi Regency, Papua 99373","RT.001/RW.010, Kota, Sarmi, Sarmi Regency",PAPUA,99373.0,Indonesia, 082227004622,-1.85508,138.749182,https://maps.google.com/?cid=0x0:0x8d59f1c899dd2bc5
supermarket bangunan,Toko Bahan Bangunan,Supermarket Multi Bangunan,"Jl Baru No.98, Wai Mhorock, Abepura, Jayapura City, Papua 99225","Wai Mhorock, Abepura, Jayapura City",PAPUA,99225.0,Indonesia, 0967588677,-2.6077336,140.6742812,https://maps.google.com/?cid=0x0:0x3b19f301c68f1d6f
supermarket bangunan,supermarket bangunan,Distrik Pantai Barat,"Kabupaten Sarmi, Papua","Kabupaten Sarmi, Papua",PAPUA,,Indonesia,,-1.7332657,138.4123611,https://maps.google.com/?cid=0x0:0xf929d33f427f240b
supermarket bangunan,Toko Bahan Bangunan,Padma Bangunan,"Wai Mhorock, Kec. Abepura, Kota Jayapura, Papua 99225","Kec. Abepura, Kota Jayapura",PAPUA,99225.0,Indonesia, 09675180108,-2.6096427,140.6725314,https://maps.google.com/?cid=0x0:0x908e38e219cfc28
supermarket bangunan,Toko Bahan Bangunan,Toko Bangunan Mutiara timur,"CJ3R+33F, Unnamed Road, Kp. Waena, Kec. Heram, Kota Jayapura, Papua 99225","Unnamed Road, Kp. Waena, Kec. Heram, Kota Jayapura",PAPUA,99225.0,Indonesia,,-2.5973134,140.6401625,https://maps.google.com/?cid=0x0:0x392e56b1342d758c
supermarket bangunan,Toko Bahan Bangunan,DEPO BANGUNAN SINAR MATAHARI,"379X+243, Jl. Fakfak - Torea, Wagom Sel., Distrik Fakfak, Kabupaten Fakfak, Papua Bar. 98651","Jl. Fakfak - Torea, Wagom Sel., Distrik Fakfak, Kabupaten Fakfak",PAPUA,98651.0,Indonesia, 081232387999,-2.9324935,132.2978043,https://maps.google.com/?cid=0x0:0x35e53a9d40e95e48
supermarket bangunan,Toko Perlengkapan Rumah,Toko Bangunan URI,"Q93M+R2X, Uri, Kec. Waropen Bawah, Kabupaten Waropen, Papua 98261","Uri, Kec. Waropen Bawah, Kabupaten Waropen",PAPUA,98261.0,Indonesia,,-2.24502,136.382778,https://maps.google.com/?cid=0x0:0xedc722ce6d2e6662
supermarket bangunan,Toko Perlengkapan Rumah,Toko Bangunan,"Jalan Mapurujaya, Kwamki, Kec. Mimika Baru, Kabupaten Mimika, Papua 99910","Kwamki, Kec. Mimika Baru, Kabupaten Mimika",PAPUA,99910.0,Indonesia, 08114992425,-4.546759,136.8837207,https://maps.google.com/?cid=0x0:0x77163c237d77ddb3
supermarket bangunan,Toko Bahan Bangunan,Toko Mitra Utama,"Jl. Muara Karang Blok Z-3 Selatan No. 74 Pejagalan Penjaringan Jakarta Utara, RT.23/RW.8, Penjaringan, Kec. Penjaringan, Jkt Utara, Daerah Khusus Ibukota Jakarta 14440","RT.23/RW.8, Penjaringan, Kec. Penjaringan, Jkt Utara",PAPUA,14440.0,Indonesia, 08111747423,-6.1155054,106.7753784,https://maps.google.com/?cid=0x0:0xa0e8d355f8cc2ce3
supermarket bangunan,supermarket bangunan,Juan home,"Jl. Pluit Karang Sari No.66, RT.1/RW.12, Pluit, Kec. Penjaringan, Jkt Utara, Daerah Khusus Ibukota Jakarta 14450","RT.1/RW.12, Pluit, Kec. Penjaringan, Jkt Utara",PAPUA,14450.0,Indonesia,,-6.1192815,106.7798959,https://maps.google.com/?cid=0x0:0x89999dbe7b842552
supermarket bangunan,Toko Bahan Bangunan,Super Bangunan Muara Karang,"Jl. Muara Karang Raya No.105, RT.11/RW.17, Pluit, Kec. Penjaringan, Jkt Utara, Daerah Khusus Ibukota Jakarta 14450","RT.11/RW.17, Pluit, Kec. Penjaringan, Jkt Utara",PAPUA,14450.0,Indonesia, 08128218188,-6.1170604,106.7807172,https://maps.google.com/?cid=0x0:0xceae8e907c7218e2
supermarket bangunan,supermarket bangunan,Papua 99371,"Kabupaten Sarmi, Papua","Kabupaten Sarmi, Papua",PAPUA,,Indonesia,,-2.7126367,139.2030851,https://maps.google.com/?cid=0x0:0x8507074767d67bf9
supermarket bangunan,Toko Bahan Bangunan,Toko Bangunan Mutiara timur,"CJ3R+33F, Unnamed Road, Kp. Waena, Kec. Heram, Kota Jayapura, Papua 99225","Unnamed Road, Kp. Waena, Kec. Heram, Kota Jayapura",PAPUA,99225.0,Indonesia,,-2.5973134,140.6401625,https://maps.google.com/?cid=0x0:0x392e56b1342d758c
supermarket bangunan,Toko Bahan Bangunan,Supermarket Multi Bangunan,"Jl Baru No.98, Wai Mhorock, Abepura, Jayapura City, Papua 99225","Wai Mhorock, Abepura, Jayapura City",PAPUA,99225.0,Indonesia, 0967588677,-2.6077336,140.6742812,https://maps.google.com/?cid=0x0:0x3b19f301c68f1d6f
supermarket bangunan,Toko Bahan Bangunan,DEPO GRAHA SIMPATI,"Kamundu, Jl. Poros Simpati Jl. Blorep No.88, Klp. Lima, Kec. Merauke, Kabupaten Merauke, Papua 99615","Jl. Poros Simpati Jl. Blorep No.88, Klp. Lima, Kec. Merauke, Kabupaten Merauke",PAPUA,99615.0,Indonesia,,-8.5023088,140.41837,https://maps.google.com/?cid=0x0:0xd02bc8a1b88f33a3
supermarket bangunan,Toko Bahan Bangunan,Toko bangunan sumber rejeki,"Unnamed Road, Sawar, Kec. Sarmi, Kabupaten Sarmi, Papua 99373","Sawar, Kec. Sarmi, Kabupaten Sarmi",PAPUA,99373.0,Indonesia, 081234899589,-1.8894659,138.7600852,https://maps.google.com/?cid=0x0:0x4e88a9dfadd071fc
supermarket bangunan,Toko bahan makanan,Toko Inti Pembangunan,"Sawar, Kec. Sarmi, Kabupaten Sarmi, Papua 99373","Kec. Sarmi, Kabupaten Sarmi",PAPUA,99373.0,Indonesia, 081286929260,-1.8888753,138.7523781,https://maps.google.com/?cid=0x0:0xc62de493673b96c9
supermarket bangunan,Toko Bahan Bangunan,Surya Prima,"Jl. Kelapa Dua Raya Entrop No.18, Entrop, Jayapura Selatan, Jayapura City, Papua 99221","Entrop, Jayapura Selatan, Jayapura City",PAPUA,99221.0,Indonesia, 082199367291,-2.5685557,140.7022939,https://maps.google.com/?cid=0x0:0x52a2d9ba8f08d112
supermarket bangunan,Toko Bahan Bangunan,TOKO BINTANG BANGUNAN,"Wai Mhorock, Kec. Abepura, Kota Jayapura, Papua 99225","Kec. Abepura, Kota Jayapura",PAPUA,99225.0,Indonesia, 081211357969,-2.6065155,140.6747591,https://maps.google.com/?cid=0x0:0xedd7cb0b345a46c4
supermarket bangunan,Pusat Perbelanjaan,Toko Bangunan Panca Jaya,"Jl. Klp. 2 No.88, Hamadi, Distrik Jayapura Selatan, Kota Jayapura, Papua","Kota Jayapura, Papua",PAPUA,,Indonesia, 085217793880,-2.5691743,140.7049382,https://maps.google.com/?cid=0x0:0x7f72ddf8d44a7328
supermarket bangunan,Pasar bahan bangunan,Toko Surya Bangunan Jayapura,"JL. Tg Ria, Mandala, Kec. Jayapura Utara, Kota Jayapura, Papua","Kota Jayapura, Papua",PAPUA,,Indonesia, 0967542886,-2.533,140.717,https://maps.google.com/?cid=0x0:0xeaf29527728b7d48
supermarket bangunan,Toko Bahan Bangunan,MITRA JITU TOKO BANGUNAN,"Mandala, Kec. Jayapura Utara, Kota Jayapura, Papua","Kota Jayapura, Papua",PAPUA,,Indonesia, 081389993951,-2.5312097,140.7206979,https://maps.google.com/?cid=0x0:0x105c310ef543f2a3
supermarket bangunan,Toko Bahan Bangunan,Toko Bangunan Cahaya,"CJ2P+CPW, Kp. Waena, Kec. Heram, Kota Jayapura, Papua 99351","Kp. Waena, Kec. Heram, Kota Jayapura",PAPUA,99351.0,Indonesia, 081935935177,-2.5988823,140.6368325,https://maps.google.com/?cid=0x0:0x561bf84189c4e226
supermarket bangunan,Toko Bahan Bangunan,Toko Simpati,"FCR2+JJX, Mandala, Kec. Merauke, Kabupaten Merauke, Papua 99615","Mandala, Kec. Merauke, Kabupaten Merauke",PAPUA,99615.0,Indonesia, 082311111117,-8.5083866,140.4016142,https://maps.google.com/?cid=0x0:0xe1bd3c815a867d54
supermarket bangunan,Toko,TOKO BANGUNAN SUMBER ANUGERAH,"Persatuan, Kec. Mandobo, Kabupaten Boven Digoel, Papua 99663","Kec. Mandobo, Kabupaten Boven Digoel",PAPUA,99663.0,Indonesia,,-6.0903965,140.3331897,https://maps.google.com/?cid=0x0:0x9b0d3e5a6263752a
supermarket bangunan,Toko Bahan Bangunan,Supermarket Multi Bangunan,"Jl Baru No.98, Wai Mhorock, Abepura, Jayapura City, Papua 99225","Wai Mhorock, Abepura, Jayapura City",PAPUA,99225.0,Indonesia, 0967588677,-2.6077336,140.6742812,https://maps.google.com/?cid=0x0:0x3b19f301c68f1d6f
supermarket bangunan,supermarket bangunan,Papua 99355,Papua,Papua,PAPUA,,Indonesia,,-2.3923553,139.6503106,https://maps.google.com/?cid=0x0:0x3416a324572abbb9
supermarket bangunan,Toko Bahan Bangunan,Toko bangunan sumber rejeki,"Unnamed Road, Sawar, Kec. Sarmi, Kabupaten Sarmi, Papua 99373","Sawar, Kec. Sarmi, Kabupaten Sarmi",PAPUA,99373.0,Indonesia, 081234899589,-1.8894659,138.7600852,https://maps.google.com/?cid=0x0:0x4e88a9dfadd071fc
supermarket bangunan,Toko bahan makanan,DEPO MESIN N28  DEPO BANGUNAN,"Bunyom, Distrik Nimbokrang, Kabupaten Jayapura, Papua 99361","Distrik Nimbokrang, Kabupaten Jayapura",PAPUA,99361.0,Indonesia, 085247266989,-2.5571645,140.1086582,https://maps.google.com/?cid=0x0:0xf97268af26927065
supermarket bangunan,Toko bahan makanan,Toko bangunan ABADI JAYA,"Jl. Raya sarmi No.blok A, Bunyom, Distrik Nimbokrang, Kabupaten Jayapura, Papua 99361","Bunyom, Distrik Nimbokrang, Kabupaten Jayapura",PAPUA,99361.0,Indonesia, 085382577209,-2.557175,140.1088301,https://maps.google.com/?cid=0x0:0x1ca51d4d8a0ae01a
supermarket bangunan,Toko,TOKO BANGUNAN SUMBER ANUGERAH,"Persatuan, Kec. Mandobo, Kabupaten Boven Digoel, Papua 99663","Kec. Mandobo, Kabupaten Boven Digoel",PAPUA,99663.0,Indonesia,,-6.0903965,140.3331897,https://maps.google.com/?cid=0x0:0x9b0d3e5a6263752a
supermarket bangunan,Toko,Toko Bangunan Lestari Jaya,"Bunyom, Distrik Nimbokrang, Kabupaten Jayapura, Papua 99361","Distrik Nimbokrang, Kabupaten Jayapura",PAPUA,99361.0,Indonesia, 081248093799,-2.5574445,140.1144634,https://maps.google.com/?cid=0x0:0xb8c6a63e30cb594a
supermarket bangunan,Toko Bahan Bangunan,Toko Santoso,"F43Q+9HG, Unnamed Road, Nembukrang, Distrik Nimbokrang, Kabupaten Jayapura, Papua 99361","Unnamed Road, Nembukrang, Distrik Nimbokrang, Kabupaten Jayapura",PAPUA,99361.0,Indonesia, 082398311412,-2.54657,140.138942,https://maps.google.com/?cid=0x0:0xc6d2f7128dba649f
supermarket bangunan,Toko Bahan Bangunan,Toko Bangunan Murah,"Jln. Paniai, Koya Bar., Kec. Muara Tami, Kota Jayapura, Papua 99351","Koya Bar., Kec. Muara Tami, Kota Jayapura",PAPUA,99351.0,Indonesia, 081240619776,-2.6723927,140.8048351,https://maps.google.com/?cid=0x0:0xe1e0b7ba8ced921
supermarket bangunan,supermarket bangunan,Kios AZIZAH,"MH4V+W8F, Tetom, Kec. Bonggo, Kabupaten Sarmi, Papua 99355","Tetom, Kec. Bonggo, Kabupaten Sarmi",PAPUA,99355.0,Indonesia,,-2.3426904,139.5933006,https://maps.google.com/?cid=0x0:0xa5ba4ec9c4096e9b
supermarket bangunan,Toko Bahan Bangunan,Toko Bangunan Depo Makmur,"38XF+C65, Jl. Basuki Rahmat, Klawuyuk, Distrik Sorong Timur, Kota Sorong, Papua Bar. 98416","Jl. Basuki Rahmat, Klawuyuk, Distrik Sorong Timur, Kota Sorong",PAPUA,98416.0,Indonesia,,-0.9013289,131.3229895,https://maps.google.com/?cid=0x0:0x371e6c734b67edcc
supermarket bangunan,Toko Bahan Bangunan,TOKO BANGUNAN MURAH - HOLT,"Jl. Hanurata Holtekamp, Holtekam, Kec. Muara Tami, Kota Jayapura, Papua 99351","Holtekam, Kec. Muara Tami, Kota Jayapura",PAPUA,99351.0,Indonesia, 082398829823,-2.6394804,140.7761013,https://maps.google.com/?cid=0x0:0xd0f52cbc3e289d58
supermarket bangunan,supermarket bangunan,ICA MERBAU,"Nembukrang, Distrik Nimbokrang, Kabupaten Jayapura, Papua 99352","Distrik Nimbokrang, Kabupaten Jayapura",PAPUA,99352.0,Indonesia, 082197995447,-2.558343,140.1301628,https://maps.google.com/?cid=0x0:0x76b2890b18d08a9d
supermarket bangunan,Tukang Kayu,PT. Wapoga Mutiara Industries,"JL Sorido Yendidori Raya, Km. 12, 98116, Sorido, Kec. Biak Kota, Kabupaten Biak Numfor, Papua 98113","Km. 12, 98116, Sorido, Kec. Biak Kota, Kabupaten Biak Numfor",PAPUA,98113.0,Indonesia, 098122017,-1.145826,136.0379864,https://maps.google.com/?cid=0x0:0xa55bd00b75e18e59
supermarket bangunan,supermarket bangunan,Papua 99374,"Kabupaten Sarmi, Papua","Kabupaten Sarmi, Papua",PAPUA,,Indonesia,,-2.0159736,138.3190276,https://maps.google.com/?cid=0x0:0xfafa718b5be371f4
supermarket bangunan,Toko Bahan Bangunan,Supermarket Multi Bangunan,"Jl Baru No.98, Wai Mhorock, Abepura, Jayapura City, Papua 99225","Wai Mhorock, Abepura, Jayapura City",PAPUA,99225.0,Indonesia, 0967588677,-2.6077336,140.6742812,https://maps.google.com/?cid=0x0:0x3b19f301c68f1d6f
supermarket bangunan,Toko Bahan Bangunan,Toko bangunan sumber rejeki,"Unnamed Road, Sawar, Kec. Sarmi, Kabupaten Sarmi, Papua 99373","Sawar, Kec. Sarmi, Kabupaten Sarmi",PAPUA,99373.0,Indonesia, 081234899589,-1.8894659,138.7600852,https://maps.google.com/?cid=0x0:0x4e88a9dfadd071fc
supermarket bangunan,Toko Bahan Bangunan,Cahaya Bangunan,"4, Jl. Meruya Ilir Raya No.82C, RT.4/RW.8, Srengseng, Kec. Kembangan, Kota Jakarta Barat, Daerah Khusus Ibukota Jakarta 11620","Jl. Meruya Ilir Raya No.82C, RT.4/RW.8, Srengseng, Kec. Kembangan, Kota Jakarta Barat",PAPUA,11620.0,Indonesia, 0215868105,-6.198191,106.7527248,https://maps.google.com/?cid=0x0:0x71fab95142362a49
supermarket bangunan,Toko Perlengkapan Rumah,Toko Bangunan URI,"Q93M+R2X, Uri, Kec. Waropen Bawah, Kabupaten Waropen, Papua 98261","Uri, Kec. Waropen Bawah, Kabupaten Waropen",PAPUA,98261.0,Indonesia,,-2.24502,136.382778,https://maps.google.com/?cid=0x0:0xedc722ce6d2e6662
supermarket bangunan,Pemasok Bahan Bangunan,Supermarket Bangunan Abadi ( Bangunan Abadi ) Meruya,"Jl. Meruya Ilir Raya No.13 3, RT.3/RW.2, Meruya Utara, Kec. Kembangan, Kota Jakarta Barat, Daerah Khusus Ibukota Jakarta 11610","RT.3/RW.2, Meruya Utara, Kec. Kembangan, Kota Jakarta Barat",PAPUA,11610.0,Indonesia, 0215856801,-6.1976477,106.7425118,https://maps.google.com/?cid=0x0:0x13872e6ebcfc2cac
supermarket bangunan,Toko Bahan Bangunan,Toko bangunan sumber rejeki,"Unnamed Road, Sawar, Kec. Sarmi, Kabupaten Sarmi, Papua 99373","Sawar, Kec. Sarmi, Kabupaten Sarmi",PAPUA,99373.0,Indonesia, 081234899589,-1.8894659,138.7600852,https://maps.google.com/?cid=0x0:0x4e88a9dfadd071fc
supermarket bangunan,supermarket bangunan,Papua 99373,"Kabupaten Sarmi, Papua","Kabupaten Sarmi, Papua",PAPUA,,Indonesia,,-2.0309427,138.7995122,https://maps.google.com/?cid=0x0:0x94ecbde644ea8853
supermarket bangunan,Toko bahan makanan,Toko Inti Pembangunan,"Sawar, Kec. Sarmi, Kabupaten Sarmi, Papua 99373","Kec. Sarmi, Kabupaten Sarmi",PAPUA,99373.0,Indonesia, 081286929260,-1.8888753,138.7523781,https://maps.google.com/?cid=0x0:0xc62de493673b96c9
supermarket bangunan,Kantor Arsitek Interior,MR. DIY SARMI,"Jl. Inres Kalibrage, RT.001/RW.010, Kota, Sarmi, Sarmi Regency, Papua 99373","RT.001/RW.010, Kota, Sarmi, Sarmi Regency",PAPUA,99373.0,Indonesia, 082227004622,-1.85508,138.749182,https://maps.google.com/?cid=0x0:0x8d59f1c899dd2bc5
supermarket bangunan,Toko Bahan Bangunan,Toko Jaya Abadi,"Jl. Neidam - Petam, Kota Baru, Kec. Sarmi, Kabupaten Sarmi, Papua 99373","Kota Baru, Kec. Sarmi, Kabupaten Sarmi",PAPUA,99373.0,Indonesia, 082122228701,-1.891142,138.7522426,https://maps.google.com/?cid=0x0:0x5df6637e3be4bf96
supermarket bangunan,Gedung Apartemen,SWALAYAN SARMI,"4PVX+C38, Jl. Inres Kalibagre, Sarmi, Kec. Sarmi, Kabupaten Sarmi, Papua 99373","Jl. Inres Kalibagre, Sarmi, Kec. Sarmi, Kabupaten Sarmi",PAPUA,99373.0,Indonesia,,-1.8564537,138.7477149,https://maps.google.com/?cid=0x0:0x962caa721c6345ee
supermarket bangunan,supermarket bangunan,Distrik Sarmi Timur,"Kabupaten Sarmi, Papua","Kabupaten Sarmi, Papua",PAPUA,,Indonesia,,-2.0023384,138.7951543,https://maps.google.com/?cid=0x0:0xa6223e91f97c29b5
supermarket bangunan,Toko Bahan Bangunan,Toko bangunan sumber rejeki,"Unnamed Road, Sawar, Kec. Sarmi, Kabupaten Sarmi, Papua 99373","Sawar, Kec. Sarmi, Kabupaten Sarmi",PAPUA,99373.0,Indonesia, 081234899589,-1.8894659,138.7600852,https://maps.google.com/?cid=0x0:0x4e88a9dfadd071fc
supermarket bangunan,Toko bahan makanan,Toko Inti Pembangunan,"Sawar, Kec. Sarmi, Kabupaten Sarmi, Papua 99373","Kec. Sarmi, Kabupaten Sarmi",PAPUA,99373.0,Indonesia, 081286929260,-1.8888753,138.7523781,https://maps.google.com/?cid=0x0:0xc62de493673b96c9
supermarket bangunan,Toko Bahan Bangunan,Toko Jaya Abadi,"Jl. Neidam - Petam, Kota Baru, Kec. Sarmi, Kabupaten Sarmi, Papua 99373","Kota Baru, Kec. Sarmi, Kabupaten Sarmi",PAPUA,99373.0,Indonesia, 082122228701,-1.891142,138.7522426,https://maps.google.com/?cid=0x0:0x5df6637e3be4bf96
supermarket bangunan,Kantor Arsitek Interior,MR. DIY SARMI,"Jl. Inres Kalibrage, RT.001/RW.010, Kota, Sarmi, Sarmi Regency, Papua 99373","RT.001/RW.010, Kota, Sarmi, Sarmi Regency",PAPUA,99373.0,Indonesia, 082227004622,-1.85508,138.749182,https://maps.google.com/?cid=0x0:0x8d59f1c899dd2bc5
supermarket bangunan,Gedung Apartemen,SWALAYAN SARMI,"4PVX+C38, Jl. Inres Kalibagre, Sarmi, Kec. Sarmi, Kabupaten Sarmi, Papua 99373","Jl. Inres Kalibagre, Sarmi, Kec. Sarmi, Kabupaten Sarmi",PAPUA,99373.0,Indonesia,,-1.8564537,138.7477149,https://maps.google.com/?cid=0x0:0x962caa721c6345ee
supermarket bangunan,Toko Bahan Bangunan,Supermarket Multi Bangunan,"Jl Baru No.98, Wai Mhorock, Abepura, Jayapura City, Papua 99225","Wai Mhorock, Abepura, Jayapura City",PAPUA,99225.0,Indonesia, 0967588677,-2.6077336,140.6742812,https://maps.google.com/?cid=0x0:0x3b19f301c68f1d6f
supermarket bangunan,supermarket bangunan,Papua 99371,"Kabupaten Sarmi, Papua","Kabupaten Sarmi, Papua",PAPUA,,Indonesia,,-2.7126367,139.2030851,https://maps.google.com/?cid=0x0:0x8507074767d67bf9
supermarket bangunan,Toko Bahan Bangunan,Toko Bangunan Mutiara timur,"CJ3R+33F, Unnamed Road, Kp. Waena, Kec. Heram, Kota Jayapura, Papua 99225","Unnamed Road, Kp. Waena, Kec. Heram, Kota Jayapura",PAPUA,99225.0,Indonesia,,-2.5973134,140.6401625,https://maps.google.com/?cid=0x0:0x392e56b1342d758c
supermarket bangunan,Toko Bahan Bangunan,Supermarket Multi Bangunan,"Jl Baru No.98, Wai Mhorock, Abepura, Jayapura City, Papua 99225","Wai Mhorock, Abepura, Jayapura City",PAPUA,99225.0,Indonesia, 0967588677,-2.6077336,140.6742812,https://maps.google.com/?cid=0x0:0x3b19f301c68f1d6f
supermarket bangunan,Toko Bahan Bangunan,Toko bangunan sumber rejeki,"Unnamed Road, Sawar, Kec. Sarmi, Kabupaten Sarmi, Papua 99373","Sawar, Kec. Sarmi, Kabupaten Sarmi",PAPUA,99373.0,Indonesia, 081234899589,-1.8894659,138.7600852,https://maps.google.com/?cid=0x0:0x4e88a9dfadd071fc
supermarket bangunan,Toko Bahan Bangunan,TOKO BINTANG BANGUNAN,"Wai Mhorock, Kec. Abepura, Kota Jayapura, Papua 99225","Kec. Abepura, Kota Jayapura",PAPUA,99225.0,Indonesia, 081211357969,-2.6065155,140.6747591,https://maps.google.com/?cid=0x0:0xedd7cb0b345a46c4
supermarket bangunan,Toko Bahan Bangunan,Surya Prima,"Jl. Kelapa Dua Raya Entrop No.18, Entrop, Jayapura Selatan, Jayapura City, Papua 99221","Entrop, Jayapura Selatan, Jayapura City",PAPUA,99221.0,Indonesia, 082199367291,-2.5685557,140.7022939,https://maps.google.com/?cid=0x0:0x52a2d9ba8f08d112
supermarket bangunan,Toko Bahan Bangunan,DEPO GRAHA SIMPATI,"Kamundu, Jl. Poros Simpati Jl. Blorep No.88, Klp. Lima, Kec. Merauke, Kabupaten Merauke, Papua 99615","Jl. Poros Simpati Jl. Blorep No.88, Klp. Lima, Kec. Merauke, Kabupaten Merauke",PAPUA,99615.0,Indonesia,,-8.5023088,140.41837,https://maps.google.com/?cid=0x0:0xd02bc8a1b88f33a3
supermarket bangunan,Toko,TOKO BANGUNAN SUMBER ANUGERAH,"Persatuan, Kec. Mandobo, Kabupaten Boven Digoel, Papua 99663","Kec. Mandobo, Kabupaten Boven Digoel",PAPUA,99663.0,Indonesia,,-6.0903965,140.3331897,https://maps.google.com/?cid=0x0:0x9b0d3e5a6263752a
supermarket bangunan,Toko bahan makanan,Toko Inti Pembangunan,"Sawar, Kec. Sarmi, Kabupaten Sarmi, Papua 99373","Kec. Sarmi, Kabupaten Sarmi",PAPUA,99373.0,Indonesia, 081286929260,-1.8888753,138.7523781,https://maps.google.com/?cid=0x0:0xc62de493673b96c9
supermarket bangunan,Pasar bahan bangunan,Toko Surya Bangunan Jayapura,"JL. Tg Ria, Mandala, Kec. Jayapura Utara, Kota Jayapura, Papua","Kota Jayapura, Papua",PAPUA,,Indonesia, 0967542886,-2.533,140.717,https://maps.google.com/?cid=0x0:0xeaf29527728b7d48
supermarket bangunan,Toko Bahan Bangunan,MITRA JITU TOKO BANGUNAN,"Mandala, Kec. Jayapura Utara, Kota Jayapura, Papua","Kota Jayapura, Papua",PAPUA,,Indonesia, 081389993951,-2.5312097,140.7206979,https://maps.google.com/?cid=0x0:0x105c310ef543f2a3
supermarket bangunan,Toko Bahan Bangunan,Toko Bangunan Cahaya,"CJ2P+CPW, Kp. Waena, Kec. Heram, Kota Jayapura, Papua 99351","Kp. Waena, Kec. Heram, Kota Jayapura",PAPUA,99351.0,Indonesia, 081935935177,-2.5988823,140.6368325,https://maps.google.com/?cid=0x0:0x561bf84189c4e226
supermarket bangunan,Toko Bahan Bangunan,PAPUA BANGUNAN,"42GX+945, Wosi, Kec. Manokwari Bar., Kabupaten Manokwari, Papua Bar. 98312","Wosi, Kec. Manokwari Bar., Kabupaten Manokwari",PAPUA,98312.0,Indonesia, 082198055550,-0.874101,134.0478473,https://maps.google.com/?cid=0x0:0x2c3683b193d9430f
supermarket bangunan,Toko Bahan Bangunan,Toko Bangunan Mamta Jaya,"CMMX+2MC, Entrop, Distrik Jayapura Selatan, Kota Jayapura, Papua 99221","Entrop, Distrik Jayapura Selatan, Kota Jayapura",PAPUA,99221.0,Indonesia,,-2.5674278,140.6991484,https://maps.google.com/?cid=0x0:0x2e3a73f71cf583d9
supermarket bangunan,supermarket bangunan,Distrik Bonggo Timur,"Kabupaten Sarmi, Papua","Kabupaten Sarmi, Papua",PAPUA,,Indonesia,,-2.3646918,139.6790312,https://maps.google.com/?cid=0x0:0xebe7f4b7afe3bd51
supermarket bangunan,Toko Bahan Bangunan,Toko bangunan sumber rejeki,"Unnamed Road, Sawar, Kec. Sarmi, Kabupaten Sarmi, Papua 99373","Sawar, Kec. Sarmi, Kabupaten Sarmi",PAPUA,99373.0,Indonesia, 081234899589,-1.8894659,138.7600852,https://maps.google.com/?cid=0x0:0x4e88a9dfadd071fc
supermarket bangunan,Toko Bahan Bangunan,Supermarket Multi Bangunan,"Jl Baru No.98, Wai Mhorock, Abepura, Jayapura City, Papua 99225","Wai Mhorock, Abepura, Jayapura City",PAPUA,99225.0,Indonesia, 0967588677,-2.6077336,140.6742812,https://maps.google.com/?cid=0x0:0x3b19f301c68f1d6f
supermarket bangunan,Toko Bahan Bangunan,DEPO GRAHA SIMPATI,"Kamundu, Jl. Poros Simpati Jl. Blorep No.88, Klp. Lima, Kec. Merauke, Kabupaten Merauke, Papua 99615","Jl. Poros Simpati Jl. Blorep No.88, Klp. Lima, Kec. Merauke, Kabupaten Merauke",PAPUA,99615.0,Indonesia,,-8.5023088,140.41837,https://maps.google.com/?cid=0x0:0xd02bc8a1b88f33a3
supermarket bangunan,supermarket bangunan,Somilbatu tela vandy.ok,"Jl.1 timur, Bebon Jaya, Kec. Bonggo, Kabupaten Sarmi, Papua 99381","Bebon Jaya, Kec. Bonggo, Kabupaten Sarmi",PAPUA,99381.0,Indonesia, 081247263895,-2.2736502,139.5464527,https://maps.google.com/?cid=0x0:0x603d08da04103670
