Category,Real Category,Business Name,Address,City,State,Postal Code,Country,Phone,Email,Website,Latitude,Longitude,Map Link,Details Link
building materials,building materials,Papua 99777,"Kabupaten Asmat, Papua","Kabupaten Asmat, Papua",PAPUA,,Indonesia,,,,-54.613.838,1.381.995.591,https://maps.google.com/?cid=0x0:0x8e1d4401ddfcedae,
building materials,Kontraktor Penebangan Kayu,TOKO CAHAYA BONE AGATS,"Jl. Dermaga Baru, Bis Agats, Distrik Agats, Kabupaten Asmat, Papua 99777","Bis Agats, Distrik Agats, Kabupaten Asmat",PAPUA,99777.0,Indonesia,,,,-55.261.749,138.139.991,https://maps.google.com/?cid=0x0:0xdcf195d2090d9d79,
building materials,Toko Bahan Bangunan,kios enny nur cemenes,"Jl. Dermaga Baru, Bis Agats, Distrik Agats, Kabupaten Asmat, Papua 99777","Bis Agats, Distrik Agats, Kabupaten Asmat",PAPUA,99777.0,Indonesia,81343209941,,,-55.305.575,1.381.406.968,https://maps.google.com/?cid=0x0:0xf058fc25a2aab75,
building materials,building materials,Agats,"Bis Agats, Distrik Agats, Kabupaten Asmat, Papua","Kabupaten Asmat, Papua",PAPUA,,Indonesia,,,,-5.535.626,138.121.359,https://maps.google.com/?cid=0x0:0xf1c37eeb196c76c9,
building materials,Kontraktor Penebangan Kayu,TOKO CAHAYA BONE AGATS,"Jl. Dermaga Baru, Bis Agats, Distrik Agats, Kabupaten Asmat, Papua 99777","Bis Agats, Distrik Agats, Kabupaten Asmat",PAPUA,99777.0,Indonesia,,,,-55.261.749,138.139.991,https://maps.google.com/?cid=0x0:0xdcf195d2090d9d79,
building materials,building materials,CV. Cahaya Bone Jaya,"F4CQ+P94, Kampung Mbait, Distrik, Bis Agats, Distrik Agats, Kabupaten Asmat, Papua 99777","Kampung Mbait, Distrik, Bis Agats, Distrik Agats, Kabupaten Asmat",PAPUA,99777.0,Indonesia,85282074508,,,-5.528.234,138.138.453,https://maps.google.com/?cid=0x0:0x1267000c42982705,
building materials,building materials,Atsy,"Atsy, Kabupaten Asmat, Papua","Kabupaten Asmat, Papua",PAPUA,,Indonesia,,,,-5.721.067,13.837.886,https://maps.google.com/?cid=0x0:0x563a7ef959cd1d9e,
building materials,Produsen,ATS Paving Block,"J2F2+C5W, Jl. Cileungsi - Setu, Taman Rahayu, Kec. Setu, Kabupaten Bekasi, Jawa Barat 17320","Jl. Cileungsi - Setu, Taman Rahayu, Kec. Setu, Kabupaten Bekasi",PAPUA,17320.0,Indonesia,,,,-63.764.473,1.070.004.781,https://maps.google.com/?cid=0x0:0xe540e6a96fed01d6,
building materials,Kantor Perusahaan,PAVING BLOCK BOGOR,"Cluster Jl. Pesona Toronto blok yb 8 no, Limusnunggal, Cileungsi, Bogor Regency, West Java 16820","Limusnunggal, Cileungsi, Bogor Regency",PAPUA,16820.0,Indonesia,81313897154,,,-6.380.716,1.069.651.584,https://maps.google.com/?cid=0x0:0xb986365d860e2e2d,
building materials,building materials,Papua 99778,Papua,Papua,PAPUA,,Indonesia,,,,-48.922.915,1.379.218.204,https://maps.google.com/?cid=0x0:0x7dad809947c0ba4d,
building materials,building materials,Sawa Erma,"Kabupaten Asmat, Papua","Kabupaten Asmat, Papua",PAPUA,,Indonesia,,,,-51.382.956,1.381.995.591,https://maps.google.com/?cid=0x0:0xa00408d29df1eb35,
building materials,building materials,Papua 99779,"Kabupaten Asmat, Papua","Kabupaten Asmat, Papua",PAPUA,,Indonesia,,,,-49.651.102,1.388.799.972,https://maps.google.com/?cid=0x0:0x21328fcdfe8f7ad3,
building materials,Toko Bahan Bangunan,kios enny nur cemenes,"Jl. Dermaga Baru, Bis Agats, Distrik Agats, Kabupaten Asmat, Papua 99777","Bis Agats, Distrik Agats, Kabupaten Asmat",PAPUA,99777.0,Indonesia,81343209941,,,-55.305.575,1.381.406.968,https://maps.google.com/?cid=0x0:0xf058fc25a2aab75,
building materials,Kontraktor Penebangan Kayu,TOKO CAHAYA BONE AGATS,"Jl. Dermaga Baru, Bis Agats, Distrik Agats, Kabupaten Asmat, Papua 99777","Bis Agats, Distrik Agats, Kabupaten Asmat",PAPUA,99777.0,Indonesia,,,,-55.261.749,138.139.991,https://maps.google.com/?cid=0x0:0xdcf195d2090d9d79,
building materials,Toko Swalayan,TOKO TALAGA MANDIRI,"Jln. Baliem, Massi, Kec. Dekai, Kabupaten Yahukimo, Papua 99702","Massi, Kec. Dekai, Kabupaten Yahukimo",PAPUA,99702.0,Indonesia,,,,-48.683.345,1.394.792.246,https://maps.google.com/?cid=0x0:0xf2142421622a7ed4,
building materials,Kelompok Bermain,"TK ,Bintang utama","F46Q+8XH, Jl. Swamenas, Bis Agats, Distrik Agats, Kabupaten Asmat, Papua 99777","Jl. Swamenas, Bis Agats, Distrik Agats, Kabupaten Asmat",PAPUA,99777.0,Indonesia,,,,-55.391.783,1.381.399.947,https://maps.google.com/?cid=0x0:0x24b430743693ceab,
building materials,Toko Bahan Bangunan,UD HIKMAJAYA,"Jl. Kali Bonto Jl. Paradiso, Massi, Kec. Dekai, Kabupaten Yahukimo, Papua","Kabupaten Yahukimo, Papua",PAPUA,,Indonesia,81342458989,,,-48.583.743,1.394.840.727,https://maps.google.com/?cid=0x0:0x885cb92b83c231a8,
building materials,Toko Bahan Bangunan,UD AL YUSUF,"samping mebel Pak Alex, Jl. Paradiso, Massi, Kec. Dekai, Kabupaten Yahukimo, Papua","Kabupaten Yahukimo, Papua",PAPUA,,Indonesia,85255453453,,,-48.661.445,1.394.753.784,https://maps.google.com/?cid=0x0:0x3da0c393779dd354,
building materials,Kantor Perusahaan,PT. SIDRAP JAYA MANDIRI,"Jl. Paradiso, Massi, Kec. Dekai, Kabupaten Yahukimo, Papua 99702","Massi, Kec. Dekai, Kabupaten Yahukimo",PAPUA,99702.0,Indonesia,81342458989,,,-48.659.668,1.394.754.732,https://maps.google.com/?cid=0x0:0xcdb339acf38fd45c,
building materials,Toko Bahan Bangunan,ART ROSTER BETON,"Jagakarsa, Kec. Jagakarsa, Kota Jakarta Selatan, Daerah Khusus Ibukota Jakarta","Kota Jakarta Selatan, Daerah Khusus Ibukota Jakarta",PAPUA,,Indonesia,87864229601,,,-63.233.038,1.068.193.096,https://maps.google.com/?cid=0x0:0x6ad23d458c8d19b3,
building materials,Toko Bahan Bangunan,Okabe Gallery Alam Sutera,"QM66+Q46, Jalur Sutera No.32A, Pakualam, Kec. Serpong Utara, Kota Tangerang Selatan, Banten 15320","Jalur Sutera No.32A, Pakualam, Kec. Serpong Utara, Kota Tangerang Selatan",PAPUA,15320.0,Indonesia,82118888519,,,-62.381.706,1.066.605.396,https://maps.google.com/?cid=0x0:0x685a953a8450fdbb,
building materials,Jasa Konstruksi dan Bangunan,Bitumi Mitra Teknik,"104 AB, Jl. Cempaka Putih Raya No.104-AB No.104-AB, RT.6/RW.7, Cemp. Putih Tim., Kec. Cemp. Putih, Kota Jakarta Pusat, Daerah Khusus Ibukota Jakarta 10510","Jl. Cempaka Putih Raya No.104-AB No.104-AB, RT.6/RW.7, Cemp. Putih Tim., Kec. Cemp. Putih, Kota Jakarta Pusat",PAPUA,10510.0,Indonesia,214250225,,,-61.766.293,1.068.727.932,https://maps.google.com/?cid=0x0:0xb2ab5cfa14ce8dad,
building materials,building materials,Papua 99782,"Kabupaten Asmat, Papua","Kabupaten Asmat, Papua",PAPUA,,Indonesia,,,,-60.419.322,1.384.787.258,https://maps.google.com/?cid=0x0:0x95c8a9b5775eb359,
building materials,Toko Perlengkapan Rumah,"ARTHA JAYA Building Material ,Technic and Sparepart Supplier","8QM8+766, Jl. Lettu Idrus, Kaimana Kota, Kec. Kaimana, Kabupaten Kaimana, Papua Bar. 98654","Jl. Lettu Idrus, Kaimana Kota, Kec. Kaimana, Kabupaten Kaimana",PAPUA,98654.0,Indonesia,8113337737,,,-36.668.263,1.337.655.059,https://maps.google.com/?cid=0x0:0x771b5c8624f4315b,
building materials,Toko bahan makanan,DEPO MESIN N28  DEPO BANGUNAN,"Bunyom, Distrik Nimbokrang, Kabupaten Jayapura, Papua 99361","Distrik Nimbokrang, Kabupaten Jayapura",PAPUA,99361.0,Indonesia,85247266989,,,-25.571.645,1.401.086.582,https://maps.google.com/?cid=0x0:0xf97268af26927065,
building materials,Toko Bahan Bangunan,"Papua Bangunan, CV PAPUA ABADI","Jl. Basuki Rahmat No.780, Klawuyuk, Distrik Sorong Timur, Kota Sorong, Papua Bar. 98416","Klawuyuk, Distrik Sorong Timur, Kota Sorong",PAPUA,98416.0,Indonesia,81332017550,,,-0.8954087,1.313.186.922,https://maps.google.com/?cid=0x0:0x851804bc3aa7f033,
building materials,Pemasok Bahan Bangunan,CV. Cahaya Papua Bangunan,"9MPC+4X9, Awiyo, Kec. Abepura, Kota Jayapura, Papua 99351","Awiyo, Kec. Abepura, Kota Jayapura",PAPUA,99351.0,Indonesia,82198904605,,,-26.147.176,1.406.724.912,https://maps.google.com/?cid=0x0:0x872c2e9a7a1c6add,
building materials,Toko Bahan Bangunan,Depo Bangunan Mbanyu Mili,"3VQM+2GP depan balai kampung sp 2, Prafi Mulia, Distrik Prafi, Kabupaten Manokwari, Papua Bar. 98356","Prafi Mulia, Distrik Prafi, Kabupaten Manokwari",PAPUA,98356.0,Indonesia,85254126242,,,-0.9124191,1.338.838.245,https://maps.google.com/?cid=0x0:0x72bb281db456c91a,
building materials,building materials,Toko Artajaya Bangunan (AJB),"Jl Protokol, Koya Bar., Kec. Muara Tami, Kota Jayapura, Papua","Kota Jayapura, Papua",PAPUA,,Indonesia,,,,-26.598.126,1.408.048.505,https://maps.google.com/?cid=0x0:0xbfefccb7ae22a578,
building materials,Toko Bahan Bangunan,TOKO BAHAN BANGUNAN TRINITY HOME,"Jalan Baru Pasar Lama, Wahno, Kec. Abepura, Kota Jayapura, Papua 99224","Wahno, Kec. Abepura, Kota Jayapura",PAPUA,99224.0,Indonesia,81232337934,,,-25.958.248,1.406.809.957,https://maps.google.com/?cid=0x0:0x41c321d86b054228,
building materials,Toko Bahan Bangunan,Supermarket Multi Bangunan,"Jl Baru No.98, Wai Mhorock, Abepura, Jayapura City, Papua 99225","Wai Mhorock, Abepura, Jayapura City",PAPUA,99225.0,Indonesia,967588677,,,-26.077.336,1.406.742.812,https://maps.google.com/?cid=0x0:0x3b19f301c68f1d6f,
building materials,Toko Bahan Bangunan,TOKO ADIPATI,"X72G+VV9, Unnamed Road, Wagete I, Kec. Tigi, Kabupaten Deiyai, Papua 98764","Unnamed Road, Wagete I, Kec. Tigi, Kabupaten Deiyai",PAPUA,98764.0,Indonesia,,,,-40.478.291,1.362.772.267,https://maps.google.com/?cid=0x0:0x5e5f483c1346142a,
building materials,Toko Bahan Bangunan,ELTIGA Hard Ware,"4R99+HQ9, Jl. Pendidikan, Udapi Hilir, Distrik Prafi, Kabupaten Manokwari, Papua Bar. 98356","Jl. Pendidikan, Udapi Hilir, Distrik Prafi, Kabupaten Manokwari",PAPUA,98356.0,Indonesia,986811156,,,-0.8810887,1.338.194.861,https://maps.google.com/?cid=0x0:0x233be94230012a5d,
building materials,Toko Bahan Bangunan,NASYA BANGUNAN,"X8M9+469, Jl. Nusa Indah, Mariyai, Distrik Mariat, Kabupaten Sorong, Papua Bar. 98415","Jl. Nusa Indah, Mariyai, Distrik Mariat, Kabupaten Sorong",PAPUA,98415.0,Indonesia,,,,-10.172.176,1.313.181.156,https://maps.google.com/?cid=0x0:0x19e47aadec85996d,
building materials,Toko Bahan Bangunan,Tiptore Building Material,"Jl. Poros Kuda Mati, Klp. Lima, Kec. Merauke, Kabupaten Merauke, Papua 99616","Klp. Lima, Kec. Merauke, Kabupaten Merauke",PAPUA,99616.0,Indonesia,82293657714,,,-85.061.763,1.404.257.632,https://maps.google.com/?cid=0x0:0xbf132c61e5517b30,
building materials,Toko,Toko Fratafen Jaya Bangunan,"Jl. Fratafen, Fiane, Kec. Ayamaru, Kabupaten Maybrat, Papua Bar.","Kabupaten Maybrat, Papua Bar.",PAPUA,,Indonesia,81344891455,,,-12.930.171,1.322.477.662,https://maps.google.com/?cid=0x0:0x637ec3d664ebdaa3,
building materials,Toko Bahan Bangunan,"Toko Bangunan  Trio NUGRAHA"" kertosari""","FCHF+H72, Unnamed Road, Sabron Sari, Distrik Sentani Barat, Kabupaten Jayapura, Papua 99358","Unnamed Road, Sabron Sari, Distrik Sentani Barat, Kabupaten Jayapura",PAPUA,99358.0,Indonesia,85254232431,,,-25.211.009,140.423.142,https://maps.google.com/?cid=0x0:0x62fb937eb764d3e,
building materials,Toko Bahan Bangunan,Pridia Toko Bangunan,"Jl. Raya Kemiri, Hinekombe, Kec. Sentani, Kabupaten Jayapura, Papua 99352","Hinekombe, Kec. Sentani, Kabupaten Jayapura",PAPUA,99352.0,Indonesia,967593251,,,-25.652.582,140.506.106,https://maps.google.com/?cid=0x0:0xb1cbda9c54716314,
building materials,Toko Bahan Bangunan,PT. Barito Pasifik Timber,"Jl. Koti No.8 A, Numbai, Distrik Jayapura Selatan, Kota Jayapura, Papua 99222","Numbai, Distrik Jayapura Selatan, Kota Jayapura",PAPUA,99222.0,Indonesia,967536672,,,-2.543.737,140.706.905,https://maps.google.com/?cid=0x0:0x3e2ccfcc476c37f1,
building materials,Pemotongan Kayu,Kantor kaca PT.SWPI,"Tim, Awunawai, Distrik Yapen Timur, Kabupaten Kepulauan Yapen, Papua 98252","Awunawai, Distrik Yapen Timur, Kabupaten Kepulauan Yapen",PAPUA,98252.0,Indonesia,,,,-18.226.475,1.367.595.672,https://maps.google.com/?cid=0x0:0xce8e51c2e764af51,
building materials,building materials,Toko Bangunan Defris Jaya,"WWFJ+FGW, Honelama, Distrik Wamena, Kabupaten Jayawijaya, Papua","Kabupaten Jayawijaya, Papua",PAPUA,,Indonesia,82122155776,,,-40.762.623,1.389.313.322,https://maps.google.com/?cid=0x0:0x5ad0c28dcdccd135,
building materials,Toko Perlengkapan Rumah,Batu bata kilo 8,"C7J9+FHC, Jl. Irian Kepi, Kepi, Kec. Obaa, Kabupaten Mappi, Papua 99881","Jl. Irian Kepi, Kepi, Kec. Obaa, Kabupaten Mappi",PAPUA,99881.0,Indonesia,,,,-65.681.291,1.392.685.456,https://maps.google.com/?cid=0x0:0x8c512660faed3c63,
building materials,building materials,Distrik Fayit,"Kabupaten Asmat, Papua","Kabupaten Asmat, Papua",PAPUA,,Indonesia,,,,-60.610.672,1.383.835.427,https://maps.google.com/?cid=0x0:0x4b1b5304d72076e5,
building materials,Kontraktor,Bital Asia. PT,"Jl. Raya Legok - Karawaci No.Km. 7, RW.9, Babakan, Kec. Legok, Kabupaten Tangerang, Banten 15820","RW.9, Babakan, Kec. Legok, Kabupaten Tangerang",PAPUA,15820.0,Indonesia,2154202064,,,-62.959.357,106.592.504,https://maps.google.com/?cid=0x0:0xd739133722897251,
building materials,Pabrikan cat,PT. BITAL INDO,"Jl. Raya Legok - Karawaci Jl. Kp. Dukuh No.KM 7,9, RT.02/RW.03, Babakan, Kec. Legok, Kabupaten Tangerang, Banten 15820","RT.02/RW.03, Babakan, Kec. Legok, Kabupaten Tangerang",PAPUA,15820.0,Indonesia,215463626,,,-62.952.099,1.065.927.297,https://maps.google.com/?cid=0x0:0x23a7fe399c4b69d,
building materials,building materials,Distrik Pantai Kasuari,"Kabupaten Asmat, Papua","Kabupaten Asmat, Papua",PAPUA,,Indonesia,,,,-62.184.287,138.598.804,https://maps.google.com/?cid=0x0:0x1b4529030e9094c,
building materials,building materials,Papua 99766,Papua,Papua,PAPUA,,Indonesia,,,,-52.037.329,1.394.466.005,https://maps.google.com/?cid=0x0:0xd6fdff385c07ba5d,
building materials,Grosir bahan konstruksi,UD. UNGGUL JAYA SEJAHTERA (HANDOKO),"Massi, Kec. Dekai, Kabupaten Yahukimo, Papua 99571","Kec. Dekai, Kabupaten Yahukimo",PAPUA,99571.0,Indonesia,82198805354,,,-48.651.736,1.394.852.562,https://maps.google.com/?cid=0x0:0x5dec7d0c36ca1db3,
building materials,Toko Swalayan,TOKO TALAGA MANDIRI,"Jln. Baliem, Massi, Kec. Dekai, Kabupaten Yahukimo, Papua 99702","Massi, Kec. Dekai, Kabupaten Yahukimo",PAPUA,99702.0,Indonesia,,,,-48.683.345,1.394.792.246,https://maps.google.com/?cid=0x0:0xf2142421622a7ed4,
building materials,Kantor Perusahaan,PT. SIDRAP JAYA MANDIRI,"Jl. Paradiso, Massi, Kec. Dekai, Kabupaten Yahukimo, Papua 99702","Massi, Kec. Dekai, Kabupaten Yahukimo",PAPUA,99702.0,Indonesia,81342458989,,,-48.659.668,1.394.754.732,https://maps.google.com/?cid=0x0:0xcdb339acf38fd45c,
building materials,Toko Bahan Bangunan,UD HIKMAJAYA,"Jl. Kali Bonto Jl. Paradiso, Massi, Kec. Dekai, Kabupaten Yahukimo, Papua","Kabupaten Yahukimo, Papua",PAPUA,,Indonesia,81342458989,,,-48.583.743,1.394.840.727,https://maps.google.com/?cid=0x0:0x885cb92b83c231a8,
building materials,building materials,Suator,"Kabupaten Asmat, Papua","Kabupaten Asmat, Papua",PAPUA,,Indonesia,,,,-51.911.556,139.284.143,https://maps.google.com/?cid=0x0:0xb29915cc9bf8f2a6,
building materials,Toko Bahan Bangunan,kios enny nur cemenes,"Jl. Dermaga Baru, Bis Agats, Distrik Agats, Kabupaten Asmat, Papua 99777","Bis Agats, Distrik Agats, Kabupaten Asmat",PAPUA,99777.0,Indonesia,81343209941,,,-55.305.575,1.381.406.968,https://maps.google.com/?cid=0x0:0xf058fc25a2aab75,
building materials,Kontraktor Penebangan Kayu,TOKO CAHAYA BONE AGATS,"Jl. Dermaga Baru, Bis Agats, Distrik Agats, Kabupaten Asmat, Papua 99777","Bis Agats, Distrik Agats, Kabupaten Asmat",PAPUA,99777.0,Indonesia,,,,-55.261.749,138.139.991,https://maps.google.com/?cid=0x0:0xdcf195d2090d9d79,
building materials,Toko Bahan Bangunan,PT. Golden Roof Polymer,"Jl. Raya Serang No.KM. 27, Sentul Jaya, Kec. Balaraja, Kabupaten Tangerang, Banten 15610","Sentul Jaya, Kec. Balaraja, Kabupaten Tangerang",PAPUA,15610.0,Indonesia,2159574777,,,-62.174.573,1.064.415.014,https://maps.google.com/?cid=0x0:0xe6d4cb8b4b6c1e19,
building materials,Produsen,Pabrik Wood Pellet Bogor,"Mekarsari, Kec. Cileungsi, Kabupaten Bogor, Jawa Barat 16820","Kec. Cileungsi, Kabupaten Bogor",PAPUA,16820.0,Indonesia,87779183654,,,-63.976.891,1.070.058.238,https://maps.google.com/?cid=0x0:0xae6f01c67ed024fa,
building materials,Toko Tegel,Jubin BMS Klang,"No. 105, Jalan Batu Tiga Lama, Off, Exit Persiaran Sultan Ibrahim, 41300 Klang, Selangor, Malaysia",Klang,PAPUA,41300.0,Indonesia,60333443493,,,30.524.792,1.014.599.112,https://maps.google.com/?cid=0x0:0x74e00a2994cf9a,
building materials,Toko Tegel,Jubin BMS (Klang) Sdn Bhd- Meru,"Lot 5079, Jln Meru, Batu 5 1/2, 41050 Klang, Selangor, Malaysia",Klang,PAPUA,41050.0,Indonesia,60333937811,,,31.116.654,1.014.422.169,https://maps.google.com/?cid=0x0:0xe716f1fc59252478,
building materials,Pelabuhan,Karangantu,"Banten, Kec. Kasemen, Kota Serang, Banten 42191","Kec. Kasemen, Kota Serang",PAPUA,42191.0,Indonesia,,,,-60.390.612,1.061.619.101,https://maps.google.com/?cid=0x0:0x2a6e72ea64180fd4,
building materials,building materials,Toko 123,"Massi, Kec. Dekai, Kabupaten Yahukimo, Papua 99571","Kec. Dekai, Kabupaten Yahukimo",PAPUA,99571.0,Indonesia,,,,-48.631.301,1.394.852.643,https://maps.google.com/?cid=0x0:0xe8aa471015c39dac,
building materials,Pemotongan Kayu,Kantor kaca PT.SWPI,"Tim, Awunawai, Distrik Yapen Timur, Kabupaten Kepulauan Yapen, Papua 98252","Awunawai, Distrik Yapen Timur, Kabupaten Kepulauan Yapen",PAPUA,98252.0,Indonesia,,,,-18.226.475,1.367.595.672,https://maps.google.com/?cid=0x0:0xce8e51c2e764af51,
building materials,Pemasok kayu lapis,PPIC PT SWPI,"5QH7+642, Awunawai, Distrik Yapen Timur, Kabupaten Kepulauan Yapen, Papua 98252","Awunawai, Distrik Yapen Timur, Kabupaten Kepulauan Yapen",PAPUA,98252.0,Indonesia,,,,-18.219.843,1.367.627.575,https://maps.google.com/?cid=0x0:0x21d070a7214c7ec0,
building materials,Bengkel Mobil,BENGKEL M.AB.AR,"5QG4+XH7, Awunawai, Distrik Yapen Timur, Kabupaten Kepulauan Yapen, Papua 98252","Awunawai, Distrik Yapen Timur, Kabupaten Kepulauan Yapen",PAPUA,98252.0,Indonesia,,,,-18.224.504,1.367.576.891,https://maps.google.com/?cid=0x0:0xc6ca782424f0ea4b,
building materials,building materials,Papua 99766,Papua,Papua,PAPUA,,Indonesia,,,,-52.037.329,1.394.466.005,https://maps.google.com/?cid=0x0:0xd6fdff385c07ba5d,
building materials,Grosir bahan konstruksi,UD. UNGGUL JAYA SEJAHTERA (HANDOKO),"Massi, Kec. Dekai, Kabupaten Yahukimo, Papua 99571","Kec. Dekai, Kabupaten Yahukimo",PAPUA,99571.0,Indonesia,82198805354,,,-48.651.736,1.394.852.562,https://maps.google.com/?cid=0x0:0x5dec7d0c36ca1db3,
building materials,Toko Swalayan,TOKO TALAGA MANDIRI,"Jln. Baliem, Massi, Kec. Dekai, Kabupaten Yahukimo, Papua 99702","Massi, Kec. Dekai, Kabupaten Yahukimo",PAPUA,99702.0,Indonesia,,,,-48.683.345,1.394.792.246,https://maps.google.com/?cid=0x0:0xf2142421622a7ed4,
building materials,Toko Bahan Bangunan,UD HIKMAJAYA,"Jl. Kali Bonto Jl. Paradiso, Massi, Kec. Dekai, Kabupaten Yahukimo, Papua","Kabupaten Yahukimo, Papua",PAPUA,,Indonesia,81342458989,,,-48.583.743,1.394.840.727,https://maps.google.com/?cid=0x0:0x885cb92b83c231a8,
building materials,Toko Cat,Toko Bangunan Abid Sejahtera - Waisai,"Jl. Jend. Sudirman No.30, Waisai, Distrik Kota Waisai, Kabupaten Raja Ampat, Papua Bar. 98482","Waisai, Distrik Kota Waisai, Kabupaten Raja Ampat",PAPUA,98482.0,Indonesia,82248014806,,,-0.4206038,1.308.216.501,https://maps.google.com/?cid=0x0:0x635cf5cb88ebe389,
building materials,Toko Bahan Bangunan,Toko bangunan abadi 2,"HRGF+HG5, Waisai, Kec. Waigeo Sel., Kabupaten Raja Ampat, Papua Bar. 98482","Waisai, Kec. Waigeo Sel., Kabupaten Raja Ampat",PAPUA,98482.0,Indonesia,82175242539,,,-0.4236212,1.308.238.502,https://maps.google.com/?cid=0x0:0xb39b3321d3629975,
building materials,building materials,Kolf Braza,"Kabupaten Asmat, Papua","Kabupaten Asmat, Papua",PAPUA,,Indonesia,,,,-52.017.018,1.390.009.403,https://maps.google.com/?cid=0x0:0x51fb460a334e5e21,
building materials,building materials,Distrik Unir Sirau,"Kabupaten Asmat, Papua","Kabupaten Asmat, Papua",PAPUA,,Indonesia,,,,-50.625.971,1.385.625.099,https://maps.google.com/?cid=0x0:0x18822be845d37aca,
building materials,building materials,Papua 99777,"Kabupaten Asmat, Papua","Kabupaten Asmat, Papua",PAPUA,,Indonesia,,,,-54.613.838,1.381.995.591,https://maps.google.com/?cid=0x0:0x8e1d4401ddfcedae,
building materials,Toko Bahan Bangunan,kios enny nur cemenes,"Jl. Dermaga Baru, Bis Agats, Distrik Agats, Kabupaten Asmat, Papua 99777","Bis Agats, Distrik Agats, Kabupaten Asmat",PAPUA,99777.0,Indonesia,81343209941,,,-55.305.575,1.381.406.968,https://maps.google.com/?cid=0x0:0xf058fc25a2aab75,
building materials,Kontraktor Penebangan Kayu,TOKO CAHAYA BONE AGATS,"Jl. Dermaga Baru, Bis Agats, Distrik Agats, Kabupaten Asmat, Papua 99777","Bis Agats, Distrik Agats, Kabupaten Asmat",PAPUA,99777.0,Indonesia,,,,-55.261.749,138.139.991,https://maps.google.com/?cid=0x0:0xdcf195d2090d9d79,
building materials,building materials,Distrik Joerat,"Kabupaten Asmat, Papua","Kabupaten Asmat, Papua",PAPUA,,Indonesia,,,,-54.922.847,1.380.855.542,https://maps.google.com/?cid=0x0:0xda3d3ca2262ba8b7,
building materials,building materials,Distrik Joerat,"Kabupaten Asmat, Papua","Kabupaten Asmat, Papua",PAPUA,,Indonesia,,,,-54.922.847,1.380.855.542,https://maps.google.com/?cid=0x0:0xda3d3ca2262ba8b7,
building materials,Toko Bahan Bangunan,kios enny nur cemenes,"Jl. Dermaga Baru, Bis Agats, Distrik Agats, Kabupaten Asmat, Papua 99777","Bis Agats, Distrik Agats, Kabupaten Asmat",PAPUA,99777.0,Indonesia,81343209941,,,-55.305.575,1.381.406.968,https://maps.google.com/?cid=0x0:0xf058fc25a2aab75,
building materials,Kontraktor Penebangan Kayu,TOKO CAHAYA BONE AGATS,"Jl. Dermaga Baru, Bis Agats, Distrik Agats, Kabupaten Asmat, Papua 99777","Bis Agats, Distrik Agats, Kabupaten Asmat",PAPUA,99777.0,Indonesia,,,,-55.261.749,138.139.991,https://maps.google.com/?cid=0x0:0xdcf195d2090d9d79,
building materials,Toko Bahan Bangunan,toko bangunan Yep'Mum,"4Q38+6C4, Jl. Garuda, Arso Kota, Kec. Arso, Kabupaten Keerom, Papua 99468","Jl. Garuda, Arso Kota, Kec. Arso, Kabupaten Keerom",PAPUA,99468.0,Indonesia,85244664394,,,-28.970.308,1.407.661.616,https://maps.google.com/?cid=0x0:0x9649c22840d7e67e,
building materials,Toko Bahan Bangunan,Tiptore Building Material,"Jl. Poros Kuda Mati, Klp. Lima, Kec. Merauke, Kabupaten Merauke, Papua 99616","Klp. Lima, Kec. Merauke, Kabupaten Merauke",PAPUA,99616.0,Indonesia,82293657714,,,-85.061.763,1.404.257.632,https://maps.google.com/?cid=0x0:0xbf132c61e5517b30,
building materials,building materials,Toko Artajaya Bangunan (AJB),"Jl Protokol, Koya Bar., Kec. Muara Tami, Kota Jayapura, Papua","Kota Jayapura, Papua",PAPUA,,Indonesia,,,,-26.598.126,1.408.048.505,https://maps.google.com/?cid=0x0:0xbfefccb7ae22a578,
building materials,Toko Bahan Bangunan,"Papua Bangunan, CV PAPUA ABADI","Jl. Basuki Rahmat No.780, Klawuyuk, Distrik Sorong Timur, Kota Sorong, Papua Bar. 98416","Klawuyuk, Distrik Sorong Timur, Kota Sorong",PAPUA,98416.0,Indonesia,81332017550,,,-0.8954087,1.313.186.922,https://maps.google.com/?cid=0x0:0x851804bc3aa7f033,
building materials,Toko Swalayan,tokohbangunan,"F46R+R6G, Bis Agats, Distrik Agats, Kabupaten Asmat, Papua 99777","Bis Agats, Distrik Agats, Kabupaten Asmat",PAPUA,99777.0,Indonesia,,,,-55.375.809,138.140.389,https://maps.google.com/?cid=0x0:0x8b4e74def437b3e7,
building materials,building materials,CV. Cahaya Bone Jaya,"F4CQ+P94, Kampung Mbait, Distrik, Bis Agats, Distrik Agats, Kabupaten Asmat, Papua 99777","Kampung Mbait, Distrik, Bis Agats, Distrik Agats, Kabupaten Asmat",PAPUA,99777.0,Indonesia,85282074508,,,-5.528.234,138.138.453,https://maps.google.com/?cid=0x0:0x1267000c42982705,
building materials,building materials,Pulau Tiga,"Kabupaten Asmat, Papua","Kabupaten Asmat, Papua",PAPUA,,Indonesia,,,,-48.345.584,1.380.010.282,https://maps.google.com/?cid=0x0:0xfa037f42c2a610b2,
building materials,Toko Bahan Bangunan,Gudang Tigase Pratama,"Jl. Reremi Puncak, Manokwari Bar., Kec. Manokwari Bar., Kabupaten Manokwari, Papua Bar. 98312","Manokwari Bar., Kec. Manokwari Bar., Kabupaten Manokwari",PAPUA,98312.0,Indonesia,85397520354,,,-0.8495164,1.340.532.569,https://maps.google.com/?cid=0x0:0xb40a25d0c79962aa,
building materials,building materials,INDUSTRI PENGOLAHAN BATA MERAH CV. TIGA PUTRA BERSAUDARA,"QJ83+36P, Samabusa, Distrik Tlk. Kimi, Kabupaten Nabire, Papua 98818","Samabusa, Distrik Tlk. Kimi, Kabupaten Nabire",PAPUA,98818.0,Indonesia,,,,-32.347.973,1.356.030.721,https://maps.google.com/?cid=0x0:0x8bc9daaa5ecd7e2e,
building materials,Toko Bahan Bangunan,Matrial Toko Karya Selatan,"Jl. Duren Tiga Selatan No.53 8, RT.8/RW.3, Duren Tiga, Kec. Pancoran, Kota Jakarta Selatan, Daerah Khusus Ibukota Jakarta 12760","RT.8/RW.3, Duren Tiga, Kec. Pancoran, Kota Jakarta Selatan",PAPUA,12760.0,Indonesia,82156236162,,,-62.587.579,1.068.366.425,https://maps.google.com/?cid=0x0:0xf94fef3a93a10324,
building materials,Toko Bahan Bangunan,Tb. Tanjung Mas,"Jl. Petogogan I No.63, RT.8/RW.5, Pulo, Kec. Kby. Baru, Kota Jakarta Selatan, Daerah Khusus Ibukota Jakarta 12160","RT.8/RW.5, Pulo, Kec. Kby. Baru, Kota Jakarta Selatan",PAPUA,12160.0,Indonesia,8170080086,,,-62.539.765,1.067.942.732,https://maps.google.com/?cid=0x0:0x9e09b6e1dcd00c1d,
building materials,Toko,Toko Bangunan Tiga Makmur,"Jl. Sungai Landak, No:01A, RT:05 RW:008, Jkt Utara, Daerah Khusus Ibukota Jakarta 14120","No:01A, RT:05 RW:008, Jkt Utara",PAPUA,14120.0,Indonesia,81324766328,,,-61.036.031,1.069.394.124,https://maps.google.com/?cid=0x0:0x32266786af724f7b,
building materials,Toko Bahan Bangunan,Tiga Putra,"Jl. Raya Jagakarsa No.3, RT.2/RW.5, Jagakarsa, Kec. Jagakarsa, Kota Jakarta Selatan, Daerah Khusus Ibukota Jakarta 12620","RT.2/RW.5, Jagakarsa, Kec. Jagakarsa, Kota Jakarta Selatan",PAPUA,12620.0,Indonesia,,,,-63.265.262,10.682.008,https://maps.google.com/?cid=0x0:0xe4b3d1d8363a821c,
building materials,building materials,Papua 99778,Papua,Papua,PAPUA,,Indonesia,,,,-48.922.915,1.379.218.204,https://maps.google.com/?cid=0x0:0x7dad809947c0ba4d,
building materials,Toko Bahan Bangunan,Tiptore Building Material,"Jl. Poros Kuda Mati, Klp. Lima, Kec. Merauke, Kabupaten Merauke, Papua 99616","Klp. Lima, Kec. Merauke, Kabupaten Merauke",PAPUA,99616.0,Indonesia,82293657714,,,-85.061.763,1.404.257.632,https://maps.google.com/?cid=0x0:0xbf132c61e5517b30,
building materials,Toko Bahan Bangunan,kios enny nur cemenes,"Jl. Dermaga Baru, Bis Agats, Distrik Agats, Kabupaten Asmat, Papua 99777","Bis Agats, Distrik Agats, Kabupaten Asmat",PAPUA,99777.0,Indonesia,81343209941,,,-55.305.575,1.381.406.968,https://maps.google.com/?cid=0x0:0xf058fc25a2aab75,
building materials,building materials,Toko bangunan TIGA JAYA,"FF59+4VH, Doyo Baru, Distrik Waibu, Kabupaten Jayapura, Papua 99352","Doyo Baru, Distrik Waibu, Kabupaten Jayapura",PAPUA,99352.0,Indonesia,,,,-25.421.875,1.404.697.344,https://maps.google.com/?cid=0x0:0x7b08c7451597af20,
building materials,Kontraktor Penebangan Kayu,TOKO CAHAYA BONE AGATS,"Jl. Dermaga Baru, Bis Agats, Distrik Agats, Kabupaten Asmat, Papua 99777","Bis Agats, Distrik Agats, Kabupaten Asmat",PAPUA,99777.0,Indonesia,,,,-55.261.749,138.139.991,https://maps.google.com/?cid=0x0:0xdcf195d2090d9d79,
building materials,Perusahaan Konstruksi,Sinagma Golikme,"VWWM+JFM, Jl. Yos Sudarso, Hurekama, Distrik Wamena, Kabupaten Jayawijaya, Papua 99511","Jl. Yos Sudarso, Hurekama, Distrik Wamena, Kabupaten Jayawijaya",PAPUA,99511.0,Indonesia,81248143252,,,-41.034.146,1.389.336.799,https://maps.google.com/?cid=0x0:0xdb1dbf18c670d45d,
building materials,Toko Bahan Bangunan,Depo Bangunan Mbanyu Mili,"3VQM+2GP depan balai kampung sp 2, Prafi Mulia, Distrik Prafi, Kabupaten Manokwari, Papua Bar. 98356","Prafi Mulia, Distrik Prafi, Kabupaten Manokwari",PAPUA,98356.0,Indonesia,85254126242,,,-0.9124191,1.338.838.245,https://maps.google.com/?cid=0x0:0x72bb281db456c91a,
building materials,Toko Bahan Bangunan,Toko Bangunan Lam Jaya,"Jl. Kinbim Jl. Pyramid, Sinakma, Distrik Wamena, Kabupaten Jayawijaya, Papua 99511","Sinakma, Distrik Wamena, Kabupaten Jayawijaya",PAPUA,99511.0,Indonesia,81343009130,,,-41.028.104,1.389.290.314,https://maps.google.com/?cid=0x0:0x2d4d789ff9234f2e,
building materials,Kelompok Bermain,"TK ,Bintang utama","F46Q+8XH, Jl. Swamenas, Bis Agats, Distrik Agats, Kabupaten Asmat, Papua 99777","Jl. Swamenas, Bis Agats, Distrik Agats, Kabupaten Asmat",PAPUA,99777.0,Indonesia,,,,-55.391.783,1.381.399.947,https://maps.google.com/?cid=0x0:0x24b430743693ceab,
building materials,building materials,Pulau Tiga,"Kabupaten Asmat, Papua","Kabupaten Asmat, Papua",PAPUA,,Indonesia,,,,-48.345.584,1.380.010.282,https://maps.google.com/?cid=0x0:0xfa037f42c2a610b2,
building materials,building materials,INDUSTRI PENGOLAHAN BATA MERAH CV. TIGA PUTRA BERSAUDARA,"QJ83+36P, Samabusa, Distrik Tlk. Kimi, Kabupaten Nabire, Papua 98818","Samabusa, Distrik Tlk. Kimi, Kabupaten Nabire",PAPUA,98818.0,Indonesia,,,,-32.347.973,1.356.030.721,https://maps.google.com/?cid=0x0:0x8bc9daaa5ecd7e2e,
building materials,building materials,Pulau Tiga,"Sabah, Malaysia","Sabah, Malaysia",PAPUA,,Indonesia,,,,57.253.104,1.156.539.512,https://maps.google.com/?cid=0x0:0x8079bff4b0073ec3,
building materials,building materials,Jetsy,"Pau, Kabupaten Asmat, Papua","Kabupaten Asmat, Papua",PAPUA,,Indonesia,,,,-54.748.611,1.383.589.086,https://maps.google.com/?cid=0x0:0xce83e2f9037e268e,
building materials,building materials,Toko Artajaya Bangunan (AJB),"Jl Protokol, Koya Bar., Kec. Muara Tami, Kota Jayapura, Papua","Kota Jayapura, Papua",PAPUA,,Indonesia,,,,-26.598.126,1.408.048.505,https://maps.google.com/?cid=0x0:0xbfefccb7ae22a578,
building materials,Toko Bahan Bangunan,Mj jaya,"Jl. Polres Sentani No. 4, Doyo Baru, Walibu, Doyo Baru, Distrik Waibu, Kabupaten Jayapura, Papua 99352","Doyo Baru, Walibu, Doyo Baru, Distrik Waibu, Kabupaten Jayapura",PAPUA,99352.0,Indonesia,82225559371,,,-25.395.027,1.404.631.717,https://maps.google.com/?cid=0x0:0x5375d617a30d59eb,
building materials,Toko Bahan Bangunan,Tiptore Building Material,"Jl. Poros Kuda Mati, Klp. Lima, Kec. Merauke, Kabupaten Merauke, Papua 99616","Klp. Lima, Kec. Merauke, Kabupaten Merauke",PAPUA,99616.0,Indonesia,82293657714,,,-85.061.763,1.404.257.632,https://maps.google.com/?cid=0x0:0xbf132c61e5517b30,
building materials,Toko Bahan Bangunan,toko bangunan Yep'Mum,"4Q38+6C4, Jl. Garuda, Arso Kota, Kec. Arso, Kabupaten Keerom, Papua 99468","Jl. Garuda, Arso Kota, Kec. Arso, Kabupaten Keerom",PAPUA,99468.0,Indonesia,85244664394,,,-28.970.308,1.407.661.616,https://maps.google.com/?cid=0x0:0x9649c22840d7e67e,
building materials,Toko Bahan Bangunan,TOKO BAHAN BANGUNAN TRINITY HOME,"Jalan Baru Pasar Lama, Wahno, Kec. Abepura, Kota Jayapura, Papua 99224","Wahno, Kec. Abepura, Kota Jayapura",PAPUA,99224.0,Indonesia,81232337934,,,-25.958.248,1.406.809.957,https://maps.google.com/?cid=0x0:0x41c321d86b054228,
building materials,building materials,Chute Yard,"V4W3+WGP, Tembagapura, Kec. Tembagapura, Kabupaten Mimika, Papua 98972","Tembagapura, Kec. Tembagapura, Kabupaten Mimika",PAPUA,98972.0,Indonesia,,,,-41.026.633,1.371.038.151,https://maps.google.com/?cid=0x0:0xd206b2817121fe94,
building materials,Pemotongan Kayu,Kayu Somel,"CPQ5+XV7, Jl. Tasangkapura, Hamadi, Distrik Jayapura Selatan, Kota Jayapura, Papua","Kota Jayapura, Papua",PAPUA,,Indonesia,81344206726,,,-25.600.866,1.407.096.744,https://maps.google.com/?cid=0x0:0x43373a0a82b8f691,
building materials,Konstruksi,JISHAN BUILDING MATERIALS SUPPLIERS (M) SDN BHD,"42, Jalan Industri USJ 1/12, Taman Perindustrian Usj 1, 47600 Subang Jaya, Selangor, Malaysia",Subang Jaya,PAPUA,47600.0,Indonesia,60380810153,,,3.049.758,101.607.399,https://maps.google.com/?cid=0x0:0x358704d4b975d24c,
building materials,Toko Ponsel,Toko Jual/Beli,"Jalan Nenas No.mor 26, l, Ardipura, Distrik Jayapura Selatan, Kota Jayapura, Papua 99223","l, Ardipura, Distrik Jayapura Selatan, Kota Jayapura",PAPUA,99223.0,Indonesia,81248003388,,,-25.543.346,1.407.045.912,https://maps.google.com/?cid=0x0:0x652ece56b9c6799e,
building materials,Warnet,Arso 4 kab. keerom,"6H9M+M2G, Unnamed Road, Arsopura, Kec. Skanto, Kabupaten Keerom, Papua 99469","Unnamed Road, Arsopura, Kec. Skanto, Kabupaten Keerom",PAPUA,99469.0,Indonesia,82351289384,,,-27.808.134,1.405.825.805,https://maps.google.com/?cid=0x0:0x94fbf65e133558d0,
building materials,building materials,Yetsy,"Akat, Kabupaten Asmat, Papua","Kabupaten Asmat, Papua",PAPUA,,Indonesia,,,,-53.501.406,1.386.188.423,https://maps.google.com/?cid=0x0:0x933091abb6f8e384,
building materials,building materials,Toko Artajaya Bangunan (AJB),"Jl Protokol, Koya Bar., Kec. Muara Tami, Kota Jayapura, Papua","Kota Jayapura, Papua",PAPUA,,Indonesia,,,,-26.598.126,1.408.048.505,https://maps.google.com/?cid=0x0:0xbfefccb7ae22a578,
building materials,Toko Bahan Bangunan,Mj jaya,"Jl. Polres Sentani No. 4, Doyo Baru, Walibu, Doyo Baru, Distrik Waibu, Kabupaten Jayapura, Papua 99352","Doyo Baru, Walibu, Doyo Baru, Distrik Waibu, Kabupaten Jayapura",PAPUA,99352.0,Indonesia,82225559371,,,-25.395.027,1.404.631.717,https://maps.google.com/?cid=0x0:0x5375d617a30d59eb,
building materials,Toko Bahan Bangunan,Supermarket Multi Bangunan,"Jl Baru No.98, Wai Mhorock, Abepura, Jayapura City, Papua 99225","Wai Mhorock, Abepura, Jayapura City",PAPUA,99225.0,Indonesia,967588677,,,-26.077.336,1.406.742.812,https://maps.google.com/?cid=0x0:0x3b19f301c68f1d6f,
building materials,Toko Batu,UD.batu tela jasmin,"9Q9X+FQ2, Holtekam, Kec. Muara Tami, Kota Jayapura, Papua 99351","Holtekam, Kec. Muara Tami, Kota Jayapura",PAPUA,99351.0,Indonesia,82199273657,,,-26.313.723,1.407.994.043,https://maps.google.com/?cid=0x0:0xf63014fb3d633236,
building materials,Toko Bahan Bangunan,toko bangunan Yep'Mum,"4Q38+6C4, Jl. Garuda, Arso Kota, Kec. Arso, Kabupaten Keerom, Papua 99468","Jl. Garuda, Arso Kota, Kec. Arso, Kabupaten Keerom",PAPUA,99468.0,Indonesia,85244664394,,,-28.970.308,1.407.661.616,https://maps.google.com/?cid=0x0:0x9649c22840d7e67e,
building materials,Toko Bahan Bangunan,Tiptore Building Material,"Jl. Poros Kuda Mati, Klp. Lima, Kec. Merauke, Kabupaten Merauke, Papua 99616","Klp. Lima, Kec. Merauke, Kabupaten Merauke",PAPUA,99616.0,Indonesia,82293657714,,,-85.061.763,1.404.257.632,https://maps.google.com/?cid=0x0:0xbf132c61e5517b30,
building materials,building materials,Tempat pengambilan material batu  timbunan,"Samping bengkel ruko warna ijo, Expo depan mata, Jl. Belut 4, Kota Jayapura, Papua 99332","Expo depan mata, Jl. Belut 4, Kota Jayapura",PAPUA,99332.0,Indonesia,,,,-25.974.995,1.406.264.918,https://maps.google.com/?cid=0x0:0xb3f354393ac28aaf,
building materials,Toko Bahan Bangunan,Depo Bangunan Mbanyu Mili,"3VQM+2GP depan balai kampung sp 2, Prafi Mulia, Distrik Prafi, Kabupaten Manokwari, Papua Bar. 98356","Prafi Mulia, Distrik Prafi, Kabupaten Manokwari",PAPUA,98356.0,Indonesia,85254126242,,,-0.9124191,1.338.838.245,https://maps.google.com/?cid=0x0:0x72bb281db456c91a,
building materials,Toko Bahan Bangunan,TOKO BAHAN BANGUNAN TRINITY HOME,"Jalan Baru Pasar Lama, Wahno, Kec. Abepura, Kota Jayapura, Papua 99224","Wahno, Kec. Abepura, Kota Jayapura",PAPUA,99224.0,Indonesia,81232337934,,,-25.958.248,1.406.809.957,https://maps.google.com/?cid=0x0:0x41c321d86b054228,
building materials,building materials,Chute Yard,"V4W3+WGP, Tembagapura, Kec. Tembagapura, Kabupaten Mimika, Papua 98972","Tembagapura, Kec. Tembagapura, Kabupaten Mimika",PAPUA,98972.0,Indonesia,,,,-41.026.633,1.371.038.151,https://maps.google.com/?cid=0x0:0xd206b2817121fe94,
building materials,building materials,Jetsy,"Pau, Kabupaten Asmat, Papua","Kabupaten Asmat, Papua",PAPUA,,Indonesia,,,,-54.748.611,1.383.589.086,https://maps.google.com/?cid=0x0:0xce83e2f9037e268e,
building materials,Toko Bahan Bangunan,"Papua Bangunan, CV PAPUA ABADI","Jl. Basuki Rahmat No.780, Klawuyuk, Distrik Sorong Timur, Kota Sorong, Papua Bar. 98416","Klawuyuk, Distrik Sorong Timur, Kota Sorong",PAPUA,98416.0,Indonesia,81332017550,,,-0.8954087,1.313.186.922,https://maps.google.com/?cid=0x0:0x851804bc3aa7f033,
building materials,Toko Bahan Bangunan,Toko Bangunan Abadi,"4862+H2G, Malaingkedi, Kec. Sorong Utara, Kota Sorong, Papua Bar. 98412","Malaingkedi, Kec. Sorong Utara, Kota Sorong",PAPUA,98412.0,Indonesia,81248762864,,,-0.8885625,1.313.000.781,https://maps.google.com/?cid=0x0:0xa4c5e3d6e0f0bf2b,
building materials,building materials,Distrik Der Koumur,"Kabupaten Asmat, Papua","Kabupaten Asmat, Papua",PAPUA,,Indonesia,,,,-59.984.344,1.388.312.335,https://maps.google.com/?cid=0x0:0x22845df5d954f859,
building materials,building materials,CV. Badar Lestari,"Jl. Babakan Rw. Haur No.24, RT.2/RW.6, Sentul, Kec. Babakan Madang, Kabupaten Bogor, Jawa Barat 16810","RT.2/RW.6, Sentul, Kec. Babakan Madang, Kabupaten Bogor",PAPUA,16810.0,Indonesia,81382854015,,,-65.143.215,1.068.510.379,https://maps.google.com/?cid=0x0:0xf77f4beabaf916f6,
building materials,Toko Bahan Bangunan,"Papua Bangunan, CV PAPUA ABADI","Jl. Basuki Rahmat No.780, Klawuyuk, Distrik Sorong Timur, Kota Sorong, Papua Bar. 98416","Klawuyuk, Distrik Sorong Timur, Kota Sorong",PAPUA,98416.0,Indonesia,81332017550,,,-0.8954087,1.313.186.922,https://maps.google.com/?cid=0x0:0x851804bc3aa7f033,
building materials,Toko Bahan Bangunan,Toko Bangunan Abadi,"4862+H2G, Malaingkedi, Kec. Sorong Utara, Kota Sorong, Papua Bar. 98412","Malaingkedi, Kec. Sorong Utara, Kota Sorong",PAPUA,98412.0,Indonesia,81248762864,,,-0.8885625,1.313.000.781,https://maps.google.com/?cid=0x0:0xa4c5e3d6e0f0bf2b,
building materials,Toko Bahan Bangunan,Pandey Building Materials,"Shop No 1, Nh 28, Sasamusa-Banjaria Rd, Kuchaikote, Bihar 841505, India","Sasamusa-Banjaria Rd, Kuchaikote, Bihar",PAPUA,841505.0,Indonesia,"9,20E+11",,,2.653.216,843.540.731,https://maps.google.com/?cid=0x0:0xc7726f1e147eb499,
building materials,building materials,Papua 99773,"Distrik Pantai Kasuari, Kabupaten Asmat, Papua","Kabupaten Asmat, Papua",PAPUA,,Indonesia,,,,-63.217.958,1.386.388.879,https://maps.google.com/?cid=0x0:0x6ae3147f1b6c530a,
building materials,Toko Bahan Bangunan,"Papua Bangunan, CV PAPUA ABADI","Jl. Basuki Rahmat No.780, Klawuyuk, Distrik Sorong Timur, Kota Sorong, Papua Bar. 98416","Klawuyuk, Distrik Sorong Timur, Kota Sorong",PAPUA,98416.0,Indonesia,81332017550,,,-0.8954087,1.313.186.922,https://maps.google.com/?cid=0x0:0x851804bc3aa7f033,
building materials,Toko bahan makanan,DEPO MESIN N28  DEPO BANGUNAN,"Bunyom, Distrik Nimbokrang, Kabupaten Jayapura, Papua 99361","Distrik Nimbokrang, Kabupaten Jayapura",PAPUA,99361.0,Indonesia,85247266989,,,-25.571.645,1.401.086.582,https://maps.google.com/?cid=0x0:0xf97268af26927065,
building materials,Toko Bahan Bangunan,NASYA BANGUNAN,"X8M9+469, Jl. Nusa Indah, Mariyai, Distrik Mariat, Kabupaten Sorong, Papua Bar. 98415","Jl. Nusa Indah, Mariyai, Distrik Mariat, Kabupaten Sorong",PAPUA,98415.0,Indonesia,,,,-10.172.176,1.313.181.156,https://maps.google.com/?cid=0x0:0x19e47aadec85996d,
building materials,Toko Bahan Bangunan,Padma Bangunan,"Wai Mhorock, Kec. Abepura, Kota Jayapura, Papua 99225","Kec. Abepura, Kota Jayapura",PAPUA,99225.0,Indonesia,9675180108,,,-26.096.427,1.406.725.314,https://maps.google.com/?cid=0x0:0x908e38e219cfc28,
building materials,Toko Bahan Bangunan,Supermarket Multi Bangunan,"Jl Baru No.98, Wai Mhorock, Abepura, Jayapura City, Papua 99225","Wai Mhorock, Abepura, Jayapura City",PAPUA,99225.0,Indonesia,967588677,,,-26.077.336,1.406.742.812,https://maps.google.com/?cid=0x0:0x3b19f301c68f1d6f,
building materials,building materials,Safan,"Kabupaten Asmat, Papua","Kabupaten Asmat, Papua",PAPUA,,Indonesia,,,,-62.032.097,1.384.387.577,https://maps.google.com/?cid=0x0:0x3238b610bc8f2584,
building materials,Toko Bahan Bangunan,Toko Bangunan Difian,"Bumi Wonorejo, Distrik Nabire, Kabupaten Nabire, Papua 98813","Distrik Nabire, Kabupaten Nabire",PAPUA,98813.0,Indonesia,"8,124E+11",,,-34.008.216,1.354.801.451,https://maps.google.com/?cid=0x0:0x9973da42063f154,
building materials,building materials,Toko Bangunan Syafa Syifa,"8Q8V+9FM, Jl. Poros, Koya Bar., Kec. Muara Tami, Kota Jayapura, Papua 99351","Jl. Poros, Koya Bar., Kec. Muara Tami, Kota Jayapura",PAPUA,99351.0,Indonesia,,,,-26.840.461,1.407.936.855,https://maps.google.com/?cid=0x0:0xc15ce48541e8af16,
building materials,building materials,Toko Bangunan Safa Sifa,"8RM3+2Q6, Unnamed Road, Koya Bar., Kec. Muara Tami, Kota Jayapura, Papua 99351","Unnamed Road, Koya Bar., Kec. Muara Tami, Kota Jayapura",PAPUA,99351.0,Indonesia,,,,-2.667.465,140.804.404,https://maps.google.com/?cid=0x0:0x709bd9a269513d53,
building materials,Toko Bahan Bangunan,KEMENANGAN JAYA BANDUNG,"Jl. Surapati No.120, Cihaur Geulis, Kec. Cibeunying Kaler, Kota Bandung, Jawa Barat 40122","Cihaur Geulis, Kec. Cibeunying Kaler, Kota Bandung",PAPUA,40122.0,Indonesia,81215434983,,,-6.898.853,1.076.318.624,https://maps.google.com/?cid=0x0:0xd6698791215bf880,
building materials,Toko Bahan Bangunan,Al Safa Building Material Trading,67GF+874 - D90 - Al Satwa - Dubai - Uni Emirat Arab,Dubai - Uni Emirat Arab,PAPUA,,Indonesia,97143310438,,,25.225.764,55.273.194,https://maps.google.com/?cid=0x0:0xef0915586058cce7,
building materials,Toko Bahan Bangunan,Toko bangunan safa,"XQG4+438, Tanjung Kemuning, Kec. Belitang II, Kabupaten Ogan Komering Ulu Timur, Sumatera Selatan","Kabupaten Ogan Komering Ulu Timur, Sumatera Selatan",PAPUA,,Indonesia,85768004321,,,-40.247.197,1.047.552.128,https://maps.google.com/?cid=0x0:0x650c81bf2f7c1a34,
building materials,Toko Perlengkapan Rumah,ZAMA interior,"3MR4+X8Q, Pringlangu, Kec. Pekalongan Bar., Kota Pekalongan, Jawa Tengah 51117","Pringlangu, Kec. Pekalongan Bar., Kota Pekalongan",PAPUA,51117.0,Indonesia,85642884303,,,-69.075.131,1.096.558.456,https://maps.google.com/?cid=0x0:0xc44d171aea997159,
building materials,Toko Kayu,JAGAL KAYU TULUNGAGUNG,"2W8X+W69, Sumber, Pojok, Kec. Ngantru, Kabupaten Tulungagung, Jawa Timur 66252","Sumber, Pojok, Kec. Ngantru, Kabupaten Tulungagung",PAPUA,66252.0,Indonesia,85706994444,,,-79.828.793,1.119.480.735,https://maps.google.com/?cid=0x0:0xa92a8f6d24f4275c,
building materials,Kantor Perusahaan,BAJA LESTARI,"Jl. Seruni No.29, Tappanjeng, Kec. Bantaeng, Kabupaten Bantaeng, Sulawesi Selatan 92451","Tappanjeng, Kec. Bantaeng, Kabupaten Bantaeng",PAPUA,92451.0,Indonesia,81354933333,,,-55.456.146,1.199.439.238,https://maps.google.com/?cid=0x0:0xeca8fedbc91f4d88,
building materials,Gudang Peralatan,FAJAR GUNA MARMER,"Gg. H.Sabar No.18, RT.001/RW.002, Kenanga, Kec. Cipondoh, Kota Tangerang, Banten 15146","RT.001/RW.002, Kenanga, Kec. Cipondoh, Kota Tangerang",PAPUA,15146.0,Indonesia,82260215854,,,-61.967.537,1.066.805.838,https://maps.google.com/?cid=0x0:0x6f202368a6079d5a,
building materials,building materials,Distrik Ayip,"Kabupaten Asmat, Papua","Kabupaten Asmat, Papua",PAPUA,,Indonesia,,,,-59.254.896,1.386.319.781,https://maps.google.com/?cid=0x0:0x8e66166709e21012,
building materials,Toko Bahan Bangunan,Bahan Bangunan  Sparepart DIPAJAYA,"Jl. Perintis, Bumi Wonorejo, Distrik Nabire, Kabupaten Nabire, Papua 98813","Bumi Wonorejo, Distrik Nabire, Kabupaten Nabire",PAPUA,98813.0,Indonesia,85242353535,,,-33.901.568,1.354.882.999,https://maps.google.com/?cid=0x0:0x2e1f4e55f23f8c6f,
building materials,Toko Bahan Bangunan,toko bangunan Yep'Mum,"4Q38+6C4, Jl. Garuda, Arso Kota, Kec. Arso, Kabupaten Keerom, Papua 99468","Jl. Garuda, Arso Kota, Kec. Arso, Kabupaten Keerom",PAPUA,99468.0,Indonesia,85244664394,,,-28.970.308,1.407.661.616,https://maps.google.com/?cid=0x0:0x9649c22840d7e67e,
building materials,Toko Bahan Bangunan,Depo Bangunan Mbanyu Mili,"3VQM+2GP depan balai kampung sp 2, Prafi Mulia, Distrik Prafi, Kabupaten Manokwari, Papua Bar. 98356","Prafi Mulia, Distrik Prafi, Kabupaten Manokwari",PAPUA,98356.0,Indonesia,85254126242,,,-0.9124191,1.338.838.245,https://maps.google.com/?cid=0x0:0x72bb281db456c91a,
building materials,Toko Bahan Bangunan,Supermarket Multi Bangunan,"Jl Baru No.98, Wai Mhorock, Abepura, Jayapura City, Papua 99225","Wai Mhorock, Abepura, Jayapura City",PAPUA,99225.0,Indonesia,967588677,,,-26.077.336,1.406.742.812,https://maps.google.com/?cid=0x0:0x3b19f301c68f1d6f,
building materials,building materials,Toko Artajaya Bangunan (AJB),"Jl Protokol, Koya Bar., Kec. Muara Tami, Kota Jayapura, Papua","Kota Jayapura, Papua",PAPUA,,Indonesia,,,,-26.598.126,1.408.048.505,https://maps.google.com/?cid=0x0:0xbfefccb7ae22a578,
building materials,Toko,Toko ajb,"Jln inpres urfas, Kemon Jaya Sp V, Kec. Urei Faisei, Kabupaten Waropen, Papua 98663","Kemon Jaya Sp V, Kec. Urei Faisei, Kabupaten Waropen",PAPUA,98663.0,Indonesia,82399530919,,,-2.209.432,136.415.572,https://maps.google.com/?cid=0x0:0x9d727fa236c3e1d6,
building materials,Toko Perlengkapan Rumah,ACP SEVEN  MARKS JAYAPURA,"Jl. Argapura No.88 F - G, Argapura, Distrik Jayapura Selatan, Kota Jayapura, Papua","Kota Jayapura, Papua",PAPUA,,Indonesia,81233620177,,,-25.508.521,1.407.136.131,https://maps.google.com/?cid=0x0:0xe8d92f3148489944,
building materials,Toko bahan makanan,Toko Inti Pembangunan,"Sawar, Kec. Sarmi, Kabupaten Sarmi, Papua 99373","Kec. Sarmi, Kabupaten Sarmi",PAPUA,99373.0,Indonesia,81286929260,,,-18.888.753,1.387.523.781,https://maps.google.com/?cid=0x0:0xc62de493673b96c9,
building materials,Toko Bahan Bangunan,Tiptore Building Material,"Jl. Poros Kuda Mati, Klp. Lima, Kec. Merauke, Kabupaten Merauke, Papua 99616","Klp. Lima, Kec. Merauke, Kabupaten Merauke",PAPUA,99616.0,Indonesia,82293657714,,,-85.061.763,1.404.257.632,https://maps.google.com/?cid=0x0:0xbf132c61e5517b30,
building materials,Toko Bahan Bangunan,Toko Arso Bangunan,"Jl. Garuda No.17, D, Yuwanain, Kec. Arso, Kabupaten Keerom, Papua 99468","D, Yuwanain, Kec. Arso, Kabupaten Keerom",PAPUA,99468.0,Indonesia,82199906967,,,-29.009.028,1.407.566.149,https://maps.google.com/?cid=0x0:0xd6c7fd0a6c50c3ab,
building materials,building materials,Waropen,"QC54+M74, Nonomi, Kec. Waropen Bawah, Kabupaten Waropen, Papua 98261","Nonomi, Kec. Waropen Bawah, Kabupaten Waropen",PAPUA,98261.0,Indonesia,,,,-22.408.669,1.364.057.026,https://maps.google.com/?cid=0x0:0x939ec7ca3f88c5d2,
building materials,Toko Bahan Bangunan,Horukie Toko Bangunan,"R38J+883 Wa Toko T??-89T3-T541 kami, Fandoi, Kec. Biak Kota, Kabupaten Biak Numfor, Papua 98111","Fandoi, Kec. Biak Kota, Kabupaten Biak Numfor",PAPUA,98111.0,Indonesia,81344944374,,,-11.842.375,1.360.807.969,https://maps.google.com/?cid=0x0:0x9ef95c0249a63970,
building materials,Pemotongan Kayu,Kantor kaca PT.SWPI,"Tim, Awunawai, Distrik Yapen Timur, Kabupaten Kepulauan Yapen, Papua 98252","Awunawai, Distrik Yapen Timur, Kabupaten Kepulauan Yapen",PAPUA,98252.0,Indonesia,,,,-18.226.475,1.367.595.672,https://maps.google.com/?cid=0x0:0xce8e51c2e764af51,
building materials,Toko Bahan Bangunan,Pridia Toko Bangunan,"Jl. Raya Kemiri, Hinekombe, Kec. Sentani, Kabupaten Jayapura, Papua 99352","Hinekombe, Kec. Sentani, Kabupaten Jayapura",PAPUA,99352.0,Indonesia,967593251,,,-25.652.582,140.506.106,https://maps.google.com/?cid=0x0:0xb1cbda9c54716314,
building materials,Toko Perlengkapan Rumah,Batu bata kilo 8,"C7J9+FHC, Jl. Irian Kepi, Kepi, Kec. Obaa, Kabupaten Mappi, Papua 99881","Jl. Irian Kepi, Kepi, Kec. Obaa, Kabupaten Mappi",PAPUA,99881.0,Indonesia,,,,-65.681.291,1.392.685.456,https://maps.google.com/?cid=0x0:0x8c512660faed3c63,
building materials,building materials,Papua 99776,"Atsy, Kabupaten Asmat, Papua","Kabupaten Asmat, Papua",PAPUA,,Indonesia,,,,-5.544.638,1.387.995.122,https://maps.google.com/?cid=0x0:0xc82d6e8c35882d4e,
building materials,Toko Bahan Bangunan,kios enny nur cemenes,"Jl. Dermaga Baru, Bis Agats, Distrik Agats, Kabupaten Asmat, Papua 99777","Bis Agats, Distrik Agats, Kabupaten Asmat",PAPUA,99777.0,Indonesia,81343209941,,,-55.305.575,1.381.406.968,https://maps.google.com/?cid=0x0:0xf058fc25a2aab75,
building materials,Kontraktor Penebangan Kayu,TOKO CAHAYA BONE AGATS,"Jl. Dermaga Baru, Bis Agats, Distrik Agats, Kabupaten Asmat, Papua 99777","Bis Agats, Distrik Agats, Kabupaten Asmat",PAPUA,99777.0,Indonesia,,,,-55.261.749,138.139.991,https://maps.google.com/?cid=0x0:0xdcf195d2090d9d79,
building materials,Toko Bahan Bangunan,Supermarket Multi Bangunan,"Jl Baru No.98, Wai Mhorock, Abepura, Jayapura City, Papua 99225","Wai Mhorock, Abepura, Jayapura City",PAPUA,99225.0,Indonesia,967588677,,,-26.077.336,1.406.742.812,https://maps.google.com/?cid=0x0:0x3b19f301c68f1d6f,
building materials,Toko Bahan Bangunan,"Papua Bangunan, CV PAPUA ABADI","Jl. Basuki Rahmat No.780, Klawuyuk, Distrik Sorong Timur, Kota Sorong, Papua Bar. 98416","Klawuyuk, Distrik Sorong Timur, Kota Sorong",PAPUA,98416.0,Indonesia,81332017550,,,-0.8954087,1.313.186.922,https://maps.google.com/?cid=0x0:0x851804bc3aa7f033,
building materials,Pemotongan Kayu,Kantor kaca PT.SWPI,"Tim, Awunawai, Distrik Yapen Timur, Kabupaten Kepulauan Yapen, Papua 98252","Awunawai, Distrik Yapen Timur, Kabupaten Kepulauan Yapen",PAPUA,98252.0,Indonesia,,,,-18.226.475,1.367.595.672,https://maps.google.com/?cid=0x0:0xce8e51c2e764af51,
building materials,Kelompok Bermain,"TK ,Bintang utama","F46Q+8XH, Jl. Swamenas, Bis Agats, Distrik Agats, Kabupaten Asmat, Papua 99777","Jl. Swamenas, Bis Agats, Distrik Agats, Kabupaten Asmat",PAPUA,99777.0,Indonesia,,,,-55.391.783,1.381.399.947,https://maps.google.com/?cid=0x0:0x24b430743693ceab,
building materials,Konsultan Bangunan,PHOMI Indonesia,"Golf Island, Ruko Paladium Golf Island Blok G No. 18-19, North Jakarta City, Jakarta 14460","Ruko Paladium Golf Island Blok G No. 18-19, North Jakarta City",PAPUA,14460.0,Indonesia,81288873232,,,-60.919.903,106.747.711,https://maps.google.com/?cid=0x0:0x11c3565952dd9e43,
building materials,Toko Bahan Bangunan,Optima,"FCR2+RPJ, Jl. Raya Mandala, Mandala, Kec. Merauke, Kabupaten Merauke, Papua 99615","Jl. Raya Mandala, Mandala, Kec. Merauke, Kabupaten Merauke",PAPUA,99615.0,Indonesia,,,,-85.079.058,1.404.017.668,https://maps.google.com/?cid=0x0:0x1f6ecf2372c263ce,
building materials,Desainer interior,Phodi Studio,"Kav DKI 152 no A12, RT.14/RW.2, Meruya Sel., Kec. Kembangan, Kota Jakarta Barat, Daerah Khusus Ibukota Jakarta 11650","RT.14/RW.2, Meruya Sel., Kec. Kembangan, Kota Jakarta Barat",PAPUA,11650.0,Indonesia,811886437,,,-62.138.444,1.067.323.105,https://maps.google.com/?cid=0x0:0xf00570f0420c5845,
building materials,building materials,CV. Cahaya Bone Jaya,"F4CQ+P94, Kampung Mbait, Distrik, Bis Agats, Distrik Agats, Kabupaten Asmat, Papua 99777","Kampung Mbait, Distrik, Bis Agats, Distrik Agats, Kabupaten Asmat",PAPUA,99777.0,Indonesia,85282074508,,,-5.528.234,138.138.453,https://maps.google.com/?cid=0x0:0x1267000c42982705,
building materials,Kontraktor Penebangan Kayu,TOKO CAHAYA BONE AGATS,"Jl. Dermaga Baru, Bis Agats, Distrik Agats, Kabupaten Asmat, Papua 99777","Bis Agats, Distrik Agats, Kabupaten Asmat",PAPUA,99777.0,Indonesia,,,,-55.261.749,138.139.991,https://maps.google.com/?cid=0x0:0xdcf195d2090d9d79,
building materials,Toko Bahan Bangunan,Bambu dan balok kalapa Abah jamsari,"Dekat, Jl. Raya Kronjo, Sukamulya, Kec. Sukamulya, Kabupaten Tangerang, Banten 15610","Jl. Raya Kronjo, Sukamulya, Kec. Sukamulya, Kabupaten Tangerang",PAPUA,15610.0,Indonesia,85776076014,,,-61.453.384,1.064.227.926,https://maps.google.com/?cid=0x0:0x15df7edccdbe6e26,
toko bangunan,toko bangunan,Papua 99777,"Kabupaten Asmat, Papua","Kabupaten Asmat, Papua",PAPUA,,Indonesia,,,,-54.613.838,1.381.995.591,https://maps.google.com/?cid=0x0:0x8e1d4401ddfcedae,
toko bangunan,Kontraktor Penebangan Kayu,TOKO CAHAYA BONE AGATS,"Jl. Dermaga Baru, Bis Agats, Distrik Agats, Kabupaten Asmat, Papua 99777","Bis Agats, Distrik Agats, Kabupaten Asmat",PAPUA,99777.0,Indonesia,,,,-55.261.749,138.139.991,https://maps.google.com/?cid=0x0:0xdcf195d2090d9d79,
toko bangunan,Toko Bahan Bangunan,kios enny nur cemenes,"Jl. Dermaga Baru, Bis Agats, Distrik Agats, Kabupaten Asmat, Papua 99777","Bis Agats, Distrik Agats, Kabupaten Asmat",PAPUA,99777.0,Indonesia,81343209941,,,-55.305.575,1.381.406.968,https://maps.google.com/?cid=0x0:0xf058fc25a2aab75,
toko bangunan,Kelompok Bermain,"TK ,Bintang utama","F46Q+8XH, Jl. Swamenas, Bis Agats, Distrik Agats, Kabupaten Asmat, Papua 99777","Jl. Swamenas, Bis Agats, Distrik Agats, Kabupaten Asmat",PAPUA,99777.0,Indonesia,,,,-55.391.783,1.381.399.947,https://maps.google.com/?cid=0x0:0x24b430743693ceab,
toko bangunan,Toko Swalayan,tokohbangunan,"F46R+R6G, Bis Agats, Distrik Agats, Kabupaten Asmat, Papua 99777","Bis Agats, Distrik Agats, Kabupaten Asmat",PAPUA,99777.0,Indonesia,,,,-55.375.809,138.140.389,https://maps.google.com/?cid=0x0:0x8b4e74def437b3e7,
toko bangunan,toko bangunan,Agats,"Bis Agats, Distrik Agats, Kabupaten Asmat, Papua","Kabupaten Asmat, Papua",PAPUA,,Indonesia,,,,-5.535.626,138.121.359,https://maps.google.com/?cid=0x0:0xf1c37eeb196c76c9,
toko bangunan,toko bangunan,Atsy,"Atsy, Kabupaten Asmat, Papua","Kabupaten Asmat, Papua",PAPUA,,Indonesia,,,,-5.721.067,13.837.886,https://maps.google.com/?cid=0x0:0x563a7ef959cd1d9e,
toko bangunan,Kontraktor Penebangan Kayu,TOKO CAHAYA BONE AGATS,"Jl. Dermaga Baru, Bis Agats, Distrik Agats, Kabupaten Asmat, Papua 99777","Bis Agats, Distrik Agats, Kabupaten Asmat",PAPUA,99777.0,Indonesia,,,,-55.261.749,138.139.991,https://maps.google.com/?cid=0x0:0xdcf195d2090d9d79,
toko bangunan,toko bangunan,CV. Cahaya Bone Jaya,"F4CQ+P94, Kampung Mbait, Distrik, Bis Agats, Distrik Agats, Kabupaten Asmat, Papua 99777","Kampung Mbait, Distrik, Bis Agats, Distrik Agats, Kabupaten Asmat",PAPUA,99777.0,Indonesia,85282074508,,,-5.528.234,138.138.453,https://maps.google.com/?cid=0x0:0x1267000c42982705,
toko bangunan,toko bangunan,Papua 99778,Papua,Papua,PAPUA,,Indonesia,,,,-48.922.915,1.379.218.204,https://maps.google.com/?cid=0x0:0x7dad809947c0ba4d,
toko bangunan,toko bangunan,Sawa Erma,"Kabupaten Asmat, Papua","Kabupaten Asmat, Papua",PAPUA,,Indonesia,,,,-51.382.956,1.381.995.591,https://maps.google.com/?cid=0x0:0xa00408d29df1eb35,
toko bangunan,toko bangunan,Papua 99779,"Kabupaten Asmat, Papua","Kabupaten Asmat, Papua",PAPUA,,Indonesia,,,,-49.651.102,1.388.799.972,https://maps.google.com/?cid=0x0:0x21328fcdfe8f7ad3,
toko bangunan,Toko Bahan Bangunan,kios enny nur cemenes,"Jl. Dermaga Baru, Bis Agats, Distrik Agats, Kabupaten Asmat, Papua 99777","Bis Agats, Distrik Agats, Kabupaten Asmat",PAPUA,99777.0,Indonesia,81343209941,,,-55.305.575,1.381.406.968,https://maps.google.com/?cid=0x0:0xf058fc25a2aab75,
toko bangunan,Kontraktor Penebangan Kayu,TOKO CAHAYA BONE AGATS,"Jl. Dermaga Baru, Bis Agats, Distrik Agats, Kabupaten Asmat, Papua 99777","Bis Agats, Distrik Agats, Kabupaten Asmat",PAPUA,99777.0,Indonesia,,,,-55.261.749,138.139.991,https://maps.google.com/?cid=0x0:0xdcf195d2090d9d79,
toko bangunan,Toko Swalayan,TOKO TALAGA MANDIRI,"Jln. Baliem, Massi, Kec. Dekai, Kabupaten Yahukimo, Papua 99702","Massi, Kec. Dekai, Kabupaten Yahukimo",PAPUA,99702.0,Indonesia,,,,-48.683.345,1.394.792.246,https://maps.google.com/?cid=0x0:0xf2142421622a7ed4,
toko bangunan,Grosir bahan konstruksi,UD. UNGGUL JAYA SEJAHTERA (HANDOKO),"Massi, Kec. Dekai, Kabupaten Yahukimo, Papua 99571","Kec. Dekai, Kabupaten Yahukimo",PAPUA,99571.0,Indonesia,82198805354,,,-48.651.736,1.394.852.562,https://maps.google.com/?cid=0x0:0x5dec7d0c36ca1db3,
toko bangunan,Toko Perlengkapan Rumah,Toko Jaya Makmur,"F46J+FV3, Jl. Yos Sudarso, Bis Agats, Distrik Agats, Kabupaten Asmat, Papua 99777","Jl. Yos Sudarso, Bis Agats, Distrik Agats, Kabupaten Asmat",PAPUA,99777.0,Indonesia,,,,-55.388.679,1.381.321.739,https://maps.google.com/?cid=0x0:0x7fd06d69ff640d9,
toko bangunan,Toko Bahan Bangunan,Toko Central Bangunan / AMK,"Jl. Perikanan No.08, Hamadi, Distrik Jayapura Selatan, Kota Jayapura, Papua 99222","Hamadi, Distrik Jayapura Selatan, Kota Jayapura",PAPUA,99222.0,Indonesia,82261057928,,,-25.584.767,1.407.173.289,https://maps.google.com/?cid=0x0:0xcfdf592c00fbd20d,
toko bangunan,Kelompok Bermain,"TK ,Bintang utama","F46Q+8XH, Jl. Swamenas, Bis Agats, Distrik Agats, Kabupaten Asmat, Papua 99777","Jl. Swamenas, Bis Agats, Distrik Agats, Kabupaten Asmat",PAPUA,99777.0,Indonesia,,,,-55.391.783,1.381.399.947,https://maps.google.com/?cid=0x0:0x24b430743693ceab,
toko bangunan,Toko Bahan Bangunan,Toko AKBAR bangunan,"2W63+2XM, Dawaikunu, Distrik Mapia, Kabupaten Dogiyai, Papua","Kabupaten Dogiyai, Papua",PAPUA,,Indonesia,8161999912,,,-3.989.908,135.904.907,https://maps.google.com/?cid=0x0:0x54762d941a6ba240,
toko bangunan,Toko Bahan Bangunan,Toko Bangunan Tetus Papua,"CVFF+528, Jl. Budi Utomo, Nawaripi, Kec. Mimika Baru, Kabupaten Mimika, Papua","Kabupaten Mimika, Papua",PAPUA,,Indonesia,81344834492,,,-4.577.093,1.368.725.648,https://maps.google.com/?cid=0x0:0x70179859b1a22306,
toko bangunan,Toko Bahan Bangunan,Bahan Bangunan  Sparepart DIPAJAYA,"Jl. Perintis, Bumi Wonorejo, Distrik Nabire, Kabupaten Nabire, Papua 98813","Bumi Wonorejo, Distrik Nabire, Kabupaten Nabire",PAPUA,98813.0,Indonesia,85242353535,,,-33.901.568,1.354.882.999,https://maps.google.com/?cid=0x0:0x2e1f4e55f23f8c6f,
toko bangunan,Toko Swalayan,tokohbangunan,"F46R+R6G, Bis Agats, Distrik Agats, Kabupaten Asmat, Papua 99777","Bis Agats, Distrik Agats, Kabupaten Asmat",PAPUA,99777.0,Indonesia,,,,-55.375.809,138.140.389,https://maps.google.com/?cid=0x0:0x8b4e74def437b3e7,
toko bangunan,Toko Bahan Bangunan,Toko jaya 99,"Jalan Angsana 1 No.21 10 no WA, RT.10/RW.5, Pejaten Timur, Ps. Minggu, Kota Jakarta Selatan, Daerah Khusus Ibukota Jakarta 12510","RT.10/RW.5, Pejaten Timur, Ps. Minggu, Kota Jakarta Selatan",PAPUA,12510.0,Indonesia,81297099899,,,-62.722.841,1.068.479.864,https://maps.google.com/?cid=0x0:0xc4350d88bfb69ad3,
toko bangunan,Toko Bahan Bangunan,TB. Jaya 99,"Jl. Kalibata Timur Raya No.19, RT.4/RW.10, Kalibata, Kec. Pancoran, Kota Jakarta Selatan, Daerah Khusus Ibukota Jakarta 12740","RT.4/RW.10, Kalibata, Kec. Pancoran, Kota Jakarta Selatan",PAPUA,12740.0,Indonesia,81283779403,,,-6.261.889,1.068.519.797,https://maps.google.com/?cid=0x0:0xbdaa3e4ae5f399ef,
toko bangunan,toko bangunan,Papua 99782,"Kabupaten Asmat, Papua","Kabupaten Asmat, Papua",PAPUA,,Indonesia,,,,-60.419.322,1.384.787.258,https://maps.google.com/?cid=0x0:0x95c8a9b5775eb359,
toko bangunan,toko bangunan,Distrik Fayit,"Kabupaten Asmat, Papua","Kabupaten Asmat, Papua",PAPUA,,Indonesia,,,,-60.610.672,1.383.835.427,https://maps.google.com/?cid=0x0:0x4b1b5304d72076e5,
toko bangunan,Kontraktor Penebangan Kayu,TOKO CAHAYA BONE AGATS,"Jl. Dermaga Baru, Bis Agats, Distrik Agats, Kabupaten Asmat, Papua 99777","Bis Agats, Distrik Agats, Kabupaten Asmat",PAPUA,99777.0,Indonesia,,,,-55.261.749,138.139.991,https://maps.google.com/?cid=0x0:0xdcf195d2090d9d79,
toko bangunan,Komplek perumahan,Kali Potong Comoro,"3JFJ+MXQ, Comoro, Distrik Ayip, Kabupaten Asmat, Papua 99782","Comoro, Distrik Ayip, Kabupaten Asmat",PAPUA,99782.0,Indonesia,,,,-59.257.973,1.386.324.768,https://maps.google.com/?cid=0x0:0x749f58f0e173e21e,
toko bangunan,Kontraktor Penebangan Kayu,TOKO CAHAYA BONE AGATS,"Jl. Dermaga Baru, Bis Agats, Distrik Agats, Kabupaten Asmat, Papua 99777","Bis Agats, Distrik Agats, Kabupaten Asmat",PAPUA,99777.0,Indonesia,,,,-55.261.749,138.139.991,https://maps.google.com/?cid=0x0:0xdcf195d2090d9d79,
toko bangunan,toko bangunan,CV. Cahaya Bone Jaya,"F4CQ+P94, Kampung Mbait, Distrik, Bis Agats, Distrik Agats, Kabupaten Asmat, Papua 99777","Kampung Mbait, Distrik, Bis Agats, Distrik Agats, Kabupaten Asmat",PAPUA,99777.0,Indonesia,85282074508,,,-5.528.234,138.138.453,https://maps.google.com/?cid=0x0:0x1267000c42982705,
toko bangunan,toko bangunan,Papua 99766,Papua,Papua,PAPUA,,Indonesia,,,,-52.037.329,1.394.466.005,https://maps.google.com/?cid=0x0:0xd6fdff385c07ba5d,
toko bangunan,Toko Swalayan,TOKO TALAGA MANDIRI,"Jln. Baliem, Massi, Kec. Dekai, Kabupaten Yahukimo, Papua 99702","Massi, Kec. Dekai, Kabupaten Yahukimo",PAPUA,99702.0,Indonesia,,,,-48.683.345,1.394.792.246,https://maps.google.com/?cid=0x0:0xf2142421622a7ed4,
toko bangunan,Grosir bahan konstruksi,UD. UNGGUL JAYA SEJAHTERA (HANDOKO),"Massi, Kec. Dekai, Kabupaten Yahukimo, Papua 99571","Kec. Dekai, Kabupaten Yahukimo",PAPUA,99571.0,Indonesia,82198805354,,,-48.651.736,1.394.852.562,https://maps.google.com/?cid=0x0:0x5dec7d0c36ca1db3,
toko bangunan,toko bangunan,Toko 123,"Massi, Kec. Dekai, Kabupaten Yahukimo, Papua 99571","Kec. Dekai, Kabupaten Yahukimo",PAPUA,99571.0,Indonesia,,,,-48.631.301,1.394.852.643,https://maps.google.com/?cid=0x0:0xe8aa471015c39dac,
toko bangunan,Toko Bahan Bangunan,kios enny nur cemenes,"Jl. Dermaga Baru, Bis Agats, Distrik Agats, Kabupaten Asmat, Papua 99777","Bis Agats, Distrik Agats, Kabupaten Asmat",PAPUA,99777.0,Indonesia,81343209941,,,-55.305.575,1.381.406.968,https://maps.google.com/?cid=0x0:0xf058fc25a2aab75,
toko bangunan,Kontraktor Penebangan Kayu,TOKO CAHAYA BONE AGATS,"Jl. Dermaga Baru, Bis Agats, Distrik Agats, Kabupaten Asmat, Papua 99777","Bis Agats, Distrik Agats, Kabupaten Asmat",PAPUA,99777.0,Indonesia,,,,-55.261.749,138.139.991,https://maps.google.com/?cid=0x0:0xdcf195d2090d9d79,
toko bangunan,toko bangunan,Suru-Suru,"Kabupaten Asmat, Papua","Kabupaten Asmat, Papua",PAPUA,,Indonesia,,,,-48.532.804,1.386.790.007,https://maps.google.com/?cid=0x0:0x5f6a1a0f0be715bf,
toko bangunan,toko bangunan,Toko Bangunan Ita Suroso,"Salunuk, Kec. Seruyan Raya, Kabupaten Seruyan, Kalimantan Tengah","Kabupaten Seruyan, Kalimantan Tengah",PAPUA,,Indonesia,82150353835,,,-24.506.697,1.124.485.606,https://maps.google.com/?cid=0x0:0x689552f48a80029c,
toko bangunan,toko bangunan,Papua 99766,Papua,Papua,PAPUA,,Indonesia,,,,-52.037.329,1.394.466.005,https://maps.google.com/?cid=0x0:0xd6fdff385c07ba5d,
toko bangunan,toko bangunan,Kolf Braza,"Kabupaten Asmat, Papua","Kabupaten Asmat, Papua",PAPUA,,Indonesia,,,,-52.017.018,1.390.009.403,https://maps.google.com/?cid=0x0:0x51fb460a334e5e21,
toko bangunan,Hotel Resor,Villa Braza,"72XJ+25X, Palasari, Kec. Cipanas, Kabupaten Cianjur, Jawa Barat 43253","Palasari, Kec. Cipanas, Kabupaten Cianjur",PAPUA,43253.0,Indonesia,87821836493,,,-67.023.752,107.030.493,https://maps.google.com/?cid=0x0:0x6817066f36756b54,
toko bangunan,toko bangunan,Distrik Unir Sirau,"Kabupaten Asmat, Papua","Kabupaten Asmat, Papua",PAPUA,,Indonesia,,,,-50.625.971,1.385.625.099,https://maps.google.com/?cid=0x0:0x18822be845d37aca,
toko bangunan,Toko Bahan Bangunan,TB CAHAYA SEJATI SIRAU,"Slori, Sirau, Kec. Kemranjen, Kabupaten Banyumas, Jawa Tengah 53194","Sirau, Kec. Kemranjen, Kabupaten Banyumas",PAPUA,53194.0,Indonesia,81327223272,,,-76.209.413,1.092.831.168,https://maps.google.com/?cid=0x0:0x43246b2d2d78ea81,
toko bangunan,Toko Bahan Bangunan,Aneka Sarana Bangunan,"Jl. Meruya Ilir Raya No.5, RT.5/RW.8, Srengseng, Kec. Kembangan, Kota Jakarta Barat, Daerah Khusus Ibukota Jakarta 11630","RT.5/RW.8, Srengseng, Kec. Kembangan, Kota Jakarta Barat",PAPUA,11630.0,Indonesia,215846937,,,-61.973.627,1.067.489.981,https://maps.google.com/?cid=0x0:0x72a7b7b86ad90b84,
toko bangunan,toko bangunan,Papua 99777,"Kabupaten Asmat, Papua","Kabupaten Asmat, Papua",PAPUA,,Indonesia,,,,-54.613.838,1.381.995.591,https://maps.google.com/?cid=0x0:0x8e1d4401ddfcedae,
toko bangunan,Kontraktor Penebangan Kayu,TOKO CAHAYA BONE AGATS,"Jl. Dermaga Baru, Bis Agats, Distrik Agats, Kabupaten Asmat, Papua 99777","Bis Agats, Distrik Agats, Kabupaten Asmat",PAPUA,99777.0,Indonesia,,,,-55.261.749,138.139.991,https://maps.google.com/?cid=0x0:0xdcf195d2090d9d79,
toko bangunan,Toko Bahan Bangunan,kios enny nur cemenes,"Jl. Dermaga Baru, Bis Agats, Distrik Agats, Kabupaten Asmat, Papua 99777","Bis Agats, Distrik Agats, Kabupaten Asmat",PAPUA,99777.0,Indonesia,81343209941,,,-55.305.575,1.381.406.968,https://maps.google.com/?cid=0x0:0xf058fc25a2aab75,
toko bangunan,Kelompok Bermain,"TK ,Bintang utama","F46Q+8XH, Jl. Swamenas, Bis Agats, Distrik Agats, Kabupaten Asmat, Papua 99777","Jl. Swamenas, Bis Agats, Distrik Agats, Kabupaten Asmat",PAPUA,99777.0,Indonesia,,,,-55.391.783,1.381.399.947,https://maps.google.com/?cid=0x0:0x24b430743693ceab,
toko bangunan,Toko Swalayan,tokohbangunan,"F46R+R6G, Bis Agats, Distrik Agats, Kabupaten Asmat, Papua 99777","Bis Agats, Distrik Agats, Kabupaten Asmat",PAPUA,99777.0,Indonesia,,,,-55.375.809,138.140.389,https://maps.google.com/?cid=0x0:0x8b4e74def437b3e7,
toko bangunan,toko bangunan,Distrik Joerat,"Kabupaten Asmat, Papua","Kabupaten Asmat, Papua",PAPUA,,Indonesia,,,,-54.922.847,1.380.855.542,https://maps.google.com/?cid=0x0:0xda3d3ca2262ba8b7,
toko bangunan,Toko Bahan Bangunan,Toko Bangunan Tetus Papua,"CVFF+528, Jl. Budi Utomo, Nawaripi, Kec. Mimika Baru, Kabupaten Mimika, Papua","Kabupaten Mimika, Papua",PAPUA,,Indonesia,81344834492,,,-4.577.093,1.368.725.648,https://maps.google.com/?cid=0x0:0x70179859b1a22306,
toko bangunan,Toko Bahan Bangunan,toko bangunan Yep'Mum,"4Q38+6C4, Jl. Garuda, Arso Kota, Kec. Arso, Kabupaten Keerom, Papua 99468","Jl. Garuda, Arso Kota, Kec. Arso, Kabupaten Keerom",PAPUA,99468.0,Indonesia,85244664394,,,-28.970.308,1.407.661.616,https://maps.google.com/?cid=0x0:0x9649c22840d7e67e,
toko bangunan,Toko,Toko Dua Sahabat/Jotun,"Jln. Trans Papua kilo 2, Kabupaten Boven Digoel","Kabupaten Boven Digoel, Papua",PAPUA,,Indonesia,,,,-60.959.217,1.403.245.587,https://maps.google.com/?cid=0x0:0xe788284fb59d6345,
toko bangunan,toko bangunan,Distrik Joerat,"Kabupaten Asmat, Papua","Kabupaten Asmat, Papua",PAPUA,,Indonesia,,,,-54.922.847,1.380.855.542,https://maps.google.com/?cid=0x0:0xda3d3ca2262ba8b7,
toko bangunan,Kontraktor Penebangan Kayu,TOKO CAHAYA BONE AGATS,"Jl. Dermaga Baru, Bis Agats, Distrik Agats, Kabupaten Asmat, Papua 99777","Bis Agats, Distrik Agats, Kabupaten Asmat",PAPUA,99777.0,Indonesia,,,,-55.261.749,138.139.991,https://maps.google.com/?cid=0x0:0xdcf195d2090d9d79,
toko bangunan,Toko Bahan Bangunan,kios enny nur cemenes,"Jl. Dermaga Baru, Bis Agats, Distrik Agats, Kabupaten Asmat, Papua 99777","Bis Agats, Distrik Agats, Kabupaten Asmat",PAPUA,99777.0,Indonesia,81343209941,,,-55.305.575,1.381.406.968,https://maps.google.com/?cid=0x0:0xf058fc25a2aab75,
toko bangunan,Toko Bahan Bangunan,Toko Bangunan Tetus Papua,"CVFF+528, Jl. Budi Utomo, Nawaripi, Kec. Mimika Baru, Kabupaten Mimika, Papua","Kabupaten Mimika, Papua",PAPUA,,Indonesia,81344834492,,,-4.577.093,1.368.725.648,https://maps.google.com/?cid=0x0:0x70179859b1a22306,
toko bangunan,Toko Bahan Bangunan,toko bangunan Yep'Mum,"4Q38+6C4, Jl. Garuda, Arso Kota, Kec. Arso, Kabupaten Keerom, Papua 99468","Jl. Garuda, Arso Kota, Kec. Arso, Kabupaten Keerom",PAPUA,99468.0,Indonesia,85244664394,,,-28.970.308,1.407.661.616,https://maps.google.com/?cid=0x0:0x9649c22840d7e67e,
toko bangunan,Toko Bahan Bangunan,Toko Bangunan Arso Jaya,"6Q35+6HV, Jl. Wijaya Kusuma, Arso I. / Sanggaria, Kec. Arso, Kabupaten Keerom, Papua 99468","Jl. Wijaya Kusuma, Arso I. / Sanggaria, Kec. Arso, Kabupaten Keerom",PAPUA,99468.0,Indonesia,85244068633,,,-27.968.972,1.407.589.213,https://maps.google.com/?cid=0x0:0x1bf911e0dc6cab7,
toko bangunan,Toko,Toko Dua Sahabat/Jotun,"Jln. Trans Papua kilo 2, Kabupaten Boven Digoel","Kabupaten Boven Digoel, Papua",PAPUA,,Indonesia,,,,-60.959.217,1.403.245.587,https://maps.google.com/?cid=0x0:0xe788284fb59d6345,
toko bangunan,Toko Perlengkapan Rumah,Toko Bangunan Alvi Jaya Indah,"4PFV+QH8, Asiaman, Kec. Arso, Kabupaten Keerom, Papua 99468","Asiaman, Kec. Arso, Kabupaten Keerom",PAPUA,99468.0,Indonesia,81231225453,,,-2.875.585,14.074.395,https://maps.google.com/?cid=0x0:0x4b6b4fd47483a8a6,
toko bangunan,Toko Bahan Bangunan,TOKO BANGUNAN RYSTER MULIA,"9MXG+G7R, Wai Mhorock, Kec. Abepura, Kota Jayapura, Papua 99225","Wai Mhorock, Kec. Abepura, Kota Jayapura",PAPUA,99225.0,Indonesia,85100115858,,,-26.011.446,1.406.756.371,https://maps.google.com/?cid=0x0:0x4886e2a9293c5411,
toko bangunan,Toko Bahan Bangunan,Toko Arso Bangunan,"Jl. Garuda No.17, D, Yuwanain, Kec. Arso, Kabupaten Keerom, Papua 99468","D, Yuwanain, Kec. Arso, Kabupaten Keerom",PAPUA,99468.0,Indonesia,82199906967,,,-29.009.028,1.407.566.149,https://maps.google.com/?cid=0x0:0xd6c7fd0a6c50c3ab,
toko bangunan,Toko Swalayan,tokohbangunan,"F46R+R6G, Bis Agats, Distrik Agats, Kabupaten Asmat, Papua 99777","Bis Agats, Distrik Agats, Kabupaten Asmat",PAPUA,99777.0,Indonesia,,,,-55.375.809,138.140.389,https://maps.google.com/?cid=0x0:0x8b4e74def437b3e7,
toko bangunan,Toko Bahan Bangunan,Toko Resky,"jalan poros, Kemon Jaya Sp V, Kec. Waropen Bawah, Kabupaten Waropen, Papua 98261","Kemon Jaya Sp V, Kec. Waropen Bawah, Kabupaten Waropen",PAPUA,98261.0,Indonesia,85394955553,,,-22.185.432,1.364.200.064,https://maps.google.com/?cid=0x0:0x356450f535852163,
toko bangunan,Toko Bahan Bangunan,"Papua Bangunan, CV PAPUA ABADI","Jl. Basuki Rahmat No.780, Klawuyuk, Distrik Sorong Timur, Kota Sorong, Papua Bar. 98416","Klawuyuk, Distrik Sorong Timur, Kota Sorong",PAPUA,98416.0,Indonesia,81332017550,,,-0.8954087,1.313.186.922,https://maps.google.com/?cid=0x0:0x851804bc3aa7f033,
toko bangunan,Toko Bahan Bangunan,Toko Jaya Bangunan,"Jalan Irian, Mariaderi, Kec. Yapen Sel., Kabupaten Kepulauan Yapen, Papua 98213","Mariaderi, Kec. Yapen Sel., Kabupaten Kepulauan Yapen",PAPUA,98213.0,Indonesia,,,,-18.785.266,1.362.266.312,https://maps.google.com/?cid=0x0:0x2b54bf2ee8c62869,
toko bangunan,Toko Cat,Toko Bangunan Abid Sejahtera - Waisai,"Jl. Jend. Sudirman No.30, Waisai, Distrik Kota Waisai, Kabupaten Raja Ampat, Papua Bar. 98482","Waisai, Distrik Kota Waisai, Kabupaten Raja Ampat",PAPUA,98482.0,Indonesia,82248014806,,,-0.4206038,1.308.216.501,https://maps.google.com/?cid=0x0:0x635cf5cb88ebe389,
toko bangunan,Toko Bahan Bangunan,Toko Multi Bangunan,"Q97H+9V2, Sarafambai, Kec. Waropen Bawah, Kabupaten Waropen, Papua 98261","Sarafambai, Kec. Waropen Bawah, Kabupaten Waropen",PAPUA,98261.0,Indonesia,,,,-22.366.153,1.363.796.343,https://maps.google.com/?cid=0x0:0x8fe10ca526096f47,
toko bangunan,Kelompok Bermain,"TK ,Bintang utama","F46Q+8XH, Jl. Swamenas, Bis Agats, Distrik Agats, Kabupaten Asmat, Papua 99777","Jl. Swamenas, Bis Agats, Distrik Agats, Kabupaten Asmat",PAPUA,99777.0,Indonesia,,,,-55.391.783,1.381.399.947,https://maps.google.com/?cid=0x0:0x24b430743693ceab,
toko bangunan,Toko Bahan Bangunan,Toko bangunan Artomoro,"8RG4+X6C, Unnamed Road, Koya Bar., Kec. Muara Tami, Kota Jayapura, Papua 99351","Unnamed Road, Koya Bar., Kec. Muara Tami, Kota Jayapura",PAPUA,99351.0,Indonesia,85244725735,,,-26.725.694,1.408.055.002,https://maps.google.com/?cid=0x0:0xefc17d6442f6cb7e,
toko bangunan,toko bangunan,Pulau Tiga,"Kabupaten Asmat, Papua","Kabupaten Asmat, Papua",PAPUA,,Indonesia,,,,-48.345.584,1.380.010.282,https://maps.google.com/?cid=0x0:0xfa037f42c2a610b2,
toko bangunan,toko bangunan,Pulau Tiga,"Kabupaten Natuna, Kepulauan Riau","Kabupaten Natuna, Kepulauan Riau",PAPUA,,Indonesia,,,,36.838.166,1.081.310.083,https://maps.google.com/?cid=0x0:0x38fc741bb7aaeef5,
toko bangunan,Toko Bahan Bangunan,NATUNA UTAMA,"Bandarsyah, Kec. Bunguran Tim., Kabupaten Natuna, Kepulauan Riau 29783","Kec. Bunguran Tim., Kabupaten Natuna",PAPUA,29783.0,Indonesia,,,,39.197.929,1.083.695.652,https://maps.google.com/?cid=0x0:0xd26873ae2735b0c1,
toko bangunan,Toko Bahan Bangunan,TOKO GYPSUM,"Ranai Kota, Kec. Bunguran Tim., Kabupaten Natuna, Kepulauan Riau","Kabupaten Natuna, Kepulauan Riau",PAPUA,,Indonesia,81267370183,,,393.539,1.083.733.255,https://maps.google.com/?cid=0x0:0x34d12e72c542050e,
toko bangunan,toko bangunan,Pulau Tiga,"Kabupaten Asmat, Papua","Kabupaten Asmat, Papua",PAPUA,,Indonesia,,,,-48.345.584,1.380.010.282,https://maps.google.com/?cid=0x0:0xfa037f42c2a610b2,
toko bangunan,Kontraktor Penebangan Kayu,TOKO CAHAYA BONE AGATS,"Jl. Dermaga Baru, Bis Agats, Distrik Agats, Kabupaten Asmat, Papua 99777","Bis Agats, Distrik Agats, Kabupaten Asmat",PAPUA,99777.0,Indonesia,,,,-55.261.749,138.139.991,https://maps.google.com/?cid=0x0:0xdcf195d2090d9d79,
toko bangunan,toko bangunan,CV. Cahaya Bone Jaya,"F4CQ+P94, Kampung Mbait, Distrik, Bis Agats, Distrik Agats, Kabupaten Asmat, Papua 99777","Kampung Mbait, Distrik, Bis Agats, Distrik Agats, Kabupaten Asmat",PAPUA,99777.0,Indonesia,85282074508,,,-5.528.234,138.138.453,https://maps.google.com/?cid=0x0:0x1267000c42982705,
toko bangunan,toko bangunan,Jetsy,"Pau, Kabupaten Asmat, Papua","Kabupaten Asmat, Papua",PAPUA,,Indonesia,,,,-54.748.611,1.383.589.086,https://maps.google.com/?cid=0x0:0xce83e2f9037e268e,
toko bangunan,Kontraktor Penebangan Kayu,TOKO CAHAYA BONE AGATS,"Jl. Dermaga Baru, Bis Agats, Distrik Agats, Kabupaten Asmat, Papua 99777","Bis Agats, Distrik Agats, Kabupaten Asmat",PAPUA,99777.0,Indonesia,,,,-55.261.749,138.139.991,https://maps.google.com/?cid=0x0:0xdcf195d2090d9d79,
toko bangunan,Toko Bahan Bangunan,kios enny nur cemenes,"Jl. Dermaga Baru, Bis Agats, Distrik Agats, Kabupaten Asmat, Papua 99777","Bis Agats, Distrik Agats, Kabupaten Asmat",PAPUA,99777.0,Indonesia,81343209941,,,-55.305.575,1.381.406.968,https://maps.google.com/?cid=0x0:0xf058fc25a2aab75,
toko bangunan,toko bangunan,Yetsy,"Akat, Kabupaten Asmat, Papua","Kabupaten Asmat, Papua",PAPUA,,Indonesia,,,,-53.501.406,1.386.188.423,https://maps.google.com/?cid=0x0:0x933091abb6f8e384,
toko bangunan,toko bangunan,Jetsy,"Pau, Kabupaten Asmat, Papua","Kabupaten Asmat, Papua",PAPUA,,Indonesia,,,,-54.748.611,1.383.589.086,https://maps.google.com/?cid=0x0:0xce83e2f9037e268e,
toko bangunan,Toko Bahan Bangunan,toko bangunan Azzam jy,"Jl. Batu Merah II, RT.6/RW.2, Pejaten Timur, Ps. Minggu, Kota Jakarta Selatan, Daerah Khusus Ibukota Jakarta 12510","RT.6/RW.2, Pejaten Timur, Ps. Minggu, Kota Jakarta Selatan",PAPUA,12510.0,Indonesia,,,,-62.633.255,106.849.173,https://maps.google.com/?cid=0x0:0xeae34dd2a6c15274,
toko bangunan,toko bangunan,Papua 99773,"Distrik Pantai Kasuari, Kabupaten Asmat, Papua","Kabupaten Asmat, Papua",PAPUA,,Indonesia,,,,-63.217.958,1.386.388.879,https://maps.google.com/?cid=0x0:0x6ae3147f1b6c530a,
toko bangunan,Toko Bahan Bangunan,kios enny nur cemenes,"Jl. Dermaga Baru, Bis Agats, Distrik Agats, Kabupaten Asmat, Papua 99777","Bis Agats, Distrik Agats, Kabupaten Asmat",PAPUA,99777.0,Indonesia,81343209941,,,-55.305.575,1.381.406.968,https://maps.google.com/?cid=0x0:0xf058fc25a2aab75,
toko bangunan,Kontraktor Penebangan Kayu,TOKO CAHAYA BONE AGATS,"Jl. Dermaga Baru, Bis Agats, Distrik Agats, Kabupaten Asmat, Papua 99777","Bis Agats, Distrik Agats, Kabupaten Asmat",PAPUA,99777.0,Indonesia,,,,-55.261.749,138.139.991,https://maps.google.com/?cid=0x0:0xdcf195d2090d9d79,
toko bangunan,toko bangunan,Distrik Kopay,"Kabupaten Asmat, Papua","Kabupaten Asmat, Papua",PAPUA,,Indonesia,,,,-63.403.464,1.386.589.406,https://maps.google.com/?cid=0x0:0x5df8c71ee5f607fd,
toko bangunan,toko bangunan,Papua 99773,"Distrik Pantai Kasuari, Kabupaten Asmat, Papua","Kabupaten Asmat, Papua",PAPUA,,Indonesia,,,,-63.217.958,1.386.388.879,https://maps.google.com/?cid=0x0:0x6ae3147f1b6c530a,
toko bangunan,toko bangunan,Safan,"Kabupaten Asmat, Papua","Kabupaten Asmat, Papua",PAPUA,,Indonesia,,,,-62.032.097,1.384.387.577,https://maps.google.com/?cid=0x0:0x3238b610bc8f2584,
toko bangunan,toko bangunan,Distrik Ayip,"Kabupaten Asmat, Papua","Kabupaten Asmat, Papua",PAPUA,,Indonesia,,,,-59.254.896,1.386.319.781,https://maps.google.com/?cid=0x0:0x8e66166709e21012,
toko bangunan,Toko Bahan Bangunan,Bahan Bangunan  Sparepart DIPAJAYA,"Jl. Perintis, Bumi Wonorejo, Distrik Nabire, Kabupaten Nabire, Papua 98813","Bumi Wonorejo, Distrik Nabire, Kabupaten Nabire",PAPUA,98813.0,Indonesia,85242353535,,,-33.901.568,1.354.882.999,https://maps.google.com/?cid=0x0:0x2e1f4e55f23f8c6f,
toko bangunan,Toko Bahan Bangunan,TOKO BANGUNAN DIKA JAYA,"Jl. Dermaga Aikai. Enarotali Distrik Paniai Timur Kabupaten Paniai. Papua, Aikai, Paniai Tim., Enarotali, Papua 98711","Aikai, Paniai Tim., Enarotali",PAPUA,98711.0,Indonesia,81935935177,,,-39.309.089,1.363.727.901,https://maps.google.com/?cid=0x0:0x814ba48a8059765f,
toko bangunan,Toko,Jaya Bangun Utama,"6GH9+VPV, Unnamed Road, Iriati, Distrik Wasior, Kabupaten Teluk Wondama, Papua Bar. 98362","Unnamed Road, Iriati, Distrik Wasior, Kabupaten Teluk Wondama",PAPUA,98362.0,Indonesia,85298357980,,,-27.702.528,1.345.193.086,https://maps.google.com/?cid=0x0:0x7b7706dc36edb6d8,
toko bangunan,Toko Bahan Bangunan,Toko Bangunan Arso Jaya,"6Q35+6HV, Jl. Wijaya Kusuma, Arso I. / Sanggaria, Kec. Arso, Kabupaten Keerom, Papua 99468","Jl. Wijaya Kusuma, Arso I. / Sanggaria, Kec. Arso, Kabupaten Keerom",PAPUA,99468.0,Indonesia,85244068633,,,-27.968.972,1.407.589.213,https://maps.google.com/?cid=0x0:0x1bf911e0dc6cab7,
toko bangunan,Komplek perumahan,Kali Potong Comoro,"3JFJ+MXQ, Comoro, Distrik Ayip, Kabupaten Asmat, Papua 99782","Comoro, Distrik Ayip, Kabupaten Asmat",PAPUA,99782.0,Indonesia,,,,-59.257.973,1.386.324.768,https://maps.google.com/?cid=0x0:0x749f58f0e173e21e,
toko bangunan,Pembangunan Perumahan,kali bw,"5MWC+GJ, Comoro, Distrik Ayip, Kabupaten Asmat, Papua","Kabupaten Asmat, Papua",PAPUA,,Indonesia,,,,-5.803.654,138.671.524,https://maps.google.com/?cid=0x0:0x67f9fd8933d5ad9c,
toko bangunan,Toko Bahan Bangunan,Toko Bahan Bangunan Hiap Miaw,"Jl. Dr. Saharjo No.13, RT.8/RW.5, Manggarai, Kec. Tebet, Kota Jakarta Selatan, Daerah Khusus Ibukota Jakarta 12850","RT.8/RW.5, Manggarai, Kec. Tebet, Kota Jakarta Selatan",PAPUA,12850.0,Indonesia,,,,-62.096.905,1.068.475.841,https://maps.google.com/?cid=0x0:0xb1f7f0704f73f3f,
toko bangunan,Toko Bahan Bangunan,Toko AJ Bahan Bangunan,"Jl. Nyimas Melati No.40, Pd. Kelor, Kec. Sepatan Tim., Kabupaten Tangerang, Banten 15520","Pd. Kelor, Kec. Sepatan Tim., Kabupaten Tangerang",PAPUA,15520.0,Indonesia,,,,-61.152.836,1.066.296.892,https://maps.google.com/?cid=0x0:0x6d6ecce957063387,
toko bangunan,Toko Bahan Bangunan,Toko Bangunan Andy Jaya (pekayon),"Jl. Raya Pekayon No.17, RT.002/RW.021, Pekayon Jaya, Kec. Bekasi Sel., Kota Bks, Jawa Barat 17148","RT.002/RW.021, Pekayon Jaya, Kec. Bekasi Sel., Kota Bks",PAPUA,17148.0,Indonesia,218200350,,,-62.637.915,1.069.865.299,https://maps.google.com/?cid=0x0:0x1af96da7d81b5829,
toko bangunan,Grosir Perlengkapan Rumah Tangga,Toko Awi (Rapipall Shop),"Jl. Arjuna No.16 Blok G9, RT.004/RW.037, Tlk. Pucung, Kec. Bekasi Utara, Kota Bks, Jawa Barat 17121","RT.004/RW.037, Tlk. Pucung, Kec. Bekasi Utara, Kota Bks",PAPUA,17121.0,Indonesia,82194301001,,,-62.000.882,1.070.255.759,https://maps.google.com/?cid=0x0:0xc1d38de3623029aa,
toko bangunan,toko bangunan,Papua 99776,"Atsy, Kabupaten Asmat, Papua","Kabupaten Asmat, Papua",PAPUA,,Indonesia,,,,-5.544.638,1.387.995.122,https://maps.google.com/?cid=0x0:0xc82d6e8c35882d4e,
toko bangunan,toko bangunan,Sirets,"Kabupaten Asmat, Papua","Kabupaten Asmat, Papua",PAPUA,,Indonesia,,,,-55.310.929,1.386.388.879,https://maps.google.com/?cid=0x0:0xa635d80a725c47,
toko bangunan,Kontraktor Penebangan Kayu,TOKO CAHAYA BONE AGATS,"Jl. Dermaga Baru, Bis Agats, Distrik Agats, Kabupaten Asmat, Papua 99777","Bis Agats, Distrik Agats, Kabupaten Asmat",PAPUA,99777.0,Indonesia,,,,-55.261.749,138.139.991,https://maps.google.com/?cid=0x0:0xdcf195d2090d9d79,
toko bangunan,Toko Cat,Toko Bangunan Abid Sejahtera - Waisai,"Jl. Jend. Sudirman No.30, Waisai, Distrik Kota Waisai, Kabupaten Raja Ampat, Papua Bar. 98482","Waisai, Distrik Kota Waisai, Kabupaten Raja Ampat",PAPUA,98482.0,Indonesia,82248014806,,,-0.4206038,1.308.216.501,https://maps.google.com/?cid=0x0:0x635cf5cb88ebe389,
toko bangunan,Komplek perumahan,Kali Potong Comoro,"3JFJ+MXQ, Comoro, Distrik Ayip, Kabupaten Asmat, Papua 99782","Comoro, Distrik Ayip, Kabupaten Asmat",PAPUA,99782.0,Indonesia,,,,-59.257.973,1.386.324.768,https://maps.google.com/?cid=0x0:0x749f58f0e173e21e,
toko bangunan,Toko Perlengkapan Rumah,Toko Jaya Makmur,"F46J+FV3, Jl. Yos Sudarso, Bis Agats, Distrik Agats, Kabupaten Asmat, Papua 99777","Jl. Yos Sudarso, Bis Agats, Distrik Agats, Kabupaten Asmat",PAPUA,99777.0,Indonesia,,,,-55.388.679,1.381.321.739,https://maps.google.com/?cid=0x0:0x7fd06d69ff640d9,
toko bangunan,Toko Bahan Bangunan,"Papua Bangunan, CV PAPUA ABADI","Jl. Basuki Rahmat No.780, Klawuyuk, Distrik Sorong Timur, Kota Sorong, Papua Bar. 98416","Klawuyuk, Distrik Sorong Timur, Kota Sorong",PAPUA,98416.0,Indonesia,81332017550,,,-0.8954087,1.313.186.922,https://maps.google.com/?cid=0x0:0x851804bc3aa7f033,
toko bangunan,Kelompok Bermain,"TK ,Bintang utama","F46Q+8XH, Jl. Swamenas, Bis Agats, Distrik Agats, Kabupaten Asmat, Papua 99777","Jl. Swamenas, Bis Agats, Distrik Agats, Kabupaten Asmat",PAPUA,99777.0,Indonesia,,,,-55.391.783,1.381.399.947,https://maps.google.com/?cid=0x0:0x24b430743693ceab,
toko bangunan,toko bangunan,Distrik Betcbamu,"Kabupaten Asmat, Papua","Kabupaten Asmat, Papua",PAPUA,,Indonesia,,,,-57.285.964,1.382.791.757,https://maps.google.com/?cid=0x0:0xa352aadb63fd6688,
toko bangunan,Kontraktor Penebangan Kayu,TOKO CAHAYA BONE AGATS,"Jl. Dermaga Baru, Bis Agats, Distrik Agats, Kabupaten Asmat, Papua 99777","Bis Agats, Distrik Agats, Kabupaten Asmat",PAPUA,99777.0,Indonesia,,,,-55.261.749,138.139.991,https://maps.google.com/?cid=0x0:0xdcf195d2090d9d79,
toko bangunan,Toko Bahan Bangunan,kios enny nur cemenes,"Jl. Dermaga Baru, Bis Agats, Distrik Agats, Kabupaten Asmat, Papua 99777","Bis Agats, Distrik Agats, Kabupaten Asmat",PAPUA,99777.0,Indonesia,81343209941,,,-55.305.575,1.381.406.968,https://maps.google.com/?cid=0x0:0xf058fc25a2aab75,
toko bangunan,Toko Bahan Bangunan,Toko Multi Bangunan,"Q97H+9V2, Sarafambai, Kec. Waropen Bawah, Kabupaten Waropen, Papua 98261","Sarafambai, Kec. Waropen Bawah, Kabupaten Waropen",PAPUA,98261.0,Indonesia,,,,-22.366.153,1.363.796.343,https://maps.google.com/?cid=0x0:0x8fe10ca526096f47,
toko bangunan,Toko Bahan Bangunan,"Papua Bangunan, CV PAPUA ABADI","Jl. Basuki Rahmat No.780, Klawuyuk, Distrik Sorong Timur, Kota Sorong, Papua Bar. 98416","Klawuyuk, Distrik Sorong Timur, Kota Sorong",PAPUA,98416.0,Indonesia,81332017550,,,-0.8954087,1.313.186.922,https://maps.google.com/?cid=0x0:0x851804bc3aa7f033,
toko bangunan,Toko Bahan Bangunan,Toko Bangunan Mutiara timur,"CJ3R+33F, Unnamed Road, Kp. Waena, Kec. Heram, Kota Jayapura, Papua 99225","Unnamed Road, Kp. Waena, Kec. Heram, Kota Jayapura",PAPUA,99225.0,Indonesia,,,,-25.973.134,1.406.401.625,https://maps.google.com/?cid=0x0:0x392e56b1342d758c,
toko bangunan,Toko Cat,Toko Bangunan Abid Sejahtera - Waisai,"Jl. Jend. Sudirman No.30, Waisai, Distrik Kota Waisai, Kabupaten Raja Ampat, Papua Bar. 98482","Waisai, Distrik Kota Waisai, Kabupaten Raja Ampat",PAPUA,98482.0,Indonesia,82248014806,,,-0.4206038,1.308.216.501,https://maps.google.com/?cid=0x0:0x635cf5cb88ebe389,
toko bangunan,Toko Bahan Bangunan,Supermarket Multi Bangunan,"Jl Baru No.98, Wai Mhorock, Abepura, Jayapura City, Papua 99225","Wai Mhorock, Abepura, Jayapura City",PAPUA,99225.0,Indonesia,967588677,,,-26.077.336,1.406.742.812,https://maps.google.com/?cid=0x0:0x3b19f301c68f1d6f,
toko bangunan,Toko Bahan Bangunan,Toko Bangunan Mamta Jaya,"Entrop, Distrik Jayapura Selatan, Kota Jayapura, Papua 99221","Distrik Jayapura Selatan, Kota Jayapura",PAPUA,99221.0,Indonesia,85198498008,,,-25.674.278,1.406.991.484,https://maps.google.com/?cid=0x0:0x2e3a73f71cf583d9,
toko bangunan,Toko Bahan Bangunan,Toko Central Bangunan / AMK,"Jl. Perikanan No.08, Hamadi, Distrik Jayapura Selatan, Kota Jayapura, Papua 99222","Hamadi, Distrik Jayapura Selatan, Kota Jayapura",PAPUA,99222.0,Indonesia,82261057928,,,-25.584.767,1.407.173.289,https://maps.google.com/?cid=0x0:0xcfdf592c00fbd20d,
toko bangunan,Toko Bahan Bangunan,Horukie Toko Bangunan,"R38J+883 Wa Toko T??-89T3-T541 kami, Fandoi, Kec. Biak Kota, Kabupaten Biak Numfor, Papua 98111","Fandoi, Kec. Biak Kota, Kabupaten Biak Numfor",PAPUA,98111.0,Indonesia,81344944374,,,-11.842.375,1.360.807.969,https://maps.google.com/?cid=0x0:0x9ef95c0249a63970,
toko bangunan,Toko Bahan Bangunan,Toko Bangunan USAHA JAYA,"Jln Raya Tanah Hitam, Asano, Abepura, Jayapura City, Papua 93351","Asano, Abepura, Jayapura City",PAPUA,93351.0,Indonesia,811482182,,,-26.176.324,140.683.841,https://maps.google.com/?cid=0x0:0xb6995fd87d51be7,
toko bangunan,Toko Bahan Bangunan,TOKO BAHAN BANGUNAN TRINITY HOME,"Jalan Baru Pasar Lama, Wahno, Kec. Abepura, Kota Jayapura, Papua 99224","Wahno, Kec. Abepura, Kota Jayapura",PAPUA,99224.0,Indonesia,81232337934,,,-25.958.248,1.406.809.957,https://maps.google.com/?cid=0x0:0x41c321d86b054228,
toko bangunan,Toko Perlengkapan Rumah,Toko Jarwal Bangunan,"Kamoro Jaya, Kec. Mimika Baru, Kabupaten Mimika, Papua 99971","Kec. Mimika Baru, Kabupaten Mimika",PAPUA,99971.0,Indonesia,,,,-45.656.564,1.368.718.615,https://maps.google.com/?cid=0x0:0x6cdc385accf4a8b,
toko bangunan,Pasar bahan bangunan,Toko Colours Bangunan Hamadi,"Jl. Amphibi, Hamadi, Distrik Jayapura Selatan, Kota Jayapura, Papua","Kota Jayapura, Papua",PAPUA,,Indonesia,85827622766,,,-25.646.794,1.407.103.928,https://maps.google.com/?cid=0x0:0xd4e4236a70db6e25,
toko bangunan,Toko Alat-Alat,Toko Bintang Kartika (Bangunan dan Alat-alat teknik),"Asano, Kec. Abepura, Kota Jayapura, Papua 99351","Kec. Abepura, Kota Jayapura",PAPUA,99351.0,Indonesia,81248299871,,,-26.160.666,1.406.801.787,https://maps.google.com/?cid=0x0:0x8b4cf020d19f2b0b,
toko bangunan,Toko Swalayan,tokohbangunan,"F46R+R6G, Bis Agats, Distrik Agats, Kabupaten Asmat, Papua 99777","Bis Agats, Distrik Agats, Kabupaten Asmat",PAPUA,99777.0,Indonesia,,,,-55.375.809,138.140.389,https://maps.google.com/?cid=0x0:0x8b4e74def437b3e7,
toko bangunan,Toko Bahan Bangunan,Padma Bangunan,"Wai Mhorock, Kec. Abepura, Kota Jayapura, Papua 99225","Kec. Abepura, Kota Jayapura",PAPUA,99225.0,Indonesia,9675180108,,,-26.096.427,1.406.725.314,https://maps.google.com/?cid=0x0:0x908e38e219cfc28,
toko bangunan,Toko Bahan Bangunan,Toko Sahabat Bangunan,"Sirnagalih, Kec. Tamansari, Kabupaten Bogor, Jawa Barat","Kabupaten Bogor, Jawa Barat",PAPUA,,Indonesia,,,,-66.353.226,1.067.757.627,https://maps.google.com/?cid=0x0:0xaa218aa4d5241d40,
hardware store,hardware store,Papua 99777,"Kabupaten Asmat, Papua","Kabupaten Asmat, Papua",PAPUA,,Indonesia,,,,-54.613.838,1.381.995.591,https://maps.google.com/?cid=0x0:0x8e1d4401ddfcedae,
hardware store,Kontraktor Penebangan Kayu,TOKO CAHAYA BONE AGATS,"Jl. Dermaga Baru, Bis Agats, Distrik Agats, Kabupaten Asmat, Papua 99777","Bis Agats, Distrik Agats, Kabupaten Asmat",PAPUA,99777.0,Indonesia,,,,-55.261.749,138.139.991,https://maps.google.com/?cid=0x0:0xdcf195d2090d9d79,
hardware store,Toko Swalayan,TOKO AS,"Bis Agats, Distrik Agats, Kabupaten Asmat, Papua 99777","Distrik Agats, Kabupaten Asmat",PAPUA,99777.0,Indonesia,82142690419,,,-5.533.439,1.381.377.653,https://maps.google.com/?cid=0x0:0x3a8cbc0f58759e0e,
hardware store,Toko Pakaian,Fashion Park,"F47V+GHX, Jl. Yapis, Bis Agats, Distrik Agats, Kabupaten Asmat, Papua 99777","Jl. Yapis, Bis Agats, Distrik Agats, Kabupaten Asmat",PAPUA,99777.0,Indonesia,85275652000,,,-55.361.493,1.381.439.716,https://maps.google.com/?cid=0x0:0xc267f671aa807c95,
hardware store,Pasar,Jln dolog,"F47Q+H7X, Bis Agats, Distrik Agats, Kabupaten Asmat, Papua 99777","Bis Agats, Distrik Agats, Kabupaten Asmat",PAPUA,99777.0,Indonesia,,,,-55.358.748,1.381.383.652,https://maps.google.com/?cid=0x0:0x6f1f105eb8d613a5,
hardware store,Toko Pakaian,Arshop Asmat,"Jl. Yapis, Bis Agats, Distrik Agats, Kabupaten Asmat, Papua 99777","Bis Agats, Distrik Agats, Kabupaten Asmat",PAPUA,99777.0,Indonesia,81248056332,,,-55.364.321,1.381.434.596,https://maps.google.com/?cid=0x0:0xd44e0978309c161d,
hardware store,hardware store,CV. Cahaya Bone Jaya,"F4CQ+P94, Kampung Mbait, Distrik, Bis Agats, Distrik Agats, Kabupaten Asmat, Papua 99777","Kampung Mbait, Distrik, Bis Agats, Distrik Agats, Kabupaten Asmat",PAPUA,99777.0,Indonesia,85282074508,,,-5.528.234,138.138.453,https://maps.google.com/?cid=0x0:0x1267000c42982705,
hardware store,Toko Bahan Bangunan,Casa Hardware,"575Q+7GR, Mount Hagen Western Highlands Province, Papua Nugini","Mount Hagen, Papua Nugini",PAPUA,,Indonesia,,,,-58.417.722,144.288.756,https://maps.google.com/?cid=0x0:0x5572b0cd99723bb6,
hardware store,Toko Perlengkapan Rumah,Hardware Haus,"46PG+8P9, Highlands Hwy, Mount Hagen Western Highlands Province, Papua Nugini","Mount Hagen, Papua Nugini",PAPUA,,Indonesia,67573880325,,,-58.642.066,1.442.268.657,https://maps.google.com/?cid=0x0:0x76e2d5c7034f0bfa,
hardware store,hardware store,Atsy,"Atsy, Kabupaten Asmat, Papua","Kabupaten Asmat, Papua",PAPUA,,Indonesia,,,,-5.721.067,13.837.886,https://maps.google.com/?cid=0x0:0x563a7ef959cd1d9e,
hardware store,hardware store,Papua 99778,Papua,Papua,PAPUA,,Indonesia,,,,-48.922.915,1.379.218.204,https://maps.google.com/?cid=0x0:0x7dad809947c0ba4d,
hardware store,hardware store,Sawa Erma,"Kabupaten Asmat, Papua","Kabupaten Asmat, Papua",PAPUA,,Indonesia,,,,-51.382.956,1.381.995.591,https://maps.google.com/?cid=0x0:0xa00408d29df1eb35,
hardware store,Toko Swalayan,TOKO TALAGA MANDIRI,"Jln. Baliem, Massi, Kec. Dekai, Kabupaten Yahukimo, Papua 99702","Massi, Kec. Dekai, Kabupaten Yahukimo",PAPUA,99702.0,Indonesia,,,,-48.683.345,1.394.792.246,https://maps.google.com/?cid=0x0:0xf2142421622a7ed4,
hardware store,Toko Bahan Bangunan,TALAGA BIRU,"Massi, Kec. Dekai, Kabupaten Yahukimo, Papua 99571","Kec. Dekai, Kabupaten Yahukimo",PAPUA,99571.0,Indonesia,,,,-4.860.599,1.394.835.358,https://maps.google.com/?cid=0x0:0x64b2298b182a7f93,
hardware store,Toko Buku,Eureka! Bookhouse,"Jl. Raya Poncol No.36 8 9, RT.8/RW.9, Susukan, Kec. Ciracas, Kota Jakarta Timur, Daerah Khusus Ibukota Jakarta 13750","RT.8/RW.9, Susukan, Kec. Ciracas, Kota Jakarta Timur",PAPUA,13750.0,Indonesia,2187796010,,,-63.215.728,1.068.704.805,https://maps.google.com/?cid=0x0:0x813b317eb97a4d7b,
hardware store,Taman,Eureka,"No., Jl. Raya Poncol No.5, RT.9/RW.9, Ciracas, Kec. Ciracas, Kota Jakarta Timur, Daerah Khusus Ibukota Jakarta 13740","Jl. Raya Poncol No.5, RT.9/RW.9, Ciracas, Kec. Ciracas, Kota Jakarta Timur",PAPUA,13740.0,Indonesia,,,,-6.322.851,10.687.013,https://maps.google.com/?cid=0x0:0xaba31f5f0391bced,
hardware store,Toko Perlengkapan Rumah,AZKO Kota Kasablanka,"Kota Kasablanka, Jl. Raya Casablanca No.88, RT.16/RW.5, Menteng Dalam, Kec. Tebet, Kota Jakarta Selatan, Daerah Khusus Ibukota Jakarta 12870","Jl. Raya Casablanca No.88, RT.16/RW.5, Menteng Dalam, Kec. Tebet, Kota Jakarta Selatan",PAPUA,12870.0,Indonesia,85781411671,,,-62.222.965,1.068.423.884,https://maps.google.com/?cid=0x0:0x93342bf0e4ddbcb0,
hardware store,Toko Perlengkapan Rumah,Azko Radio Dalam,"Jl. Radio Dalam Raya No.17B 10, RT.10/RW.1, Gandaria Utara, Kec. Kby. Baru, Kota Jakarta Selatan, Daerah Khusus Ibukota Jakarta 12140","RT.10/RW.1, Gandaria Utara, Kec. Kby. Baru, Kota Jakarta Selatan",PAPUA,12140.0,Indonesia,81584851025,,,-6.251.579,106.791.724,https://maps.google.com/?cid=0x0:0x923642051933a42b,
hardware store,Toko Ponsel,AKA OFFICIAL STORE,"Jl. Mangga Besar IV/A No.4 8, RT.8/RW.1, Taman Sari, Kec. Taman Sari, Kota Jakarta Barat, Daerah Khusus Ibukota Jakarta 11150","RT.8/RW.1, Taman Sari, Kec. Taman Sari, Kota Jakarta Barat",PAPUA,11150.0,Indonesia,81808657448,,,-61.498.582,1.068.239.813,https://maps.google.com/?cid=0x0:0xc1e545d1d0322b41,
hardware store,Toko Komputer,Ace Computindo Computer,"JL Raya Regency 1 Blok EF No. 12-14, RT.003/RW.002, Periuk, Kota Tangerang, Banten 15131","RT.003/RW.002, Periuk, Kota Tangerang",PAPUA,15131.0,Indonesia,81386631738,,,-61.702.893,106.596.953,https://maps.google.com/?cid=0x0:0xf7d5d29b60a78c1a,
hardware store,Toko Komputer,Javindo Computer,"Harco Mangga Dua Plaza Lt.1 Blok A.12 Jalan Mangga Dua Raya No.12 RT.17/RW.11 RT.11, RT.17/RW.5, Mangga Dua Sel., Kec. Pademangan, Jkt Utara, Daerah Khusus Ibukota Jakarta 10730","RT.17/RW.5, Mangga Dua Sel., Kec. Pademangan, Jkt Utara",PAPUA,10730.0,Indonesia,216122365,,,-61.390.307,1.068.291.382,https://maps.google.com/?cid=0x0:0x6b4a72a8f956d00b,
hardware store,Pusat Perbelanjaan,Toko Handuk,"Blk. A, ITC MANGGA DUA, Jalan Arteri Jl. Mangga Dua Raya No.98 LT 3, RT.11/RW.5, Ancol, Kec. Pademangan, Jkt Utara, Daerah Khusus Ibukota Jakarta 14430","ITC MANGGA DUA, Jalan Arteri Jl. Mangga Dua Raya No.98 LT 3, RT.11/RW.5, Ancol, Kec. Pademangan, Jkt Utara",PAPUA,14430.0,Indonesia,2162300545,,,-61.342.457,106.827.596,https://maps.google.com/?cid=0x0:0x1c7d2f487dc450d0,
hardware store,Pusat Perbelanjaan,Akastra Toyota,"Jalan Raya Kebayoran Lama No.26, Palmerah, VII, RT.1/RW.2, North Sukabumi, Kebonjeruk, West Jakarta City, Jakarta 11540","Palmerah, VII, RT.1/RW.2, North Sukabumi, Kebonjeruk, West Jakarta City",PAPUA,11540.0,Indonesia,215347177,,,-62.103.535,1.067.833.774,https://maps.google.com/?cid=0x0:0x4466de73e8f6a0e5,
hardware store,Toko Komputer,Finel Computer Bintaro - Jakarta,"Jl. Rempoa Raya No.4, RT.4/RW.13, Bintaro, Kec. Pesanggrahan, Selatan, Daerah Khusus Ibukota Jakarta 15412","RT.4/RW.13, Bintaro, Kec. Pesanggrahan, Selatan",PAPUA,15412.0,Indonesia,82124923544,,,-62.843.218,1.067.609.166,https://maps.google.com/?cid=0x0:0x3a8b158a484bca81,
hardware store,Toko Bahan Bangunan,Badili Hardware,"Klinki Street, Off Waigani Drive, Port Moresby, Papua Nugini","Port Moresby, Papua Nugini",PAPUA,,Indonesia,6753037200,,,-9.448.217,147.182.907,https://maps.google.com/?cid=0x0:0x575627342c3422aa,
hardware store,Toko Bahan Bangunan,Hardware Haus Depot,"G5WP+PRX, Port Moresby National Capital District, Papua Nugini","Port Moresby, Papua Nugini",PAPUA,,Indonesia,67579254555,,,-9.453.144,1.471.871.122,https://maps.google.com/?cid=0x0:0x90af1a4bb255158c,
hardware store,Toko Bahan Bangunan,Hardware Clothing,"Rukan Gading Indah, Blok V9-12, RT.18/RW.8, Klp. Gading Bar., Kec. Klp. Gading, Jkt Utara, Daerah Khusus Ibukota Jakarta 12930","Blok V9-12, RT.18/RW.8, Klp. Gading Bar., Kec. Klp. Gading, Jkt Utara",PAPUA,12930.0,Indonesia,2125539858,,,-6.149.231,106.896.942,https://maps.google.com/?cid=0x0:0x488fdb7f986cd389,
hardware store,hardware store,Distrik Pantai Kasuari,"Kabupaten Asmat, Papua","Kabupaten Asmat, Papua",PAPUA,,Indonesia,,,,-62.184.287,138.598.804,https://maps.google.com/?cid=0x0:0x1b4529030e9094c,
hardware store,Toko Bahan Bangunan,Casa Hardware,"575Q+7GR, Mount Hagen Western Highlands Province, Papua Nugini","Mount Hagen, Papua Nugini",PAPUA,,Indonesia,,,,-58.417.722,144.288.756,https://maps.google.com/?cid=0x0:0x5572b0cd99723bb6,
hardware store,Toko Perlengkapan Rumah,Hardware Haus,"46PG+8P9, Highlands Hwy, Mount Hagen Western Highlands Province, Papua Nugini","Mount Hagen, Papua Nugini",PAPUA,,Indonesia,67573880325,,,-58.642.066,1.442.268.657,https://maps.google.com/?cid=0x0:0x76e2d5c7034f0bfa,
hardware store,hardware store,Papua 99766,Papua,Papua,PAPUA,,Indonesia,,,,-52.037.329,1.394.466.005,https://maps.google.com/?cid=0x0:0xd6fdff385c07ba5d,
hardware store,Toko Swalayan,TOKO TALAGA MANDIRI,"Jln. Baliem, Massi, Kec. Dekai, Kabupaten Yahukimo, Papua 99702","Massi, Kec. Dekai, Kabupaten Yahukimo",PAPUA,99702.0,Indonesia,,,,-48.683.345,1.394.792.246,https://maps.google.com/?cid=0x0:0xf2142421622a7ed4,
hardware store,hardware store,Toko Setia Jaya,"Jalur 1 Pemukiman, Massi, Dekai, Yahukimo regency, Papua 99571","Massi, Dekai, Yahukimo regency",PAPUA,99571.0,Indonesia,,,,-4.868.089,1.394.804.649,https://maps.google.com/?cid=0x0:0x51d179f2b2120307,
hardware store,Toko Bahan Bangunan,Suang Lee Home Trade Sdn Bhd,"1266, 71350 Kota, Negeri Sembilan, Malaysia",Kota,PAPUA,71350.0,Indonesia,"6,01E+11",,,27.020.937,1.018.283.679,https://maps.google.com/?cid=0x0:0xee72ff35b67b526c,
hardware store,Toko Bahan Bangunan,Gadong Jaya Hardware Sdn Bhd,"LOT 7521 MUKIM LABU, 71900 Seremban, Negeri Sembilan, Malaysia",Seremban,PAPUA,71900.0,Indonesia,60196225229,,,27.018.642,101.821.715,https://maps.google.com/?cid=0x0:0xbf149a39e75c8ec7,
hardware store,hardware store,Suru-Suru,"Kabupaten Asmat, Papua","Kabupaten Asmat, Papua",PAPUA,,Indonesia,,,,-48.532.804,1.386.790.007,https://maps.google.com/?cid=0x0:0x5f6a1a0f0be715bf,
hardware store,hardware store,,,,PAPUA,,Indonesia,2129986624,,,-244.565,1.178.888,https://maps.google.com/?cid=0x0:0xbf54891ed7e24812,
hardware store,Toko Swalayan,TOKO TALAGA MANDIRI,"Jln. Baliem, Massi, Kec. Dekai, Kabupaten Yahukimo, Papua 99702","Massi, Kec. Dekai, Kabupaten Yahukimo",PAPUA,99702.0,Indonesia,,,,-48.683.345,1.394.792.246,https://maps.google.com/?cid=0x0:0xf2142421622a7ed4,
hardware store,Toko Bahan Bangunan,TALAGA BIRU,"Massi, Kec. Dekai, Kabupaten Yahukimo, Papua 99571","Kec. Dekai, Kabupaten Yahukimo",PAPUA,99571.0,Indonesia,,,,-4.860.599,1.394.835.358,https://maps.google.com/?cid=0x0:0x64b2298b182a7f93,
hardware store,Toko Bahan Bangunan,IDEAL Hardware Badili,"G5CH+P4V, Port Moresby National Capital District, Papua Nugini","Port Moresby, Papua Nugini",PAPUA,,Indonesia,67572020480,,,-94.781.441,1.471.778.033,https://maps.google.com/?cid=0x0:0xf8d36581cad3bd15,
hardware store,hardware store,Kolf Braza,"Kabupaten Asmat, Papua","Kabupaten Asmat, Papua",PAPUA,,Indonesia,,,,-52.017.018,1.390.009.403,https://maps.google.com/?cid=0x0:0x51fb460a334e5e21,
hardware store,hardware store,Distrik Unir Sirau,"Kabupaten Asmat, Papua","Kabupaten Asmat, Papua",PAPUA,,Indonesia,,,,-50.625.971,1.385.625.099,https://maps.google.com/?cid=0x0:0x18822be845d37aca,
hardware store,Toko Bahan Bangunan,TB CAHAYA SEJATI SIRAU,"Slori, Sirau, Kec. Kemranjen, Kabupaten Banyumas, Jawa Tengah 53194","Sirau, Kec. Kemranjen, Kabupaten Banyumas",PAPUA,53194.0,Indonesia,81327223272,,,-76.209.413,1.092.831.168,https://maps.google.com/?cid=0x0:0x43246b2d2d78ea81,
hardware store,Toko Bahan Bangunan,Tb. Mulya Rejeki,"F7QQ+8G3, Jl. Jaya Sirayu, Pekunden Tengah, Pekunden, Kec. Banyumas, Kabupaten Banyumas, Jawa Tengah 53192","Jl. Jaya Sirayu, Pekunden Tengah, Pekunden, Kec. Banyumas, Kabupaten Banyumas",PAPUA,53192.0,Indonesia,281796350,,,-75.117.257,1.092.888.104,https://maps.google.com/?cid=0x0:0x174a99b248bebf53,
hardware store,hardware store,Distrik Joerat,"Kabupaten Asmat, Papua","Kabupaten Asmat, Papua",PAPUA,,Indonesia,,,,-54.922.847,1.380.855.542,https://maps.google.com/?cid=0x0:0xda3d3ca2262ba8b7,
hardware store,Toko Bahan Bangunan,Casa Hardware,"575Q+7GR, Mount Hagen Western Highlands Province, Papua Nugini","Mount Hagen, Papua Nugini",PAPUA,,Indonesia,,,,-58.417.722,144.288.756,https://maps.google.com/?cid=0x0:0x5572b0cd99723bb6,
hardware store,Toko Perlengkapan Rumah,Hardware Haus,"46PG+8P9, Highlands Hwy, Mount Hagen Western Highlands Province, Papua Nugini","Mount Hagen, Papua Nugini",PAPUA,,Indonesia,67573880325,,,-58.642.066,1.442.268.657,https://maps.google.com/?cid=0x0:0x76e2d5c7034f0bfa,
hardware store,Jendela Aluminium,Unggul Jaya Aluminium,"Wanajaya, Kec. Cibitung, Kabupaten Bekasi, Jawa Barat 17520","Kec. Cibitung, Kabupaten Bekasi",PAPUA,17520.0,Indonesia,85810298885,,,-62.523.535,1.071.010.711,https://maps.google.com/?cid=0x0:0xf91dc57120a202ef,
hardware store,Kontraktor Penebangan Kayu,TOKO CAHAYA BONE AGATS,"Jl. Dermaga Baru, Bis Agats, Distrik Agats, Kabupaten Asmat, Papua 99777","Bis Agats, Distrik Agats, Kabupaten Asmat",PAPUA,99777.0,Indonesia,,,,-55.261.749,138.139.991,https://maps.google.com/?cid=0x0:0xdcf195d2090d9d79,
hardware store,hardware store,CV. Cahaya Bone Jaya,"F4CQ+P94, Kampung Mbait, Distrik, Bis Agats, Distrik Agats, Kabupaten Asmat, Papua 99777","Kampung Mbait, Distrik, Bis Agats, Distrik Agats, Kabupaten Asmat",PAPUA,99777.0,Indonesia,85282074508,,,-5.528.234,138.138.453,https://maps.google.com/?cid=0x0:0x1267000c42982705,
hardware store,Toko Bahan Bangunan,Casa Hardware,"575Q+7GR, Mount Hagen Western Highlands Province, Papua Nugini","Mount Hagen, Papua Nugini",PAPUA,,Indonesia,,,,-58.417.722,144.288.756,https://maps.google.com/?cid=0x0:0x5572b0cd99723bb6,
hardware store,hardware store,Distrik Joerat,"Kabupaten Asmat, Papua","Kabupaten Asmat, Papua",PAPUA,,Indonesia,,,,-54.922.847,1.380.855.542,https://maps.google.com/?cid=0x0:0xda3d3ca2262ba8b7,
hardware store,hardware store,Pulau Tiga,"Kabupaten Asmat, Papua","Kabupaten Asmat, Papua",PAPUA,,Indonesia,,,,-48.345.584,1.380.010.282,https://maps.google.com/?cid=0x0:0xfa037f42c2a610b2,
hardware store,Toko Bahan Bangunan,Sri Luagan Hardware  Tools,"Block F, Luagan Point, Batu 2, Jln Beaufort - Sipitang, Highway, 89800 Beaufort, Sabah, Malaysia",Beaufort,PAPUA,89800.0,Indonesia,60138638066,,,53.379.307,1.157.210.117,https://maps.google.com/?cid=0x0:0xd33d770253b4d583,
hardware store,Toko Bahan Bangunan,Syarikat Yong Hardware,"89800 Beaufort, Sabah, Malaysia",Beaufort,PAPUA,89800.0,Indonesia,6087225773,,,53.593.526,1.157.258.195,https://maps.google.com/?cid=0x0:0x1fe99edea81770a1,
hardware store,Toko Bahan Bangunan,Toko Yudha,"WW5W+W5J, Jl. Trikora, Wamena Kota, Distrik Wamena, Kabupaten Jayawijaya, Papua 99511","Jl. Trikora, Wamena Kota, Distrik Wamena, Kabupaten Jayawijaya",PAPUA,99511.0,Indonesia,83896810290,,,-40.901.707,1.389.453.873,https://maps.google.com/?cid=0x0:0x537603c62ab99445,
hardware store,Toko Bahan Bangunan,TOKO YUDHA BANGUNAN 1,"VWXP+H7P, Jl. Bayangkara, Hurekama, Distrik Wamena, Kabupaten Jayawijaya, Papua 99511","Jl. Bayangkara, Hurekama, Distrik Wamena, Kabupaten Jayawijaya",PAPUA,99511.0,Indonesia,81344454364,,,-41.010.288,1.389.356.942,https://maps.google.com/?cid=0x0:0xa571c584f4c25eaa,
hardware store,hardware store,Pulau Tiga,"Kabupaten Asmat, Papua","Kabupaten Asmat, Papua",PAPUA,,Indonesia,,,,-48.345.584,1.380.010.282,https://maps.google.com/?cid=0x0:0xfa037f42c2a610b2,
hardware store,Pusat Perbelanjaan,Grosir  Eceran Sipon /Ela,"JL Irigasi Kp Gunung, No. 47, Sipon, Cipondoh, RT.002/RW.003, Cipondoh, Kec. Tangerang, Kota Tangerang, Banten 15121","No. 47, Sipon, Cipondoh, RT.002/RW.003, Cipondoh, Kec. Tangerang, Kota Tangerang",PAPUA,15121.0,Indonesia,2194621441,,,-61.855.351,1.066.788.435,https://maps.google.com/?cid=0x0:0x18a92cbbb838e205,
hardware store,Toko Perlengkapan Rumah,Azko Radio Dalam,"Jl. Radio Dalam Raya No.17B 10, RT.10/RW.1, Gandaria Utara, Kec. Kby. Baru, Kota Jakarta Selatan, Daerah Khusus Ibukota Jakarta 12140","RT.10/RW.1, Gandaria Utara, Kec. Kby. Baru, Kota Jakarta Selatan",PAPUA,12140.0,Indonesia,81584851025,,,-6.251.579,106.791.724,https://maps.google.com/?cid=0x0:0x923642051933a42b,
hardware store,Toko Perlengkapan Rumah,Azko Panglima Polim,"PQXX+M28, Jl. Panglima Polim No.73 1, Melawai, Kec. Kby. Baru, Kota Jakarta Selatan, Daerah Khusus Ibukota Jakarta 12160","Jl. Panglima Polim No.73 1, Melawai, Kec. Kby. Baru, Kota Jakarta Selatan",PAPUA,12160.0,Indonesia,85215450928,,,-62.507.589,1.067.976.592,https://maps.google.com/?cid=0x0:0x58721b3df20e0768,
hardware store,hardware store,Jetsy,"Pau, Kabupaten Asmat, Papua","Kabupaten Asmat, Papua",PAPUA,,Indonesia,,,,-54.748.611,1.383.589.086,https://maps.google.com/?cid=0x0:0xce83e2f9037e268e,
hardware store,hardware store,Jy jasa trading,"Q26(lot 516, Kampung Ubai, Kuantan, Pahang, Malaysia","Kuantan, Pahang, Malaysia",PAPUA,,Indonesia,,,,36.050.437,1.033.292.821,https://maps.google.com/?cid=0x0:0x3831569da1cb4d5,
hardware store,Toko Perlengkapan Rumah,Azko Radio Dalam,"Jl. Radio Dalam Raya No.17B 10, RT.10/RW.1, Gandaria Utara, Kec. Kby. Baru, Kota Jakarta Selatan, Daerah Khusus Ibukota Jakarta 12140","RT.10/RW.1, Gandaria Utara, Kec. Kby. Baru, Kota Jakarta Selatan",PAPUA,12140.0,Indonesia,81584851025,,,-6.251.579,106.791.724,https://maps.google.com/?cid=0x0:0x923642051933a42b,
hardware store,Toko Perlengkapan Rumah,Azko Panglima Polim,"PQXX+M28, Jl. Panglima Polim No.73 1, Melawai, Kec. Kby. Baru, Kota Jakarta Selatan, Daerah Khusus Ibukota Jakarta 12160","Jl. Panglima Polim No.73 1, Melawai, Kec. Kby. Baru, Kota Jakarta Selatan",PAPUA,12160.0,Indonesia,85215450928,,,-62.507.589,1.067.976.592,https://maps.google.com/?cid=0x0:0x58721b3df20e0768,
hardware store,Toko Bahan Bangunan,IDEAL Hardware Badili,"G5CH+P4V, Port Moresby National Capital District, Papua Nugini","Port Moresby, Papua Nugini",PAPUA,,Indonesia,67572020480,,,-94.781.441,1.471.778.033,https://maps.google.com/?cid=0x0:0xf8d36581cad3bd15,
hardware store,Toko Bahan Bangunan,GH SP,"JL. RAYA SERPONG KM.2, RUKO SUTERA NIAGA III BLOK B NO.16, Kec. Serpong, Banten 15325","RUKO SUTERA NIAGA III BLOK B NO.16, Kec. Serpong",PAPUA,15325.0,Indonesia,85966113577,,,-62.405.271,1.066.482.186,https://maps.google.com/?cid=0x0:0x549215ed664612c6,
hardware store,Toko Bahan Bangunan,GOLDEN HARDWARE SERPONG,"Pakulonan, Kec. Serpong Utara, Kota Tangerang Selatan, Banten 15325","Kec. Serpong Utara, Kota Tangerang Selatan",PAPUA,15325.0,Indonesia,85966113577,,,-62.405.181,1.066.482.098,https://maps.google.com/?cid=0x0:0x5f183ba263ace17e,
hardware store,Toko Elektronik,JETE Grand Indonesia East Mall,"Grand Indonesia East Mall, Jl. M.H. Thamrin No.1 Floor 3a, Gondangdia, Jakarta, Kota Jakarta Pusat, Daerah Khusus Ibukota Jakarta 10310","Jl. M.H. Thamrin No.1 Floor 3a, Gondangdia, Jakarta, Kota Jakarta Pusat",PAPUA,10310.0,Indonesia,81217393609,,,-6.195.556,106.821.944,https://maps.google.com/?cid=0x0:0x3ad5b433236eb314,
hardware store,hardware store,Papua 99773,"Distrik Pantai Kasuari, Kabupaten Asmat, Papua","Kabupaten Asmat, Papua",PAPUA,,Indonesia,,,,-63.217.958,1.386.388.879,https://maps.google.com/?cid=0x0:0x6ae3147f1b6c530a,
hardware store,hardware store,Distrik Der Koumur,"Kabupaten Asmat, Papua","Kabupaten Asmat, Papua",PAPUA,,Indonesia,,,,-59.984.344,1.388.312.335,https://maps.google.com/?cid=0x0:0x22845df5d954f859,
hardware store,hardware store,Distrik Kopay,"Kabupaten Asmat, Papua","Kabupaten Asmat, Papua",PAPUA,,Indonesia,,,,-63.403.464,1.386.589.406,https://maps.google.com/?cid=0x0:0x5df8c71ee5f607fd,
hardware store,Toko,Toko Fratafen Jaya Bangunan,"Jl. Fratafen, Fiane, Kec. Ayamaru, Kabupaten Maybrat, Papua Bar.","Kabupaten Maybrat, Papua Bar.",PAPUA,,Indonesia,81344891455,,,-12.930.171,1.322.477.662,https://maps.google.com/?cid=0x0:0x637ec3d664ebdaa3,
hardware store,Toko,Toko FITAFEN JAYA,"P668+JWJ, Jl. Fratafen, Kampung Isme, Fiane, Distrik Ayamaru Tengah, Kabupaten Maybrat, Papua Bar.","Kabupaten Maybrat, Papua Bar.",PAPUA,,Indonesia,82129111112,,,-12.884.148,1.322.172.648,https://maps.google.com/?cid=0x0:0x9803b7caed3f9da8,
hardware store,hardware store,Safan,"Kabupaten Asmat, Papua","Kabupaten Asmat, Papua",PAPUA,,Indonesia,,,,-62.032.097,1.384.387.577,https://maps.google.com/?cid=0x0:0x3238b610bc8f2584,
hardware store,Toko Bahan Bangunan,AFAA HARDWARE,Sri Lanka,Sri Lanka,PAPUA,,Indonesia,,,,79.170.407,815.317.545,https://maps.google.com/?cid=0x0:0x4b72f4629a69a0bf,
hardware store,Toko Bahan Bangunan,toko bangunan Yep'Mum,"4Q38+6C4, Jl. Garuda, Arso Kota, Kec. Arso, Kabupaten Keerom, Papua 99468","Jl. Garuda, Arso Kota, Kec. Arso, Kabupaten Keerom",PAPUA,99468.0,Indonesia,85244664394,,,-28.970.308,1.407.661.616,https://maps.google.com/?cid=0x0:0x9649c22840d7e67e,
hardware store,Toko Bahan Bangunan,TB Makmur Jaya,"Jl. Garuda kam yuwanain, Kec. Arso, Kabupaten Keerom, Papua 99361","Kec. Arso, Kabupaten Keerom",PAPUA,99361.0,Indonesia,85211831980,,,-2.897.803,140.763.938,https://maps.google.com/?cid=0x0:0xc3d55026b5b47915,
hardware store,hardware store,Distrik Ayip,"Kabupaten Asmat, Papua","Kabupaten Asmat, Papua",PAPUA,,Indonesia,,,,-59.254.896,1.386.319.781,https://maps.google.com/?cid=0x0:0x8e66166709e21012,
hardware store,Toko Perlengkapan Rumah,Toko Hardware,"Mangga Dua Mall Blok A/29 4th Floor, JL. Mangga Dua Raya, Mangga Dua Selatan, Sawah Besar, Jakarta, 10730, RT.11/RW.5, South Mangga Dua, Sawah Besar, Central Jakarta City, Jakarta 10730","JL. Mangga Dua Raya, Mangga Dua Selatan, Sawah Besar, Jakarta,",PAPUA,10730.0,Indonesia,216005107,,,-61.362.898,1.068.253.581,https://maps.google.com/?cid=0x0:0x74e79d6d61549694,
hardware store,Toko Mebel,Dibeli Home Living,"Jalur 2 No.94, Wahno, Kec. Abepura, Kota Jayapura, Papua 99224","Wahno, Kec. Abepura, Kota Jayapura",PAPUA,99224.0,Indonesia,82310452840,,,-25.938.489,1.406.720.004,https://maps.google.com/?cid=0x0:0x60aa528a8541a01b,
hardware store,Toko,Informa Abepura,"9MQ8+MMX, Jl. Raya Abepura, Kota Baru, Kec. Abepura, Kota Jayapura, Papua","Kota Jayapura, Papua",PAPUA,,Indonesia,,,,-2.610.765,1.406.667.264,https://maps.google.com/?cid=0x0:0x7c5ce28d8e324952,
hardware store,Toko Bahan Bangunan,Leon Enterprise Hardware,"H695+V6F, Port Moresby National Capital District, Papua Nugini","Port Moresby, Papua Nugini",PAPUA,,Indonesia,6753233332,,,-9.430.317,1.472.080.566,https://maps.google.com/?cid=0x0:0x6c8b13d8f6cb1a60,
hardware store,Toko Bahan Bangunan,Sivabalan Hardwares,"No 35, near Gandhi Statue, Eral, Tamil Nadu 627011, India","near Gandhi Statue, Eral, Tamil Nadu",PAPUA,627011.0,Indonesia,"9,20E+11",,,86.256.182,780.206.439,https://maps.google.com/?cid=0x0:0x687fed8c68d0a72e,
hardware store,Toko Bahan Bangunan,RNP Eswaramoorthy Nadar Hardwares,"26, Main Bazaar Eral, Eral, Tamil Nadu 628801, India","Main Bazaar Eral, Eral, Tamil Nadu",PAPUA,628801.0,Indonesia,,,,86.256.289,780.208.279,https://maps.google.com/?cid=0x0:0x14c95cf1645fdf56,
hardware store,Kontraktor Penebangan Kayu,TOKO CAHAYA BONE AGATS,"Jl. Dermaga Baru, Bis Agats, Distrik Agats, Kabupaten Asmat, Papua 99777","Bis Agats, Distrik Agats, Kabupaten Asmat",PAPUA,99777.0,Indonesia,,,,-55.261.749,138.139.991,https://maps.google.com/?cid=0x0:0xdcf195d2090d9d79,
hardware store,hardware store,CV. Cahaya Bone Jaya,"F4CQ+P94, Kampung Mbait, Distrik, Bis Agats, Distrik Agats, Kabupaten Asmat, Papua 99777","Kampung Mbait, Distrik, Bis Agats, Distrik Agats, Kabupaten Asmat",PAPUA,99777.0,Indonesia,85282074508,,,-5.528.234,138.138.453,https://maps.google.com/?cid=0x0:0x1267000c42982705,
hardware store,hardware store,Distrik Betcbamu,"Kabupaten Asmat, Papua","Kabupaten Asmat, Papua",PAPUA,,Indonesia,,,,-57.285.964,1.382.791.757,https://maps.google.com/?cid=0x0:0xa352aadb63fd6688,
home improvement,home improvement,Papua 99777,"Kabupaten Asmat, Papua","Kabupaten Asmat, Papua",PAPUA,,Indonesia,,,,-54.613.838,1.381.995.591,https://maps.google.com/?cid=0x0:0x8e1d4401ddfcedae,
home improvement,Komplek perumahan,V-ber Home,"Jl. Yapis, Bis Agats, Distrik Agats, Kabupaten Asmat, Papua 99777","Bis Agats, Distrik Agats, Kabupaten Asmat",PAPUA,99777.0,Indonesia,8114806711,,,-55.380.137,1.381.412.882,https://maps.google.com/?cid=0x0:0x659eafba836bea10,
home improvement,Kontraktor Penebangan Kayu,TOKO CAHAYA BONE AGATS,"Jl. Dermaga Baru, Bis Agats, Distrik Agats, Kabupaten Asmat, Papua 99777","Bis Agats, Distrik Agats, Kabupaten Asmat",PAPUA,99777.0,Indonesia,,,,-55.261.749,138.139.991,https://maps.google.com/?cid=0x0:0xdcf195d2090d9d79,
home improvement,Kedai Kopi,ASGARD HOME EAT AND COFFEE,"Jl. Dolog, Bis Agats, Distrik Agats, Kabupaten Asmat, Papua 99777","Bis Agats, Distrik Agats, Kabupaten Asmat",PAPUA,99777.0,Indonesia,82238595445,,,-5.537.753,1.381.403.632,https://maps.google.com/?cid=0x0:0x1aeebd828483db86,
home improvement,Toko Swalayan,AD Rahmat Ridho,"Jl. Dolog, Bis Agats, Distrik Agats, Kabupaten Asmat, Papua 99777","Bis Agats, Distrik Agats, Kabupaten Asmat",PAPUA,99777.0,Indonesia,,,,-5.537.971,1.381.406.466,https://maps.google.com/?cid=0x0:0x5ab6a8600d98d857,
home improvement,Toko Perlengkapan Rumah,Mebel. Bapak Dihon,"F47V+VWM, Bis Agats, Distrik Agats, Kabupaten Asmat, Papua","Kabupaten Asmat, Papua",PAPUA,,Indonesia,,,,-55.352.856,1.381.447.828,https://maps.google.com/?cid=0x0:0xdb7655370e1882ef,
home improvement,home improvement,Agats,"Bis Agats, Distrik Agats, Kabupaten Asmat, Papua","Kabupaten Asmat, Papua",PAPUA,,Indonesia,,,,-5.535.626,138.121.359,https://maps.google.com/?cid=0x0:0xf1c37eeb196c76c9,
home improvement,Toko Bahan Bangunan,kios enny nur cemenes,"Jl. Dermaga Baru, Bis Agats, Distrik Agats, Kabupaten Asmat, Papua 99777","Bis Agats, Distrik Agats, Kabupaten Asmat",PAPUA,99777.0,Indonesia,81343209941,,,-55.305.575,1.381.406.968,https://maps.google.com/?cid=0x0:0xf058fc25a2aab75,
home improvement,home improvement,Kec. Tebet,"Kota Jakarta Selatan, Daerah Khusus Ibukota Jakarta","Kota Jakarta Selatan, Daerah Khusus Ibukota Jakarta",PAPUA,,Indonesia,,,,-62.251.223,1.068.549.881,https://maps.google.com/?cid=0x0:0xd575e31c807295f9,
home improvement,home improvement,Atsy,"Atsy, Kabupaten Asmat, Papua","Kabupaten Asmat, Papua",PAPUA,,Indonesia,,,,-5.721.067,13.837.886,https://maps.google.com/?cid=0x0:0x563a7ef959cd1d9e,
home improvement,home improvement,Papua 99778,Papua,Papua,PAPUA,,Indonesia,,,,-48.922.915,1.379.218.204,https://maps.google.com/?cid=0x0:0x7dad809947c0ba4d,
home improvement,home improvement,Sawa Erma,"Kabupaten Asmat, Papua","Kabupaten Asmat, Papua",PAPUA,,Indonesia,,,,-51.382.956,1.381.995.591,https://maps.google.com/?cid=0x0:0xa00408d29df1eb35,
home improvement,Kantor Perusahaan,PT Tunas Sawa Erma - TSE Group,"Jakarta Selatan, Wisma Korindo Eka Life, Jl. Letjen M.T. Haryono No.Kav 62, RT.2/RW.2, Pancoran, Kec. Pancoran, Kota Jakarta Selatan, Daerah Khusus Ibukota Jakarta 12780","Wisma Korindo Eka Life, Jl. Letjen M.T. Haryono No.Kav 62, RT.2/RW.2, Pancoran, Kec. Pancoran, Kota Jakarta Selatan",PAPUA,12780.0,Indonesia,217975959,,,-62.439.105,1.068.440.405,https://maps.google.com/?cid=0x0:0x62e234b018a17bbc,
home improvement,Perusahaan Ekspedisi,WISMA KORINDO,"Wisma Korindo, MT Haryono St No.Kav 62, RT.2/RW.2, Pancoran, Jakarta, 12780","MT Haryono St No.Kav 62, RT.2/RW.2, Pancoran",PAPUA,12780.0,Indonesia,217975959,,,-62.439.922,1.068.441.413,https://maps.google.com/?cid=0x0:0xd139ee09361423ed,
home improvement,Toko Swalayan,tokohbangunan,"F46R+R6G, Bis Agats, Distrik Agats, Kabupaten Asmat, Papua 99777","Bis Agats, Distrik Agats, Kabupaten Asmat",PAPUA,99777.0,Indonesia,,,,-55.375.809,138.140.389,https://maps.google.com/?cid=0x0:0x8b4e74def437b3e7,
home improvement,Toko Swalayan,TOKO AS,"Bis Agats, Distrik Agats, Kabupaten Asmat, Papua 99777","Distrik Agats, Kabupaten Asmat",PAPUA,99777.0,Indonesia,82142690419,,,-5.533.439,1.381.377.653,https://maps.google.com/?cid=0x0:0x3a8cbc0f58759e0e,
home improvement,home improvement,Akat,"Kabupaten Asmat, Papua","Kabupaten Asmat, Papua",PAPUA,,Indonesia,,,,-52.705.101,1.386.388.879,https://maps.google.com/?cid=0x0:0xde330c0887951114,
home improvement,home improvement,Papua 99782,"Kabupaten Asmat, Papua","Kabupaten Asmat, Papua",PAPUA,,Indonesia,,,,-60.419.322,1.384.787.258,https://maps.google.com/?cid=0x0:0x95c8a9b5775eb359,
home improvement,home improvement,Distrik Fayit,"Kabupaten Asmat, Papua","Kabupaten Asmat, Papua",PAPUA,,Indonesia,,,,-60.610.672,1.383.835.427,https://maps.google.com/?cid=0x0:0x4b1b5304d72076e5,
home improvement,home improvement,Distrik Pantai Kasuari,"Kabupaten Asmat, Papua","Kabupaten Asmat, Papua",PAPUA,,Indonesia,,,,-62.184.287,138.598.804,https://maps.google.com/?cid=0x0:0x1b4529030e9094c,
home improvement,home improvement,Papua 99766,Papua,Papua,PAPUA,,Indonesia,,,,-52.037.329,1.394.466.005,https://maps.google.com/?cid=0x0:0xd6fdff385c07ba5d,
home improvement,home improvement,Suator,"Kabupaten Asmat, Papua","Kabupaten Asmat, Papua",PAPUA,,Indonesia,,,,-51.911.556,139.284.143,https://maps.google.com/?cid=0x0:0xb29915cc9bf8f2a6,
home improvement,Pembangunan Perumahan,Lapak Tukang,"Gg. Asem VI No.11 a, Tegal Harum, Kec. Denpasar Bar., Kota Denpasar, Bali 80117","Tegal Harum, Kec. Denpasar Bar., Kota Denpasar",PAPUA,80117.0,Indonesia,8123900967,,,-86.661.717,1.151.910.768,https://maps.google.com/?cid=0x0:0x17ae42f745c1bca6,
home improvement,Desainer Interior,AD HPL,"Sidasari, Danasri, Kec. Nusawungu, Kabupaten Cilacap, Jawa Tengah 53283","Danasri, Kec. Nusawungu, Kabupaten Cilacap",PAPUA,53283.0,Indonesia,85865674626,,,-76.405.004,1.093.079.416,https://maps.google.com/?cid=0x0:0xa9ef54b513a20389,
home improvement,Bar,Bakulan Bar Bar Kudus,"RT.4/RW.2, Pondok, Bae, Kec. Bae, Kabupaten Kudus, Jawa Tengah 59327","Pondok, Bae, Kec. Bae, Kabupaten Kudus",PAPUA,59327.0,Indonesia,85211233248,,,-67.613.303,1.108.538.718,https://maps.google.com/?cid=0x0:0x5152f7c706cabc17,
home improvement,home improvement,Jual Beli,"Depan Alfa midi, Jl. Datu Adam, Kota Palu, Sulawesi Tengah 94111","Jl. Datu Adam, Kota Palu",PAPUA,94111.0,Indonesia,85157731194,,,-0.89198,1.198.468.787,https://maps.google.com/?cid=0x0:0x5a14e863a8c2d3ab,
home improvement,home improvement,PT.MIFARA BERKAH SEJAHTERA,"HMX5+W7P, Gg. Waspada, Sei Putih Tengah, Kec. Medan Petisah, Kota Medan, Sumatera Utara 20114","Gg. Waspada, Sei Putih Tengah, Kec. Medan Petisah, Kota Medan",PAPUA,20114.0,Indonesia,81370916021,,,35.998.286,986.581.944,https://maps.google.com/?cid=0x0:0x24fc8448de3ce43,
home improvement,Jasa Reparasi Peralatan Rumah Tangga,TUNGGAL JAYA ELECTRIC,"Jl. Kyai Satari No.14, Rungkut Menanggal, Kec. Rungkut, Surabaya, Jawa Timur 60293","Rungkut Menanggal, Kec. Rungkut, Surabaya",PAPUA,60293.0,Indonesia,81331869754,,,-73.369.553,1.127.657.186,https://maps.google.com/?cid=0x0:0xfeafdc6d57846bd,
home improvement,Jembatan,Jembatan Sungai Cilanggir,"MP7G+FP4, Jl. Majenang-Wanarej, Ciklatar, Pahonjean, Kec. Majenang, Kabupaten Cilacap, Jawa Tengah 53257","Jl. Majenang-Wanarej, Ciklatar, Pahonjean, Kec. Majenang, Kabupaten Cilacap",PAPUA,53257.0,Indonesia,,,,-73.363.509,1.087.268.269,https://maps.google.com/?cid=0x0:0x22d1182632bbd4ce,
home improvement,home improvement,Suru-Suru,"Kabupaten Asmat, Papua","Kabupaten Asmat, Papua",PAPUA,,Indonesia,,,,-48.532.804,1.386.790.007,https://maps.google.com/?cid=0x0:0x5f6a1a0f0be715bf,
home improvement,home improvement,Kolf Braza,"Kabupaten Asmat, Papua","Kabupaten Asmat, Papua",PAPUA,,Indonesia,,,,-52.017.018,1.390.009.403,https://maps.google.com/?cid=0x0:0x51fb460a334e5e21,
home improvement,home improvement,Distrik Unir Sirau,"Kabupaten Asmat, Papua","Kabupaten Asmat, Papua",PAPUA,,Indonesia,,,,-50.625.971,1.385.625.099,https://maps.google.com/?cid=0x0:0x18822be845d37aca,
home improvement,home improvement,Papua 99777,"Kabupaten Asmat, Papua","Kabupaten Asmat, Papua",PAPUA,,Indonesia,,,,-54.613.838,1.381.995.591,https://maps.google.com/?cid=0x0:0x8e1d4401ddfcedae,
home improvement,Komplek perumahan,V-ber Home,"Jl. Yapis, Bis Agats, Distrik Agats, Kabupaten Asmat, Papua 99777","Bis Agats, Distrik Agats, Kabupaten Asmat",PAPUA,99777.0,Indonesia,8114806711,,,-55.380.137,1.381.412.882,https://maps.google.com/?cid=0x0:0x659eafba836bea10,
home improvement,Toko Swalayan,tokohbangunan,"F46R+R6G, Bis Agats, Distrik Agats, Kabupaten Asmat, Papua 99777","Bis Agats, Distrik Agats, Kabupaten Asmat",PAPUA,99777.0,Indonesia,,,,-55.375.809,138.140.389,https://maps.google.com/?cid=0x0:0x8b4e74def437b3e7,
home improvement,Toko Perlengkapan Rumah,Mebel. Bapak Dihon,"F47V+VWM, Bis Agats, Distrik Agats, Kabupaten Asmat, Papua","Kabupaten Asmat, Papua",PAPUA,,Indonesia,,,,-55.352.856,1.381.447.828,https://maps.google.com/?cid=0x0:0xdb7655370e1882ef,
home improvement,home improvement,Distrik Joerat,"Kabupaten Asmat, Papua","Kabupaten Asmat, Papua",PAPUA,,Indonesia,,,,-54.922.847,1.380.855.542,https://maps.google.com/?cid=0x0:0xda3d3ca2262ba8b7,
home improvement,home improvement,Distrik Joerat,"Kabupaten Asmat, Papua","Kabupaten Asmat, Papua",PAPUA,,Indonesia,,,,-54.922.847,1.380.855.542,https://maps.google.com/?cid=0x0:0xda3d3ca2262ba8b7,
home improvement,Komplek perumahan,V-ber Home,"Jl. Yapis, Bis Agats, Distrik Agats, Kabupaten Asmat, Papua 99777","Bis Agats, Distrik Agats, Kabupaten Asmat",PAPUA,99777.0,Indonesia,8114806711,,,-55.380.137,1.381.412.882,https://maps.google.com/?cid=0x0:0x659eafba836bea10,
home improvement,Toko Swalayan,tokohbangunan,"F46R+R6G, Bis Agats, Distrik Agats, Kabupaten Asmat, Papua 99777","Bis Agats, Distrik Agats, Kabupaten Asmat",PAPUA,99777.0,Indonesia,,,,-55.375.809,138.140.389,https://maps.google.com/?cid=0x0:0x8b4e74def437b3e7,
home improvement,home improvement,Pulau Tiga,"Kabupaten Asmat, Papua","Kabupaten Asmat, Papua",PAPUA,,Indonesia,,,,-48.345.584,1.380.010.282,https://maps.google.com/?cid=0x0:0xfa037f42c2a610b2,
home improvement,home improvement,Pulau Tiga,"Sabah, Malaysia","Sabah, Malaysia",PAPUA,,Indonesia,,,,57.253.104,1.156.539.512,https://maps.google.com/?cid=0x0:0x8079bff4b0073ec3,
home improvement,home improvement,Pulau Tiga,"Sabah, Malaysia","Sabah, Malaysia",PAPUA,,Indonesia,,,,57.253.104,1.156.539.512,https://maps.google.com/?cid=0x0:0x8079bff4b0073ec3,
home improvement,home improvement,Pulau Tiga,"Kabupaten Asmat, Papua","Kabupaten Asmat, Papua",PAPUA,,Indonesia,,,,-48.345.584,1.380.010.282,https://maps.google.com/?cid=0x0:0xfa037f42c2a610b2,
home improvement,home improvement,Jetsy,"Pau, Kabupaten Asmat, Papua","Kabupaten Asmat, Papua",PAPUA,,Indonesia,,,,-54.748.611,1.383.589.086,https://maps.google.com/?cid=0x0:0xce83e2f9037e268e,
home improvement,Toko Pintu Kamar Mandi,pintu lipat pvc - jihan interior,"Jl. Kemuning 4B No.22, RT.10/RW.6, Pejaten Timur, Ps. Minggu, Kota Jakarta Selatan, Daerah Khusus Ibukota Jakarta 12510","RT.10/RW.6, Pejaten Timur, Ps. Minggu, Kota Jakarta Selatan",PAPUA,12510.0,Indonesia,2179110162,,,-62.760.143,1.068.489.069,https://maps.google.com/?cid=0x0:0x359d69acaf3c6a16,
home improvement,Toko Perlengkapan Rumah,Jihan interior(jsh collection),"JVX9+M6C, Jl. Tipar kampung raden, RT.4/RW.7, Pekayon, 13710","Jl. Tipar kampung raden, RT.4/RW.7",PAPUA,13710.0,Indonesia,,,,-63.508.179,1.068.680.172,https://maps.google.com/?cid=0x0:0x7e844c1bc950d3cd,
home improvement,home improvement,Yetsy,"Akat, Kabupaten Asmat, Papua","Kabupaten Asmat, Papua",PAPUA,,Indonesia,,,,-53.501.406,1.386.188.423,https://maps.google.com/?cid=0x0:0x933091abb6f8e384,
home improvement,Toko Pintu Kamar Mandi,pintu lipat pvc - jihan interior,"Jl. Kemuning 4B No.22, RT.10/RW.6, Pejaten Timur, Ps. Minggu, Kota Jakarta Selatan, Daerah Khusus Ibukota Jakarta 12510","RT.10/RW.6, Pejaten Timur, Ps. Minggu, Kota Jakarta Selatan",PAPUA,12510.0,Indonesia,2179110162,,,-62.760.143,1.068.489.069,https://maps.google.com/?cid=0x0:0x359d69acaf3c6a16,
home improvement,Toko Perlengkapan Kamar Mandi,Rapi Decor,"Jl. Panglima Polim No.36B, Pulo, Kec. Kby. Baru, Kota Jakarta Selatan, Daerah Khusus Ibukota Jakarta 12160","Pulo, Kec. Kby. Baru, Kota Jakarta Selatan",PAPUA,12160.0,Indonesia,217231216,,,-62.506.863,1.067.972.131,https://maps.google.com/?cid=0x0:0x87f8c9595eb1cd10,
home improvement,home improvement,Papua 99773,"Distrik Pantai Kasuari, Kabupaten Asmat, Papua","Kabupaten Asmat, Papua",PAPUA,,Indonesia,,,,-63.217.958,1.386.388.879,https://maps.google.com/?cid=0x0:0x6ae3147f1b6c530a,
home improvement,home improvement,Distrik Der Koumur,"Kabupaten Asmat, Papua","Kabupaten Asmat, Papua",PAPUA,,Indonesia,,,,-59.984.344,1.388.312.335,https://maps.google.com/?cid=0x0:0x22845df5d954f859,
home improvement,home improvement,Distrik Kopay,"Kabupaten Asmat, Papua","Kabupaten Asmat, Papua",PAPUA,,Indonesia,,,,-63.403.464,1.386.589.406,https://maps.google.com/?cid=0x0:0x5df8c71ee5f607fd,
home improvement,home improvement,Papua 99773,"Distrik Pantai Kasuari, Kabupaten Asmat, Papua","Kabupaten Asmat, Papua",PAPUA,,Indonesia,,,,-63.217.958,1.386.388.879,https://maps.google.com/?cid=0x0:0x6ae3147f1b6c530a,
home improvement,home improvement,Safan,"Kabupaten Asmat, Papua","Kabupaten Asmat, Papua",PAPUA,,Indonesia,,,,-62.032.097,1.384.387.577,https://maps.google.com/?cid=0x0:0x3238b610bc8f2584,
home improvement,Produsen ketel,Samson Indonesia Boiler,"Jalan Legok Raya No.88, Babakan, Kec. Legok, Kabupaten Tangerang, Banten 15820","Babakan, Kec. Legok, Kabupaten Tangerang",PAPUA,15820.0,Indonesia,8170760077,,,-62.972.939,1.065.919.147,https://maps.google.com/?cid=0x0:0xe9d6c3bc65157cd8,
home improvement,Kantor Perusahaan,PT Usaha Jaya Primatek,"ROHA TOWER. Jalan Gunung Sahari Raya No 18, RT/RW 01/03, RT.1/RW.3, Gn. Sahari Utara, Kecamatan Sawah Besar, Kota Jakarta Pusat, Daerah Khusus Ibukota Jakarta 10720","RT/RW 01/03, RT.1/RW.3, Gn. Sahari Utara, Kecamatan Sawah Besar, Kota Jakarta Pusat",PAPUA,10720.0,Indonesia,2162306431,,,-61.523.466,1.068.360.366,https://maps.google.com/?cid=0x0:0x96ab44899ca40e09,
home improvement,Kantor Perusahaan,PT.Indomitra Prima Lestari,"Commpark, Jalan Kota Wisata, Limus Nunggal, Kec. Cileungsi, Kabupaten Bogor, Jawa Barat 16820","Jalan Kota Wisata, Limus Nunggal, Kec. Cileungsi, Kabupaten Bogor",PAPUA,16820.0,Indonesia,85100986862,,,-63.679.036,1.069.721.321,https://maps.google.com/?cid=0x0:0x25704b6db2e4308b,
home improvement,Dealer truk jungkit,PT ADR grup,"Jl. Raya PLP Curug No.88, Kadu Jaya, Kec. Curug, Kabupaten Tangerang, Banten 15810","Kadu Jaya, Kec. Curug, Kabupaten Tangerang",PAPUA,15810.0,Indonesia,2159492169,,,-6.230.036,1.065.593.599,https://maps.google.com/?cid=0x0:0xc0c4973464dbcab2,
home improvement,Produsen,Sakura Filter Indonesia,"Kawasan Industri ADR Group (POS 20, Jl. Raya Jl. Lppu Curug No.88, Kadu Jaya, Kec. Curug, Kabupaten Tangerang, Banten 15810","Jl. Raya Jl. Lppu Curug No.88, Kadu Jaya, Kec. Curug, Kabupaten Tangerang",PAPUA,15810.0,Indonesia,83872785083,,,-62.296.464,1.065.580.511,https://maps.google.com/?cid=0x0:0xd7466777655f2627,
home improvement,Toko Parfum,TechnicoFlor Indonesia,"Jl. Imam Bonjol Km 2,58 No 8, RT.001/RW.004, Bojong Jaya, Karawaci, Tangerang City, Banten 15115","RT.001/RW.004, Bojong Jaya, Karawaci, Tangerang City",PAPUA,15115.0,Indonesia,,,,-62.014.365,1.066.227.718,https://maps.google.com/?cid=0x0:0xc5bc065b4d5d316f,
home improvement,Sekolah Agama,Universitas Al Azhar Indonesia,"Jl. Sisingamangaraja, RT.2/RW.1, Selong, Kec. Kby. Baru, Kota Jakarta Selatan, Daerah Khusus Ibukota Jakarta 12110","RT.2/RW.1, Selong, Kec. Kby. Baru, Kota Jakarta Selatan",PAPUA,12110.0,Indonesia,2172792753,,,-62.347.822,1.067.990.055,https://maps.google.com/?cid=0x0:0x5c76e93c1857863b,
home improvement,home improvement,Distrik Ayip,"Kabupaten Asmat, Papua","Kabupaten Asmat, Papua",PAPUA,,Indonesia,,,,-59.254.896,1.386.319.781,https://maps.google.com/?cid=0x0:0x8e66166709e21012,
home improvement,home improvement,Papua 99776,"Atsy, Kabupaten Asmat, Papua","Kabupaten Asmat, Papua",PAPUA,,Indonesia,,,,-5.544.638,1.387.995.122,https://maps.google.com/?cid=0x0:0xc82d6e8c35882d4e,
home improvement,home improvement,Sirets,"Kabupaten Asmat, Papua","Kabupaten Asmat, Papua",PAPUA,,Indonesia,,,,-55.310.929,1.386.388.879,https://maps.google.com/?cid=0x0:0xa635d80a725c47,
home improvement,home improvement,Distrik Betcbamu,"Kabupaten Asmat, Papua","Kabupaten Asmat, Papua",PAPUA,,Indonesia,,,,-57.285.964,1.382.791.757,https://maps.google.com/?cid=0x0:0xa352aadb63fd6688,
