Category,Real Category,Business Name,Address,City,State,Postal Code,Country,Phone,Email,Website,Latitude,Longitude,Map Link,Details Link
mall,Minimarket,KIOS PUTRA WABULA,"F44M+8JR, Jl. Yos Sudarso, Bis Agats, Distrik Agats, Kabupaten Asmat, Papua 99777","Jl. Yos Sudarso, Bis Agats, Distrik Agats, Kabupaten Asmat",PAPUA,99777.0,Indonesia,85240803009,,,-55.441.348,1.381.340.266,https://maps.google.com/?cid=0x0:0x5aec1437095d7ddb,
mall,Pusat Perbelanjaan,Kios Putra,"F45P+MW4, Jl. Frans Kaisepo, Bis Agats, Distrik Agats, Kabupaten Asmat, Papua 99777","Jl. Frans Kaisepo, Bis Agats, Distrik Agats, Kabupaten Asmat",PAPUA,99777.0,Indonesia,82198344823,,,-55.408.642,1.381.373.175,https://maps.google.com/?cid=0x0:0xe1a93cd836654eb,
mall,mall,Agats,"Bis Agats, Distrik Agats, Kabupaten Asmat, Papua","Kabupaten Asmat, Papua",PAPUA,,Indonesia,,,,-5.535.626,138.121.359,https://maps.google.com/?cid=0x0:0xf1c37eeb196c76c9,
mall,Toko bahan makanan,Kios Hasan,"Bis Agats, Distrik Agats, Kabupaten Asmat, Papua 99777","Distrik Agats, Kabupaten Asmat",PAPUA,99777.0,Indonesia,82239577365,,,-55.229.635,1.381.406.375,https://maps.google.com/?cid=0x0:0x3602a83970c37bb2,
mall,Tujuan Wisata,Museum Kebudayaan dan Kemajuan Asmat,"Jl. Museum No.1, Bis Agats, Distrik Agats, Kabupaten Asmat, Papua 99777","Bis Agats, Distrik Agats, Kabupaten Asmat",PAPUA,99777.0,Indonesia,82278834784,,,-55.444.756,138.134.876,https://maps.google.com/?cid=0x0:0x98eba218eba3216c,
mall,mall,KIOS SABRINA,"Jl. Yos Sudarso, Bis Agats, Distrik Agats, Kabupaten Asmat, Papua 99777","Bis Agats, Distrik Agats, Kabupaten Asmat",PAPUA,99777.0,Indonesia,,,,-55.332.126,1.381.379.847,https://maps.google.com/?cid=0x0:0x5226017c94fd264f,
mall,Pusat Perbelanjaan,pasar pairipok atsj,"798M+CF7, Atsy, Kabupaten Asmat, Papua 99776","Atsy, Kabupaten Asmat",PAPUA,99776.0,Indonesia,,,,-57.339.634,1.383.836.694,https://maps.google.com/?cid=0x0:0x8dec5c06c24c2d0,
mall,Pasar,Pasar Muyu,"F47P+R76, Jl. Yos Sudarso, Bis Agats, Distrik Agats, Kabupaten Asmat, Papua 99777","Jl. Yos Sudarso, Bis Agats, Distrik Agats, Kabupaten Asmat",PAPUA,99777.0,Indonesia,,,,-55.354.668,1.381.356.556,https://maps.google.com/?cid=0x0:0x62dbfa3f8cf3566,
mall,mall,Sawa Erma,"Kabupaten Asmat, Papua","Kabupaten Asmat, Papua",PAPUA,,Indonesia,,,,-51.382.956,1.381.995.591,https://maps.google.com/?cid=0x0:0xa00408d29df1eb35,
mall,mall,Papua 99779,"Kabupaten Asmat, Papua","Kabupaten Asmat, Papua",PAPUA,,Indonesia,,,,-49.651.102,1.388.799.972,https://maps.google.com/?cid=0x0:0x21328fcdfe8f7ad3,
mall,Pasar,Pasar Muyu,"F47P+R76, Jl. Yos Sudarso, Bis Agats, Distrik Agats, Kabupaten Asmat, Papua 99777","Jl. Yos Sudarso, Bis Agats, Distrik Agats, Kabupaten Asmat",PAPUA,99777.0,Indonesia,,,,-55.354.668,1.381.356.556,https://maps.google.com/?cid=0x0:0x62dbfa3f8cf3566,
mall,Pusat Perbelanjaan,pasar pairipok atsj,"798M+CF7, Atsy, Kabupaten Asmat, Papua 99776","Atsy, Kabupaten Asmat",PAPUA,99776.0,Indonesia,,,,-57.339.634,1.383.836.694,https://maps.google.com/?cid=0x0:0x8dec5c06c24c2d0,
mall,Minimarket,CHACA COOL,"F47P+JFH, Jl. Mutu Kecil, Bis Agats, Distrik Agats, Kabupaten Asmat, Papua 99777","Jl. Mutu Kecil, Bis Agats, Distrik Agats, Kabupaten Asmat",PAPUA,99777.0,Indonesia,81343333479,,,-55.359.458,1.381.362.499,https://maps.google.com/?cid=0x0:0x7e073cf26e98846a,
mall,Pusat Perbelanjaan,Mall Jayapura,"APO, Jl. Samratulangi, Bayangkara, Kec. Jayapura Utara, Kota Jayapura, Papua 99112","Jl. Samratulangi, Bayangkara, Kec. Jayapura Utara, Kota Jayapura",PAPUA,99112.0,Indonesia,9675150000,,,-25.351.775,1.407.061.874,https://maps.google.com/?cid=0x0:0x54294cb27964023,
mall,Pusat Perbelanjaan,SAGA MALL,"Kota Baru, Kec. Abepura, Kota Jayapura, Papua 99351","Kec. Abepura, Kota Jayapura",PAPUA,99351.0,Indonesia,,,,-26.105.845,1.406.654.189,https://maps.google.com/?cid=0x0:0xaf65e43ff84ff9e6,
mall,Toko bahan makanan,Kios Hasan,"Bis Agats, Distrik Agats, Kabupaten Asmat, Papua 99777","Distrik Agats, Kabupaten Asmat",PAPUA,99777.0,Indonesia,82239577365,,,-55.229.635,1.381.406.375,https://maps.google.com/?cid=0x0:0x3602a83970c37bb2,
mall,Toko Pakaian Olahraga,Living World Alam Sutera,"Jl. Alam Sutera Boulevard No.Kav. 21, Pakulonan, Kec. Serpong Utara, Kota Tangerang Selatan, Banten 15325","Pakulonan, Kec. Serpong Utara, Kota Tangerang Selatan",PAPUA,15325.0,Indonesia,2153128580,,,-62.443.767,106.653.103,https://maps.google.com/?cid=0x0:0x12783cb2371fb070,
mall,Minimarket,KIOS PUTRA WABULA,"F44M+8JR, Jl. Yos Sudarso, Bis Agats, Distrik Agats, Kabupaten Asmat, Papua 99777","Jl. Yos Sudarso, Bis Agats, Distrik Agats, Kabupaten Asmat",PAPUA,99777.0,Indonesia,85240803009,,,-55.441.348,1.381.340.266,https://maps.google.com/?cid=0x0:0x5aec1437095d7ddb,
mall,Pusat Perbelanjaan,Mall Sentani City Square,"Jl. Raya Kemiri No.286, Hinekombe, Kec. Sentani, Kabupaten Jayapura, Papua 99352","Hinekombe, Kec. Sentani, Kabupaten Jayapura",PAPUA,99352.0,Indonesia,82198389205,,,-25.632.484,1.405.006.043,https://maps.google.com/?cid=0x0:0x666e57130aca06b8,
mall,Pusat Perbelanjaan,Toko anhi,"Jln papua.ruko No.blok B, Massi, Kec. Dekai, Kabupaten Yahukimo, Papua 99571","Massi, Kec. Dekai, Kabupaten Yahukimo",PAPUA,99571.0,Indonesia,81390262543,,,-4.862.317,1.394.856.214,https://maps.google.com/?cid=0x0:0xddb273ca69cba983,
mall,Pusat Perbelanjaan,Pertokoan Kebutuhan Sehari Hari,"4FMJ+WX7, Massi, Kec. Dekai, Kabupaten Yahukimo, Papua 99571","Massi, Kec. Dekai, Kabupaten Yahukimo",PAPUA,99571.0,Indonesia,81252575899,,,-48.652.067,1.394.824.083,https://maps.google.com/?cid=0x0:0x8cfe1f5647672e8d,
mall,Toko umum,Kios Putri Kirani,"Jl. Flos Rumlus, Bis Agats, Distrik Agats, Kabupaten Asmat, Papua 99777","Bis Agats, Distrik Agats, Kabupaten Asmat",PAPUA,99777.0,Indonesia,82198791988,,,-55.422.602,138.137.491,https://maps.google.com/?cid=0x0:0x1c03d24c6c5778be,
mall,Pusat Perbelanjaan,Pusat Mode Tanah Abang (PMTA),"Jl. H. Fachrudin No.51, RT.10/RW.7, Kp. Bali, Kecamatan Tanah Abang, Kota Jakarta Pusat, Daerah Khusus Ibukota Jakarta 10250","RT.10/RW.7, Kp. Bali, Kecamatan Tanah Abang, Kota Jakarta Pusat",PAPUA,10250.0,Indonesia,2139845111,,,-61.869.714,1.068.159.083,https://maps.google.com/?cid=0x0:0x6a31ee7643bd1ccd,
mall,Pusat Perbelanjaan,Pusat Grosir Metro tanah abang,"Jl. H. Fachrudin, RT.14/RW.6, Karet Tengsin, Kecamatan Tanah Abang, Kota Jakarta Pusat, Daerah Khusus Ibukota Jakarta 10240","RT.14/RW.6, Karet Tengsin, Kecamatan Tanah Abang, Kota Jakarta Pusat",PAPUA,10240.0,Indonesia,,,,-61.876.243,1.068.156.726,https://maps.google.com/?cid=0x0:0x39d0ae97f402e6a,
mall,mall,Papua 99782,"Kabupaten Asmat, Papua","Kabupaten Asmat, Papua",PAPUA,,Indonesia,,,,-60.419.322,1.384.787.258,https://maps.google.com/?cid=0x0:0x95c8a9b5775eb359,
mall,Pusat Perbelanjaan,Mall Jayapura,"APO, Jl. Samratulangi, Bayangkara, Kec. Jayapura Utara, Kota Jayapura, Papua 99112","Jl. Samratulangi, Bayangkara, Kec. Jayapura Utara, Kota Jayapura",PAPUA,99112.0,Indonesia,9675150000,,,-25.351.775,1.407.061.874,https://maps.google.com/?cid=0x0:0x54294cb27964023,
mall,Pusat Perbelanjaan,Timika Mall,"57522, Jl. Hasanuddin No.9, Nawaripi, Mimika Baru, Mimika Regency, Papua 99971","Jl. Hasanuddin No.9, Nawaripi, Mimika Baru, Mimika Regency",PAPUA,99971.0,Indonesia,,,,-45.673.682,1.368.869.612,https://maps.google.com/?cid=0x0:0x146edd1a60cab3dd,
mall,Minimarket,Jayapura,"RJHR+X47, Sukaasih, Kec. Tangerang, Kota Tangerang, Banten","Kota Tangerang, Banten",PAPUA,,Indonesia,,,,-61.700.957,1.066.403.119,https://maps.google.com/?cid=0x0:0xd349b4eed66f2ec0,
mall,Pusat Perbelanjaan,Wamena Mall,"WW4W+JH7, Wamena Kota, Distrik Wamena, Kabupaten Jayawijaya, Papua 99511","Wamena Kota, Distrik Wamena, Kabupaten Jayawijaya",PAPUA,99511.0,Indonesia,81356954606,,,-40.934.521,1.389.464.176,https://maps.google.com/?cid=0x0:0x99f90a37cc207474,
mall,Pusat Perbelanjaan,Vision City Mega Mall,"Lot 7, 8  9, Section 429, 131 National Capital District, Waigani Dr, Port Moresby, Papua Nugini","Port Moresby, Papua Nugini",PAPUA,,Indonesia,6753028555,,,-94.384.023,1.471.810.598,https://maps.google.com/?cid=0x0:0x6b6056559e073ba7,
mall,Toko,Papua Trade Centre,"JL Kelapa 2, Komplek Papua Trade Centre, Mandala, Kec. Jayapura Utara, Kota Jayapura, Papua","Kota Jayapura, Papua",PAPUA,,Indonesia,967551869,,,-2.533,140.717,https://maps.google.com/?cid=0x0:0xbd8fe8315ff72c67,
mall,Pusat Perbelanjaan,pasar pairipok atsj,"798M+CF7, Atsy, Kabupaten Asmat, Papua 99776","Atsy, Kabupaten Asmat",PAPUA,99776.0,Indonesia,,,,-57.339.634,1.383.836.694,https://maps.google.com/?cid=0x0:0x8dec5c06c24c2d0,
mall,mall,Surya Alam,"2R3H+M98, Kp. Baru, Yerfum, Cihara, Kabupaten Lebak, Banten 42392","Kp. Baru, Yerfum, Cihara, Kabupaten Lebak",PAPUA,42392.0,Indonesia,,,,-5.995.843,1.388.284.467,https://maps.google.com/?cid=0x0:0x69dd9a31e98d9355,
mall,Pusat Perbelanjaan,SAGA MALL,"Kota Baru, Kec. Abepura, Kota Jayapura, Papua 99351","Kec. Abepura, Kota Jayapura",PAPUA,99351.0,Indonesia,,,,-26.105.845,1.406.654.189,https://maps.google.com/?cid=0x0:0xaf65e43ff84ff9e6,
mall,Kedai Kopi,JCO COFFEE  DONUTS MALL JAYAPURA,"Jl. Kab. No.99112, Bayangkara, Kec. Jayapura Utara, Kota Jayapura, Papua 99112","Bayangkara, Kec. Jayapura Utara, Kota Jayapura",PAPUA,99112.0,Indonesia,,,,-25.353.252,1.407.060.198,https://maps.google.com/?cid=0x0:0x8cbe835113b8c269,
mall,Toko Swalayan,Hypermart Jayapura Mall,"Jl. Dr. Sam Ratulangi No.47, Bayangkara, Kec. Jayapura Utara, Kota Jayapura, Papua 99112","Bayangkara, Kec. Jayapura Utara, Kota Jayapura",PAPUA,99112.0,Indonesia,967522298,,,-25.350.388,1.407.055.769,https://maps.google.com/?cid=0x0:0xb1412384235d004a,
mall,Toko Pakaian,Marks  Spencer Senayan City,"Senayan City, Jl. Asia Afrika No.19 Lantai 1 Unit 89-90, RT.1/RW.3, Gelora, Kecamatan Tanah Abang, Kota Jakarta Pusat, Daerah Khusus Ibukota Jakarta 10270","Jl. Asia Afrika No.19 Lantai 1 Unit 89-90, RT.1/RW.3, Gelora, Kecamatan Tanah Abang, Kota Jakarta Pusat",PAPUA,10270.0,Indonesia,2172781082,,,-62.271.849,1.067.972.822,https://maps.google.com/?cid=0x0:0xfcc40cb2a39ada82,
mall,Mal outlet,Supermal Karawaci,"Jl. Boulevard Diponegoro No.105, Bencongan, Kec. Klp. Dua, Kabupaten Tangerang, Banten 15810","Bencongan, Kec. Klp. Dua, Kabupaten Tangerang",PAPUA,15810.0,Indonesia,215466666,,,-62.268.116,1.066.070.233,https://maps.google.com/?cid=0x0:0xc5927a7be82e23b8,
mall,Toko Pakaian,HM Kota Kasablanka,"Kota Casablanka Jl. Raya Casablanca No.56 Unit# G51, Raya, Jakarta, South Jakarta City, Banten 12870","Raya, Jakarta, South Jakarta City",PAPUA,12870.0,Indonesia,2129475102,,,-62.238.651,1.068.428.624,https://maps.google.com/?cid=0x0:0xbc49ac86f3b627f9,
mall,mall,Distrik Pantai Kasuari,"Kabupaten Asmat, Papua","Kabupaten Asmat, Papua",PAPUA,,Indonesia,,,,-62.184.287,138.598.804,https://maps.google.com/?cid=0x0:0x1b4529030e9094c,
mall,mall,Kios Bang Tiar,"QPVW+R8R, Kamur, Amkum, Kabupaten Asmat, Papua","Kabupaten Asmat, Papua",PAPUA,,Indonesia,,,,-62.053.875,1.387.457.719,https://maps.google.com/?cid=0x0:0xe61e69a88c3843eb,
mall,mall,Papua 99766,Papua,Papua,PAPUA,,Indonesia,,,,-52.037.329,1.394.466.005,https://maps.google.com/?cid=0x0:0xd6fdff385c07ba5d,
mall,Pusat Perbelanjaan,Pertokoan Kebutuhan Sehari Hari,"4FMJ+WX7, Massi, Kec. Dekai, Kabupaten Yahukimo, Papua 99571","Massi, Kec. Dekai, Kabupaten Yahukimo",PAPUA,99571.0,Indonesia,81252575899,,,-48.652.067,1.394.824.083,https://maps.google.com/?cid=0x0:0x8cfe1f5647672e8d,
mall,Pusat Perbelanjaan,Plaza Indonesia,"Jl. M.H. Thamrin No.Kav.28-30, Gondangdia, Kec. Menteng, Kota Jakarta Pusat, Daerah Khusus Ibukota Jakarta 10350","Gondangdia, Kec. Menteng, Kota Jakarta Pusat",PAPUA,10350.0,Indonesia,2129920000,,,-61.935.977,1.068.219.468,https://maps.google.com/?cid=0x0:0x7d7fe17ad64a053f,
mall,Pusat Perbelanjaan,IVANI COLECTION,"4FJH+XX6, Massi, Kec. Dekai, Kabupaten Yahukimo, Papua 99571","Massi, Kec. Dekai, Kabupaten Yahukimo",PAPUA,99571.0,Indonesia,82239536776,,,-48.675.953,1.394.798.892,https://maps.google.com/?cid=0x0:0x6a85cc0dc0d50e09,
mall,Pusat Perbelanjaan,Toko anhi,"Jln papua.ruko No.blok B, Massi, Kec. Dekai, Kabupaten Yahukimo, Papua 99571","Massi, Kec. Dekai, Kabupaten Yahukimo",PAPUA,99571.0,Indonesia,81390262543,,,-4.862.317,1.394.856.214,https://maps.google.com/?cid=0x0:0xddb273ca69cba983,
mall,mall,Suator,"Kabupaten Asmat, Papua","Kabupaten Asmat, Papua",PAPUA,,Indonesia,,,,-51.911.556,139.284.143,https://maps.google.com/?cid=0x0:0xb29915cc9bf8f2a6,
mall,Pusat Perbelanjaan,Mall Jayapura,"APO, Jl. Samratulangi, Bayangkara, Kec. Jayapura Utara, Kota Jayapura, Papua 99112","Jl. Samratulangi, Bayangkara, Kec. Jayapura Utara, Kota Jayapura",PAPUA,99112.0,Indonesia,9675150000,,,-25.351.775,1.407.061.874,https://maps.google.com/?cid=0x0:0x54294cb27964023,
mall,Pusat Perbelanjaan,SAGA MALL,"Kota Baru, Kec. Abepura, Kota Jayapura, Papua 99351","Kec. Abepura, Kota Jayapura",PAPUA,99351.0,Indonesia,,,,-26.105.845,1.406.654.189,https://maps.google.com/?cid=0x0:0xaf65e43ff84ff9e6,
mall,Kedai Kopi,JCO COFFEE  DONUTS MALL JAYAPURA,"Jl. Kab. No.99112, Bayangkara, Kec. Jayapura Utara, Kota Jayapura, Papua 99112","Bayangkara, Kec. Jayapura Utara, Kota Jayapura",PAPUA,99112.0,Indonesia,,,,-25.353.252,1.407.060.198,https://maps.google.com/?cid=0x0:0x8cbe835113b8c269,
mall,Pusat Perbelanjaan,Arion Mall,"Jl. Pemuda No.Kavling 3-4, RT.2/RW.7, Rawamangun, Kec. Pulo Gadung, Kota Jakarta Timur, Daerah Khusus Ibukota Jakarta 13220","RT.2/RW.7, Rawamangun, Kec. Pulo Gadung, Kota Jakarta Timur",PAPUA,13220.0,Indonesia,214711652,,,-61.938.923,106.890.485,https://maps.google.com/?cid=0x0:0x2c3ea95ddd6b2533,
mall,Restoran,Mall Cijantung,"MVP6+XRC, Jl. Pendidikan, RT.1/RW.4, Cijantung, Kec. Ps. Rebo, Kota Jakarta Timur, Daerah Khusus Ibukota Jakarta 13770","Jl. Pendidikan, RT.1/RW.4, Cijantung, Kec. Ps. Rebo, Kota Jakarta Timur",PAPUA,13770.0,Indonesia,85891111850,,,-6.312.566,1.068.620.154,https://maps.google.com/?cid=0x0:0x8ad235b0fa732cad,
mall,Gedung Apartemen,Mall@Bassura,"Jl. Jenderal Basuki Rachmat No.1A, Cipinang Besar Sel., Kecamatan Jatinegara, Kota Jakarta Timur, Daerah Khusus Ibukota Jakarta 13410","Cipinang Besar Sel., Kecamatan Jatinegara, Kota Jakarta Timur",PAPUA,13410.0,Indonesia,2122807300,,,-62.240.597,1.068.778.851,https://maps.google.com/?cid=0x0:0x610648e929845480,
mall,Pusat Perbelanjaan,Lippo Mall Nusantara,"Kawasan Bisnis Granadha, Jl. Jend. Sudirman No.Kav. 50, Karet Semanggi, Kecamatan Setiabudi, Kota Jakarta Selatan, Daerah Khusus Ibukota Jakarta 12930","Jl. Jend. Sudirman No.Kav. 50, Karet Semanggi, Kecamatan Setiabudi, Kota Jakarta Selatan",PAPUA,12930.0,Indonesia,81292197433,,,-62.208.309,106.813.989,https://maps.google.com/?cid=0x0:0x7a508480f6b357e9,
mall,Pusat Perbelanjaan,Plaza Indonesia,"Jl. M.H. Thamrin No.Kav.28-30, Gondangdia, Kec. Menteng, Kota Jakarta Pusat, Daerah Khusus Ibukota Jakarta 10350","Gondangdia, Kec. Menteng, Kota Jakarta Pusat",PAPUA,10350.0,Indonesia,2129920000,,,-61.935.977,1.068.219.468,https://maps.google.com/?cid=0x0:0x7d7fe17ad64a053f,
mall,Pusat Perbelanjaan,Mall Grand Metropolitan Bekasi,"Jl. KH. Noer Ali, RT.007/RW.003, Pekayon Jaya, Kec. Bekasi Sel., Kota Bks, Jawa Barat 17148","RT.007/RW.003, Pekayon Jaya, Kec. Bekasi Sel., Kota Bks",PAPUA,17148.0,Indonesia,2129464646,,,-62.491.162,1.069.845.353,https://maps.google.com/?cid=0x0:0x553935395094b20e,
mall,mall,Papua 99766,Papua,Papua,PAPUA,,Indonesia,,,,-52.037.329,1.394.466.005,https://maps.google.com/?cid=0x0:0xd6fdff385c07ba5d,
mall,mall,Kolf Braza,"Kabupaten Asmat, Papua","Kabupaten Asmat, Papua",PAPUA,,Indonesia,,,,-52.017.018,1.390.009.403,https://maps.google.com/?cid=0x0:0x51fb460a334e5e21,
mall,Pusat Perbelanjaan,Lotte Shopping Avenue Mall,"Jl. Prof. DR. Satrio No.Kav.3, RW.5, Kuningan, Karet Kuningan, Kecamatan Setiabudi, Kota Jakarta Selatan, Daerah Khusus Ibukota Jakarta 12940","RW.5, Kuningan, Karet Kuningan, Kecamatan Setiabudi, Kota Jakarta Selatan",PAPUA,12940.0,Indonesia,2129889292,,,-62.233.644,1.068.232.981,https://maps.google.com/?cid=0x0:0xe8323175da8b9770,
mall,Pusat Perbelanjaan,Mal Sorong,"479G+369, Klademak, Distrik Sorong, Kota Sorong, Papua Bar. 98412","Klademak, Distrik Sorong, Kota Sorong",PAPUA,98412.0,Indonesia,,,,-0.8823414,1.312.755.957,https://maps.google.com/?cid=0x0:0x4efad982776d0ca5,
mall,Pusat Perbelanjaan,Grand Indonesia Shopping Town,"Jl. M.H. Thamrin No.1, Menteng, Kec. Menteng, Kota Jakarta Pusat, Daerah Khusus Ibukota Jakarta 10310","Menteng, Kec. Menteng, Kota Jakarta Pusat",PAPUA,10310.0,Indonesia,2123580001,,,-61.965.848,1.068.224.882,https://maps.google.com/?cid=0x0:0xccfcc89b95aaf1ae,
mall,Pusat Perbelanjaan,Mall Of Indonesia,"Jl. Boulevard Bar. Raya No.12, RT.18/RW.19, Klp. Gading Bar., Kec. Klp. Gading, Jkt Utara, Daerah Khusus Ibukota Jakarta 14240","RT.18/RW.19, Klp. Gading Bar., Kec. Klp. Gading, Jkt Utara",PAPUA,14240.0,Indonesia,2145867888,,,-61.514.549,1.068.918.949,https://maps.google.com/?cid=0x0:0x3431c7aaadd1f1b6,
mall,Pusat Perbelanjaan,Pondok Indah Mall 1,"Jl. Metro Pondok Indah No.Kav. 4, RT.1/RW.16, Pd. Pinang, Kec. Kby. Lama, Kota Jakarta Selatan, Daerah Khusus Ibukota Jakarta 12310","RT.1/RW.16, Pd. Pinang, Kec. Kby. Lama, Kota Jakarta Selatan",PAPUA,12310.0,Indonesia,217506750,,,-62.652.166,1.067.843.165,https://maps.google.com/?cid=0x0:0x682837113c4ea854,
mall,Pusat Perbelanjaan,PARAGON SQUARE Mall  Hotel Sorong,"4874+4RH Paragon Square Mall, Jl. Basuki Rahmat Lt. 2, Sawagumu, Kec. Sorong Utara, Kota Sorong, Papua Bar. 98412","Jl. Basuki Rahmat Lt. 2, Sawagumu, Kec. Sorong Utara, Kota Sorong",PAPUA,98412.0,Indonesia,81247232214,,,-0.8871443,1.313.071.264,https://maps.google.com/?cid=0x0:0xd02481be48cb6e05,
mall,Pusat Perbelanjaan,Pertokoan Kebutuhan Sehari Hari,"4FMJ+WX7, Massi, Kec. Dekai, Kabupaten Yahukimo, Papua 99571","Massi, Kec. Dekai, Kabupaten Yahukimo",PAPUA,99571.0,Indonesia,81252575899,,,-48.652.067,1.394.824.083,https://maps.google.com/?cid=0x0:0x8cfe1f5647672e8d,
mall,Pusat Perbelanjaan,IVANI COLECTION,"4FJH+XX6, Massi, Kec. Dekai, Kabupaten Yahukimo, Papua 99571","Massi, Kec. Dekai, Kabupaten Yahukimo",PAPUA,99571.0,Indonesia,82239536776,,,-48.675.953,1.394.798.892,https://maps.google.com/?cid=0x0:0x6a85cc0dc0d50e09,
mall,Pusat Perbelanjaan,Pondok Indah Mall 2,"Jl. Metro Pondok Indah, Pd. Pinang, Kec. Kby. Lama, Kota Jakarta Selatan, Daerah Khusus Ibukota Jakarta 12310","Pd. Pinang, Kec. Kby. Lama, Kota Jakarta Selatan",PAPUA,12310.0,Indonesia,217506750,,,-62.655.241,1.067.827.928,https://maps.google.com/?cid=0x0:0x203a5d09556daf5f,
mall,Toko Tas Tangan,Bally,"Jl. M.H. Thamrin No.28-30 Unit 84 - 87, RT.9/RW.5, Gondangdia, Kec. Menteng, Kota Jakarta Pusat, Daerah Khusus Ibukota Jakarta 10350","RT.9/RW.5, Gondangdia, Kec. Menteng, Kota Jakarta Pusat",PAPUA,10350.0,Indonesia,2129923616,,,-61.925.909,1.068.216.814,https://maps.google.com/?cid=0x0:0x1ef7ee9adfa058ce,
mall,Pusat Perbelanjaan,CitiMall Cilegon,"Jl. Jenderal Sudirman, Ramanuju, Kec. Purwakarta, Kota Cilegon, Banten 42431","Ramanuju, Kec. Purwakarta, Kota Cilegon",PAPUA,42431.0,Indonesia,,,,-60.131.211,106.045.255,https://maps.google.com/?cid=0x0:0x74cd8e02666473ae,
mall,China,"Wee Nam Kee Chicken Rice, Mall of Indonesia","Mall of Indonesia, Lantai 1 Unit, Jl. Boulevard Bar. Raya No.1F D19, RT.18/RW.8, Klp. Gading Bar., Kec. Klp. Gading, Jkt Utara, Daerah Khusus Ibukota Jakarta 11420","Lantai 1 Unit, Jl. Boulevard Bar. Raya No.1F D19, RT.18/RW.8, Klp. Gading Bar., Kec. Klp. Gading, Jkt Utara",PAPUA,11420.0,Indonesia,8111020249,,,-61.507.649,1.068.921.973,https://maps.google.com/?cid=0x0:0x78224dbb1e81aaa9,
mall,mall,Distrik Unir Sirau,"Kabupaten Asmat, Papua","Kabupaten Asmat, Papua",PAPUA,,Indonesia,,,,-50.625.971,1.385.625.099,https://maps.google.com/?cid=0x0:0x18822be845d37aca,
mall,Pasar tradisional,Pasar Sirau,"Slori, Sirau, Kec. Kemranjen, Kabupaten Banyumas, Jawa Tengah 53194","Sirau, Kec. Kemranjen, Kabupaten Banyumas",PAPUA,53194.0,Indonesia,,,,-7.621.465,1.092.833.719,https://maps.google.com/?cid=0x0:0x4aeb66fc05a3ec4,
mall,Pusat Perbelanjaan,Mall Taman Anggrek,"Jl. Letjen S. Parman, RT.12/RW.1, Tj. Duren Sel., Kec. Grogol petamburan, Kota Jakarta Barat, Daerah Khusus Ibukota Jakarta 11470","RT.12/RW.1, Tj. Duren Sel., Kec. Grogol petamburan, Kota Jakarta Barat",PAPUA,11470.0,Indonesia,215643777,,,-61.782.936,1.067.924.023,https://maps.google.com/?cid=0x0:0xb287bf108f4ef441,
mall,mall,Papua 99777,"Kabupaten Asmat, Papua","Kabupaten Asmat, Papua",PAPUA,,Indonesia,,,,-54.613.838,1.381.995.591,https://maps.google.com/?cid=0x0:0x8e1d4401ddfcedae,
mall,mall,Distrik Joerat,"Kabupaten Asmat, Papua","Kabupaten Asmat, Papua",PAPUA,,Indonesia,,,,-54.922.847,1.380.855.542,https://maps.google.com/?cid=0x0:0xda3d3ca2262ba8b7,
mall,Pasar,Pasar Muyu,"F47P+R76, Jl. Yos Sudarso, Bis Agats, Distrik Agats, Kabupaten Asmat, Papua 99777","Jl. Yos Sudarso, Bis Agats, Distrik Agats, Kabupaten Asmat",PAPUA,99777.0,Indonesia,,,,-55.354.668,1.381.356.556,https://maps.google.com/?cid=0x0:0x62dbfa3f8cf3566,
mall,Toko bahan makanan,Kios Hasan,"Bis Agats, Distrik Agats, Kabupaten Asmat, Papua 99777","Distrik Agats, Kabupaten Asmat",PAPUA,99777.0,Indonesia,82239577365,,,-55.229.635,1.381.406.375,https://maps.google.com/?cid=0x0:0x3602a83970c37bb2,
mall,Minimarket,CHACA COOL,"F47P+JFH, Jl. Mutu Kecil, Bis Agats, Distrik Agats, Kabupaten Asmat, Papua 99777","Jl. Mutu Kecil, Bis Agats, Distrik Agats, Kabupaten Asmat",PAPUA,99777.0,Indonesia,81343333479,,,-55.359.458,1.381.362.499,https://maps.google.com/?cid=0x0:0x7e073cf26e98846a,
mall,Toko umum,Kios Putri Kirani,"Jl. Flos Rumlus, Bis Agats, Distrik Agats, Kabupaten Asmat, Papua 99777","Bis Agats, Distrik Agats, Kabupaten Asmat",PAPUA,99777.0,Indonesia,82198791988,,,-55.422.602,138.137.491,https://maps.google.com/?cid=0x0:0x1c03d24c6c5778be,
mall,mall,Kios RiFour,"F42J+9VP, Kompleks RSUD baru, Distrik Agats","Kabupaten Asmat, Papua",PAPUA,,Indonesia,,,,-55.490.424,1.381.322.066,https://maps.google.com/?cid=0x0:0xdca2eebfcfaa9533,
mall,mall,Kia Zahra,"F49R+M54, Jl. Dermaga Baru, Bis Agats, Distrik Agats, Kabupaten Asmat, Papua 99777","Jl. Dermaga Baru, Bis Agats, Distrik Agats, Kabupaten Asmat",PAPUA,99777.0,Indonesia,,,,-55.308.616,1.381.404.631,https://maps.google.com/?cid=0x0:0xcd35862e59e765a2,
mall,Pusat Perbelanjaan,Mall Jayapura,"APO, Jl. Samratulangi, Bayangkara, Kec. Jayapura Utara, Kota Jayapura, Papua 99112","Jl. Samratulangi, Bayangkara, Kec. Jayapura Utara, Kota Jayapura",PAPUA,99112.0,Indonesia,9675150000,,,-25.351.775,1.407.061.874,https://maps.google.com/?cid=0x0:0x54294cb27964023,
mall,mall,KIOS RAMLI LASALIMU,"F47P+Q7F, Bis Agats, Distrik Agats, Kabupaten Asmat, Papua 99777","Bis Agats, Distrik Agats, Kabupaten Asmat",PAPUA,99777.0,Indonesia,,,,-5.535.678,138.135.666,https://maps.google.com/?cid=0x0:0x1241093bf018655,
mall,mall,Kios Al-fath,"F47M+3HQ, Jl. Hasanuddin, Bis Agats, Distrik Agats, Kabupaten Asmat, Papua 99777","Jl. Hasanuddin, Bis Agats, Distrik Agats, Kabupaten Asmat",PAPUA,99777.0,Indonesia,,,,-55.372.904,1.381.339.734,https://maps.google.com/?cid=0x0:0xf7931c5ae155860d,
mall,Pusat Perbelanjaan,Mall Of Indonesia,"Jl. Boulevard Bar. Raya No.12, RT.18/RW.19, Klp. Gading Bar., Kec. Klp. Gading, Jkt Utara, Daerah Khusus Ibukota Jakarta 14240","RT.18/RW.19, Klp. Gading Bar., Kec. Klp. Gading, Jkt Utara",PAPUA,14240.0,Indonesia,2145867888,,,-61.514.549,1.068.918.949,https://maps.google.com/?cid=0x0:0x3431c7aaadd1f1b6,
mall,Pusat Perbelanjaan,Mall Ambasador,"Kuningan, Karet Kuningan, Kecamatan Setiabudi, Kota Jakarta Selatan, Daerah Khusus Ibukota Jakarta","Kota Jakarta Selatan, Daerah Khusus Ibukota Jakarta",PAPUA,,Indonesia,,,,-62.240.223,1.068.268.202,https://maps.google.com/?cid=0x0:0xffae3870f7ae2fd,
mall,mall,Distrik Joerat,"Kabupaten Asmat, Papua","Kabupaten Asmat, Papua",PAPUA,,Indonesia,,,,-54.922.847,1.380.855.542,https://maps.google.com/?cid=0x0:0xda3d3ca2262ba8b7,
mall,Pusat Perbelanjaan,Mall Jayapura,"APO, Jl. Samratulangi, Bayangkara, Kec. Jayapura Utara, Kota Jayapura, Papua 99112","Jl. Samratulangi, Bayangkara, Kec. Jayapura Utara, Kota Jayapura",PAPUA,99112.0,Indonesia,9675150000,,,-25.351.775,1.407.061.874,https://maps.google.com/?cid=0x0:0x54294cb27964023,
mall,Toko bahan makanan,Kios Hasan,"Bis Agats, Distrik Agats, Kabupaten Asmat, Papua 99777","Distrik Agats, Kabupaten Asmat",PAPUA,99777.0,Indonesia,82239577365,,,-55.229.635,1.381.406.375,https://maps.google.com/?cid=0x0:0x3602a83970c37bb2,
mall,Minimarket,KIOS PUTRA WABULA,"F44M+8JR, Jl. Yos Sudarso, Bis Agats, Distrik Agats, Kabupaten Asmat, Papua 99777","Jl. Yos Sudarso, Bis Agats, Distrik Agats, Kabupaten Asmat",PAPUA,99777.0,Indonesia,85240803009,,,-55.441.348,1.381.340.266,https://maps.google.com/?cid=0x0:0x5aec1437095d7ddb,
mall,Minimarket,CHACA COOL,"F47P+JFH, Jl. Mutu Kecil, Bis Agats, Distrik Agats, Kabupaten Asmat, Papua 99777","Jl. Mutu Kecil, Bis Agats, Distrik Agats, Kabupaten Asmat",PAPUA,99777.0,Indonesia,81343333479,,,-55.359.458,1.381.362.499,https://maps.google.com/?cid=0x0:0x7e073cf26e98846a,
mall,Pusat Perbelanjaan,SAGA MALL,"Kota Baru, Kec. Abepura, Kota Jayapura, Papua 99351","Kec. Abepura, Kota Jayapura",PAPUA,99351.0,Indonesia,,,,-26.105.845,1.406.654.189,https://maps.google.com/?cid=0x0:0xaf65e43ff84ff9e6,
mall,Toko umum,Kios Putri Kirani,"Jl. Flos Rumlus, Bis Agats, Distrik Agats, Kabupaten Asmat, Papua 99777","Bis Agats, Distrik Agats, Kabupaten Asmat",PAPUA,99777.0,Indonesia,82198791988,,,-55.422.602,138.137.491,https://maps.google.com/?cid=0x0:0x1c03d24c6c5778be,
mall,Pusat Perbelanjaan,pasar pairipok atsj,"798M+CF7, Atsy, Kabupaten Asmat, Papua 99776","Atsy, Kabupaten Asmat",PAPUA,99776.0,Indonesia,,,,-57.339.634,1.383.836.694,https://maps.google.com/?cid=0x0:0x8dec5c06c24c2d0,
mall,mall,Kia Zahra,"F49R+M54, Jl. Dermaga Baru, Bis Agats, Distrik Agats, Kabupaten Asmat, Papua 99777","Jl. Dermaga Baru, Bis Agats, Distrik Agats, Kabupaten Asmat",PAPUA,99777.0,Indonesia,,,,-55.308.616,1.381.404.631,https://maps.google.com/?cid=0x0:0xcd35862e59e765a2,
mall,mall,Kios RiFour,"F42J+9VP, Kompleks RSUD baru, Distrik Agats","Kabupaten Asmat, Papua",PAPUA,,Indonesia,,,,-55.490.424,1.381.322.066,https://maps.google.com/?cid=0x0:0xdca2eebfcfaa9533,
mall,mall,KIOS RAMLI LASALIMU,"F47P+Q7F, Bis Agats, Distrik Agats, Kabupaten Asmat, Papua 99777","Bis Agats, Distrik Agats, Kabupaten Asmat",PAPUA,99777.0,Indonesia,,,,-5.535.678,138.135.666,https://maps.google.com/?cid=0x0:0x1241093bf018655,
mall,mall,Kios Al-fath,"F47M+3HQ, Jl. Hasanuddin, Bis Agats, Distrik Agats, Kabupaten Asmat, Papua 99777","Jl. Hasanuddin, Bis Agats, Distrik Agats, Kabupaten Asmat",PAPUA,99777.0,Indonesia,,,,-55.372.904,1.381.339.734,https://maps.google.com/?cid=0x0:0xf7931c5ae155860d,
mall,mall,Pulau Tiga,"Kabupaten Asmat, Papua","Kabupaten Asmat, Papua",PAPUA,,Indonesia,,,,-48.345.584,1.380.010.282,https://maps.google.com/?cid=0x0:0xfa037f42c2a610b2,
mall,Pusat Perbelanjaan,Pacific Place Mall,"Jl. Jend. Sudirman kav 52-53, Senayan, Kec. Kby. Baru, Kota Jakarta Selatan, Daerah Khusus Ibukota Jakarta 12190","Senayan, Kec. Kby. Baru, Kota Jakarta Selatan",PAPUA,12190.0,Indonesia,2151402828,,,-62.240.197,1.068.101.858,https://maps.google.com/?cid=0x0:0xc4a608b34b5f03cc,
mall,Pusat Perbelanjaan,Mall Plaza Senayan,"Jl. Asia Afrika No.8, RT.1/RW.3, Gelora, Kecamatan Tanah Abang, Kota Jakarta Pusat, Daerah Khusus Ibukota Jakarta 10270","RT.1/RW.3, Gelora, Kecamatan Tanah Abang, Kota Jakarta Pusat",PAPUA,10270.0,Indonesia,215725555,,,-62.254.775,1.067.992.649,https://maps.google.com/?cid=0x0:0x788e3a1eef75ac94,
mall,Pusat Perbelanjaan,Gandaria City,"Jl. Sultan Iskandar Muda, Gandaria, Kec. Kby. Lama, Kota Jakarta Selatan, Daerah Khusus Ibukota Jakarta 12240","Gandaria, Kec. Kby. Lama, Kota Jakarta Selatan",PAPUA,12240.0,Indonesia,2129052888,,,-62.443.009,1.067.829.375,https://maps.google.com/?cid=0x0:0x6173704d396d5a99,
mall,Pusat Perbelanjaan,Grand Indonesia Shopping Town,"Jl. M.H. Thamrin No.1, Menteng, Kec. Menteng, Kota Jakarta Pusat, Daerah Khusus Ibukota Jakarta 10310","Menteng, Kec. Menteng, Kota Jakarta Pusat",PAPUA,10310.0,Indonesia,2123580001,,,-61.965.848,1.068.224.882,https://maps.google.com/?cid=0x0:0xccfcc89b95aaf1ae,
mall,Pusat Perbelanjaan,CENTRAL GI,"RR3C+MHR, RT.1/RW.5, Menteng, Kec. Menteng, Kota Jakarta Pusat, Daerah Khusus Ibukota Jakarta 10310","RT.1/RW.5, Menteng, Kec. Menteng, Kota Jakarta Pusat",PAPUA,10310.0,Indonesia,,,,-61.957.655,1.068.213.949,https://maps.google.com/?cid=0x0:0x5929a50bd3f43aeb,
mall,Pusat Perbelanjaan,Grand Indonesia,"Jl. MH Thamrin No.1, Menteng, Kec. Menteng, Kota Jakarta Pusat, Daerah Khusus Ibukota Jakarta 10310","Menteng, Kec. Menteng, Kota Jakarta Pusat",PAPUA,10310.0,Indonesia,2123580001,,,-61.950.412,1.068.210.081,https://maps.google.com/?cid=0x0:0xb04ce66a7cb711d9,
mall,Pusat Perbelanjaan,Plaza Indonesia,"Jl. M.H. Thamrin No.Kav.28-30, Gondangdia, Kec. Menteng, Kota Jakarta Pusat, Daerah Khusus Ibukota Jakarta 10350","Gondangdia, Kec. Menteng, Kota Jakarta Pusat",PAPUA,10350.0,Indonesia,2129920000,,,-61.935.977,1.068.219.468,https://maps.google.com/?cid=0x0:0x7d7fe17ad64a053f,
mall,Toko Kosmetik,Martha Tilaar Shop Pondok Indah Mall 1,"PQMJ+PXR, Mall Pondok Indah, Jl. Metro Pondok Indah, RT.1/RW.16, Pd. Pinang, Kec. Kby. Lama, Kota Jakarta Selatan, Daerah Khusus Ibukota Jakarta 12310","Mall Pondok Indah, Jl. Metro Pondok Indah, RT.1/RW.16, Pd. Pinang, Kec. Kby. Lama, Kota Jakarta Selatan",PAPUA,12310.0,Indonesia,2175920840,,,-62.656.418,1.067.823.963,https://maps.google.com/?cid=0x0:0xb108a6dc80849d18,
mall,Pusat Perbelanjaan,East lobby GI,"Kb. Melati, Kec. Menteng, Kota Jakarta Pusat, Daerah Khusus Ibukota Jakarta","Kota Jakarta Pusat, Daerah Khusus Ibukota Jakarta",PAPUA,,Indonesia,8996383922,,,-61.958.251,106.821.479,https://maps.google.com/?cid=0x0:0x60793d5a4cb33a14,
mall,mall,Pulau Tiga,"Kabupaten Asmat, Papua","Kabupaten Asmat, Papua",PAPUA,,Indonesia,,,,-48.345.584,1.380.010.282,https://maps.google.com/?cid=0x0:0xfa037f42c2a610b2,
mall,mall,Pulau Tiga,"Sabah, Malaysia","Sabah, Malaysia",PAPUA,,Indonesia,,,,57.253.104,1.156.539.512,https://maps.google.com/?cid=0x0:0x8079bff4b0073ec3,
mall,mall,Pulau Tiga Resort,"Sabah, Malaysia","Sabah, Malaysia",PAPUA,,Indonesia,6088218710,,,572.134,115.650.801,https://maps.google.com/?cid=0x0:0xabef5401d6008a5e,
mall,Pusat Perbelanjaan,Mall Jayapura,"APO, Jl. Samratulangi, Bayangkara, Kec. Jayapura Utara, Kota Jayapura, Papua 99112","Jl. Samratulangi, Bayangkara, Kec. Jayapura Utara, Kota Jayapura",PAPUA,99112.0,Indonesia,9675150000,,,-25.351.775,1.407.061.874,https://maps.google.com/?cid=0x0:0x54294cb27964023,
mall,Pusat Perbelanjaan,SAGA MALL,"Kota Baru, Kec. Abepura, Kota Jayapura, Papua 99351","Kec. Abepura, Kota Jayapura",PAPUA,99351.0,Indonesia,,,,-26.105.845,1.406.654.189,https://maps.google.com/?cid=0x0:0xaf65e43ff84ff9e6,
mall,Kedai Kopi,JCO COFFEE  DONUTS MALL JAYAPURA,"Jl. Kab. No.99112, Bayangkara, Kec. Jayapura Utara, Kota Jayapura, Papua 99112","Bayangkara, Kec. Jayapura Utara, Kota Jayapura",PAPUA,99112.0,Indonesia,,,,-25.353.252,1.407.060.198,https://maps.google.com/?cid=0x0:0x8cbe835113b8c269,
mall,Minimarket,Jayapura,"RJHR+X47, Sukaasih, Kec. Tangerang, Kota Tangerang, Banten","Kota Tangerang, Banten",PAPUA,,Indonesia,,,,-61.700.957,1.066.403.119,https://maps.google.com/?cid=0x0:0xd349b4eed66f2ec0,
mall,Pusat Perbelanjaan,Grand Indonesia Shopping Town,"Jl. M.H. Thamrin No.1, Menteng, Kec. Menteng, Kota Jakarta Pusat, Daerah Khusus Ibukota Jakarta 10310","Menteng, Kec. Menteng, Kota Jakarta Pusat",PAPUA,10310.0,Indonesia,2123580001,,,-61.965.848,1.068.224.882,https://maps.google.com/?cid=0x0:0xccfcc89b95aaf1ae,
mall,Pusat Perbelanjaan,Grand Indonesia,"Jl. MH Thamrin No.1, Menteng, Kec. Menteng, Kota Jakarta Pusat, Daerah Khusus Ibukota Jakarta 10310","Menteng, Kec. Menteng, Kota Jakarta Pusat",PAPUA,10310.0,Indonesia,2123580001,,,-61.950.412,1.068.210.081,https://maps.google.com/?cid=0x0:0xb04ce66a7cb711d9,
mall,Pusat Perbelanjaan,Mall Jayapura,"APO, Jl. Samratulangi, Bayangkara, Kec. Jayapura Utara, Kota Jayapura, Papua 99112","Jl. Samratulangi, Bayangkara, Kec. Jayapura Utara, Kota Jayapura",PAPUA,99112.0,Indonesia,9675150000,,,-25.351.775,1.407.061.874,https://maps.google.com/?cid=0x0:0x54294cb27964023,
mall,Pusat Perbelanjaan,SAGA MALL,"Kota Baru, Kec. Abepura, Kota Jayapura, Papua 99351","Kec. Abepura, Kota Jayapura",PAPUA,99351.0,Indonesia,,,,-26.105.845,1.406.654.189,https://maps.google.com/?cid=0x0:0xaf65e43ff84ff9e6,
mall,Pusat Perbelanjaan,Grand Indonesia Shopping Town,"Jl. M.H. Thamrin No.1, Menteng, Kec. Menteng, Kota Jakarta Pusat, Daerah Khusus Ibukota Jakarta 10310","Menteng, Kec. Menteng, Kota Jakarta Pusat",PAPUA,10310.0,Indonesia,2123580001,,,-61.965.848,1.068.224.882,https://maps.google.com/?cid=0x0:0xccfcc89b95aaf1ae,
mall,Pusat Perbelanjaan,Plaza Indonesia,"Jl. M.H. Thamrin No.Kav.28-30, Gondangdia, Kec. Menteng, Kota Jakarta Pusat, Daerah Khusus Ibukota Jakarta 10350","Gondangdia, Kec. Menteng, Kota Jakarta Pusat",PAPUA,10350.0,Indonesia,2129920000,,,-61.935.977,1.068.219.468,https://maps.google.com/?cid=0x0:0x7d7fe17ad64a053f,
mall,Pusat Perbelanjaan,CENTRAL GI,"RR3C+MHR, RT.1/RW.5, Menteng, Kec. Menteng, Kota Jakarta Pusat, Daerah Khusus Ibukota Jakarta 10310","RT.1/RW.5, Menteng, Kec. Menteng, Kota Jakarta Pusat",PAPUA,10310.0,Indonesia,,,,-61.957.655,1.068.213.949,https://maps.google.com/?cid=0x0:0x5929a50bd3f43aeb,
mall,Kafe,The Coffee Bean and Tea Leaf - Grand Indonesia,"Jl. Teluk Betung No.38, RT.4/RW.1, Kb. Melati, Kecamatan Tanah Abang, Kota Jakarta Pusat, Daerah Khusus Ibukota Jakarta 10230","RT.4/RW.1, Kb. Melati, Kecamatan Tanah Abang, Kota Jakarta Pusat",PAPUA,10230.0,Indonesia,2123580512,,,-61.948.541,1.068.201.944,https://maps.google.com/?cid=0x0:0xc6d728bcb41a3324,
mall,Toko Pakaian,GLAM ON Grand Indonesia,"LG 07-WM, Jl. M.H. Thamrin No.1, RT.1/RW.5, Kebon Melati, Central Jakarta City, Jakarta 10230","Jl. M.H. Thamrin No.1, RT.1/RW.5, Kebon Melati, Central Jakarta City",PAPUA,10230.0,Indonesia,81519237233,,,-61.946.937,1.068.196.057,https://maps.google.com/?cid=0x0:0xa685b35aeba07286,
mall,Toko Aksesori Ponsel,Jete - Senayan Park,"Senayan Park, Jl. Gerbang Pemuda Jl. Gelora Bung Karno No.3, RT.1/RW.3, Gelora, Kecamatan Tanah Abang, Kota Jakarta Pusat, Daerah Khusus Ibukota Jakarta 10270","Jl. Gerbang Pemuda Jl. Gelora Bung Karno No.3, RT.1/RW.3, Gelora, Kecamatan Tanah Abang, Kota Jakarta Pusat",PAPUA,10270.0,Indonesia,82260584338,,,-62.123.902,1.068.026.629,https://maps.google.com/?cid=0x0:0xda2a15affa4d4510,
mall,Pusat Perbelanjaan,Central Park,"Jl. Letjen S. Parman No.Kav. 28, Tj. Duren Sel., Kec. Grogol petamburan, Kota Jakarta Barat, Daerah Khusus Ibukota Jakarta 11470","Tj. Duren Sel., Kec. Grogol petamburan, Kota Jakarta Barat",PAPUA,11470.0,Indonesia,2156989999,,,-61.771.373,1.067.909.788,https://maps.google.com/?cid=0x0:0xe816d65037c3207a,
mall,Pusat Perbelanjaan,JETE Senayan Park Mall,"Senayan Park Mall, Jl. Gerbang Pemuda Lt. UG-56, RT.1/RW.3, Gelora, Kecamatan Tanah Abang, Kota Jakarta Pusat, Daerah Khusus Ibukota Jakarta 10270","Jl. Gerbang Pemuda Lt. UG-56, RT.1/RW.3, Gelora, Kecamatan Tanah Abang, Kota Jakarta Pusat",PAPUA,10270.0,Indonesia,81217393609,,,-62.119.826,106.805.382,https://maps.google.com/?cid=0x0:0x776fafe059c2924a,
mall,Pusat Perbelanjaan,East lobby GI,"Kb. Melati, Kec. Menteng, Kota Jakarta Pusat, Daerah Khusus Ibukota Jakarta","Kota Jakarta Pusat, Daerah Khusus Ibukota Jakarta",PAPUA,,Indonesia,8996383922,,,-61.958.251,106.821.479,https://maps.google.com/?cid=0x0:0x60793d5a4cb33a14,
mall,Pusat Perbelanjaan,Jete Mall Of Indonesia,"Jl. Boulevard Bar. Raya No.12, RT.2/RW.9, Klp. Gading Bar., Kec. Klp. Gading, Jkt Utara, Daerah Khusus Ibukota Jakarta 14240","RT.2/RW.9, Klp. Gading Bar., Kec. Klp. Gading, Jkt Utara",PAPUA,14240.0,Indonesia,81299705823,,,-61.507.973,1.068.922.892,https://maps.google.com/?cid=0x0:0xaee79ad140412f72,
mall,Pusat Perbelanjaan,Mal Ciputra Jakarta,"Jl. Letjen S. Parman, RT.11/RW.1, Tj. Duren Utara, Kec. Grogol petamburan, Kota Jakarta Barat, Daerah Khusus Ibukota Jakarta 11470","RT.11/RW.1, Tj. Duren Utara, Kec. Grogol petamburan, Kota Jakarta Barat",PAPUA,11470.0,Indonesia,,,,-61.683.907,1.067.866.182,https://maps.google.com/?cid=0x0:0xc1a27eebd0600293,
mall,Pusat Perbelanjaan,Mall Of Indonesia,"Jl. Boulevard Bar. Raya No.12, RT.18/RW.19, Klp. Gading Bar., Kec. Klp. Gading, Jkt Utara, Daerah Khusus Ibukota Jakarta 14240","RT.18/RW.19, Klp. Gading Bar., Kec. Klp. Gading, Jkt Utara",PAPUA,14240.0,Indonesia,2145867888,,,-61.514.549,1.068.918.949,https://maps.google.com/?cid=0x0:0x3431c7aaadd1f1b6,
mall,mall,Papua 99773,"Distrik Pantai Kasuari, Kabupaten Asmat, Papua","Kabupaten Asmat, Papua",PAPUA,,Indonesia,,,,-63.217.958,1.386.388.879,https://maps.google.com/?cid=0x0:0x6ae3147f1b6c530a,
mall,mall,Bosky,"MCFP+RH, Aworket, Safan, Kabupaten Asmat, Papua","Kabupaten Asmat, Papua",PAPUA,,Indonesia,,,,-6.325.481,1.384.364.901,https://maps.google.com/?cid=0x0:0x7f563dd88db411bf,
mall,mall,Kios Bang Tiar,"QPVW+R8R, Kamur, Amkum, Kabupaten Asmat, Papua","Kabupaten Asmat, Papua",PAPUA,,Indonesia,,,,-62.053.875,1.387.457.719,https://maps.google.com/?cid=0x0:0xe61e69a88c3843eb,
mall,Pusat Perbelanjaan,Mall Jayapura,"APO, Jl. Samratulangi, Bayangkara, Kec. Jayapura Utara, Kota Jayapura, Papua 99112","Jl. Samratulangi, Bayangkara, Kec. Jayapura Utara, Kota Jayapura",PAPUA,99112.0,Indonesia,9675150000,,,-25.351.775,1.407.061.874,https://maps.google.com/?cid=0x0:0x54294cb27964023,
mall,Pusat Perbelanjaan,SAGA MALL,"Kota Baru, Kec. Abepura, Kota Jayapura, Papua 99351","Kec. Abepura, Kota Jayapura",PAPUA,99351.0,Indonesia,,,,-26.105.845,1.406.654.189,https://maps.google.com/?cid=0x0:0xaf65e43ff84ff9e6,
mall,Kedai Kopi,JCO COFFEE  DONUTS MALL JAYAPURA,"Jl. Kab. No.99112, Bayangkara, Kec. Jayapura Utara, Kota Jayapura, Papua 99112","Bayangkara, Kec. Jayapura Utara, Kota Jayapura",PAPUA,99112.0,Indonesia,,,,-25.353.252,1.407.060.198,https://maps.google.com/?cid=0x0:0x8cbe835113b8c269,
mall,mall,KOPAGUS,"Jl. Jamblang I No.23 7, RT.7/RW.10, Jati Padang, Ps. Minggu, Kota Jakarta Selatan, Daerah Khusus Ibukota Jakarta 12540","RT.7/RW.10, Jati Padang, Ps. Minggu, Kota Jakarta Selatan",PAPUA,12540.0,Indonesia,82135191566,,,-62.803.852,1.068.353.967,https://maps.google.com/?cid=0x0:0x768f0d1c7fce2223,
mall,mall,Papua 99773,"Distrik Pantai Kasuari, Kabupaten Asmat, Papua","Kabupaten Asmat, Papua",PAPUA,,Indonesia,,,,-63.217.958,1.386.388.879,https://maps.google.com/?cid=0x0:0x6ae3147f1b6c530a,
mall,mall,Bosky,"MCFP+RH, Aworket, Safan, Kabupaten Asmat, Papua","Kabupaten Asmat, Papua",PAPUA,,Indonesia,,,,-6.325.481,1.384.364.901,https://maps.google.com/?cid=0x0:0x7f563dd88db411bf,
mall,Pusat Perbelanjaan,Mall Jayapura,"APO, Jl. Samratulangi, Bayangkara, Kec. Jayapura Utara, Kota Jayapura, Papua 99112","Jl. Samratulangi, Bayangkara, Kec. Jayapura Utara, Kota Jayapura",PAPUA,99112.0,Indonesia,9675150000,,,-25.351.775,1.407.061.874,https://maps.google.com/?cid=0x0:0x54294cb27964023,
mall,Pusat Perbelanjaan,Mall Sentani City Square,"Jl. Raya Kemiri No.286, Hinekombe, Kec. Sentani, Kabupaten Jayapura, Papua 99352","Hinekombe, Kec. Sentani, Kabupaten Jayapura",PAPUA,99352.0,Indonesia,82198389205,,,-25.632.484,1.405.006.043,https://maps.google.com/?cid=0x0:0x666e57130aca06b8,
mall,Pusat Perbelanjaan,Wamena Mall,"WW4W+JH7, Wamena Kota, Distrik Wamena, Kabupaten Jayawijaya, Papua 99511","Wamena Kota, Distrik Wamena, Kabupaten Jayawijaya",PAPUA,99511.0,Indonesia,81356954606,,,-40.934.521,1.389.464.176,https://maps.google.com/?cid=0x0:0x99f90a37cc207474,
mall,mall,Kios Bang Tiar,"QPVW+R8R, Kamur, Amkum, Kabupaten Asmat, Papua","Kabupaten Asmat, Papua",PAPUA,,Indonesia,,,,-62.053.875,1.387.457.719,https://maps.google.com/?cid=0x0:0xe61e69a88c3843eb,
mall,Pusat Perbelanjaan,Mall Plaza Senayan,"Jl. Asia Afrika No.8, RT.1/RW.3, Gelora, Kecamatan Tanah Abang, Kota Jakarta Pusat, Daerah Khusus Ibukota Jakarta 10270","RT.1/RW.3, Gelora, Kecamatan Tanah Abang, Kota Jakarta Pusat",PAPUA,10270.0,Indonesia,215725555,,,-62.254.775,1.067.992.649,https://maps.google.com/?cid=0x0:0x788e3a1eef75ac94,
mall,Pusat Perbelanjaan,Pacific Place Mall,"Jl. Jend. Sudirman kav 52-53, Senayan, Kec. Kby. Baru, Kota Jakarta Selatan, Daerah Khusus Ibukota Jakarta 12190","Senayan, Kec. Kby. Baru, Kota Jakarta Selatan",PAPUA,12190.0,Indonesia,2151402828,,,-62.240.197,1.068.101.858,https://maps.google.com/?cid=0x0:0xc4a608b34b5f03cc,
mall,Pusat Perbelanjaan,Mall Kota Kasablanka,"Jl. Raya Casablanca No.Kav 88, Menteng Dalam, Kec. Tebet, Kota Jakarta Selatan, Daerah Khusus Ibukota Jakarta 12870","Menteng Dalam, Kec. Tebet, Kota Jakarta Selatan",PAPUA,12870.0,Indonesia,2129465000,,,-62.240.353,1.068.425.979,https://maps.google.com/?cid=0x0:0xaf54cb631563acce,
mall,Toko Pakaian,Sogo Plaza Senayan,"Jl. Asia Afrika Plaza No.8, RT.1/RW.3, Senayan, Kecamatan Tanah Abang, Kota Jakarta Pusat, Daerah Khusus Ibukota Jakarta 10270","RT.1/RW.3, Senayan, Kecamatan Tanah Abang, Kota Jakarta Pusat",PAPUA,10270.0,Indonesia,2157900055,,,-62.255.782,1.067.990.351,https://maps.google.com/?cid=0x0:0xa9954a894bf479ef,
mall,Pusat Perbelanjaan,Grand Indonesia Shopping Town,"Jl. M.H. Thamrin No.1, Menteng, Kec. Menteng, Kota Jakarta Pusat, Daerah Khusus Ibukota Jakarta 10310","Menteng, Kec. Menteng, Kota Jakarta Pusat",PAPUA,10310.0,Indonesia,2123580001,,,-61.965.848,1.068.224.882,https://maps.google.com/?cid=0x0:0xccfcc89b95aaf1ae,
mall,Toserba,Galeries Lafayette - Pacific Place,"Floor Pacific Place Mall Jakarta, Jl. Jend. Sudirman kav 52-53 No.5, RT.5/RW.3, Senayan, Kec. Kby. Baru, Kota Jakarta Selatan, Daerah Khusus Ibukota Jakarta 12190","Jl. Jend. Sudirman kav 52-53 No.5, RT.5/RW.3, Senayan, Kec. Kby. Baru, Kota Jakarta Selatan",PAPUA,12190.0,Indonesia,,,,-62.252.329,1.068.099.256,https://maps.google.com/?cid=0x0:0xae670bf31a4fe49c,
mall,Pusat Perbelanjaan,Pondok Indah Mall 1,"Jl. Metro Pondok Indah No.Kav. 4, RT.1/RW.16, Pd. Pinang, Kec. Kby. Lama, Kota Jakarta Selatan, Daerah Khusus Ibukota Jakarta 12310","RT.1/RW.16, Pd. Pinang, Kec. Kby. Lama, Kota Jakarta Selatan",PAPUA,12310.0,Indonesia,217506750,,,-62.652.166,1.067.843.165,https://maps.google.com/?cid=0x0:0x682837113c4ea854,
mall,Pusat Perbelanjaan,Grand Indonesia,"Jl. MH Thamrin No.1, Menteng, Kec. Menteng, Kota Jakarta Pusat, Daerah Khusus Ibukota Jakarta 10310","Menteng, Kec. Menteng, Kota Jakarta Pusat",PAPUA,10310.0,Indonesia,2123580001,,,-61.950.412,1.068.210.081,https://maps.google.com/?cid=0x0:0xb04ce66a7cb711d9,
mall,Minimarket,Safa Marwah shop,"R2M5+5M5, Jl. H.Genang Tanah Tinggi, Setia Asih, Kec. Babelan, Kabupaten Bekasi, Jawa Barat 17610","Jl. H.Genang Tanah Tinggi, Setia Asih, Kec. Babelan, Kabupaten Bekasi",PAPUA,17610.0,Indonesia,81290740603,,,-61.671.096,1.070.092.305,https://maps.google.com/?cid=0x0:0xf977fd154ab8a4f0,
mall,Pusat Perbelanjaan,By The Sea Shopping District at Golf Island PIK,"Jl. Golf Island Timur, Kamal Muara, Daerah Khusus Ibukota Jakarta 14470",Kamal Muara,PAPUA,14470.0,Indonesia,85693855748,,,-60.933.719,1.067.499.407,https://maps.google.com/?cid=0x0:0xbdfc6a69282c9c3a,
mall,Toserba,METRO Plaza Senayan,"Mall Plaza Senayan, Central Jakarta Ground Floor, Jl. Asia Afrika No.8, RT.1/RW.3, Gelora, Kecamatan Tanah Abang, Kota Jakarta Pusat, Daerah Khusus Ibukota Jakarta 10270","Central Jakarta Ground Floor, Jl. Asia Afrika No.8, RT.1/RW.3, Gelora, Kecamatan Tanah Abang, Kota Jakarta Pusat",PAPUA,10270.0,Indonesia,215725428,,,-62.263.718,1.067.987.176,https://maps.google.com/?cid=0x0:0xae0a818b2266470f,
mall,Pusat Perbelanjaan,Pondok Indah Mall 3,"Jl. Sultan Iskandar Muda No.Kav. 4, Pd. Pinang, Kec. Kby. Lama, Kota Jakarta Selatan, Daerah Khusus Ibukota Jakarta 12310","Pd. Pinang, Kec. Kby. Lama, Kota Jakarta Selatan",PAPUA,12310.0,Indonesia,217506750,,,-62.636.791,1.067.820.204,https://maps.google.com/?cid=0x0:0x2d1bdc0356a478a8,
mall,Toserba,Seibu Grand Indonesia,"Jl. M.H. Thamrin No.1, RT.1/RW.5, Kb. Melati, Kec. Menteng, Kota Jakarta Pusat, Daerah Khusus Ibukota Jakarta 10310","RT.1/RW.5, Kb. Melati, Kec. Menteng, Kota Jakarta Pusat",PAPUA,10310.0,Indonesia,2123580100,,,-6.195.462,1.068.197.925,https://maps.google.com/?cid=0x0:0x2a655f7752e3505c,
mall,Pusat Perbelanjaan,STOCKIST TANGERANG,"QMCV+J8F, Jln.h.sontong kel, RT.005/RW.004, Sudimara Pinang, Kec. Pinang, Kota Tangerang, Banten 15145","Jln.h.sontong kel, RT.005/RW.004, Sudimara Pinang, Kec. Pinang, Kota Tangerang",PAPUA,15145.0,Indonesia,82225164531,,,-62.284.479,106.693.286,https://maps.google.com/?cid=0x0:0xd44236edac5572f9,
mall,Toko,Safa_fashions,"Rancakole, Kec. Arjasari, Kabupaten Bandung, Jawa Barat 40379","Kec. Arjasari, Kabupaten Bandung",PAPUA,40379.0,Indonesia,85885074993,,,-7.065.336,1.076.793.643,https://maps.google.com/?cid=0x0:0x88658206515078d6,
mall,mall,Distrik Ayip,"Kabupaten Asmat, Papua","Kabupaten Asmat, Papua",PAPUA,,Indonesia,,,,-59.254.896,1.386.319.781,https://maps.google.com/?cid=0x0:0x8e66166709e21012,
mall,Pusat Perbelanjaan,Mall Jayapura,"APO, Jl. Samratulangi, Bayangkara, Kec. Jayapura Utara, Kota Jayapura, Papua 99112","Jl. Samratulangi, Bayangkara, Kec. Jayapura Utara, Kota Jayapura",PAPUA,99112.0,Indonesia,9675150000,,,-25.351.775,1.407.061.874,https://maps.google.com/?cid=0x0:0x54294cb27964023,
mall,mall,Surya Alam,"2R3H+M98, Kp. Baru, Yerfum, Cihara, Kabupaten Lebak, Banten 42392","Kp. Baru, Yerfum, Cihara, Kabupaten Lebak",PAPUA,42392.0,Indonesia,,,,-5.995.843,1.388.284.467,https://maps.google.com/?cid=0x0:0x69dd9a31e98d9355,
mall,mall,mappi,"F853+JJP, Jl. Irian Kepi, Obaa, Kec. Obaa, Kabupaten Mappi, Papua 99881","Jl. Irian Kepi, Obaa, Kec. Obaa, Kabupaten Mappi",PAPUA,99881.0,Indonesia,81354035347,,,-65.409.112,1.393.040.764,https://maps.google.com/?cid=0x0:0xa11baab1d5612b4d,
mall,Pusat Perbelanjaan,Epicentrum Mall,"Jl. Epicentrum Boulevard Bar. No.2, RT.2/RW.5, Karet Kuningan, Kecamatan Setiabudi, Kota Jakarta Selatan, Daerah Khusus Ibukota Jakarta 12940","RT.2/RW.5, Karet Kuningan, Kecamatan Setiabudi, Kota Jakarta Selatan",PAPUA,12940.0,Indonesia,,,,-62.180.242,1.068.351.085,https://maps.google.com/?cid=0x0:0x85761b7c512a7cbf,
mall,Pusat Perbelanjaan,Ayushop02,"Jl. H. Jairi No.15, RT.15/RW.12, Kapuk, Kecamatan Cengkareng, Kota Jakarta Barat, Daerah Khusus Ibukota Jakarta 11720","RT.15/RW.12, Kapuk, Kecamatan Cengkareng, Kota Jakarta Barat",PAPUA,11720.0,Indonesia,83875073914,,,-6.138.696,106.750.207,https://maps.google.com/?cid=0x0:0xa1a7342a35824f74,
mall,Pusat Perbelanjaan,Ianapi_shop,"Jalan Jati Padang Blok Musawarah No.94, RT.10/RW.5, Jagakarsa, Kec. Jagakarsa, Kota Jakarta Selatan, Daerah Khusus Ibukota Jakarta 12550","RT.10/RW.5, Jagakarsa, Kec. Jagakarsa, Kota Jakarta Selatan",PAPUA,12550.0,Indonesia,83897176956,,,-63.189.081,1.068.243.439,https://maps.google.com/?cid=0x0:0xf3c81bee3368d9df,
mall,Pusat Perbelanjaan,Ayojastip,"Jl. Raya Jagakarsa Jl. Aren III No.4 2, Jagakarsa, Kec. Jagakarsa, Kota Jakarta Selatan, Daerah Khusus Ibukota Jakarta 12620","Jagakarsa, Kec. Jagakarsa, Kota Jakarta Selatan",PAPUA,12620.0,Indonesia,87784424550,,,-63.272.697,1.068.171.391,https://maps.google.com/?cid=0x0:0x270e24c0f86b1561,
mall,Pusat Perbelanjaan,Lippo Mall Puri,"Jl. Puri Indah Raya Blok U 1, RT.3/RW.2, Kembangan Sel., Kec. Kembangan, Kota Jakarta Barat, Daerah Khusus Ibukota Jakarta 11610","RT.3/RW.2, Kembangan Sel., Kec. Kembangan, Kota Jakarta Barat",PAPUA,11610.0,Indonesia,2129111111,,,-61.884.554,1.067.389.094,https://maps.google.com/?cid=0x0:0x41cca4768f8bf65b,
mall,Perhentian bus,Plaza Slipi Jaya,"Jl. Letjen S. Parman, RT.14/RW.1, Kemanggisan, Kec. Palmerah, Kota Jakarta Barat, Daerah Khusus Ibukota Jakarta 11480","RT.14/RW.1, Kemanggisan, Kec. Palmerah, Kota Jakarta Barat",PAPUA,11480.0,Indonesia,215304023,,,-61.892.704,1.067.965.048,https://maps.google.com/?cid=0x0:0x4901356a543de45c,
mall,Pusat Perbelanjaan,AY Store,"no 53 Rt13 Rw 13, Jl. Warakas VI Gg. 17, RT.9/RW.5, Papanggo, Kec. Tj. Priok, Jkt Utara, Daerah Khusus Ibukota Jakarta 14340","Jl. Warakas VI Gg. 17, RT.9/RW.5, Papanggo, Kec. Tj. Priok, Jkt Utara",PAPUA,14340.0,Indonesia,82112557612,,,-61.239.554,1.068.745.065,https://maps.google.com/?cid=0x0:0x621604e16f6902aa,
mall,Pusat Perbelanjaan,Mall Of Indonesia,"Jl. Boulevard Bar. Raya No.12, RT.18/RW.19, Klp. Gading Bar., Kec. Klp. Gading, Jkt Utara, Daerah Khusus Ibukota Jakarta 14240","RT.18/RW.19, Klp. Gading Bar., Kec. Klp. Gading, Jkt Utara",PAPUA,14240.0,Indonesia,2145867888,,,-61.514.549,1.068.918.949,https://maps.google.com/?cid=0x0:0x3431c7aaadd1f1b6,
mall,Toko bahan makanan,Warung bang aip,"Jl. Jengki Cipinang Asem No.6b, RT.6/RW.12, Makasar, Kec. Makasar, Kota Jakarta Timur, Daerah Khusus Ibukota Jakarta 13650","RT.6/RW.12, Makasar, Kec. Makasar, Kota Jakarta Timur",PAPUA,13650.0,Indonesia,82213765416,,,-62.550.844,1.068.781.585,https://maps.google.com/?cid=0x0:0xc2ff4173abf416ee,
mall,Pusat Perbelanjaan,Mal Ciputra Jakarta,"Jl. Letjen S. Parman, RT.11/RW.1, Tj. Duren Utara, Kec. Grogol petamburan, Kota Jakarta Barat, Daerah Khusus Ibukota Jakarta 11470","RT.11/RW.1, Tj. Duren Utara, Kec. Grogol petamburan, Kota Jakarta Barat",PAPUA,11470.0,Indonesia,,,,-61.683.907,1.067.866.182,https://maps.google.com/?cid=0x0:0xc1a27eebd0600293,
mall,Pusat Perbelanjaan,As,"Jl. Duri A II No.2 5, RT.5/RW.2, Duri Pulo, Kecamatan Gambir, Kota Jakarta Pusat, Daerah Khusus Ibukota Jakarta 10140","RT.5/RW.2, Duri Pulo, Kecamatan Gambir, Kota Jakarta Pusat",PAPUA,10140.0,Indonesia,85846025553,,,-61.620.181,1.068.070.078,https://maps.google.com/?cid=0x0:0x4df4e81d039d92b4,
mall,Pusat Perbelanjaan,Iyan,"ITC Mangga Dua Lantai Dasar Blok A 013 A, 040, JL Raya Mangga Dua, Pademangan, RT.11/RW.5, Ancol, Jakarta Utara, Jkt Utara, Daerah Khusus Ibukota Jakarta 14430","040, JL Raya Mangga Dua, Pademangan, RT.11/RW.5, Ancol, Jakarta Utara, Jkt Utara",PAPUA,14430.0,Indonesia,216017771,,,-6.135.904,106.824.274,https://maps.google.com/?cid=0x0:0xccadb8b946ccc659,
mall,Pusat Perbelanjaan,Gandaria City,"Jl. Sultan Iskandar Muda, Gandaria, Kec. Kby. Lama, Kota Jakarta Selatan, Daerah Khusus Ibukota Jakarta 12240","Gandaria, Kec. Kby. Lama, Kota Jakarta Selatan",PAPUA,12240.0,Indonesia,2129052888,,,-62.443.009,1.067.829.375,https://maps.google.com/?cid=0x0:0x6173704d396d5a99,
mall,Pusat Perbelanjaan,Grand Indonesia Shopping Town,"Jl. M.H. Thamrin No.1, Menteng, Kec. Menteng, Kota Jakarta Pusat, Daerah Khusus Ibukota Jakarta 10310","Menteng, Kec. Menteng, Kota Jakarta Pusat",PAPUA,10310.0,Indonesia,2123580001,,,-61.965.848,1.068.224.882,https://maps.google.com/?cid=0x0:0xccfcc89b95aaf1ae,
mall,Pusat Perbelanjaan,Grand Indonesia,"Jl. MH Thamrin No.1, Menteng, Kec. Menteng, Kota Jakarta Pusat, Daerah Khusus Ibukota Jakarta 10310","Menteng, Kec. Menteng, Kota Jakarta Pusat",PAPUA,10310.0,Indonesia,2123580001,,,-61.950.412,1.068.210.081,https://maps.google.com/?cid=0x0:0xb04ce66a7cb711d9,
mall,Pusat Perbelanjaan,Grand Indonesia Skybridge,"Jl. Teluk Betung No.1, RT.1/RW.5, Menteng, Kec. Menteng, Kota Jakarta Pusat, Daerah Khusus Ibukota Jakarta 10230","RT.1/RW.5, Menteng, Kec. Menteng, Kota Jakarta Pusat",PAPUA,10230.0,Indonesia,,,,-61.948.881,1.068.208.468,https://maps.google.com/?cid=0x0:0x3a0314f105a6bcf9,
mall,Pusat Perbelanjaan,Aa,"Jl. Raya Cilandak KKO No.18 2, RT.1/RW.6, Cilandak Tim., Ps. Minggu, Kota Jakarta Selatan, Daerah Khusus Ibukota Jakarta 12560","RT.1/RW.6, Cilandak Tim., Ps. Minggu, Kota Jakarta Selatan",PAPUA,12560.0,Indonesia,85312004973,,,-63.015.055,1.068.139.744,https://maps.google.com/?cid=0x0:0x446b761f287b95f0,
mall,Toko Swalayan,INDOMARET PEJAMBON-FXI2,"RRFM+6JG, Jl. Pejambon I, RT.16/RW.1, Gambir, Kecamatan Gambir, Kota Jakarta Pusat, Daerah Khusus Ibukota Jakarta 10110","Jl. Pejambon I, RT.16/RW.1, Gambir, Kecamatan Gambir, Kota Jakarta Pusat",PAPUA,10110.0,Indonesia,,,,-61.769.474,1.068.340.745,https://maps.google.com/?cid=0x0:0x824eea52db436265,
mall,Kompleks Kondominium,Green Pramuka Square,"Jl. Rw. Jaya No.49, Rawasari, Kec. Cemp. Putih, Kota Jakarta Pusat, Daerah Khusus Ibukota Jakarta 10570","Rawasari, Kec. Cemp. Putih, Kota Jakarta Pusat",PAPUA,10570.0,Indonesia,2129624747,,,-618.892,1.068.739.915,https://maps.google.com/?cid=0x0:0xc1176b766df1697e,
mall,Pengembang Realestat,Pakuwon Mall Bekasi,"Jl. Raya Pekayon No.002, Pekayon Jaya, Kec. Bekasi Sel., Kota Bks, Jawa Barat 17148","Pekayon Jaya, Kec. Bekasi Sel., Kota Bks",PAPUA,17148.0,Indonesia,2180609888,,,-62.558.744,1.069.896.919,https://maps.google.com/?cid=0x0:0xc61ce0e879f4e86b,
mall,mall,Papua 99776,"Atsy, Kabupaten Asmat, Papua","Kabupaten Asmat, Papua",PAPUA,,Indonesia,,,,-5.544.638,1.387.995.122,https://maps.google.com/?cid=0x0:0xc82d6e8c35882d4e,
mall,Pusat Perbelanjaan,pasar pairipok atsj,"798M+CF7, Atsy, Kabupaten Asmat, Papua 99776","Atsy, Kabupaten Asmat",PAPUA,99776.0,Indonesia,,,,-57.339.634,1.383.836.694,https://maps.google.com/?cid=0x0:0x8dec5c06c24c2d0,
mall,mall,UD. Pammana,"799J+4PF, Atsy, Kabupaten Asmat, Papua 99776","Atsy, Kabupaten Asmat",PAPUA,99776.0,Indonesia,,,,-5.732.176,1.383.817.938,https://maps.google.com/?cid=0x0:0x3d2d9576e7d2edee,
mall,mall,Sirets,"Kabupaten Asmat, Papua","Kabupaten Asmat, Papua",PAPUA,,Indonesia,,,,-55.310.929,1.386.388.879,https://maps.google.com/?cid=0x0:0xa635d80a725c47,
mall,mall,Kios Bude Ati,"54M2+3JH, Asaren, Kec. Assue, Kabupaten Mappi, Papua 99874","Asaren, Kec. Assue, Kabupaten Mappi",PAPUA,99874.0,Indonesia,,,,-58.173.105,1.391.016.149,https://maps.google.com/?cid=0x0:0xdc5743b19d11361b,
mall,Pusat Perbelanjaan,Grand Indonesia Shopping Town,"Jl. M.H. Thamrin No.1, Menteng, Kec. Menteng, Kota Jakarta Pusat, Daerah Khusus Ibukota Jakarta 10310","Menteng, Kec. Menteng, Kota Jakarta Pusat",PAPUA,10310.0,Indonesia,2123580001,,,-61.965.848,1.068.224.882,https://maps.google.com/?cid=0x0:0xccfcc89b95aaf1ae,
mall,Pusat Perbelanjaan,Millennium Mall,"Jl. Senen Raya No.135, Senen, Kec. Senen, Kota Jakarta Pusat, Daerah Khusus Ibukota Jakarta 10410","Senen, Kec. Senen, Kota Jakarta Pusat",PAPUA,10410.0,Indonesia,213867862,,,-6.177.522,1.068.415.448,https://maps.google.com/?cid=0x0:0xfacaba2cca993e41,
mall,Pusat Perbelanjaan,Mall Plaza Senayan,"Jl. Asia Afrika No.8, RT.1/RW.3, Gelora, Kecamatan Tanah Abang, Kota Jakarta Pusat, Daerah Khusus Ibukota Jakarta 10270","RT.1/RW.3, Gelora, Kecamatan Tanah Abang, Kota Jakarta Pusat",PAPUA,10270.0,Indonesia,215725555,,,-62.254.775,1.067.992.649,https://maps.google.com/?cid=0x0:0x788e3a1eef75ac94,
mall,Pusat Perbelanjaan,Grand Indonesia,"Jl. MH Thamrin No.1, Menteng, Kec. Menteng, Kota Jakarta Pusat, Daerah Khusus Ibukota Jakarta 10310","Menteng, Kec. Menteng, Kota Jakarta Pusat",PAPUA,10310.0,Indonesia,2123580001,,,-61.950.412,1.068.210.081,https://maps.google.com/?cid=0x0:0xb04ce66a7cb711d9,
mall,Pusat Perbelanjaan,Plaza Indonesia,"Jl. M.H. Thamrin No.Kav.28-30, Gondangdia, Kec. Menteng, Kota Jakarta Pusat, Daerah Khusus Ibukota Jakarta 10350","Gondangdia, Kec. Menteng, Kota Jakarta Pusat",PAPUA,10350.0,Indonesia,2129920000,,,-61.935.977,1.068.219.468,https://maps.google.com/?cid=0x0:0x7d7fe17ad64a053f,
mall,Pusat Perbelanjaan,SNIMEREOR,"QR39+9R6, Gg. M II, RT.1/RW.3, Pela Mampang, Kec. Mampang Prpt., Kota Jakarta Selatan, Daerah Khusus Ibukota Jakarta 12720","Gg. M II, RT.1/RW.3, Pela Mampang, Kec. Mampang Prpt., Kota Jakarta Selatan",PAPUA,12720.0,Indonesia,,,,-62.465.863,1.068.195.252,https://maps.google.com/?cid=0x0:0x828493ebd1ef7606,
mall,Pusat Perbelanjaan,STC Senayan,"Jl. Asia Afrika No.1 Lt. Dasar, RT.1/RW.3, Gelora, Kecamatan Tanah Abang, Kota Jakarta Pusat, Daerah Khusus Ibukota Jakarta 10270","RT.1/RW.3, Gelora, Kecamatan Tanah Abang, Kota Jakarta Pusat",PAPUA,10270.0,Indonesia,82117177710,,,-62.280.394,1.067.986.784,https://maps.google.com/?cid=0x0:0xbf510a1c44ecd78,
mall,Toko Tas,Senayan Preloved branded Centre,"Senayan Trade Center (STC), Jl. Asia Afrika Pintu IX No.1 Lt. 1  2, RT.1/RW.3, Gelora, Kecamatan Tanah Abang, Kota Jakarta Pusat, Daerah Khusus Ibukota Jakarta 10270","Jl. Asia Afrika Pintu IX No.1 Lt. 1  2, RT.1/RW.3, Gelora, Kecamatan Tanah Abang, Kota Jakarta Pusat",PAPUA,10270.0,Indonesia,81918260164,,,-62.278.703,106.798.852,https://maps.google.com/?cid=0x0:0x57e9bd553709767a,
mall,mall,Frizt cel,"QRHG+F7F, RT.3/RW.4, Kuningan, Karet Kuningan, Kecamatan Setiabudi, Kota Jakarta Selatan, Daerah Khusus Ibukota Jakarta 12940","RT.3/RW.4, Kuningan, Karet Kuningan, Kecamatan Setiabudi, Kota Jakarta Selatan",PAPUA,12940.0,Indonesia,,,,-62.213.123,1.068.256.589,https://maps.google.com/?cid=0x0:0x44bb001ff6b44d09,
mall,mall,Distrik Betcbamu,"Kabupaten Asmat, Papua","Kabupaten Asmat, Papua",PAPUA,,Indonesia,,,,-57.285.964,1.382.791.757,https://maps.google.com/?cid=0x0:0xa352aadb63fd6688,
mall,Pusat Perbelanjaan,pasar pairipok atsj,"798M+CF7, Atsy, Kabupaten Asmat, Papua 99776","Atsy, Kabupaten Asmat",PAPUA,99776.0,Indonesia,,,,-57.339.634,1.383.836.694,https://maps.google.com/?cid=0x0:0x8dec5c06c24c2d0,
mall,mall,UD. Pammana,"799J+4PF, Atsy, Kabupaten Asmat, Papua 99776","Atsy, Kabupaten Asmat",PAPUA,99776.0,Indonesia,,,,-5.732.176,1.383.817.938,https://maps.google.com/?cid=0x0:0x3d2d9576e7d2edee,
mall,Pasar tradisional,Pusat Grosir Asemka,"Jl. Asemka No.1, Kel, RT.1/RW.6, Pinangsia, Kec. Taman Sari, Kota Jakarta Barat, Daerah Khusus Ibukota Jakarta 11110","Kel, RT.1/RW.6, Pinangsia, Kec. Taman Sari, Kota Jakarta Barat",PAPUA,11110.0,Indonesia,216320070,,,-61.403.941,1.068.120.073,https://maps.google.com/?cid=0x0:0xdfcd1e114f5f2589,
supermarket,supermarket,Papua 99777,"Kabupaten Asmat, Papua","Kabupaten Asmat, Papua",PAPUA,,Indonesia,,,,-54.613.838,1.381.995.591,https://maps.google.com/?cid=0x0:0x8e1d4401ddfcedae,
supermarket,Toko Swalayan,TOKO AS,"Bis Agats, Distrik Agats, Kabupaten Asmat, Papua 99777","Distrik Agats, Kabupaten Asmat",PAPUA,99777.0,Indonesia,82142690419,,,-5.533.439,1.381.377.653,https://maps.google.com/?cid=0x0:0x3a8cbc0f58759e0e,
supermarket,Gudang,Asrul Jaya,"Jl. Dermaga Baru, Bis Agats, Distrik Agats, Kabupaten Asmat, Papua 99777","Bis Agats, Distrik Agats, Kabupaten Asmat",PAPUA,99777.0,Indonesia,81240602664,,,-55.251.141,1.381.400.604,https://maps.google.com/?cid=0x0:0x7b2ea490592e4a3a,
supermarket,Toko umum,Kios Alfa Rizky,"F46Q+F4J, Jl. Pemda, Bis Agats, Distrik Agats, Kabupaten Asmat, Papua 99777","Jl. Pemda, Bis Agats, Distrik Agats, Kabupaten Asmat",PAPUA,99777.0,Indonesia,,,,-55.387.922,1.381.377.554,https://maps.google.com/?cid=0x0:0xef7ac0490662fca4,
supermarket,Minimarket,Azmi Mart,"Kamp.Mbait, Jl. SMA Yppgi, Distrik Agats, Papua 99777","Jl. SMA Yppgi, Distrik Agats",PAPUA,99777.0,Indonesia,,,,-55.353.646,1.381.450.311,https://maps.google.com/?cid=0x0:0x7b06f08bd01f66ec,
supermarket,Toko umum,KIOS NOVITA,"F43Q+J7F, Bis Agats, Distrik Agats, Kabupaten Asmat, Papua 99777","Bis Agats, Distrik Agats, Kabupaten Asmat",PAPUA,99777.0,Indonesia,82397151994,,,-55.459.276,1.381.381.869,https://maps.google.com/?cid=0x0:0x433cd72f574d820,
supermarket,Toko umum,Kompleks Pasar Dolog Agats,"F47Q+HQ6, Bis Agats, Distrik Agats, Kabupaten Asmat, Papua 99777","Bis Agats, Distrik Agats, Kabupaten Asmat",PAPUA,99777.0,Indonesia,,,,-55.360.865,1.381.393.966,https://maps.google.com/?cid=0x0:0x449509e7d2c37a87,
supermarket,Toko umum,Kios Tisha Agats,"F44V+HM6, Bis Agats, Distrik Agats, Kabupaten Asmat, Papua 99777","Bis Agats, Distrik Agats, Kabupaten Asmat",PAPUA,99777.0,Indonesia,,,,-55.423.309,138.144.137,https://maps.google.com/?cid=0x0:0x4f7d34d51b27344f,
supermarket,Minimarket,KIOS GHIAN CITA MANDIRI,"F44R+R8W Kei, Jl, Bis Agats, Agats, Asmat Regency, Papua 99777","Jl, Bis Agats, Agats, Asmat Regency",PAPUA,99777.0,Indonesia,81240868611,,,-5.542.895,138.140.814,https://maps.google.com/?cid=0x0:0x58d9a695618e4fe6,
supermarket,Toko bahan makanan,Kios Maju Bersama,"F46J+8Q9, Jl. Yos Sudarso, Bis Agats, Distrik Agats, Kabupaten Asmat, Papua 99777","Jl. Yos Sudarso, Bis Agats, Distrik Agats, Kabupaten Asmat",PAPUA,99777.0,Indonesia,,,,-55.392.037,1.381.319.775,https://maps.google.com/?cid=0x0:0xe5477bab9be0f2ca,
supermarket,Kios,KiOS BHYAND,"F4CQ+PW6, Bis Agats, Distrik Agats, Kabupaten Asmat, Papua 99777","Bis Agats, Distrik Agats, Kabupaten Asmat",PAPUA,99777.0,Indonesia,,,,-55.277.284,1.381.402.687,https://maps.google.com/?cid=0x0:0xb14689f11ce6ae3a,
supermarket,Toko Swalayan,AD Rahmat Ridho,"Jl. Dolog, Bis Agats, Distrik Agats, Kabupaten Asmat, Papua 99777","Bis Agats, Distrik Agats, Kabupaten Asmat",PAPUA,99777.0,Indonesia,,,,-5.537.971,1.381.406.466,https://maps.google.com/?cid=0x0:0x5ab6a8600d98d857,
supermarket,Toko umum,"Kios Rangga""""","F45J+W96, Jl. Yos Sudarso, Bis Agats, Distrik Agats, Kabupaten Asmat, Papua 99777","Jl. Yos Sudarso, Bis Agats, Distrik Agats, Kabupaten Asmat",PAPUA,99777.0,Indonesia,85362811811,,,-55.402.218,1.381.308.798,https://maps.google.com/?cid=0x0:0x9fda6e26bbda97a3,
supermarket,Toko bahan makanan,KIOS CAHAYA HIDUP,"Kaye Depan Kodim, Jl. Nusantara, Bis Agats, Distrik Agats, Kabupaten Asmat, Papua 99777","Jl. Nusantara, Bis Agats, Distrik Agats, Kabupaten Asmat",PAPUA,99777.0,Indonesia,85215995573,,,-55.445.095,1.381.334.572,https://maps.google.com/?cid=0x0:0xfecae3833f381441,
supermarket,Toko umum,KIOS SEHATI 2,"Kampung Kamur, Distrik Agats, Kabupaten Asmat, Papua 99777","Distrik Agats, Kabupaten Asmat",PAPUA,99777.0,Indonesia,82198256822,,,-55.020.397,1.381.486.604,https://maps.google.com/?cid=0x0:0x2ee2c6f9c9b5e03,
supermarket,Toko umum,Agats,"84XF+2X, Biwar Laut, Distrik Betcbamu, Kabupaten Asmat, Papua","Kabupaten Asmat, Papua",PAPUA,,Indonesia,,,,-56.524.932,1.381.249.777,https://maps.google.com/?cid=0x0:0x13a4e6e91554f47f,
supermarket,Toko,Juan Cliff Kios,"Jl. Frans Kaisepo No.Desa, Bisa Agats, Distrik Agats, Kabupaten Asmat, Papua 99777","Bisa Agats, Distrik Agats, Kabupaten Asmat",PAPUA,99777.0,Indonesia,85244933870,,,-55.404.985,1.381.374.443,https://maps.google.com/?cid=0x0:0x8ab9a0a222ae4849,
supermarket,Toko umum,KIOS DIVA RAJA,"Jl. Yos Sudarso, Bis Agats, Distrik Agats, Kabupaten Asmat, Papua 99777","Bis Agats, Distrik Agats, Kabupaten Asmat",PAPUA,99777.0,Indonesia,85215995573,,,-55.402.653,1.381.307.816,https://maps.google.com/?cid=0x0:0x63d9382ac8df5218,
supermarket,Toko umum,Kios Pelbar,"F4GQ+XVQ, Jl. Dermaga Baru, Bis Agats, Distrik Agats, Kabupaten Asmat, Papua 99777","Jl. Dermaga Baru, Bis Agats, Distrik Agats, Kabupaten Asmat",PAPUA,99777.0,Indonesia,,,,-55.225.266,1.381.397.225,https://maps.google.com/?cid=0x0:0xa945525453206277,
supermarket,Pasar,Jln dolog,"F47Q+H7X, Bis Agats, Distrik Agats, Kabupaten Asmat, Papua 99777","Bis Agats, Distrik Agats, Kabupaten Asmat",PAPUA,99777.0,Indonesia,,,,-55.358.748,1.381.383.652,https://maps.google.com/?cid=0x0:0x6f1f105eb8d613a5,
supermarket,supermarket,Agats,"Bis Agats, Distrik Agats, Kabupaten Asmat, Papua","Kabupaten Asmat, Papua",PAPUA,,Indonesia,,,,-5.535.626,138.121.359,https://maps.google.com/?cid=0x0:0xf1c37eeb196c76c9,
supermarket,supermarket,Atsy,"Atsy, Kabupaten Asmat, Papua","Kabupaten Asmat, Papua",PAPUA,,Indonesia,,,,-5.721.067,13.837.886,https://maps.google.com/?cid=0x0:0x563a7ef959cd1d9e,
supermarket,Pusat Perbelanjaan,pasar pairipok atsj,"798M+CF7, Atsy, Kabupaten Asmat, Papua 99776","Atsy, Kabupaten Asmat",PAPUA,99776.0,Indonesia,,,,-57.339.634,1.383.836.694,https://maps.google.com/?cid=0x0:0x8dec5c06c24c2d0,
supermarket,Toko Swalayan,TOKO AS,"Bis Agats, Distrik Agats, Kabupaten Asmat, Papua 99777","Distrik Agats, Kabupaten Asmat",PAPUA,99777.0,Indonesia,82142690419,,,-5.533.439,1.381.377.653,https://maps.google.com/?cid=0x0:0x3a8cbc0f58759e0e,
supermarket,Toko Swalayan,Toko AA,"F48Q+XF3, Jl. Yos Sudarso, Bis Agats, Distrik Agats, Kabupaten Asmat, Papua 99777","Jl. Yos Sudarso, Bis Agats, Distrik Agats, Kabupaten Asmat",PAPUA,99777.0,Indonesia,,,,-55.326.185,1.381.386.754,https://maps.google.com/?cid=0x0:0x1b27f8f545967398,
supermarket,supermarket,Sawa Erma,"Kabupaten Asmat, Papua","Kabupaten Asmat, Papua",PAPUA,,Indonesia,,,,-51.382.956,1.381.995.591,https://maps.google.com/?cid=0x0:0xa00408d29df1eb35,
supermarket,Toko,Kios Walika,"R6V8+9PC, Erma, Sawa Erma, Kabupaten Asmat, Papua 99779","Erma, Sawa Erma, Kabupaten Asmat",PAPUA,99779.0,Indonesia,,,,-5.156.573,1.382.167.619,https://maps.google.com/?cid=0x0:0xe1a2992931732375,
supermarket,supermarket,Kios Rina,"R6V7+MV6, Erma, Sawa Erma, Kabupaten Asmat, Papua 99779","Erma, Sawa Erma, Kabupaten Asmat",PAPUA,99779.0,Indonesia,,,,-51.558.304,138.214.655,https://maps.google.com/?cid=0x0:0x1f2ba9fd4ca04eb,
supermarket,supermarket,Papua 99779,"Kabupaten Asmat, Papua","Kabupaten Asmat, Papua",PAPUA,,Indonesia,,,,-49.651.102,1.388.799.972,https://maps.google.com/?cid=0x0:0x21328fcdfe8f7ad3,
supermarket,Toko,Kios Walika,"R6V8+9PC, Erma, Sawa Erma, Kabupaten Asmat, Papua 99779","Erma, Sawa Erma, Kabupaten Asmat",PAPUA,99779.0,Indonesia,,,,-5.156.573,1.382.167.619,https://maps.google.com/?cid=0x0:0xe1a2992931732375,
supermarket,Toko Swalayan,TOKO AS,"Bis Agats, Distrik Agats, Kabupaten Asmat, Papua 99777","Distrik Agats, Kabupaten Asmat",PAPUA,99777.0,Indonesia,82142690419,,,-5.533.439,1.381.377.653,https://maps.google.com/?cid=0x0:0x3a8cbc0f58759e0e,
supermarket,Toko Swalayan,Toko AA,"F48Q+XF3, Jl. Yos Sudarso, Bis Agats, Distrik Agats, Kabupaten Asmat, Papua 99777","Jl. Yos Sudarso, Bis Agats, Distrik Agats, Kabupaten Asmat",PAPUA,99777.0,Indonesia,,,,-55.326.185,1.381.386.754,https://maps.google.com/?cid=0x0:0x1b27f8f545967398,
supermarket,Toko bahan makanan,TOKO BERKAT ADONAY,"Jln.Papua Kompleks Ruko Block A, Massi, Kec. Dekai, Kabupaten Yahukimo, Papua 99571","Massi, Kec. Dekai, Kabupaten Yahukimo",PAPUA,99571.0,Indonesia,81223355359,,,-48.624.737,1.394.857.426,https://maps.google.com/?cid=0x0:0xebc675faef4f92b5,
supermarket,Toko umum,Kios Alfa Rizky,"F46Q+F4J, Jl. Pemda, Bis Agats, Distrik Agats, Kabupaten Asmat, Papua 99777","Jl. Pemda, Bis Agats, Distrik Agats, Kabupaten Asmat",PAPUA,99777.0,Indonesia,,,,-55.387.922,1.381.377.554,https://maps.google.com/?cid=0x0:0xef7ac0490662fca4,
supermarket,Toko bahan makanan,Kios marla anugerah,"J8R6+67, Ayam / Akat, Akat, Kabupaten Asmat, Papua","Kabupaten Asmat, Papua",PAPUA,,Indonesia,,,,-53.594.709,1.383.106.905,https://maps.google.com/?cid=0x0:0xa11d6ff77bcb2e5f,
supermarket,Toko umum,"Kios Rangga""""","F45J+W96, Jl. Yos Sudarso, Bis Agats, Distrik Agats, Kabupaten Asmat, Papua 99777","Jl. Yos Sudarso, Bis Agats, Distrik Agats, Kabupaten Asmat",PAPUA,99777.0,Indonesia,85362811811,,,-55.402.218,1.381.308.798,https://maps.google.com/?cid=0x0:0x9fda6e26bbda97a3,
supermarket,Toko umum,KIOS NOVITA,"F43Q+J7F, Bis Agats, Distrik Agats, Kabupaten Asmat, Papua 99777","Bis Agats, Distrik Agats, Kabupaten Asmat",PAPUA,99777.0,Indonesia,82397151994,,,-55.459.276,1.381.381.869,https://maps.google.com/?cid=0x0:0x433cd72f574d820,
supermarket,Toko bahan makanan,KIOS CAHAYA HIDUP,"Kaye Depan Kodim, Jl. Nusantara, Bis Agats, Distrik Agats, Kabupaten Asmat, Papua 99777","Jl. Nusantara, Bis Agats, Distrik Agats, Kabupaten Asmat",PAPUA,99777.0,Indonesia,85215995573,,,-55.445.095,1.381.334.572,https://maps.google.com/?cid=0x0:0xfecae3833f381441,
supermarket,Toko bahan makanan,Kios Maju Bersama,"F46J+8Q9, Jl. Yos Sudarso, Bis Agats, Distrik Agats, Kabupaten Asmat, Papua 99777","Jl. Yos Sudarso, Bis Agats, Distrik Agats, Kabupaten Asmat",PAPUA,99777.0,Indonesia,,,,-55.392.037,1.381.319.775,https://maps.google.com/?cid=0x0:0xe5477bab9be0f2ca,
supermarket,Toko umum,kios Ani,"JL.zegward, Bismam, Distrik Agats, Kabupaten Asmat, Papua 99777","Bismam, Distrik Agats, Kabupaten Asmat",PAPUA,99777.0,Indonesia,85366608439,,,-54.613.838,1.381.995.591,https://maps.google.com/?cid=0x0:0xc5fb20823e0b1c15,
supermarket,supermarket,Papua 99782,"Kabupaten Asmat, Papua","Kabupaten Asmat, Papua",PAPUA,,Indonesia,,,,-60.419.322,1.384.787.258,https://maps.google.com/?cid=0x0:0x95c8a9b5775eb359,
supermarket,,KIOS ARINI,"2R3H+GGQ, Yerfum, Pantai Kasuari, Kabupaten Asmat, Papua 99782","Yerfum, Pantai Kasuari, Kabupaten Asmat",PAPUA,99782.0,Indonesia,,,,-59.961.527,1.388.288.587,https://maps.google.com/?cid=0x0:0x485f1b878020923e,
supermarket,supermarket,Kios KASMAN,"28FX+PPV, Basim, Distrik Fayit, Kabupaten Asmat, Papua","Kabupaten Asmat, Papua",PAPUA,,Indonesia,,,,-59.756.318,13.834.929,https://maps.google.com/?cid=0x0:0x6badd25994c3f7b0,
supermarket,Pusat jajanan kaki lima,Papuanmart,"Furia polda, Jl. Perkutut Jalur 4 No.164, Wahno, Kec. Abepura, Kota Jayapura, Papua 99224","Jl. Perkutut Jalur 4 No.164, Wahno, Kec. Abepura, Kota Jayapura",PAPUA,99224.0,Indonesia,,,,-25.936.297,1.406.745.825,https://maps.google.com/?cid=0x0:0x820b246032d165c5,
supermarket,supermarket,Sagare Hotspot,"2R3H+R8R, Kp. Baru, Yerfum, Cihara, Kabupaten Lebak, Banten 42392","Kp. Baru, Yerfum, Cihara, Kabupaten Lebak",PAPUA,42392.0,Indonesia,81283470126,,,-59.953.865,1.388.282.586,https://maps.google.com/?cid=0x0:0xcd281ddbad6db5d,
supermarket,Toko Swalayan,Hadi Supermarket,"Jl. Frans Kaisepo No.5, RT. 003/01, Warari, Kec. Yapen Sel., Kabupaten Kepulauan Yapen, Papua 98212","RT. 003/01, Warari, Kec. Yapen Sel., Kabupaten Kepulauan Yapen",PAPUA,98212.0,Indonesia,98334276,,,-18.751.153,1.362.490.809,https://maps.google.com/?cid=0x0:0xf67310d4ed062031,
supermarket,Kantor Perusahaan,Hypermart - Abepura,"Jl. Raya Abepura - Sentani No.81, Asano, Kec. Abepura, Kota Jayapura, Papua 99351","Asano, Kec. Abepura, Kota Jayapura",PAPUA,99351.0,Indonesia,81314558885,,,-26.166.812,1.406.801.223,https://maps.google.com/?cid=0x0:0x4a244a93dff8c00b,
supermarket,Toko Swalayan,Surya Mart,"C8V2+G83, Jl. Irian Kepi, Kepi, Kec. Obaa, Kabupaten Mappi, Papua 99881","Jl. Irian Kepi, Kepi, Kec. Obaa, Kabupaten Mappi",PAPUA,99881.0,Indonesia,85254867242,,,-65.562.444,1.393.007.867,https://maps.google.com/?cid=0x0:0x160bad2921fdf723,
supermarket,Toko Swalayan,AbdiPraja,"RJ6Q+MJJ, Kamur, Distrik Pantai Kasuari, Kabupaten Asmat, Papua 99773","Kamur, Distrik Pantai Kasuari, Kabupaten Asmat",PAPUA,99773.0,Indonesia,,,,-61.882.916,1.386.390.141,https://maps.google.com/?cid=0x0:0x4e7b7f7a195cab6e,
supermarket,supermarket,Distrik Fayit,"Kabupaten Asmat, Papua","Kabupaten Asmat, Papua",PAPUA,,Indonesia,,,,-60.610.672,1.383.835.427,https://maps.google.com/?cid=0x0:0x4b1b5304d72076e5,
supermarket,Toko Swalayan,GS THE FRESH JATIBENING,"Jl. Caman Raya No.7-24, RT.004/RW.003, Jatibening, Kec. Pd. Gede, Kota Bks, Jawa Barat 17412","RT.004/RW.003, Jatibening, Kec. Pd. Gede, Kota Bks",PAPUA,17412.0,Indonesia,2184982211,,,-62.676.455,1.069.436.409,https://maps.google.com/?cid=0x0:0x2cdb50c3ee3206c,
supermarket,Toko Swalayan,GS Supermarket Jatiasih,"GsSupermarket :, Jl. Wibawa Mukti II No.125, RT.002/ RW017/RW.017, Jatiasih, Kec. Jatiasih, Kota Bks, Jawa Barat 17423","Jl. Wibawa Mukti II No.125, RT.002/ RW017/RW.017, Jatiasih, Kec. Jatiasih, Kota Bks",PAPUA,17423.0,Indonesia,2182736918,,,-63.070.579,106.955.731,https://maps.google.com/?cid=0x0:0x74efd6ce433268e6,
supermarket,Toko Swalayan,Gs supermarket,"Jl. KH. Hasyim Ashari No.93, RT.002/RW.003, Poris Plawad Utara, Kec. Cipondoh, Kota Tangerang, Banten 15148","RT.002/RW.003, Poris Plawad Utara, Kec. Cipondoh, Kota Tangerang",PAPUA,15148.0,Indonesia,2155712070,,,-61.879.187,106.661.738,https://maps.google.com/?cid=0x0:0x86a83e6d17a220b2,
supermarket,Toko Makanan Jepang,SUPERHIRO Japanese Superstore - Tangerang Banten,"Sedayu Indo City Kavling Komersial Blok A No.1819, Salembaran Jati, Kec. Kosambi, Kabupaten Tangerang, Banten 15214","Salembaran Jati, Kec. Kosambi, Kabupaten Tangerang",PAPUA,15214.0,Indonesia,2139733555,,,-60.635.873,1.066.895.192,https://maps.google.com/?cid=0x0:0x83d1daa57116a350,
supermarket,Toko Swalayan,GS The Fresh Supermarket Kemang Pratama,"Linc Square Kemang Pratama, Jl. Kemang Pratama Raya, RT.004/RW.001, Bojong Rawalumbu, Kec. Rawalumbu, Kota Bks, Jawa Barat 17116","Jl. Kemang Pratama Raya, RT.004/RW.001, Bojong Rawalumbu, Kec. Rawalumbu, Kota Bks",PAPUA,17116.0,Indonesia,2182416910,,,-62.779.418,1.069.910.558,https://maps.google.com/?cid=0x0:0x4ce692f4b9ef21ee,
supermarket,Toko Swalayan,GS The Fresh Alam Sutera,"Flavor Bliss, Jl. Alam Sutera Boulevard, Pakulonan, Kec. Serpong Utara, Kota Tangerang Selatan, Banten 15325","Jl. Alam Sutera Boulevard, Pakulonan, Kec. Serpong Utara, Kota Tangerang Selatan",PAPUA,15325.0,Indonesia,2150200763,,,-62.429.576,1.066.509.779,https://maps.google.com/?cid=0x0:0x2e1e78cfe6fb23eb,
supermarket,Toko Swalayan,GS The Fresh Mampang,"Jl. Buncit Raya No.301, Duren Tiga, Kec. Pancoran, Kota Jakarta Selatan, Daerah Khusus Ibukota Jakarta 12760","Duren Tiga, Kec. Pancoran, Kota Jakarta Selatan",PAPUA,12760.0,Indonesia,2126961986,,,-6.256.991,106.828.987,https://maps.google.com/?cid=0x0:0x47a84d3b86619147,
supermarket,Toko Swalayan,AbdiPraja,"RJ6Q+MJJ, Kamur, Distrik Pantai Kasuari, Kabupaten Asmat, Papua 99773","Kamur, Distrik Pantai Kasuari, Kabupaten Asmat",PAPUA,99773.0,Indonesia,,,,-61.882.916,1.386.390.141,https://maps.google.com/?cid=0x0:0x4e7b7f7a195cab6e,
supermarket,,KIOS ARINI,"2R3H+GGQ, Yerfum, Pantai Kasuari, Kabupaten Asmat, Papua 99782","Yerfum, Pantai Kasuari, Kabupaten Asmat",PAPUA,99782.0,Indonesia,,,,-59.961.527,1.388.288.587,https://maps.google.com/?cid=0x0:0x485f1b878020923e,
supermarket,supermarket,Distrik Pantai Kasuari,"Kabupaten Asmat, Papua","Kabupaten Asmat, Papua",PAPUA,,Indonesia,,,,-62.184.287,138.598.804,https://maps.google.com/?cid=0x0:0x1b4529030e9094c,
supermarket,supermarket,Papua 99766,Papua,Papua,PAPUA,,Indonesia,,,,-52.037.329,1.394.466.005,https://maps.google.com/?cid=0x0:0xd6fdff385c07ba5d,
supermarket,supermarket,Kios sera,"J8V3+JGC, Binam, Suator, Kabupaten Asmat, Papua 99766","Binam, Suator, Kabupaten Asmat",PAPUA,99766.0,Indonesia,,,,-53.559.448,1.393.037.539,https://maps.google.com/?cid=0x0:0x8af5018949be0656,
supermarket,supermarket,Kios Mandiri,"J8Q4+FG, Binam, Suator, Kabupaten Asmat, Papua","Kabupaten Asmat, Papua",PAPUA,,Indonesia,,,,-53.612.868,1.393.063.298,https://maps.google.com/?cid=0x0:0x925115ade0bb92a5,
supermarket,Toko Swalayan,Ranch Market Grand Indonesia,"Grand Indonesia Shoping Town East Mall, Jl. MH Thamrin No.1 Lantai LG, RT.1/RW.5, Menteng, Kec. Menteng, Kota Jakarta Pusat, Daerah Khusus Ibukota Jakarta 10310","Jl. MH Thamrin No.1 Lantai LG, RT.1/RW.5, Menteng, Kec. Menteng, Kota Jakarta Pusat",PAPUA,10310.0,Indonesia,2123599054,,,-61.963.902,1.068.225.851,https://maps.google.com/?cid=0x0:0xdb199471a47076d0,
supermarket,Toko Swalayan,Ranch Market Pesanggrahan,"1, Jl. Pesanggrahan No.2, Kembangan Sel., Kec. Kembangan, Kota Jakarta Barat, Daerah Khusus Ibukota Jakarta 11610","Jl. Pesanggrahan No.2, Kembangan Sel., Kec. Kembangan, Kota Jakarta Barat",PAPUA,11610.0,Indonesia,2158304842,,,-61.883.181,1.067.561.831,https://maps.google.com/?cid=0x0:0x59972408c2ef6a6e,
supermarket,Toko Swalayan,Ranch Market Living World Alam Sutera,"Living World, Jl. Alam Sutera Boulevard No.kav. 21, Pakulonan, Serpong Utara, South Tangerang City, Banten 15325","Jl. Alam Sutera Boulevard No.kav. 21, Pakulonan, Serpong Utara, South Tangerang City",PAPUA,15325.0,Indonesia,81252270571,,,-62.450.404,1.066.526.923,https://maps.google.com/?cid=0x0:0x5dfd20a0bc2695fa,
supermarket,Toko Swalayan,Super Indo Lebak Bulus,"Jl. Lebak Bulus Raya No.7, RT.2/RW.7, Lb. Bulus, Kec. Cilandak, Kota Jakarta Selatan, Daerah Khusus Ibukota Jakarta 12440","RT.2/RW.7, Lb. Bulus, Kec. Cilandak, Kota Jakarta Selatan",PAPUA,12440.0,Indonesia,,,,-62.980.693,1.067.737.795,https://maps.google.com/?cid=0x0:0xb582e89cd639245b,
supermarket,supermarket,Suru-Suru,"Kabupaten Asmat, Papua","Kabupaten Asmat, Papua",PAPUA,,Indonesia,,,,-48.532.804,1.386.790.007,https://maps.google.com/?cid=0x0:0x5f6a1a0f0be715bf,
supermarket,Toko Swalayan,Toko Ibu Sur,"X7CW+JPG, Jl. Nusa Indah, Makbusun, Mayamuk, Kabupaten Sorong, Papua Bar. 98451","Jl. Nusa Indah, Makbusun, Mayamuk, Kabupaten Sorong",PAPUA,98451.0,Indonesia,,,,-10.284.412,1.312.968.135,https://maps.google.com/?cid=0x0:0xab204b466a57d45b,
supermarket,Toko,Toko FERLY,"Makbusun, Mayamuk, Kabupaten Sorong, Papua Bar. 98412","Mayamuk, Kabupaten Sorong",PAPUA,98412.0,Indonesia,85244149800,,,-10.276.201,131.292.702,https://maps.google.com/?cid=0x0:0xade94a12594d3d91,
supermarket,Pusat Perbelanjaan,Daily Supermarket Puri Mansion,"Ruko Puri Mansion Blok C 2, RT.2/RW.1, Kembangan Sel., Kec. Kembangan, Kota Jakarta Barat, Daerah Khusus Ibukota Jakarta 11610","RT.2/RW.1, Kembangan Sel., Kec. Kembangan, Kota Jakarta Barat",PAPUA,11610.0,Indonesia,81944117272,,,-61.782.717,106.727.934,https://maps.google.com/?cid=0x0:0xb5555bd3bf987072,
supermarket,Toko,Warung Bu Surni,"QFXV+RQP, Unnamed Road, Manggungjaya, Kec. Cilamaya Kulon, Karawang, Jawa Barat 41384","Unnamed Road, Manggungjaya, Kec. Cilamaya Kulon, Karawang",PAPUA,41384.0,Indonesia,85774565417,,,-62.004.084,1.074.944.433,https://maps.google.com/?cid=0x0:0x3ea63483353badef,
supermarket,supermarket,Papua 99766,Papua,Papua,PAPUA,,Indonesia,,,,-52.037.329,1.394.466.005,https://maps.google.com/?cid=0x0:0xd6fdff385c07ba5d,
supermarket,supermarket,Kios sera,"J8V3+JGC, Binam, Suator, Kabupaten Asmat, Papua 99766","Binam, Suator, Kabupaten Asmat",PAPUA,99766.0,Indonesia,,,,-53.559.448,1.393.037.539,https://maps.google.com/?cid=0x0:0x8af5018949be0656,
supermarket,Toko bahan makanan,TOKO BERKAT ADONAY,"Jln.Papua Kompleks Ruko Block A, Massi, Kec. Dekai, Kabupaten Yahukimo, Papua 99571","Massi, Kec. Dekai, Kabupaten Yahukimo",PAPUA,99571.0,Indonesia,81223355359,,,-48.624.737,1.394.857.426,https://maps.google.com/?cid=0x0:0xebc675faef4f92b5,
supermarket,supermarket,Kios Mandiri,"J8Q4+FG, Binam, Suator, Kabupaten Asmat, Papua","Kabupaten Asmat, Papua",PAPUA,,Indonesia,,,,-53.612.868,1.393.063.298,https://maps.google.com/?cid=0x0:0x925115ade0bb92a5,
supermarket,supermarket,Kolf Braza,"Kabupaten Asmat, Papua","Kabupaten Asmat, Papua",PAPUA,,Indonesia,,,,-52.017.018,1.390.009.403,https://maps.google.com/?cid=0x0:0x51fb460a334e5e21,
supermarket,Toko Swalayan,Ranch Market Pesanggrahan,"1, Jl. Pesanggrahan No.2, Kembangan Sel., Kec. Kembangan, Kota Jakarta Barat, Daerah Khusus Ibukota Jakarta 11610","Jl. Pesanggrahan No.2, Kembangan Sel., Kec. Kembangan, Kota Jakarta Barat",PAPUA,11610.0,Indonesia,2158304842,,,-61.883.181,1.067.561.831,https://maps.google.com/?cid=0x0:0x59972408c2ef6a6e,
supermarket,Toko Swalayan,Ranch Market The Breeze,"Jl. BSD Green Office Park No.9, Sampora, Kec. Cisauk, Kabupaten Tangerang, Banten 15345","Sampora, Kec. Cisauk, Kabupaten Tangerang",PAPUA,15345.0,Indonesia,2123581199,,,-6.302.245,106.653.258,https://maps.google.com/?cid=0x0:0x8bb566b52a1c2f49,
supermarket,supermarket,Distrik Unir Sirau,"Kabupaten Asmat, Papua","Kabupaten Asmat, Papua",PAPUA,,Indonesia,,,,-50.625.971,1.385.625.099,https://maps.google.com/?cid=0x0:0x18822be845d37aca,
supermarket,Toko,Kios Walika,"R6V8+9PC, Erma, Sawa Erma, Kabupaten Asmat, Papua 99779","Erma, Sawa Erma, Kabupaten Asmat",PAPUA,99779.0,Indonesia,,,,-5.156.573,1.382.167.619,https://maps.google.com/?cid=0x0:0xe1a2992931732375,
supermarket,Toko Swalayan,Ranch Market Grand Indonesia,"Grand Indonesia Shoping Town East Mall, Jl. MH Thamrin No.1 Lantai LG, RT.1/RW.5, Menteng, Kec. Menteng, Kota Jakarta Pusat, Daerah Khusus Ibukota Jakarta 10310","Jl. MH Thamrin No.1 Lantai LG, RT.1/RW.5, Menteng, Kec. Menteng, Kota Jakarta Pusat",PAPUA,10310.0,Indonesia,2123599054,,,-61.963.902,1.068.225.851,https://maps.google.com/?cid=0x0:0xdb199471a47076d0,
supermarket,,KIOS ARINI,"2R3H+GGQ, Yerfum, Pantai Kasuari, Kabupaten Asmat, Papua 99782","Yerfum, Pantai Kasuari, Kabupaten Asmat",PAPUA,99782.0,Indonesia,,,,-59.961.527,1.388.288.587,https://maps.google.com/?cid=0x0:0x485f1b878020923e,
supermarket,Toko bahan makanan,Kios marla anugerah,"J8R6+67, Ayam / Akat, Akat, Kabupaten Asmat, Papua","Kabupaten Asmat, Papua",PAPUA,,Indonesia,,,,-53.594.709,1.383.106.905,https://maps.google.com/?cid=0x0:0xa11d6ff77bcb2e5f,
supermarket,supermarket,Kios Rina,"R6V7+MV6, Erma, Sawa Erma, Kabupaten Asmat, Papua 99779","Erma, Sawa Erma, Kabupaten Asmat",PAPUA,99779.0,Indonesia,,,,-51.558.304,138.214.655,https://maps.google.com/?cid=0x0:0x1f2ba9fd4ca04eb,
supermarket,Toko sembako pemerintah,Kios Efra,"WHQ7+33Q, Munu, Distrik Unir Sirau, Kabupaten Asmat, Papua","Kabupaten Asmat, Papua",PAPUA,,Indonesia,,,,-50.622.875,1.385.627.344,https://maps.google.com/?cid=0x0:0x800238264ae4f4da,
supermarket,Toko,TOKO ZUYYIN,"97PH+35J, Siwungu Dua, Sirau, Kec. Kemranjen, Kabupaten Banyumas, Jawa Tengah 53194","Siwungu Dua, Sirau, Kec. Kemranjen, Kabupaten Banyumas",PAPUA,53194.0,Indonesia,82288882394,,,-76.147.999,1.092.778.877,https://maps.google.com/?cid=0x0:0x12c80d20963ec258,
supermarket,Toko bahan makanan,Warunge situr karo suyit,"97R9+776, Sirangkok, Grujugan, Kec. Kemranjen, Kabupaten Banyumas, Jawa Tengah 53194","Sirangkok, Grujugan, Kec. Kemranjen, Kabupaten Banyumas",PAPUA,53194.0,Indonesia,,,,-76.093.401,1.092.681.488,https://maps.google.com/?cid=0x0:0xd4058e4af2570df6,
supermarket,Minimarket,UD. Bu surati,"97R8+6J8, Sirangkok, Grujugan, Kec. Kemranjen, Kabupaten Banyumas, Jawa Tengah 53194","Sirangkok, Grujugan, Kec. Kemranjen, Kabupaten Banyumas",PAPUA,53194.0,Indonesia,,,,-76.094.505,1.092.665.762,https://maps.google.com/?cid=0x0:0x94755d81d7ed8562,
supermarket,Minimarket,RILENIA MART,"97JQ+P5R, Cijeruk, Sirau, Kec. Kemranjen, Kabupaten Banyumas, Jawa Tengah 53194","Cijeruk, Sirau, Kec. Kemranjen, Kabupaten Banyumas",PAPUA,53194.0,Indonesia,,,,-76.181.276,1.092.879.045,https://maps.google.com/?cid=0x0:0xfb8a690d3c8d8365,
supermarket,Minimarket,UD Saring,"98H7+6H4, Kemranjen, Sibalung, Kec. Kemranjen, Kabupaten Banyumas, Jawa Tengah 53194","Kemranjen, Sibalung, Kec. Kemranjen, Kabupaten Banyumas",PAPUA,53194.0,Indonesia,,,,-76.219.968,1.093.139.483,https://maps.google.com/?cid=0x0:0x7b2c66b1110d3466,
supermarket,Toko bahan makanan,Santri Mart,"97JQ+RFH, RT.02/RW.02, Cijeruk, Sirau, Kec. Kemranjen, Kabupaten Banyumas, Jawa Tengah 53194","RT.02/RW.02, Cijeruk, Sirau, Kec. Kemranjen, Kabupaten Banyumas",PAPUA,53194.0,Indonesia,,,,-76.179.476,1.092.887.424,https://maps.google.com/?cid=0x0:0x2a491f598b9dd0f0,
supermarket,Toko bahan makanan,Yutie shop,"C74X+H8H, Jl. Nasional III, RT.01Rw/RW.02, Kebarongan Wetan, Kebarongan, Kec. Kemranjen, Kabupaten Banyumas, Jawa Tengah 53194","Jl. Nasional III, RT.01Rw/RW.02, Kebarongan Wetan, Kebarongan, Kec. Kemranjen, Kabupaten Banyumas",PAPUA,53194.0,Indonesia,,,,-75.935.673,1.092.983.648,https://maps.google.com/?cid=0x0:0x272546a4d6debc1d,
supermarket,Pasar tradisional,Pasar Sirau,"Slori, Sirau, Kec. Kemranjen, Kabupaten Banyumas, Jawa Tengah 53194","Sirau, Kec. Kemranjen, Kabupaten Banyumas",PAPUA,53194.0,Indonesia,,,,-7.621.465,1.092.833.719,https://maps.google.com/?cid=0x0:0x4aeb66fc05a3ec4,
supermarket,Toko Swalayan,warung pak sakir,"C8CJ+3P7, jl.Induk, Manggungan Utara, Petarangan, Kec. Kemranjen, Kabupaten Banyumas, Jawa Tengah 53195","jl.Induk, Manggungan Utara, Petarangan, Kec. Kemranjen, Kabupaten Banyumas",PAPUA,53195.0,Indonesia,,,,-75.798.372,1.093.318.101,https://maps.google.com/?cid=0x0:0xcab652123b2da207,
supermarket,Toko,Toko Ibu sumirah,"Jl. SMP Negeri 2, Kemantren, Adisana, Kec. Kebasen, Kabupaten Banyumas, Jawa Tengah 53282","Kemantren, Adisana, Kec. Kebasen, Kabupaten Banyumas",PAPUA,53282.0,Indonesia,,,,-75.893.058,1.092.666.385,https://maps.google.com/?cid=0x0:0x564ce9397639ca0b,
supermarket,Toko Swalayan,Super Mart,"C93Q+C25, Muntang, Bogangin, Kec. Sumpiuh, Kabupaten Banyumas, Jawa Tengah 53196","Muntang, Bogangin, Kec. Sumpiuh, Kabupaten Banyumas",PAPUA,53196.0,Indonesia,85647665486,,,-75.964.915,1.093.876.049,https://maps.google.com/?cid=0x0:0x28c2b0be6937f410,
supermarket,Toko,Warung Sariman,"53194, Slori, Sirau, Kec. Kemranjen, Kabupaten Banyumas, Jawa Tengah 53194","Slori, Sirau, Kec. Kemranjen, Kabupaten Banyumas",PAPUA,53194.0,Indonesia,,,,-76.211.867,1.092.833.771,https://maps.google.com/?cid=0x0:0xe948e8eeb443034b,
supermarket,Toko bahan makanan,Warung Supri Jaya,"C795+4WV, Situmang, Adisana, Kec. Kebasen, Kabupaten Banyumas, Jawa Tengah 53172","Situmang, Adisana, Kec. Kebasen, Kabupaten Banyumas",PAPUA,53172.0,Indonesia,81229150052,,,-75.820.846,1.092.598.379,https://maps.google.com/?cid=0x0:0x5ced82da11a3b72b,
supermarket,supermarket,Papua 99777,"Kabupaten Asmat, Papua","Kabupaten Asmat, Papua",PAPUA,,Indonesia,,,,-54.613.838,1.381.995.591,https://maps.google.com/?cid=0x0:0x8e1d4401ddfcedae,
supermarket,Gudang,Asrul Jaya,"Jl. Dermaga Baru, Bis Agats, Distrik Agats, Kabupaten Asmat, Papua 99777","Bis Agats, Distrik Agats, Kabupaten Asmat",PAPUA,99777.0,Indonesia,81240602664,,,-55.251.141,1.381.400.604,https://maps.google.com/?cid=0x0:0x7b2ea490592e4a3a,
supermarket,Toko umum,Kios Alfa Rizky,"F46Q+F4J, Jl. Pemda, Bis Agats, Distrik Agats, Kabupaten Asmat, Papua 99777","Jl. Pemda, Bis Agats, Distrik Agats, Kabupaten Asmat",PAPUA,99777.0,Indonesia,,,,-55.387.922,1.381.377.554,https://maps.google.com/?cid=0x0:0xef7ac0490662fca4,
supermarket,Toko Swalayan,Toko AA,"F48Q+XF3, Jl. Yos Sudarso, Bis Agats, Distrik Agats, Kabupaten Asmat, Papua 99777","Jl. Yos Sudarso, Bis Agats, Distrik Agats, Kabupaten Asmat",PAPUA,99777.0,Indonesia,,,,-55.326.185,1.381.386.754,https://maps.google.com/?cid=0x0:0x1b27f8f545967398,
supermarket,Toko umum,KIOS NOVITA,"F43Q+J7F, Bis Agats, Distrik Agats, Kabupaten Asmat, Papua 99777","Bis Agats, Distrik Agats, Kabupaten Asmat",PAPUA,99777.0,Indonesia,82397151994,,,-55.459.276,1.381.381.869,https://maps.google.com/?cid=0x0:0x433cd72f574d820,
supermarket,Toko bahan makanan,Kios Maju Bersama,"F46J+8Q9, Jl. Yos Sudarso, Bis Agats, Distrik Agats, Kabupaten Asmat, Papua 99777","Jl. Yos Sudarso, Bis Agats, Distrik Agats, Kabupaten Asmat",PAPUA,99777.0,Indonesia,,,,-55.392.037,1.381.319.775,https://maps.google.com/?cid=0x0:0xe5477bab9be0f2ca,
supermarket,Toko Swalayan,AD Rahmat Ridho,"Jl. Dolog, Bis Agats, Distrik Agats, Kabupaten Asmat, Papua 99777","Bis Agats, Distrik Agats, Kabupaten Asmat",PAPUA,99777.0,Indonesia,,,,-5.537.971,1.381.406.466,https://maps.google.com/?cid=0x0:0x5ab6a8600d98d857,
supermarket,Minimarket,KIOS GHIAN CITA MANDIRI,"F44R+R8W Kei, Jl, Bis Agats, Agats, Asmat Regency, Papua 99777","Jl, Bis Agats, Agats, Asmat Regency",PAPUA,99777.0,Indonesia,81240868611,,,-5.542.895,138.140.814,https://maps.google.com/?cid=0x0:0x58d9a695618e4fe6,
supermarket,Toko umum,"Kios Rangga""""","F45J+W96, Jl. Yos Sudarso, Bis Agats, Distrik Agats, Kabupaten Asmat, Papua 99777","Jl. Yos Sudarso, Bis Agats, Distrik Agats, Kabupaten Asmat",PAPUA,99777.0,Indonesia,85362811811,,,-55.402.218,1.381.308.798,https://maps.google.com/?cid=0x0:0x9fda6e26bbda97a3,
supermarket,Toko bahan makanan,KIOS CAHAYA HIDUP,"Kaye Depan Kodim, Jl. Nusantara, Bis Agats, Distrik Agats, Kabupaten Asmat, Papua 99777","Jl. Nusantara, Bis Agats, Distrik Agats, Kabupaten Asmat",PAPUA,99777.0,Indonesia,85215995573,,,-55.445.095,1.381.334.572,https://maps.google.com/?cid=0x0:0xfecae3833f381441,
supermarket,Kios,KiOS BHYAND,"F4CQ+PW6, Bis Agats, Distrik Agats, Kabupaten Asmat, Papua 99777","Bis Agats, Distrik Agats, Kabupaten Asmat",PAPUA,99777.0,Indonesia,,,,-55.277.284,1.381.402.687,https://maps.google.com/?cid=0x0:0xb14689f11ce6ae3a,
supermarket,Toko umum,Kios Tisha Agats,"F44V+HM6, Bis Agats, Distrik Agats, Kabupaten Asmat, Papua 99777","Bis Agats, Distrik Agats, Kabupaten Asmat",PAPUA,99777.0,Indonesia,,,,-55.423.309,138.144.137,https://maps.google.com/?cid=0x0:0x4f7d34d51b27344f,
supermarket,Toko umum,KIOS SEHATI 2,"Kampung Kamur, Distrik Agats, Kabupaten Asmat, Papua 99777","Distrik Agats, Kabupaten Asmat",PAPUA,99777.0,Indonesia,82198256822,,,-55.020.397,1.381.486.604,https://maps.google.com/?cid=0x0:0x2ee2c6f9c9b5e03,
supermarket,Toko umum,KIOS DIVA RAJA,"Jl. Yos Sudarso, Bis Agats, Distrik Agats, Kabupaten Asmat, Papua 99777","Bis Agats, Distrik Agats, Kabupaten Asmat",PAPUA,99777.0,Indonesia,85215995573,,,-55.402.653,1.381.307.816,https://maps.google.com/?cid=0x0:0x63d9382ac8df5218,
supermarket,Toko,Juan Cliff Kios,"Jl. Frans Kaisepo No.Desa, Bisa Agats, Distrik Agats, Kabupaten Asmat, Papua 99777","Bisa Agats, Distrik Agats, Kabupaten Asmat",PAPUA,99777.0,Indonesia,85244933870,,,-55.404.985,1.381.374.443,https://maps.google.com/?cid=0x0:0x8ab9a0a222ae4849,
supermarket,Toko Percetakan,"RAIHAN ART SPANDUK,BALIHO DLL","F45Q+V2H, Jl. Frans Kaisepo, Bis Agats, Distrik Agats, Kabupaten Asmat, Papua 99777","Jl. Frans Kaisepo, Bis Agats, Distrik Agats, Kabupaten Asmat",PAPUA,99777.0,Indonesia,85215995573,,,-55.403.103,1.381.375.955,https://maps.google.com/?cid=0x0:0xc693aebea777941c,
supermarket,Toko umum,Kios Pelbar,"F4GQ+XVQ, Jl. Dermaga Baru, Bis Agats, Distrik Agats, Kabupaten Asmat, Papua 99777","Jl. Dermaga Baru, Bis Agats, Distrik Agats, Kabupaten Asmat",PAPUA,99777.0,Indonesia,,,,-55.225.266,1.381.397.225,https://maps.google.com/?cid=0x0:0xa945525453206277,
supermarket,Toko umum,kios Ani,"JL.zegward, Bismam, Distrik Agats, Kabupaten Asmat, Papua 99777","Bismam, Distrik Agats, Kabupaten Asmat",PAPUA,99777.0,Indonesia,85366608439,,,-54.613.838,1.381.995.591,https://maps.google.com/?cid=0x0:0xc5fb20823e0b1c15,
supermarket,Toko bahan makanan,Kios marla anugerah,"J8R6+67, Ayam / Akat, Akat, Kabupaten Asmat, Papua","Kabupaten Asmat, Papua",PAPUA,,Indonesia,,,,-53.594.709,1.383.106.905,https://maps.google.com/?cid=0x0:0xa11d6ff77bcb2e5f,
supermarket,Toko bahan makanan,cilok mbak sari,"F49R+JCV, Bis Agats, Distrik Agats, Kabupaten Asmat, Papua","Kabupaten Asmat, Papua",PAPUA,,Indonesia,,,,-55.308.858,1.381.410.575,https://maps.google.com/?cid=0x0:0xf937aeeb7eadcd1d,
supermarket,supermarket,Distrik Joerat,"Kabupaten Asmat, Papua","Kabupaten Asmat, Papua",PAPUA,,Indonesia,,,,-54.922.847,1.380.855.542,https://maps.google.com/?cid=0x0:0xda3d3ca2262ba8b7,
supermarket,supermarket,Kios Zaliah,"F47Q+2WH, Bis Agats, Distrik Agats, Kabupaten Asmat, Papua 99777","Bis Agats, Distrik Agats, Kabupaten Asmat",PAPUA,99777.0,Indonesia,,,,-55.374.449,1.381.398.704,https://maps.google.com/?cid=0x0:0xde0286737de99f2d,
supermarket,Toko bahan makanan,Toko Asmat,"Bojong Indah, Kec. Parung, Kabupaten Bogor, Jawa Barat","Kabupaten Bogor, Jawa Barat",PAPUA,,Indonesia,,,,-64.340.077,106.694.786,https://maps.google.com/?cid=0x0:0x4cae490fe707fd0,
supermarket,Toko bahan makanan,Toko Ahmad,"Ragajaya, Kecamatan Bojonggede, Kabupaten Bogor, Jawa Barat","Kabupaten Bogor, Jawa Barat",PAPUA,,Indonesia,,,,-6.444.783,106.769.788,https://maps.google.com/?cid=0x0:0x6fa0d47be6c98ff7,
supermarket,supermarket,Distrik Joerat,"Kabupaten Asmat, Papua","Kabupaten Asmat, Papua",PAPUA,,Indonesia,,,,-54.922.847,1.380.855.542,https://maps.google.com/?cid=0x0:0xda3d3ca2262ba8b7,
supermarket,Gudang,Asrul Jaya,"Jl. Dermaga Baru, Bis Agats, Distrik Agats, Kabupaten Asmat, Papua 99777","Bis Agats, Distrik Agats, Kabupaten Asmat",PAPUA,99777.0,Indonesia,81240602664,,,-55.251.141,1.381.400.604,https://maps.google.com/?cid=0x0:0x7b2ea490592e4a3a,
supermarket,Toko umum,Kios Alfa Rizky,"F46Q+F4J, Jl. Pemda, Bis Agats, Distrik Agats, Kabupaten Asmat, Papua 99777","Jl. Pemda, Bis Agats, Distrik Agats, Kabupaten Asmat",PAPUA,99777.0,Indonesia,,,,-55.387.922,1.381.377.554,https://maps.google.com/?cid=0x0:0xef7ac0490662fca4,
supermarket,Toko Swalayan,Toko AA,"F48Q+XF3, Jl. Yos Sudarso, Bis Agats, Distrik Agats, Kabupaten Asmat, Papua 99777","Jl. Yos Sudarso, Bis Agats, Distrik Agats, Kabupaten Asmat",PAPUA,99777.0,Indonesia,,,,-55.326.185,1.381.386.754,https://maps.google.com/?cid=0x0:0x1b27f8f545967398,
supermarket,Toko umum,KIOS NOVITA,"F43Q+J7F, Bis Agats, Distrik Agats, Kabupaten Asmat, Papua 99777","Bis Agats, Distrik Agats, Kabupaten Asmat",PAPUA,99777.0,Indonesia,82397151994,,,-55.459.276,1.381.381.869,https://maps.google.com/?cid=0x0:0x433cd72f574d820,
supermarket,Toko bahan makanan,Kios Maju Bersama,"F46J+8Q9, Jl. Yos Sudarso, Bis Agats, Distrik Agats, Kabupaten Asmat, Papua 99777","Jl. Yos Sudarso, Bis Agats, Distrik Agats, Kabupaten Asmat",PAPUA,99777.0,Indonesia,,,,-55.392.037,1.381.319.775,https://maps.google.com/?cid=0x0:0xe5477bab9be0f2ca,
supermarket,Toko Swalayan,AD Rahmat Ridho,"Jl. Dolog, Bis Agats, Distrik Agats, Kabupaten Asmat, Papua 99777","Bis Agats, Distrik Agats, Kabupaten Asmat",PAPUA,99777.0,Indonesia,,,,-5.537.971,1.381.406.466,https://maps.google.com/?cid=0x0:0x5ab6a8600d98d857,
supermarket,Minimarket,KIOS GHIAN CITA MANDIRI,"F44R+R8W Kei, Jl, Bis Agats, Agats, Asmat Regency, Papua 99777","Jl, Bis Agats, Agats, Asmat Regency",PAPUA,99777.0,Indonesia,81240868611,,,-5.542.895,138.140.814,https://maps.google.com/?cid=0x0:0x58d9a695618e4fe6,
supermarket,Kios,KiOS BHYAND,"F4CQ+PW6, Bis Agats, Distrik Agats, Kabupaten Asmat, Papua 99777","Bis Agats, Distrik Agats, Kabupaten Asmat",PAPUA,99777.0,Indonesia,,,,-55.277.284,1.381.402.687,https://maps.google.com/?cid=0x0:0xb14689f11ce6ae3a,
supermarket,Toko umum,"Kios Rangga""""","F45J+W96, Jl. Yos Sudarso, Bis Agats, Distrik Agats, Kabupaten Asmat, Papua 99777","Jl. Yos Sudarso, Bis Agats, Distrik Agats, Kabupaten Asmat",PAPUA,99777.0,Indonesia,85362811811,,,-55.402.218,1.381.308.798,https://maps.google.com/?cid=0x0:0x9fda6e26bbda97a3,
supermarket,Toko bahan makanan,KIOS CAHAYA HIDUP,"Kaye Depan Kodim, Jl. Nusantara, Bis Agats, Distrik Agats, Kabupaten Asmat, Papua 99777","Jl. Nusantara, Bis Agats, Distrik Agats, Kabupaten Asmat",PAPUA,99777.0,Indonesia,85215995573,,,-55.445.095,1.381.334.572,https://maps.google.com/?cid=0x0:0xfecae3833f381441,
supermarket,Toko umum,Kios Tisha Agats,"F44V+HM6, Bis Agats, Distrik Agats, Kabupaten Asmat, Papua 99777","Bis Agats, Distrik Agats, Kabupaten Asmat",PAPUA,99777.0,Indonesia,,,,-55.423.309,138.144.137,https://maps.google.com/?cid=0x0:0x4f7d34d51b27344f,
supermarket,Toko umum,KIOS DIVA RAJA,"Jl. Yos Sudarso, Bis Agats, Distrik Agats, Kabupaten Asmat, Papua 99777","Bis Agats, Distrik Agats, Kabupaten Asmat",PAPUA,99777.0,Indonesia,85215995573,,,-55.402.653,1.381.307.816,https://maps.google.com/?cid=0x0:0x63d9382ac8df5218,
supermarket,Toko umum,KIOS SEHATI 2,"Kampung Kamur, Distrik Agats, Kabupaten Asmat, Papua 99777","Distrik Agats, Kabupaten Asmat",PAPUA,99777.0,Indonesia,82198256822,,,-55.020.397,1.381.486.604,https://maps.google.com/?cid=0x0:0x2ee2c6f9c9b5e03,
supermarket,Toko,Juan Cliff Kios,"Jl. Frans Kaisepo No.Desa, Bisa Agats, Distrik Agats, Kabupaten Asmat, Papua 99777","Bisa Agats, Distrik Agats, Kabupaten Asmat",PAPUA,99777.0,Indonesia,85244933870,,,-55.404.985,1.381.374.443,https://maps.google.com/?cid=0x0:0x8ab9a0a222ae4849,
supermarket,Kantor Perusahaan,Supermarket GOTA,"4868+2X3, Jl. Sungai Maruni, Sawagumu, Distrik Sorong Timur, Kota Sorong, Papua Bar. 98416","Jl. Sungai Maruni, Sawagumu, Distrik Sorong Timur, Kota Sorong",PAPUA,98416.0,Indonesia,,,,-0.8900646,1.313.173.945,https://maps.google.com/?cid=0x0:0xe80a2989cd86300,
supermarket,Toko Percetakan,"RAIHAN ART SPANDUK,BALIHO DLL","F45Q+V2H, Jl. Frans Kaisepo, Bis Agats, Distrik Agats, Kabupaten Asmat, Papua 99777","Jl. Frans Kaisepo, Bis Agats, Distrik Agats, Kabupaten Asmat",PAPUA,99777.0,Indonesia,85215995573,,,-55.403.103,1.381.375.955,https://maps.google.com/?cid=0x0:0xc693aebea777941c,
supermarket,Toko umum,Kios Pelbar,"F4GQ+XVQ, Jl. Dermaga Baru, Bis Agats, Distrik Agats, Kabupaten Asmat, Papua 99777","Jl. Dermaga Baru, Bis Agats, Distrik Agats, Kabupaten Asmat",PAPUA,99777.0,Indonesia,,,,-55.225.266,1.381.397.225,https://maps.google.com/?cid=0x0:0xa945525453206277,
supermarket,Pusat Perbelanjaan,Papua Supermarket  Dept. Store,"4869+F77 Bar, Sawagumu, Kec. Sorong Utara, Kota Sorong, Papua Bar. 98416","Sawagumu, Kec. Sorong Utara, Kota Sorong",PAPUA,98416.0,Indonesia,9513160123,,,-0.888831,1.313.181.847,https://maps.google.com/?cid=0x0:0x7b5f0926a74ad213,
supermarket,Toko Swalayan,Saga Supermarket,"CPW3+83X, Ardipura, Distrik Jayapura Selatan, Kota Jayapura, Papua 99222","Ardipura, Distrik Jayapura Selatan, Kota Jayapura",PAPUA,99222.0,Indonesia,,,,-25.541.438,1.407.027.385,https://maps.google.com/?cid=0x0:0x287c7b2014785d97,
supermarket,Toko bahan makanan,cilok mbak sari,"F49R+JCV, Bis Agats, Distrik Agats, Kabupaten Asmat, Papua","Kabupaten Asmat, Papua",PAPUA,,Indonesia,,,,-55.308.858,1.381.410.575,https://maps.google.com/?cid=0x0:0xf937aeeb7eadcd1d,
supermarket,Toko bahan makanan,Toko Asmat,"Bojong Indah, Kec. Parung, Kabupaten Bogor, Jawa Barat","Kabupaten Bogor, Jawa Barat",PAPUA,,Indonesia,,,,-64.340.077,106.694.786,https://maps.google.com/?cid=0x0:0x4cae490fe707fd0,
supermarket,Toko Swalayan,GS THE FRESH JATIBENING,"Jl. Caman Raya No.7-24, RT.004/RW.003, Jatibening, Kec. Pd. Gede, Kota Bks, Jawa Barat 17412","RT.004/RW.003, Jatibening, Kec. Pd. Gede, Kota Bks",PAPUA,17412.0,Indonesia,2184982211,,,-62.676.455,1.069.436.409,https://maps.google.com/?cid=0x0:0x2cdb50c3ee3206c,
supermarket,Toko Swalayan,GS The Fresh Supermarket Kemang Pratama,"Linc Square Kemang Pratama, Jl. Kemang Pratama Raya, RT.004/RW.001, Bojong Rawalumbu, Kec. Rawalumbu, Kota Bks, Jawa Barat 17116","Jl. Kemang Pratama Raya, RT.004/RW.001, Bojong Rawalumbu, Kec. Rawalumbu, Kota Bks",PAPUA,17116.0,Indonesia,2182416910,,,-62.779.418,1.069.910.558,https://maps.google.com/?cid=0x0:0x4ce692f4b9ef21ee,
supermarket,Toko Swalayan,TOKO De'UUY,"Q374+WXJ, Jl. Muharam III, Mangunjaya, Kec. Tambun Sel., Kabupaten Bekasi, Jawa Barat 17510","Jl. Muharam III, Mangunjaya, Kec. Tambun Sel., Kabupaten Bekasi",PAPUA,17510.0,Indonesia,81381932639,,,-62.351.651,1.070.573.827,https://maps.google.com/?cid=0x0:0x6ff5a6dbf418bcac,
supermarket,supermarket,Pulau Tiga,"Kabupaten Asmat, Papua","Kabupaten Asmat, Papua",PAPUA,,Indonesia,,,,-48.345.584,1.380.010.282,https://maps.google.com/?cid=0x0:0xfa037f42c2a610b2,
supermarket,Toko,Kios Walika,"R6V8+9PC, Erma, Sawa Erma, Kabupaten Asmat, Papua 99779","Erma, Sawa Erma, Kabupaten Asmat",PAPUA,99779.0,Indonesia,,,,-5.156.573,1.382.167.619,https://maps.google.com/?cid=0x0:0xe1a2992931732375,
supermarket,supermarket,Kios Rina,"R6V7+MV6, Erma, Sawa Erma, Kabupaten Asmat, Papua 99779","Erma, Sawa Erma, Kabupaten Asmat",PAPUA,99779.0,Indonesia,,,,-51.558.304,138.214.655,https://maps.google.com/?cid=0x0:0x1f2ba9fd4ca04eb,
supermarket,Toko bahan makanan,Gerai Pangan Pulau Harapan,"8HXH+8CX, Jl. Kec., Pulau Klp., Kepulauan Seribu Utara, Kab. Administrasi Kepulauan Seribu, Daerah Khusus Ibukota Jakarta 14540","Jl. Kec., Pulau Klp., Kepulauan Seribu Utara, Kab. Administrasi Kepulauan Seribu",PAPUA,14540.0,Indonesia,,,,-56.516.037,1.065.783.668,https://maps.google.com/?cid=0x0:0x2313efd6951f2944,
supermarket,supermarket,Papua 99778,Papua,Papua,PAPUA,,Indonesia,,,,-48.922.915,1.379.218.204,https://maps.google.com/?cid=0x0:0x7dad809947c0ba4d,
supermarket,Toko,Kios Walika,"R6V8+9PC, Erma, Sawa Erma, Kabupaten Asmat, Papua 99779","Erma, Sawa Erma, Kabupaten Asmat",PAPUA,99779.0,Indonesia,,,,-5.156.573,1.382.167.619,https://maps.google.com/?cid=0x0:0xe1a2992931732375,
supermarket,supermarket,Kios Rina,"R6V7+MV6, Erma, Sawa Erma, Kabupaten Asmat, Papua 99779","Erma, Sawa Erma, Kabupaten Asmat",PAPUA,99779.0,Indonesia,,,,-51.558.304,138.214.655,https://maps.google.com/?cid=0x0:0x1f2ba9fd4ca04eb,
supermarket,Toko bahan makanan,Toko Tiga Putri,"8HWH+R59, Pulau Harapan, Kepulauan Seribu Utara, Kab. Administrasi Kepulauan Seribu, Daerah Khusus Ibukota Jakarta 14540","Pulau Harapan, Kepulauan Seribu Utara, Kab. Administrasi Kepulauan Seribu",PAPUA,14540.0,Indonesia,85761889099,,,-56.529.515,1.065.779.776,https://maps.google.com/?cid=0x0:0xe226d4932185436,
supermarket,Toko makanan beku,Mugie frozen,"Jl. Sawah Lio No.I, RT.11/RW.1, Jemb. Lima, Kec. Tambora, Kota Jakarta Barat, Daerah Khusus Ibukota Jakarta 11250","RT.11/RW.1, Jemb. Lima, Kec. Tambora, Kota Jakarta Barat",PAPUA,11250.0,Indonesia,85814561987,,,-61.466.015,1.068.060.013,https://maps.google.com/?cid=0x0:0x6b272c8d9ccd891a,
supermarket,supermarket,Jetsy,"Pau, Kabupaten Asmat, Papua","Kabupaten Asmat, Papua",PAPUA,,Indonesia,,,,-54.748.611,1.383.589.086,https://maps.google.com/?cid=0x0:0xce83e2f9037e268e,
supermarket,Toko Swalayan,GrandLucky - SCBD,"Kawasan Niaga Terpadu Sudirman (SCBD, Jl. Jenderal Sudirman LOT-12, Senayan, Kec. Kby. Baru, Kota Jakarta Selatan, Daerah Khusus Ibukota Jakarta 12190","Jl. Jenderal Sudirman LOT-12, Senayan, Kec. Kby. Baru, Kota Jakarta Selatan",PAPUA,12190.0,Indonesia,85183118632,,,-622.691,1.068.059.153,https://maps.google.com/?cid=0x0:0x4efcd0d8d64cad53,
supermarket,Toko bahan makanan,Yes Mart,"Kp. Waena, Kec. Heram, Kota Jayapura, Papua 99225","Kec. Heram, Kota Jayapura",PAPUA,99225.0,Indonesia,85244442561,,,-25.959.678,1.406.408.112,https://maps.google.com/?cid=0x0:0xf4f2aa037c0e061f,
supermarket,Pusat Perbelanjaan,GELAEL SUPERMARKET,"Jl. Halmahera No.1, Trikora, Kec. Jayapura Utara, Kota Jayapura, Papua 99111","Trikora, Kec. Jayapura Utara, Kota Jayapura",PAPUA,99111.0,Indonesia,967537260,,,-25.409.664,1.407.049.667,https://maps.google.com/?cid=0x0:0x5dac61c724bf3c86,
supermarket,Toko Swalayan,Saga Supermarket,"CPW3+83X, Ardipura, Distrik Jayapura Selatan, Kota Jayapura, Papua 99222","Ardipura, Distrik Jayapura Selatan, Kota Jayapura",PAPUA,99222.0,Indonesia,,,,-25.541.438,1.407.027.385,https://maps.google.com/?cid=0x0:0x287c7b2014785d97,
supermarket,Pusat Perbelanjaan,Saga Jayapura,"Jl. Ahmad Yani, Gurabesi, Kec. Jayapura Utara, Kota Jayapura, Papua 99222","Gurabesi, Kec. Jayapura Utara, Kota Jayapura",PAPUA,99222.0,Indonesia,811480554,,,-25.433.433,1.407.016.688,https://maps.google.com/?cid=0x0:0x68f0411e320c4afb,
supermarket,Toko,HADI Supermarket  Dept Store,"JFQX+RQC, Jl. Yos Sudarso, Oyehe, Distrik Nabire, Kabupaten Nabire, Papua 98811","Jl. Yos Sudarso, Oyehe, Distrik Nabire, Kabupaten Nabire",PAPUA,98811.0,Indonesia,98421367,,,-3.360.447,1.354.994.055,https://maps.google.com/?cid=0x0:0x60bc70181b8864df,
supermarket,Toko Roti,JJ Twins ( Grocery - bakery - laundry) suport by zaen,"Jl, Sorendidori, Kec. Supiori Tim., Kabupaten Supiori, Papua 98161","Sorendidori, Kec. Supiori Tim., Kabupaten Supiori",PAPUA,98161.0,Indonesia,82257456954,,,-0.7342278,1.357.381.756,https://maps.google.com/?cid=0x0:0x69434e551c19e66c,
supermarket,Pusat Perbelanjaan,Papua Supermarket  Dept. Store,"4869+F77 Bar, Sawagumu, Kec. Sorong Utara, Kota Sorong, Papua Bar. 98416","Sawagumu, Kec. Sorong Utara, Kota Sorong",PAPUA,98416.0,Indonesia,9513160123,,,-0.888831,1.313.181.847,https://maps.google.com/?cid=0x0:0x7b5f0926a74ad213,
supermarket,Toko bahan makanan,Papua Mart,"7XVG+F83, Pruleme, Distrik Mulia, Kabupaten Puncak Jaya, Papua","Kabupaten Puncak Jaya, Papua",PAPUA,,Indonesia,,,,-37.063.653,1.379.757.822,https://maps.google.com/?cid=0x0:0xf49ab6ab8e5d1b97,
supermarket,Gereja,GBGP yope,"CVQV+MJW samping Diana 2, Jl. Hasanuddin, Nawaripi, Kec. Mimika Baru, Kabupaten Mimika, Papua 99971","Jl. Hasanuddin, Nawaripi, Kec. Mimika Baru, Kabupaten Mimika",PAPUA,99971.0,Indonesia,,,,-45.607.627,1.368.940.675,https://maps.google.com/?cid=0x0:0xbacaec8c984abb95,
supermarket,Toko Swalayan,Hadi Supermarket  Dept. Store,"Jl. Imam Bonjol No.56, Fandoi, Kec. Biak Kota, Kabupaten Biak Numfor, Papua 98111","Fandoi, Kec. Biak Kota, Kabupaten Biak Numfor",PAPUA,98111.0,Indonesia,,,,-11.800.003,1.360.824.788,https://maps.google.com/?cid=0x0:0xdcad74b4384219ee,
supermarket,Toko Swalayan,kios asifa jaya,"G9P8+VQW, Waiya, Distrik Depapre, Kabupaten Jayapura, Papua 99353","Waiya, Distrik Depapre, Kabupaten Jayapura",PAPUA,99353.0,Indonesia,,,,-24.627.673,1.403.669.457,https://maps.google.com/?cid=0x0:0x4e3f1dd141cbc528,
supermarket,Minimarket,SAGA SUPERMARKET,"4PVX+WJ7, Jl. Inres Kalibagre, Mararena, Kec. Sarmi, Kabupaten Sarmi, Papua 99373","Jl. Inres Kalibagre, Mararena, Kec. Sarmi, Kabupaten Sarmi",PAPUA,99373.0,Indonesia,811488808,,,-18.551.351,138.749.118,https://maps.google.com/?cid=0x0:0x3a85515714116950,
supermarket,Pusat jajanan kaki lima,Papuanmart,"Furia polda, Jl. Perkutut Jalur 4 No.164, Wahno, Kec. Abepura, Kota Jayapura, Papua 99224","Jl. Perkutut Jalur 4 No.164, Wahno, Kec. Abepura, Kota Jayapura",PAPUA,99224.0,Indonesia,,,,-25.936.297,1.406.745.825,https://maps.google.com/?cid=0x0:0x820b246032d165c5,
supermarket,Pusat Perbelanjaan,MEGA MART YOUTEFA,"9MRG+VJQ, Jl. Ps. Yotefa, Wai Mhorock, Kec. Abepura, Kota Jayapura, Papua","Kota Jayapura, Papua",PAPUA,,Indonesia,,,,-26.077.959,140.676.594,https://maps.google.com/?cid=0x0:0x9d05a5556478b41f,
supermarket,Toko Swalayan,HADI MART TIMIKA,"Jl. Yos Sudarso No.35, Kwamki, Kec. Mimika Baru, Kabupaten Mimika, Papua 99971","Kwamki, Kec. Mimika Baru, Kabupaten Mimika",PAPUA,99971.0,Indonesia,,,,-45.446.365,1.368.895.979,https://maps.google.com/?cid=0x0:0x3d96563d2fe0245a,
supermarket,supermarket,Smart Minimarket,"JP66+WCF, Banamepe, Edera, Kabupaten Mappi, Papua","Kabupaten Mappi, Papua",PAPUA,,Indonesia,,,,-73.876.836,1.397.110.495,https://maps.google.com/?cid=0x0:0x7b9d0e61f96daf74,
supermarket,Pusat Perbelanjaan,Saga Mart,"9MVG+F44, Jl. Baru Ps. Lama Abepura, Wai Mhorock, Kec. Abepura, Kota Jayapura, Papua 99225","Jl. Baru Ps. Lama Abepura, Wai Mhorock, Kec. Abepura, Kota Jayapura",PAPUA,99225.0,Indonesia,,,,-26.063.557,1.406.753.333,https://maps.google.com/?cid=0x0:0x87e41d7df0d8cbcc,
supermarket,Toko Swalayan,SAGA WAENA,"CJ3M+HQ8, Jl. Raya Abepura - Sentani, Kp. Waena, Kec. Heram, Kota Jayapura, Papua 99225","Jl. Raya Abepura - Sentani, Kp. Waena, Kec. Heram, Kota Jayapura",PAPUA,99225.0,Indonesia,,,,-25.961.192,1.406.345.177,https://maps.google.com/?cid=0x0:0xbe5416ad4f79e596,
supermarket,Toko Swalayan,Nagalomuni Market,"7XRJ+565, Pruleme, Distrik Mulia, Kabupaten Puncak Jaya, Papua 98973","Pruleme, Distrik Mulia, Kabupaten Puncak Jaya",PAPUA,98973.0,Indonesia,,,,-37.096.029,1.379.806.117,https://maps.google.com/?cid=0x0:0xdb6a90a01498712d,
supermarket,supermarket,Yetsy,"Akat, Kabupaten Asmat, Papua","Kabupaten Asmat, Papua",PAPUA,,Indonesia,,,,-53.501.406,1.386.188.423,https://maps.google.com/?cid=0x0:0x933091abb6f8e384,
supermarket,Toko Swalayan,GrandLucky - SCBD,"Kawasan Niaga Terpadu Sudirman (SCBD, Jl. Jenderal Sudirman LOT-12, Senayan, Kec. Kby. Baru, Kota Jakarta Selatan, Daerah Khusus Ibukota Jakarta 12190","Jl. Jenderal Sudirman LOT-12, Senayan, Kec. Kby. Baru, Kota Jakarta Selatan",PAPUA,12190.0,Indonesia,85183118632,,,-622.691,1.068.059.153,https://maps.google.com/?cid=0x0:0x4efcd0d8d64cad53,
supermarket,supermarket,Kios Akmal Jaya,"HGPP+PJ9, Beco, Akat, Kabupaten Asmat, Papua 99777","Beco, Akat, Kabupaten Asmat",PAPUA,99777.0,Indonesia,,,,-54.132.053,1.385.366.069,https://maps.google.com/?cid=0x0:0x213694d24bf0e862,
supermarket,supermarket,Jetsy,"Pau, Kabupaten Asmat, Papua","Kabupaten Asmat, Papua",PAPUA,,Indonesia,,,,-54.748.611,1.383.589.086,https://maps.google.com/?cid=0x0:0xce83e2f9037e268e,
supermarket,Toko,HADI Supermarket  Dept Store,"JFQX+RQC, Jl. Yos Sudarso, Oyehe, Distrik Nabire, Kabupaten Nabire, Papua 98811","Jl. Yos Sudarso, Oyehe, Distrik Nabire, Kabupaten Nabire",PAPUA,98811.0,Indonesia,98421367,,,-3.360.447,1.354.994.055,https://maps.google.com/?cid=0x0:0x60bc70181b8864df,
supermarket,Pusat Perbelanjaan,Papua Supermarket  Dept. Store,"4869+F77 Bar, Sawagumu, Kec. Sorong Utara, Kota Sorong, Papua Bar. 98416","Sawagumu, Kec. Sorong Utara, Kota Sorong",PAPUA,98416.0,Indonesia,9513160123,,,-0.888831,1.313.181.847,https://maps.google.com/?cid=0x0:0x7b5f0926a74ad213,
supermarket,Toko Roti,JJ Twins ( Grocery - bakery - laundry) suport by zaen,"Jl, Sorendidori, Kec. Supiori Tim., Kabupaten Supiori, Papua 98161","Sorendidori, Kec. Supiori Tim., Kabupaten Supiori",PAPUA,98161.0,Indonesia,82257456954,,,-0.7342278,1.357.381.756,https://maps.google.com/?cid=0x0:0x69434e551c19e66c,
supermarket,Toko Swalayan,Hadi Supermarket  Dept. Store,"Jl. Imam Bonjol No.56, Fandoi, Kec. Biak Kota, Kabupaten Biak Numfor, Papua 98111","Fandoi, Kec. Biak Kota, Kabupaten Biak Numfor",PAPUA,98111.0,Indonesia,,,,-11.800.003,1.360.824.788,https://maps.google.com/?cid=0x0:0xdcad74b4384219ee,
supermarket,supermarket,Smart Minimarket,"JP66+WCF, Banamepe, Edera, Kabupaten Mappi, Papua","Kabupaten Mappi, Papua",PAPUA,,Indonesia,,,,-73.876.836,1.397.110.495,https://maps.google.com/?cid=0x0:0x7b9d0e61f96daf74,
supermarket,Toko Swalayan,HADI MART TIMIKA,"Jl. Yos Sudarso No.35, Kwamki, Kec. Mimika Baru, Kabupaten Mimika, Papua 99971","Kwamki, Kec. Mimika Baru, Kabupaten Mimika",PAPUA,99971.0,Indonesia,,,,-45.446.365,1.368.895.979,https://maps.google.com/?cid=0x0:0x3d96563d2fe0245a,
supermarket,Toko Swalayan,kios asifa jaya,"G9P8+VQW, Waiya, Distrik Depapre, Kabupaten Jayapura, Papua 99353","Waiya, Distrik Depapre, Kabupaten Jayapura",PAPUA,99353.0,Indonesia,,,,-24.627.673,1.403.669.457,https://maps.google.com/?cid=0x0:0x4e3f1dd141cbc528,
supermarket,Kantor Perusahaan,Supermarket GOTA,"4868+2X3, Jl. Sungai Maruni, Sawagumu, Distrik Sorong Timur, Kota Sorong, Papua Bar. 98416","Jl. Sungai Maruni, Sawagumu, Distrik Sorong Timur, Kota Sorong",PAPUA,98416.0,Indonesia,,,,-0.8900646,1.313.173.945,https://maps.google.com/?cid=0x0:0xe80a2989cd86300,
supermarket,Pusat Perbelanjaan,MEGA MART YOUTEFA,"9MRG+VJQ, Jl. Ps. Yotefa, Wai Mhorock, Kec. Abepura, Kota Jayapura, Papua","Kota Jayapura, Papua",PAPUA,,Indonesia,,,,-26.077.959,140.676.594,https://maps.google.com/?cid=0x0:0x9d05a5556478b41f,
supermarket,Toko bahan makanan,Kios marla anugerah,"J8R6+67, Ayam / Akat, Akat, Kabupaten Asmat, Papua","Kabupaten Asmat, Papua",PAPUA,,Indonesia,,,,-53.594.709,1.383.106.905,https://maps.google.com/?cid=0x0:0xa11d6ff77bcb2e5f,
supermarket,Toko Swalayan,GrandLucky Harapan Indah - Kota Bekasi,"RX7F+9PC, Jl. Harapan Indah Boulevard No.9, RT.005/RW.3, Medan Satria, Kecamatan Medan Satria, Kota Bks, Jawa Barat 17132","Jl. Harapan Indah Boulevard No.9, RT.005/RW.3, Medan Satria, Kecamatan Medan Satria, Kota Bks",PAPUA,17132.0,Indonesia,85183118632,,,-61.867.808,1.069.743.571,https://maps.google.com/?cid=0x0:0xbfe5eb4615243387,
supermarket,supermarket,Papua 99773,"Distrik Pantai Kasuari, Kabupaten Asmat, Papua","Kabupaten Asmat, Papua",PAPUA,,Indonesia,,,,-63.217.958,1.386.388.879,https://maps.google.com/?cid=0x0:0x6ae3147f1b6c530a,
supermarket,,KIOS ARINI,"2R3H+GGQ, Yerfum, Pantai Kasuari, Kabupaten Asmat, Papua 99782","Yerfum, Pantai Kasuari, Kabupaten Asmat",PAPUA,99782.0,Indonesia,,,,-59.961.527,1.388.288.587,https://maps.google.com/?cid=0x0:0x485f1b878020923e,
supermarket,Toko Swalayan,AbdiPraja,"RJ6Q+MJJ, Kamur, Distrik Pantai Kasuari, Kabupaten Asmat, Papua 99773","Kamur, Distrik Pantai Kasuari, Kabupaten Asmat",PAPUA,99773.0,Indonesia,,,,-61.882.916,1.386.390.141,https://maps.google.com/?cid=0x0:0x4e7b7f7a195cab6e,
supermarket,supermarket,Distrik Der Koumur,"Kabupaten Asmat, Papua","Kabupaten Asmat, Papua",PAPUA,,Indonesia,,,,-59.984.344,1.388.312.335,https://maps.google.com/?cid=0x0:0x22845df5d954f859,
supermarket,Toko Swalayan,Ranch Market Grand Indonesia,"Grand Indonesia Shoping Town East Mall, Jl. MH Thamrin No.1 Lantai LG, RT.1/RW.5, Menteng, Kec. Menteng, Kota Jakarta Pusat, Daerah Khusus Ibukota Jakarta 10310","Jl. MH Thamrin No.1 Lantai LG, RT.1/RW.5, Menteng, Kec. Menteng, Kota Jakarta Pusat",PAPUA,10310.0,Indonesia,2123599054,,,-61.963.902,1.068.225.851,https://maps.google.com/?cid=0x0:0xdb199471a47076d0,
supermarket,Toko Swalayan,Ranch Market Pesanggrahan,"1, Jl. Pesanggrahan No.2, Kembangan Sel., Kec. Kembangan, Kota Jakarta Barat, Daerah Khusus Ibukota Jakarta 11610","Jl. Pesanggrahan No.2, Kembangan Sel., Kec. Kembangan, Kota Jakarta Barat",PAPUA,11610.0,Indonesia,2158304842,,,-61.883.181,1.067.561.831,https://maps.google.com/?cid=0x0:0x59972408c2ef6a6e,
supermarket,Toko Swalayan,Ranch Market Living World Alam Sutera,"Living World, Jl. Alam Sutera Boulevard No.kav. 21, Pakulonan, Serpong Utara, South Tangerang City, Banten 15325","Jl. Alam Sutera Boulevard No.kav. 21, Pakulonan, Serpong Utara, South Tangerang City",PAPUA,15325.0,Indonesia,81252270571,,,-62.450.404,1.066.526.923,https://maps.google.com/?cid=0x0:0x5dfd20a0bc2695fa,
supermarket,Pusat Perbelanjaan,Papua Supermarket  Dept. Store,"4869+F77 Bar, Sawagumu, Kec. Sorong Utara, Kota Sorong, Papua Bar. 98416","Sawagumu, Kec. Sorong Utara, Kota Sorong",PAPUA,98416.0,Indonesia,9513160123,,,-0.888831,1.313.181.847,https://maps.google.com/?cid=0x0:0x7b5f0926a74ad213,
supermarket,Minimarket,SAGA Supermarket  Dept. Store,"Jalan A. Yani, Ruko Kuda Laut, Klademak, Kecamatan Sorong Manoi, Kota Sorong, Papua Bar. 98414","Ruko Kuda Laut, Klademak, Kecamatan Sorong Manoi, Kota Sorong",PAPUA,98414.0,Indonesia,951322784,,,-0.8765248,1.312.576.755,https://maps.google.com/?cid=0x0:0x963043ed646a7e1e,
supermarket,Komplek perumahan,Rumah Bpk Gustaf. L,"4859+784, Klawuyuk, Distrik Sorong Timur, Kota Sorong, Papua Bar. 98416","Klawuyuk, Distrik Sorong Timur, Kota Sorong",PAPUA,98416.0,Indonesia,,,,-0.8918739,1.313.183.248,https://maps.google.com/?cid=0x0:0x30559e7e5eb96ee4,
supermarket,Toserba,STAR Department Store - Summarecon Mall Bekasi,"Sumarecon Mal Bks, Summarecon Mall Bekasi, Jl. Bulevar Ahmad Yani, RT.006/RW.002, Marga Mulya, Kec. Bekasi Utara, Kota Bks, Jawa Barat 17142","Summarecon Mall Bekasi, Jl. Bulevar Ahmad Yani, RT.006/RW.002, Marga Mulya, Kec. Bekasi Utara, Kota Bks",PAPUA,17142.0,Indonesia,2129572388,,,-62.257.825,1.070.016.338,https://maps.google.com/?cid=0x0:0x6534b7f6e7d74422,
supermarket,supermarket,KOPPAS MART,"Jl. Matahari Raya No.480, RT.001/RW.010, Jaka Setia, Kec. Bekasi Sel., Kota Bks, Jawa Barat 17147","RT.001/RW.010, Jaka Setia, Kec. Bekasi Sel., Kota Bks",PAPUA,17147.0,Indonesia,,,,-62.575.994,1.069.664.276,https://maps.google.com/?cid=0x0:0x618cd80f9bfc281b,
supermarket,supermarket,Papua 99773,"Distrik Pantai Kasuari, Kabupaten Asmat, Papua","Kabupaten Asmat, Papua",PAPUA,,Indonesia,,,,-63.217.958,1.386.388.879,https://maps.google.com/?cid=0x0:0x6ae3147f1b6c530a,
supermarket,Toko Swalayan,Ranch Market Grand Indonesia,"Grand Indonesia Shoping Town East Mall, Jl. MH Thamrin No.1 Lantai LG, RT.1/RW.5, Menteng, Kec. Menteng, Kota Jakarta Pusat, Daerah Khusus Ibukota Jakarta 10310","Jl. MH Thamrin No.1 Lantai LG, RT.1/RW.5, Menteng, Kec. Menteng, Kota Jakarta Pusat",PAPUA,10310.0,Indonesia,2123599054,,,-61.963.902,1.068.225.851,https://maps.google.com/?cid=0x0:0xdb199471a47076d0,
supermarket,,KIOS ARINI,"2R3H+GGQ, Yerfum, Pantai Kasuari, Kabupaten Asmat, Papua 99782","Yerfum, Pantai Kasuari, Kabupaten Asmat",PAPUA,99782.0,Indonesia,,,,-59.961.527,1.388.288.587,https://maps.google.com/?cid=0x0:0x485f1b878020923e,
supermarket,Pusat Perbelanjaan,Papua Supermarket  Dept. Store,"4869+F77 Bar, Sawagumu, Kec. Sorong Utara, Kota Sorong, Papua Bar. 98416","Sawagumu, Kec. Sorong Utara, Kota Sorong",PAPUA,98416.0,Indonesia,9513160123,,,-0.888831,1.313.181.847,https://maps.google.com/?cid=0x0:0x7b5f0926a74ad213,
supermarket,Toko Swalayan,Saga Supermarket,"CPW3+83X, Ardipura, Distrik Jayapura Selatan, Kota Jayapura, Papua 99222","Ardipura, Distrik Jayapura Selatan, Kota Jayapura",PAPUA,99222.0,Indonesia,,,,-25.541.438,1.407.027.385,https://maps.google.com/?cid=0x0:0x287c7b2014785d97,
supermarket,Toko bahan makanan,DEPOT SATRIA JOAN,"3JWM+GQV, Kotdol, Distrik Serambakon, Kabupaten Pegunungan Bintang, Papua 99573","Kotdol, Distrik Serambakon, Kabupaten Pegunungan Bintang",PAPUA,99573.0,Indonesia,81343058967,,,-49.036.458,140.634.431,https://maps.google.com/?cid=0x0:0xef33d2d686115f88,
supermarket,Pusat Perbelanjaan,Saga Jayapura,"Jl. Ahmad Yani, Gurabesi, Kec. Jayapura Utara, Kota Jayapura, Papua 99222","Gurabesi, Kec. Jayapura Utara, Kota Jayapura",PAPUA,99222.0,Indonesia,811480554,,,-25.433.433,1.407.016.688,https://maps.google.com/?cid=0x0:0x68f0411e320c4afb,
supermarket,Pusat Perbelanjaan,GELAEL SUPERMARKET,"Jl. Halmahera No.1, Trikora, Kec. Jayapura Utara, Kota Jayapura, Papua 99111","Trikora, Kec. Jayapura Utara, Kota Jayapura",PAPUA,99111.0,Indonesia,967537260,,,-25.409.664,1.407.049.667,https://maps.google.com/?cid=0x0:0x5dac61c724bf3c86,
supermarket,Pusat Perbelanjaan,Pasar soyar,"7GC5+FQM, Masabuay, selatan pasar ikan, Wasior I, Distrik Wasior, Kabupaten Teluk Wondama, Papua Bar. 98362","Masabuay, selatan pasar ikan, Wasior I, Distrik Wasior, Kabupaten Teluk Wondama",PAPUA,98362.0,Indonesia,822715566,,,-27.287.807,1.345.094.141,https://maps.google.com/?cid=0x0:0x29ab54816e33ac1d,
supermarket,Toko Swalayan,AbdiPraja,"RJ6Q+MJJ, Kamur, Distrik Pantai Kasuari, Kabupaten Asmat, Papua 99773","Kamur, Distrik Pantai Kasuari, Kabupaten Asmat",PAPUA,99773.0,Indonesia,,,,-61.882.916,1.386.390.141,https://maps.google.com/?cid=0x0:0x4e7b7f7a195cab6e,
supermarket,Toko,Samudra Supermarket,"8PP2+F75, Kroy, Kec. Kaimana, Kabupaten Kaimana, Papua Bar. 98654","Kroy, Kec. Kaimana, Kabupaten Kaimana",PAPUA,98654.0,Indonesia,8113189579,,,-36.631.656,1.337.002.039,https://maps.google.com/?cid=0x0:0x97575d1c37a98621,
supermarket,supermarket,Sagare Hotspot,"2R3H+R8R, Kp. Baru, Yerfum, Cihara, Kabupaten Lebak, Banten 42392","Kp. Baru, Yerfum, Cihara, Kabupaten Lebak",PAPUA,42392.0,Indonesia,81283470126,,,-59.953.865,1.388.282.586,https://maps.google.com/?cid=0x0:0xcd281ddbad6db5d,
supermarket,Toko Swalayan,SAGA Fresh Dok V,"FP8F+CG5, Mandala, Kec. Jayapura Utara, Kota Jayapura, Papua","Kota Jayapura, Papua",PAPUA,,Indonesia,811481744,,,-25.339.841,1.407.238.702,https://maps.google.com/?cid=0x0:0x14ea247dbf0373ea,
supermarket,Toko Swalayan,Swalayan new harapan,"Jl. Trans Papua No.km. 2, Persatuan, Mandobo, Boven Digoel Regency, Papua 99663","Persatuan, Mandobo, Boven Digoel Regency",PAPUA,99663.0,Indonesia,81248781111,,,-61.254.842,1.403.275.427,https://maps.google.com/?cid=0x0:0xdcc4bfc1d76c22dd,
supermarket,Minimarket,SAGA SUPERMARKET,"4PVX+WJ7, Jl. Inres Kalibagre, Mararena, Kec. Sarmi, Kabupaten Sarmi, Papua 99373","Jl. Inres Kalibagre, Mararena, Kec. Sarmi, Kabupaten Sarmi",PAPUA,99373.0,Indonesia,811488808,,,-18.551.351,138.749.118,https://maps.google.com/?cid=0x0:0x3a85515714116950,
supermarket,supermarket,Smart Minimarket,"JP66+WCF, Banamepe, Edera, Kabupaten Mappi, Papua","Kabupaten Mappi, Papua",PAPUA,,Indonesia,,,,-73.876.836,1.397.110.495,https://maps.google.com/?cid=0x0:0x7b9d0e61f96daf74,
supermarket,Toko Swalayan,SAGA WAENA,"CJ3M+HQ8, Jl. Raya Abepura - Sentani, Kp. Waena, Kec. Heram, Kota Jayapura, Papua 99225","Jl. Raya Abepura - Sentani, Kp. Waena, Kec. Heram, Kota Jayapura",PAPUA,99225.0,Indonesia,,,,-25.961.192,1.406.345.177,https://maps.google.com/?cid=0x0:0xbe5416ad4f79e596,
supermarket,Pusat Perbelanjaan,SAGA YOUTEFA,"9MVG+F3W, Jl. Garuda, Wai Mhorock, Kec. Abepura, Kota Jayapura, Papua 99225","Jl. Garuda, Wai Mhorock, Kec. Abepura, Kota Jayapura",PAPUA,99225.0,Indonesia,,,,-26.062.656,1.406.752.002,https://maps.google.com/?cid=0x0:0x3d7019ea8a81a006,
supermarket,Pusat Perbelanjaan,Saga Mart,"9MVG+F44, Jl. Baru Ps. Lama Abepura, Wai Mhorock, Kec. Abepura, Kota Jayapura, Papua 99225","Jl. Baru Ps. Lama Abepura, Wai Mhorock, Kec. Abepura, Kota Jayapura",PAPUA,99225.0,Indonesia,,,,-26.063.557,1.406.753.333,https://maps.google.com/?cid=0x0:0x87e41d7df0d8cbcc,
supermarket,Pusat Perbelanjaan,SAGA MALL,"Kota Baru, Kec. Abepura, Kota Jayapura, Papua 99351","Kec. Abepura, Kota Jayapura",PAPUA,99351.0,Indonesia,,,,-26.105.845,1.406.654.189,https://maps.google.com/?cid=0x0:0xaf65e43ff84ff9e6,
supermarket,supermarket,Safan,"Kabupaten Asmat, Papua","Kabupaten Asmat, Papua",PAPUA,,Indonesia,,,,-62.032.097,1.384.387.577,https://maps.google.com/?cid=0x0:0x3238b610bc8f2584,
supermarket,Toko bahan makanan,Diana Supermarket,"Jl. Budi Utomo No.8, Kwamki, Kec. Mimika Baru, Kabupaten Mimika, Papua 99971","Kwamki, Kec. Mimika Baru, Kabupaten Mimika",PAPUA,99971.0,Indonesia,901322829,,,-45.427.693,1.368.837.435,https://maps.google.com/?cid=0x0:0x4cea28f7389f57e8,
supermarket,Toko Swalayan,Ranch Market Pesanggrahan,"1, Jl. Pesanggrahan No.2, Kembangan Sel., Kec. Kembangan, Kota Jakarta Barat, Daerah Khusus Ibukota Jakarta 11610","Jl. Pesanggrahan No.2, Kembangan Sel., Kec. Kembangan, Kota Jakarta Barat",PAPUA,11610.0,Indonesia,2158304842,,,-61.883.181,1.067.561.831,https://maps.google.com/?cid=0x0:0x59972408c2ef6a6e,
supermarket,Toko Swalayan,GS THE FRESH JATIBENING,"Jl. Caman Raya No.7-24, RT.004/RW.003, Jatibening, Kec. Pd. Gede, Kota Bks, Jawa Barat 17412","RT.004/RW.003, Jatibening, Kec. Pd. Gede, Kota Bks",PAPUA,17412.0,Indonesia,2184982211,,,-62.676.455,1.069.436.409,https://maps.google.com/?cid=0x0:0x2cdb50c3ee3206c,
supermarket,Toko bahan makanan,SAFA Mart 4SAUDARA,"V2PX+53W, Sasahan, Kec. Waringinkurung, Kabupaten Serang, Banten 42453","Sasahan, Kec. Waringinkurung, Kabupaten Serang",PAPUA,42453.0,Indonesia,81212496988,,,-61.145.168,1.060.477.085,https://maps.google.com/?cid=0x0:0x41ae166633d66390,
supermarket,Sarapan,Safa Swalayan,"V9FM+X69, Jalan Raya, baratnya pasar, Panaguan, Proppo, Pamekasan Regency, East Java 69363","Jalan Raya, baratnya pasar, Panaguan, Proppo, Pamekasan Regency",PAPUA,69363.0,Indonesia,82334978791,,,-7.125.079,1.133.831.052,https://maps.google.com/?cid=0x0:0xdc34f4abb3ab78b5,
supermarket,Toko Swalayan,Gs supermarket,"Jl. KH. Hasyim Ashari No.93, RT.002/RW.003, Poris Plawad Utara, Kec. Cipondoh, Kota Tangerang, Banten 15148","RT.002/RW.003, Poris Plawad Utara, Kec. Cipondoh, Kota Tangerang",PAPUA,15148.0,Indonesia,2155712070,,,-61.879.187,106.661.738,https://maps.google.com/?cid=0x0:0x86a83e6d17a220b2,
supermarket,Toko Swalayan,GS The Fresh Supermarket Kemang Pratama,"Linc Square Kemang Pratama, Jl. Kemang Pratama Raya, RT.004/RW.001, Bojong Rawalumbu, Kec. Rawalumbu, Kota Bks, Jawa Barat 17116","Jl. Kemang Pratama Raya, RT.004/RW.001, Bojong Rawalumbu, Kec. Rawalumbu, Kota Bks",PAPUA,17116.0,Indonesia,2182416910,,,-62.779.418,1.069.910.558,https://maps.google.com/?cid=0x0:0x4ce692f4b9ef21ee,
supermarket,Toko bahan makanan,Warung Safana,"4XPG+52V, Unnamed Road, Cisarua, Kec. Sukaraja, Kabupaten Sukabumi, Jawa Barat 43192","Unnamed Road, Cisarua, Kec. Sukaraja, Kabupaten Sukabumi",PAPUA,43192.0,Indonesia,85861866652,,,-68.645.159,1.069.750.518,https://maps.google.com/?cid=0x0:0x6338efce132d6371,
supermarket,supermarket,Distrik Ayip,"Kabupaten Asmat, Papua","Kabupaten Asmat, Papua",PAPUA,,Indonesia,,,,-59.254.896,1.386.319.781,https://maps.google.com/?cid=0x0:0x8e66166709e21012,
supermarket,Toko Swalayan,GrandLucky - SCBD,"Kawasan Niaga Terpadu Sudirman (SCBD, Jl. Jenderal Sudirman LOT-12, Senayan, Kec. Kby. Baru, Kota Jakarta Selatan, Daerah Khusus Ibukota Jakarta 12190","Jl. Jenderal Sudirman LOT-12, Senayan, Kec. Kby. Baru, Kota Jakarta Selatan",PAPUA,12190.0,Indonesia,85183118632,,,-622.691,1.068.059.153,https://maps.google.com/?cid=0x0:0x4efcd0d8d64cad53,
supermarket,,KIOS ARINI,"2R3H+GGQ, Yerfum, Pantai Kasuari, Kabupaten Asmat, Papua 99782","Yerfum, Pantai Kasuari, Kabupaten Asmat",PAPUA,99782.0,Indonesia,,,,-59.961.527,1.388.288.587,https://maps.google.com/?cid=0x0:0x485f1b878020923e,
supermarket,Toko Swalayan,WARUNG AYIS MAFAREZ,"RQC5+4QG, Jl. Kedoya Pesing, RT.8/RW.7, Kedoya Utara, Kec. Kb. Jeruk, Kota Jakarta Barat, Daerah Khusus Ibukota Jakarta 11520","Jl. Kedoya Pesing, RT.8/RW.7, Kedoya Utara, Kec. Kb. Jeruk, Kota Jakarta Barat",PAPUA,11520.0,Indonesia,81998855667,,,-6.179.687,1.067.594.654,https://maps.google.com/?cid=0x0:0xadb0eea64c68d50c,
supermarket,Toko Swalayan,Toko Awwaly III,"Jl Karet Pasar Baru Barat 4 No.18 RT 015/004, RT.6/RW.4, Karet Tengsin, Kecamatan Tanah Abang, Kota Jakarta Pusat, Daerah Khusus Ibukota Jakarta 10220","RT.6/RW.4, Karet Tengsin, Kecamatan Tanah Abang, Kota Jakarta Pusat",PAPUA,10220.0,Indonesia,82111922222,,,-620.986,1.068.132.229,https://maps.google.com/?cid=0x0:0x468ddd1b55ef4380,
supermarket,Toko umum,OBY Market,"PR6C+3XQ, Jakarta Selatan, RT.5/RW.1, Ragunan, Ps. Minggu, Kota Jakarta Selatan, Daerah Khusus Ibukota Jakarta 12540","Jakarta Selatan, RT.5/RW.1, Ragunan, Ps. Minggu, Kota Jakarta Selatan",PAPUA,12540.0,Indonesia,82326443442,,,-62.897.766,106.822.497,https://maps.google.com/?cid=0x0:0x6b98ea085d6e3ce9,
supermarket,Minimarket,Aji Mini Market,"Jl. Pademangan III Gg. XXIX No.40, RT.10/RW.6, Pademangan Tim., Kec. Pademangan, Jkt Utara, Daerah Khusus Ibukota Jakarta 14420","RT.10/RW.6, Pademangan Tim., Kec. Pademangan, Jkt Utara",PAPUA,14420.0,Indonesia,216415668,,,-61.413.903,1.068.407.203,https://maps.google.com/?cid=0x0:0xf196f9781cf27282,
supermarket,supermarket,Papua 99776,"Atsy, Kabupaten Asmat, Papua","Kabupaten Asmat, Papua",PAPUA,,Indonesia,,,,-5.544.638,1.387.995.122,https://maps.google.com/?cid=0x0:0xc82d6e8c35882d4e,
supermarket,Minimarket,BESTMART SUPERMARKET,"Jl. Raya Klp. Satu, Sawar, Kec. Sarmi, Kabupaten Sarmi, Papua 99373","Sawar, Kec. Sarmi, Kabupaten Sarmi",PAPUA,99373.0,Indonesia,82288888605,,,-1.890.639,1.387.527.702,https://maps.google.com/?cid=0x0:0xaba0253f793fcb9b,
supermarket,Gudang,Asrul Jaya,"Jl. Dermaga Baru, Bis Agats, Distrik Agats, Kabupaten Asmat, Papua 99777","Bis Agats, Distrik Agats, Kabupaten Asmat",PAPUA,99777.0,Indonesia,81240602664,,,-55.251.141,1.381.400.604,https://maps.google.com/?cid=0x0:0x7b2ea490592e4a3a,
supermarket,Toko Swalayan,TOKO AS,"Bis Agats, Distrik Agats, Kabupaten Asmat, Papua 99777","Distrik Agats, Kabupaten Asmat",PAPUA,99777.0,Indonesia,82142690419,,,-5.533.439,1.381.377.653,https://maps.google.com/?cid=0x0:0x3a8cbc0f58759e0e,
supermarket,Toko Swalayan,GrandLucky - SCBD,"Kawasan Niaga Terpadu Sudirman (SCBD, Jl. Jenderal Sudirman LOT-12, Senayan, Kec. Kby. Baru, Kota Jakarta Selatan, Daerah Khusus Ibukota Jakarta 12190","Jl. Jenderal Sudirman LOT-12, Senayan, Kec. Kby. Baru, Kota Jakarta Selatan",PAPUA,12190.0,Indonesia,85183118632,,,-622.691,1.068.059.153,https://maps.google.com/?cid=0x0:0x4efcd0d8d64cad53,
supermarket,Pusat Perbelanjaan,Pasar soyar,"7GC5+FQM, Masabuay, selatan pasar ikan, Wasior I, Distrik Wasior, Kabupaten Teluk Wondama, Papua Bar. 98362","Masabuay, selatan pasar ikan, Wasior I, Distrik Wasior, Kabupaten Teluk Wondama",PAPUA,98362.0,Indonesia,822715566,,,-27.287.807,1.345.094.141,https://maps.google.com/?cid=0x0:0x29ab54816e33ac1d,
supermarket,Toko,HADI Supermarket  Dept Store,"JFQX+RQC, Jl. Yos Sudarso, Oyehe, Distrik Nabire, Kabupaten Nabire, Papua 98811","Jl. Yos Sudarso, Oyehe, Distrik Nabire, Kabupaten Nabire",PAPUA,98811.0,Indonesia,98421367,,,-3.360.447,1.354.994.055,https://maps.google.com/?cid=0x0:0x60bc70181b8864df,
supermarket,supermarket,Kios KASMAN,"28FX+PPV, Basim, Distrik Fayit, Kabupaten Asmat, Papua","Kabupaten Asmat, Papua",PAPUA,,Indonesia,,,,-59.756.318,13.834.929,https://maps.google.com/?cid=0x0:0x6badd25994c3f7b0,
supermarket,Toko,Kios Walika,"R6V8+9PC, Erma, Sawa Erma, Kabupaten Asmat, Papua 99779","Erma, Sawa Erma, Kabupaten Asmat",PAPUA,99779.0,Indonesia,,,,-5.156.573,1.382.167.619,https://maps.google.com/?cid=0x0:0xe1a2992931732375,
supermarket,,KIOS ARINI,"2R3H+GGQ, Yerfum, Pantai Kasuari, Kabupaten Asmat, Papua 99782","Yerfum, Pantai Kasuari, Kabupaten Asmat",PAPUA,99782.0,Indonesia,,,,-59.961.527,1.388.288.587,https://maps.google.com/?cid=0x0:0x485f1b878020923e,
supermarket,Toko Swalayan,Hadi Supermarket  Dept. Store,"Jl. Imam Bonjol No.56, Fandoi, Kec. Biak Kota, Kabupaten Biak Numfor, Papua 98111","Fandoi, Kec. Biak Kota, Kabupaten Biak Numfor",PAPUA,98111.0,Indonesia,,,,-11.800.003,1.360.824.788,https://maps.google.com/?cid=0x0:0xdcad74b4384219ee,
supermarket,Toko Swalayan,Saga Supermarket,"CPW3+83X, Ardipura, Distrik Jayapura Selatan, Kota Jayapura, Papua 99222","Ardipura, Distrik Jayapura Selatan, Kota Jayapura",PAPUA,99222.0,Indonesia,,,,-25.541.438,1.407.027.385,https://maps.google.com/?cid=0x0:0x287c7b2014785d97,
supermarket,Toko Swalayan,Toko AA,"F48Q+XF3, Jl. Yos Sudarso, Bis Agats, Distrik Agats, Kabupaten Asmat, Papua 99777","Jl. Yos Sudarso, Bis Agats, Distrik Agats, Kabupaten Asmat",PAPUA,99777.0,Indonesia,,,,-55.326.185,1.381.386.754,https://maps.google.com/?cid=0x0:0x1b27f8f545967398,
supermarket,Toko umum,Kios Alfa Rizky,"F46Q+F4J, Jl. Pemda, Bis Agats, Distrik Agats, Kabupaten Asmat, Papua 99777","Jl. Pemda, Bis Agats, Distrik Agats, Kabupaten Asmat",PAPUA,99777.0,Indonesia,,,,-55.387.922,1.381.377.554,https://maps.google.com/?cid=0x0:0xef7ac0490662fca4,
supermarket,Pusat jajanan kaki lima,Papuanmart,"Furia polda, Jl. Perkutut Jalur 4 No.164, Wahno, Kec. Abepura, Kota Jayapura, Papua 99224","Jl. Perkutut Jalur 4 No.164, Wahno, Kec. Abepura, Kota Jayapura",PAPUA,99224.0,Indonesia,,,,-25.936.297,1.406.745.825,https://maps.google.com/?cid=0x0:0x820b246032d165c5,
supermarket,Toko bahan makanan,Mrs. SIN MART,"CPW2+P3P, Ardipura, Distrik Jayapura Selatan, Kota Jayapura, Papua 99222","Ardipura, Distrik Jayapura Selatan, Kota Jayapura",PAPUA,99222.0,Indonesia,,,,-25.531.527,1.407.001.904,https://maps.google.com/?cid=0x0:0xf8bab29d6696f572,
supermarket,Minimarket,SAGA SUPERMARKET,"4PVX+WJ7, Jl. Inres Kalibagre, Mararena, Kec. Sarmi, Kabupaten Sarmi, Papua 99373","Jl. Inres Kalibagre, Mararena, Kec. Sarmi, Kabupaten Sarmi",PAPUA,99373.0,Indonesia,811488808,,,-18.551.351,138.749.118,https://maps.google.com/?cid=0x0:0x3a85515714116950,
supermarket,Pusat Perbelanjaan,Papua Supermarket  Dept. Store,"4869+F77 Bar, Sawagumu, Kec. Sorong Utara, Kota Sorong, Papua Bar. 98416","Sawagumu, Kec. Sorong Utara, Kota Sorong",PAPUA,98416.0,Indonesia,9513160123,,,-0.888831,1.313.181.847,https://maps.google.com/?cid=0x0:0x7b5f0926a74ad213,
supermarket,Minimarket,KIOS GHIAN CITA MANDIRI,"F44R+R8W Kei, Jl, Bis Agats, Agats, Asmat Regency, Papua 99777","Jl, Bis Agats, Agats, Asmat Regency",PAPUA,99777.0,Indonesia,81240868611,,,-5.542.895,138.140.814,https://maps.google.com/?cid=0x0:0x58d9a695618e4fe6,
supermarket,supermarket,Smart Minimarket,"JP66+WCF, Banamepe, Edera, Kabupaten Mappi, Papua","Kabupaten Mappi, Papua",PAPUA,,Indonesia,,,,-73.876.836,1.397.110.495,https://maps.google.com/?cid=0x0:0x7b9d0e61f96daf74,
supermarket,supermarket,Sirets,"Kabupaten Asmat, Papua","Kabupaten Asmat, Papua",PAPUA,,Indonesia,,,,-55.310.929,1.386.388.879,https://maps.google.com/?cid=0x0:0xa635d80a725c47,
supermarket,supermarket,Kios Akmal Jaya,"HGPP+PJ9, Beco, Akat, Kabupaten Asmat, Papua 99777","Beco, Akat, Kabupaten Asmat",PAPUA,99777.0,Indonesia,,,,-54.132.053,1.385.366.069,https://maps.google.com/?cid=0x0:0x213694d24bf0e862,
supermarket,supermarket,Kios Sinar Wajo 02,"Sogoni, Atsy, Kabupaten Asmat, Papua","Kabupaten Asmat, Papua",PAPUA,,Indonesia,,,,-56.574.898,1.388.702.077,https://maps.google.com/?cid=0x0:0x9f7ada5b9dbe4566,
supermarket,supermarket,Kios bang NA'IM,"HGPP+PJC, Manep, Beco, Kabupaten Asmat, Papua 99777","Manep, Beco, Kabupaten Asmat",PAPUA,99777.0,Indonesia,,,,-54.131.817,13.853.652,https://maps.google.com/?cid=0x0:0x2f1718f7c5c751f2,
supermarket,Toko Swalayan,Best mart,"QRP9+728, RT.3/RW.2, Karet Tengsin, Kecamatan Tanah Abang, Kota Jakarta Pusat, Daerah Khusus Ibukota Jakarta 10250","RT.3/RW.2, Karet Tengsin, Kecamatan Tanah Abang, Kota Jakarta Pusat",PAPUA,10250.0,Indonesia,,,,-62.143.466,106.817.586,https://maps.google.com/?cid=0x0:0x3f823b174e5cbd3d,
supermarket,supermarket,Distrik Betcbamu,"Kabupaten Asmat, Papua","Kabupaten Asmat, Papua",PAPUA,,Indonesia,,,,-57.285.964,1.382.791.757,https://maps.google.com/?cid=0x0:0xa352aadb63fd6688,
supermarket,Toko umum,Agats,"84XF+2X, Biwar Laut, Distrik Betcbamu, Kabupaten Asmat, Papua","Kabupaten Asmat, Papua",PAPUA,,Indonesia,,,,-56.524.932,1.381.249.777,https://maps.google.com/?cid=0x0:0x13a4e6e91554f47f,
supermarket,supermarket,Kios KASMAN,"28FX+PPV, Basim, Distrik Fayit, Kabupaten Asmat, Papua","Kabupaten Asmat, Papua",PAPUA,,Indonesia,,,,-59.756.318,13.834.929,https://maps.google.com/?cid=0x0:0x6badd25994c3f7b0,
