Category,Real Category,Business Name,Address,City,State,Postal Code,Country,Phone,Email,Website,Latitude,Longitude,Map Link,Details Link
hotel,hotel,Maluku 97611,"Fiditan, Kec. Pulau Dullah Utara, Kota Tual, Maluku","Kota Tual, Maluku",MALUKU,,Indonesia,,,,-56.405.597,1.327.437.118,https://maps.google.com/?cid=0x0:0x3f6a1cf664874ad3,
hotel,hotel,Hotel Grand Vilia,"Jl. Telaver No.1, Langgur, Kec. Kei Kecil, Kabupaten Maluku Tenggara, Maluku","Kabupaten Maluku Tenggara, Maluku",MALUKU,,Indonesia,82197830643.0,,,-56.704.304,1.327.377.086,https://maps.google.com/?cid=0x0:0x602282c2fc284226,
hotel,hotel,,,,MALUKU,,Indonesia,,,,,,https://maps.google.com/?cid=0x0:0x602282c2fc284226%7C/g/11bc7s8rt9%7Cen-ID,
hotel,hotel,SURYA INN,"Jl. Pelita, Langgur, Kec. Kei Kecil, Kabupaten Maluku Tenggara, Maluku","Kabupaten Maluku Tenggara, Maluku",MALUKU,,Indonesia,81281425505.0,,,-56.538.155,1.327.347.042,https://maps.google.com/?cid=0x0:0xb0a10184948650b8,
hotel,hotel,Aurelia Hotel By KIMSON,"Jalan Jenderal Sudirman, Kel. Ohoijang Watdek, Kec. Kei Kecil, Kabupaten Maluku Tenggara, Maluku","Kabupaten Maluku Tenggara, Maluku",MALUKU,,Indonesia,811477881.0,,,-5.650.942,1.327.409.983,https://maps.google.com/?cid=0x0:0xe4999f098a6624b5,
hotel,Motel,Vid Fauw OasisVilla,"8MRX+9V, Kelanit, Kabupaten Maluku Tenggara, Maluku","Kabupaten Maluku Tenggara, Maluku",MALUKU,,Indonesia,82170390076.0,,,-56.590.873,1.326.996.393,https://maps.google.com/?cid=0x0:0xf2b6d4ca0c5d2823,
hotel,hotel,Casa Di Stella,"8JMP+76J, Ngilngof, Kec. Kei Kecil, Kabupaten Maluku Tenggara, Maluku","Kabupaten Maluku Tenggara, Maluku",MALUKU,,Indonesia,8124415561.0,,,-56.655.466,1.326.357.166,https://maps.google.com/?cid=0x0:0xfaabcd9021ebf75b,
hotel,hotel,Suita Hotel,"8PWR+V8H, Kel. Ohoijang Watdek, Kec. Kei Kecil, Kabupaten Maluku Tenggara, Maluku","Kabupaten Maluku Tenggara, Maluku",MALUKU,,Indonesia,91624007.0,,,-56.528.181,13.274.087,https://maps.google.com/?cid=0x0:0x44818b2730e9d9f7,
hotel,hotel,Ohoiew Island Resort,"Ohoiew Island, Village, Tual 97611,, Ngilngof, Kec. Kei Kecil, Kabupaten Maluku Tenggara, Maluku",Village,MALUKU,97611.0,Indonesia,85254303031.0,,,-56.877.502,1.326.343.453,https://maps.google.com/?cid=0x0:0x5f689711bf06e38c,
hotel,hotel,Hotel Dragon,"Jl. Jend. Sudirman, Langgur, Kec. Kei Kecil, Kabupaten Maluku Tenggara, Maluku","Kabupaten Maluku Tenggara, Maluku",MALUKU,,Indonesia,,,,-56.556.244,1.327.400.133,https://maps.google.com/?cid=0x0:0x2fa72a608601774c,
hotel,hotel,Penginapan Evalin,"8JPP+PMF, Pantai Ngur Bloat Tenggar, Ohoililir, Kec. Kei Kecil, Kabupaten Maluku Tenggara, Maluku","Kabupaten Maluku Tenggara, Maluku",MALUKU,,Indonesia,85232726401.0,,,-56.631.772,1.326.366.643,https://maps.google.com/?cid=0x0:0x8da1a6387da5626f,
hotel,hotel,Omahku Langgur Homestay,"8PGP+9VC, Jl. Telaver, Lingkungan Engelbertus, Langgur, Kec. Kei Kecil, Kabupaten Maluku Tenggara, Maluku","Kabupaten Maluku Tenggara, Maluku",MALUKU,,Indonesia,,,,-56.740.676,1.327.371.282,https://maps.google.com/?cid=0x0:0xf5d7284dde3a1503,
hotel,hotel,Romeo Cottage,"8JQP+XX5, Ohoililir, Kec. Kei Kecil, Kabupaten Maluku Tenggara, Maluku","Kabupaten Maluku Tenggara, Maluku",MALUKU,,Indonesia,,,,-5.660.109,132.637.484,https://maps.google.com/?cid=0x0:0x739f2a36123ccd9,
hotel,hotel,Ohoimel Resort,"9J4P+FXF, Ohoililir, Kec. Kei Kecil, Kabupaten Maluku Tenggara, Maluku","Kabupaten Maluku Tenggara, Maluku",MALUKU,,Indonesia,85344183318.0,,,-56.438.205,1.326.374.283,https://maps.google.com/?cid=0x0:0xbebf1af7aec19226,
hotel,hotel,Mercy Cottages,"8JPP+5G8, Ngurbloat, Pasir Panjang, Kec. Kei Kecil, Kabupaten Maluku Tenggara, Maluku","Kabupaten Maluku Tenggara, Maluku",MALUKU,,Indonesia,81290719212.0,,,-56.645.921,1.326.363.275,https://maps.google.com/?cid=0x0:0xcfd65a14394c7f0b,
hotel,hotel,Kec. Kei Besar,"Kabupaten Maluku Tenggara, Maluku","Kabupaten Maluku Tenggara, Maluku",MALUKU,,Indonesia,,,,-56.972.073,1.329.830.028,https://maps.google.com/?cid=0x0:0x19dfdda766def4cc,
hotel,Bed >>u0026 Breakfast,Penginapan Hebron,"Depur, Kec. Kei Besar, Kabupaten Maluku Tenggara, Maluku 09611","Kec. Kei Besar, Kabupaten Maluku Tenggara",MALUKU,9611.0,Indonesia,81360521148.0,,,-56.526.971,1.329.965.139,https://maps.google.com/?cid=0x0:0x62e41b390b07dc2a,
hotel,Rumah wisata,Penginapan Sanohi,"8XXW+C99, Jl. Kabupaten, Elat, Kec. Kei Besar Sel., Kabupaten Maluku Tenggara, Maluku","Kabupaten Maluku Tenggara, Maluku",MALUKU,,Indonesia,81247046342.0,,,-5.651.458,132.995.972,https://maps.google.com/?cid=0x0:0x8fe84254df1c46ca,
hotel,hotel,Airy Maluku City Sudirman Ambon,"85JX+J8C, Jl. Jenderal Sudirman, Hative Kecil, Kec. Sirimau, Kota Ambon, Maluku 97128","Jl. Jenderal Sudirman, Hative Kecil, Kec. Sirimau, Kota Ambon",MALUKU,97128.0,Indonesia,8041112479.0,,,-36.684.342,1.281.982.566,https://maps.google.com/?cid=0x0:0xd9a527375825a79,
hotel,hotel,,,,MALUKU,,Indonesia,,,,,,https://maps.google.com/?cid=0x0:0xd9a527375825a79%7C/g/11dzddthkt%7Cen-ID,
hotel,hotel,Romeo Cottage,"8JQP+XX5, Ohoililir, Kec. Kei Kecil, Kabupaten Maluku Tenggara, Maluku","Kabupaten Maluku Tenggara, Maluku",MALUKU,,Indonesia,,,,-5.660.109,132.637.484,https://maps.google.com/?cid=0x0:0x739f2a36123ccd9,
hotel,hotel,Hotel Grand Vilia,"Jl. Telaver No.1, Langgur, Kec. Kei Kecil, Kabupaten Maluku Tenggara, Maluku","Kabupaten Maluku Tenggara, Maluku",MALUKU,,Indonesia,82197830643.0,,,-56.704.304,1.327.377.086,https://maps.google.com/?cid=0x0:0x602282c2fc284226,
hotel,hotel,,,,MALUKU,,Indonesia,,,,,,https://maps.google.com/?cid=0x0:0x602282c2fc284226%7C/g/11bc7s8rt9%7Cen-ID,
hotel,Bed >>u0026 Breakfast,Copot hotel,"4Q8V+393, Elaar Let, Kec. Kei Kecil Timur Selatan, Kabupaten Maluku Tenggara, Maluku","Kabupaten Maluku Tenggara, Maluku",MALUKU,,Indonesia,,,,-58.848.696,1.327.934.315,https://maps.google.com/?cid=0x0:0x136dd2da94262487,
hotel,Rumah wisata,Penginapan,"8PQ6+32V, Kolser, Kec. Kei Kecil, Kabupaten Maluku Tenggara, Maluku","Kabupaten Maluku Tenggara, Maluku",MALUKU,,Indonesia,,,,-56.622.506,1.327.100.546,https://maps.google.com/?cid=0x0:0x599304760db79409,
hotel,Masjid,Masjid As-sadiyah Mastur,"4Q7V+J8J, Jl. Kabupaten, Mastur, Kec. Kei Kecil Tim., Kabupaten Maluku Tenggara, Maluku","Kabupaten Maluku Tenggara, Maluku",MALUKU,,Indonesia,,,,-58.859.141,1.327.932.796,https://maps.google.com/?cid=0x0:0xcc9bf6910fa88a25,
hotel,hotel,Hotel Grand Vilia,"Jl. Telaver No.1, Langgur, Kec. Kei Kecil, Kabupaten Maluku Tenggara, Maluku","Kabupaten Maluku Tenggara, Maluku",MALUKU,,Indonesia,82197830643.0,,,-56.704.304,1.327.377.086,https://maps.google.com/?cid=0x0:0x602282c2fc284226,
hotel,hotel,,,,MALUKU,,Indonesia,,,,,,https://maps.google.com/?cid=0x0:0x602282c2fc284226%7C/g/11bc7s8rt9%7Cen-ID,
hotel,hotel,SURYA INN,"Jl. Pelita, Langgur, Kec. Kei Kecil, Kabupaten Maluku Tenggara, Maluku","Kabupaten Maluku Tenggara, Maluku",MALUKU,,Indonesia,81281425505.0,,,-56.538.155,1.327.347.042,https://maps.google.com/?cid=0x0:0xb0a10184948650b8,
hotel,hotel,Syafira Hotel Langgur,"Jl. Jend. Sudirman, Kel. Ohoijang Watdek, Kec. Kei Kecil, Kabupaten Maluku Tenggara, Maluku","Kabupaten Maluku Tenggara, Maluku",MALUKU,,Indonesia,,,,-56.482.368,132.741.602,https://maps.google.com/?cid=0x0:0xb4debeed2c65f59,
hotel,hotel,Vid Fauw OasisVilla,"8MRX+9V, Kelanit, Kabupaten Maluku Tenggara, Maluku","Kabupaten Maluku Tenggara, Maluku",MALUKU,,Indonesia,82170390076.0,,,-56.590.873,1.326.996.393,https://maps.google.com/?cid=0x0:0xf2b6d4ca0c5d2823,
hotel,hotel,Aurelia Hotel By KIMSON,"Jalan Jenderal Sudirman, Kel. Ohoijang Watdek, Kec. Kei Kecil, Kabupaten Maluku Tenggara, Maluku","Kabupaten Maluku Tenggara, Maluku",MALUKU,,Indonesia,811477881.0,,,-5.650.942,1.327.409.983,https://maps.google.com/?cid=0x0:0xe4999f098a6624b5,
hotel,hotel,Savana Cottages,"Unnamed Road, Ohoidertawun, Kec. Kei Kecil, Kabupaten Maluku Tenggara, Maluku","Kabupaten Maluku Tenggara, Maluku",MALUKU,,Indonesia,81343083856.0,,,-56.305.661,1.326.689.339,https://maps.google.com/?cid=0x0:0x395f4446208940e7,
hotel,hotel,Tumbuh Oasis,"9M99+WXH, Ohoidertawun, Kabupaten Maluku Tenggara, Maluku","Kabupaten Maluku Tenggara, Maluku",MALUKU,,Indonesia,,,,-56.301.938,1.326.699.969,https://maps.google.com/?cid=0x0:0x72fa385a4da6a083,
hotel,hotel,Suita Hotel,"8PWR+V8H, Kel. Ohoijang Watdek, Kec. Kei Kecil, Kabupaten Maluku Tenggara, Maluku","Kabupaten Maluku Tenggara, Maluku",MALUKU,,Indonesia,91624007.0,,,-56.528.181,13.274.087,https://maps.google.com/?cid=0x0:0x44818b2730e9d9f7,
hotel,hotel,Hotel Dragon,"Jl. Jend. Sudirman, Langgur, Kec. Kei Kecil, Kabupaten Maluku Tenggara, Maluku","Kabupaten Maluku Tenggara, Maluku",MALUKU,,Indonesia,,,,-56.556.244,1.327.400.133,https://maps.google.com/?cid=0x0:0x2fa72a608601774c,
hotel,hotel,Omahku Langgur Homestay,"8PGP+9VC, Jl. Telaver, Lingkungan Engelbertus, Langgur, Kec. Kei Kecil, Kabupaten Maluku Tenggara, Maluku","Kabupaten Maluku Tenggara, Maluku",MALUKU,,Indonesia,,,,-56.740.676,1.327.371.282,https://maps.google.com/?cid=0x0:0xf5d7284dde3a1503,
hotel,hotel,Romeo Cottage,"8JQP+XX5, Ohoililir, Kec. Kei Kecil, Kabupaten Maluku Tenggara, Maluku","Kabupaten Maluku Tenggara, Maluku",MALUKU,,Indonesia,,,,-5.660.109,132.637.484,https://maps.google.com/?cid=0x0:0x739f2a36123ccd9,
hotel,hotel,Pulau Kei Besar,"Kabupaten Maluku Tenggara, Maluku","Kabupaten Maluku Tenggara, Maluku",MALUKU,,Indonesia,,,,-55.588.997,1.330.777.555,https://maps.google.com/?cid=0x0:0xabb0e5e302e13003,
hotel,hotel,Syafira Hotel Langgur,"Jl. Jend. Sudirman, Kel. Ohoijang Watdek, Kec. Kei Kecil, Kabupaten Maluku Tenggara, Maluku","Kabupaten Maluku Tenggara, Maluku",MALUKU,,Indonesia,,,,-56.482.368,132.741.602,https://maps.google.com/?cid=0x0:0xb4debeed2c65f59,
hotel,hotel,Hotel Grand Vilia,"Jl. Telaver No.1, Langgur, Kec. Kei Kecil, Kabupaten Maluku Tenggara, Maluku","Kabupaten Maluku Tenggara, Maluku",MALUKU,,Indonesia,82197830643.0,,,-56.704.304,1.327.377.086,https://maps.google.com/?cid=0x0:0x602282c2fc284226,
hotel,hotel,SURYA INN,"Jl. Pelita, Langgur, Kec. Kei Kecil, Kabupaten Maluku Tenggara, Maluku","Kabupaten Maluku Tenggara, Maluku",MALUKU,,Indonesia,81281425505.0,,,-56.538.155,1.327.347.042,https://maps.google.com/?cid=0x0:0xb0a10184948650b8,
hotel,hotel,Kec. Kei Kecil Tim.,"Kabupaten Maluku Tenggara, Maluku","Kabupaten Maluku Tenggara, Maluku",MALUKU,,Indonesia,,,,-58.097.466,1.327.772.816,https://maps.google.com/?cid=0x0:0x6aa8f793d559e5f5,
hotel,hotel,,,,MALUKU,,Indonesia,,,,,,https://maps.google.com/?cid=0x0:0x602282c2fc284226%7C/g/11bc7s8rt9%7Cen-ID,
hotel,hotel,Hotel Grand Vilia,"Jl. Telaver No.1, Langgur, Kec. Kei Kecil, Kabupaten Maluku Tenggara, Maluku","Kabupaten Maluku Tenggara, Maluku",MALUKU,,Indonesia,82197830643.0,,,-56.704.304,1.327.377.086,https://maps.google.com/?cid=0x0:0x602282c2fc284226,
hotel,hotel,Manoa,"9MC7+5G, Ohoidertawun, Kec. Kei Kecil, Kabupaten Maluku Tenggara, Maluku","Kabupaten Maluku Tenggara, Maluku",MALUKU,,Indonesia,85394744363.0,,,-56.295.983,132.663.807,https://maps.google.com/?cid=0x0:0x9fd32d6aef9d2db5,
hotel,hotel,Coaster Cottages,"9J3Q+F83, Ohoililir, Kec. Kei Kecil, Kabupaten Maluku Tenggara, Maluku","Kabupaten Maluku Tenggara, Maluku",MALUKU,,Indonesia,81343472978.0,,,-56.463.598,1.326.383.072,https://maps.google.com/?cid=0x0:0x40fc283b13320490,
hotel,hotel,Casa Di Stella,"8JMP+76J, Ngilngof, Kec. Kei Kecil, Kabupaten Maluku Tenggara, Maluku","Kabupaten Maluku Tenggara, Maluku",MALUKU,,Indonesia,8124415561.0,,,-56.655.466,1.326.357.166,https://maps.google.com/?cid=0x0:0xfaabcd9021ebf75b,
hotel,hotel,Everardus Mantap Cottage,"8JGR+CQC, Ngilngof, Kec. Kei Kecil, Kabupaten Maluku Tenggara, Maluku","Kabupaten Maluku Tenggara, Maluku",MALUKU,,Indonesia,,,,-56.739.252,1.326.418.819,https://maps.google.com/?cid=0x0:0x89fd39bc11a5b99e,
hotel,hotel,Mercy Cottages,"8JPP+5G8, Ngurbloat, Pasir Panjang, Kec. Kei Kecil, Kabupaten Maluku Tenggara, Maluku","Kabupaten Maluku Tenggara, Maluku",MALUKU,,Indonesia,81290719212.0,,,-56.645.921,1.326.363.275,https://maps.google.com/?cid=0x0:0xcfd65a14394c7f0b,
hotel,hotel,Josepha cottage,"Pantai pasir panjang, Ngilngof, Kec. Kei Kecil, Kabupaten Maluku Tenggara, Maluku 97622","Ngilngof, Kec. Kei Kecil, Kabupaten Maluku Tenggara",MALUKU,97622.0,Indonesia,85254855706.0,,,-56.660.186,1.326.358.587,https://maps.google.com/?cid=0x0:0xcc2d50f1679a93c8,
hotel,hotel,Syafira Hotel Langgur,"Jl. Jend. Sudirman, Kel. Ohoijang Watdek, Kec. Kei Kecil, Kabupaten Maluku Tenggara, Maluku","Kabupaten Maluku Tenggara, Maluku",MALUKU,,Indonesia,,,,-56.482.368,132.741.602,https://maps.google.com/?cid=0x0:0xb4debeed2c65f59,
hotel,hotel,Vid Fauw OasisVilla,"8MRX+9V, Kelanit, Kabupaten Maluku Tenggara, Maluku","Kabupaten Maluku Tenggara, Maluku",MALUKU,,Indonesia,82170390076.0,,,-56.590.873,1.326.996.393,https://maps.google.com/?cid=0x0:0xf2b6d4ca0c5d2823,
hotel,hotel,Yohana cottage,"Pantai pasir panjang Desa ngilngof Kabupaten Maluku tenggara, Tual City, Maluku 97611",Tual City,MALUKU,97611.0,Indonesia,82238244447.0,,,-56.645.423,1.326.358.551,https://maps.google.com/?cid=0x0:0xdb8a52d343b6fec1,
hotel,hotel,Renata Cottage,"RW.Ngurbloat, Pasir Panjang, Kec. Kei Kecil, Kabupaten Maluku Tenggara, Maluku","Kabupaten Maluku Tenggara, Maluku",MALUKU,,Indonesia,82238489435.0,,,-56.647.585,1.326.363.374,https://maps.google.com/?cid=0x0:0xd768a1b48ff6cf8a,
hotel,hotel,Noel Cottage,"8JMP+Q7V, Ngilngof, Kabupaten Maluku Tenggara, Maluku","Kabupaten Maluku Tenggara, Maluku",MALUKU,,Indonesia,,,,-56.655.239,132.635.683,https://maps.google.com/?cid=0x0:0x30a40f61609726d5,
hotel,hotel,Ohoiew Island Resort,"Ohoiew Island, Village, Tual 97611,, Ngilngof, Kec. Kei Kecil, Kabupaten Maluku Tenggara, Maluku",Village,MALUKU,97611.0,Indonesia,85254303031.0,,,-56.877.502,1.326.343.453,https://maps.google.com/?cid=0x0:0x5f689711bf06e38c,
hotel,hotel,Aurelia Hotel By KIMSON,"Jalan Jenderal Sudirman, Kel. Ohoijang Watdek, Kec. Kei Kecil, Kabupaten Maluku Tenggara, Maluku","Kabupaten Maluku Tenggara, Maluku",MALUKU,,Indonesia,811477881.0,,,-5.650.942,1.327.409.983,https://maps.google.com/?cid=0x0:0xe4999f098a6624b5,
hotel,hotel,Savana Cottages,"Unnamed Road, Ohoidertawun, Kec. Kei Kecil, Kabupaten Maluku Tenggara, Maluku","Kabupaten Maluku Tenggara, Maluku",MALUKU,,Indonesia,81343083856.0,,,-56.305.661,1.326.689.339,https://maps.google.com/?cid=0x0:0x395f4446208940e7,
hotel,hotel,Tria Maria Cottage,"8JMP+Q7X, Pantai Ngurbloat, Desa, Ngilngof, Kabupaten Maluku Tenggara, Maluku","Kabupaten Maluku Tenggara, Maluku",MALUKU,,Indonesia,82198644495.0,,,-56.655.022,1.326.357.283,https://maps.google.com/?cid=0x0:0x4aba156b311cd167,
hotel,hotel,Tumbuh Oasis,"9M99+WXH, Ohoidertawun, Kabupaten Maluku Tenggara, Maluku","Kabupaten Maluku Tenggara, Maluku",MALUKU,,Indonesia,,,,-56.301.938,1.326.699.969,https://maps.google.com/?cid=0x0:0x72fa385a4da6a083,
hotel,hotel,Ohoimel Resort,"9J4P+FXF, Ohoililir, Kec. Kei Kecil, Kabupaten Maluku Tenggara, Maluku","Kabupaten Maluku Tenggara, Maluku",MALUKU,,Indonesia,85344183318.0,,,-56.438.205,1.326.374.283,https://maps.google.com/?cid=0x0:0xbebf1af7aec19226,
hotel,hotel,Penginapan Evalin,"8JPP+PMF, Pantai Ngur Bloat Tenggar, Ohoililir, Kec. Kei Kecil, Kabupaten Maluku Tenggara, Maluku","Kabupaten Maluku Tenggara, Maluku",MALUKU,,Indonesia,85232726401.0,,,-56.631.772,1.326.366.643,https://maps.google.com/?cid=0x0:0x8da1a6387da5626f,
hotel,hotel,Kec. Kei Kecil Bar.,"Kabupaten Maluku Tenggara, Maluku","Kabupaten Maluku Tenggara, Maluku",MALUKU,,Indonesia,,,,-58.426.357,1.326.882.652,https://maps.google.com/?cid=0x0:0xb8ee628c1e11e302,
hotel,hotel,,,,MALUKU,,Indonesia,,,,,,https://maps.google.com/?cid=0x0:0x602282c2fc284226%7C/g/11bc7s8rt9%7Cen-ID,
hotel,hotel,Hotel Grand Vilia,"Jl. Telaver No.1, Langgur, Kec. Kei Kecil, Kabupaten Maluku Tenggara, Maluku","Kabupaten Maluku Tenggara, Maluku",MALUKU,,Indonesia,82197830643.0,,,-56.704.304,1.327.377.086,https://maps.google.com/?cid=0x0:0x602282c2fc284226,
hotel,hotel,Casa Di Stella,"8JMP+76J, Ngilngof, Kec. Kei Kecil, Kabupaten Maluku Tenggara, Maluku","Kabupaten Maluku Tenggara, Maluku",MALUKU,,Indonesia,8124415561.0,,,-56.655.466,1.326.357.166,https://maps.google.com/?cid=0x0:0xfaabcd9021ebf75b,
hotel,hotel,Coaster Cottages,"9J3Q+F83, Ohoililir, Kec. Kei Kecil, Kabupaten Maluku Tenggara, Maluku","Kabupaten Maluku Tenggara, Maluku",MALUKU,,Indonesia,81343472978.0,,,-56.463.598,1.326.383.072,https://maps.google.com/?cid=0x0:0x40fc283b13320490,
hotel,hotel,Everardus Mantap Cottage,"8JGR+CQC, Ngilngof, Kec. Kei Kecil, Kabupaten Maluku Tenggara, Maluku","Kabupaten Maluku Tenggara, Maluku",MALUKU,,Indonesia,,,,-56.739.252,1.326.418.819,https://maps.google.com/?cid=0x0:0x89fd39bc11a5b99e,
hotel,hotel,Mercy Cottages,"8JPP+5G8, Ngurbloat, Pasir Panjang, Kec. Kei Kecil, Kabupaten Maluku Tenggara, Maluku","Kabupaten Maluku Tenggara, Maluku",MALUKU,,Indonesia,81290719212.0,,,-56.645.921,1.326.363.275,https://maps.google.com/?cid=0x0:0xcfd65a14394c7f0b,
hotel,hotel,Manoa,"9MC7+5G, Ohoidertawun, Kec. Kei Kecil, Kabupaten Maluku Tenggara, Maluku","Kabupaten Maluku Tenggara, Maluku",MALUKU,,Indonesia,85394744363.0,,,-56.295.983,132.663.807,https://maps.google.com/?cid=0x0:0x9fd32d6aef9d2db5,
hotel,hotel,Josepha cottage,"Pantai pasir panjang, Ngilngof, Kec. Kei Kecil, Kabupaten Maluku Tenggara, Maluku 97622","Ngilngof, Kec. Kei Kecil, Kabupaten Maluku Tenggara",MALUKU,97622.0,Indonesia,85254855706.0,,,-56.660.186,1.326.358.587,https://maps.google.com/?cid=0x0:0xcc2d50f1679a93c8,
hotel,hotel,Renata Cottage,"RW.Ngurbloat, Pasir Panjang, Kec. Kei Kecil, Kabupaten Maluku Tenggara, Maluku","Kabupaten Maluku Tenggara, Maluku",MALUKU,,Indonesia,82238489435.0,,,-56.647.585,1.326.363.374,https://maps.google.com/?cid=0x0:0xd768a1b48ff6cf8a,
hotel,hotel,Syafira Hotel Langgur,"Jl. Jend. Sudirman, Kel. Ohoijang Watdek, Kec. Kei Kecil, Kabupaten Maluku Tenggara, Maluku","Kabupaten Maluku Tenggara, Maluku",MALUKU,,Indonesia,,,,-56.482.368,132.741.602,https://maps.google.com/?cid=0x0:0xb4debeed2c65f59,
hotel,hotel,Yohana cottage,"Pantai pasir panjang Desa ngilngof Kabupaten Maluku tenggara, Tual City, Maluku 97611",Tual City,MALUKU,97611.0,Indonesia,82238244447.0,,,-56.645.423,1.326.358.551,https://maps.google.com/?cid=0x0:0xdb8a52d343b6fec1,
hotel,hotel,Vid Fauw OasisVilla,"8MRX+9V, Kelanit, Kabupaten Maluku Tenggara, Maluku","Kabupaten Maluku Tenggara, Maluku",MALUKU,,Indonesia,82170390076.0,,,-56.590.873,1.326.996.393,https://maps.google.com/?cid=0x0:0xf2b6d4ca0c5d2823,
hotel,hotel,Noel Cottage,"8JMP+Q7V, Ngilngof, Kabupaten Maluku Tenggara, Maluku","Kabupaten Maluku Tenggara, Maluku",MALUKU,,Indonesia,,,,-56.655.239,132.635.683,https://maps.google.com/?cid=0x0:0x30a40f61609726d5,
hotel,hotel,Ohoiew Island Resort,"Ohoiew Island, Village, Tual 97611,, Ngilngof, Kec. Kei Kecil, Kabupaten Maluku Tenggara, Maluku",Village,MALUKU,97611.0,Indonesia,85254303031.0,,,-56.877.502,1.326.343.453,https://maps.google.com/?cid=0x0:0x5f689711bf06e38c,
hotel,hotel,Aurelia Hotel By KIMSON,"Jalan Jenderal Sudirman, Kel. Ohoijang Watdek, Kec. Kei Kecil, Kabupaten Maluku Tenggara, Maluku","Kabupaten Maluku Tenggara, Maluku",MALUKU,,Indonesia,811477881.0,,,-5.650.942,1.327.409.983,https://maps.google.com/?cid=0x0:0xe4999f098a6624b5,
hotel,hotel,Penginapan Evalin,"8JPP+PMF, Pantai Ngur Bloat Tenggar, Ohoililir, Kec. Kei Kecil, Kabupaten Maluku Tenggara, Maluku","Kabupaten Maluku Tenggara, Maluku",MALUKU,,Indonesia,85232726401.0,,,-56.631.772,1.326.366.643,https://maps.google.com/?cid=0x0:0x8da1a6387da5626f,
hotel,hotel,Ohoimel Resort,"9J4P+FXF, Ohoililir, Kec. Kei Kecil, Kabupaten Maluku Tenggara, Maluku","Kabupaten Maluku Tenggara, Maluku",MALUKU,,Indonesia,85344183318.0,,,-56.438.205,1.326.374.283,https://maps.google.com/?cid=0x0:0xbebf1af7aec19226,
hotel,hotel,Savana Cottages,"Unnamed Road, Ohoidertawun, Kec. Kei Kecil, Kabupaten Maluku Tenggara, Maluku","Kabupaten Maluku Tenggara, Maluku",MALUKU,,Indonesia,81343083856.0,,,-56.305.661,1.326.689.339,https://maps.google.com/?cid=0x0:0x395f4446208940e7,
hotel,hotel,Tria Maria Cottage,"8JMP+Q7X, Pantai Ngurbloat, Desa, Ngilngof, Kabupaten Maluku Tenggara, Maluku","Kabupaten Maluku Tenggara, Maluku",MALUKU,,Indonesia,82198644495.0,,,-56.655.022,1.326.357.283,https://maps.google.com/?cid=0x0:0x4aba156b311cd167,
hotel,hotel,Tumbuh Oasis,"9M99+WXH, Ohoidertawun, Kabupaten Maluku Tenggara, Maluku","Kabupaten Maluku Tenggara, Maluku",MALUKU,,Indonesia,,,,-56.301.938,1.326.699.969,https://maps.google.com/?cid=0x0:0x72fa385a4da6a083,
hotel,hotel,Maluku 97611,"Fiditan, Kec. Pulau Dullah Utara, Kota Tual, Maluku","Kota Tual, Maluku",MALUKU,,Indonesia,,,,-56.405.597,1.327.437.118,https://maps.google.com/?cid=0x0:0x3f6a1cf664874ad3,
hotel,hotel,Hotel Grand Vilia,"Jl. Telaver No.1, Langgur, Kec. Kei Kecil, Kabupaten Maluku Tenggara, Maluku","Kabupaten Maluku Tenggara, Maluku",MALUKU,,Indonesia,82197830643.0,,,-56.704.304,1.327.377.086,https://maps.google.com/?cid=0x0:0x602282c2fc284226,
hotel,hotel,,,,MALUKU,,Indonesia,,,,,,https://maps.google.com/?cid=0x0:0x602282c2fc284226%7C/g/11bc7s8rt9%7Cen-ID,
hotel,hotel,SURYA INN,"Jl. Pelita, Langgur, Kec. Kei Kecil, Kabupaten Maluku Tenggara, Maluku","Kabupaten Maluku Tenggara, Maluku",MALUKU,,Indonesia,81281425505.0,,,-56.538.155,1.327.347.042,https://maps.google.com/?cid=0x0:0xb0a10184948650b8,
hotel,hotel,Aurelia Hotel By KIMSON,"Jalan Jenderal Sudirman, Kel. Ohoijang Watdek, Kec. Kei Kecil, Kabupaten Maluku Tenggara, Maluku","Kabupaten Maluku Tenggara, Maluku",MALUKU,,Indonesia,811477881.0,,,-5.650.942,1.327.409.983,https://maps.google.com/?cid=0x0:0xe4999f098a6624b5,
hotel,hotel,Vid Fauw OasisVilla,"8MRX+9V, Kelanit, Kabupaten Maluku Tenggara, Maluku","Kabupaten Maluku Tenggara, Maluku",MALUKU,,Indonesia,82170390076.0,,,-56.590.873,1.326.996.393,https://maps.google.com/?cid=0x0:0xf2b6d4ca0c5d2823,
hotel,hotel,Suita Hotel,"8PWR+V8H, Kel. Ohoijang Watdek, Kec. Kei Kecil, Kabupaten Maluku Tenggara, Maluku","Kabupaten Maluku Tenggara, Maluku",MALUKU,,Indonesia,91624007.0,,,-56.528.181,13.274.087,https://maps.google.com/?cid=0x0:0x44818b2730e9d9f7,
hotel,hotel,Hotel Dragon,"Jl. Jend. Sudirman, Langgur, Kec. Kei Kecil, Kabupaten Maluku Tenggara, Maluku","Kabupaten Maluku Tenggara, Maluku",MALUKU,,Indonesia,,,,-56.556.244,1.327.400.133,https://maps.google.com/?cid=0x0:0x2fa72a608601774c,
hotel,hotel,Penginapan Evalin,"8JPP+PMF, Pantai Ngur Bloat Tenggar, Ohoililir, Kec. Kei Kecil, Kabupaten Maluku Tenggara, Maluku","Kabupaten Maluku Tenggara, Maluku",MALUKU,,Indonesia,85232726401.0,,,-56.631.772,1.326.366.643,https://maps.google.com/?cid=0x0:0x8da1a6387da5626f,
hotel,hotel,Omahku Langgur Homestay,"8PGP+9VC, Jl. Telaver, Lingkungan Engelbertus, Langgur, Kec. Kei Kecil, Kabupaten Maluku Tenggara, Maluku","Kabupaten Maluku Tenggara, Maluku",MALUKU,,Indonesia,,,,-56.740.676,1.327.371.282,https://maps.google.com/?cid=0x0:0xf5d7284dde3a1503,
hotel,hotel,Casa Di Stella,"8JMP+76J, Ngilngof, Kec. Kei Kecil, Kabupaten Maluku Tenggara, Maluku","Kabupaten Maluku Tenggara, Maluku",MALUKU,,Indonesia,8124415561.0,,,-56.655.466,1.326.357.166,https://maps.google.com/?cid=0x0:0xfaabcd9021ebf75b,
hotel,hotel,Romeo Cottage,"8JQP+XX5, Ohoililir, Kec. Kei Kecil, Kabupaten Maluku Tenggara, Maluku","Kabupaten Maluku Tenggara, Maluku",MALUKU,,Indonesia,,,,-5.660.109,132.637.484,https://maps.google.com/?cid=0x0:0x739f2a36123ccd9,
hotel,hotel,Maluku 97611,"Fiditan, Kec. Pulau Dullah Utara, Kota Tual, Maluku","Kota Tual, Maluku",MALUKU,,Indonesia,,,,-56.405.597,1.327.437.118,https://maps.google.com/?cid=0x0:0x3f6a1cf664874ad3,
hotel,hotel,Hotel Grand Vilia,"Jl. Telaver No.1, Langgur, Kec. Kei Kecil, Kabupaten Maluku Tenggara, Maluku","Kabupaten Maluku Tenggara, Maluku",MALUKU,,Indonesia,82197830643.0,,,-56.704.304,1.327.377.086,https://maps.google.com/?cid=0x0:0x602282c2fc284226,
hotel,hotel,,,,MALUKU,,Indonesia,,,,,,https://maps.google.com/?cid=0x0:0x602282c2fc284226%7C/g/11bc7s8rt9%7Cen-ID,
hotel,hotel,SURYA INN,"Jl. Pelita, Langgur, Kec. Kei Kecil, Kabupaten Maluku Tenggara, Maluku","Kabupaten Maluku Tenggara, Maluku",MALUKU,,Indonesia,81281425505.0,,,-56.538.155,1.327.347.042,https://maps.google.com/?cid=0x0:0xb0a10184948650b8,
hotel,hotel,Aurelia Hotel By KIMSON,"Jalan Jenderal Sudirman, Kel. Ohoijang Watdek, Kec. Kei Kecil, Kabupaten Maluku Tenggara, Maluku","Kabupaten Maluku Tenggara, Maluku",MALUKU,,Indonesia,811477881.0,,,-5.650.942,1.327.409.983,https://maps.google.com/?cid=0x0:0xe4999f098a6624b5,
hotel,Motel,Vid Fauw OasisVilla,"8MRX+9V, Kelanit, Kabupaten Maluku Tenggara, Maluku","Kabupaten Maluku Tenggara, Maluku",MALUKU,,Indonesia,82170390076.0,,,-56.590.873,1.326.996.393,https://maps.google.com/?cid=0x0:0xf2b6d4ca0c5d2823,
hotel,hotel,Suita Hotel,"8PWR+V8H, Kel. Ohoijang Watdek, Kec. Kei Kecil, Kabupaten Maluku Tenggara, Maluku","Kabupaten Maluku Tenggara, Maluku",MALUKU,,Indonesia,91624007.0,,,-56.528.181,13.274.087,https://maps.google.com/?cid=0x0:0x44818b2730e9d9f7,
hotel,hotel,Hotel Dragon,"Jl. Jend. Sudirman, Langgur, Kec. Kei Kecil, Kabupaten Maluku Tenggara, Maluku","Kabupaten Maluku Tenggara, Maluku",MALUKU,,Indonesia,,,,-56.556.244,1.327.400.133,https://maps.google.com/?cid=0x0:0x2fa72a608601774c,
hotel,hotel,Omahku Langgur Homestay,"8PGP+9VC, Jl. Telaver, Lingkungan Engelbertus, Langgur, Kec. Kei Kecil, Kabupaten Maluku Tenggara, Maluku","Kabupaten Maluku Tenggara, Maluku",MALUKU,,Indonesia,,,,-56.740.676,1.327.371.282,https://maps.google.com/?cid=0x0:0xf5d7284dde3a1503,
hotel,hotel,Pulau Kei Besar,"Kabupaten Maluku Tenggara, Maluku","Kabupaten Maluku Tenggara, Maluku",MALUKU,,Indonesia,,,,-55.588.997,1.330.777.555,https://maps.google.com/?cid=0x0:0xabb0e5e302e13003,
hotel,hotel,Syafira Hotel Langgur,"Jl. Jend. Sudirman, Kel. Ohoijang Watdek, Kec. Kei Kecil, Kabupaten Maluku Tenggara, Maluku","Kabupaten Maluku Tenggara, Maluku",MALUKU,,Indonesia,,,,-56.482.368,132.741.602,https://maps.google.com/?cid=0x0:0xb4debeed2c65f59,
hotel,hotel,Hotel Grand Vilia,"Jl. Telaver No.1, Langgur, Kec. Kei Kecil, Kabupaten Maluku Tenggara, Maluku","Kabupaten Maluku Tenggara, Maluku",MALUKU,,Indonesia,82197830643.0,,,-56.704.304,1.327.377.086,https://maps.google.com/?cid=0x0:0x602282c2fc284226,
hotel,Tujuan Wisata,Pantai Ngurbloat Desa Ngilngof - Kei Islands,"Ngurbloat, Kabupaten Maluku Tenggara, Maluku","Kabupaten Maluku Tenggara, Maluku",MALUKU,,Indonesia,811477719.0,,,-56.624.981,1.326.362.396,https://maps.google.com/?cid=0x0:0xd3a4a88054e326f,
restaurant,restaurant,Maluku 97611,"Fiditan, Kec. Pulau Dullah Utara, Kota Tual, Maluku","Kota Tual, Maluku",MALUKU,,Indonesia,,,,-56.405.597,1.327.437.118,https://maps.google.com/?cid=0x0:0x3f6a1cf664874ad3,
restaurant,Restoran,The Malinan Kei Islands Resto and Cafe,"Jl. Raya Merdeka, Kel. Ohoijang Watdek, Kec. Kei Kecil, Kabupaten Maluku Tenggara, Maluku","Kabupaten Maluku Tenggara, Maluku",MALUKU,,Indonesia,81289094253.0,,,-56.462.414,1.327.393.326,https://maps.google.com/?cid=0x0:0x13f8227fc228798a,
restaurant,Kafe,Forganza Resto  Cafe,"Kelanit, Kec. Kei Kecil, Kabupaten Maluku Tenggara, Maluku","Kabupaten Maluku Tenggara, Maluku",MALUKU,,Indonesia,82231789845.0,,,-56.575.049,1.327.029.619,https://maps.google.com/?cid=0x0:0x35e7e74d6d2279bc,
restaurant,Restoran,KEI STORY CAFFE  RESTO,"Samping Masjid Al-Farizi, Jl. Baldu Wahadat, Tual, Pulau Dullah Sel., Kota Tual, Maluku 97611","Jl. Baldu Wahadat, Tual, Pulau Dullah Sel., Kota Tual",MALUKU,97611.0,Indonesia,82111117383.0,,,-56.217.554,1.327.511.068,https://maps.google.com/?cid=0x0:0xf48c591261a66934,
restaurant,Mi,Warung Sate Kiyom,"9P6V+8FJ, Fiditan, Kec. Pulau Dullah Utara, Kota Tual, Maluku","Kota Tual, Maluku",MALUKU,,Indonesia,,,,-56.391.662,1.327.436.517,https://maps.google.com/?cid=0x0:0xa778434ff5dce2d8,
restaurant,Rumah Makan,Restauran,"Jl.Mis Raudha, Fiditan, Kec. Pulau Dullah Utara, Kota Tual, Maluku 97611","Fiditan, Kec. Pulau Dullah Utara, Kota Tual",MALUKU,97611.0,Indonesia,85243534465.0,,,-56.405.597,1.327.437.118,https://maps.google.com/?cid=0x0:0x6ccd36f54c9aaa00,
restaurant,Indonesia,MIE AYAM KIOM(PAKDE TO),"9P6V+46F, Fiditan, Kec. Pulau Dullah Utara, Kota Tual, Maluku","Kota Tual, Maluku",MALUKU,,Indonesia,,,,-5.639.686,1.327.430.313,https://maps.google.com/?cid=0x0:0x5fb2a62a969122da,
restaurant,restaurant,The circle coffe,"Perumnas jl mujair, RT.004/rw04, Kel. Ohoijang Watdek, Kec. Kei Kecil, Kota Tual, Maluku 97611","RT.004/rw04, Kel. Ohoijang Watdek, Kec. Kei Kecil, Kota Tual",MALUKU,97611.0,Indonesia,81295495293.0,,,-56.405.597,1.327.437.118,https://maps.google.com/?cid=0x0:0xd52567348b955c6,
restaurant,Martabak,Martabak koba,"9P5V+WHC, Jl. Pattimura, Fiditan, Kec. Pulau Dullah Utara, Kota Tual, Maluku","Kota Tual, Maluku",MALUKU,,Indonesia,81242603923.0,,,-56.401.948,1.327.438.895,https://maps.google.com/?cid=0x0:0xd99828b2bb1e67b0,
restaurant,Rumah Makan,warung ibu yuni,"02, 14, Kota Tual, Maluku 97611","14, Kota Tual",MALUKU,97611.0,Indonesia,82343395983.0,,,-5.640.518,1.327.437.793,https://maps.google.com/?cid=0x0:0x22c9d76f63e075ef,
restaurant,Jepang,KEI DINING,"10, Jl. Jenderal Sudirman No.3, RT.10/RW.11, Kuningan, Karet Tengsin, Kecamatan Tanah Abang, Kota Jakarta Pusat, Daerah Khusus Ibukota Jakarta 10220","Jl. Jenderal Sudirman No.3, RT.10/RW.11, Kuningan, Karet Tengsin, Kecamatan Tanah Abang, Kota Jakarta Pusat",MALUKU,10220.0,Indonesia,81298989071.0,,,-62.058.582,106.821.436,https://maps.google.com/?cid=0x0:0x140d44edefcc2b6b,
restaurant,Dapur Umum,Soto Daging Bude Warni,"9P6V+8H6, Jl. Pattimura, Fiditan, Kec. Pulau Dullah Utara, Kota Tual, Maluku","Kota Tual, Maluku",MALUKU,,Indonesia,,,,-5.639.208,1.327.438.975,https://maps.google.com/?cid=0x0:0x3361067677aa47d5,
restaurant,Restoran,Galojo Food Eatery,"9P6V+6J5 Kompleks Banda Eli, Belakang Toko Ina (Al-Aqsa, Jl. Pattimura, Kel. Ketsoblak, Pulau Dullah Sel., Kota Tual, Maluku","Kota Tual, Maluku",MALUKU,,Indonesia,,,,-56.394.923,1.327.441.055,https://maps.google.com/?cid=0x0:0xbfc88c871a2745ca,
restaurant,Hidangan Laut,Lateri Beach Restaurant,"Lateri, Kec. Baguala, Kota Ambon, Maluku","Kota Ambon, Maluku",MALUKU,,Indonesia,81240783897.0,,,-36.479.651,1.282.330.484,https://maps.google.com/?cid=0x0:0x17f2f5444327987a,
restaurant,Restoran,Hotaru,"Wisma Keiai, Jl. Jenderal Sudirman No.Kav. 3 Lantai 2 #07, RT.10/RW.11, Karet Tengsin, Kecamatan Tanah Abang, Kota Jakarta Pusat, Daerah Khusus Ibukota Jakarta 10250","Jl. Jenderal Sudirman No.Kav. 3 Lantai 2 #07, RT.10/RW.11, Karet Tengsin, Kecamatan Tanah Abang, Kota Jakarta Pusat",MALUKU,10250.0,Indonesia,81991911988.0,,,-62.059.011,1.068.214.858,https://maps.google.com/?cid=0x0:0x5f64a16d2b955e81,
restaurant,Hidangan Laut,Kalani Beach Resto Cabang Rumah Makan Ketapang,"Jl. Raya Karang Bolong No.KM 142, Karang Suraga, Kec. Cinangka, Kabupaten Serang, Banten 42167","Karang Suraga, Kec. Cinangka, Kabupaten Serang",MALUKU,42167.0,Indonesia,81943745114.0,,,-61.702.936,1.058.486.378,https://maps.google.com/?cid=0x0:0xeae487b7d314a2d1,
restaurant,Indonesia,Warung bakso sonah,"Fiditan, Kec. Pulau Dullah Utara, Kabupaten Maluku Tenggara, Maluku 97611","Kec. Pulau Dullah Utara, Kabupaten Maluku Tenggara",MALUKU,97611.0,Indonesia,,,,-56.405.597,1.327.437.118,https://maps.google.com/?cid=0x0:0xcf698fa4d3a2cca7,
restaurant,Kafe,Mamocha Cafe  Resto,"9P3J+V9, Kel. Ohoijang Watdek, Kec. Kei Kecil, Kabupaten Maluku Tenggara, Maluku","Kabupaten Maluku Tenggara, Maluku",MALUKU,,Indonesia,82199328239.0,,,-56.454.705,1.327.308.736,https://maps.google.com/?cid=0x0:0x88cb1f2751593acc,
restaurant,Restoran,Wailela Cafe and Resto | Ambon,"Jl. Kampus, Rumah Tiga, Kec. Tlk. Ambon, Kota Ambon, Maluku","Kota Ambon, Maluku",MALUKU,,Indonesia,82399522113.0,,,-36.610.624,128.180.609,https://maps.google.com/?cid=0x0:0x3acbc85ce4ef2d6d,
restaurant,Kedai Kopi,Ten Cafe,"8JMM+2W8, Ngilngof, Kec. Kei Kecil, Kabupaten Maluku Tenggara, Maluku","Kabupaten Maluku Tenggara, Maluku",MALUKU,,Indonesia,81240451007.0,,,-566.747,1.326.348.318,https://maps.google.com/?cid=0x0:0xd15d05a2613a5629,
restaurant,Restoran,Viera Caf√©  Resto,"8JQP+8GQ, Pantai Ngurbloat, Kec. Kei Kecil, Kabupaten Maluku Tenggara, Maluku","Kabupaten Maluku Tenggara, Maluku",MALUKU,,Indonesia,81343339810.0,,,-56.616.613,1.326.363.466,https://maps.google.com/?cid=0x0:0x62eff76399757ce2,
restaurant,restaurant,Pulau Kei Kecil,"Kabupaten Maluku Tenggara, Maluku","Kabupaten Maluku Tenggara, Maluku",MALUKU,,Indonesia,,,,-5.783.483,1.327.271.587,https://maps.google.com/?cid=0x0:0x907f7584c951de4a,
restaurant,Restoran,The Malinan Kei Islands Resto and Cafe,"Jl. Raya Merdeka, Kel. Ohoijang Watdek, Kec. Kei Kecil, Kabupaten Maluku Tenggara, Maluku","Kabupaten Maluku Tenggara, Maluku",MALUKU,,Indonesia,81289094253.0,,,-56.462.414,1.327.393.326,https://maps.google.com/?cid=0x0:0x13f8227fc228798a,
restaurant,Toko bahan makanan,Lina_Market,"7M4P+H38, Dian, Kec. Kei Kecil, Kabupaten Maluku Tenggara, Maluku","Kabupaten Maluku Tenggara, Maluku",MALUKU,,Indonesia,,,,-57.435.955,1.326.852.164,https://maps.google.com/?cid=0x0:0x4ad44ac81908366a,
restaurant,Restoran,KEI STORY CAFFE  RESTO,"Samping Masjid Al-Farizi, Jl. Baldu Wahadat, Tual, Pulau Dullah Sel., Kota Tual, Maluku 97611","Jl. Baldu Wahadat, Tual, Pulau Dullah Sel., Kota Tual",MALUKU,97611.0,Indonesia,82111117383.0,,,-56.217.554,1.327.511.068,https://maps.google.com/?cid=0x0:0xf48c591261a66934,
restaurant,restaurant,Pulau Kei Besar,"Kabupaten Maluku Tenggara, Maluku","Kabupaten Maluku Tenggara, Maluku",MALUKU,,Indonesia,,,,-55.588.997,1.330.777.555,https://maps.google.com/?cid=0x0:0xabb0e5e302e13003,
restaurant,restaurant,Kec. Kei Kecil Tim.,"Kabupaten Maluku Tenggara, Maluku","Kabupaten Maluku Tenggara, Maluku",MALUKU,,Indonesia,,,,-58.097.466,1.327.772.816,https://maps.google.com/?cid=0x0:0x6aa8f793d559e5f5,
restaurant,Padang,Rumah Makan JUKU,"Ohoi, Langgur, Maluku 97611",Langgur,MALUKU,97611.0,Indonesia,85255963542.0,,,-57.826.474,1.327.808.352,https://maps.google.com/?cid=0x0:0x7b2227686e53ddfe,
restaurant,Restoran,The Malinan Kei Islands Resto and Cafe,"Jl. Raya Merdeka, Kel. Ohoijang Watdek, Kec. Kei Kecil, Kabupaten Maluku Tenggara, Maluku","Kabupaten Maluku Tenggara, Maluku",MALUKU,,Indonesia,81289094253.0,,,-56.462.414,1.327.393.326,https://maps.google.com/?cid=0x0:0x13f8227fc228798a,
restaurant,Padang,"Rumah Makan Tamaria""""","8PGP+FMQ, Faan, Kec. Kei Kecil, Kabupaten Maluku Tenggara, Maluku","Kabupaten Maluku Tenggara, Maluku",MALUKU,,Indonesia,,,,-56.737.993,1.327.367.275,https://maps.google.com/?cid=0x0:0x644ae0fc251f38ed,
restaurant,Komplek perumahan,Elaar Garara Maluku indonesia,"3QXR+29V, Jl. Ohoi Garara, Selata, Kec. Kei Kecil Tim., Kabupaten Maluku Tenggara, Maluku","Kabupaten Maluku Tenggara, Maluku",MALUKU,,Indonesia,8124828412.0,,,-590.238,132.790.917,https://maps.google.com/?cid=0x0:0x9002e55548fb4390,
restaurant,Hidangan Laut,Rumah Makan Lor Nidi,"6QFQ+FC, Wain, Kabupaten Maluku Tenggara, Maluku","Kabupaten Maluku Tenggara, Maluku",MALUKU,,Indonesia,82398928868.0,,,-57.761.007,1.327.888.365,https://maps.google.com/?cid=0x0:0x2c427a2f6ea01d54,
restaurant,Kedai Kopi,Muhammad Ashraf Esomar,"5QVG+5W3, Jl. Kabupaten, Wain, Kec. Kei Kecil Tim., Kabupaten Maluku Tenggara, Maluku","Kabupaten Maluku Tenggara, Maluku",MALUKU,,Indonesia,,,,-58.070.571,1.327.773.117,https://maps.google.com/?cid=0x0:0x4fa8f69c9d016ac3,
restaurant,Hidangan Laut,Rumah Makan Hoar Yeu Disuk,"6QFQ+FC, Wain, Kabupaten Maluku Tenggara, Maluku","Kabupaten Maluku Tenggara, Maluku",MALUKU,,Indonesia,,,,-57.764.913,1.327.881.626,https://maps.google.com/?cid=0x0:0x1f4246f0ac9bf883,
restaurant,restaurant,LAKES JAYA,"6Q9J+F85, Jl. Kabupaten, Wain, Kec. Kei Kecil Tim., Kabupaten Maluku Tenggara, Maluku","Kabupaten Maluku Tenggara, Maluku",MALUKU,,Indonesia,,,,-57.813.738,1.327.808.439,https://maps.google.com/?cid=0x0:0x83815d4d8c6f9dcf,
restaurant,Kafe,Kimson Resto,"9P3Q+26F, Kel. Ohoijang Watdek, Kec. Kei Kecil, Kabupaten Maluku Tenggara, Maluku","Kabupaten Maluku Tenggara, Maluku",MALUKU,,Indonesia,81228882777.0,,,-56.474.489,1.327.380.365,https://maps.google.com/?cid=0x0:0x7482cdaa1c220917,
restaurant,Restoran,KEI STORY CAFFE  RESTO,"Samping Masjid Al-Farizi, Jl. Baldu Wahadat, Tual, Pulau Dullah Sel., Kota Tual, Maluku 97611","Jl. Baldu Wahadat, Tual, Pulau Dullah Sel., Kota Tual",MALUKU,97611.0,Indonesia,82111117383.0,,,-56.217.554,1.327.511.068,https://maps.google.com/?cid=0x0:0xf48c591261a66934,
restaurant,restaurant,Kec. Kei Kecil Bar.,"Kabupaten Maluku Tenggara, Maluku","Kabupaten Maluku Tenggara, Maluku",MALUKU,,Indonesia,,,,-58.426.357,1.326.882.652,https://maps.google.com/?cid=0x0:0xb8ee628c1e11e302,
restaurant,Restoran,The Malinan Kei Islands Resto and Cafe,"Jl. Raya Merdeka, Kel. Ohoijang Watdek, Kec. Kei Kecil, Kabupaten Maluku Tenggara, Maluku","Kabupaten Maluku Tenggara, Maluku",MALUKU,,Indonesia,81289094253.0,,,-56.462.414,1.327.393.326,https://maps.google.com/?cid=0x0:0x13f8227fc228798a,
restaurant,Toko,RPM,"7M5J+PPV, Dian, Kec. Kei Kecil, Kabupaten Maluku Tenggara, Maluku","Kabupaten Maluku Tenggara, Maluku",MALUKU,,Indonesia,82248663964.0,,,-5.740.626,1.326.817.926,https://maps.google.com/?cid=0x0:0x8dd6a2a4c783af4,
restaurant,restaurant,Miracle Cafe,"7M2V+XX, Dian, Kec. Kei Kecil, Kabupaten Maluku Tenggara, Maluku","Kabupaten Maluku Tenggara, Maluku",MALUKU,,Indonesia,,,,-57.479.654,1.326.954.091,https://maps.google.com/?cid=0x0:0xf70026a479ce972e,
restaurant,Kedai Kopi,JOHANIS .L. RAHAKBAUW,"3MXH+6J6, Madwaer, Kec. Kei Kecil Bar., Kabupaten Maluku Tenggara, Maluku","Kabupaten Maluku Tenggara, Maluku",MALUKU,,Indonesia,,,,-59.022.645,1.326.785.575,https://maps.google.com/?cid=0x0:0x201f3eba0abb4a25,
restaurant,Komplek perumahan,Elaar Garara Maluku indonesia,"3QXR+29V, Jl. Ohoi Garara, Selata, Kec. Kei Kecil Tim., Kabupaten Maluku Tenggara, Maluku","Kabupaten Maluku Tenggara, Maluku",MALUKU,,Indonesia,8124828412.0,,,-590.238,132.790.917,https://maps.google.com/?cid=0x0:0x9002e55548fb4390,
restaurant,Kedai Kopi,Frangkois Renfaan,"3MXH+6J6, Madwaer, Kec. Kei Kecil Bar., Kabupaten Maluku Tenggara, Maluku","Kabupaten Maluku Tenggara, Maluku",MALUKU,,Indonesia,,,,-590.197,1.326.790.118,https://maps.google.com/?cid=0x0:0xa559704d9c32e51d,
restaurant,Komplek perumahan,Rumah ibu guru janiba,"6MXJ+9QJ, Tetoat, Kec. Kei Kecil, Kabupaten Maluku Tenggara, Maluku","Kabupaten Maluku Tenggara, Maluku",MALUKU,,Indonesia,,,,-57.514.827,1.326.832.269,https://maps.google.com/?cid=0x0:0xc745678f9fb0125,
restaurant,Restoran,KEI STORY CAFFE  RESTO,"Samping Masjid Al-Farizi, Jl. Baldu Wahadat, Tual, Pulau Dullah Sel., Kota Tual, Maluku 97611","Jl. Baldu Wahadat, Tual, Pulau Dullah Sel., Kota Tual",MALUKU,97611.0,Indonesia,82111117383.0,,,-56.217.554,1.327.511.068,https://maps.google.com/?cid=0x0:0xf48c591261a66934,
restaurant,Tujuan Wisata,Ngur Vat Namsir Ohoi Wab,"5MWP+7J6, Wab, Kec. Kei Kecil, Kabupaten Maluku Tenggara, Maluku","Kabupaten Maluku Tenggara, Maluku",MALUKU,,Indonesia,81288643786.0,,,-58.043.379,1.326.865.052,https://maps.google.com/?cid=0x0:0xf4321622d5d6c2dd,
restaurant,Rumah wisata,Rumah Bhiox  Ella Remetwa,"3MPX+X6C, Ohoidertutu, Kec. Kei Kecil Bar., Kabupaten Maluku Tenggara, Maluku","Kabupaten Maluku Tenggara, Maluku",MALUKU,,Indonesia,,,,-59.130.094,1.326.979.807,https://maps.google.com/?cid=0x0:0x30881ea66c93d2e9,
restaurant,Kafe,Forganza Resto  Cafe,"Kelanit, Kec. Kei Kecil, Kabupaten Maluku Tenggara, Maluku","Kabupaten Maluku Tenggara, Maluku",MALUKU,,Indonesia,82231789845.0,,,-56.575.049,1.327.029.619,https://maps.google.com/?cid=0x0:0x35e7e74d6d2279bc,
restaurant,Rumah wisata,Manoa Fishing Camp  Cabanas,"Warbal, Kec. Kei Kecil Bar., Maluku 97615",Kec. Kei Kecil Bar.,MALUKU,97615.0,Indonesia,85394744363.0,,,-58.253.212,1.325.915.806,https://maps.google.com/?cid=0x0:0xa1ed5341d10007a2,
restaurant,restaurant,Maluku 97611,"Fiditan, Kec. Pulau Dullah Utara, Kota Tual, Maluku","Kota Tual, Maluku",MALUKU,,Indonesia,,,,-56.405.597,1.327.437.118,https://maps.google.com/?cid=0x0:0x3f6a1cf664874ad3,
restaurant,Restoran,The Malinan Kei Islands Resto and Cafe,"Jl. Raya Merdeka, Kel. Ohoijang Watdek, Kec. Kei Kecil, Kabupaten Maluku Tenggara, Maluku","Kabupaten Maluku Tenggara, Maluku",MALUKU,,Indonesia,81289094253.0,,,-56.462.414,1.327.393.326,https://maps.google.com/?cid=0x0:0x13f8227fc228798a,
restaurant,Mi,Warung Sate Kiyom,"9P6V+8FJ, Fiditan, Kec. Pulau Dullah Utara, Kota Tual, Maluku","Kota Tual, Maluku",MALUKU,,Indonesia,,,,-56.391.662,1.327.436.517,https://maps.google.com/?cid=0x0:0xa778434ff5dce2d8,
restaurant,Indonesia,MIE AYAM KIOM(PAKDE TO),"9P6V+46F, Fiditan, Kec. Pulau Dullah Utara, Kota Tual, Maluku","Kota Tual, Maluku",MALUKU,,Indonesia,,,,-5.639.686,1.327.430.313,https://maps.google.com/?cid=0x0:0x5fb2a62a969122da,
restaurant,Rumah Makan,warung ibu yuni,"02, 14, Kota Tual, Maluku 97611","14, Kota Tual",MALUKU,97611.0,Indonesia,82343395983.0,,,-5.640.518,1.327.437.793,https://maps.google.com/?cid=0x0:0x22c9d76f63e075ef,
restaurant,Dapur Umum,Soto Daging Bude Warni,"9P6V+8H6, Jl. Pattimura, Fiditan, Kec. Pulau Dullah Utara, Kota Tual, Maluku","Kota Tual, Maluku",MALUKU,,Indonesia,,,,-5.639.208,1.327.438.975,https://maps.google.com/?cid=0x0:0x3361067677aa47d5,
restaurant,Restoran,Galojo Food Eatery,"9P6V+6J5 Kompleks Banda Eli, Belakang Toko Ina (Al-Aqsa, Jl. Pattimura, Kel. Ketsoblak, Pulau Dullah Sel., Kota Tual, Maluku","Kota Tual, Maluku",MALUKU,,Indonesia,,,,-56.394.923,1.327.441.055,https://maps.google.com/?cid=0x0:0xbfc88c871a2745ca,
restaurant,Martabak,Martabak koba,"9P5V+WHC, Jl. Pattimura, Fiditan, Kec. Pulau Dullah Utara, Kota Tual, Maluku","Kota Tual, Maluku",MALUKU,,Indonesia,81242603923.0,,,-56.401.948,1.327.438.895,https://maps.google.com/?cid=0x0:0xd99828b2bb1e67b0,
restaurant,Hidangan Laut,Lateri Beach Restaurant,"Lateri, Kec. Baguala, Kota Ambon, Maluku","Kota Ambon, Maluku",MALUKU,,Indonesia,81240783897.0,,,-36.479.651,1.282.330.484,https://maps.google.com/?cid=0x0:0x17f2f5444327987a,
restaurant,restaurant,The circle coffe,"Perumnas jl mujair, RT.004/rw04, Kel. Ohoijang Watdek, Kec. Kei Kecil, Kota Tual, Maluku 97611","RT.004/rw04, Kel. Ohoijang Watdek, Kec. Kei Kecil, Kota Tual",MALUKU,97611.0,Indonesia,81295495293.0,,,-56.405.597,1.327.437.118,https://maps.google.com/?cid=0x0:0xd52567348b955c6,
restaurant,Hidangan Laut,SMORGAN Resto,"PXJV+JGQ, Jl. Pemerintahan, depan KODIM, Halut, Mkcm, Tobelo, North Halmahera Regency, North Maluku","Kabupaten Halmahera Utara, Maluku Utara",MALUKU,,Indonesia,85201115150.0,,,17.315.784,1.279.938.588,https://maps.google.com/?cid=0x0:0xd45d6fcd651f0c5c,
restaurant,Indonesia,Warung bakso sonah,"Fiditan, Kec. Pulau Dullah Utara, Kabupaten Maluku Tenggara, Maluku 97611","Kec. Pulau Dullah Utara, Kabupaten Maluku Tenggara",MALUKU,97611.0,Indonesia,,,,-56.405.597,1.327.437.118,https://maps.google.com/?cid=0x0:0xcf698fa4d3a2cca7,
restaurant,Restoran,Wailela Cafe and Resto | Ambon,"Jl. Kampus, Rumah Tiga, Kec. Tlk. Ambon, Kota Ambon, Maluku","Kota Ambon, Maluku",MALUKU,,Indonesia,82399522113.0,,,-36.610.624,128.180.609,https://maps.google.com/?cid=0x0:0x3acbc85ce4ef2d6d,
restaurant,Betawi,Dapur Fizzul - Rumah Makan Khas Maluku Jakarta No.1 Halal di Dunia,"Food Court Depan Grha Essi, Jl. Raya Ceger No.5, RT.5/RW.1, Ceger, Kec. Cipayung, Kota Jakarta Timur, Daerah Khusus Ibukota Jakarta 13820","Jl. Raya Ceger No.5, RT.5/RW.1, Ceger, Kec. Cipayung, Kota Jakarta Timur",MALUKU,13820.0,Indonesia,82131529069.0,,,-6.307.207,1.068.886.462,https://maps.google.com/?cid=0x0:0xb39e6e8a1a4f4d03,
restaurant,restaurant,Kec. Manyeuw,"Kabupaten Maluku Tenggara, Maluku","Kabupaten Maluku Tenggara, Maluku",MALUKU,,Indonesia,,,,-56.965.194,1.326.541.753,https://maps.google.com/?cid=0x0:0x759039d1fd6358e2,
restaurant,Restoran,Charlie Restaurant,"9M76+2V9, JL. Jend Sudirman, Watdek Ohoiyong, Kei Kecil, Ohoidertawun, Tual, Kabupaten Maluku Tenggara, Maluku 97611","JL. Jend Sudirman, Watdek Ohoiyong, Kei Kecil, Ohoidertawun, Tual, Kabupaten Maluku Tenggara",MALUKU,97611.0,Indonesia,91621456.0,,,-5.637.468,13.266.223,https://maps.google.com/?cid=0x0:0xcde12a45c42e94b6,
restaurant,Rumah Makan,RUMAH MAKAN MINANG SAKATO,"langgur, Jalan hotel, Langgur, Kec. Kei Kecil, Kabupaten Maluku Tenggara, Maluku 97611","Jalan hotel, Langgur, Kec. Kei Kecil, Kabupaten Maluku Tenggara",MALUKU,97611.0,Indonesia,81344507693.0,,,-5.672.058,1.327.356.282,https://maps.google.com/?cid=0x0:0xad310f072b6b249c,
restaurant,Rumah Makan,Puri Kencana Cafe,"Jl.Langgur Kolser, Komplex Jl. Vita Sari, Langgur, Maluku 97611","Komplex Jl. Vita Sari, Langgur",MALUKU,97611.0,Indonesia,,,,-56.666.044,1.327.245.779,https://maps.google.com/?cid=0x0:0x4fbdcbdf867abeea,
restaurant,Kafe,Fortuna Resto  Cafe,"Jl. Jend. Sudirman, Langgur, Kec. Kei Kecil, Kabupaten Maluku Tenggara, Maluku 97611","Langgur, Kec. Kei Kecil, Kabupaten Maluku Tenggara",MALUKU,97611.0,Indonesia,81330123455.0,,,-56.551.943,132.740.084,https://maps.google.com/?cid=0x0:0xe1ae8643652b5b1a,
restaurant,Dapur Umum,ANGKRINGAN PAPAN ATAS,"Jl. Kabupaten No.12, Langgur, Kec. Kei Kecil, Kabupaten Maluku Tenggara, Maluku 97611","Langgur, Kec. Kei Kecil, Kabupaten Maluku Tenggara",MALUKU,97611.0,Indonesia,82322171450.0,,,-56.709.113,1.327.333.341,https://maps.google.com/?cid=0x0:0xa00217ecca6532c1,
restaurant,Padang,Minang Rumah Makan,"JL. Jend Sudirman, Watdek Ohoiyong, Kei Kecil, 97611, Ohoidertawun, Tual, Kabupaten Maluku Tenggara, Maluku","Watdek Ohoiyong, Kei Kecil,",MALUKU,97611.0,Indonesia,91621951.0,,,-5.637.468,13.266.223,https://maps.google.com/?cid=0x0:0xeb7cbb76a7df9ea,
restaurant,restaurant,Yohana cottage,"Pantai pasir panjang Desa ngilngof Kabupaten Maluku tenggara, Tual City, Maluku 97611",Tual City,MALUKU,97611.0,Indonesia,82238244447.0,,,-56.645.423,1.326.358.551,https://maps.google.com/?cid=0x0:0xdb8a52d343b6fec1,
restaurant,restaurant,Mercy Cottages,"8JPP+5G8, Ngurbloat, Pasir Panjang, Kec. Kei Kecil, Kabupaten Maluku Tenggara, Maluku","Kabupaten Maluku Tenggara, Maluku",MALUKU,,Indonesia,81290719212.0,,,-56.645.921,1.326.363.275,https://maps.google.com/?cid=0x0:0xcfd65a14394c7f0b,
restaurant,restaurant,Renata Cottage,"RW.Ngurbloat, Pasir Panjang, Kec. Kei Kecil, Kabupaten Maluku Tenggara, Maluku","Kabupaten Maluku Tenggara, Maluku",MALUKU,,Indonesia,82238489435.0,,,-56.647.585,1.326.363.374,https://maps.google.com/?cid=0x0:0xd768a1b48ff6cf8a,
restaurant,restaurant,Vid Fauw OasisVilla,"8MRX+9V, Kelanit, Kabupaten Maluku Tenggara, Maluku","Kabupaten Maluku Tenggara, Maluku",MALUKU,,Indonesia,82170390076.0,,,-56.590.873,1.326.996.393,https://maps.google.com/?cid=0x0:0xf2b6d4ca0c5d2823,
restaurant,restaurant,Tria Maria Cottage,"8JMP+Q7X, Pantai Ngurbloat, Desa, Ngilngof, Kabupaten Maluku Tenggara, Maluku","Kabupaten Maluku Tenggara, Maluku",MALUKU,,Indonesia,82198644495.0,,,-56.655.022,1.326.357.283,https://maps.google.com/?cid=0x0:0x4aba156b311cd167,
restaurant,restaurant,Casa Di Stella,"8JMP+76J, Ngilngof, Kec. Kei Kecil, Kabupaten Maluku Tenggara, Maluku","Kabupaten Maluku Tenggara, Maluku",MALUKU,,Indonesia,8124415561.0,,,-56.655.466,1.326.357.166,https://maps.google.com/?cid=0x0:0xfaabcd9021ebf75b,
restaurant,restaurant,Penginapan Evalin,"8JPP+PMF, Pantai Ngur Bloat Tenggar, Ohoililir, Kec. Kei Kecil, Kabupaten Maluku Tenggara, Maluku","Kabupaten Maluku Tenggara, Maluku",MALUKU,,Indonesia,85232726401.0,,,-56.631.772,1.326.366.643,https://maps.google.com/?cid=0x0:0x8da1a6387da5626f,
restaurant,restaurant,Vila Monica,"Ngilngof, Kec. Kei Kecil, Kabupaten Maluku Tenggara, Maluku","Kabupaten Maluku Tenggara, Maluku",MALUKU,,Indonesia,,,,-56.681.692,1.326.362.338,https://maps.google.com/?cid=0x0:0xec0edcf1ea157f99,
restaurant,restaurant,Maluku 97611,"Fiditan, Kec. Pulau Dullah Utara, Kota Tual, Maluku","Kota Tual, Maluku",MALUKU,,Indonesia,,,,-56.405.597,1.327.437.118,https://maps.google.com/?cid=0x0:0x3f6a1cf664874ad3,
restaurant,Mi,Warung Sate Kiyom,"9P6V+8FJ, Fiditan, Kec. Pulau Dullah Utara, Kota Tual, Maluku","Kota Tual, Maluku",MALUKU,,Indonesia,,,,-56.391.662,1.327.436.517,https://maps.google.com/?cid=0x0:0xa778434ff5dce2d8,
restaurant,Rumah Makan,Restauran,"Jl.Mis Raudha, Fiditan, Kec. Pulau Dullah Utara, Kota Tual, Maluku 97611","Fiditan, Kec. Pulau Dullah Utara, Kota Tual",MALUKU,97611.0,Indonesia,85243534465.0,,,-56.405.597,1.327.437.118,https://maps.google.com/?cid=0x0:0x6ccd36f54c9aaa00,
restaurant,Hidangan Laut,Restaurant Sari Gurih Beach,"963M+565, Lateri, Kec. Baguala, Kota Ambon, Maluku","Kota Ambon, Maluku",MALUKU,,Indonesia,8119798598.0,,,-36.471.037,1.282.330.997,https://maps.google.com/?cid=0x0:0x56400b7db74be6ae,
restaurant,Hidangan Laut,Lateri Beach Restaurant,"Lateri, Kec. Baguala, Kota Ambon, Maluku","Kota Ambon, Maluku",MALUKU,,Indonesia,81240783897.0,,,-36.479.651,1.282.330.484,https://maps.google.com/?cid=0x0:0x17f2f5444327987a,
restaurant,Restoran,Galojo Food Eatery,"9P6V+6J5 Kompleks Banda Eli, Belakang Toko Ina (Al-Aqsa, Jl. Pattimura, Kel. Ketsoblak, Pulau Dullah Sel., Kota Tual, Maluku","Kota Tual, Maluku",MALUKU,,Indonesia,,,,-56.394.923,1.327.441.055,https://maps.google.com/?cid=0x0:0xbfc88c871a2745ca,
restaurant,Rumah Makan,warung ibu yuni,"02, 14, Kota Tual, Maluku 97611","14, Kota Tual",MALUKU,97611.0,Indonesia,82343395983.0,,,-5.640.518,1.327.437.793,https://maps.google.com/?cid=0x0:0x22c9d76f63e075ef,
restaurant,Martabak,Martabak koba,"9P5V+WHC, Jl. Pattimura, Fiditan, Kec. Pulau Dullah Utara, Kota Tual, Maluku","Kota Tual, Maluku",MALUKU,,Indonesia,81242603923.0,,,-56.401.948,1.327.438.895,https://maps.google.com/?cid=0x0:0xd99828b2bb1e67b0,
restaurant,Hidangan Laut,Istana Berkat,"852J+878, Jl. Diponegoro, Kel Ahusen, Kec. Sirimau, Kota Ambon, Maluku","Kota Ambon, Maluku",MALUKU,,Indonesia,911355899.0,,,-36.992,1.281.806.895,https://maps.google.com/?cid=0x0:0x33d905559f0c0858,
restaurant,Dapur Umum,Soto Daging Bude Warni,"9P6V+8H6, Jl. Pattimura, Fiditan, Kec. Pulau Dullah Utara, Kota Tual, Maluku","Kota Tual, Maluku",MALUKU,,Indonesia,,,,-5.639.208,1.327.438.975,https://maps.google.com/?cid=0x0:0x3361067677aa47d5,
restaurant,Hidangan Laut,SMORGAN Resto,"PXJV+JGQ, Jl. Pemerintahan, depan KODIM, Halut, Mkcm, Tobelo, North Halmahera Regency, North Maluku","Kabupaten Halmahera Utara, Maluku Utara",MALUKU,,Indonesia,85201115150.0,,,17.315.784,1.279.938.588,https://maps.google.com/?cid=0x0:0xd45d6fcd651f0c5c,
restaurant,Restoran,88 Seafood Restaurant,"954V+J9Q, Jl. Y. Syaranamual, Poka, Kec. Tlk. Ambon, Kota Ambon, Maluku","Kota Ambon, Maluku",MALUKU,,Indonesia,81244017203.0,,,-3.643.413,1.281.934.707,https://maps.google.com/?cid=0x0:0xe0e80a6465ae7fa5,
restaurant,restaurant,The circle coffe,"Perumnas jl mujair, RT.004/rw04, Kel. Ohoijang Watdek, Kec. Kei Kecil, Kota Tual, Maluku 97611","RT.004/rw04, Kel. Ohoijang Watdek, Kec. Kei Kecil, Kota Tual",MALUKU,97611.0,Indonesia,81295495293.0,,,-56.405.597,1.327.437.118,https://maps.google.com/?cid=0x0:0xd52567348b955c6,
restaurant,Indonesia,Warung bakso sonah,"Fiditan, Kec. Pulau Dullah Utara, Kabupaten Maluku Tenggara, Maluku 97611","Kec. Pulau Dullah Utara, Kabupaten Maluku Tenggara",MALUKU,97611.0,Indonesia,,,,-56.405.597,1.327.437.118,https://maps.google.com/?cid=0x0:0xcf698fa4d3a2cca7,
restaurant,restaurant,Kec. Hoat Sorbay,"Kabupaten Maluku Tenggara, Maluku","Kabupaten Maluku Tenggara, Maluku",MALUKU,,Indonesia,,,,-57.625.705,1.327.020.733,https://maps.google.com/?cid=0x0:0x34afb92b49352bf1,
restaurant,Padang,Rumah Makan JUKU,"Ohoi, Langgur, Maluku 97611",Langgur,MALUKU,97611.0,Indonesia,85255963542.0,,,-57.826.474,1.327.808.352,https://maps.google.com/?cid=0x0:0x7b2227686e53ddfe,
restaurant,Hidangan Laut,Crown Resto,"Jl. AM Sangaji No.30, Kel Honipopu, Kec. Sirimau, Kota Ambon, Maluku 97126","Kel Honipopu, Kec. Sirimau, Kota Ambon",MALUKU,97126.0,Indonesia,85100351548.0,,,-36.969.971,1.281.788.786,https://maps.google.com/?cid=0x0:0x200f7ed4c75019b9,
restaurant,Hidangan Laut,Ar-Rahmah Cafe 88  Resto,"11, Poka, Kec. Tlk. Ambon, Kota Ambon, Maluku","Kota Ambon, Maluku",MALUKU,,Indonesia,,,,-36.399.409,128.193.698,https://maps.google.com/?cid=0x0:0xcd121b2819e980c9,
restaurant,Hidangan Laut,Cili Padi Restaurant,"Said Perintah No.52, Kel Honipopu, Kec. Sirimau, Kota Ambon, Maluku","Kota Ambon, Maluku",MALUKU,,Indonesia,911348736.0,,,-36.977.926,1.281.806.173,https://maps.google.com/?cid=0x0:0x4da49f6c344ede1a,
restaurant,Rumah Makan,Restoran Borero,"Jl. Kramat III No.3 5, RT.5/RW.9, Kwitang, Kec. Senen, Kota Jakarta Pusat, Daerah Khusus Ibukota Jakarta 10420","RT.5/RW.9, Kwitang, Kec. Senen, Kota Jakarta Pusat",MALUKU,10420.0,Indonesia,81328481904.0,,,-61.847.651,1.068.429.336,https://maps.google.com/?cid=0x0:0x194b88e47de25c51,
restaurant,restaurant,Pulau Kei Besar,"Kabupaten Maluku Tenggara, Maluku","Kabupaten Maluku Tenggara, Maluku",MALUKU,,Indonesia,,,,-55.588.997,1.330.777.555,https://maps.google.com/?cid=0x0:0xabb0e5e302e13003,
restaurant,Kafe,Forganza Resto  Cafe,"Kelanit, Kec. Kei Kecil, Kabupaten Maluku Tenggara, Maluku","Kabupaten Maluku Tenggara, Maluku",MALUKU,,Indonesia,82231789845.0,,,-56.575.049,1.327.029.619,https://maps.google.com/?cid=0x0:0x35e7e74d6d2279bc,
restaurant,Restoran,Kafe Gloria,"8PWP+GVF, Langgur, Kec. Kei Kecil, Kabupaten Maluku Tenggara, Maluku","Kabupaten Maluku Tenggara, Maluku",MALUKU,,Indonesia,,,,-56.536.782,1.327.371.868,https://maps.google.com/?cid=0x0:0x343bba23c89005a3,
cafe,cafe,Maluku 97611,"Fiditan, Kec. Pulau Dullah Utara, Kota Tual, Maluku","Kota Tual, Maluku",MALUKU,,Indonesia,,,,-56.405.597,1.327.437.118,https://maps.google.com/?cid=0x0:0x3f6a1cf664874ad3,
cafe,Kedai Kopi,Kopi KEI,"8PVR+M2M, Jl. Jend. Sudirman, Langgur, Kec. Kei Kecil, Kabupaten Maluku Tenggara, Maluku 97611","Jl. Jend. Sudirman, Langgur, Kec. Kei Kecil, Kabupaten Maluku Tenggara",MALUKU,97611.0,Indonesia,,,,-56.557.788,1.327.400.414,https://maps.google.com/?cid=0x0:0x1eece6d11a1faee,
cafe,Kafe,Forganza Resto  Cafe,"Kelanit, Kec. Kei Kecil, Kabupaten Maluku Tenggara, Maluku","Kabupaten Maluku Tenggara, Maluku",MALUKU,,Indonesia,82231789845.0,,,-56.575.049,1.327.029.619,https://maps.google.com/?cid=0x0:0x35e7e74d6d2279bc,
cafe,Restoran,KEI STORY CAFFE  RESTO,"Samping Masjid Al-Farizi, Jl. Baldu Wahadat, Tual, Pulau Dullah Sel., Kota Tual, Maluku 97611","Jl. Baldu Wahadat, Tual, Pulau Dullah Sel., Kota Tual",MALUKU,97611.0,Indonesia,82111117383.0,,,-56.217.554,1.327.511.068,https://maps.google.com/?cid=0x0:0xf48c591261a66934,
cafe,Kedai Kopi,Cafe Jail,"8PXR+H72, Kel. Ohoijang Watdek, Kec. Kei Kecil, Kabupaten Maluku Tenggara, Maluku","Kabupaten Maluku Tenggara, Maluku",MALUKU,,Indonesia,,,,-56.508.966,1.327.405.474,https://maps.google.com/?cid=0x0:0xf75d3123c13ac165,
cafe,Restoran,The Malinan Kei Islands Resto and Cafe,"Jl. Raya Merdeka, Kel. Ohoijang Watdek, Kec. Kei Kecil, Kabupaten Maluku Tenggara, Maluku","Kabupaten Maluku Tenggara, Maluku",MALUKU,,Indonesia,81289094253.0,,,-56.462.414,1.327.393.326,https://maps.google.com/?cid=0x0:0x13f8227fc228798a,
cafe,cafe,The circle coffe,"Perumnas jl mujair, RT.004/rw04, Kel. Ohoijang Watdek, Kec. Kei Kecil, Kota Tual, Maluku 97611","RT.004/rw04, Kel. Ohoijang Watdek, Kec. Kei Kecil, Kota Tual",MALUKU,97611.0,Indonesia,81295495293.0,,,-56.405.597,1.327.437.118,https://maps.google.com/?cid=0x0:0xd52567348b955c6,
cafe,Kedai Kopi,KEI Coffee Imam Bonjol,"Jl. Imam Bonjol No.68, Menteng, Kec. Menteng, Kota Jakarta Pusat, Daerah Khusus Ibukota Jakarta 10310","Menteng, Kec. Menteng, Kota Jakarta Pusat",MALUKU,10310.0,Indonesia,81295235231.0,,,-61.974.039,1.068.257.892,https://maps.google.com/?cid=0x0:0x7d66835c39af093a,
cafe,Martabak,Martabak koba,"9P5V+WHC, Jl. Pattimura, Fiditan, Kec. Pulau Dullah Utara, Kota Tual, Maluku","Kota Tual, Maluku",MALUKU,,Indonesia,81242603923.0,,,-56.401.948,1.327.438.895,https://maps.google.com/?cid=0x0:0xd99828b2bb1e67b0,
cafe,Mi,Warung Sate Kiyom,"9P6V+8FJ, Fiditan, Kec. Pulau Dullah Utara, Kota Tual, Maluku","Kota Tual, Maluku",MALUKU,,Indonesia,,,,-56.391.662,1.327.436.517,https://maps.google.com/?cid=0x0:0xa778434ff5dce2d8,
cafe,Rumah Makan,Restauran,"Jl.Mis Raudha, Fiditan, Kec. Pulau Dullah Utara, Kota Tual, Maluku 97611","Fiditan, Kec. Pulau Dullah Utara, Kota Tual",MALUKU,97611.0,Indonesia,85243534465.0,,,-56.405.597,1.327.437.118,https://maps.google.com/?cid=0x0:0x6ccd36f54c9aaa00,
cafe,Kedai Kopi,K Coffee Lounge,"Menara Kadin Indonesia, Jl. H. R. Rasuna Said No.2-3 Lt. 29, RT.1/RW.2, Kuningan, Kuningan Tim., Kecamatan Setiabudi, Kota Jakarta Selatan, Daerah Khusus Ibukota Jakarta 12950","Jl. H. R. Rasuna Said No.2-3 Lt. 29, RT.1/RW.2, Kuningan, Kuningan Tim., Kecamatan Setiabudi, Kota Jakarta Selatan",MALUKU,12950.0,Indonesia,87788000405.0,,,-62.321.291,1.068.317.575,https://maps.google.com/?cid=0x0:0xde80d75b43967cff,
cafe,Indonesia,MIE AYAM KIOM(PAKDE TO),"9P6V+46F, Fiditan, Kec. Pulau Dullah Utara, Kota Tual, Maluku","Kota Tual, Maluku",MALUKU,,Indonesia,,,,-5.639.686,1.327.430.313,https://maps.google.com/?cid=0x0:0x5fb2a62a969122da,
cafe,Rumah Makan,warung ibu yuni,"02, 14, Kota Tual, Maluku 97611","14, Kota Tual",MALUKU,97611.0,Indonesia,82343395983.0,,,-5.640.518,1.327.437.793,https://maps.google.com/?cid=0x0:0x22c9d76f63e075ef,
cafe,Kedai Kopi,Kopi Dari Hati - Langgur,"Jl. Pelita Pemda, Langgur, Kec. Kei Kecil, Kabupaten Maluku Tenggara, Maluku 97611","Langgur, Kec. Kei Kecil, Kabupaten Maluku Tenggara",MALUKU,97611.0,Indonesia,81234510434.0,,,-565.351,1.327.366.639,https://maps.google.com/?cid=0x0:0xf3cfb3b1f4c7a694,
cafe,Restoran,Kim Kebab Cafe,"Jl. Jend. Sudirman, Kel. Ohoijang Watdek, Kec. Kei Kecil, Kabupaten Maluku Tenggara, Maluku","Kabupaten Maluku Tenggara, Maluku",MALUKU,,Indonesia,,,,-56.499.515,1.327.409.667,https://maps.google.com/?cid=0x0:0xd7f5b243aaf7029,
cafe,Kedai Kopi,Ten Cafe,"8JMM+2W8, Ngilngof, Kec. Kei Kecil, Kabupaten Maluku Tenggara, Maluku","Kabupaten Maluku Tenggara, Maluku",MALUKU,,Indonesia,81240451007.0,,,-566.747,1.326.348.318,https://maps.google.com/?cid=0x0:0xd15d05a2613a5629,
cafe,Indonesia,Kafe dan Resto Green Hill,"8PR4+8C8, Jl. KOlser-Loon, Kolser, Kec. Kei Kecil, Kabupaten Maluku Tenggara, Maluku","Kabupaten Maluku Tenggara, Maluku",MALUKU,,Indonesia,85221067236.0,,,-56.592.125,1.327.060.781,https://maps.google.com/?cid=0x0:0xc1eacbb8593553cf,
cafe,Kafe,Mamocha Cafe  Resto,"9P3J+V9, Kel. Ohoijang Watdek, Kec. Kei Kecil, Kabupaten Maluku Tenggara, Maluku","Kabupaten Maluku Tenggara, Maluku",MALUKU,,Indonesia,82199328239.0,,,-56.454.705,1.327.308.736,https://maps.google.com/?cid=0x0:0x88cb1f2751593acc,
cafe,Kedai Kopi,CAFE FID TILUS,"8PVF+4MG, Kolser, Kec. Kei Kecil, Kabupaten Maluku Tenggara, Maluku","Kabupaten Maluku Tenggara, Maluku",MALUKU,,Indonesia,85243459896.0,,,-56.571.807,1.327.242.034,https://maps.google.com/?cid=0x0:0xfe6259f95e0b4369,
cafe,Restoran,Violet Caffe  Resto,"8JQP+8W, Ohoililir, Kec. Kei Kecil, Kabupaten Maluku Tenggara, Maluku","Kabupaten Maluku Tenggara, Maluku",MALUKU,,Indonesia,,,,-56.606.324,1.326.370.915,https://maps.google.com/?cid=0x0:0x78022b512ecba8bf,
cafe,Kedai Kopi,KIOS DELILA,"8JPP+VQJ, Ngilngof, Kec. Kei Kecil, Kabupaten Maluku Tenggara, Maluku","Kabupaten Maluku Tenggara, Maluku",MALUKU,,Indonesia,82197688720.0,,,-56.627.857,132.636.881,https://maps.google.com/?cid=0x0:0x6ba7902bbcb7f0b1,
cafe,Kedai Kopi,KEDAI JIAAA,"Jl. Jend. Sudirman No.17, Kel. Ohoijang Watdek, Kec. Kei Kecil, Kabupaten Maluku Tenggara, Maluku","Kabupaten Maluku Tenggara, Maluku",MALUKU,,Indonesia,,,,-56.474.536,1.327.411.905,https://maps.google.com/?cid=0x0:0x25e91eda411c066c,
cafe,Kedai Kopi,Rumah ARI,"8PQ9+8XW, Kolser, Kec. Kei Kecil, Kabupaten Maluku Tenggara, Maluku","Kabupaten Maluku Tenggara, Maluku",MALUKU,,Indonesia,,,,-56.617.915,1.327.199.051,https://maps.google.com/?cid=0x0:0xe91a0b95988583a6,
cafe,cafe,,,,MALUKU,,Indonesia,,,,,,https://maps.google.com/?cid=0x0:0x1eece6d11a1faeeu0026onu003dKopi+Susuu0026midu003d/g/11q95k0y4s,
cafe,cafe,,,,MALUKU,,Indonesia,,,,,,https://maps.google.com/?cid=0x0:0x1eece6d11a1faeeu0026onu0026midu003d/g/11q95k0y4s,
cafe,cafe,Kec. Kei Besar,"Kabupaten Maluku Tenggara, Maluku","Kabupaten Maluku Tenggara, Maluku",MALUKU,,Indonesia,,,,-56.972.073,1.329.830.028,https://maps.google.com/?cid=0x0:0x19dfdda766def4cc,
cafe,cafe,Waur,"Kec. Kei Besar, Kabupaten Maluku Tenggara, Maluku","Kabupaten Maluku Tenggara, Maluku",MALUKU,,Indonesia,,,,-56.815.092,1.329.830.397,https://maps.google.com/?cid=0x0:0x3f3540b1321b8e6b,
cafe,cafe,Elat,"8XWW+XJ9, Elat, Kec. Kei Besar, Kabupaten Maluku Tenggara, Maluku","Kabupaten Maluku Tenggara, Maluku",MALUKU,,Indonesia,,,,-56.520.594,1.329.958.714,https://maps.google.com/?cid=0x0:0x3d21acc2eefd1880,
cafe,Restoran,Kim Kebab Cafe,"Jl. Jend. Sudirman, Kel. Ohoijang Watdek, Kec. Kei Kecil, Kabupaten Maluku Tenggara, Maluku","Kabupaten Maluku Tenggara, Maluku",MALUKU,,Indonesia,,,,-56.499.515,1.327.409.667,https://maps.google.com/?cid=0x0:0xd7f5b243aaf7029,
cafe,cafe,Pulau Kei Besar,"Kabupaten Maluku Tenggara, Maluku","Kabupaten Maluku Tenggara, Maluku",MALUKU,,Indonesia,,,,-55.588.997,1.330.777.555,https://maps.google.com/?cid=0x0:0xabb0e5e302e13003,
cafe,cafe,Kec. Kei Besar Sel.,"Kabupaten Maluku Tenggara, Maluku","Kabupaten Maluku Tenggara, Maluku",MALUKU,,Indonesia,,,,-58.619.353,1.329.222.315,https://maps.google.com/?cid=0x0:0x509d63fbc4e42f01,
cafe,Komplek perumahan,Elaar Garara Maluku indonesia,"3QXR+29V, Jl. Ohoi Garara, Selata, Kec. Kei Kecil Tim., Kabupaten Maluku Tenggara, Maluku","Kabupaten Maluku Tenggara, Maluku",MALUKU,,Indonesia,8124828412.0,,,-590.238,132.790.917,https://maps.google.com/?cid=0x0:0x9002e55548fb4390,
cafe,cafe,Hazo pung rumah,"3QQP+GJ3, Elaar Lamagorang, Kec. Kei Kecil Tim., Kabupaten Maluku Tenggara, Maluku","Kabupaten Maluku Tenggara, Maluku",MALUKU,,Indonesia,,,,-59.112.096,1.327.871.047,https://maps.google.com/?cid=0x0:0xd62dfb675c0a0f18,
cafe,cafe,Pulau Kei Besar,"Kabupaten Maluku Tenggara, Maluku","Kabupaten Maluku Tenggara, Maluku",MALUKU,,Indonesia,,,,-55.588.997,1.330.777.555,https://maps.google.com/?cid=0x0:0xabb0e5e302e13003,
cafe,cafe,Kec. Kei Kecil Tim.,"Kabupaten Maluku Tenggara, Maluku","Kabupaten Maluku Tenggara, Maluku",MALUKU,,Indonesia,,,,-58.097.466,1.327.772.816,https://maps.google.com/?cid=0x0:0x6aa8f793d559e5f5,
cafe,Kafe,Forganza Resto  Cafe,"Kelanit, Kec. Kei Kecil, Kabupaten Maluku Tenggara, Maluku","Kabupaten Maluku Tenggara, Maluku",MALUKU,,Indonesia,82231789845.0,,,-56.575.049,1.327.029.619,https://maps.google.com/?cid=0x0:0x35e7e74d6d2279bc,
cafe,Kedai Kopi,Caffe Delima,"8PCQ+Q53, Jl. Kabupaten, Faan, Kec. Kei Kecil, Kabupaten Maluku Tenggara, Maluku","Kabupaten Maluku Tenggara, Maluku",MALUKU,,Indonesia,,,,-56.781.099,1.327.379.308,https://maps.google.com/?cid=0x0:0xab53248d833b99ae,
cafe,Kedai Kopi,Kopi KEI,"8PVR+M2M, Jl. Jend. Sudirman, Langgur, Kec. Kei Kecil, Kabupaten Maluku Tenggara, Maluku 97611","Jl. Jend. Sudirman, Langgur, Kec. Kei Kecil, Kabupaten Maluku Tenggara",MALUKU,97611.0,Indonesia,,,,-56.557.788,1.327.400.414,https://maps.google.com/?cid=0x0:0x1eece6d11a1faee,
cafe,Komplek perumahan,Elaar Garara Maluku indonesia,"3QXR+29V, Jl. Ohoi Garara, Selata, Kec. Kei Kecil Tim., Kabupaten Maluku Tenggara, Maluku","Kabupaten Maluku Tenggara, Maluku",MALUKU,,Indonesia,8124828412.0,,,-590.238,132.790.917,https://maps.google.com/?cid=0x0:0x9002e55548fb4390,
cafe,Restoran,The Malinan Kei Islands Resto and Cafe,"Jl. Raya Merdeka, Kel. Ohoijang Watdek, Kec. Kei Kecil, Kabupaten Maluku Tenggara, Maluku","Kabupaten Maluku Tenggara, Maluku",MALUKU,,Indonesia,81289094253.0,,,-56.462.414,1.327.393.326,https://maps.google.com/?cid=0x0:0x13f8227fc228798a,
cafe,Restoran,KEI STORY CAFFE  RESTO,"Samping Masjid Al-Farizi, Jl. Baldu Wahadat, Tual, Pulau Dullah Sel., Kota Tual, Maluku 97611","Jl. Baldu Wahadat, Tual, Pulau Dullah Sel., Kota Tual",MALUKU,97611.0,Indonesia,82111117383.0,,,-56.217.554,1.327.511.068,https://maps.google.com/?cid=0x0:0xf48c591261a66934,
cafe,Kedai Kopi,KEI Coffee Imam Bonjol,"Jl. Imam Bonjol No.68, Menteng, Kec. Menteng, Kota Jakarta Pusat, Daerah Khusus Ibukota Jakarta 10310","Menteng, Kec. Menteng, Kota Jakarta Pusat",MALUKU,10310.0,Indonesia,81295235231.0,,,-61.974.039,1.068.257.892,https://maps.google.com/?cid=0x0:0x7d66835c39af093a,
cafe,Kedai Kopi,Cafe Jail,"8PXR+H72, Kel. Ohoijang Watdek, Kec. Kei Kecil, Kabupaten Maluku Tenggara, Maluku","Kabupaten Maluku Tenggara, Maluku",MALUKU,,Indonesia,,,,-56.508.966,1.327.405.474,https://maps.google.com/?cid=0x0:0xf75d3123c13ac165,
cafe,Kedai Kopi,Muhammad Ashraf Esomar,"5QVG+5W3, Jl. Kabupaten, Wain, Kec. Kei Kecil Tim., Kabupaten Maluku Tenggara, Maluku","Kabupaten Maluku Tenggara, Maluku",MALUKU,,Indonesia,,,,-58.070.571,1.327.773.117,https://maps.google.com/?cid=0x0:0x4fa8f69c9d016ac3,
cafe,Kios,Sumitro sangaji,"4Q2R+PVX, Mastur Baru, Kec. Kei Kecil Tim., Kabupaten Maluku Tenggara",Kabupaten Maluku Tenggara,MALUKU,,Indonesia,,,,-58.981.294,1.327.922.248,https://maps.google.com/?cid=0x0:0xe2a3cd41886ddcdc,
cafe,Kedai Kopi,K Coffee Lounge,"Menara Kadin Indonesia, Jl. H. R. Rasuna Said No.2-3 Lt. 29, RT.1/RW.2, Kuningan, Kuningan Tim., Kecamatan Setiabudi, Kota Jakarta Selatan, Daerah Khusus Ibukota Jakarta 12950","Jl. H. R. Rasuna Said No.2-3 Lt. 29, RT.1/RW.2, Kuningan, Kuningan Tim., Kecamatan Setiabudi, Kota Jakarta Selatan",MALUKU,12950.0,Indonesia,87788000405.0,,,-62.321.291,1.068.317.575,https://maps.google.com/?cid=0x0:0xde80d75b43967cff,
cafe,Kafe,Lairngangas,"7MP4+67Q, Namar, Kec. Kei Kecil, Kabupaten Maluku Tenggara, Maluku","Kabupaten Maluku Tenggara, Maluku",MALUKU,,Indonesia,,,,-57.140.983,1.326.550.833,https://maps.google.com/?cid=0x0:0xefa0ec03d9e0a9cb,
cafe,Hidangan Laut,Rumah Makan Lor Nidi,"6QFQ+FC, Wain, Kabupaten Maluku Tenggara, Maluku","Kabupaten Maluku Tenggara, Maluku",MALUKU,,Indonesia,82398928868.0,,,-57.761.007,1.327.888.365,https://maps.google.com/?cid=0x0:0x2c427a2f6ea01d54,
cafe,Hidangan Laut,Rumah Makan Hoar Yeu Disuk,"6QFQ+FC, Wain, Kabupaten Maluku Tenggara, Maluku","Kabupaten Maluku Tenggara, Maluku",MALUKU,,Indonesia,,,,-57.764.913,1.327.881.626,https://maps.google.com/?cid=0x0:0x1f4246f0ac9bf883,
cafe,Kedai Kopi,Kopi Dari Hati - Langgur,"Jl. Pelita Pemda, Langgur, Kec. Kei Kecil, Kabupaten Maluku Tenggara, Maluku 97611","Langgur, Kec. Kei Kecil, Kabupaten Maluku Tenggara",MALUKU,97611.0,Indonesia,81234510434.0,,,-565.351,1.327.366.639,https://maps.google.com/?cid=0x0:0xf3cfb3b1f4c7a694,
cafe,Restoran,Kim Kebab Cafe,"Jl. Jend. Sudirman, Kel. Ohoijang Watdek, Kec. Kei Kecil, Kabupaten Maluku Tenggara, Maluku","Kabupaten Maluku Tenggara, Maluku",MALUKU,,Indonesia,,,,-56.499.515,1.327.409.667,https://maps.google.com/?cid=0x0:0xd7f5b243aaf7029,
cafe,Restoran,Violet Caffe  Resto,"8JQP+8W, Ohoililir, Kec. Kei Kecil, Kabupaten Maluku Tenggara, Maluku","Kabupaten Maluku Tenggara, Maluku",MALUKU,,Indonesia,,,,-56.606.324,1.326.370.915,https://maps.google.com/?cid=0x0:0x78022b512ecba8bf,
cafe,Kedai Kopi,CAFE FID TILUS,"8PVF+4MG, Kolser, Kec. Kei Kecil, Kabupaten Maluku Tenggara, Maluku","Kabupaten Maluku Tenggara, Maluku",MALUKU,,Indonesia,85243459896.0,,,-56.571.807,1.327.242.034,https://maps.google.com/?cid=0x0:0xfe6259f95e0b4369,
cafe,Kafe,Mamocha Cafe  Resto,"9P3J+V9, Kel. Ohoijang Watdek, Kec. Kei Kecil, Kabupaten Maluku Tenggara, Maluku","Kabupaten Maluku Tenggara, Maluku",MALUKU,,Indonesia,82199328239.0,,,-56.454.705,1.327.308.736,https://maps.google.com/?cid=0x0:0x88cb1f2751593acc,
cafe,cafe,Kec. Kei Kecil Bar.,"Kabupaten Maluku Tenggara, Maluku","Kabupaten Maluku Tenggara, Maluku",MALUKU,,Indonesia,,,,-58.426.357,1.326.882.652,https://maps.google.com/?cid=0x0:0xb8ee628c1e11e302,
cafe,Toko,RPM,"7M5J+PPV, Dian, Kec. Kei Kecil, Kabupaten Maluku Tenggara, Maluku","Kabupaten Maluku Tenggara, Maluku",MALUKU,,Indonesia,82248663964.0,,,-5.740.626,1.326.817.926,https://maps.google.com/?cid=0x0:0x8dd6a2a4c783af4,
cafe,Kedai Kopi,Frangkois Renfaan,"3MXH+6J6, Madwaer, Kec. Kei Kecil Bar., Kabupaten Maluku Tenggara, Maluku","Kabupaten Maluku Tenggara, Maluku",MALUKU,,Indonesia,,,,-590.197,1.326.790.118,https://maps.google.com/?cid=0x0:0xa559704d9c32e51d,
cafe,Kedai Kopi,JOHANIS .L. RAHAKBAUW,"3MXH+6J6, Madwaer, Kec. Kei Kecil Bar., Kabupaten Maluku Tenggara, Maluku","Kabupaten Maluku Tenggara, Maluku",MALUKU,,Indonesia,,,,-59.022.645,1.326.785.575,https://maps.google.com/?cid=0x0:0x201f3eba0abb4a25,
cafe,Kedai Kopi,Caffe Delima,"8PCQ+Q53, Jl. Kabupaten, Faan, Kec. Kei Kecil, Kabupaten Maluku Tenggara, Maluku","Kabupaten Maluku Tenggara, Maluku",MALUKU,,Indonesia,,,,-56.781.099,1.327.379.308,https://maps.google.com/?cid=0x0:0xab53248d833b99ae,
cafe,Komplek perumahan,Elaar Garara Maluku indonesia,"3QXR+29V, Jl. Ohoi Garara, Selata, Kec. Kei Kecil Tim., Kabupaten Maluku Tenggara, Maluku","Kabupaten Maluku Tenggara, Maluku",MALUKU,,Indonesia,8124828412.0,,,-590.238,132.790.917,https://maps.google.com/?cid=0x0:0x9002e55548fb4390,
cafe,cafe,Miracle Cafe,"7M2V+XX, Dian, Kec. Kei Kecil, Kabupaten Maluku Tenggara, Maluku","Kabupaten Maluku Tenggara, Maluku",MALUKU,,Indonesia,,,,-57.479.654,1.326.954.091,https://maps.google.com/?cid=0x0:0xf70026a479ce972e,
cafe,Kedai Kopi,KEI Coffee Imam Bonjol,"Jl. Imam Bonjol No.68, Menteng, Kec. Menteng, Kota Jakarta Pusat, Daerah Khusus Ibukota Jakarta 10310","Menteng, Kec. Menteng, Kota Jakarta Pusat",MALUKU,10310.0,Indonesia,81295235231.0,,,-61.974.039,1.068.257.892,https://maps.google.com/?cid=0x0:0x7d66835c39af093a,
cafe,Toko bahan makanan,Lina_Market,"7M4P+H38, Dian, Kec. Kei Kecil, Kabupaten Maluku Tenggara, Maluku","Kabupaten Maluku Tenggara, Maluku",MALUKU,,Indonesia,,,,-57.435.955,1.326.852.164,https://maps.google.com/?cid=0x0:0x4ad44ac81908366a,
cafe,Kedai Kopi,Kopi KEI,"8PVR+M2M, Jl. Jend. Sudirman, Langgur, Kec. Kei Kecil, Kabupaten Maluku Tenggara, Maluku 97611","Jl. Jend. Sudirman, Langgur, Kec. Kei Kecil, Kabupaten Maluku Tenggara",MALUKU,97611.0,Indonesia,,,,-56.557.788,1.327.400.414,https://maps.google.com/?cid=0x0:0x1eece6d11a1faee,
cafe,Kedai Kopi,Cafe Jail,"8PXR+H72, Kel. Ohoijang Watdek, Kec. Kei Kecil, Kabupaten Maluku Tenggara, Maluku","Kabupaten Maluku Tenggara, Maluku",MALUKU,,Indonesia,,,,-56.508.966,1.327.405.474,https://maps.google.com/?cid=0x0:0xf75d3123c13ac165,
cafe,Rumah wisata,Rumah Bhiox  Ella Remetwa,"3MPX+X6C, Ohoidertutu, Kec. Kei Kecil Bar., Kabupaten Maluku Tenggara, Maluku","Kabupaten Maluku Tenggara, Maluku",MALUKU,,Indonesia,,,,-59.130.094,1.326.979.807,https://maps.google.com/?cid=0x0:0x30881ea66c93d2e9,
cafe,Restoran,KEI STORY CAFFE  RESTO,"Samping Masjid Al-Farizi, Jl. Baldu Wahadat, Tual, Pulau Dullah Sel., Kota Tual, Maluku 97611","Jl. Baldu Wahadat, Tual, Pulau Dullah Sel., Kota Tual",MALUKU,97611.0,Indonesia,82111117383.0,,,-56.217.554,1.327.511.068,https://maps.google.com/?cid=0x0:0xf48c591261a66934,
cafe,Kedai Kopi,K Coffee Lounge,"Menara Kadin Indonesia, Jl. H. R. Rasuna Said No.2-3 Lt. 29, RT.1/RW.2, Kuningan, Kuningan Tim., Kecamatan Setiabudi, Kota Jakarta Selatan, Daerah Khusus Ibukota Jakarta 12950","Jl. H. R. Rasuna Said No.2-3 Lt. 29, RT.1/RW.2, Kuningan, Kuningan Tim., Kecamatan Setiabudi, Kota Jakarta Selatan",MALUKU,12950.0,Indonesia,87788000405.0,,,-62.321.291,1.068.317.575,https://maps.google.com/?cid=0x0:0xde80d75b43967cff,
cafe,Restoran,The Malinan Kei Islands Resto and Cafe,"Jl. Raya Merdeka, Kel. Ohoijang Watdek, Kec. Kei Kecil, Kabupaten Maluku Tenggara, Maluku","Kabupaten Maluku Tenggara, Maluku",MALUKU,,Indonesia,81289094253.0,,,-56.462.414,1.327.393.326,https://maps.google.com/?cid=0x0:0x13f8227fc228798a,
cafe,Tujuan Wisata,Ngur Vat Namsir Ohoi Wab,"5MWP+7J6, Wab, Kec. Kei Kecil, Kabupaten Maluku Tenggara, Maluku","Kabupaten Maluku Tenggara, Maluku",MALUKU,,Indonesia,81288643786.0,,,-58.043.379,1.326.865.052,https://maps.google.com/?cid=0x0:0xf4321622d5d6c2dd,
cafe,Komplek perumahan,Rumah ibu guru janiba,"6MXJ+9QJ, Tetoat, Kec. Kei Kecil, Kabupaten Maluku Tenggara, Maluku","Kabupaten Maluku Tenggara, Maluku",MALUKU,,Indonesia,,,,-57.514.827,1.326.832.269,https://maps.google.com/?cid=0x0:0xc745678f9fb0125,
cafe,Kedai Kopi,Muhammad Ashraf Esomar,"5QVG+5W3, Jl. Kabupaten, Wain, Kec. Kei Kecil Tim., Kabupaten Maluku Tenggara, Maluku","Kabupaten Maluku Tenggara, Maluku",MALUKU,,Indonesia,,,,-58.070.571,1.327.773.117,https://maps.google.com/?cid=0x0:0x4fa8f69c9d016ac3,
cafe,Restoran,Violet Caffe  Resto,"8JQP+8W, Ohoililir, Kec. Kei Kecil, Kabupaten Maluku Tenggara, Maluku","Kabupaten Maluku Tenggara, Maluku",MALUKU,,Indonesia,,,,-56.606.324,1.326.370.915,https://maps.google.com/?cid=0x0:0x78022b512ecba8bf,
cafe,Kedai Kopi,New Cafe,"8PJH+68F, Jl. Vita Sari, wearstein, Langgur, Kec. Kei Kecil, Kabupaten Maluku Tenggara, Maluku","Kabupaten Maluku Tenggara, Maluku",MALUKU,,Indonesia,,,,-56.694.355,1.327.283.002,https://maps.google.com/?cid=0x0:0x2868896c4392c108,
cafe,Rumah wisata,Manoa Fishing Camp  Cabanas,"Warbal, Kec. Kei Kecil Bar., Maluku 97615",Kec. Kei Kecil Bar.,MALUKU,97615.0,Indonesia,85394744363.0,,,-58.253.212,1.325.915.806,https://maps.google.com/?cid=0x0:0xa1ed5341d10007a2,
cafe,Kedai Kopi,Kopi Dari Hati - Langgur,"Jl. Pelita Pemda, Langgur, Kec. Kei Kecil, Kabupaten Maluku Tenggara, Maluku 97611","Langgur, Kec. Kei Kecil, Kabupaten Maluku Tenggara",MALUKU,97611.0,Indonesia,81234510434.0,,,-565.351,1.327.366.639,https://maps.google.com/?cid=0x0:0xf3cfb3b1f4c7a694,
cafe,cafe,Maluku 97611,"Fiditan, Kec. Pulau Dullah Utara, Kota Tual, Maluku","Kota Tual, Maluku",MALUKU,,Indonesia,,,,-56.405.597,1.327.437.118,https://maps.google.com/?cid=0x0:0x3f6a1cf664874ad3,
cafe,Kafe,Mamocha Cafe  Resto,"9P3J+V9, Kel. Ohoijang Watdek, Kec. Kei Kecil, Kabupaten Maluku Tenggara, Maluku","Kabupaten Maluku Tenggara, Maluku",MALUKU,,Indonesia,82199328239.0,,,-56.454.705,1.327.308.736,https://maps.google.com/?cid=0x0:0x88cb1f2751593acc,
cafe,Kafe,Forganza Resto  Cafe,"Kelanit, Kec. Kei Kecil, Kabupaten Maluku Tenggara, Maluku","Kabupaten Maluku Tenggara, Maluku",MALUKU,,Indonesia,82231789845.0,,,-56.575.049,1.327.029.619,https://maps.google.com/?cid=0x0:0x35e7e74d6d2279bc,
cafe,Martabak,Martabak koba,"9P5V+WHC, Jl. Pattimura, Fiditan, Kec. Pulau Dullah Utara, Kota Tual, Maluku","Kota Tual, Maluku",MALUKU,,Indonesia,81242603923.0,,,-56.401.948,1.327.438.895,https://maps.google.com/?cid=0x0:0xd99828b2bb1e67b0,
cafe,Mi,Warung Sate Kiyom,"9P6V+8FJ, Fiditan, Kec. Pulau Dullah Utara, Kota Tual, Maluku","Kota Tual, Maluku",MALUKU,,Indonesia,,,,-56.391.662,1.327.436.517,https://maps.google.com/?cid=0x0:0xa778434ff5dce2d8,
cafe,Rumah Makan,Restauran,"Jl.Mis Raudha, Fiditan, Kec. Pulau Dullah Utara, Kota Tual, Maluku 97611","Fiditan, Kec. Pulau Dullah Utara, Kota Tual",MALUKU,97611.0,Indonesia,85243534465.0,,,-56.405.597,1.327.437.118,https://maps.google.com/?cid=0x0:0x6ccd36f54c9aaa00,
cafe,cafe,The circle coffe,"Perumnas jl mujair, RT.004/rw04, Kel. Ohoijang Watdek, Kec. Kei Kecil, Kota Tual, Maluku 97611","RT.004/rw04, Kel. Ohoijang Watdek, Kec. Kei Kecil, Kota Tual",MALUKU,97611.0,Indonesia,81295495293.0,,,-56.405.597,1.327.437.118,https://maps.google.com/?cid=0x0:0xd52567348b955c6,
cafe,Rumah Makan,warung ibu yuni,"02, 14, Kota Tual, Maluku 97611","14, Kota Tual",MALUKU,97611.0,Indonesia,82343395983.0,,,-5.640.518,1.327.437.793,https://maps.google.com/?cid=0x0:0x22c9d76f63e075ef,
cafe,Indonesia,MIE AYAM KIOM(PAKDE TO),"9P6V+46F, Fiditan, Kec. Pulau Dullah Utara, Kota Tual, Maluku","Kota Tual, Maluku",MALUKU,,Indonesia,,,,-5.639.686,1.327.430.313,https://maps.google.com/?cid=0x0:0x5fb2a62a969122da,
cafe,Komplek perumahan,Lorong citra,"9QG3+GHC, Unnamed Road, Kel. Lodar El, Pulau Dullah Sel., Kota Tual, Maluku","Kota Tual, Maluku",MALUKU,,Indonesia,85223305750.0,,,-56.236.926,132.753.902,https://maps.google.com/?cid=0x0:0x85d88c64c8a8af03,
cafe,Restoran,Galojo Food Eatery,"9P6V+6J5 Kompleks Banda Eli, Belakang Toko Ina (Al-Aqsa, Jl. Pattimura, Kel. Ketsoblak, Pulau Dullah Sel., Kota Tual, Maluku","Kota Tual, Maluku",MALUKU,,Indonesia,,,,-56.394.923,1.327.441.055,https://maps.google.com/?cid=0x0:0xbfc88c871a2745ca,
cafe,Dapur Umum,Soto Daging Bude Warni,"9P6V+8H6, Jl. Pattimura, Fiditan, Kec. Pulau Dullah Utara, Kota Tual, Maluku","Kota Tual, Maluku",MALUKU,,Indonesia,,,,-5.639.208,1.327.438.975,https://maps.google.com/?cid=0x0:0x3361067677aa47d5,
cafe,Kedai Kopi,Rumah Kopi Sibu Sibu,"852J+V96, Said Perintah, Kel Ahusen, Kec. Sirimau, Kota Ambon, Maluku","Kota Ambon, Maluku",MALUKU,,Indonesia,,,,-36.978.326,1.281.808.936,https://maps.google.com/?cid=0x0:0x7ea4fc8102835ef2,
cafe,Kedai Kopi,In Cima,"Jl. Pemuda No.31, RT.8/RW.4, Rawamangun, Kec. Pulo Gadung, Kota Jakarta Timur, Daerah Khusus Ibukota Jakarta 13220","RT.8/RW.4, Rawamangun, Kec. Pulo Gadung, Kota Jakarta Timur",MALUKU,13220.0,Indonesia,85183019239.0,,,-61.931.031,1.068.855.755,https://maps.google.com/?cid=0x0:0xc13b8b4b54b839f5,
cafe,Kafe,KOPI TRADISI JOAS,"jl, Said Perintah No.40, Kel Ahusen, Kec. Sirimau, Kota Ambon, Maluku","Kota Ambon, Maluku",MALUKU,,Indonesia,911341518.0,,,-36.973.402,1.281.812.427,https://maps.google.com/?cid=0x0:0xf858153270a25ae0,
cafe,Indonesia,Warung bakso sonah,"Fiditan, Kec. Pulau Dullah Utara, Kabupaten Maluku Tenggara, Maluku 97611","Kec. Pulau Dullah Utara, Kabupaten Maluku Tenggara",MALUKU,97611.0,Indonesia,,,,-56.405.597,1.327.437.118,https://maps.google.com/?cid=0x0:0xcf698fa4d3a2cca7,
cafe,Restoran,The Malinan Kei Islands Resto and Cafe,"Jl. Raya Merdeka, Kel. Ohoijang Watdek, Kec. Kei Kecil, Kabupaten Maluku Tenggara, Maluku","Kabupaten Maluku Tenggara, Maluku",MALUKU,,Indonesia,81289094253.0,,,-56.462.414,1.327.393.326,https://maps.google.com/?cid=0x0:0x13f8227fc228798a,
cafe,Kedai Kopi,Matalawang.co - Coffee  Eatery -,"MXW8+MF5, Jl Kali Durian, Namaelo, Kec. Kota Masohi, Kabupaten Maluku Tengah, Maluku 97511","Jl Kali Durian, Namaelo, Kec. Kota Masohi, Kabupaten Maluku Tengah",MALUKU,97511.0,Indonesia,82198941992.0,,,-33.035.012,128.966.264,https://maps.google.com/?cid=0x0:0xf820018fea300d3f,
cafe,Kafe,Midway coffee,"Jl. Imam Bonjol No.34, Kel Ahusen, Kec. Sirimau, Kota Ambon, Maluku","Kota Ambon, Maluku",MALUKU,,Indonesia,,,,-36.990.598,1.281.817.899,https://maps.google.com/?cid=0x0:0x6f9c3ea9eec25f82,
cafe,Restoran,Wailela Cafe and Resto | Ambon,"Jl. Kampus, Rumah Tiga, Kec. Tlk. Ambon, Kota Ambon, Maluku","Kota Ambon, Maluku",MALUKU,,Indonesia,82399522113.0,,,-36.610.624,128.180.609,https://maps.google.com/?cid=0x0:0x3acbc85ce4ef2d6d,
cafe,Kafe,D'jasmine,"PX28+544, Namaelo, Kec. Kota Masohi, Kabupaten Maluku Tengah, Maluku","Kabupaten Maluku Tengah, Maluku",MALUKU,,Indonesia,,,,-32.998.616,1.289.655.154,https://maps.google.com/?cid=0x0:0x4628584df1e9eec4,
cafe,Kafe,INFINITY CAFE  EATERY,"85CV+M7G, Pandan Kasturi, Kec. Sirimau, Kota Ambon, Maluku","Kota Ambon, Maluku",MALUKU,,Indonesia,81241568878.0,,,-36.783.317,1.281.931.931,https://maps.google.com/?cid=0x0:0x619ec9a16acc810f,
cafe,cafe,Kec. Manyeuw,"Kabupaten Maluku Tenggara, Maluku","Kabupaten Maluku Tenggara, Maluku",MALUKU,,Indonesia,,,,-56.965.194,1.326.541.753,https://maps.google.com/?cid=0x0:0x759039d1fd6358e2,
cafe,Rumah Makan,Puri Kencana Cafe,"Jl.Langgur Kolser, Komplex Jl. Vita Sari, Langgur, Maluku 97611","Komplex Jl. Vita Sari, Langgur",MALUKU,97611.0,Indonesia,,,,-56.666.044,1.327.245.779,https://maps.google.com/?cid=0x0:0x4fbdcbdf867abeea,
cafe,Kafe,Fortuna Resto  Cafe,"Jl. Jend. Sudirman, Langgur, Kec. Kei Kecil, Kabupaten Maluku Tenggara, Maluku 97611","Langgur, Kec. Kei Kecil, Kabupaten Maluku Tenggara",MALUKU,97611.0,Indonesia,81330123455.0,,,-56.551.943,132.740.084,https://maps.google.com/?cid=0x0:0xe1ae8643652b5b1a,
cafe,Restoran,Charlie Restaurant,"9M76+2V9, JL. Jend Sudirman, Watdek Ohoiyong, Kei Kecil, Ohoidertawun, Tual, Kabupaten Maluku Tenggara, Maluku 97611","JL. Jend Sudirman, Watdek Ohoiyong, Kei Kecil, Ohoidertawun, Tual, Kabupaten Maluku Tenggara",MALUKU,97611.0,Indonesia,91621456.0,,,-5.637.468,13.266.223,https://maps.google.com/?cid=0x0:0xcde12a45c42e94b6,
cafe,Kedai Kopi,Kopi KEI,"8PVR+M2M, Jl. Jend. Sudirman, Langgur, Kec. Kei Kecil, Kabupaten Maluku Tenggara, Maluku 97611","Jl. Jend. Sudirman, Langgur, Kec. Kei Kecil, Kabupaten Maluku Tenggara",MALUKU,97611.0,Indonesia,,,,-56.557.788,1.327.400.414,https://maps.google.com/?cid=0x0:0x1eece6d11a1faee,
cafe,Rumah Makan,RUMAH MAKAN MINANG SAKATO,"langgur, Jalan hotel, Langgur, Kec. Kei Kecil, Kabupaten Maluku Tenggara, Maluku 97611","Jalan hotel, Langgur, Kec. Kei Kecil, Kabupaten Maluku Tenggara",MALUKU,97611.0,Indonesia,81344507693.0,,,-5.672.058,1.327.356.282,https://maps.google.com/?cid=0x0:0xad310f072b6b249c,
cafe,Dapur Umum,ANGKRINGAN PAPAN ATAS,"Jl. Kabupaten No.12, Langgur, Kec. Kei Kecil, Kabupaten Maluku Tenggara, Maluku 97611","Langgur, Kec. Kei Kecil, Kabupaten Maluku Tenggara",MALUKU,97611.0,Indonesia,82322171450.0,,,-56.709.113,1.327.333.341,https://maps.google.com/?cid=0x0:0xa00217ecca6532c1,
cafe,cafe,Maluku 97611,"Fiditan, Kec. Pulau Dullah Utara, Kota Tual, Maluku","Kota Tual, Maluku",MALUKU,,Indonesia,,,,-56.405.597,1.327.437.118,https://maps.google.com/?cid=0x0:0x3f6a1cf664874ad3,
cafe,Kafe,Forganza Resto  Cafe,"Kelanit, Kec. Kei Kecil, Kabupaten Maluku Tenggara, Maluku","Kabupaten Maluku Tenggara, Maluku",MALUKU,,Indonesia,82231789845.0,,,-56.575.049,1.327.029.619,https://maps.google.com/?cid=0x0:0x35e7e74d6d2279bc,
cafe,Martabak,Martabak koba,"9P5V+WHC, Jl. Pattimura, Fiditan, Kec. Pulau Dullah Utara, Kota Tual, Maluku","Kota Tual, Maluku",MALUKU,,Indonesia,81242603923.0,,,-56.401.948,1.327.438.895,https://maps.google.com/?cid=0x0:0xd99828b2bb1e67b0,
cafe,Mi,Warung Sate Kiyom,"9P6V+8FJ, Fiditan, Kec. Pulau Dullah Utara, Kota Tual, Maluku","Kota Tual, Maluku",MALUKU,,Indonesia,,,,-56.391.662,1.327.436.517,https://maps.google.com/?cid=0x0:0xa778434ff5dce2d8,
cafe,Kafe,Four Palms Cafe,"Jl. Raja, Halong, Baru Atas, Kota Ambon, Maluku","Kota Ambon, Maluku",MALUKU,,Indonesia,811470599.0,,,-36.551.658,1.282.342.334,https://maps.google.com/?cid=0x0:0x3116d9e359ad016b,
cafe,Rumah Makan,Restauran,"Jl.Mis Raudha, Fiditan, Kec. Pulau Dullah Utara, Kota Tual, Maluku 97611","Fiditan, Kec. Pulau Dullah Utara, Kota Tual",MALUKU,97611.0,Indonesia,85243534465.0,,,-56.405.597,1.327.437.118,https://maps.google.com/?cid=0x0:0x6ccd36f54c9aaa00,
cafe,Kafe,KOPI TRADISI JOAS,"jl, Said Perintah No.40, Kel Ahusen, Kec. Sirimau, Kota Ambon, Maluku","Kota Ambon, Maluku",MALUKU,,Indonesia,911341518.0,,,-36.973.402,1.281.812.427,https://maps.google.com/?cid=0x0:0xf858153270a25ae0,
cafe,Restoran,Galojo Food Eatery,"9P6V+6J5 Kompleks Banda Eli, Belakang Toko Ina (Al-Aqsa, Jl. Pattimura, Kel. Ketsoblak, Pulau Dullah Sel., Kota Tual, Maluku","Kota Tual, Maluku",MALUKU,,Indonesia,,,,-56.394.923,1.327.441.055,https://maps.google.com/?cid=0x0:0xbfc88c871a2745ca,
cafe,Indonesia,MIE AYAM KIOM(PAKDE TO),"9P6V+46F, Fiditan, Kec. Pulau Dullah Utara, Kota Tual, Maluku","Kota Tual, Maluku",MALUKU,,Indonesia,,,,-5.639.686,1.327.430.313,https://maps.google.com/?cid=0x0:0x5fb2a62a969122da,
cafe,Kafe,AKROPOLIS CAFE,"M975+WJJ, Waimital, Kec. Kairatu, Kabupaten Seram Bagian Barat, Maluku","Kabupaten Seram Bagian Barat, Maluku",MALUKU,,Indonesia,,,,-33.362.513,1.283.571.049,https://maps.google.com/?cid=0x0:0x70426270c10cdd92,
cafe,Komplek perumahan,Lorong citra,"9QG3+GHC, Unnamed Road, Kel. Lodar El, Pulau Dullah Sel., Kota Tual, Maluku","Kota Tual, Maluku",MALUKU,,Indonesia,85223305750.0,,,-56.236.926,132.753.902,https://maps.google.com/?cid=0x0:0x85d88c64c8a8af03,
cafe,Rumah Makan,warung ibu yuni,"02, 14, Kota Tual, Maluku 97611","14, Kota Tual",MALUKU,97611.0,Indonesia,82343395983.0,,,-5.640.518,1.327.437.793,https://maps.google.com/?cid=0x0:0x22c9d76f63e075ef,
cafe,Dapur Umum,Soto Daging Bude Warni,"9P6V+8H6, Jl. Pattimura, Fiditan, Kec. Pulau Dullah Utara, Kota Tual, Maluku","Kota Tual, Maluku",MALUKU,,Indonesia,,,,-5.639.208,1.327.438.975,https://maps.google.com/?cid=0x0:0x3361067677aa47d5,
cafe,Kafe,Cafe Borero,"Jl. Pusaka No.01, Tomagoba, Tidore, Kota Tidore Kepulauan, Maluku Utara","Kota Tidore Kepulauan, Maluku Utara",MALUKU,,Indonesia,82190003033.0,,,0.6670624,1.274.437.836,https://maps.google.com/?cid=0x0:0x3f263fe72bae3896,
cafe,Kedai Kopi,Rumah Kopi Sibu Sibu,"852J+V96, Said Perintah, Kel Ahusen, Kec. Sirimau, Kota Ambon, Maluku","Kota Ambon, Maluku",MALUKU,,Indonesia,,,,-36.978.326,1.281.808.936,https://maps.google.com/?cid=0x0:0x7ea4fc8102835ef2,
cafe,Indonesia,Warung bakso sonah,"Fiditan, Kec. Pulau Dullah Utara, Kabupaten Maluku Tenggara, Maluku 97611","Kec. Pulau Dullah Utara, Kabupaten Maluku Tenggara",MALUKU,97611.0,Indonesia,,,,-56.405.597,1.327.437.118,https://maps.google.com/?cid=0x0:0xcf698fa4d3a2cca7,
cafe,cafe,TB Caf√©,"6PXG+GV3, Letvuan, Kec. Hoat Sorbay, Kabupaten Maluku Tenggara, Maluku","Kabupaten Maluku Tenggara, Maluku",MALUKU,,Indonesia,,,,-57.512.454,1.327.271.588,https://maps.google.com/?cid=0x0:0xd6feb54e943a0fea,
cafe,cafe,Kec. Hoat Sorbay,"Kabupaten Maluku Tenggara, Maluku","Kabupaten Maluku Tenggara, Maluku",MALUKU,,Indonesia,,,,-57.625.705,1.327.020.733,https://maps.google.com/?cid=0x0:0x34afb92b49352bf1,
cafe,Padang,Rumah Makan JUKU,"Ohoi, Langgur, Maluku 97611",Langgur,MALUKU,97611.0,Indonesia,85255963542.0,,,-57.826.474,1.327.808.352,https://maps.google.com/?cid=0x0:0x7b2227686e53ddfe,
cafe,cafe,Hoat Sorbay,"7M2P+G36, Unnamed Road, Dian, Kec. Kei Kecil, Kabupaten Maluku Tenggara, Maluku","Kabupaten Maluku Tenggara, Maluku",MALUKU,,Indonesia,,,,-57.487.039,1.326.851.257,https://maps.google.com/?cid=0x0:0xeda379cd15ed97c7,
cafe,cafe,Pulau Kei Besar,"Kabupaten Maluku Tenggara, Maluku","Kabupaten Maluku Tenggara, Maluku",MALUKU,,Indonesia,,,,-55.588.997,1.330.777.555,https://maps.google.com/?cid=0x0:0xabb0e5e302e13003,
