Category,Real Category,Business Name,Address,City,State,Postal Code,Country,Phone,Latitude,Longitude,Map Link
cafe,cafe,Kaimana,"Kaimana Kota, Kec. Kaimana, Kabupaten Kaimana, Papua Bar.","Kabupaten Kaimana, Papua Bar.",PAPUA BARAT,,Indonesia,,-3.660.925,133.774.506,https://maps.google.com/?cid=0x0:0x387f57dde54e3d47
cafe,Kedai Kopi,lokasi emawa kaimana papua barat,"8QQF+JRC, Kaimana Kota, Emawa, Kabupaten Kaimana, Papua Bar.","Kabupaten Kaimana, Papua Bar.",PAPUA BARAT,,Indonesia,,-3.660.925,133.774.506,https://maps.google.com/?cid=0x0:0x14a52e918c497d4a
cafe,Kedai Kopi,Kopi Janji Jiwa Kaimana,"Jl. Sapta Taruna, Kroy, Kec. Kaimana, Kabupaten Kaimana, Papua Bar. 98113","Kroy, Kec. Kaimana, Kabupaten Kaimana",PAPUA BARAT,98113.0,Indonesia,81248287270,-36.425.167,1.337.371.151,https://maps.google.com/?cid=0x0:0xbdcd1a5e44c5261d
cafe,Kedai Kopi,One up,"Jl. Casuarina No.Rt12, Kroy, Kec. Kaimana, Kabupaten Kaimana, Papua Bar. 98654","Kroy, Kec. Kaimana, Kabupaten Kaimana",PAPUA BARAT,98654.0,Indonesia,,-3.642.571,1.337.423.836,https://maps.google.com/?cid=0x0:0xa4239058fc50f232
cafe,Kedai Kopi,Focebook Cafe,"8QH7+P94, Jl. Diponegoro, Kaimana Kota, Kec. Kaimana, Kabupaten Kaimana, Papua Bar. 98113","Jl. Diponegoro, Kaimana Kota, Kec. Kaimana, Kabupaten Kaimana",PAPUA BARAT,98113.0,Indonesia,8114796067,-36.707.487,1.337.634.603,https://maps.google.com/?cid=0x0:0xa0d94e4234a03704
cafe,Kafe,Naff,"8QQF+JRC, Kaimana Kota, Kec. Kaimana, Kabupaten Kaimana, Papua Bar. 98654","Kaimana Kota, Kec. Kaimana, Kabupaten Kaimana",PAPUA BARAT,98654.0,Indonesia,85219605104,-3.660.925,133.774.506,https://maps.google.com/?cid=0x0:0x45962bd61856fa3a
cafe,Padang,CV. Bundo,"8QQF+JRC, JL Nowari, Kaimana Kota, Kec. Kaimana, Kabupaten Kaimana, Papua Bar. 98654","JL Nowari, Kaimana Kota, Kec. Kaimana, Kabupaten Kaimana",PAPUA BARAT,98654.0,Indonesia,95721726,-3.660.925,133.774.506,https://maps.google.com/?cid=0x0:0xf25742dc4455894c
cafe,Kedai Kopi,Teras cafe,"Jl. Utarom, Kroy, Kec. Kaimana, Kabupaten Kaimana, Papua Bar. 98654","Kroy, Kec. Kaimana, Kabupaten Kaimana",PAPUA BARAT,98654.0,Indonesia,,-3.645.838,1.337.432.801,https://maps.google.com/?cid=0x0:0x43ce31380c74b827
cafe,Hidangan Laut,Cafe AA  RESTO,"9P4P+8JM, Jl. Sapta Taruna, Kroy, Kec. Kaimana, Kabupaten Kaimana, Papua Bar. 98654","Jl. Sapta Taruna, Kroy, Kec. Kaimana, Kabupaten Kaimana",PAPUA BARAT,98654.0,Indonesia,,-36.441.503,1.337.365.377,https://maps.google.com/?cid=0x0:0xf28ffc36be4d6dae
cafe,Kafe,Yos Cafe Kaimana,"Jl. Batu Putih Krooy - Kaimana, Kabupaten Kaimana, Papua Bar. 98113",Kabupaten Kaimana,PAPUA BARAT,98113.0,Indonesia,81248660483,-36.537.394,1.337.590.655,https://maps.google.com/?cid=0x0:0xbcf94e23ad149c91
cafe,Kafe,Kedai Dijiku,"Jl. Batu Putih Krooy - Kaimana, Kroy, Kec. Kaimana, Kabupaten Kaimana, Papua Bar. 98654","Kroy, Kec. Kaimana, Kabupaten Kaimana",PAPUA BARAT,98654.0,Indonesia,81228899902,-36.398.098,1.337.447.316,https://maps.google.com/?cid=0x0:0xeae4c57c95b30b01
cafe,Kafe,Sasuka TeaBoba Kaimana,"8QP8+V8R, Jl. Cendrawasih, Kaimana Kota, Kec. Kaimana, Kabupaten Kaimana, Papua Bar. 98654","Jl. Cendrawasih, Kaimana Kota, Kec. Kaimana, Kabupaten Kaimana",PAPUA BARAT,98654.0,Indonesia,85254254256,-36.627.594,1.337.657.705,https://maps.google.com/?cid=0x0:0xe1e5a0392426b663
cafe,Kedai Kopi,imran l family,"9Q33+GC4, Kroy, Kec. Kaimana, Kabupaten Kaimana, Papua Bar. 98654","Kroy, Kec. Kaimana, Kabupaten Kaimana",PAPUA BARAT,98654.0,Indonesia,82238466616,-36.462.474,1.337.535.685,https://maps.google.com/?cid=0x0:0x3d634ed385bcd98b
cafe,Rumah Makan,Kerooy,"8QPH+9RC, Kaimana Kota, Kec. Kaimana, Kabupaten Kaimana, Papua Bar.","Kabupaten Kaimana, Papua Bar.",PAPUA BARAT,,Indonesia,,-36.640.516,1.337.795.218,https://maps.google.com/?cid=0x0:0x9b1b1aeba43ae3ae
cafe,cafe,Papua Bar. 98653,"Kabupaten Kaimana, Papua Bar.","Kabupaten Kaimana, Papua Bar.",PAPUA BARAT,,Indonesia,,-32.329.855,1.338.673.222,https://maps.google.com/?cid=0x0:0x27db0a5d46075bbf
cafe,Kedai Kopi,Smile cafe,"Jl. Utarum - Pasir Lombo Kaimana, Kroy, Kec. Kaimana, Kabupaten Kaimana, Papua Bar. 98654","Kroy, Kec. Kaimana, Kabupaten Kaimana",PAPUA BARAT,98654.0,Indonesia,81343153249,-35.830.524,1.340.199.152,https://maps.google.com/?cid=0x0:0x8e6640a63f042fae
cafe,Komplek perumahan,RKT,"VJ8W+73W, Ukiara, Kec. Arguni Bawah, Kabupaten Kaimana, Papua Bar.","Kabupaten Kaimana, Papua Bar.",PAPUA BARAT,,Indonesia,,-31.342.581,1.336.452.173,https://maps.google.com/?cid=0x0:0x54c75afa78fc2bc9
cafe,Kedai Kopi,Kohwa Coffeehouse,"Jl. Pajajaran No.105, Pamulang Bar., Kec. Pamulang, Kota Tangerang Selatan, Banten 15417","Pamulang Bar., Kec. Pamulang, Kota Tangerang Selatan",PAPUA BARAT,15417.0,Indonesia,,-63.379.228,1.067.392.125,https://maps.google.com/?cid=0x0:0x954ef79bd590349c
cafe,Kedai Kopi,kopi.yaw pamulang,"Jl. Mede No.1, Pamulang Bar., Kec. Pamulang, Kota Tangerang Selatan, Banten 15417","Pamulang Bar., Kec. Pamulang, Kota Tangerang Selatan",PAPUA BARAT,15417.0,Indonesia,81545780569,-63.451.521,1.067.382.216,https://maps.google.com/?cid=0x0:0xd0eaa133ec4b4ac9
cafe,Hidangan Laut,Kaita Cafe  Gallery,"Tj. Ria, Kec. Jayapura Utara, Kota Jayapura, Papua 99117","Kec. Jayapura Utara, Kota Jayapura",PAPUA BARAT,99117.0,Indonesia,82198055571,-25.035.506,1.407.169.244,https://maps.google.com/?cid=0x0:0xc4945c6f20f301b7
cafe,cafe,,,,PAPUA BARAT,,Indonesia,,,,https://maps.google.com/?cid=0x0:0xc4945c6f20f301b7u0026onu003dEs+Kacang+Merahu0026midu003d/g/11f77vtq28
cafe,cafe,,,,PAPUA BARAT,,Indonesia,,,,https://maps.google.com/?cid=0x0:0xc4945c6f20f301b7u0026onu003dPisang+Goreng+Sambalu0026midu003d/g/11f77vtq28
cafe,cafe,,,,PAPUA BARAT,,Indonesia,,,,https://maps.google.com/?cid=0x0:0xc4945c6f20f301b7u0026onu003dKelapa+Muda+Es+Gulmeru0026midu003d/g/11f77vtq28
cafe,cafe,,,,PAPUA BARAT,,Indonesia,,,,https://maps.google.com/?cid=0x0:0xc4945c6f20f301b7u0026onu003dIce+Thailandu0026midu003d/g/11f77vtq28
cafe,cafe,,,,PAPUA BARAT,,Indonesia,,,,https://maps.google.com/?cid=0x0:0xc4945c6f20f301b7u0026onu003dMie+Cakalang+%26+Es+Thailandu0026midu003d/g/11f77vtq28
cafe,cafe,,,,PAPUA BARAT,,Indonesia,,,,https://maps.google.com/?cid=0x0:0xc4945c6f20f301b7u0026onu0026midu003d/g/11f77vtq28
cafe,cafe,Tlk. Etna,"Kabupaten Kaimana, Papua Bar.","Kabupaten Kaimana, Papua Bar.",PAPUA BARAT,,Indonesia,,-39.868.089,1.347.381.432,https://maps.google.com/?cid=0x0:0xb9e6f1db5d0447e6
cafe,cafe,Papua Bar. 98656,"Buruway, Kabupaten Kaimana, Papua Bar.","Kabupaten Kaimana, Papua Bar.",PAPUA BARAT,,Indonesia,,-37.507.575,1.332.521.507,https://maps.google.com/?cid=0x0:0x8b763fe972a9d5c7
cafe,cafe,Cafe The Winner,"8PQ8+32W, Jl. Utarum Air Merah, Kroy, Kec. Kaimana, Kabupaten Kaimana, Papua Bar. 98654","Jl. Utarum Air Merah, Kroy, Kec. Kaimana, Kabupaten Kaimana",PAPUA BARAT,98654.0,Indonesia,,-3.661.575,133.715.559,https://maps.google.com/?cid=0x0:0xe9326ee1b77d53c6
cafe,Kafe,Cafe Sunrise,"8PQ8+32W, Jl. Utarum Air Merah, Kroy, Kec. Kaimana, Kabupaten Kaimana, Papua Bar. 98654","Jl. Utarum Air Merah, Kroy, Kec. Kaimana, Kabupaten Kaimana",PAPUA BARAT,98654.0,Indonesia,81240368334,-36.617.978,1.337.150.123,https://maps.google.com/?cid=0x0:0x495de35a6f35aa43
cafe,Kafe,Kedai Kopi Toraja Kaimana,"8PQ9+GJ3, Kroy, Kec. Kaimana, Kabupaten Kaimana, Papua Bar. 98654","Kroy, Kec. Kaimana, Kabupaten Kaimana",PAPUA BARAT,98654.0,Indonesia,,-36.612.475,1.337.190.375,https://maps.google.com/?cid=0x0:0x9c92e7df9729b68c
cafe,Kedai Kopi,Kopi Janji Jiwa Kaimana,"Jl. Sapta Taruna, Kroy, Kec. Kaimana, Kabupaten Kaimana, Papua Bar. 98113","Kroy, Kec. Kaimana, Kabupaten Kaimana",PAPUA BARAT,98113.0,Indonesia,81248287270,-36.425.167,1.337.371.151,https://maps.google.com/?cid=0x0:0xbdcd1a5e44c5261d
cafe,Kafe,Coffe Break Toraja,"8PQC+P9V, Kroy, Kec. Kaimana, Kabupaten Kaimana, Papua Bar. 98654","Kroy, Kec. Kaimana, Kabupaten Kaimana",PAPUA BARAT,98654.0,Indonesia,,-36.606.398,1.337.209.173,https://maps.google.com/?cid=0x0:0x66905f3bb6fc9b7
cafe,Kafe,Yos Cafe Kaimana,"Jl. Batu Putih Krooy - Kaimana, Kabupaten Kaimana, Papua Bar. 98113",Kabupaten Kaimana,PAPUA BARAT,98113.0,Indonesia,81248660483,-36.537.394,1.337.590.655,https://maps.google.com/?cid=0x0:0xbcf94e23ad149c91
cafe,Kafe,Cafe 777,"8PR5+GH3, Bantemin dalam, Kec. Kaimana, Kabupaten Kaimana, Papua Bar. 98654","Bantemin dalam, Kec. Kaimana, Kabupaten Kaimana",PAPUA BARAT,98654.0,Indonesia,,-36.587.317,1.337.089.285,https://maps.google.com/?cid=0x0:0x5c5ebb84cfd24cf2
cafe,Kedai Kopi,Whale Cafe,"Jl. Perindustrian, Kaimana Kota, Kaimana, Kaimana Regency, West Papua","Kabupaten Kaimana, Papua Bar.",PAPUA BARAT,,Indonesia,,-36.646.666,1.337.655.488,https://maps.google.com/?cid=0x0:0x394e47c0232e39bc
cafe,Kafe,Kedai Dijiku,"Jl. Batu Putih Krooy - Kaimana, Kroy, Kec. Kaimana, Kabupaten Kaimana, Papua Bar. 98654","Kroy, Kec. Kaimana, Kabupaten Kaimana",PAPUA BARAT,98654.0,Indonesia,81228899902,-36.398.098,1.337.447.316,https://maps.google.com/?cid=0x0:0xeae4c57c95b30b01
cafe,Kafe,Cafelato,"8QP6+2V3, Jl. Lettu Idrus, Kaimana Kota, Kec. Kaimana, Kabupaten Kaimana, Papua Bar.","Kabupaten Kaimana, Papua Bar.",PAPUA BARAT,,Indonesia,81291415558,-36.649.754,1.337.621.767,https://maps.google.com/?cid=0x0:0x6fc2633ab16d581c
cafe,Kedai Kopi,Teras cafe,"Jl. Utarom, Kroy, Kec. Kaimana, Kabupaten Kaimana, Papua Bar. 98654","Kroy, Kec. Kaimana, Kabupaten Kaimana",PAPUA BARAT,98654.0,Indonesia,,-3.645.838,1.337.432.801,https://maps.google.com/?cid=0x0:0x43ce31380c74b827
cafe,Kedai Kopi,Focebook Cafe,"8QH7+P94, Jl. Diponegoro, Kaimana Kota, Kec. Kaimana, Kabupaten Kaimana, Papua Bar. 98113","Jl. Diponegoro, Kaimana Kota, Kec. Kaimana, Kabupaten Kaimana",PAPUA BARAT,98113.0,Indonesia,8114796067,-36.707.487,1.337.634.603,https://maps.google.com/?cid=0x0:0xa0d94e4234a03704
cafe,Kedai Kopi,Cafe As Karaoke,"9Q42+288 Port Of Kaimana, Kaimana Kota, Kec. Kaimana, Kabupaten Kaimana, Papua Bar. 98654","Kaimana Kota, Kec. Kaimana, Kabupaten Kaimana",PAPUA BARAT,98654.0,Indonesia,81237095550,-36.449.586,1.337.508.287,https://maps.google.com/?cid=0x0:0xb61bc6aeb0304b3f
cafe,cafe,Kec. Arguni Bawah,"Kabupaten Kaimana, Papua Bar.","Kabupaten Kaimana, Papua Bar.",PAPUA BARAT,,Indonesia,,-31.342.581,1.336.452.173,https://maps.google.com/?cid=0x0:0x7e7fb1e1e1adead6
cafe,Kedai Kopi,JNJ Coffee,"Jl. Angkasa Mulyono, Amban, Kec. Manokwari Bar., Kabupaten Manokwari, Papua Bar. 98312","Amban, Kec. Manokwari Bar., Kabupaten Manokwari",PAPUA BARAT,98312.0,Indonesia,81242244544,-0.8430483,1.340.531.361,https://maps.google.com/?cid=0x0:0x2c65a12c2fc56e48
cafe,Kedai Kopi,Monokrom Coffee,"43Q6+CR7, Jl. Kota Raja, Manokwari Bar., Kec. Manokwari Tim., Kabupaten Manokwari, Papua Bar. 98312","Jl. Kota Raja, Manokwari Bar., Kec. Manokwari Tim., Kabupaten Manokwari",PAPUA BARAT,98312.0,Indonesia,,-0.8614531,1.340.620.421,https://maps.google.com/?cid=0x0:0xc23d42bb13a24e55
cafe,cafe,,,,PAPUA BARAT,,Indonesia,,,,https://maps.google.com/?cid=0x0:0x2c65a12c2fc56e48u0026onu0026midu003d/g/11f3y8vrys
cafe,Kantor Administrasi Kota,Distrik kambraw,"JJ37+5XR, Waho, Distrik Kambrau, Kabupaten Kaimana, Papua Bar.","Kabupaten Kaimana, Papua Bar.",PAPUA BARAT,,Indonesia,,-3.397.001,133.614.899,https://maps.google.com/?cid=0x0:0xe00430828d5e54f8
cafe,Kantor Pemerintah,Kantor Distrik Kambrauw,"HHF9+HCQ, Waho, Distrik Kambrau, Kabupaten Kaimana, Papua Bar. 98654","Waho, Distrik Kambrau, Kabupaten Kaimana",PAPUA BARAT,98654.0,Indonesia,,-34.260.441,1.335.686.022,https://maps.google.com/?cid=0x0:0x8ce0157b64947925
cafe,Kedai Kopi,Kopi Kamu Wijaya Jakarta Selatan,"Jl. Wijaya I No.62, RT.9/RW.5, Petogogan, Kec. Kby. Baru, Kota Jakarta Selatan, Daerah Khusus Ibukota Jakarta 12170","RT.9/RW.5, Petogogan, Kec. Kby. Baru, Kota Jakarta Selatan",PAPUA BARAT,12170.0,Indonesia,85121217296,-62.444.568,1.068.094.263,https://maps.google.com/?cid=0x0:0xdd88bc5dbf7fcdba
cafe,Kedai Kopi,Kopi  Kamu,"Jl. RS. Fatmawati Raya No.22, RT.1/RW.1, Cipete Utara, Kec. Kby. Baru, Kota Jakarta Selatan, Daerah Khusus Ibukota Jakarta 12150","RT.1/RW.1, Cipete Utara, Kec. Kby. Baru, Kota Jakarta Selatan",PAPUA BARAT,12150.0,Indonesia,,-62.593.395,106.797.283,https://maps.google.com/?cid=0x0:0xbd71905c6ff241a1
cafe,Kedai Kopi,Kopikalyan Wijaya,"1, Jl. Wijaya IX No.21, RT.4/RW.5, Melawai, Kec. Kby. Baru, Daerah Khusus Ibukota Jakarta 12160","Jl. Wijaya IX No.21, RT.4/RW.5, Melawai, Kec. Kby. Baru",PAPUA BARAT,12160.0,Indonesia,2172120204,-6.248.795,106.803.556,https://maps.google.com/?cid=0x0:0x4f5d905d76006fba
cafe,cafe,Smartcity wifipublik Kewo,"CW2X+GXM Kewo, Akudiomi, Yaur, Kaimana Regency, Papua","Kabupaten Kaimana, Papua",PAPUA BARAT,,Indonesia,,-35.986.543,1.349.499.095,https://maps.google.com/?cid=0x0:0x6759f9e7bbe6e41c
hotel,hotel,Kaimana,"Kaimana Kota, Kec. Kaimana, Kabupaten Kaimana, Papua Bar.","Kabupaten Kaimana, Papua Bar.",PAPUA BARAT,,Indonesia,,-3.660.925,133.774.506,https://maps.google.com/?cid=0x0:0x387f57dde54e3d47
hotel,hotel,Kaimana Beach Hotel,"9P2Q+VWP, Jl. Utarom, Mai Mai, Kec. Kaimana, Kabupaten Kaimana, Papua Bar. 98654","Jl. Utarom, Mai Mai, Kec. Kaimana, Kabupaten Kaimana",PAPUA BARAT,98654.0,Indonesia,82228055551,-36.477.828,1.337.398.156,https://maps.google.com/?cid=0x0:0xb61c6c96053942ee
hotel,hotel,Hotel Grand Papua Kaimana,"Lingkar tanjung simora, Kroy, Kec. Kaimana, Kabupaten Kaimana, Papua Bar. 98654","Kroy, Kec. Kaimana, Kabupaten Kaimana",PAPUA BARAT,98654.0,Indonesia,82248850669,-36.691.103,1.337.028.408,https://maps.google.com/?cid=0x0:0x964de24b7e359ec2
hotel,hotel,Mangga Hotel,"Jl. Bhayangkara No.1, Manokwari Tim., Kec. Manokwari Bar., Kabupaten Manokwari, Papua Bar. 98312","Manokwari Tim., Kec. Manokwari Bar., Kabupaten Manokwari",PAPUA BARAT,98312.0,Indonesia,62986211693,-0.870176,1.340.778.405,https://maps.google.com/?cid=0x0:0x3d2ada72a869c631
hotel,hotel,Kaimana Beach Hotel,"9P2Q+VWP, Jl. Utarom, Mai Mai, Kec. Kaimana, Kabupaten Kaimana, Papua Bar. 98654","Jl. Utarom, Mai Mai, Kec. Kaimana, Kabupaten Kaimana",PAPUA BARAT,98654.0,Indonesia,82228055551,-36.477.828,1.337.398.156,https://maps.google.com/?cid=0x0:0xb61c6c96053942ee
hotel,Taman Kota,KOTA SENJA KAIMANA,"8QR6+29W, Kaimana Kota",,PAPUA BARAT,,Indonesia,81247415430,-36.598.883,1.337.609.606,https://maps.google.com/?cid=0x0:0x916f00145cc4490d
hotel,hotel,Papua Bar. 98653,"Kabupaten Kaimana, Papua Bar.","Kabupaten Kaimana, Papua Bar.",PAPUA BARAT,,Indonesia,,-32.329.855,1.338.673.222,https://maps.google.com/?cid=0x0:0x27db0a5d46075bbf
hotel,hotel,Tlk. Etna,"Kabupaten Kaimana, Papua Bar.","Kabupaten Kaimana, Papua Bar.",PAPUA BARAT,,Indonesia,,-39.868.089,1.347.381.432,https://maps.google.com/?cid=0x0:0xb9e6f1db5d0447e6
hotel,hotel,Kaimana Beach Hotel,"9P2Q+VWP, Jl. Utarom, Mai Mai, Kec. Kaimana, Kabupaten Kaimana, Papua Bar. 98654","Jl. Utarom, Mai Mai, Kec. Kaimana, Kabupaten Kaimana",PAPUA BARAT,98654.0,Indonesia,82228055551,-36.477.828,1.337.398.156,https://maps.google.com/?cid=0x0:0xb61c6c96053942ee
hotel,Taman Kota,KOTA SENJA KAIMANA,"8QR6+29W, Kaimana Kota",,PAPUA BARAT,,Indonesia,81247415430,-36.598.883,1.337.609.606,https://maps.google.com/?cid=0x0:0x916f00145cc4490d
hotel,Hotel,Aeva Resort and Hotel,"5X9H+3M, Saria, Kec. Kaimana, Kabupaten Kaimana, Papua Bar. 98654","Saria, Kec. Kaimana, Kabupaten Kaimana",PAPUA BARAT,98654.0,Indonesia,,-38.322.785,133.979.229,https://maps.google.com/?cid=0x0:0x189eb4ff0d5b4c39
hotel,Hostel,Hotel Nirmala,"8QQ7+M2C, Jl.Brawijaya, Kaimana Kota, Kec. Kaimana, Kabupaten Kaimana, Papua Bar.","Kabupaten Kaimana, Papua Bar.",PAPUA BARAT,,Indonesia,,-36.608.012,1.337.625.189,https://maps.google.com/?cid=0x0:0x43cdc6e1d79ec1d
hotel,Hostel,Hotel Bicari kaimana,"Kaimana Kota, Kec. Kaimana, Kabupaten Kaimana, Papua Bar.","Kabupaten Kaimana, Papua Bar.",PAPUA BARAT,,Indonesia,81248066313,-36.635.072,1.337.617.381,https://maps.google.com/?cid=0x0:0x56943768f4f6c166
hotel,hotel,Triton Bay Divers,"Kaimana Kota, Kec. Kaimana, Kabupaten Kaimana, Papua Bar. 98654","Kec. Kaimana, Kabupaten Kaimana",PAPUA BARAT,98654.0,Indonesia,,-39.367.855,1.341.191.796,https://maps.google.com/?cid=0x0:0xd512b4e98bcddb8e
hotel,Tujuan Wisata,Teluk Triton Kaimana,"5XGV+H4Q, Saria, Kec. Kaimana, Kabupaten Kaimana, Papua Bar. 98654","Saria, Kec. Kaimana, Kabupaten Kaimana",PAPUA BARAT,98654.0,Indonesia,,-38.235.359,1.339.928.543,https://maps.google.com/?cid=0x0:0x368cdd751211be7d
hotel,hotel,Papua Bar. 98656,"Buruway, Kabupaten Kaimana, Papua Bar.","Kabupaten Kaimana, Papua Bar.",PAPUA BARAT,,Indonesia,,-37.507.575,1.332.521.507,https://maps.google.com/?cid=0x0:0x8b763fe972a9d5c7
hotel,hotel,Hotel Grand Papua Kaimana,"Lingkar tanjung simora, Kroy, Kec. Kaimana, Kabupaten Kaimana, Papua Bar. 98654","Kroy, Kec. Kaimana, Kabupaten Kaimana",PAPUA BARAT,98654.0,Indonesia,82248850669,-36.691.103,1.337.028.408,https://maps.google.com/?cid=0x0:0x964de24b7e359ec2
hotel,hotel,Kaimana Beach Hotel,"9P2Q+VWP, Jl. Utarom, Mai Mai, Kec. Kaimana, Kabupaten Kaimana, Papua Bar. 98654","Jl. Utarom, Mai Mai, Kec. Kaimana, Kabupaten Kaimana",PAPUA BARAT,98654.0,Indonesia,82228055551,-36.477.828,1.337.398.156,https://maps.google.com/?cid=0x0:0xb61c6c96053942ee
hotel,hotel,Waisai Beach Hotel (WBH),"Waisai, Kec. Waigeo Sel., Kabupaten Raja Ampat, Papua Bar. 98482","Kec. Waigeo Sel., Kabupaten Raja Ampat",PAPUA BARAT,98482.0,Indonesia,81247553799,-0.4281731,1.308.199.415,https://maps.google.com/?cid=0x0:0x87348b8c39be5af1
hotel,hotel,Kec. Arguni Bawah,"Kabupaten Kaimana, Papua Bar.","Kabupaten Kaimana, Papua Bar.",PAPUA BARAT,,Indonesia,,-31.342.581,1.336.452.173,https://maps.google.com/?cid=0x0:0x7e7fb1e1e1adead6
hotel,hotel,Hotel Grand Papua Kaimana,"Lingkar tanjung simora, Kroy, Kec. Kaimana, Kabupaten Kaimana, Papua Bar. 98654","Kroy, Kec. Kaimana, Kabupaten Kaimana",PAPUA BARAT,98654.0,Indonesia,82248850669,-36.691.103,1.337.028.408,https://maps.google.com/?cid=0x0:0x964de24b7e359ec2
hotel,Taman Kota,KOTA SENJA KAIMANA,"8QR6+29W, Kaimana Kota",,PAPUA BARAT,,Indonesia,81247415430,-36.598.883,1.337.609.606,https://maps.google.com/?cid=0x0:0x916f00145cc4490d
hotel,hotel,Papua Bar. 98654,"Kabupaten Kaimana, Papua Bar.","Kabupaten Kaimana, Papua Bar.",PAPUA BARAT,,Indonesia,,-35.830.524,1.340.199.152,https://maps.google.com/?cid=0x0:0x7ad6c16b837e2fa9
hotel,hotel,Hotel Grand Papua Kaimana,"Lingkar tanjung simora, Kroy, Kec. Kaimana, Kabupaten Kaimana, Papua Bar. 98654","Kroy, Kec. Kaimana, Kabupaten Kaimana",PAPUA BARAT,98654.0,Indonesia,82248850669,-36.691.103,1.337.028.408,https://maps.google.com/?cid=0x0:0x964de24b7e359ec2
hotel,hotel,Kaimana Beach Hotel,"9P2Q+VWP, Jl. Utarom, Mai Mai, Kec. Kaimana, Kabupaten Kaimana, Papua Bar. 98654","Jl. Utarom, Mai Mai, Kec. Kaimana, Kabupaten Kaimana",PAPUA BARAT,98654.0,Indonesia,82228055551,-36.477.828,1.337.398.156,https://maps.google.com/?cid=0x0:0xb61c6c96053942ee
hotel,Taman Kota,KOTA SENJA KAIMANA,"8QR6+29W, Kaimana Kota",,PAPUA BARAT,,Indonesia,81247415430,-36.598.883,1.337.609.606,https://maps.google.com/?cid=0x0:0x916f00145cc4490d
hotel,Hotel,Aeva Resort and Hotel,"5X9H+3M, Saria, Kec. Kaimana, Kabupaten Kaimana, Papua Bar. 98654","Saria, Kec. Kaimana, Kabupaten Kaimana",PAPUA BARAT,98654.0,Indonesia,,-38.322.785,133.979.229,https://maps.google.com/?cid=0x0:0x189eb4ff0d5b4c39
hotel,hotel,Papua Bar. 98655,"Kabupaten Kaimana, Papua Bar.","Kabupaten Kaimana, Papua Bar.",PAPUA BARAT,,Indonesia,,-37.749.476,1.347.756.422,https://maps.google.com/?cid=0x0:0x5d3a1383c4499ff7
hotel,hotel,Mahanaim Hotel dan Homestay Manokwari,"jln trikora kalidingin no 109, Wosi, Kec. Manokwari Bar., Kabupaten Manokwari, Papua Bar. 98312","Wosi, Kec. Manokwari Bar., Kabupaten Manokwari",PAPUA BARAT,98312.0,Indonesia,8124830147,-0.8699305,1.340.471.193,https://maps.google.com/?cid=0x0:0xeec6727952b4f3e6
hotel,hotel,Triton Bay Divers,"Kaimana Kota, Kec. Kaimana, Kabupaten Kaimana, Papua Bar. 98654","Kec. Kaimana, Kabupaten Kaimana",PAPUA BARAT,98654.0,Indonesia,,-39.367.855,1.341.191.796,https://maps.google.com/?cid=0x0:0xd512b4e98bcddb8e
restaurant,restaurant,Kaimana,"Kaimana Kota, Kec. Kaimana, Kabupaten Kaimana, Papua Bar.","Kabupaten Kaimana, Papua Bar.",PAPUA BARAT,,Indonesia,,-3.660.925,133.774.506,https://maps.google.com/?cid=0x0:0x387f57dde54e3d47
restaurant,Kedai Kopi,lokasi emawa kaimana papua barat,"8QQF+JRC, Kaimana Kota, Emawa, Kabupaten Kaimana, Papua Bar.","Kabupaten Kaimana, Papua Bar.",PAPUA BARAT,,Indonesia,,-3.660.925,133.774.506,https://maps.google.com/?cid=0x0:0x14a52e918c497d4a
restaurant,Padang,CV. Bundo,"8QQF+JRC, JL Nowari, Kaimana Kota, Kec. Kaimana, Kabupaten Kaimana, Papua Bar. 98654","JL Nowari, Kaimana Kota, Kec. Kaimana, Kabupaten Kaimana",PAPUA BARAT,98654.0,Indonesia,95721726,-3.660.925,133.774.506,https://maps.google.com/?cid=0x0:0xf25742dc4455894c
restaurant,Ayam,Kaimana,"8QR6+CVX, Jl. Batu Putih Krooy - Kaimana, Kaimana Kota, Kec. Kaimana, Kabupaten Kaimana, Papua Bar. 98654","Jl. Batu Putih Krooy - Kaimana, Kaimana Kota, Kec. Kaimana, Kabupaten Kaimana",PAPUA BARAT,98654.0,Indonesia,,-36.588.761,1.337.622.278,https://maps.google.com/?cid=0x0:0x170a94cf015d8525
restaurant,Padang,Kawan Baru,"9PVH+R38, Kroy, Kec. Kaimana, Kabupaten Kaimana, Papua Bar. 98654","Kroy, Kec. Kaimana, Kabupaten Kaimana",PAPUA BARAT,98654.0,Indonesia,,-36.054.545,1.337.277.162,https://maps.google.com/?cid=0x0:0x43ec1c64b7e2751e
restaurant,restaurant,Warung Tenda Seafood Megaria,"8QQF+JRC, Jl. Utarum - Pasir Lombo Kaimana, Kaimana Kota, Kec. Kaimana, Kabupaten Kaimana, Papua Bar. 98654","Jl. Utarum - Pasir Lombo Kaimana, Kaimana Kota, Kec. Kaimana, Kabupaten Kaimana",PAPUA BARAT,98654.0,Indonesia,,-3.660.925,133.774.506,https://maps.google.com/?cid=0x0:0xaaf01937fcca4f02
restaurant,restaurant,Papua Bar. 98653,"Kabupaten Kaimana, Papua Bar.","Kabupaten Kaimana, Papua Bar.",PAPUA BARAT,,Indonesia,,-32.329.855,1.338.673.222,https://maps.google.com/?cid=0x0:0x27db0a5d46075bbf
restaurant,Kedai Kopi,Smile cafe,"Jl. Utarum - Pasir Lombo Kaimana, Kroy, Kec. Kaimana, Kabupaten Kaimana, Papua Bar. 98654","Kroy, Kec. Kaimana, Kabupaten Kaimana",PAPUA BARAT,98654.0,Indonesia,81343153249,-35.830.524,1.340.199.152,https://maps.google.com/?cid=0x0:0x8e6640a63f042fae
restaurant,restaurant,Mar Selus Yassi,"2GXP+GX9, Onimsari, Bomberay, Kabupaten Fakfak, Papua Bar. 98662","Onimsari, Bomberay, Kabupaten Fakfak",PAPUA BARAT,98662.0,Indonesia,,-295.121,133.537.491,https://maps.google.com/?cid=0x0:0x5739e2fac69806e5
restaurant,restaurant,Papua Bar. 98655,"Kabupaten Kaimana, Papua Bar.","Kabupaten Kaimana, Papua Bar.",PAPUA BARAT,,Indonesia,,-37.749.476,1.347.756.422,https://maps.google.com/?cid=0x0:0x5d3a1383c4499ff7
restaurant,restaurant,KOREAN HALAL RESTAURANT,"Pd. Pucung, Kec. Pd. Aren, Kota Tangerang Selatan, Banten","Kota Tangerang Selatan, Banten",PAPUA BARAT,,Indonesia,,-62.745.114,1.067.076.071,https://maps.google.com/?cid=0x0:0x55de53266ddcf6ac
restaurant,restaurant,Tlk. Etna,"Kabupaten Kaimana, Papua Bar.","Kabupaten Kaimana, Papua Bar.",PAPUA BARAT,,Indonesia,,-39.868.089,1.347.381.432,https://maps.google.com/?cid=0x0:0xb9e6f1db5d0447e6
restaurant,restaurant,Papua Bar. 98656,"Buruway, Kabupaten Kaimana, Papua Bar.","Kabupaten Kaimana, Papua Bar.",PAPUA BARAT,,Indonesia,,-37.507.575,1.332.521.507,https://maps.google.com/?cid=0x0:0x8b763fe972a9d5c7
restaurant,Hidangan Laut,White Stone Resto  Music,"9PVH+68V, Kroy, Kec. Kaimana, Kabupaten Kaimana, Papua Bar. 98654","Kroy, Kec. Kaimana, Kabupaten Kaimana",PAPUA BARAT,98654.0,Indonesia,82199401578,-36.068.836,1.337.282.987,https://maps.google.com/?cid=0x0:0xfe488e19ae5a691
restaurant,Restoran,Warung Bude Murah,"9P4P+MMG, Kroy, Kec. Kaimana, Kabupaten Kaimana, Papua Bar. 98654","Kroy, Kec. Kaimana, Kabupaten Kaimana",PAPUA BARAT,98654.0,Indonesia,,-36.433.138,1.337.367.106,https://maps.google.com/?cid=0x0:0x6d59268ce82a3f1c
restaurant,Hidangan Laut,Rumah Makan Casuarina,"9P5R+776, Kroy, Kec. Kaimana, Kabupaten Kaimana, Papua Bar. 98654","Kroy, Kec. Kaimana, Kabupaten Kaimana",PAPUA BARAT,98654.0,Indonesia,81248904500,-36.418.432,1.337.406.346,https://maps.google.com/?cid=0x0:0xdad667c4f7ff5168
restaurant,Tempat acara,SIMORA RESTAURANT,"8MHV+CC5, Jl. Utarum - Pasir Lombo Kaimana, Kroy, Kec. Kaimana, Kabupaten Kaimana, Papua Bar.","Kabupaten Kaimana, Papua Bar.",PAPUA BARAT,,Indonesia,,-36.714.987,1.336.936.113,https://maps.google.com/?cid=0x0:0xd79d7de802e22b1d
restaurant,Padang,Kawan Baru,"9PVH+R38, Kroy, Kec. Kaimana, Kabupaten Kaimana, Papua Bar. 98654","Kroy, Kec. Kaimana, Kabupaten Kaimana",PAPUA BARAT,98654.0,Indonesia,,-36.054.545,1.337.277.162,https://maps.google.com/?cid=0x0:0x43ec1c64b7e2751e
restaurant,Sulawesi Selatan,Cotto Makassar,"9P3R+58M, Kroy, Kec. Kaimana, Kabupaten Kaimana, Papua Bar. 98654","Kroy, Kec. Kaimana, Kabupaten Kaimana",PAPUA BARAT,98654.0,Indonesia,,-36.470.385,1.337.407.867,https://maps.google.com/?cid=0x0:0xdb1132ac1189a80e
restaurant,Restoran,"Restoran Qity Ronal""""","Jl. Utarum Air Merah, Kroy, Kec. Kaimana, Kabupaten Kaimana, Papua Bar. 98654","Kroy, Kec. Kaimana, Kabupaten Kaimana",PAPUA BARAT,98654.0,Indonesia,85344093555,-36.614.086,1.337.181.346,https://maps.google.com/?cid=0x0:0x95a28a47c4de645
restaurant,Restoran,RM. Dapur Kita,"8PP6+PFQ Samping Polres, Jl. Bantemi Jl. Utarum - Pasir Lombo Kaimana, Kroy, Kec. Kaimana, Kabupaten Kaimana, Papua Bar. 98654","Jl. Bantemi Jl. Utarum - Pasir Lombo Kaimana, Kroy, Kec. Kaimana, Kabupaten Kaimana",PAPUA BARAT,98654.0,Indonesia,81248620522,-36.631.594,1.337.112.474,https://maps.google.com/?cid=0x0:0x8272cc0629935bb6
restaurant,Rumah Makan,RM.TIGA PUTRI,"Jln Utarum, Jl. Bantemi, Polres, Kec. Kaimana, Kabupaten Kaimana, Papua Bar. 98654","Jl. Bantemi, Polres, Kec. Kaimana, Kabupaten Kaimana",PAPUA BARAT,98654.0,Indonesia,85243133200,-36.635.684,1.337.111.943,https://maps.google.com/?cid=0x0:0x38e07c3365b7b478
restaurant,Restoran,Rumah Makan Belia,"Jl. Utarum - Pasir Lombo Kaimana, Pasir Lombo, Kec. Kaimana, Papua Bar. 98654","Pasir Lombo, Kec. Kaimana",PAPUA BARAT,98654.0,Indonesia,85197358306,-36.493.903,1.337.560.166,https://maps.google.com/?cid=0x0:0x4754424e9054db48
restaurant,Hidangan Laut,FAJAR RESTO,"8PJ3+G49, Unnamed Road, Kroy, Kec. Kaimana, Kabupaten Kaimana, Papua Bar. 98654","Unnamed Road, Kroy, Kec. Kaimana, Kabupaten Kaimana",PAPUA BARAT,98654.0,Indonesia,8114873972,-36.687.228,1.337.028.438,https://maps.google.com/?cid=0x0:0x9a20612c5e95c5f6
restaurant,Brunch,Warung Lembayung Senja (Mas Lilik),"9Q32+XCM, dpn pom bensin, jln, Kroy, Kec. Kaimana, Kabupaten Kaimana, Papua Bar. 98654","dpn pom bensin, jln, Kroy, Kec. Kaimana, Kabupaten Kaimana",PAPUA BARAT,98654.0,Indonesia,82198308808,-36.450.367,1.337.510.397,https://maps.google.com/?cid=0x0:0x10084d48518da8ad
restaurant,Restoran,Warung Makan Melati,"9P3W+VGV, Kroy, Kec. Kaimana, Kabupaten Kaimana, Papua Bar. 98654","Kroy, Kec. Kaimana, Kabupaten Kaimana",PAPUA BARAT,98654.0,Indonesia,,-36.452.502,1.337.462.867,https://maps.google.com/?cid=0x0:0x6d0265dd09af8888
restaurant,restaurant,Kec. Arguni Bawah,"Kabupaten Kaimana, Papua Bar.","Kabupaten Kaimana, Papua Bar.",PAPUA BARAT,,Indonesia,,-31.342.581,1.336.452.173,https://maps.google.com/?cid=0x0:0x7e7fb1e1e1adead6
restaurant,Kafe,Oriestom Cafe  Restaurant,"43F2+G88, Jl. Trikora Rendani, Wosi, Kec. Manokwari Bar., Kabupaten Manokwari, Papua Bar. 98312","Jl. Trikora Rendani, Wosi, Kec. Manokwari Bar., Kabupaten Manokwari",PAPUA BARAT,98312.0,Indonesia,,-0.8762199,1.340.508.422,https://maps.google.com/?cid=0x0:0xe50589caa694703f
restaurant,Restoran,Oâ Snack Kafe Otoritas,"Jl. Trikora Rendani, Sowi, Distrik Manokwari, Kabupaten Manokwari, Papua Bar. 98313","Sowi, Distrik Manokwari, Kabupaten Manokwari",PAPUA BARAT,98313.0,Indonesia,,-0.8859283,1.340.517.921,https://maps.google.com/?cid=0x0:0x2b1b712fbfee7434
restaurant,restaurant,,,,PAPUA BARAT,,Indonesia,,,,https://maps.google.com/?cid=0x0:0xe50589caa694703fu0026onu003dNasi+Talam+Bebek+Putri+Madurau0026midu003d/g/11h51jf9xl
restaurant,restaurant,,,,PAPUA BARAT,,Indonesia,,,,https://maps.google.com/?cid=0x0:0xe50589caa694703fu0026onu003dCappucinou0026midu003d/g/11h51jf9xl
restaurant,restaurant,,,,PAPUA BARAT,,Indonesia,,,,https://maps.google.com/?cid=0x0:0xe50589caa694703fu0026onu003dSingkong+Gorengu0026midu003d/g/11h51jf9xl
restaurant,restaurant,,,,PAPUA BARAT,,Indonesia,,,,https://maps.google.com/?cid=0x0:0xe50589caa694703fu0026onu003dWedang+Jaheu0026midu003d/g/11h51jf9xl
restaurant,restaurant,,,,PAPUA BARAT,,Indonesia,,,,https://maps.google.com/?cid=0x0:0xe50589caa694703fu0026onu003dGurameh+Sambel+Ijou0026midu003d/g/11h51jf9xl
restaurant,restaurant,,,,PAPUA BARAT,,Indonesia,,,,https://maps.google.com/?cid=0x0:0xe50589caa694703fu0026onu003dJus+Kedondong+Dan+Jus+Buah+Nagau0026midu003d/g/11h51jf9xl
restaurant,restaurant,,,,PAPUA BARAT,,Indonesia,,,,https://maps.google.com/?cid=0x0:0xe50589caa694703fu0026onu003dBebek+Lalapanu0026midu003d/g/11h51jf9xl
restaurant,restaurant,,,,PAPUA BARAT,,Indonesia,,,,https://maps.google.com/?cid=0x0:0xe50589caa694703fu0026onu003dTehu0026midu003d/g/11h51jf9xl
restaurant,restaurant,,,,PAPUA BARAT,,Indonesia,,,,https://maps.google.com/?cid=0x0:0xe50589caa694703fu0026onu003dSoto+Hati+Dan+Otaku0026midu003d/g/11h51jf9xl
restaurant,restaurant,,,,PAPUA BARAT,,Indonesia,,,,https://maps.google.com/?cid=0x0:0xe50589caa694703fu0026onu003dDaging+Sapi+Lada+Hitam+Sayur+Toge+Dan+Udang+Goreng+Tepungu0026midu003d/g/11h51jf9xl
restaurant,restaurant,,,,PAPUA BARAT,,Indonesia,,,,https://maps.google.com/?cid=0x0:0xe50589caa694703fu0026onu003dIkan+Kakap+Bakaru0026midu003d/g/11h51jf9xl
restaurant,Padang,CV. Bundo,"8QQF+JRC, JL Nowari, Kaimana Kota, Kec. Kaimana, Kabupaten Kaimana, Papua Bar. 98654","JL Nowari, Kaimana Kota, Kec. Kaimana, Kabupaten Kaimana",PAPUA BARAT,98654.0,Indonesia,95721726,-3.660.925,133.774.506,https://maps.google.com/?cid=0x0:0xf25742dc4455894c
restaurant,Padang,Kawan Baru,"9PVH+R38, Kroy, Kec. Kaimana, Kabupaten Kaimana, Papua Bar. 98654","Kroy, Kec. Kaimana, Kabupaten Kaimana",PAPUA BARAT,98654.0,Indonesia,,-36.054.545,1.337.277.162,https://maps.google.com/?cid=0x0:0x43ec1c64b7e2751e
restaurant,restaurant,,,,PAPUA BARAT,,Indonesia,,,,https://maps.google.com/?cid=0x0:0x43ec1c64b7e2751eu0026onu003dNasi+Goreng+Spesialu0026midu003d/g/11g888whtx
restaurant,restaurant,,,,PAPUA BARAT,,Indonesia,,,,https://maps.google.com/?cid=0x0:0x43ec1c64b7e2751eu0026onu003dCapcaiu0026midu003d/g/11g888whtx
restaurant,restaurant,,,,PAPUA BARAT,,Indonesia,,,,https://maps.google.com/?cid=0x0:0x43ec1c64b7e2751eu0026onu0026midu003d/g/11g888whtx
restaurant,restaurant,,,,PAPUA BARAT,,Indonesia,,,,https://maps.google.com/?cid=0x0:0x43ec1c64b7e2751eu0026onu003dMakanu0026midu003d/g/11g888whtx
restaurant,restaurant,,,,PAPUA BARAT,,Indonesia,,,,https://maps.google.com/?cid=0x0:0x43ec1c64b7e2751eu0026onu003dIkan+Wokuu0026midu003d/g/11g888whtx
restaurant,restaurant,Papua Bar. 98655,"Kabupaten Kaimana, Papua Bar.","Kabupaten Kaimana, Papua Bar.",PAPUA BARAT,,Indonesia,,-37.749.476,1.347.756.422,https://maps.google.com/?cid=0x0:0x5d3a1383c4499ff7
restaurant,Tempat acara,SIMORA RESTAURANT,"8MHV+CC5, Jl. Utarum - Pasir Lombo Kaimana, Kroy, Kec. Kaimana, Kabupaten Kaimana, Papua Bar.","Kabupaten Kaimana, Papua Bar.",PAPUA BARAT,,Indonesia,,-36.714.987,1.336.936.113,https://maps.google.com/?cid=0x0:0xd79d7de802e22b1d
restaurant,restaurant,KOREAN HALAL RESTAURANT,"Pd. Pucung, Kec. Pd. Aren, Kota Tangerang Selatan, Banten","Kota Tangerang Selatan, Banten",PAPUA BARAT,,Indonesia,,-62.745.114,1.067.076.071,https://maps.google.com/?cid=0x0:0x55de53266ddcf6ac
restaurant,China,TOP YAMMIE,"1, Jl. Labu No.3-6 1, RT./RW/RW.6, Mangga Besar, Kec. Taman Sari, Kota Jakarta Barat, Daerah Khusus Ibukota Jakarta 11180","Jl. Labu No.3-6 1, RT./RW/RW.6, Mangga Besar, Kec. Taman Sari, Kota Jakarta Barat",PAPUA BARAT,11180.0,Indonesia,216595777,-61.472.152,106.817.722,https://maps.google.com/?cid=0x0:0xf416e36565e11b55
restaurant,Restoran,Sumag Yamor,"entre Bolivar y Roca, C. GarcÃ­a Moreno, Otavalo, Ekuador","Otavalo, Ekuador",PAPUA BARAT,,Indonesia,"5,93991E+11",0.2249887,-782.635,https://maps.google.com/?cid=0x0:0x9029ce6111e6c277
