Category;Real Category;Business Name;Address;City;State;Postal Code;Country;Phone;Email;Website;Latitude;Longitude;Map Link;Details Link
komplek housing;komplek housing;Papua 99777;"Kabupaten Asmat, Papua";"Kabupaten Asmat, Papua";PAPUA;;Indonesia;;;;-54.613.838;1.381.995.591;https://maps.google.com/?cid=0x0:0x8e1d4401ddfcedae;
komplek housing;Komplek perumahan;Cliff Home;"Jl. Nusantara 1 No.0037/a, Bis Agats, Distrik Agats, Kabupaten Asmat, Papua 99777";"Bis Agats, Distrik Agats, Kabupaten Asmat";PAPUA;99777;Indonesia;;;;-55.427.634;1.381.430.528;https://maps.google.com/?cid=0x0:0xa702ebb3141dc8a2;
komplek housing;Komplek perumahan;MY BEFAK ALDI;"Jl. Nusantara No.24b, Bis Agats, Distrik Agats, Kabupaten Asmat, Papua 99777";"Bis Agats, Distrik Agats, Kabupaten Asmat";PAPUA;99777;Indonesia;;;;-55.410.475;1.381.420.523;https://maps.google.com/?cid=0x0:0x8ee824c6147782b0;
komplek housing;Pembangunan Perumahan;Asmat/agats;"F47C+PGX, Jln, safan, Agats, Asmat Regency, Papua";"Kabupaten Asmat, Papua";PAPUA;;Indonesia;;;;-5.535.626;138.121.359;https://maps.google.com/?cid=0x0:0x3d415f05070eb6ad;
komplek housing;Komplek perumahan;Home RG Famz;"F46Q+CM9, Bis Agats, Distrik Agats, Kabupaten Asmat, Papua";"Kabupaten Asmat, Papua";PAPUA;;Indonesia;;;;-55.389.515;1.381.392.405;https://maps.google.com/?cid=0x0:0xbd5b93da4e4ec554;
komplek housing;Komplek perumahan;RM Tormand;"Jln Zeqward, Bis Agats, Distrik Agats, Kabupaten Asmat, Papua 99777";"Bis Agats, Distrik Agats, Kabupaten Asmat";PAPUA;99777;Indonesia;085254835555;;;-5.548.675;1.381.341.917;https://maps.google.com/?cid=0x0:0xa99d83078377df50;
komplek housing;Perhimpunan Pengembang Perumahan;Ykpa II;"F49P+3XG, Bis Agats, Distrik Agats, Kabupaten Asmat, Papua 99777";"Bis Agats, Distrik Agats, Kabupaten Asmat";PAPUA;99777;Indonesia;;;;-55.323.192;1.381.374.443;https://maps.google.com/?cid=0x0:0x43cab1ee4b30a706;
komplek housing;Komplek perumahan;Kompleks Beriten;"F45P+RM7, Jl. Frans Kaisepo, Bis Agats, Distrik Agats, Kabupaten Asmat, Papua 99777";"Jl. Frans Kaisepo, Bis Agats, Distrik Agats, Kabupaten Asmat";PAPUA;99777;Indonesia;;;;-55.404.609;1.381.366.804;https://maps.google.com/?cid=0x0:0xf2f4ae7e4a977625;
komplek housing;Komplek perumahan;Perumahan Pendeta KLASIS GPI PAPUA ASMAT;"F43Q+J7F, Bis Agats, Distrik Agats, Kabupaten Asmat, Papua 99777";"Bis Agats, Distrik Agats, Kabupaten Asmat";PAPUA;99777;Indonesia;;;;-55.451.549;13.813.824;https://maps.google.com/?cid=0x0:0xbc25c24bd945889e;
komplek housing;komplek housing;AHSAR HOME;"F47C+PGX, Bis Agats, Distrik Agats, Kabupaten Asmat, Papua";"Kabupaten Asmat, Papua";PAPUA;;Indonesia;;;;-5.535.626;138.121.359;https://maps.google.com/?cid=0x0:0xf9630b00ea195fc7;
komplek housing;Komplek perumahan;Resubun House;"F45M+M57, Jl. Kartini, Bis Agats, Distrik Agats, Kabupaten Asmat, Papua 99777";"Jl. Kartini, Bis Agats, Distrik Agats, Kabupaten Asmat";PAPUA;99777;Indonesia;;;;-55.411.115;1.381.328.691;https://maps.google.com/?cid=0x0:0xe4290a9b27124549;
komplek housing;Komplek perumahan;Roki Purba's House;"F44R+2V2, Bis Agats, Distrik Agats, Kabupaten Asmat, Papua";"Kabupaten Asmat, Papua";PAPUA;;Indonesia;;;;-5.544.994;1.381.421.366;https://maps.google.com/?cid=0x0:0x89deb78ea5b80e44;
komplek housing;Komplek perumahan;Rmh tinggal;"F46Q+JC5, Jl. Telkom, Bis Agats, Distrik Agats, Kabupaten Asmat, Papua 99777";"Jl. Telkom, Bis Agats, Distrik Agats, Kabupaten Asmat";PAPUA;99777;Indonesia;;;;-5.538.491;1.381.386.108;https://maps.google.com/?cid=0x0:0x810f37795b1ccc35;
komplek housing;Komplek perumahan;Ptravis Home;"F44R+FM7, Jl. Kei, Bis Agats, Distrik Agats, Kabupaten Asmat, Papua";"Kabupaten Asmat, Papua";PAPUA;;Indonesia;;;;-55.438.128;1.381.416.791;https://maps.google.com/?cid=0x0:0xea7c9e8ca18aa377;
komplek housing;Komplek perumahan;Rumah Lena Datu Manik;"F4FR+RCJ, Bis Agats, Distrik Agats, Kabupaten Asmat, Papua";"Kabupaten Asmat, Papua";PAPUA;;Indonesia;;;;-5.525.414;1.381.410.035;https://maps.google.com/?cid=0x0:0x9c91a011e2abd3a7;
komplek housing;Gedung Apartemen;Rumah;"F44J+Q93, Bis Agats, Distrik Agats, Kabupaten Asmat, Papua 99777";"Bis Agats, Distrik Agats, Kabupaten Asmat";PAPUA;99777;Indonesia;;;;-554.386;13.813.095;https://maps.google.com/?cid=0x0:0xb614ff92107e8c4f;
komplek housing;Komplek perumahan;Rumah pak Bram;"Jl. Pemda No.19, Bis Agats, Distrik Agats, Kabupaten Asmat, Papua 99777";"Bis Agats, Distrik Agats, Kabupaten Asmat";PAPUA;99777;Indonesia;;;;-55.394.618;13.813.853;https://maps.google.com/?cid=0x0:0x6edcd60174c2d98f;
komplek housing;Komplek perumahan;PG PAYOS;"F4GR+XVW, Jl. Dermaga Baru, Bis Agats, Distrik Agats, Kabupaten Asmat, Papua 99777";"Jl. Dermaga Baru, Bis Agats, Distrik Agats, Kabupaten Asmat";PAPUA;99777;Indonesia;;;;-55.224.317;1.381.421.865;https://maps.google.com/?cid=0x0:0xe9115fa4711e117f;
komplek housing;Kantor Pemda;Lorong kaye;"F44G+HJ2, Bis Agats, Distrik Agats, Kabupaten Asmat, Papua";"Kabupaten Asmat, Papua";PAPUA;;Indonesia;;;;-55.436.184;1.381.265.056;https://maps.google.com/?cid=0x0:0x4f7976de178a3cd;
komplek housing;Komplek perumahan;MABES KAUMBOT;"F45R+G2V, Jl. Pemda, Bis Agats, Distrik Agats, Kabupaten Asmat, Papua 99777";"Jl. Pemda, Bis Agats, Distrik Agats, Kabupaten Asmat";PAPUA;99777;Indonesia;;;;-55.411.356;1.381.400.367;https://maps.google.com/?cid=0x0:0xcd40a95b64506a61;
komplek housing;komplek housing;Agats;"Bis Agats, Distrik Agats, Kabupaten Asmat, Papua";"Kabupaten Asmat, Papua";PAPUA;;Indonesia;;;;-5.535.626;138.121.359;https://maps.google.com/?cid=0x0:0xf1c37eeb196c76c9;
komplek housing;Komplek perumahan;Penginapan;"F47C+PGX, Bis Agats, Distrik Agats, Kabupaten Asmat, Papua";"Kabupaten Asmat, Papua";PAPUA;;Indonesia;;;;-5.535.626;138.121.359;https://maps.google.com/?cid=0x0:0xa37c65c1ed95a727;
komplek housing;Komplek perumahan;KIOS ARKA;"F4CR+R9J, Jl. Dermaga Baru, Bis Agats, Distrik Agats, Kabupaten Asmat, Papua 99777";"Jl. Dermaga Baru, Bis Agats, Distrik Agats, Kabupaten Asmat";PAPUA;99777;Indonesia;;;;-55.279.038;1.381.408.849;https://maps.google.com/?cid=0x0:0x6787fd777023ad1f;
komplek housing;komplek housing;Kec. Tebet;"Kota Jakarta Selatan, Daerah Khusus Ibukota Jakarta";"Kota Jakarta Selatan, Daerah Khusus Ibukota Jakarta";PAPUA;;Indonesia;;;;-62.251.223;1.068.549.881;https://maps.google.com/?cid=0x0:0xd575e31c807295f9;
komplek housing;komplek housing;Atsy;"Atsy, Kabupaten Asmat, Papua";"Kabupaten Asmat, Papua";PAPUA;;Indonesia;;;;-5.721.067;13.837.886;https://maps.google.com/?cid=0x0:0x563a7ef959cd1d9e;
komplek housing;Kantor Perusahaan;Sawa erma;"R6X8+PPQ, Sawa, Sawa Erma, Kabupaten Asmat, Papua";"Kabupaten Asmat, Papua";PAPUA;;Indonesia;;;;-51.506.696;1.382.168.477;https://maps.google.com/?cid=0x0:0x9b408a14745747;
komplek housing;Kantor Pemerintah;Telkomsel Sawa Erma;"R6V9+24W, Erma, Sawa Erma, Kabupaten Asmat, Papua 99779";"Erma, Sawa Erma, Kabupaten Asmat";PAPUA;99779;Indonesia;;;;-51.572.225;1.382.172.581;https://maps.google.com/?cid=0x0:0xe0eed099acece97f;
komplek housing;komplek housing;Sawa Erma;"Kabupaten Asmat, Papua";"Kabupaten Asmat, Papua";PAPUA;;Indonesia;;;;-51.382.956;1.381.995.591;https://maps.google.com/?cid=0x0:0xa00408d29df1eb35;
komplek housing;komplek housing;Papua 99779;"Kabupaten Asmat, Papua";"Kabupaten Asmat, Papua";PAPUA;;Indonesia;;;;-49.651.102;1.388.799.972;https://maps.google.com/?cid=0x0:0x21328fcdfe8f7ad3;
komplek housing;Pembangunan Perumahan;Desa Manep;"HCQQ+8VM, Manep, Akat, Kabupaten Asmat, Papua 99779";"Manep, Akat, Kabupaten Asmat";PAPUA;99779;Indonesia;;;;-54.121.259;1.384.397.497;https://maps.google.com/?cid=0x0:0x3c16ba0377ee2a26;
komplek housing;komplek housing;Asmat;"W9VX+2GW, Abamu, Ykpa2, Kabupaten Asmat, Papua";"Kabupaten Asmat, Papua";PAPUA;;Indonesia;;;;-50.573.958;1.383.988.186;https://maps.google.com/?cid=0x0:0x5d392bfad7b6b1e2;
komplek housing;Komplek perumahan;MY BEFAK ALDI;"Jl. Nusantara No.24b, Bis Agats, Distrik Agats, Kabupaten Asmat, Papua 99777";"Bis Agats, Distrik Agats, Kabupaten Asmat";PAPUA;99777;Indonesia;;;;-55.410.475;1.381.420.523;https://maps.google.com/?cid=0x0:0x8ee824c6147782b0;
komplek housing;Pembangunan Perumahan;Perumahan Bappeda;"4F3G+74, Moruku, Kec. Dekai, Kabupaten Yahukimo, Papua 99571";"Moruku, Kec. Dekai, Kabupaten Yahukimo";PAPUA;99571;Indonesia;;;;-48.968.328;1.394.752.584;https://maps.google.com/?cid=0x0:0x3584526e70706fc3;
komplek housing;Komplek perumahan;Kita pu rumah;"F4GR+FWF, Jalan suru suru, pelabuhan baru, Distrik Agats, Kabupaten Asmat, Papua";"Kabupaten Asmat, Papua";PAPUA;;Indonesia;;;;-55.238.148;1.381.423.111;https://maps.google.com/?cid=0x0:0x70bc55e79e011fa6;
komplek housing;Pembangunan Perumahan;Rumah Yance.Fr;"MF3H+QJ, Beco, Binamzain, Kabupaten Asmat, Papua Selatan";"Kabupaten Asmat, Papua Selatan";PAPUA;;Indonesia;;;;-53.455.625;1.384.790.625;https://maps.google.com/?cid=0x0:0xe1c480c97b5dc848;
komplek housing;Komplek perumahan;Rumah pak Bram;"Jl. Pemda No.19, Bis Agats, Distrik Agats, Kabupaten Asmat, Papua 99777";"Bis Agats, Distrik Agats, Kabupaten Asmat";PAPUA;99777;Indonesia;;;;-55.394.618;13.813.853;https://maps.google.com/?cid=0x0:0x6edcd60174c2d98f;
komplek housing;Komplek perumahan;Rmh tinggal;"F46Q+JC5, Jl. Telkom, Bis Agats, Distrik Agats, Kabupaten Asmat, Papua 99777";"Jl. Telkom, Bis Agats, Distrik Agats, Kabupaten Asmat";PAPUA;99777;Indonesia;;;;-5.538.491;1.381.386.108;https://maps.google.com/?cid=0x0:0x810f37795b1ccc35;
komplek housing;Perhimpunan Pengembang Perumahan;Ykpa II;"F49P+3XG, Bis Agats, Distrik Agats, Kabupaten Asmat, Papua 99777";"Bis Agats, Distrik Agats, Kabupaten Asmat";PAPUA;99777;Indonesia;;;;-55.323.192;1.381.374.443;https://maps.google.com/?cid=0x0:0x43cab1ee4b30a706;
komplek housing;Komplek perumahan;RM Tormand;"Jln Zeqward, Bis Agats, Distrik Agats, Kabupaten Asmat, Papua 99777";"Bis Agats, Distrik Agats, Kabupaten Asmat";PAPUA;99777;Indonesia;085254835555;;;-5.548.675;1.381.341.917;https://maps.google.com/?cid=0x0:0xa99d83078377df50;
komplek housing;Komplek perumahan;Rumah Lena Datu Manik;"F4FR+RCJ, Bis Agats, Distrik Agats, Kabupaten Asmat, Papua";"Kabupaten Asmat, Papua";PAPUA;;Indonesia;;;;-5.525.414;1.381.410.035;https://maps.google.com/?cid=0x0:0x9c91a011e2abd3a7;
komplek housing;Pembangunan Perumahan;Asmat/agats;"F47C+PGX, Jln, safan, Agats, Asmat Regency, Papua";"Kabupaten Asmat, Papua";PAPUA;;Indonesia;;;;-5.535.626;138.121.359;https://maps.google.com/?cid=0x0:0x3d415f05070eb6ad;
komplek housing;Komplek perumahan;Perumahan Pendeta KLASIS GPI PAPUA ASMAT;"F43Q+J7F, Bis Agats, Distrik Agats, Kabupaten Asmat, Papua 99777";"Bis Agats, Distrik Agats, Kabupaten Asmat";PAPUA;99777;Indonesia;;;;-55.451.549;13.813.824;https://maps.google.com/?cid=0x0:0xbc25c24bd945889e;
komplek housing;komplek housing;AHSAR HOME;"F47C+PGX, Bis Agats, Distrik Agats, Kabupaten Asmat, Papua";"Kabupaten Asmat, Papua";PAPUA;;Indonesia;;;;-5.535.626;138.121.359;https://maps.google.com/?cid=0x0:0xf9630b00ea195fc7;
komplek housing;Pembangunan Perumahan;KenEz Home;"F42V+R57, Bis Agats, Distrik Agats, Kabupaten Asmat, Papua";"Kabupaten Asmat, Papua";PAPUA;;Indonesia;;;;-55.479.601;1.381.429.196;https://maps.google.com/?cid=0x0:0x7194ab82fe5c3cda;
komplek housing;Pembangunan Perumahan;Vakam Distrik Joutu Kab. Asmat;"FCV6+XC8, Imembi, Kaibar, Kabupaten Mappi, Papua 99875";"Imembi, Kaibar, Kabupaten Mappi";PAPUA;99875;Indonesia;;;;-5.505.088;139.411.064;https://maps.google.com/?cid=0x0:0x7cf00b17ac9a10bd;
komplek housing;Komplek perumahan;Home RG Famz;"F46Q+CM9, Bis Agats, Distrik Agats, Kabupaten Asmat, Papua";"Kabupaten Asmat, Papua";PAPUA;;Indonesia;;;;-55.389.515;1.381.392.405;https://maps.google.com/?cid=0x0:0xbd5b93da4e4ec554;
komplek housing;Komplek perumahan;MABES KAUMBOT;"F45R+G2V, Jl. Pemda, Bis Agats, Distrik Agats, Kabupaten Asmat, Papua 99777";"Jl. Pemda, Bis Agats, Distrik Agats, Kabupaten Asmat";PAPUA;99777;Indonesia;;;;-55.411.356;1.381.400.367;https://maps.google.com/?cid=0x0:0xcd40a95b64506a61;
komplek housing;Komplek perumahan;Ochank's Fam;"Jl. Nusantara 1 No.1, Bis Agats, Distrik Agats, Kabupaten Asmat, Papua 99777";"Bis Agats, Distrik Agats, Kabupaten Asmat";PAPUA;99777;Indonesia;;;;-55.416.665;1.381.421.567;https://maps.google.com/?cid=0x0:0x47fd97b203d2f1f3;
komplek housing;komplek housing;Akat;"Kabupaten Asmat, Papua";"Kabupaten Asmat, Papua";PAPUA;;Indonesia;;;;-52.705.101;1.386.388.879;https://maps.google.com/?cid=0x0:0xde330c0887951114;
komplek housing;Komplek perumahan;Pondok Gede Housing 1;"Jl. Cipta Raya No.45-3, RT.001/RW.003, Jatirahayu, Kec. Pd. Melati, Kota Bks, Jawa Barat 17414";"RT.001/RW.003, Jatirahayu, Kec. Pd. Melati, Kota Bks";PAPUA;17414;Indonesia;;;;-62.852.504;1.069.163.397;https://maps.google.com/?cid=0x0:0x3132afedbf38cd61;
komplek housing;Komplek perumahan;Pondok Gede Housing II;"Housing II, Jl. Raya Hankam, RT.001/RW.004, Jatirahayu, Pondok Gede, Bekasi, West Java";"Kota Bks, Jawa Barat";PAPUA;;Indonesia;;;;-62.876.701;1.069.147.674;https://maps.google.com/?cid=0x0:0x2a52e601c20d18f2;
komplek housing;Komplek perumahan;Pondok gede housing;"PW69+G7J, Jl. Teratai, RT.005/RW.003, Jatirahayu, Kec. Pd. Melati, Kota Bks, Jawa Barat 17414";"Jl. Teratai, RT.005/RW.003, Jatirahayu, Kec. Pd. Melati, Kota Bks";PAPUA;17414;Indonesia;;;;-62.886.631;1.069.181.392;https://maps.google.com/?cid=0x0:0xe09247830c5049e9;
komplek housing;Komplek perumahan;Komplek Raya Housing Blok C No.6;"Jl. Bhineka, RT.006/RW.011, Jatiwaringin, Kec. Pd. Gede, Kota Bks, Jawa Barat 17411";"RT.006/RW.011, Jatiwaringin, Kec. Pd. Gede, Kota Bks";PAPUA;17411;Indonesia;;;;-62.813.572;1.069.097.108;https://maps.google.com/?cid=0x0:0x8658ae7bd2f9a7a2;
komplek housing;Konsultan Realestat;Komplek Raya Housing C-9;"Komplek Raya Jl. Raya Housing No.9 BLOK C, RT.003/RW.001, Jatiwaringin, Kec. Pd. Gede, Kota Bks, Jawa Barat 17411";"RT.003/RW.001, Jatiwaringin, Kec. Pd. Gede, Kota Bks";PAPUA;17411;Indonesia;;;;-62.809.842;1.069.097.473;https://maps.google.com/?cid=0x0:0x5332830131150540;
komplek housing;Komplek perumahan;Komplek Raya Housing Blok D no.6;"Jl. Raya Housing No.6 Blok D, RT.006/RW.011, Jatiwaringin, Pondok Gede, Bekasi, West Java 17411";"RT.006/RW.011, Jatiwaringin, Pondok Gede, Bekasi";PAPUA;17411;Indonesia;0218469215;;;-62.812.011;1.069.100.437;https://maps.google.com/?cid=0x0:0x1c9f453cf5cbab3a;
komplek housing;Kantor Perusahaan;Komplek raya housing blok G 10C;"Jl. Raya Housing No.10.C Blok G, Jatiwaringin, Pondok Gede, Bekasi, West Java 17411";"Jatiwaringin, Pondok Gede, Bekasi";PAPUA;17411;Indonesia;;;;-62.795.575;1.069.095.851;https://maps.google.com/?cid=0x0:0x3047af3244b1bc18;
komplek housing;Kantor Perusahaan;Komplek raya housing blok E;"Komplek raya hosing blok E.6 RT.003/001, Jatiwaringin, Kec. Pd. Gede";"Kota Bks, Jawa Barat";PAPUA;;Indonesia;;;;-62.811.216;1.069.102.168;https://maps.google.com/?cid=0x0:0x8256ca23a46e5e57;
komplek housing;Kantor Polisi;Polsek fayit;"W9QM+HCF, Basim, Distrik Fayit, Kabupaten Asmat, Papua";"Kabupaten Asmat, Papua";PAPUA;;Indonesia;;;;-60.610.672;1.383.835.427;https://maps.google.com/?cid=0x0:0xa2862f9be58f4383;
komplek housing;komplek housing;Papua 99782;"Kabupaten Asmat, Papua";"Kabupaten Asmat, Papua";PAPUA;;Indonesia;;;;-60.419.322;1.384.787.258;https://maps.google.com/?cid=0x0:0x95c8a9b5775eb359;
komplek housing;Pembangunan Perumahan;"Kampung Bipin, Distrik Atsy, Kabupaten Asmat, Papua";"6HJM+M8, Bine, Atsy, Kabupaten Asmat, Papua";"Kabupaten Asmat, Papua";PAPUA;;Indonesia;;;;-57.683.055;1.385.832.518;https://maps.google.com/?cid=0x0:0x49b8493aeea81e84;
komplek housing;Pembangunan Perumahan;kali bw;"5MWC+GJ, Comoro, Distrik Ayip, Kabupaten Asmat, Papua";"Kabupaten Asmat, Papua";PAPUA;;Indonesia;;;;-5.803.654;138.671.524;https://maps.google.com/?cid=0x0:0x67f9fd8933d5ad9c;
komplek housing;komplek housing;Distrik Fayit;"Kabupaten Asmat, Papua";"Kabupaten Asmat, Papua";PAPUA;;Indonesia;;;;-60.610.672;1.383.835.427;https://maps.google.com/?cid=0x0:0x4b1b5304d72076e5;
komplek housing;Komplek perumahan;Pondok Gede Housing II;"Housing II, Jl. Raya Hankam, RT.001/RW.004, Jatirahayu, Pondok Gede, Bekasi, West Java";"Kota Bks, Jawa Barat";PAPUA;;Indonesia;;;;-62.876.701;1.069.147.674;https://maps.google.com/?cid=0x0:0x2a52e601c20d18f2;
komplek housing;Komplek perumahan;Perumahan housing 2;"Jl. Raya Hankam No.12 Blok U, RT.005/RW.002, Jatirahayu, Kec. Pd. Melati, Kota Bks, Jawa Barat 17414";"RT.005/RW.002, Jatirahayu, Kec. Pd. Melati, Kota Bks";PAPUA;17414;Indonesia;;;;-6.287.153;1.069.155.932;https://maps.google.com/?cid=0x0:0x60205f6f07650dd6;
komplek housing;Komplek perumahan;Pondok gede housing;"PW69+G7J, Jl. Teratai, RT.005/RW.003, Jatirahayu, Kec. Pd. Melati, Kota Bks, Jawa Barat 17414";"Jl. Teratai, RT.005/RW.003, Jatirahayu, Kec. Pd. Melati, Kota Bks";PAPUA;17414;Indonesia;;;;-62.886.631;1.069.181.392;https://maps.google.com/?cid=0x0:0xe09247830c5049e9;
komplek housing;Komplek perumahan;Pondok Gede Housing 1;"Jl. Cipta Raya No.45-3, RT.001/RW.003, Jatirahayu, Kec. Pd. Melati, Kota Bks, Jawa Barat 17414";"RT.001/RW.003, Jatirahayu, Kec. Pd. Melati, Kota Bks";PAPUA;17414;Indonesia;;;;-62.852.504;1.069.163.397;https://maps.google.com/?cid=0x0:0x3132afedbf38cd61;
komplek housing;Establishment;Ahzavi Residence Pondok Gede;"PW4J+JHQ, Jl. Celepuk I Ujung, RT.012/RW.014, Jatirahayu, Kec. Pd. Melati, Kota Bks, Jawa Barat 17414";"Jl. Celepuk I Ujung, RT.012/RW.014, Jatirahayu, Kec. Pd. Melati, Kota Bks";PAPUA;17414;Indonesia;;;;-62.934.194;1.069.314.803;https://maps.google.com/?cid=0x0:0x7b24a580738077da;
komplek housing;Komplek perumahan;Housing 1;"Blok D No.2a, Jl. Cipta Yasa, Jatirahayu, Kec. Pd. Melati, Kota Bks, Jawa Barat 17414";"Jl. Cipta Yasa, Jatirahayu, Kec. Pd. Melati, Kota Bks";PAPUA;17414;Indonesia;;;;-62.868.008;1.069.156.516;https://maps.google.com/?cid=0x0:0x8caf99f97a1f37b;
komplek housing;Komplek perumahan;Komplek TNI AL Jatibening Indah;"PWMV+XVF, Jl. Raya Panggung, Jatibening, Kec. Pd. Gede, Kota Bks, Jawa Barat 17412";"Jl. Raya Panggung, Jatibening, Kec. Pd. Gede, Kota Bks";PAPUA;17412;Indonesia;;;;-62.650.656;106.944.662;https://maps.google.com/?cid=0x0:0xc0eab5400d653076;
komplek housing;Kompleks Townhouse;FORFECTA TOWNHOUSE;"PWMP+9V9, Jl. Kemang Sari I, RT.004/RW.009, Jatibening Baru, Kec. Pd. Gede, Kota Bks, Jawa Barat";"Kota Bks, Jawa Barat";PAPUA;;Indonesia;085219363688;;;-62.665.908;1.069.372.201;https://maps.google.com/?cid=0x0:0x4c49150775e7f807;
komplek housing;komplek housing;Distrik Pantai Kasuari;"Kabupaten Asmat, Papua";"Kabupaten Asmat, Papua";PAPUA;;Indonesia;;;;-62.184.287;138.598.804;https://maps.google.com/?cid=0x0:0x1b4529030e9094c;
komplek housing;Perumahan;Kampung Sanep;"QHMH+RC, Bawor, Distrik Pantai Kasuari, Kabupaten Asmat, Papua";"Kabupaten Asmat, Papua";PAPUA;;Indonesia;;;;-62.149.208;138.579.534;https://maps.google.com/?cid=0x0:0x8ecd9034a607346a;
komplek housing;komplek housing;Kamur asmar;"RPJV+2M5, Kamur, Distrik Pantai Kasuari, Kabupaten Asmat, Papua 99773";"Kamur, Distrik Pantai Kasuari, Kabupaten Asmat";PAPUA;99773;Indonesia;;;;-61.699.957;1.387.442.455;https://maps.google.com/?cid=0x0:0x443f8b9b517d9b3d;
komplek housing;Perumahan;Sarmafo;"RH2G+J4, Eseib, Distrik Pantai Kasuari, Kabupaten Asmat, Papua";"Kabupaten Asmat, Papua";PAPUA;;Indonesia;;;;-61.984.313;1.385.752.545;https://maps.google.com/?cid=0x0:0x1dccffbec33836af;
komplek housing;komplek housing;Papua 99766;Papua;Papua;PAPUA;;Indonesia;;;;-52.037.329;1.394.466.005;https://maps.google.com/?cid=0x0:0xd6fdff385c07ba5d;
komplek housing;Pembangunan Perumahan;Vakam Distrik Joutu Kab. Asmat;"FCV6+XC8, Imembi, Kaibar, Kabupaten Mappi, Papua 99875";"Imembi, Kaibar, Kabupaten Mappi";PAPUA;99875;Indonesia;;;;-5.505.088;139.411.064;https://maps.google.com/?cid=0x0:0x7cf00b17ac9a10bd;
komplek housing;komplek housing;Jln koskosan Lokbon Dekai Yahukimo;"2F62+MC, Vakam, Suator, Kabupaten Asmat, Papua";"Kabupaten Asmat, Papua";PAPUA;;Indonesia;;;;-4.988.296;139.451.067;https://maps.google.com/?cid=0x0:0xd2be7d3354e2141a;
komplek housing;komplek housing;Alfons'Home;"MJ4R+9G, Fomu, Distrik Ti Zain, Kabupaten Mappi, Papua";"Kabupaten Mappi, Papua";PAPUA;;Indonesia;;;;-53.429.513;1.396.406.956;https://maps.google.com/?cid=0x0:0x8eb628a50efbb59d;
komplek housing;Pembangunan Perumahan;Perumahan Bappeda;"4F3G+74, Moruku, Kec. Dekai, Kabupaten Yahukimo, Papua 99571";"Moruku, Kec. Dekai, Kabupaten Yahukimo";PAPUA;99571;Indonesia;;;;-48.968.328;1.394.752.584;https://maps.google.com/?cid=0x0:0x3584526e70706fc3;
komplek housing;Perhimpunan Pengembang Perumahan;Musaima natason;"RPRW+2C, Yaniruma, Kabupaten Boven Digoel, Papua";"Kabupaten Boven Digoel, Papua";PAPUA;;Indonesia;;;;-5.159.911;139.746.066;https://maps.google.com/?cid=0x0:0x5d2a5ae6f0be5154;
komplek housing;komplek housing;Rumah Yance;"MF4H+QR8 Binamzain, Kabupaten Asmat, Selatan, Imembi, Kaibar, Kabupaten Mappi, Papua";"Kabupaten Mappi, Papua";PAPUA;;Indonesia;082197972792;;;-53.458.463;1.394.788.552;https://maps.google.com/?cid=0x0:0xec40509bc8bdedaa;
komplek housing;Perhimpunan Pengembang Perumahan;Sudi Kobak House;"3FMC+793, Keikey, Kec. Dekai, Kabupaten Yahukimo, Papua";"Kabupaten Yahukimo, Papua";PAPUA;;Indonesia;;;;-4.916.854;1.394.709.243;https://maps.google.com/?cid=0x0:0x2ed02449e664bddd;
komplek housing;Kantor Pemerintah;Rumah Jabatan Wakil Bupati Yahukimo;"4G58+CRX, Dekai, Kec. Dekai, Kabupaten Yahukimo, Papua 99571";"Dekai, Kec. Dekai, Kabupaten Yahukimo";PAPUA;99571;Indonesia;;;;-48.913.905;1.395.171.024;https://maps.google.com/?cid=0x0:0x682c553396edcdc3;
komplek housing;Komplek perumahan;kompleks biru sekla;"5F3X+9M7, Kuaserama, Kec. Dekai, Kabupaten Yahukimo, Papua 99571";"Kuaserama, Kec. Dekai, Kabupaten Yahukimo";PAPUA;99571;Indonesia;;;;-48.465.779;1.394.991.668;https://maps.google.com/?cid=0x0:0x3799c8c2bfae97e1;
komplek housing;Pembangunan Perumahan;Kompleks Perumahan Eselon II;"4G53+GFR, Dekai, Kec. Dekai, Kabupaten Yahukimo, Papua 99571";"Dekai, Kec. Dekai, Kabupaten Yahukimo";PAPUA;99571;Indonesia;08114780101;;;-48.911.484;1.395.036.399;https://maps.google.com/?cid=0x0:0xe76fb3d14cef1b0f;
komplek housing;Komplek perumahan;JalurNehe;"4F3H+WRJ, Moruku, Kec. Dekai, Kabupaten Yahukimo, Papua";"Kabupaten Yahukimo, Papua";PAPUA;;Indonesia;;;;-48.951.526;1.394.795.177;https://maps.google.com/?cid=0x0:0x2cddb3b3139349de;
komplek housing;Komplek perumahan;BASMAN;"FJWH+29, Basman, Distrik Ti Zain, Kabupaten Mappi, Papua";"Kabupaten Mappi, Papua";PAPUA;;Indonesia;;;;-55.049.375;1.396.284.375;https://maps.google.com/?cid=0x0:0xbac2e9621f6ea5b0;
komplek housing;Komplek perumahan;Barak seredala;"4GH4+48V Barak seredala, Kuaserama, Dekai, Yahukimo regency, Papua";"Kabupaten Yahukimo, Papua";PAPUA;;Indonesia;;;;-48.721.262;1.395.057.953;https://maps.google.com/?cid=0x0:0x545f742f57318b0a;
komplek housing;komplek housing;YAFDAS DEKAI;"4FVW+9G, Kuaserama, Kec. Dekai, Kabupaten Yahukimo, Papua";"Kabupaten Yahukimo, Papua";PAPUA;;Indonesia;;;;-48.565.208;1.394.962.598;https://maps.google.com/?cid=0x0:0x950c4f5db8c41233;
komplek housing;Komplek perumahan;Maulana al hafidz salim;"4FMJ+24M, Massi, Kec. Dekai, Kabupaten Yahukimo, Papua 99571";"Massi, Kec. Dekai, Kabupaten Yahukimo";PAPUA;99571;Indonesia;;;;-48.674.208;1.394.803.103;https://maps.google.com/?cid=0x0:0x970ace015b0d22e9;
komplek housing;Pembangunan Perumahan;Woman;"VXJC+XX5, Samboga, Distrik Seradala, Kabupaten Yahukimo, Papua";"Kabupaten Yahukimo, Papua";PAPUA;;Indonesia;;;;-51.176.023;1.399.724.868;https://maps.google.com/?cid=0x0:0x18acb4203edcd99b;
komplek housing;komplek housing;Suator;"Kabupaten Asmat, Papua";"Kabupaten Asmat, Papua";PAPUA;;Indonesia;;;;-51.911.556;139.284.143;https://maps.google.com/?cid=0x0:0xb29915cc9bf8f2a6;
komplek housing;Komplek perumahan;SUWARTO;"Jl. Teluk Tomini No.4 Blok A9, RT.1/RW.11, Pd. Bambu, Kec. Duren Sawit, Kota Jakarta Timur, Daerah Khusus Ibukota Jakarta 13430";"RT.1/RW.11, Pd. Bambu, Kec. Duren Sawit, Kota Jakarta Timur";PAPUA;13430;Indonesia;0895340951401;;;-62.381.524;1.069.090.563;https://maps.google.com/?cid=0x0:0x17f005b00c583dfc;
komplek housing;Komplek perumahan;Bumi Dirgantara Permai;"RT.009/RW.011, Jatisari, Kec. Jatiasih, Kota Bks, Jawa Barat 17426";"Jatisari, Kec. Jatiasih, Kota Bks";PAPUA;17426;Indonesia;;;;-63.463.327;1.069.431.248;https://maps.google.com/?cid=0x0:0xf40af7137bfb745c;
komplek housing;Pembangunan Perumahan;Villa Setu Permai (VSP);"Jl. Cisaat Setu No.RT 01/018, Ciledug, Kec. Setu, Kabupaten Bekasi, Jawa Barat 17320";"Ciledug, Kec. Setu, Kabupaten Bekasi";PAPUA;17320;Indonesia;;;;-63.511.388;1.070.440.958;https://maps.google.com/?cid=0x0:0xe8bf3f772af1a0b1;
komplek housing;Komplek perumahan;Segara City;"Jl. Tarumajaya Raya, Pantai Makmur, Kec. Tarumajaya, Kabupaten Bekasi, Jawa Barat 17216";"Pantai Makmur, Kec. Tarumajaya, Kabupaten Bekasi";PAPUA;17216;Indonesia;02129373060;;;-61.191.747;1.070.029.212;https://maps.google.com/?cid=0x0:0x94e0f076806de53a;
komplek housing;komplek housing;Fakan ani;"W9VX+2GW, Kampung fakan, Distrik Unir Sirau, Kabupaten Asmat, Papua";"Kabupaten Asmat, Papua";PAPUA;;Indonesia;;;;-50.573.958;1.383.988.186;https://maps.google.com/?cid=0x0:0x5ccbbddb5e4d098d;
komplek housing;komplek housing;Suru-Suru;"Kabupaten Asmat, Papua";"Kabupaten Asmat, Papua";PAPUA;;Indonesia;;;;-48.532.804;1.386.790.007;https://maps.google.com/?cid=0x0:0x5f6a1a0f0be715bf;
komplek housing;Pembangunan Perumahan;AS HOME 2;"Jl. Inpres XI No.119, RT.004/RW.015, Paninggilan Utara, Kec. Ciledug, Kota Tangerang, Banten 15153";"RT.004/RW.015, Paninggilan Utara, Kec. Ciledug, Kota Tangerang";PAPUA;15153;Indonesia;081383559586;;;-62.380.734;1.067.184.934;https://maps.google.com/?cid=0x0:0x995d1a8bed9d6ab3;
komplek housing;komplek housing;Papua 99766;Papua;Papua;PAPUA;;Indonesia;;;;-52.037.329;1.394.466.005;https://maps.google.com/?cid=0x0:0xd6fdff385c07ba5d;
komplek housing;Pembangunan Perumahan;Vakam Distrik Joutu Kab. Asmat;"FCV6+XC8, Imembi, Kaibar, Kabupaten Mappi, Papua 99875";"Imembi, Kaibar, Kabupaten Mappi";PAPUA;99875;Indonesia;;;;-5.505.088;139.411.064;https://maps.google.com/?cid=0x0:0x7cf00b17ac9a10bd;
komplek housing;komplek housing;Jln koskosan Lokbon Dekai Yahukimo;"2F62+MC, Vakam, Suator, Kabupaten Asmat, Papua";"Kabupaten Asmat, Papua";PAPUA;;Indonesia;;;;-4.988.296;139.451.067;https://maps.google.com/?cid=0x0:0xd2be7d3354e2141a;
komplek housing;komplek housing;Alfons'Home;"MJ4R+9G, Fomu, Distrik Ti Zain, Kabupaten Mappi, Papua";"Kabupaten Mappi, Papua";PAPUA;;Indonesia;;;;-53.429.513;1.396.406.956;https://maps.google.com/?cid=0x0:0x8eb628a50efbb59d;
komplek housing;Pembangunan Perumahan;Perumahan Bappeda;"4F3G+74, Moruku, Kec. Dekai, Kabupaten Yahukimo, Papua 99571";"Moruku, Kec. Dekai, Kabupaten Yahukimo";PAPUA;99571;Indonesia;;;;-48.968.328;1.394.752.584;https://maps.google.com/?cid=0x0:0x3584526e70706fc3;
komplek housing;komplek housing;Rumah Yance;"MF4H+QR8 Binamzain, Kabupaten Asmat, Selatan, Imembi, Kaibar, Kabupaten Mappi, Papua";"Kabupaten Mappi, Papua";PAPUA;;Indonesia;082197972792;;;-53.458.463;1.394.788.552;https://maps.google.com/?cid=0x0:0xec40509bc8bdedaa;
komplek housing;Perhimpunan Pengembang Perumahan;Kampung jinak;"F3W7+9GJ, Jinak, Suator, Kabupaten Asmat, Papua 99776";"Jinak, Suator, Kabupaten Asmat";PAPUA;99776;Indonesia;;;;-55.040.413;139.063.772;https://maps.google.com/?cid=0x0:0x4829476b6af69f42;
komplek housing;Perhimpunan Pengembang Perumahan;Sudi Kobak House;"3FMC+793, Keikey, Kec. Dekai, Kabupaten Yahukimo, Papua";"Kabupaten Yahukimo, Papua";PAPUA;;Indonesia;;;;-4.916.854;1.394.709.243;https://maps.google.com/?cid=0x0:0x2ed02449e664bddd;
komplek housing;Perhimpunan Pengembang Perumahan;Musaima natason;"RPRW+2C, Yaniruma, Kabupaten Boven Digoel, Papua";"Kabupaten Boven Digoel, Papua";PAPUA;;Indonesia;;;;-5.159.911;139.746.066;https://maps.google.com/?cid=0x0:0x5d2a5ae6f0be5154;
komplek housing;Komplek perumahan;kompleks biru sekla;"5F3X+9M7, Kuaserama, Kec. Dekai, Kabupaten Yahukimo, Papua 99571";"Kuaserama, Kec. Dekai, Kabupaten Yahukimo";PAPUA;99571;Indonesia;;;;-48.465.779;1.394.991.668;https://maps.google.com/?cid=0x0:0x3799c8c2bfae97e1;
komplek housing;Kantor Pemerintah;Rumah Jabatan Wakil Bupati Yahukimo;"4G58+CRX, Dekai, Kec. Dekai, Kabupaten Yahukimo, Papua 99571";"Dekai, Kec. Dekai, Kabupaten Yahukimo";PAPUA;99571;Indonesia;;;;-48.913.905;1.395.171.024;https://maps.google.com/?cid=0x0:0x682c553396edcdc3;
komplek housing;Komplek perumahan;BASMAN;"FJWH+29, Basman, Distrik Ti Zain, Kabupaten Mappi, Papua";"Kabupaten Mappi, Papua";PAPUA;;Indonesia;;;;-55.049.375;1.396.284.375;https://maps.google.com/?cid=0x0:0xbac2e9621f6ea5b0;
komplek housing;Komplek perumahan;kali merah;"4GR3+X2, Kuaserama, Kec. Dekai, Kabupaten Yahukimo, Papua";"Kabupaten Yahukimo, Papua";PAPUA;;Indonesia;;;;-48.575.555;139.502.574;https://maps.google.com/?cid=0x0:0xfff86dd4eb2d12f1;
komplek housing;Pembangunan Perumahan;Kompleks Perumahan Eselon II;"4G53+GFR, Dekai, Kec. Dekai, Kabupaten Yahukimo, Papua 99571";"Dekai, Kec. Dekai, Kabupaten Yahukimo";PAPUA;99571;Indonesia;08114780101;;;-48.911.484;1.395.036.399;https://maps.google.com/?cid=0x0:0xe76fb3d14cef1b0f;
komplek housing;Komplek perumahan;Barak seredala;"4GH4+48V Barak seredala, Kuaserama, Dekai, Yahukimo regency, Papua";"Kabupaten Yahukimo, Papua";PAPUA;;Indonesia;;;;-48.721.262;1.395.057.953;https://maps.google.com/?cid=0x0:0x545f742f57318b0a;
komplek housing;komplek housing;YAFDAS DEKAI;"4FVW+9G, Kuaserama, Kec. Dekai, Kabupaten Yahukimo, Papua";"Kabupaten Yahukimo, Papua";PAPUA;;Indonesia;;;;-48.565.208;1.394.962.598;https://maps.google.com/?cid=0x0:0x950c4f5db8c41233;
komplek housing;Pembangunan Perumahan;Woman;"VXJC+XX5, Samboga, Distrik Seradala, Kabupaten Yahukimo, Papua";"Kabupaten Yahukimo, Papua";PAPUA;;Indonesia;;;;-51.176.023;1.399.724.868;https://maps.google.com/?cid=0x0:0x18acb4203edcd99b;
komplek housing;Perhimpunan Pengembang Perumahan;Dekai;"3FPW+GVF, Dekai, Kec. Dekai, Kabupaten Yahukimo, Papua";"Kabupaten Yahukimo, Papua";PAPUA;;Indonesia;;;;-49.136.993;139.497.172;https://maps.google.com/?cid=0x0:0xc618a905a6f8e791;
komplek housing;Komplek perumahan;JalurNehe;"4F3H+WRJ, Moruku, Kec. Dekai, Kabupaten Yahukimo, Papua";"Kabupaten Yahukimo, Papua";PAPUA;;Indonesia;;;;-48.951.526;1.394.795.177;https://maps.google.com/?cid=0x0:0x2cddb3b3139349de;
komplek housing;komplek housing;Fakan ani;"W9VX+2GW, Kampung fakan, Distrik Unir Sirau, Kabupaten Asmat, Papua";"Kabupaten Asmat, Papua";PAPUA;;Indonesia;;;;-50.573.958;1.383.988.186;https://maps.google.com/?cid=0x0:0x5ccbbddb5e4d098d;
komplek housing;komplek housing;Distrik Unir Sirau;"Kabupaten Asmat, Papua";"Kabupaten Asmat, Papua";PAPUA;;Indonesia;;;;-50.625.971;1.385.625.099;https://maps.google.com/?cid=0x0:0x18822be845d37aca;
komplek housing;Komplek perumahan;Perumahan seruni hills;"Seruni hills 3, Jatiranggon, Kec. Jatisampurna, Kota Bks, Jawa Barat 17432";"Jatiranggon, Kec. Jatisampurna, Kota Bks";PAPUA;17432;Indonesia;02184310764;;;-63.404.943;1.069.220.168;https://maps.google.com/?cid=0x0:0xab268aa8942fc95;
komplek housing;Komplek perumahan;Rumah ciseeng;"HMP3+5XV, Jl. Puri Ciseeng Lestari, Jampang, Kec. Gn. Sindur, Kabupaten Bogor, Jawa Barat 16340";"Jl. Puri Ciseeng Lestari, Jampang, Kec. Gn. Sindur, Kabupaten Bogor";PAPUA;16340;Indonesia;;;;-64.145.112;1.066.549.335;https://maps.google.com/?cid=0x0:0xf8079127279999b4;
komplek housing;komplek housing;Papua 99777;"Kabupaten Asmat, Papua";"Kabupaten Asmat, Papua";PAPUA;;Indonesia;;;;-54.613.838;1.381.995.591;https://maps.google.com/?cid=0x0:0x8e1d4401ddfcedae;
komplek housing;Komplek perumahan;Home RG Famz;"F46Q+CM9, Bis Agats, Distrik Agats, Kabupaten Asmat, Papua";"Kabupaten Asmat, Papua";PAPUA;;Indonesia;;;;-55.389.515;1.381.392.405;https://maps.google.com/?cid=0x0:0xbd5b93da4e4ec554;
komplek housing;Komplek perumahan;RM Tormand;"Jln Zeqward, Bis Agats, Distrik Agats, Kabupaten Asmat, Papua 99777";"Bis Agats, Distrik Agats, Kabupaten Asmat";PAPUA;99777;Indonesia;085254835555;;;-5.548.675;1.381.341.917;https://maps.google.com/?cid=0x0:0xa99d83078377df50;
komplek housing;Komplek perumahan;PERUM RSUD PERPETUA J. SAFANPO;"C4XJ+3MQ, Bis Agats, Distrik Agats, Kabupaten Asmat, Papua";"Kabupaten Asmat, Papua";PAPUA;;Indonesia;;;;-55.522.823;1.381.317.493;https://maps.google.com/?cid=0x0:0xf2c12e5b54cb3b63;
komplek housing;Komplek perumahan;Rumah pak Bram;"Jl. Pemda No.19, Bis Agats, Distrik Agats, Kabupaten Asmat, Papua 99777";"Bis Agats, Distrik Agats, Kabupaten Asmat";PAPUA;99777;Indonesia;;;;-55.394.618;13.813.853;https://maps.google.com/?cid=0x0:0x6edcd60174c2d98f;
komplek housing;Komplek perumahan;Roki Purba's House;"F44R+2V2, Bis Agats, Distrik Agats, Kabupaten Asmat, Papua";"Kabupaten Asmat, Papua";PAPUA;;Indonesia;;;;-5.544.994;1.381.421.366;https://maps.google.com/?cid=0x0:0x89deb78ea5b80e44;
komplek housing;Komplek perumahan;Resubun House;"F45M+M57, Jl. Kartini, Bis Agats, Distrik Agats, Kabupaten Asmat, Papua 99777";"Jl. Kartini, Bis Agats, Distrik Agats, Kabupaten Asmat";PAPUA;99777;Indonesia;;;;-55.411.115;1.381.328.691;https://maps.google.com/?cid=0x0:0xe4290a9b27124549;
komplek housing;komplek housing;AHSAR HOME;"F47C+PGX, Bis Agats, Distrik Agats, Kabupaten Asmat, Papua";"Kabupaten Asmat, Papua";PAPUA;;Indonesia;;;;-5.535.626;138.121.359;https://maps.google.com/?cid=0x0:0xf9630b00ea195fc7;
komplek housing;Komplek perumahan;YONATHAN;"F4FR+J2H, Jl. Dermaga Baru, Bis Agats, Distrik Agats, Kabupaten Asmat, Papua 99777";"Jl. Dermaga Baru, Bis Agats, Distrik Agats, Kabupaten Asmat";PAPUA;99777;Indonesia;;;;-55.259.432;1.381.400.948;https://maps.google.com/?cid=0x0:0xdbf970b882a7c821;
komplek housing;komplek housing;Rumah di jln yapis;"F48V+F6Q, Jl. Yapis, Bis Agats, Distrik Agats, Kabupaten Asmat, Papua 99777";"Jl. Yapis, Bis Agats, Distrik Agats, Kabupaten Asmat";PAPUA;99777;Indonesia;;;;-55.337.328;138.143.259;https://maps.google.com/?cid=0x0:0x3fb74c602615897b;
komplek housing;Komplek perumahan;Cliff Home;"Jl. Nusantara 1 No.0037/a, Bis Agats, Distrik Agats, Kabupaten Asmat, Papua 99777";"Bis Agats, Distrik Agats, Kabupaten Asmat";PAPUA;99777;Indonesia;;;;-55.427.634;1.381.430.528;https://maps.google.com/?cid=0x0:0xa702ebb3141dc8a2;
komplek housing;Komplek perumahan;Rmh tinggal;"F46Q+JC5, Jl. Telkom, Bis Agats, Distrik Agats, Kabupaten Asmat, Papua 99777";"Jl. Telkom, Bis Agats, Distrik Agats, Kabupaten Asmat";PAPUA;99777;Indonesia;;;;-5.538.491;1.381.386.108;https://maps.google.com/?cid=0x0:0x810f37795b1ccc35;
komplek housing;Pembangunan Perumahan;Asmat/agats;"F47C+PGX, Jln, safan, Agats, Asmat Regency, Papua";"Kabupaten Asmat, Papua";PAPUA;;Indonesia;;;;-5.535.626;138.121.359;https://maps.google.com/?cid=0x0:0x3d415f05070eb6ad;
komplek housing;Komplek perumahan;Ptravis Home;"F44R+FM7, Jl. Kei, Bis Agats, Distrik Agats, Kabupaten Asmat, Papua";"Kabupaten Asmat, Papua";PAPUA;;Indonesia;;;;-55.438.128;1.381.416.791;https://maps.google.com/?cid=0x0:0xea7c9e8ca18aa377;
komplek housing;Komplek perumahan;Jln. Telkom Plasa Asmat;"F46Q+M8C, Jl. Telkom, Bis Agats, Distrik Agats, Kabupaten Asmat, Papua 99777";"Jl. Telkom, Bis Agats, Distrik Agats, Kabupaten Asmat";PAPUA;99777;Indonesia;;;;-55.383.204;1.381.382.789;https://maps.google.com/?cid=0x0:0x65affafb25eb522c;
komplek housing;Komplek perumahan;Kompleks Beriten;"F45P+RM7, Jl. Frans Kaisepo, Bis Agats, Distrik Agats, Kabupaten Asmat, Papua 99777";"Jl. Frans Kaisepo, Bis Agats, Distrik Agats, Kabupaten Asmat";PAPUA;99777;Indonesia;;;;-55.404.609;1.381.366.804;https://maps.google.com/?cid=0x0:0xf2f4ae7e4a977625;
komplek housing;Perhimpunan Pengembang Perumahan;Ykpa II;"F49P+3XG, Bis Agats, Distrik Agats, Kabupaten Asmat, Papua 99777";"Bis Agats, Distrik Agats, Kabupaten Asmat";PAPUA;99777;Indonesia;;;;-55.323.192;1.381.374.443;https://maps.google.com/?cid=0x0:0x43cab1ee4b30a706;
komplek housing;Komplek perumahan;PADE'Jr;"F44Q+9XP, Bis Agats, Distrik Agats, Kabupaten Asmat, Papua 99777";"Bis Agats, Distrik Agats, Kabupaten Asmat";PAPUA;99777;Indonesia;;;;-55.440.338;1.381.399.471;https://maps.google.com/?cid=0x0:0x46176aa01496052a;
komplek housing;Pembangunan Perumahan;KenEz Home;"F42V+R57, Bis Agats, Distrik Agats, Kabupaten Asmat, Papua";"Kabupaten Asmat, Papua";PAPUA;;Indonesia;;;;-55.479.601;1.381.429.196;https://maps.google.com/?cid=0x0:0x7194ab82fe5c3cda;
komplek housing;Komplek perumahan;MY BEFAK ALDI;"Jl. Nusantara No.24b, Bis Agats, Distrik Agats, Kabupaten Asmat, Papua 99777";"Bis Agats, Distrik Agats, Kabupaten Asmat";PAPUA;99777;Indonesia;;;;-55.410.475;1.381.420.523;https://maps.google.com/?cid=0x0:0x8ee824c6147782b0;
komplek housing;komplek housing;Distrik Joerat;"Kabupaten Asmat, Papua";"Kabupaten Asmat, Papua";PAPUA;;Indonesia;;;;-54.922.847;1.380.855.542;https://maps.google.com/?cid=0x0:0xda3d3ca2262ba8b7;
komplek housing;Komplek perumahan;Alfaro R House;"F45Q+W7M, Bis Agats, Distrik Agats, Kabupaten Asmat, Papua 99777";"Bis Agats, Distrik Agats, Kabupaten Asmat";PAPUA;99777;Indonesia;;;;-55.397.063;1.381.379.445;https://maps.google.com/?cid=0x0:0xb24f9bc83b1b8d0d;
komplek housing;Komplek perumahan;MABES KAUMBOT;"F45R+G2V, Jl. Pemda, Bis Agats, Distrik Agats, Kabupaten Asmat, Papua 99777";"Jl. Pemda, Bis Agats, Distrik Agats, Kabupaten Asmat";PAPUA;99777;Indonesia;;;;-55.411.356;1.381.400.367;https://maps.google.com/?cid=0x0:0xcd40a95b64506a61;
komplek housing;Komplek perumahan;Perumahan Pendeta KLASIS GPI PAPUA ASMAT;"F43Q+J7F, Bis Agats, Distrik Agats, Kabupaten Asmat, Papua 99777";"Bis Agats, Distrik Agats, Kabupaten Asmat";PAPUA;99777;Indonesia;;;;-55.451.549;13.813.824;https://maps.google.com/?cid=0x0:0xbc25c24bd945889e;
komplek housing;Komplek perumahan;rumah dela;"F47P+WQH, Jl. Ayam Kecil, Bis Agats, Distrik Agats, Kabupaten Asmat, Papua 99777";"Jl. Ayam Kecil, Bis Agats, Distrik Agats, Kabupaten Asmat";PAPUA;99777;Indonesia;;;;-55.351.935;1.381.369.846;https://maps.google.com/?cid=0x0:0xf1e0e410167465c4;
komplek housing;Rumah Kayu;Rumah Odat Silubun;"F44J+Q93, Bis Agats, Distrik Agats, Kabupaten Asmat, Papua 99777";"Bis Agats, Distrik Agats, Kabupaten Asmat";PAPUA;99777;Indonesia;;;;-5.542.983;1.381.306.227;https://maps.google.com/?cid=0x0:0x256f6143a319dade;
komplek housing;Gedung Apartemen;Rumah;"F44J+Q93, Bis Agats, Distrik Agats, Kabupaten Asmat, Papua 99777";"Bis Agats, Distrik Agats, Kabupaten Asmat";PAPUA;99777;Indonesia;;;;-554.386;13.813.095;https://maps.google.com/?cid=0x0:0xb614ff92107e8c4f;
komplek housing;Komplek perumahan;Rh Os;"F48R+8CX, Jl. Anderep, Bis Agats, Distrik Agats, Kabupaten Asmat, Papua 99777";"Jl. Anderep, Bis Agats, Distrik Agats, Kabupaten Asmat";PAPUA;99777;Indonesia;;;;-55.341.499;1.381.411;https://maps.google.com/?cid=0x0:0x852185a716fe95fb;
komplek housing;Perhimpunan Pengembang Perumahan;Rumah Kos Om Yuli;"F46Q+JC5, Jl. Telkom, Bis Agats, Distrik Agats, Kabupaten Asmat, Papua 99777";"Jl. Telkom, Bis Agats, Distrik Agats, Kabupaten Asmat";PAPUA;99777;Indonesia;;;;-5.538.491;1.381.386.178;https://maps.google.com/?cid=0x0:0x2975f9de4baa0e06;
komplek housing;komplek housing;Distrik Joerat;"Kabupaten Asmat, Papua";"Kabupaten Asmat, Papua";PAPUA;;Indonesia;;;;-54.922.847;1.380.855.542;https://maps.google.com/?cid=0x0:0xda3d3ca2262ba8b7;
komplek housing;Komplek perumahan;Home RG Famz;"F46Q+CM9, Bis Agats, Distrik Agats, Kabupaten Asmat, Papua";"Kabupaten Asmat, Papua";PAPUA;;Indonesia;;;;-55.389.515;1.381.392.405;https://maps.google.com/?cid=0x0:0xbd5b93da4e4ec554;
komplek housing;komplek housing;AHSAR HOME;"F47C+PGX, Bis Agats, Distrik Agats, Kabupaten Asmat, Papua";"Kabupaten Asmat, Papua";PAPUA;;Indonesia;;;;-5.535.626;138.121.359;https://maps.google.com/?cid=0x0:0xf9630b00ea195fc7;
komplek housing;Komplek perumahan;Kita pu rumah;"F4GR+FWF, Jalan suru suru, pelabuhan baru, Distrik Agats, Kabupaten Asmat, Papua";"Kabupaten Asmat, Papua";PAPUA;;Indonesia;;;;-55.238.148;1.381.423.111;https://maps.google.com/?cid=0x0:0x70bc55e79e011fa6;
komplek housing;Komplek perumahan;Jln. Telkom Plasa Asmat;"F46Q+M8C, Jl. Telkom, Bis Agats, Distrik Agats, Kabupaten Asmat, Papua 99777";"Jl. Telkom, Bis Agats, Distrik Agats, Kabupaten Asmat";PAPUA;99777;Indonesia;;;;-55.383.204;1.381.382.789;https://maps.google.com/?cid=0x0:0x65affafb25eb522c;
komplek housing;Komplek perumahan;Rmh tinggal;"F46Q+JC5, Jl. Telkom, Bis Agats, Distrik Agats, Kabupaten Asmat, Papua 99777";"Jl. Telkom, Bis Agats, Distrik Agats, Kabupaten Asmat";PAPUA;99777;Indonesia;;;;-5.538.491;1.381.386.108;https://maps.google.com/?cid=0x0:0x810f37795b1ccc35;
komplek housing;Komplek perumahan;RM Tormand;"Jln Zeqward, Bis Agats, Distrik Agats, Kabupaten Asmat, Papua 99777";"Bis Agats, Distrik Agats, Kabupaten Asmat";PAPUA;99777;Indonesia;085254835555;;;-5.548.675;1.381.341.917;https://maps.google.com/?cid=0x0:0xa99d83078377df50;
komplek housing;Pembangunan Perumahan;Asmat/agats;"F47C+PGX, Jln, safan, Agats, Asmat Regency, Papua";"Kabupaten Asmat, Papua";PAPUA;;Indonesia;;;;-5.535.626;138.121.359;https://maps.google.com/?cid=0x0:0x3d415f05070eb6ad;
komplek housing;komplek housing;Rumah di jln yapis;"F48V+F6Q, Jl. Yapis, Bis Agats, Distrik Agats, Kabupaten Asmat, Papua 99777";"Jl. Yapis, Bis Agats, Distrik Agats, Kabupaten Asmat";PAPUA;99777;Indonesia;;;;-55.337.328;138.143.259;https://maps.google.com/?cid=0x0:0x3fb74c602615897b;
komplek housing;Komplek perumahan;Jufran Pareira;"F47C+PGX, Jl. Mbait 4, Bis Agats, Distrik Agats, Kabupaten Asmat, Papua";"Kabupaten Asmat, Papua";PAPUA;;Indonesia;;;;-5.535.626;138.121.359;https://maps.google.com/?cid=0x0:0x3d6dc695e9bf6b11;
komplek housing;Komplek perumahan;Ptravis Home;"F44R+FM7, Jl. Kei, Bis Agats, Distrik Agats, Kabupaten Asmat, Papua";"Kabupaten Asmat, Papua";PAPUA;;Indonesia;;;;-55.438.128;1.381.416.791;https://maps.google.com/?cid=0x0:0xea7c9e8ca18aa377;
komplek housing;Komplek perumahan;PERUM RSUD PERPETUA J. SAFANPO;"C4XJ+3MQ, Bis Agats, Distrik Agats, Kabupaten Asmat, Papua";"Kabupaten Asmat, Papua";PAPUA;;Indonesia;;;;-55.522.823;1.381.317.493;https://maps.google.com/?cid=0x0:0xf2c12e5b54cb3b63;
komplek housing;Komplek perumahan;Rahayaan Fordatkosu;"F47W+5W, Bis Agats, Distrik Agats, Kabupaten Asmat, Papua";"Kabupaten Asmat, Papua";PAPUA;;Indonesia;;;;-5.537.065;138.147.362;https://maps.google.com/?cid=0x0:0x61d671387e3ea919;
komplek housing;Komplek perumahan;PADE'Jr;"F44Q+9XP, Bis Agats, Distrik Agats, Kabupaten Asmat, Papua 99777";"Bis Agats, Distrik Agats, Kabupaten Asmat";PAPUA;99777;Indonesia;;;;-55.440.338;1.381.399.471;https://maps.google.com/?cid=0x0:0x46176aa01496052a;
komplek housing;Komplek perumahan;Rumah pak Bram;"Jl. Pemda No.19, Bis Agats, Distrik Agats, Kabupaten Asmat, Papua 99777";"Bis Agats, Distrik Agats, Kabupaten Asmat";PAPUA;99777;Indonesia;;;;-55.394.618;13.813.853;https://maps.google.com/?cid=0x0:0x6edcd60174c2d98f;
komplek housing;Komplek perumahan;MY BEFAK ALDI;"Jl. Nusantara No.24b, Bis Agats, Distrik Agats, Kabupaten Asmat, Papua 99777";"Bis Agats, Distrik Agats, Kabupaten Asmat";PAPUA;99777;Indonesia;;;;-55.410.475;1.381.420.523;https://maps.google.com/?cid=0x0:0x8ee824c6147782b0;
komplek housing;Komplek perumahan;Roki Purba's House;"F44R+2V2, Bis Agats, Distrik Agats, Kabupaten Asmat, Papua";"Kabupaten Asmat, Papua";PAPUA;;Indonesia;;;;-5.544.994;1.381.421.366;https://maps.google.com/?cid=0x0:0x89deb78ea5b80e44;
komplek housing;Komplek perumahan;Resubun House;"F45M+M57, Jl. Kartini, Bis Agats, Distrik Agats, Kabupaten Asmat, Papua 99777";"Jl. Kartini, Bis Agats, Distrik Agats, Kabupaten Asmat";PAPUA;99777;Indonesia;;;;-55.411.115;1.381.328.691;https://maps.google.com/?cid=0x0:0xe4290a9b27124549;
komplek housing;Perhimpunan Pengembang Perumahan;Ykpa II;"F49P+3XG, Bis Agats, Distrik Agats, Kabupaten Asmat, Papua 99777";"Bis Agats, Distrik Agats, Kabupaten Asmat";PAPUA;99777;Indonesia;;;;-55.323.192;1.381.374.443;https://maps.google.com/?cid=0x0:0x43cab1ee4b30a706;
komplek housing;Komplek perumahan;Hananta's family house;"F45V+CCV, Bis Agats, Distrik Agats, Kabupaten Asmat, Papua";"Kabupaten Asmat, Papua";PAPUA;;Indonesia;;;;-55.413.815;1.381.435.607;https://maps.google.com/?cid=0x0:0xda57980bfea6d932;
komplek housing;Komplek perumahan;Pondok gede housing;"PW69+G7J, Jl. Teratai, RT.005/RW.003, Jatirahayu, Kec. Pd. Melati, Kota Bks, Jawa Barat 17414";"Jl. Teratai, RT.005/RW.003, Jatirahayu, Kec. Pd. Melati, Kota Bks";PAPUA;17414;Indonesia;;;;-62.886.631;1.069.181.392;https://maps.google.com/?cid=0x0:0xe09247830c5049e9;
komplek housing;Kompleks Townhouse;Jatos 6;"Jl. Cemp., RT.005/RW.007, Jatiwaringin, Kec. Pd. Gede, Kota Bks, Jawa Barat 17411";"RT.005/RW.007, Jatiwaringin, Kec. Pd. Gede, Kota Bks";PAPUA;17411;Indonesia;085179971070;;;-62.710.637;106.928.173;https://maps.google.com/?cid=0x0:0x205b620f27592682;
komplek housing;Komplek perumahan;Komplek 1 arasy town house;"Jl. Al Falah No.85, RT.001/RW.21, Jakasampurna, Kec. Bekasi Bar., Kota Bks, Jawa Barat 17145";"RT.001/RW.21, Jakasampurna, Kec. Bekasi Bar., Kota Bks";PAPUA;17145;Indonesia;;;;-62.445.074;1.069.611.701;https://maps.google.com/?cid=0x0:0x5588ade0391afdcf;
komplek housing;komplek housing;Pulau Tiga;"Kabupaten Asmat, Papua";"Kabupaten Asmat, Papua";PAPUA;;Indonesia;;;;-48.345.584;1.380.010.282;https://maps.google.com/?cid=0x0:0xfa037f42c2a610b2;
komplek housing;komplek housing;Pulau Tiga;"Kabupaten Natuna, Kepulauan Riau";"Kabupaten Natuna, Kepulauan Riau";PAPUA;;Indonesia;;;;36.838.166;1.081.310.083;https://maps.google.com/?cid=0x0:0x38fc741bb7aaeef5;
komplek housing;Otoritas Pelabuhan;Pelabuhan Serantas;"H3WP+G6R, Unnamed Road, Serantas, Pulau Tiga, Kabupaten Natuna, Kepulauan Riau 29783";"Unnamed Road, Serantas, Pulau Tiga, Kabupaten Natuna";PAPUA;29783;Indonesia;;;;3.596.355;10.808.552;https://maps.google.com/?cid=0x0:0x7d453430990fceef;
komplek housing;komplek housing;Papua 99778;Papua;Papua;PAPUA;;Indonesia;;;;-48.922.915;1.379.218.204;https://maps.google.com/?cid=0x0:0x7dad809947c0ba4d;
komplek housing;komplek housing;Kampung Murib Baye;"WP6J+M6G, Jl. Murupbaye, Tailarek, Distrik Asotipo, Kabupaten Jayawijaya, Papua";"Kabupaten Jayawijaya, Papua";PAPUA;;Indonesia;;;;-40.883.129;1.387.305.686;https://maps.google.com/?cid=0x0:0x58e99f862ac83353;
komplek housing;komplek housing;Fakan ani;"W9VX+2GW, Kampung fakan, Distrik Unir Sirau, Kabupaten Asmat, Papua";"Kabupaten Asmat, Papua";PAPUA;;Indonesia;;;;-50.573.958;1.383.988.186;https://maps.google.com/?cid=0x0:0x5ccbbddb5e4d098d;
komplek housing;Komplek perumahan;TANAH ADAT MILIK AL.ABUGWE WEYA;"Jl. Inggen Wanena Kampung Milinggame Distrik Tiomneri Kabupaten Lanny jaya Propinsi Papua Pengunungan, 99595";"Kabupaten Lanny Jaya, Papua";PAPUA;;Indonesia;;;;-38.890.253;1.384.165.087;https://maps.google.com/?cid=0x0:0x147c9d9f1fe5002f;
komplek housing;Perhimpunan Pengembang Perumahan;Kampung kapom;"R2CX+4JQ, Ayir, Sawa Erma, Kabupaten Asmat, Papua";"Kabupaten Asmat, Papua";PAPUA;;Indonesia;;;;-51.796.581;1.380.491.171;https://maps.google.com/?cid=0x0:0xefeceb2050147d31;
komplek housing;komplek housing;Pulau Tiga;"Kabupaten Asmat, Papua";"Kabupaten Asmat, Papua";PAPUA;;Indonesia;;;;-48.345.584;1.380.010.282;https://maps.google.com/?cid=0x0:0xfa037f42c2a610b2;
komplek housing;Komplek perumahan;Unggeme;"3FJ2+PC, Oyi, Distrik Tiom, Kabupaten Lanny Jaya, Papua";"Kabupaten Lanny Jaya, Papua";PAPUA;;Indonesia;;;;-39.182.145;1.384.511.039;https://maps.google.com/?cid=0x0:0xed65eb9c9981dfbe;
komplek housing;Otoritas Pelabuhan;Pelabuhan omor;"MVFM+JXX, Paar, Sawa Erma, Kabupaten Asmat, Papua";"Kabupaten Asmat, Papua";PAPUA;;Indonesia;;;;-5.325.887;1.378.849.964;https://maps.google.com/?cid=0x0:0x852b1c2d0a93b0e1;
komplek housing;Komplek perumahan;Resubun House;"F45M+M57, Jl. Kartini, Bis Agats, Distrik Agats, Kabupaten Asmat, Papua 99777";"Jl. Kartini, Bis Agats, Distrik Agats, Kabupaten Asmat";PAPUA;99777;Indonesia;;;;-55.411.115;1.381.328.691;https://maps.google.com/?cid=0x0:0xe4290a9b27124549;
komplek housing;Komplek perumahan;MY BEFAK ALDI;"Jl. Nusantara No.24b, Bis Agats, Distrik Agats, Kabupaten Asmat, Papua 99777";"Bis Agats, Distrik Agats, Kabupaten Asmat";PAPUA;99777;Indonesia;;;;-55.410.475;1.381.420.523;https://maps.google.com/?cid=0x0:0x8ee824c6147782b0;
komplek housing;komplek housing;ILAGA ZONA MERAH;"2JHV+3V6, Kimak, Ilaga, Kabupaten Puncak, Papua 98972";"Kimak, Ilaga, Kabupaten Puncak";PAPUA;98972;Indonesia;;;;-3.970.755;1.376.450.256;https://maps.google.com/?cid=0x0:0x4afa7b936325d1dc;
komplek housing;Komplek perumahan;Rmh tinggal;"F46Q+JC5, Jl. Telkom, Bis Agats, Distrik Agats, Kabupaten Asmat, Papua 99777";"Jl. Telkom, Bis Agats, Distrik Agats, Kabupaten Asmat";PAPUA;99777;Indonesia;;;;-5.538.491;1.381.386.108;https://maps.google.com/?cid=0x0:0x810f37795b1ccc35;
komplek housing;Kantor Pemda;Lorong kaye;"F44G+HJ2, Bis Agats, Distrik Agats, Kabupaten Asmat, Papua";"Kabupaten Asmat, Papua";PAPUA;;Indonesia;;;;-55.436.184;1.381.265.056;https://maps.google.com/?cid=0x0:0x4f7976de178a3cd;
komplek housing;Komplek perumahan;Kita pu rumah;"F4GR+FWF, Jalan suru suru, pelabuhan baru, Distrik Agats, Kabupaten Asmat, Papua";"Kabupaten Asmat, Papua";PAPUA;;Indonesia;;;;-55.238.148;1.381.423.111;https://maps.google.com/?cid=0x0:0x70bc55e79e011fa6;
komplek housing;Komplek perumahan;Cliff Home;"Jl. Nusantara 1 No.0037/a, Bis Agats, Distrik Agats, Kabupaten Asmat, Papua 99777";"Bis Agats, Distrik Agats, Kabupaten Asmat";PAPUA;99777;Indonesia;;;;-55.427.634;1.381.430.528;https://maps.google.com/?cid=0x0:0xa702ebb3141dc8a2;
komplek housing;Komplek perumahan;Ptravis Home;"F44R+FM7, Jl. Kei, Bis Agats, Distrik Agats, Kabupaten Asmat, Papua";"Kabupaten Asmat, Papua";PAPUA;;Indonesia;;;;-55.438.128;1.381.416.791;https://maps.google.com/?cid=0x0:0xea7c9e8ca18aa377;
komplek housing;Komplek perumahan;Roki Purba's House;"F44R+2V2, Bis Agats, Distrik Agats, Kabupaten Asmat, Papua";"Kabupaten Asmat, Papua";PAPUA;;Indonesia;;;;-5.544.994;1.381.421.366;https://maps.google.com/?cid=0x0:0x89deb78ea5b80e44;
komplek housing;Komplek perumahan;Perumahan Pendeta KLASIS GPI PAPUA ASMAT;"F43Q+J7F, Bis Agats, Distrik Agats, Kabupaten Asmat, Papua 99777";"Bis Agats, Distrik Agats, Kabupaten Asmat";PAPUA;99777;Indonesia;;;;-55.451.549;13.813.824;https://maps.google.com/?cid=0x0:0xbc25c24bd945889e;
komplek housing;Komplek perumahan;Home RG Famz;"F46Q+CM9, Bis Agats, Distrik Agats, Kabupaten Asmat, Papua";"Kabupaten Asmat, Papua";PAPUA;;Indonesia;;;;-55.389.515;1.381.392.405;https://maps.google.com/?cid=0x0:0xbd5b93da4e4ec554;
komplek housing;Komplek perumahan;Kios aedil;"F4CR+Q77, Bis Agats, Distrik Agats, Kabupaten Asmat, Papua";"Kabupaten Asmat, Papua";PAPUA;;Indonesia;;;;-55.280.904;1.381.406.569;https://maps.google.com/?cid=0x0:0x556e864a0bc117c3;
komplek housing;komplek housing;Pulau Tiga;"Sabah, Malaysia";"Sabah, Malaysia";PAPUA;;Indonesia;;;;57.253.104;1.156.539.512;https://maps.google.com/?cid=0x0:0x8079bff4b0073ec3;
komplek housing;Pembangunan Perumahan;Desa Manep;"HCQQ+8VM, Manep, Akat, Kabupaten Asmat, Papua 99779";"Manep, Akat, Kabupaten Asmat";PAPUA;99779;Indonesia;;;;-54.121.259;1.384.397.497;https://maps.google.com/?cid=0x0:0x3c16ba0377ee2a26;
komplek housing;Komplek perumahan;Kampung Beco;"HGPP+45, Manep, Akat, Kabupaten Asmat, Papua";"Kabupaten Asmat, Papua";PAPUA;;Indonesia;;;;-5.414.641;138.535.402;https://maps.google.com/?cid=0x0:0xb4e6ce15c7622921;
komplek housing;komplek housing;Yetsy;"Akat, Kabupaten Asmat, Papua";"Kabupaten Asmat, Papua";PAPUA;;Indonesia;;;;-53.501.406;1.386.188.423;https://maps.google.com/?cid=0x0:0x933091abb6f8e384;
komplek housing;Komplek perumahan;Pondok Gede Housing II;"Housing II, Jl. Raya Hankam, RT.001/RW.004, Jatirahayu, Pondok Gede, Bekasi, West Java";"Kota Bks, Jawa Barat";PAPUA;;Indonesia;;;;-62.876.701;1.069.147.674;https://maps.google.com/?cid=0x0:0x2a52e601c20d18f2;
komplek housing;Komplek perumahan;Pondok gede housing;"PW69+G7J, Jl. Teratai, RT.005/RW.003, Jatirahayu, Kec. Pd. Melati, Kota Bks, Jawa Barat 17414";"Jl. Teratai, RT.005/RW.003, Jatirahayu, Kec. Pd. Melati, Kota Bks";PAPUA;17414;Indonesia;;;;-62.886.631;1.069.181.392;https://maps.google.com/?cid=0x0:0xe09247830c5049e9;
komplek housing;Kantor Perusahaan;Komplek raya housing blok E;"Komplek raya hosing blok E.6 RT.003/001, Jatiwaringin, Kec. Pd. Gede";"Kota Bks, Jawa Barat";PAPUA;;Indonesia;;;;-62.811.216;1.069.102.168;https://maps.google.com/?cid=0x0:0x8256ca23a46e5e57;
komplek housing;Komplek perumahan;Pondok Gede Housing 1;"Jl. Cipta Raya No.45-3, RT.001/RW.003, Jatirahayu, Kec. Pd. Melati, Kota Bks, Jawa Barat 17414";"RT.001/RW.003, Jatirahayu, Kec. Pd. Melati, Kota Bks";PAPUA;17414;Indonesia;;;;-62.852.504;1.069.163.397;https://maps.google.com/?cid=0x0:0x3132afedbf38cd61;
komplek housing;Establishment;Ahzavi Residence Pondok Gede;"PW4J+JHQ, Jl. Celepuk I Ujung, RT.012/RW.014, Jatirahayu, Kec. Pd. Melati, Kota Bks, Jawa Barat 17414";"Jl. Celepuk I Ujung, RT.012/RW.014, Jatirahayu, Kec. Pd. Melati, Kota Bks";PAPUA;17414;Indonesia;;;;-62.934.194;1.069.314.803;https://maps.google.com/?cid=0x0:0x7b24a580738077da;
komplek housing;Komplek perumahan;Perumahan housing 2;"Jl. Raya Hankam No.12 Blok U, RT.005/RW.002, Jatirahayu, Kec. Pd. Melati, Kota Bks, Jawa Barat 17414";"RT.005/RW.002, Jatirahayu, Kec. Pd. Melati, Kota Bks";PAPUA;17414;Indonesia;;;;-6.287.153;1.069.155.932;https://maps.google.com/?cid=0x0:0x60205f6f07650dd6;
komplek housing;komplek housing;Rumah Revan;"Komp. Raya Housing Blk. J No.7, RT.006/RW.001, Jatiwaringin, Kec. Pd. Gede, Kota Bks, Jawa Barat 17411";"RT.006/RW.001, Jatiwaringin, Kec. Pd. Gede, Kota Bks";PAPUA;17411;Indonesia;;;;-62.800.253;1.069.104.804;https://maps.google.com/?cid=0x0:0x7527817dc525d405;
komplek housing;Komplek perumahan;Housing 1;"Blok D No.2a, Jl. Cipta Yasa, Jatirahayu, Kec. Pd. Melati, Kota Bks, Jawa Barat 17414";"Jl. Cipta Yasa, Jatirahayu, Kec. Pd. Melati, Kota Bks";PAPUA;17414;Indonesia;;;;-62.868.008;1.069.156.516;https://maps.google.com/?cid=0x0:0x8caf99f97a1f37b;
komplek housing;Kompleks Townhouse;Jatos 6;"Jl. Cemp., RT.005/RW.007, Jatiwaringin, Kec. Pd. Gede, Kota Bks, Jawa Barat 17411";"RT.005/RW.007, Jatiwaringin, Kec. Pd. Gede, Kota Bks";PAPUA;17411;Indonesia;085179971070;;;-62.710.637;106.928.173;https://maps.google.com/?cid=0x0:0x205b620f27592682;
komplek housing;Pembangunan Perumahan;Rumah Yance.Fr;"MF3H+QJ, Beco, Binamzain, Kabupaten Asmat, Papua Selatan";"Kabupaten Asmat, Papua Selatan";PAPUA;;Indonesia;;;;-53.455.625;1.384.790.625;https://maps.google.com/?cid=0x0:0xe1c480c97b5dc848;
komplek housing;Komplek perumahan;Kampung Beco;"HGPP+45, Manep, Akat, Kabupaten Asmat, Papua";"Kabupaten Asmat, Papua";PAPUA;;Indonesia;;;;-5.414.641;138.535.402;https://maps.google.com/?cid=0x0:0xb4e6ce15c7622921;
komplek housing;komplek housing;Jetsy;"Pau, Kabupaten Asmat, Papua";"Kabupaten Asmat, Papua";PAPUA;;Indonesia;;;;-54.748.611;1.383.589.086;https://maps.google.com/?cid=0x0:0xce83e2f9037e268e;
komplek housing;Konsultan Realestat;Komplek Raya Housing C-9;"Komplek Raya Jl. Raya Housing No.9 BLOK C, RT.003/RW.001, Jatiwaringin, Kec. Pd. Gede, Kota Bks, Jawa Barat 17411";"RT.003/RW.001, Jatiwaringin, Kec. Pd. Gede, Kota Bks";PAPUA;17411;Indonesia;;;;-62.809.842;1.069.097.473;https://maps.google.com/?cid=0x0:0x5332830131150540;
komplek housing;Komplek perumahan;Pondok gede housing;"PW69+G7J, Jl. Teratai, RT.005/RW.003, Jatirahayu, Kec. Pd. Melati, Kota Bks, Jawa Barat 17414";"Jl. Teratai, RT.005/RW.003, Jatirahayu, Kec. Pd. Melati, Kota Bks";PAPUA;17414;Indonesia;;;;-62.886.631;1.069.181.392;https://maps.google.com/?cid=0x0:0xe09247830c5049e9;
komplek housing;Komplek perumahan;Pondok Gede Housing 1;"Jl. Cipta Raya No.45-3, RT.001/RW.003, Jatirahayu, Kec. Pd. Melati, Kota Bks, Jawa Barat 17414";"RT.001/RW.003, Jatirahayu, Kec. Pd. Melati, Kota Bks";PAPUA;17414;Indonesia;;;;-62.852.504;1.069.163.397;https://maps.google.com/?cid=0x0:0x3132afedbf38cd61;
komplek housing;Kantor Perusahaan;Komplek raya housing blok E;"Komplek raya hosing blok E.6 RT.003/001, Jatiwaringin, Kec. Pd. Gede";"Kota Bks, Jawa Barat";PAPUA;;Indonesia;;;;-62.811.216;1.069.102.168;https://maps.google.com/?cid=0x0:0x8256ca23a46e5e57;
komplek housing;Komplek perumahan;Perumahan housing 2;"Jl. Raya Hankam No.12 Blok U, RT.005/RW.002, Jatirahayu, Kec. Pd. Melati, Kota Bks, Jawa Barat 17414";"RT.005/RW.002, Jatirahayu, Kec. Pd. Melati, Kota Bks";PAPUA;17414;Indonesia;;;;-6.287.153;1.069.155.932;https://maps.google.com/?cid=0x0:0x60205f6f07650dd6;
komplek housing;Establishment;Ahzavi Residence Pondok Gede;"PW4J+JHQ, Jl. Celepuk I Ujung, RT.012/RW.014, Jatirahayu, Kec. Pd. Melati, Kota Bks, Jawa Barat 17414";"Jl. Celepuk I Ujung, RT.012/RW.014, Jatirahayu, Kec. Pd. Melati, Kota Bks";PAPUA;17414;Indonesia;;;;-62.934.194;1.069.314.803;https://maps.google.com/?cid=0x0:0x7b24a580738077da;
komplek housing;Komplek perumahan;Housing 1;"Blok D No.2a, Jl. Cipta Yasa, Jatirahayu, Kec. Pd. Melati, Kota Bks, Jawa Barat 17414";"Jl. Cipta Yasa, Jatirahayu, Kec. Pd. Melati, Kota Bks";PAPUA;17414;Indonesia;;;;-62.868.008;1.069.156.516;https://maps.google.com/?cid=0x0:0x8caf99f97a1f37b;
komplek housing;Kompleks Townhouse;Jatos 6;"Jl. Cemp., RT.005/RW.007, Jatiwaringin, Kec. Pd. Gede, Kota Bks, Jawa Barat 17411";"RT.005/RW.007, Jatiwaringin, Kec. Pd. Gede, Kota Bks";PAPUA;17411;Indonesia;085179971070;;;-62.710.637;106.928.173;https://maps.google.com/?cid=0x0:0x205b620f27592682;
komplek housing;komplek housing;Papua 99773;"Distrik Pantai Kasuari, Kabupaten Asmat, Papua";"Kabupaten Asmat, Papua";PAPUA;;Indonesia;;;;-63.217.958;1.386.388.879;https://maps.google.com/?cid=0x0:0x6ae3147f1b6c530a;
komplek housing;Komplek perumahan;KAMPUNG TAREO DISTRIK SAFAN;"HG5J+XX8, Semendoro, Distrik Pantai Kasuari, Kabupaten Asmat, Papua 99773";"Semendoro, Distrik Pantai Kasuari, Kabupaten Asmat";PAPUA;99773;Indonesia;;;;-64.400.844;1.385.324.542;https://maps.google.com/?cid=0x0:0x18ac247b02d13e53;
komplek housing;komplek housing;Kampung Kofar;"FP94+567, Kofar, Distrik Minyamur, Kabupaten Mappi, Papua";"Kabupaten Mappi, Papua";PAPUA;;Indonesia;;;;-65.320.932;1.387.055.395;https://maps.google.com/?cid=0x0:0x702d0e15a072ecf2;
komplek housing;Komplek perumahan;Kampung saman;"MFVJ+74, Saman, Safan, Kabupaten Asmat, Papua";"Kabupaten Asmat, Papua";PAPUA;;Indonesia;;;;-63.068.125;1.384.803.125;https://maps.google.com/?cid=0x0:0x4d4a10a539157ddf;
komplek housing;Konsultan Kesehatan;Puskesmas Hahare;"MJ8C+454, Hahare, Distrik Kopay, Kabupaten Asmat, Papua 99773";"Hahare, Distrik Kopay, Kabupaten Asmat";PAPUA;99773;Indonesia;;;;-63.347.395;1.386.204.521;https://maps.google.com/?cid=0x0:0xa1d5242fd2b7d766;
komplek housing;Perumahan;Sarmafo;"RH2G+J4, Eseib, Distrik Pantai Kasuari, Kabupaten Asmat, Papua";"Kabupaten Asmat, Papua";PAPUA;;Indonesia;;;;-61.984.313;1.385.752.545;https://maps.google.com/?cid=0x0:0x1dccffbec33836af;
komplek housing;Komplek perumahan;"Kampung Aworket, Distrik Safan";"MCGQ+4F, Aworket, Safan, Kabupaten Asmat, Papua";"Kabupaten Asmat, Papua";PAPUA;;Indonesia;;;;-63.246.929;1.384.387.294;https://maps.google.com/?cid=0x0:0x7058715fdae6d5cb;
komplek housing;Perumahan;Kampung Sanep;"QHMH+RC, Bawor, Distrik Pantai Kasuari, Kabupaten Asmat, Papua";"Kabupaten Asmat, Papua";PAPUA;;Indonesia;;;;-62.149.208;138.579.534;https://maps.google.com/?cid=0x0:0x8ecd9034a607346a;
komplek housing;Pembangunan Perumahan;Kampung Gairipim;"PX56+C37, Gairipim, Kec. Haju, Kabupaten Mappi, Papua 99881";"Gairipim, Kec. Haju, Kabupaten Mappi";PAPUA;99881;Indonesia;;;;-62.914.539;1.389.601.636;https://maps.google.com/?cid=0x0:0x2c9ebac89c07d9d1;
komplek housing;komplek housing;Gereja St Theresia Gaibugir;"PX66+569, Gairipim, Kec. Haju, Kabupaten Mappi, Papua 99881";"Gairipim, Kec. Haju, Kabupaten Mappi";PAPUA;99881;Indonesia;;;;-6.289.579;1.389.606.122;https://maps.google.com/?cid=0x0:0xf6ed139b95f53aa5;
komplek housing;Pembangunan Perumahan;Amenda;"R2J9+6X, Amenda, Kec. Haju, Kabupaten Mappi, Papua";"Kabupaten Mappi, Papua";PAPUA;;Indonesia;;;;-61.694.293;1.390.199.738;https://maps.google.com/?cid=0x0:0xd92f6d667cda08b2;
komplek housing;Toko;Kios Kia Safan;"QCWQ+PG6, Bayun, Safan, Kabupaten Asmat, Papua";"Kabupaten Asmat, Papua";PAPUA;;Indonesia;;;;-62.032.097;1.384.387.577;https://maps.google.com/?cid=0x0:0xab9b3586b7a0fe2c;
komplek housing;komplek housing;Distrik Der Koumur;"Kabupaten Asmat, Papua";"Kabupaten Asmat, Papua";PAPUA;;Indonesia;;;;-59.984.344;1.388.312.335;https://maps.google.com/?cid=0x0:0x22845df5d954f859;
komplek housing;Konsultan Kesehatan;Puskesmas Hahare;"MJ8C+454, Hahare, Distrik Kopay, Kabupaten Asmat, Papua 99773";"Hahare, Distrik Kopay, Kabupaten Asmat";PAPUA;99773;Indonesia;;;;-63.347.395;1.386.204.521;https://maps.google.com/?cid=0x0:0xa1d5242fd2b7d766;
komplek housing;Rumah Sakit;Puskesmas Kamur;"RJ8R+VMX, Hainam, Distrik Pantai Kasuari, Kabupaten Asmat, Papua 99773";"Hainam, Distrik Pantai Kasuari, Kabupaten Asmat";PAPUA;99773;Indonesia;;;;-61.827.539;1.386.417.203;https://maps.google.com/?cid=0x0:0x52728a8463b818d8;
komplek housing;Komplek perumahan;Asia Tropis;"RXGG+J3X, Jl. Raya Asia Tropis No.10 10, RT.10/RW.8, Medan Satria, Kecamatan Medan Satria, Kota Bks, Jawa Barat 17132";"Jl. Raya Asia Tropis No.10 10, RT.10/RW.8, Medan Satria, Kecamatan Medan Satria, Kota Bks";PAPUA;17132;Indonesia;;;;-6.172.931;1.069.747.909;https://maps.google.com/?cid=0x0:0x71d48d7a493fdf43;
komplek housing;komplek housing;Papua 99773;"Distrik Pantai Kasuari, Kabupaten Asmat, Papua";"Kabupaten Asmat, Papua";PAPUA;;Indonesia;;;;-63.217.958;1.386.388.879;https://maps.google.com/?cid=0x0:0x6ae3147f1b6c530a;
komplek housing;Komplek perumahan;KAMPUNG TAREO DISTRIK SAFAN;"HG5J+XX8, Semendoro, Distrik Pantai Kasuari, Kabupaten Asmat, Papua 99773";"Semendoro, Distrik Pantai Kasuari, Kabupaten Asmat";PAPUA;99773;Indonesia;;;;-64.400.844;1.385.324.542;https://maps.google.com/?cid=0x0:0x18ac247b02d13e53;
komplek housing;Komplek perumahan;Kampung saman;"MFVJ+74, Saman, Safan, Kabupaten Asmat, Papua";"Kabupaten Asmat, Papua";PAPUA;;Indonesia;;;;-63.068.125;1.384.803.125;https://maps.google.com/?cid=0x0:0x4d4a10a539157ddf;
komplek housing;Perumahan;Kampung Sanep;"QHMH+RC, Bawor, Distrik Pantai Kasuari, Kabupaten Asmat, Papua";"Kabupaten Asmat, Papua";PAPUA;;Indonesia;;;;-62.149.208;138.579.534;https://maps.google.com/?cid=0x0:0x8ecd9034a607346a;
komplek housing;komplek housing;Kamur asmar;"RPJV+2M5, Kamur, Distrik Pantai Kasuari, Kabupaten Asmat, Papua 99773";"Kamur, Distrik Pantai Kasuari, Kabupaten Asmat";PAPUA;99773;Indonesia;;;;-61.699.957;1.387.442.455;https://maps.google.com/?cid=0x0:0x443f8b9b517d9b3d;
komplek housing;komplek housing;Kampung Kofar;"FP94+567, Kofar, Distrik Minyamur, Kabupaten Mappi, Papua";"Kabupaten Mappi, Papua";PAPUA;;Indonesia;;;;-65.320.932;1.387.055.395;https://maps.google.com/?cid=0x0:0x702d0e15a072ecf2;
komplek housing;Perumahan;Sarmafo;"RH2G+J4, Eseib, Distrik Pantai Kasuari, Kabupaten Asmat, Papua";"Kabupaten Asmat, Papua";PAPUA;;Indonesia;;;;-61.984.313;1.385.752.545;https://maps.google.com/?cid=0x0:0x1dccffbec33836af;
komplek housing;Toko;Kios Kia Safan;"QCWQ+PG6, Bayun, Safan, Kabupaten Asmat, Papua";"Kabupaten Asmat, Papua";PAPUA;;Indonesia;;;;-62.032.097;1.384.387.577;https://maps.google.com/?cid=0x0:0xab9b3586b7a0fe2c;
komplek housing;Gereja Katolik;Gereja katolik;"HG5J+Q3, Semendoro, Safan, Kabupaten Asmat, Papua";"Kabupaten Asmat, Papua";PAPUA;;Indonesia;;;;-64.413.247;1.385.298.481;https://maps.google.com/?cid=0x0:0xb3dded0542f17bbc;
komplek housing;Perumahan;Rumah Syariah Pondok Gede by IPLAND | Sakeena Premiere | Alif Premiere;"PW88+384 Kantor pemasaran Sakeena Premiere Syariah, Jl. Raya Jati Makmur, RT.001/RW.003, Jatirahayu, Kec. Pd. Melati, Kota Bks, Jawa Barat 17414";"Jl. Raya Jati Makmur, RT.001/RW.003, Jatirahayu, Kec. Pd. Melati, Kota Bks";PAPUA;17414;Indonesia;;;;-62.849.328;1.069.157.586;https://maps.google.com/?cid=0x0:0x5dbdcbaae19f3045;
komplek housing;Pembangunan Perumahan;ALIF PREMIERE;"Jl. Al Hidayah I, RT.001/RW.002, Jatibening, Kec. Pd. Gede, Kota Bks, Jawa Barat 17412";"RT.001/RW.002, Jatibening, Kec. Pd. Gede, Kota Bks";PAPUA;17412;Indonesia;;;;-62.687.659;1.069.531.425;https://maps.google.com/?cid=0x0:0x8b40883b143b39a5;
komplek housing;Perumahan;Casa Shafira;"Jl. Bengkong 05, RT.003/RW.003, Padurenan, Kec. Mustika Jaya, Kota Bks, Jawa Barat 16340";"RT.003/RW.003, Padurenan, Kec. Mustika Jaya, Kota Bks";PAPUA;16340;Indonesia;08561533302;;;-63.096.597;1.070.061.369;https://maps.google.com/?cid=0x0:0x9b6cca89ceab5657;
komplek housing;Komplek perumahan;Premier Savanna Blok F11;"Jl. Tirta Raya, RT.001/RW.008, Bantargebang, Kec. Bantar Gebang, Kota Bks, Jawa Barat 17151";"RT.001/RW.008, Bantargebang, Kec. Bantar Gebang, Kota Bks";PAPUA;17151;Indonesia;087777590450;;;-63.210.386;1.069.867.424;https://maps.google.com/?cid=0x0:0x9c2adc19fa2cc29b;
komplek housing;Otoritas Perumahan;Cluster Frambosa Vida Bekasi;"Jl. Alun-Alun Sel. No.48, RT.005/RW.010, Padurenan, Kec. Mustika Jaya, Kota Bks, Jawa Barat 16340";"RT.005/RW.010, Padurenan, Kec. Mustika Jaya, Kota Bks";PAPUA;16340;Indonesia;;;;-63.273.919;1.069.963.317;https://maps.google.com/?cid=0x0:0x55c7daedf3e483bd;
komplek housing;Hotel;Safana house;"blok I-11, Jl. Cendana X Jl. Mega Raya No.18, RT.20/RW.07, Suka Ragam, Kec. Serang Baru, Kabupaten Bekasi, Jawa Barat 17330";"Jl. Cendana X Jl. Mega Raya No.18, RT.20/RW.07, Suka Ragam, Kec. Serang Baru, Kabupaten Bekasi";PAPUA;17330;Indonesia;;;;-63.800.563;1.071.200.288;https://maps.google.com/?cid=0x0:0xfd2728fdf596be53;
komplek housing;Otoritas Perumahan;CLUSTER PREMIER SAVANNA;"MXHP+GQ9, Jl. Tirta Raya, RT.001/RW.008, Bantargebang, Vida, Kota Bks, Jawa Barat";"Kota Bks, Jawa Barat";PAPUA;;Indonesia;;;;-63.212.172;1.069.869.849;https://maps.google.com/?cid=0x0:0xd55d67d938de1090;
komplek housing;komplek housing;Rumah 2;"PWG8+Q3G, Jatiwaringin, Kec. Pd. Gede, Kota Bks, Jawa Barat 17411";"Jatiwaringin, Kec. Pd. Gede, Kota Bks";PAPUA;17411;Indonesia;;;;-62.730.676;1.069.152.021;https://maps.google.com/?cid=0x0:0x4d7a0ce3fb3f20b;
komplek housing;Komplek perumahan;Hunian;"PWC9+39R, Jl. Bojong Tua, RT.009/RW.008, Jatimakmur, Kec. Pd. Gede, Kota Bks, Jawa Barat 17411";"Jl. Bojong Tua, RT.009/RW.008, Jatimakmur, Kec. Pd. Gede, Kota Bks";PAPUA;17411;Indonesia;08116145185;;;-6.279.762;106.918.378;https://maps.google.com/?cid=0x0:0x677c66a269a60ad1;
komplek housing;Komplek perumahan;Sakeena Residence;"Jl. Swadaya, Kedaung, Kec. Pamulang, Kota Tangerang Selatan, Banten 15415";"Kedaung, Kec. Pamulang, Kota Tangerang Selatan";PAPUA;15415;Indonesia;082122715570;;;-63.144.116;1.067.418.523;https://maps.google.com/?cid=0x0:0xa603d6d5d57e9f41;
komplek housing;Pembangunan Perumahan;Rumah 2;"Jl. Mushola Al-Arifiah No.60, RT.008/RW.007, Jatiwaringin, Kec. Pd. Gede, Kota Bks, Jawa Barat 17411";"RT.008/RW.007, Jatiwaringin, Kec. Pd. Gede, Kota Bks";PAPUA;17411;Indonesia;;;;-62.696.495;1.069.306.707;https://maps.google.com/?cid=0x0:0x10c5349042df3f39;
komplek housing;Komplek perumahan;Vida Bekasi Timur;"M2J2+3R5, Jl. Apel Hijau V B Blok A 16 No.45, Blok. A16, RT.015/RW.019, Padurenan, Mustika Jaya, Bekasi, West Java 16340";"Jl. Apel Hijau V B Blok A 16 No.45, Blok. A16, RT.015/RW.019, Padurenan, Mustika Jaya, Bekasi";PAPUA;16340;Indonesia;;;;-63.195.119;1.070.022.145;https://maps.google.com/?cid=0x0:0x8e6b68445f032c31;
komplek housing;komplek housing;Komplek Housing;"Blok Bojong Nangka I, Jl. Ring Rudal Blok Bojong Nangka I No.68, RT.001/RW.007, Jatirahayu, Kec. Pd. Melati, Kota Bks, Jawa Barat 17414";"Jl. Ring Rudal Blok Bojong Nangka I No.68, RT.001/RW.007, Jatirahayu, Kec. Pd. Melati, Kota Bks";PAPUA;17414;Indonesia;;;;-6.293.724;1.069.165.114;https://maps.google.com/?cid=0x0:0x9c50464976dee674;
komplek housing;komplek housing;Distrik Ayip;"Kabupaten Asmat, Papua";"Kabupaten Asmat, Papua";PAPUA;;Indonesia;;;;-59.254.896;1.386.319.781;https://maps.google.com/?cid=0x0:0x8e66166709e21012;
komplek housing;Pembangunan Perumahan;kali bw;"5MWC+GJ, Comoro, Distrik Ayip, Kabupaten Asmat, Papua";"Kabupaten Asmat, Papua";PAPUA;;Indonesia;;;;-5.803.654;138.671.524;https://maps.google.com/?cid=0x0:0x67f9fd8933d5ad9c;
komplek housing;Pembangunan Perumahan;"Kampung Bipin, Distrik Atsy, Kabupaten Asmat, Papua";"6HJM+M8, Bine, Atsy, Kabupaten Asmat, Papua";"Kabupaten Asmat, Papua";PAPUA;;Indonesia;;;;-57.683.055;1.385.832.518;https://maps.google.com/?cid=0x0:0x49b8493aeea81e84;
komplek housing;Komplek perumahan;Pondok gede housing;"PW69+G7J, Jl. Teratai, RT.005/RW.003, Jatirahayu, Kec. Pd. Melati, Kota Bks, Jawa Barat 17414";"Jl. Teratai, RT.005/RW.003, Jatirahayu, Kec. Pd. Melati, Kota Bks";PAPUA;17414;Indonesia;;;;-62.886.631;1.069.181.392;https://maps.google.com/?cid=0x0:0xe09247830c5049e9;
komplek housing;Kompleks Townhouse;Jatos 6;"Jl. Cemp., RT.005/RW.007, Jatiwaringin, Kec. Pd. Gede, Kota Bks, Jawa Barat 17411";"RT.005/RW.007, Jatiwaringin, Kec. Pd. Gede, Kota Bks";PAPUA;17411;Indonesia;085179971070;;;-62.710.637;106.928.173;https://maps.google.com/?cid=0x0:0x205b620f27592682;
komplek housing;Perumahan;Rumah Syariah Pondok Gede by IPLAND | Sakeena Premiere | Alif Premiere;"PW88+384 Kantor pemasaran Sakeena Premiere Syariah, Jl. Raya Jati Makmur, RT.001/RW.003, Jatirahayu, Kec. Pd. Melati, Kota Bks, Jawa Barat 17414";"Jl. Raya Jati Makmur, RT.001/RW.003, Jatirahayu, Kec. Pd. Melati, Kota Bks";PAPUA;17414;Indonesia;;;;-62.849.328;1.069.157.586;https://maps.google.com/?cid=0x0:0x5dbdcbaae19f3045;
komplek housing;Komplek perumahan;komplek AL;"Jl. Lumba 2 No.131, RT.005/RW.013, Jatikramat, Kec. Jatiasih, Kota Bks, Jawa Barat 17421";"RT.005/RW.013, Jatikramat, Kec. Jatiasih, Kota Bks";PAPUA;17421;Indonesia;;;;-62.723.741;1.069.478.087;https://maps.google.com/?cid=0x0:0x7438ee9d889f845f;
komplek housing;Komplek perumahan;Perumahaan;"P248+RX4, Jl. Bahagia II, RT.007/RW.007, Mustikasari, Kec. Mustika Jaya, Kota Bks, Jawa Barat 17157";"Jl. Bahagia II, RT.007/RW.007, Mustikasari, Kec. Mustika Jaya, Kota Bks";PAPUA;17157;Indonesia;;;;-62.929.815;1.070.174.439;https://maps.google.com/?cid=0x0:0x496fd2670a58c828;
komplek housing;komplek housing;Papua 99776;"Atsy, Kabupaten Asmat, Papua";"Kabupaten Asmat, Papua";PAPUA;;Indonesia;;;;-5.544.638;1.387.995.122;https://maps.google.com/?cid=0x0:0xc82d6e8c35882d4e;
komplek housing;Perhimpunan Pengembang Perumahan;Kampung jinak;"F3W7+9GJ, Jinak, Suator, Kabupaten Asmat, Papua 99776";"Jinak, Suator, Kabupaten Asmat";PAPUA;99776;Indonesia;;;;-55.040.413;139.063.772;https://maps.google.com/?cid=0x0:0x4829476b6af69f42;
komplek housing;Pembangunan Perumahan;"Kampung Bipin, Distrik Atsy, Kabupaten Asmat, Papua";"6HJM+M8, Bine, Atsy, Kabupaten Asmat, Papua";"Kabupaten Asmat, Papua";PAPUA;;Indonesia;;;;-57.683.055;1.385.832.518;https://maps.google.com/?cid=0x0:0x49b8493aeea81e84;
komplek housing;Pembangunan Perumahan;kali bw;"5MWC+GJ, Comoro, Distrik Ayip, Kabupaten Asmat, Papua";"Kabupaten Asmat, Papua";PAPUA;;Indonesia;;;;-5.803.654;138.671.524;https://maps.google.com/?cid=0x0:0x67f9fd8933d5ad9c;
komplek housing;Komplek perumahan;Resubun House;"F45M+M57, Jl. Kartini, Bis Agats, Distrik Agats, Kabupaten Asmat, Papua 99777";"Jl. Kartini, Bis Agats, Distrik Agats, Kabupaten Asmat";PAPUA;99777;Indonesia;;;;-55.411.115;1.381.328.691;https://maps.google.com/?cid=0x0:0xe4290a9b27124549;
komplek housing;Komplek perumahan;Ptravis Home;"F44R+FM7, Jl. Kei, Bis Agats, Distrik Agats, Kabupaten Asmat, Papua";"Kabupaten Asmat, Papua";PAPUA;;Indonesia;;;;-55.438.128;1.381.416.791;https://maps.google.com/?cid=0x0:0xea7c9e8ca18aa377;
komplek housing;Komplek perumahan;Kompleks Beriten;"F45P+RM7, Jl. Frans Kaisepo, Bis Agats, Distrik Agats, Kabupaten Asmat, Papua 99777";"Jl. Frans Kaisepo, Bis Agats, Distrik Agats, Kabupaten Asmat";PAPUA;99777;Indonesia;;;;-55.404.609;1.381.366.804;https://maps.google.com/?cid=0x0:0xf2f4ae7e4a977625;
komplek housing;Komplek perumahan;Home RG Famz;"F46Q+CM9, Bis Agats, Distrik Agats, Kabupaten Asmat, Papua";"Kabupaten Asmat, Papua";PAPUA;;Indonesia;;;;-55.389.515;1.381.392.405;https://maps.google.com/?cid=0x0:0xbd5b93da4e4ec554;
komplek housing;Komplek perumahan;Cliff Home;"Jl. Nusantara 1 No.0037/a, Bis Agats, Distrik Agats, Kabupaten Asmat, Papua 99777";"Bis Agats, Distrik Agats, Kabupaten Asmat";PAPUA;99777;Indonesia;;;;-55.427.634;1.381.430.528;https://maps.google.com/?cid=0x0:0xa702ebb3141dc8a2;
komplek housing;Komplek perumahan;MABES KAUMBOT;"F45R+G2V, Jl. Pemda, Bis Agats, Distrik Agats, Kabupaten Asmat, Papua 99777";"Jl. Pemda, Bis Agats, Distrik Agats, Kabupaten Asmat";PAPUA;99777;Indonesia;;;;-55.411.356;1.381.400.367;https://maps.google.com/?cid=0x0:0xcd40a95b64506a61;
komplek housing;Komplek perumahan;RM Tormand;"Jln Zeqward, Bis Agats, Distrik Agats, Kabupaten Asmat, Papua 99777";"Bis Agats, Distrik Agats, Kabupaten Asmat";PAPUA;99777;Indonesia;085254835555;;;-5.548.675;1.381.341.917;https://maps.google.com/?cid=0x0:0xa99d83078377df50;
komplek housing;Komplek perumahan;Kita pu rumah;"F4GR+FWF, Jalan suru suru, pelabuhan baru, Distrik Agats, Kabupaten Asmat, Papua";"Kabupaten Asmat, Papua";PAPUA;;Indonesia;;;;-55.238.148;1.381.423.111;https://maps.google.com/?cid=0x0:0x70bc55e79e011fa6;
komplek housing;Komplek perumahan;Perumahan Pendeta KLASIS GPI PAPUA ASMAT;"F43Q+J7F, Bis Agats, Distrik Agats, Kabupaten Asmat, Papua 99777";"Bis Agats, Distrik Agats, Kabupaten Asmat";PAPUA;99777;Indonesia;;;;-55.451.549;13.813.824;https://maps.google.com/?cid=0x0:0xbc25c24bd945889e;
komplek housing;Komplek perumahan;MY BEFAK ALDI;"Jl. Nusantara No.24b, Bis Agats, Distrik Agats, Kabupaten Asmat, Papua 99777";"Bis Agats, Distrik Agats, Kabupaten Asmat";PAPUA;99777;Indonesia;;;;-55.410.475;1.381.420.523;https://maps.google.com/?cid=0x0:0x8ee824c6147782b0;
komplek housing;Komplek perumahan;Roki Purba's House;"F44R+2V2, Bis Agats, Distrik Agats, Kabupaten Asmat, Papua";"Kabupaten Asmat, Papua";PAPUA;;Indonesia;;;;-5.544.994;1.381.421.366;https://maps.google.com/?cid=0x0:0x89deb78ea5b80e44;
komplek housing;Pembangunan Perumahan;KenEz Home;"F42V+R57, Bis Agats, Distrik Agats, Kabupaten Asmat, Papua";"Kabupaten Asmat, Papua";PAPUA;;Indonesia;;;;-55.479.601;1.381.429.196;https://maps.google.com/?cid=0x0:0x7194ab82fe5c3cda;
komplek housing;Pembangunan Perumahan;Sane17;"F46R+J4R, Bis Agats, Distrik Agats, Kabupaten Asmat, Papua";"Kabupaten Asmat, Papua";PAPUA;;Indonesia;;;;-55.383.838;1.381.402.569;https://maps.google.com/?cid=0x0:0x7c6cc2e43bce1902;
komplek housing;Komplek perumahan;PERUM RSUD PERPETUA J. SAFANPO;"C4XJ+3MQ, Bis Agats, Distrik Agats, Kabupaten Asmat, Papua";"Kabupaten Asmat, Papua";PAPUA;;Indonesia;;;;-55.522.823;1.381.317.493;https://maps.google.com/?cid=0x0:0xf2c12e5b54cb3b63;
komplek housing;Perhimpunan Pengembang Perumahan;Ykpa II;"F49P+3XG, Bis Agats, Distrik Agats, Kabupaten Asmat, Papua 99777";"Bis Agats, Distrik Agats, Kabupaten Asmat";PAPUA;99777;Indonesia;;;;-55.323.192;1.381.374.443;https://maps.google.com/?cid=0x0:0x43cab1ee4b30a706;
komplek housing;Pembangunan Perumahan;Asmat/agats;"F47C+PGX, Jln, safan, Agats, Asmat Regency, Papua";"Kabupaten Asmat, Papua";PAPUA;;Indonesia;;;;-5.535.626;138.121.359;https://maps.google.com/?cid=0x0:0x3d415f05070eb6ad;
komplek housing;komplek housing;Sirets;"Kabupaten Asmat, Papua";"Kabupaten Asmat, Papua";PAPUA;;Indonesia;;;;-55.310.929;1.386.388.879;https://maps.google.com/?cid=0x0:0xa635d80a725c47;
komplek housing;Komplek perumahan;Pondok gede housing;"PW69+G7J, Jl. Teratai, RT.005/RW.003, Jatirahayu, Kec. Pd. Melati, Kota Bks, Jawa Barat 17414";"Jl. Teratai, RT.005/RW.003, Jatirahayu, Kec. Pd. Melati, Kota Bks";PAPUA;17414;Indonesia;;;;-62.886.631;1.069.181.392;https://maps.google.com/?cid=0x0:0xe09247830c5049e9;
komplek housing;Komplek perumahan;Pondok Gede Housing II;"Housing II, Jl. Raya Hankam, RT.001/RW.004, Jatirahayu, Pondok Gede, Bekasi, West Java";"Kota Bks, Jawa Barat";PAPUA;;Indonesia;;;;-62.876.701;1.069.147.674;https://maps.google.com/?cid=0x0:0x2a52e601c20d18f2;
komplek housing;Kantor Perusahaan;Grand Sukamulya Cisauk;"Jalan kampung Leuwiranji, Sukamulya, Kec. Rumpin, Kabupaten Bogor, Jawa Barat 16350";"Sukamulya, Kec. Rumpin, Kabupaten Bogor";PAPUA;16350;Indonesia;085780881004;;;-63.721.068;1.066.459.588;https://maps.google.com/?cid=0x0:0x13e210069e886101;
komplek housing;Otoritas Perumahan;Cluster Duta Village;"Cluster Duta Village, South Sudimara, Ciledug, Tangerang City, Banten 15151";"South Sudimara, Ciledug, Tangerang City";PAPUA;15151;Indonesia;;;;-62.274.453;1.066.990.082;https://maps.google.com/?cid=0x0:0x74890fb753f41720;
komplek housing;komplek housing;Distrik Betcbamu;"Kabupaten Asmat, Papua";"Kabupaten Asmat, Papua";PAPUA;;Indonesia;;;;-57.285.964;1.382.791.757;https://maps.google.com/?cid=0x0:0xa352aadb63fd6688;
perumahan;perumahan;Papua 99777;"Kabupaten Asmat, Papua";"Kabupaten Asmat, Papua";PAPUA;;Indonesia;;;;-54.613.838;1.381.995.591;https://maps.google.com/?cid=0x0:0x8e1d4401ddfcedae;
perumahan;Komplek perumahan;RM Tormand;"Jln Zeqward, Bis Agats, Distrik Agats, Kabupaten Asmat, Papua 99777";"Bis Agats, Distrik Agats, Kabupaten Asmat";PAPUA;99777;Indonesia;085254835555;;;-5.548.675;1.381.341.917;https://maps.google.com/?cid=0x0:0xa99d83078377df50;
perumahan;Perhimpunan Pengembang Perumahan;Ykpa II;"F49P+3XG, Bis Agats, Distrik Agats, Kabupaten Asmat, Papua 99777";"Bis Agats, Distrik Agats, Kabupaten Asmat";PAPUA;99777;Indonesia;;;;-55.323.192;1.381.374.443;https://maps.google.com/?cid=0x0:0x43cab1ee4b30a706;
perumahan;Komplek perumahan;Perumahan Shabandar agats;"F4GR+R4M, Jl. Dermaga Baru, Bis Agats, Distrik Agats, Kabupaten Asmat, Papua 99777";"Jl. Dermaga Baru, Bis Agats, Distrik Agats, Kabupaten Asmat";PAPUA;99777;Indonesia;;;;-55.229.094;1.381.403.005;https://maps.google.com/?cid=0x0:0xbcc89ff071601b2;
perumahan;Komplek perumahan;MY BEFAK ALDI;"Jl. Nusantara No.24b, Bis Agats, Distrik Agats, Kabupaten Asmat, Papua 99777";"Bis Agats, Distrik Agats, Kabupaten Asmat";PAPUA;99777;Indonesia;;;;-55.410.475;1.381.420.523;https://maps.google.com/?cid=0x0:0x8ee824c6147782b0;
perumahan;Pembangunan Perumahan;Asmat/agats;"F47C+PGX, Jln, safan, Agats, Asmat Regency, Papua";"Kabupaten Asmat, Papua";PAPUA;;Indonesia;;;;-5.535.626;138.121.359;https://maps.google.com/?cid=0x0:0x3d415f05070eb6ad;
perumahan;Komplek perumahan;Rumah pak Bram;"Jl. Pemda No.19, Bis Agats, Distrik Agats, Kabupaten Asmat, Papua 99777";"Bis Agats, Distrik Agats, Kabupaten Asmat";PAPUA;99777;Indonesia;;;;-55.394.618;13.813.853;https://maps.google.com/?cid=0x0:0x6edcd60174c2d98f;
perumahan;Komplek perumahan;Kompleks Beriten;"F45P+RM7, Jl. Frans Kaisepo, Bis Agats, Distrik Agats, Kabupaten Asmat, Papua 99777";"Jl. Frans Kaisepo, Bis Agats, Distrik Agats, Kabupaten Asmat";PAPUA;99777;Indonesia;;;;-55.404.609;1.381.366.804;https://maps.google.com/?cid=0x0:0xf2f4ae7e4a977625;
perumahan;Komplek perumahan;Rumah Lena Datu Manik;"F4FR+RCJ, Bis Agats, Distrik Agats, Kabupaten Asmat, Papua";"Kabupaten Asmat, Papua";PAPUA;;Indonesia;;;;-5.525.414;1.381.410.035;https://maps.google.com/?cid=0x0:0x9c91a011e2abd3a7;
perumahan;Komplek perumahan;Perumahan Pendeta KLASIS GPI PAPUA ASMAT;"F43Q+J7F, Bis Agats, Distrik Agats, Kabupaten Asmat, Papua 99777";"Bis Agats, Distrik Agats, Kabupaten Asmat";PAPUA;99777;Indonesia;;;;-55.451.549;13.813.824;https://maps.google.com/?cid=0x0:0xbc25c24bd945889e;
perumahan;Komplek perumahan;Resubun House;"F45M+M57, Jl. Kartini, Bis Agats, Distrik Agats, Kabupaten Asmat, Papua 99777";"Jl. Kartini, Bis Agats, Distrik Agats, Kabupaten Asmat";PAPUA;99777;Indonesia;;;;-55.411.115;1.381.328.691;https://maps.google.com/?cid=0x0:0xe4290a9b27124549;
perumahan;Komplek perumahan;Agats;"Jl. Nusantara 1 No.1, Bis Agats, Distrik Agats, Kabupaten Asmat, Papua 99777";"Bis Agats, Distrik Agats, Kabupaten Asmat";PAPUA;99777;Indonesia;;;;-55.416.164;1.381.421.624;https://maps.google.com/?cid=0x0:0x12f483ff74557c43;
perumahan;Komplek perumahan;MABES KAUMBOT;"F45R+G2V, Jl. Pemda, Bis Agats, Distrik Agats, Kabupaten Asmat, Papua 99777";"Jl. Pemda, Bis Agats, Distrik Agats, Kabupaten Asmat";PAPUA;99777;Indonesia;;;;-55.411.356;1.381.400.367;https://maps.google.com/?cid=0x0:0xcd40a95b64506a61;
perumahan;Gedung Apartemen;Rumah;"F44J+Q93, Bis Agats, Distrik Agats, Kabupaten Asmat, Papua 99777";"Bis Agats, Distrik Agats, Kabupaten Asmat";PAPUA;99777;Indonesia;;;;-554.386;13.813.095;https://maps.google.com/?cid=0x0:0xb614ff92107e8c4f;
perumahan;Perhimpunan Pengembang Perumahan;SANGGAR SENI KAMPUNG BISMAM DISTRIK AGATS KAB ASMAT;"G34P+5H, Smith, Distrik Joerat, Kabupaten Asmat, Papua";"Kabupaten Asmat, Papua";PAPUA;;Indonesia;;;;-54.945.233;1.380.864.233;https://maps.google.com/?cid=0x0:0x5737d4db507c594f;
perumahan;Komplek perumahan;KIOS ARKA;"F4CR+R9J, Jl. Dermaga Baru, Bis Agats, Distrik Agats, Kabupaten Asmat, Papua 99777";"Jl. Dermaga Baru, Bis Agats, Distrik Agats, Kabupaten Asmat";PAPUA;99777;Indonesia;;;;-55.279.038;1.381.408.849;https://maps.google.com/?cid=0x0:0x6787fd777023ad1f;
perumahan;Komplek perumahan;Asmat;"F46Q+7W4, Jl. Swamenas, Bis Agats, Distrik Agats, Kabupaten Asmat, Papua 99777";"Jl. Swamenas, Bis Agats, Distrik Agats, Kabupaten Asmat";PAPUA;99777;Indonesia;;;;-55.393.505;1.381.398.306;https://maps.google.com/?cid=0x0:0xf1bea0b3ac71cb55;
perumahan;Komplek perumahan;Kita pu rumah;"F4GR+FWF, Jalan suru suru, pelabuhan baru, Distrik Agats, Kabupaten Asmat, Papua";"Kabupaten Asmat, Papua";PAPUA;;Indonesia;;;;-55.238.148;1.381.423.111;https://maps.google.com/?cid=0x0:0x70bc55e79e011fa6;
perumahan;Rumah Pondokan;Rumah Kost Ibu Nursida;"Jl. Yapis, Bis Agats, Distrik Agats, Kabupaten Asmat, Papua 99777";"Bis Agats, Distrik Agats, Kabupaten Asmat";PAPUA;99777;Indonesia;;;;-55.337.756;1.381.431.194;https://maps.google.com/?cid=0x0:0xb4b8e9e203a75d46;
perumahan;Komplek perumahan;rumah dela;"F47P+WQH, Jl. Ayam Kecil, Bis Agats, Distrik Agats, Kabupaten Asmat, Papua 99777";"Jl. Ayam Kecil, Bis Agats, Distrik Agats, Kabupaten Asmat";PAPUA;99777;Indonesia;;;;-55.351.935;1.381.369.846;https://maps.google.com/?cid=0x0:0xf1e0e410167465c4;
perumahan;perumahan;Agats;"Bis Agats, Distrik Agats, Kabupaten Asmat, Papua";"Kabupaten Asmat, Papua";PAPUA;;Indonesia;;;;-5.535.626;138.121.359;https://maps.google.com/?cid=0x0:0xf1c37eeb196c76c9;
perumahan;Komplek perumahan;Penginapan;"F47C+PGX, Bis Agats, Distrik Agats, Kabupaten Asmat, Papua";"Kabupaten Asmat, Papua";PAPUA;;Indonesia;;;;-5.535.626;138.121.359;https://maps.google.com/?cid=0x0:0xa37c65c1ed95a727;
perumahan;Sekolah Menengah Atas;Perumahan Guru SMAN 1 Agats;"F47C+PGX, Perumahan SMAN 2, Bis Agats, Distrik Agats, Kabupaten Asmat, Papua";"Kabupaten Asmat, Papua";PAPUA;;Indonesia;;;;-5.535.626;138.121.359;https://maps.google.com/?cid=0x0:0x602a9122fb26baae;
perumahan;Komplek perumahan;Perumahan biasa;"F47C+PGX, Bis Agats, Distrik Agats, Kabupaten Asmat, Papua";"Kabupaten Asmat, Papua";PAPUA;;Indonesia;;;;-5.535.626;138.121.359;https://maps.google.com/?cid=0x0:0x64328cf0bc9a41bc;
perumahan;Toko umum;pasar lma;"F47C+PGX, Bis Agats, Distrik Agats, Kabupaten Asmat, Papua";"Kabupaten Asmat, Papua";PAPUA;;Indonesia;;;;-5.535.626;138.121.359;https://maps.google.com/?cid=0x0:0x9375096ec2143d38;
perumahan;Komplek perumahan;Jufran Pareira;"F47C+PGX, Jl. Mbait 4, Bis Agats, Distrik Agats, Kabupaten Asmat, Papua";"Kabupaten Asmat, Papua";PAPUA;;Indonesia;;;;-5.535.626;138.121.359;https://maps.google.com/?cid=0x0:0x3d6dc695e9bf6b11;
perumahan;perumahan;AHSAR HOME;"F47C+PGX, Bis Agats, Distrik Agats, Kabupaten Asmat, Papua";"Kabupaten Asmat, Papua";PAPUA;;Indonesia;;;;-5.535.626;138.121.359;https://maps.google.com/?cid=0x0:0xf9630b00ea195fc7;
perumahan;Hotel;Kost Pak SiL;"F47C+PGX, Bis Agats, Distrik Agats, Kabupaten Asmat, Papua";"Kabupaten Asmat, Papua";PAPUA;;Indonesia;;;;-5.535.626;138.121.359;https://maps.google.com/?cid=0x0:0xda5ff81750c97d59;
perumahan;Perhimpunan Pengembang Perumahan;Keluarga Kamona;"F47C+PGX, Bis Agats, Distrik Agats, Kabupaten Asmat, Papua";"Kabupaten Asmat, Papua";PAPUA;;Indonesia;;;;-5.535.626;138.121.359;https://maps.google.com/?cid=0x0:0x8fd693b87f12d3fa;
perumahan;Komplek perumahan;Kampung Yasiw;"798M+4V, Atsy, Kabupaten Asmat, Papua 99776";"Atsy, Kabupaten Asmat";PAPUA;99776;Indonesia;;;;-57.347.363;1.383.847.174;https://maps.google.com/?cid=0x0:0x642ad15a7745383e;
perumahan;Perhimpunan Pengembang Perumahan;Pinggiran Kali Datimit Kampung Yasiuw;"6FCH+CF5, Ambisu, Atsy, Kabupaten Asmat, Papua";"Kabupaten Asmat, Papua";PAPUA;;Indonesia;;;;-57.789.952;1.384.787.258;https://maps.google.com/?cid=0x0:0xa0ee52f021e39295;
perumahan;Gereja Katolik;"Gereja Katolik Paroki Santo Paulus, Atsj";"797P+Q2C, Jalan Sabang Merauke - Agats, Atsy, Asmat Regency, Papua 99776";"Jalan Sabang Merauke - Agats, Atsy, Asmat Regency";PAPUA;99776;Indonesia;;;;-57.355.617;1.383.850.286;https://maps.google.com/?cid=0x0:0x6df0ff5ce0b5a25d;
perumahan;Kantor Pemerintah;Telkomsel Sawa Erma;"R6V9+24W, Erma, Sawa Erma, Kabupaten Asmat, Papua 99779";"Erma, Sawa Erma, Kabupaten Asmat";PAPUA;99779;Indonesia;;;;-51.572.225;1.382.172.581;https://maps.google.com/?cid=0x0:0xe0eed099acece97f;
perumahan;Kantor Perusahaan;Sawa erma;"R6X8+PPQ, Sawa, Sawa Erma, Kabupaten Asmat, Papua";"Kabupaten Asmat, Papua";PAPUA;;Indonesia;;;;-51.506.696;1.382.168.477;https://maps.google.com/?cid=0x0:0x9b408a14745747;
perumahan;perumahan;Papua 99779;"Kabupaten Asmat, Papua";"Kabupaten Asmat, Papua";PAPUA;;Indonesia;;;;-49.651.102;1.388.799.972;https://maps.google.com/?cid=0x0:0x21328fcdfe8f7ad3;
perumahan;Komplek perumahan;KAMPUNG KATEW;"H9M9+J8, Pau, Jetsy, Kabupaten Asmat, Papua";"Kabupaten Asmat, Papua";PAPUA;;Indonesia;;;;-54.159.375;1.383.683.125;https://maps.google.com/?cid=0x0:0xf0e15625d8deebd8;
perumahan;Pembangunan Perumahan;Desa Manep;"HCQQ+8VM, Manep, Akat, Kabupaten Asmat, Papua 99779";"Manep, Akat, Kabupaten Asmat";PAPUA;99779;Indonesia;;;;-54.121.259;1.384.397.497;https://maps.google.com/?cid=0x0:0x3c16ba0377ee2a26;
perumahan;Komplek perumahan;Kampung Beco;"HGPP+45, Manep, Akat, Kabupaten Asmat, Papua";"Kabupaten Asmat, Papua";PAPUA;;Indonesia;;;;-5.414.641;138.535.402;https://maps.google.com/?cid=0x0:0xb4e6ce15c7622921;
perumahan;perumahan;Asmat;"W9VX+2GW, Abamu, Ykpa2, Kabupaten Asmat, Papua";"Kabupaten Asmat, Papua";PAPUA;;Indonesia;;;;-50.573.958;1.383.988.186;https://maps.google.com/?cid=0x0:0x5d392bfad7b6b1e2;
perumahan;Pembangunan Perumahan;Distrik Derkoumor Kampung Erosaman;"Abamu, Distrik Unir Sirau, Kabupaten Asmat, Papua";"Kabupaten Asmat, Papua";PAPUA;;Indonesia;;;;-50.573.958;1.383.988.186;https://maps.google.com/?cid=0x0:0x191ab87ef414cb6c;
perumahan;Pembangunan Perumahan;Kampung beco;"W9VX+2GW, Abamu, Distrik Unir Sirau, Kabupaten Asmat, Papua 99779";"Abamu, Distrik Unir Sirau, Kabupaten Asmat";PAPUA;99779;Indonesia;;;;-50.573.958;1.383.988.186;https://maps.google.com/?cid=0x0:0x3e94d4f2caedae5d;
perumahan;Kantor Perusahaan;Sawa erma;"R6X8+PPQ, Sawa, Sawa Erma, Kabupaten Asmat, Papua";"Kabupaten Asmat, Papua";PAPUA;;Indonesia;;;;-51.506.696;1.382.168.477;https://maps.google.com/?cid=0x0:0x9b408a14745747;
perumahan;Pembangunan Perumahan;Kampung Tomor;"2M5H+PP, Tomor, Suru-Suru, Kabupaten Asmat, Papua";"Kabupaten Asmat, Papua";PAPUA;;Indonesia;;;;-49.907.213;1.386.793.373;https://maps.google.com/?cid=0x0:0x85d1dbb866db6862;
perumahan;Perhimpunan Pengembang Perumahan;Kampung Yeni;"P3H6+662, Yeni, Distrik Joerat, Kabupaten Asmat, Papua 99778";"Yeni, Distrik Joerat, Kabupaten Asmat";PAPUA;99778;Indonesia;;;;-52.719.787;1.380.605.108;https://maps.google.com/?cid=0x0:0xce7f7b0fd5742a74;
perumahan;Balai Pertemuan Desa;Kampung Ulakin;"Abamu, Ulakin, Kabupaten Asmat, Papua 99791";"Ulakin, Kabupaten Asmat";PAPUA;99791;Indonesia;0821979972792;;;-50.574.136;1.383.988.234;https://maps.google.com/?cid=0x0:0xc769a5e2b62c6af8;
perumahan;Perumahan;Kali tini;"QG5P+XPX Kali tini jalur Ani, Yuni, Akat, Kabupaten Asmat, Papua";"Kabupaten Asmat, Papua";PAPUA;;Indonesia;;;;-52.400.209;1.385.368.617;https://maps.google.com/?cid=0x0:0xb9b479a2ff2062a0;
perumahan;Komplek perumahan;Mabul Koroway Buluanop Asmat;"W9VX+2GW, Koroway, Buluanop, Kabupaten Asmat, Papua";"Kabupaten Asmat, Papua";PAPUA;;Indonesia;;;;-50.573.958;1.383.988.186;https://maps.google.com/?cid=0x0:0xa5ce84f91c560498;
perumahan;Pembangunan Perumahan;Kampung Isyraf;"WHP6+HR, Munu, Distrik Unir Sirau, Kabupaten Asmat, Papua 99779";"Munu, Distrik Unir Sirau, Kabupaten Asmat";PAPUA;99779;Indonesia;;;;-50.635.921;1.385.620.909;https://maps.google.com/?cid=0x0:0x4298203a9ed3902b;
perumahan;perumahan;Fakan ani;"W9VX+2GW, Kampung fakan, Distrik Unir Sirau, Kabupaten Asmat, Papua";"Kabupaten Asmat, Papua";PAPUA;;Indonesia;;;;-50.573.958;1.383.988.186;https://maps.google.com/?cid=0x0:0x5ccbbddb5e4d098d;
perumahan;Komplek perumahan;Kita pu rumah;"F4GR+FWF, Jalan suru suru, pelabuhan baru, Distrik Agats, Kabupaten Asmat, Papua";"Kabupaten Asmat, Papua";PAPUA;;Indonesia;;;;-55.238.148;1.381.423.111;https://maps.google.com/?cid=0x0:0x70bc55e79e011fa6;
perumahan;Pembangunan Perumahan;Wagabus;"P7V4+MQ, Karbis, Suator, Kabupaten Asmat, Papua";"Kabupaten Asmat, Papua";PAPUA;;Indonesia;;;;-5.255.785;13.925.689;https://maps.google.com/?cid=0x0:0x15d6b4848522bf2e;
perumahan;Pembangunan Perumahan;Rumah Yance.Fr;"MF3H+QJ, Beco, Binamzain, Kabupaten Asmat, Papua Selatan";"Kabupaten Asmat, Papua Selatan";PAPUA;;Indonesia;;;;-53.455.625;1.384.790.625;https://maps.google.com/?cid=0x0:0xe1c480c97b5dc848;
perumahan;Komplek perumahan;Rumah Lena Datu Manik;"F4FR+RCJ, Bis Agats, Distrik Agats, Kabupaten Asmat, Papua";"Kabupaten Asmat, Papua";PAPUA;;Indonesia;;;;-5.525.414;1.381.410.035;https://maps.google.com/?cid=0x0:0x9c91a011e2abd3a7;
perumahan;Pembangunan Perumahan;Asmat/agats;"F47C+PGX, Jln, safan, Agats, Asmat Regency, Papua";"Kabupaten Asmat, Papua";PAPUA;;Indonesia;;;;-5.535.626;138.121.359;https://maps.google.com/?cid=0x0:0x3d415f05070eb6ad;
perumahan;perumahan;Koramil Suru;"6XJP+WG, Suru-Suru, Kabupaten Asmat, Papua";"Kabupaten Asmat, Papua";PAPUA;;Indonesia;;;;-476.769;138.986.296;https://maps.google.com/?cid=0x0:0x50c6a9fbde2dbfbd;
perumahan;Pembangunan Perumahan;Perumahan Bappeda;"4F3G+74, Moruku, Kec. Dekai, Kabupaten Yahukimo, Papua 99571";"Moruku, Kec. Dekai, Kabupaten Yahukimo";PAPUA;99571;Indonesia;;;;-48.968.328;1.394.752.584;https://maps.google.com/?cid=0x0:0x3584526e70706fc3;
perumahan;Taman Kanak-kanak;Rumah Belajar @merawatpapua Akat;"J8M9+V3, Ayam / Akat, Akat, Kabupaten Asmat, Papua";"Kabupaten Asmat, Papua";PAPUA;;Indonesia;;;;-53.652.745;1.383.176.961;https://maps.google.com/?cid=0x0:0xa4bd2ba7b888c49a;
perumahan;perumahan;Papua 99782;"Kabupaten Asmat, Papua";"Kabupaten Asmat, Papua";PAPUA;;Indonesia;;;;-60.419.322;1.384.787.258;https://maps.google.com/?cid=0x0:0x95c8a9b5775eb359;
perumahan;Kantor Polisi;Polsek fayit;"W9QM+HCF, Basim, Distrik Fayit, Kabupaten Asmat, Papua";"Kabupaten Asmat, Papua";PAPUA;;Indonesia;;;;-60.610.672;1.383.835.427;https://maps.google.com/?cid=0x0:0xa2862f9be58f4383;
perumahan;Pembangunan Perumahan;Kampung piramat;"VGW2+V6, Bawos, Distrik Fayit, Kabupaten Asmat, Papua";"Kabupaten Asmat, Papua";PAPUA;;Indonesia;;;;-61.028.125;1.385.005.625;https://maps.google.com/?cid=0x0:0xb38bb4dfa6fb8472;
perumahan;Komplek perumahan;Kampung bipim;"4C35+PG3, Bipim, Atsy, Kabupaten Asmat, Papua";"Kabupaten Asmat, Papua";PAPUA;;Indonesia;;;;-58.957.261;1.384.088.007;https://maps.google.com/?cid=0x0:0x72242ed8d8bb0f49;
perumahan;;Kios makmur /indowifi;"RJ6Q+XW, Hainam, Distrik Pantai Kasuari, Kabupaten Asmat, Papua";"Kabupaten Asmat, Papua";PAPUA;;Indonesia;;;;-61.875.802;1.386.397.966;https://maps.google.com/?cid=0x0:0x43b3b3d4c4e89bca;
perumahan;Komplek perumahan;RUMAH SANDI;"RJ8R+RM2, Hainam, Distrik Pantai Kasuari, Kabupaten Asmat, Papua 99773";"Hainam, Distrik Pantai Kasuari, Kabupaten Asmat";PAPUA;99773;Indonesia;;;;-6.183.667;138.641.634;https://maps.google.com/?cid=0x0:0x84e02cab6b71c64a;
perumahan;perumahan;Distrik Fayit;"Kabupaten Asmat, Papua";"Kabupaten Asmat, Papua";PAPUA;;Indonesia;;;;-60.610.672;1.383.835.427;https://maps.google.com/?cid=0x0:0x4b1b5304d72076e5;
perumahan;perumahan;Distrik Pantai Kasuari;"Kabupaten Asmat, Papua";"Kabupaten Asmat, Papua";PAPUA;;Indonesia;;;;-62.184.287;138.598.804;https://maps.google.com/?cid=0x0:0x1b4529030e9094c;
perumahan;Komplek perumahan;KAMPUNG TAREO DISTRIK SAFAN;"HG5J+XX8, Semendoro, Distrik Pantai Kasuari, Kabupaten Asmat, Papua 99773";"Semendoro, Distrik Pantai Kasuari, Kabupaten Asmat";PAPUA;99773;Indonesia;;;;-64.400.844;1.385.324.542;https://maps.google.com/?cid=0x0:0x18ac247b02d13e53;
perumahan;Komplek perumahan;RUMAH SANDI;"RJ8R+RM2, Hainam, Distrik Pantai Kasuari, Kabupaten Asmat, Papua 99773";"Hainam, Distrik Pantai Kasuari, Kabupaten Asmat";PAPUA;99773;Indonesia;;;;-6.183.667;138.641.634;https://maps.google.com/?cid=0x0:0x84e02cab6b71c64a;
perumahan;Komplek perumahan;Danau tuer;"MP2Q+QM9, Kawem, Distrik Pantai Kasuari, Kabupaten Asmat, Papua 99773";"Kawem, Distrik Pantai Kasuari, Kabupaten Asmat";PAPUA;99773;Indonesia;;;;-63.480.926;138.739.224;https://maps.google.com/?cid=0x0:0x362e507a14c2856e;
perumahan;Perumahan;Kampung Sanep;"QHMH+RC, Bawor, Distrik Pantai Kasuari, Kabupaten Asmat, Papua";"Kabupaten Asmat, Papua";PAPUA;;Indonesia;;;;-62.149.208;138.579.534;https://maps.google.com/?cid=0x0:0x8ecd9034a607346a;
perumahan;Perumahan;Sarmafo;"RH2G+J4, Eseib, Distrik Pantai Kasuari, Kabupaten Asmat, Papua";"Kabupaten Asmat, Papua";PAPUA;;Indonesia;;;;-61.984.313;1.385.752.545;https://maps.google.com/?cid=0x0:0x1dccffbec33836af;
perumahan;;Kios makmur /indowifi;"RJ6Q+XW, Hainam, Distrik Pantai Kasuari, Kabupaten Asmat, Papua";"Kabupaten Asmat, Papua";PAPUA;;Indonesia;;;;-61.875.802;1.386.397.966;https://maps.google.com/?cid=0x0:0x43b3b3d4c4e89bca;
perumahan;perumahan;Papua 99766;Papua;Papua;PAPUA;;Indonesia;;;;-52.037.329;1.394.466.005;https://maps.google.com/?cid=0x0:0xd6fdff385c07ba5d;
perumahan;Pembangunan Perumahan;Wagabus;"P7V4+MQ, Karbis, Suator, Kabupaten Asmat, Papua";"Kabupaten Asmat, Papua";PAPUA;;Indonesia;;;;-5.255.785;13.925.689;https://maps.google.com/?cid=0x0:0x15d6b4848522bf2e;
perumahan;Perhimpunan Pengembang Perumahan;Kampung Wowi;"F689+7P, Wowi, Suator, Kabupaten Asmat, Papua";"Kabupaten Asmat, Papua";PAPUA;;Indonesia;;;;-55.343.065;1.392.193.176;https://maps.google.com/?cid=0x0:0x7f8af7fbce722bb3;
perumahan;Perhimpunan Pengembang Perumahan;Kampung jinak;"F3W7+9GJ, Jinak, Suator, Kabupaten Asmat, Papua 99776";"Jinak, Suator, Kabupaten Asmat";PAPUA;99776;Indonesia;;;;-55.040.413;139.063.772;https://maps.google.com/?cid=0x0:0x4829476b6af69f42;
perumahan;perumahan;Jln koskosan Lokbon Dekai Yahukimo;"2F62+MC, Vakam, Suator, Kabupaten Asmat, Papua";"Kabupaten Asmat, Papua";PAPUA;;Indonesia;;;;-4.988.296;139.451.067;https://maps.google.com/?cid=0x0:0xd2be7d3354e2141a;
perumahan;perumahan;Wowi;"F67M+V7, Wowi, Suator, Kabupaten Asmat, Papua";"Kabupaten Asmat, Papua";PAPUA;;Indonesia;;;;-55.353.206;1.392.331.736;https://maps.google.com/?cid=0x0:0x4c4c51a01f5699ac;
perumahan;Pembangunan Perumahan;Vakam Distrik Joutu Kab. Asmat;"FCV6+XC8, Imembi, Kaibar, Kabupaten Mappi, Papua 99875";"Imembi, Kaibar, Kabupaten Mappi";PAPUA;99875;Indonesia;;;;-5.505.088;139.411.064;https://maps.google.com/?cid=0x0:0x7cf00b17ac9a10bd;
perumahan;perumahan;Rumah Yance;"MF4H+QR8 Binamzain, Kabupaten Asmat, Selatan, Imembi, Kaibar, Kabupaten Mappi, Papua";"Kabupaten Mappi, Papua";PAPUA;;Indonesia;082197972792;;;-53.458.463;1.394.788.552;https://maps.google.com/?cid=0x0:0xec40509bc8bdedaa;
perumahan;Komplek perumahan;Tempat pemukiman;"F3W7+C7R, Jinak, Suator, Kabupaten Asmat, Papua 99776";"Jinak, Suator, Kabupaten Asmat";PAPUA;99776;Indonesia;;;;-55.038.991;1.390.631.524;https://maps.google.com/?cid=0x0:0xdfbe36d5618e8a21;
perumahan;perumahan;Rumah Guru SMPN Suator;;;PAPUA;;Indonesia;082187676676;;;-53.341.034;1.393.402.545;https://maps.google.com/?cid=0x0:0x81ba4e00166a5228;
perumahan;Pembangunan Perumahan;Perumahan Bappeda;"4F3G+74, Moruku, Kec. Dekai, Kabupaten Yahukimo, Papua 99571";"Moruku, Kec. Dekai, Kabupaten Yahukimo";PAPUA;99571;Indonesia;;;;-48.968.328;1.394.752.584;https://maps.google.com/?cid=0x0:0x3584526e70706fc3;
perumahan;perumahan;Alfons'Home;"MJ4R+9G, Fomu, Distrik Ti Zain, Kabupaten Mappi, Papua";"Kabupaten Mappi, Papua";PAPUA;;Indonesia;;;;-53.429.513;1.396.406.956;https://maps.google.com/?cid=0x0:0x8eb628a50efbb59d;
perumahan;Perhimpunan Pengembang Perumahan;Musaima natason;"RPRW+2C, Yaniruma, Kabupaten Boven Digoel, Papua";"Kabupaten Boven Digoel, Papua";PAPUA;;Indonesia;;;;-5.159.911;139.746.066;https://maps.google.com/?cid=0x0:0x5d2a5ae6f0be5154;
perumahan;perumahan;Suator;"Kabupaten Asmat, Papua";"Kabupaten Asmat, Papua";PAPUA;;Indonesia;;;;-51.911.556;139.284.143;https://maps.google.com/?cid=0x0:0xb29915cc9bf8f2a6;
perumahan;Pondok pedesaan;Mabul distrik buluanop;"PP7W+6J, Yaniruma, Kabupaten Boven Digoel, Papua";"Kabupaten Boven Digoel, Papua";PAPUA;;Indonesia;;;;-52.870.591;1.397.474.962;https://maps.google.com/?cid=0x0:0xf6a76dbd26e793b2;
perumahan;Kantor Pemerintah Distrik;Kampung Sinimburu;"PW4V+7C, Manggemahe, Yaniruma, Kabupaten Boven Digoel, Papua 99663";"Manggemahe, Yaniruma, Kabupaten Boven Digoel";PAPUA;99663;Indonesia;;;;-52.943.494;1.399.435.908;https://maps.google.com/?cid=0x0:0xf5beec574b8d22a6;
perumahan;perumahan;Suru-Suru;"Kabupaten Asmat, Papua";"Kabupaten Asmat, Papua";PAPUA;;Indonesia;;;;-48.532.804;1.386.790.007;https://maps.google.com/?cid=0x0:0x5f6a1a0f0be715bf;
perumahan;Pembangunan Perumahan;Kampung Tomor;"2M5H+PP, Tomor, Suru-Suru, Kabupaten Asmat, Papua";"Kabupaten Asmat, Papua";PAPUA;;Indonesia;;;;-49.907.213;1.386.793.373;https://maps.google.com/?cid=0x0:0x85d1dbb866db6862;
perumahan;perumahan;Koramil Suru;"6XJP+WG, Suru-Suru, Kabupaten Asmat, Papua";"Kabupaten Asmat, Papua";PAPUA;;Indonesia;;;;-476.769;138.986.296;https://maps.google.com/?cid=0x0:0x50c6a9fbde2dbfbd;
perumahan;perumahan;Distrik Suru-Suru;"Kabupaten Yahukimo, Papua";"Kabupaten Yahukimo, Papua";PAPUA;;Indonesia;;;;-46.811.776;1.390.223.198;https://maps.google.com/?cid=0x0:0x22d44e401f8e38ef;
perumahan;Pembangunan Perumahan;Kampung Isyraf;"WHP6+HR, Munu, Distrik Unir Sirau, Kabupaten Asmat, Papua 99779";"Munu, Distrik Unir Sirau, Kabupaten Asmat";PAPUA;99779;Indonesia;;;;-50.635.921;1.385.620.909;https://maps.google.com/?cid=0x0:0x4298203a9ed3902b;
perumahan;perumahan;Papua 99766;Papua;Papua;PAPUA;;Indonesia;;;;-52.037.329;1.394.466.005;https://maps.google.com/?cid=0x0:0xd6fdff385c07ba5d;
perumahan;Pembangunan Perumahan;Wagabus;"P7V4+MQ, Karbis, Suator, Kabupaten Asmat, Papua";"Kabupaten Asmat, Papua";PAPUA;;Indonesia;;;;-5.255.785;13.925.689;https://maps.google.com/?cid=0x0:0x15d6b4848522bf2e;
perumahan;perumahan;Kolf Braza;"Kabupaten Asmat, Papua";"Kabupaten Asmat, Papua";PAPUA;;Indonesia;;;;-52.017.018;1.390.009.403;https://maps.google.com/?cid=0x0:0x51fb460a334e5e21;
perumahan;perumahan;Jln koskosan Lokbon Dekai Yahukimo;"2F62+MC, Vakam, Suator, Kabupaten Asmat, Papua";"Kabupaten Asmat, Papua";PAPUA;;Indonesia;;;;-4.988.296;139.451.067;https://maps.google.com/?cid=0x0:0xd2be7d3354e2141a;
perumahan;Pembangunan Perumahan;Vakam Distrik Joutu Kab. Asmat;"FCV6+XC8, Imembi, Kaibar, Kabupaten Mappi, Papua 99875";"Imembi, Kaibar, Kabupaten Mappi";PAPUA;99875;Indonesia;;;;-5.505.088;139.411.064;https://maps.google.com/?cid=0x0:0x7cf00b17ac9a10bd;
perumahan;Pondok pedesaan;Mabul distrik buluanop;"PP7W+6J, Yaniruma, Kabupaten Boven Digoel, Papua";"Kabupaten Boven Digoel, Papua";PAPUA;;Indonesia;;;;-52.870.591;1.397.474.962;https://maps.google.com/?cid=0x0:0xf6a76dbd26e793b2;
perumahan;Komplek perumahan;KOMPLEXS SUHUN YAHUN BRAZA;"5F6R+66H, Unnamed Road, Kuaserama, Kec. Dekai, Kabupaten Yahukimo, Papua 99571";"Unnamed Road, Kuaserama, Kec. Dekai, Kabupaten Yahukimo";PAPUA;99571;Indonesia;;;;-48.394.435;1.394.906.217;https://maps.google.com/?cid=0x0:0x8c2886abcd526b2e;
perumahan;Perhimpunan Pengembang Perumahan;Pirabanak;"VF38+F2, Dekamer, Suator, Kabupaten Asmat, Papua";"Kabupaten Asmat, Papua";PAPUA;;Indonesia;;;;-51.463.116;1.394.651.075;https://maps.google.com/?cid=0x0:0x15ef68d70fd0d9ee;
perumahan;Kantor Pemerintah Distrik;Kampung Sinimburu;"PW4V+7C, Manggemahe, Yaniruma, Kabupaten Boven Digoel, Papua 99663";"Manggemahe, Yaniruma, Kabupaten Boven Digoel";PAPUA;99663;Indonesia;;;;-52.943.494;1.399.435.908;https://maps.google.com/?cid=0x0:0xf5beec574b8d22a6;
perumahan;Pembangunan Perumahan;Perumahan Bappeda;"4F3G+74, Moruku, Kec. Dekai, Kabupaten Yahukimo, Papua 99571";"Moruku, Kec. Dekai, Kabupaten Yahukimo";PAPUA;99571;Indonesia;;;;-48.968.328;1.394.752.584;https://maps.google.com/?cid=0x0:0x3584526e70706fc3;
perumahan;perumahan;Rumah Yance;"MF4H+QR8 Binamzain, Kabupaten Asmat, Selatan, Imembi, Kaibar, Kabupaten Mappi, Papua";"Kabupaten Mappi, Papua";PAPUA;;Indonesia;082197972792;;;-53.458.463;1.394.788.552;https://maps.google.com/?cid=0x0:0xec40509bc8bdedaa;
perumahan;Perhimpunan Pengembang Perumahan;Kampung jinak;"F3W7+9GJ, Jinak, Suator, Kabupaten Asmat, Papua 99776";"Jinak, Suator, Kabupaten Asmat";PAPUA;99776;Indonesia;;;;-55.040.413;139.063.772;https://maps.google.com/?cid=0x0:0x4829476b6af69f42;
perumahan;perumahan;Wowi;"F67M+V7, Wowi, Suator, Kabupaten Asmat, Papua";"Kabupaten Asmat, Papua";PAPUA;;Indonesia;;;;-55.353.206;1.392.331.736;https://maps.google.com/?cid=0x0:0x4c4c51a01f5699ac;
perumahan;perumahan;Alfons'Home;"MJ4R+9G, Fomu, Distrik Ti Zain, Kabupaten Mappi, Papua";"Kabupaten Mappi, Papua";PAPUA;;Indonesia;;;;-53.429.513;1.396.406.956;https://maps.google.com/?cid=0x0:0x8eb628a50efbb59d;
perumahan;Komplek perumahan;Pertiagan Pemukiman Jln paradiso;"4FGC+2R6, Massi, Kec. Dekai, Kabupaten Yahukimo, Papua 99571";"Massi, Kec. Dekai, Kabupaten Yahukimo";PAPUA;99571;Indonesia;;;;-487.496;1.394.720.255;https://maps.google.com/?cid=0x0:0x787a848b09e3b110;
perumahan;Perhimpunan Pengembang Perumahan;Musaima natason;"RPRW+2C, Yaniruma, Kabupaten Boven Digoel, Papua";"Kabupaten Boven Digoel, Papua";PAPUA;;Indonesia;;;;-5.159.911;139.746.066;https://maps.google.com/?cid=0x0:0x5d2a5ae6f0be5154;
perumahan;Komplek perumahan;Dekai Keyke;"2GFG+R9M, Dekai, Kec. Dekai, Kabupaten Yahukimo, Papua 99571";"Dekai, Kec. Dekai, Kabupaten Yahukimo";PAPUA;99571;Indonesia;;;;-49.754.238;1.395.259.255;https://maps.google.com/?cid=0x0:0x56ccdef5c98581a6;
perumahan;perumahan;PERUMAHAN ESELON III;"4F9R+6CM, Moruku, Kec. Dekai, Kabupaten Yahukimo, Papua";"Kabupaten Yahukimo, Papua";PAPUA;;Indonesia;;;;-48.819.229;1.394.910.499;https://maps.google.com/?cid=0x0:0xd3a2397c9f8c01f0;
perumahan;perumahan;Rumah Guru SMPN Suator;;;PAPUA;;Indonesia;082187676676;;;-53.341.034;1.393.402.545;https://maps.google.com/?cid=0x0:0x81ba4e00166a5228;
perumahan;perumahan;Rumah Susun Sekolah Penggerak Anggen Fano Dekai Kab. Yahukimo;"4G5F+QQ, Dekai, Kec. Dekai, Kabupaten Yahukimo, Papua";"Kabupaten Yahukimo, Papua";PAPUA;;Indonesia;;;;-48.905.556;1.395.244.444;https://maps.google.com/?cid=0x0:0xacbb7492253a737e;
perumahan;Kantor Pemerintah;Rumah Jabatan Wakil Bupati Yahukimo;"4G58+CRX, Dekai, Kec. Dekai, Kabupaten Yahukimo, Papua 99571";"Dekai, Kec. Dekai, Kabupaten Yahukimo";PAPUA;99571;Indonesia;;;;-48.913.905;1.395.171.024;https://maps.google.com/?cid=0x0:0x682c553396edcdc3;
perumahan;Komplek perumahan;Barak seredala;"4GH4+48V Barak seredala, Kuaserama, Dekai, Yahukimo regency, Papua";"Kabupaten Yahukimo, Papua";PAPUA;;Indonesia;;;;-48.721.262;1.395.057.953;https://maps.google.com/?cid=0x0:0x545f742f57318b0a;
perumahan;Hotel Resor;Villa Braza;"72XJ+25X, Palasari, Kec. Cipanas, Kabupaten Cianjur, Jawa Barat 43253";"Palasari, Kec. Cipanas, Kabupaten Cianjur";PAPUA;43253;Indonesia;087821836493;;;-67.023.752;107.030.493;https://maps.google.com/?cid=0x0:0x6817066f36756b54;
perumahan;Vila;Villacipanaspuncak- bukit danau;"Jl. Komp. Bukit Danau, Palasari, Kec. Cipanas, Kabupaten Cianjur, Jawa Barat 43253";"Palasari, Kec. Cipanas, Kabupaten Cianjur";PAPUA;43253;Indonesia;087779997229;;;-67.046.246;1.070.292.592;https://maps.google.com/?cid=0x0:0x4d48a6766102ab5d;
perumahan;perumahan;Papua 99777;"Kabupaten Asmat, Papua";"Kabupaten Asmat, Papua";PAPUA;;Indonesia;;;;-54.613.838;1.381.995.591;https://maps.google.com/?cid=0x0:0x8e1d4401ddfcedae;
perumahan;Komplek perumahan;KAMPUNG KATEW;"H9M9+J8, Pau, Jetsy, Kabupaten Asmat, Papua";"Kabupaten Asmat, Papua";PAPUA;;Indonesia;;;;-54.159.375;1.383.683.125;https://maps.google.com/?cid=0x0:0xf0e15625d8deebd8;
perumahan;Perhimpunan Pengembang Perumahan;Kampung Yeni;"P3H6+662, Yeni, Distrik Joerat, Kabupaten Asmat, Papua 99778";"Yeni, Distrik Joerat, Kabupaten Asmat";PAPUA;99778;Indonesia;;;;-52.719.787;1.380.605.108;https://maps.google.com/?cid=0x0:0xce7f7b0fd5742a74;
perumahan;Perhimpunan Pengembang Perumahan;Kampung Saw;"G36M+CP, Smith, Distrik Joerat, Kabupaten Asmat, Papua 99777";"Smith, Distrik Joerat, Kabupaten Asmat";PAPUA;99777;Indonesia;;;;-5.488.905;138.084.254;https://maps.google.com/?cid=0x0:0x5d550a41e8d62771;
perumahan;Komplek perumahan;RM Tormand;"Jln Zeqward, Bis Agats, Distrik Agats, Kabupaten Asmat, Papua 99777";"Bis Agats, Distrik Agats, Kabupaten Asmat";PAPUA;99777;Indonesia;085254835555;;;-5.548.675;1.381.341.917;https://maps.google.com/?cid=0x0:0xa99d83078377df50;
perumahan;Komplek perumahan;Rumah pak Bram;"Jl. Pemda No.19, Bis Agats, Distrik Agats, Kabupaten Asmat, Papua 99777";"Bis Agats, Distrik Agats, Kabupaten Asmat";PAPUA;99777;Indonesia;;;;-55.394.618;13.813.853;https://maps.google.com/?cid=0x0:0x6edcd60174c2d98f;
perumahan;perumahan;Rumah di jln yapis;"F48V+F6Q, Jl. Yapis, Bis Agats, Distrik Agats, Kabupaten Asmat, Papua 99777";"Jl. Yapis, Bis Agats, Distrik Agats, Kabupaten Asmat";PAPUA;99777;Indonesia;;;;-55.337.328;138.143.259;https://maps.google.com/?cid=0x0:0x3fb74c602615897b;
perumahan;Perhimpunan Pengembang Perumahan;SANGGAR SENI KAMPUNG BISMAM DISTRIK AGATS KAB ASMAT;"G34P+5H, Smith, Distrik Joerat, Kabupaten Asmat, Papua";"Kabupaten Asmat, Papua";PAPUA;;Indonesia;;;;-54.945.233;1.380.864.233;https://maps.google.com/?cid=0x0:0x5737d4db507c594f;
perumahan;Komplek perumahan;Rumah Lena Datu Manik;"F4FR+RCJ, Bis Agats, Distrik Agats, Kabupaten Asmat, Papua";"Kabupaten Asmat, Papua";PAPUA;;Indonesia;;;;-5.525.414;1.381.410.035;https://maps.google.com/?cid=0x0:0x9c91a011e2abd3a7;
perumahan;Perhimpunan Pengembang Perumahan;Kampung Yamas;"P34C+4RW, Yeni, Distrik Joerat, Kabupaten Asmat, Papua 99778";"Yeni, Distrik Joerat, Kabupaten Asmat";PAPUA;99778;Indonesia;;;;-52.946.385;1.380.720.657;https://maps.google.com/?cid=0x0:0x7fb4a856dcdc7ccb;
perumahan;Perhimpunan Pengembang Perumahan;Ykpa II;"F49P+3XG, Bis Agats, Distrik Agats, Kabupaten Asmat, Papua 99777";"Bis Agats, Distrik Agats, Kabupaten Asmat";PAPUA;99777;Indonesia;;;;-55.323.192;1.381.374.443;https://maps.google.com/?cid=0x0:0x43cab1ee4b30a706;
perumahan;Komplek perumahan;PERUM RSUD PERPETUA J. SAFANPO;"C4XJ+3MQ, Bis Agats, Distrik Agats, Kabupaten Asmat, Papua";"Kabupaten Asmat, Papua";PAPUA;;Indonesia;;;;-55.522.823;1.381.317.493;https://maps.google.com/?cid=0x0:0xf2c12e5b54cb3b63;
perumahan;Komplek perumahan;Perumahan Pendeta KLASIS GPI PAPUA ASMAT;"F43Q+J7F, Bis Agats, Distrik Agats, Kabupaten Asmat, Papua 99777";"Bis Agats, Distrik Agats, Kabupaten Asmat";PAPUA;99777;Indonesia;;;;-55.451.549;13.813.824;https://maps.google.com/?cid=0x0:0xbc25c24bd945889e;
perumahan;Pembangunan Perumahan;Asmat/agats;"F47C+PGX, Jln, safan, Agats, Asmat Regency, Papua";"Kabupaten Asmat, Papua";PAPUA;;Indonesia;;;;-5.535.626;138.121.359;https://maps.google.com/?cid=0x0:0x3d415f05070eb6ad;
perumahan;Komplek perumahan;Kompleks Beriten;"F45P+RM7, Jl. Frans Kaisepo, Bis Agats, Distrik Agats, Kabupaten Asmat, Papua 99777";"Jl. Frans Kaisepo, Bis Agats, Distrik Agats, Kabupaten Asmat";PAPUA;99777;Indonesia;;;;-55.404.609;1.381.366.804;https://maps.google.com/?cid=0x0:0xf2f4ae7e4a977625;
perumahan;Pembangunan Perumahan;Kampung Bisman;"G34Q+MQ, Smith, Distrik Joerat, Kabupaten Asmat, Papua";"Kabupaten Asmat, Papua";PAPUA;;Indonesia;;;;-54.932.837;13.808.942;https://maps.google.com/?cid=0x0:0xf7ee029856446783;
perumahan;Komplek perumahan;Home RG Famz;"F46Q+CM9, Bis Agats, Distrik Agats, Kabupaten Asmat, Papua";"Kabupaten Asmat, Papua";PAPUA;;Indonesia;;;;-55.389.515;1.381.392.405;https://maps.google.com/?cid=0x0:0xbd5b93da4e4ec554;
perumahan;Komplek perumahan;YONATHAN;"F4FR+J2H, Jl. Dermaga Baru, Bis Agats, Distrik Agats, Kabupaten Asmat, Papua 99777";"Jl. Dermaga Baru, Bis Agats, Distrik Agats, Kabupaten Asmat";PAPUA;99777;Indonesia;;;;-55.259.432;1.381.400.948;https://maps.google.com/?cid=0x0:0xdbf970b882a7c821;
perumahan;Komplek perumahan;Roki Purba's House;"F44R+2V2, Bis Agats, Distrik Agats, Kabupaten Asmat, Papua";"Kabupaten Asmat, Papua";PAPUA;;Indonesia;;;;-5.544.994;1.381.421.366;https://maps.google.com/?cid=0x0:0x89deb78ea5b80e44;
perumahan;Komplek perumahan;Resubun House;"F45M+M57, Jl. Kartini, Bis Agats, Distrik Agats, Kabupaten Asmat, Papua 99777";"Jl. Kartini, Bis Agats, Distrik Agats, Kabupaten Asmat";PAPUA;99777;Indonesia;;;;-55.411.115;1.381.328.691;https://maps.google.com/?cid=0x0:0xe4290a9b27124549;
perumahan;Komplek perumahan;Jufran Pareira;"F47C+PGX, Jl. Mbait 4, Bis Agats, Distrik Agats, Kabupaten Asmat, Papua";"Kabupaten Asmat, Papua";PAPUA;;Indonesia;;;;-5.535.626;138.121.359;https://maps.google.com/?cid=0x0:0x3d6dc695e9bf6b11;
perumahan;Komplek perumahan;Cliff Home;"Jl. Nusantara 1 No.0037/a, Bis Agats, Distrik Agats, Kabupaten Asmat, Papua 99777";"Bis Agats, Distrik Agats, Kabupaten Asmat";PAPUA;99777;Indonesia;;;;-55.427.634;1.381.430.528;https://maps.google.com/?cid=0x0:0xa702ebb3141dc8a2;
perumahan;Komplek perumahan;MABES KAUMBOT;"F45R+G2V, Jl. Pemda, Bis Agats, Distrik Agats, Kabupaten Asmat, Papua 99777";"Jl. Pemda, Bis Agats, Distrik Agats, Kabupaten Asmat";PAPUA;99777;Indonesia;;;;-55.411.356;1.381.400.367;https://maps.google.com/?cid=0x0:0xcd40a95b64506a61;
perumahan;Kantor Perusahaan;Mess KSDA Asmat;"F44M+86F, Bis Agats, Distrik Agats, Kabupaten Asmat, Papua";"Kabupaten Asmat, Papua";PAPUA;;Indonesia;;;;-55.441.953;1.381.330.381;https://maps.google.com/?cid=0x0:0xd68fd4f03176ba84;
perumahan;Perhimpunan Pengembang Perumahan;Kosan Novri;"F43H+M73, Jl. Wasem, Kampung Kaye, Agats, Asmat Regency, Papua";"Kabupaten Asmat, Papua";PAPUA;;Indonesia;;;;-55.458.515;1.381.281.679;https://maps.google.com/?cid=0x0:0x1fd62f8d4cc5fd5;
perumahan;Komplek perumahan;Jln. Telkom Plasa Asmat;"F46Q+M8C, Jl. Telkom, Bis Agats, Distrik Agats, Kabupaten Asmat, Papua 99777";"Jl. Telkom, Bis Agats, Distrik Agats, Kabupaten Asmat";PAPUA;99777;Indonesia;;;;-55.383.204;1.381.382.789;https://maps.google.com/?cid=0x0:0x65affafb25eb522c;
perumahan;perumahan;Distrik Joerat;"Kabupaten Asmat, Papua";"Kabupaten Asmat, Papua";PAPUA;;Indonesia;;;;-54.922.847;1.380.855.542;https://maps.google.com/?cid=0x0:0xda3d3ca2262ba8b7;
perumahan;Perhimpunan Pengembang Perumahan;Kampung Yeni;"P3H6+662, Yeni, Distrik Joerat, Kabupaten Asmat, Papua 99778";"Yeni, Distrik Joerat, Kabupaten Asmat";PAPUA;99778;Indonesia;;;;-52.719.787;1.380.605.108;https://maps.google.com/?cid=0x0:0xce7f7b0fd5742a74;
perumahan;Perhimpunan Pengembang Perumahan;Kampung Yamas;"P34C+4RW, Yeni, Distrik Joerat, Kabupaten Asmat, Papua 99778";"Yeni, Distrik Joerat, Kabupaten Asmat";PAPUA;99778;Indonesia;;;;-52.946.385;1.380.720.657;https://maps.google.com/?cid=0x0:0x7fb4a856dcdc7ccb;
perumahan;Perhimpunan Pengembang Perumahan;SANGGAR SENI KAMPUNG BISMAM DISTRIK AGATS KAB ASMAT;"G34P+5H, Smith, Distrik Joerat, Kabupaten Asmat, Papua";"Kabupaten Asmat, Papua";PAPUA;;Indonesia;;;;-54.945.233;1.380.864.233;https://maps.google.com/?cid=0x0:0x5737d4db507c594f;
perumahan;Pembangunan Perumahan;Kampung Bisman;"G34Q+MQ, Smith, Distrik Joerat, Kabupaten Asmat, Papua";"Kabupaten Asmat, Papua";PAPUA;;Indonesia;;;;-54.932.837;13.808.942;https://maps.google.com/?cid=0x0:0xf7ee029856446783;
perumahan;Komplek perumahan;Jufran Pareira;"F47C+PGX, Jl. Mbait 4, Bis Agats, Distrik Agats, Kabupaten Asmat, Papua";"Kabupaten Asmat, Papua";PAPUA;;Indonesia;;;;-5.535.626;138.121.359;https://maps.google.com/?cid=0x0:0x3d6dc695e9bf6b11;
perumahan;Komplek perumahan;Kita pu rumah;"F4GR+FWF, Jalan suru suru, pelabuhan baru, Distrik Agats, Kabupaten Asmat, Papua";"Kabupaten Asmat, Papua";PAPUA;;Indonesia;;;;-55.238.148;1.381.423.111;https://maps.google.com/?cid=0x0:0x70bc55e79e011fa6;
perumahan;Komplek perumahan;RM Tormand;"Jln Zeqward, Bis Agats, Distrik Agats, Kabupaten Asmat, Papua 99777";"Bis Agats, Distrik Agats, Kabupaten Asmat";PAPUA;99777;Indonesia;085254835555;;;-5.548.675;1.381.341.917;https://maps.google.com/?cid=0x0:0xa99d83078377df50;
perumahan;perumahan;Rumah di jln yapis;"F48V+F6Q, Jl. Yapis, Bis Agats, Distrik Agats, Kabupaten Asmat, Papua 99777";"Jl. Yapis, Bis Agats, Distrik Agats, Kabupaten Asmat";PAPUA;99777;Indonesia;;;;-55.337.328;138.143.259;https://maps.google.com/?cid=0x0:0x3fb74c602615897b;
perumahan;Komplek perumahan;YONATHAN;"F4FR+J2H, Jl. Dermaga Baru, Bis Agats, Distrik Agats, Kabupaten Asmat, Papua 99777";"Jl. Dermaga Baru, Bis Agats, Distrik Agats, Kabupaten Asmat";PAPUA;99777;Indonesia;;;;-55.259.432;1.381.400.948;https://maps.google.com/?cid=0x0:0xdbf970b882a7c821;
perumahan;Komplek perumahan;Jln. Telkom Plasa Asmat;"F46Q+M8C, Jl. Telkom, Bis Agats, Distrik Agats, Kabupaten Asmat, Papua 99777";"Jl. Telkom, Bis Agats, Distrik Agats, Kabupaten Asmat";PAPUA;99777;Indonesia;;;;-55.383.204;1.381.382.789;https://maps.google.com/?cid=0x0:0x65affafb25eb522c;
perumahan;Pembangunan Perumahan;Asmat/agats;"F47C+PGX, Jln, safan, Agats, Asmat Regency, Papua";"Kabupaten Asmat, Papua";PAPUA;;Indonesia;;;;-5.535.626;138.121.359;https://maps.google.com/?cid=0x0:0x3d415f05070eb6ad;
perumahan;Komplek perumahan;Home RG Famz;"F46Q+CM9, Bis Agats, Distrik Agats, Kabupaten Asmat, Papua";"Kabupaten Asmat, Papua";PAPUA;;Indonesia;;;;-55.389.515;1.381.392.405;https://maps.google.com/?cid=0x0:0xbd5b93da4e4ec554;
perumahan;Komplek perumahan;Rumah pak Bram;"Jl. Pemda No.19, Bis Agats, Distrik Agats, Kabupaten Asmat, Papua 99777";"Bis Agats, Distrik Agats, Kabupaten Asmat";PAPUA;99777;Indonesia;;;;-55.394.618;13.813.853;https://maps.google.com/?cid=0x0:0x6edcd60174c2d98f;
perumahan;Komplek perumahan;Rumah Lena Datu Manik;"F4FR+RCJ, Bis Agats, Distrik Agats, Kabupaten Asmat, Papua";"Kabupaten Asmat, Papua";PAPUA;;Indonesia;;;;-5.525.414;1.381.410.035;https://maps.google.com/?cid=0x0:0x9c91a011e2abd3a7;
perumahan;Komplek perumahan;PERUM RSUD PERPETUA J. SAFANPO;"C4XJ+3MQ, Bis Agats, Distrik Agats, Kabupaten Asmat, Papua";"Kabupaten Asmat, Papua";PAPUA;;Indonesia;;;;-55.522.823;1.381.317.493;https://maps.google.com/?cid=0x0:0xf2c12e5b54cb3b63;
perumahan;Komplek perumahan;Rmh tinggal;"F46Q+JC5, Jl. Telkom, Bis Agats, Distrik Agats, Kabupaten Asmat, Papua 99777";"Jl. Telkom, Bis Agats, Distrik Agats, Kabupaten Asmat";PAPUA;99777;Indonesia;;;;-5.538.491;1.381.386.108;https://maps.google.com/?cid=0x0:0x810f37795b1ccc35;
perumahan;perumahan;STA;"F49Q+VC7, Bis Agats, Distrik Agats, Kabupaten Asmat, Papua";"Kabupaten Asmat, Papua";PAPUA;;Indonesia;;;;-55.303.422;1.381.385.326;https://maps.google.com/?cid=0x0:0x506db16e1e12b3a0;
perumahan;Komplek perumahan;Ptravis Home;"F44R+FM7, Jl. Kei, Bis Agats, Distrik Agats, Kabupaten Asmat, Papua";"Kabupaten Asmat, Papua";PAPUA;;Indonesia;;;;-55.438.128;1.381.416.791;https://maps.google.com/?cid=0x0:0xea7c9e8ca18aa377;
perumahan;Komplek perumahan;Rahayaan Fordatkosu;"F47W+5W, Bis Agats, Distrik Agats, Kabupaten Asmat, Papua";"Kabupaten Asmat, Papua";PAPUA;;Indonesia;;;;-5.537.065;138.147.362;https://maps.google.com/?cid=0x0:0x61d671387e3ea919;
perumahan;perumahan;Pulau Tiga;"Kabupaten Asmat, Papua";"Kabupaten Asmat, Papua";PAPUA;;Indonesia;;;;-48.345.584;1.380.010.282;https://maps.google.com/?cid=0x0:0xfa037f42c2a610b2;
perumahan;perumahan;Papua;;Papua;PAPUA;;Indonesia;;;;-4.269.928;1.380.803.529;https://maps.google.com/?cid=0x0:0xeba94e9c5eefe673;
perumahan;Pembangunan Perumahan;Perumahan SANAB Timika;"FVH8+W3, Kwamki, Kec. Mimika Baru, Kabupaten Mimika, Papua";"Kabupaten Mimika, Papua";PAPUA;;Indonesia;;;;-45.206.824;1.368.656.879;https://maps.google.com/?cid=0x0:0x35328e6b479a7349;
perumahan;Komplek perumahan;"rumah dimas di pulau tiga, pulau batang natuna";"J3MG+77H, pulau batang, Kabupaten Natuna";Kabupaten Natuna;PAPUA;;Indonesia;;;;36.331.772;1.080.757.461;https://maps.google.com/?cid=0x0:0x5ecb270eb89aa0ae;
perumahan;Komplek perumahan;KAMPUNG TANJUNG;"J35J+X65 ai ili, Tj. Batang, Pulau Tiga, Kabupaten Natuna, Kepulauan Riau";"Kabupaten Natuna, Kepulauan Riau";PAPUA;;Indonesia;;;;36.098.802;1.080.806.141;https://maps.google.com/?cid=0x0:0x20c965c4fb352432;
perumahan;Pembangunan Perumahan;Pulau tiga;"2722+225, Seleman, Bunguran Tim. Laut, Kabupaten Natuna, Kepulauan Riau 29783";"Seleman, Bunguran Tim. Laut, Kabupaten Natuna";PAPUA;29783;Indonesia;;;;4;108.25;https://maps.google.com/?cid=0x0:0xfa763d47d1e83973;
perumahan;Komplek perumahan;Rumah wawan;"M342+JG3, Selading, Pulau Tiga, Kabupaten Natuna, Kepulauan Riau";"Kabupaten Natuna, Kepulauan Riau";PAPUA;;Indonesia;;;;36.559.642;108.050.511;https://maps.google.com/?cid=0x0:0x2d21bd95cfa99d08;
perumahan;Perumahan;Perumahan nelayan pesisir;"Perumahan nelayan, pesisir, Pulau Tiga, Kabupaten Natuna, Kepulauan Riau 29783";"pesisir, Pulau Tiga, Kabupaten Natuna";PAPUA;29783;Indonesia;081271916441;;;36.235.649;1.080.914.751;https://maps.google.com/?cid=0x0:0x6520d6769e42cfdb;
perumahan;Pembangunan Perumahan;Semalau;"J3PC+445, Jalan Raya, Pulau Tiga, Barat, Kabupaten Natuna, Kepulauan Riau";"Kabupaten Natuna, Kepulauan Riau";PAPUA;;Indonesia;;;;3.635.265;10.807.037;https://maps.google.com/?cid=0x0:0xb78ef7406029f99a;
perumahan;Komplek perumahan;Rumah Raja Edi Yuhasri;"J4GC+3RH, Sabang Mawang, Pulau Tiga, Kabupaten Natuna, Kepulauan Riau";"Kabupaten Natuna, Kepulauan Riau";PAPUA;;Indonesia;;;;3.625.166;1.081.221.239;https://maps.google.com/?cid=0x0:0x424fcc35e9b701c6;
perumahan;Otoritas Pelabuhan;Pelabuhan Serantas;"H3WP+G6R, Unnamed Road, Serantas, Pulau Tiga, Kabupaten Natuna, Kepulauan Riau 29783";"Unnamed Road, Serantas, Pulau Tiga, Kabupaten Natuna";PAPUA;29783;Indonesia;;;;3.596.355;10.808.552;https://maps.google.com/?cid=0x0:0x7d453430990fceef;
perumahan;perumahan;desa serantas;"H3XR+XXQ, Serantas, Pulau Tiga, Kabupaten Natuna, Kepulauan Riau";"Kabupaten Natuna, Kepulauan Riau";PAPUA;;Indonesia;;;;35.999.695;1.080.924.708;https://maps.google.com/?cid=0x0:0xef052c4cf9d386de;
perumahan;Pembangunan Perumahan;Rumah uwan saodah Rayyan;"J3P4+FM, Selading, Kabupaten Natuna, Kepulauan Riau";"Kabupaten Natuna, Kepulauan Riau";PAPUA;;Indonesia;;;;36.362.089;1.080.566.821;https://maps.google.com/?cid=0x0:0x244aeba6b635f909;
perumahan;Komplek perumahan;Loguetown;"H3RG+C3C, Serantas, Pulau Tiga, Kabupaten Natuna, Kepulauan Riau";"Kabupaten Natuna, Kepulauan Riau";PAPUA;;Indonesia;;;;35.910.613;1.080.751.356;https://maps.google.com/?cid=0x0:0x5600bd2c2f562606;
perumahan;;Mess Ku;"M4MJ+GCC, Sabang Mawang Bar., Pulau Tiga, Kabupaten Natuna, Kepulauan Riau";"Kabupaten Natuna, Kepulauan Riau";PAPUA;;Indonesia;;;;36.838.166;1.081.310.083;https://maps.google.com/?cid=0x0:0x449ed933017bba63;
perumahan;Komplek perumahan;Rumah atok  wan;"J3PM+XFV, Tj. Kumbik Utara, Pulau Tiga, Kabupaten Natuna, Kepulauan Riau";"Kabupaten Natuna, Kepulauan Riau";PAPUA;;Indonesia;;;;36.370.417;108.083.075;https://maps.google.com/?cid=0x0:0xef64757a8b54f531;
perumahan;Pembangunan Perumahan;Teluk Melam;"H3WC+J26, Tj. Batang, Pulau Tiga, Kabupaten Natuna, Kepulauan Riau";"Kabupaten Natuna, Kepulauan Riau";PAPUA;;Indonesia;;;;3.596.536;108.070.011;https://maps.google.com/?cid=0x0:0x41642054188c8d76;
perumahan;Komplek perumahan;Tanjung parak;"J3P8+GPH, Selading, Pulau Tiga, Kabupaten Natuna, Kepulauan Riau";"Kabupaten Natuna, Kepulauan Riau";PAPUA;;Indonesia;;;;36.363.083;108.066.865;https://maps.google.com/?cid=0x0:0x2e60b02c2f3568e2;
perumahan;Perhimpunan Pengembang Perumahan;Nyet nyet;"J35J+X65, Tj. Batang, Pulau Tiga, Kabupaten Natuna, Kepulauan Riau";"Kabupaten Natuna, Kepulauan Riau";PAPUA;;Indonesia;;;;36.098.802;1.080.806.141;https://maps.google.com/?cid=0x0:0xb871ae873047fedd;
perumahan;Perhimpunan Pengembang Perumahan;Rumah Pak Syarifuddin;"J36G+9RX, Tj. Batang, Pulau Tiga, Kabupaten Natuna, Kepulauan Riau";"Kabupaten Natuna, Kepulauan Riau";PAPUA;;Indonesia;;;;36.110.791;1.080.770.442;https://maps.google.com/?cid=0x0:0xb5f128b6fa3586d6;
perumahan;Pembangunan Perumahan;Teluk peluru;"H29W+FV, Sededap, Pulau Tiga, Kabupaten Natuna, Kepulauan Riau";"Kabupaten Natuna, Kepulauan Riau";PAPUA;;Indonesia;;;;35.685.944;1.080.471.859;https://maps.google.com/?cid=0x0:0x28c562f1fee6eebd;
perumahan;perumahan;Papua 99778;Papua;Papua;PAPUA;;Indonesia;;;;-48.922.915;1.379.218.204;https://maps.google.com/?cid=0x0:0x7dad809947c0ba4d;
perumahan;Perhimpunan Pengembang Perumahan;Kampung Yeni;"P3H6+662, Yeni, Distrik Joerat, Kabupaten Asmat, Papua 99778";"Yeni, Distrik Joerat, Kabupaten Asmat";PAPUA;99778;Indonesia;;;;-52.719.787;1.380.605.108;https://maps.google.com/?cid=0x0:0xce7f7b0fd5742a74;
perumahan;Gereja Katolik;Pastoran Stasi St. Petrus dan Paulus As Atat Keuskupan Agats;"W3R8+W8, Atat, Pulau Tiga, Kabupaten Asmat, Papua";"Kabupaten Asmat, Papua";PAPUA;;Indonesia;;;;-5.057.609;13.806.567;https://maps.google.com/?cid=0x0:0x9a6b41f78e6134ef;
perumahan;Pembangunan Perumahan;Distrik Derkoumor Kampung Erosaman;"Abamu, Distrik Unir Sirau, Kabupaten Asmat, Papua";"Kabupaten Asmat, Papua";PAPUA;;Indonesia;;;;-50.573.958;1.383.988.186;https://maps.google.com/?cid=0x0:0x191ab87ef414cb6c;
perumahan;perumahan;Kampung Murib Baye;"WP6J+M6G, Jl. Murupbaye, Tailarek, Distrik Asotipo, Kabupaten Jayawijaya, Papua";"Kabupaten Jayawijaya, Papua";PAPUA;;Indonesia;;;;-40.883.129;1.387.305.686;https://maps.google.com/?cid=0x0:0x58e99f862ac83353;
perumahan;Pembangunan Perumahan;Kampung beco;"W9VX+2GW, Abamu, Distrik Unir Sirau, Kabupaten Asmat, Papua 99779";"Abamu, Distrik Unir Sirau, Kabupaten Asmat";PAPUA;99779;Indonesia;;;;-50.573.958;1.383.988.186;https://maps.google.com/?cid=0x0:0x3e94d4f2caedae5d;
perumahan;Komplek perumahan;Mabul Koroway Buluanop Asmat;"W9VX+2GW, Koroway, Buluanop, Kabupaten Asmat, Papua";"Kabupaten Asmat, Papua";PAPUA;;Indonesia;;;;-50.573.958;1.383.988.186;https://maps.google.com/?cid=0x0:0xa5ce84f91c560498;
perumahan;perumahan;Pulau Tiga;"Kabupaten Asmat, Papua";"Kabupaten Asmat, Papua";PAPUA;;Indonesia;;;;-48.345.584;1.380.010.282;https://maps.google.com/?cid=0x0:0xfa037f42c2a610b2;
perumahan;Perhimpunan Pengembang Perumahan;Kampung Yamas;"P34C+4RW, Yeni, Distrik Joerat, Kabupaten Asmat, Papua 99778";"Yeni, Distrik Joerat, Kabupaten Asmat";PAPUA;99778;Indonesia;;;;-52.946.385;1.380.720.657;https://maps.google.com/?cid=0x0:0x7fb4a856dcdc7ccb;
perumahan;perumahan;Fakan ani;"W9VX+2GW, Kampung fakan, Distrik Unir Sirau, Kabupaten Asmat, Papua";"Kabupaten Asmat, Papua";PAPUA;;Indonesia;;;;-50.573.958;1.383.988.186;https://maps.google.com/?cid=0x0:0x5ccbbddb5e4d098d;
perumahan;Balai Pertemuan Desa;Kampung Ulakin;"Abamu, Ulakin, Kabupaten Asmat, Papua 99791";"Ulakin, Kabupaten Asmat";PAPUA;99791;Indonesia;0821979972792;;;-50.574.136;1.383.988.234;https://maps.google.com/?cid=0x0:0xc769a5e2b62c6af8;
perumahan;Komplek perumahan;TANAH ADAT MILIK AL.ABUGWE WEYA;"Jl. Inggen Wanena Kampung Milinggame Distrik Tiomneri Kabupaten Lanny jaya Propinsi Papua Pengunungan, 99595";"Kabupaten Lanny Jaya, Papua";PAPUA;;Indonesia;;;;-38.890.253;1.384.165.087;https://maps.google.com/?cid=0x0:0x147c9d9f1fe5002f;
perumahan;perumahan;Asmat;"W9VX+2GW, Abamu, Ykpa2, Kabupaten Asmat, Papua";"Kabupaten Asmat, Papua";PAPUA;;Indonesia;;;;-50.573.958;1.383.988.186;https://maps.google.com/?cid=0x0:0x5d392bfad7b6b1e2;
perumahan;Perhimpunan Pengembang Perumahan;Kampung kapom;"R2CX+4JQ, Ayir, Sawa Erma, Kabupaten Asmat, Papua";"Kabupaten Asmat, Papua";PAPUA;;Indonesia;;;;-51.796.581;1.380.491.171;https://maps.google.com/?cid=0x0:0xefeceb2050147d31;
perumahan;Pembangunan Perumahan;Tanah milik A.T;"F43R+894, Bis Agats, Distrik Agats, Kabupaten Asmat, Papua";"Kabupaten Asmat, Papua";PAPUA;;Indonesia;;;;-55.467.312;1.381.409.683;https://maps.google.com/?cid=0x0:0xf83db10ce00fe9f1;
perumahan;Komplek perumahan;Kita pu rumah;"F4GR+FWF, Jalan suru suru, pelabuhan baru, Distrik Agats, Kabupaten Asmat, Papua";"Kabupaten Asmat, Papua";PAPUA;;Indonesia;;;;-55.238.148;1.381.423.111;https://maps.google.com/?cid=0x0:0x70bc55e79e011fa6;
perumahan;Otoritas Pelabuhan;Pelabuhan omor;"MVFM+JXX, Paar, Sawa Erma, Kabupaten Asmat, Papua";"Kabupaten Asmat, Papua";PAPUA;;Indonesia;;;;-5.325.887;1.378.849.964;https://maps.google.com/?cid=0x0:0x852b1c2d0a93b0e1;
perumahan;Komplek perumahan;KAMPUNG KATEW;"H9M9+J8, Pau, Jetsy, Kabupaten Asmat, Papua";"Kabupaten Asmat, Papua";PAPUA;;Indonesia;;;;-54.159.375;1.383.683.125;https://maps.google.com/?cid=0x0:0xf0e15625d8deebd8;
perumahan;Pembangunan Perumahan;Desa Manep;"HCQQ+8VM, Manep, Akat, Kabupaten Asmat, Papua 99779";"Manep, Akat, Kabupaten Asmat";PAPUA;99779;Indonesia;;;;-54.121.259;1.384.397.497;https://maps.google.com/?cid=0x0:0x3c16ba0377ee2a26;
perumahan;perumahan;Yetsy;"Akat, Kabupaten Asmat, Papua";"Kabupaten Asmat, Papua";PAPUA;;Indonesia;;;;-53.501.406;1.386.188.423;https://maps.google.com/?cid=0x0:0x933091abb6f8e384;
perumahan;Otoritas Perumahan;JAYANA VALLEY NOMOR 67;"Perumahan Jayana Valley, Jl. Kp. Cilangkap No.RT 003/018 Kav.67, Cilangkap, Kec. Tapos, Kota Depok, Jawa Barat 16458";"Jl. Kp. Cilangkap No.RT 003/018 Kav.67, Cilangkap, Kec. Tapos, Kota Depok";PAPUA;16458;Indonesia;;;;-64.299.928;1.068.602.901;https://maps.google.com/?cid=0x0:0xc3b42fbcadf18b84;
perumahan;Komplek perumahan;Jayana Valley;"HV95+MH6, Jl. Kp. Cilangkap, Cilangkap, Kec. Tapos, Kota Depok, Jawa Barat 16458";"Jl. Kp. Cilangkap, Cilangkap, Kec. Tapos, Kota Depok";PAPUA;16458;Indonesia;;;;-6.430.838;1.068.588.926;https://maps.google.com/?cid=0x0:0xc502e0c71d021ff;
perumahan;perumahan;Yetsy;"Akat, Kabupaten Asmat, Papua";"Kabupaten Asmat, Papua";PAPUA;;Indonesia;;;;-53.501.406;1.386.188.423;https://maps.google.com/?cid=0x0:0x933091abb6f8e384;
perumahan;Komplek perumahan;Kampung Beco;"HGPP+45, Manep, Akat, Kabupaten Asmat, Papua";"Kabupaten Asmat, Papua";PAPUA;;Indonesia;;;;-5.414.641;138.535.402;https://maps.google.com/?cid=0x0:0xb4e6ce15c7622921;
perumahan;Pembangunan Perumahan;Rumah Yance.Fr;"MF3H+QJ, Beco, Binamzain, Kabupaten Asmat, Papua Selatan";"Kabupaten Asmat, Papua Selatan";PAPUA;;Indonesia;;;;-53.455.625;1.384.790.625;https://maps.google.com/?cid=0x0:0xe1c480c97b5dc848;
perumahan;Komplek perumahan;KAMPUNG KATEW;"H9M9+J8, Pau, Jetsy, Kabupaten Asmat, Papua";"Kabupaten Asmat, Papua";PAPUA;;Indonesia;;;;-54.159.375;1.383.683.125;https://maps.google.com/?cid=0x0:0xf0e15625d8deebd8;
perumahan;Pembangunan Perumahan;Desa Manep;"HCQQ+8VM, Manep, Akat, Kabupaten Asmat, Papua 99779";"Manep, Akat, Kabupaten Asmat";PAPUA;99779;Indonesia;;;;-54.121.259;1.384.397.497;https://maps.google.com/?cid=0x0:0x3c16ba0377ee2a26;
perumahan;perumahan;Papua 99773;"Distrik Pantai Kasuari, Kabupaten Asmat, Papua";"Kabupaten Asmat, Papua";PAPUA;;Indonesia;;;;-63.217.958;1.386.388.879;https://maps.google.com/?cid=0x0:0x6ae3147f1b6c530a;
perumahan;Komplek perumahan;KAMPUNG TAREO DISTRIK SAFAN;"HG5J+XX8, Semendoro, Distrik Pantai Kasuari, Kabupaten Asmat, Papua 99773";"Semendoro, Distrik Pantai Kasuari, Kabupaten Asmat";PAPUA;99773;Indonesia;;;;-64.400.844;1.385.324.542;https://maps.google.com/?cid=0x0:0x18ac247b02d13e53;
perumahan;perumahan;Kamur asmar;"RPJV+2M5, Kamur, Distrik Pantai Kasuari, Kabupaten Asmat, Papua 99773";"Kamur, Distrik Pantai Kasuari, Kabupaten Asmat";PAPUA;99773;Indonesia;;;;-61.699.957;1.387.442.455;https://maps.google.com/?cid=0x0:0x443f8b9b517d9b3d;
perumahan;Komplek perumahan;Bayun;"RC92+7J5, Bayun, Safan, Kabupaten Asmat, Papua 99773";"Bayun, Safan, Kabupaten Asmat";PAPUA;99773;Indonesia;;;;-61.824.612;1.384.029.424;https://maps.google.com/?cid=0x0:0x8bb95863dc572b79;
perumahan;perumahan;Kampung Kofar;"FP94+567, Kofar, Distrik Minyamur, Kabupaten Mappi, Papua";"Kabupaten Mappi, Papua";PAPUA;;Indonesia;;;;-65.320.932;1.387.055.395;https://maps.google.com/?cid=0x0:0x702d0e15a072ecf2;
perumahan;;Kios makmur /indowifi;"RJ6Q+XW, Hainam, Distrik Pantai Kasuari, Kabupaten Asmat, Papua";"Kabupaten Asmat, Papua";PAPUA;;Indonesia;;;;-61.875.802;1.386.397.966;https://maps.google.com/?cid=0x0:0x43b3b3d4c4e89bca;
perumahan;Komplek perumahan;Danau tuer;"MP2Q+QM9, Kawem, Distrik Pantai Kasuari, Kabupaten Asmat, Papua 99773";"Kawem, Distrik Pantai Kasuari, Kabupaten Asmat";PAPUA;99773;Indonesia;;;;-63.480.926;138.739.224;https://maps.google.com/?cid=0x0:0x362e507a14c2856e;
perumahan;Komplek perumahan;RUMAH SANDI;"RJ8R+RM2, Hainam, Distrik Pantai Kasuari, Kabupaten Asmat, Papua 99773";"Hainam, Distrik Pantai Kasuari, Kabupaten Asmat";PAPUA;99773;Indonesia;;;;-6.183.667;138.641.634;https://maps.google.com/?cid=0x0:0x84e02cab6b71c64a;
perumahan;Perumahan;Sarmafo;"RH2G+J4, Eseib, Distrik Pantai Kasuari, Kabupaten Asmat, Papua";"Kabupaten Asmat, Papua";PAPUA;;Indonesia;;;;-61.984.313;1.385.752.545;https://maps.google.com/?cid=0x0:0x1dccffbec33836af;
perumahan;Komplek perumahan;Kampung Geiripim;"PX43+4HG, Gairipim, Kec. Haju, Kabupaten Mappi, Papua";"Kabupaten Mappi, Papua";PAPUA;;Indonesia;;;;-62.946.951;1.389.539.519;https://maps.google.com/?cid=0x0:0x38ba7bd8de912832;
perumahan;Konsultan Kesehatan;Puskesmas Hahare;"MJ8C+454, Hahare, Distrik Kopay, Kabupaten Asmat, Papua 99773";"Hahare, Distrik Kopay, Kabupaten Asmat";PAPUA;99773;Indonesia;;;;-63.347.395;1.386.204.521;https://maps.google.com/?cid=0x0:0xa1d5242fd2b7d766;
perumahan;Pembangunan Perumahan;Kampung piramat;"VGW2+V6, Bawos, Distrik Fayit, Kabupaten Asmat, Papua";"Kabupaten Asmat, Papua";PAPUA;;Indonesia;;;;-61.028.125;1.385.005.625;https://maps.google.com/?cid=0x0:0xb38bb4dfa6fb8472;
perumahan;Komplek perumahan;Kampung Lama Gairipim;"PX42+2G7, Gairipim, Kec. Haju, Kabupaten Mappi, Papua 99881";"Gairipim, Kec. Haju, Kabupaten Mappi";PAPUA;99881;Indonesia;;;;-6.294.951;1.389.512.817;https://maps.google.com/?cid=0x0:0xd90b25f7bea1e20d;
perumahan;Perumahan;Kampung Sanep;"QHMH+RC, Bawor, Distrik Pantai Kasuari, Kabupaten Asmat, Papua";"Kabupaten Asmat, Papua";PAPUA;;Indonesia;;;;-62.149.208;138.579.534;https://maps.google.com/?cid=0x0:0x8ecd9034a607346a;
perumahan;Pembangunan Perumahan;Kampung Gairipim;"PX56+C37, Gairipim, Kec. Haju, Kabupaten Mappi, Papua 99881";"Gairipim, Kec. Haju, Kabupaten Mappi";PAPUA;99881;Indonesia;;;;-62.914.539;1.389.601.636;https://maps.google.com/?cid=0x0:0x2c9ebac89c07d9d1;
perumahan;Komplek perumahan;Kampung Warogom;"PX76+9M4, Warogom, Kec. Haju, Kabupaten Mappi, Papua 99881";"Warogom, Kec. Haju, Kabupaten Mappi";PAPUA;99881;Indonesia;;;;-62.866.143;1.389.617.035;https://maps.google.com/?cid=0x0:0xd1e190127c4a30c2;
perumahan;Konsultan Kesehatan;PUSKESMAS DERKOUMUR;"Yamkap, Distrik Der Koumur, Kabupaten Asmat, Papua";"Kabupaten Asmat, Papua";PAPUA;;Indonesia;;;;-62.075.054;1.387.315.039;https://maps.google.com/?cid=0x0:0xe013859f6eae186a;
perumahan;Komplek perumahan;"Kampung Aworket, Distrik Safan";"MCGQ+4F, Aworket, Safan, Kabupaten Asmat, Papua";"Kabupaten Asmat, Papua";PAPUA;;Indonesia;;;;-63.246.929;1.384.387.294;https://maps.google.com/?cid=0x0:0x7058715fdae6d5cb;
perumahan;perumahan;Gereja St Theresia Gaibugir;"PX66+569, Gairipim, Kec. Haju, Kabupaten Mappi, Papua 99881";"Gairipim, Kec. Haju, Kabupaten Mappi";PAPUA;99881;Indonesia;;;;-6.289.579;1.389.606.122;https://maps.google.com/?cid=0x0:0xf6ed139b95f53aa5;
perumahan;perumahan;Distrik Der Koumur;"Kabupaten Asmat, Papua";"Kabupaten Asmat, Papua";PAPUA;;Indonesia;;;;-59.984.344;1.388.312.335;https://maps.google.com/?cid=0x0:0x22845df5d954f859;
perumahan;Toko;Kios Kia Safan;"QCWQ+PG6, Bayun, Safan, Kabupaten Asmat, Papua";"Kabupaten Asmat, Papua";PAPUA;;Indonesia;;;;-62.032.097;1.384.387.577;https://maps.google.com/?cid=0x0:0xab9b3586b7a0fe2c;
perumahan;Konsultan Kesehatan;Puskesmas Hahare;"MJ8C+454, Hahare, Distrik Kopay, Kabupaten Asmat, Papua 99773";"Hahare, Distrik Kopay, Kabupaten Asmat";PAPUA;99773;Indonesia;;;;-63.347.395;1.386.204.521;https://maps.google.com/?cid=0x0:0xa1d5242fd2b7d766;
perumahan;Rumah Sakit;Puskesmas Kamur;"RJ8R+VMX, Hainam, Distrik Pantai Kasuari, Kabupaten Asmat, Papua 99773";"Hainam, Distrik Pantai Kasuari, Kabupaten Asmat";PAPUA;99773;Indonesia;;;;-61.827.539;1.386.417.203;https://maps.google.com/?cid=0x0:0x52728a8463b818d8;
perumahan;perumahan;Papua 99773;"Distrik Pantai Kasuari, Kabupaten Asmat, Papua";"Kabupaten Asmat, Papua";PAPUA;;Indonesia;;;;-63.217.958;1.386.388.879;https://maps.google.com/?cid=0x0:0x6ae3147f1b6c530a;
perumahan;Komplek perumahan;KAMPUNG TAREO DISTRIK SAFAN;"HG5J+XX8, Semendoro, Distrik Pantai Kasuari, Kabupaten Asmat, Papua 99773";"Semendoro, Distrik Pantai Kasuari, Kabupaten Asmat";PAPUA;99773;Indonesia;;;;-64.400.844;1.385.324.542;https://maps.google.com/?cid=0x0:0x18ac247b02d13e53;
perumahan;Komplek perumahan;Kampung saman;"MFVJ+74, Saman, Safan, Kabupaten Asmat, Papua";"Kabupaten Asmat, Papua";PAPUA;;Indonesia;;;;-63.068.125;1.384.803.125;https://maps.google.com/?cid=0x0:0x4d4a10a539157ddf;
perumahan;Komplek perumahan;"Kampung Aworket, Distrik Safan";"MCGQ+4F, Aworket, Safan, Kabupaten Asmat, Papua";"Kabupaten Asmat, Papua";PAPUA;;Indonesia;;;;-63.246.929;1.384.387.294;https://maps.google.com/?cid=0x0:0x7058715fdae6d5cb;
perumahan;Komplek perumahan;RUMAH SANDI;"RJ8R+RM2, Hainam, Distrik Pantai Kasuari, Kabupaten Asmat, Papua 99773";"Hainam, Distrik Pantai Kasuari, Kabupaten Asmat";PAPUA;99773;Indonesia;;;;-6.183.667;138.641.634;https://maps.google.com/?cid=0x0:0x84e02cab6b71c64a;
perumahan;Perumahan;Kampung Sanep;"QHMH+RC, Bawor, Distrik Pantai Kasuari, Kabupaten Asmat, Papua";"Kabupaten Asmat, Papua";PAPUA;;Indonesia;;;;-62.149.208;138.579.534;https://maps.google.com/?cid=0x0:0x8ecd9034a607346a;
perumahan;Perumahan;Sarmafo;"RH2G+J4, Eseib, Distrik Pantai Kasuari, Kabupaten Asmat, Papua";"Kabupaten Asmat, Papua";PAPUA;;Indonesia;;;;-61.984.313;1.385.752.545;https://maps.google.com/?cid=0x0:0x1dccffbec33836af;
perumahan;Toko;Kios Kia Safan;"QCWQ+PG6, Bayun, Safan, Kabupaten Asmat, Papua";"Kabupaten Asmat, Papua";PAPUA;;Indonesia;;;;-62.032.097;1.384.387.577;https://maps.google.com/?cid=0x0:0xab9b3586b7a0fe2c;
perumahan;perumahan;Kampung Kofar;"FP94+567, Kofar, Distrik Minyamur, Kabupaten Mappi, Papua";"Kabupaten Mappi, Papua";PAPUA;;Indonesia;;;;-65.320.932;1.387.055.395;https://maps.google.com/?cid=0x0:0x702d0e15a072ecf2;
perumahan;Komplek perumahan;Kampung Geiripim;"PX43+4HG, Gairipim, Kec. Haju, Kabupaten Mappi, Papua";"Kabupaten Mappi, Papua";PAPUA;;Indonesia;;;;-62.946.951;1.389.539.519;https://maps.google.com/?cid=0x0:0x38ba7bd8de912832;
perumahan;Komplek perumahan;Danau tuer;"MP2Q+QM9, Kawem, Distrik Pantai Kasuari, Kabupaten Asmat, Papua 99773";"Kawem, Distrik Pantai Kasuari, Kabupaten Asmat";PAPUA;99773;Indonesia;;;;-63.480.926;138.739.224;https://maps.google.com/?cid=0x0:0x362e507a14c2856e;
perumahan;Komplek perumahan;Kampung Lama Gairipim;"PX42+2G7, Gairipim, Kec. Haju, Kabupaten Mappi, Papua 99881";"Gairipim, Kec. Haju, Kabupaten Mappi";PAPUA;99881;Indonesia;;;;-6.294.951;1.389.512.817;https://maps.google.com/?cid=0x0:0xd90b25f7bea1e20d;
perumahan;perumahan;Kamur asmar;"RPJV+2M5, Kamur, Distrik Pantai Kasuari, Kabupaten Asmat, Papua 99773";"Kamur, Distrik Pantai Kasuari, Kabupaten Asmat";PAPUA;99773;Indonesia;;;;-61.699.957;1.387.442.455;https://maps.google.com/?cid=0x0:0x443f8b9b517d9b3d;
perumahan;;Kios makmur /indowifi;"RJ6Q+XW, Hainam, Distrik Pantai Kasuari, Kabupaten Asmat, Papua";"Kabupaten Asmat, Papua";PAPUA;;Indonesia;;;;-61.875.802;1.386.397.966;https://maps.google.com/?cid=0x0:0x43b3b3d4c4e89bca;
perumahan;Pembangunan Perumahan;Kampung Gairipim;"PX56+C37, Gairipim, Kec. Haju, Kabupaten Mappi, Papua 99881";"Gairipim, Kec. Haju, Kabupaten Mappi";PAPUA;99881;Indonesia;;;;-62.914.539;1.389.601.636;https://maps.google.com/?cid=0x0:0x2c9ebac89c07d9d1;
perumahan;perumahan;Safan;"Kabupaten Asmat, Papua";"Kabupaten Asmat, Papua";PAPUA;;Indonesia;;;;-62.032.097;1.384.387.577;https://maps.google.com/?cid=0x0:0x3238b610bc8f2584;
perumahan;perumahan;Distrik Ayip;"Kabupaten Asmat, Papua";"Kabupaten Asmat, Papua";PAPUA;;Indonesia;;;;-59.254.896;1.386.319.781;https://maps.google.com/?cid=0x0:0x8e66166709e21012;
perumahan;Pembangunan Perumahan;kali bw;"5MWC+GJ, Comoro, Distrik Ayip, Kabupaten Asmat, Papua";"Kabupaten Asmat, Papua";PAPUA;;Indonesia;;;;-5.803.654;138.671.524;https://maps.google.com/?cid=0x0:0x67f9fd8933d5ad9c;
perumahan;Pembangunan Perumahan;Kampung Keru;"4XH8+GX6, Keru, Kec. Assue, Kabupaten Mappi, Papua";"Kabupaten Mappi, Papua";PAPUA;;Indonesia;;;;-58.712.219;1.389.673.838;https://maps.google.com/?cid=0x0:0x6f8e78aed826e5b4;
perumahan;Komplek perumahan;Kali Potong Comoro;"3JFJ+MXQ, Comoro, Distrik Ayip, Kabupaten Asmat, Papua 99782";"Comoro, Distrik Ayip, Kabupaten Asmat";PAPUA;99782;Indonesia;;;;-59.257.973;1.386.324.768;https://maps.google.com/?cid=0x0:0x749f58f0e173e21e;
perumahan;perumahan;Papua 99776;"Atsy, Kabupaten Asmat, Papua";"Kabupaten Asmat, Papua";PAPUA;;Indonesia;;;;-5.544.638;1.387.995.122;https://maps.google.com/?cid=0x0:0xc82d6e8c35882d4e;
perumahan;perumahan;Papua 99776;"Atsy, Kabupaten Asmat, Papua";"Kabupaten Asmat, Papua";PAPUA;;Indonesia;;;;-5.544.638;1.387.995.122;https://maps.google.com/?cid=0x0:0xc82d6e8c35882d4e;
perumahan;Perhimpunan Pengembang Perumahan;Kampung jinak;"F3W7+9GJ, Jinak, Suator, Kabupaten Asmat, Papua 99776";"Jinak, Suator, Kabupaten Asmat";PAPUA;99776;Indonesia;;;;-55.040.413;139.063.772;https://maps.google.com/?cid=0x0:0x4829476b6af69f42;
perumahan;Komplek perumahan;Kampung bipim;"4C35+PG3, Bipim, Atsy, Kabupaten Asmat, Papua";"Kabupaten Asmat, Papua";PAPUA;;Indonesia;;;;-58.957.261;1.384.088.007;https://maps.google.com/?cid=0x0:0x72242ed8d8bb0f49;
perumahan;Komplek perumahan;Kampung Yasiw;"798M+4V, Atsy, Kabupaten Asmat, Papua 99776";"Atsy, Kabupaten Asmat";PAPUA;99776;Indonesia;;;;-57.347.363;1.383.847.174;https://maps.google.com/?cid=0x0:0x642ad15a7745383e;
perumahan;Pembangunan Perumahan;"Kampung Bipin, Distrik Atsy, Kabupaten Asmat, Papua";"6HJM+M8, Bine, Atsy, Kabupaten Asmat, Papua";"Kabupaten Asmat, Papua";PAPUA;;Indonesia;;;;-57.683.055;1.385.832.518;https://maps.google.com/?cid=0x0:0x49b8493aeea81e84;
perumahan;Perhimpunan Pengembang Perumahan;Pinggiran Kali Datimit Kampung Yasiuw;"6FCH+CF5, Ambisu, Atsy, Kabupaten Asmat, Papua";"Kabupaten Asmat, Papua";PAPUA;;Indonesia;;;;-57.789.952;1.384.787.258;https://maps.google.com/?cid=0x0:0xa0ee52f021e39295;
perumahan;Perhimpunan Pengembang Perumahan;Warung pinggir Fos;"CQRH+7QF, Fos, Atsy, Kabupaten Asmat, Papua 99776";"Fos, Atsy, Kabupaten Asmat";PAPUA;99776;Indonesia;;;;-55.593.162;1.387.794.089;https://maps.google.com/?cid=0x0:0xe9f9a3bb7f9bebed;
perumahan;Komplek perumahan;Tempat pemukiman;"F3W7+C7R, Jinak, Suator, Kabupaten Asmat, Papua 99776";"Jinak, Suator, Kabupaten Asmat";PAPUA;99776;Indonesia;;;;-55.038.991;1.390.631.524;https://maps.google.com/?cid=0x0:0xdfbe36d5618e8a21;
perumahan;Komplek perumahan;Kampung binei;"8Q32+7M, Bine, Atsy, Kabupaten Asmat, Papua";"Kabupaten Asmat, Papua";PAPUA;;Indonesia;;;;-5.696.814;1.387.516.581;https://maps.google.com/?cid=0x0:0xa30ac6d8379e0a0e;
perumahan;perumahan;Kp. Atambut;"674R+Q7F, Atambuts, Distrik Betcbamu, Kabupaten Asmat, Papua";"Kabupaten Asmat, Papua";PAPUA;;Indonesia;;;;-57.930.666;1.382.906.856;https://maps.google.com/?cid=0x0:0xc3e66ee4d8d05275;
perumahan;Pembangunan Perumahan;kali bw;"5MWC+GJ, Comoro, Distrik Ayip, Kabupaten Asmat, Papua";"Kabupaten Asmat, Papua";PAPUA;;Indonesia;;;;-5.803.654;138.671.524;https://maps.google.com/?cid=0x0:0x67f9fd8933d5ad9c;
perumahan;Perhimpunan Pengembang Perumahan;Kampung Wowi;"F689+7P, Wowi, Suator, Kabupaten Asmat, Papua";"Kabupaten Asmat, Papua";PAPUA;;Indonesia;;;;-55.343.065;1.392.193.176;https://maps.google.com/?cid=0x0:0x7f8af7fbce722bb3;
perumahan;Komplek perumahan;KAMPUNG KATEW;"H9M9+J8, Pau, Jetsy, Kabupaten Asmat, Papua";"Kabupaten Asmat, Papua";PAPUA;;Indonesia;;;;-54.159.375;1.383.683.125;https://maps.google.com/?cid=0x0:0xf0e15625d8deebd8;
perumahan;Komplek perumahan;Ptravis Home;"F44R+FM7, Jl. Kei, Bis Agats, Distrik Agats, Kabupaten Asmat, Papua";"Kabupaten Asmat, Papua";PAPUA;;Indonesia;;;;-55.438.128;1.381.416.791;https://maps.google.com/?cid=0x0:0xea7c9e8ca18aa377;
perumahan;Pembangunan Perumahan;Kampung Meda;"8423+P43, Chanani, Kec. Assue, Kabupaten Mappi, Papua";"Kabupaten Mappi, Papua";PAPUA;;Indonesia;;;;-56.982.405;1.391.028.045;https://maps.google.com/?cid=0x0:0xd9ee41415432aa7c;
perumahan;Komplek perumahan;Kita pu rumah;"F4GR+FWF, Jalan suru suru, pelabuhan baru, Distrik Agats, Kabupaten Asmat, Papua";"Kabupaten Asmat, Papua";PAPUA;;Indonesia;;;;-55.238.148;1.381.423.111;https://maps.google.com/?cid=0x0:0x70bc55e79e011fa6;
perumahan;Komplek perumahan;Perumahan Pendeta KLASIS GPI PAPUA ASMAT;"F43Q+J7F, Bis Agats, Distrik Agats, Kabupaten Asmat, Papua 99777";"Bis Agats, Distrik Agats, Kabupaten Asmat";PAPUA;99777;Indonesia;;;;-55.451.549;13.813.824;https://maps.google.com/?cid=0x0:0xbc25c24bd945889e;
perumahan;Pembangunan Perumahan;Distrik Derkoumor Kampung Erosaman;"Abamu, Distrik Unir Sirau, Kabupaten Asmat, Papua";"Kabupaten Asmat, Papua";PAPUA;;Indonesia;;;;-50.573.958;1.383.988.186;https://maps.google.com/?cid=0x0:0x191ab87ef414cb6c;
perumahan;Komplek perumahan;RM Tormand;"Jln Zeqward, Bis Agats, Distrik Agats, Kabupaten Asmat, Papua 99777";"Bis Agats, Distrik Agats, Kabupaten Asmat";PAPUA;99777;Indonesia;085254835555;;;-5.548.675;1.381.341.917;https://maps.google.com/?cid=0x0:0xa99d83078377df50;
perumahan;Komplek perumahan;Resubun House;"F45M+M57, Jl. Kartini, Bis Agats, Distrik Agats, Kabupaten Asmat, Papua 99777";"Jl. Kartini, Bis Agats, Distrik Agats, Kabupaten Asmat";PAPUA;99777;Indonesia;;;;-55.411.115;1.381.328.691;https://maps.google.com/?cid=0x0:0xe4290a9b27124549;
perumahan;perumahan;Sirets;"Kabupaten Asmat, Papua";"Kabupaten Asmat, Papua";PAPUA;;Indonesia;;;;-55.310.929;1.386.388.879;https://maps.google.com/?cid=0x0:0xa635d80a725c47;
perumahan;Kantor Perusahaan;Mess KSDA Asmat;"F44M+86F, Bis Agats, Distrik Agats, Kabupaten Asmat, Papua";"Kabupaten Asmat, Papua";PAPUA;;Indonesia;;;;-55.441.953;1.381.330.381;https://maps.google.com/?cid=0x0:0xd68fd4f03176ba84;
perumahan;Pembangunan Perumahan;Kampung Buetkwar;"PRVP+HF, Sisakem, Akat, Kabupaten Asmat, Papua";"Kabupaten Asmat, Papua";PAPUA;;Indonesia;;;;-5.256.078;138.836.237;https://maps.google.com/?cid=0x0:0x368694dd122a1f01;
perumahan;Komplek perumahan;Cliff Home;"Jl. Nusantara 1 No.0037/a, Bis Agats, Distrik Agats, Kabupaten Asmat, Papua 99777";"Bis Agats, Distrik Agats, Kabupaten Asmat";PAPUA;99777;Indonesia;;;;-55.427.634;1.381.430.528;https://maps.google.com/?cid=0x0:0xa702ebb3141dc8a2;
perumahan;perumahan;Kp. Atambut;"674R+Q7F, Atambuts, Distrik Betcbamu, Kabupaten Asmat, Papua";"Kabupaten Asmat, Papua";PAPUA;;Indonesia;;;;-57.930.666;1.382.906.856;https://maps.google.com/?cid=0x0:0xc3e66ee4d8d05275;
