Category,Real Category,Business Name,Address,City,State,Postal Code,Country,Phone,Email,Website,Latitude,Longitude,Map Link,Details Link
toko bangunan,toko bangunan,Kalimantan Timur 76261,"Kabupaten Paser, Kalimantan Timur","Kabupaten Paser, Kalimantan Timur",KALIMANTAN TIMUR,,Indonesia,,,,-2.2765227,116.3249438,https://maps.google.com/?cid=0x0:0x5de4285e897f4e53,
toko bangunan,Toko Swalayan,Toko Berkah Abadi,"P598+GV5, Mengkudu, Kec. Batu Engau, Kabupaten Paser, Kalimantan Timur 76261","Mengkudu, Kec. Batu Engau, Kabupaten Paser",KALIMANTAN TIMUR,76261.0,Indonesia,82150443089.0,,,-2.2812274,116.1672271,https://maps.google.com/?cid=0x0:0xf33ad89012a60aff,
toko bangunan,Toko Swalayan,Toko Bangunan Andi Putra,"Desa Tebru Paser Damai RT.03, Kec. Batu Engau","Kabupaten Paser, Kalimantan Timur",KALIMANTAN TIMUR,,Indonesia,,,,-2.1565213,116.1073687,https://maps.google.com/?cid=0x0:0x76015e71ca74bb7,
toko bangunan,Toko Swalayan,Toko Jati Mas,"P4PH+M3, Tampakan, Kec. Batu Engau, Kabupaten Paser, Kalimantan Timur 76261","Tampakan, Kec. Batu Engau, Kabupaten Paser",KALIMANTAN TIMUR,76261.0,Indonesia,82154342398.0,,,-2.263068,116.127542,https://maps.google.com/?cid=0x0:0xb4869462cb7f32e4,
toko bangunan,Toko,TOKO ALUNG 2 PETANGIS,"Petangis, Kec. Batu Engau, Kabupaten Paser, Kalimantan Timur 76261","Kec. Batu Engau, Kabupaten Paser",KALIMANTAN TIMUR,76261.0,Indonesia,85225405674.0,,,-2.1154854,116.1061127,https://maps.google.com/?cid=0x0:0x928f172c5cd90f68,
toko bangunan,toko bangunan,Toko UD.INTAN BANGUNAN,"Jl. Jenderal Sudirman No.RT 04, Petangis, Kec. Batu Engau, Kabupaten Paser, Kalimantan Timur","Kabupaten Paser, Kalimantan Timur",KALIMANTAN TIMUR,,Indonesia,82252011868.0,,,-2.0787551,116.1192349,https://maps.google.com/?cid=0x0:0x289095cc01514463,
toko bangunan,Toko bahan makanan,TOKO ANDI PUTRA,"R4R4+JQM, Kerang, Kec. Batu Engau, Kabupaten Paser, Kalimantan Timur 76261","Kerang, Kec. Batu Engau, Kabupaten Paser",KALIMANTAN TIMUR,76261.0,Indonesia,82255465519.0,,,-2.1584053,116.1069273,https://maps.google.com/?cid=0x0:0x7d0e7219dc790f9b,
toko bangunan,toko bangunan,Kalimantan Timur 76252,"Kabupaten Paser, Kalimantan Timur","Kabupaten Paser, Kalimantan Timur",KALIMANTAN TIMUR,,Indonesia,,,,-1.9651197,115.8994923,https://maps.google.com/?cid=0x0:0xd282220639c80aba,
toko bangunan,Toko Bahan Bangunan,Toko Thamrin,"Jl. Tj. - Kuaro, Batu Kajang, Kec. Batu Sopang, Kabupaten Paser, Kalimantan Timur 76252","Batu Kajang, Kec. Batu Sopang, Kabupaten Paser",KALIMANTAN TIMUR,76252.0,Indonesia,85211520009.0,,,-1.821302,115.9130392,https://maps.google.com/?cid=0x0:0x8d8c5a9e4e856e6e,
toko bangunan,Toko Bahan Bangunan,PANCAR BANGUNAN,"5WJ3+Q25, Jl. Tj. - Kuaro, Batu Kajang, Kec. Batu Sopang, Kabupaten Paser, Kalimantan Timur 76252","Jl. Tj. - Kuaro, Batu Kajang, Kec. Batu Sopang, Kabupaten Paser",KALIMANTAN TIMUR,76252.0,Indonesia,,,,-1.8181109,115.9026158,https://maps.google.com/?cid=0x0:0xac80befe4950fa15,
toko bangunan,Toko Bahan Bangunan,Toko Bangunan RAHMAN,"7R9H+899, Busui, Kec. Batu Sopang, Kabupaten Paser, Kalimantan Timur 76253","Busui, Kec. Batu Sopang, Kabupaten Paser",KALIMANTAN TIMUR,76253.0,Indonesia,85251407670.0,,,-1.731701,115.828494,https://maps.google.com/?cid=0x0:0x993727f72e8ce069,
toko bangunan,Toko Bahan Bangunan,Toko Bangunan UD.Mandiri,"Jl. Mariga, Bawah Gunung Dap, Batu Kajang, Kec. Batu Sopang, Kalimantan Timur 76252","Bawah Gunung Dap, Batu Kajang, Kec. Batu Sopang",KALIMANTAN TIMUR,76252.0,Indonesia,81349372550.0,,,-1.8227407,115.9154019,https://maps.google.com/?cid=0x0:0xbd8b365c98c309b7,
toko bangunan,Toko Bahan Bangunan,Toko Bangunan Anugrah,"5W9H+C8W, Jl. Tj. - Kuaro, Batu Kajang, Kec. Batu Sopang, Kabupaten Paser, Kalimantan Timur 76252","Jl. Tj. - Kuaro, Batu Kajang, Kec. Batu Sopang, Kabupaten Paser",KALIMANTAN TIMUR,76252.0,Indonesia,,,,-1.831425,115.9283797,https://maps.google.com/?cid=0x0:0xfe65e4f30185b5c8,
toko bangunan,Toko Bahan Bangunan,Toko Bahan Bangunan UD. Mandiri,"Jl. Padat Karya, Batu Kajang, Kec. Batu Sopang, Kabupaten Paser, Kalimantan Timur 76252","Batu Kajang, Kec. Batu Sopang, Kabupaten Paser",KALIMANTAN TIMUR,76252.0,Indonesia,81349442827.0,,,-1.8391397,115.929673,https://maps.google.com/?cid=0x0:0xcb5136c352f52cf0,
toko bangunan,Toko Bahan Bangunan,Tb dua saudara batu kajang,"5W3J+97, Batu Kajang, Kec. Batu Sopang, Kabupaten Paser, Kalimantan Timur 76252","Batu Kajang, Kec. Batu Sopang, Kabupaten Paser",KALIMANTAN TIMUR,76252.0,Indonesia,,,,-1.8466136,115.9307101,https://maps.google.com/?cid=0x0:0x1deb55d98ae8019c,
toko bangunan,Toko Bahan Bangunan,Sinar Berkah Bangunan,"Jl.Negara, Jl. Tj. - Kuaro Desa No.Rt 06, Songka, Kec. Batu Sopang","Kabupaten Paser, Kalimantan Timur",KALIMANTAN TIMUR,,Indonesia,,,,-1.8241532,115.8895658,https://maps.google.com/?cid=0x0:0x9b1df2071e1a195,
toko bangunan,Toko Bahan Bangunan,Toko bangunan kelvin,"5VCP+XW, Batu Kajang, Kec. Batu Sopang, Kabupaten Paser, Kalimantan Timur 76252","Batu Kajang, Kec. Batu Sopang, Kabupaten Paser",KALIMANTAN TIMUR,76252.0,Indonesia,81346637594.0,,,-1.827608,115.887341,https://maps.google.com/?cid=0x0:0x29acc3a2d0f1cf02,
toko bangunan,Toko Bahan Bangunan,Delta Color,"Batu Kajang, Kec. Batu Sopang, Kabupaten Paser, Kalimantan Timur 76252","Kec. Batu Sopang, Kabupaten Paser",KALIMANTAN TIMUR,76252.0,Indonesia,,,,-1.8234774,115.9173217,https://maps.google.com/?cid=0x0:0x1d36c97f6e2d873a,
toko bangunan,toko bangunan,TB.HIDAYAT,"5VJV+4V5, Jl. Tj. - Kuaro, Batu Kajang, Kec. Batu Sopang, Kabupaten Paser, Kalimantan Timur 76252","Jl. Tj. - Kuaro, Batu Kajang, Kec. Batu Sopang, Kabupaten Paser",KALIMANTAN TIMUR,76252.0,Indonesia,,,,-1.8197522,115.8947486,https://maps.google.com/?cid=0x0:0xdd8bf5c2ddacfe6d,
toko bangunan,Toko Bahan Bangunan,Jotun,"5W9J+V77, Jl. Tj. - Kuaro, Batu Kajang, Kec. Batu Sopang, Kabupaten Paser, Kalimantan Timur 76252","Jl. Tj. - Kuaro, Batu Kajang, Kec. Batu Sopang, Kabupaten Paser",KALIMANTAN TIMUR,76252.0,Indonesia,,,,-1.8303266,115.9306714,https://maps.google.com/?cid=0x0:0x56ba2eb04925f955,
toko bangunan,Toko Bahan Bangunan,Tk bangunan mariga,"5WG8+V6J, Batu Kajang, Kec. Batu Sopang, Kabupaten Paser, Kalimantan Timur 76252","Batu Kajang, Kec. Batu Sopang, Kabupaten Paser",KALIMANTAN TIMUR,76252.0,Indonesia,,,,-1.8227804,115.9155079,https://maps.google.com/?cid=0x0:0x62616793595dc3c0,
toko bangunan,Toko Perlengkapan Rumah,Palapa Bangunan,"53QM+7HJ, Jl. Penajam-Kuaro, Kuaro, Kec. Kuaro, Kabupaten Paser, Kalimantan Timur 76281","Jl. Penajam-Kuaro, Kuaro, Kec. Kuaro, Kabupaten Paser",KALIMANTAN TIMUR,76281.0,Indonesia,,,,-1.8117863,116.0839002,https://maps.google.com/?cid=0x0:0xd62be884ac02d150,
toko bangunan,Toko Bahan Bangunan,TOKO SINAR BANGUNAN,"Jl. Ahmad Yani, Kuaro, Kec. Kuaro, Kabupaten Paser, Kalimantan Timur 76281","Kuaro, Kec. Kuaro, Kabupaten Paser",KALIMANTAN TIMUR,76281.0,Indonesia,83821475758.0,,,-1.8117474,116.0836563,https://maps.google.com/?cid=0x0:0xfed2e1211dfcd509,
toko bangunan,Toko Bahan Bangunan,TB CAHAYA TIMUR,"Jl. Penajam-Kuaro, Kendarom, Kec. Kuaro, Kabupaten Paser, Kalimantan Timur 76281","Kendarom, Kec. Kuaro, Kabupaten Paser",KALIMANTAN TIMUR,76281.0,Indonesia,,,,-1.7932466,116.0991708,https://maps.google.com/?cid=0x0:0x3875632a205933f4,
toko bangunan,Toko Bahan Bangunan,Toko Bangunan Sempurna,"44CG+FW7, Jl. Kuaro - Tanah Grogot, Lolo, Kec. Kuaro, Kabupaten Paser, Kalimantan Timur 76251","Jl. Kuaro - Tanah Grogot, Lolo, Kec. Kuaro, Kabupaten Paser",KALIMANTAN TIMUR,76251.0,Indonesia,85349315021.0,,,-1.8788415,116.1272838,https://maps.google.com/?cid=0x0:0x4138548a7b1494dc,
toko bangunan,Toko Perlengkapan Rumah,Tb. sumber cahaya rezeki,"4497+888, Lolo, Kec. Kuaro, Kabupaten Paser, Kalimantan Timur 76251","Lolo, Kec. Kuaro, Kabupaten Paser",KALIMANTAN TIMUR,76251.0,Indonesia,82152444141.0,,,-1.8820383,116.1137983,https://maps.google.com/?cid=0x0:0x35063498ca98e05a,
toko bangunan,Toko Bahan Bangunan,TB CAHAYA TIMUR,"54QX+G4C, Rangan, Kec. Kuaro, Kabupaten Paser, Kalimantan Timur 76281","Rangan, Kec. Kuaro, Kabupaten Paser",KALIMANTAN TIMUR,76281.0,Indonesia,,,,-1.8111972,116.1477598,https://maps.google.com/?cid=0x0:0x360e7ba516bd74db,
toko bangunan,Toko Bahan Bangunan,Toko Delta Kuaro,"DEKAT LAMPU MERAH, Jl. Ahmad Yani, SIMPANG 4, Kec. Kuaro, Kabupaten Paser, Kalimantan Timur 76281","Jl. Ahmad Yani, SIMPANG 4, Kec. Kuaro, Kabupaten Paser",KALIMANTAN TIMUR,76281.0,Indonesia,,,,-1.8217149,116.0839286,https://maps.google.com/?cid=0x0:0x4c78adf1cfb2c720,
toko bangunan,Toko Bahan Bangunan,TOKO SURYA JAYA,"53HM+MG9, Jl. Ahmad Yani, Kuaro, Kec. Kuaro, Kabupaten Paser, Kalimantan Timur","Kabupaten Paser, Kalimantan Timur",KALIMANTAN TIMUR,,Indonesia,,,,-1.8208493,116.0838688,https://maps.google.com/?cid=0x0:0xe2bde76f74534075,
toko bangunan,Toko Bahan Bangunan,Toko Bangunan Duta Baru,"C6PP+JGP, Kayungo, Kec. Long Ikis, Kabupaten Paser, Kalimantan Timur 76282","Kayungo, Kec. Long Ikis, Kabupaten Paser",KALIMANTAN TIMUR,76282.0,Indonesia,,,,-1.5634112,116.2363382,https://maps.google.com/?cid=0x0:0xc83d680367e38a17,
toko bangunan,Toko Bahan Bangunan,TB. Namira 1,"Jl. Ulin No.KM.04, Tepian Batang, Kec. Tanah Grogot, Kabupaten Paser, Kalimantan Timur 76211","Tepian Batang, Kec. Tanah Grogot, Kabupaten Paser",KALIMANTAN TIMUR,76211.0,Indonesia,81347890800.0,,,-1.8852938,116.170535,https://maps.google.com/?cid=0x0:0x50eaf485478ba865,
toko bangunan,Toko,Toko Amanah Bangunan,"Jl. Penajam-Kuaro, Lombok, Kec. Long Ikis, Kabupaten Paser, Kalimantan Timur 76282","Lombok, Kec. Long Ikis, Kabupaten Paser",KALIMANTAN TIMUR,76282.0,Indonesia,,,,-1.6316123,116.1524234,https://maps.google.com/?cid=0x0:0x6bcc193b9cb4d3aa,
toko bangunan,Toko Bahan Bangunan,Toko Bangunan (PADA IDI),"36V3+5FQ, Tanah Grogot, Kec. Tanah Grogot, Kabupaten Paser, Kalimantan Timur 76251","Tanah Grogot, Kec. Tanah Grogot, Kabupaten Paser",KALIMANTAN TIMUR,76251.0,Indonesia,83821475758.0,,,-1.9070386,116.203749,https://maps.google.com/?cid=0x0:0x1d252c2071a2bdc3,
toko bangunan,Toko Perlengkapan Rumah,Toko Sinar Rejeki,"64H7+JP9, Jl. Penajam-Kuaro, Kerta Bumi, Kec. Kuaro, Kabupaten Paser, Kalimantan Timur 76281","Jl. Penajam-Kuaro, Kerta Bumi, Kec. Kuaro, Kabupaten Paser",KALIMANTAN TIMUR,76281.0,Indonesia,812537333332.0,,,-1.7709673,116.1143505,https://maps.google.com/?cid=0x0:0x8cd8e7b864222b00,
toko bangunan,Pemasok Bahan Bangunan,TOKO BANGUNAN,"2772+689, Suliliran Baru, Kec. Pasir Belengkong, Kabupaten Paser, Kalimantan Timur 76271","Suliliran Baru, Kec. Pasir Belengkong, Kabupaten Paser",KALIMANTAN TIMUR,76271.0,Indonesia,,,,-1.9868507,116.2512426,https://maps.google.com/?cid=0x0:0x67ad6022cc5b7b25,
toko bangunan,Toko Elektronik,SAHABAT PENDINGIN,"Jalan jendral sudirman, RT.10/RW.3, Kuaro, Kec. Kuaro, Kabupaten Paser, Kalimantan Timur 76281","RT.10/RW.3, Kuaro, Kec. Kuaro, Kabupaten Paser",KALIMANTAN TIMUR,76281.0,Indonesia,85650832286.0,,,-1.8243025,116.0838147,https://maps.google.com/?cid=0x0:0x8436c8c54ca27209,
toko bangunan,Toko Bahan Bangunan,Toko bangunan  elekronik AMR,"Jl. Propinsi, Riko, Penajam, Kabupaten Penajam Paser Utara, Kalimantan Timur 45161","Riko, Penajam, Kabupaten Penajam Paser Utara",KALIMANTAN TIMUR,45161.0,Indonesia,85931237784.0,,,-1.1214433,116.6372171,https://maps.google.com/?cid=0x0:0xcfd89e35725df68a,
toko bangunan,Toko Bahan Bangunan,Toko Thamrin,"Jl. Tj. - Kuaro, Batu Kajang, Kec. Batu Sopang, Kabupaten Paser, Kalimantan Timur 76252","Batu Kajang, Kec. Batu Sopang, Kabupaten Paser",KALIMANTAN TIMUR,76252.0,Indonesia,85211520009.0,,,-1.821302,115.9130392,https://maps.google.com/?cid=0x0:0x8d8c5a9e4e856e6e,
toko bangunan,Toko Perlengkapan Rumah,Toko Bangunan Makmur Jaya,"Jl. Negara RT 01, Desa Lombok, Kec. Long Ikis, Samuntai, Paser, Kabupaten Paser, Kalimantan Timur 76282","Desa Lombok, Kec. Long Ikis, Samuntai, Paser, Kabupaten Paser",KALIMANTAN TIMUR,76282.0,Indonesia,81213685773.0,,,-1.6126527,116.1617349,https://maps.google.com/?cid=0x0:0xd00e681681ce673c,
toko bangunan,Toko bahan makanan,Toko Syifa,"53HP+W6G, Jl. Kuaro - Tanah Grogot, Lolo, Kec. Kuaro, Kabupaten Paser, Kalimantan Timur 76281","Jl. Kuaro - Tanah Grogot, Lolo, Kec. Kuaro, Kabupaten Paser",KALIMANTAN TIMUR,76281.0,Indonesia,,,,-1.8201964,116.0855721,https://maps.google.com/?cid=0x0:0xc001d2dd45473f71,
toko bangunan,toko bangunan,Kuaro,"Kec. Kuaro, Kabupaten Paser, Kalimantan Timur","Kabupaten Paser, Kalimantan Timur",KALIMANTAN TIMUR,,Indonesia,,,,-1.8219574,116.0845478,https://maps.google.com/?cid=0x0:0x4540b1968c0129c9,
toko bangunan,Toko Bahan Bangunan,Toko Nuansa Jaya Paser,"Jl. Ahmad Yani No.Simpang, RW.3, Padang Jaya, Kec. Kuaro, Kabupaten Paser, Kalimantan Timur 76281","RW.3, Padang Jaya, Kec. Kuaro, Kabupaten Paser",KALIMANTAN TIMUR,76281.0,Indonesia,85246372231.0,,,-1.8115533,116.0837313,https://maps.google.com/?cid=0x0:0x59474b0ab335002d,
toko bangunan,toko bangunan,Kalimantan Timur 76282,"Kec. Long Ikis, Kabupaten Paser, Kalimantan Timur","Kabupaten Paser, Kalimantan Timur",KALIMANTAN TIMUR,,Indonesia,,,,-1.608975,116.1832068,https://maps.google.com/?cid=0x0:0xaaa31d28d64ea774,
toko bangunan,Toko Bahan Bangunan,Toko Bangunan Duta Baru,"C6PP+JGP, Kayungo, Kec. Long Ikis, Kabupaten Paser, Kalimantan Timur 76282","Kayungo, Kec. Long Ikis, Kabupaten Paser",KALIMANTAN TIMUR,76282.0,Indonesia,,,,-1.5634112,116.2363382,https://maps.google.com/?cid=0x0:0xc83d680367e38a17,
toko bangunan,Toko Bahan Bangunan,TB Pait Jaya,"C546+88H, Jalan Perkwin Blok A, Desa Pait, Lombok, Kec. Long Ikis, Kabupaten Paser, Kalimantan Timur 76282","Jalan Perkwin Blok A, Desa Pait, Lombok, Kec. Long Ikis, Kabupaten Paser",KALIMANTAN TIMUR,76282.0,Indonesia,82213633193.0,,,-1.5941878,116.1608667,https://maps.google.com/?cid=0x0:0x21a0606594e695ae,
toko bangunan,Toko,Toko Sama Sama,"95W9+G6H, simpang, Pait, Kec. Long Ikis, Kabupaten Paser, Kalimantan Timur 76282","simpang, Pait, Kec. Long Ikis, Kabupaten Paser",KALIMANTAN TIMUR,76282.0,Indonesia,,,,-1.6036905,116.1681059,https://maps.google.com/?cid=0x0:0x4f1bde532c5d2a91,
toko bangunan,Toko,Toko Amanah Bangunan,"Jl. Penajam-Kuaro, Lombok, Kec. Long Ikis, Kabupaten Paser, Kalimantan Timur 76282","Lombok, Kec. Long Ikis, Kabupaten Paser",KALIMANTAN TIMUR,76282.0,Indonesia,,,,-1.6316123,116.1524234,https://maps.google.com/?cid=0x0:0x6bcc193b9cb4d3aa,
toko bangunan,Toko Perlengkapan Rumah,Toko Bangunan Makmur Jaya,"Jl. Negara RT 01, Desa Lombok, Kec. Long Ikis, Samuntai, Paser, Kabupaten Paser, Kalimantan Timur 76282","Desa Lombok, Kec. Long Ikis, Samuntai, Paser, Kabupaten Paser",KALIMANTAN TIMUR,76282.0,Indonesia,81213685773.0,,,-1.6126527,116.1617349,https://maps.google.com/?cid=0x0:0xd00e681681ce673c,
toko bangunan,Toko Bahan Bangunan,rahmat terang  friendship rt barbershop rusadi,"C692+9G7, Jl. Penajam-Kuaro, Long Ikis, Kec. Long Ikis, Kabupaten Paser, Kalimantan Timur 76282","Jl. Penajam-Kuaro, Long Ikis, Kec. Long Ikis, Kabupaten Paser",KALIMANTAN TIMUR,76282.0,Indonesia,85392347244.0,,,-1.5815965,116.2012925,https://maps.google.com/?cid=0x0:0x9e79772cb18deff6,
toko bangunan,Toko Bahan Bangunan,TB. Panca Tunggal Putra,"Jl. Propinsi Penajam - kuaro Lampi, Kayungo, Kec. Long Ikis, Kabupaten Paser, Kalimantan Timur 76282","Kayungo, Kec. Long Ikis, Kabupaten Paser",KALIMANTAN TIMUR,76282.0,Indonesia,85244103320.0,,,-1.5702375,116.2115935,https://maps.google.com/?cid=0x0:0xdb811e9cf71832a0,
toko bangunan,Toko Bahan Bangunan,Tb simpang jaya,"95XF+QR4, Tajur, Kec. Long Ikis, Kabupaten Paser, Kalimantan Timur 76282","Tajur, Kec. Long Ikis, Kabupaten Paser",KALIMANTAN TIMUR,76282.0,Indonesia,857574021519.0,,,-1.6006213,116.1745657,https://maps.google.com/?cid=0x0:0xab01d92bbcbafe95,
toko bangunan,Toko Bahan Bangunan,tb rizkan rizad,"84JX+F74, Jl. Penajam-Kuaro, Samuntai, Kec. Long Ikis, Kabupaten Paser, Kalimantan Timur 76282","Jl. Penajam-Kuaro, Samuntai, Kec. Long Ikis, Kabupaten Paser",KALIMANTAN TIMUR,76282.0,Indonesia,87842263518.0,,,-1.6688206,116.1482361,https://maps.google.com/?cid=0x0:0x120126f7b987825b,
toko bangunan,Toko Bahan Bangunan,Tb.Kharisma,"Simpang pait samping bank BRI UNIT PAIT KEC LONG IKIS KAB PASER, Lombok, Kec. Long Ikis, Kabupaten Paser, Kalimantan Timur 76282","Lombok, Kec. Long Ikis, Kabupaten Paser",KALIMANTAN TIMUR,76282.0,Indonesia,85220100101.0,,,-1.6036944,116.1681262,https://maps.google.com/?cid=0x0:0x4a0dc3b8e913bdae,
toko bangunan,Toko,Mitra Jaya Abadi,"84JX+H2Q, Samuntai, Kec. Long Ikis, Kabupaten Paser, Kalimantan Timur 76282","Samuntai, Kec. Long Ikis, Kabupaten Paser",KALIMANTAN TIMUR,76282.0,Indonesia,85848934800.0,,,-1.6685458,116.14762,https://maps.google.com/?cid=0x0:0x65ccea2931963534,
toko bangunan,Kantor Perusahaan,toko Jaya Abadi,"C57W+8PV, Jl. Negara, Samuntai, Kec. Long Ikis, Kabupaten Paser, Kalimantan Timur 76282","Jl. Negara, Samuntai, Kec. Long Ikis, Kabupaten Paser",KALIMANTAN TIMUR,76282.0,Indonesia,85246269040.0,,,-1.5866406,116.196785,https://maps.google.com/?cid=0x0:0xaa9896da36c4b814,
toko bangunan,Toko Bahan Bangunan,Toko bangunan norkhalisa,"84JX+XXR, Jl. Jangkar, Samuntai, Kec. Long Ikis, Kabupaten Paser, Kalimantan Timur 76282","Jl. Jangkar, Samuntai, Kec. Long Ikis, Kabupaten Paser",KALIMANTAN TIMUR,76282.0,Indonesia,82351516939.0,,,-1.6675186,116.1499016,https://maps.google.com/?cid=0x0:0x41bd288218717a9f,
toko bangunan,Komplek perumahan,KIOS KAYU TIGA PUTRA MUHIFAH,"Jalan raya jemparing No.RT.01, Long Ikis, Kec. Long Ikis, Kabupaten Paser, Kalimantan Timur 76282","Long Ikis, Kec. Long Ikis, Kabupaten Paser",KALIMANTAN TIMUR,76282.0,Indonesia,81255598030.0,,,-1.5600495,116.2531378,https://maps.google.com/?cid=0x0:0xf33289ac18fbe34f,
toko bangunan,Toko,Helmy Jaya,"C56F+6PQ, Jl.perkuen desa simpang, Pait, Kec. Long Ikis, Kabupaten Paser, Kalimantan Timur 76282","Jl.perkuen desa simpang, Pait, Kec. Long Ikis, Kabupaten Paser",KALIMANTAN TIMUR,76282.0,Indonesia,,,,-1.5894228,116.1743456,https://maps.google.com/?cid=0x0:0xab100bffea2375ab,
toko bangunan,Toko Bahan Bangunan,Tb. Rukun Makmur,"96JV+WF8, Long Ikis, Kec. Long Ikis, Kabupaten Paser, Kalimantan Timur 76282","Long Ikis, Kec. Long Ikis, Kabupaten Paser",KALIMANTAN TIMUR,76282.0,Indonesia,,,,-1.6177173,116.2437013,https://maps.google.com/?cid=0x0:0x184ef45f2b87b3c3,
toko bangunan,Toko Bahan Bangunan,TB.Cahaya Bintang,"Simpang, Pait, Kec. Long Ikis, Kabupaten Paser, Kalimantan Timur 76282","Pait, Kec. Long Ikis, Kabupaten Paser",KALIMANTAN TIMUR,76282.0,Indonesia,82351298517.0,,,-1.5979138,116.1639051,https://maps.google.com/?cid=0x0:0x84a788ac2dfec48c,
toko bangunan,Toko Bahan Bangunan,Toko JOTUN Long Ikis (Trubus Steel),"Jl. Negara No.Km84, Long Ikis, Kec. Long Ikis, Kabupaten Paser, Kalimantan Timur 76282","Long Ikis, Kec. Long Ikis, Kabupaten Paser",KALIMANTAN TIMUR,76282.0,Indonesia,81347611176.0,,,-1.600197,116.1846732,https://maps.google.com/?cid=0x0:0x2ef8317f2e4c76cc,
toko bangunan,Toko Perlengkapan Rumah,Tb duta bangunan longkali,"F8H8+M95, Jl. Penajam-Kuaro, Long Kali, Kec. Long Kali, Kabupaten Paser, Kalimantan Timur 76283","Jl. Penajam-Kuaro, Long Kali, Kec. Long Kali, Kabupaten Paser",KALIMANTAN TIMUR,76283.0,Indonesia,,,,-1.5210048,116.316039,https://maps.google.com/?cid=0x0:0xf9cfd4318c83f91f,
toko bangunan,Toko Bahan Bangunan,TB.ANUGRAH KADEMAN,"Jl. propinsi No.KM 63, RT.03, Kademan, Kec. Long Kali, Kabupaten Paser, Kalimantan Timur","Kabupaten Paser, Kalimantan Timur",KALIMANTAN TIMUR,,Indonesia,,,,-1.5108777,116.3446339,https://maps.google.com/?cid=0x0:0xc66b463ab50bd9d8,
toko bangunan,toko bangunan,Long Kali,"Kec. Long Kali, Kabupaten Paser, Kalimantan Timur","Kabupaten Paser, Kalimantan Timur",KALIMANTAN TIMUR,,Indonesia,,,,-1.5194511,116.3485586,https://maps.google.com/?cid=0x0:0x53cab57c6f4ece2d,
toko bangunan,Toko Perlengkapan Rumah,Toko Bangunan Cahaya Makmur,"FCC5+Q7X, Gn. Makmur, Kec. Babulu, Kabupaten Penajam Paser Utara, Kalimantan Timur 76283","Gn. Makmur, Kec. Babulu, Kabupaten Penajam Paser Utara",KALIMANTAN TIMUR,76283.0,Indonesia,,,,-1.5275871,116.4082314,https://maps.google.com/?cid=0x0:0xc54ca38b03ce840a,
toko bangunan,Toko Bahan Bangunan,Toko Mandiri Jaya,"H839+MJF, Mendik, Kec. Long Kali, Kabupaten Paser, Kalimantan Timur","Kabupaten Paser, Kalimantan Timur",KALIMANTAN TIMUR,,Indonesia,,,,-1.4458244,116.3190398,https://maps.google.com/?cid=0x0:0x86128fb110412bbf,
toko bangunan,Toko,Toko Sama Sama,"95W9+G6H, simpang, Pait, Kec. Long Ikis, Kabupaten Paser, Kalimantan Timur 76282","simpang, Pait, Kec. Long Ikis, Kabupaten Paser",KALIMANTAN TIMUR,76282.0,Indonesia,,,,-1.6036905,116.1681059,https://maps.google.com/?cid=0x0:0x4f1bde532c5d2a91,
toko bangunan,toko bangunan,Kalimantan Timur 76253,"Kec. Muara Komam, Kabupaten Paser, Kalimantan Timur","Kabupaten Paser, Kalimantan Timur",KALIMANTAN TIMUR,,Indonesia,,,,-1.544033,115.8048521,https://maps.google.com/?cid=0x0:0x64a10c9684dc5b70,
toko bangunan,Toko Bahan Bangunan,toko Anugrah selerong (toko Dayat),"8QGH+PJF, Jl. Tj. - Kuaro, Muara Komam, Kec. Muara Komam, Kabupaten Paser, Kalimantan Timur 76253","Jl. Tj. - Kuaro, Muara Komam, Kec. Muara Komam, Kabupaten Paser",KALIMANTAN TIMUR,76253.0,Indonesia,82157069535.0,,,-1.6731903,115.7790316,https://maps.google.com/?cid=0x0:0x6eaba3c5b7867de2,
toko bangunan,Toko Bahan Bangunan,Toko Bangunan RAHMAN,"7R9H+899, Busui, Kec. Batu Sopang, Kabupaten Paser, Kalimantan Timur 76253","Busui, Kec. Batu Sopang, Kabupaten Paser",KALIMANTAN TIMUR,76253.0,Indonesia,85251407670.0,,,-1.731701,115.828494,https://maps.google.com/?cid=0x0:0x993727f72e8ce069,
toko bangunan,toko bangunan,UD. ASSALAM Muara Komam,"GRG2+MF7, Swan Slutung, Kec. Muara Komam, Kabupaten Paser, Kalimantan Timur 76253","Swan Slutung, Kec. Muara Komam, Kabupaten Paser",KALIMANTAN TIMUR,76253.0,Indonesia,,,,-1.473334,115.8011614,https://maps.google.com/?cid=0x0:0xf4523ecec0350c86,
toko bangunan,toko bangunan,Kalimantan Timur 76252,"Kabupaten Paser, Kalimantan Timur","Kabupaten Paser, Kalimantan Timur",KALIMANTAN TIMUR,,Indonesia,,,,-1.9651197,115.8994923,https://maps.google.com/?cid=0x0:0xd282220639c80aba,
toko bangunan,Toko Bahan Bangunan,Toko Thamrin,"Jl. Tj. - Kuaro, Batu Kajang, Kec. Batu Sopang, Kabupaten Paser, Kalimantan Timur 76252","Batu Kajang, Kec. Batu Sopang, Kabupaten Paser",KALIMANTAN TIMUR,76252.0,Indonesia,85211520009.0,,,-1.821302,115.9130392,https://maps.google.com/?cid=0x0:0x8d8c5a9e4e856e6e,
toko bangunan,Toko Bahan Bangunan,Toko Delta Bangunan,"Simpang 4 Kideco, Jl. Tambang Batu Bara, Batu Kajang, Kec. Batu Sopang, Kabupaten Paser, Kalimantan Timur 76252","Jl. Tambang Batu Bara, Batu Kajang, Kec. Batu Sopang, Kabupaten Paser",KALIMANTAN TIMUR,76252.0,Indonesia,85789077202.0,,,-1.8195224,115.9094756,https://maps.google.com/?cid=0x0:0xe51d088d24e534a2,
toko bangunan,Toko Bahan Bangunan,Toko Bangunan UD.Mandiri,"Jl. Mariga, Bawah Gunung Dap, Batu Kajang, Kec. Batu Sopang, Kalimantan Timur 76252","Bawah Gunung Dap, Batu Kajang, Kec. Batu Sopang",KALIMANTAN TIMUR,76252.0,Indonesia,81349372550.0,,,-1.8227407,115.9154019,https://maps.google.com/?cid=0x0:0xbd8b365c98c309b7,
toko bangunan,Toko Bahan Bangunan,Toko Bahan Bangunan UD. Mandiri,"Jl. Padat Karya, Batu Kajang, Kec. Batu Sopang, Kabupaten Paser, Kalimantan Timur 76252","Batu Kajang, Kec. Batu Sopang, Kabupaten Paser",KALIMANTAN TIMUR,76252.0,Indonesia,81349442827.0,,,-1.8391397,115.929673,https://maps.google.com/?cid=0x0:0xcb5136c352f52cf0,
toko bangunan,Toko Bahan Bangunan,Toko Bangunan Anugrah,"5W9H+C8W, Jl. Tj. - Kuaro, Batu Kajang, Kec. Batu Sopang, Kabupaten Paser, Kalimantan Timur 76252","Jl. Tj. - Kuaro, Batu Kajang, Kec. Batu Sopang, Kabupaten Paser",KALIMANTAN TIMUR,76252.0,Indonesia,,,,-1.831425,115.9283797,https://maps.google.com/?cid=0x0:0xfe65e4f30185b5c8,
toko bangunan,Toko Bahan Bangunan,Tb dua saudara batu kajang,"5W3J+97, Batu Kajang, Kec. Batu Sopang, Kabupaten Paser, Kalimantan Timur 76252","Batu Kajang, Kec. Batu Sopang, Kabupaten Paser",KALIMANTAN TIMUR,76252.0,Indonesia,,,,-1.8466136,115.9307101,https://maps.google.com/?cid=0x0:0x1deb55d98ae8019c,
toko bangunan,Toko Bahan Bangunan,Toko bangunan kelvin,"5VCP+XW, Batu Kajang, Kec. Batu Sopang, Kabupaten Paser, Kalimantan Timur 76252","Batu Kajang, Kec. Batu Sopang, Kabupaten Paser",KALIMANTAN TIMUR,76252.0,Indonesia,81346637594.0,,,-1.827608,115.887341,https://maps.google.com/?cid=0x0:0x29acc3a2d0f1cf02,
toko bangunan,Toko Bahan Bangunan,Sinar Berkah Bangunan,"Jl.Negara, Jl. Tj. - Kuaro Desa No.Rt 06, Songka, Kec. Batu Sopang","Kabupaten Paser, Kalimantan Timur",KALIMANTAN TIMUR,,Indonesia,,,,-1.8241532,115.8895658,https://maps.google.com/?cid=0x0:0x9b1df2071e1a195,
toko bangunan,Toko Bahan Bangunan,Tk bangunan mariga,"5WG8+V6J, Batu Kajang, Kec. Batu Sopang, Kabupaten Paser, Kalimantan Timur 76252","Batu Kajang, Kec. Batu Sopang, Kabupaten Paser",KALIMANTAN TIMUR,76252.0,Indonesia,,,,-1.8227804,115.9155079,https://maps.google.com/?cid=0x0:0x62616793595dc3c0,
toko bangunan,Toko Bahan Bangunan,TB. Ihza Bangun Jaya,"Jl. Kuaro - Tanah Grogot, Kuaro, Kec. Kuaro, Kabupaten Paser, Kalimantan Timur 76281","Kuaro, Kec. Kuaro, Kabupaten Paser",KALIMANTAN TIMUR,76281.0,Indonesia,82157338754.0,,,-1.8320445,116.0822179,https://maps.google.com/?cid=0x0:0x6a6d0c21301e97f0,
toko bangunan,Toko Bahan Bangunan,Toko Sumber Jaya,"R3PX+6M9, Ds. Tebru Paser Damai,, Jl. Jenderal Sudirman, Kerang, Kec. Batu Engau, Kabupaten Paser, Kalimantan Timur 76261","Ds. Tebru Paser Damai,, Jl. Jenderal Sudirman, Kerang, Kec. Batu Engau, Kabupaten Paser",KALIMANTAN TIMUR,76261.0,Indonesia,81536204549.0,,,-2.1644706,116.0992476,https://maps.google.com/?cid=0x0:0xda0bf411f4fabc8f,
toko bangunan,Toko Perlengkapan Rumah,Toko Bangunan MURAH REJEKI,"Tanah Grogot, Kec. Tanah Grogot, Kabupaten Paser, Kalimantan Timur 76251","Kec. Tanah Grogot, Kabupaten Paser",KALIMANTAN TIMUR,76251.0,Indonesia,82354546666.0,,,-1.9041894,116.2024181,https://maps.google.com/?cid=0x0:0x4c3f400d7763e4ac,
toko bangunan,Toko Bahan Bangunan,Delta Color,"Batu Kajang, Kec. Batu Sopang, Kabupaten Paser, Kalimantan Timur 76252","Kec. Batu Sopang, Kabupaten Paser",KALIMANTAN TIMUR,76252.0,Indonesia,,,,-1.8234774,115.9173217,https://maps.google.com/?cid=0x0:0x1d36c97f6e2d873a,
toko bangunan,Toko Bahan Bangunan,Toko Bangunan (PADA IDI),"36V3+5FQ, Tanah Grogot, Kec. Tanah Grogot, Kabupaten Paser, Kalimantan Timur 76251","Tanah Grogot, Kec. Tanah Grogot, Kabupaten Paser",KALIMANTAN TIMUR,76251.0,Indonesia,83821475758.0,,,-1.9070386,116.203749,https://maps.google.com/?cid=0x0:0x1d252c2071a2bdc3,
toko bangunan,Toko Bahan Bangunan,toko Anugrah selerong (toko Dayat),"8QGH+PJF, Jl. Tj. - Kuaro, Muara Komam, Kec. Muara Komam, Kabupaten Paser, Kalimantan Timur 76253","Jl. Tj. - Kuaro, Muara Komam, Kec. Muara Komam, Kabupaten Paser",KALIMANTAN TIMUR,76253.0,Indonesia,82157069535.0,,,-1.6731903,115.7790316,https://maps.google.com/?cid=0x0:0x6eaba3c5b7867de2,
toko bangunan,Toko Bahan Bangunan,Gorong gorong bapak bima BIU,"XWRP+PCX, Muser, Kec. Muara Samu, Kabupaten Paser, Kalimantan Timur","Kabupaten Paser, Kalimantan Timur",KALIMANTAN TIMUR,,Indonesia,82351471980.0,,,-2.0081319,115.9361143,https://maps.google.com/?cid=0x0:0x16edb815659b741d,
toko bangunan,Toko Bahan Bangunan,TOKO SINAR BANGUNAN,"Jl. Ahmad Yani, Kuaro, Kec. Kuaro, Kabupaten Paser, Kalimantan Timur 76281","Kuaro, Kec. Kuaro, Kabupaten Paser",KALIMANTAN TIMUR,76281.0,Indonesia,83821475758.0,,,-1.8117474,116.0836563,https://maps.google.com/?cid=0x0:0xfed2e1211dfcd509,
toko bangunan,toko bangunan,TB.HIDAYAT,"5VJV+4V5, Jl. Tj. - Kuaro, Batu Kajang, Kec. Batu Sopang, Kabupaten Paser, Kalimantan Timur 76252","Jl. Tj. - Kuaro, Batu Kajang, Kec. Batu Sopang, Kabupaten Paser",KALIMANTAN TIMUR,76252.0,Indonesia,,,,-1.8197522,115.8947486,https://maps.google.com/?cid=0x0:0xdd8bf5c2ddacfe6d,
toko bangunan,Toko Bahan Bangunan,TOKO BANGUNAN TB.BEKAH HIJRAH,"5J6M+XC7, 6J9X+P49Jl. Tj, KuaroSolan, Kec. Jaro, Kabupaten Tabalong, Kalimantan Selatan 71574","6J9X+P49Jl. Tj, KuaroSolan, Kec. Jaro, Kabupaten Tabalong",KALIMANTAN TIMUR,71574.0,Indonesia,85332321731.0,,,-1.8375783,115.633556,https://maps.google.com/?cid=0x0:0x1bf9728b2048b20c,
toko bangunan,toko bangunan,Toko Sinar Bangunan Biu,"XWQP+CG9, Muser, Kec. Muara Samu, Kabupaten Paser, Kalimantan Timur 76252","Muser, Kec. Muara Samu, Kabupaten Paser",KALIMANTAN TIMUR,76252.0,Indonesia,,,,-2.0114714,115.9363573,https://maps.google.com/?cid=0x0:0x785df4109801ec13,
toko bangunan,toko bangunan,Toko Bangunan Sempurna,"5WCC+RJ8, Jl. Tj. - Kuaro, Batu Kajang, Kec. Batu Sopang, Kabupaten Paser, Kalimantan Timur 76252","Jl. Tj. - Kuaro, Batu Kajang, Kec. Batu Sopang, Kabupaten Paser",KALIMANTAN TIMUR,76252.0,Indonesia,,,,-1.8279612,115.9215928,https://maps.google.com/?cid=0x0:0x13bd485fbc5fd65d,
toko bangunan,Toko Perlengkapan Rumah,Palapa Bangunan,"53QM+7HJ, Jl. Penajam-Kuaro, Kuaro, Kec. Kuaro, Kabupaten Paser, Kalimantan Timur 76281","Jl. Penajam-Kuaro, Kuaro, Kec. Kuaro, Kabupaten Paser",KALIMANTAN TIMUR,76281.0,Indonesia,,,,-1.8117863,116.0839002,https://maps.google.com/?cid=0x0:0xd62be884ac02d150,
toko bangunan,toko bangunan,Molding berkat do'a ibu,"5WH6+46J, Batu Kajang, Kec. Batu Sopang, Kabupaten Paser, Kalimantan Timur 76252","Batu Kajang, Kec. Batu Sopang, Kabupaten Paser",KALIMANTAN TIMUR,76252.0,Indonesia,81347036455.0,,,-1.8222447,115.9105588,https://maps.google.com/?cid=0x0:0x9f4aec87cd1c57a7,
toko bangunan,toko bangunan,Pasir Belengkong,"Kec. Pasir Belengkong, Kabupaten Paser, Kalimantan Timur","Kabupaten Paser, Kalimantan Timur",KALIMANTAN TIMUR,,Indonesia,,,,-1.9689999,116.1950214,https://maps.google.com/?cid=0x0:0x6221fbd222a5cafb,
toko bangunan,Pemasok Bahan Bangunan,TOKO BANGUNAN,"2772+689, Suliliran Baru, Kec. Pasir Belengkong, Kabupaten Paser, Kalimantan Timur 76271","Suliliran Baru, Kec. Pasir Belengkong, Kabupaten Paser",KALIMANTAN TIMUR,76271.0,Indonesia,,,,-1.9868507,116.2512426,https://maps.google.com/?cid=0x0:0x67ad6022cc5b7b25,
toko bangunan,Toko,Toko Bangunan Suatang,"254R+W65, Suatang Baru, Kec. Pasir Belengkong, Kabupaten Paser, Kalimantan Timur 76271","Suatang Baru, Kec. Pasir Belengkong, Kabupaten Paser",KALIMANTAN TIMUR,76271.0,Indonesia,,,,-1.99274,116.1906199,https://maps.google.com/?cid=0x0:0x4e50be7148a36792,
toko bangunan,Toko Bahan Bangunan,P3A Suatang,"26W3+862, Unnamed Road, Pasir Belengkong, Kec. Pasir Belengkong, Kabupaten Paser, Kalimantan Timur 76271","Unnamed Road, Pasir Belengkong, Kec. Pasir Belengkong, Kabupaten Paser",KALIMANTAN TIMUR,76271.0,Indonesia,,,,-1.9542343,116.2030296,https://maps.google.com/?cid=0x0:0xa7e27f1989f42124,
toko bangunan,Toko Bahan Bangunan,Toko Maulida Bangunan,"35GX+XJP, Tanah Grogot, Kec. Tanah Grogot, Kabupaten Paser, Kalimantan Timur 76251","Tanah Grogot, Kec. Tanah Grogot, Kabupaten Paser",KALIMANTAN TIMUR,76251.0,Indonesia,81276932276.0,,,-1.9225572,116.199095,https://maps.google.com/?cid=0x0:0x7b440cc295d79b34,
toko bangunan,Toko Perlengkapan Rumah,Toko Bangunan Lisa 2,"35CR+P4W, Jl. Sangkuriman, Tanah Periuk, Kec. Tanah Grogot, Kabupaten Paser, Kalimantan Timur 76251","Jl. Sangkuriman, Tanah Periuk, Kec. Tanah Grogot, Kabupaten Paser",KALIMANTAN TIMUR,76251.0,Indonesia,,,,-1.9281419,116.1903283,https://maps.google.com/?cid=0x0:0x5254c150b94fa31e,
toko bangunan,Toko Bahan Bangunan,Toko Bangunan (PADA IDI),"36V3+5FQ, Tanah Grogot, Kec. Tanah Grogot, Kabupaten Paser, Kalimantan Timur 76251","Tanah Grogot, Kec. Tanah Grogot, Kabupaten Paser",KALIMANTAN TIMUR,76251.0,Indonesia,83821475758.0,,,-1.9070386,116.203749,https://maps.google.com/?cid=0x0:0x1d252c2071a2bdc3,
toko bangunan,Toko Cat,Toko Fajar Ramadhan,"Tanah Periuk, Kec. Tanah Grogot, Kabupaten Paser, Kalimantan Timur 76251","Kec. Tanah Grogot, Kabupaten Paser",KALIMANTAN TIMUR,76251.0,Indonesia,81347922753.0,,,-1.9272094,116.1910669,https://maps.google.com/?cid=0x0:0x5dcaefb4aab12514,
toko bangunan,Toko Bahan Bangunan,Toko Pancar Bangunan 2,"Jl. Sultan Iskandar Muda, Tanah Grogot, Kec. Tanah Grogot, Kabupaten Paser, Kalimantan Timur 76251","Tanah Grogot, Kec. Tanah Grogot, Kabupaten Paser",KALIMANTAN TIMUR,76251.0,Indonesia,85767802761.0,,,-1.9203286,116.1953692,https://maps.google.com/?cid=0x0:0x2cbe7d0c24a40006,
toko bangunan,Toko Perlengkapan Rumah,TOKO RAHMAH JAYA ABADI,"Jl. Kandilo Bahari Samping Gang Reformasi No.7, Tanah Grogot, Kec. Tanah Grogot, Kabupaten Paser, Kalimantan Timur 76251","Tanah Grogot, Kec. Tanah Grogot, Kabupaten Paser",KALIMANTAN TIMUR,76251.0,Indonesia,,,,-1.9216047,116.2009204,https://maps.google.com/?cid=0x0:0x225f14e117c343fd,
toko bangunan,Toko Perlengkapan Rumah,Toko Bangunan MURAH REJEKI,"Tanah Grogot, Kec. Tanah Grogot, Kabupaten Paser, Kalimantan Timur 76251","Kec. Tanah Grogot, Kabupaten Paser",KALIMANTAN TIMUR,76251.0,Indonesia,82354546666.0,,,-1.9041894,116.2024181,https://maps.google.com/?cid=0x0:0x4c3f400d7763e4ac,
toko bangunan,Toko Bahan Bangunan,toko Rizky bangunan,"Jl. Sultan Hasanuddin, Tanah Grogot, Kec. Tanah Grogot, Kabupaten Paser, Kalimantan Timur 76251","Tanah Grogot, Kec. Tanah Grogot, Kabupaten Paser",KALIMANTAN TIMUR,76251.0,Indonesia,,,,-1.9181992,116.1979247,https://maps.google.com/?cid=0x0:0x6e95483a75ae4c9,
toko bangunan,Pusat Perbelanjaan,Toko sarwani 2,"3693+8FF, Tanah Periuk, Kec. Tanah Grogot, Kabupaten Paser, Kalimantan Timur 76251","Tanah Periuk, Kec. Tanah Grogot, Kabupaten Paser",KALIMANTAN TIMUR,76251.0,Indonesia,81346396957.0,,,-1.9316881,116.2036837,https://maps.google.com/?cid=0x0:0x7347c1dac30ec630,
toko bangunan,Toko,Toko kayu dan bangunan,"U.D AN'NUR, Jl. Sangkuriman, RT.006/RW.000, Tanah Periuk, Kec. Tanah Grogot, Kabupaten Paser, Kalimantan Timur 76211","Jl. Sangkuriman, RT.006/RW.000, Tanah Periuk, Kec. Tanah Grogot, Kabupaten Paser",KALIMANTAN TIMUR,76211.0,Indonesia,85845865260.0,,,-1.9276777,116.1908808,https://maps.google.com/?cid=0x0:0xeb5a095f7e61caf1,
toko bangunan,Toko Bahan Bangunan,Toko Sinar Abadi Bangunan,"35RW+53M, Tanah Grogot, Kec. Tanah Grogot, Kabupaten Paser, Kalimantan Timur 76251","Tanah Grogot, Kec. Tanah Grogot, Kabupaten Paser",KALIMANTAN TIMUR,76251.0,Indonesia,85246000889.0,,,-1.9095271,116.1951781,https://maps.google.com/?cid=0x0:0x63d1d9e59c887676,
toko bangunan,Toko Elektronik,Toko Berkat Alam 2,"35MX+83H, Jln. St. Hasanuddin, Tanah Grogot, Kec. Tanah Grogot, Kabupaten Paser, Kalimantan Timur 76211","Jln. St. Hasanuddin, Tanah Grogot, Kec. Tanah Grogot, Kabupaten Paser",KALIMANTAN TIMUR,76211.0,Indonesia,,,,-1.9166809,116.1977463,https://maps.google.com/?cid=0x0:0x5c9edac682e5de67,
toko bangunan,Toko Bahan Bangunan,"Toko surya indah, gerogot","35FR+5CG, Jl. Sultan Adam, Tanah Periuk, Kec. Tanah Grogot, Kabupaten Paser, Kalimantan Timur 76251","Jl. Sultan Adam, Tanah Periuk, Kec. Tanah Grogot, Kabupaten Paser",KALIMANTAN TIMUR,76251.0,Indonesia,,,,-1.927065,116.1910814,https://maps.google.com/?cid=0x0:0x49db01251a039d64,
toko bangunan,Toko Perlengkapan Rumah,Toko Bangunan *RAHMA*,"36W6+6JM, Jl. Yos Sudarso, Jone, Kec. Tanah Grogot, Kabupaten Paser, Kalimantan Timur 76251","Jl. Yos Sudarso, Jone, Kec. Tanah Grogot, Kabupaten Paser",KALIMANTAN TIMUR,76251.0,Indonesia,82157472870.0,,,-1.9044086,116.2115516,https://maps.google.com/?cid=0x0:0x2c0f49f5303a1984,
toko bangunan,Toko Bahan Bangunan,Toko Diamond,"35QX+4GM, Jl. Cut Nyak Dien, Tanah Grogot, Kec. Tanah Grogot, Kabupaten Paser, Kalimantan Timur 76251","Jl. Cut Nyak Dien, Tanah Grogot, Kec. Tanah Grogot, Kabupaten Paser",KALIMANTAN TIMUR,76251.0,Indonesia,,,,-1.9121676,116.1987961,https://maps.google.com/?cid=0x0:0x2ff89f157cbb5cb5,
toko bangunan,Toko Perlengkapan Rumah,Pancar Bangunan1,"Jl. Yos Sudarso, Jone, Kec. Tanah Grogot, Kabupaten Paser, Kalimantan Timur 76251","Jone, Kec. Tanah Grogot, Kabupaten Paser",KALIMANTAN TIMUR,76251.0,Indonesia,85247471792.0,,,-1.9056724,116.2058486,https://maps.google.com/?cid=0x0:0x785df1fde06dd201,
toko bangunan,Toko Perlengkapan Rumah,Alman Meubel,"359M+XM9, Jl. Sangkuriman, Sangkuriman, Kec. Pasir Belengkong, Kabupaten Paser, Kalimantan Timur 76251","Jl. Sangkuriman, Sangkuriman, Kec. Pasir Belengkong, Kabupaten Paser",KALIMANTAN TIMUR,76251.0,Indonesia,85247753157.0,,,-1.9300978,116.1842482,https://maps.google.com/?cid=0x0:0xac583d02497a6243,
toko bangunan,Toko Bahan Bangunan,"Toko trubus steel, grogot","Jl. Cokroaminoto No.51, Tanah Grogot, Kec. Tanah Grogot, Kabupaten Paser, Kalimantan Timur 76211","Tanah Grogot, Kec. Tanah Grogot, Kabupaten Paser",KALIMANTAN TIMUR,76211.0,Indonesia,,,,-1.9163504,116.1953265,https://maps.google.com/?cid=0x0:0xf4e52d8640526488,
toko bangunan,Toko Bahan Bangunan,Toko Bangunan (PADA IDI),"36V3+5FQ, Tanah Grogot, Kec. Tanah Grogot, Kabupaten Paser, Kalimantan Timur 76251","Tanah Grogot, Kec. Tanah Grogot, Kabupaten Paser",KALIMANTAN TIMUR,76251.0,Indonesia,83821475758.0,,,-1.9070386,116.203749,https://maps.google.com/?cid=0x0:0x1d252c2071a2bdc3,
toko bangunan,Toko Perlengkapan Rumah,Toko Bangunan *RAHMA*,"36W6+6JM, Jl. Yos Sudarso, Jone, Kec. Tanah Grogot, Kabupaten Paser, Kalimantan Timur 76251","Jl. Yos Sudarso, Jone, Kec. Tanah Grogot, Kabupaten Paser",KALIMANTAN TIMUR,76251.0,Indonesia,82157472870.0,,,-1.9044086,116.2115516,https://maps.google.com/?cid=0x0:0x2c0f49f5303a1984,
toko bangunan,Toko Perlengkapan Rumah,Toko Bangunan MURAH REJEKI,"Tanah Grogot, Kec. Tanah Grogot, Kabupaten Paser, Kalimantan Timur 76251","Kec. Tanah Grogot, Kabupaten Paser",KALIMANTAN TIMUR,76251.0,Indonesia,82354546666.0,,,-1.9041894,116.2024181,https://maps.google.com/?cid=0x0:0x4c3f400d7763e4ac,
toko bangunan,Toko Perlengkapan Rumah,Pancar Bangunan1,"Jl. Yos Sudarso, Jone, Kec. Tanah Grogot, Kabupaten Paser, Kalimantan Timur 76251","Jone, Kec. Tanah Grogot, Kabupaten Paser",KALIMANTAN TIMUR,76251.0,Indonesia,85247471792.0,,,-1.9056724,116.2058486,https://maps.google.com/?cid=0x0:0x785df1fde06dd201,
toko bangunan,Toko Bahan Bangunan,Toko Sinar Abadi Bangunan,"35RW+53M, Tanah Grogot, Kec. Tanah Grogot, Kabupaten Paser, Kalimantan Timur 76251","Tanah Grogot, Kec. Tanah Grogot, Kabupaten Paser",KALIMANTAN TIMUR,76251.0,Indonesia,85246000889.0,,,-1.9095271,116.1951781,https://maps.google.com/?cid=0x0:0x63d1d9e59c887676,
toko bangunan,Toko Bahan Bangunan,Toko Diamond,"35QX+4GM, Jl. Cut Nyak Dien, Tanah Grogot, Kec. Tanah Grogot, Kabupaten Paser, Kalimantan Timur 76251","Jl. Cut Nyak Dien, Tanah Grogot, Kec. Tanah Grogot, Kabupaten Paser",KALIMANTAN TIMUR,76251.0,Indonesia,,,,-1.9121676,116.1987961,https://maps.google.com/?cid=0x0:0x2ff89f157cbb5cb5,
toko bangunan,Toko Perlengkapan Rumah,TOKO BANGUNAN SERI JAYA,"Jl. MT. Haryono, Tanah Grogot, Kec. Tanah Grogot, Kabupaten Paser, Kalimantan Timur 76251","Tanah Grogot, Kec. Tanah Grogot, Kabupaten Paser",KALIMANTAN TIMUR,76251.0,Indonesia,85777883592.0,,,-1.9045655,116.2025189,https://maps.google.com/?cid=0x0:0xf42526f27a6e0f29,
toko bangunan,Toko Bahan Bangunan,Toko bangunan,"Jln sultan hasanudin RT. 13/02. Nomor A.919, Tanah Grogot, Kec. Tanah Grogot, Kabupaten Paser, Kalimantan Timur 76211","Tanah Grogot, Kec. Tanah Grogot, Kabupaten Paser",KALIMANTAN TIMUR,76211.0,Indonesia,85346327521.0,,,-1.9008386,116.1950741,https://maps.google.com/?cid=0x0:0xa6f163f1d471e682,
toko bangunan,Toko Bahan Bangunan,Toko Pancar Bangunan 2,"Jl. Sultan Iskandar Muda, Tanah Grogot, Kec. Tanah Grogot, Kabupaten Paser, Kalimantan Timur 76251","Tanah Grogot, Kec. Tanah Grogot, Kabupaten Paser",KALIMANTAN TIMUR,76251.0,Indonesia,85767802761.0,,,-1.9203286,116.1953692,https://maps.google.com/?cid=0x0:0x2cbe7d0c24a40006,
toko bangunan,Toko Bahan Bangunan,"Toko trubus steel, grogot","Jl. Cokroaminoto No.51, Tanah Grogot, Kec. Tanah Grogot, Kabupaten Paser, Kalimantan Timur 76211","Tanah Grogot, Kec. Tanah Grogot, Kabupaten Paser",KALIMANTAN TIMUR,76211.0,Indonesia,,,,-1.9163504,116.1953265,https://maps.google.com/?cid=0x0:0xf4e52d8640526488,
toko bangunan,Toko Bahan Bangunan,Toko Bangunan Sempurna,"44CG+FW7, Jl. Kuaro - Tanah Grogot, Lolo, Kec. Kuaro, Kabupaten Paser, Kalimantan Timur 76251","Jl. Kuaro - Tanah Grogot, Lolo, Kec. Kuaro, Kabupaten Paser",KALIMANTAN TIMUR,76251.0,Indonesia,85349315021.0,,,-1.8788415,116.1272838,https://maps.google.com/?cid=0x0:0x4138548a7b1494dc,
toko bangunan,Pemasok Bahan Bangunan,toko bangunan sarwani,"35QX+CH7, Jl. R. Suprapto, Tanah Grogot, Kec. Tanah Grogot, Kabupaten Paser, Kalimantan Timur 76251","Jl. R. Suprapto, Tanah Grogot, Kec. Tanah Grogot, Kabupaten Paser",KALIMANTAN TIMUR,76251.0,Indonesia,85393437371.0,,,-1.9114633,116.1989342,https://maps.google.com/?cid=0x0:0x2a57684df1427fc9,
toko bangunan,Toko Bahan Bangunan,Tb Sumber Jaya,"Jl. Anden Oko, Jone, Kec. Tanah Grogot, Kabupaten Paser, Kalimantan Timur 76251","Jone, Kec. Tanah Grogot, Kabupaten Paser",KALIMANTAN TIMUR,76251.0,Indonesia,,,,-1.903105,116.2028734,https://maps.google.com/?cid=0x0:0xe52591a80ddea57c,
toko bangunan,Toko Bahan Bangunan,"Toko surya indah, gerogot","35FR+5CG, Jl. Sultan Adam, Tanah Periuk, Kec. Tanah Grogot, Kabupaten Paser, Kalimantan Timur 76251","Jl. Sultan Adam, Tanah Periuk, Kec. Tanah Grogot, Kabupaten Paser",KALIMANTAN TIMUR,76251.0,Indonesia,,,,-1.927065,116.1910814,https://maps.google.com/?cid=0x0:0x49db01251a039d64,
toko bangunan,Toko Perlengkapan Rumah,Toko Bangunan Lisa 2,"35CR+P4W, Jl. Sangkuriman, Tanah Periuk, Kec. Tanah Grogot, Kabupaten Paser, Kalimantan Timur 76251","Jl. Sangkuriman, Tanah Periuk, Kec. Tanah Grogot, Kabupaten Paser",KALIMANTAN TIMUR,76251.0,Indonesia,,,,-1.9281419,116.1903283,https://maps.google.com/?cid=0x0:0x5254c150b94fa31e,
toko bangunan,Pemasok Bahan Bangunan,"Toko Bangunan,H.Sarmidin","35QW+GRP, Tanah Grogot, Kec. Tanah Grogot, Kabupaten Paser, Kalimantan Timur 76251","Tanah Grogot, Kec. Tanah Grogot, Kabupaten Paser",KALIMANTAN TIMUR,76251.0,Indonesia,85386424388.0,,,-1.9111689,116.1970657,https://maps.google.com/?cid=0x0:0xcf60224364d27d51,
toko bangunan,Toko Bahan Bangunan,JM STEEL BESI TANAH GROGOT,"sebelah kiri dunia motor , ada halaman masuk ruko tingkat 2, Jl. Rm. Noto Sunardi, pintu, Kec. Tanah Grogot, Kabupaten Paser, Kalimantan Timur 76211","ada halaman masuk ruko tingkat 2, Jl. Rm. Noto Sunardi, pintu, Kec. Tanah Grogot, Kabupaten Paser",KALIMANTAN TIMUR,76211.0,Indonesia,,,,-1.9183458,116.1913018,https://maps.google.com/?cid=0x0:0x24628671f56153d,
toko bangunan,Toko Bahan Bangunan,Tb rahmat grogot,"35QW+GRR, Jl. R. A Kartini, Tanah Grogot, Kec. Tanah Grogot, Kabupaten Paser, Kalimantan Timur 76251","Jl. R. A Kartini, Tanah Grogot, Kec. Tanah Grogot, Kabupaten Paser",KALIMANTAN TIMUR,76251.0,Indonesia,,,,-1.9111238,116.1970041,https://maps.google.com/?cid=0x0:0x77e389e86562f348,
toko bangunan,Toko Bahan Bangunan,toko Rizky bangunan,"Jl. Sultan Hasanuddin, Tanah Grogot, Kec. Tanah Grogot, Kabupaten Paser, Kalimantan Timur 76251","Tanah Grogot, Kec. Tanah Grogot, Kabupaten Paser",KALIMANTAN TIMUR,76251.0,Indonesia,,,,-1.9181992,116.1979247,https://maps.google.com/?cid=0x0:0x6e95483a75ae4c9,
toko bangunan,Toko Perlengkapan Rumah,TOKO RAHMAH JAYA ABADI,"Jl. Kandilo Bahari Samping Gang Reformasi No.7, Tanah Grogot, Kec. Tanah Grogot, Kabupaten Paser, Kalimantan Timur 76251","Tanah Grogot, Kec. Tanah Grogot, Kabupaten Paser",KALIMANTAN TIMUR,76251.0,Indonesia,,,,-1.9216047,116.2009204,https://maps.google.com/?cid=0x0:0x225f14e117c343fd,
toko bangunan,Toko Bahan Bangunan,TOKO PACIFIC,"Tanah Grogot, Kec. Tanah Grogot, Kabupaten Paser, Kalimantan Timur 76251","Kec. Tanah Grogot, Kabupaten Paser",KALIMANTAN TIMUR,76251.0,Indonesia,87702424241.0,,,-1.9124641,116.1986692,https://maps.google.com/?cid=0x0:0x66695a9ff4b94e35,
toko bangunan,Pemasok Bahan Bangunan,Muhammad Zaini,"45FV+VHG, Jl. DI. Panjaitan, Jone, Kec. Tanah Grogot, Kabupaten Paser, Kalimantan Timur 76251","Jl. DI. Panjaitan, Jone, Kec. Tanah Grogot, Kabupaten Paser",KALIMANTAN TIMUR,76251.0,Indonesia,,,,-1.875321,116.1939402,https://maps.google.com/?cid=0x0:0xcdf0cdbaa5196383,
toko bangunan,Toko Cat,Toko Fajar Ramadhan,"Tanah Periuk, Kec. Tanah Grogot, Kabupaten Paser, Kalimantan Timur 76251","Kec. Tanah Grogot, Kabupaten Paser",KALIMANTAN TIMUR,76251.0,Indonesia,81347922753.0,,,-1.9272094,116.1910669,https://maps.google.com/?cid=0x0:0x5dcaefb4aab12514,
toko bangunan,Toko Bahan Bangunan,Toko Hadjie Sidie,"Jl. Yos Sudarso, Jone, Kec. Tanah Grogot, Kabupaten Paser, Kalimantan Timur 76251","Jone, Kec. Tanah Grogot, Kabupaten Paser",KALIMANTAN TIMUR,76251.0,Indonesia,,,,-1.9045604,116.2102742,https://maps.google.com/?cid=0x0:0xe10f324df411b2c4,
toko bangunan,Pemasok Bahan Bangunan,Tb. Hulu Sungai,"4632+H6C, Jl. Untung Suropati, Jone, Kec. Tanah Grogot, Kabupaten Paser, Kalimantan Timur 76251","Jl. Untung Suropati, Jone, Kec. Tanah Grogot, Kabupaten Paser",KALIMANTAN TIMUR,76251.0,Indonesia,,,,-1.8960682,116.2005163,https://maps.google.com/?cid=0x0:0x245e1da06c4fe522,
toko bangunan,toko bangunan,Kalimantan Timur 76251,"Kabupaten Paser, Kalimantan Timur","Kabupaten Paser, Kalimantan Timur",KALIMANTAN TIMUR,,Indonesia,,,,-1.8898443,116.1832068,https://maps.google.com/?cid=0x0:0xca69f8ee7df89d8f,
toko bangunan,Toko Bahan Bangunan,Tb. Pancar dua dua,"36V5+W9P, Jl. Yos Sudarso, Jone, Kec. Tanah Grogot, Kabupaten Paser, Kalimantan Timur 76251","Jl. Yos Sudarso, Jone, Kec. Tanah Grogot, Kabupaten Paser",KALIMANTAN TIMUR,76251.0,Indonesia,85346666610.0,,,-1.9051568,116.208443,https://maps.google.com/?cid=0x0:0x95e06c1477afbcde,
toko bangunan,Toko Bahan Bangunan,Toko Thamrin,"Jl. Tj. - Kuaro, Batu Kajang, Kec. Batu Sopang, Kabupaten Paser, Kalimantan Timur 76252","Batu Kajang, Kec. Batu Sopang, Kabupaten Paser",KALIMANTAN TIMUR,76252.0,Indonesia,85211520009.0,,,-1.821302,115.9130392,https://maps.google.com/?cid=0x0:0x8d8c5a9e4e856e6e,
toko bangunan,Toko Bahan Bangunan,Toko Bangunan (PADA IDI),"36V3+5FQ, Tanah Grogot, Kec. Tanah Grogot, Kabupaten Paser, Kalimantan Timur 76251","Tanah Grogot, Kec. Tanah Grogot, Kabupaten Paser",KALIMANTAN TIMUR,76251.0,Indonesia,83821475758.0,,,-1.9070386,116.203749,https://maps.google.com/?cid=0x0:0x1d252c2071a2bdc3,
toko bangunan,Toko Bahan Bangunan,Toko Bangunan RAHMAN,"7R9H+899, Busui, Kec. Batu Sopang, Kabupaten Paser, Kalimantan Timur 76253","Busui, Kec. Batu Sopang, Kabupaten Paser",KALIMANTAN TIMUR,76253.0,Indonesia,85251407670.0,,,-1.731701,115.828494,https://maps.google.com/?cid=0x0:0x993727f72e8ce069,
toko bangunan,Toko Perlengkapan Rumah,Toko Bangunan *RAHMA*,"36W6+6JM, Jl. Yos Sudarso, Jone, Kec. Tanah Grogot, Kabupaten Paser, Kalimantan Timur 76251","Jl. Yos Sudarso, Jone, Kec. Tanah Grogot, Kabupaten Paser",KALIMANTAN TIMUR,76251.0,Indonesia,82157472870.0,,,-1.9044086,116.2115516,https://maps.google.com/?cid=0x0:0x2c0f49f5303a1984,
toko bangunan,Toko Bahan Bangunan,Toko Harapan 2,"Jl. Manunggal No No.2, Tajurhalang, Tajur Halang, Bogor Regency, West Java 16320","Tajurhalang, Tajur Halang, Bogor Regency",KALIMANTAN TIMUR,16320.0,Indonesia,,,,-6.4750643,106.7578901,https://maps.google.com/?cid=0x0:0xb0b7f629a50dfff2,
toko bangunan,Toko Bahan Bangunan,TB Sinar Harapan,"Jl. Poltangan Raya No.3, RT.1/RW.4, Tj. Bar., Kec. Jagakarsa, Kota Jakarta Selatan, Daerah Khusus Ibukota Jakarta 12530","RT.1/RW.4, Tj. Bar., Kec. Jagakarsa, Kota Jakarta Selatan",KALIMANTAN TIMUR,12530.0,Indonesia,85166899153.0,,,-6.296469,106.8440872,https://maps.google.com/?cid=0x0:0x2af522390af9c1d8,
toko bangunan,Toko Bahan Bangunan,Toko Cahaya Harapan,"Jl. Langgar No.53 4, RT.2/RW.6, Tj. Bar., Kec. Jagakarsa, Kota Jakarta Selatan, Daerah Khusus Ibukota Jakarta 12530","RT.2/RW.6, Tj. Bar., Kec. Jagakarsa, Kota Jakarta Selatan",KALIMANTAN TIMUR,12530.0,Indonesia,,,,-6.3102398,106.8468403,https://maps.google.com/?cid=0x0:0xc3ddc8847750624e,
toko bangunan,Toko Bahan Bangunan,Toko Bangunan Harapan Kita,"Jl. Ir.Sukarno Jl. Kongsi Baru, Paramount, Kec. Serpong, Kabupaten Tangerang, Banten 15822","Paramount, Kec. Serpong, Kabupaten Tangerang",KALIMANTAN TIMUR,15822.0,Indonesia,85166901385.0,,,-6.2625006,106.6304972,https://maps.google.com/?cid=0x0:0x441cb92d32cd9a88,
toko bangunan,Toko Bahan Bangunan,Toko. Material Bangunan TanJung HaRaPan.,"Jl. Ciloa kp No.36, RT.02/RW.07, Ngamprah, Kec. Ngamprah, Kabupaten Bandung Barat, Jawa Barat 40552","RT.02/RW.07, Ngamprah, Kec. Ngamprah, Kabupaten Bandung Barat",KALIMANTAN TIMUR,40552.0,Indonesia,,,,-6.8342721,107.5162259,https://maps.google.com/?cid=0x0:0x83a435bce755144f,
toko bangunan,Toko Bahan Bangunan,Tb Sinhar Harapan Tengsaw,"Jl. Raya Tajur No.14 2, RT.2/RW.1, Tarikolot, Kec. Citeureup, Kabupaten Bogor, Jawa Barat 16810","RT.2/RW.1, Tarikolot, Kec. Citeureup, Kabupaten Bogor",KALIMANTAN TIMUR,16810.0,Indonesia,81294814443.0,,,-6.5016896,106.8915289,https://maps.google.com/?cid=0x0:0xd9b8f08e53394535,
toko bangunan,Toko Bahan Bangunan,Toko Bangunan Harapan Kita,"Jl. Perancis No.27, Dadap, Kec. Kosambi, Kabupaten Tangerang, Banten 15211","Dadap, Kec. Kosambi, Kabupaten Tangerang",KALIMANTAN TIMUR,15211.0,Indonesia,8192008838.0,,,-6.0907913,106.6990057,https://maps.google.com/?cid=0x0:0x22809d679496b849,
toko bangunan,Toko Bahan Bangunan,Tb Harapan Mulya,"Jl. Nasional 11 No.57, Gadog, Kec. Megamendung, Kabupaten Bogor, Jawa Barat 16720","Gadog, Kec. Megamendung, Kabupaten Bogor",KALIMANTAN TIMUR,16720.0,Indonesia,,,,-6.6535147,106.8651422,https://maps.google.com/?cid=0x0:0x3eafee041de7aca3,
toko bangunan,Toko Perlengkapan Rumah,TB Harapan Jaya,"8VW6+2P9, Jl. Raya Puncak, Gadog, Kec. Megamendung, Kabupaten Bogor, Jawa Barat 16770","Jl. Raya Puncak, Gadog, Kec. Megamendung, Kabupaten Bogor",KALIMANTAN TIMUR,16770.0,Indonesia,,,,-6.6549728,106.8618682,https://maps.google.com/?cid=0x0:0x7c4765230d542210,
toko bangunan,Toko Bahan Bangunan,Harapan Jaya Toko,"Jl. Bugis 55 RT 001 RW 11 Kebon Bawang Tanjung Priok Jakarta Utara DKI Jakarta, RT.1/RW.11, Kb. Bawang, Kec. Tj. Priok, Jkt Utara, Daerah Khusus Ibukota Jakarta 14320","RT.1/RW.11, Kb. Bawang, Kec. Tj. Priok, Jkt Utara",KALIMANTAN TIMUR,14320.0,Indonesia,81574797312.0,,,-6.115855,106.8884101,https://maps.google.com/?cid=0x0:0xa73bdeafc10ec0fb,
toko bangunan,Toko Perlengkapan Rumah,Toko Bangunan Harapan Baru,"MPPJ+W65, Ulak Kerbau Baru, Kec. Tj. Raja, Kabupaten Ogan Ilir, Sumatera Selatan 30862","Ulak Kerbau Baru, Kec. Tj. Raja, Kabupaten Ogan Ilir",KALIMANTAN TIMUR,30862.0,Indonesia,81368170369.0,,,-3.3127299,104.7306213,https://maps.google.com/?cid=0x0:0x7171f954061126ff,
toko bangunan,Toko Bahan Bangunan,Toko Bangunan Harapan Kita,"Jl. Samaun Bakri No.8B, Cimuncang, Kec. Serang, Kota Serang, Banten 42111","Cimuncang, Kec. Serang, Kota Serang",KALIMANTAN TIMUR,42111.0,Indonesia,87809142000.0,,,-6.1080889,106.1667711,https://maps.google.com/?cid=0x0:0x95ab979af225d19d,
toko bangunan,Toko Bahan Bangunan,Toko Bangunan Putra Harapan,"Terondol, Kec. Serang, Kota Serang, Banten 42119","Kec. Serang, Kota Serang",KALIMANTAN TIMUR,42119.0,Indonesia,81808014566.0,,,-6.1020071,106.1783718,https://maps.google.com/?cid=0x0:0xb769070d5a101839,
toko bangunan,Toko Bahan Bangunan,Toko Bangunan Harapan Baru,"Sirnaresmi, Kec. Gn. Guruh, Kabupaten Sukabumi, Jawa Barat 43156","Kec. Gn. Guruh, Kabupaten Sukabumi",KALIMANTAN TIMUR,43156.0,Indonesia,,,,-6.9731644,106.8580742,https://maps.google.com/?cid=0x0:0x355090ec9acd399c,
toko bangunan,Toko Bahan Bangunan,Tb Tanjung 77,"Jl. Pemuda Kranji, RT.005/RW.013, Kranji, Kec. Bekasi Bar., Kota Bks, Jawa Barat 17135","RT.005/RW.013, Kranji, Kec. Bekasi Bar., Kota Bks",KALIMANTAN TIMUR,17135.0,Indonesia,85777883592.0,,,-6.2283519,106.9774859,https://maps.google.com/?cid=0x0:0xea778e09c56e9ab,
toko bangunan,Toko Bahan Bangunan,Toko Bangunan (PADA IDI),"36V3+5FQ, Tanah Grogot, Kec. Tanah Grogot, Kabupaten Paser, Kalimantan Timur 76251","Tanah Grogot, Kec. Tanah Grogot, Kabupaten Paser",KALIMANTAN TIMUR,76251.0,Indonesia,83821475758.0,,,-1.9070386,116.203749,https://maps.google.com/?cid=0x0:0x1d252c2071a2bdc3,
toko bangunan,Toko Bahan Bangunan,Toko Thamrin,"Jl. Tj. - Kuaro, Batu Kajang, Kec. Batu Sopang, Kabupaten Paser, Kalimantan Timur 76252","Batu Kajang, Kec. Batu Sopang, Kabupaten Paser",KALIMANTAN TIMUR,76252.0,Indonesia,85211520009.0,,,-1.821302,115.9130392,https://maps.google.com/?cid=0x0:0x8d8c5a9e4e856e6e,
toko bangunan,Toko Bahan Bangunan,Toko Bumi Harapan Indah,"3QVG+3CW, Sukaraja, Kec. Sepaku, Kabupaten Penajam Paser Utara, Kalimantan Timur 76147","Sukaraja, Kec. Sepaku, Kabupaten Penajam Paser Utara",KALIMANTAN TIMUR,76147.0,Indonesia,,,,-0.9072712,116.7760732,https://maps.google.com/?cid=0x0:0x1a1ec68f08e8022d,
toko bangunan,Toko Perlengkapan Rumah,Toko Bangunan Lisa 2,"35CR+P4W, Jl. Sangkuriman, Tanah Periuk, Kec. Tanah Grogot, Kabupaten Paser, Kalimantan Timur 76251","Jl. Sangkuriman, Tanah Periuk, Kec. Tanah Grogot, Kabupaten Paser",KALIMANTAN TIMUR,76251.0,Indonesia,,,,-1.9281419,116.1903283,https://maps.google.com/?cid=0x0:0x5254c150b94fa31e,
toko bangunan,Toko Bahan Bangunan,Toko Pancar Bangunan 2,"Jl. Sultan Iskandar Muda, Tanah Grogot, Kec. Tanah Grogot, Kabupaten Paser, Kalimantan Timur 76251","Tanah Grogot, Kec. Tanah Grogot, Kabupaten Paser",KALIMANTAN TIMUR,76251.0,Indonesia,85767802761.0,,,-1.9203286,116.1953692,https://maps.google.com/?cid=0x0:0x2cbe7d0c24a40006,
toko bangunan,Toko Bahan Bangunan,Toko Bangunan Azizah Putra,"QVP5+RX7, Batu Ampar, Kec. Balikpapan Utara, Kota Balikpapan, Kalimantan Timur 76136","Batu Ampar, Kec. Balikpapan Utara, Kota Balikpapan",KALIMANTAN TIMUR,76136.0,Indonesia,83165329510.0,,,-1.2129625,116.8599219,https://maps.google.com/?cid=0x0:0xb9f403b2ba6e6d0,
toko bangunan,Toko Bahan Bangunan,Toko bangunan,"Jln sultan hasanudin RT. 13/02. Nomor A.919, Tanah Grogot, Kec. Tanah Grogot, Kabupaten Paser, Kalimantan Timur 76211","Tanah Grogot, Kec. Tanah Grogot, Kabupaten Paser",KALIMANTAN TIMUR,76211.0,Indonesia,85346327521.0,,,-1.9008386,116.1950741,https://maps.google.com/?cid=0x0:0xa6f163f1d471e682,
toko bangunan,Toko Bahan Bangunan,Toko Bangunan RAHMAN,"7R9H+899, Busui, Kec. Batu Sopang, Kabupaten Paser, Kalimantan Timur 76253","Busui, Kec. Batu Sopang, Kabupaten Paser",KALIMANTAN TIMUR,76253.0,Indonesia,85251407670.0,,,-1.731701,115.828494,https://maps.google.com/?cid=0x0:0x993727f72e8ce069,
toko bangunan,Toko Bahan Bangunan,Toko Hadjie Sidie,"Jl. Yos Sudarso, Jone, Kec. Tanah Grogot, Kabupaten Paser, Kalimantan Timur 76251","Jone, Kec. Tanah Grogot, Kabupaten Paser",KALIMANTAN TIMUR,76251.0,Indonesia,,,,-1.9045604,116.2102742,https://maps.google.com/?cid=0x0:0xe10f324df411b2c4,
toko bangunan,Toko Bahan Bangunan,Toko. Material Bangunan TanJung HaRaPan.,"Jl. Ciloa kp No.36, RT.02/RW.07, Ngamprah, Kec. Ngamprah, Kabupaten Bandung Barat, Jawa Barat 40552","RT.02/RW.07, Ngamprah, Kec. Ngamprah, Kabupaten Bandung Barat",KALIMANTAN TIMUR,40552.0,Indonesia,,,,-6.8342721,107.5162259,https://maps.google.com/?cid=0x0:0x83a435bce755144f,
toko bangunan,Toko Bahan Bangunan,TB Sinar Harapan,"Jl. Poltangan Raya No.3, RT.1/RW.4, Tj. Bar., Kec. Jagakarsa, Kota Jakarta Selatan, Daerah Khusus Ibukota Jakarta 12530","RT.1/RW.4, Tj. Bar., Kec. Jagakarsa, Kota Jakarta Selatan",KALIMANTAN TIMUR,12530.0,Indonesia,85166899153.0,,,-6.296469,106.8440872,https://maps.google.com/?cid=0x0:0x2af522390af9c1d8,
toko bangunan,Toko Perlengkapan Rumah,Toko Bangunan Harapan Baru,"MPPJ+W65, Ulak Kerbau Baru, Kec. Tj. Raja, Kabupaten Ogan Ilir, Sumatera Selatan 30862","Ulak Kerbau Baru, Kec. Tj. Raja, Kabupaten Ogan Ilir",KALIMANTAN TIMUR,30862.0,Indonesia,81368170369.0,,,-3.3127299,104.7306213,https://maps.google.com/?cid=0x0:0x7171f954061126ff,
toko bangunan,Toko Bahan Bangunan,Toko Bangunan Harapan Kita,"Jl. Perancis No.27, Dadap, Kec. Kosambi, Kabupaten Tangerang, Banten 15211","Dadap, Kec. Kosambi, Kabupaten Tangerang",KALIMANTAN TIMUR,15211.0,Indonesia,8192008838.0,,,-6.0907913,106.6990057,https://maps.google.com/?cid=0x0:0x22809d679496b849,
toko bangunan,Toko Perlengkapan Rumah,Toko Bangunan *RAHMA*,"36W6+6JM, Jl. Yos Sudarso, Jone, Kec. Tanah Grogot, Kabupaten Paser, Kalimantan Timur 76251","Jl. Yos Sudarso, Jone, Kec. Tanah Grogot, Kabupaten Paser",KALIMANTAN TIMUR,76251.0,Indonesia,82157472870.0,,,-1.9044086,116.2115516,https://maps.google.com/?cid=0x0:0x2c0f49f5303a1984,
toko bangunan,Toko Bahan Bangunan,Toko Bangunan (PADA IDI),"36V3+5FQ, Tanah Grogot, Kec. Tanah Grogot, Kabupaten Paser, Kalimantan Timur 76251","Tanah Grogot, Kec. Tanah Grogot, Kabupaten Paser",KALIMANTAN TIMUR,76251.0,Indonesia,83821475758.0,,,-1.9070386,116.203749,https://maps.google.com/?cid=0x0:0x1d252c2071a2bdc3,
toko bangunan,Toko Bahan Bangunan,Toko Bumi Harapan Indah,"3QVG+3CW, Sukaraja, Kec. Sepaku, Kabupaten Penajam Paser Utara, Kalimantan Timur 76147","Sukaraja, Kec. Sepaku, Kabupaten Penajam Paser Utara",KALIMANTAN TIMUR,76147.0,Indonesia,,,,-0.9072712,116.7760732,https://maps.google.com/?cid=0x0:0x1a1ec68f08e8022d,
toko bangunan,Toko Bahan Bangunan,Toko Pancar Bangunan 2,"Jl. Sultan Iskandar Muda, Tanah Grogot, Kec. Tanah Grogot, Kabupaten Paser, Kalimantan Timur 76251","Tanah Grogot, Kec. Tanah Grogot, Kabupaten Paser",KALIMANTAN TIMUR,76251.0,Indonesia,85767802761.0,,,-1.9203286,116.1953692,https://maps.google.com/?cid=0x0:0x2cbe7d0c24a40006,
toko bangunan,Toko Perlengkapan Rumah,TOKO BANGUNAN SERI JAYA,"Jl. MT. Haryono, Tanah Grogot, Kec. Tanah Grogot, Kabupaten Paser, Kalimantan Timur 76251","Tanah Grogot, Kec. Tanah Grogot, Kabupaten Paser",KALIMANTAN TIMUR,76251.0,Indonesia,85777883592.0,,,-1.9045655,116.2025189,https://maps.google.com/?cid=0x0:0xf42526f27a6e0f29,
toko bangunan,Toko Bahan Bangunan,Toko Maulida Bangunan,"35GX+XJP, Tanah Grogot, Kec. Tanah Grogot, Kabupaten Paser, Kalimantan Timur 76251","Tanah Grogot, Kec. Tanah Grogot, Kabupaten Paser",KALIMANTAN TIMUR,76251.0,Indonesia,81276932276.0,,,-1.9225572,116.199095,https://maps.google.com/?cid=0x0:0x7b440cc295d79b34,
toko bangunan,Toko Bahan Bangunan,Toko bangunan,"Jln sultan hasanudin RT. 13/02. Nomor A.919, Tanah Grogot, Kec. Tanah Grogot, Kabupaten Paser, Kalimantan Timur 76211","Tanah Grogot, Kec. Tanah Grogot, Kabupaten Paser",KALIMANTAN TIMUR,76211.0,Indonesia,85346327521.0,,,-1.9008386,116.1950741,https://maps.google.com/?cid=0x0:0xa6f163f1d471e682,
toko bangunan,Toko Bahan Bangunan,Toko Cahaya Harapan,"Jl. Langgar No.53 4, RT.2/RW.6, Tj. Bar., Kec. Jagakarsa, Kota Jakarta Selatan, Daerah Khusus Ibukota Jakarta 12530","RT.2/RW.6, Tj. Bar., Kec. Jagakarsa, Kota Jakarta Selatan",KALIMANTAN TIMUR,12530.0,Indonesia,,,,-6.3102398,106.8468403,https://maps.google.com/?cid=0x0:0xc3ddc8847750624e,
toko bangunan,Toko Bahan Bangunan,Toko. Material Bangunan TanJung HaRaPan.,"Jl. Ciloa kp No.36, RT.02/RW.07, Ngamprah, Kec. Ngamprah, Kabupaten Bandung Barat, Jawa Barat 40552","RT.02/RW.07, Ngamprah, Kec. Ngamprah, Kabupaten Bandung Barat",KALIMANTAN TIMUR,40552.0,Indonesia,,,,-6.8342721,107.5162259,https://maps.google.com/?cid=0x0:0x83a435bce755144f,
toko bangunan,Toko Bahan Bangunan,TB. Harapan Maju,"Jl. Tenggiri No.58p 2, RT.2/RW.8, Tj. Priok, Kec. Tj. Priok, Jkt Utara, Daerah Khusus Ibukota Jakarta 14310","RT.2/RW.8, Tj. Priok, Kec. Tj. Priok, Jkt Utara",KALIMANTAN TIMUR,14310.0,Indonesia,81932225557.0,,,-6.113823,106.880222,https://maps.google.com/?cid=0x0:0xdc4b2af920e790f6,
toko bangunan,Toko Bahan Bangunan,TB Sinar Harapan,"Jl. Poltangan Raya No.3, RT.1/RW.4, Tj. Bar., Kec. Jagakarsa, Kota Jakarta Selatan, Daerah Khusus Ibukota Jakarta 12530","RT.1/RW.4, Tj. Bar., Kec. Jagakarsa, Kota Jakarta Selatan",KALIMANTAN TIMUR,12530.0,Indonesia,85166899153.0,,,-6.296469,106.8440872,https://maps.google.com/?cid=0x0:0x2af522390af9c1d8,
toko bangunan,Toko Bahan Bangunan,Toko Harapan 2,"Jl. Manunggal No No.2, Tajurhalang, Tajur Halang, Bogor Regency, West Java 16320","Tajurhalang, Tajur Halang, Bogor Regency",KALIMANTAN TIMUR,16320.0,Indonesia,,,,-6.4750643,106.7578901,https://maps.google.com/?cid=0x0:0xb0b7f629a50dfff2,
toko bangunan,Toko Bahan Bangunan,Toko Harapan Baru (Bahan Bangunan  Alat Listrik),"Jl. Raya Kayu Tinggi No 04, RT.3/RW.9, Cakung Tim., Kec. Cakung, Kota Jakarta Timur, Daerah Khusus Ibukota Jakarta 13910","RT.3/RW.9, Cakung Tim., Kec. Cakung, Kota Jakarta Timur",KALIMANTAN TIMUR,13910.0,Indonesia,82164640155.0,,,-6.1798204,106.9480496,https://maps.google.com/?cid=0x0:0x818dd92a69df275c,
toko bangunan,Toko Bahan Bangunan,TB.Harapan Kita,"Jl. Moh. Kahfi 1 No.9 6, RT.6/RW.5, Ciganjur, Kec. Jagakarsa, Kota Jakarta Selatan, Daerah Khusus Ibukota Jakarta 12620","RT.6/RW.5, Ciganjur, Kec. Jagakarsa, Kota Jakarta Selatan",KALIMANTAN TIMUR,12620.0,Indonesia,81296232882.0,,,-6.3413442,106.8045361,https://maps.google.com/?cid=0x0:0x33a70b7355a4aa3c,
toko bangunan,Toko Bahan Bangunan,Tb Sinhar Harapan Tengsaw,"Jl. Raya Tajur No.14 2, RT.2/RW.1, Tarikolot, Kec. Citeureup, Kabupaten Bogor, Jawa Barat 16810","RT.2/RW.1, Tarikolot, Kec. Citeureup, Kabupaten Bogor",KALIMANTAN TIMUR,16810.0,Indonesia,81294814443.0,,,-6.5016896,106.8915289,https://maps.google.com/?cid=0x0:0xd9b8f08e53394535,
toko bangunan,Toko Bahan Bangunan,Toko Bangunan Fajar Harapan,"Jl. Cipinang Muara Raya No.3B 6, RT.6/RW.3, Cipinang Muara, Kecamatan Jatinegara, Kota Jakarta Timur, Daerah Khusus Ibukota Jakarta 13420","RT.6/RW.3, Cipinang Muara, Kecamatan Jatinegara, Kota Jakarta Timur",KALIMANTAN TIMUR,13420.0,Indonesia,83160717851.0,,,-6.2242838,106.8913432,https://maps.google.com/?cid=0x0:0x25fcadc983b5906e,
toko bangunan,Toko Bahan Bangunan,Toko Bangunan Harapan Kita,"Jl. Ir.Sukarno Jl. Kongsi Baru, Paramount, Kec. Serpong, Kabupaten Tangerang, Banten 15822","Paramount, Kec. Serpong, Kabupaten Tangerang",KALIMANTAN TIMUR,15822.0,Indonesia,85166901385.0,,,-6.2625006,106.6304972,https://maps.google.com/?cid=0x0:0x441cb92d32cd9a88,
toko bangunan,Toko Bahan Bangunan,Toko Bangun Harapan Baru,"Jl. Lap. Tembak No.8, RT.4/RW.10, Klp. Dua Wetan, Kec. Ciracas, Kota Jakarta Timur, Daerah Khusus Ibukota Jakarta 13730","RT.4/RW.10, Klp. Dua Wetan, Kec. Ciracas, Kota Jakarta Timur",KALIMANTAN TIMUR,13730.0,Indonesia,2193638246.0,,,-6.3515786,106.8823354,https://maps.google.com/?cid=0x0:0x9adf8ce6b01700af,
toko bangunan,Toko Perlengkapan Rumah,TB Harapan Sentosa,"GQXP+548, Ragajaya, Kecamatan Bojonggede, Kabupaten Bogor, Jawa Barat","Kabupaten Bogor, Jawa Barat",KALIMANTAN TIMUR,,Indonesia,,,,-6.4520998,106.785337,https://maps.google.com/?cid=0x0:0xee48c63f3f6f3e7b,
toko bangunan,Toko Perlengkapan Rumah,Toko Bangunan Harapan Baru,"MPPJ+W65, Ulak Kerbau Baru, Kec. Tj. Raja, Kabupaten Ogan Ilir, Sumatera Selatan 30862","Ulak Kerbau Baru, Kec. Tj. Raja, Kabupaten Ogan Ilir",KALIMANTAN TIMUR,30862.0,Indonesia,81368170369.0,,,-3.3127299,104.7306213,https://maps.google.com/?cid=0x0:0x7171f954061126ff,
toko bangunan,Toko Bahan Bangunan,Toko Bahan Bangunan Harapan Jaya,"Kantor Desa, Jl. Abdul Fatah No.Samping, Tapos I, Kec. Tenjolaya, Kabupaten Bogor, Jawa Barat 16370","Jl. Abdul Fatah No.Samping, Tapos I, Kec. Tenjolaya, Kabupaten Bogor",KALIMANTAN TIMUR,16370.0,Indonesia,85211461192.0,,,-6.6616372,106.6997557,https://maps.google.com/?cid=0x0:0x210766dcd8d938f3,
toko bangunan,Toko Bahan Bangunan,Toko Bangunan Harapan Kita,"Jl. Perancis No.27, Dadap, Kec. Kosambi, Kabupaten Tangerang, Banten 15211","Dadap, Kec. Kosambi, Kabupaten Tangerang",KALIMANTAN TIMUR,15211.0,Indonesia,8192008838.0,,,-6.0907913,106.6990057,https://maps.google.com/?cid=0x0:0x22809d679496b849,
toko bangunan,Toko Bahan Bangunan,TOKO Tanjung Jaya Bangunan,"Jl. HOS Cokroaminoto No.4, RT.003/RW.004, Larangan Utara, Kec. Larangan, Kota Tangerang, Banten 15154","RT.003/RW.004, Larangan Utara, Kec. Larangan, Kota Tangerang",KALIMANTAN TIMUR,15154.0,Indonesia,87846875473.0,,,-6.2318881,106.7287063,https://maps.google.com/?cid=0x0:0xae286c2a72d3f1ae,
toko bangunan,Toko Bahan Bangunan,Harapan Jaya Toko,"Jl. Bugis 55 RT 001 RW 11 Kebon Bawang Tanjung Priok Jakarta Utara DKI Jakarta, RT.1/RW.11, Kb. Bawang, Kec. Tj. Priok, Jkt Utara, Daerah Khusus Ibukota Jakarta 14320","RT.1/RW.11, Kb. Bawang, Kec. Tj. Priok, Jkt Utara",KALIMANTAN TIMUR,14320.0,Indonesia,81574797312.0,,,-6.115855,106.8884101,https://maps.google.com/?cid=0x0:0xa73bdeafc10ec0fb,
toko bangunan,Toko Bahan Bangunan,Tb. Harapan Jaya,"CV6Q+C3V, Jl. Raya Bojong Koneng, Bojong Koneng, Kec. Babakan Madang, Kabupaten Bogor, Jawa Barat 16810","Jl. Raya Bojong Koneng, Bojong Koneng, Kec. Babakan Madang, Kabupaten Bogor",KALIMANTAN TIMUR,16810.0,Indonesia,,,,-6.5888939,106.8876844,https://maps.google.com/?cid=0x0:0xd3b9e727b9d279ec,
toko bangunan,Toko Perlengkapan Rumah,TB Harapan Jaya,"8VW6+2P9, Jl. Raya Puncak, Gadog, Kec. Megamendung, Kabupaten Bogor, Jawa Barat 16770","Jl. Raya Puncak, Gadog, Kec. Megamendung, Kabupaten Bogor",KALIMANTAN TIMUR,16770.0,Indonesia,,,,-6.6549728,106.8618682,https://maps.google.com/?cid=0x0:0x7c4765230d542210,
toko bangunan,Toko Bahan Bangunan,Toko Bangunan Harapan Jaya,"no 35 01/02 ,tangerang selatan, serpong Jalan Fani Afandi tangerang, Pd. Jagung Tim., Kec. Serpong Utara, Kota Tangerang Selatan, Banten 15310","serpong Jalan Fani Afandi tangerang, Pd. Jagung Tim., Kec. Serpong Utara, Kota Tangerang Selatan",KALIMANTAN TIMUR,15310.0,Indonesia,87882288860.0,,,-6.250178,106.6757373,https://maps.google.com/?cid=0x0:0x30a8d76166ef00dd,
toko bangunan,Toko Bahan Bangunan,Toko Thamrin,"Jl. Tj. - Kuaro, Batu Kajang, Kec. Batu Sopang, Kabupaten Paser, Kalimantan Timur 76252","Batu Kajang, Kec. Batu Sopang, Kabupaten Paser",KALIMANTAN TIMUR,76252.0,Indonesia,85211520009.0,,,-1.821302,115.9130392,https://maps.google.com/?cid=0x0:0x8d8c5a9e4e856e6e,
toko bangunan,Toko Perlengkapan Rumah,TOKO BANGUNAN SERI JAYA,"Jl. MT. Haryono, Tanah Grogot, Kec. Tanah Grogot, Kabupaten Paser, Kalimantan Timur 76251","Tanah Grogot, Kec. Tanah Grogot, Kabupaten Paser",KALIMANTAN TIMUR,76251.0,Indonesia,85777883592.0,,,-1.9045655,116.2025189,https://maps.google.com/?cid=0x0:0xf42526f27a6e0f29,
toko bangunan,Toko Bahan Bangunan,Toko Hadjie Sidie,"Jl. Yos Sudarso, Jone, Kec. Tanah Grogot, Kabupaten Paser, Kalimantan Timur 76251","Jone, Kec. Tanah Grogot, Kabupaten Paser",KALIMANTAN TIMUR,76251.0,Indonesia,,,,-1.9045604,116.2102742,https://maps.google.com/?cid=0x0:0xe10f324df411b2c4,
toko bangunan,Toko Bahan Bangunan,Toko Cahaya Harapan,"Jl. Langgar No.53 4, RT.2/RW.6, Tj. Bar., Kec. Jagakarsa, Kota Jakarta Selatan, Daerah Khusus Ibukota Jakarta 12530","RT.2/RW.6, Tj. Bar., Kec. Jagakarsa, Kota Jakarta Selatan",KALIMANTAN TIMUR,12530.0,Indonesia,,,,-6.3102398,106.8468403,https://maps.google.com/?cid=0x0:0xc3ddc8847750624e,
toko bangunan,Toko Bahan Bangunan,Toko. Material Bangunan TanJung HaRaPan.,"Jl. Ciloa kp No.36, RT.02/RW.07, Ngamprah, Kec. Ngamprah, Kabupaten Bandung Barat, Jawa Barat 40552","RT.02/RW.07, Ngamprah, Kec. Ngamprah, Kabupaten Bandung Barat",KALIMANTAN TIMUR,40552.0,Indonesia,,,,-6.8342721,107.5162259,https://maps.google.com/?cid=0x0:0x83a435bce755144f,
toko bangunan,Toko Bahan Bangunan,TB Sinar Harapan,"Jl. Poltangan Raya No.3, RT.1/RW.4, Tj. Bar., Kec. Jagakarsa, Kota Jakarta Selatan, Daerah Khusus Ibukota Jakarta 12530","RT.1/RW.4, Tj. Bar., Kec. Jagakarsa, Kota Jakarta Selatan",KALIMANTAN TIMUR,12530.0,Indonesia,85166899153.0,,,-6.296469,106.8440872,https://maps.google.com/?cid=0x0:0x2af522390af9c1d8,
toko bangunan,Toko Perlengkapan Rumah,TB Harapan Jaya,"8VW6+2P9, Jl. Raya Puncak, Gadog, Kec. Megamendung, Kabupaten Bogor, Jawa Barat 16770","Jl. Raya Puncak, Gadog, Kec. Megamendung, Kabupaten Bogor",KALIMANTAN TIMUR,16770.0,Indonesia,,,,-6.6549728,106.8618682,https://maps.google.com/?cid=0x0:0x7c4765230d542210,
toko bangunan,Toko Bahan Bangunan,TOKO Tanjung Jaya Bangunan,"Jl. HOS Cokroaminoto No.4, RT.003/RW.004, Larangan Utara, Kec. Larangan, Kota Tangerang, Banten 15154","RT.003/RW.004, Larangan Utara, Kec. Larangan, Kota Tangerang",KALIMANTAN TIMUR,15154.0,Indonesia,87846875473.0,,,-6.2318881,106.7287063,https://maps.google.com/?cid=0x0:0xae286c2a72d3f1ae,
toko bangunan,Toko Bahan Bangunan,Toko Bangunan Harapan Kita,"Jl. Perancis No.27, Dadap, Kec. Kosambi, Kabupaten Tangerang, Banten 15211","Dadap, Kec. Kosambi, Kabupaten Tangerang",KALIMANTAN TIMUR,15211.0,Indonesia,8192008838.0,,,-6.0907913,106.6990057,https://maps.google.com/?cid=0x0:0x22809d679496b849,
toko bangunan,Toko Bahan Bangunan,Harapan Jaya Toko,"Jl. Bugis 55 RT 001 RW 11 Kebon Bawang Tanjung Priok Jakarta Utara DKI Jakarta, RT.1/RW.11, Kb. Bawang, Kec. Tj. Priok, Jkt Utara, Daerah Khusus Ibukota Jakarta 14320","RT.1/RW.11, Kb. Bawang, Kec. Tj. Priok, Jkt Utara",KALIMANTAN TIMUR,14320.0,Indonesia,81574797312.0,,,-6.115855,106.8884101,https://maps.google.com/?cid=0x0:0xa73bdeafc10ec0fb,
toko bangunan,,Toko Bangunan Harapan Baru,"Kerinci Kiri, Kec. Kerinci Kanan, Kabupaten Siak, Riau","Kabupaten Siak, Riau",KALIMANTAN TIMUR,,Indonesia,,,,0.4340429,101.6733698,https://maps.google.com/?cid=0x0:0x2814d93c1bf3fe60,
toko bangunan,Toko Bahan Bangunan,Tb Tanjung 77,"Jl. Pemuda Kranji, RT.005/RW.013, Kranji, Kec. Bekasi Bar., Kota Bks, Jawa Barat 17135","RT.005/RW.013, Kranji, Kec. Bekasi Bar., Kota Bks",KALIMANTAN TIMUR,17135.0,Indonesia,85777883592.0,,,-6.2283519,106.9774859,https://maps.google.com/?cid=0x0:0xea778e09c56e9ab,
toko bangunan,Toko Bahan Bangunan,Toko Bangunan Harapan Baru,"Karya Indah, Kec. Tapung, Kabupaten Kampar, Riau","Kabupaten Kampar, Riau",KALIMANTAN TIMUR,,Indonesia,,,,0.4903044,101.3397895,https://maps.google.com/?cid=0x0:0x4a44abf3180aa52e,
toko bangunan,Toko Bahan Bangunan,Toko Bangunan Harapan Baru,"Sirnaresmi, Kec. Gn. Guruh, Kabupaten Sukabumi, Jawa Barat 43156","Kec. Gn. Guruh, Kabupaten Sukabumi",KALIMANTAN TIMUR,43156.0,Indonesia,,,,-6.9731644,106.8580742,https://maps.google.com/?cid=0x0:0x355090ec9acd399c,
toko bangunan,toko bangunan,Tj. Harapan,"Kec. Sebulu, Kabupaten Kutai Kartanegara, Kalimantan Timur","Kabupaten Kutai Kartanegara, Kalimantan Timur",KALIMANTAN TIMUR,,Indonesia,,,,-0.3259418,116.8792553,https://maps.google.com/?cid=0x0:0xa1ea94c666ed36ec,
toko bangunan,toko bangunan,Kec. Tj. Harapan,"Kabupaten Paser, Kalimantan Timur","Kabupaten Paser, Kalimantan Timur",KALIMANTAN TIMUR,,Indonesia,,,,-2.3314575,116.4464809,https://maps.google.com/?cid=0x0:0xc713b1fba97cb40c,
toko bangunan,Toko Bahan Bangunan,Toko Cahaya Harapan,"Jl. Langgar No.53 4, RT.2/RW.6, Tj. Bar., Kec. Jagakarsa, Kota Jakarta Selatan, Daerah Khusus Ibukota Jakarta 12530","RT.2/RW.6, Tj. Bar., Kec. Jagakarsa, Kota Jakarta Selatan",KALIMANTAN TIMUR,12530.0,Indonesia,,,,-6.3102398,106.8468403,https://maps.google.com/?cid=0x0:0xc3ddc8847750624e,
toko bangunan,Toko Bahan Bangunan,TB. Harapan Maju,"Jl. Tenggiri No.58p 2, RT.2/RW.8, Tj. Priok, Kec. Tj. Priok, Jkt Utara, Daerah Khusus Ibukota Jakarta 14310","RT.2/RW.8, Tj. Priok, Kec. Tj. Priok, Jkt Utara",KALIMANTAN TIMUR,14310.0,Indonesia,81932225557.0,,,-6.113823,106.880222,https://maps.google.com/?cid=0x0:0xdc4b2af920e790f6,
toko bangunan,Toko Bahan Bangunan,TB Sinar Harapan,"Jl. Poltangan Raya No.3, RT.1/RW.4, Tj. Bar., Kec. Jagakarsa, Kota Jakarta Selatan, Daerah Khusus Ibukota Jakarta 12530","RT.1/RW.4, Tj. Bar., Kec. Jagakarsa, Kota Jakarta Selatan",KALIMANTAN TIMUR,12530.0,Indonesia,85166899153.0,,,-6.296469,106.8440872,https://maps.google.com/?cid=0x0:0x2af522390af9c1d8,
toko bangunan,Toko Bahan Bangunan,Toko Harapan 2,"Jl. Manunggal No No.2, Tajurhalang, Tajur Halang, Bogor Regency, West Java 16320","Tajurhalang, Tajur Halang, Bogor Regency",KALIMANTAN TIMUR,16320.0,Indonesia,,,,-6.4750643,106.7578901,https://maps.google.com/?cid=0x0:0xb0b7f629a50dfff2,
toko bangunan,Toko Bahan Bangunan,TB.Harapan Kita,"Jl. Moh. Kahfi 1 No.9 6, RT.6/RW.5, Ciganjur, Kec. Jagakarsa, Kota Jakarta Selatan, Daerah Khusus Ibukota Jakarta 12620","RT.6/RW.5, Ciganjur, Kec. Jagakarsa, Kota Jakarta Selatan",KALIMANTAN TIMUR,12620.0,Indonesia,81296232882.0,,,-6.3413442,106.8045361,https://maps.google.com/?cid=0x0:0x33a70b7355a4aa3c,
toko bangunan,Toko Bahan Bangunan,Toko Harapan Baru (Bahan Bangunan  Alat Listrik),"Jl. Raya Kayu Tinggi No 04, RT.3/RW.9, Cakung Tim., Kec. Cakung, Kota Jakarta Timur, Daerah Khusus Ibukota Jakarta 13910","RT.3/RW.9, Cakung Tim., Kec. Cakung, Kota Jakarta Timur",KALIMANTAN TIMUR,13910.0,Indonesia,82164640155.0,,,-6.1798204,106.9480496,https://maps.google.com/?cid=0x0:0x818dd92a69df275c,
toko bangunan,Toko Bahan Bangunan,Toko Bangunan Harapan Kita,"Jl. Ir.Sukarno Jl. Kongsi Baru, Paramount, Kec. Serpong, Kabupaten Tangerang, Banten 15822","Paramount, Kec. Serpong, Kabupaten Tangerang",KALIMANTAN TIMUR,15822.0,Indonesia,85166901385.0,,,-6.2625006,106.6304972,https://maps.google.com/?cid=0x0:0x441cb92d32cd9a88,
toko bangunan,Toko Bahan Bangunan,Toko Bangunan Fajar Harapan,"Jl. Cipinang Muara Raya No.3B 6, RT.6/RW.3, Cipinang Muara, Kecamatan Jatinegara, Kota Jakarta Timur, Daerah Khusus Ibukota Jakarta 13420","RT.6/RW.3, Cipinang Muara, Kecamatan Jatinegara, Kota Jakarta Timur",KALIMANTAN TIMUR,13420.0,Indonesia,83160717851.0,,,-6.2242838,106.8913432,https://maps.google.com/?cid=0x0:0x25fcadc983b5906e,
toko bangunan,Toko Bahan Bangunan,Tb Sinhar Harapan Tengsaw,"Jl. Raya Tajur No.14 2, RT.2/RW.1, Tarikolot, Kec. Citeureup, Kabupaten Bogor, Jawa Barat 16810","RT.2/RW.1, Tarikolot, Kec. Citeureup, Kabupaten Bogor",KALIMANTAN TIMUR,16810.0,Indonesia,81294814443.0,,,-6.5016896,106.8915289,https://maps.google.com/?cid=0x0:0xd9b8f08e53394535,
toko bangunan,Toko Perlengkapan Rumah,Toko Bangunan Harapan Baru,"MPPJ+W65, Ulak Kerbau Baru, Kec. Tj. Raja, Kabupaten Ogan Ilir, Sumatera Selatan 30862","Ulak Kerbau Baru, Kec. Tj. Raja, Kabupaten Ogan Ilir",KALIMANTAN TIMUR,30862.0,Indonesia,81368170369.0,,,-3.3127299,104.7306213,https://maps.google.com/?cid=0x0:0x7171f954061126ff,
toko bangunan,Toko Bahan Bangunan,Toko Bangunan Harapan Kita,"Jl. Perancis No.27, Dadap, Kec. Kosambi, Kabupaten Tangerang, Banten 15211","Dadap, Kec. Kosambi, Kabupaten Tangerang",KALIMANTAN TIMUR,15211.0,Indonesia,8192008838.0,,,-6.0907913,106.6990057,https://maps.google.com/?cid=0x0:0x22809d679496b849,
toko bangunan,Toko Bahan Bangunan,Toko Bangun Harapan Baru,"Jl. Lap. Tembak No.8, RT.4/RW.10, Klp. Dua Wetan, Kec. Ciracas, Kota Jakarta Timur, Daerah Khusus Ibukota Jakarta 13730","RT.4/RW.10, Klp. Dua Wetan, Kec. Ciracas, Kota Jakarta Timur",KALIMANTAN TIMUR,13730.0,Indonesia,2193638246.0,,,-6.3515786,106.8823354,https://maps.google.com/?cid=0x0:0x9adf8ce6b01700af,
toko bangunan,Toko Perlengkapan Rumah,TB Harapan Sentosa,"GQXP+548, Ragajaya, Kecamatan Bojonggede, Kabupaten Bogor, Jawa Barat","Kabupaten Bogor, Jawa Barat",KALIMANTAN TIMUR,,Indonesia,,,,-6.4520998,106.785337,https://maps.google.com/?cid=0x0:0xee48c63f3f6f3e7b,
toko bangunan,Toko Bahan Bangunan,Toko Bahan Bangunan Harapan Jaya,"Kantor Desa, Jl. Abdul Fatah No.Samping, Tapos I, Kec. Tenjolaya, Kabupaten Bogor, Jawa Barat 16370","Jl. Abdul Fatah No.Samping, Tapos I, Kec. Tenjolaya, Kabupaten Bogor",KALIMANTAN TIMUR,16370.0,Indonesia,85211461192.0,,,-6.6616372,106.6997557,https://maps.google.com/?cid=0x0:0x210766dcd8d938f3,
toko bangunan,Toko Bahan Bangunan,Tb. Harapan Jaya,"CV6Q+C3V, Jl. Raya Bojong Koneng, Bojong Koneng, Kec. Babakan Madang, Kabupaten Bogor, Jawa Barat 16810","Jl. Raya Bojong Koneng, Bojong Koneng, Kec. Babakan Madang, Kabupaten Bogor",KALIMANTAN TIMUR,16810.0,Indonesia,,,,-6.5888939,106.8876844,https://maps.google.com/?cid=0x0:0xd3b9e727b9d279ec,
toko bangunan,Toko Bahan Bangunan,TOKO Tanjung Jaya Bangunan,"Jl. HOS Cokroaminoto No.4, RT.003/RW.004, Larangan Utara, Kec. Larangan, Kota Tangerang, Banten 15154","RT.003/RW.004, Larangan Utara, Kec. Larangan, Kota Tangerang",KALIMANTAN TIMUR,15154.0,Indonesia,87846875473.0,,,-6.2318881,106.7287063,https://maps.google.com/?cid=0x0:0xae286c2a72d3f1ae,
toko bangunan,Toko Bahan Bangunan,TB. Mandiri Harapan Sukses,"Jl. Gn. Pancar Kp.Sirung No.32, bungur, Kec. Babakan Madang, Kabupaten Bogor, Jawa Barat 16811","bungur, Kec. Babakan Madang, Kabupaten Bogor",KALIMANTAN TIMUR,16811.0,Indonesia,82186748825.0,,,-6.5678757,106.8698024,https://maps.google.com/?cid=0x0:0x48ca2e0bd4ceb5ec,
toko bangunan,Toko Bahan Bangunan,Harapan Jaya Toko,"Jl. Bugis 55 RT 001 RW 11 Kebon Bawang Tanjung Priok Jakarta Utara DKI Jakarta, RT.1/RW.11, Kb. Bawang, Kec. Tj. Priok, Jkt Utara, Daerah Khusus Ibukota Jakarta 14320","RT.1/RW.11, Kb. Bawang, Kec. Tj. Priok, Jkt Utara",KALIMANTAN TIMUR,14320.0,Indonesia,81574797312.0,,,-6.115855,106.8884101,https://maps.google.com/?cid=0x0:0xa73bdeafc10ec0fb,
toko bangunan,Toko Bahan Bangunan,Harapan Jaya I,"Jl. Raya Condet No.15A 003, RT.15/RW.3, Batu Ampar, Kramat Jati, East Jakarta City, Jakarta 13520","RT.15/RW.3, Batu Ampar, Kramat Jati, East Jakarta City",KALIMANTAN TIMUR,13520.0,Indonesia,817217890.0,,,-6.2781553,106.8550535,https://maps.google.com/?cid=0x0:0x11dc77d51d8f8213,
toko bangunan,Toko Bahan Bangunan,Toko Thamrin,"Jl. Tj. - Kuaro, Batu Kajang, Kec. Batu Sopang, Kabupaten Paser, Kalimantan Timur 76252","Batu Kajang, Kec. Batu Sopang, Kabupaten Paser",KALIMANTAN TIMUR,76252.0,Indonesia,85211520009.0,,,-1.821302,115.9130392,https://maps.google.com/?cid=0x0:0x8d8c5a9e4e856e6e,
toko bangunan,Toko Bahan Bangunan,Toko. Material Bangunan TanJung HaRaPan.,"Jl. Ciloa kp No.36, RT.02/RW.07, Ngamprah, Kec. Ngamprah, Kabupaten Bandung Barat, Jawa Barat 40552","RT.02/RW.07, Ngamprah, Kec. Ngamprah, Kabupaten Bandung Barat",KALIMANTAN TIMUR,40552.0,Indonesia,,,,-6.8342721,107.5162259,https://maps.google.com/?cid=0x0:0x83a435bce755144f,
toko bangunan,Toko Bahan Bangunan,TB. Harapan Maju,"Jl. Tenggiri No.58p 2, RT.2/RW.8, Tj. Priok, Kec. Tj. Priok, Jkt Utara, Daerah Khusus Ibukota Jakarta 14310","RT.2/RW.8, Tj. Priok, Kec. Tj. Priok, Jkt Utara",KALIMANTAN TIMUR,14310.0,Indonesia,81932225557.0,,,-6.113823,106.880222,https://maps.google.com/?cid=0x0:0xdc4b2af920e790f6,
toko bangunan,Toko Bahan Bangunan,Toko Harapan 2,"Jl. Manunggal No No.2, Tajurhalang, Tajur Halang, Bogor Regency, West Java 16320","Tajurhalang, Tajur Halang, Bogor Regency",KALIMANTAN TIMUR,16320.0,Indonesia,,,,-6.4750643,106.7578901,https://maps.google.com/?cid=0x0:0xb0b7f629a50dfff2,
toko bangunan,Toko Bahan Bangunan,TB Sinar Harapan,"Jl. Poltangan Raya No.3, RT.1/RW.4, Tj. Bar., Kec. Jagakarsa, Kota Jakarta Selatan, Daerah Khusus Ibukota Jakarta 12530","RT.1/RW.4, Tj. Bar., Kec. Jagakarsa, Kota Jakarta Selatan",KALIMANTAN TIMUR,12530.0,Indonesia,85166899153.0,,,-6.296469,106.8440872,https://maps.google.com/?cid=0x0:0x2af522390af9c1d8,
toko bangunan,Toko Bahan Bangunan,Toko Bangunan Harapan Kita,"Jl. Ir.Sukarno Jl. Kongsi Baru, Paramount, Kec. Serpong, Kabupaten Tangerang, Banten 15822","Paramount, Kec. Serpong, Kabupaten Tangerang",KALIMANTAN TIMUR,15822.0,Indonesia,85166901385.0,,,-6.2625006,106.6304972,https://maps.google.com/?cid=0x0:0x441cb92d32cd9a88,
toko bangunan,Toko Bahan Bangunan,TOKO Tanjung Jaya Bangunan,"Jl. HOS Cokroaminoto No.4, RT.003/RW.004, Larangan Utara, Kec. Larangan, Kota Tangerang, Banten 15154","RT.003/RW.004, Larangan Utara, Kec. Larangan, Kota Tangerang",KALIMANTAN TIMUR,15154.0,Indonesia,87846875473.0,,,-6.2318881,106.7287063,https://maps.google.com/?cid=0x0:0xae286c2a72d3f1ae,
toko bangunan,Toko Bahan Bangunan,Toko Bangunan Harapan Kita,"Jl. Perancis No.27, Dadap, Kec. Kosambi, Kabupaten Tangerang, Banten 15211","Dadap, Kec. Kosambi, Kabupaten Tangerang",KALIMANTAN TIMUR,15211.0,Indonesia,8192008838.0,,,-6.0907913,106.6990057,https://maps.google.com/?cid=0x0:0x22809d679496b849,
toko bangunan,Toko Bahan Bangunan,Tb Sinhar Harapan Tengsaw,"Jl. Raya Tajur No.14 2, RT.2/RW.1, Tarikolot, Kec. Citeureup, Kabupaten Bogor, Jawa Barat 16810","RT.2/RW.1, Tarikolot, Kec. Citeureup, Kabupaten Bogor",KALIMANTAN TIMUR,16810.0,Indonesia,81294814443.0,,,-6.5016896,106.8915289,https://maps.google.com/?cid=0x0:0xd9b8f08e53394535,
toko bangunan,Toko Bahan Bangunan,Toko Bangun Harapan Baru,"Jl. Lap. Tembak No.8, RT.4/RW.10, Klp. Dua Wetan, Kec. Ciracas, Kota Jakarta Timur, Daerah Khusus Ibukota Jakarta 13730","RT.4/RW.10, Klp. Dua Wetan, Kec. Ciracas, Kota Jakarta Timur",KALIMANTAN TIMUR,13730.0,Indonesia,2193638246.0,,,-6.3515786,106.8823354,https://maps.google.com/?cid=0x0:0x9adf8ce6b01700af,
toko bangunan,Toko Perlengkapan Rumah,Toko Bangunan Harapan Baru,"MPPJ+W65, Ulak Kerbau Baru, Kec. Tj. Raja, Kabupaten Ogan Ilir, Sumatera Selatan 30862","Ulak Kerbau Baru, Kec. Tj. Raja, Kabupaten Ogan Ilir",KALIMANTAN TIMUR,30862.0,Indonesia,81368170369.0,,,-3.3127299,104.7306213,https://maps.google.com/?cid=0x0:0x7171f954061126ff,
toko bangunan,Toko Bahan Bangunan,Tb. Harapan Jaya,"CV6Q+C3V, Jl. Raya Bojong Koneng, Bojong Koneng, Kec. Babakan Madang, Kabupaten Bogor, Jawa Barat 16810","Jl. Raya Bojong Koneng, Bojong Koneng, Kec. Babakan Madang, Kabupaten Bogor",KALIMANTAN TIMUR,16810.0,Indonesia,,,,-6.5888939,106.8876844,https://maps.google.com/?cid=0x0:0xd3b9e727b9d279ec,
toko bangunan,Toko Bahan Bangunan,Toko Bahan Bangunan Harapan Jaya,"Kantor Desa, Jl. Abdul Fatah No.Samping, Tapos I, Kec. Tenjolaya, Kabupaten Bogor, Jawa Barat 16370","Jl. Abdul Fatah No.Samping, Tapos I, Kec. Tenjolaya, Kabupaten Bogor",KALIMANTAN TIMUR,16370.0,Indonesia,85211461192.0,,,-6.6616372,106.6997557,https://maps.google.com/?cid=0x0:0x210766dcd8d938f3,
toko bangunan,Toko Bahan Bangunan,TB.HARAPAN JAYA 2,"Jl. Kerja Bakti No.47, RT.15/RW.2, Makasar, Kec. Makasar, Kota Jakarta Timur, Daerah Khusus Ibukota Jakarta 13570","RT.15/RW.2, Makasar, Kec. Makasar, Kota Jakarta Timur",KALIMANTAN TIMUR,13570.0,Indonesia,85313450007.0,,,-6.2728818,106.8768018,https://maps.google.com/?cid=0x0:0x3735000045972f88,
toko bangunan,Toko Perlengkapan Rumah,TB Harapan Jaya,"8VW6+2P9, Jl. Raya Puncak, Gadog, Kec. Megamendung, Kabupaten Bogor, Jawa Barat 16770","Jl. Raya Puncak, Gadog, Kec. Megamendung, Kabupaten Bogor",KALIMANTAN TIMUR,16770.0,Indonesia,,,,-6.6549728,106.8618682,https://maps.google.com/?cid=0x0:0x7c4765230d542210,
toko bangunan,Toko Bahan Bangunan,Tb Harapan Mulya,"Jl. Nasional 11 No.57, Gadog, Kec. Megamendung, Kabupaten Bogor, Jawa Barat 16720","Gadog, Kec. Megamendung, Kabupaten Bogor",KALIMANTAN TIMUR,16720.0,Indonesia,,,,-6.6535147,106.8651422,https://maps.google.com/?cid=0x0:0x3eafee041de7aca3,
toko bangunan,Toko Bahan Bangunan,Harapan Jaya I,"Jl. Raya Condet No.15A 003, RT.15/RW.3, Batu Ampar, Kramat Jati, East Jakarta City, Jakarta 13520","RT.15/RW.3, Batu Ampar, Kramat Jati, East Jakarta City",KALIMANTAN TIMUR,13520.0,Indonesia,817217890.0,,,-6.2781553,106.8550535,https://maps.google.com/?cid=0x0:0x11dc77d51d8f8213,
toko bangunan,Toko Bahan Bangunan,Harapan Jaya Toko,"Jl. Bugis 55 RT 001 RW 11 Kebon Bawang Tanjung Priok Jakarta Utara DKI Jakarta, RT.1/RW.11, Kb. Bawang, Kec. Tj. Priok, Jkt Utara, Daerah Khusus Ibukota Jakarta 14320","RT.1/RW.11, Kb. Bawang, Kec. Tj. Priok, Jkt Utara",KALIMANTAN TIMUR,14320.0,Indonesia,81574797312.0,,,-6.115855,106.8884101,https://maps.google.com/?cid=0x0:0xa73bdeafc10ec0fb,
toko bangunan,Toko Bahan Bangunan,Toko Bangunan Harapan Jaya,"no 35 01/02 ,tangerang selatan, serpong Jalan Fani Afandi tangerang, Pd. Jagung Tim., Kec. Serpong Utara, Kota Tangerang Selatan, Banten 15310","serpong Jalan Fani Afandi tangerang, Pd. Jagung Tim., Kec. Serpong Utara, Kota Tangerang Selatan",KALIMANTAN TIMUR,15310.0,Indonesia,87882288860.0,,,-6.250178,106.6757373,https://maps.google.com/?cid=0x0:0x30a8d76166ef00dd,
toko bangunan,Toko Bahan Bangunan,Tb Tanjung 77,"Jl. Pemuda Kranji, RT.005/RW.013, Kranji, Kec. Bekasi Bar., Kota Bks, Jawa Barat 17135","RT.005/RW.013, Kranji, Kec. Bekasi Bar., Kota Bks",KALIMANTAN TIMUR,17135.0,Indonesia,85777883592.0,,,-6.2283519,106.9774859,https://maps.google.com/?cid=0x0:0xea778e09c56e9ab,
toko bangunan,Toko Bahan Bangunan,TB. Harapan Maju,"Jl. Tenggiri No.58p 2, RT.2/RW.8, Tj. Priok, Kec. Tj. Priok, Jkt Utara, Daerah Khusus Ibukota Jakarta 14310","RT.2/RW.8, Tj. Priok, Kec. Tj. Priok, Jkt Utara",KALIMANTAN TIMUR,14310.0,Indonesia,81932225557.0,,,-6.113823,106.880222,https://maps.google.com/?cid=0x0:0xdc4b2af920e790f6,
toko bangunan,Toko Perlengkapan Rumah,Toko Sahabat,"4632+64G, Jl. Untung Suropati, Jone, Kec. Tanah Grogot, Kabupaten Paser, Kalimantan Timur 76251","Jl. Untung Suropati, Jone, Kec. Tanah Grogot, Kabupaten Paser",KALIMANTAN TIMUR,76251.0,Indonesia,,,,-1.8969483,116.2003201,https://maps.google.com/?cid=0x0:0x427197ac994663f8,
toko bangunan,Toko Bahan Bangunan,Toko Cahaya Harapan,"Jl. Langgar No.53 4, RT.2/RW.6, Tj. Bar., Kec. Jagakarsa, Kota Jakarta Selatan, Daerah Khusus Ibukota Jakarta 12530","RT.2/RW.6, Tj. Bar., Kec. Jagakarsa, Kota Jakarta Selatan",KALIMANTAN TIMUR,12530.0,Indonesia,,,,-6.3102398,106.8468403,https://maps.google.com/?cid=0x0:0xc3ddc8847750624e,
toko bangunan,Toko Bahan Bangunan,TB Sinar Harapan,"Jl. Poltangan Raya No.3, RT.1/RW.4, Tj. Bar., Kec. Jagakarsa, Kota Jakarta Selatan, Daerah Khusus Ibukota Jakarta 12530","RT.1/RW.4, Tj. Bar., Kec. Jagakarsa, Kota Jakarta Selatan",KALIMANTAN TIMUR,12530.0,Indonesia,85166899153.0,,,-6.296469,106.8440872,https://maps.google.com/?cid=0x0:0x2af522390af9c1d8,
toko bangunan,Toko Bahan Bangunan,Toko Harapan Baru (Bahan Bangunan  Alat Listrik),"Jl. Raya Kayu Tinggi No 04, RT.3/RW.9, Cakung Tim., Kec. Cakung, Kota Jakarta Timur, Daerah Khusus Ibukota Jakarta 13910","RT.3/RW.9, Cakung Tim., Kec. Cakung, Kota Jakarta Timur",KALIMANTAN TIMUR,13910.0,Indonesia,82164640155.0,,,-6.1798204,106.9480496,https://maps.google.com/?cid=0x0:0x818dd92a69df275c,
toko bangunan,Toko Bahan Bangunan,Toko Bangunan Harapan Kita,"Jl. Ir.Sukarno Jl. Kongsi Baru, Paramount, Kec. Serpong, Kabupaten Tangerang, Banten 15822","Paramount, Kec. Serpong, Kabupaten Tangerang",KALIMANTAN TIMUR,15822.0,Indonesia,85166901385.0,,,-6.2625006,106.6304972,https://maps.google.com/?cid=0x0:0x441cb92d32cd9a88,
toko bangunan,Toko Bahan Bangunan,Toko Harapan 2,"Jl. Manunggal No No.2, Tajurhalang, Tajur Halang, Bogor Regency, West Java 16320","Tajurhalang, Tajur Halang, Bogor Regency",KALIMANTAN TIMUR,16320.0,Indonesia,,,,-6.4750643,106.7578901,https://maps.google.com/?cid=0x0:0xb0b7f629a50dfff2,
toko bangunan,Toko Bahan Bangunan,Tb Sinhar Harapan Tengsaw,"Jl. Raya Tajur No.14 2, RT.2/RW.1, Tarikolot, Kec. Citeureup, Kabupaten Bogor, Jawa Barat 16810","RT.2/RW.1, Tarikolot, Kec. Citeureup, Kabupaten Bogor",KALIMANTAN TIMUR,16810.0,Indonesia,81294814443.0,,,-6.5016896,106.8915289,https://maps.google.com/?cid=0x0:0xd9b8f08e53394535,
toko bangunan,Toko Bahan Bangunan,Toko Bangunan Harapan Kita,"Jl. Perancis No.27, Dadap, Kec. Kosambi, Kabupaten Tangerang, Banten 15211","Dadap, Kec. Kosambi, Kabupaten Tangerang",KALIMANTAN TIMUR,15211.0,Indonesia,8192008838.0,,,-6.0907913,106.6990057,https://maps.google.com/?cid=0x0:0x22809d679496b849,
toko bangunan,Toko Perlengkapan Rumah,TB Harapan Sentosa,"GQXP+548, Ragajaya, Kecamatan Bojonggede, Kabupaten Bogor, Jawa Barat","Kabupaten Bogor, Jawa Barat",KALIMANTAN TIMUR,,Indonesia,,,,-6.4520998,106.785337,https://maps.google.com/?cid=0x0:0xee48c63f3f6f3e7b,
toko bangunan,Toko Perlengkapan Rumah,Toko Bangunan Harapan Baru,"MPPJ+W65, Ulak Kerbau Baru, Kec. Tj. Raja, Kabupaten Ogan Ilir, Sumatera Selatan 30862","Ulak Kerbau Baru, Kec. Tj. Raja, Kabupaten Ogan Ilir",KALIMANTAN TIMUR,30862.0,Indonesia,81368170369.0,,,-3.3127299,104.7306213,https://maps.google.com/?cid=0x0:0x7171f954061126ff,
toko bangunan,Toko Bahan Bangunan,Harapan Jaya Toko,"Jl. Bugis 55 RT 001 RW 11 Kebon Bawang Tanjung Priok Jakarta Utara DKI Jakarta, RT.1/RW.11, Kb. Bawang, Kec. Tj. Priok, Jkt Utara, Daerah Khusus Ibukota Jakarta 14320","RT.1/RW.11, Kb. Bawang, Kec. Tj. Priok, Jkt Utara",KALIMANTAN TIMUR,14320.0,Indonesia,81574797312.0,,,-6.115855,106.8884101,https://maps.google.com/?cid=0x0:0xa73bdeafc10ec0fb,
toko bangunan,Toko Bahan Bangunan,Tb. Harapan Jaya,"CV6Q+C3V, Jl. Raya Bojong Koneng, Bojong Koneng, Kec. Babakan Madang, Kabupaten Bogor, Jawa Barat 16810","Jl. Raya Bojong Koneng, Bojong Koneng, Kec. Babakan Madang, Kabupaten Bogor",KALIMANTAN TIMUR,16810.0,Indonesia,,,,-6.5888939,106.8876844,https://maps.google.com/?cid=0x0:0xd3b9e727b9d279ec,
toko bangunan,Toko Bahan Bangunan,Toko Bangun Harapan Baru,"Jl. Lap. Tembak No.8, RT.4/RW.10, Klp. Dua Wetan, Kec. Ciracas, Kota Jakarta Timur, Daerah Khusus Ibukota Jakarta 13730","RT.4/RW.10, Klp. Dua Wetan, Kec. Ciracas, Kota Jakarta Timur",KALIMANTAN TIMUR,13730.0,Indonesia,2193638246.0,,,-6.3515786,106.8823354,https://maps.google.com/?cid=0x0:0x9adf8ce6b01700af,
toko bangunan,Toko Perlengkapan Rumah,TB Harapan Jaya,"8VW6+2P9, Jl. Raya Puncak, Gadog, Kec. Megamendung, Kabupaten Bogor, Jawa Barat 16770","Jl. Raya Puncak, Gadog, Kec. Megamendung, Kabupaten Bogor",KALIMANTAN TIMUR,16770.0,Indonesia,,,,-6.6549728,106.8618682,https://maps.google.com/?cid=0x0:0x7c4765230d542210,
toko bangunan,Toko Bahan Bangunan,Tb Harapan Mulya,"Jl. Nasional 11 No.57, Gadog, Kec. Megamendung, Kabupaten Bogor, Jawa Barat 16720","Gadog, Kec. Megamendung, Kabupaten Bogor",KALIMANTAN TIMUR,16720.0,Indonesia,,,,-6.6535147,106.8651422,https://maps.google.com/?cid=0x0:0x3eafee041de7aca3,
toko bangunan,Toko Bahan Bangunan,Toko Bahan Bangunan Harapan Jaya,"Kantor Desa, Jl. Abdul Fatah No.Samping, Tapos I, Kec. Tenjolaya, Kabupaten Bogor, Jawa Barat 16370","Jl. Abdul Fatah No.Samping, Tapos I, Kec. Tenjolaya, Kabupaten Bogor",KALIMANTAN TIMUR,16370.0,Indonesia,85211461192.0,,,-6.6616372,106.6997557,https://maps.google.com/?cid=0x0:0x210766dcd8d938f3,
toko bangunan,Toko Bahan Bangunan,Toko Bangunan Harapan Sejahtera,"Gerbang Besar warna Biru-Hijau) dekat, Jl. Pabuaran Jl. Muhadi Jemb. Gantung No.40, RT.01/RW.02, Citayam, Kecamatan Bojonggede, Kabupaten Bogor, Jawa Barat 16921","Jl. Pabuaran Jl. Muhadi Jemb. Gantung No.40, RT.01/RW.02, Citayam, Kecamatan Bojonggede, Kabupaten Bogor",KALIMANTAN TIMUR,16921.0,Indonesia,81389006840.0,,,-6.4616007,106.8017969,https://maps.google.com/?cid=0x0:0x8cff031312540a3b,
toko bangunan,Toko Bahan Bangunan,TB.Restu Tanjung Harapan,"HGR7+XPG, Unnamed Road, Tj. Harapan, Kec. Merbau Mataram, Kabupaten Lampung Selatan, Lampung 35357","Unnamed Road, Tj. Harapan, Kec. Merbau Mataram, Kabupaten Lampung Selatan",KALIMANTAN TIMUR,35357.0,Indonesia,85269372779.0,,,-5.4075746,105.5143305,https://maps.google.com/?cid=0x0:0x30fdd2b53ac5608a,
toko bangunan,Toko Bahan Bangunan,Toko Bangunan Harapan Baru,"Sirnaresmi, Kec. Gn. Guruh, Kabupaten Sukabumi, Jawa Barat 43156","Kec. Gn. Guruh, Kabupaten Sukabumi",KALIMANTAN TIMUR,43156.0,Indonesia,,,,-6.9731644,106.8580742,https://maps.google.com/?cid=0x0:0x355090ec9acd399c,
hardware store,hardware store,Kalimantan Timur 76261,"Kabupaten Paser, Kalimantan Timur","Kabupaten Paser, Kalimantan Timur",KALIMANTAN TIMUR,,Indonesia,,,,-2.2765227,116.3249438,https://maps.google.com/?cid=0x0:0x5de4285e897f4e53,
hardware store,Toko Swalayan,Toko Berkah Abadi,"P598+GV5, Mengkudu, Kec. Batu Engau, Kabupaten Paser, Kalimantan Timur 76261","Mengkudu, Kec. Batu Engau, Kabupaten Paser",KALIMANTAN TIMUR,76261.0,Indonesia,82150443089.0,,,-2.2812274,116.1672271,https://maps.google.com/?cid=0x0:0xf33ad89012a60aff,
hardware store,Pusat Perbelanjaan,Toko sarwani 2,"3693+8FF, Tanah Periuk, Kec. Tanah Grogot, Kabupaten Paser, Kalimantan Timur 76251","Tanah Periuk, Kec. Tanah Grogot, Kabupaten Paser",KALIMANTAN TIMUR,76251.0,Indonesia,81346396957.0,,,-1.9316881,116.2036837,https://maps.google.com/?cid=0x0:0x7347c1dac30ec630,
hardware store,Toko Swalayan,Toko Bangunan Andi Putra,"Desa Tebru Paser Damai RT.03, Kec. Batu Engau","Kabupaten Paser, Kalimantan Timur",KALIMANTAN TIMUR,,Indonesia,,,,-2.1565213,116.1073687,https://maps.google.com/?cid=0x0:0x76015e71ca74bb7,
hardware store,Toko Bahan Bangunan,Toko Delta Bangunan,"Simpang 4 Kideco, Jl. Tambang Batu Bara, Batu Kajang, Kec. Batu Sopang, Kabupaten Paser, Kalimantan Timur 76252","Jl. Tambang Batu Bara, Batu Kajang, Kec. Batu Sopang, Kabupaten Paser",KALIMANTAN TIMUR,76252.0,Indonesia,85789077202.0,,,-1.8195224,115.9094756,https://maps.google.com/?cid=0x0:0xe51d088d24e534a2,
hardware store,Toko,Aisha Store / Reisya Cake,"Jl.Dili Bakau No.RT.7, Kerang, Kec. Batu Engau, Kabupaten Paser, Kalimantan Timur 76261","Kerang, Kec. Batu Engau, Kabupaten Paser",KALIMANTAN TIMUR,76261.0,Indonesia,81347325525.0,,,-2.0569809,116.1310345,https://maps.google.com/?cid=0x0:0xe9104a479b2ba2ce,
hardware store,Toko Swalayan,Toko Jati Mas,"P4PH+M3, Tampakan, Kec. Batu Engau, Kabupaten Paser, Kalimantan Timur 76261","Tampakan, Kec. Batu Engau, Kabupaten Paser",KALIMANTAN TIMUR,76261.0,Indonesia,82154342398.0,,,-2.263068,116.127542,https://maps.google.com/?cid=0x0:0xb4869462cb7f32e4,
hardware store,Toko Bahan Bangunan,Toko Hadjie Sidie,"Jl. Yos Sudarso, Jone, Kec. Tanah Grogot, Kabupaten Paser, Kalimantan Timur 76251","Jone, Kec. Tanah Grogot, Kabupaten Paser",KALIMANTAN TIMUR,76251.0,Indonesia,,,,-1.9045604,116.2102742,https://maps.google.com/?cid=0x0:0xe10f324df411b2c4,
hardware store,hardware store,Kalimantan Timur 76252,"Kabupaten Paser, Kalimantan Timur","Kabupaten Paser, Kalimantan Timur",KALIMANTAN TIMUR,,Indonesia,,,,-1.9651197,115.8994923,https://maps.google.com/?cid=0x0:0xd282220639c80aba,
hardware store,Toko Bahan Bangunan,Toko Bangunan RAHMAN,"7R9H+899, Busui, Kec. Batu Sopang, Kabupaten Paser, Kalimantan Timur 76253","Busui, Kec. Batu Sopang, Kabupaten Paser",KALIMANTAN TIMUR,76253.0,Indonesia,85251407670.0,,,-1.731701,115.828494,https://maps.google.com/?cid=0x0:0x993727f72e8ce069,
hardware store,Toko Bahan Bangunan,Toko Thamrin,"Jl. Tj. - Kuaro, Batu Kajang, Kec. Batu Sopang, Kabupaten Paser, Kalimantan Timur 76252","Batu Kajang, Kec. Batu Sopang, Kabupaten Paser",KALIMANTAN TIMUR,76252.0,Indonesia,85211520009.0,,,-1.821302,115.9130392,https://maps.google.com/?cid=0x0:0x8d8c5a9e4e856e6e,
hardware store,Toko Bahan Bangunan,Delta Color,"Batu Kajang, Kec. Batu Sopang, Kabupaten Paser, Kalimantan Timur 76252","Kec. Batu Sopang, Kabupaten Paser",KALIMANTAN TIMUR,76252.0,Indonesia,,,,-1.8234774,115.9173217,https://maps.google.com/?cid=0x0:0x1d36c97f6e2d873a,
hardware store,Toko Alat Tulis Kantor,Toko SINTER (Sinar Terang),"Batu Kajang, Kec. Batu Sopang, Kabupaten Paser, Kalimantan Timur 76252","Kec. Batu Sopang, Kabupaten Paser",KALIMANTAN TIMUR,76252.0,Indonesia,,,,-1.8284154,115.9225759,https://maps.google.com/?cid=0x0:0xb29c600c16705a9,
hardware store,Toko Bahan Bangunan,Toko Delta Bangunan,"Simpang 4 Kideco, Jl. Tambang Batu Bara, Batu Kajang, Kec. Batu Sopang, Kabupaten Paser, Kalimantan Timur 76252","Jl. Tambang Batu Bara, Batu Kajang, Kec. Batu Sopang, Kabupaten Paser",KALIMANTAN TIMUR,76252.0,Indonesia,85789077202.0,,,-1.8195224,115.9094756,https://maps.google.com/?cid=0x0:0xe51d088d24e534a2,
hardware store,Toko Bahan Bangunan,Jotun,"5W9J+V77, Jl. Tj. - Kuaro, Batu Kajang, Kec. Batu Sopang, Kabupaten Paser, Kalimantan Timur 76252","Jl. Tj. - Kuaro, Batu Kajang, Kec. Batu Sopang, Kabupaten Paser",KALIMANTAN TIMUR,76252.0,Indonesia,,,,-1.8303266,115.9306714,https://maps.google.com/?cid=0x0:0x56ba2eb04925f955,
hardware store,Toko Bahan Bangunan,Tb dua saudara batu kajang,"5W3J+97, Batu Kajang, Kec. Batu Sopang, Kabupaten Paser, Kalimantan Timur 76252","Batu Kajang, Kec. Batu Sopang, Kabupaten Paser",KALIMANTAN TIMUR,76252.0,Indonesia,,,,-1.8466136,115.9307101,https://maps.google.com/?cid=0x0:0x1deb55d98ae8019c,
hardware store,Pasar,Pasar lama Batu Sopang,"5W6H+X2X, Batu Kajang, Kec. Batu Sopang, Kabupaten Paser, Kalimantan Timur 76252","Batu Kajang, Kec. Batu Sopang, Kabupaten Paser",KALIMANTAN TIMUR,76252.0,Indonesia,,,,-1.8375247,115.927597,https://maps.google.com/?cid=0x0:0x2d1fe44162b6ad52,
hardware store,Toko Alat Tulis Kantor,Foto Copy Dua Saudara,"5WG9+3J4, Jl. Tj. - Kuaro, Batu Kajang, Kec. Batu Sopang, Kabupaten Paser, Kalimantan Timur 76252","Jl. Tj. - Kuaro, Batu Kajang, Kec. Batu Sopang, Kabupaten Paser",KALIMANTAN TIMUR,76252.0,Indonesia,,,,-1.8248649,115.919079,https://maps.google.com/?cid=0x0:0x4f8541d60222d851,
hardware store,hardware store,TB.HIDAYAT,"5VJV+4V5, Jl. Tj. - Kuaro, Batu Kajang, Kec. Batu Sopang, Kabupaten Paser, Kalimantan Timur 76252","Jl. Tj. - Kuaro, Batu Kajang, Kec. Batu Sopang, Kabupaten Paser",KALIMANTAN TIMUR,76252.0,Indonesia,,,,-1.8197522,115.8947486,https://maps.google.com/?cid=0x0:0xdd8bf5c2ddacfe6d,
hardware store,hardware store,Kec. Batu Sopang,"Kabupaten Paser, Kalimantan Timur","Kabupaten Paser, Kalimantan Timur",KALIMANTAN TIMUR,,Indonesia,,,,-1.8238436,115.8994923,https://maps.google.com/?cid=0x0:0x22a0ae066cff9757,
hardware store,Toko Bahan Bangunan,TOKO SINAR BANGUNAN,"Jl. Ahmad Yani, Kuaro, Kec. Kuaro, Kabupaten Paser, Kalimantan Timur 76281","Kuaro, Kec. Kuaro, Kabupaten Paser",KALIMANTAN TIMUR,76281.0,Indonesia,83821475758.0,,,-1.8117474,116.0836563,https://maps.google.com/?cid=0x0:0xfed2e1211dfcd509,
hardware store,Toko Perlengkapan Rumah,Palapa Bangunan,"53QM+7HJ, Jl. Penajam-Kuaro, Kuaro, Kec. Kuaro, Kabupaten Paser, Kalimantan Timur 76281","Jl. Penajam-Kuaro, Kuaro, Kec. Kuaro, Kabupaten Paser",KALIMANTAN TIMUR,76281.0,Indonesia,,,,-1.8117863,116.0839002,https://maps.google.com/?cid=0x0:0xd62be884ac02d150,
hardware store,Toko Bahan Bangunan,TB CAHAYA TIMUR,"Jl. Penajam-Kuaro, Kendarom, Kec. Kuaro, Kabupaten Paser, Kalimantan Timur 76281","Kendarom, Kec. Kuaro, Kabupaten Paser",KALIMANTAN TIMUR,76281.0,Indonesia,,,,-1.7932466,116.0991708,https://maps.google.com/?cid=0x0:0x3875632a205933f4,
hardware store,Toko Bahan Bangunan,Toko Delta Kuaro,"DEKAT LAMPU MERAH, Jl. Ahmad Yani, SIMPANG 4, Kec. Kuaro, Kabupaten Paser, Kalimantan Timur 76281","Jl. Ahmad Yani, SIMPANG 4, Kec. Kuaro, Kabupaten Paser",KALIMANTAN TIMUR,76281.0,Indonesia,,,,-1.8217149,116.0839286,https://maps.google.com/?cid=0x0:0x4c78adf1cfb2c720,
hardware store,Toko Bahan Bangunan,TB. Ihza Bangun Jaya,"Jl. Kuaro - Tanah Grogot, Kuaro, Kec. Kuaro, Kabupaten Paser, Kalimantan Timur 76281","Kuaro, Kec. Kuaro, Kabupaten Paser",KALIMANTAN TIMUR,76281.0,Indonesia,82157338754.0,,,-1.8320445,116.0822179,https://maps.google.com/?cid=0x0:0x6a6d0c21301e97f0,
hardware store,Toko Bahan Bangunan,TOKO SURYA JAYA,"53HM+MG9, Jl. Ahmad Yani, Kuaro, Kec. Kuaro, Kabupaten Paser, Kalimantan Timur","Kabupaten Paser, Kalimantan Timur",KALIMANTAN TIMUR,,Indonesia,,,,-1.8208493,116.0838688,https://maps.google.com/?cid=0x0:0xe2bde76f74534075,
hardware store,hardware store,Kuaro,"Kec. Kuaro, Kabupaten Paser, Kalimantan Timur","Kabupaten Paser, Kalimantan Timur",KALIMANTAN TIMUR,,Indonesia,,,,-1.8219574,116.0845478,https://maps.google.com/?cid=0x0:0x4540b1968c0129c9,
hardware store,Toko Elektronik,Toko M.syaifurrahman,"Jl. Penajam-Kuaro No.1, Kuaro, Kec. Kuaro, Kabupaten Paser, Kalimantan Timur 76281","Kuaro, Kec. Kuaro, Kabupaten Paser",KALIMANTAN TIMUR,76281.0,Indonesia,82350372614.0,,,-1.8214109,116.0846682,https://maps.google.com/?cid=0x0:0xf8cb81425b5cb8e,
hardware store,Toko Ponsel,Family Cell KUARO,"Jl. Kuaro - Tanah Grogot, Kuaro, Kec. Kuaro, Kabupaten Paser, Kalimantan Timur 76281","Kuaro, Kec. Kuaro, Kabupaten Paser",KALIMANTAN TIMUR,76281.0,Indonesia,,,,-1.8254465,116.0833905,https://maps.google.com/?cid=0x0:0xcf515ade428153af,
hardware store,Dekorator interior,PRIANGAN GORDEN KUARO,"Jl. Jend. A. Yani Rt.19 Sei-Rat, Kuaro, Kec. Kuaro, Kalimantan Timur 76281","Kuaro, Kec. Kuaro",KALIMANTAN TIMUR,76281.0,Indonesia,81902383041.0,,,-1.8101864,116.0846031,https://maps.google.com/?cid=0x0:0xf20b477db84174f9,
hardware store,Toko Elektronik,Abdissalam Elektronik by HEFR Group,"Jl. Jenderal Sudirman, RT.10/RW.03, Kuaro, Kec. Kuaro, Kabupaten Paser, Kalimantan Timur 76281","RT.10/RW.03, Kuaro, Kec. Kuaro, Kabupaten Paser",KALIMANTAN TIMUR,76281.0,Indonesia,81346609820.0,,,-1.8247746,116.0837213,https://maps.google.com/?cid=0x0:0x19d1d4a206ddf94,
hardware store,Toko Kosmetik,Toko Annisa Kuaro,"Jl. Ahmad Yani No.RT.04, Kuaro, Kec. Kuaro, Kabupaten Paser, Kalimantan Timur 76281","Kuaro, Kec. Kuaro, Kabupaten Paser",KALIMANTAN TIMUR,76281.0,Indonesia,54322464.0,,,-1.8190703,116.0835505,https://maps.google.com/?cid=0x0:0x3893009f3b70371b,
hardware store,Toko Perlengkapan Rumah,Tb. sumber cahaya rezeki,"4497+888, Lolo, Kec. Kuaro, Kabupaten Paser, Kalimantan Timur 76251","Lolo, Kec. Kuaro, Kabupaten Paser",KALIMANTAN TIMUR,76251.0,Indonesia,82152444141.0,,,-1.8820383,116.1137983,https://maps.google.com/?cid=0x0:0x35063498ca98e05a,
hardware store,Jasa instalasi sistem keamanan,IKHTIAR TAKA,"Jl. Garuda No.RT.05, Klempang Sari, Kec. Kuaro, Kabupaten Paser, Kalimantan Timur 76281","Klempang Sari, Kec. Kuaro, Kabupaten Paser",KALIMANTAN TIMUR,76281.0,Indonesia,81350382102.0,,,-1.8355499,116.0966257,https://maps.google.com/?cid=0x0:0x5303bde5a14833cb,
hardware store,Toko Bahan Bangunan,Toko Bangunan Sempurna,"44CG+FW7, Jl. Kuaro - Tanah Grogot, Lolo, Kec. Kuaro, Kabupaten Paser, Kalimantan Timur 76251","Jl. Kuaro - Tanah Grogot, Lolo, Kec. Kuaro, Kabupaten Paser",KALIMANTAN TIMUR,76251.0,Indonesia,85349315021.0,,,-1.8788415,116.1272838,https://maps.google.com/?cid=0x0:0x4138548a7b1494dc,
hardware store,Toko Bahan Bangunan,TB CAHAYA TIMUR,"54QX+G4C, Rangan, Kec. Kuaro, Kabupaten Paser, Kalimantan Timur 76281","Rangan, Kec. Kuaro, Kabupaten Paser",KALIMANTAN TIMUR,76281.0,Indonesia,,,,-1.8111972,116.1477598,https://maps.google.com/?cid=0x0:0x360e7ba516bd74db,
hardware store,Bengkel Elektronik,Agus Service segala elekronik,"64H2+66V, Rangan, Kec. Kuaro, Kabupaten Paser, Kalimantan Timur 76281","Rangan, Kec. Kuaro, Kabupaten Paser",KALIMANTAN TIMUR,76281.0,Indonesia,85249089997.0,,,-1.7718991,116.1005475,https://maps.google.com/?cid=0x0:0xbe6c35727935a8b3,
hardware store,Toko Bahan Bangunan,TB. Namira 1,"Jl. Ulin No.KM.04, Tepian Batang, Kec. Tanah Grogot, Kabupaten Paser, Kalimantan Timur 76211","Tepian Batang, Kec. Tanah Grogot, Kabupaten Paser",KALIMANTAN TIMUR,76211.0,Indonesia,81347890800.0,,,-1.8852938,116.170535,https://maps.google.com/?cid=0x0:0x50eaf485478ba865,
hardware store,Toko Perlengkapan Rumah,Toko rahman,"4496+6R5 kpj, Lolo, Kec. Kuaro, Kabupaten Paser, Kalimantan Timur 76251","Lolo, Kec. Kuaro, Kabupaten Paser",KALIMANTAN TIMUR,76251.0,Indonesia,,,,-1.8819978,116.112098,https://maps.google.com/?cid=0x0:0x1261bfc24bdc9637,
hardware store,hardware store,Kec. Kuaro,"Kabupaten Paser, Kalimantan Timur","Kabupaten Paser, Kalimantan Timur",KALIMANTAN TIMUR,,Indonesia,,,,-1.8221901,116.0841009,https://maps.google.com/?cid=0x0:0x8b28696ee944cbb9,
hardware store,Minimarket,Vanessa Shop,"747J+57J, Jl. Penajam-Kuaro, Modang, Kec. Kuaro, Kabupaten Paser, Kalimantan Timur 76281","Jl. Penajam-Kuaro, Modang, Kec. Kuaro, Kabupaten Paser",KALIMANTAN TIMUR,76281.0,Indonesia,,,,-1.7370407,116.13064,https://maps.google.com/?cid=0x0:0xdae4988d28858e9c,
hardware store,hardware store,Kalimantan Timur 76282,"Kec. Long Ikis, Kabupaten Paser, Kalimantan Timur","Kabupaten Paser, Kalimantan Timur",KALIMANTAN TIMUR,,Indonesia,,,,-1.608975,116.1832068,https://maps.google.com/?cid=0x0:0xaaa31d28d64ea774,
hardware store,Toko Bahan Bangunan,TB. Panca Tunggal Putra,"Jl. Propinsi Penajam - kuaro Lampi, Kayungo, Kec. Long Ikis, Kabupaten Paser, Kalimantan Timur 76282","Kayungo, Kec. Long Ikis, Kabupaten Paser",KALIMANTAN TIMUR,76282.0,Indonesia,85244103320.0,,,-1.5702375,116.2115935,https://maps.google.com/?cid=0x0:0xdb811e9cf71832a0,
hardware store,Komplek perumahan,KIOS KAYU TIGA PUTRA MUHIFAH,"Jalan raya jemparing No.RT.01, Long Ikis, Kec. Long Ikis, Kabupaten Paser, Kalimantan Timur 76282","Long Ikis, Kec. Long Ikis, Kabupaten Paser",KALIMANTAN TIMUR,76282.0,Indonesia,81255598030.0,,,-1.5600495,116.2531378,https://maps.google.com/?cid=0x0:0xf33289ac18fbe34f,
hardware store,Toko Bahan Bangunan,Tb simpang jaya,"95XF+QR4, Tajur, Kec. Long Ikis, Kabupaten Paser, Kalimantan Timur 76282","Tajur, Kec. Long Ikis, Kabupaten Paser",KALIMANTAN TIMUR,76282.0,Indonesia,857574021519.0,,,-1.6006213,116.1745657,https://maps.google.com/?cid=0x0:0xab01d92bbcbafe95,
hardware store,Toko bahan makanan,Rida Cell,"84JX+RM5, Jl. Penajam-Kuaro, Samuntai, Kec. Long Ikis, Kabupaten Paser, Kalimantan Timur 76282","Jl. Penajam-Kuaro, Samuntai, Kec. Long Ikis, Kabupaten Paser",KALIMANTAN TIMUR,76282.0,Indonesia,,,,-1.6679921,116.149219,https://maps.google.com/?cid=0x0:0x4981e550d1f4295,
hardware store,Toko bahan makanan,Z Mart,"Jl. Negara No.53, RT.005, Samuntai, Kec. Long Ikis, Kabupaten Paser, Kalimantan Timur 76282","RT.005, Samuntai, Kec. Long Ikis, Kabupaten Paser",KALIMANTAN TIMUR,76282.0,Indonesia,81346490349.0,,,-1.6679874,116.14873,https://maps.google.com/?cid=0x0:0xf91e65f85686c6c5,
hardware store,Toko,Toko Amanah Bangunan,"Jl. Penajam-Kuaro, Lombok, Kec. Long Ikis, Kabupaten Paser, Kalimantan Timur 76282","Lombok, Kec. Long Ikis, Kabupaten Paser",KALIMANTAN TIMUR,76282.0,Indonesia,,,,-1.6316123,116.1524234,https://maps.google.com/?cid=0x0:0x6bcc193b9cb4d3aa,
hardware store,Toko Bahan Bangunan,Tb.Kharisma,"Simpang pait samping bank BRI UNIT PAIT KEC LONG IKIS KAB PASER, Lombok, Kec. Long Ikis, Kabupaten Paser, Kalimantan Timur 76282","Lombok, Kec. Long Ikis, Kabupaten Paser",KALIMANTAN TIMUR,76282.0,Indonesia,85220100101.0,,,-1.6036944,116.1681262,https://maps.google.com/?cid=0x0:0x4a0dc3b8e913bdae,
hardware store,Toko bahan makanan,Toko Askar,"95W9+73J, Jl. Penajam-Kuaro, Lombok, Kec. Long Ikis, Kabupaten Paser, Kalimantan Timur 76282","Jl. Penajam-Kuaro, Lombok, Kec. Long Ikis, Kabupaten Paser",KALIMANTAN TIMUR,76282.0,Indonesia,,,,-1.6042966,116.1676391,https://maps.google.com/?cid=0x0:0x620e1803ff638a65,
hardware store,Toko Bahan Bangunan,Tb. Rukun Makmur,"96JV+WF8, Long Ikis, Kec. Long Ikis, Kabupaten Paser, Kalimantan Timur 76282","Long Ikis, Kec. Long Ikis, Kabupaten Paser",KALIMANTAN TIMUR,76282.0,Indonesia,,,,-1.6177173,116.2437013,https://maps.google.com/?cid=0x0:0x184ef45f2b87b3c3,
hardware store,Toko,Toko Berkah,"Jl. Negara No.Km. 82, RT.1/RW.1, Long Ikis, Kec. Long Ikis, Kabupaten Paser, Kalimantan Timur 76282","RT.1/RW.1, Long Ikis, Kec. Long Ikis, Kabupaten Paser",KALIMANTAN TIMUR,76282.0,Indonesia,81251679834.0,,,-1.5805594,116.2025709,https://maps.google.com/?cid=0x0:0x9abfedd91811cbf1,
hardware store,Toko,Toko Sama Sama,"95W9+G6H, simpang, Pait, Kec. Long Ikis, Kabupaten Paser, Kalimantan Timur 76282","simpang, Pait, Kec. Long Ikis, Kabupaten Paser",KALIMANTAN TIMUR,76282.0,Indonesia,,,,-1.6036905,116.1681059,https://maps.google.com/?cid=0x0:0x4f1bde532c5d2a91,
hardware store,Toko,Toko Saiyono,"RT.03, Sawit Jaya, Kec. Long Ikis, Kabupaten Paser, Kalimantan Timur 76282","Sawit Jaya, Kec. Long Ikis, Kabupaten Paser",KALIMANTAN TIMUR,76282.0,Indonesia,81253437743.0,,,-1.5921994,116.1615318,https://maps.google.com/?cid=0x0:0x5dc924586aa2eaf4,
hardware store,Toko Alat Tulis,Toko Arsen (Fotocopy  Digital Printing),"Jl. Negara No.KM.82, Long Ikis, Kec. Long Ikis, Kabupaten Paser, Kalimantan Timur 76282","Long Ikis, Kec. Long Ikis, Kabupaten Paser",KALIMANTAN TIMUR,76282.0,Indonesia,811557556.0,,,-1.5824251,116.2008719,https://maps.google.com/?cid=0x0:0x208a492f33684ed5,
hardware store,Toko bahan makanan,Toko Iwan Duan (Topshop Mandiri AR),"Jl. Negara, Simpang Jl. Pait, RT.006, Lombok, Kec. Long Ikis, Kabupaten Paser, Kalimantan Timur 76282","Simpang Jl. Pait, RT.006, Lombok, Kec. Long Ikis, Kabupaten Paser",KALIMANTAN TIMUR,76282.0,Indonesia,,,,-1.6044403,116.1673834,https://maps.google.com/?cid=0x0:0xc4018a0caaaf88c0,
hardware store,Toko bahan makanan,Toko Hasir,"C6PP+H6X, Kayungo, Kec. Long Ikis, Kabupaten Paser, Kalimantan Timur","Kabupaten Paser, Kalimantan Timur",KALIMANTAN TIMUR,,Indonesia,,,,-1.5635176,116.235607,https://maps.google.com/?cid=0x0:0x35f5452fab011470,
hardware store,Toko Alat Tulis Kantor,AGE STORE  FOTO COPY,"F556+JC7, Kerta Bhakti, Kec. Long Ikis, Kabupaten Paser, Kalimantan Timur 76282","Kerta Bhakti, Kec. Long Ikis, Kabupaten Paser",KALIMANTAN TIMUR,76282.0,Indonesia,82232556585.0,,,-1.5409595,116.161046,https://maps.google.com/?cid=0x0:0xb2e92f252262424a,
hardware store,Toko Bahan Bangunan,TB.Cahaya Bintang,"Simpang, Pait, Kec. Long Ikis, Kabupaten Paser, Kalimantan Timur 76282","Pait, Kec. Long Ikis, Kabupaten Paser",KALIMANTAN TIMUR,76282.0,Indonesia,82351298517.0,,,-1.5979138,116.1639051,https://maps.google.com/?cid=0x0:0x84a788ac2dfec48c,
hardware store,hardware store,Kec. Long Ikis,"Kabupaten Paser, Kalimantan Timur","Kabupaten Paser, Kalimantan Timur",KALIMANTAN TIMUR,,Indonesia,,,,-1.6040905,116.1676805,https://maps.google.com/?cid=0x0:0x28c79be6a87c0fe5,
hardware store,Toko Swalayan,Toko Ar-Rosyid Kademan Long Kali,"Jl. Negara No.KM 62 RT 3, Long Kali, Kec. Long Kali, Kabupaten Paser, Kalimantan Timur 76283","Long Kali, Kec. Long Kali, Kabupaten Paser",KALIMANTAN TIMUR,76283.0,Indonesia,82152918566.0,,,-1.5136298,116.3402312,https://maps.google.com/?cid=0x0:0x7f28f3903805f97,
hardware store,Toko,Toko Ida,"F8JC+68C, Long Kali, Kec. Long Kali, Kabupaten Paser, Kalimantan Timur 76283","Long Kali, Kec. Long Kali, Kabupaten Paser",KALIMANTAN TIMUR,76283.0,Indonesia,,,,-1.5194354,116.3207692,https://maps.google.com/?cid=0x0:0x59486dc45fe1194d,
hardware store,Toko Perlengkapan Rumah,Tb duta bangunan longkali,"F8H8+M95, Jl. Penajam-Kuaro, Long Kali, Kec. Long Kali, Kabupaten Paser, Kalimantan Timur 76283","Jl. Penajam-Kuaro, Long Kali, Kec. Long Kali, Kabupaten Paser",KALIMANTAN TIMUR,76283.0,Indonesia,,,,-1.5210048,116.316039,https://maps.google.com/?cid=0x0:0xf9cfd4318c83f91f,
hardware store,hardware store,Kalimantan Timur 76253,"Kec. Muara Komam, Kabupaten Paser, Kalimantan Timur","Kabupaten Paser, Kalimantan Timur",KALIMANTAN TIMUR,,Indonesia,,,,-1.544033,115.8048521,https://maps.google.com/?cid=0x0:0x64a10c9684dc5b70,
hardware store,,Toko Bangunan ARYA,"Jl. Tj. - Kuaro, Batu Butok, Kec. Muara Komam, Kabupaten Paser, Kalimantan Timur 76253","Batu Butok, Kec. Muara Komam, Kabupaten Paser",KALIMANTAN TIMUR,76253.0,Indonesia,85155060844.0,,,-1.6893079,115.8169235,https://maps.google.com/?cid=0x0:0x80712d317796e795,
hardware store,Toko Alat Tulis Kantor,Toko SINAR TERANG (sinter1),"Jl. Tj. - Kuaro No.21, Uko, Kec. Muara Komam, Kabupaten Paser, Kalimantan Timur 76253","Uko, Kec. Muara Komam, Kabupaten Paser",KALIMANTAN TIMUR,76253.0,Indonesia,85348576888.0,,,-1.6826506,115.8167913,https://maps.google.com/?cid=0x0:0x2ef420e7ed292d09,
hardware store,Pom bensin/SPBU,Pertashop muara komam,"8QCV+W8V, RT.08/RW.05, Muara Komam, Kec. Muara Komam, Kabupaten Paser, Kalimantan Timur 76253","RT.08/RW.05, Muara Komam, Kec. Muara Komam, Kabupaten Paser",KALIMANTAN TIMUR,76253.0,Indonesia,,,,-1.6776295,115.7932984,https://maps.google.com/?cid=0x0:0xd4ebb171bd69d26f,
hardware store,Toko Bahan Bangunan,Toko Bangunan RAHMAN,"7R9H+899, Busui, Kec. Batu Sopang, Kabupaten Paser, Kalimantan Timur 76253","Busui, Kec. Batu Sopang, Kabupaten Paser",KALIMANTAN TIMUR,76253.0,Indonesia,85251407670.0,,,-1.731701,115.828494,https://maps.google.com/?cid=0x0:0x993727f72e8ce069,
hardware store,Toko Alat Tulis Kantor,Toko SINTER (Sinar Terang),"Batu Kajang, Kec. Batu Sopang, Kabupaten Paser, Kalimantan Timur 76252","Kec. Batu Sopang, Kabupaten Paser",KALIMANTAN TIMUR,76252.0,Indonesia,,,,-1.8284154,115.9225759,https://maps.google.com/?cid=0x0:0xb29c600c16705a9,
hardware store,Toko Bahan Bangunan,Toko Thamrin,"Jl. Tj. - Kuaro, Batu Kajang, Kec. Batu Sopang, Kabupaten Paser, Kalimantan Timur 76252","Batu Kajang, Kec. Batu Sopang, Kabupaten Paser",KALIMANTAN TIMUR,76252.0,Indonesia,85211520009.0,,,-1.821302,115.9130392,https://maps.google.com/?cid=0x0:0x8d8c5a9e4e856e6e,
hardware store,Toko Bahan Bangunan,Delta Color,"Batu Kajang, Kec. Batu Sopang, Kabupaten Paser, Kalimantan Timur 76252","Kec. Batu Sopang, Kabupaten Paser",KALIMANTAN TIMUR,76252.0,Indonesia,,,,-1.8234774,115.9173217,https://maps.google.com/?cid=0x0:0x1d36c97f6e2d873a,
hardware store,Toko Bahan Bangunan,Toko Bangunan UD.Mandiri,"Jl. Mariga, Bawah Gunung Dap, Batu Kajang, Kec. Batu Sopang, Kalimantan Timur 76252","Bawah Gunung Dap, Batu Kajang, Kec. Batu Sopang",KALIMANTAN TIMUR,76252.0,Indonesia,81349372550.0,,,-1.8227407,115.9154019,https://maps.google.com/?cid=0x0:0xbd8b365c98c309b7,
hardware store,hardware store,Kalimantan Timur 76252,"Kabupaten Paser, Kalimantan Timur","Kabupaten Paser, Kalimantan Timur",KALIMANTAN TIMUR,,Indonesia,,,,-1.9651197,115.8994923,https://maps.google.com/?cid=0x0:0xd282220639c80aba,
hardware store,Toko Bahan Bangunan,Toko Thamrin,"Jl. Tj. - Kuaro, Batu Kajang, Kec. Batu Sopang, Kabupaten Paser, Kalimantan Timur 76252","Batu Kajang, Kec. Batu Sopang, Kabupaten Paser",KALIMANTAN TIMUR,76252.0,Indonesia,85211520009.0,,,-1.821302,115.9130392,https://maps.google.com/?cid=0x0:0x8d8c5a9e4e856e6e,
hardware store,Toko Bahan Bangunan,Toko Bangunan UD.Mandiri,"Jl. Mariga, Bawah Gunung Dap, Batu Kajang, Kec. Batu Sopang, Kalimantan Timur 76252","Bawah Gunung Dap, Batu Kajang, Kec. Batu Sopang",KALIMANTAN TIMUR,76252.0,Indonesia,81349372550.0,,,-1.8227407,115.9154019,https://maps.google.com/?cid=0x0:0xbd8b365c98c309b7,
hardware store,Toko Bahan Bangunan,Delta Color,"Batu Kajang, Kec. Batu Sopang, Kabupaten Paser, Kalimantan Timur 76252","Kec. Batu Sopang, Kabupaten Paser",KALIMANTAN TIMUR,76252.0,Indonesia,,,,-1.8234774,115.9173217,https://maps.google.com/?cid=0x0:0x1d36c97f6e2d873a,
hardware store,Toko Bahan Bangunan,TB. Panca Tunggal Putra,"Jl. Propinsi Penajam - kuaro Lampi, Kayungo, Kec. Long Ikis, Kabupaten Paser, Kalimantan Timur 76282","Kayungo, Kec. Long Ikis, Kabupaten Paser",KALIMANTAN TIMUR,76282.0,Indonesia,85244103320.0,,,-1.5702375,116.2115935,https://maps.google.com/?cid=0x0:0xdb811e9cf71832a0,
hardware store,Toko Alat Tulis Kantor,Toko SINTER (Sinar Terang),"Batu Kajang, Kec. Batu Sopang, Kabupaten Paser, Kalimantan Timur 76252","Kec. Batu Sopang, Kabupaten Paser",KALIMANTAN TIMUR,76252.0,Indonesia,,,,-1.8284154,115.9225759,https://maps.google.com/?cid=0x0:0xb29c600c16705a9,
hardware store,Toko Bahan Bangunan,Toko Hadjie Sidie,"Jl. Yos Sudarso, Jone, Kec. Tanah Grogot, Kabupaten Paser, Kalimantan Timur 76251","Jone, Kec. Tanah Grogot, Kabupaten Paser",KALIMANTAN TIMUR,76251.0,Indonesia,,,,-1.9045604,116.2102742,https://maps.google.com/?cid=0x0:0xe10f324df411b2c4,
hardware store,Toko Bahan Bangunan,TB. Ihza Bangun Jaya,"Jl. Kuaro - Tanah Grogot, Kuaro, Kec. Kuaro, Kabupaten Paser, Kalimantan Timur 76281","Kuaro, Kec. Kuaro, Kabupaten Paser",KALIMANTAN TIMUR,76281.0,Indonesia,82157338754.0,,,-1.8320445,116.0822179,https://maps.google.com/?cid=0x0:0x6a6d0c21301e97f0,
hardware store,Toko Bahan Bangunan,Tb dua saudara batu kajang,"5W3J+97, Batu Kajang, Kec. Batu Sopang, Kabupaten Paser, Kalimantan Timur 76252","Batu Kajang, Kec. Batu Sopang, Kabupaten Paser",KALIMANTAN TIMUR,76252.0,Indonesia,,,,-1.8466136,115.9307101,https://maps.google.com/?cid=0x0:0x1deb55d98ae8019c,
hardware store,Toko,MR.DIY,"Tanah Grogot, Kec. Tanah Grogot, Kabupaten Paser, Kalimantan Timur","Kabupaten Paser, Kalimantan Timur",KALIMANTAN TIMUR,,Indonesia,,,,-1.9106069,116.1968746,https://maps.google.com/?cid=0x0:0x7ad2fda191b275f7,
hardware store,Toko Bahan Bangunan,Toko Sumber Jaya Haikal,"Jl. Jend. Ahmad Yani, Tanah Grogot, Kec. Tanah Grogot, Kabupaten Paser, Kalimantan Timur 76251","Tanah Grogot, Kec. Tanah Grogot, Kabupaten Paser",KALIMANTAN TIMUR,76251.0,Indonesia,,,,-1.9058637,116.1976309,https://maps.google.com/?cid=0x0:0x387a451dc387b805,
hardware store,Toko Alat Tulis Kantor,Foto Copy Dua Saudara,"5WG9+3J4, Jl. Tj. - Kuaro, Batu Kajang, Kec. Batu Sopang, Kabupaten Paser, Kalimantan Timur 76252","Jl. Tj. - Kuaro, Batu Kajang, Kec. Batu Sopang, Kabupaten Paser",KALIMANTAN TIMUR,76252.0,Indonesia,,,,-1.8248649,115.919079,https://maps.google.com/?cid=0x0:0x4f8541d60222d851,
hardware store,Toko Perlengkapan Rumah,Palapa Bangunan,"53QM+7HJ, Jl. Penajam-Kuaro, Kuaro, Kec. Kuaro, Kabupaten Paser, Kalimantan Timur 76281","Jl. Penajam-Kuaro, Kuaro, Kec. Kuaro, Kabupaten Paser",KALIMANTAN TIMUR,76281.0,Indonesia,,,,-1.8117863,116.0839002,https://maps.google.com/?cid=0x0:0xd62be884ac02d150,
hardware store,Toko Bahan Bangunan,Toko Maulida Bangunan,"35GX+XJP, Tanah Grogot, Kec. Tanah Grogot, Kabupaten Paser, Kalimantan Timur 76251","Tanah Grogot, Kec. Tanah Grogot, Kabupaten Paser",KALIMANTAN TIMUR,76251.0,Indonesia,81276932276.0,,,-1.9225572,116.199095,https://maps.google.com/?cid=0x0:0x7b440cc295d79b34,
hardware store,Toko Alat Tulis Kantor,Toko Revan,"Jl. Negara Jl. Padang Niung No.km 141, Batu Kajang, Kec. Batu Sopang, Kabupaten Paser, Kalimantan Timur RT18","Kabupaten Paser, Kalimantan Timur",KALIMANTAN TIMUR,,Indonesia,81349403106.0,,,-1.8311249,115.9227375,https://maps.google.com/?cid=0x0:0x7507baa893b26c36,
hardware store,Toko Bahan Bangunan,TB. Namira 1,"Jl. Ulin No.KM.04, Tepian Batang, Kec. Tanah Grogot, Kabupaten Paser, Kalimantan Timur 76211","Tepian Batang, Kec. Tanah Grogot, Kabupaten Paser",KALIMANTAN TIMUR,76211.0,Indonesia,81347890800.0,,,-1.8852938,116.170535,https://maps.google.com/?cid=0x0:0x50eaf485478ba865,
hardware store,Toko Bahan Bangunan,JM STEEL BESI TANAH GROGOT,"sebelah kiri dunia motor , ada halaman masuk ruko tingkat 2, Jl. Rm. Noto Sunardi, pintu, Kec. Tanah Grogot, Kabupaten Paser, Kalimantan Timur 76211","ada halaman masuk ruko tingkat 2, Jl. Rm. Noto Sunardi, pintu, Kec. Tanah Grogot, Kabupaten Paser",KALIMANTAN TIMUR,76211.0,Indonesia,,,,-1.9183458,116.1913018,https://maps.google.com/?cid=0x0:0x24628671f56153d,
hardware store,Pusat Perbelanjaan,Toko sarwani 2,"3693+8FF, Tanah Periuk, Kec. Tanah Grogot, Kabupaten Paser, Kalimantan Timur 76251","Tanah Periuk, Kec. Tanah Grogot, Kabupaten Paser",KALIMANTAN TIMUR,76251.0,Indonesia,81346396957.0,,,-1.9316881,116.2036837,https://maps.google.com/?cid=0x0:0x7347c1dac30ec630,
hardware store,Toko Bahan Bangunan,Toko Bangunan Sempurna,"44CG+FW7, Jl. Kuaro - Tanah Grogot, Lolo, Kec. Kuaro, Kabupaten Paser, Kalimantan Timur 76251","Jl. Kuaro - Tanah Grogot, Lolo, Kec. Kuaro, Kabupaten Paser",KALIMANTAN TIMUR,76251.0,Indonesia,85349315021.0,,,-1.8788415,116.1272838,https://maps.google.com/?cid=0x0:0x4138548a7b1494dc,
hardware store,Toko Bahan Bangunan,TB Pait Jaya,"C546+88H, Jalan Perkwin Blok A, Desa Pait, Lombok, Kec. Long Ikis, Kabupaten Paser, Kalimantan Timur 76282","Jalan Perkwin Blok A, Desa Pait, Lombok, Kec. Long Ikis, Kabupaten Paser",KALIMANTAN TIMUR,76282.0,Indonesia,82213633193.0,,,-1.5941878,116.1608667,https://maps.google.com/?cid=0x0:0x21a0606594e695ae,
hardware store,hardware store,Kec. Muara Samu,"Kabupaten Paser, Kalimantan Timur","Kabupaten Paser, Kalimantan Timur",KALIMANTAN TIMUR,,Indonesia,,,,-2.0162877,115.9362,https://maps.google.com/?cid=0x0:0xeca20db11136243f,
hardware store,Toko Perlengkapan Rumah,Tb. sumber cahaya rezeki,"4497+888, Lolo, Kec. Kuaro, Kabupaten Paser, Kalimantan Timur 76251","Lolo, Kec. Kuaro, Kabupaten Paser",KALIMANTAN TIMUR,76251.0,Indonesia,82152444141.0,,,-1.8820383,116.1137983,https://maps.google.com/?cid=0x0:0x35063498ca98e05a,
hardware store,Toko Bahan Bangunan,TB CAHAYA TIMUR,"Jl. Penajam-Kuaro, Kendarom, Kec. Kuaro, Kabupaten Paser, Kalimantan Timur 76281","Kendarom, Kec. Kuaro, Kabupaten Paser",KALIMANTAN TIMUR,76281.0,Indonesia,,,,-1.7932466,116.0991708,https://maps.google.com/?cid=0x0:0x3875632a205933f4,
hardware store,Toko,TB.Berkah Abadi,"Muara Uya, Kec. Muara Uya, Kabupaten Tabalong, Kalimantan Selatan 71573","Kec. Muara Uya, Kabupaten Tabalong",KALIMANTAN TIMUR,71573.0,Indonesia,,,,-1.8983645,115.6055499,https://maps.google.com/?cid=0x0:0x42043659ff477f9e,
hardware store,Pemasok Bahan Bangunan,Tb. Hulu Sungai,"4632+H6C, Jl. Untung Suropati, Jone, Kec. Tanah Grogot, Kabupaten Paser, Kalimantan Timur 76251","Jl. Untung Suropati, Jone, Kec. Tanah Grogot, Kabupaten Paser",KALIMANTAN TIMUR,76251.0,Indonesia,,,,-1.8960682,116.2005163,https://maps.google.com/?cid=0x0:0x245e1da06c4fe522,
hardware store,hardware store,FAQIH QHIRAN,"Toko Qhiran Faqih, Jl. Untung Suropati DEPAN GERBANG BTN No.RUKO 3, PINTU, Jone, Kec. Tanah Grogot, Kabupaten Paser, Kalimantan Timur 76211","Jl. Untung Suropati DEPAN GERBANG BTN No.RUKO 3, PINTU, Jone, Kec. Tanah Grogot, Kabupaten Paser",KALIMANTAN TIMUR,76211.0,Indonesia,81250000741.0,,,-1.9005505,116.2006949,https://maps.google.com/?cid=0x0:0x8a9ce847e7af1a88,
hardware store,hardware store,Pasir Belengkong,"Kec. Pasir Belengkong, Kabupaten Paser, Kalimantan Timur","Kabupaten Paser, Kalimantan Timur",KALIMANTAN TIMUR,,Indonesia,,,,-1.9689999,116.1950214,https://maps.google.com/?cid=0x0:0x6221fbd222a5cafb,
hardware store,Pemasok Bahan Bangunan,TOKO BANGUNAN,"2772+689, Suliliran Baru, Kec. Pasir Belengkong, Kabupaten Paser, Kalimantan Timur 76271","Suliliran Baru, Kec. Pasir Belengkong, Kabupaten Paser",KALIMANTAN TIMUR,76271.0,Indonesia,,,,-1.9868507,116.2512426,https://maps.google.com/?cid=0x0:0x67ad6022cc5b7b25,
hardware store,Toko Fotokopi,Foto Copy UNICOM,"Jl. Provinsi No.RT.07, Pasir Belengkong, Kec. Pasir Belengkong, Kabupaten Paser, Kalimantan Timur","Kabupaten Paser, Kalimantan Timur",KALIMANTAN TIMUR,,Indonesia,85339322931.0,,,-1.9511552,116.2096349,https://maps.google.com/?cid=0x0:0xb31ccb93677b1b15,
hardware store,Toko Bahan Bangunan,Toko Maulida Bangunan,"35GX+XJP, Tanah Grogot, Kec. Tanah Grogot, Kabupaten Paser, Kalimantan Timur 76251","Tanah Grogot, Kec. Tanah Grogot, Kabupaten Paser",KALIMANTAN TIMUR,76251.0,Indonesia,81276932276.0,,,-1.9225572,116.199095,https://maps.google.com/?cid=0x0:0x7b440cc295d79b34,
hardware store,Toko Bahan Bangunan,Toko Hadjie Sidie,"Jl. Yos Sudarso, Jone, Kec. Tanah Grogot, Kabupaten Paser, Kalimantan Timur 76251","Jone, Kec. Tanah Grogot, Kabupaten Paser",KALIMANTAN TIMUR,76251.0,Indonesia,,,,-1.9045604,116.2102742,https://maps.google.com/?cid=0x0:0xe10f324df411b2c4,
hardware store,Toko,MR.DIY,"Tanah Grogot, Kec. Tanah Grogot, Kabupaten Paser, Kalimantan Timur","Kabupaten Paser, Kalimantan Timur",KALIMANTAN TIMUR,,Indonesia,,,,-1.9106069,116.1968746,https://maps.google.com/?cid=0x0:0x7ad2fda191b275f7,
hardware store,Toko Alat Tulis,Toko Syafa (CV Manik Arum),"Pasir Belengkong, Kec. Pasir Belengkong, Kabupaten Paser, Kalimantan Timur 76271","Kec. Pasir Belengkong, Kabupaten Paser",KALIMANTAN TIMUR,76271.0,Indonesia,,,,-1.9899137,116.1864799,https://maps.google.com/?cid=0x0:0x359f20f9c389944b,
hardware store,Toko Bahan Bangunan,Toko Sumber Jaya Haikal,"Jl. Jend. Ahmad Yani, Tanah Grogot, Kec. Tanah Grogot, Kabupaten Paser, Kalimantan Timur 76251","Tanah Grogot, Kec. Tanah Grogot, Kabupaten Paser",KALIMANTAN TIMUR,76251.0,Indonesia,,,,-1.9058637,116.1976309,https://maps.google.com/?cid=0x0:0x387a451dc387b805,
hardware store,hardware store,FAQIH QHIRAN,"Toko Qhiran Faqih, Jl. Untung Suropati DEPAN GERBANG BTN No.RUKO 3, PINTU, Jone, Kec. Tanah Grogot, Kabupaten Paser, Kalimantan Timur 76211","Jl. Untung Suropati DEPAN GERBANG BTN No.RUKO 3, PINTU, Jone, Kec. Tanah Grogot, Kabupaten Paser",KALIMANTAN TIMUR,76211.0,Indonesia,81250000741.0,,,-1.9005505,116.2006949,https://maps.google.com/?cid=0x0:0x8a9ce847e7af1a88,
hardware store,Toko Bahan Bangunan,Toko Diamond,"35QX+4GM, Jl. Cut Nyak Dien, Tanah Grogot, Kec. Tanah Grogot, Kabupaten Paser, Kalimantan Timur 76251","Jl. Cut Nyak Dien, Tanah Grogot, Kec. Tanah Grogot, Kabupaten Paser",KALIMANTAN TIMUR,76251.0,Indonesia,,,,-1.9121676,116.1987961,https://maps.google.com/?cid=0x0:0x2ff89f157cbb5cb5,
hardware store,Toko Bahan Bangunan,JM STEEL BESI TANAH GROGOT,"sebelah kiri dunia motor , ada halaman masuk ruko tingkat 2, Jl. Rm. Noto Sunardi, pintu, Kec. Tanah Grogot, Kabupaten Paser, Kalimantan Timur 76211","ada halaman masuk ruko tingkat 2, Jl. Rm. Noto Sunardi, pintu, Kec. Tanah Grogot, Kabupaten Paser",KALIMANTAN TIMUR,76211.0,Indonesia,,,,-1.9183458,116.1913018,https://maps.google.com/?cid=0x0:0x24628671f56153d,
hardware store,Toko Perlengkapan Rumah,Pancar Bangunan1,"Jl. Yos Sudarso, Jone, Kec. Tanah Grogot, Kabupaten Paser, Kalimantan Timur 76251","Jone, Kec. Tanah Grogot, Kabupaten Paser",KALIMANTAN TIMUR,76251.0,Indonesia,85247471792.0,,,-1.9056724,116.2058486,https://maps.google.com/?cid=0x0:0x785df1fde06dd201,
hardware store,Toko Perlengkapan Rumah,TOKO BANGUNAN SERI JAYA,"Jl. MT. Haryono, Tanah Grogot, Kec. Tanah Grogot, Kabupaten Paser, Kalimantan Timur 76251","Tanah Grogot, Kec. Tanah Grogot, Kabupaten Paser",KALIMANTAN TIMUR,76251.0,Indonesia,85777883592.0,,,-1.9045655,116.2025189,https://maps.google.com/?cid=0x0:0xf42526f27a6e0f29,
hardware store,Pemasok Bahan Bangunan,Tb. Hulu Sungai,"4632+H6C, Jl. Untung Suropati, Jone, Kec. Tanah Grogot, Kabupaten Paser, Kalimantan Timur 76251","Jl. Untung Suropati, Jone, Kec. Tanah Grogot, Kabupaten Paser",KALIMANTAN TIMUR,76251.0,Indonesia,,,,-1.8960682,116.2005163,https://maps.google.com/?cid=0x0:0x245e1da06c4fe522,
hardware store,Toko Bahan Bangunan,Tb Sumber Jaya,"Jl. Anden Oko, Jone, Kec. Tanah Grogot, Kabupaten Paser, Kalimantan Timur 76251","Jone, Kec. Tanah Grogot, Kabupaten Paser",KALIMANTAN TIMUR,76251.0,Indonesia,,,,-1.903105,116.2028734,https://maps.google.com/?cid=0x0:0xe52591a80ddea57c,
hardware store,Dekorator interior,PRIANGAN GORDEN DAN WALLPAPER,"Jl. Untung Suropati Jl. Senaken, Tanah Grogot, Kec. Tanah Grogot, Kabupaten Paser, Kalimantan Timur 76211","Tanah Grogot, Kec. Tanah Grogot, Kabupaten Paser",KALIMANTAN TIMUR,76211.0,Indonesia,81250030502.0,,,-1.9020467,116.2015042,https://maps.google.com/?cid=0x0:0x8fd5da9bc00c8ac4,
hardware store,Toko Buku,"toko buku ikhlas, tanah grogot","Tanah Grogot, Kec. Tanah Grogot, Kabupaten Paser, Kalimantan Timur 76251","Kec. Tanah Grogot, Kabupaten Paser",KALIMANTAN TIMUR,76251.0,Indonesia,,,,-1.9001975,116.1916114,https://maps.google.com/?cid=0x0:0xbd1b5a61bc403e61,
hardware store,Toko Swalayan,Toko H. INA,"36X2+H8X, Jl. Untung Suropati, Jone, Kec. Tanah Grogot, Kabupaten Paser, Kalimantan Timur 76251","Jl. Untung Suropati, Jone, Kec. Tanah Grogot, Kabupaten Paser",KALIMANTAN TIMUR,76251.0,Indonesia,,,,-1.901017,116.2008562,https://maps.google.com/?cid=0x0:0x48879944d5e4dace,
hardware store,Pusat Perbelanjaan,TOKO PINTAR Pusat ATK Kado Ultah Grogot,"Depan BRI, Jl. RA Kartini, Tanah Grogot, Paser Regency, East Kalimantan 76251","Jl. RA Kartini, Tanah Grogot, Paser Regency",KALIMANTAN TIMUR,76251.0,Indonesia,81253819500.0,,,-1.9101823,116.1960721,https://maps.google.com/?cid=0x0:0x9511bbe46b7d674,
hardware store,hardware store,Priangan Gorden Cabang Jone (Toko Gorden),"454V+HC4, Tanah Grogot, Kec. Tanah Grogot, Kabupaten Paser, Kalimantan Timur","Kabupaten Paser, Kalimantan Timur",KALIMANTAN TIMUR,,Indonesia,81394807513.0,,,-1.8936105,116.1935858,https://maps.google.com/?cid=0x0:0x73d89006b8ef6be0,
hardware store,Toko Bahan Bangunan,Toko bangunan,"Jln sultan hasanudin RT. 13/02. Nomor A.919, Tanah Grogot, Kec. Tanah Grogot, Kabupaten Paser, Kalimantan Timur 76211","Tanah Grogot, Kec. Tanah Grogot, Kabupaten Paser",KALIMANTAN TIMUR,76211.0,Indonesia,85346327521.0,,,-1.9008386,116.1950741,https://maps.google.com/?cid=0x0:0xa6f163f1d471e682,
hardware store,hardware store,Kalimantan Timur 76251,"Kabupaten Paser, Kalimantan Timur","Kabupaten Paser, Kalimantan Timur",KALIMANTAN TIMUR,,Indonesia,,,,-1.8898443,116.1832068,https://maps.google.com/?cid=0x0:0xca69f8ee7df89d8f,
hardware store,Toko,MR.DIY,"Tanah Grogot, Kec. Tanah Grogot, Kabupaten Paser, Kalimantan Timur","Kabupaten Paser, Kalimantan Timur",KALIMANTAN TIMUR,,Indonesia,,,,-1.9106069,116.1968746,https://maps.google.com/?cid=0x0:0x7ad2fda191b275f7,
hardware store,Toko Bahan Bangunan,Toko Hadjie Sidie,"Jl. Yos Sudarso, Jone, Kec. Tanah Grogot, Kabupaten Paser, Kalimantan Timur 76251","Jone, Kec. Tanah Grogot, Kabupaten Paser",KALIMANTAN TIMUR,76251.0,Indonesia,,,,-1.9045604,116.2102742,https://maps.google.com/?cid=0x0:0xe10f324df411b2c4,
hardware store,Toko Bahan Bangunan,Toko Sumber Jaya Haikal,"Jl. Jend. Ahmad Yani, Tanah Grogot, Kec. Tanah Grogot, Kabupaten Paser, Kalimantan Timur 76251","Tanah Grogot, Kec. Tanah Grogot, Kabupaten Paser",KALIMANTAN TIMUR,76251.0,Indonesia,,,,-1.9058637,116.1976309,https://maps.google.com/?cid=0x0:0x387a451dc387b805,
hardware store,Pusat Perbelanjaan,Toko sarwani 2,"3693+8FF, Tanah Periuk, Kec. Tanah Grogot, Kabupaten Paser, Kalimantan Timur 76251","Tanah Periuk, Kec. Tanah Grogot, Kabupaten Paser",KALIMANTAN TIMUR,76251.0,Indonesia,81346396957.0,,,-1.9316881,116.2036837,https://maps.google.com/?cid=0x0:0x7347c1dac30ec630,
hardware store,Toko Bahan Bangunan,Toko Diamond,"35QX+4GM, Jl. Cut Nyak Dien, Tanah Grogot, Kec. Tanah Grogot, Kabupaten Paser, Kalimantan Timur 76251","Jl. Cut Nyak Dien, Tanah Grogot, Kec. Tanah Grogot, Kabupaten Paser",KALIMANTAN TIMUR,76251.0,Indonesia,,,,-1.9121676,116.1987961,https://maps.google.com/?cid=0x0:0x2ff89f157cbb5cb5,
hardware store,Toko Perlengkapan Rumah,Pancar Bangunan1,"Jl. Yos Sudarso, Jone, Kec. Tanah Grogot, Kabupaten Paser, Kalimantan Timur 76251","Jone, Kec. Tanah Grogot, Kabupaten Paser",KALIMANTAN TIMUR,76251.0,Indonesia,85247471792.0,,,-1.9056724,116.2058486,https://maps.google.com/?cid=0x0:0x785df1fde06dd201,
hardware store,hardware store,FAQIH QHIRAN,"Toko Qhiran Faqih, Jl. Untung Suropati DEPAN GERBANG BTN No.RUKO 3, PINTU, Jone, Kec. Tanah Grogot, Kabupaten Paser, Kalimantan Timur 76211","Jl. Untung Suropati DEPAN GERBANG BTN No.RUKO 3, PINTU, Jone, Kec. Tanah Grogot, Kabupaten Paser",KALIMANTAN TIMUR,76211.0,Indonesia,81250000741.0,,,-1.9005505,116.2006949,https://maps.google.com/?cid=0x0:0x8a9ce847e7af1a88,
hardware store,Toko Bahan Bangunan,JM STEEL BESI TANAH GROGOT,"sebelah kiri dunia motor , ada halaman masuk ruko tingkat 2, Jl. Rm. Noto Sunardi, pintu, Kec. Tanah Grogot, Kabupaten Paser, Kalimantan Timur 76211","ada halaman masuk ruko tingkat 2, Jl. Rm. Noto Sunardi, pintu, Kec. Tanah Grogot, Kabupaten Paser",KALIMANTAN TIMUR,76211.0,Indonesia,,,,-1.9183458,116.1913018,https://maps.google.com/?cid=0x0:0x24628671f56153d,
hardware store,Toko Perlengkapan Rumah,TOKO BANGUNAN SERI JAYA,"Jl. MT. Haryono, Tanah Grogot, Kec. Tanah Grogot, Kabupaten Paser, Kalimantan Timur 76251","Tanah Grogot, Kec. Tanah Grogot, Kabupaten Paser",KALIMANTAN TIMUR,76251.0,Indonesia,85777883592.0,,,-1.9045655,116.2025189,https://maps.google.com/?cid=0x0:0xf42526f27a6e0f29,
hardware store,Toko Bahan Bangunan,Tb Sumber Jaya,"Jl. Anden Oko, Jone, Kec. Tanah Grogot, Kabupaten Paser, Kalimantan Timur 76251","Jone, Kec. Tanah Grogot, Kabupaten Paser",KALIMANTAN TIMUR,76251.0,Indonesia,,,,-1.903105,116.2028734,https://maps.google.com/?cid=0x0:0xe52591a80ddea57c,
hardware store,Toko Bahan Bangunan,TB. Namira 1,"Jl. Ulin No.KM.04, Tepian Batang, Kec. Tanah Grogot, Kabupaten Paser, Kalimantan Timur 76211","Tepian Batang, Kec. Tanah Grogot, Kabupaten Paser",KALIMANTAN TIMUR,76211.0,Indonesia,81347890800.0,,,-1.8852938,116.170535,https://maps.google.com/?cid=0x0:0x50eaf485478ba865,
hardware store,Toko,Toko Nuansa Elektronik - Grogot,"Jl. R. A Kartini No.56, Tanah Grogot, Kec. Tanah Grogot, Kabupaten Paser, Kalimantan Timur 76251","Tanah Grogot, Kec. Tanah Grogot, Kabupaten Paser",KALIMANTAN TIMUR,76251.0,Indonesia,8115432345.0,,,-1.9101886,116.1960294,https://maps.google.com/?cid=0x0:0x5132db73160b21db,
hardware store,Pemasok Bahan Bangunan,Tb. Hulu Sungai,"4632+H6C, Jl. Untung Suropati, Jone, Kec. Tanah Grogot, Kabupaten Paser, Kalimantan Timur 76251","Jl. Untung Suropati, Jone, Kec. Tanah Grogot, Kabupaten Paser",KALIMANTAN TIMUR,76251.0,Indonesia,,,,-1.8960682,116.2005163,https://maps.google.com/?cid=0x0:0x245e1da06c4fe522,
hardware store,Toko Bahan Bangunan,Toko Bangunan Sempurna,"44CG+FW7, Jl. Kuaro - Tanah Grogot, Lolo, Kec. Kuaro, Kabupaten Paser, Kalimantan Timur 76251","Jl. Kuaro - Tanah Grogot, Lolo, Kec. Kuaro, Kabupaten Paser",KALIMANTAN TIMUR,76251.0,Indonesia,85349315021.0,,,-1.8788415,116.1272838,https://maps.google.com/?cid=0x0:0x4138548a7b1494dc,
hardware store,Toko Buku,"toko buku ikhlas, tanah grogot","Tanah Grogot, Kec. Tanah Grogot, Kabupaten Paser, Kalimantan Timur 76251","Kec. Tanah Grogot, Kabupaten Paser",KALIMANTAN TIMUR,76251.0,Indonesia,,,,-1.9001975,116.1916114,https://maps.google.com/?cid=0x0:0xbd1b5a61bc403e61,
hardware store,Toko Swalayan,Toko H. INA,"36X2+H8X, Jl. Untung Suropati, Jone, Kec. Tanah Grogot, Kabupaten Paser, Kalimantan Timur 76251","Jl. Untung Suropati, Jone, Kec. Tanah Grogot, Kabupaten Paser",KALIMANTAN TIMUR,76251.0,Indonesia,,,,-1.901017,116.2008562,https://maps.google.com/?cid=0x0:0x48879944d5e4dace,
hardware store,Pusat Perbelanjaan,TOKO PINTAR Pusat ATK Kado Ultah Grogot,"Depan BRI, Jl. RA Kartini, Tanah Grogot, Paser Regency, East Kalimantan 76251","Jl. RA Kartini, Tanah Grogot, Paser Regency",KALIMANTAN TIMUR,76251.0,Indonesia,81253819500.0,,,-1.9101823,116.1960721,https://maps.google.com/?cid=0x0:0x9511bbe46b7d674,
hardware store,hardware store,Priangan Gorden Cabang Jone (Toko Gorden),"454V+HC4, Tanah Grogot, Kec. Tanah Grogot, Kabupaten Paser, Kalimantan Timur","Kabupaten Paser, Kalimantan Timur",KALIMANTAN TIMUR,,Indonesia,81394807513.0,,,-1.8936105,116.1935858,https://maps.google.com/?cid=0x0:0x73d89006b8ef6be0,
hardware store,Toko Kayu,Moldeng kayu BARU JAYA ABADI,"Simpang tiga tapis, Jl. Mahkota Kp., Jone, Kec. Tanah Grogot, Kabupaten Paser, Kalimantan Timur 76251","Jl. Mahkota Kp., Jone, Kec. Tanah Grogot, Kabupaten Paser",KALIMANTAN TIMUR,76251.0,Indonesia,81348996329.0,,,-1.8764781,116.2075276,https://maps.google.com/?cid=0x0:0xcdbf50345498ce63,
hardware store,Toko Elektronik,ANANG ELEKTRONIK sparepart  elektronik,"Jl. RA Kartini, Tanah Grogot, Kec. Tanah Grogot, Kabupaten Paser, Kalimantan Timur 76251","Tanah Grogot, Kec. Tanah Grogot, Kabupaten Paser",KALIMANTAN TIMUR,76251.0,Indonesia,85977242256.0,,,-1.9098443,116.1956816,https://maps.google.com/?cid=0x0:0x45ea8ea485efe3f5,
hardware store,Toko Bahan Bangunan,TB. Ihza Bangun Jaya,"Jl. Kuaro - Tanah Grogot, Kuaro, Kec. Kuaro, Kabupaten Paser, Kalimantan Timur 76281","Kuaro, Kec. Kuaro, Kabupaten Paser",KALIMANTAN TIMUR,76281.0,Indonesia,82157338754.0,,,-1.8320445,116.0822179,https://maps.google.com/?cid=0x0:0x6a6d0c21301e97f0,
hardware store,Kantor Perusahaan,CineGripTools - Film Grip  Tools Indonesia (ARRI Authorized Dealer),"Jl. Bungur Dalam No.6 (Bungur Indah, RT.5/RW.5, Bangka, Kec. Mampang Prpt., Kota Jakarta Selatan, Daerah Khusus Ibukota Jakarta 12730","RT.5/RW.5, Bangka, Kec. Mampang Prpt., Kota Jakarta Selatan",KALIMANTAN TIMUR,12730.0,Indonesia,,,,-6.2605634,106.8206493,https://maps.google.com/?cid=0x0:0x42e6bf35f202ecd4,
hardware store,Jasa penyewaan peralatan audio visual,Cinebro Rental,"Jl. Nusa Indah No.2 No.31 AB, RT.4/RW.5, South Cipete, Cilandak, South Jakarta City, Jakarta 12410","RT.4/RW.5, South Cipete, Cilandak, South Jakarta City",KALIMANTAN TIMUR,12410.0,Indonesia,85921567375.0,,,-6.2706535,106.8010315,https://maps.google.com/?cid=0x0:0xeed92e5bc8fd7f2b,
hardware store,Toko Bahan Bangunan,Toko Hadjie Sidie,"Jl. Yos Sudarso, Jone, Kec. Tanah Grogot, Kabupaten Paser, Kalimantan Timur 76251","Jone, Kec. Tanah Grogot, Kabupaten Paser",KALIMANTAN TIMUR,76251.0,Indonesia,,,,-1.9045604,116.2102742,https://maps.google.com/?cid=0x0:0xe10f324df411b2c4,
hardware store,Produsen,Workshop Inovasi,"Gudang Klp. Tua, Jl. Pd. Jagung No.72, Pd. Jagung Tim., Kec. Serpong Utara, Kota Tangerang Selatan, Banten 15326","Jl. Pd. Jagung No.72, Pd. Jagung Tim., Kec. Serpong Utara, Kota Tangerang Selatan",KALIMANTAN TIMUR,15326.0,Indonesia,,,,-6.2468241,106.6689851,https://maps.google.com/?cid=0x0:0x3ba7b76a8e11d3d4,
hardware store,Toko Perlengkapan Rumah,PT Profitto Inovasi Kreatif,"Komp. Pergudangan T8, Jl. Sutera Niaga III No.3E, Pakulonan, Kec. Serpong Utara, Kota Tangerang Selatan, Banten 15325","Jl. Sutera Niaga III No.3E, Pakulonan, Kec. Serpong Utara, Kota Tangerang Selatan",KALIMANTAN TIMUR,15325.0,Indonesia,87858988881.0,,,-6.2392855,106.649986,https://maps.google.com/?cid=0x0:0x9f367731f119e9d,
hardware store,Toko Perlengkapan Rumah,PT Profitto Inovasi Kreatif,"Komp. Pergudangan T8, Jl. Sutera Niaga III No.3E, Pakulonan, Kec. Serpong Utara, Kota Tangerang Selatan, Banten 15325","Jl. Sutera Niaga III No.3E, Pakulonan, Kec. Serpong Utara, Kota Tangerang Selatan",KALIMANTAN TIMUR,15325.0,Indonesia,87858988881.0,,,-6.2392855,106.649986,https://maps.google.com/?cid=0x0:0x9f367731f119e9d,
hardware store,Produsen,Workshop Inovasi,"Gudang Klp. Tua, Jl. Pd. Jagung No.72, Pd. Jagung Tim., Kec. Serpong Utara, Kota Tangerang Selatan, Banten 15326","Jl. Pd. Jagung No.72, Pd. Jagung Tim., Kec. Serpong Utara, Kota Tangerang Selatan",KALIMANTAN TIMUR,15326.0,Indonesia,,,,-6.2468241,106.6689851,https://maps.google.com/?cid=0x0:0x3ba7b76a8e11d3d4,
hardware store,Toko Bahan Bangunan,TB.KOKOH JAYA Baru,"X3GG+749, Jl. Balikpapan - Handil 2, Wonotirto, Kec. Samboja, Kabupaten Kutai Kartanegara, Kalimantan Timur 75274","Jl. Balikpapan - Handil 2, Wonotirto, Kec. Samboja, Kabupaten Kutai Kartanegara",KALIMANTAN TIMUR,75274.0,Indonesia,85246507808.0,,,-1.0243337,117.0753648,https://maps.google.com/?cid=0x0:0x7e625acd6f248e84,
hardware store,Cagar Alam,Cape of Good Hope,"Cape Peninsula, Cape Town, Afrika Selatan","Cape Town, Afrika Selatan",KALIMANTAN TIMUR,,Indonesia,,,,-34.3351829,18.4580844,https://maps.google.com/?cid=0x0:0x53ed3dfdc96ffca1,
hardware store,Museum,Tanjung Harapan,"Cape Point Rd, Cape Town, 8001, Afrika Selatan","Cape Town, Afrika Selatan",KALIMANTAN TIMUR,,Indonesia,27217809526.0,,,-34.3568425,18.4739882,https://maps.google.com/?cid=0x0:0x35285cf1b77ca2e9,
hardware store,hardware store,Toko Atk Nazril,"Samboja Kuala, Kec. Samboja, Kabupaten Kutai Kartanegara, Kalimantan Timur","Kabupaten Kutai Kartanegara, Kalimantan Timur",KALIMANTAN TIMUR,,Indonesia,,,,-1.018424,117.082054,https://maps.google.com/?cid=0x0:0xcfb399598dd390d0,
hardware store,Toko Bahan Bangunan,Toko Bumi Harapan Indah,"3QVG+3CW, Sukaraja, Kec. Sepaku, Kabupaten Penajam Paser Utara, Kalimantan Timur 76147","Sukaraja, Kec. Sepaku, Kabupaten Penajam Paser Utara",KALIMANTAN TIMUR,76147.0,Indonesia,,,,-0.9072712,116.7760732,https://maps.google.com/?cid=0x0:0x1a1ec68f08e8022d,
hardware store,Toko Bahan Bangunan,Toko bangunan Sinar Terang Sepaku 1,"Jl. Negara No.2, Bukit Raya, Kec. Sepaku, Kabupaten Penajam Paser Utara, Kalimantan Timur 76148","Bukit Raya, Kec. Sepaku, Kabupaten Penajam Paser Utara",KALIMANTAN TIMUR,76148.0,Indonesia,,,,-0.9138427,116.7631601,https://maps.google.com/?cid=0x0:0x3159567434a8214d,
hardware store,Desainer interior,HARAPAN INDAH PERKAKAS,"Jl. KH. Ahmad Dahlan No.12 B, RT.005/RW.009, Petir, Kec. Cipondoh, Kota Tangerang, Banten 15147","RT.005/RW.009, Petir, Kec. Cipondoh, Kota Tangerang",KALIMANTAN TIMUR,15147.0,Indonesia,8192008838.0,,,-6.18835,106.7125506,https://maps.google.com/?cid=0x0:0xa57bb9961f26f997,
hardware store,Toko Perlengkapan Rumah,PT Profitto Inovasi Kreatif,"Komp. Pergudangan T8, Jl. Sutera Niaga III No.3E, Pakulonan, Kec. Serpong Utara, Kota Tangerang Selatan, Banten 15325","Jl. Sutera Niaga III No.3E, Pakulonan, Kec. Serpong Utara, Kota Tangerang Selatan",KALIMANTAN TIMUR,15325.0,Indonesia,87858988881.0,,,-6.2392855,106.649986,https://maps.google.com/?cid=0x0:0x9f367731f119e9d,
hardware store,Produsen,Workshop Inovasi,"Gudang Klp. Tua, Jl. Pd. Jagung No.72, Pd. Jagung Tim., Kec. Serpong Utara, Kota Tangerang Selatan, Banten 15326","Jl. Pd. Jagung No.72, Pd. Jagung Tim., Kec. Serpong Utara, Kota Tangerang Selatan",KALIMANTAN TIMUR,15326.0,Indonesia,,,,-6.2468241,106.6689851,https://maps.google.com/?cid=0x0:0x3ba7b76a8e11d3d4,
hardware store,Toko Aki Mobil,Canary aki,"Jl. Teras Citra, Cukang Galih, Kec. Curug, Kabupaten Tangerang, Banten 15810","Cukang Galih, Kec. Curug, Kabupaten Tangerang",KALIMANTAN TIMUR,15810.0,Indonesia,87738140736.0,,,-6.254915,106.5429251,https://maps.google.com/?cid=0x0:0x41ee3d27a55e8ea4,
hardware store,Desainer interior,HARAPAN INDAH PERKAKAS,"Jl. KH. Ahmad Dahlan No.12 B, RT.005/RW.009, Petir, Kec. Cipondoh, Kota Tangerang, Banten 15147","RT.005/RW.009, Petir, Kec. Cipondoh, Kota Tangerang",KALIMANTAN TIMUR,15147.0,Indonesia,8192008838.0,,,-6.18835,106.7125506,https://maps.google.com/?cid=0x0:0xa57bb9961f26f997,
hardware store,Toko Perlengkapan Rumah,Toko Mitra HPL (SUDAH TUTUP) APABILA ADA PROJEK BISA DILAYANIN,"Blok A2 No. 3B, Cipondoh Indah, Ruko Poris Garden, RT.001/RW.4, Cipondoh Indah, Kec. Tangerang, Kota Tangerang, Banten 15148","Cipondoh Indah, Ruko Poris Garden, RT.001/RW.4, Cipondoh Indah, Kec. Tangerang, Kota Tangerang",KALIMANTAN TIMUR,15148.0,Indonesia,8118907788.0,,,-6.1745367,106.6868986,https://maps.google.com/?cid=0x0:0x9788abb4bcfcd483,
hardware store,Toko Perlengkapan Rumah,PT Profitto Inovasi Kreatif,"Komp. Pergudangan T8, Jl. Sutera Niaga III No.3E, Pakulonan, Kec. Serpong Utara, Kota Tangerang Selatan, Banten 15325","Jl. Sutera Niaga III No.3E, Pakulonan, Kec. Serpong Utara, Kota Tangerang Selatan",KALIMANTAN TIMUR,15325.0,Indonesia,87858988881.0,,,-6.2392855,106.649986,https://maps.google.com/?cid=0x0:0x9f367731f119e9d,
hardware store,Produsen,Workshop Inovasi,"Gudang Klp. Tua, Jl. Pd. Jagung No.72, Pd. Jagung Tim., Kec. Serpong Utara, Kota Tangerang Selatan, Banten 15326","Jl. Pd. Jagung No.72, Pd. Jagung Tim., Kec. Serpong Utara, Kota Tangerang Selatan",KALIMANTAN TIMUR,15326.0,Indonesia,,,,-6.2468241,106.6689851,https://maps.google.com/?cid=0x0:0x3ba7b76a8e11d3d4,
hardware store,hardware store,Kec. Tj. Harapan,"Kabupaten Paser, Kalimantan Timur","Kabupaten Paser, Kalimantan Timur",KALIMANTAN TIMUR,,Indonesia,,,,-2.3314575,116.4464809,https://maps.google.com/?cid=0x0:0xc713b1fba97cb40c,
hardware store,Toko Bahan Bangunan,Toko Cahaya Harapan,"Jl. Langgar No.53 4, RT.2/RW.6, Tj. Bar., Kec. Jagakarsa, Kota Jakarta Selatan, Daerah Khusus Ibukota Jakarta 12530","RT.2/RW.6, Tj. Bar., Kec. Jagakarsa, Kota Jakarta Selatan",KALIMANTAN TIMUR,12530.0,Indonesia,,,,-6.3102398,106.8468403,https://maps.google.com/?cid=0x0:0xc3ddc8847750624e,
hardware store,Toko Bahan Bangunan,TB Sinar Harapan,"Jl. Poltangan Raya No.3, RT.1/RW.4, Tj. Bar., Kec. Jagakarsa, Kota Jakarta Selatan, Daerah Khusus Ibukota Jakarta 12530","RT.1/RW.4, Tj. Bar., Kec. Jagakarsa, Kota Jakarta Selatan",KALIMANTAN TIMUR,12530.0,Indonesia,85166899153.0,,,-6.296469,106.8440872,https://maps.google.com/?cid=0x0:0x2af522390af9c1d8,
hardware store,Toko Perlengkapan Rumah,PT Profitto Inovasi Kreatif,"Komp. Pergudangan T8, Jl. Sutera Niaga III No.3E, Pakulonan, Kec. Serpong Utara, Kota Tangerang Selatan, Banten 15325","Jl. Sutera Niaga III No.3E, Pakulonan, Kec. Serpong Utara, Kota Tangerang Selatan",KALIMANTAN TIMUR,15325.0,Indonesia,87858988881.0,,,-6.2392855,106.649986,https://maps.google.com/?cid=0x0:0x9f367731f119e9d,
hardware store,Produsen,Workshop Inovasi,"Gudang Klp. Tua, Jl. Pd. Jagung No.72, Pd. Jagung Tim., Kec. Serpong Utara, Kota Tangerang Selatan, Banten 15326","Jl. Pd. Jagung No.72, Pd. Jagung Tim., Kec. Serpong Utara, Kota Tangerang Selatan",KALIMANTAN TIMUR,15326.0,Indonesia,,,,-6.2468241,106.6689851,https://maps.google.com/?cid=0x0:0x3ba7b76a8e11d3d4,
hardware store,Toko Bahan Bangunan,Toko Bumi Harapan Indah,"3QVG+3CW, Sukaraja, Kec. Sepaku, Kabupaten Penajam Paser Utara, Kalimantan Timur 76147","Sukaraja, Kec. Sepaku, Kabupaten Penajam Paser Utara",KALIMANTAN TIMUR,76147.0,Indonesia,,,,-0.9072712,116.7760732,https://maps.google.com/?cid=0x0:0x1a1ec68f08e8022d,
hardware store,Toko Bahan Bangunan,Toko Cahaya Harapan,"Jl. Langgar No.53 4, RT.2/RW.6, Tj. Bar., Kec. Jagakarsa, Kota Jakarta Selatan, Daerah Khusus Ibukota Jakarta 12530","RT.2/RW.6, Tj. Bar., Kec. Jagakarsa, Kota Jakarta Selatan",KALIMANTAN TIMUR,12530.0,Indonesia,,,,-6.3102398,106.8468403,https://maps.google.com/?cid=0x0:0xc3ddc8847750624e,
hardware store,Toko Bahan Bangunan,TB Sinar Harapan,"Jl. Poltangan Raya No.3, RT.1/RW.4, Tj. Bar., Kec. Jagakarsa, Kota Jakarta Selatan, Daerah Khusus Ibukota Jakarta 12530","RT.1/RW.4, Tj. Bar., Kec. Jagakarsa, Kota Jakarta Selatan",KALIMANTAN TIMUR,12530.0,Indonesia,85166899153.0,,,-6.296469,106.8440872,https://maps.google.com/?cid=0x0:0x2af522390af9c1d8,
hardware store,hardware store,Kec. Tj. Harapan,"Kabupaten Paser, Kalimantan Timur","Kabupaten Paser, Kalimantan Timur",KALIMANTAN TIMUR,,Indonesia,,,,-2.3314575,116.4464809,https://maps.google.com/?cid=0x0:0xc713b1fba97cb40c,
hardware store,Toko Bahan Bangunan,Toko BANGUN JAYA RAYA / GALLERY TEKNIK,"PQQ7+5X9, Penajam, Kabupaten Penajam Paser Utara, Kalimantan Timur 76142","Penajam, Kabupaten Penajam Paser Utara",KALIMANTAN TIMUR,76142.0,Indonesia,811545424.0,,,-1.2620977,116.7649939,https://maps.google.com/?cid=0x0:0xe08bc4f9c21a385e,
hardware store,Toko Bahan Bangunan,TOKO BJR TRUSS PENAJAM IKN,"Jl. Propinsi No.5, Penajam, Kabupaten Penajam Paser Utara, Kalimantan Timur 76142","Penajam, Kabupaten Penajam Paser Utara",KALIMANTAN TIMUR,76142.0,Indonesia,811545424.0,,,-1.2619936,116.7648304,https://maps.google.com/?cid=0x0:0x6d057caee41e6f72,
hardware store,Toko Bahan Bangunan,TB Sinar Harapan,"Jl. Poltangan Raya No.3, RT.1/RW.4, Tj. Bar., Kec. Jagakarsa, Kota Jakarta Selatan, Daerah Khusus Ibukota Jakarta 12530","RT.1/RW.4, Tj. Bar., Kec. Jagakarsa, Kota Jakarta Selatan",KALIMANTAN TIMUR,12530.0,Indonesia,85166899153.0,,,-6.296469,106.8440872,https://maps.google.com/?cid=0x0:0x2af522390af9c1d8,
