Category,Real Category,Business Name,Address,City,State,Postal Code,Country,Phone,Email,Website,Latitude,Longitude,Map Link,Details Link
mall,mall,Kalimantan Timur 76261,"Kabupaten Paser, Kalimantan Timur","Kabupaten Paser, Kalimantan Timur",KALIMANTAN TIMUR,,Indonesia,,,,-2.2765227,116.3249438,https://maps.google.com/?cid=0x0:0x5de4285e897f4e53,
mall,Toko,Toko syasya,"Q3CG+33G, Kerang, Kec. Batu Engau, Kabupaten Paser, Kalimantan Timur 76261","Kerang, Kec. Batu Engau, Kabupaten Paser",KALIMANTAN TIMUR,76261.0,Indonesia,8125428672.0,,,-2.2298194,116.0752026,https://maps.google.com/?cid=0x0:0x42ee614dd963a868,
mall,Broker Makanan,Pentol Daging,"Q3FF+74W, Kerang, Kec. Batu Engau, Kabupaten Paser, Kalimantan Timur 76261","Kerang, Kec. Batu Engau, Kabupaten Paser",KALIMANTAN TIMUR,76261.0,Indonesia,82143025650.0,,,-2.2267726,116.0728172,https://maps.google.com/?cid=0x0:0xea94d45e13ef3a,
mall,Pusat Perbelanjaan,TOKO BU TARI,"M7QW+G66, Unnamed Road, Lomu, Kec. Batu Engau, Kabupaten Paser, Kalimantan Timur 76261","Unnamed Road, Lomu, Kec. Batu Engau, Kabupaten Paser",KALIMANTAN TIMUR,76261.0,Indonesia,85246438570.0,,,-2.311209,116.295522,https://maps.google.com/?cid=0x0:0x12d92ec1b322fc8d,
mall,Pasar,Toko agung sayur,"V4P3+8JH, Jl. Jenderal Sudirman, Petangis, Kec. Batu Engau, Kabupaten Paser, Kalimantan Timur 76261","Jl. Jenderal Sudirman, Petangis, Kec. Batu Engau, Kabupaten Paser",KALIMANTAN TIMUR,76261.0,Indonesia,85245998533.0,,,-2.1141753,116.1041045,https://maps.google.com/?cid=0x0:0xbb668cec7babb739,
mall,Toko Perlengkapan Rumah,Toko Fahri,"X488+7Q2, Desa, Saing, Prupuk Rt, 003, Petangis, Kec. Batu Engau, Kabupaten Paser, Kalimantan Timur 76271","Desa, Saing, Prupuk Rt, 003, Petangis, Kec. Batu Engau, Kabupaten Paser",KALIMANTAN TIMUR,76271.0,Indonesia,81254773834.0,,,-2.0343651,116.116889,https://maps.google.com/?cid=0x0:0x4a03e1530312c1c9,
mall,Toko umum,Mengkudu Photo  Cell,"P5C6+6F9, Mengkudu, Kec. Batu Engau, Kabupaten Paser, Kalimantan Timur 76261","Mengkudu, Kec. Batu Engau, Kabupaten Paser",KALIMANTAN TIMUR,76261.0,Indonesia,81328423399.0,,,-2.2794701,116.1612224,https://maps.google.com/?cid=0x0:0x70f1cc0dcb083ef2,
mall,Toko,Toko Rafly,"W4XC+968, Jl. Jenderal Sudirman, Petangis, Kec. Batu Engau, Kabupaten Paser, Kalimantan Timur 76271","Jl. Jenderal Sudirman, Petangis, Kec. Batu Engau, Kabupaten Paser",KALIMANTAN TIMUR,76271.0,Indonesia,81254962025.0,,,-2.0515986,116.120584,https://maps.google.com/?cid=0x0:0x4edb831483ec6f4c,
mall,Pusat Perbelanjaan,Bilkids/Ranty Drwskincare,"R4R4+CPC, Jl. Jenderal Sudirman, Kerang, Kec. Batu Engau, Kabupaten Paser, Kalimantan Timur 76261","Jl. Jenderal Sudirman, Kerang, Kec. Batu Engau, Kabupaten Paser",KALIMANTAN TIMUR,76261.0,Indonesia,81257202474.0,,,-2.1590219,116.1067658,https://maps.google.com/?cid=0x0:0xfb8273521a789c02,
mall,Toko Perlengkapan Rumah,Toko PUTRA MANDIRI,"Jl. Jenderal Sudirman No.RT 01, Petangis, Kec. Batu Engau, Kabupaten Paser, Kalimantan Timur 76261","Petangis, Kec. Batu Engau, Kabupaten Paser",KALIMANTAN TIMUR,76261.0,Indonesia,85259210018.0,,,-2.1011319,116.1102249,https://maps.google.com/?cid=0x0:0x242156da6767114a,
mall,Pusat Perbelanjaan,Aytha house,"Q39G+J22, Kerang, Kec. Batu Engau, Kabupaten Paser, Kalimantan Timur 76261","Kerang, Kec. Batu Engau, Kabupaten Paser",KALIMANTAN TIMUR,76261.0,Indonesia,82157571530.0,,,-2.2309883,116.0750024,https://maps.google.com/?cid=0x0:0x8535c167d4fd2117,
mall,Warnet,Warung Wifi Asran Hotsopt,"Petangis, Kec. Batu Engau, Kabupaten Paser, Kalimantan Timur 76271","Kec. Batu Engau, Kabupaten Paser",KALIMANTAN TIMUR,76271.0,Indonesia,,,,-2.0366852,116.1174859,https://maps.google.com/?cid=0x0:0x88abe0d7d7d05279,
mall,mall,Zaky Cell,"Mengkudu, Kec. Batu Engau, Kabupaten Paser, Kalimantan Timur 76262","Kec. Batu Engau, Kabupaten Paser",KALIMANTAN TIMUR,76262.0,Indonesia,82252077291.0,,,-2.2633953,116.208832,https://maps.google.com/?cid=0x0:0xa1456ba530b734e,
mall,Toko,Pasar Sekayu Baru,"M5RQ+H52, Sekayu Baru, Kec. Pamukan Utara, Kab. Kotabaru, Kalimantan Selatan 76261","Sekayu Baru, Kec. Pamukan Utara, Kab. Kotabaru",KALIMANTAN TIMUR,76261.0,Indonesia,,,,-2.3086025,116.1878795,https://maps.google.com/?cid=0x0:0xc94d22027cf22223,
mall,Pasar,Toko Kerang Jaya,"polsek No.depan, RT.3, Kerang, Tana paser grogot, Kabupaten Paser, Kalimantan Timur 76262","RT.3, Kerang, Tana paser grogot, Kabupaten Paser",KALIMANTAN TIMUR,76262.0,Indonesia,81295123829.0,,,-2.2246761,116.0740405,https://maps.google.com/?cid=0x0:0x24b1bf05649e4f02,
mall,Rumah Makan,WARUNG CHANDRA,"Jalan negara tana paser kerang Km.31, ds, saing prupuk, Tanah grogot, Kalimantan Timur 76262","ds, saing prupuk, Tanah grogot",KALIMANTAN TIMUR,76262.0,Indonesia,81358583344.0,,,-2.0341529,116.1167805,https://maps.google.com/?cid=0x0:0x25e65136d591d443,
mall,Pasar,Pasar Laburan Baru,"28M6+JPX, Laburan Baru, Kec. Pasir Belengkong, Kabupaten Paser, Kalimantan Timur 76271","Laburan Baru, Kec. Pasir Belengkong, Kabupaten Paser",KALIMANTAN TIMUR,76271.0,Indonesia,,,,-1.9658764,116.3118603,https://maps.google.com/?cid=0x0:0xebe058b8435804ba,
mall,Kantor Perusahaan,PT M3A,"R3XM+JG8, Kerang, Kec. Batu Engau, Kabupaten Paser, Kalimantan Timur 76261","Kerang, Kec. Batu Engau, Kabupaten Paser",KALIMANTAN TIMUR,76261.0,Indonesia,,,,-2.1509535,116.0838379,https://maps.google.com/?cid=0x0:0x4e794b7a8f78a543,
mall,mall,Kalimantan Timur 76252,"Kabupaten Paser, Kalimantan Timur","Kabupaten Paser, Kalimantan Timur",KALIMANTAN TIMUR,,Indonesia,,,,-1.9651197,115.8994923,https://maps.google.com/?cid=0x0:0xd282220639c80aba,
mall,Pusat Perbelanjaan,Toko ZALEHA Batukajang,"5VGR+QRM, Batu Kajang, Kec. Batu Sopang, Kabupaten Paser, Kalimantan Timur 76252","Batu Kajang, Kec. Batu Sopang, Kabupaten Paser",KALIMANTAN TIMUR,76252.0,Indonesia,85349516405.0,,,-1.8230383,115.8920383,https://maps.google.com/?cid=0x0:0x330b845b919b37cb,
mall,Pusat Perbelanjaan,Henny OLSHOP,"5W9F+R6F, Unnamed Road, Batu Kajang, Kec. Batu Sopang, Kabupaten Paser, Kalimantan Timur 76252","Unnamed Road, Batu Kajang, Kec. Batu Sopang, Kabupaten Paser",KALIMANTAN TIMUR,76252.0,Indonesia,85245834385.0,,,-1.8304447,115.9230502,https://maps.google.com/?cid=0x0:0x9badf3f12fefa3c6,
mall,Toko Herbal,AGEN STOKIS HPAI Batu Kajang,"5WC9+4PC, Batu Kajang, Kec. Batu Sopang, Kabupaten Paser, Kalimantan Timur 76252","Batu Kajang, Kec. Batu Sopang, Kabupaten Paser",KALIMANTAN TIMUR,76252.0,Indonesia,82260956687.0,,,-1.8296762,115.9192703,https://maps.google.com/?cid=0x0:0xedbb3de24adf8350,
mall,Asosiasi/organisasi,Dunia Pulsa Batu kajang,"5VGR+RQ8, Jl. Negara, Batu Kajang, Kec. Batu Sopang, Kabupaten Paser, Kalimantan Timur 76252","Jl. Negara, Batu Kajang, Kec. Batu Sopang, Kabupaten Paser",KALIMANTAN TIMUR,76252.0,Indonesia,85249078012.0,,,-1.8229736,115.8919661,https://maps.google.com/?cid=0x0:0x184964e295665165,
mall,Toko Perlengkapan Bayi,Galaxy7 Baby Shop,"Batu Kajang, Kec. Batu Sopang, Kabupaten Paser, Kalimantan Timur 76252","Kec. Batu Sopang, Kabupaten Paser",KALIMANTAN TIMUR,76252.0,Indonesia,82266224478.0,,,-1.8311328,115.927178,https://maps.google.com/?cid=0x0:0x13f8150c877cd2a9,
mall,Pusat Perbelanjaan,Helena Olshop Nasa,"Mariga RT. 23 Belakang Optik Ramayana, Batu Kajang, Kec. Batu Sopang, Kabupaten Paser, Kalimantan Timur 76252","Batu Kajang, Kec. Batu Sopang, Kabupaten Paser",KALIMANTAN TIMUR,76252.0,Indonesia,85785719118.0,,,-1.822374,115.917117,https://maps.google.com/?cid=0x0:0x7504f2353ae614d0,
mall,Toko bahan makanan,Toko mama dani,"5W7H+H4W, Jl. Pasar Lama, Batu Kajang, Kec. Batu Sopang, Kabupaten Paser, Kalimantan Timur 76252","Jl. Pasar Lama, Batu Kajang, Kec. Batu Sopang, Kabupaten Paser",KALIMANTAN TIMUR,76252.0,Indonesia,,,,-1.8360031,115.9278393,https://maps.google.com/?cid=0x0:0x28eced972db7dc2b,
mall,Toko bahan makanan,Warung mama puja,"5VJW+CVQ, Batu Kajang, Kec. Batu Sopang, Kabupaten Paser, Kalimantan Timur 76252","Batu Kajang, Kec. Batu Sopang, Kabupaten Paser",KALIMANTAN TIMUR,76252.0,Indonesia,,,,-1.8189043,115.8972413,https://maps.google.com/?cid=0x0:0x95a5258f514e1e11,
mall,Toko,Parfum Laundry HH,"5W9J+8P2, Batu Kajang, Kec. Batu Sopang, Kabupaten Paser, Kalimantan Timur 76252","Batu Kajang, Kec. Batu Sopang, Kabupaten Paser",KALIMANTAN TIMUR,76252.0,Indonesia,,,,-1.8317276,115.9317759,https://maps.google.com/?cid=0x0:0x8656828a344ecf4f,
mall,Toko bahan makanan,Warung Sayur Bude,"Batu Kajang, Kec. Batu Sopang, Kabupaten Paser, Kalimantan Timur 76252","Kec. Batu Sopang, Kabupaten Paser",KALIMANTAN TIMUR,76252.0,Indonesia,82254700801.0,,,-1.8188418,115.9008195,https://maps.google.com/?cid=0x0:0xb83c9957d8b33ec2,
mall,Pusat Perbelanjaan,EBCedobatuahcell,"Jl. Jenderal Sudirman, Tanah Grogot, Kec. Tanah Grogot, Kabupaten Paser, Kalimantan Timur 76251","Tanah Grogot, Kec. Tanah Grogot, Kabupaten Paser",KALIMANTAN TIMUR,76251.0,Indonesia,,,,-1.9126401,116.1981446,https://maps.google.com/?cid=0x0:0x11f46f02797a8f20,
mall,Kantor Perusahaan,TMJ Coal,"5R97+HMV, Busui, Kec. Batu Sopang, Kabupaten Paser, Kalimantan Timur 76252","Busui, Kec. Batu Sopang, Kabupaten Paser",KALIMANTAN TIMUR,76252.0,Indonesia,,,,-1.8310154,115.8141576,https://maps.google.com/?cid=0x0:0x2f1085f7f8e356a3,
mall,Kantor Pemerintahan Wilayah,Kantor Camat Batu Sopang,"5W9F+QRC, Batu Kajang, Kec. Batu Sopang, Kabupaten Paser, Kalimantan Timur 76252","Batu Kajang, Kec. Batu Sopang, Kabupaten Paser",KALIMANTAN TIMUR,76252.0,Indonesia,5435230001.0,,,-1.8305546,115.9245095,https://maps.google.com/?cid=0x0:0x8aab897aed8f39f1,
mall,Toko,"Muldeng BKT,DOA IB,U","5WH4+GJQ, Jl. Tambang Batu Bara, Batu Kajang, Kec. Batu Sopang, Kabupaten Paser, Kalimantan Timur 76252","Jl. Tambang Batu Bara, Batu Kajang, Kec. Batu Sopang, Kabupaten Paser",KALIMANTAN TIMUR,76252.0,Indonesia,85245503964.0,,,-1.8211628,115.906616,https://maps.google.com/?cid=0x0:0xde85833e36110a23,
mall,Toko Pakaian,Qismiyya.shop,"5WG8+V73, Jl. Tj. - Kuaro, Batu Kajang, Kec. Batu Sopang, Kabupaten Paser, Kalimantan Timur 76252","Jl. Tj. - Kuaro, Batu Kajang, Kec. Batu Sopang, Kabupaten Paser",KALIMANTAN TIMUR,76252.0,Indonesia,85251291993.0,,,-1.8228696,115.9156701,https://maps.google.com/?cid=0x0:0x58a58410a02545aa,
mall,Toko Swalayan,Indomaret,"5VGW+756, Batu Kajang, Kec. Batu Sopang, Kabupaten Paser, Kalimantan Timur 76252","Batu Kajang, Kec. Batu Sopang, Kabupaten Paser",KALIMANTAN TIMUR,76252.0,Indonesia,,,,-1.8243461,115.8954017,https://maps.google.com/?cid=0x0:0x2e4facd92c6da3d0,
mall,Pusat Perbelanjaan,Tk sadikin,"Jl. Tj. - Kuaro No.367, Sungai Terik, Kec. Batu Sopang, Kabupaten Paser, Kalimantan Timur 76281","Sungai Terik, Kec. Batu Sopang, Kabupaten Paser",KALIMANTAN TIMUR,76281.0,Indonesia,,,,-1.8243051,115.9813777,https://maps.google.com/?cid=0x0:0x339b9f42607328b8,
mall,Minimarket,Alfamidi Batu Sopang,"Batu Kajang, Kec. Batu Sopang, Kabupaten Paser, Kalimantan Timur 76252","Kec. Batu Sopang, Kabupaten Paser",KALIMANTAN TIMUR,76252.0,Indonesia,,,,-1.8214667,115.9122238,https://maps.google.com/?cid=0x0:0xc968772d2e75e3f6,
mall,Pusat Perbelanjaan,Tk mama hadi,"5XFG+XG2, Jl. Tj. - Kuaro, Sungai Terik, Kec. Batu Sopang, Kabupaten Paser, Kalimantan Timur 76281","Jl. Tj. - Kuaro, Sungai Terik, Kec. Batu Sopang, Kabupaten Paser",KALIMANTAN TIMUR,76281.0,Indonesia,,,,-1.825103,115.976275,https://maps.google.com/?cid=0x0:0x1115c53c30753e6f,
mall,Pasar,Pasar baru Batukajang,"5W7H+F97, Batu Kajang, Kec. Batu Sopang, Kabupaten Paser, Kalimantan Timur 76252","Batu Kajang, Kec. Batu Sopang, Kabupaten Paser",KALIMANTAN TIMUR,76252.0,Indonesia,,,,-1.8382885,115.9265569,https://maps.google.com/?cid=0x0:0x13e93eda7babde1b,
mall,Toko Swalayan,Alfamidi Kuaro,"53JM+3F8, Kuaro, Kec. Kuaro, Kabupaten Paser, Kalimantan Timur 76281","Kuaro, Kec. Kuaro, Kabupaten Paser",KALIMANTAN TIMUR,76281.0,Indonesia,,,,-1.8198393,116.0837045,https://maps.google.com/?cid=0x0:0x216db6f2122d1d52,
mall,Pusat Perbelanjaan,Toko Hera,"Jl. Penajam-Kuaro No.1, Kuaro, Kec. Kuaro, Kabupaten Paser, Kalimantan Timur 76281","Kuaro, Kec. Kuaro, Kabupaten Paser",KALIMANTAN TIMUR,76281.0,Indonesia,85343521300.0,,,-1.8214109,116.0846682,https://maps.google.com/?cid=0x0:0xa76e942d3fdc2054,
mall,Toko umum,Toko mbak Titik,"Jl. Kuaro - Tanah Grogot, Lolo, Kec. Kuaro, Kabupaten Paser, Kalimantan Timur 76281","Lolo, Kec. Kuaro, Kabupaten Paser",KALIMANTAN TIMUR,76281.0,Indonesia,,,,-1.8771336,116.0826677,https://maps.google.com/?cid=0x0:0x241c6762e58acb8a,
mall,Pusat Perbelanjaan,Pusat Perbelanjaan Paser,"35PX+P6P, Jl. R. Suprapto, Tanah Grogot, Kec. Tanah Grogot, Kabupaten Paser, Kalimantan Timur 76251","Jl. R. Suprapto, Tanah Grogot, Kec. Tanah Grogot, Kabupaten Paser",KALIMANTAN TIMUR,76251.0,Indonesia,,,,-1.9131532,116.1980671,https://maps.google.com/?cid=0x0:0x8dab99417ae8eb51,
mall,Pusat Perbelanjaan,Kandilo Plaza,"35PX+J47, Jl. Kandilo Bahari, Tanah Grogot, Kec. Tanah Grogot, Kabupaten Paser, Kalimantan Timur 76251","Jl. Kandilo Bahari, Tanah Grogot, Kec. Tanah Grogot, Kabupaten Paser",KALIMANTAN TIMUR,76251.0,Indonesia,,,,-1.9134597,116.1977913,https://maps.google.com/?cid=0x0:0x2be8d0ab6b7b9ed7,
mall,Pusat Perbelanjaan,BINTAN shop,"53RP+95P, Kuaro, Kec. Kuaro, Kabupaten Paser, Kalimantan Timur 76281","Kuaro, Kec. Kuaro, Kabupaten Paser",KALIMANTAN TIMUR,76281.0,Indonesia,82255555342.0,,,-1.8090293,116.0854543,https://maps.google.com/?cid=0x0:0xcf5589c18757009b,
mall,Toko Ponsel,Toko rizqiya,"635X+PRF, Jl. Penajam-Kuaro, Rangan, Kec. Kuaro, Kabupaten Paser, Kalimantan Timur 76281","Jl. Penajam-Kuaro, Rangan, Kec. Kuaro, Kabupaten Paser",KALIMANTAN TIMUR,76281.0,Indonesia,,,,-1.7906955,116.0995577,https://maps.google.com/?cid=0x0:0x5bf2bba8e4292a0,
mall,Pusat Perbelanjaan,Daffy Craft,"53QM+PJ7, Jl. Ahmad Yani, Kuaro, Kec. Kuaro, Kabupaten Paser, Kalimantan Timur 76281","Jl. Ahmad Yani, Kuaro, Kec. Kuaro, Kabupaten Paser",KALIMANTAN TIMUR,76281.0,Indonesia,82148877722.0,,,-1.8107055,116.0840575,https://maps.google.com/?cid=0x0:0xf3ab2d6f3a794d63,
mall,Pusat Perbelanjaan,Kios helni,"Jl.Jend.Sudirman No.Rt.08, Padang Jaya, Kec. Kuaro, Kabupaten Paser, Kalimantan Timur 76281","Padang Jaya, Kec. Kuaro, Kabupaten Paser",KALIMANTAN TIMUR,76281.0,Indonesia,,,,-1.7905306,116.0581259,https://maps.google.com/?cid=0x0:0x18666ce739e2594c,
mall,Toko Roti,Lapak roti'O,"53GM+VH9, Jl. Kuaro - Tanah Grogot, Kuaro, Kec. Kuaro, Kabupaten Paser, Kalimantan Timur 76281","Jl. Kuaro - Tanah Grogot, Kuaro, Kec. Kuaro, Kabupaten Paser",KALIMANTAN TIMUR,76281.0,Indonesia,,,,-1.8228464,116.0839734,https://maps.google.com/?cid=0x0:0x79b874075cda17d7,
mall,Pusat Perbelanjaan,Tk sadikin,"Jl. Tj. - Kuaro No.367, Sungai Terik, Kec. Batu Sopang, Kabupaten Paser, Kalimantan Timur 76281","Sungai Terik, Kec. Batu Sopang, Kabupaten Paser",KALIMANTAN TIMUR,76281.0,Indonesia,,,,-1.8243051,115.9813777,https://maps.google.com/?cid=0x0:0x339b9f42607328b8,
mall,mall,..,"Jl. Tj. - Kuaro, Kuaro, Kec. Kuaro, Kabupaten Paser, Kalimantan Timur 76251","Kuaro, Kec. Kuaro, Kabupaten Paser",KALIMANTAN TIMUR,76251.0,Indonesia,85755411226.0,,,-1.8426859,116.0328085,https://maps.google.com/?cid=0x0:0x5f691798646ac629,
mall,Pusat Perbelanjaan,Toko Riani Lestari,"54QX+G4C, Rangan, Kec. Kuaro, Kabupaten Paser, Kalimantan Timur 76281","Rangan, Kec. Kuaro, Kabupaten Paser",KALIMANTAN TIMUR,76281.0,Indonesia,,,,-1.8111972,116.1477598,https://maps.google.com/?cid=0x0:0xe3f56b615065b90,
mall,mall,Kuaro,"Kec. Kuaro, Kabupaten Paser, Kalimantan Timur","Kabupaten Paser, Kalimantan Timur",KALIMANTAN TIMUR,,Indonesia,,,,-1.8219574,116.0845478,https://maps.google.com/?cid=0x0:0x4540b1968c0129c9,
mall,Toko,Saufi Parabola,"635X+8JJ, Unnamed Road, Rangan, Kec. Kuaro, Kabupaten Paser, Kalimantan Timur 76281","Unnamed Road, Rangan, Kec. Kuaro, Kabupaten Paser",KALIMANTAN TIMUR,76281.0,Indonesia,82255842155.0,,,-1.7916529,116.0990179,https://maps.google.com/?cid=0x0:0x6edd3c6394ebb7f0,
mall,Toko,Milda safitri,"63HX+X7Q, Jl. Soekarno Hatta, Kerta Bumi, Kec. Kuaro, Kabupaten Paser, Kalimantan Timur 76281","Jl. Soekarno Hatta, Kerta Bumi, Kec. Kuaro, Kabupaten Paser",KALIMANTAN TIMUR,76281.0,Indonesia,,,,-1.7700349,116.0982332,https://maps.google.com/?cid=0x0:0xa68363bf5ca9881b,
mall,Toko,Depo isi ulang air minum C_ALFA,"Jl. Ahmad Yani No.rt.19, Seirat, Kuaro, Kec. Kuaro, Kabupaten Paser, Kalimantan Timur 76281","Seirat, Kuaro, Kec. Kuaro, Kabupaten Paser",KALIMANTAN TIMUR,76281.0,Indonesia,,,,-1.8113527,116.0838864,https://maps.google.com/?cid=0x0:0xf545ce36a0a820f0,
mall,mall,Kalimantan Timur 76281,"Kec. Kuaro, Kabupaten Paser, Kalimantan Timur","Kabupaten Paser, Kalimantan Timur",KALIMANTAN TIMUR,,Indonesia,,,,-1.7505747,116.0886704,https://maps.google.com/?cid=0x0:0xbc47c0866f721018,
mall,Penginapan religi,Terminal Kuaro,"Jl. Negara Km.114 RT.1 No. 06, Kuaro, Kec. Kuaro, Kabupaten Paser, Kalimantan Timur 76281","Kuaro, Kec. Kuaro, Kabupaten Paser",KALIMANTAN TIMUR,76281.0,Indonesia,81237265128.0,,,-1.8212648,116.0842979,https://maps.google.com/?cid=0x0:0xfcd8778d9f5e2469,
mall,Toko,Toko malia,"74PP+HRP, Jl. Penajam-Kuaro, Sandeley, Kec. Kuaro, Kabupaten Paser, Kalimantan Timur 76281","Jl. Penajam-Kuaro, Sandeley, Kec. Kuaro, Kabupaten Paser",KALIMANTAN TIMUR,76281.0,Indonesia,,,,-1.7135473,116.1370888,https://maps.google.com/?cid=0x0:0xae302112ff0b5c81,
mall,Toko Swalayan,Toko Hany,"64F6+6J7, Jl. Penajam-Kuaro, Kerta Bumi, Kec. Kuaro, Kabupaten Paser, Kalimantan Timur 76281","Jl. Penajam-Kuaro, Kerta Bumi, Kec. Kuaro, Kabupaten Paser",KALIMANTAN TIMUR,76281.0,Indonesia,85246413696.0,,,-1.7769739,116.1115387,https://maps.google.com/?cid=0x0:0x7be7d58a4bee6c6,
mall,Pusat Perbelanjaan,Tk mama hadi,"5XFG+XG2, Jl. Tj. - Kuaro, Sungai Terik, Kec. Batu Sopang, Kabupaten Paser, Kalimantan Timur 76281","Jl. Tj. - Kuaro, Sungai Terik, Kec. Batu Sopang, Kabupaten Paser",KALIMANTAN TIMUR,76281.0,Indonesia,,,,-1.825103,115.976275,https://maps.google.com/?cid=0x0:0x1115c53c30753e6f,
mall,mall,Kalimantan Timur 76282,"Kec. Long Ikis, Kabupaten Paser, Kalimantan Timur","Kabupaten Paser, Kalimantan Timur",KALIMANTAN TIMUR,,Indonesia,,,,-1.608975,116.1832068,https://maps.google.com/?cid=0x0:0xaaa31d28d64ea774,
mall,Komplek perumahan,Long Ikis,"9533+WJR Galang Garden, Samuntai, Kec. Long Ikis, Kabupaten Paser, Kalimantan Timur 76282","Samuntai, Kec. Long Ikis, Kabupaten Paser",KALIMANTAN TIMUR,76282.0,Indonesia,,,,-1.6448317,116.154085,https://maps.google.com/?cid=0x0:0x37ac9b89d453ffad,
mall,Toko bahan makanan,Segar Sayur,"Jl. Penajam-Kuaro No.27, Tajur, Kec. Long Ikis, Kabupaten Paser, Kalimantan Timur 76282","Tajur, Kec. Long Ikis, Kabupaten Paser",KALIMANTAN TIMUR,76282.0,Indonesia,81254229119.0,,,-1.6021382,116.170785,https://maps.google.com/?cid=0x0:0x7799bfa017062fe8,
mall,Pusat Perbelanjaan,RejekyBagus,"95X8+89J, Jl. Pait, Lombok, Kec. Long Ikis, Kabupaten Paser, Kalimantan Timur 76282","Jl. Pait, Lombok, Kec. Long Ikis, Kabupaten Paser",KALIMANTAN TIMUR,76282.0,Indonesia,,,,-1.601671,116.165893,https://maps.google.com/?cid=0x0:0x6a0f3b20ca87a342,
mall,Toko bahan makanan,Mini Market Irsal Jaya,"84JX+G67, Samuntai, Kec. Long Ikis, Kabupaten Paser, Kalimantan Timur 76282","Samuntai, Kec. Long Ikis, Kabupaten Paser",KALIMANTAN TIMUR,76282.0,Indonesia,,,,-1.6687137,116.1480338,https://maps.google.com/?cid=0x0:0xdaa0c709822a67ae,
mall,Pusat Perbelanjaan,Adil Jaya,"F63X+5GR, Kayungo, Kec. Long Ikis, Kabupaten Paser, Kalimantan Timur 76282","Kayungo, Kec. Long Ikis, Kabupaten Paser",KALIMANTAN TIMUR,76282.0,Indonesia,82251159879.0,,,-1.5470241,116.248768,https://maps.google.com/?cid=0x0:0xefe53b730538717f,
mall,Toko,Binu,"9663+CWQ, Tajur, Kec. Long Ikis, Kabupaten Paser, Kalimantan Timur 76282","Tajur, Kec. Long Ikis, Kabupaten Paser",KALIMANTAN TIMUR,76282.0,Indonesia,81345104036.0,,,-1.6389196,116.2048505,https://maps.google.com/?cid=0x0:0x5833abae49695e4d,
mall,Toko Perlengkapan Rumah,Dhila serbu,"Jl. Penajam-Kuaro No.8500, Lombok, Kec. Long Ikis, Kabupaten Paser, Kalimantan Timur 76282","Lombok, Kec. Long Ikis, Kabupaten Paser",KALIMANTAN TIMUR,76282.0,Indonesia,85347980599.0,,,-1.605488,116.1664676,https://maps.google.com/?cid=0x0:0xa3bb16496b1ebd0d,
mall,Toko Biskuit Beras,Toko Samani 2,"95X8+V49, Jl. Pait, Lombok, Kec. Long Ikis, Kabupaten Paser, Kalimantan Timur 76282","Jl. Pait, Lombok, Kec. Long Ikis, Kabupaten Paser",KALIMANTAN TIMUR,76282.0,Indonesia,85388186103.0,,,-1.60034,116.165357,https://maps.google.com/?cid=0x0:0xe7bcc8375400e9cd,
mall,Pusat Perbelanjaan,Toko Haikal,"F722+J7M tajer mulya, desa, Kayungo, Long Ikis, Paser Regency, East Kalimantan 76282","desa, Kayungo, Long Ikis, Paser Regency",KALIMANTAN TIMUR,76282.0,Indonesia,81645433512.0,,,-1.548414,116.2506846,https://maps.google.com/?cid=0x0:0x61927d99918b40ff,
mall,Pusat Perbelanjaan,Galery aquarium dan petshop,"C4M2+C5X, Lombok, Kec. Long Ikis, Kabupaten Paser, Kalimantan Timur 76282","Lombok, Kec. Long Ikis, Kabupaten Paser",KALIMANTAN TIMUR,76282.0,Indonesia,85387768486.0,,,-1.5663795,116.1004894,https://maps.google.com/?cid=0x0:0x213b2f6b0df99183,
mall,Pusat Perbelanjaan,Kios BBM ANGEL,"95P5+244, Kabulpaten, Lombok, Kec. Long Ikis, Kabupaten Paser, Kalimantan Timur 76282","Kabulpaten, Lombok, Kec. Long Ikis, Kabupaten Paser",KALIMANTAN TIMUR,76282.0,Indonesia,,,,-1.6149819,116.1578377,https://maps.google.com/?cid=0x0:0x4a2b0a05e7019bc3,
mall,Toko,Toko Mayantaka,"F4JW+WGQ, Jl. Poros Desa, Long Gelang, Kec. Long Ikis, Kabupaten Paser, Kalimantan Timur 76282","Jl. Poros Desa, Long Gelang, Kec. Long Ikis, Kabupaten Paser",KALIMANTAN TIMUR,76282.0,Indonesia,,,,-1.5176625,116.1463594,https://maps.google.com/?cid=0x0:0xcfdb1f2814ff2b90,
mall,Pembangunan Perumahan,Pasar Desa Jemparing,"Jemparing, Kec. Long Ikis, Kabupaten Paser, Kalimantan Timur 76283","Kec. Long Ikis, Kabupaten Paser",KALIMANTAN TIMUR,76283.0,Indonesia,,,,-1.5606621,116.263751,https://maps.google.com/?cid=0x0:0xe3c5ab5039db3d1a,
mall,Toko Elektronik,Konter Aisya Cell,"Jl. Pait, Lombok, Kec. Long Ikis, Kabupaten Paser, Kalimantan Timur 76282","Lombok, Kec. Long Ikis, Kabupaten Paser",KALIMANTAN TIMUR,76282.0,Indonesia,85348122122.0,,,-1.6013776,116.1661782,https://maps.google.com/?cid=0x0:0x681a8734cc53dfca,
mall,Toko Ponsel,SIMPANG RAYA Swalayan,"95XC+25P, Lombok, Kec. Long Ikis, Kabupaten Paser, Kalimantan Timur 76282","Lombok, Kec. Long Ikis, Kabupaten Paser",KALIMANTAN TIMUR,76282.0,Indonesia,,,,-1.602422,116.1704476,https://maps.google.com/?cid=0x0:0xf6497f22c87c772a,
mall,mall,Toko Plastik Mentari plas,"95Q7+WCW, Jl. Pait, Lombok, Kec. Long Ikis, Kabupaten Paser, Kalimantan Timur 76282","Jl. Pait, Lombok, Kec. Long Ikis, Kabupaten Paser",KALIMANTAN TIMUR,76282.0,Indonesia,83143450508.0,,,-1.610082,116.163569,https://maps.google.com/?cid=0x0:0xfd8ae25e73d64f55,
mall,Toko Pakaian,Raihana Collection,"Jl. Penajam-Kuaro, Lombok, Kec. Long Ikis, Kabupaten Paser, Kalimantan Timur 76282","Lombok, Kec. Long Ikis, Kabupaten Paser",KALIMANTAN TIMUR,76282.0,Indonesia,,,,-1.6056063,116.1663326,https://maps.google.com/?cid=0x0:0xcb1a977d5e4c2012,
mall,Toko Alat Pancing,Toko M.Naufal (Ahmad),"Unnamed Road, Lombok, Kec. Long Ikis, Kabupaten Paser, Kalimantan Timur 76282","Lombok, Kec. Long Ikis, Kabupaten Paser",KALIMANTAN TIMUR,76282.0,Indonesia,81347642739.0,,,-1.6017285,116.1695725,https://maps.google.com/?cid=0x0:0xc4963871a166c6cd,
mall,Toko,Pancake Durian Mizah,"95X8+2MG, Jl. Pait, Lombok, Kec. Long Ikis, Kabupaten Paser, Kalimantan Timur 76282","Jl. Pait, Lombok, Kec. Long Ikis, Kabupaten Paser",KALIMANTAN TIMUR,76282.0,Indonesia,82250496042.0,,,-1.6024391,116.1666947,https://maps.google.com/?cid=0x0:0x7d3c122013e36c80,
mall,Perhimpunan Pengembang Perumahan,Simpang pait long Ikis,"C527+9WV, Jl. Pait, Lombok, Kec. Long Ikis, Kabupaten Paser, Kalimantan Timur 76282","Jl. Pait, Lombok, Kec. Long Ikis, Kabupaten Paser",KALIMANTAN TIMUR,76282.0,Indonesia,85752253087.0,,,-1.599021,116.1648044,https://maps.google.com/?cid=0x0:0xd9e812d283b81212,
mall,Minimarket,Warung Duo Song,"C52Q+G2F, Tajur, Kec. Long Ikis, Kabupaten Paser, Kalimantan Timur 76282","Tajur, Kec. Long Ikis, Kabupaten Paser",KALIMANTAN TIMUR,76282.0,Indonesia,82153270188.0,,,-1.5986951,116.1875405,https://maps.google.com/?cid=0x0:0x9bf3e236ab32c57d,
mall,Gudang,Long kali,"Jl. Penajam-Kuaro No.2, Long Kali, Kec. Long Kali, Kabupaten Paser, Kalimantan Timur 76283","Long Kali, Kec. Long Kali, Kabupaten Paser",KALIMANTAN TIMUR,76283.0,Indonesia,81522554513.0,,,-1.5258279,116.303298,https://maps.google.com/?cid=0x0:0xee9c960a327eef55,
mall,Mal outlet,Supermal Karawaci,"Jl. Boulevard Diponegoro No.105, Bencongan, Kec. Klp. Dua, Kabupaten Tangerang, Banten 15810","Bencongan, Kec. Klp. Dua, Kabupaten Tangerang",KALIMANTAN TIMUR,15810.0,Indonesia,215466666.0,,,-6.2268116,106.6070233,https://maps.google.com/?cid=0x0:0xc5927a7be82e23b8,
mall,Toko Pakaian,Afika Acsesoris,"H845+963, Mendik, Kec. Long Kali, Kabupaten Paser, Kalimantan Timur 76283","Mendik, Kec. Long Kali, Kabupaten Paser",KALIMANTAN TIMUR,76283.0,Indonesia,,,,-1.4441178,116.3080502,https://maps.google.com/?cid=0x0:0xbd6334aa8a0b5dbc,
mall,Toko bahan makanan,Indomaret Long Kali,"F8JF+62P, Long Kali, Kec. Long Kali, Kabupaten Paser, Kalimantan Timur 76283","Long Kali, Kec. Long Kali, Kabupaten Paser",KALIMANTAN TIMUR,76283.0,Indonesia,,,,-1.5194123,116.3225649,https://maps.google.com/?cid=0x0:0xa57a2d5604338895,
mall,Pusat Perbelanjaan,Toko Prima,"Jl. Penajam-Kuaro No.RT 14, Long Kali, Kec. Long Kali, Kabupaten Paser, Kalimantan Timur 76283","Long Kali, Kec. Long Kali, Kabupaten Paser",KALIMANTAN TIMUR,76283.0,Indonesia,,,,-1.519195,116.3223795,https://maps.google.com/?cid=0x0:0xbdd454e21e9be91d,
mall,Pusat Perbelanjaan,Ermama Cell,"Jl. Penajam-Kuaro No.14, Long Kali, Kec. Long Kali, Kabupaten Paser, Kalimantan Timur 76283","Long Kali, Kec. Long Kali, Kabupaten Paser",KALIMANTAN TIMUR,76283.0,Indonesia,85351355555.0,,,-1.5191166,116.3199939,https://maps.google.com/?cid=0x0:0x156a6f43e990aa97,
mall,Area Mendaki,ARUM HELEM Gunung Putar,"G928+9WJ, Jl. Penajam-Kuaro, Long Kali, Kec. Long Kali, Kabupaten Paser, Kalimantan Timur 76283","Jl. Penajam-Kuaro, Long Kali, Kec. Long Kali, Kabupaten Paser",KALIMANTAN TIMUR,76283.0,Indonesia,82156499444.0,,,-1.4990443,116.3672683,https://maps.google.com/?cid=0x0:0x4e249296b227e59f,
mall,mall,Kalimantan Timur 76253,"Kec. Muara Komam, Kabupaten Paser, Kalimantan Timur","Kabupaten Paser, Kalimantan Timur",KALIMANTAN TIMUR,,Indonesia,,,,-1.544033,115.8048521,https://maps.google.com/?cid=0x0:0x64a10c9684dc5b70,
mall,Pasar,Pasar Muara Komam,"8R98+2MX, Jl. Tj. - Kuaro No.21, Uko, Kec. Muara Komam, Kabupaten Paser, Kalimantan Timur 76253","Jl. Tj. - Kuaro No.21, Uko, Kec. Muara Komam, Kabupaten Paser",KALIMANTAN TIMUR,76253.0,Indonesia,,,,-1.6821407,115.8166302,https://maps.google.com/?cid=0x0:0xfa8f1bd1bf6e621f,
mall,Toko,Elyani,"8QGJ+253, Jl. Tj. - Kuaro, Muara Komam, Kec. Muara Komam, Kabupaten Paser, Kalimantan Timur 76253","Jl. Tj. - Kuaro, Muara Komam, Kec. Muara Komam, Kabupaten Paser",KALIMANTAN TIMUR,76253.0,Indonesia,82254170139.0,,,-1.6749753,115.7804102,https://maps.google.com/?cid=0x0:0x1b7069f5391aca1a,
mall,Toko Pakaian,DeFleur Shop,"8R58+RVC, Jl. Tj. - Kuaro, Batu Butok, Kec. Muara Komam, Kabupaten Paser, Kalimantan Timur 76253","Jl. Tj. - Kuaro, Batu Butok, Kec. Muara Komam, Kabupaten Paser",KALIMANTAN TIMUR,76253.0,Indonesia,82158020571.0,,,-1.6904416,115.8171509,https://maps.google.com/?cid=0x0:0x648619cfa071306b,
mall,Toko,Toko Fitri (Vita Vitata),"8RC8+4FR, Muara Komam, Kec. Muara Komam, Kabupaten Paser, Kalimantan Timur 76253","Muara Komam, Kec. Muara Komam, Kabupaten Paser",KALIMANTAN TIMUR,76253.0,Indonesia,82152433798.0,,,-1.6796474,115.8161342,https://maps.google.com/?cid=0x0:0x49d14cdb39201da7,
mall,mall,Kec. Muara Komam,"Kabupaten Paser, Kalimantan Timur","Kabupaten Paser, Kalimantan Timur",KALIMANTAN TIMUR,,Indonesia,,,,-1.4740311,115.8048521,https://maps.google.com/?cid=0x0:0x2b20a9eda34de8e2,
mall,Tujuan Wisata,Wisata Goa Losan Muara Komam,"8R48+9MG, Jl. Tj. - Kuaro, Batu Butok, Kec. Muara Komam, Kabupaten Paser, Kalimantan Timur 76253","Jl. Tj. - Kuaro, Batu Butok, Kec. Muara Komam, Kabupaten Paser",KALIMANTAN TIMUR,76253.0,Indonesia,82253442576.0,,,-1.694064,115.8167167,https://maps.google.com/?cid=0x0:0x8677ad14b1af30a6,
mall,Toko Fotokopi,PERCETAKAN PELANGI,"8R88+9PX, Jl. Tj. - Kuaro Batuaji - Kuaro, Uko, Kec. Muara Komam, Kabupaten Paser, Kalimantan Timur 76253","Jl. Tj. - Kuaro Batuaji - Kuaro, Uko, Kec. Muara Komam, Kabupaten Paser",KALIMANTAN TIMUR,76253.0,Indonesia,85349702899.0,,,-1.6840198,115.8168475,https://maps.google.com/?cid=0x0:0x5285a6af1590680,
mall,,TOKO RERAI Muara Komam,"8RF3+2J6, Muara Komam, Kec. Muara Komam, Kabupaten Paser, Kalimantan Timur 76253","Muara Komam, Kec. Muara Komam, Kabupaten Paser",KALIMANTAN TIMUR,76253.0,Indonesia,,,,-1.6774563,115.8040092,https://maps.google.com/?cid=0x0:0x6b4f81fa7d0cd2cd,
mall,mall,Kalimantan Timur 76252,"Kabupaten Paser, Kalimantan Timur","Kabupaten Paser, Kalimantan Timur",KALIMANTAN TIMUR,,Indonesia,,,,-1.9651197,115.8994923,https://maps.google.com/?cid=0x0:0xd282220639c80aba,
mall,Pusat Perbelanjaan,Toko Wardah 2,"XWPP+WRG, Muser, Kec. Muara Samu, Kabupaten Paser, Kalimantan Timur 76252","Muser, Kec. Muara Samu, Kabupaten Paser",KALIMANTAN TIMUR,76252.0,Indonesia,81256101236.0,,,-2.0126987,115.9370717,https://maps.google.com/?cid=0x0:0x4f9f0ff8c5ff4961,
mall,Pusat Perbelanjaan,Toko Wardah Muser,"XWMP+8HQ, Muser, Kec. Muara Samu, Kabupaten Paser, Kalimantan Timur 76252","Muser, Kec. Muara Samu, Kabupaten Paser",KALIMANTAN TIMUR,76252.0,Indonesia,85251152105.0,,,-2.0166691,115.9364795,https://maps.google.com/?cid=0x0:0xd1bca7ae5630fb3b,
mall,Pusat Perbelanjaan,EBCedobatuahcell,"Jl. Jenderal Sudirman, Tanah Grogot, Kec. Tanah Grogot, Kabupaten Paser, Kalimantan Timur 76251","Tanah Grogot, Kec. Tanah Grogot, Kabupaten Paser",KALIMANTAN TIMUR,76251.0,Indonesia,,,,-1.9126401,116.1981446,https://maps.google.com/?cid=0x0:0x11f46f02797a8f20,
mall,Kantor Perusahaan,TMJ Coal,"5R97+HMV, Busui, Kec. Batu Sopang, Kabupaten Paser, Kalimantan Timur 76252","Busui, Kec. Batu Sopang, Kabupaten Paser",KALIMANTAN TIMUR,76252.0,Indonesia,,,,-1.8310154,115.8141576,https://maps.google.com/?cid=0x0:0x2f1085f7f8e356a3,
mall,Pusat Perbelanjaan,Toko ZALEHA Batukajang,"5VGR+QRM, Batu Kajang, Kec. Batu Sopang, Kabupaten Paser, Kalimantan Timur 76252","Batu Kajang, Kec. Batu Sopang, Kabupaten Paser",KALIMANTAN TIMUR,76252.0,Indonesia,85349516405.0,,,-1.8230383,115.8920383,https://maps.google.com/?cid=0x0:0x330b845b919b37cb,
mall,Asosiasi/organisasi,Dunia Pulsa Batu kajang,"5VGR+RQ8, Jl. Negara, Batu Kajang, Kec. Batu Sopang, Kabupaten Paser, Kalimantan Timur 76252","Jl. Negara, Batu Kajang, Kec. Batu Sopang, Kabupaten Paser",KALIMANTAN TIMUR,76252.0,Indonesia,85249078012.0,,,-1.8229736,115.8919661,https://maps.google.com/?cid=0x0:0x184964e295665165,
mall,Toko,"Muldeng BKT,DOA IB,U","5WH4+GJQ, Jl. Tambang Batu Bara, Batu Kajang, Kec. Batu Sopang, Kabupaten Paser, Kalimantan Timur 76252","Jl. Tambang Batu Bara, Batu Kajang, Kec. Batu Sopang, Kabupaten Paser",KALIMANTAN TIMUR,76252.0,Indonesia,85245503964.0,,,-1.8211628,115.906616,https://maps.google.com/?cid=0x0:0xde85833e36110a23,
mall,Pusat Perbelanjaan,Tk mama hadi,"5XFG+XG2, Jl. Tj. - Kuaro, Sungai Terik, Kec. Batu Sopang, Kabupaten Paser, Kalimantan Timur 76281","Jl. Tj. - Kuaro, Sungai Terik, Kec. Batu Sopang, Kabupaten Paser",KALIMANTAN TIMUR,76281.0,Indonesia,,,,-1.825103,115.976275,https://maps.google.com/?cid=0x0:0x1115c53c30753e6f,
mall,Pusat Perbelanjaan,Henny OLSHOP,"5W9F+R6F, Unnamed Road, Batu Kajang, Kec. Batu Sopang, Kabupaten Paser, Kalimantan Timur 76252","Unnamed Road, Batu Kajang, Kec. Batu Sopang, Kabupaten Paser",KALIMANTAN TIMUR,76252.0,Indonesia,85245834385.0,,,-1.8304447,115.9230502,https://maps.google.com/?cid=0x0:0x9badf3f12fefa3c6,
mall,Toko Pakaian,Qismiyya.shop,"5WG8+V73, Jl. Tj. - Kuaro, Batu Kajang, Kec. Batu Sopang, Kabupaten Paser, Kalimantan Timur 76252","Jl. Tj. - Kuaro, Batu Kajang, Kec. Batu Sopang, Kabupaten Paser",KALIMANTAN TIMUR,76252.0,Indonesia,85251291993.0,,,-1.8228696,115.9156701,https://maps.google.com/?cid=0x0:0x58a58410a02545aa,
mall,Toko bahan makanan,Warung mama puja,"5VJW+CVQ, Batu Kajang, Kec. Batu Sopang, Kabupaten Paser, Kalimantan Timur 76252","Batu Kajang, Kec. Batu Sopang, Kabupaten Paser",KALIMANTAN TIMUR,76252.0,Indonesia,,,,-1.8189043,115.8972413,https://maps.google.com/?cid=0x0:0x95a5258f514e1e11,
mall,Toko,Parfum Laundry HH,"5W9J+8P2, Batu Kajang, Kec. Batu Sopang, Kabupaten Paser, Kalimantan Timur 76252","Batu Kajang, Kec. Batu Sopang, Kabupaten Paser",KALIMANTAN TIMUR,76252.0,Indonesia,,,,-1.8317276,115.9317759,https://maps.google.com/?cid=0x0:0x8656828a344ecf4f,
mall,Toko Pakaian,DeFleur Shop,"8R58+RVC, Jl. Tj. - Kuaro, Batu Butok, Kec. Muara Komam, Kabupaten Paser, Kalimantan Timur 76253","Jl. Tj. - Kuaro, Batu Butok, Kec. Muara Komam, Kabupaten Paser",KALIMANTAN TIMUR,76253.0,Indonesia,82158020571.0,,,-1.6904416,115.8171509,https://maps.google.com/?cid=0x0:0x648619cfa071306b,
mall,Pusat Perbelanjaan,Tk sadikin,"Jl. Tj. - Kuaro No.367, Sungai Terik, Kec. Batu Sopang, Kabupaten Paser, Kalimantan Timur 76281","Sungai Terik, Kec. Batu Sopang, Kabupaten Paser",KALIMANTAN TIMUR,76281.0,Indonesia,,,,-1.8243051,115.9813777,https://maps.google.com/?cid=0x0:0x339b9f42607328b8,
mall,Toko,Toko DIANA,"5VJW+PV2, Toko >>","Kabupaten Paser, Kalimantan Timur",KALIMANTAN TIMUR,,Indonesia,,,,-1.8182351,115.8971448,https://maps.google.com/?cid=0x0:0x87110d67c65afc5,
mall,Pusat Perbelanjaan,Rumah dika alok,"RT013, Jl. Ps. Baru, Batu Kajang, Kec. Batu Sopang, Kabupaten Paser, Kalimantan Timur 76252","Jl. Ps. Baru, Batu Kajang, Kec. Batu Sopang, Kabupaten Paser",KALIMANTAN TIMUR,76252.0,Indonesia,,,,-1.8347632,115.9283409,https://maps.google.com/?cid=0x0:0xc03e813db171576e,
mall,Toko Perlengkapan Bayi,Galaxy7 Baby Shop,"Batu Kajang, Kec. Batu Sopang, Kabupaten Paser, Kalimantan Timur 76252","Kec. Batu Sopang, Kabupaten Paser",KALIMANTAN TIMUR,76252.0,Indonesia,82266224478.0,,,-1.8311328,115.927178,https://maps.google.com/?cid=0x0:0x13f8150c877cd2a9,
mall,Toko bahan makanan,Warung Sayur Bude,"Batu Kajang, Kec. Batu Sopang, Kabupaten Paser, Kalimantan Timur 76252","Kec. Batu Sopang, Kabupaten Paser",KALIMANTAN TIMUR,76252.0,Indonesia,82254700801.0,,,-1.8188418,115.9008195,https://maps.google.com/?cid=0x0:0xb83c9957d8b33ec2,
mall,Toko Herbal,AGEN STOKIS HPAI Batu Kajang,"5WC9+4PC, Batu Kajang, Kec. Batu Sopang, Kabupaten Paser, Kalimantan Timur 76252","Batu Kajang, Kec. Batu Sopang, Kabupaten Paser",KALIMANTAN TIMUR,76252.0,Indonesia,82260956687.0,,,-1.8296762,115.9192703,https://maps.google.com/?cid=0x0:0xedbb3de24adf8350,
mall,Sekolah menengah,SMA Negeri 1 Muara Samu,"Muser, Kec. Muara Samu, Kabupaten Paser, Kalimantan Timur 76252","Kec. Muara Samu, Kabupaten Paser",KALIMANTAN TIMUR,76252.0,Indonesia,,,,-2.0043231,115.9321985,https://maps.google.com/?cid=0x0:0x98a1a3fe5672503a,
mall,mall,Pasir Belengkong,"Kec. Pasir Belengkong, Kabupaten Paser, Kalimantan Timur","Kabupaten Paser, Kalimantan Timur",KALIMANTAN TIMUR,,Indonesia,,,,-1.9689999,116.1950214,https://maps.google.com/?cid=0x0:0x6221fbd222a5cafb,
mall,Pusat Perbelanjaan,EBCedobatuahcell,"Jl. Jenderal Sudirman, Tanah Grogot, Kec. Tanah Grogot, Kabupaten Paser, Kalimantan Timur 76251","Tanah Grogot, Kec. Tanah Grogot, Kabupaten Paser",KALIMANTAN TIMUR,76251.0,Indonesia,,,,-1.9126401,116.1981446,https://maps.google.com/?cid=0x0:0x11f46f02797a8f20,
mall,Toko,Toko Nanik,"2638+HX7, Pasir Belengkong, Kec. Pasir Belengkong, Kabupaten Paser, Kalimantan Timur 76271","Pasir Belengkong, Kec. Pasir Belengkong, Kabupaten Paser",KALIMANTAN TIMUR,76271.0,Indonesia,,,,-1.9960944,116.2174089,https://maps.google.com/?cid=0x0:0x996da858749b07b8,
mall,Toko Pakaian,Lily18shop,"3636+H27, Tanah Periuk, Kec. Tanah Grogot, Kabupaten Paser, Kalimantan Timur 76271","Tanah Periuk, Kec. Tanah Grogot, Kabupaten Paser",KALIMANTAN TIMUR,76271.0,Indonesia,83140927890.0,,,-1.94609,116.2100421,https://maps.google.com/?cid=0x0:0x2785796ba8ae348,
mall,mall,Kec. Pasir Belengkong,"Kabupaten Paser, Kalimantan Timur","Kabupaten Paser, Kalimantan Timur",KALIMANTAN TIMUR,,Indonesia,,,,-1.9302718,116.1250375,https://maps.google.com/?cid=0x0:0x29b1555f654c0c6c,
mall,Museum,Museum Sadurengas,"3626+Q73, Jl. Keraton, Pasir Belengkong, Kec. Pasir Belengkong, Kabupaten Paser, Kalimantan Timur 76271","Jl. Keraton, Pasir Belengkong, Kec. Pasir Belengkong, Kabupaten Paser",KALIMANTAN TIMUR,76271.0,Indonesia,82250015947.0,,,-1.9481038,116.2106638,https://maps.google.com/?cid=0x0:0xd8c868686ceee658,
mall,Pusat Perbelanjaan,Shinsya.Official,"jalan gg kakalati 2 No.36, RT.006, Tanah Periuk, Kec. Tanah Grogot, Kabupaten Paser, Kalimantan Timur 76211","RT.006, Tanah Periuk, Kec. Tanah Grogot, Kabupaten Paser",KALIMANTAN TIMUR,76211.0,Indonesia,85345776123.0,,,-1.9268834,116.1896679,https://maps.google.com/?cid=0x0:0xed0d219cce839dcd,
mall,Pusat Perbelanjaan,BMC Plaza Kandilo,"35QX+593, Tanah Grogot, Kec. Tanah Grogot, Kabupaten Paser, Kalimantan Timur 76251","Tanah Grogot, Kec. Tanah Grogot, Kabupaten Paser",KALIMANTAN TIMUR,76251.0,Indonesia,82354871321.0,,,-1.9121077,116.1984236,https://maps.google.com/?cid=0x0:0x24d4c8dff79227f8,
mall,Pusat Perbelanjaan,Kandilo Plaza,"35PX+J47, Jl. Kandilo Bahari, Tanah Grogot, Kec. Tanah Grogot, Kabupaten Paser, Kalimantan Timur 76251","Jl. Kandilo Bahari, Tanah Grogot, Kec. Tanah Grogot, Kabupaten Paser",KALIMANTAN TIMUR,76251.0,Indonesia,,,,-1.9134597,116.1977913,https://maps.google.com/?cid=0x0:0x2be8d0ab6b7b9ed7,
mall,Pusat Perbelanjaan,Edocell Plz Kandilo Lantai 1,"35PX+X8H, Tanah Grogot, Kec. Tanah Grogot, Kabupaten Paser, Kalimantan Timur 76251","Tanah Grogot, Kec. Tanah Grogot, Kabupaten Paser",KALIMANTAN TIMUR,76251.0,Indonesia,85252711140.0,,,-1.912553,116.198354,https://maps.google.com/?cid=0x0:0xb2b9e38752e125d,
mall,Pusat Perbelanjaan,BC RESMI DRW SKINCARE (Semi sulastri),"252V+FV8, Suatang Baru, Kec. Pasir Belengkong, Kabupaten Paser, Kalimantan Timur 76271","Suatang Baru, Kec. Pasir Belengkong, Kabupaten Paser",KALIMANTAN TIMUR,76271.0,Indonesia,85245515585.0,,,-1.9988399,116.1947001,https://maps.google.com/?cid=0x0:0xc82c2c5211574758,
mall,Toko,WISATA BELANJA ( WISBEL ),"35PW+HHQ, Tanah Grogot, Kec. Tanah Grogot, Kabupaten Paser, Kalimantan Timur 76251","Tanah Grogot, Kec. Tanah Grogot, Kabupaten Paser",KALIMANTAN TIMUR,76251.0,Indonesia,,,,-1.9135253,116.1964739,https://maps.google.com/?cid=0x0:0x253718be2224c4b,
mall,Pasar,Pasar Benuo,"26X6+H2H, Pasir Belengkong, Kec. Pasir Belengkong, Kabupaten Paser, Kalimantan Timur 76271","Pasir Belengkong, Kec. Pasir Belengkong, Kabupaten Paser",KALIMANTAN TIMUR,76271.0,Indonesia,,,,-1.9510505,116.2101236,https://maps.google.com/?cid=0x0:0xfc465267c30d689c,
mall,Pusat Perbelanjaan,Pusat Perbelanjaan Paser,"35PX+P6P, Jl. R. Suprapto, Tanah Grogot, Kec. Tanah Grogot, Kabupaten Paser, Kalimantan Timur 76251","Jl. R. Suprapto, Tanah Grogot, Kec. Tanah Grogot, Kabupaten Paser",KALIMANTAN TIMUR,76251.0,Indonesia,,,,-1.9131532,116.1980671,https://maps.google.com/?cid=0x0:0x8dab99417ae8eb51,
mall,Toko Ponsel,Konter Rizel Cell,"3599+535, Unnamed Road, Damit, Kec. Pasir Belengkong, Kabupaten Paser, Kalimantan Timur 76251","Unnamed Road, Damit, Kec. Pasir Belengkong, Kabupaten Paser",KALIMANTAN TIMUR,76251.0,Indonesia,,,,-1.9321173,116.1677202,https://maps.google.com/?cid=0x0:0xfdb0894c1b0b3a73,
mall,Toko,Nazmi Home Store / Gudang,"Unnamed Road, Damit, Kec. Pasir Belengkong, Kabupaten Paser, Kalimantan Timur 76251","Damit, Kec. Pasir Belengkong, Kabupaten Paser",KALIMANTAN TIMUR,76251.0,Indonesia,87761363943.0,,,-1.9281385,116.1459861,https://maps.google.com/?cid=0x0:0xf7919c9c300bf1dc,
mall,Toko Kesehatan dan Kecantikan,Milagros Paser Kalimantan Timur,"Tepian Batang, Kec. Tanah Grogot, Kabupaten Paser, Kalimantan Timur 76251","Kec. Tanah Grogot, Kabupaten Paser",KALIMANTAN TIMUR,76251.0,Indonesia,81347094746.0,,,-1.9317884,116.1690908,https://maps.google.com/?cid=0x0:0xbfee4b938d3f2b93,
mall,Pusat Perbelanjaan,Pasir Jaya Abadi,"36V2+FC8, Jl. Anden Oko, Tanah Grogot, Kec. Tanah Grogot, Kabupaten Paser, Kalimantan Timur 76251","Jl. Anden Oko, Tanah Grogot, Kec. Tanah Grogot, Kabupaten Paser",KALIMANTAN TIMUR,76251.0,Indonesia,,,,-1.9063385,116.2010884,https://maps.google.com/?cid=0x0:0xda9382fd0f1eea90,
mall,Pusat Perbelanjaan,Putu cangir khas Makassar,"Jl. Sultan Adam, Tanah Periuk, Kec. Tanah Grogot, Kabupaten Paser, Kalimantan Timur 76271","Tanah Periuk, Kec. Tanah Grogot, Kabupaten Paser",KALIMANTAN TIMUR,76271.0,Indonesia,,,,-1.9441103,116.2089135,https://maps.google.com/?cid=0x0:0xba6e826b4974d76b,
mall,Pusat Perbelanjaan,Depo AIR MINUM Linda,"3589+X98, Damit, Kec. Pasir Belengkong, Kabupaten Paser, Kalimantan Timur 76251","Damit, Kec. Pasir Belengkong, Kabupaten Paser",KALIMANTAN TIMUR,76251.0,Indonesia,,,,-1.9325882,116.1684477,https://maps.google.com/?cid=0x0:0xe6bdd0ddb2cc9239,
mall,Pusat Perbelanjaan,Balikpapan,"36R3+W2F, Tanah Grogot, Kec. Balikpapan Kota, Kabupaten Paser, Kalimantan Timur 76251","Tanah Grogot, Kec. Balikpapan Kota, Kabupaten Paser",KALIMANTAN TIMUR,76251.0,Indonesia,,,,-1.9076941,116.2025331,https://maps.google.com/?cid=0x0:0x1ae4bd5b763e8002,
mall,mall,Kalimantan Timur 76251,"Kabupaten Paser, Kalimantan Timur","Kabupaten Paser, Kalimantan Timur",KALIMANTAN TIMUR,,Indonesia,,,,-1.8898443,116.1832068,https://maps.google.com/?cid=0x0:0xca69f8ee7df89d8f,
mall,Pusat Perbelanjaan,EBCedobatuahcell,"Jl. Jenderal Sudirman, Tanah Grogot, Kec. Tanah Grogot, Kabupaten Paser, Kalimantan Timur 76251","Tanah Grogot, Kec. Tanah Grogot, Kabupaten Paser",KALIMANTAN TIMUR,76251.0,Indonesia,,,,-1.9126401,116.1981446,https://maps.google.com/?cid=0x0:0x11f46f02797a8f20,
mall,Pusat Perbelanjaan,Pusat Perbelanjaan Paser,"35PX+P6P, Jl. R. Suprapto, Tanah Grogot, Kec. Tanah Grogot, Kabupaten Paser, Kalimantan Timur 76251","Jl. R. Suprapto, Tanah Grogot, Kec. Tanah Grogot, Kabupaten Paser",KALIMANTAN TIMUR,76251.0,Indonesia,,,,-1.9131532,116.1980671,https://maps.google.com/?cid=0x0:0x8dab99417ae8eb51,
mall,Pusat Perbelanjaan,Kandilo Plaza,"35PX+J47, Jl. Kandilo Bahari, Tanah Grogot, Kec. Tanah Grogot, Kabupaten Paser, Kalimantan Timur 76251","Jl. Kandilo Bahari, Tanah Grogot, Kec. Tanah Grogot, Kabupaten Paser",KALIMANTAN TIMUR,76251.0,Indonesia,,,,-1.9134597,116.1977913,https://maps.google.com/?cid=0x0:0x2be8d0ab6b7b9ed7,
mall,Pusat Perbelanjaan,BMC Plaza Kandilo,"35QX+593, Tanah Grogot, Kec. Tanah Grogot, Kabupaten Paser, Kalimantan Timur 76251","Tanah Grogot, Kec. Tanah Grogot, Kabupaten Paser",KALIMANTAN TIMUR,76251.0,Indonesia,82354871321.0,,,-1.9121077,116.1984236,https://maps.google.com/?cid=0x0:0x24d4c8dff79227f8,
mall,Pusat Perbelanjaan,Edocell Plz Kandilo Lantai 1,"35PX+X8H, Tanah Grogot, Kec. Tanah Grogot, Kabupaten Paser, Kalimantan Timur 76251","Tanah Grogot, Kec. Tanah Grogot, Kabupaten Paser",KALIMANTAN TIMUR,76251.0,Indonesia,85252711140.0,,,-1.912553,116.198354,https://maps.google.com/?cid=0x0:0xb2b9e38752e125d,
mall,Pusat Perbelanjaan,Pasir Jaya Abadi,"36V2+FC8, Jl. Anden Oko, Tanah Grogot, Kec. Tanah Grogot, Kabupaten Paser, Kalimantan Timur 76251","Jl. Anden Oko, Tanah Grogot, Kec. Tanah Grogot, Kabupaten Paser",KALIMANTAN TIMUR,76251.0,Indonesia,,,,-1.9063385,116.2010884,https://maps.google.com/?cid=0x0:0xda9382fd0f1eea90,
mall,Pusat Perbelanjaan,Mannya,"35RX+498, Tanah Grogot, Kec. Tanah Grogot, Kabupaten Paser, Kalimantan Timur 76251","Tanah Grogot, Kec. Tanah Grogot, Kabupaten Paser",KALIMANTAN TIMUR,76251.0,Indonesia,83133477921.0,,,-1.9097203,116.1984654,https://maps.google.com/?cid=0x0:0x8b0f70df204c01a1,
mall,Toko Kesehatan dan Kecantikan,Milagros Paser Kalimantan Timur,"Tepian Batang, Kec. Tanah Grogot, Kabupaten Paser, Kalimantan Timur 76251","Kec. Tanah Grogot, Kabupaten Paser",KALIMANTAN TIMUR,76251.0,Indonesia,81347094746.0,,,-1.9317884,116.1690908,https://maps.google.com/?cid=0x0:0xbfee4b938d3f2b93,
mall,Toko,Toko Musuh Hama 1,"Jone, Kec. Tanah Grogot, Kabupaten Paser, Kalimantan Timur 76251","Kec. Tanah Grogot, Kabupaten Paser",KALIMANTAN TIMUR,76251.0,Indonesia,8125377856.0,,,-1.9054354,116.2071913,https://maps.google.com/?cid=0x0:0xfe73c0616f6656e6,
mall,Pusat Perbelanjaan,Shinsya.Official,"jalan gg kakalati 2 No.36, RT.006, Tanah Periuk, Kec. Tanah Grogot, Kabupaten Paser, Kalimantan Timur 76211","RT.006, Tanah Periuk, Kec. Tanah Grogot, Kabupaten Paser",KALIMANTAN TIMUR,76211.0,Indonesia,85345776123.0,,,-1.9268834,116.1896679,https://maps.google.com/?cid=0x0:0xed0d219cce839dcd,
mall,Pusat Perbelanjaan,RAFLYCELL,"36W3+634, Jl. MT. Haryono, Tanah Grogot, Kec. Tanah Grogot, Kabupaten Paser, Kalimantan Timur 76251","Jl. MT. Haryono, Tanah Grogot, Kec. Tanah Grogot, Kabupaten Paser",KALIMANTAN TIMUR,76251.0,Indonesia,83866650333.0,,,-1.9044986,116.2027086,https://maps.google.com/?cid=0x0:0xeecf8ffe91c25fed,
mall,Toko,Pusat Oleh Oleh Khas Paser,"459G+4G3, Sempulang, Kec. Tanah Grogot, Kabupaten Paser, Kalimantan Timur 76251","Sempulang, Kec. Tanah Grogot, Kabupaten Paser",KALIMANTAN TIMUR,76251.0,Indonesia,,,,-1.8822411,116.176289,https://maps.google.com/?cid=0x0:0xa3846e06fa618731,
mall,Perusahaan Media,RPW Production,"35PQ+7G5, Jl. Delima, Tanah Grogot, Kec. Tanah Grogot, Kabupaten Paser, Kalimantan Timur 76251","Jl. Delima, Tanah Grogot, Kec. Tanah Grogot, Kabupaten Paser",KALIMANTAN TIMUR,76251.0,Indonesia,81346479603.0,,,-1.9143632,116.1888588,https://maps.google.com/?cid=0x0:0x152b77ecb03f3bb4,
mall,Toko bahan makanan,Kmv Store,"Jl. Untung Suropati No.RT 02, Jone, Kec. Tanah Grogot, Kabupaten Paser, Kalimantan Timur 76251","Jone, Kec. Tanah Grogot, Kabupaten Paser",KALIMANTAN TIMUR,76251.0,Indonesia,81250127694.0,,,-1.898254,116.2004762,https://maps.google.com/?cid=0x0:0x71634aefabe404be,
mall,Toko,TOKO IRWANDY,"Jl. Yos Sudarso Jl. Senaken No.RT003, Jone, Kec. Tanah Grogot, Kabupaten Paser, Kalimantan Timur 76251","Jone, Kec. Tanah Grogot, Kabupaten Paser",KALIMANTAN TIMUR,76251.0,Indonesia,85350586650.0,,,-1.9052127,116.207714,https://maps.google.com/?cid=0x0:0x1f8f26ccb60da86b,
mall,Pasar,Pasar Malam BlokD,"Jalan Simpang Empat No.Blok D, Padang Pengrapat, Kec. Tanah Grogot, Kabupaten Paser, Kalimantan Timur 76251","Padang Pengrapat, Kec. Tanah Grogot, Kabupaten Paser",KALIMANTAN TIMUR,76251.0,Indonesia,,,,-1.8471247,116.2304237,https://maps.google.com/?cid=0x0:0x116b5a71476a9dfe,
mall,Salon Kecantikan,STUDIO BUNILLA,"Jl. R. Suprapto, Tanah Grogot, Kec. Tanah Grogot, Kabupaten Paser, Kalimantan Timur 76251","Tanah Grogot, Kec. Tanah Grogot, Kabupaten Paser",KALIMANTAN TIMUR,76251.0,Indonesia,85246828483.0,,,-1.9101753,116.1997731,https://maps.google.com/?cid=0x0:0xb3e68081256c009c,
mall,Toko,Hi-Cell,"Jl. R. A Kartini, Tanah Grogot, Kec. Tanah Grogot, Kabupaten Paser, Kalimantan Timur 76251","Tanah Grogot, Kec. Tanah Grogot, Kabupaten Paser",KALIMANTAN TIMUR,76251.0,Indonesia,81347384169.0,,,-1.9110085,116.1971029,https://maps.google.com/?cid=0x0:0x45630e0b2d8fefca,
mall,Pusat Perbelanjaan,Toko RAMAYANA HAR TATIC,"36X2+4J8, Jl. Untung Suropati, Tanah Grogot, Kec. Tanah Grogot, Kabupaten Paser, Kalimantan Timur 76251","Jl. Untung Suropati, Tanah Grogot, Kec. Tanah Grogot, Kabupaten Paser",KALIMANTAN TIMUR,76251.0,Indonesia,81346895558.0,,,-1.9022058,116.2015837,https://maps.google.com/?cid=0x0:0x3e67693e809fda8d,
mall,Pusat Perbelanjaan,Toko Amanuddin,"Tanah Grogot, Kec. Tanah Grogot, Kabupaten Paser, Kalimantan Timur 76251","Kec. Tanah Grogot, Kabupaten Paser",KALIMANTAN TIMUR,76251.0,Indonesia,,,,-1.9011996,116.1843735,https://maps.google.com/?cid=0x0:0x62de646e19ea0184,
mall,Pusat Perbelanjaan,BRV3ZVNY,"Rt 6, Senipah, Tj. Harapan, Kabupaten Paser, Kalimantan Timur 75277","Senipah, Tj. Harapan, Kabupaten Paser",KALIMANTAN TIMUR,75277.0,Indonesia,85249823406.0,,,-0.9585511,117.1634246,https://maps.google.com/?cid=0x0:0x26b3715e13d2cc27,
mall,Toko Swalayan,Riswan store rona NASA,"3R5H+2MQ, Jl. Karya Bangun, Argo Mulyo, Kec. Sepaku, Kabupaten Penajam Paser Utara, Kalimantan Timur 76147","Jl. Karya Bangun, Argo Mulyo, Kec. Sepaku, Kabupaten Penajam Paser Utara",KALIMANTAN TIMUR,76147.0,Indonesia,,,,-0.9424012,116.8292383,https://maps.google.com/?cid=0x0:0xca1bf062058ebd42,
mall,Pusat Perbelanjaan,Koja Trade Mall,"Jl. Kramat Jaya Raya No.30, Tugu Utara, Kec. Koja, Jkt Utara, Daerah Khusus Ibukota Jakarta 14260","Tugu Utara, Kec. Koja, Jkt Utara",KALIMANTAN TIMUR,14260.0,Indonesia,2143800888.0,,,-6.1225948,106.9161213,https://maps.google.com/?cid=0x0:0xd8cf1740a22e66ee,
mall,Pusat Perbelanjaan,Koja trade mall/pasar Koja baru,"Jl. Mawar 4 No.5-23, RT.9/RW.11, Tugu Utara, Kec. Koja, Jkt Utara, Daerah Khusus Ibukota Jakarta 14260","RT.9/RW.11, Tugu Utara, Kec. Koja, Jkt Utara",KALIMANTAN TIMUR,14260.0,Indonesia,,,,-6.1198489,106.9082845,https://maps.google.com/?cid=0x0:0x156c843874c72e71,
mall,Pusat Hiburan Video Game Arkade,Timezone,"L1 , Koja Trade Mall , JL. Kramat Jaya Raya , Koja , 14210 Jakarta Utara , DKI Jakarta, RT.2/RW.17, North Tugu, Koja, North Jakarta City, Jakarta 14260",Jakarta Utara ,KALIMANTAN TIMUR,14210.0,Indonesia,2143931929.0,,,-6.122708,106.915882,https://maps.google.com/?cid=0x0:0x6ce3a367db3e5bc6,
mall,Kedai Kopi,TOMORO COFFEE - Koja Trade Mall,"Jl. Kramat Jaya Raya No.30, Tugu Utara, Kec. Koja, Jkt Utara, Daerah Khusus Ibukota Jakarta 14260","Tugu Utara, Kec. Koja, Jkt Utara",KALIMANTAN TIMUR,14260.0,Indonesia,85880194290.0,,,-6.1219966,106.9158605,https://maps.google.com/?cid=0x0:0xed59f7417f763773,
mall,Pusat Perbelanjaan,Koja Trade Mall,"Jl. Bhayangkara No.1, Tugu Utara, Kec. Koja, Jkt Utara, Daerah Khusus Ibukota Jakarta 14260","Tugu Utara, Kec. Koja, Jkt Utara",KALIMANTAN TIMUR,14260.0,Indonesia,,,,-6.1223367,106.9134389,https://maps.google.com/?cid=0x0:0x512568860f190575,
mall,Pusat Perbelanjaan,Tanjung harapan,"FHM6+P44, Unnamed Road, Tj. Harapan, Kec. Sindang Danau, Kabupaten Ogan Komering Ulu Selatan, Sumatera Selatan 38961","Unnamed Road, Tj. Harapan, Kec. Sindang Danau, Kabupaten Ogan Komering Ulu Selatan",KALIMANTAN TIMUR,38961.0,Indonesia,,,,-4.5157273,103.5603262,https://maps.google.com/?cid=0x0:0xf41e364414b2a080,
mall,Toko Swalayan,Toko Tanjung Harapan,"M4V5+6HV, Pandeglang, Kec. Pandeglang, Kabupaten Pandeglang, Banten 42211","Pandeglang, Kec. Pandeglang, Kabupaten Pandeglang",KALIMANTAN TIMUR,42211.0,Indonesia,,,,-6.3068865,106.1089303,https://maps.google.com/?cid=0x0:0xa15bad10b921cbac,
mall,Mal outlet,Supermal Karawaci,"Jl. Boulevard Diponegoro No.105, Bencongan, Kec. Klp. Dua, Kabupaten Tangerang, Banten 15810","Bencongan, Kec. Klp. Dua, Kabupaten Tangerang",KALIMANTAN TIMUR,15810.0,Indonesia,215466666.0,,,-6.2268116,106.6070233,https://maps.google.com/?cid=0x0:0xc5927a7be82e23b8,
mall,Pusat Perbelanjaan,Mall Taman Anggrek,"Jl. Letjen S. Parman No.Kav 21, RT.12/RW.1, Tj. Duren Sel., Kec. Grogol petamburan, Kota Jakarta Barat, Daerah Khusus Ibukota Jakarta 11470","RT.12/RW.1, Tj. Duren Sel., Kec. Grogol petamburan, Kota Jakarta Barat",KALIMANTAN TIMUR,11470.0,Indonesia,215643777.0,,,-6.1786943,106.7927014,https://maps.google.com/?cid=0x0:0xb287bf108f4ef441,
mall,China,Hublife Taman Anggrek,"Jl. Tj. Duren Timur 2, RT.12/RW.1, Tj. Duren Sel., Kec. Grogol petamburan, Kota Jakarta Barat, Daerah Khusus Ibukota Jakarta 11470","RT.12/RW.1, Tj. Duren Sel., Kec. Grogol petamburan, Kota Jakarta Barat",KALIMANTAN TIMUR,11470.0,Indonesia,2150622288.0,,,-6.1807487,106.7921782,https://maps.google.com/?cid=0x0:0x88fab696821699af,
mall,Toko Pakaian,Toko harapan adek,"Jl. Komp. Griya Kencana II No.No, RT.15RT.002/RW.007, Sudimara Sel., JayaKec. CiledugKota, Kota Tangerang, Banten 15151","RT.15RT.002/RW.007, Sudimara Sel., JayaKec. CiledugKota, Kota Tangerang",KALIMANTAN TIMUR,15151.0,Indonesia,,,,-6.2259711,106.7099757,https://maps.google.com/?cid=0x0:0xff4531879a78ba42,
mall,Pusat Perbelanjaan,PTC Mall Palembang,"Jl. R. Sukamto No.8A, 8 Ilir, Kec. Ilir Tim. II, Kota Palembang, Sumatera Selatan 30114","8 Ilir, Kec. Ilir Tim. II, Kota Palembang",KALIMANTAN TIMUR,30114.0,Indonesia,711822388.0,,,-2.9513689,104.7614562,https://maps.google.com/?cid=0x0:0xa8b8c4c7c242a1e4,
mall,Toko Ponsel,Yumna Cell,"7J3R+5G8, Jl. Transad, Kp. Jawa, Kec. Tj. Harapan, Kabupaten Solok, Sumatera Barat 27321","Jl. Transad, Kp. Jawa, Kec. Tj. Harapan, Kabupaten Solok",KALIMANTAN TIMUR,27321.0,Indonesia,,,,-0.7470769,100.6413208,https://maps.google.com/?cid=0x0:0xcd2612c1066a94e6,
mall,Pusat Perbelanjaan,Koja Trade Mall,"Jl. Kramat Jaya Raya No.30, Tugu Utara, Kec. Koja, Jkt Utara, Daerah Khusus Ibukota Jakarta 14260","Tugu Utara, Kec. Koja, Jkt Utara",KALIMANTAN TIMUR,14260.0,Indonesia,2143800888.0,,,-6.1225948,106.9161213,https://maps.google.com/?cid=0x0:0xd8cf1740a22e66ee,
mall,Pusat Perbelanjaan,grade mall koja,"Jl. Fort Timur No.71, RT.3/RW.12, Koja, Kec. Koja, Jkt Utara, Daerah Khusus Ibukota Jakarta 14220","RT.3/RW.12, Koja, Kec. Koja, Jkt Utara",KALIMANTAN TIMUR,14220.0,Indonesia,,,,-6.1120247,106.8946299,https://maps.google.com/?cid=0x0:0x3d585438a3332027,
mall,Pusat Perbelanjaan,Koja trade mall/pasar Koja baru,"Jl. Mawar 4 No.5-23, RT.9/RW.11, Tugu Utara, Kec. Koja, Jkt Utara, Daerah Khusus Ibukota Jakarta 14260","RT.9/RW.11, Tugu Utara, Kec. Koja, Jkt Utara",KALIMANTAN TIMUR,14260.0,Indonesia,,,,-6.1198489,106.9082845,https://maps.google.com/?cid=0x0:0x156c843874c72e71,
mall,Kedai Kopi,TOMORO COFFEE - Koja Trade Mall,"Jl. Kramat Jaya Raya No.30, Tugu Utara, Kec. Koja, Jkt Utara, Daerah Khusus Ibukota Jakarta 14260","Tugu Utara, Kec. Koja, Jkt Utara",KALIMANTAN TIMUR,14260.0,Indonesia,85880194290.0,,,-6.1219966,106.9158605,https://maps.google.com/?cid=0x0:0xed59f7417f763773,
mall,Pusat Perbelanjaan,Koja Trade Mall,"Jl. Bhayangkara No.1, Tugu Utara, Kec. Koja, Jkt Utara, Daerah Khusus Ibukota Jakarta 14260","Tugu Utara, Kec. Koja, Jkt Utara",KALIMANTAN TIMUR,14260.0,Indonesia,,,,-6.1223367,106.9134389,https://maps.google.com/?cid=0x0:0x512568860f190575,
mall,Pusat Perbelanjaan,Tanjung harapan,"FHM6+P44, Unnamed Road, Tj. Harapan, Kec. Sindang Danau, Kabupaten Ogan Komering Ulu Selatan, Sumatera Selatan 38961","Unnamed Road, Tj. Harapan, Kec. Sindang Danau, Kabupaten Ogan Komering Ulu Selatan",KALIMANTAN TIMUR,38961.0,Indonesia,,,,-4.5157273,103.5603262,https://maps.google.com/?cid=0x0:0xf41e364414b2a080,
mall,Pusat Perbelanjaan,Mall Taman Anggrek,"Jl. Letjen S. Parman No.Kav 21, RT.12/RW.1, Tj. Duren Sel., Kec. Grogol petamburan, Kota Jakarta Barat, Daerah Khusus Ibukota Jakarta 11470","RT.12/RW.1, Tj. Duren Sel., Kec. Grogol petamburan, Kota Jakarta Barat",KALIMANTAN TIMUR,11470.0,Indonesia,215643777.0,,,-6.1786943,106.7927014,https://maps.google.com/?cid=0x0:0xb287bf108f4ef441,
mall,China,Hublife Taman Anggrek,"Jl. Tj. Duren Timur 2, RT.12/RW.1, Tj. Duren Sel., Kec. Grogol petamburan, Kota Jakarta Barat, Daerah Khusus Ibukota Jakarta 11470","RT.12/RW.1, Tj. Duren Sel., Kec. Grogol petamburan, Kota Jakarta Barat",KALIMANTAN TIMUR,11470.0,Indonesia,2150622288.0,,,-6.1807487,106.7921782,https://maps.google.com/?cid=0x0:0x88fab696821699af,
mall,Pusat Perbelanjaan,Area Belanja,"6J9W+VGC, Kp. Jawa, Kec. Tj. Harapan, Kota Solok, Sumatera Barat 27323","Kp. Jawa, Kec. Tj. Harapan, Kota Solok",KALIMANTAN TIMUR,27323.0,Indonesia,81268978119.0,,,-0.7803131,100.6462612,https://maps.google.com/?cid=0x0:0xc71f1efaae842402,
mall,Pusat Perbelanjaan,Yogo,"6M67+CM5, Ps. Pandan Air Mati, Kec. Tj. Harapan, Kota Solok, Sumatera Barat 27317","Ps. Pandan Air Mati, Kec. Tj. Harapan, Kota Solok",KALIMANTAN TIMUR,27317.0,Indonesia,85273302569.0,,,-0.7889935,100.6642295,https://maps.google.com/?cid=0x0:0x154142ff6d984545,
mall,Pasar,Pangkalan,"6M68+HHV, Jl. Prof. Dr. Moh. Yamin Sh, Ps. Pandan, Air Mati, Kec. Tj. Harapan, Kota Solok, Sumatera Barat 27317","Jl. Prof. Dr. Moh. Yamin Sh, Ps. Pandan, Air Mati, Kec. Tj. Harapan, Kota Solok",KALIMANTAN TIMUR,27317.0,Indonesia,,,,-0.811675,100.67946,https://maps.google.com/?cid=0x0:0x283f211e7b95dce1,
mall,Pusat Perbelanjaan,BRV3ZVNY,"Rt 6, Senipah, Tj. Harapan, Kabupaten Paser, Kalimantan Timur 75277","Senipah, Tj. Harapan, Kabupaten Paser",KALIMANTAN TIMUR,75277.0,Indonesia,85249823406.0,,,-0.9585511,117.1634246,https://maps.google.com/?cid=0x0:0x26b3715e13d2cc27,
mall,Toko Swalayan,Riswan store rona NASA,"3R5H+2MQ, Jl. Karya Bangun, Argo Mulyo, Kec. Sepaku, Kabupaten Penajam Paser Utara, Kalimantan Timur 76147","Jl. Karya Bangun, Argo Mulyo, Kec. Sepaku, Kabupaten Penajam Paser Utara",KALIMANTAN TIMUR,76147.0,Indonesia,,,,-0.9424012,116.8292383,https://maps.google.com/?cid=0x0:0xca1bf062058ebd42,
mall,Pusat Perbelanjaan,Koja Trade Mall,"Jl. Kramat Jaya Raya No.30, Tugu Utara, Kec. Koja, Jkt Utara, Daerah Khusus Ibukota Jakarta 14260","Tugu Utara, Kec. Koja, Jkt Utara",KALIMANTAN TIMUR,14260.0,Indonesia,2143800888.0,,,-6.1225948,106.9161213,https://maps.google.com/?cid=0x0:0xd8cf1740a22e66ee,
mall,Toko bahan makanan,Toko Rosihan Tanjung,"QX4J+J4M, Jl. Letnan Arsyad Raya, RT.004/RW.025, Kayuringin Jaya, Kec. Bekasi Sel., Kota Bks, Jawa Barat 17144","Jl. Letnan Arsyad Raya, RT.004/RW.025, Kayuringin Jaya, Kec. Bekasi Sel., Kota Bks",KALIMANTAN TIMUR,17144.0,Indonesia,,,,-6.243414,106.9802898,https://maps.google.com/?cid=0x0:0xc93c924dbb901560,
mall,Toko Swalayan,Toko Tanjung Harapan,"M4V5+6HV, Pandeglang, Kec. Pandeglang, Kabupaten Pandeglang, Banten 42211","Pandeglang, Kec. Pandeglang, Kabupaten Pandeglang",KALIMANTAN TIMUR,42211.0,Indonesia,,,,-6.3068865,106.1089303,https://maps.google.com/?cid=0x0:0xa15bad10b921cbac,
mall,Pusat Perbelanjaan,Ratu Plaza,"Jl. Jenderal Sudirman No.Kav. 9, RT.1/RW.3, Gelora, Kecamatan Tanah Abang, Kota Jakarta Pusat, Daerah Khusus Ibukota Jakarta 10270","RT.1/RW.3, Gelora, Kecamatan Tanah Abang, Kota Jakarta Pusat",KALIMANTAN TIMUR,10270.0,Indonesia,217394499.0,,,-6.2266481,106.8015903,https://maps.google.com/?cid=0x0:0x1fa8acd75c6678b,
mall,Pusat Perbelanjaan,Mall Artha Gading Jakarta,"Jl. Artha Gading Sel. No.1, Klp. Gading Bar., Kec. Klp. Gading, Jkt Utara, Daerah Khusus Ibukota Jakarta 14240","Klp. Gading Bar., Kec. Klp. Gading, Jkt Utara",KALIMANTAN TIMUR,14240.0,Indonesia,2145864000.0,,,-6.1457739,106.8919187,https://maps.google.com/?cid=0x0:0x176166b3d087c724,
mall,Pusat Perbelanjaan,BRV3ZVNY,"Rt 6, Senipah, Tj. Harapan, Kabupaten Paser, Kalimantan Timur 75277","Senipah, Tj. Harapan, Kabupaten Paser",KALIMANTAN TIMUR,75277.0,Indonesia,85249823406.0,,,-0.9585511,117.1634246,https://maps.google.com/?cid=0x0:0x26b3715e13d2cc27,
mall,Toko Swalayan,Riswan store rona NASA,"3R5H+2MQ, Jl. Karya Bangun, Argo Mulyo, Kec. Sepaku, Kabupaten Penajam Paser Utara, Kalimantan Timur 76147","Jl. Karya Bangun, Argo Mulyo, Kec. Sepaku, Kabupaten Penajam Paser Utara",KALIMANTAN TIMUR,76147.0,Indonesia,,,,-0.9424012,116.8292383,https://maps.google.com/?cid=0x0:0xca1bf062058ebd42,
mall,Toko Swalayan,AEON Mall Tanjung Barat,"Jl. Raya Tj. Barat No.163, RT.12/RW.4, Tj. Bar., Kec. Jagakarsa, Kota Jakarta Selatan, Daerah Khusus Ibukota Jakarta 12530","RT.12/RW.4, Tj. Bar., Kec. Jagakarsa, Kota Jakarta Selatan",KALIMANTAN TIMUR,12530.0,Indonesia,2150959888.0,,,-6.3067712,106.8398711,https://maps.google.com/?cid=0x0:0x5ce799145dbf8630,
mall,Pusat Perbelanjaan,BRV3ZVNY,"Rt 6, Senipah, Tj. Harapan, Kabupaten Paser, Kalimantan Timur 75277","Senipah, Tj. Harapan, Kabupaten Paser",KALIMANTAN TIMUR,75277.0,Indonesia,85249823406.0,,,-0.9585511,117.1634246,https://maps.google.com/?cid=0x0:0x26b3715e13d2cc27,
mall,Toko Swalayan,Riswan store rona NASA,"3R5H+2MQ, Jl. Karya Bangun, Argo Mulyo, Kec. Sepaku, Kabupaten Penajam Paser Utara, Kalimantan Timur 76147","Jl. Karya Bangun, Argo Mulyo, Kec. Sepaku, Kabupaten Penajam Paser Utara",KALIMANTAN TIMUR,76147.0,Indonesia,,,,-0.9424012,116.8292383,https://maps.google.com/?cid=0x0:0xca1bf062058ebd42,
mall,Toko Swalayan,AEON Mall Tanjung Barat,"Jl. Raya Tj. Barat No.163, RT.12/RW.4, Tj. Bar., Kec. Jagakarsa, Kota Jakarta Selatan, Daerah Khusus Ibukota Jakarta 12530","RT.12/RW.4, Tj. Bar., Kec. Jagakarsa, Kota Jakarta Selatan",KALIMANTAN TIMUR,12530.0,Indonesia,2150959888.0,,,-6.3067712,106.8398711,https://maps.google.com/?cid=0x0:0x5ce799145dbf8630,
mall,Toko Swalayan,Toko Tanjung Harapan,"M4V5+6HV, Pandeglang, Kec. Pandeglang, Kabupaten Pandeglang, Banten 42211","Pandeglang, Kec. Pandeglang, Kabupaten Pandeglang",KALIMANTAN TIMUR,42211.0,Indonesia,,,,-6.3068865,106.1089303,https://maps.google.com/?cid=0x0:0xa15bad10b921cbac,
mall,Pusat Perbelanjaan,Ratu Plaza,"Jl. Jenderal Sudirman No.Kav. 9, RT.1/RW.3, Gelora, Kecamatan Tanah Abang, Kota Jakarta Pusat, Daerah Khusus Ibukota Jakarta 10270","RT.1/RW.3, Gelora, Kecamatan Tanah Abang, Kota Jakarta Pusat",KALIMANTAN TIMUR,10270.0,Indonesia,217394499.0,,,-6.2266481,106.8015903,https://maps.google.com/?cid=0x0:0x1fa8acd75c6678b,
mall,Toko Pakaian,AGORA,"Jl. M.H. Thamrin No.10, Kb. Melati, Kecamatan Tanah Abang, Kota Jakarta Pusat, Daerah Khusus Ibukota Jakarta 10230","Kb. Melati, Kecamatan Tanah Abang, Kota Jakarta Pusat",KALIMANTAN TIMUR,10230.0,Indonesia,811306399.0,,,-6.1985989,106.821393,https://maps.google.com/?cid=0x0:0x8b079b179a71f129,
mall,Pusat Perbelanjaan,BRV3ZVNY,"Rt 6, Senipah, Tj. Harapan, Kabupaten Paser, Kalimantan Timur 75277","Senipah, Tj. Harapan, Kabupaten Paser",KALIMANTAN TIMUR,75277.0,Indonesia,85249823406.0,,,-0.9585511,117.1634246,https://maps.google.com/?cid=0x0:0x26b3715e13d2cc27,
mall,Toko Swalayan,Riswan store rona NASA,"3R5H+2MQ, Jl. Karya Bangun, Argo Mulyo, Kec. Sepaku, Kabupaten Penajam Paser Utara, Kalimantan Timur 76147","Jl. Karya Bangun, Argo Mulyo, Kec. Sepaku, Kabupaten Penajam Paser Utara",KALIMANTAN TIMUR,76147.0,Indonesia,,,,-0.9424012,116.8292383,https://maps.google.com/?cid=0x0:0xca1bf062058ebd42,
mall,Toko Swalayan,AEON Mall Tanjung Barat,"Jl. Raya Tj. Barat No.163, RT.12/RW.4, Tj. Bar., Kec. Jagakarsa, Kota Jakarta Selatan, Daerah Khusus Ibukota Jakarta 12530","RT.12/RW.4, Tj. Bar., Kec. Jagakarsa, Kota Jakarta Selatan",KALIMANTAN TIMUR,12530.0,Indonesia,2150959888.0,,,-6.3067712,106.8398711,https://maps.google.com/?cid=0x0:0x5ce799145dbf8630,
mall,Pusat Perbelanjaan,AEON Tanjung Barat,"Aeon Mall, Jl. Raya Tj. Barat, West Tanjung, Jagakarsa, South Jakarta City, Jakarta 12530","Jl. Raya Tj. Barat, West Tanjung, Jagakarsa, South Jakarta City",KALIMANTAN TIMUR,12530.0,Indonesia,2150942633.0,,,-6.3055928,106.8408289,https://maps.google.com/?cid=0x0:0xeb3a1f226b5911d8,
mall,Toko Swalayan,Toko Tanjung Harapan,"M4V5+6HV, Pandeglang, Kec. Pandeglang, Kabupaten Pandeglang, Banten 42211","Pandeglang, Kec. Pandeglang, Kabupaten Pandeglang",KALIMANTAN TIMUR,42211.0,Indonesia,,,,-6.3068865,106.1089303,https://maps.google.com/?cid=0x0:0xa15bad10b921cbac,
mall,mall,Kec. Tj. Harapan,"Kabupaten Paser, Kalimantan Timur","Kabupaten Paser, Kalimantan Timur",KALIMANTAN TIMUR,,Indonesia,,,,-2.3314575,116.4464809,https://maps.google.com/?cid=0x0:0xc713b1fba97cb40c,
mall,Toko,Toko Diana Mulia Harapan,"MVG7+F86 harapan, Jl. Mulia, Tanjung Harapan, Sebulu, East Kutai Regency, East Kalimantan 75552","Jl. Mulia, Tanjung Harapan, Sebulu, East Kutai Regency",KALIMANTAN TIMUR,75552.0,Indonesia,85640788666.0,,,-0.3238398,116.8632708,https://maps.google.com/?cid=0x0:0x2f8d317080261014,
mall,mall,BIGmall Samarinda,"Jl. Untung Suropati No.08, Karang Asam Ulu, Kec. Sungai Kunjang, Kota Samarinda, Kalimantan Timur 75243","Karang Asam Ulu, Kec. Sungai Kunjang, Kota Samarinda",KALIMANTAN TIMUR,75243.0,Indonesia,541274888.0,,,-0.5262742,117.1159382,https://maps.google.com/?cid=0x0:0x1028f1a62624ffcb,
mall,Pusat Perbelanjaan,Plaza Balikpapan,"Jl. Jenderal Sudirman No.1, Klandasan Ilir, Kecamatan Balikpapan Selatan, Kota Balikpapan, Kalimantan Timur 76113","Klandasan Ilir, Kecamatan Balikpapan Selatan, Kota Balikpapan",KALIMANTAN TIMUR,76113.0,Indonesia,,,,-1.2772591,116.8383956,https://maps.google.com/?cid=0x0:0x871680f80ece006c,
mall,mall,FUGO Hotel Samarinda,"Jl. Untung Suropati No.8, Karang Asam Ulu, Kec. Sungai Kunjang, Kota Samarinda, Kalimantan Timur 75243","Karang Asam Ulu, Kec. Sungai Kunjang, Kota Samarinda",KALIMANTAN TIMUR,75243.0,Indonesia,5416280888.0,,,-0.5269441,117.1150798,https://maps.google.com/?cid=0x0:0xdea1fd303d780d64,
mall,mall,Tranz MAV Hotel Samarinda,"Jl. Teuku Umar No.A, 01, Karang Asam Ulu, Kec. Sungai Kunjang, Kota Samarinda, Kalimantan Timur 75126","01, Karang Asam Ulu, Kec. Sungai Kunjang, Kota Samarinda",KALIMANTAN TIMUR,75126.0,Indonesia,85215189189.0,,,-0.5167981,117.1036697,https://maps.google.com/?cid=0x0:0x920044e1682ba2cc,
mall,mall,Guest House Remaja,"Komplek Karpotek, Jl. Untung Suropati Blok HHH No 4-6, Karang Asam Ulu, Kec. Sungai Kunjang, Kota Samarinda, Kalimantan Timur 75126","Jl. Untung Suropati Blok HHH No 4-6, Karang Asam Ulu, Kec. Sungai Kunjang, Kota Samarinda",KALIMANTAN TIMUR,75126.0,Indonesia,541271591.0,,,-0.5278684,117.1124171,https://maps.google.com/?cid=0x0:0x8f47c45a6763e225,
mall,mall,Hotel Marantama,"Jl. Cipto Mangunkusumo No.32, Sengkotek, Kec. Loa Janan Ilir, Kota Samarinda, Kalimantan Timur 63171","Sengkotek, Kec. Loa Janan Ilir, Kota Samarinda",KALIMANTAN TIMUR,63171.0,Indonesia,81943550180.0,,,-0.5406455,117.1001729,https://maps.google.com/?cid=0x0:0x591f67b589d6c414,
mall,mall,Airy Eco Syariah Latsitarda Satu 275 Samarinda,"Jl. Latsitarda 1 No.75 Blok H, Karang Asam Ulu, Kec. Sungai Kunjang, Kota Samarinda, Kalimantan Timur 75126","Karang Asam Ulu, Kec. Sungai Kunjang, Kota Samarinda",KALIMANTAN TIMUR,75126.0,Indonesia,8041112479.0,,,-0.5242268,117.1091516,https://maps.google.com/?cid=0x0:0xcf39d88d3c0bc726,
mall,mall,Hotel Manau,"Jl. Ciptomangunkusumo no : 69, Sungai Keledang, Kec. Samarinda Seberang, Kota Samarinda, Kalimantan Timur 75131","Sungai Keledang, Kec. Samarinda Seberang, Kota Samarinda",KALIMANTAN TIMUR,75131.0,Indonesia,85250689525.0,,,-0.532095,117.1248333,https://maps.google.com/?cid=0x0:0xf7e36d5549c1588f,
mall,mall,OYO 90550 Good Sleep 3 Samarinda,"F4P7+PH3 Islamic Center, Karang Asam Ilir, Kec. Sungai Kunjang, Kota Samarinda, Kalimantan Timur 75126","Karang Asam Ilir, Kec. Sungai Kunjang, Kota Samarinda",KALIMANTAN TIMUR,75126.0,Indonesia,2129707601.0,,,-0.513235,117.1139076,https://maps.google.com/?cid=0x0:0xc2dfd2c6c43b7d30,
mall,,Masjid Baitul Muttaqien - Islamic Center Kaltim,"Jl. Slamet Riyadi No.1, Tlk. Lerong Ulu, Kec. Sungai Kunjang, Kota Samarinda, Kalimantan Timur 75243","Tlk. Lerong Ulu, Kec. Sungai Kunjang, Kota Samarinda",KALIMANTAN TIMUR,75243.0,Indonesia,,,,-0.502312,117.1201332,https://maps.google.com/?cid=0x0:0x7666aadb9294c007,
mall,Perhentian bus,Bandar Udara Internasional Sultan Aji Muhammad Sulaiman Sepinggan Balikpapan (BPN),"Jl. Marsma R. Iswahyudi, Sepinggan, Kecamatan Balikpapan Selatan, Kota Balikpapan, Kalimantan Timur 76115","Sepinggan, Kecamatan Balikpapan Selatan, Kota Balikpapan",KALIMANTAN TIMUR,76115.0,Indonesia,542766886.0,,,-1.2677976,116.894224,https://maps.google.com/?cid=0x0:0x3c24197833beca60,
mall,Pusat Perbelanjaan,eWalk,"Jl. Jenderal Sudirman No.47, Gn. Bahagia, Kecamatan Balikpapan Selatan, Kota Balikpapan, Kalimantan Timur 76114","Gn. Bahagia, Kecamatan Balikpapan Selatan, Kota Balikpapan",KALIMANTAN TIMUR,76114.0,Indonesia,5427213999.0,,,-1.2729143,116.859395,https://maps.google.com/?cid=0x0:0x16f3e8f377ffdff8,
mall,Tujuan Wisata,Pantai Tanah Merah Tanjung Harapan,"X422+8PC, Jl. Samboja - Muara Jawa, Handil, Tanjung Harapan, Semboja, Tj. Harapan, Kec. Samboja, Kartanegara, Kalimantan Timur 75276","Jl. Samboja - Muara Jawa, Handil, Tanjung Harapan, Semboja, Tj. Harapan, Kec. Samboja, Kartanegara",KALIMANTAN TIMUR,75276.0,Indonesia,,,,-1.0491887,117.1017607,https://maps.google.com/?cid=0x0:0x774f7840679eb1aa,
mall,Pusat Perbelanjaan,Samarinda Central Plaza,"Jl. P. Irian No.1, Karang Mumus, Kec. Samarinda Kota, Kota Samarinda, Kalimantan Timur 75113","Karang Mumus, Kec. Samarinda Kota, Kota Samarinda",KALIMANTAN TIMUR,75113.0,Indonesia,85267066663.0,,,-0.5036128,117.1552145,https://maps.google.com/?cid=0x0:0x61022452c2cacfea,
mall,Pusat Perbelanjaan,Balikpapan Superblock (BSB),"Jl. Jenderal Sudirman No.47, Gn. Bahagia, Kecamatan Balikpapan Selatan, Kota Balikpapan, Kalimantan Timur 76114","Gn. Bahagia, Kecamatan Balikpapan Selatan, Kota Balikpapan",KALIMANTAN TIMUR,76114.0,Indonesia,542765888.0,,,-1.2732214,116.8592658,https://maps.google.com/?cid=0x0:0xb38639224fd9abd9,
mall,Pusat Perbelanjaan,Balikpapan Trade Center,"Jl. Jenderal Sudirman No.20, Klandasan Ilir, Kecamatan Balikpapan Selatan, Kota Balikpapan, Kalimantan Timur","Kota Balikpapan, Kalimantan Timur",KALIMANTAN TIMUR,,Indonesia,5427589777.0,,,-1.2780099,116.8397696,https://maps.google.com/?cid=0x0:0x1a8753a528445b96,
mall,Pusat Perbelanjaan,TOKO BU TARI,"M7QW+G66, Unnamed Road, Lomu, Kec. Batu Engau, Kabupaten Paser, Kalimantan Timur 76261","Unnamed Road, Lomu, Kec. Batu Engau, Kabupaten Paser",KALIMANTAN TIMUR,76261.0,Indonesia,85246438570.0,,,-2.311209,116.295522,https://maps.google.com/?cid=0x0:0x12d92ec1b322fc8d,
mall,Organisasi Keagamaan,PASAR LINTANG JAYA,"J8RM+HWF, Lintang Jaya, Kec. Pamukan Utara, Kab. Kotabaru, Kalimantan Selatan 76261","Lintang Jaya, Kec. Pamukan Utara, Kab. Kotabaru",KALIMANTAN TIMUR,76261.0,Indonesia,85248502434.0,,,-2.3585594,116.3347917,https://maps.google.com/?cid=0x0:0xb202a79e43897c82,
mall,Sekolah Dasar,SDN 001 TANJUNG HARAPAN,"QG4C+RMF, Tj. Aru, Kec. Tj. Harapan, Kabupaten Paser, Kalimantan Timur 76261","Tj. Aru, Kec. Tj. Harapan, Kabupaten Paser",KALIMANTAN TIMUR,76261.0,Indonesia,,,,-2.2429477,116.5216627,https://maps.google.com/?cid=0x0:0xda8aa7362e73ba88,
mall,Dapur Umum,Desa tanjung aru,"QG3G+H6J, Tj. Aru, Kec. Tj. Harapan, Kabupaten Paser, Kalimantan Timur","Kabupaten Paser, Kalimantan Timur",KALIMANTAN TIMUR,,Indonesia,,,,-2.2460431,116.5255274,https://maps.google.com/?cid=0x0:0xac85d9b117f4bbc1,
mall,Sekolah,SD 001 Tanjung Aru,"RHGM+XRX, Tj. Aru, Kec. Tj. Harapan, Kabupaten Paser, Kalimantan Timur 76261","Tj. Aru, Kec. Tj. Harapan, Kabupaten Paser",KALIMANTAN TIMUR,76261.0,Indonesia,,,,-2.1725126,116.5845948,https://maps.google.com/?cid=0x0:0x7aca0c5eb55538e9,
mall,Pusat Perbelanjaan,BRV3ZVNY,"Rt 6, Senipah, Tj. Harapan, Kabupaten Paser, Kalimantan Timur 75277","Senipah, Tj. Harapan, Kabupaten Paser",KALIMANTAN TIMUR,75277.0,Indonesia,85249823406.0,,,-0.9585511,117.1634246,https://maps.google.com/?cid=0x0:0x26b3715e13d2cc27,
mall,Pusat Perbelanjaan,Mall Of Indonesia,"Jl. Boulevard Bar. Raya No.12, RT.18/RW.19, Klp. Gading Bar., Kec. Klp. Gading, Jkt Utara, Daerah Khusus Ibukota Jakarta 14240","RT.18/RW.19, Klp. Gading Bar., Kec. Klp. Gading, Jkt Utara",KALIMANTAN TIMUR,14240.0,Indonesia,2145867888.0,,,-6.1514549,106.8918949,https://maps.google.com/?cid=0x0:0x3431c7aaadd1f1b6,
mall,Pusat Perbelanjaan,Tanjung harapan,"FHM6+P44, Unnamed Road, Tj. Harapan, Kec. Sindang Danau, Kabupaten Ogan Komering Ulu Selatan, Sumatera Selatan 38961","Unnamed Road, Tj. Harapan, Kec. Sindang Danau, Kabupaten Ogan Komering Ulu Selatan",KALIMANTAN TIMUR,38961.0,Indonesia,,,,-4.5157273,103.5603262,https://maps.google.com/?cid=0x0:0xf41e364414b2a080,
mall,Toko Swalayan,Toko Tanjung Harapan,"M4V5+6HV, Pandeglang, Kec. Pandeglang, Kabupaten Pandeglang, Banten 42211","Pandeglang, Kec. Pandeglang, Kabupaten Pandeglang",KALIMANTAN TIMUR,42211.0,Indonesia,,,,-6.3068865,106.1089303,https://maps.google.com/?cid=0x0:0xa15bad10b921cbac,
mall,Pusat Perbelanjaan,Pluit Village Mall,"Jl. Pluit Indah, RT.6/RW.4, Pluit, Kec. Penjaringan, Jkt Utara, Daerah Khusus Ibukota Jakarta 14450","RT.6/RW.4, Pluit, Kec. Penjaringan, Jkt Utara",KALIMANTAN TIMUR,14450.0,Indonesia,216683888.0,,,-6.1164462,106.7896199,https://maps.google.com/?cid=0x0:0xdacb917bfb866141,
mall,Pusat Perbelanjaan,Mall Artha Gading Jakarta,"Jl. Artha Gading Sel. No.1, Klp. Gading Bar., Kec. Klp. Gading, Jkt Utara, Daerah Khusus Ibukota Jakarta 14240","Klp. Gading Bar., Kec. Klp. Gading, Jkt Utara",KALIMANTAN TIMUR,14240.0,Indonesia,2145864000.0,,,-6.1457739,106.8919187,https://maps.google.com/?cid=0x0:0x176166b3d087c724,
supermarket,supermarket,Kalimantan Timur 76261,"Kabupaten Paser, Kalimantan Timur","Kabupaten Paser, Kalimantan Timur",KALIMANTAN TIMUR,,Indonesia,,,,-2.2765227,116.3249438,https://maps.google.com/?cid=0x0:0x5de4285e897f4e53,
supermarket,Toko,TOKO ALUNG 2 PETANGIS,"Petangis, Kec. Batu Engau, Kabupaten Paser, Kalimantan Timur 76261","Kec. Batu Engau, Kabupaten Paser",KALIMANTAN TIMUR,76261.0,Indonesia,85225405674.0,,,-2.1154854,116.1061127,https://maps.google.com/?cid=0x0:0x928f172c5cd90f68,
supermarket,Toko bahan makanan,TOKO ANDI PUTRA,"R4R4+JQM, Kerang, Kec. Batu Engau, Kabupaten Paser, Kalimantan Timur 76261","Kerang, Kec. Batu Engau, Kabupaten Paser",KALIMANTAN TIMUR,76261.0,Indonesia,82255465519.0,,,-2.1584053,116.1069273,https://maps.google.com/?cid=0x0:0x7d0e7219dc790f9b,
supermarket,Toko Swalayan,Heiati latifah,"P5C6+9VR, Unnamed Road, Mengkudu, Kec. Batu Engau, Kabupaten Paser, Kalimantan Timur 76261","Unnamed Road, Mengkudu, Kec. Batu Engau, Kabupaten Paser",KALIMANTAN TIMUR,76261.0,Indonesia,85388712211.0,,,-2.2790091,116.1621339,https://maps.google.com/?cid=0x0:0x954eb9731a88a45,
supermarket,Toko Swalayan,Shafa Cell,"Q35J+RG2, Kerang, Kec. Batu Engau, Kabupaten Paser, Kalimantan Timur 76261","Kerang, Kec. Batu Engau, Kabupaten Paser",KALIMANTAN TIMUR,76261.0,Indonesia,,,,-2.2404798,116.0812566,https://maps.google.com/?cid=0x0:0x4d3546638f82e622,
supermarket,Toko,Toko Ranti,"V4Q3+M24, Jl. Jenderal Sudirman, Petangis, Kec. Batu Engau, Kabupaten Paser, Kalimantan Timur 76261","Jl. Jenderal Sudirman, Petangis, Kec. Batu Engau, Kabupaten Paser",KALIMANTAN TIMUR,76261.0,Indonesia,81254600555.0,,,-2.110854,116.1025775,https://maps.google.com/?cid=0x0:0xbde61e366468ac65,
supermarket,Toko Pertanian,Toko Yura alnaira,"Q35J+CPW, Kerang, Batu Engau, Kerang Dayo, Kec. Batu Engau, Kabupaten Paser, Kalimantan Timur 76261","Kerang, Batu Engau, Kerang Dayo, Kec. Batu Engau, Kabupaten Paser",KALIMANTAN TIMUR,76261.0,Indonesia,,,,-2.2413777,116.0818424,https://maps.google.com/?cid=0x0:0x8fa15cacf6338804,
supermarket,Toko Bahan Bangunan,Toko Abdul Azhiim,"P4Q9+HMH, RT.002, Tampakan, Kec. Batu Engau, Kabupaten Paser, Kalimantan Timur 76261","RT.002, Tampakan, Kec. Batu Engau, Kabupaten Paser",KALIMANTAN TIMUR,76261.0,Indonesia,,,,-2.261054,116.1192273,https://maps.google.com/?cid=0x0:0x6193e56869655ac7,
supermarket,Toko Swalayan,Zahra Cell,"Q38H+267, Jl. Ahmad Yani, Kerang Dayo, Kec. Batu Engau, Kabupaten Paser, Kalimantan Timur 76261","Jl. Ahmad Yani, Kerang Dayo, Kec. Batu Engau, Kabupaten Paser",KALIMANTAN TIMUR,76261.0,Indonesia,,,,-2.234965,116.0780452,https://maps.google.com/?cid=0x0:0xbb67ab61ffa6eb32,
supermarket,Toko Perlengkapan Rumah,Toko Fathan,"M8R8+GPW, Lomu, Kec. Batu Engau, Kabupaten Paser, Kalimantan Timur 76261","Lomu, Kec. Batu Engau, Kabupaten Paser",KALIMANTAN TIMUR,76261.0,Indonesia,,,,-2.3086494,116.3168419,https://maps.google.com/?cid=0x0:0x512c32d211cae231,
supermarket,Toko,Toko Zakki Kerang,"R348+W2J, Kerang, Kec. Batu Engau, Kabupaten Paser, Kalimantan Timur 76261","Kerang, Kec. Batu Engau, Kabupaten Paser",KALIMANTAN TIMUR,76261.0,Indonesia,81254423872.0,,,-2.1926717,116.0650307,https://maps.google.com/?cid=0x0:0x48b82ad65699d87d,
supermarket,Toko,Azka Frozen,"P597+9P3, Mengkudu, Kec. Batu Engau, Kabupaten Paser, Kalimantan Timur 76261","Mengkudu, Kec. Batu Engau, Kabupaten Paser",KALIMANTAN TIMUR,76261.0,Indonesia,,,,-2.2816124,116.1642953,https://maps.google.com/?cid=0x0:0x197c6a0601be7dbe,
supermarket,Toko Ponsel,Kios naufal cell,"Jl. Jenderal Sudirman, Petangis, Kec. Batu Engau, Kabupaten Paser, Kalimantan Timur 76261","Petangis, Kec. Batu Engau, Kabupaten Paser",KALIMANTAN TIMUR,76261.0,Indonesia,,,,-2.1217739,116.1073461,https://maps.google.com/?cid=0x0:0x699be973a88e0150,
supermarket,Minimarket,TOKO REVAIL,"Q837+9HQ, Unnamed Road, Riwang, Kec. Batu Engau, Kabupaten Paser, Kalimantan Timur 76261","Unnamed Road, Riwang, Kec. Batu Engau, Kabupaten Paser",KALIMANTAN TIMUR,76261.0,Indonesia,,,,-2.2465336,116.3139842,https://maps.google.com/?cid=0x0:0xb44ffb04af77ba3c,
supermarket,Toko Swalayan,Zona semangka,"R348+W2J, Kerang, Kec. Batu Engau, Kabupaten Paser, Kalimantan Timur 76261","Kerang, Kec. Batu Engau, Kabupaten Paser",KALIMANTAN TIMUR,76261.0,Indonesia,,,,-2.1926717,116.0650307,https://maps.google.com/?cid=0x0:0xc4a1acdfdda4b239,
supermarket,Toko Swalayan,Aldo anugerah,"P98M+8H5, Segendang, Kec. Batu Engau, Kabupaten Paser, Kalimantan Timur 76261","Segendang, Kec. Batu Engau, Kabupaten Paser",KALIMANTAN TIMUR,76261.0,Indonesia,,,,-2.2842417,116.3839765,https://maps.google.com/?cid=0x0:0x610ded18aac61c99,
supermarket,Toko Swalayan,Warung Mama Linda,"P599+HCP, Unnamed Road, Mengkudu, Kec. Batu Engau, Kabupaten Paser, Kalimantan Timur 76261","Unnamed Road, Mengkudu, Kec. Batu Engau, Kabupaten Paser",KALIMANTAN TIMUR,76261.0,Indonesia,,,,-2.2810401,116.1685808,https://maps.google.com/?cid=0x0:0x4c518444bcafed3c,
supermarket,Toko,TOKO NADILA,"R4R4+FQM, Jl. Jenderal Sudirman, desa tabru, Kec. Batu Engau, Kabupaten Paser, Kalimantan Timur","Kabupaten Paser, Kalimantan Timur",KALIMANTAN TIMUR,,Indonesia,,,,-2.1587855,116.1069244,https://maps.google.com/?cid=0x0:0x6e0f698db7482f28,
supermarket,Toko,Toko arfa kerang,"Jl. Ahmad Yani, Kerang Dayo, Kec. Batu Engau, Kabupaten Penajam Paser Utara, Kalimantan Timur 76261","Kerang Dayo, Kec. Batu Engau, Kabupaten Penajam Paser Utara",KALIMANTAN TIMUR,76261.0,Indonesia,85247554489.0,,,-2.2371509,116.0801392,https://maps.google.com/?cid=0x0:0xd2b672dd13ee0622,
supermarket,Toko Swalayan,TOKO SEMBAKO AN-NUR,"Kerang, Kec. Batu Engau, Kabupaten Paser, Kalimantan Timur 76261","Kec. Batu Engau, Kabupaten Paser",KALIMANTAN TIMUR,76261.0,Indonesia,81250299978.0,,,-2.1605573,116.1060815,https://maps.google.com/?cid=0x0:0x92c9d6e53377cd6e,
supermarket,Toko Swalayan,Toko Nisa Mart,"P598+GCR, Mengkudu, Kec. Batu Engau, Kabupaten Paser, Kalimantan Timur 76261","Mengkudu, Kec. Batu Engau, Kabupaten Paser",KALIMANTAN TIMUR,76261.0,Indonesia,,,,-2.2811389,116.1660311,https://maps.google.com/?cid=0x0:0xa00902262e791243,
supermarket,supermarket,Kalimantan Timur 76252,"Kabupaten Paser, Kalimantan Timur","Kabupaten Paser, Kalimantan Timur",KALIMANTAN TIMUR,,Indonesia,,,,-1.9651197,115.8994923,https://maps.google.com/?cid=0x0:0xd282220639c80aba,
supermarket,Minimarket,Alfamidi Batu Sopang,"Batu Kajang, Kec. Batu Sopang, Kabupaten Paser, Kalimantan Timur 76252","Kec. Batu Sopang, Kabupaten Paser",KALIMANTAN TIMUR,76252.0,Indonesia,,,,-1.8214667,115.9122238,https://maps.google.com/?cid=0x0:0xc968772d2e75e3f6,
supermarket,Minimarket,Minimarket Ryan,"5VJX+9WP, Jl. Tj. - Kuaro, Batu Kajang, Kec. Batu Sopang, Kabupaten Paser, Kalimantan Timur 76252","Jl. Tj. - Kuaro, Batu Kajang, Kec. Batu Sopang, Kabupaten Paser",KALIMANTAN TIMUR,76252.0,Indonesia,,,,-1.81903,115.8998169,https://maps.google.com/?cid=0x0:0x3a025027c074c867,
supermarket,Pusat Perbelanjaan,Indomaret btg,"5WJ2+MRM, Batu Kajang, Kec. Batu Sopang, Kabupaten Paser, Kalimantan Timur 76252","Batu Kajang, Kec. Batu Sopang, Kabupaten Paser",KALIMANTAN TIMUR,76252.0,Indonesia,,,,-1.8182908,115.9020355,https://maps.google.com/?cid=0x0:0xd4aa81c26340f8ae,
supermarket,Pusat Perbelanjaan,Toko Mama Tinah,"5W7H+C8X, Batu Kajang, Kec. Batu Sopang, Kabupaten Paser, Kalimantan Timur 76252","Batu Kajang, Kec. Batu Sopang, Kabupaten Paser",KALIMANTAN TIMUR,76252.0,Indonesia,,,,-1.8363966,115.9283573,https://maps.google.com/?cid=0x0:0x2d6f910c1edfbc5d,
supermarket,Toko Daging,Fresh Meat Batu Kajang,"Jl. Negara, Batu Kajang, Kec. Batu Sopang, Kabupaten Paser, Kalimantan Timur 76252","Batu Kajang, Kec. Batu Sopang, Kabupaten Paser",KALIMANTAN TIMUR,76252.0,Indonesia,81350910840.0,,,-1.8189589,115.899799,https://maps.google.com/?cid=0x0:0xdf04f3a795e6b703,
supermarket,Toko bahan makanan,D  S Mart,"Batu Kajang, Kec. Batu Sopang, Kabupaten Paser, Kalimantan Timur","Kabupaten Paser, Kalimantan Timur",KALIMANTAN TIMUR,,Indonesia,,,,-1.8180992,115.8972659,https://maps.google.com/?cid=0x0:0x83b76ca0a7caf110,
supermarket,Toko bahan makanan,Pja mart,"RT.024, Batu Kajang, Kec. Batu Sopang, Kabupaten Paser, Kalimantan Timur 76252","Batu Kajang, Kec. Batu Sopang, Kabupaten Paser",KALIMANTAN TIMUR,76252.0,Indonesia,81349354974.0,,,-1.8201792,115.9108638,https://maps.google.com/?cid=0x0:0xa2316bc9f7d31d99,
supermarket,Toko Swalayan,AB Mart,"5WJ4+WWV, Batu Kajang, Kec. Batu Sopang, Kabupaten Paser, Kalimantan Timur 76252","Batu Kajang, Kec. Batu Sopang, Kabupaten Paser",KALIMANTAN TIMUR,76252.0,Indonesia,82157000155.0,,,-1.8176422,115.9073082,https://maps.google.com/?cid=0x0:0x7d93f360fd565e4b,
supermarket,Toko bahan makanan,PANGKALAN BBM TOKO SRI,"5RVQ+975, Jl. Tj. - Kuaro, Busui, Kec. Batu Sopang, Kabupaten Paser, Kalimantan Timur 76252","Jl. Tj. - Kuaro, Busui, Kec. Batu Sopang, Kabupaten Paser",KALIMANTAN TIMUR,76252.0,Indonesia,82149908759.0,,,-1.8066196,115.8382393,https://maps.google.com/?cid=0x0:0xad34ad8b9a26b395,
supermarket,Toko,SRC JAMIL,"5W9F+X9X, Batu Kajang, Kec. Batu Sopang, Kabupaten Paser, Kalimantan Timur 76252","Batu Kajang, Kec. Batu Sopang, Kabupaten Paser",KALIMANTAN TIMUR,76252.0,Indonesia,,,,-1.8300073,115.9234976,https://maps.google.com/?cid=0x0:0xfd351465c3e85ca,
supermarket,Minimarket,Toko Acil Rosidah,"Batu Kajang, Kec. Batu Sopang, Kabupaten Paser, Kalimantan Timur 76252","Kec. Batu Sopang, Kabupaten Paser",KALIMANTAN TIMUR,76252.0,Indonesia,,,,-1.8352297,115.9266942,https://maps.google.com/?cid=0x0:0x5ff068293fd741ff,
supermarket,Minimarket,warung joe,"Jl. Tj. Raya No.15, Batu Kajang, Kec. Batu Sopang, Kabupaten Paser, Kalimantan Timur 76252","Batu Kajang, Kec. Batu Sopang, Kabupaten Paser",KALIMANTAN TIMUR,76252.0,Indonesia,,,,-1.8350271,115.930829,https://maps.google.com/?cid=0x0:0xe3ab7f77ba6ee32d,
supermarket,Toko bahan makanan,Kebun anggur hadid,"5WC3+QF2, Batu Kajang, Kec. Batu Sopang, Kabupaten Paser, Kalimantan Timur 76252","Batu Kajang, Kec. Batu Sopang, Kabupaten Paser",KALIMANTAN TIMUR,76252.0,Indonesia,81255791159.0,,,-1.8281218,115.9036263,https://maps.google.com/?cid=0x0:0x7bcdde16ea1a483d,
supermarket,Toko Swalayan,Mommy Mart (Meats and Vegetables),"Jl. Kuaro - Tanah Grogot, Batu Kajang, Kec. Batu Sopang, Kabupaten Paser, Kalimantan Timur 76252","Batu Kajang, Kec. Batu Sopang, Kabupaten Paser",KALIMANTAN TIMUR,76252.0,Indonesia,81251706520.0,,,-1.8245323,115.9187601,https://maps.google.com/?cid=0x0:0xa8eed81e8aa82915,
supermarket,Toko,TOKO IMEL ANANDA,"5XPR+G7G, Jl. Tj. - Kuaro, Sungai Terik, Kec. Batu Sopang, Kabupaten Paser, Kalimantan Timur 76281","Jl. Tj. - Kuaro, Sungai Terik, Kec. Batu Sopang, Kabupaten Paser",KALIMANTAN TIMUR,76281.0,Indonesia,,,,-1.8136915,115.9907118,https://maps.google.com/?cid=0x0:0xbc70f0db856d3880,
supermarket,Jus,Kelapa parut dan santan,"5W9F+RW9, Batu Kajang, Kec. Batu Sopang, Kabupaten Paser, Kalimantan Timur 76252","Batu Kajang, Kec. Batu Sopang, Kabupaten Paser",KALIMANTAN TIMUR,76252.0,Indonesia,,,,-1.83048,115.924884,https://maps.google.com/?cid=0x0:0x6e4383e738b52ef5,
supermarket,Toko,Toko Shifa,"5WG8+MQ9, Jl. Tj. - Kuaro, Batu Kajang, Kec. Batu Sopang, Kabupaten Paser, Kalimantan Timur 76252","Jl. Tj. - Kuaro, Batu Kajang, Kec. Batu Sopang, Kabupaten Paser",KALIMANTAN TIMUR,76252.0,Indonesia,,,,-1.8233308,115.9169717,https://maps.google.com/?cid=0x0:0xcaac6740fd03fe9c,
supermarket,Minimarket,MM Julita,"Jl. Penajam-Kuaro No.1, Kuaro, Kec. Kuaro, Kabupaten Paser, Kalimantan Timur 76281","Kuaro, Kec. Kuaro, Kabupaten Paser",KALIMANTAN TIMUR,76281.0,Indonesia,,,,-1.8199872,116.0833675,https://maps.google.com/?cid=0x0:0x9d0580bebb449a80,
supermarket,Toko,Kios,"64M9+734, Jl. Penajam-Kuaro, Kerta Bumi, Kec. Kuaro, Kabupaten Paser, Kalimantan Timur 76281","Jl. Penajam-Kuaro, Kerta Bumi, Kec. Kuaro, Kabupaten Paser",KALIMANTAN TIMUR,76281.0,Indonesia,,,,-1.7668572,116.1177151,https://maps.google.com/?cid=0x0:0xf68246d5509be954,
supermarket,Grosir Buah,Kios Buah Fitri,"Jl. Ahmad Yani No.RT 005, Kuaro, Kec. Kuaro, Kabupaten Paser, Kalimantan Timur 76281","Kuaro, Kec. Kuaro, Kabupaten Paser",KALIMANTAN TIMUR,76281.0,Indonesia,82254219493.0,,,-1.8203993,116.0836155,https://maps.google.com/?cid=0x0:0x6a390a207488aba4,
supermarket,Toko bahan makanan,TOKO LINDA,"64PH+6RG, Unnamed Road, Kerta Bumi, Kec. Kuaro, Kabupaten Paser, Kalimantan Timur 76281","Unnamed Road, Kerta Bumi, Kec. Kuaro, Kabupaten Paser",KALIMANTAN TIMUR,76281.0,Indonesia,,,,-1.7644405,116.1295776,https://maps.google.com/?cid=0x0:0x7e427a71e8a6be9f,
supermarket,Toko bahan makanan,Toko Syifa,"53HP+W6G, Jl. Kuaro - Tanah Grogot, Lolo, Kec. Kuaro, Kabupaten Paser, Kalimantan Timur 76281","Jl. Kuaro - Tanah Grogot, Lolo, Kec. Kuaro, Kabupaten Paser",KALIMANTAN TIMUR,76281.0,Indonesia,,,,-1.8201964,116.0855721,https://maps.google.com/?cid=0x0:0xc001d2dd45473f71,
supermarket,Minimarket,Raza Mart,"44FJ+P4V, Jl. Kuaro - Tanah Grogot, Janju, Kec. Tanah Grogot, Kabupaten Paser, Kalimantan Timur 76251","Jl. Kuaro - Tanah Grogot, Janju, Kec. Tanah Grogot, Kabupaten Paser",KALIMANTAN TIMUR,76251.0,Indonesia,82210385422.0,,,-1.8756374,116.1303075,https://maps.google.com/?cid=0x0:0xed6d2c6e21ddda94,
supermarket,Toko Swalayan,Alfamidi Kuaro,"53JM+3F8, Kuaro, Kec. Kuaro, Kabupaten Paser, Kalimantan Timur 76281","Kuaro, Kec. Kuaro, Kabupaten Paser",KALIMANTAN TIMUR,76281.0,Indonesia,,,,-1.8198393,116.0837045,https://maps.google.com/?cid=0x0:0x216db6f2122d1d52,
supermarket,Toko Swalayan,Toko 5 Saudara,"433V+255, Lolo, Kec. Kuaro, Kabupaten Paser, Kalimantan Timur 76281","Lolo, Kec. Kuaro, Kabupaten Paser",KALIMANTAN TIMUR,76281.0,Indonesia,,,,-1.8975,116.0929967,https://maps.google.com/?cid=0x0:0x59444a6f68977936,
supermarket,Toko Swalayan,Simpang raya 2,"Jl. Ahmad Yani No.1, Kuaro, Kec. Kuaro, Kabupaten Paser, Kalimantan Timur 76281","Kuaro, Kec. Kuaro, Kabupaten Paser",KALIMANTAN TIMUR,76281.0,Indonesia,,,,-1.8212547,116.0840555,https://maps.google.com/?cid=0x0:0xcd1c7e4b01047094,
supermarket,Toko bahan makanan,Toko 3 saudara,"4497+6WG, Lolo, Kec. Kuaro, Kabupaten Paser, Kalimantan Timur","Kabupaten Paser, Kalimantan Timur",KALIMANTAN TIMUR,,Indonesia,,,,-1.8819282,116.1148376,https://maps.google.com/?cid=0x0:0x3e66e0e537b76697,
supermarket,Toko bahan makanan,Toko Arto Moro,"Jl. Ahmad Yani No.km.09, RT.02, Sempulang, Kec. Tanah Grogot, kab. Paser, Kalimantan Timur 76251","RT.02, Sempulang, Kec. Tanah Grogot, kab. Paser",KALIMANTAN TIMUR,76251.0,Indonesia,82250494013.0,,,-1.8535182,116.1566495,https://maps.google.com/?cid=0x0:0x118b2fd2e86fe47,
supermarket,Toko,TOKO UMAR,"F542+FX7, Unnamed Road, Sekurou Jaya, Kec. Long Ikis, Kabupaten Paser, Kalimantan Timur 76282","Unnamed Road, Sekurou Jaya, Kec. Long Ikis, Kabupaten Paser",KALIMANTAN TIMUR,76282.0,Indonesia,,,,-1.5438271,116.1524235,https://maps.google.com/?cid=0x0:0xbd3ea47c932f4ea3,
supermarket,supermarket,Toko Bani Adam,"jl jend sudirman No.rt 011, Kuaro, Kec. Kuaro, Kabupaten Paser, Kalimantan Timur 76281","Kuaro, Kec. Kuaro, Kabupaten Paser",KALIMANTAN TIMUR,76281.0,Indonesia,,,,-1.8231287,116.0841294,https://maps.google.com/?cid=0x0:0x88e8f0e64ef94957,
supermarket,Toko bahan makanan,Warung ibu sri lolo,"437R+WQH, Lolo, Kec. Kuaro, Kabupaten Paser, Kalimantan Timur 76251","Lolo, Kec. Kuaro, Kabupaten Paser",KALIMANTAN TIMUR,76251.0,Indonesia,,,,-1.8851856,116.0919818,https://maps.google.com/?cid=0x0:0x163e78cb723a06e2,
supermarket,Toko,Toko Raisa,"Jl. Soekarno Hatta, Kerta Bumi, Kec. Kuaro, Kabupaten Paser, Kalimantan Timur 76281","Kerta Bumi, Kec. Kuaro, Kabupaten Paser",KALIMANTAN TIMUR,76281.0,Indonesia,82150267073.0,,,-1.777136,116.100066,https://maps.google.com/?cid=0x0:0xe7b7da11d5de3fd9,
supermarket,Toko,Toko Pelangi,"Jl. Mulawarman No.RT. 07, Kuaro, Kec. Kuaro, Kabupaten Paser, Kalimantan Timur 76281","Kuaro, Kec. Kuaro, Kabupaten Paser",KALIMANTAN TIMUR,76281.0,Indonesia,5435229538.0,,,-1.8106504,116.0823057,https://maps.google.com/?cid=0x0:0xd70325b0d312d5d2,
supermarket,Pusat Perbelanjaan,Ica,"53GJ+FHW, Jl. Tj. - Kuaro, Kuaro, Kec. Kuaro, Kabupaten Paser, Kalimantan Timur 76281","Jl. Tj. - Kuaro, Kuaro, Kec. Kuaro, Kabupaten Paser",KALIMANTAN TIMUR,76281.0,Indonesia,,,,-1.8237556,116.0814545,https://maps.google.com/?cid=0x0:0xa83b1c53a6993ba5,
supermarket,Restoran,Warung mama ari,"5377+Q9X, Jl. Tj. - Kuaro, Kuaro, Kec. Kuaro, Kabupaten Paser, Kalimantan Timur 76281","Jl. Tj. - Kuaro, Kuaro, Kec. Kuaro, Kabupaten Paser",KALIMANTAN TIMUR,76281.0,Indonesia,,,,-1.8355112,116.0634737,https://maps.google.com/?cid=0x0:0x8c8ad9c40d4f2f47,
supermarket,supermarket,Kuaro,"Kec. Kuaro, Kabupaten Paser, Kalimantan Timur","Kabupaten Paser, Kalimantan Timur",KALIMANTAN TIMUR,,Indonesia,,,,-1.8219574,116.0845478,https://maps.google.com/?cid=0x0:0x4540b1968c0129c9,
supermarket,Toko bahan makanan,toko Lina rafi,"53VP+88G, Jl. Penajam-Kuaro, Kuaro, Kec. Kuaro, Kabupaten Penajam Paser Utara, Kalimantan Timur 76281","Jl. Penajam-Kuaro, Kuaro, Kec. Kuaro, Kabupaten Penajam Paser Utara",KALIMANTAN TIMUR,76281.0,Indonesia,,,,-1.8066752,116.0858194,https://maps.google.com/?cid=0x0:0x56710406d24736b8,
supermarket,Toko Kelontong Asia,"Kios TOMY ( BBM, SEMBAKO )","5398+HW3, Kuaro, Kec. Kuaro, Kabupaten Paser, Kalimantan Timur 76281","Kuaro, Kec. Kuaro, Kabupaten Paser",KALIMANTAN TIMUR,76281.0,Indonesia,85752143412.0,,,-1.831115,116.067299,https://maps.google.com/?cid=0x0:0x2901262c9769a9f4,
supermarket,Toko makanan beku,Mazaya_Erdogan Store,"632X+V22, Rangan, Kec. Kuaro, Kabupaten Paser, Kalimantan Timur","Kabupaten Paser, Kalimantan Timur",KALIMANTAN TIMUR,,Indonesia,81253356369.0,,,-1.7978512,116.0975149,https://maps.google.com/?cid=0x0:0x81d97a4560af4627,
supermarket,Toko bahan makanan,Toko H.Abd.hadi,"Jl. Penajam-Kuaro No.1, Kuaro, Kec. Kuaro, Kabupaten Paser, Kalimantan Timur 76281","Kuaro, Kec. Kuaro, Kabupaten Paser",KALIMANTAN TIMUR,76281.0,Indonesia,85247074738.0,,,-1.8200358,116.0833191,https://maps.google.com/?cid=0x0:0x4dbb42456ea9d16d,
supermarket,Toko bahan makanan,Nurul,"Jl. Ahmad Yani No.RT 11, keluang paser jaya, Kec. Kuaro, Kabupaten Paser, Kalimantan Timur 76281","keluang paser jaya, Kec. Kuaro, Kabupaten Paser",KALIMANTAN TIMUR,76281.0,Indonesia,81257580431.0,,,-1.7633958,116.1257617,https://maps.google.com/?cid=0x0:0x932d6382c2a1bcb9,
supermarket,Toko bahan makanan,AIZA SEMBAKO,"52H5+CM9, Jl. Tj. - Kuaro, Kuaro, Kec. Kuaro, Kabupaten Paser, Kalimantan Timur 76281","Jl. Tj. - Kuaro, Kuaro, Kec. Kuaro, Kabupaten Paser",KALIMANTAN TIMUR,76281.0,Indonesia,,,,-1.8214742,116.0092281,https://maps.google.com/?cid=0x0:0x96d3ecb192418a84,
supermarket,Dapur Umum,Warung kelontong Andri,"Kuaro, Kec. Kuaro, Kabupaten Paser, Kalimantan Timur 76281","Kec. Kuaro, Kabupaten Paser",KALIMANTAN TIMUR,76281.0,Indonesia,85247153613.0,,,-1.8106644,116.0816938,https://maps.google.com/?cid=0x0:0xd3436c509ff6e424,
supermarket,Minimarket,Indomaret Kuaro,"Jl. Penajam-Kuaro No.1, Kuaro, Kec. Kuaro, Kabupaten Paser, Kalimantan Timur 76281","Kuaro, Kec. Kuaro, Kabupaten Paser",KALIMANTAN TIMUR,76281.0,Indonesia,,,,-1.820008,116.0832643,https://maps.google.com/?cid=0x0:0x959b1ad081938d7a,
supermarket,supermarket,Kalimantan Timur 76281,"Kec. Kuaro, Kabupaten Paser, Kalimantan Timur","Kabupaten Paser, Kalimantan Timur",KALIMANTAN TIMUR,,Indonesia,,,,-1.7505747,116.0886704,https://maps.google.com/?cid=0x0:0xbc47c0866f721018,
supermarket,supermarket,Kalimantan Timur 76282,"Kec. Long Ikis, Kabupaten Paser, Kalimantan Timur","Kabupaten Paser, Kalimantan Timur",KALIMANTAN TIMUR,,Indonesia,,,,-1.608975,116.1832068,https://maps.google.com/?cid=0x0:0xaaa31d28d64ea774,
supermarket,Toko Ponsel,SIMPANG RAYA Swalayan,"95XC+25P, Lombok, Kec. Long Ikis, Kabupaten Paser, Kalimantan Timur 76282","Lombok, Kec. Long Ikis, Kabupaten Paser",KALIMANTAN TIMUR,76282.0,Indonesia,,,,-1.602422,116.1704476,https://maps.google.com/?cid=0x0:0xf6497f22c87c772a,
supermarket,Toko Swalayan,Toko Bu Sis,"F536+XF3, Kerta Bhakti, Kec. Long Ikis, Kabupaten Paser, Kalimantan Timur 76282","Kerta Bhakti, Kec. Long Ikis, Kabupaten Paser",KALIMANTAN TIMUR,76282.0,Indonesia,82215261229.0,,,-1.5451221,116.1611643,https://maps.google.com/?cid=0x0:0xccd615c35143fee3,
supermarket,Toko,Toko Mulyani,"95XJ+QQV, Jl. Penajam-Kuaro, Tajur, Kec. Long Ikis, Kabupaten Paser, Kalimantan Timur 76282","Jl. Penajam-Kuaro, Tajur, Kec. Long Ikis, Kabupaten Paser",KALIMANTAN TIMUR,76282.0,Indonesia,,,,-1.6005076,116.1819302,https://maps.google.com/?cid=0x0:0x3e225e2dc4349b1c,
supermarket,Toko bahan makanan,Z Mart,"Jl. Negara No.53, RT.005, Samuntai, Kec. Long Ikis, Kabupaten Paser, Kalimantan Timur 76282","RT.005, Samuntai, Kec. Long Ikis, Kabupaten Paser",KALIMANTAN TIMUR,76282.0,Indonesia,81346490349.0,,,-1.6679874,116.14873,https://maps.google.com/?cid=0x0:0xf91e65f85686c6c5,
supermarket,Toko umum,Toko Dinda,"C7R7+5W9, Krayan Jaya, Kec. Long Ikis, Kabupaten Paser, Kalimantan Timur 76283","Krayan Jaya, Kec. Long Ikis, Kabupaten Paser",KALIMANTAN TIMUR,76283.0,Indonesia,,,,-1.5595978,116.2648525,https://maps.google.com/?cid=0x0:0x88a823e46c3ba93d,
supermarket,Toko Swalayan,Tk. Sutris,"Unnamed Road, Olung, Kec. Long Ikis, Kabupaten Paser, Kalimantan Timur 76282","Olung, Kec. Long Ikis, Kabupaten Paser",KALIMANTAN TIMUR,76282.0,Indonesia,85705778041.0,,,-1.5645859,116.1973556,https://maps.google.com/?cid=0x0:0x9c31b1e3d9735b8b,
supermarket,Pusat Perbelanjaan,ALFAMIDI LONGIKIS,"95X9+3X5, Jl. Penajam-Kuaro, Lombok, Kec. Long Ikis, Kabupaten Paser, Kalimantan Timur 76282","Jl. Penajam-Kuaro, Lombok, Kec. Long Ikis, Kabupaten Paser",KALIMANTAN TIMUR,76282.0,Indonesia,,,,-1.6023577,116.1699731,https://maps.google.com/?cid=0x0:0xcdc567564c83ccb6,
supermarket,Komplek perumahan,Pasar desa Tajur Long ikis Kab Paser kaltim,"96G2+449, Tajur, Kec. Long Ikis, Kabupaten Paser, Kalimantan Timur 76282","Tajur, Kec. Long Ikis, Kabupaten Paser",KALIMANTAN TIMUR,76282.0,Indonesia,,,,-1.6247249,116.2003497,https://maps.google.com/?cid=0x0:0x2f0777510aec2343,
supermarket,Toko Swalayan,Toko Nabil,"blok d, Tajur, Kec. Long Ikis, Kabupaten Paser, Kalimantan Timur 76282","Tajur, Kec. Long Ikis, Kabupaten Paser",KALIMANTAN TIMUR,76282.0,Indonesia,81352378704.0,,,-1.6242583,116.1970131,https://maps.google.com/?cid=0x0:0x27bd0c1ca3f736e6,
supermarket,Toko,waroeng rotie,"95X8+4G7, Jl. Pait, Lombok, Kec. Long Ikis, Kabupaten Paser, Kalimantan Timur 76282","Jl. Pait, Lombok, Kec. Long Ikis, Kabupaten Paser",KALIMANTAN TIMUR,76282.0,Indonesia,,,,-1.6022179,116.1662979,https://maps.google.com/?cid=0x0:0x734f4853833472c5,
supermarket,Toko,Toko Risky,"C682+V48, Jl. Penajam-Kuaro, Long Ikis, Kec. Long Ikis, Kabupaten Paser, Kalimantan Timur 76282","Jl. Penajam-Kuaro, Long Ikis, Kec. Long Ikis, Kabupaten Paser",KALIMANTAN TIMUR,76282.0,Indonesia,81346302334.0,,,-1.582836,116.200329,https://maps.google.com/?cid=0x0:0x6c3c3379a6e19184,
supermarket,Toko bahan makanan,Mart Kuncew,"84QJ+P6, Samuntai, Kec. Long Ikis, Kabupaten Paser, Kalimantan Timur","Kabupaten Paser, Kalimantan Timur",KALIMANTAN TIMUR,,Indonesia,,,,-1.66172,116.1305821,https://maps.google.com/?cid=0x0:0xd4b29df79ad789d1,
supermarket,Toko umum,TOKO CAHAYA,"Jl. Penajam-Kuaro No.13, Krayan Jaya, Kec. Long Ikis, Kabupaten Paser, Kalimantan Timur 76283","Krayan Jaya, Kec. Long Ikis, Kabupaten Paser",KALIMANTAN TIMUR,76283.0,Indonesia,,,,-1.558776,116.2669614,https://maps.google.com/?cid=0x0:0x2e499505e9e88424,
supermarket,Toko,Toko Berkah,"F43W+5XV, Long Gelang, Kec. Long Ikis, Kabupaten Paser, Kalimantan Timur 76282","Long Gelang, Kec. Long Ikis, Kabupaten Paser",KALIMANTAN TIMUR,76282.0,Indonesia,82253540583.0,,,-1.5470083,116.1474067,https://maps.google.com/?cid=0x0:0x36c7deed76f50f65,
supermarket,Toko Swalayan,Toko mbak Mul,"957X+GRX, Jl.masuk samping PLN, Tajur, Kec. Long Ikis, Kabupaten Paser, Kalimantan Timur 76282","Jl.masuk samping PLN, Tajur, Kec. Long Ikis, Kabupaten Paser",KALIMANTAN TIMUR,76282.0,Indonesia,,,,-1.6361434,116.1996092,https://maps.google.com/?cid=0x0:0x19b98c593f025b1e,
supermarket,Toko umum,Warung Pojok Indah,"F63R+HRH, Kayungo, Kec. Long Ikis, Kabupaten Paser, Kalimantan Timur 76282","Kayungo, Kec. Long Ikis, Kabupaten Paser",KALIMANTAN TIMUR,76282.0,Indonesia,,,,-1.5460654,116.2421121,https://maps.google.com/?cid=0x0:0x10ebb60a585e04e1,
supermarket,Toko,TOKO UMAR,"F542+FX7, Unnamed Road, Sekurou Jaya, Kec. Long Ikis, Kabupaten Paser, Kalimantan Timur 76282","Unnamed Road, Sekurou Jaya, Kec. Long Ikis, Kabupaten Paser",KALIMANTAN TIMUR,76282.0,Indonesia,,,,-1.5438271,116.1524235,https://maps.google.com/?cid=0x0:0xbd3ea47c932f4ea3,
supermarket,Minimarket,Indomaret Long Ikis,"Jl. Negara No.KM.85, Lombok, Kec. Long Ikis, Kabupaten Paser, Kalimantan Timur 76282","Lombok, Kec. Long Ikis, Kabupaten Paser",KALIMANTAN TIMUR,76282.0,Indonesia,5435231462.0,,,-1.6058234,116.165414,https://maps.google.com/?cid=0x0:0x37ce771e1a6ea816,
supermarket,Toko,Toko Sumber Sari,"C5G3+GCV, Unnamed Road, Sawit Jaya, Kec. Long Ikis, Kabupaten Paser, Kalimantan Timur 76282","Unnamed Road, Sawit Jaya, Kec. Long Ikis, Kabupaten Paser",KALIMANTAN TIMUR,76282.0,Indonesia,,,,-1.5736486,116.1535482,https://maps.google.com/?cid=0x0:0x98e39ce5b8cd9c53,
supermarket,Toko Swalayan,Toko alfazza karomah,"96F2+943, Unnamed Road, Tajur, Kec. Long Ikis, Kabupaten Paser, Kalimantan Timur 76282","Unnamed Road, Tajur, Kec. Long Ikis, Kabupaten Paser",KALIMANTAN TIMUR,76282.0,Indonesia,,,,-1.626612,116.200306,https://maps.google.com/?cid=0x0:0x686d4b2af02ef63a,
supermarket,Toko Swalayan,Toko Didi,"Samping SPBU, Desa Atang, RT.001, Pait, Kec. Long Ikis, Kabupaten Paser, Kalimantan Timur 76282","Desa Atang, RT.001, Pait, Kec. Long Ikis, Kabupaten Paser",KALIMANTAN TIMUR,76282.0,Indonesia,82251701158.0,,,-1.597755,116.1885629,https://maps.google.com/?cid=0x0:0xf0d6d73fd295f9b8,
supermarket,supermarket,Long Kali,"Kec. Long Kali, Kabupaten Paser, Kalimantan Timur","Kabupaten Paser, Kalimantan Timur",KALIMANTAN TIMUR,,Indonesia,,,,-1.5194511,116.3485586,https://maps.google.com/?cid=0x0:0x53cab57c6f4ece2d,
supermarket,Toko bahan makanan,Indomaret Long Kali,"F8JF+62P, Long Kali, Kec. Long Kali, Kabupaten Paser, Kalimantan Timur 76283","Long Kali, Kec. Long Kali, Kabupaten Paser",KALIMANTAN TIMUR,76283.0,Indonesia,,,,-1.5194123,116.3225649,https://maps.google.com/?cid=0x0:0xa57a2d5604338895,
supermarket,Toko bahan makanan,Toko Yuliani II,"Jl. Penajam-Kuaro No.14, Long Kali, Kec. Long Kali, Kabupaten Paser, Kalimantan Timur 76283","Long Kali, Kec. Long Kali, Kabupaten Paser",KALIMANTAN TIMUR,76283.0,Indonesia,82149699949.0,,,-1.5192876,116.3229726,https://maps.google.com/?cid=0x0:0x4cc840a42574c62c,
supermarket,Toko Swalayan,Toko Ar-Rosyid Kademan Long Kali,"Jl. Negara No.KM 62 RT 3, Long Kali, Kec. Long Kali, Kabupaten Paser, Kalimantan Timur 76283","Long Kali, Kec. Long Kali, Kabupaten Paser",KALIMANTAN TIMUR,76283.0,Indonesia,82152918566.0,,,-1.5136298,116.3402312,https://maps.google.com/?cid=0x0:0x7f28f3903805f97,
supermarket,Minimarket,Indomatet Longkali,"G828+2MV, Long Kali, Kec. Long Kali, Kabupaten Paser, Kalimantan Timur 76283","Long Kali, Kec. Long Kali, Kabupaten Paser",KALIMANTAN TIMUR,76283.0,Indonesia,82256527949.0,,,-1.5,116.316667,https://maps.google.com/?cid=0x0:0x6b5f83abd62f7509,
supermarket,Toko umum,toko mingung,"G8PC+J77, Bente Tualan, Kec. Long Kali, Kabupaten Paser, Kalimantan Timur 76283","Bente Tualan, Kec. Long Kali, Kabupaten Paser",KALIMANTAN TIMUR,76283.0,Indonesia,,,,-1.4634532,116.3206642,https://maps.google.com/?cid=0x0:0x30a121efefca8950,
supermarket,Pusat Perbelanjaan,PJA LONG KALI,"F8JC+8WR, Jl. Penajam-Kuaro, Long Kali, Kec. Long Kali, Kabupaten Paser, Kalimantan Timur 76283","Jl. Penajam-Kuaro, Long Kali, Kec. Long Kali, Kabupaten Paser",KALIMANTAN TIMUR,76283.0,Indonesia,,,,-1.5194045,116.3222281,https://maps.google.com/?cid=0x0:0x182a535e873a2402,
supermarket,Toko bahan makanan,Warung Sembako Ilmi,"F9X6+8C, Long Kali, Kec. Long Kali, Kabupaten Paser, Kalimantan Timur 76283","Long Kali, Kec. Long Kali, Kabupaten Paser",KALIMANTAN TIMUR,76283.0,Indonesia,,,,-1.5005063,116.3612876,https://maps.google.com/?cid=0x0:0xdacdfebbd37d4f87,
supermarket,Toko Swalayan,Toko faisah,"9GH6+RQH, Unnamed Road, Muara Telake, Kec. Long Kali, Kabupaten Paser, Kalimantan Timur 76283","Unnamed Road, Muara Telake, Kec. Long Kali, Kabupaten Paser",KALIMANTAN TIMUR,76283.0,Indonesia,,,,-1.6204403,116.5119758,https://maps.google.com/?cid=0x0:0x16653dc5895a976b,
supermarket,supermarket,Nayla Al-ghaniyyu,"depan kantor, Long Kali, Kec. Long Kali, Kabupaten Paser, Kalimantan Timur 76283","Long Kali, Kec. Long Kali, Kabupaten Paser",KALIMANTAN TIMUR,76283.0,Indonesia,82250670749.0,,,-1.5,116.316667,https://maps.google.com/?cid=0x0:0xa59bf769ac14a62b,
supermarket,Toko Swalayan,Toko Nurfaizah,"Jl. Poros No.RT. 4, Muara Telake, Kec. Long Kali, Kabupaten Paser, Kalimantan Timur 76283","Muara Telake, Kec. Long Kali, Kabupaten Paser",KALIMANTAN TIMUR,76283.0,Indonesia,82151058776.0,,,-1.6132734,116.5019976,https://maps.google.com/?cid=0x0:0x83774a90029db8f9,
supermarket,supermarket,Kalimantan Timur 76253,"Kec. Muara Komam, Kabupaten Paser, Kalimantan Timur","Kabupaten Paser, Kalimantan Timur",KALIMANTAN TIMUR,,Indonesia,,,,-1.544033,115.8048521,https://maps.google.com/?cid=0x0:0x64a10c9684dc5b70,
supermarket,Toko,Toko As-Syifa,"Sekuan Makmur, Muara Langon, Kec. Muara Komam, Kabupaten Paser, Kalimantan Timur 76253","Muara Langon, Kec. Muara Komam, Kabupaten Paser",KALIMANTAN TIMUR,76253.0,Indonesia,85349482789.0,,,-1.6668743,115.7447535,https://maps.google.com/?cid=0x0:0x98f8a9a98244d7a1,
supermarket,Toko,Toko Bina Karya,"Jl. Negara No.39 Rt.03 Rw.02, Uko, Muara Komam, Paser Regency, East Kalimantan 76253","Uko, Muara Komam, Paser Regency",KALIMANTAN TIMUR,76253.0,Indonesia,,,,-1.6847401,115.8172539,https://maps.google.com/?cid=0x0:0x95b308d61d353a78,
supermarket,Pasar,Pasar Muara Komam,"8R98+2MX, Jl. Tj. - Kuaro No.21, Uko, Kec. Muara Komam, Kabupaten Paser, Kalimantan Timur 76253","Jl. Tj. - Kuaro No.21, Uko, Kec. Muara Komam, Kabupaten Paser",KALIMANTAN TIMUR,76253.0,Indonesia,,,,-1.6821407,115.8166302,https://maps.google.com/?cid=0x0:0xfa8f1bd1bf6e621f,
supermarket,Toko Swalayan,Toko azril,"8RH9+F2R, baras, jiring, Kec. Muara Komam, Kabupaten Paser, Kalimantan Timur 76253","baras, jiring, Kec. Muara Komam, Kabupaten Paser",KALIMANTAN TIMUR,76253.0,Indonesia,,,,-1.671261,115.8175107,https://maps.google.com/?cid=0x0:0x2eb6ea3ad44a3e94,
supermarket,Toko,AHB Cell,"8RF9+9RX, Uko, Kec. Muara Komam, Kabupaten Paser, Kalimantan Timur 76253","Uko, Kec. Muara Komam, Kabupaten Paser",KALIMANTAN TIMUR,76253.0,Indonesia,,,,-1.6765008,115.8196194,https://maps.google.com/?cid=0x0:0x8b492a5cfc17530d,
supermarket,Toko,Kios SAPOETRA,"8RF3+3F2, Jl. Tj. - Kuaro, Muara Komam, Kec. Muara Komam, Kabupaten Paser, Kalimantan Timur 76253","Jl. Tj. - Kuaro, Muara Komam, Kec. Muara Komam, Kabupaten Paser",KALIMANTAN TIMUR,76253.0,Indonesia,82255857285.0,,,-1.6773604,115.8036339,https://maps.google.com/?cid=0x0:0x7c8805ffac28b56f,
supermarket,Toko bahan makanan,Toko Nusantara,"8RC2+XW2, RT.07, Muara Komam, Kec. Muara Komam, Kabupaten Paser, Kalimantan Timur 76253","RT.07, Muara Komam, Kec. Muara Komam, Kabupaten Paser",KALIMANTAN TIMUR,76253.0,Indonesia,81253263705.0,,,-1.6776201,115.8022683,https://maps.google.com/?cid=0x0:0x8ead50b5e4391eaf,
supermarket,Toko Pakaian,Toko M.Adya,"8R28+MC4, Jl. Tj. - Kuaro, Batu Butok, Kec. Muara Komam, Kabupaten Paser, Kalimantan Timur 76253","Jl. Tj. - Kuaro, Batu Butok, Kec. Muara Komam, Kabupaten Paser",KALIMANTAN TIMUR,76253.0,Indonesia,,,,-1.6983533,115.816071,https://maps.google.com/?cid=0x0:0xda8ec5cfccadc920,
supermarket,Toko,TOKO RINI,"8QFJ+MPW, Jl. Tj. - Kuaro, Muara Komam, Kec. Muara Komam, Kabupaten Paser, Kalimantan Timur 76253","Jl. Tj. - Kuaro, Muara Komam, Kec. Muara Komam, Kabupaten Paser",KALIMANTAN TIMUR,76253.0,Indonesia,,,,-1.6757715,115.7818268,https://maps.google.com/?cid=0x0:0x4e17351b2f832752,
supermarket,,Toko dayat muara langon,"8PMV+64R, Muara Langon, Kec. Muara Komam, Kabupaten Paser, Kalimantan Timur 76253","Muara Langon, Kec. Muara Komam, Kabupaten Paser",KALIMANTAN TIMUR,76253.0,Indonesia,,,,-1.6668882,115.7427667,https://maps.google.com/?cid=0x0:0x4e35091f8d09c7fd,
supermarket,Minimarket,Toko Noval Muara Komam,"8R98+2MX, Uko, Kec. Muara Komam, Kabupaten Paser, Kalimantan Timur 76253","Uko, Kec. Muara Komam, Kabupaten Paser",KALIMANTAN TIMUR,76253.0,Indonesia,81347197620.0,,,-1.6823767,115.81673,https://maps.google.com/?cid=0x0:0xbf552a7d4ab1d02,
supermarket,Toko Daging,HR FROZEN,"7RQC+WR4, Batu Butok, Kec. Muara Komam, Kabupaten Paser, Kalimantan Timur","Kabupaten Paser, Kalimantan Timur",KALIMANTAN TIMUR,,Indonesia,,,,-1.7102349,115.8220892,https://maps.google.com/?cid=0x0:0xed8273f2dba434d6,
supermarket,Minimarket,Agen Galon Le Minerale Toko berkat,"8R78+WRC, Jl. Tj. - Kuaro, Uko, Kec. Muara Komam, Kabupaten Paser, Kalimantan Timur 76253","Jl. Tj. - Kuaro, Uko, Kec. Muara Komam, Kabupaten Paser",KALIMANTAN TIMUR,76253.0,Indonesia,,,,-1.6852015,115.8168427,https://maps.google.com/?cid=0x0:0x1bc222eb4cb5e625,
supermarket,Toko,Toko Feby,"Jl. Tj. - Kuaro, Batu Butok, Kec. Muara Komam, Kabupaten Paser, Kalimantan Timur 76253","Batu Butok, Kec. Muara Komam, Kabupaten Paser",KALIMANTAN TIMUR,76253.0,Indonesia,81351106999.0,,,-1.7048305,115.821163,https://maps.google.com/?cid=0x0:0x522f16f53b55a3f3,
supermarket,Toko,TOKO NANANG,"8R88+RP8, Jl. Tj. - Kuaro, Uko, Kec. Muara Komam, Kabupaten Paser, Kalimantan Timur 76253","Jl. Tj. - Kuaro, Uko, Kec. Muara Komam, Kabupaten Paser",KALIMANTAN TIMUR,76253.0,Indonesia,,,,-1.6829579,115.8168418,https://maps.google.com/?cid=0x0:0x51e248f83e1d321d,
supermarket,Pertanian,OMAH SAYUR,"8R98+RF4, Jl. Tj. - Kuaro, Muara Komam, Kec. Muara Komam, Kabupaten Paser, Kalimantan Timur 76253","Jl. Tj. - Kuaro, Muara Komam, Kec. Muara Komam, Kabupaten Paser",KALIMANTAN TIMUR,76253.0,Indonesia,,,,-1.6804905,115.8162174,https://maps.google.com/?cid=0x0:0xf7d9bdf9e1166ed5,
supermarket,Toko,Toko hj upi,"Pelampitan, RT.02/RW.01, Uko, Kec. Muara Komam, Kabupaten Paser, Kalimantan Timur 76253","RT.02/RW.01, Uko, Kec. Muara Komam, Kabupaten Paser",KALIMANTAN TIMUR,76253.0,Indonesia,,,,-1.6850933,115.8197526,https://maps.google.com/?cid=0x0:0xb0f10ade8541c68,
supermarket,Pasar,Koplak,"8RC7+QP6, Jl. Tj. - Kuaro, Muara Komam, Kec. Muara Komam, Kabupaten Paser, Kalimantan Timur 76253","Jl. Tj. - Kuaro, Muara Komam, Kec. Muara Komam, Kabupaten Paser",KALIMANTAN TIMUR,76253.0,Indonesia,,,,-1.6778849,115.8142511,https://maps.google.com/?cid=0x0:0x2168db5872a98a89,
supermarket,Toko,TOKO ALIKA,"8R38+8GJ, Jl. Tj. - Kuaro, RT./rw/RW.001/001, Batu Butok, Kec. Muara Komam, Kabupaten Paser, Kalimantan Timur 76253","Jl. Tj. - Kuaro, RT./rw/RW.001/001, Batu Butok, Kec. Muara Komam, Kabupaten Paser",KALIMANTAN TIMUR,76253.0,Indonesia,,,,-1.6966534,115.8162798,https://maps.google.com/?cid=0x0:0x19baa2700bc5e64f,
supermarket,,TOKO RERAI Muara Komam,"8RF3+2J6, Muara Komam, Kec. Muara Komam, Kabupaten Paser, Kalimantan Timur 76253","Muara Komam, Kec. Muara Komam, Kabupaten Paser",KALIMANTAN TIMUR,76253.0,Indonesia,,,,-1.6774563,115.8040092,https://maps.google.com/?cid=0x0:0x6b4f81fa7d0cd2cd,
supermarket,Toko,Warung mama halil,"No rumah 33 No.RT.008, Muara Langon, Kec. Muara Komam, Kabupaten Paser, Kalimantan Timur","Kabupaten Paser, Kalimantan Timur",KALIMANTAN TIMUR,,Indonesia,,,,-1.6850531,115.7097111,https://maps.google.com/?cid=0x0:0x2df03a5cec9fdc4f,
supermarket,supermarket,Kalimantan Timur 76252,"Kabupaten Paser, Kalimantan Timur","Kabupaten Paser, Kalimantan Timur",KALIMANTAN TIMUR,,Indonesia,,,,-1.9651197,115.8994923,https://maps.google.com/?cid=0x0:0xd282220639c80aba,
supermarket,Toko,toko mama fitri,"jl.damut No.rt.01, Muser, Kec. Muara Samu, Kabupaten Paser, Kalimantan Timur 76252","Muser, Kec. Muara Samu, Kabupaten Paser",KALIMANTAN TIMUR,76252.0,Indonesia,85251069681.0,,,-2.0172411,115.9391434,https://maps.google.com/?cid=0x0:0x67ff908120eb4840,
supermarket,Toko,Toko R.A Biu,"XWWM+VGP, Muser, Kec. Muara Samu, Kabupaten Paser, Kalimantan Timur 76252","Muser, Kec. Muara Samu, Kabupaten Paser",KALIMANTAN TIMUR,76252.0,Indonesia,81350169302.0,,,-2.0027805,115.9338142,https://maps.google.com/?cid=0x0:0x4cf05f94d88089d9,
supermarket,Minimarket,Alfamidi Batu Sopang,"Batu Kajang, Kec. Batu Sopang, Kabupaten Paser, Kalimantan Timur 76252","Kec. Batu Sopang, Kabupaten Paser",KALIMANTAN TIMUR,76252.0,Indonesia,,,,-1.8214667,115.9122238,https://maps.google.com/?cid=0x0:0xc968772d2e75e3f6,
supermarket,Toko bahan makanan,D  S Mart,"Batu Kajang, Kec. Batu Sopang, Kabupaten Paser, Kalimantan Timur","Kabupaten Paser, Kalimantan Timur",KALIMANTAN TIMUR,,Indonesia,,,,-1.8180992,115.8972659,https://maps.google.com/?cid=0x0:0x83b76ca0a7caf110,
supermarket,Toko Swalayan,Mommy Mart (Meats and Vegetables),"Jl. Kuaro - Tanah Grogot, Batu Kajang, Kec. Batu Sopang, Kabupaten Paser, Kalimantan Timur 76252","Batu Kajang, Kec. Batu Sopang, Kabupaten Paser",KALIMANTAN TIMUR,76252.0,Indonesia,81251706520.0,,,-1.8245323,115.9187601,https://maps.google.com/?cid=0x0:0xa8eed81e8aa82915,
supermarket,Toko umum,Warung Hamsan,"Desa Sungai Terik, Risdis RT. 2 No. 137 Kec. Batu Sopang Kab, Sungai Terik, Tanah Grogot, Kabupaten Paser, Kalimantan Timur 76252","Risdis RT. 2 No. 137 Kec. Batu Sopang Kab, Sungai Terik, Tanah Grogot, Kabupaten Paser",KALIMANTAN TIMUR,76252.0,Indonesia,,,,-1.837282,115.9485502,https://maps.google.com/?cid=0x0:0x96069f051812f9f,
supermarket,Toko,SRC JAMIL,"5W9F+X9X, Batu Kajang, Kec. Batu Sopang, Kabupaten Paser, Kalimantan Timur 76252","Batu Kajang, Kec. Batu Sopang, Kabupaten Paser",KALIMANTAN TIMUR,76252.0,Indonesia,,,,-1.8300073,115.9234976,https://maps.google.com/?cid=0x0:0xfd351465c3e85ca,
supermarket,Bumi perkemahan,Warung Madura bukit sampi,"3X4J+FJ3, Luan/Dilibinti, Kec. Muara Samu, Kabupaten Paser, Kalimantan Timur 76271","Luan/Dilibinti, Kec. Muara Samu, Kabupaten Paser",KALIMANTAN TIMUR,76271.0,Indonesia,81253620462.0,,,-1.9439636,115.9814523,https://maps.google.com/?cid=0x0:0xb257cfe98eb7fc3f,
supermarket,Pusat Perbelanjaan,Toko Mama Tinah,"5W7H+C8X, Batu Kajang, Kec. Batu Sopang, Kabupaten Paser, Kalimantan Timur 76252","Batu Kajang, Kec. Batu Sopang, Kabupaten Paser",KALIMANTAN TIMUR,76252.0,Indonesia,,,,-1.8363966,115.9283573,https://maps.google.com/?cid=0x0:0x2d6f910c1edfbc5d,
supermarket,Toko bahan makanan,PANGKALAN BBM TOKO SRI,"5RVQ+975, Jl. Tj. - Kuaro, Busui, Kec. Batu Sopang, Kabupaten Paser, Kalimantan Timur 76252","Jl. Tj. - Kuaro, Busui, Kec. Batu Sopang, Kabupaten Paser",KALIMANTAN TIMUR,76252.0,Indonesia,82149908759.0,,,-1.8066196,115.8382393,https://maps.google.com/?cid=0x0:0xad34ad8b9a26b395,
supermarket,Minimarket,warung joe,"Jl. Tj. Raya No.15, Batu Kajang, Kec. Batu Sopang, Kabupaten Paser, Kalimantan Timur 76252","Batu Kajang, Kec. Batu Sopang, Kabupaten Paser",KALIMANTAN TIMUR,76252.0,Indonesia,,,,-1.8350271,115.930829,https://maps.google.com/?cid=0x0:0xe3ab7f77ba6ee32d,
supermarket,Toko bahan makanan,Bos Iwan,"2X44+VGR, Suweto, Kec. Muara Samu, Kabupaten Paser, Kalimantan Timur 76252","Suweto, Kec. Muara Samu, Kabupaten Paser",KALIMANTAN TIMUR,76252.0,Indonesia,,,,-1.9927651,115.9562714,https://maps.google.com/?cid=0x0:0x9ba9a551e506cddb,
supermarket,Toko Daging,Fresh Meat Batu Kajang,"Jl. Negara, Batu Kajang, Kec. Batu Sopang, Kabupaten Paser, Kalimantan Timur 76252","Batu Kajang, Kec. Batu Sopang, Kabupaten Paser",KALIMANTAN TIMUR,76252.0,Indonesia,81350910840.0,,,-1.8189589,115.899799,https://maps.google.com/?cid=0x0:0xdf04f3a795e6b703,
supermarket,Toko bahan makanan,Asmaul Haq,"Batu Kajang, Kec. Batu Sopang, Kabupaten Paser, Kalimantan Timur 76252","Kec. Batu Sopang, Kabupaten Paser",KALIMANTAN TIMUR,76252.0,Indonesia,,,,-1.8287322,115.9015957,https://maps.google.com/?cid=0x0:0x16d9a988574d4679,
supermarket,Minimarket,Toko Aby Chandra,"Jln.Sei Kandilo No.RT.05, Suweto, Kec. Muara Samu, Kabupaten Paser, Kalimantan Timur 76250","Suweto, Kec. Muara Samu, Kabupaten Paser",KALIMANTAN TIMUR,76250.0,Indonesia,85252712195.0,,,-1.9962344,115.95907,https://maps.google.com/?cid=0x0:0x2d243581a0c6c1ef,
supermarket,Pusat Perbelanjaan,Indomaret btg,"5WJ2+MRM, Batu Kajang, Kec. Batu Sopang, Kabupaten Paser, Kalimantan Timur 76252","Batu Kajang, Kec. Batu Sopang, Kabupaten Paser",KALIMANTAN TIMUR,76252.0,Indonesia,,,,-1.8182908,115.9020355,https://maps.google.com/?cid=0x0:0xd4aa81c26340f8ae,
supermarket,Toko bahan makanan,Pja mart,"RT.024, Batu Kajang, Kec. Batu Sopang, Kabupaten Paser, Kalimantan Timur 76252","Batu Kajang, Kec. Batu Sopang, Kabupaten Paser",KALIMANTAN TIMUR,76252.0,Indonesia,81349354974.0,,,-1.8201792,115.9108638,https://maps.google.com/?cid=0x0:0xa2316bc9f7d31d99,
supermarket,Toko Swalayan,AB Mart,"5WJ4+WWV, Batu Kajang, Kec. Batu Sopang, Kabupaten Paser, Kalimantan Timur 76252","Batu Kajang, Kec. Batu Sopang, Kabupaten Paser",KALIMANTAN TIMUR,76252.0,Indonesia,82157000155.0,,,-1.8176422,115.9073082,https://maps.google.com/?cid=0x0:0x7d93f360fd565e4b,
supermarket,supermarket,TOKO MAMA OLIV,"Suweto, Kec. Muara Samu, Kabupaten Paser, Kalimantan Timur 76252","Kec. Muara Samu, Kabupaten Paser",KALIMANTAN TIMUR,76252.0,Indonesia,85752224887.0,,,-1.9972969,115.959822,https://maps.google.com/?cid=0x0:0x3f03eb9da38340f7,
supermarket,supermarket,Pasir Belengkong,"Kec. Pasir Belengkong, Kabupaten Paser, Kalimantan Timur","Kabupaten Paser, Kalimantan Timur",KALIMANTAN TIMUR,,Indonesia,,,,-1.9689999,116.1950214,https://maps.google.com/?cid=0x0:0x6221fbd222a5cafb,
supermarket,Toko Swalayan,WIJAYA,"256H+7V5, Jl. Jenderal Sudirman, Pasir Belengkong, Kec. Pasir Belengkong, Kabupaten Paser, Kalimantan Timur 76271","Jl. Jenderal Sudirman, Pasir Belengkong, Kec. Pasir Belengkong, Kabupaten Paser",KALIMANTAN TIMUR,76271.0,Indonesia,,,,-1.9893564,116.179743,https://maps.google.com/?cid=0x0:0x5f7592119dfc82f5,
supermarket,Dapur Umum,TOKO ARIF,"2772+7VG, Suliliran Baru, Kec. Pasir Belengkong, Kabupaten Paser, Kalimantan Timur 76271","Suliliran Baru, Kec. Pasir Belengkong, Kabupaten Paser",KALIMANTAN TIMUR,76271.0,Indonesia,81549204500.0,,,-1.9868011,116.2522166,https://maps.google.com/?cid=0x0:0x6cd0183f1183907,
supermarket,Minimarket,Pak Mungin,"X5QC+74M, Suatang, Kec. Pasir Belengkong, Kabupaten Paser, Kalimantan Timur 76271","Suatang, Kec. Pasir Belengkong, Kabupaten Paser",KALIMANTAN TIMUR,76271.0,Indonesia,,,,-2.0117991,116.1703056,https://maps.google.com/?cid=0x0:0x7e14dde5ed5b67b0,
supermarket,Minimarket,Warung Mas Yudi,"257P+VV9, Pasir Belengkong, Kec. Pasir Belengkong, Kabupaten Paser, Kalimantan Timur 76271","Pasir Belengkong, Kec. Pasir Belengkong, Kabupaten Paser",KALIMANTAN TIMUR,76271.0,Indonesia,,,,-1.9853472,116.18722,https://maps.google.com/?cid=0x0:0xaa58fff8a4796edf,
supermarket,Toko umum,Rendra warung,"356G+7X4, Jl. Garuda, Sangkuriman, Kec. Pasir Belengkong, Kabupaten Paser, Kalimantan Timur 76251","Jl. Garuda, Sangkuriman, Kec. Pasir Belengkong, Kabupaten Paser",KALIMANTAN TIMUR,76251.0,Indonesia,,,,-1.9393631,116.1774552,https://maps.google.com/?cid=0x0:0xf8f11e4f76c5e3bd,
supermarket,Toko Swalayan,Buen Bolum Loket Pembayaran Online Pasir Belengkong,"Jl. Kesehatan No.09, Pasir Belengkong, Kec. Pasir Belengkong, Kabupaten Paser, Kalimantan Timur 76271","Pasir Belengkong, Kec. Pasir Belengkong, Kabupaten Paser",KALIMANTAN TIMUR,76271.0,Indonesia,82155456777.0,,,-1.9488828,116.2114042,https://maps.google.com/?cid=0x0:0x69de4d4001be99d2,
supermarket,Toko,Toko Kue Mama Nafis,"2734+7GR, Unnamed Road, Suliliran Baru, Kec. Pasir Belengkong, Kabupaten Paser, Kalimantan Timur 76271","Unnamed Road, Suliliran Baru, Kec. Pasir Belengkong, Kabupaten Paser",KALIMANTAN TIMUR,76271.0,Indonesia,82251999043.0,,,-1.996761,116.256269,https://maps.google.com/?cid=0x0:0xbd759d8f4f7a5fd7,
supermarket,Toko,Toko giman,"255H+RGF, Pasir Belengkong, Kec. Pasir Belengkong, Kabupaten Paser, Kalimantan Timur 76271","Pasir Belengkong, Kec. Pasir Belengkong, Kabupaten Paser",KALIMANTAN TIMUR,76271.0,Indonesia,,,,-1.9904283,116.1788017,https://maps.google.com/?cid=0x0:0x5fd661ae9fbbd2e2,
supermarket,Toko bahan makanan,toko acil itay,"268W+5C3, Suliliran Baru, Kec. Pasir Belengkong, Kabupaten Paser, Kalimantan Timur 76271","Suliliran Baru, Kec. Pasir Belengkong, Kabupaten Paser",KALIMANTAN TIMUR,76271.0,Indonesia,,,,-1.9849015,116.2470346,https://maps.google.com/?cid=0x0:0xb27de544dba571c2,
supermarket,Toko bahan makanan,Warung doa anak,"X5Q9+GFH, Suatang, Kec. Pasir Belengkong, Kabupaten Paser, Kalimantan Timur 76271","Suatang, Kec. Pasir Belengkong, Kabupaten Paser",KALIMANTAN TIMUR,76271.0,Indonesia,,,,-2.0111863,116.1687302,https://maps.google.com/?cid=0x0:0x2d99c665f72dd8,
supermarket,Toko umum,Depo deo,"267X+MFR, Suliliran Baru, Kec. Pasir Belengkong, Kabupaten Paser, Kalimantan Timur 76271","Suliliran Baru, Kec. Pasir Belengkong, Kabupaten Paser",KALIMANTAN TIMUR,76271.0,Indonesia,82159567369.0,,,-1.9857516,116.2486449,https://maps.google.com/?cid=0x0:0xbd5b25f3f6c0f50,
supermarket,Dapur Umum,Dapur BU Yanti : Rengginang Khas Pasir Belengkong,"362J+JC, Pasir Belengkong, Kec. Pasir Belengkong, Kabupaten Paser, Kalimantan Timur","Kabupaten Paser, Kalimantan Timur",KALIMANTAN TIMUR,,Indonesia,81346818771.0,,,-1.9483683,116.2311077,https://maps.google.com/?cid=0x0:0x621a338270830e87,
supermarket,Toko bahan makanan,Toko Putri,"3626+JG9, Pasir Belengkong, Kec. Pasir Belengkong, Kabupaten Paser, Kalimantan Timur 76271","Pasir Belengkong, Kec. Pasir Belengkong, Kabupaten Paser",KALIMANTAN TIMUR,76271.0,Indonesia,,,,-1.9484731,116.2113649,https://maps.google.com/?cid=0x0:0x52d04e3d270d89df,
supermarket,Pertanian,Sagu Kulut Pasir Belengkong,"3648+H9, Pasir Belengkong, Kec. Pasir Belengkong, Kabupaten Paser, Kalimantan Timur","Kabupaten Paser, Kalimantan Timur",KALIMANTAN TIMUR,,Indonesia,85821126611.0,,,-1.943506,116.215913,https://maps.google.com/?cid=0x0:0x9f40c1479b36b32b,
supermarket,Toko Makanan Sehat,Warung Ibu sarni,"34GX+H2X, Damit, Kec. Pasir Belengkong, Kabupaten Paser, Kalimantan Timur 76251","Damit, Kec. Pasir Belengkong, Kabupaten Paser",KALIMANTAN TIMUR,76251.0,Indonesia,,,,-1.9235207,116.1476192,https://maps.google.com/?cid=0x0:0xd88bdc922fd1d301,
supermarket,Toko Roti Grosir,Roti Gembong Pea Paser Tolu Berebuntung,"jl.Garuda. Rt 01 No.56, Desa, Sangkuriman, Kec. Pasir Belengkong, Kabupaten Paser, Kalimantan Timur 76271","Desa, Sangkuriman, Kec. Pasir Belengkong, Kabupaten Paser",KALIMANTAN TIMUR,76271.0,Indonesia,82254019345.0,,,-1.9408058,116.1800317,https://maps.google.com/?cid=0x0:0xd7546b24f79c6c05,
supermarket,Pertanian,Sagu Gunting Tanah Grogot,"3648+G3, Pasir Belengkong, Kec. Pasir Belengkong, Kabupaten Paser, Kalimantan Timur","Kabupaten Paser, Kalimantan Timur",KALIMANTAN TIMUR,,Indonesia,83144126919.0,,,-1.943664,116.215135,https://maps.google.com/?cid=0x0:0x26ef43243e3af4f5,
supermarket,Toko Swalayan,Toko Zifa Putri,"X4JR+XGW, Unnamed Road, Suatang, Kec. Pasir Belengkong, Kabupaten Paser, Kalimantan Timur 76271","Unnamed Road, Suatang, Kec. Pasir Belengkong, Kabupaten Paser",KALIMANTAN TIMUR,76271.0,Indonesia,82188186695.0,,,-2.0175204,116.1413168,https://maps.google.com/?cid=0x0:0x63384bf81479aa64,
supermarket,Toko Swalayan,TOKO SEMBAKO LISTA,"toko sembako lista, Tanah Periuk, Kec. Tanah Grogot, Kabupaten Paser, Kalimantan Timur 76251","Tanah Periuk, Kec. Tanah Grogot, Kabupaten Paser",KALIMANTAN TIMUR,76251.0,Indonesia,81346246708.0,,,-1.9264896,116.1908512,https://maps.google.com/?cid=0x0:0x9ca6eb3946153e48,
supermarket,Toko,Toko Surabaya,"35HX+3H7, Jl. Sultan Hasanuddin, Tanah Grogot, Kec. Tanah Grogot, Kabupaten Paser, Kalimantan Timur 76251","Jl. Sultan Hasanuddin, Tanah Grogot, Kec. Tanah Grogot, Kabupaten Paser",KALIMANTAN TIMUR,76251.0,Indonesia,,,,-1.9223453,116.1989177,https://maps.google.com/?cid=0x0:0xd331c06b261e6fac,
supermarket,Toko bahan makanan,Toko Fadillah Taper,"Jalan Negara No.RT 05, Tanah Periuk, Kec. Tanah Grogot, Kabupaten Paser, Kalimantan Timur 55764","Tanah Periuk, Kec. Tanah Grogot, Kabupaten Paser",KALIMANTAN TIMUR,55764.0,Indonesia,82250015968.0,,,-1.9458139,116.2084516,https://maps.google.com/?cid=0x0:0xd0f5ee4860d5a8ed,
supermarket,Toko umum,Rumah Husna,"jln nyerua taka No.rt 05, Damit, Kec. Pasir Belengkong, Kabupaten Paser, Kalimantan Timur 76251","Damit, Kec. Pasir Belengkong, Kabupaten Paser",KALIMANTAN TIMUR,76251.0,Indonesia,82350812798.0,,,-1.9392004,116.1685153,https://maps.google.com/?cid=0x0:0xe922209d8f239bc9,
supermarket,Toko Ponsel,Toko Araicell,"Jl. Sultan Iskandar Muda No.09, Tanah Grogot, Kec. Tanah Grogot, Kabupaten Paser, Kalimantan Timur 76251","Tanah Grogot, Kec. Tanah Grogot, Kabupaten Paser",KALIMANTAN TIMUR,76251.0,Indonesia,,,,-1.9203617,116.1963326,https://maps.google.com/?cid=0x0:0xd08206e97422bc89,
supermarket,Toko umum,TOKO BU ERNI,"35CP+4QQ, Jl. Sangkuriman, Sangkuriman, Kec. Pasir Belengkong, Kabupaten Paser, Kalimantan Timur 76251","Jl. Sangkuriman, Sangkuriman, Kec. Pasir Belengkong, Kabupaten Paser",KALIMANTAN TIMUR,76251.0,Indonesia,,,,-1.9296512,116.1869833,https://maps.google.com/?cid=0x0:0x5ba074b96bbdab23,
supermarket,Toko,Toko Kamal Suatang,"X4MX+VMR, Suatang, Kec. Pasir Belengkong, Kabupaten Paser, Kalimantan Timur 76271","Suatang, Kec. Pasir Belengkong, Kabupaten Paser",KALIMANTAN TIMUR,76271.0,Indonesia,85348773423.0,,,-2.015267,116.1491514,https://maps.google.com/?cid=0x0:0xc7c03b39d8ddd70e,
supermarket,supermarket,Kalimantan Timur 76251,"Kabupaten Paser, Kalimantan Timur","Kabupaten Paser, Kalimantan Timur",KALIMANTAN TIMUR,,Indonesia,,,,-1.8898443,116.1832068,https://maps.google.com/?cid=0x0:0xca69f8ee7df89d8f,
supermarket,Grosir,PJA Market 2,"36V2+FCG, Jl. Anden Oko, Tanah Grogot, Kec. Tanah Grogot, Kabupaten Paser, Kalimantan Timur 76251","Jl. Anden Oko, Tanah Grogot, Kec. Tanah Grogot, Kabupaten Paser",KALIMANTAN TIMUR,76251.0,Indonesia,,,,-1.9063111,116.2010931,https://maps.google.com/?cid=0x0:0xb86cd909fb8c42d6,
supermarket,Minimarket,Indomaret Point Jend Sudirman,"35QW+79J, Tanah Grogot, Kec. Tanah Grogot, Kabupaten Paser, Kalimantan Timur 76251","Tanah Grogot, Kec. Tanah Grogot, Kabupaten Paser",KALIMANTAN TIMUR,76251.0,Indonesia,,,,-1.9117868,116.1958994,https://maps.google.com/?cid=0x0:0x38e3fb4b8d3dd5ed,
supermarket,Toko,Toko Surabaya,"35HX+3H7, Jl. Sultan Hasanuddin, Tanah Grogot, Kec. Tanah Grogot, Kabupaten Paser, Kalimantan Timur 76251","Jl. Sultan Hasanuddin, Tanah Grogot, Kec. Tanah Grogot, Kabupaten Paser",KALIMANTAN TIMUR,76251.0,Indonesia,,,,-1.9223453,116.1989177,https://maps.google.com/?cid=0x0:0xd331c06b261e6fac,
supermarket,Toko Swalayan,Ibrahim Mart,"4622+J65, Jl. Untung Suropati, Jone, Kec. Tanah Grogot, Kabupaten Paser, Kalimantan Timur 76251","Jl. Untung Suropati, Jone, Kec. Tanah Grogot, Kabupaten Paser",KALIMANTAN TIMUR,76251.0,Indonesia,8115166888.0,,,-1.898487,116.200623,https://maps.google.com/?cid=0x0:0x5774c78bfe553909,
supermarket,Toko Swalayan,Toko ISAU,"Jone, Kec. Tanah Grogot, Kabupaten Paser, Kalimantan Timur 76251","Kec. Tanah Grogot, Kabupaten Paser",KALIMANTAN TIMUR,76251.0,Indonesia,,,,-1.9034283,116.2075383,https://maps.google.com/?cid=0x0:0xee3b1c50fa01fa4f,
supermarket,Toko bahan makanan,Toko Putri,"35MQ+FMP, Tanah Grogot, Kec. Tanah Grogot, Kabupaten Paser, Kalimantan Timur 76251","Tanah Grogot, Kec. Tanah Grogot, Kabupaten Paser",KALIMANTAN TIMUR,76251.0,Indonesia,85246086155.0,,,-1.9162809,116.1892181,https://maps.google.com/?cid=0x0:0xfce67b412d823cea,
supermarket,Minimarket,KING MART,"Jl. Tapis Soru No.KM. 4, Tepian Batang, Kec. Tanah Grogot, Kabupaten Paser, Kalimantan Timur 76251","Tepian Batang, Kec. Tanah Grogot, Kabupaten Paser",KALIMANTAN TIMUR,76251.0,Indonesia,,,,-1.8813853,116.180685,https://maps.google.com/?cid=0x0:0x69eba68c0d75d3d7,
supermarket,Minimarket,"Indomaret - Pangeran Menteri, Tanah Grogot","35WQ+HG7, Tanah Grogot, Kec. Tanah Grogot, Kabupaten Paser, Kalimantan Timur 76251","Tanah Grogot, Kec. Tanah Grogot, Kabupaten Paser",KALIMANTAN TIMUR,76251.0,Indonesia,,,,-1.9035897,116.1887907,https://maps.google.com/?cid=0x0:0xdb94efffb4c69e6f,
supermarket,Toko Swalayan,Alfamidi,"35VR+C82, Tanah Grogot, Kec. Tanah Grogot, Kabupaten Paser, Kalimantan Timur 76251","Tanah Grogot, Kec. Tanah Grogot, Kabupaten Paser",KALIMANTAN TIMUR,76251.0,Indonesia,81585315089.0,,,-1.9064801,116.1907706,https://maps.google.com/?cid=0x0:0x9b2f647aa1b82bf6,
supermarket,Toko bahan makanan,Kios R  R,"35QQ+8Q3, Tanah Grogot, Kec. Tanah Grogot, Kabupaten Paser, Kalimantan Timur 76251","Tanah Grogot, Kec. Tanah Grogot, Kabupaten Paser",KALIMANTAN TIMUR,76251.0,Indonesia,,,,-1.9117427,116.1894308,https://maps.google.com/?cid=0x0:0x2b76cc0c51c6ed73,
supermarket,Supermarket Diskon,Alfamidi Tapis,"45FV+MXG, Jl. DI. Panjaitan, Jone, Kec. Tanah Grogot, Kabupaten Paser, Kalimantan Timur 76251","Jl. DI. Panjaitan, Jone, Kec. Tanah Grogot, Kabupaten Paser",KALIMANTAN TIMUR,76251.0,Indonesia,,,,-1.8758168,116.1949463,https://maps.google.com/?cid=0x0:0x48802eeaf3b01b88,
supermarket,Minimarket,Indomaret,"36X2+R9R, Jone, Kec. Tanah Grogot, Kabupaten Paser, Kalimantan Timur 76251","Jone, Kec. Tanah Grogot, Kabupaten Paser",KALIMANTAN TIMUR,76251.0,Indonesia,,,,-1.900379,116.2008869,https://maps.google.com/?cid=0x0:0x6ea11a34267d9cf7,
supermarket,Supermarket Diskon,Alfamidi Diponegoro,"Jl. Diponegoro, Tanah Grogot, Kec. Tanah Grogot, Kabupaten Paser, Kalimantan Timur 76251","Tanah Grogot, Kec. Tanah Grogot, Kabupaten Paser",KALIMANTAN TIMUR,76251.0,Indonesia,,,,-1.9131043,116.196167,https://maps.google.com/?cid=0x0:0x62b101f02b981b00,
supermarket,Koperasi Simpan Pinjam,Koperasi Surya,"36V2+PJW, Tanah Grogot, Kec. Tanah Grogot, Kabupaten Paser, Kalimantan Timur 76251","Tanah Grogot, Kec. Tanah Grogot, Kabupaten Paser",KALIMANTAN TIMUR,76251.0,Indonesia,,,,-1.9056351,116.2015806,https://maps.google.com/?cid=0x0:0xb94b53ca9b9d3dd,
supermarket,Minimarket,MITRA MART,"JL Jl. Kapten Piere Tendean No.6, RT.5/RW.4, Tanah Grogot, Kec. Tanah Grogot, Kabupaten Paser, Kalimantan Timur 76211","RT.5/RW.4, Tanah Grogot, Kec. Tanah Grogot, Kabupaten Paser",KALIMANTAN TIMUR,76211.0,Indonesia,85821036070.0,,,-1.8988599,116.1942306,https://maps.google.com/?cid=0x0:0xcacbb4d95c9aab0b,
supermarket,Toko umum,toko berkah intur,"36V3+FX3, Jl. Yos Sudarso Jl. Senaken, Jone, Kec. Tanah Grogot, Kabupaten Paser, Kalimantan Timur 76251","Jl. Yos Sudarso Jl. Senaken, Jone, Kec. Tanah Grogot, Kabupaten Paser",KALIMANTAN TIMUR,76251.0,Indonesia,,,,-1.9063568,116.2049353,https://maps.google.com/?cid=0x0:0x55c769441a7fc07c,
supermarket,Toko Swalayan,Toko ANDI,"35MQ+GMC, Jl. Kh. Agus Salim, Tanah Grogot, Kec. Tanah Grogot, Kabupaten Paser, Kalimantan Timur 76251","Jl. Kh. Agus Salim, Tanah Grogot, Kec. Tanah Grogot, Kabupaten Paser",KALIMANTAN TIMUR,76251.0,Indonesia,,,,-1.9161927,116.1891467,https://maps.google.com/?cid=0x0:0x6b96338222f8bcfc,
supermarket,Minimarket,Indomaret,"35MX+G4F, Tanah Grogot, Kec. Tanah Grogot, Kabupaten Paser, Kalimantan Timur 76251","Tanah Grogot, Kec. Tanah Grogot, Kabupaten Paser",KALIMANTAN TIMUR,76251.0,Indonesia,,,,-1.9161796,116.1978007,https://maps.google.com/?cid=0x0:0x10b826cff8f8288b,
supermarket,Toko Swalayan,Toko RAENA,"Jl. DI. Panjaitan No.76211, Jone, Kec. Tanah Grogot, Kabupaten Paser, Kalimantan Timur 76251","Jone, Kec. Tanah Grogot, Kabupaten Paser",KALIMANTAN TIMUR,76251.0,Indonesia,82357557888.0,,,-1.8914852,116.193571,https://maps.google.com/?cid=0x0:0xe89471bfe34299af,
supermarket,Toko makanan beku,Medina Frozen(MD) Tanah Grogot,"Jl. Sultan Hasanuddin, RT.002/RW.001, Tanah Grogot, Kec. Tanah Grogot, Kabupaten Paser, Kalimantan Timur 76251","RT.002/RW.001, Tanah Grogot, Kec. Tanah Grogot, Kabupaten Paser",KALIMANTAN TIMUR,76251.0,Indonesia,85156617090.0,,,-1.9226899,116.1994521,https://maps.google.com/?cid=0x0:0xd515e6815a344ea5,
supermarket,Toko,SISKA GROSIR  ECER,"Jl. Kapten Piere Tendean No.3, Tanah Grogot, Kec. Tanah Grogot, Kabupaten Paser, Kalimantan Timur 76251","Tanah Grogot, Kec. Tanah Grogot, Kabupaten Paser",KALIMANTAN TIMUR,76251.0,Indonesia,82276827757.0,,,-1.9052626,116.1967009,https://maps.google.com/?cid=0x0:0xd93c4844e50575b8,
supermarket,Toko Perlengkapan Rumah,HALIPAH HNI-HALAL MART,"Jone, Kec. Tanah Grogot, Kabupaten Paser, Kalimantan Timur 76251","Kec. Tanah Grogot, Kabupaten Paser",KALIMANTAN TIMUR,76251.0,Indonesia,82357753815.0,,,-1.8954496,116.2166153,https://maps.google.com/?cid=0x0:0x65bf87a87e49b89d,
supermarket,Toko bahan makanan,Warung mama bila,"36V3+6HG, Tanah Grogot, Kec. Tanah Grogot, Kabupaten Paser, Kalimantan Timur 76251","Tanah Grogot, Kec. Tanah Grogot, Kabupaten Paser",KALIMANTAN TIMUR,76251.0,Indonesia,,,,-1.9069298,116.2039677,https://maps.google.com/?cid=0x0:0x277ae1b54172b1d7,
supermarket,Toko,TOKO HEVI,"blok c, Padang Pengrapat, Kec. Tanah Grogot, Kabupaten Paser, Kalimantan Timur 76251","Padang Pengrapat, Kec. Tanah Grogot, Kabupaten Paser",KALIMANTAN TIMUR,76251.0,Indonesia,85822751054.0,,,-1.8492762,116.2379952,https://maps.google.com/?cid=0x0:0x33ed0b84949e6490,
supermarket,Toko Swalayan,Alfamidi Untung Suropati (Jone),"36X2+8HW, Jl. Untung Suropati, Jone, Kec. Tanah Grogot, Kabupaten Paser, Kalimantan Timur 76251","Jl. Untung Suropati, Jone, Kec. Tanah Grogot, Kabupaten Paser",KALIMANTAN TIMUR,76251.0,Indonesia,,,,-1.901641,116.2014401,https://maps.google.com/?cid=0x0:0xc4e2719c8f6f4543,
supermarket,Toko Swalayan,TOKO SEMBAKO LISTA,"toko sembako lista, Tanah Periuk, Kec. Tanah Grogot, Kabupaten Paser, Kalimantan Timur 76251","Tanah Periuk, Kec. Tanah Grogot, Kabupaten Paser",KALIMANTAN TIMUR,76251.0,Indonesia,81346246708.0,,,-1.9264896,116.1908512,https://maps.google.com/?cid=0x0:0x9ca6eb3946153e48,
supermarket,Toko bahan makanan,Mitra88,"jl .letjen suprapto Balikpapan - Surabaya No.17, Tj. Aru, Kec. Tj. Harapan, Kabupaten Paser, Kalimantan Timur 76261","Tj. Aru, Kec. Tj. Harapan, Kabupaten Paser",KALIMANTAN TIMUR,76261.0,Indonesia,81334719999.0,,,-2.2142073,116.548196,https://maps.google.com/?cid=0x0:0x6e7cd2b6513952a0,
supermarket,Toko Swalayan,GS The Fresh Mampang,"Jl. Buncit Raya No.301, Duren Tiga, Kec. Pancoran, Kota Jakarta Selatan, Daerah Khusus Ibukota Jakarta 12760","Duren Tiga, Kec. Pancoran, Kota Jakarta Selatan",KALIMANTAN TIMUR,12760.0,Indonesia,2126961986.0,,,-6.256991,106.828987,https://maps.google.com/?cid=0x0:0x47a84d3b86619147,
supermarket,Pusat Perbelanjaan,GS The Fresh BOXIES,"Jl. Raya Tajur No.125, RT.01/RW.06, Tajur, Kec. Bogor Tim., Kota Bogor, Jawa Barat 16141","RT.01/RW.06, Tajur, Kec. Bogor Tim., Kota Bogor",KALIMANTAN TIMUR,16141.0,Indonesia,,,,-6.6338534,106.8265902,https://maps.google.com/?cid=0x0:0xf2e999dd0f1bdf6,
supermarket,Toko Swalayan,GS Supermarket Jatiasih,"GsSupermarket :, Jl. Wibawa Mukti II No.125, RT.002/ RW017/RW.017, Jatiasih, Kec. Jatiasih, Kota Bks, Jawa Barat 17423","Jl. Wibawa Mukti II No.125, RT.002/ RW017/RW.017, Jatiasih, Kec. Jatiasih, Kota Bks",KALIMANTAN TIMUR,17423.0,Indonesia,2182736918.0,,,-6.3070579,106.955731,https://maps.google.com/?cid=0x0:0x74efd6ce433268e6,
supermarket,Toko Swalayan,Hari Hari Duta Harapan Indah/Teluk Gong,"Duta Harapan Indah, Teluk Gong, Jl. Duta Harapan Indah Blok C No.1, RT.8/RW.2, Kapuk Muara, Kec. Penjaringan, Jkt Utara, Daerah Khusus Ibukota Jakarta 14460","Teluk Gong, Jl. Duta Harapan Indah Blok C No.1, RT.8/RW.2, Kapuk Muara, Kec. Penjaringan, Jkt Utara",KALIMANTAN TIMUR,14460.0,Indonesia,216605433.0,,,-6.1383484,106.7752808,https://maps.google.com/?cid=0x0:0xacaa9d2bd4ebdede,
supermarket,Toko Swalayan,Toko Om Tanjung,"Jl. H. Sibun No.15, RT.002/RW.004, Jatikramat, Kec. Jatiasih, Kota Bks, Jawa Barat 17421","RT.002/RW.004, Jatikramat, Kec. Jatiasih, Kota Bks",KALIMANTAN TIMUR,17421.0,Indonesia,,,,-6.2752857,106.9394069,https://maps.google.com/?cid=0x0:0x40ac8548015f80d2,
supermarket,Toko bahan makanan,Toko tanjung,"CQ95+429, Jl. Raya Laladon, Laladon, Kec. Ciomas, Kabupaten Bogor, Jawa Barat 16610","Jl. Raya Laladon, Laladon, Kec. Ciomas, Kabupaten Bogor",KALIMANTAN TIMUR,16610.0,Indonesia,89655134323.0,,,-6.5822033,106.7576192,https://maps.google.com/?cid=0x0:0xaa01805b4ca8d6ac,
supermarket,supermarket,Toko Boga Harapan,"Jl. Swadaya II No.2d 1, RT.1/RW.5, Tj. Bar., Kec. Jagakarsa, Kota Jakarta Selatan, Daerah Khusus Ibukota Jakarta 12510","RT.1/RW.5, Tj. Bar., Kec. Jagakarsa, Kota Jakarta Selatan",KALIMANTAN TIMUR,12510.0,Indonesia,,,,-6.3005627,106.8465552,https://maps.google.com/?cid=0x0:0xa58551aabd2dc57b,
supermarket,Toko Swalayan,GS The Fresh Alam Sutera,"Flavor Bliss, Jl. Alam Sutera Boulevard, Pakulonan, Kec. Serpong Utara, Kota Tangerang Selatan, Banten 15325","Jl. Alam Sutera Boulevard, Pakulonan, Kec. Serpong Utara, Kota Tangerang Selatan",KALIMANTAN TIMUR,15325.0,Indonesia,2150200763.0,,,-6.2429576,106.6509779,https://maps.google.com/?cid=0x0:0x2e1e78cfe6fb23eb,
supermarket,Toko bahan makanan,Mitra88,"jl .letjen suprapto Balikpapan - Surabaya No.17, Tj. Aru, Kec. Tj. Harapan, Kabupaten Paser, Kalimantan Timur 76261","Tj. Aru, Kec. Tj. Harapan, Kabupaten Paser",KALIMANTAN TIMUR,76261.0,Indonesia,81334719999.0,,,-2.2142073,116.548196,https://maps.google.com/?cid=0x0:0x6e7cd2b6513952a0,
supermarket,Toko Swalayan,Tanjung harapan,"X32P+74M, Tj. Harapan, Kec. Samboja, Kabupaten Kutai Kartanegara, Kalimantan Timur","Kabupaten Kutai Kartanegara, Kalimantan Timur",KALIMANTAN TIMUR,,Indonesia,,,,-1.0492857,117.0852922,https://maps.google.com/?cid=0x0:0xa63761114fe3a152,
supermarket,Toko Swalayan,GS The Fresh Mampang,"Jl. Buncit Raya No.301, Duren Tiga, Kec. Pancoran, Kota Jakarta Selatan, Daerah Khusus Ibukota Jakarta 12760","Duren Tiga, Kec. Pancoran, Kota Jakarta Selatan",KALIMANTAN TIMUR,12760.0,Indonesia,2126961986.0,,,-6.256991,106.828987,https://maps.google.com/?cid=0x0:0x47a84d3b86619147,
supermarket,Minimarket,Swalayan Orchard,"Jl. Veteran No.237, Tj. Paku, Kec. Tj. Harapan, Kota Solok, Sumatera Barat 27317","Tj. Paku, Kec. Tj. Harapan, Kota Solok",KALIMANTAN TIMUR,27317.0,Indonesia,75523966.0,,,-0.783492,100.6629077,https://maps.google.com/?cid=0x0:0xda9979ba995061a5,
supermarket,Toko Swalayan,Baru Swalayan,"6M64+3RR, Jl. KH. Ahmad Dahlan, Ps. Pandan Air Mati, Kec. Tj. Harapan, Kota Solok, Sumatera Barat 27317","Jl. KH. Ahmad Dahlan, Ps. Pandan Air Mati, Kec. Tj. Harapan, Kota Solok",KALIMANTAN TIMUR,27317.0,Indonesia,83124666727.0,,,-0.7897746,100.6570308,https://maps.google.com/?cid=0x0:0x5dd2ce246052ed94,
supermarket,supermarket,Tanjuang harapan,"C8P3+X82, Jl. gaduang, Lubuk Gadang Tim., Kec. Sangir, Kabupaten Solok Selatan, Sumatera Barat 27778","Jl. gaduang, Lubuk Gadang Tim., Kec. Sangir, Kabupaten Solok Selatan",KALIMANTAN TIMUR,27778.0,Indonesia,81277133434.0,,,-1.5629567,101.3037033,https://maps.google.com/?cid=0x0:0xdcc6a568a2955f2c,
supermarket,Toko bahan makanan,Mitra88,"jl .letjen suprapto Balikpapan - Surabaya No.17, Tj. Aru, Kec. Tj. Harapan, Kabupaten Paser, Kalimantan Timur 76261","Tj. Aru, Kec. Tj. Harapan, Kabupaten Paser",KALIMANTAN TIMUR,76261.0,Indonesia,81334719999.0,,,-2.2142073,116.548196,https://maps.google.com/?cid=0x0:0x6e7cd2b6513952a0,
supermarket,Toko Swalayan,GS The Fresh Mampang,"Jl. Buncit Raya No.301, Duren Tiga, Kec. Pancoran, Kota Jakarta Selatan, Daerah Khusus Ibukota Jakarta 12760","Duren Tiga, Kec. Pancoran, Kota Jakarta Selatan",KALIMANTAN TIMUR,12760.0,Indonesia,2126961986.0,,,-6.256991,106.828987,https://maps.google.com/?cid=0x0:0x47a84d3b86619147,
supermarket,Toko Swalayan,Toko Okta,"X3M6+53R, Tj. Harapan-Jalan Samboja-Muara Jawa, Wonotirto, Kec. Samboja, Kabupaten Kutai Kartanegara, Kalimantan Timur 75274","Tj. Harapan-Jalan Samboja-Muara Jawa, Wonotirto, Kec. Samboja, Kabupaten Kutai Kartanegara",KALIMANTAN TIMUR,75274.0,Indonesia,,,,-1.0170234,117.0601455,https://maps.google.com/?cid=0x0:0xd32fa3a3b68facb,
supermarket,Toko Swalayan,Hari Hari Duta Harapan Indah/Teluk Gong,"Duta Harapan Indah, Teluk Gong, Jl. Duta Harapan Indah Blok C No.1, RT.8/RW.2, Kapuk Muara, Kec. Penjaringan, Jkt Utara, Daerah Khusus Ibukota Jakarta 14460","Teluk Gong, Jl. Duta Harapan Indah Blok C No.1, RT.8/RW.2, Kapuk Muara, Kec. Penjaringan, Jkt Utara",KALIMANTAN TIMUR,14460.0,Indonesia,216605433.0,,,-6.1383484,106.7752808,https://maps.google.com/?cid=0x0:0xacaa9d2bd4ebdede,
supermarket,Toko Swalayan,Toko Om Tanjung,"Jl. H. Sibun No.15, RT.002/RW.004, Jatikramat, Kec. Jatiasih, Kota Bks, Jawa Barat 17421","RT.002/RW.004, Jatikramat, Kec. Jatiasih, Kota Bks",KALIMANTAN TIMUR,17421.0,Indonesia,,,,-6.2752857,106.9394069,https://maps.google.com/?cid=0x0:0x40ac8548015f80d2,
supermarket,Toko bahan makanan,Toko tanjung,"CQ95+429, Jl. Raya Laladon, Laladon, Kec. Ciomas, Kabupaten Bogor, Jawa Barat 16610","Jl. Raya Laladon, Laladon, Kec. Ciomas, Kabupaten Bogor",KALIMANTAN TIMUR,16610.0,Indonesia,89655134323.0,,,-6.5822033,106.7576192,https://maps.google.com/?cid=0x0:0xaa01805b4ca8d6ac,
supermarket,Toko bahan makanan,Toko harapan 3,"Jl. Veteran III No.14, Cibedug, Kec. Ciawi, Kabupaten Bogor, Jawa Barat 16720","Cibedug, Kec. Ciawi, Kabupaten Bogor",KALIMANTAN TIMUR,16720.0,Indonesia,,,,-6.6867494,106.8727073,https://maps.google.com/?cid=0x0:0xdcd74edecd2a3214,
supermarket,Pusat Perbelanjaan,Fresh Station Supermarket,"Jl. KH. Ahmad dahlan No.40, RT.2/RW.3, Kramat Pela, Kec. Kby. Baru, Kota Jakarta Selatan, Daerah Khusus Ibukota Jakarta 12240","RT.2/RW.3, Kramat Pela, Kec. Kby. Baru, Kota Jakarta Selatan",KALIMANTAN TIMUR,12240.0,Indonesia,,,,-6.2492089,106.7917898,https://maps.google.com/?cid=0x0:0xf1637cc7cece754e,
supermarket,Toko Swalayan,GS THE FRESH JATIBENING,"Jl. Caman Raya No.7-24, RT.004/RW.003, Jatibening, Kec. Pd. Gede, Kota Bks, Jawa Barat 17412","RT.004/RW.003, Jatibening, Kec. Pd. Gede, Kota Bks",KALIMANTAN TIMUR,17412.0,Indonesia,2184982211.0,,,-6.2676455,106.9436409,https://maps.google.com/?cid=0x0:0x2cdb50c3ee3206c,
supermarket,Pusat Perbelanjaan,GS The Fresh BOXIES,"Jl. Raya Tajur No.125, RT.01/RW.06, Tajur, Kec. Bogor Tim., Kota Bogor, Jawa Barat 16141","RT.01/RW.06, Tajur, Kec. Bogor Tim., Kota Bogor",KALIMANTAN TIMUR,16141.0,Indonesia,,,,-6.6338534,106.8265902,https://maps.google.com/?cid=0x0:0xf2e999dd0f1bdf6,
supermarket,supermarket,Toko Boga Harapan,"Jl. Swadaya II No.2d 1, RT.1/RW.5, Tj. Bar., Kec. Jagakarsa, Kota Jakarta Selatan, Daerah Khusus Ibukota Jakarta 12510","RT.1/RW.5, Tj. Bar., Kec. Jagakarsa, Kota Jakarta Selatan",KALIMANTAN TIMUR,12510.0,Indonesia,,,,-6.3005627,106.8465552,https://maps.google.com/?cid=0x0:0xa58551aabd2dc57b,
supermarket,Toko bahan makanan,Mitra88,"jl .letjen suprapto Balikpapan - Surabaya No.17, Tj. Aru, Kec. Tj. Harapan, Kabupaten Paser, Kalimantan Timur 76261","Tj. Aru, Kec. Tj. Harapan, Kabupaten Paser",KALIMANTAN TIMUR,76261.0,Indonesia,81334719999.0,,,-2.2142073,116.548196,https://maps.google.com/?cid=0x0:0x6e7cd2b6513952a0,
supermarket,Pusat Perbelanjaan,GS The Fresh BOXIES,"Jl. Raya Tajur No.125, RT.01/RW.06, Tajur, Kec. Bogor Tim., Kota Bogor, Jawa Barat 16141","RT.01/RW.06, Tajur, Kec. Bogor Tim., Kota Bogor",KALIMANTAN TIMUR,16141.0,Indonesia,,,,-6.6338534,106.8265902,https://maps.google.com/?cid=0x0:0xf2e999dd0f1bdf6,
supermarket,Toko Swalayan,GS The Fresh Mampang,"Jl. Buncit Raya No.301, Duren Tiga, Kec. Pancoran, Kota Jakarta Selatan, Daerah Khusus Ibukota Jakarta 12760","Duren Tiga, Kec. Pancoran, Kota Jakarta Selatan",KALIMANTAN TIMUR,12760.0,Indonesia,2126961986.0,,,-6.256991,106.828987,https://maps.google.com/?cid=0x0:0x47a84d3b86619147,
supermarket,Toko Swalayan,Hari Hari Duta Harapan Indah/Teluk Gong,"Duta Harapan Indah, Teluk Gong, Jl. Duta Harapan Indah Blok C No.1, RT.8/RW.2, Kapuk Muara, Kec. Penjaringan, Jkt Utara, Daerah Khusus Ibukota Jakarta 14460","Teluk Gong, Jl. Duta Harapan Indah Blok C No.1, RT.8/RW.2, Kapuk Muara, Kec. Penjaringan, Jkt Utara",KALIMANTAN TIMUR,14460.0,Indonesia,216605433.0,,,-6.1383484,106.7752808,https://maps.google.com/?cid=0x0:0xacaa9d2bd4ebdede,
supermarket,Toko Swalayan,GS THE FRESH JATIBENING,"Jl. Caman Raya No.7-24, RT.004/RW.003, Jatibening, Kec. Pd. Gede, Kota Bks, Jawa Barat 17412","RT.004/RW.003, Jatibening, Kec. Pd. Gede, Kota Bks",KALIMANTAN TIMUR,17412.0,Indonesia,2184982211.0,,,-6.2676455,106.9436409,https://maps.google.com/?cid=0x0:0x2cdb50c3ee3206c,
supermarket,Toko Swalayan,GS Supermarket Jatiasih,"GsSupermarket :, Jl. Wibawa Mukti II No.125, RT.002/ RW017/RW.017, Jatiasih, Kec. Jatiasih, Kota Bks, Jawa Barat 17423","Jl. Wibawa Mukti II No.125, RT.002/ RW017/RW.017, Jatiasih, Kec. Jatiasih, Kota Bks",KALIMANTAN TIMUR,17423.0,Indonesia,2182736918.0,,,-6.3070579,106.955731,https://maps.google.com/?cid=0x0:0x74efd6ce433268e6,
supermarket,Toko Swalayan,GS The Fresh Alam Sutera,"Flavor Bliss, Jl. Alam Sutera Boulevard, Pakulonan, Kec. Serpong Utara, Kota Tangerang Selatan, Banten 15325","Jl. Alam Sutera Boulevard, Pakulonan, Kec. Serpong Utara, Kota Tangerang Selatan",KALIMANTAN TIMUR,15325.0,Indonesia,2150200763.0,,,-6.2429576,106.6509779,https://maps.google.com/?cid=0x0:0x2e1e78cfe6fb23eb,
supermarket,Toko Swalayan,GS The Fresh Supermarket Kemang Pratama,"Linc Square Kemang Pratama, Jl. Kemang Pratama Raya, RT.004/RW.001, Bojong Rawalumbu, Kec. Rawalumbu, Kota Bks, Jawa Barat 17116","Jl. Kemang Pratama Raya, RT.004/RW.001, Bojong Rawalumbu, Kec. Rawalumbu, Kota Bks",KALIMANTAN TIMUR,17116.0,Indonesia,2182416910.0,,,-6.2779418,106.9910558,https://maps.google.com/?cid=0x0:0x4ce692f4b9ef21ee,
supermarket,supermarket,Toko Boga Harapan,"Jl. Swadaya II No.2d 1, RT.1/RW.5, Tj. Bar., Kec. Jagakarsa, Kota Jakarta Selatan, Daerah Khusus Ibukota Jakarta 12510","RT.1/RW.5, Tj. Bar., Kec. Jagakarsa, Kota Jakarta Selatan",KALIMANTAN TIMUR,12510.0,Indonesia,,,,-6.3005627,106.8465552,https://maps.google.com/?cid=0x0:0xa58551aabd2dc57b,
supermarket,Toko bahan makanan,Mitra88,"jl .letjen suprapto Balikpapan - Surabaya No.17, Tj. Aru, Kec. Tj. Harapan, Kabupaten Paser, Kalimantan Timur 76261","Tj. Aru, Kec. Tj. Harapan, Kabupaten Paser",KALIMANTAN TIMUR,76261.0,Indonesia,81334719999.0,,,-2.2142073,116.548196,https://maps.google.com/?cid=0x0:0x6e7cd2b6513952a0,
supermarket,Toko Swalayan,GS The Fresh Mampang,"Jl. Buncit Raya No.301, Duren Tiga, Kec. Pancoran, Kota Jakarta Selatan, Daerah Khusus Ibukota Jakarta 12760","Duren Tiga, Kec. Pancoran, Kota Jakarta Selatan",KALIMANTAN TIMUR,12760.0,Indonesia,2126961986.0,,,-6.256991,106.828987,https://maps.google.com/?cid=0x0:0x47a84d3b86619147,
supermarket,Toko Swalayan,Hari Hari Duta Harapan Indah/Teluk Gong,"Duta Harapan Indah, Teluk Gong, Jl. Duta Harapan Indah Blok C No.1, RT.8/RW.2, Kapuk Muara, Kec. Penjaringan, Jkt Utara, Daerah Khusus Ibukota Jakarta 14460","Teluk Gong, Jl. Duta Harapan Indah Blok C No.1, RT.8/RW.2, Kapuk Muara, Kec. Penjaringan, Jkt Utara",KALIMANTAN TIMUR,14460.0,Indonesia,216605433.0,,,-6.1383484,106.7752808,https://maps.google.com/?cid=0x0:0xacaa9d2bd4ebdede,
supermarket,Toko Swalayan,Toko Om Tanjung,"Jl. H. Sibun No.15, RT.002/RW.004, Jatikramat, Kec. Jatiasih, Kota Bks, Jawa Barat 17421","RT.002/RW.004, Jatikramat, Kec. Jatiasih, Kota Bks",KALIMANTAN TIMUR,17421.0,Indonesia,,,,-6.2752857,106.9394069,https://maps.google.com/?cid=0x0:0x40ac8548015f80d2,
supermarket,Toko bahan makanan,Toko tanjung,"CQ95+429, Jl. Raya Laladon, Laladon, Kec. Ciomas, Kabupaten Bogor, Jawa Barat 16610","Jl. Raya Laladon, Laladon, Kec. Ciomas, Kabupaten Bogor",KALIMANTAN TIMUR,16610.0,Indonesia,89655134323.0,,,-6.5822033,106.7576192,https://maps.google.com/?cid=0x0:0xaa01805b4ca8d6ac,
supermarket,Pusat Perbelanjaan,Fresh Station Supermarket,"Jl. KH. Ahmad dahlan No.40, RT.2/RW.3, Kramat Pela, Kec. Kby. Baru, Kota Jakarta Selatan, Daerah Khusus Ibukota Jakarta 12240","RT.2/RW.3, Kramat Pela, Kec. Kby. Baru, Kota Jakarta Selatan",KALIMANTAN TIMUR,12240.0,Indonesia,,,,-6.2492089,106.7917898,https://maps.google.com/?cid=0x0:0xf1637cc7cece754e,
supermarket,Toko Swalayan,GS THE FRESH JATIBENING,"Jl. Caman Raya No.7-24, RT.004/RW.003, Jatibening, Kec. Pd. Gede, Kota Bks, Jawa Barat 17412","RT.004/RW.003, Jatibening, Kec. Pd. Gede, Kota Bks",KALIMANTAN TIMUR,17412.0,Indonesia,2184982211.0,,,-6.2676455,106.9436409,https://maps.google.com/?cid=0x0:0x2cdb50c3ee3206c,
supermarket,Toko Swalayan,Sungai Harapan Supermarket,"4X33+R9J, Sungai Harapan, Kec. Sekupang, Kota Batam, Kepulauan Riau 29425","Sungai Harapan, Kec. Sekupang, Kota Batam",KALIMANTAN TIMUR,29425.0,Indonesia,,,,1.1045766,103.9533801,https://maps.google.com/?cid=0x0:0x1c816ca8712d645f,
supermarket,Toko Swalayan,GS The Fresh Supermarket Kemang Pratama,"Linc Square Kemang Pratama, Jl. Kemang Pratama Raya, RT.004/RW.001, Bojong Rawalumbu, Kec. Rawalumbu, Kota Bks, Jawa Barat 17116","Jl. Kemang Pratama Raya, RT.004/RW.001, Bojong Rawalumbu, Kec. Rawalumbu, Kota Bks",KALIMANTAN TIMUR,17116.0,Indonesia,2182416910.0,,,-6.2779418,106.9910558,https://maps.google.com/?cid=0x0:0x4ce692f4b9ef21ee,
supermarket,supermarket,Toko Boga Harapan,"Jl. Swadaya II No.2d 1, RT.1/RW.5, Tj. Bar., Kec. Jagakarsa, Kota Jakarta Selatan, Daerah Khusus Ibukota Jakarta 12510","RT.1/RW.5, Tj. Bar., Kec. Jagakarsa, Kota Jakarta Selatan",KALIMANTAN TIMUR,12510.0,Indonesia,,,,-6.3005627,106.8465552,https://maps.google.com/?cid=0x0:0xa58551aabd2dc57b,
supermarket,Toko bahan makanan,Mitra88,"jl .letjen suprapto Balikpapan - Surabaya No.17, Tj. Aru, Kec. Tj. Harapan, Kabupaten Paser, Kalimantan Timur 76261","Tj. Aru, Kec. Tj. Harapan, Kabupaten Paser",KALIMANTAN TIMUR,76261.0,Indonesia,81334719999.0,,,-2.2142073,116.548196,https://maps.google.com/?cid=0x0:0x6e7cd2b6513952a0,
supermarket,Toko Swalayan,GS The Fresh Mampang,"Jl. Buncit Raya No.301, Duren Tiga, Kec. Pancoran, Kota Jakarta Selatan, Daerah Khusus Ibukota Jakarta 12760","Duren Tiga, Kec. Pancoran, Kota Jakarta Selatan",KALIMANTAN TIMUR,12760.0,Indonesia,2126961986.0,,,-6.256991,106.828987,https://maps.google.com/?cid=0x0:0x47a84d3b86619147,
supermarket,Toko Swalayan,Toko Okta,"X3M6+53R, Tj. Harapan-Jalan Samboja-Muara Jawa, Wonotirto, Kec. Samboja, Kabupaten Kutai Kartanegara, Kalimantan Timur 75274","Tj. Harapan-Jalan Samboja-Muara Jawa, Wonotirto, Kec. Samboja, Kabupaten Kutai Kartanegara",KALIMANTAN TIMUR,75274.0,Indonesia,,,,-1.0170234,117.0601455,https://maps.google.com/?cid=0x0:0xd32fa3a3b68facb,
supermarket,Toko Swalayan,Hari Hari Duta Harapan Indah/Teluk Gong,"Duta Harapan Indah, Teluk Gong, Jl. Duta Harapan Indah Blok C No.1, RT.8/RW.2, Kapuk Muara, Kec. Penjaringan, Jkt Utara, Daerah Khusus Ibukota Jakarta 14460","Teluk Gong, Jl. Duta Harapan Indah Blok C No.1, RT.8/RW.2, Kapuk Muara, Kec. Penjaringan, Jkt Utara",KALIMANTAN TIMUR,14460.0,Indonesia,216605433.0,,,-6.1383484,106.7752808,https://maps.google.com/?cid=0x0:0xacaa9d2bd4ebdede,
supermarket,Toko bahan makanan,Toko tanjung,"CQ95+429, Jl. Raya Laladon, Laladon, Kec. Ciomas, Kabupaten Bogor, Jawa Barat 16610","Jl. Raya Laladon, Laladon, Kec. Ciomas, Kabupaten Bogor",KALIMANTAN TIMUR,16610.0,Indonesia,89655134323.0,,,-6.5822033,106.7576192,https://maps.google.com/?cid=0x0:0xaa01805b4ca8d6ac,
supermarket,Toko Swalayan,Toko Om Tanjung,"Jl. H. Sibun No.15, RT.002/RW.004, Jatikramat, Kec. Jatiasih, Kota Bks, Jawa Barat 17421","RT.002/RW.004, Jatikramat, Kec. Jatiasih, Kota Bks",KALIMANTAN TIMUR,17421.0,Indonesia,,,,-6.2752857,106.9394069,https://maps.google.com/?cid=0x0:0x40ac8548015f80d2,
supermarket,supermarket,Toko Boga Harapan,"Jl. Swadaya II No.2d 1, RT.1/RW.5, Tj. Bar., Kec. Jagakarsa, Kota Jakarta Selatan, Daerah Khusus Ibukota Jakarta 12510","RT.1/RW.5, Tj. Bar., Kec. Jagakarsa, Kota Jakarta Selatan",KALIMANTAN TIMUR,12510.0,Indonesia,,,,-6.3005627,106.8465552,https://maps.google.com/?cid=0x0:0xa58551aabd2dc57b,
supermarket,Sekolah Dasar,SDN 001 TANJUNG HARAPAN,"QG4C+RMF, Tj. Aru, Kec. Tj. Harapan, Kabupaten Paser, Kalimantan Timur 76261","Tj. Aru, Kec. Tj. Harapan, Kabupaten Paser",KALIMANTAN TIMUR,76261.0,Indonesia,,,,-2.2429477,116.5216627,https://maps.google.com/?cid=0x0:0xda8aa7362e73ba88,
supermarket,Sekolah,SD 001 Tanjung Aru,"RHGM+XRX, Tj. Aru, Kec. Tj. Harapan, Kabupaten Paser, Kalimantan Timur 76261","Tj. Aru, Kec. Tj. Harapan, Kabupaten Paser",KALIMANTAN TIMUR,76261.0,Indonesia,,,,-2.1725126,116.5845948,https://maps.google.com/?cid=0x0:0x7aca0c5eb55538e9,
supermarket,supermarket,Kalimantan Timur 76261,"Kabupaten Paser, Kalimantan Timur","Kabupaten Paser, Kalimantan Timur",KALIMANTAN TIMUR,,Indonesia,,,,-2.2765227,116.3249438,https://maps.google.com/?cid=0x0:0x5de4285e897f4e53,
supermarket,Toko Swalayan,Tanjung harapan,"X32P+74M, Tj. Harapan, Kec. Samboja, Kabupaten Kutai Kartanegara, Kalimantan Timur","Kabupaten Kutai Kartanegara, Kalimantan Timur",KALIMANTAN TIMUR,,Indonesia,,,,-1.0492857,117.0852922,https://maps.google.com/?cid=0x0:0xa63761114fe3a152,
supermarket,Toko Swalayan,Sungai Harapan Supermarket,"4X33+R9J, Sungai Harapan, Kec. Sekupang, Kota Batam, Kepulauan Riau 29425","Sungai Harapan, Kec. Sekupang, Kota Batam",KALIMANTAN TIMUR,29425.0,Indonesia,,,,1.1045766,103.9533801,https://maps.google.com/?cid=0x0:0x1c816ca8712d645f,
supermarket,Toko Swalayan,GS The Fresh Mampang,"Jl. Buncit Raya No.301, Duren Tiga, Kec. Pancoran, Kota Jakarta Selatan, Daerah Khusus Ibukota Jakarta 12760","Duren Tiga, Kec. Pancoran, Kota Jakarta Selatan",KALIMANTAN TIMUR,12760.0,Indonesia,2126961986.0,,,-6.256991,106.828987,https://maps.google.com/?cid=0x0:0x47a84d3b86619147,
supermarket,Toko Swalayan,GS THE FRESH JATIBENING,"Jl. Caman Raya No.7-24, RT.004/RW.003, Jatibening, Kec. Pd. Gede, Kota Bks, Jawa Barat 17412","RT.004/RW.003, Jatibening, Kec. Pd. Gede, Kota Bks",KALIMANTAN TIMUR,17412.0,Indonesia,2184982211.0,,,-6.2676455,106.9436409,https://maps.google.com/?cid=0x0:0x2cdb50c3ee3206c,
supermarket,Pusat Perbelanjaan,GS The Fresh BOXIES,"Jl. Raya Tajur No.125, RT.01/RW.06, Tajur, Kec. Bogor Tim., Kota Bogor, Jawa Barat 16141","RT.01/RW.06, Tajur, Kec. Bogor Tim., Kota Bogor",KALIMANTAN TIMUR,16141.0,Indonesia,,,,-6.6338534,106.8265902,https://maps.google.com/?cid=0x0:0xf2e999dd0f1bdf6,
supermarket,Toko bahan makanan,Harapan,"4HCX+8VH, Tj. Sekayam, Kec. Kapuas, Kabupaten Sanggau, Kalimantan Barat 78516","Tj. Sekayam, Kec. Kapuas, Kabupaten Sanggau",KALIMANTAN TIMUR,78516.0,Indonesia,,,,0.1208112,110.5997278,https://maps.google.com/?cid=0x0:0x661ef4c2a79b386b,
supermarket,Toko Swalayan,GS The Fresh Supermarket Kemang Pratama,"Linc Square Kemang Pratama, Jl. Kemang Pratama Raya, RT.004/RW.001, Bojong Rawalumbu, Kec. Rawalumbu, Kota Bks, Jawa Barat 17116","Jl. Kemang Pratama Raya, RT.004/RW.001, Bojong Rawalumbu, Kec. Rawalumbu, Kota Bks",KALIMANTAN TIMUR,17116.0,Indonesia,2182416910.0,,,-6.2779418,106.9910558,https://maps.google.com/?cid=0x0:0x4ce692f4b9ef21ee,
supermarket,Toko Swalayan,GS Supermarket Jatiasih,"GsSupermarket :, Jl. Wibawa Mukti II No.125, RT.002/ RW017/RW.017, Jatiasih, Kec. Jatiasih, Kota Bks, Jawa Barat 17423","Jl. Wibawa Mukti II No.125, RT.002/ RW017/RW.017, Jatiasih, Kec. Jatiasih, Kota Bks",KALIMANTAN TIMUR,17423.0,Indonesia,2182736918.0,,,-6.3070579,106.955731,https://maps.google.com/?cid=0x0:0x74efd6ce433268e6,
supermarket,Toko,TANJUNG HARAPAN MART,"Nanga Tebidah, Kec. Kayan Hulu, Kabupaten Sintang, Kalimantan Barat 78694","Kec. Kayan Hulu, Kabupaten Sintang",KALIMANTAN TIMUR,78694.0,Indonesia,82151754220.0,,,-0.1469473,112.0807788,https://maps.google.com/?cid=0x0:0xf8d399a0bca25163,
