Category,Real Category,Business Name,Address,City,State,Postal Code,Country,Phone,Email,Website,Latitude,Longitude,Map Link,Details Link
komplek housing,komplek housing,Kalimantan Timur 76261,"Kabupaten Paser, Kalimantan Timur","Kabupaten Paser, Kalimantan Timur",KALIMANTAN TIMUR,,Indonesia,,,,-2.2765227,116.3249438,https://maps.google.com/?cid=0x0:0x5de4285e897f4e53,
komplek housing,Pembangunan Perumahan,Divisi.H,"V7C7+3J, Langgai, Kec. Batu Engau, Kabupaten Paser, Kalimantan Timur","Kabupaten Paser, Kalimantan Timur",KALIMANTAN TIMUR,,Indonesia,,,,-2.1298125,116.2649375,https://maps.google.com/?cid=0x0:0x32ec740a90291469,
komplek housing,Komplek perumahan,Rumah ku,"R4WJ+WQ, Kerang, Kec. Batu Engau, Kabupaten Paser, Kalimantan Timur 76261","Kerang, Kec. Batu Engau, Kabupaten Paser",KALIMANTAN TIMUR,76261.0,Indonesia,,,,-2.1526875,116.1319375,https://maps.google.com/?cid=0x0:0xffc966c2e75eeccd,
komplek housing,Rumah Kayu,Rumah bilqis,"P597+9XF, Mengkudu, Kec. Batu Engau, Kabupaten Paser, Kalimantan Timur 76261","Mengkudu, Kec. Batu Engau, Kabupaten Paser",KALIMANTAN TIMUR,76261.0,Indonesia,,,,-2.2815704,116.1649335,https://maps.google.com/?cid=0x0:0xd26a129a314cd978,
komplek housing,Komplek perumahan,rumah Ela,"Q3FG+8G3, Kerang, Kec. Batu Engau, Kabupaten Paser, Kalimantan Timur 76261","Kerang, Kec. Batu Engau, Kabupaten Paser",KALIMANTAN TIMUR,76261.0,Indonesia,,,,-2.2267486,116.0762902,https://maps.google.com/?cid=0x0:0x8dc92b72c502469e,
komplek housing,Penginapan,Penajam,"Q8G2+GG8, Riwang, Kec. Batu Engau, Kabupaten Paser, Kalimantan Timur 76261","Riwang, Kec. Batu Engau, Kabupaten Paser",KALIMANTAN TIMUR,76261.0,Indonesia,,,,-2.2237119,116.3013267,https://maps.google.com/?cid=0x0:0xa81bb28e8405b099,
komplek housing,Komplek perumahan,Whildhan,"P596+V95, Mengkudu, Kec. Batu Engau, Kabupaten Paser, Kalimantan Timur 76261","Mengkudu, Kec. Batu Engau, Kabupaten Paser",KALIMANTAN TIMUR,76261.0,Indonesia,,,,-2.2807439,116.1608428,https://maps.google.com/?cid=0x0:0xaed4e486b9e35c3c,
komplek housing,Otoritas Perumahan,"Sekayu baru, kecamatan pamukan utara","M5RQ+48J, Mengkudu, Kec. Batu Engau, Kabupaten Paser, Kalimantan Timur 76261","Mengkudu, Kec. Batu Engau, Kabupaten Paser",KALIMANTAN TIMUR,76261.0,Indonesia,,,,-2.3096517,116.1882553,https://maps.google.com/?cid=0x0:0xa5b25a4142baed0c,
komplek housing,komplek housing,MBJE 01,"V8P2+942, Langgai, Kec. Batu Engau, Kabupaten Paser, Kalimantan Timur","Kabupaten Paser, Kalimantan Timur",KALIMANTAN TIMUR,,Indonesia,,,,-2.1141168,116.3002639,https://maps.google.com/?cid=0x0:0xc537cfb01d287b6,
komplek housing,Pembangunan Perumahan,PAK MANSUR,"P4R6+WQH, Tampakan, Kec. Batu Engau, Kabupaten Paser, Kalimantan Timur 76261","Tampakan, Kec. Batu Engau, Kabupaten Paser",KALIMANTAN TIMUR,76261.0,Indonesia,,,,-2.2576872,116.1119731,https://maps.google.com/?cid=0x0:0x52429a3b8cb9aecd,
komplek housing,Komplek perumahan,Rumah Fuad,"Q3FG+84W, Kerang, Kec. Batu Engau, Kabupaten Paser, Kalimantan Timur 76261","Kerang, Kec. Batu Engau, Kabupaten Paser",KALIMANTAN TIMUR,76261.0,Indonesia,,,,-2.2269871,116.0755301,https://maps.google.com/?cid=0x0:0xac9292bb3078f66d,
komplek housing,komplek housing,MUHAMMAD RIZKI,"rumah no 99, Jalan provinsi No.km. 37, RT.004/RW.000, Petangis, Kec. Batu Engau, Kabupaten Paser, Kalimantan Timur","Kabupaten Paser, Kalimantan Timur",KALIMANTAN TIMUR,,Indonesia,,,,-2.1114728,116.1011133,https://maps.google.com/?cid=0x0:0xac954e72b537ce95,
komplek housing,Perhimpunan Pengembang Perumahan,Toko Sihombing,"V4H4+5R8, Petangis, Kec. Batu Engau, Kabupaten Paser, Kalimantan Timur","Kabupaten Paser, Kalimantan Timur",KALIMANTAN TIMUR,,Indonesia,,,,-2.1220848,116.1070733,https://maps.google.com/?cid=0x0:0xc915d8ea00d2b809,
komplek housing,Komplek perumahan,Nurul Mudrikah,"Q8G2+GG8, Riwang, Kec. Batu Engau, Kabupaten Paser, Kalimantan Timur 76261","Riwang, Kec. Batu Engau, Kabupaten Paser",KALIMANTAN TIMUR,76261.0,Indonesia,,,,-2.2237119,116.3013267,https://maps.google.com/?cid=0x0:0xa91d42225f5b0a10,
komplek housing,Pembangunan Perumahan,Ebypiya home's,"V3WQ+HFV, Petangis, Kec. Batu Engau, Kabupaten Paser, Kalimantan Timur","Kabupaten Paser, Kalimantan Timur",KALIMANTAN TIMUR,,Indonesia,,,,-2.1035093,116.0886704,https://maps.google.com/?cid=0x0:0x7e4b1e5f83ec55bb,
komplek housing,Pembangunan Perumahan,Perumahan g2 staf,"V32F+WV, Kerang, Kec. Batu Engau, Kabupaten Paser, Kalimantan Timur","Kabupaten Paser, Kalimantan Timur",KALIMANTAN TIMUR,,Indonesia,,,,-2.1476235,116.0747251,https://maps.google.com/?cid=0x0:0x13a85b9393d29c2d,
komplek housing,Komplek perumahan,Lahan 2,"Q824+HH, Riwang, Kec. Batu Engau, Kabupaten Paser, Kalimantan Timur","Kabupaten Paser, Kalimantan Timur",KALIMANTAN TIMUR,,Indonesia,,,,-2.248574,116.306413,https://maps.google.com/?cid=0x0:0xc9f6e952638460f7,
komplek housing,Komplek perumahan,Perumahan Pandawa afd4,"W4WC+C76, Desa, RT.04, saing prupuk, Kec. Batu Engau, Kabupaten Paser, Kalimantan Timur","Kabupaten Paser, Kalimantan Timur",KALIMANTAN TIMUR,,Indonesia,,,,-2.0539708,116.1206542,https://maps.google.com/?cid=0x0:0xb4a79dfbcfe0196,
komplek housing,Komplek perumahan,DANI AJA,"P5G5+MXJ, Mengkudu, Kec. Batu Engau, Kabupaten Paser, Kalimantan Timur 76261","Mengkudu, Kec. Batu Engau, Kabupaten Paser",KALIMANTAN TIMUR,76261.0,Indonesia,,,,-2.2732963,116.1598776,https://maps.google.com/?cid=0x0:0x4111459cbf17768,
komplek housing,komplek housing,PAK USMAN,"V4G4+J86, Petangis, Kec. Batu Engau, Kabupaten Paser, Kalimantan Timur","Kabupaten Paser, Kalimantan Timur",KALIMANTAN TIMUR,,Indonesia,,,,-2.123482,116.106142,https://maps.google.com/?cid=0x0:0xaf2b2bb220e1ac63,
komplek housing,Pembangunan Perumahan,Taman sari,"P2GX+X65, RT.2/RW/RW.kilo.8, Kerang Dayo, Kec. Batu Engau, Kabupaten Paser, Kalimantan Timur","Kabupaten Paser, Kalimantan Timur",KALIMANTAN TIMUR,,Indonesia,,,,-2.2730018,116.0477585,https://maps.google.com/?cid=0x0:0x3fddadb0b8d36bf3,
komplek housing,komplek housing,Kec. Batu Engau,"Kabupaten Paser, Kalimantan Timur","Kabupaten Paser, Kalimantan Timur",KALIMANTAN TIMUR,,Indonesia,,,,-2.13811,116.1359431,https://maps.google.com/?cid=0x0:0x29f8635fadd2ab12,
komplek housing,Komplek perumahan,Rumah Abah Fadil,"Q8G2+GG8, Riwang, Kec. Batu Engau, Kabupaten Paser, Kalimantan Timur 76261","Riwang, Kec. Batu Engau, Kabupaten Paser",KALIMANTAN TIMUR,76261.0,Indonesia,,,,-2.2237119,116.3013267,https://maps.google.com/?cid=0x0:0x66ea6c361d215d0d,
komplek housing,Penginapan,Pak atang,"Q8G2+GG8, Riwang, Kec. Batu Engau, Kabupaten Paser, Kalimantan Timur 76261","Riwang, Kec. Batu Engau, Kabupaten Paser",KALIMANTAN TIMUR,76261.0,Indonesia,,,,-2.2237119,116.3013267,https://maps.google.com/?cid=0x0:0x8fd89ca76aa7b476,
komplek housing,Komplek perumahan,Rumah Devi,"Jl. Ahmad Yani, Kerang, Kec. Batu Engau, Kabupaten Penajam Paser Utara, Kalimantan Timur 76261","Kerang, Kec. Batu Engau, Kabupaten Penajam Paser Utara",KALIMANTAN TIMUR,76261.0,Indonesia,,,,-2.226862,116.0726617,https://maps.google.com/?cid=0x0:0x9bd57241892ac404,
komplek housing,komplek housing,Rumah pak radikun,"P426+JW3, Tampakan, Kec. Batu Engau, Kabupaten Paser, Kalimantan Timur 76261","Tampakan, Kec. Batu Engau, Kabupaten Paser",KALIMANTAN TIMUR,76261.0,Indonesia,,,,-2.2984851,116.1123078,https://maps.google.com/?cid=0x0:0x1e6d3c39df5f5ad,
komplek housing,Pembangunan Perumahan,Kerang gang delima,"R348+W2J, Kerang, Kec. Batu Engau, Kabupaten Paser, Kalimantan Timur 76261","Kerang, Kec. Batu Engau, Kabupaten Paser",KALIMANTAN TIMUR,76261.0,Indonesia,,,,-2.1926717,116.0650307,https://maps.google.com/?cid=0x0:0x934b488a1f700c58,
komplek housing,Komplek perumahan,Rama Dani,"P5G5+QW4, Mengkudu, Kec. Batu Engau, Kabupaten Paser, Kalimantan Timur 76261","Mengkudu, Kec. Batu Engau, Kabupaten Paser",KALIMANTAN TIMUR,76261.0,Indonesia,,,,-2.2731131,116.1598374,https://maps.google.com/?cid=0x0:0x278aead076e80e8,
komplek housing,komplek housing,Kalimantan Timur 76252,"Kabupaten Paser, Kalimantan Timur","Kabupaten Paser, Kalimantan Timur",KALIMANTAN TIMUR,,Indonesia,,,,-1.9651197,115.8994923,https://maps.google.com/?cid=0x0:0xd282220639c80aba,
komplek housing,Komplek perumahan,Perumahan Kaum Mesjid Besar Assalam,"5W9H+QR2, Batu Kajang, Kec. Batu Sopang, Kabupaten Paser, Kalimantan Timur 76252","Batu Kajang, Kec. Batu Sopang, Kabupaten Paser",KALIMANTAN TIMUR,76252.0,Indonesia,81346260490.0,,,-1.8301497,115.929333,https://maps.google.com/?cid=0x0:0x859f50ccea768f11,
komplek housing,Komplek perumahan,Dony Home,"5WG7+6CX, Batu Kajang, Kec. Batu Sopang, Kabupaten Paser, Kalimantan Timur 76252","Batu Kajang, Kec. Batu Sopang, Kabupaten Paser",KALIMANTAN TIMUR,76252.0,Indonesia,,,,-1.8243807,115.9136213,https://maps.google.com/?cid=0x0:0x463c9e10afcc970a,
komplek housing,Komplek perumahan,Mess Wijaya Kusuma PT Petrosea,"5VCX+47C, Batu Kajang, Kec. Batu Sopang, Kabupaten Paser, Kalimantan Timur 76252","Batu Kajang, Kec. Batu Sopang, Kabupaten Paser",KALIMANTAN TIMUR,76252.0,Indonesia,,,,-1.8296974,115.898154,https://maps.google.com/?cid=0x0:0x96427c7f88ae1d2c,
komplek housing,komplek housing,Perumahan borneo,"5WC7+RGX, Batu Kajang, Kec. Batu Sopang, Kabupaten Paser, Kalimantan Timur 76252","Batu Kajang, Kec. Batu Sopang, Kabupaten Paser",KALIMANTAN TIMUR,76252.0,Indonesia,,,,-1.8278959,115.9138449,https://maps.google.com/?cid=0x0:0xa432714d4166513e,
komplek housing,komplek housing,Gang Futsal,"5VJV+6WX, Batu Kajang, Kec. Batu Sopang, Kabupaten Paser, Kalimantan Timur 76252","Batu Kajang, Kec. Batu Sopang, Kabupaten Paser",KALIMANTAN TIMUR,76252.0,Indonesia,,,,-1.8193862,115.8948605,https://maps.google.com/?cid=0x0:0x7bdc2d3987011d63,
komplek housing,Komplek perumahan,Rumah kaka sari,"5VGR+W4P, Batu Kajang, Kec. Batu Sopang, Kabupaten Paser, Kalimantan Timur 76252","Batu Kajang, Kec. Batu Sopang, Kabupaten Paser",KALIMANTAN TIMUR,76252.0,Indonesia,,,,-1.8219218,115.8908061,https://maps.google.com/?cid=0x0:0xea1205041c5acf6e,
komplek housing,Vila,Messs,"5WG5+897, Gg Berdikari, Batu Kajang, Batu Sopang, Paser Regency, East Kalimantan 76252","Gg Berdikari, Batu Kajang, Batu Sopang, Paser Regency",KALIMANTAN TIMUR,76252.0,Indonesia,,,,-1.8242865,115.9084954,https://maps.google.com/?cid=0x0:0x6d37517a0f200d35,
komplek housing,Komplek perumahan,Rumah2,"5W6J+C34, Jl. Padat Karya, Batu Kajang, Kec. Batu Sopang, Kabupaten Paser, Kalimantan Timur 76252","Jl. Padat Karya, Batu Kajang, Kec. Batu Sopang, Kabupaten Paser",KALIMANTAN TIMUR,76252.0,Indonesia,,,,-1.838997,115.930208,https://maps.google.com/?cid=0x0:0x3f40548db8991b5e,
komplek housing,Pembangunan Perumahan,Home sulha,"4WPJ+8Q2, Legai, Kec. Batu Sopang, Kabupaten Paser, Kalimantan Timur","Kabupaten Paser, Kalimantan Timur",KALIMANTAN TIMUR,,Indonesia,,,,-1.8642468,115.9318764,https://maps.google.com/?cid=0x0:0x9a47c5879652aa5e,
komplek housing,komplek housing,Indra home,"5WF7+HMP, Batu Kajang, Kec. Batu Sopang, Kabupaten Paser, Kalimantan Timur 76252","Batu Kajang, Kec. Batu Sopang, Kabupaten Paser",KALIMANTAN TIMUR,76252.0,Indonesia,,,,-1.8279144,115.9138271,https://maps.google.com/?cid=0x0:0xfc24f32182adb95,
komplek housing,Perhimpunan Pengembang Perumahan,Gang sawit,"5WC9+6R, Batu Kajang, Kec. Batu Sopang, Kabupaten Paser, Kalimantan Timur 76252","Batu Kajang, Kec. Batu Sopang, Kabupaten Paser",KALIMANTAN TIMUR,76252.0,Indonesia,,,,-1.8294414,115.9195437,https://maps.google.com/?cid=0x0:0x975a467076adcfb8,
komplek housing,Komplek perumahan,Ummu adiba azzahra,"Gg. Rambutan, Batu Kajang, Kec. Batu Sopang, Kabupaten Paser, Kalimantan Timur 76252","Batu Kajang, Kec. Batu Sopang, Kabupaten Paser",KALIMANTAN TIMUR,76252.0,Indonesia,,,,-1.8240847,115.9184766,https://maps.google.com/?cid=0x0:0xd34340acb402aad5,
komplek housing,Komplek perumahan,Rumah Anang,"5VMV+2P4, Jl. Negara, Batu Kajang, Kec. Batu Sopang, Kabupaten Paser, Kalimantan Timur 76252","Jl. Negara, Batu Kajang, Kec. Batu Sopang, Kabupaten Paser",KALIMANTAN TIMUR,76252.0,Indonesia,,,,-1.8174967,115.894336,https://maps.google.com/?cid=0x0:0xa05507be457c8790,
komplek housing,Pembangunan Perumahan,Rumah Dila zenita,"Jalan serukutan, Batu Kajang, Kec. Batu Sopang, Kabupaten Paser, Kalimantan Timur 76252","Batu Kajang, Kec. Batu Sopang, Kabupaten Paser",KALIMANTAN TIMUR,76252.0,Indonesia,,,,-1.8351231,115.9296206,https://maps.google.com/?cid=0x0:0x96c96d0ece1855e8,
komplek housing,Komplek perumahan,Rumah lemon,"5W6J+J4F, Batu Kajang, Kec. Batu Sopang, Kabupaten Paser, Kalimantan Timur 76252","Batu Kajang, Kec. Batu Sopang, Kabupaten Paser",KALIMANTAN TIMUR,76252.0,Indonesia,,,,-1.8384433,115.9302852,https://maps.google.com/?cid=0x0:0x21ee79812efcf1a,
komplek housing,Komplek perumahan,rumah,"5VJW+XGF, Batu Kajang, Kec. Batu Sopang, Kabupaten Paser, Kalimantan Timur 76252","Batu Kajang, Kec. Batu Sopang, Kabupaten Paser",KALIMANTAN TIMUR,76252.0,Indonesia,,,,-1.8173675,115.8961551,https://maps.google.com/?cid=0x0:0xb00945d3b40b17b7,
komplek housing,Komplek perumahan,Rumah Nayara,"Perumahan Antika Puri Blok E No.01, Batu Kajang, Kec. Batu Sopang, Kabupaten Paser, Kalimantan Timur 76252","Batu Kajang, Kec. Batu Sopang, Kabupaten Paser",KALIMANTAN TIMUR,76252.0,Indonesia,,,,-1.8261547,115.9131945,https://maps.google.com/?cid=0x0:0x21394a97684fdacb,
komplek housing,Komplek perumahan,Rumah irzan,"5WR9+CHX, Batu Kajang, Kec. Batu Sopang, Kabupaten Paser, Kalimantan Timur 76252","Batu Kajang, Kec. Batu Sopang, Kabupaten Paser",KALIMANTAN TIMUR,76252.0,Indonesia,,,,-1.8088766,115.9189869,https://maps.google.com/?cid=0x0:0xbf2150117a5291bc,
komplek housing,Kantor Perusahaan,Batu kajang,"5WJ6+FMW, Batu Kajang, Kec. Batu Sopang, Kabupaten Paser, Kalimantan Timur 76252","Batu Kajang, Kec. Batu Sopang, Kabupaten Paser",KALIMANTAN TIMUR,76252.0,Indonesia,,,,-1.8188591,115.9116376,https://maps.google.com/?cid=0x0:0xc2873e237e22ae83,
komplek housing,Komplek perumahan,batu sopang,"5W96+2G4, Batu Kajang, Kec. Batu Sopang, Kabupaten Paser, Kalimantan Timur 76252","Batu Kajang, Kec. Batu Sopang, Kabupaten Paser",KALIMANTAN TIMUR,76252.0,Indonesia,,,,-1.8324751,115.91132,https://maps.google.com/?cid=0x0:0x2e201a8398d8a60,
komplek housing,komplek housing,Kec. Batu Sopang,"Kabupaten Paser, Kalimantan Timur","Kabupaten Paser, Kalimantan Timur",KALIMANTAN TIMUR,,Indonesia,,,,-1.8238436,115.8994923,https://maps.google.com/?cid=0x0:0x22a0ae066cff9757,
komplek housing,Komplek perumahan,Perumahan Antika Puri,"5WF7+HMP, Unnamed Road, Batu Kajang, Batu Sopang, Paser Regency, East Kalimantan 76252","Unnamed Road, Batu Kajang, Batu Sopang, Paser Regency",KALIMANTAN TIMUR,76252.0,Indonesia,,,,-1.8260473,115.9141973,https://maps.google.com/?cid=0x0:0x9cf9b816c7a55ad,
komplek housing,Komplek perumahan,Rumahku,"5W96+2G4, Batu Kajang, Kec. Batu Sopang, Kabupaten Paser, Kalimantan Timur 76252","Batu Kajang, Kec. Batu Sopang, Kabupaten Paser",KALIMANTAN TIMUR,76252.0,Indonesia,,,,-1.8324751,115.91132,https://maps.google.com/?cid=0x0:0xd2f8e78bd11f1363,
komplek housing,Komplek perumahan,Rumah Vina /Mm Adam,"5VJW+4XX, Batu Kajang, Kec. Batu Sopang, Kabupaten Paser, Kalimantan Timur 76252","Batu Kajang, Kec. Batu Sopang, Kabupaten Paser",KALIMANTAN TIMUR,76252.0,Indonesia,82255237667.0,,,-1.8196429,115.8974757,https://maps.google.com/?cid=0x0:0xbdf3e119bcabda3d,
komplek housing,Penginapan religi,Shr baru,"539R+482, Jl. Garuda, Kuaro, Kec. Kuaro, Kabupaten Paser, Kalimantan Timur 76281","Jl. Garuda, Kuaro, Kec. Kuaro, Kabupaten Paser",KALIMANTAN TIMUR,76281.0,Indonesia,,,,-1.8322385,116.0907627,https://maps.google.com/?cid=0x0:0xe7ac555759b9baa3,
komplek housing,Gedung Apartemen,Rumah keilan,"538W+GC4, Kuaro, Kec. Kuaro, Kabupaten Paser, Kalimantan Timur 76281","Kuaro, Kec. Kuaro, Kabupaten Paser",KALIMANTAN TIMUR,76281.0,Indonesia,,,,-1.8337468,116.0960627,https://maps.google.com/?cid=0x0:0x5d39b446ce187856,
komplek housing,Komplek perumahan,Gurame Paser,"Padang Jaya, Kec. Kuaro, Kabupaten Paser, Kalimantan Timur 76281","Kec. Kuaro, Kabupaten Paser",KALIMANTAN TIMUR,76281.0,Indonesia,85393318790.0,,,-1.7973904,116.0599525,https://maps.google.com/?cid=0x0:0xe083093101fe3156,
komplek housing,Komplek perumahan,Rumah icha,"44GF+FFX, Lolo, Kec. Kuaro, Kabupaten Paser, Kalimantan Timur 76251","Lolo, Kec. Kuaro, Kabupaten Paser",KALIMANTAN TIMUR,76251.0,Indonesia,,,,-1.8737269,116.1237449,https://maps.google.com/?cid=0x0:0x82dfd3b74991f1a5,
komplek housing,Komplek perumahan,Inhira House,"53PP+WJH, Kuaro, Kec. Kuaro, Kabupaten Paser, Kalimantan Timur 76281","Kuaro, Kec. Kuaro, Kabupaten Paser",KALIMANTAN TIMUR,76281.0,Indonesia,,,,-1.8126878,116.0865986,https://maps.google.com/?cid=0x0:0x27498eea507bbbc9,
komplek housing,Perhimpunan Pengembang Perumahan,Rumah SS,"Sei riye No.rt 15, Kuaro, Kec. Kuaro, Kabupaten Paser, Kalimantan Timur 76281","Kuaro, Kec. Kuaro, Kabupaten Paser",KALIMANTAN TIMUR,76281.0,Indonesia,,,,-1.8476134,116.0539159,https://maps.google.com/?cid=0x0:0x6c1673126b00daef,
komplek housing,Komplek perumahan,Rian house,"53GM+3FH, Kuaro, Kec. Kuaro, Kabupaten Paser, Kalimantan Timur 76281","Kuaro, Kec. Kuaro, Kabupaten Paser",KALIMANTAN TIMUR,76281.0,Indonesia,,,,-1.822355,116.081376,https://maps.google.com/?cid=0x0:0x924e0cb3008c8d15,
komplek housing,Perumahan,Rumah Abah Ibrahim,"4498+86P, Jl. Kuaro - Tanah Grogot, Lolo, Kec. Kuaro, Kabupaten Paser, Kalimantan Timur 76251","Jl. Kuaro - Tanah Grogot, Lolo, Kec. Kuaro, Kabupaten Paser",KALIMANTAN TIMUR,76251.0,Indonesia,81257367166.0,,,-1.881651,116.1155676,https://maps.google.com/?cid=0x0:0xbe7ed67c76c0abb9,
komplek housing,Komplek perumahan,Samsul/Miftahul,"44QC+3W, Lolo, Kec. Kuaro, Kabupaten Paser, Kalimantan Timur 76251","Lolo, Kec. Kuaro, Kabupaten Paser",KALIMANTAN TIMUR,76251.0,Indonesia,,,,-1.862614,116.122029,https://maps.google.com/?cid=0x0:0x4a6aea5f7d403b5f,
komplek housing,Kantor Perusahaan,Mess,"53FG+HFW, Kuaro, Kec. Kuaro, Kabupaten Paser, Kalimantan Timur 76281","Kuaro, Kec. Kuaro, Kabupaten Paser",KALIMANTAN TIMUR,76281.0,Indonesia,,,,-1.8278085,116.0771612,https://maps.google.com/?cid=0x0:0x16875d09a2fb2f78,
komplek housing,Komplek perumahan,Rumah suryono,"6365+M84, Padang Jaya, Kec. Kuaro, Kabupaten Paser, Kalimantan Timur 76281","Padang Jaya, Kec. Kuaro, Kabupaten Paser",KALIMANTAN TIMUR,76281.0,Indonesia,,,,-1.7883291,116.0594489,https://maps.google.com/?cid=0x0:0xb8cec767f1efe4e5,
komplek housing,Komplek perumahan,Rumah Mas Muji ( Nano ),"5526+44V, RT.007, Janju, Kec. Tanah Grogot, Kabupaten Paser, Kalimantan Timur 76251","RT.007, Janju, Kec. Tanah Grogot, Kabupaten Paser",KALIMANTAN TIMUR,76251.0,Indonesia,,,,-1.8496428,116.1603039,https://maps.google.com/?cid=0x0:0xe351b7b24613ed46,
komplek housing,Rumah Kayu,Iboed Camp Kuaro,"538M+X74, Kuaro, Kec. Kuaro, Kabupaten Paser, Kalimantan Timur 76281","Kuaro, Kec. Kuaro, Kabupaten Paser",KALIMANTAN TIMUR,76281.0,Indonesia,,,,-1.8326077,116.0831889,https://maps.google.com/?cid=0x0:0x77eeaf2d6b937fdc,
komplek housing,Penginapan religi,Rumah TEGAR_OKTA,"Jl. Jend. Sudirman No.21, RT.12, Kuaro, Kec. Kuaro, Kabupaten Paser, Kalimantan Timur 76281","RT.12, Kuaro, Kec. Kuaro, Kabupaten Paser",KALIMANTAN TIMUR,76281.0,Indonesia,,,,-1.8340273,116.0823188,https://maps.google.com/?cid=0x0:0x95450b5a3d94494d,
komplek housing,Perumahan,Franky Jaya Makmur,"53C9+VX2, Jl. Tj. - Kuaro, Kuaro, Kec. Kuaro, Kabupaten Paser, Kalimantan Timur 76281","Jl. Tj. - Kuaro, Kuaro, Kec. Kuaro, Kabupaten Paser",KALIMANTAN TIMUR,76281.0,Indonesia,,,,-1.8277869,116.0701184,https://maps.google.com/?cid=0x0:0x71d86eca79a04c89,
komplek housing,Pembangunan Perumahan,APA'AN,"42XX+8RF, Kuaro, Kec. Kuaro, Kabupaten Paser, Kalimantan Timur 76281","Kuaro, Kec. Kuaro, Kabupaten Paser",KALIMANTAN TIMUR,76281.0,Indonesia,,,,-1.8516933,116.0495603,https://maps.google.com/?cid=0x0:0xd8e8607caa5731be,
komplek housing,Komplek perumahan,Rumah H. SUSANTO,"53QM+7HJ, Jl. Penajam-Kuaro, Kuaro, Kec. Kuaro, Kabupaten Paser, Kalimantan Timur 76281","Jl. Penajam-Kuaro, Kuaro, Kec. Kuaro, Kabupaten Paser",KALIMANTAN TIMUR,76281.0,Indonesia,,,,-1.8116962,116.0839794,https://maps.google.com/?cid=0x0:0x9454b5b041bd557d,
komplek housing,Komplek perumahan,R.M A.W,"53HP+QH4, Jl. Yos Sudarso, Kuaro, Kec. Kuaro, Kabupaten Paser, Kalimantan Timur 76281","Jl. Yos Sudarso, Kuaro, Kec. Kuaro, Kabupaten Paser",KALIMANTAN TIMUR,76281.0,Indonesia,,,,-1.8205641,116.0864635,https://maps.google.com/?cid=0x0:0x122854f6b2f3d058,
komplek housing,Komplek perumahan,Rumah saya,"6363+953, Padang Jaya, Kec. Kuaro, Kabupaten Paser, Kalimantan Timur 76281","Padang Jaya, Kec. Kuaro, Kabupaten Paser",KALIMANTAN TIMUR,76281.0,Indonesia,,,,-1.7891208,116.0529221,https://maps.google.com/?cid=0x0:0x5f65f7782f4b4ddf,
komplek housing,komplek housing,Kuaro,"Kec. Kuaro, Kabupaten Paser, Kalimantan Timur","Kabupaten Paser, Kalimantan Timur",KALIMANTAN TIMUR,,Indonesia,,,,-1.8219574,116.0845478,https://maps.google.com/?cid=0x0:0x4540b1968c0129c9,
komplek housing,Komplek perumahan,Rumah fatin,"53GH+5P4, Kuaro, Kec. Kuaro, Kabupaten Paser, Kalimantan Timur 76281","Kuaro, Kec. Kuaro, Kabupaten Paser",KALIMANTAN TIMUR,76281.0,Indonesia,,,,-1.824835,116.078689,https://maps.google.com/?cid=0x0:0xc7d3498567f71118,
komplek housing,Komplek perumahan,Rumah H. Amiruddin,"53QJ+PH4, Kuaro, Kec. Kuaro, Kabupaten Paser, Kalimantan Timur 76281","Kuaro, Kec. Kuaro, Kabupaten Paser",KALIMANTAN TIMUR,76281.0,Indonesia,,,,-1.8106168,116.0815217,https://maps.google.com/?cid=0x0:0x25645767237ddc84,
komplek housing,komplek housing,Omah e mbah sarindi,"Jl. Cendana, Kuaro, Kec. Kuaro, Kabupaten Paser, Kalimantan Timur 76281","Kuaro, Kec. Kuaro, Kabupaten Paser",KALIMANTAN TIMUR,76281.0,Indonesia,,,,-1.8260143,116.0793723,https://maps.google.com/?cid=0x0:0xdee0382f05fef387,
komplek housing,Pembangunan Perumahan,Mess 2 BPP kuaro,"635X+6X3, Rangan, Kec. Kuaro, Kabupaten Paser, Kalimantan Timur 76281","Rangan, Kec. Kuaro, Kabupaten Paser",KALIMANTAN TIMUR,76281.0,Indonesia,,,,-1.7920787,116.099828,https://maps.google.com/?cid=0x0:0x8798cf9eceff38d3,
komplek housing,Pembangunan Perumahan,Rumah,"Jln wr supratman No.RT 06, Kendarom, Kec. Kuaro, Kabupaten Paser, Kalimantan Timur 76281","Kendarom, Kec. Kuaro, Kabupaten Paser",KALIMANTAN TIMUR,76281.0,Indonesia,,,,-1.7984637,116.1182168,https://maps.google.com/?cid=0x0:0xc05fa185a8ffb639,
komplek housing,komplek housing,Kec. Kuaro,"Kabupaten Paser, Kalimantan Timur","Kabupaten Paser, Kalimantan Timur",KALIMANTAN TIMUR,,Indonesia,,,,-1.8221901,116.0841009,https://maps.google.com/?cid=0x0:0x8b28696ee944cbb9,
komplek housing,komplek housing,Rumah Rengga,"736H+RQ3, Kerta Bumi, Kec. Kuaro, Kabupaten Paser, Kalimantan Timur 76281","Kerta Bumi, Kec. Kuaro, Kabupaten Paser",KALIMANTAN TIMUR,76281.0,Indonesia,,,,-1.7379956,116.0794371,https://maps.google.com/?cid=0x0:0x910915782303ec43,
komplek housing,Komplek perumahan,Rumah zahra,"75CQ+3J5, Pasir Mayang, Kec. Kuaro, Kabupaten Paser, Kalimantan Timur 76281","Pasir Mayang, Kec. Kuaro, Kabupaten Paser",KALIMANTAN TIMUR,76281.0,Indonesia,,,,-1.7298625,116.1891094,https://maps.google.com/?cid=0x0:0xd3d4db32a25188ac,
komplek housing,Tempat Istirahat,Office  mess 1 bbp kuaro,"64M8+2XF, Kerta Bumi, Kec. Kuaro, Kabupaten Paser, Kalimantan Timur 76281","Kerta Bumi, Kec. Kuaro, Kabupaten Paser",KALIMANTAN TIMUR,76281.0,Indonesia,,,,-1.7674425,116.1174142,https://maps.google.com/?cid=0x0:0xa8ff5ea10aeff4df,
komplek housing,Komplek perumahan,Andhita Indhirastiâ€™s House,"C674+X2H, Long Ikis, Kec. Long Ikis, Kabupaten Paser, Kalimantan Timur 76282","Long Ikis, Kec. Long Ikis, Kabupaten Paser",KALIMANTAN TIMUR,76282.0,Indonesia,,,,-1.5847551,116.2048092,https://maps.google.com/?cid=0x0:0x320874dc69d83296,
komplek housing,Pembangunan Perumahan,MY HOME,"C553+4GG, Lombok, Kec. Long Ikis, Kabupaten Paser, Kalimantan Timur 76282","Lombok, Kec. Long Ikis, Kabupaten Paser",KALIMANTAN TIMUR,76282.0,Indonesia,,,,-1.5929364,116.1540679,https://maps.google.com/?cid=0x0:0x163b1dc6d3722105,
komplek housing,Komplek perumahan,Rumah Pak Tohari,"F567+389, Kerta Bhakti, Kec. Long Ikis, Kabupaten Paser, Kalimantan Timur 76282","Kerta Bhakti, Kec. Long Ikis, Kabupaten Paser",KALIMANTAN TIMUR,76282.0,Indonesia,,,,-1.5398468,116.1633678,https://maps.google.com/?cid=0x0:0x8d9cbd23ca244997,
komplek housing,komplek housing,Kalimantan Timur 76282,"Kec. Long Ikis, Kabupaten Paser, Kalimantan Timur","Kabupaten Paser, Kalimantan Timur",KALIMANTAN TIMUR,,Indonesia,,,,-1.608975,116.1832068,https://maps.google.com/?cid=0x0:0xaaa31d28d64ea774,
komplek housing,Perumahan,Home ridho,"95Q7+HWR, Samuntai, Kec. Long Ikis, Kabupaten Paser, Kalimantan Timur 76282","Samuntai, Kec. Long Ikis, Kabupaten Paser",KALIMANTAN TIMUR,76282.0,Indonesia,,,,-1.611022,116.1647587,https://maps.google.com/?cid=0x0:0xf1571234ede5ca22,
komplek housing,Perhimpunan Pengembang Perumahan,Rumah Anin,"C546+W3X, Lombok, Kec. Long Ikis, Kabupaten Paser, Kalimantan Timur 76282","Lombok, Kec. Long Ikis, Kabupaten Paser",KALIMANTAN TIMUR,76282.0,Indonesia,,,,-1.5926495,116.1602293,https://maps.google.com/?cid=0x0:0x81b018438850916b,
komplek housing,Komplek perumahan,Rumah bagas,"C5C4+MFC, Sawit Jaya, Kec. Long Ikis, Kabupaten Paser, Kalimantan Timur 76282","Sawit Jaya, Kec. Long Ikis, Kabupaten Paser",KALIMANTAN TIMUR,76282.0,Indonesia,,,,-1.5783105,116.156152,https://maps.google.com/?cid=0x0:0xb34c28552381e0a0,
komplek housing,Komplek perumahan,Rumah saya,"C58X+PXR, Jl. Penajam-Kuaro, Long Ikis, Kec. Long Ikis, Kabupaten Paser, Kalimantan Timur 76282","Jl. Penajam-Kuaro, Long Ikis, Kec. Long Ikis, Kabupaten Paser",KALIMANTAN TIMUR,76282.0,Indonesia,,,,-1.5771666,116.2055029,https://maps.google.com/?cid=0x0:0xb849263adec61c8f,
komplek housing,Rumah Kayu,Ikhsan,"95W9+937, Lombok, Kec. Long Ikis, Kabupaten Paser, Kalimantan Timur","Kabupaten Paser, Kalimantan Timur",KALIMANTAN TIMUR,,Indonesia,,,,-1.6040905,116.1676805,https://maps.google.com/?cid=0x0:0xda3dd417ef062650,
komplek housing,Komplek perumahan,Rumah Pait,"C575+63F, Sawit Jaya, Kec. Long Ikis, Kabupaten Paser, Kalimantan Timur 76282","Sawit Jaya, Kec. Long Ikis, Kabupaten Paser",KALIMANTAN TIMUR,76282.0,Indonesia,,,,-1.5869429,116.1576802,https://maps.google.com/?cid=0x0:0x9b3ebb2281f73f3e,
komplek housing,Komplek perumahan,Rumah indah long Ikis,"C6P2+CQQ, Olung, Kec. Long Ikis, Kabupaten Paser, Kalimantan Timur 76282","Olung, Kec. Long Ikis, Kabupaten Paser",KALIMANTAN TIMUR,76282.0,Indonesia,,,,-1.5632229,116.2008395,https://maps.google.com/?cid=0x0:0xbf8467599c818304,
komplek housing,Perhimpunan Pengembang Perumahan,Eva,"84QJ+P6, Samuntai, Kec. Long Ikis, Kabupaten Paser, Kalimantan Timur","Kabupaten Paser, Kalimantan Timur",KALIMANTAN TIMUR,,Indonesia,,,,-1.6598888,116.1303129,https://maps.google.com/?cid=0x0:0xa8d1344f7549306,
komplek housing,Pembangunan Perumahan,Home stay,"F542+PRV, jl.kerinci, RT.11/RW.4, Sekurou Jaya, Kec. Long Ikis, Kabupaten Paser, Kalimantan Timur 76282","jl.kerinci, RT.11/RW.4, Sekurou Jaya, Kec. Long Ikis, Kabupaten Paser",KALIMANTAN TIMUR,76282.0,Indonesia,81254151454.0,,,-1.5431323,116.1519788,https://maps.google.com/?cid=0x0:0x14f4772c38d7094b,
komplek housing,Komplek perumahan,Rumah reza,"F556+JC7, Kerta Bhakti, Kec. Long Ikis, Kabupaten Paser, Kalimantan Timur 76282","Kerta Bhakti, Kec. Long Ikis, Kabupaten Paser",KALIMANTAN TIMUR,76282.0,Indonesia,,,,-1.5402628,116.1614102,https://maps.google.com/?cid=0x0:0xa78ae771a022ac31,
komplek housing,Komplek perumahan,Rumah Irwan,"C52P+J8G, Tajur, Kec. Long Ikis, Kabupaten Paser, Kalimantan Timur 76282","Tajur, Kec. Long Ikis, Kabupaten Paser",KALIMANTAN TIMUR,76282.0,Indonesia,,,,-1.598444,116.1858149,https://maps.google.com/?cid=0x0:0x248ce36802c22c50,
komplek housing,Perhimpunan Pengembang Perumahan,Simpang pait long Ikis,"C527+9WV, Jl. Pait, Lombok, Kec. Long Ikis, Kabupaten Paser, Kalimantan Timur 76282","Jl. Pait, Lombok, Kec. Long Ikis, Kabupaten Paser",KALIMANTAN TIMUR,76282.0,Indonesia,85752253087.0,,,-1.599021,116.1648044,https://maps.google.com/?cid=0x0:0xd9e812d283b81212,
komplek housing,Komplek perumahan,Rumah yusuf,"C594+6P, Sawit Jaya, Kec. Long Ikis, Kabupaten Paser, Kalimantan Timur","Kabupaten Paser, Kalimantan Timur",KALIMANTAN TIMUR,,Indonesia,,,,-1.581979,116.15733,https://maps.google.com/?cid=0x0:0x69fddcab51e530e4,
komplek housing,komplek housing,rumah oma,"F536+HQ3, Kerta Bhakti, Kec. Long Ikis, Kabupaten Paser, Kalimantan Timur 76282","Kerta Bhakti, Kec. Long Ikis, Kabupaten Paser",KALIMANTAN TIMUR,76282.0,Indonesia,,,,-1.5461122,116.161915,https://maps.google.com/?cid=0x0:0x7931e5fcd0447cc5,
komplek housing,Komplek perumahan,Rumah Ibu Haniyam,"C575+W5X, Sawit Jaya, Kec. Long Ikis, Kabupaten Paser, Kalimantan Timur","Kabupaten Paser, Kalimantan Timur",KALIMANTAN TIMUR,,Indonesia,,,,-1.5851517,116.1579111,https://maps.google.com/?cid=0x0:0x1143cd6528ae9ebe,
komplek housing,komplek housing,oke,"C674+V4X, Long Ikis, Kec. Long Ikis, Kabupaten Paser, Kalimantan Timur 76282","Long Ikis, Kec. Long Ikis, Kabupaten Paser",KALIMANTAN TIMUR,76282.0,Indonesia,,,,-1.585219,116.2053702,https://maps.google.com/?cid=0x0:0x71773e8b0c1240e2,
komplek housing,komplek housing,Kec. Long Ikis,"Kabupaten Paser, Kalimantan Timur","Kabupaten Paser, Kalimantan Timur",KALIMANTAN TIMUR,,Indonesia,,,,-1.6040905,116.1676805,https://maps.google.com/?cid=0x0:0x28c79be6a87c0fe5,
komplek housing,Pasar,PASAR RABU LONGIKIS,"C55V+C44, Long Ikis, Kec. Long Ikis, Kabupaten Paser, Kalimantan Timur 76282","Long Ikis, Kec. Long Ikis, Kabupaten Paser",KALIMANTAN TIMUR,76282.0,Indonesia,,,,-1.5914835,116.1928228,https://maps.google.com/?cid=0x0:0x9a04a051079dfffc,
komplek housing,komplek housing,R Fadhan G,"F44R+CP5, Sekurou Jaya, Kec. Long Ikis, Kabupaten Paser, Kalimantan Timur 76282","Sekurou Jaya, Kec. Long Ikis, Kabupaten Paser",KALIMANTAN TIMUR,76282.0,Indonesia,,,,-1.5439841,116.1418515,https://maps.google.com/?cid=0x0:0xadd2bf3bd65c1c83,
komplek housing,Komplek perumahan,Rumah Masha,"C5C3+FFM, Sawit Jaya, Kec. Long Ikis, Kabupaten Paser, Kalimantan Timur 76282","Sawit Jaya, Kec. Long Ikis, Kabupaten Paser",KALIMANTAN TIMUR,76282.0,Indonesia,,,,-1.5787765,116.153668,https://maps.google.com/?cid=0x0:0x39439d29a3175140,
komplek housing,Pusat Perbelanjaan,Depo Air Minum Shanum (Anam),"F46V+M8, Sekurou Jaya, Kec. Long Ikis, Kabupaten Paser, Kalimantan Timur 76282","Sekurou Jaya, Kec. Long Ikis, Kabupaten Paser",KALIMANTAN TIMUR,76282.0,Indonesia,,,,-1.5382656,116.1433568,https://maps.google.com/?cid=0x0:0xa44a52aa54edbf25,
komplek housing,Komplek perumahan,Rumah Felix,"F58V+HCP, Olung, Kec. Long Ikis, Kabupaten Paser, Kalimantan Timur 76282","Olung, Kec. Long Ikis, Kabupaten Paser",KALIMANTAN TIMUR,76282.0,Indonesia,,,,-1.5335429,116.1935769,https://maps.google.com/?cid=0x0:0xe8b8464605825fc1,
komplek housing,komplek housing,Rumah Jenna,"F44R+CP5, Sekurou Jaya, Kec. Long Ikis, Kabupaten Paser, Kalimantan Timur 76282","Sekurou Jaya, Kec. Long Ikis, Kabupaten Paser",KALIMANTAN TIMUR,76282.0,Indonesia,,,,-1.5439841,116.1418515,https://maps.google.com/?cid=0x0:0x46c6d6058fb8fec9,
komplek housing,Komplek perumahan,Ahmad,"C5C3+FFM, Sawit Jaya, Kec. Long Ikis, Kabupaten Paser, Kalimantan Timur 76282","Sawit Jaya, Kec. Long Ikis, Kabupaten Paser",KALIMANTAN TIMUR,76282.0,Indonesia,,,,-1.5787765,116.153668,https://maps.google.com/?cid=0x0:0x44388522058f623d,
komplek housing,Komplek perumahan,Rumah pak Legimin,"blok g, RT.009, Sawit Jaya, Kec. Long Ikis, Kabupaten Paser, Kalimantan Timur 76282","RT.009, Sawit Jaya, Kec. Long Ikis, Kabupaten Paser",KALIMANTAN TIMUR,76282.0,Indonesia,,,,-1.5787765,116.153668,https://maps.google.com/?cid=0x0:0xcb72a55b68cb2b1d,
komplek housing,Komplek perumahan,KUNCIR Base,"Jl. Ahmad Yani No.2, Long Kali, Kec. Long Kali, Kabupaten Paser, Kalimantan Timur 76283","Long Kali, Kec. Long Kali, Kabupaten Paser",KALIMANTAN TIMUR,76283.0,Indonesia,,,,-1.5284374,116.2991489,https://maps.google.com/?cid=0x0:0xc19d8890fb7bf5fb,
komplek housing,Komplek perumahan,Rumah Yuda,"F9HF+MV, Long Kali, Kec. Long Kali, Kabupaten Paser, Kalimantan Timur","Kabupaten Paser, Kalimantan Timur",KALIMANTAN TIMUR,,Indonesia,,,,-1.5200853,116.3759915,https://maps.google.com/?cid=0x0:0x362e53bdeda47b8d,
komplek housing,Kantor Pemerintah,Rumah Jabatan Camat Long Kali,"Jln Negara Penajam-Long Kali KM 63, RT.013, Long Kali, Kec. Long Kali, Kabupaten Paser, Kalimantan Timur 76283","RT.013, Long Kali, Kec. Long Kali, Kabupaten Paser",KALIMANTAN TIMUR,76283.0,Indonesia,,,,-1.5192119,116.3287605,https://maps.google.com/?cid=0x0:0x83610a042825bc1,
komplek housing,Komplek perumahan,Rumah sahdana,"C9W2+J4, Long Kali, Kec. Long Kali, Kabupaten Paser, Kalimantan Timur","Kabupaten Paser, Kalimantan Timur",KALIMANTAN TIMUR,,Indonesia,,,,-1.552903,116.350258,https://maps.google.com/?cid=0x0:0x1383f55479000505,
komplek housing,komplek housing,Usep,"C9QR+QC, Sebakung, Kec. Long Kali, Kabupaten Paser, Kalimantan Timur","Kabupaten Paser, Kalimantan Timur",KALIMANTAN TIMUR,,Indonesia,,,,-1.5605445,116.3904738,https://maps.google.com/?cid=0x0:0x61c5e609d76db87b,
komplek housing,Komplek perumahan,Amat buah house,"F8FG+7J2, Long Kali, Kec. Long Kali, Kabupaten Paser, Kalimantan Timur 76283","Long Kali, Kec. Long Kali, Kabupaten Paser",KALIMANTAN TIMUR,76283.0,Indonesia,,,,-1.5266635,116.3259457,https://maps.google.com/?cid=0x0:0xcc8f557e8778c6b8,
komplek housing,Komplek perumahan,Rumah Cii,"C8RQ+9FP, Sebakung, Kec. Long Kali, Kabupaten Paser, Kalimantan Timur 76283","Sebakung, Kec. Long Kali, Kabupaten Paser",KALIMANTAN TIMUR,76283.0,Indonesia,,,,-1.5593209,116.3382545,https://maps.google.com/?cid=0x0:0x6aa552285ecfbe8f,
komplek housing,Komplek perumahan,Rumah prayoga,"F9PG+HJ, Long Kali, Kec. Long Kali, Kabupaten Paser, Kalimantan Timur","Kabupaten Paser, Kalimantan Timur",KALIMANTAN TIMUR,,Indonesia,,,,-1.5135956,116.3766088,https://maps.google.com/?cid=0x0:0xd18859d543ba99f0,
komplek housing,Pembangunan Perumahan,Mul,"C983+84G, Sebakung, Kec. Long Kali, Kabupaten Paser, Kalimantan Timur 76283","Sebakung, Kec. Long Kali, Kabupaten Paser",KALIMANTAN TIMUR,76283.0,Indonesia,,,,-1.5841899,116.3528189,https://maps.google.com/?cid=0x0:0xcefbe453243eff22,
komplek housing,Komplek perumahan,RUMAH H. ABAT,"F8JC+594, Long Kali, Kec. Long Kali, Kabupaten Paser, Kalimantan Timur","Kabupaten Paser, Kalimantan Timur",KALIMANTAN TIMUR,,Indonesia,,,,-1.5196094,116.3209402,https://maps.google.com/?cid=0x0:0xe3ea070a56635151,
komplek housing,Komplek perumahan,Rumah Agus,"Jalan Abdullah No.RT 07, Long Kali, Kec. Long Kali, Kabupaten Paser, Kalimantan Timur 76283","Long Kali, Kec. Long Kali, Kabupaten Paser",KALIMANTAN TIMUR,76283.0,Indonesia,,,,-1.518737,116.3201305,https://maps.google.com/?cid=0x0:0xdf26cc59417698eb,
komplek housing,Toko Bahan Bangunan,TIGA PUTRA MUHIFAH,"C6FX+273, RT.04, Krayan Bahagia, Kec. Long Ikis, Kabupaten Paser, Kalimantan Timur 76282","RT.04, Krayan Bahagia, Kec. Long Ikis, Kabupaten Paser",KALIMANTAN TIMUR,76282.0,Indonesia,,,,-1.5774962,116.2481798,https://maps.google.com/?cid=0x0:0x7073ebfdf9e03280,
komplek housing,Komplek perumahan,rumah sya,"dekat pasar sabtu No.rt 07, Long Kali, Kec. Long Kali, Kabupaten Paser, Kalimantan Timur 76283","Long Kali, Kec. Long Kali, Kabupaten Paser",KALIMANTAN TIMUR,76283.0,Indonesia,,,,-1.516715,116.3206817,https://maps.google.com/?cid=0x0:0xb39fd5e60d55fa8d,
komplek housing,,rmhh nisfaaaa,"F8H9+PXF, Long Kali, Kec. Long Kali, Kabupaten Paser, Kalimantan Timur 76283","Long Kali, Kec. Long Kali, Kabupaten Paser",KALIMANTAN TIMUR,76283.0,Indonesia,,,,-1.5220136,116.3198655,https://maps.google.com/?cid=0x0:0x8159be63ea525491,
komplek housing,Pembangunan Perumahan,Bintang shop,"F8MC+34C, Long Kali, Kec. Long Kali, Kabupaten Paser, Kalimantan Timur 76283","Long Kali, Kec. Long Kali, Kabupaten Paser",KALIMANTAN TIMUR,76283.0,Indonesia,82154264084.0,,,-1.5176248,116.3207132,https://maps.google.com/?cid=0x0:0xdbbe1ee7fb27238,
komplek housing,Gedung Apartemen,GH (Garage House),"F8F2+3H9, Long Kali, Kec. Long Kali, Kabupaten Paser, Kalimantan Timur 76283","Long Kali, Kec. Long Kali, Kabupaten Paser",KALIMANTAN TIMUR,76283.0,Indonesia,,,,-1.5273371,116.3014851,https://maps.google.com/?cid=0x0:0x373a8ec6d3672ba6,
komplek housing,Komplek perumahan,Rumah Diky,"F8PC+WFH, Long Kali, Kec. Long Kali, Kabupaten Paser, Kalimantan Timur","Kabupaten Paser, Kalimantan Timur",KALIMANTAN TIMUR,,Indonesia,,,,-1.5126791,116.3212323,https://maps.google.com/?cid=0x0:0xd3c7c482849e5b0f,
komplek housing,Komplek perumahan,Fendri 178,"C8MQ+6G ALANG, Sebakung, Kec. Long Kali, Kabupaten Paser, Kalimantan Timur","Kabupaten Paser, Kalimantan Timur",KALIMANTAN TIMUR,,Indonesia,,,,-1.5665243,116.3389559,https://maps.google.com/?cid=0x0:0xfdf536465566d191,
komplek housing,Komplek perumahan,Rumah Jerry,"G8FP+RM6, Bente Tualan, Kec. Long Kali, Kabupaten Paser, Kalimantan Timur 76283","Bente Tualan, Kec. Long Kali, Kabupaten Paser",KALIMANTAN TIMUR,76283.0,Indonesia,,,,-1.4754528,116.3366492,https://maps.google.com/?cid=0x0:0x431b6ed8cfb2440,
komplek housing,Komplek perumahan,Mey Olshop,"F8M9+3XX, Long Kali, Kec. Long Kali, Kabupaten Paser, Kalimantan Timur","Kabupaten Paser, Kalimantan Timur",KALIMANTAN TIMUR,,Indonesia,,,,-1.5171929,116.3200943,https://maps.google.com/?cid=0x0:0x27a1ebf9ed9dd3b1,
komplek housing,Pembangunan Perumahan,Rumah Pak Ruddin. M,"Jl. Pasar Lama No.RT 02, Long Kali, Kec. Long Kali, Kabupaten Paser, Kalimantan Timur 76283","Long Kali, Kec. Long Kali, Kabupaten Paser",KALIMANTAN TIMUR,76283.0,Indonesia,,,,-1.5200879,116.3232483,https://maps.google.com/?cid=0x0:0x61de36bb1240f753,
komplek housing,Inspektur Tempat Tinggal,Dina Ardila's house,"F8FG+7J2, Long Kali, Kec. Long Kali, Kabupaten Paser, Kalimantan Timur 76283","Long Kali, Kec. Long Kali, Kabupaten Paser",KALIMANTAN TIMUR,76283.0,Indonesia,,,,-1.5268635,116.3265201,https://maps.google.com/?cid=0x0:0x50801aa2faf6875f,
komplek housing,Komplek perumahan,P4S RAWA MAKMUR,"C9PQ+FXP, Sebakung Makmur, Kec. Long Kali, Kabupaten Paser, Kalimantan Timur 76283","Sebakung Makmur, Kec. Long Kali, Kabupaten Paser",KALIMANTAN TIMUR,76283.0,Indonesia,82158105554.0,,,-1.5637936,116.3899485,https://maps.google.com/?cid=0x0:0x5104705db0a6ecec,
komplek housing,Komplek perumahan,Mama aan,"Jl. Penajam-Kuaro No.20, Long Kali, Kec. Long Kali, Kabupaten Paser, Kalimantan Timur 76283","Long Kali, Kec. Long Kali, Kabupaten Paser",KALIMANTAN TIMUR,76283.0,Indonesia,,,,-1.5197932,116.3208101,https://maps.google.com/?cid=0x0:0x2ed79b2b6ebc91b6,
komplek housing,Komplek perumahan,Dolina Bruddin Family,"F8MC+J72, Long Kali, Kec. Long Kali, Kabupaten Paser, Kalimantan Timur 76283","Long Kali, Kec. Long Kali, Kabupaten Paser",KALIMANTAN TIMUR,76283.0,Indonesia,,,,-1.5159809,116.3206303,https://maps.google.com/?cid=0x0:0x959da4cfb929225c,
komplek housing,Komplek perumahan,Isman Ishak,"RT 13, Long Kali, Kec. Long Kali, Kabupaten Paser, Kalimantan Timur 76283","Long Kali, Kec. Long Kali, Kabupaten Paser",KALIMANTAN TIMUR,76283.0,Indonesia,,,,-1.5182371,116.3287494,https://maps.google.com/?cid=0x0:0xb453e22ff5b5c038,
komplek housing,komplek housing,Rumah Pak Asrin,"Rumah warna abu-abu, Jln masuk gang smpn 1 No.RT10 desa, Long Kali, Paser Regency, East Kalimantan 76283","Jln masuk gang smpn 1 No.RT10 desa, Long Kali, Paser Regency",KALIMANTAN TIMUR,76283.0,Indonesia,,,,-1.5206802,116.3313988,https://maps.google.com/?cid=0x0:0xcecc269ece08b47a,
komplek housing,komplek housing,Kalimantan Timur 76253,"Kec. Muara Komam, Kabupaten Paser, Kalimantan Timur","Kabupaten Paser, Kalimantan Timur",KALIMANTAN TIMUR,,Indonesia,,,,-1.544033,115.8048521,https://maps.google.com/?cid=0x0:0x64a10c9684dc5b70,
komplek housing,Komplek perumahan,Armisyah  Sutrisno,"8R2C+96R Seberapa Booster, Batu Butok, Kec. Muara Komam, Kabupaten Paser, Kalimantan Timur 76253","Batu Butok, Kec. Muara Komam, Kabupaten Paser",KALIMANTAN TIMUR,76253.0,Indonesia,81345702475.0,,,-1.6990104,115.8205073,https://maps.google.com/?cid=0x0:0x71c3f2f9eb799777,
komplek housing,Komplek perumahan,Tanah,"7RQR+V4Q, Jl, RT.60/RW.No 43, Batu Butok, Kec. Muara Komam, Kabupaten Paser, Kalimantan Timur","Kabupaten Paser, Kalimantan Timur",KALIMANTAN TIMUR,,Indonesia,,,,-1.7102815,115.8403461,https://maps.google.com/?cid=0x0:0x2cafb2d6c6cbfc06,
komplek housing,Perumahan,Rumah ijak,"Jl. Tj. - Kuaro No.30, Muara Langon, Kec. Muara Komam, Kabupaten Paser, Kalimantan Timur 76253","Muara Langon, Kec. Muara Komam, Kabupaten Paser",KALIMANTAN TIMUR,76253.0,Indonesia,,,,-1.6867739,115.7081795,https://maps.google.com/?cid=0x0:0x5f06108eba75c853,
komplek housing,Inspektur Tempat Tinggal,Muhammad Suberi,"8RC9+337, Uko, Kec. Muara Komam, Kabupaten Paser, Kalimantan Timur 76253","Uko, Kec. Muara Komam, Kabupaten Paser",KALIMANTAN TIMUR,76253.0,Indonesia,,,,-1.6798725,115.8176241,https://maps.google.com/?cid=0x0:0xbfa3e97232c79d3a,
komplek housing,Pembangunan Perumahan,tulus,"8PXC+G9, muara langon, Kec. Muara Komam, Kabupaten Paser, Kalimantan Timur","Kabupaten Paser, Kalimantan Timur",KALIMANTAN TIMUR,,Indonesia,,,,-1.6501712,115.7203165,https://maps.google.com/?cid=0x0:0x6738bf906a518160,
komplek housing,Perumahan,Rumah Armidi,"8RGC+XQX, Uko, Kec. Muara Komam, Kabupaten Paser, Kalimantan Timur 76253","Uko, Kec. Muara Komam, Kabupaten Paser",KALIMANTAN TIMUR,76253.0,Indonesia,,,,-1.6726384,115.8224882,https://maps.google.com/?cid=0x0:0x2803a22c360a1a7e,
komplek housing,Komplek perumahan,rumah linda,"9P5C+8RR, Sekuan Makmur, Kec. Muara Komam, Kabupaten Paser, Kalimantan Timur","Kabupaten Paser, Kalimantan Timur",KALIMANTAN TIMUR,,Indonesia,,,,-1.6416366,115.7220148,https://maps.google.com/?cid=0x0:0x7330a78fb405e970,
komplek housing,Pembangunan Perumahan,Muara komam,"35XR+8WQ, Tanah Grogot, Kec. Tanah Grogot, Kabupaten Paser, Kalimantan Timur 76251","Tanah Grogot, Kec. Tanah Grogot, Kabupaten Paser",KALIMANTAN TIMUR,76251.0,Indonesia,82135533112.0,,,-1.9016559,116.1923632,https://maps.google.com/?cid=0x0:0xc15924b4247cba9b,
komplek housing,Komplek perumahan,Rumah cindi,"8PXC+G9, Sekuan Makmur, Kec. Muara Komam, Kabupaten Paser, Kalimantan Timur","Kabupaten Paser, Kalimantan Timur",KALIMANTAN TIMUR,,Indonesia,,,,-1.6511752,115.7209472,https://maps.google.com/?cid=0x0:0xf6e17aee142ee6b3,
komplek housing,Toko Perlengkapan Rumah,Ahibii,"8R28+5CP, Jl. Tj. - Kuaro, Batu Butok, Kec. Muara Komam, Kabupaten Paser, Kalimantan Timur 76253","Jl. Tj. - Kuaro, Batu Butok, Kec. Muara Komam, Kabupaten Paser",KALIMANTAN TIMUR,76253.0,Indonesia,,,,-1.699542,115.8160844,https://maps.google.com/?cid=0x0:0xc1f5908c87bd0365,
komplek housing,Pembangunan Perumahan,Rumah Naura,"Muara Komam, Kec. Muara Komam, Kabupaten Paser, Kalimantan Timur","Kabupaten Paser, Kalimantan Timur",KALIMANTAN TIMUR,,Indonesia,,,,-1.679453,115.8165266,https://maps.google.com/?cid=0x0:0x61ac7f92e0e0b43b,
komplek housing,Perhimpunan Pengembang Perumahan,Yumna selkar,"8RG3+3V, Muara Komam, Kec. Muara Komam, Kabupaten Paser, Kalimantan Timur","Kabupaten Paser, Kalimantan Timur",KALIMANTAN TIMUR,,Indonesia,,,,-1.6748599,115.8047749,https://maps.google.com/?cid=0x0:0xe89a55f2a4c24144,
komplek housing,Pembangunan Perumahan,Perumahan Griya Karet Indah Lestari,"8R98+XFW, Muara Komam, Kec. Muara Komam, Kabupaten Paser, Kalimantan Timur 76253","Muara Komam, Kec. Muara Komam, Kabupaten Paser",KALIMANTAN TIMUR,76253.0,Indonesia,,,,-1.679775,115.8167405,https://maps.google.com/?cid=0x0:0x5569ddc15ea4436d,
komplek housing,Rumah Kayu,Rumah Faqih,"GRG3+9WQ, Pelampitan, Kec. Muara Komam, Kabupaten Paser, Kalimantan Timur","Kabupaten Paser, Kalimantan Timur",KALIMANTAN TIMUR,,Indonesia,,,,-1.4740311,115.8048521,https://maps.google.com/?cid=0x0:0xb4d2ffe39f8174,
komplek housing,Pembangunan Perumahan,Rumah pak untung,"8R68+FQQ, Batu Butok, Kec. Muara Komam, Kabupaten Paser, Kalimantan Timur 76253","Batu Butok, Kec. Muara Komam, Kabupaten Paser",KALIMANTAN TIMUR,76253.0,Indonesia,,,,-1.688722,115.8170121,https://maps.google.com/?cid=0x0:0x6d154e315a108433,
komplek housing,Kompleks Townhouse,Wadah Ady ikeh,"8RF4+J5V Komplek, Silkar Indah, Muara Komam, Paser Regency, East Kalimantan","Kabupaten Paser, Kalimantan Timur",KALIMANTAN TIMUR,,Indonesia,,,,-1.6758818,115.8054142,https://maps.google.com/?cid=0x0:0x391ced5712ac18e1,
komplek housing,Pembangunan Perumahan,Desa Baras Jiring,"8RP9+GCJ, Muara Komam, Kec. Muara Komam, Kabupaten Paser, Kalimantan Timur 76253","Muara Komam, Kec. Muara Komam, Kabupaten Paser",KALIMANTAN TIMUR,76253.0,Indonesia,,,,-1.6661182,115.8182452,https://maps.google.com/?cid=0x0:0xb7a8569532679536,
komplek housing,komplek housing,Muara Komam,"Kec. Muara Komam, Kabupaten Paser, Kalimantan Timur","Kabupaten Paser, Kalimantan Timur",KALIMANTAN TIMUR,,Indonesia,,,,-1.7023389,115.7811869,https://maps.google.com/?cid=0x0:0xc088f4029db1ea63,
komplek housing,Komplek perumahan,Rumah ipin,"8P75+QQ, Muara Langon, Kec. Muara Komam, Kabupaten Paser, Kalimantan Timur","Kabupaten Paser, Kalimantan Timur",KALIMANTAN TIMUR,,Indonesia,,,,-1.6855731,115.7094267,https://maps.google.com/?cid=0x0:0xfc7984e175177433,
komplek housing,Komplek perumahan,Mama david,"GRG3+9WQ, Swan Slutung, Kec. Muara Komam, Kabupaten Paser, Kalimantan Timur","Kabupaten Paser, Kalimantan Timur",KALIMANTAN TIMUR,,Indonesia,,,,-1.4740311,115.8048521,https://maps.google.com/?cid=0x0:0xffdd393aec89f5f7,
komplek housing,komplek housing,Kec. Muara Komam,"Kabupaten Paser, Kalimantan Timur","Kabupaten Paser, Kalimantan Timur",KALIMANTAN TIMUR,,Indonesia,,,,-1.4740311,115.8048521,https://maps.google.com/?cid=0x0:0x2b20a9eda34de8e2,
komplek housing,komplek housing,Kalimantan Timur 76252,"Kabupaten Paser, Kalimantan Timur","Kabupaten Paser, Kalimantan Timur",KALIMANTAN TIMUR,,Indonesia,,,,-1.9651197,115.8994923,https://maps.google.com/?cid=0x0:0xd282220639c80aba,
komplek housing,Pembangunan Perumahan,Camp,"XWJQ+C2C, Rt,02, Muser, Kec. Muara Samu, Kabupaten Paser, Kalimantan Timur 76252","Rt,02, Muser, Kec. Muara Samu, Kabupaten Paser",KALIMANTAN TIMUR,76252.0,Indonesia,,,,-2.0191558,115.9369055,https://maps.google.com/?cid=0x0:0xd8977dbc6bd8a56c,
komplek housing,komplek housing,AEP,"5W8J+9X9, Jl. Tj. Raya, Batu Kajang, Kec. Batu Sopang, Kabupaten Paser, Kalimantan Timur 76252","Jl. Tj. Raya, Batu Kajang, Kec. Batu Sopang, Kabupaten Paser",KALIMANTAN TIMUR,76252.0,Indonesia,,,,-1.8343303,115.9322914,https://maps.google.com/?cid=0x0:0xee520508c698c783,
komplek housing,Perusahaan Konstruksi,WORKSHOP TRACK SECTION,"3VC5+8V7, Rantau Bintungan, Kec. Muara Samu, Kabupaten Paser, Kalimantan Timur 76252","Rantau Bintungan, Kec. Muara Samu, Kabupaten Paser",KALIMANTAN TIMUR,76252.0,Indonesia,,,,-1.9292159,115.8596826,https://maps.google.com/?cid=0x0:0xb37b280451ecb379,
komplek housing,Pembangunan Perumahan,Home sulha,"4WPJ+8Q2, Legai, Kec. Batu Sopang, Kabupaten Paser, Kalimantan Timur","Kabupaten Paser, Kalimantan Timur",KALIMANTAN TIMUR,,Indonesia,,,,-1.8642468,115.9318764,https://maps.google.com/?cid=0x0:0x9a47c5879652aa5e,
komplek housing,Komplek perumahan,Mess Wijaya Kusuma PT Petrosea,"5VCX+47C, Batu Kajang, Kec. Batu Sopang, Kabupaten Paser, Kalimantan Timur 76252","Batu Kajang, Kec. Batu Sopang, Kabupaten Paser",KALIMANTAN TIMUR,76252.0,Indonesia,,,,-1.8296974,115.898154,https://maps.google.com/?cid=0x0:0x96427c7f88ae1d2c,
komplek housing,Komplek perumahan,Perumahan Antika Puri,"5WF7+HMP, Unnamed Road, Batu Kajang, Batu Sopang, Paser Regency, East Kalimantan 76252","Unnamed Road, Batu Kajang, Batu Sopang, Paser Regency",KALIMANTAN TIMUR,76252.0,Indonesia,,,,-1.8260473,115.9141973,https://maps.google.com/?cid=0x0:0x9cf9b816c7a55ad,
komplek housing,Pembangunan Perumahan,Rumah Ma Lunge,"XWMM+CHP, Muser, Kec. Muara Samu, Kabupaten Paser, Kalimantan Timur 76252","Muser, Kec. Muara Samu, Kabupaten Paser",KALIMANTAN TIMUR,76252.0,Indonesia,,,,-2.0164114,115.9339524,https://maps.google.com/?cid=0x0:0xc9abf0f79616cd3e,
komplek housing,Komplek perumahan,Muezaa,"5VJW+6PR, Batu Kajang, Kec. Batu Sopang, Kabupaten Paser, Kalimantan Timur 76252","Batu Kajang, Kec. Batu Sopang, Kabupaten Paser",KALIMANTAN TIMUR,76252.0,Indonesia,,,,-1.8193842,115.896775,https://maps.google.com/?cid=0x0:0xaaac4dffd669e813,
komplek housing,Komplek perumahan,Kesha A,"2X35+QFP, Suweto, Kec. Muara Samu, Kabupaten Paser, Kalimantan Timur","Kabupaten Paser, Kalimantan Timur",KALIMANTAN TIMUR,,Indonesia,,,,-1.9955418,115.9587001,https://maps.google.com/?cid=0x0:0xdbc5f80b9df82cb7,
komplek housing,Vila,Messs,"5WG5+897, Gg Berdikari, Batu Kajang, Batu Sopang, Paser Regency, East Kalimantan 76252","Gg Berdikari, Batu Kajang, Batu Sopang, Paser Regency",KALIMANTAN TIMUR,76252.0,Indonesia,,,,-1.8242865,115.9084954,https://maps.google.com/?cid=0x0:0x6d37517a0f200d35,
komplek housing,komplek housing,Indra home,"5WF7+HMP, Batu Kajang, Kec. Batu Sopang, Kabupaten Paser, Kalimantan Timur 76252","Batu Kajang, Kec. Batu Sopang, Kabupaten Paser",KALIMANTAN TIMUR,76252.0,Indonesia,,,,-1.8279144,115.9138271,https://maps.google.com/?cid=0x0:0xfc24f32182adb95,
komplek housing,komplek housing,Abah utuh,"2WVJ+HC, Rantau Bintungan, Kec. Muara Samu, Kabupaten Paser, Kalimantan Timur","Kabupaten Paser, Kalimantan Timur",KALIMANTAN TIMUR,,Indonesia,,,,-1.95612,115.9310637,https://maps.google.com/?cid=0x0:0xc3d4b5f44d5cb60d,
komplek housing,Kantor Pemerintah,Desa Tanjung Pinang,"RWRF+JH, Tj. Pinang, Kec. Muara Samu, Kabupaten Paser, Kalimantan Timur","Kabupaten Paser, Kalimantan Timur",KALIMANTAN TIMUR,,Indonesia,,,,-2.1607339,115.9235102,https://maps.google.com/?cid=0x0:0xb8c30f0d2ec8ec47,
komplek housing,Pembangunan Perumahan,Amirudin,"XWJP+XJM, Muser, Kec. Muara Samu, Kabupaten Paser, Kalimantan Timur","Kabupaten Paser, Kalimantan Timur",KALIMANTAN TIMUR,,Indonesia,,,,-2.0176116,115.9365246,https://maps.google.com/?cid=0x0:0x47792ef4a8515135,
komplek housing,komplek housing,Kec. Muara Samu,"Kabupaten Paser, Kalimantan Timur","Kabupaten Paser, Kalimantan Timur",KALIMANTAN TIMUR,,Indonesia,,,,-2.0162877,115.9362,https://maps.google.com/?cid=0x0:0xeca20db11136243f,
komplek housing,Komplek perumahan,Rumah Azkiya,"XWMP+FFP, Muser, Kec. Muara Samu, Kabupaten Paser, Kalimantan Timur","Kabupaten Paser, Kalimantan Timur",KALIMANTAN TIMUR,,Indonesia,,,,-2.0162877,115.9362,https://maps.google.com/?cid=0x0:0x9ea95789ade10577,
komplek housing,Komplek perumahan,Rumahku,"5W96+2G4, Batu Kajang, Kec. Batu Sopang, Kabupaten Paser, Kalimantan Timur 76252","Batu Kajang, Kec. Batu Sopang, Kabupaten Paser",KALIMANTAN TIMUR,76252.0,Indonesia,,,,-1.8324751,115.91132,https://maps.google.com/?cid=0x0:0xd2f8e78bd11f1363,
komplek housing,komplek housing,Gang Futsal,"5VJV+6WX, Batu Kajang, Kec. Batu Sopang, Kabupaten Paser, Kalimantan Timur 76252","Batu Kajang, Kec. Batu Sopang, Kabupaten Paser",KALIMANTAN TIMUR,76252.0,Indonesia,,,,-1.8193862,115.8948605,https://maps.google.com/?cid=0x0:0x7bdc2d3987011d63,
komplek housing,Komplek perumahan,Ummu adiba azzahra,"Gg. Rambutan, Batu Kajang, Kec. Batu Sopang, Kabupaten Paser, Kalimantan Timur 76252","Batu Kajang, Kec. Batu Sopang, Kabupaten Paser",KALIMANTAN TIMUR,76252.0,Indonesia,,,,-1.8240847,115.9184766,https://maps.google.com/?cid=0x0:0xd34340acb402aad5,
komplek housing,komplek housing,Perumahan borneo,"5WC7+RGX, Batu Kajang, Kec. Batu Sopang, Kabupaten Paser, Kalimantan Timur 76252","Batu Kajang, Kec. Batu Sopang, Kabupaten Paser",KALIMANTAN TIMUR,76252.0,Indonesia,,,,-1.8278959,115.9138449,https://maps.google.com/?cid=0x0:0xa432714d4166513e,
komplek housing,Komplek perumahan,Dony Home,"5WG7+6CX, Batu Kajang, Kec. Batu Sopang, Kabupaten Paser, Kalimantan Timur 76252","Batu Kajang, Kec. Batu Sopang, Kabupaten Paser",KALIMANTAN TIMUR,76252.0,Indonesia,,,,-1.8243807,115.9136213,https://maps.google.com/?cid=0x0:0x463c9e10afcc970a,
komplek housing,Perhimpunan Pengembang Perumahan,Gang sawit,"5WC9+6R, Batu Kajang, Kec. Batu Sopang, Kabupaten Paser, Kalimantan Timur 76252","Batu Kajang, Kec. Batu Sopang, Kabupaten Paser",KALIMANTAN TIMUR,76252.0,Indonesia,,,,-1.8294414,115.9195437,https://maps.google.com/?cid=0x0:0x975a467076adcfb8,
komplek housing,Kantor Perusahaan,CAMP PT.KIDECO JAYA AGUNG,"Batu Kajang, Kec. Batu Sopang, Kabupaten Paser, Kalimantan Timur 76252","Kec. Batu Sopang, Kabupaten Paser",KALIMANTAN TIMUR,76252.0,Indonesia,,,,-1.8179124,115.9111322,https://maps.google.com/?cid=0x0:0xfbeb894b5aa4f52d,
komplek housing,Pembangunan Perumahan,Rumah Dila zenita,"Jalan serukutan, Batu Kajang, Kec. Batu Sopang, Kabupaten Paser, Kalimantan Timur 76252","Batu Kajang, Kec. Batu Sopang, Kabupaten Paser",KALIMANTAN TIMUR,76252.0,Indonesia,,,,-1.8351231,115.9296206,https://maps.google.com/?cid=0x0:0x96c96d0ece1855e8,
komplek housing,komplek housing,Pasir Belengkong,"Kec. Pasir Belengkong, Kabupaten Paser, Kalimantan Timur","Kabupaten Paser, Kalimantan Timur",KALIMANTAN TIMUR,,Indonesia,,,,-1.9689999,116.1950214,https://maps.google.com/?cid=0x0:0x6221fbd222a5cafb,
komplek housing,Komplek perumahan,Rumah Keny,"258Q+F6, Pasir Belengkong, Kec. Pasir Belengkong, Kabupaten Paser, Kalimantan Timur","Kabupaten Paser, Kalimantan Timur",KALIMANTAN TIMUR,,Indonesia,,,,-1.9834446,116.1878152,https://maps.google.com/?cid=0x0:0x7497c66b750cc5fe,
komplek housing,Pembangunan Perumahan,Indah,"Perumahan griya nusantara jl. Nusantara 4 no79, Sangkuriman, Kec. Pasir Belengkong, Kabupaten Paser, Kalimantan Timur 76251","Sangkuriman, Kec. Pasir Belengkong, Kabupaten Paser",KALIMANTAN TIMUR,76251.0,Indonesia,,,,-1.9278749,116.1845585,https://maps.google.com/?cid=0x0:0x972c29cec0e55189,
komplek housing,Komplek perumahan,Rumah azzam,"Jl. Sultan Adam No.16, Pasir Belengkong, Kec. Pasir Belengkong, Kabupaten Paser, Kalimantan Timur 76271","Pasir Belengkong, Kec. Pasir Belengkong, Kabupaten Paser",KALIMANTAN TIMUR,76271.0,Indonesia,,,,-1.9563948,116.2110732,https://maps.google.com/?cid=0x0:0x52eb678cf03c8d90,
komplek housing,Komplek perumahan,Rm duan,"25CQ+32J, Suatang Baru, Kec. Pasir Belengkong, Kabupaten Paser, Kalimantan Timur 76271","Suatang Baru, Kec. Pasir Belengkong, Kabupaten Paser",KALIMANTAN TIMUR,76271.0,Indonesia,,,,-1.9797762,116.1875117,https://maps.google.com/?cid=0x0:0xb4fbe2f9413fb2a0,
komplek housing,Komplek perumahan,Mas Joko Sawit,"Suliliran, Kec. Pasir Belengkong, Kabupaten Paser, Kalimantan Timur 76271","Kec. Pasir Belengkong, Kabupaten Paser",KALIMANTAN TIMUR,76271.0,Indonesia,,,,-1.9440581,116.2493004,https://maps.google.com/?cid=0x0:0xfb2cc31e8890b063,
komplek housing,Komplek perumahan,EFI LAUNDRY,"2762+9PH, Suliliran Baru, Kec. Pasir Belengkong, Kabupaten Paser, Kalimantan Timur 76271","Suliliran Baru, Kec. Pasir Belengkong, Kabupaten Paser",KALIMANTAN TIMUR,76271.0,Indonesia,,,,-1.9890531,116.2518649,https://maps.google.com/?cid=0x0:0x7b2e943bf6a97754,
komplek housing,Komplek perumahan,Ilmi,"3626+HJ7, Jl. Kesehatan, Pasir Belengkong, Kec. Pasir Belengkong, Kabupaten Paser, Kalimantan Timur 76271","Jl. Kesehatan, Pasir Belengkong, Kec. Pasir Belengkong, Kabupaten Paser",KALIMANTAN TIMUR,76271.0,Indonesia,,,,-1.9485955,116.2115376,https://maps.google.com/?cid=0x0:0x14bc49fa3296190b,
komplek housing,Komplek perumahan,ZalfaHome,"26QR+QPV, Jl. Transmigrasi, Suliliran, Kec. Pasir Belengkong, Kabupaten Paser, Kalimantan Timur 76271","Jl. Transmigrasi, Suliliran, Kec. Pasir Belengkong, Kabupaten Paser",KALIMANTAN TIMUR,76271.0,Indonesia,,,,-1.9604463,116.2418911,https://maps.google.com/?cid=0x0:0xe65295ee13ef7e64,
komplek housing,Komplek perumahan,Rumah Pak Junedi,"X5P9+VX7, Suatang, Kec. Pasir Belengkong, Kabupaten Paser, Kalimantan Timur 76271","Suatang, Kec. Pasir Belengkong, Kabupaten Paser",KALIMANTAN TIMUR,76271.0,Indonesia,,,,-2.0128395,116.1699238,https://maps.google.com/?cid=0x0:0x77f01e29f9bb1ce0,
komplek housing,Komplek perumahan,Mr. Hendrik's house,"X6GH+G2R, RT.02/RW.01, Seniung Jaya, Kec. Pasir Belengkong, Kabupaten Paser, Kalimantan Timur 76271","RT.02/RW.01, Seniung Jaya, Kec. Pasir Belengkong, Kabupaten Paser",KALIMANTAN TIMUR,76271.0,Indonesia,,,,-2.0236305,116.2275085,https://maps.google.com/?cid=0x0:0xb4af186e729e216b,
komplek housing,Gedung Apartemen,Rumah hanifa,"257H+GR9, Pasir Belengkong, Kec. Pasir Belengkong, Kabupaten Paser, Kalimantan Timur 76271","Pasir Belengkong, Kec. Pasir Belengkong, Kabupaten Paser",KALIMANTAN TIMUR,76271.0,Indonesia,,,,-1.9848369,116.1803901,https://maps.google.com/?cid=0x0:0xc2b2f4fcbd6d600e,
komplek housing,Komplek perumahan,Rumah pak jams,"255R+W7, Suatang Baru, Kec. Pasir Belengkong, Kabupaten Paser, Kalimantan Timur","Kabupaten Paser, Kalimantan Timur",KALIMANTAN TIMUR,,Indonesia,,,,-1.9902755,116.1902988,https://maps.google.com/?cid=0x0:0xfdb4afd56a1fc9d4,
komplek housing,Komplek perumahan,Rumah KAEY,"X6GH+349, Seniung Jaya, Kec. Pasir Belengkong, Kabupaten Paser, Kalimantan Timur 76271","Seniung Jaya, Kec. Pasir Belengkong, Kabupaten Paser",KALIMANTAN TIMUR,76271.0,Indonesia,,,,-2.0254602,116.2284383,https://maps.google.com/?cid=0x0:0xf1c6c4ded8ade487,
komplek housing,Perhimpunan Pengembang Perumahan,Riyunâ€™s house,"364X+XRG, Suliliran, Kec. Pasir Belengkong, Kabupaten Paser, Kalimantan Timur 76271","Suliliran, Kec. Pasir Belengkong, Kabupaten Paser",KALIMANTAN TIMUR,76271.0,Indonesia,,,,-1.9433487,116.2499378,https://maps.google.com/?cid=0x0:0xceab6160d13b63ee,
komplek housing,,AshadiyaTalita,"2733+HVJ, Suliliran Baru, Kec. Pasir Belengkong, Kabupaten Paser, Kalimantan Timur 76271","Suliliran Baru, Kec. Pasir Belengkong, Kabupaten Paser",KALIMANTAN TIMUR,76271.0,Indonesia,,,,-1.9960451,116.2546504,https://maps.google.com/?cid=0x0:0x3fbad2f6d4fa2a36,
komplek housing,Komplek perumahan,Rumah Indah Dian Sukma,"X6HG+45F, Seniung Jaya, Kec. Pasir Belengkong, Kabupaten Paser, Kalimantan Timur 76271","Seniung Jaya, Kec. Pasir Belengkong, Kabupaten Paser",KALIMANTAN TIMUR,76271.0,Indonesia,,,,-2.0221789,116.2254272,https://maps.google.com/?cid=0x0:0x9cf5376155f06f41,
komplek housing,Taman,Raziq fram,"266G+J7, Suliliran Baru, Kec. Pasir Belengkong, Kabupaten Paser, Kalimantan Timur","Kabupaten Paser, Kalimantan Timur",KALIMANTAN TIMUR,,Indonesia,,,,-1.9884291,116.225565,https://maps.google.com/?cid=0x0:0x46e137c226dab33f,
komplek housing,komplek housing,PTPN IV - REG V- AFD II - PANDAWA,"X5R3+2RP, Suatang, Kec. Pasir Belengkong, Kabupaten Paser, Kalimantan Timur 76271","Suatang, Kec. Pasir Belengkong, Kabupaten Paser",KALIMANTAN TIMUR,76271.0,Indonesia,,,,-2.0099152,116.1545849,https://maps.google.com/?cid=0x0:0x4403b0a166e59893,
komplek housing,Komplek perumahan,Tiara Dan Ahmad,"257H+GR9, Pasir Belengkong, Kec. Pasir Belengkong, Kabupaten Paser, Kalimantan Timur 76271","Pasir Belengkong, Kec. Pasir Belengkong, Kabupaten Paser",KALIMANTAN TIMUR,76271.0,Indonesia,,,,-1.9856793,116.180153,https://maps.google.com/?cid=0x0:0xed8e3cadf10f12cd,
komplek housing,Komplek perumahan,Mr. Rudolfus's house,"X6HC+38P, RT.03, Seniung Jaya, Kec. Pasir Belengkong, Kabupaten Paser, Kalimantan Timur 76271","RT.03, Seniung Jaya, Kec. Pasir Belengkong, Kabupaten Paser",KALIMANTAN TIMUR,76271.0,Indonesia,,,,-2.0215185,116.221911,https://maps.google.com/?cid=0x0:0xe7e50704a2577ef7,
komplek housing,Komplek perumahan,komplek perumahan karyawan suatang permai,"X5R7+P34, Jl. Jenderal Sudirman, Suatang, Kec. Pasir Belengkong, Kabupaten Paser, Kalimantan Timur 76271","Jl. Jenderal Sudirman, Suatang, Kec. Pasir Belengkong, Kabupaten Paser",KALIMANTAN TIMUR,76271.0,Indonesia,,,,-2.00823,116.1627106,https://maps.google.com/?cid=0x0:0x6cebeeba6e1c33e3,
komplek housing,Pembangunan Perumahan,Husnul hotimah,"X5HC+2HR, Suatang, Kec. Pasir Belengkong, Kabupaten Paser, Kalimantan Timur 76271","Suatang, Kec. Pasir Belengkong, Kabupaten Paser",KALIMANTAN TIMUR,76271.0,Indonesia,,,,-2.0223954,116.1713917,https://maps.google.com/?cid=0x0:0xa47bfebc5862bdf2,
komplek housing,Komplek perumahan,Rumah Raka,"364X+CJH, Suliliran, Kec. Pasir Belengkong, Kabupaten Paser, Kalimantan Timur 76271","Suliliran, Kec. Pasir Belengkong, Kabupaten Paser",KALIMANTAN TIMUR,76271.0,Indonesia,,,,-1.9440946,116.248018,https://maps.google.com/?cid=0x0:0x71d4aeb61e2c58ab,
komplek housing,Perhimpunan Pengembang Perumahan,Mess,"267R+MW6, Suliliran Baru, Kec. Pasir Belengkong, Kabupaten Paser, Kalimantan Timur 76271","Suliliran Baru, Kec. Pasir Belengkong, Kabupaten Paser",KALIMANTAN TIMUR,76271.0,Indonesia,,,,-1.985848,116.2422739,https://maps.google.com/?cid=0x0:0xb3b9dac7011ab2b2,
komplek housing,komplek housing,Rumah rishya,"25JV+9X3 cl 9 rt 22, Sp 2, Pasir Belengkong, Kec. Pasir Belengkong, Kabupaten Paser, Kalimantan Timur 76271","Sp 2, Pasir Belengkong, Kec. Pasir Belengkong, Kabupaten Paser",KALIMANTAN TIMUR,76271.0,Indonesia,,,,-1.9691054,116.1949085,https://maps.google.com/?cid=0x0:0xc0e6ee828b848338,
komplek housing,Komplek perumahan,Rumah alvi,"25CQ+8FH, Pasir Belengkong, Kec. Pasir Belengkong, Kabupaten Paser, Kalimantan Timur 76271","Pasir Belengkong, Kec. Pasir Belengkong, Kabupaten Paser",KALIMANTAN TIMUR,76271.0,Indonesia,,,,-1.9790013,116.1881481,https://maps.google.com/?cid=0x0:0x70d33c7f9e88875d,
komplek housing,Komplek perumahan,Rumah Nabila'Sopian,"X6G9+VW4, Seniung Jaya, Kec. Pasir Belengkong, Kabupaten Paser, Kalimantan Timur 76271","Seniung Jaya, Kec. Pasir Belengkong, Kabupaten Paser",KALIMANTAN TIMUR,76271.0,Indonesia,82154187684.0,,,-2.0228526,116.2198382,https://maps.google.com/?cid=0x0:0x25f5a54f9753893a,
komplek housing,komplek housing,Tanah Grogot,"Kec. Tanah Grogot, Kabupaten Paser, Kalimantan Timur","Kabupaten Paser, Kalimantan Timur",KALIMANTAN TIMUR,,Indonesia,,,,-1.9051173,116.1920678,https://maps.google.com/?cid=0x0:0xe7defc74bfa59860,
komplek housing,komplek housing,Kalimantan Timur 76251,"Kabupaten Paser, Kalimantan Timur","Kabupaten Paser, Kalimantan Timur",KALIMANTAN TIMUR,,Indonesia,,,,-1.8898443,116.1832068,https://maps.google.com/?cid=0x0:0xca69f8ee7df89d8f,
komplek housing,Pembangunan Perumahan,Perumahan Menara Platinum Regency 1,"Jalan Union Gapura Ungu, Jone, Kec. Tanah Grogot, Kabupaten Paser, Kalimantan Timur 76251","Jone, Kec. Tanah Grogot, Kabupaten Paser",KALIMANTAN TIMUR,76251.0,Indonesia,85784232468.0,,,-1.8826564,116.2089251,https://maps.google.com/?cid=0x0:0x7b627dbccedc01e1,
komplek housing,Otoritas Perumahan,Komplek Perumahan Rawa Sari,"452Q+547, Tanah Grogot, Kec. Tanah Grogot, Kabupaten Paser, Kalimantan Timur 76251","Tanah Grogot, Kec. Tanah Grogot, Kabupaten Paser",KALIMANTAN TIMUR,76251.0,Indonesia,,,,-1.899581,116.1877939,https://maps.google.com/?cid=0x0:0xd18819cac212a51c,
komplek housing,Perhimpunan Pengembang Perumahan,Ufaira Home,"Jl. Samsul Bahri Gg. Stadion, Tanah Grogot, Kec. Tanah Grogot, Kabupaten Paser, Kalimantan Timur 76251","Tanah Grogot, Kec. Tanah Grogot, Kabupaten Paser",KALIMANTAN TIMUR,76251.0,Indonesia,,,,-1.8873812,116.1904541,https://maps.google.com/?cid=0x0:0xe860393c0db8d57a,
komplek housing,Komplek perumahan,rumah gweh,"35RQ+C54, Tanah Grogot, Kec. Tanah Grogot, Kabupaten Paser, Kalimantan Timur 76251","Tanah Grogot, Kec. Tanah Grogot, Kabupaten Paser",KALIMANTAN TIMUR,76251.0,Indonesia,,,,-1.9083425,116.1882825,https://maps.google.com/?cid=0x0:0x57fad0265ea270ae,
komplek housing,Perumahan,Omah Oetiha,"Perum BTN Jone Indah Jl. Cempedak No.08 Blok K1, Jone, Tanah Grogot, Paser Regency, East Kalimantan 76251","Jone, Tanah Grogot, Paser Regency",KALIMANTAN TIMUR,76251.0,Indonesia,,,,-1.8981358,116.2042071,https://maps.google.com/?cid=0x0:0x3b864e159bca36a6,
komplek housing,Komplek perumahan,RUMAH NURUL HUDAYAH,"35HQ+QP5, Gg. Notokusumo, Tanah Grogot, Kec. Tanah Grogot, Kabupaten Paser, Kalimantan Timur 76251","Gg. Notokusumo, Tanah Grogot, Kec. Tanah Grogot, Kabupaten Paser",KALIMANTAN TIMUR,76251.0,Indonesia,,,,-1.9206192,116.1893495,https://maps.google.com/?cid=0x0:0x3c807cd09345a5f9,
komplek housing,komplek housing,Perumahan Jokowi,"45CW+V6V, Jl. DI. Panjaitan, Jone, Kec. Tanah Grogot, Kabupaten Paser, Kalimantan Timur 76251","Jl. DI. Panjaitan, Jone, Kec. Tanah Grogot, Kabupaten Paser",KALIMANTAN TIMUR,76251.0,Indonesia,,,,-1.8777587,116.1955432,https://maps.google.com/?cid=0x0:0xfa893472382eade5,
komplek housing,Pembangunan Perumahan,Rumah kesyod,"35MV+VPF, Tanah Grogot, Kec. Tanah Grogot, Kabupaten Paser, Kalimantan Timur 76251","Tanah Grogot, Kec. Tanah Grogot, Kabupaten Paser",KALIMANTAN TIMUR,76251.0,Indonesia,,,,-1.9153201,116.1943078,https://maps.google.com/?cid=0x0:0xa211cca316c0710e,
komplek housing,Komplek perumahan,Perumahan Nirmala,"457V+8RW, Jone, Kec. Tanah Grogot, Kabupaten Paser, Kalimantan Timur 76251","Jone, Kec. Tanah Grogot, Kabupaten Paser",KALIMANTAN TIMUR,76251.0,Indonesia,,,,-1.8866269,116.1945736,https://maps.google.com/?cid=0x0:0x3ecc55e2334393dd,
komplek housing,Komplek perumahan,Rumah salihin,"35MW+49Q, Tanah Grogot, Kec. Tanah Grogot, Kabupaten Paser, Kalimantan Timur 76251","Tanah Grogot, Kec. Tanah Grogot, Kabupaten Paser",KALIMANTAN TIMUR,76251.0,Indonesia,,,,-1.917416,116.1959336,https://maps.google.com/?cid=0x0:0x282cb387bab8c56b,
komplek housing,Pembangunan Perumahan,Kayani,"4639+275, Jone, Kec. Tanah Grogot, Kabupaten Paser, Kalimantan Timur 76251","Jone, Kec. Tanah Grogot, Kabupaten Paser",KALIMANTAN TIMUR,76251.0,Indonesia,,,,-1.8975315,116.2182413,https://maps.google.com/?cid=0x0:0x749bbd28fde81b01,
komplek housing,Komplek perumahan,Old house,"Gg. 50 No.83, Tanah Grogot, Kec. Tanah Grogot, Kabupaten Paser, Kalimantan Timur 76251","Tanah Grogot, Kec. Tanah Grogot, Kabupaten Paser",KALIMANTAN TIMUR,76251.0,Indonesia,,,,-1.9001844,116.190671,https://maps.google.com/?cid=0x0:0x2f066f5ef4d25011,
komplek housing,Perhimpunan Pengembang Perumahan,Perumahan Korpri,"452R+2H6, Tanah Grogot, Kec. Tanah Grogot, Kabupaten Paser, Kalimantan Timur 76251","Tanah Grogot, Kec. Tanah Grogot, Kabupaten Paser",KALIMANTAN TIMUR,76251.0,Indonesia,,,,-1.8999677,116.1913935,https://maps.google.com/?cid=0x0:0xe201883077595f4a,
komplek housing,Sekolah,I one,"Komplek Perumahan Korpri Tapis, Blok D3,No.07, Desa Tapis, Jone, Kec. Tanah Grogot, Kabupaten Paser, Kalimantan Timur 76251","Blok D3,No.07, Desa Tapis, Jone, Kec. Tanah Grogot, Kabupaten Paser",KALIMANTAN TIMUR,76251.0,Indonesia,,,,-1.8739043,116.2008309,https://maps.google.com/?cid=0x0:0xf65fe141f186765,
komplek housing,Gedung Apartemen,Tanah Grogot kab paser,"35VW+JV4, Jl. Jend. Ahmad Yani, Tanah Grogot, Kec. Tanah Grogot, Kabupaten Paser, Kalimantan Timur 76251","Jl. Jend. Ahmad Yani, Tanah Grogot, Kec. Tanah Grogot, Kabupaten Paser",KALIMANTAN TIMUR,76251.0,Indonesia,,,,-1.9059889,116.1971935,https://maps.google.com/?cid=0x0:0xe14eebc29049a2c,
komplek housing,Perumahan,Perumahan Hafiz,"Jl. Untung Suropati No.1, Jone, Kec. Tanah Grogot, Kabupaten Paser, Kalimantan Timur 76211","Jone, Kec. Tanah Grogot, Kabupaten Paser",KALIMANTAN TIMUR,76211.0,Indonesia,,,,-1.8816133,116.2076383,https://maps.google.com/?cid=0x0:0x29e2cca19c6a9fa5,
komplek housing,Pembangunan Perumahan,My homeðŸ’–,"Jl. Pangeran Mentri gang Korpri No.156, RT.3/RW.4, Tanah Grogot, Kec. Tanah Grogot, Kabupaten Paser, Kalimantan Timur 76251","RT.3/RW.4, Tanah Grogot, Kec. Tanah Grogot, Kabupaten Paser",KALIMANTAN TIMUR,76251.0,Indonesia,,,,-1.8974801,116.1906623,https://maps.google.com/?cid=0x0:0xec4105d487b5b61a,
komplek housing,Komplek perumahan,Rumah rima,"Gg. Al Ihsan No.31, Jone, Kec. Tanah Grogot, Kabupaten Paser, Kalimantan Timur 76251","Jone, Kec. Tanah Grogot, Kabupaten Paser",KALIMANTAN TIMUR,76251.0,Indonesia,,,,-1.9036613,116.2055898,https://maps.google.com/?cid=0x0:0x83d2ce71f6019d2,
komplek housing,Kompleks Kondominium,Ishak Mawardi,"35HW+JH8, Jl. Sultan Hasanuddin, Gang Partisipasi, Kec. Tanah Grogot, Kabupaten Paser, Kalimantan Timur 76251","Jl. Sultan Hasanuddin, Gang Partisipasi, Kec. Tanah Grogot, Kabupaten Paser",KALIMANTAN TIMUR,76251.0,Indonesia,,,,-1.9210447,116.1964667,https://maps.google.com/?cid=0x0:0xb8ad348e59af7c3e,
komplek housing,komplek housing,Kec. Tanah Grogot,"Kabupaten Paser, Kalimantan Timur","Kabupaten Paser, Kalimantan Timur",KALIMANTAN TIMUR,,Indonesia,,,,-1.9138212,116.1979718,https://maps.google.com/?cid=0x0:0xc3328b9836263e05,
komplek housing,Komplek perumahan,JJ  Jehan House,"4589+234, Sempulang, Kec. Tanah Grogot, Kabupaten Paser, Kalimantan Timur 76251","Sempulang, Kec. Tanah Grogot, Kabupaten Paser",KALIMANTAN TIMUR,76251.0,Indonesia,,,,-1.8849864,116.1676876,https://maps.google.com/?cid=0x0:0xd11965a948d13314,
komplek housing,komplek housing,Sweet Home,"4685+QVC, Jone, Kec. Tanah Grogot, Kabupaten Paser, Kalimantan Timur 76251","Jone, Kec. Tanah Grogot, Kabupaten Paser",KALIMANTAN TIMUR,76251.0,Indonesia,,,,-1.8830719,116.2096268,https://maps.google.com/?cid=0x0:0x764c0e6a67a40187,
komplek housing,komplek housing,Home1,"Jl. Kenari No.41, Jone, Kec. Tanah Grogot, Kabupaten Paser, Kalimantan Timur 76251","Jone, Kec. Tanah Grogot, Kabupaten Paser",KALIMANTAN TIMUR,76251.0,Indonesia,,,,-1.8824003,116.2104023,https://maps.google.com/?cid=0x0:0x773592feb181de43,
komplek housing,komplek housing,Rumah julak mutsi,"45QM+MJF GG sebelum posko brimob, Jl. Pelopor, Janju, Kec. Tanah Grogot, Kabupaten Paser, Kalimantan Timur 76251","Jl. Pelopor, Janju, Kec. Tanah Grogot, Kabupaten Paser",KALIMANTAN TIMUR,76251.0,Indonesia,,,,-1.8608099,116.1840433,https://maps.google.com/?cid=0x0:0x7b2dc3e1fff3ab2e,
komplek housing,Komplek perumahan,Rumah geteng,"35QQ+P6Q, Jl. Anggrek, Tanah Grogot, Kec. Tanah Grogot, Kabupaten Paser, Kalimantan Timur 76251","Jl. Anggrek, Tanah Grogot, Kec. Tanah Grogot, Kabupaten Paser",KALIMANTAN TIMUR,76251.0,Indonesia,,,,-1.9106517,116.1881231,https://maps.google.com/?cid=0x0:0xd871fd2a15734dcf,
komplek housing,komplek housing,Rumah Izham,"35RX+458, Jl. Kyai H. Ahmad Dahlan, Tanah Grogot, Kec. Tanah Grogot, Kabupaten Paser, Kalimantan Timur 76251","Jl. Kyai H. Ahmad Dahlan, Tanah Grogot, Kec. Tanah Grogot, Kabupaten Paser",KALIMANTAN TIMUR,76251.0,Indonesia,,,,-1.9097774,116.1979254,https://maps.google.com/?cid=0x0:0x3718d10e70be7e66,
komplek housing,Komplek perumahan,Rumah Mas Muji ( Nano ),"5526+44V, RT.007, Janju, Kec. Tanah Grogot, Kabupaten Paser, Kalimantan Timur 76251","RT.007, Janju, Kec. Tanah Grogot, Kabupaten Paser",KALIMANTAN TIMUR,76251.0,Indonesia,,,,-1.8496428,116.1603039,https://maps.google.com/?cid=0x0:0xe351b7b24613ed46,
komplek housing,komplek housing,Kec. Tj. Harapan,"Kabupaten Paser, Kalimantan Timur","Kabupaten Paser, Kalimantan Timur",KALIMANTAN TIMUR,,Indonesia,,,,-2.3314575,116.4464809,https://maps.google.com/?cid=0x0:0xc713b1fba97cb40c,
komplek housing,komplek housing,Tj. Harapan,"Kec. Samboja, Kabupaten Kutai Kartanegara, Kalimantan Timur","Kabupaten Kutai Kartanegara, Kalimantan Timur",KALIMANTAN TIMUR,,Indonesia,,,,-1.0492857,117.0852922,https://maps.google.com/?cid=0x0:0x7185dda30529f43a,
komplek housing,Komplek perumahan,Perum,"Jl. Pesona Anggrek Harapan No.11 blok F9, RT.06/RW.024, Harapan Jaya, Kec. Bekasi Utara, Kota Bks, Jawa Barat 17124","RT.06/RW.024, Harapan Jaya, Kec. Bekasi Utara, Kota Bks",KALIMANTAN TIMUR,17124.0,Indonesia,,,,-6.2079481,106.9984511,https://maps.google.com/?cid=0x0:0xce5036746c5ee07a,
komplek housing,Otoritas Perumahan,Perumahan villa gading harapan 3,"Villa Gading Harapan 3 blo c6, Kedungjaya, Kec. Babelan, Kabupaten Bekasi, Jawa Barat 17610","Kedungjaya, Kec. Babelan, Kabupaten Bekasi",KALIMANTAN TIMUR,17610.0,Indonesia,,,,-6.1421588,107.0197614,https://maps.google.com/?cid=0x0:0x478e390cafd8dd1d,
komplek housing,Pembangunan Perumahan,Perumahan Kota Serang Baru,"Jl. Apel VI No.9, Sukaragam, Kec. Serang Baru, Kabupaten Bekasi, Jawa Barat 17330","Sukaragam, Kec. Serang Baru, Kabupaten Bekasi",KALIMANTAN TIMUR,17330.0,Indonesia,,,,-6.3966303,107.1144077,https://maps.google.com/?cid=0x0:0x95158fcc56ffcc00,
komplek housing,Komplek perumahan,Grand Surya Estate,"Jl. Baru Underpass No.9, Duren Jaya, Kec. Bekasi Tim., Kota Bks, Jawa Barat 17111","Duren Jaya, Kec. Bekasi Tim., Kota Bks",KALIMANTAN TIMUR,17111.0,Indonesia,8128880910.0,,,-6.2267326,107.0277356,https://maps.google.com/?cid=0x0:0x219b7064010c0582,
komplek housing,Komplek perumahan,Perumahan Alamanda Regency,"BLOK B1, Jl. Perumahan Taman Alamanda, Karangsatria, Kec. Tambun Utara, Kabupaten Bekasi, Jawa Barat 17510","Jl. Perumahan Taman Alamanda, Karangsatria, Kec. Tambun Utara, Kabupaten Bekasi",KALIMANTAN TIMUR,17510.0,Indonesia,,,,-6.2201416,107.0446584,https://maps.google.com/?cid=0x0:0x7f30fe8df1022015,
komplek housing,Komplek perumahan,KERTAMUKTI SAKTI RESIDENCE,"Kp. Pisang Batu, RT.001/RW.003, Kertamukti, Kec. Cibitung, Kabupaten Bekasi, Jawa Barat 17520","RT.001/RW.003, Kertamukti, Kec. Cibitung, Kabupaten Bekasi",KALIMANTAN TIMUR,17520.0,Indonesia,,,,-6.22674,107.1195031,https://maps.google.com/?cid=0x0:0x1c764791eff06ddc,
komplek housing,komplek housing,Kec. Tj. Harapan,"Kabupaten Paser, Kalimantan Timur","Kabupaten Paser, Kalimantan Timur",KALIMANTAN TIMUR,,Indonesia,,,,-2.3314575,116.4464809,https://maps.google.com/?cid=0x0:0xc713b1fba97cb40c,
komplek housing,komplek housing,Tj. Harapan,"Kec. Samboja, Kabupaten Kutai Kartanegara, Kalimantan Timur","Kabupaten Kutai Kartanegara, Kalimantan Timur",KALIMANTAN TIMUR,,Indonesia,,,,-1.0492857,117.0852922,https://maps.google.com/?cid=0x0:0x7185dda30529f43a,
komplek housing,Komplek perumahan,Perum,"Jl. Pesona Anggrek Harapan No.11 blok F9, RT.06/RW.024, Harapan Jaya, Kec. Bekasi Utara, Kota Bks, Jawa Barat 17124","RT.06/RW.024, Harapan Jaya, Kec. Bekasi Utara, Kota Bks",KALIMANTAN TIMUR,17124.0,Indonesia,,,,-6.2079481,106.9984511,https://maps.google.com/?cid=0x0:0xce5036746c5ee07a,
komplek housing,Pembangunan Perumahan,Villa Tanjung Harapan,"3Q89+WVM, Unnamed Road, Suka Maju, Kec. Sako, Kota Palembang, Sumatera Selatan 30961","Unnamed Road, Suka Maju, Kec. Sako, Kota Palembang",KALIMANTAN TIMUR,30961.0,Indonesia,,,,-2.9326633,104.769678,https://maps.google.com/?cid=0x0:0x4e3497eaa94689f3,
komplek housing,Masjid,Tanjung harapan,"C7PW+79, Lubuk Gadang Tim., Kec. Sangir, Kabupaten Solok Selatan, Sumatera Barat","Kabupaten Solok Selatan, Sumatera Barat",KALIMANTAN TIMUR,,Indonesia,,,,-1.564306,101.295999,https://maps.google.com/?cid=0x0:0x9c47ace1a0651d87,
komplek housing,Otoritas Perumahan,Perum Villa Gading Harapan 1,"R26F+694, Jl. Sunan Ampel V, Bahagia, Kec. Babelan, Kabupaten Bekasi, Jawa Barat 17610","Jl. Sunan Ampel V, Bahagia, Kec. Babelan, Kabupaten Bekasi",KALIMANTAN TIMUR,17610.0,Indonesia,,,,-6.189493,107.0234626,https://maps.google.com/?cid=0x0:0x8b5ea036b5dd1626,
komplek housing,Komplek perumahan,Perum Villa Gading Harapan 1,"Jl. Raya Villa Gading Harapan Jl. Ujung Harapan No.23 Blok J15, Bahagia, Kec. Babelan, Kabupaten Bekasi, Jawa Barat 17610","Bahagia, Kec. Babelan, Kabupaten Bekasi",KALIMANTAN TIMUR,17610.0,Indonesia,,,,-6.1858184,107.028353,https://maps.google.com/?cid=0x0:0x8b33639d57bb71fb,
komplek housing,Pembangunan Perumahan,Perumahan Kota Serang Baru,"Jl. Apel VI No.9, Sukaragam, Kec. Serang Baru, Kabupaten Bekasi, Jawa Barat 17330","Sukaragam, Kec. Serang Baru, Kabupaten Bekasi",KALIMANTAN TIMUR,17330.0,Indonesia,,,,-6.3966303,107.1144077,https://maps.google.com/?cid=0x0:0x95158fcc56ffcc00,
komplek housing,Komplek perumahan,Grand Surya Estate,"Jl. Baru Underpass No.9, Duren Jaya, Kec. Bekasi Tim., Kota Bks, Jawa Barat 17111","Duren Jaya, Kec. Bekasi Tim., Kota Bks",KALIMANTAN TIMUR,17111.0,Indonesia,8128880910.0,,,-6.2267326,107.0277356,https://maps.google.com/?cid=0x0:0x219b7064010c0582,
komplek housing,Perhimpunan Pengembang Perumahan,Pondok Harapan,"JQWF+WFF, Tj. Raja Tim., Kec. Tj. Raja, Kabupaten Ogan Ilir, Sumatera Selatan 30661","Tj. Raja Tim., Kec. Tj. Raja, Kabupaten Ogan Ilir",KALIMANTAN TIMUR,30661.0,Indonesia,,,,-3.3526901,104.773684,https://maps.google.com/?cid=0x0:0x782e7273af65643a,
komplek housing,Komplek perumahan,Perumahan Alamanda Regency,"BLOK B1, Jl. Perumahan Taman Alamanda, Karangsatria, Kec. Tambun Utara, Kabupaten Bekasi, Jawa Barat 17510","Jl. Perumahan Taman Alamanda, Karangsatria, Kec. Tambun Utara, Kabupaten Bekasi",KALIMANTAN TIMUR,17510.0,Indonesia,,,,-6.2201416,107.0446584,https://maps.google.com/?cid=0x0:0x7f30fe8df1022015,
komplek housing,komplek housing,Kec. Tj. Harapan,"Kabupaten Paser, Kalimantan Timur","Kabupaten Paser, Kalimantan Timur",KALIMANTAN TIMUR,,Indonesia,,,,-2.3314575,116.4464809,https://maps.google.com/?cid=0x0:0xc713b1fba97cb40c,
komplek housing,komplek housing,Tj. Harapan,"Kec. Samboja, Kabupaten Kutai Kartanegara, Kalimantan Timur","Kabupaten Kutai Kartanegara, Kalimantan Timur",KALIMANTAN TIMUR,,Indonesia,,,,-1.0492857,117.0852922,https://maps.google.com/?cid=0x0:0x7185dda30529f43a,
komplek housing,Komplek perumahan,Perumahan Duta Harapan,"Jl. Raya Perjuangan No.31, RT.004/RW.008, Harapan Baru, Kec. Bekasi Utara, Kota Bks, Jawa Barat 17123","RT.004/RW.008, Harapan Baru, Kec. Bekasi Utara, Kota Bks",KALIMANTAN TIMUR,17123.0,Indonesia,,,,-6.2198481,107.0201588,https://maps.google.com/?cid=0x0:0xfdef8e948585962a,
komplek housing,Otoritas Perumahan,Komplek Tanjung Harapan Indah,"4P6P+93Q, Komplek Tanjung Harapan Indah, Jl. Tj. Api-Api, Kebun Bunga, Kec. Sukarami, Kab. Banyuasin, Sumatera Selatan 30961","Komplek Tanjung Harapan Indah, Jl. Tj. Api-Api, Kebun Bunga, Kec. Sukarami, Kab. Banyuasin",KALIMANTAN TIMUR,30961.0,Indonesia,81278809318.0,,,-2.8890263,104.7352318,https://maps.google.com/?cid=0x0:0xfa8592ff14114a05,
komplek housing,Restoran,Ujung Harapan Bekasi,"R25G+5W7, Jl. Gudang Bin Ali, Bahagia, Kec. Babelan, Kabupaten Bekasi, Jawa Barat 17610","Jl. Gudang Bin Ali, Bahagia, Kec. Babelan, Kabupaten Bekasi",KALIMANTAN TIMUR,17610.0,Indonesia,89654506920.0,,,-6.1920875,107.0273035,https://maps.google.com/?cid=0x0:0xf592b4c11aa556f4,
komplek housing,Komplek perumahan,Rumah Baru,"Jl. Raya Pabuaran No.RT.004/003, Jatiranggon, Kec. Jatisampurna, Kota Bks, Jawa Barat 17431","Jatiranggon, Kec. Jatisampurna, Kota Bks",KALIMANTAN TIMUR,17431.0,Indonesia,,,,-6.3371539,106.9380752,https://maps.google.com/?cid=0x0:0xdefc2cd8085bbc19,
komplek housing,Otoritas Perumahan,Vila Gading Harapan Gerbang Barat,"R26F+79H, Bahagia, Kec. Babelan, Kabupaten Bekasi, Jawa Barat 17610","Bahagia, Kec. Babelan, Kabupaten Bekasi",KALIMANTAN TIMUR,17610.0,Indonesia,,,,-6.1893028,107.0234697,https://maps.google.com/?cid=0x0:0xb9b3dc1ea74aa71f,
komplek housing,Komplek perumahan,Green Ara Residence,"Jl. Mutiara Gading City, Setia Asih, Kec. Tarumajaya, Kabupaten Bekasi, Jawa Barat 17215","Setia Asih, Kec. Tarumajaya, Kabupaten Bekasi",KALIMANTAN TIMUR,17215.0,Indonesia,,,,-6.1612998,107.0044724,https://maps.google.com/?cid=0x0:0x8c197d209979c675,
komplek housing,Komplek perumahan,pup,"Jl. Raya Pd. Ungu Permai No.18 Blok D15, RT.010/RW.013, Central Kaliabang, Bekasi Utara, Bekasi, West Java 17125","RT.010/RW.013, Central Kaliabang, Bekasi Utara, Bekasi",KALIMANTAN TIMUR,17125.0,Indonesia,,,,-6.1762225,107.0038022,https://maps.google.com/?cid=0x0:0x4a1831d058a910d7,
komplek housing,Pembangunan Perumahan,Perumahan Kota Serang Baru,"Jl. Apel VI No.9, Sukaragam, Kec. Serang Baru, Kabupaten Bekasi, Jawa Barat 17330","Sukaragam, Kec. Serang Baru, Kabupaten Bekasi",KALIMANTAN TIMUR,17330.0,Indonesia,,,,-6.3966303,107.1144077,https://maps.google.com/?cid=0x0:0x95158fcc56ffcc00,
komplek housing,Komplek perumahan,Grand Surya Estate,"Jl. Baru Underpass No.9, Duren Jaya, Kec. Bekasi Tim., Kota Bks, Jawa Barat 17111","Duren Jaya, Kec. Bekasi Tim., Kota Bks",KALIMANTAN TIMUR,17111.0,Indonesia,8128880910.0,,,-6.2267326,107.0277356,https://maps.google.com/?cid=0x0:0x219b7064010c0582,
komplek housing,komplek housing,Kec. Tj. Harapan,"Kabupaten Paser, Kalimantan Timur","Kabupaten Paser, Kalimantan Timur",KALIMANTAN TIMUR,,Indonesia,,,,-2.3314575,116.4464809,https://maps.google.com/?cid=0x0:0xc713b1fba97cb40c,
komplek housing,komplek housing,Tj. Harapan,"Kec. Samboja, Kabupaten Kutai Kartanegara, Kalimantan Timur","Kabupaten Kutai Kartanegara, Kalimantan Timur",KALIMANTAN TIMUR,,Indonesia,,,,-1.0492857,117.0852922,https://maps.google.com/?cid=0x0:0x7185dda30529f43a,
komplek housing,komplek housing,Kec. Tj. Harapan,"Kabupaten Paser, Kalimantan Timur","Kabupaten Paser, Kalimantan Timur",KALIMANTAN TIMUR,,Indonesia,,,,-2.3314575,116.4464809,https://maps.google.com/?cid=0x0:0xc713b1fba97cb40c,
komplek housing,komplek housing,Tj. Harapan,"Kec. Samboja, Kabupaten Kutai Kartanegara, Kalimantan Timur","Kabupaten Kutai Kartanegara, Kalimantan Timur",KALIMANTAN TIMUR,,Indonesia,,,,-1.0492857,117.0852922,https://maps.google.com/?cid=0x0:0x7185dda30529f43a,
komplek housing,komplek housing,Kec. Tj. Harapan,"Kabupaten Paser, Kalimantan Timur","Kabupaten Paser, Kalimantan Timur",KALIMANTAN TIMUR,,Indonesia,,,,-2.3314575,116.4464809,https://maps.google.com/?cid=0x0:0xc713b1fba97cb40c,
komplek housing,komplek housing,Tj. Harapan,"Kec. Samboja, Kabupaten Kutai Kartanegara, Kalimantan Timur","Kabupaten Kutai Kartanegara, Kalimantan Timur",KALIMANTAN TIMUR,,Indonesia,,,,-1.0492857,117.0852922,https://maps.google.com/?cid=0x0:0x7185dda30529f43a,
komplek housing,Komplek perumahan,Perumahan Duta Harapan,"Jl. Raya Perjuangan No.31, RT.004/RW.008, Harapan Baru, Kec. Bekasi Utara, Kota Bks, Jawa Barat 17123","RT.004/RW.008, Harapan Baru, Kec. Bekasi Utara, Kota Bks",KALIMANTAN TIMUR,17123.0,Indonesia,,,,-6.2198481,107.0201588,https://maps.google.com/?cid=0x0:0xfdef8e948585962a,
komplek housing,Otoritas Perumahan,Perum Villa Gading Harapan 1,"R26F+694, Jl. Sunan Ampel V, Bahagia, Kec. Babelan, Kabupaten Bekasi, Jawa Barat 17610","Jl. Sunan Ampel V, Bahagia, Kec. Babelan, Kabupaten Bekasi",KALIMANTAN TIMUR,17610.0,Indonesia,,,,-6.189493,107.0234626,https://maps.google.com/?cid=0x0:0x8b5ea036b5dd1626,
komplek housing,Komplek perumahan,Perum Villa Gading Harapan 1,"Jl. Raya Villa Gading Harapan Jl. Ujung Harapan No.23 Blok J15, Bahagia, Kec. Babelan, Kabupaten Bekasi, Jawa Barat 17610","Bahagia, Kec. Babelan, Kabupaten Bekasi",KALIMANTAN TIMUR,17610.0,Indonesia,,,,-6.1858184,107.028353,https://maps.google.com/?cid=0x0:0x8b33639d57bb71fb,
komplek housing,Otoritas Perumahan,Perumahan villa gading harapan 3,"Villa Gading Harapan 3 blo c6, Kedungjaya, Kec. Babelan, Kabupaten Bekasi, Jawa Barat 17610","Kedungjaya, Kec. Babelan, Kabupaten Bekasi",KALIMANTAN TIMUR,17610.0,Indonesia,,,,-6.1421588,107.0197614,https://maps.google.com/?cid=0x0:0x478e390cafd8dd1d,
komplek housing,Pembangunan Perumahan,Perumahan Tanjung Harapan Residence,"R9PH+RQ4, Tj. Selor Hilir, Kec. Tj. Selor, Kabupaten Bulungan, Kalimantan Utara","Kabupaten Bulungan, Kalimantan Utara",KALIMANTAN TIMUR,,Indonesia,,,,2.8370056,117.3794593,https://maps.google.com/?cid=0x0:0xbb5808c84bd94b64,
komplek housing,Komplek perumahan,Perumahan Alamanda Regency,"BLOK B1, Jl. Perumahan Taman Alamanda, Karangsatria, Kec. Tambun Utara, Kabupaten Bekasi, Jawa Barat 17510","Jl. Perumahan Taman Alamanda, Karangsatria, Kec. Tambun Utara, Kabupaten Bekasi",KALIMANTAN TIMUR,17510.0,Indonesia,,,,-6.2201416,107.0446584,https://maps.google.com/?cid=0x0:0x7f30fe8df1022015,
komplek housing,komplek housing,Kec. Tj. Harapan,"Kabupaten Paser, Kalimantan Timur","Kabupaten Paser, Kalimantan Timur",KALIMANTAN TIMUR,,Indonesia,,,,-2.3314575,116.4464809,https://maps.google.com/?cid=0x0:0xc713b1fba97cb40c,
komplek housing,Pembangunan Perumahan,Perumahan Staf PT MJA,"JG9G+2VF, Random, Kec. Tj. Harapan, Kabupaten Paser, Kalimantan Timur 76261","Random, Kec. Tj. Harapan, Kabupaten Paser",KALIMANTAN TIMUR,76261.0,Indonesia,,,,-2.3824374,116.5271575,https://maps.google.com/?cid=0x0:0x87a45f8091e24fc,
komplek housing,Agen Persewaan Rumah Peristirahatan,Rumah h.basran,"RCHX+4HJ, Selengot, Kec. Tj. Harapan, Kabupaten Paser, Kalimantan Timur 76261","Selengot, Kec. Tj. Harapan, Kabupaten Paser",KALIMANTAN TIMUR,76261.0,Indonesia,,,,-2.1721648,116.4488954,https://maps.google.com/?cid=0x0:0x20c624b1b8b0ae61,
komplek housing,Komplek perumahan,Rasid,"VFJV+279, Labuangkalo, Kec. Tj. Harapan, Kabupaten Paser, Kalimantan Timur 76261","Labuangkalo, Kec. Tj. Harapan, Kabupaten Paser",KALIMANTAN TIMUR,76261.0,Indonesia,,,,-2.1196735,116.4929191,https://maps.google.com/?cid=0x0:0x147ea05e70ce6446,
komplek housing,Pembangunan Perumahan,Rumah lammang,"VFHV+J7X, Labuangkalo, Kec. Tj. Harapan, Kabupaten Paser, Kalimantan Timur 76261","Labuangkalo, Kec. Tj. Harapan, Kabupaten Paser",KALIMANTAN TIMUR,76261.0,Indonesia,,,,-2.1211416,116.4937381,https://maps.google.com/?cid=0x0:0x4e986060bdbc5460,
komplek housing,Pemakaman,Rumah Pak Muslimin,"RHGM+FQ5, Tj. Aru, Kec. Tj. Harapan, Kabupaten Paser, Kalimantan Timur 76261","Tj. Aru, Kec. Tj. Harapan, Kabupaten Paser",KALIMANTAN TIMUR,76261.0,Indonesia,,,,-2.1733805,116.5839157,https://maps.google.com/?cid=0x0:0x4ce26a4d7876c16e,
komplek housing,komplek housing,AFDL 67 PT MJA,"PC5V+659, Keladen, Kec. Tj. Harapan, Kabupaten Paser, Kalimantan Timur 76261","Keladen, Kec. Tj. Harapan, Kabupaten Paser",KALIMANTAN TIMUR,76261.0,Indonesia,,,,-2.2919515,116.4429944,https://maps.google.com/?cid=0x0:0x24fbd7981e39bfb1,
komplek housing,Komplek perumahan,Dusun ipi,"QHM7+67R, Tj. Aru, Kec. Tj. Harapan, Kabupaten Paser, Kalimantan Timur 76261","Tj. Aru, Kec. Tj. Harapan, Kabupaten Paser",KALIMANTAN TIMUR,76261.0,Indonesia,,,,-2.2168818,116.5631403,https://maps.google.com/?cid=0x0:0x7350895310999f8e,
komplek housing,Komplek perumahan,Perumahan Staff PT. BIM,"X9GW+HQC, Laburan, Kec. Pasir Belengkong, Kabupaten Paser, Kalimantan Timur","Kabupaten Paser, Kalimantan Timur",KALIMANTAN TIMUR,,Indonesia,,,,-2.0235724,116.3968836,https://maps.google.com/?cid=0x0:0xdfa1d408afbe81c1,
komplek housing,Pembangunan Perumahan,Mess Tamu PT. MJA,"MG6V+4P, Random, Kec. Tj. Harapan, Kabupaten Paser, Kalimantan Timur","Kabupaten Paser, Kalimantan Timur",KALIMANTAN TIMUR,,Indonesia,,,,-2.3397123,116.5443105,https://maps.google.com/?cid=0x0:0xdd3d6c85d05c975c,
komplek housing,komplek housing,Perumahan BA,"X99J+F8, Laburan, Kec. Pasir Belengkong, Kabupaten Paser, Kalimantan Timur","Kabupaten Paser, Kalimantan Timur",KALIMANTAN TIMUR,,Indonesia,,,,-2.031274,116.380867,https://maps.google.com/?cid=0x0:0x4c188fd574feb620,
komplek housing,Pembangunan Perumahan,Afdeling 3 MJA,"JG89+XV, Random, Kec. Tj. Harapan, Kabupaten Paser, Kalimantan Timur","Kabupaten Paser, Kalimantan Timur",KALIMANTAN TIMUR,,Indonesia,,,,-2.3831158,116.5208452,https://maps.google.com/?cid=0x0:0x18453810df1293c9,
komplek housing,Komplek perumahan,Perumahan Pabrik PT. BIM,"X9FQ+XP5, Laburan, Kec. Pasir Belengkong, Kabupaten Paser, Kalimantan Timur","Kabupaten Paser, Kalimantan Timur",KALIMANTAN TIMUR,,Indonesia,,,,-2.0251127,116.38936,https://maps.google.com/?cid=0x0:0x6c6f21007e519b2a,
komplek housing,Komplek perumahan,muara adang,"W9HM+8HQ, Lori, Kec. Tj. Harapan, Kabupaten Paser, Kalimantan Timur","Kabupaten Paser, Kalimantan Timur",KALIMANTAN TIMUR,,Indonesia,,,,-2.0716666,116.3839765,https://maps.google.com/?cid=0x0:0x54eafe099976da02,
perumahan,perumahan,Kalimantan Timur 76261,"Kabupaten Paser, Kalimantan Timur","Kabupaten Paser, Kalimantan Timur",KALIMANTAN TIMUR,,Indonesia,,,,-2.2765227,116.3249438,https://maps.google.com/?cid=0x0:0x5de4285e897f4e53,
perumahan,Kantor Perusahaan,Perumahan PT.AIK,"Q883+486, Riwang, Kec. Batu Engau, Kabupaten Paser, Kalimantan Timur 76261","Riwang, Kec. Batu Engau, Kabupaten Paser",KALIMANTAN TIMUR,76261.0,Indonesia,,,,-2.2347225,116.3032751,https://maps.google.com/?cid=0x0:0x9a5ed4baa52734be,
perumahan,Komplek perumahan,Rumah ku,"R4WJ+WQ, Kerang, Kec. Batu Engau, Kabupaten Paser, Kalimantan Timur 76261","Kerang, Kec. Batu Engau, Kabupaten Paser",KALIMANTAN TIMUR,76261.0,Indonesia,,,,-2.1526875,116.1319375,https://maps.google.com/?cid=0x0:0xffc966c2e75eeccd,
perumahan,Kantor Pemerintah,Desa langgai,"R6WC+2QP, Langgai, Kec. Batu Engau, Kabupaten Paser, Kalimantan Timur 76261","Langgai, Kec. Batu Engau, Kabupaten Paser",KALIMANTAN TIMUR,76261.0,Indonesia,,,,-2.1549141,116.2219437,https://maps.google.com/?cid=0x0:0x65bba3895b43496f,
perumahan,Rumah Kayu,Rumah bilqis,"P597+9XF, Mengkudu, Kec. Batu Engau, Kabupaten Paser, Kalimantan Timur 76261","Mengkudu, Kec. Batu Engau, Kabupaten Paser",KALIMANTAN TIMUR,76261.0,Indonesia,,,,-2.2815704,116.1649335,https://maps.google.com/?cid=0x0:0xd26a129a314cd978,
perumahan,Komplek perumahan,rumah Ela,"Q3FG+8G3, Kerang, Kec. Batu Engau, Kabupaten Paser, Kalimantan Timur 76261","Kerang, Kec. Batu Engau, Kabupaten Paser",KALIMANTAN TIMUR,76261.0,Indonesia,,,,-2.2267486,116.0762902,https://maps.google.com/?cid=0x0:0x8dc92b72c502469e,
perumahan,Kompleks Kondominium,Segendang,"M9JQ+MG, Segendang, Kec. Batu Engau, Kabupaten Paser, Kalimantan Timur 76261","Segendang, Kec. Batu Engau, Kabupaten Paser",KALIMANTAN TIMUR,76261.0,Indonesia,,,,-2.3182962,116.3887853,https://maps.google.com/?cid=0x0:0x731ddcd85d5b2398,
perumahan,Toko Swalayan,Toko barokah,"P5F5+WFJ, Unnamed Road, Mengkudu, Kec. Batu Engau, Kabupaten Paser, Kalimantan Timur 76261","Unnamed Road, Mengkudu, Kec. Batu Engau, Kabupaten Paser",KALIMANTAN TIMUR,76261.0,Indonesia,,,,-2.275157,116.158656,https://maps.google.com/?cid=0x0:0x53a415783e41250c,
perumahan,Komplek perumahan,ARASIL HOME,"Q37H+PXX, Jl. Jenderal Sudirman, Kerang Dayo, Kec. Batu Engau, Kabupaten Paser, Kalimantan Timur 76261","Jl. Jenderal Sudirman, Kerang Dayo, Kec. Batu Engau, Kabupaten Paser",KALIMANTAN TIMUR,76261.0,Indonesia,85287546181.0,,,-2.2357151,116.0807152,https://maps.google.com/?cid=0x0:0x3039dbb8d3812865,
perumahan,Penginapan,Penajam,"Q8G2+GG8, Riwang, Kec. Batu Engau, Kabupaten Paser, Kalimantan Timur 76261","Riwang, Kec. Batu Engau, Kabupaten Paser",KALIMANTAN TIMUR,76261.0,Indonesia,,,,-2.2237119,116.3013267,https://maps.google.com/?cid=0x0:0xa81bb28e8405b099,
perumahan,Komplek perumahan,MTLE DIVISI 1,"R87Q+WF, Riwang, Kec. Batu Engau, Kabupaten Paser, Kalimantan Timur","Kabupaten Paser, Kalimantan Timur",KALIMANTAN TIMUR,,Indonesia,,,,-2.1851305,116.3386602,https://maps.google.com/?cid=0x0:0x2316f12ac13b7913,
perumahan,Perhimpunan Pengembang Perumahan,Perumah Han prediksi...i,"V7VF+QM, Langgai, Kec. Batu Engau, Kabupaten Paser, Kalimantan Timur","Kabupaten Paser, Kalimantan Timur",KALIMANTAN TIMUR,,Indonesia,,,,-2.1055625,116.2741875,https://maps.google.com/?cid=0x0:0x4a67c06309341f05,
perumahan,Pembangunan Perumahan,Perumahan MTBE 1,"R4WJ+R5, Kerang, Kec. Batu Engau, Kabupaten Paser, Kalimantan Timur","Kabupaten Paser, Kalimantan Timur",KALIMANTAN TIMUR,,Indonesia,,,,-2.1529811,116.1304765,https://maps.google.com/?cid=0x0:0xe3cbd951eb186296,
perumahan,perumahan,MUHAMMAD RIZKI,"rumah no 99, Jalan provinsi No.km. 37, RT.004/RW.000, Petangis, Kec. Batu Engau, Kabupaten Paser, Kalimantan Timur","Kabupaten Paser, Kalimantan Timur",KALIMANTAN TIMUR,,Indonesia,,,,-2.1114728,116.1011133,https://maps.google.com/?cid=0x0:0xac954e72b537ce95,
perumahan,Perumahan,Bungo burok,"Q33M+33Q, Unnamed Road, Tampakan, Kec. Batu Engau, Kabupaten Paser, Kalimantan Timur 76261","Unnamed Road, Tampakan, Kec. Batu Engau, Kabupaten Paser",KALIMANTAN TIMUR,76261.0,Indonesia,,,,-2.247295,116.082742,https://maps.google.com/?cid=0x0:0xa1113452cfaacf3,
perumahan,Komplek perumahan,Rumah Fuad,"Q3FG+84W, Kerang, Kec. Batu Engau, Kabupaten Paser, Kalimantan Timur 76261","Kerang, Kec. Batu Engau, Kabupaten Paser",KALIMANTAN TIMUR,76261.0,Indonesia,,,,-2.2269871,116.0755301,https://maps.google.com/?cid=0x0:0xac9292bb3078f66d,
perumahan,Pembangunan Perumahan,Divisi.H,"V7C7+3J, Langgai, Kec. Batu Engau, Kabupaten Paser, Kalimantan Timur","Kabupaten Paser, Kalimantan Timur",KALIMANTAN TIMUR,,Indonesia,,,,-2.1298125,116.2649375,https://maps.google.com/?cid=0x0:0x32ec740a90291469,
perumahan,Pembangunan Perumahan,Dusun lawas,"R63P+CF, Riwang, Kec. Batu Engau, Kabupaten Paser, Kalimantan Timur","Kabupaten Paser, Kalimantan Timur",KALIMANTAN TIMUR,,Indonesia,,,,-2.1964803,116.2361773,https://maps.google.com/?cid=0x0:0x369f62d2db5d74a1,
perumahan,Otoritas Perumahan,"Sekayu baru, kecamatan pamukan utara","M5RQ+48J, Mengkudu, Kec. Batu Engau, Kabupaten Paser, Kalimantan Timur 76261","Mengkudu, Kec. Batu Engau, Kabupaten Paser",KALIMANTAN TIMUR,76261.0,Indonesia,,,,-2.3096517,116.1882553,https://maps.google.com/?cid=0x0:0xa5b25a4142baed0c,
perumahan,Pembangunan Perumahan,PAK MANSUR,"P4R6+WQH, Tampakan, Kec. Batu Engau, Kabupaten Paser, Kalimantan Timur 76261","Tampakan, Kec. Batu Engau, Kabupaten Paser",KALIMANTAN TIMUR,76261.0,Indonesia,,,,-2.2576872,116.1119731,https://maps.google.com/?cid=0x0:0x52429a3b8cb9aecd,
perumahan,perumahan,Kalimantan Timur 76252,"Kabupaten Paser, Kalimantan Timur","Kabupaten Paser, Kalimantan Timur",KALIMANTAN TIMUR,,Indonesia,,,,-1.9651197,115.8994923,https://maps.google.com/?cid=0x0:0xd282220639c80aba,
perumahan,Komplek perumahan,Perumahan Antika Puri,"5WF7+HMP, Unnamed Road, Batu Kajang, Batu Sopang, Paser Regency, East Kalimantan 76252","Unnamed Road, Batu Kajang, Batu Sopang, Paser Regency",KALIMANTAN TIMUR,76252.0,Indonesia,,,,-1.8260473,115.9141973,https://maps.google.com/?cid=0x0:0x9cf9b816c7a55ad,
perumahan,Komplek perumahan,Perumahan Kaum Mesjid Besar Assalam,"5W9H+QR2, Batu Kajang, Kec. Batu Sopang, Kabupaten Paser, Kalimantan Timur 76252","Batu Kajang, Kec. Batu Sopang, Kabupaten Paser",KALIMANTAN TIMUR,76252.0,Indonesia,81346260490.0,,,-1.8301497,115.929333,https://maps.google.com/?cid=0x0:0x859f50ccea768f11,
perumahan,Otoritas Perumahan,Perumahan Alam Damai Batukajang,"5WG4+G8P, Batu Kajang, Kec. Batu Sopang, Kabupaten Paser, Kalimantan Timur 76252","Batu Kajang, Kec. Batu Sopang, Kabupaten Paser",KALIMANTAN TIMUR,76252.0,Indonesia,,,,-1.8236553,115.9058219,https://maps.google.com/?cid=0x0:0x462d00c1cbe35941,
perumahan,Komplek perumahan,Rumah,"5WJ4+MFP, Jl. Padang Malut, Batu Kajang, Kec. Batu Sopang, Kabupaten Paser, Kalimantan Timur 76252","Jl. Padang Malut, Batu Kajang, Kec. Batu Sopang, Kabupaten Paser",KALIMANTAN TIMUR,76252.0,Indonesia,,,,-1.8176384,115.9073374,https://maps.google.com/?cid=0x0:0x25062e4089bb3526,
perumahan,perumahan,Perumahan borneo,"5WC7+RGX, Batu Kajang, Kec. Batu Sopang, Kabupaten Paser, Kalimantan Timur 76252","Batu Kajang, Kec. Batu Sopang, Kabupaten Paser",KALIMANTAN TIMUR,76252.0,Indonesia,,,,-1.8278959,115.9138449,https://maps.google.com/?cid=0x0:0xa432714d4166513e,
perumahan,Pembangunan Perumahan,Shafira Hasnaa,"5WG4+9FJ, Batu Kajang, Kec. Batu Sopang, Kabupaten Paser, Kalimantan Timur 76252","Batu Kajang, Kec. Batu Sopang, Kabupaten Paser",KALIMANTAN TIMUR,76252.0,Indonesia,,,,-1.8242436,115.9063404,https://maps.google.com/?cid=0x0:0x89bacc7c871e8b6f,
perumahan,Komplek perumahan,Sembuting,"Jl. Sejahtera No.Rt 025, Batu Kajang, Kec. Batu Sopang, Kabupaten Paser, Kalimantan Timur 76252","Batu Kajang, Kec. Batu Sopang, Kabupaten Paser",KALIMANTAN TIMUR,76252.0,Indonesia,87721682015.0,,,-1.8170391,115.9066123,https://maps.google.com/?cid=0x0:0x2105ba48a6d8a007,
perumahan,Komplek perumahan,Rumah Nayara,"Perumahan Antika Puri Blok E No.01, Batu Kajang, Kec. Batu Sopang, Kabupaten Paser, Kalimantan Timur 76252","Batu Kajang, Kec. Batu Sopang, Kabupaten Paser",KALIMANTAN TIMUR,76252.0,Indonesia,,,,-1.8261547,115.9131945,https://maps.google.com/?cid=0x0:0x21394a97684fdacb,
perumahan,Kantor Perusahaan,Batu kajang,"5WJ6+FMW, Batu Kajang, Kec. Batu Sopang, Kabupaten Paser, Kalimantan Timur 76252","Batu Kajang, Kec. Batu Sopang, Kabupaten Paser",KALIMANTAN TIMUR,76252.0,Indonesia,,,,-1.8188591,115.9116376,https://maps.google.com/?cid=0x0:0xc2873e237e22ae83,
perumahan,Komplek perumahan,Gang Resmi,"5W6J+8PQ, Jl. Padat Karya, Batu Kajang, Kec. Batu Sopang, Kabupaten Paser, Kalimantan Timur 76252","Jl. Padat Karya, Batu Kajang, Kec. Batu Sopang, Kabupaten Paser",KALIMANTAN TIMUR,76252.0,Indonesia,,,,-1.8391618,115.931874,https://maps.google.com/?cid=0x0:0xb70727b751db0f3a,
perumahan,Komplek perumahan,batu sopang,"5W96+2G4, Batu Kajang, Kec. Batu Sopang, Kabupaten Paser, Kalimantan Timur 76252","Batu Kajang, Kec. Batu Sopang, Kabupaten Paser",KALIMANTAN TIMUR,76252.0,Indonesia,,,,-1.8324751,115.91132,https://maps.google.com/?cid=0x0:0x2e201a8398d8a60,
perumahan,Komplek perumahan,Rumah kaka sari,"5VGR+W4P, Batu Kajang, Kec. Batu Sopang, Kabupaten Paser, Kalimantan Timur 76252","Batu Kajang, Kec. Batu Sopang, Kabupaten Paser",KALIMANTAN TIMUR,76252.0,Indonesia,,,,-1.8219218,115.8908061,https://maps.google.com/?cid=0x0:0xea1205041c5acf6e,
perumahan,Komplek perumahan,Rumah irzan,"5WR9+CHX, Batu Kajang, Kec. Batu Sopang, Kabupaten Paser, Kalimantan Timur 76252","Batu Kajang, Kec. Batu Sopang, Kabupaten Paser",KALIMANTAN TIMUR,76252.0,Indonesia,,,,-1.8088766,115.9189869,https://maps.google.com/?cid=0x0:0xbf2150117a5291bc,
perumahan,Perhimpunan Pengembang Perumahan,Gang sawit,"5WC9+6R, Batu Kajang, Kec. Batu Sopang, Kabupaten Paser, Kalimantan Timur 76252","Batu Kajang, Kec. Batu Sopang, Kabupaten Paser",KALIMANTAN TIMUR,76252.0,Indonesia,,,,-1.8294414,115.9195437,https://maps.google.com/?cid=0x0:0x975a467076adcfb8,
perumahan,Komplek perumahan,Er'Salman,"5WCH+CMW, Jl. Desa Kasungai, Batu Kajang, Kec. Batu Sopang, Kabupaten Paser, Kalimantan Timur 76252","Jl. Desa Kasungai, Batu Kajang, Kec. Batu Sopang, Kabupaten Paser",KALIMANTAN TIMUR,76252.0,Indonesia,,,,-1.8288809,115.9292062,https://maps.google.com/?cid=0x0:0xae9ee4aab9730394,
perumahan,Komplek perumahan,Rumah Anang,"5VMV+2P4, Jl. Negara, Batu Kajang, Kec. Batu Sopang, Kabupaten Paser, Kalimantan Timur 76252","Jl. Negara, Batu Kajang, Kec. Batu Sopang, Kabupaten Paser",KALIMANTAN TIMUR,76252.0,Indonesia,,,,-1.8174967,115.894336,https://maps.google.com/?cid=0x0:0xa05507be457c8790,
perumahan,Pembangunan Perumahan,Desa Konoha,"5WH6+X86, Jl. Tj. - Kuaro, Batu Kajang, Kec. Batu Sopang, Kabupaten Paser, Kalimantan Timur 76252","Jl. Tj. - Kuaro, Batu Kajang, Kec. Batu Sopang, Kabupaten Paser",KALIMANTAN TIMUR,76252.0,Indonesia,,,,-1.820293,115.91036,https://maps.google.com/?cid=0x0:0x659825aa1db223ad,
perumahan,Komplek perumahan,Rumah Vina /Mm Adam,"5VJW+4XX, Batu Kajang, Kec. Batu Sopang, Kabupaten Paser, Kalimantan Timur 76252","Batu Kajang, Kec. Batu Sopang, Kabupaten Paser",KALIMANTAN TIMUR,76252.0,Indonesia,82255237667.0,,,-1.8196429,115.8974757,https://maps.google.com/?cid=0x0:0xbdf3e119bcabda3d,
perumahan,perumahan,AEP,"5W8J+9X9, Jl. Tj. Raya, Batu Kajang, Kec. Batu Sopang, Kabupaten Paser, Kalimantan Timur 76252","Jl. Tj. Raya, Batu Kajang, Kec. Batu Sopang, Kabupaten Paser",KALIMANTAN TIMUR,76252.0,Indonesia,,,,-1.8343303,115.9322914,https://maps.google.com/?cid=0x0:0xee520508c698c783,
perumahan,Pembangunan Perumahan,Rumah Dila zenita,"Jalan serukutan, Batu Kajang, Kec. Batu Sopang, Kabupaten Paser, Kalimantan Timur 76252","Batu Kajang, Kec. Batu Sopang, Kabupaten Paser",KALIMANTAN TIMUR,76252.0,Indonesia,,,,-1.8351231,115.9296206,https://maps.google.com/?cid=0x0:0x96c96d0ece1855e8,
perumahan,Pondok,Penginapan impian Batukajang,"Jl. Negara Mariga No.RT23 A, Batu Kajang, Kec. Batu Sopang, Kabupaten Paser, Kalimantan Timur 76252","Batu Kajang, Kec. Batu Sopang, Kabupaten Paser",KALIMANTAN TIMUR,76252.0,Indonesia,85349732873.0,,,-1.8227122,115.9161013,https://maps.google.com/?cid=0x0:0xd0a93109bdf3174a,
perumahan,Komplek perumahan,Female student dormitory,"Gg. Bola No.1, Batu Kajang, Batu Sopang, Paser Regency, East Kalimantan 76252","Batu Kajang, Batu Sopang, Paser Regency",KALIMANTAN TIMUR,76252.0,Indonesia,,,,-1.8295252,115.9215686,https://maps.google.com/?cid=0x0:0x3ae4983a27da825b,
perumahan,perumahan,Kuaro,"Kec. Kuaro, Kabupaten Paser, Kalimantan Timur","Kabupaten Paser, Kalimantan Timur",KALIMANTAN TIMUR,,Indonesia,,,,-1.8219574,116.0845478,https://maps.google.com/?cid=0x0:0x4540b1968c0129c9,
perumahan,Pembangunan Perumahan,Perumahan Pagi Pertama,"539R+482, Jl. Garuda, Kuaro, Kec. Kuaro, Kabupaten Paser, Kalimantan Timur 76281","Jl. Garuda, Kuaro, Kec. Kuaro, Kabupaten Paser",KALIMANTAN TIMUR,76281.0,Indonesia,81282924121.0,,,-1.8327238,116.0904965,https://maps.google.com/?cid=0x0:0x7320fcec98ce0576,
perumahan,Penginapan religi,Laundry khusus pakaian,"53GM+3FH, Kuaro, Kec. Kuaro, Kabupaten Paser, Kalimantan Timur 76281","Kuaro, Kec. Kuaro, Kabupaten Paser",KALIMANTAN TIMUR,76281.0,Indonesia,82159269688.0,,,-1.8233688,116.0814469,https://maps.google.com/?cid=0x0:0x6676a633e99b813e,
perumahan,Perumahan,Perumahan Pagi Pertama BTN,"539R+763, Jln Trans Kuaro Desa, Kuaro, Kelempang sari, Kabupaten Paser, Kalimantan Timur","Kabupaten Paser, Kalimantan Timur",KALIMANTAN TIMUR,,Indonesia,,,,-1.8318687,116.090543,https://maps.google.com/?cid=0x0:0xce2b98b6bce22cbf,
perumahan,Pembangunan Perumahan,Rumah PAK MAT,"5399+R8F, Jl. Tj. - Kuaro, Kuaro, Kec. Kuaro, Kabupaten Paser, Kalimantan Timur 76281","Jl. Tj. - Kuaro, Kuaro, Kec. Kuaro, Kabupaten Paser",KALIMANTAN TIMUR,76281.0,Indonesia,,,,-1.830925,116.067895,https://maps.google.com/?cid=0x0:0x13e92ca367e98bd1,
perumahan,Komplek perumahan,ndekan group,"53QM+JQH, Kuaro, Kec. Kuaro, Kabupaten Paser, Kalimantan Timur 76281","Kuaro, Kec. Kuaro, Kabupaten Paser",KALIMANTAN TIMUR,76281.0,Indonesia,85656292695.0,,,-1.8109425,116.0844991,https://maps.google.com/?cid=0x0:0x9dc8164cb20bc6d0,
perumahan,Pembangunan Perumahan,APA'AN,"42XX+8RF, Kuaro, Kec. Kuaro, Kabupaten Paser, Kalimantan Timur 76281","Kuaro, Kec. Kuaro, Kabupaten Paser",KALIMANTAN TIMUR,76281.0,Indonesia,,,,-1.8516933,116.0495603,https://maps.google.com/?cid=0x0:0xd8e8607caa5731be,
perumahan,Komplek perumahan,Rumah suryono,"6365+M84, Padang Jaya, Kec. Kuaro, Kabupaten Paser, Kalimantan Timur 76281","Padang Jaya, Kec. Kuaro, Kabupaten Paser",KALIMANTAN TIMUR,76281.0,Indonesia,,,,-1.7883291,116.0594489,https://maps.google.com/?cid=0x0:0xb8cec767f1efe4e5,
perumahan,Gedung Apartemen,Rumah keilan,"538W+GC4, Kuaro, Kec. Kuaro, Kabupaten Paser, Kalimantan Timur 76281","Kuaro, Kec. Kuaro, Kabupaten Paser",KALIMANTAN TIMUR,76281.0,Indonesia,,,,-1.8337468,116.0960627,https://maps.google.com/?cid=0x0:0x5d39b446ce187856,
perumahan,Perumahan,Franky Jaya Makmur,"53C9+VX2, Jl. Tj. - Kuaro, Kuaro, Kec. Kuaro, Kabupaten Paser, Kalimantan Timur 76281","Jl. Tj. - Kuaro, Kuaro, Kec. Kuaro, Kabupaten Paser",KALIMANTAN TIMUR,76281.0,Indonesia,,,,-1.8277869,116.0701184,https://maps.google.com/?cid=0x0:0x71d86eca79a04c89,
perumahan,perumahan,Dikur batu,"539J+GR4, Kuaro, Kec. Kuaro, Kabupaten Paser, Kalimantan Timur 76281","Kuaro, Kec. Kuaro, Kabupaten Paser",KALIMANTAN TIMUR,76281.0,Indonesia,,,,-1.8423125,116.1164375,https://maps.google.com/?cid=0x0:0x8e228df585b4063c,
perumahan,Pembangunan Perumahan,Keluarga cemara,"53HW+895, Jl. Yos Sudarso, Kuaro, Kec. Kuaro, Kabupaten Paser, Kalimantan Timur 76281","Jl. Yos Sudarso, Kuaro, Kec. Kuaro, Kabupaten Paser",KALIMANTAN TIMUR,76281.0,Indonesia,,,,-1.821738,116.095481,https://maps.google.com/?cid=0x0:0xe92202a5ae1022ae,
perumahan,Perhimpunan Pengembang Perumahan,Rumah SS,"Sei riye No.rt 15, Kuaro, Kec. Kuaro, Kabupaten Paser, Kalimantan Timur 76281","Kuaro, Kec. Kuaro, Kabupaten Paser",KALIMANTAN TIMUR,76281.0,Indonesia,,,,-1.8476134,116.0539159,https://maps.google.com/?cid=0x0:0x6c1673126b00daef,
perumahan,Komplek perumahan,Rumah Suriansyah 1,"53QM+PWM, Kuaro, Kec. Kuaro, Kabupaten Paser, Kalimantan Timur 76281","Kuaro, Kec. Kuaro, Kabupaten Paser",KALIMANTAN TIMUR,76281.0,Indonesia,,,,-1.8106359,116.0846873,https://maps.google.com/?cid=0x0:0x9441008f110f38cc,
perumahan,Komplek perumahan,Rumah mang Soleh,"6364+435, Padang Jaya, Kec. Kuaro, Kabupaten Paser, Kalimantan Timur 76281","Padang Jaya, Kec. Kuaro, Kabupaten Paser",KALIMANTAN TIMUR,76281.0,Indonesia,,,,-1.7897377,116.0552453,https://maps.google.com/?cid=0x0:0xbdbaaa5339425aeb,
perumahan,Komplek perumahan,Rian house,"53GM+3FH, Kuaro, Kec. Kuaro, Kabupaten Paser, Kalimantan Timur 76281","Kuaro, Kec. Kuaro, Kabupaten Paser",KALIMANTAN TIMUR,76281.0,Indonesia,,,,-1.822355,116.081376,https://maps.google.com/?cid=0x0:0x924e0cb3008c8d15,
perumahan,Penginapan religi,Rumah TEGAR_OKTA,"Jl. Jend. Sudirman No.21, RT.12, Kuaro, Kec. Kuaro, Kabupaten Paser, Kalimantan Timur 76281","RT.12, Kuaro, Kec. Kuaro, Kabupaten Paser",KALIMANTAN TIMUR,76281.0,Indonesia,,,,-1.8340273,116.0823188,https://maps.google.com/?cid=0x0:0x95450b5a3d94494d,
perumahan,,Rasyid,"Jl poros, Jl. Tj. - Kuaro Gang sayur No.rt 01","Kabupaten Paser, Kalimantan Timur",KALIMANTAN TIMUR,,Indonesia,,,,-1.8221901,116.0841009,https://maps.google.com/?cid=0x0:0xe7761993d63e89f2,
perumahan,Komplek perumahan,Gurame Paser,"Padang Jaya, Kec. Kuaro, Kabupaten Paser, Kalimantan Timur 76281","Kec. Kuaro, Kabupaten Paser",KALIMANTAN TIMUR,76281.0,Indonesia,85393318790.0,,,-1.7973904,116.0599525,https://maps.google.com/?cid=0x0:0xe083093101fe3156,
perumahan,Komplek perumahan,Rumah fatin,"53GH+5P4, Kuaro, Kec. Kuaro, Kabupaten Paser, Kalimantan Timur 76281","Kuaro, Kec. Kuaro, Kabupaten Paser",KALIMANTAN TIMUR,76281.0,Indonesia,,,,-1.824835,116.078689,https://maps.google.com/?cid=0x0:0xc7d3498567f71118,
perumahan,Pembangunan Perumahan,Pantai keke,"53HM+4JH, Kuaro, Kec. Kuaro, Kabupaten Paser, Kalimantan Timur","Kabupaten Paser, Kalimantan Timur",KALIMANTAN TIMUR,,Indonesia,,,,-1.8221901,116.0841009,https://maps.google.com/?cid=0x0:0xc98ad8c97205fc05,
perumahan,Komplek perumahan,Samsul/Miftahul,"44QC+3W, Lolo, Kec. Kuaro, Kabupaten Paser, Kalimantan Timur 76251","Lolo, Kec. Kuaro, Kabupaten Paser",KALIMANTAN TIMUR,76251.0,Indonesia,,,,-1.862614,116.122029,https://maps.google.com/?cid=0x0:0x4a6aea5f7d403b5f,
perumahan,Kantor Perusahaan,Mess,"53FG+HFW, Kuaro, Kec. Kuaro, Kabupaten Paser, Kalimantan Timur 76281","Kuaro, Kec. Kuaro, Kabupaten Paser",KALIMANTAN TIMUR,76281.0,Indonesia,,,,-1.8278085,116.0771612,https://maps.google.com/?cid=0x0:0x16875d09a2fb2f78,
perumahan,Komplek perumahan,Rumah H. SUSANTO,"53QM+7HJ, Jl. Penajam-Kuaro, Kuaro, Kec. Kuaro, Kabupaten Paser, Kalimantan Timur 76281","Jl. Penajam-Kuaro, Kuaro, Kec. Kuaro, Kabupaten Paser",KALIMANTAN TIMUR,76281.0,Indonesia,,,,-1.8116962,116.0839794,https://maps.google.com/?cid=0x0:0x9454b5b041bd557d,
perumahan,Pembangunan Perumahan,Rumah,"Jln wr supratman No.RT 06, Kendarom, Kec. Kuaro, Kabupaten Paser, Kalimantan Timur 76281","Kendarom, Kec. Kuaro, Kabupaten Paser",KALIMANTAN TIMUR,76281.0,Indonesia,,,,-1.7984637,116.1182168,https://maps.google.com/?cid=0x0:0xc05fa185a8ffb639,
perumahan,Pembangunan Perumahan,Fitriya,"642F+FMJ, Kendarom, Kec. Kuaro, Kabupaten Paser, Kalimantan Timur 76281","Kendarom, Kec. Kuaro, Kabupaten Paser",KALIMANTAN TIMUR,76281.0,Indonesia,,,,-1.7988182,116.1245626,https://maps.google.com/?cid=0x0:0xf42a00d87ab97cd1,
perumahan,perumahan,Kalimantan Timur 76282,"Kec. Long Ikis, Kabupaten Paser, Kalimantan Timur","Kabupaten Paser, Kalimantan Timur",KALIMANTAN TIMUR,,Indonesia,,,,-1.608975,116.1832068,https://maps.google.com/?cid=0x0:0xaaa31d28d64ea774,
perumahan,Pasar,PASAR RABU LONGIKIS,"C55V+C44, Long Ikis, Kec. Long Ikis, Kabupaten Paser, Kalimantan Timur 76282","Long Ikis, Kec. Long Ikis, Kabupaten Paser",KALIMANTAN TIMUR,76282.0,Indonesia,,,,-1.5914835,116.1928228,https://maps.google.com/?cid=0x0:0x9a04a051079dfffc,
perumahan,Perhimpunan Pengembang Perumahan,Simpang pait long Ikis,"C527+9WV, Jl. Pait, Lombok, Kec. Long Ikis, Kabupaten Paser, Kalimantan Timur 76282","Jl. Pait, Lombok, Kec. Long Ikis, Kabupaten Paser",KALIMANTAN TIMUR,76282.0,Indonesia,85752253087.0,,,-1.599021,116.1648044,https://maps.google.com/?cid=0x0:0xd9e812d283b81212,
perumahan,Komplek perumahan,Rumah indah long Ikis,"C6P2+CQQ, Olung, Kec. Long Ikis, Kabupaten Paser, Kalimantan Timur 76282","Olung, Kec. Long Ikis, Kabupaten Paser",KALIMANTAN TIMUR,76282.0,Indonesia,,,,-1.5632229,116.2008395,https://maps.google.com/?cid=0x0:0xbf8467599c818304,
perumahan,Komplek perumahan,Rumah bagas,"C5C4+MFC, Sawit Jaya, Kec. Long Ikis, Kabupaten Paser, Kalimantan Timur 76282","Sawit Jaya, Kec. Long Ikis, Kabupaten Paser",KALIMANTAN TIMUR,76282.0,Indonesia,,,,-1.5783105,116.156152,https://maps.google.com/?cid=0x0:0xb34c28552381e0a0,
perumahan,Perhimpunan Pengembang Perumahan,Rumah Anin,"C546+W3X, Lombok, Kec. Long Ikis, Kabupaten Paser, Kalimantan Timur 76282","Lombok, Kec. Long Ikis, Kabupaten Paser",KALIMANTAN TIMUR,76282.0,Indonesia,,,,-1.5926495,116.1602293,https://maps.google.com/?cid=0x0:0x81b018438850916b,
perumahan,perumahan,Rumah Jenna,"F44R+CP5, Sekurou Jaya, Kec. Long Ikis, Kabupaten Paser, Kalimantan Timur 76282","Sekurou Jaya, Kec. Long Ikis, Kabupaten Paser",KALIMANTAN TIMUR,76282.0,Indonesia,,,,-1.5439841,116.1418515,https://maps.google.com/?cid=0x0:0x46c6d6058fb8fec9,
perumahan,Komplek perumahan,Rumah Pak Tohari,"F567+389, Kerta Bhakti, Kec. Long Ikis, Kabupaten Paser, Kalimantan Timur 76282","Kerta Bhakti, Kec. Long Ikis, Kabupaten Paser",KALIMANTAN TIMUR,76282.0,Indonesia,,,,-1.5398468,116.1633678,https://maps.google.com/?cid=0x0:0x8d9cbd23ca244997,
perumahan,Komplek perumahan,Rumah saya,"C58X+PXR, Jl. Penajam-Kuaro, Long Ikis, Kec. Long Ikis, Kabupaten Paser, Kalimantan Timur 76282","Jl. Penajam-Kuaro, Long Ikis, Kec. Long Ikis, Kabupaten Paser",KALIMANTAN TIMUR,76282.0,Indonesia,,,,-1.5771666,116.2055029,https://maps.google.com/?cid=0x0:0xb849263adec61c8f,
perumahan,Komplek perumahan,Rumah Pait,"C575+63F, Sawit Jaya, Kec. Long Ikis, Kabupaten Paser, Kalimantan Timur 76282","Sawit Jaya, Kec. Long Ikis, Kabupaten Paser",KALIMANTAN TIMUR,76282.0,Indonesia,,,,-1.5869429,116.1576802,https://maps.google.com/?cid=0x0:0x9b3ebb2281f73f3e,
perumahan,Komplek perumahan,Rumah yusuf,"C594+6P, Sawit Jaya, Kec. Long Ikis, Kabupaten Paser, Kalimantan Timur","Kabupaten Paser, Kalimantan Timur",KALIMANTAN TIMUR,,Indonesia,,,,-1.581979,116.15733,https://maps.google.com/?cid=0x0:0x69fddcab51e530e4,
perumahan,Komplek perumahan,Andhita Indhirastiâ€™s House,"C674+X2H, Long Ikis, Kec. Long Ikis, Kabupaten Paser, Kalimantan Timur 76282","Long Ikis, Kec. Long Ikis, Kabupaten Paser",KALIMANTAN TIMUR,76282.0,Indonesia,,,,-1.5847551,116.2048092,https://maps.google.com/?cid=0x0:0x320874dc69d83296,
perumahan,perumahan,R Fadhan G,"F44R+CP5, Sekurou Jaya, Kec. Long Ikis, Kabupaten Paser, Kalimantan Timur 76282","Sekurou Jaya, Kec. Long Ikis, Kabupaten Paser",KALIMANTAN TIMUR,76282.0,Indonesia,,,,-1.5439841,116.1418515,https://maps.google.com/?cid=0x0:0xadd2bf3bd65c1c83,
perumahan,Komplek perumahan,Rumah reza,"F556+JC7, Kerta Bhakti, Kec. Long Ikis, Kabupaten Paser, Kalimantan Timur 76282","Kerta Bhakti, Kec. Long Ikis, Kabupaten Paser",KALIMANTAN TIMUR,76282.0,Indonesia,,,,-1.5402628,116.1614102,https://maps.google.com/?cid=0x0:0xa78ae771a022ac31,
perumahan,Komplek perumahan,"M,Iqbal firdaus","95HW+7FX, Tajur, Kec. Long Ikis, Kabupaten Paser, Kalimantan Timur 76282","Tajur, Kec. Long Ikis, Kabupaten Paser",KALIMANTAN TIMUR,76282.0,Indonesia,,,,-1.6217531,116.1962195,https://maps.google.com/?cid=0x0:0xa5501d2392bb6afe,
perumahan,Komplek perumahan,Rumah Irwan,"C52P+J8G, Tajur, Kec. Long Ikis, Kabupaten Paser, Kalimantan Timur 76282","Tajur, Kec. Long Ikis, Kabupaten Paser",KALIMANTAN TIMUR,76282.0,Indonesia,,,,-1.598444,116.1858149,https://maps.google.com/?cid=0x0:0x248ce36802c22c50,
perumahan,Komplek perumahan,PERUMAHAN TRITURA,"84HH+R5F, Samuntai, Kec. Long Ikis, Kabupaten Paser, Kalimantan Timur 76282","Samuntai, Kec. Long Ikis, Kabupaten Paser",KALIMANTAN TIMUR,76282.0,Indonesia,82148496650.0,,,-1.6704463,116.1279202,https://maps.google.com/?cid=0x0:0x7396e6bc62db1781,
perumahan,Perhimpunan Pengembang Perumahan,Citra Simpang Sentosa,"95XG+9H9, Tajur, Kec. Long Ikis, Kabupaten Paser, Kalimantan Timur 76282","Tajur, Kec. Long Ikis, Kabupaten Paser",KALIMANTAN TIMUR,76282.0,Indonesia,,,,-1.6015751,116.1764784,https://maps.google.com/?cid=0x0:0x1156ccec6bb3aea5,
perumahan,Perhimpunan Pengembang Perumahan,PAHRI. BUKU,"95WC+7JX, Jl. Veteran, Lombok, Kec. Long Ikis, Kabupaten Paser, Kalimantan Timur 76282","Jl. Veteran, Lombok, Kec. Long Ikis, Kabupaten Paser",KALIMANTAN TIMUR,76282.0,Indonesia,85251101023.0,,,-1.6042646,116.1716069,https://maps.google.com/?cid=0x0:0x9ee7c6fce9d518d,
perumahan,Komplek perumahan,Rumah nadira,"85V2+6J5, Samuntai, Kec. Long Ikis, Kabupaten Paser, Kalimantan Timur 76282","Samuntai, Kec. Long Ikis, Kabupaten Paser",KALIMANTAN TIMUR,76282.0,Indonesia,,,,-1.6559633,116.1509021,https://maps.google.com/?cid=0x0:0x647770b6431dc76a,
perumahan,Kantor Pemerintah,Rumah Jabatan Camat Long Kali,"Jln Negara Penajam-Long Kali KM 63, RT.013, Long Kali, Kec. Long Kali, Kabupaten Paser, Kalimantan Timur 76283","RT.013, Long Kali, Kec. Long Kali, Kabupaten Paser",KALIMANTAN TIMUR,76283.0,Indonesia,,,,-1.5192119,116.3287605,https://maps.google.com/?cid=0x0:0x83610a042825bc1,
perumahan,Kantor Pemerintah,Kantor Kecamatan Long Kali,"F7CX+WVR, Jl. Penajam-Kuaro, Long Kali, Kec. Long Kali, Kabupaten Paser, Kalimantan Timur 76283","Jl. Penajam-Kuaro, Long Kali, Kec. Long Kali, Kabupaten Paser",KALIMANTAN TIMUR,76283.0,Indonesia,,,,-1.5276371,116.2996305,https://maps.google.com/?cid=0x0:0xcd4b15dc6eccb52d,
perumahan,perumahan,Kalimantan Timur 76253,"Kec. Muara Komam, Kabupaten Paser, Kalimantan Timur","Kabupaten Paser, Kalimantan Timur",KALIMANTAN TIMUR,,Indonesia,,,,-1.544033,115.8048521,https://maps.google.com/?cid=0x0:0x64a10c9684dc5b70,
perumahan,Perhimpunan Pengembang Perumahan,Rumah Uliss,"Jl. Tj. - Kuaro No.16, Uko, Kec. Muara Komam, Kabupaten Paser, Kalimantan Timur 76253","Uko, Kec. Muara Komam, Kabupaten Paser",KALIMANTAN TIMUR,76253.0,Indonesia,,,,-1.6851712,115.8192924,https://maps.google.com/?cid=0x0:0x4dede2c5ab175e4d,
perumahan,Kantor Pemerintah,"Desa Prayon, Muara Komam","9RMJ+75, Muara Kuaro, Kec. Muara Komam, Kabupaten Paser, Kalimantan Timur","Kabupaten Paser, Kalimantan Timur",KALIMANTAN TIMUR,,Indonesia,,,,-1.6168228,115.8304956,https://maps.google.com/?cid=0x0:0x84f71113b9ba3ea6,
perumahan,Otoritas Perumahan,Simpang 3 bodrex,"8RC8+F24, Muara Komam, Kec. Muara Komam, Kabupaten Paser, Kalimantan Timur 76253","Muara Komam, Kec. Muara Komam, Kabupaten Paser",KALIMANTAN TIMUR,76253.0,Indonesia,,,,-1.6788663,115.8150662,https://maps.google.com/?cid=0x0:0x8f58fda4d0f9e0b8,
perumahan,Penginapan religi,Perumahan griya karet indah lestari,"GRG4+F26, Swan Slutung, Kec. Muara Komam, Kabupaten Paser, Kalimantan Timur 76253","Swan Slutung, Kec. Muara Komam, Kabupaten Paser",KALIMANTAN TIMUR,76253.0,Indonesia,,,,-1.4738437,115.8050273,https://maps.google.com/?cid=0x0:0xb8ad7d11e8a83748,
perumahan,Komplek perumahan,Armisyah  Sutrisno,"8R2C+96R Seberapa Booster, Batu Butok, Kec. Muara Komam, Kabupaten Paser, Kalimantan Timur 76253","Batu Butok, Kec. Muara Komam, Kabupaten Paser",KALIMANTAN TIMUR,76253.0,Indonesia,81345702475.0,,,-1.6990104,115.8205073,https://maps.google.com/?cid=0x0:0x71c3f2f9eb799777,
perumahan,Pembangunan Perumahan,Risma House,"7RQC+PQ4, Jl. Tj. - Kuaro, Muara Komam, Kec. Muara Komam, Kabupaten Paser, Kalimantan Timur 76253","Jl. Tj. - Kuaro, Muara Komam, Kec. Muara Komam, Kabupaten Paser",KALIMANTAN TIMUR,76253.0,Indonesia,,,,-1.7107063,115.822328,https://maps.google.com/?cid=0x0:0xfc7327c5b3bb6c12,
perumahan,Pembangunan Perumahan,Muara komam,"35XR+8WQ, Tanah Grogot, Kec. Tanah Grogot, Kabupaten Paser, Kalimantan Timur 76251","Tanah Grogot, Kec. Tanah Grogot, Kabupaten Paser",KALIMANTAN TIMUR,76251.0,Indonesia,82135533112.0,,,-1.9016559,116.1923632,https://maps.google.com/?cid=0x0:0xc15924b4247cba9b,
perumahan,Komplek perumahan,Azzam,"8RC9+337, Uko, Kec. Muara Komam, Kabupaten Paser, Kalimantan Timur 76253","Uko, Kec. Muara Komam, Kabupaten Paser",KALIMANTAN TIMUR,76253.0,Indonesia,,,,-1.6798315,115.817643,https://maps.google.com/?cid=0x0:0x914d69eebc93107c,
perumahan,Perumahan,Rumah Armidi,"8RGC+XQX, Uko, Kec. Muara Komam, Kabupaten Paser, Kalimantan Timur 76253","Uko, Kec. Muara Komam, Kabupaten Paser",KALIMANTAN TIMUR,76253.0,Indonesia,,,,-1.6726384,115.8224882,https://maps.google.com/?cid=0x0:0x2803a22c360a1a7e,
perumahan,Pembangunan Perumahan,Perumahan Griya Karet Indah Lestari,"8R98+XFW, Muara Komam, Kec. Muara Komam, Kabupaten Paser, Kalimantan Timur 76253","Muara Komam, Kec. Muara Komam, Kabupaten Paser",KALIMANTAN TIMUR,76253.0,Indonesia,,,,-1.679775,115.8167405,https://maps.google.com/?cid=0x0:0x5569ddc15ea4436d,
perumahan,Kantor Pemerintahan Daerah,uko,"8RF9+5QJ, Uko, Kec. Muara Komam, Kabupaten Paser, Kalimantan Timur 76253","Uko, Kec. Muara Komam, Kabupaten Paser",KALIMANTAN TIMUR,76253.0,Indonesia,,,,-1.6769987,115.8193973,https://maps.google.com/?cid=0x0:0xaeb227ba6649d939,
perumahan,Pembangunan Perumahan,tulus,"8PXC+G9, muara langon, Kec. Muara Komam, Kabupaten Paser, Kalimantan Timur","Kabupaten Paser, Kalimantan Timur",KALIMANTAN TIMUR,,Indonesia,,,,-1.6501712,115.7203165,https://maps.google.com/?cid=0x0:0x6738bf906a518160,
perumahan,Komplek perumahan,Kalimantan timur,"GRG3+9WQ, Swan Slutung, Kec. Muara Komam, Kabupaten Paser, Kalimantan Timur 76253","Swan Slutung, Kec. Muara Komam, Kabupaten Paser",KALIMANTAN TIMUR,76253.0,Indonesia,,,,-1.4740311,115.8048521,https://maps.google.com/?cid=0x0:0xdfad4a8b30bd20be,
perumahan,Perumahan,Rumah ijak,"Jl. Tj. - Kuaro No.30, Muara Langon, Kec. Muara Komam, Kabupaten Paser, Kalimantan Timur 76253","Muara Langon, Kec. Muara Komam, Kabupaten Paser",KALIMANTAN TIMUR,76253.0,Indonesia,,,,-1.6867739,115.7081795,https://maps.google.com/?cid=0x0:0x5f06108eba75c853,
perumahan,Komplek perumahan,Tanah,"7RQR+V4Q, Jl, RT.60/RW.No 43, Batu Butok, Kec. Muara Komam, Kabupaten Paser, Kalimantan Timur","Kabupaten Paser, Kalimantan Timur",KALIMANTAN TIMUR,,Indonesia,,,,-1.7102815,115.8403461,https://maps.google.com/?cid=0x0:0x2cafb2d6c6cbfc06,
perumahan,Perhimpunan Pengembang Perumahan,My ðŸ ,"8RG7+C45, Muara Komam, Kec. Muara Komam, Kabupaten Paser, Kalimantan Timur","Kabupaten Paser, Kalimantan Timur",KALIMANTAN TIMUR,,Indonesia,,,,-1.6739906,115.8128517,https://maps.google.com/?cid=0x0:0x1f9c878b976e4255,
perumahan,Pembangunan Perumahan,Rumah Naura,"Muara Komam, Kec. Muara Komam, Kabupaten Paser, Kalimantan Timur","Kabupaten Paser, Kalimantan Timur",KALIMANTAN TIMUR,,Indonesia,,,,-1.679453,115.8165266,https://maps.google.com/?cid=0x0:0x61ac7f92e0e0b43b,
perumahan,Komplek perumahan,Rumah cindi,"8PXC+G9, Sekuan Makmur, Kec. Muara Komam, Kabupaten Paser, Kalimantan Timur","Kabupaten Paser, Kalimantan Timur",KALIMANTAN TIMUR,,Indonesia,,,,-1.6511752,115.7209472,https://maps.google.com/?cid=0x0:0xf6e17aee142ee6b3,
perumahan,Komplek perumahan,Marcom 222,"8RF5+82C, Jl. Tj. - Kuaro, Muara Komam, Kec. Muara Komam, Kabupaten Paser, Kalimantan Timur 76253","Jl. Tj. - Kuaro, Muara Komam, Kec. Muara Komam, Kabupaten Paser",KALIMANTAN TIMUR,76253.0,Indonesia,,,,-1.676686,115.8074917,https://maps.google.com/?cid=0x0:0xa22db5da897620a,
perumahan,Toko Perlengkapan Rumah,Rumah Kado Muara Komam,"8RF4+6GW, Jl. Tj. - Kuaro, Muara Komam, Kec. Muara Komam, Kabupaten Paser, Kalimantan Timur 76253","Jl. Tj. - Kuaro, Muara Komam, Kec. Muara Komam, Kabupaten Paser",KALIMANTAN TIMUR,76253.0,Indonesia,,,,-1.6768829,115.8063332,https://maps.google.com/?cid=0x0:0x1558c83a9a3d84c5,
perumahan,Pembangunan Perumahan,Rumah Jainal Helmi,"8RF8+6X8, Unnamed Road, Muara Komam, Kec. Muara Komam, Kabupaten Paser, Kalimantan Timur 76253","Unnamed Road, Muara Komam, Kec. Muara Komam, Kabupaten Paser",KALIMANTAN TIMUR,76253.0,Indonesia,,,,-1.6769599,115.8174409,https://maps.google.com/?cid=0x0:0x73e3a41705eac90,
perumahan,Kantor Pemerintah,Puskesmas Muara Komam,"Jalan Negara No.KM. 171, Muara Komam, Kec. Muara Komam, Kabupaten Paser, Kalimantan Timur 76253","Muara Komam, Kec. Muara Komam, Kabupaten Paser",KALIMANTAN TIMUR,76253.0,Indonesia,,,,-1.6787797,115.8141375,https://maps.google.com/?cid=0x0:0x724cdfb8305c7ef5,
perumahan,Pembangunan Perumahan,Rumah pak untung,"8R68+FQQ, Batu Butok, Kec. Muara Komam, Kabupaten Paser, Kalimantan Timur 76253","Batu Butok, Kec. Muara Komam, Kabupaten Paser",KALIMANTAN TIMUR,76253.0,Indonesia,,,,-1.688722,115.8170121,https://maps.google.com/?cid=0x0:0x6d154e315a108433,
perumahan,Pembangunan Perumahan,Rumah Helmi efendi,"9PC8+VC, Sekuan Makmur, Kec. Muara Komam, Kabupaten Paser, Kalimantan Timur 76253","Sekuan Makmur, Kec. Muara Komam, Kabupaten Paser",KALIMANTAN TIMUR,76253.0,Indonesia,,,,-1.6278573,115.7160645,https://maps.google.com/?cid=0x0:0x249de5bb7c23eab4,
perumahan,Pembangunan Perumahan,Desa Baras Jiring,"8RP9+GCJ, Muara Komam, Kec. Muara Komam, Kabupaten Paser, Kalimantan Timur 76253","Muara Komam, Kec. Muara Komam, Kabupaten Paser",KALIMANTAN TIMUR,76253.0,Indonesia,,,,-1.6661182,115.8182452,https://maps.google.com/?cid=0x0:0xb7a8569532679536,
perumahan,perumahan,Kalimantan Timur 76252,"Kabupaten Paser, Kalimantan Timur","Kabupaten Paser, Kalimantan Timur",KALIMANTAN TIMUR,,Indonesia,,,,-1.9651197,115.8994923,https://maps.google.com/?cid=0x0:0xd282220639c80aba,
perumahan,Kantor Pemerintah,Muara samu,"Gang bunga 2 No.rt 04, Muser, Kec. Muara Samu, Kabupaten Paser, Kalimantan Timur","Kabupaten Paser, Kalimantan Timur",KALIMANTAN TIMUR,,Indonesia,,,,-2.0131383,115.9352317,https://maps.google.com/?cid=0x0:0xe625d9520ff7f790,
perumahan,perumahan,,,,KALIMANTAN TIMUR,,Indonesia,,,,,,https://maps.google.com/?cid=0x0:0xee520508c698c783,
perumahan,Pembangunan Perumahan,Camp,"XWJQ+C2C, Rt,02, Muser, Kec. Muara Samu, Kabupaten Paser, Kalimantan Timur 76252","Rt,02, Muser, Kec. Muara Samu, Kabupaten Paser",KALIMANTAN TIMUR,76252.0,Indonesia,,,,-2.0191558,115.9369055,https://maps.google.com/?cid=0x0:0xd8977dbc6bd8a56c,
perumahan,Komplek perumahan,Perumahan Kaum Mesjid Besar Assalam,"5W9H+QR2, Batu Kajang, Kec. Batu Sopang, Kabupaten Paser, Kalimantan Timur 76252","Batu Kajang, Kec. Batu Sopang, Kabupaten Paser",KALIMANTAN TIMUR,76252.0,Indonesia,81346260490.0,,,-1.8301497,115.929333,https://maps.google.com/?cid=0x0:0x859f50ccea768f11,
perumahan,Pembangunan Perumahan,Rumah Ma Lunge,"XWMM+CHP, Muser, Kec. Muara Samu, Kabupaten Paser, Kalimantan Timur 76252","Muser, Kec. Muara Samu, Kabupaten Paser",KALIMANTAN TIMUR,76252.0,Indonesia,,,,-2.0164114,115.9339524,https://maps.google.com/?cid=0x0:0xc9abf0f79616cd3e,
perumahan,Pembangunan Perumahan,Mastri Handayani Rantau Atas Muara Samu,"VW39+F6, Rantau Atas, Kec. Muara Samu, Kabupaten Paser, Kalimantan Timur","Kabupaten Paser, Kalimantan Timur",KALIMANTAN TIMUR,,Indonesia,,,,-2.1461083,115.9175933,https://maps.google.com/?cid=0x0:0xc0e6d003adee501d,
perumahan,Komplek perumahan,Perumahan G4 AFD lll,"VWGX+XPP, Rantau Atas, Kec. Muara Samu, Kabupaten Paser, Kalimantan Timur 76252","Rantau Atas, Kec. Muara Samu, Kabupaten Paser",KALIMANTAN TIMUR,76252.0,Indonesia,,,,-2.1230021,115.9493382,https://maps.google.com/?cid=0x0:0x2b38bebc51b7c9d2,
perumahan,Perhimpunan Pengembang Perumahan,Rumah Za'im,"WWCG+GR, Libur Dinding, Kec. Muara Samu, Kabupaten Paser, Kalimantan Timur 76252","Libur Dinding, Kec. Muara Samu, Kabupaten Paser",KALIMANTAN TIMUR,76252.0,Indonesia,,,,-2.07864,115.927039,https://maps.google.com/?cid=0x0:0x3917d3e03bfc20ff,
perumahan,Komplek perumahan,PERUMAHAN KIDECO BATU KAJANG,"5WJ6+H33, Batu Kajang, Kec. Batu Sopang, Kabupaten Paser, Kalimantan Timur 76252","Batu Kajang, Kec. Batu Sopang, Kabupaten Paser",KALIMANTAN TIMUR,76252.0,Indonesia,,,,-1.8186155,115.9101599,https://maps.google.com/?cid=0x0:0x1999d35a0f092a6,
perumahan,perumahan,Rumah kebun,"32P9+R6, Lempesu, Kec. Pasir Belengkong, Kabupaten Paser, Kalimantan Timur","Kabupaten Paser, Kalimantan Timur",KALIMANTAN TIMUR,,Indonesia,,,,-1.912945,116.018063,https://maps.google.com/?cid=0x0:0x999208719b176162,
perumahan,Pembangunan Perumahan,Muser,"46C7+R3, Muser, Kec. Muara Samu, Kabupaten Paser, Kalimantan Timur","Kabupaten Paser, Kalimantan Timur",KALIMANTAN TIMUR,,Indonesia,,,,-1.946268,115.9325104,https://maps.google.com/?cid=0x0:0x74e4079fd4e03ba4,
perumahan,Pusat Kesehatan Masyarakat,Puskesmas muara samu,"Muser, Kec. Muara Samu, Kabupaten Paser, Kalimantan Timur 76252","Kec. Muara Samu, Kabupaten Paser",KALIMANTAN TIMUR,76252.0,Indonesia,,,,-2.0125405,115.9380733,https://maps.google.com/?cid=0x0:0x5dae473ee8653033,
perumahan,perumahan,Rumah,"5W99+XPW, Gg. Sawit, Songka, Kec. Batu Sopang, Kabupaten Paser, Kalimantan Timur 76252","Gg. Sawit, Songka, Kec. Batu Sopang, Kabupaten Paser",KALIMANTAN TIMUR,76252.0,Indonesia,,,,-1.8300019,115.9193405,https://maps.google.com/?cid=0x0:0x16c66b3d5ba38dbd,
perumahan,Komplek perumahan,Rumah,"5WJ4+MFP, Jl. Padang Malut, Batu Kajang, Kec. Batu Sopang, Kabupaten Paser, Kalimantan Timur 76252","Jl. Padang Malut, Batu Kajang, Kec. Batu Sopang, Kabupaten Paser",KALIMANTAN TIMUR,76252.0,Indonesia,,,,-1.8176384,115.9073374,https://maps.google.com/?cid=0x0:0x25062e4089bb3526,
perumahan,Komplek perumahan,Rumah Azkiya,"XWMP+FFP, Muser, Kec. Muara Samu, Kabupaten Paser, Kalimantan Timur","Kabupaten Paser, Kalimantan Timur",KALIMANTAN TIMUR,,Indonesia,,,,-2.0162877,115.9362,https://maps.google.com/?cid=0x0:0x9ea95789ade10577,
perumahan,perumahan,Tanah Lisnawati,"2W7J+F9V, Biu, Kec. Muara Samu, Kabupaten Paser, Kalimantan Timur","Kabupaten Paser, Kalimantan Timur",KALIMANTAN TIMUR,,Indonesia,,,,-1.9862522,115.9309188,https://maps.google.com/?cid=0x0:0x3eff71797f41633c,
perumahan,Perhimpunan Pengembang Perumahan,Rumah mama dico,"3X2R+M8, Luan/Dilibinti, Kec. Muara Samu, Kabupaten Paser, Kalimantan Timur","Kabupaten Paser, Kalimantan Timur",KALIMANTAN TIMUR,,Indonesia,,,,-1.948371,115.990753,https://maps.google.com/?cid=0x0:0xb45a1ab2676d8c93,
perumahan,Pembangunan Perumahan,Tanah grogot,"XWMP+FFP, Muser, Kec. Muara Samu, Kabupaten Paser, Kalimantan Timur","Kabupaten Paser, Kalimantan Timur",KALIMANTAN TIMUR,,Indonesia,,,,-2.0162877,115.9362,https://maps.google.com/?cid=0x0:0xa35db25f878456db,
perumahan,Komplek perumahan,Rumah widya,"2XWP+J2H, Luan/Dilibinti, Kec. Muara Samu, Kabupaten Paser, Kalimantan Timur 76271","Luan/Dilibinti, Kec. Muara Samu, Kabupaten Paser",KALIMANTAN TIMUR,76271.0,Indonesia,,,,-1.9534431,115.9851129,https://maps.google.com/?cid=0x0:0xfb96c175e241e64,
perumahan,Kantor Pemerintah,Desa Tanjung Pinang,"RWRF+JH, Tj. Pinang, Kec. Muara Samu, Kabupaten Paser, Kalimantan Timur","Kabupaten Paser, Kalimantan Timur",KALIMANTAN TIMUR,,Indonesia,,,,-2.1607339,115.9235102,https://maps.google.com/?cid=0x0:0xb8c30f0d2ec8ec47,
perumahan,perumahan,Perumahan borneo,"5WC7+RGX, Batu Kajang, Kec. Batu Sopang, Kabupaten Paser, Kalimantan Timur 76252","Batu Kajang, Kec. Batu Sopang, Kabupaten Paser",KALIMANTAN TIMUR,76252.0,Indonesia,,,,-1.8278959,115.9138449,https://maps.google.com/?cid=0x0:0xa432714d4166513e,
perumahan,Komplek perumahan,Mess Wijaya Kusuma PT Petrosea,"5VCX+47C, Batu Kajang, Kec. Batu Sopang, Kabupaten Paser, Kalimantan Timur 76252","Batu Kajang, Kec. Batu Sopang, Kabupaten Paser",KALIMANTAN TIMUR,76252.0,Indonesia,,,,-1.8296974,115.898154,https://maps.google.com/?cid=0x0:0x96427c7f88ae1d2c,
perumahan,Komplek perumahan,Rumah Vina /Mm Adam,"5VJW+4XX, Batu Kajang, Kec. Batu Sopang, Kabupaten Paser, Kalimantan Timur 76252","Batu Kajang, Kec. Batu Sopang, Kabupaten Paser",KALIMANTAN TIMUR,76252.0,Indonesia,82255237667.0,,,-1.8196429,115.8974757,https://maps.google.com/?cid=0x0:0xbdf3e119bcabda3d,
perumahan,Komplek perumahan,Gang Resmi,"5W6J+8PQ, Jl. Padat Karya, Batu Kajang, Kec. Batu Sopang, Kabupaten Paser, Kalimantan Timur 76252","Jl. Padat Karya, Batu Kajang, Kec. Batu Sopang, Kabupaten Paser",KALIMANTAN TIMUR,76252.0,Indonesia,,,,-1.8391618,115.931874,https://maps.google.com/?cid=0x0:0xb70727b751db0f3a,
perumahan,perumahan,Pasir Belengkong,"Kec. Pasir Belengkong, Kabupaten Paser, Kalimantan Timur","Kabupaten Paser, Kalimantan Timur",KALIMANTAN TIMUR,,Indonesia,,,,-1.9689999,116.1950214,https://maps.google.com/?cid=0x0:0x6221fbd222a5cafb,
perumahan,Perhimpunan Pengembang Perumahan,Perum Griya Nusantara,"Sangkuriman, Kec. Pasir Belengkong, Kabupaten Paser, Kalimantan Timur 76251","Kec. Pasir Belengkong, Kabupaten Paser",KALIMANTAN TIMUR,76251.0,Indonesia,81350103810.0,,,-1.9284591,116.1844528,https://maps.google.com/?cid=0x0:0x1aeab47618be050e,
perumahan,perumahan,Syamsudin,"X6G9+RPW, Seniung Jaya, Kec. Pasir Belengkong, Kabupaten Paser, Kalimantan Timur 76271","Seniung Jaya, Kec. Pasir Belengkong, Kabupaten Paser",KALIMANTAN TIMUR,76271.0,Indonesia,,,,-2.0228949,116.2193136,https://maps.google.com/?cid=0x0:0xb377129dbe3bf95f,
perumahan,Komplek perumahan,Budiyantoâ€™s House,"X6GG+M8C, Seniung Jaya, Kec. Pasir Belengkong, Kabupaten Paser, Kalimantan Timur 76271","Seniung Jaya, Kec. Pasir Belengkong, Kabupaten Paser",KALIMANTAN TIMUR,76271.0,Indonesia,,,,-2.0230454,116.225011,https://maps.google.com/?cid=0x0:0xb2049c2a251f8fb1,
perumahan,Komplek perumahan,Rumah Keny,"258Q+F6, Pasir Belengkong, Kec. Pasir Belengkong, Kabupaten Paser, Kalimantan Timur","Kabupaten Paser, Kalimantan Timur",KALIMANTAN TIMUR,,Indonesia,,,,-1.9834446,116.1878152,https://maps.google.com/?cid=0x0:0x7497c66b750cc5fe,
perumahan,perumahan,Dimas motor,"255J+8RQ, Pasir Belengkong, Kec. Tanah Grogot, Kabupaten Paser, Kalimantan Timur","Kabupaten Paser, Kalimantan Timur",KALIMANTAN TIMUR,,Indonesia,,,,-1.9916637,116.1821218,https://maps.google.com/?cid=0x0:0xa9ec40eee286d71b,
perumahan,Komplek perumahan,Anansa Putri,"X6X8+GP, Pasir Belengkong, Kec. Pasir Belengkong, Kabupaten Paser, Kalimantan Timur 76271","Pasir Belengkong, Kec. Pasir Belengkong, Kabupaten Paser",KALIMANTAN TIMUR,76271.0,Indonesia,,,,-2.0012478,116.2168557,https://maps.google.com/?cid=0x0:0x6292061af92a30cf,
perumahan,Kamar Mandi Umum,Belebak/suliliran,"26VP+C6M, Suliliran Baru, Kec. Pasir Belengkong, Kabupaten Paser, Kalimantan Timur 76271","Suliliran Baru, Kec. Pasir Belengkong, Kabupaten Paser",KALIMANTAN TIMUR,76271.0,Indonesia,,,,-1.9564243,116.2355431,https://maps.google.com/?cid=0x0:0xf453eb3f2aebb97,
perumahan,perumahan,Spot gabus gacor,"3673+MHR, Tanah Periuk, Kec. Tanah Grogot, Kabupaten Paser, Kalimantan Timur 76251","Tanah Periuk, Kec. Tanah Grogot, Kabupaten Paser",KALIMANTAN TIMUR,76251.0,Indonesia,,,,-1.9357722,116.2038819,https://maps.google.com/?cid=0x0:0x442580d3dedc8420,
perumahan,Komplek perumahan,Mas Joko Sawit,"Suliliran, Kec. Pasir Belengkong, Kabupaten Paser, Kalimantan Timur 76271","Kec. Pasir Belengkong, Kabupaten Paser",KALIMANTAN TIMUR,76271.0,Indonesia,,,,-1.9440581,116.2493004,https://maps.google.com/?cid=0x0:0xfb2cc31e8890b063,
perumahan,Pembangunan Perumahan,Indah,"Perumahan griya nusantara jl. Nusantara 4 no79, Sangkuriman, Kec. Pasir Belengkong, Kabupaten Paser, Kalimantan Timur 76251","Sangkuriman, Kec. Pasir Belengkong, Kabupaten Paser",KALIMANTAN TIMUR,76251.0,Indonesia,,,,-1.9278749,116.1845585,https://maps.google.com/?cid=0x0:0x972c29cec0e55189,
perumahan,Komplek perumahan,Rumah Pak Junedi,"X5P9+VX7, Suatang, Kec. Pasir Belengkong, Kabupaten Paser, Kalimantan Timur 76271","Suatang, Kec. Pasir Belengkong, Kabupaten Paser",KALIMANTAN TIMUR,76271.0,Indonesia,,,,-2.0128395,116.1699238,https://maps.google.com/?cid=0x0:0x77f01e29f9bb1ce0,
perumahan,Komplek perumahan,Rm duan,"25CQ+32J, Suatang Baru, Kec. Pasir Belengkong, Kabupaten Paser, Kalimantan Timur 76271","Suatang Baru, Kec. Pasir Belengkong, Kabupaten Paser",KALIMANTAN TIMUR,76271.0,Indonesia,,,,-1.9797762,116.1875117,https://maps.google.com/?cid=0x0:0xb4fbe2f9413fb2a0,
perumahan,Pembangunan Perumahan,RUMAH KHOLID,"2745+546, Suliliran Baru, Kec. Pasir Belengkong, Kabupaten Paser, Kalimantan Timur 76271","Suliliran Baru, Kec. Pasir Belengkong, Kabupaten Paser",KALIMANTAN TIMUR,76271.0,Indonesia,,,,-1.995614,116.257367,https://maps.google.com/?cid=0x0:0xb63ec93b2726d414,
perumahan,Komplek perumahan,EFI LAUNDRY,"2762+9PH, Suliliran Baru, Kec. Pasir Belengkong, Kabupaten Paser, Kalimantan Timur 76271","Suliliran Baru, Kec. Pasir Belengkong, Kabupaten Paser",KALIMANTAN TIMUR,76271.0,Indonesia,,,,-1.9890531,116.2518649,https://maps.google.com/?cid=0x0:0x7b2e943bf6a97754,
perumahan,Perumahan,Rumah Slamet,"26VR+JRF, Suliliran, Kec. Pasir Belengkong, Kabupaten Paser, Kalimantan Timur 76271","Suliliran, Kec. Pasir Belengkong, Kabupaten Paser",KALIMANTAN TIMUR,76271.0,Indonesia,,,,-1.9559308,116.2420525,https://maps.google.com/?cid=0x0:0x3d3c04e1562d68f5,
perumahan,perumahan,PTPN IV - REG V- AFD II - PANDAWA,"X5R3+2RP, Suatang, Kec. Pasir Belengkong, Kabupaten Paser, Kalimantan Timur 76271","Suatang, Kec. Pasir Belengkong, Kabupaten Paser",KALIMANTAN TIMUR,76271.0,Indonesia,,,,-2.0099152,116.1545849,https://maps.google.com/?cid=0x0:0x4403b0a166e59893,
perumahan,Komplek perumahan,Ilmi,"3626+HJ7, Jl. Kesehatan, Pasir Belengkong, Kec. Pasir Belengkong, Kabupaten Paser, Kalimantan Timur 76271","Jl. Kesehatan, Pasir Belengkong, Kec. Pasir Belengkong, Kabupaten Paser",KALIMANTAN TIMUR,76271.0,Indonesia,,,,-1.9485955,116.2115376,https://maps.google.com/?cid=0x0:0x14bc49fa3296190b,
perumahan,Komplek perumahan,Rumah Raka,"364X+CJH, Suliliran, Kec. Pasir Belengkong, Kabupaten Paser, Kalimantan Timur 76271","Suliliran, Kec. Pasir Belengkong, Kabupaten Paser",KALIMANTAN TIMUR,76271.0,Indonesia,,,,-1.9440946,116.248018,https://maps.google.com/?cid=0x0:0x71d4aeb61e2c58ab,
perumahan,Komplek perumahan,Rumah alvi,"25CQ+8FH, Pasir Belengkong, Kec. Pasir Belengkong, Kabupaten Paser, Kalimantan Timur 76271","Pasir Belengkong, Kec. Pasir Belengkong, Kabupaten Paser",KALIMANTAN TIMUR,76271.0,Indonesia,,,,-1.9790013,116.1881481,https://maps.google.com/?cid=0x0:0x70d33c7f9e88875d,
perumahan,Perumahan,Ullo,"Suliliran Baru Blok B5 rt.13, Suliliran Baru, Kec. Pasir Belengkong, Kabupaten Paser, Kalimantan Timur 76271","Suliliran Baru, Kec. Pasir Belengkong, Kabupaten Paser",KALIMANTAN TIMUR,76271.0,Indonesia,,,,-1.991875,116.254763,https://maps.google.com/?cid=0x0:0x7e46fb4ea83df023,
perumahan,Komplek perumahan,Rumah KAEY,"X6GH+349, Seniung Jaya, Kec. Pasir Belengkong, Kabupaten Paser, Kalimantan Timur 76271","Seniung Jaya, Kec. Pasir Belengkong, Kabupaten Paser",KALIMANTAN TIMUR,76271.0,Indonesia,,,,-2.0254602,116.2284383,https://maps.google.com/?cid=0x0:0xf1c6c4ded8ade487,
perumahan,perumahan,Rumah rishya,"25JV+9X3 cl 9 rt 22, Sp 2, Pasir Belengkong, Kec. Pasir Belengkong, Kabupaten Paser, Kalimantan Timur 76271","Sp 2, Pasir Belengkong, Kec. Pasir Belengkong, Kabupaten Paser",KALIMANTAN TIMUR,76271.0,Indonesia,,,,-1.9691054,116.1949085,https://maps.google.com/?cid=0x0:0xc0e6ee828b848338,
perumahan,Gedung Apartemen,Rumah hanifa,"257H+GR9, Pasir Belengkong, Kec. Pasir Belengkong, Kabupaten Paser, Kalimantan Timur 76271","Pasir Belengkong, Kec. Pasir Belengkong, Kabupaten Paser",KALIMANTAN TIMUR,76271.0,Indonesia,,,,-1.9848369,116.1803901,https://maps.google.com/?cid=0x0:0xc2b2f4fcbd6d600e,
perumahan,Komplek perumahan,Rumah Nabila'Sopian,"X6G9+VW4, Seniung Jaya, Kec. Pasir Belengkong, Kabupaten Paser, Kalimantan Timur 76271","Seniung Jaya, Kec. Pasir Belengkong, Kabupaten Paser",KALIMANTAN TIMUR,76271.0,Indonesia,82154187684.0,,,-2.0228526,116.2198382,https://maps.google.com/?cid=0x0:0x25f5a54f9753893a,
perumahan,Pembangunan Perumahan,Perumahan Menara Platinum Regency 1,"Jalan Union Gapura Ungu, Jone, Kec. Tanah Grogot, Kabupaten Paser, Kalimantan Timur 76251","Jone, Kec. Tanah Grogot, Kabupaten Paser",KALIMANTAN TIMUR,76251.0,Indonesia,85784232468.0,,,-1.8826564,116.2089251,https://maps.google.com/?cid=0x0:0x7b627dbccedc01e1,
perumahan,Pembangunan Perumahan,Perumahan,"4676+PP8, Jone, Kec. Tanah Grogot, Kabupaten Paser, Kalimantan Timur 76251","Jone, Kec. Tanah Grogot, Kabupaten Paser",KALIMANTAN TIMUR,76251.0,Indonesia,,,,-1.8857097,116.2118295,https://maps.google.com/?cid=0x0:0x433359f06c874fc8,
perumahan,perumahan,Perumahan Jokowi,"45CW+V6V, Jl. DI. Panjaitan, Jone, Kec. Tanah Grogot, Kabupaten Paser, Kalimantan Timur 76251","Jl. DI. Panjaitan, Jone, Kec. Tanah Grogot, Kabupaten Paser",KALIMANTAN TIMUR,76251.0,Indonesia,,,,-1.8777587,116.1955432,https://maps.google.com/?cid=0x0:0xfa893472382eade5,
perumahan,Komplek perumahan,Perumahan Nirmala,"457V+8RW, Jone, Kec. Tanah Grogot, Kabupaten Paser, Kalimantan Timur 76251","Jone, Kec. Tanah Grogot, Kabupaten Paser",KALIMANTAN TIMUR,76251.0,Indonesia,,,,-1.8866269,116.1945736,https://maps.google.com/?cid=0x0:0x3ecc55e2334393dd,
perumahan,Perumahan,Perum Tapis lestari 3,"Tepian Batang, Kec. Tanah Grogot, Kabupaten Paser, Kalimantan Timur 76251","Kec. Tanah Grogot, Kabupaten Paser",KALIMANTAN TIMUR,76251.0,Indonesia,,,,-1.8662844,116.1895792,https://maps.google.com/?cid=0x0:0x7fa71b839fa006bb,
perumahan,Perumahan,Perumahan Hafiz,"Jl. Untung Suropati No.1, Jone, Kec. Tanah Grogot, Kabupaten Paser, Kalimantan Timur 76211","Jone, Kec. Tanah Grogot, Kabupaten Paser",KALIMANTAN TIMUR,76211.0,Indonesia,,,,-1.8816133,116.2076383,https://maps.google.com/?cid=0x0:0x29e2cca19c6a9fa5,
perumahan,perumahan,Perumahan Tapis Indah Regency,"Tapis, Perumahan Tapis Indah Regency Jl. DI. Panjaitan, Jone, Kec. Tanah Grogot, Kabupaten Paser, Kalimantan Timur 76251","Perumahan Tapis Indah Regency Jl. DI. Panjaitan, Jone, Kec. Tanah Grogot, Kabupaten Paser",KALIMANTAN TIMUR,76251.0,Indonesia,,,,-1.8787571,116.1958192,https://maps.google.com/?cid=0x0:0x6b9d8104e1cb54e3,
perumahan,Organisasi Nonprofit,MARKAS CABANG PMI KABUPATEN PASER,"35XP+WV6, Tanah Grogot, Kec. Tanah Grogot, Kabupaten Paser, Kalimantan Timur 76251","Tanah Grogot, Kec. Tanah Grogot, Kabupaten Paser",KALIMANTAN TIMUR,76251.0,Indonesia,,,,-1.9002122,116.1871318,https://maps.google.com/?cid=0x0:0x527148cc84f95684,
perumahan,Rumah Sakit,RSUD Panglima Sebaya,"45HH+3H8, Jl. Kusuma Bangsa, Tepian Batang, Kec. Tanah Grogot, Kabupaten Paser, Kalimantan Timur 76251","Jl. Kusuma Bangsa, Tepian Batang, Kec. Tanah Grogot, Kabupaten Paser",KALIMANTAN TIMUR,76251.0,Indonesia,54324563.0,,,-1.8723996,116.1789079,https://maps.google.com/?cid=0x0:0x81ed075ca2b2cfd2,
perumahan,Kantor Pemerintah,Pusat,"35HW+XH3, Tanah Grogot, Kec. Tanah Grogot, Kabupaten Paser, Kalimantan Timur 76251","Tanah Grogot, Kec. Tanah Grogot, Kabupaten Paser",KALIMANTAN TIMUR,76251.0,Indonesia,,,,-1.9200947,116.1964894,https://maps.google.com/?cid=0x0:0x252bc78bb6bce313,
perumahan,Komplek perumahan,Saung PUALAM Indonesia,"456R+JPX, Jl. DI. Panjaitan, Tanah Grogot, Kec. Tanah Grogot, Kabupaten Paser, Kalimantan Timur 76251","Jl. DI. Panjaitan, Tanah Grogot, Kec. Tanah Grogot, Kabupaten Paser",KALIMANTAN TIMUR,76251.0,Indonesia,,,,-1.8883967,116.1918702,https://maps.google.com/?cid=0x0:0x3eb15694f1b66ca5,
perumahan,Komplek perumahan,Perumahan Graha Nuna 1,"46F4+9X2, Jl. Untung Suropati, Jone, Kec. Tanah Grogot, Kabupaten Paser, Kalimantan Timur 76251","Jl. Untung Suropati, Jone, Kec. Tanah Grogot, Kabupaten Paser",KALIMANTAN TIMUR,76251.0,Indonesia,,,,-1.8766434,116.2073938,https://maps.google.com/?cid=0x0:0x2b5cfb2ba494321e,
perumahan,Otoritas Perumahan,Komplek Perumahan Rawa Sari,"452Q+547, Tanah Grogot, Kec. Tanah Grogot, Kabupaten Paser, Kalimantan Timur 76251","Tanah Grogot, Kec. Tanah Grogot, Kabupaten Paser",KALIMANTAN TIMUR,76251.0,Indonesia,,,,-1.899581,116.1877939,https://maps.google.com/?cid=0x0:0xd18819cac212a51c,
perumahan,Gedung Apartemen,Tanah Grogot kab paser,"35VW+JV4, Jl. Jend. Ahmad Yani, Tanah Grogot, Kec. Tanah Grogot, Kabupaten Paser, Kalimantan Timur 76251","Jl. Jend. Ahmad Yani, Tanah Grogot, Kec. Tanah Grogot, Kabupaten Paser",KALIMANTAN TIMUR,76251.0,Indonesia,,,,-1.9059889,116.1971935,https://maps.google.com/?cid=0x0:0xe14eebc29049a2c,
perumahan,Komplek perumahan,Perumahan Grand Abdi Karya,"Jl. Union No.rt.01, Jone, Kec. Tanah Grogot, Kabupaten Paser, Kalimantan Timur 76251","Jone, Kec. Tanah Grogot, Kabupaten Paser",KALIMANTAN TIMUR,76251.0,Indonesia,,,,-1.8819543,116.2097398,https://maps.google.com/?cid=0x0:0xea26bec3a5e18262,
perumahan,Komplek perumahan,Rumah geteng,"35QQ+P6Q, Jl. Anggrek, Tanah Grogot, Kec. Tanah Grogot, Kabupaten Paser, Kalimantan Timur 76251","Jl. Anggrek, Tanah Grogot, Kec. Tanah Grogot, Kabupaten Paser",KALIMANTAN TIMUR,76251.0,Indonesia,,,,-1.9106517,116.1881231,https://maps.google.com/?cid=0x0:0xd871fd2a15734dcf,
perumahan,Pembangunan Perumahan,Perumahan Embun Pagi,"Jone, Kec. Tanah Grogot, Kabupaten Paser, Kalimantan Timur 76251","Kec. Tanah Grogot, Kabupaten Paser",KALIMANTAN TIMUR,76251.0,Indonesia,,,,-1.8992261,116.2002334,https://maps.google.com/?cid=0x0:0xfaa95694cf12debd,
perumahan,Komplek perumahan,rumah gweh,"35RQ+C54, Tanah Grogot, Kec. Tanah Grogot, Kabupaten Paser, Kalimantan Timur 76251","Tanah Grogot, Kec. Tanah Grogot, Kabupaten Paser",KALIMANTAN TIMUR,76251.0,Indonesia,,,,-1.9083425,116.1882825,https://maps.google.com/?cid=0x0:0x57fad0265ea270ae,
perumahan,Kantor Pendaftaran Militer,Kompleks Asrama Kodim,"36R2+JCP, Tanah Grogot, Kec. Tanah Grogot, Kabupaten Paser, Kalimantan Timur 76251","Tanah Grogot, Kec. Tanah Grogot, Kabupaten Paser",KALIMANTAN TIMUR,76251.0,Indonesia,,,,-1.9084022,116.2010867,https://maps.google.com/?cid=0x0:0x8a8e0eea9a2fe6fc,
perumahan,Perhimpunan Pengembang Perumahan,Perumahan Korpri,"452R+2H6, Tanah Grogot, Kec. Tanah Grogot, Kabupaten Paser, Kalimantan Timur 76251","Tanah Grogot, Kec. Tanah Grogot, Kabupaten Paser",KALIMANTAN TIMUR,76251.0,Indonesia,,,,-1.8999677,116.1913935,https://maps.google.com/?cid=0x0:0xe201883077595f4a,
perumahan,Pembangunan Perumahan,Rumah kesyod,"35MV+VPF, Tanah Grogot, Kec. Tanah Grogot, Kabupaten Paser, Kalimantan Timur 76251","Tanah Grogot, Kec. Tanah Grogot, Kabupaten Paser",KALIMANTAN TIMUR,76251.0,Indonesia,,,,-1.9153201,116.1943078,https://maps.google.com/?cid=0x0:0xa211cca316c0710e,
perumahan,Komplek perumahan,Rumah salihin,"35MW+49Q, Tanah Grogot, Kec. Tanah Grogot, Kabupaten Paser, Kalimantan Timur 76251","Tanah Grogot, Kec. Tanah Grogot, Kabupaten Paser",KALIMANTAN TIMUR,76251.0,Indonesia,,,,-1.917416,116.1959336,https://maps.google.com/?cid=0x0:0x282cb387bab8c56b,
perumahan,Komplek perumahan,Rumah mertua,"35VX+VJC, Gg. Kartika, Tanah Grogot, Kec. Tanah Grogot, Kabupaten Paser, Kalimantan Timur 76251","Gg. Kartika, Tanah Grogot, Kec. Tanah Grogot, Kabupaten Paser",KALIMANTAN TIMUR,76251.0,Indonesia,,,,-1.9053227,116.1990117,https://maps.google.com/?cid=0x0:0x4ba2a7eb96f3353a,
perumahan,Komplek perumahan,Rumah Dinas Hakim PN Tanah Grogot,"35PR+59W, Jl. Rm. Noto Sunardi, Tanah Grogot, Kec. Tanah Grogot, Kabupaten Paser, Kalimantan Timur 76251","Jl. Rm. Noto Sunardi, Tanah Grogot, Kec. Tanah Grogot, Kabupaten Paser",KALIMANTAN TIMUR,76251.0,Indonesia,,,,-1.9145139,116.1909687,https://maps.google.com/?cid=0x0:0x7dd0b6d3717ddae1,
perumahan,Komplek perumahan,Rumah rima,"Gg. Al Ihsan No.31, Jone, Kec. Tanah Grogot, Kabupaten Paser, Kalimantan Timur 76251","Jone, Kec. Tanah Grogot, Kabupaten Paser",KALIMANTAN TIMUR,76251.0,Indonesia,,,,-1.9036613,116.2055898,https://maps.google.com/?cid=0x0:0x83d2ce71f6019d2,
perumahan,perumahan,Kalimantan Timur 76251,"Kabupaten Paser, Kalimantan Timur","Kabupaten Paser, Kalimantan Timur",KALIMANTAN TIMUR,,Indonesia,,,,-1.8898443,116.1832068,https://maps.google.com/?cid=0x0:0xca69f8ee7df89d8f,
perumahan,Komplek perumahan,Komplek Perumnas JONE 1,"4687+R5H, Jone, Kec. Tanah Grogot, Kabupaten Paser, Kalimantan Timur 76251","Jone, Kec. Tanah Grogot, Kabupaten Paser",KALIMANTAN TIMUR,76251.0,Indonesia,,,,-1.8829312,116.2129874,https://maps.google.com/?cid=0x0:0x3c2a16cc086197c9,
perumahan,Komplek perumahan,Rumah Abdul Rahman,"46M5+FJP, Jone, Kec. Tanah Grogot, Kabupaten Paser, Kalimantan Timur 76251","Jone, Kec. Tanah Grogot, Kabupaten Paser",KALIMANTAN TIMUR,76251.0,Indonesia,82354547353.0,,,-1.867731,116.209628,https://maps.google.com/?cid=0x0:0x2fd11b2ffc27a02b,
perumahan,perumahan,Rumah julak mutsi,"45QM+MJF GG sebelum posko brimob, Jl. Pelopor, Janju, Kec. Tanah Grogot, Kabupaten Paser, Kalimantan Timur 76251","Jl. Pelopor, Janju, Kec. Tanah Grogot, Kabupaten Paser",KALIMANTAN TIMUR,76251.0,Indonesia,,,,-1.8608099,116.1840433,https://maps.google.com/?cid=0x0:0x7b2dc3e1fff3ab2e,
perumahan,Pembangunan Perumahan,PT MULTI,"JFHF+JX8, Keladen, Kec. Tj. Harapan, Kabupaten Paser, Kalimantan Timur","Kabupaten Paser, Kalimantan Timur",KALIMANTAN TIMUR,,Indonesia,,,,-2.3709667,116.4749433,https://maps.google.com/?cid=0x0:0x7734c5e8942d3c5b,
perumahan,Dapur Umum,Desa tanjung aru,"QG3G+H6J, Tj. Aru, Kec. Tj. Harapan, Kabupaten Paser, Kalimantan Timur","Kabupaten Paser, Kalimantan Timur",KALIMANTAN TIMUR,,Indonesia,,,,-2.2460431,116.5255274,https://maps.google.com/?cid=0x0:0xac85d9b117f4bbc1,
perumahan,Agen Persewaan Rumah Peristirahatan,Rumah h.basran,"RCHX+4HJ, Selengot, Kec. Tj. Harapan, Kabupaten Paser, Kalimantan Timur 76261","Selengot, Kec. Tj. Harapan, Kabupaten Paser",KALIMANTAN TIMUR,76261.0,Indonesia,,,,-2.1721648,116.4488954,https://maps.google.com/?cid=0x0:0x20c624b1b8b0ae61,
perumahan,Komplek perumahan,AFD 4,"Afdelin 4, Random, Kec. Tj. Harapan, Kabupaten Paser, Kalimantan Timur 76260","Random, Kec. Tj. Harapan, Kabupaten Paser",KALIMANTAN TIMUR,76260.0,Indonesia,,,,-2.3695844,116.5118085,https://maps.google.com/?cid=0x0:0x392974963f301091,
perumahan,Pembangunan Perumahan,Divisi.H,"V7C7+3J, Langgai, Kec. Batu Engau, Kabupaten Paser, Kalimantan Timur","Kabupaten Paser, Kalimantan Timur",KALIMANTAN TIMUR,,Indonesia,,,,-2.1298125,116.2649375,https://maps.google.com/?cid=0x0:0x32ec740a90291469,
perumahan,Komplek perumahan,Rasid,"VFJV+279, Labuangkalo, Kec. Tj. Harapan, Kabupaten Paser, Kalimantan Timur 76261","Labuangkalo, Kec. Tj. Harapan, Kabupaten Paser",KALIMANTAN TIMUR,76261.0,Indonesia,,,,-2.1196735,116.4929191,https://maps.google.com/?cid=0x0:0x147ea05e70ce6446,
perumahan,Pembangunan Perumahan,Perumahan Tanjung Harapan Residence,"R9PH+RQ4, Tj. Selor Hilir, Kec. Tj. Selor, Kabupaten Bulungan, Kalimantan Utara","Kabupaten Bulungan, Kalimantan Utara",KALIMANTAN TIMUR,,Indonesia,,,,2.8370056,117.3794593,https://maps.google.com/?cid=0x0:0xbb5808c84bd94b64,
perumahan,perumahan,Kec. Tj. Harapan,"Kabupaten Paser, Kalimantan Timur","Kabupaten Paser, Kalimantan Timur",KALIMANTAN TIMUR,,Indonesia,,,,-2.3314575,116.4464809,https://maps.google.com/?cid=0x0:0xc713b1fba97cb40c,
perumahan,Kantor Perusahaan,Perumahan PT.AIK,"Q883+486, Riwang, Kec. Batu Engau, Kabupaten Paser, Kalimantan Timur 76261","Riwang, Kec. Batu Engau, Kabupaten Paser",KALIMANTAN TIMUR,76261.0,Indonesia,,,,-2.2347225,116.3032751,https://maps.google.com/?cid=0x0:0x9a5ed4baa52734be,
perumahan,Pembangunan Perumahan,Rumah lammang,"VFHV+J7X, Labuangkalo, Kec. Tj. Harapan, Kabupaten Paser, Kalimantan Timur 76261","Labuangkalo, Kec. Tj. Harapan, Kabupaten Paser",KALIMANTAN TIMUR,76261.0,Indonesia,,,,-2.1211416,116.4937381,https://maps.google.com/?cid=0x0:0x4e986060bdbc5460,
perumahan,Komplek perumahan,muara adang,"W9HM+8HQ, Lori, Kec. Tj. Harapan, Kabupaten Paser, Kalimantan Timur","Kabupaten Paser, Kalimantan Timur",KALIMANTAN TIMUR,,Indonesia,,,,-2.0716666,116.3839765,https://maps.google.com/?cid=0x0:0x54eafe099976da02,
perumahan,perumahan,Tj. Harapan,"Kec. Samboja, Kabupaten Kutai Kartanegara, Kalimantan Timur","Kabupaten Kutai Kartanegara, Kalimantan Timur",KALIMANTAN TIMUR,,Indonesia,,,,-1.0492857,117.0852922,https://maps.google.com/?cid=0x0:0x7185dda30529f43a,
perumahan,Komplek perumahan,PERUMAHAN TANJUNG HARAPAN,"3Q7C+X39, Suka Maju, Kec. Sako, Kota Palembang, Sumatera Selatan 30961","Suka Maju, Kec. Sako, Kota Palembang",KALIMANTAN TIMUR,30961.0,Indonesia,,,,-2.9350801,104.7702216,https://maps.google.com/?cid=0x0:0x2a23e594d2f36938,
perumahan,Kantor Perusahaan,Perumahan Tanjung Harapan Indah (THI) Palembang,"4P6M+GRH, Talang Keramat, Kebun Bunga, Kec. Sukarami, Kab. Banyuasin, Sumatera Selatan 30961","Talang Keramat, Kebun Bunga, Kec. Sukarami, Kab. Banyuasin",KALIMANTAN TIMUR,30961.0,Indonesia,,,,-2.8886844,104.7346121,https://maps.google.com/?cid=0x0:0xd382a89683c5bcb,
perumahan,Pembangunan Perumahan,Villa Tanjung Harapan,"3Q89+WVM, Unnamed Road, Suka Maju, Kec. Sako, Kota Palembang, Sumatera Selatan 30961","Unnamed Road, Suka Maju, Kec. Sako, Kota Palembang",KALIMANTAN TIMUR,30961.0,Indonesia,,,,-2.9326633,104.769678,https://maps.google.com/?cid=0x0:0x4e3497eaa94689f3,
perumahan,Perumahan,Perumahan Harapan Baru 2,"Jl. Harapan Baru II Raya No.25 Blok D1, RT.004/RW.001, Kota Baru, Kec. Bekasi Bar., Kota Bks, Jawa Barat 17132","RT.004/RW.001, Kota Baru, Kec. Bekasi Bar., Kota Bks",KALIMANTAN TIMUR,17132.0,Indonesia,,,,-6.2195525,106.9736226,https://maps.google.com/?cid=0x0:0x82c436bdf20b865b,
perumahan,Komplek perumahan,Vila Gading Harapan Gerbang Timur,"Masjid Al Ikhlas, Vila Gading Harapan Blok AN. 16 No. 33 Rt.006/Rw.025 (Depan, Kebalen, Kec. Babelan, Kabupaten Bekasi, Jawa Barat 17610","Vila Gading Harapan Blok AN. 16 No. 33 Rt.006/Rw.025 (Depan, Kebalen, Kec. Babelan, Kabupaten Bekasi",KALIMANTAN TIMUR,17610.0,Indonesia,,,,-6.1729745,107.0391937,https://maps.google.com/?cid=0x0:0x912a9248966ae7d3,
perumahan,Pembangunan Perumahan,PT MULTI,"JFHF+JX8, Keladen, Kec. Tj. Harapan, Kabupaten Paser, Kalimantan Timur","Kabupaten Paser, Kalimantan Timur",KALIMANTAN TIMUR,,Indonesia,,,,-2.3709667,116.4749433,https://maps.google.com/?cid=0x0:0x7734c5e8942d3c5b,
perumahan,Dapur Umum,Desa tanjung aru,"QG3G+H6J, Tj. Aru, Kec. Tj. Harapan, Kabupaten Paser, Kalimantan Timur","Kabupaten Paser, Kalimantan Timur",KALIMANTAN TIMUR,,Indonesia,,,,-2.2460431,116.5255274,https://maps.google.com/?cid=0x0:0xac85d9b117f4bbc1,
perumahan,Agen Persewaan Rumah Peristirahatan,Rumah h.basran,"RCHX+4HJ, Selengot, Kec. Tj. Harapan, Kabupaten Paser, Kalimantan Timur 76261","Selengot, Kec. Tj. Harapan, Kabupaten Paser",KALIMANTAN TIMUR,76261.0,Indonesia,,,,-2.1721648,116.4488954,https://maps.google.com/?cid=0x0:0x20c624b1b8b0ae61,
perumahan,Komplek perumahan,muara adang,"W9HM+8HQ, Lori, Kec. Tj. Harapan, Kabupaten Paser, Kalimantan Timur","Kabupaten Paser, Kalimantan Timur",KALIMANTAN TIMUR,,Indonesia,,,,-2.0716666,116.3839765,https://maps.google.com/?cid=0x0:0x54eafe099976da02,
perumahan,Pembangunan Perumahan,Rumah lammang,"VFHV+J7X, Labuangkalo, Kec. Tj. Harapan, Kabupaten Paser, Kalimantan Timur 76261","Labuangkalo, Kec. Tj. Harapan, Kabupaten Paser",KALIMANTAN TIMUR,76261.0,Indonesia,,,,-2.1211416,116.4937381,https://maps.google.com/?cid=0x0:0x4e986060bdbc5460,
perumahan,Pembangunan Perumahan,Perumahan Staf PT MJA,"JG9G+2VF, Random, Kec. Tj. Harapan, Kabupaten Paser, Kalimantan Timur 76261","Random, Kec. Tj. Harapan, Kabupaten Paser",KALIMANTAN TIMUR,76261.0,Indonesia,,,,-2.3824374,116.5271575,https://maps.google.com/?cid=0x0:0x87a45f8091e24fc,
perumahan,Kantor Perusahaan,Perumahan PT.AIK,"Q883+486, Riwang, Kec. Batu Engau, Kabupaten Paser, Kalimantan Timur 76261","Riwang, Kec. Batu Engau, Kabupaten Paser",KALIMANTAN TIMUR,76261.0,Indonesia,,,,-2.2347225,116.3032751,https://maps.google.com/?cid=0x0:0x9a5ed4baa52734be,
perumahan,Kantor Perusahaan,Perumahan afdeling Alfa PT bim,"Lori, Kec. Tj. Harapan, Kabupaten Paser, Kalimantan Timur 76261","Kec. Tj. Harapan, Kabupaten Paser",KALIMANTAN TIMUR,76261.0,Indonesia,,,,-2.0547984,116.3641566,https://maps.google.com/?cid=0x0:0x572dadca49eac6df,
perumahan,Komplek perumahan,Rasid,"VFJV+279, Labuangkalo, Kec. Tj. Harapan, Kabupaten Paser, Kalimantan Timur 76261","Labuangkalo, Kec. Tj. Harapan, Kabupaten Paser",KALIMANTAN TIMUR,76261.0,Indonesia,,,,-2.1196735,116.4929191,https://maps.google.com/?cid=0x0:0x147ea05e70ce6446,
perumahan,Komplek perumahan,Dusun ipi,"QHM7+67R, Tj. Aru, Kec. Tj. Harapan, Kabupaten Paser, Kalimantan Timur 76261","Tj. Aru, Kec. Tj. Harapan, Kabupaten Paser",KALIMANTAN TIMUR,76261.0,Indonesia,,,,-2.2168818,116.5631403,https://maps.google.com/?cid=0x0:0x7350895310999f8e,
perumahan,Komplek perumahan,Rumah jamal,"MCCV+6G, Keladen, Kec. Tj. Harapan, Kabupaten Paser, Kalimantan Timur","Kabupaten Paser, Kalimantan Timur",KALIMANTAN TIMUR,,Indonesia,,,,-2.329402,116.443814,https://maps.google.com/?cid=0x0:0x663c5db2d9cda2db,
perumahan,Pemakaman,Rumah Pak Muslimin,"RHGM+FQ5, Tj. Aru, Kec. Tj. Harapan, Kabupaten Paser, Kalimantan Timur 76261","Tj. Aru, Kec. Tj. Harapan, Kabupaten Paser",KALIMANTAN TIMUR,76261.0,Indonesia,,,,-2.1733805,116.5839157,https://maps.google.com/?cid=0x0:0x4ce26a4d7876c16e,
perumahan,perumahan,Tj. Harapan,"Kec. Samboja, Kabupaten Kutai Kartanegara, Kalimantan Timur","Kabupaten Kutai Kartanegara, Kalimantan Timur",KALIMANTAN TIMUR,,Indonesia,,,,-1.0492857,117.0852922,https://maps.google.com/?cid=0x0:0x7185dda30529f43a,
perumahan,Komplek perumahan,PERUMAHAN TANJUNG HARAPAN,"3Q7C+X39, Suka Maju, Kec. Sako, Kota Palembang, Sumatera Selatan 30961","Suka Maju, Kec. Sako, Kota Palembang",KALIMANTAN TIMUR,30961.0,Indonesia,,,,-2.9350801,104.7702216,https://maps.google.com/?cid=0x0:0x2a23e594d2f36938,
perumahan,Masjid,Tanjung harapan,"C7PW+79, Lubuk Gadang Tim., Kec. Sangir, Kabupaten Solok Selatan, Sumatera Barat","Kabupaten Solok Selatan, Sumatera Barat",KALIMANTAN TIMUR,,Indonesia,,,,-1.564306,101.295999,https://maps.google.com/?cid=0x0:0x9c47ace1a0651d87,
perumahan,perumahan,Kontrakan Saudara,"X4C5+XVC, Jl. Tj. Harapan, Samboja Kuala, Kec. Samboja, Kabupaten Kutai Kartanegara, Kalimantan Timur 75276","Jl. Tj. Harapan, Samboja Kuala, Kec. Samboja, Kabupaten Kutai Kartanegara",KALIMANTAN TIMUR,75276.0,Indonesia,,,,-1.0275374,117.109645,https://maps.google.com/?cid=0x0:0x96a6a4d6d144faee,
perumahan,Komplek perumahan,PERUMAHAN TANJUNG HARAPAN,"3Q7C+X39, Suka Maju, Kec. Sako, Kota Palembang, Sumatera Selatan 30961","Suka Maju, Kec. Sako, Kota Palembang",KALIMANTAN TIMUR,30961.0,Indonesia,,,,-2.9350801,104.7702216,https://maps.google.com/?cid=0x0:0x2a23e594d2f36938,
perumahan,Kantor Perusahaan,Perumahan Tanjung Harapan Indah (THI) Palembang,"4P6M+GRH, Talang Keramat, Kebun Bunga, Kec. Sukarami, Kab. Banyuasin, Sumatera Selatan 30961","Talang Keramat, Kebun Bunga, Kec. Sukarami, Kab. Banyuasin",KALIMANTAN TIMUR,30961.0,Indonesia,,,,-2.8886844,104.7346121,https://maps.google.com/?cid=0x0:0xd382a89683c5bcb,
perumahan,Otoritas Perumahan,Komplek Tanjung Harapan Indah,"4P6P+93Q, Komplek Tanjung Harapan Indah, Jl. Tj. Api-Api, Kebun Bunga, Kec. Sukarami, Kab. Banyuasin, Sumatera Selatan 30961","Komplek Tanjung Harapan Indah, Jl. Tj. Api-Api, Kebun Bunga, Kec. Sukarami, Kab. Banyuasin",KALIMANTAN TIMUR,30961.0,Indonesia,81278809318.0,,,-2.8890263,104.7352318,https://maps.google.com/?cid=0x0:0xfa8592ff14114a05,
perumahan,Pembangunan Perumahan,Villa Tanjung Harapan,"3Q89+WVM, Unnamed Road, Suka Maju, Kec. Sako, Kota Palembang, Sumatera Selatan 30961","Unnamed Road, Suka Maju, Kec. Sako, Kota Palembang",KALIMANTAN TIMUR,30961.0,Indonesia,,,,-2.9326633,104.769678,https://maps.google.com/?cid=0x0:0x4e3497eaa94689f3,
perumahan,Perumahan,Perumahan Harapan Baru 2,"Jl. Harapan Baru II Raya No.25 Blok D1, RT.004/RW.001, Kota Baru, Kec. Bekasi Bar., Kota Bks, Jawa Barat 17132","RT.004/RW.001, Kota Baru, Kec. Bekasi Bar., Kota Bks",KALIMANTAN TIMUR,17132.0,Indonesia,,,,-6.2195525,106.9736226,https://maps.google.com/?cid=0x0:0x82c436bdf20b865b,
perumahan,Perumahan,Perumahan PESONA BUMI HARAPAN 2,"BlokA2 8A, Jl. Pulo Timaha No.6500, Babelan Kota, Kec. Babelan, Kabupaten Bekasi, Jawa Barat 17610","Jl. Pulo Timaha No.6500, Babelan Kota, Kec. Babelan, Kabupaten Bekasi",KALIMANTAN TIMUR,17610.0,Indonesia,,,,-6.1601535,107.0231079,https://maps.google.com/?cid=0x0:0xab80ceb204e0a8ee,
perumahan,Pembangunan Perumahan,Perumahan Tanjung Harapan Residence,"R9PH+RQ4, Tj. Selor Hilir, Kec. Tj. Selor, Kabupaten Bulungan, Kalimantan Utara","Kabupaten Bulungan, Kalimantan Utara",KALIMANTAN TIMUR,,Indonesia,,,,2.8370056,117.3794593,https://maps.google.com/?cid=0x0:0xbb5808c84bd94b64,
perumahan,Pembangunan Perumahan,Tanjung harapan,"Jl. Tj. Harapan, Pekan Arba, Kec. Tembilahan, Kabupaten Indragiri Hilir, Riau","Kabupaten Indragiri Hilir, Riau",KALIMANTAN TIMUR,,Indonesia,82385032371.0,,,-0.2991367,103.1457917,https://maps.google.com/?cid=0x0:0x19e42a851cb47d1f,
perumahan,Perhimpunan Pengembang Perumahan,Tanjung harapan,"5HR6+94R, Tumbang Sangai, Kec. Antang Kalang, Kabupaten Kotawaringin Timur, Kalimantan Tengah 74356","Tumbang Sangai, Kec. Antang Kalang, Kabupaten Kotawaringin Timur",KALIMANTAN TIMUR,74356.0,Indonesia,,,,-1.8090101,112.5602686,https://maps.google.com/?cid=0x0:0xb5c52abb75874af7,
perumahan,perumahan,Kontrakan Saudara,"X4C5+XVC, Jl. Tj. Harapan, Samboja Kuala, Kec. Samboja, Kabupaten Kutai Kartanegara, Kalimantan Timur 75276","Jl. Tj. Harapan, Samboja Kuala, Kec. Samboja, Kabupaten Kutai Kartanegara",KALIMANTAN TIMUR,75276.0,Indonesia,,,,-1.0275374,117.109645,https://maps.google.com/?cid=0x0:0x96a6a4d6d144faee,
perumahan,Komplek perumahan,PERUMAHAN TANJUNG HARAPAN,"3Q7C+X39, Suka Maju, Kec. Sako, Kota Palembang, Sumatera Selatan 30961","Suka Maju, Kec. Sako, Kota Palembang",KALIMANTAN TIMUR,30961.0,Indonesia,,,,-2.9350801,104.7702216,https://maps.google.com/?cid=0x0:0x2a23e594d2f36938,
perumahan,Kantor Perusahaan,Perumahan Tanjung Harapan Indah (THI) Palembang,"4P6M+GRH, Talang Keramat, Kebun Bunga, Kec. Sukarami, Kab. Banyuasin, Sumatera Selatan 30961","Talang Keramat, Kebun Bunga, Kec. Sukarami, Kab. Banyuasin",KALIMANTAN TIMUR,30961.0,Indonesia,,,,-2.8886844,104.7346121,https://maps.google.com/?cid=0x0:0xd382a89683c5bcb,
perumahan,Pembangunan Perumahan,Villa Tanjung Harapan,"3Q89+WVM, Unnamed Road, Suka Maju, Kec. Sako, Kota Palembang, Sumatera Selatan 30961","Unnamed Road, Suka Maju, Kec. Sako, Kota Palembang",KALIMANTAN TIMUR,30961.0,Indonesia,,,,-2.9326633,104.769678,https://maps.google.com/?cid=0x0:0x4e3497eaa94689f3,
perumahan,perumahan,Kontrakan Saudara,"X4C5+XVC, Jl. Tj. Harapan, Samboja Kuala, Kec. Samboja, Kabupaten Kutai Kartanegara, Kalimantan Timur 75276","Jl. Tj. Harapan, Samboja Kuala, Kec. Samboja, Kabupaten Kutai Kartanegara",KALIMANTAN TIMUR,75276.0,Indonesia,,,,-1.0275374,117.109645,https://maps.google.com/?cid=0x0:0x96a6a4d6d144faee,
perumahan,Pembangunan Perumahan,PT MULTI,"JFHF+JX8, Keladen, Kec. Tj. Harapan, Kabupaten Paser, Kalimantan Timur","Kabupaten Paser, Kalimantan Timur",KALIMANTAN TIMUR,,Indonesia,,,,-2.3709667,116.4749433,https://maps.google.com/?cid=0x0:0x7734c5e8942d3c5b,
perumahan,Dapur Umum,Desa tanjung aru,"QG3G+H6J, Tj. Aru, Kec. Tj. Harapan, Kabupaten Paser, Kalimantan Timur","Kabupaten Paser, Kalimantan Timur",KALIMANTAN TIMUR,,Indonesia,,,,-2.2460431,116.5255274,https://maps.google.com/?cid=0x0:0xac85d9b117f4bbc1,
perumahan,Komplek perumahan,muara adang,"W9HM+8HQ, Lori, Kec. Tj. Harapan, Kabupaten Paser, Kalimantan Timur","Kabupaten Paser, Kalimantan Timur",KALIMANTAN TIMUR,,Indonesia,,,,-2.0716666,116.3839765,https://maps.google.com/?cid=0x0:0x54eafe099976da02,
perumahan,perumahan,Kec. Tj. Harapan,"Kabupaten Paser, Kalimantan Timur","Kabupaten Paser, Kalimantan Timur",KALIMANTAN TIMUR,,Indonesia,,,,-2.3314575,116.4464809,https://maps.google.com/?cid=0x0:0xc713b1fba97cb40c,
perumahan,Agen Persewaan Rumah Peristirahatan,Rumah h.basran,"RCHX+4HJ, Selengot, Kec. Tj. Harapan, Kabupaten Paser, Kalimantan Timur 76261","Selengot, Kec. Tj. Harapan, Kabupaten Paser",KALIMANTAN TIMUR,76261.0,Indonesia,,,,-2.1721648,116.4488954,https://maps.google.com/?cid=0x0:0x20c624b1b8b0ae61,
perumahan,Komplek perumahan,PERUMAHAN TANJUNG HARAPAN,"3Q7C+X39, Suka Maju, Kec. Sako, Kota Palembang, Sumatera Selatan 30961","Suka Maju, Kec. Sako, Kota Palembang",KALIMANTAN TIMUR,30961.0,Indonesia,,,,-2.9350801,104.7702216,https://maps.google.com/?cid=0x0:0x2a23e594d2f36938,
perumahan,Kantor Perusahaan,Perumahan Tanjung Harapan Indah (THI) Palembang,"4P6M+GRH, Talang Keramat, Kebun Bunga, Kec. Sukarami, Kab. Banyuasin, Sumatera Selatan 30961","Talang Keramat, Kebun Bunga, Kec. Sukarami, Kab. Banyuasin",KALIMANTAN TIMUR,30961.0,Indonesia,,,,-2.8886844,104.7346121,https://maps.google.com/?cid=0x0:0xd382a89683c5bcb,
perumahan,Komplek perumahan,Tanjung Harapan,"5WV5+QQF, Tj. Harapan, Kec. Banding Agung, Kabupaten Ogan Komering Ulu Selatan, Sumatera Selatan 32274","Tj. Harapan, Kec. Banding Agung, Kabupaten Ogan Komering Ulu Selatan",KALIMANTAN TIMUR,32274.0,Indonesia,,,,-4.8055657,103.9094321,https://maps.google.com/?cid=0x0:0x844fb26e132f20d8,
perumahan,Pembangunan Perumahan,Villa Tanjung Harapan,"3Q89+WVM, Unnamed Road, Suka Maju, Kec. Sako, Kota Palembang, Sumatera Selatan 30961","Unnamed Road, Suka Maju, Kec. Sako, Kota Palembang",KALIMANTAN TIMUR,30961.0,Indonesia,,,,-2.9326633,104.769678,https://maps.google.com/?cid=0x0:0x4e3497eaa94689f3,
perumahan,Otoritas Perumahan,Komplek Tanjung Harapan Indah,"4P6P+93Q, Komplek Tanjung Harapan Indah, Jl. Tj. Api-Api, Kebun Bunga, Kec. Sukarami, Kab. Banyuasin, Sumatera Selatan 30961","Komplek Tanjung Harapan Indah, Jl. Tj. Api-Api, Kebun Bunga, Kec. Sukarami, Kab. Banyuasin",KALIMANTAN TIMUR,30961.0,Indonesia,81278809318.0,,,-2.8890263,104.7352318,https://maps.google.com/?cid=0x0:0xfa8592ff14114a05,
perumahan,Perhimpunan Pengembang Perumahan,Tanjung harapan,"X273+Q8R, Tj. Harapan, Kec. Anak Tuha, Kabupaten Lampung Tengah, Lampung 34175","Tj. Harapan, Kec. Anak Tuha, Kabupaten Lampung Tengah",KALIMANTAN TIMUR,34175.0,Indonesia,,,,-5.0355083,105.0032717,https://maps.google.com/?cid=0x0:0x4a9d70f5e4697ca2,
perumahan,Perumahan,Perumahan Harapan Baru 2,"Jl. Harapan Baru II Raya No.25 Blok D1, RT.004/RW.001, Kota Baru, Kec. Bekasi Bar., Kota Bks, Jawa Barat 17132","RT.004/RW.001, Kota Baru, Kec. Bekasi Bar., Kota Bks",KALIMANTAN TIMUR,17132.0,Indonesia,,,,-6.2195525,106.9736226,https://maps.google.com/?cid=0x0:0x82c436bdf20b865b,
perumahan,Pembangunan Perumahan,PT MULTI,"JFHF+JX8, Keladen, Kec. Tj. Harapan, Kabupaten Paser, Kalimantan Timur","Kabupaten Paser, Kalimantan Timur",KALIMANTAN TIMUR,,Indonesia,,,,-2.3709667,116.4749433,https://maps.google.com/?cid=0x0:0x7734c5e8942d3c5b,
perumahan,Dapur Umum,Desa tanjung aru,"QG3G+H6J, Tj. Aru, Kec. Tj. Harapan, Kabupaten Paser, Kalimantan Timur","Kabupaten Paser, Kalimantan Timur",KALIMANTAN TIMUR,,Indonesia,,,,-2.2460431,116.5255274,https://maps.google.com/?cid=0x0:0xac85d9b117f4bbc1,
perumahan,Agen Persewaan Rumah Peristirahatan,Rumah h.basran,"RCHX+4HJ, Selengot, Kec. Tj. Harapan, Kabupaten Paser, Kalimantan Timur 76261","Selengot, Kec. Tj. Harapan, Kabupaten Paser",KALIMANTAN TIMUR,76261.0,Indonesia,,,,-2.1721648,116.4488954,https://maps.google.com/?cid=0x0:0x20c624b1b8b0ae61,
perumahan,Kantor Perusahaan,Perumahan afdeling Alfa PT bim,"Lori, Kec. Tj. Harapan, Kabupaten Paser, Kalimantan Timur 76261","Kec. Tj. Harapan, Kabupaten Paser",KALIMANTAN TIMUR,76261.0,Indonesia,,,,-2.0547984,116.3641566,https://maps.google.com/?cid=0x0:0x572dadca49eac6df,
perumahan,Pembangunan Perumahan,Rumah lammang,"VFHV+J7X, Labuangkalo, Kec. Tj. Harapan, Kabupaten Paser, Kalimantan Timur 76261","Labuangkalo, Kec. Tj. Harapan, Kabupaten Paser",KALIMANTAN TIMUR,76261.0,Indonesia,,,,-2.1211416,116.4937381,https://maps.google.com/?cid=0x0:0x4e986060bdbc5460,
perumahan,Kantor Perusahaan,Perumahan PT.AIK,"Q883+486, Riwang, Kec. Batu Engau, Kabupaten Paser, Kalimantan Timur 76261","Riwang, Kec. Batu Engau, Kabupaten Paser",KALIMANTAN TIMUR,76261.0,Indonesia,,,,-2.2347225,116.3032751,https://maps.google.com/?cid=0x0:0x9a5ed4baa52734be,
perumahan,Pembangunan Perumahan,Perumahan Staf PT MJA,"JG9G+2VF, Random, Kec. Tj. Harapan, Kabupaten Paser, Kalimantan Timur 76261","Random, Kec. Tj. Harapan, Kabupaten Paser",KALIMANTAN TIMUR,76261.0,Indonesia,,,,-2.3824374,116.5271575,https://maps.google.com/?cid=0x0:0x87a45f8091e24fc,
perumahan,Komplek perumahan,Rasid,"VFJV+279, Labuangkalo, Kec. Tj. Harapan, Kabupaten Paser, Kalimantan Timur 76261","Labuangkalo, Kec. Tj. Harapan, Kabupaten Paser",KALIMANTAN TIMUR,76261.0,Indonesia,,,,-2.1196735,116.4929191,https://maps.google.com/?cid=0x0:0x147ea05e70ce6446,
perumahan,perumahan,Kontrakan Saudara,"X4C5+XVC, Jl. Tj. Harapan, Samboja Kuala, Kec. Samboja, Kabupaten Kutai Kartanegara, Kalimantan Timur 75276","Jl. Tj. Harapan, Samboja Kuala, Kec. Samboja, Kabupaten Kutai Kartanegara",KALIMANTAN TIMUR,75276.0,Indonesia,,,,-1.0275374,117.109645,https://maps.google.com/?cid=0x0:0x96a6a4d6d144faee,
perumahan,Komplek perumahan,PERUMAHAN TANJUNG HARAPAN,"3Q7C+X39, Suka Maju, Kec. Sako, Kota Palembang, Sumatera Selatan 30961","Suka Maju, Kec. Sako, Kota Palembang",KALIMANTAN TIMUR,30961.0,Indonesia,,,,-2.9350801,104.7702216,https://maps.google.com/?cid=0x0:0x2a23e594d2f36938,
perumahan,Komplek perumahan,Tanjung Harapan,"5WV5+QQF, Tj. Harapan, Kec. Banding Agung, Kabupaten Ogan Komering Ulu Selatan, Sumatera Selatan 32274","Tj. Harapan, Kec. Banding Agung, Kabupaten Ogan Komering Ulu Selatan",KALIMANTAN TIMUR,32274.0,Indonesia,,,,-4.8055657,103.9094321,https://maps.google.com/?cid=0x0:0x844fb26e132f20d8,
perumahan,Pembangunan Perumahan,Villa Tanjung Harapan,"3Q89+WVM, Unnamed Road, Suka Maju, Kec. Sako, Kota Palembang, Sumatera Selatan 30961","Unnamed Road, Suka Maju, Kec. Sako, Kota Palembang",KALIMANTAN TIMUR,30961.0,Indonesia,,,,-2.9326633,104.769678,https://maps.google.com/?cid=0x0:0x4e3497eaa94689f3,
perumahan,Otoritas Perumahan,Komplek Tanjung Harapan Indah,"4P6P+93Q, Komplek Tanjung Harapan Indah, Jl. Tj. Api-Api, Kebun Bunga, Kec. Sukarami, Kab. Banyuasin, Sumatera Selatan 30961","Komplek Tanjung Harapan Indah, Jl. Tj. Api-Api, Kebun Bunga, Kec. Sukarami, Kab. Banyuasin",KALIMANTAN TIMUR,30961.0,Indonesia,81278809318.0,,,-2.8890263,104.7352318,https://maps.google.com/?cid=0x0:0xfa8592ff14114a05,
perumahan,Kantor Perusahaan,Perumahan Tanjung Harapan Indah (THI) Palembang,"4P6M+GRH, Talang Keramat, Kebun Bunga, Kec. Sukarami, Kab. Banyuasin, Sumatera Selatan 30961","Talang Keramat, Kebun Bunga, Kec. Sukarami, Kab. Banyuasin",KALIMANTAN TIMUR,30961.0,Indonesia,,,,-2.8886844,104.7346121,https://maps.google.com/?cid=0x0:0xd382a89683c5bcb,
perumahan,Perhimpunan Pengembang Perumahan,Tanjung harapan,"X273+Q8R, Tj. Harapan, Kec. Anak Tuha, Kabupaten Lampung Tengah, Lampung 34175","Tj. Harapan, Kec. Anak Tuha, Kabupaten Lampung Tengah",KALIMANTAN TIMUR,34175.0,Indonesia,,,,-5.0355083,105.0032717,https://maps.google.com/?cid=0x0:0x4a9d70f5e4697ca2,
perumahan,Komplek perumahan,Vila Gading Harapan Gerbang Timur,"Masjid Al Ikhlas, Vila Gading Harapan Blok AN. 16 No. 33 Rt.006/Rw.025 (Depan, Kebalen, Kec. Babelan, Kabupaten Bekasi, Jawa Barat 17610","Vila Gading Harapan Blok AN. 16 No. 33 Rt.006/Rw.025 (Depan, Kebalen, Kec. Babelan, Kabupaten Bekasi",KALIMANTAN TIMUR,17610.0,Indonesia,,,,-6.1729745,107.0391937,https://maps.google.com/?cid=0x0:0x912a9248966ae7d3,
perumahan,perumahan,Kec. Tj. Harapan,"Kabupaten Paser, Kalimantan Timur","Kabupaten Paser, Kalimantan Timur",KALIMANTAN TIMUR,,Indonesia,,,,-2.3314575,116.4464809,https://maps.google.com/?cid=0x0:0xc713b1fba97cb40c,
perumahan,Pembangunan Perumahan,PT MULTI,"JFHF+JX8, Keladen, Kec. Tj. Harapan, Kabupaten Paser, Kalimantan Timur","Kabupaten Paser, Kalimantan Timur",KALIMANTAN TIMUR,,Indonesia,,,,-2.3709667,116.4749433,https://maps.google.com/?cid=0x0:0x7734c5e8942d3c5b,
perumahan,Kantor Perusahaan,Perumahan afdeling Alfa PT bim,"Lori, Kec. Tj. Harapan, Kabupaten Paser, Kalimantan Timur 76261","Kec. Tj. Harapan, Kabupaten Paser",KALIMANTAN TIMUR,76261.0,Indonesia,,,,-2.0547984,116.3641566,https://maps.google.com/?cid=0x0:0x572dadca49eac6df,
perumahan,Dapur Umum,Desa tanjung aru,"QG3G+H6J, Tj. Aru, Kec. Tj. Harapan, Kabupaten Paser, Kalimantan Timur","Kabupaten Paser, Kalimantan Timur",KALIMANTAN TIMUR,,Indonesia,,,,-2.2460431,116.5255274,https://maps.google.com/?cid=0x0:0xac85d9b117f4bbc1,
perumahan,Agen Persewaan Rumah Peristirahatan,Rumah h.basran,"RCHX+4HJ, Selengot, Kec. Tj. Harapan, Kabupaten Paser, Kalimantan Timur 76261","Selengot, Kec. Tj. Harapan, Kabupaten Paser",KALIMANTAN TIMUR,76261.0,Indonesia,,,,-2.1721648,116.4488954,https://maps.google.com/?cid=0x0:0x20c624b1b8b0ae61,
perumahan,Komplek perumahan,Sty Rohana,"VF53+HW7, Labuangkalo, Kec. Tj. Harapan, Kabupaten Paser, Kalimantan Timur 76261","Labuangkalo, Kec. Tj. Harapan, Kabupaten Paser",KALIMANTAN TIMUR,76261.0,Indonesia,,,,-2.1410872,116.4547962,https://maps.google.com/?cid=0x0:0x7ed093396b7ae368,
perumahan,Pembangunan Perumahan,Rumah lammang,"VFHV+J7X, Labuangkalo, Kec. Tj. Harapan, Kabupaten Paser, Kalimantan Timur 76261","Labuangkalo, Kec. Tj. Harapan, Kabupaten Paser",KALIMANTAN TIMUR,76261.0,Indonesia,,,,-2.1211416,116.4937381,https://maps.google.com/?cid=0x0:0x4e986060bdbc5460,
perumahan,Komplek perumahan,Rasid,"VFJV+279, Labuangkalo, Kec. Tj. Harapan, Kabupaten Paser, Kalimantan Timur 76261","Labuangkalo, Kec. Tj. Harapan, Kabupaten Paser",KALIMANTAN TIMUR,76261.0,Indonesia,,,,-2.1196735,116.4929191,https://maps.google.com/?cid=0x0:0x147ea05e70ce6446,
perumahan,Pembangunan Perumahan,Afdeling 1 MJA,"MH32+RJ, Random, Kec. Tj. Harapan, Kabupaten Paser, Kalimantan Timur 76261","Random, Kec. Tj. Harapan, Kabupaten Paser",KALIMANTAN TIMUR,76261.0,Indonesia,,,,-2.3453858,116.5515129,https://maps.google.com/?cid=0x0:0xb3b2448b818835ce,
perumahan,Komplek perumahan,Dusun ipi,"QHM7+67R, Tj. Aru, Kec. Tj. Harapan, Kabupaten Paser, Kalimantan Timur 76261","Tj. Aru, Kec. Tj. Harapan, Kabupaten Paser",KALIMANTAN TIMUR,76261.0,Indonesia,,,,-2.2168818,116.5631403,https://maps.google.com/?cid=0x0:0x7350895310999f8e,
perumahan,Pemakaman,Rumah Pak Muslimin,"RHGM+FQ5, Tj. Aru, Kec. Tj. Harapan, Kabupaten Paser, Kalimantan Timur 76261","Tj. Aru, Kec. Tj. Harapan, Kabupaten Paser",KALIMANTAN TIMUR,76261.0,Indonesia,,,,-2.1733805,116.5839157,https://maps.google.com/?cid=0x0:0x4ce26a4d7876c16e,
perumahan,Komplek perumahan,Rumah jamal,"MCCV+6G, Keladen, Kec. Tj. Harapan, Kabupaten Paser, Kalimantan Timur","Kabupaten Paser, Kalimantan Timur",KALIMANTAN TIMUR,,Indonesia,,,,-2.329402,116.443814,https://maps.google.com/?cid=0x0:0x663c5db2d9cda2db,
perumahan,Pembangunan Perumahan,PT .MJA,"MG8G+46H, Random, Kec. Tj. Harapan, Kabupaten Paser, Kalimantan Timur 76261","Random, Kec. Tj. Harapan, Kabupaten Paser",KALIMANTAN TIMUR,76261.0,Indonesia,,,,-2.3346891,116.5255946,https://maps.google.com/?cid=0x0:0xa129ea6a39d920b6,
perumahan,Komplek perumahan,Bapa ilham,"RCX5+3C, Labuangkalo, Kec. Tj. Harapan, Kabupaten Paser, Kalimantan Timur","Kabupaten Paser, Kalimantan Timur",KALIMANTAN TIMUR,,Indonesia,,,,-2.1523284,116.408578,https://maps.google.com/?cid=0x0:0x93b88165fe8e23b6,
perumahan,Komplek perumahan,muara adang,"W9HM+8HQ, Lori, Kec. Tj. Harapan, Kabupaten Paser, Kalimantan Timur","Kabupaten Paser, Kalimantan Timur",KALIMANTAN TIMUR,,Indonesia,,,,-2.0716666,116.3839765,https://maps.google.com/?cid=0x0:0x54eafe099976da02,
perumahan,perumahan,AFDL 67 PT MJA,"PC5V+659, Keladen, Kec. Tj. Harapan, Kabupaten Paser, Kalimantan Timur 76261","Keladen, Kec. Tj. Harapan, Kabupaten Paser",KALIMANTAN TIMUR,76261.0,Indonesia,,,,-2.2919515,116.4429944,https://maps.google.com/?cid=0x0:0x24fbd7981e39bfb1,
perumahan,Komplek perumahan,AFD 4,"Afdelin 4, Random, Kec. Tj. Harapan, Kabupaten Paser, Kalimantan Timur 76260","Random, Kec. Tj. Harapan, Kabupaten Paser",KALIMANTAN TIMUR,76260.0,Indonesia,,,,-2.3695844,116.5118085,https://maps.google.com/?cid=0x0:0x392974963f301091,
perumahan,Komplek perumahan,Perumahan Staff PT. BIM,"X9GW+HQC, Laburan, Kec. Pasir Belengkong, Kabupaten Paser, Kalimantan Timur","Kabupaten Paser, Kalimantan Timur",KALIMANTAN TIMUR,,Indonesia,,,,-2.0235724,116.3968836,https://maps.google.com/?cid=0x0:0xdfa1d408afbe81c1,
perumahan,Pembangunan Perumahan,Afdeling 3 MJA,"JG89+XV, Random, Kec. Tj. Harapan, Kabupaten Paser, Kalimantan Timur","Kabupaten Paser, Kalimantan Timur",KALIMANTAN TIMUR,,Indonesia,,,,-2.3831158,116.5208452,https://maps.google.com/?cid=0x0:0x18453810df1293c9,
perumahan,Kantor Perusahaan,Perumahan PT.AIK,"Q883+486, Riwang, Kec. Batu Engau, Kabupaten Paser, Kalimantan Timur 76261","Riwang, Kec. Batu Engau, Kabupaten Paser",KALIMANTAN TIMUR,76261.0,Indonesia,,,,-2.2347225,116.3032751,https://maps.google.com/?cid=0x0:0x9a5ed4baa52734be,
perumahan,Pusat Kesehatan Masyarakat,PUSKESMAS TANJUNG HARAPAN,"RHGM+FQ5, Tj. Aru, Kec. Tj. Harapan, Kabupaten Paser, Kalimantan Timur 76261","Tj. Aru, Kec. Tj. Harapan, Kabupaten Paser",KALIMANTAN TIMUR,76261.0,Indonesia,,,,-2.1731594,116.5853215,https://maps.google.com/?cid=0x0:0x2494966edbe8181d,
perumahan,perumahan,Kalimantan Timur 76261,"Kabupaten Paser, Kalimantan Timur","Kabupaten Paser, Kalimantan Timur",KALIMANTAN TIMUR,,Indonesia,,,,-2.2765227,116.3249438,https://maps.google.com/?cid=0x0:0x5de4285e897f4e53,
perumahan,Komplek perumahan,Rumah sahman,"RGV8+6WM, Selengot, Kec. Tj. Harapan, Kabupaten Paser, Kalimantan Timur 76261","Selengot, Kec. Tj. Harapan, Kabupaten Paser",KALIMANTAN TIMUR,76261.0,Indonesia,,,,-2.1569021,116.5172926,https://maps.google.com/?cid=0x0:0xdaee10674d58d399,
perumahan,Komplek perumahan,PERUMAHAN TANJUNG HARAPAN,"3Q7C+X39, Suka Maju, Kec. Sako, Kota Palembang, Sumatera Selatan 30961","Suka Maju, Kec. Sako, Kota Palembang",KALIMANTAN TIMUR,30961.0,Indonesia,,,,-2.9350801,104.7702216,https://maps.google.com/?cid=0x0:0x2a23e594d2f36938,
perumahan,Kantor Perusahaan,Perumahan Tanjung Harapan Indah (THI) Palembang,"4P6M+GRH, Talang Keramat, Kebun Bunga, Kec. Sukarami, Kab. Banyuasin, Sumatera Selatan 30961","Talang Keramat, Kebun Bunga, Kec. Sukarami, Kab. Banyuasin",KALIMANTAN TIMUR,30961.0,Indonesia,,,,-2.8886844,104.7346121,https://maps.google.com/?cid=0x0:0xd382a89683c5bcb,
perumahan,Pembangunan Perumahan,Villa Tanjung Harapan,"3Q89+WVM, Unnamed Road, Suka Maju, Kec. Sako, Kota Palembang, Sumatera Selatan 30961","Unnamed Road, Suka Maju, Kec. Sako, Kota Palembang",KALIMANTAN TIMUR,30961.0,Indonesia,,,,-2.9326633,104.769678,https://maps.google.com/?cid=0x0:0x4e3497eaa94689f3,
perumahan,Otoritas Perumahan,Komplek Tanjung Harapan Indah,"4P6P+93Q, Komplek Tanjung Harapan Indah, Jl. Tj. Api-Api, Kebun Bunga, Kec. Sukarami, Kab. Banyuasin, Sumatera Selatan 30961","Komplek Tanjung Harapan Indah, Jl. Tj. Api-Api, Kebun Bunga, Kec. Sukarami, Kab. Banyuasin",KALIMANTAN TIMUR,30961.0,Indonesia,81278809318.0,,,-2.8890263,104.7352318,https://maps.google.com/?cid=0x0:0xfa8592ff14114a05,
perumahan,Perhimpunan Pengembang Perumahan,Tanjung harapan,"X273+Q8R, Tj. Harapan, Kec. Anak Tuha, Kabupaten Lampung Tengah, Lampung 34175","Tj. Harapan, Kec. Anak Tuha, Kabupaten Lampung Tengah",KALIMANTAN TIMUR,34175.0,Indonesia,,,,-5.0355083,105.0032717,https://maps.google.com/?cid=0x0:0x4a9d70f5e4697ca2,
