Category,Real Category,Business Name,Address,City,State,Postal Code,Country,Phone,Latitude,Longitude,Map Link
cafe,cafe,Papua Bar. 98457,"Kabupaten Sorong, Papua Bar.","Kabupaten Sorong, Papua Bar.",PAPUA BARAT,,Indonesia,,-1.0666951,131.5012792,https://maps.google.com/?cid=0x0:0x60164e450d5e6bd7
cafe,Kedai Kopi,Serupa Cafe and Eatery,"Jl. Nangka, Malawili, Kec. Aimas, Kabupaten Sorong, Papua Bar. 98444","Malawili, Kec. Aimas, Kabupaten Sorong",PAPUA BARAT,98444.0,Indonesia,,-0.9574859,131.3226217,https://maps.google.com/?cid=0x0:0xc58cb63de2e28003
cafe,Kedai Kopi,ENGINEERING COFFEE AIMAS,"Jalur D samping kantor PDAM, Kec. Aimas, Kabupaten Sorong, Papua Bar. 98444","Kec. Aimas, Kabupaten Sorong",PAPUA BARAT,98444.0,Indonesia,81344646139.0,-0.9556394,131.3309762,https://maps.google.com/?cid=0x0:0xc9393d225085004e
cafe,cafe,Senja Cafe,"28RH+9QV, Jl. Sawo, Malawili, Kec. Aimas, Kabupaten Sorong, Papua Bar. 98414","Jl. Sawo, Malawili, Kec. Aimas, Kabupaten Sorong",PAPUA BARAT,98414.0,Indonesia,,-0.9590185,131.3294117,https://maps.google.com/?cid=0x0:0x1e32faa575a7dcc1
cafe,Kafe,PERINTIS Coffee  Chill,"28VF+R65, Jl. Cempedak, Malawili, Kec. Aimas, Kabupaten Sorong, Papua Bar. 98414","Jl. Cempedak, Malawili, Kec. Aimas, Kabupaten Sorong",PAPUA BARAT,98414.0,Indonesia,82136136658.0,-0.9555865,131.3226106,https://maps.google.com/?cid=0x0:0x7eaf7943a56d41ed
cafe,Restoran,SayStory Aimas,"Malawele, Kec. Aimas, Kabupaten Sorong, Papua Bar. 98414","Kec. Aimas, Kabupaten Sorong",PAPUA BARAT,98414.0,Indonesia,,-0.9576154,131.3297136,https://maps.google.com/?cid=0x0:0x4c40c22ddedffea9
cafe,cafe,UNIMUDA CAFE,"2893+G7W, Jl. Mariat Pantai, Mariat Pantai, Kec. Aimas, Kabupaten Sorong, Papua Bar. 98414","Jl. Mariat Pantai, Mariat Pantai, Kec. Aimas, Kabupaten Sorong",PAPUA BARAT,98414.0,Indonesia,,-0.9811467,131.3032109,https://maps.google.com/?cid=0x0:0x3ae6892ff8aab2de
cafe,Kedai Kopi,TM Cafe 01,"Jl. Nangka, Aimas, Kec. Aimas, Kabupaten Sorong, Papua Bar. 98457","Aimas, Kec. Aimas, Kabupaten Sorong",PAPUA BARAT,98457.0,Indonesia,8114819966.0,-0.9570731,131.3211909,https://maps.google.com/?cid=0x0:0x1bc74c63ed9e3ed
cafe,Kedai Kopi,Kopi Janji Jiwa - Aimas,"28VF+23R, Jl. Nangka, Malawili, Kec. Aimas, Kabupaten Sorong, Papua Bar. 98414","Jl. Nangka, Malawili, Kec. Aimas, Kabupaten Sorong",PAPUA BARAT,98414.0,Indonesia,81330217618.0,-0.9573747,131.3226062,https://maps.google.com/?cid=0x0:0xb71f90461cf76bc2
cafe,Toko Kue Pernikahan,DEPOT LEZAAT-AIMAS SORONG,"Jl. Walet, Malawele, Kec. Aimas, Kabupaten Sorong, Papua Bar. 98414","Malawele, Kec. Aimas, Kabupaten Sorong",PAPUA BARAT,98414.0,Indonesia,81231431927.0,-0.9804582,131.310424,https://maps.google.com/?cid=0x0:0xb6afa9bc85a5b54c
cafe,Indonesia,Warmindo Syahdu,"28XG+RM9, Gg. PGP Blk. A, Malawili, Kec. Aimas, Kabupaten Sorong, Papua Bar. 98414","Gg. PGP Blk. A, Malawili, Kec. Aimas, Kabupaten Sorong",PAPUA BARAT,98414.0,Indonesia,8115065303.0,-0.950456,131.3267352,https://maps.google.com/?cid=0x0:0xe02652eab8aee9b8
cafe,Kedai Kopi,Kedai Tapak Kopi Aimas,"Jl. Klamono, Malawili, Kec. Aimas, Kabupaten Sorong, Papua Bar. 98414","Malawili, Kec. Aimas, Kabupaten Sorong",PAPUA BARAT,98414.0,Indonesia,82199780902.0,-0.9586955,131.3361585,https://maps.google.com/?cid=0x0:0x8a9fd2673c0cf274
cafe,Kedai Kopi,Kopi Lain Hati Aimas Sorong,"28VF+5F7, Jl. Nangka, Malawili, Kec. Aimas, Kabupaten Sorong, Papua Bar. 98414","Jl. Nangka, Malawili, Kec. Aimas, Kabupaten Sorong",PAPUA BARAT,98414.0,Indonesia,,-0.957076,131.3236777,https://maps.google.com/?cid=0x0:0x5bc13d8fa25991a2
cafe,Kedai Kopi,DOME EATERY,"Malawili, Kec. Aimas, Kabupaten Sorong, Papua Bar.","Kabupaten Sorong, Papua Bar.",PAPUA BARAT,,Indonesia,,-0.9575952,131.3348549,https://maps.google.com/?cid=0x0:0xf9d0953e7b0042c9
cafe,cafe,Papua Bar. 98453,"Kabupaten Sorong, Papua Bar.","Kabupaten Sorong, Papua Bar.",PAPUA BARAT,,Indonesia,,-1.3400215,131.6410914,https://maps.google.com/?cid=0x0:0x3be69fb5df79c3fb
cafe,Padang,Rest Area Sederhana,"WPW5+5CW, Sayosa, Kec. Sayosa, Kabupaten Sorong, Papua Bar. 98471","Sayosa, Kec. Sayosa, Kabupaten Sorong",PAPUA BARAT,98471.0,Indonesia,,-1.0545087,131.7085809,https://maps.google.com/?cid=0x0:0x39af320198873dda
cafe,cafe,Cafe COT (Cinta Orang Tertentu,"VFCG+35R, Klawana, Distrik Klamono, Kabupaten Sorong, Papua Bar.","Kabupaten Sorong, Papua Bar.",PAPUA BARAT,,Indonesia,,-1.129775,131.475403,https://maps.google.com/?cid=0x0:0xe8fd8f061f4da8ba
cafe,Kedai Kopi,Brown Hill Cafe,"48G3+7XV, Jl. F Kalasuat, Malanu, Kec. Sorong Utara, Kota Sorong, Papua Bar. 98412","Jl. F Kalasuat, Malanu, Kec. Sorong Utara, Kota Sorong",PAPUA BARAT,98412.0,Indonesia,82114721193.0,-0.8742653,131.3049307,https://maps.google.com/?cid=0x0:0xa60cb6d736dfcb14
cafe,Kedai Kopi,Z COFFEE,"42HX+V6C, Jl. Trikora Rendani, Wosi, Kec. Manokwari Bar., Kabupaten Manokwari, Papua Bar. 98312","Jl. Trikora Rendani, Wosi, Kec. Manokwari Bar., Kabupaten Manokwari",PAPUA BARAT,98312.0,Indonesia,81247192526.0,-0.8703133,134.0480103,https://maps.google.com/?cid=0x0:0x52fc52684fc7839c
cafe,Kedai Kopi,Senyaman Rasa Cafe (SR Cafe),"Jl. Raja Alam I No.KM.05, Rinding, Kec. Tj. Redeb, Kabupaten Berau, Kalimantan Timur 77352","Rinding, Kec. Tj. Redeb, Kabupaten Berau",PAPUA BARAT,77352.0,Indonesia,,2.1572072,117.4551148,https://maps.google.com/?cid=0x0:0x23d1f46416d55ce9
cafe,cafe,Dapoer Rr,"W7PP+5XR sp4, Jl. Merapi, Makbalim, Mayamuk, Kabupaten Sorong, Papua Bar. 98451","Jl. Merapi, Makbalim, Mayamuk, Kabupaten Sorong",PAPUA BARAT,98451.0,Indonesia,,-1.0645236,131.2873975,https://maps.google.com/?cid=0x0:0x3043df447f44e229
cafe,Kedai Kopi,Z COFFEE,"42HX+V6C, Jl. Trikora Rendani, Wosi, Kec. Manokwari Bar., Kabupaten Manokwari, Papua Bar. 98312","Jl. Trikora Rendani, Wosi, Kec. Manokwari Bar., Kabupaten Manokwari",PAPUA BARAT,98312.0,Indonesia,81247192526.0,-0.8703133,134.0480103,https://maps.google.com/?cid=0x0:0x52fc52684fc7839c
cafe,Kedai Kopi,Koteka Coffee,"Jl. Gn. Salju, Amban, Kec. Manokwari Bar., Kabupaten Manokwari, Papua Bar. 98312","Amban, Kec. Manokwari Bar., Kabupaten Manokwari",PAPUA BARAT,98312.0,Indonesia,,-0.8438197,134.067053,https://maps.google.com/?cid=0x0:0x48ea82233d71529f
cafe,Kafe,Siltur Cafe Manokwari,"Jl. Trikora Wosi No.4, Wosi, Kec. Manokwari Bar., Kabupaten Manokwari, Papua Bar. 98312","Wosi, Kec. Manokwari Bar., Kabupaten Manokwari",PAPUA BARAT,98312.0,Indonesia,81344457711.0,-0.8650375,134.0536915,https://maps.google.com/?cid=0x0:0x74b1f3acec35aced
cafe,cafe,,,,PAPUA BARAT,,Indonesia,,,,https://maps.google.com/?cid=0x0:0x52fc52684fc7839cu0026onu003dRasa+Kopi+Pekat+Mantap+Tempat+Nyamanu0026midu003d/g/11dxqbykf8
cafe,cafe,,,,PAPUA BARAT,,Indonesia,,,,https://maps.google.com/?cid=0x0:0x52fc52684fc7839cu0026onu003dKopi+Vietnamu0026midu003d/g/11dxqbykf8
cafe,cafe,,,,PAPUA BARAT,,Indonesia,,,,https://maps.google.com/?cid=0x0:0x52fc52684fc7839cu0026onu003dCappucinou0026midu003d/g/11dxqbykf8
cafe,cafe,,,,PAPUA BARAT,,Indonesia,,,,https://maps.google.com/?cid=0x0:0x52fc52684fc7839cu0026onu003dKopi+Susku0026midu003d/g/11dxqbykf8
cafe,cafe,,,,PAPUA BARAT,,Indonesia,,,,https://maps.google.com/?cid=0x0:0x52fc52684fc7839cu0026onu003dMilk+Coffeeu0026midu003d/g/11dxqbykf8
cafe,cafe,,,,PAPUA BARAT,,Indonesia,,,,https://maps.google.com/?cid=0x0:0x52fc52684fc7839cu0026onu003dThai+Teau0026midu003d/g/11dxqbykf8
cafe,cafe,,,,PAPUA BARAT,,Indonesia,,,,https://maps.google.com/?cid=0x0:0x52fc52684fc7839cu0026onu003dBlack+Coffeeu0026midu003d/g/11dxqbykf8
cafe,cafe,,,,PAPUA BARAT,,Indonesia,,,,https://maps.google.com/?cid=0x0:0x52fc52684fc7839cu0026onu0026midu003d/g/11dxqbykf8
cafe,cafe,Distrik Klabot,"Kabupaten Sorong, Papua Bar.","Kabupaten Sorong, Papua Bar.",PAPUA BARAT,,Indonesia,,-1.3398522,131.7726302,https://maps.google.com/?cid=0x0:0xc080466b0abc7b60
cafe,cafe,Papua Bar. 98456,Papua Bar.,Papua Bar.,PAPUA BARAT,,Indonesia,,-1.2191286,131.8799408,https://maps.google.com/?cid=0x0:0x1193e0fa67947a8b
cafe,Jawa,Warung Makan Cepu,"Jl. Tutwuri, Klamono, Distrik Klamono, Kabupaten Sorong, Papua Bar. 98457","Klamono, Distrik Klamono, Kabupaten Sorong",PAPUA BARAT,98457.0,Indonesia,81248548395.0,-1.12582,131.4867808,https://maps.google.com/?cid=0x0:0x9d151971950fad01
cafe,Kedai Kopi,Kave,"G2WF+98G, Unnamed Road, Wermit, Kec. Teminabuan, Kabupaten Sorong Selatan, Papua Bar. 98454","Unnamed Road, Wermit, Kec. Teminabuan, Kabupaten Sorong Selatan",PAPUA BARAT,98454.0,Indonesia,,-1.4540675,132.0233327,https://maps.google.com/?cid=0x0:0xe26962da167b03d9
cafe,Jawa,Warung Makan Blitar Sidomoro,"VFHQ+2H7, Klamono, Distrik Klamono, Kabupaten Sorong, Papua Bar. 98457","Klamono, Distrik Klamono, Kabupaten Sorong",PAPUA BARAT,98457.0,Indonesia,85344089631.0,-1.1224588,131.4889136,https://maps.google.com/?cid=0x0:0x90eb0479c1165ad1
cafe,Kedai Kopi,Halli Galli Cafe  Resto,"Jl. Tomat No.Unit 2, Malawele, Distrik Sorong, Kabupaten Sorong, Papua Bar. 98414","Malawele, Distrik Sorong, Kabupaten Sorong",PAPUA BARAT,98414.0,Indonesia,82119768794.0,-0.9620366,131.3135301,https://maps.google.com/?cid=0x0:0x29c7a583360bbdc8
cafe,Komplek perumahan,D'transit km16,"Jl sorong klamono km 16 kelurahan klablim, daya, distrik klaurung, Kota Sorong, Papua Bar. 98417","daya, distrik klaurung, Kota Sorong",PAPUA BARAT,98417.0,Indonesia,,-0.9337369,131.3338345,https://maps.google.com/?cid=0x0:0xa0d32791f1fe1a55
cafe,Indonesia,Warung Surabaya,"VFHQ+664, Klawana, Distrik Klamono, Kabupaten Sorong, Papua Bar. 98457","Klawana, Distrik Klamono, Kabupaten Sorong",PAPUA BARAT,98457.0,Indonesia,82378293476.0,-1.1219855,131.4880718,https://maps.google.com/?cid=0x0:0x8b9c323ce05e6ab9
cafe,cafe,Cafe Saralta,"28P4+M2W, Jl. Wortel, Malawele, Kec. Aimas, Kabupaten Sorong, Papua Bar.","Kabupaten Sorong, Papua Bar.",PAPUA BARAT,,Indonesia,,-0.9632579,131.3050764,https://maps.google.com/?cid=0x0:0x2396ec5544d25e8a
cafe,Toko kopi,Nthree Point Cafe,"28VH+478, Jl. Nangka, Malawili, Kec. Aimas, Kabupaten Sorong, Papua Bar. 98414","Jl. Nangka, Malawili, Kec. Aimas, Kabupaten Sorong",PAPUA BARAT,98414.0,Indonesia,82118328860.0,-0.957217,131.3281964,https://maps.google.com/?cid=0x0:0x6d6630dff9b0c07b
cafe,Kafe,Kedai Kopi KRIKOLO,"H22F+R83, Jl. Sengget, Wermit, Kec. Teminabuan, Kabupaten Sorong Selatan, Papua Bar. 98454","Jl. Sengget, Wermit, Kec. Teminabuan, Kabupaten Sorong Selatan",PAPUA BARAT,98454.0,Indonesia,85254123567.0,-1.447992,132.0232847,https://maps.google.com/?cid=0x0:0xd632238928f7e5a
cafe,cafe,Kopusenang,"28G3+MW4, Jl. Wortel, Malawele, Kec. Aimas, Kabupaten Sorong, Papua Bar.","Kabupaten Sorong, Papua Bar.",PAPUA BARAT,,Indonesia,,-0.9733657,131.3048145,https://maps.google.com/?cid=0x0:0xe597a78651d49dba
cafe,Kedai Kopi,SEDANU,"28VC+3V9, Malawili, Kec. Aimas, Kabupaten Sorong, Papua Bar. 98414","Malawili, Kec. Aimas, Kabupaten Sorong",PAPUA BARAT,98414.0,Indonesia,81330248758.0,-0.9573347,131.3222483,https://maps.google.com/?cid=0x0:0x7b3cc3a84eb65692
cafe,Kedai Kopi,Kedai Q_LA,"W7WP+74M, Makbalim, Mayamuk, Kabupaten Sorong, Papua Bar. 98451","Makbalim, Mayamuk, Kabupaten Sorong",PAPUA BARAT,98451.0,Indonesia,,-1.0591909,131.2870107,https://maps.google.com/?cid=0x0:0xdb596dbab0d343dc
cafe,cafe,Senja Cafe,"28RH+9QV, Jl. Sawo, Malawili, Kec. Aimas, Kabupaten Sorong, Papua Bar. 98414","Jl. Sawo, Malawili, Kec. Aimas, Kabupaten Sorong",PAPUA BARAT,98414.0,Indonesia,,-0.9590185,131.3294117,https://maps.google.com/?cid=0x0:0x1e32faa575a7dcc1
cafe,cafe,Distrik Klaso,"Kabupaten Sorong, Papua Bar.","Kabupaten Sorong, Papua Bar.",PAPUA BARAT,,Indonesia,,-0.760926,131.7815518,https://maps.google.com/?cid=0x0:0xffc7826f232f6dfa
cafe,Kedai Kopi,Coffe Clasik Sp2,"X8M9+C9V, Jl. Nusa Indah, Mariyai, Distrik Mariat, Kabupaten Sorong, Papua Bar. 98415","Jl. Nusa Indah, Mariyai, Distrik Mariat, Kabupaten Sorong",PAPUA BARAT,98415.0,Indonesia,82236311189.0,-1.0163828,131.3184321,https://maps.google.com/?cid=0x0:0x2d5b0aee5a099518
cafe,Kedai Kopi,Lyla.coffeeeatery,"4874+3FQ, Klasabi, Kecamatan Sorong Manoi, Kota Sorong, Papua Bar. 98412","Klasabi, Kecamatan Sorong Manoi, Kota Sorong",PAPUA BARAT,98412.0,Indonesia,,-0.8872589,131.3062762,https://maps.google.com/?cid=0x0:0x19cd5d4f1eefb5b2
cafe,cafe,Distrik Klawak,"Kabupaten Sorong, Papua Bar.","Kabupaten Sorong, Papua Bar.",PAPUA BARAT,,Indonesia,,-1.1756003,131.7703046,https://maps.google.com/?cid=0x0:0xa4ffc415fb4dcb3c
cafe,Kedai Kopi,Kave,"G2WF+98G, Unnamed Road, Wermit, Kec. Teminabuan, Kabupaten Sorong Selatan, Papua Bar. 98454","Unnamed Road, Wermit, Kec. Teminabuan, Kabupaten Sorong Selatan",PAPUA BARAT,98454.0,Indonesia,,-1.4540675,132.0233327,https://maps.google.com/?cid=0x0:0xe26962da167b03d9
cafe,Kedai Kopi,Z COFFEE,"42HX+V6C, Jl. Trikora Rendani, Wosi, Kec. Manokwari Bar., Kabupaten Manokwari, Papua Bar. 98312","Jl. Trikora Rendani, Wosi, Kec. Manokwari Bar., Kabupaten Manokwari",PAPUA BARAT,98312.0,Indonesia,81247192526.0,-0.8703133,134.0480103,https://maps.google.com/?cid=0x0:0x52fc52684fc7839c
cafe,Kedai Kopi,Kandera Cafe,"Jalan Reremi Permai No.50, Manokwari Bar., Kec. Manokwari Bar., Kabupaten Manokwari, Papua Bar. 98312","Manokwari Bar., Kec. Manokwari Bar., Kabupaten Manokwari",PAPUA BARAT,98312.0,Indonesia,85244067676.0,-0.8614531,134.0620421,https://maps.google.com/?cid=0x0:0x3df0d0628479781f
cafe,Kafe,Kedai Kopi KRIKOLO,"H22F+R83, Jl. Sengget, Wermit, Kec. Teminabuan, Kabupaten Sorong Selatan, Papua Bar. 98454","Jl. Sengget, Wermit, Kec. Teminabuan, Kabupaten Sorong Selatan",PAPUA BARAT,98454.0,Indonesia,85254123567.0,-1.447992,132.0232847,https://maps.google.com/?cid=0x0:0xd632238928f7e5a
cafe,Kafe,Wilchof Cafe,"Manokwari Tim., Kec. Manokwari Bar., Kabupaten Manokwari, Papua Bar. 98312","Kec. Manokwari Bar., Kabupaten Manokwari",PAPUA BARAT,98312.0,Indonesia,8124801913.0,-0.8418764,134.0699628,https://maps.google.com/?cid=0x0:0xdf7fa1241fcb9fab
cafe,Kafe,Kafe' Baru Buka,"G2VG+C6C, Jl. Sengget, Wermit, Kec. Teminabuan, Kabupaten Sorong Selatan, Papua Bar. 98454","Jl. Sengget, Wermit, Kec. Teminabuan, Kabupaten Sorong Selatan",PAPUA BARAT,98454.0,Indonesia,81248510710.0,-1.4564405,132.0255147,https://maps.google.com/?cid=0x0:0xb20f6f642f2aac57
cafe,Padang,Rest Area Sederhana,"WPW5+5CW, Sayosa, Kec. Sayosa, Kabupaten Sorong, Papua Bar. 98471","Sayosa, Kec. Sayosa, Kabupaten Sorong",PAPUA BARAT,98471.0,Indonesia,,-1.0545087,131.7085809,https://maps.google.com/?cid=0x0:0x39af320198873dda
cafe,cafe,,,,PAPUA BARAT,,Indonesia,,,,https://maps.google.com/?cid=0x0:0xe26962da167b03d9u0026onu003dMubara+Bakaru0026midu003d/g/11lg8mvnxb
cafe,cafe,,,,PAPUA BARAT,,Indonesia,,,,https://maps.google.com/?cid=0x0:0xe26962da167b03d9u0026onu003dTulis+Kangkungu0026midu003d/g/11lg8mvnxb
cafe,cafe,,,,PAPUA BARAT,,Indonesia,,,,https://maps.google.com/?cid=0x0:0xe26962da167b03d9u0026onu0026midu003d/g/11lg8mvnxb
cafe,cafe,Distrik Klayili,"Kabupaten Sorong, Papua Bar.","Kabupaten Sorong, Papua Bar.",PAPUA BARAT,,Indonesia,,-0.8493892,131.7094201,https://maps.google.com/?cid=0x0:0x2d5da8d3e85a5670
cafe,Kedai Kopi,Sembari Coffee,"Jl. KPR Moyo Permai, Klayili, Distrik Klayili, Kabupaten Sorong, Papua Bar. 98419","Klayili, Distrik Klayili, Kabupaten Sorong",PAPUA BARAT,98419.0,Indonesia,,-0.9516965,131.4612677,https://maps.google.com/?cid=0x0:0x4221ef5be1c4a7eb
cafe,Kafe,Cafe Clan,"28XP+276, Bar., Malawili, Kec. Aimas, Kabupaten Sorong, Papua Bar. 98414","Bar., Malawili, Kec. Aimas, Kabupaten Sorong",PAPUA BARAT,98414.0,Indonesia,,-0.9524611,131.3356532,https://maps.google.com/?cid=0x0:0xf5fb8065f3049deb
cafe,cafe,Cafe Saralta,"28P4+M2W, Jl. Wortel, Malawele, Kec. Aimas, Kabupaten Sorong, Papua Bar.","Kabupaten Sorong, Papua Bar.",PAPUA BARAT,,Indonesia,,-0.9632579,131.3050764,https://maps.google.com/?cid=0x0:0x2396ec5544d25e8a
cafe,Kedai Kopi,Kopi Lain Hati Klawuyuk,"Jl. Perwakilan No.3, Jl. Sungai Maruni Masuk No.Km. 10, Klawuyuk, Kec. Sorong Utara, Kota Sorong, Papua Bar. 98418","Jl. Sungai Maruni Masuk No.Km. 10, Klawuyuk, Kec. Sorong Utara, Kota Sorong",PAPUA BARAT,98418.0,Indonesia,,-0.8871897,131.321102,https://maps.google.com/?cid=0x0:0x9ba7eb9d4d2750d
cafe,Restoran,SayStory Aimas,"Malawele, Kec. Aimas, Kabupaten Sorong, Papua Bar. 98414","Kec. Aimas, Kabupaten Sorong",PAPUA BARAT,98414.0,Indonesia,,-0.9576154,131.3297136,https://maps.google.com/?cid=0x0:0x4c40c22ddedffea9
cafe,cafe,Kec. Makbon,"Kabupaten Sorong, Papua Bar.","Kabupaten Sorong, Papua Bar.",PAPUA BARAT,,Indonesia,,-0.7584809,131.586328,https://maps.google.com/?cid=0x0:0x4d3844fe7f245ffc
cafe,Kafe,KOPI JOHNY,"6MHW+F7X, Jl. Trans Papua Barat, Asbaken, Kec. Makbon, Kabupaten Sorong, Papua Bar.","Kabupaten Sorong, Papua Bar.",PAPUA BARAT,,Indonesia,,-0.7712731,131.6957411,https://maps.google.com/?cid=0x0:0x639d130ec30ff79a
cafe,Toko Roti,Sasukun Cafe / Kue Maniso,"Jl. KPR Klasaman Permai, Klamana, Distrik Sorong Timur, Kota Sorong, Papua Bar. 98417","Klamana, Distrik Sorong Timur, Kota Sorong",PAPUA BARAT,98417.0,Indonesia,81343186117.0,-0.9088288,131.3272156,https://maps.google.com/?cid=0x0:0x3a6b69777a1af5da
cafe,Kedai Kopi,Kedai Kopi Mallawa,"484C+5XV, Jl. Raya Melati, Klawuyuk, Distrik Sorong Timur, Kota Sorong, Papua Bar. 98416","Jl. Raya Melati, Klawuyuk, Distrik Sorong Timur, Kota Sorong",PAPUA BARAT,98416.0,Indonesia,82238667701.0,-0.8945095,131.3224111,https://maps.google.com/?cid=0x0:0x9ee7cda42af72dab
cafe,Kedai Kopi,Kopi Konnichiwa,"4857+HWG, Jl. Basuki Rahmat, Klawalu, Kecamatan Sorong Manoi, Kota Sorong, Papua Bar. 98416","Jl. Basuki Rahmat, Klawalu, Kecamatan Sorong Manoi, Kota Sorong",PAPUA BARAT,98416.0,Indonesia,85161889100.0,-0.891066,131.3148138,https://maps.google.com/?cid=0x0:0xc5519dba9bc5379b
cafe,cafe,The Coffee Gota Km 10,"4869+MMH, Jl. Sungai Maruni, Sawagumu, Kec. Sorong Utara, Kota Sorong, Papua Bar. 98416","Jl. Sungai Maruni, Sawagumu, Kec. Sorong Utara, Kota Sorong",PAPUA BARAT,98416.0,Indonesia,,-0.8883211,131.3192388,https://maps.google.com/?cid=0x0:0xd8dc1a7ff264a2db
cafe,Kedai Kopi,The Camp Coffee,"4839+XFG, Jl. Basuki Rahmat, Remu Sel., Kecamatan Sorong Manoi, Kota Sorong, Papua Bar. 98412","Jl. Basuki Rahmat, Remu Sel., Kecamatan Sorong Manoi, Kota Sorong",PAPUA BARAT,98412.0,Indonesia,82248068055.0,-0.89506,131.3186963,https://maps.google.com/?cid=0x0:0xfc04991447594677
cafe,Kedai Kopi,OMAH NGOPI 5758 MAJU MAPAN,"486G+P23, Jl. Sungai Kamundan, Matalamagi, Kec. Sorong Utara, Kota Sorong, Papua Bar. 98415","Jl. Sungai Kamundan, Matalamagi, Kec. Sorong Utara, Kota Sorong",PAPUA BARAT,98415.0,Indonesia,811167959.0,-0.8882387,131.3250425,https://maps.google.com/?cid=0x0:0x70241dd324afebdb
cafe,Asosiasi/organisasi,Kilo 10,"48FM+J7H, Matalamagi, Kec. Sorong Utara, Kota Sorong, Papua Bar.","Kota Sorong, Papua Bar.",PAPUA BARAT,,Indonesia,82397788329.0,-0.8759338,131.3332409,https://maps.google.com/?cid=0x0:0xc68dfba4d0442110
cafe,Kafe,Cafenation,"Matamalagi, Jl. Sungai Maruni, Kec. Sorong Utara, Kota Sorong, Papua Bar. 98412","Jl. Sungai Maruni, Kec. Sorong Utara, Kota Sorong",PAPUA BARAT,98412.0,Indonesia,81245807789.0,-0.8869143,131.3214705,https://maps.google.com/?cid=0x0:0xb970c60a44273f0f
cafe,Kedai Kopi,Kopi Lain Hati Klawuyuk,"Jl. Perwakilan No.3, Jl. Sungai Maruni Masuk No.Km. 10, Klawuyuk, Kec. Sorong Utara, Kota Sorong, Papua Bar. 98418","Jl. Sungai Maruni Masuk No.Km. 10, Klawuyuk, Kec. Sorong Utara, Kota Sorong",PAPUA BARAT,98418.0,Indonesia,,-0.8871897,131.321102,https://maps.google.com/?cid=0x0:0x9ba7eb9d4d2750d
cafe,Kedai Kopi,Mr Krebby,"Matamalagi, Jl. Sungai Maruni, Kec. Sorong Utara, Kota Sorong, Papua Bar. 98412","Jl. Sungai Maruni, Kec. Sorong Utara, Kota Sorong",PAPUA BARAT,98412.0,Indonesia,82397294765.0,-0.8869171,131.3216189,https://maps.google.com/?cid=0x0:0xea57eecd85408e5
cafe,Kafe,Joynap's Games  Cafe,"Jl. Cendrawasih No.1, Klawuyuk, Kec. Sorong Utara, Kota Sorong, Papua Bar. 98416","Klawuyuk, Kec. Sorong Utara, Kota Sorong",PAPUA BARAT,98416.0,Indonesia,82226247705.0,-0.8913831,131.3240189,https://maps.google.com/?cid=0x0:0xd59373ec1569cccb
cafe,Kafe,Cafe ALL Winta,"depan kiri Bakso Nuklir klu dari kilo 20, Jl. Sungai Kamundan, Klawuyuk, Distrik Sorong Timur, Kota Sorong, Papua Bar. 98416","Jl. Sungai Kamundan, Klawuyuk, Distrik Sorong Timur, Kota Sorong",PAPUA BARAT,98416.0,Indonesia,81310935287.0,-0.8909349,131.3266276,https://maps.google.com/?cid=0x0:0xfef7aa4ad30d4a89
cafe,cafe,Papua Bar. 98457,"Kabupaten Sorong, Papua Bar.","Kabupaten Sorong, Papua Bar.",PAPUA BARAT,,Indonesia,,-1.0666951,131.5012792,https://maps.google.com/?cid=0x0:0x60164e450d5e6bd7
cafe,Kafe,MARIAT COFFEE  BAKERY,"Jl. Ahmad Yani No.1, Klademak, Distrik Sorong, Kota Sorong, Papua Bar. 98412","Klademak, Distrik Sorong, Kota Sorong",PAPUA BARAT,98412.0,Indonesia,951323535.0,-0.8823348,131.2745927,https://maps.google.com/?cid=0x0:0x7a76b25bf425bf04
cafe,Jawa,Warung Makan Cepu,"Jl. Tutwuri, Klamono, Distrik Klamono, Kabupaten Sorong, Papua Bar. 98457","Klamono, Distrik Klamono, Kabupaten Sorong",PAPUA BARAT,98457.0,Indonesia,81248548395.0,-1.12582,131.4867808,https://maps.google.com/?cid=0x0:0x9d151971950fad01
cafe,Indonesia,Warung Surabaya,"VFHQ+664, Klawana, Distrik Klamono, Kabupaten Sorong, Papua Bar. 98457","Klawana, Distrik Klamono, Kabupaten Sorong",PAPUA BARAT,98457.0,Indonesia,82378293476.0,-1.1219855,131.4880718,https://maps.google.com/?cid=0x0:0x8b9c323ce05e6ab9
cafe,Kedai Kopi,Suasana Warung Coffee,"X8R9+QWP, Jl. Nusa Indah, Mariyai, Distrik Mariat, Kabupaten Sorong, Papua Bar.","Kabupaten Sorong, Papua Bar.",PAPUA BARAT,,Indonesia,,-1.0080459,131.3198349,https://maps.google.com/?cid=0x0:0x6441cf89b86c739e
cafe,Restoran,WARUNG POLUR HANA,"XCR2+6PR, Klaben, Distrik Mariat, Kabupaten Sorong, Papua Bar.","Kabupaten Sorong, Papua Bar.",PAPUA BARAT,,Indonesia,81248546193.0,-1.0093945,131.401765,https://maps.google.com/?cid=0x0:0xf7585c4b81dda619
cafe,Jawa,Warung Makan Blitar Sidomoro,"VFHQ+2H7, Klamono, Distrik Klamono, Kabupaten Sorong, Papua Bar. 98457","Klamono, Distrik Klamono, Kabupaten Sorong",PAPUA BARAT,98457.0,Indonesia,85344089631.0,-1.1224588,131.4889136,https://maps.google.com/?cid=0x0:0x90eb0479c1165ad1
cafe,Kedai Kopi,Sembari Coffee,"Jl. KPR Moyo Permai, Klayili, Distrik Klayili, Kabupaten Sorong, Papua Bar. 98419","Klayili, Distrik Klayili, Kabupaten Sorong",PAPUA BARAT,98419.0,Indonesia,,-0.9516965,131.4612677,https://maps.google.com/?cid=0x0:0x4221ef5be1c4a7eb
cafe,Kedai Kopi,Lapak Papan Mami Ewun,"XCR3+62, Klaben, Distrik Mariat, Kabupaten Sorong, Papua Bar.","Kabupaten Sorong, Papua Bar.",PAPUA BARAT,,Indonesia,,-1.009393,131.402598,https://maps.google.com/?cid=0x0:0x5553662f693ebe47
cafe,cafe,Cafe COT (Cinta Orang Tertentu,"VFCG+35R, Klawana, Distrik Klamono, Kabupaten Sorong, Papua Bar.","Kabupaten Sorong, Papua Bar.",PAPUA BARAT,,Indonesia,,-1.129775,131.475403,https://maps.google.com/?cid=0x0:0xe8fd8f061f4da8ba
cafe,cafe,Warung Bampapuang,"VFGQ+WMC, Klawana, Distrik Klamono, Kabupaten Sorong, Papua Bar. 98457","Klawana, Distrik Klamono, Kabupaten Sorong",PAPUA BARAT,98457.0,Indonesia,,-1.1226834,131.489145,https://maps.google.com/?cid=0x0:0xe796d28bf380ce72
cafe,cafe,Somay raditya,"VFHQ+38Q, Klamono, Distrik Klamono, Kabupaten Sorong, Papua Bar.","Kabupaten Sorong, Papua Bar.",PAPUA BARAT,,Indonesia,,-1.1222877,131.488359,https://maps.google.com/?cid=0x0:0x26d9121cf7d6deee
cafe,cafe,Klamono,"VFCG+35R, Klawana, Distrik Klamono, Kabupaten Sorong, Papua Bar. 98457","Klawana, Distrik Klamono, Kabupaten Sorong",PAPUA BARAT,98457.0,Indonesia,,-1.129775,131.475403,https://maps.google.com/?cid=0x0:0xc2884afce1b6752e
cafe,Toko kopi,Nthree Point Cafe,"28VH+478, Jl. Nangka, Malawili, Kec. Aimas, Kabupaten Sorong, Papua Bar. 98414","Jl. Nangka, Malawili, Kec. Aimas, Kabupaten Sorong",PAPUA BARAT,98414.0,Indonesia,82118328860.0,-0.957217,131.3281964,https://maps.google.com/?cid=0x0:0x6d6630dff9b0c07b
cafe,cafe,Papua Bar. 98472,"Kabupaten Sorong, Papua Bar.","Kabupaten Sorong, Papua Bar.",PAPUA BARAT,,Indonesia,,-0.8437569,131.9989718,https://maps.google.com/?cid=0x0:0x94d7894d7b2d29e5
cafe,cafe,Kafe Internet MAROS INDAH,"Emaos, Distrik Sausapor, Kabupaten Tambrauw, Papua Bar. 98473","Distrik Sausapor, Kabupaten Tambrauw",PAPUA BARAT,98473.0,Indonesia,82271191527.0,-0.504784,132.0801417,https://maps.google.com/?cid=0x0:0x16b708103e4522bb
cafe,Kedai Kopi,Pondok Kopi Matoa,"Jl. Gn. Salju, Amban, Kec. Manokwari Bar., Kabupaten Manokwari, Papua Bar. 98314","Amban, Kec. Manokwari Bar., Kabupaten Manokwari",PAPUA BARAT,98314.0,Indonesia,8114860000.0,-0.8369567,134.0586793,https://maps.google.com/?cid=0x0:0xc2d60275e273b8e2
cafe,cafe,Tempat cash Hp,"3398+768, Luwelala, Maudus, Kabupaten Sorong, Papua Bar.","Kabupaten Sorong, Papua Bar.",PAPUA BARAT,,Indonesia,,-0.9318321,132.0655866,https://maps.google.com/?cid=0x0:0x17d5183279551d04
cafe,Restoran,Lee Cafe,"Jl. Merdeka No.72, Manokwari Tim., Kec. Manokwari Bar., Kabupaten Manokwari, Papua Bar. 98312","Manokwari Tim., Kec. Manokwari Bar., Kabupaten Manokwari",PAPUA BARAT,98312.0,Indonesia,986215542.0,-0.8632249,134.0748069,https://maps.google.com/?cid=0x0:0x1416e82893e527db
cafe,Kedai Kopi,Maladum Coffee,"Depam, Man Model Sorong, Jl. Basuki Rahmat No.36, RW.Km.7, Malaingkedi, Kec. Sorong Utara, Kota Sorong, Papua Bar. 98415","Man Model Sorong, Jl. Basuki Rahmat No.36, RW.Km.7, Malaingkedi, Kec. Sorong Utara, Kota Sorong",PAPUA BARAT,98415.0,Indonesia,82299299220.0,-0.8862927,131.2892131,https://maps.google.com/?cid=0x0:0x5e8d2aa3e6387fc6
cafe,Kafe,PERINTIS Coffee  Chill,"28VF+R65, Jl. Cempedak, Malawili, Kec. Aimas, Kabupaten Sorong, Papua Bar. 98414","Jl. Cempedak, Malawili, Kec. Aimas, Kabupaten Sorong",PAPUA BARAT,98414.0,Indonesia,82136136658.0,-0.9555865,131.3226106,https://maps.google.com/?cid=0x0:0x7eaf7943a56d41ed
cafe,cafe,Mayamuk,"Kabupaten Sorong, Papua Bar.","Kabupaten Sorong, Papua Bar.",PAPUA BARAT,,Indonesia,,-1.0590548,131.2851406,https://maps.google.com/?cid=0x0:0x18c5e8368d4ad732
cafe,Kedai Kopi,Kedai Q_LA,"W7WP+74M, Makbalim, Mayamuk, Kabupaten Sorong, Papua Bar. 98451","Makbalim, Mayamuk, Kabupaten Sorong",PAPUA BARAT,98451.0,Indonesia,,-1.0591909,131.2870107,https://maps.google.com/?cid=0x0:0xdb596dbab0d343dc
cafe,cafe,UNIMUDA CAFE,"2893+G7W, Jl. Mariat Pantai, Mariat Pantai, Kec. Aimas, Kabupaten Sorong, Papua Bar. 98414","Jl. Mariat Pantai, Mariat Pantai, Kec. Aimas, Kabupaten Sorong",PAPUA BARAT,98414.0,Indonesia,,-0.9811467,131.3032109,https://maps.google.com/?cid=0x0:0x3ae6892ff8aab2de
cafe,Rumah Makan,Warung Makan Je'neberang,"X7CW+GRH, Makbusun, Mayamuk, Kabupaten Sorong, Papua Bar. 98451","Makbusun, Mayamuk, Kabupaten Sorong",PAPUA BARAT,98451.0,Indonesia,82238343524.0,-1.0286765,131.2971075,https://maps.google.com/?cid=0x0:0xd25d6ea9fab996d5
cafe,Terapis Fisik,Cafe  Pijat Spiritual,"X75W+949, Jl. Tiga Dara, Makbusun, Mayamuk, Kabupaten Sorong, Papua Bar. 98451","Jl. Tiga Dara, Makbusun, Mayamuk, Kabupaten Sorong",PAPUA BARAT,98451.0,Indonesia,,-1.0415845,131.295357,https://maps.google.com/?cid=0x0:0x100e2d8cde7d9a23
cafe,Nasi,Warung AZ,"X7CR+W25, Makbalim, Mayamuk, Kabupaten Sorong, Papua Bar. 98451","Makbalim, Mayamuk, Kabupaten Sorong",PAPUA BARAT,98451.0,Indonesia,,-1.0277466,131.2900942,https://maps.google.com/?cid=0x0:0xf5f2c8b5bd330727
cafe,Dapur Umum,Warung Mak Yah,"W7QP+G2H, Jl. Poros, Makbalim, Mayamuk, Kabupaten Sorong, Papua Bar. 98451","Jl. Poros, Makbalim, Mayamuk, Kabupaten Sorong",PAPUA BARAT,98451.0,Indonesia,81360625097.0,-1.061175,131.2851127,https://maps.google.com/?cid=0x0:0x8ae797a361eefc2e
cafe,Rumah Makan,Kejora cafe,"X8H9+654, Jl. Nusa Indah, Mariyai, Distrik Mariat, Kabupaten Sorong, Papua Bar. 98415","Jl. Nusa Indah, Mariyai, Distrik Mariat, Kabupaten Sorong",PAPUA BARAT,98415.0,Indonesia,,-1.0219993,131.31794,https://maps.google.com/?cid=0x0:0x6464f8716d949dd7
cafe,Nasi,Warung DUMA,"Jl. Poros katapop SP3, Makbusun, Mayamuk, Kabupaten Sorong, Papua Bar. 98451","Makbusun, Mayamuk, Kabupaten Sorong",PAPUA BARAT,98451.0,Indonesia,82197976628.0,-1.0283684,131.2961953,https://maps.google.com/?cid=0x0:0xd9df018200dc7d2b
cafe,Bakso,Podo moro 2,"Sp4 jln poros TSM, sebelah SLB, Makbalim, Mayamuk, Kabupaten Sorong, Papua Bar.","Kabupaten Sorong, Papua Bar.",PAPUA BARAT,,Indonesia,,-1.0595862,131.2869487,https://maps.google.com/?cid=0x0:0x1d916885a11d6618
cafe,Perguruan Tinggi,emus,"W76P+2HH, Makotyamsa, Mayamuk, Kabupaten Sorong, Papua Bar. 98451","Makotyamsa, Mayamuk, Kabupaten Sorong",PAPUA BARAT,98451.0,Indonesia,,-1.0904459,131.2867771,https://maps.google.com/?cid=0x0:0x23b1341bb29f80dc
cafe,Indonesia,rumah makan priangan,"W7VP+76H, Makbalim, Mayamuk, Kabupaten Sorong, Papua Bar. 98451","Makbalim, Mayamuk, Kabupaten Sorong",PAPUA BARAT,98451.0,Indonesia,81227228184.0,-1.0568181,131.2856248,https://maps.google.com/?cid=0x0:0xfd20653d52bf29ac
cafe,Toko umum,K15 farms,"X8G9+5MR, Jl. Nusa Indah, Mariyai, Distrik Mariat, Kabupaten Sorong, Papua Bar. 98415","Jl. Nusa Indah, Mariyai, Distrik Mariat, Kabupaten Sorong",PAPUA BARAT,98415.0,Indonesia,,-1.0245077,131.3191298,https://maps.google.com/?cid=0x0:0xd33b4494702d6a52
cafe,Kedai Kopi,Rumah simson,"W8Q2+G93, Jl. Natto, Klasmelek, Mayamuk, Kabupaten Sorong, Papua Bar. 98451","Jl. Natto, Klasmelek, Mayamuk, Kabupaten Sorong",PAPUA BARAT,98451.0,Indonesia,,-1.061289,131.3009647,https://maps.google.com/?cid=0x0:0xc6877b59907debc4
cafe,cafe,Papua Bar. 98451,"Kabupaten Sorong, Papua Bar.","Kabupaten Sorong, Papua Bar.",PAPUA BARAT,,Indonesia,,-1.1998275,131.3611121,https://maps.google.com/?cid=0x0:0x9f6340793bb8183
cafe,Nasi,Artikulasi Resto  Cafe,"V778+6M8, Majaran, Kec. Salawati, Kabupaten Sorong, Papua Bar. 98451","Majaran, Kec. Salawati, Kabupaten Sorong",PAPUA BARAT,98451.0,Indonesia,,-1.1372737,131.2659227,https://maps.google.com/?cid=0x0:0x1d92cc3ea92a6e6c
cafe,Toko kopi,Nthree Point Cafe,"28VH+478, Jl. Nangka, Malawili, Kec. Aimas, Kabupaten Sorong, Papua Bar. 98414","Jl. Nangka, Malawili, Kec. Aimas, Kabupaten Sorong",PAPUA BARAT,98414.0,Indonesia,82118328860.0,-0.957217,131.3281964,https://maps.google.com/?cid=0x0:0x6d6630dff9b0c07b
cafe,Kedai Kopi,ENGINEERING COFFEE AIMAS,"Jalur D samping kantor PDAM, Kec. Aimas, Kabupaten Sorong, Papua Bar. 98444","Kec. Aimas, Kabupaten Sorong",PAPUA BARAT,98444.0,Indonesia,81344646139.0,-0.9556394,131.3309762,https://maps.google.com/?cid=0x0:0xc9393d225085004e
cafe,cafe,UNIMUDA CAFE,"2893+G7W, Jl. Mariat Pantai, Mariat Pantai, Kec. Aimas, Kabupaten Sorong, Papua Bar. 98414","Jl. Mariat Pantai, Mariat Pantai, Kec. Aimas, Kabupaten Sorong",PAPUA BARAT,98414.0,Indonesia,,-0.9811467,131.3032109,https://maps.google.com/?cid=0x0:0x3ae6892ff8aab2de
cafe,Rumah Makan,Kejora cafe,"X8H9+654, Jl. Nusa Indah, Mariyai, Distrik Mariat, Kabupaten Sorong, Papua Bar. 98415","Jl. Nusa Indah, Mariyai, Distrik Mariat, Kabupaten Sorong",PAPUA BARAT,98415.0,Indonesia,,-1.0219993,131.31794,https://maps.google.com/?cid=0x0:0x6464f8716d949dd7
cafe,Kedai Kopi,Kedai Q_LA,"W7WP+74M, Makbalim, Mayamuk, Kabupaten Sorong, Papua Bar. 98451","Makbalim, Mayamuk, Kabupaten Sorong",PAPUA BARAT,98451.0,Indonesia,,-1.0591909,131.2870107,https://maps.google.com/?cid=0x0:0xdb596dbab0d343dc
cafe,Bakso,Podo moro 2,"Sp4 jln poros TSM, sebelah SLB, Makbalim, Mayamuk, Kabupaten Sorong, Papua Bar.","Kabupaten Sorong, Papua Bar.",PAPUA BARAT,,Indonesia,,-1.0595862,131.2869487,https://maps.google.com/?cid=0x0:0x1d916885a11d6618
cafe,Restoran,Warung Budhe,"V799+PC7, Unnamed Road, Majaran, Kec. Salawati, Kabupaten Sorong, Papua Bar. 98451","Unnamed Road, Majaran, Kec. Salawati, Kabupaten Sorong",PAPUA BARAT,98451.0,Indonesia,,-1.1307155,131.2685434,https://maps.google.com/?cid=0x0:0xa5a6e8eb16e8ecf9
cafe,Toko Roti,Indah Indri Cake,"X8M9+V9R, Mariyai, Distrik Mariat, Kabupaten Sorong, Papua Bar. 98415","Mariyai, Distrik Mariat, Kabupaten Sorong",PAPUA BARAT,98415.0,Indonesia,,-1.0152619,131.3183872,https://maps.google.com/?cid=0x0:0xb0cfadee43ad7567
cafe,Kedai Kopi,Halli Galli Cafe  Resto,"Jl. Tomat No.Unit 2, Malawele, Distrik Sorong, Kabupaten Sorong, Papua Bar. 98414","Malawele, Distrik Sorong, Kabupaten Sorong",PAPUA BARAT,98414.0,Indonesia,82119768794.0,-0.9620366,131.3135301,https://maps.google.com/?cid=0x0:0x29c7a583360bbdc8
cafe,Rumah Makan,EMPANG SARI Mujair/Nila goreng,"V778+VQ9, Unnamed Road, Majaran, Kec. Salawati, Kabupaten Sorong, Papua Bar. 98451","Unnamed Road, Majaran, Kec. Salawati, Kabupaten Sorong",PAPUA BARAT,98451.0,Indonesia,82198952929.0,-1.1353323,131.2669877,https://maps.google.com/?cid=0x0:0x5490ffd53fee5f55
cafe,Kedai Kopi,Fadhlie Kedai Kopi,"P94X+W7C, Klasegun, Distrik Segun, Kabupaten Sorong, Papua Bar. 98451","Klasegun, Distrik Segun, Kabupaten Sorong",PAPUA BARAT,98451.0,Indonesia,,-1.2926805,131.39815,https://maps.google.com/?cid=0x0:0x52b69b53aa66837c
cafe,Kafe,Genetri,"V7GJ+HJM, Jl. Nusantara Katapop II, Majaran, Kec. Salawati, Kabupaten Sorong, Papua Bar. 98451","Jl. Nusantara Katapop II, Majaran, Kec. Salawati, Kabupaten Sorong",PAPUA BARAT,98451.0,Indonesia,81248337370.0,-1.1235389,131.2815483,https://maps.google.com/?cid=0x0:0xd9cf2b27dacc23d8
cafe,cafe,Kec. Salawati,"Kabupaten Sorong, Papua Bar.","Kabupaten Sorong, Papua Bar.",PAPUA BARAT,,Indonesia,,-1.1878386,131.2481347,https://maps.google.com/?cid=0x0:0x2da3ce5cc71682ef
cafe,Nasi,Artikulasi Resto  Cafe,"V778+6M8, Majaran, Kec. Salawati, Kabupaten Sorong, Papua Bar. 98451","Majaran, Kec. Salawati, Kabupaten Sorong",PAPUA BARAT,98451.0,Indonesia,,-1.1372737,131.2659227,https://maps.google.com/?cid=0x0:0x1d92cc3ea92a6e6c
cafe,Kafe,Pesona Rasa,"V6FG+3J8, Katinim, Kec. Salawati, Kabupaten Sorong, Papua Bar. 98451","Katinim, Kec. Salawati, Kabupaten Sorong",PAPUA BARAT,98451.0,Indonesia,,-1.1267344,131.2263438,https://maps.google.com/?cid=0x0:0xeee392129ff0540d
cafe,Pertanian,Warung pasundan katapop,"V7CP+W3J, Majaran, Kec. Salawati, Kabupaten Sorong, Papua Bar. 98451","Majaran, Kec. Salawati, Kabupaten Sorong",PAPUA BARAT,98451.0,Indonesia,,-1.1276524,131.2851355,https://maps.google.com/?cid=0x0:0xacf70509a92aaa2b
cafe,Restoran,Warung TERANG BULAN SATRIO,"V7C9+VXF, Majaran, Kec. Salawati, Kabupaten Sorong, Papua Bar. 98451","Majaran, Kec. Salawati, Kabupaten Sorong",PAPUA BARAT,98451.0,Indonesia,85244702232.0,-1.1278105,131.2699283,https://maps.google.com/?cid=0x0:0x5c08d40721038f53
cafe,Restoran,Warung Budhe,"V799+PC7, Unnamed Road, Majaran, Kec. Salawati, Kabupaten Sorong, Papua Bar. 98451","Unnamed Road, Majaran, Kec. Salawati, Kabupaten Sorong",PAPUA BARAT,98451.0,Indonesia,,-1.1307155,131.2685434,https://maps.google.com/?cid=0x0:0xa5a6e8eb16e8ecf9
cafe,Restoran,Warung Rangga,"V7WJ+9WP, Unnamed Road, Majaran, Kec. Salawati, Kabupaten Sorong, Papua Bar. 98451","Unnamed Road, Majaran, Kec. Salawati, Kabupaten Sorong",PAPUA BARAT,98451.0,Indonesia,,-1.1040448,131.2823128,https://maps.google.com/?cid=0x0:0x5baeecd04a996ef8
cafe,Hotel,MUSANGKING RESORT IRVANSYAH,"V79F+9G8, Jl. Nusantara Katapop II, Majaran, Kec. Salawati, Kabupaten Sorong, Papua Bar. 98451","Jl. Nusantara Katapop II, Majaran, Kec. Salawati, Kabupaten Sorong",PAPUA BARAT,98451.0,Indonesia,813333777.0,-1.1315827,131.2738227,https://maps.google.com/?cid=0x0:0xe94fb00a72b7c418
cafe,Kafe,Genetri,"V7GJ+HJM, Jl. Nusantara Katapop II, Majaran, Kec. Salawati, Kabupaten Sorong, Papua Bar. 98451","Jl. Nusantara Katapop II, Majaran, Kec. Salawati, Kabupaten Sorong",PAPUA BARAT,98451.0,Indonesia,81248337370.0,-1.1235389,131.2815483,https://maps.google.com/?cid=0x0:0xd9cf2b27dacc23d8
cafe,Rumah Makan,RM. Sido Rame,"V7XP+H3Q, Majaran, Kec. Salawati, Kabupaten Sorong, Papua Bar. 98451","Majaran, Kec. Salawati, Kabupaten Sorong",PAPUA BARAT,98451.0,Indonesia,,-1.1010442,131.2852448,https://maps.google.com/?cid=0x0:0xfbb86ff1c11f57e9
cafe,Kafe,Warkop pace india,"Jln sombait, Kec. Salawati, Kabupaten Sorong, Papua Bar.","Kabupaten Sorong, Papua Bar.",PAPUA BARAT,,Indonesia,,-1.1913153,131.2486788,https://maps.google.com/?cid=0x0:0x57d83d4453661767
cafe,Restoran,Lesehan Kembang Lintang,"V799+J3J, Unnamed Road, Majaran, Kec. Salawati, Kabupaten Sorong, Papua Bar. 98451","Unnamed Road, Majaran, Kec. Salawati, Kabupaten Sorong",PAPUA BARAT,98451.0,Indonesia,,-1.1309003,131.2676251,https://maps.google.com/?cid=0x0:0x4fbd4c1dd0bf328a
cafe,Dapur Umum,SOMAY Bunda NURUL,"V7GM+W8M, Jl. Nusantara Katapop II, Majaran, Kec. Salawati, Kabupaten Sorong, Papua Bar. 98451","Jl. Nusantara Katapop II, Majaran, Kec. Salawati, Kabupaten Sorong",PAPUA BARAT,98451.0,Indonesia,82198813104.0,-1.1226663,131.2832814,https://maps.google.com/?cid=0x0:0x566839db61b163e4
cafe,Restoran,Kios Lilis,"V7FF+8V8, Majaran, Kec. Salawati, Kabupaten Sorong, Papua Bar. 98451","Majaran, Kec. Salawati, Kabupaten Sorong",PAPUA BARAT,98451.0,Indonesia,,-1.1267905,131.2749276,https://maps.google.com/?cid=0x0:0x90fef149bb725629
cafe,cafe,Kec. Salawati Sel.,"Kabupaten Sorong, Papua Bar.","Kabupaten Sorong, Papua Bar.",PAPUA BARAT,,Indonesia,,-1.2811542,130.8951476,https://maps.google.com/?cid=0x0:0xc4d8ce15c534bd48
cafe,Kedai Kopi,Warung Thompson,"M2F9+92X, Unnamed Road, Kasimle, Seget, Sorong Regency, West Papua 98452","Unnamed Road, Kasimle, Seget, Sorong Regency",PAPUA BARAT,98452.0,Indonesia,,-1.3265171,131.0176073,https://maps.google.com/?cid=0x0:0xa28232b64522af34
cafe,Kafe,EPC,"M2H9+GXV, Jl. Sorong - Makbon, Kasimle, Kabupaten Sorong, Papua Bar. 98452","Jl. Sorong - Makbon, Kasimle, Kabupaten Sorong",PAPUA BARAT,98452.0,Indonesia,82197500435.0,-1.3211384,131.0199227,https://maps.google.com/?cid=0x0:0xe9642bd90ccc98fe
cafe,cafe,Salawati Tengah,"Kabupaten Raja Ampat, Papua Bar.","Kabupaten Raja Ampat, Papua Bar.",PAPUA BARAT,,Indonesia,,-1.0547794,131.0589536,https://maps.google.com/?cid=0x0:0x9e15ae7888c4541f
cafe,Kafe,Pesona Rasa,"V6FG+3J8, Katinim, Kec. Salawati, Kabupaten Sorong, Papua Bar. 98451","Katinim, Kec. Salawati, Kabupaten Sorong",PAPUA BARAT,98451.0,Indonesia,,-1.1267344,131.2263438,https://maps.google.com/?cid=0x0:0xeee392129ff0540d
cafe,Nasi,Artikulasi Resto  Cafe,"V778+6M8, Majaran, Kec. Salawati, Kabupaten Sorong, Papua Bar. 98451","Majaran, Kec. Salawati, Kabupaten Sorong",PAPUA BARAT,98451.0,Indonesia,,-1.1372737,131.2659227,https://maps.google.com/?cid=0x0:0x1d92cc3ea92a6e6c
cafe,Restoran,Warung TERANG BULAN SATRIO,"V7C9+VXF, Majaran, Kec. Salawati, Kabupaten Sorong, Papua Bar. 98451","Majaran, Kec. Salawati, Kabupaten Sorong",PAPUA BARAT,98451.0,Indonesia,85244702232.0,-1.1278105,131.2699283,https://maps.google.com/?cid=0x0:0x5c08d40721038f53
cafe,Restoran,Warung Budhe,"V799+PC7, Unnamed Road, Majaran, Kec. Salawati, Kabupaten Sorong, Papua Bar. 98451","Unnamed Road, Majaran, Kec. Salawati, Kabupaten Sorong",PAPUA BARAT,98451.0,Indonesia,,-1.1307155,131.2685434,https://maps.google.com/?cid=0x0:0xa5a6e8eb16e8ecf9
cafe,cafe,Warung Kopi Rejo,"Waibo, Kec. Salawati Utara, Kabupaten Raja Ampat, Papua Bar. 98484","Kec. Salawati Utara, Kabupaten Raja Ampat",PAPUA BARAT,98484.0,Indonesia,,-1.0545961,131.0593877,https://maps.google.com/?cid=0x0:0x94667f7641d33450
cafe,Dapur Umum,Sebaris Kata Caffe/Rumah Makan,"Jl. Majener, Majaran, Kec. Salawati, Kabupaten Sorong, Papua Bar. 98451","Majaran, Kec. Salawati, Kabupaten Sorong",PAPUA BARAT,98451.0,Indonesia,81248953991.0,-1.1307233,131.2685017,https://maps.google.com/?cid=0x0:0x9bfe78ba71953684
cafe,cafe,SALAWATI CAFE AND RESORT,"Jl. Nusantara Katapop II, Majaran, Kec. Salawati, Kabupaten Sorong, Papua Bar. 98451","Majaran, Kec. Salawati, Kabupaten Sorong",PAPUA BARAT,98451.0,Indonesia,81333377736.0,-1.1313125,131.2735954,https://maps.google.com/?cid=0x0:0x1b317589bebaf11f
cafe,Kedai Kopi,Lyla.coffeeeatery,"4874+3FQ, Klasabi, Kecamatan Sorong Manoi, Kota Sorong, Papua Bar. 98412","Klasabi, Kecamatan Sorong Manoi, Kota Sorong",PAPUA BARAT,98412.0,Indonesia,,-0.8872589,131.3062762,https://maps.google.com/?cid=0x0:0x19cd5d4f1eefb5b2
cafe,Kedai Kopi,Sorong Cafe,"Sawagumu, Kec. Sorong Utara, Kota Sorong, Papua Bar.","Kota Sorong, Papua Bar.",PAPUA BARAT,,Indonesia,81248201730.0,-0.8893784,131.3128926,https://maps.google.com/?cid=0x0:0x7962c1d0ce1b0528
cafe,Restoran,Lesehan Kembang Lintang,"V799+J3J, Unnamed Road, Majaran, Kec. Salawati, Kabupaten Sorong, Papua Bar. 98451","Unnamed Road, Majaran, Kec. Salawati, Kabupaten Sorong",PAPUA BARAT,98451.0,Indonesia,,-1.1309003,131.2676251,https://maps.google.com/?cid=0x0:0x4fbd4c1dd0bf328a
cafe,Restoran,Kios Lilis,"V7FF+8V8, Majaran, Kec. Salawati, Kabupaten Sorong, Papua Bar. 98451","Majaran, Kec. Salawati, Kabupaten Sorong",PAPUA BARAT,98451.0,Indonesia,,-1.1267905,131.2749276,https://maps.google.com/?cid=0x0:0x90fef149bb725629
cafe,Minimarket,Kios la hasim,"W3XG+845, Sakabu, Salawati Tengah, Kabupaten Raja Ampat, Papua Bar. 98484","Sakabu, Salawati Tengah, Kabupaten Raja Ampat",PAPUA BARAT,98484.0,Indonesia,,-1.05173,131.0753522,https://maps.google.com/?cid=0x0:0xc7ed8a82aa34597a
cafe,Padang,Rest Area Sederhana,"WPW5+5CW, Sayosa, Kec. Sayosa, Kabupaten Sorong, Papua Bar. 98471","Sayosa, Kec. Sayosa, Kabupaten Sorong",PAPUA BARAT,98471.0,Indonesia,,-1.0545087,131.7085809,https://maps.google.com/?cid=0x0:0x39af320198873dda
cafe,Kedai Kopi,SAYKOP - SAYA Kopi,"Jl. Bangunan Timur No.13B, Kayu Putih, Kec. Pulo Gadung, Kota Jakarta Timur, Daerah Khusus Ibukota Jakarta 13220","Kayu Putih, Kec. Pulo Gadung, Kota Jakarta Timur",PAPUA BARAT,13220.0,Indonesia,82164853355.0,-6.1890364,106.8879135,https://maps.google.com/?cid=0x0:0x1658f74e114d2d46
cafe,Kedai Kopi,Bi Coffee,"Jl. Sukabakti 1 No.5 Blok A1, Sawah Baru, Kec. Ciputat, Kota Tangerang Selatan, Banten 15414","Sawah Baru, Kec. Ciputat, Kota Tangerang Selatan",PAPUA BARAT,15414.0,Indonesia,,-6.3052732,106.7228419,https://maps.google.com/?cid=0x0:0x297ae4becffe98c2
cafe,Kedai Kopi,Kopi Nako Pamulang,"Jl. Siliwangi No.10, Pamulang Bar., Kec. Pamulang, Kota Tangerang Selatan, Banten 15417","Pamulang Bar., Kec. Pamulang, Kota Tangerang Selatan",PAPUA BARAT,15417.0,Indonesia,82114094520.0,-6.3433248,106.730213,https://maps.google.com/?cid=0x0:0xe8e9410084b09f7d
cafe,,Saeed Shisa Cafe,"Jl. Walang Permai No.5, RT.6/RW.12, Tugu Utara, Kec. Koja, Jkt Utara, Daerah Khusus Ibukota Jakarta 14260","RT.6/RW.12, Tugu Utara, Kec. Koja, Jkt Utara",PAPUA BARAT,14260.0,Indonesia,81280634275.0,-6.1274279,106.9062823,https://maps.google.com/?cid=0x0:0x9b503c452ed07dc8
cafe,Kedai Kopi,Satu Sore Coffee,"PF2X+8CR, Kutruk, Kec. Jambe, Kabupaten Tangerang, Banten 15720","Kutruk, Kec. Jambe, Kabupaten Tangerang",PAPUA BARAT,15720.0,Indonesia,,-6.2991484,106.4985094,https://maps.google.com/?cid=0x0:0x79a013e5ff1d5505
cafe,cafe,Papua Bar. 98471,"Kabupaten Sorong, Papua Bar.","Kabupaten Sorong, Papua Bar.",PAPUA BARAT,,Indonesia,,-0.9628505,131.6809724,https://maps.google.com/?cid=0x0:0xf9eb2cfc3e3195d1
cafe,Kedai Kopi,Serupa Cafe and Eatery,"Jl. Nangka, Malawili, Kec. Aimas, Kabupaten Sorong, Papua Bar. 98444","Malawili, Kec. Aimas, Kabupaten Sorong",PAPUA BARAT,98444.0,Indonesia,,-0.9574859,131.3226217,https://maps.google.com/?cid=0x0:0xc58cb63de2e28003
cafe,Restoran,SayStory Aimas,"Malawele, Kec. Aimas, Kabupaten Sorong, Papua Bar. 98414","Kec. Aimas, Kabupaten Sorong",PAPUA BARAT,98414.0,Indonesia,,-0.9576154,131.3297136,https://maps.google.com/?cid=0x0:0x4c40c22ddedffea9
cafe,Kedai Kopi,KAFE STAY COFFEE,"Belakang GOR, Kompleks Masdjid Al-Azhar,Lorong 3, Rt 02 Rw 05, Malawei, Kecamatan Sorong Manoi, Kota Sorong, Papua Bar. 98412","Kompleks Masdjid Al-Azhar,Lorong 3, Rt 02 Rw 05, Malawei, Kecamatan Sorong Manoi, Kota Sorong",PAPUA BARAT,98412.0,Indonesia,82197959899.0,-0.8888952,131.2817214,https://maps.google.com/?cid=0x0:0x3032f8a350fae72f
cafe,cafe,Senja Cafe,"28RH+9QV, Jl. Sawo, Malawili, Kec. Aimas, Kabupaten Sorong, Papua Bar. 98414","Jl. Sawo, Malawili, Kec. Aimas, Kabupaten Sorong",PAPUA BARAT,98414.0,Indonesia,,-0.9590185,131.3294117,https://maps.google.com/?cid=0x0:0x1e32faa575a7dcc1
cafe,Kafe,KOPI JOHNY,"6MHW+F7X, Jl. Trans Papua Barat, Asbaken, Kec. Makbon, Kabupaten Sorong, Papua Bar.","Kabupaten Sorong, Papua Bar.",PAPUA BARAT,,Indonesia,,-0.7712731,131.6957411,https://maps.google.com/?cid=0x0:0x639d130ec30ff79a
cafe,Kafe,PERINTIS Coffee  Chill,"28VF+R65, Jl. Cempedak, Malawili, Kec. Aimas, Kabupaten Sorong, Papua Bar. 98414","Jl. Cempedak, Malawili, Kec. Aimas, Kabupaten Sorong",PAPUA BARAT,98414.0,Indonesia,82136136658.0,-0.9555865,131.3226106,https://maps.google.com/?cid=0x0:0x7eaf7943a56d41ed
cafe,Kedai Kopi,Do.pyocoffee,"Jl. Sungai Maruni masuk No.km 10, Klawuyuk, Distrik Sorong Timur, Kota Sorong, Papua Bar. 98416","Klawuyuk, Distrik Sorong Timur, Kota Sorong",PAPUA BARAT,98416.0,Indonesia,,-0.8880443,131.3199144,https://maps.google.com/?cid=0x0:0xe98eb1eac6ada00d
cafe,cafe,Kios Pakde Rahmat Seget,"JX4F+FXH, Wawenagu, Distrik Seget, Kabupaten Sorong, Papua Bar. 98452","Wawenagu, Distrik Seget, Kabupaten Sorong",PAPUA BARAT,98452.0,Indonesia,,-1.3939144,130.9755605,https://maps.google.com/?cid=0x0:0xaad485f248e4b75d
cafe,cafe,Papua Bar. 98452,"Kabupaten Sorong, Papua Bar.","Kabupaten Sorong, Papua Bar.",PAPUA BARAT,,Indonesia,,-1.3516263,131.0797172,https://maps.google.com/?cid=0x0:0x12aa97ea8dec5973
cafe,Toko kopi,ENGINEERING COFFEE SORONG,"Jl. Basuki Rahmat, Remu Sel., Kecamatan Sorong Manoi, Kota Sorong, Papua Bar. 98415","Remu Sel., Kecamatan Sorong Manoi, Kota Sorong",PAPUA BARAT,98415.0,Indonesia,85239860284.0,-0.8836482,131.2857925,https://maps.google.com/?cid=0x0:0x6ffb2e2af5ed06c1
cafe,Kedai Kopi,De Koffie Bandara DEO Lt2. Sorong,"Bandara Domine Eduard Osok, Terminal, Jl. Basuki Rahmat, South Remu, Sorong Manoi, Sorong City, West Papua 98412","Terminal, Jl. Basuki Rahmat, South Remu, Sorong Manoi, Sorong City",PAPUA BARAT,98412.0,Indonesia,8124830195.0,-0.8907691,131.2911394,https://maps.google.com/?cid=0x0:0xbf2e2899ff485573
cafe,Kedai Kopi,Sorong Cafe,"Sawagumu, Kec. Sorong Utara, Kota Sorong, Papua Bar.","Kota Sorong, Papua Bar.",PAPUA BARAT,,Indonesia,81248201730.0,-0.8893784,131.3128926,https://maps.google.com/?cid=0x0:0x7962c1d0ce1b0528
cafe,Kedai Kopi,Fadhlie Kedai Kopi,"P94X+W7C, Klasegun, Distrik Segun, Kabupaten Sorong, Papua Bar. 98451","Klasegun, Distrik Segun, Kabupaten Sorong",PAPUA BARAT,98451.0,Indonesia,,-1.2926805,131.39815,https://maps.google.com/?cid=0x0:0x52b69b53aa66837c
cafe,Kafe,Cafenation,"Matamalagi, Jl. Sungai Maruni, Kec. Sorong Utara, Kota Sorong, Papua Bar. 98412","Jl. Sungai Maruni, Kec. Sorong Utara, Kota Sorong",PAPUA BARAT,98412.0,Indonesia,81245807789.0,-0.8869143,131.3214705,https://maps.google.com/?cid=0x0:0xb970c60a44273f0f
cafe,Toko Roti,Sasukun Cafe / Kue Maniso,"Jl. KPR Klasaman Permai, Klamana, Distrik Sorong Timur, Kota Sorong, Papua Bar. 98417","Klamana, Distrik Sorong Timur, Kota Sorong",PAPUA BARAT,98417.0,Indonesia,81343186117.0,-0.9088288,131.3272156,https://maps.google.com/?cid=0x0:0x3a6b69777a1af5da
cafe,cafe,Papua Bar.,,Papua Bar.,PAPUA BARAT,,Indonesia,,-1.3361154,133.1747162,https://maps.google.com/?cid=0x0:0x5349c1f8c5c7cb62
cafe,Kedai Kopi,Serupa Cafe and Eatery,"Jl. Nangka, Malawili, Kec. Aimas, Kabupaten Sorong, Papua Bar. 98444","Malawili, Kec. Aimas, Kabupaten Sorong",PAPUA BARAT,98444.0,Indonesia,,-0.9574859,131.3226217,https://maps.google.com/?cid=0x0:0xc58cb63de2e28003
cafe,Kedai Kopi,Do.pyocoffee,"Jl. Sungai Maruni masuk No.km 10, Klawuyuk, Distrik Sorong Timur, Kota Sorong, Papua Bar. 98416","Klawuyuk, Distrik Sorong Timur, Kota Sorong",PAPUA BARAT,98416.0,Indonesia,,-0.8880443,131.3199144,https://maps.google.com/?cid=0x0:0xe98eb1eac6ada00d
cafe,Kedai Kopi,wabisabicoffee,"Kp. Baru, Distrik Sorong, Kota Sorong, Papua Bar. 98411","Distrik Sorong, Kota Sorong",PAPUA BARAT,98411.0,Indonesia,82137563208.0,-0.8704999,131.253128,https://maps.google.com/?cid=0x0:0xd4029d1b24ccb3b3
cafe,Kedai Kopi,Brown Hill Cafe,"48G3+7XV, Jl. F Kalasuat, Malanu, Kec. Sorong Utara, Kota Sorong, Papua Bar. 98412","Jl. F Kalasuat, Malanu, Kec. Sorong Utara, Kota Sorong",PAPUA BARAT,98412.0,Indonesia,82114721193.0,-0.8742653,131.3049307,https://maps.google.com/?cid=0x0:0xa60cb6d736dfcb14
cafe,Pujasera,Hangout Avenue Sorong,"Jl Sungai Maruni KM 10, Masuk No.23, Kota Sorong, Papua Bar. 98416","Masuk No.23, Kota Sorong",PAPUA BARAT,98416.0,Indonesia,82197698090.0,-0.8868107,131.3216004,https://maps.google.com/?cid=0x0:0x29c3ed1d6d1ac389
cafe,Dapur Umum,GUBUG GEMBOK TJINTA (GGT),"Jl. Basuki Rahmat No.Km. 9, Sawagumu, Kec. Sorong Utara, Kota Sorong, Papua Bar. 98415","Sawagumu, Kec. Sorong Utara, Kota Sorong",PAPUA BARAT,98415.0,Indonesia,81806997999.0,-0.88781,131.30741,https://maps.google.com/?cid=0x0:0x109e4a30a5b526dd
cafe,cafe,Papua Bar. 98413,"Klabala, Distrik Sorong Barat, Kota Sorong, Papua Bar.","Kota Sorong, Papua Bar.",PAPUA BARAT,,Indonesia,,-0.8669518,131.254029,https://maps.google.com/?cid=0x0:0x352e1f254d39ea2b
cafe,Kedai Kopi,Lituretu Cafe,"Jl. Raja Ampat No.6, Kp. Baru, Distrik Sorong, Kota Sorong, Papua Bar. 98413","Kp. Baru, Distrik Sorong, Kota Sorong",PAPUA BARAT,98413.0,Indonesia,,-0.8693478,131.2513118,https://maps.google.com/?cid=0x0:0x9b07fe26707f42b1
cafe,Toko kopi,ENGINEERING COFFEE SORONG,"Jl. Basuki Rahmat, Remu Sel., Kecamatan Sorong Manoi, Kota Sorong, Papua Bar. 98415","Remu Sel., Kecamatan Sorong Manoi, Kota Sorong",PAPUA BARAT,98415.0,Indonesia,85239860284.0,-0.8836482,131.2857925,https://maps.google.com/?cid=0x0:0x6ffb2e2af5ed06c1
cafe,Kedai Kopi,wabisabicoffee,"Kp. Baru, Distrik Sorong, Kota Sorong, Papua Bar. 98411","Distrik Sorong, Kota Sorong",PAPUA BARAT,98411.0,Indonesia,82137563208.0,-0.8704999,131.253128,https://maps.google.com/?cid=0x0:0xd4029d1b24ccb3b3
cafe,Kedai Kopi,Terra Cafe,"Jl. Arfak No.24, Kp. Baru, Distrik Sorong, Kota Sorong, Papua Bar. 98413","Kp. Baru, Distrik Sorong, Kota Sorong",PAPUA BARAT,98413.0,Indonesia,85240161348.0,-0.8717566,131.248572,https://maps.google.com/?cid=0x0:0xa6831f8c179c4651
cafe,Kedai Kopi,Sorong Cafe,"Sawagumu, Kec. Sorong Utara, Kota Sorong, Papua Bar.","Kota Sorong, Papua Bar.",PAPUA BARAT,,Indonesia,81248201730.0,-0.8893784,131.3128926,https://maps.google.com/?cid=0x0:0x7962c1d0ce1b0528
cafe,Kedai Kopi,Do.pyocoffee,"Jl. Sungai Maruni masuk No.km 10, Klawuyuk, Distrik Sorong Timur, Kota Sorong, Papua Bar. 98416","Klawuyuk, Distrik Sorong Timur, Kota Sorong",PAPUA BARAT,98416.0,Indonesia,,-0.8880443,131.3199144,https://maps.google.com/?cid=0x0:0xe98eb1eac6ada00d
cafe,Kedai Kopi,Kopisoe Basuki Rahmat Soq,"Jl. Basuki Rahmat Jl. Melati Raya KM9,5, Klasabi, Kecamatan Sorong Manoi, Kota Sorong, Papua Bar. 98412","Klasabi, Kecamatan Sorong Manoi, Kota Sorong",PAPUA BARAT,98412.0,Indonesia,8114855879.0,-0.8876184,131.3051735,https://maps.google.com/?cid=0x0:0xff094af82c4b2f2
cafe,Kedai Kopi,Brown Hill Cafe,"48G3+7XV, Jl. F Kalasuat, Malanu, Kec. Sorong Utara, Kota Sorong, Papua Bar. 98412","Jl. F Kalasuat, Malanu, Kec. Sorong Utara, Kota Sorong",PAPUA BARAT,98412.0,Indonesia,82114721193.0,-0.8742653,131.3049307,https://maps.google.com/?cid=0x0:0xa60cb6d736dfcb14
cafe,Kedai Kopi,Cafe NongQ,"4857+WPX, Jl. Kilang Blk. B, Sawagumu, Kec. Sorong Utara, Kota Sorong, Papua Bar. 98412","Jl. Kilang Blk. B, Sawagumu, Kec. Sorong Utara, Kota Sorong",PAPUA BARAT,98412.0,Indonesia,81332413232.0,-0.8901424,131.3143502,https://maps.google.com/?cid=0x0:0xfa9c4c2bc1a74a40
cafe,Kafe,Infinity Social House,"46MW+H87, Lido, Distrik Sorong, Kota Sorong, Papua Bar. 98411","Lido, Distrik Sorong, Kota Sorong",PAPUA BARAT,98411.0,Indonesia,82360700899.0,-0.86582,131.2452795,https://maps.google.com/?cid=0x0:0xde8c57d5950c604a
cafe,Makanan Siap Saji,BAPERBOWL,"Jl. Kalimantan No.204, Klabala, Distrik Sorong Barat, Kota Sorong, Papua Bar. 98411","Klabala, Distrik Sorong Barat, Kota Sorong",PAPUA BARAT,98411.0,Indonesia,81394063297.0,-0.8673523,131.2536895,https://maps.google.com/?cid=0x0:0x41b3241a7e58d6c9
cafe,cafe,The Coffee Gota Km 10,"4869+MMH, Jl. Sungai Maruni, Sawagumu, Kec. Sorong Utara, Kota Sorong, Papua Bar. 98416","Jl. Sungai Maruni, Sawagumu, Kec. Sorong Utara, Kota Sorong",PAPUA BARAT,98416.0,Indonesia,,-0.8883211,131.3192388,https://maps.google.com/?cid=0x0:0xd8dc1a7ff264a2db
cafe,Kedai Kopi,Paragraph Kopi Sorong,"4839+PPV, Klawuyuk, Distrik Sorong Timur, Kota Sorong, Papua Bar. 98416","Klawuyuk, Distrik Sorong Timur, Kota Sorong",PAPUA BARAT,98416.0,Indonesia,,-0.8956293,131.3192821,https://maps.google.com/?cid=0x0:0x9564bf3e28b3f14f
cafe,cafe,Sorong,"Kota Sorong, Papua Bar.","Kota Sorong, Papua Bar.",PAPUA BARAT,,Indonesia,,-0.8761629,131.255828,https://maps.google.com/?cid=0x0:0xe32b512ec6c6786
cafe,Kafe,Coffee sultan eks Kopi lain hati sultan hasanuddin kampung makassar,"Jl. Sultan Hasanuddin No.12, Klaligi, Distrik Sorong, Kota Sorong, Papua Bar. 98412","Klaligi, Distrik Sorong, Kota Sorong",PAPUA BARAT,98412.0,Indonesia,8114882929.0,-0.8842594,131.2684883,https://maps.google.com/?cid=0x0:0xb86035231822683e
cafe,Kedai Kopi,Sorong Cafe,"Sawagumu, Kec. Sorong Utara, Kota Sorong, Papua Bar.","Kota Sorong, Papua Bar.",PAPUA BARAT,,Indonesia,81248201730.0,-0.8893784,131.3128926,https://maps.google.com/?cid=0x0:0x7962c1d0ce1b0528
cafe,Kedai Kopi,Tuantana Coffee,"Jl. Malibela No.39, Klawalu, Distrik Sorong Timur, Kota Sorong, Papua Bar. 98416","Klawalu, Distrik Sorong Timur, Kota Sorong",PAPUA BARAT,98416.0,Indonesia,82260971344.0,-0.8996174,131.3178955,https://maps.google.com/?cid=0x0:0x226cd345f67dd7e3
cafe,Kedai Kopi,Kopi Janji Jiwa Sorong (Kampung Baru),"Jl. Arfak No.31, Kp. Baru, Distrik Sorong, Kota Sorong, Papua Bar. 98413","Kp. Baru, Distrik Sorong, Kota Sorong",PAPUA BARAT,98413.0,Indonesia,,-0.8723768,131.2495109,https://maps.google.com/?cid=0x0:0x2dc0561b53c00a19
cafe,Kedai Kopi,Teras Putih Sorong,"47H2+55F, Jl. Dr. Sam Ratulangi, Kp. Baru, Distrik Sorong, Kota Sorong, Papua Bar. 98411","Jl. Dr. Sam Ratulangi, Kp. Baru, Distrik Sorong, Kota Sorong",PAPUA BARAT,98411.0,Indonesia,,-0.8720668,131.2504314,https://maps.google.com/?cid=0x0:0x12c58f0fd9dadc6b
cafe,Kedai Kopi,Kopi Ceplok,"Kp. Baru, Distrik Sorong, Kota Sorong, Papua Bar. 98411","Distrik Sorong, Kota Sorong",PAPUA BARAT,98411.0,Indonesia,81248716139.0,-0.8691274,131.2512787,https://maps.google.com/?cid=0x0:0xec02e409b92d8477
cafe,Kedai Kopi,wabisabicoffee,"Kp. Baru, Distrik Sorong, Kota Sorong, Papua Bar. 98411","Distrik Sorong, Kota Sorong",PAPUA BARAT,98411.0,Indonesia,82137563208.0,-0.8704999,131.253128,https://maps.google.com/?cid=0x0:0xd4029d1b24ccb3b3
cafe,Kedai Kopi,Lyla.coffeeeatery,"4874+3FQ, Klasabi, Kecamatan Sorong Manoi, Kota Sorong, Papua Bar. 98412","Klasabi, Kecamatan Sorong Manoi, Kota Sorong",PAPUA BARAT,98412.0,Indonesia,,-0.8872589,131.3062762,https://maps.google.com/?cid=0x0:0x19cd5d4f1eefb5b2
cafe,Hidangan Laut,Layar Gading Cafe  Restaurant,"Klasuur, Distrik Sorong, Kota Sorong, Papua Bar. 98411","Distrik Sorong, Kota Sorong",PAPUA BARAT,98411.0,Indonesia,85255859001.0,-0.8651982,131.245803,https://maps.google.com/?cid=0x0:0x7da35e815b399cf4
cafe,Kafe,Coffee Box chak's,"Jl. Ahmad Yani No.53, Malabutor, Kecamatan Sorong Manoi, Kota Sorong, Papua Bar. 98415","Malabutor, Kecamatan Sorong Manoi, Kota Sorong",PAPUA BARAT,98415.0,Indonesia,85242088802.0,-0.8830198,131.281061,https://maps.google.com/?cid=0x0:0x33cd03ca8e1451be
cafe,Kedai Kopi,Lituretu Cafe,"Jl. Raja Ampat No.6, Kp. Baru, Distrik Sorong, Kota Sorong, Papua Bar. 98413","Kp. Baru, Distrik Sorong, Kota Sorong",PAPUA BARAT,98413.0,Indonesia,,-0.8693478,131.2513118,https://maps.google.com/?cid=0x0:0x9b07fe26707f42b1
cafe,Kedai Kopi,Brown Hill Cafe,"48G3+7XV, Jl. F Kalasuat, Malanu, Kec. Sorong Utara, Kota Sorong, Papua Bar. 98412","Jl. F Kalasuat, Malanu, Kec. Sorong Utara, Kota Sorong",PAPUA BARAT,98412.0,Indonesia,82114721193.0,-0.8742653,131.3049307,https://maps.google.com/?cid=0x0:0xa60cb6d736dfcb14
cafe,Toko Roti,Billycoffee,"47C7+C65, Jl. Ahmad Yani, Klakublik, Distrik Sorong, Kota Sorong, Papua Bar. 98412","Jl. Ahmad Yani, Klakublik, Distrik Sorong, Kota Sorong",PAPUA BARAT,98412.0,Indonesia,,-0.8788942,131.2631541,https://maps.google.com/?cid=0x0:0x721fba8bd1d4a255
cafe,cafe,Papua Bar. 98416,Papua Bar.,Papua Bar.,PAPUA BARAT,,Indonesia,,-0.8883325,131.3510866,https://maps.google.com/?cid=0x0:0x7d4c82915eeb19ce
cafe,Kedai Kopi,Tuantana Coffee,"Jl. Malibela No.39, Klawalu, Distrik Sorong Timur, Kota Sorong, Papua Bar. 98416","Klawalu, Distrik Sorong Timur, Kota Sorong",PAPUA BARAT,98416.0,Indonesia,82260971344.0,-0.8996174,131.3178955,https://maps.google.com/?cid=0x0:0x226cd345f67dd7e3
cafe,Kedai Kopi,Kopi Konnichiwa,"4857+HWG, Jl. Basuki Rahmat, Klawalu, Kecamatan Sorong Manoi, Kota Sorong, Papua Bar. 98416","Jl. Basuki Rahmat, Klawalu, Kecamatan Sorong Manoi, Kota Sorong",PAPUA BARAT,98416.0,Indonesia,85161889100.0,-0.891066,131.3148138,https://maps.google.com/?cid=0x0:0xc5519dba9bc5379b
cafe,Kafe,Cafenation,"Matamalagi, Jl. Sungai Maruni, Kec. Sorong Utara, Kota Sorong, Papua Bar. 98412","Jl. Sungai Maruni, Kec. Sorong Utara, Kota Sorong",PAPUA BARAT,98412.0,Indonesia,81245807789.0,-0.8869143,131.3214705,https://maps.google.com/?cid=0x0:0xb970c60a44273f0f
cafe,Toko Roti,Sasukun Cafe / Kue Maniso,"Jl. KPR Klasaman Permai, Klamana, Distrik Sorong Timur, Kota Sorong, Papua Bar. 98417","Klamana, Distrik Sorong Timur, Kota Sorong",PAPUA BARAT,98417.0,Indonesia,81343186117.0,-0.9088288,131.3272156,https://maps.google.com/?cid=0x0:0x3a6b69777a1af5da
cafe,Kedai Kopi,Charac.ter coffee house,"Jl. Basuki Rahmat, Klawuyuk, Kec. Sorong Utara, Kota Sorong, Papua Bar. 98416","Klawuyuk, Kec. Sorong Utara, Kota Sorong",PAPUA BARAT,98416.0,Indonesia,81342110466.0,-0.8954408,131.319596,https://maps.google.com/?cid=0x0:0x6b93662abb1ac288
cafe,Pujasera,Hangout Avenue Sorong,"Jl Sungai Maruni KM 10, Masuk No.23, Kota Sorong, Papua Bar. 98416","Masuk No.23, Kota Sorong",PAPUA BARAT,98416.0,Indonesia,82197698090.0,-0.8868107,131.3216004,https://maps.google.com/?cid=0x0:0x29c3ed1d6d1ac389
cafe,Kedai Kopi,Roemah Kopi Coffee Roastery Sorong,"Bar, Jl. Olum fagu No5 Belakang Alfamart Selebesolu, Klawalu, Distrik Sorong Timur, Kota Sorong, Papua Bar. 98417","Jl. Olum fagu No5 Belakang Alfamart Selebesolu, Klawalu, Distrik Sorong Timur, Kota Sorong",PAPUA BARAT,98417.0,Indonesia,81248678008.0,-0.9015205,131.3215979,https://maps.google.com/?cid=0x0:0x7c49fd13377abeda
cafe,cafe,Depot Tritis,"486M+Q68, Jl. Suteja, Matalamagi, Kec. Sorong Utara, Kota Sorong, Papua Bar. 98416","Jl. Suteja, Matalamagi, Kec. Sorong Utara, Kota Sorong",PAPUA BARAT,98416.0,Indonesia,85239815544.0,-0.8880844,131.3330908,https://maps.google.com/?cid=0x0:0x1b42bfebf70212e5
cafe,Kafe,PLANET CAFE JUPITER,"4869+F97, Sawagumu, Kec. Sorong Utara, Kota Sorong, Papua Bar. 98416","Sawagumu, Kec. Sorong Utara, Kota Sorong",PAPUA BARAT,98416.0,Indonesia,8114864111.0,-0.8888367,131.3184254,https://maps.google.com/?cid=0x0:0xacd6cf31e3b6b0cd
cafe,Toko kopi,ENGINEERING COFFEE SORONG,"Jl. Basuki Rahmat, Remu Sel., Kecamatan Sorong Manoi, Kota Sorong, Papua Bar. 98415","Remu Sel., Kecamatan Sorong Manoi, Kota Sorong",PAPUA BARAT,98415.0,Indonesia,85239860284.0,-0.8836482,131.2857925,https://maps.google.com/?cid=0x0:0x6ffb2e2af5ed06c1
cafe,Kedai Kopi,Sorong Cafe,"Sawagumu, Kec. Sorong Utara, Kota Sorong, Papua Bar.","Kota Sorong, Papua Bar.",PAPUA BARAT,,Indonesia,81248201730.0,-0.8893784,131.3128926,https://maps.google.com/?cid=0x0:0x7962c1d0ce1b0528
cafe,cafe,The Coffee Gota Km 10,"4869+MMH, Jl. Sungai Maruni, Sawagumu, Kec. Sorong Utara, Kota Sorong, Papua Bar. 98416","Jl. Sungai Maruni, Sawagumu, Kec. Sorong Utara, Kota Sorong",PAPUA BARAT,98416.0,Indonesia,,-0.8883211,131.3192388,https://maps.google.com/?cid=0x0:0xd8dc1a7ff264a2db
cafe,Kafe,Gallery Coffee,"4839+RRQ, Klawuyuk, Distrik Sorong Timur, Kota Sorong, Papua Bar. 98416","Klawuyuk, Distrik Sorong Timur, Kota Sorong",PAPUA BARAT,98416.0,Indonesia,81248794920.0,-0.8954576,131.3195676,https://maps.google.com/?cid=0x0:0x8b2f60d07e50962a
hotel,hotel,Papua Bar. 98457,"Kabupaten Sorong, Papua Bar.","Kabupaten Sorong, Papua Bar.",PAPUA BARAT,,Indonesia,,-1.0666951,131.5012792,https://maps.google.com/?cid=0x0:0x60164e450d5e6bd7
hotel,hotel,Aimas Hotel And Convention Center,"Klamasen, Distrik Mariat, Kabupaten Sorong, Papua Bar. 98416","Distrik Mariat, Kabupaten Sorong",PAPUA BARAT,98416.0,Indonesia,8114887778.0,-0.9780957,131.3535192,https://maps.google.com/?cid=0x0:0x622ceae2f7c756cf
hotel,hotel,The ignislo sorong hotel,"Basuki Rahmat Street KM 7 Sorong, Malaingkedi, Sorong Utara, Sorong City, West Papua 98412","Malaingkedi, Sorong Utara, Sorong City",PAPUA BARAT,98412.0,Indonesia,,-0.8885403,131.2925628,https://maps.google.com/?cid=0x0:0x9992b24f2542a546
hotel,hotel,The Luxio Hotel,"Jl. Basuki Rahmat KM.12 Sorong, Malaingkedi, Kec. Sorong Utara, West Papua, Papua Bar. 98412","Malaingkedi, Kec. Sorong Utara, West Papua",PAPUA BARAT,98412.0,Indonesia,81344807777.0,-0.9040377,131.3236469,https://maps.google.com/?cid=0x0:0x4a37ba927853645b
hotel,hotel,,,,PAPUA BARAT,,Indonesia,,,,https://maps.google.com/?cid=0x0:0x4a37ba927853645b%7C/g/11y0l8mjv%7Cid-ID
hotel,hotel,Belagri Hotel and Restaurant,"Jl. Raja Ampat No.1, Kp. Baru, Distrik Sorong, Kota Sorong, Papua Bar. 98413","Kp. Baru, Distrik Sorong, Kota Sorong",PAPUA BARAT,98413.0,Indonesia,,-0.8704329,131.2517604,https://maps.google.com/?cid=0x0:0xb0064be8b2a3c2c8
hotel,hotel,RedDoorz near Dermaga Pelabuhan Rakyat,"Jl. Selat Rumberpon No.10A, Remu Sel., Kecamatan Sorong Manoi, Kota Sorong, Papua Bar. 98412","Remu Sel., Kecamatan Sorong Manoi, Kota Sorong",PAPUA BARAT,98412.0,Indonesia,895417300072.0,-0.8853147,131.2865519,https://maps.google.com/?cid=0x0:0x54d7a289f7c7cb50
hotel,hotel,Aston Sorong Hotel  Conference Center,"476V+J9X, Jl. Basuki Rahmat, Malaingkedi, Kec. Sorong Utara, Kota Sorong, Papua Bar. 98412","Jl. Basuki Rahmat, Malaingkedi, Kec. Sorong Utara, Kota Sorong",PAPUA BARAT,98412.0,Indonesia,81148500888.0,-0.8887467,131.2931592,https://maps.google.com/?cid=0x0:0x110a6a5f0a67a7f7
hotel,hotel,favehotel Sorong,"Klabulu, Jl. Basuki Rahmat Malaimsimsa, RT.001/RW.005, Kecamatan Malaimsimsa, Kota Sorong, Papua Bar. 98419","Jl. Basuki Rahmat Malaimsimsa, RT.001/RW.005, Kecamatan Malaimsimsa, Kota Sorong",PAPUA BARAT,98419.0,Indonesia,9513173888.0,-0.8892152,131.2985379,https://maps.google.com/?cid=0x0:0x56f2eb1c250a17fa
hotel,hotel,,,,PAPUA BARAT,,Indonesia,,,,https://maps.google.com/?cid=0x0:0x56f2eb1c250a17fa%7C/g/11g8bwyjxb%7Cid-ID
hotel,hotel,,,,PAPUA BARAT,,Indonesia,,,,https://maps.google.com/?cid=0x0:0x9b9160ef43d35fd5%7C/g/11clwlw14h%7Cid-ID
hotel,hotel,M Hotel Sorong,"Jl. Sungai Maruni, Klawuyuk, Kec. Sorong Utara, Kota Sorong, Papua Bar. 98416","Klawuyuk, Kec. Sorong Utara, Kota Sorong",PAPUA BARAT,98416.0,Indonesia,8114863111.0,-0.8858638,131.3227746,https://maps.google.com/?cid=0x0:0x9b9160ef43d35fd5
hotel,hotel,Swiss-Belhotel Sorong,"Hunting, Telepon, Jl. Jend. Sudirman Kecamatan, Malawei, Kecamatan Sorong Manoi, Kota Sorong, Papua Bar. 98412","Telepon, Jl. Jend. Sudirman Kecamatan, Malawei, Kecamatan Sorong Manoi, Kota Sorong",PAPUA BARAT,98412.0,Indonesia,8114853888.0,-0.889363,131.2749649,https://maps.google.com/?cid=0x0:0x4d32c5e468c00628
hotel,hotel,,,,PAPUA BARAT,,Indonesia,,,,https://maps.google.com/?cid=0x0:0x4d32c5e468c00628%7C/g/11btmq5mpb%7Cid-ID
hotel,hotel,Papua Bar. 98453,"Kabupaten Sorong, Papua Bar.","Kabupaten Sorong, Papua Bar.",PAPUA BARAT,,Indonesia,,-1.3400215,131.6410914,https://maps.google.com/?cid=0x0:0x3be69fb5df79c3fb
hotel,hotel,Aimas Hotel And Convention Center,"Klamasen, Distrik Mariat, Kabupaten Sorong, Papua Bar. 98416","Distrik Mariat, Kabupaten Sorong",PAPUA BARAT,98416.0,Indonesia,8114887778.0,-0.9780957,131.3535192,https://maps.google.com/?cid=0x0:0x622ceae2f7c756cf
hotel,hotel,Belagri Hotel and Restaurant,"Jl. Raja Ampat No.1, Kp. Baru, Distrik Sorong, Kota Sorong, Papua Bar. 98413","Kp. Baru, Distrik Sorong, Kota Sorong",PAPUA BARAT,98413.0,Indonesia,,-0.8704329,131.2517604,https://maps.google.com/?cid=0x0:0xb0064be8b2a3c2c8
hotel,hotel,Fajar Roon Hotel,"Jl. Trikora Wosi, Wosi, Kec. Manokwari Bar., Kabupaten Manokwari, Papua Bar. 98312","Wosi, Kec. Manokwari Bar., Kabupaten Manokwari",PAPUA BARAT,98312.0,Indonesia,85333112338.0,-0.8680273,134.0564644,https://maps.google.com/?cid=0x0:0xec6cf3d20bba5444
hotel,hotel,Hotel Batanta,"46GW+RMC, Kp. Baru, Distrik Sorong, Kota Sorong, Papua Bar. 98411","Kp. Baru, Distrik Sorong, Kota Sorong",PAPUA BARAT,98411.0,Indonesia,,-0.8729338,131.246629,https://maps.google.com/?cid=0x0:0xd18e7775760a134a
hotel,hotel,Penginapan Podomoro,"Jl. Poros, Makbalim, Mayamuk, Kabupaten Sorong, Papua Bar. 98451","Makbalim, Mayamuk, Kabupaten Sorong",PAPUA BARAT,98451.0,Indonesia,82239010520.0,-1.0598593,131.2849439,https://maps.google.com/?cid=0x0:0xc7e1fa75dacfda17
hotel,hotel,Hotel Manna,"Jl. Imam Bonjol, Fandoi, Biak Papua, Kabupaten Biak Numfor, Papua 98112","Fandoi, Biak Papua, Kabupaten Biak Numfor",PAPUA BARAT,98112.0,Indonesia,98122224.0,-1.1808075,136.0821667,https://maps.google.com/?cid=0x0:0x58ba27a7cb3a5bd6
hotel,hotel,Homestay Zahra kabupaten Sorong,"2983+F9H, Klamasen, Distrik Mariat, Kabupaten Sorong, Papua Bar. 98416","Klamasen, Distrik Mariat, Kabupaten Sorong",PAPUA BARAT,98416.0,Indonesia,85254141861.0,-0.9838107,131.3534768,https://maps.google.com/?cid=0x0:0xaa63dccb4a3f7f74
hotel,hotel,Distrik Beraur,"Kabupaten Sorong, Papua Bar.","Kabupaten Sorong, Papua Bar.",PAPUA BARAT,,Indonesia,,-1.2786069,131.7073348,https://maps.google.com/?cid=0x0:0x36a800c8a87a395b
hotel,hotel,Hotel Nusa Indah,"H267+2GH, Kohoin, Kec. Teminabuan, Kabupaten Sorong Selatan, Papua Bar. 98454","Kohoin, Kec. Teminabuan, Kabupaten Sorong Selatan",PAPUA BARAT,98454.0,Indonesia,,-1.439935,132.0138655,https://maps.google.com/?cid=0x0:0x3e6833d129546707
hotel,hotel,Hotel Borobudur Jakarta,"Jl. Lap. Banteng Selatan No.1, Ps. Baru, Kecamatan Sawah Besar, Kota Jakarta Pusat, Daerah Khusus Ibukota Jakarta 10710","Ps. Baru, Kecamatan Sawah Besar, Kota Jakarta Pusat",PAPUA BARAT,10710.0,Indonesia,213805555.0,-6.1721573,106.8358278,https://maps.google.com/?cid=0x0:0x7302b729335a095b
hotel,hotel,,,,PAPUA BARAT,,Indonesia,,,,https://maps.google.com/?cid=0x0:0x7302b729335a095b%7C/g/121g1wcx%7Cid-ID
hotel,Klub Spa dan Kesehatan,Klub  Spa Borobudur,"RRGP+MMR, Jl. Lap. Banteng Selatan, Ps. Baru, Kecamatan Sawah Besar, Kota Jakarta Pusat, Daerah Khusus Ibukota Jakarta 10710","Jl. Lap. Banteng Selatan, Ps. Baru, Kecamatan Sawah Besar, Kota Jakarta Pusat",PAPUA BARAT,10710.0,Indonesia,213805555.0,-6.1732573,106.8366551,https://maps.google.com/?cid=0x0:0xeabad61c131ec24e
hotel,hotel,Hotel Gerbera,"17, Puncak Rd, Cipayung Girang, Megamendung, Bogor Regency, West Java 16770","Puncak Rd, Cipayung Girang, Megamendung, Bogor Regency",PAPUA BARAT,16770.0,Indonesia,2518259358.0,-6.6506324,106.9044907,https://maps.google.com/?cid=0x0:0x8cff58f511f9946a
hotel,hotel,Distrik Klabot,"Kabupaten Sorong, Papua Bar.","Kabupaten Sorong, Papua Bar.",PAPUA BARAT,,Indonesia,,-1.3398522,131.7726302,https://maps.google.com/?cid=0x0:0xc080466b0abc7b60
hotel,hotel,The ignislo sorong hotel,"Basuki Rahmat Street KM 7 Sorong, Malaingkedi, Sorong Utara, Sorong City, West Papua 98412","Malaingkedi, Sorong Utara, Sorong City",PAPUA BARAT,98412.0,Indonesia,,-0.8885403,131.2925628,https://maps.google.com/?cid=0x0:0x9992b24f2542a546
hotel,hotel,Belagri Hotel and Restaurant,"Jl. Raja Ampat No.1, Kp. Baru, Distrik Sorong, Kota Sorong, Papua Bar. 98413","Kp. Baru, Distrik Sorong, Kota Sorong",PAPUA BARAT,98413.0,Indonesia,,-0.8704329,131.2517604,https://maps.google.com/?cid=0x0:0xb0064be8b2a3c2c8
hotel,hotel,Hotel Nusa Indah,"H267+2GH, Kohoin, Kec. Teminabuan, Kabupaten Sorong Selatan, Papua Bar. 98454","Kohoin, Kec. Teminabuan, Kabupaten Sorong Selatan",PAPUA BARAT,98454.0,Indonesia,,-1.439935,132.0138655,https://maps.google.com/?cid=0x0:0x3e6833d129546707
hotel,hotel,Hotel Klabra,"4866+3Q3, Klasabi, Kecamatan Sorong Manoi, Kota Sorong, Papua Bar. 98412","Klasabi, Kecamatan Sorong Manoi, Kota Sorong",PAPUA BARAT,98412.0,Indonesia,,-0.8898674,131.3119131,https://maps.google.com/?cid=0x0:0x8884fbd072b6b03f
hotel,hotel,Fajar Roon Hotel,"Jl. Trikora Wosi, Wosi, Kec. Manokwari Bar., Kabupaten Manokwari, Papua Bar. 98312","Wosi, Kec. Manokwari Bar., Kabupaten Manokwari",PAPUA BARAT,98312.0,Indonesia,85333112338.0,-0.8680273,134.0564644,https://maps.google.com/?cid=0x0:0xec6cf3d20bba5444
hotel,hotel,Hotel Batanta,"46GW+RMC, Kp. Baru, Distrik Sorong, Kota Sorong, Papua Bar. 98411","Kp. Baru, Distrik Sorong, Kota Sorong",PAPUA BARAT,98411.0,Indonesia,,-0.8729338,131.246629,https://maps.google.com/?cid=0x0:0xd18e7775760a134a
hotel,hotel,O,"Jl. Jend. A. Yani No.27, Malabutor, Kecamatan Sorong Manoi, Kota Sorong, Papua Bar. 98412","Malabutor, Kecamatan Sorong Manoi, Kota Sorong",PAPUA BARAT,98412.0,Indonesia,,-0.8827427,131.2828186,https://maps.google.com/?cid=0x0:0x9aebba5ddda67893
hotel,hotel,Swiss-Belhotel Sorong,"Hunting, Telepon, Jl. Jend. Sudirman Kecamatan, Malawei, Kecamatan Sorong Manoi, Kota Sorong, Papua Bar. 98412","Telepon, Jl. Jend. Sudirman Kecamatan, Malawei, Kecamatan Sorong Manoi, Kota Sorong",PAPUA BARAT,98412.0,Indonesia,8114853888.0,-0.889363,131.2749649,https://maps.google.com/?cid=0x0:0x4d32c5e468c00628
hotel,hotel,,,,PAPUA BARAT,,Indonesia,,,,https://maps.google.com/?cid=0x0:0x4d32c5e468c00628%7C/g/11btmq5mpb%7Cid-ID
hotel,hotel,Ayla City Hotel,"479J+39W, Jl. Srigunting, Remu Utara, Distrik Sorong, Kota Sorong, Papua Bar. 98412","Jl. Srigunting, Remu Utara, Distrik Sorong, Kota Sorong",PAPUA BARAT,98412.0,Indonesia,82344146288.0,-0.882262,131.2809502,https://maps.google.com/?cid=0x0:0x7ef22ab0d606bc6f
hotel,hotel,City View Hotel,"479J+38V, Jl. Srigunting, Remu Utara, Distrik Sorong, Kota Sorong, Papua Bar. 98412","Jl. Srigunting, Remu Utara, Distrik Sorong, Kota Sorong",PAPUA BARAT,98412.0,Indonesia,951324102.0,-0.8822749,131.2808058,https://maps.google.com/?cid=0x0:0xac64df2bc7cde404
hotel,hotel,VEGA PRIME Hotel  Convention,"Jl. Frans Kaisiepo, Malaingkedi, Kec. Sorong Utara, Kota Sorong, Papua Bar. 98412","Malaingkedi, Kec. Sorong Utara, Kota Sorong",PAPUA BARAT,98412.0,Indonesia,81148501658.0,-0.8863935,131.2926608,https://maps.google.com/?cid=0x0:0x9490ccc0d9334885
hotel,hotel,Hotel Belagri Sorong,"Jl. Merapi No.8, Klabala, Distrik Sorong Barat, Kota Sorong, Papua Bar. 98411","Klabala, Distrik Sorong Barat, Kota Sorong",PAPUA BARAT,98411.0,Indonesia,951323888.0,-0.8730356,131.2547729,https://maps.google.com/?cid=0x0:0x84dae6f8c4b2e8ad
hotel,hotel,Papua Bar. 98456,Papua Bar.,Papua Bar.,PAPUA BARAT,,Indonesia,,-1.2191286,131.8799408,https://maps.google.com/?cid=0x0:0x1193e0fa67947a8b
hotel,hotel,Aimas Hotel And Convention Center,"Klamasen, Distrik Mariat, Kabupaten Sorong, Papua Bar. 98416","Distrik Mariat, Kabupaten Sorong",PAPUA BARAT,98416.0,Indonesia,8114887778.0,-0.9780957,131.3535192,https://maps.google.com/?cid=0x0:0x622ceae2f7c756cf
hotel,hotel,Aston Sorong Hotel  Conference Center,"476V+J9X, Jl. Basuki Rahmat, Malaingkedi, Kec. Sorong Utara, Kota Sorong, Papua Bar. 98412","Jl. Basuki Rahmat, Malaingkedi, Kec. Sorong Utara, Kota Sorong",PAPUA BARAT,98412.0,Indonesia,81148500888.0,-0.8887467,131.2931592,https://maps.google.com/?cid=0x0:0x110a6a5f0a67a7f7
hotel,hotel,Belagri Hotel and Restaurant,"Jl. Raja Ampat No.1, Kp. Baru, Distrik Sorong, Kota Sorong, Papua Bar. 98413","Kp. Baru, Distrik Sorong, Kota Sorong",PAPUA BARAT,98413.0,Indonesia,,-0.8704329,131.2517604,https://maps.google.com/?cid=0x0:0xb0064be8b2a3c2c8
hotel,hotel,The Luxio Hotel,"Jl. Basuki Rahmat KM.12 Sorong, Malaingkedi, Kec. Sorong Utara, West Papua, Papua Bar. 98412","Malaingkedi, Kec. Sorong Utara, West Papua",PAPUA BARAT,98412.0,Indonesia,81344807777.0,-0.9040377,131.3236469,https://maps.google.com/?cid=0x0:0x4a37ba927853645b
hotel,hotel,,,,PAPUA BARAT,,Indonesia,,,,https://maps.google.com/?cid=0x0:0x4a37ba927853645b%7C/g/11y0l8mjv%7Cid-ID
hotel,hotel,Mahanaim Hotel dan Homestay Manokwari,"jln trikora kalidingin no 109, Wosi, Kec. Manokwari Bar., Kabupaten Manokwari, Papua Bar. 98312","Wosi, Kec. Manokwari Bar., Kabupaten Manokwari",PAPUA BARAT,98312.0,Indonesia,8124830147.0,-0.8699305,134.0471193,https://maps.google.com/?cid=0x0:0xeec6727952b4f3e6
hotel,hotel,M Hotel Sorong,"Jl. Sungai Maruni, Klawuyuk, Kec. Sorong Utara, Kota Sorong, Papua Bar. 98416","Klawuyuk, Kec. Sorong Utara, Kota Sorong",PAPUA BARAT,98416.0,Indonesia,8114863111.0,-0.8858638,131.3227746,https://maps.google.com/?cid=0x0:0x9b9160ef43d35fd5
hotel,hotel,,,,PAPUA BARAT,,Indonesia,,,,https://maps.google.com/?cid=0x0:0x9b9160ef43d35fd5%7C/g/11clwlw14h%7Cid-ID
hotel,hotel,Agung Homestay  Foodie,"Jl. Sungai Maruni Km. 10, Jl. Kilang No.17 18, HOP, Kota Sorong, Papua Bar. 98413","Jl. Kilang No.17 18, HOP, Kota Sorong",PAPUA BARAT,98413.0,Indonesia,8124840920.0,-0.8855187,131.3226186,https://maps.google.com/?cid=0x0:0xc70ccd11d0299b38
hotel,hotel,Penginapan Kofiyau,"46MX+QV7, Unnamed Road, Klasuur, Distrik Sorong, Kota Sorong, Papua Bar. 98411","Unnamed Road, Klasuur, Distrik Sorong, Kota Sorong",PAPUA BARAT,98411.0,Indonesia,82398017326.0,-0.86559,131.2496721,https://maps.google.com/?cid=0x0:0xfc32a1234a9c5c47
hotel,hotel,Hotel Mratuwa Sesna,"G39P+JXC, Keyen, Kec. Teminabuan, Kabupaten Sorong Selatan, Papua Bar. 98454","Keyen, Kec. Teminabuan, Kabupaten Sorong Selatan",PAPUA BARAT,98454.0,Indonesia,81344070037.0,-1.4809318,132.0873892,https://maps.google.com/?cid=0x0:0xa5b0539434328bee
hotel,hotel,Darefan Hotel Sorong,"Jl. Selat Morotai, Remu Sel., Kecamatan Sorong Manoi, Kota Sorong, Papua Bar. 98412","Remu Sel., Kecamatan Sorong Manoi, Kota Sorong",PAPUA BARAT,98412.0,Indonesia,8114868887.0,-0.8877595,131.2893739,https://maps.google.com/?cid=0x0:0x5709bb2ac9cbd24
hotel,hotel,35 Inn,"476C+RFX, Jl. Ferry, Malawei, Distrik Sorong, Kota Sorong, Papua Bar. 98412","Jl. Ferry, Malawei, Distrik Sorong, Kota Sorong",PAPUA BARAT,98412.0,Indonesia,,-0.8878893,131.271243,https://maps.google.com/?cid=0x0:0xb276478752dcd2b2
hotel,hotel,Distrik Klaso,"Kabupaten Sorong, Papua Bar.","Kabupaten Sorong, Papua Bar.",PAPUA BARAT,,Indonesia,,-0.760926,131.7815518,https://maps.google.com/?cid=0x0:0xffc7826f232f6dfa
hotel,hotel,Aimas Hotel And Convention Center,"Klamasen, Distrik Mariat, Kabupaten Sorong, Papua Bar. 98416","Distrik Mariat, Kabupaten Sorong",PAPUA BARAT,98416.0,Indonesia,8114887778.0,-0.9780957,131.3535192,https://maps.google.com/?cid=0x0:0x622ceae2f7c756cf
hotel,hotel,Aston Sorong Hotel  Conference Center,"476V+J9X, Jl. Basuki Rahmat, Malaingkedi, Kec. Sorong Utara, Kota Sorong, Papua Bar. 98412","Jl. Basuki Rahmat, Malaingkedi, Kec. Sorong Utara, Kota Sorong",PAPUA BARAT,98412.0,Indonesia,81148500888.0,-0.8887467,131.2931592,https://maps.google.com/?cid=0x0:0x110a6a5f0a67a7f7
hotel,hotel,,,,PAPUA BARAT,,Indonesia,,,,https://maps.google.com/?cid=0x0:0x4a37ba927853645b%7C/g/11y0l8mjv%7Cid-ID
hotel,hotel,Belagri Hotel and Restaurant,"Jl. Raja Ampat No.1, Kp. Baru, Distrik Sorong, Kota Sorong, Papua Bar. 98413","Kp. Baru, Distrik Sorong, Kota Sorong",PAPUA BARAT,98413.0,Indonesia,,-0.8704329,131.2517604,https://maps.google.com/?cid=0x0:0xb0064be8b2a3c2c8
hotel,hotel,The ignislo sorong hotel,"Basuki Rahmat Street KM 7 Sorong, Malaingkedi, Sorong Utara, Sorong City, West Papua 98412","Malaingkedi, Sorong Utara, Sorong City",PAPUA BARAT,98412.0,Indonesia,,-0.8885403,131.2925628,https://maps.google.com/?cid=0x0:0x9992b24f2542a546
hotel,hotel,Mahanaim Hotel dan Homestay Manokwari,"jln trikora kalidingin no 109, Wosi, Kec. Manokwari Bar., Kabupaten Manokwari, Papua Bar. 98312","Wosi, Kec. Manokwari Bar., Kabupaten Manokwari",PAPUA BARAT,98312.0,Indonesia,8124830147.0,-0.8699305,134.0471193,https://maps.google.com/?cid=0x0:0xeec6727952b4f3e6
hotel,hotel,Kasuari Valley Beach Resort Sorong,"Tj. Kasuari, Distrik Sorong Barat, Kota Sorong, Papua Bar. 98411","Distrik Sorong Barat, Kota Sorong",PAPUA BARAT,98411.0,Indonesia,81247423939.0,-0.8229453,131.2259207,https://maps.google.com/?cid=0x0:0x7ae87156c62b6490
hotel,hotel,M Hotel Sorong,"Jl. Sungai Maruni, Klawuyuk, Kec. Sorong Utara, Kota Sorong, Papua Bar. 98416","Klawuyuk, Kec. Sorong Utara, Kota Sorong",PAPUA BARAT,98416.0,Indonesia,8114863111.0,-0.8858638,131.3227746,https://maps.google.com/?cid=0x0:0x9b9160ef43d35fd5
hotel,hotel,,,,PAPUA BARAT,,Indonesia,,,,https://maps.google.com/?cid=0x0:0x9b9160ef43d35fd5%7C/g/11clwlw14h%7Cid-ID
hotel,hotel,Frances Homestay,"CJF8+H7, Kurkapa, Kabupaten Raja Ampat, Papua Bar.","Kabupaten Raja Ampat, Papua Bar.",PAPUA BARAT,,Indonesia,,-0.5737089,130.6207701,https://maps.google.com/?cid=0x0:0x2da7e8e00eb3b56a
hotel,hotel,favehotel Sorong,"Klabulu, Jl. Basuki Rahmat Malaimsimsa, RT.001/RW.005, Kecamatan Malaimsimsa, Kota Sorong, Papua Bar. 98419","Jl. Basuki Rahmat Malaimsimsa, RT.001/RW.005, Kecamatan Malaimsimsa, Kota Sorong",PAPUA BARAT,98419.0,Indonesia,9513173888.0,-0.8892152,131.2985379,https://maps.google.com/?cid=0x0:0x56f2eb1c250a17fa
hotel,hotel,,,,PAPUA BARAT,,Indonesia,,,,https://maps.google.com/?cid=0x0:0x56f2eb1c250a17fa%7C/g/11g8bwyjxb%7Cid-ID
hotel,hotel,Penginapan Kofiyau,"46MX+QV7, Unnamed Road, Klasuur, Distrik Sorong, Kota Sorong, Papua Bar. 98411","Unnamed Road, Klasuur, Distrik Sorong, Kota Sorong",PAPUA BARAT,98411.0,Indonesia,82398017326.0,-0.86559,131.2496721,https://maps.google.com/?cid=0x0:0xfc32a1234a9c5c47
hotel,hotel,Distrik Klawak,"Kabupaten Sorong, Papua Bar.","Kabupaten Sorong, Papua Bar.",PAPUA BARAT,,Indonesia,,-1.1756003,131.7703046,https://maps.google.com/?cid=0x0:0xa4ffc415fb4dcb3c
hotel,Penginapan,Penginapan Kaliat,"G2VG+6P3, Unnamed Road, Wermit, Teminabuan, South Sorong Regency, West Papua 98454","Unnamed Road, Wermit, Teminabuan, South Sorong Regency",PAPUA BARAT,98454.0,Indonesia,,-1.4569941,132.0267982,https://maps.google.com/?cid=0x0:0x71dd9b579a9ee368
hotel,Hotel,Penginapan Randi,"G2VF+H6P, Wermit, Kec. Teminabuan, Kabupaten Sorong Selatan, Papua Bar. 98454","Wermit, Kec. Teminabuan, Kabupaten Sorong Selatan",PAPUA BARAT,98454.0,Indonesia,85244666808.0,-1.456036,132.0230658,https://maps.google.com/?cid=0x0:0x10374d57a05acfe6
hotel,Hotel,Penginapan GIG,"Jalan Pasar Kajase, Wermit, Kec. Teminabuan, Kabupaten Sorong Selatan, Papua Bar. 98454","Wermit, Kec. Teminabuan, Kabupaten Sorong Selatan",PAPUA BARAT,98454.0,Indonesia,82239469877.0,-1.4562667,132.0233867,https://maps.google.com/?cid=0x0:0x61193ca82fdec729
hotel,Hostel,Teminabuan,"H256+79H, Kohoin, Kec. Teminabuan, Kabupaten Sorong Selatan, Papua Bar.","Kabupaten Sorong Selatan, Papua Bar.",PAPUA BARAT,,Indonesia,,-1.4418184,132.0109997,https://maps.google.com/?cid=0x0:0xf8ebb9e66c10a677
hotel,Hotel,Penginapan Tehit,"H385+V9C Samping warung makan cepat saji, Magis, Kec. Teminabuan, Kabupaten Sorong Selatan, Papua Bar. 98454","Magis, Kec. Teminabuan, Kabupaten Sorong Selatan",PAPUA BARAT,98454.0,Indonesia,,-1.4328008,132.0583886,https://maps.google.com/?cid=0x0:0x542bfc2d67502d60
hotel,hotel,Distrik Klayili,"Kabupaten Sorong, Papua Bar.","Kabupaten Sorong, Papua Bar.",PAPUA BARAT,,Indonesia,,-0.8493892,131.7094201,https://maps.google.com/?cid=0x0:0x2d5da8d3e85a5670
hotel,hotel,Aimas Hotel And Convention Center,"Klamasen, Distrik Mariat, Kabupaten Sorong, Papua Bar. 98416","Distrik Mariat, Kabupaten Sorong",PAPUA BARAT,98416.0,Indonesia,8114887778.0,-0.9780957,131.3535192,https://maps.google.com/?cid=0x0:0x622ceae2f7c756cf
hotel,hotel,The Luxio Hotel,"Jl. Basuki Rahmat KM.12 Sorong, Malaingkedi, Kec. Sorong Utara, West Papua, Papua Bar. 98412","Malaingkedi, Kec. Sorong Utara, West Papua",PAPUA BARAT,98412.0,Indonesia,81344807777.0,-0.9040377,131.3236469,https://maps.google.com/?cid=0x0:0x4a37ba927853645b
hotel,hotel,The ignislo sorong hotel,"Basuki Rahmat Street KM 7 Sorong, Malaingkedi, Sorong Utara, Sorong City, West Papua 98412","Malaingkedi, Sorong Utara, Sorong City",PAPUA BARAT,98412.0,Indonesia,,-0.8885403,131.2925628,https://maps.google.com/?cid=0x0:0x9992b24f2542a546
hotel,hotel,M Hotel Sorong,"Jl. Sungai Maruni, Klawuyuk, Kec. Sorong Utara, Kota Sorong, Papua Bar. 98416","Klawuyuk, Kec. Sorong Utara, Kota Sorong",PAPUA BARAT,98416.0,Indonesia,8114863111.0,-0.8858638,131.3227746,https://maps.google.com/?cid=0x0:0x9b9160ef43d35fd5
hotel,hotel,,,,PAPUA BARAT,,Indonesia,,,,https://maps.google.com/?cid=0x0:0x9b9160ef43d35fd5%7C/g/11clwlw14h%7Cid-ID
hotel,hotel,Agung Homestay  Foodie,"Jl. Sungai Maruni Km. 10, Jl. Kilang No.17 18, HOP, Kota Sorong, Papua Bar. 98413","Jl. Kilang No.17 18, HOP, Kota Sorong",PAPUA BARAT,98413.0,Indonesia,8124840920.0,-0.8855187,131.3226186,https://maps.google.com/?cid=0x0:0xc70ccd11d0299b38
hotel,hotel,EcoVillage Malagufuk,"Malagufuk, Kec. Makbon, Kabupaten Sorong, Papua Bar.","Kabupaten Sorong, Papua Bar.",PAPUA BARAT,,Indonesia,82191511901.0,-0.8048327,131.6438679,https://maps.google.com/?cid=0x0:0x31bffd49f2199ddc
hotel,hotel,Ramayana Inn,"Jl. Sungai Kamundan, Klawuyuk, Kec. Sorong Utara, Kota Sorong, Papua Bar. 98416","Klawuyuk, Kec. Sorong Utara, Kota Sorong",PAPUA BARAT,98416.0,Indonesia,85244420581.0,-0.8889706,131.3255121,https://maps.google.com/?cid=0x0:0x7be0842d937325d6
hotel,hotel,Homestay Zahra kabupaten Sorong,"2983+F9H, Klamasen, Distrik Mariat, Kabupaten Sorong, Papua Bar. 98416","Klamasen, Distrik Mariat, Kabupaten Sorong",PAPUA BARAT,98416.0,Indonesia,85254141861.0,-0.9838107,131.3534768,https://maps.google.com/?cid=0x0:0xaa63dccb4a3f7f74
hotel,hotel,Pasific 889 Homestay Sorong,"Km 10 Jupiter Simpang Lima, Matalamagi, Kec. Sorong Utara, Papua Bar. 98416","Matalamagi, Kec. Sorong Utara",PAPUA BARAT,98416.0,Indonesia,2180629666.0,-0.8843442,131.3261097,https://maps.google.com/?cid=0x0:0x753914bf6fdfd0b7
hotel,hotel,Kec. Makbon,"Kabupaten Sorong, Papua Bar.","Kabupaten Sorong, Papua Bar.",PAPUA BARAT,,Indonesia,,-0.7584809,131.586328,https://maps.google.com/?cid=0x0:0x4d3844fe7f245ffc
hotel,hotel,Aimas Hotel And Convention Center,"Klamasen, Distrik Mariat, Kabupaten Sorong, Papua Bar. 98416","Distrik Mariat, Kabupaten Sorong",PAPUA BARAT,98416.0,Indonesia,8114887778.0,-0.9780957,131.3535192,https://maps.google.com/?cid=0x0:0x622ceae2f7c756cf
hotel,hotel,The Luxio Hotel,"Jl. Basuki Rahmat KM.12 Sorong, Malaingkedi, Kec. Sorong Utara, West Papua, Papua Bar. 98412","Malaingkedi, Kec. Sorong Utara, West Papua",PAPUA BARAT,98412.0,Indonesia,81344807777.0,-0.9040377,131.3236469,https://maps.google.com/?cid=0x0:0x4a37ba927853645b
hotel,hotel,M Hotel Sorong,"Jl. Sungai Maruni, Klawuyuk, Kec. Sorong Utara, Kota Sorong, Papua Bar. 98416","Klawuyuk, Kec. Sorong Utara, Kota Sorong",PAPUA BARAT,98416.0,Indonesia,8114863111.0,-0.8858638,131.3227746,https://maps.google.com/?cid=0x0:0x9b9160ef43d35fd5
hotel,hotel,,,,PAPUA BARAT,,Indonesia,,,,https://maps.google.com/?cid=0x0:0x9b9160ef43d35fd5%7C/g/11clwlw14h%7Cid-ID
hotel,hotel,Mahanaim Hotel dan Homestay Manokwari,"jln trikora kalidingin no 109, Wosi, Kec. Manokwari Bar., Kabupaten Manokwari, Papua Bar. 98312","Wosi, Kec. Manokwari Bar., Kabupaten Manokwari",PAPUA BARAT,98312.0,Indonesia,8124830147.0,-0.8699305,134.0471193,https://maps.google.com/?cid=0x0:0xeec6727952b4f3e6
hotel,hotel,Agung Homestay  Foodie,"Jl. Sungai Maruni Km. 10, Jl. Kilang No.17 18, HOP, Kota Sorong, Papua Bar. 98413","Jl. Kilang No.17 18, HOP, Kota Sorong",PAPUA BARAT,98413.0,Indonesia,8124840920.0,-0.8855187,131.3226186,https://maps.google.com/?cid=0x0:0xc70ccd11d0299b38
hotel,hotel,EcoVillage Malagufuk,"Malagufuk, Kec. Makbon, Kabupaten Sorong, Papua Bar.","Kabupaten Sorong, Papua Bar.",PAPUA BARAT,,Indonesia,82191511901.0,-0.8048327,131.6438679,https://maps.google.com/?cid=0x0:0x31bffd49f2199ddc
hotel,hotel,Royal Mamberamo Hotel,"Jl. Dr. Sam Ratulangi No.35, Kp. Baru, Distrik Sorong, Kota Sorong, Papua Bar. 98413","Kp. Baru, Distrik Sorong, Kota Sorong",PAPUA BARAT,98413.0,Indonesia,951325666.0,-0.871573,131.250864,https://maps.google.com/?cid=0x0:0xb5e32e36111d42eb
hotel,hotel,Ramayana Inn,"Jl. Sungai Kamundan, Klawuyuk, Kec. Sorong Utara, Kota Sorong, Papua Bar. 98416","Klawuyuk, Kec. Sorong Utara, Kota Sorong",PAPUA BARAT,98416.0,Indonesia,85244420581.0,-0.8889706,131.3255121,https://maps.google.com/?cid=0x0:0x7be0842d937325d6
hotel,hotel,Hotel Aquarius,"28VJ+767, Bar., Malawili, Kec. Aimas, Kabupaten Sorong, Papua Bar. 98414","Bar., Malawili, Kec. Aimas, Kabupaten Sorong",PAPUA BARAT,98414.0,Indonesia,951325217.0,-0.9568269,131.330562,https://maps.google.com/?cid=0x0:0xc756b11a37760342
hotel,hotel,Hotel Batanta,"46GW+RMC, Kp. Baru, Distrik Sorong, Kota Sorong, Papua Bar. 98411","Kp. Baru, Distrik Sorong, Kota Sorong",PAPUA BARAT,98411.0,Indonesia,,-0.8729338,131.246629,https://maps.google.com/?cid=0x0:0xd18e7775760a134a
hotel,hotel,Pasific 889 Homestay Sorong,"Km 10 Jupiter Simpang Lima, Matalamagi, Kec. Sorong Utara, Papua Bar. 98416","Matalamagi, Kec. Sorong Utara",PAPUA BARAT,98416.0,Indonesia,2180629666.0,-0.8843442,131.3261097,https://maps.google.com/?cid=0x0:0x753914bf6fdfd0b7
hotel,hotel,Fajar Roon Hotel,"Jl. Trikora Wosi, Wosi, Kec. Manokwari Bar., Kabupaten Manokwari, Papua Bar. 98312","Wosi, Kec. Manokwari Bar., Kabupaten Manokwari",PAPUA BARAT,98312.0,Indonesia,85333112338.0,-0.8680273,134.0564644,https://maps.google.com/?cid=0x0:0xec6cf3d20bba5444
hotel,hotel,Papua Bar. 98457,"Kabupaten Sorong, Papua Bar.","Kabupaten Sorong, Papua Bar.",PAPUA BARAT,,Indonesia,,-1.0666951,131.5012792,https://maps.google.com/?cid=0x0:0x60164e450d5e6bd7
hotel,hotel,,,,PAPUA BARAT,,Indonesia,,,,https://maps.google.com/?cid=0x0:0xbf6ecabef3414744%7C/g/12hnlthc5%7Cid-ID
hotel,hotel,Hotel Mariat,"479F+3XR, Jl. Ahmad Yani No.1, Klademak, Distrik Sorong, Kota Sorong, Papua Bar. 98412","Jl. Ahmad Yani No.1, Klademak, Distrik Sorong, Kota Sorong",PAPUA BARAT,98412.0,Indonesia,951323535.0,-0.8822653,131.2745998,https://maps.google.com/?cid=0x0:0xbf6ecabef3414744
hotel,hotel,VEGA PRIME Hotel  Convention,"Jl. Frans Kaisiepo, Malaingkedi, Kec. Sorong Utara, Kota Sorong, Papua Bar. 98412","Malaingkedi, Kec. Sorong Utara, Kota Sorong",PAPUA BARAT,98412.0,Indonesia,81148501658.0,-0.8863935,131.2926608,https://maps.google.com/?cid=0x0:0x9490ccc0d9334885
hotel,hotel,Aston Sorong Hotel  Conference Center,"476V+J9X, Jl. Basuki Rahmat, Malaingkedi, Kec. Sorong Utara, Kota Sorong, Papua Bar. 98412","Jl. Basuki Rahmat, Malaingkedi, Kec. Sorong Utara, Kota Sorong",PAPUA BARAT,98412.0,Indonesia,81148500888.0,-0.8887467,131.2931592,https://maps.google.com/?cid=0x0:0x110a6a5f0a67a7f7
hotel,hotel,Swiss-Belhotel Sorong,"Hunting, Telepon, Jl. Jend. Sudirman Kecamatan, Malawei, Kecamatan Sorong Manoi, Kota Sorong, Papua Bar. 98412","Telepon, Jl. Jend. Sudirman Kecamatan, Malawei, Kecamatan Sorong Manoi, Kota Sorong",PAPUA BARAT,98412.0,Indonesia,8114853888.0,-0.889363,131.2749649,https://maps.google.com/?cid=0x0:0x4d32c5e468c00628
hotel,hotel,,,,PAPUA BARAT,,Indonesia,,,,https://maps.google.com/?cid=0x0:0x4d32c5e468c00628%7C/g/11btmq5mpb%7Cid-ID
hotel,hotel,The ignislo sorong hotel,"Basuki Rahmat Street KM 7 Sorong, Malaingkedi, Sorong Utara, Sorong City, West Papua 98412","Malaingkedi, Sorong Utara, Sorong City",PAPUA BARAT,98412.0,Indonesia,,-0.8885403,131.2925628,https://maps.google.com/?cid=0x0:0x9992b24f2542a546
hotel,hotel,Belagri Hotel and Restaurant,"Jl. Raja Ampat No.1, Kp. Baru, Distrik Sorong, Kota Sorong, Papua Bar. 98413","Kp. Baru, Distrik Sorong, Kota Sorong",PAPUA BARAT,98413.0,Indonesia,,-0.8704329,131.2517604,https://maps.google.com/?cid=0x0:0xb0064be8b2a3c2c8
hotel,hotel,favehotel Sorong,"Klabulu, Jl. Basuki Rahmat Malaimsimsa, RT.001/RW.005, Kecamatan Malaimsimsa, Kota Sorong, Papua Bar. 98419","Jl. Basuki Rahmat Malaimsimsa, RT.001/RW.005, Kecamatan Malaimsimsa, Kota Sorong",PAPUA BARAT,98419.0,Indonesia,9513173888.0,-0.8892152,131.2985379,https://maps.google.com/?cid=0x0:0x56f2eb1c250a17fa
hotel,hotel,,,,PAPUA BARAT,,Indonesia,,,,https://maps.google.com/?cid=0x0:0x56f2eb1c250a17fa%7C/g/11g8bwyjxb%7Cid-ID
hotel,hotel,The Luxio Hotel,"Jl. Basuki Rahmat KM.12 Sorong, Malaingkedi, Kec. Sorong Utara, West Papua, Papua Bar. 98412","Malaingkedi, Kec. Sorong Utara, West Papua",PAPUA BARAT,98412.0,Indonesia,81344807777.0,-0.9040377,131.3236469,https://maps.google.com/?cid=0x0:0x4a37ba927853645b
hotel,hotel,,,,PAPUA BARAT,,Indonesia,,,,https://maps.google.com/?cid=0x0:0x4a37ba927853645b%7C/g/11y0l8mjv%7Cid-ID
hotel,hotel,Mahanaim Hotel dan Homestay Manokwari,"jln trikora kalidingin no 109, Wosi, Kec. Manokwari Bar., Kabupaten Manokwari, Papua Bar. 98312","Wosi, Kec. Manokwari Bar., Kabupaten Manokwari",PAPUA BARAT,98312.0,Indonesia,8124830147.0,-0.8699305,134.0471193,https://maps.google.com/?cid=0x0:0xeec6727952b4f3e6
hotel,hotel,Papua Bar. 98472,"Kabupaten Sorong, Papua Bar.","Kabupaten Sorong, Papua Bar.",PAPUA BARAT,,Indonesia,,-0.8437569,131.9989718,https://maps.google.com/?cid=0x0:0x94d7894d7b2d29e5
hotel,hotel,Aimas Hotel And Convention Center,"Klamasen, Distrik Mariat, Kabupaten Sorong, Papua Bar. 98416","Distrik Mariat, Kabupaten Sorong",PAPUA BARAT,98416.0,Indonesia,8114887778.0,-0.9780957,131.3535192,https://maps.google.com/?cid=0x0:0x622ceae2f7c756cf
hotel,hotel,Mahanaim Hotel dan Homestay Manokwari,"jln trikora kalidingin no 109, Wosi, Kec. Manokwari Bar., Kabupaten Manokwari, Papua Bar. 98312","Wosi, Kec. Manokwari Bar., Kabupaten Manokwari",PAPUA BARAT,98312.0,Indonesia,8124830147.0,-0.8699305,134.0471193,https://maps.google.com/?cid=0x0:0xeec6727952b4f3e6
hotel,hotel,,,,PAPUA BARAT,,Indonesia,,,,https://maps.google.com/?cid=0x0:0x9b9160ef43d35fd5%7C/g/11clwlw14h%7Cid-ID
hotel,hotel,Penginapan Kofiyau,"46MX+QV7, Unnamed Road, Klasuur, Distrik Sorong, Kota Sorong, Papua Bar. 98411","Unnamed Road, Klasuur, Distrik Sorong, Kota Sorong",PAPUA BARAT,98411.0,Indonesia,82398017326.0,-0.86559,131.2496721,https://maps.google.com/?cid=0x0:0xfc32a1234a9c5c47
hotel,hotel,Sansapore Pacific Park Beach Resort,"beach, Distrik Sausapor, Kabupaten Tambrauw, Papua Bar. 98473","Distrik Sausapor, Kabupaten Tambrauw",PAPUA BARAT,98473.0,Indonesia,81244364246.0,-0.4905207,132.0868177,https://maps.google.com/?cid=0x0:0xdc183e9fad46ec97
hotel,hotel,tempat penginapan,"46GX+7Q4, Kp. Baru, Distrik Sorong, Kota Sorong, Papua Bar.","Kota Sorong, Papua Bar.",PAPUA BARAT,,Indonesia,,-0.8743674,131.249452,https://maps.google.com/?cid=0x0:0x5a527f95bc78be48
hotel,hotel,Penginapan Baruga Indah,"Bandonggwan, Distrik Sausapor, Kabupaten Tambrauw, Papua Bar. 98473","Distrik Sausapor, Kabupaten Tambrauw",PAPUA BARAT,98473.0,Indonesia,,-0.4963589,132.0922358,https://maps.google.com/?cid=0x0:0x825c134d6eff6acf
hotel,hotel,Fajar Roon Hotel,"Jl. Trikora Wosi, Wosi, Kec. Manokwari Bar., Kabupaten Manokwari, Papua Bar. 98312","Wosi, Kec. Manokwari Bar., Kabupaten Manokwari",PAPUA BARAT,98312.0,Indonesia,85333112338.0,-0.8680273,134.0564644,https://maps.google.com/?cid=0x0:0xec6cf3d20bba5444
hotel,hotel,O,"Jl. Jend. A. Yani No.27, Malabutor, Kecamatan Sorong Manoi, Kota Sorong, Papua Bar. 98412","Malabutor, Kecamatan Sorong Manoi, Kota Sorong",PAPUA BARAT,98412.0,Indonesia,,-0.8827427,131.2828186,https://maps.google.com/?cid=0x0:0x9aebba5ddda67893
hotel,hotel,EcoVillage Malagufuk,"Malagufuk, Kec. Makbon, Kabupaten Sorong, Papua Bar.","Kabupaten Sorong, Papua Bar.",PAPUA BARAT,,Indonesia,82191511901.0,-0.8048327,131.6438679,https://maps.google.com/?cid=0x0:0x31bffd49f2199ddc
hotel,hotel,Daima Syariah Stay Sawah Lunto,"5Jl. Sawah Lunto No.32RT 5, RW.1, Ps. Manggis, Kecamatan Setiabudi, Kota Jakarta Selatan, Daerah Khusus Ibukota Jakarta 12970","RW.1, Ps. Manggis, Kecamatan Setiabudi, Kota Jakarta Selatan",PAPUA BARAT,12970.0,Indonesia,218292567.0,-6.2117806,106.8434172,https://maps.google.com/?cid=0x0:0x68204b0b724a397c
hotel,hotel,Verse Luxe Hotel Wahid Hasyim,"Jl. K.H. Wahid Hasyim No.131 9, RT.9/RW.2, Kb. Kacang, Kecamatan Tanah Abang, Kota Jakarta Pusat, Daerah Khusus Ibukota Jakarta 10240","RT.9/RW.2, Kb. Kacang, Kecamatan Tanah Abang, Kota Jakarta Pusat",PAPUA BARAT,10240.0,Indonesia,213919040.0,-6.1871822,106.8213844,https://maps.google.com/?cid=0x0:0x8cb723b8843d18cb
hotel,hotel,,,,PAPUA BARAT,,Indonesia,,,,https://maps.google.com/?cid=0x0:0x8cb723b8843d18cb%7C/g/11g6x997_w%7Cid-ID
hotel,hotel,Mayamuk,"Kabupaten Sorong, Papua Bar.","Kabupaten Sorong, Papua Bar.",PAPUA BARAT,,Indonesia,,-1.0590548,131.2851406,https://maps.google.com/?cid=0x0:0x18c5e8368d4ad732
hotel,hotel,RYLICH PANORAMA HOTEL,"Jl. Sam Ratulangi No.55, Klasuur, Distrik Sorong, Kota Sorong, Papua Bar. 98411","Klasuur, Distrik Sorong, Kota Sorong",PAPUA BARAT,98411.0,Indonesia,81240607603.0,-0.8690863,131.2526553,https://maps.google.com/?cid=0x0:0x994aef0f06a4c9a4
hotel,hotel,Aimas Hotel And Convention Center,"Klamasen, Distrik Mariat, Kabupaten Sorong, Papua Bar. 98416","Distrik Mariat, Kabupaten Sorong",PAPUA BARAT,98416.0,Indonesia,8114887778.0,-0.9780957,131.3535192,https://maps.google.com/?cid=0x0:0x622ceae2f7c756cf
hotel,hotel,VEGA PRIME Hotel  Convention,"Jl. Frans Kaisiepo, Malaingkedi, Kec. Sorong Utara, Kota Sorong, Papua Bar. 98412","Malaingkedi, Kec. Sorong Utara, Kota Sorong",PAPUA BARAT,98412.0,Indonesia,81148501658.0,-0.8863935,131.2926608,https://maps.google.com/?cid=0x0:0x9490ccc0d9334885
hotel,hotel,Mahanaim Hotel dan Homestay Manokwari,"jln trikora kalidingin no 109, Wosi, Kec. Manokwari Bar., Kabupaten Manokwari, Papua Bar. 98312","Wosi, Kec. Manokwari Bar., Kabupaten Manokwari",PAPUA BARAT,98312.0,Indonesia,8124830147.0,-0.8699305,134.0471193,https://maps.google.com/?cid=0x0:0xeec6727952b4f3e6
hotel,hotel,Aston Sorong Hotel  Conference Center,"476V+J9X, Jl. Basuki Rahmat, Malaingkedi, Kec. Sorong Utara, Kota Sorong, Papua Bar. 98412","Jl. Basuki Rahmat, Malaingkedi, Kec. Sorong Utara, Kota Sorong",PAPUA BARAT,98412.0,Indonesia,81148500888.0,-0.8887467,131.2931592,https://maps.google.com/?cid=0x0:0x110a6a5f0a67a7f7
hotel,hotel,The Luxio Hotel,"Jl. Basuki Rahmat KM.12 Sorong, Malaingkedi, Kec. Sorong Utara, West Papua, Papua Bar. 98412","Malaingkedi, Kec. Sorong Utara, West Papua",PAPUA BARAT,98412.0,Indonesia,81344807777.0,-0.9040377,131.3236469,https://maps.google.com/?cid=0x0:0x4a37ba927853645b
hotel,hotel,,,,PAPUA BARAT,,Indonesia,,,,https://maps.google.com/?cid=0x0:0x4a37ba927853645b%7C/g/11y0l8mjv%7Cid-ID
hotel,hotel,Hotel Mariat,"479F+3XR, Jl. Ahmad Yani No.1, Klademak, Distrik Sorong, Kota Sorong, Papua Bar. 98412","Jl. Ahmad Yani No.1, Klademak, Distrik Sorong, Kota Sorong",PAPUA BARAT,98412.0,Indonesia,951323535.0,-0.8822653,131.2745998,https://maps.google.com/?cid=0x0:0xbf6ecabef3414744
hotel,hotel,,,,PAPUA BARAT,,Indonesia,,,,https://maps.google.com/?cid=0x0:0xbf6ecabef3414744%7C/g/12hnlthc5%7Cid-ID
hotel,hotel,City View Hotel,"479J+38V, Jl. Srigunting, Remu Utara, Distrik Sorong, Kota Sorong, Papua Bar. 98412","Jl. Srigunting, Remu Utara, Distrik Sorong, Kota Sorong",PAPUA BARAT,98412.0,Indonesia,951324102.0,-0.8822749,131.2808058,https://maps.google.com/?cid=0x0:0xac64df2bc7cde404
hotel,hotel,The ignislo sorong hotel,"Basuki Rahmat Street KM 7 Sorong, Malaingkedi, Sorong Utara, Sorong City, West Papua 98412","Malaingkedi, Sorong Utara, Sorong City",PAPUA BARAT,98412.0,Indonesia,,-0.8885403,131.2925628,https://maps.google.com/?cid=0x0:0x9992b24f2542a546
hotel,hotel,Swiss-Belhotel Sorong,"Hunting, Telepon, Jl. Jend. Sudirman Kecamatan, Malawei, Kecamatan Sorong Manoi, Kota Sorong, Papua Bar. 98412","Telepon, Jl. Jend. Sudirman Kecamatan, Malawei, Kecamatan Sorong Manoi, Kota Sorong",PAPUA BARAT,98412.0,Indonesia,8114853888.0,-0.889363,131.2749649,https://maps.google.com/?cid=0x0:0x4d32c5e468c00628
hotel,hotel,,,,PAPUA BARAT,,Indonesia,,,,https://maps.google.com/?cid=0x0:0x4d32c5e468c00628%7C/g/11btmq5mpb%7Cid-ID
hotel,hotel,Papua Bar. 98451,"Kabupaten Sorong, Papua Bar.","Kabupaten Sorong, Papua Bar.",PAPUA BARAT,,Indonesia,,-1.1998275,131.3611121,https://maps.google.com/?cid=0x0:0x9f6340793bb8183
hotel,hotel,Aimas Hotel And Convention Center,"Klamasen, Distrik Mariat, Kabupaten Sorong, Papua Bar. 98416","Distrik Mariat, Kabupaten Sorong",PAPUA BARAT,98416.0,Indonesia,8114887778.0,-0.9780957,131.3535192,https://maps.google.com/?cid=0x0:0x622ceae2f7c756cf
hotel,hotel,RYLICH PANORAMA HOTEL,"Jl. Sam Ratulangi No.55, Klasuur, Distrik Sorong, Kota Sorong, Papua Bar. 98411","Klasuur, Distrik Sorong, Kota Sorong",PAPUA BARAT,98411.0,Indonesia,81240607603.0,-0.8690863,131.2526553,https://maps.google.com/?cid=0x0:0x994aef0f06a4c9a4
hotel,hotel,,,,PAPUA BARAT,,Indonesia,,,,https://maps.google.com/?cid=0x0:0xbf6ecabef3414744%7C/g/12hnlthc5%7Cid-ID
hotel,hotel,Aston Sorong Hotel  Conference Center,"476V+J9X, Jl. Basuki Rahmat, Malaingkedi, Kec. Sorong Utara, Kota Sorong, Papua Bar. 98412","Jl. Basuki Rahmat, Malaingkedi, Kec. Sorong Utara, Kota Sorong",PAPUA BARAT,98412.0,Indonesia,81148500888.0,-0.8887467,131.2931592,https://maps.google.com/?cid=0x0:0x110a6a5f0a67a7f7
hotel,hotel,VEGA PRIME Hotel  Convention,"Jl. Frans Kaisiepo, Malaingkedi, Kec. Sorong Utara, Kota Sorong, Papua Bar. 98412","Malaingkedi, Kec. Sorong Utara, Kota Sorong",PAPUA BARAT,98412.0,Indonesia,81148501658.0,-0.8863935,131.2926608,https://maps.google.com/?cid=0x0:0x9490ccc0d9334885
hotel,hotel,Swiss-Belhotel Sorong,"Hunting, Telepon, Jl. Jend. Sudirman Kecamatan, Malawei, Kecamatan Sorong Manoi, Kota Sorong, Papua Bar. 98412","Telepon, Jl. Jend. Sudirman Kecamatan, Malawei, Kecamatan Sorong Manoi, Kota Sorong",PAPUA BARAT,98412.0,Indonesia,8114853888.0,-0.889363,131.2749649,https://maps.google.com/?cid=0x0:0x4d32c5e468c00628
hotel,hotel,,,,PAPUA BARAT,,Indonesia,,,,https://maps.google.com/?cid=0x0:0x4d32c5e468c00628%7C/g/11btmq5mpb%7Cid-ID
hotel,hotel,The ignislo sorong hotel,"Basuki Rahmat Street KM 7 Sorong, Malaingkedi, Sorong Utara, Sorong City, West Papua 98412","Malaingkedi, Sorong Utara, Sorong City",PAPUA BARAT,98412.0,Indonesia,,-0.8885403,131.2925628,https://maps.google.com/?cid=0x0:0x9992b24f2542a546
hotel,hotel,City View Hotel,"479J+38V, Jl. Srigunting, Remu Utara, Distrik Sorong, Kota Sorong, Papua Bar. 98412","Jl. Srigunting, Remu Utara, Distrik Sorong, Kota Sorong",PAPUA BARAT,98412.0,Indonesia,951324102.0,-0.8822749,131.2808058,https://maps.google.com/?cid=0x0:0xac64df2bc7cde404
hotel,hotel,favehotel Sorong,"Klabulu, Jl. Basuki Rahmat Malaimsimsa, RT.001/RW.005, Kecamatan Malaimsimsa, Kota Sorong, Papua Bar. 98419","Jl. Basuki Rahmat Malaimsimsa, RT.001/RW.005, Kecamatan Malaimsimsa, Kota Sorong",PAPUA BARAT,98419.0,Indonesia,9513173888.0,-0.8892152,131.2985379,https://maps.google.com/?cid=0x0:0x56f2eb1c250a17fa
hotel,hotel,,,,PAPUA BARAT,,Indonesia,,,,https://maps.google.com/?cid=0x0:0x56f2eb1c250a17fa%7C/g/11g8bwyjxb%7Cid-ID
hotel,hotel,Belagri Hotel and Restaurant,"Jl. Raja Ampat No.1, Kp. Baru, Distrik Sorong, Kota Sorong, Papua Bar. 98413","Kp. Baru, Distrik Sorong, Kota Sorong",PAPUA BARAT,98413.0,Indonesia,,-0.8704329,131.2517604,https://maps.google.com/?cid=0x0:0xb0064be8b2a3c2c8
hotel,hotel,Marina Mamberamo,"Jl. Yos. Sudarso No.1, Kp. Baru, Distrik Sorong, Kota Sorong, Papua Bar. 98413","Kp. Baru, Distrik Sorong, Kota Sorong",PAPUA BARAT,98413.0,Indonesia,85244588484.0,-0.8757299,131.2440035,https://maps.google.com/?cid=0x0:0x90a6ebcb4c6ebcbd
hotel,hotel,Kec. Salawati,"Kabupaten Sorong, Papua Bar.","Kabupaten Sorong, Papua Bar.",PAPUA BARAT,,Indonesia,,-1.1878386,131.2481347,https://maps.google.com/?cid=0x0:0x2da3ce5cc71682ef
hotel,hotel,Aimas Hotel And Convention Center,"Klamasen, Distrik Mariat, Kabupaten Sorong, Papua Bar. 98416","Distrik Mariat, Kabupaten Sorong",PAPUA BARAT,98416.0,Indonesia,8114887778.0,-0.9780957,131.3535192,https://maps.google.com/?cid=0x0:0x622ceae2f7c756cf
hotel,hotel,The ignislo sorong hotel,"Basuki Rahmat Street KM 7 Sorong, Malaingkedi, Sorong Utara, Sorong City, West Papua 98412","Malaingkedi, Sorong Utara, Sorong City",PAPUA BARAT,98412.0,Indonesia,,-0.8885403,131.2925628,https://maps.google.com/?cid=0x0:0x9992b24f2542a546
hotel,hotel,Mamatua N. Saleo Villa,"HQ55+7HG, Waisai, Distrik Kota Waisai, Kabupaten Raja Ampat, Papua Bar. 98482","Waisai, Distrik Kota Waisai, Kabupaten Raja Ampat",PAPUA BARAT,98482.0,Indonesia,852446534444.0,-0.4418225,130.7589419,https://maps.google.com/?cid=0x0:0x1e1a84f97a5042aa
hotel,hotel,Penginapan Podomoro,"Jl. Poros, Makbalim, Mayamuk, Kabupaten Sorong, Papua Bar. 98451","Makbalim, Mayamuk, Kabupaten Sorong",PAPUA BARAT,98451.0,Indonesia,82239010520.0,-1.0598593,131.2849439,https://maps.google.com/?cid=0x0:0xc7e1fa75dacfda17
hotel,hotel,Hotel Aquarius,"28VJ+767, Bar., Malawili, Kec. Aimas, Kabupaten Sorong, Papua Bar. 98414","Bar., Malawili, Kec. Aimas, Kabupaten Sorong",PAPUA BARAT,98414.0,Indonesia,951325217.0,-0.9568269,131.330562,https://maps.google.com/?cid=0x0:0xc756b11a37760342
hotel,hotel,Hotel Batanta,"46GW+RMC, Kp. Baru, Distrik Sorong, Kota Sorong, Papua Bar. 98411","Kp. Baru, Distrik Sorong, Kota Sorong",PAPUA BARAT,98411.0,Indonesia,,-0.8729338,131.246629,https://maps.google.com/?cid=0x0:0xd18e7775760a134a
hotel,hotel,Homestay Zahra kabupaten Sorong,"2983+F9H, Klamasen, Distrik Mariat, Kabupaten Sorong, Papua Bar. 98416","Klamasen, Distrik Mariat, Kabupaten Sorong",PAPUA BARAT,98416.0,Indonesia,85254141861.0,-0.9838107,131.3534768,https://maps.google.com/?cid=0x0:0xaa63dccb4a3f7f74
hotel,hotel,O,"Jl. Jend. A. Yani No.27, Malabutor, Kecamatan Sorong Manoi, Kota Sorong, Papua Bar. 98412","Malabutor, Kecamatan Sorong Manoi, Kota Sorong",PAPUA BARAT,98412.0,Indonesia,,-0.8827427,131.2828186,https://maps.google.com/?cid=0x0:0x9aebba5ddda67893
hotel,hotel,Darefan Hotel Sorong,"Jl. Selat Morotai, Remu Sel., Kecamatan Sorong Manoi, Kota Sorong, Papua Bar. 98412","Remu Sel., Kecamatan Sorong Manoi, Kota Sorong",PAPUA BARAT,98412.0,Indonesia,8114868887.0,-0.8877595,131.2893739,https://maps.google.com/?cid=0x0:0x5709bb2ac9cbd24
hotel,hotel,Kec. Salawati Sel.,"Kabupaten Sorong, Papua Bar.","Kabupaten Sorong, Papua Bar.",PAPUA BARAT,,Indonesia,,-1.2811542,130.8951476,https://maps.google.com/?cid=0x0:0xc4d8ce15c534bd48
hotel,hotel,Aimas Hotel And Convention Center,"Klamasen, Distrik Mariat, Kabupaten Sorong, Papua Bar. 98416","Distrik Mariat, Kabupaten Sorong",PAPUA BARAT,98416.0,Indonesia,8114887778.0,-0.9780957,131.3535192,https://maps.google.com/?cid=0x0:0x622ceae2f7c756cf
hotel,Taman Hiburan,Taman Wisata Alam Sorong,"38JP+H65, Bar., Klasaman, Distrik Sorong Timur, Kota Sorong, Papua Bar. 98416","Bar., Klasaman, Distrik Sorong Timur, Kota Sorong",PAPUA BARAT,98416.0,Indonesia,,-0.9186169,131.3355955,https://maps.google.com/?cid=0x0:0x34d77911969e750d
hotel,hotel,Pulau Doom,,,PAPUA BARAT,,Indonesia,,-0.8833333,131.2333333,https://maps.google.com/?cid=0x0:0x1db3a7ef2f666be6
hotel,hotel,Hotel Mariat,"479F+3XR, Jl. Ahmad Yani No.1, Klademak, Distrik Sorong, Kota Sorong, Papua Bar. 98412","Jl. Ahmad Yani No.1, Klademak, Distrik Sorong, Kota Sorong",PAPUA BARAT,98412.0,Indonesia,951323535.0,-0.8822653,131.2745998,https://maps.google.com/?cid=0x0:0xbf6ecabef3414744
hotel,hotel,VEGA PRIME Hotel  Convention,"Jl. Frans Kaisiepo, Malaingkedi, Kec. Sorong Utara, Kota Sorong, Papua Bar. 98412","Malaingkedi, Kec. Sorong Utara, Kota Sorong",PAPUA BARAT,98412.0,Indonesia,81148501658.0,-0.8863935,131.2926608,https://maps.google.com/?cid=0x0:0x9490ccc0d9334885
hotel,hotel,,,,PAPUA BARAT,,Indonesia,,,,https://maps.google.com/?cid=0x0:0xbf6ecabef3414744%7C/g/12hnlthc5%7Cid-ID
hotel,hotel,Hotel Mratuwa Sesna,"G39P+JXC, Keyen, Kec. Teminabuan, Kabupaten Sorong Selatan, Papua Bar. 98454","Keyen, Kec. Teminabuan, Kabupaten Sorong Selatan",PAPUA BARAT,98454.0,Indonesia,81344070037.0,-1.4809318,132.0873892,https://maps.google.com/?cid=0x0:0xa5b0539434328bee
hotel,hotel,City View Hotel,"479J+38V, Jl. Srigunting, Remu Utara, Distrik Sorong, Kota Sorong, Papua Bar. 98412","Jl. Srigunting, Remu Utara, Distrik Sorong, Kota Sorong",PAPUA BARAT,98412.0,Indonesia,951324102.0,-0.8822749,131.2808058,https://maps.google.com/?cid=0x0:0xac64df2bc7cde404
hotel,,Panta Kapal,"H278+HMC, Unnamed Road, Namro, Kec. Teminabuan, Kabupaten Sorong Selatan, Papua Bar. 98454","Unnamed Road, Namro, Kec. Teminabuan, Kabupaten Sorong Selatan",PAPUA BARAT,98454.0,Indonesia,,-1.4360733,132.016648,https://maps.google.com/?cid=0x0:0x794003f531510bf1
hotel,hotel,Salawati Tengah,"Kabupaten Raja Ampat, Papua Bar.","Kabupaten Raja Ampat, Papua Bar.",PAPUA BARAT,,Indonesia,,-1.0547794,131.0589536,https://maps.google.com/?cid=0x0:0x9e15ae7888c4541f
hotel,hotel,Aimas Hotel And Convention Center,"Klamasen, Distrik Mariat, Kabupaten Sorong, Papua Bar. 98416","Distrik Mariat, Kabupaten Sorong",PAPUA BARAT,98416.0,Indonesia,8114887778.0,-0.9780957,131.3535192,https://maps.google.com/?cid=0x0:0x622ceae2f7c756cf
hotel,hotel,RYLICH PANORAMA HOTEL,"Jl. Sam Ratulangi No.55, Klasuur, Distrik Sorong, Kota Sorong, Papua Bar. 98411","Klasuur, Distrik Sorong, Kota Sorong",PAPUA BARAT,98411.0,Indonesia,81240607603.0,-0.8690863,131.2526553,https://maps.google.com/?cid=0x0:0x994aef0f06a4c9a4
hotel,hotel,,,,PAPUA BARAT,,Indonesia,,,,https://maps.google.com/?cid=0x0:0xbf6ecabef3414744%7C/g/12hnlthc5%7Cid-ID
hotel,hotel,Belagri Hotel and Restaurant,"Jl. Raja Ampat No.1, Kp. Baru, Distrik Sorong, Kota Sorong, Papua Bar. 98413","Kp. Baru, Distrik Sorong, Kota Sorong",PAPUA BARAT,98413.0,Indonesia,,-0.8704329,131.2517604,https://maps.google.com/?cid=0x0:0xb0064be8b2a3c2c8
hotel,hotel,City View Hotel,"479J+38V, Jl. Srigunting, Remu Utara, Distrik Sorong, Kota Sorong, Papua Bar. 98412","Jl. Srigunting, Remu Utara, Distrik Sorong, Kota Sorong",PAPUA BARAT,98412.0,Indonesia,951324102.0,-0.8822749,131.2808058,https://maps.google.com/?cid=0x0:0xac64df2bc7cde404
hotel,hotel,Marina Mamberamo,"Jl. Yos. Sudarso No.1, Kp. Baru, Distrik Sorong, Kota Sorong, Papua Bar. 98413","Kp. Baru, Distrik Sorong, Kota Sorong",PAPUA BARAT,98413.0,Indonesia,85244588484.0,-0.8757299,131.2440035,https://maps.google.com/?cid=0x0:0x90a6ebcb4c6ebcbd
hotel,hotel,Royal Mamberamo Hotel,"Jl. Dr. Sam Ratulangi No.35, Kp. Baru, Distrik Sorong, Kota Sorong, Papua Bar. 98413","Kp. Baru, Distrik Sorong, Kota Sorong",PAPUA BARAT,98413.0,Indonesia,951325666.0,-0.871573,131.250864,https://maps.google.com/?cid=0x0:0xb5e32e36111d42eb
hotel,hotel,Hotel Lido 88,"Kompleks Lido, Jl. Yos. Sudarso, Klasuur, Distrik Sorong, Kota Sorong, Papua Bar. 98411","Jl. Yos. Sudarso, Klasuur, Distrik Sorong, Kota Sorong",PAPUA BARAT,98411.0,Indonesia,895417300072.0,-0.8651585,131.2458125,https://maps.google.com/?cid=0x0:0xfa1a9f3ccb086f62
hotel,hotel,InnBox Hostel,"Jl. Sam Ratulangi No.91, Klasuur, Distrik Sorong, Kota Sorong, Papua Bar. 98413","Klasuur, Distrik Sorong, Kota Sorong",PAPUA BARAT,98413.0,Indonesia,81268888355.0,-0.8669219,131.2528048,https://maps.google.com/?cid=0x0:0x3be781e9731e888a
hotel,hotel,Hotel Belagri Sorong,"Jl. Merapi No.8, Klabala, Distrik Sorong Barat, Kota Sorong, Papua Bar. 98411","Klabala, Distrik Sorong Barat, Kota Sorong",PAPUA BARAT,98411.0,Indonesia,951323888.0,-0.8730356,131.2547729,https://maps.google.com/?cid=0x0:0x84dae6f8c4b2e8ad
hotel,hotel,Hotel Paparisa Manise,"Jl. Jend. Sudirman No.10, Klaligi, Kecamatan Sorong Manoi, Kota Sorong, Papua Bar. 98412","Klaligi, Kecamatan Sorong Manoi, Kota Sorong",PAPUA BARAT,98412.0,Indonesia,9513173969.0,-0.8822838,131.2644305,https://maps.google.com/?cid=0x0:0x3a80c35a629494eb
hotel,hotel,Indah Guesthouse,"46PX+CWR, Klasuur, Distrik Sorong, Kota Sorong, Papua Bar.","Kota Sorong, Papua Bar.",PAPUA BARAT,,Indonesia,,-0.8638907,131.2497706,https://maps.google.com/?cid=0x0:0x7886b39783a76069
hotel,hotel,Swiss-Belhotel Sorong,"Hunting, Telepon, Jl. Jend. Sudirman Kecamatan, Malawei, Kecamatan Sorong Manoi, Kota Sorong, Papua Bar. 98412","Telepon, Jl. Jend. Sudirman Kecamatan, Malawei, Kecamatan Sorong Manoi, Kota Sorong",PAPUA BARAT,98412.0,Indonesia,8114853888.0,-0.889363,131.2749649,https://maps.google.com/?cid=0x0:0x4d32c5e468c00628
hotel,hotel,Sayosa,"Kec. Sayosa, Kabupaten Sorong, Papua Bar.","Kabupaten Sorong, Papua Bar.",PAPUA BARAT,,Indonesia,,-0.9910258,131.7208243,https://maps.google.com/?cid=0x0:0x6839239587bfbd33
hotel,hotel,,,,PAPUA BARAT,,Indonesia,,,,https://maps.google.com/?cid=0x0:0x9b9160ef43d35fd5%7C/g/11clwlw14h%7Cid-ID
hotel,hotel,Hotel Batanta,"46GW+RMC, Kp. Baru, Distrik Sorong, Kota Sorong, Papua Bar. 98411","Kp. Baru, Distrik Sorong, Kota Sorong",PAPUA BARAT,98411.0,Indonesia,,-0.8729338,131.246629,https://maps.google.com/?cid=0x0:0xd18e7775760a134a
hotel,hotel,M Hotel Sorong,"Jl. Sungai Maruni, Klawuyuk, Kec. Sorong Utara, Kota Sorong, Papua Bar. 98416","Klawuyuk, Kec. Sorong Utara, Kota Sorong",PAPUA BARAT,98416.0,Indonesia,8114863111.0,-0.8858638,131.3227746,https://maps.google.com/?cid=0x0:0x9b9160ef43d35fd5
hotel,hotel,O,"Jl. Jend. A. Yani No.27, Malabutor, Kecamatan Sorong Manoi, Kota Sorong, Papua Bar. 98412","Malabutor, Kecamatan Sorong Manoi, Kota Sorong",PAPUA BARAT,98412.0,Indonesia,,-0.8827427,131.2828186,https://maps.google.com/?cid=0x0:0x9aebba5ddda67893
hotel,hotel,EcoVillage Malagufuk,"Malagufuk, Kec. Makbon, Kabupaten Sorong, Papua Bar.","Kabupaten Sorong, Papua Bar.",PAPUA BARAT,,Indonesia,82191511901.0,-0.8048327,131.6438679,https://maps.google.com/?cid=0x0:0x31bffd49f2199ddc
hotel,hotel,Papua Bar. 98471,"Kabupaten Sorong, Papua Bar.","Kabupaten Sorong, Papua Bar.",PAPUA BARAT,,Indonesia,,-0.9628505,131.6809724,https://maps.google.com/?cid=0x0:0xf9eb2cfc3e3195d1
hotel,hotel,Aimas Hotel And Convention Center,"Klamasen, Distrik Mariat, Kabupaten Sorong, Papua Bar. 98416","Distrik Mariat, Kabupaten Sorong",PAPUA BARAT,98416.0,Indonesia,8114887778.0,-0.9780957,131.3535192,https://maps.google.com/?cid=0x0:0x622ceae2f7c756cf
hotel,hotel,RYLICH PANORAMA HOTEL,"Jl. Sam Ratulangi No.55, Klasuur, Distrik Sorong, Kota Sorong, Papua Bar. 98411","Klasuur, Distrik Sorong, Kota Sorong",PAPUA BARAT,98411.0,Indonesia,81240607603.0,-0.8690863,131.2526553,https://maps.google.com/?cid=0x0:0x994aef0f06a4c9a4
hotel,hotel,Hotel Mariat,"479F+3XR, Jl. Ahmad Yani No.1, Klademak, Distrik Sorong, Kota Sorong, Papua Bar. 98412","Jl. Ahmad Yani No.1, Klademak, Distrik Sorong, Kota Sorong",PAPUA BARAT,98412.0,Indonesia,951323535.0,-0.8822653,131.2745998,https://maps.google.com/?cid=0x0:0xbf6ecabef3414744
hotel,hotel,,,,PAPUA BARAT,,Indonesia,,,,https://maps.google.com/?cid=0x0:0xbf6ecabef3414744%7C/g/12hnlthc5%7Cid-ID
hotel,hotel,VEGA PRIME Hotel  Convention,"Jl. Frans Kaisiepo, Malaingkedi, Kec. Sorong Utara, Kota Sorong, Papua Bar. 98412","Malaingkedi, Kec. Sorong Utara, Kota Sorong",PAPUA BARAT,98412.0,Indonesia,81148501658.0,-0.8863935,131.2926608,https://maps.google.com/?cid=0x0:0x9490ccc0d9334885
hotel,hotel,The ignislo sorong hotel,"Basuki Rahmat Street KM 7 Sorong, Malaingkedi, Sorong Utara, Sorong City, West Papua 98412","Malaingkedi, Sorong Utara, Sorong City",PAPUA BARAT,98412.0,Indonesia,,-0.8885403,131.2925628,https://maps.google.com/?cid=0x0:0x9992b24f2542a546
hotel,hotel,Aston Sorong Hotel  Conference Center,"476V+J9X, Jl. Basuki Rahmat, Malaingkedi, Kec. Sorong Utara, Kota Sorong, Papua Bar. 98412","Jl. Basuki Rahmat, Malaingkedi, Kec. Sorong Utara, Kota Sorong",PAPUA BARAT,98412.0,Indonesia,81148500888.0,-0.8887467,131.2931592,https://maps.google.com/?cid=0x0:0x110a6a5f0a67a7f7
hotel,hotel,Aimas Hotel And Convention Center,"Klamasen, Distrik Mariat, Kabupaten Sorong, Papua Bar. 98416","Distrik Mariat, Kabupaten Sorong",PAPUA BARAT,98416.0,Indonesia,8114887778.0,-0.9780957,131.3535192,https://maps.google.com/?cid=0x0:0x622ceae2f7c756cf
hotel,hotel,Seget,"Wawenagu, Distrik Seget, Kabupaten Sorong, Papua Bar.","Kabupaten Sorong, Papua Bar.",PAPUA BARAT,,Indonesia,,-1.407338,130.9767,https://maps.google.com/?cid=0x0:0x180feead25aceba1
hotel,hotel,The ignislo sorong hotel,"Basuki Rahmat Street KM 7 Sorong, Malaingkedi, Sorong Utara, Sorong City, West Papua 98412","Malaingkedi, Sorong Utara, Sorong City",PAPUA BARAT,98412.0,Indonesia,,-0.8885403,131.2925628,https://maps.google.com/?cid=0x0:0x9992b24f2542a546
hotel,hotel,Aston Sorong Hotel  Conference Center,"476V+J9X, Jl. Basuki Rahmat, Malaingkedi, Kec. Sorong Utara, Kota Sorong, Papua Bar. 98412","Jl. Basuki Rahmat, Malaingkedi, Kec. Sorong Utara, Kota Sorong",PAPUA BARAT,98412.0,Indonesia,81148500888.0,-0.8887467,131.2931592,https://maps.google.com/?cid=0x0:0x110a6a5f0a67a7f7
hotel,hotel,InnBox Hostel,"Jl. Sam Ratulangi No.91, Klasuur, Distrik Sorong, Kota Sorong, Papua Bar. 98413","Klasuur, Distrik Sorong, Kota Sorong",PAPUA BARAT,98413.0,Indonesia,81268888355.0,-0.8669219,131.2528048,https://maps.google.com/?cid=0x0:0x3be781e9731e888a
hotel,hotel,,,,PAPUA BARAT,,Indonesia,,,,https://maps.google.com/?cid=0x0:0x9b9160ef43d35fd5%7C/g/11clwlw14h%7Cid-ID
hotel,hotel,M Hotel Sorong,"Jl. Sungai Maruni, Klawuyuk, Kec. Sorong Utara, Kota Sorong, Papua Bar. 98416","Klawuyuk, Kec. Sorong Utara, Kota Sorong",PAPUA BARAT,98416.0,Indonesia,8114863111.0,-0.8858638,131.3227746,https://maps.google.com/?cid=0x0:0x9b9160ef43d35fd5
hotel,hotel,RedDoorz near Dermaga Pelabuhan Rakyat,"Jl. Selat Rumberpon No.10A, Remu Sel., Kecamatan Sorong Manoi, Kota Sorong, Papua Bar. 98412","Remu Sel., Kecamatan Sorong Manoi, Kota Sorong",PAPUA BARAT,98412.0,Indonesia,895417300072.0,-0.8853147,131.2865519,https://maps.google.com/?cid=0x0:0x54d7a289f7c7cb50
hotel,hotel,favehotel Sorong,"Klabulu, Jl. Basuki Rahmat Malaimsimsa, RT.001/RW.005, Kecamatan Malaimsimsa, Kota Sorong, Papua Bar. 98419","Jl. Basuki Rahmat Malaimsimsa, RT.001/RW.005, Kecamatan Malaimsimsa, Kota Sorong",PAPUA BARAT,98419.0,Indonesia,9513173888.0,-0.8892152,131.2985379,https://maps.google.com/?cid=0x0:0x56f2eb1c250a17fa
hotel,hotel,,,,PAPUA BARAT,,Indonesia,,,,https://maps.google.com/?cid=0x0:0x56f2eb1c250a17fa%7C/g/11g8bwyjxb%7Cid-ID
hotel,hotel,tempat penginapan,"46GX+7Q4, Kp. Baru, Distrik Sorong, Kota Sorong, Papua Bar.","Kota Sorong, Papua Bar.",PAPUA BARAT,,Indonesia,,-0.8743674,131.249452,https://maps.google.com/?cid=0x0:0x5a527f95bc78be48
hotel,hotel,Penginapan Kofiyau,"46MX+QV7, Unnamed Road, Klasuur, Distrik Sorong, Kota Sorong, Papua Bar. 98411","Unnamed Road, Klasuur, Distrik Sorong, Kota Sorong",PAPUA BARAT,98411.0,Indonesia,82398017326.0,-0.86559,131.2496721,https://maps.google.com/?cid=0x0:0xfc32a1234a9c5c47
hotel,hotel,35 Inn,"476C+RFX, Jl. Ferry, Malawei, Distrik Sorong, Kota Sorong, Papua Bar. 98412","Jl. Ferry, Malawei, Distrik Sorong, Kota Sorong",PAPUA BARAT,98412.0,Indonesia,,-0.8878893,131.271243,https://maps.google.com/?cid=0x0:0xb276478752dcd2b2
hotel,hotel,Hotel Rumberpon,"Jl. Selat Rumberpon No.10a, Remu Sel., Kecamatan Sorong Manoi, Kota Sorong, Papua Bar. 98412","Remu Sel., Kecamatan Sorong Manoi, Kota Sorong",PAPUA BARAT,98412.0,Indonesia,82238504121.0,-0.885408,131.2865376,https://maps.google.com/?cid=0x0:0xceee6e69b9e3daac
hotel,hotel,Aimas Hotel And Convention Center,"Klamasen, Distrik Mariat, Kabupaten Sorong, Papua Bar. 98416","Distrik Mariat, Kabupaten Sorong",PAPUA BARAT,98416.0,Indonesia,8114887778.0,-0.9780957,131.3535192,https://maps.google.com/?cid=0x0:0x622ceae2f7c756cf
hotel,Taman Hiburan,Taman Wisata Alam Sorong,"38JP+H65, Bar., Klasaman, Distrik Sorong Timur, Kota Sorong, Papua Bar. 98416","Bar., Klasaman, Distrik Sorong Timur, Kota Sorong",PAPUA BARAT,98416.0,Indonesia,,-0.9186169,131.3355955,https://maps.google.com/?cid=0x0:0x34d77911969e750d
hotel,hotel,Papua Bar. 98452,"Kabupaten Sorong, Papua Bar.","Kabupaten Sorong, Papua Bar.",PAPUA BARAT,,Indonesia,,-1.3516263,131.0797172,https://maps.google.com/?cid=0x0:0x12aa97ea8dec5973
hotel,hotel,Pulau Doom,,,PAPUA BARAT,,Indonesia,,-0.8833333,131.2333333,https://maps.google.com/?cid=0x0:0x1db3a7ef2f666be6
hotel,hotel,favehotel Sorong,"Klabulu, Jl. Basuki Rahmat Malaimsimsa, RT.001/RW.005, Kecamatan Malaimsimsa, Kota Sorong, Papua Bar. 98419","Jl. Basuki Rahmat Malaimsimsa, RT.001/RW.005, Kecamatan Malaimsimsa, Kota Sorong",PAPUA BARAT,98419.0,Indonesia,9513173888.0,-0.8892152,131.2985379,https://maps.google.com/?cid=0x0:0x56f2eb1c250a17fa
hotel,hotel,,,,PAPUA BARAT,,Indonesia,,,,https://maps.google.com/?cid=0x0:0x56f2eb1c250a17fa%7C/g/11g8bwyjxb%7Cid-ID
hotel,hotel,,,,PAPUA BARAT,,Indonesia,,,,https://maps.google.com/?cid=0x0:0x4d32c5e468c00628%7C/g/11btmq5mpb%7Cid-ID
hotel,hotel,City View Hotel,"479J+38V, Jl. Srigunting, Remu Utara, Distrik Sorong, Kota Sorong, Papua Bar. 98412","Jl. Srigunting, Remu Utara, Distrik Sorong, Kota Sorong",PAPUA BARAT,98412.0,Indonesia,951324102.0,-0.8822749,131.2808058,https://maps.google.com/?cid=0x0:0xac64df2bc7cde404
hotel,hotel,VEGA PRIME Hotel  Convention,"Jl. Frans Kaisiepo, Malaingkedi, Kec. Sorong Utara, Kota Sorong, Papua Bar. 98412","Malaingkedi, Kec. Sorong Utara, Kota Sorong",PAPUA BARAT,98412.0,Indonesia,81148501658.0,-0.8863935,131.2926608,https://maps.google.com/?cid=0x0:0x9490ccc0d9334885
hotel,hotel,Swiss-Belhotel Sorong,"Hunting, Telepon, Jl. Jend. Sudirman Kecamatan, Malawei, Kecamatan Sorong Manoi, Kota Sorong, Papua Bar. 98412","Telepon, Jl. Jend. Sudirman Kecamatan, Malawei, Kecamatan Sorong Manoi, Kota Sorong",PAPUA BARAT,98412.0,Indonesia,8114853888.0,-0.889363,131.2749649,https://maps.google.com/?cid=0x0:0x4d32c5e468c00628
hotel,hotel,Papua Bar.,,Papua Bar.,PAPUA BARAT,,Indonesia,,-1.3361154,133.1747162,https://maps.google.com/?cid=0x0:0x5349c1f8c5c7cb62
hotel,Hotel,HOTEL MIG 2,"38V8+56M kpr putra residences, Jl. Malibela, keluran, Klamana, Distrik Sorong Timur, Kota Sorong, Papua Bar.","Kota Sorong, Papua Bar.",PAPUA BARAT,,Indonesia,82198806950.0,-0.9070332,131.315545,https://maps.google.com/?cid=0x0:0x7792d3df36ac4b3c
hotel,Hotel,Mulia Indah Group,"Jl. A.M. Sangaji Gonof No.Km. 12, Klasaman, Distrik Sorong Timur, Kota Sorong, Papua Bar. 98416","Klasaman, Distrik Sorong Timur, Kota Sorong",PAPUA BARAT,98416.0,Indonesia,9513129851.0,-0.8995445,131.3279472,https://maps.google.com/?cid=0x0:0x611339a5c9d51eb6
hotel,hotel,Hotel Mariat,"479F+3XR, Jl. Ahmad Yani No.1, Klademak, Distrik Sorong, Kota Sorong, Papua Bar. 98412","Jl. Ahmad Yani No.1, Klademak, Distrik Sorong, Kota Sorong",PAPUA BARAT,98412.0,Indonesia,951323535.0,-0.8822653,131.2745998,https://maps.google.com/?cid=0x0:0xbf6ecabef3414744
hotel,hotel,Papua Bar. 98413,"Klabala, Distrik Sorong Barat, Kota Sorong, Papua Bar.","Kota Sorong, Papua Bar.",PAPUA BARAT,,Indonesia,,-0.8669518,131.254029,https://maps.google.com/?cid=0x0:0x352e1f254d39ea2b
hotel,hotel,RYLICH PANORAMA HOTEL,"Jl. Sam Ratulangi No.55, Klasuur, Distrik Sorong, Kota Sorong, Papua Bar. 98411","Klasuur, Distrik Sorong, Kota Sorong",PAPUA BARAT,98411.0,Indonesia,81240607603.0,-0.8690863,131.2526553,https://maps.google.com/?cid=0x0:0x994aef0f06a4c9a4
hotel,hotel,Belagri Hotel and Restaurant,"Jl. Raja Ampat No.1, Kp. Baru, Distrik Sorong, Kota Sorong, Papua Bar. 98413","Kp. Baru, Distrik Sorong, Kota Sorong",PAPUA BARAT,98413.0,Indonesia,,-0.8704329,131.2517604,https://maps.google.com/?cid=0x0:0xb0064be8b2a3c2c8
hotel,hotel,Hotel Belagri Sorong,"Jl. Merapi No.8, Klabala, Distrik Sorong Barat, Kota Sorong, Papua Bar. 98411","Klabala, Distrik Sorong Barat, Kota Sorong",PAPUA BARAT,98411.0,Indonesia,951323888.0,-0.8730356,131.2547729,https://maps.google.com/?cid=0x0:0x84dae6f8c4b2e8ad
hotel,hotel,Royal Mamberamo Hotel,"Jl. Dr. Sam Ratulangi No.35, Kp. Baru, Distrik Sorong, Kota Sorong, Papua Bar. 98413","Kp. Baru, Distrik Sorong, Kota Sorong",PAPUA BARAT,98413.0,Indonesia,951325666.0,-0.871573,131.250864,https://maps.google.com/?cid=0x0:0xb5e32e36111d42eb
hotel,hotel,Hotel Lido 88,"Kompleks Lido, Jl. Yos. Sudarso, Klasuur, Distrik Sorong, Kota Sorong, Papua Bar. 98411","Jl. Yos. Sudarso, Klasuur, Distrik Sorong, Kota Sorong",PAPUA BARAT,98411.0,Indonesia,895417300072.0,-0.8651585,131.2458125,https://maps.google.com/?cid=0x0:0xfa1a9f3ccb086f62
hotel,hotel,Hotel Mariat,"479F+3XR, Jl. Ahmad Yani No.1, Klademak, Distrik Sorong, Kota Sorong, Papua Bar. 98412","Jl. Ahmad Yani No.1, Klademak, Distrik Sorong, Kota Sorong",PAPUA BARAT,98412.0,Indonesia,951323535.0,-0.8822653,131.2745998,https://maps.google.com/?cid=0x0:0xbf6ecabef3414744
hotel,hotel,,,,PAPUA BARAT,,Indonesia,,,,https://maps.google.com/?cid=0x0:0xbf6ecabef3414744%7C/g/12hnlthc5%7Cid-ID
hotel,hotel,Marina Mamberamo,"Jl. Yos. Sudarso No.1, Kp. Baru, Distrik Sorong, Kota Sorong, Papua Bar. 98413","Kp. Baru, Distrik Sorong, Kota Sorong",PAPUA BARAT,98413.0,Indonesia,85244588484.0,-0.8757299,131.2440035,https://maps.google.com/?cid=0x0:0x90a6ebcb4c6ebcbd
hotel,hotel,Penginapan Kofiyau,"46MX+QV7, Unnamed Road, Klasuur, Distrik Sorong, Kota Sorong, Papua Bar. 98411","Unnamed Road, Klasuur, Distrik Sorong, Kota Sorong",PAPUA BARAT,98411.0,Indonesia,82398017326.0,-0.86559,131.2496721,https://maps.google.com/?cid=0x0:0xfc32a1234a9c5c47
hotel,hotel,Aimas Hotel And Convention Center,"Klamasen, Distrik Mariat, Kabupaten Sorong, Papua Bar. 98416","Distrik Mariat, Kabupaten Sorong",PAPUA BARAT,98416.0,Indonesia,8114887778.0,-0.9780957,131.3535192,https://maps.google.com/?cid=0x0:0x622ceae2f7c756cf
hotel,hotel,Indah Guesthouse,"46PX+CWR, Klasuur, Distrik Sorong, Kota Sorong, Papua Bar.","Kota Sorong, Papua Bar.",PAPUA BARAT,,Indonesia,,-0.8638907,131.2497706,https://maps.google.com/?cid=0x0:0x7886b39783a76069
hotel,hotel,Kasuari Valley Beach Resort Sorong,"Tj. Kasuari, Distrik Sorong Barat, Kota Sorong, Papua Bar. 98411","Distrik Sorong Barat, Kota Sorong",PAPUA BARAT,98411.0,Indonesia,81247423939.0,-0.8229453,131.2259207,https://maps.google.com/?cid=0x0:0x7ae87156c62b6490
hotel,hotel,Hotel Paparisa Manise,"Jl. Jend. Sudirman No.10, Klaligi, Kecamatan Sorong Manoi, Kota Sorong, Papua Bar. 98412","Klaligi, Kecamatan Sorong Manoi, Kota Sorong",PAPUA BARAT,98412.0,Indonesia,9513173969.0,-0.8822838,131.2644305,https://maps.google.com/?cid=0x0:0x3a80c35a629494eb
hotel,hotel,Sorong,"Kota Sorong, Papua Bar.","Kota Sorong, Papua Bar.",PAPUA BARAT,,Indonesia,,-0.8761629,131.255828,https://maps.google.com/?cid=0x0:0xe32b512ec6c6786
hotel,hotel,Hotel Mariat,"479F+3XR, Jl. Ahmad Yani No.1, Klademak, Distrik Sorong, Kota Sorong, Papua Bar. 98412","Jl. Ahmad Yani No.1, Klademak, Distrik Sorong, Kota Sorong",PAPUA BARAT,98412.0,Indonesia,951323535.0,-0.8822653,131.2745998,https://maps.google.com/?cid=0x0:0xbf6ecabef3414744
hotel,hotel,,,,PAPUA BARAT,,Indonesia,,,,https://maps.google.com/?cid=0x0:0xbf6ecabef3414744%7C/g/12hnlthc5%7Cid-ID
hotel,hotel,Swiss-Belhotel Sorong,"Hunting, Telepon, Jl. Jend. Sudirman Kecamatan, Malawei, Kecamatan Sorong Manoi, Kota Sorong, Papua Bar. 98412","Telepon, Jl. Jend. Sudirman Kecamatan, Malawei, Kecamatan Sorong Manoi, Kota Sorong",PAPUA BARAT,98412.0,Indonesia,8114853888.0,-0.889363,131.2749649,https://maps.google.com/?cid=0x0:0x4d32c5e468c00628
hotel,hotel,Marina Mamberamo,"Jl. Yos. Sudarso No.1, Kp. Baru, Distrik Sorong, Kota Sorong, Papua Bar. 98413","Kp. Baru, Distrik Sorong, Kota Sorong",PAPUA BARAT,98413.0,Indonesia,85244588484.0,-0.8757299,131.2440035,https://maps.google.com/?cid=0x0:0x90a6ebcb4c6ebcbd
hotel,hotel,,,,PAPUA BARAT,,Indonesia,,,,https://maps.google.com/?cid=0x0:0x4d32c5e468c00628%7C/g/11btmq5mpb%7Cid-ID
hotel,hotel,Hotel Belagri Sorong,"Jl. Merapi No.8, Klabala, Distrik Sorong Barat, Kota Sorong, Papua Bar. 98411","Klabala, Distrik Sorong Barat, Kota Sorong",PAPUA BARAT,98411.0,Indonesia,951323888.0,-0.8730356,131.2547729,https://maps.google.com/?cid=0x0:0x84dae6f8c4b2e8ad
hotel,hotel,VEGA PRIME Hotel  Convention,"Jl. Frans Kaisiepo, Malaingkedi, Kec. Sorong Utara, Kota Sorong, Papua Bar. 98412","Malaingkedi, Kec. Sorong Utara, Kota Sorong",PAPUA BARAT,98412.0,Indonesia,81148501658.0,-0.8863935,131.2926608,https://maps.google.com/?cid=0x0:0x9490ccc0d9334885
hotel,hotel,M Hotel Sorong,"Jl. Sungai Maruni, Klawuyuk, Kec. Sorong Utara, Kota Sorong, Papua Bar. 98416","Klawuyuk, Kec. Sorong Utara, Kota Sorong",PAPUA BARAT,98416.0,Indonesia,8114863111.0,-0.8858638,131.3227746,https://maps.google.com/?cid=0x0:0x9b9160ef43d35fd5
hotel,hotel,favehotel Sorong,"Klabulu, Jl. Basuki Rahmat Malaimsimsa, RT.001/RW.005, Kecamatan Malaimsimsa, Kota Sorong, Papua Bar. 98419","Jl. Basuki Rahmat Malaimsimsa, RT.001/RW.005, Kecamatan Malaimsimsa, Kota Sorong",PAPUA BARAT,98419.0,Indonesia,9513173888.0,-0.8892152,131.2985379,https://maps.google.com/?cid=0x0:0x56f2eb1c250a17fa
hotel,hotel,,,,PAPUA BARAT,,Indonesia,,,,https://maps.google.com/?cid=0x0:0x9b9160ef43d35fd5%7C/g/11clwlw14h%7Cid-ID
hotel,hotel,Royal Mamberamo Hotel,"Jl. Dr. Sam Ratulangi No.35, Kp. Baru, Distrik Sorong, Kota Sorong, Papua Bar. 98413","Kp. Baru, Distrik Sorong, Kota Sorong",PAPUA BARAT,98413.0,Indonesia,951325666.0,-0.871573,131.250864,https://maps.google.com/?cid=0x0:0xb5e32e36111d42eb
hotel,hotel,The ignislo sorong hotel,"Basuki Rahmat Street KM 7 Sorong, Malaingkedi, Sorong Utara, Sorong City, West Papua 98412","Malaingkedi, Sorong Utara, Sorong City",PAPUA BARAT,98412.0,Indonesia,,-0.8885403,131.2925628,https://maps.google.com/?cid=0x0:0x9992b24f2542a546
hotel,hotel,,,,PAPUA BARAT,,Indonesia,,,,https://maps.google.com/?cid=0x0:0x56f2eb1c250a17fa%7C/g/11g8bwyjxb%7Cid-ID
hotel,hotel,M Hotel Sorong,"Jl. Sungai Maruni, Klawuyuk, Kec. Sorong Utara, Kota Sorong, Papua Bar. 98416","Klawuyuk, Kec. Sorong Utara, Kota Sorong",PAPUA BARAT,98416.0,Indonesia,8114863111.0,-0.8858638,131.3227746,https://maps.google.com/?cid=0x0:0x9b9160ef43d35fd5
hotel,hotel,Papua Bar. 98416,Papua Bar.,Papua Bar.,PAPUA BARAT,,Indonesia,,-0.8883325,131.3510866,https://maps.google.com/?cid=0x0:0x7d4c82915eeb19ce
hotel,hotel,,,,PAPUA BARAT,,Indonesia,,,,https://maps.google.com/?cid=0x0:0x9b9160ef43d35fd5%7C/g/11clwlw14h%7Cid-ID
hotel,hotel,,,,PAPUA BARAT,,Indonesia,,,,https://maps.google.com/?cid=0x0:0x56f2eb1c250a17fa%7C/g/11g8bwyjxb%7Cid-ID
hotel,hotel,favehotel Sorong,"Klabulu, Jl. Basuki Rahmat Malaimsimsa, RT.001/RW.005, Kecamatan Malaimsimsa, Kota Sorong, Papua Bar. 98419","Jl. Basuki Rahmat Malaimsimsa, RT.001/RW.005, Kecamatan Malaimsimsa, Kota Sorong",PAPUA BARAT,98419.0,Indonesia,9513173888.0,-0.8892152,131.2985379,https://maps.google.com/?cid=0x0:0x56f2eb1c250a17fa
hotel,hotel,VEGA PRIME Hotel  Convention,"Jl. Frans Kaisiepo, Malaingkedi, Kec. Sorong Utara, Kota Sorong, Papua Bar. 98412","Malaingkedi, Kec. Sorong Utara, Kota Sorong",PAPUA BARAT,98412.0,Indonesia,81148501658.0,-0.8863935,131.2926608,https://maps.google.com/?cid=0x0:0x9490ccc0d9334885
hotel,hotel,Aston Sorong Hotel  Conference Center,"476V+J9X, Jl. Basuki Rahmat, Malaingkedi, Kec. Sorong Utara, Kota Sorong, Papua Bar. 98412","Jl. Basuki Rahmat, Malaingkedi, Kec. Sorong Utara, Kota Sorong",PAPUA BARAT,98412.0,Indonesia,81148500888.0,-0.8887467,131.2931592,https://maps.google.com/?cid=0x0:0x110a6a5f0a67a7f7
hotel,hotel,The ignislo sorong hotel,"Basuki Rahmat Street KM 7 Sorong, Malaingkedi, Sorong Utara, Sorong City, West Papua 98412","Malaingkedi, Sorong Utara, Sorong City",PAPUA BARAT,98412.0,Indonesia,,-0.8885403,131.2925628,https://maps.google.com/?cid=0x0:0x9992b24f2542a546
hotel,hotel,The Luxio Hotel,"Jl. Basuki Rahmat KM.12 Sorong, Malaingkedi, Kec. Sorong Utara, West Papua, Papua Bar. 98412","Malaingkedi, Kec. Sorong Utara, West Papua",PAPUA BARAT,98412.0,Indonesia,81344807777.0,-0.9040377,131.3236469,https://maps.google.com/?cid=0x0:0x4a37ba927853645b
hotel,hotel,Guardian Family Hotel,"Malaingkedi, Kec. Sorong Utara, Kota Sorong, Papua Bar. 98412","Kec. Sorong Utara, Kota Sorong",PAPUA BARAT,98412.0,Indonesia,8114867300.0,-0.8896485,131.2945315,https://maps.google.com/?cid=0x0:0x804a8cdc3b2513d6
hotel,hotel,,,,PAPUA BARAT,,Indonesia,,,,https://maps.google.com/?cid=0x0:0x4a37ba927853645b%7C/g/11y0l8mjv%7Cid-ID
hotel,hotel,,,,PAPUA BARAT,,Indonesia,,,,https://maps.google.com/?cid=0x0:0xbf6ecabef3414744%7C/g/12hnlthc5%7Cid-ID
hotel,hotel,Hotel Mariat,"479F+3XR, Jl. Ahmad Yani No.1, Klademak, Distrik Sorong, Kota Sorong, Papua Bar. 98412","Jl. Ahmad Yani No.1, Klademak, Distrik Sorong, Kota Sorong",PAPUA BARAT,98412.0,Indonesia,951323535.0,-0.8822653,131.2745998,https://maps.google.com/?cid=0x0:0xbf6ecabef3414744
hotel,hotel,RedDoorz near Dermaga Pelabuhan Rakyat,"Jl. Selat Rumberpon No.10A, Remu Sel., Kecamatan Sorong Manoi, Kota Sorong, Papua Bar. 98412","Remu Sel., Kecamatan Sorong Manoi, Kota Sorong",PAPUA BARAT,98412.0,Indonesia,895417300072.0,-0.8853147,131.2865519,https://maps.google.com/?cid=0x0:0x54d7a289f7c7cb50
restaurant,restaurant,Papua Bar. 98457,"Kabupaten Sorong, Papua Bar.","Kabupaten Sorong, Papua Bar.",PAPUA BARAT,,Indonesia,,-1.0666951,131.5012792,https://maps.google.com/?cid=0x0:0x60164e450d5e6bd7
restaurant,Kedai Kopi,DOME EATERY,"Malawili, Kec. Aimas, Kabupaten Sorong, Papua Bar.","Kabupaten Sorong, Papua Bar.",PAPUA BARAT,,Indonesia,,-0.9575952,131.3348549,https://maps.google.com/?cid=0x0:0xf9d0953e7b0042c9
restaurant,Kedai Kopi,Serupa Cafe and Eatery,"Jl. Nangka, Malawili, Kec. Aimas, Kabupaten Sorong, Papua Bar. 98444","Malawili, Kec. Aimas, Kabupaten Sorong",PAPUA BARAT,98444.0,Indonesia,,-0.9574859,131.3226217,https://maps.google.com/?cid=0x0:0xc58cb63de2e28003
restaurant,Bakso,RESTO BANDAR PALEMBANG,"28VH+479, Malawili, Kec. Aimas, Kabupaten Sorong, Papua Bar. 98414","Malawili, Kec. Aimas, Kabupaten Sorong",PAPUA BARAT,98414.0,Indonesia,82147699011.0,-0.957213,131.3282234,https://maps.google.com/?cid=0x0:0xfbfa6a5ab4450ca
restaurant,Toko Kue Pernikahan,DEPOT LEZAAT-AIMAS SORONG,"Jl. Walet, Malawele, Kec. Aimas, Kabupaten Sorong, Papua Bar. 98414","Malawele, Kec. Aimas, Kabupaten Sorong",PAPUA BARAT,98414.0,Indonesia,81231431927.0,-0.9804582,131.310424,https://maps.google.com/?cid=0x0:0xb6afa9bc85a5b54c
restaurant,Restoran,SayStory Aimas,"Malawele, Kec. Aimas, Kabupaten Sorong, Papua Bar. 98414","Kec. Aimas, Kabupaten Sorong",PAPUA BARAT,98414.0,Indonesia,,-0.9576154,131.3297136,https://maps.google.com/?cid=0x0:0x4c40c22ddedffea9
restaurant,Indonesia,Rm.Cemara,"Rm. Cemara, Aimas, Kec. Aimas, Kabupaten Sorong, Papua Bar. 98414","Aimas, Kec. Aimas, Kabupaten Sorong",PAPUA BARAT,98414.0,Indonesia,,-0.9822603,131.3626195,https://maps.google.com/?cid=0x0:0xada0d791706f4229
restaurant,Korea,Topoci Aimas (Angkringan Korea),"Samping Sunflower_Store31, Jl. Sorong - Aimas, Depan Kantor, Kec. Aimas, Kabupaten Sorong, Papua Bar. 98414","Jl. Sorong - Aimas, Depan Kantor, Kec. Aimas, Kabupaten Sorong",PAPUA BARAT,98414.0,Indonesia,82134223635.0,-0.9633507,131.3361378,https://maps.google.com/?cid=0x0:0xef91af3b8f2625ce
restaurant,Jawa,Warung Makan Cepu,"Jl. Tutwuri, Klamono, Distrik Klamono, Kabupaten Sorong, Papua Bar. 98457","Klamono, Distrik Klamono, Kabupaten Sorong",PAPUA BARAT,98457.0,Indonesia,81248548395.0,-1.12582,131.4867808,https://maps.google.com/?cid=0x0:0x9d151971950fad01
restaurant,Kedai Kopi,Tempat Nongkrong,"28Q6+X24, Malawele, Kec. Aimas, Kabupaten Sorong, Papua Bar. 98414","Malawele, Kec. Aimas, Kabupaten Sorong",PAPUA BARAT,98414.0,Indonesia,85246663737.0,-0.9601111,131.310083,https://maps.google.com/?cid=0x0:0x6d69b064888be01b
restaurant,Ikan Bakar,dada tuna resty,"28VJ+47W, Malawili, Kec. Aimas, Kabupaten Sorong, Papua Bar. 98414","Malawili, Kec. Aimas, Kabupaten Sorong",PAPUA BARAT,98414.0,Indonesia,85299689928.0,-0.95714,131.3306881,https://maps.google.com/?cid=0x0:0xf5caa3bc2a14d6d5
restaurant,restaurant,"Kedai Minamoon, Aimas","Jl. Durian, RT.019/RW.007, Malawili, Kec. Aimas, Kabupaten Sorong, Papua Bar. 98444","RT.019/RW.007, Malawili, Kec. Aimas, Kabupaten Sorong",PAPUA BARAT,98444.0,Indonesia,82238120846.0,-0.9582733,131.3205918,https://maps.google.com/?cid=0x0:0xb491c09ebd02565f
restaurant,Kafe,Bajiki Kedai Aimas,"28RP+V5Q, Malawili, Kec. Aimas, Kabupaten Sorong, Papua Bar. 98414","Malawili, Kec. Aimas, Kabupaten Sorong",PAPUA BARAT,98414.0,Indonesia,81241436569.0,-0.9576968,131.3355302,https://maps.google.com/?cid=0x0:0x8812d7467044c7f1
restaurant,Pusat kebudayaan,Rumah Etnik Papua,"Jalan baru Jl. Klamono No.km.21, Aimas, Kec. Aimas, Kabupaten Sorong, Papua Bar. 48916","Aimas, Kec. Aimas, Kabupaten Sorong",PAPUA BARAT,48916.0,Indonesia,81248415096.0,-0.9713386,131.340271,https://maps.google.com/?cid=0x0:0xe82ed12b8348bf7f
restaurant,restaurant,Papua Bar. 98453,"Kabupaten Sorong, Papua Bar.","Kabupaten Sorong, Papua Bar.",PAPUA BARAT,,Indonesia,,-1.3400215,131.6410914,https://maps.google.com/?cid=0x0:0x3be69fb5df79c3fb
restaurant,Padang,Rest Area Sederhana,"WPW5+5CW, Sayosa, Kec. Sayosa, Kabupaten Sorong, Papua Bar. 98471","Sayosa, Kec. Sayosa, Kabupaten Sorong",PAPUA BARAT,98471.0,Indonesia,,-1.0545087,131.7085809,https://maps.google.com/?cid=0x0:0x39af320198873dda
restaurant,Jawa,Warung Makan Cepu,"Jl. Tutwuri, Klamono, Distrik Klamono, Kabupaten Sorong, Papua Bar. 98457","Klamono, Distrik Klamono, Kabupaten Sorong",PAPUA BARAT,98457.0,Indonesia,81248548395.0,-1.12582,131.4867808,https://maps.google.com/?cid=0x0:0x9d151971950fad01
restaurant,Kafe,WARUNG MAKAN SUCARI,"Pangkalan Trek, Jl. Sengget, Sayolo, Kec. Teminabuan, Kabupaten Sorong Selatan, Papua Bar. 98454","Jl. Sengget, Sayolo, Kec. Teminabuan, Kabupaten Sorong Selatan",PAPUA BARAT,98454.0,Indonesia,81247796606.0,-1.4416238,132.0161865,https://maps.google.com/?cid=0x0:0xf65d9141dc997374
restaurant,Restoran,RM AROMA SUNDA,"G2VG+9FP, Jl. Wernas. Arah pasar jajase, Wermit, Kec. Teminabuan, Kabupaten Sorong Selatan, Papua Bar. 98454","Jl. Wernas. Arah pasar jajase, Wermit, Kec. Teminabuan, Kabupaten Sorong Selatan",PAPUA BARAT,98454.0,Indonesia,82239816820.0,-1.4565296,132.0261885,https://maps.google.com/?cid=0x0:0x5980f22c98c9f601
restaurant,Restoran,Rumah makan Cepat Saji,"G2WG+CRX, Wernas, Kec. Teminabuan, Kabupaten Sorong Selatan, Papua Bar. 98454","Wernas, Kec. Teminabuan, Kabupaten Sorong Selatan",PAPUA BARAT,98454.0,Indonesia,8124839585.0,-1.4538755,132.0271197,https://maps.google.com/?cid=0x0:0xa276d2ec3eec551c
restaurant,Restoran,Pondok Sari Rasa,"H23C+M57, Kaibus, Kec. Teminabuan, Kabupaten Sorong Selatan, Papua Bar. 98454","Kaibus, Kec. Teminabuan, Kabupaten Sorong Selatan",PAPUA BARAT,98454.0,Indonesia,,-1.4458254,132.0204101,https://maps.google.com/?cid=0x0:0x5be1cdb3b41a1c5e
restaurant,Restoran,Rumah Makan Raja Rasa,"H22F+Q89, Jl. Sengget, Wermit, Kec. Teminabuan, Kabupaten Sorong Selatan, Papua Bar. 98454","Jl. Sengget, Wermit, Kec. Teminabuan, Kabupaten Sorong Selatan",PAPUA BARAT,98454.0,Indonesia,,-1.4480776,132.0233653,https://maps.google.com/?cid=0x0:0x342420008b461782
restaurant,Restoran,Jaso Mande,"G2WH+G45, Wermit, Kec. Teminabuan, Kabupaten Sorong Selatan, Papua Bar. 98454","Wermit, Kec. Teminabuan, Kabupaten Sorong Selatan",PAPUA BARAT,98454.0,Indonesia,,-1.453747,132.0278702,https://maps.google.com/?cid=0x0:0xeabd0c73efd4e25a
restaurant,Hidangan Laut,Republik Seafood,"Sawagumu, Kec. Sorong Utara, Kota Sorong, Papua Bar. 98412","Kec. Sorong Utara, Kota Sorong",PAPUA BARAT,98412.0,Indonesia,81344615005.0,-0.8883945,131.3109228,https://maps.google.com/?cid=0x0:0xec5acb934a352d67
restaurant,Hidangan Laut,Marina Star Restaurant Seafood,"Kompleks, Jl. Bubara Jl. Pelabuhan Perikanan, Distrik Sorong, Kota Sorong, Papua Bar. 98414","Jl. Bubara Jl. Pelabuhan Perikanan, Distrik Sorong, Kota Sorong",PAPUA BARAT,98414.0,Indonesia,81240250548.0,-0.8790069,131.2552456,https://maps.google.com/?cid=0x0:0x6d780e763a272c1a
restaurant,Rumah Makan,Warung Lima Ok,"H23C+9GV, Jl. Sengget, Kaibus, Kec. Teminabuan, Kabupaten Sorong Selatan, Papua Bar. 98454","Jl. Sengget, Kaibus, Kec. Teminabuan, Kabupaten Sorong Selatan",PAPUA BARAT,98454.0,Indonesia,82238888245.0,-1.4465002,132.0213025,https://maps.google.com/?cid=0x0:0x497b4b10263a8094
restaurant,Restoran,Kedai Raja,"G2VG+F5R, G2VG+G62WermitKec, Kec. Teminabuan, Kabupaten Sorong Selatan, Papua Bar. 98454","G2VG+G62WermitKec, Kec. Teminabuan, Kabupaten Sorong Selatan",PAPUA BARAT,98454.0,Indonesia,82335050370.0,-1.4562699,132.0253933,https://maps.google.com/?cid=0x0:0xafa5d220f7bdb32
restaurant,Kafe,Kafe' Baru Buka,"G2VG+C6C, Jl. Sengget, Wermit, Kec. Teminabuan, Kabupaten Sorong Selatan, Papua Bar. 98454","Jl. Sengget, Wermit, Kec. Teminabuan, Kabupaten Sorong Selatan",PAPUA BARAT,98454.0,Indonesia,81248510710.0,-1.4564405,132.0255147,https://maps.google.com/?cid=0x0:0xb20f6f642f2aac57
restaurant,restaurant,Distrik Klabot,"Kabupaten Sorong, Papua Bar.","Kabupaten Sorong, Papua Bar.",PAPUA BARAT,,Indonesia,,-1.3398522,131.7726302,https://maps.google.com/?cid=0x0:0xc080466b0abc7b60
restaurant,Restoran,Dapoer Clara Resto  Cafe,"Jl. Merdeka, Padarni, Kec. Manokwari Bar., Kabupaten Manokwari, Papua Bar. 98312","Padarni, Kec. Manokwari Bar., Kabupaten Manokwari",PAPUA BARAT,98312.0,Indonesia,81376561946.0,-0.8599743,134.0734977,https://maps.google.com/?cid=0x0:0xf72c792d9c9dae56
restaurant,restaurant,Lido Kuring,"Klasuur, Distrik Sorong, Kota Sorong, Papua Bar. 98411","Distrik Sorong, Kota Sorong",PAPUA BARAT,98411.0,Indonesia,951322971.0,-0.866166,131.2460602,https://maps.google.com/?cid=0x0:0x14f7343227419def
restaurant,Kedai Kopi,Kulega Aerobliss (Pancong  Kopi) | Cafe Kalideres Jakarta Barat,"Citra Garden 8, Ruko Aerobliss blok C03D no.17-18, RT.4/RW.8, Pegadungan, Kec. Kalideres, Daerah Khusus Ibukota Jakarta 11830","Ruko Aerobliss blok C03D no.17-18, RT.4/RW.8, Pegadungan, Kec. Kalideres",PAPUA BARAT,11830.0,Indonesia,81999868168.0,-6.131006,106.690434,https://maps.google.com/?cid=0x0:0x6f2601a38455c359
restaurant,Kedai Kopi,Kuilo Coffee and Kitchen,"Jl. Masjid Ciater No.16 A, Ciater, Kec. Serpong, Kota Tangerang Selatan, Banten 15310","Ciater, Kec. Serpong, Kota Tangerang Selatan",PAPUA BARAT,15310.0,Indonesia,81998405432.0,-6.3215957,106.7001585,https://maps.google.com/?cid=0x0:0x5b9efd8f33a70990
restaurant,Sunda,Gubug Berkah Resto BSD ( Wedding Resto ),"BSD City, Jl. Raya Viktor Bsd Jl. Ciater Bar. No.54, Ciater, Kec. Serpong, Kota Tangerang Selatan, Banten 15310","Jl. Raya Viktor Bsd Jl. Ciater Bar. No.54, Ciater, Kec. Serpong, Kota Tangerang Selatan",PAPUA BARAT,15310.0,Indonesia,819848777.0,-6.3318411,106.6861921,https://maps.google.com/?cid=0x0:0xfcc71fcedaabc152
restaurant,Kafe,Ruma Coffeatery,"Jl. Cipaku I No.16A, Petogogan, Kec. Kby. Baru, Kota Jakarta Selatan, Daerah Khusus Ibukota Jakarta 12170","Petogogan, Kec. Kby. Baru, Kota Jakarta Selatan",PAPUA BARAT,12170.0,Indonesia,,-6.2396047,106.8135212,https://maps.google.com/?cid=0x0:0x7c1dc1418288cb9d
restaurant,Kedai Kopi,Bi Coffee,"Jl. Sukabakti 1 No.5 Blok A1, Sawah Baru, Kec. Ciputat, Kota Tangerang Selatan, Banten 15414","Sawah Baru, Kec. Ciputat, Kota Tangerang Selatan",PAPUA BARAT,15414.0,Indonesia,,-6.3052732,106.7228419,https://maps.google.com/?cid=0x0:0x297ae4becffe98c2
restaurant,Kedai Kopi,Cattlea Cafe  Resto,"Jl. Batu Tulis Raya No.36, Kb. Klp., Kecamatan Gambir, Kota Jakarta Pusat, Daerah Khusus Ibukota Jakarta 10120","Kb. Klp., Kecamatan Gambir, Kota Jakarta Pusat",PAPUA BARAT,10120.0,Indonesia,8176882400.0,-6.1632723,106.8247887,https://maps.google.com/?cid=0x0:0x3c7cba928c2e8a4c
restaurant,Kedai Kopi,Akoe caffe at apartemen the essence,"Jl. Darmawangsa-X No.86 7, RT.5/RW.8, Cipete Utara, Kec. Kby. Baru, Kota Jakarta Selatan, Daerah Khusus Ibukota Jakarta 12150","RT.5/RW.8, Cipete Utara, Kec. Kby. Baru, Kota Jakarta Selatan",PAPUA BARAT,12150.0,Indonesia,,-6.258568,106.8048158,https://maps.google.com/?cid=0x0:0xc4b4ee1d6076ce7f
restaurant,Kafe,Kulega (Pancong - Mie - Kopi) Greenlake City,"Ruko Food City, Jl. Green Lake City Boulevard No.36, Duri Kosambi, Kecamatan Cengkareng, Kota Jakarta Barat, Daerah Khusus Ibukota Jakarta 11750","Jl. Green Lake City Boulevard No.36, Duri Kosambi, Kecamatan Cengkareng, Kota Jakarta Barat",PAPUA BARAT,11750.0,Indonesia,8111966162.0,-6.1800339,106.7090688,https://maps.google.com/?cid=0x0:0x855500297b7bbe8c
restaurant,Kafe,INI CAF,"Jl. Salak No.8, RT.04/RW.04, Babakan, Kecamatan Bogor Tengah, Kota Bogor, Jawa Barat 16129","RT.04/RW.04, Babakan, Kecamatan Bogor Tengah, Kota Bogor",PAPUA BARAT,16129.0,Indonesia,87711104826.0,-6.5917677,106.8023441,https://maps.google.com/?cid=0x0:0x120a9b58c237b3a4
restaurant,Layanan informasi,KLOUD Senopati,"Jl. Senopati No.71-75, RT.8/RW.3, Selong, Kec. Kby. Baru, Kota Jakarta Selatan, Daerah Khusus Ibukota Jakarta 12110","RT.8/RW.3, Selong, Kec. Kby. Baru, Kota Jakarta Selatan",PAPUA BARAT,12110.0,Indonesia,81998268881.0,-6.232551,106.811691,https://maps.google.com/?cid=0x0:0xbf07c6c7293bb530
restaurant,Restoran,Ivy,"Jl. Brawijaya II Jl. Dharmawangsa Raya No.48, RT.3/RW.2, Pulo, Kec. Kby. Baru, Kota Jakarta Selatan, Daerah Khusus Ibukota Jakarta 12160","RT.3/RW.2, Pulo, Kec. Kby. Baru, Kota Jakarta Selatan",PAPUA BARAT,12160.0,Indonesia,217265766.0,-6.2548197,106.8042824,https://maps.google.com/?cid=0x0:0xa93a2f194f5d1d1a
restaurant,restaurant,Papua Bar. 98456,Papua Bar.,Papua Bar.,PAPUA BARAT,,Indonesia,,-1.2191286,131.8799408,https://maps.google.com/?cid=0x0:0x1193e0fa67947a8b
restaurant,Jawa,Warung Makan Cepu,"Jl. Tutwuri, Klamono, Distrik Klamono, Kabupaten Sorong, Papua Bar. 98457","Klamono, Distrik Klamono, Kabupaten Sorong",PAPUA BARAT,98457.0,Indonesia,81248548395.0,-1.12582,131.4867808,https://maps.google.com/?cid=0x0:0x9d151971950fad01
restaurant,Jawa,Warung Makan Blitar Sidomoro,"VFHQ+2H7, Klamono, Distrik Klamono, Kabupaten Sorong, Papua Bar. 98457","Klamono, Distrik Klamono, Kabupaten Sorong",PAPUA BARAT,98457.0,Indonesia,85344089631.0,-1.1224588,131.4889136,https://maps.google.com/?cid=0x0:0x90eb0479c1165ad1
restaurant,Rumah Makan,Rumah Makan Kapernaum,"Jalan Lama Jl. Klamono K.M. 20, Malawili, Kec. Aimas, Kabupaten Sorong, Papua Bar. 98414","Malawili, Kec. Aimas, Kabupaten Sorong",PAPUA BARAT,98414.0,Indonesia,82399769120.0,-0.9654289,131.3384643,https://maps.google.com/?cid=0x0:0xac94705390a089af
restaurant,Kedai Kopi,Lopiga Kede Medan,"28JR+R65, Jl. Klamono, Aimas, Kec. Aimas, Kabupaten Sorong, Papua Bar. 98414","Jl. Klamono, Aimas, Kec. Aimas, Kabupaten Sorong",PAPUA BARAT,98414.0,Indonesia,81219519556.0,-0.9679755,131.3406037,https://maps.google.com/?cid=0x0:0xf282ecd4235b39da
restaurant,Dapur Umum,RM. Putra Lamongan,"X8RH+W2, Klamalu, Distrik Mariat, Kabupaten Sorong, Papua Bar.","Kabupaten Sorong, Papua Bar.",PAPUA BARAT,,Indonesia,,-1.007637,131.327518,https://maps.google.com/?cid=0x0:0x279ef1bd2956b751
restaurant,Batak,RM. Kabanjahe,"Klamana, Distrik Sorong Timur, Kota Sorong, Papua Bar. 98416","Distrik Sorong Timur, Kota Sorong",PAPUA BARAT,98416.0,Indonesia,81240608576.0,-0.9160999,131.3347088,https://maps.google.com/?cid=0x0:0x7c5d581e99d175e2
restaurant,Kedai Kopi,DOME EATERY,"Malawili, Kec. Aimas, Kabupaten Sorong, Papua Bar.","Kabupaten Sorong, Papua Bar.",PAPUA BARAT,,Indonesia,,-0.9575952,131.3348549,https://maps.google.com/?cid=0x0:0xf9d0953e7b0042c9
restaurant,Bakso,Podo moro 2,"Sp4 jln poros TSM, sebelah SLB, Makbalim, Mayamuk, Kabupaten Sorong, Papua Bar.","Kabupaten Sorong, Papua Bar.",PAPUA BARAT,,Indonesia,,-1.0595862,131.2869487,https://maps.google.com/?cid=0x0:0x1d916885a11d6618
restaurant,Padang,Rest Area Sederhana,"WPW5+5CW, Sayosa, Kec. Sayosa, Kabupaten Sorong, Papua Bar. 98471","Sayosa, Kec. Sayosa, Kabupaten Sorong",PAPUA BARAT,98471.0,Indonesia,,-1.0545087,131.7085809,https://maps.google.com/?cid=0x0:0x39af320198873dda
restaurant,Rumah Makan,Warung Lima Ok,"H23C+9GV, Jl. Sengget, Kaibus, Kec. Teminabuan, Kabupaten Sorong Selatan, Papua Bar. 98454","Jl. Sengget, Kaibus, Kec. Teminabuan, Kabupaten Sorong Selatan",PAPUA BARAT,98454.0,Indonesia,82238888245.0,-1.4465002,132.0213025,https://maps.google.com/?cid=0x0:0x497b4b10263a8094
restaurant,Restoran,Bakso Gombong Bu Supan,"RF82+P8, Klasman, Distrik Klamono, Kabupaten Sorong, Papua Bar.","Kabupaten Sorong, Papua Bar.",PAPUA BARAT,,Indonesia,,-1.1831258,131.4508621,https://maps.google.com/?cid=0x0:0xd436dcca2437c638
restaurant,restaurant,Warung Bampapuang,"VFGQ+WMC, Klawana, Distrik Klamono, Kabupaten Sorong, Papua Bar. 98457","Klawana, Distrik Klamono, Kabupaten Sorong",PAPUA BARAT,98457.0,Indonesia,,-1.1226834,131.489145,https://maps.google.com/?cid=0x0:0xe796d28bf380ce72
restaurant,restaurant,Rumah makan pasundan,"VFHQ+2GR, Klamono, Distrik Klamono, Kabupaten Sorong, Papua Bar. 98457","Klamono, Distrik Klamono, Kabupaten Sorong",PAPUA BARAT,98457.0,Indonesia,,-1.1223951,131.4887557,https://maps.google.com/?cid=0x0:0xb6da926e2bc645e2
restaurant,restaurant,Distrik Klaso,"Kabupaten Sorong, Papua Bar.","Kabupaten Sorong, Papua Bar.",PAPUA BARAT,,Indonesia,,-0.760926,131.7815518,https://maps.google.com/?cid=0x0:0xffc7826f232f6dfa
restaurant,Restoran,"Warung Makan klasari, AM Sangaji Gonof","38XG+QRW, Unnamed Road, Klawuyuk, Kec. Sorong Utara, Kota Sorong, Papua Bar. 98416","Unnamed Road, Klawuyuk, Kec. Sorong Utara, Kota Sorong",PAPUA BARAT,98416.0,Indonesia,82238036680.0,-0.9005208,131.3270888,https://maps.google.com/?cid=0x0:0x18c4ad9dfae15f8e
restaurant,Hidangan Laut,Marina Star Restaurant Seafood,"Kompleks, Jl. Bubara Jl. Pelabuhan Perikanan, Distrik Sorong, Kota Sorong, Papua Bar. 98414","Jl. Bubara Jl. Pelabuhan Perikanan, Distrik Sorong, Kota Sorong",PAPUA BARAT,98414.0,Indonesia,81240250548.0,-0.8790069,131.2552456,https://maps.google.com/?cid=0x0:0x6d780e763a272c1a
restaurant,Korea,Mansae Hore Korean Grill Sorong cabang KILO,"Jl. Basuki Rahmat No.Km.9 5, Sawagumu, Kec. Sorong Utara, Kota Sorong, Papua Bar. 98410","Sawagumu, Kec. Sorong Utara, Kota Sorong",PAPUA BARAT,98410.0,Indonesia,81212888885.0,-0.8893567,131.3119808,https://maps.google.com/?cid=0x0:0x7421ada9c8690ba9
restaurant,Hidangan Laut,Republik Seafood,"Sawagumu, Kec. Sorong Utara, Kota Sorong, Papua Bar. 98412","Kec. Sorong Utara, Kota Sorong",PAPUA BARAT,98412.0,Indonesia,81344615005.0,-0.8883945,131.3109228,https://maps.google.com/?cid=0x0:0xec5acb934a352d67
restaurant,Hidangan Laut,RM. NEW RATU SAYANG,"Lido, Jl. Yos. Sudarso No.31, Klasuur, Distrik Sorong, Kota Sorong, Papua Bar. 98413","Jl. Yos. Sudarso No.31, Klasuur, Distrik Sorong, Kota Sorong",PAPUA BARAT,98413.0,Indonesia,85244007744.0,-0.8652896,131.2461583,https://maps.google.com/?cid=0x0:0xb387f5135fa5f5d6
restaurant,Kedai Kopi,DOME EATERY,"Malawili, Kec. Aimas, Kabupaten Sorong, Papua Bar.","Kabupaten Sorong, Papua Bar.",PAPUA BARAT,,Indonesia,,-0.9575952,131.3348549,https://maps.google.com/?cid=0x0:0xf9d0953e7b0042c9
restaurant,Kafe,KOPI JOHNY,"6MHW+F7X, Jl. Trans Papua Barat, Asbaken, Kec. Makbon, Kabupaten Sorong, Papua Bar.","Kabupaten Sorong, Papua Bar.",PAPUA BARAT,,Indonesia,,-0.7712731,131.6957411,https://maps.google.com/?cid=0x0:0x639d130ec30ff79a
restaurant,Steak,Kilo Chicken Steak  Burger,"Hangout, Jl. Sungai Maruni No.KM. 10, Klawuyuk, Sorong Timur, Sorong City, West Papua 98416","Jl. Sungai Maruni No.KM. 10, Klawuyuk, Sorong Timur, Sorong City",PAPUA BARAT,98416.0,Indonesia,,-0.8871871,131.3215211,https://maps.google.com/?cid=0x0:0x2573e4c131e0dc4d
restaurant,Restoran,Samday Cafe,"Jl. Handayani, Sawagumu, Kec. Sorong Utara, Kota Sorong, Papua Bar. 98412","Sawagumu, Kec. Sorong Utara, Kota Sorong",PAPUA BARAT,98412.0,Indonesia,85244789075.0,-0.8804464,131.3135913,https://maps.google.com/?cid=0x0:0xa482db4f0cd11458
restaurant,restaurant,Distrik Klawak,"Kabupaten Sorong, Papua Bar.","Kabupaten Sorong, Papua Bar.",PAPUA BARAT,,Indonesia,,-1.1756003,131.7703046,https://maps.google.com/?cid=0x0:0xa4ffc415fb4dcb3c
restaurant,Padang,Rest Area Sederhana,"WPW5+5CW, Sayosa, Kec. Sayosa, Kabupaten Sorong, Papua Bar. 98471","Sayosa, Kec. Sayosa, Kabupaten Sorong",PAPUA BARAT,98471.0,Indonesia,,-1.0545087,131.7085809,https://maps.google.com/?cid=0x0:0x39af320198873dda
restaurant,Kafe,WARUNG MAKAN SUCARI,"Pangkalan Trek, Jl. Sengget, Sayolo, Kec. Teminabuan, Kabupaten Sorong Selatan, Papua Bar. 98454","Jl. Sengget, Sayolo, Kec. Teminabuan, Kabupaten Sorong Selatan",PAPUA BARAT,98454.0,Indonesia,81247796606.0,-1.4416238,132.0161865,https://maps.google.com/?cid=0x0:0xf65d9141dc997374
restaurant,restaurant,,,,PAPUA BARAT,,Indonesia,,,,https://maps.google.com/?cid=0x0:0x39af320198873ddau0026onu003dKopi+Nikmatu0026midu003d/g/11j2z6q6h2
restaurant,Padang,RM. Sederhana Lintau,"4788+Q7M, Jl. Ahmad Yani, North Remu, Distrik Sorong, Kota Sorong, Papua Bar. 98412","Jl. Ahmad Yani, North Remu, Distrik Sorong, Kota Sorong",PAPUA BARAT,98412.0,Indonesia,,-0.8830461,131.2656761,https://maps.google.com/?cid=0x0:0x68e33250bc79e7d0
restaurant,restaurant,,,,PAPUA BARAT,,Indonesia,,,,https://maps.google.com/?cid=0x0:0x39af320198873ddau0026onu003dExtra+Joss+Susuu0026midu003d/g/11j2z6q6h2
restaurant,restaurant,,,,PAPUA BARAT,,Indonesia,,,,https://maps.google.com/?cid=0x0:0x39af320198873ddau0026onu003dLumayan+Rapi+Dan+Nyaman+Tempatnya+Menu+Terjangkauu0026midu003d/g/11j2z6q6h2
restaurant,restaurant,,,,PAPUA BARAT,,Indonesia,,,,https://maps.google.com/?cid=0x0:0x39af320198873ddau0026onu003dHot+Orangeu0026midu003d/g/11j2z6q6h2
restaurant,Kedai Kopi,Kave,"G2WF+98G, Unnamed Road, Wermit, Kec. Teminabuan, Kabupaten Sorong Selatan, Papua Bar. 98454","Unnamed Road, Wermit, Kec. Teminabuan, Kabupaten Sorong Selatan",PAPUA BARAT,98454.0,Indonesia,,-1.4540675,132.0233327,https://maps.google.com/?cid=0x0:0xe26962da167b03d9
restaurant,Kedai Kopi,Serupa Cafe and Eatery,"Jl. Nangka, Malawili, Kec. Aimas, Kabupaten Sorong, Papua Bar. 98444","Malawili, Kec. Aimas, Kabupaten Sorong",PAPUA BARAT,98444.0,Indonesia,,-0.9574859,131.3226217,https://maps.google.com/?cid=0x0:0xc58cb63de2e28003
restaurant,restaurant,Distrik Klayili,"Kabupaten Sorong, Papua Bar.","Kabupaten Sorong, Papua Bar.",PAPUA BARAT,,Indonesia,,-0.8493892,131.7094201,https://maps.google.com/?cid=0x0:0x2d5da8d3e85a5670
restaurant,Kedai Kopi,DOME EATERY,"Malawili, Kec. Aimas, Kabupaten Sorong, Papua Bar.","Kabupaten Sorong, Papua Bar.",PAPUA BARAT,,Indonesia,,-0.9575952,131.3348549,https://maps.google.com/?cid=0x0:0xf9d0953e7b0042c9
restaurant,Padang,RM. Sikumbang Jaya km9,"Sawagumu, Kec. Sorong Utara, Kota Sorong, Papua Bar. 98412","Kec. Sorong Utara, Kota Sorong",PAPUA BARAT,98412.0,Indonesia,8123633385.0,-0.8881972,131.3081162,https://maps.google.com/?cid=0x0:0x5590c8e97ee1bc4b
restaurant,Padang,KAPAU ANAK SULTAN,"487C+3HX, Jl. Sungai Maruni, Klawuyuk, Distrik Sorong Timur, Kota Sorong, Papua Bar. 98416","Jl. Sungai Maruni, Klawuyuk, Distrik Sorong Timur, Kota Sorong",PAPUA BARAT,98416.0,Indonesia,82239885368.0,-0.8871813,131.3215172,https://maps.google.com/?cid=0x0:0x6b8f8dd309bf7f2a
restaurant,Hidangan Laut,Republik Seafood,"Sawagumu, Kec. Sorong Utara, Kota Sorong, Papua Bar. 98412","Kec. Sorong Utara, Kota Sorong",PAPUA BARAT,98412.0,Indonesia,81344615005.0,-0.8883945,131.3109228,https://maps.google.com/?cid=0x0:0xec5acb934a352d67
restaurant,Indonesia,Aghina Cafe and Restaurant,"478F+G45, Malabutor, Kecamatan Sorong Manoi, Kota Sorong, Papua Bar. 98412","Malabutor, Kecamatan Sorong Manoi, Kota Sorong",PAPUA BARAT,98412.0,Indonesia,81344840839.0,-0.8837374,131.2728509,https://maps.google.com/?cid=0x0:0x57d56fb0e9f3b322
restaurant,Kedai Kopi,Halli Galli Cafe  Resto,"Jl. Tomat No.Unit 2, Malawele, Distrik Sorong, Kabupaten Sorong, Papua Bar. 98414","Malawele, Distrik Sorong, Kabupaten Sorong",PAPUA BARAT,98414.0,Indonesia,82119768794.0,-0.9620366,131.3135301,https://maps.google.com/?cid=0x0:0x29c7a583360bbdc8
restaurant,Batak,RM. Kabanjahe,"Klamana, Distrik Sorong Timur, Kota Sorong, Papua Bar. 98416","Distrik Sorong Timur, Kota Sorong",PAPUA BARAT,98416.0,Indonesia,81240608576.0,-0.9160999,131.3347088,https://maps.google.com/?cid=0x0:0x7c5d581e99d175e2
restaurant,Kedai Kopi,Lyla.coffeeeatery,"4874+3FQ, Klasabi, Kecamatan Sorong Manoi, Kota Sorong, Papua Bar. 98412","Klasabi, Kecamatan Sorong Manoi, Kota Sorong",PAPUA BARAT,98412.0,Indonesia,,-0.8872589,131.3062762,https://maps.google.com/?cid=0x0:0x19cd5d4f1eefb5b2
restaurant,Restoran,WARUNG POLUR HANA,"XCR2+6PR, Klaben, Distrik Mariat, Kabupaten Sorong, Papua Bar.","Kabupaten Sorong, Papua Bar.",PAPUA BARAT,,Indonesia,81248546193.0,-1.0093945,131.401765,https://maps.google.com/?cid=0x0:0xf7585c4b81dda619
restaurant,Dapur Umum,KITCHEN VASILIAS,"485G+3XV, Klawuyuk, Distrik Sorong Timur, Kota Sorong, Papua Bar.","Kota Sorong, Papua Bar.",PAPUA BARAT,,Indonesia,82340182106.0,-0.8922709,131.3274081,https://maps.google.com/?cid=0x0:0xc222df7dca710829
restaurant,Restoran,Archonik Cafe and Resto,"Jl. Basuki Rahmat No.km 11, RW.5, Klawuyuk, Distrik Sorong, Kota Sorong, Papua Bar.","Kota Sorong, Papua Bar.",PAPUA BARAT,,Indonesia,81344959511.0,-0.9006694,131.3224993,https://maps.google.com/?cid=0x0:0xd1545ba8b73fd3f0
restaurant,Steak,Kilo Chicken Steak  Burger,"Hangout, Jl. Sungai Maruni No.KM. 10, Klawuyuk, Sorong Timur, Sorong City, West Papua 98416","Jl. Sungai Maruni No.KM. 10, Klawuyuk, Sorong Timur, Sorong City",PAPUA BARAT,98416.0,Indonesia,,-0.8871871,131.3215211,https://maps.google.com/?cid=0x0:0x2573e4c131e0dc4d
restaurant,restaurant,Kec. Makbon,"Kabupaten Sorong, Papua Bar.","Kabupaten Sorong, Papua Bar.",PAPUA BARAT,,Indonesia,,-0.7584809,131.586328,https://maps.google.com/?cid=0x0:0x4d3844fe7f245ffc
restaurant,Padang,RM. Sikumbang Jaya km9,"Sawagumu, Kec. Sorong Utara, Kota Sorong, Papua Bar. 98412","Kec. Sorong Utara, Kota Sorong",PAPUA BARAT,98412.0,Indonesia,8123633385.0,-0.8881972,131.3081162,https://maps.google.com/?cid=0x0:0x5590c8e97ee1bc4b
restaurant,Batak,RM. Kabanjahe,"Klamana, Distrik Sorong Timur, Kota Sorong, Papua Bar. 98416","Distrik Sorong Timur, Kota Sorong",PAPUA BARAT,98416.0,Indonesia,81240608576.0,-0.9160999,131.3347088,https://maps.google.com/?cid=0x0:0x7c5d581e99d175e2
restaurant,Rumah Makan,RM. Rasa Dulu km. 9.5,"4865+WC9, Jl. Basuki Rahmat, Sawagumu, Kec. Sorong Utara, Kota Sorong, Papua Bar. 98412","Jl. Basuki Rahmat, Sawagumu, Kec. Sorong Utara, Kota Sorong",PAPUA BARAT,98412.0,Indonesia,81356293720.0,-0.8877146,131.3086133,https://maps.google.com/?cid=0x0:0xd372bc4e1516409c
restaurant,Bar,Daville Sky Lounge,"Jl. Sungai Maruni No.Km. 10, Klawuyuk, Distrik Sorong Timur, Kota Sorong, Papua Bar. 98416","Klawuyuk, Distrik Sorong Timur, Kota Sorong",PAPUA BARAT,98416.0,Indonesia,8114863111.0,-0.8860298,131.3225973,https://maps.google.com/?cid=0x0:0xe94eba46299c2601
restaurant,Hidangan Laut,Republik Seafood,"Sawagumu, Kec. Sorong Utara, Kota Sorong, Papua Bar. 98412","Kec. Sorong Utara, Kota Sorong",PAPUA BARAT,98412.0,Indonesia,81344615005.0,-0.8883945,131.3109228,https://maps.google.com/?cid=0x0:0xec5acb934a352d67
restaurant,Restoran,Rm sambalado 1,"Jl. Kpr Pam, Klawuyuk, Distrik Sorong Timur, Kota Sorong, Papua Bar. 98416","Klawuyuk, Distrik Sorong Timur, Kota Sorong",PAPUA BARAT,98416.0,Indonesia,81344443499.0,-0.8894218,131.3192199,https://maps.google.com/?cid=0x0:0xa586f24d68234005
restaurant,Restoran,RM.ABDILLAH,"489F+G3M, Jl. Sungai Mamberamo, Matalamagi, Kec. Sorong Utara, Kota Sorong, Papua Bar. 98416","Jl. Sungai Mamberamo, Matalamagi, Kec. Sorong Utara, Kota Sorong",PAPUA BARAT,98416.0,Indonesia,,-0.8811591,131.3226792,https://maps.google.com/?cid=0x0:0xd91d20084e139b7c
restaurant,Dapur Umum,Dapur mama wulan,"Jl. Anggrek Raya 2, Klawuyuk, Kec. Sorong Utara, Kota Sorong, Papua Bar. 98416","Klawuyuk, Kec. Sorong Utara, Kota Sorong",PAPUA BARAT,98416.0,Indonesia,81240018575.0,-0.8970284,131.3283209,https://maps.google.com/?cid=0x0:0x969ebc822f5f2280
restaurant,Batak,Rumah Makan BPK Shaloom,"4897+RCF, Jl. Handayani, Sawagumu, Kec. Sorong Utara, Kota Sorong, Papua Bar. 98412","Jl. Handayani, Sawagumu, Kec. Sorong Utara, Kota Sorong",PAPUA BARAT,98412.0,Indonesia,81283060980.0,-0.880437,131.3135518,https://maps.google.com/?cid=0x0:0x9b01a958c32e9bc7
restaurant,Halal,Pondok Madinah,"487F+Q8F, Matalamagi, Kec. Sorong Utara, Kota Sorong, Papua Bar. 98416","Matalamagi, Kec. Sorong Utara, Kota Sorong",PAPUA BARAT,98416.0,Indonesia,81253217028.0,-0.8855041,131.3233026,https://maps.google.com/?cid=0x0:0xb5bf91222ceaf065
restaurant,Restoran,Archonik Cafe and Resto,"Jl. Basuki Rahmat No.km 11, RW.5, Klawuyuk, Distrik Sorong, Kota Sorong, Papua Bar.","Kota Sorong, Papua Bar.",PAPUA BARAT,,Indonesia,81344959511.0,-0.9006694,131.3224993,https://maps.google.com/?cid=0x0:0xd1545ba8b73fd3f0
restaurant,Rumah Makan,Rm Armina,"482H+JW5, Jl. Sorong - Makbon, Giwu, Distrik Sorong Timur, Kota Sorong, Papua Bar.","Kota Sorong, Papua Bar.",PAPUA BARAT,,Indonesia,,-0.8984871,131.3298486,https://maps.google.com/?cid=0x0:0xa3d63ac5a5e43a42
restaurant,restaurant,Papua Bar. 98457,"Kabupaten Sorong, Papua Bar.","Kabupaten Sorong, Papua Bar.",PAPUA BARAT,,Indonesia,,-1.0666951,131.5012792,https://maps.google.com/?cid=0x0:0x60164e450d5e6bd7
restaurant,Jawa,Warung Makan Cepu,"Jl. Tutwuri, Klamono, Distrik Klamono, Kabupaten Sorong, Papua Bar. 98457","Klamono, Distrik Klamono, Kabupaten Sorong",PAPUA BARAT,98457.0,Indonesia,81248548395.0,-1.12582,131.4867808,https://maps.google.com/?cid=0x0:0x9d151971950fad01
restaurant,Restoran,WARUNG POLUR HANA,"XCR2+6PR, Klaben, Distrik Mariat, Kabupaten Sorong, Papua Bar.","Kabupaten Sorong, Papua Bar.",PAPUA BARAT,,Indonesia,81248546193.0,-1.0093945,131.401765,https://maps.google.com/?cid=0x0:0xf7585c4b81dda619
restaurant,Hidangan Laut,Republik Seafood,"Sawagumu, Kec. Sorong Utara, Kota Sorong, Papua Bar. 98412","Kec. Sorong Utara, Kota Sorong",PAPUA BARAT,98412.0,Indonesia,81344615005.0,-0.8883945,131.3109228,https://maps.google.com/?cid=0x0:0xec5acb934a352d67
restaurant,Indonesia,Warung Surabaya,"VFHQ+664, Klawana, Distrik Klamono, Kabupaten Sorong, Papua Bar. 98457","Klawana, Distrik Klamono, Kabupaten Sorong",PAPUA BARAT,98457.0,Indonesia,82378293476.0,-1.1219855,131.4880718,https://maps.google.com/?cid=0x0:0x8b9c323ce05e6ab9
restaurant,Hidangan Laut,Marina Star Restaurant Seafood,"Kompleks, Jl. Bubara Jl. Pelabuhan Perikanan, Distrik Sorong, Kota Sorong, Papua Bar. 98414","Jl. Bubara Jl. Pelabuhan Perikanan, Distrik Sorong, Kota Sorong",PAPUA BARAT,98414.0,Indonesia,81240250548.0,-0.8790069,131.2552456,https://maps.google.com/?cid=0x0:0x6d780e763a272c1a
restaurant,Jawa,Warung Makan Blitar Sidomoro,"VFHQ+2H7, Klamono, Distrik Klamono, Kabupaten Sorong, Papua Bar. 98457","Klamono, Distrik Klamono, Kabupaten Sorong",PAPUA BARAT,98457.0,Indonesia,85344089631.0,-1.1224588,131.4889136,https://maps.google.com/?cid=0x0:0x90eb0479c1165ad1
restaurant,restaurant,Warung Bampapuang,"VFGQ+WMC, Klawana, Distrik Klamono, Kabupaten Sorong, Papua Bar. 98457","Klawana, Distrik Klamono, Kabupaten Sorong",PAPUA BARAT,98457.0,Indonesia,,-1.1226834,131.489145,https://maps.google.com/?cid=0x0:0xe796d28bf380ce72
restaurant,Dapur Umum,warung 7 putri,"X8Q9+JHC, Jl. Nusa Indah, Mariyai, Distrik Mariat, Kabupaten Sorong, Papua Bar. 98415","Jl. Nusa Indah, Mariyai, Distrik Mariat, Kabupaten Sorong",PAPUA BARAT,98415.0,Indonesia,82299095496.0,-1.0109412,131.3188995,https://maps.google.com/?cid=0x0:0x5decbadb5d563418
restaurant,Kafe,MARIAT COFFEE  BAKERY,"Jl. Ahmad Yani No.1, Klademak, Distrik Sorong, Kota Sorong, Papua Bar. 98412","Klademak, Distrik Sorong, Kota Sorong",PAPUA BARAT,98412.0,Indonesia,951323535.0,-0.8823348,131.2745927,https://maps.google.com/?cid=0x0:0x7a76b25bf425bf04
restaurant,Hidangan Laut,Metamani Restaurant  Lounge,"47H2+C88, Jl. Dr. Sam Ratulangi, Kp. Baru, Distrik Sorong, Kota Sorong, Papua Bar. 98411","Jl. Dr. Sam Ratulangi, Kp. Baru, Distrik Sorong, Kota Sorong",PAPUA BARAT,98411.0,Indonesia,951325666.0,-0.8714551,131.2508224,https://maps.google.com/?cid=0x0:0x1071bea8f0cd42dd
restaurant,Indonesia,Rm.Cemara,"Rm. Cemara, Aimas, Kec. Aimas, Kabupaten Sorong, Papua Bar. 98414","Aimas, Kec. Aimas, Kabupaten Sorong",PAPUA BARAT,98414.0,Indonesia,,-0.9822603,131.3626195,https://maps.google.com/?cid=0x0:0xada0d791706f4229
restaurant,Kedai Kopi,Sorong Cafe,"Sawagumu, Kec. Sorong Utara, Kota Sorong, Papua Bar.","Kota Sorong, Papua Bar.",PAPUA BARAT,,Indonesia,81248201730.0,-0.8893784,131.3128926,https://maps.google.com/?cid=0x0:0x7962c1d0ce1b0528
restaurant,Dapur Umum,warung makan,"X8P9+VG2, Mariyai, Distrik Mariat, Kabupaten Sorong, Papua Bar. 98415","Mariyai, Distrik Mariat, Kabupaten Sorong",PAPUA BARAT,98415.0,Indonesia,82399041010.0,-1.012709,131.318834,https://maps.google.com/?cid=0x0:0xc565e23b28cbe909
restaurant,Padang,Rest Area Sederhana,"WPW5+5CW, Sayosa, Kec. Sayosa, Kabupaten Sorong, Papua Bar. 98471","Sayosa, Kec. Sayosa, Kabupaten Sorong",PAPUA BARAT,98471.0,Indonesia,,-1.0545087,131.7085809,https://maps.google.com/?cid=0x0:0x39af320198873dda
restaurant,restaurant,Kafe Internet MAROS INDAH,"Emaos, Distrik Sausapor, Kabupaten Tambrauw, Papua Bar. 98473","Distrik Sausapor, Kabupaten Tambrauw",PAPUA BARAT,98473.0,Indonesia,82271191527.0,-0.504784,132.0801417,https://maps.google.com/?cid=0x0:0x16b708103e4522bb
restaurant,restaurant,Papua Bar. 98472,"Kabupaten Sorong, Papua Bar.","Kabupaten Sorong, Papua Bar.",PAPUA BARAT,,Indonesia,,-0.8437569,131.9989718,https://maps.google.com/?cid=0x0:0x94d7894d7b2d29e5
restaurant,Makanan Kecil,Warung Makan Andre,"6C76+MF, Banso, Distrik Syujak, Kabupaten Tambrauw, Papua Bar.","Kabupaten Tambrauw, Papua Bar.",PAPUA BARAT,,Indonesia,,-0.7857415,132.4111989,https://maps.google.com/?cid=0x0:0x443c5a3dac5e6f70
restaurant,Restoran,Rumah Makan Suka-Suka,"42JW+2RH, Jl. Trikora Rendani, Wosi, Kec. Manokwari Bar., Kabupaten Manokwari, Papua Bar. 98312","Jl. Trikora Rendani, Wosi, Kec. Manokwari Bar., Kabupaten Manokwari",PAPUA BARAT,98312.0,Indonesia,,-0.8699304,134.0471193,https://maps.google.com/?cid=0x0:0xabc7135884bb31f0
restaurant,Rumah Makan,Rumah Makan Smarten Jaya,"Ayamaru mefkajim 11, Kec. Ayamaru, Papua Bar.","Kabupaten Maybrat, Papua Bar.",PAPUA BARAT,,Indonesia,82199931677.0,-1.2804829,132.2028707,https://maps.google.com/?cid=0x0:0xda049992131ddb4d
restaurant,Hidangan Laut,Marina Star Restaurant Seafood,"Kompleks, Jl. Bubara Jl. Pelabuhan Perikanan, Distrik Sorong, Kota Sorong, Papua Bar. 98414","Jl. Bubara Jl. Pelabuhan Perikanan, Distrik Sorong, Kota Sorong",PAPUA BARAT,98414.0,Indonesia,81240250548.0,-0.8790069,131.2552456,https://maps.google.com/?cid=0x0:0x6d780e763a272c1a
restaurant,Restoran,Restaurant Jordy,"P5FW+5WH, Ayamaru, Kec. Ayamaru, Kabupaten Maybrat, Papua Bar. 98461","Ayamaru, Kec. Ayamaru, Kabupaten Maybrat",PAPUA BARAT,98461.0,Indonesia,,-1.2770626,132.1973567,https://maps.google.com/?cid=0x0:0xef85da43b585ffec
restaurant,restaurant,Warung makan Gloria,"5CVJ+VQ6, Ases, Distrik Fef, Kabupaten Tambrauw, Papua Bar.","Kabupaten Tambrauw, Papua Bar.",PAPUA BARAT,,Indonesia,82348184296.0,-0.8053457,132.4318978,https://maps.google.com/?cid=0x0:0xbce4336ba8225375
restaurant,Restoran,Warung Makan Barokah 2,"4FMJ+8J8, Jalan Pemukiman Jalur 1, Massi, Kec. Dekai, Kabupaten Yahukimo, Papua 99571","Jalan Pemukiman Jalur 1, Massi, Kec. Dekai, Kabupaten Yahukimo",PAPUA BARAT,99571.0,Indonesia,,-4.866712,139.481592,https://maps.google.com/?cid=0x0:0x931d10243e564b12
restaurant,Indonesia,Rumah Makan Putra Sukowati,"P65G+9H7, Fiane, Kec. Ayamaru, Kabupaten Maybrat, Papua Bar.","Kabupaten Maybrat, Papua Bar.",PAPUA BARAT,,Indonesia,,-1.2915989,132.2264145,https://maps.google.com/?cid=0x0:0xd68323bf1db7ec04
restaurant,Hidangan Laut,RM. NEW RATU SAYANG,"Lido, Jl. Yos. Sudarso No.31, Klasuur, Distrik Sorong, Kota Sorong, Papua Bar. 98413","Jl. Yos. Sudarso No.31, Klasuur, Distrik Sorong, Kota Sorong",PAPUA BARAT,98413.0,Indonesia,85244007744.0,-0.8652896,131.2461583,https://maps.google.com/?cid=0x0:0xb387f5135fa5f5d6
restaurant,restaurant,Mie ayam  Bakso,"6C86+GW, Banso, Distrik Syujak, Kabupaten Tambrauw, Papua Bar.","Kabupaten Tambrauw, Papua Bar.",PAPUA BARAT,,Indonesia,81240779825.0,-0.7836091,132.4123432,https://maps.google.com/?cid=0x0:0x9fba945218f30b69
restaurant,restaurant,Kabupaten Sorong,"2RQR+R38, Yorbes, Kec. Sayosa, timur, Papua Bar.","timur, Papua Bar.",PAPUA BARAT,,Indonesia,,-0.9604647,131.8402054,https://maps.google.com/?cid=0x0:0xe61d27b183c2a228
restaurant,restaurant,Mayamuk,"Kabupaten Sorong, Papua Bar.","Kabupaten Sorong, Papua Bar.",PAPUA BARAT,,Indonesia,,-1.0590548,131.2851406,https://maps.google.com/?cid=0x0:0x18c5e8368d4ad732
restaurant,Rumah Makan,Warung Makan Je'neberang,"X7CW+GRH, Makbusun, Mayamuk, Kabupaten Sorong, Papua Bar. 98451","Makbusun, Mayamuk, Kabupaten Sorong",PAPUA BARAT,98451.0,Indonesia,82238343524.0,-1.0286765,131.2971075,https://maps.google.com/?cid=0x0:0xd25d6ea9fab996d5
restaurant,Indonesia,rumah makan priangan,"W7VP+76H, Makbalim, Mayamuk, Kabupaten Sorong, Papua Bar. 98451","Makbalim, Mayamuk, Kabupaten Sorong",PAPUA BARAT,98451.0,Indonesia,81227228184.0,-1.0568181,131.2856248,https://maps.google.com/?cid=0x0:0xfd20653d52bf29ac
restaurant,Nasi,Warung AZ,"X7CR+W25, Makbalim, Mayamuk, Kabupaten Sorong, Papua Bar. 98451","Makbalim, Mayamuk, Kabupaten Sorong",PAPUA BARAT,98451.0,Indonesia,,-1.0277466,131.2900942,https://maps.google.com/?cid=0x0:0xf5f2c8b5bd330727
restaurant,Padang,RM PADANG PURNAMA INDAH,"X77R+658, Makbusun, Mayamuk, Kabupaten Sorong, Papua Bar. 98451","Makbusun, Mayamuk, Kabupaten Sorong",PAPUA BARAT,98451.0,Indonesia,85244460329.0,-1.0370681,131.2904191,https://maps.google.com/?cid=0x0:0x42cb3d11e5801db2
restaurant,Perguruan Tinggi,emus,"W76P+2HH, Makotyamsa, Mayamuk, Kabupaten Sorong, Papua Bar. 98451","Makotyamsa, Mayamuk, Kabupaten Sorong",PAPUA BARAT,98451.0,Indonesia,,-1.0904459,131.2867771,https://maps.google.com/?cid=0x0:0x23b1341bb29f80dc
restaurant,Rumah Makan,RM. Sido Rame,"V7XP+H3Q, Majaran, Kec. Salawati, Kabupaten Sorong, Papua Bar. 98451","Majaran, Kec. Salawati, Kabupaten Sorong",PAPUA BARAT,98451.0,Indonesia,,-1.1010442,131.2852448,https://maps.google.com/?cid=0x0:0xfbb86ff1c11f57e9
restaurant,Bakso,Podo moro 2,"Sp4 jln poros TSM, sebelah SLB, Makbalim, Mayamuk, Kabupaten Sorong, Papua Bar.","Kabupaten Sorong, Papua Bar.",PAPUA BARAT,,Indonesia,,-1.0595862,131.2869487,https://maps.google.com/?cid=0x0:0x1d916885a11d6618
restaurant,Tegal,Warung Alyaad,"W7QM+6X7, Makbalim, Mayamuk, Kabupaten Sorong, Papua Bar. 98451","Makbalim, Mayamuk, Kabupaten Sorong",PAPUA BARAT,98451.0,Indonesia,85344055556.0,-1.061969,131.2849184,https://maps.google.com/?cid=0x0:0x780cb025734d6cd0
restaurant,Tegal,Rumah makan Banyuwangi,"W7MM+XX7, Jl. Poros, Makbalim, Mayamuk, Kabupaten Sorong, Papua Bar. 98451","Jl. Poros, Makbalim, Mayamuk, Kabupaten Sorong",PAPUA BARAT,98451.0,Indonesia,,-1.0650933,131.2849164,https://maps.google.com/?cid=0x0:0x76b1bba41aaac8ff
restaurant,Sate,Warung Makan Putra Pekalongan,"X73P+H3H, Unnamed Road, Makbusun, Mayamuk, Kabupaten Sorong, Papua Bar. 98451","Unnamed Road, Makbusun, Mayamuk, Kabupaten Sorong",PAPUA BARAT,98451.0,Indonesia,82398978129.0,-1.0460639,131.2852379,https://maps.google.com/?cid=0x0:0x13057d06963a160c
restaurant,Sate,Warung Makan Arisvik,"X8V9+2GV, Jl. Flamboyan, Klasuluk, Distrik Mariat, Kabupaten Sorong, Papua Bar. 98415","Jl. Flamboyan, Klasuluk, Distrik Mariat, Kabupaten Sorong",PAPUA BARAT,98415.0,Indonesia,81344627866.0,-1.0073979,131.3188066,https://maps.google.com/?cid=0x0:0x585ce49263490d64
restaurant,Dapur Umum,Siomay Mom Fia,"W7PH+6P8, Jl. Semeru, RT.05/RW.01, Makbalim, Mayamuk, Kabupaten Sorong, Papua Bar. 98451","Jl. Semeru, RT.05/RW.01, Makbalim, Mayamuk, Kabupaten Sorong",PAPUA BARAT,98451.0,Indonesia,85242433065.0,-1.0644612,131.2793287,https://maps.google.com/?cid=0x0:0xcf68f22d9eeced
restaurant,Restoran,Rumah Makan Sederhana,"W7JP+H24, Makbalim, Mayamuk, Kabupaten Sorong, Papua Bar. 98451","Makbalim, Mayamuk, Kabupaten Sorong",PAPUA BARAT,98451.0,Indonesia,,-1.0686041,131.2850925,https://maps.google.com/?cid=0x0:0xad9b2cfb158a8e4a
restaurant,Restoran,Warung Budhe,"V799+PC7, Unnamed Road, Majaran, Kec. Salawati, Kabupaten Sorong, Papua Bar. 98451","Unnamed Road, Majaran, Kec. Salawati, Kabupaten Sorong",PAPUA BARAT,98451.0,Indonesia,,-1.1307155,131.2685434,https://maps.google.com/?cid=0x0:0xa5a6e8eb16e8ecf9
restaurant,restaurant,Papua Bar. 98451,"Kabupaten Sorong, Papua Bar.","Kabupaten Sorong, Papua Bar.",PAPUA BARAT,,Indonesia,,-1.1998275,131.3611121,https://maps.google.com/?cid=0x0:0x9f6340793bb8183
restaurant,Rumah Makan,Warung Makan Je'neberang,"X7CW+GRH, Makbusun, Mayamuk, Kabupaten Sorong, Papua Bar. 98451","Makbusun, Mayamuk, Kabupaten Sorong",PAPUA BARAT,98451.0,Indonesia,82238343524.0,-1.0286765,131.2971075,https://maps.google.com/?cid=0x0:0xd25d6ea9fab996d5
restaurant,Restoran,Lesehan Kembang Lintang,"V799+J3J, Unnamed Road, Majaran, Kec. Salawati, Kabupaten Sorong, Papua Bar. 98451","Unnamed Road, Majaran, Kec. Salawati, Kabupaten Sorong",PAPUA BARAT,98451.0,Indonesia,,-1.1309003,131.2676251,https://maps.google.com/?cid=0x0:0x4fbd4c1dd0bf328a
restaurant,Bakso,Podo moro 2,"Sp4 jln poros TSM, sebelah SLB, Makbalim, Mayamuk, Kabupaten Sorong, Papua Bar.","Kabupaten Sorong, Papua Bar.",PAPUA BARAT,,Indonesia,,-1.0595862,131.2869487,https://maps.google.com/?cid=0x0:0x1d916885a11d6618
restaurant,Perguruan Tinggi,emus,"W76P+2HH, Makotyamsa, Mayamuk, Kabupaten Sorong, Papua Bar. 98451","Makotyamsa, Mayamuk, Kabupaten Sorong",PAPUA BARAT,98451.0,Indonesia,,-1.0904459,131.2867771,https://maps.google.com/?cid=0x0:0x23b1341bb29f80dc
restaurant,Rumah Makan,EMPANG SARI Mujair/Nila goreng,"V778+VQ9, Unnamed Road, Majaran, Kec. Salawati, Kabupaten Sorong, Papua Bar. 98451","Unnamed Road, Majaran, Kec. Salawati, Kabupaten Sorong",PAPUA BARAT,98451.0,Indonesia,82198952929.0,-1.1353323,131.2669877,https://maps.google.com/?cid=0x0:0x5490ffd53fee5f55
restaurant,Sate,Rm. Syifani (Sate Kambing Katapop),"R6RX+MGF, Majener, Kec. Salawati, Kabupaten Sorong, Papua Bar. 98451","Majener, Kec. Salawati, Kabupaten Sorong",PAPUA BARAT,98451.0,Indonesia,85244741298.0,-1.1587777,131.2480271,https://maps.google.com/?cid=0x0:0x76ed0a1903a7b99a
restaurant,Indonesia,rumah makan priangan,"W7VP+76H, Makbalim, Mayamuk, Kabupaten Sorong, Papua Bar. 98451","Makbalim, Mayamuk, Kabupaten Sorong",PAPUA BARAT,98451.0,Indonesia,81227228184.0,-1.0568181,131.2856248,https://maps.google.com/?cid=0x0:0xfd20653d52bf29ac
restaurant,Padang,Maros Indah,"X9X4+CW3, Klamasen, Distrik Mariat, Kabupaten Sorong, Papua Bar. 98416","Klamasen, Distrik Mariat, Kabupaten Sorong",PAPUA BARAT,98416.0,Indonesia,,-1.0014954,131.3572885,https://maps.google.com/?cid=0x0:0x20fa02e26375ae74
restaurant,Dapur Umum,RM. Putra Lamongan,"X8RH+W2, Klamalu, Distrik Mariat, Kabupaten Sorong, Papua Bar.","Kabupaten Sorong, Papua Bar.",PAPUA BARAT,,Indonesia,,-1.007637,131.327518,https://maps.google.com/?cid=0x0:0x279ef1bd2956b751
restaurant,restaurant,MIEYAGO,"X8V9+7JQ, Klasuluk, Distrik Mariat, Kabupaten Sorong, Papua Bar.","Kabupaten Sorong, Papua Bar.",PAPUA BARAT,,Indonesia,,-1.0067849,131.3191083,https://maps.google.com/?cid=0x0:0x22d960168a0c8689
restaurant,Kedai Kopi,Serupa Cafe and Eatery,"Jl. Nangka, Malawili, Kec. Aimas, Kabupaten Sorong, Papua Bar. 98444","Malawili, Kec. Aimas, Kabupaten Sorong",PAPUA BARAT,98444.0,Indonesia,,-0.9574859,131.3226217,https://maps.google.com/?cid=0x0:0xc58cb63de2e28003
restaurant,Restoran,Kios Lilis,"V7FF+8V8, Majaran, Kec. Salawati, Kabupaten Sorong, Papua Bar. 98451","Majaran, Kec. Salawati, Kabupaten Sorong",PAPUA BARAT,98451.0,Indonesia,,-1.1267905,131.2749276,https://maps.google.com/?cid=0x0:0x90fef149bb725629
restaurant,restaurant,Kec. Salawati,"Kabupaten Sorong, Papua Bar.","Kabupaten Sorong, Papua Bar.",PAPUA BARAT,,Indonesia,,-1.1878386,131.2481347,https://maps.google.com/?cid=0x0:0x2da3ce5cc71682ef
restaurant,Restoran,Warung Budhe,"V799+PC7, Unnamed Road, Majaran, Kec. Salawati, Kabupaten Sorong, Papua Bar. 98451","Unnamed Road, Majaran, Kec. Salawati, Kabupaten Sorong",PAPUA BARAT,98451.0,Indonesia,,-1.1307155,131.2685434,https://maps.google.com/?cid=0x0:0xa5a6e8eb16e8ecf9
restaurant,Rumah Makan,RM. Sido Rame,"V7XP+H3Q, Majaran, Kec. Salawati, Kabupaten Sorong, Papua Bar. 98451","Majaran, Kec. Salawati, Kabupaten Sorong",PAPUA BARAT,98451.0,Indonesia,,-1.1010442,131.2852448,https://maps.google.com/?cid=0x0:0xfbb86ff1c11f57e9
restaurant,Restoran,Lesehan Kembang Lintang,"V799+J3J, Unnamed Road, Majaran, Kec. Salawati, Kabupaten Sorong, Papua Bar. 98451","Unnamed Road, Majaran, Kec. Salawati, Kabupaten Sorong",PAPUA BARAT,98451.0,Indonesia,,-1.1309003,131.2676251,https://maps.google.com/?cid=0x0:0x4fbd4c1dd0bf328a
restaurant,Restoran,Warung Rangga,"V7WJ+9WP, Unnamed Road, Majaran, Kec. Salawati, Kabupaten Sorong, Papua Bar. 98451","Unnamed Road, Majaran, Kec. Salawati, Kabupaten Sorong",PAPUA BARAT,98451.0,Indonesia,,-1.1040448,131.2823128,https://maps.google.com/?cid=0x0:0x5baeecd04a996ef8
restaurant,Sate,Rm. Syifani (Sate Kambing Katapop),"R6RX+MGF, Majener, Kec. Salawati, Kabupaten Sorong, Papua Bar. 98451","Majener, Kec. Salawati, Kabupaten Sorong",PAPUA BARAT,98451.0,Indonesia,85244741298.0,-1.1587777,131.2480271,https://maps.google.com/?cid=0x0:0x76ed0a1903a7b99a
restaurant,Restoran,Warung Makasar sunda,"Jalan salawati, Majaran, Kec. Salawati, Kabupaten Sorong, Papua Bar. 98423","Majaran, Kec. Salawati, Kabupaten Sorong",PAPUA BARAT,98423.0,Indonesia,81240597089.0,-1.1283211,131.269754,https://maps.google.com/?cid=0x0:0x55502a0b48236933
restaurant,Restoran,Rumah Makan Rahma,"R69X+P92, Jl. Poros Matawolot, Matawolot, Kec. Salawati, Kabupaten Sorong, Papua Bar. 98451","Jl. Poros Matawolot, Matawolot, Kec. Salawati, Kabupaten Sorong",PAPUA BARAT,98451.0,Indonesia,81240587331.0,-1.1807452,131.2483949,https://maps.google.com/?cid=0x0:0xe8ce2828149b97c4
restaurant,Restoran,Kios Lilis,"V7FF+8V8, Majaran, Kec. Salawati, Kabupaten Sorong, Papua Bar. 98451","Majaran, Kec. Salawati, Kabupaten Sorong",PAPUA BARAT,98451.0,Indonesia,,-1.1267905,131.2749276,https://maps.google.com/?cid=0x0:0x90fef149bb725629
restaurant,Restoran,Warung Sederhana (mbak Kris),"Majaran, Kec. Salawati, Kabupaten Sorong, Papua Bar. 98451","Kec. Salawati, Kabupaten Sorong",PAPUA BARAT,98451.0,Indonesia,82234782707.0,-1.1363871,131.2667665,https://maps.google.com/?cid=0x0:0x7a042c0d833815c9
restaurant,Restoran,Warung lia,"V758+737, Jalan poros, Majener, Kec. Salawati, Kabupaten Sorong, Papua Bar. 98451","Jalan poros, Majener, Kec. Salawati, Kabupaten Sorong",PAPUA BARAT,98451.0,Indonesia,81248128232.0,-1.1418283,131.2651869,https://maps.google.com/?cid=0x0:0x9ed3114671f0fd9d
restaurant,Kafe,Warung SATRIO,"V7FC+QR7, Unnamed Road, Majaran, Kec. Salawati, Kabupaten Sorong, Papua Bar. 98451","Unnamed Road, Majaran, Kec. Salawati, Kabupaten Sorong",PAPUA BARAT,98451.0,Indonesia,,-1.125581,131.272055,https://maps.google.com/?cid=0x0:0xb9fc44df58874961
restaurant,Rumah Makan,EMPANG SARI Mujair/Nila goreng,"V778+VQ9, Unnamed Road, Majaran, Kec. Salawati, Kabupaten Sorong, Papua Bar. 98451","Unnamed Road, Majaran, Kec. Salawati, Kabupaten Sorong",PAPUA BARAT,98451.0,Indonesia,82198952929.0,-1.1353323,131.2669877,https://maps.google.com/?cid=0x0:0x5490ffd53fee5f55
restaurant,Rumah Makan,Dapur Nusantara,"V799+J3J, Majaran, Kec. Salawati, Kabupaten Sorong, Papua Bar. 98451","Majaran, Kec. Salawati, Kabupaten Sorong",PAPUA BARAT,98451.0,Indonesia,,-1.1321592,131.2667479,https://maps.google.com/?cid=0x0:0xc3be7a5365216eb0
restaurant,restaurant,Kec. Salawati Sel.,"Kabupaten Sorong, Papua Bar.","Kabupaten Sorong, Papua Bar.",PAPUA BARAT,,Indonesia,,-1.2811542,130.8951476,https://maps.google.com/?cid=0x0:0xc4d8ce15c534bd48
restaurant,Kedai Kopi,Warung Thompson,"M2F9+92X, Unnamed Road, Kasimle, Seget, Sorong Regency, West Papua 98452","Unnamed Road, Kasimle, Seget, Sorong Regency",PAPUA BARAT,98452.0,Indonesia,,-1.3265171,131.0176073,https://maps.google.com/?cid=0x0:0xa28232b64522af34
restaurant,Rumah Makan,Dapur Nusantara,"V799+J3J, Majaran, Kec. Salawati, Kabupaten Sorong, Papua Bar. 98451","Majaran, Kec. Salawati, Kabupaten Sorong",PAPUA BARAT,98451.0,Indonesia,,-1.1321592,131.2667479,https://maps.google.com/?cid=0x0:0xc3be7a5365216eb0
restaurant,Pizza,Pizzeria Terrazza di Sorong,"Behind SKKMIGAS, dibelakang SKKMIGAS, Jl. Arfak, Kp. Baru, Kota Sorong, Papua Bar. 98414","dibelakang SKKMIGAS, Jl. Arfak, Kp. Baru, Kota Sorong",PAPUA BARAT,98414.0,Indonesia,81356867669.0,-0.8737438,131.25222,https://maps.google.com/?cid=0x0:0xf46c05068677dc1
restaurant,Sesuai untuk keluarga,"CAK SUBUR BAKSO, PANGSIT, LALAPAN  PANGKAS RAMBUT","Jl. Sukajaya, RT.17/RW.5, Majaran, Salawati, Sorong Regency, West Papua 98451","RT.17/RW.5, Majaran, Salawati, Sorong Regency",PAPUA BARAT,98451.0,Indonesia,82397733779.0,-1.1246652,131.2726525,https://maps.google.com/?cid=0x0:0x8796f6be7dffbf31
restaurant,Hidangan Laut,Gantari Seafood Sorong,"Kp. Baru, Distrik Sorong, Kota Sorong, Papua Bar. 98412","Distrik Sorong, Kota Sorong",PAPUA BARAT,98412.0,Indonesia,82196628056.0,-0.870222,131.2462221,https://maps.google.com/?cid=0x0:0xdcbda7833267511d
restaurant,Bakso,Warung bakso,"M2F9+94, Kasimle, Distrik Seget, Kabupaten Sorong, Papua Bar. 98452","Kasimle, Distrik Seget, Kabupaten Sorong",PAPUA BARAT,98452.0,Indonesia,82393194624.0,-1.3270977,131.0177123,https://maps.google.com/?cid=0x0:0x554d8c49803e85f9
restaurant,Padang,Rumah Makan Rizky,"WV5H+94X, Kapatlap, Kec. Salawati Utara, Kabupaten Raja Ampat, Papua Bar. 98484","Kapatlap, Kec. Salawati Utara, Kabupaten Raja Ampat",PAPUA BARAT,98484.0,Indonesia,81248407477.0,-1.0915151,130.8778586,https://maps.google.com/?cid=0x0:0xc61437de63e508d5
restaurant,Hidangan Laut,Marina Star Restaurant Seafood,"Kompleks, Jl. Bubara Jl. Pelabuhan Perikanan, Distrik Sorong, Kota Sorong, Papua Bar. 98414","Jl. Bubara Jl. Pelabuhan Perikanan, Distrik Sorong, Kota Sorong",PAPUA BARAT,98414.0,Indonesia,81240250548.0,-0.8790069,131.2552456,https://maps.google.com/?cid=0x0:0x6d780e763a272c1a
restaurant,Kedai Kopi,Sorong Cafe,"Sawagumu, Kec. Sorong Utara, Kota Sorong, Papua Bar.","Kota Sorong, Papua Bar.",PAPUA BARAT,,Indonesia,81248201730.0,-0.8893784,131.3128926,https://maps.google.com/?cid=0x0:0x7962c1d0ce1b0528
restaurant,Nasi,Artikulasi Resto  Cafe,"V778+6M8, Majaran, Kec. Salawati, Kabupaten Sorong, Papua Bar. 98451","Majaran, Kec. Salawati, Kabupaten Sorong",PAPUA BARAT,98451.0,Indonesia,,-1.1372737,131.2659227,https://maps.google.com/?cid=0x0:0x1d92cc3ea92a6e6c
restaurant,restaurant,Salawati Tengah,"Kabupaten Raja Ampat, Papua Bar.","Kabupaten Raja Ampat, Papua Bar.",PAPUA BARAT,,Indonesia,,-1.0547794,131.0589536,https://maps.google.com/?cid=0x0:0x9e15ae7888c4541f
restaurant,Restoran,Warung Budhe,"V799+PC7, Unnamed Road, Majaran, Kec. Salawati, Kabupaten Sorong, Papua Bar. 98451","Unnamed Road, Majaran, Kec. Salawati, Kabupaten Sorong",PAPUA BARAT,98451.0,Indonesia,,-1.1307155,131.2685434,https://maps.google.com/?cid=0x0:0xa5a6e8eb16e8ecf9
restaurant,restaurant,PENGINAPAN TERSANJUNG,"W3XG+845, Sakabu, Salawati Tengah, Kabupaten Raja Ampat, Papua Bar. 98484","Sakabu, Salawati Tengah, Kabupaten Raja Ampat",PAPUA BARAT,98484.0,Indonesia,,-1.0520193,131.0755416,https://maps.google.com/?cid=0x0:0xa48f8ce269cf90a6
restaurant,Pizza,Pizzeria Terrazza di Sorong,"Behind SKKMIGAS, dibelakang SKKMIGAS, Jl. Arfak, Kp. Baru, Kota Sorong, Papua Bar. 98414","dibelakang SKKMIGAS, Jl. Arfak, Kp. Baru, Kota Sorong",PAPUA BARAT,98414.0,Indonesia,81356867669.0,-0.8737438,131.25222,https://maps.google.com/?cid=0x0:0xf46c05068677dc1
restaurant,Kafe,Warung SATRIO,"V7FC+QR7, Unnamed Road, Majaran, Kec. Salawati, Kabupaten Sorong, Papua Bar. 98451","Unnamed Road, Majaran, Kec. Salawati, Kabupaten Sorong",PAPUA BARAT,98451.0,Indonesia,,-1.125581,131.272055,https://maps.google.com/?cid=0x0:0xb9fc44df58874961
restaurant,Restoran,Kios Lilis,"V7FF+8V8, Majaran, Kec. Salawati, Kabupaten Sorong, Papua Bar. 98451","Majaran, Kec. Salawati, Kabupaten Sorong",PAPUA BARAT,98451.0,Indonesia,,-1.1267905,131.2749276,https://maps.google.com/?cid=0x0:0x90fef149bb725629
restaurant,Restoran,Warung Sederhana (mbak Kris),"Majaran, Kec. Salawati, Kabupaten Sorong, Papua Bar. 98451","Kec. Salawati, Kabupaten Sorong",PAPUA BARAT,98451.0,Indonesia,82234782707.0,-1.1363871,131.2667665,https://maps.google.com/?cid=0x0:0x7a042c0d833815c9
restaurant,Restoran,Warung Makasar sunda,"Jalan salawati, Majaran, Kec. Salawati, Kabupaten Sorong, Papua Bar. 98423","Majaran, Kec. Salawati, Kabupaten Sorong",PAPUA BARAT,98423.0,Indonesia,81240597089.0,-1.1283211,131.269754,https://maps.google.com/?cid=0x0:0x55502a0b48236933
restaurant,Restoran,Warung lia,"V758+737, Jalan poros, Majener, Kec. Salawati, Kabupaten Sorong, Papua Bar. 98451","Jalan poros, Majener, Kec. Salawati, Kabupaten Sorong",PAPUA BARAT,98451.0,Indonesia,81248128232.0,-1.1418283,131.2651869,https://maps.google.com/?cid=0x0:0x9ed3114671f0fd9d
restaurant,Hidangan Laut,Republik Seafood,"Sawagumu, Kec. Sorong Utara, Kota Sorong, Papua Bar. 98412","Kec. Sorong Utara, Kota Sorong",PAPUA BARAT,98412.0,Indonesia,81344615005.0,-0.8883945,131.3109228,https://maps.google.com/?cid=0x0:0xec5acb934a352d67
restaurant,Restoran,Warung makan bagadang bunda lin,"V7C9+JVX, Majaran, Kec. Salawati, Kabupaten Sorong, Papua Bar. 98451","Majaran, Kec. Salawati, Kabupaten Sorong",PAPUA BARAT,98451.0,Indonesia,81240597089.0,-1.1283927,131.2697306,https://maps.google.com/?cid=0x0:0x7cd15ed82629eb6c
restaurant,Restoran,Warung TERANG BULAN SATRIO,"V7C9+VXF, Majaran, Kec. Salawati, Kabupaten Sorong, Papua Bar. 98451","Majaran, Kec. Salawati, Kabupaten Sorong",PAPUA BARAT,98451.0,Indonesia,85244702232.0,-1.1278105,131.2699283,https://maps.google.com/?cid=0x0:0x5c08d40721038f53
restaurant,Indonesia,The Sky Cafe Reborn,"479F+3XR, Jl. Ahmad Yani No.1, Klademak, Distrik Sorong, Kota Sorong, Papua Bar. 98412","Jl. Ahmad Yani No.1, Klademak, Distrik Sorong, Kota Sorong",PAPUA BARAT,98412.0,Indonesia,,-0.8822653,131.2745998,https://maps.google.com/?cid=0x0:0xd87864ab702db251
restaurant,Dapur Umum,SAYYA Restaurant,"Jl. Panglima Polim V No.36, Melawai, Kec. Kby. Baru, JAKARTA, Daerah Khusus Ibukota Jakarta 12160","Melawai, Kec. Kby. Baru, JAKARTA",PAPUA BARAT,12160.0,Indonesia,82258680268.0,-6.2506046,106.7978813,https://maps.google.com/?cid=0x0:0xae73eba9e2b0e89f
restaurant,Padang,Rest Area Sederhana,"WPW5+5CW, Sayosa, Kec. Sayosa, Kabupaten Sorong, Papua Bar. 98471","Sayosa, Kec. Sayosa, Kabupaten Sorong",PAPUA BARAT,98471.0,Indonesia,,-1.0545087,131.7085809,https://maps.google.com/?cid=0x0:0x39af320198873dda
restaurant,Restoran,Sansho,"Jl. Letjen S. Parman No.Kavling 59, Slipi, Kec. Palmerah, Kota Jakarta Barat, Daerah Khusus Ibukota Jakarta 11410","Slipi, Kec. Palmerah, Kota Jakarta Barat",PAPUA BARAT,11410.0,Indonesia,215331560.0,-6.1993129,106.7989098,https://maps.google.com/?cid=0x0:0x58f58c4f4bfce485
restaurant,restaurant,,,,PAPUA BARAT,,Indonesia,,,,https://maps.google.com/?cid=0x0:0x39af320198873ddau0026onu003dKopi+Nikmatu0026midu003d/g/11j2z6q6h2
restaurant,restaurant,,,,PAPUA BARAT,,Indonesia,,,,https://maps.google.com/?cid=0x0:0x39af320198873ddau0026onu003dExtra+Joss+Susuu0026midu003d/g/11j2z6q6h2
restaurant,restaurant,,,,PAPUA BARAT,,Indonesia,,,,https://maps.google.com/?cid=0x0:0x39af320198873ddau0026onu003dLumayan+Rapi+Dan+Nyaman+Tempatnya+Menu+Terjangkauu0026midu003d/g/11j2z6q6h2
restaurant,restaurant,,,,PAPUA BARAT,,Indonesia,,,,https://maps.google.com/?cid=0x0:0x39af320198873ddau0026onu003dHot+Orangeu0026midu003d/g/11j2z6q6h2
restaurant,Pizza,Pizzeria Terrazza di Sorong,"Behind SKKMIGAS, dibelakang SKKMIGAS, Jl. Arfak, Kp. Baru, Kota Sorong, Papua Bar. 98414","dibelakang SKKMIGAS, Jl. Arfak, Kp. Baru, Kota Sorong",PAPUA BARAT,98414.0,Indonesia,81356867669.0,-0.8737438,131.25222,https://maps.google.com/?cid=0x0:0xf46c05068677dc1
restaurant,restaurant,,,,PAPUA BARAT,,Indonesia,,,,https://maps.google.com/?cid=0x0:0xf46c05068677dc1u0026onu003dMenuu0026midu003d/g/11tp9rf8y1
restaurant,Restoran,Pizza Hut Restoran - Mega Mall Sorong,"Mega Mall Sorong, Jl. Basuki Rahmat Lantai Dasar, Malaingkedi, Distrik Sorong Timur, Kota Sorong, Papua Bar.","Kota Sorong, Papua Bar.",PAPUA BARAT,,Indonesia,1500600.0,-0.8874193,131.3013508,https://maps.google.com/?cid=0x0:0x68b3007d4e2acab8
restaurant,restaurant,,,,PAPUA BARAT,,Indonesia,,,,https://maps.google.com/?cid=0x0:0xf46c05068677dc1u0026onu003dMeat+Lovers+Pizzau0026midu003d/g/11tp9rf8y1
restaurant,restaurant,,,,PAPUA BARAT,,Indonesia,,,,https://maps.google.com/?cid=0x0:0xf46c05068677dc1u0026onu003dPizza+Margheritau0026midu003d/g/11tp9rf8y1
restaurant,restaurant,,,,PAPUA BARAT,,Indonesia,,,,https://maps.google.com/?cid=0x0:0xf46c05068677dc1u0026onu003dCreamy+Cheesecake+-+Homemadeu0026midu003d/g/11tp9rf8y1
restaurant,restaurant,,,,PAPUA BARAT,,Indonesia,,,,https://maps.google.com/?cid=0x0:0xf46c05068677dc1u0026onu003dSate+Ayam+Jumbou0026midu003d/g/11tp9rf8y1
restaurant,restaurant,,,,PAPUA BARAT,,Indonesia,,,,https://maps.google.com/?cid=0x0:0xf46c05068677dc1u0026onu003dFrench+Friesu0026midu003d/g/11tp9rf8y1
restaurant,restaurant,,,,PAPUA BARAT,,Indonesia,,,,https://maps.google.com/?cid=0x0:0xf46c05068677dc1u0026onu003dVegetarian+Pizzau0026midu003d/g/11tp9rf8y1
restaurant,restaurant,,,,PAPUA BARAT,,Indonesia,,,,https://maps.google.com/?cid=0x0:0xf46c05068677dc1u0026onu003dChicken+Sandwichu0026midu003d/g/11tp9rf8y1
restaurant,restaurant,,,,PAPUA BARAT,,Indonesia,,,,https://maps.google.com/?cid=0x0:0xf46c05068677dc1u0026onu003dTuna+Pastau0026midu003d/g/11tp9rf8y1
restaurant,restaurant,,,,PAPUA BARAT,,Indonesia,,,,https://maps.google.com/?cid=0x0:0xf46c05068677dc1u0026onu003dQuarter+Pounder+Smash+Burgeru0026midu003d/g/11tp9rf8y1
restaurant,restaurant,,,,PAPUA BARAT,,Indonesia,,,,https://maps.google.com/?cid=0x0:0xf46c05068677dc1u0026onu003dGarden+Salad+with+Mozzarella+Chunks+and+Croutonsu0026midu003d/g/11tp9rf8y1
restaurant,restaurant,,,,PAPUA BARAT,,Indonesia,,,,https://maps.google.com/?cid=0x0:0xf46c05068677dc1u0026onu003dPizza+Funghiu0026midu003d/g/11tp9rf8y1
restaurant,restaurant,Papua Bar. 98452,"Kabupaten Sorong, Papua Bar.","Kabupaten Sorong, Papua Bar.",PAPUA BARAT,,Indonesia,,-1.3516263,131.0797172,https://maps.google.com/?cid=0x0:0x12aa97ea8dec5973
restaurant,Hidangan Laut,Republik Seafood,"Sawagumu, Kec. Sorong Utara, Kota Sorong, Papua Bar. 98412","Kec. Sorong Utara, Kota Sorong",PAPUA BARAT,98412.0,Indonesia,81344615005.0,-0.8883945,131.3109228,https://maps.google.com/?cid=0x0:0xec5acb934a352d67
restaurant,Hidangan Laut,Marina Star Restaurant Seafood,"Kompleks, Jl. Bubara Jl. Pelabuhan Perikanan, Distrik Sorong, Kota Sorong, Papua Bar. 98414","Jl. Bubara Jl. Pelabuhan Perikanan, Distrik Sorong, Kota Sorong",PAPUA BARAT,98414.0,Indonesia,81240250548.0,-0.8790069,131.2552456,https://maps.google.com/?cid=0x0:0x6d780e763a272c1a
restaurant,Hidangan Laut,RM. NEW RATU SAYANG,"Lido, Jl. Yos. Sudarso No.31, Klasuur, Distrik Sorong, Kota Sorong, Papua Bar. 98413","Jl. Yos. Sudarso No.31, Klasuur, Distrik Sorong, Kota Sorong",PAPUA BARAT,98413.0,Indonesia,85244007744.0,-0.8652896,131.2461583,https://maps.google.com/?cid=0x0:0xb387f5135fa5f5d6
restaurant,Bakso,RESTO BANDAR PALEMBANG,"28VH+479, Malawili, Kec. Aimas, Kabupaten Sorong, Papua Bar. 98414","Malawili, Kec. Aimas, Kabupaten Sorong",PAPUA BARAT,98414.0,Indonesia,82147699011.0,-0.957213,131.3282234,https://maps.google.com/?cid=0x0:0xfbfa6a5ab4450ca
restaurant,Korea,Mansae Hore Korean Grill Sorong cabang KILO,"Jl. Basuki Rahmat No.Km.9 5, Sawagumu, Kec. Sorong Utara, Kota Sorong, Papua Bar. 98410","Sawagumu, Kec. Sorong Utara, Kota Sorong",PAPUA BARAT,98410.0,Indonesia,81212888885.0,-0.8893567,131.3119808,https://maps.google.com/?cid=0x0:0x7421ada9c8690ba9
restaurant,Hidangan Laut,Gantari Seafood Sorong,"Kp. Baru, Distrik Sorong, Kota Sorong, Papua Bar. 98412","Distrik Sorong, Kota Sorong",PAPUA BARAT,98412.0,Indonesia,82196628056.0,-0.870222,131.2462221,https://maps.google.com/?cid=0x0:0xdcbda7833267511d
restaurant,restaurant,Papua Bar.,,Papua Bar.,PAPUA BARAT,,Indonesia,,-1.3361154,133.1747162,https://maps.google.com/?cid=0x0:0x5349c1f8c5c7cb62
restaurant,Pujasera,Hangout Avenue Sorong,"Jl Sungai Maruni KM 10, Masuk No.23, Kota Sorong, Papua Bar. 98416","Masuk No.23, Kota Sorong",PAPUA BARAT,98416.0,Indonesia,82197698090.0,-0.8868107,131.3216004,https://maps.google.com/?cid=0x0:0x29c3ed1d6d1ac389
restaurant,Kedai Kopi,Sorong Cafe,"Sawagumu, Kec. Sorong Utara, Kota Sorong, Papua Bar.","Kota Sorong, Papua Bar.",PAPUA BARAT,,Indonesia,81248201730.0,-0.8893784,131.3128926,https://maps.google.com/?cid=0x0:0x7962c1d0ce1b0528
restaurant,Rumah Makan,Rumah Makan Mini (Miniresto.sorong),"Klademak, Distrik Sorong, Kota Sorong, Papua Bar. 98412","Distrik Sorong, Kota Sorong",PAPUA BARAT,98412.0,Indonesia,85354611115.0,-0.8820389,131.2740136,https://maps.google.com/?cid=0x0:0x1b2e4c712665ee5b
restaurant,Kafe,Infinity Social House,"46MW+H87, Lido, Distrik Sorong, Kota Sorong, Papua Bar. 98411","Lido, Distrik Sorong, Kota Sorong",PAPUA BARAT,98411.0,Indonesia,82360700899.0,-0.86582,131.2452795,https://maps.google.com/?cid=0x0:0xde8c57d5950c604a
restaurant,Lounge,Arvac Lounge  Cafe,"475R+M9X, Remu Sel., Kecamatan Sorong Manoi, Kota Sorong, Papua Bar. 98412","Remu Sel., Kecamatan Sorong Manoi, Kota Sorong",PAPUA BARAT,98412.0,Indonesia,9513160300.0,-0.8907562,131.2909767,https://maps.google.com/?cid=0x0:0x577432dddedfa478
restaurant,Restoran,Samday Cafe,"Jl. Handayani, Sawagumu, Kec. Sorong Utara, Kota Sorong, Papua Bar. 98412","Sawagumu, Kec. Sorong Utara, Kota Sorong",PAPUA BARAT,98412.0,Indonesia,85244789075.0,-0.8804464,131.3135913,https://maps.google.com/?cid=0x0:0xa482db4f0cd11458
restaurant,restaurant,Papua Bar. 98413,"Klabala, Distrik Sorong Barat, Kota Sorong, Papua Bar.","Kota Sorong, Papua Bar.",PAPUA BARAT,,Indonesia,,-0.8669518,131.254029,https://maps.google.com/?cid=0x0:0x352e1f254d39ea2b
restaurant,Korea,Mansae Hore Korean Grill Sorong cabang KAMPUNG BARU,"Jl. Sam Ratulangi Ruko Alfa Mega No.2B, Kp. Baru, Distrik Sorong, Kota Sorong, Papua Bar. 98411","Kp. Baru, Distrik Sorong, Kota Sorong",PAPUA BARAT,98411.0,Indonesia,81212285585.0,-0.870754,131.2519071,https://maps.google.com/?cid=0x0:0x62f61b03c2c8bda6
restaurant,Pizza,Pizzeria Terrazza di Sorong,"Behind SKKMIGAS, dibelakang SKKMIGAS, Jl. Arfak, Kp. Baru, Kota Sorong, Papua Bar. 98414","dibelakang SKKMIGAS, Jl. Arfak, Kp. Baru, Kota Sorong",PAPUA BARAT,98414.0,Indonesia,81356867669.0,-0.8737438,131.25222,https://maps.google.com/?cid=0x0:0xf46c05068677dc1
restaurant,Hidangan Laut,RM. NEW RATU SAYANG,"Lido, Jl. Yos. Sudarso No.31, Klasuur, Distrik Sorong, Kota Sorong, Papua Bar. 98413","Jl. Yos. Sudarso No.31, Klasuur, Distrik Sorong, Kota Sorong",PAPUA BARAT,98413.0,Indonesia,85244007744.0,-0.8652896,131.2461583,https://maps.google.com/?cid=0x0:0xb387f5135fa5f5d6
restaurant,Korea,Mansae Hore Korean Grill Sorong cabang KILO,"Jl. Basuki Rahmat No.Km.9 5, Sawagumu, Kec. Sorong Utara, Kota Sorong, Papua Bar. 98410","Sawagumu, Kec. Sorong Utara, Kota Sorong",PAPUA BARAT,98410.0,Indonesia,81212888885.0,-0.8893567,131.3119808,https://maps.google.com/?cid=0x0:0x7421ada9c8690ba9
restaurant,Rumah Makan,Rumah Makan Mini (Miniresto.sorong),"Klademak, Distrik Sorong, Kota Sorong, Papua Bar. 98412","Distrik Sorong, Kota Sorong",PAPUA BARAT,98412.0,Indonesia,85354611115.0,-0.8820389,131.2740136,https://maps.google.com/?cid=0x0:0x1b2e4c712665ee5b
restaurant,Kedai Kopi,Sorong Cafe,"Sawagumu, Kec. Sorong Utara, Kota Sorong, Papua Bar.","Kota Sorong, Papua Bar.",PAPUA BARAT,,Indonesia,81248201730.0,-0.8893784,131.3128926,https://maps.google.com/?cid=0x0:0x7962c1d0ce1b0528
restaurant,Kafe,Infinity Social House,"46MW+H87, Lido, Distrik Sorong, Kota Sorong, Papua Bar. 98411","Lido, Distrik Sorong, Kota Sorong",PAPUA BARAT,98411.0,Indonesia,82360700899.0,-0.86582,131.2452795,https://maps.google.com/?cid=0x0:0xde8c57d5950c604a
restaurant,Sulawesi Selatan,Rumah Makan Goyang Lidah 2 HBM Kota Sorong,"Jl. Mesjid Raya, Remu Utara, Distrik Sorong, Kota Sorong, Papua Bar. 98412","Remu Utara, Distrik Sorong, Kota Sorong",PAPUA BARAT,98412.0,Indonesia,8114871878.0,-0.8806609,131.2828623,https://maps.google.com/?cid=0x0:0xc360ea1f18263d44
restaurant,Pujasera,Hangout Avenue Sorong,"Jl Sungai Maruni KM 10, Masuk No.23, Kota Sorong, Papua Bar. 98416","Masuk No.23, Kota Sorong",PAPUA BARAT,98416.0,Indonesia,82197698090.0,-0.8868107,131.3216004,https://maps.google.com/?cid=0x0:0x29c3ed1d6d1ac389
restaurant,Sate,Ikan Bakar Jaman Now Dada Tuna,"4788+9VF, Klaligi, Kecamatan Sorong Manoi, Kota Sorong, Papua Bar. 98412","Klaligi, Kecamatan Sorong Manoi, Kota Sorong",PAPUA BARAT,98412.0,Indonesia,,-0.8840528,131.2671606,https://maps.google.com/?cid=0x0:0x72768577f2a409fa
restaurant,China,RM. Kalimantan,"Depan batalion samping toko central, Klabala, Distrik Sorong Barat, Kota Sorong, Papua Bar. 98413","Klabala, Distrik Sorong Barat, Kota Sorong",PAPUA BARAT,98413.0,Indonesia,81247781880.0,-0.8669301,131.2540129,https://maps.google.com/?cid=0x0:0xa7deaa3054fc7a6c
restaurant,Kedai Kopi,Terra Cafe,"Jl. Arfak No.24, Kp. Baru, Distrik Sorong, Kota Sorong, Papua Bar. 98413","Kp. Baru, Distrik Sorong, Kota Sorong",PAPUA BARAT,98413.0,Indonesia,85240161348.0,-0.8717566,131.248572,https://maps.google.com/?cid=0x0:0xa6831f8c179c4651
restaurant,restaurant,Marina Mamberamo,"Jl. Yos. Sudarso No.1, Kp. Baru, Distrik Sorong, Kota Sorong, Papua Bar. 98413","Kp. Baru, Distrik Sorong, Kota Sorong",PAPUA BARAT,98413.0,Indonesia,85244588484.0,-0.8757299,131.2440035,https://maps.google.com/?cid=0x0:0x90a6ebcb4c6ebcbd
restaurant,restaurant,Sorong,"Kota Sorong, Papua Bar.","Kota Sorong, Papua Bar.",PAPUA BARAT,,Indonesia,,-0.8761629,131.255828,https://maps.google.com/?cid=0x0:0xe32b512ec6c6786
restaurant,Pizza,Pizzeria Terrazza di Sorong,"Behind SKKMIGAS, dibelakang SKKMIGAS, Jl. Arfak, Kp. Baru, Kota Sorong, Papua Bar. 98414","dibelakang SKKMIGAS, Jl. Arfak, Kp. Baru, Kota Sorong",PAPUA BARAT,98414.0,Indonesia,81356867669.0,-0.8737438,131.25222,https://maps.google.com/?cid=0x0:0xf46c05068677dc1
restaurant,Hidangan Laut,Marina Star Restaurant Seafood,"Kompleks, Jl. Bubara Jl. Pelabuhan Perikanan, Distrik Sorong, Kota Sorong, Papua Bar. 98414","Jl. Bubara Jl. Pelabuhan Perikanan, Distrik Sorong, Kota Sorong",PAPUA BARAT,98414.0,Indonesia,81240250548.0,-0.8790069,131.2552456,https://maps.google.com/?cid=0x0:0x6d780e763a272c1a
restaurant,Indonesia,Aghina Cafe and Restaurant,"478F+G45, Malabutor, Kecamatan Sorong Manoi, Kota Sorong, Papua Bar. 98412","Malabutor, Kecamatan Sorong Manoi, Kota Sorong",PAPUA BARAT,98412.0,Indonesia,81344840839.0,-0.8837374,131.2728509,https://maps.google.com/?cid=0x0:0x57d56fb0e9f3b322
restaurant,Korea,Mansae Hore Korean Grill Sorong cabang KILO,"Jl. Basuki Rahmat No.Km.9 5, Sawagumu, Kec. Sorong Utara, Kota Sorong, Papua Bar. 98410","Sawagumu, Kec. Sorong Utara, Kota Sorong",PAPUA BARAT,98410.0,Indonesia,81212888885.0,-0.8893567,131.3119808,https://maps.google.com/?cid=0x0:0x7421ada9c8690ba9
restaurant,Kedai Kopi,Sorong Cafe,"Sawagumu, Kec. Sorong Utara, Kota Sorong, Papua Bar.","Kota Sorong, Papua Bar.",PAPUA BARAT,,Indonesia,81248201730.0,-0.8893784,131.3128926,https://maps.google.com/?cid=0x0:0x7962c1d0ce1b0528
restaurant,Hidangan Laut,Gantari Seafood Sorong,"Kp. Baru, Distrik Sorong, Kota Sorong, Papua Bar. 98412","Distrik Sorong, Kota Sorong",PAPUA BARAT,98412.0,Indonesia,82196628056.0,-0.870222,131.2462221,https://maps.google.com/?cid=0x0:0xdcbda7833267511d
restaurant,Hidangan Laut,Balobe Sea Food,"Jl. Sam Ratulangi No.18, Kp. Baru, Distrik Sorong, Kota Sorong, Papua Bar. 98411","Kp. Baru, Distrik Sorong, Kota Sorong",PAPUA BARAT,98411.0,Indonesia,82399798211.0,-0.8728469,131.2491882,https://maps.google.com/?cid=0x0:0x420905d23403148f
restaurant,Restoran,Solaria - Mall Sorong,"Solaria Ramayana Sorong, Jl. Ahmad Yani Lt Dasar, Klademak, Distrik Sorong, Kota Sorong, Papua Bar. 98416","Jl. Ahmad Yani Lt Dasar, Klademak, Distrik Sorong, Kota Sorong",PAPUA BARAT,98416.0,Indonesia,82128983365.0,-0.8821795,131.2756931,https://maps.google.com/?cid=0x0:0xfd165571f47dcbd9
restaurant,Restoran,RICA PADI,"Klaligi, Kecamatan Sorong Manoi, Kota Sorong, Papua Bar.","Kota Sorong, Papua Bar.",PAPUA BARAT,,Indonesia,81316780332.0,-0.8808383,131.2663266,https://maps.google.com/?cid=0x0:0xf07f8de4782cdeab
restaurant,Hidangan Laut,Metamani Restaurant  Lounge,"47H2+C88, Jl. Dr. Sam Ratulangi, Kp. Baru, Distrik Sorong, Kota Sorong, Papua Bar. 98411","Jl. Dr. Sam Ratulangi, Kp. Baru, Distrik Sorong, Kota Sorong",PAPUA BARAT,98411.0,Indonesia,951325666.0,-0.8714551,131.2508224,https://maps.google.com/?cid=0x0:0x1071bea8f0cd42dd
restaurant,Hidangan Laut,SEAFOOD ARBONEX SORONG,"Jl. Yos. Sudarso, Kp. Baru, Distrik Sorong, Kota Sorong, Papua Bar. 98411","Kp. Baru, Distrik Sorong, Kota Sorong",PAPUA BARAT,98411.0,Indonesia,8114865227.0,-0.873987,131.2455833,https://maps.google.com/?cid=0x0:0x2369669c11cb749a
restaurant,Hidangan Laut,RM. NEW RATU SAYANG,"Lido, Jl. Yos. Sudarso No.31, Klasuur, Distrik Sorong, Kota Sorong, Papua Bar. 98413","Jl. Yos. Sudarso No.31, Klasuur, Distrik Sorong, Kota Sorong",PAPUA BARAT,98413.0,Indonesia,85244007744.0,-0.8652896,131.2461583,https://maps.google.com/?cid=0x0:0xb387f5135fa5f5d6
restaurant,Sulawesi Selatan,Coto HBeNG,"Remu Utara, Distrik Sorong, Kota Sorong, Papua Bar. 98412","Distrik Sorong, Kota Sorong",PAPUA BARAT,98412.0,Indonesia,,-0.8807345,131.2828633,https://maps.google.com/?cid=0x0:0x20aa763af6d9e0ef
restaurant,restaurant,Papua Bar. 98416,Papua Bar.,Papua Bar.,PAPUA BARAT,,Indonesia,,-0.8883325,131.3510866,https://maps.google.com/?cid=0x0:0x7d4c82915eeb19ce
restaurant,Padang,KAPAU ANAK SULTAN,"487C+3HX, Jl. Sungai Maruni, Klawuyuk, Distrik Sorong Timur, Kota Sorong, Papua Bar. 98416","Jl. Sungai Maruni, Klawuyuk, Distrik Sorong Timur, Kota Sorong",PAPUA BARAT,98416.0,Indonesia,82239885368.0,-0.8871813,131.3215172,https://maps.google.com/?cid=0x0:0x6b8f8dd309bf7f2a
restaurant,Rumah Makan,RM.Joglo Gaya Baru,"Jl. Tuturuga, Klamasen, Distrik Mariat, Kabupaten Sorong, Papua Bar. 98416","Klamasen, Distrik Mariat, Kabupaten Sorong",PAPUA BARAT,98416.0,Indonesia,81243424949.0,-0.9841605,131.3521329,https://maps.google.com/?cid=0x0:0x7c27bbbd958822ef
restaurant,Batak,RM. Kabanjahe,"Klamana, Distrik Sorong Timur, Kota Sorong, Papua Bar. 98416","Distrik Sorong Timur, Kota Sorong",PAPUA BARAT,98416.0,Indonesia,81240608576.0,-0.9160999,131.3347088,https://maps.google.com/?cid=0x0:0x7c5d581e99d175e2
restaurant,Padang,RM Padang Jakarta,"Jl. Basuki Rahmat, RT.01/RW.05, Klawuyuk, Sorong Timur, Klawuyuk, Distrik Sorong Timur, Kota Sorong, Papua Bar. 98416","RT.01/RW.05, Klawuyuk, Sorong Timur, Klawuyuk, Distrik Sorong Timur, Kota Sorong",PAPUA BARAT,98416.0,Indonesia,81277244711.0,-0.8949423,131.3184884,https://maps.google.com/?cid=0x0:0x45e78beddf9ecb00
restaurant,Korea,Mansae Hore Korean Grill Sorong cabang KILO,"Jl. Basuki Rahmat No.Km.9 5, Sawagumu, Kec. Sorong Utara, Kota Sorong, Papua Bar. 98410","Sawagumu, Kec. Sorong Utara, Kota Sorong",PAPUA BARAT,98410.0,Indonesia,81212888885.0,-0.8893567,131.3119808,https://maps.google.com/?cid=0x0:0x7421ada9c8690ba9
restaurant,Padang,RM. SALERO BAGINDO,"487C+GPW, Sawagumu, Kec. Sorong Utara, Kota Sorong, Papua Bar. 98416","Sawagumu, Kec. Sorong Utara, Kota Sorong",PAPUA BARAT,98416.0,Indonesia,951333696.0,-0.8861472,131.3218132,https://maps.google.com/?cid=0x0:0xea59f51ea26bc78a
restaurant,Korea,NOKS KITCHEN,"489C+JW9, Matalamagi, Kec. Sorong Utara, Kota Sorong, Papua Bar. 98416","Matalamagi, Kec. Sorong Utara, Kota Sorong",PAPUA BARAT,98416.0,Indonesia,81292187200.0,-0.8810337,131.3220752,https://maps.google.com/?cid=0x0:0xe33398cb42bee1af
restaurant,Rumah Makan,RM. SRITANJUNG,"Perumnas, Jl. Basuki Rahmat, Klawuyuk, Distrik Sorong Timur, Kota Sorong, Papua Bar. 98416","Jl. Basuki Rahmat, Klawuyuk, Distrik Sorong Timur, Kota Sorong",PAPUA BARAT,98416.0,Indonesia,81344078061.0,-0.8927622,131.3170047,https://maps.google.com/?cid=0x0:0x74dd72de76bbe62f
restaurant,Indonesia,Aghina Cafe and Restaurant,"478F+G45, Malabutor, Kecamatan Sorong Manoi, Kota Sorong, Papua Bar. 98412","Malabutor, Kecamatan Sorong Manoi, Kota Sorong",PAPUA BARAT,98412.0,Indonesia,81344840839.0,-0.8837374,131.2728509,https://maps.google.com/?cid=0x0:0x57d56fb0e9f3b322
restaurant,restaurant,rm ikan bakar,"38XG+WWQ, Jl. A.M. Sangaji Gonof, Klawuyuk, Distrik Sorong Timur, Kota Sorong, Papua Bar. 98416","Jl. A.M. Sangaji Gonof, Klawuyuk, Distrik Sorong Timur, Kota Sorong",PAPUA BARAT,98416.0,Indonesia,,-0.9001605,131.3273445,https://maps.google.com/?cid=0x0:0x6e2e7a43bd902402
restaurant,Rumah Makan,WR Makan Sabar Subur - Sunda,"4848+PWM, Klawuyuk, Distrik Sorong Timur, Kota Sorong, Papua Bar. 98416","Klawuyuk, Distrik Sorong Timur, Kota Sorong",PAPUA BARAT,98416.0,Indonesia,,-0.8931592,131.3173002,https://maps.google.com/?cid=0x0:0x40b84a024350b40d
restaurant,Kedai Kopi,Sorong Cafe,"Sawagumu, Kec. Sorong Utara, Kota Sorong, Papua Bar.","Kota Sorong, Papua Bar.",PAPUA BARAT,,Indonesia,81248201730.0,-0.8893784,131.3128926,https://maps.google.com/?cid=0x0:0x7962c1d0ce1b0528
restaurant,Sulawesi Selatan,Coto Pak Daeng,"Jl. Basuki Rahmat No.Km.11.5, Klasaman, Distrik Sorong Timur, Kota Sorong, Papua Bar. 98416","Klasaman, Distrik Sorong Timur, Kota Sorong",PAPUA BARAT,98416.0,Indonesia,85299444081.0,-0.9005336,131.3219248,https://maps.google.com/?cid=0x0:0x70948c17dc6c5c49
