Category,Real Category,Business Name,Address,City,State,Postal Code,Country,Phone,Latitude,Longitude,Map Link
mall,mall,Papua Bar. 98457,"Kabupaten Sorong, Papua Bar.","Kabupaten Sorong, Papua Bar.",PAPUA BARAT,,Indonesia,,-1.0666951,131.5012792,https://maps.google.com/?cid=0x0:0x60164e450d5e6bd7
mall,Pusat Perbelanjaan,Saga Aimas,"28VG+26V, Jl. Nangka, Malawili, Kec. Aimas, Kabupaten Sorong, Papua Bar. 98414","Jl. Nangka, Malawili, Kec. Aimas, Kabupaten Sorong",PAPUA BARAT,98414.0,Indonesia,81351816880.0,-0.9574598,131.3257559,https://maps.google.com/?cid=0x0:0x2ba45ddc0e9b2391
mall,Pusat Perbelanjaan,Mega Mall Sorong,"Jalan Basuki Rahmat Klabulu, Malaimsimsa, Malaingkedi, Kec. Sorong Utara, Kota Sorong, Papua Bar. 98412","Malaimsimsa, Malaingkedi, Kec. Sorong Utara, Kota Sorong",PAPUA BARAT,98412.0,Indonesia,,-0.8873097,131.3012842,https://maps.google.com/?cid=0x0:0x364e52ce8985aa7
mall,Toko,Toko Senyum 5000,"Malawili, Kec. Aimas, Kabupaten Sorong, Papua Bar. 98414","Kec. Aimas, Kabupaten Sorong",PAPUA BARAT,98414.0,Indonesia,81248132769.0,-0.9571926,131.334055,https://maps.google.com/?cid=0x0:0x6628faa192e06d59
mall,Pusat Perbelanjaan,INDOMARET TRANS AIMAS,"Jl. Klamono No.KM.19 No.19, Aimas, Kec. Aimas, Kabupaten Sorong, Papua Bar. 98414","Aimas, Kec. Aimas, Kabupaten Sorong",PAPUA BARAT,98414.0,Indonesia,,-0.9541866,131.3361605,https://maps.google.com/?cid=0x0:0x406ebaffcedd0c63
mall,Pusat Perbelanjaan,RAMAYANA Mall Sorong,"Jl. Wahid Hasyim 220 A-B, Jakarta, Papua Bar. 10250",Jakarta,PAPUA BARAT,10250.0,Indonesia,951332505.0,-0.8820615,131.2755023,https://maps.google.com/?cid=0x0:0x595b97e0cac05b45
mall,Pusat Perbelanjaan,Mal Sorong,"479G+369, Klademak, Distrik Sorong, Kota Sorong, Papua Bar. 98412","Klademak, Distrik Sorong, Kota Sorong",PAPUA BARAT,98412.0,Indonesia,,-0.8823414,131.2755957,https://maps.google.com/?cid=0x0:0x4efad982776d0ca5
mall,Toko Pakaian,Wipa Aimas,"Jl. Gambas No.1, Malawele, Kec. Aimas, Kabupaten Sorong, Papua Bar. 98414","Malawele, Kec. Aimas, Kabupaten Sorong",PAPUA BARAT,98414.0,Indonesia,,-0.9573294,131.3048247,https://maps.google.com/?cid=0x0:0x67050147742e9ce4
mall,Kios,Lapak Naura,"28VF+P77, Malawili, Kec. Aimas, Kabupaten Sorong, Papua Bar. 98414","Malawili, Kec. Aimas, Kabupaten Sorong",PAPUA BARAT,98414.0,Indonesia,85244534850.0,-0.955703,131.3231817,https://maps.google.com/?cid=0x0:0x8c4b8f698b6f8993
mall,Minimarket,SAGA Supermarket  Dept. Store,"Jalan A. Yani, Ruko Kuda Laut, Klademak, Kecamatan Sorong Manoi, Kota Sorong, Papua Bar. 98414","Ruko Kuda Laut, Klademak, Kecamatan Sorong Manoi, Kota Sorong",PAPUA BARAT,98414.0,Indonesia,951322784.0,-0.8765248,131.2576755,https://maps.google.com/?cid=0x0:0x963043ed646a7e1e
mall,Toko,Toko Tanjaya Aimas,"Jl. Buncis, Malawele, Kec. Aimas, Kabupaten Sorong, Papua Bar. 98414","Malawele, Kec. Aimas, Kabupaten Sorong",PAPUA BARAT,98414.0,Indonesia,85242888900.0,-0.9571682,131.3124251,https://maps.google.com/?cid=0x0:0x671fcc1c4d0b1aa5
mall,Kantor Perusahaan,Pt. Dokindo Aimas Papua,"27Q9+FRM, Unnamed Road, Papua Bar., Warmon, Kec. Aimas, Kota Sorong, Papua Bar. 98413","Unnamed Road, Papua Bar., Warmon, Kec. Aimas, Kota Sorong",PAPUA BARAT,98413.0,Indonesia,85861946225.0,-0.961281,131.2695562,https://maps.google.com/?cid=0x0:0x634ab406391c1ced
mall,Taman bermain,Alun-Alun Kota Baru Aimas,"Jl. Sorong - Aimas, Malawili, Kec. Aimas, Kabupaten Sorong, Papua Bar. 98414","Malawili, Kec. Aimas, Kabupaten Sorong",PAPUA BARAT,98414.0,Indonesia,,-0.9567719,131.3352703,https://maps.google.com/?cid=0x0:0x6fec1c2ea702681b
mall,Toko Perlengkapan Militer >>u0026 Angkatan Laut,TOKO SAFETY ZONE,"28VM+437, Jl. Nangka, Malawili, Kec. Aimas, Kabupaten Sorong, Papua Bar. 98414","Jl. Nangka, Malawili, Kec. Aimas, Kabupaten Sorong",PAPUA BARAT,98414.0,Indonesia,81247902591.0,-0.9572363,131.332787,https://maps.google.com/?cid=0x0:0xa370b3588ec051c
mall,mall,Papua Bar. 98453,"Kabupaten Sorong, Papua Bar.","Kabupaten Sorong, Papua Bar.",PAPUA BARAT,,Indonesia,,-1.3400215,131.6410914,https://maps.google.com/?cid=0x0:0x3be69fb5df79c3fb
mall,Pusat Perbelanjaan,Mega Mall Sorong,"Jalan Basuki Rahmat Klabulu, Malaimsimsa, Malaingkedi, Kec. Sorong Utara, Kota Sorong, Papua Bar. 98412","Malaimsimsa, Malaingkedi, Kec. Sorong Utara, Kota Sorong",PAPUA BARAT,98412.0,Indonesia,,-0.8873097,131.3012842,https://maps.google.com/?cid=0x0:0x364e52ce8985aa7
mall,mall,Kios Lia,"VFGP+6WQ, Jl. Tutwuri, Klamono, Distrik Klamono, Kabupaten Sorong, Papua Bar. 98457","Jl. Tutwuri, Klamono, Distrik Klamono, Kabupaten Sorong",PAPUA BARAT,98457.0,Indonesia,,-1.1244153,131.4873715,https://maps.google.com/?cid=0x0:0x3b4b1f16a9ce7d93
mall,Pusat Perbelanjaan,Manokwari City Mall (MCM),"Jl. Yos Sudarso Manokwari, Manokwari Bar., Kec. Manokwari Bar., Kabupaten Manokwari, Papua Bar. 98312","Manokwari Bar., Kec. Manokwari Bar., Kabupaten Manokwari",PAPUA BARAT,98312.0,Indonesia,8114918899.0,-0.85693,134.0678051,https://maps.google.com/?cid=0x0:0x7e7b90df1d787501
mall,Pusat Perbelanjaan,RAMAYANA Mall Sorong,"Jl. Wahid Hasyim 220 A-B, Jakarta, Papua Bar. 10250",Jakarta,PAPUA BARAT,10250.0,Indonesia,951332505.0,-0.8820615,131.2755023,https://maps.google.com/?cid=0x0:0x595b97e0cac05b45
mall,Pusat Perbelanjaan,Mal Sorong,"479G+369, Klademak, Distrik Sorong, Kota Sorong, Papua Bar. 98412","Klademak, Distrik Sorong, Kota Sorong",PAPUA BARAT,98412.0,Indonesia,,-0.8823414,131.2755957,https://maps.google.com/?cid=0x0:0x4efad982776d0ca5
mall,Pusat Perbelanjaan,Pasar Kajase,"Wermit, Kec. Teminabuan, Kabupaten Sorong Selatan, Papua Bar. 98454","Kec. Teminabuan, Kabupaten Sorong Selatan",PAPUA BARAT,98454.0,Indonesia,,-1.4573227,132.0243258,https://maps.google.com/?cid=0x0:0x388eefbcd072c19c
mall,Pusat Perbelanjaan,PARAGON SQUARE Mall  Hotel Sorong,"4874+4RH Paragon Square Mall, Jl. Basuki Rahmat Lt. 2, Sawagumu, Kec. Sorong Utara, Kota Sorong, Papua Bar. 98412","Jl. Basuki Rahmat Lt. 2, Sawagumu, Kec. Sorong Utara, Kota Sorong",PAPUA BARAT,98412.0,Indonesia,81247232214.0,-0.8871443,131.3071264,https://maps.google.com/?cid=0x0:0xd02481be48cb6e05
mall,Toko,TOKO ZHUZHI,"bundaran kajase, Wermit, Kec. Teminabuan, Kabupaten Sorong Selatan, Papua Bar. 98454","Wermit, Kec. Teminabuan, Kabupaten Sorong Selatan",PAPUA BARAT,98454.0,Indonesia,82162880633.0,-1.4552239,132.0269155,https://maps.google.com/?cid=0x0:0xc5ac6152d7807e17
mall,Perusahaan Konstruksi,MALL SORONG MODERN CITY,"46HV+8RX, Jl. Yos. Sudarso, Kp. Baru, Distrik Sorong, Kota Sorong, Papua Bar. 98411","Jl. Yos. Sudarso, Kp. Baru, Distrik Sorong, Kota Sorong",PAPUA BARAT,98411.0,Indonesia,,-0.8716413,131.2446118,https://maps.google.com/?cid=0x0:0x40151c61e7d35d7a
mall,mall,BOGANI SHOP TEMINABUAN,"G2VG+7CP, Wermit, Kec. Teminabuan, Kabupaten Sorong Selatan, Papua Bar.","Kabupaten Sorong Selatan, Papua Bar.",PAPUA BARAT,,Indonesia,,-1.4567635,132.0260522,https://maps.google.com/?cid=0x0:0xc35ccb2273259db0
mall,mall,INDOMARET BRAWIJAYA,"H258+6M7, Jalan Brawijaya, Namro, Teminabuan, South Sorong Regency, West Papua 98454","Jalan Brawijaya, Namro, Teminabuan, South Sorong Regency",PAPUA BARAT,98454.0,Indonesia,,-1.44195,132.0166735,https://maps.google.com/?cid=0x0:0x4c6878b1bc1b26ca
mall,Pusat Perbelanjaan,Faris cell,"H256+56X, Kohoin, Kec. Teminabuan, Kabupaten Sorong Selatan, Papua Bar. 98454","Kohoin, Kec. Teminabuan, Kabupaten Sorong Selatan",PAPUA BARAT,98454.0,Indonesia,,-1.4420058,132.0106053,https://maps.google.com/?cid=0x0:0xde7cdd8422431494
mall,Pusat Perbelanjaan,INDOMARET WERMIT,"H22F+Q89, Jl. Sengget, Wermit, Kec. Teminabuan, Kabupaten Sorong Selatan, Papua Bar. 98454","Jl. Sengget, Wermit, Kec. Teminabuan, Kabupaten Sorong Selatan",PAPUA BARAT,98454.0,Indonesia,,-1.4480968,132.0234402,https://maps.google.com/?cid=0x0:0x6d2ee479e0252368
mall,Pusat Perbelanjaan,Manokwari City Mall (MCM),"Jl. Yos Sudarso Manokwari, Manokwari Bar., Kec. Manokwari Bar., Kabupaten Manokwari, Papua Bar. 98312","Manokwari Bar., Kec. Manokwari Bar., Kabupaten Manokwari",PAPUA BARAT,98312.0,Indonesia,8114918899.0,-0.85693,134.0678051,https://maps.google.com/?cid=0x0:0x7e7b90df1d787501
mall,Pusat Perbelanjaan,Belakang Manokwari city mall,"43W7+F3H, Manokwari Bar., Kec. Manokwari Bar., Kabupaten Manokwari, Papua Bar. 98312","Manokwari Bar., Kec. Manokwari Bar., Kabupaten Manokwari",PAPUA BARAT,98312.0,Indonesia,,-0.8538079,134.0627452,https://maps.google.com/?cid=0x0:0x59f633fd28048da4
mall,Komplek perumahan,Fanindi Pantai,"43R9+J9P Bar, Padarni, Kec. Manokwari Bar., Kabupaten Manokwari, Papua Bar. 98312","Padarni, Kec. Manokwari Bar., Kabupaten Manokwari",PAPUA BARAT,98312.0,Indonesia,81344477231.0,-0.8584193,134.0684588,https://maps.google.com/?cid=0x0:0xfea55ca67440bcde
mall,Pusat Perbelanjaan,Mall Ciputra,"Jl. Simpang Lima No.1, Pekunden, Kec. Semarang Tengah, Kota Semarang, Jawa Tengah 50125","Pekunden, Kec. Semarang Tengah, Kota Semarang",PAPUA BARAT,50125.0,Indonesia,248413608.0,-6.9887914,110.4238728,https://maps.google.com/?cid=0x0:0x3b8bc0b634faa680
mall,Pusat Perbelanjaan,RAMAYANA Mal Ciputra Semarang,"Mal Ciputra, Jl. Simpang Lima, Pekunden, Kec. Semarang Tengah, Kota Semarang, Jawa Tengah 50133","Jl. Simpang Lima, Pekunden, Kec. Semarang Tengah, Kota Semarang",PAPUA BARAT,50133.0,Indonesia,248415982.0,-6.9888815,110.4237365,https://maps.google.com/?cid=0x0:0x7ab10bf0d79ab928
mall,Kedai Kopi,Starbucks Mall Ciputra Semarang,"Mal Ciputra, Jl. Simpang Lima No.1 Lantai Dasar, Pekunden, Kec. Semarang Tengah, Kota Semarang, Jawa Tengah 50132","Jl. Simpang Lima No.1 Lantai Dasar, Pekunden, Kec. Semarang Tengah, Kota Semarang",PAPUA BARAT,50132.0,Indonesia,,-6.989545,110.423936,https://maps.google.com/?cid=0x0:0x20b0dd4a26b443e9
mall,Pusat Perbelanjaan,Citraland Mall Semarang,"Jl. Anggrek Raya No.23-19, Pekunden, Kec. Semarang Tengah, Kota Semarang, Jawa Tengah 50241","Pekunden, Kec. Semarang Tengah, Kota Semarang",PAPUA BARAT,50241.0,Indonesia,,-6.9893916,110.4247115,https://maps.google.com/?cid=0x0:0x3188df4d5b716db5
mall,Toko pakaian batik,Margaria Batik Semarang,"Komplek Ruko, Mal Ciputra, Jl. Gajahmada, Pekunden, Kec. Semarang Tengah, Kota Semarang, Jawa Tengah 50134","Mal Ciputra, Jl. Gajahmada, Pekunden, Kec. Semarang Tengah, Kota Semarang",PAPUA BARAT,50134.0,Indonesia,8112821426.0,-6.9890379,110.4245362,https://maps.google.com/?cid=0x0:0xe2edc989d1b485e1
mall,mall,Papua Bar. 98456,Papua Bar.,Papua Bar.,PAPUA BARAT,,Indonesia,,-1.2191286,131.8799408,https://maps.google.com/?cid=0x0:0x1193e0fa67947a8b
mall,Pusat Perbelanjaan,Mega Mall Sorong,"Jalan Basuki Rahmat Klabulu, Malaimsimsa, Malaingkedi, Kec. Sorong Utara, Kota Sorong, Papua Bar. 98412","Malaimsimsa, Malaingkedi, Kec. Sorong Utara, Kota Sorong",PAPUA BARAT,98412.0,Indonesia,,-0.8873097,131.3012842,https://maps.google.com/?cid=0x0:0x364e52ce8985aa7
mall,Indonesia,Kios Cepu,"Jl. Tutwuri, Klamono, Distrik Klamono, Kabupaten Sorong, Papua Bar. 98457","Klamono, Distrik Klamono, Kabupaten Sorong",PAPUA BARAT,98457.0,Indonesia,81390643693.0,-1.1258374,131.4867773,https://maps.google.com/?cid=0x0:0x31a8119c936f96e2
mall,Pusat Perbelanjaan,Manokwari City Mall (MCM),"Jl. Yos Sudarso Manokwari, Manokwari Bar., Kec. Manokwari Bar., Kabupaten Manokwari, Papua Bar. 98312","Manokwari Bar., Kec. Manokwari Bar., Kabupaten Manokwari",PAPUA BARAT,98312.0,Indonesia,8114918899.0,-0.85693,134.0678051,https://maps.google.com/?cid=0x0:0x7e7b90df1d787501
mall,Pusat Perbelanjaan,Mal Sorong,"479G+369, Klademak, Distrik Sorong, Kota Sorong, Papua Bar. 98412","Klademak, Distrik Sorong, Kota Sorong",PAPUA BARAT,98412.0,Indonesia,,-0.8823414,131.2755957,https://maps.google.com/?cid=0x0:0x4efad982776d0ca5
mall,Toko,Toserba Nurul,"Makbalim, Mayamuk, Kabupaten Sorong, Papua Bar. 98451","Mayamuk, Kabupaten Sorong",PAPUA BARAT,98451.0,Indonesia,,-1.0642917,131.2852025,https://maps.google.com/?cid=0x0:0xc6bbf8fbc4a7c86b
mall,Pusat Perbelanjaan,Indomaret AIMAS KLAMONO,"28RP+F9R, Jl. Klamono, Malawili, Kec. Aimas, Kabupaten Sorong, Papua Bar.","Kabupaten Sorong, Papua Bar.",PAPUA BARAT,,Indonesia,,-0.9587726,131.335902,https://maps.google.com/?cid=0x0:0xaee2426a94759e54
mall,Tempat Fitness,Tangguh Mart Plaza,"Jl. Klamono No.19 Km 19, Aimas, Kec. Aimas, Kabupaten Sorong, Papua Bar. 98414","Aimas, Kec. Aimas, Kabupaten Sorong",PAPUA BARAT,98414.0,Indonesia,8114819966.0,-0.9533569,131.3363244,https://maps.google.com/?cid=0x0:0x2846cd02a39b335c
mall,Minimarket,INDOMARET KLAMASEN,"2993+5GH, Klamasen, Distrik Mariat, Kabupaten Sorong, Papua Bar. 98416","Klamasen, Distrik Mariat, Kabupaten Sorong",PAPUA BARAT,98416.0,Indonesia,,-0.9820598,131.3537109,https://maps.google.com/?cid=0x0:0x73fbcb4854378be4
mall,mall,Kios Lia,"VFGP+6WQ, Jl. Tutwuri, Klamono, Distrik Klamono, Kabupaten Sorong, Papua Bar. 98457","Jl. Tutwuri, Klamono, Distrik Klamono, Kabupaten Sorong",PAPUA BARAT,98457.0,Indonesia,,-1.1244153,131.4873715,https://maps.google.com/?cid=0x0:0x3b4b1f16a9ce7d93
mall,Kantor Perusahaan,Klamono Store,"WFHR+H8J, Klalomon, Bar., Klawana, Distrik Klamono, Kabupaten Sorong, Papua Bar. 98457","Klalomon, Bar., Klawana, Distrik Klamono, Kabupaten Sorong",PAPUA BARAT,98457.0,Indonesia,,-1.0710492,131.4907505,https://maps.google.com/?cid=0x0:0xd1086a345677bfad
mall,Pusat Perbelanjaan,Mega Mall Sorong,"Jalan Basuki Rahmat Klabulu, Malaimsimsa, Malaingkedi, Kec. Sorong Utara, Kota Sorong, Papua Bar. 98412","Malaimsimsa, Malaingkedi, Kec. Sorong Utara, Kota Sorong",PAPUA BARAT,98412.0,Indonesia,,-0.8873097,131.3012842,https://maps.google.com/?cid=0x0:0x364e52ce8985aa7
mall,Pusat Perbelanjaan,Mal Sorong,"479G+369, Klademak, Distrik Sorong, Kota Sorong, Papua Bar. 98412","Klademak, Distrik Sorong, Kota Sorong",PAPUA BARAT,98412.0,Indonesia,,-0.8823414,131.2755957,https://maps.google.com/?cid=0x0:0x4efad982776d0ca5
mall,Makanan Siap Saji,KFC MEGA,"Jalan BASUKI RAHMAT NO. 1 KM. 8.5, Malaingkedi, Kec. Sorong Utara, Kota Sorong, Papua Bar. 98412","Malaingkedi, Kec. Sorong Utara, Kota Sorong",PAPUA BARAT,98412.0,Indonesia,2114022.0,-0.88741,131.3014311,https://maps.google.com/?cid=0x0:0x3b28231f1cfe08ef
mall,mall,MILLA olshop,"Klasuluk, Distrik Mariat, Kabupaten Sorong, Papua Bar. 98415","Distrik Mariat, Kabupaten Sorong",PAPUA BARAT,98415.0,Indonesia,81344824835.0,-1.006294,131.3156621,https://maps.google.com/?cid=0x0:0xd38b30338ede25ca
mall,mall,Distrik Klawak,"Kabupaten Sorong, Papua Bar.","Kabupaten Sorong, Papua Bar.",PAPUA BARAT,,Indonesia,,-1.1756003,131.7703046,https://maps.google.com/?cid=0x0:0xa4ffc415fb4dcb3c
mall,Pusat Perbelanjaan,Mega Mall Sorong,"Jalan Basuki Rahmat Klabulu, Malaimsimsa, Malaingkedi, Kec. Sorong Utara, Kota Sorong, Papua Bar. 98412","Malaimsimsa, Malaingkedi, Kec. Sorong Utara, Kota Sorong",PAPUA BARAT,98412.0,Indonesia,,-0.8873097,131.3012842,https://maps.google.com/?cid=0x0:0x364e52ce8985aa7
mall,Pusat Perbelanjaan,Manokwari City Mall (MCM),"Jl. Yos Sudarso Manokwari, Manokwari Bar., Kec. Manokwari Bar., Kabupaten Manokwari, Papua Bar. 98312","Manokwari Bar., Kec. Manokwari Bar., Kabupaten Manokwari",PAPUA BARAT,98312.0,Indonesia,8114918899.0,-0.85693,134.0678051,https://maps.google.com/?cid=0x0:0x7e7b90df1d787501
mall,Pusat Perbelanjaan,RAMAYANA Mall Sorong,"Jl. Wahid Hasyim 220 A-B, Jakarta, Papua Bar. 10250",Jakarta,PAPUA BARAT,10250.0,Indonesia,951332505.0,-0.8820615,131.2755023,https://maps.google.com/?cid=0x0:0x595b97e0cac05b45
mall,Toko bahan makanan,Kalawai Mart,"42GW+JX7, Jl. Drs Esau Sesa, Wosi, Kec. Manokwari Bar., Kabupaten Manokwari, Papua Bar. 98312","Jl. Drs Esau Sesa, Wosi, Kec. Manokwari Bar., Kabupaten Manokwari",PAPUA BARAT,98312.0,Indonesia,82239404628.0,-0.8734685,134.0474365,https://maps.google.com/?cid=0x0:0xa03f46416c062468
mall,Pusat Perbelanjaan,Mal Sorong,"479G+369, Klademak, Distrik Sorong, Kota Sorong, Papua Bar. 98412","Klademak, Distrik Sorong, Kota Sorong",PAPUA BARAT,98412.0,Indonesia,,-0.8823414,131.2755957,https://maps.google.com/?cid=0x0:0x4efad982776d0ca5
mall,Toko,TOKO ZHUZHI,"bundaran kajase, Wermit, Kec. Teminabuan, Kabupaten Sorong Selatan, Papua Bar. 98454","Wermit, Kec. Teminabuan, Kabupaten Sorong Selatan",PAPUA BARAT,98454.0,Indonesia,82162880633.0,-1.4552239,132.0269155,https://maps.google.com/?cid=0x0:0xc5ac6152d7807e17
mall,Pusat Perbelanjaan,PARAGON SQUARE Mall  Hotel Sorong,"4874+4RH Paragon Square Mall, Jl. Basuki Rahmat Lt. 2, Sawagumu, Kec. Sorong Utara, Kota Sorong, Papua Bar. 98412","Jl. Basuki Rahmat Lt. 2, Sawagumu, Kec. Sorong Utara, Kota Sorong",PAPUA BARAT,98412.0,Indonesia,81247232214.0,-0.8871443,131.3071264,https://maps.google.com/?cid=0x0:0xd02481be48cb6e05
mall,Pusat Perbelanjaan,Faris cell,"H256+56X, Kohoin, Kec. Teminabuan, Kabupaten Sorong Selatan, Papua Bar. 98454","Kohoin, Kec. Teminabuan, Kabupaten Sorong Selatan",PAPUA BARAT,98454.0,Indonesia,,-1.4420058,132.0106053,https://maps.google.com/?cid=0x0:0xde7cdd8422431494
mall,Grosir,AZKO PARAGON SORONG,"4874+GWG, Jl. Basuki Rahmat, Sawagumu, Kec. Sorong Utara, Kota Sorong, Papua Bar.","Kota Sorong, Papua Bar.",PAPUA BARAT,,Indonesia,,-0.886185,131.3073385,https://maps.google.com/?cid=0x0:0x34d596cc826d6f95
mall,Minimarket,SAGA Supermarket  Dept. Store,"Jalan A. Yani, Ruko Kuda Laut, Klademak, Kecamatan Sorong Manoi, Kota Sorong, Papua Bar. 98414","Ruko Kuda Laut, Klademak, Kecamatan Sorong Manoi, Kota Sorong",PAPUA BARAT,98414.0,Indonesia,951322784.0,-0.8765248,131.2576755,https://maps.google.com/?cid=0x0:0x963043ed646a7e1e
mall,Perusahaan Konstruksi,MALL SORONG MODERN CITY,"46HV+8RX, Jl. Yos. Sudarso, Kp. Baru, Distrik Sorong, Kota Sorong, Papua Bar. 98411","Jl. Yos. Sudarso, Kp. Baru, Distrik Sorong, Kota Sorong",PAPUA BARAT,98411.0,Indonesia,,-0.8716413,131.2446118,https://maps.google.com/?cid=0x0:0x40151c61e7d35d7a
mall,mall,BOGANI SHOP TEMINABUAN,"G2VG+7CP, Wermit, Kec. Teminabuan, Kabupaten Sorong Selatan, Papua Bar.","Kabupaten Sorong Selatan, Papua Bar.",PAPUA BARAT,,Indonesia,,-1.4567635,132.0260522,https://maps.google.com/?cid=0x0:0xc35ccb2273259db0
mall,Toko,Raisa Cell,"Pasar Ampera, Kohoin, Kec. Teminabuan, Kabupaten Sorong Selatan, Papua Bar. 98454","Kohoin, Kec. Teminabuan, Kabupaten Sorong Selatan",PAPUA BARAT,98454.0,Indonesia,8124877073.0,-1.4419224,132.0103847,https://maps.google.com/?cid=0x0:0x92d01390dab9e785
mall,mall,Distrik Klayili,"Kabupaten Sorong, Papua Bar.","Kabupaten Sorong, Papua Bar.",PAPUA BARAT,,Indonesia,,-0.8493892,131.7094201,https://maps.google.com/?cid=0x0:0x2d5da8d3e85a5670
mall,Pusat Perbelanjaan,Mega Mall Sorong,"Jalan Basuki Rahmat Klabulu, Malaimsimsa, Malaingkedi, Kec. Sorong Utara, Kota Sorong, Papua Bar. 98412","Malaimsimsa, Malaingkedi, Kec. Sorong Utara, Kota Sorong",PAPUA BARAT,98412.0,Indonesia,,-0.8873097,131.3012842,https://maps.google.com/?cid=0x0:0x364e52ce8985aa7
mall,Pusat Perbelanjaan,Mal Sorong,"479G+369, Klademak, Distrik Sorong, Kota Sorong, Papua Bar. 98412","Klademak, Distrik Sorong, Kota Sorong",PAPUA BARAT,98412.0,Indonesia,,-0.8823414,131.2755957,https://maps.google.com/?cid=0x0:0x4efad982776d0ca5
mall,Pusat Perbelanjaan,PARAGON SQUARE Mall  Hotel Sorong,"4874+4RH Paragon Square Mall, Jl. Basuki Rahmat Lt. 2, Sawagumu, Kec. Sorong Utara, Kota Sorong, Papua Bar. 98412","Jl. Basuki Rahmat Lt. 2, Sawagumu, Kec. Sorong Utara, Kota Sorong",PAPUA BARAT,98412.0,Indonesia,81247232214.0,-0.8871443,131.3071264,https://maps.google.com/?cid=0x0:0xd02481be48cb6e05
mall,Minimarket,INDOMARET KLAMASEN,"2993+5GH, Klamasen, Distrik Mariat, Kabupaten Sorong, Papua Bar. 98416","Klamasen, Distrik Mariat, Kabupaten Sorong",PAPUA BARAT,98416.0,Indonesia,,-0.9820598,131.3537109,https://maps.google.com/?cid=0x0:0x73fbcb4854378be4
mall,Toko Suvenir,CV FIRA PAPUA (pusat oleh-oleh khas papua),"476P+FGQ, Jl. Selat Sunda, Remu Sel., Kecamatan Sorong Manoi, Kota Sorong, Papua Bar. 98412","Jl. Selat Sunda, Remu Sel., Kecamatan Sorong Manoi, Kota Sorong",PAPUA BARAT,98412.0,Indonesia,81248121759.0,-0.8887871,131.2863746,https://maps.google.com/?cid=0x0:0xc508cf5f2bbc99a5
mall,Pusat Perbelanjaan,Mabello Sorong,"Jl. Cendrawasih No.11, Klawuyuk, Kec. Sorong Utara, Kota Sorong, Papua Bar. 98416","Klawuyuk, Kec. Sorong Utara, Kota Sorong",PAPUA BARAT,98416.0,Indonesia,82292247585.0,-0.8905827,131.3233806,https://maps.google.com/?cid=0x0:0x8b6c1d23b40f32bc
mall,mall,Al Izzah Mart Sorong,"JL. SUNGAI REMU MALANU KELURAHAN KLABULU, DISTRIK MALAIMSIMSA, Kota Sorong, Papua Bar. 98410","DISTRIK MALAIMSIMSA, Kota Sorong",PAPUA BARAT,98410.0,Indonesia,82181209058.0,-0.8796968,131.2984904,https://maps.google.com/?cid=0x0:0x63253d424ea66d63
mall,mall,Paragon Mall Sorong,"Jl. Basuki Rahmat No.KM 9, Sawagumu, Kec. Sorong Utara, Kota Sorong, Papua Bar.","Kota Sorong, Papua Bar.",PAPUA BARAT,,Indonesia,,-0.8865295,131.3075066,https://maps.google.com/?cid=0x0:0xf013685eefc002dc
mall,Minimarket,INDOMARET MALIBELA,"Jl. Malibela No.6, Klawalu, Distrik Sorong Timur, Kota Sorong, Papua Bar. 98416","Klawalu, Distrik Sorong Timur, Kota Sorong",PAPUA BARAT,98416.0,Indonesia,,-0.9000617,131.3192616,https://maps.google.com/?cid=0x0:0xd1dc1b8b0d2e3d3d
mall,Pusat Perbelanjaan,Saga Aimas,"28VG+26V, Jl. Nangka, Malawili, Kec. Aimas, Kabupaten Sorong, Papua Bar. 98414","Jl. Nangka, Malawili, Kec. Aimas, Kabupaten Sorong",PAPUA BARAT,98414.0,Indonesia,81351816880.0,-0.9574598,131.3257559,https://maps.google.com/?cid=0x0:0x2ba45ddc0e9b2391
mall,mall,AGES CABANG HARAPAN INDAH,"483F+PP3, Jl. Kamboja 4, Klawuyuk, Distrik Sorong Timur, Kota Sorong, Papua Bar. 98416","Jl. Kamboja 4, Klawuyuk, Distrik Sorong Timur, Kota Sorong",PAPUA BARAT,98416.0,Indonesia,,-0.8957385,131.3242928,https://maps.google.com/?cid=0x0:0x4c200d6c20b2dc4b
mall,Toko Makanan,Sahabat Home's,"482G+8MV, Klawuyuk, Distrik Sorong Timur, Kota Sorong, Papua Bar. 98416","Klawuyuk, Distrik Sorong Timur, Kota Sorong",PAPUA BARAT,98416.0,Indonesia,,-0.8991334,131.3266611,https://maps.google.com/?cid=0x0:0xfa4fdbafa7a9d0bc
mall,Toko,Keripik Karmila Oleh2 Sorong,"Jl. Dorowati, Klasaman, Distrik Sorong Timur, Kota Sorong, Papua Bar. 98416","Klasaman, Distrik Sorong Timur, Kota Sorong",PAPUA BARAT,98416.0,Indonesia,82197931704.0,-0.9004869,131.3288867,https://maps.google.com/?cid=0x0:0xeab296915f1e3185
mall,mall,Kec. Makbon,"Kabupaten Sorong, Papua Bar.","Kabupaten Sorong, Papua Bar.",PAPUA BARAT,,Indonesia,,-0.7584809,131.586328,https://maps.google.com/?cid=0x0:0x4d3844fe7f245ffc
mall,Pusat Perbelanjaan,Mega Mall Sorong,"Jalan Basuki Rahmat Klabulu, Malaimsimsa, Malaingkedi, Kec. Sorong Utara, Kota Sorong, Papua Bar. 98412","Malaimsimsa, Malaingkedi, Kec. Sorong Utara, Kota Sorong",PAPUA BARAT,98412.0,Indonesia,,-0.8873097,131.3012842,https://maps.google.com/?cid=0x0:0x364e52ce8985aa7
mall,Pusat Perbelanjaan,Mal Sorong,"479G+369, Klademak, Distrik Sorong, Kota Sorong, Papua Bar. 98412","Klademak, Distrik Sorong, Kota Sorong",PAPUA BARAT,98412.0,Indonesia,,-0.8823414,131.2755957,https://maps.google.com/?cid=0x0:0x4efad982776d0ca5
mall,Pusat Perbelanjaan,RAMAYANA Mall Sorong,"Jl. Wahid Hasyim 220 A-B, Jakarta, Papua Bar. 10250",Jakarta,PAPUA BARAT,10250.0,Indonesia,951332505.0,-0.8820615,131.2755023,https://maps.google.com/?cid=0x0:0x595b97e0cac05b45
mall,Pusat Perbelanjaan,PARAGON SQUARE Mall  Hotel Sorong,"4874+4RH Paragon Square Mall, Jl. Basuki Rahmat Lt. 2, Sawagumu, Kec. Sorong Utara, Kota Sorong, Papua Bar. 98412","Jl. Basuki Rahmat Lt. 2, Sawagumu, Kec. Sorong Utara, Kota Sorong",PAPUA BARAT,98412.0,Indonesia,81247232214.0,-0.8871443,131.3071264,https://maps.google.com/?cid=0x0:0xd02481be48cb6e05
mall,Pusat Perbelanjaan,Manokwari City Mall (MCM),"Jl. Yos Sudarso Manokwari, Manokwari Bar., Kec. Manokwari Bar., Kabupaten Manokwari, Papua Bar. 98312","Manokwari Bar., Kec. Manokwari Bar., Kabupaten Manokwari",PAPUA BARAT,98312.0,Indonesia,8114918899.0,-0.85693,134.0678051,https://maps.google.com/?cid=0x0:0x7e7b90df1d787501
mall,Minimarket,INDOMARET MALIBELA,"Jl. Malibela No.6, Klawalu, Distrik Sorong Timur, Kota Sorong, Papua Bar. 98416","Klawalu, Distrik Sorong Timur, Kota Sorong",PAPUA BARAT,98416.0,Indonesia,,-0.9000617,131.3192616,https://maps.google.com/?cid=0x0:0xd1dc1b8b0d2e3d3d
mall,mall,Paragon Mall Sorong,"Jl. Basuki Rahmat No.KM 9, Sawagumu, Kec. Sorong Utara, Kota Sorong, Papua Bar.","Kota Sorong, Papua Bar.",PAPUA BARAT,,Indonesia,,-0.8865295,131.3075066,https://maps.google.com/?cid=0x0:0xf013685eefc002dc
mall,Perusahaan Konstruksi,MALL SORONG MODERN CITY,"46HV+8RX, Jl. Yos. Sudarso, Kp. Baru, Distrik Sorong, Kota Sorong, Papua Bar. 98411","Jl. Yos. Sudarso, Kp. Baru, Distrik Sorong, Kota Sorong",PAPUA BARAT,98411.0,Indonesia,,-0.8716413,131.2446118,https://maps.google.com/?cid=0x0:0x40151c61e7d35d7a
mall,Pusat Perbelanjaan,Gema outlet,"482H+7MW, Klasaman, Distrik Sorong Timur, Kota Sorong, Papua Bar. 98416","Klasaman, Distrik Sorong Timur, Kota Sorong",PAPUA BARAT,98416.0,Indonesia,85244398702.0,-0.8992675,131.3291935,https://maps.google.com/?cid=0x0:0xf0698f80aae7cf05
mall,Komplek perumahan,Makbon,"484P+F3R, Giwu, Distrik Sorong Timur, Kota Sorong, Papua Bar. 98416","Giwu, Distrik Sorong Timur, Kota Sorong",PAPUA BARAT,98416.0,Indonesia,,-0.8937635,131.3351355,https://maps.google.com/?cid=0x0:0x2a9a766a870af119
mall,Pusat Perbelanjaan,Saga Aimas,"28VG+26V, Jl. Nangka, Malawili, Kec. Aimas, Kabupaten Sorong, Papua Bar. 98414","Jl. Nangka, Malawili, Kec. Aimas, Kabupaten Sorong",PAPUA BARAT,98414.0,Indonesia,81351816880.0,-0.9574598,131.3257559,https://maps.google.com/?cid=0x0:0x2ba45ddc0e9b2391
mall,Minimarket,INDOMARET KLAMASEN,"2993+5GH, Klamasen, Distrik Mariat, Kabupaten Sorong, Papua Bar. 98416","Klamasen, Distrik Mariat, Kabupaten Sorong",PAPUA BARAT,98416.0,Indonesia,,-0.9820598,131.3537109,https://maps.google.com/?cid=0x0:0x73fbcb4854378be4
mall,Grosir,AZKO PARAGON SORONG,"4874+GWG, Jl. Basuki Rahmat, Sawagumu, Kec. Sorong Utara, Kota Sorong, Papua Bar.","Kota Sorong, Papua Bar.",PAPUA BARAT,,Indonesia,,-0.886185,131.3073385,https://maps.google.com/?cid=0x0:0x34d596cc826d6f95
mall,mall,Papua Bar. 98457,"Kabupaten Sorong, Papua Bar.","Kabupaten Sorong, Papua Bar.",PAPUA BARAT,,Indonesia,,-1.0666951,131.5012792,https://maps.google.com/?cid=0x0:0x60164e450d5e6bd7
mall,Pusat Perbelanjaan,Mega Mall Sorong,"Jalan Basuki Rahmat Klabulu, Malaimsimsa, Malaingkedi, Kec. Sorong Utara, Kota Sorong, Papua Bar. 98412","Malaimsimsa, Malaingkedi, Kec. Sorong Utara, Kota Sorong",PAPUA BARAT,98412.0,Indonesia,,-0.8873097,131.3012842,https://maps.google.com/?cid=0x0:0x364e52ce8985aa7
mall,Pusat Perbelanjaan,Mal Sorong,"479G+369, Klademak, Distrik Sorong, Kota Sorong, Papua Bar. 98412","Klademak, Distrik Sorong, Kota Sorong",PAPUA BARAT,98412.0,Indonesia,,-0.8823414,131.2755957,https://maps.google.com/?cid=0x0:0x4efad982776d0ca5
mall,Pembangunan Perumahan,INDOMARET MARIYAI,"X8R9+WJM, Jl. Flamboyan, Klasuluk, Distrik Mariat, Kabupaten Sorong, Papua Bar. 98415","Jl. Flamboyan, Klasuluk, Distrik Mariat, Kabupaten Sorong",PAPUA BARAT,98415.0,Indonesia,,-1.0076162,131.3190203,https://maps.google.com/?cid=0x0:0x12b64cb10b52e
mall,Minimarket,SAGA Supermarket  Dept. Store,"Jalan A. Yani, Ruko Kuda Laut, Klademak, Kecamatan Sorong Manoi, Kota Sorong, Papua Bar. 98414","Ruko Kuda Laut, Klademak, Kecamatan Sorong Manoi, Kota Sorong",PAPUA BARAT,98414.0,Indonesia,951322784.0,-0.8765248,131.2576755,https://maps.google.com/?cid=0x0:0x963043ed646a7e1e
mall,Perusahaan Konstruksi,MALL SORONG MODERN CITY,"46HV+8RX, Jl. Yos. Sudarso, Kp. Baru, Distrik Sorong, Kota Sorong, Papua Bar. 98411","Jl. Yos. Sudarso, Kp. Baru, Distrik Sorong, Kota Sorong",PAPUA BARAT,98411.0,Indonesia,,-0.8716413,131.2446118,https://maps.google.com/?cid=0x0:0x40151c61e7d35d7a
mall,Pusat Perbelanjaan,Saga Aimas,"28VG+26V, Jl. Nangka, Malawili, Kec. Aimas, Kabupaten Sorong, Papua Bar. 98414","Jl. Nangka, Malawili, Kec. Aimas, Kabupaten Sorong",PAPUA BARAT,98414.0,Indonesia,81351816880.0,-0.9574598,131.3257559,https://maps.google.com/?cid=0x0:0x2ba45ddc0e9b2391
mall,Pusat Perbelanjaan,PARAGON SQUARE Mall  Hotel Sorong,"4874+4RH Paragon Square Mall, Jl. Basuki Rahmat Lt. 2, Sawagumu, Kec. Sorong Utara, Kota Sorong, Papua Bar. 98412","Jl. Basuki Rahmat Lt. 2, Sawagumu, Kec. Sorong Utara, Kota Sorong",PAPUA BARAT,98412.0,Indonesia,81247232214.0,-0.8871443,131.3071264,https://maps.google.com/?cid=0x0:0xd02481be48cb6e05
mall,Indonesia,Kios Cepu,"Jl. Tutwuri, Klamono, Distrik Klamono, Kabupaten Sorong, Papua Bar. 98457","Klamono, Distrik Klamono, Kabupaten Sorong",PAPUA BARAT,98457.0,Indonesia,81390643693.0,-1.1258374,131.4867773,https://maps.google.com/?cid=0x0:0x31a8119c936f96e2
mall,mall,Distrik Mariat,"Kabupaten Sorong, Papua Bar.","Kabupaten Sorong, Papua Bar.",PAPUA BARAT,,Indonesia,,-1.0079286,131.3188684,https://maps.google.com/?cid=0x0:0x588eba5d297efc78
mall,Pusat Perbelanjaan,Somay D'ajeng,"X8P9+8HQ, Mariyai, Distrik Mariat, Kabupaten Sorong, Papua Bar. 98415","Mariyai, Distrik Mariat, Kabupaten Sorong",PAPUA BARAT,98415.0,Indonesia,85254107690.0,-1.0141511,131.3189724,https://maps.google.com/?cid=0x0:0xc49948bc28a86515
mall,mall,Kios Lia,"VFGP+6WQ, Jl. Tutwuri, Klamono, Distrik Klamono, Kabupaten Sorong, Papua Bar. 98457","Jl. Tutwuri, Klamono, Distrik Klamono, Kabupaten Sorong",PAPUA BARAT,98457.0,Indonesia,,-1.1244153,131.4873715,https://maps.google.com/?cid=0x0:0x3b4b1f16a9ce7d93
mall,mall,PT. Mariat Utama,"4875+G6X, Sawagumu, Kec. Sorong Utara, Kota Sorong, Papua Bar. 98412","Sawagumu, Kec. Sorong Utara, Kota Sorong",PAPUA BARAT,98412.0,Indonesia,,-0.886138,131.3081026,https://maps.google.com/?cid=0x0:0x633f3bd9923f1b30
mall,mall,Papua Bar. 98472,"Kabupaten Sorong, Papua Bar.","Kabupaten Sorong, Papua Bar.",PAPUA BARAT,,Indonesia,,-0.8437569,131.9989718,https://maps.google.com/?cid=0x0:0x94d7894d7b2d29e5
mall,Pusat Perbelanjaan,Manokwari City Mall (MCM),"Jl. Yos Sudarso Manokwari, Manokwari Bar., Kec. Manokwari Bar., Kabupaten Manokwari, Papua Bar. 98312","Manokwari Bar., Kec. Manokwari Bar., Kabupaten Manokwari",PAPUA BARAT,98312.0,Indonesia,8114918899.0,-0.85693,134.0678051,https://maps.google.com/?cid=0x0:0x7e7b90df1d787501
mall,Pusat Perbelanjaan,Mega Mall Sorong,"Jalan Basuki Rahmat Klabulu, Malaimsimsa, Malaingkedi, Kec. Sorong Utara, Kota Sorong, Papua Bar. 98412","Malaimsimsa, Malaingkedi, Kec. Sorong Utara, Kota Sorong",PAPUA BARAT,98412.0,Indonesia,,-0.8873097,131.3012842,https://maps.google.com/?cid=0x0:0x364e52ce8985aa7
mall,Pusat Perbelanjaan,Belakang Manokwari city mall,"43W7+F3H, Manokwari Bar., Kec. Manokwari Bar., Kabupaten Manokwari, Papua Bar. 98312","Manokwari Bar., Kec. Manokwari Bar., Kabupaten Manokwari",PAPUA BARAT,98312.0,Indonesia,,-0.8538079,134.0627452,https://maps.google.com/?cid=0x0:0x59f633fd28048da4
mall,Komplek perumahan,Fanindi Pantai,"43R9+J9P Bar, Padarni, Kec. Manokwari Bar., Kabupaten Manokwari, Papua Bar. 98312","Padarni, Kec. Manokwari Bar., Kabupaten Manokwari",PAPUA BARAT,98312.0,Indonesia,81344477231.0,-0.8584193,134.0684588,https://maps.google.com/?cid=0x0:0xfea55ca67440bcde
mall,Jepang,Ichiban Sushi Manokwari City Mall,"Jl. Yos Sudarso, Manokwari Bar., Kec. Manokwari Bar., Kabupaten Manokwari, Papua Bar. 98312","Manokwari Bar., Kec. Manokwari Bar., Kabupaten Manokwari",PAPUA BARAT,98312.0,Indonesia,,-0.85696,134.0676162,https://maps.google.com/?cid=0x0:0x345744965a30969a
mall,mall,Maudus,"Kabupaten Sorong, Papua Bar.","Kabupaten Sorong, Papua Bar.",PAPUA BARAT,,Indonesia,,-0.9288794,132.0385904,https://maps.google.com/?cid=0x0:0x86384905870597be
mall,mall,Mayamuk,"Kabupaten Sorong, Papua Bar.","Kabupaten Sorong, Papua Bar.",PAPUA BARAT,,Indonesia,,-1.0590548,131.2851406,https://maps.google.com/?cid=0x0:0x18c5e8368d4ad732
mall,Toko,Toserba Nurul,"Makbalim, Mayamuk, Kabupaten Sorong, Papua Bar. 98451","Mayamuk, Kabupaten Sorong",PAPUA BARAT,98451.0,Indonesia,,-1.0642917,131.2852025,https://maps.google.com/?cid=0x0:0xc6bbf8fbc4a7c86b
mall,Pusat Perbelanjaan,Pasar Tradisional (KUD) Makbalim,"W7MP+QC7, Makbalim, Mayamuk, Kabupaten Sorong, Papua Bar. 98451","Makbalim, Mayamuk, Kabupaten Sorong",PAPUA BARAT,98451.0,Indonesia,82197913347.0,-1.0655805,131.2860337,https://maps.google.com/?cid=0x0:0x98e970dad5efcfc
mall,Pusat Perbelanjaan,Mega Mall Sorong,"Jalan Basuki Rahmat Klabulu, Malaimsimsa, Malaingkedi, Kec. Sorong Utara, Kota Sorong, Papua Bar. 98412","Malaimsimsa, Malaingkedi, Kec. Sorong Utara, Kota Sorong",PAPUA BARAT,98412.0,Indonesia,,-0.8873097,131.3012842,https://maps.google.com/?cid=0x0:0x364e52ce8985aa7
mall,Pusat Perbelanjaan,Bandar Somai Dan Terapi,"X6GV+63R, Unnamed Road, Arar, Mayamuk, Kabupaten Sorong, Papua Bar. 98451","Unnamed Road, Arar, Mayamuk, Kabupaten Sorong",PAPUA BARAT,98451.0,Indonesia,81343322336.0,-1.024384,131.2426506,https://maps.google.com/?cid=0x0:0x9059006f5df8765d
mall,Pusat Perbelanjaan,RAMAYANA Mall Sorong,"Jl. Wahid Hasyim 220 A-B, Jakarta, Papua Bar. 10250",Jakarta,PAPUA BARAT,10250.0,Indonesia,951332505.0,-0.8820615,131.2755023,https://maps.google.com/?cid=0x0:0x595b97e0cac05b45
mall,Pusat Perbelanjaan,Mal Sorong,"479G+369, Klademak, Distrik Sorong, Kota Sorong, Papua Bar. 98412","Klademak, Distrik Sorong, Kota Sorong",PAPUA BARAT,98412.0,Indonesia,,-0.8823414,131.2755957,https://maps.google.com/?cid=0x0:0x4efad982776d0ca5
mall,Minimarket,INDOMARET MAJARAN,"V7HP+MP7, Jln Nusantara, RT.002/RW001, Majaran, Salawati, Sorong Regency, West Papua 98451","Jln Nusantara, RT.002/RW001, Majaran, Salawati, Sorong Regency",PAPUA BARAT,98451.0,Indonesia,,-1.1208344,131.286793,https://maps.google.com/?cid=0x0:0x24ab8e34f203468e
mall,Toko bahan makanan,kios NUSANTARA,"V7MP+MFX, Jl. Nusantara, Majaran, Kec. Salawati, Kabupaten Sorong, Papua Bar. 98451","Jl. Nusantara, Majaran, Kec. Salawati, Kabupaten Sorong",PAPUA BARAT,98451.0,Indonesia,81281560961.0,-1.1157581,131.2862244,https://maps.google.com/?cid=0x0:0xba34bcb03394ac40
mall,Dealer pesawat udara,Ababil Travel And Tour,"W7MM+9H5, Jl. Sindoro, Makbalim, Mayamuk, Kabupaten Sorong, Papua Bar. 98451","Jl. Sindoro, Makbalim, Mayamuk, Kabupaten Sorong",PAPUA BARAT,98451.0,Indonesia,,-1.0666205,131.2839705,https://maps.google.com/?cid=0x0:0x1ee2ae598bf325a2
mall,Pusat Perbelanjaan,Somay D'ajeng,"X8P9+8HQ, Mariyai, Distrik Mariat, Kabupaten Sorong, Papua Bar. 98415","Mariyai, Distrik Mariat, Kabupaten Sorong",PAPUA BARAT,98415.0,Indonesia,85254107690.0,-1.0141511,131.3189724,https://maps.google.com/?cid=0x0:0xc49948bc28a86515
mall,Toko Ikan,Wijaya budidaya,"X8J9+WRR, Mariyai, Distrik Mariat, Kabupaten Sorong, Papua Bar. 98415","Mariyai, Distrik Mariat, Kabupaten Sorong",PAPUA BARAT,98415.0,Indonesia,,-1.0176331,131.3195166,https://maps.google.com/?cid=0x0:0xda419fb00d7b0b9b
mall,Pembangunan Perumahan,INDOMARET MARIYAI,"X8R9+WJM, Jl. Flamboyan, Klasuluk, Distrik Mariat, Kabupaten Sorong, Papua Bar. 98415","Jl. Flamboyan, Klasuluk, Distrik Mariat, Kabupaten Sorong",PAPUA BARAT,98415.0,Indonesia,,-1.0076162,131.3190203,https://maps.google.com/?cid=0x0:0x12b64cb10b52e
mall,Pusat Perbelanjaan,Somai mas Jawa( bandar somai),"Mariat, Arar, Kec. Aimas, Papua Bar. 98445","Arar, Kec. Aimas",PAPUA BARAT,98445.0,Indonesia,81211002877.0,-1.0390574,131.2526841,https://maps.google.com/?cid=0x0:0xf4595d655f60a067
mall,mall,Papua Bar. 98451,"Kabupaten Sorong, Papua Bar.","Kabupaten Sorong, Papua Bar.",PAPUA BARAT,,Indonesia,,-1.1998275,131.3611121,https://maps.google.com/?cid=0x0:0x9f6340793bb8183
mall,Pusat Perbelanjaan,Mega Mall Sorong,"Jalan Basuki Rahmat Klabulu, Malaimsimsa, Malaingkedi, Kec. Sorong Utara, Kota Sorong, Papua Bar. 98412","Malaimsimsa, Malaingkedi, Kec. Sorong Utara, Kota Sorong",PAPUA BARAT,98412.0,Indonesia,,-0.8873097,131.3012842,https://maps.google.com/?cid=0x0:0x364e52ce8985aa7
mall,Toko,Toserba Nurul,"Makbalim, Mayamuk, Kabupaten Sorong, Papua Bar. 98451","Mayamuk, Kabupaten Sorong",PAPUA BARAT,98451.0,Indonesia,,-1.0642917,131.2852025,https://maps.google.com/?cid=0x0:0xc6bbf8fbc4a7c86b
mall,Toko bahan makanan,kios NUSANTARA,"V7MP+MFX, Jl. Nusantara, Majaran, Kec. Salawati, Kabupaten Sorong, Papua Bar. 98451","Jl. Nusantara, Majaran, Kec. Salawati, Kabupaten Sorong",PAPUA BARAT,98451.0,Indonesia,81281560961.0,-1.1157581,131.2862244,https://maps.google.com/?cid=0x0:0xba34bcb03394ac40
mall,Pusat Perbelanjaan,Pasar Tradisional (KUD) Makbalim,"W7MP+QC7, Makbalim, Mayamuk, Kabupaten Sorong, Papua Bar. 98451","Makbalim, Mayamuk, Kabupaten Sorong",PAPUA BARAT,98451.0,Indonesia,82197913347.0,-1.0655805,131.2860337,https://maps.google.com/?cid=0x0:0x98e970dad5efcfc
mall,Pusat Perbelanjaan,Bandar Somai Dan Terapi,"X6GV+63R, Unnamed Road, Arar, Mayamuk, Kabupaten Sorong, Papua Bar. 98451","Unnamed Road, Arar, Mayamuk, Kabupaten Sorong",PAPUA BARAT,98451.0,Indonesia,81343322336.0,-1.024384,131.2426506,https://maps.google.com/?cid=0x0:0x9059006f5df8765d
mall,Minimarket,Kios Ismi,"Jl. Gunung Krakatau, Makbalim, Mayamuk, Kabupaten Sorong, Papua Bar. 98451","Makbalim, Mayamuk, Kabupaten Sorong",PAPUA BARAT,98451.0,Indonesia,85254797234.0,-1.070044,131.281948,https://maps.google.com/?cid=0x0:0x82fc35d562fbfc6d
mall,,INDOMARET POROS MAJENER,"R7R7+HQG, Majener, Kec. Salawati, Kabupaten Sorong, Papua Bar. 98451","Majener, Kec. Salawati, Kabupaten Sorong",PAPUA BARAT,98451.0,Indonesia,,-1.1585503,131.2644679,https://maps.google.com/?cid=0x0:0xac21c2f51f68eb4f
mall,Pusat Perbelanjaan,Navy Mart,"V778+377, Jl. Poros katapop, Majener, Kec. Salawati, Kabupaten Sorong, Papua Bar.","Kabupaten Sorong, Papua Bar.",PAPUA BARAT,,Indonesia,,-1.1373402,131.2656573,https://maps.google.com/?cid=0x0:0x8b377a413503c6d4
mall,Pusat Perbelanjaan,Mal Sorong,"479G+369, Klademak, Distrik Sorong, Kota Sorong, Papua Bar. 98412","Klademak, Distrik Sorong, Kota Sorong",PAPUA BARAT,98412.0,Indonesia,,-0.8823414,131.2755957,https://maps.google.com/?cid=0x0:0x4efad982776d0ca5
mall,Pusat Perbelanjaan,Somay D'ajeng,"X8P9+8HQ, Mariyai, Distrik Mariat, Kabupaten Sorong, Papua Bar. 98415","Mariyai, Distrik Mariat, Kabupaten Sorong",PAPUA BARAT,98415.0,Indonesia,85254107690.0,-1.0141511,131.3189724,https://maps.google.com/?cid=0x0:0xc49948bc28a86515
mall,Bengkel Motor Skuter,Bengkel Putra Jaya,"V7FF+PV7, Majaran, Kec. Salawati, Kabupaten Sorong, Papua Bar. 98451","Majaran, Kec. Salawati, Kabupaten Sorong",PAPUA BARAT,98451.0,Indonesia,85244346699.0,-1.1257234,131.2746638,https://maps.google.com/?cid=0x0:0xdcc087ad2bc25eb0
mall,,Jastip Pesawat,"R7R8+68R, Jl. Nusantara Katapop II, Majaran, Kec. Salawati, Kabupaten Sorong, Papua Bar.","Kabupaten Sorong, Papua Bar.",PAPUA BARAT,,Indonesia,81248669576.0,-1.1593902,131.2657545,https://maps.google.com/?cid=0x0:0x1c1b9de53135d5c3
mall,Pusat Perbelanjaan,Saga Aimas,"28VG+26V, Jl. Nangka, Malawili, Kec. Aimas, Kabupaten Sorong, Papua Bar. 98414","Jl. Nangka, Malawili, Kec. Aimas, Kabupaten Sorong",PAPUA BARAT,98414.0,Indonesia,81351816880.0,-0.9574598,131.3257559,https://maps.google.com/?cid=0x0:0x2ba45ddc0e9b2391
mall,mall,Kec. Salawati,"Kabupaten Sorong, Papua Bar.","Kabupaten Sorong, Papua Bar.",PAPUA BARAT,,Indonesia,,-1.1878386,131.2481347,https://maps.google.com/?cid=0x0:0x2da3ce5cc71682ef
mall,Toko bahan makanan,kios NUSANTARA,"V7MP+MFX, Jl. Nusantara, Majaran, Kec. Salawati, Kabupaten Sorong, Papua Bar. 98451","Jl. Nusantara, Majaran, Kec. Salawati, Kabupaten Sorong",PAPUA BARAT,98451.0,Indonesia,81281560961.0,-1.1157581,131.2862244,https://maps.google.com/?cid=0x0:0xba34bcb03394ac40
mall,Minimarket,INDOMARET MAJARAN,"V7HP+MP7, Jln Nusantara, RT.002/RW001, Majaran, Salawati, Sorong Regency, West Papua 98451","Jln Nusantara, RT.002/RW001, Majaran, Salawati, Sorong Regency",PAPUA BARAT,98451.0,Indonesia,,-1.1208344,131.286793,https://maps.google.com/?cid=0x0:0x24ab8e34f203468e
mall,Pusat Perbelanjaan,Navy Mart,"V778+377, Jl. Poros katapop, Majener, Kec. Salawati, Kabupaten Sorong, Papua Bar.","Kabupaten Sorong, Papua Bar.",PAPUA BARAT,,Indonesia,,-1.1373402,131.2656573,https://maps.google.com/?cid=0x0:0x8b377a413503c6d4
mall,,INDOMARET POROS MAJENER,"R7R7+HQG, Majener, Kec. Salawati, Kabupaten Sorong, Papua Bar. 98451","Majener, Kec. Salawati, Kabupaten Sorong",PAPUA BARAT,98451.0,Indonesia,,-1.1585503,131.2644679,https://maps.google.com/?cid=0x0:0xac21c2f51f68eb4f
mall,Bengkel Motor Skuter,Bengkel Putra Jaya,"V7FF+PV7, Majaran, Kec. Salawati, Kabupaten Sorong, Papua Bar. 98451","Majaran, Kec. Salawati, Kabupaten Sorong",PAPUA BARAT,98451.0,Indonesia,85244346699.0,-1.1257234,131.2746638,https://maps.google.com/?cid=0x0:0xdcc087ad2bc25eb0
mall,Toko,Toserba Nurul,"Makbalim, Mayamuk, Kabupaten Sorong, Papua Bar. 98451","Mayamuk, Kabupaten Sorong",PAPUA BARAT,98451.0,Indonesia,,-1.0642917,131.2852025,https://maps.google.com/?cid=0x0:0xc6bbf8fbc4a7c86b
mall,,Jastip Pesawat,"R7R8+68R, Jl. Nusantara Katapop II, Majaran, Kec. Salawati, Kabupaten Sorong, Papua Bar.","Kabupaten Sorong, Papua Bar.",PAPUA BARAT,,Indonesia,81248669576.0,-1.1593902,131.2657545,https://maps.google.com/?cid=0x0:0x1c1b9de53135d5c3
mall,Pusat Perbelanjaan,Mal Sorong,"479G+369, Klademak, Distrik Sorong, Kota Sorong, Papua Bar. 98412","Klademak, Distrik Sorong, Kota Sorong",PAPUA BARAT,98412.0,Indonesia,,-0.8823414,131.2755957,https://maps.google.com/?cid=0x0:0x4efad982776d0ca5
mall,Pusat Perbelanjaan,RAMAYANA Mall Sorong,"Jl. Wahid Hasyim 220 A-B, Jakarta, Papua Bar. 10250",Jakarta,PAPUA BARAT,10250.0,Indonesia,951332505.0,-0.8820615,131.2755023,https://maps.google.com/?cid=0x0:0x595b97e0cac05b45
mall,Toko Elektronik,Rezqy Cell,"Unnamed Road, Malaus, Kec. Salawati, Kabupaten Sorong, Papua Bar. 98451","Malaus, Kec. Salawati, Kabupaten Sorong",PAPUA BARAT,98451.0,Indonesia,81327445277.0,-1.1578985,131.2942396,https://maps.google.com/?cid=0x0:0x77f9498018496008
mall,Martabak,Martabak cak sol @,"R7R6+8RV, Jl. Pangeran Diponegoro, log, Majener, Kec. Salawati, Kabupaten Sorong, Papua Bar. 98451","Jl. Pangeran Diponegoro, log, Majener, Kec. Salawati, Kabupaten Sorong",PAPUA BARAT,98451.0,Indonesia,82248487707.0,-1.1591382,131.2620388,https://maps.google.com/?cid=0x0:0x28e768e938ae79b
mall,mall,Wafashopping,"R68V+4Q4, Jl. Brawijaya, Matawolot, Kec. Salawati, Kabupaten Sorong, Papua Bar. 98451","Jl. Brawijaya, Matawolot, Kec. Salawati, Kabupaten Sorong",PAPUA BARAT,98451.0,Indonesia,,-1.1847268,131.2444668,https://maps.google.com/?cid=0x0:0xb80b29c3015a536
mall,mall,Wirda Seluler,"V7FJ+P64, Majaran, Kec. Salawati, Kabupaten Sorong, Papua Bar. 98451","Majaran, Kec. Salawati, Kabupaten Sorong",PAPUA BARAT,98451.0,Indonesia,,-1.125728,131.280565,https://maps.google.com/?cid=0x0:0xec22148e557f2006
mall,mall,Kec. Salawati Sel.,"Kabupaten Sorong, Papua Bar.","Kabupaten Sorong, Papua Bar.",PAPUA BARAT,,Indonesia,,-1.2811542,130.8951476,https://maps.google.com/?cid=0x0:0xc4d8ce15c534bd48
mall,Pusat Perbelanjaan,Mega Mall Sorong,"Jalan Basuki Rahmat Klabulu, Malaimsimsa, Malaingkedi, Kec. Sorong Utara, Kota Sorong, Papua Bar. 98412","Malaimsimsa, Malaingkedi, Kec. Sorong Utara, Kota Sorong",PAPUA BARAT,98412.0,Indonesia,,-0.8873097,131.3012842,https://maps.google.com/?cid=0x0:0x364e52ce8985aa7
mall,Pusat Perbelanjaan,RAMAYANA Mall Sorong,"Jl. Wahid Hasyim 220 A-B, Jakarta, Papua Bar. 10250",Jakarta,PAPUA BARAT,10250.0,Indonesia,951332505.0,-0.8820615,131.2755023,https://maps.google.com/?cid=0x0:0x595b97e0cac05b45
mall,,Jastip Pesawat,"R7R8+68R, Jl. Nusantara Katapop II, Majaran, Kec. Salawati, Kabupaten Sorong, Papua Bar.","Kabupaten Sorong, Papua Bar.",PAPUA BARAT,,Indonesia,81248669576.0,-1.1593902,131.2657545,https://maps.google.com/?cid=0x0:0x1c1b9de53135d5c3
mall,mall,Wafashopping,"R68V+4Q4, Jl. Brawijaya, Matawolot, Kec. Salawati, Kabupaten Sorong, Papua Bar. 98451","Jl. Brawijaya, Matawolot, Kec. Salawati, Kabupaten Sorong",PAPUA BARAT,98451.0,Indonesia,,-1.1847268,131.2444668,https://maps.google.com/?cid=0x0:0xb80b29c3015a536
mall,mall,Wirda Seluler,"V7FJ+P64, Majaran, Kec. Salawati, Kabupaten Sorong, Papua Bar. 98451","Majaran, Kec. Salawati, Kabupaten Sorong",PAPUA BARAT,98451.0,Indonesia,,-1.125728,131.280565,https://maps.google.com/?cid=0x0:0xec22148e557f2006
mall,Pusat Perbelanjaan,PARAGON SQUARE Mall  Hotel Sorong,"4874+4RH Paragon Square Mall, Jl. Basuki Rahmat Lt. 2, Sawagumu, Kec. Sorong Utara, Kota Sorong, Papua Bar. 98412","Jl. Basuki Rahmat Lt. 2, Sawagumu, Kec. Sorong Utara, Kota Sorong",PAPUA BARAT,98412.0,Indonesia,81247232214.0,-0.8871443,131.3071264,https://maps.google.com/?cid=0x0:0xd02481be48cb6e05
mall,Perusahaan Konstruksi,MALL SORONG MODERN CITY,"46HV+8RX, Jl. Yos. Sudarso, Kp. Baru, Distrik Sorong, Kota Sorong, Papua Bar. 98411","Jl. Yos. Sudarso, Kp. Baru, Distrik Sorong, Kota Sorong",PAPUA BARAT,98411.0,Indonesia,,-0.8716413,131.2446118,https://maps.google.com/?cid=0x0:0x40151c61e7d35d7a
mall,Pusat Perbelanjaan,Manokwari City Mall (MCM),"Jl. Yos Sudarso Manokwari, Manokwari Bar., Kec. Manokwari Bar., Kabupaten Manokwari, Papua Bar. 98312","Manokwari Bar., Kec. Manokwari Bar., Kabupaten Manokwari",PAPUA BARAT,98312.0,Indonesia,8114918899.0,-0.85693,134.0678051,https://maps.google.com/?cid=0x0:0x7e7b90df1d787501
mall,Pusat Perbelanjaan,Mabello Sorong,"Jl. Cendrawasih No.11, Klawuyuk, Kec. Sorong Utara, Kota Sorong, Papua Bar. 98416","Klawuyuk, Kec. Sorong Utara, Kota Sorong",PAPUA BARAT,98416.0,Indonesia,82292247585.0,-0.8905827,131.3233806,https://maps.google.com/?cid=0x0:0x8b6c1d23b40f32bc
mall,Grosir,AZKO PARAGON SORONG,"4874+GWG, Jl. Basuki Rahmat, Sawagumu, Kec. Sorong Utara, Kota Sorong, Papua Bar.","Kota Sorong, Papua Bar.",PAPUA BARAT,,Indonesia,,-0.886185,131.3073385,https://maps.google.com/?cid=0x0:0x34d596cc826d6f95
mall,Toko Elektronik,Rezqy Cell,"Unnamed Road, Malaus, Kec. Salawati, Kabupaten Sorong, Papua Bar. 98451","Malaus, Kec. Salawati, Kabupaten Sorong",PAPUA BARAT,98451.0,Indonesia,81327445277.0,-1.1578985,131.2942396,https://maps.google.com/?cid=0x0:0x77f9498018496008
mall,mall,Salawati Tengah,"Kabupaten Raja Ampat, Papua Bar.","Kabupaten Raja Ampat, Papua Bar.",PAPUA BARAT,,Indonesia,,-1.0547794,131.0589536,https://maps.google.com/?cid=0x0:0x9e15ae7888c4541f
mall,Pusat Perbelanjaan,Mega Mall Sorong,"Jalan Basuki Rahmat Klabulu, Malaimsimsa, Malaingkedi, Kec. Sorong Utara, Kota Sorong, Papua Bar. 98412","Malaimsimsa, Malaingkedi, Kec. Sorong Utara, Kota Sorong",PAPUA BARAT,98412.0,Indonesia,,-0.8873097,131.3012842,https://maps.google.com/?cid=0x0:0x364e52ce8985aa7
mall,Pusat Perbelanjaan,Mal Sorong,"479G+369, Klademak, Distrik Sorong, Kota Sorong, Papua Bar. 98412","Klademak, Distrik Sorong, Kota Sorong",PAPUA BARAT,98412.0,Indonesia,,-0.8823414,131.2755957,https://maps.google.com/?cid=0x0:0x4efad982776d0ca5
mall,mall,Toko haji pasidin,"W3W5+4V8, Waibo, Salawati Tengah, Kabupaten Raja Ampat, Papua Bar. 98484","Waibo, Salawati Tengah, Kabupaten Raja Ampat",PAPUA BARAT,98484.0,Indonesia,,-1.0547141,131.0596898,https://maps.google.com/?cid=0x0:0x258d7a683190150d
mall,Pusat Perbelanjaan,RAMAYANA Mall Sorong,"Jl. Wahid Hasyim 220 A-B, Jakarta, Papua Bar. 10250",Jakarta,PAPUA BARAT,10250.0,Indonesia,951332505.0,-0.8820615,131.2755023,https://maps.google.com/?cid=0x0:0x595b97e0cac05b45
mall,Pusat Perbelanjaan,PARAGON SQUARE Mall  Hotel Sorong,"4874+4RH Paragon Square Mall, Jl. Basuki Rahmat Lt. 2, Sawagumu, Kec. Sorong Utara, Kota Sorong, Papua Bar. 98412","Jl. Basuki Rahmat Lt. 2, Sawagumu, Kec. Sorong Utara, Kota Sorong",PAPUA BARAT,98412.0,Indonesia,81247232214.0,-0.8871443,131.3071264,https://maps.google.com/?cid=0x0:0xd02481be48cb6e05
mall,Perusahaan Konstruksi,MALL SORONG MODERN CITY,"46HV+8RX, Jl. Yos. Sudarso, Kp. Baru, Distrik Sorong, Kota Sorong, Papua Bar. 98411","Jl. Yos. Sudarso, Kp. Baru, Distrik Sorong, Kota Sorong",PAPUA BARAT,98411.0,Indonesia,,-0.8716413,131.2446118,https://maps.google.com/?cid=0x0:0x40151c61e7d35d7a
mall,,Jastip Pesawat,"R7R8+68R, Jl. Nusantara Katapop II, Majaran, Kec. Salawati, Kabupaten Sorong, Papua Bar.","Kabupaten Sorong, Papua Bar.",PAPUA BARAT,,Indonesia,81248669576.0,-1.1593902,131.2657545,https://maps.google.com/?cid=0x0:0x1c1b9de53135d5c3
mall,Minimarket,SAGA Supermarket  Dept. Store,"Jalan A. Yani, Ruko Kuda Laut, Klademak, Kecamatan Sorong Manoi, Kota Sorong, Papua Bar. 98414","Ruko Kuda Laut, Klademak, Kecamatan Sorong Manoi, Kota Sorong",PAPUA BARAT,98414.0,Indonesia,951322784.0,-0.8765248,131.2576755,https://maps.google.com/?cid=0x0:0x963043ed646a7e1e
mall,Pusat Perbelanjaan,Navy Mart,"V778+377, Jl. Poros katapop, Majener, Kec. Salawati, Kabupaten Sorong, Papua Bar.","Kabupaten Sorong, Papua Bar.",PAPUA BARAT,,Indonesia,,-1.1373402,131.2656573,https://maps.google.com/?cid=0x0:0x8b377a413503c6d4
mall,Bengkel Motor Skuter,Bengkel Putra Jaya,"V7FF+PV7, Majaran, Kec. Salawati, Kabupaten Sorong, Papua Bar. 98451","Majaran, Kec. Salawati, Kabupaten Sorong",PAPUA BARAT,98451.0,Indonesia,85244346699.0,-1.1257234,131.2746638,https://maps.google.com/?cid=0x0:0xdcc087ad2bc25eb0
mall,Grosir,AZKO PARAGON SORONG,"4874+GWG, Jl. Basuki Rahmat, Sawagumu, Kec. Sorong Utara, Kota Sorong, Papua Bar.","Kota Sorong, Papua Bar.",PAPUA BARAT,,Indonesia,,-0.886185,131.3073385,https://maps.google.com/?cid=0x0:0x34d596cc826d6f95
mall,Pusat Perbelanjaan,Kawasan SMC (Sorong Modern City),"46HV+6FP Sunset Point Sorong, Dekat, Jl. Yos. Sudarso, Kp. Baru, Distrik Sorong, Kota Sorong, Papua Bar. 98411","Dekat, Jl. Yos. Sudarso, Kp. Baru, Distrik Sorong, Kota Sorong",PAPUA BARAT,98411.0,Indonesia,,-0.8724848,131.2434905,https://maps.google.com/?cid=0x0:0xcd23323a4726adf5
mall,Pusat Perbelanjaan,Manokwari City Mall (MCM),"Jl. Yos Sudarso Manokwari, Manokwari Bar., Kec. Manokwari Bar., Kabupaten Manokwari, Papua Bar. 98312","Manokwari Bar., Kec. Manokwari Bar., Kabupaten Manokwari",PAPUA BARAT,98312.0,Indonesia,8114918899.0,-0.85693,134.0678051,https://maps.google.com/?cid=0x0:0x7e7b90df1d787501
mall,Pusat Perbelanjaan,Grand Indonesia Shopping Town,"Jl. M.H. Thamrin No.1, Menteng, Kec. Menteng, Kota Jakarta Pusat, Daerah Khusus Ibukota Jakarta 10310","Menteng, Kec. Menteng, Kota Jakarta Pusat",PAPUA BARAT,10310.0,Indonesia,2123580001.0,-6.1965848,106.8224882,https://maps.google.com/?cid=0x0:0xccfcc89b95aaf1ae
mall,Pusat Perbelanjaan,Grand Indonesia,"Jl. MH Thamrin No.1, Menteng, Kec. Menteng, Kota Jakarta Pusat, Daerah Khusus Ibukota Jakarta 10310","Menteng, Kec. Menteng, Kota Jakarta Pusat",PAPUA BARAT,10310.0,Indonesia,2123580001.0,-6.1950412,106.8210081,https://maps.google.com/?cid=0x0:0xb04ce66a7cb711d9
mall,Pusat Perbelanjaan,Mega Mall Sorong,"Jalan Basuki Rahmat Klabulu, Malaimsimsa, Malaingkedi, Kec. Sorong Utara, Kota Sorong, Papua Bar. 98412","Malaimsimsa, Malaingkedi, Kec. Sorong Utara, Kota Sorong",PAPUA BARAT,98412.0,Indonesia,,-0.8873097,131.3012842,https://maps.google.com/?cid=0x0:0x364e52ce8985aa7
mall,Makanan Siap Saji,KFC MEGA,"Jalan BASUKI RAHMAT NO. 1 KM. 8.5, Malaingkedi, Kec. Sorong Utara, Kota Sorong, Papua Bar. 98412","Malaingkedi, Kec. Sorong Utara, Kota Sorong",PAPUA BARAT,98412.0,Indonesia,2114022.0,-0.88741,131.3014311,https://maps.google.com/?cid=0x0:0x3b28231f1cfe08ef
mall,mall,Papua Bar. 98471,"Kabupaten Sorong, Papua Bar.","Kabupaten Sorong, Papua Bar.",PAPUA BARAT,,Indonesia,,-0.9628505,131.6809724,https://maps.google.com/?cid=0x0:0xf9eb2cfc3e3195d1
mall,Pusat Perbelanjaan,RAMAYANA Mall Sorong,"Jl. Wahid Hasyim 220 A-B, Jakarta, Papua Bar. 10250",Jakarta,PAPUA BARAT,10250.0,Indonesia,951332505.0,-0.8820615,131.2755023,https://maps.google.com/?cid=0x0:0x595b97e0cac05b45
mall,Pusat Perbelanjaan,Saga Aimas,"28VG+26V, Jl. Nangka, Malawili, Kec. Aimas, Kabupaten Sorong, Papua Bar. 98414","Jl. Nangka, Malawili, Kec. Aimas, Kabupaten Sorong",PAPUA BARAT,98414.0,Indonesia,81351816880.0,-0.9574598,131.3257559,https://maps.google.com/?cid=0x0:0x2ba45ddc0e9b2391
mall,Pusat Perbelanjaan,PARAGON SQUARE Mall  Hotel Sorong,"4874+4RH Paragon Square Mall, Jl. Basuki Rahmat Lt. 2, Sawagumu, Kec. Sorong Utara, Kota Sorong, Papua Bar. 98412","Jl. Basuki Rahmat Lt. 2, Sawagumu, Kec. Sorong Utara, Kota Sorong",PAPUA BARAT,98412.0,Indonesia,81247232214.0,-0.8871443,131.3071264,https://maps.google.com/?cid=0x0:0xd02481be48cb6e05
mall,Pusat Perbelanjaan,Sorong City Square,"4867+3HC, Sawagumu, Kec. Sorong Utara, Kota Sorong, Papua Bar. 98412","Sawagumu, Kec. Sorong Utara, Kota Sorong",PAPUA BARAT,98412.0,Indonesia,,-0.8898196,131.3138844,https://maps.google.com/?cid=0x0:0xad1b87f4a839cdae
mall,Grosir,AZKO PARAGON SORONG,"4874+GWG, Jl. Basuki Rahmat, Sawagumu, Kec. Sorong Utara, Kota Sorong, Papua Bar.","Kota Sorong, Papua Bar.",PAPUA BARAT,,Indonesia,,-0.886185,131.3073385,https://maps.google.com/?cid=0x0:0x34d596cc826d6f95
mall,Pusat Perbelanjaan,Gema outlet,"482H+7MW, Klasaman, Distrik Sorong Timur, Kota Sorong, Papua Bar. 98416","Klasaman, Distrik Sorong Timur, Kota Sorong",PAPUA BARAT,98416.0,Indonesia,85244398702.0,-0.8992675,131.3291935,https://maps.google.com/?cid=0x0:0xf0698f80aae7cf05
mall,Pusat Perbelanjaan,Harco Square Sorong,"4857+XPR, Sawagumu, Kec. Sorong Utara, Kota Sorong, Papua Bar. 98412","Sawagumu, Kec. Sorong Utara, Kota Sorong",PAPUA BARAT,98412.0,Indonesia,,-0.8900075,131.3142639,https://maps.google.com/?cid=0x0:0x78fc85d26a08628a
mall,Pusat Perbelanjaan,kios fira,"Klawuyuk, Distrik Sorong Timur, Kota Sorong, Papua Bar. 98416","Distrik Sorong Timur, Kota Sorong",PAPUA BARAT,98416.0,Indonesia,,-0.8928448,131.3191551,https://maps.google.com/?cid=0x0:0x4007190fa927b085
mall,Minimarket,SAGA Supermarket  Dept. Store,"Jalan A. Yani, Ruko Kuda Laut, Klademak, Kecamatan Sorong Manoi, Kota Sorong, Papua Bar. 98414","Ruko Kuda Laut, Klademak, Kecamatan Sorong Manoi, Kota Sorong",PAPUA BARAT,98414.0,Indonesia,951322784.0,-0.8765248,131.2576755,https://maps.google.com/?cid=0x0:0x963043ed646a7e1e
mall,Pusat Perbelanjaan,Mega Mall Sorong,"Jalan Basuki Rahmat Klabulu, Malaimsimsa, Malaingkedi, Kec. Sorong Utara, Kota Sorong, Papua Bar. 98412","Malaimsimsa, Malaingkedi, Kec. Sorong Utara, Kota Sorong",PAPUA BARAT,98412.0,Indonesia,,-0.8873097,131.3012842,https://maps.google.com/?cid=0x0:0x364e52ce8985aa7
mall,Pusat Perbelanjaan,Mal Sorong,"479G+369, Klademak, Distrik Sorong, Kota Sorong, Papua Bar. 98412","Klademak, Distrik Sorong, Kota Sorong",PAPUA BARAT,98412.0,Indonesia,,-0.8823414,131.2755957,https://maps.google.com/?cid=0x0:0x4efad982776d0ca5
mall,Makanan Siap Saji,KFC MEGA,"Jalan BASUKI RAHMAT NO. 1 KM. 8.5, Malaingkedi, Kec. Sorong Utara, Kota Sorong, Papua Bar. 98412","Malaingkedi, Kec. Sorong Utara, Kota Sorong",PAPUA BARAT,98412.0,Indonesia,2114022.0,-0.88741,131.3014311,https://maps.google.com/?cid=0x0:0x3b28231f1cfe08ef
mall,Pusat Perbelanjaan,Lippo Plaza Kramat Jati,"Jl. Raya Jakarta-Bogor No.Km 19, RT.14/RW.6, Kramat Jati, Kec. Kramat jati, Kota Jakarta Timur, Daerah Khusus Ibukota Jakarta 13510","RT.14/RW.6, Kramat Jati, Kec. Kramat jati, Kota Jakarta Timur",PAPUA BARAT,13510.0,Indonesia,218095558.0,-6.2707526,106.8680692,https://maps.google.com/?cid=0x0:0xc1033b9ac184b5b2
mall,Pusat Perbelanjaan,Mall Senayan City,"Jl. Asia Afrika No.Lot 19, Gelora, Kecamatan Tanah Abang, Kota Jakarta Pusat, Daerah Khusus Ibukota Jakarta 10270","Gelora, Kecamatan Tanah Abang, Kota Jakarta Pusat",PAPUA BARAT,10270.0,Indonesia,2172781000.0,-6.2271953,106.7970117,https://maps.google.com/?cid=0x0:0x300c043104acc004
mall,Pusat Perbelanjaan,Mall Plaza Senayan,"Jl. Asia Afrika No.8, RT.1/RW.3, Gelora, Kecamatan Tanah Abang, Kota Jakarta Pusat, Daerah Khusus Ibukota Jakarta 10270","RT.1/RW.3, Gelora, Kecamatan Tanah Abang, Kota Jakarta Pusat",PAPUA BARAT,10270.0,Indonesia,215725555.0,-6.2254775,106.7992649,https://maps.google.com/?cid=0x0:0x788e3a1eef75ac94
mall,Pusat Perbelanjaan,Mall Pesona Square,"Jl. Ir. H. Juanda No.22a, Bakti Jaya, Kec. Sukmajaya, Kota Depok, Jawa Barat 16418","Bakti Jaya, Kec. Sukmajaya, Kota Depok",PAPUA BARAT,16418.0,Indonesia,,-6.3804838,106.8439769,https://maps.google.com/?cid=0x0:0x1b0766ee6d95d49e
mall,Restoran,MEGA BEKASI HYPERMALL,"Jl. Ahmad Yani No.1, RT.004/RW.001, Marga Jaya, Kec. Bekasi Sel., Kota Bks, Jawa Barat 17141","RT.004/RW.001, Marga Jaya, Kec. Bekasi Sel., Kota Bks",PAPUA BARAT,17141.0,Indonesia,,-6.2494935,106.9931124,https://maps.google.com/?cid=0x0:0xf8dd1536debbcbd1
mall,Pusat Perbelanjaan,Pondok Indah Mall 1,"Jl. Metro Pondok Indah No.Kav. 4, RT.1/RW.16, Pd. Pinang, Kec. Kby. Lama, Kota Jakarta Selatan, Daerah Khusus Ibukota Jakarta 12310","RT.1/RW.16, Pd. Pinang, Kec. Kby. Lama, Kota Jakarta Selatan",PAPUA BARAT,12310.0,Indonesia,217506750.0,-6.2652166,106.7843165,https://maps.google.com/?cid=0x0:0x682837113c4ea854
mall,Pusat Perbelanjaan,Summarecon Mall Bekasi,"Sentra Summarecon Bekasi, Jl. Boulevard Ahmad Yani, Marga Mulya, Kec. Bekasi Utara, Kota Bks, Jawa Barat 17142","Jl. Boulevard Ahmad Yani, Marga Mulya, Kec. Bekasi Utara, Kota Bks",PAPUA BARAT,17142.0,Indonesia,2129572888.0,-6.2261276,107.0010764,https://maps.google.com/?cid=0x0:0xd22a5d56809f070a
mall,Pusat Perbelanjaan,Plaza Indonesia,"Jl. M.H. Thamrin No.Kav.28-30, Gondangdia, Kec. Menteng, Kota Jakarta Pusat, Daerah Khusus Ibukota Jakarta 10350","Gondangdia, Kec. Menteng, Kota Jakarta Pusat",PAPUA BARAT,10350.0,Indonesia,2129920000.0,-6.1935977,106.8219468,https://maps.google.com/?cid=0x0:0x7d7fe17ad64a053f
mall,Toko Swalayan,Living World Kota Wisata,"Jl. Boulevard Kota Wisata, Ciangsana, Kec. Gn. Putri, Kabupaten Bogor, Jawa Barat 16968","Ciangsana, Kec. Gn. Putri, Kabupaten Bogor",PAPUA BARAT,16968.0,Indonesia,2150323789.0,-6.3686018,106.9598329,https://maps.google.com/?cid=0x0:0x1bb5c5f879fd2797
mall,Pusat Perbelanjaan,Cilandak Town Square,"Jl. TB Simatupang No.17, RT.6/RW.9, Cilandak Bar., Kec. Cilandak, Kota Jakarta Selatan, Daerah Khusus Ibukota Jakarta 12430","RT.6/RW.9, Cilandak Bar., Kec. Cilandak, Kota Jakarta Selatan",PAPUA BARAT,12430.0,Indonesia,2175920222.0,-6.2917522,106.7998502,https://maps.google.com/?cid=0x0:0x6917ab780cd8dff6
mall,Toko Swalayan,AEON Mall Deltamas - Cikarang Bekasi,"Jl. Ganesha Boulevard, Kota Deltamas, Kec. Cikarang Pusat, Kabupaten Bekasi, Jawa Barat 17530","Kota Deltamas, Kec. Cikarang Pusat, Kabupaten Bekasi",PAPUA BARAT,17530.0,Indonesia,2138733333.0,-6.3519407,107.1954494,https://maps.google.com/?cid=0x0:0xa692ce22e7339115
mall,mall,Papua Bar. 98452,"Kabupaten Sorong, Papua Bar.","Kabupaten Sorong, Papua Bar.",PAPUA BARAT,,Indonesia,,-1.3516263,131.0797172,https://maps.google.com/?cid=0x0:0x12aa97ea8dec5973
mall,Pusat Perbelanjaan,Mega Mall Sorong,"Jalan Basuki Rahmat Klabulu, Malaimsimsa, Malaingkedi, Kec. Sorong Utara, Kota Sorong, Papua Bar. 98412","Malaimsimsa, Malaingkedi, Kec. Sorong Utara, Kota Sorong",PAPUA BARAT,98412.0,Indonesia,,-0.8873097,131.3012842,https://maps.google.com/?cid=0x0:0x364e52ce8985aa7
mall,Pusat Perbelanjaan,Mal Sorong,"479G+369, Klademak, Distrik Sorong, Kota Sorong, Papua Bar. 98412","Klademak, Distrik Sorong, Kota Sorong",PAPUA BARAT,98412.0,Indonesia,,-0.8823414,131.2755957,https://maps.google.com/?cid=0x0:0x4efad982776d0ca5
mall,Perusahaan Konstruksi,MALL SORONG MODERN CITY,"46HV+8RX, Jl. Yos. Sudarso, Kp. Baru, Distrik Sorong, Kota Sorong, Papua Bar. 98411","Jl. Yos. Sudarso, Kp. Baru, Distrik Sorong, Kota Sorong",PAPUA BARAT,98411.0,Indonesia,,-0.8716413,131.2446118,https://maps.google.com/?cid=0x0:0x40151c61e7d35d7a
mall,mall,Papua Bar.,,Papua Bar.,PAPUA BARAT,,Indonesia,,-1.3361154,133.1747162,https://maps.google.com/?cid=0x0:0x5349c1f8c5c7cb62
mall,Pusat Perbelanjaan,PARAGON SQUARE Mall  Hotel Sorong,"4874+4RH Paragon Square Mall, Jl. Basuki Rahmat Lt. 2, Sawagumu, Kec. Sorong Utara, Kota Sorong, Papua Bar. 98412","Jl. Basuki Rahmat Lt. 2, Sawagumu, Kec. Sorong Utara, Kota Sorong",PAPUA BARAT,98412.0,Indonesia,81247232214.0,-0.8871443,131.3071264,https://maps.google.com/?cid=0x0:0xd02481be48cb6e05
mall,Grosir,AZKO PARAGON SORONG,"4874+GWG, Jl. Basuki Rahmat, Sawagumu, Kec. Sorong Utara, Kota Sorong, Papua Bar.","Kota Sorong, Papua Bar.",PAPUA BARAT,,Indonesia,,-0.886185,131.3073385,https://maps.google.com/?cid=0x0:0x34d596cc826d6f95
mall,Pusat Perbelanjaan,Pondok Indah Mall 1,"Jl. Metro Pondok Indah No.Kav. 4, RT.1/RW.16, Pd. Pinang, Kec. Kby. Lama, Kota Jakarta Selatan, Daerah Khusus Ibukota Jakarta 12310","RT.1/RW.16, Pd. Pinang, Kec. Kby. Lama, Kota Jakarta Selatan",PAPUA BARAT,12310.0,Indonesia,217506750.0,-6.2652166,106.7843165,https://maps.google.com/?cid=0x0:0x682837113c4ea854
mall,Pusat Perbelanjaan,Mall Plaza Senayan,"Jl. Asia Afrika No.8, RT.1/RW.3, Gelora, Kecamatan Tanah Abang, Kota Jakarta Pusat, Daerah Khusus Ibukota Jakarta 10270","RT.1/RW.3, Gelora, Kecamatan Tanah Abang, Kota Jakarta Pusat",PAPUA BARAT,10270.0,Indonesia,215725555.0,-6.2254775,106.7992649,https://maps.google.com/?cid=0x0:0x788e3a1eef75ac94
mall,Toko Pakaian,Sogo Plaza Senayan,"Jl. Asia Afrika Plaza No.8, RT.1/RW.3, Senayan, Kecamatan Tanah Abang, Kota Jakarta Pusat, Daerah Khusus Ibukota Jakarta 10270","RT.1/RW.3, Senayan, Kecamatan Tanah Abang, Kota Jakarta Pusat",PAPUA BARAT,10270.0,Indonesia,2157900055.0,-6.2255782,106.7990351,https://maps.google.com/?cid=0x0:0xa9954a894bf479ef
mall,Taman,Senayan Park,"Jl. Gerbang Pemuda No.3, RT.1/RW.3, Gelora, Kecamatan Tanah Abang, Kota Jakarta Pusat, Daerah Khusus Ibukota Jakarta 10270","RT.1/RW.3, Gelora, Kecamatan Tanah Abang, Kota Jakarta Pusat",PAPUA BARAT,10270.0,Indonesia,212512030.0,-6.2128077,106.8036757,https://maps.google.com/?cid=0x0:0xc0ea4d9a9d1b2936
mall,Gedung Apartemen,NEO SOHO Mall,"Jl. Letjen S. Parman No.28, RT.3/RW.5, Tj. Duren Sel., Kec. Grogol petamburan, Kota Jakarta Barat, Daerah Khusus Ibukota Jakarta 11470","RT.3/RW.5, Tj. Duren Sel., Kec. Grogol petamburan, Kota Jakarta Barat",PAPUA BARAT,11470.0,Indonesia,,-6.174963,106.7900134,https://maps.google.com/?cid=0x0:0x2c4c67f4d94e8e65
mall,Toko Pakaian,AGORA,"Jl. M.H. Thamrin No.10, Kb. Melati, Kecamatan Tanah Abang, Kota Jakarta Pusat, Daerah Khusus Ibukota Jakarta 10230","Kb. Melati, Kecamatan Tanah Abang, Kota Jakarta Pusat",PAPUA BARAT,10230.0,Indonesia,811306399.0,-6.1985989,106.821393,https://maps.google.com/?cid=0x0:0x8b079b179a71f129
mall,Pusat Perbelanjaan,Central Park,"Jl. Letjen S. Parman No.Kav. 28, Tj. Duren Sel., Kec. Grogol petamburan, Kota Jakarta Barat, Daerah Khusus Ibukota Jakarta 11470","Tj. Duren Sel., Kec. Grogol petamburan, Kota Jakarta Barat",PAPUA BARAT,11470.0,Indonesia,2156989999.0,-6.1771373,106.7909788,https://maps.google.com/?cid=0x0:0xe816d65037c3207a
mall,mall,Papua Bar. 98413,"Klabala, Distrik Sorong Barat, Kota Sorong, Papua Bar.","Kota Sorong, Papua Bar.",PAPUA BARAT,,Indonesia,,-0.8669518,131.254029,https://maps.google.com/?cid=0x0:0x352e1f254d39ea2b
mall,Pusat Perbelanjaan,Mega Mall Sorong,"Jalan Basuki Rahmat Klabulu, Malaimsimsa, Malaingkedi, Kec. Sorong Utara, Kota Sorong, Papua Bar. 98412","Malaimsimsa, Malaingkedi, Kec. Sorong Utara, Kota Sorong",PAPUA BARAT,98412.0,Indonesia,,-0.8873097,131.3012842,https://maps.google.com/?cid=0x0:0x364e52ce8985aa7
mall,Pusat Perbelanjaan,Mal Sorong,"479G+369, Klademak, Distrik Sorong, Kota Sorong, Papua Bar. 98412","Klademak, Distrik Sorong, Kota Sorong",PAPUA BARAT,98412.0,Indonesia,,-0.8823414,131.2755957,https://maps.google.com/?cid=0x0:0x4efad982776d0ca5
mall,Perusahaan Konstruksi,MALL SORONG MODERN CITY,"46HV+8RX, Jl. Yos. Sudarso, Kp. Baru, Distrik Sorong, Kota Sorong, Papua Bar. 98411","Jl. Yos. Sudarso, Kp. Baru, Distrik Sorong, Kota Sorong",PAPUA BARAT,98411.0,Indonesia,,-0.8716413,131.2446118,https://maps.google.com/?cid=0x0:0x40151c61e7d35d7a
mall,Pusat Perbelanjaan,PARAGON SQUARE Mall  Hotel Sorong,"4874+4RH Paragon Square Mall, Jl. Basuki Rahmat Lt. 2, Sawagumu, Kec. Sorong Utara, Kota Sorong, Papua Bar. 98412","Jl. Basuki Rahmat Lt. 2, Sawagumu, Kec. Sorong Utara, Kota Sorong",PAPUA BARAT,98412.0,Indonesia,81247232214.0,-0.8871443,131.3071264,https://maps.google.com/?cid=0x0:0xd02481be48cb6e05
mall,Pusat Perbelanjaan,  ,"Jl. Ahmad Yani No.21, Malabutor, Distrik Sorong, Kota Sorong, Papua Bar. 98412","Malabutor, Distrik Sorong, Kota Sorong",PAPUA BARAT,98412.0,Indonesia,82397090442.0,-0.8825922,131.2827947,https://maps.google.com/?cid=0x0:0x28c052b0f0f6e9a6
mall,Grosir,AZKO PARAGON SORONG,"4874+GWG, Jl. Basuki Rahmat, Sawagumu, Kec. Sorong Utara, Kota Sorong, Papua Bar.","Kota Sorong, Papua Bar.",PAPUA BARAT,,Indonesia,,-0.886185,131.3073385,https://maps.google.com/?cid=0x0:0x34d596cc826d6f95
mall,Pusat Perbelanjaan,Sorong City Square,"4867+3HC, Sawagumu, Kec. Sorong Utara, Kota Sorong, Papua Bar. 98412","Sawagumu, Kec. Sorong Utara, Kota Sorong",PAPUA BARAT,98412.0,Indonesia,,-0.8898196,131.3138844,https://maps.google.com/?cid=0x0:0xad1b87f4a839cdae
mall,Pusat Perbelanjaan,Kawasan SMC (Sorong Modern City),"46HV+6FP Sunset Point Sorong, Dekat, Jl. Yos. Sudarso, Kp. Baru, Distrik Sorong, Kota Sorong, Papua Bar. 98411","Dekat, Jl. Yos. Sudarso, Kp. Baru, Distrik Sorong, Kota Sorong",PAPUA BARAT,98411.0,Indonesia,,-0.8724848,131.2434905,https://maps.google.com/?cid=0x0:0xcd23323a4726adf5
mall,Pusat Perbelanjaan,Mabello Sorong,"Jl. Cendrawasih No.11, Klawuyuk, Kec. Sorong Utara, Kota Sorong, Papua Bar. 98416","Klawuyuk, Kec. Sorong Utara, Kota Sorong",PAPUA BARAT,98416.0,Indonesia,82292247585.0,-0.8905827,131.3233806,https://maps.google.com/?cid=0x0:0x8b6c1d23b40f32bc
mall,mall,Paragon Mall Sorong,"Jl. Basuki Rahmat No.KM 9, Sawagumu, Kec. Sorong Utara, Kota Sorong, Papua Bar.","Kota Sorong, Papua Bar.",PAPUA BARAT,,Indonesia,,-0.8865295,131.3075066,https://maps.google.com/?cid=0x0:0xf013685eefc002dc
mall,mall,Sorong,"Kota Sorong, Papua Bar.","Kota Sorong, Papua Bar.",PAPUA BARAT,,Indonesia,,-0.8761629,131.255828,https://maps.google.com/?cid=0x0:0xe32b512ec6c6786
mall,Pusat Perbelanjaan,Mega Mall Sorong,"Jalan Basuki Rahmat Klabulu, Malaimsimsa, Malaingkedi, Kec. Sorong Utara, Kota Sorong, Papua Bar. 98412","Malaimsimsa, Malaingkedi, Kec. Sorong Utara, Kota Sorong",PAPUA BARAT,98412.0,Indonesia,,-0.8873097,131.3012842,https://maps.google.com/?cid=0x0:0x364e52ce8985aa7
mall,Pusat Perbelanjaan,Mal Sorong,"479G+369, Klademak, Distrik Sorong, Kota Sorong, Papua Bar. 98412","Klademak, Distrik Sorong, Kota Sorong",PAPUA BARAT,98412.0,Indonesia,,-0.8823414,131.2755957,https://maps.google.com/?cid=0x0:0x4efad982776d0ca5
mall,Minimarket,SAGA Supermarket  Dept. Store,"Jalan A. Yani, Ruko Kuda Laut, Klademak, Kecamatan Sorong Manoi, Kota Sorong, Papua Bar. 98414","Ruko Kuda Laut, Klademak, Kecamatan Sorong Manoi, Kota Sorong",PAPUA BARAT,98414.0,Indonesia,951322784.0,-0.8765248,131.2576755,https://maps.google.com/?cid=0x0:0x963043ed646a7e1e
mall,Pusat Perbelanjaan,PARAGON SQUARE Mall  Hotel Sorong,"4874+4RH Paragon Square Mall, Jl. Basuki Rahmat Lt. 2, Sawagumu, Kec. Sorong Utara, Kota Sorong, Papua Bar. 98412","Jl. Basuki Rahmat Lt. 2, Sawagumu, Kec. Sorong Utara, Kota Sorong",PAPUA BARAT,98412.0,Indonesia,81247232214.0,-0.8871443,131.3071264,https://maps.google.com/?cid=0x0:0xd02481be48cb6e05
mall,Perusahaan Konstruksi,MALL SORONG MODERN CITY,"46HV+8RX, Jl. Yos. Sudarso, Kp. Baru, Distrik Sorong, Kota Sorong, Papua Bar. 98411","Jl. Yos. Sudarso, Kp. Baru, Distrik Sorong, Kota Sorong",PAPUA BARAT,98411.0,Indonesia,,-0.8716413,131.2446118,https://maps.google.com/?cid=0x0:0x40151c61e7d35d7a
mall,mall,Paragon Mall Sorong,"Jl. Basuki Rahmat No.KM 9, Sawagumu, Kec. Sorong Utara, Kota Sorong, Papua Bar.","Kota Sorong, Papua Bar.",PAPUA BARAT,,Indonesia,,-0.8865295,131.3075066,https://maps.google.com/?cid=0x0:0xf013685eefc002dc
mall,Grosir,AZKO PARAGON SORONG,"4874+GWG, Jl. Basuki Rahmat, Sawagumu, Kec. Sorong Utara, Kota Sorong, Papua Bar.","Kota Sorong, Papua Bar.",PAPUA BARAT,,Indonesia,,-0.886185,131.3073385,https://maps.google.com/?cid=0x0:0x34d596cc826d6f95
mall,Pusat Perbelanjaan,  ,"Jl. Ahmad Yani No.21, Malabutor, Distrik Sorong, Kota Sorong, Papua Bar. 98412","Malabutor, Distrik Sorong, Kota Sorong",PAPUA BARAT,98412.0,Indonesia,82397090442.0,-0.8825922,131.2827947,https://maps.google.com/?cid=0x0:0x28c052b0f0f6e9a6
mall,Perusahaan Operasi Pelabuhan,Port De Sorong,"4776+R7P, Ocan Pacifique Sud, Klaligi, Kota Sorong, Papua Bar.","Kota Sorong, Papua Bar.",PAPUA BARAT,,Indonesia,,-0.8854189,131.2606942,https://maps.google.com/?cid=0x0:0xce90b7f0dab6effe
mall,Pusat Perbelanjaan,Harco Square Sorong,"4857+XPR, Sawagumu, Kec. Sorong Utara, Kota Sorong, Papua Bar. 98412","Sawagumu, Kec. Sorong Utara, Kota Sorong",PAPUA BARAT,98412.0,Indonesia,,-0.8900075,131.3142639,https://maps.google.com/?cid=0x0:0x78fc85d26a08628a
mall,Pusat Perbelanjaan,Sorong City Square,"4867+3HC, Sawagumu, Kec. Sorong Utara, Kota Sorong, Papua Bar. 98412","Sawagumu, Kec. Sorong Utara, Kota Sorong",PAPUA BARAT,98412.0,Indonesia,,-0.8898196,131.3138844,https://maps.google.com/?cid=0x0:0xad1b87f4a839cdae
mall,Pusat Perbelanjaan,Saga Aimas,"28VG+26V, Jl. Nangka, Malawili, Kec. Aimas, Kabupaten Sorong, Papua Bar. 98414","Jl. Nangka, Malawili, Kec. Aimas, Kabupaten Sorong",PAPUA BARAT,98414.0,Indonesia,81351816880.0,-0.9574598,131.3257559,https://maps.google.com/?cid=0x0:0x2ba45ddc0e9b2391
mall,Pusat Perbelanjaan,Sorong Shopping  Jastip,"Jl. Sam Ratulangi No.67, Klasuur, Distrik Sorong, Kota Sorong, Papua Bar. 98411","Klasuur, Distrik Sorong, Kota Sorong",PAPUA BARAT,98411.0,Indonesia,82198292121.0,-0.8681704,131.252787,https://maps.google.com/?cid=0x0:0xef8bd3f38641d4a2
mall,mall,Papua Bar. 98416,Papua Bar.,Papua Bar.,PAPUA BARAT,,Indonesia,,-0.8883325,131.3510866,https://maps.google.com/?cid=0x0:0x7d4c82915eeb19ce
mall,Pusat Perbelanjaan,Mega Mall Sorong,"Jalan Basuki Rahmat Klabulu, Malaimsimsa, Malaingkedi, Kec. Sorong Utara, Kota Sorong, Papua Bar. 98412","Malaimsimsa, Malaingkedi, Kec. Sorong Utara, Kota Sorong",PAPUA BARAT,98412.0,Indonesia,,-0.8873097,131.3012842,https://maps.google.com/?cid=0x0:0x364e52ce8985aa7
mall,Pusat Perbelanjaan,PARAGON SQUARE Mall  Hotel Sorong,"4874+4RH Paragon Square Mall, Jl. Basuki Rahmat Lt. 2, Sawagumu, Kec. Sorong Utara, Kota Sorong, Papua Bar. 98412","Jl. Basuki Rahmat Lt. 2, Sawagumu, Kec. Sorong Utara, Kota Sorong",PAPUA BARAT,98412.0,Indonesia,81247232214.0,-0.8871443,131.3071264,https://maps.google.com/?cid=0x0:0xd02481be48cb6e05
mall,mall,Paragon Mall Sorong,"Jl. Basuki Rahmat No.KM 9, Sawagumu, Kec. Sorong Utara, Kota Sorong, Papua Bar.","Kota Sorong, Papua Bar.",PAPUA BARAT,,Indonesia,,-0.8865295,131.3075066,https://maps.google.com/?cid=0x0:0xf013685eefc002dc
mall,Pusat Perbelanjaan,RAMAYANA Mall Sorong,"Jl. Wahid Hasyim 220 A-B, Jakarta, Papua Bar. 10250",Jakarta,PAPUA BARAT,10250.0,Indonesia,951332505.0,-0.8820615,131.2755023,https://maps.google.com/?cid=0x0:0x595b97e0cac05b45
mall,Grosir,AZKO PARAGON SORONG,"4874+GWG, Jl. Basuki Rahmat, Sawagumu, Kec. Sorong Utara, Kota Sorong, Papua Bar.","Kota Sorong, Papua Bar.",PAPUA BARAT,,Indonesia,,-0.886185,131.3073385,https://maps.google.com/?cid=0x0:0x34d596cc826d6f95
mall,Pusat Perbelanjaan,Harco Square Sorong,"4857+XPR, Sawagumu, Kec. Sorong Utara, Kota Sorong, Papua Bar. 98412","Sawagumu, Kec. Sorong Utara, Kota Sorong",PAPUA BARAT,98412.0,Indonesia,,-0.8900075,131.3142639,https://maps.google.com/?cid=0x0:0x78fc85d26a08628a
mall,mall,AGES CABANG HARAPAN INDAH,"483F+PP3, Jl. Kamboja 4, Klawuyuk, Distrik Sorong Timur, Kota Sorong, Papua Bar. 98416","Jl. Kamboja 4, Klawuyuk, Distrik Sorong Timur, Kota Sorong",PAPUA BARAT,98416.0,Indonesia,,-0.8957385,131.3242928,https://maps.google.com/?cid=0x0:0x4c200d6c20b2dc4b
mall,Pusat Perbelanjaan,Mabello Sorong,"Jl. Cendrawasih No.11, Klawuyuk, Kec. Sorong Utara, Kota Sorong, Papua Bar. 98416","Klawuyuk, Kec. Sorong Utara, Kota Sorong",PAPUA BARAT,98416.0,Indonesia,82292247585.0,-0.8905827,131.3233806,https://maps.google.com/?cid=0x0:0x8b6c1d23b40f32bc
mall,Pusat Perbelanjaan,Gema outlet,"482H+7MW, Klasaman, Distrik Sorong Timur, Kota Sorong, Papua Bar. 98416","Klasaman, Distrik Sorong Timur, Kota Sorong",PAPUA BARAT,98416.0,Indonesia,85244398702.0,-0.8992675,131.3291935,https://maps.google.com/?cid=0x0:0xf0698f80aae7cf05
mall,Minimarket,INDOMARET KLAMASEN,"2993+5GH, Klamasen, Distrik Mariat, Kabupaten Sorong, Papua Bar. 98416","Klamasen, Distrik Mariat, Kabupaten Sorong",PAPUA BARAT,98416.0,Indonesia,,-0.9820598,131.3537109,https://maps.google.com/?cid=0x0:0x73fbcb4854378be4
mall,Minimarket,INDOMARET MALIBELA,"Jl. Malibela No.6, Klawalu, Distrik Sorong Timur, Kota Sorong, Papua Bar. 98416","Klawalu, Distrik Sorong Timur, Kota Sorong",PAPUA BARAT,98416.0,Indonesia,,-0.9000617,131.3192616,https://maps.google.com/?cid=0x0:0xd1dc1b8b0d2e3d3d
mall,Pusat Perbelanjaan,Sorong City Square,"4867+3HC, Sawagumu, Kec. Sorong Utara, Kota Sorong, Papua Bar. 98412","Sawagumu, Kec. Sorong Utara, Kota Sorong",PAPUA BARAT,98412.0,Indonesia,,-0.8898196,131.3138844,https://maps.google.com/?cid=0x0:0xad1b87f4a839cdae
mall,Toko,Keripik Karmila Oleh2 Sorong,"Jl. Dorowati, Klasaman, Distrik Sorong Timur, Kota Sorong, Papua Bar. 98416","Klasaman, Distrik Sorong Timur, Kota Sorong",PAPUA BARAT,98416.0,Indonesia,82197931704.0,-0.9004869,131.3288867,https://maps.google.com/?cid=0x0:0xeab296915f1e3185
supermarket,supermarket,Papua Bar. 98457,"Kabupaten Sorong, Papua Bar.","Kabupaten Sorong, Papua Bar.",PAPUA BARAT,,Indonesia,,-1.0666951,131.5012792,https://maps.google.com/?cid=0x0:0x60164e450d5e6bd7
supermarket,Pusat Perbelanjaan,Saga Aimas,"28VG+26V, Jl. Nangka, Malawili, Kec. Aimas, Kabupaten Sorong, Papua Bar. 98414","Jl. Nangka, Malawili, Kec. Aimas, Kabupaten Sorong",PAPUA BARAT,98414.0,Indonesia,81351816880.0,-0.9574598,131.3257559,https://maps.google.com/?cid=0x0:0x2ba45ddc0e9b2391
supermarket,Pasar,Pasar Pagi Aimas,"28R7+X9J, Jl. Buncis, Malawele, Kec. Aimas, Kabupaten Sorong, Papua Bar. 98414","Jl. Buncis, Malawele, Kec. Aimas, Kabupaten Sorong",PAPUA BARAT,98414.0,Indonesia,,-0.9574826,131.3129889,https://maps.google.com/?cid=0x0:0x3961eb2cc5b616ce
supermarket,Toko bahan makanan,Toko Bone Indah Aimas,"28VG+35P, Jl. Nangka, Malawili, Kec. Aimas, Kabupaten Sorong, Papua Bar. 98414","Jl. Nangka, Malawili, Kec. Aimas, Kabupaten Sorong",PAPUA BARAT,98414.0,Indonesia,,-0.9571264,131.3255586,https://maps.google.com/?cid=0x0:0xd4b7830b2537a728
supermarket,Toko,Kios Bawah Gunung,"VFHQ+827, Klamono, Distrik Klamono, Kabupaten Sorong, Papua Bar. 98457","Klamono, Distrik Klamono, Kabupaten Sorong",PAPUA BARAT,98457.0,Indonesia,,-1.1217,131.4875623,https://maps.google.com/?cid=0x0:0x9b157a6e9a4ff9a5
supermarket,Minimarket,SAGA Supermarket  Dept. Store,"Jalan A. Yani, Ruko Kuda Laut, Klademak, Kecamatan Sorong Manoi, Kota Sorong, Papua Bar. 98414","Ruko Kuda Laut, Klademak, Kecamatan Sorong Manoi, Kota Sorong",PAPUA BARAT,98414.0,Indonesia,951322784.0,-0.8765248,131.2576755,https://maps.google.com/?cid=0x0:0x963043ed646a7e1e
supermarket,Toko Swalayan,KARTINI MINIMARKET,"28V6+3H7, Malawele, Kec. Aimas, Kabupaten Sorong, Papua Bar. 98414","Malawele, Kec. Aimas, Kabupaten Sorong",PAPUA BARAT,98414.0,Indonesia,85232040014.0,-0.9573282,131.311428,https://maps.google.com/?cid=0x0:0xbcf5eafcc5a7eec0
supermarket,Perumahan,Bumi Sorong Indah,"jl.perum pemda No.km 24, Aimas, Sorong Regency, West Papua 98414","Aimas, Sorong Regency",PAPUA BARAT,98414.0,Indonesia,,-0.9790529,131.3686752,https://maps.google.com/?cid=0x0:0x6d748e8c29ee689c
supermarket,Pusat Perbelanjaan,Papua Supermarket  Dept. Store,"4869+F77 Bar, Sawagumu, Kec. Sorong Utara, Kota Sorong, Papua Bar. 98416","Sawagumu, Kec. Sorong Utara, Kota Sorong",PAPUA BARAT,98416.0,Indonesia,9513160123.0,-0.888831,131.3181847,https://maps.google.com/?cid=0x0:0x7b5f0926a74ad213
supermarket,Toko,Toko Alula Lestari,"279X+X33, Jl. Perkutut, Malawele, Kec. Aimas, Kabupaten Sorong, Papua Bar. 98413","Jl. Perkutut, Malawele, Kec. Aimas, Kabupaten Sorong",PAPUA BARAT,98413.0,Indonesia,,-0.9801182,131.2976826,https://maps.google.com/?cid=0x0:0x16eed8ed12e3fd7a
supermarket,Toko bahan makanan,Pangestu M@rt,"28V4+7X4, Bar., Malawele, Kec. Aimas, Kabupaten Sorong, Papua Bar. 98413","Bar., Malawele, Kec. Aimas, Kabupaten Sorong",PAPUA BARAT,98413.0,Indonesia,,-0.9568563,131.307445,https://maps.google.com/?cid=0x0:0xc2cb8e9003ece9d2
supermarket,Toko Swalayan,KARTINI,"Jl. Klamono No.19, Malawili, Kec. Aimas, Kabupaten Sorong, Papua Bar. 98414","Malawili, Kec. Aimas, Kabupaten Sorong",PAPUA BARAT,98414.0,Indonesia,,-0.9546799,131.3361351,https://maps.google.com/?cid=0x0:0xea859394ee115680
supermarket,Grosir,Toko Singgah Dulu,"Jl. Nangka, Malawili, Kec. Aimas, Kabupaten Sorong, Papua Bar. 98414","Malawili, Kec. Aimas, Kabupaten Sorong",PAPUA BARAT,98414.0,Indonesia,,-0.9574238,131.3251782,https://maps.google.com/?cid=0x0:0x41df08e2def1daeb
supermarket,Pusat Perbelanjaan,Toko Senyum,"28VG+592, Jl. Nangka, Malawili, Kec. Aimas, Kabupaten Sorong, Papua Bar. 98414","Jl. Nangka, Malawili, Kec. Aimas, Kabupaten Sorong",PAPUA BARAT,98414.0,Indonesia,,-0.9571212,131.3258967,https://maps.google.com/?cid=0x0:0xbf6fa579817dcb1
supermarket,supermarket,Papua Bar. 98453,"Kabupaten Sorong, Papua Bar.","Kabupaten Sorong, Papua Bar.",PAPUA BARAT,,Indonesia,,-1.3400215,131.6410914,https://maps.google.com/?cid=0x0:0x3be69fb5df79c3fb
supermarket,Minimarket,SAGA Supermarket  Dept. Store,"Jalan A. Yani, Ruko Kuda Laut, Klademak, Kecamatan Sorong Manoi, Kota Sorong, Papua Bar. 98414","Ruko Kuda Laut, Klademak, Kecamatan Sorong Manoi, Kota Sorong",PAPUA BARAT,98414.0,Indonesia,951322784.0,-0.8765248,131.2576755,https://maps.google.com/?cid=0x0:0x963043ed646a7e1e
supermarket,Pusat Perbelanjaan,Papua Supermarket  Dept. Store,"4869+F77 Bar, Sawagumu, Kec. Sorong Utara, Kota Sorong, Papua Bar. 98416","Sawagumu, Kec. Sorong Utara, Kota Sorong",PAPUA BARAT,98416.0,Indonesia,9513160123.0,-0.888831,131.3181847,https://maps.google.com/?cid=0x0:0x7b5f0926a74ad213
supermarket,Toko,Kios Bawah Gunung,"VFHQ+827, Klamono, Distrik Klamono, Kabupaten Sorong, Papua Bar. 98457","Klamono, Distrik Klamono, Kabupaten Sorong",PAPUA BARAT,98457.0,Indonesia,,-1.1217,131.4875623,https://maps.google.com/?cid=0x0:0x9b157a6e9a4ff9a5
supermarket,Pusat Perbelanjaan,Saga Mart Remu,"samping intense fitness, Jl. Mambruk No.10, Remu Utara, Distrik Sorong, Kota Sorong, Papua Bar. 98416","Jl. Mambruk No.10, Remu Utara, Distrik Sorong, Kota Sorong",PAPUA BARAT,98416.0,Indonesia,,-0.8834556,131.2874923,https://maps.google.com/?cid=0x0:0x92c646f7dc2c33ee
supermarket,Kantor Perusahaan,Supermarket GOTA,"4868+2X3, Jl. Sungai Maruni, Sawagumu, Distrik Sorong Timur, Kota Sorong, Papua Bar. 98416","Jl. Sungai Maruni, Sawagumu, Distrik Sorong Timur, Kota Sorong",PAPUA BARAT,98416.0,Indonesia,,-0.8900646,131.3173945,https://maps.google.com/?cid=0x0:0xe80a2989cd86300
supermarket,Kantor Perusahaan,Hypermart - Abepura,"Jl. Raya Abepura - Sentani No.81, Asano, Kec. Abepura, Kota Jayapura, Papua 99351","Asano, Kec. Abepura, Kota Jayapura",PAPUA BARAT,99351.0,Indonesia,81314558885.0,-2.6166812,140.6801223,https://maps.google.com/?cid=0x0:0x4a244a93dff8c00b
supermarket,Pusat Perbelanjaan,SAGA BOSWESEN,"Jl. RA Kartini Jl. Boswesen No.33, Klasuur, Distrik Sorong Barat, Kota Sorong, Papua Bar. 98413","Klasuur, Distrik Sorong Barat, Kota Sorong",PAPUA BARAT,98413.0,Indonesia,82198859889.0,-0.8637467,131.2494116,https://maps.google.com/?cid=0x0:0xb095b8268ccda3e3
supermarket,Toko Swalayan,TOKO PUTRA PLASTIK,"VFHQ+38Q, Jalan nusa indah sp2, Klamono, Distrik Klamono, Kabupaten Sorong, Papua Bar.","Kabupaten Sorong, Papua Bar.",PAPUA BARAT,,Indonesia,,-1.1222877,131.488359,https://maps.google.com/?cid=0x0:0x473e6c1c24d35617
supermarket,supermarket,Kios Nur Fadilah,"RFV3+JV5, Malasigit, Distrik Malabotom, Kabupaten Sorong, Papua Barat Daya, 98451","Malasigit, Distrik Malabotom, Kabupaten Sorong",PAPUA BARAT,98451.0,Indonesia,,-1.1559875,131.4547344,https://maps.google.com/?cid=0x0:0x290fe5d830534c7d
supermarket,Pusat Perbelanjaan,Toko Anugrha,"Jl. Teminabuan Ayamaru, Wermit, Kec. Teminabuan, Kabupaten Sorong Selatan, Papua Bar. 98454","Wermit, Kec. Teminabuan, Kabupaten Sorong Selatan",PAPUA BARAT,98454.0,Indonesia,85395564530.0,-1.4507306,132.0254178,https://maps.google.com/?cid=0x0:0x5022914d97504e53
supermarket,Toko Swalayan,Toko anggi,"G2VG+79C, Wermit, Kec. Teminabuan, Kabupaten Sorong Selatan, Papua Bar. 98454","Wermit, Kec. Teminabuan, Kabupaten Sorong Selatan",PAPUA BARAT,98454.0,Indonesia,,-1.4568121,132.0258942,https://maps.google.com/?cid=0x0:0xa68e564fb120c69c
supermarket,Toko,Devan Mart,"Jl. Angkasa Mulyono, Amban, Kec. Manokwari Bar., Kabupaten Manokwari, Papua Bar. 98312","Amban, Kec. Manokwari Bar., Kabupaten Manokwari",PAPUA BARAT,98312.0,Indonesia,85288812221.0,-0.8474498,134.0500077,https://maps.google.com/?cid=0x0:0xbb0a46e42852dea1
supermarket,Toko Swalayan,Devan mart,"43Q8+5GG, Jl. Yos Sudarso, Sanggeng, Kec. Manokwari Bar., Kabupaten Manokwari, Papua Bar. 98312","Jl. Yos Sudarso, Sanggeng, Kec. Manokwari Bar., Kabupaten Manokwari",PAPUA BARAT,98312.0,Indonesia,,-0.8621702,134.0663068,https://maps.google.com/?cid=0x0:0x4f71a32166a3c50d
supermarket,Toko bahan makanan,Kalawai Mart,"42GW+JX7, Jl. Drs Esau Sesa, Wosi, Kec. Manokwari Bar., Kabupaten Manokwari, Papua Bar. 98312","Jl. Drs Esau Sesa, Wosi, Kec. Manokwari Bar., Kabupaten Manokwari",PAPUA BARAT,98312.0,Indonesia,82239404628.0,-0.8734685,134.0474365,https://maps.google.com/?cid=0x0:0xa03f46416c062468
supermarket,Toko Game,MY- SHOP,"Tangcity Mall, Jl. Jenderal Sudirman, Babakan, Kec. Tangerang, Kota Tangerang, Banten","Kota Tangerang, Banten",PAPUA BARAT,,Indonesia,,-6.1939327,106.6341002,https://maps.google.com/?cid=0x0:0xd90045e54f3fc565
supermarket,Toko Video Game,WII SHOP GADGET AND GAME,"tangcity mall lantai LG blok A 73, Kota Tangerang, Banten 15117",Kota Tangerang,PAPUA BARAT,15117.0,Indonesia,82125426600.0,-6.1959535,106.6328006,https://maps.google.com/?cid=0x0:0x7bbe1d5a963c8b62
supermarket,supermarket,Papua Bar. 98456,Papua Bar.,Papua Bar.,PAPUA BARAT,,Indonesia,,-1.2191286,131.8799408,https://maps.google.com/?cid=0x0:0x1193e0fa67947a8b
supermarket,Toko,Kios Bawah Gunung,"VFHQ+827, Klamono, Distrik Klamono, Kabupaten Sorong, Papua Bar. 98457","Klamono, Distrik Klamono, Kabupaten Sorong",PAPUA BARAT,98457.0,Indonesia,,-1.1217,131.4875623,https://maps.google.com/?cid=0x0:0x9b157a6e9a4ff9a5
supermarket,Pusat Perbelanjaan,pasar pisang klamit,"RWXV+QX7, Unnamed Road, Klamit, Sawiat, South Sorong Regency, West Papua 98461","Unnamed Road, Klamit, Sawiat, South Sorong Regency",PAPUA BARAT,98461.0,Indonesia,,-1.1505898,131.9449361,https://maps.google.com/?cid=0x0:0x4f39880a3884f87e
supermarket,supermarket,Distrik Klaso,"Kabupaten Sorong, Papua Bar.","Kabupaten Sorong, Papua Bar.",PAPUA BARAT,,Indonesia,,-0.760926,131.7815518,https://maps.google.com/?cid=0x0:0xffc7826f232f6dfa
supermarket,Pusat Perbelanjaan,Papua Supermarket  Dept. Store,"4869+F77 Bar, Sawagumu, Kec. Sorong Utara, Kota Sorong, Papua Bar. 98416","Sawagumu, Kec. Sorong Utara, Kota Sorong",PAPUA BARAT,98416.0,Indonesia,9513160123.0,-0.888831,131.3181847,https://maps.google.com/?cid=0x0:0x7b5f0926a74ad213
supermarket,supermarket,Thio Supermarket,"Jl. Basuki Rahmat No.9, Remu Utara, Klawalu, Distrik Sorong Timur, Kota Sorong, Papua Bar. 98416","Remu Utara, Klawalu, Distrik Sorong Timur, Kota Sorong",PAPUA BARAT,98416.0,Indonesia,811485555.0,-0.8834768,131.2864957,https://maps.google.com/?cid=0x0:0xd5803c8d58b1861b
supermarket,supermarket,Distrik Klawak,"Kabupaten Sorong, Papua Bar.","Kabupaten Sorong, Papua Bar.",PAPUA BARAT,,Indonesia,,-1.1756003,131.7703046,https://maps.google.com/?cid=0x0:0xa4ffc415fb4dcb3c
supermarket,Minimarket,SAGA Supermarket  Dept. Store,"Jalan A. Yani, Ruko Kuda Laut, Klademak, Kecamatan Sorong Manoi, Kota Sorong, Papua Bar. 98414","Ruko Kuda Laut, Klademak, Kecamatan Sorong Manoi, Kota Sorong",PAPUA BARAT,98414.0,Indonesia,951322784.0,-0.8765248,131.2576755,https://maps.google.com/?cid=0x0:0x963043ed646a7e1e
supermarket,Pusat Perbelanjaan,Papua Supermarket  Dept. Store,"4869+F77 Bar, Sawagumu, Kec. Sorong Utara, Kota Sorong, Papua Bar. 98416","Sawagumu, Kec. Sorong Utara, Kota Sorong",PAPUA BARAT,98416.0,Indonesia,9513160123.0,-0.888831,131.3181847,https://maps.google.com/?cid=0x0:0x7b5f0926a74ad213
supermarket,Toko,Devan Mart,"Jl. Angkasa Mulyono, Amban, Kec. Manokwari Bar., Kabupaten Manokwari, Papua Bar. 98312","Amban, Kec. Manokwari Bar., Kabupaten Manokwari",PAPUA BARAT,98312.0,Indonesia,85288812221.0,-0.8474498,134.0500077,https://maps.google.com/?cid=0x0:0xbb0a46e42852dea1
supermarket,Pusat Perbelanjaan,pasar pisang klamit,"RWXV+QX7, Unnamed Road, Klamit, Sawiat, South Sorong Regency, West Papua 98461","Unnamed Road, Klamit, Sawiat, South Sorong Regency",PAPUA BARAT,98461.0,Indonesia,,-1.1505898,131.9449361,https://maps.google.com/?cid=0x0:0x4f39880a3884f87e
supermarket,Pusat Perbelanjaan,Toko Anugrha,"Jl. Teminabuan Ayamaru, Wermit, Kec. Teminabuan, Kabupaten Sorong Selatan, Papua Bar. 98454","Wermit, Kec. Teminabuan, Kabupaten Sorong Selatan",PAPUA BARAT,98454.0,Indonesia,85395564530.0,-1.4507306,132.0254178,https://maps.google.com/?cid=0x0:0x5022914d97504e53
supermarket,Kantor Perusahaan,Supermarket GOTA,"4868+2X3, Jl. Sungai Maruni, Sawagumu, Distrik Sorong Timur, Kota Sorong, Papua Bar. 98416","Jl. Sungai Maruni, Sawagumu, Distrik Sorong Timur, Kota Sorong",PAPUA BARAT,98416.0,Indonesia,,-0.8900646,131.3173945,https://maps.google.com/?cid=0x0:0xe80a2989cd86300
supermarket,Toko bahan makanan,Multi Mart,"4788+P94, Klaligi, Kecamatan Sorong Manoi, Kota Sorong, Papua Bar. 98412","Klaligi, Kecamatan Sorong Manoi, Kota Sorong",PAPUA BARAT,98412.0,Indonesia,,-0.8832273,131.2659438,https://maps.google.com/?cid=0x0:0x10d83d9da3d8a49d
supermarket,Toko,TOKO MULIA Fotocopy Center,"H249+W3Q, Jl. Sengget, Sayolo, Kec. Teminabuan, Kabupaten Sorong Selatan, Papua Bar. 98454","Jl. Sengget, Sayolo, Kec. Teminabuan, Kabupaten Sorong Selatan",PAPUA BARAT,98454.0,Indonesia,85244751144.0,-1.4426616,132.0177473,https://maps.google.com/?cid=0x0:0x772a50f9f847fb73
supermarket,Toko bahan makanan,Toko TE-MI (Tehit Mitra,"G2VG+F7C, Wermit, Kec. Teminabuan, Kabupaten Sorong Selatan, Papua Bar. 98454","Wermit, Kec. Teminabuan, Kabupaten Sorong Selatan",PAPUA BARAT,98454.0,Indonesia,8114871178.0,-1.4563088,132.0256542,https://maps.google.com/?cid=0x0:0xa9f60ad72f60ea8d
supermarket,Toko bahan makanan,Toko Bone Indah Teminabuan,"G2WH+V3C, Wermit, Kec. Teminabuan, Kabupaten Sorong Selatan, Papua Bar. 98454","Wermit, Kec. Teminabuan, Kabupaten Sorong Selatan",PAPUA BARAT,98454.0,Indonesia,,-1.4529289,132.0278053,https://maps.google.com/?cid=0x0:0xf4e0f4c81bb47bbb
supermarket,Kios,Kios Solata Paebang,"H239+XXP, Kaibus, Kec. Teminabuan, Kabupaten Sorong Selatan, Papua Bar. 98454","Kaibus, Kec. Teminabuan, Kabupaten Sorong Selatan",PAPUA BARAT,98454.0,Indonesia,85243273321.0,-1.4450437,132.0199493,https://maps.google.com/?cid=0x0:0x375bf430f7b33998
supermarket,Toko bahan makanan,TOKO BINTANG BUANA BARU,"G2WH+R3R, Wermit, Kec. Teminabuan, Kabupaten Sorong Selatan, Papua Bar. 98454","Wermit, Kec. Teminabuan, Kabupaten Sorong Selatan",PAPUA BARAT,98454.0,Indonesia,,-1.4528833,132.027655,https://maps.google.com/?cid=0x0:0x8970edd9d06599c2
supermarket,Toko umum,Kios Meccu,"H287+4VQ, Unnamed Road, Kohoin, Kec. Teminabuan, Kabupaten Sorong Selatan, Papua Bar. 98454","Unnamed Road, Kohoin, Kec. Teminabuan, Kabupaten Sorong Selatan",PAPUA BARAT,98454.0,Indonesia,,-1.434673,132.0147416,https://maps.google.com/?cid=0x0:0xff8d2420e1576aaa
supermarket,supermarket,Distrik Klayili,"Kabupaten Sorong, Papua Bar.","Kabupaten Sorong, Papua Bar.",PAPUA BARAT,,Indonesia,,-0.8493892,131.7094201,https://maps.google.com/?cid=0x0:0x2d5da8d3e85a5670
supermarket,Pusat Perbelanjaan,Papua Supermarket  Dept. Store,"4869+F77 Bar, Sawagumu, Kec. Sorong Utara, Kota Sorong, Papua Bar. 98416","Sawagumu, Kec. Sorong Utara, Kota Sorong",PAPUA BARAT,98416.0,Indonesia,9513160123.0,-0.888831,131.3181847,https://maps.google.com/?cid=0x0:0x7b5f0926a74ad213
supermarket,Toko bahan makanan,Homi Supermarket,"478Q+W97, Jl. F Kalasuat, Remu Utara, Distrik Sorong, Kota Sorong, Papua Bar. 98412","Jl. F Kalasuat, Remu Utara, Distrik Sorong, Kota Sorong",PAPUA BARAT,98412.0,Indonesia,,-0.8827053,131.2884188,https://maps.google.com/?cid=0x0:0x9eed04e7f27afbd0
supermarket,Toko Vitamin >>u0026 Suplemen,AFC Lieana Sorong,"kpr nurlela (perumahan permata green park) blok d2 jl.kasiolo, Klamana, Distrik Sorong Timur, Kota Sorong, Papua Bar. 98416","Klamana, Distrik Sorong Timur, Kota Sorong",PAPUA BARAT,98416.0,Indonesia,81245603444.0,-0.9158569,131.3231384,https://maps.google.com/?cid=0x0:0x1c4dabcbeec37d0d
supermarket,Toko,Toko Alula Lestari,"279X+X33, Jl. Perkutut, Malawele, Kec. Aimas, Kabupaten Sorong, Papua Bar. 98413","Jl. Perkutut, Malawele, Kec. Aimas, Kabupaten Sorong",PAPUA BARAT,98413.0,Indonesia,,-0.9801182,131.2976826,https://maps.google.com/?cid=0x0:0x16eed8ed12e3fd7a
supermarket,Nasi,Campus Mart Unimuda,"Bar, Mariat Pantai, Kec. Aimas, Kabupaten Sorong, Papua Bar. 98414","Mariat Pantai, Kec. Aimas, Kabupaten Sorong",PAPUA BARAT,98414.0,Indonesia,,-0.982762,131.3043289,https://maps.google.com/?cid=0x0:0x69e576f55583f09d
supermarket,Toko bahan makanan,AULIA SAYUR,"Jl. Cempedak, Malawili, Kec. Aimas, Kabupaten Sorong, Papua Bar. 98414","Malawili, Kec. Aimas, Kabupaten Sorong",PAPUA BARAT,98414.0,Indonesia,,-0.9553418,131.3309379,https://maps.google.com/?cid=0x0:0x79eff6d2d2fc45ef
supermarket,Minimarket,HARTIN MART,"Klamasen, Distrik Mariat, Kabupaten Sorong, Papua Bar. 98416","Distrik Mariat, Kabupaten Sorong",PAPUA BARAT,98416.0,Indonesia,82238500801.0,-0.9822081,131.3542113,https://maps.google.com/?cid=0x0:0xf3e21eb19cbd4f0d
supermarket,Toko,Surya Copy Center,"28RM+X2M, Malawili, Kec. Aimas, Kabupaten Sorong, Papua Bar. 98414","Malawili, Kec. Aimas, Kabupaten Sorong",PAPUA BARAT,98414.0,Indonesia,8124893873.0,-0.9575411,131.3325611,https://maps.google.com/?cid=0x0:0xbfa89ce4787fc1e1
supermarket,Grosir,Toko Singgah Dulu,"Jl. Nangka, Malawili, Kec. Aimas, Kabupaten Sorong, Papua Bar. 98414","Malawili, Kec. Aimas, Kabupaten Sorong",PAPUA BARAT,98414.0,Indonesia,,-0.9574238,131.3251782,https://maps.google.com/?cid=0x0:0x41df08e2def1daeb
supermarket,Toko bahan makanan,NEPA THON GROUP,"482X+V32, Klasaman, Distrik Sorong Timur, Kota Sorong, Papua Bar. 98416","Klasaman, Distrik Sorong Timur, Kota Sorong",PAPUA BARAT,98416.0,Indonesia,81248668687.0,-0.8978549,131.3476393,https://maps.google.com/?cid=0x0:0x196b63296e4e27de
supermarket,Pusat Perbelanjaan,Saga Aimas,"28VG+26V, Jl. Nangka, Malawili, Kec. Aimas, Kabupaten Sorong, Papua Bar. 98414","Jl. Nangka, Malawili, Kec. Aimas, Kabupaten Sorong",PAPUA BARAT,98414.0,Indonesia,81351816880.0,-0.9574598,131.3257559,https://maps.google.com/?cid=0x0:0x2ba45ddc0e9b2391
supermarket,Kantor Perusahaan,Supermarket GOTA,"4868+2X3, Jl. Sungai Maruni, Sawagumu, Distrik Sorong Timur, Kota Sorong, Papua Bar. 98416","Jl. Sungai Maruni, Sawagumu, Distrik Sorong Timur, Kota Sorong",PAPUA BARAT,98416.0,Indonesia,,-0.8900646,131.3173945,https://maps.google.com/?cid=0x0:0xe80a2989cd86300
supermarket,Toko Swalayan,KARTINI MINIMARKET,"28V6+3H7, Malawele, Kec. Aimas, Kabupaten Sorong, Papua Bar. 98414","Malawele, Kec. Aimas, Kabupaten Sorong",PAPUA BARAT,98414.0,Indonesia,85232040014.0,-0.9573282,131.311428,https://maps.google.com/?cid=0x0:0xbcf5eafcc5a7eec0
supermarket,Pusat Perbelanjaan,Papua Supermarket  Dept. Store,"4869+F77 Bar, Sawagumu, Kec. Sorong Utara, Kota Sorong, Papua Bar. 98416","Sawagumu, Kec. Sorong Utara, Kota Sorong",PAPUA BARAT,98416.0,Indonesia,9513160123.0,-0.888831,131.3181847,https://maps.google.com/?cid=0x0:0x7b5f0926a74ad213
supermarket,Minimarket,SAGA Supermarket  Dept. Store,"Jalan A. Yani, Ruko Kuda Laut, Klademak, Kecamatan Sorong Manoi, Kota Sorong, Papua Bar. 98414","Ruko Kuda Laut, Klademak, Kecamatan Sorong Manoi, Kota Sorong",PAPUA BARAT,98414.0,Indonesia,951322784.0,-0.8765248,131.2576755,https://maps.google.com/?cid=0x0:0x963043ed646a7e1e
supermarket,Komplek perumahan,Rumah Bpk Gustaf. L,"4859+784, Klawuyuk, Distrik Sorong Timur, Kota Sorong, Papua Bar. 98416","Klawuyuk, Distrik Sorong Timur, Kota Sorong",PAPUA BARAT,98416.0,Indonesia,,-0.8918739,131.3183248,https://maps.google.com/?cid=0x0:0x30559e7e5eb96ee4
supermarket,Tujuan Wisata,Batulubang pantai,"6CM7+6HQ, Batu Lobang Pantai, Kec. Makbon, Kabupaten Sorong, Papua Bar. 98411","Batu Lobang Pantai, Kec. Makbon, Kabupaten Sorong",PAPUA BARAT,98411.0,Indonesia,,-0.7669088,131.4139875,https://maps.google.com/?cid=0x0:0x3cebc0c8a9ab5e73
supermarket,Toko bahan makanan,Homi Supermarket,"478Q+W97, Jl. F Kalasuat, Remu Utara, Distrik Sorong, Kota Sorong, Papua Bar. 98412","Jl. F Kalasuat, Remu Utara, Distrik Sorong, Kota Sorong",PAPUA BARAT,98412.0,Indonesia,,-0.8827053,131.2884188,https://maps.google.com/?cid=0x0:0x9eed04e7f27afbd0
supermarket,Toko Swalayan,Toko Bone Indah TDM,"Jl. Basuki Rahmat, Remu Sel., Kecamatan Sorong Manoi, Kota Sorong, Papua Bar. 98412","Remu Sel., Kecamatan Sorong Manoi, Kota Sorong",PAPUA BARAT,98412.0,Indonesia,81248464668.0,-0.8880794,131.3015446,https://maps.google.com/?cid=0x0:0x60a38ca52cdad462
supermarket,Toko,SRC SUMBER AGUNG,"483J+QJW, Jl. Sorong - Makbon, Matalamagi, Kec. Makbon, Kota Sorong, Papua Bar. 98416","Jl. Sorong - Makbon, Matalamagi, Kec. Makbon, Kota Sorong",PAPUA BARAT,98416.0,Indonesia,85311515565.0,-0.8955013,131.3315677,https://maps.google.com/?cid=0x0:0xf042a100233f1eab
supermarket,Toko bahan makanan,Toko berkah mandiri,"483J+R62, Jl. Sorong - Makbon, malasilen, Kec. Sorong Utara, Kota Sorong, Papua Bar. 98416","Jl. Sorong - Makbon, malasilen, Kec. Sorong Utara, Kota Sorong",PAPUA BARAT,98416.0,Indonesia,82199632433.0,-0.8954971,131.3305292,https://maps.google.com/?cid=0x0:0x7f12b024787ed134
supermarket,Pusat Perbelanjaan,Saga Aimas,"28VG+26V, Jl. Nangka, Malawili, Kec. Aimas, Kabupaten Sorong, Papua Bar. 98414","Jl. Nangka, Malawili, Kec. Aimas, Kabupaten Sorong",PAPUA BARAT,98414.0,Indonesia,81351816880.0,-0.9574598,131.3257559,https://maps.google.com/?cid=0x0:0x2ba45ddc0e9b2391
supermarket,Toko bahan makanan,Toko Bone Indah Aimas,"28VG+35P, Jl. Nangka, Malawili, Kec. Aimas, Kabupaten Sorong, Papua Bar. 98414","Jl. Nangka, Malawili, Kec. Aimas, Kabupaten Sorong",PAPUA BARAT,98414.0,Indonesia,,-0.9571264,131.3255586,https://maps.google.com/?cid=0x0:0xd4b7830b2537a728
supermarket,Kantor Perusahaan,Supermarket GOTA,"4868+2X3, Jl. Sungai Maruni, Sawagumu, Distrik Sorong Timur, Kota Sorong, Papua Bar. 98416","Jl. Sungai Maruni, Sawagumu, Distrik Sorong Timur, Kota Sorong",PAPUA BARAT,98416.0,Indonesia,,-0.8900646,131.3173945,https://maps.google.com/?cid=0x0:0xe80a2989cd86300
supermarket,Toko Swalayan,Toko Bone Indah TPR,"Jl. Selat Sunda, Remu Sel., Kecamatan Sorong Manoi, Kota Sorong, Papua Bar. 98412","Remu Sel., Kecamatan Sorong Manoi, Kota Sorong",PAPUA BARAT,98412.0,Indonesia,81248464668.0,-0.8895303,131.2856805,https://maps.google.com/?cid=0x0:0x800f62216788b992
supermarket,Pusat Perbelanjaan,Saga Mart Remu,"samping intense fitness, Jl. Mambruk No.10, Remu Utara, Distrik Sorong, Kota Sorong, Papua Bar. 98416","Jl. Mambruk No.10, Remu Utara, Distrik Sorong, Kota Sorong",PAPUA BARAT,98416.0,Indonesia,,-0.8834556,131.2874923,https://maps.google.com/?cid=0x0:0x92c646f7dc2c33ee
supermarket,Toko bahan makanan,Pangestu M@rt,"28V4+7X4, Bar., Malawele, Kec. Aimas, Kabupaten Sorong, Papua Bar. 98413","Bar., Malawele, Kec. Aimas, Kabupaten Sorong",PAPUA BARAT,98413.0,Indonesia,,-0.9568563,131.307445,https://maps.google.com/?cid=0x0:0xc2cb8e9003ece9d2
supermarket,Minimarket,SAMUDRA MART,"Mariyai, Distrik Mariat, Kabupaten Sorong, Papua Bar. 98415","Distrik Mariat, Kabupaten Sorong",PAPUA BARAT,98415.0,Indonesia,,-1.017638,131.3163597,https://maps.google.com/?cid=0x0:0x45e382ab4c0d03ea
supermarket,supermarket,Papua Bar. 98457,"Kabupaten Sorong, Papua Bar.","Kabupaten Sorong, Papua Bar.",PAPUA BARAT,,Indonesia,,-1.0666951,131.5012792,https://maps.google.com/?cid=0x0:0x60164e450d5e6bd7
supermarket,Toko,Kios Bawah Gunung,"VFHQ+827, Klamono, Distrik Klamono, Kabupaten Sorong, Papua Bar. 98457","Klamono, Distrik Klamono, Kabupaten Sorong",PAPUA BARAT,98457.0,Indonesia,,-1.1217,131.4875623,https://maps.google.com/?cid=0x0:0x9b157a6e9a4ff9a5
supermarket,Pusat Perbelanjaan,Papua Supermarket  Dept. Store,"4869+F77 Bar, Sawagumu, Kec. Sorong Utara, Kota Sorong, Papua Bar. 98416","Sawagumu, Kec. Sorong Utara, Kota Sorong",PAPUA BARAT,98416.0,Indonesia,9513160123.0,-0.888831,131.3181847,https://maps.google.com/?cid=0x0:0x7b5f0926a74ad213
supermarket,Kantor Perusahaan,Supermarket GOTA,"4868+2X3, Jl. Sungai Maruni, Sawagumu, Distrik Sorong Timur, Kota Sorong, Papua Bar. 98416","Jl. Sungai Maruni, Sawagumu, Distrik Sorong Timur, Kota Sorong",PAPUA BARAT,98416.0,Indonesia,,-0.8900646,131.3173945,https://maps.google.com/?cid=0x0:0xe80a2989cd86300
supermarket,Toko bahan makanan,Family Mart,"283W+P97, Klamalu, Distrik Mariat, Kabupaten Sorong, Papua Bar. 98416","Klamalu, Distrik Mariat, Kabupaten Sorong",PAPUA BARAT,98416.0,Indonesia,,-0.9957196,131.3459374,https://maps.google.com/?cid=0x0:0x29445a21faf6694d
supermarket,Pusat Perbelanjaan,Saga Mart Remu,"samping intense fitness, Jl. Mambruk No.10, Remu Utara, Distrik Sorong, Kota Sorong, Papua Bar. 98416","Jl. Mambruk No.10, Remu Utara, Distrik Sorong, Kota Sorong",PAPUA BARAT,98416.0,Indonesia,,-0.8834556,131.2874923,https://maps.google.com/?cid=0x0:0x92c646f7dc2c33ee
supermarket,Toko,T Mart Minimarket,"Jl. Flamboyan, Klasuluk, Distrik Mariat, Kabupaten Sorong, Papua Bar. 98415","Klasuluk, Distrik Mariat, Kabupaten Sorong",PAPUA BARAT,98415.0,Indonesia,85244478614.0,-1.0011466,131.3191689,https://maps.google.com/?cid=0x0:0xe5a4386e37313cc8
supermarket,Pusat Perbelanjaan,Saga Aimas,"28VG+26V, Jl. Nangka, Malawili, Kec. Aimas, Kabupaten Sorong, Papua Bar. 98414","Jl. Nangka, Malawili, Kec. Aimas, Kabupaten Sorong",PAPUA BARAT,98414.0,Indonesia,81351816880.0,-0.9574598,131.3257559,https://maps.google.com/?cid=0x0:0x2ba45ddc0e9b2391
supermarket,Kios,Depot Air Fitriah,"2993+5GH, Klamasen, Distrik Mariat, Kabupaten Sorong, Papua Bar. 98416","Klamasen, Distrik Mariat, Kabupaten Sorong",PAPUA BARAT,98416.0,Indonesia,81344495879.0,-0.9820515,131.3538721,https://maps.google.com/?cid=0x0:0xfdea412ecca29c64
supermarket,Kios,Toko Nur Hd,"X7CW+PXW, Jl. Nusa Indah, Mariyai, Mayamuk, Kabupaten Sorong, Papua Bar. 98415","Jl. Nusa Indah, Mariyai, Mayamuk, Kabupaten Sorong",PAPUA BARAT,98415.0,Indonesia,,-1.0281432,131.2974515,https://maps.google.com/?cid=0x0:0x3e814ac86ff6a730
supermarket,Toko Swalayan,TOKO PUTRA PLASTIK,"VFHQ+38Q, Jalan nusa indah sp2, Klamono, Distrik Klamono, Kabupaten Sorong, Papua Bar.","Kabupaten Sorong, Papua Bar.",PAPUA BARAT,,Indonesia,,-1.1222877,131.488359,https://maps.google.com/?cid=0x0:0x473e6c1c24d35617
supermarket,Minimarket,Alfamart Mariyai,"X8M9+F77, Jl. Nusa Indah, Mariyai, Distrik Mariat, Kabupaten Sorong, Papua Bar. 98415","Jl. Nusa Indah, Mariyai, Distrik Mariat, Kabupaten Sorong",PAPUA BARAT,98415.0,Indonesia,,-1.0163417,131.3181783,https://maps.google.com/?cid=0x0:0x2fd072676badc1be
supermarket,Perumahan,Bumi Sorong Indah,"jl.perum pemda No.km 24, Aimas, Sorong Regency, West Papua 98414","Aimas, Sorong Regency",PAPUA BARAT,98414.0,Indonesia,,-0.9790529,131.3686752,https://maps.google.com/?cid=0x0:0x6d748e8c29ee689c
supermarket,supermarket,Papua Bar. 98472,"Kabupaten Sorong, Papua Bar.","Kabupaten Sorong, Papua Bar.",PAPUA BARAT,,Indonesia,,-0.8437569,131.9989718,https://maps.google.com/?cid=0x0:0x94d7894d7b2d29e5
supermarket,Pusat Perbelanjaan,Papua Supermarket  Dept. Store,"4869+F77 Bar, Sawagumu, Kec. Sorong Utara, Kota Sorong, Papua Bar. 98416","Sawagumu, Kec. Sorong Utara, Kota Sorong",PAPUA BARAT,98416.0,Indonesia,9513160123.0,-0.888831,131.3181847,https://maps.google.com/?cid=0x0:0x7b5f0926a74ad213
supermarket,Pusat Perbelanjaan,Hadi supermarket,"32XQ+W6X, Sowi, Distrik Manokwari, Kabupaten Manokwari, Papua Bar.","Kabupaten Manokwari, Papua Bar.",PAPUA BARAT,,Indonesia,,-0.9001308,134.0381223,https://maps.google.com/?cid=0x0:0xe361d5fae3f38b24
supermarket,Pusat Perbelanjaan,pasar pisang klamit,"RWXV+QX7, Unnamed Road, Klamit, Sawiat, South Sorong Regency, West Papua 98461","Unnamed Road, Klamit, Sawiat, South Sorong Regency",PAPUA BARAT,98461.0,Indonesia,,-1.1505898,131.9449361,https://maps.google.com/?cid=0x0:0x4f39880a3884f87e
supermarket,Toko bahan makanan,Kalawai Mart,"42GW+JX7, Jl. Drs Esau Sesa, Wosi, Kec. Manokwari Bar., Kabupaten Manokwari, Papua Bar. 98312","Jl. Drs Esau Sesa, Wosi, Kec. Manokwari Bar., Kabupaten Manokwari",PAPUA BARAT,98312.0,Indonesia,82239404628.0,-0.8734685,134.0474365,https://maps.google.com/?cid=0x0:0xa03f46416c062468
supermarket,Kantor Perusahaan,Puskesmas Maudus,"34F2+R5W, Jln.Bimo, Luwelala, Maudus, Kabupaten Sorong, Papua Bar.","Kabupaten Sorong, Papua Bar.",PAPUA BARAT,,Indonesia,,-0.9253755,132.1004399,https://maps.google.com/?cid=0x0:0x9dd4d81214bd3070
supermarket,Toko,HADI Supermarket  Dept Store,"JFQX+RQC, Jl. Yos Sudarso, Oyehe, Distrik Nabire, Kabupaten Nabire, Papua 98811","Jl. Yos Sudarso, Oyehe, Distrik Nabire, Kabupaten Nabire",PAPUA BARAT,98811.0,Indonesia,98421367.0,-3.360447,135.4994055,https://maps.google.com/?cid=0x0:0x60bc70181b8864df
supermarket,Pusat Perbelanjaan,Manokwari City Mall (MCM),"Jl. Yos Sudarso Manokwari, Manokwari Bar., Kec. Manokwari Bar., Kabupaten Manokwari, Papua Bar. 98312","Manokwari Bar., Kec. Manokwari Bar., Kabupaten Manokwari",PAPUA BARAT,98312.0,Indonesia,8114918899.0,-0.85693,134.0678051,https://maps.google.com/?cid=0x0:0x7e7b90df1d787501
supermarket,Toko Swalayan,Hadi Supermarket  Dept. Store,"Jl. Imam Bonjol No.56, Fandoi, Kec. Biak Kota, Kabupaten Biak Numfor, Papua 98111","Fandoi, Kec. Biak Kota, Kabupaten Biak Numfor",PAPUA BARAT,98111.0,Indonesia,,-1.1800003,136.0824788,https://maps.google.com/?cid=0x0:0xdcad74b4384219ee
supermarket,Kantor Pemerintah Distrik,toko omcap kampung ugwem,"G32M+2VH, Emaos, Distrik Sausapor, Kabupaten Tambrauw, Papua Bar. 98473","Emaos, Distrik Sausapor, Kabupaten Tambrauw",PAPUA BARAT,98473.0,Indonesia,,-0.4999339,132.084726,https://maps.google.com/?cid=0x0:0xc62243b6eac24fc3
supermarket,Toko Swalayan,HADI MART TIMIKA,"Jl. Yos Sudarso No.35, Kwamki, Kec. Mimika Baru, Kabupaten Mimika, Papua 99971","Kwamki, Kec. Mimika Baru, Kabupaten Mimika",PAPUA BARAT,99971.0,Indonesia,,-4.5446365,136.8895979,https://maps.google.com/?cid=0x0:0x3d96563d2fe0245a
supermarket,Masakan Asia,RM Balantak Tristan Sidapore,"P684+C34, Men, Kec. Ayamaru, Kabupaten Maybrat, Papua Bar. 98462","Men, Kec. Ayamaru, Kabupaten Maybrat",PAPUA BARAT,98462.0,Indonesia,,-1.2834953,132.2061175,https://maps.google.com/?cid=0x0:0x9d40838572f13a7b
supermarket,Toko Perhiasan,Naughty Hadi Mall,"Jl. Yos Sudarso No.8, Manokwari Bar., Kec. Manokwari Bar., Kabupaten Manokwari, Papua Bar. 98312","Manokwari Bar., Kec. Manokwari Bar., Kabupaten Manokwari",PAPUA BARAT,98312.0,Indonesia,,-0.8571975,134.0675484,https://maps.google.com/?cid=0x0:0x4fdc9271213b8a6b
supermarket,supermarket,Jaul Telur Ayam,"5CWQ+MWF, Ases, Distrik Fef, Kabupaten Tambrauw, Papua Bar. 98473","Ases, Distrik Fef, Kabupaten Tambrauw",PAPUA BARAT,98473.0,Indonesia,,-0.8033098,132.4397838,https://maps.google.com/?cid=0x0:0xd10443e9e446eb24
supermarket,supermarket,Mayamuk,"Kabupaten Sorong, Papua Bar.","Kabupaten Sorong, Papua Bar.",PAPUA BARAT,,Indonesia,,-1.0590548,131.2851406,https://maps.google.com/?cid=0x0:0x18c5e8368d4ad732
supermarket,Toko bahan makanan,Toko Sabila / Src Sabila,"sp 3 Makbusun, Mayamuk, Papua Bar., Makbusun, Mayamuk, Kabupaten Sorong, Papua Bar. 98451","Mayamuk, Papua Bar., Makbusun, Mayamuk, Kabupaten Sorong",PAPUA BARAT,98451.0,Indonesia,,-1.0315998,131.2901767,https://maps.google.com/?cid=0x0:0x6a106109b24ef992
supermarket,Toko Swalayan,Toko IHKSAN,"W7RM+VXQ, Unnamed Road, Makbalim, Mayamuk, Kabupaten Sorong, Papua Bar. 98451","Unnamed Road, Makbalim, Mayamuk, Kabupaten Sorong",PAPUA BARAT,98451.0,Indonesia,85254648168.0,-1.0577797,131.2849884,https://maps.google.com/?cid=0x0:0x7a566b6312dafc59
supermarket,Kios,Toko Nur Hd,"X7CW+PXW, Jl. Nusa Indah, Mariyai, Mayamuk, Kabupaten Sorong, Papua Bar. 98415","Jl. Nusa Indah, Mariyai, Mayamuk, Kabupaten Sorong",PAPUA BARAT,98415.0,Indonesia,,-1.0281432,131.2974515,https://maps.google.com/?cid=0x0:0x3e814ac86ff6a730
supermarket,Toko Swalayan,Toko Ibu Sur,"X7CW+JPG, Jl. Nusa Indah, Makbusun, Mayamuk, Kabupaten Sorong, Papua Bar. 98451","Jl. Nusa Indah, Makbusun, Mayamuk, Kabupaten Sorong",PAPUA BARAT,98451.0,Indonesia,,-1.0284412,131.2968135,https://maps.google.com/?cid=0x0:0xab204b466a57d45b
supermarket,Toko bahan makanan,Toko Mbangun Rejo,"W7QM+7WC, Makbalim, Mayamuk, Kabupaten Sorong, Papua Bar. 98451","Makbalim, Mayamuk, Kabupaten Sorong",PAPUA BARAT,98451.0,Indonesia,85244423494.0,-1.0618199,131.284767,https://maps.google.com/?cid=0x0:0x1ce8898be1a19837
supermarket,supermarket,Toko Sembako Berkah,"RT.sp/RW.3, Makbusun, Mayamuk, Kabupaten Sorong, Papua Bar. 98451","Makbusun, Mayamuk, Kabupaten Sorong",PAPUA BARAT,98451.0,Indonesia,,-1.0304451,131.2901123,https://maps.google.com/?cid=0x0:0x4b71d6faaa75f296
supermarket,Toko,Toko FERLY,"Makbusun, Mayamuk, Kabupaten Sorong, Papua Bar. 98412","Mayamuk, Kabupaten Sorong",PAPUA BARAT,98412.0,Indonesia,85244149800.0,-1.0276201,131.292702,https://maps.google.com/?cid=0x0:0xade94a12594d3d91
supermarket,Toko umum,Toko Alfatih,"X77R+658, Makbusun, Mayamuk, Kabupaten Sorong, Papua Bar. 98451","Makbusun, Mayamuk, Kabupaten Sorong",PAPUA BARAT,98451.0,Indonesia,,-1.0369531,131.290455,https://maps.google.com/?cid=0x0:0x3a57e1485068fde9
supermarket,Kios,Seafood,"X7CX+47X, Makbusun, Mayamuk, Kabupaten Sorong, Papua Bar. 98451","Makbusun, Mayamuk, Kabupaten Sorong",PAPUA BARAT,98451.0,Indonesia,,-1.0296443,131.2982341,https://maps.google.com/?cid=0x0:0x86dfbc5b31c6fbfe
supermarket,Toko bahan makanan,Toko Anfi,"W8R3+556, Klasmelek, Mayamuk, Kabupaten Sorong, Papua Bar. 98451","Klasmelek, Mayamuk, Kabupaten Sorong",PAPUA BARAT,98451.0,Indonesia,85244423494.0,-1.0595952,131.3029025,https://maps.google.com/?cid=0x0:0x66426fe1e40d9ce8
supermarket,Toko bahan makanan,Toko Ardima,"W7VW+2QW, Klasmelek, Mayamuk, Kabupaten Sorong, Papua Bar. 98451","Klasmelek, Mayamuk, Kabupaten Sorong",PAPUA BARAT,98451.0,Indonesia,85244772390.0,-1.057395,131.2969512,https://maps.google.com/?cid=0x0:0x2bb777ced69b8545
supermarket,Minimarket,Indomaret Mayamuk,"W7MP+P2R, Makbalim, Mayamuk, Kabupaten Sorong, Papua Bar. 98451","Makbalim, Mayamuk, Kabupaten Sorong",PAPUA BARAT,98451.0,Indonesia,,-1.0656375,131.2850156,https://maps.google.com/?cid=0x0:0x7a5137e505726e35
supermarket,Toko Swalayan,Toko Pak Bambang,"W7JM+MRX, Makbalim, Mayamuk, Kabupaten Sorong, Papua Bar. 98451","Makbalim, Mayamuk, Kabupaten Sorong",PAPUA BARAT,98451.0,Indonesia,,-1.0682705,131.2846166,https://maps.google.com/?cid=0x0:0x46f05c70c62a0bf3
supermarket,supermarket,Papua Bar. 98451,"Kabupaten Sorong, Papua Bar.","Kabupaten Sorong, Papua Bar.",PAPUA BARAT,,Indonesia,,-1.1998275,131.3611121,https://maps.google.com/?cid=0x0:0x9f6340793bb8183
supermarket,Minimarket,SAMUDRA MART,"Mariyai, Distrik Mariat, Kabupaten Sorong, Papua Bar. 98415","Distrik Mariat, Kabupaten Sorong",PAPUA BARAT,98415.0,Indonesia,,-1.017638,131.3163597,https://maps.google.com/?cid=0x0:0x45e382ab4c0d03ea
supermarket,Toko,TOKO VIOLA,"R7W8+F67, Majener, Kec. Salawati, Kabupaten Sorong, Papua Bar. 98451","Majener, Kec. Salawati, Kabupaten Sorong",PAPUA BARAT,98451.0,Indonesia,81344422256.0,-1.1538363,131.265534,https://maps.google.com/?cid=0x0:0x2c52e310e285e0d6
supermarket,Toko bahan makanan,Toko Sabila / Src Sabila,"sp 3 Makbusun, Mayamuk, Papua Bar., Makbusun, Mayamuk, Kabupaten Sorong, Papua Bar. 98451","Mayamuk, Papua Bar., Makbusun, Mayamuk, Kabupaten Sorong",PAPUA BARAT,98451.0,Indonesia,,-1.0315998,131.2901767,https://maps.google.com/?cid=0x0:0x6a106109b24ef992
supermarket,Toko Swalayan,Toko IHKSAN,"W7RM+VXQ, Unnamed Road, Makbalim, Mayamuk, Kabupaten Sorong, Papua Bar. 98451","Unnamed Road, Makbalim, Mayamuk, Kabupaten Sorong",PAPUA BARAT,98451.0,Indonesia,85254648168.0,-1.0577797,131.2849884,https://maps.google.com/?cid=0x0:0x7a566b6312dafc59
supermarket,Toko,Kios Bawah Gunung,"VFHQ+827, Klamono, Distrik Klamono, Kabupaten Sorong, Papua Bar. 98457","Klamono, Distrik Klamono, Kabupaten Sorong",PAPUA BARAT,98457.0,Indonesia,,-1.1217,131.4875623,https://maps.google.com/?cid=0x0:0x9b157a6e9a4ff9a5
supermarket,Toko,Toko FERLY,"Makbusun, Mayamuk, Kabupaten Sorong, Papua Bar. 98412","Mayamuk, Kabupaten Sorong",PAPUA BARAT,98412.0,Indonesia,85244149800.0,-1.0276201,131.292702,https://maps.google.com/?cid=0x0:0xade94a12594d3d91
supermarket,supermarket,TOKO AZAHRA,"Majaran, Kec. Salawati, Kabupaten Sorong, Papua Bar. 98418","Kec. Salawati, Kabupaten Sorong",PAPUA BARAT,98418.0,Indonesia,,-1.1261973,131.2711658,https://maps.google.com/?cid=0x0:0xa02d4e97163ad801
supermarket,Toko bahan makanan,Kios Risman,"X8J8+VC8, Jl. Menur, RT.003/RW.001, Klaru, Mariyai, Distrik Mariat, Kabupaten Sorong, Papua Bar. 98415","Jl. Menur, RT.003/RW.001, Klaru, Mariyai, Distrik Mariat, Kabupaten Sorong",PAPUA BARAT,98415.0,Indonesia,82247050774.0,-1.0178324,131.3160754,https://maps.google.com/?cid=0x0:0xa11588e477119195
supermarket,Toko bahan makanan,Kios dua gadis,"V7GM+QQJ, Jl. Nusantara Katapop II, Majaran, Kec. Salawati, Kabupaten Sorong, Papua Bar. 98451","Jl. Nusantara Katapop II, Majaran, Kec. Salawati, Kabupaten Sorong",PAPUA BARAT,98451.0,Indonesia,82248477109.0,-1.1230457,131.2843792,https://maps.google.com/?cid=0x0:0x62a7a34026d6d2df
supermarket,Kios,Toko Nur Hd,"X7CW+PXW, Jl. Nusa Indah, Mariyai, Mayamuk, Kabupaten Sorong, Papua Bar. 98415","Jl. Nusa Indah, Mariyai, Mayamuk, Kabupaten Sorong",PAPUA BARAT,98415.0,Indonesia,,-1.0281432,131.2974515,https://maps.google.com/?cid=0x0:0x3e814ac86ff6a730
supermarket,Toko Swalayan,Toko Ibu Sur,"X7CW+JPG, Jl. Nusa Indah, Makbusun, Mayamuk, Kabupaten Sorong, Papua Bar. 98451","Jl. Nusa Indah, Makbusun, Mayamuk, Kabupaten Sorong",PAPUA BARAT,98451.0,Indonesia,,-1.0284412,131.2968135,https://maps.google.com/?cid=0x0:0xab204b466a57d45b
supermarket,Nasi,Campus Mart Unimuda,"Bar, Mariat Pantai, Kec. Aimas, Kabupaten Sorong, Papua Bar. 98414","Mariat Pantai, Kec. Aimas, Kabupaten Sorong",PAPUA BARAT,98414.0,Indonesia,,-0.982762,131.3043289,https://maps.google.com/?cid=0x0:0x69e576f55583f09d
supermarket,Toko bahan makanan,Toko Mbangun Rejo,"W7QM+7WC, Makbalim, Mayamuk, Kabupaten Sorong, Papua Bar. 98451","Makbalim, Mayamuk, Kabupaten Sorong",PAPUA BARAT,98451.0,Indonesia,85244423494.0,-1.0618199,131.284767,https://maps.google.com/?cid=0x0:0x1ce8898be1a19837
supermarket,supermarket,Kec. Salawati,"Kabupaten Sorong, Papua Bar.","Kabupaten Sorong, Papua Bar.",PAPUA BARAT,,Indonesia,,-1.1878386,131.2481347,https://maps.google.com/?cid=0x0:0x2da3ce5cc71682ef
supermarket,Toko,TOKO VIOLA,"R7W8+F67, Majener, Kec. Salawati, Kabupaten Sorong, Papua Bar. 98451","Majener, Kec. Salawati, Kabupaten Sorong",PAPUA BARAT,98451.0,Indonesia,81344422256.0,-1.1538363,131.265534,https://maps.google.com/?cid=0x0:0x2c52e310e285e0d6
supermarket,Minimarket,Dua Cendrawasih Store,"V768+JFG, Unnamed Road, Majaran, Salawati, Sorong Regency, West Papua 98451","Unnamed Road, Majaran, Salawati, Sorong Regency",PAPUA BARAT,98451.0,Indonesia,,-1.1384292,131.2662062,https://maps.google.com/?cid=0x0:0x3bc397465cf93f46
supermarket,Toko bahan makanan,Kios dua gadis,"V7GM+QQJ, Jl. Nusantara Katapop II, Majaran, Kec. Salawati, Kabupaten Sorong, Papua Bar. 98451","Jl. Nusantara Katapop II, Majaran, Kec. Salawati, Kabupaten Sorong",PAPUA BARAT,98451.0,Indonesia,82248477109.0,-1.1230457,131.2843792,https://maps.google.com/?cid=0x0:0x62a7a34026d6d2df
supermarket,Toko,Azsril Raffi,"V7WJ+268, Makotyamsa, Kec. Salawati, Kabupaten Sorong, Papua Bar. 98451","Makotyamsa, Kec. Salawati, Kabupaten Sorong",PAPUA BARAT,98451.0,Indonesia,,-1.104953,131.2805781,https://maps.google.com/?cid=0x0:0x8babd3b08255046a
supermarket,Toko,Kios bella,"Rw. Sugi, Kec. Salawati, Kabupaten Sorong, Papua Bar. 98451","Kec. Salawati, Kabupaten Sorong",PAPUA BARAT,98451.0,Indonesia,82217533691.0,-1.1569373,131.2924977,https://maps.google.com/?cid=0x0:0x1a55584133cf8d42
supermarket,Toko umum,Sayur 70,"Jl. Nusantara, Majaran, Kec. Salawati, Kabupaten Sorong, Papua Bar. 98415","Majaran, Kec. Salawati, Kabupaten Sorong",PAPUA BARAT,98415.0,Indonesia,85219583061.0,-1.1230241,131.2814446,https://maps.google.com/?cid=0x0:0x93eb7b19146fb545
supermarket,Toko,Toko berkah,"Matawolot, Kec. Salawati, Kabupaten Sorong, Papua Bar. 98451","Kec. Salawati, Kabupaten Sorong",PAPUA BARAT,98451.0,Indonesia,,-1.1916375,131.2463594,https://maps.google.com/?cid=0x0:0x5caf8f89275d52
supermarket,Toko bahan makanan,Toko Alya FF,"Jl. Majapahit, Walal, Kec. Salawati, Kabupaten Sorong, Papua Bar. 98451","Walal, Kec. Salawati, Kabupaten Sorong",PAPUA BARAT,98451.0,Indonesia,,-1.1442845,131.2982466,https://maps.google.com/?cid=0x0:0x111f6832a61277a3
supermarket,Toko sembako pemerintah,TOKO FADIL SINAR JAYA,"R63X+QFR, Matawolot, Kec. Salawati, Kabupaten Sorong, Papua Bar.","Kabupaten Sorong, Papua Bar.",PAPUA BARAT,,Indonesia,85211437631.0,-1.1948526,131.2485887,https://maps.google.com/?cid=0x0:0x53a6a7e26b71aadd
supermarket,Minimarket,AlfamartMajener,"R7R8+M3J, Majener, Kec. Salawati, Kabupaten Sorong, Papua Bar. 98451","Majener, Kec. Salawati, Kabupaten Sorong",PAPUA BARAT,98451.0,Indonesia,,-1.1582878,131.2651441,https://maps.google.com/?cid=0x0:0xfb5e7804346fc6eb
supermarket,Toko Swalayan,Toko Sentosa,"R7R7+94V, Unnamed Road, Majener, Kec. Salawati, Kabupaten Sorong, Papua Bar. 98451","Unnamed Road, Majener, Kec. Salawati, Kabupaten Sorong",PAPUA BARAT,98451.0,Indonesia,,-1.1590136,131.2628125,https://maps.google.com/?cid=0x0:0xb6375aaea3aaae2c
supermarket,Minimarket,Alfamart Majaran,"V7JP+5H3, Jl. Nusantara Katapop II, Majaran, Kec. Salawati, Kabupaten Sorong, Papua Bar. 98451","Jl. Nusantara Katapop II, Majaran, Kec. Salawati, Kabupaten Sorong",PAPUA BARAT,98451.0,Indonesia,,-1.1196082,131.2864165,https://maps.google.com/?cid=0x0:0x17f1a74e1c8fa0e9
supermarket,Toko bahan makanan,Toko Alzarif Mart,"V7GJ+98M, Jl. Nusantara Katapop II, Majaran, Kec. Salawati, Kabupaten Sorong, Papua Bar. 98451","Jl. Nusantara Katapop II, Majaran, Kec. Salawati, Kabupaten Sorong",PAPUA BARAT,98451.0,Indonesia,,-1.1244138,131.2808144,https://maps.google.com/?cid=0x0:0xd4bd575426c0309
supermarket,supermarket,Kec. Salawati Sel.,"Kabupaten Sorong, Papua Bar.","Kabupaten Sorong, Papua Bar.",PAPUA BARAT,,Indonesia,,-1.2811542,130.8951476,https://maps.google.com/?cid=0x0:0xc4d8ce15c534bd48
supermarket,Toko,TOKO VIOLA,"R7W8+F67, Majener, Kec. Salawati, Kabupaten Sorong, Papua Bar. 98451","Majener, Kec. Salawati, Kabupaten Sorong",PAPUA BARAT,98451.0,Indonesia,81344422256.0,-1.1538363,131.265534,https://maps.google.com/?cid=0x0:0x2c52e310e285e0d6
supermarket,Kantor Perusahaan,Minimarket RU7 KASIM,"M2JF+G8G, Unnamed Road, Kasimle, Distrik Seget, Kabupaten Sorong, Papua Bar. 98452","Unnamed Road, Kasimle, Distrik Seget, Kabupaten Sorong",PAPUA BARAT,98452.0,Indonesia,,-1.3186915,131.0233157,https://maps.google.com/?cid=0x0:0x344ccd5cba439142
supermarket,Toko bahan makanan,Homi Supermarket,"478Q+W97, Jl. F Kalasuat, Remu Utara, Distrik Sorong, Kota Sorong, Papua Bar. 98412","Jl. F Kalasuat, Remu Utara, Distrik Sorong, Kota Sorong",PAPUA BARAT,98412.0,Indonesia,,-0.8827053,131.2884188,https://maps.google.com/?cid=0x0:0x9eed04e7f27afbd0
supermarket,Kantor Perusahaan,Supermarket GOTA,"4868+2X3, Jl. Sungai Maruni, Sawagumu, Distrik Sorong Timur, Kota Sorong, Papua Bar. 98416","Jl. Sungai Maruni, Sawagumu, Distrik Sorong Timur, Kota Sorong",PAPUA BARAT,98416.0,Indonesia,,-0.8900646,131.3173945,https://maps.google.com/?cid=0x0:0xe80a2989cd86300
supermarket,Pusat Perbelanjaan,Mega Mall Sorong,"Jalan Basuki Rahmat Klabulu, Malaimsimsa, Malaingkedi, Kec. Sorong Utara, Kota Sorong, Papua Bar. 98412","Malaimsimsa, Malaingkedi, Kec. Sorong Utara, Kota Sorong",PAPUA BARAT,98412.0,Indonesia,,-0.8873097,131.3012842,https://maps.google.com/?cid=0x0:0x364e52ce8985aa7
supermarket,Toko bahan makanan,Kios dua gadis,"V7GM+QQJ, Jl. Nusantara Katapop II, Majaran, Kec. Salawati, Kabupaten Sorong, Papua Bar. 98451","Jl. Nusantara Katapop II, Majaran, Kec. Salawati, Kabupaten Sorong",PAPUA BARAT,98451.0,Indonesia,82248477109.0,-1.1230457,131.2843792,https://maps.google.com/?cid=0x0:0x62a7a34026d6d2df
supermarket,Minimarket,Kios Malabam,"JX6V+VX4, Malabam, Distrik Seget, Kabupaten Sorong, Papua Bar. 98452","Malabam, Distrik Seget, Kabupaten Sorong",PAPUA BARAT,98452.0,Indonesia,,-1.38802,130.9939227,https://maps.google.com/?cid=0x0:0xbe1eaf35ffb0329a
supermarket,,Event O2O,"M2FG+2QV, Kasimle, Distrik Seget, Kabupaten Sorong, Papua Bar. 98452","Kasimle, Distrik Seget, Kabupaten Sorong",PAPUA BARAT,98452.0,Indonesia,,-1.3273985,131.0269182,https://maps.google.com/?cid=0x0:0x200ccb90c6b12dbc
supermarket,Sekolah pendidikan umum,Desa klayas,"J2X5+8QM, Jalan petrocina, Klayas, Distrik Seget, Kabupaten Sorong, Papua Bar. 98452","Jalan petrocina, Klayas, Distrik Seget, Kabupaten Sorong",PAPUA BARAT,98452.0,Indonesia,,-1.3516504,131.009418,https://maps.google.com/?cid=0x0:0xfe811f43721fe247
supermarket,Kantor Perusahaan,DWI ANDIKA,"WV5H+94X, Jln Marina, Kapatlap, Salawati Utara, Raja Ampat Regency, West Papua","Kabupaten Raja Ampat, Papua Bar.",PAPUA BARAT,,Indonesia,,-1.0915151,130.8778586,https://maps.google.com/?cid=0x0:0x5b6cc51a29b0da38
supermarket,Toko umum,Toko yasin,"JX4H+W5P, Wawenagu, Distrik Seget, Kabupaten Sorong, Papua Bar. 98452","Wawenagu, Distrik Seget, Kabupaten Sorong",PAPUA BARAT,98452.0,Indonesia,,-1.3926183,130.9779233,https://maps.google.com/?cid=0x0:0x128430682a1322a0
supermarket,Toko umum,Faaris baaria,"J2X5+8QC, Klayas, Distrik Seget, Kabupaten Sorong, Papua Bar. 98452","Klayas, Distrik Seget, Kabupaten Sorong",PAPUA BARAT,98452.0,Indonesia,,-1.3516959,131.009391,https://maps.google.com/?cid=0x0:0x547de89a6b3ceaab
supermarket,Toko Video Game,Toko PLANET Notebook Dan Game,"4869+F8M, Jl. Sungai Maruni, Sawagumu, Kec. Sorong Utara, Kota Sorong, Papua Bar. 98416","Jl. Sungai Maruni, Sawagumu, Kec. Sorong Utara, Kota Sorong",PAPUA BARAT,98416.0,Indonesia,8114820101.0,-0.8887887,131.3182976,https://maps.google.com/?cid=0x0:0xc7f4842a323cd865
supermarket,supermarket,Salawati Tengah,"Kabupaten Raja Ampat, Papua Bar.","Kabupaten Raja Ampat, Papua Bar.",PAPUA BARAT,,Indonesia,,-1.0547794,131.0589536,https://maps.google.com/?cid=0x0:0x9e15ae7888c4541f
supermarket,supermarket,TOKO AZAHRA,"Majaran, Kec. Salawati, Kabupaten Sorong, Papua Bar. 98418","Kec. Salawati, Kabupaten Sorong",PAPUA BARAT,98418.0,Indonesia,,-1.1261973,131.2711658,https://maps.google.com/?cid=0x0:0xa02d4e97163ad801
supermarket,Toko Pakaian,Raider Store,"Kampung Wailen, Salawati Tengah, Kabupaten Raja Ampat, Papua Barat Daya, Kampung wailen, Kabupaten Raja Ampat, Papua Bar. 98484","Salawati Tengah, Kabupaten Raja Ampat, Papua Barat Daya, Kampung wailen, Kabupaten Raja Ampat",PAPUA BARAT,98484.0,Indonesia,82199601496.0,-1.0582621,131.0748308,https://maps.google.com/?cid=0x0:0x588078d8ca842b6e
supermarket,Toserba,Maju Jaya Kalobo,"Kampung Wailen, Salawati Tengah, Kabupaten Raja Ampat, Papua Barat Daya, Kampung Wailen, Kabupaten Raja Ampat, Papua Bar. 98484","Salawati Tengah, Kabupaten Raja Ampat, Papua Barat Daya, Kampung Wailen, Kabupaten Raja Ampat",PAPUA BARAT,98484.0,Indonesia,,-1.0578885,131.074819,https://maps.google.com/?cid=0x0:0x14cf55e6b3875058
supermarket,Minimarket,SAGA Supermarket  Dept. Store,"Jalan A. Yani, Ruko Kuda Laut, Klademak, Kecamatan Sorong Manoi, Kota Sorong, Papua Bar. 98414","Ruko Kuda Laut, Klademak, Kecamatan Sorong Manoi, Kota Sorong",PAPUA BARAT,98414.0,Indonesia,951322784.0,-0.8765248,131.2576755,https://maps.google.com/?cid=0x0:0x963043ed646a7e1e
supermarket,Minimarket,Dua Cendrawasih Store,"V768+JFG, Unnamed Road, Majaran, Salawati, Sorong Regency, West Papua 98451","Unnamed Road, Majaran, Salawati, Sorong Regency",PAPUA BARAT,98451.0,Indonesia,,-1.1384292,131.2662062,https://maps.google.com/?cid=0x0:0x3bc397465cf93f46
supermarket,Minimarket,Kios la hasim,"W3XG+845, Sakabu, Salawati Tengah, Kabupaten Raja Ampat, Papua Bar. 98484","Sakabu, Salawati Tengah, Kabupaten Raja Ampat",PAPUA BARAT,98484.0,Indonesia,,-1.05173,131.0753522,https://maps.google.com/?cid=0x0:0xc7ed8a82aa34597a
supermarket,Toko,AY MAKMUR JAYA,"Jalan mawar, Kalobo, Salawati Tengah, Kabupaten Raja Ampat, Papua Bar. 98494","Kalobo, Salawati Tengah, Kabupaten Raja Ampat",PAPUA BARAT,98494.0,Indonesia,85216359818.0,-1.0557083,131.0604361,https://maps.google.com/?cid=0x0:0x6d9737e02c74f8e9
supermarket,Pusat Perbelanjaan,Papua Supermarket  Dept. Store,"4869+F77 Bar, Sawagumu, Kec. Sorong Utara, Kota Sorong, Papua Bar. 98416","Sawagumu, Kec. Sorong Utara, Kota Sorong",PAPUA BARAT,98416.0,Indonesia,9513160123.0,-0.888831,131.3181847,https://maps.google.com/?cid=0x0:0x7b5f0926a74ad213
supermarket,Kantor Perusahaan,Supermarket GOTA,"4868+2X3, Jl. Sungai Maruni, Sawagumu, Distrik Sorong Timur, Kota Sorong, Papua Bar. 98416","Jl. Sungai Maruni, Sawagumu, Distrik Sorong Timur, Kota Sorong",PAPUA BARAT,98416.0,Indonesia,,-0.8900646,131.3173945,https://maps.google.com/?cid=0x0:0xe80a2989cd86300
supermarket,Toko bahan makanan,Homi Supermarket,"478Q+W97, Jl. F Kalasuat, Remu Utara, Distrik Sorong, Kota Sorong, Papua Bar. 98412","Jl. F Kalasuat, Remu Utara, Distrik Sorong, Kota Sorong",PAPUA BARAT,98412.0,Indonesia,,-0.8827053,131.2884188,https://maps.google.com/?cid=0x0:0x9eed04e7f27afbd0
supermarket,Toko,Valentine shop,"Kalobo, Salawati Tengah, Kabupaten Raja Ampat, Papua Bar. 98484","Salawati Tengah, Kabupaten Raja Ampat",PAPUA BARAT,98484.0,Indonesia,85386580995.0,-1.0540361,131.0625599,https://maps.google.com/?cid=0x0:0xdf105575e2de7d7e
supermarket,Toko,Azsril Raffi,"V7WJ+268, Makotyamsa, Kec. Salawati, Kabupaten Sorong, Papua Bar. 98451","Makotyamsa, Kec. Salawati, Kabupaten Sorong",PAPUA BARAT,98451.0,Indonesia,,-1.104953,131.2805781,https://maps.google.com/?cid=0x0:0x8babd3b08255046a
supermarket,Minimarket,Kios Berkah Mandiri,"W3V6+M6, Waibo, Salawati Tengah, Kabupaten Raja Ampat, Papua Bar.","Kabupaten Raja Ampat, Papua Bar.",PAPUA BARAT,,Indonesia,85343078766.0,-1.0558678,131.0606163,https://maps.google.com/?cid=0x0:0xe7919ac7039b5b64
supermarket,Toko Swalayan,Ssayo Mart  Yukiguni,"Blok I No. 20, Karawaci Office Park, Jl. Imam Bonjol, Panunggangan Bar., Kec. Cibodas, Kota Tangerang, Banten 15139","Karawaci Office Park, Jl. Imam Bonjol, Panunggangan Bar., Kec. Cibodas, Kota Tangerang",PAPUA BARAT,15139.0,Indonesia,2135290000.0,-6.2240331,106.6188381,https://maps.google.com/?cid=0x0:0x7a215719bcf3a770
supermarket,Toko Kelontong Korea,Mu Gung Hwa Supermarket,"Ruko Karawaci Office Park Blok L No. 5-6 Jl. Sultan Jalan Palatehan, RT.001/RW.009, Panunggangan Bar., Kec. Klp. Dua, Kota Tangerang, Banten 15810","RT.001/RW.009, Panunggangan Bar., Kec. Klp. Dua, Kota Tangerang",PAPUA BARAT,15810.0,Indonesia,215582214.0,-6.2228281,106.6181198,https://maps.google.com/?cid=0x0:0x8f1b31226f031d88
supermarket,supermarket,Papua Bar. 98471,"Kabupaten Sorong, Papua Bar.","Kabupaten Sorong, Papua Bar.",PAPUA BARAT,,Indonesia,,-0.9628505,131.6809724,https://maps.google.com/?cid=0x0:0xf9eb2cfc3e3195d1
supermarket,Pusat Perbelanjaan,Papua Supermarket  Dept. Store,"4869+F77 Bar, Sawagumu, Kec. Sorong Utara, Kota Sorong, Papua Bar. 98416","Sawagumu, Kec. Sorong Utara, Kota Sorong",PAPUA BARAT,98416.0,Indonesia,9513160123.0,-0.888831,131.3181847,https://maps.google.com/?cid=0x0:0x7b5f0926a74ad213
supermarket,Kantor Perusahaan,Supermarket GOTA,"4868+2X3, Jl. Sungai Maruni, Sawagumu, Distrik Sorong Timur, Kota Sorong, Papua Bar. 98416","Jl. Sungai Maruni, Sawagumu, Distrik Sorong Timur, Kota Sorong",PAPUA BARAT,98416.0,Indonesia,,-0.8900646,131.3173945,https://maps.google.com/?cid=0x0:0xe80a2989cd86300
supermarket,Toko Bahan Bangunan,Toko Sayosa,"28VH+47H, Malawili, Kec. Aimas, Kabupaten Sorong, Papua Bar. 98414","Malawili, Kec. Aimas, Kabupaten Sorong",PAPUA BARAT,98414.0,Indonesia,,-0.9571789,131.3282234,https://maps.google.com/?cid=0x0:0x4b8fef486cb26f51
supermarket,Pusat Perbelanjaan,Saga Aimas,"28VG+26V, Jl. Nangka, Malawili, Kec. Aimas, Kabupaten Sorong, Papua Bar. 98414","Jl. Nangka, Malawili, Kec. Aimas, Kabupaten Sorong",PAPUA BARAT,98414.0,Indonesia,81351816880.0,-0.9574598,131.3257559,https://maps.google.com/?cid=0x0:0x2ba45ddc0e9b2391
supermarket,Toko bahan makanan,Homi Supermarket,"478Q+W97, Jl. F Kalasuat, Remu Utara, Distrik Sorong, Kota Sorong, Papua Bar. 98412","Jl. F Kalasuat, Remu Utara, Distrik Sorong, Kota Sorong",PAPUA BARAT,98412.0,Indonesia,,-0.8827053,131.2884188,https://maps.google.com/?cid=0x0:0x9eed04e7f27afbd0
supermarket,Toko Makanan,Easy Shop,"484H+7JV, Matalamagi, Kec. Sorong Utara, Kota Sorong, Papua Bar. 98416","Matalamagi, Kec. Sorong Utara, Kota Sorong",PAPUA BARAT,98416.0,Indonesia,,-0.8942528,131.3290588,https://maps.google.com/?cid=0x0:0xc40ab7de5487816d
supermarket,Toko bahan makanan,AULIA SAYUR,"Jl. Cempedak, Malawili, Kec. Aimas, Kabupaten Sorong, Papua Bar. 98414","Malawili, Kec. Aimas, Kabupaten Sorong",PAPUA BARAT,98414.0,Indonesia,,-0.9553418,131.3309379,https://maps.google.com/?cid=0x0:0x79eff6d2d2fc45ef
supermarket,Toko Swalayan,Toko Setia Jaya,"Jl. Basuki Rahmat No.3, Klasabi, Kecamatan Sorong Manoi, Kota Sorong, Papua Bar. 98412","Klasabi, Kecamatan Sorong Manoi, Kota Sorong",PAPUA BARAT,98412.0,Indonesia,,-0.8882815,131.3098554,https://maps.google.com/?cid=0x0:0xed2a8d8928e07c66
supermarket,supermarket,DIDIT SUPRIADY SUDARNA,"Jl. Bangau II No.42, Malaingkedi, Kec. Sorong Utara, Kota Sorong, Papua Bar. 98416","Malaingkedi, Kec. Sorong Utara, Kota Sorong",PAPUA BARAT,98416.0,Indonesia,85344540767.0,-0.8798178,131.2914858,https://maps.google.com/?cid=0x0:0xece7150412ba900c
supermarket,Toko,Surya Copy Center,"28RM+X2M, Malawili, Kec. Aimas, Kabupaten Sorong, Papua Bar. 98414","Malawili, Kec. Aimas, Kabupaten Sorong",PAPUA BARAT,98414.0,Indonesia,8124893873.0,-0.9575411,131.3325611,https://maps.google.com/?cid=0x0:0xbfa89ce4787fc1e1
supermarket,Pusat Perbelanjaan,Saga Mart Remu,"samping intense fitness, Jl. Mambruk No.10, Remu Utara, Distrik Sorong, Kota Sorong, Papua Bar. 98416","Jl. Mambruk No.10, Remu Utara, Distrik Sorong, Kota Sorong",PAPUA BARAT,98416.0,Indonesia,,-0.8834556,131.2874923,https://maps.google.com/?cid=0x0:0x92c646f7dc2c33ee
supermarket,supermarket,Kios Rahmat,"HXVG+3M8, Wawenagu, Distrik Seget, Kabupaten Sorong, Papua Bar.","Kabupaten Sorong, Papua Bar.",PAPUA BARAT,,Indonesia,,-1.407338,130.9767,https://maps.google.com/?cid=0x0:0xc270878a40afbacf
supermarket,Toko Makanan Sehat,Primo Supermarket Citos,"Town Square, Jl. TB Simatupang No.KAV.17 Lantai Dasar, West Cilandak, Cilandak, South Jakarta City, Jakarta 12430","Jl. TB Simatupang No.KAV.17 Lantai Dasar, West Cilandak, Cilandak, South Jakarta City",PAPUA BARAT,12430.0,Indonesia,2175920390.0,-6.2914315,106.7992178,https://maps.google.com/?cid=0x0:0x110a936a8d153b27
supermarket,Toko Kelontong Korea,Mu Gung Hwa Supermarket - Senopati,"Jl. Senayan No.43, RT.8/RW.5, Rw. Bar., Kec. Kby. Baru, Kota Jakarta Selatan, Daerah Khusus Ibukota Jakarta 12180","RT.8/RW.5, Rw. Bar., Kec. Kby. Baru, Kota Jakarta Selatan",PAPUA BARAT,12180.0,Indonesia,217222214.0,-6.2353938,106.8158782,https://maps.google.com/?cid=0x0:0x9ffba79e59c537d5
supermarket,Toko bahan makanan,Sagar indian supermarket,"Jl. Danau Sunter Utara Block R no 67, RT.1/RW.19, Sunter Agung, Tanjung Priok, North Jakarta City, Jakarta 14350","RT.1/RW.19, Sunter Agung, Tanjung Priok, North Jakarta City",PAPUA BARAT,14350.0,Indonesia,8164844875.0,-6.1380243,106.8668598,https://maps.google.com/?cid=0x0:0x93bf3a16f16ce723
supermarket,Hipermarket,Tommy Supermarket,"Ul. Hrvatskih rtava 44, 21218, Seget Donji, Kroasia","Seget Donji, Kroasia",PAPUA BARAT,,Indonesia,3858000203.0,43.5186311,16.236707,https://maps.google.com/?cid=0x0:0xbf7ec542b6a90113
supermarket,supermarket,Papua Bar. 98452,"Kabupaten Sorong, Papua Bar.","Kabupaten Sorong, Papua Bar.",PAPUA BARAT,,Indonesia,,-1.3516263,131.0797172,https://maps.google.com/?cid=0x0:0x12aa97ea8dec5973
supermarket,Minimarket,SAGA Supermarket  Dept. Store,"Jalan A. Yani, Ruko Kuda Laut, Klademak, Kecamatan Sorong Manoi, Kota Sorong, Papua Bar. 98414","Ruko Kuda Laut, Klademak, Kecamatan Sorong Manoi, Kota Sorong",PAPUA BARAT,98414.0,Indonesia,951322784.0,-0.8765248,131.2576755,https://maps.google.com/?cid=0x0:0x963043ed646a7e1e
supermarket,Pusat Perbelanjaan,Papua Supermarket  Dept. Store,"4869+F77 Bar, Sawagumu, Kec. Sorong Utara, Kota Sorong, Papua Bar. 98416","Sawagumu, Kec. Sorong Utara, Kota Sorong",PAPUA BARAT,98416.0,Indonesia,9513160123.0,-0.888831,131.3181847,https://maps.google.com/?cid=0x0:0x7b5f0926a74ad213
supermarket,Pusat Perbelanjaan,Saga Mart Remu,"samping intense fitness, Jl. Mambruk No.10, Remu Utara, Distrik Sorong, Kota Sorong, Papua Bar. 98416","Jl. Mambruk No.10, Remu Utara, Distrik Sorong, Kota Sorong",PAPUA BARAT,98416.0,Indonesia,,-0.8834556,131.2874923,https://maps.google.com/?cid=0x0:0x92c646f7dc2c33ee
supermarket,Kantor Perusahaan,Supermarket GOTA,"4868+2X3, Jl. Sungai Maruni, Sawagumu, Distrik Sorong Timur, Kota Sorong, Papua Bar. 98416","Jl. Sungai Maruni, Sawagumu, Distrik Sorong Timur, Kota Sorong",PAPUA BARAT,98416.0,Indonesia,,-0.8900646,131.3173945,https://maps.google.com/?cid=0x0:0xe80a2989cd86300
supermarket,Toko bahan makanan,HS Swalayan II,"478Q+X9Q, Bar, Remu Utara, Distrik Sorong, Kota Sorong, Papua Bar. 98412","Bar, Remu Utara, Distrik Sorong, Kota Sorong",PAPUA BARAT,98412.0,Indonesia,,-0.8825386,131.2884986,https://maps.google.com/?cid=0x0:0xef2ad6eba7dce152
supermarket,Pusat Perbelanjaan,SAGA BOSWESEN,"Jl. RA Kartini Jl. Boswesen No.33, Klasuur, Distrik Sorong Barat, Kota Sorong, Papua Bar. 98413","Klasuur, Distrik Sorong Barat, Kota Sorong",PAPUA BARAT,98413.0,Indonesia,82198859889.0,-0.8637467,131.2494116,https://maps.google.com/?cid=0x0:0xb095b8268ccda3e3
supermarket,Kios,Depot Air Fitriah,"2993+5GH, Klamasen, Distrik Mariat, Kabupaten Sorong, Papua Bar. 98416","Klamasen, Distrik Mariat, Kabupaten Sorong",PAPUA BARAT,98416.0,Indonesia,81344495879.0,-0.9820515,131.3538721,https://maps.google.com/?cid=0x0:0xfdea412ecca29c64
supermarket,supermarket,Papua Bar.,,Papua Bar.,PAPUA BARAT,,Indonesia,,-1.3361154,133.1747162,https://maps.google.com/?cid=0x0:0x5349c1f8c5c7cb62
supermarket,Pusat Perbelanjaan,Mega Mall Sorong,"Jalan Basuki Rahmat Klabulu, Malaimsimsa, Malaingkedi, Kec. Sorong Utara, Kota Sorong, Papua Bar. 98412","Malaimsimsa, Malaingkedi, Kec. Sorong Utara, Kota Sorong",PAPUA BARAT,98412.0,Indonesia,,-0.8873097,131.3012842,https://maps.google.com/?cid=0x0:0x364e52ce8985aa7
supermarket,Pasar,Pasar Remu Sorong,"Remu Sel., Kecamatan Sorong Manoi, Kota Sorong, Papua Bar. 98412","Kecamatan Sorong Manoi, Kota Sorong",PAPUA BARAT,98412.0,Indonesia,,-0.8883563,131.2854007,https://maps.google.com/?cid=0x0:0x36e14bf1265f0640
supermarket,Pujasera,Hangout Avenue Sorong,"Jl Sungai Maruni KM 10, Masuk No.23, Kota Sorong, Papua Bar. 98416","Masuk No.23, Kota Sorong",PAPUA BARAT,98416.0,Indonesia,82197698090.0,-0.8868107,131.3216004,https://maps.google.com/?cid=0x0:0x29c3ed1d6d1ac389
supermarket,Toko Video Game,Toko PLANET Notebook Dan Game,"4869+F8M, Jl. Sungai Maruni, Sawagumu, Kec. Sorong Utara, Kota Sorong, Papua Bar. 98416","Jl. Sungai Maruni, Sawagumu, Kec. Sorong Utara, Kota Sorong",PAPUA BARAT,98416.0,Indonesia,8114820101.0,-0.8887887,131.3182976,https://maps.google.com/?cid=0x0:0xc7f4842a323cd865
supermarket,Pusat Perbelanjaan,Mal Sorong,"479G+369, Klademak, Distrik Sorong, Kota Sorong, Papua Bar. 98412","Klademak, Distrik Sorong, Kota Sorong",PAPUA BARAT,98412.0,Indonesia,,-0.8823414,131.2755957,https://maps.google.com/?cid=0x0:0x4efad982776d0ca5
supermarket,supermarket,Papua Bar. 98413,"Klabala, Distrik Sorong Barat, Kota Sorong, Papua Bar.","Kota Sorong, Papua Bar.",PAPUA BARAT,,Indonesia,,-0.8669518,131.254029,https://maps.google.com/?cid=0x0:0x352e1f254d39ea2b
supermarket,Minimarket,SAGA Supermarket  Dept. Store,"Jalan A. Yani, Ruko Kuda Laut, Klademak, Kecamatan Sorong Manoi, Kota Sorong, Papua Bar. 98414","Ruko Kuda Laut, Klademak, Kecamatan Sorong Manoi, Kota Sorong",PAPUA BARAT,98414.0,Indonesia,951322784.0,-0.8765248,131.2576755,https://maps.google.com/?cid=0x0:0x963043ed646a7e1e
supermarket,Pusat Perbelanjaan,Papua Supermarket  Dept. Store,"4869+F77 Bar, Sawagumu, Kec. Sorong Utara, Kota Sorong, Papua Bar. 98416","Sawagumu, Kec. Sorong Utara, Kota Sorong",PAPUA BARAT,98416.0,Indonesia,9513160123.0,-0.888831,131.3181847,https://maps.google.com/?cid=0x0:0x7b5f0926a74ad213
supermarket,Pusat Perbelanjaan,Saga Mart Remu,"samping intense fitness, Jl. Mambruk No.10, Remu Utara, Distrik Sorong, Kota Sorong, Papua Bar. 98416","Jl. Mambruk No.10, Remu Utara, Distrik Sorong, Kota Sorong",PAPUA BARAT,98416.0,Indonesia,,-0.8834556,131.2874923,https://maps.google.com/?cid=0x0:0x92c646f7dc2c33ee
supermarket,Pusat Perbelanjaan,SAGA BOSWESEN,"Jl. RA Kartini Jl. Boswesen No.33, Klasuur, Distrik Sorong Barat, Kota Sorong, Papua Bar. 98413","Klasuur, Distrik Sorong Barat, Kota Sorong",PAPUA BARAT,98413.0,Indonesia,82198859889.0,-0.8637467,131.2494116,https://maps.google.com/?cid=0x0:0xb095b8268ccda3e3
supermarket,Pusat Perbelanjaan,Mega Mall Sorong,"Jalan Basuki Rahmat Klabulu, Malaimsimsa, Malaingkedi, Kec. Sorong Utara, Kota Sorong, Papua Bar. 98412","Malaimsimsa, Malaingkedi, Kec. Sorong Utara, Kota Sorong",PAPUA BARAT,98412.0,Indonesia,,-0.8873097,131.3012842,https://maps.google.com/?cid=0x0:0x364e52ce8985aa7
supermarket,Pusat Perbelanjaan,Kios Bella,"Jl. Pulau Sulawesi No.10, Kp. Baru, Distrik Sorong Barat, Kota Sorong, Papua Bar. 98411","Kp. Baru, Distrik Sorong Barat, Kota Sorong",PAPUA BARAT,98411.0,Indonesia,9513175942.0,-0.8672656,131.2545655,https://maps.google.com/?cid=0x0:0xe16810678b749a68
supermarket,Kantor Perusahaan,Supermarket GOTA,"4868+2X3, Jl. Sungai Maruni, Sawagumu, Distrik Sorong Timur, Kota Sorong, Papua Bar. 98416","Jl. Sungai Maruni, Sawagumu, Distrik Sorong Timur, Kota Sorong",PAPUA BARAT,98416.0,Indonesia,,-0.8900646,131.3173945,https://maps.google.com/?cid=0x0:0xe80a2989cd86300
supermarket,Supermarket Diskon,Zombie,"47J4+V33, Unnamed Road, Klabala, Distrik Sorong Barat, Kota Sorong, Papua Bar. 98411","Unnamed Road, Klabala, Distrik Sorong Barat, Kota Sorong",PAPUA BARAT,98411.0,Indonesia,,-0.8678713,131.2551757,https://maps.google.com/?cid=0x0:0x8806660e8e949080
supermarket,Pusat Perbelanjaan,Saga Aimas,"28VG+26V, Jl. Nangka, Malawili, Kec. Aimas, Kabupaten Sorong, Papua Bar. 98414","Jl. Nangka, Malawili, Kec. Aimas, Kabupaten Sorong",PAPUA BARAT,98414.0,Indonesia,81351816880.0,-0.9574598,131.3257559,https://maps.google.com/?cid=0x0:0x2ba45ddc0e9b2391
supermarket,Pusat Perbelanjaan,PARAGON SQUARE Mall  Hotel Sorong,"4874+4RH Paragon Square Mall, Jl. Basuki Rahmat Lt. 2, Sawagumu, Kec. Sorong Utara, Kota Sorong, Papua Bar. 98412","Jl. Basuki Rahmat Lt. 2, Sawagumu, Kec. Sorong Utara, Kota Sorong",PAPUA BARAT,98412.0,Indonesia,81247232214.0,-0.8871443,131.3071264,https://maps.google.com/?cid=0x0:0xd02481be48cb6e05
supermarket,Toko,Hidayat Kios,"Jl. Kalimantan No.56, Klabala, Distrik Sorong Barat, Kota Sorong, Papua Bar. 98411","Klabala, Distrik Sorong Barat, Kota Sorong",PAPUA BARAT,98411.0,Indonesia,85398930505.0,-0.8678398,131.2533224,https://maps.google.com/?cid=0x0:0x5ee206d74ffb57e0
supermarket,Pusat Perbelanjaan,Mal Sorong,"479G+369, Klademak, Distrik Sorong, Kota Sorong, Papua Bar. 98412","Klademak, Distrik Sorong, Kota Sorong",PAPUA BARAT,98412.0,Indonesia,,-0.8823414,131.2755957,https://maps.google.com/?cid=0x0:0x4efad982776d0ca5
supermarket,Toko,DelliMart,"Jl. Basuki Rahmat No.Km 9 5, Sawagumu, Kec. Sorong Utara, Kota Sorong, Papua Bar.","Kota Sorong, Papua Bar.",PAPUA BARAT,,Indonesia,,-0.8869909,131.307032,https://maps.google.com/?cid=0x0:0x971b2767ce3be933
supermarket,supermarket,Sorong,"Kota Sorong, Papua Bar.","Kota Sorong, Papua Bar.",PAPUA BARAT,,Indonesia,,-0.8761629,131.255828,https://maps.google.com/?cid=0x0:0xe32b512ec6c6786
supermarket,Minimarket,SAGA Supermarket  Dept. Store,"Jalan A. Yani, Ruko Kuda Laut, Klademak, Kecamatan Sorong Manoi, Kota Sorong, Papua Bar. 98414","Ruko Kuda Laut, Klademak, Kecamatan Sorong Manoi, Kota Sorong",PAPUA BARAT,98414.0,Indonesia,951322784.0,-0.8765248,131.2576755,https://maps.google.com/?cid=0x0:0x963043ed646a7e1e
supermarket,Pusat Perbelanjaan,Papua Supermarket  Dept. Store,"4869+F77 Bar, Sawagumu, Kec. Sorong Utara, Kota Sorong, Papua Bar. 98416","Sawagumu, Kec. Sorong Utara, Kota Sorong",PAPUA BARAT,98416.0,Indonesia,9513160123.0,-0.888831,131.3181847,https://maps.google.com/?cid=0x0:0x7b5f0926a74ad213
supermarket,Pusat Perbelanjaan,Robinson Supermarket,"479G+45M Bar, Klademak, Distrik Sorong, Kota Sorong, Papua Bar. 98412","Klademak, Distrik Sorong, Kota Sorong",PAPUA BARAT,98412.0,Indonesia,,-0.882151,131.2754362,https://maps.google.com/?cid=0x0:0x6ba59819db5f369
supermarket,Toko bahan makanan,Homi Supermarket,"478Q+W97, Jl. F Kalasuat, Remu Utara, Distrik Sorong, Kota Sorong, Papua Bar. 98412","Jl. F Kalasuat, Remu Utara, Distrik Sorong, Kota Sorong",PAPUA BARAT,98412.0,Indonesia,,-0.8827053,131.2884188,https://maps.google.com/?cid=0x0:0x9eed04e7f27afbd0
supermarket,Minimarket,Minimarket Mandala,"47J3+X3M, Jl. Sam Ratulangi, Klasuur, Distrik Sorong, Kota Sorong, Papua Bar. 98411","Jl. Sam Ratulangi, Klasuur, Distrik Sorong, Kota Sorong",PAPUA BARAT,98411.0,Indonesia,,-0.8675297,131.2526752,https://maps.google.com/?cid=0x0:0x7b3f61517b7f189d
supermarket,Pusat Perbelanjaan,Saga Mart Remu,"samping intense fitness, Jl. Mambruk No.10, Remu Utara, Distrik Sorong, Kota Sorong, Papua Bar. 98416","Jl. Mambruk No.10, Remu Utara, Distrik Sorong, Kota Sorong",PAPUA BARAT,98416.0,Indonesia,,-0.8834556,131.2874923,https://maps.google.com/?cid=0x0:0x92c646f7dc2c33ee
supermarket,Pusat Perbelanjaan,Mega Mall Sorong,"Jalan Basuki Rahmat Klabulu, Malaimsimsa, Malaingkedi, Kec. Sorong Utara, Kota Sorong, Papua Bar. 98412","Malaimsimsa, Malaingkedi, Kec. Sorong Utara, Kota Sorong",PAPUA BARAT,98412.0,Indonesia,,-0.8873097,131.3012842,https://maps.google.com/?cid=0x0:0x364e52ce8985aa7
supermarket,Toko Perlengkapan Rumah,TOP SENYUM,"Bar, Klabala, Distrik Sorong Barat, Kota Sorong, Papua Bar. 98411","Klabala, Distrik Sorong Barat, Kota Sorong",PAPUA BARAT,98411.0,Indonesia,,-0.8706011,131.2528802,https://maps.google.com/?cid=0x0:0xeaa1549416daed97
supermarket,Kantor Perusahaan,Supermarket GOTA,"4868+2X3, Jl. Sungai Maruni, Sawagumu, Distrik Sorong Timur, Kota Sorong, Papua Bar. 98416","Jl. Sungai Maruni, Sawagumu, Distrik Sorong Timur, Kota Sorong",PAPUA BARAT,98416.0,Indonesia,,-0.8900646,131.3173945,https://maps.google.com/?cid=0x0:0xe80a2989cd86300
supermarket,Pusat Perbelanjaan,RAMAYANA Mall Sorong,"Jl. Wahid Hasyim 220 A-B, Jakarta, Papua Bar. 10250",Jakarta,PAPUA BARAT,10250.0,Indonesia,951332505.0,-0.8820615,131.2755023,https://maps.google.com/?cid=0x0:0x595b97e0cac05b45
supermarket,Toko Swalayan,Toko Bone Indah TBW,"Jl. R.A. Kartini, Rufei, Distrik Sorong Barat, Kota Sorong, Papua Bar. 98411","Rufei, Distrik Sorong Barat, Kota Sorong",PAPUA BARAT,98411.0,Indonesia,81248464668.0,-0.8633317,131.2477568,https://maps.google.com/?cid=0x0:0x8f14aa82e145796e
supermarket,Toko Perlengkapan Rumah,Central Sorong,"-22, Jl. Ahmad Yani No.21, Klakublik, Sorong, Sorong City, West Papua 98412","Jl. Ahmad Yani No.21, Klakublik, Sorong, Sorong City",PAPUA BARAT,98412.0,Indonesia,81344260477.0,-0.8793464,131.2641001,https://maps.google.com/?cid=0x0:0x2efd17b9248dd5ca
supermarket,Pusat Perbelanjaan,Saga Aimas,"28VG+26V, Jl. Nangka, Malawili, Kec. Aimas, Kabupaten Sorong, Papua Bar. 98414","Jl. Nangka, Malawili, Kec. Aimas, Kabupaten Sorong",PAPUA BARAT,98414.0,Indonesia,81351816880.0,-0.9574598,131.3257559,https://maps.google.com/?cid=0x0:0x2ba45ddc0e9b2391
supermarket,supermarket,Papua Bar. 98416,Papua Bar.,Papua Bar.,PAPUA BARAT,,Indonesia,,-0.8883325,131.3510866,https://maps.google.com/?cid=0x0:0x7d4c82915eeb19ce
supermarket,Pusat Perbelanjaan,Papua Supermarket  Dept. Store,"4869+F77 Bar, Sawagumu, Kec. Sorong Utara, Kota Sorong, Papua Bar. 98416","Sawagumu, Kec. Sorong Utara, Kota Sorong",PAPUA BARAT,98416.0,Indonesia,9513160123.0,-0.888831,131.3181847,https://maps.google.com/?cid=0x0:0x7b5f0926a74ad213
supermarket,Kantor Perusahaan,Supermarket GOTA,"4868+2X3, Jl. Sungai Maruni, Sawagumu, Distrik Sorong Timur, Kota Sorong, Papua Bar. 98416","Jl. Sungai Maruni, Sawagumu, Distrik Sorong Timur, Kota Sorong",PAPUA BARAT,98416.0,Indonesia,,-0.8900646,131.3173945,https://maps.google.com/?cid=0x0:0xe80a2989cd86300
supermarket,Pusat Perbelanjaan,Saga Mart Remu,"samping intense fitness, Jl. Mambruk No.10, Remu Utara, Distrik Sorong, Kota Sorong, Papua Bar. 98416","Jl. Mambruk No.10, Remu Utara, Distrik Sorong, Kota Sorong",PAPUA BARAT,98416.0,Indonesia,,-0.8834556,131.2874923,https://maps.google.com/?cid=0x0:0x92c646f7dc2c33ee
supermarket,Minimarket,Minimarket 12,"Jl. A.M. Sangaji Gonof, Klasaman, Distrik Sorong Timur, Kota Sorong, Papua Bar. 98416","Klasaman, Distrik Sorong Timur, Kota Sorong",PAPUA BARAT,98416.0,Indonesia,81248227028.0,-0.9013356,131.3253828,https://maps.google.com/?cid=0x0:0xae334b95b9129ff2
supermarket,Minimarket,SAGA Supermarket  Dept. Store,"Jalan A. Yani, Ruko Kuda Laut, Klademak, Kecamatan Sorong Manoi, Kota Sorong, Papua Bar. 98414","Ruko Kuda Laut, Klademak, Kecamatan Sorong Manoi, Kota Sorong",PAPUA BARAT,98414.0,Indonesia,951322784.0,-0.8765248,131.2576755,https://maps.google.com/?cid=0x0:0x963043ed646a7e1e
supermarket,Toko bahan makanan,NEPA THON GROUP,"482X+V32, Klasaman, Distrik Sorong Timur, Kota Sorong, Papua Bar. 98416","Klasaman, Distrik Sorong Timur, Kota Sorong",PAPUA BARAT,98416.0,Indonesia,81248668687.0,-0.8978549,131.3476393,https://maps.google.com/?cid=0x0:0x196b63296e4e27de
supermarket,Kios,Toko Pangestu,"482J+QCH, Klasaman, Distrik Sorong Timur, Kota Sorong, Papua Bar. 98416","Klasaman, Distrik Sorong Timur, Kota Sorong",PAPUA BARAT,98416.0,Indonesia,,-0.8980627,131.3310968,https://maps.google.com/?cid=0x0:0x4812b3da484a9ad0
supermarket,Grosir Barang Kelontong,TOKO SINAR MUDA 2,"Jl. Malibela No.6, Klawalu, Distrik Sorong Timur, Kota Sorong, Papua Bar. 98416","Klawalu, Distrik Sorong Timur, Kota Sorong",PAPUA BARAT,98416.0,Indonesia,,-0.9000179,131.3193282,https://maps.google.com/?cid=0x0:0xb0a1b551b7aec69c
supermarket,Toko,SRC SUMBER AGUNG,"483J+QJW, Jl. Sorong - Makbon, Matalamagi, Kec. Makbon, Kota Sorong, Papua Bar. 98416","Jl. Sorong - Makbon, Matalamagi, Kec. Makbon, Kota Sorong",PAPUA BARAT,98416.0,Indonesia,85311515565.0,-0.8955013,131.3315677,https://maps.google.com/?cid=0x0:0xf042a100233f1eab
supermarket,Grosir,Toko Pratiwi,"38PG+H6M, Jl. Klasiban, Klamana, Distrik Sorong Timur, Kota Sorong, Papua Bar. 98416","Jl. Klasiban, Klamana, Distrik Sorong Timur, Kota Sorong",PAPUA BARAT,98416.0,Indonesia,,-0.9135321,131.3255624,https://maps.google.com/?cid=0x0:0x79017002eff2cb93
supermarket,Toko,Diory Mart,"Klawuyuk, Distrik Sorong Timur, Kota Sorong, Papua Bar. 98416","Distrik Sorong Timur, Kota Sorong",PAPUA BARAT,98416.0,Indonesia,951335757.0,-0.9011676,131.3227504,https://maps.google.com/?cid=0x0:0x66e0b37bca70963
supermarket,Toko umum,Toko Rizky Indah,"Jl. Sorong - Aimas, Klamana, Distrik Sorong Timur, Kota Sorong, Papua Bar. 98416","Klamana, Distrik Sorong Timur, Kota Sorong",PAPUA BARAT,98416.0,Indonesia,81248464668.0,-0.9121516,131.3307954,https://maps.google.com/?cid=0x0:0x78aa457ad600e381
supermarket,Toko Makanan,Easy Shop,"484H+7JV, Matalamagi, Kec. Sorong Utara, Kota Sorong, Papua Bar. 98416","Matalamagi, Kec. Sorong Utara, Kota Sorong",PAPUA BARAT,98416.0,Indonesia,,-0.8942528,131.3290588,https://maps.google.com/?cid=0x0:0xc40ab7de5487816d
