Category,Real Category,Business Name,Address,City,State,Postal Code,Country,Phone,Latitude,Longitude,Map Link
perumahan,perumahan,Papua Bar. 98457,"Kabupaten Sorong, Papua Bar.","Kabupaten Sorong, Papua Bar.",PAPUA BARAT,,Indonesia,,-1.0666951,131.5012792,https://maps.google.com/?cid=0x0:0x60164e450d5e6bd7
perumahan,Otoritas Perumahan,PERUMAHAN PEMDA KM. 24 KABUPATEN SORONG,"2977+V9F, Aimas, Kec. Aimas, Kabupaten Sorong, Papua Bar. 98415","Aimas, Kec. Aimas, Kabupaten Sorong",PAPUA BARAT,98415.0,Indonesia,,-0.98532,131.3634064,https://maps.google.com/?cid=0x0:0x2b14f9bf12be9501
perumahan,Komplek perumahan,Aimas Perumahan KPR Jl.sagu,"28VV+3CV, Aimas, Kec. Aimas, Kabupaten Sorong, Papua Bar. 98414","Aimas, Kec. Aimas, Kabupaten Sorong",PAPUA BARAT,98414.0,Indonesia,82198076120.0,-0.957256,131.343547,https://maps.google.com/?cid=0x0:0x9726bc905534e648
perumahan,Komplek perumahan,AIMAS REGENCI,"X9WQ+XMQ, Aimas, Kec. Aimas, Kabupaten Sorong, Papua Bar. 98415","Aimas, Kec. Aimas, Kabupaten Sorong",PAPUA BARAT,98415.0,Indonesia,,-1.0025481,131.3892239,https://maps.google.com/?cid=0x0:0xc4b0ed1cad52ee56
perumahan,Otoritas Perumahan,Perumahan Joannata Residence Aimas Dream,"Sorong - Klamono Kilo 21, Aimas, Kec. Aimas, Kabupaten Sorong, Papua Bar. 98414","Aimas, Kec. Aimas, Kabupaten Sorong",PAPUA BARAT,98414.0,Indonesia,81222801992.0,-0.9689377,131.3412019,https://maps.google.com/?cid=0x0:0x4f80bccd675a4391
perumahan,Komplek perumahan,ð»ðððð,"VFHR+45, Klamono, Distrik Klamono, Kabupaten Sorong, Papua Bar. 98457","Klamono, Distrik Klamono, Kabupaten Sorong",PAPUA BARAT,98457.0,Indonesia,,-1.1220796,131.4903823,https://maps.google.com/?cid=0x0:0x1e2c066fdff34044
perumahan,Komplek perumahan,Rumah HENGKI,"WF99+2MC, Klalomon, Distrik Klamono, Kabupaten Sorong, Papua Bar. 98457","Klalomon, Distrik Klamono, Kabupaten Sorong",PAPUA BARAT,98457.0,Indonesia,,-1.0824272,131.4691377,https://maps.google.com/?cid=0x0:0x8cab30f156682ce0
perumahan,Komplek perumahan,KPR CENRAWASIH GREEN PARK 1,"28PH+XP3, Malawili, Kec. Aimas, Kabupaten Sorong, Papua Bar. 98414","Malawili, Kec. Aimas, Kabupaten Sorong",PAPUA BARAT,98414.0,Indonesia,,-0.9626208,131.329288,https://maps.google.com/?cid=0x0:0x32bc2269675a6936
perumahan,Otoritas Perumahan,INTI RESIDENCE,"29CC+6X, Aimas, Kec. Aimas, Kabupaten Sorong, Papua Bar. 98414","Aimas, Kec. Aimas, Kabupaten Sorong",PAPUA BARAT,98414.0,Indonesia,,-0.9794957,131.3724273,https://maps.google.com/?cid=0x0:0xca7cf57b5d711e4a
perumahan,Komplek perumahan,Twentyfour City,"2987+5MG, Aimas, Kec. Aimas, Kabupaten Sorong, Papua Bar. 98415","Aimas, Kec. Aimas, Kabupaten Sorong",PAPUA BARAT,98415.0,Indonesia,,-0.984565,131.364209,https://maps.google.com/?cid=0x0:0xbde86ca7ff8af678
perumahan,Komplek perumahan,Perumahan Divisi I Klasafet,"WG7X+6X, Maladuk, Distrik Klamono, Kabupaten Sorong, Papua Bar.","Kabupaten Sorong, Papua Bar.",PAPUA BARAT,,Indonesia,,-1.0868925,131.5500456,https://maps.google.com/?cid=0x0:0xe83fe1f3e920a026
perumahan,Pembangunan Perumahan,Komplex Distrik Klamono (S.P.D) _ Rumah Dewika Klamono,"VF8G+VX, Klawana, Distrik Klamono, Kabupaten Sorong, Papua Bar. 98457","Klawana, Distrik Klamono, Kabupaten Sorong",PAPUA BARAT,98457.0,Indonesia,,-1.1328447,131.4774787,https://maps.google.com/?cid=0x0:0xf53f824735e052cc
perumahan,Kantor Perusahaan,AIMO PERMAI PT. SOMA GRAHA PERSADA,"293G+M74, Aimas, Kec. Aimas, Kabupaten Sorong, Papua Bar. 98415","Aimas, Kec. Aimas, Kabupaten Sorong",PAPUA BARAT,98415.0,Indonesia,85254353580.0,-0.9958501,131.3757077,https://maps.google.com/?cid=0x0:0xea74f2ab30627397
perumahan,Komplek perumahan,Negara Perempuan Bisi,"XCH5+C9R, Mariat Gn., Kec. Aimas, Kabupaten Sorong, Papua Bar.","Kabupaten Sorong, Papua Bar.",PAPUA BARAT,,Indonesia,,-1.0214016,131.4084214,https://maps.google.com/?cid=0x0:0x670b5ae4b88e8cee
perumahan,perumahan,Papua Bar. 98453,"Kabupaten Sorong, Papua Bar.","Kabupaten Sorong, Papua Bar.",PAPUA BARAT,,Indonesia,,-1.3400215,131.6410914,https://maps.google.com/?cid=0x0:0x3be69fb5df79c3fb
perumahan,perumahan,"Kampung Klamak, Distrik Beraur","Jl. Klawan No. O7, Distrik Beraur, Kabupaten Sorong, Papua Bar. Daya","Kabupaten Sorong, Papua Bar.",PAPUA BARAT,,Indonesia,,-1.282355,131.7019038,https://maps.google.com/?cid=0x0:0x684148772828a5f3
perumahan,Perhimpunan Pengembang Perumahan,"Kampung wensi, distrik beraur","PQ23+376, Wensi, Distrik Beraur, Kabupaten Sorong, Papua Bar.","Kabupaten Sorong, Papua Bar.",PAPUA BARAT,,Indonesia,,-1.2998452,131.7531421,https://maps.google.com/?cid=0x0:0x7c6d303abea1fbf6
perumahan,Perhimpunan Pengembang Perumahan,DESA BOTAIN,"GGGG+HWX, Hutan, Kec. Hutan, Kabupaten Sorong, Papua Bar. 98453","Hutan, Kec. Hutan, Kabupaten Sorong",PAPUA BARAT,98453.0,Indonesia,,-1.4735052,131.5273611,https://maps.google.com/?cid=0x0:0x663b468581d2c04c
perumahan,perumahan,Kampung Klasawon,"PQXV+QC6, Kaas, Distrik Beraur, Kabupaten Sorong, Papua Bar.","Kabupaten Sorong, Papua Bar.",PAPUA BARAT,,Indonesia,,-1.2505833,131.7935016,https://maps.google.com/?cid=0x0:0x616e010faca5bead
perumahan,Komplek perumahan,Mimpe,"HPP9+6F, Hutan, Kec. Hutan, Kabupaten Sorong, Papua Bar.","Kabupaten Sorong, Papua Bar.",PAPUA BARAT,,Indonesia,,-1.4144614,131.7187152,https://maps.google.com/?cid=0x0:0xc1115ba427f59f88
perumahan,Komplek perumahan,Kampung Kass,"PP4C+HW, Kaas, Distrik Beraur, Kabupaten Sorong, Papua Bar.","Kabupaten Sorong, Papua Bar.",PAPUA BARAT,,Indonesia,,-1.2935222,131.7222476,https://maps.google.com/?cid=0x0:0xb7e83ee39ccd3807
perumahan,Komplek perumahan,Wensi,"MQX2+RR7, Jalan lewi distrik, Klarion, Distrik Beraur, Kabupaten Sorong, Papua Bar.","Kabupaten Sorong, Papua Bar.",PAPUA BARAT,,Indonesia,,-1.300472,131.7520316,https://maps.google.com/?cid=0x0:0x4cce31e8f291d869
perumahan,perumahan,Distrik Klabot,"Kabupaten Sorong, Papua Bar.","Kabupaten Sorong, Papua Bar.",PAPUA BARAT,,Indonesia,,-1.3398522,131.7726302,https://maps.google.com/?cid=0x0:0xc080466b0abc7b60
perumahan,Komplek perumahan,PERUMAHAN DINKES KLABOT,"JRX4+RH, Indiwi, Distrik Klabot, Kabupaten Sorong, Papua Bar.","Kabupaten Sorong, Papua Bar.",PAPUA BARAT,,Indonesia,,-1.35035,131.806244,https://maps.google.com/?cid=0x0:0x342b8ea9bab0ea3b
perumahan,Komplek perumahan,Distrik klabot,"MQ6F+332, Klais, Distrik Klabot, Kabupaten Sorong, Papua Bar.","Kabupaten Sorong, Papua Bar.",PAPUA BARAT,,Indonesia,,-1.3398522,131.7726302,https://maps.google.com/?cid=0x0:0x5e78cf0b890f3953
perumahan,Komplek perumahan,Mimpe,"HPP9+6F, Hutan, Kec. Hutan, Kabupaten Sorong, Papua Bar.","Kabupaten Sorong, Papua Bar.",PAPUA BARAT,,Indonesia,,-1.4144614,131.7187152,https://maps.google.com/?cid=0x0:0xc1115ba427f59f88
perumahan,Komplek perumahan,Komplekx AJ,"GVGG+R9Q, Sayal, Distrik Seremuk, Kabupaten Sorong Selatan, Papua Bar. 98454","Sayal, Distrik Seremuk, Kabupaten Sorong Selatan",PAPUA BARAT,98454.0,Indonesia,81572822814.0,-1.4729133,131.8759782,https://maps.google.com/?cid=0x0:0x14d918a0add0d22f
perumahan,Pembangunan Perumahan,Distrik Buk,"MQ5F+X8J Buk, Klais, Distrik Klabot, Kabupaten Sorong, Papua Bar.","Kabupaten Sorong, Papua Bar.",PAPUA BARAT,,Indonesia,,-1.340029,131.7732713,https://maps.google.com/?cid=0x0:0x98e0ef06e4c99caa
perumahan,Komplek perumahan,Kampung Mlakhan,"MQ5F+7Q, Mimpe, Mlakhan, Kabupaten Sorong, Papua Bar.","Kabupaten Sorong, Papua Bar.",PAPUA BARAT,,Indonesia,,-1.3418125,131.7744375,https://maps.google.com/?cid=0x0:0xac55bb55932e5a10
perumahan,Komplek perumahan,Kampung Kotolo ( Sagaret Family ),"HWR5+2F3, Kampung Kotolo, Distrik Saifi, Kabupaten Sorong Selatan, Papua Bar.","Kabupaten Sorong Selatan, Papua Bar.",PAPUA BARAT,,Indonesia,,-1.4099955,131.9086686,https://maps.google.com/?cid=0x0:0xb910045d270546dc
perumahan,Komplek perumahan,Perumahan Pertamina Klademak 3B Sorong,"Jl. Tulip No.8, RT.004/RW.008, Kelurahan Kofkerbu, Distrik Sorong, Kota Sorong, Papua Bar. 98412","RT.004/RW.008, Kelurahan Kofkerbu, Distrik Sorong, Kota Sorong",PAPUA BARAT,98412.0,Indonesia,,-0.8807763,131.2768572,https://maps.google.com/?cid=0x0:0xe16c2d531adc05dc
perumahan,perumahan,Papua Bar. 98456,Papua Bar.,Papua Bar.,PAPUA BARAT,,Indonesia,,-1.2191286,131.8799408,https://maps.google.com/?cid=0x0:0x1193e0fa67947a8b
perumahan,Pembangunan Perumahan,Komplex Distrik Klamono (S.P.D) _ Rumah Dewika Klamono,"VF8G+VX, Klawana, Distrik Klamono, Kabupaten Sorong, Papua Bar. 98457","Klawana, Distrik Klamono, Kabupaten Sorong",PAPUA BARAT,98457.0,Indonesia,,-1.1328447,131.4774787,https://maps.google.com/?cid=0x0:0xf53f824735e052cc
perumahan,Kantor Hubungan Masyarakat,Klamono Olie,"Klamono Olie, Klasafet, Kabupaten Sorong, Papua Barat Daya, 98442","Klasafet, Kabupaten Sorong",PAPUA BARAT,98442.0,Indonesia,,-1.1246421,131.5015915,https://maps.google.com/?cid=0x0:0xe0cff1c8e98a8f77
perumahan,Perhimpunan Pengembang Perumahan,KAMPUNG MALASMILIY,"VFGM+JGX, Klamono, Distrik Klamono, Kabupaten Sorong, Papua Bar.","Kabupaten Sorong, Papua Bar.",PAPUA BARAT,,Indonesia,,-1.1233761,131.4838729,https://maps.google.com/?cid=0x0:0xe53258c7dcb99408
perumahan,Komplek perumahan,Kampung Klalin Mos,"VRFM+6M8, Mlabolo, Distrik Sawiat, Kabupaten Sorong Selatan, Papua Bar. 98456","Mlabolo, Distrik Sawiat, Kabupaten Sorong Selatan",PAPUA BARAT,98456.0,Indonesia,,-1.1269681,131.8342085,https://maps.google.com/?cid=0x0:0x47a1129e2b6a475
perumahan,perumahan,Klamono pt.hip,"WHP8+RX, Maladofok, Kec. Sayosa, Kabupaten Sorong, Papua Bar.","Kabupaten Sorong, Papua Bar.",PAPUA BARAT,,Indonesia,,-1.0629357,131.5674896,https://maps.google.com/?cid=0x0:0x546b2ddfa415c6fd
perumahan,perumahan,Igelmeidian,"VFGQ+G3R, Klamono, Distrik Klamono, Kabupaten Sorong, Papua Bar.","Kabupaten Sorong, Papua Bar.",PAPUA BARAT,,Indonesia,,-1.1236341,131.4876547,https://maps.google.com/?cid=0x0:0x105bded873cd7b38
perumahan,Komplek perumahan,Kampung Mlabolo,"VV4F+HQX, Mlabolo, Distrik Sawiat, Kabupaten Sorong Selatan, Papua Bar. 98456","Mlabolo, Distrik Sawiat, Kabupaten Sorong Selatan",PAPUA BARAT,98456.0,Indonesia,,-1.143506,131.8744778,https://maps.google.com/?cid=0x0:0x6bea1fa14304682
perumahan,Komplek perumahan,Rumah HENGKI,"WF99+2MC, Klalomon, Distrik Klamono, Kabupaten Sorong, Papua Bar. 98457","Klalomon, Distrik Klamono, Kabupaten Sorong",PAPUA BARAT,98457.0,Indonesia,,-1.0824272,131.4691377,https://maps.google.com/?cid=0x0:0x8cab30f156682ce0
perumahan,Komplek perumahan,Kampung Kamlin,"VV53+QM9, Mlabolo, Distrik Sawiat, Kabupaten Sorong Selatan, Papua Bar. 98456","Mlabolo, Distrik Sawiat, Kabupaten Sorong Selatan",PAPUA BARAT,98456.0,Indonesia,,-1.1405773,131.8542335,https://maps.google.com/?cid=0x0:0x1c389744a2116ebb
perumahan,Perhimpunan Pengembang Perumahan,Kampung kuari,"VFHQ+38Q, Klamono, Distrik Klamono, Kabupaten Sorong, Papua Bar.","Kabupaten Sorong, Papua Bar.",PAPUA BARAT,,Indonesia,,-1.1222877,131.488359,https://maps.google.com/?cid=0x0:0x26d37fa342d6fdb3
perumahan,Pembangunan Perumahan,KAMPUNG KALAGEME,"VFHQ+38Q, Klamono, Distrik Klamono, Kabupaten Sorong, Papua Bar. 98457","Klamono, Distrik Klamono, Kabupaten Sorong",PAPUA BARAT,98457.0,Indonesia,,-1.1222877,131.488359,https://maps.google.com/?cid=0x0:0xdbe99690688d2f40
perumahan,Komplek perumahan,Kampung Wenslolo,"QWVX+FV3, Unnamed Road, Wenslolo, Distrik Sawiat, Kabupaten Sorong Selatan, Papua Bar. 98456","Unnamed Road, Wenslolo, Distrik Sawiat, Kabupaten Sorong Selatan",PAPUA BARAT,98456.0,Indonesia,,-1.2063534,131.9496635,https://maps.google.com/?cid=0x0:0x92d045cabe501d12
perumahan,Komplek perumahan,Kampung Saluk,"WQ8V+8CJ, Saluk, Kec. Sayosa, Kabupaten Sorong, Papua Bar.","Kabupaten Sorong, Papua Bar.",PAPUA BARAT,,Indonesia,,-1.0841569,131.7935288,https://maps.google.com/?cid=0x0:0xc6210311576ea8d3
perumahan,perumahan,Distrik Klaso,"Kabupaten Sorong, Papua Bar.","Kabupaten Sorong, Papua Bar.",PAPUA BARAT,,Indonesia,,-0.760926,131.7815518,https://maps.google.com/?cid=0x0:0xffc7826f232f6dfa
perumahan,Pembangunan Perumahan,"Kampung Miskum, Distrik Klaso (Klabasi) Kabupaten Sorong","6V6J+32, Selekobo, Sorong, Kabupaten Sorong, Papua Bar.","Kabupaten Sorong, Papua Bar.",PAPUA BARAT,,Indonesia,,-0.7878928,131.8796977,https://maps.google.com/?cid=0x0:0x15565434ec8ed3c3
perumahan,Pembangunan Perumahan,Klabasi,"6V6H+9R, Siwis, Miskum, Kabupaten Sorong, Papua Bar. 98472","Siwis, Miskum, Kabupaten Sorong",PAPUA BARAT,98472.0,Indonesia,,-0.7890569,131.8795996,https://maps.google.com/?cid=0x0:0x1ddacd5b0032cc54
perumahan,Pembangunan Perumahan,Rumah Nakes,"6R2J+86, Siwis, Distrik Klaso, Kabupaten Sorong, Papua Bar.","Kabupaten Sorong, Papua Bar.",PAPUA BARAT,,Indonesia,,-0.7991956,131.830609,https://maps.google.com/?cid=0x0:0xf1919f67d416c599
perumahan,Pembangunan Perumahan,"Kampung Miskum, Distrik Klaso (Klabasi) Kab. Sorong","8W82+RW2, Miskum, Distrik Klaso, Kabupaten Sorong, Papua Bar.","Kabupaten Sorong, Papua Bar.",PAPUA BARAT,,Indonesia,,-0.6829753,131.9022792,https://maps.google.com/?cid=0x0:0xf688d9d0f5d4827b
perumahan,Komplek perumahan,Kampung Ramah Mamalia Klalik,"5RM5+665, Siwis, Distrik Klaso, Kabupaten Sorong, Papua Bar.","Kabupaten Sorong, Papua Bar.",PAPUA BARAT,,Indonesia,,-0.8169966,131.8080999,https://maps.google.com/?cid=0x0:0x2f73c78fca53e2fb
perumahan,Komplek perumahan,"Kampung Selekobo, Distrik Saengkeduk","6WRH+RJ, Selekobo, Distrik Klaso, Kabupaten Sorong, Papua Bar.","Kabupaten Sorong, Papua Bar.",PAPUA BARAT,,Indonesia,,-0.7579923,131.9290832,https://maps.google.com/?cid=0x0:0x221cd38b16373659
perumahan,perumahan,Akom,"8WG6+53 AKOM SONA MERA, Mega, Moraid, Kabupaten Sorong, Papua Bar.","Kabupaten Sorong, Papua Bar.",PAPUA BARAT,,Indonesia,,-0.6767173,131.9135714,https://maps.google.com/?cid=0x0:0xafa0399bc4564064
perumahan,perumahan,Kompleks BUTON,"8WX5+FM, Kwade, Moraid, Kabupaten Sorong, Papua Bar.","Kabupaten Sorong, Papua Bar.",PAPUA BARAT,,Indonesia,,-0.6512961,131.9091668,https://maps.google.com/?cid=0x0:0x731e70a9f08ed17b
perumahan,Komplek perumahan,Kampung malaworsai,"8WGJ+GX, Mega, Moraid, Kabupaten Sorong, Papua Bar.","Kabupaten Sorong, Papua Bar.",PAPUA BARAT,,Indonesia,,-0.6737182,131.9324964,https://maps.google.com/?cid=0x0:0x2b79d51d30d660d5
perumahan,Komplek perumahan,Kampung Saengkeduk,"62M5+VHJ, Sengkeduk, Kabupaten Sorong, Papua Bar.","Kabupaten Sorong, Papua Bar.",PAPUA BARAT,,Indonesia,,-0.7652889,132.0088792,https://maps.google.com/?cid=0x0:0x19221ebd9f1d38f8
perumahan,Otoritas Perumahan,KPR Cendrawasih Green Park II,"KPR Cendrawasih Jl. Intimpura No.2, Klasuluk, Distrik Mariat, Kabupaten Sorong, Papua Bar. 98414","Klasuluk, Distrik Mariat, Kabupaten Sorong",PAPUA BARAT,98414.0,Indonesia,85344136166.0,-0.9956074,131.3226158,https://maps.google.com/?cid=0x0:0x35ba1499df7d40fd
perumahan,Komplek perumahan,Distrik moraid,"8V7G+CWM, Kabupaten Sorong, Papua Bar.","Kabupaten Sorong, Papua Bar.",PAPUA BARAT,,Indonesia,,-0.68641,131.877304,https://maps.google.com/?cid=0x0:0xff77deb4c132656
perumahan,Perhimpunan Pengembang Perumahan,Jlr SAMPEL,"8WP3+QPX, Mega, Moraid, Kabupaten Sorong, Papua Bar. 98472","Mega, Moraid, Kabupaten Sorong",PAPUA BARAT,98472.0,Indonesia,,-0.6635526,131.9043509,https://maps.google.com/?cid=0x0:0x8b12c1373d5f1020
perumahan,perumahan,Distrik Klawak,"Kabupaten Sorong, Papua Bar.","Kabupaten Sorong, Papua Bar.",PAPUA BARAT,,Indonesia,,-1.1756003,131.7703046,https://maps.google.com/?cid=0x0:0xa4ffc415fb4dcb3c
perumahan,Komplek perumahan,Aulo,"RV43+WH, Sas, Distrik Klawak, Kabupaten Sorong, Papua Bar.","Kabupaten Sorong, Papua Bar.",PAPUA BARAT,,Indonesia,,-1.1927173,131.8539824,https://maps.google.com/?cid=0x0:0x73ecc84239fea81a
perumahan,perumahan,Kampung Klasawon,"PQXV+QC6, Kaas, Distrik Beraur, Kabupaten Sorong, Papua Bar.","Kabupaten Sorong, Papua Bar.",PAPUA BARAT,,Indonesia,,-1.2505833,131.7935016,https://maps.google.com/?cid=0x0:0x616e010faca5bead
perumahan,Komplek perumahan,Kampung Saluk,"WQ8V+8CJ, Saluk, Kec. Sayosa, Kabupaten Sorong, Papua Bar.","Kabupaten Sorong, Papua Bar.",PAPUA BARAT,,Indonesia,,-1.0841569,131.7935288,https://maps.google.com/?cid=0x0:0xc6210311576ea8d3
perumahan,Komplek perumahan,Kampung Klamintu,"WMFX+G4V, Saluk, Kec. Sayosa, Kabupaten Sorong, Papua Bar. 98471","Saluk, Kec. Sayosa, Kabupaten Sorong",PAPUA BARAT,98471.0,Indonesia,,-1.0761342,131.6977967,https://maps.google.com/?cid=0x0:0xcc506089ea1fa9c9
perumahan,Komplek perumahan,Mlabolo Kabupaten Sorong Selatan,"VV4F+3H, Mlabolo, Distrik Sawiat, Kabupaten Sorong Selatan, Papua Bar.","Kabupaten Sorong Selatan, Papua Bar.",PAPUA BARAT,,Indonesia,,-1.144761,131.8736437,https://maps.google.com/?cid=0x0:0x1186dc393c25efbd
perumahan,Komplek perumahan,Kofalit,"RV7G+6J, Kofalit, Distrik Sawiat, Kabupaten Sorong Selatan, Papua Bar.","Kabupaten Sorong Selatan, Papua Bar.",PAPUA BARAT,,Indonesia,,-1.1868824,131.8765522,https://maps.google.com/?cid=0x0:0x67a2c4ed36fb715a
perumahan,Komplek perumahan,Kampung Mlabolo,"VV4F+HQX, Mlabolo, Distrik Sawiat, Kabupaten Sorong Selatan, Papua Bar. 98456","Mlabolo, Distrik Sawiat, Kabupaten Sorong Selatan",PAPUA BARAT,98456.0,Indonesia,,-1.143506,131.8744778,https://maps.google.com/?cid=0x0:0x6bea1fa14304682
perumahan,Rumah wisata,Kampung Klafelem,"RMVW+39, Klamne, Kabupaten Sorong, Papua Bar.","Kabupaten Sorong, Papua Bar.",PAPUA BARAT,,Indonesia,,-1.15732,131.6959631,https://maps.google.com/?cid=0x0:0xfd0828edd5d8d21f
perumahan,perumahan,"Kampung Klamak, Distrik Beraur","Jl. Klawan No. O7, Distrik Beraur, Kabupaten Sorong, Papua Bar. Daya","Kabupaten Sorong, Papua Bar.",PAPUA BARAT,,Indonesia,,-1.282355,131.7019038,https://maps.google.com/?cid=0x0:0x684148772828a5f3
perumahan,Komplek perumahan,Kampung Klalin Mos,"VRFM+6M8, Mlabolo, Distrik Sawiat, Kabupaten Sorong Selatan, Papua Bar. 98456","Mlabolo, Distrik Sawiat, Kabupaten Sorong Selatan",PAPUA BARAT,98456.0,Indonesia,,-1.1269681,131.8342085,https://maps.google.com/?cid=0x0:0x47a1129e2b6a475
perumahan,Komplek perumahan,kpn kwari,"WQJ5+8RJ, Saluk, Kec. Sayosa, Kabupaten Sorong, Papua Bar. 98471","Saluk, Kec. Sayosa, Kabupaten Sorong",PAPUA BARAT,98471.0,Indonesia,,-1.069169,131.759525,https://maps.google.com/?cid=0x0:0xb82bb1e6557b9106
perumahan,Komplek perumahan,ALLZET,"H297+94R, Kohoin, Kec. Teminabuan, Kabupaten Sorong Selatan, Papua Bar. 98454","Kohoin, Kec. Teminabuan, Kabupaten Sorong Selatan",PAPUA BARAT,98454.0,Indonesia,,-1.4315166,132.0127581,https://maps.google.com/?cid=0x0:0x1888a9d9de8bdbba
perumahan,Perhimpunan Pengembang Perumahan,"Kampung Sasder, Distrik Sawiat - Sorong Selatan","PWPJ+9J, Wen, Distrik Sawiat, Kabupaten Sorong Selatan, Papua Bar. 98456","Wen, Distrik Sawiat, Kabupaten Sorong Selatan",PAPUA BARAT,98456.0,Indonesia,,-1.2640511,131.9315955,https://maps.google.com/?cid=0x0:0x192da4bcc93b32e5
perumahan,perumahan,Distrik Klayili,"Kabupaten Sorong, Papua Bar.","Kabupaten Sorong, Papua Bar.",PAPUA BARAT,,Indonesia,,-0.8493892,131.7094201,https://maps.google.com/?cid=0x0:0x2d5da8d3e85a5670
perumahan,Pembangunan Perumahan,KAMPUNG KLAYILI,"3HH7+34J, JL, Kuadas, Distrik Klayili, Kabupaten Sorong, Papua Bar. 98471","JL, Kuadas, Distrik Klayili, Kabupaten Sorong",PAPUA BARAT,98471.0,Indonesia,,-0.9222942,131.562766,https://maps.google.com/?cid=0x0:0xb577df782ccfdd32
perumahan,Komplek perumahan,Kali kalaga,"XFVM+Q8C, Malalilis, Distrik Klayili, Kabupaten Sorong, Papua Bar.","Kabupaten Sorong, Papua Bar.",PAPUA BARAT,,Indonesia,,-1.0055672,131.4832807,https://maps.google.com/?cid=0x0:0x8140f303317da48a
perumahan,Pembangunan Perumahan,Perumahan KPR polisi KM 10,"487C+J53, jln malinda lorog 2, Jl. Kpr Polisi No.Km 10, Sawagumu, Kec. Sorong Utara, Kota Sorong, Papua Bar. 98416","jln malinda lorog 2, Jl. Kpr Polisi No.Km 10, Sawagumu, Kec. Sorong Utara, Kota Sorong",PAPUA BARAT,98416.0,Indonesia,,-0.8859939,131.3196924,https://maps.google.com/?cid=0x0:0x2f0551b37ba785f1
perumahan,Pembangunan Perumahan,Klabasi,"6V6H+9R, Siwis, Miskum, Kabupaten Sorong, Papua Bar. 98472","Siwis, Miskum, Kabupaten Sorong",PAPUA BARAT,98472.0,Indonesia,,-0.7890569,131.8795996,https://maps.google.com/?cid=0x0:0x1ddacd5b0032cc54
perumahan,Perhimpunan Pengembang Perumahan,Kampung malasaga,"4PX6+V2, Malakobutuk, Distrik Klayili, Kabupaten Sorong, Papua Bar.","Kabupaten Sorong, Papua Bar.",PAPUA BARAT,,Indonesia,,-0.850264,131.710112,https://maps.google.com/?cid=0x0:0xadaacb01fb7529a7
perumahan,Komplek perumahan,KIKHY MCI,"Perum BPJS, Jl. Sadewa II No.blok A, Klasaman, Distrik Sorong Timur, Kota Sorong, Papua Bar. 98416","Jl. Sadewa II No.blok A, Klasaman, Distrik Sorong Timur, Kota Sorong",PAPUA BARAT,98416.0,Indonesia,81344478323.0,-0.899055,131.3356515,https://maps.google.com/?cid=0x0:0x8cbb097e341347c3
perumahan,Komplek perumahan,Kampung Ramah Mamalia Klalik,"5RM5+665, Siwis, Distrik Klaso, Kabupaten Sorong, Papua Bar.","Kabupaten Sorong, Papua Bar.",PAPUA BARAT,,Indonesia,,-0.8169966,131.8080999,https://maps.google.com/?cid=0x0:0x2f73c78fca53e2fb
perumahan,Pembangunan Perumahan,Kampung kabanmolo,"2CR4+FXC, Maibo, Kec. Aimas, Kabupaten Sorong, Papua Bar. 98419","Maibo, Kec. Aimas, Kabupaten Sorong",PAPUA BARAT,98419.0,Indonesia,,-0.9588132,131.4073849,https://maps.google.com/?cid=0x0:0x1db585f011db3e7d
perumahan,Komplek perumahan,Southwest Pada,"3G46+FGR, Malalilis, Distrik Klayili, Kabupaten Sorong, Papua Bar.","Kabupaten Sorong, Papua Bar.",PAPUA BARAT,,Indonesia,,-0.9437535,131.5112776,https://maps.google.com/?cid=0x0:0x986180214ea0cc1e
perumahan,perumahan,Kec. Makbon,"Kabupaten Sorong, Papua Bar.","Kabupaten Sorong, Papua Bar.",PAPUA BARAT,,Indonesia,,-0.7584809,131.586328,https://maps.google.com/?cid=0x0:0x4d3844fe7f245ffc
perumahan,Komplek perumahan,kampung malagisih distrik makbon,"Jl. Sorong - Makbon, Batu Lobang, Kec. Makbon, Kabupaten Sorong, Papua Bar.","Kabupaten Sorong, Papua Bar.",PAPUA BARAT,,Indonesia,,-0.7995278,131.4284057,https://maps.google.com/?cid=0x0:0xbb3a18c2f5b7514
perumahan,Komplek perumahan,Makbon,"484P+F3R, Giwu, Distrik Sorong Timur, Kota Sorong, Papua Bar. 98416","Giwu, Distrik Sorong Timur, Kota Sorong",PAPUA BARAT,98416.0,Indonesia,,-0.8937635,131.3351355,https://maps.google.com/?cid=0x0:0x2a9a766a870af119
perumahan,Komplek perumahan,kampung kalasbon,"Jl. Sorong - Tambrauw, Malaumkarta, Kec. Makbon, Kabupaten Sorong, Papua Bar. 98471","Malaumkarta, Kec. Makbon, Kabupaten Sorong",PAPUA BARAT,98471.0,Indonesia,,-0.7677927,131.5567532,https://maps.google.com/?cid=0x0:0xf8b9adb853763649
perumahan,perumahan,Rumah keluarga Wally/Paa,"7G3Q+34R, Makbon, Kec. Makbon, Kabupaten Sorong, Papua Bar.","Kabupaten Sorong, Papua Bar.",PAPUA BARAT,,Indonesia,,-0.7472687,131.5377728,https://maps.google.com/?cid=0x0:0x95fdec6c520d19e1
perumahan,Komplek perumahan,rumah orang,"7M4M+J9, Asbaken, Kec. Makbon, Kabupaten Sorong, Papua Bar.","Kabupaten Sorong, Papua Bar.",PAPUA BARAT,,Indonesia,,-0.7433815,131.6833882,https://maps.google.com/?cid=0x0:0x99a02312c6c5d924
perumahan,Komplek perumahan,Kampung makbon,"49Q9+8C4, Jl. Sorong - Makbon, Giwu, Distrik Sorong Timur, Kota Sorong, Papua Bar.","Kota Sorong, Papua Bar.",PAPUA BARAT,,Indonesia,,-0.8617279,131.3685826,https://maps.google.com/?cid=0x0:0x1b61676fd39da761
perumahan,Komplek perumahan,Kampung kuadas,"6GJP+C5H, Kuadas, Kec. Makbon, Kabupaten Sorong, Papua Bar. 98471","Kuadas, Kec. Makbon, Kabupaten Sorong",PAPUA BARAT,98471.0,Indonesia,,-0.7690655,131.5351143,https://maps.google.com/?cid=0x0:0x421f037f1bc087af
perumahan,Pembangunan Perumahan,Kompleks Way,"484M+WHP, Jalan, Matalamagi, Makbon, Sorong Regency, West Papua 98416","Jalan, Matalamagi, Makbon, Sorong Regency",PAPUA BARAT,98416.0,Indonesia,,-0.8926638,131.3339411,https://maps.google.com/?cid=0x0:0x80008afaea5a1df8
perumahan,Komplek perumahan,Rumah Riki semunya,"Howait, Jl. Trans Papua Barat, Asbaken, Kec. Makbon, Kabupaten Sorong, Papua Bar.","Kabupaten Sorong, Papua Bar.",PAPUA BARAT,,Indonesia,,-0.7683646,131.7008348,https://maps.google.com/?cid=0x0:0x1d4b12fbe956ea34
perumahan,perumahan,Nardo,"48FM+FV9, Jl. Sorong - Makbon, Matalamagi, Kec. Sorong Utara, Kota Sorong, Papua Bar. 98416","Jl. Sorong - Makbon, Matalamagi, Kec. Sorong Utara, Kota Sorong",PAPUA BARAT,98416.0,Indonesia,,-0.8763337,131.3347252,https://maps.google.com/?cid=0x0:0x858580bf84bb52b
perumahan,Pembangunan Perumahan,Kampung kabanmolo,"2CR4+FXC, Maibo, Kec. Aimas, Kabupaten Sorong, Papua Bar. 98419","Maibo, Kec. Aimas, Kabupaten Sorong",PAPUA BARAT,98419.0,Indonesia,,-0.9588132,131.4073849,https://maps.google.com/?cid=0x0:0x1db585f011db3e7d
perumahan,Pembangunan Perumahan,KAMPUNG KLAYILI,"3HH7+34J, JL, Kuadas, Distrik Klayili, Kabupaten Sorong, Papua Bar. 98471","JL, Kuadas, Distrik Klayili, Kabupaten Sorong",PAPUA BARAT,98471.0,Indonesia,,-0.9222942,131.562766,https://maps.google.com/?cid=0x0:0xb577df782ccfdd32
perumahan,Pembangunan Perumahan,Perumahan KPR polisi KM 10,"487C+J53, jln malinda lorog 2, Jl. Kpr Polisi No.Km 10, Sawagumu, Kec. Sorong Utara, Kota Sorong, Papua Bar. 98416","jln malinda lorog 2, Jl. Kpr Polisi No.Km 10, Sawagumu, Kec. Sorong Utara, Kota Sorong",PAPUA BARAT,98416.0,Indonesia,,-0.8859939,131.3196924,https://maps.google.com/?cid=0x0:0x2f0551b37ba785f1
perumahan,perumahan,Papua Bar. 98457,"Kabupaten Sorong, Papua Bar.","Kabupaten Sorong, Papua Bar.",PAPUA BARAT,,Indonesia,,-1.0666951,131.5012792,https://maps.google.com/?cid=0x0:0x60164e450d5e6bd7
perumahan,Komplek perumahan,Rumah HENGKI,"WF99+2MC, Klalomon, Distrik Klamono, Kabupaten Sorong, Papua Bar. 98457","Klalomon, Distrik Klamono, Kabupaten Sorong",PAPUA BARAT,98457.0,Indonesia,,-1.0824272,131.4691377,https://maps.google.com/?cid=0x0:0x8cab30f156682ce0
perumahan,Komplek perumahan,ð»ðððð,"VFHR+45, Klamono, Distrik Klamono, Kabupaten Sorong, Papua Bar. 98457","Klamono, Distrik Klamono, Kabupaten Sorong",PAPUA BARAT,98457.0,Indonesia,,-1.1220796,131.4903823,https://maps.google.com/?cid=0x0:0x1e2c066fdff34044
perumahan,Pembangunan Perumahan,Komplex Distrik Klamono (S.P.D) _ Rumah Dewika Klamono,"VF8G+VX, Klawana, Distrik Klamono, Kabupaten Sorong, Papua Bar. 98457","Klawana, Distrik Klamono, Kabupaten Sorong",PAPUA BARAT,98457.0,Indonesia,,-1.1328447,131.4774787,https://maps.google.com/?cid=0x0:0xf53f824735e052cc
perumahan,Komplek perumahan,Perumahan Divisi I Klasafet,"WG7X+6X, Maladuk, Distrik Klamono, Kabupaten Sorong, Papua Bar.","Kabupaten Sorong, Papua Bar.",PAPUA BARAT,,Indonesia,,-1.0868925,131.5500456,https://maps.google.com/?cid=0x0:0xe83fe1f3e920a026
perumahan,Komplek perumahan,H.Manise,"XC5C+89C, Klaben, Distrik Mariat, Kabupaten Sorong, Papua Bar.","Kabupaten Sorong, Papua Bar.",PAPUA BARAT,,Indonesia,,-1.0416903,131.4209053,https://maps.google.com/?cid=0x0:0xc5f87ed88625c356
perumahan,Komplek perumahan,Rumh tinggal,"VF55+Q28, Wonosari, Distrik Klamono, Kabupaten Sorong, Papua Bar. 98451","Wonosari, Distrik Klamono, Kabupaten Sorong",PAPUA BARAT,98451.0,Indonesia,,-1.1405867,131.4575811,https://maps.google.com/?cid=0x0:0x7fa863b84770c911
perumahan,Otoritas Perumahan,PERUMAHAN PEMDA KM. 24 KABUPATEN SORONG,"2977+V9F, Aimas, Kec. Aimas, Kabupaten Sorong, Papua Bar. 98415","Aimas, Kec. Aimas, Kabupaten Sorong",PAPUA BARAT,98415.0,Indonesia,,-0.98532,131.3634064,https://maps.google.com/?cid=0x0:0x2b14f9bf12be9501
perumahan,Perhimpunan Pengembang Perumahan,KAMPUNG MALASMILIY,"VFGM+JGX, Klamono, Distrik Klamono, Kabupaten Sorong, Papua Bar.","Kabupaten Sorong, Papua Bar.",PAPUA BARAT,,Indonesia,,-1.1233761,131.4838729,https://maps.google.com/?cid=0x0:0xe53258c7dcb99408
perumahan,Pembangunan Perumahan,Kampung gisim darat,"XGCJ+FH, Maladofok, Kec. Sayosa, Kabupaten Sorong, Papua Bar.","Kabupaten Sorong, Papua Bar.",PAPUA BARAT,,Indonesia,,-1.028858,131.531441,https://maps.google.com/?cid=0x0:0x181b29173a0a8b8d
perumahan,Pembangunan Perumahan,PERUMAHAN AIMO,"295C+PR8, Jl. Klamono - Kambuaya, Klamasen, Distrik Mariat, Kabupaten Sorong, Papua Bar. 98415","Jl. Klamono - Kambuaya, Klamasen, Distrik Mariat, Kabupaten Sorong",PAPUA BARAT,98415.0,Indonesia,,-0.9907181,131.3720676,https://maps.google.com/?cid=0x0:0xfe272d143dfbf49
perumahan,Komplek perumahan,Kampung FLOBAMORA,"X96P+7MG, Klaben, Distrik Mariat, Kabupaten Sorong, Papua Bar.","Kabupaten Sorong, Papua Bar.",PAPUA BARAT,,Indonesia,,-1.0393072,131.3867034,https://maps.google.com/?cid=0x0:0xe79bc9ab6f17e28b
perumahan,perumahan,Rumah singgah Bapak AKW,"Klaben, Distrik Mariat, Kabupaten Sorong, Papua Bar.","Kabupaten Sorong, Papua Bar.",PAPUA BARAT,,Indonesia,,-1.0238818,131.3883174,https://maps.google.com/?cid=0x0:0x851121f68e931efb
perumahan,Perhimpunan Pengembang Perumahan,Rumah lama,"WH6G+RQ, Maladofok, Kec. Sayosa, Kabupaten Sorong, Papua Bar.","Kabupaten Sorong, Papua Bar.",PAPUA BARAT,,Indonesia,,-1.0879858,131.5769447,https://maps.google.com/?cid=0x0:0x799ab4ca15888972
perumahan,perumahan,Papua Bar. 98472,"Kabupaten Sorong, Papua Bar.","Kabupaten Sorong, Papua Bar.",PAPUA BARAT,,Indonesia,,-0.8437569,131.9989718,https://maps.google.com/?cid=0x0:0x94d7894d7b2d29e5
perumahan,perumahan,Kompleks BUTON,"8WX5+FM, Kwade, Moraid, Kabupaten Sorong, Papua Bar.","Kabupaten Sorong, Papua Bar.",PAPUA BARAT,,Indonesia,,-0.6512961,131.9091668,https://maps.google.com/?cid=0x0:0x731e70a9f08ed17b
perumahan,Komplek perumahan,Kampung Klaos,"342H+C25, Jl. Kampung, Klaos, Maudus, Kabupaten Sorong, Papua Bar.","Kabupaten Sorong, Papua Bar.",PAPUA BARAT,,Indonesia,,-0.9489964,132.127625,https://maps.google.com/?cid=0x0:0xca0c8d07da8012d4
perumahan,Pembangunan Perumahan,"Kampung Miskum, Distrik Klaso (Klabasi) Kabupaten Sorong","6V6J+32, Selekobo, Sorong, Kabupaten Sorong, Papua Bar.","Kabupaten Sorong, Papua Bar.",PAPUA BARAT,,Indonesia,,-0.7878928,131.8796977,https://maps.google.com/?cid=0x0:0x15565434ec8ed3c3
perumahan,Perhimpunan Pengembang Perumahan,KAMPUNG KLAKAK,"3W6W+QV, Klatim, Maudus, Kabupaten Sorong, Papua Bar.","Kabupaten Sorong, Papua Bar.",PAPUA BARAT,,Indonesia,,-0.9381207,131.9472167,https://maps.google.com/?cid=0x0:0xc6423d9222b4ce6a
perumahan,Pembangunan Perumahan,Rumah Nakes,"6R2J+86, Siwis, Distrik Klaso, Kabupaten Sorong, Papua Bar.","Kabupaten Sorong, Papua Bar.",PAPUA BARAT,,Indonesia,,-0.7991956,131.830609,https://maps.google.com/?cid=0x0:0xf1919f67d416c599
perumahan,Pembangunan Perumahan,"Kampung Miskum, Distrik Klaso (Klabasi) Kab. Sorong","8W82+RW2, Miskum, Distrik Klaso, Kabupaten Sorong, Papua Bar.","Kabupaten Sorong, Papua Bar.",PAPUA BARAT,,Indonesia,,-0.6829753,131.9022792,https://maps.google.com/?cid=0x0:0xf688d9d0f5d4827b
perumahan,perumahan,Akom,"8WG6+53 AKOM SONA MERA, Mega, Moraid, Kabupaten Sorong, Papua Bar.","Kabupaten Sorong, Papua Bar.",PAPUA BARAT,,Indonesia,,-0.6767173,131.9135714,https://maps.google.com/?cid=0x0:0xafa0399bc4564064
perumahan,Sekolah Dasar,Desa bamusbama,"67V7+CMP, Unnamed Road, Bamusbama, Kec. Yembun, Kabupaten Tambrauw, Papua Bar. 98473","Unnamed Road, Bamusbama, Kec. Yembun, Kabupaten Tambrauw",PAPUA BARAT,98473.0,Indonesia,,-0.7564102,132.2641895,https://maps.google.com/?cid=0x0:0xe31986032a60d12
perumahan,Komplek perumahan,Kampung Ramah Mamalia Klalik,"5RM5+665, Siwis, Distrik Klaso, Kabupaten Sorong, Papua Bar.","Kabupaten Sorong, Papua Bar.",PAPUA BARAT,,Indonesia,,-0.8169966,131.8080999,https://maps.google.com/?cid=0x0:0x2f73c78fca53e2fb
perumahan,Komplek perumahan,Kampung Selemalawili,"7RM8+G7F, Dela, Moraid, Kabupaten Sorong, Papua Bar. 98472","Dela, Moraid, Kabupaten Sorong",PAPUA BARAT,98472.0,Indonesia,,-0.7166448,131.8145914,https://maps.google.com/?cid=0x0:0x64c628c350a532f0
perumahan,Komplek perumahan,Distrik moraid,"8V7G+CWM, Kabupaten Sorong, Papua Bar.","Kabupaten Sorong, Papua Bar.",PAPUA BARAT,,Indonesia,,-0.68641,131.877304,https://maps.google.com/?cid=0x0:0xff77deb4c132656
perumahan,Komplek perumahan,Kampung malaworsai,"8WGJ+GX, Mega, Moraid, Kabupaten Sorong, Papua Bar.","Kabupaten Sorong, Papua Bar.",PAPUA BARAT,,Indonesia,,-0.6737182,131.9324964,https://maps.google.com/?cid=0x0:0x2b79d51d30d660d5
perumahan,Kantor Pemerintah,Kampung Baun Distrik Yembun Kabupaten Tambrauw,"74QP+MR, Baun, Kec. Yembun, Kabupaten Tambrauw, Papua Bar.","Kabupaten Tambrauw, Papua Bar.",PAPUA BARAT,,Indonesia,,-0.7108291,132.1371008,https://maps.google.com/?cid=0x0:0x18a3eb10de6d858f
perumahan,perumahan,Mayamuk,"Kabupaten Sorong, Papua Bar.","Kabupaten Sorong, Papua Bar.",PAPUA BARAT,,Indonesia,,-1.0590548,131.2851406,https://maps.google.com/?cid=0x0:0x18c5e8368d4ad732
perumahan,Perhimpunan Pengembang Perumahan,Kompleks Masa Depan,"X74Q+XPH, Makbusun, Mayamuk, Kabupaten Sorong, Papua Bar. 98451","Makbusun, Mayamuk, Kabupaten Sorong",PAPUA BARAT,98451.0,Indonesia,,-1.0425684,131.2893539,https://maps.google.com/?cid=0x0:0x7d927c306bff6f5e
perumahan,perumahan,BangRey,"W7PM+V57, Jl. Jayawijaya, Makbalim, Mayamuk, Kabupaten Sorong, Papua Bar. 98451","Jl. Jayawijaya, Makbalim, Mayamuk, Kabupaten Sorong",PAPUA BARAT,98451.0,Indonesia,,-1.0624915,131.2819071,https://maps.google.com/?cid=0x0:0x848ea2617cb34a1
perumahan,perumahan,Krisna'Ck,"Jl. Semeru No.II, Makbalim, Mayamuk, Kabupaten Sorong, Papua Bar. 98451","Makbalim, Mayamuk, Kabupaten Sorong",PAPUA BARAT,98451.0,Indonesia,,-1.0641504,131.2792656,https://maps.google.com/?cid=0x0:0x42119a64bb858a88
perumahan,Komplek perumahan,Rumah Bahri Husni,"X744+6MC, Arar, Mayamuk, Kabupaten Sorong, Papua Bar. 98451","Arar, Mayamuk, Kabupaten Sorong",PAPUA BARAT,98451.0,Indonesia,,-1.0444483,131.256633,https://maps.google.com/?cid=0x0:0x8e896cbe475f6cc2
perumahan,perumahan,Limpul,"W7PM+V57, Jl. Jayawijaya, Makbalim, Mayamuk, Kabupaten Sorong, Papua Bar. 98451","Jl. Jayawijaya, Makbalim, Mayamuk, Kabupaten Sorong",PAPUA BARAT,98451.0,Indonesia,,-1.0625811,131.2796643,https://maps.google.com/?cid=0x0:0xdfbba8f3f3f3b489
perumahan,perumahan,Kel. F MAJEFAT.,"W7XP+X5X, Wen, Mayamuk, Kabupaten Sorong, Papua Bar. 98451","Wen, Mayamuk, Kabupaten Sorong",PAPUA BARAT,98451.0,Indonesia,,-1.050013,131.2854795,https://maps.google.com/?cid=0x0:0x99087d2aba8448ea
perumahan,Perhimpunan Pengembang Perumahan,Rumah Mbah Pio,"X7CQ+HWC, Makbusun, Mayamuk, Kabupaten Sorong, Papua Bar. 98451","Makbusun, Mayamuk, Kabupaten Sorong",PAPUA BARAT,98451.0,Indonesia,,-1.028569,131.2897553,https://maps.google.com/?cid=0x0:0x72c609fd16fce313
perumahan,Komplek perumahan,Rumah Rasya,"W76P+2CH, Makotyamsa, Mayamuk, Kabupaten Sorong, Papua Bar. 98451","Makotyamsa, Mayamuk, Kabupaten Sorong",PAPUA BARAT,98451.0,Indonesia,,-1.0899375,131.2861094,https://maps.google.com/?cid=0x0:0x25a2a049eaea2977
perumahan,Pembangunan Perumahan,Rumah Badrus,"W7RP+GGM SP 4, Jalan, Klasmelek, Mayamuk, Kabupaten Sorong, Papua Bar. 98451","Jalan, Klasmelek, Mayamuk, Kabupaten Sorong",PAPUA BARAT,98451.0,Indonesia,,-1.0586647,131.2862855,https://maps.google.com/?cid=0x0:0x3758bab471b54d41
perumahan,perumahan,"Kel, Maikel","X74P+738, RT.003/RW.001, Wen, Mayamuk, Kabupaten Sorong, Papua Bar. daya","Kabupaten Sorong, Papua Bar.",PAPUA BARAT,,Indonesia,,-1.0443293,131.2852074,https://maps.google.com/?cid=0x0:0xfb8fb63d2a810061
perumahan,Pembangunan Perumahan,Anto house,"W75P+93V, Makotyamsa, Mayamuk, Kabupaten Sorong, Papua Bar. 98451","Makotyamsa, Mayamuk, Kabupaten Sorong",PAPUA BARAT,98451.0,Indonesia,,-1.0915246,131.2851586,https://maps.google.com/?cid=0x0:0x3832730870d01fbf
perumahan,perumahan,Rumah gue,"W7WX+FP2, Klasmelek, Mayamuk, Kabupaten Sorong, Papua Bar. 98451","Klasmelek, Mayamuk, Kabupaten Sorong",PAPUA BARAT,98451.0,Indonesia,,-1.0538623,131.2992548,https://maps.google.com/?cid=0x0:0xbdb56455a790914
perumahan,Komplek perumahan,Royikin,"W75R+278, Unnamed Road, Makotyamsa, Mayamuk, Kabupaten Sorong, Papua Bar. 98451","Unnamed Road, Makotyamsa, Mayamuk, Kabupaten Sorong",PAPUA BARAT,98451.0,Indonesia,,-1.0924609,131.2907084,https://maps.google.com/?cid=0x0:0x8c89449afc359c3f
perumahan,perumahan,Papua Bar. 98451,"Kabupaten Sorong, Papua Bar.","Kabupaten Sorong, Papua Bar.",PAPUA BARAT,,Indonesia,,-1.1998275,131.3611121,https://maps.google.com/?cid=0x0:0x9f6340793bb8183
perumahan,Komplek perumahan,kampung Moja,"V7VC+9PP, Majaran, Kec. Salawati, Kabupaten Sorong, Papua Bar. 98451","Majaran, Kec. Salawati, Kabupaten Sorong",PAPUA BARAT,98451.0,Indonesia,,-1.1065403,131.2718126,https://maps.google.com/?cid=0x0:0x7bd00fb315c86383
perumahan,Pembangunan Perumahan,Modan 1,"V843+264, Walal, Kec. Salawati, Kabupaten Sorong, Papua Bar. 98451","Walal, Kec. Salawati, Kabupaten Sorong",PAPUA BARAT,98451.0,Indonesia,,-1.1449835,131.3030769,https://maps.google.com/?cid=0x0:0xd589d47d6e687553
perumahan,perumahan,"Kel, Maikel","X74P+738, RT.003/RW.001, Wen, Mayamuk, Kabupaten Sorong, Papua Bar. daya","Kabupaten Sorong, Papua Bar.",PAPUA BARAT,,Indonesia,,-1.0443293,131.2852074,https://maps.google.com/?cid=0x0:0xfb8fb63d2a810061
perumahan,Pembangunan Perumahan,Rumah M'Mudy,"R7V8+QMV, Majener, Kec. Salawati, Kabupaten Sorong, Papua Bar. 98451","Majener, Kec. Salawati, Kabupaten Sorong",PAPUA BARAT,98451.0,Indonesia,,-1.1553298,131.2667707,https://maps.google.com/?cid=0x0:0x956a86cbf1298175
perumahan,perumahan,Metus home,"W72H+6V, Makotyamsa, Mayamuk, Kabupaten Sorong, Papua Bar.","Kabupaten Sorong, Papua Bar.",PAPUA BARAT,,Indonesia,,-1.0994629,131.2797097,https://maps.google.com/?cid=0x0:0xdec28e5bda6f7d62
perumahan,Pembangunan Perumahan,Modan,"R7VR+GX5, Rw. Sugi, Kec. Salawati, Kabupaten Sorong, Papua Bar. 98451","Rw. Sugi, Kec. Salawati, Kabupaten Sorong",PAPUA BARAT,98451.0,Indonesia,,-1.1562444,131.2924966,https://maps.google.com/?cid=0x0:0x796f89aec7c3b846
perumahan,Komplek perumahan,Rumah Bahri Husni,"X744+6MC, Arar, Mayamuk, Kabupaten Sorong, Papua Bar. 98451","Arar, Mayamuk, Kabupaten Sorong",PAPUA BARAT,98451.0,Indonesia,,-1.0444483,131.256633,https://maps.google.com/?cid=0x0:0x8e896cbe475f6cc2
perumahan,Komplek perumahan,PERUMAHAN BAHARI RESIDENCE,"V7GH+C4, Majaran, Kec. Salawati, Kabupaten Sorong, Papua Bar. 98451","Majaran, Kec. Salawati, Kabupaten Sorong",PAPUA BARAT,98451.0,Indonesia,,-1.1220287,131.2786932,https://maps.google.com/?cid=0x0:0x4bd2e476bd2532ac
perumahan,Pembangunan Perumahan,PERUMAHAN GRAND SALAWATI,"V769+P27, Majener, Kec. Salawati, Kabupaten Sorong, Papua Bar. 98451","Majener, Kec. Salawati, Kabupaten Sorong",PAPUA BARAT,98451.0,Indonesia,,-1.1382013,131.2675405,https://maps.google.com/?cid=0x0:0x72f904ee3d5feb68
perumahan,Komplek perumahan,Rumah mewah Dicky,"W73M+VQ8, Makotyamsa, Mayamuk, Kabupaten Sorong, Papua Bar. 98451","Makotyamsa, Mayamuk, Kabupaten Sorong",PAPUA BARAT,98451.0,Indonesia,,-1.0953468,131.2844602,https://maps.google.com/?cid=0x0:0x871a93ccb589c260
perumahan,Dapur Umum,SP.IV,"W86G+WC6, Jl.Insan Cendekia SP.IV, Makbalim, Mayamuk, Kabupaten Sorong, Papua Bar. 98451","Jl.Insan Cendekia SP.IV, Makbalim, Mayamuk, Kabupaten Sorong",PAPUA BARAT,98451.0,Indonesia,,-1.087724,131.326015,https://maps.google.com/?cid=0x0:0xfb1145b61fec0444
perumahan,Pembangunan Perumahan,Rumah Badrus,"W7RP+GGM SP 4, Jalan, Klasmelek, Mayamuk, Kabupaten Sorong, Papua Bar. 98451","Jalan, Klasmelek, Mayamuk, Kabupaten Sorong",PAPUA BARAT,98451.0,Indonesia,,-1.0586647,131.2862855,https://maps.google.com/?cid=0x0:0x3758bab471b54d41
perumahan,Pembangunan Perumahan,Griyane Mas Rusdi,"V7FF+9R9, Jl. Nusantara Katapop II, Majaran, Kec. Salawati, Kabupaten Sorong, Papua Bar. 98451","Jl. Nusantara Katapop II, Majaran, Kec. Salawati, Kabupaten Sorong",PAPUA BARAT,98451.0,Indonesia,,-1.1265966,131.2746065,https://maps.google.com/?cid=0x0:0x88daf2a67254589d
perumahan,perumahan,Kec. Salawati,"Kabupaten Sorong, Papua Bar.","Kabupaten Sorong, Papua Bar.",PAPUA BARAT,,Indonesia,,-1.1878386,131.2481347,https://maps.google.com/?cid=0x0:0x2da3ce5cc71682ef
perumahan,Pembangunan Perumahan,PERUMAHAN GRAND SALAWATI,"V769+P27, Majener, Kec. Salawati, Kabupaten Sorong, Papua Bar. 98451","Majener, Kec. Salawati, Kabupaten Sorong",PAPUA BARAT,98451.0,Indonesia,,-1.1382013,131.2675405,https://maps.google.com/?cid=0x0:0x72f904ee3d5feb68
perumahan,Komplek perumahan,Perumahan Arafuru,"V792+P4H, Unnamed Road, Majener, Kec. Salawati, Kabupaten Sorong, Papua Bar. 98451","Unnamed Road, Majener, Kec. Salawati, Kabupaten Sorong",PAPUA BARAT,98451.0,Indonesia,,-1.1306824,131.2503736,https://maps.google.com/?cid=0x0:0x481f6d3ac763efa5
perumahan,Pembangunan Perumahan,BLEDEK,"R65X+8FP, Jl. Poros, Matawolot, Kec. Salawati, Kabupaten Sorong, Papua Bar. 98451","Jl. Poros, Matawolot, Kec. Salawati, Kabupaten Sorong",PAPUA BARAT,98451.0,Indonesia,,-1.1917702,131.2486624,https://maps.google.com/?cid=0x0:0x90e0b1e4858bb6b9
perumahan,Komplek perumahan,kampung Moja,"V7VC+9PP, Majaran, Kec. Salawati, Kabupaten Sorong, Papua Bar. 98451","Majaran, Kec. Salawati, Kabupaten Sorong",PAPUA BARAT,98451.0,Indonesia,,-1.1065403,131.2718126,https://maps.google.com/?cid=0x0:0x7bd00fb315c86383
perumahan,Komplek perumahan,Rumah,"V7GC+H66, Majaran, Kec. Salawati, Kabupaten Sorong, Papua Bar. 98451","Majaran, Kec. Salawati, Kabupaten Sorong",PAPUA BARAT,98451.0,Indonesia,,-1.123728,131.270521,https://maps.google.com/?cid=0x0:0xbbfa1c1e0fc6de1d
perumahan,Komplek perumahan,Paphy_mali,"R7Q7+9GX, Majener, Kec. Salawati, Kabupaten Sorong, Papua Bar. 98451","Majener, Kec. Salawati, Kabupaten Sorong",PAPUA BARAT,98451.0,Indonesia,,-1.161503,131.2638532,https://maps.google.com/?cid=0x0:0xba25a1f31bab11b
perumahan,Pembangunan Perumahan,Rumah M'Mudy,"R7V8+QMV, Majener, Kec. Salawati, Kabupaten Sorong, Papua Bar. 98451","Majener, Kec. Salawati, Kabupaten Sorong",PAPUA BARAT,98451.0,Indonesia,,-1.1553298,131.2667707,https://maps.google.com/?cid=0x0:0x956a86cbf1298175
perumahan,Komplek perumahan,rumah Attaqi,"Rw. Sugi, Kec. Salawati, Kabupaten Sorong, Papua Bar. 98451","Kec. Salawati, Kabupaten Sorong",PAPUA BARAT,98451.0,Indonesia,,-1.1576813,131.2865134,https://maps.google.com/?cid=0x0:0x2328435ab4ff0296
perumahan,Pembangunan Perumahan,Griya Raya Barungu,"R7R9+H6, Jalan Pasar Umbul Harjo, Majener, Kec. Salawati, Kabupaten Sorong, Papua Bar.","Kabupaten Sorong, Papua Bar.",PAPUA BARAT,,Indonesia,82198496540.0,-1.1585625,131.2680625,https://maps.google.com/?cid=0x0:0x91ace9dbacf25ad2
perumahan,Pembangunan Perumahan,Modan 1,"V843+264, Walal, Kec. Salawati, Kabupaten Sorong, Papua Bar. 98451","Walal, Kec. Salawati, Kabupaten Sorong",PAPUA BARAT,98451.0,Indonesia,,-1.1449835,131.3030769,https://maps.google.com/?cid=0x0:0xd589d47d6e687553
perumahan,Perhimpunan Pengembang Perumahan,Rumah saya,"R7RC+V9V, Majener, Kec. Salawati, Kabupaten Sorong, Papua Bar. 98451","Majener, Kec. Salawati, Kabupaten Sorong",PAPUA BARAT,98451.0,Indonesia,,-1.1577524,131.2709217,https://maps.google.com/?cid=0x0:0xaec887e176cf0e91
perumahan,Komplek perumahan,Rumah ully,"V7JM+6CV, Majaran, Kec. Salawati, Kabupaten Sorong, Papua Bar. 98451","Majaran, Kec. Salawati, Kabupaten Sorong",PAPUA BARAT,98451.0,Indonesia,,-1.1194261,131.2835608,https://maps.google.com/?cid=0x0:0x19fb314a7a2e999a
perumahan,Komplek perumahan,Rumah Sisipan Samosir,"V7XP+H3Q, Majaran, Kec. Salawati, Kabupaten Sorong, Papua Bar. 98451","Majaran, Kec. Salawati, Kabupaten Sorong",PAPUA BARAT,98451.0,Indonesia,,-1.1005738,131.2852465,https://maps.google.com/?cid=0x0:0xf3f9a6ee9ac7f667
perumahan,perumahan,Kec. Salawati Sel.,"Kabupaten Sorong, Papua Bar.","Kabupaten Sorong, Papua Bar.",PAPUA BARAT,,Indonesia,,-1.2811542,130.8951476,https://maps.google.com/?cid=0x0:0xc4d8ce15c534bd48
perumahan,Pembangunan Perumahan,WAZZABI,"PJQ4+6Q, Dulbatan, Kec. Salawati Sel., Kabupaten Sorong, Papua Bar.","Kabupaten Sorong, Papua Bar.",PAPUA BARAT,,Indonesia,,-1.261963,130.606904,https://maps.google.com/?cid=0x0:0x38c14b8b6da1e115
perumahan,perumahan,Kampung maralol,"MX99+7G7, Duriankari, Kec. Salawati Sel., Kabupaten Sorong, Papua Bar. 98452","Duriankari, Kec. Salawati Sel., Kabupaten Sorong",PAPUA BARAT,98452.0,Indonesia,,-1.3318304,130.9687836,https://maps.google.com/?cid=0x0:0x79ce567713f7be6a
perumahan,Pembangunan Perumahan,Desa Payapop,"QQ29+4H7, Sailolof, Kec. Salawati Sel., Kabupaten Sorong, Papua Bar. 98452","Sailolof, Kec. Salawati Sel., Kabupaten Sorong",PAPUA BARAT,98452.0,Indonesia,,-1.2497096,130.7689121,https://maps.google.com/?cid=0x0:0xd4e6e739c9c78bd7
perumahan,Komplek perumahan,Kampung Manoket,"MVV3+GX7, Manoket, Kec. Salawati Sel., Kabupaten Sorong, Papua Bar. 98452","Manoket, Kec. Salawati Sel., Kabupaten Sorong",PAPUA BARAT,98452.0,Indonesia,,-1.3062125,130.8549219,https://maps.google.com/?cid=0x0:0x88bc229bf7a97ca1
perumahan,Komplek perumahan,Manoket/bagas,"PV9W+G3J, Jalan Ngolo, Umalelen, Salawati Selatan, Sorong Regency, West Papua 98452","Jalan Ngolo, Umalelen, Salawati Selatan, Sorong Regency",PAPUA BARAT,98452.0,Indonesia,,-1.2811542,130.8951476,https://maps.google.com/?cid=0x0:0xd35aa4dbe57beeac
perumahan,Pembangunan Perumahan,Kompleks Wakoplap,"P2P9+RGG, Waliam, Kec. Salawati Sel., Kabupaten Sorong, Papua Bar.","Kabupaten Sorong, Papua Bar.",PAPUA BARAT,,Indonesia,,-1.2629359,131.0188407,https://maps.google.com/?cid=0x0:0x54183cbc9bc2b323
perumahan,perumahan,Kampung Waibin,"P2QC+M4, Waliam, Kec. Salawati Sel., Kabupaten Sorong, Papua Bar.","Kabupaten Sorong, Papua Bar.",PAPUA BARAT,,Indonesia,,-1.260374,131.0205051,https://maps.google.com/?cid=0x0:0x5498958311b4a3f1
perumahan,Pembangunan Perumahan,kampung menyauap,"MX33+3Q, Duriankari, Kec. Salawati Sel., Kabupaten Sorong, Papua Bar.","Kabupaten Sorong, Papua Bar.",PAPUA BARAT,,Indonesia,,-1.3472822,130.9543792,https://maps.google.com/?cid=0x0:0x8249d620b913ae4f
perumahan,Komplek perumahan,Kampung Mas-Maspop,"PQVM+J76, Sailolof, Kec. Salawati Sel., Kabupaten Sorong, Papua Bar.","Kabupaten Sorong, Papua Bar.",PAPUA BARAT,,Indonesia,,-1.2559638,130.7831299,https://maps.google.com/?cid=0x0:0xfe616257fa1bc87a
perumahan,Pembangunan Perumahan,Kantor kampung Waibin,"P2QC+M4, Waliam, Kec. Salawati Sel., Kabupaten Sorong, Papua Bar.","Kabupaten Sorong, Papua Bar.",PAPUA BARAT,,Indonesia,,-1.2606937,131.0203025,https://maps.google.com/?cid=0x0:0x1bee5739840fad29
perumahan,perumahan,Kamar Admin Catering,"M2XH+2P, Wasingsan, Distrik Seget, Kabupaten Sorong, Papua Bar.","Kabupaten Sorong, Papua Bar.",PAPUA BARAT,,Indonesia,,-1.3024865,131.0293362,https://maps.google.com/?cid=0x0:0x607a2d35813ada10
perumahan,Kantor Perusahaan,PLTS,"J2W5+XX3, Klayas, Distrik Seget, Kabupaten Sorong, Papua Bar. 98452","Klayas, Distrik Seget, Kabupaten Sorong",PAPUA BARAT,98452.0,Indonesia,,-1.352618,131.0099311,https://maps.google.com/?cid=0x0:0x9ff7f2c635622443
perumahan,Kompleks Bangunan Perusahaan,Mess HK,"M2G9+W69, Kasimle, Distrik Seget, Kabupaten Sorong, Papua Bar. 98452","Kasimle, Distrik Seget, Kabupaten Sorong",PAPUA BARAT,98452.0,Indonesia,,-1.3227094,131.0181108,https://maps.google.com/?cid=0x0:0x799269ab717d2aca
perumahan,perumahan,Salawati Tengah,"Kabupaten Raja Ampat, Papua Bar.","Kabupaten Raja Ampat, Papua Bar.",PAPUA BARAT,,Indonesia,,-1.0547794,131.0589536,https://maps.google.com/?cid=0x0:0x9e15ae7888c4541f
perumahan,Kompleks Apartemen,Rumah ridwan,"X3F7+9RQ, Kalobo, Salawati Tengah, Kabupaten Raja Ampat, Papua Bar. 98484","Kalobo, Salawati Tengah, Kabupaten Raja Ampat",PAPUA BARAT,98484.0,Indonesia,,-1.0265315,131.0646026,https://maps.google.com/?cid=0x0:0x1dc8d030dea24a6b
perumahan,Pembangunan Perumahan,PERUMAHAN GRAND SALAWATI,"V769+P27, Majener, Kec. Salawati, Kabupaten Sorong, Papua Bar. 98451","Majener, Kec. Salawati, Kabupaten Sorong",PAPUA BARAT,98451.0,Indonesia,,-1.1382013,131.2675405,https://maps.google.com/?cid=0x0:0x72f904ee3d5feb68
perumahan,Komplek perumahan,Perumahan Arafuru,"V792+P4H, Unnamed Road, Majener, Kec. Salawati, Kabupaten Sorong, Papua Bar. 98451","Unnamed Road, Majener, Kec. Salawati, Kabupaten Sorong",PAPUA BARAT,98451.0,Indonesia,,-1.1306824,131.2503736,https://maps.google.com/?cid=0x0:0x481f6d3ac763efa5
perumahan,Balai masyarakat,waijan,"X2QM+PW, Waijan, Salawati Tengah, Kabupaten Raja Ampat, Papua Bar. 98484","Waijan, Salawati Tengah, Kabupaten Raja Ampat",PAPUA BARAT,98484.0,Indonesia,,-1.0106476,131.0347723,https://maps.google.com/?cid=0x0:0xf2e423c76b27b6ce
perumahan,Komplek perumahan,PERUMAHAN BAHARI RESIDENCE,"V7GH+C4, Majaran, Kec. Salawati, Kabupaten Sorong, Papua Bar. 98451","Majaran, Kec. Salawati, Kabupaten Sorong",PAPUA BARAT,98451.0,Indonesia,,-1.1220287,131.2786932,https://maps.google.com/?cid=0x0:0x4bd2e476bd2532ac
perumahan,Kantor Perusahaan,Kampung SAMATE,"23MC+63, Samate, Kec. Salawati Utara, Kabupaten Raja Ampat, Papua Bar.","Kabupaten Raja Ampat, Papua Bar.",PAPUA BARAT,,Indonesia,,-0.9668985,131.0709802,https://maps.google.com/?cid=0x0:0xd8810a6287739199
perumahan,Kompleks Apartemen,Andi Arfan Residence,"W3X6+QG, Waibo, Salawati Tengah, Kabupaten Raja Ampat, Papua Bar.","Kabupaten Raja Ampat, Papua Bar.",PAPUA BARAT,,Indonesia,,-1.0505245,131.0612703,https://maps.google.com/?cid=0x0:0xf06724bed0ece937
perumahan,Komplek perumahan,Rumah,"V7GC+H66, Majaran, Kec. Salawati, Kabupaten Sorong, Papua Bar. 98451","Majaran, Kec. Salawati, Kabupaten Sorong",PAPUA BARAT,98451.0,Indonesia,,-1.123728,131.270521,https://maps.google.com/?cid=0x0:0xbbfa1c1e0fc6de1d
perumahan,Komplek perumahan,Kapatlap,"3382+V62, Kapatlap, Kec. Salawati Utara, Kabupaten Raja Ampat, Papua Bar. 98484","Kapatlap, Kec. Salawati Utara, Kabupaten Raja Ampat",PAPUA BARAT,98484.0,Indonesia,,-0.932872,131.0505223,https://maps.google.com/?cid=0x0:0x66019cd2d3e99a52
perumahan,Pembangunan Perumahan,KAMPUNG DUBER,"XWFX+WH, Duber, Kec. Salawati Utara, Kabupaten Raja Ampat, Papua Bar.","Kabupaten Raja Ampat, Papua Bar.",PAPUA BARAT,,Indonesia,,-1.0251875,130.9489375,https://maps.google.com/?cid=0x0:0x88409a1d97939bf0
perumahan,perumahan,PENGINAPAN TERSANJUNG,"W3XG+845, Sakabu, Salawati Tengah, Kabupaten Raja Ampat, Papua Bar. 98484","Sakabu, Salawati Tengah, Kabupaten Raja Ampat",PAPUA BARAT,98484.0,Indonesia,,-1.0520193,131.0755416,https://maps.google.com/?cid=0x0:0xa48f8ce269cf90a6
perumahan,Komplek perumahan,Rumah masa kecil,"W3V3+HR6, Waibo, Salawati Tengah, Kabupaten Raja Ampat, Papua Bar. 98484","Waibo, Salawati Tengah, Kabupaten Raja Ampat",PAPUA BARAT,98484.0,Indonesia,,-1.0560898,131.0545108,https://maps.google.com/?cid=0x0:0x322ec6f50740892
perumahan,Pusat Pendidikan,Rumah Belajar Kitorang,"Jalan Abdulah Arfan, Samate, Kec. Salawati Utara, Kabupaten Raja Ampat, Papua Bar. 98484","Samate, Kec. Salawati Utara, Kabupaten Raja Ampat",PAPUA BARAT,98484.0,Indonesia,81327565131.0,-0.9671406,131.0713509,https://maps.google.com/?cid=0x0:0x4486015658c60f21
perumahan,Komplek perumahan,PERUMAHAN SITORUS,"Klasabi, Kecamatan Sorong Manoi, Kota Sorong, Papua Bar.","Kota Sorong, Papua Bar.",PAPUA BARAT,,Indonesia,81217162873.0,-0.9038213,131.3002949,https://maps.google.com/?cid=0x0:0xd4ebf1635061dc83
perumahan,Perumahan,POS SEKURITI PERUMAHAN SITORUS,"37WX+HV8, Klasabi, Kecamatan Sorong Manoi, Kota Sorong, Papua Bar.","Kota Sorong, Papua Bar.",PAPUA BARAT,,Indonesia,,-0.9038482,131.300288,https://maps.google.com/?cid=0x0:0xef744444c7720c8
perumahan,Toko,Kios FITRI,"37WX+CR6, Jl. Kanal Victory, Klasabi, Kecamatan Sorong Manoi, Kota Sorong, Papua Bar. 98413","Jl. Kanal Victory, Klasabi, Kecamatan Sorong Manoi, Kota Sorong",PAPUA BARAT,98413.0,Indonesia,,-0.90401,131.300105,https://maps.google.com/?cid=0x0:0xf8fc9aadb94263f9
perumahan,Komplek perumahan,K.N.P,"476C+8H8, Jl. Ferry, Malawei, Kecamatan Sorong Manoi, Kota Sorong, Papua Bar.","Kota Sorong, Papua Bar.",PAPUA BARAT,,Indonesia,,-0.8892155,131.2714636,https://maps.google.com/?cid=0x0:0x7f00bbb78e6624a4
perumahan,perumahan,Papua Bar. 98471,"Kabupaten Sorong, Papua Bar.","Kabupaten Sorong, Papua Bar.",PAPUA BARAT,,Indonesia,,-0.9628505,131.6809724,https://maps.google.com/?cid=0x0:0xf9eb2cfc3e3195d1
perumahan,Pembangunan Perumahan,Kampung gisim darat,"XGCJ+FH, Maladofok, Kec. Sayosa, Kabupaten Sorong, Papua Bar.","Kabupaten Sorong, Papua Bar.",PAPUA BARAT,,Indonesia,,-1.028858,131.531441,https://maps.google.com/?cid=0x0:0x181b29173a0a8b8d
perumahan,Komplek perumahan,Kampung Saluk,"WQ8V+8CJ, Saluk, Kec. Sayosa, Kabupaten Sorong, Papua Bar.","Kabupaten Sorong, Papua Bar.",PAPUA BARAT,,Indonesia,,-1.0841569,131.7935288,https://maps.google.com/?cid=0x0:0xc6210311576ea8d3
perumahan,Tujuan Wisata,Kampung Suatolo TPS 01,"6HXM+JC, Malaumkarta, Kec. Makbon, Kabupaten Sorong, Papua Bar.","Kabupaten Sorong, Papua Bar.",PAPUA BARAT,,Indonesia,,-0.750944,131.583618,https://maps.google.com/?cid=0x0:0x6aa77f6d7c514caa
perumahan,Perhimpunan Pengembang Perumahan,Kampung Sailala,"2VMQ+FMH, Yorbes, Kec. Sayosa, Kabupaten Sorong, Papua Bar.","Kabupaten Sorong, Papua Bar.",PAPUA BARAT,,Indonesia,,-0.9663206,131.8892323,https://maps.google.com/?cid=0x0:0xc301ecb8d9661a49
perumahan,Perhimpunan Pengembang Perumahan,Gisim Darat,"XH8V+R4, Maladofok, Kec. Sayosa, Kabupaten Sorong, Papua Bar.","Kabupaten Sorong, Papua Bar.",PAPUA BARAT,,Indonesia,,-1.0329308,131.5928435,https://maps.google.com/?cid=0x0:0xf5755443a59b7333
perumahan,Perhimpunan Pengembang Perumahan,Rumah lama,"WH6G+RQ, Maladofok, Kec. Sayosa, Kabupaten Sorong, Papua Bar.","Kabupaten Sorong, Papua Bar.",PAPUA BARAT,,Indonesia,,-1.0879858,131.5769447,https://maps.google.com/?cid=0x0:0x799ab4ca15888972
perumahan,Komplek perumahan,Kampung Klamintu,"WMFX+G4V, Saluk, Kec. Sayosa, Kabupaten Sorong, Papua Bar. 98471","Saluk, Kec. Sayosa, Kabupaten Sorong",PAPUA BARAT,98471.0,Indonesia,,-1.0761342,131.6977967,https://maps.google.com/?cid=0x0:0xcc506089ea1fa9c9
perumahan,Perhimpunan Pengembang Perumahan,Kampung klalwok,"2VVC+62, Yorbes, Kec. Sayosa, Kabupaten Sorong, Papua Bar.","Kabupaten Sorong, Papua Bar.",PAPUA BARAT,,Indonesia,,-0.9569801,131.8700465,https://maps.google.com/?cid=0x0:0xcc51cf392759a86a
perumahan,Komplek perumahan,Kampung Ramah Mamalia Klalik,"5RM5+665, Siwis, Distrik Klaso, Kabupaten Sorong, Papua Bar.","Kabupaten Sorong, Papua Bar.",PAPUA BARAT,,Indonesia,,-0.8169966,131.8080999,https://maps.google.com/?cid=0x0:0x2f73c78fca53e2fb
perumahan,Otoritas Perumahan,KPR Cendrawasih Green Park II,"KPR Cendrawasih Jl. Intimpura No.2, Klasuluk, Distrik Mariat, Kabupaten Sorong, Papua Bar. 98414","Klasuluk, Distrik Mariat, Kabupaten Sorong",PAPUA BARAT,98414.0,Indonesia,85344136166.0,-0.9956074,131.3226158,https://maps.google.com/?cid=0x0:0x35ba1499df7d40fd
perumahan,Komplek perumahan,KPR CENRAWASIH GREEN PARK 1,"28PH+XP3, Malawili, Kec. Aimas, Kabupaten Sorong, Papua Bar. 98414","Malawili, Kec. Aimas, Kabupaten Sorong",PAPUA BARAT,98414.0,Indonesia,,-0.9626208,131.329288,https://maps.google.com/?cid=0x0:0x32bc2269675a6936
perumahan,Komplek perumahan,Kel. Friskwila Nussy,"KPR Cendrawasih Jl. Intimpura No.2, Klasuluk, Distrik Mariat, Kabupaten Sorong, Papua Bar. 98414","Klasuluk, Distrik Mariat, Kabupaten Sorong",PAPUA BARAT,98414.0,Indonesia,,-0.9968082,131.3224027,https://maps.google.com/?cid=0x0:0x93e01c1fcde3df0b
perumahan,Toko,Zafranstore,"28QH+C9R, Perumahan cendrawasih Gren park, Malawili, Papua Bar.","Kabupaten Sorong, Papua Bar.",PAPUA BARAT,,Indonesia,,-0.961389,131.3283844,https://maps.google.com/?cid=0x0:0x4b1802bc933071ae
perumahan,perumahan,Papua Bar. 98452,"Kabupaten Sorong, Papua Bar.","Kabupaten Sorong, Papua Bar.",PAPUA BARAT,,Indonesia,,-1.3516263,131.0797172,https://maps.google.com/?cid=0x0:0x12aa97ea8dec5973
perumahan,Pembangunan Perumahan,Gisim kabupaten Sorong,"G6MR+M7F, Waimon, Distrik Segun, Kabupaten Sorong, Papua Bar. 98452","Waimon, Distrik Segun, Kabupaten Sorong",PAPUA BARAT,98452.0,Indonesia,,-1.4658061,131.2406872,https://maps.google.com/?cid=0x0:0x71f2f32012438b94
perumahan,Pembangunan Perumahan,Komplek perumahan kebumen,"M9MF+J59, Jl.nangka, Wainlabat, Distrik Segun, Kabupaten Sorong, Papua Bar.","Kabupaten Sorong, Papua Bar.",PAPUA BARAT,,Indonesia,,-1.3159522,131.3729822,https://maps.google.com/?cid=0x0:0xf920e5e93e555770
perumahan,Komplek perumahan,Dusun Walio,"H34R+XP, Kasimle, Distrik Seget, Kabupaten Sorong, Papua Bar.","Kabupaten Sorong, Papua Bar.",PAPUA BARAT,,Indonesia,,-1.4420102,131.0892306,https://maps.google.com/?cid=0x0:0x84889aec7422a38c
perumahan,Komplek perumahan,Family pomana,"JX4G+RJW, Wawenagu, Distrik Seget, Kabupaten Sorong, Papua Bar. 98452","Wawenagu, Distrik Seget, Kabupaten Sorong",PAPUA BARAT,98452.0,Indonesia,,-1.3928892,130.9765768,https://maps.google.com/?cid=0x0:0x144f22d54cc76eba
perumahan,Agen Properti,Rumah Kesit,"HX3P+JVM, Wawenagu, Distrik Seget, Kabupaten Sorong, Papua Bar. 98452","Wawenagu, Distrik Seget, Kabupaten Sorong",PAPUA BARAT,98452.0,Indonesia,,-1.4459129,130.9871615,https://maps.google.com/?cid=0x0:0x366e77053ef00872
perumahan,Perhimpunan Pengembang Perumahan,Kampung malamas,"J9R4+72J, Segun, Distrik Segun, Kabupaten Sorong, Papua Bar.","Kabupaten Sorong, Papua Bar.",PAPUA BARAT,,Indonesia,,-1.3592894,131.3550171,https://maps.google.com/?cid=0x0:0x1315a8c64172b454
perumahan,perumahan,Kamar Admin Catering,"M2XH+2P, Wasingsan, Distrik Seget, Kabupaten Sorong, Papua Bar.","Kabupaten Sorong, Papua Bar.",PAPUA BARAT,,Indonesia,,-1.3024865,131.0293362,https://maps.google.com/?cid=0x0:0x607a2d35813ada10
perumahan,perumahan,Kampung maralol,"MX99+7G7, Duriankari, Kec. Salawati Sel., Kabupaten Sorong, Papua Bar. 98452","Duriankari, Kec. Salawati Sel., Kabupaten Sorong",PAPUA BARAT,98452.0,Indonesia,,-1.3318304,130.9687836,https://maps.google.com/?cid=0x0:0x79ce567713f7be6a
perumahan,Pembangunan Perumahan,Kampung dulbatan,"RQ68+GJF, Dulbatan, Kec. Salawati Sel., Kabupaten Sorong, Papua Bar. 98452","Dulbatan, Kec. Salawati Sel., Kabupaten Sorong",PAPUA BARAT,98452.0,Indonesia,,-1.1886812,130.7665315,https://maps.google.com/?cid=0x0:0x4f660da985bd03f8
perumahan,perumahan,Kampung KASIMLE,"G4QF+PXQ, Kasimle, Distrik Seget, Kabupaten Sorong, Papua Bar. 98452","Kasimle, Distrik Seget, Kabupaten Sorong",PAPUA BARAT,98452.0,Indonesia,,-1.4606703,131.1249932,https://maps.google.com/?cid=0x0:0x4ba1c6a575d357be
perumahan,Komplek perumahan,Manoket/bagas,"PV9W+G3J, Jalan Ngolo, Umalelen, Salawati Selatan, Sorong Regency, West Papua 98452","Jalan Ngolo, Umalelen, Salawati Selatan, Sorong Regency",PAPUA BARAT,98452.0,Indonesia,,-1.2811542,130.8951476,https://maps.google.com/?cid=0x0:0xd35aa4dbe57beeac
perumahan,Komplek perumahan,Kampung Manoket,"MVV3+GX7, Manoket, Kec. Salawati Sel., Kabupaten Sorong, Papua Bar. 98452","Manoket, Kec. Salawati Sel., Kabupaten Sorong",PAPUA BARAT,98452.0,Indonesia,,-1.3062125,130.8549219,https://maps.google.com/?cid=0x0:0x88bc229bf7a97ca1
perumahan,perumahan,Kampung Waibin,"P2QC+M4, Waliam, Kec. Salawati Sel., Kabupaten Sorong, Papua Bar.","Kabupaten Sorong, Papua Bar.",PAPUA BARAT,,Indonesia,,-1.260374,131.0205051,https://maps.google.com/?cid=0x0:0x5498958311b4a3f1
perumahan,perumahan,Papua Bar. 98413,"Klabala, Distrik Sorong Barat, Kota Sorong, Papua Bar.","Kota Sorong, Papua Bar.",PAPUA BARAT,,Indonesia,,-0.8669518,131.254029,https://maps.google.com/?cid=0x0:0x352e1f254d39ea2b
perumahan,Perumahan,Perumahan Grand Efata Malibela,"Jl. Malibela, Klawalu, Kecamatan Sorong Manoi, Kota Sorong, Papua Bar. 98413","Klawalu, Kecamatan Sorong Manoi, Kota Sorong",PAPUA BARAT,98413.0,Indonesia,82268235322.0,-0.90423,131.3118479,https://maps.google.com/?cid=0x0:0x600613eae3023432
perumahan,Komplek perumahan,PERUMAHAN SITORUS,"Klasabi, Kecamatan Sorong Manoi, Kota Sorong, Papua Bar.","Kota Sorong, Papua Bar.",PAPUA BARAT,,Indonesia,81217162873.0,-0.9038213,131.3002949,https://maps.google.com/?cid=0x0:0xd4ebf1635061dc83
perumahan,Pembangunan Perumahan,Kadar Malibela Residence,"Klawalu, Distrik Sorong Timur, Kota Sorong, Papua Bar.","Kota Sorong, Papua Bar.",PAPUA BARAT,,Indonesia,85279735292.0,-0.9054871,131.3096366,https://maps.google.com/?cid=0x0:0x81cdbed7e8767cf
perumahan,perumahan,CEMARA FAMILLY,"47J4+V33, Unnamed Road, Klabala, Distrik Sorong Barat, Kota Sorong, Papua Bar. 98411","Unnamed Road, Klabala, Distrik Sorong Barat, Kota Sorong",PAPUA BARAT,98411.0,Indonesia,,-0.8679732,131.2551719,https://maps.google.com/?cid=0x0:0xe6780a6dad3142be
perumahan,Komplek perumahan,Kios dhea al,"Jl. Kalimantan No.204, Klabala, Distrik Sorong Barat, Kota Sorong, Papua Bar. 98413","Klabala, Distrik Sorong Barat, Kota Sorong",PAPUA BARAT,98413.0,Indonesia,,-0.8667697,131.2538837,https://maps.google.com/?cid=0x0:0xa7f63becf22a6cb3
perumahan,Otoritas Perumahan,KPR Cendrawasih Green Park II,"KPR Cendrawasih Jl. Intimpura No.2, Klasuluk, Distrik Mariat, Kabupaten Sorong, Papua Bar. 98414","Klasuluk, Distrik Mariat, Kabupaten Sorong",PAPUA BARAT,98414.0,Indonesia,85344136166.0,-0.9956074,131.3226158,https://maps.google.com/?cid=0x0:0x35ba1499df7d40fd
perumahan,Komplek perumahan,Kota Sorong,"Jl. Kalimantan No.54, RT.002/RW.03, kelrahan, Klabala, Distrik Sorong Barat, kota, Papua Bar. 98411","RT.002/RW.03, kelrahan, Klabala, Distrik Sorong Barat, kota",PAPUA BARAT,98411.0,Indonesia,,-0.8678626,131.2535437,https://maps.google.com/?cid=0x0:0xebc996fab748f75f
perumahan,Komplek perumahan,Rumah Fadly blesia,"47M4+46R, Jl. Puncak Rafidim, Klabala, Distrik Sorong Barat, Kota Sorong, Papua Bar. 98411","Jl. Puncak Rafidim, Klabala, Distrik Sorong Barat, Kota Sorong",PAPUA BARAT,98411.0,Indonesia,,-0.8671465,131.2555214,https://maps.google.com/?cid=0x0:0xcbb4a8eef93a4246
perumahan,Komplek perumahan,keluarga banjar,"Jl. Kalimantan No.214, Klabala, Distrik Sorong Barat, Kota Sorong, Papua Bar. 98411","Klabala, Distrik Sorong Barat, Kota Sorong",PAPUA BARAT,98411.0,Indonesia,,-0.8670343,131.2540567,https://maps.google.com/?cid=0x0:0xf6a2f29aecc7a775
perumahan,Penginapan,AQWA D' WARMASEN,"Jl. Warmasen No.km. 13, Klamana, Distrik Sorong Timur, Kota Sorong, Papua Bar. 98416","Klamana, Distrik Sorong Timur, Kota Sorong",PAPUA BARAT,98416.0,Indonesia,,-0.9164321,131.3271369,https://maps.google.com/?cid=0x0:0x230398eb29e953eb
perumahan,Komplek perumahan,KPR CENRAWASIH GREEN PARK 1,"28PH+XP3, Malawili, Kec. Aimas, Kabupaten Sorong, Papua Bar. 98414","Malawili, Kec. Aimas, Kabupaten Sorong",PAPUA BARAT,98414.0,Indonesia,,-0.9626208,131.329288,https://maps.google.com/?cid=0x0:0x32bc2269675a6936
perumahan,Pembangunan Perumahan,PERUMAHAN GRAND EFATA MALIBELA SORONG,"Klawalu, Distrik Sorong Timur, Kota Sorong, Papua Bar.","Kota Sorong, Papua Bar.",PAPUA BARAT,,Indonesia,,-0.9033693,131.3111473,https://maps.google.com/?cid=0x0:0x66bc0b68afac7328
perumahan,Komplek perumahan,Kel. Djahri Banjar,"Jl. Kalimantan No.214, Klabala, Distrik Sorong Barat, Kota Sorong, Papua Bar. 98411","Klabala, Distrik Sorong Barat, Kota Sorong",PAPUA BARAT,98411.0,Indonesia,,-0.8671717,131.2543055,https://maps.google.com/?cid=0x0:0x7965f291f4a553ed
perumahan,perumahan,Sorong,"Kota Sorong, Papua Bar.","Kota Sorong, Papua Bar.",PAPUA BARAT,,Indonesia,,-0.8761629,131.255828,https://maps.google.com/?cid=0x0:0xe32b512ec6c6786
perumahan,Perumahan,Perumahan PRIMAVERA,"4868+VMF, Sawagumu, Kec. Sorong Utara, Kota Sorong, Papua Bar. 98416","Sawagumu, Kec. Sorong Utara, Kota Sorong",PAPUA BARAT,98416.0,Indonesia,,-0.8878074,131.3166657,https://maps.google.com/?cid=0x0:0x2462e3a5b347c433
perumahan,Pembangunan Perumahan,Kompleks Perumahan Bumi Sorong Permai,"4878+P6X, Bar., Sawagumu, Kec. Sorong Utara, Kota Sorong, Papua Bar. 98412","Bar., Sawagumu, Kec. Sorong Utara, Kota Sorong",PAPUA BARAT,98412.0,Indonesia,,-0.8856369,131.3156074,https://maps.google.com/?cid=0x0:0x15ce23ec45f06d86
perumahan,Pembangunan Perumahan,Perumahan KPR polisi KM 10,"487C+J53, jln malinda lorog 2, Jl. Kpr Polisi No.Km 10, Sawagumu, Kec. Sorong Utara, Kota Sorong, Papua Bar. 98416","jln malinda lorog 2, Jl. Kpr Polisi No.Km 10, Sawagumu, Kec. Sorong Utara, Kota Sorong",PAPUA BARAT,98416.0,Indonesia,,-0.8859939,131.3196924,https://maps.google.com/?cid=0x0:0x2f0551b37ba785f1
perumahan,Komplek perumahan,Perumahan jupiter,"nomor 3, Jl. Sungai Maruni No.km 10 blok b2","Kota Sorong, Papua Bar.",PAPUA BARAT,,Indonesia,,-0.8871871,131.3215211,https://maps.google.com/?cid=0x0:0x121e521340c347d3
perumahan,Komplek perumahan,PERUMAHAN SITORUS,"Klasabi, Kecamatan Sorong Manoi, Kota Sorong, Papua Bar.","Kota Sorong, Papua Bar.",PAPUA BARAT,,Indonesia,81217162873.0,-0.9038213,131.3002949,https://maps.google.com/?cid=0x0:0xd4ebf1635061dc83
perumahan,Apartemen sewa liburan,Perumahan residence,"Q2, Jl. Tanjung Medan, Malaingkedi, Kec. Sorong Utara, Kota Sorong, Papua Bar. 98412","Jl. Tanjung Medan, Malaingkedi, Kec. Sorong Utara, Kota Sorong",PAPUA BARAT,98412.0,Indonesia,,-0.888833,131.2948243,https://maps.google.com/?cid=0x0:0x9766ab086a7f50df
perumahan,Komplek perumahan,Perumahan Pengadilan Sorong,"4798+P6P, Bar., Klaligi, Kecamatan Sorong Manoi, Kota Sorong, Papua Bar. 98412","Bar., Klaligi, Kecamatan Sorong Manoi, Kota Sorong",PAPUA BARAT,98412.0,Indonesia,,-0.8806576,131.2655785,https://maps.google.com/?cid=0x0:0xba6b417b0aebbcd9
perumahan,Kantor Pemerintah,Kompleks Perumahan Dinas Perikanan,"4787+FJ7, Klaligi, Distrik Sorong, Kota Sorong, Papua Bar. 98412","Klaligi, Distrik Sorong, Kota Sorong",PAPUA BARAT,98412.0,Indonesia,85254185300.0,-0.8838393,131.2640476,https://maps.google.com/?cid=0x0:0x2a6979b6dc8456b8
perumahan,Komplek perumahan,Perumahan Aqwa Permai Residence II,"38PC+GJX, Klamana, Distrik Sorong Timur, Kota Sorong, Papua Bar. 98416","Klamana, Distrik Sorong Timur, Kota Sorong",PAPUA BARAT,98416.0,Indonesia,,-0.9136431,131.3216024,https://maps.google.com/?cid=0x0:0x69be66f3d7ee55d6
perumahan,Pembangunan Perumahan,PERUMAHAN GRAND EFATA MALIBELA SORONG,"Klawalu, Distrik Sorong Timur, Kota Sorong, Papua Bar.","Kota Sorong, Papua Bar.",PAPUA BARAT,,Indonesia,,-0.9033693,131.3111473,https://maps.google.com/?cid=0x0:0x66bc0b68afac7328
perumahan,Penginapan,AQWA D' WARMASEN,"Jl. Warmasen No.km. 13, Klamana, Distrik Sorong Timur, Kota Sorong, Papua Bar. 98416","Klamana, Distrik Sorong Timur, Kota Sorong",PAPUA BARAT,98416.0,Indonesia,,-0.9164321,131.3271369,https://maps.google.com/?cid=0x0:0x230398eb29e953eb
perumahan,perumahan,Perumahan KPR,"Jl. Celebes No.37, Klamana, Distrik Sorong Timur, Kota Sorong, Papua Bar. 98419","Klamana, Distrik Sorong Timur, Kota Sorong",PAPUA BARAT,98419.0,Indonesia,,-0.9150189,131.3221006,https://maps.google.com/?cid=0x0:0x3e3b54edc7bb4b38
perumahan,Penginapan,Perumahan Aqwa Residence No. 8,"38MJ+HG5, Klamana, Distrik Sorong Timur, Kota Sorong, Papua Bar. 98416","Klamana, Distrik Sorong Timur, Kota Sorong",PAPUA BARAT,98416.0,Indonesia,,-0.9156182,131.3312909,https://maps.google.com/?cid=0x0:0x6db490a8a3ed2750
perumahan,perumahan,Papua Bar. 98416,Papua Bar.,Papua Bar.,PAPUA BARAT,,Indonesia,,-0.8883325,131.3510866,https://maps.google.com/?cid=0x0:0x7d4c82915eeb19ce
perumahan,Pembangunan Perumahan,Perum BPJS,"482P+97C, Klaurung, Giwu, Distrik Sorong Timur, Kota Sorong, Papua Bar. 98416","Klaurung, Giwu, Distrik Sorong Timur, Kota Sorong",PAPUA BARAT,98416.0,Indonesia,,-0.899055,131.3356515,https://maps.google.com/?cid=0x0:0xa9329663cea3bf3f
perumahan,Layanan Transportasi,Perumahan BPTD XXV Kementerian Perhubungan,"38WG+28M, Klasaman, Distrik Sorong Timur, Kota Sorong, Papua Bar. 98416","Klasaman, Distrik Sorong Timur, Kota Sorong",PAPUA BARAT,98416.0,Indonesia,81212191284.0,-0.9049062,131.3257864,https://maps.google.com/?cid=0x0:0x1d80af0e62387afd
perumahan,Perumahan,PERUMAHAN KADAR SEJAHTERA UT,"38GH+JG3, Klamana, Distrik Sorong Timur, Kota Sorong, Papua Bar. 98416","Klamana, Distrik Sorong Timur, Kota Sorong",PAPUA BARAT,98416.0,Indonesia,81393948026.0,-0.9234805,131.3287945,https://maps.google.com/?cid=0x0:0x3bd0c08e1638e67e
perumahan,Perumahan,Perumahan Rahmat Fadillah,"Klamana, Distrik Sorong Timur, Kota Sorong, Papua Bar. 98416","Distrik Sorong Timur, Kota Sorong",PAPUA BARAT,98416.0,Indonesia,,-0.9226665,131.3270658,https://maps.google.com/?cid=0x0:0x2dd1d4a325aadd5
perumahan,Pembangunan Perumahan,KPR Bogowonto,"485M+M73, Unnamed Road, Matalamagi, Kec. Sorong Utara, Kota Sorong, Papua Bar. 98416","Unnamed Road, Matalamagi, Kec. Sorong Utara, Kota Sorong",PAPUA BARAT,98416.0,Indonesia,,-0.8908561,131.3331635,https://maps.google.com/?cid=0x0:0x7bcb349f7dfabd06
perumahan,Pembangunan Perumahan,Perumahan KPR polisi KM 10,"487C+J53, jln malinda lorog 2, Jl. Kpr Polisi No.Km 10, Sawagumu, Kec. Sorong Utara, Kota Sorong, Papua Bar. 98416","jln malinda lorog 2, Jl. Kpr Polisi No.Km 10, Sawagumu, Kec. Sorong Utara, Kota Sorong",PAPUA BARAT,98416.0,Indonesia,,-0.8859939,131.3196924,https://maps.google.com/?cid=0x0:0x2f0551b37ba785f1
perumahan,Komplek perumahan,Rumah Dinas BMKG GAW SORONG,"Jl. Santer, Matalamagi, Kec. Sorong Utara, Kota Sorong, Papua Bar. 98416","Matalamagi, Kec. Sorong Utara, Kota Sorong",PAPUA BARAT,98416.0,Indonesia,9513138217.0,-0.8866282,131.3281526,https://maps.google.com/?cid=0x0:0x5e5c933e5a21299e
perumahan,perumahan,Perumahan BPJS Blok B.17,"482P+G6M, Klasaman, Distrik Sorong Timur, Kota Sorong, Papua Bar. 98416","Klasaman, Distrik Sorong Timur, Kota Sorong",PAPUA BARAT,98416.0,Indonesia,,-0.8985612,131.3354604,https://maps.google.com/?cid=0x0:0xa730169e424b2b51
perumahan,Pembangunan Perumahan,Perumahan PEAK Residence,"486H+CG2, Jl. Srikandi, Matalamagi, Kec. Sorong Utara, Kota Sorong, Papua Bar. 98416","Jl. Srikandi, Matalamagi, Kec. Sorong Utara, Kota Sorong",PAPUA BARAT,98416.0,Indonesia,85244303717.0,-0.8889872,131.3287805,https://maps.google.com/?cid=0x0:0xcad5af7d54a7de98
perumahan,perumahan,Perumahan BPJS (Griya Pekerja Sejahtera),"482P+G6M, Klasaman, Distrik Sorong Timur, Kota Sorong, Papua Bar. 98416","Klasaman, Distrik Sorong Timur, Kota Sorong",PAPUA BARAT,98416.0,Indonesia,,-0.8985917,131.33545,https://maps.google.com/?cid=0x0:0x753c4c0e933ff207
perumahan,Komplek perumahan,Perumahan Rira Permai,"38MC+7MV, Klamana, Distrik Sorong Timur, Kota Sorong, Papua Bar. 98416","Klamana, Distrik Sorong Timur, Kota Sorong",PAPUA BARAT,98416.0,Indonesia,,-0.9171411,131.3213431,https://maps.google.com/?cid=0x0:0x5b673141fa011f98
perumahan,Komplek perumahan,Perumahan nurlela mandiri,"Jl. Klasiban No.km 13, Klamana, Distrik Sorong Timur, Kota Sorong, Papua Bar. 98416","Klamana, Distrik Sorong Timur, Kota Sorong",PAPUA BARAT,98416.0,Indonesia,,-0.9124798,131.3278747,https://maps.google.com/?cid=0x0:0x81848a37cd98986a
perumahan,Otoritas Perumahan,"Perumahan Gustia X,kelurahan giwu,kecamatan klaurung","483P+VF4, Jl. Poncowati, Giwu, Distrik Sorong Timur, Kota Sorong, Papua Bar. 98416","Jl. Poncowati, Giwu, Distrik Sorong Timur, Kota Sorong",PAPUA BARAT,98416.0,Indonesia,,-0.8969182,131.3296531,https://maps.google.com/?cid=0x0:0x1eed4d5f711bdbfe
housing complex,housing complex,Papua Bar. 98457,"Kabupaten Sorong, Papua Bar.","Kabupaten Sorong, Papua Bar.",PAPUA BARAT,,Indonesia,,-1.0666951,131.5012792,https://maps.google.com/?cid=0x0:0x60164e450d5e6bd7
housing complex,Perumahan,Official Daeng,"2977+V9F, Aimas, Kec. Aimas, Kabupaten Sorong, Papua Bar. 98415","Aimas, Kec. Aimas, Kabupaten Sorong",PAPUA BARAT,98415.0,Indonesia,,-0.9853012,131.3641862,https://maps.google.com/?cid=0x0:0x3c1741bbb1b48d67
housing complex,Pembangunan Perumahan,Aimas Residence,"28XG+42V, Malawili, Kec. Aimas, Kabupaten Sorong, Papua Bar. 98414","Malawili, Kec. Aimas, Kabupaten Sorong",PAPUA BARAT,98414.0,Indonesia,82197911019.0,-0.9521327,131.3250407,https://maps.google.com/?cid=0x0:0x671abe7d65333270
housing complex,Pembangunan Perumahan,Komplex Distrik Klamono (S.P.D) _ Rumah Dewika Klamono,"VF8G+VX, Klawana, Distrik Klamono, Kabupaten Sorong, Papua Bar. 98457","Klawana, Distrik Klamono, Kabupaten Sorong",PAPUA BARAT,98457.0,Indonesia,,-1.1328447,131.4774787,https://maps.google.com/?cid=0x0:0xf53f824735e052cc
housing complex,Komplek perumahan,ð»ðððð,"VFHR+45, Klamono, Distrik Klamono, Kabupaten Sorong, Papua Bar. 98457","Klamono, Distrik Klamono, Kabupaten Sorong",PAPUA BARAT,98457.0,Indonesia,,-1.1220796,131.4903823,https://maps.google.com/?cid=0x0:0x1e2c066fdff34044
housing complex,Pembangunan Perumahan,Jalur A,"28PM+FFR, Jl. Mangga, Malawili, Kec. Aimas, Kabupaten Sorong, Papua Bar. 98414","Jl. Mangga, Malawili, Kec. Aimas, Kabupaten Sorong",PAPUA BARAT,98414.0,Indonesia,,-0.9637542,131.333651,https://maps.google.com/?cid=0x0:0xca9ecfeed8aa24f2
housing complex,Pengembang Realestat,GGT RESIDENCE,"Jl. Wortel No.7, Malawele, Kec. Aimas, Kabupaten Sorong, Papua Bar.","Kabupaten Sorong, Papua Bar.",PAPUA BARAT,,Indonesia,,-0.9627493,131.3033743,https://maps.google.com/?cid=0x0:0xc9b12b12ff29e121
housing complex,Komplek perumahan,AIMAS REGENCI,"X9WQ+XMQ, Aimas, Kec. Aimas, Kabupaten Sorong, Papua Bar. 98415","Aimas, Kec. Aimas, Kabupaten Sorong",PAPUA BARAT,98415.0,Indonesia,,-1.0025481,131.3892239,https://maps.google.com/?cid=0x0:0xc4b0ed1cad52ee56
housing complex,Komplek perumahan,Twentyfour City,"2987+5MG, Aimas, Kec. Aimas, Kabupaten Sorong, Papua Bar. 98415","Aimas, Kec. Aimas, Kabupaten Sorong",PAPUA BARAT,98415.0,Indonesia,,-0.984565,131.364209,https://maps.google.com/?cid=0x0:0xbde86ca7ff8af678
housing complex,Komplek perumahan,Rumah HENGKI,"WF99+2MC, Klalomon, Distrik Klamono, Kabupaten Sorong, Papua Bar. 98457","Klalomon, Distrik Klamono, Kabupaten Sorong",PAPUA BARAT,98457.0,Indonesia,,-1.0824272,131.4691377,https://maps.google.com/?cid=0x0:0x8cab30f156682ce0
housing complex,housing complex,Igelmeidian,"VFGQ+G3R, Klamono, Distrik Klamono, Kabupaten Sorong, Papua Bar.","Kabupaten Sorong, Papua Bar.",PAPUA BARAT,,Indonesia,,-1.1236341,131.4876547,https://maps.google.com/?cid=0x0:0x105bded873cd7b38
housing complex,Komplek perumahan,Eka ð¡,"2987+4V4, Aimas, Kec. Aimas, Kabupaten Sorong, Papua Bar. 98415","Aimas, Kec. Aimas, Kabupaten Sorong",PAPUA BARAT,98415.0,Indonesia,,-0.983961,131.3650405,https://maps.google.com/?cid=0x0:0x4589d0b3400fa4eb
housing complex,Pembangunan Perumahan,Kompleks aifat,"X9XP+2R, Aimas, Kec. Aimas, Kabupaten Sorong, Papua Bar.","Kabupaten Sorong, Papua Bar.",PAPUA BARAT,,Indonesia,,-1.0024503,131.3870571,https://maps.google.com/?cid=0x0:0x7e6069b72046e42a
housing complex,Komplek perumahan,Perlu di cek,"29GC+4F6, Aimas, Kec. Aimas, Kabupaten Sorong, Papua Bar.","Kabupaten Sorong, Papua Bar.",PAPUA BARAT,,Indonesia,,-0.9747009,131.3711358,https://maps.google.com/?cid=0x0:0x4d6160effe6aeb6c
housing complex,housing complex,Papua Bar. 98453,"Kabupaten Sorong, Papua Bar.","Kabupaten Sorong, Papua Bar.",PAPUA BARAT,,Indonesia,,-1.3400215,131.6410914,https://maps.google.com/?cid=0x0:0x3be69fb5df79c3fb
housing complex,housing complex,"Kampung Klamak, Distrik Beraur","Jl. Klawan No. O7, Distrik Beraur, Kabupaten Sorong, Papua Bar. Daya","Kabupaten Sorong, Papua Bar.",PAPUA BARAT,,Indonesia,,-1.282355,131.7019038,https://maps.google.com/?cid=0x0:0x684148772828a5f3
housing complex,Perhimpunan Pengembang Perumahan,"Kampung wensi, distrik beraur","PQ23+376, Wensi, Distrik Beraur, Kabupaten Sorong, Papua Bar.","Kabupaten Sorong, Papua Bar.",PAPUA BARAT,,Indonesia,,-1.2998452,131.7531421,https://maps.google.com/?cid=0x0:0x7c6d303abea1fbf6
housing complex,Komplek perumahan,Kampung Saluk,"WQ8V+8CJ, Saluk, Kec. Sayosa, Kabupaten Sorong, Papua Bar.","Kabupaten Sorong, Papua Bar.",PAPUA BARAT,,Indonesia,,-1.0841569,131.7935288,https://maps.google.com/?cid=0x0:0xc6210311576ea8d3
housing complex,Perhimpunan Pengembang Perumahan,DESA BOTAIN,"GGGG+HWX, Hutan, Kec. Hutan, Kabupaten Sorong, Papua Bar. 98453","Hutan, Kec. Hutan, Kabupaten Sorong",PAPUA BARAT,98453.0,Indonesia,,-1.4735052,131.5273611,https://maps.google.com/?cid=0x0:0x663b468581d2c04c
housing complex,Komplek perumahan,Kampung Kass,"PP4C+HW, Kaas, Distrik Beraur, Kabupaten Sorong, Papua Bar.","Kabupaten Sorong, Papua Bar.",PAPUA BARAT,,Indonesia,,-1.2935222,131.7222476,https://maps.google.com/?cid=0x0:0xb7e83ee39ccd3807
housing complex,housing complex,Negara beraur,"PP49+J3F, Wanurian, Distrik Beraur, Kabupaten Sorong, Papua Bar. 98453","Wanurian, Distrik Beraur, Kabupaten Sorong",PAPUA BARAT,98453.0,Indonesia,,-1.2940029,131.7185204,https://maps.google.com/?cid=0x0:0x2c7675827304c029
housing complex,Gedung Apartemen,Apartemen Casa de Parco,"Sampora Kecamatan Cisauk Kawasan Taman Kota Barat, Gg. Kavling 2 No.3, Bumi, Serpong Damai, Kabupaten Tangerang, Banten 15345","Gg. Kavling 2 No.3, Bumi, Serpong Damai, Kabupaten Tangerang",PAPUA BARAT,15345.0,Indonesia,882016208379.0,-6.3061803,106.6521992,https://maps.google.com/?cid=0x0:0x80b5fdbbd16250ca
housing complex,housing complex,,,,PAPUA BARAT,,Indonesia,,,,https://maps.google.com/?cid=0x0:0x65b551b2b402ef96%7C/g/11dxcjsd9w%7Cid-ID
housing complex,housing complex,Green Lake View Ciputat,"Jl. Dewi Sartika No.34, Ciputat, Kec. Ciputat, Kota Tangerang Selatan, Banten 15411","Ciputat, Kec. Ciputat, Kota Tangerang Selatan",PAPUA BARAT,15411.0,Indonesia,2174712002.0,-6.3175092,106.7451121,https://maps.google.com/?cid=0x0:0x65b551b2b402ef96
housing complex,Kebun Binatang,Taman Margasatwa Ragunan,"Jl. Harsono Rm Dalam No.1, Ragunan, Ps. Minggu, Kota Jakarta Selatan, Daerah Khusus Ibukota Jakarta 12550","Ragunan, Ps. Minggu, Kota Jakarta Selatan",PAPUA BARAT,12550.0,Indonesia,2178847114.0,-6.3059887,106.820353,https://maps.google.com/?cid=0x0:0xf9dd2a3f5ab5069a
housing complex,Gedung Apartemen,The Elements,"Jl. Epicentrum Tengah, RT.1/RW.5, Karet Kuningan, Kecamatan Setiabudi, Kota Jakarta Selatan, Daerah Khusus Ibukota Jakarta 12960","RT.1/RW.5, Karet Kuningan, Kecamatan Setiabudi, Kota Jakarta Selatan",PAPUA BARAT,12960.0,Indonesia,2150105059.0,-6.2165824,106.8344503,https://maps.google.com/?cid=0x0:0x275e4744cf0c9b39
housing complex,Layanan Transportasi,Jurang Mangu,"Jl. Tegal Rotan Raya, Pd. Jaya, Kec. Ciputat, Kota Tangerang Selatan, Banten 15413","Pd. Jaya, Kec. Ciputat, Kota Tangerang Selatan",PAPUA BARAT,15413.0,Indonesia,,-6.2887899,106.7291221,https://maps.google.com/?cid=0x0:0x439cd2b52dc67b80
housing complex,Gedung Apartemen,Elegance Tower at Southgate,"elegance tower, Jl. Raya Tj. Barat, RT.12/RW.4, Tj. Bar., Kec. Jagakarsa, Kota Jakarta Selatan, Daerah Khusus Ibukota Jakarta 12530","Jl. Raya Tj. Barat, RT.12/RW.4, Tj. Bar., Kec. Jagakarsa, Kota Jakarta Selatan",PAPUA BARAT,12530.0,Indonesia,2129580080.0,-6.3072404,106.8405226,https://maps.google.com/?cid=0x0:0xb88cb8c30b3a334
housing complex,housing complex,Distrik Klabot,"Kabupaten Sorong, Papua Bar.","Kabupaten Sorong, Papua Bar.",PAPUA BARAT,,Indonesia,,-1.3398522,131.7726302,https://maps.google.com/?cid=0x0:0xc080466b0abc7b60
housing complex,Komplek perumahan,Distrik klabot,"MQ6F+332, Klais, Distrik Klabot, Kabupaten Sorong, Papua Bar.","Kabupaten Sorong, Papua Bar.",PAPUA BARAT,,Indonesia,,-1.3398522,131.7726302,https://maps.google.com/?cid=0x0:0x5e78cf0b890f3953
housing complex,Pembangunan Perumahan,Rumah Dinas,"MQ6F+332, Klais, Distrik Klabot, Kabupaten Sorong, Papua Bar.","Kabupaten Sorong, Papua Bar.",PAPUA BARAT,,Indonesia,,-1.3398522,131.7726302,https://maps.google.com/?cid=0x0:0xdb851b36df2b8e96
housing complex,Komplek perumahan,Kampung Mlakhan,"MQ5F+7Q, Mimpe, Mlakhan, Kabupaten Sorong, Papua Bar.","Kabupaten Sorong, Papua Bar.",PAPUA BARAT,,Indonesia,,-1.3418125,131.7744375,https://maps.google.com/?cid=0x0:0xac55bb55932e5a10
housing complex,housing complex,Papua Bar. 98456,Papua Bar.,Papua Bar.,PAPUA BARAT,,Indonesia,,-1.2191286,131.8799408,https://maps.google.com/?cid=0x0:0x1193e0fa67947a8b
housing complex,Pembangunan Perumahan,Komplex Distrik Klamono (S.P.D) _ Rumah Dewika Klamono,"VF8G+VX, Klawana, Distrik Klamono, Kabupaten Sorong, Papua Bar. 98457","Klawana, Distrik Klamono, Kabupaten Sorong",PAPUA BARAT,98457.0,Indonesia,,-1.1328447,131.4774787,https://maps.google.com/?cid=0x0:0xf53f824735e052cc
housing complex,Komplek perumahan,Perumahan Divisi I Klasafet,"WG7X+6X, Maladuk, Distrik Klamono, Kabupaten Sorong, Papua Bar.","Kabupaten Sorong, Papua Bar.",PAPUA BARAT,,Indonesia,,-1.0868925,131.5500456,https://maps.google.com/?cid=0x0:0xe83fe1f3e920a026
housing complex,housing complex,Klamono pt.hip,"WHP8+RX, Maladofok, Kec. Sayosa, Kabupaten Sorong, Papua Bar.","Kabupaten Sorong, Papua Bar.",PAPUA BARAT,,Indonesia,,-1.0629357,131.5674896,https://maps.google.com/?cid=0x0:0x546b2ddfa415c6fd
housing complex,Perhimpunan Pengembang Perumahan,KAMPUNG MALASMILIY,"VFGM+JGX, Klamono, Distrik Klamono, Kabupaten Sorong, Papua Bar.","Kabupaten Sorong, Papua Bar.",PAPUA BARAT,,Indonesia,,-1.1233761,131.4838729,https://maps.google.com/?cid=0x0:0xe53258c7dcb99408
housing complex,Komplek perumahan,ð»ðððð,"VFHR+45, Klamono, Distrik Klamono, Kabupaten Sorong, Papua Bar. 98457","Klamono, Distrik Klamono, Kabupaten Sorong",PAPUA BARAT,98457.0,Indonesia,,-1.1220796,131.4903823,https://maps.google.com/?cid=0x0:0x1e2c066fdff34044
housing complex,housing complex,Igelmeidian,"VFGQ+G3R, Klamono, Distrik Klamono, Kabupaten Sorong, Papua Bar.","Kabupaten Sorong, Papua Bar.",PAPUA BARAT,,Indonesia,,-1.1236341,131.4876547,https://maps.google.com/?cid=0x0:0x105bded873cd7b38
housing complex,Komplek perumahan,Kampung Klalin Mos,"VRFM+6M8, Mlabolo, Distrik Sawiat, Kabupaten Sorong Selatan, Papua Bar. 98456","Mlabolo, Distrik Sawiat, Kabupaten Sorong Selatan",PAPUA BARAT,98456.0,Indonesia,,-1.1269681,131.8342085,https://maps.google.com/?cid=0x0:0x47a1129e2b6a475
housing complex,Komplek perumahan,Kampung Mlabolo,"VV4F+HQX, Mlabolo, Distrik Sawiat, Kabupaten Sorong Selatan, Papua Bar. 98456","Mlabolo, Distrik Sawiat, Kabupaten Sorong Selatan",PAPUA BARAT,98456.0,Indonesia,,-1.143506,131.8744778,https://maps.google.com/?cid=0x0:0x6bea1fa14304682
housing complex,Komplek perumahan,Ina,"VFHQ+38Q Sp 1, Klamono, Distrik Klamono, Kabupaten Sorong, Papua Bar.","Kabupaten Sorong, Papua Bar.",PAPUA BARAT,,Indonesia,,-1.1222877,131.488359,https://maps.google.com/?cid=0x0:0xdc783a3c7e961114
housing complex,Komplek perumahan,Jupiter,"Jln.selat kamundan km 10, Klamono, Distrik Klamono, Kabupaten Sorong, Papua Bar. 98457","Klamono, Distrik Klamono, Kabupaten Sorong",PAPUA BARAT,98457.0,Indonesia,,-1.1222877,131.488359,https://maps.google.com/?cid=0x0:0x270b09988985fe3a
housing complex,Komplek perumahan,Kampung Kamlin,"VV53+QM9, Mlabolo, Distrik Sawiat, Kabupaten Sorong Selatan, Papua Bar. 98456","Mlabolo, Distrik Sawiat, Kabupaten Sorong Selatan",PAPUA BARAT,98456.0,Indonesia,,-1.1405773,131.8542335,https://maps.google.com/?cid=0x0:0x1c389744a2116ebb
housing complex,housing complex,CHUZME TKR,"VFHQ+38Q, Klamono, Distrik Klamono, Kabupaten Sorong, Papua Bar.","Kabupaten Sorong, Papua Bar.",PAPUA BARAT,,Indonesia,,-1.1222877,131.488359,https://maps.google.com/?cid=0x0:0x51361faffd6f2354
housing complex,Komplek perumahan,Rumah HENGKI,"WF99+2MC, Klalomon, Distrik Klamono, Kabupaten Sorong, Papua Bar. 98457","Klalomon, Distrik Klamono, Kabupaten Sorong",PAPUA BARAT,98457.0,Indonesia,,-1.0824272,131.4691377,https://maps.google.com/?cid=0x0:0x8cab30f156682ce0
housing complex,housing complex,Distrik Klaso,"Kabupaten Sorong, Papua Bar.","Kabupaten Sorong, Papua Bar.",PAPUA BARAT,,Indonesia,,-0.760926,131.7815518,https://maps.google.com/?cid=0x0:0xffc7826f232f6dfa
housing complex,Pembangunan Perumahan,Klabasi,"6V6H+9R, Siwis, Miskum, Kabupaten Sorong, Papua Bar. 98472","Siwis, Miskum, Kabupaten Sorong",PAPUA BARAT,98472.0,Indonesia,,-0.7890569,131.8795996,https://maps.google.com/?cid=0x0:0x1ddacd5b0032cc54
housing complex,Pembangunan Perumahan,Rumah Nakes,"6R2J+86, Siwis, Distrik Klaso, Kabupaten Sorong, Papua Bar.","Kabupaten Sorong, Papua Bar.",PAPUA BARAT,,Indonesia,,-0.7991956,131.830609,https://maps.google.com/?cid=0x0:0xf1919f67d416c599
housing complex,housing complex,Kompleks BUTON,"8WX5+FM, Kwade, Moraid, Kabupaten Sorong, Papua Bar.","Kabupaten Sorong, Papua Bar.",PAPUA BARAT,,Indonesia,,-0.6512961,131.9091668,https://maps.google.com/?cid=0x0:0x731e70a9f08ed17b
housing complex,Pembangunan Perumahan,"Kampung Miskum, Distrik Klaso (Klabasi) Kab. Sorong","8W82+RW2, Miskum, Distrik Klaso, Kabupaten Sorong, Papua Bar.","Kabupaten Sorong, Papua Bar.",PAPUA BARAT,,Indonesia,,-0.6829753,131.9022792,https://maps.google.com/?cid=0x0:0xf688d9d0f5d4827b
housing complex,Komplek perumahan,Kampung Ramah Mamalia Klalik,"5RM5+665, Siwis, Distrik Klaso, Kabupaten Sorong, Papua Bar.","Kabupaten Sorong, Papua Bar.",PAPUA BARAT,,Indonesia,,-0.8169966,131.8080999,https://maps.google.com/?cid=0x0:0x2f73c78fca53e2fb
housing complex,Komplek perumahan,"Kampung Selekobo, Distrik Saengkeduk","6WRH+RJ, Selekobo, Distrik Klaso, Kabupaten Sorong, Papua Bar.","Kabupaten Sorong, Papua Bar.",PAPUA BARAT,,Indonesia,,-0.7579923,131.9290832,https://maps.google.com/?cid=0x0:0x221cd38b16373659
housing complex,Komplek perumahan,Kampung Saengkeduk,"62M5+VHJ, Sengkeduk, Kabupaten Sorong, Papua Bar.","Kabupaten Sorong, Papua Bar.",PAPUA BARAT,,Indonesia,,-0.7652889,132.0088792,https://maps.google.com/?cid=0x0:0x19221ebd9f1d38f8
housing complex,Komplek perumahan,Kampung malaworsai,"8WGJ+GX, Mega, Moraid, Kabupaten Sorong, Papua Bar.","Kabupaten Sorong, Papua Bar.",PAPUA BARAT,,Indonesia,,-0.6737182,131.9324964,https://maps.google.com/?cid=0x0:0x2b79d51d30d660d5
housing complex,housing complex,Akom,"8WG6+53 AKOM SONA MERA, Mega, Moraid, Kabupaten Sorong, Papua Bar.","Kabupaten Sorong, Papua Bar.",PAPUA BARAT,,Indonesia,,-0.6767173,131.9135714,https://maps.google.com/?cid=0x0:0xafa0399bc4564064
housing complex,Perhimpunan Pengembang Perumahan,Jlr SAMPEL,"8WP3+QPX, Mega, Moraid, Kabupaten Sorong, Papua Bar. 98472","Mega, Moraid, Kabupaten Sorong",PAPUA BARAT,98472.0,Indonesia,,-0.6635526,131.9043509,https://maps.google.com/?cid=0x0:0x8b12c1373d5f1020
housing complex,Komplek perumahan,Distrik moraid,"8V7G+CWM, Kabupaten Sorong, Papua Bar.","Kabupaten Sorong, Papua Bar.",PAPUA BARAT,,Indonesia,,-0.68641,131.877304,https://maps.google.com/?cid=0x0:0xff77deb4c132656
housing complex,Komplek perumahan,Kampung Selemalawili,"7RM8+G7F, Dela, Moraid, Kabupaten Sorong, Papua Bar. 98472","Dela, Moraid, Kabupaten Sorong",PAPUA BARAT,98472.0,Indonesia,,-0.7166448,131.8145914,https://maps.google.com/?cid=0x0:0x64c628c350a532f0
housing complex,Perhimpunan Pengembang Perumahan,Kampung malasaga,"4PX6+V2, Malakobutuk, Distrik Klayili, Kabupaten Sorong, Papua Bar.","Kabupaten Sorong, Papua Bar.",PAPUA BARAT,,Indonesia,,-0.850264,131.710112,https://maps.google.com/?cid=0x0:0xadaacb01fb7529a7
housing complex,housing complex,Distrik Klawak,"Kabupaten Sorong, Papua Bar.","Kabupaten Sorong, Papua Bar.",PAPUA BARAT,,Indonesia,,-1.1756003,131.7703046,https://maps.google.com/?cid=0x0:0xa4ffc415fb4dcb3c
housing complex,housing complex,Kampung Klasawon,"PQXV+QC6, Kaas, Distrik Beraur, Kabupaten Sorong, Papua Bar.","Kabupaten Sorong, Papua Bar.",PAPUA BARAT,,Indonesia,,-1.2505833,131.7935016,https://maps.google.com/?cid=0x0:0x616e010faca5bead
housing complex,housing complex,Kampung Klasawon,"QR72+W8, Mlawen, Klasawon, Kabupaten Sorong, Papua Bar.","Kabupaten Sorong, Papua Bar.",PAPUA BARAT,,Indonesia,,-1.2351875,131.8008125,https://maps.google.com/?cid=0x0:0x47f714f97ec7159b
housing complex,Komplek perumahan,Kampung Klamintu,"WMFX+G4V, Saluk, Kec. Sayosa, Kabupaten Sorong, Papua Bar. 98471","Saluk, Kec. Sayosa, Kabupaten Sorong",PAPUA BARAT,98471.0,Indonesia,,-1.0761342,131.6977967,https://maps.google.com/?cid=0x0:0xcc506089ea1fa9c9
housing complex,housing complex,"Kampung Klamak, Distrik Beraur","Jl. Klawan No. O7, Distrik Beraur, Kabupaten Sorong, Papua Bar. Daya","Kabupaten Sorong, Papua Bar.",PAPUA BARAT,,Indonesia,,-1.282355,131.7019038,https://maps.google.com/?cid=0x0:0x684148772828a5f3
housing complex,Komplek perumahan,Kampung Saluk,"WQ8V+8CJ, Saluk, Kec. Sayosa, Kabupaten Sorong, Papua Bar.","Kabupaten Sorong, Papua Bar.",PAPUA BARAT,,Indonesia,,-1.0841569,131.7935288,https://maps.google.com/?cid=0x0:0xc6210311576ea8d3
housing complex,Komplek perumahan,Kampung Klalin Mos,"VRFM+6M8, Mlabolo, Distrik Sawiat, Kabupaten Sorong Selatan, Papua Bar. 98456","Mlabolo, Distrik Sawiat, Kabupaten Sorong Selatan",PAPUA BARAT,98456.0,Indonesia,,-1.1269681,131.8342085,https://maps.google.com/?cid=0x0:0x47a1129e2b6a475
housing complex,Komplek perumahan,Kampung Mlabolo,"VV4F+HQX, Mlabolo, Distrik Sawiat, Kabupaten Sorong Selatan, Papua Bar. 98456","Mlabolo, Distrik Sawiat, Kabupaten Sorong Selatan",PAPUA BARAT,98456.0,Indonesia,,-1.143506,131.8744778,https://maps.google.com/?cid=0x0:0x6bea1fa14304682
housing complex,Komplek perumahan,Mlabolo Kabupaten Sorong Selatan,"VV4F+3H, Mlabolo, Distrik Sawiat, Kabupaten Sorong Selatan, Papua Bar.","Kabupaten Sorong Selatan, Papua Bar.",PAPUA BARAT,,Indonesia,,-1.144761,131.8736437,https://maps.google.com/?cid=0x0:0x1186dc393c25efbd
housing complex,Komplek perumahan,Kofalit,"RV7G+6J, Kofalit, Distrik Sawiat, Kabupaten Sorong Selatan, Papua Bar.","Kabupaten Sorong Selatan, Papua Bar.",PAPUA BARAT,,Indonesia,,-1.1868824,131.8765522,https://maps.google.com/?cid=0x0:0x67a2c4ed36fb715a
housing complex,Komplek perumahan,ALLZET,"H297+94R, Kohoin, Kec. Teminabuan, Kabupaten Sorong Selatan, Papua Bar. 98454","Kohoin, Kec. Teminabuan, Kabupaten Sorong Selatan",PAPUA BARAT,98454.0,Indonesia,,-1.4315166,132.0127581,https://maps.google.com/?cid=0x0:0x1888a9d9de8bdbba
housing complex,Komplek perumahan,kpn kwari,"WQJ5+8RJ, Saluk, Kec. Sayosa, Kabupaten Sorong, Papua Bar. 98471","Saluk, Kec. Sayosa, Kabupaten Sorong",PAPUA BARAT,98471.0,Indonesia,,-1.069169,131.759525,https://maps.google.com/?cid=0x0:0xb82bb1e6557b9106
housing complex,Komplek perumahan,Kel.J.J.Kokorule/Nibaely,"G2XJ+GFC, Wernas, Kec. Teminabuan, Kabupaten Sorong Selatan, Papua Bar.","Kabupaten Sorong Selatan, Papua Bar.",PAPUA BARAT,,Indonesia,,-1.4511757,132.031148,https://maps.google.com/?cid=0x0:0x18be9fb069a3c5a5
housing complex,Komplek perumahan,Kampung A,"H256+WX8, Jl. Sengget, Kohoin, Kec. Teminabuan, Kabupaten Sorong Selatan, Papua Bar. 98454","Jl. Sengget, Kohoin, Kec. Teminabuan, Kabupaten Sorong Selatan",PAPUA BARAT,98454.0,Indonesia,,-1.4402207,132.0124607,https://maps.google.com/?cid=0x0:0xb89bb9d623348ff4
housing complex,Pembangunan Perumahan,KAMPUNG KLAYILI,"3HH7+34J, JL, Kuadas, Distrik Klayili, Kabupaten Sorong, Papua Bar. 98471","JL, Kuadas, Distrik Klayili, Kabupaten Sorong",PAPUA BARAT,98471.0,Indonesia,,-0.9222942,131.562766,https://maps.google.com/?cid=0x0:0xb577df782ccfdd32
housing complex,Komplek perumahan,Kali kalaga,"XFVM+Q8C, Malalilis, Distrik Klayili, Kabupaten Sorong, Papua Bar.","Kabupaten Sorong, Papua Bar.",PAPUA BARAT,,Indonesia,,-1.0055672,131.4832807,https://maps.google.com/?cid=0x0:0x8140f303317da48a
housing complex,Pusat Kesehatan Masyarakat,PUSKESMAS KLAYILI,"3HH8+C4, Kuadas, Distrik Klayili, Kabupaten Sorong, Papua Bar.","Kabupaten Sorong, Papua Bar.",PAPUA BARAT,,Indonesia,,-0.9214637,131.5653546,https://maps.google.com/?cid=0x0:0xcbaf94f44e296ddd
housing complex,housing complex,Kec. Makbon,"Kabupaten Sorong, Papua Bar.","Kabupaten Sorong, Papua Bar.",PAPUA BARAT,,Indonesia,,-0.7584809,131.586328,https://maps.google.com/?cid=0x0:0x4d3844fe7f245ffc
housing complex,Komplek perumahan,kampung malagisih distrik makbon,"Jl. Sorong - Makbon, Batu Lobang, Kec. Makbon, Kabupaten Sorong, Papua Bar.","Kabupaten Sorong, Papua Bar.",PAPUA BARAT,,Indonesia,,-0.7995278,131.4284057,https://maps.google.com/?cid=0x0:0xbb3a18c2f5b7514
housing complex,housing complex,Rumah keluarga Wally/Paa,"7G3Q+34R, Makbon, Kec. Makbon, Kabupaten Sorong, Papua Bar.","Kabupaten Sorong, Papua Bar.",PAPUA BARAT,,Indonesia,,-0.7472687,131.5377728,https://maps.google.com/?cid=0x0:0x95fdec6c520d19e1
housing complex,Komplek perumahan,Makbon,"484P+F3R, Giwu, Distrik Sorong Timur, Kota Sorong, Papua Bar. 98416","Giwu, Distrik Sorong Timur, Kota Sorong",PAPUA BARAT,98416.0,Indonesia,,-0.8937635,131.3351355,https://maps.google.com/?cid=0x0:0x2a9a766a870af119
housing complex,Komplek perumahan,kampung kalasbon,"Jl. Sorong - Tambrauw, Malaumkarta, Kec. Makbon, Kabupaten Sorong, Papua Bar. 98471","Malaumkarta, Kec. Makbon, Kabupaten Sorong",PAPUA BARAT,98471.0,Indonesia,,-0.7677927,131.5567532,https://maps.google.com/?cid=0x0:0xf8b9adb853763649
housing complex,Pembangunan Perumahan,Kompleks Way,"484M+WHP, Jalan, Matalamagi, Makbon, Sorong Regency, West Papua 98416","Jalan, Matalamagi, Makbon, Sorong Regency",PAPUA BARAT,98416.0,Indonesia,,-0.8926638,131.3339411,https://maps.google.com/?cid=0x0:0x80008afaea5a1df8
housing complex,Komplek perumahan,rumah orang,"7M4M+J9, Asbaken, Kec. Makbon, Kabupaten Sorong, Papua Bar.","Kabupaten Sorong, Papua Bar.",PAPUA BARAT,,Indonesia,,-0.7433815,131.6833882,https://maps.google.com/?cid=0x0:0x99a02312c6c5d924
housing complex,housing complex,Nardo,"48FM+FV9, Jl. Sorong - Makbon, Matalamagi, Kec. Sorong Utara, Kota Sorong, Papua Bar. 98416","Jl. Sorong - Makbon, Matalamagi, Kec. Sorong Utara, Kota Sorong",PAPUA BARAT,98416.0,Indonesia,,-0.8763337,131.3347252,https://maps.google.com/?cid=0x0:0x858580bf84bb52b
housing complex,Komplek perumahan,Kampung makbon,"49Q9+8C4, Jl. Sorong - Makbon, Giwu, Distrik Sorong Timur, Kota Sorong, Papua Bar.","Kota Sorong, Papua Bar.",PAPUA BARAT,,Indonesia,,-0.8617279,131.3685826,https://maps.google.com/?cid=0x0:0x1b61676fd39da761
housing complex,Komplek perumahan,Rumah Riki semunya,"Howait, Jl. Trans Papua Barat, Asbaken, Kec. Makbon, Kabupaten Sorong, Papua Bar.","Kabupaten Sorong, Papua Bar.",PAPUA BARAT,,Indonesia,,-0.7683646,131.7008348,https://maps.google.com/?cid=0x0:0x1d4b12fbe956ea34
housing complex,Komplek perumahan,Kampung kuadas,"6GJP+C5H, Kuadas, Kec. Makbon, Kabupaten Sorong, Papua Bar. 98471","Kuadas, Kec. Makbon, Kabupaten Sorong",PAPUA BARAT,98471.0,Indonesia,,-0.7690655,131.5351143,https://maps.google.com/?cid=0x0:0x421f037f1bc087af
housing complex,Pembangunan Perumahan,KAMPUNG KLAYILI,"3HH7+34J, JL, Kuadas, Distrik Klayili, Kabupaten Sorong, Papua Bar. 98471","JL, Kuadas, Distrik Klayili, Kabupaten Sorong",PAPUA BARAT,98471.0,Indonesia,,-0.9222942,131.562766,https://maps.google.com/?cid=0x0:0xb577df782ccfdd32
housing complex,Komplek perumahan,Komplex CNG 27,"485Q+CQ9, Jl. Sorong - Makbon, Giwu, Distrik Sorong Timur, Kota Sorong, Papua Bar.","Kota Sorong, Papua Bar.",PAPUA BARAT,,Indonesia,,-0.8914505,131.3394744,https://maps.google.com/?cid=0x0:0xa9a09e988c0e328e
housing complex,Komplek perumahan,Veronicha Home,"49Q9+8C4, Jl. Sorong - Makbon, Giwu, Distrik Sorong Timur, Kota Sorong, Papua Bar.","Kota Sorong, Papua Bar.",PAPUA BARAT,,Indonesia,,-0.8617279,131.3685826,https://maps.google.com/?cid=0x0:0xfa98d1fa2015cf3f
housing complex,housing complex,Papua Bar. 98457,"Kabupaten Sorong, Papua Bar.","Kabupaten Sorong, Papua Bar.",PAPUA BARAT,,Indonesia,,-1.0666951,131.5012792,https://maps.google.com/?cid=0x0:0x60164e450d5e6bd7
housing complex,Komplek perumahan,H.Manise,"XC5C+89C, Klaben, Distrik Mariat, Kabupaten Sorong, Papua Bar.","Kabupaten Sorong, Papua Bar.",PAPUA BARAT,,Indonesia,,-1.0416903,131.4209053,https://maps.google.com/?cid=0x0:0xc5f87ed88625c356
housing complex,Pembangunan Perumahan,Komplex Distrik Klamono (S.P.D) _ Rumah Dewika Klamono,"VF8G+VX, Klawana, Distrik Klamono, Kabupaten Sorong, Papua Bar. 98457","Klawana, Distrik Klamono, Kabupaten Sorong",PAPUA BARAT,98457.0,Indonesia,,-1.1328447,131.4774787,https://maps.google.com/?cid=0x0:0xf53f824735e052cc
housing complex,Komplek perumahan,ð»ðððð,"VFHR+45, Klamono, Distrik Klamono, Kabupaten Sorong, Papua Bar. 98457","Klamono, Distrik Klamono, Kabupaten Sorong",PAPUA BARAT,98457.0,Indonesia,,-1.1220796,131.4903823,https://maps.google.com/?cid=0x0:0x1e2c066fdff34044
housing complex,Komplek perumahan,Rumah HENGKI,"WF99+2MC, Klalomon, Distrik Klamono, Kabupaten Sorong, Papua Bar. 98457","Klalomon, Distrik Klamono, Kabupaten Sorong",PAPUA BARAT,98457.0,Indonesia,,-1.0824272,131.4691377,https://maps.google.com/?cid=0x0:0x8cab30f156682ce0
housing complex,Komplek perumahan,Rumh tinggal,"VF55+Q28, Wonosari, Distrik Klamono, Kabupaten Sorong, Papua Bar. 98451","Wonosari, Distrik Klamono, Kabupaten Sorong",PAPUA BARAT,98451.0,Indonesia,,-1.1405867,131.4575811,https://maps.google.com/?cid=0x0:0x7fa863b84770c911
housing complex,Perhimpunan Pengembang Perumahan,KAMPUNG MALASMILIY,"VFGM+JGX, Klamono, Distrik Klamono, Kabupaten Sorong, Papua Bar.","Kabupaten Sorong, Papua Bar.",PAPUA BARAT,,Indonesia,,-1.1233761,131.4838729,https://maps.google.com/?cid=0x0:0xe53258c7dcb99408
housing complex,Komplek perumahan,Perumahan Divisi I Klasafet,"WG7X+6X, Maladuk, Distrik Klamono, Kabupaten Sorong, Papua Bar.","Kabupaten Sorong, Papua Bar.",PAPUA BARAT,,Indonesia,,-1.0868925,131.5500456,https://maps.google.com/?cid=0x0:0xe83fe1f3e920a026
housing complex,housing complex,Igelmeidian,"VFGQ+G3R, Klamono, Distrik Klamono, Kabupaten Sorong, Papua Bar.","Kabupaten Sorong, Papua Bar.",PAPUA BARAT,,Indonesia,,-1.1236341,131.4876547,https://maps.google.com/?cid=0x0:0x105bded873cd7b38
housing complex,Komplek perumahan,Kampung FLOBAMORA,"X96P+7MG, Klaben, Distrik Mariat, Kabupaten Sorong, Papua Bar.","Kabupaten Sorong, Papua Bar.",PAPUA BARAT,,Indonesia,,-1.0393072,131.3867034,https://maps.google.com/?cid=0x0:0xe79bc9ab6f17e28b
housing complex,Komplek perumahan,Komplex klawana (KLW FAMILY),"VF8J+Q4X, Jalan adolon, Klawana, Distrik Klamono, Kabupaten Sorong, Papua Bar.","Kabupaten Sorong, Papua Bar.",PAPUA BARAT,,Indonesia,,-1.1330213,131.48035,https://maps.google.com/?cid=0x0:0x82c88f13789ce383
housing complex,housing complex,Klamono pt.hip,"WHP8+RX, Maladofok, Kec. Sayosa, Kabupaten Sorong, Papua Bar.","Kabupaten Sorong, Papua Bar.",PAPUA BARAT,,Indonesia,,-1.0629357,131.5674896,https://maps.google.com/?cid=0x0:0x546b2ddfa415c6fd
housing complex,Komplek perumahan,Mulyani,"W9RM+MXR, Klaben, Distrik Mariat, Kabupaten Sorong, Papua Bar.","Kabupaten Sorong, Papua Bar.",PAPUA BARAT,,Indonesia,,-1.0582718,131.3848818,https://maps.google.com/?cid=0x0:0x743134f0f05028a6
housing complex,Komplek perumahan,Suwito malaus,"VFHQ+38Q, Klamono, Distrik Klamono, Kabupaten Sorong, Papua Bar.","Kabupaten Sorong, Papua Bar.",PAPUA BARAT,,Indonesia,,-1.1222877,131.488359,https://maps.google.com/?cid=0x0:0x3991c1151a8a48c9
housing complex,housing complex,Papua Bar. 98472,"Kabupaten Sorong, Papua Bar.","Kabupaten Sorong, Papua Bar.",PAPUA BARAT,,Indonesia,,-0.8437569,131.9989718,https://maps.google.com/?cid=0x0:0x94d7894d7b2d29e5
housing complex,housing complex,Kompleks BUTON,"8WX5+FM, Kwade, Moraid, Kabupaten Sorong, Papua Bar.","Kabupaten Sorong, Papua Bar.",PAPUA BARAT,,Indonesia,,-0.6512961,131.9091668,https://maps.google.com/?cid=0x0:0x731e70a9f08ed17b
housing complex,Pembangunan Perumahan,Klabasi,"6V6H+9R, Siwis, Miskum, Kabupaten Sorong, Papua Bar. 98472","Siwis, Miskum, Kabupaten Sorong",PAPUA BARAT,98472.0,Indonesia,,-0.7890569,131.8795996,https://maps.google.com/?cid=0x0:0x1ddacd5b0032cc54
housing complex,Komplek perumahan,Kampung Klaos,"342H+C25, Jl. Kampung, Klaos, Maudus, Kabupaten Sorong, Papua Bar.","Kabupaten Sorong, Papua Bar.",PAPUA BARAT,,Indonesia,,-0.9489964,132.127625,https://maps.google.com/?cid=0x0:0xca0c8d07da8012d4
housing complex,Komplek perumahan,Kampung Selemalawili,"7RM8+G7F, Dela, Moraid, Kabupaten Sorong, Papua Bar. 98472","Dela, Moraid, Kabupaten Sorong",PAPUA BARAT,98472.0,Indonesia,,-0.7166448,131.8145914,https://maps.google.com/?cid=0x0:0x64c628c350a532f0
housing complex,Pembangunan Perumahan,Rumah Nakes,"6R2J+86, Siwis, Distrik Klaso, Kabupaten Sorong, Papua Bar.","Kabupaten Sorong, Papua Bar.",PAPUA BARAT,,Indonesia,,-0.7991956,131.830609,https://maps.google.com/?cid=0x0:0xf1919f67d416c599
housing complex,Perhimpunan Pengembang Perumahan,Jlr SAMPEL,"8WP3+QPX, Mega, Moraid, Kabupaten Sorong, Papua Bar. 98472","Mega, Moraid, Kabupaten Sorong",PAPUA BARAT,98472.0,Indonesia,,-0.6635526,131.9043509,https://maps.google.com/?cid=0x0:0x8b12c1373d5f1020
housing complex,Pembangunan Perumahan,"Kampung Miskum, Distrik Klaso (Klabasi) Kabupaten Sorong","6V6J+32, Selekobo, Sorong, Kabupaten Sorong, Papua Bar.","Kabupaten Sorong, Papua Bar.",PAPUA BARAT,,Indonesia,,-0.7878928,131.8796977,https://maps.google.com/?cid=0x0:0x15565434ec8ed3c3
housing complex,Komplek perumahan,Kampung malaworsai,"8WGJ+GX, Mega, Moraid, Kabupaten Sorong, Papua Bar.","Kabupaten Sorong, Papua Bar.",PAPUA BARAT,,Indonesia,,-0.6737182,131.9324964,https://maps.google.com/?cid=0x0:0x2b79d51d30d660d5
housing complex,Komplek perumahan,Distrik moraid,"8V7G+CWM, Kabupaten Sorong, Papua Bar.","Kabupaten Sorong, Papua Bar.",PAPUA BARAT,,Indonesia,,-0.68641,131.877304,https://maps.google.com/?cid=0x0:0xff77deb4c132656
housing complex,housing complex,Ripon home,"8XRH+9M6, Malaworsai, Moraid, Kabupaten Sorong, Papua Bar.","Kabupaten Sorong, Papua Bar.",PAPUA BARAT,,Indonesia,,-0.6590992,131.9791516,https://maps.google.com/?cid=0x0:0x108ecd9729254872
housing complex,Kantor Pemerintah,Kampung Baun Distrik Yembun Kabupaten Tambrauw,"74QP+MR, Baun, Kec. Yembun, Kabupaten Tambrauw, Papua Bar.","Kabupaten Tambrauw, Papua Bar.",PAPUA BARAT,,Indonesia,,-0.7108291,132.1371008,https://maps.google.com/?cid=0x0:0x18a3eb10de6d858f
housing complex,Komplek perumahan,Kampung Saengkeduk,"62M5+VHJ, Sengkeduk, Kabupaten Sorong, Papua Bar.","Kabupaten Sorong, Papua Bar.",PAPUA BARAT,,Indonesia,,-0.7652889,132.0088792,https://maps.google.com/?cid=0x0:0x19221ebd9f1d38f8
housing complex,Pembangunan Perumahan,SYARWOM,"68F4+J3X, Syarwom, Kec. Yembun, Kabupaten Tambrauw, Papua Bar.","Kabupaten Tambrauw, Papua Bar.",PAPUA BARAT,,Indonesia,,-0.7758753,132.3052488,https://maps.google.com/?cid=0x0:0x2f742dd1011dcbb0
housing complex,housing complex,Mayamuk,"Kabupaten Sorong, Papua Bar.","Kabupaten Sorong, Papua Bar.",PAPUA BARAT,,Indonesia,,-1.0590548,131.2851406,https://maps.google.com/?cid=0x0:0x18c5e8368d4ad732
housing complex,housing complex,BangRey,"W7PM+V57, Jl. Jayawijaya, Makbalim, Mayamuk, Kabupaten Sorong, Papua Bar. 98451","Jl. Jayawijaya, Makbalim, Mayamuk, Kabupaten Sorong",PAPUA BARAT,98451.0,Indonesia,,-1.0624915,131.2819071,https://maps.google.com/?cid=0x0:0x848ea2617cb34a1
housing complex,housing complex,Krisna'Ck,"Jl. Semeru No.II, Makbalim, Mayamuk, Kabupaten Sorong, Papua Bar. 98451","Makbalim, Mayamuk, Kabupaten Sorong",PAPUA BARAT,98451.0,Indonesia,,-1.0641504,131.2792656,https://maps.google.com/?cid=0x0:0x42119a64bb858a88
housing complex,housing complex,Kel. F MAJEFAT.,"W7XP+X5X, Wen, Mayamuk, Kabupaten Sorong, Papua Bar. 98451","Wen, Mayamuk, Kabupaten Sorong",PAPUA BARAT,98451.0,Indonesia,,-1.050013,131.2854795,https://maps.google.com/?cid=0x0:0x99087d2aba8448ea
housing complex,Pembangunan Perumahan,Anto house,"W75P+93V, Makotyamsa, Mayamuk, Kabupaten Sorong, Papua Bar. 98451","Makotyamsa, Mayamuk, Kabupaten Sorong",PAPUA BARAT,98451.0,Indonesia,,-1.0915246,131.2851586,https://maps.google.com/?cid=0x0:0x3832730870d01fbf
housing complex,housing complex,"Kel, Maikel","X74P+738, RT.003/RW.001, Wen, Mayamuk, Kabupaten Sorong, Papua Bar. daya","Kabupaten Sorong, Papua Bar.",PAPUA BARAT,,Indonesia,,-1.0443293,131.2852074,https://maps.google.com/?cid=0x0:0xfb8fb63d2a810061
housing complex,Komplek perumahan,Rumah Bahri Husni,"X744+6MC, Arar, Mayamuk, Kabupaten Sorong, Papua Bar. 98451","Arar, Mayamuk, Kabupaten Sorong",PAPUA BARAT,98451.0,Indonesia,,-1.0444483,131.256633,https://maps.google.com/?cid=0x0:0x8e896cbe475f6cc2
housing complex,housing complex,Rayhan,"W7PJ+XQV, Makbalim, Mayamuk, Kabupaten Sorong, Papua Bar. 98451","Makbalim, Mayamuk, Kabupaten Sorong",PAPUA BARAT,98451.0,Indonesia,,-1.0625029,131.2819111,https://maps.google.com/?cid=0x0:0xc0469fa8fd529e62
housing complex,Komplek perumahan,Husni house,"W7JJ+FCH, Jl. Gunung Wilis, Makbalim, Mayamuk, Kabupaten Sorong, Papua Bar. 98451","Jl. Gunung Wilis, Makbalim, Mayamuk, Kabupaten Sorong",PAPUA BARAT,98451.0,Indonesia,,-1.0688521,131.2811126,https://maps.google.com/?cid=0x0:0x2fc46f6836b5648c
housing complex,housing complex,AG,"W7HJ+XVR, Jl. Krakatau, Makbalim, Mayamuk, Kabupaten Sorong, Papua Bar. 98451","Jl. Krakatau, Makbalim, Mayamuk, Kabupaten Sorong",PAPUA BARAT,98451.0,Indonesia,,-1.0700136,131.2821344,https://maps.google.com/?cid=0x0:0xb370e6203da50cea
housing complex,Perhimpunan Pengembang Perumahan,Kompleks Moi,"W7MM+XX7, Jl. Poros, Klain, Mayamuk, Kabupaten Sorong, Papua Bar. 98451","Jl. Poros, Klain, Mayamuk, Kabupaten Sorong",PAPUA BARAT,98451.0,Indonesia,,-1.0650933,131.2849164,https://maps.google.com/?cid=0x0:0x717581d5365682ff
housing complex,Perhimpunan Pengembang Perumahan,Anok kawasan lama,"X7M3+8Q6, Arar, Mayamuk, Kabupaten Sorong, Papua Bar. 98451","Arar, Mayamuk, Kabupaten Sorong",PAPUA BARAT,98451.0,Indonesia,,-1.0167008,131.254392,https://maps.google.com/?cid=0x0:0x88c2673e7dc2959c
housing complex,Komplek perumahan,Rumah Rasya,"W76P+2CH, Makotyamsa, Mayamuk, Kabupaten Sorong, Papua Bar. 98451","Makotyamsa, Mayamuk, Kabupaten Sorong",PAPUA BARAT,98451.0,Indonesia,,-1.0899375,131.2861094,https://maps.google.com/?cid=0x0:0x25a2a049eaea2977
housing complex,Pembangunan Perumahan,PaceNap,"W7PM+V57, Jl. Jayawijaya, Makbalim, Mayamuk, Kabupaten Sorong, Papua Bar. 98451","Jl. Jayawijaya, Makbalim, Mayamuk, Kabupaten Sorong",PAPUA BARAT,98451.0,Indonesia,,-1.0628837,131.2830112,https://maps.google.com/?cid=0x0:0xffaed4e5161ca46b
housing complex,Pembangunan Perumahan,Kadar Malibela Residence,"Klawalu, Distrik Sorong Timur, Kota Sorong, Papua Bar.","Kota Sorong, Papua Bar.",PAPUA BARAT,,Indonesia,85279735292.0,-0.9054871,131.3096366,https://maps.google.com/?cid=0x0:0x81cdbed7e8767cf
housing complex,Perumahan,Perumahan Grand Efata Malibela,"Jl. Malibela, Klawalu, Kecamatan Sorong Manoi, Kota Sorong, Papua Bar. 98413","Klawalu, Kecamatan Sorong Manoi, Kota Sorong",PAPUA BARAT,98413.0,Indonesia,82268235322.0,-0.90423,131.3118479,https://maps.google.com/?cid=0x0:0x600613eae3023432
housing complex,Kios,Kios cahya jisrail,"Jln tulip 3 No.84, Klawalu, Distrik Sorong Timur, Kota Sorong, Papua Bar.","Kota Sorong, Papua Bar.",PAPUA BARAT,,Indonesia,,-0.9064382,131.3083682,https://maps.google.com/?cid=0x0:0x4ad3744d47d4549c
housing complex,Pembangunan Perumahan,Rumah Ofni,"Q69M+7F, Klasari, Distrik Moisegen, Kabupaten Sorong, Papua Bar. 98451","Klasari, Distrik Moisegen, Kabupaten Sorong",PAPUA BARAT,98451.0,Indonesia,,-1.2318735,131.2336736,https://maps.google.com/?cid=0x0:0xc9b00dd33970b04a
housing complex,Komplek perumahan,Budi yuwono,"P7GM+25, Klafdalim, Distrik Moisegen, Kabupaten Sorong, Papua Bar. 98451","Klafdalim, Distrik Moisegen, Kabupaten Sorong",PAPUA BARAT,98451.0,Indonesia,,-1.2754178,131.2818629,https://maps.google.com/?cid=0x0:0x6e6cc6609634d33a
housing complex,Pembangunan Perumahan,Kampung baru klawoton,"Q7F7+65, Klafdalim, Distrik Moisegen, Kabupaten Sorong, Papua Bar. 98451","Klafdalim, Distrik Moisegen, Kabupaten Sorong",PAPUA BARAT,98451.0,Indonesia,,-1.226146,131.261969,https://maps.google.com/?cid=0x0:0x8fe9685affe0e045
housing complex,Perhimpunan Pengembang Perumahan,Rumah sulisianto,"Q68J+JWC, Klasari, Distrik Moisegen, Kabupaten Sorong, Papua Bar. 98451","Klasari, Distrik Moisegen, Kabupaten Sorong",PAPUA BARAT,98451.0,Indonesia,,-1.2334392,131.2322795,https://maps.google.com/?cid=0x0:0x1e7be0d05a186dcd
housing complex,Perhimpunan Pengembang Perumahan,Adifirman Ribowo,"Q67M+J9C, Klasari, Distrik Moisegen, Kabupaten Sorong, Papua Bar. 98451","Klasari, Distrik Moisegen, Kabupaten Sorong",PAPUA BARAT,98451.0,Indonesia,,-1.2359386,131.2334033,https://maps.google.com/?cid=0x0:0x52f4720c9bf2c030
housing complex,Komplek perumahan,Echos home,"R69X+668, Matawolot, Kec. Salawati, Kabupaten Sorong, Papua Bar. 98451","Matawolot, Kec. Salawati, Kabupaten Sorong",PAPUA BARAT,98451.0,Indonesia,,-1.1819344,131.2476908,https://maps.google.com/?cid=0x0:0xbf9204f00aef4156
housing complex,Komplek perumahan,Evan Home,"R65X+RR6, Matawolot, Kec. Salawati, Kabupaten Sorong, Papua Bar. 98451","Matawolot, Kec. Salawati, Kabupaten Sorong",PAPUA BARAT,98451.0,Indonesia,,-1.1907765,131.2494514,https://maps.google.com/?cid=0x0:0x20c83a46f88eb2be
housing complex,housing complex,Kampung Waibin,"R66X+V76, Matawolot, Kec. Salawati, Kabupaten Sorong, Papua Bar. 98451","Matawolot, Kec. Salawati, Kabupaten Sorong",PAPUA BARAT,98451.0,Indonesia,,-1.1878386,131.2481347,https://maps.google.com/?cid=0x0:0x506bd78d297d1a93
housing complex,Pembangunan Perumahan,Rumah M'Mudy,"R7V8+QMV, Majener, Kec. Salawati, Kabupaten Sorong, Papua Bar. 98451","Majener, Kec. Salawati, Kabupaten Sorong",PAPUA BARAT,98451.0,Indonesia,,-1.1553298,131.2667707,https://maps.google.com/?cid=0x0:0x956a86cbf1298175
housing complex,Pembangunan Perumahan,rumahnya amin,"Jalan anyelir, RT.8/RW.2, Malaus, Kec. Salawati, Kabupaten Sorong, Papua Bar. 98451","RT.8/RW.2, Malaus, Kec. Salawati, Kabupaten Sorong",PAPUA BARAT,98451.0,Indonesia,,-1.1934633,131.3109666,https://maps.google.com/?cid=0x0:0x9e4a9aa73aba3511
housing complex,Pembangunan Perumahan,Modan 1,"V843+264, Walal, Kec. Salawati, Kabupaten Sorong, Papua Bar. 98451","Walal, Kec. Salawati, Kabupaten Sorong",PAPUA BARAT,98451.0,Indonesia,,-1.1449835,131.3030769,https://maps.google.com/?cid=0x0:0xd589d47d6e687553
housing complex,housing complex,Kec. Salawati,"Kabupaten Sorong, Papua Bar.","Kabupaten Sorong, Papua Bar.",PAPUA BARAT,,Indonesia,,-1.1878386,131.2481347,https://maps.google.com/?cid=0x0:0x2da3ce5cc71682ef
housing complex,Pembangunan Perumahan,PERUMAHAN GRAND SALAWATI,"V769+P27, Majener, Kec. Salawati, Kabupaten Sorong, Papua Bar. 98451","Majener, Kec. Salawati, Kabupaten Sorong",PAPUA BARAT,98451.0,Indonesia,,-1.1382013,131.2675405,https://maps.google.com/?cid=0x0:0x72f904ee3d5feb68
housing complex,Komplek perumahan,PERUMAHAN BAHARI RESIDENCE,"V7GH+C4, Majaran, Kec. Salawati, Kabupaten Sorong, Papua Bar. 98451","Majaran, Kec. Salawati, Kabupaten Sorong",PAPUA BARAT,98451.0,Indonesia,,-1.1220287,131.2786932,https://maps.google.com/?cid=0x0:0x4bd2e476bd2532ac
housing complex,Komplek perumahan,Echos home,"R69X+668, Matawolot, Kec. Salawati, Kabupaten Sorong, Papua Bar. 98451","Matawolot, Kec. Salawati, Kabupaten Sorong",PAPUA BARAT,98451.0,Indonesia,,-1.1819344,131.2476908,https://maps.google.com/?cid=0x0:0xbf9204f00aef4156
housing complex,Pembangunan Perumahan,Rumah M'Mudy,"R7V8+QMV, Majener, Kec. Salawati, Kabupaten Sorong, Papua Bar. 98451","Majener, Kec. Salawati, Kabupaten Sorong",PAPUA BARAT,98451.0,Indonesia,,-1.1553298,131.2667707,https://maps.google.com/?cid=0x0:0x956a86cbf1298175
housing complex,Komplek perumahan,Perumahan Arafuru,"V792+P4H, Unnamed Road, Majener, Kec. Salawati, Kabupaten Sorong, Papua Bar. 98451","Unnamed Road, Majener, Kec. Salawati, Kabupaten Sorong",PAPUA BARAT,98451.0,Indonesia,,-1.1306824,131.2503736,https://maps.google.com/?cid=0x0:0x481f6d3ac763efa5
housing complex,Dapur Umum,SP.IV,"W86G+WC6, Jl.Insan Cendekia SP.IV, Makbalim, Mayamuk, Kabupaten Sorong, Papua Bar. 98451","Jl.Insan Cendekia SP.IV, Makbalim, Mayamuk, Kabupaten Sorong",PAPUA BARAT,98451.0,Indonesia,,-1.087724,131.326015,https://maps.google.com/?cid=0x0:0xfb1145b61fec0444
housing complex,Komplek perumahan,SHELTER ZENI,"V69W+CJ4, Katinim, Kec. Salawati, Kabupaten Sorong, Papua Bar. 98451","Katinim, Kec. Salawati, Kabupaten Sorong",PAPUA BARAT,98451.0,Indonesia,,-1.1314919,131.2465722,https://maps.google.com/?cid=0x0:0xfd918b421d35426e
housing complex,housing complex,MR.WIT,"R68V+WR7, Jl. IR Sukarno, Matawolot, Kec. Salawati, Kabupaten Sorong, Papua Bar. 98451","Jl. IR Sukarno, Matawolot, Kec. Salawati, Kabupaten Sorong",PAPUA BARAT,98451.0,Indonesia,,-1.1827008,131.2445433,https://maps.google.com/?cid=0x0:0x65b8f1eeac8c7f0f
housing complex,Komplek perumahan,Paman Wanto,"R7VP+24W, Rw. Sugi, Kec. Salawati, Kabupaten Sorong, Papua Bar. 98451","Rw. Sugi, Kec. Salawati, Kabupaten Sorong",PAPUA BARAT,98451.0,Indonesia,,-1.157393,131.285337,https://maps.google.com/?cid=0x0:0x9abd8cc9fea047cf
housing complex,housing complex,Kampung Waibin,"R66X+V76, Matawolot, Kec. Salawati, Kabupaten Sorong, Papua Bar. 98451","Matawolot, Kec. Salawati, Kabupaten Sorong",PAPUA BARAT,98451.0,Indonesia,,-1.1878386,131.2481347,https://maps.google.com/?cid=0x0:0x506bd78d297d1a93
housing complex,Komplek perumahan,Rumah,"V7GC+H66, Majaran, Kec. Salawati, Kabupaten Sorong, Papua Bar. 98451","Majaran, Kec. Salawati, Kabupaten Sorong",PAPUA BARAT,98451.0,Indonesia,,-1.123728,131.270521,https://maps.google.com/?cid=0x0:0xbbfa1c1e0fc6de1d
housing complex,Pembangunan Perumahan,ditandai saja,"V8HH+G9, Majaran, Kec. Salawati, Kabupaten Sorong, Papua Bar.","Kabupaten Sorong, Papua Bar.",PAPUA BARAT,,Indonesia,,-1.1211991,131.3284223,https://maps.google.com/?cid=0x0:0xc4ebb9055b34e409
housing complex,Komplek perumahan,Rumah Sisipan Samosir,"V7XP+H3Q, Majaran, Kec. Salawati, Kabupaten Sorong, Papua Bar. 98451","Majaran, Kec. Salawati, Kabupaten Sorong",PAPUA BARAT,98451.0,Indonesia,,-1.1005738,131.2852465,https://maps.google.com/?cid=0x0:0xf3f9a6ee9ac7f667
housing complex,housing complex,Kec. Salawati Sel.,"Kabupaten Sorong, Papua Bar.","Kabupaten Sorong, Papua Bar.",PAPUA BARAT,,Indonesia,,-1.2811542,130.8951476,https://maps.google.com/?cid=0x0:0xc4d8ce15c534bd48
housing complex,housing complex,Kampung maralol,"MX99+7G7, Duriankari, Kec. Salawati Sel., Kabupaten Sorong, Papua Bar. 98452","Duriankari, Kec. Salawati Sel., Kabupaten Sorong",PAPUA BARAT,98452.0,Indonesia,,-1.3318304,130.9687836,https://maps.google.com/?cid=0x0:0x79ce567713f7be6a
housing complex,Komplek perumahan,Manoket/bagas,"PV9W+G3J, Jalan Ngolo, Umalelen, Salawati Selatan, Sorong Regency, West Papua 98452","Jalan Ngolo, Umalelen, Salawati Selatan, Sorong Regency",PAPUA BARAT,98452.0,Indonesia,,-1.2811542,130.8951476,https://maps.google.com/?cid=0x0:0xd35aa4dbe57beeac
housing complex,Komplek perumahan,Kampung Manoket,"MVV3+GX7, Manoket, Kec. Salawati Sel., Kabupaten Sorong, Papua Bar. 98452","Manoket, Kec. Salawati Sel., Kabupaten Sorong",PAPUA BARAT,98452.0,Indonesia,,-1.3062125,130.8549219,https://maps.google.com/?cid=0x0:0x88bc229bf7a97ca1
housing complex,housing complex,Kampung Waibin,"P2QC+M4, Waliam, Kec. Salawati Sel., Kabupaten Sorong, Papua Bar.","Kabupaten Sorong, Papua Bar.",PAPUA BARAT,,Indonesia,,-1.260374,131.0205051,https://maps.google.com/?cid=0x0:0x5498958311b4a3f1
housing complex,Kantor Perusahaan,PLTS,"J2W5+XX3, Klayas, Distrik Seget, Kabupaten Sorong, Papua Bar. 98452","Klayas, Distrik Seget, Kabupaten Sorong",PAPUA BARAT,98452.0,Indonesia,,-1.352618,131.0099311,https://maps.google.com/?cid=0x0:0x9ff7f2c635622443
housing complex,housing complex,Salawati Tengah,"Kabupaten Raja Ampat, Papua Bar.","Kabupaten Raja Ampat, Papua Bar.",PAPUA BARAT,,Indonesia,,-1.0547794,131.0589536,https://maps.google.com/?cid=0x0:0x9e15ae7888c4541f
housing complex,Kompleks Apartemen,Rumah ridwan,"X3F7+9RQ, Kalobo, Salawati Tengah, Kabupaten Raja Ampat, Papua Bar. 98484","Kalobo, Salawati Tengah, Kabupaten Raja Ampat",PAPUA BARAT,98484.0,Indonesia,,-1.0265315,131.0646026,https://maps.google.com/?cid=0x0:0x1dc8d030dea24a6b
housing complex,housing complex,Rumah Tn.Philipus,"W3V4+985, Kalobo, Salawati Tengah, Kabupaten Raja Ampat, Papua Bar. 98484","Kalobo, Salawati Tengah, Kabupaten Raja Ampat",PAPUA BARAT,98484.0,Indonesia,,-1.0566158,131.0558552,https://maps.google.com/?cid=0x0:0x205ae80c67d0b740
housing complex,Komplek perumahan,PERUMAHAN BAHARI RESIDENCE,"V7GH+C4, Majaran, Kec. Salawati, Kabupaten Sorong, Papua Bar. 98451","Majaran, Kec. Salawati, Kabupaten Sorong",PAPUA BARAT,98451.0,Indonesia,,-1.1220287,131.2786932,https://maps.google.com/?cid=0x0:0x4bd2e476bd2532ac
housing complex,Komplek perumahan,SHELTER ZENI,"V69W+CJ4, Katinim, Kec. Salawati, Kabupaten Sorong, Papua Bar. 98451","Katinim, Kec. Salawati, Kabupaten Sorong",PAPUA BARAT,98451.0,Indonesia,,-1.1314919,131.2465722,https://maps.google.com/?cid=0x0:0xfd918b421d35426e
housing complex,Kompleks Apartemen,Andi Arfan Residence,"W3X6+QG, Waibo, Salawati Tengah, Kabupaten Raja Ampat, Papua Bar.","Kabupaten Raja Ampat, Papua Bar.",PAPUA BARAT,,Indonesia,,-1.0505245,131.0612703,https://maps.google.com/?cid=0x0:0xf06724bed0ece937
housing complex,Komplek perumahan,Perumahan Arafuru,"V792+P4H, Unnamed Road, Majener, Kec. Salawati, Kabupaten Sorong, Papua Bar. 98451","Unnamed Road, Majener, Kec. Salawati, Kabupaten Sorong",PAPUA BARAT,98451.0,Indonesia,,-1.1306824,131.2503736,https://maps.google.com/?cid=0x0:0x481f6d3ac763efa5
housing complex,Komplek perumahan,Rumah,"V7GC+H66, Majaran, Kec. Salawati, Kabupaten Sorong, Papua Bar. 98451","Majaran, Kec. Salawati, Kabupaten Sorong",PAPUA BARAT,98451.0,Indonesia,,-1.123728,131.270521,https://maps.google.com/?cid=0x0:0xbbfa1c1e0fc6de1d
housing complex,Kantor Perusahaan,Kampung SAMATE,"23MC+63, Samate, Kec. Salawati Utara, Kabupaten Raja Ampat, Papua Bar.","Kabupaten Raja Ampat, Papua Bar.",PAPUA BARAT,,Indonesia,,-0.9668985,131.0709802,https://maps.google.com/?cid=0x0:0xd8810a6287739199
housing complex,Komplek perumahan,Asrul,"V7FJ+F6P, Majaran, Kec. Salawati, Kabupaten Sorong, Papua Bar. 98451","Majaran, Kec. Salawati, Kabupaten Sorong",PAPUA BARAT,98451.0,Indonesia,,-1.1263648,131.2805903,https://maps.google.com/?cid=0x0:0x174d3f806366e665
housing complex,housing complex,Kampung Waibin,"P2QC+M4, Waliam, Kec. Salawati Sel., Kabupaten Sorong, Papua Bar.","Kabupaten Sorong, Papua Bar.",PAPUA BARAT,,Indonesia,,-1.260374,131.0205051,https://maps.google.com/?cid=0x0:0x5498958311b4a3f1
housing complex,Komplek perumahan,Rumah Enggar,"V7FH+R8W, Majaran, Kec. Salawati, Kabupaten Sorong, Papua Bar. 98451","Majaran, Kec. Salawati, Kabupaten Sorong",PAPUA BARAT,98451.0,Indonesia,,-1.125338,131.278683,https://maps.google.com/?cid=0x0:0xafe715503f8842d5
housing complex,Pembangunan Perumahan,Batu Api,"3382+WC3, Unnamed Road, Kapatlap, Kec. Salawati Utara, Kabupaten Raja Ampat, Papua Bar. 98484","Unnamed Road, Kapatlap, Kec. Salawati Utara, Kabupaten Raja Ampat",PAPUA BARAT,98484.0,Indonesia,,-0.9327393,131.051032,https://maps.google.com/?cid=0x0:0x703d07a0bb5ac670
housing complex,Pembangunan Perumahan,safri Ahek,"RT.01, Katinim, Kec. Salawati, Kabupaten Sorong, Papua Bar. 98451","Katinim, Kec. Salawati, Kabupaten Sorong",PAPUA BARAT,98451.0,Indonesia,,-1.1249894,131.230949,https://maps.google.com/?cid=0x0:0x3f8ff822567ac7d2
housing complex,Komplek perumahan,Sayosa,"28RH+98, Malawili, Kec. Aimas, Kabupaten Sorong, Papua Bar. 98414","Malawili, Kec. Aimas, Kabupaten Sorong",PAPUA BARAT,98414.0,Indonesia,,-0.9593457,131.3281693,https://maps.google.com/?cid=0x0:0x559b72438ca7b7e7
housing complex,housing complex,Sayana Apartment - Cha Tower,"Kav. I2-4, No.12, Kota Harapan Indah, RT.10/RW.8, Pusaka Rakyat, Kec. Tarumajaya, Kabupaten Bekasi, Jawa Barat 17214","No.12, Kota Harapan Indah, RT.10/RW.8, Pusaka Rakyat, Kec. Tarumajaya, Kabupaten Bekasi",PAPUA BARAT,17214.0,Indonesia,895417300072.0,-6.1581574,106.9736204,https://maps.google.com/?cid=0x0:0xee1bc1e0d4c88444
housing complex,Museum Sejarah Lokal,Monumen Nasional,"Merdeka Square, Jalan Lapangan Monas, Gambir, Kecamatan Gambir, Kota Jakarta Pusat, Daerah Khusus Ibukota Jakarta 10110","Jalan Lapangan Monas, Gambir, Kecamatan Gambir, Kota Jakarta Pusat",PAPUA BARAT,10110.0,Indonesia,213853040.0,-6.1753924,106.8271528,https://maps.google.com/?cid=0x0:0x3d2ad6e1e0e9bcc8
housing complex,Hotel,Sayana_apartment,"Komplek Meli Melo, Jl. Harapan Indah Boulevard Bulevar No.3 Kav. 26A/05, Pusaka Rakyat, Kecamatan Medan Satria, Kabupaten Bekasi, Jawa Barat 17132","Jl. Harapan Indah Boulevard Bulevar No.3 Kav. 26A/05, Pusaka Rakyat, Kecamatan Medan Satria, Kabupaten Bekasi",PAPUA BARAT,17132.0,Indonesia,85814534065.0,-6.1584818,106.9737086,https://maps.google.com/?cid=0x0:0xe4dcc4941de4282e
housing complex,housing complex,Papua Bar. 98471,"Kabupaten Sorong, Papua Bar.","Kabupaten Sorong, Papua Bar.",PAPUA BARAT,,Indonesia,,-0.9628505,131.6809724,https://maps.google.com/?cid=0x0:0xf9eb2cfc3e3195d1
housing complex,Komplek perumahan,Kampung Saluk,"WQ8V+8CJ, Saluk, Kec. Sayosa, Kabupaten Sorong, Papua Bar.","Kabupaten Sorong, Papua Bar.",PAPUA BARAT,,Indonesia,,-1.0841569,131.7935288,https://maps.google.com/?cid=0x0:0xc6210311576ea8d3
housing complex,housing complex,Klamono pt.hip,"WHP8+RX, Maladofok, Kec. Sayosa, Kabupaten Sorong, Papua Bar.","Kabupaten Sorong, Papua Bar.",PAPUA BARAT,,Indonesia,,-1.0629357,131.5674896,https://maps.google.com/?cid=0x0:0x546b2ddfa415c6fd
housing complex,Perhimpunan Pengembang Perumahan,Kampung Sailala,"2VMQ+FMH, Yorbes, Kec. Sayosa, Kabupaten Sorong, Papua Bar.","Kabupaten Sorong, Papua Bar.",PAPUA BARAT,,Indonesia,,-0.9663206,131.8892323,https://maps.google.com/?cid=0x0:0xc301ecb8d9661a49
housing complex,Tujuan Wisata,Kampung Suatolo TPS 01,"6HXM+JC, Malaumkarta, Kec. Makbon, Kabupaten Sorong, Papua Bar.","Kabupaten Sorong, Papua Bar.",PAPUA BARAT,,Indonesia,,-0.750944,131.583618,https://maps.google.com/?cid=0x0:0x6aa77f6d7c514caa
housing complex,Komplek perumahan,Kampung Klamintu,"WMFX+G4V, Saluk, Kec. Sayosa, Kabupaten Sorong, Papua Bar. 98471","Saluk, Kec. Sayosa, Kabupaten Sorong",PAPUA BARAT,98471.0,Indonesia,,-1.0761342,131.6977967,https://maps.google.com/?cid=0x0:0xcc506089ea1fa9c9
housing complex,Komplek perumahan,Kampung kuadas,"6GJP+C5H, Kuadas, Kec. Makbon, Kabupaten Sorong, Papua Bar. 98471","Kuadas, Kec. Makbon, Kabupaten Sorong",PAPUA BARAT,98471.0,Indonesia,,-0.7690655,131.5351143,https://maps.google.com/?cid=0x0:0x421f037f1bc087af
housing complex,Komplek perumahan,kampung malagisih distrik makbon,"Jl. Sorong - Makbon, Batu Lobang, Kec. Makbon, Kabupaten Sorong, Papua Bar.","Kabupaten Sorong, Papua Bar.",PAPUA BARAT,,Indonesia,,-0.7995278,131.4284057,https://maps.google.com/?cid=0x0:0xbb3a18c2f5b7514
housing complex,Pembangunan Perumahan,Rumah Nakes,"6R2J+86, Siwis, Distrik Klaso, Kabupaten Sorong, Papua Bar.","Kabupaten Sorong, Papua Bar.",PAPUA BARAT,,Indonesia,,-0.7991956,131.830609,https://maps.google.com/?cid=0x0:0xf1919f67d416c599
housing complex,housing complex,Rumah keluarga Wally/Paa,"7G3Q+34R, Makbon, Kec. Makbon, Kabupaten Sorong, Papua Bar.","Kabupaten Sorong, Papua Bar.",PAPUA BARAT,,Indonesia,,-0.7472687,131.5377728,https://maps.google.com/?cid=0x0:0x95fdec6c520d19e1
housing complex,Pengembang Realestat,GGT RESIDENCE,"Jl. Wortel No.7, Malawele, Kec. Aimas, Kabupaten Sorong, Papua Bar.","Kabupaten Sorong, Papua Bar.",PAPUA BARAT,,Indonesia,,-0.9627493,131.3033743,https://maps.google.com/?cid=0x0:0xc9b12b12ff29e121
housing complex,Komplek perumahan,GGT LAND,"28P3+G46, Jl. GGT, Kab, Malawele, Aimas, Sorong Regency, West Papua 98457","Jl. GGT, Kab, Malawele, Aimas, Sorong Regency",PAPUA BARAT,98457.0,Indonesia,,-0.9637007,131.3027811,https://maps.google.com/?cid=0x0:0x9ef3e82f28031d54
housing complex,housing complex,Seget,"Wawenagu, Distrik Seget, Kabupaten Sorong, Papua Bar.","Kabupaten Sorong, Papua Bar.",PAPUA BARAT,,Indonesia,,-1.407338,130.9767,https://maps.google.com/?cid=0x0:0x180feead25aceba1
housing complex,housing complex,OpÄina Seget,Kroasia,Kroasia,PAPUA BARAT,,Indonesia,,43.5730232,16.1698563,https://maps.google.com/?cid=0x0:0x400ad50862bd140
housing complex,housing complex,Papua Bar. 98452,"Kabupaten Sorong, Papua Bar.","Kabupaten Sorong, Papua Bar.",PAPUA BARAT,,Indonesia,,-1.3516263,131.0797172,https://maps.google.com/?cid=0x0:0x12aa97ea8dec5973
housing complex,Pembangunan Perumahan,Komplek perumahan kebumen,"M9MF+J59, Jl.nangka, Wainlabat, Distrik Segun, Kabupaten Sorong, Papua Bar.","Kabupaten Sorong, Papua Bar.",PAPUA BARAT,,Indonesia,,-1.3159522,131.3729822,https://maps.google.com/?cid=0x0:0xf920e5e93e555770
housing complex,Pembangunan Perumahan,Gisim kabupaten Sorong,"G6MR+M7F, Waimon, Distrik Segun, Kabupaten Sorong, Papua Bar. 98452","Waimon, Distrik Segun, Kabupaten Sorong",PAPUA BARAT,98452.0,Indonesia,,-1.4658061,131.2406872,https://maps.google.com/?cid=0x0:0x71f2f32012438b94
housing complex,Pembangunan Perumahan,Gisim laut,"HFM6+6GR, Gisim, laut, Kabupaten Sorong, Papua Bar. 98452","Gisim, laut, Kabupaten Sorong",PAPUA BARAT,98452.0,Indonesia,,-1.4168889,131.4612677,https://maps.google.com/?cid=0x0:0x85698ec807c02c30
housing complex,housing complex,Papua Bar. 98413,"Klabala, Distrik Sorong Barat, Kota Sorong, Papua Bar.","Kota Sorong, Papua Bar.",PAPUA BARAT,,Indonesia,,-0.8669518,131.254029,https://maps.google.com/?cid=0x0:0x352e1f254d39ea2b
housing complex,Pembangunan Perumahan,Kompleks Trikora kota Sorong,"564X+75V, Jl. Trikora, Klawasi, Distrik Sorong Barat, Kota Sorong, Papua Bar. 98411","Jl. Trikora, Klawasi, Distrik Sorong Barat, Kota Sorong",PAPUA BARAT,98411.0,Indonesia,,-0.8442746,131.2479121,https://maps.google.com/?cid=0x0:0x19c694c45ddc242c
housing complex,housing complex,CEMARA FAMILLY,"47J4+V33, Unnamed Road, Klabala, Distrik Sorong Barat, Kota Sorong, Papua Bar. 98411","Unnamed Road, Klabala, Distrik Sorong Barat, Kota Sorong",PAPUA BARAT,98411.0,Indonesia,,-0.8679732,131.2551719,https://maps.google.com/?cid=0x0:0xe6780a6dad3142be
housing complex,Komplek perumahan,Kota Sorong,"Jl. Kalimantan No.54, RT.002/RW.03, kelrahan, Klabala, Distrik Sorong Barat, kota, Papua Bar. 98411","RT.002/RW.03, kelrahan, Klabala, Distrik Sorong Barat, kota",PAPUA BARAT,98411.0,Indonesia,,-0.8678626,131.2535437,https://maps.google.com/?cid=0x0:0xebc996fab748f75f
housing complex,Perumahan,Perumahan Grand Efata Malibela,"Jl. Malibela, Klawalu, Kecamatan Sorong Manoi, Kota Sorong, Papua Bar. 98413","Klawalu, Kecamatan Sorong Manoi, Kota Sorong",PAPUA BARAT,98413.0,Indonesia,82268235322.0,-0.90423,131.3118479,https://maps.google.com/?cid=0x0:0x600613eae3023432
housing complex,Komplek perumahan,keluarga banjar,"Jl. Kalimantan No.214, Klabala, Distrik Sorong Barat, Kota Sorong, Papua Bar. 98411","Klabala, Distrik Sorong Barat, Kota Sorong",PAPUA BARAT,98411.0,Indonesia,,-0.8670343,131.2540567,https://maps.google.com/?cid=0x0:0xf6a2f29aecc7a775
housing complex,Komplek perumahan,Kel. Djahri Banjar,"Jl. Kalimantan No.214, Klabala, Distrik Sorong Barat, Kota Sorong, Papua Bar. 98411","Klabala, Distrik Sorong Barat, Kota Sorong",PAPUA BARAT,98411.0,Indonesia,,-0.8671717,131.2543055,https://maps.google.com/?cid=0x0:0x7965f291f4a553ed
housing complex,Komplek perumahan,Rumah Fadly blesia,"47M4+46R, Jl. Puncak Rafidim, Klabala, Distrik Sorong Barat, Kota Sorong, Papua Bar. 98411","Jl. Puncak Rafidim, Klabala, Distrik Sorong Barat, Kota Sorong",PAPUA BARAT,98411.0,Indonesia,,-0.8671465,131.2555214,https://maps.google.com/?cid=0x0:0xcbb4a8eef93a4246
housing complex,Komplek perumahan,Brownchar Balthazar Home,"47J4+V5C, Klabala, Distrik Sorong Barat, Kota Sorong, Papua Bar. 98411","Klabala, Distrik Sorong Barat, Kota Sorong",PAPUA BARAT,98411.0,Indonesia,,-0.8678125,131.2553906,https://maps.google.com/?cid=0x0:0xfd97e95a0f849f17
housing complex,housing complex,Lalibela,"47F4+G8P, Kp. Baru, Distrik Sorong, Kota Sorong, Papua Bar.","Kota Sorong, Papua Bar.",PAPUA BARAT,,Indonesia,,-0.8761629,131.255828,https://maps.google.com/?cid=0x0:0x20b449ff40eb2a38
housing complex,housing complex,Jl Layang TMP,"47CJ+M34, Remu Utara, Distrik Sorong, Kota Sorong, Papua Bar.","Kota Sorong, Papua Bar.",PAPUA BARAT,,Indonesia,,-0.8783829,131.2802135,https://maps.google.com/?cid=0x0:0x6b5cb18ff9bb0702
housing complex,Komplek perumahan,Pak somad aroby,"Jalan pulau Sulawesi No.dalam, Klabala, Distrik Sorong Barat, Kota Sorong, Papua Bar.","Kota Sorong, Papua Bar.",PAPUA BARAT,,Indonesia,,-0.8677439,131.2553301,https://maps.google.com/?cid=0x0:0x190bb75bbd9f640b
housing complex,housing complex,Sorong,"Kota Sorong, Papua Bar.","Kota Sorong, Papua Bar.",PAPUA BARAT,,Indonesia,,-0.8761629,131.255828,https://maps.google.com/?cid=0x0:0xe32b512ec6c6786
housing complex,Komplek perumahan,kompleks chilco,"47H3+8WR, Klabala, Distrik Sorong Barat, Kota Sorong, Papua Bar.","Kota Sorong, Papua Bar.",PAPUA BARAT,,Indonesia,,-0.8716461,131.2547732,https://maps.google.com/?cid=0x0:0xd215deadb619d93e
housing complex,Komplek perumahan,Kompleks Gps,"47J5+P2M, Jl. P kasim puncak cendrawasih, Klabala, Distrik Sorong Barat, Kota Sorong, Papua Bar.","Kota Sorong, Papua Bar.",PAPUA BARAT,,Indonesia,,-0.8681644,131.2575581,https://maps.google.com/?cid=0x0:0xe4635222c57a4986
housing complex,Komplek perumahan,Kompleks seram,"47GF+P8W, Klademak, Distrik Sorong, Kota Sorong, Papua Bar.","Kota Sorong, Papua Bar.",PAPUA BARAT,,Indonesia,,-0.8731498,131.2733279,https://maps.google.com/?cid=0x0:0xda6a50ed2865276f
housing complex,Penginapan,Perumahan Aqwa Residence No. 8,"38MJ+HG5, Klamana, Distrik Sorong Timur, Kota Sorong, Papua Bar. 98416","Klamana, Distrik Sorong Timur, Kota Sorong",PAPUA BARAT,98416.0,Indonesia,,-0.9156182,131.3312909,https://maps.google.com/?cid=0x0:0x6db490a8a3ed2750
housing complex,Perumahan,Perum PT. Pertamina EP,"Jl. Durian No.2A, Klademak, Kecamatan Sorong Manoi, Kota Sorong, Papua Bar. 98412","Klademak, Kecamatan Sorong Manoi, Kota Sorong",PAPUA BARAT,98412.0,Indonesia,,-0.8815427,131.2668833,https://maps.google.com/?cid=0x0:0xcd885c4f09a40b80
housing complex,Komplek perumahan,KOMPLEX SEREWEN-KOMSER-,"47G4+CV, Klakublik, Distrik Sorong, Kota Sorong, Papua Bar. 98411","Klakublik, Distrik Sorong, Kota Sorong",PAPUA BARAT,98411.0,Indonesia,82239232722.0,-0.8740146,131.2569692,https://maps.google.com/?cid=0x0:0x6ba2a7eb62ff3e32
housing complex,housing complex,Kompleks Elles,"46GX+6QW, Kp. Baru, Distrik Sorong, Kota Sorong, Papua Bar.","Kota Sorong, Papua Bar.",PAPUA BARAT,,Indonesia,82255031950.0,-0.8743773,131.2494547,https://maps.google.com/?cid=0x0:0xa018b57b3a1e662e
housing complex,housing complex,CEMARA FAMILLY,"47J4+V33, Unnamed Road, Klabala, Distrik Sorong Barat, Kota Sorong, Papua Bar. 98411","Unnamed Road, Klabala, Distrik Sorong Barat, Kota Sorong",PAPUA BARAT,98411.0,Indonesia,,-0.8679732,131.2551719,https://maps.google.com/?cid=0x0:0xe6780a6dad3142be
housing complex,Komplek perumahan,wilno,"Jl. Kesehatan No.26, Kp. Baru, Distrik Sorong, Kota Sorong, Papua Bar. 98411","Kp. Baru, Distrik Sorong, Kota Sorong",PAPUA BARAT,98411.0,Indonesia,,-0.8709783,131.2483835,https://maps.google.com/?cid=0x0:0x1bfcb50be49cf66f
housing complex,Komplek perumahan,Kel Sauyai,"46PX+886, Klasuur, Distrik Sorong, Kota Sorong, Papua Bar. 98414","Klasuur, Distrik Sorong, Kota Sorong",PAPUA BARAT,98414.0,Indonesia,82239436319.0,-0.864217,131.2482652,https://maps.google.com/?cid=0x0:0x9418b9c1ea29788f
housing complex,Perumahan,KADAR HILL RESIDENCE II,"Jl. Bima No.2, Matalamagi, Kec. Sorong Utara, Kota Sorong, Papua Bar. 98416","Matalamagi, Kec. Sorong Utara, Kota Sorong",PAPUA BARAT,98416.0,Indonesia,89525600971.0,-0.8861389,131.3279167,https://maps.google.com/?cid=0x0:0xfb9a0181274599b8
housing complex,Inspektur Tempat Tinggal,rumah howay famz,"47F6+X4W, Jl. Bukit Baru, Klakublik, Distrik Sorong, Kota Sorong, Papua Bar. 98411","Jl. Bukit Baru, Klakublik, Distrik Sorong, Kota Sorong",PAPUA BARAT,98411.0,Indonesia,,-0.8753139,131.2605021,https://maps.google.com/?cid=0x0:0x9fac4c1194dd6327
housing complex,Komplek perumahan,KELUARGA LUKAS,"47P4+G7, Klabala, Distrik Sorong Barat, Kota Sorong, Papua Bar. 98411","Klabala, Distrik Sorong Barat, Kota Sorong",PAPUA BARAT,98411.0,Indonesia,,-0.8632799,131.2558897,https://maps.google.com/?cid=0x0:0x65b63f07b51461f0
housing complex,housing complex,Papua Bar. 98416,Papua Bar.,Papua Bar.,PAPUA BARAT,,Indonesia,,-0.8883325,131.3510866,https://maps.google.com/?cid=0x0:0x7d4c82915eeb19ce
housing complex,Komplek perumahan,GA's house,"Blk. B No.20, Klamana, Distrik Sorong Timur, Kota Sorong, Papua Bar. 98416","Klamana, Distrik Sorong Timur, Kota Sorong",PAPUA BARAT,98416.0,Indonesia,,-0.9124827,131.3274659,https://maps.google.com/?cid=0x0:0x41b57d5a452f6cd9
housing complex,Komplek perumahan,Safe House,"KPR JMP, Jl. Sadewa VIII No.59, Klasaman, Sorong Timur, Sorong City, West Papua 98416","Jl. Sadewa VIII No.59, Klasaman, Sorong Timur, Sorong City",PAPUA BARAT,98416.0,Indonesia,,-0.9001407,131.3383656,https://maps.google.com/?cid=0x0:0x6c7ff6e8b0ae6e99
housing complex,Komplek perumahan,Rumah Dinas BMKG GAW SORONG,"Jl. Santer, Matalamagi, Kec. Sorong Utara, Kota Sorong, Papua Bar. 98416","Matalamagi, Kec. Sorong Utara, Kota Sorong",PAPUA BARAT,98416.0,Indonesia,9513138217.0,-0.8866282,131.3281526,https://maps.google.com/?cid=0x0:0x5e5c933e5a21299e
housing complex,Komplek perumahan,Simatupang house,"38XC+F9Q, Klawalu, Kecamatan Sorong Manoi, Kota Sorong, Papua Bar. 98416","Klawalu, Kecamatan Sorong Manoi, Kota Sorong",PAPUA BARAT,98416.0,Indonesia,,-0.9012864,131.3209737,https://maps.google.com/?cid=0x0:0x2c0ed7765dadc317
housing complex,Penginapan,Perumahan Aqwa Residence No. 8,"38MJ+HG5, Klamana, Distrik Sorong Timur, Kota Sorong, Papua Bar. 98416","Klamana, Distrik Sorong Timur, Kota Sorong",PAPUA BARAT,98416.0,Indonesia,,-0.9156182,131.3312909,https://maps.google.com/?cid=0x0:0x6db490a8a3ed2750
housing complex,Otoritas Perumahan,"Perumahan Gustia X,kelurahan giwu,kecamatan klaurung","483P+VF4, Jl. Poncowati, Giwu, Distrik Sorong Timur, Kota Sorong, Papua Bar. 98416","Jl. Poncowati, Giwu, Distrik Sorong Timur, Kota Sorong",PAPUA BARAT,98416.0,Indonesia,,-0.8969182,131.3296531,https://maps.google.com/?cid=0x0:0x1eed4d5f711bdbfe
housing complex,Komplek perumahan,Hayzel Home,"482Q+38F, Jl. Sadewa VIII, Klasaman, Distrik Sorong Timur, Kota Sorong, Papua Bar. 98416","Jl. Sadewa VIII, Klasaman, Distrik Sorong Timur, Kota Sorong",PAPUA BARAT,98416.0,Indonesia,,-0.8998101,131.3382862,https://maps.google.com/?cid=0x0:0xd0ea66a2eeb82643
housing complex,Komplek perumahan,ArkanLathifa Home,"482P+P33, Jl. Sadewa II, Klasaman, Distrik Sorong Timur, Kota Sorong, Papua Bar. 98416","Jl. Sadewa II, Klasaman, Distrik Sorong Timur, Kota Sorong",PAPUA BARAT,98416.0,Indonesia,,-0.8982279,131.3351851,https://maps.google.com/?cid=0x0:0xe364cc319a8584d6
housing complex,housing complex,CNG AS LIFE KOTA SOQ,"485Q+8WM, Jl. Sorong - Makbon, Giwu, Distrik Sorong Timur, Kota Sorong, Papua Bar. 98416","Jl. Sorong - Makbon, Giwu, Distrik Sorong Timur, Kota Sorong",PAPUA BARAT,98416.0,Indonesia,,-0.8917361,131.3396978,https://maps.google.com/?cid=0x0:0xb3dcda3b94518968
housing complex,housing complex,Nardo,"48FM+FV9, Jl. Sorong - Makbon, Matalamagi, Kec. Sorong Utara, Kota Sorong, Papua Bar. 98416","Jl. Sorong - Makbon, Matalamagi, Kec. Sorong Utara, Kota Sorong",PAPUA BARAT,98416.0,Indonesia,,-0.8763337,131.3347252,https://maps.google.com/?cid=0x0:0x858580bf84bb52b
housing complex,Komplek perumahan,Carissa home,"484J+3GM, Jl. Sorong - Makbon, Giwu, Distrik Sorong Timur, Kota Sorong, Papua Bar. 98416","Jl. Sorong - Makbon, Giwu, Distrik Sorong Timur, Kota Sorong",PAPUA BARAT,98416.0,Indonesia,,-0.8949547,131.3313429,https://maps.google.com/?cid=0x0:0x3c8893264316f029
housing complex,Komplek perumahan,Romeesa's House,"487H+6GM, Jl. Bima, Matalamagi, Kec. Sorong Utara, Kota Sorong, Papua Bar. 98416","Jl. Bima, Matalamagi, Kec. Sorong Utara, Kota Sorong",PAPUA BARAT,98416.0,Indonesia,,-0.8869175,131.3288055,https://maps.google.com/?cid=0x0:0x234723a28f8fcfac
housing complex,Perumahan,KADAR HILL RESIDENCE II,"Jl. Bima No.2, Matalamagi, Kec. Sorong Utara, Kota Sorong, Papua Bar. 98416","Matalamagi, Kec. Sorong Utara, Kota Sorong",PAPUA BARAT,98416.0,Indonesia,89525600971.0,-0.8861389,131.3279167,https://maps.google.com/?cid=0x0:0xfb9a0181274599b8
