Category,Real Category,Business Name,Address,City,State,Postal Code,Country,Phone,Email,Website,Latitude,Longitude,Map Link,Details Link
hotel,hotel,Kec. Moa Lakor,"Kabupaten Maluku Barat Daya, Maluku","Kabupaten Maluku Barat Daya, Maluku",MALUKU,,Indonesia,,,,-81.550.646,1.277.912.166,https://maps.google.com/?cid=0x0:0xdad6338040993a27,
hotel,Bed >>u0026 Breakfast,Penginapan Kaiwatu Indah,"VRR7+6HJ, Kaiwatu, Kec. Moa Lakor, Kabupaten Maluku Barat Daya, Maluku","Kabupaten Maluku Barat Daya, Maluku",MALUKU,,Indonesia,,,,-8.109.407,1.278.138.933,https://maps.google.com/?cid=0x0:0x851e3ff86a074bfc,
hotel,Hotel,Penginapan Michelle Celline,"VRPF+325, Kaiwatu, Kec. Moa Lakor, Kabupaten Maluku Barat Daya, Maluku","Kabupaten Maluku Barat Daya, Maluku",MALUKU,,Indonesia,,,,-81.148.631,1.278.226.028,https://maps.google.com/?cid=0x0:0xdff8da5a5263dc39,
hotel,Motel,Penginapan Scorpions,"VR53+FW6, Unnamed Road, Kaiwatu, Moa Lakor, Maluku Barat Daya Regency, Maluku","Kabupaten Maluku Barat Daya, Maluku",MALUKU,,Indonesia,82293885387.0,,,-81.413.338,1.278.047.678,https://maps.google.com/?cid=0x0:0x939aa476d6146b9e,
hotel,Pondok,Adoni merweer,"RQRX+955, Wakarleli, Kec. Moa Lakor, Kabupaten Maluku Barat Daya, Maluku","Kabupaten Maluku Barat Daya, Maluku",MALUKU,,Indonesia,,,,-81.592.292,1.277.984.472,https://maps.google.com/?cid=0x0:0xae1886cd0b9b6300,
hotel,Tujuan Wisata,Pantai Tunyeru,"Q3XC+P78, Moain, Kec. Moa Lakor, Kabupaten Maluku Barat Daya, Maluku","Kabupaten Maluku Barat Daya, Maluku",MALUKU,,Indonesia,,,,-82.007.131,1.280.706.974,https://maps.google.com/?cid=0x0:0x92c1413593ce0add,
hotel,Tujuan Wisata,Pantai Wakarleli,"RQJQ+H3R, Unnamed Road, Wakarleli, Kec. Moa Lakor, Kabupaten Maluku Barat Daya, Maluku","Kabupaten Maluku Barat Daya, Maluku",MALUKU,,Indonesia,,,,-81.685.202,1.277.876.352,https://maps.google.com/?cid=0x0:0x4d32409dae3934b3,
hotel,Motel,kos-kosan pokpoka kel. M.U Tanody,"VQ4V+JG3, Kaiwatu, Kec. Moa Lakor, Kabupaten Maluku Barat Daya, Maluku","Kabupaten Maluku Barat Daya, Maluku",MALUKU,,Indonesia,,,,-81.434.908,1.277.937.949,https://maps.google.com/?cid=0x0:0x43aad6c68edee139,
hotel,Motel,Kost-kostan Smile,"RRM4+HV7 PLTD, Wakarleli, Kec. Moa Lakor, Kabupaten Maluku Barat Daya, Maluku","Kabupaten Maluku Barat Daya, Maluku",MALUKU,,Indonesia,,,,-81.660.892,1.278.071.684,https://maps.google.com/?cid=0x0:0x44f5e09c0e7e4379,
hotel,Hostel,"Penginapan Mama Yos""""","Dekat Universitas Karledo, Wakarleli, Kec. Moa Lakor, Kabupaten Maluku Barat Daya, Maluku 97442","Wakarleli, Kec. Moa Lakor, Kabupaten Maluku Barat Daya",MALUKU,97442.0,Indonesia,81212345293.0,,,-81.507.227,1.278.254.426,https://maps.google.com/?cid=0x0:0x973342ec7e07b4af,
hotel,Rumah wisata,Kos-Kosan Ina Ama Syali,"VQ4V+M5X, Kaiwatu, Kec. Moa Lakor, Kabupaten Maluku Barat Daya, Maluku","Kabupaten Maluku Barat Daya, Maluku",MALUKU,,Indonesia,,,,-81.432.618,1.277.929.789,https://maps.google.com/?cid=0x0:0xb2c1945796fd8361,
hotel,hotel,Maluku 97128,"Batu Merah, Kec. Sirimau, Kota Ambon, Maluku","Kota Ambon, Maluku",MALUKU,,Indonesia,,,,-36.827.473,1.281.907.702,https://maps.google.com/?cid=0x0:0x25ce4f908fabcf46,
hotel,Hotel,GOLDEN NUSANTARA,"RQRV+V32, Wakarleli Lorong masuk Toko Megaria Electronic 100mtr, Wakarleli, Kec. Moa Lakor, Kabupaten Maluku Barat Daya, Maluku 97442","Wakarleli Lorong masuk Toko Megaria Electronic 100mtr, Wakarleli, Kec. Moa Lakor, Kabupaten Maluku Barat Daya",MALUKU,97442.0,Indonesia,81237777706.0,,,-81.587.588,1.277.921.217,https://maps.google.com/?cid=0x0:0x61dc6450f32dbb1e,
hotel,Hotel,Penginapan Michelle Celline,"VRPF+325, Kaiwatu, Kec. Moa Lakor, Kabupaten Maluku Barat Daya, Maluku","Kabupaten Maluku Barat Daya, Maluku",MALUKU,,Indonesia,,,,-81.148.631,1.278.226.028,https://maps.google.com/?cid=0x0:0xdff8da5a5263dc39,
hotel,hotel,,,,MALUKU,,Indonesia,,,,,,https://maps.google.com/?cid=0x0:0x5a81df272999325d%7C/g/11b697105c%7Cen-ID,
hotel,Hotel bintang 4,Hotel Santika Premiere Ambon,"Jl. Jenderal Sudirman No.88, Batu Merah, Kec. Sirimau, Kota Ambon, Maluku 19728","Batu Merah, Kec. Sirimau, Kota Ambon",MALUKU,19728.0,Indonesia,9113833888.0,,,-36.788.521,1.281.941.333,https://maps.google.com/?cid=0x0:0x613a23eacdd61bba,
hotel,hotel,,,,MALUKU,,Indonesia,,,,,,https://maps.google.com/?cid=0x0:0x613a23eacdd61bba%7C/g/11g0tp0_30%7Cen-ID,
hotel,hotel,,,,MALUKU,,Indonesia,,,,,,https://maps.google.com/?cid=0x0:0xf2e1bfa34a447b2f%7C/g/12vs8g69c%7Cen-ID,
hotel,hotel,Hotel Amans Ambon Manise,"Jl. Pantai Mardika No.53 A, Kel Rijali, Kec. Sirimau, Kota Ambon, Maluku 97123","Kel Rijali, Kec. Sirimau, Kota Ambon",MALUKU,97123.0,Indonesia,911353888.0,,,-36.883.094,1.281.846.749,https://maps.google.com/?cid=0x0:0xf2e1bfa34a447b2f,
hotel,hotel,Damer,"Kabupaten Maluku Barat Daya, Maluku","Kabupaten Maluku Barat Daya, Maluku",MALUKU,,Indonesia,,,,-71.505.033,1.286.320.086,https://maps.google.com/?cid=0x0:0x628d9313140028f5,
hotel,hotel,,,,MALUKU,,Indonesia,,,,,,https://maps.google.com/?cid=0x0:0xb66509852ba2428c%7C/g/121qycpm%7Cen-ID,
hotel,hotel,The Natsepa Hotel  Resort,"Jl. Natsepa No.36, Suli, Kec. Salahutu, Kabupaten Maluku Tengah, Maluku 97582","Suli, Kec. Salahutu, Kabupaten Maluku Tengah",MALUKU,97582.0,Indonesia,911362555.0,,,-36.224.597,1.282.856.783,https://maps.google.com/?cid=0x0:0xb66509852ba2428c,
hotel,hotel,GiiA Maluku Hotel,"Jl. Kebon Kacang Raya No.20, RT.4/RW.8, Kb. Kacang, Kecamatan Tanah Abang, Kota Jakarta Pusat, Daerah Khusus Ibukota Jakarta 10240","RT.4/RW.8, Kb. Kacang, Kecamatan Tanah Abang, Kota Jakarta Pusat",MALUKU,10240.0,Indonesia,2123599336.0,,,-61.937.563,106.818.043,https://maps.google.com/?cid=0x0:0x961073ca19c5d948,
hotel,Hotel bintang 3,Hotel New Mulia,"Jl. Rijali No.19, Kel Rijali, Kec. Sirimau, Kota Ambon, Maluku","Kota Ambon, Maluku",MALUKU,,Indonesia,82198299709.0,,,-36.921.909,1.281.883.361,https://maps.google.com/?cid=0x0:0x5639937481f5de6f,
hotel,hotel,Incla Hotel  Restaurant,"279W+7MG, Olilit, Tanimbar Sel., Kab. Kepulauan Tanimbar, Maluku","Kab. Kepulauan Tanimbar, Maluku",MALUKU,,Indonesia,91821821.0,,,-79.818.007,1.312.967.101,https://maps.google.com/?cid=0x0:0x6f3ff2d69b3e998f,
hotel,Perhimpunan Pengembang Perumahan,Casa Di Stella,"8JMP+76J, Ngilngof, Kec. Kei Kecil, Kabupaten Maluku Tenggara, Maluku","Kabupaten Maluku Tenggara, Maluku",MALUKU,,Indonesia,8124415561.0,,,-56.655.466,1.326.357.166,https://maps.google.com/?cid=0x0:0xfaabcd9021ebf75b,
hotel,hotel,,,,MALUKU,,Indonesia,,,,,,https://maps.google.com/?cid=0x0:0xd9a527375825a79%7C/g/11dzddthkt%7Cen-ID,
hotel,hotel,Airy Maluku City Sudirman Ambon,"85JX+J8C, Jl. Jenderal Sudirman, Hative Kecil, Kec. Sirimau, Kota Ambon, Maluku 97128","Jl. Jenderal Sudirman, Hative Kecil, Kec. Sirimau, Kota Ambon",MALUKU,97128.0,Indonesia,8041112479.0,,,-36.684.342,1.281.982.566,https://maps.google.com/?cid=0x0:0xd9a527375825a79,
hotel,hotel,"McMinnville, Oregon 97128","McMinnville, Oregon, Amerika Serikat","McMinnville, Oregon, Amerika Serikat",MALUKU,,Indonesia,,,,451.835.082,-1.232.842.446,https://maps.google.com/?cid=0x0:0xc66e3d07627a5de8,
hotel,hotel,Best Western McMinnville Inn,"2035 OR-99W, McMinnville, OR 97128, Amerika Serikat","McMinnville, OR",MALUKU,97128.0,Indonesia,15034724900.0,,,45.193.537,-1.232.109.149,https://maps.google.com/?cid=0x0:0x57e0e41650d16acf,
hotel,Hotel,Penginapan Michelle Celline,"VRPF+325, Kaiwatu, Kec. Moa Lakor, Kabupaten Maluku Barat Daya, Maluku","Kabupaten Maluku Barat Daya, Maluku",MALUKU,,Indonesia,,,,-81.148.631,1.278.226.028,https://maps.google.com/?cid=0x0:0xdff8da5a5263dc39,
hotel,hotel,Damer,"Kabupaten Maluku Barat Daya, Maluku","Kabupaten Maluku Barat Daya, Maluku",MALUKU,,Indonesia,,,,-71.505.033,1.286.320.086,https://maps.google.com/?cid=0x0:0x628d9313140028f5,
hotel,Bed >>u0026 Breakfast,Penginapan Kaiwatu Indah,"VRR7+6HJ, Kaiwatu, Kec. Moa Lakor, Kabupaten Maluku Barat Daya, Maluku","Kabupaten Maluku Barat Daya, Maluku",MALUKU,,Indonesia,,,,-8.109.407,1.278.138.933,https://maps.google.com/?cid=0x0:0x851e3ff86a074bfc,
hotel,hotel,,,,MALUKU,,Indonesia,,,,,,https://maps.google.com/?cid=0x0:0xb66509852ba2428c%7C/g/121qycpm%7Cen-ID,
hotel,hotel,Airy Maluku City Sudirman Ambon,"85JX+J8C, Jl. Jenderal Sudirman, Hative Kecil, Kec. Sirimau, Kota Ambon, Maluku 97128","Jl. Jenderal Sudirman, Hative Kecil, Kec. Sirimau, Kota Ambon",MALUKU,97128.0,Indonesia,8041112479.0,,,-36.684.342,1.281.982.566,https://maps.google.com/?cid=0x0:0xd9a527375825a79,
hotel,hotel,Hotel Perdana,"CMG5+Q6G, Jl benteng durstede, Saparua, Kec. Saparua, Kabupaten Maluku Tengah, Maluku","Kabupaten Maluku Tengah, Maluku",MALUKU,,Indonesia,,,,-35.730.506,1.286.580.862,https://maps.google.com/?cid=0x0:0x2a458aa63fb3d146,
hotel,hotel,,,,MALUKU,,Indonesia,,,,,,https://maps.google.com/?cid=0x0:0xd9a527375825a79%7C/g/11dzddthkt%7Cen-ID,
hotel,hotel,,,,MALUKU,,Indonesia,,,,,,https://maps.google.com/?cid=0x0:0xd03a9fa65f4ee0c9%7C/g/11fzf8xt0r%7Cen-ID,
hotel,Hotel,DELUA HOTEL,"Jl. Raya Mangga Besar No.82 13, RT.13/RW.1, Taman Sari, Kec. Taman Sari, Kota Jakarta Barat, Daerah Khusus Ibukota Jakarta 11150","RT.13/RW.1, Taman Sari, Kec. Taman Sari, Kota Jakarta Barat",MALUKU,11150.0,Indonesia,2122683308.0,,,-61.490.243,1.068.258.797,https://maps.google.com/?cid=0x0:0xd03a9fa65f4ee0c9,
hotel,Museum Sejarah Lokal,Monumen Nasional,"Merdeka Square, Jalan Lapangan Monas, Gambir, Kecamatan Gambir, Kota Jakarta Pusat, Daerah Khusus Ibukota Jakarta 10110","Jalan Lapangan Monas, Gambir, Kecamatan Gambir, Kota Jakarta Pusat",MALUKU,10110.0,Indonesia,213853040.0,,,-61.753.924,1.068.271.528,https://maps.google.com/?cid=0x0:0x3d2ad6e1e0e9bcc8,
hotel,Depot kereta api,Mangga Besar,"Jl. Karang Anyar, Karang Anyar, Kecamatan Sawah Besar, Kota Jakarta Pusat, Daerah Khusus Ibukota Jakarta","Kota Jakarta Pusat, Daerah Khusus Ibukota Jakarta",MALUKU,,Indonesia,,,,-61.498,10.682.698,https://maps.google.com/?cid=0x0:0x88f81dc9cad772bc,
hotel,hotel,,,,MALUKU,,Indonesia,,,,,,https://maps.google.com/?cid=0x0:0x8748110e94cb353d%7C/g/11s86qcn2_%7Cen-ID,
hotel,hotel,Maia Hotel Jakarta,"Jl. Kebon Kacang Raya No.27, Kb. Kacang, Kecamatan Tanah Abang, Jakarta, Daerah Khusus Ibukota Jakarta 10240","Kb. Kacang, Kecamatan Tanah Abang, Jakarta",MALUKU,10240.0,Indonesia,213920163.0,,,-61.937.703,106.817.199,https://maps.google.com/?cid=0x0:0x8748110e94cb353d,
hotel,Perhentian bus,Stadiun Karet,"Kb. Melati, Kecamatan Tanah Abang, Kota Jakarta Pusat, Daerah Khusus Ibukota Jakarta","Kota Jakarta Pusat, Daerah Khusus Ibukota Jakarta",MALUKU,,Indonesia,,,,-62.008.419,1.068.159.048,https://maps.google.com/?cid=0x0:0x6b67090796653b2b,
hotel,hotel,,,,MALUKU,,Indonesia,,,,,,https://maps.google.com/?cid=0x0:0xddf794dd0b363645%7C/g/11t2vjyfpv%7Cen-ID,
hotel,hotel,Ashley tanah abang,"Jl. K.H. Wahid Hasyim No.220 A-B, Kampung Bali, Tanah Abang, Central Jakarta City, Jakarta 10250","Kampung Bali, Tanah Abang, Central Jakarta City",MALUKU,10250.0,Indonesia,2150848000.0,,,-61.866.666,1.068.173.307,https://maps.google.com/?cid=0x0:0xddf794dd0b363645,
hotel,Layanan Transportasi,Stasiun Tanahabang,"Jalan Jati Baru Raya, Jl. Cideng Timur, Kecamatan Tanah Abang, 10250",Jl. Cideng Timur,MALUKU,10250.0,Indonesia,,,,-61.856.886,1.068.108.579,https://maps.google.com/?cid=0x0:0x790a6a4bfd2f5502,
hotel,hotel,D'wangsa,"Jl. Kebon Kacang Raya No.20 4, RT.4/RW.8, Kb. Kacang, Kecamatan Tanah Abang, Kota Jakarta Pusat, Daerah Khusus Ibukota Jakarta 10240","RT.4/RW.8, Kb. Kacang, Kecamatan Tanah Abang, Kota Jakarta Pusat",MALUKU,10240.0,Indonesia,,,,-61.937.851,1.068.180.083,https://maps.google.com/?cid=0x0:0x9482b27694daaf2a,
hotel,hotel,GiiA Maluku Hotel,"Jl. Kebon Kacang Raya No.20, RT.4/RW.8, Kb. Kacang, Kecamatan Tanah Abang, Kota Jakarta Pusat, Daerah Khusus Ibukota Jakarta 10240","RT.4/RW.8, Kb. Kacang, Kecamatan Tanah Abang, Kota Jakarta Pusat",MALUKU,10240.0,Indonesia,2123599336.0,,,-61.937.563,106.818.043,https://maps.google.com/?cid=0x0:0x961073ca19c5d948,
hotel,hotel,Stanley Wahid Hasyim Jakarta,"Jl. K.H. Wahid Hasyim No.65 1, RT.1/RW.4, Gondangdia, Kec. Menteng, Jakarta, Daerah Khusus Ibukota Jakarta 10350","RT.1/RW.4, Gondangdia, Kec. Menteng, Jakarta",MALUKU,10350.0,Indonesia,2131925518.0,,,-61.876.087,1.068.276.552,https://maps.google.com/?cid=0x0:0x3987f534aaf452ad,
hotel,hotel,,,,MALUKU,,Indonesia,,,,,,https://maps.google.com/?cid=0x0:0x3987f534aaf452ad%7C/g/11jqp1nwsf%7Cen-ID,
hotel,hotel,Budget Hotel,"No 69, Jl. K.H. Wahid Hasyim, RT.1/RW.4, Gondangdia, Jakarta, Central Jakarta City, Jakarta 10350","Jl. K.H. Wahid Hasyim, RT.1/RW.4, Gondangdia, Jakarta, Central Jakarta City",MALUKU,10350.0,Indonesia,,,,-61.875.172,1.068.274.017,https://maps.google.com/?cid=0x0:0xafed66b551581a5a,
hotel,Layanan Transportasi,Stasiun Gondangdia,"Kb. Sirih, Kec. Menteng, Kota Jakarta Pusat, Daerah Khusus Ibukota Jakarta 10340","Kec. Menteng, Kota Jakarta Pusat",MALUKU,10340.0,Indonesia,21121.0,,,-61.859.859,1.068.325.969,https://maps.google.com/?cid=0x0:0x4fb36a1692bb2bae,
hotel,Hotel bintang 3,Hotel Ibis,"RV42+J47, RT.2/RW.3, Paseban, Kec. Senen, Kota Jakarta Pusat, Daerah Khusus Ibukota Jakarta 10440","RT.2/RW.3, Paseban, Kec. Senen, Kota Jakarta Pusat",MALUKU,10440.0,Indonesia,,,,-61.934.554,1.068.502.918,https://maps.google.com/?cid=0x0:0xb7e0e39b63672240,
hotel,hotel,GiiA Maluku Hotel,"Jl. Kebon Kacang Raya No.20, RT.4/RW.8, Kb. Kacang, Kecamatan Tanah Abang, Kota Jakarta Pusat, Daerah Khusus Ibukota Jakarta 10240","RT.4/RW.8, Kb. Kacang, Kecamatan Tanah Abang, Kota Jakarta Pusat",MALUKU,10240.0,Indonesia,2123599336.0,,,-61.937.563,106.818.043,https://maps.google.com/?cid=0x0:0x961073ca19c5d948,
hotel,hotel,Mdona Hiera,"Kabupaten Maluku Barat Daya, Maluku","Kabupaten Maluku Barat Daya, Maluku",MALUKU,,Indonesia,,,,-8.220.481,1.289.146.087,https://maps.google.com/?cid=0x0:0x25adcbfa64b076cc,
hotel,Museum Sejarah Lokal,Monumen Nasional,"Merdeka Square, Jalan Lapangan Monas, Gambir, Kecamatan Gambir, Kota Jakarta Pusat, Daerah Khusus Ibukota Jakarta 10110","Jalan Lapangan Monas, Gambir, Kecamatan Gambir, Kota Jakarta Pusat",MALUKU,10110.0,Indonesia,213853040.0,,,-61.753.924,1.068.271.528,https://maps.google.com/?cid=0x0:0x3d2ad6e1e0e9bcc8,
hotel,Perhentian bus,Stadiun Karet,"Kb. Melati, Kecamatan Tanah Abang, Kota Jakarta Pusat, Daerah Khusus Ibukota Jakarta","Kota Jakarta Pusat, Daerah Khusus Ibukota Jakarta",MALUKU,,Indonesia,,,,-62.008.419,1.068.159.048,https://maps.google.com/?cid=0x0:0x6b67090796653b2b,
hotel,Taman,Scientia Square Park,"Jl. Scientia Boulevard, Curug Sangereng, Kec. Klp. Dua, Kabupaten Tangerang, Banten 15810","Curug Sangereng, Kec. Klp. Dua, Kabupaten Tangerang",MALUKU,15810.0,Indonesia,2129171222.0,,,-6.257.042,1.066.155.004,https://maps.google.com/?cid=0x0:0x3b96f2ef67285cd9,
hotel,hotel,Herloom Hotel  Residence BSD-Tangerang,"Jl. Jenderal Sudirman No.1, Cihuni, Kec. Pagedangan, Kabupaten Tangerang, Banten 15332","Cihuni, Kec. Pagedangan, Kabupaten Tangerang",MALUKU,15332.0,Indonesia,2150920250.0,,,-6.269.871,1.066.306.277,https://maps.google.com/?cid=0x0:0x9bdedf826bec87df,
hotel,Perhentian bus,Cluster Catalina,"Cihuni, Kec. Pagedangan, Kabupaten Tangerang, Banten","Kabupaten Tangerang, Banten",MALUKU,,Indonesia,,,,-627.078,1.066.311,https://maps.google.com/?cid=0x0:0x6adc335fdfcbb91a,
hotel,hotel,MAHHA dii MERU Resort,"Jl. Raya Puncak No.km 90, Ciloto, Kec. Cipanas, Kabupaten Cianjur, Jawa Barat 43235","Ciloto, Kec. Cipanas, Kabupaten Cianjur",MALUKU,43235.0,Indonesia,87788199959.0,,,-67.061.945,1.069.932.334,https://maps.google.com/?cid=0x0:0x4feb98b2cdb3a5cf,
hotel,Bandara Internasional,Bandar Udara Internasional Soekarno?atta,"Kec. Benda, Kota Tangerang, Banten","Kota Tangerang, Banten",MALUKU,,Indonesia,2155912648.0,,,-6.126.551,1.066.550.558,https://maps.google.com/?cid=0x0:0x61dee98159fa3fe5,
hotel,hotel,"Puncak, Bogor","Ciloto, Kec. Cipanas, Kabupaten Cianjur, Jawa Barat","Kabupaten Cianjur, Jawa Barat",MALUKU,,Indonesia,,,,-67.028.188,1.069.990.215,https://maps.google.com/?cid=0x0:0xf076753f09646828,
hotel,Pembangunan Perumahan,Cluster Wynyard @Hiera BSD,"MHCX+8XJ, Kadu Sirung, Kec. Pagedangan, Kabupaten Tangerang, Banten 15336","Kadu Sirung, Kec. Pagedangan, Kabupaten Tangerang",MALUKU,15336.0,Indonesia,87872172625.0,,,-63.291.331,1.065.997.145,https://maps.google.com/?cid=0x0:0x9935e206304c43af,
hotel,Komplek perumahan,HIERA - THE HEARTLAND OF BSD CITY,"Jl. Raya Kadusirung, Kadu Sirung, Kec. Pagedangan, Kabupaten Tangerang, Banten 15336","Kadu Sirung, Kec. Pagedangan, Kabupaten Tangerang",MALUKU,15336.0,Indonesia,2150519988.0,,,-63.280.415,1.066.058.635,https://maps.google.com/?cid=0x0:0xddd1e2da090be5e6,
hotel,hotel,Kepulauan Babar,"Nakarhamto, Kec. Pulau-Pulau Babar Timur, Kabupaten Maluku Barat Daya, Maluku","Kabupaten Maluku Barat Daya, Maluku",MALUKU,,Indonesia,,,,-78.333.333,129.75,https://maps.google.com/?cid=0x0:0x139304fe972d4953,
hotel,Rumah wisata,Chelina lentora,"3R4R+65, Kokwari, Kec. Pulau-Pulau Babar Timur, Kabupaten Maluku Barat Daya, Maluku","Kabupaten Maluku Barat Daya, Maluku",MALUKU,,Indonesia,,,,-79.444.515,1.298.404.763,https://maps.google.com/?cid=0x0:0xc54eb48795b72012,
hotel,Tujuan Wisata,Tempat wisata watrarona,"3MPC+8XP, Imroing, Kec. Pulau-Pulau Babar, Kabupaten Maluku Barat Daya, Maluku","Kabupaten Maluku Barat Daya, Maluku",MALUKU,,Indonesia,,,,-79.141.586,1.296.724.573,https://maps.google.com/?cid=0x0:0x6212c00f485998d4,
hotel,hotel,Kepulauan Babar,"Nakarhamto, Kec. Pulau-Pulau Babar Timur, Kabupaten Maluku Barat Daya, Maluku","Kabupaten Maluku Barat Daya, Maluku",MALUKU,,Indonesia,,,,-78.333.333,129.75,https://maps.google.com/?cid=0x0:0x139304fe972d4953,
hotel,hotel,Maluku Resort and Spa,"Jl Waititiri, Suli, Salahutu, Central Maluku Regency, Maluku 97582","Suli, Salahutu, Central Maluku Regency",MALUKU,97582.0,Indonesia,911361970.0,,,-36.167.962,1.282.776.551,https://maps.google.com/?cid=0x0:0x399bf62f92df6277,
hotel,hotel,Pulau Wetar,"Kabupaten Maluku Barat Daya, Maluku","Kabupaten Maluku Barat Daya, Maluku",MALUKU,,Indonesia,,,,-77.851.588,1.263.498.097,https://maps.google.com/?cid=0x0:0x501150d5e877187,
hotel,hotel,Bellarizki Resort,"24R9+922, Saleman, Kec. Seram Utara Bar., Kabupaten Maluku Tengah, Maluku","Kabupaten Maluku Tengah, Maluku",MALUKU,,Indonesia,82198508001.0,,,-29.591.081,1.291.175.123,https://maps.google.com/?cid=0x0:0xc6db48cb9142d4b1,
hotel,hotel,,,,MALUKU,,Indonesia,,,,,,https://maps.google.com/?cid=0x0:0xb66509852ba2428c%7C/g/121qycpm%7Cen-ID,
hotel,hotel,The Natsepa Hotel  Resort,"Jl. Natsepa No.36, Suli, Kec. Salahutu, Kabupaten Maluku Tengah, Maluku 97582","Suli, Kec. Salahutu, Kabupaten Maluku Tengah",MALUKU,97582.0,Indonesia,911362555.0,,,-36.224.597,1.282.856.783,https://maps.google.com/?cid=0x0:0xb66509852ba2428c,
hotel,hotel,Hotel Mutiara,"Jl. Pattimura No.12, Uritetu, Kec. Sirimau, Kota Ambon, Maluku 97236","Uritetu, Kec. Sirimau, Kota Ambon",MALUKU,97236.0,Indonesia,81272183527.0,,,-36.947.357,1.281.835.199,https://maps.google.com/?cid=0x0:0x63d864abc86620,
hotel,hotel,Hotel New Mulia,"Jl. Rijali No.19, Kel Rijali, Kec. Sirimau, Kota Ambon, Maluku","Kota Ambon, Maluku",MALUKU,,Indonesia,82198299709.0,,,-36.921.909,1.281.883.361,https://maps.google.com/?cid=0x0:0x5639937481f5de6f,
hotel,hotel,Hotel SEA,"Jl. Jenderal Sudirman, Hative Kecil, Kec. Sirimau, Kota Ambon, Maluku","Kota Ambon, Maluku",MALUKU,,Indonesia,811474781.0,,,-36.684.343,1.281.982.564,https://maps.google.com/?cid=0x0:0xe22091de7a7f570d,
hotel,hotel,Ora Beach Eco Resort,"24QQ+PGH, Saleman, Kec. Seram Utara Bar., Kabupaten Maluku Tengah, Maluku","Kabupaten Maluku Tengah, Maluku",MALUKU,,Indonesia,81248896616.0,,,-2.960.695,1.291.388.702,https://maps.google.com/?cid=0x0:0x9de937b6ce29acab,
hotel,hotel,Sea Hotel. PT,"Jl. Jenderal Sudirman No.RT 004/05, Kel Wainitu, Kec. Nusaniwe, Kota Ambon, Maluku","Kota Ambon, Maluku",MALUKU,,Indonesia,911314554.0,,,-37.031.534,1.281.721.654,https://maps.google.com/?cid=0x0:0x501bf2c5207e92f5,
hotel,hotel,Baguala Beach,"97MH+63G, Suli, Kec. Salahutu, Kabupaten Maluku Tengah, Maluku","Kabupaten Maluku Tengah, Maluku",MALUKU,,Indonesia,81259490022.0,,,-36.169.452,1.282.777.185,https://maps.google.com/?cid=0x0:0x632f2cf306fa3e94,
hotel,hotel,GC peningapan Banda Island,"Agil Nasrun - Desa kampung baru RT 02 banda neira, Maluku 97593",Maluku,MALUKU,,Indonesia,81315108555.0,,,-45.194.432,1.297.791.292,https://maps.google.com/?cid=0x0:0x91e37f0b98992c91,
hotel,hotel,Airy Maluku City Sudirman Ambon,"85JX+J8C, Jl. Jenderal Sudirman, Hative Kecil, Kec. Sirimau, Kota Ambon, Maluku 97128","Jl. Jenderal Sudirman, Hative Kecil, Kec. Sirimau, Kota Ambon",MALUKU,97128.0,Indonesia,8041112479.0,,,-36.684.342,1.281.982.566,https://maps.google.com/?cid=0x0:0xd9a527375825a79,
hotel,hotel,,,,MALUKU,,Indonesia,,,,,,https://maps.google.com/?cid=0x0:0xd9a527375825a79%7C/g/11dzddthkt%7Cen-ID,
hotel,hotel,Pantai Karbubu,"2VC4+HJ7, Karbubu, Pp. Wetar, Kabupaten Maluku Barat Daya, Maluku","Kabupaten Maluku Barat Daya, Maluku",MALUKU,,Indonesia,,,,-79.785.911,1.258.565.555,https://maps.google.com/?cid=0x0:0x2140ee34781e9ef0,
hotel,hotel,Kec. Pulau-pulau Terselatan,"Kabupaten Maluku Barat Daya, Maluku","Kabupaten Maluku Barat Daya, Maluku",MALUKU,,Indonesia,,,,-80.702.814,1.271.638.207,https://maps.google.com/?cid=0x0:0x3668501476639829,
hotel,Pondok,Penginapan Latri,"W5P9+PG, Wonreli, Kec. Pulau-pulau Terselatan, Kabupaten Maluku Barat Daya, Maluku","Kabupaten Maluku Barat Daya, Maluku",MALUKU,,Indonesia,,,,-80.632.022,1.271.687.905,https://maps.google.com/?cid=0x0:0x679643266ca038b2,
hotel,Pondok,Penginapan Yotowawa Indah Wonreli,"W5J7+CJH, Nomaha, Kec. Pulau-pulau Terselatan, Kabupaten Maluku Barat Daya, Maluku","Kabupaten Maluku Barat Daya, Maluku",MALUKU,,Indonesia,,,,-80.689.289,1.271.640.972,https://maps.google.com/?cid=0x0:0xf5dde40737b8559,
hotel,Hotel Resor,Pantai Malara,"X45P+7WH, Lebelau, Kec. Pulau-pulau Terselatan, Kabupaten Maluku Barat Daya, Maluku","Kabupaten Maluku Barat Daya, Maluku",MALUKU,,Indonesia,,,,-80.418.204,1.271.373.742,https://maps.google.com/?cid=0x0:0x54e21a8a85f72147,
hotel,Tujuan Wisata,Muidau Beach,"X4FX+CP, Lekloor, Kec. Pulau-pulau Terselatan, Kabupaten Maluku Barat Daya, Maluku","Kabupaten Maluku Barat Daya, Maluku",MALUKU,,Indonesia,,,,-80.264.259,1.271.492.637,https://maps.google.com/?cid=0x0:0xe7292d6a5660bd92,
hotel,Hotel Resor,Pantai Nama,"W4FW+GQ, Wonreli, Kec. Pulau-pulau Terselatan, Kabupaten Maluku Barat Daya, Maluku","Kabupaten Maluku Barat Daya, Maluku",MALUKU,,Indonesia,,,,-80.767.766,1.271.470.704,https://maps.google.com/?cid=0x0:0xc8cd1879e6c707ca,
hotel,Hotel Resor,Yelurna Beach,"W4VR+C3, Wonreli, Kabupaten Maluku Barat Daya, Maluku","Kabupaten Maluku Barat Daya, Maluku",MALUKU,,Indonesia,,,,-80.564.056,1.271.402.203,https://maps.google.com/?cid=0x0:0xc794134e83c42523,
hotel,hotel,Nusa Nalan Beach Resort,"Saleman, Kec. Seram Utara Bar., Kabupaten Maluku Tengah, Maluku","Kabupaten Maluku Tengah, Maluku",MALUKU,,Indonesia,82191118069.0,,,-29.641.794,1.291.227.794,https://maps.google.com/?cid=0x0:0x3e974595c220a8d9,
hotel,hotel,Bellarizki Resort,"24R9+922, Saleman, Kec. Seram Utara Bar., Kabupaten Maluku Tengah, Maluku","Kabupaten Maluku Tengah, Maluku",MALUKU,,Indonesia,82198508001.0,,,-29.591.081,1.291.175.123,https://maps.google.com/?cid=0x0:0xc6db48cb9142d4b1,
hotel,hotel,Kec. Pulau Letti,"Kabupaten Maluku Barat Daya, Maluku","Kabupaten Maluku Barat Daya, Maluku",MALUKU,,Indonesia,,,,-81.581.088,1.276.809.231,https://maps.google.com/?cid=0x0:0xa5d93595e880f516,
hotel,hotel,Suita Hotel,"8PWR+V8H, Kel. Ohoijang Watdek, Kec. Kei Kecil, Kabupaten Maluku Tenggara, Maluku","Kabupaten Maluku Tenggara, Maluku",MALUKU,,Indonesia,91624007.0,,,-56.528.181,13.274.087,https://maps.google.com/?cid=0x0:0x44818b2730e9d9f7,
hotel,hotel,Hotel Grand Vilia,"Jl. Telaver No.1, Langgur, Kec. Kei Kecil, Kabupaten Maluku Tenggara, Maluku","Kabupaten Maluku Tenggara, Maluku",MALUKU,,Indonesia,82197830643.0,,,-56.704.304,1.327.377.086,https://maps.google.com/?cid=0x0:0x602282c2fc284226,
hotel,hotel,Aurelia Hotel By KIMSON,"Jalan Jenderal Sudirman, Kel. Ohoijang Watdek, Kec. Kei Kecil, Kabupaten Maluku Tenggara, Maluku","Kabupaten Maluku Tenggara, Maluku",MALUKU,,Indonesia,811477881.0,,,-5.650.942,1.327.409.983,https://maps.google.com/?cid=0x0:0xe4999f098a6624b5,
hotel,hotel,Vid Fauw OasisVilla,"8MRX+9V, Kelanit, Kabupaten Maluku Tenggara, Maluku","Kabupaten Maluku Tenggara, Maluku",MALUKU,,Indonesia,82170390076.0,,,-56.590.873,1.326.996.393,https://maps.google.com/?cid=0x0:0xf2b6d4ca0c5d2823,
hotel,hotel,Hotel Dragon,"Jl. Jend. Sudirman, Langgur, Kec. Kei Kecil, Kabupaten Maluku Tenggara, Maluku","Kabupaten Maluku Tenggara, Maluku",MALUKU,,Indonesia,,,,-56.556.244,1.327.400.133,https://maps.google.com/?cid=0x0:0x2fa72a608601774c,
hotel,Tujuan Wisata,Pantai Ngurbloat Desa Ngilngof - Kei Islands,"Ngurbloat, Kabupaten Maluku Tenggara, Maluku","Kabupaten Maluku Tenggara, Maluku",MALUKU,,Indonesia,811477719.0,,,-56.624.981,1.326.362.396,https://maps.google.com/?cid=0x0:0xd3a4a88054e326f,
hotel,hotel,Savana Cottages,"Unnamed Road, Ohoidertawun, Kec. Kei Kecil, Kabupaten Maluku Tenggara, Maluku","Kabupaten Maluku Tenggara, Maluku",MALUKU,,Indonesia,81343083856.0,,,-56.305.661,1.326.689.339,https://maps.google.com/?cid=0x0:0x395f4446208940e7,
hotel,hotel,Pulau Leti,"Luhulely, Kec. Pulau Letti, Kabupaten Maluku Barat Daya, Maluku","Kabupaten Maluku Barat Daya, Maluku",MALUKU,,Indonesia,,,,-8.2,1.276.833.333,https://maps.google.com/?cid=0x0:0xcaaf5b19de612073,
hotel,Pondok,Penginapan Ina Marina,"MXX2+FV7, Jl. Nusa Laut, Ampera, Kec. Kota Masohi, Kabupaten Maluku Tengah, Maluku","Kabupaten Maluku Tengah, Maluku",MALUKU,,Indonesia,81344418319.0,,,-33.013.279,1.289.521.824,https://maps.google.com/?cid=0x0:0xbabc669b190015c1,
hotel,hotel,Kec. Pulau Masela,"Kabupaten Maluku Barat Daya, Maluku","Kabupaten Maluku Barat Daya, Maluku",MALUKU,,Indonesia,,,,-81.584.174,1.298.704.314,https://maps.google.com/?cid=0x0:0xc4846e8cd1083f5c,
hotel,hotel,Penginapan INA MARINA,"Jl. Abdullah Solissa No.95, Ampera, Kec. Kota Masohi, Kabupaten Maluku Tengah, Maluku 97511","Ampera, Kec. Kota Masohi, Kabupaten Maluku Tengah",MALUKU,97511.0,Indonesia,,,,-33.015.208,1.289.530.795,https://maps.google.com/?cid=0x0:0x6a55fb14af2c9574,
hotel,Jembatan,Pantai Ina Marina,"PX23+97V, Ampera, Kec. Kota Masohi, Kabupaten Maluku Tengah, Maluku 97511","Ampera, Kec. Kota Masohi, Kabupaten Maluku Tengah",MALUKU,97511.0,Indonesia,,,,-3.299.009,128.953.178,https://maps.google.com/?cid=0x0:0x64b55143ad1008c3,
hotel,hotel,Nusa Nalan Beach Resort,"Saleman, Kec. Seram Utara Bar., Kabupaten Maluku Tengah, Maluku","Kabupaten Maluku Tengah, Maluku",MALUKU,,Indonesia,82191118069.0,,,-29.641.794,1.291.227.794,https://maps.google.com/?cid=0x0:0x3e974595c220a8d9,
hotel,hotel,GC peningapan Banda Island,"Agil Nasrun - Desa kampung baru RT 02 banda neira, Maluku 97593",Maluku,MALUKU,,Indonesia,81315108555.0,,,-45.194.432,1.297.791.292,https://maps.google.com/?cid=0x0:0x91e37f0b98992c91,
hotel,hotel,Dawelor Dawera,"Kabupaten Maluku Barat Daya, Maluku","Kabupaten Maluku Barat Daya, Maluku",MALUKU,,Indonesia,,,,-77.617.442,1.300.581.836,https://maps.google.com/?cid=0x0:0xfdc455be5380a875,
hotel,hotel,Pulau Dawera,"Dawelor Dawera, Kabupaten Maluku Barat Daya, Maluku","Kabupaten Maluku Barat Daya, Maluku",MALUKU,,Indonesia,,,,-77.240.985,1.300.068.953,https://maps.google.com/?cid=0x0:0x818dcb3207fcd882,
hotel,hotel,Pulau Daweloor,Maluku,Maluku,MALUKU,,Indonesia,,,,-77.692.697,1.300.684.361,https://maps.google.com/?cid=0x0:0xcf731eafda355182,
hotel,hotel,Hotel Sukma,"Jalan Jend. A. Yani No.5, Sukmajaya, Kec. Jombang, Kota Cilegon, Banten 42421","Sukmajaya, Kec. Jombang, Kota Cilegon",MALUKU,42421.0,Indonesia,254391268.0,,,-60.225.438,106.065.222,https://maps.google.com/?cid=0x0:0x740d3631c90a90d8,
hotel,hotel,Grand Krakatau Cilegon,"Jl. Jend. A. Yani No.2, Sukmajaya, Kec. Jombang, Kota Cilegon, Banten 42416","Sukmajaya, Kec. Jombang, Kota Cilegon",MALUKU,42416.0,Indonesia,254384288.0,,,-60.210.586,1.060.632.308,https://maps.google.com/?cid=0x0:0x9e72fcc70b9661c4,
hotel,hotel,amandha home stay,"Jl. Lotus Raya No.5, Kotabumi, Kec. Purwakarta, Kota Cilegon, Banten 42435","Kotabumi, Kec. Purwakarta, Kota Cilegon",MALUKU,42435.0,Indonesia,87778185169.0,,,-59.825.774,1.060.420.071,https://maps.google.com/?cid=0x0:0xc2b86e82157fff69,
hotel,hotel,Sukma Kost 2,"Jl. Kapten Piere Tendean, Jombang Wetan, Kec. Jombang, Kota Cilegon, Banten","Kota Cilegon, Banten",MALUKU,,Indonesia,87812283220.0,,,-60.088.228,1.060.610.277,https://maps.google.com/?cid=0x0:0xf9fd8e5070509d7f,
hotel,hotel,Kosan Little Holland Huis,"Jl. Lotus Jingga No.43A, RT.31/RW.10, Kotabumi, Kec. Purwakarta, Kota Cilegon, Banten 42434","RT.31/RW.10, Kotabumi, Kec. Purwakarta, Kota Cilegon",MALUKU,42434.0,Indonesia,85217281762.0,,,-59.842.704,106.041.697,https://maps.google.com/?cid=0x0:0x761bc1d5d66a84e0,
hotel,Masjid,Masjid Agung Banten,"Jl. Komp. Masjid Agung Banten, RT./RW/RW.001/011, Banten, Kec. Kasemen, Kota Serang, Banten 42191","RT./RW/RW.001/011, Banten, Kec. Kasemen, Kota Serang",MALUKU,42191.0,Indonesia,,,,-60.360.236,1.061.540.182,https://maps.google.com/?cid=0x0:0xfcd392b0b6fb096a,
hotel,hotel,Pulau Wetan,"Kec. Pulau Wetang, Kabupaten Maluku Barat Daya, Maluku","Kabupaten Maluku Barat Daya, Maluku",MALUKU,,Indonesia,,,,-7.903.052,1.295.381.684,https://maps.google.com/?cid=0x0:0x78aa175343bb0b64,
hotel,Hotel,Mr. Bob Radiena house,"Q5JF+7M2, Sera, Kec. Pulau Lakor, Kabupaten Maluku Barat Daya, Maluku","Kabupaten Maluku Barat Daya, Maluku",MALUKU,,Indonesia,,,,-821.935,1.281.741.371,https://maps.google.com/?cid=0x0:0x687634183d8f7f7b,
hotel,Komplek perumahan,Rumah Bpk. AS RADIENA,"Q5RG+438, Sera, Kec. Pulau Lakor, Kabupaten Maluku Barat Daya, Maluku","Kabupaten Maluku Barat Daya, Maluku",MALUKU,,Indonesia,,,,-82.097.697,1.281.752.196,https://maps.google.com/?cid=0x0:0x7f15024a420e6dc,
hotel,hotel,Maluku,,Maluku,MALUKU,,Indonesia,,,,-32.384.616,1.301.452.734,https://maps.google.com/?cid=0x0:0x5e30e8db04649a51,
hotel,Tujuan Wisata,Pantai Ngurbloat Desa Ngilngof - Kei Islands,"Ngurbloat, Kabupaten Maluku Tenggara, Maluku","Kabupaten Maluku Tenggara, Maluku",MALUKU,,Indonesia,811477719.0,,,-56.624.981,1.326.362.396,https://maps.google.com/?cid=0x0:0xd3a4a88054e326f,
hotel,hotel,Hotel Grand Vilia,"Jl. Telaver No.1, Langgur, Kec. Kei Kecil, Kabupaten Maluku Tenggara, Maluku","Kabupaten Maluku Tenggara, Maluku",MALUKU,,Indonesia,82197830643.0,,,-56.704.304,1.327.377.086,https://maps.google.com/?cid=0x0:0x602282c2fc284226,
hotel,hotel,,,,MALUKU,,Indonesia,,,,,,https://maps.google.com/?cid=0x0:0x602282c2fc284226%7C/g/11bc7s8rt9%7Cen-ID,
hotel,hotel,Suita Hotel,"8PWR+V8H, Kel. Ohoijang Watdek, Kec. Kei Kecil, Kabupaten Maluku Tenggara, Maluku","Kabupaten Maluku Tenggara, Maluku",MALUKU,,Indonesia,91624007.0,,,-56.528.181,13.274.087,https://maps.google.com/?cid=0x0:0x44818b2730e9d9f7,
hotel,Hotel,Hotel Maluku Transit/Restoran,"832X+9VR, Jl. Dr. J. Leimena, Tawiri, Kec. Tlk. Ambon, Kota Ambon, Maluku","Kota Ambon, Maluku",MALUKU,,Indonesia,,,,-36.990.163,1.280.996.364,https://maps.google.com/?cid=0x0:0xa68a7781870a4df,
hotel,hotel,SURYA INN,"Jl. Pelita, Langgur, Kec. Kei Kecil, Kabupaten Maluku Tenggara, Maluku","Kabupaten Maluku Tenggara, Maluku",MALUKU,,Indonesia,81281425505.0,,,-56.538.155,1.327.347.042,https://maps.google.com/?cid=0x0:0xb0a10184948650b8,
hotel,Hotel,Penginapan RATIH laha ambon..,"73WP+5VM, Laha, Kec. Tlk. Ambon, Kota Ambon, Maluku","Kota Ambon, Maluku",MALUKU,,Indonesia,,,,-37.045.319,1.280.871.665,https://maps.google.com/?cid=0x0:0x5e9d0c6d0d2f6718,
hotel,hotel,Ohoimel Resort,"9J4P+FXF, Ohoililir, Kec. Kei Kecil, Kabupaten Maluku Tenggara, Maluku","Kabupaten Maluku Tenggara, Maluku",MALUKU,,Indonesia,85344183318.0,,,-56.438.205,1.326.374.283,https://maps.google.com/?cid=0x0:0xbebf1af7aec19226,
hotel,Hotel,Wisma Matahari,"8PHM+CV5, Jl. Kabupaten, Langgur, Kec. Kei Kecil, Kabupaten Maluku Tenggara, Maluku 97611","Jl. Kabupaten, Langgur, Kec. Kei Kecil, Kabupaten Maluku Tenggara",MALUKU,97611.0,Indonesia,9162520254.0,,,-5.671.478,132.734.719,https://maps.google.com/?cid=0x0:0x7ef0db4fba741ff2,
hotel,hotel,Casa Di Stella,"8JMP+76J, Ngilngof, Kec. Kei Kecil, Kabupaten Maluku Tenggara, Maluku","Kabupaten Maluku Tenggara, Maluku",MALUKU,,Indonesia,8124415561.0,,,-56.655.466,1.326.357.166,https://maps.google.com/?cid=0x0:0xfaabcd9021ebf75b,
hotel,hotel,Yohana cottage,"Pantai pasir panjang Desa ngilngof Kabupaten Maluku tenggara, Tual City, Maluku 97611",Tual City,MALUKU,97611.0,Indonesia,82238244447.0,,,-56.645.423,1.326.358.551,https://maps.google.com/?cid=0x0:0xdb8a52d343b6fec1,
hotel,hotel,RumaRuma Farvet Residence,"Jl. DR. Kayadoe, Kel Wainitu, Kec. Nusaniwe, Kota Ambon, Maluku 97114","Kel Wainitu, Kec. Nusaniwe, Kota Ambon",MALUKU,97114.0,Indonesia,911320001.0,,,-37.048.297,1.281.749.829,https://maps.google.com/?cid=0x0:0x157b5f43bce7d2b7,
hotel,hotel,LeGreen Suite Waihaong,"Jl. Sultan Babullah No.48, Kel Waihaong, Kec. Nusaniwe, Kota Ambon, Maluku 97115","Kel Waihaong, Kec. Nusaniwe, Kota Ambon",MALUKU,97115.0,Indonesia,911350068.0,,,-36.996.254,1.281.756.492,https://maps.google.com/?cid=0x0:0xb21959aef3d161b1,
hotel,hotel,Amaris Hotel Ambon,"75XM+87F, Jl. Diponegoro No.82-84, Kel Ahusen, Kec. Sirimau, Kota Ambon, Maluku 97127","Jl. Diponegoro No.82-84, Kel Ahusen, Kec. Sirimau, Kota Ambon",MALUKU,97127.0,Indonesia,911348777.0,,,-37.012.296,128.182.691,https://maps.google.com/?cid=0x0:0x6aabc267199e4444,
hotel,hotel,Biz Hotel Ambon,"Jl. Maluku Said Perintah, Kel Ahusen, Kec. Sirimau, Kota Ambon, Maluku 97127","Kel Ahusen, Kec. Sirimau, Kota Ambon",MALUKU,97127.0,Indonesia,81234566960.0,,,-36.972.829,1.281.815.441,https://maps.google.com/?cid=0x0:0xdeb7ea4b08f3fc09,
hotel,hotel,Golden Inn Ambon RedPartner,"jln fulli, Kel Honipopu, Kec. Sirimau, Kota Ambon, Maluku","Kota Ambon, Maluku",MALUKU,,Indonesia,2180629666.0,,,-36.952.834,1.281.778.973,https://maps.google.com/?cid=0x0:0x21c4710a731cc8f,
hotel,hotel,Guest House Mangga Dua,"Jl. Mangga Dua, Kel Urimesing, Kec. Nusaniwe, Kota Ambon, Maluku","Kota Ambon, Maluku",MALUKU,,Indonesia,2129707601.0,,,-37.049.069,1.281.793.354,https://maps.google.com/?cid=0x0:0x971f21cf7da1cd67,
hotel,hotel,OYO 984 Maleo Guest House,"Jl. Hasri Mursalim Amd.Kep, Kel Honipopu, Kec. Sirimau, Kota Ambon, Maluku","Kota Ambon, Maluku",MALUKU,,Indonesia,2129707601.0,,,-36.979.825,1.281.795.938,https://maps.google.com/?cid=0x0:0x947474ce888e64b7,
hotel,hotel,Penginapan Star Ambon RedPartner,"Jl. AM Sangaji, Kel Honipopu, Kec. Sirimau, Kota Ambon, Maluku","Kota Ambon, Maluku",MALUKU,,Indonesia,895417300072.0,,,-36.977.724,1.281.793.224,https://maps.google.com/?cid=0x0:0x803ada0afec45f84,
hotel,Tujuan Wisata,Pantai Pintu Kota Ambon,"65H2+QXM, Nusaniwe, Kec. Nusaniwe, Kota Ambon, Maluku","Kota Ambon, Maluku",MALUKU,,Indonesia,,,,-37.705.365,1.281.524.331,https://maps.google.com/?cid=0x0:0x456317295a6201a6,
hotel,hotel,Hotel Corner Palace,"Jl. Stadion, Kp. Pisang, Kec. Ternate Tengah, Kota Ternate, Maluku Utara","Kota Ternate, Maluku Utara",MALUKU,,Indonesia,81343626106.0,,,0.7849238,1.273.825.146,https://maps.google.com/?cid=0x0:0xf1fb3756e7040c73,
hotel,hotel,D'Wantys Hotel,"Q9HG+WHC RW.Jerbus Kel, Tanah Tinggi Bar., Kec. Ternate Sel., Kota Ternate, Maluku Utara","Kota Ternate, Maluku Utara",MALUKU,,Indonesia,9216203046.0,,,0.7798217,1.273.763.933,https://maps.google.com/?cid=0x0:0xbcfba8a376993043,
hotel,hotel,Penginapan RD 01,"Perumahan BI Lama No.610, Maliaro, Kec. Ternate Tengah, Kota Ternate, Maluku Utara 97711","Maliaro, Kec. Ternate Tengah, Kota Ternate",MALUKU,97711.0,Indonesia,81143903528.0,,,0.7823152,1.273.769.593,https://maps.google.com/?cid=0x0:0x384f065b5f4b8fda,
hotel,hotel,Kurnia Homestay,"Jl. Raya BTN No.8 Blok G, Maliaro, Kec. Ternate Tengah, Kota Ternate, Maluku Utara 97711","Maliaro, Kec. Ternate Tengah, Kota Ternate",MALUKU,97711.0,Indonesia,82188887379.0,,,0.7883944,1.273.759.025,https://maps.google.com/?cid=0x0:0x7e4e6a1d8187a23e,
hotel,hotel,Jati Hotel,"Jl. Jati Besar, Jati, Kec. Ternate Sel., Kota Ternate, Maluku Utara","Kota Ternate, Maluku Utara",MALUKU,,Indonesia,82317749090.0,,,0.7741052,1.273.746.306,https://maps.google.com/?cid=0x0:0x677ab57329945678,
hotel,hotel,RedDoorz near Pantai Falajawa,"Jl. Sultan Nuku No.100, Muhajirin, Kec. Ternate Tengah, Kota Ternate, Maluku Utara","Kota Ternate, Maluku Utara",MALUKU,,Indonesia,895417300072.0,,,0.7834077,1.273.878.732,https://maps.google.com/?cid=0x0:0xd410298132550869,
hotel,hotel,Ternate City Hotel,"Jl. Nuku No.1, Muhajirin, Kec. Ternate Tengah, Kota Ternate, Maluku Utara 97713","Muhajirin, Kec. Ternate Tengah, Kota Ternate",MALUKU,97713.0,Indonesia,81327824005.0,,,0.7831686,1.273.881.079,https://maps.google.com/?cid=0x0:0xf0a0764df41ded6,
hotel,hotel,Grand Majang Hotel Ternate,"Jl. Arnold Mononutu No.275, Stadion, Kec. Ternate Tengah, Kota Ternate, Maluku Utara","Kota Ternate, Maluku Utara",MALUKU,,Indonesia,81289376601.0,,,0.7836107,1.273.845.012,https://maps.google.com/?cid=0x0:0xf6e7394b3e66015f,
hotel,hotel,Gn. Gamalama,"Hutan Lindung, Kec. Hutan Lindung, Kota Ternate, Maluku Utara","Kota Ternate, Maluku Utara",MALUKU,,Indonesia,,,,0.8091666,1.273.333.333,https://maps.google.com/?cid=0x0:0x1f13cae0fc042e8,
hotel,hotel,Pantai Karbubu,"2VC4+HJ7, Karbubu, Pp. Wetar, Kabupaten Maluku Barat Daya, Maluku","Kabupaten Maluku Barat Daya, Maluku",MALUKU,,Indonesia,,,,-79.785.911,1.258.565.555,https://maps.google.com/?cid=0x0:0x2140ee34781e9ef0,
hotel,hotel,GiiA Maluku Hotel,"Jl. Kebon Kacang Raya No.20, RT.4/RW.8, Kb. Kacang, Kecamatan Tanah Abang, Kota Jakarta Pusat, Daerah Khusus Ibukota Jakarta 10240","RT.4/RW.8, Kb. Kacang, Kecamatan Tanah Abang, Kota Jakarta Pusat",MALUKU,10240.0,Indonesia,2123599336.0,,,-61.937.563,106.818.043,https://maps.google.com/?cid=0x0:0x961073ca19c5d948,
hotel,Museum Sejarah Lokal,Monumen Nasional,"Merdeka Square, Jalan Lapangan Monas, Gambir, Kecamatan Gambir, Kota Jakarta Pusat, Daerah Khusus Ibukota Jakarta 10110","Jalan Lapangan Monas, Gambir, Kecamatan Gambir, Kota Jakarta Pusat",MALUKU,10110.0,Indonesia,213853040.0,,,-61.753.924,1.068.271.528,https://maps.google.com/?cid=0x0:0x3d2ad6e1e0e9bcc8,
hotel,Perhentian bus,Stadiun Karet,"Kb. Melati, Kecamatan Tanah Abang, Kota Jakarta Pusat, Daerah Khusus Ibukota Jakarta","Kota Jakarta Pusat, Daerah Khusus Ibukota Jakarta",MALUKU,,Indonesia,,,,-62.008.419,1.068.159.048,https://maps.google.com/?cid=0x0:0x6b67090796653b2b,
hotel,hotel,Airy Eco Bandara Pattimura Leimena Ambon,"832X+CWG, Jl. Dr. J. Leimena, Laha, Kec. Tlk. Ambon, Kota Ambon, Maluku 97234","Jl. Dr. J. Leimena, Laha, Kec. Tlk. Ambon, Kota Ambon",MALUKU,97234.0,Indonesia,8041112479.0,,,-36.989.383,1.280.998.297,https://maps.google.com/?cid=0x0:0xc59e9db923a13d39,
hotel,Hotel,Hotel Maluku Transit/Restoran,"832X+9VR, Jl. Dr. J. Leimena, Tawiri, Kec. Tlk. Ambon, Kota Ambon, Maluku","Kota Ambon, Maluku",MALUKU,,Indonesia,,,,-36.990.163,1.280.996.364,https://maps.google.com/?cid=0x0:0xa68a7781870a4df,
hotel,hotel,Kec. Kepulauan Romang,"Kabupaten Maluku Barat Daya, Maluku","Kabupaten Maluku Barat Daya, Maluku",MALUKU,,Indonesia,,,,-75.913.438,1.273.710.665,https://maps.google.com/?cid=0x0:0xe9226fb89aebd4ca,
hotel,Hotel Resor,Kiou Beach,"V5W5+9J, Lekloor, Kec. Pulau-pulau Terselatan, Kabupaten Maluku Barat Daya, Maluku","Kabupaten Maluku Barat Daya, Maluku",MALUKU,,Indonesia,,,,-81.040.338,1.271.591.078,https://maps.google.com/?cid=0x0:0xf6b193cdc1dc7577,
hotel,Tujuan Wisata,Muidau Beach,"X4FX+CP, Lekloor, Kec. Pulau-pulau Terselatan, Kabupaten Maluku Barat Daya, Maluku","Kabupaten Maluku Barat Daya, Maluku",MALUKU,,Indonesia,,,,-80.264.259,1.271.492.637,https://maps.google.com/?cid=0x0:0xe7292d6a5660bd92,
restaurant,restaurant,Kec. Moa Lakor,"Kabupaten Maluku Barat Daya, Maluku","Kabupaten Maluku Barat Daya, Maluku",MALUKU,,Indonesia,,,,-81.550.646,1.277.912.166,https://maps.google.com/?cid=0x0:0xdad6338040993a27,
restaurant,Restoran,Kampung Burger - Maluku Tiakur,"Wakarleli, Kec. Moa Lakor, Kabupaten Maluku Barat Daya, Maluku 97544","Kec. Moa Lakor, Kabupaten Maluku Barat Daya",MALUKU,97544.0,Indonesia,81333398068.0,,,-81.515.577,1.277.917.806,https://maps.google.com/?cid=0x0:0xecabb0fd22f2f5d6,
restaurant,Rumah Makan,RM.MARCHEL,"RQRX+V39, Unnamed Road, Wakarleli, Kec. Moa Lakor, Kabupaten Maluku Barat Daya, Maluku","Kabupaten Maluku Barat Daya, Maluku",MALUKU,,Indonesia,85330852943.0,,,-81.578.297,1.277.977.277,https://maps.google.com/?cid=0x0:0xd699f10c0b1b38af,
restaurant,Restoran,RM RIZKISYIFA,"RRR2+Q7F, Unnamed Road, Wakarleli, Kec. Moa Lakor, Kabupaten Maluku Barat Daya, Maluku","Kabupaten Maluku Barat Daya, Maluku",MALUKU,,Indonesia,81337028035.0,,,-8.158.072,127.800.674,https://maps.google.com/?cid=0x0:0x68d0ee064c3dbec1,
restaurant,Rumah Makan,Rumah Makan Ija Cab Tiakur Moa,"RQVR+VHP, Wakarleli, Kec. Moa Lakor, Kabupaten Maluku Barat Daya, Maluku","Kabupaten Maluku Barat Daya, Maluku",MALUKU,,Indonesia,,,,-8.155.285,1.277.914.573,https://maps.google.com/?cid=0x0:0x49397650dd43e4d,
restaurant,Dapur Umum,RM. VINOLA BANYUWANGI,"RQRV+V32, Unnamed Road, Wakarleli, Kec. Moa Lakor, Kabupaten Maluku Barat Daya, Maluku","Kabupaten Maluku Barat Daya, Maluku",MALUKU,,Indonesia,,,,-81.578.558,1.277.926.453,https://maps.google.com/?cid=0x0:0x1f3327cb2197e99d,
restaurant,Brunch,Koli Kafe  Resto,"VQ2P+3PP, Unnamed Road, Wakarleli, Kec. Moa Lakor, Kabupaten Maluku Barat Daya, Maluku","Kabupaten Maluku Barat Daya, Maluku",MALUKU,,Indonesia,81240147300.0,,,-81.497.931,1.277.868.126,https://maps.google.com/?cid=0x0:0x6ddda75da48a5fbe,
restaurant,Restoran,Talino Food and Coffee,"Kaiwatu, Kec. Moa Lakor, Kabupaten Maluku Barat Daya, Maluku","Kabupaten Maluku Barat Daya, Maluku",MALUKU,,Indonesia,85222234182.0,,,-81.392.655,1.278.106.648,https://maps.google.com/?cid=0x0:0xdda000f9ad2e0a77,
restaurant,Bakso,Rm.Mama Agung Bakso89,"RQRX+VVP, Unnamed Road, Wakarleli, Kec. Moa Lakor, Kabupaten Maluku Barat Daya, Maluku","Kabupaten Maluku Barat Daya, Maluku",MALUKU,,Indonesia,,,,-81.577.803,1.277.997.063,https://maps.google.com/?cid=0x0:0x111bd0500be7f1be,
restaurant,Restoran,RM RATU GURIH,"VR54+VQ8, Kaiwatu, Kec. Moa Lakor, Kabupaten Maluku Barat Daya, Maluku","Kabupaten Maluku Barat Daya, Maluku",MALUKU,,Indonesia,,,,-81.403.437,1.278.069.561,https://maps.google.com/?cid=0x0:0xdbf257c9708aa465,
restaurant,Rumah Makan,Rumah makan Momsky,"VR53+CFP, Unnamed Road, Kaiwatu, Kec. Moa Lakor, Kabupaten Maluku Barat Daya, Maluku","Kabupaten Maluku Barat Daya, Maluku",MALUKU,,Indonesia,,,,-81.414.117,127.803.706,https://maps.google.com/?cid=0x0:0x9b84539a9ded5d06,
restaurant,Brunch,Fat Dragon Cafe,"RQWR+2FR, Wakarleli, Kec. Moa Lakor, Kabupaten Maluku Barat Daya, Maluku","Kabupaten Maluku Barat Daya, Maluku",MALUKU,,Indonesia,,,,-81.539.532,1.277.909.021,https://maps.google.com/?cid=0x0:0x4f1176c9977f98f2,
restaurant,Brunch,INA NARA,"Kaiwatu, Kec. Moa Lakor, Kabupaten Maluku Barat Daya, Maluku","Kabupaten Maluku Barat Daya, Maluku",MALUKU,,Indonesia,81344431939.0,,,-81.401.897,1.278.075.482,https://maps.google.com/?cid=0x0:0x89efe099ac4c31b2,
restaurant,Rumah Makan,Warung BUKIT Kasih,"RQWR+49W, Wakarleli, Kec. Moa Lakor, Kabupaten Maluku Barat Daya, Maluku","Kabupaten Maluku Barat Daya, Maluku",MALUKU,,Indonesia,,,,-81.546.712,1.277.906.574,https://maps.google.com/?cid=0x0:0x4cc8af0bed30341f,
restaurant,Restoran,RM SATRIA Banyuwangi,"RQRQ+VP6, Wakarleli, Kec. Moa Lakor, Kabupaten Maluku Barat Daya, Maluku","Kabupaten Maluku Barat Daya, Maluku",MALUKU,,Indonesia,81294471569.0,,,-8.157.843,1.277.892.579,https://maps.google.com/?cid=0x0:0xb4f78b403dfe4120,
restaurant,Restoran,Warung Putra Yekrili,"RQWR+49W, Wakarleli, Kec. Moa Lakor, Kabupaten Maluku Barat Daya, Maluku","Kabupaten Maluku Barat Daya, Maluku",MALUKU,,Indonesia,82192094144.0,,,-81.546.328,1.277.909.635,https://maps.google.com/?cid=0x0:0xc9e61e51a9181f22,
restaurant,Kedai Kopi,KoKo Donut  Coffee,"KOKO COFFEE DONUT  COFFEE, Wakarleli, Kec. Moa Lakor, Kabupaten Maluku Barat Daya, Maluku 97653","Wakarleli, Kec. Moa Lakor, Kabupaten Maluku Barat Daya",MALUKU,97653.0,Indonesia,81358879161.0,,,-81.538.196,1.277.909.062,https://maps.google.com/?cid=0x0:0x976a6db8f001bbf8,
restaurant,Restoran,jawara nasi kuning,"jalan puncak, Kaiwatu, Kec. Moa Lakor, moa, Maluku Utara","moa, Maluku Utara",MALUKU,,Indonesia,81226992922.0,,,-814.089,127.806.122,https://maps.google.com/?cid=0x0:0x34fc84a52c887d8,
restaurant,Dapur Umum,Dapur Orena,"RQVV+H59, Kaiwatu, Kec. Moa Lakor, Kabupaten Maluku Barat Daya, Maluku","Kabupaten Maluku Barat Daya, Maluku",MALUKU,,Indonesia,81238630993.0,,,-81.560.933,1.277.929.718,https://maps.google.com/?cid=0x0:0x709bcfd2a780071e,
restaurant,Brunch,Warung makan mas Naruto,"RQWR+2FR, Wakarleli, Kec. Moa Lakor, Kabupaten Maluku Barat Daya, Maluku","Kabupaten Maluku Barat Daya, Maluku",MALUKU,,Indonesia,,,,-81.548.949,1.277.911.301,https://maps.google.com/?cid=0x0:0x87f052c8bacce0bc,
restaurant,Restoran,Wailela Cafe and Resto | Ambon,"Jl. Kampus, Rumah Tiga, Kec. Tlk. Ambon, Kota Ambon, Maluku","Kota Ambon, Maluku",MALUKU,,Indonesia,82399522113.0,,,-36.610.624,128.180.609,https://maps.google.com/?cid=0x0:0x3acbc85ce4ef2d6d,
restaurant,restaurant,Maluku 97128,"Batu Merah, Kec. Sirimau, Kota Ambon, Maluku","Kota Ambon, Maluku",MALUKU,,Indonesia,,,,-36.827.473,1.281.907.702,https://maps.google.com/?cid=0x0:0x25ce4f908fabcf46,
restaurant,Restoran,Kampung Burger - Maluku Tiakur,"Wakarleli, Kec. Moa Lakor, Kabupaten Maluku Barat Daya, Maluku 97544","Kec. Moa Lakor, Kabupaten Maluku Barat Daya",MALUKU,97544.0,Indonesia,81333398068.0,,,-81.515.577,1.277.917.806,https://maps.google.com/?cid=0x0:0xecabb0fd22f2f5d6,
restaurant,restaurant,Damer,"Kabupaten Maluku Barat Daya, Maluku","Kabupaten Maluku Barat Daya, Maluku",MALUKU,,Indonesia,,,,-71.505.033,1.286.320.086,https://maps.google.com/?cid=0x0:0x628d9313140028f5,
restaurant,Hidangan Laut,Lateri Beach Restaurant,"Lateri, Kec. Baguala, Kota Ambon, Maluku","Kota Ambon, Maluku",MALUKU,,Indonesia,81240783897.0,,,-36.479.651,1.282.330.484,https://maps.google.com/?cid=0x0:0x17f2f5444327987a,
restaurant,restaurant,Rumah Makan JAWA TIMUR,"VR53+H4V, Kaiwatu, Kec. Moa Lakor, Kabupaten Maluku Barat Daya, Maluku","Kabupaten Maluku Barat Daya, Maluku",MALUKU,,Indonesia,,,,-81.410.002,1.278.027.977,https://maps.google.com/?cid=0x0:0x5a7cd289fd3272f,
restaurant,restaurant,Indi,"RQVQ+VVP, Unnamed Road, Wakarleli, Kec. Moa Lakor, Kabupaten Maluku Barat Daya, Maluku","Kabupaten Maluku Barat Daya, Maluku",MALUKU,,Indonesia,,,,-81.552.771,1.277.896.953,https://maps.google.com/?cid=0x0:0x77763724d3945a67,
restaurant,restaurant,RM.INDI,"RWFJ+J6G, Pulau Moa, Kec. Moa Lakor, Kabupaten Maluku Barat Daya, Maluku","Kabupaten Maluku Barat Daya, Maluku",MALUKU,,Indonesia,,,,-81.759.306,1.279.305.849,https://maps.google.com/?cid=0x0:0x44b5df3c79eed857,
restaurant,restaurant,DAPOER GALLERY,"VR3H+6F, Kaiwatu, Kec. Moa Lakor, Kabupaten Maluku Barat Daya, Maluku","Kabupaten Maluku Barat Daya, Maluku",MALUKU,,Indonesia,,,,-81.467.277,1.278.291.605,https://maps.google.com/?cid=0x0:0x3bb295e8b047bb39,
restaurant,restaurant,"McMinnville, Oregon 97128","McMinnville, Oregon, Amerika Serikat","McMinnville, Oregon, Amerika Serikat",MALUKU,,Indonesia,,,,451.835.082,-1.232.842.446,https://maps.google.com/?cid=0x0:0xc66e3d07627a5de8,
restaurant,Masakan Amerika Latin,La Rambla Restaurant  Social Room,"238 NE 3rd St, McMinnville, OR 97128, Amerika Serikat","McMinnville, OR",MALUKU,97128.0,Indonesia,15034352126.0,,,452.099.144,-1.231.970.889,https://maps.google.com/?cid=0x0:0xfc44080a25c9d5d7,
restaurant,Restoran Spanyol,Pura Vida Cocina,"313 NE 3rd St, McMinnville, OR 97128, Amerika Serikat","McMinnville, OR",MALUKU,97128.0,Indonesia,15036872020.0,,,452.101.428,-1.231.964.052,https://maps.google.com/?cid=0x0:0xf326bd79adbb4207,
restaurant,Kafe,The Diner,"2580 SE Stratus Ave, McMinnville, OR 97128, Amerika Serikat","McMinnville, OR",MALUKU,97128.0,Indonesia,19712612191.0,,,451.997.715,-1.231.669.588,https://maps.google.com/?cid=0x0:0xbd093453530a7a81,
restaurant,Restoran,Bistro Maison,"729 NE 3rd St, McMinnville, OR 97128, Amerika Serikat","McMinnville, OR",MALUKU,97128.0,Indonesia,15034741888.0,,,452.102.712,-1.231.914.662,https://maps.google.com/?cid=0x0:0xfca4cf2399c3a184,
restaurant,Restoran,Humble Spirit,"411 NE 3rd St, McMinnville, OR 97128, Amerika Serikat","McMinnville, OR",MALUKU,97128.0,Indonesia,15034726148.0,,,452.101.301,-1.231.953.514,https://maps.google.com/?cid=0x0:0x83eb72d221bab1e,
restaurant,Brewpub,Golden Valley Brewery And Restaurant,"980 NE 4th St, McMinnville, OR 97128, Amerika Serikat","McMinnville, OR",MALUKU,97128.0,Indonesia,15034722739.0,,,45.210.203,-1.231.890.125,https://maps.google.com/?cid=0x0:0xc55931ed21dcb45a,
restaurant,Restoran,Thistle,"228 NE Evans St, McMinnville, OR 97128, Amerika Serikat","McMinnville, OR",MALUKU,97128.0,Indonesia,15034729623.0,,,4.520.953,-123.194.251,https://maps.google.com/?cid=0x0:0xb3822396d7cef17e,
restaurant,Kafe,Crescent Cafe,"526 NE 3rd St, McMinnville, OR 97128, Amerika Serikat","McMinnville, OR",MALUKU,97128.0,Indonesia,15034352655.0,,,45.209.925,-1.231.938.639,https://maps.google.com/?cid=0x0:0xe8947f6117a6ab6f,
restaurant,Restoran,Hayward,"1140 NE Alpine Ave, McMinnville, OR 97128, Amerika Serikat","McMinnville, OR",MALUKU,97128.0,Indonesia,15036873605.0,,,452.152.541,-123.185.841,https://maps.google.com/?cid=0x0:0xe706b9c5619b2462,
restaurant,Kafe,WildWood Cafe,"319 NE Baker St, McMinnville, OR 97128, Amerika Serikat","McMinnville, OR",MALUKU,97128.0,Indonesia,15034351454.0,,,452.102.614,-1.231.981.346,https://maps.google.com/?cid=0x0:0x968dde17d9f79fea,
restaurant,Restoran Amerika,Pinch,"328 NE Evans St, McMinnville, OR 97128, Amerika Serikat","McMinnville, OR",MALUKU,97128.0,Indonesia,15037406394.0,,,452.103.716,-1.231.943.244,https://maps.google.com/?cid=0x0:0xfd6295210785a8c9,
restaurant,Italia,Nick's Italian Cafe,"521 NE 3rd St, McMinnville, OR 97128, Amerika Serikat","McMinnville, OR",MALUKU,97128.0,Indonesia,15034344471.0,,,45.210.202,-123.194.048,https://maps.google.com/?cid=0x0:0xc32b84323e663385,
restaurant,Restoran Amerika,Alpine Crossing and Kitchen,"920 NE 8th St, McMinnville, OR 97128, Amerika Serikat","McMinnville, OR",MALUKU,97128.0,Indonesia,15036872737.0,,,452.122.862,-123.188.855,https://maps.google.com/?cid=0x0:0xdb0c6f206ff02764,
restaurant,Restoran,Grain Station Brew Works,"4130, 755 NE Alpine Ave #200, McMinnville, OR 97128, Amerika Serikat","McMinnville, OR",MALUKU,97128.0,Indonesia,15036872739.0,,,45.212.723,-123.189.468,https://maps.google.com/?cid=0x0:0x63725bee589db53d,
restaurant,Rumah Makan,RM.MARCHEL,"RQRX+V39, Unnamed Road, Wakarleli, Kec. Moa Lakor, Kabupaten Maluku Barat Daya, Maluku","Kabupaten Maluku Barat Daya, Maluku",MALUKU,,Indonesia,85330852943.0,,,-81.578.297,1.277.977.277,https://maps.google.com/?cid=0x0:0xd699f10c0b1b38af,
restaurant,restaurant,Damer,"Kabupaten Maluku Barat Daya, Maluku","Kabupaten Maluku Barat Daya, Maluku",MALUKU,,Indonesia,,,,-71.505.033,1.286.320.086,https://maps.google.com/?cid=0x0:0x628d9313140028f5,
restaurant,restaurant,Rumah Makan JAWA TIMUR,"VR53+H4V, Kaiwatu, Kec. Moa Lakor, Kabupaten Maluku Barat Daya, Maluku","Kabupaten Maluku Barat Daya, Maluku",MALUKU,,Indonesia,,,,-81.410.002,1.278.027.977,https://maps.google.com/?cid=0x0:0x5a7cd289fd3272f,
restaurant,restaurant,RM.INDI,"RWFJ+J6G, Pulau Moa, Kec. Moa Lakor, Kabupaten Maluku Barat Daya, Maluku","Kabupaten Maluku Barat Daya, Maluku",MALUKU,,Indonesia,,,,-81.759.306,1.279.305.849,https://maps.google.com/?cid=0x0:0x44b5df3c79eed857,
restaurant,restaurant,Mdona Hiera,"Kabupaten Maluku Barat Daya, Maluku","Kabupaten Maluku Barat Daya, Maluku",MALUKU,,Indonesia,,,,-8.220.481,1.289.146.087,https://maps.google.com/?cid=0x0:0x25adcbfa64b076cc,
restaurant,Brunch,RUMAH MAKAN INA BAHEREN,"KOPRASI BARASEHE 6 ROLE, Labuang, Kec. Namrole, Kabupaten Buru Selatan, Maluku","Kabupaten Buru Selatan, Maluku",MALUKU,,Indonesia,,,,-38.392.149,1.267.360.258,https://maps.google.com/?cid=0x0:0xe61c8cf400a00650,
restaurant,Restoran,Rumah Makan A.N. Namrole.,"5P6Q+MQ4, Jl. Kabupaten, Labuang, Kec. Namrole, Kabupaten Buru Selatan, Maluku","Kabupaten Buru Selatan, Maluku",MALUKU,,Indonesia,82299717177.0,,,-3.838.374,126.739.464,https://maps.google.com/?cid=0x0:0xe9964e9d56424327,
restaurant,Brunch,Rumah Makan Ayah Namrole,"5P6P+6X8, Labuang, Kec. Namrole, Kabupaten Buru Selatan, Maluku","Kabupaten Buru Selatan, Maluku",MALUKU,,Indonesia,,,,-38.394.567,1.267.374.444,https://maps.google.com/?cid=0x0:0xb108b32ef765709,
restaurant,India,Babah Ramu Dine  Bar,"Jl. Gading Serpong Boulevard Barat Blok S 6 - 7, Gading, Kec. Serpong, Kabupaten Tangerang, Banten 15810","Gading, Kec. Serpong, Kabupaten Tangerang",MALUKU,15810.0,Indonesia,87739521212.0,,,-62.562.522,106.620.383,https://maps.google.com/?cid=0x0:0xa90a6752af84b12e,
restaurant,Restoran,Hyeongje Cafe  Resto,"Teras Kota Mall G18-4 Jl. Pahlawan Seribu Lot VIIB, Lengkong Gudang, BSD City, Kota Tangerang Selatan, Banten 13522","Lengkong Gudang, BSD City, Kota Tangerang Selatan",MALUKU,13522.0,Indonesia,81297261118.0,,,-62.955.169,106.666.951,https://maps.google.com/?cid=0x0:0xf9f034b0d5445e8,
restaurant,Timur Tengah,Hadramiah Restaurant Arabic  Indonesian Food,"Block AP, Jl. Bintaro Utama 3 No 52, Bintaro Jaya, Pondok Aren, South Tangerang City, Banten 15221","Jl. Bintaro Utama 3 No 52, Bintaro Jaya, Pondok Aren, South Tangerang City",MALUKU,15221.0,Indonesia,2173670922.0,,,-62.733.241,1.067.456.226,https://maps.google.com/?cid=0x0:0x480ecd571da7d63f,
restaurant,Restoran,DiDESA selera Nusantara,"Jl. Pd. Kacang No.14A, RT.001/RW.004, Pd. Kacang Bar., Kec. Pd. Aren, Kota Tangerang Selatan, Banten 15226","RT.001/RW.004, Pd. Kacang Bar., Kec. Pd. Aren, Kota Tangerang Selatan",MALUKU,15226.0,Indonesia,82249028905.0,,,-62.585.886,1.066.911.886,https://maps.google.com/?cid=0x0:0x5a2d5d458a30f6b,
restaurant,Restoran,Tien Chao,"Jl. H. R. Rasuna Said No.Kav X, RW.0, Kuningan Tim., Kecamatan Setiabudi, Kota Jakarta Selatan, Daerah Khusus Ibukota Jakarta 12950","RW.0, Kuningan Tim., Kecamatan Setiabudi, Kota Jakarta Selatan",MALUKU,12950.0,Indonesia,215268080.0,,,-62.351.758,1.068.299.901,https://maps.google.com/?cid=0x0:0x5bb9de5708ac98ec,
restaurant,Restoran,Hadramiah Restaurant Arabic  Indonesian Food,"Jl. Pahlawan Revolusi No.32, Klender, Kec. Duren Sawit, Jakarta, Daerah Khusus Ibukota Jakarta 13470","Klender, Kec. Duren Sawit, Jakarta",MALUKU,13470.0,Indonesia,81288088005.0,,,-62.210.006,1.068.996.314,https://maps.google.com/?cid=0x0:0x2c9c81fa9282cdcc,
restaurant,Bistro,Two Stories Resto  Lounge,"Blk. E, Jl. Alam Sutera Boulevard Bulevard No.2, Pakulonan, Kec. Serpong Utara, Kota Tangerang Selatan, Banten 15325","Jl. Alam Sutera Boulevard Bulevard No.2, Pakulonan, Kec. Serpong Utara, Kota Tangerang Selatan",MALUKU,15325.0,Indonesia,,,,-62.411.014,1.066.536.831,https://maps.google.com/?cid=0x0:0x6f8c819dd599f57b,
restaurant,Restoran makanan pedesaan,Arooma Asian Bistro,"Jl. Jenderal Sudirman No.1, Cihuni, Kec. Pagedangan, Kabupaten Tangerang, Banten","Kabupaten Tangerang, Banten",MALUKU,,Indonesia,,,,-62.701.193,1.066.306.246,https://maps.google.com/?cid=0x0:0xe27daf157133bbcd,
restaurant,Timur Tengah,Hadramiah Restaurant Arabic  Indonesian Food,"Jalan Pramuka 64, Jl. Pramuka No.64A, RT.6/RW.5, North Utan Kayu, Matraman, East Jakarta City, Jakarta 13410","Jl. Pramuka No.64A, RT.6/RW.5, North Utan Kayu, Matraman, East Jakarta City",MALUKU,13410.0,Indonesia,2185910881.0,,,-61.931.678,1.068.648.241,https://maps.google.com/?cid=0x0:0xee4557c44ba7046d,
restaurant,China,One Oriental Restaurant,"Jl. Gading Serpong Boulevard No.12 Kav. S, Kecamatan Gading, Kec. Serpong, Kabupaten Tangerang, Banten 15821","Kecamatan Gading, Kec. Serpong, Kabupaten Tangerang",MALUKU,15821.0,Indonesia,82211115320.0,,,-62.581.681,106.619.393,https://maps.google.com/?cid=0x0:0x353b89ee8a3fab9b,
restaurant,Italia,"The Leaf Restaurant @The Quantis Clubhouse, BSD City","The Quantis Club Eminent, Jl. Majorie Ave No.1 Blok K, Pagedangan, Kec. Pagedangan, BSD City, Banten 15339","Jl. Majorie Ave No.1 Blok K, Pagedangan, Kec. Pagedangan, BSD City",MALUKU,15339.0,Indonesia,81181188899.0,,,-62.934.436,1.066.334.131,https://maps.google.com/?cid=0x0:0xacd97b235c0a34d0,
restaurant,Restoran,Royal Eight Chinese Dining,"Gading Serpong, Jhl Solitaire, Jl. Gading Serpong Boulevard, Curug Sangereng, Kec. Klp. Dua, Kabupaten Tangerang, Banten 15810","Jhl Solitaire, Jl. Gading Serpong Boulevard, Curug Sangereng, Kec. Klp. Dua, Kabupaten Tangerang",MALUKU,15810.0,Indonesia,2139503013.0,,,-62.554.705,1.066.205.026,https://maps.google.com/?cid=0x0:0xd85b8eadfa3ea2ee,
restaurant,Restoran,JejuDon Korean BBQ House - @Saumata Alam Sutera,"Saumata Apartment, Jl. Alam Utama No.Kav.12-16 Lt. 1, Pakualam, Kec. Pinang, Kota Tangerang, Banten 15143","Jl. Alam Utama No.Kav.12-16 Lt. 1, Pakualam, Kec. Pinang, Kota Tangerang",MALUKU,15143.0,Indonesia,2140201156.0,,,-62.298.616,1.066.544.828,https://maps.google.com/?cid=0x0:0xcbb40d9cfdbe4023,
restaurant,Restoran,Patatas X Fish-A-Boo,"PJ45+2GP, Cicalengka, Kec. Pagedangan, Kabupaten Tangerang, Banten","Kabupaten Tangerang, Banten",MALUKU,,Indonesia,,,,-62.943.371,1.066.085.781,https://maps.google.com/?cid=0x0:0xd7fb4816210b296e,
restaurant,Korea,Noodle King,"Lotte Shopping Avenue, Kuningan, Jl. Prof. DR. Satrio No.3-5 Lantai 3, RT.18/RW.4, Kuningan, Kota Jakarta Selatan, Daerah Khusus Ibukota Jakarta 12940","Kuningan, Jl. Prof. DR. Satrio No.3-5 Lantai 3, RT.18/RW.4, Kuningan, Kota Jakarta Selatan",MALUKU,12940.0,Indonesia,2129889289.0,,,-62.248.566,1.068.235.703,https://maps.google.com/?cid=0x0:0x7eba414689876efe,
restaurant,Kafe,Formaggio Coffee and Resto,"Jl. Nyimas Melati No.A2, RT.002/RW.001, Sukarasa, Kec. Tangerang, Kota Tangerang, Banten 15111","RT.002/RW.001, Sukarasa, Kec. Tangerang, Kota Tangerang",MALUKU,15111.0,Indonesia,2155783238.0,,,-61.722.692,1.066.326.204,https://maps.google.com/?cid=0x0:0xbd431e82103b0401,
restaurant,Restoran,KamiKita Cafe  Eatery,"Jl. Haji Rasam No 96B Parigi Baru, Bintaro, Kec. Pd. Aren, Banten 15229","Bintaro, Kec. Pd. Aren",MALUKU,15229.0,Indonesia,,,,-62.680.781,1.066.875.116,https://maps.google.com/?cid=0x0:0xf9cd82b88267b86b,
restaurant,restaurant,Kepulauan Babar,"Nakarhamto, Kec. Pulau-Pulau Babar Timur, Kabupaten Maluku Barat Daya, Maluku","Kabupaten Maluku Barat Daya, Maluku",MALUKU,,Indonesia,,,,-78.333.333,129.75,https://maps.google.com/?cid=0x0:0x139304fe972d4953,
restaurant,Rumah Makan,Penginapan  Rumah Makan Tina Yaury,"4HGV+WH8, Tepa, Kec. Pulau-Pulau Babar, Kabupaten Maluku Barat Daya, Maluku","Kabupaten Maluku Barat Daya, Maluku",MALUKU,,Indonesia,8124843153.0,,,-7.872.716,1.295.939.588,https://maps.google.com/?cid=0x0:0x753baf7184425bf,
restaurant,restaurant,Rily anugrah,"Kroing, Kec. Pulau-Pulau Babar Timur, Kabupaten Maluku Barat Daya, Maluku 97465","Kec. Pulau-Pulau Babar Timur, Kabupaten Maluku Barat Daya",MALUKU,97465.0,Indonesia,82249104051.0,,,-78.913.521,1.298.062.173,https://maps.google.com/?cid=0x0:0x2109618f481f1856,
restaurant,restaurant,Kec. Pulau-Pulau Babar Timur,"Kabupaten Maluku Barat Daya, Maluku","Kabupaten Maluku Barat Daya, Maluku",MALUKU,,Indonesia,,,,-79.029.614,1.298.648.243,https://maps.google.com/?cid=0x0:0x713e9d3f1d587e11,
restaurant,restaurant,Rily anugrah,"Kroing, Kec. Pulau-Pulau Babar Timur, Kabupaten Maluku Barat Daya, Maluku 97465","Kec. Pulau-Pulau Babar Timur, Kabupaten Maluku Barat Daya",MALUKU,97465.0,Indonesia,82249104051.0,,,-78.913.521,1.298.062.173,https://maps.google.com/?cid=0x0:0x2109618f481f1856,
restaurant,Kedai Kopi,Babah Koffie by Kawisari,"Jl. Kali Besar Barat No.28, RT.7/RW.3, Roa Malaka, Kec. Tambora, Kota Jakarta Barat, Daerah Khusus Ibukota Jakarta 11230","RT.7/RW.3, Roa Malaka, Kec. Tambora, Kota Jakarta Barat",MALUKU,11230.0,Indonesia,8118711248.0,,,-61.346.673,1.068.110.363,https://maps.google.com/?cid=0x0:0xdcdb6a4b78a3f03c,
restaurant,Rumah Makan,Penginapan  Rumah Makan Tina Yaury,"4HGV+WH8, Tepa, Kec. Pulau-Pulau Babar, Kabupaten Maluku Barat Daya, Maluku","Kabupaten Maluku Barat Daya, Maluku",MALUKU,,Indonesia,8124843153.0,,,-7.872.716,1.295.939.588,https://maps.google.com/?cid=0x0:0x753baf7184425bf,
restaurant,Dapur Umum,Dapur Babah Elite,"4, Jl. Veteran I No.18-19, RT.4/RW.2, Gambir, Kecamatan Gambir, Kota Jakarta Pusat, Daerah Khusus Ibukota Jakarta 10110","Jl. Veteran I No.18-19, RT.4/RW.2, Gambir, Kecamatan Gambir, Kota Jakarta Pusat",MALUKU,10110.0,Indonesia,85100602256.0,,,-61.700.234,1.068.298.797,https://maps.google.com/?cid=0x0:0xbb8109f0025675bc,
restaurant,Hidangan Laut,Lateri Beach Restaurant,"Lateri, Kec. Baguala, Kota Ambon, Maluku","Kota Ambon, Maluku",MALUKU,,Indonesia,81240783897.0,,,-36.479.651,1.282.330.484,https://maps.google.com/?cid=0x0:0x17f2f5444327987a,
restaurant,Hidangan Laut,Rumah Makan (RM) Dua Ikan,"Jl. Wolter Monginsidi No.1, Lateri, Kec. Baguala, Kota Ambon, Maluku","Kota Ambon, Maluku",MALUKU,,Indonesia,911322177.0,,,-36.444.703,1.282.343.221,https://maps.google.com/?cid=0x0:0x19106e6da0f19195,
restaurant,Hidangan Laut,Restaurant Sari Gurih Beach,"963M+565, Lateri, Kec. Baguala, Kota Ambon, Maluku","Kota Ambon, Maluku",MALUKU,,Indonesia,8119798598.0,,,-36.471.037,1.282.330.997,https://maps.google.com/?cid=0x0:0x56400b7db74be6ae,
restaurant,Restoran,88 Seafood Restaurant,"954V+J9Q, Jl. Y. Syaranamual, Poka, Kec. Tlk. Ambon, Kota Ambon, Maluku","Kota Ambon, Maluku",MALUKU,,Indonesia,81244017203.0,,,-3.643.413,1.281.934.707,https://maps.google.com/?cid=0x0:0xe0e80a6465ae7fa5,
restaurant,restaurant,Cafe Ikan Bakar Colocolo Om Alex,"8842+RX4, Uhak, Pp. Wetar, Kabupaten Maluku Barat Daya, Maluku","Kabupaten Maluku Barat Daya, Maluku",MALUKU,,Indonesia,,,,-7.692.984,1.263.024.615,https://maps.google.com/?cid=0x0:0x97846ddfa1ff2d78,
restaurant,restaurant,Pulau Wetar,"Kabupaten Maluku Barat Daya, Maluku","Kabupaten Maluku Barat Daya, Maluku",MALUKU,,Indonesia,,,,-77.851.588,1.263.498.097,https://maps.google.com/?cid=0x0:0x501150d5e877187,
restaurant,restaurant,Kayu Putih Sosial Klub - Wetar Copper Mine,"Copper Mine Project, Wetar Barat, Maluku",Maluku,MALUKU,,Indonesia,,,,-76.923.768,1.262.927.184,https://maps.google.com/?cid=0x0:0x690ba040c9e2e6f5,
restaurant,Rumah Makan,Warung Mas Eko,"W5J7+CP9, Wonreli, Kec. Pulau-pulau Terselatan, Kabupaten Maluku Barat Daya, Maluku","Kabupaten Maluku Barat Daya, Maluku",MALUKU,,Indonesia,,,,-80.685.975,1.271.647.638,https://maps.google.com/?cid=0x0:0xf513d155e6285cb6,
restaurant,restaurant,Kec. Pulau-pulau Terselatan,"Kabupaten Maluku Barat Daya, Maluku","Kabupaten Maluku Barat Daya, Maluku",MALUKU,,Indonesia,,,,-80.702.814,1.271.638.207,https://maps.google.com/?cid=0x0:0x3668501476639829,
restaurant,restaurant,Gorengan molen  terang bulan,"W5H7+RG7, Unnamed Road, Wonreli, Kec. Pulau-pulau Terselatan, Kabupaten Maluku Barat Daya, Maluku","Kabupaten Maluku Barat Daya, Maluku",MALUKU,,Indonesia,,,,-80.704.615,1.271.638.107,https://maps.google.com/?cid=0x0:0x8c70cb217ada66cc,
restaurant,Indonesia,Warung NTT,"W5J7+CP9, Wonreli, Kec. Pulau-pulau Terselatan, Kabupaten Maluku Barat Daya, Maluku","Kabupaten Maluku Barat Daya, Maluku",MALUKU,,Indonesia,,,,-80.684.762,1.271.653.138,https://maps.google.com/?cid=0x0:0xd568e2be5a209464,
restaurant,restaurant,Gorengan Lamongan,"W5J8+XJ8, Wonreli, Kec. Pulau-pulau Terselatan, Kabupaten Maluku Barat Daya, Maluku","Kabupaten Maluku Barat Daya, Maluku",MALUKU,,Indonesia,,,,-80.682.018,1.271.654.889,https://maps.google.com/?cid=0x0:0xffe1e91b670c3014,
restaurant,Indonesia,Rumah Makan PATBERS,"W5G6+JPM, Nomaha, Kec. Pulau-pulau Terselatan, Kabupaten Maluku Barat Daya, Maluku","Kabupaten Maluku Barat Daya, Maluku",MALUKU,,Indonesia,,,,-80.734.197,1.271.618.058,https://maps.google.com/?cid=0x0:0xb08de50a9647c202,
restaurant,Hidangan Laut,Lateri Beach Restaurant,"Lateri, Kec. Baguala, Kota Ambon, Maluku","Kota Ambon, Maluku",MALUKU,,Indonesia,81240783897.0,,,-36.479.651,1.282.330.484,https://maps.google.com/?cid=0x0:0x17f2f5444327987a,
restaurant,restaurant,Kec. Pulau Letti,"Kabupaten Maluku Barat Daya, Maluku","Kabupaten Maluku Barat Daya, Maluku",MALUKU,,Indonesia,,,,-81.581.088,1.276.809.231,https://maps.google.com/?cid=0x0:0xa5d93595e880f516,
restaurant,Restoran,88 Seafood Restaurant,"954V+J9Q, Jl. Y. Syaranamual, Poka, Kec. Tlk. Ambon, Kota Ambon, Maluku","Kota Ambon, Maluku",MALUKU,,Indonesia,81244017203.0,,,-3.643.413,1.281.934.707,https://maps.google.com/?cid=0x0:0xe0e80a6465ae7fa5,
restaurant,Hidangan Laut,Rumah Makan (RM) Dua Ikan,"Jl. Wolter Monginsidi No.1, Lateri, Kec. Baguala, Kota Ambon, Maluku","Kota Ambon, Maluku",MALUKU,,Indonesia,911322177.0,,,-36.444.703,1.282.343.221,https://maps.google.com/?cid=0x0:0x19106e6da0f19195,
restaurant,restaurant,Pulau Leti,"Luhulely, Kec. Pulau Letti, Kabupaten Maluku Barat Daya, Maluku","Kabupaten Maluku Barat Daya, Maluku",MALUKU,,Indonesia,,,,-8.2,1.276.833.333,https://maps.google.com/?cid=0x0:0xcaaf5b19de612073,
restaurant,restaurant,Kec. Pulau Masela,"Kabupaten Maluku Barat Daya, Maluku","Kabupaten Maluku Barat Daya, Maluku",MALUKU,,Indonesia,,,,-81.584.174,1.298.704.314,https://maps.google.com/?cid=0x0:0xc4846e8cd1083f5c,
restaurant,restaurant,Pelangi Nusantara Cafe  Resto,"Jl.Poros Dusun Uiwily, blok A, Serili, Kec. Pulau Masela, Kabupaten Maluku Barat Daya, Maluku","Kabupaten Maluku Barat Daya, Maluku",MALUKU,,Indonesia,81248011456.0,,,-81.353.357,129.858.776,https://maps.google.com/?cid=0x0:0xd793695cd67194ee,
restaurant,Komplek perumahan,RM Kel. Enos wakole,"VV5R+P64, Latalola Kecil, Kec. Pulau Masela, Kabupaten Maluku Barat Daya, Maluku","Kabupaten Maluku Barat Daya, Maluku",MALUKU,,Indonesia,,,,-8.140.131,129.890.345,https://maps.google.com/?cid=0x0:0xa0489b3f47936c8f,
restaurant,Kantor Perusahaan,Pantai Lamlely Watuwei,"62RP+JMH, Watuwey, Dawelor Dawera, Kabupaten Maluku Barat Daya, Maluku","Kabupaten Maluku Barat Daya, Maluku",MALUKU,,Indonesia,,,,-77.584.361,1.300.367.358,https://maps.google.com/?cid=0x0:0xf9e2a658a9fdc9e8,
restaurant,Kantor Perusahaan,Kec Watuwei Dawelor,"62RQ+MJP, Jl.AIs, Watuwey, Kec. Pulau-Pulau Babar Timur, Maluku Barat Daya Regency, Maluku","Kabupaten Maluku Barat Daya, Maluku",MALUKU,,Indonesia,852447019.0,,,-77.582.957,1.300.390.841,https://maps.google.com/?cid=0x0:0xf9b3f34f520827ea,
restaurant,Ayam,La Moda,"Jl. M.H. Thamrin No.28 ?30, Gondangdia, Kec. Menteng, Kota Jakarta Pusat, Daerah Khusus Ibukota Jakarta 10350","Gondangdia, Kec. Menteng, Kota Jakarta Pusat",MALUKU,10350.0,Indonesia,2129921298.0,,,-61.934.336,1.068.215.327,https://maps.google.com/?cid=0x0:0x8803ba5cf055378,
restaurant,restaurant,Pulau Wetan,"Kec. Pulau Wetang, Kabupaten Maluku Barat Daya, Maluku","Kabupaten Maluku Barat Daya, Maluku",MALUKU,,Indonesia,,,,-7.903.052,1.295.381.684,https://maps.google.com/?cid=0x0:0x78aa175343bb0b64,
restaurant,restaurant,Maluku,,Maluku,MALUKU,,Indonesia,,,,-32.384.616,1.301.452.734,https://maps.google.com/?cid=0x0:0x5e30e8db04649a51,
restaurant,restaurant,Kec. Pulau Lakor,"Kabupaten Maluku Barat Daya, Maluku","Kabupaten Maluku Barat Daya, Maluku",MALUKU,,Indonesia,,,,-82.210.132,1.282.223.532,https://maps.google.com/?cid=0x0:0x753bbbe0b8b3d34a,
restaurant,Restoran,Wailela Cafe and Resto | Ambon,"Jl. Kampus, Rumah Tiga, Kec. Tlk. Ambon, Kota Ambon, Maluku","Kota Ambon, Maluku",MALUKU,,Indonesia,82399522113.0,,,-36.610.624,128.180.609,https://maps.google.com/?cid=0x0:0x3acbc85ce4ef2d6d,
restaurant,Hidangan Laut,Lateri Beach Restaurant,"Lateri, Kec. Baguala, Kota Ambon, Maluku","Kota Ambon, Maluku",MALUKU,,Indonesia,81240783897.0,,,-36.479.651,1.282.330.484,https://maps.google.com/?cid=0x0:0x17f2f5444327987a,
restaurant,Hidangan Laut,Restaurant Sari Gurih Beach,"963M+565, Lateri, Kec. Baguala, Kota Ambon, Maluku","Kota Ambon, Maluku",MALUKU,,Indonesia,8119798598.0,,,-36.471.037,1.282.330.997,https://maps.google.com/?cid=0x0:0x56400b7db74be6ae,
restaurant,Restoran,Sari Gurih Restaurant,"853J+639, Jl. Anthony Rebok, Kel Honipopu, Kec. Sirimau, Kota Ambon, Maluku 97127","Jl. Anthony Rebok, Kel Honipopu, Kec. Sirimau, Kota Ambon",MALUKU,97127.0,Indonesia,911341888.0,,,-36.969.553,1.281.802.475,https://maps.google.com/?cid=0x0:0x275f6b1eabec66d9,
restaurant,Indonesia,OLina caferesto,"97H4+2QG, Passo, Kec. Baguala, Kota Ambon, Maluku","Kota Ambon, Maluku",MALUKU,,Indonesia,82199231798.0,,,-36.225.066,1.282.574.029,https://maps.google.com/?cid=0x0:0xb19ebc731e4d5590,
restaurant,Hidangan Laut,Rumah Makan Apong Wayame Ambon,"85M8+QWV, Wayame, Kec. Tlk. Ambon, Kota Ambon, Maluku","Kota Ambon, Maluku",MALUKU,,Indonesia,81248190849.0,,,-36.655.121,1.281.673.018,https://maps.google.com/?cid=0x0:0x6ed6b36e06e5de48,
restaurant,Hidangan Laut,Rumah Makan Ratu Gurih,"Jl. Diponegoro No.26, Kel Ahusen, Kec. Sirimau, Kota Ambon, Maluku","Kota Ambon, Maluku",MALUKU,,Indonesia,911341202.0,,,-36.996.863,1.281.811.859,https://maps.google.com/?cid=0x0:0x6d46a58903276417,
restaurant,Kafe,INFINITY CAFE  EATERY,"85CV+M7G, Pandan Kasturi, Kec. Sirimau, Kota Ambon, Maluku","Kota Ambon, Maluku",MALUKU,,Indonesia,81241568878.0,,,-36.783.317,1.281.931.931,https://maps.google.com/?cid=0x0:0x619ec9a16acc810f,
restaurant,Hidangan Laut,Cili Padi Restaurant,"Said Perintah No.52, Kel Honipopu, Kec. Sirimau, Kota Ambon, Maluku","Kota Ambon, Maluku",MALUKU,,Indonesia,911348736.0,,,-36.977.926,1.281.806.173,https://maps.google.com/?cid=0x0:0x4da49f6c344ede1a,
restaurant,Restoran,Kafe Gloria,"8PWP+GVF, Langgur, Kec. Kei Kecil, Kabupaten Maluku Tenggara, Maluku","Kabupaten Maluku Tenggara, Maluku",MALUKU,,Indonesia,,,,-56.536.782,1.327.371.868,https://maps.google.com/?cid=0x0:0x343bba23c89005a3,
restaurant,restaurant,,,,MALUKU,,Indonesia,,,,,,https://maps.google.com/?cid=0x0:0x35e7e74d6d2279bcu0026onu003dLat+Lat+Anggur+Lautu0026midu003d/g/11c5j6rqxd,
restaurant,Kafe,Forganza Resto  Cafe,"Kelanit, Kec. Kei Kecil, Kabupaten Maluku Tenggara, Maluku","Kabupaten Maluku Tenggara, Maluku",MALUKU,,Indonesia,82231789845.0,,,-56.575.049,1.327.029.619,https://maps.google.com/?cid=0x0:0x35e7e74d6d2279bc,
restaurant,restaurant,Mami Ata's Sopi Signature Baverage co.,"Uhak, Kec. Wetar Utara, Kabupaten Maluku Barat Daya, Maluku 97653","Kec. Wetar Utara, Kabupaten Maluku Barat Daya",MALUKU,97653.0,Indonesia,81218501334.0,,,-76.798.106,1.263.401.646,https://maps.google.com/?cid=0x0:0xbc3597f295ded517,
restaurant,restaurant,Kec. Wetar Utara,"Kabupaten Maluku Barat Daya, Maluku","Kabupaten Maluku Barat Daya, Maluku",MALUKU,,Indonesia,,,,-76.814.948,1.263.382.789,https://maps.google.com/?cid=0x0:0x9da6a46338da1c9a,
restaurant,restaurant,Warung Indomie Telur P. Choirin cs,"874V+HW2, Unnamed Road, Uhak, Pp. Wetar, Kabupaten Maluku Barat Daya, Maluku","Kabupaten Maluku Barat Daya, Maluku",MALUKU,,Indonesia,,,,-76.936.196,1.262.947.646,https://maps.google.com/?cid=0x0:0xa02eae7579d06315,
restaurant,restaurant,Kali koreng family,"874J+83, Lurang, Kec. Wetar Utara, Kabupaten Maluku Barat Daya, Maluku","Kabupaten Maluku Barat Daya, Maluku",MALUKU,,Indonesia,,,,-76.942.451,1.262.802.409,https://maps.google.com/?cid=0x0:0x74206c7ddbee6146,
restaurant,restaurant,Kec. Wetar Barat,"Kabupaten Maluku Barat Daya, Maluku","Kabupaten Maluku Barat Daya, Maluku",MALUKU,,Indonesia,,,,-80.144.036,1.257.627.423,https://maps.google.com/?cid=0x0:0x1b539445f25c7d62,
restaurant,Restoran,Wailela Cafe and Resto | Ambon,"Jl. Kampus, Rumah Tiga, Kec. Tlk. Ambon, Kota Ambon, Maluku","Kota Ambon, Maluku",MALUKU,,Indonesia,82399522113.0,,,-36.610.624,128.180.609,https://maps.google.com/?cid=0x0:0x3acbc85ce4ef2d6d,
restaurant,restaurant,Moluccas Restaurant,"Jl. Natsepa No.36, Suli, Kec. Salahutu, Kabupaten Maluku Tengah, Maluku 97582","Suli, Kec. Salahutu, Kabupaten Maluku Tengah",MALUKU,97582.0,Indonesia,,,,-36.228.916,1.282.856.889,https://maps.google.com/?cid=0x0:0xb337eb8a08cdf9c7,
restaurant,Hidangan Laut,Lateri Beach Restaurant,"Lateri, Kec. Baguala, Kota Ambon, Maluku","Kota Ambon, Maluku",MALUKU,,Indonesia,81240783897.0,,,-36.479.651,1.282.330.484,https://maps.google.com/?cid=0x0:0x17f2f5444327987a,
restaurant,Restoran,88 Seafood Restaurant,"954V+J9Q, Jl. Y. Syaranamual, Poka, Kec. Tlk. Ambon, Kota Ambon, Maluku","Kota Ambon, Maluku",MALUKU,,Indonesia,81244017203.0,,,-3.643.413,1.281.934.707,https://maps.google.com/?cid=0x0:0xe0e80a6465ae7fa5,
restaurant,Ikan Bakar,Walang Resto,"85RX+6R8, Unnamed Road, Poka, Kec. Tlk. Ambon, Kota Ambon, Maluku","Kota Ambon, Maluku",MALUKU,,Indonesia,82248472693.0,,,-365.947,1.281.995.628,https://maps.google.com/?cid=0x0:0x67c2a9c152347aff,
restaurant,Hidangan Laut,Rumah Makan Apong Wayame Ambon,"85M8+QWV, Wayame, Kec. Tlk. Ambon, Kota Ambon, Maluku","Kota Ambon, Maluku",MALUKU,,Indonesia,81248190849.0,,,-36.655.121,1.281.673.018,https://maps.google.com/?cid=0x0:0x6ed6b36e06e5de48,
restaurant,Hidangan Laut,Rumah Makan Ratu Gurih,"Jl. Diponegoro No.26, Kel Ahusen, Kec. Sirimau, Kota Ambon, Maluku","Kota Ambon, Maluku",MALUKU,,Indonesia,911341202.0,,,-36.996.863,1.281.811.859,https://maps.google.com/?cid=0x0:0x6d46a58903276417,
restaurant,Hidangan Laut,Cili Padi Restaurant,"Said Perintah No.52, Kel Honipopu, Kec. Sirimau, Kota Ambon, Maluku","Kota Ambon, Maluku",MALUKU,,Indonesia,911348736.0,,,-36.977.926,1.281.806.173,https://maps.google.com/?cid=0x0:0x4da49f6c344ede1a,
restaurant,Betawi,Dapur Fizzul - Rumah Makan Khas Maluku Jakarta No.1 Halal di Dunia,"Food Court Depan Grha Essi, Jl. Raya Ceger No.5, RT.5/RW.1, Ceger, Kec. Cipayung, Kota Jakarta Timur, Daerah Khusus Ibukota Jakarta 13820","Jl. Raya Ceger No.5, RT.5/RW.1, Ceger, Kec. Cipayung, Kota Jakarta Timur",MALUKU,13820.0,Indonesia,82131529069.0,,,-6.307.207,1.068.886.462,https://maps.google.com/?cid=0x0:0xb39e6e8a1a4f4d03,
restaurant,Ikan Bakar,MARTHAFONS WALANG,"86R2+628, Poka, Kec. Tlk. Ambon, Maluku",Maluku,MALUKU,,Indonesia,81343205555.0,,,-3.659.465,1.282.000.875,https://maps.google.com/?cid=0x0:0xe5c8c8951ea638fa,
restaurant,Dapur Umum,OTW Food Street,"Jl. Raya Klp. Kopyor No.1 Blok BA 2, RT.2/RW.9, Klp. Gading Tim., Kec. Klp. Gading, Jkt Utara, Daerah Khusus Ibukota Jakarta 14240","RT.2/RW.9, Klp. Gading Tim., Kec. Klp. Gading, Jkt Utara",MALUKU,14240.0,Indonesia,85716292142.0,,,-61.702.327,1.069.035.364,https://maps.google.com/?cid=0x0:0xfc71c6a981b9c901,
restaurant,Kafe,FAT TIGER,"Jl. Joglo Raya No.70, RT.6/RW.2, Joglo, Kec. Kembangan, Kota Jakarta Barat, Daerah Khusus Ibukota Jakarta 11640","RT.6/RW.2, Joglo, Kec. Kembangan, Kota Jakarta Barat",MALUKU,11640.0,Indonesia,81270067317.0,,,-62.227.265,1.067.209.204,https://maps.google.com/?cid=0x0:0x175a693995bece3e,
restaurant,Restoran,Wailela Cafe and Resto | Ambon,"Jl. Kampus, Rumah Tiga, Kec. Tlk. Ambon, Kota Ambon, Maluku","Kota Ambon, Maluku",MALUKU,,Indonesia,82399522113.0,,,-36.610.624,128.180.609,https://maps.google.com/?cid=0x0:0x3acbc85ce4ef2d6d,
restaurant,Kedai Kopi,Teluk Ambon Beach Caffe  Resto,"Jl. Ir. M. Putuhena, Rumah Tiga, Kec. Tlk. Ambon, Kota Ambon, Maluku 97234","Rumah Tiga, Kec. Tlk. Ambon, Kota Ambon",MALUKU,97234.0,Indonesia,81291113638.0,,,-366.059,1.281.807.995,https://maps.google.com/?cid=0x0:0x3928b9d1107473af,
restaurant,restaurant,Maluku,,Maluku,MALUKU,,Indonesia,,,,-32.384.616,1.301.452.734,https://maps.google.com/?cid=0x0:0x5e30e8db04649a51,
restaurant,Hidangan Laut,Lateri Beach Restaurant,"Lateri, Kec. Baguala, Kota Ambon, Maluku","Kota Ambon, Maluku",MALUKU,,Indonesia,81240783897.0,,,-36.479.651,1.282.330.484,https://maps.google.com/?cid=0x0:0x17f2f5444327987a,
restaurant,Hidangan Laut,Restaurant Sari Gurih Beach,"963M+565, Lateri, Kec. Baguala, Kota Ambon, Maluku","Kota Ambon, Maluku",MALUKU,,Indonesia,8119798598.0,,,-36.471.037,1.282.330.997,https://maps.google.com/?cid=0x0:0x56400b7db74be6ae,
restaurant,Restoran,Sari Gurih Restaurant,"853J+639, Jl. Anthony Rebok, Kel Honipopu, Kec. Sirimau, Kota Ambon, Maluku 97127","Jl. Anthony Rebok, Kel Honipopu, Kec. Sirimau, Kota Ambon",MALUKU,97127.0,Indonesia,911341888.0,,,-36.969.553,1.281.802.475,https://maps.google.com/?cid=0x0:0x275f6b1eabec66d9,
restaurant,Restoran,Waroeng Gurih,"962M+F6G, Lateri, Kec. Baguala, Kota Ambon, Maluku","Kota Ambon, Maluku",MALUKU,,Indonesia,,,,-36.488.274,1.282.330.371,https://maps.google.com/?cid=0x0:0xeb50c569753fe505,
restaurant,Hidangan Laut,Istana Berkat,"852J+878, Jl. Diponegoro, Kel Ahusen, Kec. Sirimau, Kota Ambon, Maluku","Kota Ambon, Maluku",MALUKU,,Indonesia,911355899.0,,,-36.992,1.281.806.895,https://maps.google.com/?cid=0x0:0x33d905559f0c0858,
restaurant,Ikan Bakar,RM Sari Rasa,"Jl. Anthony Rebok No.19, RT.1/RW.5, Kel Honipopu, Kec. Sirimau, Kota Ambon, Maluku","Kota Ambon, Maluku",MALUKU,,Indonesia,81344294796.0,,,-36.961.776,1.281.808.195,https://maps.google.com/?cid=0x0:0x952ebc7df22da762,
restaurant,Hidangan Laut,Cili Padi Restaurant,"Said Perintah No.52, Kel Honipopu, Kec. Sirimau, Kota Ambon, Maluku","Kota Ambon, Maluku",MALUKU,,Indonesia,911348736.0,,,-36.977.926,1.281.806.173,https://maps.google.com/?cid=0x0:0x4da49f6c344ede1a,
restaurant,Sulawesi Selatan,Coto Anda,"853H+HG6, Kel Honipopu, Kec. Sirimau, Kota Ambon, Maluku","Kota Ambon, Maluku",MALUKU,,Indonesia,81344718214.0,,,-36.960.767,1.281.787.592,https://maps.google.com/?cid=0x0:0x6234e428c503c241,
restaurant,Jepang,Ta wan - Maluku City Mall,"Jl. Jenderal Sudirman No.1 Lt. UG, Hative Kecil, Tantui - Ambon, Kota Ambon, Maluku 97128","Hative Kecil, Tantui - Ambon, Kota Ambon",MALUKU,97128.0,Indonesia,,,,-36.722.194,1.281.981.035,https://maps.google.com/?cid=0x0:0x3ccda67bed1be027,
restaurant,Restoran,The View,"Jl. Pitu Ina, Kel Amantelu, Kec. Sirimau, Kota Ambon, Maluku 97122","Kel Amantelu, Kec. Sirimau, Kota Ambon",MALUKU,97122.0,Indonesia,8112953900.0,,,-36.888.255,1.281.914.246,https://maps.google.com/?cid=0x0:0xf98a5ee1213b35b0,
restaurant,Betawi,Dapur Fizzul - Rumah Makan Khas Maluku Jakarta No.1 Halal di Dunia,"Food Court Depan Grha Essi, Jl. Raya Ceger No.5, RT.5/RW.1, Ceger, Kec. Cipayung, Kota Jakarta Timur, Daerah Khusus Ibukota Jakarta 13820","Jl. Raya Ceger No.5, RT.5/RW.1, Ceger, Kec. Cipayung, Kota Jakarta Timur",MALUKU,13820.0,Indonesia,82131529069.0,,,-6.307.207,1.068.886.462,https://maps.google.com/?cid=0x0:0xb39e6e8a1a4f4d03,
restaurant,Rumah Makan,Dapoer Almaasz,"Jl. Kelapa No.17, RT.5/RW.2, Ceger, Kec. Cipayung, Kota Jakarta Timur, Daerah Khusus Ibukota Jakarta 13820","RT.5/RW.2, Ceger, Kec. Cipayung, Kota Jakarta Timur",MALUKU,13820.0,Indonesia,,,,-63.104.883,1.068.904.197,https://maps.google.com/?cid=0x0:0xf8fac86c3d9adcb0,
restaurant,Restoran,Markas Foodcourt Pusat Kuliner,"MVMR+CQP, RT.5/RW.3, Ceger, Kec. Cipayung, Kota Jakarta Timur, Daerah Khusus Ibukota Jakarta 13820","RT.5/RW.3, Ceger, Kec. Cipayung, Kota Jakarta Timur",MALUKU,13820.0,Indonesia,81286064048.0,,,-63.164.127,1.068.919.666,https://maps.google.com/?cid=0x0:0xed51600e5d024fa9,
restaurant,Soto,Rumah Makan Betawi Hj. Dahlia,"Jalan Raya Hankam No.28 RT.1/RW.2 Bambu Apus, RT.1/RW.2, Ceger, Kec. Cipayung, Kota Jakarta Timur, Daerah Khusus Ibukota Jakarta 13820","RT.1/RW.2, Ceger, Kec. Cipayung, Kota Jakarta Timur",MALUKU,13820.0,Indonesia,82344455579.0,,,-63.048.759,1.068.872.261,https://maps.google.com/?cid=0x0:0x47572f8d80dc021b,
restaurant,restaurant,,,,MALUKU,,Indonesia,,,,,,https://maps.google.com/?cid=0x0:0xb39e6e8a1a4f4d03u0026onu003dPapeda+Beserta+Ikan+Masak+Kuningu0026midu003d/g/11l2zyx1f4,
restaurant,Hidangan Laut,Lateri Beach Restaurant,"Lateri, Kec. Baguala, Kota Ambon, Maluku","Kota Ambon, Maluku",MALUKU,,Indonesia,81240783897.0,,,-36.479.651,1.282.330.484,https://maps.google.com/?cid=0x0:0x17f2f5444327987a,
restaurant,Hidangan Laut,Rumah Makan (RM) Dua Ikan,"Jl. Wolter Monginsidi No.1, Lateri, Kec. Baguala, Kota Ambon, Maluku","Kota Ambon, Maluku",MALUKU,,Indonesia,911322177.0,,,-36.444.703,1.282.343.221,https://maps.google.com/?cid=0x0:0x19106e6da0f19195,
restaurant,Hidangan Laut,Restaurant Sari Gurih Beach,"963M+565, Lateri, Kec. Baguala, Kota Ambon, Maluku","Kota Ambon, Maluku",MALUKU,,Indonesia,8119798598.0,,,-36.471.037,1.282.330.997,https://maps.google.com/?cid=0x0:0x56400b7db74be6ae,
restaurant,restaurant,Kisar Utara,"Kabupaten Maluku Barat Daya, Maluku","Kabupaten Maluku Barat Daya, Maluku",MALUKU,,Indonesia,,,,-80.292.578,127.168.746,https://maps.google.com/?cid=0x0:0x28782aba3b9982ea,
restaurant,Hidangan Laut,SMORGAN Resto,"PXJV+JGQ, Jl. Pemerintahan, depan KODIM, Halut, Mkcm, Tobelo, North Halmahera Regency, North Maluku","Kabupaten Halmahera Utara, Maluku Utara",MALUKU,,Indonesia,85201115150.0,,,17.315.784,1.279.938.588,https://maps.google.com/?cid=0x0:0xd45d6fcd651f0c5c,
restaurant,restaurant,Walang Bambu Batu,"Lekloor, Kabupaten Maluku Barat Daya, Maluku","Kabupaten Maluku Barat Daya, Maluku",MALUKU,,Indonesia,82111372744.0,,,-8.061.153,1.271.727.069,https://maps.google.com/?cid=0x0:0xf5e16abcd1510337,
cafe,cafe,Kec. Moa Lakor,"Kabupaten Maluku Barat Daya, Maluku","Kabupaten Maluku Barat Daya, Maluku",MALUKU,,Indonesia,,,,-81.550.646,1.277.912.166,https://maps.google.com/?cid=0x0:0xdad6338040993a27,
cafe,Kedai Kopi,KoKo Donut  Coffee,"KOKO COFFEE DONUT  COFFEE, Wakarleli, Kec. Moa Lakor, Kabupaten Maluku Barat Daya, Maluku 97653","Wakarleli, Kec. Moa Lakor, Kabupaten Maluku Barat Daya",MALUKU,97653.0,Indonesia,81358879161.0,,,-81.538.196,1.277.909.062,https://maps.google.com/?cid=0x0:0x976a6db8f001bbf8,
cafe,Brunch,Fat Dragon Cafe,"RQWR+2FR, Wakarleli, Kec. Moa Lakor, Kabupaten Maluku Barat Daya, Maluku","Kabupaten Maluku Barat Daya, Maluku",MALUKU,,Indonesia,,,,-81.539.532,1.277.909.021,https://maps.google.com/?cid=0x0:0x4f1176c9977f98f2,
cafe,Restoran,Talino Food and Coffee,"Kaiwatu, Kec. Moa Lakor, Kabupaten Maluku Barat Daya, Maluku","Kabupaten Maluku Barat Daya, Maluku",MALUKU,,Indonesia,85222234182.0,,,-81.392.655,1.278.106.648,https://maps.google.com/?cid=0x0:0xdda000f9ad2e0a77,
cafe,Brunch,Koli Kafe  Resto,"VQ2P+3PP, Unnamed Road, Wakarleli, Kec. Moa Lakor, Kabupaten Maluku Barat Daya, Maluku","Kabupaten Maluku Barat Daya, Maluku",MALUKU,,Indonesia,81240147300.0,,,-81.497.931,1.277.868.126,https://maps.google.com/?cid=0x0:0x6ddda75da48a5fbe,
cafe,Restoran,Kampung Burger - Maluku Tiakur,"Wakarleli, Kec. Moa Lakor, Kabupaten Maluku Barat Daya, Maluku 97544","Kec. Moa Lakor, Kabupaten Maluku Barat Daya",MALUKU,97544.0,Indonesia,81333398068.0,,,-81.515.577,1.277.917.806,https://maps.google.com/?cid=0x0:0xecabb0fd22f2f5d6,
cafe,Kedai Kopi,Builder Coffee,"RQQQ+RJV, Wakarleli, Kec. Moa Lakor, Kabupaten Maluku Barat Daya, Maluku","Kabupaten Maluku Barat Daya, Maluku",MALUKU,,Indonesia,81234174757.0,,,-81.605.946,1.277.890.366,https://maps.google.com/?cid=0x0:0x7a6ee51e52d0fbe4,
cafe,Kafe,AL Cafe,"Tiakur Puncak, Maluku 97654","Kabupaten Maluku Barat Daya, Maluku",MALUKU,,Indonesia,82197603787.0,,,-81.408.056,1.278.040.376,https://maps.google.com/?cid=0x0:0xc9b242917fcce9ee,
cafe,Brunch,Cafe hero,"VR77+FR9, Kaiwatu, Kec. Moa Lakor, Kabupaten Maluku Barat Daya, Maluku","Kabupaten Maluku Barat Daya, Maluku",MALUKU,,Indonesia,,,,-8.135.379,127.814.149,https://maps.google.com/?cid=0x0:0x7923de4a474842cf,
cafe,Rumah Makan,Rumah Makan Ija Cab Tiakur Moa,"RQVR+VHP, Wakarleli, Kec. Moa Lakor, Kabupaten Maluku Barat Daya, Maluku","Kabupaten Maluku Barat Daya, Maluku",MALUKU,,Indonesia,,,,-8.155.285,1.277.914.573,https://maps.google.com/?cid=0x0:0x49397650dd43e4d,
cafe,Dapur Umum,RM. VINOLA BANYUWANGI,"RQRV+V32, Unnamed Road, Wakarleli, Kec. Moa Lakor, Kabupaten Maluku Barat Daya, Maluku","Kabupaten Maluku Barat Daya, Maluku",MALUKU,,Indonesia,,,,-81.578.558,1.277.926.453,https://maps.google.com/?cid=0x0:0x1f3327cb2197e99d,
cafe,Rumah Makan,RM.MARCHEL,"RQRX+V39, Unnamed Road, Wakarleli, Kec. Moa Lakor, Kabupaten Maluku Barat Daya, Maluku","Kabupaten Maluku Barat Daya, Maluku",MALUKU,,Indonesia,85330852943.0,,,-81.578.297,1.277.977.277,https://maps.google.com/?cid=0x0:0xd699f10c0b1b38af,
cafe,Bar Kopi Espresso,The Star Cafe,"RQMQ+5HH, Wakarleli, Kec. Moa Lakor, Kabupaten Maluku Barat Daya, Maluku","Kabupaten Maluku Barat Daya, Maluku",MALUKU,,Indonesia,81234542090.0,,,-81.670.592,1.277.889.958,https://maps.google.com/?cid=0x0:0xd8bfd067c1c4317c,
cafe,Dapur Umum,RM Mba Emi,"Kaiwatu, Kec. Moa Lakor, Kabupaten Maluku Barat Daya, Maluku","Kabupaten Maluku Barat Daya, Maluku",MALUKU,,Indonesia,81249955497.0,,,-81.410.002,1.278.027.967,https://maps.google.com/?cid=0x0:0xc92886e3313b604f,
cafe,Restoran,RM RIZKISYIFA,"RRR2+Q7F, Unnamed Road, Wakarleli, Kec. Moa Lakor, Kabupaten Maluku Barat Daya, Maluku","Kabupaten Maluku Barat Daya, Maluku",MALUKU,,Indonesia,81337028035.0,,,-8.158.072,127.800.674,https://maps.google.com/?cid=0x0:0x68d0ee064c3dbec1,
cafe,Restoran,RM RATU GURIH,"VR54+VQ8, Kaiwatu, Kec. Moa Lakor, Kabupaten Maluku Barat Daya, Maluku","Kabupaten Maluku Barat Daya, Maluku",MALUKU,,Indonesia,,,,-81.403.437,1.278.069.561,https://maps.google.com/?cid=0x0:0xdbf257c9708aa465,
cafe,Rumah Makan,Warung BUKIT Kasih,"RQWR+49W, Wakarleli, Kec. Moa Lakor, Kabupaten Maluku Barat Daya, Maluku","Kabupaten Maluku Barat Daya, Maluku",MALUKU,,Indonesia,,,,-81.546.712,1.277.906.574,https://maps.google.com/?cid=0x0:0x4cc8af0bed30341f,
cafe,Bakso,Rm.Mama Agung Bakso89,"RQRX+VVP, Unnamed Road, Wakarleli, Kec. Moa Lakor, Kabupaten Maluku Barat Daya, Maluku","Kabupaten Maluku Barat Daya, Maluku",MALUKU,,Indonesia,,,,-81.577.803,1.277.997.063,https://maps.google.com/?cid=0x0:0x111bd0500be7f1be,
cafe,Kafe,Angkringan Sedap Malam tiakur,"Puncak, Kabupaten Maluku Barat Daya, Maluku","Kabupaten Maluku Barat Daya, Maluku",MALUKU,,Indonesia,81314673357.0,,,-8.140.762,1.278.067.458,https://maps.google.com/?cid=0x0:0xc802bf19b21ae07b,
cafe,Restoran,Warung Putra Yekrili,"RQWR+49W, Wakarleli, Kec. Moa Lakor, Kabupaten Maluku Barat Daya, Maluku","Kabupaten Maluku Barat Daya, Maluku",MALUKU,,Indonesia,82192094144.0,,,-81.546.328,1.277.909.635,https://maps.google.com/?cid=0x0:0xc9e61e51a9181f22,
cafe,Restoran,RM SATRIA Banyuwangi,"RQRQ+VP6, Wakarleli, Kec. Moa Lakor, Kabupaten Maluku Barat Daya, Maluku","Kabupaten Maluku Barat Daya, Maluku",MALUKU,,Indonesia,81294471569.0,,,-8.157.843,1.277.892.579,https://maps.google.com/?cid=0x0:0xb4f78b403dfe4120,
cafe,cafe,Maluku 97128,"Batu Merah, Kec. Sirimau, Kota Ambon, Maluku","Kota Ambon, Maluku",MALUKU,,Indonesia,,,,-36.827.473,1.281.907.702,https://maps.google.com/?cid=0x0:0x25ce4f908fabcf46,
cafe,Brunch,Fat Dragon Cafe,"RQWR+2FR, Wakarleli, Kec. Moa Lakor, Kabupaten Maluku Barat Daya, Maluku","Kabupaten Maluku Barat Daya, Maluku",MALUKU,,Indonesia,,,,-81.539.532,1.277.909.021,https://maps.google.com/?cid=0x0:0x4f1176c9977f98f2,
cafe,Restoran,Wailela Cafe and Resto | Ambon,"Jl. Kampus, Rumah Tiga, Kec. Tlk. Ambon, Kota Ambon, Maluku","Kota Ambon, Maluku",MALUKU,,Indonesia,82399522113.0,,,-36.610.624,128.180.609,https://maps.google.com/?cid=0x0:0x3acbc85ce4ef2d6d,
cafe,Kedai Kopi,KoKo Donut  Coffee,"KOKO COFFEE DONUT  COFFEE, Wakarleli, Kec. Moa Lakor, Kabupaten Maluku Barat Daya, Maluku 97653","Wakarleli, Kec. Moa Lakor, Kabupaten Maluku Barat Daya",MALUKU,97653.0,Indonesia,81358879161.0,,,-81.538.196,1.277.909.062,https://maps.google.com/?cid=0x0:0x976a6db8f001bbf8,
cafe,Brunch,INA NARA,"Kaiwatu, Kec. Moa Lakor, Kabupaten Maluku Barat Daya, Maluku","Kabupaten Maluku Barat Daya, Maluku",MALUKU,,Indonesia,81344431939.0,,,-81.401.897,1.278.075.482,https://maps.google.com/?cid=0x0:0x89efe099ac4c31b2,
cafe,Kafe,INFINITY CAFE  EATERY,"85CV+M7G, Pandan Kasturi, Kec. Sirimau, Kota Ambon, Maluku","Kota Ambon, Maluku",MALUKU,,Indonesia,81241568878.0,,,-36.783.317,1.281.931.931,https://maps.google.com/?cid=0x0:0x619ec9a16acc810f,
cafe,Kedai Kopi,Builder Coffee,"RQQQ+RJV, Wakarleli, Kec. Moa Lakor, Kabupaten Maluku Barat Daya, Maluku","Kabupaten Maluku Barat Daya, Maluku",MALUKU,,Indonesia,81234174757.0,,,-81.605.946,1.277.890.366,https://maps.google.com/?cid=0x0:0x7a6ee51e52d0fbe4,
cafe,Bar Kopi Espresso,The Star Cafe,"RQMQ+5HH, Wakarleli, Kec. Moa Lakor, Kabupaten Maluku Barat Daya, Maluku","Kabupaten Maluku Barat Daya, Maluku",MALUKU,,Indonesia,81234542090.0,,,-81.670.592,1.277.889.958,https://maps.google.com/?cid=0x0:0xd8bfd067c1c4317c,
cafe,Restoran,Talino Food and Coffee,"Kaiwatu, Kec. Moa Lakor, Kabupaten Maluku Barat Daya, Maluku","Kabupaten Maluku Barat Daya, Maluku",MALUKU,,Indonesia,85222234182.0,,,-81.392.655,1.278.106.648,https://maps.google.com/?cid=0x0:0xdda000f9ad2e0a77,
cafe,Indonesia,VOILA DESSERT  EATERY,"Jl. Jend. A Yani, Kel Batu Meja, Kec. Sirimau, Kota Ambon, Maluku 97125","Kel Batu Meja, Kec. Sirimau, Kota Ambon",MALUKU,97125.0,Indonesia,82229911005.0,,,-369.803,128.185.768,https://maps.google.com/?cid=0x0:0x263c84f16d8e6461,
cafe,Kafe,KOPI TRADISI JOAS,"jl, Said Perintah No.40, Kel Ahusen, Kec. Sirimau, Kota Ambon, Maluku","Kota Ambon, Maluku",MALUKU,,Indonesia,911341518.0,,,-36.973.402,1.281.812.427,https://maps.google.com/?cid=0x0:0xf858153270a25ae0,
cafe,Brunch,Koli Kafe  Resto,"VQ2P+3PP, Unnamed Road, Wakarleli, Kec. Moa Lakor, Kabupaten Maluku Barat Daya, Maluku","Kabupaten Maluku Barat Daya, Maluku",MALUKU,,Indonesia,81240147300.0,,,-81.497.931,1.277.868.126,https://maps.google.com/?cid=0x0:0x6ddda75da48a5fbe,
cafe,Kafe,Angkringan Sedap Malam tiakur,"Puncak, Kabupaten Maluku Barat Daya, Maluku","Kabupaten Maluku Barat Daya, Maluku",MALUKU,,Indonesia,81314673357.0,,,-8.140.762,1.278.067.458,https://maps.google.com/?cid=0x0:0xc802bf19b21ae07b,
cafe,Kedai Kopi,Rumah Kopi Sibu Sibu,"852J+V96, Said Perintah, Kel Ahusen, Kec. Sirimau, Kota Ambon, Maluku","Kota Ambon, Maluku",MALUKU,,Indonesia,,,,-36.978.326,1.281.808.936,https://maps.google.com/?cid=0x0:0x7ea4fc8102835ef2,
cafe,Restoran,Kampung Burger - Maluku Tiakur,"Wakarleli, Kec. Moa Lakor, Kabupaten Maluku Barat Daya, Maluku 97544","Kec. Moa Lakor, Kabupaten Maluku Barat Daya",MALUKU,97544.0,Indonesia,81333398068.0,,,-81.515.577,1.277.917.806,https://maps.google.com/?cid=0x0:0xecabb0fd22f2f5d6,
cafe,Kafe,Forganza Resto  Cafe,"Kelanit, Kec. Kei Kecil, Kabupaten Maluku Tenggara, Maluku","Kabupaten Maluku Tenggara, Maluku",MALUKU,,Indonesia,82231789845.0,,,-56.575.049,1.327.029.619,https://maps.google.com/?cid=0x0:0x35e7e74d6d2279bc,
cafe,Brunch,Cafe hero,"VR77+FR9, Kaiwatu, Kec. Moa Lakor, Kabupaten Maluku Barat Daya, Maluku","Kabupaten Maluku Barat Daya, Maluku",MALUKU,,Indonesia,,,,-8.135.379,127.814.149,https://maps.google.com/?cid=0x0:0x7923de4a474842cf,
cafe,Kafe,Dahan Mas Cafe  Resto,"Jl. Cengkeh Afo No.3, Maliaro, Kec. Ternate Tengah, Kota Ternate, Maluku Utara 97711","Maliaro, Kec. Ternate Tengah, Kota Ternate",MALUKU,97711.0,Indonesia,81349825758.0,,,0.7868815,1.273.782.323,https://maps.google.com/?cid=0x0:0x46bb2a4f219d9d78,
cafe,Kafe,AL Cafe,"Tiakur Puncak, Maluku 97654","Kabupaten Maluku Barat Daya, Maluku",MALUKU,,Indonesia,82197603787.0,,,-81.408.056,1.278.040.376,https://maps.google.com/?cid=0x0:0xc9b242917fcce9ee,
cafe,Kafe,Four Palms Cafe,"Jl. Raja, Halong, Baru Atas, Kota Ambon, Maluku","Kota Ambon, Maluku",MALUKU,,Indonesia,811470599.0,,,-36.551.658,1.282.342.334,https://maps.google.com/?cid=0x0:0x3116d9e359ad016b,
cafe,cafe,"McMinnville, Oregon 97128","McMinnville, Oregon, Amerika Serikat","McMinnville, Oregon, Amerika Serikat",MALUKU,,Indonesia,,,,451.835.082,-1.232.842.446,https://maps.google.com/?cid=0x0:0xc66e3d07627a5de8,
cafe,cafe,Best Western McMinnville Inn,"2035 OR-99W, McMinnville, OR 97128, Amerika Serikat","McMinnville, OR",MALUKU,97128.0,Indonesia,15034724900.0,,,45.193.537,-1.232.109.149,https://maps.google.com/?cid=0x0:0x57e0e41650d16acf,
cafe,cafe,Damer,"Kabupaten Maluku Barat Daya, Maluku","Kabupaten Maluku Barat Daya, Maluku",MALUKU,,Indonesia,,,,-71.505.033,1.286.320.086,https://maps.google.com/?cid=0x0:0x628d9313140028f5,
cafe,cafe,Dapur Jajan 82,"VRQ8+478, Kaiwatu, Kec. Moa Lakor, Kabupaten Maluku Barat Daya, Maluku","Kabupaten Maluku Barat Daya, Maluku",MALUKU,,Indonesia,,,,-81.122.039,1.278.157.124,https://maps.google.com/?cid=0x0:0xdbc008cd956c5e46,
cafe,Kafe,Cafe Dar,"Canadian Broadway CBA, Jl, Jambu, Limus Nunggal, Kec. Cileungsi, Kabupaten Bogor, Jawa Barat 16820","Jl, Jambu, Limus Nunggal, Kec. Cileungsi, Kabupaten Bogor",MALUKU,16820.0,Indonesia,,,,-63.657.017,1.069.647.763,https://maps.google.com/?cid=0x0:0x4e4508d3b9cefdde,
cafe,Kafe,D Cafe Jakarta tanah tinggi,"VR4H+4PG, RT.11/RW.1, Mangga Dua Sel., Kecamatan Sawah Besar, Kota Jakarta Pusat, Daerah Khusus Ibukota Jakarta 10730","RT.11/RW.1, Mangga Dua Sel., Kecamatan Sawah Besar, Kota Jakarta Pusat",MALUKU,10730.0,Indonesia,81564670257.0,,,-61.446.881,1.068.293.334,https://maps.google.com/?cid=0x0:0x4ad50ad52a7d7d08,
cafe,Kedai Kopi,DAVEDANG,"seberang sekolah AL MUDDATSIRIYAH, Jl. Bend. Jago Jl. Taruna Raya No.8A 5, RT.5/RW.5, Serdang, Kec. Kemayoran, Kota Jakarta Pusat, Daerah Khusus Ibukota Jakarta 10650","Jl. Bend. Jago Jl. Taruna Raya No.8A 5, RT.5/RW.5, Serdang, Kec. Kemayoran, Kota Jakarta Pusat",MALUKU,10650.0,Indonesia,81387587466.0,,,-61.620.966,1.068.583.668,https://maps.google.com/?cid=0x0:0xe32da6be049ebb39,
cafe,Kafe,Cafe Nadhem,"Gg. Spoor IV Dalam No.4, RT.4/RW.4, Gn. Sahari Sel., Kec. Kemayoran, Kota Jakarta Pusat, Daerah Khusus Ibukota Jakarta 10610","RT.4/RW.4, Gn. Sahari Sel., Kec. Kemayoran, Kota Jakarta Pusat",MALUKU,10610.0,Indonesia,85298235718.0,,,-6.159.811,1.068.428.387,https://maps.google.com/?cid=0x0:0x4d907940b543bd35,
cafe,Kafe,D' Cafe,"Jl. Asia Afrika No.1 Lt. Dasar, RT.1/RW.3, Gelora, Kecamatan Tanah Abang, Kota Jakarta Pusat, Daerah Khusus Ibukota Jakarta 10270","RT.1/RW.3, Gelora, Kecamatan Tanah Abang, Kota Jakarta Pusat",MALUKU,10270.0,Indonesia,2157936050.0,,,-62.285.441,1.067.984.372,https://maps.google.com/?cid=0x0:0xc0d0b7769d7c1aec,
cafe,Kedai Kopi,Den coffee,"Jl. Kebayoran Baru No.66A, RT.1/RW.2, Kby. Lama Utara, Kec. Kby. Lama, Kota Jakarta Selatan, Daerah Khusus Ibukota Jakarta 12230","RT.1/RW.2, Kby. Lama Utara, Kec. Kby. Lama, Kota Jakarta Selatan",MALUKU,12230.0,Indonesia,85691560599.0,,,-62.395.176,1.067.841.242,https://maps.google.com/?cid=0x0:0x40c40c9d3d2fbc7,
cafe,Kedai Kopi,The Newsroom by MANUAL,"COMO Park, Jl. Kemang Timur No.998, RT.1/RW.3, Bangka, Kec. Mampang Prpt., Kota Jakarta Selatan, Daerah Khusus Ibukota Jakarta 12730","Jl. Kemang Timur No.998, RT.1/RW.3, Bangka, Kec. Mampang Prpt., Kota Jakarta Selatan",MALUKU,12730.0,Indonesia,81396996932.0,,,-62.724.514,1.068.212.128,https://maps.google.com/?cid=0x0:0x6e70a4b7d0bae293,
cafe,Kedai Kopi,Mosslife Coffee - Taman Literasi,"Taman Literasi Martha Christina Tiahahu, Jl. Sisingamangaraja Unit D1, Melawai, Kec. Kby. Baru, Kota Jakarta Selatan, Daerah Khusus Ibukota Jakarta 12160","Jl. Sisingamangaraja Unit D1, Melawai, Kec. Kby. Baru, Kota Jakarta Selatan",MALUKU,12160.0,Indonesia,81399047472.0,,,-6.243.269,1.067.983.685,https://maps.google.com/?cid=0x0:0x218ac94f5e22db66,
cafe,Kedai Kopi,Cafe Terdekat,"Jl. Masjid Cidodol Gg. H, Gg. Sairi No.1A, RT.5/RW.12, Kby. Lama Utara, Kec. Kby. Lama, Kota Jakarta Selatan, Daerah Khusus Ibukota Jakarta 12210","Gg. Sairi No.1A, RT.5/RW.12, Kby. Lama Utara, Kec. Kby. Lama, Kota Jakarta Selatan",MALUKU,12210.0,Indonesia,,,,-62.329.159,1.067.658.547,https://maps.google.com/?cid=0x0:0x61a9eadcb0128636,
cafe,Kedai Kopi,Damar Cafe,"Pantai utara pulau jawa, Larangan, Munjung Agung, Kramat, Tegal Regency, Central Java 52181","Larangan, Munjung Agung, Kramat, Tegal Regency",MALUKU,52181.0,Indonesia,8157722127.0,,,-68.594.995,1.091.877.649,https://maps.google.com/?cid=0x0:0x1eb65ba2a8b577db,
cafe,Donat,Dobel Donut,"Jl. Bina Marga No.21, RT.5/RW.5, Ceger, Kec. Cipayung, Kota Jakarta Timur, Daerah Khusus Ibukota Jakarta 13820","RT.5/RW.5, Ceger, Kec. Cipayung, Kota Jakarta Timur",MALUKU,13820.0,Indonesia,87708779633.0,,,-63.173.133,1.068.911.211,https://maps.google.com/?cid=0x0:0x8b023fd4536b41c3,
cafe,Kafe,D Cafe,"Jl. Pedurenan Masjid III No.27, RT.11/RW.4, Kuningan, Karet Kuningan, Kecamatan Setiabudi, Kota Jakarta Selatan, Daerah Khusus Ibukota Jakarta 12940","RT.11/RW.4, Kuningan, Karet Kuningan, Kecamatan Setiabudi, Kota Jakarta Selatan",MALUKU,12940.0,Indonesia,2157935521.0,,,-62.235.347,1.068.257.681,https://maps.google.com/?cid=0x0:0x6e85ef9f924c40cd,
cafe,Kafe,Raissa Cafe Coffee Shop,"Ampera, Kec. Kota Masohi, Kabupaten Maluku Tengah, Maluku","Kabupaten Maluku Tengah, Maluku",MALUKU,,Indonesia,82267449997.0,,,-32.983.879,1.289.534.337,https://maps.google.com/?cid=0x0:0x97ea712c74e38a2a,
cafe,Kafe,Raissa 2,"Jl. Binaya No.RT. 12, Namaelo, Kec. Kota Masohi, Kabupaten Maluku Tengah, Maluku","Kabupaten Maluku Tengah, Maluku",MALUKU,,Indonesia,,,,-33.006.679,1.289.593.689,https://maps.google.com/?cid=0x0:0x130f3d6bedbd345a,
cafe,Area Wi-Fi,Wifi Voucheran 4R,"RPJ2+58W, Luang Tim., Mdona Hiera, Kabupaten Maluku Barat Daya, Maluku 97652","Luang Tim., Mdona Hiera, Kabupaten Maluku Barat Daya",MALUKU,97652.0,Indonesia,82199034485.0,,,-81.695.042,1.287.008.378,https://maps.google.com/?cid=0x0:0x2cfee7a03182445c,
cafe,Kafe,Masagi Koffee @Batubata,"Jl. Cilenggang 2 No.6, Cilenggang, Kec. Serpong, Kota Tangerang Selatan, Banten 15310","Cilenggang, Kec. Serpong, Kota Tangerang Selatan",MALUKU,15310.0,Indonesia,82295298511.0,,,-6.304.247,1.066.662.279,https://maps.google.com/?cid=0x0:0x339c056dd7a145b6,
cafe,Kedai Kopi,Lynea Coffee and Eatery,"BSD City, Ruko Barcelona Blok E9/10, Rawa Mekar Jaya, Serpong Sub-District, South Tangerang City, Banten 15310","Ruko Barcelona Blok E9/10, Rawa Mekar Jaya, Serpong Sub-District, South Tangerang City",MALUKU,15310.0,Indonesia,85939277828.0,,,-63.013.789,106.684.313,https://maps.google.com/?cid=0x0:0x8b77514de1459285,
cafe,Kedai Kopi,HIHO Cafe,"Jl. Raya pagedangan Kp. Cicayur II No.153, Cicalengka, Kec. Pagedangan, Kabupaten Tangerang, Banten 15336","Cicalengka, Kec. Pagedangan, Kabupaten Tangerang",MALUKU,15336.0,Indonesia,85811224495.0,,,-62.941.429,1.066.157.413,https://maps.google.com/?cid=0x0:0xaefbef5af151158a,
cafe,Kedai Kopi,Setara Coffee  Eatery,"Jl. Pusaka Kencana Jl. Bayu Kencana No.12 Blok A1, Loka, BSD City, Kota Tangerang Selatan, Banten 15310","Loka, BSD City, Kota Tangerang Selatan",MALUKU,15310.0,Indonesia,85694265838.0,,,-6.312.161,1.066.816.031,https://maps.google.com/?cid=0x0:0x499adffcf2f56537,
cafe,Kedai Kopi,El Primero Cafe,"Jl. Raya pagedangan Kp. Cicayur II No.28, Cicalengka, Kec. Pagedangan, Kabupaten Tangerang, Banten 15336","Cicalengka, Kec. Pagedangan, Kabupaten Tangerang",MALUKU,15336.0,Indonesia,,,,-62.941.495,1.066.156.066,https://maps.google.com/?cid=0x0:0x97e024610e500dff,
cafe,Restoran,Hyeongje Cafe  Resto,"Teras Kota Mall G18-4 Jl. Pahlawan Seribu Lot VIIB, Lengkong Gudang, BSD City, Kota Tangerang Selatan, Banten 13522","Lengkong Gudang, BSD City, Kota Tangerang Selatan",MALUKU,13522.0,Indonesia,81297261118.0,,,-62.955.169,106.666.951,https://maps.google.com/?cid=0x0:0xf9f034b0d5445e8,
cafe,Kedai Kopi,Hierarki Coffee Bintaro,"Jalan boulevard jaya, bintaro sektor 9, Pd. Jagung, parigi, Kota Tangerang Selatan, Banten 15227","bintaro sektor 9, Pd. Jagung, parigi, Kota Tangerang Selatan",MALUKU,15227.0,Indonesia,87815457948.0,,,-6.275.146,1.066.998.296,https://maps.google.com/?cid=0x0:0xfacf1c50db5a1567,
cafe,Kedai Kopi,Lapan Pagi Coffee,"Lengkong Kulon, Kec. Pagedangan, Kabupaten Tangerang, Banten 15331","Kec. Pagedangan, Kabupaten Tangerang",MALUKU,15331.0,Indonesia,,,,-62.909.462,1.066.271.573,https://maps.google.com/?cid=0x0:0x6bd739180a03d41f,
cafe,Kedai Kopi,Ark? Coffee,"Lantai 2 Ruko Bumi Serpong Damai Sector IV, Lengkong Wetan, Serpong Sub-District, South Tangerang City, Banten 15310","Lengkong Wetan, Serpong Sub-District, South Tangerang City",MALUKU,15310.0,Indonesia,2153134670.0,,,-62.815.679,1.066.638.908,https://maps.google.com/?cid=0x0:0x5b59e89468f272bb,
cafe,,STOK ESPRESSO,"Jl. Kp 15, RT.12/RW04, Cilenggang, Kec. Serpong, Kota Tangerang Selatan, Banten, Kota Tangerang Selatan, Banten 15310","RT.12/RW04, Cilenggang, Kec. Serpong, Kota Tangerang Selatan, Banten, Kota Tangerang Selatan",MALUKU,15310.0,Indonesia,87781263036.0,,,-63.085.939,1.066.629.795,https://maps.google.com/?cid=0x0:0x6f0f5326651547c9,
cafe,cafe,Kec. Pulau-Pulau Babar,"Kabupaten Maluku Barat Daya, Maluku","Kabupaten Maluku Barat Daya, Maluku",MALUKU,,Indonesia,,,,-78.688.934,1.295.944.125,https://maps.google.com/?cid=0x0:0x96e5386eea3cc2c3,
cafe,cafe,Kepulauan Babar,"Nakarhamto, Kec. Pulau-Pulau Babar Timur, Kabupaten Maluku Barat Daya, Maluku","Kabupaten Maluku Barat Daya, Maluku",MALUKU,,Indonesia,,,,-78.333.333,129.75,https://maps.google.com/?cid=0x0:0x139304fe972d4953,
cafe,cafe,Kec. Pulau-Pulau Babar Timur,"Kabupaten Maluku Barat Daya, Maluku","Kabupaten Maluku Barat Daya, Maluku",MALUKU,,Indonesia,,,,-79.029.614,1.298.648.243,https://maps.google.com/?cid=0x0:0x713e9d3f1d587e11,
cafe,cafe,Kepulauan Babar,"Nakarhamto, Kec. Pulau-Pulau Babar Timur, Kabupaten Maluku Barat Daya, Maluku","Kabupaten Maluku Barat Daya, Maluku",MALUKU,,Indonesia,,,,-78.333.333,129.75,https://maps.google.com/?cid=0x0:0x139304fe972d4953,
cafe,cafe,Kec. Pulau-Pulau Babar,"Kabupaten Maluku Barat Daya, Maluku","Kabupaten Maluku Barat Daya, Maluku",MALUKU,,Indonesia,,,,-78.688.934,1.295.944.125,https://maps.google.com/?cid=0x0:0x96e5386eea3cc2c3,
cafe,cafe,Maluku,,Maluku,MALUKU,,Indonesia,,,,-32.384.616,1.301.452.734,https://maps.google.com/?cid=0x0:0x5e30e8db04649a51,
cafe,Balai masyarakat,Recreation Area Duta Pulau Osi,"X3GQ+H6R, Unnamed Road, Etty, Kec. Seram Bar., Kabupaten Seram Bagian Barat, Maluku","Kabupaten Seram Bagian Barat, Maluku",MALUKU,,Indonesia,82199004390.0,,,-3.023.514,128.088.001,https://maps.google.com/?cid=0x0:0xfe59708a7a3ed71a,
cafe,cafe,Pulau Wetar,"Kabupaten Maluku Barat Daya, Maluku","Kabupaten Maluku Barat Daya, Maluku",MALUKU,,Indonesia,,,,-77.851.588,1.263.498.097,https://maps.google.com/?cid=0x0:0x501150d5e877187,
cafe,cafe,Cafe Ikan Bakar Colocolo Om Alex,"8842+RX4, Uhak, Pp. Wetar, Kabupaten Maluku Barat Daya, Maluku","Kabupaten Maluku Barat Daya, Maluku",MALUKU,,Indonesia,,,,-7.692.984,1.263.024.615,https://maps.google.com/?cid=0x0:0x97846ddfa1ff2d78,
cafe,cafe,Kali koreng family,"874J+83, Lurang, Kec. Wetar Utara, Kabupaten Maluku Barat Daya, Maluku","Kabupaten Maluku Barat Daya, Maluku",MALUKU,,Indonesia,,,,-76.942.451,1.262.802.409,https://maps.google.com/?cid=0x0:0x74206c7ddbee6146,
cafe,Kedai Kopi,Vadeva,"Jl. Kemang Timur No.88A, Bangka, Jakarta, Kota Jakarta Selatan, Daerah Khusus Ibukota Jakarta 12730","Bangka, Jakarta, Kota Jakarta Selatan",MALUKU,12730.0,Indonesia,8119195957.0,,,-62.596.467,1.068.238.357,https://maps.google.com/?cid=0x0:0x131f6978ca0e131f,
cafe,Kedai Kopi,Addictea House Kemang,"Jl. Kemang I No.10B 10, RT.10/RW.1, Bangka, Kec. Mampang Prpt., Kota Jakarta Selatan, Daerah Khusus Ibukota Jakarta 12730","RT.10/RW.1, Bangka, Kec. Mampang Prpt., Kota Jakarta Selatan",MALUKU,12730.0,Indonesia,8112390123.0,,,-62.581.485,1.068.136.199,https://maps.google.com/?cid=0x0:0x879c242b1b41c94d,
cafe,Kedai Kopi,Vam Social Space,"Jl. Bangka IX B No.49, RT.5/RW.12, Pela Mampang, Kec. Mampang Prpt., Kota Jakarta Selatan, Daerah Khusus Ibukota Jakarta 12720","RT.5/RW.12, Pela Mampang, Kec. Mampang Prpt., Kota Jakarta Selatan",MALUKU,12720.0,Indonesia,85179570372.0,,,-62.517.839,1.068.201.616,https://maps.google.com/?cid=0x0:0x9f645267040e541f,
cafe,Kedai Kopi,Bajawa kemang,"Wisma Semeru, Jl. Taman Kemang No.18 Lantai Dasar, RT.14/RW.1, Bangka, Kec. Mampang Prpt., Kota Jakarta Selatan, Daerah Khusus Ibukota Jakarta 12730","Jl. Taman Kemang No.18 Lantai Dasar, RT.14/RW.1, Bangka, Kec. Mampang Prpt., Kota Jakarta Selatan",MALUKU,12730.0,Indonesia,82258420016.0,,,-62.559.442,1.068.103.293,https://maps.google.com/?cid=0x0:0x604600a2b8ae81f,
cafe,cafe,Kec. Pulau-pulau Terselatan,"Kabupaten Maluku Barat Daya, Maluku","Kabupaten Maluku Barat Daya, Maluku",MALUKU,,Indonesia,,,,-80.702.814,1.271.638.207,https://maps.google.com/?cid=0x0:0x3668501476639829,
cafe,Rumah Makan,Warung Mas Eko,"W5J7+CP9, Wonreli, Kec. Pulau-pulau Terselatan, Kabupaten Maluku Barat Daya, Maluku","Kabupaten Maluku Barat Daya, Maluku",MALUKU,,Indonesia,,,,-80.685.975,1.271.647.638,https://maps.google.com/?cid=0x0:0xf513d155e6285cb6,
cafe,Indonesia,Rumah Makan PATBERS,"W5G6+JPM, Nomaha, Kec. Pulau-pulau Terselatan, Kabupaten Maluku Barat Daya, Maluku","Kabupaten Maluku Barat Daya, Maluku",MALUKU,,Indonesia,,,,-80.734.197,1.271.618.058,https://maps.google.com/?cid=0x0:0xb08de50a9647c202,
cafe,cafe,Gorengan Lamongan,"W5J8+XJ8, Wonreli, Kec. Pulau-pulau Terselatan, Kabupaten Maluku Barat Daya, Maluku","Kabupaten Maluku Barat Daya, Maluku",MALUKU,,Indonesia,,,,-80.682.018,1.271.654.889,https://maps.google.com/?cid=0x0:0xffe1e91b670c3014,
cafe,cafe,Kec. Pulau Letti,"Kabupaten Maluku Barat Daya, Maluku","Kabupaten Maluku Barat Daya, Maluku",MALUKU,,Indonesia,,,,-81.581.088,1.276.809.231,https://maps.google.com/?cid=0x0:0xa5d93595e880f516,
cafe,cafe,Pulau Leti,"Luhulely, Kec. Pulau Letti, Kabupaten Maluku Barat Daya, Maluku","Kabupaten Maluku Barat Daya, Maluku",MALUKU,,Indonesia,,,,-8.2,1.276.833.333,https://maps.google.com/?cid=0x0:0xcaaf5b19de612073,
cafe,cafe,Kec. Pulau Masela,"Kabupaten Maluku Barat Daya, Maluku","Kabupaten Maluku Barat Daya, Maluku",MALUKU,,Indonesia,,,,-81.584.174,1.298.704.314,https://maps.google.com/?cid=0x0:0xc4846e8cd1083f5c,
cafe,cafe,Pelangi Nusantara Cafe  Resto,"Jl.Poros Dusun Uiwily, blok A, Serili, Kec. Pulau Masela, Kabupaten Maluku Barat Daya, Maluku","Kabupaten Maluku Barat Daya, Maluku",MALUKU,,Indonesia,81248011456.0,,,-81.353.357,129.858.776,https://maps.google.com/?cid=0x0:0xd793695cd67194ee,
cafe,Komplek perumahan,RM Kel. Enos wakole,"VV5R+P64, Latalola Kecil, Kec. Pulau Masela, Kabupaten Maluku Barat Daya, Maluku","Kabupaten Maluku Barat Daya, Maluku",MALUKU,,Indonesia,,,,-8.140.131,129.890.345,https://maps.google.com/?cid=0x0:0xa0489b3f47936c8f,
cafe,Kafe,Sajenak coffee,"2, Jl. Rawa Domba No.47A, RT.2/RW.16, Duren Sawit, Kec. Duren Sawit, Kota Jakarta Timur, Daerah Khusus Ibukota Jakarta 13440","Jl. Rawa Domba No.47A, RT.2/RW.16, Duren Sawit, Kec. Duren Sawit, Kota Jakarta Timur",MALUKU,13440.0,Indonesia,87775118252.0,,,-6.245.832,106.914.632,https://maps.google.com/?cid=0x0:0x3c4141c4970927e4,
cafe,Kantor Perusahaan,Kec Watuwei Dawelor,"62RQ+MJP, Jl.AIs, Watuwey, Kec. Pulau-Pulau Babar Timur, Maluku Barat Daya Regency, Maluku","Kabupaten Maluku Barat Daya, Maluku",MALUKU,,Indonesia,852447019.0,,,-77.582.957,1.300.390.841,https://maps.google.com/?cid=0x0:0xf9b3f34f520827ea,
cafe,Kantor Perusahaan,Pantai Lamlely Watuwei,"62RP+JMH, Watuwey, Dawelor Dawera, Kabupaten Maluku Barat Daya, Maluku","Kabupaten Maluku Barat Daya, Maluku",MALUKU,,Indonesia,,,,-77.584.361,1.300.367.358,https://maps.google.com/?cid=0x0:0xf9e2a658a9fdc9e8,
cafe,cafe,Dawelor Dawera,"Kabupaten Maluku Barat Daya, Maluku","Kabupaten Maluku Barat Daya, Maluku",MALUKU,,Indonesia,,,,-77.617.442,1.300.581.836,https://maps.google.com/?cid=0x0:0xfdc455be5380a875,
cafe,cafe,Kec. Pulau Lakor,"Kabupaten Maluku Barat Daya, Maluku","Kabupaten Maluku Barat Daya, Maluku",MALUKU,,Indonesia,,,,-82.210.132,1.282.223.532,https://maps.google.com/?cid=0x0:0x753bbbe0b8b3d34a,
cafe,Kedai Kopi,Kedai Kopi Lumi?e,"852P+GMQ, Kel Batu Meja, Kec. Sirimau, Kota Ambon, Maluku","Kota Ambon, Maluku",MALUKU,,Indonesia,9113831578.0,,,-36.986.714,1.281.867.331,https://maps.google.com/?cid=0x0:0x3f100b1f9224262c,
cafe,Kedai Kopi,Lokarama Ambon #1 - Coffee  Music,"Jl. Diponegoro No.1, Kel Ahusen, Kec. Sirimau, Kota Ambon, Maluku","Kota Ambon, Maluku",MALUKU,,Indonesia,,,,-36.984.328,1.281.803.163,https://maps.google.com/?cid=0x0:0x1ff86f8dbcef2496,
cafe,cafe,Kali koreng family,"874J+83, Lurang, Kec. Wetar Utara, Kabupaten Maluku Barat Daya, Maluku","Kabupaten Maluku Barat Daya, Maluku",MALUKU,,Indonesia,,,,-76.942.451,1.262.802.409,https://maps.google.com/?cid=0x0:0x74206c7ddbee6146,
cafe,cafe,Kec. Wetar Utara,"Kabupaten Maluku Barat Daya, Maluku","Kabupaten Maluku Barat Daya, Maluku",MALUKU,,Indonesia,,,,-76.814.948,1.263.382.789,https://maps.google.com/?cid=0x0:0x9da6a46338da1c9a,
cafe,cafe,Warung Indomie Telur P. Choirin cs,"874V+HW2, Unnamed Road, Uhak, Pp. Wetar, Kabupaten Maluku Barat Daya, Maluku","Kabupaten Maluku Barat Daya, Maluku",MALUKU,,Indonesia,,,,-76.936.196,1.262.947.646,https://maps.google.com/?cid=0x0:0xa02eae7579d06315,
cafe,cafe,Cafe Ikan Bakar Colocolo Om Alex,"8842+RX4, Uhak, Pp. Wetar, Kabupaten Maluku Barat Daya, Maluku","Kabupaten Maluku Barat Daya, Maluku",MALUKU,,Indonesia,,,,-7.692.984,1.263.024.615,https://maps.google.com/?cid=0x0:0x97846ddfa1ff2d78,
cafe,Kafe,Forganza Resto  Cafe,"Kelanit, Kec. Kei Kecil, Kabupaten Maluku Tenggara, Maluku","Kabupaten Maluku Tenggara, Maluku",MALUKU,,Indonesia,82231789845.0,,,-56.575.049,1.327.029.619,https://maps.google.com/?cid=0x0:0x35e7e74d6d2279bc,
cafe,Restoran,Kafe Gloria,"8PWP+GVF, Langgur, Kec. Kei Kecil, Kabupaten Maluku Tenggara, Maluku","Kabupaten Maluku Tenggara, Maluku",MALUKU,,Indonesia,,,,-56.536.782,1.327.371.868,https://maps.google.com/?cid=0x0:0x343bba23c89005a3,
cafe,cafe,Maluku,,Maluku,MALUKU,,Indonesia,,,,-32.384.616,1.301.452.734,https://maps.google.com/?cid=0x0:0x5e30e8db04649a51,
cafe,Restoran,Wailela Cafe and Resto | Ambon,"Jl. Kampus, Rumah Tiga, Kec. Tlk. Ambon, Kota Ambon, Maluku","Kota Ambon, Maluku",MALUKU,,Indonesia,82399522113.0,,,-36.610.624,128.180.609,https://maps.google.com/?cid=0x0:0x3acbc85ce4ef2d6d,
cafe,Indonesia,VOILA DESSERT  EATERY,"Jl. Jend. A Yani, Kel Batu Meja, Kec. Sirimau, Kota Ambon, Maluku 97125","Kel Batu Meja, Kec. Sirimau, Kota Ambon",MALUKU,97125.0,Indonesia,82229911005.0,,,-369.803,128.185.768,https://maps.google.com/?cid=0x0:0x263c84f16d8e6461,
cafe,Restoran,Wailela Cafe and Resto | Ambon,"Jl. Kampus, Rumah Tiga, Kec. Tlk. Ambon, Kota Ambon, Maluku","Kota Ambon, Maluku",MALUKU,,Indonesia,82399522113.0,,,-36.610.624,128.180.609,https://maps.google.com/?cid=0x0:0x3acbc85ce4ef2d6d,
cafe,Kedai Kopi,Teluk Ambon Beach Caffe  Resto,"Jl. Ir. M. Putuhena, Rumah Tiga, Kec. Tlk. Ambon, Kota Ambon, Maluku 97234","Rumah Tiga, Kec. Tlk. Ambon, Kota Ambon",MALUKU,97234.0,Indonesia,81291113638.0,,,-366.059,1.281.807.995,https://maps.google.com/?cid=0x0:0x3928b9d1107473af,
cafe,Ikan Bakar,Walang Resto,"85RX+6R8, Unnamed Road, Poka, Kec. Tlk. Ambon, Kota Ambon, Maluku","Kota Ambon, Maluku",MALUKU,,Indonesia,82248472693.0,,,-365.947,1.281.995.628,https://maps.google.com/?cid=0x0:0x67c2a9c152347aff,
cafe,Kafe,Forganza Resto  Cafe,"Kelanit, Kec. Kei Kecil, Kabupaten Maluku Tenggara, Maluku","Kabupaten Maluku Tenggara, Maluku",MALUKU,,Indonesia,82231789845.0,,,-56.575.049,1.327.029.619,https://maps.google.com/?cid=0x0:0x35e7e74d6d2279bc,
cafe,Restoran,Kafe Gloria,"8PWP+GVF, Langgur, Kec. Kei Kecil, Kabupaten Maluku Tenggara, Maluku","Kabupaten Maluku Tenggara, Maluku",MALUKU,,Indonesia,,,,-56.536.782,1.327.371.868,https://maps.google.com/?cid=0x0:0x343bba23c89005a3,
cafe,cafe,Kec. Kepulauan Romang,"Kabupaten Maluku Barat Daya, Maluku","Kabupaten Maluku Barat Daya, Maluku",MALUKU,,Indonesia,,,,-75.913.438,1.273.710.665,https://maps.google.com/?cid=0x0:0xe9226fb89aebd4ca,
cafe,Kafe,Forganza Resto  Cafe,"Kelanit, Kec. Kei Kecil, Kabupaten Maluku Tenggara, Maluku","Kabupaten Maluku Tenggara, Maluku",MALUKU,,Indonesia,82231789845.0,,,-56.575.049,1.327.029.619,https://maps.google.com/?cid=0x0:0x35e7e74d6d2279bc,
cafe,cafe,Kisar Utara,"Kabupaten Maluku Barat Daya, Maluku","Kabupaten Maluku Barat Daya, Maluku",MALUKU,,Indonesia,,,,-80.292.578,127.168.746,https://maps.google.com/?cid=0x0:0x28782aba3b9982ea,
cafe,cafe,Walang Bambu Batu,"Lekloor, Kabupaten Maluku Barat Daya, Maluku","Kabupaten Maluku Barat Daya, Maluku",MALUKU,,Indonesia,82111372744.0,,,-8.061.153,1.271.727.069,https://maps.google.com/?cid=0x0:0xf5e16abcd1510337,
