Category,Real Category,Business Name,Address,City,State,Postal Code,Country,Phone,Email,Website,Latitude,Longitude,Map Link,Details Link
building materials,Toko,Tasya Jones Batako Tiakur,"RQRR+JG4, Unnamed Road, Wakarleli, Kec. Moa Lakor, Kabupaten Maluku Barat Daya, Maluku","Kabupaten Maluku Barat Daya, Maluku",MALUKU,,Indonesia,81239605300.0,,,-81.584.878,1.277.913.168,https://maps.google.com/?cid=0x0:0xee2056f94a97cab2,
building materials,Pembangunan Perumahan,Jemy kuwusay,"VQ4R+F22, Kaiwatu, Kec. Moa Lakor, Kabupaten Maluku Barat Daya, Maluku","Kabupaten Maluku Barat Daya, Maluku",MALUKU,,Indonesia,,,,-81.438.651,1.277.900.278,https://maps.google.com/?cid=0x0:0xc7d6487c313e7217,
building materials,building materials,Kec. Moa Lakor,"Kabupaten Maluku Barat Daya, Maluku","Kabupaten Maluku Barat Daya, Maluku",MALUKU,,Indonesia,,,,-81.550.646,1.277.912.166,https://maps.google.com/?cid=0x0:0xdad6338040993a27,
building materials,Toko,Tasya Jones Batako Tiakur,"RQRR+JG4, Unnamed Road, Wakarleli, Kec. Moa Lakor, Kabupaten Maluku Barat Daya, Maluku","Kabupaten Maluku Barat Daya, Maluku",MALUKU,,Indonesia,81239605300.0,,,-81.584.878,1.277.913.168,https://maps.google.com/?cid=0x0:0xee2056f94a97cab2,
building materials,Pusat Perbelanjaan,Toko Berkat Tiakur,"Wakarleli, Kec. Moa Lakor, Kabupaten Maluku Barat Daya, Maluku 67442","Kec. Moa Lakor, Kabupaten Maluku Barat Daya",MALUKU,67442.0,Indonesia,82229199472.0,,,-81.548.971,1.277.918.791,https://maps.google.com/?cid=0x0:0x618eb24b3642f474,
building materials,building materials,Damer,"Kabupaten Maluku Barat Daya, Maluku","Kabupaten Maluku Barat Daya, Maluku",MALUKU,,Indonesia,,,,-71.505.033,1.286.320.086,https://maps.google.com/?cid=0x0:0x628d9313140028f5,
building materials,building materials,Toko bintang Timur,"RQVR+M44, Wakarleli, Kec. Moa Lakor, Kabupaten Maluku Barat Daya, Maluku","Kabupaten Maluku Barat Daya, Maluku",MALUKU,,Indonesia,82339718701.0,,,-81.558.625,1.277.903.281,https://maps.google.com/?cid=0x0:0xd4611860fec843ab,
building materials,building materials,"McMinnville, Oregon 97128","McMinnville, Oregon, Amerika Serikat","McMinnville, Oregon, Amerika Serikat",MALUKU,,Indonesia,,,,451.835.082,-1.232.842.446,https://maps.google.com/?cid=0x0:0xc66e3d07627a5de8,
building materials,building materials,Best Western McMinnville Inn,"2035 OR-99W, McMinnville, OR 97128, Amerika Serikat","McMinnville, OR",MALUKU,97128.0,Indonesia,15034724900.0,,,45.193.537,-1.232.109.149,https://maps.google.com/?cid=0x0:0x57e0e41650d16acf,
building materials,building materials,Damer,"Kabupaten Maluku Barat Daya, Maluku","Kabupaten Maluku Barat Daya, Maluku",MALUKU,,Indonesia,,,,-71.505.033,1.286.320.086,https://maps.google.com/?cid=0x0:0x628d9313140028f5,
building materials,Toko Bahan Bangunan,Mahardika,"Jl. Trans Seram, Rutah, Kec. Amahai, Kabupaten Maluku Tengah, Maluku","Kabupaten Maluku Tengah, Maluku",MALUKU,,Indonesia,82211032979.0,,,-33.518.671,1.290.212.013,https://maps.google.com/?cid=0x0:0x906eceb42a94a4d,
building materials,Toko,Tasya Jones Batako Tiakur,"RQRR+JG4, Unnamed Road, Wakarleli, Kec. Moa Lakor, Kabupaten Maluku Barat Daya, Maluku","Kabupaten Maluku Barat Daya, Maluku",MALUKU,,Indonesia,81239605300.0,,,-81.584.878,1.277.913.168,https://maps.google.com/?cid=0x0:0xee2056f94a97cab2,
building materials,building materials,Bpa kace mandaka,"RP95+P5H, Batumiau, Kec. Pulau Letti, Kabupaten Maluku Barat Daya, Maluku","Kabupaten Maluku Barat Daya, Maluku",MALUKU,,Indonesia,,,,-81.806.885,1.277.079.866,https://maps.google.com/?cid=0x0:0x49145229d79eff6,
building materials,Toko Bahan Bangunan,Mahardika,"Jl. Trans Seram, Rutah, Kec. Amahai, Kabupaten Maluku Tengah, Maluku","Kabupaten Maluku Tengah, Maluku",MALUKU,,Indonesia,82211032979.0,,,-33.518.671,1.290.212.013,https://maps.google.com/?cid=0x0:0x906eceb42a94a4d,
building materials,Toko Bahan Bangunan,Toko Sumber Rejeki,"PX24+FQX, Jl. Manusela, Namaelo, Kec. Kota Masohi, Kabupaten Maluku Tengah, Maluku","Kabupaten Maluku Tengah, Maluku",MALUKU,,Indonesia,85212622992.0,,,-32.987.602,1.289.569.877,https://maps.google.com/?cid=0x0:0x470adf171773813b,
building materials,Komplek perumahan,HIERA - THE HEARTLAND OF BSD CITY,"Jl. Raya Kadusirung, Kadu Sirung, Kec. Pagedangan, Kabupaten Tangerang, Banten 15336","Kadu Sirung, Kec. Pagedangan, Kabupaten Tangerang",MALUKU,15336.0,Indonesia,2150519988.0,,,-63.280.415,1.066.058.635,https://maps.google.com/?cid=0x0:0xddd1e2da090be5e6,
building materials,Pembangunan Perumahan,Cluster Wynyard @Hiera BSD,"MHCX+8XJ, Kadu Sirung, Kec. Pagedangan, Kabupaten Tangerang, Banten 15336","Kadu Sirung, Kec. Pagedangan, Kabupaten Tangerang",MALUKU,15336.0,Indonesia,87872172625.0,,,-63.291.331,1.065.997.145,https://maps.google.com/?cid=0x0:0x9935e206304c43af,
building materials,Kontraktor,HR Building  Material,"Jl Cello 18, Perum Kemuning Permai No.3 Blok C18, Kec. Cisoka, Banten 15730","Perum Kemuning Permai No.3 Blok C18, Kec. Cisoka",MALUKU,15730.0,Indonesia,85773414920.0,,,-62.747.593,1.064.511.093,https://maps.google.com/?cid=0x0:0x155310e858935453,
building materials,Komplek perumahan,Cluster Welton @Hiera BSD,"MHCW+CQJ Savana Ilalang Kampung Kandang, Jl. Kp. Kandang, Jatake, Pagedangan, Tangerang Regency, Banten 15330","Jl. Kp. Kandang, Jatake, Pagedangan, Tangerang Regency",MALUKU,15330.0,Indonesia,87774482258.0,,,-63.281.572,1.065.976.603,https://maps.google.com/?cid=0x0:0x68b1d78f2ef9a6fe,
building materials,Komplek perumahan,The Green,"MMQ8+J3M Vineyard, Cilenggang, Kec. Serpong, Kota Tangerang Selatan, Banten 15310","Cilenggang, Kec. Serpong, Kota Tangerang Selatan",MALUKU,15310.0,Indonesia,,,,-63.092.055,1.066.649.331,https://maps.google.com/?cid=0x0:0x4accd238e178ab88,
building materials,Komplek perumahan,Kaze Hill Residence by Dekoruma,"Jl. Rudal III No.14, Joglo, Kec. Kembangan, Kota Jakarta Barat, Daerah Khusus Ibukota Jakarta 11640","Joglo, Kec. Kembangan, Kota Jakarta Barat",MALUKU,11640.0,Indonesia,81703888830.0,,,-62.220.299,1.067.222.881,https://maps.google.com/?cid=0x0:0xae1418e46b6f96f5,
building materials,Gedung Pertemuan,Indonesia Convention Exhibition,"Jl. BSD Grand Boulevard No.1, Pagedangan, Kec. Pagedangan, Kabupaten Tangerang, Banten 15339","Pagedangan, Kec. Pagedangan, Kabupaten Tangerang",MALUKU,15339.0,Indonesia,2129714600.0,,,-63.004.202,1.066.364.517,https://maps.google.com/?cid=0x0:0x34406ed8b098f478,
building materials,Komplek perumahan,The Zora BSD City,"Lengkong Kulon, Kec. Pagedangan, Kabupaten Tangerang, Banten 15331","Kec. Pagedangan, Kabupaten Tangerang",MALUKU,15331.0,Indonesia,,,,-6.280.307,1.066.286.656,https://maps.google.com/?cid=0x0:0x87cbebe57f917f49,
building materials,Kompleks Apartemen,VANYA PARK - BSD CITY,"Pagedangan, Kec. Pagedangan, Kabupaten Tangerang, Banten","Kabupaten Tangerang, Banten",MALUKU,,Indonesia,,,,-62.959.012,1.066.213.069,https://maps.google.com/?cid=0x0:0xd8364cc8104a684f,
building materials,building materials,Kepulauan Babar,"Nakarhamto, Kec. Pulau-Pulau Babar Timur, Kabupaten Maluku Barat Daya, Maluku","Kabupaten Maluku Barat Daya, Maluku",MALUKU,,Indonesia,,,,-78.333.333,129.75,https://maps.google.com/?cid=0x0:0x139304fe972d4953,
building materials,Toko bahan makanan,Toko Rudy Tepa,"4HJV+9F6, Tepa, Kec. Pulau-Pulau Babar, Kabupaten Maluku Barat Daya, Maluku","Kabupaten Maluku Barat Daya, Maluku",MALUKU,,Indonesia,8161999912.0,,,-78.690.925,129.593.647,https://maps.google.com/?cid=0x0:0x911e683a522b05fe,
building materials,Pasar,TOKO HAKI MURAH TEPA,"Tepa, Kec. Pulau-Pulau Babar, Kabupaten Maluku Barat Daya, Maluku","Kabupaten Maluku Barat Daya, Maluku",MALUKU,,Indonesia,81336508235.0,,,-78.724.537,1.295.924.286,https://maps.google.com/?cid=0x0:0x2e276e7e0aac6f7d,
building materials,Pasar bahan bangunan,PUSAT MEMBRAN BAKAR TERLENGKAP,"Jl. Cemp. Putih Bar. No.26 5, RT.5/RW.12, Cemp. Putih Bar., Kec. Cemp. Putih, Kota Jakarta Pusat, Daerah Khusus Ibukota Jakarta 10520","RT.5/RW.12, Cemp. Putih Bar., Kec. Cemp. Putih, Kota Jakarta Pusat",MALUKU,10520.0,Indonesia,8111780999.0,,,-61.797.494,1.068.661.917,https://maps.google.com/?cid=0x0:0x3cb13db9a06b43a3,
building materials,Toko bahan makanan,Toko Rudy Tepa,"4HJV+9F6, Tepa, Kec. Pulau-Pulau Babar, Kabupaten Maluku Barat Daya, Maluku","Kabupaten Maluku Barat Daya, Maluku",MALUKU,,Indonesia,8161999912.0,,,-78.690.925,129.593.647,https://maps.google.com/?cid=0x0:0x911e683a522b05fe,
building materials,Pasar,TOKO HAKI MURAH TEPA,"Tepa, Kec. Pulau-Pulau Babar, Kabupaten Maluku Barat Daya, Maluku","Kabupaten Maluku Barat Daya, Maluku",MALUKU,,Indonesia,81336508235.0,,,-78.724.537,1.295.924.286,https://maps.google.com/?cid=0x0:0x2e276e7e0aac6f7d,
building materials,building materials,Kec. Pulau-Pulau Babar Timur,"Kabupaten Maluku Barat Daya, Maluku","Kabupaten Maluku Barat Daya, Maluku",MALUKU,,Indonesia,,,,-79.029.614,1.298.648.243,https://maps.google.com/?cid=0x0:0x713e9d3f1d587e11,
building materials,Kantor Perusahaan,DISTRIBUTOR MEMBRAN BAKAR  SHELL FLINKOTE (Baba Material ),"Gedung Delta, Jalan Suryopranoto 1, komplek perkantoran, Blok A10, Blok A10, RT.14/RW.8, Petojo Sel., Kecamatan Gambir, Kota Jakarta Pusat, Daerah Khusus Ibukota Jakarta 10160","Jalan Suryopranoto 1, komplek perkantoran, Blok A10, Blok A10, RT.14/RW.8, Petojo Sel., Kecamatan Gambir, Kota Jakarta Pusat",MALUKU,10160.0,Indonesia,87880888813.0,,,-61.696.807,1.068.191.205,https://maps.google.com/?cid=0x0:0xd66b124ce26a8dcf,
building materials,Pasar bahan bangunan,PUSAT MEMBRAN BAKAR TERLENGKAP,"Jl. Cemp. Putih Bar. No.26 5, RT.5/RW.12, Cemp. Putih Bar., Kec. Cemp. Putih, Kota Jakarta Pusat, Daerah Khusus Ibukota Jakarta 10520","RT.5/RW.12, Cemp. Putih Bar., Kec. Cemp. Putih, Kota Jakarta Pusat",MALUKU,10520.0,Indonesia,8111780999.0,,,-61.797.494,1.068.661.917,https://maps.google.com/?cid=0x0:0x3cb13db9a06b43a3,
building materials,Kantor Perusahaan,PT BTR,"Uhak, Pp. Wetar, Kabupaten Maluku Barat Daya, Maluku","Kabupaten Maluku Barat Daya, Maluku",MALUKU,,Indonesia,,,,-76.931.702,1.262.961.773,https://maps.google.com/?cid=0x0:0xe5de87498b373352,
building materials,Pusat Bisnis,Kantor IT Department PT. BTR,"874V+RC9, Uhak, Pp. Wetar, Kabupaten Maluku Barat Daya, Maluku","Kabupaten Maluku Barat Daya, Maluku",MALUKU,,Indonesia,8114858685.0,,,-76.929.627,1.262.936.089,https://maps.google.com/?cid=0x0:0x16fc07a6542098f9,
building materials,building materials,MPM Rent Site Wetar Workshop,"874W+PFM, Uhak, Pp. Wetar, Kabupaten Maluku Barat Daya, Maluku","Kabupaten Maluku Barat Daya, Maluku",MALUKU,,Indonesia,,,,-76.935.056,12.629.576,https://maps.google.com/?cid=0x0:0x7aee00f8bd81a5bd,
building materials,Tambang Terbuka,PT.Batutua Kharisma Permai (Mining Infrastructure Area),"77RH+MGJ, Lerokis. P, Wetar, Maluku Barat Daya Regency, Maluku","Kabupaten Maluku Barat Daya, Maluku",MALUKU,,Indonesia,,,,-77.082.998,1.262.787.669,https://maps.google.com/?cid=0x0:0x2fcd25f08eebfe4c,
building materials,Kantor Perusahaan,Bajra Mandalasakti,"Graha Mobisel Lantai 2, Jl. Buncit Raya No.139, RT.1/RW.9, Kalibata, Kec. Pancoran, Kota Jakarta Selatan, Daerah Khusus Ibukota Jakarta 12740","Jl. Buncit Raya No.139, RT.1/RW.9, Kalibata, Kec. Pancoran, Kota Jakarta Selatan",MALUKU,12740.0,Indonesia,217991323.0,,,-62.647.877,1.068.309.377,https://maps.google.com/?cid=0x0:0x6ddbf0ca3d7a94c0,
building materials,Jasa Konstruksi dan Bangunan,BERKAH'S HUMBLE OFFICE,"Jl. Kalibata Tengah, RT.2/RW.3, Kalibata, Kec. Pancoran, Kota Jakarta Selatan, Daerah Khusus Ibukota Jakarta 12740","RT.2/RW.3, Kalibata, Kec. Pancoran, Kota Jakarta Selatan",MALUKU,12740.0,Indonesia,811811253.0,,,-62.621.196,1.068.342.301,https://maps.google.com/?cid=0x0:0x7a60e328c3654fc,
building materials,Kantor Perusahaan,Mobisel,"1, Jl. Buncit Raya No.139 1, RT.1/RW.9, Kalibata, Kec. Pancoran, Kota Jakarta Selatan, Daerah Khusus Ibukota Jakarta 12740","Jl. Buncit Raya No.139 1, RT.1/RW.9, Kalibata, Kec. Pancoran, Kota Jakarta Selatan",MALUKU,12740.0,Indonesia,,,,-62.647.398,1.068.310.239,https://maps.google.com/?cid=0x0:0x9f745ee150d6ba41,
building materials,Toko,Kios Alat Bangunan,"W5J7+CP9, Wonreli, Kec. Pulau-pulau Terselatan, Kabupaten Maluku Barat Daya, Maluku","Kabupaten Maluku Barat Daya, Maluku",MALUKU,,Indonesia,81316222080.0,,,-80.684.155,1.271.654.363,https://maps.google.com/?cid=0x0:0xfd6cba6c64034466,
building materials,Toko,Toko Makmur,"W5J7+CJW, Wonreli, Kec. Pulau-pulau Terselatan, Kabupaten Maluku Barat Daya, Maluku","Kabupaten Maluku Barat Daya, Maluku",MALUKU,,Indonesia,,,,-80.688.794,1.271.640.819,https://maps.google.com/?cid=0x0:0x4676f210f24be7ea,
building materials,building materials,Kec. Pulau Letti,"Kabupaten Maluku Barat Daya, Maluku","Kabupaten Maluku Barat Daya, Maluku",MALUKU,,Indonesia,,,,-81.581.088,1.276.809.231,https://maps.google.com/?cid=0x0:0xa5d93595e880f516,
building materials,Komplek perumahan,OnaL,"VR54+774, Kaiwatu, Kec. Moa Lakor, Kabupaten Maluku Barat Daya, Maluku","Kabupaten Maluku Barat Daya, Maluku",MALUKU,,Indonesia,,,,-8.141.882,1.278.058.011,https://maps.google.com/?cid=0x0:0x20cfd8abb39b636,
building materials,Komplek perumahan,Kompleks Perumahan ASN,"VQ4W+GPP, Kaiwatu, Kec. Moa Lakor, Kabupaten Maluku Barat Daya, Maluku","Kabupaten Maluku Barat Daya, Maluku",MALUKU,,Indonesia,,,,-81.436.627,1.277.968.264,https://maps.google.com/?cid=0x0:0xbf0040c84b22ca7f,
building materials,building materials,Kec. Pulau Masela,"Kabupaten Maluku Barat Daya, Maluku","Kabupaten Maluku Barat Daya, Maluku",MALUKU,,Indonesia,,,,-81.584.174,1.298.704.314,https://maps.google.com/?cid=0x0:0xc4846e8cd1083f5c,
building materials,building materials,PT.INPEX CORPORATION LTD.,"RVQC+Q2, Marsela, Kec. Pulau Masela, Kabupaten Maluku Barat Daya, Maluku","Kabupaten Maluku Barat Daya, Maluku",MALUKU,,Indonesia,81214184685.0,,,-81.610.018,1.298.699.718,https://maps.google.com/?cid=0x0:0x56a52557446af08f,
building materials,building materials,Pulau Dawera,"Dawelor Dawera, Kabupaten Maluku Barat Daya, Maluku","Kabupaten Maluku Barat Daya, Maluku",MALUKU,,Indonesia,,,,-77.240.985,1.300.068.953,https://maps.google.com/?cid=0x0:0x818dcb3207fcd882,
building materials,Pasar,TOKO HAKI MURAH TEPA,"Tepa, Kec. Pulau-Pulau Babar, Kabupaten Maluku Barat Daya, Maluku","Kabupaten Maluku Barat Daya, Maluku",MALUKU,,Indonesia,81336508235.0,,,-78.724.537,1.295.924.286,https://maps.google.com/?cid=0x0:0x2e276e7e0aac6f7d,
building materials,Toko bahan makanan,Toko Rudy Tepa,"4HJV+9F6, Tepa, Kec. Pulau-Pulau Babar, Kabupaten Maluku Barat Daya, Maluku","Kabupaten Maluku Barat Daya, Maluku",MALUKU,,Indonesia,8161999912.0,,,-78.690.925,129.593.647,https://maps.google.com/?cid=0x0:0x911e683a522b05fe,
building materials,building materials,Kec. Pulau Lakor,"Kabupaten Maluku Barat Daya, Maluku","Kabupaten Maluku Barat Daya, Maluku",MALUKU,,Indonesia,,,,-82.210.132,1.282.223.532,https://maps.google.com/?cid=0x0:0x753bbbe0b8b3d34a,
building materials,building materials,Kec. Wetar Utara,"Kabupaten Maluku Barat Daya, Maluku","Kabupaten Maluku Barat Daya, Maluku",MALUKU,,Indonesia,,,,-76.814.948,1.263.382.789,https://maps.google.com/?cid=0x0:0x9da6a46338da1c9a,
building materials,Kantor Perusahaan,Tambang Tembaga Pulau Wetar,"Uhak, Kec. Wetar Barat, Kabupaten Maluku Barat Daya, Maluku","Kabupaten Maluku Barat Daya, Maluku",MALUKU,,Indonesia,81277629704.0,,,-77.064.127,126.326.663,https://maps.google.com/?cid=0x0:0xfdd8542ee2b47a08,
building materials,Tambang Terbuka,PT.Batutua Kharisma Permai (Mining Infrastructure Area),"77RH+MGJ, Lerokis. P, Wetar, Maluku Barat Daya Regency, Maluku","Kabupaten Maluku Barat Daya, Maluku",MALUKU,,Indonesia,,,,-77.082.998,1.262.787.669,https://maps.google.com/?cid=0x0:0x2fcd25f08eebfe4c,
building materials,Tambang Terbuka,PT.Batutua Kharisma Permai (Mining Infrastructure Area),"77RH+MGJ, Lerokis. P, Wetar, Maluku Barat Daya Regency, Maluku","Kabupaten Maluku Barat Daya, Maluku",MALUKU,,Indonesia,,,,-77.082.998,1.262.787.669,https://maps.google.com/?cid=0x0:0x2fcd25f08eebfe4c,
building materials,Kantor Perusahaan,Tambang Tembaga Pulau Wetar,"Uhak, Kec. Wetar Barat, Kabupaten Maluku Barat Daya, Maluku","Kabupaten Maluku Barat Daya, Maluku",MALUKU,,Indonesia,81277629704.0,,,-77.064.127,126.326.663,https://maps.google.com/?cid=0x0:0xfdd8542ee2b47a08,
building materials,building materials,Kec. Wetar Timur,"Kabupaten Maluku Barat Daya, Maluku","Kabupaten Maluku Barat Daya, Maluku",MALUKU,,Indonesia,,,,-76.759.352,1.268.082.461,https://maps.google.com/?cid=0x0:0xdd20d04bf1cbe2c2,
building materials,Toko Bahan Bangunan,Jati Maluku Timber. PT,"Q46W+J4X, JL. Aipda Ks Tubun Passo, Atiahu, Werinama, Kabupaten Seram Bagian Timur, Maluku","Kabupaten Seram Bagian Timur, Maluku",MALUKU,,Indonesia,81316222080.0,,,-3.238.383,130.145.366,https://maps.google.com/?cid=0x0:0x5457b144078426c5,
building materials,Kantor Perusahaan,Tambang Tembaga Pulau Wetar,"Uhak, Kec. Wetar Barat, Kabupaten Maluku Barat Daya, Maluku","Kabupaten Maluku Barat Daya, Maluku",MALUKU,,Indonesia,81277629704.0,,,-77.064.127,126.326.663,https://maps.google.com/?cid=0x0:0xfdd8542ee2b47a08,
building materials,Toko,Toko Tunas Baru,"M966+FP8, Jl. Trans Seram, Waimital, Kec. Kairatu, Kabupaten Seram Bagian Barat, Maluku","Kabupaten Seram Bagian Barat, Maluku",MALUKU,,Indonesia,8161999912.0,,,-33.388.259,1.283.618.245,https://maps.google.com/?cid=0x0:0x20a66a8197b5b440,
building materials,Toko Bahan Bangunan,Toko Bangunan - RAHMAT,"859X+7HP, Batu Merah, Kec. Sirimau, Kota Ambon, Maluku","Kota Ambon, Maluku",MALUKU,,Indonesia,83869209619.0,,,-36.817.576,1.281.989.022,https://maps.google.com/?cid=0x0:0xd53fe0e01cb87a6d,
building materials,Toko Bahan Bangunan,Toko Bangunan Lestari Baru,"Waihatu, Kec. Kairatu Bar., Kabupaten Seram Bagian Barat, Maluku","Kabupaten Seram Bagian Barat, Maluku",MALUKU,,Indonesia,82238832490.0,,,-32.864.381,1.283.222.819,https://maps.google.com/?cid=0x0:0xb14d86a65046c260,
building materials,Komplek perumahan,Wapeula,"8WFQ+J7X, Ureng, Kec. Leihitu, Kabupaten Maluku Tengah, Maluku","Kabupaten Maluku Tengah, Maluku",MALUKU,,Indonesia,,,,-3.675.502,127.937.846,https://maps.google.com/?cid=0x0:0x6426d94160655707,
building materials,Toserba,Toko Bangunan Bintang Timur,"Kecil Atas, Jl. Wailola, Bula, Kec. Bula, Kabupaten Seram Bagian Timur, Maluku","Kabupaten Seram Bagian Timur, Maluku",MALUKU,,Indonesia,81316222080.0,,,-31.020.661,1.304.795.478,https://maps.google.com/?cid=0x0:0x4aef66ef96eb16a8,
building materials,Toko Bahan Bangunan,TOKO BANGUNAN SINAR ALWA,"FW9F+G42, Lelilef Waibulan, Kec. Weda Tengah, Kabupaten Halmahera Tengah, Maluku Utara","Kabupaten Halmahera Tengah, Maluku Utara",MALUKU,,Indonesia,85167702404.0,,,0.4688305,1.279.229.748,https://maps.google.com/?cid=0x0:0xb8137106c2556d8a,
building materials,Toko Bahan Bangunan,Toko bangunan Al Mubarak,"279W+294, Pasar, Olilit, Tanimbar Sel., Kab. Kepulauan Tanimbar, Maluku","Kab. Kepulauan Tanimbar, Maluku",MALUKU,,Indonesia,8123746174.0,,,-79.824.933,1.312.959.625,https://maps.google.com/?cid=0x0:0xd6b97f6e48819bac,
building materials,Toko,TOKO SATRIO ALIT BANGUNAN,"Toboino, Kec. Wasile Tim., Kabupaten Halmahera Timur, Maluku Utara 98671","Kec. Wasile Tim., Kabupaten Halmahera Timur",MALUKU,98671.0,Indonesia,81246064606.0,,,11.566.953,1.282.161.807,https://maps.google.com/?cid=0x0:0x5dc311711f38564d,
building materials,building materials,Kec. Kepulauan Romang,"Kabupaten Maluku Barat Daya, Maluku","Kabupaten Maluku Barat Daya, Maluku",MALUKU,,Indonesia,,,,-75.913.438,1.273.710.665,https://maps.google.com/?cid=0x0:0xe9226fb89aebd4ca,
building materials,building materials,Kisar Utara,"Kabupaten Maluku Barat Daya, Maluku","Kabupaten Maluku Barat Daya, Maluku",MALUKU,,Indonesia,,,,-80.292.578,127.168.746,https://maps.google.com/?cid=0x0:0x28782aba3b9982ea,
building materials,Toko Bahan Bangunan,Inti Bangunan,"5, Jl. Sunter Permai Raya No.12B, RT.5/RW.18, Sunter Agung, Kec. Tj. Priok, Jkt Utara, Daerah Khusus Ibukota Jakarta 14350","Jl. Sunter Permai Raya No.12B, RT.5/RW.18, Sunter Agung, Kec. Tj. Priok, Jkt Utara",MALUKU,14350.0,Indonesia,87873253137.0,,,-61.335.615,1.068.649.626,https://maps.google.com/?cid=0x0:0x387c58d9572e0964,
building materials,Toko Bahan Bangunan,Toko Subur Jaya,"Jl. Danau Sunter Utara No.10-11 Blok G3, Sunter Agung, Tanjung Priok, North Jakarta City, Jakarta 14350","Sunter Agung, Tanjung Priok, North Jakarta City",MALUKU,14350.0,Indonesia,81808090335.0,,,-61.382.031,1.068.689.354,https://maps.google.com/?cid=0x0:0x4631f8f9504b7608,
toko bangunan,toko bangunan,Toko bintang Timur,"RQVR+M44, Wakarleli, Kec. Moa Lakor, Kabupaten Maluku Barat Daya, Maluku","Kabupaten Maluku Barat Daya, Maluku",MALUKU,,Indonesia,82339718701.0,,,-81.558.625,1.277.903.281,https://maps.google.com/?cid=0x0:0xd4611860fec843ab,
toko bangunan,toko bangunan,Kec. Moa Lakor,"Kabupaten Maluku Barat Daya, Maluku","Kabupaten Maluku Barat Daya, Maluku",MALUKU,,Indonesia,,,,-81.550.646,1.277.912.166,https://maps.google.com/?cid=0x0:0xdad6338040993a27,
toko bangunan,Toko,Tasya Jones Batako Tiakur,"RQRR+JG4, Unnamed Road, Wakarleli, Kec. Moa Lakor, Kabupaten Maluku Barat Daya, Maluku","Kabupaten Maluku Barat Daya, Maluku",MALUKU,,Indonesia,81239605300.0,,,-81.584.878,1.277.913.168,https://maps.google.com/?cid=0x0:0xee2056f94a97cab2,
toko bangunan,toko bangunan,Maluku 97128,"Batu Merah, Kec. Sirimau, Kota Ambon, Maluku","Kota Ambon, Maluku",MALUKU,,Indonesia,,,,-36.827.473,1.281.907.702,https://maps.google.com/?cid=0x0:0x25ce4f908fabcf46,
toko bangunan,Toko,Toko Serba Bangunan Ambon,"Jl. Philip Latumahina No.10, Kel Honipopu, Kec. Sirimau, Kota Ambon, Maluku","Kota Ambon, Maluku",MALUKU,,Indonesia,81283093876.0,,,-3.696.513,1.281.813.331,https://maps.google.com/?cid=0x0:0x38f3a5a63eb288ff,
toko bangunan,Toko Bahan Bangunan,Toko Sumber Mas (Toko Alat Bangunan) Termurah Di Kota Ambon,"852M+PR7, Jl. Yan Paays, Uritetu, Kec. Sirimau, Kota Ambon, Maluku","Kota Ambon, Maluku",MALUKU,,Indonesia,911342426.0,,,-36.982.201,1.281.845.433,https://maps.google.com/?cid=0x0:0xa06c0fcbbe266243,
toko bangunan,Toko Karpet,Toko Sumber Berkat,"Jl. W.R. Supratman No.19, Uritetu, Kec. Sirimau, Kota Ambon, Maluku 97124","Uritetu, Kec. Sirimau, Kota Ambon",MALUKU,97124.0,Indonesia,81344850907.0,,,-36.932.047,1.281.849.976,https://maps.google.com/?cid=0x0:0x7894d5a241022137,
toko bangunan,Toko Bahan Bangunan,CV. NESSTA AMBON( Cat  Bahan Bangunan ),"86XJ+7HQ, Jl. Wolter Monginsidi, Lateri, Kec. Baguala, Kota Ambon, Maluku 97112","Jl. Wolter Monginsidi, Lateri, Kec. Baguala, Kota Ambon",MALUKU,97112.0,Indonesia,911356394.0,,,-3.651.793,128.231.489,https://maps.google.com/?cid=0x0:0x826e5740b2e0ac2f,
toko bangunan,Toko Bahan Bangunan,Toko bangunan UD ISHLAH,"Tlk., Poka, Kec. Tlk. Ambon, Kota Ambon, Maluku","Kota Ambon, Maluku",MALUKU,,Indonesia,85244808244.0,,,-36.478.274,1.281.934.164,https://maps.google.com/?cid=0x0:0x9ad95512c8471c0d,
toko bangunan,Toko Bahan Bangunan,Toko Bangunan Utama,"Jl. Karel Satsuitubun Batugong, Ambon, Passo, Kec. Baguala, Kota Ambon, Maluku 97232","Ambon, Passo, Kec. Baguala, Kota Ambon",MALUKU,97232.0,Indonesia,85102851565.0,,,-36.377.789,1.282.574.061,https://maps.google.com/?cid=0x0:0x7640e512aa59b277,
toko bangunan,Toko Bahan Bangunan,Toko Aneka Guna Rumah Tiga,"Unnamed Road, Rumah Tiga, Kec. Tlk. Ambon, Kota Ambon, Maluku","Kota Ambon, Maluku",MALUKU,,Indonesia,82397301030.0,,,-3.660.478,1.281.926.583,https://maps.google.com/?cid=0x0:0x370ddbc5c103c9e,
toko bangunan,Toko Bahan Bangunan,Toko Duta Bangunan,"Jl. Danau Rana, Namlea, Kec. Namlea, Kabupaten Buru, Maluku","Kabupaten Buru, Maluku",MALUKU,,Indonesia,91322010.0,,,-3.269.268,1.271.034.228,https://maps.google.com/?cid=0x0:0x4d2e61629ea407b9,
toko bangunan,Pemasok Bahan Bangunan,Toko Aneka Guna Passo,"Passo, Kec. Baguala, Kota Ambon, Maluku","Kota Ambon, Maluku",MALUKU,,Indonesia,82397301030.0,,,-36.331.734,1.282.504.202,https://maps.google.com/?cid=0x0:0xae7002ec9b542f86,
toko bangunan,Toko,Tasya Jones Batako Tiakur,"RQRR+JG4, Unnamed Road, Wakarleli, Kec. Moa Lakor, Kabupaten Maluku Barat Daya, Maluku","Kabupaten Maluku Barat Daya, Maluku",MALUKU,,Indonesia,81239605300.0,,,-81.584.878,1.277.913.168,https://maps.google.com/?cid=0x0:0xee2056f94a97cab2,
toko bangunan,Toko Bahan Bangunan,TOKO ILHAM,"28R5+VPH, Unnamed Road, Sifnana, Tanimbar Sel., Kab. Kepulauan Tanimbar, Maluku","Kab. Kepulauan Tanimbar, Maluku",MALUKU,,Indonesia,83125236425.0,,,-79.578.237,1.313.093.484,https://maps.google.com/?cid=0x0:0xdc8ca2706d30ea1a,
toko bangunan,Gudang,CV. SINAR TANETE MAKMUR,"85HX+G2G, Jl. Sultan Hasanudin, Batu Merah, Kec. Sirimau, Kota Ambon, Maluku","Kota Ambon, Maluku",MALUKU,,Indonesia,82297843744.0,,,-36.707.206,1.281.978.247,https://maps.google.com/?cid=0x0:0x5a29c62da409b63d,
toko bangunan,toko bangunan,Damer,"Kabupaten Maluku Barat Daya, Maluku","Kabupaten Maluku Barat Daya, Maluku",MALUKU,,Indonesia,,,,-71.505.033,1.286.320.086,https://maps.google.com/?cid=0x0:0x628d9313140028f5,
toko bangunan,Toko Bahan Bangunan,Dunia Bangunan Toko,"Jl. Yos Sudarso, Kel Honipopu, Kec. Sirimau, Kota Ambon, Maluku","Kota Ambon, Maluku",MALUKU,,Indonesia,85183951351.0,,,-36.926.774,1.281.796.048,https://maps.google.com/?cid=0x0:0xbaf2cf92502d03b5,
toko bangunan,Toko Bahan Bangunan,"Toko Bangunan MITRA BANGUNAN""""","8VMJ+P37, Fidi Jaya, Kec. Weda Tengah, Kabupaten Halmahera Tengah, Maluku Utara","Kabupaten Halmahera Tengah, Maluku Utara",MALUKU,,Indonesia,8971539577.0,,,0.334292,1.278.801.666,https://maps.google.com/?cid=0x0:0x6db8eb4715256fc8,
toko bangunan,Toko Bahan Bangunan,Toko Bangunan - RAHMAT,"859X+7HP, Batu Merah, Kec. Sirimau, Kota Ambon, Maluku","Kota Ambon, Maluku",MALUKU,,Indonesia,83869209619.0,,,-36.817.576,1.281.989.022,https://maps.google.com/?cid=0x0:0xd53fe0e01cb87a6d,
toko bangunan,Toko Bahan Bangunan,Toko.Timur Raya,"8VPJ+29R, Unnamed Road, Fidi Jaya, Kec. Weda, Kabupaten Halmahera Tengah, Maluku Utara","Kabupaten Halmahera Tengah, Maluku Utara",MALUKU,,Indonesia,,,,0.3351116,1.278.809.053,https://maps.google.com/?cid=0x0:0x23faf8ae84e5052a,
toko bangunan,toko bangunan,Toko bintang Timur,"RQVR+M44, Wakarleli, Kec. Moa Lakor, Kabupaten Maluku Barat Daya, Maluku","Kabupaten Maluku Barat Daya, Maluku",MALUKU,,Indonesia,82339718701.0,,,-81.558.625,1.277.903.281,https://maps.google.com/?cid=0x0:0xd4611860fec843ab,
toko bangunan,Toko Bahan Bangunan,TOKO SL AMBON,"pangkalan ojek ACC, Jl. Pantai Mardika jalan besar . samping No.depan, Kel Rijali, Kec. Sirimau, Kota Ambon, Maluku 97128","Jl. Pantai Mardika jalan besar . samping No.depan, Kel Rijali, Kec. Sirimau, Kota Ambon",MALUKU,97128.0,Indonesia,83869209619.0,,,-36.884.962,1.281.826.486,https://maps.google.com/?cid=0x0:0xc1ced26aa1c0e8d2,
toko bangunan,toko bangunan,Damer,"Kabupaten Maluku Barat Daya, Maluku","Kabupaten Maluku Barat Daya, Maluku",MALUKU,,Indonesia,,,,-71.505.033,1.286.320.086,https://maps.google.com/?cid=0x0:0x628d9313140028f5,
toko bangunan,Toko Bahan Bangunan,Toko Duta Bangunan,"Jl. Danau Rana, Namlea, Kec. Namlea, Kabupaten Buru, Maluku","Kabupaten Buru, Maluku",MALUKU,,Indonesia,91322010.0,,,-3.269.268,1.271.034.228,https://maps.google.com/?cid=0x0:0x4d2e61629ea407b9,
toko bangunan,toko bangunan,Toko bintang Timur,"RQVR+M44, Wakarleli, Kec. Moa Lakor, Kabupaten Maluku Barat Daya, Maluku","Kabupaten Maluku Barat Daya, Maluku",MALUKU,,Indonesia,82339718701.0,,,-81.558.625,1.277.903.281,https://maps.google.com/?cid=0x0:0xd4611860fec843ab,
toko bangunan,Toko Bahan Bangunan,Toko Aneka Bangunan,"Jl. Percetakan Negara No.774c 4, RT.1/RW.9, Rawasari, Kec. Cemp. Putih, Kota Jakarta Pusat, Daerah Khusus Ibukota Jakarta 10570","RT.1/RW.9, Rawasari, Kec. Cemp. Putih, Kota Jakarta Pusat",MALUKU,10570.0,Indonesia,83160635248.0,,,-61.872.222,1.068.690.322,https://maps.google.com/?cid=0x0:0xa959ffd5e6f8362d,
toko bangunan,toko bangunan,Mdona Hiera,"Kabupaten Maluku Barat Daya, Maluku","Kabupaten Maluku Barat Daya, Maluku",MALUKU,,Indonesia,,,,-8.220.481,1.289.146.087,https://maps.google.com/?cid=0x0:0x25adcbfa64b076cc,
toko bangunan,Toko Bahan Bangunan,Toko Duta Bangunan,"Jl. Danau Rana, Namlea, Kec. Namlea, Kabupaten Buru, Maluku","Kabupaten Buru, Maluku",MALUKU,,Indonesia,91322010.0,,,-3.269.268,1.271.034.228,https://maps.google.com/?cid=0x0:0x4d2e61629ea407b9,
toko bangunan,Toko,TOKO FAJAR MAS,"P3CX+R5Q, Namlea, Kec. Namlea, Kabupaten Buru, Maluku","Kabupaten Buru, Maluku",MALUKU,,Indonesia,81316222080.0,,,-32.779.017,1.270.979.019,https://maps.google.com/?cid=0x0:0xce7d9cbd242800a3,
toko bangunan,Toko bahan makanan,Toko Rudy Tepa,"4HJV+9F6, Tepa, Kec. Pulau-Pulau Babar, Kabupaten Maluku Barat Daya, Maluku","Kabupaten Maluku Barat Daya, Maluku",MALUKU,,Indonesia,8161999912.0,,,-78.690.925,129.593.647,https://maps.google.com/?cid=0x0:0x911e683a522b05fe,
toko bangunan,toko bangunan,Maluku,,Maluku,MALUKU,,Indonesia,,,,-32.384.616,1.301.452.734,https://maps.google.com/?cid=0x0:0x5e30e8db04649a51,
toko bangunan,Toko Bahan Bangunan,Toko Duta Bangunan,"Jl. Danau Rana, Namlea, Kec. Namlea, Kabupaten Buru, Maluku","Kabupaten Buru, Maluku",MALUKU,,Indonesia,91322010.0,,,-3.269.268,1.271.034.228,https://maps.google.com/?cid=0x0:0x4d2e61629ea407b9,
toko bangunan,Toko Bahan Bangunan,Toko bangunan Dinda Barokah,"P85C+XWC, Waihatu, Kec. Kairatu Bar., Kabupaten Seram Bagian Barat, Maluku","Kabupaten Seram Bagian Barat, Maluku",MALUKU,,Indonesia,81356194953.0,,,-32.900.692,1.283.222.692,https://maps.google.com/?cid=0x0:0x634ca5cb31d21d51,
toko bangunan,Toko,Toko Tunas Baru,"M966+FP8, Jl. Trans Seram, Waimital, Kec. Kairatu, Kabupaten Seram Bagian Barat, Maluku","Kabupaten Seram Bagian Barat, Maluku",MALUKU,,Indonesia,8161999912.0,,,-33.388.259,1.283.618.245,https://maps.google.com/?cid=0x0:0x20a66a8197b5b440,
toko bangunan,Toko Bahan Bangunan,Toko BANDA NAIRA,"tenggara, Jl. Fid, Fiditan, Kec. Pulau Dullah Utara, Kota Tual, Maluku","Kota Tual, Maluku",MALUKU,,Indonesia,91621539.0,,,-56.348.247,1.327.425.416,https://maps.google.com/?cid=0x0:0x7c2d6fd44077fb1d,
toko bangunan,Toko Perlengkapan Rumah,Toko Duta Bangunan,"Jl. A.R Unawekla, Bula, Kec. Bula, Kabupaten Seram Bagian Timur, Maluku","Kabupaten Seram Bagian Timur, Maluku",MALUKU,,Indonesia,81272987200.0,,,-31.021.843,1.304.885.667,https://maps.google.com/?cid=0x0:0x799165d536f28f53,
toko bangunan,Toko Bahan Bangunan,TOKO HDM,"9P8V+32H, Fiditan, Kec. Pulau Dullah Utara, Kota Tual, Maluku","Kota Tual, Maluku",MALUKU,,Indonesia,82378990826.0,,,-5.634.813,1.327.426.053,https://maps.google.com/?cid=0x0:0x4080eeaf668fb2a6,
toko bangunan,Toserba,Toko Bangunan Bintang Timur,"Kecil Atas, Jl. Wailola, Bula, Kec. Bula, Kabupaten Seram Bagian Timur, Maluku","Kabupaten Seram Bagian Timur, Maluku",MALUKU,,Indonesia,81316222080.0,,,-31.020.661,1.304.795.478,https://maps.google.com/?cid=0x0:0x4aef66ef96eb16a8,
toko bangunan,Toko Bahan Bangunan,Toko Bata/batako,"J9QC+8G8, Kairatu, Kec. Kairatu, Kabupaten Seram Bagian Barat, Maluku","Kabupaten Seram Bagian Barat, Maluku",MALUKU,,Indonesia,81316222080.0,,,-33.617.156,1.283.713.198,https://maps.google.com/?cid=0x0:0x481586af2d254d67,
toko bangunan,Toko Bahan Bangunan,TB Sinar Cahaya,"Jl. Balap Sepeda No.30 10, RT.10/RW.1, Rawamangun, Kec. Pulo Gadung, Kota Jakarta Timur, Daerah Khusus Ibukota Jakarta 13220","RT.10/RW.1, Rawamangun, Kec. Pulo Gadung, Kota Jakarta Timur",MALUKU,13220.0,Indonesia,2147863361.0,,,-61.890.407,1.068.912.825,https://maps.google.com/?cid=0x0:0x8e9d5d0d2cc7c859,
toko bangunan,Toko Bahan Bangunan,TB BERKAH,"Jl. Angkur No.2 17, RT.1/RW.3, Kayu Putih, Kec. Pulo Gadung, Kota Jakarta Timur, Daerah Khusus Ibukota Jakarta 13210","RT.1/RW.3, Kayu Putih, Kec. Pulo Gadung, Kota Jakarta Timur",MALUKU,13210.0,Indonesia,81996535396.0,,,-61.867.956,106.885.111,https://maps.google.com/?cid=0x0:0x5165473c9a6cfcc3,
toko bangunan,Toko Bahan Bangunan,Toko bangunan Dinda Barokah,"P85C+XWC, Waihatu, Kec. Kairatu Bar., Kabupaten Seram Bagian Barat, Maluku","Kabupaten Seram Bagian Barat, Maluku",MALUKU,,Indonesia,81356194953.0,,,-32.900.692,1.283.222.692,https://maps.google.com/?cid=0x0:0x634ca5cb31d21d51,
toko bangunan,Toko,Toko Tunas Baru,"M966+FP8, Jl. Trans Seram, Waimital, Kec. Kairatu, Kabupaten Seram Bagian Barat, Maluku","Kabupaten Seram Bagian Barat, Maluku",MALUKU,,Indonesia,8161999912.0,,,-33.388.259,1.283.618.245,https://maps.google.com/?cid=0x0:0x20a66a8197b5b440,
toko bangunan,toko bangunan,Pulau Wetar,"Kabupaten Maluku Barat Daya, Maluku","Kabupaten Maluku Barat Daya, Maluku",MALUKU,,Indonesia,,,,-77.851.588,1.263.498.097,https://maps.google.com/?cid=0x0:0x501150d5e877187,
toko bangunan,Toko,Kios Alat Bangunan,"W5J7+CP9, Wonreli, Kec. Pulau-pulau Terselatan, Kabupaten Maluku Barat Daya, Maluku","Kabupaten Maluku Barat Daya, Maluku",MALUKU,,Indonesia,81316222080.0,,,-80.684.155,1.271.654.363,https://maps.google.com/?cid=0x0:0xfd6cba6c64034466,
toko bangunan,Toko,Toko Makmur,"W5J7+CJW, Wonreli, Kec. Pulau-pulau Terselatan, Kabupaten Maluku Barat Daya, Maluku","Kabupaten Maluku Barat Daya, Maluku",MALUKU,,Indonesia,,,,-80.688.794,1.271.640.819,https://maps.google.com/?cid=0x0:0x4676f210f24be7ea,
toko bangunan,toko bangunan,Pulau Leti,"Luhulely, Kec. Pulau Letti, Kabupaten Maluku Barat Daya, Maluku","Kabupaten Maluku Barat Daya, Maluku",MALUKU,,Indonesia,,,,-8.2,1.276.833.333,https://maps.google.com/?cid=0x0:0xcaaf5b19de612073,
toko bangunan,Toko Bahan Bangunan,UD.NISKY SERAM DEPO BANGUNAN BULA,"WF4F+CH5, Bula, Kec. Bula, Kabupaten Seram Bagian Timur, Maluku","Kabupaten Seram Bagian Timur, Maluku",MALUKU,,Indonesia,82198535070.0,,,-30.939.921,1.304.739.724,https://maps.google.com/?cid=0x0:0xc38c7b6a3f0d1249,
toko bangunan,Toko Perlengkapan Rumah,Toko Bangunan Manusela,"Jl Manusela No.05, Sari Putih, Werinama, Kabupaten Seram Bagian Timur, Maluku","Kabupaten Seram Bagian Timur, Maluku",MALUKU,,Indonesia,83125236425.0,,,-34.233.267,1.302.271.243,https://maps.google.com/?cid=0x0:0xa3a109db57d60060,
toko bangunan,toko bangunan,Maluku,,Maluku,MALUKU,,Indonesia,,,,-32.384.616,1.301.452.734,https://maps.google.com/?cid=0x0:0x5e30e8db04649a51,
toko bangunan,Toko Bahan Bangunan,Toko bangunan UD ISHLAH,"Tlk., Poka, Kec. Tlk. Ambon, Kota Ambon, Maluku","Kota Ambon, Maluku",MALUKU,,Indonesia,85244808244.0,,,-36.478.274,1.281.934.164,https://maps.google.com/?cid=0x0:0x9ad95512c8471c0d,
toko bangunan,Toko,Toko Tunas Baru,"M966+FP8, Jl. Trans Seram, Waimital, Kec. Kairatu, Kabupaten Seram Bagian Barat, Maluku","Kabupaten Seram Bagian Barat, Maluku",MALUKU,,Indonesia,8161999912.0,,,-33.388.259,1.283.618.245,https://maps.google.com/?cid=0x0:0x20a66a8197b5b440,
toko bangunan,Toko Bahan Bangunan,Toko Sumber Mas (Toko Alat Bangunan) Termurah Di Kota Ambon,"852M+PR7, Jl. Yan Paays, Uritetu, Kec. Sirimau, Kota Ambon, Maluku","Kota Ambon, Maluku",MALUKU,,Indonesia,911342426.0,,,-36.982.201,1.281.845.433,https://maps.google.com/?cid=0x0:0xa06c0fcbbe266243,
toko bangunan,Toko Bahan Bangunan,TOKO ILHAM,"28R5+VPH, Unnamed Road, Sifnana, Tanimbar Sel., Kab. Kepulauan Tanimbar, Maluku","Kab. Kepulauan Tanimbar, Maluku",MALUKU,,Indonesia,83125236425.0,,,-79.578.237,1.313.093.484,https://maps.google.com/?cid=0x0:0xdc8ca2706d30ea1a,
toko bangunan,Minimarket,TOKO AMAL JAYA,"278V+WF6, Olilit, Tanimbar Sel., Kab. Kepulauan Tanimbar, Maluku","Kab. Kepulauan Tanimbar, Maluku",MALUKU,,Indonesia,82199324920.0,,,-79.836.129,1.312.936.666,https://maps.google.com/?cid=0x0:0xcb311d7ebcd8c172,
toko bangunan,Toko,Toko Cahaya Buton,"Olilit, Tanimbar Sel., Kab. Kepulauan Tanimbar, Maluku","Kab. Kepulauan Tanimbar, Maluku",MALUKU,,Indonesia,82199324920.0,,,-79.824.365,1.312.957.106,https://maps.google.com/?cid=0x0:0x70e9a7624be9ac83,
toko bangunan,toko bangunan,Aneka Teknik,"Ruko Yamdena Plaza, Jl. Mathilda Batlayeri No.11 Blok A No 9, Kecamatan, Tanimbar Sel., Kab. Kepulauan Tanimbar, Maluku 97471","Jl. Mathilda Batlayeri No.11 Blok A No 9, Kecamatan, Tanimbar Sel., Kab. Kepulauan Tanimbar",MALUKU,97471.0,Indonesia,81356537291.0,,,-79.825.994,131.296.232,https://maps.google.com/?cid=0x0:0x6ea3ba9c7a220db5,
toko bangunan,Toko Bahan Bangunan,Toko Bangunan JAYA MAS - Jombang Raya,"Jl. Jombang Raya No.102, Pd. Pucung, Kec. Pd. Aren, Kota Tangerang Selatan, Banten 15414","Pd. Pucung, Kec. Pd. Aren, Kota Tangerang Selatan",MALUKU,15414.0,Indonesia,2174863106.0,,,-62.855.365,1.067.022.708,https://maps.google.com/?cid=0x0:0x8d159bd5eb79c7ea,
toko bangunan,Toko Perlengkapan Rumah,Mega Matahari,"Jl. Laksa 4 No.36-38, Jemb. Lima, Kec. Tambora, Kota Jakarta Barat, Daerah Khusus Ibukota Jakarta 11220","Jemb. Lima, Kec. Tambora, Kota Jakarta Barat",MALUKU,11220.0,Indonesia,82298888142.0,,,-61.431.649,106.805.725,https://maps.google.com/?cid=0x0:0x50253ac7418e6682,
toko bangunan,Grosir Perlengkapan Rumah Tangga,PT Sinar Indah Mentari Sentosa (PT SIMS),"Jl. Laksa 4 No.38, Jemb. Lima, Kec. Tambora, Kota Jakarta Barat, Daerah Khusus Ibukota Jakarta 11220","Jemb. Lima, Kec. Tambora, Kota Jakarta Barat",MALUKU,11220.0,Indonesia,82288888389.0,,,-61.431.957,1.068.055.913,https://maps.google.com/?cid=0x0:0x2816367b70902a70,
toko bangunan,Toko Bahan Bangunan,Toko Duta Bangunan,"Jl. Danau Rana, Namlea, Kec. Namlea, Kabupaten Buru, Maluku","Kabupaten Buru, Maluku",MALUKU,,Indonesia,91322010.0,,,-3.269.268,1.271.034.228,https://maps.google.com/?cid=0x0:0x4d2e61629ea407b9,
toko bangunan,Toko,TOKO FAJAR MAS,"P3CX+R5Q, Namlea, Kec. Namlea, Kabupaten Buru, Maluku","Kabupaten Buru, Maluku",MALUKU,,Indonesia,81316222080.0,,,-32.779.017,1.270.979.019,https://maps.google.com/?cid=0x0:0xce7d9cbd242800a3,
toko bangunan,Toko bahan makanan,Toko Rudy Tepa,"4HJV+9F6, Tepa, Kec. Pulau-Pulau Babar, Kabupaten Maluku Barat Daya, Maluku","Kabupaten Maluku Barat Daya, Maluku",MALUKU,,Indonesia,8161999912.0,,,-78.690.925,129.593.647,https://maps.google.com/?cid=0x0:0x911e683a522b05fe,
toko bangunan,Pasar,TOKO HAKI MURAH TEPA,"Tepa, Kec. Pulau-Pulau Babar, Kabupaten Maluku Barat Daya, Maluku","Kabupaten Maluku Barat Daya, Maluku",MALUKU,,Indonesia,81336508235.0,,,-78.724.537,1.295.924.286,https://maps.google.com/?cid=0x0:0x2e276e7e0aac6f7d,
toko bangunan,toko bangunan,Maluku,,Maluku,MALUKU,,Indonesia,,,,-32.384.616,1.301.452.734,https://maps.google.com/?cid=0x0:0x5e30e8db04649a51,
toko bangunan,Toko,Toko Tunas Baru,"M966+FP8, Jl. Trans Seram, Waimital, Kec. Kairatu, Kabupaten Seram Bagian Barat, Maluku","Kabupaten Seram Bagian Barat, Maluku",MALUKU,,Indonesia,8161999912.0,,,-33.388.259,1.283.618.245,https://maps.google.com/?cid=0x0:0x20a66a8197b5b440,
toko bangunan,Toko Bahan Bangunan,TOKO ILHAM,"28R5+VPH, Unnamed Road, Sifnana, Tanimbar Sel., Kab. Kepulauan Tanimbar, Maluku","Kab. Kepulauan Tanimbar, Maluku",MALUKU,,Indonesia,83125236425.0,,,-79.578.237,1.313.093.484,https://maps.google.com/?cid=0x0:0xdc8ca2706d30ea1a,
toko bangunan,Minimarket,TOKO AMAL JAYA,"278V+WF6, Olilit, Tanimbar Sel., Kab. Kepulauan Tanimbar, Maluku","Kab. Kepulauan Tanimbar, Maluku",MALUKU,,Indonesia,82199324920.0,,,-79.836.129,1.312.936.666,https://maps.google.com/?cid=0x0:0xcb311d7ebcd8c172,
toko bangunan,Toko,Toko Cahaya Buton,"Olilit, Tanimbar Sel., Kab. Kepulauan Tanimbar, Maluku","Kab. Kepulauan Tanimbar, Maluku",MALUKU,,Indonesia,82199324920.0,,,-79.824.365,1.312.957.106,https://maps.google.com/?cid=0x0:0x70e9a7624be9ac83,
toko bangunan,Toko Bahan Bangunan,Makmur Utama Supermarket Bahan Bangunan,"Jambula, Kec. Pulau Ternate, Kota Ternate, Maluku Utara","Kota Ternate, Maluku Utara",MALUKU,,Indonesia,8114313899.0,,,0.7581804,1.273.220.409,https://maps.google.com/?cid=0x0:0xe3a01731f7851efa,
toko bangunan,toko bangunan,Aneka Teknik,"Ruko Yamdena Plaza, Jl. Mathilda Batlayeri No.11 Blok A No 9, Kecamatan, Tanimbar Sel., Kab. Kepulauan Tanimbar, Maluku 97471","Jl. Mathilda Batlayeri No.11 Blok A No 9, Kecamatan, Tanimbar Sel., Kab. Kepulauan Tanimbar",MALUKU,97471.0,Indonesia,81356537291.0,,,-79.825.994,131.296.232,https://maps.google.com/?cid=0x0:0x6ea3ba9c7a220db5,
toko bangunan,Pembangunan Perumahan,Paving blok hexagonal,"6653+35, Durjela, Kec. Pulau-Pulau Aru, Kabupaten Kepulauan Aru, Maluku","Kabupaten Kepulauan Aru, Maluku",MALUKU,,Indonesia,81343255800.0,,,-579.229,134.202.885,https://maps.google.com/?cid=0x0:0xe9a272c290a1df39,
toko bangunan,Toko Bahan Bangunan,Toko Bangunan Hari-hari,"Jl. Mandala Utara No.21, RT.17/RW.4, Tomang, Kec. Grogol petamburan, Kota Jakarta Barat, Daerah Khusus Ibukota Jakarta 11440","RT.17/RW.4, Tomang, Kec. Grogol petamburan, Kota Jakarta Barat",MALUKU,11440.0,Indonesia,215642893.0,,,-61.721.247,1.067.983.298,https://maps.google.com/?cid=0x0:0x91aa30314dd11ef,
toko bangunan,Toko Bahan Bangunan,Toko Bangunan Mahkota Jaya,"13, Jl. Tomang Tinggi Raya No.43, RT.13/RW.7, Tomang, Kec. Grogol petamburan, Kota Jakarta Barat, Daerah Khusus Ibukota Jakarta 11440","Jl. Tomang Tinggi Raya No.43, RT.13/RW.7, Tomang, Kec. Grogol petamburan, Kota Jakarta Barat",MALUKU,11440.0,Indonesia,215606769.0,,,-6.171.893,1.067.957.951,https://maps.google.com/?cid=0x0:0xdf91e3e0700c97ca,
toko bangunan,Toko bahan makanan,Agen cemerlang,"Jl. Tomang Utara No.2, RT.5/RW.10, Tomang, Kec. Grogol petamburan, Kota Jakarta Barat, Daerah Khusus Ibukota Jakarta 11440","RT.5/RW.10, Tomang, Kec. Grogol petamburan, Kota Jakarta Barat",MALUKU,11440.0,Indonesia,,,,-61.700.008,1.068.002.348,https://maps.google.com/?cid=0x0:0xe897532a4a150b49,
toko bangunan,toko bangunan,Maluku,,Maluku,MALUKU,,Indonesia,,,,-32.384.616,1.301.452.734,https://maps.google.com/?cid=0x0:0x5e30e8db04649a51,
toko bangunan,Toko Bahan Bangunan,Toko Duta Bangunan,"Jl. Danau Rana, Namlea, Kec. Namlea, Kabupaten Buru, Maluku","Kabupaten Buru, Maluku",MALUKU,,Indonesia,91322010.0,,,-3.269.268,1.271.034.228,https://maps.google.com/?cid=0x0:0x4d2e61629ea407b9,
toko bangunan,Toko Bahan Bangunan,Toko Platinum,"9Q33+23V, Taar, Pulau Dullah Sel., Kota Tual, Maluku","Kota Tual, Maluku",MALUKU,,Indonesia,91623959.0,,,-56.473.959,132.752.685,https://maps.google.com/?cid=0x0:0x5243a3d0d523d49e,
toko bangunan,Toko Bahan Bangunan,Toko BANDA NAIRA,"tenggara, Jl. Fid, Fiditan, Kec. Pulau Dullah Utara, Kota Tual, Maluku","Kota Tual, Maluku",MALUKU,,Indonesia,91621539.0,,,-56.348.247,1.327.425.416,https://maps.google.com/?cid=0x0:0x7c2d6fd44077fb1d,
toko bangunan,Minimarket,TOKO AMAL JAYA,"278V+WF6, Olilit, Tanimbar Sel., Kab. Kepulauan Tanimbar, Maluku","Kab. Kepulauan Tanimbar, Maluku",MALUKU,,Indonesia,82199324920.0,,,-79.836.129,1.312.936.666,https://maps.google.com/?cid=0x0:0xcb311d7ebcd8c172,
toko bangunan,Toko,Toko Cahaya Buton,"Olilit, Tanimbar Sel., Kab. Kepulauan Tanimbar, Maluku","Kab. Kepulauan Tanimbar, Maluku",MALUKU,,Indonesia,82199324920.0,,,-79.824.365,1.312.957.106,https://maps.google.com/?cid=0x0:0x70e9a7624be9ac83,
toko bangunan,Toko Perlengkapan Rumah,Toko subhan,"9QC5+M3R, Kel. Lodar El, Pulau Dullah Sel., Kota Tual, Maluku","Kota Tual, Maluku",MALUKU,,Indonesia,87861101462.0,,,-56.282.552,1.327.576.479,https://maps.google.com/?cid=0x0:0x66a03758835bbb9c,
toko bangunan,toko bangunan,Aneka Teknik,"Ruko Yamdena Plaza, Jl. Mathilda Batlayeri No.11 Blok A No 9, Kecamatan, Tanimbar Sel., Kab. Kepulauan Tanimbar, Maluku 97471","Jl. Mathilda Batlayeri No.11 Blok A No 9, Kecamatan, Tanimbar Sel., Kab. Kepulauan Tanimbar",MALUKU,97471.0,Indonesia,81356537291.0,,,-79.825.994,131.296.232,https://maps.google.com/?cid=0x0:0x6ea3ba9c7a220db5,
toko bangunan,toko bangunan,Toko bintang Timur,"RQVR+M44, Wakarleli, Kec. Moa Lakor, Kabupaten Maluku Barat Daya, Maluku","Kabupaten Maluku Barat Daya, Maluku",MALUKU,,Indonesia,82339718701.0,,,-81.558.625,1.277.903.281,https://maps.google.com/?cid=0x0:0xd4611860fec843ab,
toko bangunan,toko bangunan,Kec. Pulau Lakor,"Kabupaten Maluku Barat Daya, Maluku","Kabupaten Maluku Barat Daya, Maluku",MALUKU,,Indonesia,,,,-82.210.132,1.282.223.532,https://maps.google.com/?cid=0x0:0x753bbbe0b8b3d34a,
toko bangunan,Toko Bahan Bangunan,Toko Duta Bangunan,"Jl. Danau Rana, Namlea, Kec. Namlea, Kabupaten Buru, Maluku","Kabupaten Buru, Maluku",MALUKU,,Indonesia,91322010.0,,,-3.269.268,1.271.034.228,https://maps.google.com/?cid=0x0:0x4d2e61629ea407b9,
toko bangunan,Toko,TOKO FAJAR MAS,"P3CX+R5Q, Namlea, Kec. Namlea, Kabupaten Buru, Maluku","Kabupaten Buru, Maluku",MALUKU,,Indonesia,81316222080.0,,,-32.779.017,1.270.979.019,https://maps.google.com/?cid=0x0:0xce7d9cbd242800a3,
toko bangunan,Toko Bahan Bangunan,Toko Bangunan Hari-hari,"Jl. Mandala Utara No.21, RT.17/RW.4, Tomang, Kec. Grogol petamburan, Kota Jakarta Barat, Daerah Khusus Ibukota Jakarta 11440","RT.17/RW.4, Tomang, Kec. Grogol petamburan, Kota Jakarta Barat",MALUKU,11440.0,Indonesia,215642893.0,,,-61.721.247,1.067.983.298,https://maps.google.com/?cid=0x0:0x91aa30314dd11ef,
toko bangunan,Toko bahan makanan,Agen cemerlang,"Jl. Tomang Utara No.2, RT.5/RW.10, Tomang, Kec. Grogol petamburan, Kota Jakarta Barat, Daerah Khusus Ibukota Jakarta 11440","RT.5/RW.10, Tomang, Kec. Grogol petamburan, Kota Jakarta Barat",MALUKU,11440.0,Indonesia,,,,-61.700.008,1.068.002.348,https://maps.google.com/?cid=0x0:0xe897532a4a150b49,
toko bangunan,toko bangunan,Kec. Wetar Barat,"Kabupaten Maluku Barat Daya, Maluku","Kabupaten Maluku Barat Daya, Maluku",MALUKU,,Indonesia,,,,-80.144.036,1.257.627.423,https://maps.google.com/?cid=0x0:0x1b539445f25c7d62,
toko bangunan,toko bangunan,Maluku,,Maluku,MALUKU,,Indonesia,,,,-32.384.616,1.301.452.734,https://maps.google.com/?cid=0x0:0x5e30e8db04649a51,
toko bangunan,Toko Bahan Bangunan,Toko Duta Bangunan,"Jl. Danau Rana, Namlea, Kec. Namlea, Kabupaten Buru, Maluku","Kabupaten Buru, Maluku",MALUKU,,Indonesia,91322010.0,,,-3.269.268,1.271.034.228,https://maps.google.com/?cid=0x0:0x4d2e61629ea407b9,
toko bangunan,Toko Perlengkapan Rumah,Toko Duta Bangunan,"Jl. A.R Unawekla, Bula, Kec. Bula, Kabupaten Seram Bagian Timur, Maluku","Kabupaten Seram Bagian Timur, Maluku",MALUKU,,Indonesia,81272987200.0,,,-31.021.843,1.304.885.667,https://maps.google.com/?cid=0x0:0x799165d536f28f53,
toko bangunan,Toko Bahan Bangunan,Toko Bangunan Lestari Baru,"Waihatu, Kec. Kairatu Bar., Kabupaten Seram Bagian Barat, Maluku","Kabupaten Seram Bagian Barat, Maluku",MALUKU,,Indonesia,82238832490.0,,,-32.864.381,1.283.222.819,https://maps.google.com/?cid=0x0:0xb14d86a65046c260,
toko bangunan,Toko,Toko Tunas Baru,"M966+FP8, Jl. Trans Seram, Waimital, Kec. Kairatu, Kabupaten Seram Bagian Barat, Maluku","Kabupaten Seram Bagian Barat, Maluku",MALUKU,,Indonesia,8161999912.0,,,-33.388.259,1.283.618.245,https://maps.google.com/?cid=0x0:0x20a66a8197b5b440,
toko bangunan,Toko,Toko Bangunan Arwita,"MXX6+GHC, Namaelo, Kec. Kota Masohi, Kabupaten Maluku Tengah, Maluku 97511","Namaelo, Kec. Kota Masohi, Kabupaten Maluku Tengah",MALUKU,97511.0,Indonesia,81617551247.0,,,-33.010.685,1.289.615.304,https://maps.google.com/?cid=0x0:0xdef06f0ebfce3c,
toko bangunan,,Aneka Bangunan,"HMRR+HR7, Tomalehu, Kec. Amalatu, Kabupaten Seram Bagian Barat, Maluku","Kabupaten Seram Bagian Barat, Maluku",MALUKU,,Indonesia,81316222080.0,,,-34.086.133,1.286.919.824,https://maps.google.com/?cid=0x0:0xce54d8093551ed41,
toko bangunan,Toko Bahan Bangunan,Toko BANDA NAIRA,"tenggara, Jl. Fid, Fiditan, Kec. Pulau Dullah Utara, Kota Tual, Maluku","Kota Tual, Maluku",MALUKU,,Indonesia,91621539.0,,,-56.348.247,1.327.425.416,https://maps.google.com/?cid=0x0:0x7c2d6fd44077fb1d,
toko bangunan,Toko Bahan Bangunan,Toko Bangunan - RAHMAT,"859X+7HP, Batu Merah, Kec. Sirimau, Kota Ambon, Maluku","Kota Ambon, Maluku",MALUKU,,Indonesia,83869209619.0,,,-36.817.576,1.281.989.022,https://maps.google.com/?cid=0x0:0xd53fe0e01cb87a6d,
toko bangunan,Toko Bahan Bangunan,Eka Pratama,"JWQV+6P5, Luhu, Kec. Huamual Belakang, Kabupaten Seram Bagian Barat, Maluku","Kabupaten Seram Bagian Barat, Maluku",MALUKU,,Indonesia,8161999912.0,,,-33.619.763,1.279.443.737,https://maps.google.com/?cid=0x0:0x9297fa79318e74fa,
toko bangunan,Toko Bahan Bangunan,Toko Bata/batako,"J9QC+8G8, Kairatu, Kec. Kairatu, Kabupaten Seram Bagian Barat, Maluku","Kabupaten Seram Bagian Barat, Maluku",MALUKU,,Indonesia,81316222080.0,,,-33.617.156,1.283.713.198,https://maps.google.com/?cid=0x0:0x481586af2d254d67,
toko bangunan,Toko Bahan Bangunan,TOKO ILHAM,"28R5+VPH, Unnamed Road, Sifnana, Tanimbar Sel., Kab. Kepulauan Tanimbar, Maluku","Kab. Kepulauan Tanimbar, Maluku",MALUKU,,Indonesia,83125236425.0,,,-79.578.237,1.313.093.484,https://maps.google.com/?cid=0x0:0xdc8ca2706d30ea1a,
toko bangunan,Toko,Toko Cahaya Buton,"Olilit, Tanimbar Sel., Kab. Kepulauan Tanimbar, Maluku","Kab. Kepulauan Tanimbar, Maluku",MALUKU,,Indonesia,82199324920.0,,,-79.824.365,1.312.957.106,https://maps.google.com/?cid=0x0:0x70e9a7624be9ac83,
toko bangunan,Minimarket,TOKO AMAL JAYA,"278V+WF6, Olilit, Tanimbar Sel., Kab. Kepulauan Tanimbar, Maluku","Kab. Kepulauan Tanimbar, Maluku",MALUKU,,Indonesia,82199324920.0,,,-79.836.129,1.312.936.666,https://maps.google.com/?cid=0x0:0xcb311d7ebcd8c172,
toko bangunan,Toko,Toko Rifky Jkt Bru,"P385+MC7, Lokki, Kec. Huamual Belakang, Kabupaten Seram Bagian Barat, Maluku","Kabupaten Seram Bagian Barat, Maluku",MALUKU,,Indonesia,82378990826.0,,,-32.833.419,1.280.585.336,https://maps.google.com/?cid=0x0:0xfc53f32c414a25a3,
toko bangunan,toko bangunan,Toko bangunan,"M994+PJG, Waimital, Kec. Kairatu, Kabupaten Seram Bagian Barat, Maluku","Kabupaten Seram Bagian Barat, Maluku",MALUKU,,Indonesia,,,,-33.306.794,1.283.565.723,https://maps.google.com/?cid=0x0:0x24639d7d98e3c1a9,
toko bangunan,toko bangunan,Aneka Teknik,"Ruko Yamdena Plaza, Jl. Mathilda Batlayeri No.11 Blok A No 9, Kecamatan, Tanimbar Sel., Kab. Kepulauan Tanimbar, Maluku 97471","Jl. Mathilda Batlayeri No.11 Blok A No 9, Kecamatan, Tanimbar Sel., Kab. Kepulauan Tanimbar",MALUKU,97471.0,Indonesia,81356537291.0,,,-79.825.994,131.296.232,https://maps.google.com/?cid=0x0:0x6ea3ba9c7a220db5,
toko bangunan,Toko Bahan Bangunan,Toko Bangunan Alam Makmur,"Jl. H. Nawi Raya No.23, RT.7/RW.7, Gandaria Utara, Kec. Kby. Baru, Kota Jakarta Selatan, Daerah Khusus Ibukota Jakarta 12140","RT.7/RW.7, Gandaria Utara, Kec. Kby. Baru, Kota Jakarta Selatan",MALUKU,12140.0,Indonesia,217250363.0,,,-62.640.276,1.067.930.342,https://maps.google.com/?cid=0x0:0x3d1c3ae18a99bca0,
toko bangunan,Toko Bahan Bangunan,Toko Bangunan Alam Makmur,"Jl. Karbela Barat Jl. Karet Belakang Barat No.7, Kuningan, Karet, Kecamatan Setiabudi, Kota Jakarta Selatan, Daerah Khusus Ibukota Jakarta 12920","Kuningan, Karet, Kecamatan Setiabudi, Kota Jakarta Selatan",MALUKU,12920.0,Indonesia,85174458168.0,,,-62.150.307,1.068.257.246,https://maps.google.com/?cid=0x0:0x401d10d91f85a554,
toko bangunan,toko bangunan,Maluku,,Maluku,MALUKU,,Indonesia,,,,-32.384.616,1.301.452.734,https://maps.google.com/?cid=0x0:0x5e30e8db04649a51,
toko bangunan,Toko Bahan Bangunan,Toko Duta Bangunan,"Jl. Danau Rana, Namlea, Kec. Namlea, Kabupaten Buru, Maluku","Kabupaten Buru, Maluku",MALUKU,,Indonesia,91322010.0,,,-3.269.268,1.271.034.228,https://maps.google.com/?cid=0x0:0x4d2e61629ea407b9,
toko bangunan,Toko,Toko Serba Bangunan Ambon,"Jl. Philip Latumahina No.10, Kel Honipopu, Kec. Sirimau, Kota Ambon, Maluku","Kota Ambon, Maluku",MALUKU,,Indonesia,81283093876.0,,,-3.696.513,1.281.813.331,https://maps.google.com/?cid=0x0:0x38f3a5a63eb288ff,
toko bangunan,Toko Bahan Bangunan,CV. NESSTA AMBON( Cat  Bahan Bangunan ),"86XJ+7HQ, Jl. Wolter Monginsidi, Lateri, Kec. Baguala, Kota Ambon, Maluku 97112","Jl. Wolter Monginsidi, Lateri, Kec. Baguala, Kota Ambon",MALUKU,97112.0,Indonesia,911356394.0,,,-3.651.793,128.231.489,https://maps.google.com/?cid=0x0:0x826e5740b2e0ac2f,
toko bangunan,Toko Bahan Bangunan,Toko Bangunan Lestari Baru,"Waihatu, Kec. Kairatu Bar., Kabupaten Seram Bagian Barat, Maluku","Kabupaten Seram Bagian Barat, Maluku",MALUKU,,Indonesia,82238832490.0,,,-32.864.381,1.283.222.819,https://maps.google.com/?cid=0x0:0xb14d86a65046c260,
toko bangunan,Toko Bahan Bangunan,Toko bangunan Dinda Barokah,"P85C+XWC, Waihatu, Kec. Kairatu Bar., Kabupaten Seram Bagian Barat, Maluku","Kabupaten Seram Bagian Barat, Maluku",MALUKU,,Indonesia,81356194953.0,,,-32.900.692,1.283.222.692,https://maps.google.com/?cid=0x0:0x634ca5cb31d21d51,
toko bangunan,Toserba,Toko Bangunan Bintang Timur,"Kecil Atas, Jl. Wailola, Bula, Kec. Bula, Kabupaten Seram Bagian Timur, Maluku","Kabupaten Seram Bagian Timur, Maluku",MALUKU,,Indonesia,81316222080.0,,,-31.020.661,1.304.795.478,https://maps.google.com/?cid=0x0:0x4aef66ef96eb16a8,
toko bangunan,Toko Bahan Bangunan,Toko Bangunan Utama,"Jl. Karel Satsuitubun Batugong, Ambon, Passo, Kec. Baguala, Kota Ambon, Maluku 97232","Ambon, Passo, Kec. Baguala, Kota Ambon",MALUKU,97232.0,Indonesia,85102851565.0,,,-36.377.789,1.282.574.061,https://maps.google.com/?cid=0x0:0x7640e512aa59b277,
toko bangunan,Toko,Toko Tunas Baru,"M966+FP8, Jl. Trans Seram, Waimital, Kec. Kairatu, Kabupaten Seram Bagian Barat, Maluku","Kabupaten Seram Bagian Barat, Maluku",MALUKU,,Indonesia,8161999912.0,,,-33.388.259,1.283.618.245,https://maps.google.com/?cid=0x0:0x20a66a8197b5b440,
toko bangunan,Toko Bahan Bangunan,Toko BANDA NAIRA,"tenggara, Jl. Fid, Fiditan, Kec. Pulau Dullah Utara, Kota Tual, Maluku","Kota Tual, Maluku",MALUKU,,Indonesia,91621539.0,,,-56.348.247,1.327.425.416,https://maps.google.com/?cid=0x0:0x7c2d6fd44077fb1d,
toko bangunan,Toko Bahan Bangunan,Eka Pratama,"JWQV+6P5, Luhu, Kec. Huamual Belakang, Kabupaten Seram Bagian Barat, Maluku","Kabupaten Seram Bagian Barat, Maluku",MALUKU,,Indonesia,8161999912.0,,,-33.619.763,1.279.443.737,https://maps.google.com/?cid=0x0:0x9297fa79318e74fa,
toko bangunan,Toko Bahan Bangunan,toko kei bahan bangunan,"HXJC+XXW, Jl. Propinsi, Bemo, Werinama, Kabupaten Seram Bagian Timur, Maluku","Kabupaten Seram Bagian Timur, Maluku",MALUKU,,Indonesia,85299873874.0,,,-33.492.375,1.299.519.197,https://maps.google.com/?cid=0x0:0x1218f1c4ce74ce62,
toko bangunan,Toko Bahan Bangunan,Toko Bangunan - RAHMAT,"859X+7HP, Batu Merah, Kec. Sirimau, Kota Ambon, Maluku","Kota Ambon, Maluku",MALUKU,,Indonesia,83869209619.0,,,-36.817.576,1.281.989.022,https://maps.google.com/?cid=0x0:0xd53fe0e01cb87a6d,
toko bangunan,Toko Bahan Bangunan,TOKO HDM,"9P8V+32H, Fiditan, Kec. Pulau Dullah Utara, Kota Tual, Maluku","Kota Tual, Maluku",MALUKU,,Indonesia,82378990826.0,,,-5.634.813,1.327.426.053,https://maps.google.com/?cid=0x0:0x4080eeaf668fb2a6,
toko bangunan,Toko Bahan Bangunan,Toko Sumber Mas (Toko Alat Bangunan) Termurah Di Kota Ambon,"852M+PR7, Jl. Yan Paays, Uritetu, Kec. Sirimau, Kota Ambon, Maluku","Kota Ambon, Maluku",MALUKU,,Indonesia,911342426.0,,,-36.982.201,1.281.845.433,https://maps.google.com/?cid=0x0:0xa06c0fcbbe266243,
toko bangunan,Toko Bahan Bangunan,Toko Bata/batako,"J9QC+8G8, Kairatu, Kec. Kairatu, Kabupaten Seram Bagian Barat, Maluku","Kabupaten Seram Bagian Barat, Maluku",MALUKU,,Indonesia,81316222080.0,,,-33.617.156,1.283.713.198,https://maps.google.com/?cid=0x0:0x481586af2d254d67,
toko bangunan,Toko,Toko Rifky Jkt Bru,"P385+MC7, Lokki, Kec. Huamual Belakang, Kabupaten Seram Bagian Barat, Maluku","Kabupaten Seram Bagian Barat, Maluku",MALUKU,,Indonesia,82378990826.0,,,-32.833.419,1.280.585.336,https://maps.google.com/?cid=0x0:0xfc53f32c414a25a3,
toko bangunan,Toko Perlengkapan Rumah,Toko Bangun Bintang Timur,"M965+7HC, Waimital, Kec. Kairatu, Kabupaten Seram Bagian Barat, Maluku","Kabupaten Seram Bagian Barat, Maluku",MALUKU,,Indonesia,81356015298.0,,,-33.393.218,1.283.589.023,https://maps.google.com/?cid=0x0:0x4b850a79fd1e21e1,
toko bangunan,Toko Bahan Bangunan,TOKO ILHAM,"28R5+VPH, Unnamed Road, Sifnana, Tanimbar Sel., Kab. Kepulauan Tanimbar, Maluku","Kab. Kepulauan Tanimbar, Maluku",MALUKU,,Indonesia,83125236425.0,,,-79.578.237,1.313.093.484,https://maps.google.com/?cid=0x0:0xdc8ca2706d30ea1a,
toko bangunan,Toko,Toko Cahaya Buton,"Olilit, Tanimbar Sel., Kab. Kepulauan Tanimbar, Maluku","Kab. Kepulauan Tanimbar, Maluku",MALUKU,,Indonesia,82199324920.0,,,-79.824.365,1.312.957.106,https://maps.google.com/?cid=0x0:0x70e9a7624be9ac83,
toko bangunan,Toko Bahan Bangunan,"Toko Besi dan Bangunan Hidayah""""","HWQJ+WRV, Trans Buru Mako-Modaumohe, Waegeren, Kec. Waeapo, Kabupaten Buru, Maluku","Kabupaten Buru, Maluku",MALUKU,,Indonesia,82238719115.0,,,-3.410.132,1.269.320.456,https://maps.google.com/?cid=0x0:0x120a46875d558939,
toko bangunan,Toko Bahan Bangunan,Toko Aneka Guna Rumah Tiga,"Unnamed Road, Rumah Tiga, Kec. Tlk. Ambon, Kota Ambon, Maluku","Kota Ambon, Maluku",MALUKU,,Indonesia,82397301030.0,,,-3.660.478,1.281.926.583,https://maps.google.com/?cid=0x0:0x370ddbc5c103c9e,
toko bangunan,Toko Karpet,Toko Sumber Berkat,"Jl. W.R. Supratman No.19, Uritetu, Kec. Sirimau, Kota Ambon, Maluku 97124","Uritetu, Kec. Sirimau, Kota Ambon",MALUKU,97124.0,Indonesia,81344850907.0,,,-36.932.047,1.281.849.976,https://maps.google.com/?cid=0x0:0x7894d5a241022137,
toko bangunan,Pemasok Bahan Bangunan,Toko Aneka Guna Passo,"Passo, Kec. Baguala, Kota Ambon, Maluku","Kota Ambon, Maluku",MALUKU,,Indonesia,82397301030.0,,,-36.331.734,1.282.504.202,https://maps.google.com/?cid=0x0:0xae7002ec9b542f86,
toko bangunan,Toko Bahan Bangunan,Toko Bangunan MITRA TAN,"97MF+8VH NO WA OI54O54249, Suli, Kec. Salahutu, Kabupaten Maluku Tengah, Maluku","Kabupaten Maluku Tengah, Maluku",MALUKU,,Indonesia,81343488879.0,,,-36.166.875,1.282.747.344,https://maps.google.com/?cid=0x0:0x55252b65239f9a78,
toko bangunan,Toko Bahan Bangunan,MJB Supermarket Bahan Bangunan,"Jl. Surotokunto No.5, Adiarsa Tim., Kec. Karawang Tim., Karawang, Jawa Barat 41314","Adiarsa Tim., Kec. Karawang Tim., Karawang",MALUKU,41314.0,Indonesia,8111236000.0,,,-63.130.246,1.073.194.823,https://maps.google.com/?cid=0x0:0x53af2daaf487c594,
toko bangunan,Toko Bahan Bangunan,Tan Mart,"Jl. Surotokunto No.58, Adiarsa Tim., Kec. Karawang Tim., Karawang, Jawa Barat 41311","Adiarsa Tim., Kec. Karawang Tim., Karawang",MALUKU,41311.0,Indonesia,8111972544.0,,,-6.312.889,107.318.714,https://maps.google.com/?cid=0x0:0xf4402de18523ac36,
toko bangunan,Toko Bahan Bangunan,Toko Duta Bangunan,"Jl. Danau Rana, Namlea, Kec. Namlea, Kabupaten Buru, Maluku","Kabupaten Buru, Maluku",MALUKU,,Indonesia,91322010.0,,,-3.269.268,1.271.034.228,https://maps.google.com/?cid=0x0:0x4d2e61629ea407b9,
toko bangunan,Toko,TOKO FAJAR MAS,"P3CX+R5Q, Namlea, Kec. Namlea, Kabupaten Buru, Maluku","Kabupaten Buru, Maluku",MALUKU,,Indonesia,81316222080.0,,,-32.779.017,1.270.979.019,https://maps.google.com/?cid=0x0:0xce7d9cbd242800a3,
toko bangunan,Pasar bahan bangunan,Toko Intisari2,"PHRH+XHX, Jl. Hijra, Galala, Oba Utara, Kota Tidore Kepulauan, Maluku Utara","Kota Tidore Kepulauan, Maluku Utara",MALUKU,,Indonesia,8124751378.0,,,0.7424771,1.275.789.924,https://maps.google.com/?cid=0x0:0x25129a2cfa046c97,
toko bangunan,toko bangunan,Kisar Utara,"Kabupaten Maluku Barat Daya, Maluku","Kabupaten Maluku Barat Daya, Maluku",MALUKU,,Indonesia,,,,-80.292.578,127.168.746,https://maps.google.com/?cid=0x0:0x28782aba3b9982ea,
hardware store,Pasar,Kurnia Gorden,"Pasar tiakur no 31B, Kec. Moa Lakor, Kabupaten Maluku Barat Daya, Maluku 97442","Kec. Moa Lakor, Kabupaten Maluku Barat Daya",MALUKU,97442.0,Indonesia,81333317808.0,,,-81.495.109,1.277.943.866,https://maps.google.com/?cid=0x0:0x8e256dfb0b8bfc38,
hardware store,Pemasok dan pembuat gorden,Mitra jaya gordyn  dekorasi tenda,"Wakarleli, Kec. Moa Lakor, Kabupaten Maluku Barat Daya, Maluku","Kabupaten Maluku Barat Daya, Maluku",MALUKU,,Indonesia,82116359569.0,,,-81.531.668,1.277.923.416,https://maps.google.com/?cid=0x0:0x383c6d14f199a414,
hardware store,hardware store,Kec. Moa Lakor,"Kabupaten Maluku Barat Daya, Maluku","Kabupaten Maluku Barat Daya, Maluku",MALUKU,,Indonesia,,,,-81.550.646,1.277.912.166,https://maps.google.com/?cid=0x0:0xdad6338040993a27,
hardware store,hardware store,Mdona Hiera,"Kabupaten Maluku Barat Daya, Maluku","Kabupaten Maluku Barat Daya, Maluku",MALUKU,,Indonesia,,,,-8.220.481,1.289.146.087,https://maps.google.com/?cid=0x0:0x25adcbfa64b076cc,
hardware store,Komplek perumahan,HIERA - THE HEARTLAND OF BSD CITY,"Jl. Raya Kadusirung, Kadu Sirung, Kec. Pagedangan, Kabupaten Tangerang, Banten 15336","Kadu Sirung, Kec. Pagedangan, Kabupaten Tangerang",MALUKU,15336.0,Indonesia,2150519988.0,,,-63.280.415,1.066.058.635,https://maps.google.com/?cid=0x0:0xddd1e2da090be5e6,
hardware store,Toko Swalayan,8BIT SUPERSTORE BSD,"Zone DE Blok D 21D22, Eastvara Mall, Jl. BSD Boulevard Utara No.21 Ground Level, Blok SB 01, Cijantra, Kec. Pagedangan, Kabupaten Tangerang, Banten 15345","Eastvara Mall, Jl. BSD Boulevard Utara No.21 Ground Level, Blok SB 01, Cijantra, Kec. Pagedangan, Kabupaten Tangerang",MALUKU,15345.0,Indonesia,87785731085.0,,,-62.957.213,1.066.091.356,https://maps.google.com/?cid=0x0:0xfde6d0fd6fb31880,
hardware store,Pembangunan Perumahan,Cluster Wynyard @Hiera BSD,"MHCX+8XJ, Kadu Sirung, Kec. Pagedangan, Kabupaten Tangerang, Banten 15336","Kadu Sirung, Kec. Pagedangan, Kabupaten Tangerang",MALUKU,15336.0,Indonesia,87872172625.0,,,-63.291.331,1.065.997.145,https://maps.google.com/?cid=0x0:0x9935e206304c43af,
hardware store,Komplek perumahan,Cluster Welton @Hiera BSD,"MHCW+CQJ Savana Ilalang Kampung Kandang, Jl. Kp. Kandang, Jatake, Pagedangan, Tangerang Regency, Banten 15330","Jl. Kp. Kandang, Jatake, Pagedangan, Tangerang Regency",MALUKU,15330.0,Indonesia,87774482258.0,,,-63.281.572,1.065.976.603,https://maps.google.com/?cid=0x0:0x68b1d78f2ef9a6fe,
hardware store,Komplek perumahan,Kaze Hill Residence by Dekoruma,"Jl. Rudal III No.14, Joglo, Kec. Kembangan, Kota Jakarta Barat, Daerah Khusus Ibukota Jakarta 11640","Joglo, Kec. Kembangan, Kota Jakarta Barat",MALUKU,11640.0,Indonesia,81703888830.0,,,-62.220.299,1.067.222.881,https://maps.google.com/?cid=0x0:0xae1418e46b6f96f5,
hardware store,Kompleks Apartemen,VANYA PARK - BSD CITY,"Pagedangan, Kec. Pagedangan, Kabupaten Tangerang, Banten","Kabupaten Tangerang, Banten",MALUKU,,Indonesia,,,,-62.959.012,1.066.213.069,https://maps.google.com/?cid=0x0:0xd8364cc8104a684f,
hardware store,Komplek perumahan,The Zora BSD City,"Lengkong Kulon, Kec. Pagedangan, Kabupaten Tangerang, Banten 15331","Kec. Pagedangan, Kabupaten Tangerang",MALUKU,15331.0,Indonesia,,,,-6.280.307,1.066.286.656,https://maps.google.com/?cid=0x0:0x87cbebe57f917f49,
hardware store,hardware store,Kepulauan Babar,"Nakarhamto, Kec. Pulau-Pulau Babar Timur, Kabupaten Maluku Barat Daya, Maluku","Kabupaten Maluku Barat Daya, Maluku",MALUKU,,Indonesia,,,,-78.333.333,129.75,https://maps.google.com/?cid=0x0:0x139304fe972d4953,
hardware store,hardware store,Kepulauan Babar,"Nakarhamto, Kec. Pulau-Pulau Babar Timur, Kabupaten Maluku Barat Daya, Maluku","Kabupaten Maluku Barat Daya, Maluku",MALUKU,,Indonesia,,,,-78.333.333,129.75,https://maps.google.com/?cid=0x0:0x139304fe972d4953,
hardware store,Toko Bahan Bangunan,Homesware 84 Trading Hardware,"PT 2340 HS(D, 10842, KG TIONG, MUKIM PADANG ENGGANG, 15150 Kota Bharu, Kelantan, Malaysia",Kota Bharu,MALUKU,15150.0,Indonesia,60124198404.0,,,60.750.458,1.022.427.702,https://maps.google.com/?cid=0x0:0x20b3573cdfe709ee,
hardware store,Toko Bahan Bangunan,Ban Poh Hardware Marketing Sdn. Bhd.,"PT1151-1152, JALAN KUBANG KACANG, KG TIONG KUBANG KACANG, 16010 KOTA BHARU, 16010 Kota Bahru, Kelantan, Malaysia",KOTA BHARU,MALUKU,16010.0,Indonesia,60129815982.0,,,60.779.501,1.022.524.166,https://maps.google.com/?cid=0x0:0xb618d6cbc33f6c3c,
hardware store,hardware store,Pulau Wetar,"Kabupaten Maluku Barat Daya, Maluku","Kabupaten Maluku Barat Daya, Maluku",MALUKU,,Indonesia,,,,-77.851.588,1.263.498.097,https://maps.google.com/?cid=0x0:0x501150d5e877187,
hardware store,hardware store,Kec. Pulau-pulau Terselatan,"Kabupaten Maluku Barat Daya, Maluku","Kabupaten Maluku Barat Daya, Maluku",MALUKU,,Indonesia,,,,-80.702.814,1.271.638.207,https://maps.google.com/?cid=0x0:0x3668501476639829,
hardware store,hardware store,Pulau Leti,"Luhulely, Kec. Pulau Letti, Kabupaten Maluku Barat Daya, Maluku","Kabupaten Maluku Barat Daya, Maluku",MALUKU,,Indonesia,,,,-8.2,1.276.833.333,https://maps.google.com/?cid=0x0:0xcaaf5b19de612073,
hardware store,hardware store,PT.INPEX CORPORATION LTD.,"RVQC+Q2, Marsela, Kec. Pulau Masela, Kabupaten Maluku Barat Daya, Maluku","Kabupaten Maluku Barat Daya, Maluku",MALUKU,,Indonesia,81214184685.0,,,-81.610.018,1.298.699.718,https://maps.google.com/?cid=0x0:0x56a52557446af08f,
hardware store,hardware store,Kec. Pulau Masela,"Kabupaten Maluku Barat Daya, Maluku","Kabupaten Maluku Barat Daya, Maluku",MALUKU,,Indonesia,,,,-81.584.174,1.298.704.314,https://maps.google.com/?cid=0x0:0xc4846e8cd1083f5c,
hardware store,hardware store,Dawelor Dawera,"Kabupaten Maluku Barat Daya, Maluku","Kabupaten Maluku Barat Daya, Maluku",MALUKU,,Indonesia,,,,-77.617.442,1.300.581.836,https://maps.google.com/?cid=0x0:0xfdc455be5380a875,
hardware store,hardware store,Pulau Dawera,"Dawelor Dawera, Kabupaten Maluku Barat Daya, Maluku","Kabupaten Maluku Barat Daya, Maluku",MALUKU,,Indonesia,,,,-77.240.985,1.300.068.953,https://maps.google.com/?cid=0x0:0x818dcb3207fcd882,
hardware store,hardware store,Pulau Wetan,"Kec. Pulau Wetang, Kabupaten Maluku Barat Daya, Maluku","Kabupaten Maluku Barat Daya, Maluku",MALUKU,,Indonesia,,,,-7.903.052,1.295.381.684,https://maps.google.com/?cid=0x0:0x78aa175343bb0b64,
hardware store,hardware store,Kec. Pulau Wetang,"Kabupaten Maluku Barat Daya, Maluku","Kabupaten Maluku Barat Daya, Maluku",MALUKU,,Indonesia,,,,-7.877.777,1.295.242.557,https://maps.google.com/?cid=0x0:0xe095aebcde7f7853,
hardware store,hardware store,Kec. Pulau Lakor,"Kabupaten Maluku Barat Daya, Maluku","Kabupaten Maluku Barat Daya, Maluku",MALUKU,,Indonesia,,,,-82.210.132,1.282.223.532,https://maps.google.com/?cid=0x0:0x753bbbe0b8b3d34a,
hardware store,Toko Bahan Bangunan,LA Living Master Lai Alliance,"Jln Tengku Osman, 91000 Tawau, Sabah, Malaysia",Tawau,MALUKU,91000.0,Indonesia,60165832727.0,,,4.273.705,117.887.524,https://maps.google.com/?cid=0x0:0x47df57112956c53f,
hardware store,Toko Bahan Bangunan,L.A.Industries Sdn Bhd,"1587, Lorong Good View 2, Taman Melody, 91000 Tawau, Sabah, Malaysia",Tawau,MALUKU,91000.0,Indonesia,6089915004.0,,,42.513.833,1.179.270.513,https://maps.google.com/?cid=0x0:0x1fdbcd27411ebca8,
hardware store,hardware store,Kec. Wetar Utara,"Kabupaten Maluku Barat Daya, Maluku","Kabupaten Maluku Barat Daya, Maluku",MALUKU,,Indonesia,,,,-76.814.948,1.263.382.789,https://maps.google.com/?cid=0x0:0x9da6a46338da1c9a,
hardware store,Toko Bahan Bangunan,Toko bangunan Dinda Barokah,"P85C+XWC, Waihatu, Kec. Kairatu Bar., Kabupaten Seram Bagian Barat, Maluku","Kabupaten Seram Bagian Barat, Maluku",MALUKU,,Indonesia,81356194953.0,,,-32.900.692,1.283.222.692,https://maps.google.com/?cid=0x0:0x634ca5cb31d21d51,
hardware store,Toko,Toko Tunas Baru,"M966+FP8, Jl. Trans Seram, Waimital, Kec. Kairatu, Kabupaten Seram Bagian Barat, Maluku","Kabupaten Seram Bagian Barat, Maluku",MALUKU,,Indonesia,8161999912.0,,,-33.388.259,1.283.618.245,https://maps.google.com/?cid=0x0:0x20a66a8197b5b440,
hardware store,Toko Bahan Bangunan,Toko Bangunan Lestari Baru,"Waihatu, Kec. Kairatu Bar., Kabupaten Seram Bagian Barat, Maluku","Kabupaten Seram Bagian Barat, Maluku",MALUKU,,Indonesia,82238832490.0,,,-32.864.381,1.283.222.819,https://maps.google.com/?cid=0x0:0xb14d86a65046c260,
hardware store,Toko Bahan Bangunan,Pantai Timor Hardware / Kedai Hardware,"PT B52, Pkink, D18 Jalan Pasir Puteh, 18500 Machang, Kelantan, Malaysia",Machang,MALUKU,18500.0,Indonesia,6099752276.0,,,57.638.324,1.022.207.429,https://maps.google.com/?cid=0x0:0xc52f4faee52c4558,
hardware store,Toko Bahan Bangunan,Tegoh Aman Trading,"A161, Jalan Kuala Krai, Bandar Lama, Kelantan, 18500 Machang, Malaysia",Machang,MALUKU,18500.0,Indonesia,6099751882.0,,,57.622.689,1.022.156.496,https://maps.google.com/?cid=0x0:0xb7f406e9c7f47bd7,
hardware store,hardware store,Kec. Wetar Timur,"Kabupaten Maluku Barat Daya, Maluku","Kabupaten Maluku Barat Daya, Maluku",MALUKU,,Indonesia,,,,-76.759.352,1.268.082.461,https://maps.google.com/?cid=0x0:0xdd20d04bf1cbe2c2,
hardware store,Toko Bahan Bangunan,Nature Hardware (Utara) Sdn. Bhd. (Branch),"TB 17874, LOT 1, 1/2 STOREY INDUSTRIAL BUILDING, KM 6, JALAN UTARA, 91000 Tawau, Sabah, Malaysia",Tawau,MALUKU,91000.0,Indonesia,60198616717.0,,,42.860.155,117.881.447,https://maps.google.com/?cid=0x0:0xc634e245860022bd,
hardware store,hardware store,Kec. Kepulauan Romang,"Kabupaten Maluku Barat Daya, Maluku","Kabupaten Maluku Barat Daya, Maluku",MALUKU,,Indonesia,,,,-75.913.438,1.273.710.665,https://maps.google.com/?cid=0x0:0xe9226fb89aebd4ca,
hardware store,hardware store,Kisar Utara,"Kabupaten Maluku Barat Daya, Maluku","Kabupaten Maluku Barat Daya, Maluku",MALUKU,,Indonesia,,,,-80.292.578,127.168.746,https://maps.google.com/?cid=0x0:0x28782aba3b9982ea,
home improvement,home improvement,Kec. Moa Lakor,"Kabupaten Maluku Barat Daya, Maluku","Kabupaten Maluku Barat Daya, Maluku",MALUKU,,Indonesia,,,,-81.550.646,1.277.912.166,https://maps.google.com/?cid=0x0:0xdad6338040993a27,
home improvement,Toko,sinar mas,"RQRV+R4H, Wakarleli, Kec. Moa Lakor, Kabupaten Maluku Barat Daya, Maluku","Kabupaten Maluku Barat Daya, Maluku",MALUKU,,Indonesia,81315537277.0,,,-81.579.263,1.277.928.631,https://maps.google.com/?cid=0x0:0xe3907e85dac05775,
home improvement,Pemasok dan pembuat gorden,Teralis jendela,"VQ4R+F22, Tiakur - Weet, Kaiwatu, Kec. Moa Lakor, Kabupaten Maluku Barat Daya, Maluku","Kabupaten Maluku Barat Daya, Maluku",MALUKU,,Indonesia,,,,-81.438.651,1.277.900.278,https://maps.google.com/?cid=0x0:0x127d6ba8c30eab28,
home improvement,Restoran,Tiakur,"RRH3+Q94, Wakarleli, Kec. Moa Lakor, Kabupaten Maluku Barat Daya, Maluku","Kabupaten Maluku Barat Daya, Maluku",MALUKU,,Indonesia,,,,-81.706.026,1.278.034.598,https://maps.google.com/?cid=0x0:0x22e7bea63065d597,
home improvement,home improvement,Maluku 97128,"Batu Merah, Kec. Sirimau, Kota Ambon, Maluku","Kota Ambon, Maluku",MALUKU,,Indonesia,,,,-36.827.473,1.281.907.702,https://maps.google.com/?cid=0x0:0x25ce4f908fabcf46,
home improvement,home improvement,Damer,"Kabupaten Maluku Barat Daya, Maluku","Kabupaten Maluku Barat Daya, Maluku",MALUKU,,Indonesia,,,,-71.505.033,1.286.320.086,https://maps.google.com/?cid=0x0:0x628d9313140028f5,
home improvement,home improvement,"McMinnville, Oregon 97128","McMinnville, Oregon, Amerika Serikat","McMinnville, Oregon, Amerika Serikat",MALUKU,,Indonesia,,,,451.835.082,-1.232.842.446,https://maps.google.com/?cid=0x0:0xc66e3d07627a5de8,
home improvement,home improvement,Damer,"Kabupaten Maluku Barat Daya, Maluku","Kabupaten Maluku Barat Daya, Maluku",MALUKU,,Indonesia,,,,-71.505.033,1.286.320.086,https://maps.google.com/?cid=0x0:0x628d9313140028f5,
home improvement,home improvement,Mdona Hiera,"Kabupaten Maluku Barat Daya, Maluku","Kabupaten Maluku Barat Daya, Maluku",MALUKU,,Indonesia,,,,-8.220.481,1.289.146.087,https://maps.google.com/?cid=0x0:0x25adcbfa64b076cc,
home improvement,Komplek perumahan,HIERA - THE HEARTLAND OF BSD CITY,"Jl. Raya Kadusirung, Kadu Sirung, Kec. Pagedangan, Kabupaten Tangerang, Banten 15336","Kadu Sirung, Kec. Pagedangan, Kabupaten Tangerang",MALUKU,15336.0,Indonesia,2150519988.0,,,-63.280.415,1.066.058.635,https://maps.google.com/?cid=0x0:0xddd1e2da090be5e6,
home improvement,Perusahaan Manajemen Properti,Hiera Marketing Gallery,"Green Office Park, The Breeze - Lake Level L. 03, Bsd City, Jl. BSD Grand Boulevard blok L no. L03, Kabupaten Tangerang, Banten 15345","The Breeze - Lake Level L. 03, Bsd City, Jl. BSD Grand Boulevard blok L no. L03, Kabupaten Tangerang",MALUKU,15345.0,Indonesia,81299417338.0,,,-63.010.406,1.066.532.345,https://maps.google.com/?cid=0x0:0x1fc0601d41ce8ce7,
home improvement,Pembangunan Perumahan,Cluster Wynyard @Hiera BSD,"MHCX+8XJ, Kadu Sirung, Kec. Pagedangan, Kabupaten Tangerang, Banten 15336","Kadu Sirung, Kec. Pagedangan, Kabupaten Tangerang",MALUKU,15336.0,Indonesia,87872172625.0,,,-63.291.331,1.065.997.145,https://maps.google.com/?cid=0x0:0x9935e206304c43af,
home improvement,Komplek perumahan,Cluster Welton @Hiera BSD,"MHCW+CQJ Savana Ilalang Kampung Kandang, Jl. Kp. Kandang, Jatake, Pagedangan, Tangerang Regency, Banten 15330","Jl. Kp. Kandang, Jatake, Pagedangan, Tangerang Regency",MALUKU,15330.0,Indonesia,87774482258.0,,,-63.281.572,1.065.976.603,https://maps.google.com/?cid=0x0:0x68b1d78f2ef9a6fe,
home improvement,home improvement,Kec. Pulau-Pulau Babar,"Kabupaten Maluku Barat Daya, Maluku","Kabupaten Maluku Barat Daya, Maluku",MALUKU,,Indonesia,,,,-78.688.934,1.295.944.125,https://maps.google.com/?cid=0x0:0x96e5386eea3cc2c3,
home improvement,home improvement,Kepulauan Babar,"Nakarhamto, Kec. Pulau-Pulau Babar Timur, Kabupaten Maluku Barat Daya, Maluku","Kabupaten Maluku Barat Daya, Maluku",MALUKU,,Indonesia,,,,-78.333.333,129.75,https://maps.google.com/?cid=0x0:0x139304fe972d4953,
home improvement,home improvement,Kec. Pulau-Pulau Babar Timur,"Kabupaten Maluku Barat Daya, Maluku","Kabupaten Maluku Barat Daya, Maluku",MALUKU,,Indonesia,,,,-79.029.614,1.298.648.243,https://maps.google.com/?cid=0x0:0x713e9d3f1d587e11,
home improvement,home improvement,Kepulauan Babar,"Nakarhamto, Kec. Pulau-Pulau Babar Timur, Kabupaten Maluku Barat Daya, Maluku","Kabupaten Maluku Barat Daya, Maluku",MALUKU,,Indonesia,,,,-78.333.333,129.75,https://maps.google.com/?cid=0x0:0x139304fe972d4953,
home improvement,home improvement,Pulau Wetar,"Kabupaten Maluku Barat Daya, Maluku","Kabupaten Maluku Barat Daya, Maluku",MALUKU,,Indonesia,,,,-77.851.588,1.263.498.097,https://maps.google.com/?cid=0x0:0x501150d5e877187,
home improvement,home improvement,Kec. Pulau-pulau Terselatan,"Kabupaten Maluku Barat Daya, Maluku","Kabupaten Maluku Barat Daya, Maluku",MALUKU,,Indonesia,,,,-80.702.814,1.271.638.207,https://maps.google.com/?cid=0x0:0x3668501476639829,
home improvement,home improvement,Kec. Pulau Letti,"Kabupaten Maluku Barat Daya, Maluku","Kabupaten Maluku Barat Daya, Maluku",MALUKU,,Indonesia,,,,-81.581.088,1.276.809.231,https://maps.google.com/?cid=0x0:0xa5d93595e880f516,
home improvement,home improvement,Pulau Leti,"Luhulely, Kec. Pulau Letti, Kabupaten Maluku Barat Daya, Maluku","Kabupaten Maluku Barat Daya, Maluku",MALUKU,,Indonesia,,,,-8.2,1.276.833.333,https://maps.google.com/?cid=0x0:0xcaaf5b19de612073,
home improvement,home improvement,Kec. Pulau Masela,"Kabupaten Maluku Barat Daya, Maluku","Kabupaten Maluku Barat Daya, Maluku",MALUKU,,Indonesia,,,,-81.584.174,1.298.704.314,https://maps.google.com/?cid=0x0:0xc4846e8cd1083f5c,
home improvement,home improvement,Pulau Dawera,"Dawelor Dawera, Kabupaten Maluku Barat Daya, Maluku","Kabupaten Maluku Barat Daya, Maluku",MALUKU,,Indonesia,,,,-77.240.985,1.300.068.953,https://maps.google.com/?cid=0x0:0x818dcb3207fcd882,
home improvement,home improvement,Kec. Pulau Wetang,"Kabupaten Maluku Barat Daya, Maluku","Kabupaten Maluku Barat Daya, Maluku",MALUKU,,Indonesia,,,,-7.877.777,1.295.242.557,https://maps.google.com/?cid=0x0:0xe095aebcde7f7853,
home improvement,home improvement,Kec. Pulau Lakor,"Kabupaten Maluku Barat Daya, Maluku","Kabupaten Maluku Barat Daya, Maluku",MALUKU,,Indonesia,,,,-82.210.132,1.282.223.532,https://maps.google.com/?cid=0x0:0x753bbbe0b8b3d34a,
home improvement,home improvement,Kec. Wetar Utara,"Kabupaten Maluku Barat Daya, Maluku","Kabupaten Maluku Barat Daya, Maluku",MALUKU,,Indonesia,,,,-76.814.948,1.263.382.789,https://maps.google.com/?cid=0x0:0x9da6a46338da1c9a,
home improvement,home improvement,Kec. Wetar Barat,"Kabupaten Maluku Barat Daya, Maluku","Kabupaten Maluku Barat Daya, Maluku",MALUKU,,Indonesia,,,,-80.144.036,1.257.627.423,https://maps.google.com/?cid=0x0:0x1b539445f25c7d62,
home improvement,home improvement,Kec. Wetar Timur,"Kabupaten Maluku Barat Daya, Maluku","Kabupaten Maluku Barat Daya, Maluku",MALUKU,,Indonesia,,,,-76.759.352,1.268.082.461,https://maps.google.com/?cid=0x0:0xdd20d04bf1cbe2c2,
home improvement,home improvement,Kec. Kepulauan Romang,"Kabupaten Maluku Barat Daya, Maluku","Kabupaten Maluku Barat Daya, Maluku",MALUKU,,Indonesia,,,,-75.913.438,1.273.710.665,https://maps.google.com/?cid=0x0:0xe9226fb89aebd4ca,
home improvement,home improvement,Kisar Utara,"Kabupaten Maluku Barat Daya, Maluku","Kabupaten Maluku Barat Daya, Maluku",MALUKU,,Indonesia,,,,-80.292.578,127.168.746,https://maps.google.com/?cid=0x0:0x28782aba3b9982ea,
