Category,Real Category,Business Name,Address,City,State,Postal Code,Country,Phone,Email,Website,Latitude,Longitude,Map Link,Details Link
komplek housing,komplek housing,Kec. Moa Lakor,"Kabupaten Maluku Barat Daya, Maluku","Kabupaten Maluku Barat Daya, Maluku",MALUKU,,Indonesia,,,,-81.550.646,1.277.912.166,https://maps.google.com/?cid=0x0:0xdad6338040993a27,
komplek housing,komplek housing,Damer,"Kabupaten Maluku Barat Daya, Maluku","Kabupaten Maluku Barat Daya, Maluku",MALUKU,,Indonesia,,,,-71.505.033,1.286.320.086,https://maps.google.com/?cid=0x0:0x628d9313140028f5,
komplek housing,komplek housing,Damer,"Kabupaten Maluku Barat Daya, Maluku","Kabupaten Maluku Barat Daya, Maluku",MALUKU,,Indonesia,,,,-71.505.033,1.286.320.086,https://maps.google.com/?cid=0x0:0x628d9313140028f5,
komplek housing,Komplek perumahan,Pondok Gede Housing II,"Housing II, Jl. Raya Hankam, RT.001/RW.004, Jatirahayu, Pondok Gede, Bekasi, West Java","Kota Bks, Jawa Barat",MALUKU,,Indonesia,,,,-62.876.701,1.069.147.674,https://maps.google.com/?cid=0x0:0x2a52e601c20d18f2,
komplek housing,Komplek perumahan,Perumahan housing 2,"Jl. Raya Hankam No.12 Blok U, RT.005/RW.002, Jatirahayu, Kec. Pd. Melati, Kota Bks, Jawa Barat 17414","RT.005/RW.002, Jatirahayu, Kec. Pd. Melati, Kota Bks",MALUKU,17414.0,Indonesia,,,,-6.287.153,1.069.155.932,https://maps.google.com/?cid=0x0:0x60205f6f07650dd6,
komplek housing,Komplek perumahan,HIERA - THE HEARTLAND OF BSD CITY,"Jl. Raya Kadusirung, Kadu Sirung, Kec. Pagedangan, Kabupaten Tangerang, Banten 15336","Kadu Sirung, Kec. Pagedangan, Kabupaten Tangerang",MALUKU,15336.0,Indonesia,2150519988.0,,,-63.280.415,1.066.058.635,https://maps.google.com/?cid=0x0:0xddd1e2da090be5e6,
komplek housing,komplek housing,Mdona Hiera,"Kabupaten Maluku Barat Daya, Maluku","Kabupaten Maluku Barat Daya, Maluku",MALUKU,,Indonesia,,,,-8.220.481,1.289.146.087,https://maps.google.com/?cid=0x0:0x25adcbfa64b076cc,
komplek housing,Pembangunan Perumahan,Cluster Wynyard @Hiera BSD,"MHCX+8XJ, Kadu Sirung, Kec. Pagedangan, Kabupaten Tangerang, Banten 15336","Kadu Sirung, Kec. Pagedangan, Kabupaten Tangerang",MALUKU,15336.0,Indonesia,87872172625.0,,,-63.291.331,1.065.997.145,https://maps.google.com/?cid=0x0:0x9935e206304c43af,
komplek housing,Komplek perumahan,Kaze Hill Residence by Dekoruma,"Jl. Rudal III No.14, Joglo, Kec. Kembangan, Kota Jakarta Barat, Daerah Khusus Ibukota Jakarta 11640","Joglo, Kec. Kembangan, Kota Jakarta Barat",MALUKU,11640.0,Indonesia,81703888830.0,,,-62.220.299,1.067.222.881,https://maps.google.com/?cid=0x0:0xae1418e46b6f96f5,
komplek housing,Komplek perumahan,HANANIA Residence,"MJX9+PXW, Cicalengka, Kec. Pagedangan, Kabupaten Tangerang, Banten 15850","Cicalengka, Kec. Pagedangan, Kabupaten Tangerang",MALUKU,15850.0,Indonesia,81283809815.0,,,-6.300.634,1.066.199.439,https://maps.google.com/?cid=0x0:0x432b857f6f8a05b3,
komplek housing,Komplek perumahan,GYAN Serpong Residence,"Gyan Boulevard, Cisauk, Tangerang Regency, Banten 15341","Cisauk, Tangerang Regency",MALUKU,15341.0,Indonesia,87888870017.0,,,-63.315.567,1.066.375.651,https://maps.google.com/?cid=0x0:0xba0f4c0d0505342b,
komplek housing,Komplek perumahan,Bpk Semi  Ibu Ode House,"4HPW+C2M, Jl. Kalwedo, Tepa, Kec. Pulau-Pulau Babar, Kabupaten Maluku Barat Daya, Maluku","Kabupaten Maluku Barat Daya, Maluku",MALUKU,,Indonesia,,,,-78.639.208,1.295.950.595,https://maps.google.com/?cid=0x0:0x88e4fa54f63de26b,
komplek housing,komplek housing,Kepulauan Babar,"Nakarhamto, Kec. Pulau-Pulau Babar Timur, Kabupaten Maluku Barat Daya, Maluku","Kabupaten Maluku Barat Daya, Maluku",MALUKU,,Indonesia,,,,-78.333.333,129.75,https://maps.google.com/?cid=0x0:0x139304fe972d4953,
komplek housing,Komplek perumahan,Rumah Bpk.D.Taliak,"4HJV+HPV, Tepa, Kec. Pulau-Pulau Babar, Kabupaten Maluku Barat Daya, Maluku","Kabupaten Maluku Barat Daya, Maluku",MALUKU,,Indonesia,,,,-78.687.273,129.594.345,https://maps.google.com/?cid=0x0:0x48d03ed61d215439,
komplek housing,komplek housing,Kec. Pulau-Pulau Babar Timur,"Kabupaten Maluku Barat Daya, Maluku","Kabupaten Maluku Barat Daya, Maluku",MALUKU,,Indonesia,,,,-79.029.614,1.298.648.243,https://maps.google.com/?cid=0x0:0x713e9d3f1d587e11,
komplek housing,komplek housing,Pulau Wetar,"Kabupaten Maluku Barat Daya, Maluku","Kabupaten Maluku Barat Daya, Maluku",MALUKU,,Indonesia,,,,-77.851.588,1.263.498.097,https://maps.google.com/?cid=0x0:0x501150d5e877187,
komplek housing,Komplek perumahan,Perum sukamekar indah,"Perum Sukamekar Indah, Sukamekar, Kec. Sukawangi, Kabupaten Bekasi, Jawa Barat 17620","Sukamekar, Kec. Sukawangi, Kabupaten Bekasi",MALUKU,17620.0,Indonesia,,,,-61.584.546,1.070.461.592,https://maps.google.com/?cid=0x0:0x666f32d5e2084fbc,
komplek housing,Komplek perumahan,Perumahan Sukamekar Regency jl tulip,"Perumahan jl tulip No.7, Sukamekar, Kec. Sukawangi, Kabupaten Bekasi, Jawa Barat 17620","Sukamekar, Kec. Sukawangi, Kabupaten Bekasi",MALUKU,17620.0,Indonesia,85217816723.0,,,-61.592.578,1.070.494.817,https://maps.google.com/?cid=0x0:0x887e267912b51530,
komplek housing,komplek housing,Kec. Pulau-pulau Terselatan,"Kabupaten Maluku Barat Daya, Maluku","Kabupaten Maluku Barat Daya, Maluku",MALUKU,,Indonesia,,,,-80.702.814,1.271.638.207,https://maps.google.com/?cid=0x0:0x3668501476639829,
komplek housing,Komplek perumahan,TOTMUTU,"W5MH+73, Wonreli, Kec. Pulau-pulau Terselatan, Kabupaten Maluku Barat Daya, Maluku","Kabupaten Maluku Barat Daya, Maluku",MALUKU,,Indonesia,,,,-80.667.997,1.271.776.358,https://maps.google.com/?cid=0x0:0x99655f29be7e85df,
komplek housing,Komplek perumahan,Sunuputy,"W5MG+MPM, Wonreli, Kec. Pulau-pulau Terselatan, Kabupaten Maluku Barat Daya, Maluku","Kabupaten Maluku Barat Daya, Maluku",MALUKU,,Indonesia,,,,-80.657.974,127.176.807,https://maps.google.com/?cid=0x0:0xbbf84df4da8313d,
komplek housing,komplek housing,Kec. Pulau Letti,"Kabupaten Maluku Barat Daya, Maluku","Kabupaten Maluku Barat Daya, Maluku",MALUKU,,Indonesia,,,,-81.581.088,1.276.809.231,https://maps.google.com/?cid=0x0:0xa5d93595e880f516,
komplek housing,komplek housing,Pulau Leti,"Luhulely, Kec. Pulau Letti, Kabupaten Maluku Barat Daya, Maluku","Kabupaten Maluku Barat Daya, Maluku",MALUKU,,Indonesia,,,,-8.2,1.276.833.333,https://maps.google.com/?cid=0x0:0xcaaf5b19de612073,
komplek housing,komplek housing,Kec. Pulau Masela,"Kabupaten Maluku Barat Daya, Maluku","Kabupaten Maluku Barat Daya, Maluku",MALUKU,,Indonesia,,,,-81.584.174,1.298.704.314,https://maps.google.com/?cid=0x0:0xc4846e8cd1083f5c,
komplek housing,Komplek perumahan,Perumahan Sukamekar Regency jl tulip,"Perumahan jl tulip No.7, Sukamekar, Kec. Sukawangi, Kabupaten Bekasi, Jawa Barat 17620","Sukamekar, Kec. Sukawangi, Kabupaten Bekasi",MALUKU,17620.0,Indonesia,85217816723.0,,,-61.592.578,1.070.494.817,https://maps.google.com/?cid=0x0:0x887e267912b51530,
komplek housing,Perumahan,Harmoni Residence BSD Serpong (Marketing Gallery Official),"Jl. Serpong Park No.BV-01, Jelupang, Kec. Serpong, Kota Tangerang Selatan, Banten 15323","Jelupang, Kec. Serpong, Kota Tangerang Selatan",MALUKU,15323.0,Indonesia,8111551183.0,,,-62.741.549,1.066.724.224,https://maps.google.com/?cid=0x0:0xea54a731fd82a3ef,
komplek housing,komplek housing,Dawelor Dawera,"Kabupaten Maluku Barat Daya, Maluku","Kabupaten Maluku Barat Daya, Maluku",MALUKU,,Indonesia,,,,-77.617.442,1.300.581.836,https://maps.google.com/?cid=0x0:0xfdc455be5380a875,
komplek housing,komplek housing,Kec. Pulau Wetang,"Kabupaten Maluku Barat Daya, Maluku","Kabupaten Maluku Barat Daya, Maluku",MALUKU,,Indonesia,,,,-7.877.777,1.295.242.557,https://maps.google.com/?cid=0x0:0xe095aebcde7f7853,
komplek housing,komplek housing,Pulau Wetan,"Kec. Pulau Wetang, Kabupaten Maluku Barat Daya, Maluku","Kabupaten Maluku Barat Daya, Maluku",MALUKU,,Indonesia,,,,-7.903.052,1.295.381.684,https://maps.google.com/?cid=0x0:0x78aa175343bb0b64,
komplek housing,komplek housing,Kec. Pulau Lakor,"Kabupaten Maluku Barat Daya, Maluku","Kabupaten Maluku Barat Daya, Maluku",MALUKU,,Indonesia,,,,-82.210.132,1.282.223.532,https://maps.google.com/?cid=0x0:0x753bbbe0b8b3d34a,
komplek housing,komplek housing,Kec. Wetar Utara,"Kabupaten Maluku Barat Daya, Maluku","Kabupaten Maluku Barat Daya, Maluku",MALUKU,,Indonesia,,,,-76.814.948,1.263.382.789,https://maps.google.com/?cid=0x0:0x9da6a46338da1c9a,
komplek housing,komplek housing,Kec. Wetar Barat,"Kabupaten Maluku Barat Daya, Maluku","Kabupaten Maluku Barat Daya, Maluku",MALUKU,,Indonesia,,,,-80.144.036,1.257.627.423,https://maps.google.com/?cid=0x0:0x1b539445f25c7d62,
komplek housing,komplek housing,Kec. Wetar Timur,"Kabupaten Maluku Barat Daya, Maluku","Kabupaten Maluku Barat Daya, Maluku",MALUKU,,Indonesia,,,,-76.759.352,1.268.082.461,https://maps.google.com/?cid=0x0:0xdd20d04bf1cbe2c2,
komplek housing,komplek housing,Kec. Kepulauan Romang,"Kabupaten Maluku Barat Daya, Maluku","Kabupaten Maluku Barat Daya, Maluku",MALUKU,,Indonesia,,,,-75.913.438,1.273.710.665,https://maps.google.com/?cid=0x0:0xe9226fb89aebd4ca,
komplek housing,komplek housing,Kisar Utara,"Kabupaten Maluku Barat Daya, Maluku","Kabupaten Maluku Barat Daya, Maluku",MALUKU,,Indonesia,,,,-80.292.578,127.168.746,https://maps.google.com/?cid=0x0:0x28782aba3b9982ea,
perumahan,perumahan,Kec. Moa Lakor,"Kabupaten Maluku Barat Daya, Maluku","Kabupaten Maluku Barat Daya, Maluku",MALUKU,,Indonesia,,,,-81.550.646,1.277.912.166,https://maps.google.com/?cid=0x0:0xdad6338040993a27,
perumahan,Pembangunan Perumahan,Posko Lohrau,"VQPH+PJ, Kaiwatu, Kec. Moa Lakor, Kabupaten Maluku Barat Daya, Maluku","Kabupaten Maluku Barat Daya, Maluku",MALUKU,,Indonesia,,,,-81.131.448,1.277.790.437,https://maps.google.com/?cid=0x0:0x394812e64d41483d,
perumahan,Pembangunan Perumahan,"Kaiwatu, Moa Lakor, Maluku, Indonesia","VQ5R+7F, Kaiwatu, Kec. Moa Lakor, Kabupaten Maluku Barat Daya, Maluku","Kabupaten Maluku Barat Daya, Maluku",MALUKU,,Indonesia,,,,-81.418.263,1.277.912.146,https://maps.google.com/?cid=0x0:0xd700903c2c51f90b,
perumahan,Komplek perumahan,GLENHOME,"VRR6+VR2, Kaiwatu, Kec. Moa Lakor, Kabupaten Maluku Barat Daya, Maluku","Kabupaten Maluku Barat Daya, Maluku",MALUKU,,Indonesia,,,,-81.088.895,1.278.122.599,https://maps.google.com/?cid=0x0:0x3345e0e9228d09f3,
perumahan,Pembangunan Perumahan,Komplek Perumahan Rojer,"RRP2+3RW, Wakarleli, Kec. Moa Lakor, Kabupaten Maluku Barat Daya, Maluku","Kabupaten Maluku Barat Daya, Maluku",MALUKU,,Indonesia,,,,-8.164.766,1.278.020.639,https://maps.google.com/?cid=0x0:0x660bfa564bfae58b,
perumahan,Komplek perumahan,Rumah Milton.Paliaky,"VQ2Q+332, Unnamed Road, Wakarleli, Kec. Moa Lakor, Kabupaten Maluku Barat Daya, Maluku","Kabupaten Maluku Barat Daya, Maluku",MALUKU,,Indonesia,,,,-81.498.699,127.787.633,https://maps.google.com/?cid=0x0:0x71e4fb2107375a3c,
perumahan,Komplek perumahan,Kos MUSTAMOR,"Unnamed Road, Wakarleli, Kec. Moa Lakor, Kabupaten Maluku Barat Daya, Maluku","Kabupaten Maluku Barat Daya, Maluku",MALUKU,,Indonesia,85346090380.0,,,-81.584.951,1.277.969.441,https://maps.google.com/?cid=0x0:0x99ea0c07abd9d4af,
perumahan,Kantor Pendaftaran Militer,Perumahan Koramil Tiakur,"RQVX+GR7, Unnamed Road, Wakarleli, Kec. Moa Lakor, Kabupaten Maluku Barat Daya, Maluku","Kabupaten Maluku Barat Daya, Maluku",MALUKU,,Indonesia,,,,-81.562.179,1.277.995.593,https://maps.google.com/?cid=0x0:0x24a3cc094914baa7,
perumahan,Komplek perumahan,Lorong BPJS Lama,"RQRW+QQR, Kaiwatu, Kec. Moa Lakor, Kabupaten Maluku Barat Daya, Maluku","Kabupaten Maluku Barat Daya, Maluku",MALUKU,,Indonesia,,,,-81.580.028,1.277.969.047,https://maps.google.com/?cid=0x0:0xde2fab5d73513ede,
perumahan,Komplek perumahan,Kufla House,"Kufla Housw, Wakarleli, Kec. Moa Lakor, Kabupaten Maluku Barat Daya, Maluku","Kabupaten Maluku Barat Daya, Maluku",MALUKU,,Indonesia,,,,-81.610.098,1.277.887.563,https://maps.google.com/?cid=0x0:0x360cdb146d737ce3,
perumahan,Komplek perumahan,Usmany,"RQMQ+XCM, Wakarleli, Kec. Moa Lakor, Kabupaten Maluku Barat Daya, Maluku","Kabupaten Maluku Barat Daya, Maluku",MALUKU,,Indonesia,,,,-81.653.962,1.277.880.533,https://maps.google.com/?cid=0x0:0x9819ede6fc8bf1c2,
perumahan,Komplek perumahan,Perumahan dosen,"VQ4R+F22, Kaiwatu, Kec. Moa Lakor, Kabupaten Maluku Barat Daya, Maluku","Kabupaten Maluku Barat Daya, Maluku",MALUKU,,Indonesia,,,,-81.438.651,1.277.900.278,https://maps.google.com/?cid=0x0:0xa63510bf20daeb0b,
perumahan,Komplek perumahan,Rommer family,"VR63+7JC, Kaiwatu, Kec. Moa Lakor, Kabupaten Maluku Barat Daya, Maluku","Kabupaten Maluku Barat Daya, Maluku",MALUKU,,Indonesia,,,,-81.393.415,1.278.040.374,https://maps.google.com/?cid=0x0:0xe9051c38466d66b8,
perumahan,Lembaga Geografi dan Statistik,Perumahan Statistik Maluku Barat Daya,"RQRW+R5H, Kaiwatu, Kec. Moa Lakor, Kabupaten Maluku Barat Daya, Maluku","Kabupaten Maluku Barat Daya, Maluku",MALUKU,,Indonesia,,,,-8.157.927,1.277.954.856,https://maps.google.com/?cid=0x0:0xfce59f9281eda208,
perumahan,Pembangunan Perumahan,"Kaiwatu, Maluku, Indonesia Timur","VR53+H4V, Kaiwatu, Kec. Moa Lakor, Kabupaten Maluku Barat Daya, Maluku","Kabupaten Maluku Barat Daya, Maluku",MALUKU,,Indonesia,,,,-81.410.102,1.278.027.676,https://maps.google.com/?cid=0x0:0x863c2ddfa2d69a52,
perumahan,Pembangunan Perumahan,Keluarga Leunard Soriale,"Nasar Tialwewan No.22, Wakarleli, Kec. Moa Lakor, Kabupaten Maluku Barat Daya, Maluku","Kabupaten Maluku Barat Daya, Maluku",MALUKU,,Indonesia,,,,-81.599.727,1.277.975.654,https://maps.google.com/?cid=0x0:0xb83076e5983e19a0,
perumahan,Komplek perumahan,Kaka Galan,"RQCR+XW, Wakarleli, Kec. Moa Lakor, Kabupaten Maluku Barat Daya, Maluku","Kabupaten Maluku Barat Daya, Maluku",MALUKU,,Indonesia,,,,-81.775.847,1.277.921.898,https://maps.google.com/?cid=0x0:0x4d5b9e9b8addf3b8,
perumahan,Komplek perumahan,R.Et,"RQQX+MW, Wakarleli, Kec. Moa Lakor, Kabupaten Maluku Barat Daya, Maluku","Kabupaten Maluku Barat Daya, Maluku",MALUKU,,Indonesia,,,,-8.160.797,127.799.851,https://maps.google.com/?cid=0x0:0x10e48017f3a7c08c,
perumahan,Komplek perumahan,Area Keluarga Luklay,"VR45+57, Kaiwatu, Kec. Moa Lakor, Kabupaten Maluku Barat Daya, Maluku","Kabupaten Maluku Barat Daya, Maluku",MALUKU,,Indonesia,,,,-81.437.934,1.278.082.017,https://maps.google.com/?cid=0x0:0xd26c5c9ee2e863ce,
perumahan,Toko,Kampung Babar,"RQVR+XFG, Wakarleli, Kec. Moa Lakor, Kabupaten Maluku Barat Daya, Maluku","Kabupaten Maluku Barat Daya, Maluku",MALUKU,,Indonesia,,,,-81.550.646,1.277.912.166,https://maps.google.com/?cid=0x0:0x61e30271e5c00913,
perumahan,Perumahan,Unit Ebenezer,"RQRV+RMX, Unnamed Road, Wakarleli, Kec. Moa Lakor, Kabupaten Maluku Barat Daya, Maluku","Kabupaten Maluku Barat Daya, Maluku",MALUKU,,Indonesia,,,,-81.578.815,1.277.942.495,https://maps.google.com/?cid=0x0:0xe2dbf78930b575fa,
perumahan,Komplek perumahan,Keluarga Markus,"RRH3+Q94, Wakarleli, Kec. Moa Lakor, Kabupaten Maluku Barat Daya, Maluku","Kabupaten Maluku Barat Daya, Maluku",MALUKU,,Indonesia,,,,-81.706.026,1.278.034.598,https://maps.google.com/?cid=0x0:0x1d3ae35cf61c8a04,
perumahan,Pembangunan Perumahan,POSKO $ATRIA,"RQRQ+FJJ, Wakarleli, Kec. Moa Lakor, Kabupaten Maluku Barat Daya, Maluku","Kabupaten Maluku Barat Daya, Maluku",MALUKU,,Indonesia,82198427469.0,,,-81.587.947,1.277.890.024,https://maps.google.com/?cid=0x0:0xf54ed4ae4bac5121,
perumahan,Pembangunan Perumahan,Pdt. W. Hnyeur,"RQRV+HPR, Wakarleli, Kec. Moa Lakor, Kabupaten Maluku Barat Daya, Maluku","Kabupaten Maluku Barat Daya, Maluku",MALUKU,,Indonesia,,,,-81.585.023,1.277.942.699,https://maps.google.com/?cid=0x0:0x70bbfae4a85bf5ef,
perumahan,Pembangunan Perumahan,Bebar Timur,"VMXQ+43, Bebar Tim., Damer, Kabupaten Maluku Barat Daya, Maluku","Kabupaten Maluku Barat Daya, Maluku",MALUKU,,Indonesia,,,,-71.021.932,1.286.876.963,https://maps.google.com/?cid=0x0:0x19bdd1f4a2565dd9,
perumahan,Pembangunan Perumahan,ILLI,"VMWV+8R, Bebar Tim., Damer, Kabupaten Maluku Barat Daya, Maluku","Kabupaten Maluku Barat Daya, Maluku",MALUKU,,Indonesia,,,,-71.041.565,128.694.596,https://maps.google.com/?cid=0x0:0x23c4d3a5b5072033,
perumahan,Gereja,Pastori Jemaat GPM Bebar Timur,"VMXQ+43, Bebar Tim., Damer, Kabupaten Maluku Barat Daya, Maluku","Kabupaten Maluku Barat Daya, Maluku",MALUKU,,Indonesia,,,,-71.026.267,1.286.888.537,https://maps.google.com/?cid=0x0:0xade709452647101c,
perumahan,Pembangunan Perumahan,DESA KUMUR,"WM33+M4M, Bebar Tim., Damer, Kabupaten Maluku Barat Daya, Maluku","Kabupaten Maluku Barat Daya, Maluku",MALUKU,,Indonesia,,,,-70.957.977,128.652.792,https://maps.google.com/?cid=0x0:0x73ec6336c6c21fd,
perumahan,Pembangunan Perumahan,Bebar barat,"WM33+2WG, Bebar Barat, Damer, Kabupaten Maluku Barat Daya, Maluku","Kabupaten Maluku Barat Daya, Maluku",MALUKU,,Indonesia,,,,-70.974.454,1.286.548.165,https://maps.google.com/?cid=0x0:0x14900d45a77bff59,
perumahan,Komplek perumahan,Kuay Melu,"WJHH+GJ, Kuay Melu, Damer, Kabupaten Maluku Barat Daya, Maluku","Kabupaten Maluku Barat Daya, Maluku",MALUKU,,Indonesia,,,,-70.712.158,1.286.290.783,https://maps.google.com/?cid=0x0:0x53404a4be34a38bd,
perumahan,Pembangunan Perumahan,????????????????????,"VJ85+2HQ, Bebar Tim., Damer, Kabupaten Maluku Barat Daya, Maluku","Kabupaten Maluku Barat Daya, Maluku",MALUKU,,Indonesia,,,,-71.349.184,1.286.089.712,https://maps.google.com/?cid=0x0:0x10e7f0a2ab1d65b3,
perumahan,perumahan,Kel Apo Haprekkunarey,"WJHH+GJ, Kuay Melu, Damer, Kabupaten Maluku Barat Daya, Maluku","Kabupaten Maluku Barat Daya, Maluku",MALUKU,,Indonesia,,,,-70.706.492,1.286.289.335,https://maps.google.com/?cid=0x0:0x14a9679598194797,
perumahan,Pembangunan Perumahan,Negeri Kuay,"WJHH+GJ, Kuay Melu, Damer, Kabupaten Maluku Barat Daya, Maluku","Kabupaten Maluku Barat Daya, Maluku",MALUKU,,Indonesia,,,,-70.707.184,1.286.289.975,https://maps.google.com/?cid=0x0:0xa039b8e3794c9758,
perumahan,perumahan,Sifluru,"7F3W+3VX, Pulau Nila, Ilih, Damer, Kabupaten Maluku Barat Daya, Maluku","Kabupaten Maluku Barat Daya, Maluku",MALUKU,,Indonesia,,,,-67.472.668,1.294.972.373,https://maps.google.com/?cid=0x0:0x32e2f8aafecc91c3,
perumahan,perumahan,Kel Bpk S. J. Surlialy,"WJHC+RJ, Kuay Melu, Damer, Kabupaten Maluku Barat Daya, Maluku","Kabupaten Maluku Barat Daya, Maluku",MALUKU,,Indonesia,,,,-70.698.237,128.621.941,https://maps.google.com/?cid=0x0:0x1f0380312b78f416,
perumahan,perumahan,Kel Lius Ahlaro,"WJHH+GJ, Kuay Melu, Damer, Kabupaten Maluku Barat Daya, Maluku","Kabupaten Maluku Barat Daya, Maluku",MALUKU,,Indonesia,,,,-70.710.747,1.286.294.294,https://maps.google.com/?cid=0x0:0x5da950b1b3cf8b9a,
perumahan,perumahan,Jhon Leuwol Homestay,"WJHC+RJ, Kuay Melu, Damer, Kabupaten Maluku Barat Daya, Maluku","Kabupaten Maluku Barat Daya, Maluku",MALUKU,,Indonesia,,,,-70.705.347,1.286.219.148,https://maps.google.com/?cid=0x0:0x54df160ce6d4e30e,
perumahan,Komplek perumahan,??????????????????????????,"VHQX+7Q5, Kuay Melu, Damer, Kabupaten Maluku Barat Daya, Maluku","Kabupaten Maluku Barat Daya, Maluku",MALUKU,,Indonesia,,,,-71.118.691,1.285.994.818,https://maps.google.com/?cid=0x0:0x2450512a7ca6e799,
perumahan,perumahan,Rumah Tua Soplero,"WH9Q+H7W, Batumerah, Damer, Kabupaten Maluku Barat Daya, Maluku","Kabupaten Maluku Barat Daya, Maluku",MALUKU,,Indonesia,,,,-7.081.002,128.588.196,https://maps.google.com/?cid=0x0:0xd07b97730e331091,
perumahan,perumahan,"McMinnville, Oregon 97128","McMinnville, Oregon, Amerika Serikat","McMinnville, Oregon, Amerika Serikat",MALUKU,,Indonesia,,,,451.835.082,-1.232.842.446,https://maps.google.com/?cid=0x0:0xc66e3d07627a5de8,
perumahan,perumahan,Best Western McMinnville Inn,"2035 OR-99W, McMinnville, OR 97128, Amerika Serikat","McMinnville, OR",MALUKU,97128.0,Indonesia,15034724900.0,,,45.193.537,-1.232.109.149,https://maps.google.com/?cid=0x0:0x57e0e41650d16acf,
perumahan,perumahan,Damer,"Kabupaten Maluku Barat Daya, Maluku","Kabupaten Maluku Barat Daya, Maluku",MALUKU,,Indonesia,,,,-71.505.033,1.286.320.086,https://maps.google.com/?cid=0x0:0x628d9313140028f5,
perumahan,Pembangunan Perumahan,Bebar Timur,"VMXQ+43, Bebar Tim., Damer, Kabupaten Maluku Barat Daya, Maluku","Kabupaten Maluku Barat Daya, Maluku",MALUKU,,Indonesia,,,,-71.021.932,1.286.876.963,https://maps.google.com/?cid=0x0:0x19bdd1f4a2565dd9,
perumahan,Pembangunan Perumahan,DESA KUMUR,"WM33+M4M, Bebar Tim., Damer, Kabupaten Maluku Barat Daya, Maluku","Kabupaten Maluku Barat Daya, Maluku",MALUKU,,Indonesia,,,,-70.957.977,128.652.792,https://maps.google.com/?cid=0x0:0x73ec6336c6c21fd,
perumahan,Pembangunan Perumahan,ILLI,"VMWV+8R, Bebar Tim., Damer, Kabupaten Maluku Barat Daya, Maluku","Kabupaten Maluku Barat Daya, Maluku",MALUKU,,Indonesia,,,,-71.041.565,128.694.596,https://maps.google.com/?cid=0x0:0x23c4d3a5b5072033,
perumahan,perumahan,Kel Apo Haprekkunarey,"WJHH+GJ, Kuay Melu, Damer, Kabupaten Maluku Barat Daya, Maluku","Kabupaten Maluku Barat Daya, Maluku",MALUKU,,Indonesia,,,,-70.706.492,1.286.289.335,https://maps.google.com/?cid=0x0:0x14a9679598194797,
perumahan,Pembangunan Perumahan,????????????????????,"VJ85+2HQ, Bebar Tim., Damer, Kabupaten Maluku Barat Daya, Maluku","Kabupaten Maluku Barat Daya, Maluku",MALUKU,,Indonesia,,,,-71.349.184,1.286.089.712,https://maps.google.com/?cid=0x0:0x10e7f0a2ab1d65b3,
perumahan,Komplek perumahan,Kuay Melu,"WJHH+GJ, Kuay Melu, Damer, Kabupaten Maluku Barat Daya, Maluku","Kabupaten Maluku Barat Daya, Maluku",MALUKU,,Indonesia,,,,-70.712.158,1.286.290.783,https://maps.google.com/?cid=0x0:0x53404a4be34a38bd,
perumahan,perumahan,Sifluru,"7F3W+3VX, Pulau Nila, Ilih, Damer, Kabupaten Maluku Barat Daya, Maluku","Kabupaten Maluku Barat Daya, Maluku",MALUKU,,Indonesia,,,,-67.472.668,1.294.972.373,https://maps.google.com/?cid=0x0:0x32e2f8aafecc91c3,
perumahan,perumahan,Kel Lius Ahlaro,"WJHH+GJ, Kuay Melu, Damer, Kabupaten Maluku Barat Daya, Maluku","Kabupaten Maluku Barat Daya, Maluku",MALUKU,,Indonesia,,,,-70.710.747,1.286.294.294,https://maps.google.com/?cid=0x0:0x5da950b1b3cf8b9a,
perumahan,Komplek perumahan,Perumahan dosen,"VQ4R+F22, Kaiwatu, Kec. Moa Lakor, Kabupaten Maluku Barat Daya, Maluku","Kabupaten Maluku Barat Daya, Maluku",MALUKU,,Indonesia,,,,-81.438.651,1.277.900.278,https://maps.google.com/?cid=0x0:0xa63510bf20daeb0b,
perumahan,perumahan,Jhon Leuwol Homestay,"WJHC+RJ, Kuay Melu, Damer, Kabupaten Maluku Barat Daya, Maluku","Kabupaten Maluku Barat Daya, Maluku",MALUKU,,Indonesia,,,,-70.705.347,1.286.219.148,https://maps.google.com/?cid=0x0:0x54df160ce6d4e30e,
perumahan,perumahan,Kel Bpk S. J. Surlialy,"WJHC+RJ, Kuay Melu, Damer, Kabupaten Maluku Barat Daya, Maluku","Kabupaten Maluku Barat Daya, Maluku",MALUKU,,Indonesia,,,,-70.698.237,128.621.941,https://maps.google.com/?cid=0x0:0x1f0380312b78f416,
perumahan,Pembangunan Perumahan,Negeri Kuay,"WJHH+GJ, Kuay Melu, Damer, Kabupaten Maluku Barat Daya, Maluku","Kabupaten Maluku Barat Daya, Maluku",MALUKU,,Indonesia,,,,-70.707.184,1.286.289.975,https://maps.google.com/?cid=0x0:0xa039b8e3794c9758,
perumahan,Komplek perumahan,Kompleks perhubungan,"RRM4+4P5, Wakarleli, Kec. Moa Lakor, Kabupaten Maluku Barat Daya, Maluku","Kabupaten Maluku Barat Daya, Maluku",MALUKU,,Indonesia,,,,-81.672.478,1.278.068.539,https://maps.google.com/?cid=0x0:0xcc4f1c6f9530ac6b,
perumahan,Pembangunan Perumahan,Rumah sorsery (Lodna Sairy),"P5F2+2G3, Werwawan, Kec. Moa Lakor, Kabupaten Maluku Barat Daya, Maluku","Kabupaten Maluku Barat Daya, Maluku",MALUKU,,Indonesia,,,,-82.774.766,1.281.513.109,https://maps.google.com/?cid=0x0:0x41695f0cdb41eeb9,
perumahan,perumahan,Rumah Tua Soplero,"WH9Q+H7W, Batumerah, Damer, Kabupaten Maluku Barat Daya, Maluku","Kabupaten Maluku Barat Daya, Maluku",MALUKU,,Indonesia,,,,-7.081.002,128.588.196,https://maps.google.com/?cid=0x0:0xd07b97730e331091,
perumahan,Komplek perumahan,Rumah piter,"VRR6+RRC, Kaiwatu, Kec. Moa Lakor, Kabupaten Maluku Barat Daya, Maluku","Kabupaten Maluku Barat Daya, Maluku",MALUKU,,Indonesia,,,,-81.083.959,1.278.120.852,https://maps.google.com/?cid=0x0:0xc5ac11747f7dd2a1,
perumahan,perumahan,RM.Bpk.J.Maudara,"Q5QF+WJW, Sera, Kec. Pulau Lakor, Kabupaten Maluku Barat Daya, Maluku","Kabupaten Maluku Barat Daya, Maluku",MALUKU,,Indonesia,,,,-82.101.318,1.281.740.718,https://maps.google.com/?cid=0x0:0xc9fed5106ad40216,
perumahan,Komplek perumahan,??????????????????????????,"VHQX+7Q5, Kuay Melu, Damer, Kabupaten Maluku Barat Daya, Maluku","Kabupaten Maluku Barat Daya, Maluku",MALUKU,,Indonesia,,,,-71.118.691,1.285.994.818,https://maps.google.com/?cid=0x0:0x2450512a7ca6e799,
perumahan,perumahan,Mdona Hiera,"Kabupaten Maluku Barat Daya, Maluku","Kabupaten Maluku Barat Daya, Maluku",MALUKU,,Indonesia,,,,-8.220.481,1.289.146.087,https://maps.google.com/?cid=0x0:0x25adcbfa64b076cc,
perumahan,Komplek perumahan,Cluster Welton @Hiera BSD,"MHCW+CQJ Savana Ilalang Kampung Kandang, Jl. Kp. Kandang, Jatake, Pagedangan, Tangerang Regency, Banten 15330","Jl. Kp. Kandang, Jatake, Pagedangan, Tangerang Regency",MALUKU,15330.0,Indonesia,87774482258.0,,,-63.281.572,1.065.976.603,https://maps.google.com/?cid=0x0:0x68b1d78f2ef9a6fe,
perumahan,Pembangunan Perumahan,Cluster Wynyard @Hiera BSD,"MHCX+8XJ, Kadu Sirung, Kec. Pagedangan, Kabupaten Tangerang, Banten 15336","Kadu Sirung, Kec. Pagedangan, Kabupaten Tangerang",MALUKU,15336.0,Indonesia,87872172625.0,,,-63.291.331,1.065.997.145,https://maps.google.com/?cid=0x0:0x9935e206304c43af,
perumahan,perumahan,Kepulauan Babar,"Nakarhamto, Kec. Pulau-Pulau Babar Timur, Kabupaten Maluku Barat Daya, Maluku","Kabupaten Maluku Barat Daya, Maluku",MALUKU,,Indonesia,,,,-78.333.333,129.75,https://maps.google.com/?cid=0x0:0x139304fe972d4953,
perumahan,perumahan,Kec. Pulau-Pulau Babar,"Kabupaten Maluku Barat Daya, Maluku","Kabupaten Maluku Barat Daya, Maluku",MALUKU,,Indonesia,,,,-78.688.934,1.295.944.125,https://maps.google.com/?cid=0x0:0x96e5386eea3cc2c3,
perumahan,Perhimpunan Pengembang Perumahan,SOORU HOME,"4HMW+QHF, Tepa, Kec. Pulau-Pulau Babar, Kabupaten Maluku Barat Daya, Maluku","Kabupaten Maluku Barat Daya, Maluku",MALUKU,,Indonesia,,,,-7.865.392,12.959.656,https://maps.google.com/?cid=0x0:0x2fdd6cba1924ca1b,
perumahan,Komplek perumahan,Rumah Nio,"5JHR+9HX, Letsiara, Kec. Pulau-Pulau Babar, Kabupaten Maluku Barat Daya, Maluku","Kabupaten Maluku Barat Daya, Maluku",MALUKU,,Indonesia,,,,-78.215.182,1.296.414.935,https://maps.google.com/?cid=0x0:0x8072011b70c041ae,
perumahan,Komplek perumahan,Kompleks Baleja,"XMVG+624, Tela, Kec. Pulau-Pulau Babar, Kabupaten Maluku Barat Daya, Maluku","Kabupaten Maluku Barat Daya, Maluku",MALUKU,,Indonesia,,,,-8.006.987,1.296.750.659,https://maps.google.com/?cid=0x0:0x712bc6a7bfffee3c,
perumahan,Komplek perumahan,CELO HOME,"4HHV+PHG, Tepa, Kec. Pulau-Pulau Babar, Kabupaten Maluku Barat Daya, Maluku","Kabupaten Maluku Barat Daya, Maluku",MALUKU,,Indonesia,,,,-78.705.586,1.295.947.292,https://maps.google.com/?cid=0x0:0x7b29b40dfa740f1f,
perumahan,Komplek perumahan,Keluarga. L.Maanary  E.Rehiara,"4HPW+2Q6, Tepa, Kec. Pulau-Pulau Babar, Kabupaten Maluku Barat Daya, Maluku","Kabupaten Maluku Barat Daya, Maluku",MALUKU,,Indonesia,,,,-7.864.964,1.295.969.044,https://maps.google.com/?cid=0x0:0x151d6f4278aa7fae,
perumahan,Komplek perumahan,Kompleks INMEYA,"XMVC+QFF, Tela, Kec. Pulau-Pulau Babar, Kabupaten Maluku Barat Daya, Maluku","Kabupaten Maluku Barat Daya, Maluku",MALUKU,,Indonesia,,,,-80.055.507,1.296.711.776,https://maps.google.com/?cid=0x0:0xa07b15fd1407e752,
perumahan,Komplek perumahan,Rumah Bpk.D.Taliak,"4HJV+HPV, Tepa, Kec. Pulau-Pulau Babar, Kabupaten Maluku Barat Daya, Maluku","Kabupaten Maluku Barat Daya, Maluku",MALUKU,,Indonesia,,,,-78.687.273,129.594.345,https://maps.google.com/?cid=0x0:0x48d03ed61d215439,
perumahan,Komplek perumahan,Kel Taliak,"4HMV+MRQ, Tepa, Kec. Pulau-Pulau Babar, Kabupaten Maluku Barat Daya, Maluku","Kabupaten Maluku Barat Daya, Maluku",MALUKU,,Indonesia,,,,-78.657.803,1.295.946.172,https://maps.google.com/?cid=0x0:0x26d2dfd347451e1b,
perumahan,Pembangunan Perumahan,Bpk Icha Onarely,"XMRC+WMM, Tela, Kec. Pulau-Pulau Babar, Kabupaten Maluku Barat Daya, Maluku","Kabupaten Maluku Barat Daya, Maluku",MALUKU,,Indonesia,,,,-80.076.579,1.296.716.741,https://maps.google.com/?cid=0x0:0x8cc7e03ed171b907,
perumahan,Komplek perumahan,Rumah Tua Unmehopa,"XMVC+J54, Tela, Kec. Pulau-Pulau Babar, Kabupaten Maluku Barat Daya, Maluku","Kabupaten Maluku Barat Daya, Maluku",MALUKU,,Indonesia,,,,-80.059.941,1.296.704.588,https://maps.google.com/?cid=0x0:0x11ec37523ecfaa58,
perumahan,Perhimpunan Pengembang Perumahan,Rumah Pak Frans,"4JP3+GFM, Letsiara, Kec. Pulau-Pulau Babar, Kabupaten Maluku Barat Daya, Maluku","Kabupaten Maluku Barat Daya, Maluku",MALUKU,,Indonesia,,,,-7.863.657,12.960.367,https://maps.google.com/?cid=0x0:0x56c692fdc783856d,
perumahan,Perhimpunan Pengembang Perumahan,Jems,"4HPW+C46, Jl. Kalwedo, Tepa, Kec. Pulau-Pulau Babar, Kabupaten Maluku Barat Daya, Maluku","Kabupaten Maluku Barat Daya, Maluku",MALUKU,,Indonesia,,,,-7.864.906,129.594.878,https://maps.google.com/?cid=0x0:0x140e8ac8a4ffe689,
perumahan,perumahan,Waitota,"5H9V+Q6R, Letsiara, Kec. Pulau-Pulau Babar, Kabupaten Maluku Barat Daya, Maluku","Kabupaten Maluku Barat Daya, Maluku",MALUKU,,Indonesia,,,,-78.305.112,1.295.930.173,https://maps.google.com/?cid=0x0:0xfda6f56da4e8e3cc,
perumahan,perumahan,Kantor Camat Babar Barat,"Wurwely, Jalan Km. 1, Tepa, Maluku 97652","Jalan Km. 1, Tepa",MALUKU,97652.0,Indonesia,81248702655.0,,,-7.863.657,12.960.367,https://maps.google.com/?cid=0x0:0xef321408b49b83f4,
perumahan,Pembangunan Perumahan,Dusun Ilwyar,"Dusun Ilwyar, Kec. Pulau-Pulau Babar Timur, Maluku","Kabupaten Maluku Barat Daya, Maluku",MALUKU,,Indonesia,,,,-78.110.338,1.297.660.171,https://maps.google.com/?cid=0x0:0x78bd5f3148112ec0,
perumahan,Komplek perumahan,Lutur,"4GCF+XRQ, Rumah Lewang Besar, Kec. Pulau-Pulau Babar, Kabupaten Maluku Barat Daya, Maluku","Kabupaten Maluku Barat Daya, Maluku",MALUKU,,Indonesia,,,,-78.777.386,129.524.856,https://maps.google.com/?cid=0x0:0x4760a737294300f5,
perumahan,Komplek perumahan,Soa NinorMeya,"XMVC+PFP, Tela, Kec. Pulau-Pulau Babar, Kabupaten Maluku Barat Daya, Maluku","Kabupaten Maluku Barat Daya, Maluku",MALUKU,,Indonesia,,,,-80.056.519,1.296.712.091,https://maps.google.com/?cid=0x0:0xfae8d0644f9b1969,
perumahan,Komplek perumahan,Atus home,"4H9X+J5, Tepa, Kec. Pulau-Pulau Babar, Kabupaten Maluku Barat Daya, Maluku","Kabupaten Maluku Barat Daya, Maluku",MALUKU,,Indonesia,,,,-78.809.154,1.295.978.896,https://maps.google.com/?cid=0x0:0xedec801316527f14,
perumahan,Pembangunan Perumahan,Rmh keluarga Lokwatty,"CMVW+QQ, Lewah, Kec. Pulau-Pulau Babar, Kabupaten Maluku Barat Daya, Maluku","Kabupaten Maluku Barat Daya, Maluku",MALUKU,,Indonesia,,,,-75.555.437,1.296.968.761,https://maps.google.com/?cid=0x0:0x9b7ed8da01281e1c,
perumahan,perumahan,Maluku,,Maluku,MALUKU,,Indonesia,,,,-32.384.616,1.301.452.734,https://maps.google.com/?cid=0x0:0x5e30e8db04649a51,
perumahan,Pembangunan Perumahan,Dusun Ilwyar,"Dusun Ilwyar, Kec. Pulau-Pulau Babar Timur, Maluku","Kabupaten Maluku Barat Daya, Maluku",MALUKU,,Indonesia,,,,-78.110.338,1.297.660.171,https://maps.google.com/?cid=0x0:0x78bd5f3148112ec0,
perumahan,perumahan,Mata Rumah Matmey,"7264+XP, Letmasa, Dawelor Dawera, Kabupaten Maluku Barat Daya, Maluku","Kabupaten Maluku Barat Daya, Maluku",MALUKU,,Indonesia,,,,-77.378.757,1.300.076.459,https://maps.google.com/?cid=0x0:0x2ada5091562fbf31,
perumahan,Komplek perumahan,CELO HOME,"4HHV+PHG, Tepa, Kec. Pulau-Pulau Babar, Kabupaten Maluku Barat Daya, Maluku","Kabupaten Maluku Barat Daya, Maluku",MALUKU,,Indonesia,,,,-78.705.586,1.295.947.292,https://maps.google.com/?cid=0x0:0x7b29b40dfa740f1f,
perumahan,Komplek perumahan,Ahanari,"2RHC+FQ6, Ahanari, Kec. Pulau-Pulau Babar Timur, Kabupaten Maluku Barat Daya, Maluku","Kabupaten Maluku Barat Daya, Maluku",MALUKU,,Indonesia,,,,-79.720.549,1.298.218.041,https://maps.google.com/?cid=0x0:0x26ebde406ef0c998,
perumahan,Perhimpunan Pengembang Perumahan,Lekpery,"3VX8+26M, Letwurung, Kec. Pulau-Pulau Babar Timur, Kabupaten Maluku Barat Daya, Maluku","Kabupaten Maluku Barat Daya, Maluku",MALUKU,,Indonesia,,,,-7.902.791,1.298.649.539,https://maps.google.com/?cid=0x0:0xb6b578ae367282ee,
perumahan,perumahan,Rumah Bung Jensen Teurupun,"5HHX+XRF, Letsiara, Kec. Pulau-Pulau Babar, Kabupaten Maluku Barat Daya, Maluku","Kabupaten Maluku Barat Daya, Maluku",MALUKU,,Indonesia,,,,-78.198.889,1.296.009.778,https://maps.google.com/?cid=0x0:0x9500ce18ae89ee9,
perumahan,Pembangunan Perumahan,DESA AHANARI,"2RGC+VC9, Jl. Lain, Ahanari, Kec. Pulau-Pulau Babar Timur, Kabupaten Maluku Barat Daya, Maluku","Kabupaten Maluku Barat Daya, Maluku",MALUKU,,Indonesia,,,,-79.728.475,1.298.210.962,https://maps.google.com/?cid=0x0:0x7afb137c47e9a74,
perumahan,Komplek perumahan,Lutur,"4GCF+XRQ, Rumah Lewang Besar, Kec. Pulau-Pulau Babar, Kabupaten Maluku Barat Daya, Maluku","Kabupaten Maluku Barat Daya, Maluku",MALUKU,,Indonesia,,,,-78.777.386,129.524.856,https://maps.google.com/?cid=0x0:0x4760a737294300f5,
perumahan,Komplek perumahan,Kaka Bray,"3VW7+4WF, Jl. Lain, Letwurung, Kec. Pulau-Pulau Babar Timur, Kabupaten Maluku Barat Daya, Maluku","Kabupaten Maluku Barat Daya, Maluku",MALUKU,,Indonesia,,,,-79.039.188,1.298.650.379,https://maps.google.com/?cid=0x0:0x26525bbe8cbec156,
perumahan,Kantor Pemerintah,Desa Manuweri,"2R47+4FG, Analutur, Kec. Pulau-Pulau Babar Timur, Kabupaten Maluku Barat Daya, Maluku","Kabupaten Maluku Barat Daya, Maluku",MALUKU,,Indonesia,,,,-79.947.565,1.298.136.423,https://maps.google.com/?cid=0x0:0x7768696190224f77,
perumahan,Perumahan,Male salem,"3VJ6+75, Kokwari, Kec. Pulau-Pulau Babar Timur, Kabupaten Maluku Barat Daya, Maluku","Kabupaten Maluku Barat Daya, Maluku",MALUKU,,Indonesia,,,,-79.193.153,1.298.603.957,https://maps.google.com/?cid=0x0:0x1745e325e45b4e5c,
perumahan,Komplek perumahan,Rumah dinas,"4V26+6H, Kroing, Kec. Pulau-Pulau Babar Timur, Kabupaten Maluku Barat Daya, Maluku","Kabupaten Maluku Barat Daya, Maluku",MALUKU,,Indonesia,,,,-78.994.306,1.298.615.126,https://maps.google.com/?cid=0x0:0x64983921129475d3,
perumahan,Komplek perumahan,Kompleks Baleja,"XMVG+624, Tela, Kec. Pulau-Pulau Babar, Kabupaten Maluku Barat Daya, Maluku","Kabupaten Maluku Barat Daya, Maluku",MALUKU,,Indonesia,,,,-8.006.987,1.296.750.659,https://maps.google.com/?cid=0x0:0x712bc6a7bfffee3c,
perumahan,Komplek perumahan,Rumah Nio,"5JHR+9HX, Letsiara, Kec. Pulau-Pulau Babar, Kabupaten Maluku Barat Daya, Maluku","Kabupaten Maluku Barat Daya, Maluku",MALUKU,,Indonesia,,,,-78.215.182,1.296.414.935,https://maps.google.com/?cid=0x0:0x8072011b70c041ae,
perumahan,perumahan,Kantor Camat Babar Barat,"Wurwely, Jalan Km. 1, Tepa, Maluku 97652","Jalan Km. 1, Tepa",MALUKU,97652.0,Indonesia,81248702655.0,,,-7.863.657,12.960.367,https://maps.google.com/?cid=0x0:0xef321408b49b83f4,
perumahan,Komplek perumahan,Rumah Bpk.D.Taliak,"4HJV+HPV, Tepa, Kec. Pulau-Pulau Babar, Kabupaten Maluku Barat Daya, Maluku","Kabupaten Maluku Barat Daya, Maluku",MALUKU,,Indonesia,,,,-78.687.273,129.594.345,https://maps.google.com/?cid=0x0:0x48d03ed61d215439,
perumahan,Komplek perumahan,Keluarga. L.Maanary  E.Rehiara,"4HPW+2Q6, Tepa, Kec. Pulau-Pulau Babar, Kabupaten Maluku Barat Daya, Maluku","Kabupaten Maluku Barat Daya, Maluku",MALUKU,,Indonesia,,,,-7.864.964,1.295.969.044,https://maps.google.com/?cid=0x0:0x151d6f4278aa7fae,
perumahan,Komplek perumahan,Rumah Dinas SMA N 5 MBD,"4JH8+277, Tepa, Kec. Pulau-Pulau Babar, Kabupaten Maluku Barat Daya, Maluku","Kabupaten Maluku Barat Daya, Maluku",MALUKU,,Indonesia,,,,-78.724.685,1.296.156.785,https://maps.google.com/?cid=0x0:0x4db78d5fa3c11374,
perumahan,perumahan,Kec. Pulau-Pulau Babar Timur,"Kabupaten Maluku Barat Daya, Maluku","Kabupaten Maluku Barat Daya, Maluku",MALUKU,,Indonesia,,,,-79.029.614,1.298.648.243,https://maps.google.com/?cid=0x0:0x713e9d3f1d587e11,
perumahan,Perhimpunan Pengembang Perumahan,Rumah Pak Frans,"4JP3+GFM, Letsiara, Kec. Pulau-Pulau Babar, Kabupaten Maluku Barat Daya, Maluku","Kabupaten Maluku Barat Daya, Maluku",MALUKU,,Indonesia,,,,-7.863.657,12.960.367,https://maps.google.com/?cid=0x0:0x56c692fdc783856d,
perumahan,Pembangunan Perumahan,Rumah evav,"2RCC+V5, Ahanari, Kec. Pulau-Pulau Babar Timur, Kabupaten Maluku Barat Daya, Maluku","Kabupaten Maluku Barat Daya, Maluku",MALUKU,,Indonesia,,,,-7.977.778,129.820.384,https://maps.google.com/?cid=0x0:0x72dce4db2328ce82,
perumahan,Pembangunan Perumahan,Mama nita,"3VM6+3R, Kokwari, Kec. Pulau-Pulau Babar Timur, Kabupaten Maluku Barat Daya, Maluku","Kabupaten Maluku Barat Daya, Maluku",MALUKU,,Indonesia,,,,-79.173.643,1.298.620.315,https://maps.google.com/?cid=0x0:0x2c49a1f87de5ced5,
perumahan,perumahan,KEDIAMAN POWER RANGER,"3VW6+MWM, Letwurung, Kec. Pulau-Pulau Babar Timur, Kabupaten Maluku Barat Daya, Maluku","Kabupaten Maluku Barat Daya, Maluku",MALUKU,,Indonesia,,,,-79.035.472,1.298.631.369,https://maps.google.com/?cid=0x0:0xb7630b02dbe85728,
perumahan,Komplek perumahan,Chean Home,"5R7Q+9V3, Nakarhamto, Kec. Pulau-Pulau Babar Timur, Kabupaten Maluku Barat Daya, Maluku","Kabupaten Maluku Barat Daya, Maluku",MALUKU,,Indonesia,,,,-78.366.168,1.298.396.624,https://maps.google.com/?cid=0x0:0xb302019194cf6986,
perumahan,Komplek perumahan,Tanwey's Home,"4V34+4MC, Kroing, Kec. Pulau-Pulau Babar Timur, Kabupaten Maluku Barat Daya, Maluku","Kabupaten Maluku Barat Daya, Maluku",MALUKU,,Indonesia,,,,-78.971.959,1.298.566.483,https://maps.google.com/?cid=0x0:0xaf012a69eeda6501,
perumahan,Komplek perumahan,Rumah Kel W. Letlora,"3VW7+XMG, Letwurung, Kec. Pulau-Pulau Babar Timur, Kabupaten Maluku Barat Daya, Maluku","Kabupaten Maluku Barat Daya, Maluku",MALUKU,,Indonesia,,,,-79.025.666,1.298.642.031,https://maps.google.com/?cid=0x0:0xe73796804684665f,
perumahan,Komplek perumahan,Kel. Nus Untajana dan S. Lakburlawal,"3VX8+26M, Letwurung, Kec. Pulau-Pulau Babar Timur, Kabupaten Maluku Barat Daya, Maluku","Kabupaten Maluku Barat Daya, Maluku",MALUKU,,Indonesia,,,,-79.034.439,1.298.645.256,https://maps.google.com/?cid=0x0:0xab27302f84872643,
perumahan,Komplek perumahan,Jacky sulu,"4V26+6H, Kroing, Kec. Pulau-Pulau Babar Timur, Kabupaten Maluku Barat Daya, Maluku","Kabupaten Maluku Barat Daya, Maluku",MALUKU,,Indonesia,,,,-78.992.616,1.298.606.921,https://maps.google.com/?cid=0x0:0x563709b25f7b6cd3,
perumahan,perumahan,Pulau Wetar,"Kabupaten Maluku Barat Daya, Maluku","Kabupaten Maluku Barat Daya, Maluku",MALUKU,,Indonesia,,,,-77.851.588,1.263.498.097,https://maps.google.com/?cid=0x0:0x501150d5e877187,
perumahan,Gudang,Wetar,"753X+P59, Lurang, Kec. Wetar Utara, Kabupaten Maluku Barat Daya, Maluku","Kabupaten Maluku Barat Daya, Maluku",MALUKU,,Indonesia,,,,-77.457.034,1.261.979.764,https://maps.google.com/?cid=0x0:0x70eeccafc96f07c1,
perumahan,Komplek perumahan,Kampung Baru ( UHAK ),"875H+2C, Lurang, Kec. Wetar Utara, Kabupaten Maluku Barat Daya, Maluku","Kabupaten Maluku Barat Daya, Maluku",MALUKU,,Indonesia,,,,-76.924.055,1.262.785.443,https://maps.google.com/?cid=0x0:0x8a0217a6f887a063,
perumahan,Pembangunan Perumahan,kehutanan,"889P+5MR, Uhak, Pp. Wetar, Kabupaten Maluku Barat Daya, Maluku","Kabupaten Maluku Barat Daya, Maluku",MALUKU,,Indonesia,,,,-7.682.003,1.263.366.278,https://maps.google.com/?cid=0x0:0x93869aae1d5ad9ad,
perumahan,perumahan,FREDI WATAFURAN,"38MP+VFJ, Hiay, Pp. Wetar, Kabupaten Maluku Barat Daya, Maluku","Kabupaten Maluku Barat Daya, Maluku",MALUKU,,Indonesia,,,,-79.152.918,126.336.146,https://maps.google.com/?cid=0x0:0xc3ca373c743e66b6,
perumahan,perumahan,Keluarga Marthinus Maunary,"38PM+FXJ, Hiay, Pp. Wetar, Kabupaten Maluku Barat Daya, Maluku","Kabupaten Maluku Barat Daya, Maluku",MALUKU,,Indonesia,,,,-79.137.845,126.334.878,https://maps.google.com/?cid=0x0:0x83d008bd2bb0e7dd,
perumahan,Pembangunan Perumahan,Camp Masjid Lama,"874Q+5X, Uhak, Kec. Wetar Utara, Kabupaten Maluku Barat Daya, Maluku","Kabupaten Maluku Barat Daya, Maluku",MALUKU,,Indonesia,,,,-76.936.777,1.262.898.002,https://maps.google.com/?cid=0x0:0xa2cd30f1e11da38d,
perumahan,perumahan,OTNIEL MAUNARY,"38PM+HVX, Ilwaki, Pp. Wetar, Kabupaten Maluku Barat Daya, Maluku","Kabupaten Maluku Barat Daya, Maluku",MALUKU,,Indonesia,,,,-79.135.148,1.263.347.305,https://maps.google.com/?cid=0x0:0x8977a39b12d1862d,
perumahan,Perhimpunan Pengembang Perumahan,MONING,"9M8Q+7G9, Arwala, Pp. Wetar, Kabupaten Maluku Barat Daya, Maluku","Kabupaten Maluku Barat Daya, Maluku",MALUKU,,Indonesia,,,,-76.343.316,1.266.888.666,https://maps.google.com/?cid=0x0:0xf0c2e52e4e558f15,
perumahan,Perhimpunan Pengembang Perumahan,Target 1,"766H+7PW, Lurang, Kec. Wetar Utara, Kabupaten Maluku Barat Daya, Maluku","Kabupaten Maluku Barat Daya, Maluku",MALUKU,,Indonesia,,,,-77.392.695,1.262.293.241,https://maps.google.com/?cid=0x0:0x5ab2764b8a8a9c20,
perumahan,Komplek perumahan,Rumah Kost Bpk. Nahor,"889R+6F, Uhak, Kec. Wetar Utara, Kabupaten Maluku Barat Daya, Maluku","Kabupaten Maluku Barat Daya, Maluku",MALUKU,,Indonesia,,,,-7.681.924,126.341.179,https://maps.google.com/?cid=0x0:0x15ac57185bc51375,
perumahan,Komplek perumahan,R.Bp. Kris,"889Q+CHQ, Uhak, Pp. Wetar, Kabupaten Maluku Barat Daya, Maluku","Kabupaten Maluku Barat Daya, Maluku",MALUKU,,Indonesia,,,,-76.812.866,1.263.400.523,https://maps.google.com/?cid=0x0:0x9aadf61d8f440d53,
perumahan,Kantor Pemerintah,Desa Ilwaki,"3C8H+4J6, Ilwaki, Pp. Wetar, Kabupaten Maluku Barat Daya, Maluku","Kabupaten Maluku Barat Daya, Maluku",MALUKU,,Indonesia,,,,-79.347.125,1.264.290.156,https://maps.google.com/?cid=0x0:0x824a9b6e7db33923,
perumahan,perumahan,Serilli Maluku Barat Daya,"687X+WWM, Ilwaki, Pp. Wetar, Kabupaten Maluku Barat Daya, Maluku","Kabupaten Maluku Barat Daya, Maluku",MALUKU,,Indonesia,,,,-77.851.588,1.263.498.097,https://maps.google.com/?cid=0x0:0xf9b332cd4dadd8e5,
perumahan,perumahan,Noke Pelmelay,"Ilwaki, Pp. Wetar, Kabupaten Maluku Barat Daya, Maluku","Kabupaten Maluku Barat Daya, Maluku",MALUKU,,Indonesia,,,,-77.851.588,1.263.498.097,https://maps.google.com/?cid=0x0:0x67232f82398b6bf8,
perumahan,Komplek perumahan,Wingklaus home's,"38PM+FQ4, Hiay, Pp. Wetar, Kabupaten Maluku Barat Daya, Maluku","Kabupaten Maluku Barat Daya, Maluku",MALUKU,,Indonesia,,,,-79.138.665,1.263.344.663,https://maps.google.com/?cid=0x0:0x9d75d0ed6beb1d18,
perumahan,Gereja,Rumah Pastori Jemaat Arwala Ilway,"8RF5+F6Q, Ilway, Pp. Wetar, Kabupaten Maluku Barat Daya, Maluku","Kabupaten Maluku Barat Daya, Maluku",MALUKU,,Indonesia,,,,-76.762.827,1.268.081.089,https://maps.google.com/?cid=0x0:0x37bd5bae2352e0ab,
perumahan,Otoritas Pelabuhan,Pelabuhan lombok,"6MXR+66P, Ilpokil, Pp. Wetar, Kabupaten Maluku Barat Daya, Maluku","Kabupaten Maluku Barat Daya, Maluku",MALUKU,,Indonesia,,,,-77.519.189,1.266.905.872,https://maps.google.com/?cid=0x0:0xdb2ec0edc49f6cda,
perumahan,perumahan,Rumah mama Tina,"889Q+CHQ, lurang, Pp. Wetar, Kabupaten Maluku Barat Daya, Maluku","Kabupaten Maluku Barat Daya, Maluku",MALUKU,,Indonesia,,,,-76.814.125,1.263.389.844,https://maps.google.com/?cid=0x0:0x6940770735522f3b,
perumahan,Komplek perumahan,Perumahan Sukamekar Regency jl tulip,"Perumahan jl tulip No.7, Sukamekar, Kec. Sukawangi, Kabupaten Bekasi, Jawa Barat 17620","Sukamekar, Kec. Sukawangi, Kabupaten Bekasi",MALUKU,17620.0,Indonesia,85217816723.0,,,-61.592.578,1.070.494.817,https://maps.google.com/?cid=0x0:0x887e267912b51530,
perumahan,perumahan,Nama Rumah,"X528+MV, Wonreli, Kec. Pulau-pulau Terselatan, Kabupaten Maluku Barat Daya, Maluku","Kabupaten Maluku Barat Daya, Maluku",MALUKU,,Indonesia,,,,-8.048.996,127.167.393,https://maps.google.com/?cid=0x0:0x172ef586194759e9,
perumahan,perumahan,Kec. Pulau-pulau Terselatan,"Kabupaten Maluku Barat Daya, Maluku","Kabupaten Maluku Barat Daya, Maluku",MALUKU,,Indonesia,,,,-80.702.814,1.271.638.207,https://maps.google.com/?cid=0x0:0x3668501476639829,
perumahan,Komplek perumahan,PERUMAHAN PUSKESMAS LAMA,"W5G7+F2P, Wonreli, Kec. Pulau-pulau Terselatan, Kabupaten Maluku Barat Daya, Maluku","Kabupaten Maluku Barat Daya, Maluku",MALUKU,,Indonesia,,,,-8.073.784,127.162.593,https://maps.google.com/?cid=0x0:0x201e143e8ee34d36,
perumahan,Perhimpunan Pengembang Perumahan,INDONESIA,"W5MM+RXJ, Wonreli, Kec. Pulau-pulau Terselatan, Kabupaten Maluku Barat Daya, Maluku","Kabupaten Maluku Barat Daya, Maluku",MALUKU,,Indonesia,,,,-80.654.164,1.271.848.911,https://maps.google.com/?cid=0x0:0x827cf90e4519ade3,
perumahan,Komplek perumahan,Rumah iman,"X556+WR9, Lebelau, Kec. Pulau-pulau Terselatan, Kabupaten Maluku Barat Daya, Maluku","Kabupaten Maluku Barat Daya, Maluku",MALUKU,,Indonesia,82197839388.0,,,-80.402.212,1.271.621.028,https://maps.google.com/?cid=0x0:0x37430a220d736c2f,
perumahan,perumahan,Maluhraram (Randy),"W5W4+5JR, Wonreli, Kec. Pulau-pulau Terselatan, Kabupaten Maluku Barat Daya, Maluku","Kabupaten Maluku Barat Daya, Maluku",MALUKU,,Indonesia,,,,-8.054.524,1.271.565.097,https://maps.google.com/?cid=0x0:0x5921544dde603c65,
perumahan,Pembangunan Perumahan,KLM,"W5PC+J94, Unnamed Road, Wonreli, Kec. Pulau-pulau Terselatan, Kabupaten Maluku Barat Daya, Maluku","Kabupaten Maluku Barat Daya, Maluku",MALUKU,,Indonesia,,,,-8.063.491,127.170.948,https://maps.google.com/?cid=0x0:0xddc88a7624ee2164,
perumahan,perumahan,Tete Korokoro,"W5WM+QM6, Keitaru, Wonreli, Kec. Pulau-pulau Terselatan, Kabupaten Maluku Barat Daya, Maluku","Kabupaten Maluku Barat Daya, Maluku",MALUKU,,Indonesia,,,,-8.052.588,127.184.052,https://maps.google.com/?cid=0x0:0x34beb21b910cfe4,
perumahan,Komplek perumahan,Pilyai Home,"W5V6+GJ3, Wonreli, Kec. Pulau-pulau Terselatan, Kabupaten Maluku Barat Daya, Maluku","Kabupaten Maluku Barat Daya, Maluku",MALUKU,,Indonesia,85281752498.0,,,-80.562.353,1.271.615.472,https://maps.google.com/?cid=0x0:0xbd9fdecf92e8510b,
perumahan,Perhimpunan Pengembang Perumahan,Rumah Ando,"W5J9+88W, Wonreli, Kec. Pulau-pulau Terselatan, Kabupaten Maluku Barat Daya, Maluku","Kabupaten Maluku Barat Daya, Maluku",MALUKU,,Indonesia,,,,-80.691.281,1.271.683.147,https://maps.google.com/?cid=0x0:0x6ba62913b8c1fb0f,
perumahan,Perhimpunan Pengembang Perumahan,Oir kiliu,"X534+CPM, Wonreli, Kec. Pulau-pulau Terselatan, Kabupaten Maluku Barat Daya, Maluku","Kabupaten Maluku Barat Daya, Maluku",MALUKU,,Indonesia,,,,-80.464.053,1.271.567.952,https://maps.google.com/?cid=0x0:0xdacfdeb4a75c4d70,
perumahan,Komplek perumahan,Wailara,"W5V5+RW9, Wonreli, Kec. Pulau-pulau Terselatan, Kabupaten Maluku Barat Daya, Maluku","Kabupaten Maluku Barat Daya, Maluku",MALUKU,,Indonesia,,,,-8.055.261,127.159.692,https://maps.google.com/?cid=0x0:0x1d6da4932df185b,
perumahan,perumahan,Roy Letelay,"W5M7+294, Wonreli, Kec. Pulau-pulau Terselatan, Kabupaten Maluku Barat Daya, Maluku","Kabupaten Maluku Barat Daya, Maluku",MALUKU,,Indonesia,,,,-80.677.162,1.271.627.874,https://maps.google.com/?cid=0x0:0x1fc8dab52fba9442,
perumahan,Komplek perumahan,rumah pinem,"W5J8+993, Daiserwali Tim., Wonreli, Kec. Pulau-pulau Terselatan, Kabupaten Maluku Barat Daya, Maluku","Kabupaten Maluku Barat Daya, Maluku",MALUKU,,Indonesia,81265854920.0,,,-80.693.843,1.271.662.203,https://maps.google.com/?cid=0x0:0xac7c43654410b789,
perumahan,Balai Pertemuan Desa,Desa abusur,"W5GJ+QVC, Abusur, Kec. Pulau-pulau Terselatan, Kabupaten Maluku Barat Daya, Maluku","Kabupaten Maluku Barat Daya, Maluku",MALUKU,,Indonesia,,,,-80.730.646,1.271.821.269,https://maps.google.com/?cid=0x0:0x1e297394760531e6,
perumahan,Komplek perumahan,Rumah ahimas potimau,"W5X4+XHP, Wonreli, Kec. Pulau-pulau Terselatan, Kabupaten Maluku Barat Daya, Maluku","Kabupaten Maluku Barat Daya, Maluku",MALUKU,,Indonesia,,,,-8.050.027,1.271.564.429,https://maps.google.com/?cid=0x0:0x202f316adb8dfc50,
perumahan,Komplek perumahan,Toly,"Toly kisar, Wonreli, Kec. Pulau-pulau Terselatan, Kabupaten Maluku Barat Daya, Maluku","Kabupaten Maluku Barat Daya, Maluku",MALUKU,,Indonesia,,,,-80.652.461,1.271.714.542,https://maps.google.com/?cid=0x0:0xa2177ac6a42ee811,
perumahan,perumahan,Iwan Loimee,"Jl. Nenas No.1, Wonreli, Yawuru, Kabupaten Maluku Barat Daya, Maluku 97654","Wonreli, Yawuru, Kabupaten Maluku Barat Daya",MALUKU,97654.0,Indonesia,82393348035.0,,,-805.768,1.271.588.852,https://maps.google.com/?cid=0x0:0x54c471b44d4bdc7,
perumahan,Komplek perumahan,Rumah Rooy Taressy,"W633+4F, Wonreli, Kec. Pulau-pulau Terselatan, Kabupaten Maluku Barat Daya, Maluku","Kabupaten Maluku Barat Daya, Maluku",MALUKU,,Indonesia,,,,-80.971.641,1.272.037.638,https://maps.google.com/?cid=0x0:0x3b90688dd0a37333,
perumahan,Komplek perumahan,Kompleks Dewa,"W5WH+QQG, Wonreli, Kec. Pulau-pulau Terselatan, Kabupaten Maluku Barat Daya, Maluku","Kabupaten Maluku Barat Daya, Maluku",MALUKU,,Indonesia,,,,-80.530.527,1.271.794.485,https://maps.google.com/?cid=0x0:0x40465589b91582d9,
perumahan,Komplek perumahan,Bapa Oni Dadiara,"W5WM+QM6, Keitaru, Wonreli, Kec. Pulau-pulau Terselatan, Kabupaten Maluku Barat Daya, Maluku","Kabupaten Maluku Barat Daya, Maluku",MALUKU,,Indonesia,,,,-80.524.233,1.271.845.871,https://maps.google.com/?cid=0x0:0xe45c62023fc348db,
perumahan,perumahan,Kec. Pulau Letti,"Kabupaten Maluku Barat Daya, Maluku","Kabupaten Maluku Barat Daya, Maluku",MALUKU,,Indonesia,,,,-81.581.088,1.276.809.231,https://maps.google.com/?cid=0x0:0xa5d93595e880f516,
perumahan,perumahan,Maluku,,Maluku,MALUKU,,Indonesia,,,,-32.384.616,1.301.452.734,https://maps.google.com/?cid=0x0:0x5e30e8db04649a51,
perumahan,perumahan,Kec. Pulau Masela,"Kabupaten Maluku Barat Daya, Maluku","Kabupaten Maluku Barat Daya, Maluku",MALUKU,,Indonesia,,,,-81.584.174,1.298.704.314,https://maps.google.com/?cid=0x0:0xc4846e8cd1083f5c,
perumahan,perumahan,Pulau Masela,,,MALUKU,,Indonesia,,,,-8.15,1.298.333.333,https://maps.google.com/?cid=0x0:0x829aefa884a97772,
perumahan,perumahan,Dawelor Dawera,"Kabupaten Maluku Barat Daya, Maluku","Kabupaten Maluku Barat Daya, Maluku",MALUKU,,Indonesia,,,,-77.617.442,1.300.581.836,https://maps.google.com/?cid=0x0:0xfdc455be5380a875,
perumahan,perumahan,Mata Rumah Matmey,"7264+XP, Letmasa, Dawelor Dawera, Kabupaten Maluku Barat Daya, Maluku","Kabupaten Maluku Barat Daya, Maluku",MALUKU,,Indonesia,,,,-77.378.757,1.300.076.459,https://maps.google.com/?cid=0x0:0x2ada5091562fbf31,
perumahan,Komplek perumahan,Rumah Ria (tattoo ink),"7264+Q4P, Ilmarang, Dawelor Dawera, Kabupaten Maluku Barat Daya, Maluku","Kabupaten Maluku Barat Daya, Maluku",MALUKU,,Indonesia,,,,-77.380.484,1.300.053.412,https://maps.google.com/?cid=0x0:0xba143e8f1859c005,
perumahan,perumahan,"Rumah suangi ,amtu","7264+XP, Letmasa, Dawelor Dawera, Kabupaten Maluku Barat Daya, Maluku","Kabupaten Maluku Barat Daya, Maluku",MALUKU,,Indonesia,,,,-77.386.195,1.300.070.716,https://maps.google.com/?cid=0x0:0x65d6668f2f6335b7,
perumahan,Pembangunan Perumahan,Rumah CH. Saily,"63RG+JW, Wairatan, Dawelor Dawera, Kabupaten Maluku Barat Daya, Maluku","Kabupaten Maluku Barat Daya, Maluku",MALUKU,,Indonesia,,,,-77.584.025,1.300.774.409,https://maps.google.com/?cid=0x0:0xcc019d451d65ee72,
perumahan,perumahan,Pulau Dawera,"Dawelor Dawera, Kabupaten Maluku Barat Daya, Maluku","Kabupaten Maluku Barat Daya, Maluku",MALUKU,,Indonesia,,,,-77.240.985,1.300.068.953,https://maps.google.com/?cid=0x0:0x818dcb3207fcd882,
perumahan,perumahan,Pulau Daweloor,Maluku,Maluku,MALUKU,,Indonesia,,,,-77.692.697,1.300.684.361,https://maps.google.com/?cid=0x0:0xcf731eafda355182,
perumahan,Klinik Kesehatan,Puskesmas desa ilmarang,"7264+VP, Letmasa, Dawelor Dawera, Kabupaten Maluku Barat Daya, Maluku","Kabupaten Maluku Barat Daya, Maluku",MALUKU,,Indonesia,,,,-77.378.298,1.300.068.225,https://maps.google.com/?cid=0x0:0x4da41a4c6805a6f,
perumahan,Komplek perumahan,Keluarga Ever Kusuma,"62RQ+36W, Watuwey, Babar Tim, Kabupaten Maluku Barat Daya, Maluku","Kabupaten Maluku Barat Daya, Maluku",MALUKU,,Indonesia,,,,-77.599.264,1.300.375.784,https://maps.google.com/?cid=0x0:0xbc236fa8fca82496,
perumahan,Komplek perumahan,Rmh. T. J. Wutwensa,"62RQ+36W, Watuwey, Babar Tim, Kabupaten Maluku Barat Daya, Maluku","Kabupaten Maluku Barat Daya, Maluku",MALUKU,,Indonesia,,,,-7.759.784,1.300.379.885,https://maps.google.com/?cid=0x0:0x8fed5ca1be8f3f5a,
perumahan,perumahan,Rumah Lewang Besar,"Kec. Pulau Wetang, Kabupaten Maluku Barat Daya, Maluku","Kabupaten Maluku Barat Daya, Maluku",MALUKU,,Indonesia,,,,-78.886.012,1.295.304.121,https://maps.google.com/?cid=0x0:0xa5478294fe071c24,
perumahan,perumahan,Kec. Pulau Wetang,"Kabupaten Maluku Barat Daya, Maluku","Kabupaten Maluku Barat Daya, Maluku",MALUKU,,Indonesia,,,,-7.877.777,1.295.242.557,https://maps.google.com/?cid=0x0:0xe095aebcde7f7853,
perumahan,Perhimpunan Pengembang Perumahan,Marga waremra,"3HP3+6FF, Upuhupun, Kec. Pulau Wetang, Kabupaten Maluku Barat Daya, Maluku","Kabupaten Maluku Barat Daya, Maluku",MALUKU,,Indonesia,,,,-79.144.409,1.295.536.782,https://maps.google.com/?cid=0x0:0xc69116c576fcae63,
perumahan,perumahan,Pota Kecil,"4GCF+VMF, Rumah Lewang Besar, Kec. Pulau Wetang, Kabupaten Maluku Barat Daya, Maluku","Kabupaten Maluku Barat Daya, Maluku",MALUKU,,Indonesia,,,,-78.778.236,1.295.241.709,https://maps.google.com/?cid=0x0:0xf86a17c84331f162,
perumahan,perumahan,Rumah Lewang Kecil,"Kec. Pulau Wetang, Kabupaten Maluku Barat Daya, Maluku","Kabupaten Maluku Barat Daya, Maluku",MALUKU,,Indonesia,,,,-78.701.453,1.295.291.192,https://maps.google.com/?cid=0x0:0x9ebc920529ee6493,
perumahan,Komplek perumahan,Rumah Kel. Kores Rumkoda,"3G7J+882, Pota Kecil, Kec. Pulau Wetang, Kabupaten Maluku Barat Daya, Maluku","Kabupaten Maluku Barat Daya, Maluku",MALUKU,,Indonesia,,,,-79.367.342,129.530.778,https://maps.google.com/?cid=0x0:0xfc5299680be64d9e,
perumahan,Perhimpunan Pengembang Perumahan,Pota kecil,"3G7J+75V, Pota Kecil, Kec. Pulau Wetang, Kabupaten Maluku Barat Daya, Maluku","Kabupaten Maluku Barat Daya, Maluku",MALUKU,,Indonesia,,,,-79.367.722,1.295.304.121,https://maps.google.com/?cid=0x0:0x54ec2a12c7c2a186,
perumahan,Komplek perumahan,Lutur,"4GCF+XRQ, Rumah Lewang Besar, Kec. Pulau-Pulau Babar, Kabupaten Maluku Barat Daya, Maluku","Kabupaten Maluku Barat Daya, Maluku",MALUKU,,Indonesia,,,,-78.777.386,129.524.856,https://maps.google.com/?cid=0x0:0x4760a737294300f5,
perumahan,Komplek perumahan,Polwuni,"3HJ6+G53, Upuhupun, Kec. Pulau-Pulau Babar, Kabupaten Maluku Barat Daya, Maluku","Kabupaten Maluku Barat Daya, Maluku",MALUKU,,Indonesia,,,,-79.192.605,129.560.402,https://maps.google.com/?cid=0x0:0x6dc9bbbd33fd3583,
perumahan,perumahan,Pulau Wetan,"Kec. Pulau Wetang, Kabupaten Maluku Barat Daya, Maluku","Kabupaten Maluku Barat Daya, Maluku",MALUKU,,Indonesia,,,,-7.903.052,1.295.381.684,https://maps.google.com/?cid=0x0:0x78aa175343bb0b64,
perumahan,perumahan,Kec. Pulau Lakor,"Kabupaten Maluku Barat Daya, Maluku","Kabupaten Maluku Barat Daya, Maluku",MALUKU,,Indonesia,,,,-82.210.132,1.282.223.532,https://maps.google.com/?cid=0x0:0x753bbbe0b8b3d34a,
perumahan,Komplek perumahan,Rumah Keluarga Bapak Yopi Kosaplawan,"P5F5+38V, Lolotwara, Kec. Pulau Lakor, Kabupaten Maluku Barat Daya, Maluku","Kabupaten Maluku Barat Daya, Maluku",MALUKU,,Indonesia,,,,-82.772.507,1.281.583.488,https://maps.google.com/?cid=0x0:0x535125aa422b4dc2,
perumahan,Pembangunan Perumahan,Rumah sorsery (Lodna Sairy),"P5F2+2G3, Werwawan, Kec. Moa Lakor, Kabupaten Maluku Barat Daya, Maluku","Kabupaten Maluku Barat Daya, Maluku",MALUKU,,Indonesia,,,,-82.774.766,1.281.513.109,https://maps.google.com/?cid=0x0:0x41695f0cdb41eeb9,
perumahan,Komplek perumahan,KEDIAMAN JUDIKA UDIATA,"Q5M2+M84, Werwawan, Kec. Moa Lakor, Kabupaten Maluku Barat Daya, Maluku","Kabupaten Maluku Barat Daya, Maluku",MALUKU,,Indonesia,,,,-82.165.206,1.281.509.427,https://maps.google.com/?cid=0x0:0x2ae8c4c094d9a919,
perumahan,perumahan,RM.Bpk.J.Maudara,"Q5QF+WJW, Sera, Kec. Pulau Lakor, Kabupaten Maluku Barat Daya, Maluku","Kabupaten Maluku Barat Daya, Maluku",MALUKU,,Indonesia,,,,-82.101.318,1.281.740.718,https://maps.google.com/?cid=0x0:0xc9fed5106ad40216,
perumahan,Komplek perumahan,Rumah keluarga Tiau,"P5F6+532, Ketty, Kec. Pulau Lakor, Kabupaten Maluku Barat Daya, Maluku","Kabupaten Maluku Barat Daya, Maluku",MALUKU,,Indonesia,,,,-8.277.102,1.281.601.528,https://maps.google.com/?cid=0x0:0x608041543484ad76,
perumahan,Otoritas Perumahan,Ketty,"P5F2+94X, Werwawan, Kec. Moa Lakor, Kabupaten Maluku Barat Daya, Maluku","Kabupaten Maluku Barat Daya, Maluku",MALUKU,,Indonesia,,,,-82.765.041,128.150.356,https://maps.google.com/?cid=0x0:0xf7883677b2e950f8,
perumahan,Pembangunan Perumahan,N. RUNESI,"Q5QC+4QF, Sera, Kec. Pulau Lakor, Kabupaten Maluku Barat Daya, Maluku","Kabupaten Maluku Barat Daya, Maluku",MALUKU,,Indonesia,,,,-82.121.862,1.281.719.196,https://maps.google.com/?cid=0x0:0xe8d87c1947b2d491,
perumahan,Komplek perumahan,SERADONA,"P6VG+5QV, Lolotwara, Kec. Moa Lakor, Kabupaten Maluku Barat Daya, Maluku","Kabupaten Maluku Barat Daya, Maluku",MALUKU,,Indonesia,,,,-82.570.242,1.282.269.301,https://maps.google.com/?cid=0x0:0xd2e45d18798b1571,
perumahan,Pembangunan Perumahan,TES,"Q6G4+38W, Yamluli, Kec. Pulau Lakor, Kabupaten Maluku Barat Daya, Maluku","Kabupaten Maluku Barat Daya, Maluku",MALUKU,,Indonesia,,,,-82.247.658,1.282.058.155,https://maps.google.com/?cid=0x0:0x8ffe3135e441fb91,
perumahan,Hotel,Mr. Bob Radiena house,"Q5JF+7M2, Sera, Kec. Pulau Lakor, Kabupaten Maluku Barat Daya, Maluku","Kabupaten Maluku Barat Daya, Maluku",MALUKU,,Indonesia,,,,-821.935,1.281.741.371,https://maps.google.com/?cid=0x0:0x687634183d8f7f7b,
perumahan,Komplek perumahan,Rumah Bpk. AS RADIENA,"Q5RG+438, Sera, Kec. Pulau Lakor, Kabupaten Maluku Barat Daya, Maluku","Kabupaten Maluku Barat Daya, Maluku",MALUKU,,Indonesia,,,,-82.097.697,1.281.752.196,https://maps.google.com/?cid=0x0:0x7f15024a420e6dc,
perumahan,Hotel,Rom Paknana,"Ketty, Kec. Pulau Lakor, Kabupaten Maluku Barat Daya, Maluku","Kabupaten Maluku Barat Daya, Maluku",MALUKU,,Indonesia,,,,-82.570.625,1.281.644.407,https://maps.google.com/?cid=0x0:0xa87857876af25baf,
perumahan,perumahan,Pulau Wetar,"Kabupaten Maluku Barat Daya, Maluku","Kabupaten Maluku Barat Daya, Maluku",MALUKU,,Indonesia,,,,-77.851.588,1.263.498.097,https://maps.google.com/?cid=0x0:0x501150d5e877187,
perumahan,perumahan,Kec. Wetar Utara,"Kabupaten Maluku Barat Daya, Maluku","Kabupaten Maluku Barat Daya, Maluku",MALUKU,,Indonesia,,,,-76.814.948,1.263.382.789,https://maps.google.com/?cid=0x0:0x9da6a46338da1c9a,
perumahan,Komplek perumahan,Kampung Baru ( UHAK ),"875H+2C, Lurang, Kec. Wetar Utara, Kabupaten Maluku Barat Daya, Maluku","Kabupaten Maluku Barat Daya, Maluku",MALUKU,,Indonesia,,,,-76.924.055,1.262.785.443,https://maps.google.com/?cid=0x0:0x8a0217a6f887a063,
perumahan,Pembangunan Perumahan,Camp Masjid Lama,"874Q+5X, Uhak, Kec. Wetar Utara, Kabupaten Maluku Barat Daya, Maluku","Kabupaten Maluku Barat Daya, Maluku",MALUKU,,Indonesia,,,,-76.936.777,1.262.898.002,https://maps.google.com/?cid=0x0:0xa2cd30f1e11da38d,
perumahan,Pembangunan Perumahan,kehutanan,"889P+5MR, Uhak, Pp. Wetar, Kabupaten Maluku Barat Daya, Maluku","Kabupaten Maluku Barat Daya, Maluku",MALUKU,,Indonesia,,,,-7.682.003,1.263.366.278,https://maps.google.com/?cid=0x0:0x93869aae1d5ad9ad,
perumahan,Komplek perumahan,Rumah Kost Bpk. Nahor,"889R+6F, Uhak, Kec. Wetar Utara, Kabupaten Maluku Barat Daya, Maluku","Kabupaten Maluku Barat Daya, Maluku",MALUKU,,Indonesia,,,,-7.681.924,126.341.179,https://maps.google.com/?cid=0x0:0x15ac57185bc51375,
perumahan,Perhimpunan Pengembang Perumahan,Target 1,"766H+7PW, Lurang, Kec. Wetar Utara, Kabupaten Maluku Barat Daya, Maluku","Kabupaten Maluku Barat Daya, Maluku",MALUKU,,Indonesia,,,,-77.392.695,1.262.293.241,https://maps.google.com/?cid=0x0:0x5ab2764b8a8a9c20,
perumahan,Komplek perumahan,R.Bp. Kris,"889Q+CHQ, Uhak, Pp. Wetar, Kabupaten Maluku Barat Daya, Maluku","Kabupaten Maluku Barat Daya, Maluku",MALUKU,,Indonesia,,,,-76.812.866,1.263.400.523,https://maps.google.com/?cid=0x0:0x9aadf61d8f440d53,
perumahan,perumahan,Serilli Maluku Barat Daya,"687X+WWM, Ilwaki, Pp. Wetar, Kabupaten Maluku Barat Daya, Maluku","Kabupaten Maluku Barat Daya, Maluku",MALUKU,,Indonesia,,,,-77.851.588,1.263.498.097,https://maps.google.com/?cid=0x0:0xf9b332cd4dadd8e5,
perumahan,perumahan,KOS-Kosan Bpk. Nahor,"753X+P59, Lurang, Kec. Wetar Utara, Kabupaten Maluku Barat Daya, Maluku","Kabupaten Maluku Barat Daya, Maluku",MALUKU,,Indonesia,,,,-77.457.034,1.261.979.764,https://maps.google.com/?cid=0x0:0x12463e329ba7b407,
perumahan,perumahan,Noke Pelmelay,"Ilwaki, Pp. Wetar, Kabupaten Maluku Barat Daya, Maluku","Kabupaten Maluku Barat Daya, Maluku",MALUKU,,Indonesia,,,,-77.851.588,1.263.498.097,https://maps.google.com/?cid=0x0:0x67232f82398b6bf8,
perumahan,perumahan,Rumah mama Tina,"889Q+CHQ, lurang, Pp. Wetar, Kabupaten Maluku Barat Daya, Maluku","Kabupaten Maluku Barat Daya, Maluku",MALUKU,,Indonesia,,,,-76.814.125,1.263.389.844,https://maps.google.com/?cid=0x0:0x6940770735522f3b,
perumahan,perumahan,Kec. Wetar Barat,"Kabupaten Maluku Barat Daya, Maluku","Kabupaten Maluku Barat Daya, Maluku",MALUKU,,Indonesia,,,,-80.144.036,1.257.627.423,https://maps.google.com/?cid=0x0:0x1b539445f25c7d62,
perumahan,perumahan,Maluku,,Maluku,MALUKU,,Indonesia,,,,-32.384.616,1.301.452.734,https://maps.google.com/?cid=0x0:0x5e30e8db04649a51,
perumahan,perumahan,Melvin Vilen,"W577+FHP, Lekloor, Kec. Pulau-pulau Terselatan, Kabupaten Maluku Barat Daya, Maluku","Kabupaten Maluku Barat Daya, Maluku",MALUKU,,Indonesia,,,,-8.086.106,127.164.237,https://maps.google.com/?cid=0x0:0xe0bce44296d4ad7b,
perumahan,Komplek perumahan,Kampung Baru ( UHAK ),"875H+2C, Lurang, Kec. Wetar Utara, Kabupaten Maluku Barat Daya, Maluku","Kabupaten Maluku Barat Daya, Maluku",MALUKU,,Indonesia,,,,-76.924.055,1.262.785.443,https://maps.google.com/?cid=0x0:0x8a0217a6f887a063,
perumahan,perumahan,Roy Letelay,"W5M7+294, Wonreli, Kec. Pulau-pulau Terselatan, Kabupaten Maluku Barat Daya, Maluku","Kabupaten Maluku Barat Daya, Maluku",MALUKU,,Indonesia,,,,-80.677.162,1.271.627.874,https://maps.google.com/?cid=0x0:0x1fc8dab52fba9442,
perumahan,perumahan,FREDI WATAFURAN,"38MP+VFJ, Hiay, Pp. Wetar, Kabupaten Maluku Barat Daya, Maluku","Kabupaten Maluku Barat Daya, Maluku",MALUKU,,Indonesia,,,,-79.152.918,126.336.146,https://maps.google.com/?cid=0x0:0xc3ca373c743e66b6,
perumahan,Gudang,Wetar,"753X+P59, Lurang, Kec. Wetar Utara, Kabupaten Maluku Barat Daya, Maluku","Kabupaten Maluku Barat Daya, Maluku",MALUKU,,Indonesia,,,,-77.457.034,1.261.979.764,https://maps.google.com/?cid=0x0:0x70eeccafc96f07c1,
perumahan,perumahan,Tete Korokoro,"W5WM+QM6, Keitaru, Wonreli, Kec. Pulau-pulau Terselatan, Kabupaten Maluku Barat Daya, Maluku","Kabupaten Maluku Barat Daya, Maluku",MALUKU,,Indonesia,,,,-8.052.588,127.184.052,https://maps.google.com/?cid=0x0:0x34beb21b910cfe4,
perumahan,Pembangunan Perumahan,kehutanan,"889P+5MR, Uhak, Pp. Wetar, Kabupaten Maluku Barat Daya, Maluku","Kabupaten Maluku Barat Daya, Maluku",MALUKU,,Indonesia,,,,-7.682.003,1.263.366.278,https://maps.google.com/?cid=0x0:0x93869aae1d5ad9ad,
perumahan,perumahan,Nama Rumah,"X528+MV, Wonreli, Kec. Pulau-pulau Terselatan, Kabupaten Maluku Barat Daya, Maluku","Kabupaten Maluku Barat Daya, Maluku",MALUKU,,Indonesia,,,,-8.048.996,127.167.393,https://maps.google.com/?cid=0x0:0x172ef586194759e9,
perumahan,perumahan,Maluhraram (Randy),"W5W4+5JR, Wonreli, Kec. Pulau-pulau Terselatan, Kabupaten Maluku Barat Daya, Maluku","Kabupaten Maluku Barat Daya, Maluku",MALUKU,,Indonesia,,,,-8.054.524,1.271.565.097,https://maps.google.com/?cid=0x0:0x5921544dde603c65,
perumahan,Pembangunan Perumahan,Urlapa Timur (MAXY MAUPULA),"W5W4+9P, Wonreli, Kec. Pulau-pulau Terselatan, Kabupaten Maluku Barat Daya, Maluku","Kabupaten Maluku Barat Daya, Maluku",MALUKU,,Indonesia,,,,-80.540.625,1.271.568.125,https://maps.google.com/?cid=0x0:0x18385ddd860f60d3,
perumahan,Komplek perumahan,PERUMAHAN PUSKESMAS LAMA,"W5G7+F2P, Wonreli, Kec. Pulau-pulau Terselatan, Kabupaten Maluku Barat Daya, Maluku","Kabupaten Maluku Barat Daya, Maluku",MALUKU,,Indonesia,,,,-8.073.784,127.162.593,https://maps.google.com/?cid=0x0:0x201e143e8ee34d36,
perumahan,Komplek perumahan,Rumah ahimas potimau,"W5X4+XHP, Wonreli, Kec. Pulau-pulau Terselatan, Kabupaten Maluku Barat Daya, Maluku","Kabupaten Maluku Barat Daya, Maluku",MALUKU,,Indonesia,,,,-8.050.027,1.271.564.429,https://maps.google.com/?cid=0x0:0x202f316adb8dfc50,
perumahan,perumahan,OTNIEL MAUNARY,"38PM+HVX, Ilwaki, Pp. Wetar, Kabupaten Maluku Barat Daya, Maluku","Kabupaten Maluku Barat Daya, Maluku",MALUKU,,Indonesia,,,,-79.135.148,1.263.347.305,https://maps.google.com/?cid=0x0:0x8977a39b12d1862d,
perumahan,perumahan,Keluarga Marthinus Maunary,"38PM+FXJ, Hiay, Pp. Wetar, Kabupaten Maluku Barat Daya, Maluku","Kabupaten Maluku Barat Daya, Maluku",MALUKU,,Indonesia,,,,-79.137.845,126.334.878,https://maps.google.com/?cid=0x0:0x83d008bd2bb0e7dd,
perumahan,Perhimpunan Pengembang Perumahan,Workukulu Timur,"W5R7+HJC, Kota Lama, Kec. Pulau-pulau Terselatan, Kabupaten Maluku Barat Daya, Maluku","Kabupaten Maluku Barat Daya, Maluku",MALUKU,,Indonesia,,,,-80.585.588,1.271.640.222,https://maps.google.com/?cid=0x0:0xf5ddf5d0af9103a3,
perumahan,Perhimpunan Pengembang Perumahan,Oir kiliu,"X534+CPM, Wonreli, Kec. Pulau-pulau Terselatan, Kabupaten Maluku Barat Daya, Maluku","Kabupaten Maluku Barat Daya, Maluku",MALUKU,,Indonesia,,,,-80.464.053,1.271.567.952,https://maps.google.com/?cid=0x0:0xdacfdeb4a75c4d70,
perumahan,Komplek perumahan,Rumah Tua Rooy Taressy (by rotas),"W59P+7P9, Jl. Hunlory ,Oirata, Lekloor, Kec. Pulau-pulau Terselatan, Kabupaten Maluku Barat Daya, Maluku","Kabupaten Maluku Barat Daya, Maluku",MALUKU,,Indonesia,,,,-8.081.839,1.271.868.498,https://maps.google.com/?cid=0x0:0x5f78a5ce37b49674,
perumahan,Komplek perumahan,Rumah iman,"X556+WR9, Lebelau, Kec. Pulau-pulau Terselatan, Kabupaten Maluku Barat Daya, Maluku","Kabupaten Maluku Barat Daya, Maluku",MALUKU,,Indonesia,82197839388.0,,,-80.402.212,1.271.621.028,https://maps.google.com/?cid=0x0:0x37430a220d736c2f,
perumahan,Pembangunan Perumahan,Camp Masjid Lama,"874Q+5X, Uhak, Kec. Wetar Utara, Kabupaten Maluku Barat Daya, Maluku","Kabupaten Maluku Barat Daya, Maluku",MALUKU,,Indonesia,,,,-76.936.777,1.262.898.002,https://maps.google.com/?cid=0x0:0xa2cd30f1e11da38d,
perumahan,perumahan,Kec. Wetar Timur,"Kabupaten Maluku Barat Daya, Maluku","Kabupaten Maluku Barat Daya, Maluku",MALUKU,,Indonesia,,,,-76.759.352,1.268.082.461,https://maps.google.com/?cid=0x0:0xdd20d04bf1cbe2c2,
perumahan,Perhimpunan Pengembang Perumahan,MONING,"9M8Q+7G9, Arwala, Pp. Wetar, Kabupaten Maluku Barat Daya, Maluku","Kabupaten Maluku Barat Daya, Maluku",MALUKU,,Indonesia,,,,-76.343.316,1.266.888.666,https://maps.google.com/?cid=0x0:0xf0c2e52e4e558f15,
perumahan,Gereja,Rumah Pastori Jemaat Arwala Ilway,"8RF5+F6Q, Ilway, Pp. Wetar, Kabupaten Maluku Barat Daya, Maluku","Kabupaten Maluku Barat Daya, Maluku",MALUKU,,Indonesia,,,,-76.762.827,1.268.081.089,https://maps.google.com/?cid=0x0:0x37bd5bae2352e0ab,
perumahan,Gereja,Pastori jemaat moning,"9M8Q+FM8, Arwala, Pp. Wetar, Kabupaten Maluku Barat Daya, Maluku","Kabupaten Maluku Barat Daya, Maluku",MALUKU,,Indonesia,,,,-76.338.414,1.266.891.924,https://maps.google.com/?cid=0x0:0x88e6ac4a863b3359,
perumahan,Otoritas Pelabuhan,Pelabuhan lombok,"6MXR+66P, Ilpokil, Pp. Wetar, Kabupaten Maluku Barat Daya, Maluku","Kabupaten Maluku Barat Daya, Maluku",MALUKU,,Indonesia,,,,-77.519.189,1.266.905.872,https://maps.google.com/?cid=0x0:0xdb2ec0edc49f6cda,
perumahan,perumahan,Kec. Kepulauan Romang,"Kabupaten Maluku Barat Daya, Maluku","Kabupaten Maluku Barat Daya, Maluku",MALUKU,,Indonesia,,,,-75.913.438,1.273.710.665,https://maps.google.com/?cid=0x0:0xe9226fb89aebd4ca,
perumahan,perumahan,TALLUTA HOME,"CF32+V2P, Jerusu, Kec. Kepulauan Romang, Kabupaten Maluku Barat Daya, Maluku","Kabupaten Maluku Barat Daya, Maluku",MALUKU,,Indonesia,,,,-75.948.259,127.451.232,https://maps.google.com/?cid=0x0:0x64beec2010fd113f,
perumahan,perumahan,Rumah Elisabet Benyamin,"CF32+V2P, Jerusu, Kec. Kepulauan Romang, Kabupaten Maluku Barat Daya, Maluku","Kabupaten Maluku Barat Daya, Maluku",MALUKU,,Indonesia,,,,-75.940.275,1.274.506.666,https://maps.google.com/?cid=0x0:0x75785c2a3d03932a,
perumahan,Komplek perumahan,Dusun akualu,"CC2G+76, Jerusu, Kec. Kepulauan Romang, Kabupaten Maluku Barat Daya, Maluku","Kabupaten Maluku Barat Daya, Maluku",MALUKU,,Indonesia,,,,-75.993.091,1.274.256.424,https://maps.google.com/?cid=0x0:0xe6c87cda299b3c70,
perumahan,Komplek perumahan,DUSUN ATUNA,"CFVP+XF, Solath, Kec. Kepulauan Romang, Kabupaten Maluku Barat Daya, Maluku","Kabupaten Maluku Barat Daya, Maluku",MALUKU,,Indonesia,,,,-75.550.734,1.274.861.877,https://maps.google.com/?cid=0x0:0x1cee8fc28818080b,
perumahan,Komplek perumahan,DUSUN KOUR,"CF8C+9P, Jerusu, Kec. Kepulauan Romang, Kabupaten Maluku Barat Daya, Maluku","Kabupaten Maluku Barat Daya, Maluku",MALUKU,,Indonesia,,,,-75.841.043,1.274.718.182,https://maps.google.com/?cid=0x0:0xa4d5b41ce327dce2,
perumahan,perumahan,Griya Unhas Mawang,"CCW3+4J8, Romang Lompoa, Kec. Kepulauan Romang, Kabupaten Maluku Barat Daya, Maluku","Kabupaten Maluku Barat Daya, Maluku",MALUKU,,Indonesia,,,,-75.547.114,1.274.040.871,https://maps.google.com/?cid=0x0:0xfe4f063e5b5d522c,
perumahan,Komplek perumahan,Dusun Oirleli,"C96M+495, Hila, Kec. Kepulauan Romang, Kabupaten Maluku Barat Daya, Maluku","Kabupaten Maluku Barat Daya, Maluku",MALUKU,,Indonesia,,,,-7.589.735,127.383.499,https://maps.google.com/?cid=0x0:0xf3a144c1c5908771,
perumahan,perumahan,Nando Al Frans,"CC4X+6V, Jerusu, Kec. Kepulauan Romang, Kabupaten Maluku Barat Daya, Maluku","Kabupaten Maluku Barat Daya, Maluku",MALUKU,,Indonesia,,,,-75.943.773,1.274.497.446,https://maps.google.com/?cid=0x0:0xe4fdba04f301a587,
perumahan,perumahan,MIA HOUSE,"CF32+V2P, Jerusu, Kec. Kepulauan Romang, Kabupaten Maluku Barat Daya, Maluku","Kabupaten Maluku Barat Daya, Maluku",MALUKU,,Indonesia,,,,-75.953.452,127.450.078,https://maps.google.com/?cid=0x0:0x18123216f57fc196,
perumahan,Komplek perumahan,ABRAHAMSZ HOUSE,"CF42+4H, Jerusu, Kec. Kepulauan Romang, Kabupaten Maluku Barat Daya, Maluku","Kabupaten Maluku Barat Daya, Maluku",MALUKU,,Indonesia,,,,-75.946.633,1.274.513.841,https://maps.google.com/?cid=0x0:0x195f039279e4ad0d,
perumahan,perumahan,BINNENDYK HOUSE,"CF32+V2P, Jerusu, Kec. Kepulauan Romang, Kabupaten Maluku Barat Daya, Maluku","Kabupaten Maluku Barat Daya, Maluku",MALUKU,,Indonesia,,,,-75.945.697,1.274.512.567,https://maps.google.com/?cid=0x0:0xc9e7da90581900d8,
perumahan,perumahan,SOLATH,"F9RQ+67, Solath, Kabupaten Maluku Barat Daya, Maluku","Kabupaten Maluku Barat Daya, Maluku",MALUKU,,Indonesia,,,,-75.094.375,1.273.881.875,https://maps.google.com/?cid=0x0:0xd607a30457696105,
perumahan,perumahan,Kisar Utara,"Kabupaten Maluku Barat Daya, Maluku","Kabupaten Maluku Barat Daya, Maluku",MALUKU,,Indonesia,,,,-80.292.578,127.168.746,https://maps.google.com/?cid=0x0:0x28782aba3b9982ea,
perumahan,Komplek perumahan,WERU,"X599+WF, Lebelau, Kisar Utara, Kabupaten Maluku Barat Daya, Maluku","Kabupaten Maluku Barat Daya, Maluku",MALUKU,,Indonesia,,,,-80.306.003,1.271.692.063,https://maps.google.com/?cid=0x0:0x317e221d8ce63501,
perumahan,Rumah Kaca,Rumah alfred laurika,"X599+WF, Lebelau, Kisar Utara, Kabupaten Maluku Barat Daya, Maluku","Kabupaten Maluku Barat Daya, Maluku",MALUKU,,Indonesia,,,,-80.303.928,1.271.691.644,https://maps.google.com/?cid=0x0:0xc1e7c28280385a3,
perumahan,Komplek perumahan,Kampung Baru.,"X5CF+JXR, Lebelau, Kisar Utara, Kabupaten Maluku Barat Daya, Maluku","Kabupaten Maluku Barat Daya, Maluku",MALUKU,,Indonesia,,,,-80.283.985,1.271.748.946,https://maps.google.com/?cid=0x0:0x3bfdb1128a24b01b,
perumahan,Komplek perumahan,WONPORTILU,"X5C8+CJ, Lebelau, Kisar Utara, Kabupaten Maluku Barat Daya, Maluku","Kabupaten Maluku Barat Daya, Maluku",MALUKU,,Indonesia,,,,-80.287.719,1.271.665.104,https://maps.google.com/?cid=0x0:0x50420fe660e62b6,
perumahan,Komplek perumahan,Aumoliana,"X5C7+43Q, Lebelau, Kisar Utara, Kabupaten Maluku Barat Daya, Maluku","Kabupaten Maluku Barat Daya, Maluku",MALUKU,,Indonesia,,,,-80.296.629,1.271.627.358,https://maps.google.com/?cid=0x0:0x30f749c4ff2e7c10,
perumahan,Komplek perumahan,Rumah pajo wonley,"X5HF+5JG, Lebelau, Kisar Utara, Kabupaten Maluku Barat Daya, Maluku","Kabupaten Maluku Barat Daya, Maluku",MALUKU,,Indonesia,,,,-8.022.059,1.271.740.914,https://maps.google.com/?cid=0x0:0x5e6a52672af5f943,
perumahan,Pembangunan Perumahan,Kompleks Oiraram bawah,"X553+9RW, Lebelau, Kisar Utara, Kabupaten Maluku Barat Daya, Maluku","Kabupaten Maluku Barat Daya, Maluku",MALUKU,,Indonesia,,,,-80.415.102,1.271.545.933,https://maps.google.com/?cid=0x0:0x277de1f6dd1f3817,
perumahan,Perhimpunan Pengembang Perumahan,Oir kiliu,"X534+CPM, Wonreli, Kec. Pulau-pulau Terselatan, Kabupaten Maluku Barat Daya, Maluku","Kabupaten Maluku Barat Daya, Maluku",MALUKU,,Indonesia,,,,-80.464.053,1.271.567.952,https://maps.google.com/?cid=0x0:0xdacfdeb4a75c4d70,
perumahan,perumahan,Nama Rumah,"X528+MV, Wonreli, Kec. Pulau-pulau Terselatan, Kabupaten Maluku Barat Daya, Maluku","Kabupaten Maluku Barat Daya, Maluku",MALUKU,,Indonesia,,,,-8.048.996,127.167.393,https://maps.google.com/?cid=0x0:0x172ef586194759e9,
perumahan,Pembangunan Perumahan,Pahiono Karana,"X5HX+77P, Pur-Pura, Kisar Utara, Kabupaten Maluku Barat Daya, Maluku","Kabupaten Maluku Barat Daya, Maluku",MALUKU,,Indonesia,,,,-80.217.853,1.271.981.953,https://maps.google.com/?cid=0x0:0x5f037f61e58b71a2,
perumahan,Komplek perumahan,Y. M. Maromon,"X587+43, Lebelau, Kisar Utara, Kabupaten Maluku Barat Daya, Maluku","Kabupaten Maluku Barat Daya, Maluku",MALUKU,,Indonesia,,,,-80.347.027,1.271.626.875,https://maps.google.com/?cid=0x0:0xfb28efae075d62a3,
perumahan,Komplek perumahan,Rumah iman,"X556+WR9, Lebelau, Kec. Pulau-pulau Terselatan, Kabupaten Maluku Barat Daya, Maluku","Kabupaten Maluku Barat Daya, Maluku",MALUKU,,Indonesia,82197839388.0,,,-80.402.212,1.271.621.028,https://maps.google.com/?cid=0x0:0x37430a220d736c2f,
perumahan,Komplek perumahan,Nomaha wairusu,"X57X+V7G, Nomaha, Kisar Utara, Kabupaten Maluku Barat Daya, Maluku","Kabupaten Maluku Barat Daya, Maluku",MALUKU,,Indonesia,,,,-80.353.041,1.271.981.953,https://maps.google.com/?cid=0x0:0x98c51135db91b17f,
perumahan,perumahan,Tete Korokoro,"W5WM+QM6, Keitaru, Wonreli, Kec. Pulau-pulau Terselatan, Kabupaten Maluku Barat Daya, Maluku","Kabupaten Maluku Barat Daya, Maluku",MALUKU,,Indonesia,,,,-8.052.588,127.184.052,https://maps.google.com/?cid=0x0:0x34beb21b910cfe4,
perumahan,Pembangunan Perumahan,Pahiono Ra'iy,"X58Q+8VW, Jl. Lekpadara, Nomaha, Pur-Pura","Kabupaten Maluku Barat Daya, Maluku",MALUKU,,Indonesia,,,,-80.341.409,1.271.896.883,https://maps.google.com/?cid=0x0:0x4c5824efb739a59b,
perumahan,Komplek perumahan,Kompleks Loyara,"X58M+XX, Nomaha, Kec. Pulau-pulau Terselatan, Kabupaten Maluku Barat Daya, Maluku","Kabupaten Maluku Barat Daya, Maluku",MALUKU,,Indonesia,,,,-80.325.374,1.271.849.301,https://maps.google.com/?cid=0x0:0x45ebdb9e77aa4f3b,
perumahan,Komplek perumahan,Garry Ricardo Elias,"X5HX+77P, Lolsoklai, Pur-Pura, Sondawa, Kisar, Kabupaten Maluku Barat Daya, Maluku","Kabupaten Maluku Barat Daya, Maluku",MALUKU,,Indonesia,,,,-80.217.853,1.271.981.953,https://maps.google.com/?cid=0x0:0xcf431a599351000b,
perumahan,Komplek perumahan,Batu meja ( Kelvin Samadara,"X5HF+5JG, Lebelau, Kisar Utara, Kabupaten Maluku Barat Daya, Maluku","Kabupaten Maluku Barat Daya, Maluku",MALUKU,,Indonesia,,,,-8.022.059,1.271.740.914,https://maps.google.com/?cid=0x0:0x5059a2e4a30a9278,
perumahan,Komplek perumahan,Samuel alberthus,"X5C8+H43, Lebelau, Kisar Utara, Kabupaten Maluku Barat Daya, Maluku","Kabupaten Maluku Barat Daya, Maluku",MALUKU,,Indonesia,,,,-80.286.187,1.271.652.993,https://maps.google.com/?cid=0x0:0xb5699c0b67d0e8a9,
