Category,Real Category,Business Name,Address,City,State,Postal Code,Country,Phone,Email,Website,Latitude,Longitude,Map Link,Details Link
mall,Pusat Perbelanjaan,Bu Evi Mart,"Jl. Pariwisata, Bayan, Kec. Bayan, Kabupaten Lombok Utara, Nusa Tenggara Bar. 83354","Bayan, Kec. Bayan, Kabupaten Lombok Utara",NUSA TENGGARA BARAT,83354.0,Indonesia, 087864144635,,,-8.2909955,116.41154,https://maps.google.com/?cid=0x0:0x73805830ffb58ccc,
mall,mall,Bayan,"Obel Obel, Sambelia, Kabupaten Lombok Timur, Nusa Tenggara Bar.","Kabupaten Lombok Timur, Nusa Tenggara Bar.",NUSA TENGGARA BARAT,,Indonesia,,,,-8.263952,116.497299,https://maps.google.com/?cid=0x0:0xbc5dd41f89000b0,
mall,Toko Swalayan,Bambu Mart,"JGMP+6VH, Sembalun Lawang, Kec. Sembalun, Kabupaten Lombok Timur, Nusa Tenggara Bar. 83656","Sembalun Lawang, Kec. Sembalun, Kabupaten Lombok Timur",NUSA TENGGARA BARAT,83656.0,Indonesia, 082340235481,,,-8.3669269,116.5372224,https://maps.google.com/?cid=0x0:0x5fe40f85377b4bed,
mall,Pusat Perbelanjaan,Loloan,"PC2P+WRP, Loloan, Kec. Bayan, Kabupaten Lombok Utara, Nusa Tenggara Bar. 83354","Loloan, Kec. Bayan, Kabupaten Lombok Utara",NUSA TENGGARA BARAT,83354.0,Indonesia,,,,-8.297662,116.4370933,https://maps.google.com/?cid=0x0:0xf3181aa0ad1097e5,
mall,mall,Jawa Tengah 54222,"Kec. Bayan, Kabupaten Purworejo, Jawa Tengah","Kabupaten Purworejo, Jawa Tengah",NUSA TENGGARA BARAT,,Indonesia,,,,-7.7184513,109.9273566,https://maps.google.com/?cid=0x0:0x34bfa81995b63cec,
mall,Toko Pakaian Luar,PERMATA MART,"Jl. Besole No.42, RT.01/RW.02, Dusun II, Besole, Kec. Bayan, Kabupaten Purworejo, Jawa Tengah 54223","RT.01/RW.02, Dusun II, Besole, Kec. Bayan, Kabupaten Purworejo",NUSA TENGGARA BARAT,54223.0,Indonesia, 081328737270,,,-7.7226911,109.9299338,https://maps.google.com/?cid=0x0:0xa9ce164a9c8ff7c0,
mall,Toko Swalayan,LARIS Toserba  Swalayan Kutoarjo,"Jl. Gajah Mada, Krajan, Bandung Kidul, Kec. Bayan, Kabupaten Purworejo, Jawa Tengah 54224","Krajan, Bandung Kidul, Kec. Bayan, Kabupaten Purworejo",NUSA TENGGARA BARAT,54224.0,Indonesia,,,,-7.7193571,109.9221286,https://maps.google.com/?cid=0x0:0xf4fe5bd6abd27802,
mall,Toko,Nadhifa Herbal Pusat,"7WMF+6CH, Subur, Bandung Kidul, Kec. Bayan, Kabupaten Purworejo, Jawa Tengah 54224","Subur, Bandung Kidul, Kec. Bayan, Kabupaten Purworejo",NUSA TENGGARA BARAT,54224.0,Indonesia, 081228447736,,,-7.7169372,109.9235981,https://maps.google.com/?cid=0x0:0xc55364e113cb423a,
mall,Toko Aksesori Pakaian,Din's Accesories,"7WJJ+3RF, Dusun I, Besole, Kec. Bayan, Kabupaten Purworejo, Jawa Tengah 54223","Dusun I, Besole, Kec. Bayan, Kabupaten Purworejo",NUSA TENGGARA BARAT,54223.0,Indonesia, 082220547171,,,-7.7198026,109.9320364,https://maps.google.com/?cid=0x0:0x56a32f3e779d029e,
mall,Pusat Perbelanjaan,Faheeda Store,"Rt.02 / Rw.02 Bayan, Bayan, Dusun I, Bayan, Kec. Bayan, Kabupaten Purworejo, Jawa Tengah 54224","Bayan, Dusun I, Bayan, Kec. Bayan, Kabupaten Purworejo",NUSA TENGGARA BARAT,54224.0,Indonesia, 085799007091,,,-7.71905,109.9367205,https://maps.google.com/?cid=0x0:0xbdd5e2548ae8b1da,
mall,Pusat Perbelanjaan,Ligita,"Jl. Sampurna, Dusun I, Besole, Kec. Bayan, Kabupaten Purworejo, Jawa Tengah 54223","Dusun I, Besole, Kec. Bayan, Kabupaten Purworejo",NUSA TENGGARA BARAT,54223.0,Indonesia,,,,-7.7192465,109.9332487,https://maps.google.com/?cid=0x0:0xf6f380fa00acead9,
mall,Bengkel Sepeda,bengkel sepeda PANUT,"7WGC+P59, Krajan, Bandung Kidul, Kec. Bayan, Kabupaten Purworejo, Jawa Tengah 54224","Krajan, Bandung Kidul, Kec. Bayan, Kabupaten Purworejo",NUSA TENGGARA BARAT,54224.0,Indonesia,,,,-7.7232166,109.9204969,https://maps.google.com/?cid=0x0:0x1d3527be720e7464,
mall,Pusat Perbelanjaan,Warung Biru,"Jl. Sampurna, Dusun I, Besole, Kec. Bayan, Kabupaten Purworejo, Jawa Tengah 54223","Dusun I, Besole, Kec. Bayan, Kabupaten Purworejo",NUSA TENGGARA BARAT,54223.0,Indonesia,,,,-7.7188502,109.9333717,https://maps.google.com/?cid=0x0:0xd05c8d6c07328daf,
mall,Pusat Perbelanjaan,Kang yadi,"7WFQ+526, Dusun I, Boto Daleman, Kec. Bayan, Kabupaten Purworejo, Jawa Tengah 54224","Dusun I, Boto Daleman, Kec. Bayan, Kabupaten Purworejo",NUSA TENGGARA BARAT,54224.0,Indonesia,,,,-7.7270829,109.9375114,https://maps.google.com/?cid=0x0:0xb093a993b6bbd97a,
mall,Toko umum,Bakul Duren Sedulur Sejati,"7WHP+MC7, Dusun I, Boto Daleman, Kec. Bayan, Kabupaten Purworejo, Jawa Tengah 54224","Dusun I, Boto Daleman, Kec. Bayan, Kabupaten Purworejo",NUSA TENGGARA BARAT,54224.0,Indonesia, 081903761624,,,-7.7208461,109.9360521,https://maps.google.com/?cid=0x0:0xddcbffa99ca7e0dd,
mall,Toko Buah Kering,Durian Berkah,"7WHM+QJ5, Dusun I, Besole, Kec. Bayan, Kabupaten Purworejo, Jawa Tengah 54223","Dusun I, Besole, Kec. Bayan, Kabupaten Purworejo",NUSA TENGGARA BARAT,54223.0,Indonesia,,,,-7.7206027,109.9341117,https://maps.google.com/?cid=0x0:0x101cb609578672cb,
mall,Toko Swalayan,Toko kita,"Jl. Sampurna No.9, Dusun I, Pekutan, Kec. Bayan, Kabupaten Purworejo, Jawa Tengah 54224","Dusun I, Pekutan, Kec. Bayan, Kabupaten Purworejo",NUSA TENGGARA BARAT,54224.0,Indonesia, 081227040300,,,-7.7119287,109.935717,https://maps.google.com/?cid=0x0:0xd1af3e1b159aa6ab,
mall,Toko Pakaian,D'landstore,"7WHP+MH6, Dusun I, Boto Daleman, Kec. Bayan, Kabupaten Purworejo, Jawa Tengah 54224","Dusun I, Boto Daleman, Kec. Bayan, Kabupaten Purworejo",NUSA TENGGARA BARAT,54224.0,Indonesia, 089620971866,,,-7.7208476,109.936405,https://maps.google.com/?cid=0x0:0x9082858494aea03c,
mall,Toko Roti,Zulfa Donat (Tart dan kue kering),"Dusun I, Boto Daleman, Kec. Bayan, Kabupaten Purworejo, Jawa Tengah 54224","Boto Daleman, Kec. Bayan, Kabupaten Purworejo",NUSA TENGGARA BARAT,54224.0,Indonesia, 085642380457,,,-7.7270919,109.9349276,https://maps.google.com/?cid=0x0:0xb63b7ddc41be197b,
mall,Pusat Perbelanjaan,Warung Budhe As,"7WPC+QW5, Jl. Kramat 1, Bandung, Kec. Kutoarjo, Kabupaten Purworejo, Jawa Tengah 54211","Jl. Kramat 1, Bandung, Kec. Kutoarjo, Kabupaten Purworejo",NUSA TENGGARA BARAT,54211.0,Indonesia,,,,-7.7131207,109.9223583,https://maps.google.com/?cid=0x0:0xb0917ff2044fa0ab,
mall,Kompleks Kondominium,D'Piazza Mall,"70-1-76 D'Piazza Mall, Bayan Baru, 11900, Pulau Pinang, Malaysia","Bayan Baru,",NUSA TENGGARA BARAT,11900.0,Indonesia, +6046371999,,,5.3265257,100.2833421,https://maps.google.com/?cid=0x0:0x74ae564f747b1af3,
mall,Perhentian bus,Mal Queensbay,"100, Persiaran Bayan Indah, 11900 Bayan Lepas, Pulau Pinang, Malaysia",Bayan Lepas,NUSA TENGGARA BARAT,11900.0,Indonesia, +6046198989,,,5.333134,100.3069786,https://maps.google.com/?cid=0x0:0xfad4d772f2c85345,
mall,Dapur Umum,DAZ,"RT./w/RW.02, Dusun II, Besole, Kec. Bayan, Kabupaten Purworejo, Jawa Tengah 54223","Dusun II, Besole, Kec. Bayan, Kabupaten Purworejo",NUSA TENGGARA BARAT,54223.0,Indonesia, 085643100090,,,-7.7230209,109.9303767,https://maps.google.com/?cid=0x0:0xda38e2c1b77e0203,
mall,Pusat Perbelanjaan,Bu Evi Mart,"Jl. Pariwisata, Bayan, Kec. Bayan, Kabupaten Lombok Utara, Nusa Tenggara Bar. 83354","Bayan, Kec. Bayan, Kabupaten Lombok Utara",NUSA TENGGARA BARAT,83354.0,Indonesia, 087864144635,,,-8.2909955,116.41154,https://maps.google.com/?cid=0x0:0x73805830ffb58ccc,
mall,mall,Bayan,"Obel Obel, Sambelia, Kabupaten Lombok Timur, Nusa Tenggara Bar.","Kabupaten Lombok Timur, Nusa Tenggara Bar.",NUSA TENGGARA BARAT,,Indonesia,,,,-8.263952,116.497299,https://maps.google.com/?cid=0x0:0xbc5dd41f89000b0,
mall,Toko Swalayan,Bambu Mart,"JGMP+6VH, Sembalun Lawang, Kec. Sembalun, Kabupaten Lombok Timur, Nusa Tenggara Bar. 83656","Sembalun Lawang, Kec. Sembalun, Kabupaten Lombok Timur",NUSA TENGGARA BARAT,83656.0,Indonesia, 082340235481,,,-8.3669269,116.5372224,https://maps.google.com/?cid=0x0:0x5fe40f85377b4bed,
mall,mall,Bayan,"Obel Obel, Sambelia, Kabupaten Lombok Timur, Nusa Tenggara Bar.","Kabupaten Lombok Timur, Nusa Tenggara Bar.",NUSA TENGGARA BARAT,,Indonesia,,,,-8.263952,116.497299,https://maps.google.com/?cid=0x0:0xbc5dd41f89000b0,
mall,Pusat Perbelanjaan,Bu Evi Mart,"Jl. Pariwisata, Bayan, Kec. Bayan, Kabupaten Lombok Utara, Nusa Tenggara Bar. 83354","Bayan, Kec. Bayan, Kabupaten Lombok Utara",NUSA TENGGARA BARAT,83354.0,Indonesia, 087864144635,,,-8.2909955,116.41154,https://maps.google.com/?cid=0x0:0x73805830ffb58ccc,
mall,Minimarket,Simpang,"Jl. Batu Rakit, Sukadana, Kec. Bayan, Kabupaten Lombok Utara, Nusa Tenggara Bar. 83354","Sukadana, Kec. Bayan, Kabupaten Lombok Utara",NUSA TENGGARA BARAT,83354.0,Indonesia, 087882123309,,,-8.2481192,116.387426,https://maps.google.com/?cid=0x0:0x6e808826f1fbb32f,
mall,mall,Jawa Tengah 54224,"Kec. Bayan, Kabupaten Purworejo, Jawa Tengah","Kabupaten Purworejo, Jawa Tengah",NUSA TENGGARA BARAT,,Indonesia,,,,-7.7026346,109.9615952,https://maps.google.com/?cid=0x0:0xeb2589ef923c8da7,
mall,mall,Bayan,"Obel Obel, Sambelia, Kabupaten Lombok Timur, Nusa Tenggara Bar.","Kabupaten Lombok Timur, Nusa Tenggara Bar.",NUSA TENGGARA BARAT,,Indonesia,,,,-8.263952,116.497299,https://maps.google.com/?cid=0x0:0xbc5dd41f89000b0,
mall,Pusat Perbelanjaan,Bu Evi Mart,"Jl. Pariwisata, Bayan, Kec. Bayan, Kabupaten Lombok Utara, Nusa Tenggara Bar. 83354","Bayan, Kec. Bayan, Kabupaten Lombok Utara",NUSA TENGGARA BARAT,83354.0,Indonesia, 087864144635,,,-8.2909955,116.41154,https://maps.google.com/?cid=0x0:0x73805830ffb58ccc,
mall,Pusat Perbelanjaan,Loloan,"PC2P+WRP, Loloan, Kec. Bayan, Kabupaten Lombok Utara, Nusa Tenggara Bar. 83354","Loloan, Kec. Bayan, Kabupaten Lombok Utara",NUSA TENGGARA BARAT,83354.0,Indonesia,,,,-8.297662,116.4370933,https://maps.google.com/?cid=0x0:0xf3181aa0ad1097e5,
mall,mall,Villa Bambu Rinjani  Restaurant,"Jl. Pariwisata, Senaru, Kec. Bayan, Kabupaten Lombok Utara, Nusa Tenggara Bar. 83354","Senaru, Kec. Bayan, Kabupaten Lombok Utara",NUSA TENGGARA BARAT,83354.0,Indonesia, 087857629202,,,-8.303876,116.3999409,https://maps.google.com/?cid=0x0:0x244a03a2d0953675,
mall,mall,Nusa Tenggara Bar. 83353,"Kabupaten Lombok Utara, Nusa Tenggara Bar.","Kabupaten Lombok Utara, Nusa Tenggara Bar.",NUSA TENGGARA BARAT,,Indonesia,,,,-8.3555888,116.2540856,https://maps.google.com/?cid=0x0:0xe34777432b10f76c,
mall,Toko,EKAL CELL GANGGA,"J6XJ+6XF, Unnamed Road, Genggelang, Kec. Gangga, Kabupaten Lombok Utara, Nusa Tenggara Bar. 83353","Unnamed Road, Genggelang, Kec. Gangga, Kabupaten Lombok Utara",NUSA TENGGARA BARAT,83353.0,Indonesia,,,,-8.3519452,116.2324125,https://maps.google.com/?cid=0x0:0xcf7f8338207303e1,
mall,Pusat Perbelanjaan,Peken Genggelang,"M64Q+WM8, Genggelang, Kec. Gangga, Kabupaten Lombok Utara, Nusa Tenggara Bar. 83353","Genggelang, Kec. Gangga, Kabupaten Lombok Utara",NUSA TENGGARA BARAT,83353.0,Indonesia, 085333279333,,,-8.3427006,116.2392096,https://maps.google.com/?cid=0x0:0x2abcc48e12bbb4c3,
mall,Toko,Toko amelda,"M796+668, Unnamed Road, Rempek, Kec. Gangga, Kabupaten Lombok Utara, Nusa Tenggara Bar. 83353","Unnamed Road, Rempek, Kec. Gangga, Kabupaten Lombok Utara",NUSA TENGGARA BARAT,83353.0,Indonesia, 081337078328,,,-8.3319656,116.2605854,https://maps.google.com/?cid=0x0:0x6e191ca3b5b740b1,
mall,Pemasok Pupuk,STOKIST NASA LOMBOK UTARA,"M796+665, Unnamed Road, Rempek, Kec. Gangga, Kabupaten Lombok Utara, Nusa Tenggara Bar. 83353","Unnamed Road, Rempek, Kec. Gangga, Kabupaten Lombok Utara",NUSA TENGGARA BARAT,83353.0,Indonesia, 081337078328,,,-8.3319926,116.2605985,https://maps.google.com/?cid=0x0:0x30ec912c6d9639a4,
mall,Pusat Perbelanjaan,I  u cell,"Jl. Selelos No.16, Genggelang, Kec. Gangga, Kabupaten Lombok Utara, Nusa Tenggara Bar. 83353","Genggelang, Kec. Gangga, Kabupaten Lombok Utara",NUSA TENGGARA BARAT,83353.0,Indonesia, 081239777796,,,-8.340484,116.236718,https://maps.google.com/?cid=0x0:0xab462e48135b4653,
mall,Pusat Perbelanjaan,HUMANITY STORE ACT,"M58V+C4G, Gondang, Kec. Gangga, Kabupaten Lombok Utara, Nusa Tenggara Bar. 83353","Gondang, Kec. Gangga, Kabupaten Lombok Utara",NUSA TENGGARA BARAT,83353.0,Indonesia, 081933157390,,,-8.3339459,116.1928215,https://maps.google.com/?cid=0x0:0x18dc114c92767413,
mall,Toko,UD. Mitra Bangunan,"Gondang, Kec. Gangga, Kabupaten Lombok Utara, Nusa Tenggara Bar. 83353","Kec. Gangga, Kabupaten Lombok Utara",NUSA TENGGARA BARAT,83353.0,Indonesia, 085337690879,,,-8.3585108,116.1765001,https://maps.google.com/?cid=0x0:0x309ad71c8cc7cdab,
mall,Pusat Perbelanjaan,Pelangi,"Jl. Raya Gondang No.16, Gondang, Kec. Gangga, Kabupaten Lombok Utara, Nusa Tenggara Bar. 83353","Gondang, Kec. Gangga, Kabupaten Lombok Utara",NUSA TENGGARA BARAT,83353.0,Indonesia, 085205128381,,,-8.3384633,116.1911957,https://maps.google.com/?cid=0x0:0xea985b0139c58680,
mall,Taman,BALE KULAT DAN BONSAI,"M57V+7CH, Gondang, Kec. Gangga, Kabupaten Lombok Utara, Nusa Tenggara Bar. 83353","Gondang, Kec. Gangga, Kabupaten Lombok Utara",NUSA TENGGARA BARAT,83353.0,Indonesia, 085338633733,,,-8.3368174,116.193606,https://maps.google.com/?cid=0x0:0x6241c110a475c19c,
mall,Pusat Perbelanjaan,Yulfayanks,"M5MW+QJ2, Jl. Raya Gondang, Genggelang, Kec. Gangga, Kabupaten Lombok Utara, Nusa Tenggara Bar. 83353","Jl. Raya Gondang, Genggelang, Kec. Gangga, Kabupaten Lombok Utara",NUSA TENGGARA BARAT,83353.0,Indonesia,,,,-8.3156171,116.1965002,https://maps.google.com/?cid=0x0:0xc5e84a2e09ddaa0b,
mall,Toko,Najwa olshop,"P66C+X4Q, Jl. Raya Bayan, Sambik Bangkol, Kec. Gangga, Kabupaten Lombok Utara, Nusa Tenggara Bar. 83353","Jl. Raya Bayan, Sambik Bangkol, Kec. Gangga, Kabupaten Lombok Utara",NUSA TENGGARA BARAT,83353.0,Indonesia, 082236460846,,,-8.2875376,116.220366,https://maps.google.com/?cid=0x0:0xa3979d951ba7246d,
mall,Pusat Perbelanjaan,YUYUN CELL,"M7F2+86C, Rempek, Kec. Gangga, Kabupaten Lombok Utara, Nusa Tenggara Bar.","Kabupaten Lombok Utara, Nusa Tenggara Bar.",NUSA TENGGARA BARAT,,Indonesia,,,,-8.3266811,116.2505266,https://maps.google.com/?cid=0x0:0xf4343890827bfb44,
mall,Pusat Perbelanjaan,UD.CHIPCOM 2,"Jl. Raya Bayan, Gondang, Kec. Gangga, Kabupaten Lombok Utara, Nusa Tenggara Bar. 83353","Gondang, Kec. Gangga, Kabupaten Lombok Utara",NUSA TENGGARA BARAT,83353.0,Indonesia,,,,-8.3518179,116.1805835,https://maps.google.com/?cid=0x0:0x9e8d332a2e4ae748,
mall,Pusat Perbelanjaan,TOKO TALITA,"J6WJ+HXG, Unnamed Road, Genggelang, Kec. Gangga, Kabupaten Lombok Utara, Nusa Tenggara Bar. 83353","Unnamed Road, Genggelang, Kec. Gangga, Kabupaten Lombok Utara",NUSA TENGGARA BARAT,83353.0,Indonesia,,,,-8.3535699,116.2324385,https://maps.google.com/?cid=0x0:0x262a2ec550020002,
mall,Toko umum,Local Cashew Home Industries,"P66C+HCV, Sambik Bangkol, Kec. Gangga, Kabupaten Lombok Utara, Nusa Tenggara Bar. 83353","Sambik Bangkol, Kec. Gangga, Kabupaten Lombok Utara",NUSA TENGGARA BARAT,83353.0,Indonesia, 087865940557,,,-8.2885194,116.2210355,https://maps.google.com/?cid=0x0:0x122f5db53e0e0c95,
mall,Pondok pedesaan,Dusun Lengkukun Desa Kayangan Kecamatan Kayangan KLU,"P7QC+M57, Jl. Lengkukun, Dangiang, Kec. Kayangan, Kabupaten Lombok Utara, Nusa Tenggara Bar. 83353","Jl. Lengkukun, Dangiang, Kec. Kayangan, Kabupaten Lombok Utara",NUSA TENGGARA BARAT,83353.0,Indonesia,,,,-8.260831,116.2704318,https://maps.google.com/?cid=0x0:0xc7b04247c53ac5ce,
mall,Pusat Perbelanjaan,Warung Opik Subuh,"M56R+Q93, Kr. Anyar Jl. Raya Bayan, Gondang, Kec. Gangga, Kabupaten Lombok Utara, Nusa Tenggara Bar. 83353","Kr. Anyar Jl. Raya Bayan, Gondang, Kec. Gangga, Kabupaten Lombok Utara",NUSA TENGGARA BARAT,83353.0,Indonesia, 085205128381,,,-8.3381035,116.1909185,https://maps.google.com/?cid=0x0:0x900e59f7156682b2,
mall,Minimarket,INDOMARET GONDANG 2,"M5MW+VQJ, Jl. Raya Gondang, Gondang, Kec. Gangga, Kabupaten Lombok Utara, Nusa Tenggara Bar. 83353","Jl. Raya Gondang, Gondang, Kec. Gangga, Kabupaten Lombok Utara",NUSA TENGGARA BARAT,83353.0,Indonesia,,,,-8.3152772,116.1969024,https://maps.google.com/?cid=0x0:0x3fe50675a0c28ec6,
mall,Binatu Cucian Kering,YeZet Laundry,"Jl. Raya Gondang, Gondang, Kec. Gangga, Kabupaten Lombok Utara, Nusa Tenggara Bar. 83353","Gondang, Kec. Gangga, Kabupaten Lombok Utara",NUSA TENGGARA BARAT,83353.0,Indonesia, 087816454030,,,-8.3322091,116.1932928,https://maps.google.com/?cid=0x0:0x5504b8d1ba1ead52,
mall,Pusat Perbelanjaan,TOKO IBRAHIM OPIK,"P66C+952, Jl. Raya Bayan, Sambik Bangkol, Kec. Gangga, Kabupaten Lombok Utara, Nusa Tenggara Bar. 83353","Jl. Raya Bayan, Sambik Bangkol, Kec. Gangga, Kabupaten Lombok Utara",NUSA TENGGARA BARAT,83353.0,Indonesia,,,,-8.2891129,116.2204011,https://maps.google.com/?cid=0x0:0xef780ab6026f8e1e,
mall,Toko bahan makanan,BUMDES Tioq Makmur DESA Genggelang,"Jl. Selelos No.16, Genggelang, Kec. Gangga, Kabupaten Lombok Utara, Nusa Tenggara Bar. 83353","Genggelang, Kec. Gangga, Kabupaten Lombok Utara",NUSA TENGGARA BARAT,83353.0,Indonesia, 082341448110,,,-8.3374302,116.2323815,https://maps.google.com/?cid=0x0:0x7df467892b316294,
mall,mall,Nusa Tenggara Bar. 83353,"Kabupaten Lombok Utara, Nusa Tenggara Bar.","Kabupaten Lombok Utara, Nusa Tenggara Bar.",NUSA TENGGARA BARAT,,Indonesia,,,,-8.3555888,116.2540856,https://maps.google.com/?cid=0x0:0xe34777432b10f76c,
mall,Pondok pedesaan,Dusun Lengkukun Desa Kayangan Kecamatan Kayangan KLU,"P7QC+M57, Jl. Lengkukun, Dangiang, Kec. Kayangan, Kabupaten Lombok Utara, Nusa Tenggara Bar. 83353","Jl. Lengkukun, Dangiang, Kec. Kayangan, Kabupaten Lombok Utara",NUSA TENGGARA BARAT,83353.0,Indonesia,,,,-8.260831,116.2704318,https://maps.google.com/?cid=0x0:0xc7b04247c53ac5ce,
mall,Pasar,Pasar Rabuan,"Q78X+45M, Ds. Slengen Kec. Kab. Prov. NTB, Selengen, Kec. Kayangan, Kabupaten Lombok Utara, Nusa Tenggara Bar. 83353","Ds. Slengen Kec. Kab. Prov. NTB, Selengen, Kec. Kayangan, Kabupaten Lombok Utara",NUSA TENGGARA BARAT,83353.0,Indonesia, 087865248978,,,-8.2346506,116.2979346,https://maps.google.com/?cid=0x0:0x834bb14f2067dd40,
mall,Pemasok bonsai,STAND BONSAI KAYANGAN LOMBOK UTARA,"Kayangan, Beraringan, Kabupaten Lombok Utara, Nusa Tenggara Bar.","Kabupaten Lombok Utara, Nusa Tenggara Bar.",NUSA TENGGARA BARAT,,Indonesia, 081913238469,,,-8.2636288,116.2473636,https://maps.google.com/?cid=0x0:0x7a664717b7e0fb2d,
mall,Toko bahan makanan,Toko Piramida,"P72F+V5M, Gg. Ktrong Rengo, Sesait, Kec. Kayangan, Kabupaten Lombok Utara, Nusa Tenggara Bar. 83353","Gg. Ktrong Rengo, Sesait, Kec. Kayangan, Kabupaten Lombok Utara",NUSA TENGGARA BARAT,83353.0,Indonesia,,,,-8.2977869,116.2729181,https://maps.google.com/?cid=0x0:0x17e0d7444aa2d689,
mall,Pusat Perbelanjaan,Peken Genggelang,"M64Q+WM8, Genggelang, Kec. Gangga, Kabupaten Lombok Utara, Nusa Tenggara Bar. 83353","Genggelang, Kec. Gangga, Kabupaten Lombok Utara",NUSA TENGGARA BARAT,83353.0,Indonesia, 085333279333,,,-8.3427006,116.2392096,https://maps.google.com/?cid=0x0:0x2abcc48e12bbb4c3,
mall,Pusat Perbelanjaan,Elnoya store,"Bentek, Kec. Gangga, Kabupaten Lombok Utara, Nusa Tenggara Bar. 83353","Kec. Gangga, Kabupaten Lombok Utara",NUSA TENGGARA BARAT,83353.0,Indonesia,,,,-8.3766735,116.182593,https://maps.google.com/?cid=0x0:0xe6b27939198e0cf8,
mall,Toko Aksesori Pakaian,Marvel Variasi,"M7JQ+F8G, Santong, Kec. Kayangan, Kabupaten Lombok Utara, Nusa Tenggara Bar. 83353","Santong, Kec. Kayangan, Kabupaten Lombok Utara",NUSA TENGGARA BARAT,83353.0,Indonesia, 082340749132,,,-8.3188196,116.2883182,https://maps.google.com/?cid=0x0:0xe3573d526379d3ac,
mall,Pusat Perbelanjaan,Lombok Epicentrum Mall,"Jl. Sriwijaya No.333, Punia, Kec. Mataram, Kota Mataram, Nusa Tenggara Bar. 83127","Punia, Kec. Mataram, Kota Mataram",NUSA TENGGARA BARAT,83127.0,Indonesia, 03706172999,,,-8.5937943,116.104614,https://maps.google.com/?cid=0x0:0x3e70e3bb2865dfb5,
mall,Toko Swalayan,Dybala cell,"P73F+PV9, Sesait, Kec. Kayangan, Kabupaten Lombok Utara, Nusa Tenggara Bar. 83353","Sesait, Kec. Kayangan, Kabupaten Lombok Utara",NUSA TENGGARA BARAT,83353.0,Indonesia, 085339095123,,,-8.2957042,116.2747267,https://maps.google.com/?cid=0x0:0xb047d7f322acc717,
mall,Pusat Perbelanjaan,Yulfayanks,"M5MW+QJ2, Jl. Raya Gondang, Genggelang, Kec. Gangga, Kabupaten Lombok Utara, Nusa Tenggara Bar. 83353","Jl. Raya Gondang, Genggelang, Kec. Gangga, Kabupaten Lombok Utara",NUSA TENGGARA BARAT,83353.0,Indonesia,,,,-8.3156171,116.1965002,https://maps.google.com/?cid=0x0:0xc5e84a2e09ddaa0b,
mall,Pusat Perbelanjaan,Gudang batako pres.(fadil),"M7XR+P57, Dusun Batu Jompang, Sesait, Kec. Kayangan, Kabupaten Lombok Utara, Nusa Tenggara Bar. 83353","Dusun Batu Jompang, Sesait, Kec. Kayangan, Kabupaten Lombok Utara",NUSA TENGGARA BARAT,83353.0,Indonesia, 081337082816,,,-8.3007242,116.2904312,https://maps.google.com/?cid=0x0:0xe72ee0ace9acc8f3,
mall,Pertanian,budidaya TRIGONA,"Dusun beraringan, Kayangan, Kec. Kayangan, Kabupaten Lombok Utara, Nusa Tenggara Bar. 83755","Kayangan, Kec. Kayangan, Kabupaten Lombok Utara",NUSA TENGGARA BARAT,83755.0,Indonesia,,,,-8.2639426,116.2483674,https://maps.google.com/?cid=0x0:0x4bc57cd73f64c0d6,
mall,Toko Pakaian Bayi,Amora Baby Shop,"M7XH+PH8, Jl. Raya Santong, Sesait, Kec. Kayangan, Kabupaten Lombok Utara, Nusa Tenggara Bar. 83353","Jl. Raya Santong, Sesait, Kec. Kayangan, Kabupaten Lombok Utara",NUSA TENGGARA BARAT,83353.0,Indonesia,,,,-8.3007077,116.2789454,https://maps.google.com/?cid=0x0:0x41cb0ae22f73efb0,
mall,Toko,Toko Haji murti,"P7W5+6WM, Kayangan, Kec. Kayangan, Kabupaten Lombok Utara, Nusa Tenggara Bar.","Kabupaten Lombok Utara, Nusa Tenggara Bar.",NUSA TENGGARA BARAT,,Indonesia, 081907575335,,,-8.2544182,116.2597861,https://maps.google.com/?cid=0x0:0x50fc009ef0c56402,
mall,Tujuan Wisata,Wisata kolam Batu Lante,"M7PM+RH4, Jl. Sesait, Sesait, Kec. Kayangan, Kabupaten Lombok Utara, Nusa Tenggara Bar. 83353","Jl. Sesait, Sesait, Kec. Kayangan, Kabupaten Lombok Utara",NUSA TENGGARA BARAT,83353.0,Indonesia,,,,-8.3129937,116.2839505,https://maps.google.com/?cid=0x0:0x40ce18cb20bc7695,
mall,Pusat Perbelanjaan,Pelangi,"Jl. Raya Gondang No.16, Gondang, Kec. Gangga, Kabupaten Lombok Utara, Nusa Tenggara Bar. 83353","Gondang, Kec. Gangga, Kabupaten Lombok Utara",NUSA TENGGARA BARAT,83353.0,Indonesia, 085205128381,,,-8.3384633,116.1911957,https://maps.google.com/?cid=0x0:0xea985b0139c58680,
mall,Pusat Perbelanjaan,Mataram Mall,"Jl. Cilinaya No.7, Cilinaya, Kec. Cakranegara, Kota Mataram, Nusa Tenggara Bar. 83239","Cilinaya, Kec. Cakranegara, Kota Mataram",NUSA TENGGARA BARAT,83239.0,Indonesia,,,,-8.5876678,116.1197805,https://maps.google.com/?cid=0x0:0x5939781e7ffe400d,
mall,Toko,UD. Mitra Bangunan,"Gondang, Kec. Gangga, Kabupaten Lombok Utara, Nusa Tenggara Bar. 83353","Kec. Gangga, Kabupaten Lombok Utara",NUSA TENGGARA BARAT,83353.0,Indonesia, 085337690879,,,-8.3585108,116.1765001,https://maps.google.com/?cid=0x0:0x309ad71c8cc7cdab,
mall,Pusat Perbelanjaan,Batako Kuat (udin Sedunia),"M7XR+3P5, dusun batu jompang, Sesait, Kec. Kayangan, Kabupaten Lombok Utara, Nusa Tenggara Bar. 83353","dusun batu jompang, Sesait, Kec. Kayangan, Kabupaten Lombok Utara",NUSA TENGGARA BARAT,83353.0,Indonesia, 087788822640,,,-8.3023616,116.2918703,https://maps.google.com/?cid=0x0:0xfefa71838513f3ba,
mall,Pemasok Pupuk,STOKIST NASA LOMBOK UTARA,"M796+665, Unnamed Road, Rempek, Kec. Gangga, Kabupaten Lombok Utara, Nusa Tenggara Bar. 83353","Unnamed Road, Rempek, Kec. Gangga, Kabupaten Lombok Utara",NUSA TENGGARA BARAT,83353.0,Indonesia, 081337078328,,,-8.3319926,116.2605985,https://maps.google.com/?cid=0x0:0x30ec912c6d9639a4,
mall,Pusat Perbelanjaan,UD.CHIPCOM 2,"Jl. Raya Bayan, Gondang, Kec. Gangga, Kabupaten Lombok Utara, Nusa Tenggara Bar. 83353","Gondang, Kec. Gangga, Kabupaten Lombok Utara",NUSA TENGGARA BARAT,83353.0,Indonesia,,,,-8.3518179,116.1805835,https://maps.google.com/?cid=0x0:0x9e8d332a2e4ae748,
mall,mall,Nusa Tenggara Bar. 83352,"Kabupaten Lombok Utara, Nusa Tenggara Bar.","Kabupaten Lombok Utara, Nusa Tenggara Bar.",NUSA TENGGARA BARAT,,Indonesia,,,,-8.4131655,116.1477598,https://maps.google.com/?cid=0x0:0x35e4373277595e3,
mall,Pusat Perbelanjaan,Lotara Point,"Jl. Raya Pemenang - Senggigi, Pemenang Bar., Kec. Pemenang, Kabupaten Lombok Utara, Nusa Tenggara Bar. 83352","Pemenang Bar., Kec. Pemenang, Kabupaten Lombok Utara",NUSA TENGGARA BARAT,83352.0,Indonesia, 087864061277,,,-8.4045015,116.0970116,https://maps.google.com/?cid=0x0:0xc769e38ed80d76fc,
mall,Toko Swalayan,Aldi Shop Bangsal Pemenang Lombok,"Jl. Bangsal Baru No.99, Pemenang Bar., Kec. Pemenang, Kabupaten Lombok Utara, Nusa Tenggara Bar. 83352","Pemenang Bar., Kec. Pemenang, Kabupaten Lombok Utara",NUSA TENGGARA BARAT,83352.0,Indonesia,,,,-8.3974553,116.1004377,https://maps.google.com/?cid=0x0:0x821a5231fa729da4,
mall,Toko,Eiger Store Tanjung,"J5V4+RX8, Tanjung, Kec. Tj., Kabupaten Lombok Utara, Nusa Tenggara Bar. 83352","Tanjung, Kec. Tj., Kabupaten Lombok Utara",NUSA TENGGARA BARAT,83352.0,Indonesia, 089519666003,,,-8.3554691,116.1574416,https://maps.google.com/?cid=0x0:0x98edc7897f180cb4,
mall,Toko,Bale Niaga,"H3V8+9W9, Jl. Raya Senggigi, Malaka, Kec. Pemenang, Kabupaten Lombok Utara, Nusa Tenggara Bar. 83352","Jl. Raya Senggigi, Malaka, Kec. Pemenang, Kabupaten Lombok Utara",NUSA TENGGARA BARAT,83352.0,Indonesia, 081998998898,,,-8.40658,116.0673449,https://maps.google.com/?cid=0x0:0xe20393f1f2f3a53b,
mall,Komplek perumahan,Rest Area Pemenang,"H3WW+8MX, Jl. Raya Senggigi, Pemenang Bar., Kec. Pemenang, Kabupaten Lombok Utara, Nusa Tenggara Bar. 83352","Jl. Raya Senggigi, Pemenang Bar., Kec. Pemenang, Kabupaten Lombok Utara",NUSA TENGGARA BARAT,83352.0,Indonesia, 03706130862,,,-8.4041461,116.0967326,https://maps.google.com/?cid=0x0:0x703bbfed09ecd54b,
mall,Pusat Perbelanjaan,Mataram Mall,"Jl. Cilinaya No.7, Cilinaya, Kec. Cakranegara, Kota Mataram, Nusa Tenggara Bar. 83239","Cilinaya, Kec. Cakranegara, Kota Mataram",NUSA TENGGARA BARAT,83239.0,Indonesia,,,,-8.5876678,116.1197805,https://maps.google.com/?cid=0x0:0x5939781e7ffe400d,
mall,Toko,MULIA USAHA STORE,"Jl. H. Mansur, Sokong, Kec. Pemenang, Kabupaten Lombok Utara, Nusa Tenggara Bar. 83352","Sokong, Kec. Pemenang, Kabupaten Lombok Utara",NUSA TENGGARA BARAT,83352.0,Indonesia, 087864477773,,,-8.3587366,116.14913,https://maps.google.com/?cid=0x0:0x948d0e954b995430,
mall,Pusat Perbelanjaan,KOPRASI JANUR INDAH MART,"Jl. Gili Trawangan A1, Karang Baru, Selaparang, Kota Mataram, Nusa Tenggara Bar. 83352","Karang Baru, Selaparang, Kota Mataram",NUSA TENGGARA BARAT,83352.0,Indonesia, 087865785478,,,-8.3500217,116.0386818,https://maps.google.com/?cid=0x0:0x19306ded8451bea4,
mall,Sarapan,Oleh Oleh Lotara,"J4QW+V54, Jl. Raya Tj., Sokong, Kec. Tj., Kabupaten Lombok Utara, Nusa Tenggara Bar. 83352","Jl. Raya Tj., Sokong, Kec. Tj., Kabupaten Lombok Utara",NUSA TENGGARA BARAT,83352.0,Indonesia, 081239890009,,,-8.3600903,116.1455344,https://maps.google.com/?cid=0x0:0xc0af3b9e6e7e7ba8,
mall,Tempat Penjualan Teh,GILI STAR,"M25R+Q37 Di Gili Trawangan Deket spa suwite, Gili Indah, Kec. Pemenang, Kabupaten Lombok Utara, Nusa Tenggara Bar. 83352","Gili Indah, Kec. Pemenang, Kabupaten Lombok Utara",NUSA TENGGARA BARAT,83352.0,Indonesia, 087858750307,,,-8.3405751,116.0401699,https://maps.google.com/?cid=0x0:0xbe2a7e325d6668c0,
mall,Pusat Perbelanjaan,Elnoya store,"Bentek, Kec. Gangga, Kabupaten Lombok Utara, Nusa Tenggara Bar. 83353","Kec. Gangga, Kabupaten Lombok Utara",NUSA TENGGARA BARAT,83353.0,Indonesia,,,,-8.3766735,116.182593,https://maps.google.com/?cid=0x0:0xe6b27939198e0cf8,
mall,Pusat Perbelanjaan,Rizki Jaya GoldSmith,"H4V3+4QP, Unnamed Road, Pemenang Tim., Kec. Pemenang, Kabupaten Lombok Utara, Nusa Tenggara Bar. 83352","Unnamed Road, Pemenang Tim., Kec. Pemenang, Kabupaten Lombok Utara",NUSA TENGGARA BARAT,83352.0,Indonesia, 081803695836,,,-8.4071595,116.1044628,https://maps.google.com/?cid=0x0:0x36f0c3d15aa7bc5,
mall,Pusat Perbelanjaan,Ajeng Mart,"H28W+7RH, Jl. Raya Senggigi, Malaka, Kec. Pemenang, Kabupaten Lombok Utara, Nusa Tenggara Bar.","Kabupaten Lombok Utara, Nusa Tenggara Bar.",NUSA TENGGARA BARAT,,Indonesia, 081239146081,,,-8.434305,116.047098,https://maps.google.com/?cid=0x0:0xf2d9214be53913de,
mall,Pusat Perbelanjaan,Mutiara Lombok Asongan,"H2GV+RQJ, Malaka, Kec. Pemenang, Kabupaten Lombok Utara, Nusa Tenggara Bar.","Kabupaten Lombok Utara, Nusa Tenggara Bar.",NUSA TENGGARA BARAT,,Indonesia, 081917296111,,,-8.422921,116.0443826,https://maps.google.com/?cid=0x0:0x9f01b9776e9fdb9e,
mall,Pusat Perbelanjaan,Jepune kios,"Jl. Bangsal Baru, Pemenang Bar., Kec. Pemenang, Kabupaten Lombok Utara, Nusa Tenggara Bar. 83352","Pemenang Bar., Kec. Pemenang, Kabupaten Lombok Utara",NUSA TENGGARA BARAT,83352.0,Indonesia, 082340000510,,,-8.401157,116.1014916,https://maps.google.com/?cid=0x0:0xc7e04f94fb81ba83,
mall,Toko Suvenir,Artshop,"M22V+4C5, Jl. Pantai Gili Trawangan, Gili Indah, Kec. Pemenang, Kabupaten Lombok Utara, Nusa Tenggara Bar. 83352","Jl. Pantai Gili Trawangan, Gili Indah, Kec. Pemenang, Kabupaten Lombok Utara",NUSA TENGGARA BARAT,83352.0,Indonesia,,,,-8.3498384,116.0435459,https://maps.google.com/?cid=0x0:0x5d8a011488fc89a3,
mall,Grosir,Toko UD. Kayama,"Jl. Bangsal Baru No.184, Pemenang Bar., Kec. Pemenang, Kabupaten Lombok Utara, Nusa Tenggara Bar. 83352","Pemenang Bar., Kec. Pemenang, Kabupaten Lombok Utara",NUSA TENGGARA BARAT,83352.0,Indonesia,,,,-8.3943157,116.0993773,https://maps.google.com/?cid=0x0:0x459ba64efd4ded11,
mall,Toko Mainan,"ANUGERAH STORE, Toko Sepeda, Spare Part, Power Tolls, Toys, Boneka, Jas Hujan, Accesories","H4W3+45M, Pemenang Bar., Kec. Pemenang, Kabupaten Lombok Utara, Nusa Tenggara Bar. 83352","Pemenang Bar., Kec. Pemenang, Kabupaten Lombok Utara",NUSA TENGGARA BARAT,83352.0,Indonesia, 081803696974,,,-8.4046711,116.1029147,https://maps.google.com/?cid=0x0:0xf0a7a162855fc1b6,
mall,Toko,Gerald Shop,"J2WR+M49, Gili Indah, Kec. Pemenang, Kabupaten Lombok Utara, Nusa Tenggara Bar. 83352","Gili Indah, Kec. Pemenang, Kabupaten Lombok Utara",NUSA TENGGARA BARAT,83352.0,Indonesia, 087866789620,,,-8.3533287,116.0403453,https://maps.google.com/?cid=0x0:0xdb3085ea66821c0e,
mall,Toko Perlengkapan Rumah,Toko Bintang,"Jl. Raya Tj. No.2012, Sokong, Kec. Tj., Kabupaten Lombok Utara, Nusa Tenggara Bar. 83352","Sokong, Kec. Tj., Kabupaten Lombok Utara",NUSA TENGGARA BARAT,83352.0,Indonesia, 0818036246,,,-8.3577505,116.1513848,https://maps.google.com/?cid=0x0:0xab8e32354e9acef5,
mall,Pusat Perbelanjaan,Lombok Epicentrum Mall,"Jl. Sriwijaya No.333, Punia, Kec. Mataram, Kota Mataram, Nusa Tenggara Bar. 83127","Punia, Kec. Mataram, Kota Mataram",NUSA TENGGARA BARAT,83127.0,Indonesia, 03706172999,,,-8.5937943,116.104614,https://maps.google.com/?cid=0x0:0x3e70e3bb2865dfb5,
mall,Toko Elektronik,TERAS PHONSEL,"Unnamed Road, Sokong, Kec. Tj., Kabupaten Lombok Utara, Nusa Tenggara Bar. 83352","Sokong, Kec. Tj., Kabupaten Lombok Utara",NUSA TENGGARA BARAT,83352.0,Indonesia, 081246790000,,,-8.358787,116.1538165,https://maps.google.com/?cid=0x0:0xa51af9ecda220a5f,
mall,Toko Bahan Bangunan,UD PUTRA ABADI TRUUS,"H4W2+MVQ, Jl. Bangsal Baru, Pemenang Bar., Kec. Pemenang, Kabupaten Lombok Utara, Nusa Tenggara Bar. 83352","Jl. Bangsal Baru, Pemenang Bar., Kec. Pemenang, Kabupaten Lombok Utara",NUSA TENGGARA BARAT,83352.0,Indonesia,,,,-8.4032902,116.1022469,https://maps.google.com/?cid=0x0:0xc36f31ed9114ed41,
mall,mall,Kec. Tj.,"Kabupaten Lombok Utara, Nusa Tenggara Bar.","Kabupaten Lombok Utara, Nusa Tenggara Bar.",NUSA TENGGARA BARAT,,Indonesia,,,,-8.3559275,116.1556813,https://maps.google.com/?cid=0x0:0x947760e643a23d21,
mall,Sarapan,Oleh Oleh Lotara,"J4QW+V54, Jl. Raya Tj., Sokong, Kec. Tj., Kabupaten Lombok Utara, Nusa Tenggara Bar. 83352","Jl. Raya Tj., Sokong, Kec. Tj., Kabupaten Lombok Utara",NUSA TENGGARA BARAT,83352.0,Indonesia, 081239890009,,,-8.3600903,116.1455344,https://maps.google.com/?cid=0x0:0xc0af3b9e6e7e7ba8,
mall,Toko Swalayan,Tunas kelapa lombok,"J4PQ+QJ4, Jl. Raya Mataram - Tj., Sokong, Kec. Tj., Kabupaten Lombok Utara, Nusa Tenggara Bar. 83352","Jl. Raya Mataram - Tj., Sokong, Kec. Tj., Kabupaten Lombok Utara",NUSA TENGGARA BARAT,83352.0,Indonesia,,,,-8.3626766,116.1388775,https://maps.google.com/?cid=0x0:0x91f6d49ae498f0e4,
mall,Toko,Eiger Store Tanjung,"J5V4+RX8, Tanjung, Kec. Tj., Kabupaten Lombok Utara, Nusa Tenggara Bar. 83352","Tanjung, Kec. Tj., Kabupaten Lombok Utara",NUSA TENGGARA BARAT,83352.0,Indonesia, 089519666003,,,-8.3554691,116.1574416,https://maps.google.com/?cid=0x0:0x98edc7897f180cb4,
mall,Toko Perlengkapan Rumah,Toko Bintang,"Jl. Raya Tj. No.2012, Sokong, Kec. Tj., Kabupaten Lombok Utara, Nusa Tenggara Bar. 83352","Sokong, Kec. Tj., Kabupaten Lombok Utara",NUSA TENGGARA BARAT,83352.0,Indonesia, 0818036246,,,-8.3577505,116.1513848,https://maps.google.com/?cid=0x0:0xab8e32354e9acef5,
mall,mall,Toko Hulni Tembobor,"Jl. Raya Tj. No.38, Sigar Penjalin, Kec. Tj., Kabupaten Lombok Utara, Nusa Tenggara Bar. 83352","Sigar Penjalin, Kec. Tj., Kabupaten Lombok Utara",NUSA TENGGARA BARAT,83352.0,Indonesia,,,,-8.3775871,116.1226388,https://maps.google.com/?cid=0x0:0x357683ded0fe188a,
mall,Pusat Perbelanjaan,IQRO' CABANG TANJUNG,"J4RW+8X7, Sokong, Kec. Tj., Kabupaten Lombok Utara, Nusa Tenggara Bar. 83352","Sokong, Kec. Tj., Kabupaten Lombok Utara",NUSA TENGGARA BARAT,83352.0,Indonesia, 085338158085,,,-8.3592031,116.1474267,https://maps.google.com/?cid=0x0:0xcb2c4fe977c250b0,
mall,Pasar,Pasar Hewan Tanjung Lotara,"J4GR+G8W, Unnamed Road, Sokong, Kec. Tj., Kabupaten Lombok Utara, Nusa Tenggara Bar. 83352","Unnamed Road, Sokong, Kec. Tj., Kabupaten Lombok Utara",NUSA TENGGARA BARAT,83352.0,Indonesia,,,,-8.3736495,116.1408349,https://maps.google.com/?cid=0x0:0x49282ce4a88d89a8,
mall,Pusat Perbelanjaan,Toko Buk Ratsih,"J5X8+7XV, Jl. Raya Tj., Jenggala, Kec. Tj., Kabupaten Lombok Utara, Nusa Tenggara Bar. 83352","Jl. Raya Tj., Jenggala, Kec. Tj., Kabupaten Lombok Utara",NUSA TENGGARA BARAT,83352.0,Indonesia, 085337933178,,,-8.351751,116.1674246,https://maps.google.com/?cid=0x0:0xe5423fabba865824,
mall,Masjid,Masjid Batulili,"H4GR+53P, Teniga, Kec. Tj., Kabupaten Lombok Utara, Nusa Tenggara Bar. 83352","Teniga, Kec. Tj., Kabupaten Lombok Utara",NUSA TENGGARA BARAT,83352.0,Indonesia,,,,-8.4245395,116.1401972,https://maps.google.com/?cid=0x0:0x7b1ee1103b988c04,
mall,Pusat Perbelanjaan,"Df lombok, sementara","J4FJ+WFG, Jl. Latsitarda Kopang, Medana, Kec. Tj., Kabupaten Lombok Utara, Nusa Tenggara Bar. 83352","Jl. Latsitarda Kopang, Medana, Kec. Tj., Kabupaten Lombok Utara",NUSA TENGGARA BARAT,83352.0,Indonesia,,,,-8.375366,116.1312859,https://maps.google.com/?cid=0x0:0xe190e67824b67a60,
mall,Pusat Perbelanjaan,Lombok Epicentrum Mall,"Jl. Sriwijaya No.333, Punia, Kec. Mataram, Kota Mataram, Nusa Tenggara Bar. 83127","Punia, Kec. Mataram, Kota Mataram",NUSA TENGGARA BARAT,83127.0,Indonesia, 03706172999,,,-8.5937943,116.104614,https://maps.google.com/?cid=0x0:0x3e70e3bb2865dfb5,
mall,Toko,Toko ANWAR,"Unnamed Road, Jenggala, Kec. Tj., Kabupaten Lombok Utara, Nusa Tenggara Bar. 83352","Jenggala, Kec. Tj., Kabupaten Lombok Utara",NUSA TENGGARA BARAT,83352.0,Indonesia,,,,-8.3516789,116.1675341,https://maps.google.com/?cid=0x0:0xada9ea3252e4c046,
mall,Kantor Perusahaan,Sanggar Sari Kcang Mente,"DR 1040 AI, Sigar Penjalin, Kec. Tj., Kabupaten Lombok Utara, Nusa Tenggara Bar. 83352","Sigar Penjalin, Kec. Tj., Kabupaten Lombok Utara",NUSA TENGGARA BARAT,83352.0,Indonesia, 081703519769,,,-8.4013761,116.1279831,https://maps.google.com/?cid=0x0:0xedda81439921698a,
mall,Kafe,Omah Olief,"Sigar Penjalin, Kec. Tj., Kabupaten Lombok Utara, Nusa Tenggara Bar. 83352","Kec. Tj., Kabupaten Lombok Utara",NUSA TENGGARA BARAT,83352.0,Indonesia, 081326097001,,,-8.3814746,116.1165424,https://maps.google.com/?cid=0x0:0xe00704c558862429,
mall,Pusat Perbelanjaan,Elnoya store,"Bentek, Kec. Gangga, Kabupaten Lombok Utara, Nusa Tenggara Bar. 83353","Kec. Gangga, Kabupaten Lombok Utara",NUSA TENGGARA BARAT,83353.0,Indonesia,,,,-8.3766735,116.182593,https://maps.google.com/?cid=0x0:0xe6b27939198e0cf8,
mall,Pusat Perbelanjaan,UD.Yasa,"J4JJ+X6H, Medana, Kec. Tj., Kabupaten Lombok Utara, Nusa Tenggara Bar. 83352","Medana, Kec. Tj., Kabupaten Lombok Utara",NUSA TENGGARA BARAT,83352.0,Indonesia, 087864140634,,,-8.3675675,116.1306238,https://maps.google.com/?cid=0x0:0x9a37d4167dc2e067,
mall,Pusat Perbelanjaan,Oktari_NASA,"J5JF+G6P Masjid Raudhatul Jannah, langgem ,dusun montong, Jenggala, Kec. Tj., Kabupaten Lombok Utara, Nusa Tenggara Bar. 83352","langgem ,dusun montong, Jenggala, Kec. Tj., Kabupaten Lombok Utara",NUSA TENGGARA BARAT,83352.0,Indonesia, 085939810884,,,-8.3686704,116.1730705,https://maps.google.com/?cid=0x0:0xbb3e320e249ea76,
mall,Toko,MULIA USAHA STORE,"Jl. H. Mansur, Sokong, Kec. Pemenang, Kabupaten Lombok Utara, Nusa Tenggara Bar. 83352","Sokong, Kec. Pemenang, Kabupaten Lombok Utara",NUSA TENGGARA BARAT,83352.0,Indonesia, 087864477773,,,-8.3587366,116.14913,https://maps.google.com/?cid=0x0:0x948d0e954b995430,
mall,Pusat Perbelanjaan,NTB Mall,"Kawasan Barat Islamic Center, Jl. Langko, Dasan Agung, Kec. Selaparang, Kota Mataram, Nusa Tenggara Bar. 83125","Jl. Langko, Dasan Agung, Kec. Selaparang, Kota Mataram",NUSA TENGGARA BARAT,83125.0,Indonesia, 0818884222,,,-8.5800902,116.0999989,https://maps.google.com/?cid=0x0:0xfed83ba61647589c,
mall,Pasar,Pasar Tanjung,"4VF3+WMX, Jl. Cendrawasih, Tanjung, Kec. Tj., Kabupaten Brebes, Jawa Tengah 52254","Jl. Cendrawasih, Tanjung, Kec. Tj., Kabupaten Brebes",NUSA TENGGARA BARAT,52254.0,Indonesia,,,,-6.8751444,108.8542403,https://maps.google.com/?cid=0x0:0x4118daef76e557de,
mall,Pusat Perbelanjaan,Mataram Mall,"Jl. Cilinaya No.7, Cilinaya, Kec. Cakranegara, Kota Mataram, Nusa Tenggara Bar. 83239","Cilinaya, Kec. Cakranegara, Kota Mataram",NUSA TENGGARA BARAT,83239.0,Indonesia,,,,-8.5876678,116.1197805,https://maps.google.com/?cid=0x0:0x5939781e7ffe400d,
mall,Toko,Dunia Voucher,"Kemurang Wetan, Kec. Tj., Kabupaten Brebes, Jawa Tengah 52254","Kec. Tj., Kabupaten Brebes",NUSA TENGGARA BARAT,52254.0,Indonesia,,,,-6.8871263,108.8855565,https://maps.google.com/?cid=0x0:0x25509194cdc02497,
mall,Toko,"Depot / PusatKOSMETIK, Perlengkapan Bayi, Mainan Anak,ATK Dll,Toko Nabil Putra Gg.TPI Pengaradan","Gg. TPI, Pengaradan, Kec. Tj., Kabupaten Brebes, Jawa Tengah 52254","Pengaradan, Kec. Tj., Kabupaten Brebes",NUSA TENGGARA BARAT,52254.0,Indonesia,,,,-6.8430714,108.8737641,https://maps.google.com/?cid=0x0:0x572c0288e323eb42,
mall,Toko,Mita Store,"Krapyak, Kemurang Wetan, Kec. Tj., Kabupaten Brebes, Jawa Tengah 52254","Kemurang Wetan, Kec. Tj., Kabupaten Brebes",NUSA TENGGARA BARAT,52254.0,Indonesia, 083808616818,,,-6.8892799,108.8892498,https://maps.google.com/?cid=0x0:0x2ad2b5b201877afe,
mall,Pusat Perbelanjaan,DRAWES KOMUNIKA,"Luwungbata, Kec. Tj., Kabupaten Brebes, Jawa Tengah 52254","Kec. Tj., Kabupaten Brebes",NUSA TENGGARA BARAT,52254.0,Indonesia, 083135180888,,,-6.8987107,108.8331911,https://maps.google.com/?cid=0x0:0x29e685f036f5d4db,
mall,Toko bahan makanan,Toko Welly,"Jl. Cemara No.4, Dukuhtanjung, Tanjung, Kec. Tj., Kabupaten Brebes, Jawa Tengah 52254","Dukuhtanjung, Tanjung, Kec. Tj., Kabupaten Brebes",NUSA TENGGARA BARAT,52254.0,Indonesia,,,,-6.879272,108.8672967,https://maps.google.com/?cid=0x0:0xf3886fb66e5da627,
mall,Minimarket,S - Mart,"Jl. Cemara Gg SALAK No.9, RT.01/RW.02, Sengon Wetan, Sengon, Kec. Tj., Kabupaten Brebes, Jawa Tengah 52254","RT.01/RW.02, Sengon Wetan, Sengon, Kec. Tj., Kabupaten Brebes",NUSA TENGGARA BARAT,52254.0,Indonesia, 085786367779,,,-6.8901904,108.868775,https://maps.google.com/?cid=0x0:0x59d9967f8aaa841d,
mall,Toko,AsheemaShop,"4V99+98W, Sengon Wetan, Sengon, Kec. Tj., Kabupaten Brebes, Jawa Tengah 52254","Sengon Wetan, Sengon, Kec. Tj., Kabupaten Brebes",NUSA TENGGARA BARAT,52254.0,Indonesia, 081575792669,,,-6.881507,108.8683326,https://maps.google.com/?cid=0x0:0x7c014373c972a60f,
mall,mall,Kec. Tj.,"Kabupaten Lombok Utara, Nusa Tenggara Bar.","Kabupaten Lombok Utara, Nusa Tenggara Bar.",NUSA TENGGARA BARAT,,Indonesia,,,,-8.3559275,116.1556813,https://maps.google.com/?cid=0x0:0x947760e643a23d21,
mall,Toko,Eiger Store Tanjung,"J5V4+RX8, Tanjung, Kec. Tj., Kabupaten Lombok Utara, Nusa Tenggara Bar. 83352","Tanjung, Kec. Tj., Kabupaten Lombok Utara",NUSA TENGGARA BARAT,83352.0,Indonesia, 089519666003,,,-8.3554691,116.1574416,https://maps.google.com/?cid=0x0:0x98edc7897f180cb4,
mall,Sarapan,Oleh Oleh Lotara,"J4QW+V54, Jl. Raya Tj., Sokong, Kec. Tj., Kabupaten Lombok Utara, Nusa Tenggara Bar. 83352","Jl. Raya Tj., Sokong, Kec. Tj., Kabupaten Lombok Utara",NUSA TENGGARA BARAT,83352.0,Indonesia, 081239890009,,,-8.3600903,116.1455344,https://maps.google.com/?cid=0x0:0xc0af3b9e6e7e7ba8,
mall,Toko Perlengkapan Rumah,Toko Bintang,"Jl. Raya Tj. No.2012, Sokong, Kec. Tj., Kabupaten Lombok Utara, Nusa Tenggara Bar. 83352","Sokong, Kec. Tj., Kabupaten Lombok Utara",NUSA TENGGARA BARAT,83352.0,Indonesia, 0818036246,,,-8.3577505,116.1513848,https://maps.google.com/?cid=0x0:0xab8e32354e9acef5,
mall,Toko Swalayan,Tunas kelapa lombok,"J4PQ+QJ4, Jl. Raya Mataram - Tj., Sokong, Kec. Tj., Kabupaten Lombok Utara, Nusa Tenggara Bar. 83352","Jl. Raya Mataram - Tj., Sokong, Kec. Tj., Kabupaten Lombok Utara",NUSA TENGGARA BARAT,83352.0,Indonesia,,,,-8.3626766,116.1388775,https://maps.google.com/?cid=0x0:0x91f6d49ae498f0e4,
mall,Pusat Perbelanjaan,IQRO' CABANG TANJUNG,"J4RW+8X7, Sokong, Kec. Tj., Kabupaten Lombok Utara, Nusa Tenggara Bar. 83352","Sokong, Kec. Tj., Kabupaten Lombok Utara",NUSA TENGGARA BARAT,83352.0,Indonesia, 085338158085,,,-8.3592031,116.1474267,https://maps.google.com/?cid=0x0:0xcb2c4fe977c250b0,
mall,Pasar,Pasar Hewan Tanjung Lotara,"J4GR+G8W, Unnamed Road, Sokong, Kec. Tj., Kabupaten Lombok Utara, Nusa Tenggara Bar. 83352","Unnamed Road, Sokong, Kec. Tj., Kabupaten Lombok Utara",NUSA TENGGARA BARAT,83352.0,Indonesia,,,,-8.3736495,116.1408349,https://maps.google.com/?cid=0x0:0x49282ce4a88d89a8,
mall,Pusat Perbelanjaan,"Df lombok, sementara","J4FJ+WFG, Jl. Latsitarda Kopang, Medana, Kec. Tj., Kabupaten Lombok Utara, Nusa Tenggara Bar. 83352","Jl. Latsitarda Kopang, Medana, Kec. Tj., Kabupaten Lombok Utara",NUSA TENGGARA BARAT,83352.0,Indonesia,,,,-8.375366,116.1312859,https://maps.google.com/?cid=0x0:0xe190e67824b67a60,
mall,Pusat Perbelanjaan,Lombok Epicentrum Mall,"Jl. Sriwijaya No.333, Punia, Kec. Mataram, Kota Mataram, Nusa Tenggara Bar. 83127","Punia, Kec. Mataram, Kota Mataram",NUSA TENGGARA BARAT,83127.0,Indonesia, 03706172999,,,-8.5937943,116.104614,https://maps.google.com/?cid=0x0:0x3e70e3bb2865dfb5,
mall,Masjid,Masjid Batulili,"H4GR+53P, Teniga, Kec. Tj., Kabupaten Lombok Utara, Nusa Tenggara Bar. 83352","Teniga, Kec. Tj., Kabupaten Lombok Utara",NUSA TENGGARA BARAT,83352.0,Indonesia,,,,-8.4245395,116.1401972,https://maps.google.com/?cid=0x0:0x7b1ee1103b988c04,
mall,mall,Toko Hulni Tembobor,"Jl. Raya Tj. No.38, Sigar Penjalin, Kec. Tj., Kabupaten Lombok Utara, Nusa Tenggara Bar. 83352","Sigar Penjalin, Kec. Tj., Kabupaten Lombok Utara",NUSA TENGGARA BARAT,83352.0,Indonesia,,,,-8.3775871,116.1226388,https://maps.google.com/?cid=0x0:0x357683ded0fe188a,
mall,Pusat Perbelanjaan,Elnoya store,"Bentek, Kec. Gangga, Kabupaten Lombok Utara, Nusa Tenggara Bar. 83353","Kec. Gangga, Kabupaten Lombok Utara",NUSA TENGGARA BARAT,83353.0,Indonesia,,,,-8.3766735,116.182593,https://maps.google.com/?cid=0x0:0xe6b27939198e0cf8,
mall,Kantor Perusahaan,Sanggar Sari Kcang Mente,"DR 1040 AI, Sigar Penjalin, Kec. Tj., Kabupaten Lombok Utara, Nusa Tenggara Bar. 83352","Sigar Penjalin, Kec. Tj., Kabupaten Lombok Utara",NUSA TENGGARA BARAT,83352.0,Indonesia, 081703519769,,,-8.4013761,116.1279831,https://maps.google.com/?cid=0x0:0xedda81439921698a,
mall,Pusat Perbelanjaan,Toko Buk Ratsih,"J5X8+7XV, Jl. Raya Tj., Jenggala, Kec. Tj., Kabupaten Lombok Utara, Nusa Tenggara Bar. 83352","Jl. Raya Tj., Jenggala, Kec. Tj., Kabupaten Lombok Utara",NUSA TENGGARA BARAT,83352.0,Indonesia, 085337933178,,,-8.351751,116.1674246,https://maps.google.com/?cid=0x0:0xe5423fabba865824,
mall,Toko,MULIA USAHA STORE,"Jl. H. Mansur, Sokong, Kec. Pemenang, Kabupaten Lombok Utara, Nusa Tenggara Bar. 83352","Sokong, Kec. Pemenang, Kabupaten Lombok Utara",NUSA TENGGARA BARAT,83352.0,Indonesia, 087864477773,,,-8.3587366,116.14913,https://maps.google.com/?cid=0x0:0x948d0e954b995430,
mall,Pusat Perbelanjaan,UD.Yasa,"J4JJ+X6H, Medana, Kec. Tj., Kabupaten Lombok Utara, Nusa Tenggara Bar. 83352","Medana, Kec. Tj., Kabupaten Lombok Utara",NUSA TENGGARA BARAT,83352.0,Indonesia, 087864140634,,,-8.3675675,116.1306238,https://maps.google.com/?cid=0x0:0x9a37d4167dc2e067,
mall,Toko,Toko ANWAR,"Unnamed Road, Jenggala, Kec. Tj., Kabupaten Lombok Utara, Nusa Tenggara Bar. 83352","Jenggala, Kec. Tj., Kabupaten Lombok Utara",NUSA TENGGARA BARAT,83352.0,Indonesia,,,,-8.3516789,116.1675341,https://maps.google.com/?cid=0x0:0xada9ea3252e4c046,
mall,Pusat Perbelanjaan,UD SHODIQI,"J5H7+5JQ, Jl. Lading-Lading, Tanjung, Kec. Tj., Kabupaten Lombok Utara, Nusa Tenggara Bar. 83352","Jl. Lading-Lading, Tanjung, Kec. Tj., Kabupaten Lombok Utara",NUSA TENGGARA BARAT,83352.0,Indonesia, 087865173920,,,-8.3720407,116.1641095,https://maps.google.com/?cid=0x0:0xafa819556f0aab32,
mall,Kafe,Omah Olief,"Sigar Penjalin, Kec. Tj., Kabupaten Lombok Utara, Nusa Tenggara Bar. 83352","Kec. Tj., Kabupaten Lombok Utara",NUSA TENGGARA BARAT,83352.0,Indonesia, 081326097001,,,-8.3814746,116.1165424,https://maps.google.com/?cid=0x0:0xe00704c558862429,
mall,Pusat Perbelanjaan,Oktari_NASA,"J5JF+G6P Masjid Raudhatul Jannah, langgem ,dusun montong, Jenggala, Kec. Tj., Kabupaten Lombok Utara, Nusa Tenggara Bar. 83352","langgem ,dusun montong, Jenggala, Kec. Tj., Kabupaten Lombok Utara",NUSA TENGGARA BARAT,83352.0,Indonesia, 085939810884,,,-8.3686704,116.1730705,https://maps.google.com/?cid=0x0:0xbb3e320e249ea76,
mall,Pusat Perbelanjaan,NTB Mall,"Kawasan Barat Islamic Center, Jl. Langko, Dasan Agung, Kec. Selaparang, Kota Mataram, Nusa Tenggara Bar. 83125","Jl. Langko, Dasan Agung, Kec. Selaparang, Kota Mataram",NUSA TENGGARA BARAT,83125.0,Indonesia, 0818884222,,,-8.5800902,116.0999989,https://maps.google.com/?cid=0x0:0xfed83ba61647589c,
mall,Pusat Perbelanjaan,Mataram Mall,"Jl. Cilinaya No.7, Cilinaya, Kec. Cakranegara, Kota Mataram, Nusa Tenggara Bar. 83239","Cilinaya, Kec. Cakranegara, Kota Mataram",NUSA TENGGARA BARAT,83239.0,Indonesia,,,,-8.5876678,116.1197805,https://maps.google.com/?cid=0x0:0x5939781e7ffe400d,
mall,Pusat Perbelanjaan,Plaza Barunak,"R9PM+G72, Tanjung, Kec. Tj., Kabupaten Tabalong, Kalimantan Selatan 71571","Tanjung, Kec. Tj., Kabupaten Tabalong",NUSA TENGGARA BARAT,71571.0,Indonesia, 05262021035,,,-2.1637475,115.3831259,https://maps.google.com/?cid=0x0:0x4415ddcbc1989552,
mall,Kantor Catatan Sipil,Mal Pelayanan Publik Kab. Tabalong,"RCG9+V57, Jl. Pelita, Mabuun, Kec. Murung Pudak, Kabupaten Tabalong, Kalimantan Selatan 71571","Jl. Pelita, Mabuun, Kec. Murung Pudak, Kabupaten Tabalong",NUSA TENGGARA BARAT,71571.0,Indonesia,,,,-2.1728259,115.4179108,https://maps.google.com/?cid=0x0:0xf4e65ca5b766c2f8,
mall,Pusat Perbelanjaan,natalashop tanjung,"R9PM+FH5, Tanjung, Kec. Tj., Kabupaten Tabalong, Kalimantan Selatan 71571","Tanjung, Kec. Tj., Kabupaten Tabalong",NUSA TENGGARA BARAT,71571.0,Indonesia, 081250510845,,,-2.1638614,115.3839915,https://maps.google.com/?cid=0x0:0x169967b79458a775,
mall,Pusat Perbelanjaan,Toko Raja Undjun Tabalong,"V92Q+RHM, Jl. Basuki Rahmat, Agung, Kec. Tj., Kabupaten Tabalong, Kalimantan Selatan 71571","Jl. Basuki Rahmat, Agung, Kec. Tj., Kabupaten Tabalong",NUSA TENGGARA BARAT,71571.0,Indonesia, 081222221666,,,-2.1479233,115.3889258,https://maps.google.com/?cid=0x0:0x50654341b0eb157f,
mall,Pusat Perbelanjaan,Pasar Jum'at,"R9M9+VRG, Jl. Ahmad Yani, Jangkung, Kec. Tj., Kabupaten Tabalong, Kalimantan Selatan 71513","Jl. Ahmad Yani, Jangkung, Kec. Tj., Kabupaten Tabalong",NUSA TENGGARA BARAT,71513.0,Indonesia,,,,-2.1653182,115.3695785,https://maps.google.com/?cid=0x0:0xb19638a68cfdce60,
mall,Toko Swalayan,A.MIda Telor,"R9PC+RCJ, Jangkung, Kec. Tj., Kabupaten Tabalong, Kalimantan Selatan 71513","Jangkung, Kec. Tj., Kabupaten Tabalong",NUSA TENGGARA BARAT,71513.0,Indonesia, 081349741137,,,-2.1629082,115.3710013,https://maps.google.com/?cid=0x0:0x4b0d6dd2d10bd0a8,
mall,Toko,Eiger Store Tanjung,"J5V4+RX8, Tanjung, Kec. Tj., Kabupaten Lombok Utara, Nusa Tenggara Bar. 83352","Tanjung, Kec. Tj., Kabupaten Lombok Utara",NUSA TENGGARA BARAT,83352.0,Indonesia, 089519666003,,,-8.3554691,116.1574416,https://maps.google.com/?cid=0x0:0x98edc7897f180cb4,
mall,Sarapan,Oleh Oleh Lotara,"J4QW+V54, Jl. Raya Tj., Sokong, Kec. Tj., Kabupaten Lombok Utara, Nusa Tenggara Bar. 83352","Jl. Raya Tj., Sokong, Kec. Tj., Kabupaten Lombok Utara",NUSA TENGGARA BARAT,83352.0,Indonesia, 081239890009,,,-8.3600903,116.1455344,https://maps.google.com/?cid=0x0:0xc0af3b9e6e7e7ba8,
mall,mall,Kec. Tj.,"Kabupaten Lombok Utara, Nusa Tenggara Bar.","Kabupaten Lombok Utara, Nusa Tenggara Bar.",NUSA TENGGARA BARAT,,Indonesia,,,,-8.3559275,116.1556813,https://maps.google.com/?cid=0x0:0x947760e643a23d21,
mall,Toko Perlengkapan Rumah,Toko Bintang,"Jl. Raya Tj. No.2012, Sokong, Kec. Tj., Kabupaten Lombok Utara, Nusa Tenggara Bar. 83352","Sokong, Kec. Tj., Kabupaten Lombok Utara",NUSA TENGGARA BARAT,83352.0,Indonesia, 0818036246,,,-8.3577505,116.1513848,https://maps.google.com/?cid=0x0:0xab8e32354e9acef5,
mall,Toko Elektronik,TERAS PHONSEL,"Unnamed Road, Sokong, Kec. Tj., Kabupaten Lombok Utara, Nusa Tenggara Bar. 83352","Sokong, Kec. Tj., Kabupaten Lombok Utara",NUSA TENGGARA BARAT,83352.0,Indonesia, 081246790000,,,-8.358787,116.1538165,https://maps.google.com/?cid=0x0:0xa51af9ecda220a5f,
mall,Pusat Perbelanjaan,IQRO' CABANG TANJUNG,"J4RW+8X7, Sokong, Kec. Tj., Kabupaten Lombok Utara, Nusa Tenggara Bar. 83352","Sokong, Kec. Tj., Kabupaten Lombok Utara",NUSA TENGGARA BARAT,83352.0,Indonesia, 085338158085,,,-8.3592031,116.1474267,https://maps.google.com/?cid=0x0:0xcb2c4fe977c250b0,
mall,Pasar,Pasar Hewan Tanjung Lotara,"J4GR+G8W, Unnamed Road, Sokong, Kec. Tj., Kabupaten Lombok Utara, Nusa Tenggara Bar. 83352","Unnamed Road, Sokong, Kec. Tj., Kabupaten Lombok Utara",NUSA TENGGARA BARAT,83352.0,Indonesia,,,,-8.3736495,116.1408349,https://maps.google.com/?cid=0x0:0x49282ce4a88d89a8,
mall,Pusat Perbelanjaan,"Df lombok, sementara","J4FJ+WFG, Jl. Latsitarda Kopang, Medana, Kec. Tj., Kabupaten Lombok Utara, Nusa Tenggara Bar. 83352","Jl. Latsitarda Kopang, Medana, Kec. Tj., Kabupaten Lombok Utara",NUSA TENGGARA BARAT,83352.0,Indonesia,,,,-8.375366,116.1312859,https://maps.google.com/?cid=0x0:0xe190e67824b67a60,
mall,Masjid,Masjid Batulili,"H4GR+53P, Teniga, Kec. Tj., Kabupaten Lombok Utara, Nusa Tenggara Bar. 83352","Teniga, Kec. Tj., Kabupaten Lombok Utara",NUSA TENGGARA BARAT,83352.0,Indonesia,,,,-8.4245395,116.1401972,https://maps.google.com/?cid=0x0:0x7b1ee1103b988c04,
mall,mall,Toko Hulni Tembobor,"Jl. Raya Tj. No.38, Sigar Penjalin, Kec. Tj., Kabupaten Lombok Utara, Nusa Tenggara Bar. 83352","Sigar Penjalin, Kec. Tj., Kabupaten Lombok Utara",NUSA TENGGARA BARAT,83352.0,Indonesia,,,,-8.3775871,116.1226388,https://maps.google.com/?cid=0x0:0x357683ded0fe188a,
mall,Pusat Perbelanjaan,Lombok Epicentrum Mall,"Jl. Sriwijaya No.333, Punia, Kec. Mataram, Kota Mataram, Nusa Tenggara Bar. 83127","Punia, Kec. Mataram, Kota Mataram",NUSA TENGGARA BARAT,83127.0,Indonesia, 03706172999,,,-8.5937943,116.104614,https://maps.google.com/?cid=0x0:0x3e70e3bb2865dfb5,
mall,Kantor Perusahaan,Sanggar Sari Kcang Mente,"DR 1040 AI, Sigar Penjalin, Kec. Tj., Kabupaten Lombok Utara, Nusa Tenggara Bar. 83352","Sigar Penjalin, Kec. Tj., Kabupaten Lombok Utara",NUSA TENGGARA BARAT,83352.0,Indonesia, 081703519769,,,-8.4013761,116.1279831,https://maps.google.com/?cid=0x0:0xedda81439921698a,
mall,Pusat Perbelanjaan,Elnoya store,"Bentek, Kec. Gangga, Kabupaten Lombok Utara, Nusa Tenggara Bar. 83353","Kec. Gangga, Kabupaten Lombok Utara",NUSA TENGGARA BARAT,83353.0,Indonesia,,,,-8.3766735,116.182593,https://maps.google.com/?cid=0x0:0xe6b27939198e0cf8,
mall,Toko,MULIA USAHA STORE,"Jl. H. Mansur, Sokong, Kec. Pemenang, Kabupaten Lombok Utara, Nusa Tenggara Bar. 83352","Sokong, Kec. Pemenang, Kabupaten Lombok Utara",NUSA TENGGARA BARAT,83352.0,Indonesia, 087864477773,,,-8.3587366,116.14913,https://maps.google.com/?cid=0x0:0x948d0e954b995430,
mall,Pusat Perbelanjaan,Toko Buk Ratsih,"J5X8+7XV, Jl. Raya Tj., Jenggala, Kec. Tj., Kabupaten Lombok Utara, Nusa Tenggara Bar. 83352","Jl. Raya Tj., Jenggala, Kec. Tj., Kabupaten Lombok Utara",NUSA TENGGARA BARAT,83352.0,Indonesia, 085337933178,,,-8.351751,116.1674246,https://maps.google.com/?cid=0x0:0xe5423fabba865824,
mall,Pusat Perbelanjaan,Oktari_NASA,"J5JF+G6P Masjid Raudhatul Jannah, langgem ,dusun montong, Jenggala, Kec. Tj., Kabupaten Lombok Utara, Nusa Tenggara Bar. 83352","langgem ,dusun montong, Jenggala, Kec. Tj., Kabupaten Lombok Utara",NUSA TENGGARA BARAT,83352.0,Indonesia, 085939810884,,,-8.3686704,116.1730705,https://maps.google.com/?cid=0x0:0xbb3e320e249ea76,
mall,Pusat Perbelanjaan,UD.Yasa,"J4JJ+X6H, Medana, Kec. Tj., Kabupaten Lombok Utara, Nusa Tenggara Bar. 83352","Medana, Kec. Tj., Kabupaten Lombok Utara",NUSA TENGGARA BARAT,83352.0,Indonesia, 087864140634,,,-8.3675675,116.1306238,https://maps.google.com/?cid=0x0:0x9a37d4167dc2e067,
mall,Pusat Perbelanjaan,Mataram Mall,"Jl. Cilinaya No.7, Cilinaya, Kec. Cakranegara, Kota Mataram, Nusa Tenggara Bar. 83239","Cilinaya, Kec. Cakranegara, Kota Mataram",NUSA TENGGARA BARAT,83239.0,Indonesia,,,,-8.5876678,116.1197805,https://maps.google.com/?cid=0x0:0x5939781e7ffe400d,
mall,Pusat Perbelanjaan,UD SHODIQI,"J5H7+5JQ, Jl. Lading-Lading, Tanjung, Kec. Tj., Kabupaten Lombok Utara, Nusa Tenggara Bar. 83352","Jl. Lading-Lading, Tanjung, Kec. Tj., Kabupaten Lombok Utara",NUSA TENGGARA BARAT,83352.0,Indonesia, 087865173920,,,-8.3720407,116.1641095,https://maps.google.com/?cid=0x0:0xafa819556f0aab32,
mall,Kafe,Omah Olief,"Sigar Penjalin, Kec. Tj., Kabupaten Lombok Utara, Nusa Tenggara Bar. 83352","Kec. Tj., Kabupaten Lombok Utara",NUSA TENGGARA BARAT,83352.0,Indonesia, 081326097001,,,-8.3814746,116.1165424,https://maps.google.com/?cid=0x0:0xe00704c558862429,
mall,Pusat Perbelanjaan,NTB Mall,"Kawasan Barat Islamic Center, Jl. Langko, Dasan Agung, Kec. Selaparang, Kota Mataram, Nusa Tenggara Bar. 83125","Jl. Langko, Dasan Agung, Kec. Selaparang, Kota Mataram",NUSA TENGGARA BARAT,83125.0,Indonesia, 0818884222,,,-8.5800902,116.0999989,https://maps.google.com/?cid=0x0:0xfed83ba61647589c,
mall,mall,Kalimantan Selatan 71513,"Kec. Tj., Kabupaten Tabalong, Kalimantan Selatan","Kabupaten Tabalong, Kalimantan Selatan",NUSA TENGGARA BARAT,,Indonesia,,,,-2.1652707,115.3726469,https://maps.google.com/?cid=0x0:0x7c86073ef7456b91,
mall,Pusat Perbelanjaan,Plaza Barunak,"R9PM+G72, Tanjung, Kec. Tj., Kabupaten Tabalong, Kalimantan Selatan 71571","Tanjung, Kec. Tj., Kabupaten Tabalong",NUSA TENGGARA BARAT,71571.0,Indonesia, 05262021035,,,-2.1637475,115.3831259,https://maps.google.com/?cid=0x0:0x4415ddcbc1989552,
mall,Toko Buku,Pustaka najwa,"Jangkung, Kec. Tj., Kabupaten Tabalong, Kalimantan Selatan 71513","Kec. Tj., Kabupaten Tabalong",NUSA TENGGARA BARAT,71513.0,Indonesia,,,,-2.1641103,115.3674474,https://maps.google.com/?cid=0x0:0xf65a4a8bf0606294,
mall,Toko Ponsel,Hapeworld tanjung,"Mabuun, Kec. Tj., Kabupaten Tabalong, Kalimantan Selatan 71571","Kec. Tj., Kabupaten Tabalong",NUSA TENGGARA BARAT,71571.0,Indonesia, 081251268000,,,-2.1701625,115.4175977,https://maps.google.com/?cid=0x0:0x7be792ac80daf126,
mall,Pusat Perbelanjaan,natalashop tanjung,"R9PM+FH5, Tanjung, Kec. Tj., Kabupaten Tabalong, Kalimantan Selatan 71571","Tanjung, Kec. Tj., Kabupaten Tabalong",NUSA TENGGARA BARAT,71571.0,Indonesia, 081250510845,,,-2.1638614,115.3839915,https://maps.google.com/?cid=0x0:0x169967b79458a775,
mall,Pusat Perbelanjaan,Pasar Jum'at,"R9M9+VRG, Jl. Ahmad Yani, Jangkung, Kec. Tj., Kabupaten Tabalong, Kalimantan Selatan 71513","Jl. Ahmad Yani, Jangkung, Kec. Tj., Kabupaten Tabalong",NUSA TENGGARA BARAT,71513.0,Indonesia,,,,-2.1653182,115.3695785,https://maps.google.com/?cid=0x0:0xb19638a68cfdce60,
mall,Toko Swalayan,A.MIda Telor,"R9PC+RCJ, Jangkung, Kec. Tj., Kabupaten Tabalong, Kalimantan Selatan 71513","Jangkung, Kec. Tj., Kabupaten Tabalong",NUSA TENGGARA BARAT,71513.0,Indonesia, 081349741137,,,-2.1629082,115.3710013,https://maps.google.com/?cid=0x0:0x4b0d6dd2d10bd0a8,
mall,Pusat Perbelanjaan,Jangkung_outdoor,"R9PF+X89, Jl. Ahmad Yani, Jangkung, Kec. Tj., Kabupaten Tabalong, Kalimantan Selatan 71513","Jl. Ahmad Yani, Jangkung, Kec. Tj., Kabupaten Tabalong",NUSA TENGGARA BARAT,71513.0,Indonesia, 082211739966,,,-2.1630268,115.3708023,https://maps.google.com/?cid=0x0:0xf9c00ac5efc7d1fe,
mall,mall,Kec. Tj.,"Kabupaten Lombok Utara, Nusa Tenggara Bar.","Kabupaten Lombok Utara, Nusa Tenggara Bar.",NUSA TENGGARA BARAT,,Indonesia,,,,-8.3559275,116.1556813,https://maps.google.com/?cid=0x0:0x947760e643a23d21,
mall,Pusat Perbelanjaan,Lombok Epicentrum Mall,"Jl. Sriwijaya No.333, Punia, Kec. Mataram, Kota Mataram, Nusa Tenggara Bar. 83127","Punia, Kec. Mataram, Kota Mataram",NUSA TENGGARA BARAT,83127.0,Indonesia, 03706172999,,,-8.5937943,116.104614,https://maps.google.com/?cid=0x0:0x3e70e3bb2865dfb5,
mall,Toko Perlengkapan Rumah,Toko Bintang,"Jl. Raya Tj. No.2012, Sokong, Kec. Tj., Kabupaten Lombok Utara, Nusa Tenggara Bar. 83352","Sokong, Kec. Tj., Kabupaten Lombok Utara",NUSA TENGGARA BARAT,83352.0,Indonesia, 0818036246,,,-8.3577505,116.1513848,https://maps.google.com/?cid=0x0:0xab8e32354e9acef5,
mall,mall,Tanjung Online Shop,"M535+77R, Tanjung, Kec. Tj., Kabupaten Lombok Utara, Nusa Tenggara Bar. 83352","Tanjung, Kec. Tj., Kabupaten Lombok Utara",NUSA TENGGARA BARAT,83352.0,Indonesia, 081937926712,,,-8.3467615,116.1581348,https://maps.google.com/?cid=0x0:0xcee44d32174c10be,
mall,mall,Mulia Usaha Tanjung,"J4RX+HP9, Jl. Raya Mataram - Tj., Pemenang Bar., Kec. Tj., Kabupaten Lombok Utara, Nusa Tenggara Bar. 83352","Jl. Raya Mataram - Tj., Pemenang Bar., Kec. Tj., Kabupaten Lombok Utara",NUSA TENGGARA BARAT,83352.0,Indonesia, 085338443833,,,-8.3585921,116.149345,https://maps.google.com/?cid=0x0:0x9c4db89ba1bf8b85,
mall,Pusat Perbelanjaan,Plaza Barunak,"R9PM+G72, Tanjung, Kec. Tj., Kabupaten Tabalong, Kalimantan Selatan 71571","Tanjung, Kec. Tj., Kabupaten Tabalong",NUSA TENGGARA BARAT,71571.0,Indonesia, 05262021035,,,-2.1637475,115.3831259,https://maps.google.com/?cid=0x0:0x4415ddcbc1989552,
mall,Pusat Perbelanjaan,natalashop tanjung,"R9PM+FH5, Tanjung, Kec. Tj., Kabupaten Tabalong, Kalimantan Selatan 71571","Tanjung, Kec. Tj., Kabupaten Tabalong",NUSA TENGGARA BARAT,71571.0,Indonesia, 081250510845,,,-2.1638614,115.3839915,https://maps.google.com/?cid=0x0:0x169967b79458a775,
mall,mall,Sens-sur-Seille,"71330, Prancis","Sens-sur-Seille, Prancis",NUSA TENGGARA BARAT,,Indonesia,,,,46.745296,5.318919,https://maps.google.com/?cid=0x0:0x409ce34b30ed5d0,
mall,Toko Buku,Pustaka najwa,"Jangkung, Kec. Tj., Kabupaten Tabalong, Kalimantan Selatan 71513","Kec. Tj., Kabupaten Tabalong",NUSA TENGGARA BARAT,71513.0,Indonesia,,,,-2.1641103,115.3674474,https://maps.google.com/?cid=0x0:0xf65a4a8bf0606294,
mall,Kantor Perusahaan,TK. H. IMI,"Ps.Tanjung Blok A No.54-55, Tanjung, Kec. Tj., Kabupaten Tabalong, Kalimantan Selatan 71571","Tanjung, Kec. Tj., Kabupaten Tabalong",NUSA TENGGARA BARAT,71571.0,Indonesia, 085348655569,,,-2.1649033,115.3856701,https://maps.google.com/?cid=0x0:0xf47e036e7c56e134,
mall,Pusat Perbelanjaan,Pasar Raya Bauntung Tanjung,"Tanjung, Kec. Tj., Kabupaten Tabalong, Kalimantan Selatan 71571","Kec. Tj., Kabupaten Tabalong",NUSA TENGGARA BARAT,71571.0,Indonesia,,,,-2.1655149,115.3856599,https://maps.google.com/?cid=0x0:0x833bd469d395c574,
mall,mall,Fiqri Adriyanto,"V9FW+QFF, Wayau, Kec. Tj., Kabupaten Tabalong, Kalimantan Selatan 71515","Wayau, Kec. Tj., Kabupaten Tabalong",NUSA TENGGARA BARAT,71515.0,Indonesia,,,,-2.1255661,115.3961699,https://maps.google.com/?cid=0x0:0x1a2d0d1b50292609,
mall,Toko Swalayan,A.MIda Telor,"R9PC+RCJ, Jangkung, Kec. Tj., Kabupaten Tabalong, Kalimantan Selatan 71513","Jangkung, Kec. Tj., Kabupaten Tabalong",NUSA TENGGARA BARAT,71513.0,Indonesia, 081349741137,,,-2.1629082,115.3710013,https://maps.google.com/?cid=0x0:0x4b0d6dd2d10bd0a8,
mall,Pusat Perbelanjaan,Toko Raja Undjun Tabalong,"V92Q+RHM, Jl. Basuki Rahmat, Agung, Kec. Tj., Kabupaten Tabalong, Kalimantan Selatan 71571","Jl. Basuki Rahmat, Agung, Kec. Tj., Kabupaten Tabalong",NUSA TENGGARA BARAT,71571.0,Indonesia, 081222221666,,,-2.1479233,115.3889258,https://maps.google.com/?cid=0x0:0x50654341b0eb157f,
mall,Toko bahan makanan,TOKO MAJU (tanjung),"R9MX+FV3, Belimbing Raya, Kec. Murung Pudak, Kabupaten Tabalong, Kalimantan Selatan 71571","Belimbing Raya, Kec. Murung Pudak, Kabupaten Tabalong",NUSA TENGGARA BARAT,71571.0,Indonesia, 085845487380,,,-2.1663674,115.3996759,https://maps.google.com/?cid=0x0:0xb372921e1519b70,
mall,Pusat Perbelanjaan,Jangkung_outdoor,"R9PF+X89, Jl. Ahmad Yani, Jangkung, Kec. Tj., Kabupaten Tabalong, Kalimantan Selatan 71513","Jl. Ahmad Yani, Jangkung, Kec. Tj., Kabupaten Tabalong",NUSA TENGGARA BARAT,71513.0,Indonesia, 082211739966,,,-2.1630268,115.3708023,https://maps.google.com/?cid=0x0:0xf9c00ac5efc7d1fe,
mall,Pusat Perbelanjaan,Dapur Dingsanak mama robi,"R9M9+9V2, Jl. Ahmad Yani, Jangkung, Kec. Tj., Kabupaten Tabalong, Kalimantan Selatan 71513","Jl. Ahmad Yani, Jangkung, Kec. Tj., Kabupaten Tabalong",NUSA TENGGARA BARAT,71513.0,Indonesia,,,,-2.1666101,115.369628,https://maps.google.com/?cid=0x0:0xfa7559d952526b76,
mall,Minimarket,Toko shyla2,"R9PC+WF5, Jl. Ahmad Yani, Jangkung, Kec. Tj., Kabupaten Tabalong, Kalimantan Selatan 71513","Jl. Ahmad Yani, Jangkung, Kec. Tj., Kabupaten Tabalong",NUSA TENGGARA BARAT,71513.0,Indonesia, 08522818853,,,-2.1627353,115.3712271,https://maps.google.com/?cid=0x0:0x8ab8da3c8d488c36,
mall,Kantor Perusahaan,AF Cellular,"RT.08, Jangkung, Kec. Tj., Kabupaten Tabalong, Kalimantan Selatan 71513","Jangkung, Kec. Tj., Kabupaten Tabalong",NUSA TENGGARA BARAT,71513.0,Indonesia, 085246460201,,,-2.1620704,115.3676486,https://maps.google.com/?cid=0x0:0xfdbe65fbf4b601ae,
mall,Toko Perlengkapan Rumah,Toko bangunan,"R9VQ+F57, Jl. Basuki Rahmat, Agung, Kec. Tj., Kabupaten Tabalong, Kalimantan Selatan 71571","Jl. Basuki Rahmat, Agung, Kec. Tj., Kabupaten Tabalong",NUSA TENGGARA BARAT,71571.0,Indonesia, 082352133300,,,-2.1563374,115.3879216,https://maps.google.com/?cid=0x0:0x5b62891462f429ed,
mall,Pusat Perbelanjaan,Toko Al-Tayseer,"RCW2+45R, Jl. Garuda No.Bangunsari, Belimbing Raya, Kec. Murung Pudak, Kabupaten Tabalong, Kalimantan Selatan 71571","Jl. Garuda No.Bangunsari, Belimbing Raya, Kec. Murung Pudak, Kabupaten Tabalong",NUSA TENGGARA BARAT,71571.0,Indonesia,,,,-2.1546258,115.4003762,https://maps.google.com/?cid=0x0:0x8ba83f8830000465,
mall,Toko Pakaian,Toko mama ainun,"Jl. Jend Jl. Basuki Rahmat No.rt 006, Agung, Kec. Tj., Kabupaten Tabalong, Kalimantan Selatan","Kabupaten Tabalong, Kalimantan Selatan",NUSA TENGGARA BARAT,,Indonesia,,,,-2.1456692,115.390723,https://maps.google.com/?cid=0x0:0x5701873725826ada,
mall,Toko Kosmetik,Toko Rara kosmitek,"R9JP+XQX, Jl. Putri Zaleha, Tanjung, Kec. Tj., Kabupaten Tabalong, Kalimantan Selatan 71571","Jl. Putri Zaleha, Tanjung, Kec. Tj., Kabupaten Tabalong",NUSA TENGGARA BARAT,71571.0,Indonesia, 082214135044,,,-2.1675218,115.38699,https://maps.google.com/?cid=0x0:0xfdcd0b4445d53724,
mall,Toko bahan makanan,Toko H.fikri,"V93Q+MJM, Agung, Kec. Tj., Kabupaten Tabalong, Kalimantan Selatan 71571","Agung, Kec. Tj., Kabupaten Tabalong",NUSA TENGGARA BARAT,71571.0,Indonesia,,,,-2.1457962,115.3890616,https://maps.google.com/?cid=0x0:0x75c2d67f97a24a1d,
mall,Toko bahan makanan,Bersinar Mart,"Jl. Pangeran Antasari No.2, Tanjung, Kec. Tj., Kabupaten Tabalong, Kalimantan Selatan 71571","Tanjung, Kec. Tj., Kabupaten Tabalong",NUSA TENGGARA BARAT,71571.0,Indonesia,,,,-2.1661458,115.382453,https://maps.google.com/?cid=0x0:0x3cb84198a5bb43e7,
mall,Toko,Eiger Store Tanjung,"J5V4+RX8, Tanjung, Kec. Tj., Kabupaten Lombok Utara, Nusa Tenggara Bar. 83352","Tanjung, Kec. Tj., Kabupaten Lombok Utara",NUSA TENGGARA BARAT,83352.0,Indonesia, 089519666003,,,-8.3554691,116.1574416,https://maps.google.com/?cid=0x0:0x98edc7897f180cb4,
mall,Sarapan,Oleh Oleh Lotara,"J4QW+V54, Jl. Raya Tj., Sokong, Kec. Tj., Kabupaten Lombok Utara, Nusa Tenggara Bar. 83352","Jl. Raya Tj., Sokong, Kec. Tj., Kabupaten Lombok Utara",NUSA TENGGARA BARAT,83352.0,Indonesia, 081239890009,,,-8.3600903,116.1455344,https://maps.google.com/?cid=0x0:0xc0af3b9e6e7e7ba8,
mall,Toko Swalayan,Tunas kelapa lombok,"J4PQ+QJ4, Jl. Raya Mataram - Tj., Sokong, Kec. Tj., Kabupaten Lombok Utara, Nusa Tenggara Bar. 83352","Jl. Raya Mataram - Tj., Sokong, Kec. Tj., Kabupaten Lombok Utara",NUSA TENGGARA BARAT,83352.0,Indonesia,,,,-8.3626766,116.1388775,https://maps.google.com/?cid=0x0:0x91f6d49ae498f0e4,
mall,mall,Kec. Tj.,"Kabupaten Lombok Utara, Nusa Tenggara Bar.","Kabupaten Lombok Utara, Nusa Tenggara Bar.",NUSA TENGGARA BARAT,,Indonesia,,,,-8.3559275,116.1556813,https://maps.google.com/?cid=0x0:0x947760e643a23d21,
mall,Toko Perlengkapan Rumah,Toko Bintang,"Jl. Raya Tj. No.2012, Sokong, Kec. Tj., Kabupaten Lombok Utara, Nusa Tenggara Bar. 83352","Sokong, Kec. Tj., Kabupaten Lombok Utara",NUSA TENGGARA BARAT,83352.0,Indonesia, 0818036246,,,-8.3577505,116.1513848,https://maps.google.com/?cid=0x0:0xab8e32354e9acef5,
mall,Pusat Perbelanjaan,"Df lombok, sementara","J4FJ+WFG, Jl. Latsitarda Kopang, Medana, Kec. Tj., Kabupaten Lombok Utara, Nusa Tenggara Bar. 83352","Jl. Latsitarda Kopang, Medana, Kec. Tj., Kabupaten Lombok Utara",NUSA TENGGARA BARAT,83352.0,Indonesia,,,,-8.375366,116.1312859,https://maps.google.com/?cid=0x0:0xe190e67824b67a60,
mall,Pusat Perbelanjaan,IQRO' CABANG TANJUNG,"J4RW+8X7, Sokong, Kec. Tj., Kabupaten Lombok Utara, Nusa Tenggara Bar. 83352","Sokong, Kec. Tj., Kabupaten Lombok Utara",NUSA TENGGARA BARAT,83352.0,Indonesia, 085338158085,,,-8.3592031,116.1474267,https://maps.google.com/?cid=0x0:0xcb2c4fe977c250b0,
mall,Pasar,Pasar Hewan Tanjung Lotara,"J4GR+G8W, Unnamed Road, Sokong, Kec. Tj., Kabupaten Lombok Utara, Nusa Tenggara Bar. 83352","Unnamed Road, Sokong, Kec. Tj., Kabupaten Lombok Utara",NUSA TENGGARA BARAT,83352.0,Indonesia,,,,-8.3736495,116.1408349,https://maps.google.com/?cid=0x0:0x49282ce4a88d89a8,
mall,Pusat Perbelanjaan,Lombok Epicentrum Mall,"Jl. Sriwijaya No.333, Punia, Kec. Mataram, Kota Mataram, Nusa Tenggara Bar. 83127","Punia, Kec. Mataram, Kota Mataram",NUSA TENGGARA BARAT,83127.0,Indonesia, 03706172999,,,-8.5937943,116.104614,https://maps.google.com/?cid=0x0:0x3e70e3bb2865dfb5,
mall,Masjid,Masjid Batulili,"H4GR+53P, Teniga, Kec. Tj., Kabupaten Lombok Utara, Nusa Tenggara Bar. 83352","Teniga, Kec. Tj., Kabupaten Lombok Utara",NUSA TENGGARA BARAT,83352.0,Indonesia,,,,-8.4245395,116.1401972,https://maps.google.com/?cid=0x0:0x7b1ee1103b988c04,
mall,Pusat Perbelanjaan,Elnoya store,"Bentek, Kec. Gangga, Kabupaten Lombok Utara, Nusa Tenggara Bar. 83353","Kec. Gangga, Kabupaten Lombok Utara",NUSA TENGGARA BARAT,83353.0,Indonesia,,,,-8.3766735,116.182593,https://maps.google.com/?cid=0x0:0xe6b27939198e0cf8,
mall,mall,Toko Hulni Tembobor,"Jl. Raya Tj. No.38, Sigar Penjalin, Kec. Tj., Kabupaten Lombok Utara, Nusa Tenggara Bar. 83352","Sigar Penjalin, Kec. Tj., Kabupaten Lombok Utara",NUSA TENGGARA BARAT,83352.0,Indonesia,,,,-8.3775871,116.1226388,https://maps.google.com/?cid=0x0:0x357683ded0fe188a,
mall,Kantor Perusahaan,Sanggar Sari Kcang Mente,"DR 1040 AI, Sigar Penjalin, Kec. Tj., Kabupaten Lombok Utara, Nusa Tenggara Bar. 83352","Sigar Penjalin, Kec. Tj., Kabupaten Lombok Utara",NUSA TENGGARA BARAT,83352.0,Indonesia, 081703519769,,,-8.4013761,116.1279831,https://maps.google.com/?cid=0x0:0xedda81439921698a,
mall,Toko,MULIA USAHA STORE,"Jl. H. Mansur, Sokong, Kec. Pemenang, Kabupaten Lombok Utara, Nusa Tenggara Bar. 83352","Sokong, Kec. Pemenang, Kabupaten Lombok Utara",NUSA TENGGARA BARAT,83352.0,Indonesia, 087864477773,,,-8.3587366,116.14913,https://maps.google.com/?cid=0x0:0x948d0e954b995430,
mall,Pusat Perbelanjaan,Toko Buk Ratsih,"J5X8+7XV, Jl. Raya Tj., Jenggala, Kec. Tj., Kabupaten Lombok Utara, Nusa Tenggara Bar. 83352","Jl. Raya Tj., Jenggala, Kec. Tj., Kabupaten Lombok Utara",NUSA TENGGARA BARAT,83352.0,Indonesia, 085337933178,,,-8.351751,116.1674246,https://maps.google.com/?cid=0x0:0xe5423fabba865824,
mall,Pusat Perbelanjaan,UD.Yasa,"J4JJ+X6H, Medana, Kec. Tj., Kabupaten Lombok Utara, Nusa Tenggara Bar. 83352","Medana, Kec. Tj., Kabupaten Lombok Utara",NUSA TENGGARA BARAT,83352.0,Indonesia, 087864140634,,,-8.3675675,116.1306238,https://maps.google.com/?cid=0x0:0x9a37d4167dc2e067,
mall,Kafe,Omah Olief,"Sigar Penjalin, Kec. Tj., Kabupaten Lombok Utara, Nusa Tenggara Bar. 83352","Kec. Tj., Kabupaten Lombok Utara",NUSA TENGGARA BARAT,83352.0,Indonesia, 081326097001,,,-8.3814746,116.1165424,https://maps.google.com/?cid=0x0:0xe00704c558862429,
mall,Pusat Perbelanjaan,UD SHODIQI,"J5H7+5JQ, Jl. Lading-Lading, Tanjung, Kec. Tj., Kabupaten Lombok Utara, Nusa Tenggara Bar. 83352","Jl. Lading-Lading, Tanjung, Kec. Tj., Kabupaten Lombok Utara",NUSA TENGGARA BARAT,83352.0,Indonesia, 087865173920,,,-8.3720407,116.1641095,https://maps.google.com/?cid=0x0:0xafa819556f0aab32,
mall,Pusat Perbelanjaan,Oktari_NASA,"J5JF+G6P Masjid Raudhatul Jannah, langgem ,dusun montong, Jenggala, Kec. Tj., Kabupaten Lombok Utara, Nusa Tenggara Bar. 83352","langgem ,dusun montong, Jenggala, Kec. Tj., Kabupaten Lombok Utara",NUSA TENGGARA BARAT,83352.0,Indonesia, 085939810884,,,-8.3686704,116.1730705,https://maps.google.com/?cid=0x0:0xbb3e320e249ea76,
mall,Pusat Perbelanjaan,NTB Mall,"Kawasan Barat Islamic Center, Jl. Langko, Dasan Agung, Kec. Selaparang, Kota Mataram, Nusa Tenggara Bar. 83125","Jl. Langko, Dasan Agung, Kec. Selaparang, Kota Mataram",NUSA TENGGARA BARAT,83125.0,Indonesia, 0818884222,,,-8.5800902,116.0999989,https://maps.google.com/?cid=0x0:0xfed83ba61647589c,
mall,Pusat Perbelanjaan,Mataram Mall,"Jl. Cilinaya No.7, Cilinaya, Kec. Cakranegara, Kota Mataram, Nusa Tenggara Bar. 83239","Cilinaya, Kec. Cakranegara, Kota Mataram",NUSA TENGGARA BARAT,83239.0,Indonesia,,,,-8.5876678,116.1197805,https://maps.google.com/?cid=0x0:0x5939781e7ffe400d,
mall,Pusat Perbelanjaan,Plaza Barunak,"R9PM+G72, Tanjung, Kec. Tj., Kabupaten Tabalong, Kalimantan Selatan 71571","Tanjung, Kec. Tj., Kabupaten Tabalong",NUSA TENGGARA BARAT,71571.0,Indonesia, 05262021035,,,-2.1637475,115.3831259,https://maps.google.com/?cid=0x0:0x4415ddcbc1989552,
mall,Toko Ponsel,Hapeworld tanjung,"Mabuun, Kec. Tj., Kabupaten Tabalong, Kalimantan Selatan 71571","Kec. Tj., Kabupaten Tabalong",NUSA TENGGARA BARAT,71571.0,Indonesia, 081251268000,,,-2.1701625,115.4175977,https://maps.google.com/?cid=0x0:0x7be792ac80daf126,
mall,Pusat Perbelanjaan,natalashop tanjung,"R9PM+FH5, Tanjung, Kec. Tj., Kabupaten Tabalong, Kalimantan Selatan 71571","Tanjung, Kec. Tj., Kabupaten Tabalong",NUSA TENGGARA BARAT,71571.0,Indonesia, 081250510845,,,-2.1638614,115.3839915,https://maps.google.com/?cid=0x0:0x169967b79458a775,
mall,Kantor Catatan Sipil,Mal Pelayanan Publik Kab. Tabalong,"RCG9+V57, Jl. Pelita, Mabuun, Kec. Murung Pudak, Kabupaten Tabalong, Kalimantan Selatan 71571","Jl. Pelita, Mabuun, Kec. Murung Pudak, Kabupaten Tabalong",NUSA TENGGARA BARAT,71571.0,Indonesia,,,,-2.1728259,115.4179108,https://maps.google.com/?cid=0x0:0xf4e65ca5b766c2f8,
mall,Kantor Perusahaan,TK. H. IMI,"Ps.Tanjung Blok A No.54-55, Tanjung, Kec. Tj., Kabupaten Tabalong, Kalimantan Selatan 71571","Tanjung, Kec. Tj., Kabupaten Tabalong",NUSA TENGGARA BARAT,71571.0,Indonesia, 085348655569,,,-2.1649033,115.3856701,https://maps.google.com/?cid=0x0:0xf47e036e7c56e134,
mall,Pusat Perbelanjaan,CitiMart Tabalong,"RCFH+MGJ, Mabuun, Kec. Murung Pudak, Kabupaten Tabalong, Kalimantan Selatan 71571","Mabuun, Kec. Murung Pudak, Kabupaten Tabalong",NUSA TENGGARA BARAT,71571.0,Indonesia,,,,-2.1757772,115.4287739,https://maps.google.com/?cid=0x0:0xa92b34ef7cdc197a,
mall,Toko Swalayan,A.MIda Telor,"R9PC+RCJ, Jangkung, Kec. Tj., Kabupaten Tabalong, Kalimantan Selatan 71513","Jangkung, Kec. Tj., Kabupaten Tabalong",NUSA TENGGARA BARAT,71513.0,Indonesia, 081349741137,,,-2.1629082,115.3710013,https://maps.google.com/?cid=0x0:0x4b0d6dd2d10bd0a8,
mall,Pusat Perbelanjaan,Reseller KPOPERS.Shopping,"WFR2+HC3, Jl. Tj., Kitang, Kec. Tj., Kabupaten Tabalong, Kalimantan Selatan 71571","Jl. Tj., Kitang, Kec. Tj., Kabupaten Tabalong",NUSA TENGGARA BARAT,71571.0,Indonesia,,,,-2.0586003,115.4510535,https://maps.google.com/?cid=0x0:0xed3a73d5422172bf,
mall,Toko,Eiger Store Tanjung,"J5V4+RX8, Tanjung, Kec. Tj., Kabupaten Lombok Utara, Nusa Tenggara Bar. 83352","Tanjung, Kec. Tj., Kabupaten Lombok Utara",NUSA TENGGARA BARAT,83352.0,Indonesia, 089519666003,,,-8.3554691,116.1574416,https://maps.google.com/?cid=0x0:0x98edc7897f180cb4,
mall,mall,Nusa Tenggara Bar. 83352,"Kabupaten Lombok Utara, Nusa Tenggara Bar.","Kabupaten Lombok Utara, Nusa Tenggara Bar.",NUSA TENGGARA BARAT,,Indonesia,,,,-8.4131655,116.1477598,https://maps.google.com/?cid=0x0:0x35e4373277595e3,
mall,Toko Perlengkapan Rumah,Toko Bintang,"Jl. Raya Tj. No.2012, Sokong, Kec. Tj., Kabupaten Lombok Utara, Nusa Tenggara Bar. 83352","Sokong, Kec. Tj., Kabupaten Lombok Utara",NUSA TENGGARA BARAT,83352.0,Indonesia, 0818036246,,,-8.3577505,116.1513848,https://maps.google.com/?cid=0x0:0xab8e32354e9acef5,
mall,Sarapan,Oleh Oleh Lotara,"J4QW+V54, Jl. Raya Tj., Sokong, Kec. Tj., Kabupaten Lombok Utara, Nusa Tenggara Bar. 83352","Jl. Raya Tj., Sokong, Kec. Tj., Kabupaten Lombok Utara",NUSA TENGGARA BARAT,83352.0,Indonesia, 081239890009,,,-8.3600903,116.1455344,https://maps.google.com/?cid=0x0:0xc0af3b9e6e7e7ba8,
mall,Toko Elektronik,TERAS PHONSEL,"Unnamed Road, Sokong, Kec. Tj., Kabupaten Lombok Utara, Nusa Tenggara Bar. 83352","Sokong, Kec. Tj., Kabupaten Lombok Utara",NUSA TENGGARA BARAT,83352.0,Indonesia, 081246790000,,,-8.358787,116.1538165,https://maps.google.com/?cid=0x0:0xa51af9ecda220a5f,
mall,Toko Swalayan,Tunas kelapa lombok,"J4PQ+QJ4, Jl. Raya Mataram - Tj., Sokong, Kec. Tj., Kabupaten Lombok Utara, Nusa Tenggara Bar. 83352","Jl. Raya Mataram - Tj., Sokong, Kec. Tj., Kabupaten Lombok Utara",NUSA TENGGARA BARAT,83352.0,Indonesia,,,,-8.3626766,116.1388775,https://maps.google.com/?cid=0x0:0x91f6d49ae498f0e4,
mall,Pusat Perbelanjaan,IQRO' CABANG TANJUNG,"J4RW+8X7, Sokong, Kec. Tj., Kabupaten Lombok Utara, Nusa Tenggara Bar. 83352","Sokong, Kec. Tj., Kabupaten Lombok Utara",NUSA TENGGARA BARAT,83352.0,Indonesia, 085338158085,,,-8.3592031,116.1474267,https://maps.google.com/?cid=0x0:0xcb2c4fe977c250b0,
mall,Kafe,Omah Olief,"Sigar Penjalin, Kec. Tj., Kabupaten Lombok Utara, Nusa Tenggara Bar. 83352","Kec. Tj., Kabupaten Lombok Utara",NUSA TENGGARA BARAT,83352.0,Indonesia, 081326097001,,,-8.3814746,116.1165424,https://maps.google.com/?cid=0x0:0xe00704c558862429,
mall,Pasar,Pasar Hewan Tanjung Lotara,"J4GR+G8W, Unnamed Road, Sokong, Kec. Tj., Kabupaten Lombok Utara, Nusa Tenggara Bar. 83352","Unnamed Road, Sokong, Kec. Tj., Kabupaten Lombok Utara",NUSA TENGGARA BARAT,83352.0,Indonesia,,,,-8.3736495,116.1408349,https://maps.google.com/?cid=0x0:0x49282ce4a88d89a8,
mall,Pusat Perbelanjaan,Elnoya store,"Bentek, Kec. Gangga, Kabupaten Lombok Utara, Nusa Tenggara Bar. 83353","Kec. Gangga, Kabupaten Lombok Utara",NUSA TENGGARA BARAT,83353.0,Indonesia,,,,-8.3766735,116.182593,https://maps.google.com/?cid=0x0:0xe6b27939198e0cf8,
mall,Pusat Perbelanjaan,UD SHODIQI,"J5H7+5JQ, Jl. Lading-Lading, Tanjung, Kec. Tj., Kabupaten Lombok Utara, Nusa Tenggara Bar. 83352","Jl. Lading-Lading, Tanjung, Kec. Tj., Kabupaten Lombok Utara",NUSA TENGGARA BARAT,83352.0,Indonesia, 087865173920,,,-8.3720407,116.1641095,https://maps.google.com/?cid=0x0:0xafa819556f0aab32,
mall,Toko,Toko ANWAR,"Unnamed Road, Jenggala, Kec. Tj., Kabupaten Lombok Utara, Nusa Tenggara Bar. 83352","Jenggala, Kec. Tj., Kabupaten Lombok Utara",NUSA TENGGARA BARAT,83352.0,Indonesia,,,,-8.3516789,116.1675341,https://maps.google.com/?cid=0x0:0xada9ea3252e4c046,
mall,mall,Toko Hulni Tembobor,"Jl. Raya Tj. No.38, Sigar Penjalin, Kec. Tj., Kabupaten Lombok Utara, Nusa Tenggara Bar. 83352","Sigar Penjalin, Kec. Tj., Kabupaten Lombok Utara",NUSA TENGGARA BARAT,83352.0,Indonesia,,,,-8.3775871,116.1226388,https://maps.google.com/?cid=0x0:0x357683ded0fe188a,
mall,Masjid,Masjid Batulili,"H4GR+53P, Teniga, Kec. Tj., Kabupaten Lombok Utara, Nusa Tenggara Bar. 83352","Teniga, Kec. Tj., Kabupaten Lombok Utara",NUSA TENGGARA BARAT,83352.0,Indonesia,,,,-8.4245395,116.1401972,https://maps.google.com/?cid=0x0:0x7b1ee1103b988c04,
mall,Pusat Perbelanjaan,"Df lombok, sementara","J4FJ+WFG, Jl. Latsitarda Kopang, Medana, Kec. Tj., Kabupaten Lombok Utara, Nusa Tenggara Bar. 83352","Jl. Latsitarda Kopang, Medana, Kec. Tj., Kabupaten Lombok Utara",NUSA TENGGARA BARAT,83352.0,Indonesia,,,,-8.375366,116.1312859,https://maps.google.com/?cid=0x0:0xe190e67824b67a60,
mall,Pedagang tekstil,Cak Mamad Market,"Residence Blok H01, Sigar Penjalin, Kec. Tj., Kabupaten Lombok Utara, Nusa Tenggara Bar. 83352","Sigar Penjalin, Kec. Tj., Kabupaten Lombok Utara",NUSA TENGGARA BARAT,83352.0,Indonesia,,,,-8.38216,116.1166096,https://maps.google.com/?cid=0x0:0x9aae798c20c7414b,
mall,Pusat Perbelanjaan,UD.Yasa,"J4JJ+X6H, Medana, Kec. Tj., Kabupaten Lombok Utara, Nusa Tenggara Bar. 83352","Medana, Kec. Tj., Kabupaten Lombok Utara",NUSA TENGGARA BARAT,83352.0,Indonesia, 087864140634,,,-8.3675675,116.1306238,https://maps.google.com/?cid=0x0:0x9a37d4167dc2e067,
mall,Pusat Perbelanjaan,Toko Buk Ratsih,"J5X8+7XV, Jl. Raya Tj., Jenggala, Kec. Tj., Kabupaten Lombok Utara, Nusa Tenggara Bar. 83352","Jl. Raya Tj., Jenggala, Kec. Tj., Kabupaten Lombok Utara",NUSA TENGGARA BARAT,83352.0,Indonesia, 085337933178,,,-8.351751,116.1674246,https://maps.google.com/?cid=0x0:0xe5423fabba865824,
mall,Pusat Perbelanjaan,Oktari_NASA,"J5JF+G6P Masjid Raudhatul Jannah, langgem ,dusun montong, Jenggala, Kec. Tj., Kabupaten Lombok Utara, Nusa Tenggara Bar. 83352","langgem ,dusun montong, Jenggala, Kec. Tj., Kabupaten Lombok Utara",NUSA TENGGARA BARAT,83352.0,Indonesia, 085939810884,,,-8.3686704,116.1730705,https://maps.google.com/?cid=0x0:0xbb3e320e249ea76,
mall,Pusat Perbelanjaan,Ajeng Mart,"H28W+7RH, Jl. Raya Senggigi, Malaka, Kec. Pemenang, Kabupaten Lombok Utara, Nusa Tenggara Bar.","Kabupaten Lombok Utara, Nusa Tenggara Bar.",NUSA TENGGARA BARAT,,Indonesia, 081239146081,,,-8.434305,116.047098,https://maps.google.com/?cid=0x0:0xf2d9214be53913de,
mall,Pusat Perbelanjaan,Lotara Point,"Jl. Raya Pemenang - Senggigi, Pemenang Bar., Kec. Pemenang, Kabupaten Lombok Utara, Nusa Tenggara Bar. 83352","Pemenang Bar., Kec. Pemenang, Kabupaten Lombok Utara",NUSA TENGGARA BARAT,83352.0,Indonesia, 087864061277,,,-8.4045015,116.0970116,https://maps.google.com/?cid=0x0:0xc769e38ed80d76fc,
mall,Toko Peralatan dan Bahan Kue,TOKO BAHAN2 KUE SOFIA SAMARAI SHOP TANJUNG KLU,"J5R4+X43, Jl. Kr. Bayan, Tanjung, Kec. Tj., Kabupaten Lombok Utara, Nusa Tenggara Bar. 83352","Jl. Kr. Bayan, Tanjung, Kec. Tj., Kabupaten Lombok Utara",NUSA TENGGARA BARAT,83352.0,Indonesia, 087864099011,,,-8.3576079,116.1552894,https://maps.google.com/?cid=0x0:0x392347ebbef5cc72,
mall,Toko,HERO FOTO,"Tanjung, Kec. Tj., Kabupaten Lombok Utara, Nusa Tenggara Bar. 83352","Kec. Tj., Kabupaten Lombok Utara",NUSA TENGGARA BARAT,83352.0,Indonesia, 081907890821,,,-8.3568125,116.1560625,https://maps.google.com/?cid=0x0:0x66f185f35853b303,
mall,Kantor Perusahaan,Sanggar Sari Kcang Mente,"DR 1040 AI, Sigar Penjalin, Kec. Tj., Kabupaten Lombok Utara, Nusa Tenggara Bar. 83352","Sigar Penjalin, Kec. Tj., Kabupaten Lombok Utara",NUSA TENGGARA BARAT,83352.0,Indonesia, 081703519769,,,-8.4013761,116.1279831,https://maps.google.com/?cid=0x0:0xedda81439921698a,
supermarket,supermarket,Bayan,"Obel Obel, Sambelia, Kabupaten Lombok Timur, Nusa Tenggara Bar.","Kabupaten Lombok Timur, Nusa Tenggara Bar.",NUSA TENGGARA BARAT,,Indonesia,,,,-8.263952,116.497299,https://maps.google.com/?cid=0x0:0xbc5dd41f89000b0,
supermarket,Toko bahan makanan,Niaga Supermarket Adisucipto,"Jl. Adi Sucipto, Ampenan Utara, Kec. Ampenan, Kota Mataram, Nusa Tenggara Bar. 83111","Ampenan Utara, Kec. Ampenan, Kota Mataram",NUSA TENGGARA BARAT,83111.0,Indonesia, 0370625907,,,-8.5656447,116.0881619,https://maps.google.com/?cid=0x0:0x990fde18fb3fe8d1,
supermarket,supermarket,Toko Sehati,"QC9G+3C7, Anyar, Kec. Bayan, Kabupaten Lombok Utara, Nusa Tenggara Bar. 83354","Anyar, Kec. Bayan, Kabupaten Lombok Utara",NUSA TENGGARA BARAT,83354.0,Indonesia,,,,-8.2323389,116.4260606,https://maps.google.com/?cid=0x0:0xc110cc1e36ff0ee3,
supermarket,Toko Swalayan,Toko Sami Mulyo,"7WJF+82G, Jalan Gajah Mada, Bandungrejo, Bayan, Subur, Bandung Kidul, Kec. Bayan, Kabupaten Purworejo, Jawa Tengah 54222","Jalan Gajah Mada, Bandungrejo, Bayan, Subur, Bandung Kidul, Kec. Bayan, Kabupaten Purworejo",NUSA TENGGARA BARAT,54222.0,Indonesia,,,,-7.719198,109.9225826,https://maps.google.com/?cid=0x0:0x785c0f5c33dc802f,
supermarket,Toko,TOKO SAHDI,"QC9G+GC3, Anyar, Kec. Bayan, Kabupaten Lombok Utara, Nusa Tenggara Bar. 83354","Anyar, Kec. Bayan, Kabupaten Lombok Utara",NUSA TENGGARA BARAT,83354.0,Indonesia, 081717585544,,,-8.2312263,116.4260523,https://maps.google.com/?cid=0x0:0x3f7a64382a498d95,
supermarket,supermarket,Klik Chicken Bayan,"7WJG+667, Dusun Empat, Bandungrejo, Kec. Bayan, Kabupaten Purworejo, Jawa Tengah 54222","Dusun Empat, Bandungrejo, Kec. Bayan, Kabupaten Purworejo",NUSA TENGGARA BARAT,54222.0,Indonesia,,,,-7.7194657,109.9255388,https://maps.google.com/?cid=0x0:0xa6882961a047e5b2,
supermarket,Supermarket Diskon,Asia Toserba Cirebon,"Jl. Karanggetas No.25-27, Panjunan, Kec. Lemahwungkuk, Kota Cirebon, Jawa Barat 45112","Panjunan, Kec. Lemahwungkuk, Kota Cirebon",NUSA TENGGARA BARAT,45112.0,Indonesia, 081224009958,,,-6.7145989,108.562945,https://maps.google.com/?cid=0x0:0x1c6d620051b9c96,
supermarket,Toko bahan makanan,Bayan Perkasa Mini Market,"394, Jalan Mahkamah, Kampung Masjid, 11900 Bayan Lepas, Pulau Pinang, Malaysia",Bayan Lepas,NUSA TENGGARA BARAT,11900.0,Indonesia,,,,5.2990753,100.2628361,https://maps.google.com/?cid=0x0:0x79b1aa843370c192,
supermarket,Toko Pakaian,Sipaa Shoop,"Dusun IV , Bandungrejo Rt001/Rw005 , Kec.Bayan , Kab.Purworejo , Jawa Tengah RT.001/Rw005, Dusun IV, Bandungrejo, Kec. Bayan, Kabupaten Purworejo, Jawa Tengah 54222","Bandungrejo Rt001/Rw005 , Kec.Bayan , Kab.Purworejo , Jawa Tengah RT.001/Rw005, Dusun IV, Bandungrejo, Kec. Bayan, Kabupaten Purworejo",NUSA TENGGARA BARAT,54222.0,Indonesia, 0895424490272,,,-7.7167439,109.924147,https://maps.google.com/?cid=0x0:0xac3d535dace087f3,
supermarket,Toko umum,Al-Bayan Mart,"55VM+RHR, Jl. Cipadung, Karyamukti, Kec. Panyingkiran, Kabupaten Majalengka, Jawa Barat 45459","Jl. Cipadung, Karyamukti, Kec. Panyingkiran, Kabupaten Majalengka",NUSA TENGGARA BARAT,45459.0,Indonesia,,,,-6.8053865,108.1838771,https://maps.google.com/?cid=0x0:0xa780e28cc0792454,
supermarket,Toko,WARUNG BU MARYATI KASWANTO,"7WHG+FRC, Dusun Tiga, Bandungrejo, Kec. Bayan, Kabupaten Purworejo, Jawa Tengah 54222","Dusun Tiga, Bandungrejo, Kec. Bayan, Kabupaten Purworejo",NUSA TENGGARA BARAT,54222.0,Indonesia,,,,-7.721312,109.92703,https://maps.google.com/?cid=0x0:0xb3086e2f2b32e856,
supermarket,Grosir Barang Kelontong,Warung Kelontong Bu Daryati,"Dusun empat, RT.01/RW.03, Subur, Bandungrejo, Kec. Bayan, Kabupaten Purworejo, Jawa Tengah 54222","RT.01/RW.03, Subur, Bandungrejo, Kec. Bayan, Kabupaten Purworejo",NUSA TENGGARA BARAT,54222.0,Indonesia, 085848401412,,,-7.7192504,109.9233581,https://maps.google.com/?cid=0x0:0x43f43291de6e06f,
supermarket,Minimarket,GP MART,"PCQG+489, Jl. Pariwisata, Karang Bajo, Kec. Bayan, Kabupaten Lombok Utara, Nusa Tenggara Bar. 83354","Jl. Pariwisata, Karang Bajo, Kec. Bayan, Kabupaten Lombok Utara",NUSA TENGGARA BARAT,83354.0,Indonesia,,,,-8.2622209,116.425861,https://maps.google.com/?cid=0x0:0xe0358fb566f2ebcf,
supermarket,supermarket,Bayan,"Obel Obel, Sambelia, Kabupaten Lombok Timur, Nusa Tenggara Bar.","Kabupaten Lombok Timur, Nusa Tenggara Bar.",NUSA TENGGARA BARAT,,Indonesia,,,,-8.263952,116.497299,https://maps.google.com/?cid=0x0:0xbc5dd41f89000b0,
supermarket,Toko Bahan Bangunan,Teratai Jaya,"PFPX+HFC, Obel Obel, Sambelia, Kabupaten Lombok Timur, Nusa Tenggara Bar. 83354","Obel Obel, Sambelia, Kabupaten Lombok Timur",NUSA TENGGARA BARAT,83354.0,Indonesia, 087864346858,,,-8.2635617,116.4986372,https://maps.google.com/?cid=0x0:0x4d10295c04ef58a4,
supermarket,supermarket,Toko Aneka,"PCRG+6XV, Unnamed Road, Karang Bajo, Kec. Bayan, Kabupaten Lombok Utara, Nusa Tenggara Bar. 83354","Unnamed Road, Karang Bajo, Kec. Bayan, Kabupaten Lombok Utara",NUSA TENGGARA BARAT,83354.0,Indonesia, 085937007000,,,-8.259382,116.4274349,https://maps.google.com/?cid=0x0:0x4321c33f0c689643,
supermarket,,Toko SARI BUMI,"PCQG+489, Jl. Pariwisata, Karang Bajo, Kec. Bayan, Kabupaten Lombok Utara, Nusa Tenggara Bar. 83354","Jl. Pariwisata, Karang Bajo, Kec. Bayan, Kabupaten Lombok Utara",NUSA TENGGARA BARAT,83354.0,Indonesia,,,,-8.2622237,116.4258513,https://maps.google.com/?cid=0x0:0x1aef6f3571f3c9c3,
supermarket,supermarket,Toko Sehati,"QC9G+3C7, Anyar, Kec. Bayan, Kabupaten Lombok Utara, Nusa Tenggara Bar. 83354","Anyar, Kec. Bayan, Kabupaten Lombok Utara",NUSA TENGGARA BARAT,83354.0,Indonesia,,,,-8.2323389,116.4260606,https://maps.google.com/?cid=0x0:0xc110cc1e36ff0ee3,
supermarket,supermarket,Bayan,"Obel Obel, Sambelia, Kabupaten Lombok Timur, Nusa Tenggara Bar.","Kabupaten Lombok Timur, Nusa Tenggara Bar.",NUSA TENGGARA BARAT,,Indonesia,,,,-8.263952,116.497299,https://maps.google.com/?cid=0x0:0xbc5dd41f89000b0,
supermarket,Toko,TOKO SAHDI,"QC9G+GC3, Anyar, Kec. Bayan, Kabupaten Lombok Utara, Nusa Tenggara Bar. 83354","Anyar, Kec. Bayan, Kabupaten Lombok Utara",NUSA TENGGARA BARAT,83354.0,Indonesia, 081717585544,,,-8.2312263,116.4260523,https://maps.google.com/?cid=0x0:0x3f7a64382a498d95,
supermarket,,Toko SARI BUMI,"PCQG+489, Jl. Pariwisata, Karang Bajo, Kec. Bayan, Kabupaten Lombok Utara, Nusa Tenggara Bar. 83354","Jl. Pariwisata, Karang Bajo, Kec. Bayan, Kabupaten Lombok Utara",NUSA TENGGARA BARAT,83354.0,Indonesia,,,,-8.2622237,116.4258513,https://maps.google.com/?cid=0x0:0x1aef6f3571f3c9c3,
supermarket,Toko Bahan Bangunan,Teratai Jaya,"PFPX+HFC, Obel Obel, Sambelia, Kabupaten Lombok Timur, Nusa Tenggara Bar. 83354","Obel Obel, Sambelia, Kabupaten Lombok Timur",NUSA TENGGARA BARAT,83354.0,Indonesia, 087864346858,,,-8.2635617,116.4986372,https://maps.google.com/?cid=0x0:0x4d10295c04ef58a4,
supermarket,supermarket,Toko Sehati,"QC9G+3C7, Anyar, Kec. Bayan, Kabupaten Lombok Utara, Nusa Tenggara Bar. 83354","Anyar, Kec. Bayan, Kabupaten Lombok Utara",NUSA TENGGARA BARAT,83354.0,Indonesia,,,,-8.2323389,116.4260606,https://maps.google.com/?cid=0x0:0xc110cc1e36ff0ee3,
supermarket,Toko Suvenir,Bayan Lombok Handicraft,"Jl. Raya Senggigi No.KM 8, Senggigi, Mataram, Kabupaten Lombok Barat, Nusa Tenggara Bar. 83355","Senggigi, Mataram, Kabupaten Lombok Barat",NUSA TENGGARA BARAT,83355.0,Indonesia, 0370693784,,,-8.4960481,116.0479948,https://maps.google.com/?cid=0x0:0x533560ff6f598826,
supermarket,supermarket,Toko Aneka,"PCRG+6XV, Unnamed Road, Karang Bajo, Kec. Bayan, Kabupaten Lombok Utara, Nusa Tenggara Bar. 83354","Unnamed Road, Karang Bajo, Kec. Bayan, Kabupaten Lombok Utara",NUSA TENGGARA BARAT,83354.0,Indonesia, 085937007000,,,-8.259382,116.4274349,https://maps.google.com/?cid=0x0:0x4321c33f0c689643,
supermarket,supermarket,Jawa Tengah 54224,"Kec. Bayan, Kabupaten Purworejo, Jawa Tengah","Kabupaten Purworejo, Jawa Tengah",NUSA TENGGARA BARAT,,Indonesia,,,,-7.7026346,109.9615952,https://maps.google.com/?cid=0x0:0xeb2589ef923c8da7,
supermarket,supermarket,Bayan,"Obel Obel, Sambelia, Kabupaten Lombok Timur, Nusa Tenggara Bar.","Kabupaten Lombok Timur, Nusa Tenggara Bar.",NUSA TENGGARA BARAT,,Indonesia,,,,-8.263952,116.497299,https://maps.google.com/?cid=0x0:0xbc5dd41f89000b0,
supermarket,Toko,TOKO SAHDI,"QC9G+GC3, Anyar, Kec. Bayan, Kabupaten Lombok Utara, Nusa Tenggara Bar. 83354","Anyar, Kec. Bayan, Kabupaten Lombok Utara",NUSA TENGGARA BARAT,83354.0,Indonesia, 081717585544,,,-8.2312263,116.4260523,https://maps.google.com/?cid=0x0:0x3f7a64382a498d95,
supermarket,Toko Bahan Bangunan,Teratai Jaya,"PFPX+HFC, Obel Obel, Sambelia, Kabupaten Lombok Timur, Nusa Tenggara Bar. 83354","Obel Obel, Sambelia, Kabupaten Lombok Timur",NUSA TENGGARA BARAT,83354.0,Indonesia, 087864346858,,,-8.2635617,116.4986372,https://maps.google.com/?cid=0x0:0x4d10295c04ef58a4,
supermarket,supermarket,Villa Bambu Rinjani  Restaurant,"Jl. Pariwisata, Senaru, Kec. Bayan, Kabupaten Lombok Utara, Nusa Tenggara Bar. 83354","Senaru, Kec. Bayan, Kabupaten Lombok Utara",NUSA TENGGARA BARAT,83354.0,Indonesia, 087857629202,,,-8.303876,116.3999409,https://maps.google.com/?cid=0x0:0x244a03a2d0953675,
supermarket,Toko bahan makanan,Windy Mart,"M5CV+V95, Jl. Raya Gondang, Gondang, Kec. Gangga, Kabupaten Lombok Utara, Nusa Tenggara Bar. 83353","Jl. Raya Gondang, Gondang, Kec. Gangga, Kabupaten Lombok Utara",NUSA TENGGARA BARAT,83353.0,Indonesia,,,,-8.3278587,116.1934709,https://maps.google.com/?cid=0x0:0x5a68878f13b45483,
supermarket,supermarket,Nusa Tenggara Bar. 83353,"Kabupaten Lombok Utara, Nusa Tenggara Bar.","Kabupaten Lombok Utara, Nusa Tenggara Bar.",NUSA TENGGARA BARAT,,Indonesia,,,,-8.3555888,116.2540856,https://maps.google.com/?cid=0x0:0xe34777432b10f76c,
supermarket,Pasar,Pasar Gondang Kec Gangga,"M56Q+RHM, Jl. Raya Gondang, Genggelang, Kec. Gangga, Kabupaten Lombok Utara, Nusa Tenggara Bar. 83353","Jl. Raya Gondang, Genggelang, Kec. Gangga, Kabupaten Lombok Utara",NUSA TENGGARA BARAT,83353.0,Indonesia,,,,-8.3379191,116.1889138,https://maps.google.com/?cid=0x0:0xf07c6da11d079fb0,
supermarket,Toko,UD.Ndas,"Jl. Raya Bayan, Gondang, Kec. Gangga, Kabupaten Lombok Utara, Nusa Tenggara Bar. 83353","Gondang, Kec. Gangga, Kabupaten Lombok Utara",NUSA TENGGARA BARAT,83353.0,Indonesia,,,,-8.3576261,116.1772201,https://maps.google.com/?cid=0x0:0xc4c2b51840f2c22d,
supermarket,Toko bahan makanan,Sahimardan P.,"M6F8+GP6, Jl. Selelos, Genggelang, Kec. Gangga, Kabupaten Lombok Utara, Nusa Tenggara Bar. 83353","Jl. Selelos, Genggelang, Kec. Gangga, Kabupaten Lombok Utara",NUSA TENGGARA BARAT,83353.0,Indonesia,,,,-8.3262224,116.2167739,https://maps.google.com/?cid=0x0:0xf7f1002985934896,
supermarket,Toko,TOKO MARYANA,"J6XJ+VCF, Genggelang, Kec. Gangga, Kabupaten Lombok Utara, Nusa Tenggara Bar. 83353","Genggelang, Kec. Gangga, Kabupaten Lombok Utara",NUSA TENGGARA BARAT,83353.0,Indonesia, 08533375444,,,-8.3503209,116.2310367,https://maps.google.com/?cid=0x0:0x70cdc1638c3ad42f,
supermarket,Toko,TOKO AZKARA,"M64X+C78, Jalan simpati, Busur barat, Desa, Rempek, Kec. Gangga, Kabupaten Lombok Utara, Nusa Tenggara Bar. 83353","Jalan simpati, Busur barat, Desa, Rempek, Kec. Gangga, Kabupaten Lombok Utara",NUSA TENGGARA BARAT,83353.0,Indonesia, 085239527725,,,-8.3439613,116.2482052,https://maps.google.com/?cid=0x0:0x912e12d096c44ad9,
supermarket,Toko Elektronik,Toko ahmad/kanada cell,"Jl. Selelos No.240, Genggelang, Kec. Gangga, Kabupaten Lombok Utara, Nusa Tenggara Bar. 83353","Genggelang, Kec. Gangga, Kabupaten Lombok Utara",NUSA TENGGARA BARAT,83353.0,Indonesia, 081237171758,,,-8.3248804,116.2079272,https://maps.google.com/?cid=0x0:0x163d24118eeba370,
supermarket,Toko bahan makanan,Toko Mak ROJIK,"M59W+CVF, Jl. Gotim, Gondang, Kec. Gangga, Kabupaten Lombok Utara, Nusa Tenggara Bar. 83353","Jl. Gotim, Gondang, Kec. Gangga, Kabupaten Lombok Utara",NUSA TENGGARA BARAT,83353.0,Indonesia,,,,-8.3314371,116.1971687,https://maps.google.com/?cid=0x0:0x5397cf6ade16f771,
supermarket,Minimarket,ALFAMART KSB LEKOK GANGGA ALMA MART,"J5VH+88J, Jl. Raya Bayan, Gondang, Kec. Gangga, Kabupaten Lombok Utara, Nusa Tenggara Bar. 83353","Jl. Raya Bayan, Gondang, Kec. Gangga, Kabupaten Lombok Utara",NUSA TENGGARA BARAT,83353.0,Indonesia,,,,-8.3568149,116.1783251,https://maps.google.com/?cid=0x0:0x54aed32460eebfc4,
supermarket,Toko,Toko Rahma,"M65P+7WM, Jl. Selelos, Genggelang, Kec. Gangga, Kabupaten Lombok Utara, Nusa Tenggara Bar. 83353","Jl. Selelos, Genggelang, Kec. Gangga, Kabupaten Lombok Utara",NUSA TENGGARA BARAT,83353.0,Indonesia, 082342129131,,,-8.34178,116.2373034,https://maps.google.com/?cid=0x0:0x53dbe61e945a0470,
supermarket,Toko bahan makanan,Mitra Gangga,"M5CV+X9W, Jl. Raya Gondang, Gondang, Kec. Gangga, Kabupaten Lombok Utara, Nusa Tenggara Bar. 83353","Jl. Raya Gondang, Gondang, Kec. Gangga, Kabupaten Lombok Utara",NUSA TENGGARA BARAT,83353.0,Indonesia,,,,-8.3275036,116.1934604,https://maps.google.com/?cid=0x0:0x2945ae192b31b805,
supermarket,Minimarket,Alfamart Raya Gondang Gangga,"M56R+MMP, Jl. Raya Gondang No.16, Gondang, Kec. Gangga, Kabupaten Lombok Utara, Nusa Tenggara Bar. 83353","Jl. Raya Gondang No.16, Gondang, Kec. Gangga, Kabupaten Lombok Utara",NUSA TENGGARA BARAT,83353.0,Indonesia,,,,-8.337409,116.1906888,https://maps.google.com/?cid=0x0:0x9e9c09899a24000c,
supermarket,,Kios Ariel alam,"J6JH+6H2, Jl. Selelos, Genggelang, Kec. Gangga, Kabupaten Lombok Utara, Nusa Tenggara Bar. 83353","Jl. Selelos, Genggelang, Kec. Gangga, Kabupaten Lombok Utara",NUSA TENGGARA BARAT,83353.0,Indonesia,,,,-8.3695005,116.2295919,https://maps.google.com/?cid=0x0:0x53bd8ccb4ce92dfb,
supermarket,Toko,Toko ud AL - Fakhri,"J55R+F58 San baro, Bentek, Kec. Gangga, kab.lombok utara, Nusa Tenggara Bar. 83353","Bentek, Kec. Gangga, kab.lombok utara",NUSA TENGGARA BARAT,83353.0,Indonesia, 085337755667,,,-8.3913315,116.1904416,https://maps.google.com/?cid=0x0:0xc8f0a9ac1f425bcf,
supermarket,Toko,Toko Iza,"M795+H4J, Rempek, Kec. Gangga, Kabupaten Lombok Utara, Nusa Tenggara Bar. 83353","Rempek, Kec. Gangga, Kabupaten Lombok Utara",NUSA TENGGARA BARAT,83353.0,Indonesia, 082339103300,,,-8.3310413,116.2577732,https://maps.google.com/?cid=0x0:0xcd4bb015fce9d65d,
supermarket,Minimarket,Alfamart Gondang Barat Gangga,"M55P+P84, Jl. Raya Bayan, RT./RW/RW.007/001, kr.bedil, Gondang, Kec. Gangga, Kabupaten Lombok Utara, Nusa Tenggara Bar. 83353","Jl. Raya Bayan, RT./RW/RW.007/001, kr.bedil, Gondang, Kec. Gangga, Kabupaten Lombok Utara",NUSA TENGGARA BARAT,83353.0,Indonesia,,,,-8.3407399,116.185838,https://maps.google.com/?cid=0x0:0x97139e1fbbd107d8,
supermarket,Pembangunan Perumahan,SIMPANG 3DARA SENJAJAK,"M7CQ+J85, Sambik Bangkol, Kec. Gangga, Kabupaten Lombok Utara, Nusa Tenggara Bar. 83353","Sambik Bangkol, Kec. Gangga, Kabupaten Lombok Utara",NUSA TENGGARA BARAT,83353.0,Indonesia,,,,-8.3284926,116.2883517,https://maps.google.com/?cid=0x0:0xef05f9d43c9bab16,
supermarket,Toko bahan makanan,Remmoba,"J6VX+WFQ, Genggelang, Kec. Gangga, Kabupaten Lombok Utara, Nusa Tenggara Bar. 83353","Genggelang, Kec. Gangga, Kabupaten Lombok Utara",NUSA TENGGARA BARAT,83353.0,Indonesia, 085333587803,,,-8.3551649,116.2487384,https://maps.google.com/?cid=0x0:0x1901e5514beeec8e,
supermarket,Toko,Kios niga,"M775+JVR, Jl. Rempek, Rempek, Kec. Gangga, Kabupaten Lombok Utara, Nusa Tenggara Bar. 83353","Jl. Rempek, Rempek, Kec. Gangga, Kabupaten Lombok Utara",NUSA TENGGARA BARAT,83353.0,Indonesia, 085238726800,,,-8.3358877,116.259639,https://maps.google.com/?cid=0x0:0x96d93b59b0978dcd,
supermarket,Toko bahan makanan,SEANJAYA MART,"Dusun Lekok Tenggara Desa Gondang Kecamatan Gangga, Kec. Tj., Kabupaten Lombok Utara, Nusa Tenggara Bar. 83353","Kec. Tj., Kabupaten Lombok Utara",NUSA TENGGARA BARAT,83353.0,Indonesia,,,,-8.3462294,116.1788122,https://maps.google.com/?cid=0x0:0xa323f605c7edf53d,
supermarket,Pasar,Pasar Santong Lombok Utara,"M7MM+9WJ, Unnamed Road, Sesait, Kec. Kayangan, Kabupaten Lombok Utara, Nusa Tenggara Bar. 83353","Unnamed Road, Sesait, Kec. Kayangan, Kabupaten Lombok Utara",NUSA TENGGARA BARAT,83353.0,Indonesia,,,,-8.3162817,116.2851176,https://maps.google.com/?cid=0x0:0xbf6c5a2fb3c0818f,
supermarket,supermarket,Berkah Gangga,"Jl. Raya Gondang, Gondang, Kec. Gangga, Kabupaten Lombok Utara, Nusa Tenggara Bar. 83353","Gondang, Kec. Gangga, Kabupaten Lombok Utara",NUSA TENGGARA BARAT,83353.0,Indonesia,,,,-8.330708,116.1934045,https://maps.google.com/?cid=0x0:0xc87bfc49e30bd79d,
supermarket,Toko bahan makanan,Nagajaya Kios,"M7HR+89G, Jl. Santong Barat, Sesait, Kec. Kayangan, Kabupaten Lombok Utara, Nusa Tenggara Bar. 83353","Jl. Santong Barat, Sesait, Kec. Kayangan, Kabupaten Lombok Utara",NUSA TENGGARA BARAT,83353.0,Indonesia,,,,-8.3220684,116.2914522,https://maps.google.com/?cid=0x0:0xd4562298eb30bc55,
supermarket,supermarket,Nusa Tenggara Bar. 83353,"Kabupaten Lombok Utara, Nusa Tenggara Bar.","Kabupaten Lombok Utara, Nusa Tenggara Bar.",NUSA TENGGARA BARAT,,Indonesia,,,,-8.3555888,116.2540856,https://maps.google.com/?cid=0x0:0xe34777432b10f76c,
supermarket,Pusat Perbelanjaan,Swalayan Piramida,"P7W6+23J, Jl. Raya Bayan, Kayangan, Kec. Kayangan, Kabupaten Lombok Utara, Nusa Tenggara Bar. 83353","Jl. Raya Bayan, Kayangan, Kec. Kayangan, Kabupaten Lombok Utara",NUSA TENGGARA BARAT,83353.0,Indonesia, 087864607626,,,-8.2549081,116.2601539,https://maps.google.com/?cid=0x0:0xa4c60baa62c27e3f,
supermarket,Pasar,Pasar Kayangan,"Pasar Lengkok-Rangan Los 1 No. 31, JL. Raya Lekok Rangan Kayangan, RT. 005 RW. 1, Lombok Utara Kayangan Mataram, Kayangan, Kec. Kayangan, Kabupaten Lombok Utara, Nusa Tenggara Bar. 83353","JL. Raya Lekok Rangan Kayangan, RT. 005 RW. 1, Lombok Utara Kayangan Mataram, Kayangan, Kec. Kayangan, Kabupaten Lombok Utara",NUSA TENGGARA BARAT,83353.0,Indonesia, 081917155500,,,-8.2526643,116.2626817,https://maps.google.com/?cid=0x0:0xc739dbc1bad1712e,
supermarket,Pasar,Pasar Santong Lombok Utara,"M7MM+9WJ, Unnamed Road, Sesait, Kec. Kayangan, Kabupaten Lombok Utara, Nusa Tenggara Bar. 83353","Unnamed Road, Sesait, Kec. Kayangan, Kabupaten Lombok Utara",NUSA TENGGARA BARAT,83353.0,Indonesia,,,,-8.3162817,116.2851176,https://maps.google.com/?cid=0x0:0xbf6c5a2fb3c0818f,
supermarket,Minimarket,Sindy cell,"Gg. Ktrong Rengo, Sesait, Kec. Kayangan, Kabupaten Lombok Utara, Nusa Tenggara Bar. 83353","Sesait, Kec. Kayangan, Kabupaten Lombok Utara",NUSA TENGGARA BARAT,83353.0,Indonesia,,,,-8.299446,116.2722628,https://maps.google.com/?cid=0x0:0xf58dc3b3fa9490ca,
supermarket,Toko bahan makanan,KOLANG KALING PENDUA,"M7VC+R5F, Sesait, Kec. Kayangan, Kabupaten Lombok Utara, Nusa Tenggara Bar. 83353","Sesait, Kec. Kayangan, Kabupaten Lombok Utara",NUSA TENGGARA BARAT,83353.0,Indonesia, 082339550356,,,-8.3054234,116.2706444,https://maps.google.com/?cid=0x0:0xef95cf06fcb0552a,
supermarket,Toko Organik,Toko inak ayu,"M7MQ+626, Mentaru timur, Santong, Kec. Kayangan, Kabupaten Lombok Utara, Nusa Tenggara Bar. 83353","Mentaru timur, Santong, Kec. Kayangan, Kabupaten Lombok Utara",NUSA TENGGARA BARAT,83353.0,Indonesia, 085967972688,,,-8.3169675,116.2875158,https://maps.google.com/?cid=0x0:0xdb56fe7a1501154,
supermarket,Toko,Istiarah,"Pasar Santong Los 1 No. 47, JL Raya Kayangan-Santong, RT 01, Sesait, Kec. Kayangan, Kabupaten Lombok Utara, Nusa Tenggara Bar. 83353","JL Raya Kayangan-Santong, RT 01, Sesait, Kec. Kayangan, Kabupaten Lombok Utara",NUSA TENGGARA BARAT,83353.0,Indonesia, 087864216917,,,-8.3162681,116.2847935,https://maps.google.com/?cid=0x0:0x8cf178935ba35943,
supermarket,Toko,Jumiri,"Pasar Santong Los 1 No. 48, JL Raya Kayangan-Santong, RT 01, Sesait, Kec. Kayangan, Kabupaten Lombok Utara, Nusa Tenggara Bar. 83353","JL Raya Kayangan-Santong, RT 01, Sesait, Kec. Kayangan, Kabupaten Lombok Utara",NUSA TENGGARA BARAT,83353.0,Indonesia, 087864216917,,,-8.3162681,116.2847935,https://maps.google.com/?cid=0x0:0xd01a5cdad371deff,
supermarket,Toko Rokok Elektrik,kayangan vape store,"Jl. Raya Bayan No.54 KM, Kayangan, Kec. Kayangan, Kabupaten Lombok Utara, Nusa Tenggara Bar. 83353","Kayangan, Kec. Kayangan, Kabupaten Lombok Utara",NUSA TENGGARA BARAT,83353.0,Indonesia, 085333474149,,,-8.2547305,116.2609773,https://maps.google.com/?cid=0x0:0x9ad1f3f2e13a3b2e,
supermarket,Toko,Salmiah,"Pasar Santong Los 1 No. 51, JL Raya Kayangan-Santong, RT 01, Sesait, Kec. Kayangan, Kabupaten Lombok Utara, Nusa Tenggara Bar. 83353","JL Raya Kayangan-Santong, RT 01, Sesait, Kec. Kayangan, Kabupaten Lombok Utara",NUSA TENGGARA BARAT,83353.0,Indonesia, 087864216917,,,-8.3162681,116.2847935,https://maps.google.com/?cid=0x0:0x6c7950f711421ab,
supermarket,Pembangunan Perumahan,DUSUN REBAKONG,"P764+86W, Jl. Sidutan, Kayangan, Kec. Kayangan, Kabupaten Lombok Utara, Nusa Tenggara Bar. 83353","Jl. Sidutan, Kayangan, Kec. Kayangan, Kabupaten Lombok Utara",NUSA TENGGARA BARAT,83353.0,Indonesia, 082340606656,,,-8.2891376,116.2555724,https://maps.google.com/?cid=0x0:0xa16b49868c493e1d,
supermarket,Toko Elektronik,Toko ahmad/kanada cell,"Jl. Selelos No.240, Genggelang, Kec. Gangga, Kabupaten Lombok Utara, Nusa Tenggara Bar. 83353","Genggelang, Kec. Gangga, Kabupaten Lombok Utara",NUSA TENGGARA BARAT,83353.0,Indonesia, 081237171758,,,-8.3248804,116.2079272,https://maps.google.com/?cid=0x0:0x163d24118eeba370,
supermarket,Kedai Kopi,Kopi ully lasingan,"Dusun, Jl. Santong Barat RT1 No.1, Desa Santong, Kec. Kayangan, Kabupaten Lombok Utara, Nusa Tenggara Bar. 83353","Jl. Santong Barat RT1 No.1, Desa Santong, Kec. Kayangan, Kabupaten Lombok Utara",NUSA TENGGARA BARAT,83353.0,Indonesia, 085955117063,,,-8.3192433,116.2882614,https://maps.google.com/?cid=0x0:0x196654703ba84c8e,
supermarket,Toko Swalayan,Kios Hzelnut,"M7HR+6GG, Jl. Santong Barat, Sesait, Kec. Kayangan, Kabupaten Lombok Utara, Nusa Tenggara Bar. 83353","Jl. Santong Barat, Sesait, Kec. Kayangan, Kabupaten Lombok Utara",NUSA TENGGARA BARAT,83353.0,Indonesia,,,,-8.3219335,116.2913358,https://maps.google.com/?cid=0x0:0x662bc8a5f480d30d,
supermarket,Pedagang tekstil,Darmawan,"Pasar Santong Los 2 No. 4, JL Raya Kayangan-Santong, RT 01, Sesait, Kec. Kayangan, Kabupaten Lombok Utara, Nusa Tenggara Bar. 83353","JL Raya Kayangan-Santong, RT 01, Sesait, Kec. Kayangan, Kabupaten Lombok Utara",NUSA TENGGARA BARAT,83353.0,Indonesia, 087864216917,,,-8.3162681,116.2847935,https://maps.google.com/?cid=0x0:0xd3779c97e00fe7c6,
supermarket,Toko Roti,ZAID BAKERY  CAKE,"M7MP+FVC, Santong, Kec. Kayangan, Kabupaten Lombok Utara, Nusa Tenggara Bar. 83353","Santong, Kec. Kayangan, Kabupaten Lombok Utara",NUSA TENGGARA BARAT,83353.0,Indonesia, 085333702393,,,-8.3163018,116.2871306,https://maps.google.com/?cid=0x0:0x3d9f55c53fa60e1,
supermarket,Toko,Riham,"Pasar Santong Los 2 No. 33, JL Raya Kayangan-Santong, RT 01, Sesait, Kec. Kayangan, Kabupaten Lombok Utara, Nusa Tenggara Bar. 83353","JL Raya Kayangan-Santong, RT 01, Sesait, Kec. Kayangan, Kabupaten Lombok Utara",NUSA TENGGARA BARAT,83353.0,Indonesia, 087864216917,,,-8.3162681,116.2847935,https://maps.google.com/?cid=0x0:0xcc344170d1fe6e71,
supermarket,Toko,H Kamrudin,"Pasar Santong Los 1 No. 50, JL Raya Kayangan-Santong, RT 01, Sesait, Kec. Kayangan, Kabupaten Lombok Utara, Nusa Tenggara Bar. 83353","JL Raya Kayangan-Santong, RT 01, Sesait, Kec. Kayangan, Kabupaten Lombok Utara",NUSA TENGGARA BARAT,83353.0,Indonesia, 087864216917,,,-8.3162681,116.2847935,https://maps.google.com/?cid=0x0:0x4ed6f54a55a92290,
supermarket,Toko umum,Tanak sebang,"P8W9+Q8V, Salut, Kec. Kayangan, Kabupaten Lombok Utara, Nusa Tenggara Bar. 83353","Salut, Kec. Kayangan, Kabupaten Lombok Utara",NUSA TENGGARA BARAT,83353.0,Indonesia,,,,-8.2529333,116.3183038,https://maps.google.com/?cid=0x0:0x5421d4b3a8fd83c7,
supermarket,Toko Makanan,Harapan wanita Dangiang,"Dusun Jl. Jelantik, Dangiang, Kec. Kayangan, Kabupaten Lombok Utara, Nusa Tenggara Bar. 83353","Dangiang, Kec. Kayangan, Kabupaten Lombok Utara",NUSA TENGGARA BARAT,83353.0,Indonesia, 085238063910,,,-8.2676909,116.2697142,https://maps.google.com/?cid=0x0:0x864defe8af0ca302,
supermarket,Toko Organik,Wahyudi,"Pasar Santong Los 1 No. 26, JL Raya Kayangan-Santong, RT 01, Sesait, Kec. Kayangan, Kabupaten Lombok Utara, Nusa Tenggara Bar. 83353","JL Raya Kayangan-Santong, RT 01, Sesait, Kec. Kayangan, Kabupaten Lombok Utara",NUSA TENGGARA BARAT,83353.0,Indonesia, 087864216917,,,-8.3162681,116.2847935,https://maps.google.com/?cid=0x0:0xc2abf6f3f498aec1,
supermarket,Toko,TOKO MARYANA,"J6XJ+VCF, Genggelang, Kec. Gangga, Kabupaten Lombok Utara, Nusa Tenggara Bar. 83353","Genggelang, Kec. Gangga, Kabupaten Lombok Utara",NUSA TENGGARA BARAT,83353.0,Indonesia, 08533375444,,,-8.3503209,116.2310367,https://maps.google.com/?cid=0x0:0x70cdc1638c3ad42f,
supermarket,Toko bahan makanan,Sahimardan P.,"M6F8+GP6, Jl. Selelos, Genggelang, Kec. Gangga, Kabupaten Lombok Utara, Nusa Tenggara Bar. 83353","Jl. Selelos, Genggelang, Kec. Gangga, Kabupaten Lombok Utara",NUSA TENGGARA BARAT,83353.0,Indonesia,,,,-8.3262224,116.2167739,https://maps.google.com/?cid=0x0:0xf7f1002985934896,
supermarket,Toko,TOKO AZKARA,"M64X+C78, Jalan simpati, Busur barat, Desa, Rempek, Kec. Gangga, Kabupaten Lombok Utara, Nusa Tenggara Bar. 83353","Jalan simpati, Busur barat, Desa, Rempek, Kec. Gangga, Kabupaten Lombok Utara",NUSA TENGGARA BARAT,83353.0,Indonesia, 085239527725,,,-8.3439613,116.2482052,https://maps.google.com/?cid=0x0:0x912e12d096c44ad9,
supermarket,,Kios Ariel alam,"J6JH+6H2, Jl. Selelos, Genggelang, Kec. Gangga, Kabupaten Lombok Utara, Nusa Tenggara Bar. 83353","Jl. Selelos, Genggelang, Kec. Gangga, Kabupaten Lombok Utara",NUSA TENGGARA BARAT,83353.0,Indonesia,,,,-8.3695005,116.2295919,https://maps.google.com/?cid=0x0:0x53bd8ccb4ce92dfb,
supermarket,Toko Pakaian,WQN STORE,"Jl. Sesait, Sesait, Kec. Kayangan, Kabupaten Lombok Utara, Nusa Tenggara Bar. 83353","Sesait, Kec. Kayangan, Kabupaten Lombok Utara",NUSA TENGGARA BARAT,83353.0,Indonesia, 081239333033,,,-8.3159114,116.284256,https://maps.google.com/?cid=0x0:0x720df91d53909c67,
supermarket,supermarket,Nusa Tenggara Bar. 83352,"Kabupaten Lombok Utara, Nusa Tenggara Bar.","Kabupaten Lombok Utara, Nusa Tenggara Bar.",NUSA TENGGARA BARAT,,Indonesia,,,,-8.4131655,116.1477598,https://maps.google.com/?cid=0x0:0x35e4373277595e3,
supermarket,Minimarket,Coco Mart,"J2VR+HVP, Jl. Pantai Gili Trawangan, Gili Indah, Kec. Pemenang, Kabupaten Lombok Utara, Nusa Tenggara Bar. 83352","Jl. Pantai Gili Trawangan, Gili Indah, Kec. Pemenang, Kabupaten Lombok Utara",NUSA TENGGARA BARAT,83352.0,Indonesia,,,,-8.3560361,116.0422124,https://maps.google.com/?cid=0x0:0x1b34986a30718267,
supermarket,Minimarket,MANDALIKA SuperMarket,"M24H+4G9 Gili Trawangan, Gili Indah, Kec. Pemenang, Kabupaten Lombok Utara, Nusa Tenggara Bar. 83352","Gili Indah, Kec. Pemenang, Kabupaten Lombok Utara",NUSA TENGGARA BARAT,83352.0,Indonesia,,,,-8.3447067,116.0288483,https://maps.google.com/?cid=0x0:0xc5c69894d061279b,
supermarket,Toko bahan makanan,Supermarket,"J3W5+GVQ, Unnamed Road, Gili Indah, Pemenang, North Lombok Regency, West Nusa Tenggara 83352","Unnamed Road, Gili Indah, Pemenang, North Lombok Regency",NUSA TENGGARA BARAT,83352.0,Indonesia,,,,-8.353673,116.059722,https://maps.google.com/?cid=0x0:0x92800a3aabd61510,
supermarket,Toko bahan makanan,Siti Shop,"J3QM+HC5, Gili Air, Gili Indah, Kec. Pemenang, Kabupaten Lombok Utara, Nusa Tenggara Bar. 83352","Gili Air, Gili Indah, Kec. Pemenang, Kabupaten Lombok Utara",NUSA TENGGARA BARAT,83352.0,Indonesia, 087765240777,,,-8.3611023,116.0836059,https://maps.google.com/?cid=0x0:0xb60d40f9601686f4,
supermarket,Minimarket,Supermarket,"J3PM+W8H, Jl. Mojo, Gili Indah, Kec. Pemenang, Kabupaten Lombok Utara, Nusa Tenggara Bar. 83352","Jl. Mojo, Gili Indah, Kec. Pemenang, Kabupaten Lombok Utara",NUSA TENGGARA BARAT,83352.0,Indonesia,,,,-8.3626986,116.0833584,https://maps.google.com/?cid=0x0:0xcc1e68ef7c0a0ae0,
supermarket,Toko bahan makanan,BM market,"83352 Nusa Tenggara Bar., Kabupaten Lombok Utara, Kec. Pemenang, Gili Indah",Nusa Tenggara Bar.,NUSA TENGGARA BARAT,83352.0,Indonesia,,,,-8.3503769,116.043925,https://maps.google.com/?cid=0x0:0x468cdd91a623f373,
supermarket,Minimarket,Tuku Shop,"samping SPBU telaga wareng, Jl. Raya Pemenang, Pemenang Bar., Kec. Pemenang, Kota Mataram, Nusa Tenggara Bar. 83352","Jl. Raya Pemenang, Pemenang Bar., Kec. Pemenang, Kota Mataram",NUSA TENGGARA BARAT,83352.0,Indonesia, 082236511512,,,-8.4121175,116.09924,https://maps.google.com/?cid=0x0:0x75858a4ecb63ecce,
supermarket,Toko bahan makanan,Toko Ibu Rabiah,"Pemenang Tim., Kec. Pemenang, Kabupaten Lombok Utara, Nusa Tenggara Bar. 83352","Kec. Pemenang, Kabupaten Lombok Utara",NUSA TENGGARA BARAT,83352.0,Indonesia, 087827053215,,,-8.3924174,116.108471,https://maps.google.com/?cid=0x0:0xd9f22d04d25d2f10,
supermarket,Toko Swalayan,Market Ibuk Jaitun,"J3VJ+VXM, Air, Gili Bar.Gili Air,Gili Indah,Pemenang,Kabupaten Lombok Utara,Nusa Tenggara, Gili Indah, Kec. Pemenang, Kabupaten Lombok Utara, Nusa Tenggara Bar. 83352","Air, Gili Bar.Gili Air,Gili Indah,Pemenang,Kabupaten Lombok Utara,Nusa Tenggara, Gili Indah, Kec. Pemenang, Kabupaten Lombok Utara",NUSA TENGGARA BARAT,83352.0,Indonesia, 081236326537,,,-8.3552831,116.0824109,https://maps.google.com/?cid=0x0:0x57d5e88633a66090,
supermarket,Toko bahan makanan,Titipan Ilahi,"H4W3+82V, Pemenang Bar., Kec. Pemenang, Kabupaten Lombok Utara, Nusa Tenggara Bar. 83352","Pemenang Bar., Kec. Pemenang, Kabupaten Lombok Utara",NUSA TENGGARA BARAT,83352.0,Indonesia, 087865805526,,,-8.4041337,116.1025481,https://maps.google.com/?cid=0x0:0x42adeccf9282dc56,
supermarket,Toko Swalayan,Kupu-kupu shop,"J3VH+P9V, Sunset Boulevard, Gili Indah, Kec. Pemenang, Kabupaten Lombok Utara, Nusa Tenggara Bar. 83352","Sunset Boulevard, Gili Indah, Kec. Pemenang, Kabupaten Lombok Utara",NUSA TENGGARA BARAT,83352.0,Indonesia,,,,-8.3556676,116.0775455,https://maps.google.com/?cid=0x0:0x7a3d262e6747af3d,
supermarket,Toko bahan makanan,Toko Ibu Pahni,"Jl. Bangsal Baru No.184, Pemenang Bar., Kec. Pemenang, Kabupaten Lombok Utara, Nusa Tenggara Bar. 83352","Pemenang Bar., Kec. Pemenang, Kabupaten Lombok Utara",NUSA TENGGARA BARAT,83352.0,Indonesia, 082340280240,,,-8.4020625,116.1019515,https://maps.google.com/?cid=0x0:0x4eba8c707caa5e75,
supermarket,Restoran,JUJU Zero Waste Store  Vegan Cafe,"Jl. Mojo, Gili Air, Kec. Pemenang, Kabupaten Lombok Utara, Nusa Tenggara Bar. 83352","Gili Air, Kec. Pemenang, Kabupaten Lombok Utara",NUSA TENGGARA BARAT,83352.0,Indonesia, 081238262754,,,-8.3613475,116.0835788,https://maps.google.com/?cid=0x0:0xe3ed7d68f0f906dc,
supermarket,Toko bahan makanan,Luh puji,"H4W2+FF7, Gg. Mahoni, Pemenang Bar., Kec. Pemenang, Kabupaten Lombok Utara, Nusa Tenggara Bar. 83352","Gg. Mahoni, Pemenang Bar., Kec. Pemenang, Kabupaten Lombok Utara",NUSA TENGGARA BARAT,83352.0,Indonesia, 087865881244,,,-8.4038318,116.1011636,https://maps.google.com/?cid=0x0:0x8795495b5dcd4828,
supermarket,Minimarket,Toko Murah Pemenang,"H4V3+J77, Jalan Raya, East Pemenang, Pemenang, North Lombok Regency, West Nusa Tenggara 83352","Jalan Raya, East Pemenang, Pemenang, North Lombok Regency",NUSA TENGGARA BARAT,83352.0,Indonesia,,,,-8.4059599,116.1031817,https://maps.google.com/?cid=0x0:0x7d6bcc79f6a6e346,
supermarket,Toko bahan makanan,KIOS IBU ISMAH,"H4R4+X27, Unnamed Road, Pemenang Tim., Kec. Pemenang, Kabupaten Lombok Utara, Nusa Tenggara Bar. 83352","Unnamed Road, Pemenang Tim., Kec. Pemenang, Kabupaten Lombok Utara",NUSA TENGGARA BARAT,83352.0,Indonesia,,,,-8.4075985,116.1050549,https://maps.google.com/?cid=0x0:0xa981f485a2f10413,
supermarket,Toko bahan makanan,Toko Madati,"M22V+G5Q, Jl. Pantai Gili Trawangan, Gili Indah, Kec. Pemenang, Kabupaten Lombok Utara, Nusa Tenggara Bar. 83352","Jl. Pantai Gili Trawangan, Gili Indah, Kec. Pemenang, Kabupaten Lombok Utara",NUSA TENGGARA BARAT,83352.0,Indonesia,,,,-8.3486709,116.0429819,https://maps.google.com/?cid=0x0:0x3b1d1b66598f3a0f,
supermarket,Toko Ponsel,Ceria Cell,"Jl. Raya Mataram - Tj., Sigar Penjalin, Kec. Tj., Kabupaten Lombok Utara, Nusa Tenggara Bar. 83352","Sigar Penjalin, Kec. Tj., Kabupaten Lombok Utara",NUSA TENGGARA BARAT,83352.0,Indonesia,,,,-8.3863157,116.1121593,https://maps.google.com/?cid=0x0:0xefae805319187491,
supermarket,Minimarket,Indomaret Pemenang,"H4W2+FX5, Jl. Bangsal Baru, Pemenang Bar., Kec. Pemenang, Kabupaten Lombok Utara, Nusa Tenggara Bar. 83352","Jl. Bangsal Baru, Pemenang Bar., Kec. Pemenang, Kabupaten Lombok Utara",NUSA TENGGARA BARAT,83352.0,Indonesia,,,,-8.4038282,116.1024927,https://maps.google.com/?cid=0x0:0x2ae1d4976bcaded0,
supermarket,Toko bahan makanan,toko sinar abadi,"H4W3+442, Jl. Raya Senggigi, Pemenang Bar., Kec. Pemenang, Kabupaten Lombok Utara, Nusa Tenggara Bar. 83352","Jl. Raya Senggigi, Pemenang Bar., Kec. Pemenang, Kabupaten Lombok Utara",NUSA TENGGARA BARAT,83352.0,Indonesia,,,,-8.4047456,116.1027636,https://maps.google.com/?cid=0x0:0xde0cf3962443cd14,
supermarket,Toko bahan makanan,Toko lankah pasti,"J422+98X, Jl. Bangsal Baru, Pemenang Tim., Kec. Pemenang, Kabupaten Lombok Utara, Nusa Tenggara Bar. 83352","Jl. Bangsal Baru, Pemenang Tim., Kec. Pemenang, Kabupaten Lombok Utara",NUSA TENGGARA BARAT,83352.0,Indonesia, 087864029000,,,-8.3990183,116.1008628,https://maps.google.com/?cid=0x0:0x73eb0ef79a5a1882,
supermarket,Toko Swalayan,Debby Shop 2,"J3W3+WX7, Jl. Gili Meno, Gili Indah, Kec. Pemenang, Kabupaten Lombok Utara, Nusa Tenggara Bar. 83352","Jl. Gili Meno, Gili Indah, Kec. Pemenang, Kabupaten Lombok Utara",NUSA TENGGARA BARAT,83352.0,Indonesia,,,,-8.3527156,116.054908,https://maps.google.com/?cid=0x0:0xa74dc0551b246ced,
supermarket,Toko bahan makanan,M MART,"Jl. Pelangi Sunset View No.83352, Gili Air, Kec. Pemenang, Kabupaten Lombok Utara, Nusa Tenggara Bar.","Kabupaten Lombok Utara, Nusa Tenggara Bar.",NUSA TENGGARA BARAT,,Indonesia,,,,-8.3512554,116.0816114,https://maps.google.com/?cid=0x0:0x6b7a122a7800ddff,
supermarket,Toko bahan makanan,Unik Grocery Shop,"Jl. Pantai, Gili Indah, Kec. Pemenang, Kabupaten Lombok Utara, Nusa Tenggara Bar. 83352","Gili Indah, Kec. Pemenang, Kabupaten Lombok Utara",NUSA TENGGARA BARAT,83352.0,Indonesia, 085339358904,,,-8.3616844,116.0842203,https://maps.google.com/?cid=0x0:0x4c579c2d9f83e896,
supermarket,Minimarket,Gili Bagus Mart,"Gili Air, Gili Indah, Kec. Pemenang, Kabupaten Lombok Utara, Nusa Tenggara Bar. 83352","Gili Indah, Kec. Pemenang, Kabupaten Lombok Utara",NUSA TENGGARA BARAT,83352.0,Indonesia, 081803694439,,,-8.3564834,116.083541,https://maps.google.com/?cid=0x0:0x4c151f4a30b755ee,
supermarket,Pasar,Fruits market,"M23Q+CP3, Jl. Vila Klp., Gili Indah, Kec. Pemenang, Kabupaten Lombok Utara, Nusa Tenggara Bar. 83352","Jl. Vila Klp., Gili Indah, Kec. Pemenang, Kabupaten Lombok Utara",NUSA TENGGARA BARAT,83352.0,Indonesia,,,,-8.3464752,116.0392908,https://maps.google.com/?cid=0x0:0x8128879bae272cff,
supermarket,Minimarket,Salsabila 1,"J2XV+94W, Gili Trawangan, Gili Indah, Pemenang, Kabupaten Lombok Utara, Nusa Tenggara Bar., Gili Indah, Kec. Pemenang, Kabupaten Lombok Utara, Nusa Tenggara Bar. 83352","Gili Trawangan, Gili Indah, Pemenang, Kabupaten Lombok Utara, Nusa Tenggara Bar., Gili Indah, Kec. Pemenang, Kabupaten Lombok Utara",NUSA TENGGARA BARAT,83352.0,Indonesia,,,,-8.3515047,116.0428428,https://maps.google.com/?cid=0x0:0x7975500fc5df6c12,
supermarket,Toko Swalayan,Warung Waq Buding,"Rt, 1Gili Air, Gili Indah, Kec. Pemenang, Kabupaten Lombok Utara, Nusa Tenggara Bar. 83352","1Gili Air, Gili Indah, Kec. Pemenang, Kabupaten Lombok Utara",NUSA TENGGARA BARAT,83352.0,Indonesia,,,,-8.3623445,116.0801988,https://maps.google.com/?cid=0x0:0x7df7546c63cacb7c,
supermarket,supermarket,Kec. Tj.,"Kabupaten Lombok Utara, Nusa Tenggara Bar.","Kabupaten Lombok Utara, Nusa Tenggara Bar.",NUSA TENGGARA BARAT,,Indonesia,,,,-8.3559275,116.1556813,https://maps.google.com/?cid=0x0:0x947760e643a23d21,
supermarket,Pasar,Mitra Tanjung,"J5V4+VVX, Jl. Raya Tj. No.83352, Tanjung, Kec. Tj., Kabupaten Lombok Utara, Nusa Tenggara Bar. 83352","Jl. Raya Tj. No.83352, Tanjung, Kec. Tj., Kabupaten Lombok Utara",NUSA TENGGARA BARAT,83352.0,Indonesia, 087866918671,,,-8.3552153,116.1572062,https://maps.google.com/?cid=0x0:0xe4baab49023615d6,
supermarket,Toko Swalayan,Sodaqo Esmail Mart,"J5V4+4FW, Jl. Kr. Bayan, Tanjung, Kec. Tj., Kabupaten Lombok Utara, Nusa Tenggara Bar. 83352","Jl. Kr. Bayan, Tanjung, Kec. Tj., Kabupaten Lombok Utara",NUSA TENGGARA BARAT,83352.0,Indonesia,,,,-8.3571284,116.1562105,https://maps.google.com/?cid=0x0:0x3185437a2019b243,
supermarket,Toko bahan makanan,TOKO TYAS,"lapangan super semar, Jl. Raya Tj. No.depan, Tanjung, Kec. Tj., Kabupaten Lombok Utara, Nusa Tenggara Bar. 83352","Jl. Raya Tj. No.depan, Tanjung, Kec. Tj., Kabupaten Lombok Utara",NUSA TENGGARA BARAT,83352.0,Indonesia,,,,-8.3551364,116.1576371,https://maps.google.com/?cid=0x0:0x7c36ada83cbcfa47,
supermarket,Pasar bahan bangunan,Toko Niaga Jaya Tanjung Ichang,"Tanjung, Kec. Tj., Kabupaten Lombok Utara, Nusa Tenggara Bar. 83352","Kec. Tj., Kabupaten Lombok Utara",NUSA TENGGARA BARAT,83352.0,Indonesia,,,,-8.3565048,116.1558221,https://maps.google.com/?cid=0x0:0xda953459fd5a7b60,
supermarket,Toko bahan makanan,Kios Felma,"J4HJ+5MF, teluk dalam, Medana, Kec. Tj., Kabupaten Lombok Utara, Nusa Tenggara Bar. 83352","teluk dalam, Medana, Kec. Tj., Kabupaten Lombok Utara",NUSA TENGGARA BARAT,83352.0,Indonesia, 081933144653,,,-8.3720657,116.1316572,https://maps.google.com/?cid=0x0:0x459b2d95bd63f9c8,
supermarket,Toko bahan makanan,Indomart,"J4RW+29M, Jl. Raya Tj., Sokong, Kec. Tj., Kabupaten Lombok Utara, Nusa Tenggara Bar. 83352","Jl. Raya Tj., Sokong, Kec. Tj., Kabupaten Lombok Utara",NUSA TENGGARA BARAT,83352.0,Indonesia,,,,-8.3599164,116.1459267,https://maps.google.com/?cid=0x0:0x70803c7094fc73d4,
supermarket,Toko,TOKO SINAR GEMBIRA,"Jl. Lading-Lading, Tanjung, Kec. Tj., Kabupaten Lombok Utara, Nusa Tenggara Bar. 83352","Tanjung, Kec. Tj., Kabupaten Lombok Utara",NUSA TENGGARA BARAT,83352.0,Indonesia, 085337403353,,,-8.3562521,116.1556397,https://maps.google.com/?cid=0x0:0x3e2680c04679be18,
supermarket,Toko Elektronik,TTM ceLL,"gubuk baru, Jl. Raya Tj. No.Rt 01, Sokong, Kec. Tj., Kabupaten Lombok Utara, Nusa Tenggara Bar. 83352","Jl. Raya Tj. No.Rt 01, Sokong, Kec. Tj., Kabupaten Lombok Utara",NUSA TENGGARA BARAT,83352.0,Indonesia, 081237371987,,,-8.3596295,116.1471082,https://maps.google.com/?cid=0x0:0xfec9b73f9edeeda1,
supermarket,Pasar bahan bangunan,TP UD. Niaga Makmur Tanjung Lombok Utara,"J5V4+M67, Jalan Raya Mataram, Tanjung, North Lombok Regency, West Nusa Tenggara 83352","Jalan Raya Mataram, Tanjung, North Lombok Regency",NUSA TENGGARA BARAT,83352.0,Indonesia,,,,-8.3558418,116.1555421,https://maps.google.com/?cid=0x0:0x708cc269ccbf9491,
supermarket,Pusat Perbelanjaan,Yunara store tanjung,"J5X8+233, Jl. Raya Tj., Jenggala, Kec. Tj., Kabupaten Lombok Utara, Nusa Tenggara Bar. 83352","Jl. Raya Tj., Jenggala, Kec. Tj., Kabupaten Lombok Utara",NUSA TENGGARA BARAT,83352.0,Indonesia, 087827286306,,,-8.3524966,116.1651776,https://maps.google.com/?cid=0x0:0xf748871b26d8f43f,
supermarket,Toko,Kios Wendi Cagur,"J5X2+GXX, Jl. Sorong Jukung, Tanjung, Kec. Tj., Kabupaten Lombok Utara, Nusa Tenggara Bar. 83352","Jl. Sorong Jukung, Tanjung, Kec. Tj., Kabupaten Lombok Utara",NUSA TENGGARA BARAT,83352.0,Indonesia, 082145460145,,,-8.3511255,116.1524908,https://maps.google.com/?cid=0x0:0x1eb7f3e61e575619,
supermarket,Toko Perlengkapan Rumah,Toko Bintang,"Jl. Raya Tj. No.2012, Sokong, Kec. Tj., Kabupaten Lombok Utara, Nusa Tenggara Bar. 83352","Sokong, Kec. Tj., Kabupaten Lombok Utara",NUSA TENGGARA BARAT,83352.0,Indonesia, 0818036246,,,-8.3577505,116.1513848,https://maps.google.com/?cid=0x0:0xab8e32354e9acef5,
supermarket,Minimarket,Kedai semangka lombok,"J5V2+4RH, Jl. Raya Mataram - Tj., Sokong, Kec. Tj., Kabupaten Lombok Utara, Nusa Tenggara Bar. 83352","Jl. Raya Mataram - Tj., Sokong, Kec. Tj., Kabupaten Lombok Utara",NUSA TENGGARA BARAT,83352.0,Indonesia,,,,-8.3571917,116.1521038,https://maps.google.com/?cid=0x0:0x50d2d59da307e4d7,
supermarket,Toko bahan makanan,Toko MUDA BARU,"Jl. Raya Tj. No.83352, Tanjung, Kec. Tj., Kabupaten Lombok Utara, Nusa Tenggara Bar. 83352","Tanjung, Kec. Tj., Kabupaten Lombok Utara",NUSA TENGGARA BARAT,83352.0,Indonesia, 082144487848,,,-8.3551509,116.1568816,https://maps.google.com/?cid=0x0:0x92c94847aaef0fcf,
supermarket,Toko Perlengkapan Rumah,Toko Grand Hero,"J5V5+X4Q, Jl. Raya Tj., Tanjung, Kec. Tj., Kabupaten Lombok Utara, Nusa Tenggara Bar. 83352","Jl. Raya Tj., Tanjung, Kec. Tj., Kabupaten Lombok Utara",NUSA TENGGARA BARAT,83352.0,Indonesia,,,,-8.3550318,116.1578684,https://maps.google.com/?cid=0x0:0xa1dea59fc887332,
supermarket,Toko Bahan Bangunan,Toko Bangunan Bintang Tanjung,"J5R3+W86, Sokong, Kec. Tj., Kabupaten Lombok Utara, Nusa Tenggara Bar. 83352","Sokong, Kec. Tj., Kabupaten Lombok Utara",NUSA TENGGARA BARAT,83352.0,Indonesia,,,,-8.3577198,116.1532572,https://maps.google.com/?cid=0x0:0x570c13f4e60f65fc,
supermarket,Toko Elektronik,Nesti 2 Tanjung,"Tanjung, Kec. Tj., Kabupaten Lombok Utara, Nusa Tenggara Bar. 83352","Kec. Tj., Kabupaten Lombok Utara",NUSA TENGGARA BARAT,83352.0,Indonesia, 082257095801,,,-8.3568985,116.1526909,https://maps.google.com/?cid=0x0:0x9d7a236c2c697e77,
supermarket,Toko Makanan Sehat,Pawon io,"Sokong, Kec. Tj., Kabupaten Lombok Utara, Nusa Tenggara Bar. 83352","Kec. Tj., Kabupaten Lombok Utara",NUSA TENGGARA BARAT,83352.0,Indonesia, 081803805123,,,-8.3652538,116.1556686,https://maps.google.com/?cid=0x0:0x94bd40a63f46da6,
supermarket,Toko sembako pemerintah,Kios Ibu sari(ika),"J5X5+JP9, Jl. Bayangkara, Tanjung, Kec. Tj., Kabupaten Lombok Utara, Nusa Tenggara Bar. 83352","Jl. Bayangkara, Tanjung, Kec. Tj., Kabupaten Lombok Utara",NUSA TENGGARA BARAT,83352.0,Indonesia,,,,-8.3509528,116.1593535,https://maps.google.com/?cid=0x0:0x2c6da846bfcc8c62,
supermarket,Toko Pakaian,BERKAH ONLINE,"J5R4+X47, Jl. Kr. Bayan, Tanjung, Kec. Tj., Kabupaten Lombok Utara, Nusa Tenggara Bar. 83352","Jl. Kr. Bayan, Tanjung, Kec. Tj., Kabupaten Lombok Utara",NUSA TENGGARA BARAT,83352.0,Indonesia, 087865718806,,,-8.3575878,116.155306,https://maps.google.com/?cid=0x0:0x36c1204d6717998,
supermarket,Toko Kelontong Asia,Waroeng Sayurku,"J5V4+H2H, Jl. Raya Bayan, Genggelang, Kec. Tj., Kabupaten Lombok Utara, Nusa Tenggara Bar. 83352","Jl. Raya Bayan, Genggelang, Kec. Tj., Kabupaten Lombok Utara",NUSA TENGGARA BARAT,83352.0,Indonesia, 085172212451,,,-8.3560029,116.155122,https://maps.google.com/?cid=0x0:0x11a1021d234888df,
supermarket,Pusat Perbelanjaan,Sukko Market,"4V62+J3H, Sidakaton, Kec. Tj., Kabupaten Brebes, Jawa Tengah 52254","Sidakaton, Kec. Tj., Kabupaten Brebes",NUSA TENGGARA BARAT,52254.0,Indonesia, 082310053153,,,-6.8884339,108.8502377,https://maps.google.com/?cid=0x0:0xf6882e14272e07ce,
supermarket,Toko bahan makanan,Syukur Mulia,"Jl. Nasional 1 No.61-91, Tanjung, Kec. Tj., Kabupaten Brebes, Jawa Tengah 52254","Tanjung, Kec. Tj., Kabupaten Brebes",NUSA TENGGARA BARAT,52254.0,Indonesia,,,,-6.8752213,108.8548625,https://maps.google.com/?cid=0x0:0xabb29901f5ee23ac,
supermarket,Minimarket,Toko Ranum,"Jl. K.H. Abdul Karim No.7, Karangayu, Tengguli, Kec. Tj., Kabupaten Brebes, Jawa Tengah 52254","Karangayu, Tengguli, Kec. Tj., Kabupaten Brebes",NUSA TENGGARA BARAT,52254.0,Indonesia,,,,-6.875046,108.842239,https://maps.google.com/?cid=0x0:0xff56daef7aff09e3,
supermarket,Layanan Distribusi,Distributor Nassa Tanjung Brak(susan),"Jl. Cendrawasih No.05 rt04, Sawah,Ladang, Tanjung, Kec. Tj., Kabupaten Brebes, Jawa Tengah 52254","Sawah,Ladang, Tanjung, Kec. Tj., Kabupaten Brebes",NUSA TENGGARA BARAT,52254.0,Indonesia, 081285384684,,,-6.8749196,108.8632543,https://maps.google.com/?cid=0x0:0xb6a242d3b3dbdc2f,
supermarket,Minimarket,Tanjung Qua,"JL Cendrawasih, No. 352, Tanjung, Sawah,Ladang, Pengaradan, Brebes, Kabupaten Brebes, Jawa Tengah 52254","No. 352, Tanjung, Sawah,Ladang, Pengaradan, Brebes, Kabupaten Brebes",NUSA TENGGARA BARAT,52254.0,Indonesia, 085293922275,,,-6.8749255,108.8644415,https://maps.google.com/?cid=0x0:0xc0d273c054e10d91,
supermarket,Toko umum,Toko Sari Mandiri - Tanjung,"Jl. Cendrawasih, Sawah,Ladang, Tanjung, Kec. Tj., Kabupaten Brebes, Jawa Tengah 52254","Sawah,Ladang, Tanjung, Kec. Tj., Kabupaten Brebes",NUSA TENGGARA BARAT,52254.0,Indonesia, 085742254222,,,-6.8755186,108.8572322,https://maps.google.com/?cid=0x0:0x7898a73d85808db2,
supermarket,Toko Swalayan,tk tarinah,"4VGQ+2MJ, Jl. Lombang, Lombang, Kemurang Kulon, Kec. Tj., Kabupaten Brebes, Jawa Tengah 52254","Jl. Lombang, Lombang, Kemurang Kulon, Kec. Tj., Kabupaten Brebes",NUSA TENGGARA BARAT,52254.0,Indonesia,,,,-6.87492,108.8891333,https://maps.google.com/?cid=0x0:0xd07f87abc6f6e2e8,
supermarket,supermarket,Kec. Tj.,"Kabupaten Lombok Utara, Nusa Tenggara Bar.","Kabupaten Lombok Utara, Nusa Tenggara Bar.",NUSA TENGGARA BARAT,,Indonesia,,,,-8.3559275,116.1556813,https://maps.google.com/?cid=0x0:0x947760e643a23d21,
supermarket,Minimarket,Tanjung Corner,"J5W5+27Q, Tanjung, Kec. Tj., Kabupaten Lombok Utara, Nusa Tenggara Bar. 83352","Tanjung, Kec. Tj., Kabupaten Lombok Utara",NUSA TENGGARA BARAT,83352.0,Indonesia,,,,-8.3549062,116.158236,https://maps.google.com/?cid=0x0:0xbf41e8668603161d,
supermarket,Pasar,Mitra Tanjung,"J5V4+VVX, Jl. Raya Tj. No.83352, Tanjung, Kec. Tj., Kabupaten Lombok Utara, Nusa Tenggara Bar. 83352","Jl. Raya Tj. No.83352, Tanjung, Kec. Tj., Kabupaten Lombok Utara",NUSA TENGGARA BARAT,83352.0,Indonesia, 087866918671,,,-8.3552153,116.1572062,https://maps.google.com/?cid=0x0:0xe4baab49023615d6,
supermarket,Pasar bahan bangunan,Toko Niaga Jaya Tanjung Ichang,"Tanjung, Kec. Tj., Kabupaten Lombok Utara, Nusa Tenggara Bar. 83352","Kec. Tj., Kabupaten Lombok Utara",NUSA TENGGARA BARAT,83352.0,Indonesia,,,,-8.3565048,116.1558221,https://maps.google.com/?cid=0x0:0xda953459fd5a7b60,
supermarket,Toko bahan makanan,TOKO TYAS,"lapangan super semar, Jl. Raya Tj. No.depan, Tanjung, Kec. Tj., Kabupaten Lombok Utara, Nusa Tenggara Bar. 83352","Jl. Raya Tj. No.depan, Tanjung, Kec. Tj., Kabupaten Lombok Utara",NUSA TENGGARA BARAT,83352.0,Indonesia,,,,-8.3551364,116.1576371,https://maps.google.com/?cid=0x0:0x7c36ada83cbcfa47,
supermarket,Toko bahan makanan,Indomart,"J4RW+29M, Jl. Raya Tj., Sokong, Kec. Tj., Kabupaten Lombok Utara, Nusa Tenggara Bar. 83352","Jl. Raya Tj., Sokong, Kec. Tj., Kabupaten Lombok Utara",NUSA TENGGARA BARAT,83352.0,Indonesia,,,,-8.3599164,116.1459267,https://maps.google.com/?cid=0x0:0x70803c7094fc73d4,
supermarket,Minimarket,Kedai semangka lombok,"J5V2+4RH, Jl. Raya Mataram - Tj., Sokong, Kec. Tj., Kabupaten Lombok Utara, Nusa Tenggara Bar. 83352","Jl. Raya Mataram - Tj., Sokong, Kec. Tj., Kabupaten Lombok Utara",NUSA TENGGARA BARAT,83352.0,Indonesia,,,,-8.3571917,116.1521038,https://maps.google.com/?cid=0x0:0x50d2d59da307e4d7,
supermarket,Toko,TOKO SINAR GEMBIRA,"Jl. Lading-Lading, Tanjung, Kec. Tj., Kabupaten Lombok Utara, Nusa Tenggara Bar. 83352","Tanjung, Kec. Tj., Kabupaten Lombok Utara",NUSA TENGGARA BARAT,83352.0,Indonesia, 085337403353,,,-8.3562521,116.1556397,https://maps.google.com/?cid=0x0:0x3e2680c04679be18,
supermarket,Toko,Kios Wendi Cagur,"J5X2+GXX, Jl. Sorong Jukung, Tanjung, Kec. Tj., Kabupaten Lombok Utara, Nusa Tenggara Bar. 83352","Jl. Sorong Jukung, Tanjung, Kec. Tj., Kabupaten Lombok Utara",NUSA TENGGARA BARAT,83352.0,Indonesia, 082145460145,,,-8.3511255,116.1524908,https://maps.google.com/?cid=0x0:0x1eb7f3e61e575619,
supermarket,Toko Perlengkapan Rumah,Toko Grand Hero,"J5V5+X4Q, Jl. Raya Tj., Tanjung, Kec. Tj., Kabupaten Lombok Utara, Nusa Tenggara Bar. 83352","Jl. Raya Tj., Tanjung, Kec. Tj., Kabupaten Lombok Utara",NUSA TENGGARA BARAT,83352.0,Indonesia,,,,-8.3550318,116.1578684,https://maps.google.com/?cid=0x0:0xa1dea59fc887332,
supermarket,Toko bahan makanan,Toko MUDA BARU,"Jl. Raya Tj. No.83352, Tanjung, Kec. Tj., Kabupaten Lombok Utara, Nusa Tenggara Bar. 83352","Tanjung, Kec. Tj., Kabupaten Lombok Utara",NUSA TENGGARA BARAT,83352.0,Indonesia, 082144487848,,,-8.3551509,116.1568816,https://maps.google.com/?cid=0x0:0x92c94847aaef0fcf,
supermarket,Pasar bahan bangunan,TP UD. Niaga Makmur Tanjung Lombok Utara,"J5V4+M67, Jalan Raya Mataram, Tanjung, North Lombok Regency, West Nusa Tenggara 83352","Jalan Raya Mataram, Tanjung, North Lombok Regency",NUSA TENGGARA BARAT,83352.0,Indonesia,,,,-8.3558418,116.1555421,https://maps.google.com/?cid=0x0:0x708cc269ccbf9491,
supermarket,Toko Elektronik,Nesti 2 Tanjung,"Tanjung, Kec. Tj., Kabupaten Lombok Utara, Nusa Tenggara Bar. 83352","Kec. Tj., Kabupaten Lombok Utara",NUSA TENGGARA BARAT,83352.0,Indonesia, 082257095801,,,-8.3568985,116.1526909,https://maps.google.com/?cid=0x0:0x9d7a236c2c697e77,
supermarket,Toko Elektronik,TTM ceLL,"gubuk baru, Jl. Raya Tj. No.Rt 01, Sokong, Kec. Tj., Kabupaten Lombok Utara, Nusa Tenggara Bar. 83352","Jl. Raya Tj. No.Rt 01, Sokong, Kec. Tj., Kabupaten Lombok Utara",NUSA TENGGARA BARAT,83352.0,Indonesia, 081237371987,,,-8.3596295,116.1471082,https://maps.google.com/?cid=0x0:0xfec9b73f9edeeda1,
supermarket,Pusat Perbelanjaan,Yunara store tanjung,"J5X8+233, Jl. Raya Tj., Jenggala, Kec. Tj., Kabupaten Lombok Utara, Nusa Tenggara Bar. 83352","Jl. Raya Tj., Jenggala, Kec. Tj., Kabupaten Lombok Utara",NUSA TENGGARA BARAT,83352.0,Indonesia, 087827286306,,,-8.3524966,116.1651776,https://maps.google.com/?cid=0x0:0xf748871b26d8f43f,
supermarket,Toko sembako pemerintah,Kios Ibu sari(ika),"J5X5+JP9, Jl. Bayangkara, Tanjung, Kec. Tj., Kabupaten Lombok Utara, Nusa Tenggara Bar. 83352","Jl. Bayangkara, Tanjung, Kec. Tj., Kabupaten Lombok Utara",NUSA TENGGARA BARAT,83352.0,Indonesia,,,,-8.3509528,116.1593535,https://maps.google.com/?cid=0x0:0x2c6da846bfcc8c62,
supermarket,Kedai Kopi,Charita Coffee,"Komplek Pertokoan Tanjung, Jalan Raya Tanjung- Bayan Lombok Utara. Karang, Bedil, Tanjung, Kec. Tj., Kabupaten Lombok Utara, Nusa Tenggara Bar.","Kabupaten Lombok Utara, Nusa Tenggara Bar.",NUSA TENGGARA BARAT,,Indonesia, 085183040340,,,-8.3564014,116.1548308,https://maps.google.com/?cid=0x0:0xd64a82d69ced363,
supermarket,Minimarket,Toko lancar jaya a,"J5R4+R3X, Jl. Kr. Bayan, Tanjung, Kec. Tj., Kabupaten Lombok Utara, Nusa Tenggara Bar. 83352","Jl. Kr. Bayan, Tanjung, Kec. Tj., Kabupaten Lombok Utara",NUSA TENGGARA BARAT,83352.0,Indonesia,,,,-8.3578638,116.1552692,https://maps.google.com/?cid=0x0:0x6a019aac7bf6c5e,
supermarket,Toko Makanan Sehat,Pawon io,"Sokong, Kec. Tj., Kabupaten Lombok Utara, Nusa Tenggara Bar. 83352","Kec. Tj., Kabupaten Lombok Utara",NUSA TENGGARA BARAT,83352.0,Indonesia, 081803805123,,,-8.3652538,116.1556686,https://maps.google.com/?cid=0x0:0x94bd40a63f46da6,
supermarket,Toko,die nada,"M535+F89, Jl. Bayangkara, Tanjung, Kec. Tj., Kabupaten Lombok Utara, Nusa Tenggara Bar. 83352","Jl. Bayangkara, Tanjung, Kec. Tj., Kabupaten Lombok Utara",NUSA TENGGARA BARAT,83352.0,Indonesia, 087863395014,,,-8.3463478,116.1583524,https://maps.google.com/?cid=0x0:0xe6776d348dfc46ec,
supermarket,Toko Swalayan,Kios SRIE TANJUNG,"Gg. Anggrek II No.1, Pagesangan Tim., Kec. Mataram, Kota Mataram, Nusa Tenggara Bar. 83127","Pagesangan Tim., Kec. Mataram, Kota Mataram",NUSA TENGGARA BARAT,83127.0,Indonesia, 087864282271,,,-8.599523,116.1176067,https://maps.google.com/?cid=0x0:0xbd5d75eda872d6c8,
supermarket,Toko bahan makanan,Kios Felma,"J4HJ+5MF, teluk dalam, Medana, Kec. Tj., Kabupaten Lombok Utara, Nusa Tenggara Bar. 83352","teluk dalam, Medana, Kec. Tj., Kabupaten Lombok Utara",NUSA TENGGARA BARAT,83352.0,Indonesia, 081933144653,,,-8.3720657,116.1316572,https://maps.google.com/?cid=0x0:0x459b2d95bd63f9c8,
supermarket,Toko Pakaian,BERKAH ONLINE,"J5R4+X47, Jl. Kr. Bayan, Tanjung, Kec. Tj., Kabupaten Lombok Utara, Nusa Tenggara Bar. 83352","Jl. Kr. Bayan, Tanjung, Kec. Tj., Kabupaten Lombok Utara",NUSA TENGGARA BARAT,83352.0,Indonesia, 087865718806,,,-8.3575878,116.155306,https://maps.google.com/?cid=0x0:0x36c1204d6717998,
supermarket,Toko,Kios Alif,"J5X4+XR3, Jl. Tj. Regency, Tanjung, Kec. Tj., Kabupaten Lombok Utara, Nusa Tenggara Bar. 83352","Jl. Tj. Regency, Tanjung, Kec. Tj., Kabupaten Lombok Utara",NUSA TENGGARA BARAT,83352.0,Indonesia,,,,-8.3501189,116.1570522,https://maps.google.com/?cid=0x0:0x54ff222960bc41d,
supermarket,Toko Swalayan,Lion Mart,"Jl. Jend. Sudirman No.10, Prapen, Kec. Praya, Kabupaten Lombok Tengah, Nusa Tenggara Bar. 83511","Prapen, Kec. Praya, Kabupaten Lombok Tengah",NUSA TENGGARA BARAT,83511.0,Indonesia, 0370654859,,,-8.7084232,116.2734584,https://maps.google.com/?cid=0x0:0x35b01641aa5d6d86,
supermarket,Toko bahan makanan,Ruby Supermarket  Dept. Store,"Jl. Pejanggik No.111F, Cilinaya, Kec. Cakranegara, Kota Mataram, Nusa Tenggara Bar. 83231","Cilinaya, Kec. Cakranegara, Kota Mataram",NUSA TENGGARA BARAT,83231.0,Indonesia, 0370624421,,,-8.587131,116.1217675,https://maps.google.com/?cid=0x0:0xbcc8757d99c3f51f,
supermarket,Toko bahan makanan,Bersinar Mart,"Jl. Pangeran Antasari No.2, Tanjung, Kec. Tj., Kabupaten Tabalong, Kalimantan Selatan 71571","Tanjung, Kec. Tj., Kabupaten Tabalong",NUSA TENGGARA BARAT,71571.0,Indonesia,,,,-2.1661458,115.382453,https://maps.google.com/?cid=0x0:0x3cb84198a5bb43e7,
supermarket,Minimarket,Minimarket Barunak/Borneo,"R9QP+36J, Jl. Basuki Rahmat, Tanjung, Kec. Tj., Kabupaten Tabalong, Kalimantan Selatan 71571","Jl. Basuki Rahmat, Tanjung, Kec. Tj., Kabupaten Tabalong",NUSA TENGGARA BARAT,71571.0,Indonesia, 082153780668,,,-2.1622964,115.3855186,https://maps.google.com/?cid=0x0:0x35aff89b77447925,
supermarket,Toko bahan makanan,URATA MART,"R9MJ+56R, Tanjung, Kec. Tj., Kabupaten Tabalong, Kalimantan Selatan 71513","Tanjung, Kec. Tj., Kabupaten Tabalong",NUSA TENGGARA BARAT,71513.0,Indonesia, 082213686833,,,-2.1670527,115.3804964,https://maps.google.com/?cid=0x0:0xeb034c974e5762c8,
supermarket,supermarket,Kec. Tj.,"Kabupaten Lombok Utara, Nusa Tenggara Bar.","Kabupaten Lombok Utara, Nusa Tenggara Bar.",NUSA TENGGARA BARAT,,Indonesia,,,,-8.3559275,116.1556813,https://maps.google.com/?cid=0x0:0x947760e643a23d21,
supermarket,Minimarket,Tanjung Corner,"J5W5+27Q, Tanjung, Kec. Tj., Kabupaten Lombok Utara, Nusa Tenggara Bar. 83352","Tanjung, Kec. Tj., Kabupaten Lombok Utara",NUSA TENGGARA BARAT,83352.0,Indonesia,,,,-8.3549062,116.158236,https://maps.google.com/?cid=0x0:0xbf41e8668603161d,
supermarket,Pasar,Mitra Tanjung,"J5V4+VVX, Jl. Raya Tj. No.83352, Tanjung, Kec. Tj., Kabupaten Lombok Utara, Nusa Tenggara Bar. 83352","Jl. Raya Tj. No.83352, Tanjung, Kec. Tj., Kabupaten Lombok Utara",NUSA TENGGARA BARAT,83352.0,Indonesia, 087866918671,,,-8.3552153,116.1572062,https://maps.google.com/?cid=0x0:0xe4baab49023615d6,
supermarket,Toko bahan makanan,TOKO TYAS,"lapangan super semar, Jl. Raya Tj. No.depan, Tanjung, Kec. Tj., Kabupaten Lombok Utara, Nusa Tenggara Bar. 83352","Jl. Raya Tj. No.depan, Tanjung, Kec. Tj., Kabupaten Lombok Utara",NUSA TENGGARA BARAT,83352.0,Indonesia,,,,-8.3551364,116.1576371,https://maps.google.com/?cid=0x0:0x7c36ada83cbcfa47,
supermarket,Pasar bahan bangunan,Toko Niaga Jaya Tanjung Ichang,"Tanjung, Kec. Tj., Kabupaten Lombok Utara, Nusa Tenggara Bar. 83352","Kec. Tj., Kabupaten Lombok Utara",NUSA TENGGARA BARAT,83352.0,Indonesia,,,,-8.3565048,116.1558221,https://maps.google.com/?cid=0x0:0xda953459fd5a7b60,
supermarket,Toko bahan makanan,Indomart,"J4RW+29M, Jl. Raya Tj., Sokong, Kec. Tj., Kabupaten Lombok Utara, Nusa Tenggara Bar. 83352","Jl. Raya Tj., Sokong, Kec. Tj., Kabupaten Lombok Utara",NUSA TENGGARA BARAT,83352.0,Indonesia,,,,-8.3599164,116.1459267,https://maps.google.com/?cid=0x0:0x70803c7094fc73d4,
supermarket,Minimarket,Kedai semangka lombok,"J5V2+4RH, Jl. Raya Mataram - Tj., Sokong, Kec. Tj., Kabupaten Lombok Utara, Nusa Tenggara Bar. 83352","Jl. Raya Mataram - Tj., Sokong, Kec. Tj., Kabupaten Lombok Utara",NUSA TENGGARA BARAT,83352.0,Indonesia,,,,-8.3571917,116.1521038,https://maps.google.com/?cid=0x0:0x50d2d59da307e4d7,
supermarket,Toko,TOKO SINAR GEMBIRA,"Jl. Lading-Lading, Tanjung, Kec. Tj., Kabupaten Lombok Utara, Nusa Tenggara Bar. 83352","Tanjung, Kec. Tj., Kabupaten Lombok Utara",NUSA TENGGARA BARAT,83352.0,Indonesia, 085337403353,,,-8.3562521,116.1556397,https://maps.google.com/?cid=0x0:0x3e2680c04679be18,
supermarket,Pasar bahan bangunan,TP UD. Niaga Makmur Tanjung Lombok Utara,"J5V4+M67, Jalan Raya Mataram, Tanjung, North Lombok Regency, West Nusa Tenggara 83352","Jalan Raya Mataram, Tanjung, North Lombok Regency",NUSA TENGGARA BARAT,83352.0,Indonesia,,,,-8.3558418,116.1555421,https://maps.google.com/?cid=0x0:0x708cc269ccbf9491,
supermarket,Toko,Kios Wendi Cagur,"J5X2+GXX, Jl. Sorong Jukung, Tanjung, Kec. Tj., Kabupaten Lombok Utara, Nusa Tenggara Bar. 83352","Jl. Sorong Jukung, Tanjung, Kec. Tj., Kabupaten Lombok Utara",NUSA TENGGARA BARAT,83352.0,Indonesia, 082145460145,,,-8.3511255,116.1524908,https://maps.google.com/?cid=0x0:0x1eb7f3e61e575619,
supermarket,Toko Perlengkapan Rumah,Toko Grand Hero,"J5V5+X4Q, Jl. Raya Tj., Tanjung, Kec. Tj., Kabupaten Lombok Utara, Nusa Tenggara Bar. 83352","Jl. Raya Tj., Tanjung, Kec. Tj., Kabupaten Lombok Utara",NUSA TENGGARA BARAT,83352.0,Indonesia,,,,-8.3550318,116.1578684,https://maps.google.com/?cid=0x0:0xa1dea59fc887332,
supermarket,Toko bahan makanan,Toko MUDA BARU,"Jl. Raya Tj. No.83352, Tanjung, Kec. Tj., Kabupaten Lombok Utara, Nusa Tenggara Bar. 83352","Tanjung, Kec. Tj., Kabupaten Lombok Utara",NUSA TENGGARA BARAT,83352.0,Indonesia, 082144487848,,,-8.3551509,116.1568816,https://maps.google.com/?cid=0x0:0x92c94847aaef0fcf,
supermarket,Toko Elektronik,TTM ceLL,"gubuk baru, Jl. Raya Tj. No.Rt 01, Sokong, Kec. Tj., Kabupaten Lombok Utara, Nusa Tenggara Bar. 83352","Jl. Raya Tj. No.Rt 01, Sokong, Kec. Tj., Kabupaten Lombok Utara",NUSA TENGGARA BARAT,83352.0,Indonesia, 081237371987,,,-8.3596295,116.1471082,https://maps.google.com/?cid=0x0:0xfec9b73f9edeeda1,
supermarket,Toko Elektronik,Nesti 2 Tanjung,"Tanjung, Kec. Tj., Kabupaten Lombok Utara, Nusa Tenggara Bar. 83352","Kec. Tj., Kabupaten Lombok Utara",NUSA TENGGARA BARAT,83352.0,Indonesia, 082257095801,,,-8.3568985,116.1526909,https://maps.google.com/?cid=0x0:0x9d7a236c2c697e77,
supermarket,Pusat Perbelanjaan,Yunara store tanjung,"J5X8+233, Jl. Raya Tj., Jenggala, Kec. Tj., Kabupaten Lombok Utara, Nusa Tenggara Bar. 83352","Jl. Raya Tj., Jenggala, Kec. Tj., Kabupaten Lombok Utara",NUSA TENGGARA BARAT,83352.0,Indonesia, 087827286306,,,-8.3524966,116.1651776,https://maps.google.com/?cid=0x0:0xf748871b26d8f43f,
supermarket,Toko sembako pemerintah,Kios Ibu sari(ika),"J5X5+JP9, Jl. Bayangkara, Tanjung, Kec. Tj., Kabupaten Lombok Utara, Nusa Tenggara Bar. 83352","Jl. Bayangkara, Tanjung, Kec. Tj., Kabupaten Lombok Utara",NUSA TENGGARA BARAT,83352.0,Indonesia,,,,-8.3509528,116.1593535,https://maps.google.com/?cid=0x0:0x2c6da846bfcc8c62,
supermarket,Minimarket,Toko lancar jaya a,"J5R4+R3X, Jl. Kr. Bayan, Tanjung, Kec. Tj., Kabupaten Lombok Utara, Nusa Tenggara Bar. 83352","Jl. Kr. Bayan, Tanjung, Kec. Tj., Kabupaten Lombok Utara",NUSA TENGGARA BARAT,83352.0,Indonesia,,,,-8.3578638,116.1552692,https://maps.google.com/?cid=0x0:0x6a019aac7bf6c5e,
supermarket,Kedai Kopi,Charita Coffee,"Komplek Pertokoan Tanjung, Jalan Raya Tanjung- Bayan Lombok Utara. Karang, Bedil, Tanjung, Kec. Tj., Kabupaten Lombok Utara, Nusa Tenggara Bar.","Kabupaten Lombok Utara, Nusa Tenggara Bar.",NUSA TENGGARA BARAT,,Indonesia, 085183040340,,,-8.3564014,116.1548308,https://maps.google.com/?cid=0x0:0xd64a82d69ced363,
supermarket,Toko,die nada,"M535+F89, Jl. Bayangkara, Tanjung, Kec. Tj., Kabupaten Lombok Utara, Nusa Tenggara Bar. 83352","Jl. Bayangkara, Tanjung, Kec. Tj., Kabupaten Lombok Utara",NUSA TENGGARA BARAT,83352.0,Indonesia, 087863395014,,,-8.3463478,116.1583524,https://maps.google.com/?cid=0x0:0xe6776d348dfc46ec,
supermarket,Toko bahan makanan,Kios Felma,"J4HJ+5MF, teluk dalam, Medana, Kec. Tj., Kabupaten Lombok Utara, Nusa Tenggara Bar. 83352","teluk dalam, Medana, Kec. Tj., Kabupaten Lombok Utara",NUSA TENGGARA BARAT,83352.0,Indonesia, 081933144653,,,-8.3720657,116.1316572,https://maps.google.com/?cid=0x0:0x459b2d95bd63f9c8,
supermarket,Toko Hewan Peliharaan,POPO Petshop  Petcare,"J5V4+QWV, Jl. Raya Tj., Tanjung, Kec. Tj., Kabupaten Lombok Utara, Nusa Tenggara Bar. 83352","Jl. Raya Tj., Tanjung, Kec. Tj., Kabupaten Lombok Utara",NUSA TENGGARA BARAT,83352.0,Indonesia, 081353975413,,,-8.3555229,116.1572819,https://maps.google.com/?cid=0x0:0xb44b60830ac665a6,
supermarket,Minimarket,BERKAH SENTOSA,"Dusun Teluk Dalem, Medana, Kec. Tj., Kabupaten Lombok Utara, Nusa Tenggara Bar. 83352","Medana, Kec. Tj., Kabupaten Lombok Utara",NUSA TENGGARA BARAT,83352.0,Indonesia, 087887865355,,,-8.3747163,116.1307816,https://maps.google.com/?cid=0x0:0xdee53d14d7d70188,
supermarket,Toko Swalayan,Kios SRIE TANJUNG,"Gg. Anggrek II No.1, Pagesangan Tim., Kec. Mataram, Kota Mataram, Nusa Tenggara Bar. 83127","Pagesangan Tim., Kec. Mataram, Kota Mataram",NUSA TENGGARA BARAT,83127.0,Indonesia, 087864282271,,,-8.599523,116.1176067,https://maps.google.com/?cid=0x0:0xbd5d75eda872d6c8,
supermarket,Toko Pakaian,BERKAH ONLINE,"J5R4+X47, Jl. Kr. Bayan, Tanjung, Kec. Tj., Kabupaten Lombok Utara, Nusa Tenggara Bar. 83352","Jl. Kr. Bayan, Tanjung, Kec. Tj., Kabupaten Lombok Utara",NUSA TENGGARA BARAT,83352.0,Indonesia, 087865718806,,,-8.3575878,116.155306,https://maps.google.com/?cid=0x0:0x36c1204d6717998,
supermarket,Toko bahan makanan,Ruby Supermarket  Dept. Store,"Jl. Pejanggik No.111F, Cilinaya, Kec. Cakranegara, Kota Mataram, Nusa Tenggara Bar. 83231","Cilinaya, Kec. Cakranegara, Kota Mataram",NUSA TENGGARA BARAT,83231.0,Indonesia, 0370624421,,,-8.587131,116.1217675,https://maps.google.com/?cid=0x0:0xbcc8757d99c3f51f,
supermarket,Toko,Kios Alif,"J5X4+XR3, Jl. Tj. Regency, Tanjung, Kec. Tj., Kabupaten Lombok Utara, Nusa Tenggara Bar. 83352","Jl. Tj. Regency, Tanjung, Kec. Tj., Kabupaten Lombok Utara",NUSA TENGGARA BARAT,83352.0,Indonesia,,,,-8.3501189,116.1570522,https://maps.google.com/?cid=0x0:0x54ff222960bc41d,
supermarket,Pusat Perbelanjaan,Hypermart LEM,"Jl. Sriwijaya No.333, Punia, Kec. Mataram, Kota Mataram, Nusa Tenggara Bar. 83127","Punia, Kec. Mataram, Kota Mataram",NUSA TENGGARA BARAT,83127.0,Indonesia, 085337415304,,,-8.5934777,116.1047367,https://maps.google.com/?cid=0x0:0xca62fecebb3ddd75,
supermarket,supermarket,Kalimantan Selatan 71513,"Kec. Tj., Kabupaten Tabalong, Kalimantan Selatan","Kabupaten Tabalong, Kalimantan Selatan",NUSA TENGGARA BARAT,,Indonesia,,,,-2.1652707,115.3726469,https://maps.google.com/?cid=0x0:0x7c86073ef7456b91,
supermarket,Minimarket,Minimarket Barunak/Borneo,"R9QP+36J, Jl. Basuki Rahmat, Tanjung, Kec. Tj., Kabupaten Tabalong, Kalimantan Selatan 71571","Jl. Basuki Rahmat, Tanjung, Kec. Tj., Kabupaten Tabalong",NUSA TENGGARA BARAT,71571.0,Indonesia, 082153780668,,,-2.1622964,115.3855186,https://maps.google.com/?cid=0x0:0x35aff89b77447925,
supermarket,Toko bahan makanan,TOKO TYAS,"lapangan super semar, Jl. Raya Tj. No.depan, Tanjung, Kec. Tj., Kabupaten Lombok Utara, Nusa Tenggara Bar. 83352","Jl. Raya Tj. No.depan, Tanjung, Kec. Tj., Kabupaten Lombok Utara",NUSA TENGGARA BARAT,83352.0,Indonesia,,,,-8.3551364,116.1576371,https://maps.google.com/?cid=0x0:0x7c36ada83cbcfa47,
supermarket,supermarket,Kec. Tj.,"Kabupaten Lombok Utara, Nusa Tenggara Bar.","Kabupaten Lombok Utara, Nusa Tenggara Bar.",NUSA TENGGARA BARAT,,Indonesia,,,,-8.3559275,116.1556813,https://maps.google.com/?cid=0x0:0x947760e643a23d21,
supermarket,supermarket,Kios Agustina,"J5X5+2R4, Tanjung, Kec. Tj., Kabupaten Lombok Utara, Nusa Tenggara Bar. 83352","Tanjung, Kec. Tj., Kabupaten Lombok Utara",NUSA TENGGARA BARAT,83352.0,Indonesia,,,,-8.3527673,116.1597646,https://maps.google.com/?cid=0x0:0xbe09a5da58be2537,
supermarket,Toko,Kios agil,"J5JG+49J, Jl. Pekatan, Jenggala, Kec. Tj., Kabupaten Lombok Utara, Nusa Tenggara Bar. 83352","Jl. Pekatan, Jenggala, Kec. Tj., Kabupaten Lombok Utara",NUSA TENGGARA BARAT,83352.0,Indonesia,,,,-8.3696541,116.1758974,https://maps.google.com/?cid=0x0:0xa516249c402e9419,
supermarket,Toko bahan makanan,Bersinar Mart,"Jl. Pangeran Antasari No.2, Tanjung, Kec. Tj., Kabupaten Tabalong, Kalimantan Selatan 71571","Tanjung, Kec. Tj., Kabupaten Tabalong",NUSA TENGGARA BARAT,71571.0,Indonesia,,,,-2.1661458,115.382453,https://maps.google.com/?cid=0x0:0x3cb84198a5bb43e7,
supermarket,Toko bahan makanan,URATA MART,"R9MJ+56R, Tanjung, Kec. Tj., Kabupaten Tabalong, Kalimantan Selatan 71513","Tanjung, Kec. Tj., Kabupaten Tabalong",NUSA TENGGARA BARAT,71513.0,Indonesia, 082213686833,,,-2.1670527,115.3804964,https://maps.google.com/?cid=0x0:0xeb034c974e5762c8,
supermarket,Minimarket,Minimarket Barunak/Borneo,"R9QP+36J, Jl. Basuki Rahmat, Tanjung, Kec. Tj., Kabupaten Tabalong, Kalimantan Selatan 71571","Jl. Basuki Rahmat, Tanjung, Kec. Tj., Kabupaten Tabalong",NUSA TENGGARA BARAT,71571.0,Indonesia, 082153780668,,,-2.1622964,115.3855186,https://maps.google.com/?cid=0x0:0x35aff89b77447925,
supermarket,Toko Swalayan,TOKO LUTFI,"VVPH+5M9, RT.1/RW.9, Tj. Priok, Kec. Tj. Priok, Jkt Utara, Daerah Khusus Ibukota Jakarta 14310","RT.1/RW.9, Tj. Priok, Kec. Tj. Priok, Jkt Utara",NUSA TENGGARA BARAT,14310.0,Indonesia, 083875261931,,,-6.1146,106.879226,https://maps.google.com/?cid=0x0:0xa638a33aa39df4ab,
supermarket,Minimarket,Citramart Tanjung,"RCG8+HFV, Mabuun, Kec. Murung Pudak, Kabupaten Tabalong, Kalimantan Selatan 71571","Mabuun, Kec. Murung Pudak, Kabupaten Tabalong",NUSA TENGGARA BARAT,71571.0,Indonesia, 085348171550,,,-2.1735118,115.4161808,https://maps.google.com/?cid=0x0:0x35b55f96accd7d78,
supermarket,Minimarket,Toko Berkah II ( Menjual Kebutuhan Sehari-hari ),"Jln jend, Jl. Basuki Rahmat No.48, Agung, Kec. Tj., Kabupaten Tabalong, Kalimantan Selatan 71514","Jl. Basuki Rahmat No.48, Agung, Kec. Tj., Kabupaten Tabalong",NUSA TENGGARA BARAT,71514.0,Indonesia,,,,-2.1542101,115.3881463,https://maps.google.com/?cid=0x0:0x827952ada0a54ed1,
supermarket,Minimarket,Maritza Mart,"RCFC+4P7, Mabuun, Kec. Murung Pudak, Kabupaten Tabalong, Kalimantan Selatan 71571","Mabuun, Kec. Murung Pudak, Kabupaten Tabalong",NUSA TENGGARA BARAT,71571.0,Indonesia, 05262030917,,,-2.1772065,115.4217861,https://maps.google.com/?cid=0x0:0xacc2d0525f689a36,
supermarket,Toko Swalayan,Rahman dan ikan,"R9Q9+F49, Jl. Ahmad Yani, Jangkung, Kec. Tj., Kabupaten Tabalong, Kalimantan Selatan 71513","Jl. Ahmad Yani, Jangkung, Kec. Tj., Kabupaten Tabalong",NUSA TENGGARA BARAT,71513.0,Indonesia,,,,-2.1613392,115.3678613,https://maps.google.com/?cid=0x0:0xbfa8a9bb6acd8b1a,
supermarket,Toko bahan makanan,Toko Acil,"Jl. Jaksa Agung Suprapto No.81, Tanjung, Kec. Tj., Kabupaten Tabalong, Kalimantan Selatan 71571","Tanjung, Kec. Tj., Kabupaten Tabalong",NUSA TENGGARA BARAT,71571.0,Indonesia, 082154562734,,,-2.1600424,115.3843215,https://maps.google.com/?cid=0x0:0x6e61291586cc795a,
supermarket,Minimarket,Maritza Mart,"RCW2+PCP, Belimbing Raya, Kec. Murung Pudak, Kabupaten Tabalong, Kalimantan Selatan 71571","Belimbing Raya, Kec. Murung Pudak, Kabupaten Tabalong",NUSA TENGGARA BARAT,71571.0,Indonesia,,,,-2.1531691,115.4010747,https://maps.google.com/?cid=0x0:0x19f0591624df7754,
supermarket,Minimarket,Toko puput,"Jl. Basuki Rahmat No.1, Agung, Kec. Tj., Kabupaten Tabalong, Kalimantan Selatan 71571","Agung, Kec. Tj., Kabupaten Tabalong",NUSA TENGGARA BARAT,71571.0,Indonesia,,,,-2.148347,115.3886553,https://maps.google.com/?cid=0x0:0x39f802b255353acd,
supermarket,Minimarket,Amarin Mart,"V9CV+57G, Hikun, Kec. Tj., Kabupaten Tabalong, Kalimantan Selatan","Kabupaten Tabalong, Kalimantan Selatan",NUSA TENGGARA BARAT,,Indonesia,,,,-2.1295506,115.3931946,https://maps.google.com/?cid=0x0:0x937b71130e87c9c1,
supermarket,Toko bahan makanan,MM. Chendrawasih,"R9PP+94F, Tanjung, Kec. Tj., Kabupaten Tabalong, Kalimantan Selatan 71571","Tanjung, Kec. Tj., Kabupaten Tabalong",NUSA TENGGARA BARAT,71571.0,Indonesia,,,,-2.1640567,115.3852836,https://maps.google.com/?cid=0x0:0xd1438659e6514a8c,
supermarket,Indonesia,Toko SINAR PAGI,"V9FW+P5W, Jl. Basuki Rahmat, Hikun, Kec. Tj., Kabupaten Tabalong, Kalimantan Selatan 71571","Jl. Basuki Rahmat, Hikun, Kec. Tj., Kabupaten Tabalong",NUSA TENGGARA BARAT,71571.0,Indonesia, 085251304551,,,-2.1256293,115.3954648,https://maps.google.com/?cid=0x0:0xcdf6578144061e5f,
supermarket,Minimarket,Aksamart,"R9PM+C99, Jl. Kenanga, Tanjung, Kec. Tj., Kabupaten Tabalong, Kalimantan Selatan 71571","Jl. Kenanga, Tanjung, Kec. Tj., Kabupaten Tabalong",NUSA TENGGARA BARAT,71571.0,Indonesia,,,,-2.1639601,115.3834861,https://maps.google.com/?cid=0x0:0x3d549087139b0f06,
supermarket,Toko Perlengkapan Rumah,Al Somad,"V983+7W5, Jangkung, Kec. Tj., Kabupaten Tabalong, Kalimantan Selatan 71514","Jangkung, Kec. Tj., Kabupaten Tabalong",NUSA TENGGARA BARAT,71514.0,Indonesia, 081235509920,,,-2.1343537,115.3548713,https://maps.google.com/?cid=0x0:0x3c6f2d20c822607e,
supermarket,Toko bahan makanan,Micro Mart Tabalong,"Jl. Tanjung Selatan, Mabuun, Kec. Murung Pudak, Kabupaten Tabalong, Kalimantan Selatan 71571","Mabuun, Kec. Murung Pudak, Kabupaten Tabalong",NUSA TENGGARA BARAT,71571.0,Indonesia, 081350635993,,,-2.1847197,115.4015711,https://maps.google.com/?cid=0x0:0xec01df5395dbec0c,
supermarket,Toko bahan makanan,Toko Noor Tanjung,"Tanjung, Kec. Tj., Kabupaten Tabalong, Kalimantan Selatan 71513","Kec. Tj., Kabupaten Tabalong",NUSA TENGGARA BARAT,71513.0,Indonesia, 085210013995,,,-2.1645584,115.3792951,https://maps.google.com/?cid=0x0:0x65c9def628fbdac5,
supermarket,Minimarket,Toko selma,"V9CV+HGR, Jl. Tj. - Kitang, Hikun, Kec. Tj., Kabupaten Tabalong, Kalimantan Selatan 71515","Jl. Tj. - Kitang, Hikun, Kec. Tj., Kabupaten Tabalong",NUSA TENGGARA BARAT,71515.0,Indonesia,,,,-2.1285039,115.3937646,https://maps.google.com/?cid=0x0:0x749ea10ccb090cb5,
supermarket,Toko Buah Kering,Raihan Buah,"Jl. Pahlawan No.Rt 02, Tanjung, Kec. Tj., Kabupaten Tabalong, Kalimantan Selatan 71513","Tanjung, Kec. Tj., Kabupaten Tabalong",NUSA TENGGARA BARAT,71513.0,Indonesia,,,,-2.1676582,115.3811169,https://maps.google.com/?cid=0x0:0x1eb15906caf48f97,
supermarket,supermarket,Kec. Tj.,"Kabupaten Lombok Utara, Nusa Tenggara Bar.","Kabupaten Lombok Utara, Nusa Tenggara Bar.",NUSA TENGGARA BARAT,,Indonesia,,,,-8.3559275,116.1556813,https://maps.google.com/?cid=0x0:0x947760e643a23d21,
supermarket,Minimarket,Tanjung Corner,"J5W5+27Q, Tanjung, Kec. Tj., Kabupaten Lombok Utara, Nusa Tenggara Bar. 83352","Tanjung, Kec. Tj., Kabupaten Lombok Utara",NUSA TENGGARA BARAT,83352.0,Indonesia,,,,-8.3549062,116.158236,https://maps.google.com/?cid=0x0:0xbf41e8668603161d,
supermarket,Pasar,Mitra Tanjung,"J5V4+VVX, Jl. Raya Tj. No.83352, Tanjung, Kec. Tj., Kabupaten Lombok Utara, Nusa Tenggara Bar. 83352","Jl. Raya Tj. No.83352, Tanjung, Kec. Tj., Kabupaten Lombok Utara",NUSA TENGGARA BARAT,83352.0,Indonesia, 087866918671,,,-8.3552153,116.1572062,https://maps.google.com/?cid=0x0:0xe4baab49023615d6,
supermarket,Toko bahan makanan,TOKO TYAS,"lapangan super semar, Jl. Raya Tj. No.depan, Tanjung, Kec. Tj., Kabupaten Lombok Utara, Nusa Tenggara Bar. 83352","Jl. Raya Tj. No.depan, Tanjung, Kec. Tj., Kabupaten Lombok Utara",NUSA TENGGARA BARAT,83352.0,Indonesia,,,,-8.3551364,116.1576371,https://maps.google.com/?cid=0x0:0x7c36ada83cbcfa47,
supermarket,Pasar bahan bangunan,Toko Niaga Jaya Tanjung Ichang,"Tanjung, Kec. Tj., Kabupaten Lombok Utara, Nusa Tenggara Bar. 83352","Kec. Tj., Kabupaten Lombok Utara",NUSA TENGGARA BARAT,83352.0,Indonesia,,,,-8.3565048,116.1558221,https://maps.google.com/?cid=0x0:0xda953459fd5a7b60,
supermarket,Toko,TOKO SINAR GEMBIRA,"Jl. Lading-Lading, Tanjung, Kec. Tj., Kabupaten Lombok Utara, Nusa Tenggara Bar. 83352","Tanjung, Kec. Tj., Kabupaten Lombok Utara",NUSA TENGGARA BARAT,83352.0,Indonesia, 085337403353,,,-8.3562521,116.1556397,https://maps.google.com/?cid=0x0:0x3e2680c04679be18,
supermarket,Toko bahan makanan,Indomart,"J4RW+29M, Jl. Raya Tj., Sokong, Kec. Tj., Kabupaten Lombok Utara, Nusa Tenggara Bar. 83352","Jl. Raya Tj., Sokong, Kec. Tj., Kabupaten Lombok Utara",NUSA TENGGARA BARAT,83352.0,Indonesia,,,,-8.3599164,116.1459267,https://maps.google.com/?cid=0x0:0x70803c7094fc73d4,
supermarket,Toko,Kios Wendi Cagur,"J5X2+GXX, Jl. Sorong Jukung, Tanjung, Kec. Tj., Kabupaten Lombok Utara, Nusa Tenggara Bar. 83352","Jl. Sorong Jukung, Tanjung, Kec. Tj., Kabupaten Lombok Utara",NUSA TENGGARA BARAT,83352.0,Indonesia, 082145460145,,,-8.3511255,116.1524908,https://maps.google.com/?cid=0x0:0x1eb7f3e61e575619,
supermarket,Minimarket,Kedai semangka lombok,"J5V2+4RH, Jl. Raya Mataram - Tj., Sokong, Kec. Tj., Kabupaten Lombok Utara, Nusa Tenggara Bar. 83352","Jl. Raya Mataram - Tj., Sokong, Kec. Tj., Kabupaten Lombok Utara",NUSA TENGGARA BARAT,83352.0,Indonesia,,,,-8.3571917,116.1521038,https://maps.google.com/?cid=0x0:0x50d2d59da307e4d7,
supermarket,Toko Perlengkapan Rumah,Toko Grand Hero,"J5V5+X4Q, Jl. Raya Tj., Tanjung, Kec. Tj., Kabupaten Lombok Utara, Nusa Tenggara Bar. 83352","Jl. Raya Tj., Tanjung, Kec. Tj., Kabupaten Lombok Utara",NUSA TENGGARA BARAT,83352.0,Indonesia,,,,-8.3550318,116.1578684,https://maps.google.com/?cid=0x0:0xa1dea59fc887332,
supermarket,Pasar bahan bangunan,TP UD. Niaga Makmur Tanjung Lombok Utara,"J5V4+M67, Jalan Raya Mataram, Tanjung, North Lombok Regency, West Nusa Tenggara 83352","Jalan Raya Mataram, Tanjung, North Lombok Regency",NUSA TENGGARA BARAT,83352.0,Indonesia,,,,-8.3558418,116.1555421,https://maps.google.com/?cid=0x0:0x708cc269ccbf9491,
supermarket,Toko Elektronik,TTM ceLL,"gubuk baru, Jl. Raya Tj. No.Rt 01, Sokong, Kec. Tj., Kabupaten Lombok Utara, Nusa Tenggara Bar. 83352","Jl. Raya Tj. No.Rt 01, Sokong, Kec. Tj., Kabupaten Lombok Utara",NUSA TENGGARA BARAT,83352.0,Indonesia, 081237371987,,,-8.3596295,116.1471082,https://maps.google.com/?cid=0x0:0xfec9b73f9edeeda1,
supermarket,Toko Perlengkapan Rumah,Toko Bintang,"Jl. Raya Tj. No.2012, Sokong, Kec. Tj., Kabupaten Lombok Utara, Nusa Tenggara Bar. 83352","Sokong, Kec. Tj., Kabupaten Lombok Utara",NUSA TENGGARA BARAT,83352.0,Indonesia, 0818036246,,,-8.3577505,116.1513848,https://maps.google.com/?cid=0x0:0xab8e32354e9acef5,
supermarket,Pusat Perbelanjaan,Yunara store tanjung,"J5X8+233, Jl. Raya Tj., Jenggala, Kec. Tj., Kabupaten Lombok Utara, Nusa Tenggara Bar. 83352","Jl. Raya Tj., Jenggala, Kec. Tj., Kabupaten Lombok Utara",NUSA TENGGARA BARAT,83352.0,Indonesia, 087827286306,,,-8.3524966,116.1651776,https://maps.google.com/?cid=0x0:0xf748871b26d8f43f,
supermarket,Toko bahan makanan,Toko MUDA BARU,"Jl. Raya Tj. No.83352, Tanjung, Kec. Tj., Kabupaten Lombok Utara, Nusa Tenggara Bar. 83352","Tanjung, Kec. Tj., Kabupaten Lombok Utara",NUSA TENGGARA BARAT,83352.0,Indonesia, 082144487848,,,-8.3551509,116.1568816,https://maps.google.com/?cid=0x0:0x92c94847aaef0fcf,
supermarket,Toko sembako pemerintah,Kios Ibu sari(ika),"J5X5+JP9, Jl. Bayangkara, Tanjung, Kec. Tj., Kabupaten Lombok Utara, Nusa Tenggara Bar. 83352","Jl. Bayangkara, Tanjung, Kec. Tj., Kabupaten Lombok Utara",NUSA TENGGARA BARAT,83352.0,Indonesia,,,,-8.3509528,116.1593535,https://maps.google.com/?cid=0x0:0x2c6da846bfcc8c62,
supermarket,Toko Elektronik,Nesti 2 Tanjung,"Tanjung, Kec. Tj., Kabupaten Lombok Utara, Nusa Tenggara Bar. 83352","Kec. Tj., Kabupaten Lombok Utara",NUSA TENGGARA BARAT,83352.0,Indonesia, 082257095801,,,-8.3568985,116.1526909,https://maps.google.com/?cid=0x0:0x9d7a236c2c697e77,
supermarket,Toko Makanan Sehat,Pawon io,"Sokong, Kec. Tj., Kabupaten Lombok Utara, Nusa Tenggara Bar. 83352","Kec. Tj., Kabupaten Lombok Utara",NUSA TENGGARA BARAT,83352.0,Indonesia, 081803805123,,,-8.3652538,116.1556686,https://maps.google.com/?cid=0x0:0x94bd40a63f46da6,
supermarket,Toko,die nada,"M535+F89, Jl. Bayangkara, Tanjung, Kec. Tj., Kabupaten Lombok Utara, Nusa Tenggara Bar. 83352","Jl. Bayangkara, Tanjung, Kec. Tj., Kabupaten Lombok Utara",NUSA TENGGARA BARAT,83352.0,Indonesia, 087863395014,,,-8.3463478,116.1583524,https://maps.google.com/?cid=0x0:0xe6776d348dfc46ec,
supermarket,Minimarket,Toko lancar jaya a,"J5R4+R3X, Jl. Kr. Bayan, Tanjung, Kec. Tj., Kabupaten Lombok Utara, Nusa Tenggara Bar. 83352","Jl. Kr. Bayan, Tanjung, Kec. Tj., Kabupaten Lombok Utara",NUSA TENGGARA BARAT,83352.0,Indonesia,,,,-8.3578638,116.1552692,https://maps.google.com/?cid=0x0:0x6a019aac7bf6c5e,
supermarket,Toko bahan makanan,Kios Felma,"J4HJ+5MF, teluk dalam, Medana, Kec. Tj., Kabupaten Lombok Utara, Nusa Tenggara Bar. 83352","teluk dalam, Medana, Kec. Tj., Kabupaten Lombok Utara",NUSA TENGGARA BARAT,83352.0,Indonesia, 081933144653,,,-8.3720657,116.1316572,https://maps.google.com/?cid=0x0:0x459b2d95bd63f9c8,
supermarket,Toko Swalayan,Kios SRIE TANJUNG,"Gg. Anggrek II No.1, Pagesangan Tim., Kec. Mataram, Kota Mataram, Nusa Tenggara Bar. 83127","Pagesangan Tim., Kec. Mataram, Kota Mataram",NUSA TENGGARA BARAT,83127.0,Indonesia, 087864282271,,,-8.599523,116.1176067,https://maps.google.com/?cid=0x0:0xbd5d75eda872d6c8,
supermarket,Minimarket,RAMA MART ( ALFAMART TANJUNG ),"J4MM+R47, Jl. Raya Tj., Medana, Kec. Tj., Kabupaten Lombok Utara, Nusa Tenggara Bar. 83352","Jl. Raya Tj., Medana, Kec. Tj., Kabupaten Lombok Utara",NUSA TENGGARA BARAT,83352.0,Indonesia,,,,-8.3651671,116.1326494,https://maps.google.com/?cid=0x0:0xd70d0982af62a75d,
supermarket,Toko Pakaian,BERKAH ONLINE,"J5R4+X47, Jl. Kr. Bayan, Tanjung, Kec. Tj., Kabupaten Lombok Utara, Nusa Tenggara Bar. 83352","Jl. Kr. Bayan, Tanjung, Kec. Tj., Kabupaten Lombok Utara",NUSA TENGGARA BARAT,83352.0,Indonesia, 087865718806,,,-8.3575878,116.155306,https://maps.google.com/?cid=0x0:0x36c1204d6717998,
supermarket,Toko,Kios Alif,"J5X4+XR3, Jl. Tj. Regency, Tanjung, Kec. Tj., Kabupaten Lombok Utara, Nusa Tenggara Bar. 83352","Jl. Tj. Regency, Tanjung, Kec. Tj., Kabupaten Lombok Utara",NUSA TENGGARA BARAT,83352.0,Indonesia,,,,-8.3501189,116.1570522,https://maps.google.com/?cid=0x0:0x54ff222960bc41d,
supermarket,Toko bahan makanan,Toko hemat,"R9QP+WR2, Jl. Basuki Rahmat, Tanjung, Kec. Tj., Kabupaten Tabalong, Kalimantan Selatan 71571","Jl. Basuki Rahmat, Tanjung, Kec. Tj., Kabupaten Tabalong",NUSA TENGGARA BARAT,71571.0,Indonesia,,,,-2.1602268,115.3870083,https://maps.google.com/?cid=0x0:0x532c48a512004e19,
supermarket,Toko bahan makanan,Ruby Supermarket  Dept. Store,"Jl. Pejanggik No.111F, Cilinaya, Kec. Cakranegara, Kota Mataram, Nusa Tenggara Bar. 83231","Cilinaya, Kec. Cakranegara, Kota Mataram",NUSA TENGGARA BARAT,83231.0,Indonesia, 0370624421,,,-8.587131,116.1217675,https://maps.google.com/?cid=0x0:0xbcc8757d99c3f51f,
supermarket,Toko bahan makanan,Toko Rama / Hormansyah,"Jl. Basuki Rahmat No.42, RT.11, Tanjung Tengah, Kec. Tj., Kabupaten Tabalong, Kalimantan Selatan 71513","RT.11, Tanjung Tengah, Kec. Tj., Kabupaten Tabalong",NUSA TENGGARA BARAT,71513.0,Indonesia,,,,-2.1616202,115.3860834,https://maps.google.com/?cid=0x0:0x99dee247463e89ea,
supermarket,supermarket,Nusa Tenggara Bar. 83352,"Kabupaten Lombok Utara, Nusa Tenggara Bar.","Kabupaten Lombok Utara, Nusa Tenggara Bar.",NUSA TENGGARA BARAT,,Indonesia,,,,-8.4131655,116.1477598,https://maps.google.com/?cid=0x0:0x35e4373277595e3,
supermarket,Toko Ponsel,Ceria Cell,"Jl. Raya Mataram - Tj., Sigar Penjalin, Kec. Tj., Kabupaten Lombok Utara, Nusa Tenggara Bar. 83352","Sigar Penjalin, Kec. Tj., Kabupaten Lombok Utara",NUSA TENGGARA BARAT,83352.0,Indonesia,,,,-8.3863157,116.1121593,https://maps.google.com/?cid=0x0:0xefae805319187491,
supermarket,Toko Perlengkapan Rumah,HARMONI mart,"J4PP+6MF, Jl. Raya Mataram - Tj., Medana, Kec. Tj., Kabupaten Lombok Utara, Nusa Tenggara Bar. 83352","Jl. Raya Mataram - Tj., Medana, Kec. Tj., Kabupaten Lombok Utara",NUSA TENGGARA BARAT,83352.0,Indonesia, 082340167449,,,-8.3644329,116.1366732,https://maps.google.com/?cid=0x0:0x3b42db5f6f54a4a,
supermarket,Toko Swalayan,UD. Harapan Keluarga,"H5GG+93J, Unnamed Road, Tegal Maja, Kec. Tj., Kabupaten Lombok Utara, Nusa Tenggara Bar. 83352","Unnamed Road, Tegal Maja, Kec. Tj., Kabupaten Lombok Utara",NUSA TENGGARA BARAT,83352.0,Indonesia,,,,-8.4240423,116.1751298,https://maps.google.com/?cid=0x0:0x5b16a8c710edf123,
supermarket,Toko Bahan Bangunan,Sri Jaya Bangunan  Teknik,"Jl. Raya Mataram - Tj. No.2012, Sokong, Kec. Tj., Kabupaten Lombok Utara, Nusa Tenggara Bar. 83352","Sokong, Kec. Tj., Kabupaten Lombok Utara",NUSA TENGGARA BARAT,83352.0,Indonesia, 087765885696,,,-8.3601533,116.1459515,https://maps.google.com/?cid=0x0:0x48234edb1af407c1,
supermarket,Pasar,Mitra Tanjung,"J5V4+VVX, Jl. Raya Tj. No.83352, Tanjung, Kec. Tj., Kabupaten Lombok Utara, Nusa Tenggara Bar. 83352","Jl. Raya Tj. No.83352, Tanjung, Kec. Tj., Kabupaten Lombok Utara",NUSA TENGGARA BARAT,83352.0,Indonesia, 087866918671,,,-8.3552153,116.1572062,https://maps.google.com/?cid=0x0:0xe4baab49023615d6,
supermarket,Toko Swalayan,Hendra store,"H5GC+762, Sebangket, Leong Tengah, Tegal Maja, Kec. Tj., Kabupaten Lombok Utara, Nusa Tenggara Bar. 83352","Sebangket, Leong Tengah, Tegal Maja, Kec. Tj., Kabupaten Lombok Utara",NUSA TENGGARA BARAT,83352.0,Indonesia,,,,-8.4243531,116.1705246,https://maps.google.com/?cid=0x0:0x84618029d409f68e,
supermarket,Minimarket,BERKAH SENTOSA,"Dusun Teluk Dalem, Medana, Kec. Tj., Kabupaten Lombok Utara, Nusa Tenggara Bar. 83352","Medana, Kec. Tj., Kabupaten Lombok Utara",NUSA TENGGARA BARAT,83352.0,Indonesia, 087887865355,,,-8.3747163,116.1307816,https://maps.google.com/?cid=0x0:0xdee53d14d7d70188,
supermarket,Pasar bahan bangunan,Toko Niaga Jaya Tanjung Ichang,"Tanjung, Kec. Tj., Kabupaten Lombok Utara, Nusa Tenggara Bar. 83352","Kec. Tj., Kabupaten Lombok Utara",NUSA TENGGARA BARAT,83352.0,Indonesia,,,,-8.3565048,116.1558221,https://maps.google.com/?cid=0x0:0xda953459fd5a7b60,
supermarket,Toko,Toko miki jaya,"J4PQ+6JW, Medana, Kec. Tj., Kabupaten Lombok Utara, Nusa Tenggara Bar. 83352","Medana, Kec. Tj., Kabupaten Lombok Utara",NUSA TENGGARA BARAT,83352.0,Indonesia,,,,-8.3643938,116.1390714,https://maps.google.com/?cid=0x0:0x751c8389cfda9a07,
supermarket,,CV BERLIAN RAYA,"J4QW+W69, JL.RAYA TANJUNG-BAYAN, KABUPATEN LOMBOK UTARA, TANJUNG, Sokong, Kec. Tj., Kabupaten Lombok Utara, Nusa Tenggara Bar. 83352","JL.RAYA TANJUNG-BAYAN, KABUPATEN LOMBOK UTARA, TANJUNG, Sokong, Kec. Tj., Kabupaten Lombok Utara",NUSA TENGGARA BARAT,83352.0,Indonesia, 03706139852,,,-8.3602133,116.1456101,https://maps.google.com/?cid=0x0:0x67dffc0b9e36bf52,
supermarket,Pusat Perbelanjaan,Yunara store tanjung,"J5X8+233, Jl. Raya Tj., Jenggala, Kec. Tj., Kabupaten Lombok Utara, Nusa Tenggara Bar. 83352","Jl. Raya Tj., Jenggala, Kec. Tj., Kabupaten Lombok Utara",NUSA TENGGARA BARAT,83352.0,Indonesia, 087827286306,,,-8.3524966,116.1651776,https://maps.google.com/?cid=0x0:0xf748871b26d8f43f,
supermarket,Toko bahan makanan,UD CHAYUN BERKAH,"J559+3F4, Tanak Embet, Medain, Tegal Maja, Kec. Tj., Kabupaten Lombok Utara, Nusa Tenggara Bar. 83352","Tanak Embet, Medain, Tegal Maja, Kec. Tj., Kabupaten Lombok Utara",NUSA TENGGARA BARAT,83352.0,Indonesia,,,,-8.3923521,116.168699,https://maps.google.com/?cid=0x0:0x1338aa6416a09722,
supermarket,Toko bahan makanan,Ida Mart 2,"J33X+HXX, Pemenang Bar., Kec. Pemenang, Kabupaten Lombok Utara, Nusa Tenggara Bar. 83352","Pemenang Bar., Kec. Pemenang, Kabupaten Lombok Utara",NUSA TENGGARA BARAT,83352.0,Indonesia,,,,-8.3960082,116.0999778,https://maps.google.com/?cid=0x0:0x8d5b1fae00279809,
supermarket,Toko bahan makanan,Indomart,"J4RW+29M, Jl. Raya Tj., Sokong, Kec. Tj., Kabupaten Lombok Utara, Nusa Tenggara Bar. 83352","Jl. Raya Tj., Sokong, Kec. Tj., Kabupaten Lombok Utara",NUSA TENGGARA BARAT,83352.0,Indonesia,,,,-8.3599164,116.1459267,https://maps.google.com/?cid=0x0:0x70803c7094fc73d4,
supermarket,Minimarket,Toko lancar jaya a,"J5R4+R3X, Jl. Kr. Bayan, Tanjung, Kec. Tj., Kabupaten Lombok Utara, Nusa Tenggara Bar. 83352","Jl. Kr. Bayan, Tanjung, Kec. Tj., Kabupaten Lombok Utara",NUSA TENGGARA BARAT,83352.0,Indonesia,,,,-8.3578638,116.1552692,https://maps.google.com/?cid=0x0:0x6a019aac7bf6c5e,
supermarket,Toko bahan makanan,Pudag Mart,"H4R2+PPF, Jl. Raya Mataram - Tj., Pemenang Bar., Kec. Pemenang, Kabupaten Lombok Utara, Nusa Tenggara Bar. 83352","Jl. Raya Mataram - Tj., Pemenang Bar., Kec. Pemenang, Kabupaten Lombok Utara",NUSA TENGGARA BARAT,83352.0,Indonesia, 081999961967,,,-8.4081778,116.1017957,https://maps.google.com/?cid=0x0:0x649c0c1af8aeadf5,
supermarket,Toko Perlengkapan Rumah,Toko Bintang,"Jl. Raya Tj. No.2012, Sokong, Kec. Tj., Kabupaten Lombok Utara, Nusa Tenggara Bar. 83352","Sokong, Kec. Tj., Kabupaten Lombok Utara",NUSA TENGGARA BARAT,83352.0,Indonesia, 0818036246,,,-8.3577505,116.1513848,https://maps.google.com/?cid=0x0:0xab8e32354e9acef5,
supermarket,Toko bahan makanan,Toko MUDA BARU,"Jl. Raya Tj. No.83352, Tanjung, Kec. Tj., Kabupaten Lombok Utara, Nusa Tenggara Bar. 83352","Tanjung, Kec. Tj., Kabupaten Lombok Utara",NUSA TENGGARA BARAT,83352.0,Indonesia, 082144487848,,,-8.3551509,116.1568816,https://maps.google.com/?cid=0x0:0x92c94847aaef0fcf,
supermarket,Toko Elektronik,Nesti 2 Tanjung,"Tanjung, Kec. Tj., Kabupaten Lombok Utara, Nusa Tenggara Bar. 83352","Kec. Tj., Kabupaten Lombok Utara",NUSA TENGGARA BARAT,83352.0,Indonesia, 082257095801,,,-8.3568985,116.1526909,https://maps.google.com/?cid=0x0:0x9d7a236c2c697e77,
supermarket,Toko Ponsel,Arema Cellular HP Accesories,"J5X9+3F3, Jl. Raya Tj., Jenggala, Kec. Tj., Kabupaten Lombok Utara, Nusa Tenggara Bar. 83352","Jl. Raya Tj., Jenggala, Kec. Tj., Kabupaten Lombok Utara",NUSA TENGGARA BARAT,83352.0,Indonesia,,,,-8.3523704,116.1686618,https://maps.google.com/?cid=0x0:0x43f53bfb066989cf,
supermarket,Toko,TOKO SINAR GEMBIRA,"Jl. Lading-Lading, Tanjung, Kec. Tj., Kabupaten Lombok Utara, Nusa Tenggara Bar. 83352","Tanjung, Kec. Tj., Kabupaten Lombok Utara",NUSA TENGGARA BARAT,83352.0,Indonesia, 085337403353,,,-8.3562521,116.1556397,https://maps.google.com/?cid=0x0:0x3e2680c04679be18,
supermarket,Toko Swalayan,Jembatan Baru Medana,"Jl. Raya Tj., Medana, Kec. Tj., Kabupaten Lombok Utara, Nusa Tenggara Bar. 83352","Medana, Kec. Tj., Kabupaten Lombok Utara",NUSA TENGGARA BARAT,83352.0,Indonesia, 081139008037,,,-8.3644469,116.1360419,https://maps.google.com/?cid=0x0:0x15b858a8e3e6e4c0,
supermarket,Toko bahan makanan,Kios Felma,"J4HJ+5MF, teluk dalam, Medana, Kec. Tj., Kabupaten Lombok Utara, Nusa Tenggara Bar. 83352","teluk dalam, Medana, Kec. Tj., Kabupaten Lombok Utara",NUSA TENGGARA BARAT,83352.0,Indonesia, 081933144653,,,-8.3720657,116.1316572,https://maps.google.com/?cid=0x0:0x459b2d95bd63f9c8,
supermarket,Toko bahan makanan,SEANJAYA MART,"Dusun Lekok Tenggara Desa Gondang Kecamatan Gangga, Kec. Tj., Kabupaten Lombok Utara, Nusa Tenggara Bar. 83353","Kec. Tj., Kabupaten Lombok Utara",NUSA TENGGARA BARAT,83353.0,Indonesia,,,,-8.3462294,116.1788122,https://maps.google.com/?cid=0x0:0xa323f605c7edf53d,
supermarket,Toko,Kios Wendi Cagur,"J5X2+GXX, Jl. Sorong Jukung, Tanjung, Kec. Tj., Kabupaten Lombok Utara, Nusa Tenggara Bar. 83352","Jl. Sorong Jukung, Tanjung, Kec. Tj., Kabupaten Lombok Utara",NUSA TENGGARA BARAT,83352.0,Indonesia, 082145460145,,,-8.3511255,116.1524908,https://maps.google.com/?cid=0x0:0x1eb7f3e61e575619,
supermarket,Pusat Perbelanjaan,Tunas Kelapa Lombok,"J5C3+WF7, Karang sobor, Sokong, Kec. Tj., Kabupaten Lombok Utara, Nusa Tenggara Bar. 83352","Karang sobor, Sokong, Kec. Tj., Kabupaten Lombok Utara",NUSA TENGGARA BARAT,83352.0,Indonesia,,,,-8.3777078,116.153668,https://maps.google.com/?cid=0x0:0xc321dfd3da92f158,
supermarket,Toko Hewan Peliharaan,POPO Petshop  Petcare,"J5V4+QWV, Jl. Raya Tj., Tanjung, Kec. Tj., Kabupaten Lombok Utara, Nusa Tenggara Bar. 83352","Jl. Raya Tj., Tanjung, Kec. Tj., Kabupaten Lombok Utara",NUSA TENGGARA BARAT,83352.0,Indonesia, 081353975413,,,-8.3555229,116.1572819,https://maps.google.com/?cid=0x0:0xb44b60830ac665a6,
supermarket,Toko Rak,Junia Jaya Rak supermarket NTB,"Jl. Raya Tanjung, Taman Sari, Kec. Gunungsari, Kabupaten Lombok Barat, Nusa Tenggara Bar. 83351","Taman Sari, Kec. Gunungsari, Kabupaten Lombok Barat",NUSA TENGGARA BARAT,83351.0,Indonesia, 081339822032,,,-8.5437017,116.1073688,https://maps.google.com/?cid=0x0:0xdc00276054892d09,
