Category,Real Category,Business Name,Address,City,State,Postal Code,Country,Phone,Email,Website,Latitude,Longitude,Map Link,Details Link
perumahan,perumahan,Bayan,"Obel Obel, Sambelia, Kabupaten Lombok Timur, Nusa Tenggara Bar.","Kabupaten Lombok Timur, Nusa Tenggara Bar.",NUSA TENGGARA BARAT,,Indonesia,,,,-8.263952,116.497299,https://maps.google.com/?cid=0x0:0xbc5dd41f89000b0,
perumahan,perumahan,Jawa Tengah 54222,"Kec. Bayan, Kabupaten Purworejo, Jawa Tengah","Kabupaten Purworejo, Jawa Tengah",NUSA TENGGARA BARAT,,Indonesia,,,,-7.7184513,109.9273566,https://maps.google.com/?cid=0x0:0x34bfa81995b63cec,
perumahan,Komplek perumahan,Rumah Kadus Dua Bandungrejo,"Jl. Jagaprana, Dusun Satu, Bandungrejo, Kec. Bayan, Kabupaten Purworejo, Jawa Tengah 54222","Dusun Satu, Bandungrejo, Kec. Bayan, Kabupaten Purworejo",NUSA TENGGARA BARAT,54222.0,Indonesia,,,,-7.7219409,109.9238111,https://maps.google.com/?cid=0x0:0xc316aa991796d3bf,
perumahan,perumahan,Kec. Tebet,"Kota Jakarta Selatan, Daerah Khusus Ibukota Jakarta","Kota Jakarta Selatan, Daerah Khusus Ibukota Jakarta",NUSA TENGGARA BARAT,,Indonesia,,,,-6.2251223,106.8549881,https://maps.google.com/?cid=0x0:0xd575e31c807295f9,
perumahan,Pembangunan Perumahan,Perumahan Jagaprana 1,"7WHF+WH8, Dusun Dua, Bandungrejo, Kec. Bayan, Kabupaten Purworejo, Jawa Tengah 54222","Dusun Dua, Bandungrejo, Kec. Bayan, Kabupaten Purworejo",NUSA TENGGARA BARAT,54222.0,Indonesia,,,,-7.7202173,109.9239582,https://maps.google.com/?cid=0x0:0x73661cf172b7d14c,
perumahan,Kantor Perusahaan,Rumah Qari Green Garden,"Perum Green Garden No.E1, RT.03/RW.04, Area Sawah/ Kebun, Bandungrejo, Kec. Bayan, Kabupaten Purworejo, Jawa Tengah 54222","RT.03/RW.04, Area Sawah/ Kebun, Bandungrejo, Kec. Bayan, Kabupaten Purworejo",NUSA TENGGARA BARAT,54222.0,Indonesia,,,,-7.7238101,109.9271353,https://maps.google.com/?cid=0x0:0xeb7543f453438d46,
perumahan,Komplek perumahan,Home Edu - Bandungrejo,"Jalan Sekip Barat No.7, Dusun Empat, Bandungrejo, Kec. Bayan, Kabupaten Purworejo, Jawa Tengah 54222","Dusun Empat, Bandungrejo, Kec. Bayan, Kabupaten Purworejo",NUSA TENGGARA BARAT,54222.0,Indonesia,,,,-7.7178322,109.9271879,https://maps.google.com/?cid=0x0:0xbc1151ff2e92e121,
perumahan,Komplek perumahan,shinobi,"7WGG+QXX, Unnamed Road, Area Sawah/ Kebun, Bandungrejo, Kec. Bayan, Kabupaten Purworejo, Jawa Tengah 54222","Unnamed Road, Area Sawah/ Kebun, Bandungrejo, Kec. Bayan, Kabupaten Purworejo",NUSA TENGGARA BARAT,54222.0,Indonesia,,,,-7.7230113,109.9274804,https://maps.google.com/?cid=0x0:0xb3db5da56e6976be,
perumahan,Komplek perumahan,Rumah Pak Eko widi Yulianto S,"7WWM+8C7, Dusun II, Pekutan, Kec. Bayan, Kabupaten Purworejo, Jawa Tengah 54224","Dusun II, Pekutan, Kec. Bayan, Kabupaten Purworejo",NUSA TENGGARA BARAT,54224.0,Indonesia,,,,-7.7041723,109.9344356,https://maps.google.com/?cid=0x0:0x39a291bbaf06eda1,
perumahan,Komplek perumahan,Ester Wulan Ginting,"7WHH+9C8, Dusun Tiga, Bandungrejo, Kec. Bayan, Kabupaten Purworejo, Jawa Tengah 54222","Dusun Tiga, Bandungrejo, Kec. Bayan, Kabupaten Purworejo",NUSA TENGGARA BARAT,54222.0,Indonesia,,,,-7.7215633,109.9285931,https://maps.google.com/?cid=0x0:0xfc00af8ee1c11c31,
perumahan,Pusat Perbelanjaan,Perumahan Villa Permata BE,"7WGM+W2F, Dusun II, Besole, Kec. Bayan, Kabupaten Purworejo, Jawa Tengah 54223","Dusun II, Besole, Kec. Bayan, Kabupaten Purworejo",NUSA TENGGARA BARAT,54223.0,Indonesia,,,,-7.7226915,109.9325597,https://maps.google.com/?cid=0x0:0xfb02928b274810d3,
perumahan,Komplek perumahan,Cilung mbak Puji,"Bandungrejo RT 02 RW 02 No 35, Kec. Bayan, Kabupaten Purworejo, Jawa Tengah","Kabupaten Purworejo, Jawa Tengah",NUSA TENGGARA BARAT,,Indonesia,,,,-7.7199585,109.9246784,https://maps.google.com/?cid=0x0:0x66a54fa8e29f5b79,
perumahan,Perumahan,Rumah Kepala Dusun II,"RT 01 RW 02, Dusun II, Bandungrejo, Kec. Bayan, Kabupaten Purworejo, Jawa Tengah 54222","Dusun II, Bandungrejo, Kec. Bayan, Kabupaten Purworejo",NUSA TENGGARA BARAT,54222.0,Indonesia,,,,-7.7195106,109.9280874,https://maps.google.com/?cid=0x0:0x9f37037aad02f7bf,
perumahan,Komplek perumahan,Diajeng Regina Putri,"7WJP+G54, Dusun I, Bayan, Kec. Bayan, Kabupaten Purworejo, Jawa Tengah 54224","Dusun I, Bayan, Kec. Bayan, Kabupaten Purworejo",NUSA TENGGARA BARAT,54224.0,Indonesia, 082325253333,,,-7.7187482,109.9354457,https://maps.google.com/?cid=0x0:0x91556b4841a86598,
perumahan,Komplek perumahan,Rumah Alfiza (Anis),"7WRP+P49, Dusun II, Pekutan, Kec. Bayan, Kabupaten Purworejo, Jawa Tengah 54224","Dusun II, Pekutan, Kec. Bayan, Kabupaten Purworejo",NUSA TENGGARA BARAT,54224.0,Indonesia,,,,-7.7082078,109.9353653,https://maps.google.com/?cid=0x0:0x196cd9449582aa45,
perumahan,Komplek perumahan,House,"Jl. Gajah Mada No.km1, Dusun Empat, Bandungrejo, Kec. Bayan, Kabupaten Purworejo, Jawa Tengah 54222","Dusun Empat, Bandungrejo, Kec. Bayan, Kabupaten Purworejo",NUSA TENGGARA BARAT,54222.0,Indonesia,,,,-7.7191917,109.92692,https://maps.google.com/?cid=0x0:0xccd4902b40cc4c6c,
perumahan,Agen Properti Komersial,Graha Mahardika Pekutan,"Dusun II, Pekutan, Kec. Bayan, Kabupaten Purworejo, Jawa Tengah 54224","Pekutan, Kec. Bayan, Kabupaten Purworejo",NUSA TENGGARA BARAT,54224.0,Indonesia, 081227827197,,,-7.7072047,109.9359095,https://maps.google.com/?cid=0x0:0x16d6a1b0771f688c,
perumahan,Komplek perumahan,Singo's Family House,"Jl. Arjuna No.12 RT.02 RW.1, Dusun Satu, Bandungrejo, Kec. Bayan, Kabupaten Purworejo, Jawa Tengah 54222","Dusun Satu, Bandungrejo, Kec. Bayan, Kabupaten Purworejo",NUSA TENGGARA BARAT,54222.0,Indonesia, 089665613753,,,-7.7225642,109.9233979,https://maps.google.com/?cid=0x0:0x688769bf979a02aa,
perumahan,Kantor Perusahaan,perumahan sampoerna regency,"7WRP+GGP, Jl. Sampurna, Dusun II, Pekutan, Kec. Bayan, Kabupaten Purworejo, Jawa Tengah 54224","Jl. Sampurna, Dusun II, Pekutan, Kec. Bayan, Kabupaten Purworejo",NUSA TENGGARA BARAT,54224.0,Indonesia, 081391212274,,,-7.7086559,109.9363292,https://maps.google.com/?cid=0x0:0x444c52de73679bdc,
perumahan,Komplek perumahan,rumah anggita,"7WMP+CXX, Dusun II, Bayan, Kec. Bayan, Kabupaten Purworejo, Jawa Tengah 54224","Dusun II, Bayan, Kec. Bayan, Kabupaten Purworejo",NUSA TENGGARA BARAT,54224.0,Indonesia,,,,-7.7161288,109.9375597,https://maps.google.com/?cid=0x0:0x80732e797003713f,
perumahan,Komplek perumahan,MBAH DJUWARIYAH FAMILY,"7WGJ+J2G, Dusun II, Besole, Kec. Bayan, Kabupaten Purworejo, Jawa Tengah 54223","Dusun II, Besole, Kec. Bayan, Kabupaten Purworejo",NUSA TENGGARA BARAT,54223.0,Indonesia,,,,-7.723438,109.9300835,https://maps.google.com/?cid=0x0:0xc5afe1c150e16dc,
perumahan,Kantor Perusahaan,GRIYA DIVA,"Griya Diva/Muchroji, RT.02/03, Dusun II, Boto Daleman, Kec. Bayan, Kabupaten Purworejo, Jawa Tengah 54224","RT.02/03, Dusun II, Boto Daleman, Kec. Bayan, Kabupaten Purworejo",NUSA TENGGARA BARAT,54224.0,Indonesia,,,,-7.7294159,109.9359855,https://maps.google.com/?cid=0x0:0xfe9f280bbac4ef4d,
perumahan,perumahan,Kec. Tebet,"Kota Jakarta Selatan, Daerah Khusus Ibukota Jakarta","Kota Jakarta Selatan, Daerah Khusus Ibukota Jakarta",NUSA TENGGARA BARAT,,Indonesia,,,,-6.2251223,106.8549881,https://maps.google.com/?cid=0x0:0xd575e31c807295f9,
perumahan,perumahan,Bayan,"Obel Obel, Sambelia, Kabupaten Lombok Timur, Nusa Tenggara Bar.","Kabupaten Lombok Timur, Nusa Tenggara Bar.",NUSA TENGGARA BARAT,,Indonesia,,,,-8.263952,116.497299,https://maps.google.com/?cid=0x0:0xbc5dd41f89000b0,
perumahan,Komplek perumahan,Perumahan Pucang Indah 2,"Jl. Sampurna No.9, Dusun I, Pekutan, Kec. Bayan, Kabupaten Purworejo, Jawa Tengah 54224","Dusun I, Pekutan, Kec. Bayan, Kabupaten Purworejo",NUSA TENGGARA BARAT,54224.0,Indonesia, 082137251555,,,-7.7133167,109.9350283,https://maps.google.com/?cid=0x0:0xa54c5d8421532a79,
perumahan,perumahan,Jawa Tengah 54223,"Kec. Bayan, Kabupaten Purworejo, Jawa Tengah","Kabupaten Purworejo, Jawa Tengah",NUSA TENGGARA BARAT,,Indonesia,,,,-7.7234596,109.9303338,https://maps.google.com/?cid=0x0:0xfb0db642f4201a3e,
perumahan,Komplek perumahan,MBAH DJUWARIYAH FAMILY,"7WGJ+J2G, Dusun II, Besole, Kec. Bayan, Kabupaten Purworejo, Jawa Tengah 54223","Dusun II, Besole, Kec. Bayan, Kabupaten Purworejo",NUSA TENGGARA BARAT,54223.0,Indonesia,,,,-7.723438,109.9300835,https://maps.google.com/?cid=0x0:0xc5afe1c150e16dc,
perumahan,Pembangunan Perumahan,Perumahan Botodaleman,"7WGQ+MVM, Dusun IV, Boto Daleman, Kec. Bayan, Kabupaten Purworejo, Jawa Tengah 54224","Dusun IV, Boto Daleman, Kec. Bayan, Kabupaten Purworejo",NUSA TENGGARA BARAT,54224.0,Indonesia,,,,-7.7232898,109.9396773,https://maps.google.com/?cid=0x0:0xa4454f0cb131b519,
perumahan,Komplek perumahan,rumah anggita,"7WMP+CXX, Dusun II, Bayan, Kec. Bayan, Kabupaten Purworejo, Jawa Tengah 54224","Dusun II, Bayan, Kec. Bayan, Kabupaten Purworejo",NUSA TENGGARA BARAT,54224.0,Indonesia,,,,-7.7161288,109.9375597,https://maps.google.com/?cid=0x0:0x80732e797003713f,
perumahan,Komplek perumahan,iyut,"7WFQ+V9G, Dusun III, Boto Daleman, Kec. Bayan, Kabupaten Purworejo, Jawa Tengah 54224","Dusun III, Boto Daleman, Kec. Bayan, Kabupaten Purworejo",NUSA TENGGARA BARAT,54224.0,Indonesia,,,,-7.7253223,109.9384643,https://maps.google.com/?cid=0x0:0x72d2ead52c596914,
perumahan,Komplek perumahan,Batas desa besole bandungrejo,"7WGH+57V, Dusun II, Besole, Kec. Bayan, Kabupaten Purworejo, Jawa Tengah 54223","Dusun II, Besole, Kec. Bayan, Kabupaten Purworejo",NUSA TENGGARA BARAT,54223.0,Indonesia,,,,-7.7245028,109.9281652,https://maps.google.com/?cid=0x0:0x9df93eca89c187b7,
perumahan,Komplek perumahan,Diajeng Regina Putri,"7WJP+G54, Dusun I, Bayan, Kec. Bayan, Kabupaten Purworejo, Jawa Tengah 54224","Dusun I, Bayan, Kec. Bayan, Kabupaten Purworejo",NUSA TENGGARA BARAT,54224.0,Indonesia, 082325253333,,,-7.7187482,109.9354457,https://maps.google.com/?cid=0x0:0x91556b4841a86598,
perumahan,Komplek perumahan,Garasi UTX,"7WHJ+F5H, Dusun I, Besole, Kec. Bayan, Kabupaten Purworejo, Jawa Tengah 54223","Dusun I, Besole, Kec. Bayan, Kabupaten Purworejo",NUSA TENGGARA BARAT,54223.0,Indonesia,,,,-7.7213071,109.9304703,https://maps.google.com/?cid=0x0:0x9dcb9620de033225,
perumahan,Komplek perumahan,Mudakir,"7WMV+X62, Dusun III, Bayan, Kec. Bayan, Kabupaten Purworejo, Jawa Tengah 54224","Dusun III, Bayan, Kec. Bayan, Kabupaten Purworejo",NUSA TENGGARA BARAT,54224.0,Indonesia,,,,-7.7151244,109.9430113,https://maps.google.com/?cid=0x0:0x9fb7ef63b9360fe1,
perumahan,Pembangunan Perumahan,Sherin c.n,"7WMQ+C66, Dusun II, Bayan, Kec. Bayan, Kabupaten Purworejo, Jawa Tengah","Kabupaten Purworejo, Jawa Tengah",NUSA TENGGARA BARAT,,Indonesia,,,,-7.7164624,109.9380291,https://maps.google.com/?cid=0x0:0xd8c5502385147e47,
perumahan,Kantor Perusahaan,GRIYA DIVA,"Griya Diva/Muchroji, RT.02/03, Dusun II, Boto Daleman, Kec. Bayan, Kabupaten Purworejo, Jawa Tengah 54224","RT.02/03, Dusun II, Boto Daleman, Kec. Bayan, Kabupaten Purworejo",NUSA TENGGARA BARAT,54224.0,Indonesia,,,,-7.7294159,109.9359855,https://maps.google.com/?cid=0x0:0xfe9f280bbac4ef4d,
perumahan,Komplek perumahan,Cilung mbak Puji,"Bandungrejo RT 02 RW 02 No 35, Kec. Bayan, Kabupaten Purworejo, Jawa Tengah","Kabupaten Purworejo, Jawa Tengah",NUSA TENGGARA BARAT,,Indonesia,,,,-7.7199585,109.9246784,https://maps.google.com/?cid=0x0:0x66a54fa8e29f5b79,
perumahan,Komplek perumahan,Rumah Kadus Dua Bandungrejo,"Jl. Jagaprana, Dusun Satu, Bandungrejo, Kec. Bayan, Kabupaten Purworejo, Jawa Tengah 54222","Dusun Satu, Bandungrejo, Kec. Bayan, Kabupaten Purworejo",NUSA TENGGARA BARAT,54222.0,Indonesia,,,,-7.7219409,109.9238111,https://maps.google.com/?cid=0x0:0xc316aa991796d3bf,
perumahan,Kantor Perusahaan,Perumahan Greend Botorejo Regency Purworejo,"7W9Q+VF9, Krajan, Botorejo, Kec. Bayan, Kabupaten Purworejo, Jawa Tengah 54224","Krajan, Botorejo, Kec. Bayan, Kabupaten Purworejo",NUSA TENGGARA BARAT,54224.0,Indonesia,,,,-7.7303398,109.9387388,https://maps.google.com/?cid=0x0:0xd290ddf267f86099,
perumahan,Kantor Perusahaan,Rumah Qari Green Garden,"Perum Green Garden No.E1, RT.03/RW.04, Area Sawah/ Kebun, Bandungrejo, Kec. Bayan, Kabupaten Purworejo, Jawa Tengah 54222","RT.03/RW.04, Area Sawah/ Kebun, Bandungrejo, Kec. Bayan, Kabupaten Purworejo",NUSA TENGGARA BARAT,54222.0,Indonesia,,,,-7.7238101,109.9271353,https://maps.google.com/?cid=0x0:0xeb7543f453438d46,
perumahan,Komplek perumahan,Ester Wulan Ginting,"7WHH+9C8, Dusun Tiga, Bandungrejo, Kec. Bayan, Kabupaten Purworejo, Jawa Tengah 54222","Dusun Tiga, Bandungrejo, Kec. Bayan, Kabupaten Purworejo",NUSA TENGGARA BARAT,54222.0,Indonesia,,,,-7.7215633,109.9285931,https://maps.google.com/?cid=0x0:0xfc00af8ee1c11c31,
perumahan,Komplek perumahan,Rumah Hawa,"7WHJ+6VR, Dusun I, Besole, Kec. Bayan, Kabupaten Purworejo, Jawa Tengah 54223","Dusun I, Besole, Kec. Bayan, Kabupaten Purworejo",NUSA TENGGARA BARAT,54223.0,Indonesia,,,,-7.7219093,109.9321921,https://maps.google.com/?cid=0x0:0x6e1797b5cc849918,
perumahan,Agen Properti,Perumahan Mulia Land Purworejo,"7WQQ+7QJ, Jl. Bayan - Sambeng, Dusun I, Pekutan, Kec. Bayan, Kabupaten Purworejo, Jawa Tengah 54224","Jl. Bayan - Sambeng, Dusun I, Pekutan, Kec. Bayan, Kabupaten Purworejo",NUSA TENGGARA BARAT,54224.0,Indonesia,,,,-7.7117857,109.9394027,https://maps.google.com/?cid=0x0:0x77d17fa540731263,
perumahan,Gedung Apartemen,Yellowgenk,"7WFH+4F8, Jl. Besole, Dusun III, Besole, Kec. Bayan, Kabupaten Purworejo, Jawa Tengah 54223","Jl. Besole, Dusun III, Besole, Kec. Bayan, Kabupaten Purworejo",NUSA TENGGARA BARAT,54223.0,Indonesia,,,,-7.7272096,109.9286908,https://maps.google.com/?cid=0x0:0x239945c7aa45f122,
perumahan,Tujuan Wisata,Kampung Wisata Karang Bayan,"Karang Bayan, Kec. Lingsar, Kabupaten Lombok Barat, Nusa Tenggara Bar. 83371","Kec. Lingsar, Kabupaten Lombok Barat",NUSA TENGGARA BARAT,83371.0,Indonesia,,,,-8.5591318,116.1827245,https://maps.google.com/?cid=0x0:0xc859b762e31194f0,
perumahan,Area Rekreasi Alam,DAM Bumi Perkemahan Karang Bayan,"C5QR+PPR, Batu Mekar, Kec. Lingsar, Kabupaten Lombok Barat, Nusa Tenggara Bar. 83371","Batu Mekar, Kec. Lingsar, Kabupaten Lombok Barat",NUSA TENGGARA BARAT,83371.0,Indonesia,,,,-8.560639,116.19175,https://maps.google.com/?cid=0x0:0x35a44ae5c77f0d8e,
perumahan,perumahan,Jawa Tengah 54224,"Kec. Bayan, Kabupaten Purworejo, Jawa Tengah","Kabupaten Purworejo, Jawa Tengah",NUSA TENGGARA BARAT,,Indonesia,,,,-7.7026346,109.9615952,https://maps.google.com/?cid=0x0:0xeb2589ef923c8da7,
perumahan,Komplek perumahan,Oryana Kalimiru Asri,"7XH6+WJ8, pendem Pendem,kalimiru, Pendem, Candisari, Kec. Bayan, Kabupaten Purworejo, Jawa Tengah 54224","pendem Pendem,kalimiru, Pendem, Candisari, Kec. Bayan, Kabupaten Purworejo",NUSA TENGGARA BARAT,54224.0,Indonesia, 082226233378,,,-7.720202,109.96158,https://maps.google.com/?cid=0x0:0x50477769fa1d0511,
perumahan,Komplek perumahan,Perumahan Pucang Indah 2,"Jl. Sampurna No.9, Dusun I, Pekutan, Kec. Bayan, Kabupaten Purworejo, Jawa Tengah 54224","Dusun I, Pekutan, Kec. Bayan, Kabupaten Purworejo",NUSA TENGGARA BARAT,54224.0,Indonesia, 082137251555,,,-7.7133167,109.9350283,https://maps.google.com/?cid=0x0:0xa54c5d8421532a79,
perumahan,Pembangunan Perumahan,Perum Sucen Indah Permai,"7XRH+WQ8, Dusun IV, Sucenjuru Tengah, Kec. Bayan, Kabupaten Purworejo, Jawa Tengah 54224","Dusun IV, Sucenjuru Tengah, Kec. Bayan, Kabupaten Purworejo",NUSA TENGGARA BARAT,54224.0,Indonesia,,,,-7.7077105,109.9794428,https://maps.google.com/?cid=0x0:0x8ff49eed79fa1869,
perumahan,Pembangunan Perumahan,Perumahan Havana Mansion,"7XJ3+4M2, desa, Dusun II, Grantung, Kec. Bayan, Kabupaten Purworejo, Jawa Tengah 54224","desa, Dusun II, Grantung, Kec. Bayan, Kabupaten Purworejo",NUSA TENGGARA BARAT,54224.0,Indonesia, 081225246544,,,-7.7197332,109.9541519,https://maps.google.com/?cid=0x0:0x35720b1bbfd5949e,
perumahan,Pembangunan Perumahan,Perumahan Botodaleman,"7WGQ+MVM, Dusun IV, Boto Daleman, Kec. Bayan, Kabupaten Purworejo, Jawa Tengah 54224","Dusun IV, Boto Daleman, Kec. Bayan, Kabupaten Purworejo",NUSA TENGGARA BARAT,54224.0,Indonesia,,,,-7.7232898,109.9396773,https://maps.google.com/?cid=0x0:0xa4454f0cb131b519,
perumahan,Agen Properti,Perumahan Mulia Land Purworejo,"7WQQ+7QJ, Jl. Bayan - Sambeng, Dusun I, Pekutan, Kec. Bayan, Kabupaten Purworejo, Jawa Tengah 54224","Jl. Bayan - Sambeng, Dusun I, Pekutan, Kec. Bayan, Kabupaten Purworejo",NUSA TENGGARA BARAT,54224.0,Indonesia,,,,-7.7117857,109.9394027,https://maps.google.com/?cid=0x0:0x77d17fa540731263,
perumahan,Komplek perumahan,Mudakir,"7WMV+X62, Dusun III, Bayan, Kec. Bayan, Kabupaten Purworejo, Jawa Tengah 54224","Dusun III, Bayan, Kec. Bayan, Kabupaten Purworejo",NUSA TENGGARA BARAT,54224.0,Indonesia,,,,-7.7151244,109.9430113,https://maps.google.com/?cid=0x0:0x9fb7ef63b9360fe1,
perumahan,Kantor Perusahaan,Perumahan Greend Botorejo Regency Purworejo,"7W9Q+VF9, Krajan, Botorejo, Kec. Bayan, Kabupaten Purworejo, Jawa Tengah 54224","Krajan, Botorejo, Kec. Bayan, Kabupaten Purworejo",NUSA TENGGARA BARAT,54224.0,Indonesia,,,,-7.7303398,109.9387388,https://maps.google.com/?cid=0x0:0xd290ddf267f86099,
perumahan,Perumahan rakyat,Rumah Halwa,"7WXQ+28Q, Dusun III, Pekutan, Kec. Bayan, Kabupaten Purworejo, Jawa Tengah 54224","Dusun III, Pekutan, Kec. Bayan, Kabupaten Purworejo",NUSA TENGGARA BARAT,54224.0,Indonesia,,,,-7.702004,109.9388404,https://maps.google.com/?cid=0x0:0xff8e1cd58fd8db7f,
perumahan,perumahan,Rumah Indra,"7XH4+445, Jalan Raya, Dusun II, Grantung, Kec. Bayan, Kabupaten Purworejo, Jawa Tengah 54224","Jalan Raya, Dusun II, Grantung, Kec. Bayan, Kabupaten Purworejo",NUSA TENGGARA BARAT,54224.0,Indonesia,,,,-7.7221214,109.9553732,https://maps.google.com/?cid=0x0:0xf725c3a8367d8214,
perumahan,Komplek perumahan,Rumah yayuk(paryono),"7XW5+5CR, RT.02/RW.02, Dusun I, Jrakah, Kec. Bayan, Kabupaten Purworejo, Jawa Tengah 54224","RT.02/RW.02, Dusun I, Jrakah, Kec. Bayan, Kabupaten Purworejo",NUSA TENGGARA BARAT,54224.0,Indonesia,,,,-7.7045095,109.9585101,https://maps.google.com/?cid=0x0:0x4af3e20bd832613e,
perumahan,Komplek perumahan,PERUMAHAN BIRAWA KALIMIRU,"Pendem, RT.02/RW.03, Pendem, Kalimiru, Kec. Bayan, Kabupaten Purworejo, Jawa Tengah","Kabupaten Purworejo, Jawa Tengah",NUSA TENGGARA BARAT,,Indonesia,,,,-7.7202529,109.9627514,https://maps.google.com/?cid=0x0:0xe5d6a84705eccca3,
perumahan,Pembangunan Perumahan,Perum Sucen Indah Regency,"8X2G+GMR, Jl. Pahlawan, Dusun III, Sucenjuru Tengah, Kec. Bayan, Kabupaten Purworejo, Jawa Tengah 54224","Jl. Pahlawan, Dusun III, Sucenjuru Tengah, Kec. Bayan, Kabupaten Purworejo",NUSA TENGGARA BARAT,54224.0,Indonesia,,,,-7.6986355,109.9766451,https://maps.google.com/?cid=0x0:0x4989ef004f585b1f,
perumahan,Komplek perumahan,Perumahan Nakula Sadewa Kalimiru,"7XJ8+765, Kalimiru, Kec. Bayan, Kabupaten Purworejo, Jawa Tengah 54224","Kalimiru, Kec. Bayan, Kabupaten Purworejo",NUSA TENGGARA BARAT,54224.0,Indonesia,,,,-7.7193641,109.965625,https://maps.google.com/?cid=0x0:0xc6a007503f1a0e9a,
perumahan,Komplek perumahan,Rumah Fikaa,"7XX5+3MX, Dusun II, Jrakah, Kec. Bayan, Kabupaten Purworejo, Jawa Tengah 54224","Dusun II, Jrakah, Kec. Bayan, Kabupaten Purworejo",NUSA TENGGARA BARAT,54224.0,Indonesia,,,,-7.7020751,109.9599456,https://maps.google.com/?cid=0x0:0x2ae8324fe2bf7fef,
perumahan,Kompleks Apartemen,Tempat tinggal,"7XX5+3MX, Dusun II, Jrakah, Kec. Bayan, Kabupaten Purworejo, Jawa Tengah 54224","Dusun II, Jrakah, Kec. Bayan, Kabupaten Purworejo",NUSA TENGGARA BARAT,54224.0,Indonesia,,,,-7.7019765,109.9597928,https://maps.google.com/?cid=0x0:0xd03a34d6df5af8bb,
perumahan,Perhimpunan Pengembang Perumahan,rumah dimas,"7XH3+WJC, Dusun II, Grantung, Kec. Bayan, Kabupaten Purworejo, Jawa Tengah 54224","Dusun II, Grantung, Kec. Bayan, Kabupaten Purworejo",NUSA TENGGARA BARAT,54224.0,Indonesia,,,,-7.7201967,109.9540194,https://maps.google.com/?cid=0x0:0x8fa817721288ac08,
perumahan,Komplek perumahan,Rumah gesti ardi,"7XX6+9C9, Dusun II, Jrakah, Kec. Bayan, Kabupaten Purworejo, Jawa Tengah 54224","Dusun II, Jrakah, Kec. Bayan, Kabupaten Purworejo",NUSA TENGGARA BARAT,54224.0,Indonesia,,,,-7.7015797,109.961105,https://maps.google.com/?cid=0x0:0x24948fb516f6f5a3,
perumahan,Komplek perumahan,Rumah Khansa,"8W4V+968, Jl. Sampurna, Dusun Lima, Pucang Agung, Kec. Bayan, Kabupaten Purworejo, Jawa Tengah 54224","Jl. Sampurna, Dusun Lima, Pucang Agung, Kec. Bayan, Kabupaten Purworejo",NUSA TENGGARA BARAT,54224.0,Indonesia,,,,-7.6941133,109.9432362,https://maps.google.com/?cid=0x0:0x59709be5d1a9ca99,
perumahan,Tujuan Wisata,Kampung Wisata Karang Bayan,"Karang Bayan, Kec. Lingsar, Kabupaten Lombok Barat, Nusa Tenggara Bar. 83371","Kec. Lingsar, Kabupaten Lombok Barat",NUSA TENGGARA BARAT,83371.0,Indonesia,,,,-8.5591318,116.1827245,https://maps.google.com/?cid=0x0:0xc859b762e31194f0,
perumahan,Area Rekreasi Alam,DAM Bumi Perkemahan Karang Bayan,"C5QR+PPR, Batu Mekar, Kec. Lingsar, Kabupaten Lombok Barat, Nusa Tenggara Bar. 83371","Batu Mekar, Kec. Lingsar, Kabupaten Lombok Barat",NUSA TENGGARA BARAT,83371.0,Indonesia,,,,-8.560639,116.19175,https://maps.google.com/?cid=0x0:0x35a44ae5c77f0d8e,
perumahan,Komplek perumahan,Dusun lokok reban,"Q8HR+GXX, Jl. Raya Bayan, Mumbul Sari, Kec. Bayan, Kabupaten Lombok Utara, Nusa Tenggara Bar.","Kabupaten Lombok Utara, Nusa Tenggara Bar.",NUSA TENGGARA BARAT,,Indonesia,,,,-8.2211494,116.3424704,https://maps.google.com/?cid=0x0:0x3fcf03843817cccf,
perumahan,perumahan,Nusa Tenggara Bar. 83354,"Kec. Bayan, Kabupaten Lombok Utara, Nusa Tenggara Bar.","Kabupaten Lombok Utara, Nusa Tenggara Bar.",NUSA TENGGARA BARAT,,Indonesia,,,,-8.305583,116.3957812,https://maps.google.com/?cid=0x0:0x7daf45512c870343,
perumahan,Komplek perumahan,Dusun Bayan Barat,"PCJG+658, Bayan, Kec. Bayan, Kabupaten Lombok Utara, Nusa Tenggara Bar. 83354","Bayan, Kec. Bayan, Kabupaten Lombok Utara",NUSA TENGGARA BARAT,83354.0,Indonesia,,,,-8.2694427,116.4254456,https://maps.google.com/?cid=0x0:0x34e55e292701d3cc,
perumahan,Komplek perumahan,Rumah ayu bintang,"P8VW+HCW, Akar Akar, Kec. Bayan, Kabupaten Lombok Utara, Nusa Tenggara Bar. 83354","Akar Akar, Kec. Bayan, Kabupaten Lombok Utara",NUSA TENGGARA BARAT,83354.0,Indonesia,,,,-8.2560096,116.3460654,https://maps.google.com/?cid=0x0:0xa2bedd9a42c3df2e,
perumahan,Komplek perumahan,Rumah gafhi,"PCRH+GG9, Karang Bajo, Kec. Bayan, Kabupaten Lombok Utara, Nusa Tenggara Bar. 83354","Karang Bajo, Kec. Bayan, Kabupaten Lombok Utara",NUSA TENGGARA BARAT,83354.0,Indonesia,,,,-8.2587135,116.4288587,https://maps.google.com/?cid=0x0:0x355ed9fa8ad240b3,
perumahan,Komplek perumahan,Dedi Wahyudi,"MCRW+8F8, Loloan, Kec. Bayan, Kabupaten Lombok Utara, Nusa Tenggara Bar. 83354","Loloan, Kec. Bayan, Kabupaten Lombok Utara",NUSA TENGGARA BARAT,83354.0,Indonesia,,,,-8.3092184,116.4461901,https://maps.google.com/?cid=0x0:0xf1804de9ec44c2f6,
perumahan,Komplek perumahan,Desa bayan dusun telaga banyak,"Jl. Raya Bayan No.4, Bayan, Kec. Bayan, Kabupaten Lombok Utara, Nusa Tenggara Bar. 83354","Bayan, Kec. Bayan, Kabupaten Lombok Utara",NUSA TENGGARA BARAT,83354.0,Indonesia, 087840126766,,,-8.2690865,116.426367,https://maps.google.com/?cid=0x0:0x577c3bad0253258b,
perumahan,Komplek perumahan,Rumah fijri,"QC8G+JCH, Anyar, Kec. Bayan, Kabupaten Lombok Utara, Nusa Tenggara Bar. 83354","Anyar, Kec. Bayan, Kabupaten Lombok Utara",NUSA TENGGARA BARAT,83354.0,Indonesia,,,,-8.233518,116.426409,https://maps.google.com/?cid=0x0:0x68eb04881ca548e4,
perumahan,Sekolah Agama,Depan Ponpes Nurul bayan Telaga bagek Desa Anyar-bayan KLU-Ntb,"RT 07 Lendang Mamben, Anyar, Kec. Bayan, Kabupaten Lombok Utara, Nusa Tenggara Bar. 83354","Anyar, Kec. Bayan, Kabupaten Lombok Utara",NUSA TENGGARA BARAT,83354.0,Indonesia,,,,-8.221934,116.4085396,https://maps.google.com/?cid=0x0:0x438af24043f0664d,
perumahan,Pembangunan Perumahan,RUMAH RIZFIYA MAHERA,"PC35+C5J, Senaru, Kec. Bayan, Kabupaten Lombok Utara, Nusa Tenggara Bar. 83354","Senaru, Kec. Bayan, Kabupaten Lombok Utara",NUSA TENGGARA BARAT,83354.0,Indonesia,,,,-8.2964001,116.4079038,https://maps.google.com/?cid=0x0:0x49409e8df3698c69,
perumahan,Komplek perumahan,Rumah Akiza,"QCH2+2C, Sukadana, Kec. Bayan, Kabupaten Lombok Utara, Nusa Tenggara Bar. 83354","Sukadana, Kec. Bayan, Kabupaten Lombok Utara",NUSA TENGGARA BARAT,83354.0,Indonesia,,,,-8.2221084,116.4008365,https://maps.google.com/?cid=0x0:0xdb8863f3de72d94a,
perumahan,Komplek perumahan,DUSUN LENDANG JELITI,"P9WH+CJ2, Sukadana, Kec. Bayan, Kabupaten Lombok Utara, Nusa Tenggara Bar. 83354","Sukadana, Kec. Bayan, Kabupaten Lombok Utara",NUSA TENGGARA BARAT,83354.0,Indonesia,,,,-8.2539751,116.3790202,https://maps.google.com/?cid=0x0:0x3cabea1fe91f75db,
perumahan,Pembangunan Perumahan,Kebun Rumah,"PCWC+29Q, Karang Bajo, Kec. Bayan, Kabupaten Lombok Utara, Nusa Tenggara Bar. 83354","Karang Bajo, Kec. Bayan, Kabupaten Lombok Utara",NUSA TENGGARA BARAT,83354.0,Indonesia,,,,-8.2549047,116.4209708,https://maps.google.com/?cid=0x0:0xba0ff7c0b8b44e64,
perumahan,Pembangunan Perumahan,LIKARONAMUNUR HOME,"QCC8+386, Jalan Raya, Anyar, Kec. Bayan, Kabupaten Lombok Utara, Nusa Tenggara Bar. 83354","Jalan Raya, Anyar, Kec. Bayan, Kabupaten Lombok Utara",NUSA TENGGARA BARAT,83354.0,Indonesia,,,,-8.2298393,116.4157715,https://maps.google.com/?cid=0x0:0x6f943ce17d969289,
perumahan,Pembangunan Perumahan,Rumah amak bima,"MCRR+6F8, Loloan, Kec. Bayan, Kabupaten Lombok Utara, Nusa Tenggara Bar. 83354","Loloan, Kec. Bayan, Kabupaten Lombok Utara",NUSA TENGGARA BARAT,83354.0,Indonesia,,,,-8.3094676,116.4411557,https://maps.google.com/?cid=0x0:0x30631bb824654022,
perumahan,Perhimpunan Pengembang Perumahan,ùô∂ùöûùöãùöûùöî ùöêùöéùöñùöôùöéùöóùöê,"QCFF+8WW, Jl. Pelabuhan Carik, Anyar, Kec. Bayan, Kabupaten Lombok Utara, Nusa Tenggara Bar. 83354","Jl. Pelabuhan Carik, Anyar, Kec. Bayan, Kabupaten Lombok Utara",NUSA TENGGARA BARAT,83354.0,Indonesia, 085337686153,,,-8.2266464,116.4248291,https://maps.google.com/?cid=0x0:0xf7695dc0b2b35dc0,
perumahan,Komplek perumahan,House Jaelani,"PCWJ+VJ4, Karang Bajo, Kec. Bayan, Kabupaten Lombok Utara, Nusa Tenggara Bar. 83354","Karang Bajo, Kec. Bayan, Kabupaten Lombok Utara",NUSA TENGGARA BARAT,83354.0,Indonesia,,,,-8.2528426,116.4315251,https://maps.google.com/?cid=0x0:0xc758f995b8e158ee,
perumahan,Komplek perumahan,KADUS TERANTAPAN,"PCWJ+QHW, Jalan Raya, Karang Bajo, Bayan, North Lombok Regency, West Nusa Tenggara 83354","Jalan Raya, Karang Bajo, Bayan, North Lombok Regency",NUSA TENGGARA BARAT,83354.0,Indonesia,,,,-8.2530134,116.4314496,https://maps.google.com/?cid=0x0:0x6777c365b72e516a,
perumahan,Komplek perumahan,Rumah Parman,"PCC3+7X, Senaru, Kec. Bayan, Kabupaten Lombok Utara, Nusa Tenggara Bar. 83354","Senaru, Kec. Bayan, Kabupaten Lombok Utara",NUSA TENGGARA BARAT,83354.0,Indonesia,,,,-8.279267,116.4048355,https://maps.google.com/?cid=0x0:0x6e70a421f00256c8,
perumahan,Pembangunan Perumahan,Maulana semet,"PC63+F6P, Jl raya senaru bayan Lombok, Senaru, Kec. Bayan, Kabupaten Lombok Utara, Nusa Tenggara Bar. 83354","Jl raya senaru bayan Lombok, Senaru, Kec. Bayan, Kabupaten Lombok Utara",NUSA TENGGARA BARAT,83354.0,Indonesia,,,,-8.2887793,116.4030758,https://maps.google.com/?cid=0x0:0x9bc754b43b6ee351,
perumahan,Perhimpunan Pengembang Perumahan,Bale telabah,"QCFF+5VF, Jl. Pelabuhan Carik, Anyar, Kec. Bayan, Kabupaten Lombok Utara, Nusa Tenggara Bar. 83354","Jl. Pelabuhan Carik, Anyar, Kec. Bayan, Kabupaten Lombok Utara",NUSA TENGGARA BARAT,83354.0,Indonesia, 087848981865,,,-8.2270522,116.4246614,https://maps.google.com/?cid=0x0:0xab55ae142c412f76,
perumahan,Rumah Kayu,Us ralph,"PCRH+R9H, Karang Bajo, Kec. Bayan, Kabupaten Lombok Utara, Nusa Tenggara Bar. 83354","Karang Bajo, Kec. Bayan, Kabupaten Lombok Utara",NUSA TENGGARA BARAT,83354.0,Indonesia, 085333924166,,,-8.2579291,116.4284813,https://maps.google.com/?cid=0x0:0x9a26c45299879fea,
perumahan,perumahan,Nusa Tenggara Bar. 83353,"Kabupaten Lombok Utara, Nusa Tenggara Bar.","Kabupaten Lombok Utara, Nusa Tenggara Bar.",NUSA TENGGARA BARAT,,Indonesia,,,,-8.3555888,116.2540856,https://maps.google.com/?cid=0x0:0xe34777432b10f76c,
perumahan,Komplek perumahan,Perumahan Gangga Asri,"M5JW+V8P, Genggelang, Kec. Gangga, Kabupaten Lombok Utara, Nusa Tenggara Bar. 83353","Genggelang, Kec. Gangga, Kabupaten Lombok Utara",NUSA TENGGARA BARAT,83353.0,Indonesia, 081237164886,,,-8.317778,116.1958403,https://maps.google.com/?cid=0x0:0x7a7c6573dfef76f3,
perumahan,Komplek perumahan,bale R3NO,"J6JH+6HF, Jl. Selelos, Genggelang, Kec. Gangga, Kabupaten Lombok Utara, Nusa Tenggara Bar. 83353","Jl. Selelos, Genggelang, Kec. Gangga, Kabupaten Lombok Utara",NUSA TENGGARA BARAT,83353.0,Indonesia,,,,-8.3694365,116.2289089,https://maps.google.com/?cid=0x0:0x3fc09b479901314e,
perumahan,perumahan,Ramdi House,"M66F+H43, Genggelang, Kec. Gangga, Kabupaten Lombok Utara, Nusa Tenggara Bar. 83353","Genggelang, Kec. Gangga, Kabupaten Lombok Utara",NUSA TENGGARA BARAT,83353.0,Indonesia,,,,-8.3387906,116.2232737,https://maps.google.com/?cid=0x0:0x9bc1c164364b2dbe,
perumahan,Komplek perumahan,DeviLaundry,"J6XJ+5W4, Genggelang, Kec. Gangga, Kabupaten Lombok Utara, Nusa Tenggara Bar. 83353","Genggelang, Kec. Gangga, Kabupaten Lombok Utara",NUSA TENGGARA BARAT,83353.0,Indonesia,,,,-8.3521882,116.232288,https://maps.google.com/?cid=0x0:0xa0e3d8c67434f3ec,
perumahan,Perhimpunan Pengembang Perumahan,Rumah ku,"J6WJ+7HJ, Genggelang, Kec. Gangga, Kabupaten Lombok Utara, Nusa Tenggara Bar. 83353","Genggelang, Kec. Gangga, Kabupaten Lombok Utara",NUSA TENGGARA BARAT,83353.0,Indonesia,,,,-8.3542909,116.2313947,https://maps.google.com/?cid=0x0:0x4b0c8be1fb0d5732,
perumahan,Komplek perumahan,Komplek perumahan,"J6RV+GM, Genggelang, Kec. Gangga, Kabupaten Lombok Utara, Nusa Tenggara Bar.","Kabupaten Lombok Utara, Nusa Tenggara Bar.",NUSA TENGGARA BARAT,,Indonesia,,,,-8.3586264,116.2441304,https://maps.google.com/?cid=0x0:0x45404f22130190d,
perumahan,Komplek perumahan,Komplek mekar katon,"J68W+V6H, Genggelang, Kec. Gangga, Kabupaten Lombok Utara, Nusa Tenggara Bar. 83353","Genggelang, Kec. Gangga, Kabupaten Lombok Utara",NUSA TENGGARA BARAT,83353.0,Indonesia,,,,-8.381061,116.2452261,https://maps.google.com/?cid=0x0:0x1e347febfb3e6908,
perumahan,Komplek perumahan,Rumah ayu,"M63C+PR, Genggelang, Kec. Gangga, Kabupaten Lombok Utara, Nusa Tenggara Bar.","Kabupaten Lombok Utara, Nusa Tenggara Bar.",NUSA TENGGARA BARAT,,Indonesia,,,,-8.3459398,116.2225376,https://maps.google.com/?cid=0x0:0xbc607f6b580651aa,
perumahan,Komplek perumahan,Mr. Rahman,"M78M+HF2, Sambik Bangkol, Kec. Gangga, Kabupaten Lombok Utara, Nusa Tenggara Bar. 83353","Sambik Bangkol, Kec. Gangga, Kabupaten Lombok Utara",NUSA TENGGARA BARAT,83353.0,Indonesia,,,,-8.333621,116.2836296,https://maps.google.com/?cid=0x0:0xf0734036ed9fd4ae,
perumahan,Komplek perumahan,Rumah sopi,"M6MJ+7MC, Rempek, Kec. Gangga, Kabupaten Lombok Utara, Nusa Tenggara Bar. 83353","Rempek, Kec. Gangga, Kabupaten Lombok Utara",NUSA TENGGARA BARAT,83353.0,Indonesia, 085239151711,,,-8.3168115,116.2316354,https://maps.google.com/?cid=0x0:0xa82ceff48132dfe3,
perumahan,Toko,senjajak,"M7CQ+5F, Sambik Bangkol, Kec. Gangga, Kabupaten Lombok Utara, Nusa Tenggara Bar. 83353","Sambik Bangkol, Kec. Gangga, Kabupaten Lombok Utara",NUSA TENGGARA BARAT,83353.0,Indonesia,,,,-8.3284856,116.2883171,https://maps.google.com/?cid=0x0:0xf4f803517ea1c540,
perumahan,Perumahan,BTN Gangga Asri B.18,"M5JW+Q34, Genggelang, Kec. Gangga, Kabupaten Lombok Utara, Nusa Tenggara Bar. 83353","Genggelang, Kec. Gangga, Kabupaten Lombok Utara",NUSA TENGGARA BARAT,83353.0,Indonesia,,,,-8.318102,116.1952174,https://maps.google.com/?cid=0x0:0x926a0fb250ce2e7b,
perumahan,Komplek perumahan,Monggal atas,"J7P2+H68, Genggelang, Kec. Gangga, Kabupaten Lombok Utara, Nusa Tenggara Bar. 83353","Genggelang, Kec. Gangga, Kabupaten Lombok Utara",NUSA TENGGARA BARAT,83353.0,Indonesia,,,,-8.3635791,116.2505936,https://maps.google.com/?cid=0x0:0x7bf21b4888695807,
perumahan,perumahan,Rumah Komang Adi Susila,"J7HG+88X, Rempek, Kec. Gangga, Kabupaten Lombok Utara, Nusa Tenggara Bar.","Kabupaten Lombok Utara, Nusa Tenggara Bar.",NUSA TENGGARA BARAT,,Indonesia,,,,-8.3716433,116.2758479,https://maps.google.com/?cid=0x0:0xf948ce822cbf71f1,
perumahan,Komplek perumahan,Rumah johan asmayadi,"M65Q+4MJ, Genggelang, Kec. Gangga, Kabupaten Lombok Utara, Nusa Tenggara Bar. 83353","Genggelang, Kec. Gangga, Kabupaten Lombok Utara",NUSA TENGGARA BARAT,83353.0,Indonesia,,,,-8.3421622,116.239149,https://maps.google.com/?cid=0x0:0xaa9b625ee6acc45c,
perumahan,perumahan,Rumah Johan,"J7R2+X23, Jl. Lingkar Monggal-Paok arempek, Genggelang, Kabupaten Lombok Utara, Nusa Tenggara Bar.","Kabupaten Lombok Utara, Nusa Tenggara Bar.",NUSA TENGGARA BARAT,,Indonesia,,,,-8.3576169,116.2500455,https://maps.google.com/?cid=0x0:0xcbd15028d58950f8,
perumahan,Komplek perumahan,Rumah saya,"Jl. Selelos No.Penjor, Genggelang, Kec. Gangga, Kabupaten Lombok Utara, Nusa Tenggara Bar. 83353","Genggelang, Kec. Gangga, Kabupaten Lombok Utara",NUSA TENGGARA BARAT,83353.0,Indonesia,,,,-8.3361927,116.2251479,https://maps.google.com/?cid=0x0:0xabc2673263b4329b,
perumahan,Rumah wisata,Kopong sebangun,"M78M+548, Sambik Bangkol, Kec. Gangga, Kabupaten Lombok Utara, Nusa Tenggara Bar. 83353","Sambik Bangkol, Kec. Gangga, Kabupaten Lombok Utara",NUSA TENGGARA BARAT,83353.0,Indonesia,,,,-8.3348955,116.2834607,https://maps.google.com/?cid=0x0:0xd8ed5c512d6ab6f5,
perumahan,Komplek perumahan,Dusun sansambik,"J6JG+RW, Bentek, Kec. Gangga, Kabupaten Lombok Utara, Nusa Tenggara Bar.","Kabupaten Lombok Utara, Nusa Tenggara Bar.",NUSA TENGGARA BARAT,,Indonesia,,,,-8.367932,116.227336,https://maps.google.com/?cid=0x0:0x5e64c5b6c06b42f3,
perumahan,Pertanian,Rumah Pohon Gangga Murmas,"J6XG+FVC, Genggelang, Kec. Gangga, Kabupaten Lombok Utara, Nusa Tenggara Bar. 83353","Genggelang, Kec. Gangga, Kabupaten Lombok Utara",NUSA TENGGARA BARAT,83353.0,Indonesia,,,,-8.3513008,116.2271272,https://maps.google.com/?cid=0x0:0xee15389887d2b49,
perumahan,Komplek perumahan,Rumah noval,"M6WW+HGW, Sambik Bangkol, Kec. Gangga, Kabupaten Lombok Utara, Nusa Tenggara Bar.","Kabupaten Lombok Utara, Nusa Tenggara Bar.",NUSA TENGGARA BARAT,,Indonesia,,,,-8.3035221,116.2463265,https://maps.google.com/?cid=0x0:0x50507388a32c6fb3,
perumahan,Perhimpunan Pengembang Perumahan,Dusun Lempenge,"M6X4+446, Jl. Raya Bayan, Rempek, Kec. Gangga, Kabupaten Lombok Utara, Nusa Tenggara Bar. 83353","Jl. Raya Bayan, Rempek, Kec. Gangga, Kabupaten Lombok Utara",NUSA TENGGARA BARAT,83353.0,Indonesia,,,,-8.3022015,116.2052776,https://maps.google.com/?cid=0x0:0x6e922febbd296357,
perumahan,Komplek perumahan,Rumah saya,"M56Q+XH5, Gondang, Kec. Gangga, Kabupaten Lombok Utara, Nusa Tenggara Bar. 83353","Gondang, Kec. Gangga, Kabupaten Lombok Utara",NUSA TENGGARA BARAT,83353.0,Indonesia,,,,-8.3376134,116.1889889,https://maps.google.com/?cid=0x0:0x6d2600663a25b146,
perumahan,Komplek perumahan,Rumah Kadus Besari,"M676+3XF, DUSUN BESARI, Gondang, Kec. Gangga, Kabupaten Lombok Utara, Nusa Tenggara Bar. 83353","DUSUN BESARI, Gondang, Kec. Gangga, Kabupaten Lombok Utara",NUSA TENGGARA BARAT,83353.0,Indonesia, 085237930420,,,-8.3373138,116.2124314,https://maps.google.com/?cid=0x0:0x7dc7e833fb97a5c8,
perumahan,Komplek perumahan,Rumah Mustaid Amar,"M59R+MP7, Gondang, Kec. Gangga, Kabupaten Lombok Utara, Nusa Tenggara Bar. 83353","Gondang, Kec. Gangga, Kabupaten Lombok Utara",NUSA TENGGARA BARAT,83353.0,Indonesia, 085337450737,,,-8.3308496,116.1918121,https://maps.google.com/?cid=0x0:0x32cb0a224d67ec8c,
perumahan,Komplek perumahan,Sebintang,"H6XJ+MPW Omang Dika, Bentek, Kec. Gangga, Kabupaten Lombok Utara, Nusa Tenggara Bar. 83353","Bentek, Kec. Gangga, Kabupaten Lombok Utara",NUSA TENGGARA BARAT,83353.0,Indonesia,,,,-8.4007211,116.2332871,https://maps.google.com/?cid=0x0:0x473221b9b340a66,
perumahan,Komplek perumahan,I.SERI,"J7J4+M6P, Genggelang, Kec. Gangga, Kabupaten Lombok Utara, Nusa Tenggara Bar. 83353","Genggelang, Kec. Gangga, Kabupaten Lombok Utara",NUSA TENGGARA BARAT,83353.0,Indonesia,,,,-8.3687066,116.2554749,https://maps.google.com/?cid=0x0:0x6eb4d1fb58b5fb7e,
perumahan,perumahan,Nusa Tenggara Bar. 83353,"Kabupaten Lombok Utara, Nusa Tenggara Bar.","Kabupaten Lombok Utara, Nusa Tenggara Bar.",NUSA TENGGARA BARAT,,Indonesia,,,,-8.3555888,116.2540856,https://maps.google.com/?cid=0x0:0xe34777432b10f76c,
perumahan,Komplek perumahan,Perumahan,"P785+2FQRumah Iwan Dunianto, Dusun Sejongga, Kayangan, Kec. Kayangan, Kabupaten Lombok Utara, Nusa Tenggara Bar. 83353","Dusun Sejongga, Kayangan, Kec. Kayangan, Kabupaten Lombok Utara",NUSA TENGGARA BARAT,83353.0,Indonesia,,,,-8.286835,116.259211,https://maps.google.com/?cid=0x0:0xaa983720f420834a,
perumahan,Komplek perumahan,RUMAH IWAN DUNIANTO,"P785+2FQ, Kayangan, Kec. Kayangan, Kabupaten Lombok Utara, Nusa Tenggara Bar. 83353","Kayangan, Kec. Kayangan, Kabupaten Lombok Utara",NUSA TENGGARA BARAT,83353.0,Indonesia,,,,-8.2856055,116.2594536,https://maps.google.com/?cid=0x0:0x84e1dffa9e77ba63,
perumahan,Komplek perumahan,Rumah Sandri Rachman,"P7C8+MW, Kayangan, Kec. Kayangan, Kabupaten Lombok Utara, Nusa Tenggara Bar. 83353","Kayangan, Kec. Kayangan, Kabupaten Lombok Utara",NUSA TENGGARA BARAT,83353.0,Indonesia,,,,-8.2784748,116.2673352,https://maps.google.com/?cid=0x0:0x7ffb759f340f1b34,
perumahan,Komplek perumahan,Rumah gea(geaekaagreya),"P763+XVM, Jl. Sidutan, Kayangan, Kec. Kayangan, Kabupaten Lombok Utara, Nusa Tenggara Bar. 83353","Jl. Sidutan, Kayangan, Kec. Kayangan, Kabupaten Lombok Utara",NUSA TENGGARA BARAT,83353.0,Indonesia,,,,-8.2875285,116.2546696,https://maps.google.com/?cid=0x0:0x87a1e79c53394b31,
perumahan,Komplek perumahan,Dusun Waker,"M7HR+89G, Jl. Santong Barat, Sesait, Kec. Kayangan, Kabupaten Lombok Utara, Nusa Tenggara Bar. 83353","Jl. Santong Barat, Sesait, Kec. Kayangan, Kabupaten Lombok Utara",NUSA TENGGARA BARAT,83353.0,Indonesia,,,,-8.3216972,116.2909624,https://maps.google.com/?cid=0x0:0x7713de86c85d73b7,
perumahan,Komplek perumahan,balen wahyu kajeng,"P776+227, Dusun sejongga, Kayangan, Kec. Kayangan, Kabupaten Lombok Utara, Nusa Tenggara Bar. 83353","Dusun sejongga, Kayangan, Kec. Kayangan, Kabupaten Lombok Utara",NUSA TENGGARA BARAT,83353.0,Indonesia,,,,-8.2874563,116.2600469,https://maps.google.com/?cid=0x0:0x45fd508f3cc6578b,
perumahan,Komplek perumahan,Dusun Bagek Kembar,"P7C9+G6Q, Kayangan, Kec. Kayangan, Kabupaten Lombok Utara, Nusa Tenggara Bar. 83353","Kayangan, Kec. Kayangan, Kabupaten Lombok Utara",NUSA TENGGARA BARAT,83353.0,Indonesia,,,,-8.2786738,116.2681061,https://maps.google.com/?cid=0x0:0xa67b9809762f1398,
perumahan,Komplek perumahan,Rumah Joe,"M7PP+HJH, Dusu Santong Timur Desa, Jl. Santong Barat, Sesait, Kec. Kayangan, Kabupaten Lombok Utara, Nusa Tenggara Bar.","Kabupaten Lombok Utara, Nusa Tenggara Bar.",NUSA TENGGARA BARAT,,Indonesia,,,,-8.3152613,116.2871789,https://maps.google.com/?cid=0x0:0xc28fa6c7c6f3223c,
perumahan,Pembangunan Perumahan,Dusun Sumur Pande Desa Sesait Kec Kayangan Lombok UtRa,"M7XH+PH8, Jl. Raya Santong, Sesait, Kec. Kayangan, Kabupaten Lombok Utara, Nusa Tenggara Bar. 83353","Jl. Raya Santong, Sesait, Kec. Kayangan, Kabupaten Lombok Utara",NUSA TENGGARA BARAT,83353.0,Indonesia,,,,-8.3009135,116.2791178,https://maps.google.com/?cid=0x0:0xff5464b7181d759e,
perumahan,Perumahan,Hafiz stay,"P7C9+G6H, Kayangan, Kec. Kayangan, Kabupaten Lombok Utara, Nusa Tenggara Bar. 83353","Kayangan, Kec. Kayangan, Kabupaten Lombok Utara",NUSA TENGGARA BARAT,83353.0,Indonesia,,,,-8.2784328,116.2682706,https://maps.google.com/?cid=0x0:0x7add8705f43e7add,
perumahan,Komplek perumahan,Andri kemong,"P746+567, Jl. Sidutan, Kayangan, Kec. Kayangan, Kabupaten Lombok Utara, Nusa Tenggara Bar. 83353","Jl. Sidutan, Kayangan, Kec. Kayangan, Kabupaten Lombok Utara",NUSA TENGGARA BARAT,83353.0,Indonesia,,,,-8.2950405,116.2605063,https://maps.google.com/?cid=0x0:0xba53891425bd806f,
perumahan,Komplek perumahan,Dusun Banten Damai Desa Dangiang Kec. Kayangan - KLU,"P7R9+4H, Dangiang, Kec. Kayangan, Kabupaten Lombok Utara, Nusa Tenggara Bar. 83353","Dangiang, Kec. Kayangan, Kabupaten Lombok Utara",NUSA TENGGARA BARAT,83353.0,Indonesia,,,,-8.2596862,116.2689263,https://maps.google.com/?cid=0x0:0x29a63a73fa4f827a,
perumahan,Komplek perumahan,Kebun Gilang,"M7RJ+G8M, Jl. Sumur Pande, Sesait, Kec. Kayangan, Kabupaten Lombok Utara, Nusa Tenggara Bar. 83353","Jl. Sumur Pande, Sesait, Kec. Kayangan, Kabupaten Lombok Utara",NUSA TENGGARA BARAT,83353.0,Indonesia,,,,-8.3086716,116.2807999,https://maps.google.com/?cid=0x0:0xac7b659625ebe2e8,
perumahan,Pembangunan Perumahan,Agus Salim,"Kode Pos, Jl Raya Santong, Dusun sempakok RT1, desa santong, Sambik Bangkol, Kec. Kayangan, Kabupaten Lombok Utara, Nusa Tenggara Bar. 83353","Jl Raya Santong, Dusun sempakok RT1, desa santong, Sambik Bangkol, Kec. Kayangan, Kabupaten Lombok Utara",NUSA TENGGARA BARAT,83353.0,Indonesia,,,,-8.3167429,116.273446,https://maps.google.com/?cid=0x0:0x76a9b9222dd134ee,
perumahan,perumahan,Chanadys'house,"J7V3+QJ8, Gumantar, Kec. Kayangan, Kabupaten Lombok Utara, Nusa Tenggara Bar. 83353","Gumantar, Kec. Kayangan, Kabupaten Lombok Utara",NUSA TENGGARA BARAT,83353.0,Indonesia,,,,-8.3555888,116.2540856,https://maps.google.com/?cid=0x0:0x4eafdcfe21ccd3a,
perumahan,Pondok pedesaan,KLu,"M7JP+QJH, Sesait, Kec. Kayangan, Kabupaten Lombok Utara, Nusa Tenggara Bar. 83353","Sesait, Kec. Kayangan, Kabupaten Lombok Utara",NUSA TENGGARA BARAT,83353.0,Indonesia,,,,-8.3184682,116.2860854,https://maps.google.com/?cid=0x0:0xea6b8918aa13d758,
perumahan,Komplek perumahan,Kelanjuhan.desa gumantar.kec kayangan.klu,"P74R+QXM, Kelanjuhan, Gumantar, Kec. Kayangan, Kabupaten Lombok Utara, Nusa Tenggara Bar.","Kabupaten Lombok Utara, Nusa Tenggara Bar.",NUSA TENGGARA BARAT,,Indonesia,,,,-8.29305,116.29241,https://maps.google.com/?cid=0x0:0xfcb5b54270469c5e,
perumahan,Komplek perumahan,Rumah Yolan,"M7VM+W86, Sesait, Kec. Kayangan, Kabupaten Lombok Utara, Nusa Tenggara Bar. 83353","Sesait, Kec. Kayangan, Kabupaten Lombok Utara",NUSA TENGGARA BARAT,83353.0,Indonesia,,,,-8.3053854,116.2835067,https://maps.google.com/?cid=0x0:0x24171bc339f6a50b,
perumahan,Perhimpunan Pengembang Perumahan,Cempogok,"P7Q6+83W, Jl. Pendidikan, Kayangan, Kec. Kayangan, Kabupaten Lombok Utara, Nusa Tenggara Bar. 83353","Jl. Pendidikan, Kayangan, Kec. Kayangan, Kabupaten Lombok Utara",NUSA TENGGARA BARAT,83353.0,Indonesia,,,,-8.261632,116.2602161,https://maps.google.com/?cid=0x0:0x5943fb5bbe481815,
perumahan,perumahan,Edi aprianto,"P767+MWG, Kayangan, Kec. Kayangan, Kabupaten Lombok Utara, Nusa Tenggara Bar. 83353","Kayangan, Kec. Kayangan, Kabupaten Lombok Utara",NUSA TENGGARA BARAT,83353.0,Indonesia,,,,-8.2883213,116.2648178,https://maps.google.com/?cid=0x0:0xb245bb954e0a1f0a,
perumahan,Komplek perumahan,Rumah keluarga Sumantri,"P7V6+R4H, Jl. Santong, Kayangan, Kec. Kayangan, Kabupaten Lombok Utara, Nusa Tenggara Bar. 83353","Jl. Santong, Kayangan, Kec. Kayangan, Kabupaten Lombok Utara",NUSA TENGGARA BARAT,83353.0,Indonesia,,,,-8.255442,116.2603628,https://maps.google.com/?cid=0x0:0x1f40d423e3c41011,
perumahan,Komplek perumahan,Sintung pringgarata,"P7V6+FC7, Kayangan, Kec. Kayangan, Kabupaten Lombok Utara, Nusa Tenggara Bar. 83353","Kayangan, Kec. Kayangan, Kabupaten Lombok Utara",NUSA TENGGARA BARAT,83353.0,Indonesia,,,,-8.2561436,116.2610112,https://maps.google.com/?cid=0x0:0xa8b3d6a2daa05b1,
perumahan,Komplek perumahan,Rumah Ghozali putra,"P7M9+H9W, Dangiang, Kec. Kayangan, Kabupaten Lombok Utara, Nusa Tenggara Bar. 83353","Dangiang, Kec. Kayangan, Kabupaten Lombok Utara",NUSA TENGGARA BARAT,83353.0,Indonesia,,,,-8.2660033,116.2684607,https://maps.google.com/?cid=0x0:0x3d015a7aba6fdeb4,
perumahan,Perhimpunan Pengembang Perumahan,Sumurpande,"M7RJ+J88, Jl. Sumur Pande, Sesait, Kec. Kayangan, Kabupaten Lombok Utara, Nusa Tenggara Bar. 83353","Jl. Sumur Pande, Sesait, Kec. Kayangan, Kabupaten Lombok Utara",NUSA TENGGARA BARAT,83353.0,Indonesia,,,,-8.3084694,116.2808283,https://maps.google.com/?cid=0x0:0x4ea6ef21819cac53,
perumahan,Komplek perumahan,Rumah pojok,"P769+7Q5, Sesait, Kec. Kayangan, Kabupaten Lombok Utara, Nusa Tenggara Bar. 83353","Sesait, Kec. Kayangan, Kabupaten Lombok Utara",NUSA TENGGARA BARAT,83353.0,Indonesia,,,,-8.2893634,116.2694712,https://maps.google.com/?cid=0x0:0x51f32f1391de5e32,
perumahan,Otoritas Perumahan,Perumahan pesona kayangan,"F39V+3PP, Jl. Pesona, Lembah Sari, Kec. Batu Layar, Kabupaten Lombok Barat, Nusa Tenggara Bar. 83355","Jl. Pesona, Lembah Sari, Kec. Batu Layar, Kabupaten Lombok Barat",NUSA TENGGARA BARAT,83355.0,Indonesia, 081236388499,,,-8.5322862,116.0943163,https://maps.google.com/?cid=0x0:0xca0486df5fd68434,
perumahan,Komplek perumahan,DeviLaundry,"J6XJ+5W4, Genggelang, Kec. Gangga, Kabupaten Lombok Utara, Nusa Tenggara Bar. 83353","Genggelang, Kec. Gangga, Kabupaten Lombok Utara",NUSA TENGGARA BARAT,83353.0,Indonesia,,,,-8.3521882,116.232288,https://maps.google.com/?cid=0x0:0xa0e3d8c67434f3ec,
perumahan,Komplek perumahan,Rumah ayu,"M63C+PR, Genggelang, Kec. Gangga, Kabupaten Lombok Utara, Nusa Tenggara Bar.","Kabupaten Lombok Utara, Nusa Tenggara Bar.",NUSA TENGGARA BARAT,,Indonesia,,,,-8.3459398,116.2225376,https://maps.google.com/?cid=0x0:0xbc607f6b580651aa,
perumahan,perumahan,Nusa Tenggara Bar. 83352,"Kabupaten Lombok Utara, Nusa Tenggara Bar.","Kabupaten Lombok Utara, Nusa Tenggara Bar.",NUSA TENGGARA BARAT,,Indonesia,,,,-8.4131655,116.1477598,https://maps.google.com/?cid=0x0:0x35e4373277595e3,
perumahan,Komplek perumahan,Rumah,"H4X3+843, Pemenang Tim., Kec. Pemenang, Kabupaten Lombok Utara, Nusa Tenggara Bar. 83352","Pemenang Tim., Kec. Pemenang, Kabupaten Lombok Utara",NUSA TENGGARA BARAT,83352.0,Indonesia,,,,-8.4017851,116.1027545,https://maps.google.com/?cid=0x0:0x4886a38089426ecb,
perumahan,Komplek perumahan,Rumah akuhh,"H3PW+WPH, Pemenang Bar., Kec. Pemenang, Kabupaten Lombok Utara, Nusa Tenggara Bar. 83352","Pemenang Bar., Kec. Pemenang, Kabupaten Lombok Utara",NUSA TENGGARA BARAT,83352.0,Indonesia,,,,-8.4126756,116.0968725,https://maps.google.com/?cid=0x0:0x8c6685333730c1cb,
perumahan,Komplek perumahan,Rumah agung,"H4V4+766, Pemenang Tim., Kec. Pemenang, Kabupaten Lombok Utara, Nusa Tenggara Bar. 83352","Pemenang Tim., Kec. Pemenang, Kabupaten Lombok Utara",NUSA TENGGARA BARAT,83352.0,Indonesia,,,,-8.4076156,116.105599,https://maps.google.com/?cid=0x0:0x8e5698c359ed5886,
perumahan,Komplek perumahan,Mahkota Pemenang,"Jl. Raya Pemenang, Pemenang Tim., Kec. Pemenang, Kabupaten Lombok Utara, Nusa Tenggara Bar. 83352","Pemenang Tim., Kec. Pemenang, Kabupaten Lombok Utara",NUSA TENGGARA BARAT,83352.0,Indonesia, 087882768686,,,-8.4001684,116.1063328,https://maps.google.com/?cid=0x0:0xbe8681a899972cfd,
perumahan,Komplek perumahan,Kelambu village,"H4Q4+73H, Pemenang Tim., Kec. Pemenang, Kabupaten Lombok Utara, Nusa Tenggara Bar. 83352","Pemenang Tim., Kec. Pemenang, Kabupaten Lombok Utara",NUSA TENGGARA BARAT,83352.0,Indonesia,,,,-8.4118113,116.1052233,https://maps.google.com/?cid=0x0:0xa785821465b40d7b,
perumahan,Komplek perumahan,Kampung Karang Bangket,"H4R5+5G8, Pemenang Tim., Kec. Pemenang, Kabupaten Lombok Utara, Nusa Tenggara Bar. 83352","Pemenang Tim., Kec. Pemenang, Kabupaten Lombok Utara",NUSA TENGGARA BARAT,83352.0,Indonesia,,,,-8.4095275,116.1089037,https://maps.google.com/?cid=0x0:0xb832628212b9c8e6,
perumahan,Perhimpunan Pengembang Perumahan,Putat,"J456+F2M, Jl. Raya Pemenang, Pemenang Tim., Kec. Pemenang, Kabupaten Lombok Utara, Nusa Tenggara Bar. 83352","Jl. Raya Pemenang, Pemenang Tim., Kec. Pemenang, Kabupaten Lombok Utara",NUSA TENGGARA BARAT,83352.0,Indonesia,,,,-8.391281,116.1100612,https://maps.google.com/?cid=0x0:0x898f3ea2f3ede575,
perumahan,Perumahan,perumahan kerujuk,"H38Q+QX9, Pemenang Bar., Kec. Pemenang, Kabupaten Lombok Utara, Nusa Tenggara Bar. 83352","Pemenang Bar., Kec. Pemenang, Kabupaten Lombok Utara",NUSA TENGGARA BARAT,83352.0,Indonesia,,,,-8.4339518,116.0904264,https://maps.google.com/?cid=0x0:0xf8438d431f3d9a2d,
perumahan,Komplek perumahan,Rumah Abudzar,"H4X4+M7Q, Jl. Bangsal Baru, Pemenang Bar., Kec. Pemenang, Kabupaten Lombok Utara, Nusa Tenggara Bar. 83352","Jl. Bangsal Baru, Pemenang Bar., Kec. Pemenang, Kabupaten Lombok Utara",NUSA TENGGARA BARAT,83352.0,Indonesia,,,,-8.4007841,116.1057482,https://maps.google.com/?cid=0x0:0x4d9b08139c494609,
perumahan,Komplek perumahan,Perumahan Bilok Guna,"H5GV+34C, Unnamed Road, Jenggala, Kec. Tj., Kabupaten Lombok Utara, Nusa Tenggara Bar. 83352","Unnamed Road, Jenggala, Kec. Tj., Kabupaten Lombok Utara",NUSA TENGGARA BARAT,83352.0,Indonesia,,,,-8.4248227,116.1927755,https://maps.google.com/?cid=0x0:0xba1fbdf87e6626cf,
perumahan,perumahan,Rumah,"H4W5+5F2, Pemenang Tim., Kec. Pemenang, Kabupaten Lombok Utara, Nusa Tenggara Bar.","Kabupaten Lombok Utara, Nusa Tenggara Bar.",NUSA TENGGARA BARAT,,Indonesia,,,,-8.4046176,116.1086514,https://maps.google.com/?cid=0x0:0x142e1c57423ccc9c,
perumahan,Komplek perumahan,Perumahan Tanjung Green Land,"J5J2+5VX, Sokong, Kec. Tj., Kabupaten Lombok Utara, Nusa Tenggara Bar. 83352","Sokong, Kec. Tj., Kabupaten Lombok Utara",NUSA TENGGARA BARAT,83352.0,Indonesia,,,,-8.3695185,116.1522253,https://maps.google.com/?cid=0x0:0x45790f8393d10335,
perumahan,Pembangunan Perumahan,DUSUN TERENGAN LAUQ,"H4R8+C52, Pemenang Tim., Kec. Pemenang, Kabupaten Lombok Utara, Nusa Tenggara Bar.","Kabupaten Lombok Utara, Nusa Tenggara Bar.",NUSA TENGGARA BARAT,,Indonesia,,,,-8.4089865,116.1153812,https://maps.google.com/?cid=0x0:0x1d1a8c90cc302538,
perumahan,Sekolah,Terengan Daya,"H4Q9+838, Dusun Terengan Daya Desa, Pemenang Tim., Kec. Pemenang, Kabupaten Lombok Utara, Nusa Tenggara Bar. 83352","Dusun Terengan Daya Desa, Pemenang Tim., Kec. Pemenang, Kabupaten Lombok Utara",NUSA TENGGARA BARAT,83352.0,Indonesia,,,,-8.4117245,116.1177077,https://maps.google.com/?cid=0x0:0xdcbb1fdaeae61467,
perumahan,perumahan,BTN Mahkota Pemenang 13 Tamarin 3A,"Pemenang Tim., Kec. Pemenang, Kabupaten Lombok Utara, Nusa Tenggara Bar.","Kabupaten Lombok Utara, Nusa Tenggara Bar.",NUSA TENGGARA BARAT,,Indonesia, 082340366069,,,-8.3999721,116.1068859,https://maps.google.com/?cid=0x0:0xf190e5e4a2cf6cd1,
perumahan,Otoritas Pelabuhan,Bangsal,"83352, Kec. Pemenang, Kabupaten Lombok Utara","Kabupaten Lombok Utara, Nusa Tenggara Bar.",NUSA TENGGARA BARAT,,Indonesia,,,,-8.3938365,116.099427,https://maps.google.com/?cid=0x0:0xb31a34c4143d0629,
perumahan,perumahan,Gili Air,"Gili Indah, Kec. Pemenang, Kabupaten Lombok Utara, Nusa Tenggara Bar.","Kabupaten Lombok Utara, Nusa Tenggara Bar.",NUSA TENGGARA BARAT,,Indonesia,,,,-8.3590452,116.0812832,https://maps.google.com/?cid=0x0:0x46cfcd884281de40,
perumahan,Komplek perumahan,Rumah FINA ADIVA,"H38Q+QX9, Pemenang Bar., Kec. Pemenang, Kabupaten Lombok Utara, Nusa Tenggara Bar. 83352","Pemenang Bar., Kec. Pemenang, Kabupaten Lombok Utara",NUSA TENGGARA BARAT,83352.0,Indonesia,,,,-8.4340749,116.0906914,https://maps.google.com/?cid=0x0:0x876724bafa97cf6a,
perumahan,Komplek perumahan,Perumahan Jambianom Harmoni,"Jl. Raya Mataram - Tj., Medana, Kec. Tj., Kabupaten Lombok Utara, Nusa Tenggara Bar. 83352","Medana, Kec. Tj., Kabupaten Lombok Utara",NUSA TENGGARA BARAT,83352.0,Indonesia,,,,-8.3644933,116.1371042,https://maps.google.com/?cid=0x0:0xf91d2226e2505510,
perumahan,Pembangunan Perumahan,Sakan bubut,"H4G6+7W, Pemenang Tim., Kec. Pemenang, Kabupaten Lombok Utara, Nusa Tenggara Bar.","Kabupaten Lombok Utara, Nusa Tenggara Bar.",NUSA TENGGARA BARAT,,Indonesia,,,,-8.4243096,116.1123309,https://maps.google.com/?cid=0x0:0x591c1f2cfcc9db23,
perumahan,Perhimpunan Pengembang Perumahan,Rumah cantik Adiba,"J423+32V, Pemenang Tim., Kec. Pemenang, Kabupaten Lombok Utara, Nusa Tenggara Bar. 83352","Pemenang Tim., Kec. Pemenang, Kabupaten Lombok Utara",NUSA TENGGARA BARAT,83352.0,Indonesia,,,,-8.399391,116.1031294,https://maps.google.com/?cid=0x0:0x1e1a6c45530208ed,
perumahan,Komplek perumahan,Pemenang Lombok utara,"H3RV+92, Pemenang Bar., Kec. Pemenang, Kabupaten Lombok Utara, Nusa Tenggara Bar.","Kabupaten Lombok Utara, Nusa Tenggara Bar.",NUSA TENGGARA BARAT,,Indonesia,,,,-8.4090289,116.0926782,https://maps.google.com/?cid=0x0:0xc54f8e0401cc36e2,
perumahan,Komplek perumahan,Rumah MIKE,"H3WM+88H, Pemenang Bar., Kec. Pemenang, Kabupaten Lombok Utara, Nusa Tenggara Bar. 83352","Pemenang Bar., Kec. Pemenang, Kabupaten Lombok Utara",NUSA TENGGARA BARAT,83352.0,Indonesia,,,,-8.4047181,116.0833196,https://maps.google.com/?cid=0x0:0x9d03c7cd36da2860,
perumahan,Perumahan,Perumahan Villa Medana Hills,"J4JM+C5W, Medana, Kec. Tj., Kabupaten Lombok Utara, Nusa Tenggara Bar. 83352","Medana, Kec. Tj., Kabupaten Lombok Utara",NUSA TENGGARA BARAT,83352.0,Indonesia, 081380951001,,,-8.3688986,116.1329404,https://maps.google.com/?cid=0x0:0x2dc52949b222df23,
perumahan,Perhimpunan Pengembang Perumahan,Perumahan Tembobor Garden,"J499+W78, Bar., Sigar Penjalin, Kec. Tj., Kabupaten Lombok Utara, Nusa Tenggara Bar. 83352","Bar., Sigar Penjalin, Kec. Tj., Kabupaten Lombok Utara",NUSA TENGGARA BARAT,83352.0,Indonesia, 081803642081,,,-8.3802155,116.1182168,https://maps.google.com/?cid=0x0:0xf4dec55c5f15bd10,
perumahan,Komplek perumahan,TawiFitriUtaAya,"H3PW+PCR, Pemenang Bar., Kec. Pemenang, Kabupaten Lombok Utara, Nusa Tenggara Bar. 83352","Pemenang Bar., Kec. Pemenang, Kabupaten Lombok Utara",NUSA TENGGARA BARAT,83352.0,Indonesia, 087864837251,,,-8.4131323,116.0960148,https://maps.google.com/?cid=0x0:0x738899044bb76f33,
perumahan,perumahan,Desa Kecinan,"H4W3+738, Pemenang Bar., Kec. Pemenang, Kabupaten Lombok Utara, Nusa Tenggara Bar.","Kabupaten Lombok Utara, Nusa Tenggara Bar.",NUSA TENGGARA BARAT,,Indonesia,,,,-8.4043346,116.102718,https://maps.google.com/?cid=0x0:0x846d8a3e106ba832,
perumahan,Asosiasi pemilik rumah,Wadi arya prajna,"H4R3+PW2, Dusun tebango, Pemenang Tim., Kec. Pemenang, Kabupaten Lombok Utara, Nusa Tenggara Bar. 83352","Dusun tebango, Pemenang Tim., Kec. Pemenang, Kabupaten Lombok Utara",NUSA TENGGARA BARAT,83352.0,Indonesia, 083817779488,,,-8.4082801,116.104732,https://maps.google.com/?cid=0x0:0x2ced11e3b304595,
perumahan,perumahan,Nusa Tenggara Bar.,,Nusa Tenggara Bar.,NUSA TENGGARA BARAT,,Indonesia,,,,-8.6529334,117.3616476,https://maps.google.com/?cid=0x0:0x6967c2ccd0f775c5,
perumahan,Perumahan,Ganggaratu Residence,"M6G2+2VJ, Genggelang, Kec. Gangga, Kabupaten Lombok Utara, Nusa Tenggara Bar.","Kabupaten Lombok Utara, Nusa Tenggara Bar.",NUSA TENGGARA BARAT,,Indonesia,,,,-8.324917,116.2021279,https://maps.google.com/?cid=0x0:0xaba6401ac9f4c254,
perumahan,perumahan,Gubuk baru sokong,"J4QX+RQ2, Sokong, Kec. Tj., Kabupaten Lombok Utara, Nusa Tenggara Bar. 83352","Sokong, Kec. Tj., Kabupaten Lombok Utara",NUSA TENGGARA BARAT,83352.0,Indonesia,,,,-8.360485,116.1493911,https://maps.google.com/?cid=0x0:0x70dcba06487399c2,
perumahan,Komplek perumahan,Kr.swela tanjung,"J5R5+4FH, Tanjung, Kec. Tj., Kabupaten Lombok Utara, Nusa Tenggara Bar. 83352","Tanjung, Kec. Tj., Kabupaten Lombok Utara",NUSA TENGGARA BARAT,83352.0,Indonesia,,,,-8.3595994,116.1587815,https://maps.google.com/?cid=0x0:0x4ca9867f51c4fa01,
perumahan,perumahan,Gubuk baru sokong,"J5C3+WF7, Sokong, Kec. Tj., Kabupaten Lombok Utara, Nusa Tenggara Bar.","Kabupaten Lombok Utara, Nusa Tenggara Bar.",NUSA TENGGARA BARAT,,Indonesia,,,,-8.3777078,116.153668,https://maps.google.com/?cid=0x0:0xff0ea353a2f34756,
perumahan,Komplek perumahan,Perumahan Tanjung Regency,"M525+4CM, Lombok, Jalan Raya, Tanjung, Kec. Tj., Kabupaten Lombok Utara, Nusa Tenggara Bar. 83352","Lombok, Jalan Raya, Tanjung, Kec. Tj., Kabupaten Lombok Utara",NUSA TENGGARA BARAT,83352.0,Indonesia,,,,-8.3496611,116.1585458,https://maps.google.com/?cid=0x0:0x51481c3bbf45dd81,
perumahan,Pembangunan Perumahan,Perumahan Sandubaya Rayya,"C588+6W6, Jl. Gontoran, Lingsar, Kec. Lingsar, Kabupaten Lombok Barat, Nusa Tenggara Bar. 83371","Jl. Gontoran, Lingsar, Kec. Lingsar, Kabupaten Lombok Barat",NUSA TENGGARA BARAT,83371.0,Indonesia,,,,-8.5847044,116.1671527,https://maps.google.com/?cid=0x0:0x4adfc682b49c57e9,
perumahan,Pembangunan Perumahan,Perumahan Prima Graha Tanjung Regency,"J4JX+FGP, Sokong, Kec. Tj., Kabupaten Lombok Utara, Nusa Tenggara Bar. 83352","Sokong, Kec. Tj., Kabupaten Lombok Utara",NUSA TENGGARA BARAT,83352.0,Indonesia, 087866165102,,,-8.368788,116.1488309,https://maps.google.com/?cid=0x0:0x331844b15536c37e,
perumahan,Komplek perumahan,Perumahan Jambianom Harmoni,"Jl. Raya Mataram - Tj., Medana, Kec. Tj., Kabupaten Lombok Utara, Nusa Tenggara Bar. 83352","Medana, Kec. Tj., Kabupaten Lombok Utara",NUSA TENGGARA BARAT,83352.0,Indonesia,,,,-8.3644933,116.1371042,https://maps.google.com/?cid=0x0:0xf91d2226e2505510,
perumahan,Komplek perumahan,Perumahan Tanjung Green Land,"J5J2+5VX, Sokong, Kec. Tj., Kabupaten Lombok Utara, Nusa Tenggara Bar. 83352","Sokong, Kec. Tj., Kabupaten Lombok Utara",NUSA TENGGARA BARAT,83352.0,Indonesia,,,,-8.3695185,116.1522253,https://maps.google.com/?cid=0x0:0x45790f8393d10335,
perumahan,Perhimpunan Pengembang Perumahan,Rumah nesya,"J5G3+HR9, Jl. Pemda, Sokong, Kec. Tj., Kabupaten Lombok Utara, Nusa Tenggara Bar. 83352","Jl. Pemda, Sokong, Kec. Tj., Kabupaten Lombok Utara",NUSA TENGGARA BARAT,83352.0,Indonesia,,,,-8.373769,116.15501,https://maps.google.com/?cid=0x0:0x1994ea9376763f18,
perumahan,Pembangunan Perumahan,KPR SUBSIDI TANJUNG ASRI,"J4JX+98C, Sokong, Kec. Tj., Kabupaten Lombok Utara, Nusa Tenggara Bar. 83352","Sokong, Kec. Tj., Kabupaten Lombok Utara",NUSA TENGGARA BARAT,83352.0,Indonesia,,,,-8.3690512,116.1482563,https://maps.google.com/?cid=0x0:0x3daa2dd4c3127b35,
perumahan,Komplek perumahan,Rumahnya keliruuuu,"J5R2+C2J, Sokong, Kec. Tj., Kabupaten Lombok Utara, Nusa Tenggara Bar. 83350","Sokong, Kec. Tj., Kabupaten Lombok Utara",NUSA TENGGARA BARAT,83350.0,Indonesia, 085337263392,,,-8.3589239,116.150015,https://maps.google.com/?cid=0x0:0x6379c9e25542ef38,
perumahan,Komplek perumahan,Balengku,"J5W4+R63, Tanjung, Kec. Tj., Kabupaten Lombok Utara, Nusa Tenggara Bar.","Kabupaten Lombok Utara, Nusa Tenggara Bar.",NUSA TENGGARA BARAT,,Indonesia,,,,-8.3529906,116.1555499,https://maps.google.com/?cid=0x0:0x6efbc74effc28c16,
perumahan,Perumahan,Perumahan Villa Medana Hills,"J4JM+C5W, Medana, Kec. Tj., Kabupaten Lombok Utara, Nusa Tenggara Bar. 83352","Medana, Kec. Tj., Kabupaten Lombok Utara",NUSA TENGGARA BARAT,83352.0,Indonesia, 081380951001,,,-8.3688986,116.1329404,https://maps.google.com/?cid=0x0:0x2dc52949b222df23,
perumahan,Perumahan,Tanjung Indah Residence,"M52C+V2H, Jenggala, Kec. Tj., Kabupaten Lombok Utara, Nusa Tenggara Bar. 83353","Jenggala, Kec. Tj., Kabupaten Lombok Utara",NUSA TENGGARA BARAT,83353.0,Indonesia, 087755778901,,,-8.3478226,116.1701192,https://maps.google.com/?cid=0x0:0x312884a029f6148f,
perumahan,Perhimpunan Pengembang Perumahan,Win,"Blok D No.5, Medana, Kec. Tj., Kabupaten Lombok Utara, Nusa Tenggara Bar. 83352","Medana, Kec. Tj., Kabupaten Lombok Utara",NUSA TENGGARA BARAT,83352.0,Indonesia,,,,-8.3653828,116.1363281,https://maps.google.com/?cid=0x0:0x2a9b4643f4685b29,
perumahan,Kantor Pemerintahan Wilayah,Desa Tegal Maja,"J5G8+277, Tanjung, Kec. Tj., Kabupaten Lombok Utara, Nusa Tenggara Bar. 83352","Tanjung, Kec. Tj., Kabupaten Lombok Utara",NUSA TENGGARA BARAT,83352.0,Indonesia,,,,-8.3749534,116.1656624,https://maps.google.com/?cid=0x0:0xc6b60354902045cf,
perumahan,Komplek perumahan,I gde juliarthana,"J5W3+FW8, Tanjung, Kec. Tj., Kabupaten Lombok Utara, Nusa Tenggara Bar. 83352","Tanjung, Kec. Tj., Kabupaten Lombok Utara",NUSA TENGGARA BARAT,83352.0,Indonesia,,,,-8.3533594,116.1549979,https://maps.google.com/?cid=0x0:0x2e3d9778d5748160,
perumahan,perumahan,Rumah Hunter,"J598+99M, Jl. Drs. Bayu Sughandhi, Tegal Maja, Kec. Tj., Kabupaten Lombok Utara, Nusa Tenggara Bar. 83352","Jl. Drs. Bayu Sughandhi, Tegal Maja, Kec. Tj., Kabupaten Lombok Utara",NUSA TENGGARA BARAT,83352.0,Indonesia,,,,-8.3815399,116.1659165,https://maps.google.com/?cid=0x0:0xfb09f31c824cdf3c,
perumahan,Komplek perumahan,Rianitra's Family Home,"J5W8+VX5, Jalan Montong, Gedeng, Jenggala, Tanjung, North Lombok Regency, West Nusa Tenggara 83352","Jalan Montong, Gedeng, Jenggala, Tanjung, North Lombok Regency",NUSA TENGGARA BARAT,83352.0,Indonesia,,,,-8.3528658,116.1674907,https://maps.google.com/?cid=0x0:0x535dfbdef3e90efa,
perumahan,Komplek perumahan,Hose Ketut Kulan,"J5W3+6VW, Karang, Kec. Tj., Kabupaten Lombok Utara, Nusa Tenggara Bar.","Kabupaten Lombok Utara, Nusa Tenggara Bar.",NUSA TENGGARA BARAT,,Indonesia,,,,-8.3543904,116.1547043,https://maps.google.com/?cid=0x0:0xf5979465a9aaf567,
perumahan,Komplek perumahan,RUMAH GIO,"J5J2+5VX, Sokong, Kec. Tj., Kabupaten Lombok Utara, Nusa Tenggara Bar. 83352","Sokong, Kec. Tj., Kabupaten Lombok Utara",NUSA TENGGARA BARAT,83352.0,Indonesia,,,,-8.3703968,116.1531838,https://maps.google.com/?cid=0x0:0xda5cef38ce39ab39,
perumahan,Perumahan,Rumah putu kaler,"J4RW+8X7, Sokong, Kec. Tj., Kabupaten Lombok Utara, Nusa Tenggara Bar. 83352","Sokong, Kec. Tj., Kabupaten Lombok Utara",NUSA TENGGARA BARAT,83352.0,Indonesia,,,,-8.3580933,116.146889,https://maps.google.com/?cid=0x0:0xf3894320687eea27,
perumahan,Pembangunan Perumahan,"Rumah Wayan Surata, SIP","J5R5+QR5, Tanjung, Kec. Tj., Kabupaten Lombok Utara, Nusa Tenggara Bar. 83352","Tanjung, Kec. Tj., Kabupaten Lombok Utara",NUSA TENGGARA BARAT,83352.0,Indonesia,,,,-8.3582347,116.1603074,https://maps.google.com/?cid=0x0:0xac72220a98ca57e7,
perumahan,perumahan,Jawa Tengah 52254,"Kec. Tj., Kabupaten Brebes, Jawa Tengah","Kabupaten Brebes, Jawa Tengah",NUSA TENGGARA BARAT,,Indonesia,,,,-6.8685522,108.8670315,https://maps.google.com/?cid=0x0:0x1c00c5eb5b53ac70,
perumahan,Perumahan,Perumahan Puri Tanjung Brebes,"Jl. Cemara, Sengon Kulon, Sengon, Kec. Tj., Kabupaten Brebes, Jawa Tengah 52254","Sengon Kulon, Sengon, Kec. Tj., Kabupaten Brebes",NUSA TENGGARA BARAT,52254.0,Indonesia, 085291095525,,,-6.8954253,108.8632177,https://maps.google.com/?cid=0x0:0xc8d9741ebf74ae7e,
perumahan,Perumahan,Perumahan Triehans Village Tanjung Brebes,"Samping Kantor, Jl. Cendrawasih No.157, Sawah,Ladang, Tanjung, Kec. Tj., Kabupaten Brebes, Jawa Tengah 52254","Jl. Cendrawasih No.157, Sawah,Ladang, Tanjung, Kec. Tj., Kabupaten Brebes",NUSA TENGGARA BARAT,52254.0,Indonesia, 087764673691,,,-6.8747142,108.857841,https://maps.google.com/?cid=0x0:0x3d469f7b0b08e375,
perumahan,Komplek perumahan,Perumahan GRIYA TANJUNG HOUSE,"4V88+VCF, Jl. Cemara, RT.02/RW.02, Sawah, Lemah Abang, Kec. Tj., Kabupaten Brebes, Jawa Tengah 52254","Jl. Cemara, RT.02/RW.02, Sawah, Lemah Abang, Kec. Tj., Kabupaten Brebes",NUSA TENGGARA BARAT,52254.0,Indonesia,,,,-6.8828052,108.8660373,https://maps.google.com/?cid=0x0:0x778c112b06f12fa,
perumahan,Perumahan,Tanjung Indah Residence,"M52C+V2H, Jenggala, Kec. Tj., Kabupaten Lombok Utara, Nusa Tenggara Bar. 83353","Jenggala, Kec. Tj., Kabupaten Lombok Utara",NUSA TENGGARA BARAT,83353.0,Indonesia, 087755778901,,,-8.3478226,116.1701192,https://maps.google.com/?cid=0x0:0x312884a029f6148f,
perumahan,Komplek perumahan,Perumahan Tanjung Regency,"M525+4CM, Lombok, Jalan Raya, Tanjung, Kec. Tj., Kabupaten Lombok Utara, Nusa Tenggara Bar. 83352","Lombok, Jalan Raya, Tanjung, Kec. Tj., Kabupaten Lombok Utara",NUSA TENGGARA BARAT,83352.0,Indonesia,,,,-8.3496611,116.1585458,https://maps.google.com/?cid=0x0:0x51481c3bbf45dd81,
perumahan,Toko Ponsel,"FAMILIE CELL. Handphone,Aksesoris,Paket Data","Tanak Song, Jl. Raya Tj., Jenggala, Kec. Tj., Kabupaten Lombok Utara, Nusa Tenggara Bar. 83352","Jl. Raya Tj., Jenggala, Kec. Tj., Kabupaten Lombok Utara",NUSA TENGGARA BARAT,83352.0,Indonesia,,,,-8.3516156,116.167887,https://maps.google.com/?cid=0x0:0x84d42c56c471d7b,
perumahan,Kantor Pemerintahan Wilayah,Desa Tegal Maja,"J5G8+277, Tanjung, Kec. Tj., Kabupaten Lombok Utara, Nusa Tenggara Bar. 83352","Tanjung, Kec. Tj., Kabupaten Lombok Utara",NUSA TENGGARA BARAT,83352.0,Indonesia,,,,-8.3749534,116.1656624,https://maps.google.com/?cid=0x0:0xc6b60354902045cf,
perumahan,Komplek perumahan,Perumahan Jambianom Harmoni,"Jl. Raya Mataram - Tj., Medana, Kec. Tj., Kabupaten Lombok Utara, Nusa Tenggara Bar. 83352","Medana, Kec. Tj., Kabupaten Lombok Utara",NUSA TENGGARA BARAT,83352.0,Indonesia,,,,-8.3644933,116.1371042,https://maps.google.com/?cid=0x0:0xf91d2226e2505510,
perumahan,Pembangunan Perumahan,KPR SUBSIDI TANJUNG ASRI,"J4JX+98C, Sokong, Kec. Tj., Kabupaten Lombok Utara, Nusa Tenggara Bar. 83352","Sokong, Kec. Tj., Kabupaten Lombok Utara",NUSA TENGGARA BARAT,83352.0,Indonesia,,,,-8.3690512,116.1482563,https://maps.google.com/?cid=0x0:0x3daa2dd4c3127b35,
perumahan,Komplek perumahan,Perumahan Tanjung Green Land,"J5J2+5VX, Sokong, Kec. Tj., Kabupaten Lombok Utara, Nusa Tenggara Bar. 83352","Sokong, Kec. Tj., Kabupaten Lombok Utara",NUSA TENGGARA BARAT,83352.0,Indonesia,,,,-8.3695185,116.1522253,https://maps.google.com/?cid=0x0:0x45790f8393d10335,
perumahan,Perhimpunan Pengembang Perumahan,Rumah nesya,"J5G3+HR9, Jl. Pemda, Sokong, Kec. Tj., Kabupaten Lombok Utara, Nusa Tenggara Bar. 83352","Jl. Pemda, Sokong, Kec. Tj., Kabupaten Lombok Utara",NUSA TENGGARA BARAT,83352.0,Indonesia,,,,-8.373769,116.15501,https://maps.google.com/?cid=0x0:0x1994ea9376763f18,
perumahan,Pembangunan Perumahan,Perumahan Prima Graha Tanjung Regency,"J4JX+FGP, Sokong, Kec. Tj., Kabupaten Lombok Utara, Nusa Tenggara Bar. 83352","Sokong, Kec. Tj., Kabupaten Lombok Utara",NUSA TENGGARA BARAT,83352.0,Indonesia, 087866165102,,,-8.368788,116.1488309,https://maps.google.com/?cid=0x0:0x331844b15536c37e,
perumahan,Komplek perumahan,Rumahnya keliruuuu,"J5R2+C2J, Sokong, Kec. Tj., Kabupaten Lombok Utara, Nusa Tenggara Bar. 83350","Sokong, Kec. Tj., Kabupaten Lombok Utara",NUSA TENGGARA BARAT,83350.0,Indonesia, 085337263392,,,-8.3589239,116.150015,https://maps.google.com/?cid=0x0:0x6379c9e25542ef38,
perumahan,Hostel,Kos ega,"J4PR+6XF, Unnamed Road, Sokong, Kec. Tj., Kabupaten Lombok Utara, Nusa Tenggara Bar. 83352","Unnamed Road, Sokong, Kec. Tj., Kabupaten Lombok Utara",NUSA TENGGARA BARAT,83352.0,Indonesia, 082147366474,,,-8.3644486,116.1424308,https://maps.google.com/?cid=0x0:0xcf27bc9bb32ed3ce,
perumahan,Komplek perumahan,rumah cindy,"M545+49Q, Jenggala, Kec. Tj., Kabupaten Lombok Utara, Nusa Tenggara Bar. 83352","Jenggala, Kec. Tj., Kabupaten Lombok Utara",NUSA TENGGARA BARAT,83352.0,Indonesia,,,,-8.3446673,116.1584841,https://maps.google.com/?cid=0x0:0x97d8fb206bb48d51,
perumahan,Komplek perumahan,AJIDA,"J5HC+Q9W, Jl. Langger Sari, Jenggala, Kec. Tj., Kabupaten Lombok Utara, Nusa Tenggara Bar. 83352","Jl. Langger Sari, Jenggala, Kec. Tj., Kabupaten Lombok Utara",NUSA TENGGARA BARAT,83352.0,Indonesia,,,,-8.3705246,116.170962,https://maps.google.com/?cid=0x0:0xaf9a113b49b5b2a,
perumahan,Komplek perumahan,RUMAH GIO,"J5J2+5VX, Sokong, Kec. Tj., Kabupaten Lombok Utara, Nusa Tenggara Bar. 83352","Sokong, Kec. Tj., Kabupaten Lombok Utara",NUSA TENGGARA BARAT,83352.0,Indonesia,,,,-8.3703968,116.1531838,https://maps.google.com/?cid=0x0:0xda5cef38ce39ab39,
perumahan,Komplek perumahan,Rumah kiachulin,"J5X8+28P, J5X8+2CRJl. Raya Jl. Raya Tj., Jenggala, Tanjung, North Lombok Regency, West Nusa Tenggara 83352","J5X8+2CRJl. Raya Jl. Raya Tj., Jenggala, Tanjung, North Lombok Regency",NUSA TENGGARA BARAT,83352.0,Indonesia,,,,-8.352425,116.1658233,https://maps.google.com/?cid=0x0:0x9f99f3e775c21697,
perumahan,Komplek perumahan,I gde juliarthana,"J5W3+FW8, Tanjung, Kec. Tj., Kabupaten Lombok Utara, Nusa Tenggara Bar. 83352","Tanjung, Kec. Tj., Kabupaten Lombok Utara",NUSA TENGGARA BARAT,83352.0,Indonesia,,,,-8.3533594,116.1549979,https://maps.google.com/?cid=0x0:0x2e3d9778d5748160,
perumahan,Komplek perumahan,Rianitra's Family Home,"J5W8+VX5, Jalan Montong, Gedeng, Jenggala, Tanjung, North Lombok Regency, West Nusa Tenggara 83352","Jalan Montong, Gedeng, Jenggala, Tanjung, North Lombok Regency",NUSA TENGGARA BARAT,83352.0,Indonesia,,,,-8.3528658,116.1674907,https://maps.google.com/?cid=0x0:0x535dfbdef3e90efa,
perumahan,Perhimpunan Pengembang Perumahan,Liyana's house,"J5Q4+82X, Sokong, Kec. Tj., Kabupaten Lombok Utara, Nusa Tenggara Bar. 83352","Sokong, Kec. Tj., Kabupaten Lombok Utara",NUSA TENGGARA BARAT,83352.0,Indonesia,,,,-8.3615667,116.1551185,https://maps.google.com/?cid=0x0:0x3ad8ca77500a5f4c,
perumahan,Perumahan,Rumah putu kaler,"J4RW+8X7, Sokong, Kec. Tj., Kabupaten Lombok Utara, Nusa Tenggara Bar. 83352","Sokong, Kec. Tj., Kabupaten Lombok Utara",NUSA TENGGARA BARAT,83352.0,Indonesia,,,,-8.3580933,116.146889,https://maps.google.com/?cid=0x0:0xf3894320687eea27,
perumahan,Kedai Kopi,Batu Ampar Residence Lombok,"Jalan Pemda Sokong, Dusun Batu Ampar, Sokong, Kec. Tj., Kabupaten Lombok Utara, Nusa Tenggara Bar. 83350","Dusun Batu Ampar, Sokong, Kec. Tj., Kabupaten Lombok Utara",NUSA TENGGARA BARAT,83350.0,Indonesia, 087859024926,,,-8.368665,116.1555823,https://maps.google.com/?cid=0x0:0x679400c349d4a70c,
perumahan,perumahan,Kalimantan Selatan 71512,"Kec. Tj., Kabupaten Tabalong, Kalimantan Selatan","Kabupaten Tabalong, Kalimantan Selatan",NUSA TENGGARA BARAT,,Indonesia,,,,-2.1567677,115.3489459,https://maps.google.com/?cid=0x0:0xe5de2dcf61507a0c,
perumahan,Komplek perumahan,Perumahan Pesona Tanjung Residence,"Wayau, Kec. Tj., Kabupaten Tabalong, Kalimantan Selatan 71571","Kec. Tj., Kabupaten Tabalong",NUSA TENGGARA BARAT,71571.0,Indonesia, 081250908810,,,-2.1157586,115.4048617,https://maps.google.com/?cid=0x0:0xc83c05f42fc786f9,
perumahan,Pembangunan Perumahan,Perumahan Tanjung lestari kelurahan Pembataan Kec. Murung Pudak Kab. Tabalong,"RCF3+46W, Pembataan, Kec. Murung Pudak, Kabupaten Tabalong, Kalimantan Selatan 71571","Pembataan, Kec. Murung Pudak, Kabupaten Tabalong",NUSA TENGGARA BARAT,71571.0,Indonesia,,,,-2.1771349,115.4030789,https://maps.google.com/?cid=0x0:0xce3ca197b5bb0574,
perumahan,Pembangunan Perumahan,Komplek Perumahan Grand Tanjung 01,"RC72+99J, Pembataan, Kec. Murung Pudak, Kabupaten Tabalong, Kalimantan Selatan 71561","Pembataan, Kec. Murung Pudak, Kabupaten Tabalong",NUSA TENGGARA BARAT,71561.0,Indonesia,,,,-2.1865374,115.4009033,https://maps.google.com/?cid=0x0:0x2bfacb16e51e846a,
perumahan,Pembangunan Perumahan,Perumahan 10 Tanjung Selatan,"RCG3+2FH, Pembataan, Kec. Murung Pudak, Kabupaten Tabalong, Kalimantan Selatan 71571","Pembataan, Kec. Murung Pudak, Kabupaten Tabalong",NUSA TENGGARA BARAT,71571.0,Indonesia,,,,-2.1749424,115.4037368,https://maps.google.com/?cid=0x0:0x7bb130c2a91a03f8,
perumahan,Komplek perumahan,Perumahan loyang indah,"R9RC+FR4, Unnamed Road, Jangkung, Kec. Tj., Kabupaten Tabalong, Kalimantan Selatan 71513","Unnamed Road, Jangkung, Kec. Tj., Kabupaten Tabalong",NUSA TENGGARA BARAT,71513.0,Indonesia,,,,-2.158858,115.3720853,https://maps.google.com/?cid=0x0:0xdb6c175f66dab9c5,
perumahan,Perhimpunan Pengembang Perumahan,Rika  Rafi,"R9C8+HJ2, Jl. Ahmad Yani, Jangkung, Kec. Tj., Kabupaten Tabalong, Kalimantan Selatan 71512","Jl. Ahmad Yani, Jangkung, Kec. Tj., Kabupaten Tabalong",NUSA TENGGARA BARAT,71512.0,Indonesia,,,,-2.178971,115.365953,https://maps.google.com/?cid=0x0:0x70734f41c45485b1,
perumahan,Kompleks Bangunan Perusahaan,perumahan tanjung selatan pembataan kec murung pudak,"R96V+572, Jl. Tanjung Selatan, Pembataan, Kec. Murung Pudak, Kabupaten Tabalong, Kalimantan Selatan 71571","Jl. Tanjung Selatan, Pembataan, Kec. Murung Pudak, Kabupaten Tabalong",NUSA TENGGARA BARAT,71571.0,Indonesia,,,,-2.1896102,115.3931436,https://maps.google.com/?cid=0x0:0xe05382df2f3d8efc,
perumahan,Komplek perumahan,Perumahan Terrace Pelangi Tanjung,"Hikun, Kec. Tj., Kabupaten Tabalong, Kalimantan Selatan 71571","Kec. Tj., Kabupaten Tabalong",NUSA TENGGARA BARAT,71571.0,Indonesia, 082353100849,,,-2.1210939,115.3882331,https://maps.google.com/?cid=0x0:0xc2e4902acde06608,
perumahan,perumahan,Indonesia,,,NUSA TENGGARA BARAT,,Indonesia,,,,-0.789275,113.921327,https://maps.google.com/?cid=0x0:0xe37b4de71badf485,
perumahan,Perumahan,Tanjung Indah Residence,"M52C+V2H, Jenggala, Kec. Tj., Kabupaten Lombok Utara, Nusa Tenggara Bar. 83353","Jenggala, Kec. Tj., Kabupaten Lombok Utara",NUSA TENGGARA BARAT,83353.0,Indonesia, 087755778901,,,-8.3478226,116.1701192,https://maps.google.com/?cid=0x0:0x312884a029f6148f,
perumahan,Perumahan,Perumahan Bumi Indraloka,"Jl. Kapitan, Perampuan, Kec. Labuapi, Kabupaten Lombok Barat, Nusa Tenggara Bar. 83361","Perampuan, Kec. Labuapi, Kabupaten Lombok Barat",NUSA TENGGARA BARAT,83361.0,Indonesia, 081999644631,,,-8.6324624,116.0932357,https://maps.google.com/?cid=0x0:0xa7dcfc93c6db94b0,
perumahan,Kantor Pemerintahan Wilayah,Desa Tegal Maja,"J5G8+277, Tanjung, Kec. Tj., Kabupaten Lombok Utara, Nusa Tenggara Bar. 83352","Tanjung, Kec. Tj., Kabupaten Lombok Utara",NUSA TENGGARA BARAT,83352.0,Indonesia,,,,-8.3749534,116.1656624,https://maps.google.com/?cid=0x0:0xc6b60354902045cf,
perumahan,Komplek perumahan,Balengku,"J5W4+R63, Tanjung, Kec. Tj., Kabupaten Lombok Utara, Nusa Tenggara Bar.","Kabupaten Lombok Utara, Nusa Tenggara Bar.",NUSA TENGGARA BARAT,,Indonesia,,,,-8.3529906,116.1555499,https://maps.google.com/?cid=0x0:0x6efbc74effc28c16,
perumahan,Perhimpunan Pengembang Perumahan,Rumah nesya,"J5G3+HR9, Jl. Pemda, Sokong, Kec. Tj., Kabupaten Lombok Utara, Nusa Tenggara Bar. 83352","Jl. Pemda, Sokong, Kec. Tj., Kabupaten Lombok Utara",NUSA TENGGARA BARAT,83352.0,Indonesia,,,,-8.373769,116.15501,https://maps.google.com/?cid=0x0:0x1994ea9376763f18,
perumahan,Pembangunan Perumahan,KPR SUBSIDI TANJUNG ASRI,"J4JX+98C, Sokong, Kec. Tj., Kabupaten Lombok Utara, Nusa Tenggara Bar. 83352","Sokong, Kec. Tj., Kabupaten Lombok Utara",NUSA TENGGARA BARAT,83352.0,Indonesia,,,,-8.3690512,116.1482563,https://maps.google.com/?cid=0x0:0x3daa2dd4c3127b35,
perumahan,Komplek perumahan,Perumahan Tanjung Green Land,"J5J2+5VX, Sokong, Kec. Tj., Kabupaten Lombok Utara, Nusa Tenggara Bar. 83352","Sokong, Kec. Tj., Kabupaten Lombok Utara",NUSA TENGGARA BARAT,83352.0,Indonesia,,,,-8.3695185,116.1522253,https://maps.google.com/?cid=0x0:0x45790f8393d10335,
perumahan,Pembangunan Perumahan,Perumahan Prima Graha Tanjung Regency,"J4JX+FGP, Sokong, Kec. Tj., Kabupaten Lombok Utara, Nusa Tenggara Bar. 83352","Sokong, Kec. Tj., Kabupaten Lombok Utara",NUSA TENGGARA BARAT,83352.0,Indonesia, 087866165102,,,-8.368788,116.1488309,https://maps.google.com/?cid=0x0:0x331844b15536c37e,
perumahan,Komplek perumahan,Perumahan Jambianom Harmoni,"Jl. Raya Mataram - Tj., Medana, Kec. Tj., Kabupaten Lombok Utara, Nusa Tenggara Bar. 83352","Medana, Kec. Tj., Kabupaten Lombok Utara",NUSA TENGGARA BARAT,83352.0,Indonesia,,,,-8.3644933,116.1371042,https://maps.google.com/?cid=0x0:0xf91d2226e2505510,
perumahan,Komplek perumahan,Rumahnya keliruuuu,"J5R2+C2J, Sokong, Kec. Tj., Kabupaten Lombok Utara, Nusa Tenggara Bar. 83350","Sokong, Kec. Tj., Kabupaten Lombok Utara",NUSA TENGGARA BARAT,83350.0,Indonesia, 085337263392,,,-8.3589239,116.150015,https://maps.google.com/?cid=0x0:0x6379c9e25542ef38,
perumahan,Perhimpunan Pengembang Perumahan,BaitiJannati_Propok,"J557+G2G, Tegal Maja, Kec. Tj., Kabupaten Lombok Utara, Nusa Tenggara Bar. 83352","Tegal Maja, Kec. Tj., Kabupaten Lombok Utara",NUSA TENGGARA BARAT,83352.0,Indonesia,,,,-8.3911069,116.1628877,https://maps.google.com/?cid=0x0:0x532df41fdefd525f,
perumahan,Hostel,Kos ega,"J4PR+6XF, Unnamed Road, Sokong, Kec. Tj., Kabupaten Lombok Utara, Nusa Tenggara Bar. 83352","Unnamed Road, Sokong, Kec. Tj., Kabupaten Lombok Utara",NUSA TENGGARA BARAT,83352.0,Indonesia, 082147366474,,,-8.3644486,116.1424308,https://maps.google.com/?cid=0x0:0xcf27bc9bb32ed3ce,
perumahan,Komplek perumahan,RUMAH GIO,"J5J2+5VX, Sokong, Kec. Tj., Kabupaten Lombok Utara, Nusa Tenggara Bar. 83352","Sokong, Kec. Tj., Kabupaten Lombok Utara",NUSA TENGGARA BARAT,83352.0,Indonesia,,,,-8.3703968,116.1531838,https://maps.google.com/?cid=0x0:0xda5cef38ce39ab39,
perumahan,Perumahan,Rumah putu kaler,"J4RW+8X7, Sokong, Kec. Tj., Kabupaten Lombok Utara, Nusa Tenggara Bar. 83352","Sokong, Kec. Tj., Kabupaten Lombok Utara",NUSA TENGGARA BARAT,83352.0,Indonesia,,,,-8.3580933,116.146889,https://maps.google.com/?cid=0x0:0xf3894320687eea27,
perumahan,Komplek perumahan,AJIDA,"J5HC+Q9W, Jl. Langger Sari, Jenggala, Kec. Tj., Kabupaten Lombok Utara, Nusa Tenggara Bar. 83352","Jl. Langger Sari, Jenggala, Kec. Tj., Kabupaten Lombok Utara",NUSA TENGGARA BARAT,83352.0,Indonesia,,,,-8.3705246,116.170962,https://maps.google.com/?cid=0x0:0xaf9a113b49b5b2a,
perumahan,Komplek perumahan,rumah cindy,"M545+49Q, Jenggala, Kec. Tj., Kabupaten Lombok Utara, Nusa Tenggara Bar. 83352","Jenggala, Kec. Tj., Kabupaten Lombok Utara",NUSA TENGGARA BARAT,83352.0,Indonesia,,,,-8.3446673,116.1584841,https://maps.google.com/?cid=0x0:0x97d8fb206bb48d51,
perumahan,perumahan,Rumah Hunter,"J598+99M, Jl. Drs. Bayu Sughandhi, Tegal Maja, Kec. Tj., Kabupaten Lombok Utara, Nusa Tenggara Bar. 83352","Jl. Drs. Bayu Sughandhi, Tegal Maja, Kec. Tj., Kabupaten Lombok Utara",NUSA TENGGARA BARAT,83352.0,Indonesia,,,,-8.3815399,116.1659165,https://maps.google.com/?cid=0x0:0xfb09f31c824cdf3c,
perumahan,Komplek perumahan,I gde juliarthana,"J5W3+FW8, Tanjung, Kec. Tj., Kabupaten Lombok Utara, Nusa Tenggara Bar. 83352","Tanjung, Kec. Tj., Kabupaten Lombok Utara",NUSA TENGGARA BARAT,83352.0,Indonesia,,,,-8.3533594,116.1549979,https://maps.google.com/?cid=0x0:0x2e3d9778d5748160,
perumahan,Komplek perumahan,Rianitra's Family Home,"J5W8+VX5, Jalan Montong, Gedeng, Jenggala, Tanjung, North Lombok Regency, West Nusa Tenggara 83352","Jalan Montong, Gedeng, Jenggala, Tanjung, North Lombok Regency",NUSA TENGGARA BARAT,83352.0,Indonesia,,,,-8.3528658,116.1674907,https://maps.google.com/?cid=0x0:0x535dfbdef3e90efa,
perumahan,perumahan,Kalimantan Selatan 71513,"Kec. Tj., Kabupaten Tabalong, Kalimantan Selatan","Kabupaten Tabalong, Kalimantan Selatan",NUSA TENGGARA BARAT,,Indonesia,,,,-2.1652707,115.3726469,https://maps.google.com/?cid=0x0:0x7c86073ef7456b91,
perumahan,Perhimpunan Pengembang Perumahan,Liyana's house,"J5Q4+82X, Sokong, Kec. Tj., Kabupaten Lombok Utara, Nusa Tenggara Bar. 83352","Sokong, Kec. Tj., Kabupaten Lombok Utara",NUSA TENGGARA BARAT,83352.0,Indonesia,,,,-8.3615667,116.1551185,https://maps.google.com/?cid=0x0:0x3ad8ca77500a5f4c,
perumahan,Pembangunan Perumahan,Komplek Perumahan Grand Tanjung 01,"RC72+99J, Pembataan, Kec. Murung Pudak, Kabupaten Tabalong, Kalimantan Selatan 71561","Pembataan, Kec. Murung Pudak, Kabupaten Tabalong",NUSA TENGGARA BARAT,71561.0,Indonesia,,,,-2.1865374,115.4009033,https://maps.google.com/?cid=0x0:0x2bfacb16e51e846a,
perumahan,Komplek perumahan,Mabuun,"perumahan Aulia Mabuun, Jl. Melati, Tanjung, Kec. Tj., Kabupaten Tabalong, Kalimantan Selatan 71513","Jl. Melati, Tanjung, Kec. Tj., Kabupaten Tabalong",NUSA TENGGARA BARAT,71513.0,Indonesia,,,,-2.1649861,115.381376,https://maps.google.com/?cid=0x0:0x5b129ba862d377af,
perumahan,Pembangunan Perumahan,Perumahan Tanjung lestari kelurahan Pembataan Kec. Murung Pudak Kab. Tabalong,"RCF3+46W, Pembataan, Kec. Murung Pudak, Kabupaten Tabalong, Kalimantan Selatan 71571","Pembataan, Kec. Murung Pudak, Kabupaten Tabalong",NUSA TENGGARA BARAT,71571.0,Indonesia,,,,-2.1771349,115.4030789,https://maps.google.com/?cid=0x0:0xce3ca197b5bb0574,
perumahan,Komplek perumahan,Perumahan Pesona Tanjung Residence,"Wayau, Kec. Tj., Kabupaten Tabalong, Kalimantan Selatan 71571","Kec. Tj., Kabupaten Tabalong",NUSA TENGGARA BARAT,71571.0,Indonesia, 081250908810,,,-2.1157586,115.4048617,https://maps.google.com/?cid=0x0:0xc83c05f42fc786f9,
perumahan,Pembangunan Perumahan,Perumahan 10 Tanjung Selatan,"RCG3+2FH, Pembataan, Kec. Murung Pudak, Kabupaten Tabalong, Kalimantan Selatan 71571","Pembataan, Kec. Murung Pudak, Kabupaten Tabalong",NUSA TENGGARA BARAT,71571.0,Indonesia,,,,-2.1749424,115.4037368,https://maps.google.com/?cid=0x0:0x7bb130c2a91a03f8,
perumahan,Komplek perumahan,PT. BERKAT AULIA CABANG TANJUNG,"R9R9+R4M, Jangkung, Kec. Tj., Kabupaten Tabalong, Kalimantan Selatan 71513","Jangkung, Kec. Tj., Kabupaten Tabalong",NUSA TENGGARA BARAT,71513.0,Indonesia, 085251129052,,,-2.1580023,115.3678705,https://maps.google.com/?cid=0x0:0x72f3dd6aed466fba,
perumahan,Komplek perumahan,Perumahan Grand Permata Baru,"R99W+F38, Pembataan, Kec. Murung Pudak, Kabupaten Tabalong, Kalimantan Selatan 71571","Pembataan, Kec. Murung Pudak, Kabupaten Tabalong",NUSA TENGGARA BARAT,71571.0,Indonesia,,,,-2.181434,115.3952026,https://maps.google.com/?cid=0x0:0x3450b9815cea06b,
perumahan,Perumahan,Tanjung Indah Residence,"M52C+V2H, Jenggala, Kec. Tj., Kabupaten Lombok Utara, Nusa Tenggara Bar. 83353","Jenggala, Kec. Tj., Kabupaten Lombok Utara",NUSA TENGGARA BARAT,83353.0,Indonesia, 087755778901,,,-8.3478226,116.1701192,https://maps.google.com/?cid=0x0:0x312884a029f6148f,
perumahan,Komplek perumahan,Perumahan Tanjung Regency,"M525+4CM, Lombok, Jalan Raya, Tanjung, Kec. Tj., Kabupaten Lombok Utara, Nusa Tenggara Bar. 83352","Lombok, Jalan Raya, Tanjung, Kec. Tj., Kabupaten Lombok Utara",NUSA TENGGARA BARAT,83352.0,Indonesia,,,,-8.3496611,116.1585458,https://maps.google.com/?cid=0x0:0x51481c3bbf45dd81,
perumahan,Toko Ponsel,"FAMILIE CELL. Handphone,Aksesoris,Paket Data","Tanak Song, Jl. Raya Tj., Jenggala, Kec. Tj., Kabupaten Lombok Utara, Nusa Tenggara Bar. 83352","Jl. Raya Tj., Jenggala, Kec. Tj., Kabupaten Lombok Utara",NUSA TENGGARA BARAT,83352.0,Indonesia,,,,-8.3516156,116.167887,https://maps.google.com/?cid=0x0:0x84d42c56c471d7b,
perumahan,perumahan,Kec. Tj.,"Kabupaten Lombok Utara, Nusa Tenggara Bar.","Kabupaten Lombok Utara, Nusa Tenggara Bar.",NUSA TENGGARA BARAT,,Indonesia,,,,-8.3559275,116.1556813,https://maps.google.com/?cid=0x0:0x947760e643a23d21,
perumahan,perumahan,Kalimantan Selatan 71514,"Kec. Tj., Kabupaten Tabalong, Kalimantan Selatan","Kabupaten Tabalong, Kalimantan Selatan",NUSA TENGGARA BARAT,,Indonesia,,,,-2.1409926,115.357834,https://maps.google.com/?cid=0x0:0xfacab3ea231b245e,
perumahan,Pembangunan Perumahan,Komplek Perumahan Grand Tanjung 01,"RC72+99J, Pembataan, Kec. Murung Pudak, Kabupaten Tabalong, Kalimantan Selatan 71561","Pembataan, Kec. Murung Pudak, Kabupaten Tabalong",NUSA TENGGARA BARAT,71561.0,Indonesia,,,,-2.1865374,115.4009033,https://maps.google.com/?cid=0x0:0x2bfacb16e51e846a,
perumahan,Pembangunan Perumahan,Perumahan Tanjung lestari kelurahan Pembataan Kec. Murung Pudak Kab. Tabalong,"RCF3+46W, Pembataan, Kec. Murung Pudak, Kabupaten Tabalong, Kalimantan Selatan 71571","Pembataan, Kec. Murung Pudak, Kabupaten Tabalong",NUSA TENGGARA BARAT,71571.0,Indonesia,,,,-2.1771349,115.4030789,https://maps.google.com/?cid=0x0:0xce3ca197b5bb0574,
perumahan,Komplek perumahan,Perumahan Pesona Tanjung Residence,"Wayau, Kec. Tj., Kabupaten Tabalong, Kalimantan Selatan 71571","Kec. Tj., Kabupaten Tabalong",NUSA TENGGARA BARAT,71571.0,Indonesia, 081250908810,,,-2.1157586,115.4048617,https://maps.google.com/?cid=0x0:0xc83c05f42fc786f9,
perumahan,Komplek perumahan,Hantu Galiba Society,"Jalan Jendral Basuki Rahmat RT12B, Gg. Durian, Kec. Tj., Kalimantan Selatan 71514","Gg. Durian, Kec. Tj.",NUSA TENGGARA BARAT,71514.0,Indonesia,,,,-2.1591255,115.3891827,https://maps.google.com/?cid=0x0:0x3ab9b71a6070141f,
perumahan,Komplek perumahan,Komplek Perumahan Kalahang Harmoni,"Wayau, Kec. Tj., Kabupaten Tabalong, Kalimantan Selatan 71571","Kec. Tj., Kabupaten Tabalong",NUSA TENGGARA BARAT,71571.0,Indonesia,,,,-2.1236635,115.3975371,https://maps.google.com/?cid=0x0:0x5f6419ecdf6b7ad8,
perumahan,perumahan,Rumah Maula el rakani qalbi 7,"R9VJ+2HG, Tanjung, Kec. Tj., Kabupaten Tabalong, Kalimantan Selatan","Kabupaten Tabalong, Kalimantan Selatan",NUSA TENGGARA BARAT,,Indonesia,,,,-2.1574348,115.3814619,https://maps.google.com/?cid=0x0:0x46af7d6837bad811,
perumahan,Komplek perumahan,Perumahan dkr,"R9X8+2MX, Jl. Ahmad Yani, Jangkung, Kec. Tj., Kabupaten Tabalong, Kalimantan Selatan","Kabupaten Tabalong, Kalimantan Selatan",NUSA TENGGARA BARAT,,Indonesia,,,,-2.1523999,115.3667303,https://maps.google.com/?cid=0x0:0xb6d1ff2ccab02049,
perumahan,Komplek perumahan,Perumahan Mega Gerhana Wayau,"Jl. Jend. Basuki Rahmat No.RT.001, Wayau, Kec. Tj., Kabupaten Tabalong, Kalimantan Selatan","Kabupaten Tabalong, Kalimantan Selatan",NUSA TENGGARA BARAT,,Indonesia,,,,-2.1228021,115.3993678,https://maps.google.com/?cid=0x0:0xed10329450cff41f,
perumahan,Pembangunan Perumahan,Perumahan 10 Tanjung Selatan,"RCG3+2FH, Pembataan, Kec. Murung Pudak, Kabupaten Tabalong, Kalimantan Selatan 71571","Pembataan, Kec. Murung Pudak, Kabupaten Tabalong",NUSA TENGGARA BARAT,71571.0,Indonesia,,,,-2.1749424,115.4037368,https://maps.google.com/?cid=0x0:0x7bb130c2a91a03f8,
perumahan,Komplek perumahan,rumah husna tanjung,"Jl. Jend Sudirman No.8, Tanjung, Kec. Tj., Kabupaten Tabalong, Kalimantan Selatan","Kabupaten Tabalong, Kalimantan Selatan",NUSA TENGGARA BARAT,,Indonesia,,,,-2.1656054,115.3838528,https://maps.google.com/?cid=0x0:0x7eb5d4c0d1728408,
perumahan,Perhimpunan Pengembang Perumahan,perum gumuk residence jangkung tabalong,"R9M9+VGW, Jangkung, Kec. Tj., Kabupaten Tabalong, Kalimantan Selatan 71513","Jangkung, Kec. Tj., Kabupaten Tabalong",NUSA TENGGARA BARAT,71513.0,Indonesia,,,,-2.1533094,115.3676046,https://maps.google.com/?cid=0x0:0x4291bb7012c2c09b,
perumahan,perumahan,Rumah Maula el rakani qalbi 4,"R9PM+95V, Tanjung, Kec. Tj., Kabupaten Tabalong, Kalimantan Selatan","Kabupaten Tabalong, Kalimantan Selatan",NUSA TENGGARA BARAT,,Indonesia,,,,-2.1640112,115.3829372,https://maps.google.com/?cid=0x0:0x807a983469db463e,
perumahan,Perhimpunan Pengembang Perumahan,tanjung,"V95Q+GQ6, Hikun, Kec. Tj., Kabupaten Tabalong, Kalimantan Selatan 71571","Hikun, Kec. Tj., Kabupaten Tabalong",NUSA TENGGARA BARAT,71571.0,Indonesia,,,,-2.141332,115.388907,https://maps.google.com/?cid=0x0:0xa33a013624d06ca5,
perumahan,Komplek perumahan,Perumahan loyang indah,"R9RC+FR4, Unnamed Road, Jangkung, Kec. Tj., Kabupaten Tabalong, Kalimantan Selatan 71513","Unnamed Road, Jangkung, Kec. Tj., Kabupaten Tabalong",NUSA TENGGARA BARAT,71513.0,Indonesia,,,,-2.158858,115.3720853,https://maps.google.com/?cid=0x0:0xdb6c175f66dab9c5,
perumahan,Komplek perumahan,Perumahan Terrace Pelangi Tanjung,"Hikun, Kec. Tj., Kabupaten Tabalong, Kalimantan Selatan 71571","Kec. Tj., Kabupaten Tabalong",NUSA TENGGARA BARAT,71571.0,Indonesia, 082353100849,,,-2.1210939,115.3882331,https://maps.google.com/?cid=0x0:0xc2e4902acde06608,
perumahan,Kompleks Bangunan Perusahaan,perumahan tanjung selatan pembataan kec murung pudak,"R96V+572, Jl. Tanjung Selatan, Pembataan, Kec. Murung Pudak, Kabupaten Tabalong, Kalimantan Selatan 71571","Jl. Tanjung Selatan, Pembataan, Kec. Murung Pudak, Kabupaten Tabalong",NUSA TENGGARA BARAT,71571.0,Indonesia,,,,-2.1896102,115.3931436,https://maps.google.com/?cid=0x0:0xe05382df2f3d8efc,
perumahan,Komplek perumahan,Kalimantan Selatan,"V94Q+QQJ, Jl. Basuki Rahmat, Agung, Kec. Tj., Kabupaten Tabalong, Kalimantan Selatan","Kabupaten Tabalong, Kalimantan Selatan",NUSA TENGGARA BARAT,,Indonesia,,,,-2.1430376,115.3893763,https://maps.google.com/?cid=0x0:0xdcea3c42317abd23,
perumahan,Vila,Perumahan pelita agung,"Agung blok c no 93, Agung, Kec. Tj., Kabupaten Tabalong, Kalimantan Selatan 71571","Agung, Kec. Tj., Kabupaten Tabalong",NUSA TENGGARA BARAT,71571.0,Indonesia,,,,-2.1473474,115.3846853,https://maps.google.com/?cid=0x0:0x25bb7fae257c8599,
perumahan,Perumahan,Rumah Mama Alvan Alvin Tanjung Tabalong,"SMAN 3, Perumahan Kalahang Regency, Jl. Jend. Basuki Rahmat No.RT. 02 Blok 1 D, Wayau, Kec. Tj., Kalimantan Selatan 71513","Perumahan Kalahang Regency, Jl. Jend. Basuki Rahmat No.RT. 02 Blok 1 D, Wayau, Kec. Tj.",NUSA TENGGARA BARAT,71513.0,Indonesia,,,,-2.1183707,115.3979673,https://maps.google.com/?cid=0x0:0xe966088b64b36d17,
perumahan,Komplek perumahan,Rumah nurul,"R8VX+7HW Dadapan, RT.29/RW.10, Jangkung, Kec. Tj., Kabupaten Tabalong, Kalimantan Selatan","Kabupaten Tabalong, Kalimantan Selatan",NUSA TENGGARA BARAT,,Indonesia,,,,-2.1567677,115.3489459,https://maps.google.com/?cid=0x0:0x7c8785bce0d7bd66,
perumahan,Komplek perumahan,Perumahan Tanjung Regency,"M525+4CM, Lombok, Jalan Raya, Tanjung, Kec. Tj., Kabupaten Lombok Utara, Nusa Tenggara Bar. 83352","Lombok, Jalan Raya, Tanjung, Kec. Tj., Kabupaten Lombok Utara",NUSA TENGGARA BARAT,83352.0,Indonesia,,,,-8.3496611,116.1585458,https://maps.google.com/?cid=0x0:0x51481c3bbf45dd81,
perumahan,Perumahan,Tanjung Indah Residence,"M52C+V2H, Jenggala, Kec. Tj., Kabupaten Lombok Utara, Nusa Tenggara Bar. 83353","Jenggala, Kec. Tj., Kabupaten Lombok Utara",NUSA TENGGARA BARAT,83353.0,Indonesia, 087755778901,,,-8.3478226,116.1701192,https://maps.google.com/?cid=0x0:0x312884a029f6148f,
perumahan,Perhimpunan Pengembang Perumahan,Rumah nesya,"J5G3+HR9, Jl. Pemda, Sokong, Kec. Tj., Kabupaten Lombok Utara, Nusa Tenggara Bar. 83352","Jl. Pemda, Sokong, Kec. Tj., Kabupaten Lombok Utara",NUSA TENGGARA BARAT,83352.0,Indonesia,,,,-8.373769,116.15501,https://maps.google.com/?cid=0x0:0x1994ea9376763f18,
perumahan,Toko Ponsel,"FAMILIE CELL. Handphone,Aksesoris,Paket Data","Tanak Song, Jl. Raya Tj., Jenggala, Kec. Tj., Kabupaten Lombok Utara, Nusa Tenggara Bar. 83352","Jl. Raya Tj., Jenggala, Kec. Tj., Kabupaten Lombok Utara",NUSA TENGGARA BARAT,83352.0,Indonesia,,,,-8.3516156,116.167887,https://maps.google.com/?cid=0x0:0x84d42c56c471d7b,
perumahan,Komplek perumahan,Perumahan Tanjung Green Land,"J5J2+5VX, Sokong, Kec. Tj., Kabupaten Lombok Utara, Nusa Tenggara Bar. 83352","Sokong, Kec. Tj., Kabupaten Lombok Utara",NUSA TENGGARA BARAT,83352.0,Indonesia,,,,-8.3695185,116.1522253,https://maps.google.com/?cid=0x0:0x45790f8393d10335,
perumahan,Komplek perumahan,Balengku,"J5W4+R63, Tanjung, Kec. Tj., Kabupaten Lombok Utara, Nusa Tenggara Bar.","Kabupaten Lombok Utara, Nusa Tenggara Bar.",NUSA TENGGARA BARAT,,Indonesia,,,,-8.3529906,116.1555499,https://maps.google.com/?cid=0x0:0x6efbc74effc28c16,
perumahan,Kantor Pemerintahan Wilayah,Desa Tegal Maja,"J5G8+277, Tanjung, Kec. Tj., Kabupaten Lombok Utara, Nusa Tenggara Bar. 83352","Tanjung, Kec. Tj., Kabupaten Lombok Utara",NUSA TENGGARA BARAT,83352.0,Indonesia,,,,-8.3749534,116.1656624,https://maps.google.com/?cid=0x0:0xc6b60354902045cf,
perumahan,Komplek perumahan,rumah cindy,"M545+49Q, Jenggala, Kec. Tj., Kabupaten Lombok Utara, Nusa Tenggara Bar. 83352","Jenggala, Kec. Tj., Kabupaten Lombok Utara",NUSA TENGGARA BARAT,83352.0,Indonesia,,,,-8.3446673,116.1584841,https://maps.google.com/?cid=0x0:0x97d8fb206bb48d51,
perumahan,Komplek perumahan,RUMAH GIO,"J5J2+5VX, Sokong, Kec. Tj., Kabupaten Lombok Utara, Nusa Tenggara Bar. 83352","Sokong, Kec. Tj., Kabupaten Lombok Utara",NUSA TENGGARA BARAT,83352.0,Indonesia,,,,-8.3703968,116.1531838,https://maps.google.com/?cid=0x0:0xda5cef38ce39ab39,
perumahan,Hostel,Kos ega,"J4PR+6XF, Unnamed Road, Sokong, Kec. Tj., Kabupaten Lombok Utara, Nusa Tenggara Bar. 83352","Unnamed Road, Sokong, Kec. Tj., Kabupaten Lombok Utara",NUSA TENGGARA BARAT,83352.0,Indonesia, 082147366474,,,-8.3644486,116.1424308,https://maps.google.com/?cid=0x0:0xcf27bc9bb32ed3ce,
perumahan,Komplek perumahan,Rumahnya keliruuuu,"J5R2+C2J, Sokong, Kec. Tj., Kabupaten Lombok Utara, Nusa Tenggara Bar. 83350","Sokong, Kec. Tj., Kabupaten Lombok Utara",NUSA TENGGARA BARAT,83350.0,Indonesia, 085337263392,,,-8.3589239,116.150015,https://maps.google.com/?cid=0x0:0x6379c9e25542ef38,
perumahan,Pembangunan Perumahan,Perumahan Prima Graha Tanjung Regency,"J4JX+FGP, Sokong, Kec. Tj., Kabupaten Lombok Utara, Nusa Tenggara Bar. 83352","Sokong, Kec. Tj., Kabupaten Lombok Utara",NUSA TENGGARA BARAT,83352.0,Indonesia, 087866165102,,,-8.368788,116.1488309,https://maps.google.com/?cid=0x0:0x331844b15536c37e,
perumahan,Komplek perumahan,I gde juliarthana,"J5W3+FW8, Tanjung, Kec. Tj., Kabupaten Lombok Utara, Nusa Tenggara Bar. 83352","Tanjung, Kec. Tj., Kabupaten Lombok Utara",NUSA TENGGARA BARAT,83352.0,Indonesia,,,,-8.3533594,116.1549979,https://maps.google.com/?cid=0x0:0x2e3d9778d5748160,
perumahan,Komplek perumahan,AJIDA,"J5HC+Q9W, Jl. Langger Sari, Jenggala, Kec. Tj., Kabupaten Lombok Utara, Nusa Tenggara Bar. 83352","Jl. Langger Sari, Jenggala, Kec. Tj., Kabupaten Lombok Utara",NUSA TENGGARA BARAT,83352.0,Indonesia,,,,-8.3705246,116.170962,https://maps.google.com/?cid=0x0:0xaf9a113b49b5b2a,
perumahan,Komplek perumahan,Rianitra's Family Home,"J5W8+VX5, Jalan Montong, Gedeng, Jenggala, Tanjung, North Lombok Regency, West Nusa Tenggara 83352","Jalan Montong, Gedeng, Jenggala, Tanjung, North Lombok Regency",NUSA TENGGARA BARAT,83352.0,Indonesia,,,,-8.3528658,116.1674907,https://maps.google.com/?cid=0x0:0x535dfbdef3e90efa,
perumahan,Perumahan,Rumah putu kaler,"J4RW+8X7, Sokong, Kec. Tj., Kabupaten Lombok Utara, Nusa Tenggara Bar. 83352","Sokong, Kec. Tj., Kabupaten Lombok Utara",NUSA TENGGARA BARAT,83352.0,Indonesia,,,,-8.3580933,116.146889,https://maps.google.com/?cid=0x0:0xf3894320687eea27,
perumahan,Komplek perumahan,Rumah kiachulin,"J5X8+28P, J5X8+2CRJl. Raya Jl. Raya Tj., Jenggala, Tanjung, North Lombok Regency, West Nusa Tenggara 83352","J5X8+2CRJl. Raya Jl. Raya Tj., Jenggala, Tanjung, North Lombok Regency",NUSA TENGGARA BARAT,83352.0,Indonesia,,,,-8.352425,116.1658233,https://maps.google.com/?cid=0x0:0x9f99f3e775c21697,
perumahan,Perhimpunan Pengembang Perumahan,Win,"Blok D No.5, Medana, Kec. Tj., Kabupaten Lombok Utara, Nusa Tenggara Bar. 83352","Medana, Kec. Tj., Kabupaten Lombok Utara",NUSA TENGGARA BARAT,83352.0,Indonesia,,,,-8.3653828,116.1363281,https://maps.google.com/?cid=0x0:0x2a9b4643f4685b29,
perumahan,Komplek perumahan,Perumahan Jambianom Harmoni,"Jl. Raya Mataram - Tj., Medana, Kec. Tj., Kabupaten Lombok Utara, Nusa Tenggara Bar. 83352","Medana, Kec. Tj., Kabupaten Lombok Utara",NUSA TENGGARA BARAT,83352.0,Indonesia,,,,-8.3644933,116.1371042,https://maps.google.com/?cid=0x0:0xf91d2226e2505510,
perumahan,Perhimpunan Pengembang Perumahan,BaitiJannati_Propok,"J557+G2G, Tegal Maja, Kec. Tj., Kabupaten Lombok Utara, Nusa Tenggara Bar. 83352","Tegal Maja, Kec. Tj., Kabupaten Lombok Utara",NUSA TENGGARA BARAT,83352.0,Indonesia,,,,-8.3911069,116.1628877,https://maps.google.com/?cid=0x0:0x532df41fdefd525f,
perumahan,perumahan,Kalimantan Selatan 71515,Kalimantan Selatan,Kalimantan Selatan,NUSA TENGGARA BARAT,,Indonesia,,,,-2.0986857,115.3548713,https://maps.google.com/?cid=0x0:0xcd3fe98ed63cd0fd,
perumahan,Komplek perumahan,Perumahan Pesona Tanjung Residence,"Wayau, Kec. Tj., Kabupaten Tabalong, Kalimantan Selatan 71571","Kec. Tj., Kabupaten Tabalong",NUSA TENGGARA BARAT,71571.0,Indonesia, 081250908810,,,-2.1157586,115.4048617,https://maps.google.com/?cid=0x0:0xc83c05f42fc786f9,
perumahan,Komplek perumahan,Perum Rizky Tanjung Tahap 2,"Perumahan rizky tanjung blok L2 20, Kambitin Raya, Kec. Tj., Kabupaten Tabalong, Kalimantan Selatan","Kabupaten Tabalong, Kalimantan Selatan",NUSA TENGGARA BARAT,,Indonesia, 08122995415,,,-2.0761554,115.3678781,https://maps.google.com/?cid=0x0:0x2cbbb71ca1eda603,
perumahan,Pembangunan Perumahan,Komplek Perumahan Grand Tanjung 01,"RC72+99J, Pembataan, Kec. Murung Pudak, Kabupaten Tabalong, Kalimantan Selatan 71561","Pembataan, Kec. Murung Pudak, Kabupaten Tabalong",NUSA TENGGARA BARAT,71561.0,Indonesia,,,,-2.1865374,115.4009033,https://maps.google.com/?cid=0x0:0x2bfacb16e51e846a,
perumahan,Komplek perumahan,Perumahan Terrace Pelangi Tanjung,"Hikun, Kec. Tj., Kabupaten Tabalong, Kalimantan Selatan 71571","Kec. Tj., Kabupaten Tabalong",NUSA TENGGARA BARAT,71571.0,Indonesia, 082353100849,,,-2.1210939,115.3882331,https://maps.google.com/?cid=0x0:0xc2e4902acde06608,
perumahan,Komplek perumahan,Komplek Perumahan Kalahang Harmoni,"Wayau, Kec. Tj., Kabupaten Tabalong, Kalimantan Selatan 71571","Kec. Tj., Kabupaten Tabalong",NUSA TENGGARA BARAT,71571.0,Indonesia,,,,-2.1236635,115.3975371,https://maps.google.com/?cid=0x0:0x5f6419ecdf6b7ad8,
perumahan,Perhimpunan Pengembang Perumahan,adit,"W82M+WXF, Kambitin, Kec. Tj., Kabupaten Tabalong, Kalimantan Selatan 71515","Kambitin, Kec. Tj., Kabupaten Tabalong",NUSA TENGGARA BARAT,71515.0,Indonesia,,,,-2.0976882,115.3349142,https://maps.google.com/?cid=0x0:0xafb0ce169836598d,
perumahan,Perhimpunan Pengembang Perumahan,Desa pendawa,"Jln.tanjung No.7, Kambitin Raya, Kec. Tj., Kabupaten Tabalong, Kalimantan Selatan 71515","Kambitin Raya, Kec. Tj., Kabupaten Tabalong",NUSA TENGGARA BARAT,71515.0,Indonesia,,,,-2.0761554,115.3678781,https://maps.google.com/?cid=0x0:0xd0c8e46e1c2fb724,
perumahan,Komplek perumahan,Perumahan Tanjung Green Land,"J5J2+5VX, Sokong, Kec. Tj., Kabupaten Lombok Utara, Nusa Tenggara Bar. 83352","Sokong, Kec. Tj., Kabupaten Lombok Utara",NUSA TENGGARA BARAT,83352.0,Indonesia,,,,-8.3695185,116.1522253,https://maps.google.com/?cid=0x0:0x45790f8393d10335,
perumahan,perumahan,Nusa Tenggara Bar. 83352,"Kabupaten Lombok Utara, Nusa Tenggara Bar.","Kabupaten Lombok Utara, Nusa Tenggara Bar.",NUSA TENGGARA BARAT,,Indonesia,,,,-8.4131655,116.1477598,https://maps.google.com/?cid=0x0:0x35e4373277595e3,
perumahan,Pasar,Pasar Tanjung,"J5R2+W67, Sokong, Kec. Tj., Kabupaten Lombok Utara, Nusa Tenggara Bar. 83352","Sokong, Kec. Tj., Kabupaten Lombok Utara",NUSA TENGGARA BARAT,83352.0,Indonesia,,,,-8.3577069,116.1505565,https://maps.google.com/?cid=0x0:0x602d33cabca85f9c,
perumahan,Perumahan,Perumnas Tanjung Karang,"Jl. Barito 7 No.15, Tj. Karang Permai, Kec. Sekarbela, Kota Mataram, Nusa Tenggara Bar. 83115","Tj. Karang Permai, Kec. Sekarbela, Kota Mataram",NUSA TENGGARA BARAT,83115.0,Indonesia, 085237252262,,,-8.5958575,116.0831979,https://maps.google.com/?cid=0x0:0xd299bba1de211df2,
perumahan,Tujuan Wisata,Lombok Wildlife Park,"Jalan Raya Tanjung Sire, Sigar Penjalin, Kec. Tj., Kabupaten Lombok Utara, Nusa Tenggara Bar. 83352","Sigar Penjalin, Kec. Tj., Kabupaten Lombok Utara",NUSA TENGGARA BARAT,83352.0,Indonesia, 0818261979,,,-8.398185,116.126909,https://maps.google.com/?cid=0x0:0x9a28390d3aa878a2,
perumahan,Komplek perumahan,Mahkota Pemenang,"Jl. Raya Pemenang, Pemenang Tim., Kec. Pemenang, Kabupaten Lombok Utara, Nusa Tenggara Bar. 83352","Pemenang Tim., Kec. Pemenang, Kabupaten Lombok Utara",NUSA TENGGARA BARAT,83352.0,Indonesia, 087882768686,,,-8.4001684,116.1063328,https://maps.google.com/?cid=0x0:0xbe8681a899972cfd,
perumahan,Penyedia Layanan Telekomunikasi,Grapari,"J4QV+H54, Jl. Raya Tj., Tanjung, Kec. Tj., Kabupaten Lombok Utara, Nusa Tenggara Bar. 83352","Jl. Raya Tj., Tanjung, Kec. Tj., Kabupaten Lombok Utara",NUSA TENGGARA BARAT,83352.0,Indonesia,,,,-8.3611182,116.1429656,https://maps.google.com/?cid=0x0:0x38dd4bd3e3f485f1,
perumahan,perumahan,Bale Jukung,"Jl. Sorong Jukung, Tanjung, Kec. Tj., Kabupaten Lombok Utara, Nusa Tenggara Bar. 83352","Tanjung, Kec. Tj., Kabupaten Lombok Utara",NUSA TENGGARA BARAT,83352.0,Indonesia, 081937616728,,,-8.3474173,116.1504012,https://maps.google.com/?cid=0x0:0x827b8e540be57a5d,
perumahan,perumahan,Gili Air,"Gili Indah, Kec. Pemenang, Kabupaten Lombok Utara, Nusa Tenggara Bar.","Kabupaten Lombok Utara, Nusa Tenggara Bar.",NUSA TENGGARA BARAT,,Indonesia,,,,-8.3590452,116.0812832,https://maps.google.com/?cid=0x0:0x46cfcd884281de40,
perumahan,Bandara Regional,Bandar Udara Internasional Lombok,"Jl. Bypass BIL - Mandalika, Tanak Awu, Kec. Pujut, Kabupaten Lombok Tengah, Nusa Tenggara Bar. 83573","Tanak Awu, Kec. Pujut, Kabupaten Lombok Tengah",NUSA TENGGARA BARAT,83573.0,Indonesia, 082185041272,,,-8.7607069,116.2754775,https://maps.google.com/?cid=0x0:0xc3c7d00a4024ad3c,
perumahan,perumahan,Rinjani Beach Eco Resort,"Atas, Jl. Raya Tj., Karang Baru, Kec. Tj., Kabupaten Lombok Utara, Nusa Tenggara Bar. 83352","Jl. Raya Tj., Karang Baru, Kec. Tj., Kabupaten Lombok Utara",NUSA TENGGARA BARAT,83352.0,Indonesia, 081936775960,,,-8.3573356,116.1385366,https://maps.google.com/?cid=0x0:0xe4b76e5227e5a5ae,
perumahan,,Adhy Lektra,"J4MP+VJ3, Medana, Kec. Tj., Kabupaten Lombok Utara, Nusa Tenggara Bar. 83352","Medana, Kec. Tj., Kabupaten Lombok Utara",NUSA TENGGARA BARAT,83352.0,Indonesia, 087865441144,,,-8.3653583,116.1365596,https://maps.google.com/?cid=0x0:0x582bcf9b8f6040f8,
perumahan,Rumah Sakit,Rumah Sakit Umum Daerah Kabupaten Lombok Utara,"Tunaq, Jalan Tioq Tata, Kec. Tj., Kabupaten Lombok Utara, Nusa Tenggara Bar. 83352","Jalan Tioq Tata, Kec. Tj., Kabupaten Lombok Utara",NUSA TENGGARA BARAT,83352.0,Indonesia, 03706123010,,,-8.3551192,116.1599718,https://maps.google.com/?cid=0x0:0x143eb1f476cd14f8,
perumahan,Pembangunan Perumahan,Tanjung Ocean View Development,"Jalan Raya Kuta Kuta Bypass Road No.151, Sukadana, Kec. Pujut, Kabupaten Lombok Tengah, Nusa Tenggara Bar. 83573","Sukadana, Kec. Pujut, Kabupaten Lombok Tengah",NUSA TENGGARA BARAT,83573.0,Indonesia, 03706153198,,,-8.89256,116.3168258,https://maps.google.com/?cid=0x0:0xe27808d254688450,
perumahan,Komplek perumahan,PT. MANDALIKA INDONESIA GROUP,"Lingkar Permata Residance, Jl. Lingkar Selatan, Pagutan, Mataram, Mataram City, West Nusa Tenggara 83361","Jl. Lingkar Selatan, Pagutan, Mataram, Mataram City",NUSA TENGGARA BARAT,83361.0,Indonesia, 087777711255,,,-8.6191481,116.0997243,https://maps.google.com/?cid=0x0:0xf2d7acb6578e2336,
perumahan,Rumah Makan,Rumah Makan Ayya,"J5V4+QVQ, Jl. Raya Tj., Tanjung, Kec. Tj., Kabupaten Lombok Utara, Nusa Tenggara Bar. 83352","Jl. Raya Tj., Tanjung, Kec. Tj., Kabupaten Lombok Utara",NUSA TENGGARA BARAT,83352.0,Indonesia, 087865384869,,,-8.3555448,116.1572386,https://maps.google.com/?cid=0x0:0x250d7a363e646091,
perumahan,Komplek perumahan,Perumahan Jambianom Harmoni,"Jl. Raya Mataram - Tj., Medana, Kec. Tj., Kabupaten Lombok Utara, Nusa Tenggara Bar. 83352","Medana, Kec. Tj., Kabupaten Lombok Utara",NUSA TENGGARA BARAT,83352.0,Indonesia,,,,-8.3644933,116.1371042,https://maps.google.com/?cid=0x0:0xf91d2226e2505510,
perumahan,Komplek perumahan,Perumahan Tanjung Regency,"M525+4CM, Lombok, Jalan Raya, Tanjung, Kec. Tj., Kabupaten Lombok Utara, Nusa Tenggara Bar. 83352","Lombok, Jalan Raya, Tanjung, Kec. Tj., Kabupaten Lombok Utara",NUSA TENGGARA BARAT,83352.0,Indonesia,,,,-8.3496611,116.1585458,https://maps.google.com/?cid=0x0:0x51481c3bbf45dd81,
perumahan,Komplek perumahan,Perumahan Bilok Guna,"H5GV+34C, Unnamed Road, Jenggala, Kec. Tj., Kabupaten Lombok Utara, Nusa Tenggara Bar. 83352","Unnamed Road, Jenggala, Kec. Tj., Kabupaten Lombok Utara",NUSA TENGGARA BARAT,83352.0,Indonesia,,,,-8.4248227,116.1927755,https://maps.google.com/?cid=0x0:0xba1fbdf87e6626cf,
perumahan,Pembangunan Perumahan,Perumahan Prima Graha Tanjung Regency,"J4JX+FGP, Sokong, Kec. Tj., Kabupaten Lombok Utara, Nusa Tenggara Bar. 83352","Sokong, Kec. Tj., Kabupaten Lombok Utara",NUSA TENGGARA BARAT,83352.0,Indonesia, 087866165102,,,-8.368788,116.1488309,https://maps.google.com/?cid=0x0:0x331844b15536c37e,
perumahan,Perhimpunan Pengembang Perumahan,Perumahan Tembobor Garden,"J499+W78, Bar., Sigar Penjalin, Kec. Tj., Kabupaten Lombok Utara, Nusa Tenggara Bar. 83352","Bar., Sigar Penjalin, Kec. Tj., Kabupaten Lombok Utara",NUSA TENGGARA BARAT,83352.0,Indonesia, 081803642081,,,-8.3802155,116.1182168,https://maps.google.com/?cid=0x0:0xf4dec55c5f15bd10,
perumahan,Komplek perumahan,Rumah Tahiek,"J479+2Q3, Sigar Penjalin, Kec. Tj., Kabupaten Lombok Utara, Nusa Tenggara Bar. 83352","Sigar Penjalin, Kec. Tj., Kabupaten Lombok Utara",NUSA TENGGARA BARAT,83352.0,Indonesia, 085237065092,,,-8.3874848,116.1194268,https://maps.google.com/?cid=0x0:0x403a513add0073c,
perumahan,Perumahan,Perumahan Villa Medana Hills,"J4JM+C5W, Medana, Kec. Tj., Kabupaten Lombok Utara, Nusa Tenggara Bar. 83352","Medana, Kec. Tj., Kabupaten Lombok Utara",NUSA TENGGARA BARAT,83352.0,Indonesia, 081380951001,,,-8.3688986,116.1329404,https://maps.google.com/?cid=0x0:0x2dc52949b222df23,
perumahan,Pembangunan Perumahan,KPR SUBSIDI TANJUNG ASRI,"J4JX+98C, Sokong, Kec. Tj., Kabupaten Lombok Utara, Nusa Tenggara Bar. 83352","Sokong, Kec. Tj., Kabupaten Lombok Utara",NUSA TENGGARA BARAT,83352.0,Indonesia,,,,-8.3690512,116.1482563,https://maps.google.com/?cid=0x0:0x3daa2dd4c3127b35,
perumahan,Pembangunan Perumahan,AWIE,"H5CF+VQX, Tegal Maja, Kec. Tj., Kabupaten Lombok Utara, Nusa Tenggara Bar. 83352","Tegal Maja, Kec. Tj., Kabupaten Lombok Utara",NUSA TENGGARA BARAT,83352.0,Indonesia,,,,-8.4278341,116.1741389,https://maps.google.com/?cid=0x0:0xf084d4849805d66a,
perumahan,Komplek perumahan,Rumah kiachulin,"J5X8+28P, J5X8+2CRJl. Raya Jl. Raya Tj., Jenggala, Tanjung, North Lombok Regency, West Nusa Tenggara 83352","J5X8+2CRJl. Raya Jl. Raya Tj., Jenggala, Tanjung, North Lombok Regency",NUSA TENGGARA BARAT,83352.0,Indonesia,,,,-8.352425,116.1658233,https://maps.google.com/?cid=0x0:0x9f99f3e775c21697,
perumahan,Komplek perumahan,RUMAH GIO,"J5J2+5VX, Sokong, Kec. Tj., Kabupaten Lombok Utara, Nusa Tenggara Bar. 83352","Sokong, Kec. Tj., Kabupaten Lombok Utara",NUSA TENGGARA BARAT,83352.0,Indonesia,,,,-8.3703968,116.1531838,https://maps.google.com/?cid=0x0:0xda5cef38ce39ab39,
perumahan,Komplek perumahan,Kr.swela tanjung,"J5R5+4FH, Tanjung, Kec. Tj., Kabupaten Lombok Utara, Nusa Tenggara Bar. 83352","Tanjung, Kec. Tj., Kabupaten Lombok Utara",NUSA TENGGARA BARAT,83352.0,Indonesia,,,,-8.3595994,116.1587815,https://maps.google.com/?cid=0x0:0x4ca9867f51c4fa01,
perumahan,Otoritas Perumahan,Puri Agung Tanjung,"J5V4+4JG, Jl. Lading-Lading, Tanjung, Kec. Tj., Kabupaten Lombok Utara, Nusa Tenggara Bar. 83352","Jl. Lading-Lading, Tanjung, Kec. Tj., Kabupaten Lombok Utara",NUSA TENGGARA BARAT,83352.0,Indonesia,,,,-8.3571994,116.1565758,https://maps.google.com/?cid=0x0:0xc4aff6cf7bd7130e,
