Category,Real Category,Business Name,Address,City,State,Postal Code,Country,Phone,Email,Website,Latitude,Longitude,Map Link,Details Link
toko bangunan,toko bangunan,Kalimantan Selatan 71311,"Kec. Barabai, Kabupaten Hulu Sungai Tengah, Kalimantan Selatan","Kabupaten Hulu Sungai Tengah, Kalimantan Selatan",KALIMANTAN SELATAN,,Indonesia,,,,-2.5852282,115.4007895,https://maps.google.com/?cid=0x0:0xae5b388bfe1daf8b,
toko bangunan,Toko Bahan Bangunan,Toko Sahabat Barabai,"Jl. M. Ramli, Barabai Darat, Kec. Barabai, Kabupaten Hulu Sungai Tengah, Kalimantan Selatan 71352","Barabai Darat, Kec. Barabai, Kabupaten Hulu Sungai Tengah",KALIMANTAN SELATAN,71352.0,Indonesia,82154197501.0,,,-2.5928275,115.3849778,https://maps.google.com/?cid=0x0:0x487746f7550b8aad,
toko bangunan,Toko Bahan Bangunan,TOKO HUSNA,"Jl. Surapati No.42, RT.002/RW.005, Barabai Tim., Kec. Barabai, Kabupaten Hulu Sungai Tengah, Kalimantan Selatan 71315","RT.002/RW.005, Barabai Tim., Kec. Barabai, Kabupaten Hulu Sungai Tengah",KALIMANTAN SELATAN,71315.0,Indonesia,821533228455.0,,,-2.5676016,115.3869127,https://maps.google.com/?cid=0x0:0x32aefeb2a652368b,
toko bangunan,Toko Bahan Bangunan,TB Cahaya Baru,"C99P+Q99, Jl. Surapati, Barabai Tim., Kec. Barabai, Kabupaten Hulu Sungai Tengah, Kalimantan Selatan 71315","Jl. Surapati, Barabai Tim., Kec. Barabai, Kabupaten Hulu Sungai Tengah",KALIMANTAN SELATAN,71315.0,Indonesia,85169981293.0,,,-2.5805883,115.3859793,https://maps.google.com/?cid=0x0:0x1d69a2690d43e67b,
toko bangunan,Toko Bahan Bangunan,TOKO UD. WAWAN Jual Kayu  Bahan Bangunan,"Jl. Perintis Kemerdekaan No.RT. 04, RT.No.20/RW.01, Benawa Tengah, Kec. Barabai, Kabupaten Hulu Sungai Tengah, Kalimantan Selatan 71313","RT.No.20/RW.01, Benawa Tengah, Kec. Barabai, Kabupaten Hulu Sungai Tengah",KALIMANTAN SELATAN,71313.0,Indonesia,8161999912.0,,,-2.5905148,115.388556,https://maps.google.com/?cid=0x0:0x85ad45d69b4ca13d,
toko bangunan,Toko Perlengkapan Rumah,Toko Bangunan,"Jl. A. Yani, Matang Ginalun, Kec. Pandawan, Kabupaten Hulu Sungai Tengah, Kalimantan Selatan 71352","Matang Ginalun, Kec. Pandawan, Kabupaten Hulu Sungai Tengah",KALIMANTAN SELATAN,71352.0,Indonesia,8161999912.0,,,-2.5866557,115.3759065,https://maps.google.com/?cid=0x0:0xf79511cc081343d5,
toko bangunan,Toko Bahan Bangunan,Al Zami Toko,"JL. Pasar Baru No.40, Banua Binjai, Kec. Barabai, Kabupaten Hulu Sungai Tengah, Kalimantan Selatan 71311","Banua Binjai, Kec. Barabai, Kabupaten Hulu Sungai Tengah",KALIMANTAN SELATAN,71311.0,Indonesia,51743157.0,,,-2.579949,115.379702,https://maps.google.com/?cid=0x0:0x1ea10fd4adbbde31,
toko bangunan,Toko Bahan Bangunan,Toko Berkat Bersama,"Jl. Ps. Baru 15 No.16, Barabai Sel., Kec. Barabai, Kabupaten Hulu Sungai Tengah, Kalimantan Selatan 71311","Barabai Sel., Kec. Barabai, Kabupaten Hulu Sungai Tengah",KALIMANTAN SELATAN,71311.0,Indonesia,51743659.0,,,-2.5867237,115.3825616,https://maps.google.com/?cid=0x0:0xbb7a27d2352c14c0,
toko bangunan,Toko Bahan Bangunan,UD Daha putra barabai,"JL. Pajukungan Simpang 3, RT. 3 RW. 2, Pajukungan, Kec. Barabai, Kabupaten Hulu Sungai Tengah, Kalimantan Selatan 71352","RT. 3 RW. 2, Pajukungan, Kec. Barabai, Kabupaten Hulu Sungai Tengah",KALIMANTAN SELATAN,71352.0,Indonesia,82153005577.0,,,-2.5998607,115.3541399,https://maps.google.com/?cid=0x0:0xf518912599d6c7a7,
toko bangunan,Toko Bahan Bangunan,Ayi Alkaff. CV,"JL. Hasan Basri No.10, RT.15, Mandingin, Kec. Barabai, Kabupaten Hulu Sungai Tengah, Kalimantan Selatan 71315","RT.15, Mandingin, Kec. Barabai, Kabupaten Hulu Sungai Tengah",KALIMANTAN SELATAN,71315.0,Indonesia,51743098.0,,,-2.5756573,115.3915751,https://maps.google.com/?cid=0x0:0xc337a9228b184666,
toko bangunan,Toko Bahan Bangunan,Muis Batako,"CC74+3M4, Aluan Besar, Kec. Batu Benawa, Kabupaten Hulu Sungai Tengah, Kalimantan Selatan 71315","Aluan Besar, Kec. Batu Benawa, Kabupaten Hulu Sungai Tengah",KALIMANTAN SELATAN,71315.0,Indonesia,81934669603.0,,,-2.5941016,115.409545,https://maps.google.com/?cid=0x0:0xc47ecbbd9bb950e1,
toko bangunan,Toko Perlengkapan Rumah,Pangkalan Kayu Jafian,"JL. Perintis Kemerdekaan, RT. 07 RW. 02 No. 27, Benawa Tengah, Kec. Barabai, Kabupaten Hulu Sungai Tengah, Kalimantan Selatan 71314","RT. 07 RW. 02 No. 27, Benawa Tengah, Kec. Barabai, Kabupaten Hulu Sungai Tengah",KALIMANTAN SELATAN,71314.0,Indonesia,85350405322.0,,,-2.5952572,115.3926016,https://maps.google.com/?cid=0x0:0x1989966bc4a00394,
toko bangunan,toko bangunan,Kalimantan Selatan 71312,"Kec. Barabai, Kabupaten Hulu Sungai Tengah, Kalimantan Selatan","Kabupaten Hulu Sungai Tengah, Kalimantan Selatan",KALIMANTAN SELATAN,,Indonesia,,,,-2.5689041,115.3938342,https://maps.google.com/?cid=0x0:0xfb7e28897b88c2f5,
toko bangunan,Toko Bahan Bangunan,TOKO HUSNA,"Jl. Surapati No.42, RT.002/RW.005, Barabai Tim., Kec. Barabai, Kabupaten Hulu Sungai Tengah, Kalimantan Selatan 71315","RT.002/RW.005, Barabai Tim., Kec. Barabai, Kabupaten Hulu Sungai Tengah",KALIMANTAN SELATAN,71315.0,Indonesia,821533228455.0,,,-2.5676016,115.3869127,https://maps.google.com/?cid=0x0:0x32aefeb2a652368b,
toko bangunan,Toko Bahan Bangunan,Toko Sahabat Barabai,"Jl. M. Ramli, Barabai Darat, Kec. Barabai, Kabupaten Hulu Sungai Tengah, Kalimantan Selatan 71352","Barabai Darat, Kec. Barabai, Kabupaten Hulu Sungai Tengah",KALIMANTAN SELATAN,71352.0,Indonesia,82154197501.0,,,-2.5928275,115.3849778,https://maps.google.com/?cid=0x0:0x487746f7550b8aad,
toko bangunan,toko bangunan,UD. BERKAT BERSAUDARA,"C9JM+6V4, Banua Jingah, Kec. Barabai, Kabupaten Hulu Sungai Tengah, Kalimantan Selatan 71315","Banua Jingah, Kec. Barabai, Kabupaten Hulu Sungai Tengah",KALIMANTAN SELATAN,71315.0,Indonesia,85821212232.0,,,-2.5694643,115.3847151,https://maps.google.com/?cid=0x0:0x83bdb13611980ca8,
toko bangunan,Toko Bahan Bangunan,UD Daha putra barabai,"JL. Pajukungan Simpang 3, RT. 3 RW. 2, Pajukungan, Kec. Barabai, Kabupaten Hulu Sungai Tengah, Kalimantan Selatan 71352","RT. 3 RW. 2, Pajukungan, Kec. Barabai, Kabupaten Hulu Sungai Tengah",KALIMANTAN SELATAN,71352.0,Indonesia,82153005577.0,,,-2.5998607,115.3541399,https://maps.google.com/?cid=0x0:0xf518912599d6c7a7,
toko bangunan,Toko Perlengkapan Rumah,Toko Bangunan,"Jl. A. Yani, Matang Ginalun, Kec. Pandawan, Kabupaten Hulu Sungai Tengah, Kalimantan Selatan 71352","Matang Ginalun, Kec. Pandawan, Kabupaten Hulu Sungai Tengah",KALIMANTAN SELATAN,71352.0,Indonesia,8161999912.0,,,-2.5866557,115.3759065,https://maps.google.com/?cid=0x0:0xf79511cc081343d5,
toko bangunan,Toko Bahan Bangunan,TOKO UD. WAWAN Jual Kayu  Bahan Bangunan,"Jl. Perintis Kemerdekaan No.RT. 04, RT.No.20/RW.01, Benawa Tengah, Kec. Barabai, Kabupaten Hulu Sungai Tengah, Kalimantan Selatan 71313","RT.No.20/RW.01, Benawa Tengah, Kec. Barabai, Kabupaten Hulu Sungai Tengah",KALIMANTAN SELATAN,71313.0,Indonesia,8161999912.0,,,-2.5905148,115.388556,https://maps.google.com/?cid=0x0:0x85ad45d69b4ca13d,
toko bangunan,Toko Bahan Bangunan,Ayi Alkaff. CV,"JL. Hasan Basri No.10, RT.15, Mandingin, Kec. Barabai, Kabupaten Hulu Sungai Tengah, Kalimantan Selatan 71315","RT.15, Mandingin, Kec. Barabai, Kabupaten Hulu Sungai Tengah",KALIMANTAN SELATAN,71315.0,Indonesia,51743098.0,,,-2.5756573,115.3915751,https://maps.google.com/?cid=0x0:0xc337a9228b184666,
toko bangunan,Toko Bahan Bangunan,Toko Berkat Bersama,"Jl. Ps. Baru 15 No.16, Barabai Sel., Kec. Barabai, Kabupaten Hulu Sungai Tengah, Kalimantan Selatan 71311","Barabai Sel., Kec. Barabai, Kabupaten Hulu Sungai Tengah",KALIMANTAN SELATAN,71311.0,Indonesia,51743659.0,,,-2.5867237,115.3825616,https://maps.google.com/?cid=0x0:0xbb7a27d2352c14c0,
toko bangunan,Toko Bahan Bangunan,UD. Karya Abadi,"Jl. Surapati, Banua Jingah, Kec. Barabai, Kabupaten Hulu Sungai Tengah, Kalimantan Selatan 71315","Banua Jingah, Kec. Barabai, Kabupaten Hulu Sungai Tengah",KALIMANTAN SELATAN,71315.0,Indonesia,85348753072.0,,,-2.5654667,115.3869646,https://maps.google.com/?cid=0x0:0x7cd05325d89939ed,
toko bangunan,toko bangunan,Kalimantan Selatan 71313,"Kec. Barabai, Kabupaten Hulu Sungai Tengah, Kalimantan Selatan","Kabupaten Hulu Sungai Tengah, Kalimantan Selatan",KALIMANTAN SELATAN,,Indonesia,,,,-2.5853549,115.394865,https://maps.google.com/?cid=0x0:0x725a7ebf48ce4344,
toko bangunan,Toko Bahan Bangunan,Toko Sahabat Barabai,"Jl. M. Ramli, Barabai Darat, Kec. Barabai, Kabupaten Hulu Sungai Tengah, Kalimantan Selatan 71352","Barabai Darat, Kec. Barabai, Kabupaten Hulu Sungai Tengah",KALIMANTAN SELATAN,71352.0,Indonesia,82154197501.0,,,-2.5928275,115.3849778,https://maps.google.com/?cid=0x0:0x487746f7550b8aad,
toko bangunan,Toko Bahan Bangunan,TB. KHALISA,"C99Q+W4R Fotocopy Nena, Dekat, Jl. Ir. Pangeran Haji Muhammad Nur No.46, Barabai Tim., Kec. Barabai, Kabupaten Hulu Sungai Tengah, Kalimantan Selatan 71315","Dekat, Jl. Ir. Pangeran Haji Muhammad Nur No.46, Barabai Tim., Kec. Barabai, Kabupaten Hulu Sungai Tengah",KALIMANTAN SELATAN,71315.0,Indonesia,87781689990.0,,,-2.579826,115.3878259,https://maps.google.com/?cid=0x0:0x861f73d7d7b32c50,
toko bangunan,Toko Bahan Bangunan,TOKO UD. WAWAN Jual Kayu  Bahan Bangunan,"Jl. Perintis Kemerdekaan No.RT. 04, RT.No.20/RW.01, Benawa Tengah, Kec. Barabai, Kabupaten Hulu Sungai Tengah, Kalimantan Selatan 71313","RT.No.20/RW.01, Benawa Tengah, Kec. Barabai, Kabupaten Hulu Sungai Tengah",KALIMANTAN SELATAN,71313.0,Indonesia,8161999912.0,,,-2.5905148,115.388556,https://maps.google.com/?cid=0x0:0x85ad45d69b4ca13d,
toko bangunan,Toko Bahan Bangunan,Cahaya Samudra,"C95Q+9HX, Jl. Perintis Kemerdekaan, Benawa Tengah, Kec. Barabai, Kabupaten Hulu Sungai Tengah, Kalimantan Selatan 71313","Jl. Perintis Kemerdekaan, Benawa Tengah, Kec. Barabai, Kabupaten Hulu Sungai Tengah",KALIMANTAN SELATAN,71313.0,Indonesia,82250209783.0,,,-2.5915024,115.3889824,https://maps.google.com/?cid=0x0:0x39b876742d71f7d5,
toko bangunan,Toko Bahan Bangunan,Toko Dayat.BRb,"Jl. Brigjen H. Hasan Basri, Barabai Sel., Kec. Barabai, Kabupaten Hulu Sungai Tengah, Kalimantan Selatan 71352","Barabai Sel., Kec. Barabai, Kabupaten Hulu Sungai Tengah",KALIMANTAN SELATAN,71352.0,Indonesia,82154778424.0,,,-2.5886563,115.3815765,https://maps.google.com/?cid=0x0:0xedcad59381ffc989,
toko bangunan,Toko Bahan Bangunan,TB Cahaya Baru,"C99P+Q99, Jl. Surapati, Barabai Tim., Kec. Barabai, Kabupaten Hulu Sungai Tengah, Kalimantan Selatan 71315","Jl. Surapati, Barabai Tim., Kec. Barabai, Kabupaten Hulu Sungai Tengah",KALIMANTAN SELATAN,71315.0,Indonesia,85169981293.0,,,-2.5805883,115.3859793,https://maps.google.com/?cid=0x0:0x1d69a2690d43e67b,
toko bangunan,Toko Perlengkapan Rumah,Toko Bangunan,"Jl. A. Yani, Matang Ginalun, Kec. Pandawan, Kabupaten Hulu Sungai Tengah, Kalimantan Selatan 71352","Matang Ginalun, Kec. Pandawan, Kabupaten Hulu Sungai Tengah",KALIMANTAN SELATAN,71352.0,Indonesia,8161999912.0,,,-2.5866557,115.3759065,https://maps.google.com/?cid=0x0:0xf79511cc081343d5,
toko bangunan,Toko Bahan Bangunan,UD Daha putra barabai,"JL. Pajukungan Simpang 3, RT. 3 RW. 2, Pajukungan, Kec. Barabai, Kabupaten Hulu Sungai Tengah, Kalimantan Selatan 71352","RT. 3 RW. 2, Pajukungan, Kec. Barabai, Kabupaten Hulu Sungai Tengah",KALIMANTAN SELATAN,71352.0,Indonesia,82153005577.0,,,-2.5998607,115.3541399,https://maps.google.com/?cid=0x0:0xf518912599d6c7a7,
toko bangunan,Toko Bahan Bangunan,UD.PUTERA HARAPAN IBU,"C96J+W72, Barabai Sel., Kec. Barabai, Kabupaten Hulu Sungai Tengah, Kalimantan Selatan 71352","Barabai Sel., Kec. Barabai, Kabupaten Hulu Sungai Tengah",KALIMANTAN SELATAN,71352.0,Indonesia,,,,-2.5877449,115.3806393,https://maps.google.com/?cid=0x0:0x183fd2c97f3f8664,
toko bangunan,Toko Bahan Bangunan,"BERKAT BERSAMA,TB","C98H+27W, Barabai Utara, Kec. Barabai, Kabupaten Hulu Sungai Tengah, Kalimantan Selatan 71352","Barabai Utara, Kec. Barabai, Kabupaten Hulu Sungai Tengah",KALIMANTAN SELATAN,71352.0,Indonesia,,,,-2.584891,115.3782035,https://maps.google.com/?cid=0x0:0x7ef03002a9470f92,
toko bangunan,Toko Bahan Bangunan,Toko Berkat Bersama,"Jl. Ps. Baru 15 No.16, Barabai Sel., Kec. Barabai, Kabupaten Hulu Sungai Tengah, Kalimantan Selatan 71311","Barabai Sel., Kec. Barabai, Kabupaten Hulu Sungai Tengah",KALIMANTAN SELATAN,71311.0,Indonesia,51743659.0,,,-2.5867237,115.3825616,https://maps.google.com/?cid=0x0:0xbb7a27d2352c14c0,
toko bangunan,Toko Bahan Bangunan,Toko Hani,"blok bahan bangunan, Jl.Pasar 2 Pusat Perbelanjaan, Jl. Murakata No.13-14, Kec. Barabai, Kalimantan Selatan 71311","Jl.Pasar 2 Pusat Perbelanjaan, Jl. Murakata No.13-14, Kec. Barabai",KALIMANTAN SELATAN,71311.0,Indonesia,82186587550.0,,,-2.5868724,115.3832749,https://maps.google.com/?cid=0x0:0xa1649588058e023a,
toko bangunan,toko bangunan,UD. BERKAT BERSAUDARA,"C9JM+6V4, Banua Jingah, Kec. Barabai, Kabupaten Hulu Sungai Tengah, Kalimantan Selatan 71315","Banua Jingah, Kec. Barabai, Kabupaten Hulu Sungai Tengah",KALIMANTAN SELATAN,71315.0,Indonesia,85821212232.0,,,-2.5694643,115.3847151,https://maps.google.com/?cid=0x0:0x83bdb13611980ca8,
toko bangunan,Toko Bahan Bangunan,TOKO BANGUNAN HASSAN,"C96J+J3V, Jl. Ir. Pangeran Haji Muhammad Nur, Barabai Bar., Kec. Barabai, Kabupaten Hulu Sungai Tengah, Kalimantan Selatan 71352","Jl. Ir. Pangeran Haji Muhammad Nur, Barabai Bar., Kec. Barabai, Kabupaten Hulu Sungai Tengah",KALIMANTAN SELATAN,71352.0,Indonesia,,,,-2.5883825,115.380175,https://maps.google.com/?cid=0x0:0x37aeefdfba225a86,
toko bangunan,Toko Bahan Bangunan,UD. SUMBER REZEKI,"Jl. Keramat Manjang, Barabai Utara, Kec. Barabai, Kabupaten Hulu Sungai Tengah, Kalimantan Selatan 71314","Barabai Utara, Kec. Barabai, Kabupaten Hulu Sungai Tengah",KALIMANTAN SELATAN,71314.0,Indonesia,85750763231.0,,,-2.5881347,115.3796018,https://maps.google.com/?cid=0x0:0x286a9c74f4795468,
toko bangunan,Toko Bahan Bangunan,Berkati Baut Teknik,"Jl. Pasar 2 No.49, Barabai Sel., Kec. Barabai, Kabupaten Hulu Sungai Tengah, Kalimantan Selatan 71352","Barabai Sel., Kec. Barabai, Kabupaten Hulu Sungai Tengah",KALIMANTAN SELATAN,71352.0,Indonesia,85725876343.0,,,-2.5857363,115.3820978,https://maps.google.com/?cid=0x0:0xc55da7f6b09285cc,
toko bangunan,Toko Bahan Bangunan,Al Zami Toko,"JL. Pasar Baru No.40, Banua Binjai, Kec. Barabai, Kabupaten Hulu Sungai Tengah, Kalimantan Selatan 71311","Banua Binjai, Kec. Barabai, Kabupaten Hulu Sungai Tengah",KALIMANTAN SELATAN,71311.0,Indonesia,51743157.0,,,-2.579949,115.379702,https://maps.google.com/?cid=0x0:0x1ea10fd4adbbde31,
toko bangunan,Toko Bahan Bangunan,"Toko UD. Ikhtiar (Jual Baut, Mur, Seling, Kawat)","Jl. Pasar 2, Blok Bahan Bangunan Pusat Perbelanjaan Murakata, Barabai, Barabai Sel., Kec. Barabai, Kabupaten Hulu Sungai Tengah, Kalimantan Selatan 71311","Blok Bahan Bangunan Pusat Perbelanjaan Murakata, Barabai, Barabai Sel., Kec. Barabai, Kabupaten Hulu Sungai Tengah",KALIMANTAN SELATAN,71311.0,Indonesia,89624583121.0,,,-2.5869778,115.3833636,https://maps.google.com/?cid=0x0:0x5b08ff550cd86b3c,
toko bangunan,Toko Bahan Bangunan,Ayi Alkaff. CV,"JL. Hasan Basri No.10, RT.15, Mandingin, Kec. Barabai, Kabupaten Hulu Sungai Tengah, Kalimantan Selatan 71315","RT.15, Mandingin, Kec. Barabai, Kabupaten Hulu Sungai Tengah",KALIMANTAN SELATAN,71315.0,Indonesia,51743098.0,,,-2.5756573,115.3915751,https://maps.google.com/?cid=0x0:0xc337a9228b184666,
toko bangunan,Toko Bahan Bangunan,TB AL BARKAH,"C97H+5RJ, Barabai Utara, Kec. Barabai, Kabupaten Hulu Sungai Tengah, Kalimantan Selatan","Kabupaten Hulu Sungai Tengah, Kalimantan Selatan",KALIMANTAN SELATAN,,Indonesia,,,,-2.5870491,115.3795146,https://maps.google.com/?cid=0x0:0x2f3e158615bf1923,
toko bangunan,Toko Cat,Samurai Paint - Tb. Hidup Jaya Makmur,"JL. H. Muhammad Sarkowi No.61 RT. 7, Barabai Sel., Kec. Barabai, Kabupaten Hulu Sungai Tengah, Kalimantan Selatan 71352","Barabai Sel., Kec. Barabai, Kabupaten Hulu Sungai Tengah",KALIMANTAN SELATAN,71352.0,Indonesia,,,,-2.5873027,115.3837361,https://maps.google.com/?cid=0x0:0x20461bad4926538f,
toko bangunan,toko bangunan,Kalimantan Selatan 71314,"Benawa Tengah, Kec. Barabai, Kabupaten Hulu Sungai Tengah, Kalimantan Selatan","Kabupaten Hulu Sungai Tengah, Kalimantan Selatan",KALIMANTAN SELATAN,,Indonesia,,,,-2.5966259,115.394865,https://maps.google.com/?cid=0x0:0x3d12d2a3a3261dd4,
toko bangunan,Toko Bahan Bangunan,Toko Sahabat Barabai,"Jl. M. Ramli, Barabai Darat, Kec. Barabai, Kabupaten Hulu Sungai Tengah, Kalimantan Selatan 71352","Barabai Darat, Kec. Barabai, Kabupaten Hulu Sungai Tengah",KALIMANTAN SELATAN,71352.0,Indonesia,82154197501.0,,,-2.5928275,115.3849778,https://maps.google.com/?cid=0x0:0x487746f7550b8aad,
toko bangunan,Toko Bahan Bangunan,TOKO HUSNA,"Jl. Surapati No.42, RT.002/RW.005, Barabai Tim., Kec. Barabai, Kabupaten Hulu Sungai Tengah, Kalimantan Selatan 71315","RT.002/RW.005, Barabai Tim., Kec. Barabai, Kabupaten Hulu Sungai Tengah",KALIMANTAN SELATAN,71315.0,Indonesia,821533228455.0,,,-2.5676016,115.3869127,https://maps.google.com/?cid=0x0:0x32aefeb2a652368b,
toko bangunan,Toko Bahan Bangunan,TOKO UD. WAWAN Jual Kayu  Bahan Bangunan,"Jl. Perintis Kemerdekaan No.RT. 04, RT.No.20/RW.01, Benawa Tengah, Kec. Barabai, Kabupaten Hulu Sungai Tengah, Kalimantan Selatan 71313","RT.No.20/RW.01, Benawa Tengah, Kec. Barabai, Kabupaten Hulu Sungai Tengah",KALIMANTAN SELATAN,71313.0,Indonesia,8161999912.0,,,-2.5905148,115.388556,https://maps.google.com/?cid=0x0:0x85ad45d69b4ca13d,
toko bangunan,Toko Bahan Bangunan,Cahaya Samudra,"C95Q+9HX, Jl. Perintis Kemerdekaan, Benawa Tengah, Kec. Barabai, Kabupaten Hulu Sungai Tengah, Kalimantan Selatan 71313","Jl. Perintis Kemerdekaan, Benawa Tengah, Kec. Barabai, Kabupaten Hulu Sungai Tengah",KALIMANTAN SELATAN,71313.0,Indonesia,82250209783.0,,,-2.5915024,115.3889824,https://maps.google.com/?cid=0x0:0x39b876742d71f7d5,
toko bangunan,Toko Bahan Bangunan,TB Cahaya Baru,"C99P+Q99, Jl. Surapati, Barabai Tim., Kec. Barabai, Kabupaten Hulu Sungai Tengah, Kalimantan Selatan 71315","Jl. Surapati, Barabai Tim., Kec. Barabai, Kabupaten Hulu Sungai Tengah",KALIMANTAN SELATAN,71315.0,Indonesia,85169981293.0,,,-2.5805883,115.3859793,https://maps.google.com/?cid=0x0:0x1d69a2690d43e67b,
toko bangunan,Toko Bahan Bangunan,UD. Berkat Kawan,"99WM+C64, Jl. Kayu Bawang, Kayu Bawang, Kec. Barabai, Kabupaten Hulu Sungai Tengah, Kalimantan Selatan 71315","Jl. Kayu Bawang, Kayu Bawang, Kec. Barabai, Kabupaten Hulu Sungai Tengah",KALIMANTAN SELATAN,71315.0,Indonesia,85248349577.0,,,-2.6039934,115.3830703,https://maps.google.com/?cid=0x0:0xe791ff78b211c079,
toko bangunan,Toko Perlengkapan Rumah,Pangkalan Kayu Jafian,"JL. Perintis Kemerdekaan, RT. 07 RW. 02 No. 27, Benawa Tengah, Kec. Barabai, Kabupaten Hulu Sungai Tengah, Kalimantan Selatan 71314","RT. 07 RW. 02 No. 27, Benawa Tengah, Kec. Barabai, Kabupaten Hulu Sungai Tengah",KALIMANTAN SELATAN,71314.0,Indonesia,85350405322.0,,,-2.5952572,115.3926016,https://maps.google.com/?cid=0x0:0x1989966bc4a00394,
toko bangunan,Toko Perlengkapan Rumah,Toko Bangunan,"Jl. A. Yani, Matang Ginalun, Kec. Pandawan, Kabupaten Hulu Sungai Tengah, Kalimantan Selatan 71352","Matang Ginalun, Kec. Pandawan, Kabupaten Hulu Sungai Tengah",KALIMANTAN SELATAN,71352.0,Indonesia,8161999912.0,,,-2.5866557,115.3759065,https://maps.google.com/?cid=0x0:0xf79511cc081343d5,
toko bangunan,Toko Bahan Bangunan,UD Daha putra barabai,"JL. Pajukungan Simpang 3, RT. 3 RW. 2, Pajukungan, Kec. Barabai, Kabupaten Hulu Sungai Tengah, Kalimantan Selatan 71352","RT. 3 RW. 2, Pajukungan, Kec. Barabai, Kabupaten Hulu Sungai Tengah",KALIMANTAN SELATAN,71352.0,Indonesia,82153005577.0,,,-2.5998607,115.3541399,https://maps.google.com/?cid=0x0:0xf518912599d6c7a7,
toko bangunan,Toko Bahan Bangunan,Toko Berkat Bersama,"Jl. Ps. Baru 15 No.16, Barabai Sel., Kec. Barabai, Kabupaten Hulu Sungai Tengah, Kalimantan Selatan 71311","Barabai Sel., Kec. Barabai, Kabupaten Hulu Sungai Tengah",KALIMANTAN SELATAN,71311.0,Indonesia,51743659.0,,,-2.5867237,115.3825616,https://maps.google.com/?cid=0x0:0xbb7a27d2352c14c0,
toko bangunan,Toko Bahan Bangunan,Al Zami Toko,"JL. Pasar Baru No.40, Banua Binjai, Kec. Barabai, Kabupaten Hulu Sungai Tengah, Kalimantan Selatan 71311","Banua Binjai, Kec. Barabai, Kabupaten Hulu Sungai Tengah",KALIMANTAN SELATAN,71311.0,Indonesia,51743157.0,,,-2.579949,115.379702,https://maps.google.com/?cid=0x0:0x1ea10fd4adbbde31,
toko bangunan,Toko Bahan Bangunan,"USAHA BERSAMA,TB","C97H+XC2, Barabai Utara, Kec. Barabai, Kabupaten Hulu Sungai Tengah, Kalimantan Selatan 71352","Barabai Utara, Kec. Barabai, Kabupaten Hulu Sungai Tengah",KALIMANTAN SELATAN,71352.0,Indonesia,,,,-2.5851167,115.3785118,https://maps.google.com/?cid=0x0:0x3924c0af84709018,
toko bangunan,Toko Bahan Bangunan,"BERKAT BERSAMA,TB","C98H+27W, Barabai Utara, Kec. Barabai, Kabupaten Hulu Sungai Tengah, Kalimantan Selatan 71352","Barabai Utara, Kec. Barabai, Kabupaten Hulu Sungai Tengah",KALIMANTAN SELATAN,71352.0,Indonesia,,,,-2.584891,115.3782035,https://maps.google.com/?cid=0x0:0x7ef03002a9470f92,
toko bangunan,toko bangunan,Kalimantan Selatan 71315,"Kabupaten Hulu Sungai Tengah, Kalimantan Selatan","Kabupaten Hulu Sungai Tengah, Kalimantan Selatan",KALIMANTAN SELATAN,,Indonesia,,,,-2.60423,115.408195,https://maps.google.com/?cid=0x0:0xad27ea94b85d46bf,
toko bangunan,Toko Bahan Bangunan,TOKO HUSNA,"Jl. Surapati No.42, RT.002/RW.005, Barabai Tim., Kec. Barabai, Kabupaten Hulu Sungai Tengah, Kalimantan Selatan 71315","RT.002/RW.005, Barabai Tim., Kec. Barabai, Kabupaten Hulu Sungai Tengah",KALIMANTAN SELATAN,71315.0,Indonesia,821533228455.0,,,-2.5676016,115.3869127,https://maps.google.com/?cid=0x0:0x32aefeb2a652368b,
toko bangunan,Toko Bahan Bangunan,Toko Sahabat Barabai,"Jl. M. Ramli, Barabai Darat, Kec. Barabai, Kabupaten Hulu Sungai Tengah, Kalimantan Selatan 71352","Barabai Darat, Kec. Barabai, Kabupaten Hulu Sungai Tengah",KALIMANTAN SELATAN,71352.0,Indonesia,82154197501.0,,,-2.5928275,115.3849778,https://maps.google.com/?cid=0x0:0x487746f7550b8aad,
toko bangunan,Toko Bahan Bangunan,TB Cahaya Baru,"C99P+Q99, Jl. Surapati, Barabai Tim., Kec. Barabai, Kabupaten Hulu Sungai Tengah, Kalimantan Selatan 71315","Jl. Surapati, Barabai Tim., Kec. Barabai, Kabupaten Hulu Sungai Tengah",KALIMANTAN SELATAN,71315.0,Indonesia,85169981293.0,,,-2.5805883,115.3859793,https://maps.google.com/?cid=0x0:0x1d69a2690d43e67b,
toko bangunan,toko bangunan,UD. BERKAT BERSAUDARA,"C9JM+6V4, Banua Jingah, Kec. Barabai, Kabupaten Hulu Sungai Tengah, Kalimantan Selatan 71315","Banua Jingah, Kec. Barabai, Kabupaten Hulu Sungai Tengah",KALIMANTAN SELATAN,71315.0,Indonesia,85821212232.0,,,-2.5694643,115.3847151,https://maps.google.com/?cid=0x0:0x83bdb13611980ca8,
toko bangunan,Toko Bahan Bangunan,Toko Dayat.BRb,"Jl. Brigjen H. Hasan Basri, Barabai Sel., Kec. Barabai, Kabupaten Hulu Sungai Tengah, Kalimantan Selatan 71352","Barabai Sel., Kec. Barabai, Kabupaten Hulu Sungai Tengah",KALIMANTAN SELATAN,71352.0,Indonesia,82154778424.0,,,-2.5886563,115.3815765,https://maps.google.com/?cid=0x0:0xedcad59381ffc989,
toko bangunan,Toko Bahan Bangunan,"USAHA BERSAMA,TB","C97H+XC2, Barabai Utara, Kec. Barabai, Kabupaten Hulu Sungai Tengah, Kalimantan Selatan 71352","Barabai Utara, Kec. Barabai, Kabupaten Hulu Sungai Tengah",KALIMANTAN SELATAN,71352.0,Indonesia,,,,-2.5851167,115.3785118,https://maps.google.com/?cid=0x0:0x3924c0af84709018,
toko bangunan,Toko Bahan Bangunan,UD.Berkah Muhibbin,"Banua Jingah, Kec. Barabai, Kabupaten Hulu Sungai Tengah, Kalimantan Selatan 71315","Kec. Barabai, Kabupaten Hulu Sungai Tengah",KALIMANTAN SELATAN,71315.0,Indonesia,8125007197.0,,,-2.5681521,115.3877747,https://maps.google.com/?cid=0x0:0x6721013f2232f843,
toko bangunan,Toko Bahan Bangunan,UD. Berkat Kawan,"99WM+C64, Jl. Kayu Bawang, Kayu Bawang, Kec. Barabai, Kabupaten Hulu Sungai Tengah, Kalimantan Selatan 71315","Jl. Kayu Bawang, Kayu Bawang, Kec. Barabai, Kabupaten Hulu Sungai Tengah",KALIMANTAN SELATAN,71315.0,Indonesia,85248349577.0,,,-2.6039934,115.3830703,https://maps.google.com/?cid=0x0:0xe791ff78b211c079,
toko bangunan,Toko Bahan Bangunan,toko BANGUNAN NENE AQILA,"C9RC+MJ6, Unnamed Road, Babai, Kec. Barabai, Kabupaten Hulu Sungai Tengah, Kalimantan Selatan 71352","Unnamed Road, Babai, Kec. Barabai, Kabupaten Hulu Sungai Tengah",KALIMANTAN SELATAN,71352.0,Indonesia,85705852845.0,,,-2.5583467,115.3715055,https://maps.google.com/?cid=0x0:0x9cc25f0cb86a936f,
toko bangunan,Toko Bahan Bangunan,"BERKAT BERSAMA,TB","C98H+27W, Barabai Utara, Kec. Barabai, Kabupaten Hulu Sungai Tengah, Kalimantan Selatan 71352","Barabai Utara, Kec. Barabai, Kabupaten Hulu Sungai Tengah",KALIMANTAN SELATAN,71352.0,Indonesia,,,,-2.584891,115.3782035,https://maps.google.com/?cid=0x0:0x7ef03002a9470f92,
toko bangunan,Toko Perlengkapan Rumah,Toko Bangunan,"Jl. A. Yani, Matang Ginalun, Kec. Pandawan, Kabupaten Hulu Sungai Tengah, Kalimantan Selatan 71352","Matang Ginalun, Kec. Pandawan, Kabupaten Hulu Sungai Tengah",KALIMANTAN SELATAN,71352.0,Indonesia,8161999912.0,,,-2.5866557,115.3759065,https://maps.google.com/?cid=0x0:0xf79511cc081343d5,
toko bangunan,Toko Bahan Bangunan,TOKO UD. WAWAN Jual Kayu  Bahan Bangunan,"Jl. Perintis Kemerdekaan No.RT. 04, RT.No.20/RW.01, Benawa Tengah, Kec. Barabai, Kabupaten Hulu Sungai Tengah, Kalimantan Selatan 71313","RT.No.20/RW.01, Benawa Tengah, Kec. Barabai, Kabupaten Hulu Sungai Tengah",KALIMANTAN SELATAN,71313.0,Indonesia,8161999912.0,,,-2.5905148,115.388556,https://maps.google.com/?cid=0x0:0x85ad45d69b4ca13d,
toko bangunan,Toko Bahan Bangunan,Bahan Bangunan UD ANUGRAH/Wantilan,"RT.006/RW.003, Pajukungan, Kec. Barabai, Kabupaten Hulu Sungai Tengah, Kalimantan Selatan 71315","Pajukungan, Kec. Barabai, Kabupaten Hulu Sungai Tengah",KALIMANTAN SELATAN,71315.0,Indonesia,,,,-2.5987253,115.3495238,https://maps.google.com/?cid=0x0:0xc51436275f38e1fa,
toko bangunan,Toko Bahan Bangunan,Cahaya Samudra,"C95Q+9HX, Jl. Perintis Kemerdekaan, Benawa Tengah, Kec. Barabai, Kabupaten Hulu Sungai Tengah, Kalimantan Selatan 71313","Jl. Perintis Kemerdekaan, Benawa Tengah, Kec. Barabai, Kabupaten Hulu Sungai Tengah",KALIMANTAN SELATAN,71313.0,Indonesia,82250209783.0,,,-2.5915024,115.3889824,https://maps.google.com/?cid=0x0:0x39b876742d71f7d5,
toko bangunan,Toko Bahan Bangunan,UD.PUTERA HARAPAN IBU,"C96J+W72, Barabai Sel., Kec. Barabai, Kabupaten Hulu Sungai Tengah, Kalimantan Selatan 71352","Barabai Sel., Kec. Barabai, Kabupaten Hulu Sungai Tengah",KALIMANTAN SELATAN,71352.0,Indonesia,,,,-2.5877449,115.3806393,https://maps.google.com/?cid=0x0:0x183fd2c97f3f8664,
toko bangunan,Toko Bahan Bangunan,Toko Berkah Abadi,"9CH9+H8X, Pagat, Kec. Batu Benawa, Kabupaten Hulu Sungai Tengah, Kalimantan Selatan 71371","Pagat, Kec. Batu Benawa, Kabupaten Hulu Sungai Tengah",KALIMANTAN SELATAN,71371.0,Indonesia,,,,-2.621745,115.4189828,https://maps.google.com/?cid=0x0:0x1aaede1d712f3d29,
toko bangunan,Toko Bahan Bangunan,Toko AKBAR Bahan Bangunan Dan Sembako,"Aluan Mati, Kec. Batu Benawa, Kabupaten Hulu Sungai Tengah, Kalimantan Selatan","Kabupaten Hulu Sungai Tengah, Kalimantan Selatan",KALIMANTAN SELATAN,,Indonesia,8161999912.0,,,-2.6112108,115.4275802,https://maps.google.com/?cid=0x0:0xa19ce8f0bfeb1d32,
toko bangunan,Toko Bahan Bangunan,UD Daha putra barabai,"JL. Pajukungan Simpang 3, RT. 3 RW. 2, Pajukungan, Kec. Barabai, Kabupaten Hulu Sungai Tengah, Kalimantan Selatan 71352","RT. 3 RW. 2, Pajukungan, Kec. Barabai, Kabupaten Hulu Sungai Tengah",KALIMANTAN SELATAN,71352.0,Indonesia,82153005577.0,,,-2.5998607,115.3541399,https://maps.google.com/?cid=0x0:0xf518912599d6c7a7,
toko bangunan,Toko Bahan Bangunan,Ayi Alkaff. CV,"JL. Hasan Basri No.10, RT.15, Mandingin, Kec. Barabai, Kabupaten Hulu Sungai Tengah, Kalimantan Selatan 71315","RT.15, Mandingin, Kec. Barabai, Kabupaten Hulu Sungai Tengah",KALIMANTAN SELATAN,71315.0,Indonesia,51743098.0,,,-2.5756573,115.3915751,https://maps.google.com/?cid=0x0:0xc337a9228b184666,
toko bangunan,Toko Bahan Bangunan,Toko Rahmat Terang,"C949+9MH, Bukat, Kec. Barabai, Kabupaten Hulu Sungai Tengah, Kalimantan Selatan 71352","Bukat, Kec. Barabai, Kabupaten Hulu Sungai Tengah",KALIMANTAN SELATAN,71352.0,Indonesia,,,,-2.5940507,115.36925,https://maps.google.com/?cid=0x0:0xe20be4adf816840d,
toko bangunan,Toko Bahan Bangunan,Toko Berkat Bersama,"Jl. Ps. Baru 15 No.16, Barabai Sel., Kec. Barabai, Kabupaten Hulu Sungai Tengah, Kalimantan Selatan 71311","Barabai Sel., Kec. Barabai, Kabupaten Hulu Sungai Tengah",KALIMANTAN SELATAN,71311.0,Indonesia,51743659.0,,,-2.5867237,115.3825616,https://maps.google.com/?cid=0x0:0xbb7a27d2352c14c0,
toko bangunan,Toko Bahan Bangunan,Tb. Annisa Rasau (Barabai),"Matang Ginalun, Kec. Pandawan, Kabupaten Hulu Sungai Tengah, Kalimantan Selatan 71352","Kec. Pandawan, Kabupaten Hulu Sungai Tengah",KALIMANTAN SELATAN,71352.0,Indonesia,81351482275.0,,,-2.5855869,115.3720548,https://maps.google.com/?cid=0x0:0x814cd2b28f7225dc,
toko bangunan,Toko Bahan Bangunan,Al Zami Toko,"JL. Pasar Baru No.40, Banua Binjai, Kec. Barabai, Kabupaten Hulu Sungai Tengah, Kalimantan Selatan 71311","Banua Binjai, Kec. Barabai, Kabupaten Hulu Sungai Tengah",KALIMANTAN SELATAN,71311.0,Indonesia,51743157.0,,,-2.579949,115.379702,https://maps.google.com/?cid=0x0:0x1ea10fd4adbbde31,
toko bangunan,Toko Bahan Bangunan,UD. Karya Abadi,"Jl. Surapati, Banua Jingah, Kec. Barabai, Kabupaten Hulu Sungai Tengah, Kalimantan Selatan 71315","Banua Jingah, Kec. Barabai, Kabupaten Hulu Sungai Tengah",KALIMANTAN SELATAN,71315.0,Indonesia,85348753072.0,,,-2.5654667,115.3869646,https://maps.google.com/?cid=0x0:0x7cd05325d89939ed,
toko bangunan,toko bangunan,Kalimantan Selatan 71381,"Kabupaten Hulu Sungai Tengah, Kalimantan Selatan","Kabupaten Hulu Sungai Tengah, Kalimantan Selatan",KALIMANTAN SELATAN,,Indonesia,,,,-2.5710339,115.4852012,https://maps.google.com/?cid=0x0:0xacec445d051bf2,
toko bangunan,Toko Bahan Bangunan,Tb. Hidayah Bangunan,"FC2W+QCC, Jl. Merdeka, Birayang, Kec. Batang Alai Sel., Kabupaten Hulu Sungai Tengah, Kalimantan Selatan 71381","Jl. Merdeka, Birayang, Kec. Batang Alai Sel., Kabupaten Hulu Sungai Tengah",KALIMANTAN SELATAN,71381.0,Indonesia,85169981293.0,,,-2.5480649,115.446023,https://maps.google.com/?cid=0x0:0x4e248a41293598a2,
toko bangunan,Toko Bahan Bangunan,Toko Wahyu Beton,"Rangas, Kec. Batang Alai Sel., Kabupaten Hulu Sungai Tengah, Kalimantan Selatan 71381","Kec. Batang Alai Sel., Kabupaten Hulu Sungai Tengah",KALIMANTAN SELATAN,71381.0,Indonesia,82331413312.0,,,-2.5445478,115.4681298,https://maps.google.com/?cid=0x0:0x9bee6eb593910c63,
toko bangunan,Toko Perlengkapan Rumah,Toko Aulia,"CCW9+839, Jl. A. Yani, Kapar, Kec. Batang Alai Sel., Kabupaten Hulu Sungai Tengah, Kalimantan Selatan 71315","Jl. A. Yani, Kapar, Kec. Batang Alai Sel., Kabupaten Hulu Sungai Tengah",KALIMANTAN SELATAN,71315.0,Indonesia,,,,-2.5542098,115.4177471,https://maps.google.com/?cid=0x0:0x2bbad0ff70ed3965,
toko bangunan,Toko Perlengkapan Rumah,Toko alat bangunan sudi bungkang.trimas.,"FCH2+JVM, JL.ULAMA, Ilung, Kec. Batang Alai Utara, Kabupaten Hulu Sungai Tengah, Kalimantan Selatan 71391","JL.ULAMA, Ilung, Kec. Batang Alai Utara, Kabupaten Hulu Sungai Tengah",KALIMANTAN SELATAN,71391.0,Indonesia,8161999912.0,,,-2.5209169,115.4021704,https://maps.google.com/?cid=0x0:0xb0eed6f4bed79f55,
toko bangunan,Toko Bahan Bangunan,Tk Bangunan Berkah,"FCR4+RJC, Maringgit, Kec. Batang Alai Utara, Kabupaten Hulu Sungai Tengah, Kalimantan Selatan 71391","Maringgit, Kec. Batang Alai Utara, Kabupaten Hulu Sungai Tengah",KALIMANTAN SELATAN,71391.0,Indonesia,8161999912.0,,,-2.5079298,115.4065229,https://maps.google.com/?cid=0x0:0x7545a5fb31ca1b62,
toko bangunan,Toko Perlengkapan Rumah,Toko Bangunan UD. ULIS ILUNG,"FCW4+552, Muara Rintis, Kec. Batang Alai Utara, Kabupaten Hulu Sungai Tengah, Kalimantan Selatan 71391","Muara Rintis, Kec. Batang Alai Utara, Kabupaten Hulu Sungai Tengah",KALIMANTAN SELATAN,71391.0,Indonesia,82221191276.0,,,-2.5046169,115.4053876,https://maps.google.com/?cid=0x0:0xbba0093ed766762,
toko bangunan,Toko Bahan Bangunan,Toko AKBAR Bahan Bangunan Dan Sembako,"Aluan Mati, Kec. Batu Benawa, Kabupaten Hulu Sungai Tengah, Kalimantan Selatan","Kabupaten Hulu Sungai Tengah, Kalimantan Selatan",KALIMANTAN SELATAN,,Indonesia,,,,-2.6112108,115.4275802,https://maps.google.com/?cid=0x0:0xa19ce8f0bfeb1d32,
toko bangunan,Pusat Perbelanjaan,Toko aisyah,"FFFF+XQ6, Abung Surapati, Kec. Limpasu, Kabupaten Hulu Sungai Tengah, Kalimantan Selatan","Kabupaten Hulu Sungai Tengah, Kalimantan Selatan",KALIMANTAN SELATAN,,Indonesia,85238105051.0,,,-2.5250808,115.4743904,https://maps.google.com/?cid=0x0:0x48fa9388812746fe,
toko bangunan,Toko Bahan Bangunan,Toko Sahabat Barabai,"Jl. M. Ramli, Barabai Darat, Kec. Barabai, Kabupaten Hulu Sungai Tengah, Kalimantan Selatan 71352","Barabai Darat, Kec. Barabai, Kabupaten Hulu Sungai Tengah",KALIMANTAN SELATAN,71352.0,Indonesia,82154197501.0,,,-2.5928275,115.3849778,https://maps.google.com/?cid=0x0:0x487746f7550b8aad,
toko bangunan,Toko Perlengkapan Rumah,Tb berkat mandiri birayang,"FFWH+WJ8, Karatungan, Kec. Limpasu, Kabupaten Hulu Sungai Tengah, Kalimantan Selatan 71391","Karatungan, Kec. Limpasu, Kabupaten Hulu Sungai Tengah",KALIMANTAN SELATAN,71391.0,Indonesia,83160960400.0,,,-2.5040733,115.4788433,https://maps.google.com/?cid=0x0:0xbf9ab98bab9ff83e,
toko bangunan,Toko Perlengkapan Rumah,Toko Bangunan,"Jl. A. Yani, Matang Ginalun, Kec. Pandawan, Kabupaten Hulu Sungai Tengah, Kalimantan Selatan 71352","Matang Ginalun, Kec. Pandawan, Kabupaten Hulu Sungai Tengah",KALIMANTAN SELATAN,71352.0,Indonesia,8161999912.0,,,-2.5866557,115.3759065,https://maps.google.com/?cid=0x0:0xf79511cc081343d5,
toko bangunan,Toko Perlengkapan Rumah,Batako hapingin,"FCF9+M99 Ilung, Jalan, Ilung Ps. Lama, Kec. Batang Alai Utara, Kabupaten Hulu Sungai Tengah, Kalimantan Selatan 71391","Jalan, Ilung Ps. Lama, Kec. Batang Alai Utara, Kabupaten Hulu Sungai Tengah",KALIMANTAN SELATAN,71391.0,Indonesia,85251410016.0,,,-2.5258496,115.4184793,https://maps.google.com/?cid=0x0:0xf843b73859261bf7,
toko bangunan,Toko Bahan Bangunan,TB. KHALISA,"C99Q+W4R Fotocopy Nena, Dekat, Jl. Ir. Pangeran Haji Muhammad Nur No.46, Barabai Tim., Kec. Barabai, Kabupaten Hulu Sungai Tengah, Kalimantan Selatan 71315","Dekat, Jl. Ir. Pangeran Haji Muhammad Nur No.46, Barabai Tim., Kec. Barabai, Kabupaten Hulu Sungai Tengah",KALIMANTAN SELATAN,71315.0,Indonesia,87781689990.0,,,-2.579826,115.3878259,https://maps.google.com/?cid=0x0:0x861f73d7d7b32c50,
toko bangunan,Toko Bahan Bangunan,TOKO HUSNA,"Jl. Surapati No.42, RT.002/RW.005, Barabai Tim., Kec. Barabai, Kabupaten Hulu Sungai Tengah, Kalimantan Selatan 71315","RT.002/RW.005, Barabai Tim., Kec. Barabai, Kabupaten Hulu Sungai Tengah",KALIMANTAN SELATAN,71315.0,Indonesia,821533228455.0,,,-2.5676016,115.3869127,https://maps.google.com/?cid=0x0:0x32aefeb2a652368b,
toko bangunan,Toko Perlengkapan Rumah,Toko Bangunan Karya Baru,"58F3+JWX, Unnamed Road, Batu Bini, Kec. Padang Batung, Kabupaten Hulu Sungai Selatan, Kalimantan Selatan 71281","Unnamed Road, Batu Bini, Kec. Padang Batung, Kabupaten Hulu Sungai Selatan",KALIMANTAN SELATAN,71281.0,Indonesia,81349778721.0,,,-2.8258938,115.3048725,https://maps.google.com/?cid=0x0:0x5a2b3cfb4ee6c663,
toko bangunan,Toko Bahan Bangunan,Ayi Alkaff. CV,"JL. Hasan Basri No.10, RT.15, Mandingin, Kec. Barabai, Kabupaten Hulu Sungai Tengah, Kalimantan Selatan 71315","RT.15, Mandingin, Kec. Barabai, Kabupaten Hulu Sungai Tengah",KALIMANTAN SELATAN,71315.0,Indonesia,51743098.0,,,-2.5756573,115.3915751,https://maps.google.com/?cid=0x0:0xc337a9228b184666,
toko bangunan,Toko Perlengkapan Rumah,Batako Ilung,"FCH3+55J, JL.ULAMA, Ilung Ps. Lama, Kec. Batang Alai Utara, Kabupaten Hulu Sungai Tengah, Kalimantan Selatan 71391","JL.ULAMA, Ilung Ps. Lama, Kec. Batang Alai Utara, Kabupaten Hulu Sungai Tengah",KALIMANTAN SELATAN,71391.0,Indonesia,,,,-2.5220344,115.4029059,https://maps.google.com/?cid=0x0:0xb5251089117cf574,
toko bangunan,Toko Bahan Bangunan,wantilan kayu upi,"F9HP+FXG, Sumanggi, Kec. Batang Alai Utara, Kabupaten Hulu Sungai Tengah, Kalimantan Selatan 71391","Sumanggi, Kec. Batang Alai Utara, Kabupaten Hulu Sungai Tengah",KALIMANTAN SELATAN,71391.0,Indonesia,,,,-2.5213223,115.3874591,https://maps.google.com/?cid=0x0:0x5d78dac44b2fe972,
toko bangunan,Toko Perlengkapan Rumah,Toko bangunan,"57V3+FGF, Jl. Bina Warga, Telaga Bidadari, Kec. Sungai Raya, Kabupaten Hulu Sungai Selatan, Kalimantan Selatan 71261","Jl. Bina Warga, Telaga Bidadari, Kec. Sungai Raya, Kabupaten Hulu Sungai Selatan",KALIMANTAN SELATAN,71261.0,Indonesia,,,,-2.8057734,115.2541953,https://maps.google.com/?cid=0x0:0xb9e8dd3c7d0dd41e,
toko bangunan,Toko Perlengkapan Rumah,Kusen dan Pintu Hj. Udin,"FC28+4R2, Kapar, Kec. Batang Alai Sel., Kabupaten Hulu Sungai Tengah, Kalimantan Selatan 71315","Kapar, Kec. Batang Alai Sel., Kabupaten Hulu Sungai Tengah",KALIMANTAN SELATAN,71315.0,Indonesia,,,,-2.5497317,115.4170088,https://maps.google.com/?cid=0x0:0xa7009f6ec0a90027,
toko bangunan,toko bangunan,Kalimantan Selatan 71382,"Kec. Batang Alai Tim., Kabupaten Hulu Sungai Tengah, Kalimantan Selatan","Kabupaten Hulu Sungai Tengah, Kalimantan Selatan",KALIMANTAN SELATAN,,Indonesia,,,,-2.6317873,115.5917918,https://maps.google.com/?cid=0x0:0x144d3f075ffba03e,
toko bangunan,Toko Bahan Bangunan,Toko Wahyu Beton,"Rangas, Kec. Batang Alai Sel., Kabupaten Hulu Sungai Tengah, Kalimantan Selatan 71381","Kec. Batang Alai Sel., Kabupaten Hulu Sungai Tengah",KALIMANTAN SELATAN,71381.0,Indonesia,82331413312.0,,,-2.5445478,115.4681298,https://maps.google.com/?cid=0x0:0x9bee6eb593910c63,
toko bangunan,Toko Perlengkapan Rumah,Toko alat bangunan sudi bungkang.trimas.,"FCH2+JVM, JL.ULAMA, Ilung, Kec. Batang Alai Utara, Kabupaten Hulu Sungai Tengah, Kalimantan Selatan 71391","JL.ULAMA, Ilung, Kec. Batang Alai Utara, Kabupaten Hulu Sungai Tengah",KALIMANTAN SELATAN,71391.0,Indonesia,8161999912.0,,,-2.5209169,115.4021704,https://maps.google.com/?cid=0x0:0xb0eed6f4bed79f55,
toko bangunan,Toko Perlengkapan Rumah,Toko Bangunan hidry,"FC3X+GJ4, Birayang Surapati, Kec. Batang Alai Sel., Kabupaten Hulu Sungai Tengah, Kalimantan Selatan 71381","Birayang Surapati, Kec. Batang Alai Sel., Kabupaten Hulu Sungai Tengah",KALIMANTAN SELATAN,71381.0,Indonesia,,,,-2.5459785,115.4491334,https://maps.google.com/?cid=0x0:0xf2fddffdc4605a3,
toko bangunan,Toko Perlengkapan Rumah,Toko Aulia,"CCW9+839, Jl. A. Yani, Kapar, Kec. Batang Alai Sel., Kabupaten Hulu Sungai Tengah, Kalimantan Selatan 71315","Jl. A. Yani, Kapar, Kec. Batang Alai Sel., Kabupaten Hulu Sungai Tengah",KALIMANTAN SELATAN,71315.0,Indonesia,,,,-2.5542098,115.4177471,https://maps.google.com/?cid=0x0:0x2bbad0ff70ed3965,
toko bangunan,Toko Bahan Bangunan,Tk Bangunan Berkah,"FCR4+RJC, Maringgit, Kec. Batang Alai Utara, Kabupaten Hulu Sungai Tengah, Kalimantan Selatan 71391","Maringgit, Kec. Batang Alai Utara, Kabupaten Hulu Sungai Tengah",KALIMANTAN SELATAN,71391.0,Indonesia,8161999912.0,,,-2.5079298,115.4065229,https://maps.google.com/?cid=0x0:0x7545a5fb31ca1b62,
toko bangunan,Toko Perlengkapan Rumah,Toko Bangunan UD. ULIS ILUNG,"FCW4+552, Muara Rintis, Kec. Batang Alai Utara, Kabupaten Hulu Sungai Tengah, Kalimantan Selatan 71391","Muara Rintis, Kec. Batang Alai Utara, Kabupaten Hulu Sungai Tengah",KALIMANTAN SELATAN,71391.0,Indonesia,82221191276.0,,,-2.5046169,115.4053876,https://maps.google.com/?cid=0x0:0xbba0093ed766762,
toko bangunan,Pusat Perbelanjaan,Toko aisyah,"FFFF+XQ6, Abung Surapati, Kec. Limpasu, Kabupaten Hulu Sungai Tengah, Kalimantan Selatan","Kabupaten Hulu Sungai Tengah, Kalimantan Selatan",KALIMANTAN SELATAN,,Indonesia,85238105051.0,,,-2.5250808,115.4743904,https://maps.google.com/?cid=0x0:0x48fa9388812746fe,
toko bangunan,Toko Perlengkapan Rumah,Tb berkat mandiri birayang,"FFWH+WJ8, Karatungan, Kec. Limpasu, Kabupaten Hulu Sungai Tengah, Kalimantan Selatan 71391","Karatungan, Kec. Limpasu, Kabupaten Hulu Sungai Tengah",KALIMANTAN SELATAN,71391.0,Indonesia,83160960400.0,,,-2.5040733,115.4788433,https://maps.google.com/?cid=0x0:0xbf9ab98bab9ff83e,
toko bangunan,Toko Bahan Bangunan,Toko AKBAR Bahan Bangunan Dan Sembako,"Aluan Mati, Kec. Batu Benawa, Kabupaten Hulu Sungai Tengah, Kalimantan Selatan","Kabupaten Hulu Sungai Tengah, Kalimantan Selatan",KALIMANTAN SELATAN,,Indonesia,8161999912.0,,,-2.6112108,115.4275802,https://maps.google.com/?cid=0x0:0xa19ce8f0bfeb1d32,
toko bangunan,Toko Bahan Bangunan,Toko Berkah Abadi,"9CH9+H8X, Pagat, Kec. Batu Benawa, Kabupaten Hulu Sungai Tengah, Kalimantan Selatan 71371","Pagat, Kec. Batu Benawa, Kabupaten Hulu Sungai Tengah",KALIMANTAN SELATAN,71371.0,Indonesia,,,,-2.621745,115.4189828,https://maps.google.com/?cid=0x0:0x1aaede1d712f3d29,
toko bangunan,Toko Bahan Bangunan,TOKO HUSNA,"Jl. Surapati No.42, RT.002/RW.005, Barabai Tim., Kec. Barabai, Kabupaten Hulu Sungai Tengah, Kalimantan Selatan 71315","RT.002/RW.005, Barabai Tim., Kec. Barabai, Kabupaten Hulu Sungai Tengah",KALIMANTAN SELATAN,71315.0,Indonesia,821533228455.0,,,-2.5676016,115.3869127,https://maps.google.com/?cid=0x0:0x32aefeb2a652368b,
toko bangunan,Toko Perlengkapan Rumah,Batako hapingin,"FCF9+M99 Ilung, Jalan, Ilung Ps. Lama, Kec. Batang Alai Utara, Kabupaten Hulu Sungai Tengah, Kalimantan Selatan 71391","Jalan, Ilung Ps. Lama, Kec. Batang Alai Utara, Kabupaten Hulu Sungai Tengah",KALIMANTAN SELATAN,71391.0,Indonesia,85251410016.0,,,-2.5258496,115.4184793,https://maps.google.com/?cid=0x0:0xf843b73859261bf7,
toko bangunan,Toko Perlengkapan Rumah,Toko Bangunan Husenan,"C9X5+C25, Banua Batung, Kec. Pandawan, Kabupaten Hulu Sungai Tengah, Kalimantan Selatan 71352","Banua Batung, Kec. Pandawan, Kabupaten Hulu Sungai Tengah",KALIMANTAN SELATAN,71352.0,Indonesia,,,,-2.5514914,115.357612,https://maps.google.com/?cid=0x0:0xc0fd38eecf20dfa,
toko bangunan,Toko Bahan Bangunan,Bahan Bangunan UD ANUGRAH/Wantilan,"RT.006/RW.003, Pajukungan, Kec. Barabai, Kabupaten Hulu Sungai Tengah, Kalimantan Selatan 71315","Pajukungan, Kec. Barabai, Kabupaten Hulu Sungai Tengah",KALIMANTAN SELATAN,71315.0,Indonesia,,,,-2.5987253,115.3495238,https://maps.google.com/?cid=0x0:0xc51436275f38e1fa,
toko bangunan,Toko Bahan Bangunan,toko BANGUNAN NENE AQILA,"C9RC+MJ6, Unnamed Road, Babai, Kec. Barabai, Kabupaten Hulu Sungai Tengah, Kalimantan Selatan 71352","Unnamed Road, Babai, Kec. Barabai, Kabupaten Hulu Sungai Tengah",KALIMANTAN SELATAN,71352.0,Indonesia,85705852845.0,,,-2.5583467,115.3715055,https://maps.google.com/?cid=0x0:0x9cc25f0cb86a936f,
toko bangunan,Toko Bahan Bangunan,TB. KHALISA,"C99Q+W4R Fotocopy Nena, Dekat, Jl. Ir. Pangeran Haji Muhammad Nur No.46, Barabai Tim., Kec. Barabai, Kabupaten Hulu Sungai Tengah, Kalimantan Selatan 71315","Dekat, Jl. Ir. Pangeran Haji Muhammad Nur No.46, Barabai Tim., Kec. Barabai, Kabupaten Hulu Sungai Tengah",KALIMANTAN SELATAN,71315.0,Indonesia,87781689990.0,,,-2.579826,115.3878259,https://maps.google.com/?cid=0x0:0x861f73d7d7b32c50,
toko bangunan,Toko Bahan Bangunan,Toko Sahabat Barabai,"Jl. M. Ramli, Barabai Darat, Kec. Barabai, Kabupaten Hulu Sungai Tengah, Kalimantan Selatan 71352","Barabai Darat, Kec. Barabai, Kabupaten Hulu Sungai Tengah",KALIMANTAN SELATAN,71352.0,Indonesia,82154197501.0,,,-2.5928275,115.3849778,https://maps.google.com/?cid=0x0:0x487746f7550b8aad,
toko bangunan,Toko Perlengkapan Rumah,Batako Ilung,"FCH3+55J, JL.ULAMA, Ilung Ps. Lama, Kec. Batang Alai Utara, Kabupaten Hulu Sungai Tengah, Kalimantan Selatan 71391","JL.ULAMA, Ilung Ps. Lama, Kec. Batang Alai Utara, Kabupaten Hulu Sungai Tengah",KALIMANTAN SELATAN,71391.0,Indonesia,,,,-2.5220344,115.4029059,https://maps.google.com/?cid=0x0:0xb5251089117cf574,
toko bangunan,Toko Bahan Bangunan,wantilan kayu upi,"F9HP+FXG, Sumanggi, Kec. Batang Alai Utara, Kabupaten Hulu Sungai Tengah, Kalimantan Selatan 71391","Sumanggi, Kec. Batang Alai Utara, Kabupaten Hulu Sungai Tengah",KALIMANTAN SELATAN,71391.0,Indonesia,,,,-2.5213223,115.3874591,https://maps.google.com/?cid=0x0:0x5d78dac44b2fe972,
toko bangunan,toko bangunan,Kalimantan Selatan 71391,"Kabupaten Hulu Sungai Tengah, Kalimantan Selatan","Kabupaten Hulu Sungai Tengah, Kalimantan Selatan",KALIMANTAN SELATAN,,Indonesia,,,,-2.5000289,115.4378152,https://maps.google.com/?cid=0x0:0xdffec40975c2ada2,
toko bangunan,Toko Bahan Bangunan,Tk Bangunan Berkah,"FCR4+RJC, Maringgit, Kec. Batang Alai Utara, Kabupaten Hulu Sungai Tengah, Kalimantan Selatan 71391","Maringgit, Kec. Batang Alai Utara, Kabupaten Hulu Sungai Tengah",KALIMANTAN SELATAN,71391.0,Indonesia,8161999912.0,,,-2.5079298,115.4065229,https://maps.google.com/?cid=0x0:0x7545a5fb31ca1b62,
toko bangunan,Toko Perlengkapan Rumah,Toko Bangunan UD. ULIS ILUNG,"FCW4+552, Muara Rintis, Kec. Batang Alai Utara, Kabupaten Hulu Sungai Tengah, Kalimantan Selatan 71391","Muara Rintis, Kec. Batang Alai Utara, Kabupaten Hulu Sungai Tengah",KALIMANTAN SELATAN,71391.0,Indonesia,82221191276.0,,,-2.5046169,115.4053876,https://maps.google.com/?cid=0x0:0xbba0093ed766762,
toko bangunan,Toko Bahan Bangunan,Toko Bangunan Lesmana,"GCX7+PHW, Jl. A. Yani, Haur Gading, Kec. Batang Alai Utara, Kabupaten Hulu Sungai Tengah, Kalimantan Selatan 71663","Jl. A. Yani, Haur Gading, Kec. Batang Alai Utara, Kabupaten Hulu Sungai Tengah",KALIMANTAN SELATAN,71663.0,Indonesia,,,,-2.4506378,115.4139436,https://maps.google.com/?cid=0x0:0x5f8db236cdfc966f,
toko bangunan,Toko Bahan Bangunan,Toko Wahyu Beton,"Rangas, Kec. Batang Alai Sel., Kabupaten Hulu Sungai Tengah, Kalimantan Selatan 71381","Kec. Batang Alai Sel., Kabupaten Hulu Sungai Tengah",KALIMANTAN SELATAN,71381.0,Indonesia,82331413312.0,,,-2.5445478,115.4681298,https://maps.google.com/?cid=0x0:0x9bee6eb593910c63,
toko bangunan,Toko Perlengkapan Rumah,Toko Aulia,"CCW9+839, Jl. A. Yani, Kapar, Kec. Batang Alai Sel., Kabupaten Hulu Sungai Tengah, Kalimantan Selatan 71315","Jl. A. Yani, Kapar, Kec. Batang Alai Sel., Kabupaten Hulu Sungai Tengah",KALIMANTAN SELATAN,71315.0,Indonesia,,,,-2.5542098,115.4177471,https://maps.google.com/?cid=0x0:0x2bbad0ff70ed3965,
toko bangunan,Toko Bahan Bangunan,Tb. Hidayah Bangunan,"FC2W+QCC, Jl. Merdeka, Birayang, Kec. Batang Alai Sel., Kabupaten Hulu Sungai Tengah, Kalimantan Selatan 71381","Jl. Merdeka, Birayang, Kec. Batang Alai Sel., Kabupaten Hulu Sungai Tengah",KALIMANTAN SELATAN,71381.0,Indonesia,85169981293.0,,,-2.5480649,115.446023,https://maps.google.com/?cid=0x0:0x4e248a41293598a2,
toko bangunan,Toko Perlengkapan Rumah,Toko Bangunan hidry,"FC3X+GJ4, Birayang Surapati, Kec. Batang Alai Sel., Kabupaten Hulu Sungai Tengah, Kalimantan Selatan 71381","Birayang Surapati, Kec. Batang Alai Sel., Kabupaten Hulu Sungai Tengah",KALIMANTAN SELATAN,71381.0,Indonesia,,,,-2.5459785,115.4491334,https://maps.google.com/?cid=0x0:0xf2fddffdc4605a3,
toko bangunan,Toko Bahan Bangunan,wantilan kayu upi,"F9HP+FXG, Sumanggi, Kec. Batang Alai Utara, Kabupaten Hulu Sungai Tengah, Kalimantan Selatan 71391","Sumanggi, Kec. Batang Alai Utara, Kabupaten Hulu Sungai Tengah",KALIMANTAN SELATAN,71391.0,Indonesia,,,,-2.5213223,115.3874591,https://maps.google.com/?cid=0x0:0x5d78dac44b2fe972,
toko bangunan,Toko Bahan Bangunan,TOKO HUSNA,"Jl. Surapati No.42, RT.002/RW.005, Barabai Tim., Kec. Barabai, Kabupaten Hulu Sungai Tengah, Kalimantan Selatan 71315","RT.002/RW.005, Barabai Tim., Kec. Barabai, Kabupaten Hulu Sungai Tengah",KALIMANTAN SELATAN,71315.0,Indonesia,821533228455.0,,,-2.5676016,115.3869127,https://maps.google.com/?cid=0x0:0x32aefeb2a652368b,
toko bangunan,Toko Perlengkapan Rumah,Batako Ilung,"FCH3+55J, JL.ULAMA, Ilung Ps. Lama, Kec. Batang Alai Utara, Kabupaten Hulu Sungai Tengah, Kalimantan Selatan 71391","JL.ULAMA, Ilung Ps. Lama, Kec. Batang Alai Utara, Kabupaten Hulu Sungai Tengah",KALIMANTAN SELATAN,71391.0,Indonesia,,,,-2.5220344,115.4029059,https://maps.google.com/?cid=0x0:0xb5251089117cf574,
toko bangunan,Toko Perlengkapan Rumah,Tb berkat mandiri birayang,"FFWH+WJ8, Karatungan, Kec. Limpasu, Kabupaten Hulu Sungai Tengah, Kalimantan Selatan 71391","Karatungan, Kec. Limpasu, Kabupaten Hulu Sungai Tengah",KALIMANTAN SELATAN,71391.0,Indonesia,83160960400.0,,,-2.5040733,115.4788433,https://maps.google.com/?cid=0x0:0xbf9ab98bab9ff83e,
toko bangunan,Toko Perlengkapan Rumah,Batako hapingin,"FCF9+M99 Ilung, Jalan, Ilung Ps. Lama, Kec. Batang Alai Utara, Kabupaten Hulu Sungai Tengah, Kalimantan Selatan 71391","Jalan, Ilung Ps. Lama, Kec. Batang Alai Utara, Kabupaten Hulu Sungai Tengah",KALIMANTAN SELATAN,71391.0,Indonesia,85251410016.0,,,-2.5258496,115.4184793,https://maps.google.com/?cid=0x0:0xf843b73859261bf7,
toko bangunan,Toko Perlengkapan Rumah,Toko Bangunan Husenan,"C9X5+C25, Banua Batung, Kec. Pandawan, Kabupaten Hulu Sungai Tengah, Kalimantan Selatan 71352","Banua Batung, Kec. Pandawan, Kabupaten Hulu Sungai Tengah",KALIMANTAN SELATAN,71352.0,Indonesia,,,,-2.5514914,115.357612,https://maps.google.com/?cid=0x0:0xc0fd38eecf20dfa,
toko bangunan,Pusat Perbelanjaan,Toko aisyah,"FFFF+XQ6, Abung Surapati, Kec. Limpasu, Kabupaten Hulu Sungai Tengah, Kalimantan Selatan","Kabupaten Hulu Sungai Tengah, Kalimantan Selatan",KALIMANTAN SELATAN,,Indonesia,85238105051.0,,,-2.5250808,115.4743904,https://maps.google.com/?cid=0x0:0x48fa9388812746fe,
toko bangunan,Toko Bahan Bangunan,toko BANGUNAN NENE AQILA,"C9RC+MJ6, Unnamed Road, Babai, Kec. Barabai, Kabupaten Hulu Sungai Tengah, Kalimantan Selatan 71352","Unnamed Road, Babai, Kec. Barabai, Kabupaten Hulu Sungai Tengah",KALIMANTAN SELATAN,71352.0,Indonesia,85705852845.0,,,-2.5583467,115.3715055,https://maps.google.com/?cid=0x0:0x9cc25f0cb86a936f,
toko bangunan,Toko Bahan Bangunan,Ud Roni,"GC93+88X, Jl. A. Yani, RT.3/RW.2, Haur Gading, Kec. Batang Alai Utara, Kabupaten Hulu Sungai Tengah, Kalimantan Selatan","Kabupaten Hulu Sungai Tengah, Kalimantan Selatan",KALIMANTAN SELATAN,,Indonesia,,,,-2.4816444,115.4033746,https://maps.google.com/?cid=0x0:0xd9b147d40fd4bd3a,
toko bangunan,Toko Bahan Bangunan,UD.Berkah Muhibbin,"Banua Jingah, Kec. Barabai, Kabupaten Hulu Sungai Tengah, Kalimantan Selatan 71315","Kec. Barabai, Kabupaten Hulu Sungai Tengah",KALIMANTAN SELATAN,71315.0,Indonesia,8125007197.0,,,-2.5681521,115.3877747,https://maps.google.com/?cid=0x0:0x6721013f2232f843,
toko bangunan,Toko Bahan Bangunan,TB. KHALISA,"C99Q+W4R Fotocopy Nena, Dekat, Jl. Ir. Pangeran Haji Muhammad Nur No.46, Barabai Tim., Kec. Barabai, Kabupaten Hulu Sungai Tengah, Kalimantan Selatan 71315","Dekat, Jl. Ir. Pangeran Haji Muhammad Nur No.46, Barabai Tim., Kec. Barabai, Kabupaten Hulu Sungai Tengah",KALIMANTAN SELATAN,71315.0,Indonesia,81385661699.0,,,-2.579826,115.3878259,https://maps.google.com/?cid=0x0:0x861f73d7d7b32c50,
toko bangunan,Toko Perlengkapan Rumah,Toko Bangunan,"Jl. A. Yani, Matang Ginalun, Kec. Pandawan, Kabupaten Hulu Sungai Tengah, Kalimantan Selatan 71352","Matang Ginalun, Kec. Pandawan, Kabupaten Hulu Sungai Tengah",KALIMANTAN SELATAN,71352.0,Indonesia,8161999912.0,,,-2.5866557,115.3759065,https://maps.google.com/?cid=0x0:0xf79511cc081343d5,
toko bangunan,Toko,Toko cahaya baru,"F89V+R8P, Hilir Banua, Kec. Pandawan, Kabupaten Hulu Sungai Tengah, Kalimantan Selatan 71352","Hilir Banua, Kec. Pandawan, Kabupaten Hulu Sungai Tengah",KALIMANTAN SELATAN,71352.0,Indonesia,,,,-2.530575,115.3446968,https://maps.google.com/?cid=0x0:0xcecfaeb012ddc805,
toko bangunan,toko bangunan,Kalimantan Selatan 71371,"Kec. Batu Benawa, Kabupaten Hulu Sungai Tengah, Kalimantan Selatan","Kabupaten Hulu Sungai Tengah, Kalimantan Selatan",KALIMANTAN SELATAN,,Indonesia,,,,-2.6261382,115.4378152,https://maps.google.com/?cid=0x0:0xba743d2c069b4c30,
toko bangunan,Toko Bahan Bangunan,Toko Berkah Abadi,"9CH9+H8X, Pagat, Kec. Batu Benawa, Kabupaten Hulu Sungai Tengah, Kalimantan Selatan 71371","Pagat, Kec. Batu Benawa, Kabupaten Hulu Sungai Tengah",KALIMANTAN SELATAN,71371.0,Indonesia,,,,-2.621745,115.4189828,https://maps.google.com/?cid=0x0:0x1aaede1d712f3d29,
toko bangunan,Toko Bahan Bangunan,Toko AKBAR Bahan Bangunan Dan Sembako,"Aluan Mati, Kec. Batu Benawa, Kabupaten Hulu Sungai Tengah, Kalimantan Selatan","Kabupaten Hulu Sungai Tengah, Kalimantan Selatan",KALIMANTAN SELATAN,,Indonesia,,,,-2.6112108,115.4275802,https://maps.google.com/?cid=0x0:0xa19ce8f0bfeb1d32,
toko bangunan,Toko Bahan Bangunan,Toko Sahabat Barabai,"Jl. M. Ramli, Barabai Darat, Kec. Barabai, Kabupaten Hulu Sungai Tengah, Kalimantan Selatan 71352","Barabai Darat, Kec. Barabai, Kabupaten Hulu Sungai Tengah",KALIMANTAN SELATAN,71352.0,Indonesia,82154197501.0,,,-2.5928275,115.3849778,https://maps.google.com/?cid=0x0:0x487746f7550b8aad,
toko bangunan,Toko Bahan Bangunan,TOKO HUSNA,"Jl. Surapati No.42, RT.002/RW.005, Barabai Tim., Kec. Barabai, Kabupaten Hulu Sungai Tengah, Kalimantan Selatan 71315","RT.002/RW.005, Barabai Tim., Kec. Barabai, Kabupaten Hulu Sungai Tengah",KALIMANTAN SELATAN,71315.0,Indonesia,821533228455.0,,,-2.5676016,115.3869127,https://maps.google.com/?cid=0x0:0x32aefeb2a652368b,
toko bangunan,Toko Perlengkapan Rumah,Toko Bangunan,"Jl. A. Yani, Matang Ginalun, Kec. Pandawan, Kabupaten Hulu Sungai Tengah, Kalimantan Selatan 71352","Matang Ginalun, Kec. Pandawan, Kabupaten Hulu Sungai Tengah",KALIMANTAN SELATAN,71352.0,Indonesia,8161999912.0,,,-2.5866557,115.3759065,https://maps.google.com/?cid=0x0:0xf79511cc081343d5,
toko bangunan,Toko Bahan Bangunan,TOKO UD. WAWAN Jual Kayu  Bahan Bangunan,"Jl. Perintis Kemerdekaan No.RT. 04, RT.No.20/RW.01, Benawa Tengah, Kec. Barabai, Kabupaten Hulu Sungai Tengah, Kalimantan Selatan 71313","RT.No.20/RW.01, Benawa Tengah, Kec. Barabai, Kabupaten Hulu Sungai Tengah",KALIMANTAN SELATAN,71313.0,Indonesia,8161999912.0,,,-2.5905148,115.388556,https://maps.google.com/?cid=0x0:0x85ad45d69b4ca13d,
toko bangunan,Toko Bahan Bangunan,zainuri (batu bata),"C83R+27V, Banua Hanyar, Kec. Pandawan, Kabupaten Hulu Sungai Tengah, Kalimantan Selatan","Kabupaten Hulu Sungai Tengah, Kalimantan Selatan",KALIMANTAN SELATAN,,Indonesia,83121529593.0,,,-2.5973859,115.3406773,https://maps.google.com/?cid=0x0:0x8cc01393377b944b,
toko bangunan,Toko Bahan Bangunan,TB. KHALISA,"C99Q+W4R Fotocopy Nena, Dekat, Jl. Ir. Pangeran Haji Muhammad Nur No.46, Barabai Tim., Kec. Barabai, Kabupaten Hulu Sungai Tengah, Kalimantan Selatan 71315","Dekat, Jl. Ir. Pangeran Haji Muhammad Nur No.46, Barabai Tim., Kec. Barabai, Kabupaten Hulu Sungai Tengah",KALIMANTAN SELATAN,71315.0,Indonesia,87781689990.0,,,-2.579826,115.3878259,https://maps.google.com/?cid=0x0:0x861f73d7d7b32c50,
toko bangunan,Toko Bahan Bangunan,Toko Wahyu Beton,"Rangas, Kec. Batang Alai Sel., Kabupaten Hulu Sungai Tengah, Kalimantan Selatan 71381","Kec. Batang Alai Sel., Kabupaten Hulu Sungai Tengah",KALIMANTAN SELATAN,71381.0,Indonesia,82331413312.0,,,-2.5445478,115.4681298,https://maps.google.com/?cid=0x0:0x9bee6eb593910c63,
toko bangunan,Toko Bahan Bangunan,Tb. Annisa Rasau (Barabai),"Matang Ginalun, Kec. Pandawan, Kabupaten Hulu Sungai Tengah, Kalimantan Selatan 71352","Kec. Pandawan, Kabupaten Hulu Sungai Tengah",KALIMANTAN SELATAN,71352.0,Indonesia,81351482275.0,,,-2.5855869,115.3720548,https://maps.google.com/?cid=0x0:0x814cd2b28f7225dc,
toko bangunan,Toko Bahan Bangunan,Bahan Bangunan UD ANUGRAH/Wantilan,"RT.006/RW.003, Pajukungan, Kec. Barabai, Kabupaten Hulu Sungai Tengah, Kalimantan Selatan 71315","Pajukungan, Kec. Barabai, Kabupaten Hulu Sungai Tengah",KALIMANTAN SELATAN,71315.0,Indonesia,,,,-2.5987253,115.3495238,https://maps.google.com/?cid=0x0:0xc51436275f38e1fa,
toko bangunan,Toko Bahan Bangunan,TB Cahaya Baru,"C99P+Q99, Jl. Surapati, Barabai Tim., Kec. Barabai, Kabupaten Hulu Sungai Tengah, Kalimantan Selatan 71315","Jl. Surapati, Barabai Tim., Kec. Barabai, Kabupaten Hulu Sungai Tengah",KALIMANTAN SELATAN,71315.0,Indonesia,85169981293.0,,,-2.5805883,115.3859793,https://maps.google.com/?cid=0x0:0x1d69a2690d43e67b,
toko bangunan,Toko Bahan Bangunan,UD. Berkat Kawan,"99WM+C64, Jl. Kayu Bawang, Kayu Bawang, Kec. Barabai, Kabupaten Hulu Sungai Tengah, Kalimantan Selatan 71315","Jl. Kayu Bawang, Kayu Bawang, Kec. Barabai, Kabupaten Hulu Sungai Tengah",KALIMANTAN SELATAN,71315.0,Indonesia,85248349577.0,,,-2.6039934,115.3830703,https://maps.google.com/?cid=0x0:0xe791ff78b211c079,
toko bangunan,Toko Bahan Bangunan,Al Zami Toko,"JL. Pasar Baru No.40, Banua Binjai, Kec. Barabai, Kabupaten Hulu Sungai Tengah, Kalimantan Selatan 71311","Banua Binjai, Kec. Barabai, Kabupaten Hulu Sungai Tengah",KALIMANTAN SELATAN,71311.0,Indonesia,51743157.0,,,-2.579949,115.379702,https://maps.google.com/?cid=0x0:0x1ea10fd4adbbde31,
toko bangunan,Toko Bahan Bangunan,Pagat batu benawa,"9CGF+866, Pagat, Kec. Batu Benawa, Kabupaten Hulu Sungai Tengah, Kalimantan Selatan","Kabupaten Hulu Sungai Tengah, Kalimantan Selatan",KALIMANTAN SELATAN,,Indonesia,,,,-2.624205,115.4230055,https://maps.google.com/?cid=0x0:0xeda7f62278cca105,
toko bangunan,Toko Bahan Bangunan,UD.Berkah Muhibbin,"Banua Jingah, Kec. Barabai, Kabupaten Hulu Sungai Tengah, Kalimantan Selatan 71315","Kec. Barabai, Kabupaten Hulu Sungai Tengah",KALIMANTAN SELATAN,71315.0,Indonesia,8125007197.0,,,-2.5681521,115.3877747,https://maps.google.com/?cid=0x0:0x6721013f2232f843,
toko bangunan,Toko Bahan Bangunan,Cahaya Samudra,"C95Q+9HX, Jl. Perintis Kemerdekaan, Benawa Tengah, Kec. Barabai, Kabupaten Hulu Sungai Tengah, Kalimantan Selatan 71313","Jl. Perintis Kemerdekaan, Benawa Tengah, Kec. Barabai, Kabupaten Hulu Sungai Tengah",KALIMANTAN SELATAN,71313.0,Indonesia,82250209783.0,,,-2.5915024,115.3889824,https://maps.google.com/?cid=0x0:0x39b876742d71f7d5,
toko bangunan,Toko Bahan Bangunan,Toko Bangunan Berkat Berkawan,"C94C+79R, Bukat, Kec. Barabai, Kabupaten Hulu Sungai Tengah, Kalimantan Selatan 71352","Bukat, Kec. Barabai, Kabupaten Hulu Sungai Tengah",KALIMANTAN SELATAN,71352.0,Indonesia,,,,-2.5942679,115.3708752,https://maps.google.com/?cid=0x0:0x7829db9039b923ad,
toko bangunan,Toko Perlengkapan Rumah,Toko alat bangunan sudi bungkang.trimas.,"FCH2+JVM, JL.ULAMA, Ilung, Kec. Batang Alai Utara, Kabupaten Hulu Sungai Tengah, Kalimantan Selatan 71391","JL.ULAMA, Ilung, Kec. Batang Alai Utara, Kabupaten Hulu Sungai Tengah",KALIMANTAN SELATAN,71391.0,Indonesia,8161999912.0,,,-2.5209169,115.4021704,https://maps.google.com/?cid=0x0:0xb0eed6f4bed79f55,
toko bangunan,Toko Bahan Bangunan,Toko Al-Fayyadh,"Awang Besar, Kec. Barabai, Kabupaten Hulu Sungai Tengah, Kalimantan Selatan","Kabupaten Hulu Sungai Tengah, Kalimantan Selatan",KALIMANTAN SELATAN,,Indonesia,,,,-2.614835,115.3896842,https://maps.google.com/?cid=0x0:0x7ee2052e67a7a65c,
toko bangunan,toko bangunan,Kalimantan Selatan 71372,"Kec. Hantakan, Kabupaten Hulu Sungai Tengah, Kalimantan Selatan","Kabupaten Hulu Sungai Tengah, Kalimantan Selatan",KALIMANTAN SELATAN,,Indonesia,,,,-2.6699556,115.4970466,https://maps.google.com/?cid=0x0:0x488758822bcfff7a,
toko bangunan,Toko Bahan Bangunan,Toko Sahabat Barabai,"Jl. M. Ramli, Barabai Darat, Kec. Barabai, Kabupaten Hulu Sungai Tengah, Kalimantan Selatan 71352","Barabai Darat, Kec. Barabai, Kabupaten Hulu Sungai Tengah",KALIMANTAN SELATAN,71352.0,Indonesia,82154197501.0,,,-2.5928275,115.3849778,https://maps.google.com/?cid=0x0:0x487746f7550b8aad,
toko bangunan,Toko Perlengkapan Rumah,Toko Bangunan,"Jl. A. Yani, Matang Ginalun, Kec. Pandawan, Kabupaten Hulu Sungai Tengah, Kalimantan Selatan 71352","Matang Ginalun, Kec. Pandawan, Kabupaten Hulu Sungai Tengah",KALIMANTAN SELATAN,71352.0,Indonesia,8161999912.0,,,-2.5866557,115.3759065,https://maps.google.com/?cid=0x0:0xf79511cc081343d5,
toko bangunan,Toko Bahan Bangunan,Toko Bangunan Ina,"673M+79G, Jambu Hilir, Kec. Kandangan, Kabupaten Hulu Sungai Selatan, Kalimantan Selatan 71211","Jambu Hilir, Kec. Kandangan, Kabupaten Hulu Sungai Selatan",KALIMANTAN SELATAN,71211.0,Indonesia,81385661699.0,,,-2.7968061,115.2834616,https://maps.google.com/?cid=0x0:0x95de7f7299633166,
toko bangunan,Toko Bahan Bangunan,Cahaya Samudra,"C95Q+9HX, Jl. Perintis Kemerdekaan, Benawa Tengah, Kec. Barabai, Kabupaten Hulu Sungai Tengah, Kalimantan Selatan 71313","Jl. Perintis Kemerdekaan, Benawa Tengah, Kec. Barabai, Kabupaten Hulu Sungai Tengah",KALIMANTAN SELATAN,71313.0,Indonesia,82250209783.0,,,-2.5915024,115.3889824,https://maps.google.com/?cid=0x0:0x39b876742d71f7d5,
toko bangunan,Toko Bahan Bangunan,TOKO UD. WAWAN Jual Kayu  Bahan Bangunan,"Jl. Perintis Kemerdekaan No.RT. 04, RT.No.20/RW.01, Benawa Tengah, Kec. Barabai, Kabupaten Hulu Sungai Tengah, Kalimantan Selatan 71313","RT.No.20/RW.01, Benawa Tengah, Kec. Barabai, Kabupaten Hulu Sungai Tengah",KALIMANTAN SELATAN,71313.0,Indonesia,8161999912.0,,,-2.5905148,115.388556,https://maps.google.com/?cid=0x0:0x85ad45d69b4ca13d,
toko bangunan,Toko Bahan Bangunan,Toko Hani,"blok bahan bangunan, Jl.Pasar 2 Pusat Perbelanjaan, Jl. Murakata No.13-14, Kec. Barabai, Kalimantan Selatan 71311","Jl.Pasar 2 Pusat Perbelanjaan, Jl. Murakata No.13-14, Kec. Barabai",KALIMANTAN SELATAN,71311.0,Indonesia,82186587550.0,,,-2.5868724,115.3832749,https://maps.google.com/?cid=0x0:0xa1649588058e023a,
toko bangunan,Toko Bahan Bangunan,Toko Berkah Abadi,"9CH9+H8X, Pagat, Kec. Batu Benawa, Kabupaten Hulu Sungai Tengah, Kalimantan Selatan 71371","Pagat, Kec. Batu Benawa, Kabupaten Hulu Sungai Tengah",KALIMANTAN SELATAN,71371.0,Indonesia,,,,-2.621745,115.4189828,https://maps.google.com/?cid=0x0:0x1aaede1d712f3d29,
toko bangunan,Toko Bahan Bangunan,UD. Berkat Kawan,"99WM+C64, Jl. Kayu Bawang, Kayu Bawang, Kec. Barabai, Kabupaten Hulu Sungai Tengah, Kalimantan Selatan 71315","Jl. Kayu Bawang, Kayu Bawang, Kec. Barabai, Kabupaten Hulu Sungai Tengah",KALIMANTAN SELATAN,71315.0,Indonesia,85248349577.0,,,-2.6039934,115.3830703,https://maps.google.com/?cid=0x0:0xe791ff78b211c079,
toko bangunan,Toko Perlengkapan Rumah,Toko Bangunan hidry,"FC3X+GJ4, Birayang Surapati, Kec. Batang Alai Sel., Kabupaten Hulu Sungai Tengah, Kalimantan Selatan 71381","Birayang Surapati, Kec. Batang Alai Sel., Kabupaten Hulu Sungai Tengah",KALIMANTAN SELATAN,71381.0,Indonesia,,,,-2.5459785,115.4491334,https://maps.google.com/?cid=0x0:0xf2fddffdc4605a3,
toko bangunan,Toko Bahan Bangunan,UD Daha putra barabai,"JL. Pajukungan Simpang 3, RT. 3 RW. 2, Pajukungan, Kec. Barabai, Kabupaten Hulu Sungai Tengah, Kalimantan Selatan 71352","RT. 3 RW. 2, Pajukungan, Kec. Barabai, Kabupaten Hulu Sungai Tengah",KALIMANTAN SELATAN,71352.0,Indonesia,82153005577.0,,,-2.5998607,115.3541399,https://maps.google.com/?cid=0x0:0xf518912599d6c7a7,
toko bangunan,Toko Bahan Bangunan,TOKO BANGUNAN HASSAN,"C96J+J3V, Jl. Ir. Pangeran Haji Muhammad Nur, Barabai Bar., Kec. Barabai, Kabupaten Hulu Sungai Tengah, Kalimantan Selatan 71352","Jl. Ir. Pangeran Haji Muhammad Nur, Barabai Bar., Kec. Barabai, Kabupaten Hulu Sungai Tengah",KALIMANTAN SELATAN,71352.0,Indonesia,,,,-2.5883825,115.380175,https://maps.google.com/?cid=0x0:0x37aeefdfba225a86,
toko bangunan,Toko Bahan Bangunan,Toko Cahaya Ni'mah,"989R+76V, Jl. A. Yani, Sungai Rangas, Kec. Labuan Amas Sel., Kabupaten Hulu Sungai Tengah, Kalimantan Selatan 71361","Jl. A. Yani, Sungai Rangas, Kec. Labuan Amas Sel., Kabupaten Hulu Sungai Tengah",KALIMANTAN SELATAN,71361.0,Indonesia,85251960768.0,,,-2.6317612,115.3405426,https://maps.google.com/?cid=0x0:0x1f7dbb4fa6f81cc,
toko bangunan,Toko Perlengkapan Rumah,Toko Bangunan Rabbina,"Jl. Baluti No.12, RT.6/RW.7, Baluti, Kec. Kandangan, Kabupaten Hulu Sungai Selatan, Kalimantan Selatan 71214","RT.6/RW.7, Baluti, Kec. Kandangan, Kabupaten Hulu Sungai Selatan",KALIMANTAN SELATAN,71214.0,Indonesia,85179569934.0,,,-2.7972324,115.2675375,https://maps.google.com/?cid=0x0:0x1fe78f46fe7d792f,
toko bangunan,Toko Bahan Bangunan,Toko Bangunan Paman Dian.H,"9496+C4F, Bayanan, Kec. Daha Sel., Kabupaten Hulu Sungai Selatan, Kalimantan Selatan 71253","Bayanan, Kec. Daha Sel., Kabupaten Hulu Sungai Selatan",KALIMANTAN SELATAN,71253.0,Indonesia,85215933433.0,,,-2.6314456,115.1103117,https://maps.google.com/?cid=0x0:0x80976cba236c0609,
toko bangunan,,toko material,"Desa tapus,jln brigjend h.hasan basri,no 012, rt 02, Kalimantan Selatan 71411",rt 02,KALIMANTAN SELATAN,71411.0,Indonesia,8161999912.0,,,-2.4861841,115.2350268,https://maps.google.com/?cid=0x0:0x58491fe764e7ead9,
toko bangunan,Toko Bahan Bangunan,UD.PUTERA HARAPAN IBU,"C96J+W72, Barabai Sel., Kec. Barabai, Kabupaten Hulu Sungai Tengah, Kalimantan Selatan 71352","Barabai Sel., Kec. Barabai, Kabupaten Hulu Sungai Tengah",KALIMANTAN SELATAN,71352.0,Indonesia,,,,-2.5877449,115.3806393,https://maps.google.com/?cid=0x0:0x183fd2c97f3f8664,
toko bangunan,Toko Bahan Bangunan,Toko Dayat.BRb,"Jl. Brigjen H. Hasan Basri, Barabai Sel., Kec. Barabai, Kabupaten Hulu Sungai Tengah, Kalimantan Selatan 71352","Barabai Sel., Kec. Barabai, Kabupaten Hulu Sungai Tengah",KALIMANTAN SELATAN,71352.0,Indonesia,82154778424.0,,,-2.5886563,115.3815765,https://maps.google.com/?cid=0x0:0xedcad59381ffc989,
toko bangunan,Toko Bahan Bangunan,UD. SUMBER REZEKI,"Jl. Keramat Manjang, Barabai Utara, Kec. Barabai, Kabupaten Hulu Sungai Tengah, Kalimantan Selatan 71314","Barabai Utara, Kec. Barabai, Kabupaten Hulu Sungai Tengah",KALIMANTAN SELATAN,71314.0,Indonesia,85750763231.0,,,-2.5881347,115.3796018,https://maps.google.com/?cid=0x0:0x286a9c74f4795468,
toko bangunan,Toko Bahan Bangunan,Muis Batako,"CC74+3M4, Aluan Besar, Kec. Batu Benawa, Kabupaten Hulu Sungai Tengah, Kalimantan Selatan 71315","Aluan Besar, Kec. Batu Benawa, Kabupaten Hulu Sungai Tengah",KALIMANTAN SELATAN,71315.0,Indonesia,81934669603.0,,,-2.5941016,115.409545,https://maps.google.com/?cid=0x0:0xc47ecbbd9bb950e1,
toko bangunan,Toko Bahan Bangunan,"Toko UD. Ikhtiar (Jual Baut, Mur, Seling, Kawat)","Jl. Pasar 2, Blok Bahan Bangunan Pusat Perbelanjaan Murakata, Barabai, Barabai Sel., Kec. Barabai, Kabupaten Hulu Sungai Tengah, Kalimantan Selatan 71311","Blok Bahan Bangunan Pusat Perbelanjaan Murakata, Barabai, Barabai Sel., Kec. Barabai, Kabupaten Hulu Sungai Tengah",KALIMANTAN SELATAN,71311.0,Indonesia,89624583121.0,,,-2.5869778,115.3833636,https://maps.google.com/?cid=0x0:0x5b08ff550cd86b3c,
toko bangunan,Sekolah Dasar,SD Negeri Hantakan,"9F75+7VF, Hantakan, Kec. Hantakan, Kabupaten Hulu Sungai Tengah, Kalimantan Selatan 71372","Hantakan, Kec. Hantakan, Kabupaten Hulu Sungai Tengah",KALIMANTAN SELATAN,71372.0,Indonesia,,,,-2.6368231,115.4596852,https://maps.google.com/?cid=0x0:0xaf51767ba8ca8c1e,
toko bangunan,Toko Perlengkapan Rumah,Pangkalan Kayu Jafian,"JL. Perintis Kemerdekaan, RT. 07 RW. 02 No. 27, Benawa Tengah, Kec. Barabai, Kabupaten Hulu Sungai Tengah, Kalimantan Selatan 71314","RT. 07 RW. 02 No. 27, Benawa Tengah, Kec. Barabai, Kabupaten Hulu Sungai Tengah",KALIMANTAN SELATAN,71314.0,Indonesia,85350405322.0,,,-2.5952572,115.3926016,https://maps.google.com/?cid=0x0:0x1989966bc4a00394,
toko bangunan,Toko Bahan Bangunan,TOKO BANGUNAN TB.BEKAH HIJRAH,"5J6M+XC7, 6J9X+P49Jl. Tj, KuaroSolan, Kec. Jaro, Kabupaten Tabalong, Kalimantan Selatan 71574","6J9X+P49Jl. Tj, KuaroSolan, Kec. Jaro, Kabupaten Tabalong",KALIMANTAN SELATAN,71574.0,Indonesia,85332321731.0,,,-1.8375783,115.633556,https://maps.google.com/?cid=0x0:0x1bf9728b2048b20c,
toko bangunan,Toko Bahan Bangunan,Toko Al-Fayyadh,"Awang Besar, Kec. Barabai, Kabupaten Hulu Sungai Tengah, Kalimantan Selatan","Kabupaten Hulu Sungai Tengah, Kalimantan Selatan",KALIMANTAN SELATAN,,Indonesia,,,,-2.614835,115.3896842,https://maps.google.com/?cid=0x0:0x7ee2052e67a7a65c,
toko bangunan,Toko Bahan Bangunan,Tb. Al fatah,"88CG+63W, Jalan Raya, Barikin, Haruyan, Central Hulu Sungai Regency, South Kalimantan 71363","Jalan Raya, Barikin, Haruyan, Central Hulu Sungai Regency",KALIMANTAN SELATAN,71363.0,Indonesia,81348946946.0,,,-2.6793939,115.325208,https://maps.google.com/?cid=0x0:0xb744faf4b0c564f7,
toko bangunan,Toko Bahan Bangunan,TB AL BARKAH,"C97H+5RJ, Barabai Utara, Kec. Barabai, Kabupaten Hulu Sungai Tengah, Kalimantan Selatan","Kabupaten Hulu Sungai Tengah, Kalimantan Selatan",KALIMANTAN SELATAN,,Indonesia,,,,-2.5870491,115.3795146,https://maps.google.com/?cid=0x0:0x2f3e158615bf1923,
toko bangunan,toko bangunan,Kalimantan Selatan 71363,"Kec. Haruyan, Kabupaten Hulu Sungai Tengah, Kalimantan Selatan","Kabupaten Hulu Sungai Tengah, Kalimantan Selatan",KALIMANTAN SELATAN,,Indonesia,,,,-2.7175132,115.3904215,https://maps.google.com/?cid=0x0:0xc3f11fd884e0444f,
toko bangunan,Toko Ponsel,Sitah ponsel,"Desa pengambau hilir luar rt03 kecamatan haruyan kabupaten hulu sungai, tengah, Pangambau Hilir Luar, Kec. Haruyan, Barabai, Kalimantan Selatan 71363","tengah, Pangambau Hilir Luar, Kec. Haruyan, Barabai",KALIMANTAN SELATAN,71363.0,Indonesia,81349550403.0,,,-2.6979475,115.3131657,https://maps.google.com/?cid=0x0:0xc9caec1cd60e0844,
toko bangunan,Toko Bahan Bangunan,TB. JULAK DILLAH,"78W6+V46, Bamban Utara, Kec. Angkinang, Kabupaten Hulu Sungai Selatan, Kalimantan Selatan 71363","Bamban Utara, Kec. Angkinang, Kabupaten Hulu Sungai Selatan",KALIMANTAN SELATAN,71363.0,Indonesia,,,,-2.7028322,115.3102604,https://maps.google.com/?cid=0x0:0xa838bf4742b11de9,
toko bangunan,Toko Bahan Bangunan,Bahan Bangunan UD ANUGRAH/Wantilan,"RT.006/RW.003, Pajukungan, Kec. Barabai, Kabupaten Hulu Sungai Tengah, Kalimantan Selatan 71315","Pajukungan, Kec. Barabai, Kabupaten Hulu Sungai Tengah",KALIMANTAN SELATAN,71315.0,Indonesia,,,,-2.5987253,115.3495238,https://maps.google.com/?cid=0x0:0xc51436275f38e1fa,
toko bangunan,Toko Bahan Bangunan,"RAHMAT ILAHI,TB","88VG+3XP, Jl. Tabu Darat Hilir, Tabudarat Hulu, Kec. Labuan Amas Sel., Kabupaten Hulu Sungai Tengah, Kalimantan Selatan 71361","Jl. Tabu Darat Hilir, Tabudarat Hulu, Kec. Labuan Amas Sel., Kabupaten Hulu Sungai Tengah",KALIMANTAN SELATAN,71361.0,Indonesia,8125032674.0,,,-2.6572991,115.3274588,https://maps.google.com/?cid=0x0:0x80a1649fe36f02d4,
toko bangunan,Toko Bahan Bangunan,Toko AKBAR Bahan Bangunan Dan Sembako,"Aluan Mati, Kec. Batu Benawa, Kabupaten Hulu Sungai Tengah, Kalimantan Selatan","Kabupaten Hulu Sungai Tengah, Kalimantan Selatan",KALIMANTAN SELATAN,,Indonesia,8161999912.0,,,-2.6112108,115.4275802,https://maps.google.com/?cid=0x0:0xa19ce8f0bfeb1d32,
toko bangunan,Toko Bahan Bangunan,Toko Berkah Abadi,"9CH9+H8X, Pagat, Kec. Batu Benawa, Kabupaten Hulu Sungai Tengah, Kalimantan Selatan 71371","Pagat, Kec. Batu Benawa, Kabupaten Hulu Sungai Tengah",KALIMANTAN SELATAN,71371.0,Indonesia,,,,-2.621745,115.4189828,https://maps.google.com/?cid=0x0:0x1aaede1d712f3d29,
toko bangunan,Toko Perlengkapan Rumah,Toko Rafi,"78PJ+PF2, Gumbil, Kec. Telaga Langsat, Kabupaten Hulu Sungai Selatan, Kalimantan Selatan","Kabupaten Hulu Sungai Selatan, Kalimantan Selatan",KALIMANTAN SELATAN,,Indonesia,,,,-2.7132286,115.3311438,https://maps.google.com/?cid=0x0:0xa1be5cd4abbb4ebc,
toko bangunan,toko bangunan,Kalimantan Selatan 71361,"Kec. Labuan Amas Sel., Kabupaten Hulu Sungai Tengah, Kalimantan Selatan","Kabupaten Hulu Sungai Tengah, Kalimantan Selatan",KALIMANTAN SELATAN,,Indonesia,,,,-2.6462589,115.3430203,https://maps.google.com/?cid=0x0:0x72da1a00ef6df96a,
toko bangunan,Toko Bahan Bangunan,Toko Cahaya Ni'mah,"989R+76V, Jl. A. Yani, Sungai Rangas, Kec. Labuan Amas Sel., Kabupaten Hulu Sungai Tengah, Kalimantan Selatan 71361","Jl. A. Yani, Sungai Rangas, Kec. Labuan Amas Sel., Kabupaten Hulu Sungai Tengah",KALIMANTAN SELATAN,71361.0,Indonesia,85251960768.0,,,-2.6317612,115.3405426,https://maps.google.com/?cid=0x0:0x1f7dbb4fa6f81cc,
toko bangunan,Toko Bahan Bangunan,TB.RAHMAN,"988Q+3P4, Jl. A. Yani, Sungai Rangas, Kec. Labuan Amas Sel., Kabupaten Hulu Sungai Tengah, Kalimantan Selatan 71361","Jl. A. Yani, Sungai Rangas, Kec. Labuan Amas Sel., Kabupaten Hulu Sungai Tengah",KALIMANTAN SELATAN,71361.0,Indonesia,85821862815.0,,,-2.6348619,115.3393338,https://maps.google.com/?cid=0x0:0x374c65984edb5d67,
toko bangunan,Pemasok Bahan Bangunan,JAWA BETON PAJUKUNGAN,"Jl. A. Yani, Durian Gantang, Kec. Labuan Amas Sel., Kabupaten Hulu Sungai Tengah, Kalimantan Selatan 71352","Durian Gantang, Kec. Labuan Amas Sel., Kabupaten Hulu Sungai Tengah",KALIMANTAN SELATAN,71352.0,Indonesia,85156699812.0,,,-2.6034392,115.3541599,https://maps.google.com/?cid=0x0:0x84a9ea97563b1470,
toko bangunan,Toko Bahan Bangunan,Toko Bangunan Hidayah,"Banua Kupang, Kec. Labuan Amas Utara, Kabupaten Hulu Sungai Tengah, Kalimantan Selatan 71362","Kec. Labuan Amas Utara, Kabupaten Hulu Sungai Tengah",KALIMANTAN SELATAN,71362.0,Indonesia,81357069229.0,,,-2.6016082,115.3217385,https://maps.google.com/?cid=0x0:0xafeaad0301b35e5e,
toko bangunan,Toko Bahan Bangunan,Toko Bangunan Riry,"97JV+C4G, Jl. Ambawang - Amuntai, Kasarangan, Kec. Labuan Amas Utara, Kabupaten Hulu Sungai Tengah, Kalimantan Selatan 71362","Jl. Ambawang - Amuntai, Kasarangan, Kec. Labuan Amas Utara, Kabupaten Hulu Sungai Tengah",KALIMANTAN SELATAN,71362.0,Indonesia,83899586603.0,,,-2.6189391,115.2928416,https://maps.google.com/?cid=0x0:0x63967b19fbd87220,
toko bangunan,Toko Bahan Bangunan,Bahan Bangunan UD ANUGRAH/Wantilan,"RT.006/RW.003, Pajukungan, Kec. Barabai, Kabupaten Hulu Sungai Tengah, Kalimantan Selatan 71315","Pajukungan, Kec. Barabai, Kabupaten Hulu Sungai Tengah",KALIMANTAN SELATAN,71315.0,Indonesia,,,,-2.5987253,115.3495238,https://maps.google.com/?cid=0x0:0xc51436275f38e1fa,
toko bangunan,Toko Bahan Bangunan,Toko Sahabat Barabai,"Jl. M. Ramli, Barabai Darat, Kec. Barabai, Kabupaten Hulu Sungai Tengah, Kalimantan Selatan 71352","Barabai Darat, Kec. Barabai, Kabupaten Hulu Sungai Tengah",KALIMANTAN SELATAN,71352.0,Indonesia,82154197501.0,,,-2.5928275,115.3849778,https://maps.google.com/?cid=0x0:0x487746f7550b8aad,
toko bangunan,Toko bahan makanan,TB. NIDA  NAHZA,"997J+V2M, Murung Taal, Kec. Labuan Amas Sel., Kabupaten Hulu Sungai Tengah, Kalimantan Selatan 71361","Murung Taal, Kec. Labuan Amas Sel., Kabupaten Hulu Sungai Tengah",KALIMANTAN SELATAN,71361.0,Indonesia,,,,-2.6352925,115.3800531,https://maps.google.com/?cid=0x0:0x21e4560405071f03,
toko bangunan,Toko Bahan Bangunan,TB. AINUL AMIN,"97JQ+C59, Jalan Raya Pamangkih, Kasarangan, Kec. Labuan Amas Utara, Kabupaten Hulu Sungai Tengah, Kalimantan Selatan 71362","Jalan Raya Pamangkih, Kasarangan, Kec. Labuan Amas Utara, Kabupaten Hulu Sungai Tengah",KALIMANTAN SELATAN,71362.0,Indonesia,,,,-2.6189697,115.2879963,https://maps.google.com/?cid=0x0:0x1658e1408942fc17,
toko bangunan,Toko Bahan Bangunan,UD Daha putra barabai,"JL. Pajukungan Simpang 3, RT. 3 RW. 2, Pajukungan, Kec. Barabai, Kabupaten Hulu Sungai Tengah, Kalimantan Selatan 71352","RT. 3 RW. 2, Pajukungan, Kec. Barabai, Kabupaten Hulu Sungai Tengah",KALIMANTAN SELATAN,71352.0,Indonesia,82153005577.0,,,-2.5998607,115.3541399,https://maps.google.com/?cid=0x0:0xf518912599d6c7a7,
toko bangunan,Toko Bahan Bangunan,Toko Bangunan Ina,"673M+79G, Jambu Hilir, Kec. Kandangan, Kabupaten Hulu Sungai Selatan, Kalimantan Selatan 71211","Jambu Hilir, Kec. Kandangan, Kabupaten Hulu Sungai Selatan",KALIMANTAN SELATAN,71211.0,Indonesia,81385661699.0,,,-2.7968061,115.2834616,https://maps.google.com/?cid=0x0:0x95de7f7299633166,
toko bangunan,Toko Bahan Bangunan,TOKO UD. WAWAN Jual Kayu  Bahan Bangunan,"Jl. Perintis Kemerdekaan No.RT. 04, RT.No.20/RW.01, Benawa Tengah, Kec. Barabai, Kabupaten Hulu Sungai Tengah, Kalimantan Selatan 71313","RT.No.20/RW.01, Benawa Tengah, Kec. Barabai, Kabupaten Hulu Sungai Tengah",KALIMANTAN SELATAN,71313.0,Indonesia,8161999912.0,,,-2.5905148,115.388556,https://maps.google.com/?cid=0x0:0x85ad45d69b4ca13d,
toko bangunan,Toko Bahan Bangunan,Tb. H Burhan pantai hambawang,"88FH+P2V, Jl. A. Yani, Barikin, Kec. Haruyan, Kabupaten Hulu Sungai Tengah, Kalimantan Selatan 71363","Jl. A. Yani, Barikin, Kec. Haruyan, Kabupaten Hulu Sungai Tengah",KALIMANTAN SELATAN,71363.0,Indonesia,85245300703.0,,,-2.6756257,115.3275496,https://maps.google.com/?cid=0x0:0x9b47433b9cc22919,
toko bangunan,Toko Bahan Bangunan,zainuri (batu bata),"C83R+27V, Banua Hanyar, Kec. Pandawan, Kabupaten Hulu Sungai Tengah, Kalimantan Selatan","Kabupaten Hulu Sungai Tengah, Kalimantan Selatan",KALIMANTAN SELATAN,,Indonesia,83121529593.0,,,-2.5973859,115.3406773,https://maps.google.com/?cid=0x0:0x8cc01393377b944b,
toko bangunan,Toko Bahan Bangunan,UD. Berkat Kawan,"99WM+C64, Jl. Kayu Bawang, Kayu Bawang, Kec. Barabai, Kabupaten Hulu Sungai Tengah, Kalimantan Selatan 71315","Jl. Kayu Bawang, Kayu Bawang, Kec. Barabai, Kabupaten Hulu Sungai Tengah",KALIMANTAN SELATAN,71315.0,Indonesia,85248349577.0,,,-2.6039934,115.3830703,https://maps.google.com/?cid=0x0:0xe791ff78b211c079,
toko bangunan,Toko Bahan Bangunan,ULIN UTAMA.TB,"6779+RXQ, Kandangan Kota, Kec. Kandangan, Kabupaten Hulu Sungai Selatan, Kalimantan Selatan 71213","Kandangan Kota, Kec. Kandangan, Kabupaten Hulu Sungai Selatan",KALIMANTAN SELATAN,71213.0,Indonesia,,,,-2.7854131,115.2699771,https://maps.google.com/?cid=0x0:0xbb6380fc743cad35,
toko bangunan,Toko Perlengkapan Rumah,Toko Bangunan,"Jl. A. Yani, Matang Ginalun, Kec. Pandawan, Kabupaten Hulu Sungai Tengah, Kalimantan Selatan 71352","Matang Ginalun, Kec. Pandawan, Kabupaten Hulu Sungai Tengah",KALIMANTAN SELATAN,71352.0,Indonesia,8161999912.0,,,-2.5866557,115.3759065,https://maps.google.com/?cid=0x0:0xf79511cc081343d5,
toko bangunan,Toko Perlengkapan Rumah,TOKO BERKATMANDIRI,"C947+4F9, Bukat, Kec. Barabai, Kabupaten Hulu Sungai Tengah, Kalimantan Selatan 71352","Bukat, Kec. Barabai, Kabupaten Hulu Sungai Tengah",KALIMANTAN SELATAN,71352.0,Indonesia,,,,-2.594719,115.3636994,https://maps.google.com/?cid=0x0:0x34211fb111fab93d,
toko bangunan,Toko Bahan Bangunan,Toko Berkah Abadi,"9CH9+H8X, Pagat, Kec. Batu Benawa, Kabupaten Hulu Sungai Tengah, Kalimantan Selatan 71371","Pagat, Kec. Batu Benawa, Kabupaten Hulu Sungai Tengah",KALIMANTAN SELATAN,71371.0,Indonesia,,,,-2.621745,115.4189828,https://maps.google.com/?cid=0x0:0x1aaede1d712f3d29,
toko bangunan,toko bangunan,Kalimantan Selatan 71362,"Kec. Labuan Amas Utara, Kabupaten Hulu Sungai Tengah, Kalimantan Selatan","Kabupaten Hulu Sungai Tengah, Kalimantan Selatan",KALIMANTAN SELATAN,,Indonesia,,,,-2.603915,115.2126293,https://maps.google.com/?cid=0x0:0xab7bf48564cb2e60,
toko bangunan,toko bangunan,Toko Bangunan M. AKBAR,"C6RJ+F83, Sungai Buluh, Kec. Labuan Amas Utara, Kabupaten Hulu Sungai Tengah, Kalimantan Selatan","Kabupaten Hulu Sungai Tengah, Kalimantan Selatan",KALIMANTAN SELATAN,,Indonesia,,,,-2.5588501,115.230796,https://maps.google.com/?cid=0x0:0x386d92901f75fda8,
toko bangunan,Toko Bahan Bangunan,Toko Bangunan Riry,"97JV+C4G, Jl. Ambawang - Amuntai, Kasarangan, Kec. Labuan Amas Utara, Kabupaten Hulu Sungai Tengah, Kalimantan Selatan 71362","Jl. Ambawang - Amuntai, Kasarangan, Kec. Labuan Amas Utara, Kabupaten Hulu Sungai Tengah",KALIMANTAN SELATAN,71362.0,Indonesia,83899586603.0,,,-2.6189391,115.2928416,https://maps.google.com/?cid=0x0:0x63967b19fbd87220,
toko bangunan,Toko Bahan Bangunan,Toko Bangunan Hidayah,"Banua Kupang, Kec. Labuan Amas Utara, Kabupaten Hulu Sungai Tengah, Kalimantan Selatan 71362","Kec. Labuan Amas Utara, Kabupaten Hulu Sungai Tengah",KALIMANTAN SELATAN,71362.0,Indonesia,81357069229.0,,,-2.6016082,115.3217385,https://maps.google.com/?cid=0x0:0xafeaad0301b35e5e,
toko bangunan,Toko Bahan Bangunan,TB. AINUL AMIN,"97JQ+C59, Jalan Raya Pamangkih, Kasarangan, Kec. Labuan Amas Utara, Kabupaten Hulu Sungai Tengah, Kalimantan Selatan 71362","Jalan Raya Pamangkih, Kasarangan, Kec. Labuan Amas Utara, Kabupaten Hulu Sungai Tengah",KALIMANTAN SELATAN,71362.0,Indonesia,,,,-2.6189697,115.2879963,https://maps.google.com/?cid=0x0:0x1658e1408942fc17,
toko bangunan,Toko Bahan Bangunan,"RAHMAT ILAHI,TB","88VG+3XP, Jl. Tabu Darat Hilir, Tabudarat Hulu, Kec. Labuan Amas Sel., Kabupaten Hulu Sungai Tengah, Kalimantan Selatan 71361","Jl. Tabu Darat Hilir, Tabudarat Hulu, Kec. Labuan Amas Sel., Kabupaten Hulu Sungai Tengah",KALIMANTAN SELATAN,71361.0,Indonesia,8125032674.0,,,-2.6572991,115.3274588,https://maps.google.com/?cid=0x0:0x80a1649fe36f02d4,
toko bangunan,Toko Bahan Bangunan,Toko Cahaya Ni'mah,"989R+76V, Jl. A. Yani, Sungai Rangas, Kec. Labuan Amas Sel., Kabupaten Hulu Sungai Tengah, Kalimantan Selatan 71361","Jl. A. Yani, Sungai Rangas, Kec. Labuan Amas Sel., Kabupaten Hulu Sungai Tengah",KALIMANTAN SELATAN,71361.0,Indonesia,85251960768.0,,,-2.6317612,115.3405426,https://maps.google.com/?cid=0x0:0x1f7dbb4fa6f81cc,
toko bangunan,Toko Bahan Bangunan,TB.RAHMAN,"988Q+3P4, Jl. A. Yani, Sungai Rangas, Kec. Labuan Amas Sel., Kabupaten Hulu Sungai Tengah, Kalimantan Selatan 71361","Jl. A. Yani, Sungai Rangas, Kec. Labuan Amas Sel., Kabupaten Hulu Sungai Tengah",KALIMANTAN SELATAN,71361.0,Indonesia,85821862815.0,,,-2.6348619,115.3393338,https://maps.google.com/?cid=0x0:0x374c65984edb5d67,
toko bangunan,Toko Bahan Bangunan,Bahan Bangunan UD ANUGRAH/Wantilan,"RT.006/RW.003, Pajukungan, Kec. Barabai, Kabupaten Hulu Sungai Tengah, Kalimantan Selatan 71315","Pajukungan, Kec. Barabai, Kabupaten Hulu Sungai Tengah",KALIMANTAN SELATAN,71315.0,Indonesia,,,,-2.5987253,115.3495238,https://maps.google.com/?cid=0x0:0xc51436275f38e1fa,
toko bangunan,Pemasok Bahan Bangunan,JAWA BETON PAJUKUNGAN,"Jl. A. Yani, Durian Gantang, Kec. Labuan Amas Sel., Kabupaten Hulu Sungai Tengah, Kalimantan Selatan 71352","Durian Gantang, Kec. Labuan Amas Sel., Kabupaten Hulu Sungai Tengah",KALIMANTAN SELATAN,71352.0,Indonesia,85156699812.0,,,-2.6034392,115.3541599,https://maps.google.com/?cid=0x0:0x84a9ea97563b1470,
toko bangunan,Toko Bahan Bangunan,toko BANGUNAN NENE AQILA,"C9RC+MJ6, Unnamed Road, Babai, Kec. Barabai, Kabupaten Hulu Sungai Tengah, Kalimantan Selatan 71352","Unnamed Road, Babai, Kec. Barabai, Kabupaten Hulu Sungai Tengah",KALIMANTAN SELATAN,71352.0,Indonesia,85705852845.0,,,-2.5583467,115.3715055,https://maps.google.com/?cid=0x0:0x9cc25f0cb86a936f,
toko bangunan,Toko Bahan Bangunan,Tb. Annisa Rasau (Barabai),"Matang Ginalun, Kec. Pandawan, Kabupaten Hulu Sungai Tengah, Kalimantan Selatan 71352","Kec. Pandawan, Kabupaten Hulu Sungai Tengah",KALIMANTAN SELATAN,71352.0,Indonesia,81351482275.0,,,-2.5855869,115.3720548,https://maps.google.com/?cid=0x0:0x814cd2b28f7225dc,
toko bangunan,Toko Perlengkapan Rumah,Toko Bangunan Husenan,"C9X5+C25, Banua Batung, Kec. Pandawan, Kabupaten Hulu Sungai Tengah, Kalimantan Selatan 71352","Banua Batung, Kec. Pandawan, Kabupaten Hulu Sungai Tengah",KALIMANTAN SELATAN,71352.0,Indonesia,,,,-2.5514914,115.357612,https://maps.google.com/?cid=0x0:0xc0fd38eecf20dfa,
toko bangunan,Toko Perlengkapan Rumah,Toko bangunan cabang al-amin,"F47R+CMQ, Jl. Alabio Danau Panggang, Babirik Hilir, Kec. Babirik, Kabupaten Hulu Sungai Utara, Kalimantan Selatan 71455","Jl. Alabio Danau Panggang, Babirik Hilir, Kec. Babirik, Kabupaten Hulu Sungai Utara",KALIMANTAN SELATAN,71455.0,Indonesia,82350476429.0,,,-2.5364141,115.1417211,https://maps.google.com/?cid=0x0:0x98177026762aa5ae,
toko bangunan,Toko Bahan Bangunan,Toko Bangunan Ina,"673M+79G, Jambu Hilir, Kec. Kandangan, Kabupaten Hulu Sungai Selatan, Kalimantan Selatan 71211","Jambu Hilir, Kec. Kandangan, Kabupaten Hulu Sungai Selatan",KALIMANTAN SELATAN,71211.0,Indonesia,81385661699.0,,,-2.7968061,115.2834616,https://maps.google.com/?cid=0x0:0x95de7f7299633166,
toko bangunan,Toko Perlengkapan Rumah,Toko Bangunan,"Jl. A. Yani, Matang Ginalun, Kec. Pandawan, Kabupaten Hulu Sungai Tengah, Kalimantan Selatan 71352","Matang Ginalun, Kec. Pandawan, Kabupaten Hulu Sungai Tengah",KALIMANTAN SELATAN,71352.0,Indonesia,8161999912.0,,,-2.5866557,115.3759065,https://maps.google.com/?cid=0x0:0xf79511cc081343d5,
toko bangunan,Toko Bahan Bangunan,zainuri (batu bata),"C83R+27V, Banua Hanyar, Kec. Pandawan, Kabupaten Hulu Sungai Tengah, Kalimantan Selatan","Kabupaten Hulu Sungai Tengah, Kalimantan Selatan",KALIMANTAN SELATAN,,Indonesia,83121529593.0,,,-2.5973859,115.3406773,https://maps.google.com/?cid=0x0:0x8cc01393377b944b,
toko bangunan,Toko Bahan Bangunan,Raya  Azkia,"C83Q+89G, Unnamed Road, Banua Hanyar, Kec. Pandawan, Kabupaten Hulu Sungai Tengah, Kalimantan Selatan 71352","Unnamed Road, Banua Hanyar, Kec. Pandawan, Kabupaten Hulu Sungai Tengah",KALIMANTAN SELATAN,71352.0,Indonesia,82250649814.0,,,-2.5966929,115.338455,https://maps.google.com/?cid=0x0:0xc0d65dd240282f95,
toko bangunan,Toko Bahan Bangunan,UD Daha putra barabai,"JL. Pajukungan Simpang 3, RT. 3 RW. 2, Pajukungan, Kec. Barabai, Kabupaten Hulu Sungai Tengah, Kalimantan Selatan 71352","RT. 3 RW. 2, Pajukungan, Kec. Barabai, Kabupaten Hulu Sungai Tengah",KALIMANTAN SELATAN,71352.0,Indonesia,82153005577.0,,,-2.5998607,115.3541399,https://maps.google.com/?cid=0x0:0xf518912599d6c7a7,
toko bangunan,Pemasok kayu,Warung Kayu Silahudin,"C8GJ+4V7, Mahang Sei Hanyar, Kec. Pandawan, Kabupaten Hulu Sungai Tengah, Kalimantan Selatan 71352","Mahang Sei Hanyar, Kec. Pandawan, Kabupaten Hulu Sungai Tengah",KALIMANTAN SELATAN,71352.0,Indonesia,,,,-2.5747016,115.3321679,https://maps.google.com/?cid=0x0:0xb7fdf4ac06733182,
toko bangunan,Toko Bahan Bangunan,Toko Rahmat Terang,"C949+9MH, Bukat, Kec. Barabai, Kabupaten Hulu Sungai Tengah, Kalimantan Selatan 71352","Bukat, Kec. Barabai, Kabupaten Hulu Sungai Tengah",KALIMANTAN SELATAN,71352.0,Indonesia,,,,-2.5940507,115.36925,https://maps.google.com/?cid=0x0:0xe20be4adf816840d,
toko bangunan,Toko Bahan Bangunan,Tb. H Burhan pantai hambawang,"88FH+P2V, Jl. A. Yani, Barikin, Kec. Haruyan, Kabupaten Hulu Sungai Tengah, Kalimantan Selatan 71363","Jl. A. Yani, Barikin, Kec. Haruyan, Kabupaten Hulu Sungai Tengah",KALIMANTAN SELATAN,71363.0,Indonesia,85245300703.0,,,-2.6756257,115.3275496,https://maps.google.com/?cid=0x0:0x9b47433b9cc22919,
toko bangunan,toko bangunan,Kalimantan Selatan 71391,"Kabupaten Hulu Sungai Tengah, Kalimantan Selatan","Kabupaten Hulu Sungai Tengah, Kalimantan Selatan",KALIMANTAN SELATAN,,Indonesia,,,,-2.5000289,115.4378152,https://maps.google.com/?cid=0x0:0xdffec40975c2ada2,
toko bangunan,Pusat Perbelanjaan,Toko aisyah,"FFFF+XQ6, Abung Surapati, Kec. Limpasu, Kabupaten Hulu Sungai Tengah, Kalimantan Selatan","Kabupaten Hulu Sungai Tengah, Kalimantan Selatan",KALIMANTAN SELATAN,,Indonesia,85238105051.0,,,-2.5250808,115.4743904,https://maps.google.com/?cid=0x0:0x48fa9388812746fe,
toko bangunan,Toko Perlengkapan Rumah,Tb berkat mandiri birayang,"FFWH+WJ8, Karatungan, Kec. Limpasu, Kabupaten Hulu Sungai Tengah, Kalimantan Selatan 71391","Karatungan, Kec. Limpasu, Kabupaten Hulu Sungai Tengah",KALIMANTAN SELATAN,71391.0,Indonesia,83160960400.0,,,-2.5040733,115.4788433,https://maps.google.com/?cid=0x0:0xbf9ab98bab9ff83e,
toko bangunan,Toko Perlengkapan Rumah,Toko alat bangunan sudi bungkang.trimas.,"FCH2+JVM, JL.ULAMA, Ilung, Kec. Batang Alai Utara, Kabupaten Hulu Sungai Tengah, Kalimantan Selatan 71391","JL.ULAMA, Ilung, Kec. Batang Alai Utara, Kabupaten Hulu Sungai Tengah",KALIMANTAN SELATAN,71391.0,Indonesia,,,,-2.5209169,115.4021704,https://maps.google.com/?cid=0x0:0xb0eed6f4bed79f55,
toko bangunan,Toko Bahan Bangunan,TOKO HUSNA,"Jl. Surapati No.42, RT.002/RW.005, Barabai Tim., Kec. Barabai, Kabupaten Hulu Sungai Tengah, Kalimantan Selatan 71315","RT.002/RW.005, Barabai Tim., Kec. Barabai, Kabupaten Hulu Sungai Tengah",KALIMANTAN SELATAN,71315.0,Indonesia,821533228455.0,,,-2.5676016,115.3869127,https://maps.google.com/?cid=0x0:0x32aefeb2a652368b,
toko bangunan,Toko Perlengkapan Rumah,Toko Aulia,"CCW9+839, Jl. A. Yani, Kapar, Kec. Batang Alai Sel., Kabupaten Hulu Sungai Tengah, Kalimantan Selatan 71315","Jl. A. Yani, Kapar, Kec. Batang Alai Sel., Kabupaten Hulu Sungai Tengah",KALIMANTAN SELATAN,71315.0,Indonesia,,,,-2.5542098,115.4177471,https://maps.google.com/?cid=0x0:0x2bbad0ff70ed3965,
toko bangunan,Toko Bahan Bangunan,Toko Wahyu Beton,"Rangas, Kec. Batang Alai Sel., Kabupaten Hulu Sungai Tengah, Kalimantan Selatan 71381","Kec. Batang Alai Sel., Kabupaten Hulu Sungai Tengah",KALIMANTAN SELATAN,71381.0,Indonesia,82331413312.0,,,-2.5445478,115.4681298,https://maps.google.com/?cid=0x0:0x9bee6eb593910c63,
toko bangunan,Toko Perlengkapan Rumah,Toko Bangunan hidry,"FC3X+GJ4, Birayang Surapati, Kec. Batang Alai Sel., Kabupaten Hulu Sungai Tengah, Kalimantan Selatan 71381","Birayang Surapati, Kec. Batang Alai Sel., Kabupaten Hulu Sungai Tengah",KALIMANTAN SELATAN,71381.0,Indonesia,,,,-2.5459785,115.4491334,https://maps.google.com/?cid=0x0:0xf2fddffdc4605a3,
toko bangunan,Toko Perlengkapan Rumah,Toko Bangunan Husenan,"C9X5+C25, Banua Batung, Kec. Pandawan, Kabupaten Hulu Sungai Tengah, Kalimantan Selatan 71352","Banua Batung, Kec. Pandawan, Kabupaten Hulu Sungai Tengah",KALIMANTAN SELATAN,71352.0,Indonesia,,,,-2.5514914,115.357612,https://maps.google.com/?cid=0x0:0xc0fd38eecf20dfa,
toko bangunan,Toko Bahan Bangunan,Toko Bangunan Lesmana,"GCX7+PHW, Jl. A. Yani, Haur Gading, Kec. Batang Alai Utara, Kabupaten Hulu Sungai Tengah, Kalimantan Selatan 71663","Jl. A. Yani, Haur Gading, Kec. Batang Alai Utara, Kabupaten Hulu Sungai Tengah",KALIMANTAN SELATAN,71663.0,Indonesia,,,,-2.4506378,115.4139436,https://maps.google.com/?cid=0x0:0x5f8db236cdfc966f,
toko bangunan,Toko Bahan Bangunan,Tk Bangunan Berkah,"FCR4+RJC, Maringgit, Kec. Batang Alai Utara, Kabupaten Hulu Sungai Tengah, Kalimantan Selatan 71391","Maringgit, Kec. Batang Alai Utara, Kabupaten Hulu Sungai Tengah",KALIMANTAN SELATAN,71391.0,Indonesia,8161999912.0,,,-2.5079298,115.4065229,https://maps.google.com/?cid=0x0:0x7545a5fb31ca1b62,
toko bangunan,Toko Bahan Bangunan,toko BANGUNAN NENE AQILA,"C9RC+MJ6, Unnamed Road, Babai, Kec. Barabai, Kabupaten Hulu Sungai Tengah, Kalimantan Selatan 71352","Unnamed Road, Babai, Kec. Barabai, Kabupaten Hulu Sungai Tengah",KALIMANTAN SELATAN,71352.0,Indonesia,85705852845.0,,,-2.5583467,115.3715055,https://maps.google.com/?cid=0x0:0x9cc25f0cb86a936f,
toko bangunan,Toko Bahan Bangunan,TB. KHALISA,"C99Q+W4R Fotocopy Nena, Dekat, Jl. Ir. Pangeran Haji Muhammad Nur No.46, Barabai Tim., Kec. Barabai, Kabupaten Hulu Sungai Tengah, Kalimantan Selatan 71315","Dekat, Jl. Ir. Pangeran Haji Muhammad Nur No.46, Barabai Tim., Kec. Barabai, Kabupaten Hulu Sungai Tengah",KALIMANTAN SELATAN,71315.0,Indonesia,87781689990.0,,,-2.579826,115.3878259,https://maps.google.com/?cid=0x0:0x861f73d7d7b32c50,
toko bangunan,Toko Perlengkapan Rumah,Batako hapingin,"FCF9+M99 Ilung, Jalan, Ilung Ps. Lama, Kec. Batang Alai Utara, Kabupaten Hulu Sungai Tengah, Kalimantan Selatan 71391","Jalan, Ilung Ps. Lama, Kec. Batang Alai Utara, Kabupaten Hulu Sungai Tengah",KALIMANTAN SELATAN,71391.0,Indonesia,85251410016.0,,,-2.5258496,115.4184793,https://maps.google.com/?cid=0x0:0xf843b73859261bf7,
toko bangunan,Toko Bahan Bangunan,wantilan kayu upi,"F9HP+FXG, Sumanggi, Kec. Batang Alai Utara, Kabupaten Hulu Sungai Tengah, Kalimantan Selatan 71391","Sumanggi, Kec. Batang Alai Utara, Kabupaten Hulu Sungai Tengah",KALIMANTAN SELATAN,71391.0,Indonesia,,,,-2.5213223,115.3874591,https://maps.google.com/?cid=0x0:0x5d78dac44b2fe972,
toko bangunan,Toko Bahan Bangunan,Toko lesmana2,"GFVF+5V8, Pelajau, Kec. Batu Mandi, Kabupaten Balangan, Kalimantan Selatan 71663","Pelajau, Kec. Batu Mandi, Kabupaten Balangan",KALIMANTAN SELATAN,71663.0,Indonesia,,,,-2.4570768,115.4746934,https://maps.google.com/?cid=0x0:0xbc749078023aef3a,
toko bangunan,Toko Perlengkapan Rumah,Batako Ilung,"FCH3+55J, JL.ULAMA, Ilung Ps. Lama, Kec. Batang Alai Utara, Kabupaten Hulu Sungai Tengah, Kalimantan Selatan 71391","JL.ULAMA, Ilung Ps. Lama, Kec. Batang Alai Utara, Kabupaten Hulu Sungai Tengah",KALIMANTAN SELATAN,71391.0,Indonesia,,,,-2.5220344,115.4029059,https://maps.google.com/?cid=0x0:0xb5251089117cf574,
toko bangunan,Toko Bahan Bangunan,UD.Berkah Muhibbin,"Banua Jingah, Kec. Barabai, Kabupaten Hulu Sungai Tengah, Kalimantan Selatan 71315","Kec. Barabai, Kabupaten Hulu Sungai Tengah",KALIMANTAN SELATAN,71315.0,Indonesia,8125007197.0,,,-2.5681521,115.3877747,https://maps.google.com/?cid=0x0:0x6721013f2232f843,
toko bangunan,Toko Bahan Bangunan,Tb. Hidayah Bangunan,"FC2W+QCC, Jl. Merdeka, Birayang, Kec. Batang Alai Sel., Kabupaten Hulu Sungai Tengah, Kalimantan Selatan 71381","Jl. Merdeka, Birayang, Kec. Batang Alai Sel., Kabupaten Hulu Sungai Tengah",KALIMANTAN SELATAN,71381.0,Indonesia,85169981293.0,,,-2.5480649,115.446023,https://maps.google.com/?cid=0x0:0x4e248a41293598a2,
toko bangunan,,toko material,"Desa tapus,jln brigjend h.hasan basri,no 012, rt 02, Kalimantan Selatan 71411",rt 02,KALIMANTAN SELATAN,71411.0,Indonesia,8161999912.0,,,-2.4861841,115.2350268,https://maps.google.com/?cid=0x0:0x58491fe764e7ead9,
toko bangunan,Toko,Toko cahaya baru,"F89V+R8P, Hilir Banua, Kec. Pandawan, Kabupaten Hulu Sungai Tengah, Kalimantan Selatan 71352","Hilir Banua, Kec. Pandawan, Kabupaten Hulu Sungai Tengah",KALIMANTAN SELATAN,71352.0,Indonesia,,,,-2.530575,115.3446968,https://maps.google.com/?cid=0x0:0xcecfaeb012ddc805,
toko bangunan,Toko Perlengkapan Rumah,Toko Bangunan,"Jl. A. Yani, Matang Ginalun, Kec. Pandawan, Kabupaten Hulu Sungai Tengah, Kalimantan Selatan 71352","Matang Ginalun, Kec. Pandawan, Kabupaten Hulu Sungai Tengah",KALIMANTAN SELATAN,71352.0,Indonesia,8161999912.0,,,-2.5866557,115.3759065,https://maps.google.com/?cid=0x0:0xf79511cc081343d5,
toko bangunan,Toko,Toko cahaya baru,"F89V+R8P, Hilir Banua, Kec. Pandawan, Kabupaten Hulu Sungai Tengah, Kalimantan Selatan 71352","Hilir Banua, Kec. Pandawan, Kabupaten Hulu Sungai Tengah",KALIMANTAN SELATAN,71352.0,Indonesia,,,,-2.530575,115.3446968,https://maps.google.com/?cid=0x0:0xcecfaeb012ddc805,
toko bangunan,toko bangunan,Pandawan,"Kec. Pandawan, Kabupaten Hulu Sungai Tengah, Kalimantan Selatan","Kabupaten Hulu Sungai Tengah, Kalimantan Selatan",KALIMANTAN SELATAN,,Indonesia,,,,-2.5683337,115.3474645,https://maps.google.com/?cid=0x0:0x3ba4c355fadd93b4,
toko bangunan,Toko Bahan Bangunan,Toko Bangunan Ina,"673M+79G, Jambu Hilir, Kec. Kandangan, Kabupaten Hulu Sungai Selatan, Kalimantan Selatan 71211","Jambu Hilir, Kec. Kandangan, Kabupaten Hulu Sungai Selatan",KALIMANTAN SELATAN,71211.0,Indonesia,81385661699.0,,,-2.7968061,115.2834616,https://maps.google.com/?cid=0x0:0x95de7f7299633166,
toko bangunan,Toko Bahan Bangunan,Toko Bangunan M.irwan,"938V+32V, Habirau, Kec. Daha Sel., Kabupaten Hulu Sungai Selatan, Kalimantan Selatan 71253","Habirau, Kec. Daha Sel., Kabupaten Hulu Sungai Selatan",KALIMANTAN SELATAN,71253.0,Indonesia,,,,-2.634918,115.0926108,https://maps.google.com/?cid=0x0:0x1a02abc05a970ca5,
toko bangunan,Toko Bahan Bangunan,Toko Bangunan Hidayah,"Banua Kupang, Kec. Labuan Amas Utara, Kabupaten Hulu Sungai Tengah, Kalimantan Selatan 71362","Kec. Labuan Amas Utara, Kabupaten Hulu Sungai Tengah",KALIMANTAN SELATAN,71362.0,Indonesia,81357069229.0,,,-2.6016082,115.3217385,https://maps.google.com/?cid=0x0:0xafeaad0301b35e5e,
toko bangunan,toko bangunan,Kalimantan Selatan 71352,"Kec. Pandawan, Kabupaten Hulu Sungai Tengah, Kalimantan Selatan","Kabupaten Hulu Sungai Tengah, Kalimantan Selatan",KALIMANTAN SELATAN,,Indonesia,,,,-2.5565332,115.319317,https://maps.google.com/?cid=0x0:0x35aff6e9c6acb41f,
toko bangunan,Toko Perlengkapan Rumah,Toko Bangunan Husenan,"C9X5+C25, Banua Batung, Kec. Pandawan, Kabupaten Hulu Sungai Tengah, Kalimantan Selatan 71352","Banua Batung, Kec. Pandawan, Kabupaten Hulu Sungai Tengah",KALIMANTAN SELATAN,71352.0,Indonesia,,,,-2.5514914,115.357612,https://maps.google.com/?cid=0x0:0xc0fd38eecf20dfa,
toko bangunan,Toko Bahan Bangunan,TOKO HUSNA,"Jl. Surapati No.42, RT.002/RW.005, Barabai Tim., Kec. Barabai, Kabupaten Hulu Sungai Tengah, Kalimantan Selatan 71315","RT.002/RW.005, Barabai Tim., Kec. Barabai, Kabupaten Hulu Sungai Tengah",KALIMANTAN SELATAN,71315.0,Indonesia,821533228455.0,,,-2.5676016,115.3869127,https://maps.google.com/?cid=0x0:0x32aefeb2a652368b,
toko bangunan,Toko Perlengkapan Rumah,Ud iqnan khuzbiyadi,"C96H+V63, Gg. Keramat, Hulu Rasau, Kec. Pandawan, Kabupaten Hulu Sungai Tengah, Kalimantan Selatan 71352","Gg. Keramat, Hulu Rasau, Kec. Pandawan, Kabupaten Hulu Sungai Tengah",KALIMANTAN SELATAN,71352.0,Indonesia,,,,-2.5878555,115.3780344,https://maps.google.com/?cid=0x0:0xa15d139fd3a823cc,
toko bangunan,Toko Bahan Bangunan,UD.Nuri Shafwa,"C8WW+Q2R, Jl. Batuah, Kambat Sel., Kec. Pandawan, Kabupaten Hulu Sungai Tengah, Kalimantan Selatan 71352","Jl. Batuah, Kambat Sel., Kec. Pandawan, Kabupaten Hulu Sungai Tengah",KALIMANTAN SELATAN,71352.0,Indonesia,81218193949.0,,,-2.5530016,115.3450124,https://maps.google.com/?cid=0x0:0x1a26a8de8b965249,
toko bangunan,Toko Bahan Bangunan,Tb. Annisa Rasau (Barabai),"Matang Ginalun, Kec. Pandawan, Kabupaten Hulu Sungai Tengah, Kalimantan Selatan 71352","Kec. Pandawan, Kabupaten Hulu Sungai Tengah",KALIMANTAN SELATAN,71352.0,Indonesia,81351482275.0,,,-2.5855869,115.3720548,https://maps.google.com/?cid=0x0:0x814cd2b28f7225dc,
toko bangunan,Toko Bahan Bangunan,Raya  Azkia,"C83Q+89G, Unnamed Road, Banua Hanyar, Kec. Pandawan, Kabupaten Hulu Sungai Tengah, Kalimantan Selatan 71352","Unnamed Road, Banua Hanyar, Kec. Pandawan, Kabupaten Hulu Sungai Tengah",KALIMANTAN SELATAN,71352.0,Indonesia,82250649814.0,,,-2.5966929,115.338455,https://maps.google.com/?cid=0x0:0xc0d65dd240282f95,
toko bangunan,Toko Bahan Bangunan,toko BANGUNAN NENE AQILA,"C9RC+MJ6, Unnamed Road, Babai, Kec. Barabai, Kabupaten Hulu Sungai Tengah, Kalimantan Selatan 71352","Unnamed Road, Babai, Kec. Barabai, Kabupaten Hulu Sungai Tengah",KALIMANTAN SELATAN,71352.0,Indonesia,85705852845.0,,,-2.5583467,115.3715055,https://maps.google.com/?cid=0x0:0x9cc25f0cb86a936f,
toko bangunan,Toko Perlengkapan Rumah,Toko BETON,"C956+VF9, Jl. Putera Harapan, Matang Ginalun, Kec. Pandawan, Kabupaten Hulu Sungai Tengah, Kalimantan Selatan 71352","Jl. Putera Harapan, Matang Ginalun, Kec. Pandawan, Kabupaten Hulu Sungai Tengah",KALIMANTAN SELATAN,71352.0,Indonesia,,,,-2.5903352,115.361227,https://maps.google.com/?cid=0x0:0x695343b4ec2f1eb3,
toko bangunan,Pemasok kayu,Warung Kayu Silahudin,"C8GJ+4V7, Mahang Sei Hanyar, Kec. Pandawan, Kabupaten Hulu Sungai Tengah, Kalimantan Selatan 71352","Mahang Sei Hanyar, Kec. Pandawan, Kabupaten Hulu Sungai Tengah",KALIMANTAN SELATAN,71352.0,Indonesia,,,,-2.5747016,115.3321679,https://maps.google.com/?cid=0x0:0xb7fdf4ac06733182,
toko bangunan,Toko Bahan Bangunan,Toko Sahabat Barabai,"Jl. M. Ramli, Barabai Darat, Kec. Barabai, Kabupaten Hulu Sungai Tengah, Kalimantan Selatan 71352","Barabai Darat, Kec. Barabai, Kabupaten Hulu Sungai Tengah",KALIMANTAN SELATAN,71352.0,Indonesia,82154197501.0,,,-2.5928275,115.3849778,https://maps.google.com/?cid=0x0:0x487746f7550b8aad,
toko bangunan,Toko Bahan Bangunan,zainuri (batu bata),"C83R+27V, Banua Hanyar, Kec. Pandawan, Kabupaten Hulu Sungai Tengah, Kalimantan Selatan","Kabupaten Hulu Sungai Tengah, Kalimantan Selatan",KALIMANTAN SELATAN,,Indonesia,83121529593.0,,,-2.5973859,115.3406773,https://maps.google.com/?cid=0x0:0x8cc01393377b944b,
toko bangunan,Toko Perlengkapan Rumah,TOKO BERKATMANDIRI,"C947+4F9, Bukat, Kec. Barabai, Kabupaten Hulu Sungai Tengah, Kalimantan Selatan 71352","Bukat, Kec. Barabai, Kabupaten Hulu Sungai Tengah",KALIMANTAN SELATAN,71352.0,Indonesia,,,,-2.594719,115.3636994,https://maps.google.com/?cid=0x0:0x34211fb111fab93d,
toko bangunan,Toko Bahan Bangunan,Bahan Bangunan UD ANUGRAH/Wantilan,"RT.006/RW.003, Pajukungan, Kec. Barabai, Kabupaten Hulu Sungai Tengah, Kalimantan Selatan 71315","Pajukungan, Kec. Barabai, Kabupaten Hulu Sungai Tengah",KALIMANTAN SELATAN,71315.0,Indonesia,,,,-2.5987253,115.3495238,https://maps.google.com/?cid=0x0:0xc51436275f38e1fa,
toko bangunan,Toko Bahan Bangunan,TB. KHALISA,"C99Q+W4R Fotocopy Nena, Dekat, Jl. Ir. Pangeran Haji Muhammad Nur No.46, Barabai Tim., Kec. Barabai, Kabupaten Hulu Sungai Tengah, Kalimantan Selatan 71315","Dekat, Jl. Ir. Pangeran Haji Muhammad Nur No.46, Barabai Tim., Kec. Barabai, Kabupaten Hulu Sungai Tengah",KALIMANTAN SELATAN,71315.0,Indonesia,81385661699.0,,,-2.579826,115.3878259,https://maps.google.com/?cid=0x0:0x861f73d7d7b32c50,
toko bangunan,Toko Bahan Bangunan,"BERKAT BERSAMA,TB","C98H+27W, Barabai Utara, Kec. Barabai, Kabupaten Hulu Sungai Tengah, Kalimantan Selatan 71352","Barabai Utara, Kec. Barabai, Kabupaten Hulu Sungai Tengah",KALIMANTAN SELATAN,71352.0,Indonesia,,,,-2.584891,115.3782035,https://maps.google.com/?cid=0x0:0x7ef03002a9470f92,
toko bangunan,Toko Bahan Bangunan,Toko Rahmat Terang,"C949+9MH, Bukat, Kec. Barabai, Kabupaten Hulu Sungai Tengah, Kalimantan Selatan 71352","Bukat, Kec. Barabai, Kabupaten Hulu Sungai Tengah",KALIMANTAN SELATAN,71352.0,Indonesia,,,,-2.5940507,115.36925,https://maps.google.com/?cid=0x0:0xe20be4adf816840d,
toko bangunan,Toko Bahan Bangunan,Toko Dayat.BRb,"Jl. Brigjen H. Hasan Basri, Barabai Sel., Kec. Barabai, Kabupaten Hulu Sungai Tengah, Kalimantan Selatan 71352","Barabai Sel., Kec. Barabai, Kabupaten Hulu Sungai Tengah",KALIMANTAN SELATAN,71352.0,Indonesia,82154778424.0,,,-2.5886563,115.3815765,https://maps.google.com/?cid=0x0:0xedcad59381ffc989,
toko bangunan,Toko Bahan Bangunan,TOKO UD. WAWAN Jual Kayu  Bahan Bangunan,"Jl. Perintis Kemerdekaan No.RT. 04, RT.No.20/RW.01, Benawa Tengah, Kec. Barabai, Kabupaten Hulu Sungai Tengah, Kalimantan Selatan 71313","RT.No.20/RW.01, Benawa Tengah, Kec. Barabai, Kabupaten Hulu Sungai Tengah",KALIMANTAN SELATAN,71313.0,Indonesia,8161999912.0,,,-2.5905148,115.388556,https://maps.google.com/?cid=0x0:0x85ad45d69b4ca13d,
hardware store,hardware store,Kalimantan Selatan 71311,"Kec. Barabai, Kabupaten Hulu Sungai Tengah, Kalimantan Selatan","Kabupaten Hulu Sungai Tengah, Kalimantan Selatan",KALIMANTAN SELATAN,,Indonesia,,,,-2.5852282,115.4007895,https://maps.google.com/?cid=0x0:0xae5b388bfe1daf8b,
hardware store,Toko Bahan Bangunan,Toko Hani,"blok bahan bangunan, Jl.Pasar 2 Pusat Perbelanjaan, Jl. Murakata No.13-14, Kec. Barabai, Kalimantan Selatan 71311","Jl.Pasar 2 Pusat Perbelanjaan, Jl. Murakata No.13-14, Kec. Barabai",KALIMANTAN SELATAN,71311.0,Indonesia,82186587550.0,,,-2.5868724,115.3832749,https://maps.google.com/?cid=0x0:0xa1649588058e023a,
hardware store,Toko Elektronik,Rayhan elektronik,"Jl. Ir. Pangeran Haji Muhammad Nur, Barabai Tim., Kec. Barabai, Kabupaten Hulu Sungai Tengah, Kalimantan Selatan 71315","Barabai Tim., Kec. Barabai, Kabupaten Hulu Sungai Tengah",KALIMANTAN SELATAN,71315.0,Indonesia,81347984100.0,,,-2.5869675,115.3812792,https://maps.google.com/?cid=0x0:0x400aa347f9a809e3,
hardware store,Toserba,Aladien Berkah Store,"C97P+F4X, Barabai Sel., Kec. Barabai, Kabupaten Hulu Sungai Tengah, Kalimantan Selatan","Kabupaten Hulu Sungai Tengah, Kalimantan Selatan",KALIMANTAN SELATAN,,Indonesia,,,,-2.586259,115.3853458,https://maps.google.com/?cid=0x0:0x696eae9956bbc1c2,
hardware store,Toko Elektronik,Abdillah Phone - Barabai HST,"Jl. Kemasan Luar No.45, RT.04/RW.02, Barabai Sel., Kec. Barabai, Kabupaten Hulu Sungai Tengah, Kalimantan Selatan 71311","RT.04/RW.02, Barabai Sel., Kec. Barabai, Kabupaten Hulu Sungai Tengah",KALIMANTAN SELATAN,71311.0,Indonesia,82358721212.0,,,-2.5883504,115.382594,https://maps.google.com/?cid=0x0:0x3d4605134e1d15f1,
hardware store,Toko Elektronik,Toko Relasi,"C97M+8GM, Jl. Ps. III, Barabai Sel., Kec. Barabai, Kabupaten Hulu Sungai Tengah, Kalimantan Selatan 71352","Jl. Ps. III, Barabai Sel., Kec. Barabai, Kabupaten Hulu Sungai Tengah",KALIMANTAN SELATAN,71352.0,Indonesia,51742776.0,,,-2.586664,115.3837908,https://maps.google.com/?cid=0x0:0xf09e74a862a509c8,
hardware store,Toko Perlengkapan Rumah,Toko Elly,"9CP6+8PV, Jl. Perintis Kemerdekaan, Gambah, Kec. Barabai, Kabupaten Hulu Sungai Tengah, Kalimantan Selatan 71315","Jl. Perintis Kemerdekaan, Gambah, Kec. Barabai, Kabupaten Hulu Sungai Tengah",KALIMANTAN SELATAN,71315.0,Indonesia,,,,-2.6141422,115.4118101,https://maps.google.com/?cid=0x0:0xa173d5a06daa13f1,
hardware store,Toko Elektronik,Toko Usaha Maju Elektronik,"Jl. Ps. III, Barabai Sel., Kec. Barabai, Kabupaten Hulu Sungai Tengah, Kalimantan Selatan 71352","Barabai Sel., Kec. Barabai, Kabupaten Hulu Sungai Tengah",KALIMANTAN SELATAN,71352.0,Indonesia,81287876858.0,,,-2.5865267,115.3834892,https://maps.google.com/?cid=0x0:0xd8053824b5ec9a6,
hardware store,Toko Elektronik,GADGET SHOP,"C97M+39P, Jl. Brigjen H. Hasan Basri, Barabai Sel., Kec. Barabai, Kabupaten Hulu Sungai Tengah, Kalimantan Selatan 71352","Jl. Brigjen H. Hasan Basri, Barabai Sel., Kec. Barabai, Kabupaten Hulu Sungai Tengah",KALIMANTAN SELATAN,71352.0,Indonesia,82267447668.0,,,-2.5872847,115.3834531,https://maps.google.com/?cid=0x0:0x91175ca3b01a9022,
hardware store,Toko Elektronik,serves elektronik fani bazink,"Gambah, Kec. Barabai, Kabupaten Hulu Sungai Tengah, Kalimantan Selatan 71315","Kec. Barabai, Kabupaten Hulu Sungai Tengah",KALIMANTAN SELATAN,71315.0,Indonesia,81349379668.0,,,-2.6188977,115.4132022,https://maps.google.com/?cid=0x0:0x8faacd4e886d5dbb,
hardware store,Toko Komputer,Hidayah Computer,"Jalan Ulama RT.06, RW No.23, Barabai Bar., Kec. Barabai, Kabupaten Hulu Sungai Tengah, Kalimantan Selatan 71314","RW No.23, Barabai Bar., Kec. Barabai, Kabupaten Hulu Sungai Tengah",KALIMANTAN SELATAN,71314.0,Indonesia,82246676657.0,,,-2.5887219,115.3811682,https://maps.google.com/?cid=0x0:0x330a0c8d9f6961,
hardware store,Taman,Lapangan Dwiwarna Barabai,"C98P+25M, Barabai Sel., Kec. Barabai, Kabupaten Hulu Sungai Tengah, Kalimantan Selatan 71315","Barabai Sel., Kec. Barabai, Kabupaten Hulu Sungai Tengah",KALIMANTAN SELATAN,71315.0,Indonesia,82253845099.0,,,-2.584913,115.3854142,https://maps.google.com/?cid=0x0:0x3e68105405a9b1a6,
hardware store,Toko Elektronik,Toko Gurun Putra,"C9HR+H85, Banua Jingah, Kec. Barabai, Kabupaten Hulu Sungai Tengah, Kalimantan Selatan","Kabupaten Hulu Sungai Tengah, Kalimantan Selatan",KALIMANTAN SELATAN,,Indonesia,,,,-2.5711062,115.3908651,https://maps.google.com/?cid=0x0:0x20be64dcba6abbe8,
hardware store,Toko Elektronik,Indah Elektronik,"C9FG+3X6, Banua Binjai, Kec. Barabai, Kabupaten Hulu Sungai Tengah, Kalimantan Selatan 71352","Banua Binjai, Kec. Barabai, Kabupaten Hulu Sungai Tengah",KALIMANTAN SELATAN,71352.0,Indonesia,81367805201.0,,,-2.577339,115.3773842,https://maps.google.com/?cid=0x0:0x72d1ae158e6d4879,
hardware store,Toko Elektronik,TOKO CAHAYA ABADI ELEKTRONIK BARABAI,"C99H+6JJ, Jl. Sarigading, Banua Budi, Kec. Barabai, Kabupaten Hulu Sungai Tengah, Kalimantan Selatan 71352","Jl. Sarigading, Banua Budi, Kec. Barabai, Kabupaten Hulu Sungai Tengah",KALIMANTAN SELATAN,71352.0,Indonesia,81253228816.0,,,-2.5819159,115.3790302,https://maps.google.com/?cid=0x0:0x3c41378d75ab85e8,
hardware store,Toko Elektronik,Rm Electronik,"Jl. Terminal Karamat, Barabai Utara, Kec. Barabai, Kabupaten Hulu Sungai Tengah, Kalimantan Selatan 71352","Barabai Utara, Kec. Barabai, Kabupaten Hulu Sungai Tengah",KALIMANTAN SELATAN,71352.0,Indonesia,87821592774.0,,,-2.5874027,115.3798818,https://maps.google.com/?cid=0x0:0x4de712cf85ab6951,
hardware store,Toko Elektronik,Toko Pagaran Electronik,"Jl. Pasar 1 No.3, Barabai Sel., Kec. Barabai, Kabupaten Hulu Sungai Tengah, Kalimantan Selatan 71352","Barabai Sel., Kec. Barabai, Kabupaten Hulu Sungai Tengah",KALIMANTAN SELATAN,71352.0,Indonesia,51742999.0,,,-2.585394,115.382856,https://maps.google.com/?cid=0x0:0x1acd36d56268b78e,
hardware store,Toko Ponsel,Fazar Phone Barabai,"Jl. Pangeran Antasari No.18A, Barabai Tim., Kec. Barabai, Kabupaten Hulu Sungai Tengah, Kalimantan Selatan 71351","Barabai Tim., Kec. Barabai, Kabupaten Hulu Sungai Tengah",KALIMANTAN SELATAN,71351.0,Indonesia,,,,-2.5800752,115.3845166,https://maps.google.com/?cid=0x0:0xd07832a65e818dd8,
hardware store,Toko Rokok Elektrik,Pasar 1 vapor,"C97M+37P, Jl. Pasar 1, Barabai Sel., Kec. Barabai, Kabupaten Hulu Sungai Tengah, Kalimantan Selatan 71352","Jl. Pasar 1, Barabai Sel., Kec. Barabai, Kabupaten Hulu Sungai Tengah",KALIMANTAN SELATAN,71352.0,Indonesia,85332230123.0,,,-2.5872863,115.3832128,https://maps.google.com/?cid=0x0:0xbcc5766fe2a8b23a,
hardware store,Toko Komputer,TOKO Aisyah Computer,"Seberang Kantor Pemilihan Umum, Jl. Antasari, Kec. Barabai, Kabupaten Hulu Sungai Tengah, Kalimantan Selatan 71315","Jl. Antasari, Kec. Barabai, Kabupaten Hulu Sungai Tengah",KALIMANTAN SELATAN,71315.0,Indonesia,82353185558.0,,,-2.579893,115.3847019,https://maps.google.com/?cid=0x0:0xfa1c2f996db15072,
hardware store,Toko Mainan,Toko Pancar Rejeki Barabai,"C95H+CC4, Barabai Bar., Kec. Barabai, Kabupaten Hulu Sungai Tengah, Kalimantan Selatan 71352","Barabai Bar., Kec. Barabai, Kabupaten Hulu Sungai Tengah",KALIMANTAN SELATAN,71352.0,Indonesia,,,,-2.5914948,115.3785742,https://maps.google.com/?cid=0x0:0x4492f3e7b145fe7d,
hardware store,Toko Mainan,Dhia Gift Shop,"Jl. Ps. III, Barabai Sel., Kec. Barabai, Kabupaten Hulu Sungai Tengah, Kalimantan Selatan 71311","Barabai Sel., Kec. Barabai, Kabupaten Hulu Sungai Tengah",KALIMANTAN SELATAN,71311.0,Indonesia,85251985530.0,,,-2.5865484,115.383641,https://maps.google.com/?cid=0x0:0x10fc67c8fbf37dae,
hardware store,Toko Bahan Bangunan,TB. KHALISA,"C99Q+W4R Fotocopy Nena, Dekat, Jl. Ir. Pangeran Haji Muhammad Nur No.46, Barabai Tim., Kec. Barabai, Kabupaten Hulu Sungai Tengah, Kalimantan Selatan 71315","Dekat, Jl. Ir. Pangeran Haji Muhammad Nur No.46, Barabai Tim., Kec. Barabai, Kabupaten Hulu Sungai Tengah",KALIMANTAN SELATAN,71315.0,Indonesia,87781689990.0,,,-2.579826,115.3878259,https://maps.google.com/?cid=0x0:0x861f73d7d7b32c50,
hardware store,Toko Bahan Bangunan,UD. Karya Abadi,"Jl. Surapati, Banua Jingah, Kec. Barabai, Kabupaten Hulu Sungai Tengah, Kalimantan Selatan 71315","Banua Jingah, Kec. Barabai, Kabupaten Hulu Sungai Tengah",KALIMANTAN SELATAN,71315.0,Indonesia,85348753072.0,,,-2.5654667,115.3869646,https://maps.google.com/?cid=0x0:0x7cd05325d89939ed,
hardware store,Toko Bahan Bangunan,UD. Berkat Kawan,"99WM+C64, Jl. Kayu Bawang, Kayu Bawang, Kec. Barabai, Kabupaten Hulu Sungai Tengah, Kalimantan Selatan 71315","Jl. Kayu Bawang, Kayu Bawang, Kec. Barabai, Kabupaten Hulu Sungai Tengah",KALIMANTAN SELATAN,71315.0,Indonesia,85248349577.0,,,-2.6039934,115.3830703,https://maps.google.com/?cid=0x0:0xe791ff78b211c079,
hardware store,hardware store,Kalimantan Selatan 71312,"Kec. Barabai, Kabupaten Hulu Sungai Tengah, Kalimantan Selatan","Kabupaten Hulu Sungai Tengah, Kalimantan Selatan",KALIMANTAN SELATAN,,Indonesia,,,,-2.5689041,115.3938342,https://maps.google.com/?cid=0x0:0xfb7e28897b88c2f5,
hardware store,hardware store,Kalimantan Selatan 71313,"Kec. Barabai, Kabupaten Hulu Sungai Tengah, Kalimantan Selatan","Kabupaten Hulu Sungai Tengah, Kalimantan Selatan",KALIMANTAN SELATAN,,Indonesia,,,,-2.5853549,115.394865,https://maps.google.com/?cid=0x0:0x725a7ebf48ce4344,
hardware store,Toko Bahan Bangunan,Toko Sahabat Barabai,"Jl. M. Ramli, Barabai Darat, Kec. Barabai, Kabupaten Hulu Sungai Tengah, Kalimantan Selatan 71352","Barabai Darat, Kec. Barabai, Kabupaten Hulu Sungai Tengah",KALIMANTAN SELATAN,71352.0,Indonesia,82154197501.0,,,-2.5928275,115.3849778,https://maps.google.com/?cid=0x0:0x487746f7550b8aad,
hardware store,Toko Bahan Bangunan,TB. KHALISA,"C99Q+W4R Fotocopy Nena, Dekat, Jl. Ir. Pangeran Haji Muhammad Nur No.46, Barabai Tim., Kec. Barabai, Kabupaten Hulu Sungai Tengah, Kalimantan Selatan 71315","Dekat, Jl. Ir. Pangeran Haji Muhammad Nur No.46, Barabai Tim., Kec. Barabai, Kabupaten Hulu Sungai Tengah",KALIMANTAN SELATAN,71315.0,Indonesia,87781689990.0,,,-2.579826,115.3878259,https://maps.google.com/?cid=0x0:0x861f73d7d7b32c50,
hardware store,Toko Bahan Bangunan,Toko Hani,"blok bahan bangunan, Jl.Pasar 2 Pusat Perbelanjaan, Jl. Murakata No.13-14, Kec. Barabai, Kalimantan Selatan 71311","Jl.Pasar 2 Pusat Perbelanjaan, Jl. Murakata No.13-14, Kec. Barabai",KALIMANTAN SELATAN,71311.0,Indonesia,82186587550.0,,,-2.5868724,115.3832749,https://maps.google.com/?cid=0x0:0xa1649588058e023a,
hardware store,Toko Elektronik,Rayhan elektronik,"Jl. Ir. Pangeran Haji Muhammad Nur, Barabai Tim., Kec. Barabai, Kabupaten Hulu Sungai Tengah, Kalimantan Selatan 71315","Barabai Tim., Kec. Barabai, Kabupaten Hulu Sungai Tengah",KALIMANTAN SELATAN,71315.0,Indonesia,81347984100.0,,,-2.5869675,115.3812792,https://maps.google.com/?cid=0x0:0x400aa347f9a809e3,
hardware store,Toko Ponsel,AZ PART,"C96M+35X, Jl. Trikesuma, Barabai Darat, Kec. Barabai, Kabupaten Hulu Sungai Tengah, Kalimantan Selatan 71352","Jl. Trikesuma, Barabai Darat, Kec. Barabai, Kabupaten Hulu Sungai Tengah",KALIMANTAN SELATAN,71352.0,Indonesia,82350981358.0,,,-2.589759,115.382974,https://maps.google.com/?cid=0x0:0xdae09dae85752d10,
hardware store,Toko Bahan Bangunan,Al Zami Toko,"JL. Pasar Baru No.40, Banua Binjai, Kec. Barabai, Kabupaten Hulu Sungai Tengah, Kalimantan Selatan 71311","Banua Binjai, Kec. Barabai, Kabupaten Hulu Sungai Tengah",KALIMANTAN SELATAN,71311.0,Indonesia,51743157.0,,,-2.579949,115.379702,https://maps.google.com/?cid=0x0:0x1ea10fd4adbbde31,
hardware store,Toko Ponsel,Fazar Phone Barabai,"Jl. Pangeran Antasari No.18A, Barabai Tim., Kec. Barabai, Kabupaten Hulu Sungai Tengah, Kalimantan Selatan 71351","Barabai Tim., Kec. Barabai, Kabupaten Hulu Sungai Tengah",KALIMANTAN SELATAN,71351.0,Indonesia,,,,-2.5800752,115.3845166,https://maps.google.com/?cid=0x0:0xd07832a65e818dd8,
hardware store,Toserba,Aladien Berkah Store,"C97P+F4X, Barabai Sel., Kec. Barabai, Kabupaten Hulu Sungai Tengah, Kalimantan Selatan","Kabupaten Hulu Sungai Tengah, Kalimantan Selatan",KALIMANTAN SELATAN,,Indonesia,,,,-2.586259,115.3853458,https://maps.google.com/?cid=0x0:0x696eae9956bbc1c2,
hardware store,Toko Rokok Elektrik,Pasar 1 vapor,"C97M+37P, Jl. Pasar 1, Barabai Sel., Kec. Barabai, Kabupaten Hulu Sungai Tengah, Kalimantan Selatan 71352","Jl. Pasar 1, Barabai Sel., Kec. Barabai, Kabupaten Hulu Sungai Tengah",KALIMANTAN SELATAN,71352.0,Indonesia,85332230123.0,,,-2.5872863,115.3832128,https://maps.google.com/?cid=0x0:0xbcc5766fe2a8b23a,
hardware store,Toko Elektronik,Toko Relasi,"C97M+8GM, Jl. Ps. III, Barabai Sel., Kec. Barabai, Kabupaten Hulu Sungai Tengah, Kalimantan Selatan 71352","Jl. Ps. III, Barabai Sel., Kec. Barabai, Kabupaten Hulu Sungai Tengah",KALIMANTAN SELATAN,71352.0,Indonesia,51742776.0,,,-2.586664,115.3837908,https://maps.google.com/?cid=0x0:0xf09e74a862a509c8,
hardware store,Toko Elektronik,Abdillah Phone - Barabai HST,"Jl. Kemasan Luar No.45, RT.04/RW.02, Barabai Sel., Kec. Barabai, Kabupaten Hulu Sungai Tengah, Kalimantan Selatan 71311","RT.04/RW.02, Barabai Sel., Kec. Barabai, Kabupaten Hulu Sungai Tengah",KALIMANTAN SELATAN,71311.0,Indonesia,82358721212.0,,,-2.5883504,115.382594,https://maps.google.com/?cid=0x0:0x3d4605134e1d15f1,
hardware store,Toko Komputer,TOKO Aisyah Computer,"Seberang Kantor Pemilihan Umum, Jl. Antasari, Kec. Barabai, Kabupaten Hulu Sungai Tengah, Kalimantan Selatan 71315","Jl. Antasari, Kec. Barabai, Kabupaten Hulu Sungai Tengah",KALIMANTAN SELATAN,71315.0,Indonesia,82353185558.0,,,-2.579893,115.3847019,https://maps.google.com/?cid=0x0:0xfa1c2f996db15072,
hardware store,Toko Perlengkapan Rumah,Toko Bangunan,"Jl. A. Yani, Matang Ginalun, Kec. Pandawan, Kabupaten Hulu Sungai Tengah, Kalimantan Selatan 71352","Matang Ginalun, Kec. Pandawan, Kabupaten Hulu Sungai Tengah",KALIMANTAN SELATAN,71352.0,Indonesia,8161999912.0,,,-2.5866557,115.3759065,https://maps.google.com/?cid=0x0:0xf79511cc081343d5,
hardware store,Toko Bahan Bangunan,TB AL BARKAH,"C97H+5RJ, Barabai Utara, Kec. Barabai, Kabupaten Hulu Sungai Tengah, Kalimantan Selatan","Kabupaten Hulu Sungai Tengah, Kalimantan Selatan",KALIMANTAN SELATAN,,Indonesia,,,,-2.5870491,115.3795146,https://maps.google.com/?cid=0x0:0x2f3e158615bf1923,
hardware store,Toko Elektronik,Toko Usaha Maju Elektronik,"Jl. Ps. III, Barabai Sel., Kec. Barabai, Kabupaten Hulu Sungai Tengah, Kalimantan Selatan 71352","Barabai Sel., Kec. Barabai, Kabupaten Hulu Sungai Tengah",KALIMANTAN SELATAN,71352.0,Indonesia,81287876858.0,,,-2.5865267,115.3834892,https://maps.google.com/?cid=0x0:0xd8053824b5ec9a6,
hardware store,Toko Komputer,Hidayah Computer,"Jalan Ulama RT.06, RW No.23, Barabai Bar., Kec. Barabai, Kabupaten Hulu Sungai Tengah, Kalimantan Selatan 71314","RW No.23, Barabai Bar., Kec. Barabai, Kabupaten Hulu Sungai Tengah",KALIMANTAN SELATAN,71314.0,Indonesia,82246676657.0,,,-2.5887219,115.3811682,https://maps.google.com/?cid=0x0:0x330a0c8d9f6961,
hardware store,Toko Perlengkapan Rumah,Toko Elly,"9CP6+8PV, Jl. Perintis Kemerdekaan, Gambah, Kec. Barabai, Kabupaten Hulu Sungai Tengah, Kalimantan Selatan 71315","Jl. Perintis Kemerdekaan, Gambah, Kec. Barabai, Kabupaten Hulu Sungai Tengah",KALIMANTAN SELATAN,71315.0,Indonesia,,,,-2.6141422,115.4118101,https://maps.google.com/?cid=0x0:0xa173d5a06daa13f1,
hardware store,Toko,TOKO MANSUR Fotocopy Print  Scan,"Jl. Brigjen H. Hasan Basri, Barabai Sel., Kec. Barabai, Kabupaten Hulu Sungai Tengah, Kalimantan Selatan 71311","Barabai Sel., Kec. Barabai, Kabupaten Hulu Sungai Tengah",KALIMANTAN SELATAN,71311.0,Indonesia,,,,-2.5871785,115.3838483,https://maps.google.com/?cid=0x0:0xb5671ce6fa5fdbea,
hardware store,Toko Elektronik,GADGET SHOP,"C97M+39P, Jl. Brigjen H. Hasan Basri, Barabai Sel., Kec. Barabai, Kabupaten Hulu Sungai Tengah, Kalimantan Selatan 71352","Jl. Brigjen H. Hasan Basri, Barabai Sel., Kec. Barabai, Kabupaten Hulu Sungai Tengah",KALIMANTAN SELATAN,71352.0,Indonesia,82267447668.0,,,-2.5872847,115.3834531,https://maps.google.com/?cid=0x0:0x91175ca3b01a9022,
hardware store,Toko Mainan,Toko Pancar Rejeki Barabai,"C95H+CC4, Barabai Bar., Kec. Barabai, Kabupaten Hulu Sungai Tengah, Kalimantan Selatan 71352","Barabai Bar., Kec. Barabai, Kabupaten Hulu Sungai Tengah",KALIMANTAN SELATAN,71352.0,Indonesia,,,,-2.5914948,115.3785742,https://maps.google.com/?cid=0x0:0x4492f3e7b145fe7d,
hardware store,Toko Elektronik,TOKO SINAR JAYA ELEKTRONIK (CHANG YAW) WIJAYA WALET,"Jalan Terminal Keramat / Pasar Baru No.34, Barabai Utara, Kec. Barabai, Kabupaten Hulu Sungai Tengah, Kalimantan Selatan 71311","Barabai Utara, Kec. Barabai, Kabupaten Hulu Sungai Tengah",KALIMANTAN SELATAN,71311.0,Indonesia,82168681608.0,,,-2.5855909,115.378826,https://maps.google.com/?cid=0x0:0xd8d693837301e35a,
hardware store,Toko Elektronik,serves elektronik fani bazink,"Gambah, Kec. Barabai, Kabupaten Hulu Sungai Tengah, Kalimantan Selatan 71315","Kec. Barabai, Kabupaten Hulu Sungai Tengah",KALIMANTAN SELATAN,71315.0,Indonesia,81349379668.0,,,-2.6188977,115.4132022,https://maps.google.com/?cid=0x0:0x8faacd4e886d5dbb,
hardware store,Toko Komputer,BERKAT COM BARABAI,"Barabai Selatan, Barabai, Barabai Darat, Kec. Barabai, Kabupaten Hulu Sungai Tengah, Kalimantan Selatan 71352","Barabai, Barabai Darat, Kec. Barabai, Kabupaten Hulu Sungai Tengah",KALIMANTAN SELATAN,71352.0,Indonesia,85251117223.0,,,-2.5877913,115.3878431,https://maps.google.com/?cid=0x0:0xb604704c83c0ced3,
hardware store,Toko Elektronik,BDEENET,"C95P+7MG, Barabai Darat, Kec. Barabai, Kabupaten Hulu Sungai Tengah, Kalimantan Selatan 71352","Barabai Darat, Kec. Barabai, Kabupaten Hulu Sungai Tengah",KALIMANTAN SELATAN,71352.0,Indonesia,,,,-2.591823,115.386692,https://maps.google.com/?cid=0x0:0x38f6e01c9eea6590,
hardware store,Toko Ponsel,BAROKAH PHONE (PUSAT),"Barabai Darat, Kec. Barabai, Kabupaten Hulu Sungai Tengah, Kalimantan Selatan 71352","Kec. Barabai, Kabupaten Hulu Sungai Tengah",KALIMANTAN SELATAN,71352.0,Indonesia,82157862298.0,,,-2.5885867,115.3876574,https://maps.google.com/?cid=0x0:0x2d21e4ecb870c986,
hardware store,Toko Komputer,Toko Ibar Komputer,"Jl. Ir. Pangeran Haji Muhammad Nur No.25, Barabai Tim., Kec. Barabai, Kabupaten Hulu Sungai Tengah, Kalimantan Selatan 71315","Barabai Tim., Kec. Barabai, Kabupaten Hulu Sungai Tengah",KALIMANTAN SELATAN,71315.0,Indonesia,82148829999.0,,,-2.5823665,115.3852636,https://maps.google.com/?cid=0x0:0x60b965eca5e4ae58,
hardware store,hardware store,Kalimantan Selatan 71314,"Benawa Tengah, Kec. Barabai, Kabupaten Hulu Sungai Tengah, Kalimantan Selatan","Kabupaten Hulu Sungai Tengah, Kalimantan Selatan",KALIMANTAN SELATAN,,Indonesia,,,,-2.5966259,115.394865,https://maps.google.com/?cid=0x0:0x3d12d2a3a3261dd4,
hardware store,Toko Bahan Bangunan,Toko Sahabat Barabai,"Jl. M. Ramli, Barabai Darat, Kec. Barabai, Kabupaten Hulu Sungai Tengah, Kalimantan Selatan 71352","Barabai Darat, Kec. Barabai, Kabupaten Hulu Sungai Tengah",KALIMANTAN SELATAN,71352.0,Indonesia,82154197501.0,,,-2.5928275,115.3849778,https://maps.google.com/?cid=0x0:0x487746f7550b8aad,
hardware store,Toko Bahan Bangunan,Toko Hani,"blok bahan bangunan, Jl.Pasar 2 Pusat Perbelanjaan, Jl. Murakata No.13-14, Kec. Barabai, Kalimantan Selatan 71311","Jl.Pasar 2 Pusat Perbelanjaan, Jl. Murakata No.13-14, Kec. Barabai",KALIMANTAN SELATAN,71311.0,Indonesia,82186587550.0,,,-2.5868724,115.3832749,https://maps.google.com/?cid=0x0:0xa1649588058e023a,
hardware store,Toko Elektronik,Toko Relasi,"C97M+8GM, Jl. Ps. III, Barabai Sel., Kec. Barabai, Kabupaten Hulu Sungai Tengah, Kalimantan Selatan 71352","Jl. Ps. III, Barabai Sel., Kec. Barabai, Kabupaten Hulu Sungai Tengah",KALIMANTAN SELATAN,71352.0,Indonesia,51742776.0,,,-2.586664,115.3837908,https://maps.google.com/?cid=0x0:0xf09e74a862a509c8,
hardware store,Toserba,Aladien Berkah Store,"C97P+F4X, Barabai Sel., Kec. Barabai, Kabupaten Hulu Sungai Tengah, Kalimantan Selatan","Kabupaten Hulu Sungai Tengah, Kalimantan Selatan",KALIMANTAN SELATAN,,Indonesia,,,,-2.586259,115.3853458,https://maps.google.com/?cid=0x0:0x696eae9956bbc1c2,
hardware store,Toko Komputer,Hidayah Computer,"Jalan Ulama RT.06, RW No.23, Barabai Bar., Kec. Barabai, Kabupaten Hulu Sungai Tengah, Kalimantan Selatan 71314","RW No.23, Barabai Bar., Kec. Barabai, Kabupaten Hulu Sungai Tengah",KALIMANTAN SELATAN,71314.0,Indonesia,82246676657.0,,,-2.5887219,115.3811682,https://maps.google.com/?cid=0x0:0x330a0c8d9f6961,
hardware store,Toko Perlengkapan Rumah,Toko Elly,"9CP6+8PV, Jl. Perintis Kemerdekaan, Gambah, Kec. Barabai, Kabupaten Hulu Sungai Tengah, Kalimantan Selatan 71315","Jl. Perintis Kemerdekaan, Gambah, Kec. Barabai, Kabupaten Hulu Sungai Tengah",KALIMANTAN SELATAN,71315.0,Indonesia,,,,-2.6141422,115.4118101,https://maps.google.com/?cid=0x0:0xa173d5a06daa13f1,
hardware store,Toko Ponsel,AZ PART,"C96M+35X, Jl. Trikesuma, Barabai Darat, Kec. Barabai, Kabupaten Hulu Sungai Tengah, Kalimantan Selatan 71352","Jl. Trikesuma, Barabai Darat, Kec. Barabai, Kabupaten Hulu Sungai Tengah",KALIMANTAN SELATAN,71352.0,Indonesia,82350981358.0,,,-2.589759,115.382974,https://maps.google.com/?cid=0x0:0xdae09dae85752d10,
hardware store,Toko Ponsel,Fazar Phone Barabai,"Jl. Pangeran Antasari No.18A, Barabai Tim., Kec. Barabai, Kabupaten Hulu Sungai Tengah, Kalimantan Selatan 71351","Barabai Tim., Kec. Barabai, Kabupaten Hulu Sungai Tengah",KALIMANTAN SELATAN,71351.0,Indonesia,,,,-2.5800752,115.3845166,https://maps.google.com/?cid=0x0:0xd07832a65e818dd8,
hardware store,Toko Rokok Elektrik,Pasar 1 vapor,"C97M+37P, Jl. Pasar 1, Barabai Sel., Kec. Barabai, Kabupaten Hulu Sungai Tengah, Kalimantan Selatan 71352","Jl. Pasar 1, Barabai Sel., Kec. Barabai, Kabupaten Hulu Sungai Tengah",KALIMANTAN SELATAN,71352.0,Indonesia,85332230123.0,,,-2.5872863,115.3832128,https://maps.google.com/?cid=0x0:0xbcc5766fe2a8b23a,
hardware store,Toko Komputer,TOKO Aisyah Computer,"Seberang Kantor Pemilihan Umum, Jl. Antasari, Kec. Barabai, Kabupaten Hulu Sungai Tengah, Kalimantan Selatan 71315","Jl. Antasari, Kec. Barabai, Kabupaten Hulu Sungai Tengah",KALIMANTAN SELATAN,71315.0,Indonesia,82353185558.0,,,-2.579893,115.3847019,https://maps.google.com/?cid=0x0:0xfa1c2f996db15072,
hardware store,Toko Perlengkapan Rumah,Toko Bangunan,"Jl. A. Yani, Matang Ginalun, Kec. Pandawan, Kabupaten Hulu Sungai Tengah, Kalimantan Selatan 71352","Matang Ginalun, Kec. Pandawan, Kabupaten Hulu Sungai Tengah",KALIMANTAN SELATAN,71352.0,Indonesia,8161999912.0,,,-2.5866557,115.3759065,https://maps.google.com/?cid=0x0:0xf79511cc081343d5,
hardware store,Toko Elektronik,Abdillah Phone - Barabai HST,"Jl. Kemasan Luar No.45, RT.04/RW.02, Barabai Sel., Kec. Barabai, Kabupaten Hulu Sungai Tengah, Kalimantan Selatan 71311","RT.04/RW.02, Barabai Sel., Kec. Barabai, Kabupaten Hulu Sungai Tengah",KALIMANTAN SELATAN,71311.0,Indonesia,82358721212.0,,,-2.5883504,115.382594,https://maps.google.com/?cid=0x0:0x3d4605134e1d15f1,
hardware store,Toko Elektronik,Toko Usaha Maju Elektronik,"Jl. Ps. III, Barabai Sel., Kec. Barabai, Kabupaten Hulu Sungai Tengah, Kalimantan Selatan 71352","Barabai Sel., Kec. Barabai, Kabupaten Hulu Sungai Tengah",KALIMANTAN SELATAN,71352.0,Indonesia,81287876858.0,,,-2.5865267,115.3834892,https://maps.google.com/?cid=0x0:0xd8053824b5ec9a6,
hardware store,Toko Pakaian Wanita,Annur_Shop,"Jl. Brigjen H. Hasan Basri No.144f, Barabai Tim., Kec. Barabai, Kabupaten Hulu Sungai Tengah, Kalimantan Selatan 71314","Barabai Tim., Kec. Barabai, Kabupaten Hulu Sungai Tengah",KALIMANTAN SELATAN,71314.0,Indonesia,,,,-2.5892407,115.3808923,https://maps.google.com/?cid=0x0:0xbbcd36ad27cec332,
hardware store,Toko Elektronik,TOKO CAHAYA ABADI ELEKTRONIK BARABAI,"C99H+6JJ, Jl. Sarigading, Banua Budi, Kec. Barabai, Kabupaten Hulu Sungai Tengah, Kalimantan Selatan 71352","Jl. Sarigading, Banua Budi, Kec. Barabai, Kabupaten Hulu Sungai Tengah",KALIMANTAN SELATAN,71352.0,Indonesia,81253228816.0,,,-2.5819159,115.3790302,https://maps.google.com/?cid=0x0:0x3c41378d75ab85e8,
hardware store,Toko Elektronik,GADGET SHOP,"C97M+39P, Jl. Brigjen H. Hasan Basri, Barabai Sel., Kec. Barabai, Kabupaten Hulu Sungai Tengah, Kalimantan Selatan 71352","Jl. Brigjen H. Hasan Basri, Barabai Sel., Kec. Barabai, Kabupaten Hulu Sungai Tengah",KALIMANTAN SELATAN,71352.0,Indonesia,82267447668.0,,,-2.5872847,115.3834531,https://maps.google.com/?cid=0x0:0x91175ca3b01a9022,
hardware store,Toko Mainan,Dhia Gift Shop,"Jl. Ps. III, Barabai Sel., Kec. Barabai, Kabupaten Hulu Sungai Tengah, Kalimantan Selatan 71311","Barabai Sel., Kec. Barabai, Kabupaten Hulu Sungai Tengah",KALIMANTAN SELATAN,71311.0,Indonesia,85251985530.0,,,-2.5865484,115.383641,https://maps.google.com/?cid=0x0:0x10fc67c8fbf37dae,
hardware store,Toko Mainan,Toko Pancar Rejeki Barabai,"C95H+CC4, Barabai Bar., Kec. Barabai, Kabupaten Hulu Sungai Tengah, Kalimantan Selatan 71352","Barabai Bar., Kec. Barabai, Kabupaten Hulu Sungai Tengah",KALIMANTAN SELATAN,71352.0,Indonesia,,,,-2.5914948,115.3785742,https://maps.google.com/?cid=0x0:0x4492f3e7b145fe7d,
hardware store,Taman,Lapangan Dwiwarna Barabai,"C98P+25M, Barabai Sel., Kec. Barabai, Kabupaten Hulu Sungai Tengah, Kalimantan Selatan 71315","Barabai Sel., Kec. Barabai, Kabupaten Hulu Sungai Tengah",KALIMANTAN SELATAN,71315.0,Indonesia,82253845099.0,,,-2.584913,115.3854142,https://maps.google.com/?cid=0x0:0x3e68105405a9b1a6,
hardware store,Toko Elektronik,Indah Elektronik,"C9FG+3X6, Banua Binjai, Kec. Barabai, Kabupaten Hulu Sungai Tengah, Kalimantan Selatan 71352","Banua Binjai, Kec. Barabai, Kabupaten Hulu Sungai Tengah",KALIMANTAN SELATAN,71352.0,Indonesia,81367805201.0,,,-2.577339,115.3773842,https://maps.google.com/?cid=0x0:0x72d1ae158e6d4879,
hardware store,Toko Mainan,Toko mainan berkat sabar,"Jl. Perintis Kemerdekaan No.RT. 04 No.9, RT.No.9/RW.01, Benawa Tengah, Kec. Barabai, Kabupaten Hulu Sungai Tengah, Kalimantan Selatan 70123","RT.No.9/RW.01, Benawa Tengah, Kec. Barabai, Kabupaten Hulu Sungai Tengah",KALIMANTAN SELATAN,70123.0,Indonesia,,,,-2.5916385,115.3900115,https://maps.google.com/?cid=0x0:0xf8da32195a7e417d,
hardware store,Toko Bahan Bangunan,TB. KHALISA,"C99Q+W4R Fotocopy Nena, Dekat, Jl. Ir. Pangeran Haji Muhammad Nur No.46, Barabai Tim., Kec. Barabai, Kabupaten Hulu Sungai Tengah, Kalimantan Selatan 71315","Dekat, Jl. Ir. Pangeran Haji Muhammad Nur No.46, Barabai Tim., Kec. Barabai, Kabupaten Hulu Sungai Tengah",KALIMANTAN SELATAN,71315.0,Indonesia,81385661699.0,,,-2.579826,115.3878259,https://maps.google.com/?cid=0x0:0x861f73d7d7b32c50,
hardware store,Toko Elektronik,BDEENET,"C95P+7MG, Barabai Darat, Kec. Barabai, Kabupaten Hulu Sungai Tengah, Kalimantan Selatan 71352","Barabai Darat, Kec. Barabai, Kabupaten Hulu Sungai Tengah",KALIMANTAN SELATAN,71352.0,Indonesia,,,,-2.591823,115.386692,https://maps.google.com/?cid=0x0:0x38f6e01c9eea6590,
hardware store,hardware store,Kalimantan Selatan 71315,"Kabupaten Hulu Sungai Tengah, Kalimantan Selatan","Kabupaten Hulu Sungai Tengah, Kalimantan Selatan",KALIMANTAN SELATAN,,Indonesia,,,,-2.60423,115.408195,https://maps.google.com/?cid=0x0:0xad27ea94b85d46bf,
hardware store,Toko Bahan Bangunan,TB. KHALISA,"C99Q+W4R Fotocopy Nena, Dekat, Jl. Ir. Pangeran Haji Muhammad Nur No.46, Barabai Tim., Kec. Barabai, Kabupaten Hulu Sungai Tengah, Kalimantan Selatan 71315","Dekat, Jl. Ir. Pangeran Haji Muhammad Nur No.46, Barabai Tim., Kec. Barabai, Kabupaten Hulu Sungai Tengah",KALIMANTAN SELATAN,71315.0,Indonesia,81385661699.0,,,-2.579826,115.3878259,https://maps.google.com/?cid=0x0:0x861f73d7d7b32c50,
hardware store,Toko Bahan Bangunan,Toko Sahabat Barabai,"Jl. M. Ramli, Barabai Darat, Kec. Barabai, Kabupaten Hulu Sungai Tengah, Kalimantan Selatan 71352","Barabai Darat, Kec. Barabai, Kabupaten Hulu Sungai Tengah",KALIMANTAN SELATAN,71352.0,Indonesia,82154197501.0,,,-2.5928275,115.3849778,https://maps.google.com/?cid=0x0:0x487746f7550b8aad,
hardware store,Toko Bahan Bangunan,Tb. Annisa Rasau (Barabai),"Matang Ginalun, Kec. Pandawan, Kabupaten Hulu Sungai Tengah, Kalimantan Selatan 71352","Kec. Pandawan, Kabupaten Hulu Sungai Tengah",KALIMANTAN SELATAN,71352.0,Indonesia,81351482275.0,,,-2.5855869,115.3720548,https://maps.google.com/?cid=0x0:0x814cd2b28f7225dc,
hardware store,Toko Bahan Bangunan,MR.DIY,"C95F+G58, Bukat, Kec. Barabai, Kabupaten Hulu Sungai Tengah, Kalimantan Selatan 71352","Bukat, Kec. Barabai, Kabupaten Hulu Sungai Tengah",KALIMANTAN SELATAN,71352.0,Indonesia,,,,-2.590217,115.3727907,https://maps.google.com/?cid=0x0:0xbd08ccc46c1f9598,
hardware store,Toko Bahan Bangunan,TB Cahaya Baru,"C99P+Q99, Jl. Surapati, Barabai Tim., Kec. Barabai, Kabupaten Hulu Sungai Tengah, Kalimantan Selatan 71315","Jl. Surapati, Barabai Tim., Kec. Barabai, Kabupaten Hulu Sungai Tengah",KALIMANTAN SELATAN,71315.0,Indonesia,85169981293.0,,,-2.5805883,115.3859793,https://maps.google.com/?cid=0x0:0x1d69a2690d43e67b,
hardware store,Toko Bahan Bangunan,Bahan Bangunan UD ANUGRAH/Wantilan,"RT.006/RW.003, Pajukungan, Kec. Barabai, Kabupaten Hulu Sungai Tengah, Kalimantan Selatan 71315","Pajukungan, Kec. Barabai, Kabupaten Hulu Sungai Tengah",KALIMANTAN SELATAN,71315.0,Indonesia,,,,-2.5987253,115.3495238,https://maps.google.com/?cid=0x0:0xc51436275f38e1fa,
hardware store,Toko Bahan Bangunan,Toko Hani,"blok bahan bangunan, Jl.Pasar 2 Pusat Perbelanjaan, Jl. Murakata No.13-14, Kec. Barabai, Kalimantan Selatan 71311","Jl.Pasar 2 Pusat Perbelanjaan, Jl. Murakata No.13-14, Kec. Barabai",KALIMANTAN SELATAN,71311.0,Indonesia,82186587550.0,,,-2.5868724,115.3832749,https://maps.google.com/?cid=0x0:0xa1649588058e023a,
hardware store,Toko Bahan Bangunan,"BERKAT BERSAMA,TB","C98H+27W, Barabai Utara, Kec. Barabai, Kabupaten Hulu Sungai Tengah, Kalimantan Selatan 71352","Barabai Utara, Kec. Barabai, Kabupaten Hulu Sungai Tengah",KALIMANTAN SELATAN,71352.0,Indonesia,,,,-2.584891,115.3782035,https://maps.google.com/?cid=0x0:0x7ef03002a9470f92,
hardware store,Toko Elektronik,Rayhan elektronik,"Jl. Ir. Pangeran Haji Muhammad Nur, Barabai Tim., Kec. Barabai, Kabupaten Hulu Sungai Tengah, Kalimantan Selatan 71315","Barabai Tim., Kec. Barabai, Kabupaten Hulu Sungai Tengah",KALIMANTAN SELATAN,71315.0,Indonesia,81347984100.0,,,-2.5869675,115.3812792,https://maps.google.com/?cid=0x0:0x400aa347f9a809e3,
hardware store,Toko Bahan Bangunan,UD.Sinar Harapan,"Banua Batung, Kec. Pandawan, Kabupaten Hulu Sungai Tengah, Kalimantan, Selatan 71352, Kec. Barabai, Kalimantan Selatan 71352","Kec. Pandawan, Kabupaten Hulu Sungai Tengah, Kalimantan, Selatan",KALIMANTAN SELATAN,71352.0,Indonesia,85349430978.0,,,-2.5496071,115.3518284,https://maps.google.com/?cid=0x0:0x453de3c4ce5f3ec,
hardware store,Toko Rokok Elektrik,Pasar 1 vapor,"C97M+37P, Jl. Pasar 1, Barabai Sel., Kec. Barabai, Kabupaten Hulu Sungai Tengah, Kalimantan Selatan 71352","Jl. Pasar 1, Barabai Sel., Kec. Barabai, Kabupaten Hulu Sungai Tengah",KALIMANTAN SELATAN,71352.0,Indonesia,85332230123.0,,,-2.5872863,115.3832128,https://maps.google.com/?cid=0x0:0xbcc5766fe2a8b23a,
hardware store,Toko Ponsel,Fazar Phone Barabai,"Jl. Pangeran Antasari No.18A, Barabai Tim., Kec. Barabai, Kabupaten Hulu Sungai Tengah, Kalimantan Selatan 71351","Barabai Tim., Kec. Barabai, Kabupaten Hulu Sungai Tengah",KALIMANTAN SELATAN,71351.0,Indonesia,,,,-2.5800752,115.3845166,https://maps.google.com/?cid=0x0:0xd07832a65e818dd8,
hardware store,Toko Bahan Bangunan,Al Zami Toko,"JL. Pasar Baru No.40, Banua Binjai, Kec. Barabai, Kabupaten Hulu Sungai Tengah, Kalimantan Selatan 71311","Banua Binjai, Kec. Barabai, Kabupaten Hulu Sungai Tengah",KALIMANTAN SELATAN,71311.0,Indonesia,51743157.0,,,-2.579949,115.379702,https://maps.google.com/?cid=0x0:0x1ea10fd4adbbde31,
hardware store,Toko Ponsel,AZ PART,"C96M+35X, Jl. Trikesuma, Barabai Darat, Kec. Barabai, Kabupaten Hulu Sungai Tengah, Kalimantan Selatan 71352","Jl. Trikesuma, Barabai Darat, Kec. Barabai, Kabupaten Hulu Sungai Tengah",KALIMANTAN SELATAN,71352.0,Indonesia,82350981358.0,,,-2.589759,115.382974,https://maps.google.com/?cid=0x0:0xdae09dae85752d10,
hardware store,Toko Elektronik,Abdillah Phone - Barabai HST,"Jl. Kemasan Luar No.45, RT.04/RW.02, Barabai Sel., Kec. Barabai, Kabupaten Hulu Sungai Tengah, Kalimantan Selatan 71311","RT.04/RW.02, Barabai Sel., Kec. Barabai, Kabupaten Hulu Sungai Tengah",KALIMANTAN SELATAN,71311.0,Indonesia,82358721212.0,,,-2.5883504,115.382594,https://maps.google.com/?cid=0x0:0x3d4605134e1d15f1,
hardware store,Toko Komputer,TOKO Aisyah Computer,"Seberang Kantor Pemilihan Umum, Jl. Antasari, Kec. Barabai, Kabupaten Hulu Sungai Tengah, Kalimantan Selatan 71315","Jl. Antasari, Kec. Barabai, Kabupaten Hulu Sungai Tengah",KALIMANTAN SELATAN,71315.0,Indonesia,82353185558.0,,,-2.579893,115.3847019,https://maps.google.com/?cid=0x0:0xfa1c2f996db15072,
hardware store,Toko Elektronik,Toko Relasi,"C97M+8GM, Jl. Ps. III, Barabai Sel., Kec. Barabai, Kabupaten Hulu Sungai Tengah, Kalimantan Selatan 71352","Jl. Ps. III, Barabai Sel., Kec. Barabai, Kabupaten Hulu Sungai Tengah",KALIMANTAN SELATAN,71352.0,Indonesia,51742776.0,,,-2.586664,115.3837908,https://maps.google.com/?cid=0x0:0xf09e74a862a509c8,
hardware store,Toko Perlengkapan Rumah,Toko Bangunan,"Jl. A. Yani, Matang Ginalun, Kec. Pandawan, Kabupaten Hulu Sungai Tengah, Kalimantan Selatan 71352","Matang Ginalun, Kec. Pandawan, Kabupaten Hulu Sungai Tengah",KALIMANTAN SELATAN,71352.0,Indonesia,8161999912.0,,,-2.5866557,115.3759065,https://maps.google.com/?cid=0x0:0xf79511cc081343d5,
hardware store,Toserba,Aladien Berkah Store,"C97P+F4X, Barabai Sel., Kec. Barabai, Kabupaten Hulu Sungai Tengah, Kalimantan Selatan","Kabupaten Hulu Sungai Tengah, Kalimantan Selatan",KALIMANTAN SELATAN,,Indonesia,,,,-2.586259,115.3853458,https://maps.google.com/?cid=0x0:0x696eae9956bbc1c2,
hardware store,Toko Elektronik,serves elektronik fani bazink,"Gambah, Kec. Barabai, Kabupaten Hulu Sungai Tengah, Kalimantan Selatan 71315","Kec. Barabai, Kabupaten Hulu Sungai Tengah",KALIMANTAN SELATAN,71315.0,Indonesia,81349379668.0,,,-2.6188977,115.4132022,https://maps.google.com/?cid=0x0:0x8faacd4e886d5dbb,
hardware store,Toko Elektronik,GADGET SHOP,"C97M+39P, Jl. Brigjen H. Hasan Basri, Barabai Sel., Kec. Barabai, Kabupaten Hulu Sungai Tengah, Kalimantan Selatan 71352","Jl. Brigjen H. Hasan Basri, Barabai Sel., Kec. Barabai, Kabupaten Hulu Sungai Tengah",KALIMANTAN SELATAN,71352.0,Indonesia,82267447668.0,,,-2.5872847,115.3834531,https://maps.google.com/?cid=0x0:0x91175ca3b01a9022,
hardware store,Taman,Lapangan Dwiwarna Barabai,"C98P+25M, Barabai Sel., Kec. Barabai, Kabupaten Hulu Sungai Tengah, Kalimantan Selatan 71315","Barabai Sel., Kec. Barabai, Kabupaten Hulu Sungai Tengah",KALIMANTAN SELATAN,71315.0,Indonesia,82253845099.0,,,-2.584913,115.3854142,https://maps.google.com/?cid=0x0:0x3e68105405a9b1a6,
hardware store,Pasar,Pasar Barabai,"C98H+87Q, Barabai Utara, Kec. Barabai, Kabupaten Hulu Sungai Tengah, Kalimantan Selatan 71352","Barabai Utara, Kec. Barabai, Kabupaten Hulu Sungai Tengah",KALIMANTAN SELATAN,71352.0,Indonesia,,,,-2.5861429,115.3788481,https://maps.google.com/?cid=0x0:0x4996812654659f0f,
hardware store,Toko Komputer,BERKAT COM BARABAI,"Barabai Selatan, Barabai, Barabai Darat, Kec. Barabai, Kabupaten Hulu Sungai Tengah, Kalimantan Selatan 71352","Barabai, Barabai Darat, Kec. Barabai, Kabupaten Hulu Sungai Tengah",KALIMANTAN SELATAN,71352.0,Indonesia,85251117223.0,,,-2.5877913,115.3878431,https://maps.google.com/?cid=0x0:0xb604704c83c0ced3,
hardware store,Toko Komputer,Toko Ibar Komputer,"Jl. Ir. Pangeran Haji Muhammad Nur No.25, Barabai Tim., Kec. Barabai, Kabupaten Hulu Sungai Tengah, Kalimantan Selatan 71315","Barabai Tim., Kec. Barabai, Kabupaten Hulu Sungai Tengah",KALIMANTAN SELATAN,71315.0,Indonesia,82148829999.0,,,-2.5823665,115.3852636,https://maps.google.com/?cid=0x0:0x60b965eca5e4ae58,
hardware store,Toko Elektronik,BDEENET,"C95P+7MG, Barabai Darat, Kec. Barabai, Kabupaten Hulu Sungai Tengah, Kalimantan Selatan 71352","Barabai Darat, Kec. Barabai, Kabupaten Hulu Sungai Tengah",KALIMANTAN SELATAN,71352.0,Indonesia,,,,-2.591823,115.386692,https://maps.google.com/?cid=0x0:0x38f6e01c9eea6590,
hardware store,hardware store,Kalimantan Selatan 71381,"Kabupaten Hulu Sungai Tengah, Kalimantan Selatan","Kabupaten Hulu Sungai Tengah, Kalimantan Selatan",KALIMANTAN SELATAN,,Indonesia,,,,-2.5710339,115.4852012,https://maps.google.com/?cid=0x0:0xacec445d051bf2,
hardware store,Toko Perlengkapan Rumah,Toko Bangunan hidry,"FC3X+GJ4, Birayang Surapati, Kec. Batang Alai Sel., Kabupaten Hulu Sungai Tengah, Kalimantan Selatan 71381","Birayang Surapati, Kec. Batang Alai Sel., Kabupaten Hulu Sungai Tengah",KALIMANTAN SELATAN,71381.0,Indonesia,,,,-2.5459785,115.4491334,https://maps.google.com/?cid=0x0:0xf2fddffdc4605a3,
hardware store,Toko Perlengkapan Rumah,Tb berkat mandiri birayang,"FFWH+WJ8, Karatungan, Kec. Limpasu, Kabupaten Hulu Sungai Tengah, Kalimantan Selatan 71391","Karatungan, Kec. Limpasu, Kabupaten Hulu Sungai Tengah",KALIMANTAN SELATAN,71391.0,Indonesia,83160960400.0,,,-2.5040733,115.4788433,https://maps.google.com/?cid=0x0:0xbf9ab98bab9ff83e,
hardware store,Pasar,Pasar Birayang,"Birayang, Kec. Batang Alai Sel., Kabupaten Hulu Sungai Tengah, Kalimantan Selatan 71381","Kec. Batang Alai Sel., Kabupaten Hulu Sungai Tengah",KALIMANTAN SELATAN,71381.0,Indonesia,,,,-2.5478693,115.4483625,https://maps.google.com/?cid=0x0:0xcba799a71643a596,
hardware store,Toko Bahan Bangunan,Toko Sahabat Barabai,"Jl. M. Ramli, Barabai Darat, Kec. Barabai, Kabupaten Hulu Sungai Tengah, Kalimantan Selatan 71352","Barabai Darat, Kec. Barabai, Kabupaten Hulu Sungai Tengah",KALIMANTAN SELATAN,71352.0,Indonesia,82154197501.0,,,-2.5928275,115.3849778,https://maps.google.com/?cid=0x0:0x487746f7550b8aad,
hardware store,Toko Bahan Bangunan,TB Cahaya Baru,"C99P+Q99, Jl. Surapati, Barabai Tim., Kec. Barabai, Kabupaten Hulu Sungai Tengah, Kalimantan Selatan 71315","Jl. Surapati, Barabai Tim., Kec. Barabai, Kabupaten Hulu Sungai Tengah",KALIMANTAN SELATAN,71315.0,Indonesia,85169981293.0,,,-2.5805883,115.3859793,https://maps.google.com/?cid=0x0:0x1d69a2690d43e67b,
hardware store,Toko Bahan Bangunan,UD. Karya Abadi,"Jl. Surapati, Banua Jingah, Kec. Barabai, Kabupaten Hulu Sungai Tengah, Kalimantan Selatan 71315","Banua Jingah, Kec. Barabai, Kabupaten Hulu Sungai Tengah",KALIMANTAN SELATAN,71315.0,Indonesia,85348753072.0,,,-2.5654667,115.3869646,https://maps.google.com/?cid=0x0:0x7cd05325d89939ed,
hardware store,Toko Bahan Bangunan,Al Zami Toko,"JL. Pasar Baru No.40, Banua Binjai, Kec. Barabai, Kabupaten Hulu Sungai Tengah, Kalimantan Selatan 71311","Banua Binjai, Kec. Barabai, Kabupaten Hulu Sungai Tengah",KALIMANTAN SELATAN,71311.0,Indonesia,51743157.0,,,-2.579949,115.379702,https://maps.google.com/?cid=0x0:0x1ea10fd4adbbde31,
hardware store,,TOKO AZKIA SINAR GORDEN,"Jln merdeka RT.08 RW.03 (DEPAN POlSEK BATANG ALAI SELATAN, Birayang, Kec. Barabai, Kalimantan Selatan 71381","Birayang, Kec. Barabai",KALIMANTAN SELATAN,71381.0,Indonesia,82155175556.0,,,-2.5476184,115.4452167,https://maps.google.com/?cid=0x0:0x12eb2a3e9e5a7368,
hardware store,hardware store,Kalimantan Selatan 71382,"Kec. Batang Alai Tim., Kabupaten Hulu Sungai Tengah, Kalimantan Selatan","Kabupaten Hulu Sungai Tengah, Kalimantan Selatan",KALIMANTAN SELATAN,,Indonesia,,,,-2.6317873,115.5917918,https://maps.google.com/?cid=0x0:0x144d3f075ffba03e,
hardware store,Toko Perlengkapan Rumah,Tb berkat mandiri birayang,"FFWH+WJ8, Karatungan, Kec. Limpasu, Kabupaten Hulu Sungai Tengah, Kalimantan Selatan 71391","Karatungan, Kec. Limpasu, Kabupaten Hulu Sungai Tengah",KALIMANTAN SELATAN,71391.0,Indonesia,83160960400.0,,,-2.5040733,115.4788433,https://maps.google.com/?cid=0x0:0xbf9ab98bab9ff83e,
hardware store,Toko Perlengkapan Rumah,Toko Bangunan hidry,"FC3X+GJ4, Birayang Surapati, Kec. Batang Alai Sel., Kabupaten Hulu Sungai Tengah, Kalimantan Selatan 71381","Birayang Surapati, Kec. Batang Alai Sel., Kabupaten Hulu Sungai Tengah",KALIMANTAN SELATAN,71381.0,Indonesia,,,,-2.5459785,115.4491334,https://maps.google.com/?cid=0x0:0xf2fddffdc4605a3,
hardware store,Toko Bahan Bangunan,MR.DIY,"C95F+G58, Bukat, Kec. Barabai, Kabupaten Hulu Sungai Tengah, Kalimantan Selatan 71352","Bukat, Kec. Barabai, Kabupaten Hulu Sungai Tengah",KALIMANTAN SELATAN,71352.0,Indonesia,,,,-2.590217,115.3727907,https://maps.google.com/?cid=0x0:0xbd08ccc46c1f9598,
hardware store,Toko Bahan Bangunan,Tb. Annisa Rasau (Barabai),"Matang Ginalun, Kec. Pandawan, Kabupaten Hulu Sungai Tengah, Kalimantan Selatan 71352","Kec. Pandawan, Kabupaten Hulu Sungai Tengah",KALIMANTAN SELATAN,71352.0,Indonesia,81351482275.0,,,-2.5855869,115.3720548,https://maps.google.com/?cid=0x0:0x814cd2b28f7225dc,
hardware store,Toko Bahan Bangunan,TB. KHALISA,"C99Q+W4R Fotocopy Nena, Dekat, Jl. Ir. Pangeran Haji Muhammad Nur No.46, Barabai Tim., Kec. Barabai, Kabupaten Hulu Sungai Tengah, Kalimantan Selatan 71315","Dekat, Jl. Ir. Pangeran Haji Muhammad Nur No.46, Barabai Tim., Kec. Barabai, Kabupaten Hulu Sungai Tengah",KALIMANTAN SELATAN,71315.0,Indonesia,81385661699.0,,,-2.579826,115.3878259,https://maps.google.com/?cid=0x0:0x861f73d7d7b32c50,
hardware store,Toko Bahan Bangunan,Toko Sahabat Barabai,"Jl. M. Ramli, Barabai Darat, Kec. Barabai, Kabupaten Hulu Sungai Tengah, Kalimantan Selatan 71352","Barabai Darat, Kec. Barabai, Kabupaten Hulu Sungai Tengah",KALIMANTAN SELATAN,71352.0,Indonesia,82154197501.0,,,-2.5928275,115.3849778,https://maps.google.com/?cid=0x0:0x487746f7550b8aad,
hardware store,Toko Bahan Bangunan,TB Cahaya Baru,"C99P+Q99, Jl. Surapati, Barabai Tim., Kec. Barabai, Kabupaten Hulu Sungai Tengah, Kalimantan Selatan 71315","Jl. Surapati, Barabai Tim., Kec. Barabai, Kabupaten Hulu Sungai Tengah",KALIMANTAN SELATAN,71315.0,Indonesia,85169981293.0,,,-2.5805883,115.3859793,https://maps.google.com/?cid=0x0:0x1d69a2690d43e67b,
hardware store,Toko Bahan Bangunan,AL-AMIN.TB,"C96F+7F5, Bukat, Kec. Barabai, Kabupaten Hulu Sungai Tengah, Kalimantan Selatan 71352","Bukat, Kec. Barabai, Kabupaten Hulu Sungai Tengah",KALIMANTAN SELATAN,71352.0,Indonesia,,,,-2.5893721,115.3737271,https://maps.google.com/?cid=0x0:0xda720e3e81bbb6fc,
hardware store,Toko Bahan Bangunan,Al Zami Toko,"JL. Pasar Baru No.40, Banua Binjai, Kec. Barabai, Kabupaten Hulu Sungai Tengah, Kalimantan Selatan 71311","Banua Binjai, Kec. Barabai, Kabupaten Hulu Sungai Tengah",KALIMANTAN SELATAN,71311.0,Indonesia,51743157.0,,,-2.579949,115.379702,https://maps.google.com/?cid=0x0:0x1ea10fd4adbbde31,
hardware store,Toko Bahan Bangunan,TB. AINUL AMIN,"97JQ+C59, Jalan Raya Pamangkih, Kasarangan, Kec. Labuan Amas Utara, Kabupaten Hulu Sungai Tengah, Kalimantan Selatan 71362","Jalan Raya Pamangkih, Kasarangan, Kec. Labuan Amas Utara, Kabupaten Hulu Sungai Tengah",KALIMANTAN SELATAN,71362.0,Indonesia,,,,-2.6189697,115.2879963,https://maps.google.com/?cid=0x0:0x1658e1408942fc17,
hardware store,Toko Bahan Bangunan,UD.Sinar Harapan,"Banua Batung, Kec. Pandawan, Kabupaten Hulu Sungai Tengah, Kalimantan, Selatan 71352, Kec. Barabai, Kalimantan Selatan 71352","Kec. Pandawan, Kabupaten Hulu Sungai Tengah, Kalimantan, Selatan",KALIMANTAN SELATAN,71352.0,Indonesia,85349430978.0,,,-2.5496071,115.3518284,https://maps.google.com/?cid=0x0:0x453de3c4ce5f3ec,
hardware store,Toko Bahan Bangunan,UD. Karya Abadi,"Jl. Surapati, Banua Jingah, Kec. Barabai, Kabupaten Hulu Sungai Tengah, Kalimantan Selatan 71315","Banua Jingah, Kec. Barabai, Kabupaten Hulu Sungai Tengah",KALIMANTAN SELATAN,71315.0,Indonesia,85348753072.0,,,-2.5654667,115.3869646,https://maps.google.com/?cid=0x0:0x7cd05325d89939ed,
hardware store,,TOKO AZKIA SINAR GORDEN,"Jln merdeka RT.08 RW.03 (DEPAN POlSEK BATANG ALAI SELATAN, Birayang, Kec. Barabai, Kalimantan Selatan 71381","Birayang, Kec. Barabai",KALIMANTAN SELATAN,71381.0,Indonesia,82155175556.0,,,-2.5476184,115.4452167,https://maps.google.com/?cid=0x0:0x12eb2a3e9e5a7368,
hardware store,Toko Alat Tulis Kantor,SMStationery,"Jln, RT.003/RW.002, Hulu Rasau, Kec. Pandawan, Kabupaten Hulu Sungai Tengah, Kalimantan Selatan 71352","RT.003/RW.002, Hulu Rasau, Kec. Pandawan, Kabupaten Hulu Sungai Tengah",KALIMANTAN SELATAN,71352.0,Indonesia,85782805431.0,,,-2.5788985,115.3637373,https://maps.google.com/?cid=0x0:0x5d0d4e23d1af3375,
hardware store,Toko Bahan Bangunan,"BERKAT BERSAMA,TB","C98H+27W, Barabai Utara, Kec. Barabai, Kabupaten Hulu Sungai Tengah, Kalimantan Selatan 71352","Barabai Utara, Kec. Barabai, Kabupaten Hulu Sungai Tengah",KALIMANTAN SELATAN,71352.0,Indonesia,,,,-2.584891,115.3782035,https://maps.google.com/?cid=0x0:0x7ef03002a9470f92,
hardware store,Pasar,Pasar Arba Kalibaru Katapang,"9FR3+P8V, Kali Baru, Kec. Batu Benawa, Kabupaten Hulu Sungai Tengah, Kalimantan Selatan 71371","Kali Baru, Kec. Batu Benawa, Kabupaten Hulu Sungai Tengah",KALIMANTAN SELATAN,71371.0,Indonesia,,,,-2.6081409,115.4532818,https://maps.google.com/?cid=0x0:0xec4f1c02ad1d66ff,
hardware store,Toko Bahan Bangunan,Bahan Bangunan UD ANUGRAH/Wantilan,"RT.006/RW.003, Pajukungan, Kec. Barabai, Kabupaten Hulu Sungai Tengah, Kalimantan Selatan 71315","Pajukungan, Kec. Barabai, Kabupaten Hulu Sungai Tengah",KALIMANTAN SELATAN,71315.0,Indonesia,,,,-2.5987253,115.3495238,https://maps.google.com/?cid=0x0:0xc51436275f38e1fa,
hardware store,Toko Swalayan,Toko AZBA,"Banua Kupang, Kec. Labuan Amas Utara, Kabupaten Hulu Sungai Tengah, Kalimantan Selatan 71362","Kec. Labuan Amas Utara, Kabupaten Hulu Sungai Tengah",KALIMANTAN SELATAN,71362.0,Indonesia,,,,-2.6049158,115.3162013,https://maps.google.com/?cid=0x0:0x449c68445a10949d,
hardware store,Toko Bahan Bangunan,Toko lesmana2,"GFVF+5V8, Pelajau, Kec. Batu Mandi, Kabupaten Balangan, Kalimantan Selatan 71663","Pelajau, Kec. Batu Mandi, Kabupaten Balangan",KALIMANTAN SELATAN,71663.0,Indonesia,,,,-2.4570768,115.4746934,https://maps.google.com/?cid=0x0:0xbc749078023aef3a,
hardware store,hardware store,Kalimantan Selatan 71391,"Kabupaten Hulu Sungai Tengah, Kalimantan Selatan","Kabupaten Hulu Sungai Tengah, Kalimantan Selatan",KALIMANTAN SELATAN,,Indonesia,,,,-2.5000289,115.4378152,https://maps.google.com/?cid=0x0:0xdffec40975c2ada2,
hardware store,Toko Perlengkapan Rumah,Toko Bangunan hidry,"FC3X+GJ4, Birayang Surapati, Kec. Batang Alai Sel., Kabupaten Hulu Sungai Tengah, Kalimantan Selatan 71381","Birayang Surapati, Kec. Batang Alai Sel., Kabupaten Hulu Sungai Tengah",KALIMANTAN SELATAN,71381.0,Indonesia,,,,-2.5459785,115.4491334,https://maps.google.com/?cid=0x0:0xf2fddffdc4605a3,
hardware store,Toko Perlengkapan Rumah,Tb berkat mandiri birayang,"FFWH+WJ8, Karatungan, Kec. Limpasu, Kabupaten Hulu Sungai Tengah, Kalimantan Selatan 71391","Karatungan, Kec. Limpasu, Kabupaten Hulu Sungai Tengah",KALIMANTAN SELATAN,71391.0,Indonesia,83160960400.0,,,-2.5040733,115.4788433,https://maps.google.com/?cid=0x0:0xbf9ab98bab9ff83e,
hardware store,Toko Bahan Bangunan,UD. Karya Abadi,"Jl. Surapati, Banua Jingah, Kec. Barabai, Kabupaten Hulu Sungai Tengah, Kalimantan Selatan 71315","Banua Jingah, Kec. Barabai, Kabupaten Hulu Sungai Tengah",KALIMANTAN SELATAN,71315.0,Indonesia,85348753072.0,,,-2.5654667,115.3869646,https://maps.google.com/?cid=0x0:0x7cd05325d89939ed,
hardware store,Toko Bahan Bangunan,TB. KHALISA,"C99Q+W4R Fotocopy Nena, Dekat, Jl. Ir. Pangeran Haji Muhammad Nur No.46, Barabai Tim., Kec. Barabai, Kabupaten Hulu Sungai Tengah, Kalimantan Selatan 71315","Dekat, Jl. Ir. Pangeran Haji Muhammad Nur No.46, Barabai Tim., Kec. Barabai, Kabupaten Hulu Sungai Tengah",KALIMANTAN SELATAN,71315.0,Indonesia,87781689990.0,,,-2.579826,115.3878259,https://maps.google.com/?cid=0x0:0x861f73d7d7b32c50,
hardware store,Toko Bahan Bangunan,Toko lesmana2,"GFVF+5V8, Pelajau, Kec. Batu Mandi, Kabupaten Balangan, Kalimantan Selatan 71663","Pelajau, Kec. Batu Mandi, Kabupaten Balangan",KALIMANTAN SELATAN,71663.0,Indonesia,,,,-2.4570768,115.4746934,https://maps.google.com/?cid=0x0:0xbc749078023aef3a,
hardware store,Toko Bahan Bangunan,Al Zami Toko,"JL. Pasar Baru No.40, Banua Binjai, Kec. Barabai, Kabupaten Hulu Sungai Tengah, Kalimantan Selatan 71311","Banua Binjai, Kec. Barabai, Kabupaten Hulu Sungai Tengah",KALIMANTAN SELATAN,71311.0,Indonesia,51743157.0,,,-2.579949,115.379702,https://maps.google.com/?cid=0x0:0x1ea10fd4adbbde31,
hardware store,Toko Bahan Bangunan,TB Cahaya Baru,"C99P+Q99, Jl. Surapati, Barabai Tim., Kec. Barabai, Kabupaten Hulu Sungai Tengah, Kalimantan Selatan 71315","Jl. Surapati, Barabai Tim., Kec. Barabai, Kabupaten Hulu Sungai Tengah",KALIMANTAN SELATAN,71315.0,Indonesia,85169981293.0,,,-2.5805883,115.3859793,https://maps.google.com/?cid=0x0:0x1d69a2690d43e67b,
hardware store,Toko,Anugerah shop,"Jl. Alabio Danau Panggang Hilir, Tlk. Cati, Kec. Sungai Tabukan, Kabupaten Hulu Sungai Utara, Kalimantan Selatan 71455","Tlk. Cati, Kec. Sungai Tabukan, Kabupaten Hulu Sungai Utara",KALIMANTAN SELATAN,71455.0,Indonesia,81255709361.0,,,-2.4411153,115.1936096,https://maps.google.com/?cid=0x0:0xf91e0655e0d9a83,
hardware store,Pasar,Pasar Birayang,"Birayang, Kec. Batang Alai Sel., Kabupaten Hulu Sungai Tengah, Kalimantan Selatan 71381","Kec. Batang Alai Sel., Kabupaten Hulu Sungai Tengah",KALIMANTAN SELATAN,71381.0,Indonesia,,,,-2.5478693,115.4483625,https://maps.google.com/?cid=0x0:0xcba799a71643a596,
hardware store,Toko Alat Tulis Kantor,SMStationery,"Jln, RT.003/RW.002, Hulu Rasau, Kec. Pandawan, Kabupaten Hulu Sungai Tengah, Kalimantan Selatan 71352","RT.003/RW.002, Hulu Rasau, Kec. Pandawan, Kabupaten Hulu Sungai Tengah",KALIMANTAN SELATAN,71352.0,Indonesia,85782805431.0,,,-2.5788985,115.3637373,https://maps.google.com/?cid=0x0:0x5d0d4e23d1af3375,
hardware store,,TOKO AZKIA SINAR GORDEN,"Jln merdeka RT.08 RW.03 (DEPAN POlSEK BATANG ALAI SELATAN, Birayang, Kec. Barabai, Kalimantan Selatan 71381","Birayang, Kec. Barabai",KALIMANTAN SELATAN,71381.0,Indonesia,82155175556.0,,,-2.5476184,115.4452167,https://maps.google.com/?cid=0x0:0x12eb2a3e9e5a7368,
hardware store,hardware store,Kalimantan Selatan 71371,"Kec. Batu Benawa, Kabupaten Hulu Sungai Tengah, Kalimantan Selatan","Kabupaten Hulu Sungai Tengah, Kalimantan Selatan",KALIMANTAN SELATAN,,Indonesia,,,,-2.6261382,115.4378152,https://maps.google.com/?cid=0x0:0xba743d2c069b4c30,
hardware store,Toko Bahan Bangunan,Toko Berkah Abadi,"9CH9+H8X, Pagat, Kec. Batu Benawa, Kabupaten Hulu Sungai Tengah, Kalimantan Selatan 71371","Pagat, Kec. Batu Benawa, Kabupaten Hulu Sungai Tengah",KALIMANTAN SELATAN,71371.0,Indonesia,,,,-2.621745,115.4189828,https://maps.google.com/?cid=0x0:0x1aaede1d712f3d29,
hardware store,Toko Bahan Bangunan,Tb. Annisa Rasau (Barabai),"Matang Ginalun, Kec. Pandawan, Kabupaten Hulu Sungai Tengah, Kalimantan Selatan 71352","Kec. Pandawan, Kabupaten Hulu Sungai Tengah",KALIMANTAN SELATAN,71352.0,Indonesia,81351482275.0,,,-2.5855869,115.3720548,https://maps.google.com/?cid=0x0:0x814cd2b28f7225dc,
hardware store,Toko Bahan Bangunan,TB. KHALISA,"C99Q+W4R Fotocopy Nena, Dekat, Jl. Ir. Pangeran Haji Muhammad Nur No.46, Barabai Tim., Kec. Barabai, Kabupaten Hulu Sungai Tengah, Kalimantan Selatan 71315","Dekat, Jl. Ir. Pangeran Haji Muhammad Nur No.46, Barabai Tim., Kec. Barabai, Kabupaten Hulu Sungai Tengah",KALIMANTAN SELATAN,71315.0,Indonesia,87781689990.0,,,-2.579826,115.3878259,https://maps.google.com/?cid=0x0:0x861f73d7d7b32c50,
hardware store,Toko Bahan Bangunan,Toko Sahabat Barabai,"Jl. M. Ramli, Barabai Darat, Kec. Barabai, Kabupaten Hulu Sungai Tengah, Kalimantan Selatan 71352","Barabai Darat, Kec. Barabai, Kabupaten Hulu Sungai Tengah",KALIMANTAN SELATAN,71352.0,Indonesia,82154197501.0,,,-2.5928275,115.3849778,https://maps.google.com/?cid=0x0:0x487746f7550b8aad,
hardware store,Toko Bahan Bangunan,Bahan Bangunan UD ANUGRAH/Wantilan,"RT.006/RW.003, Pajukungan, Kec. Barabai, Kabupaten Hulu Sungai Tengah, Kalimantan Selatan 71315","Pajukungan, Kec. Barabai, Kabupaten Hulu Sungai Tengah",KALIMANTAN SELATAN,71315.0,Indonesia,,,,-2.5987253,115.3495238,https://maps.google.com/?cid=0x0:0xc51436275f38e1fa,
hardware store,Toko Bahan Bangunan,Al Zami Toko,"JL. Pasar Baru No.40, Banua Binjai, Kec. Barabai, Kabupaten Hulu Sungai Tengah, Kalimantan Selatan 71311","Banua Binjai, Kec. Barabai, Kabupaten Hulu Sungai Tengah",KALIMANTAN SELATAN,71311.0,Indonesia,51743157.0,,,-2.579949,115.379702,https://maps.google.com/?cid=0x0:0x1ea10fd4adbbde31,
hardware store,Toko Bahan Bangunan,TB Cahaya Baru,"C99P+Q99, Jl. Surapati, Barabai Tim., Kec. Barabai, Kabupaten Hulu Sungai Tengah, Kalimantan Selatan 71315","Jl. Surapati, Barabai Tim., Kec. Barabai, Kabupaten Hulu Sungai Tengah",KALIMANTAN SELATAN,71315.0,Indonesia,85169981293.0,,,-2.5805883,115.3859793,https://maps.google.com/?cid=0x0:0x1d69a2690d43e67b,
hardware store,Toko Bahan Bangunan,UD. Karya Abadi,"Jl. Surapati, Banua Jingah, Kec. Barabai, Kabupaten Hulu Sungai Tengah, Kalimantan Selatan 71315","Banua Jingah, Kec. Barabai, Kabupaten Hulu Sungai Tengah",KALIMANTAN SELATAN,71315.0,Indonesia,85348753072.0,,,-2.5654667,115.3869646,https://maps.google.com/?cid=0x0:0x7cd05325d89939ed,
hardware store,hardware store,Kalimantan Selatan 71372,"Kec. Hantakan, Kabupaten Hulu Sungai Tengah, Kalimantan Selatan","Kabupaten Hulu Sungai Tengah, Kalimantan Selatan",KALIMANTAN SELATAN,,Indonesia,,,,-2.6699556,115.4970466,https://maps.google.com/?cid=0x0:0x488758822bcfff7a,
hardware store,Toko Bahan Bangunan,Toko Hani,"blok bahan bangunan, Jl.Pasar 2 Pusat Perbelanjaan, Jl. Murakata No.13-14, Kec. Barabai, Kalimantan Selatan 71311","Jl.Pasar 2 Pusat Perbelanjaan, Jl. Murakata No.13-14, Kec. Barabai",KALIMANTAN SELATAN,71311.0,Indonesia,82186587550.0,,,-2.5868724,115.3832749,https://maps.google.com/?cid=0x0:0xa1649588058e023a,
hardware store,Toko Bahan Bangunan,Toko Sahabat Barabai,"Jl. M. Ramli, Barabai Darat, Kec. Barabai, Kabupaten Hulu Sungai Tengah, Kalimantan Selatan 71352","Barabai Darat, Kec. Barabai, Kabupaten Hulu Sungai Tengah",KALIMANTAN SELATAN,71352.0,Indonesia,82154197501.0,,,-2.5928275,115.3849778,https://maps.google.com/?cid=0x0:0x487746f7550b8aad,
hardware store,Toko Elektronik,Rayhan elektronik,"Jl. Ir. Pangeran Haji Muhammad Nur, Barabai Tim., Kec. Barabai, Kabupaten Hulu Sungai Tengah, Kalimantan Selatan 71315","Barabai Tim., Kec. Barabai, Kabupaten Hulu Sungai Tengah",KALIMANTAN SELATAN,71315.0,Indonesia,81347984100.0,,,-2.5869675,115.3812792,https://maps.google.com/?cid=0x0:0x400aa347f9a809e3,
hardware store,Toko Ponsel,AZ PART,"C96M+35X, Jl. Trikesuma, Barabai Darat, Kec. Barabai, Kabupaten Hulu Sungai Tengah, Kalimantan Selatan 71352","Jl. Trikesuma, Barabai Darat, Kec. Barabai, Kabupaten Hulu Sungai Tengah",KALIMANTAN SELATAN,71352.0,Indonesia,82350981358.0,,,-2.589759,115.382974,https://maps.google.com/?cid=0x0:0xdae09dae85752d10,
hardware store,Toko Elektronik,Aan Elektronik,"C9F3+699, Palajau, Batu Mandi, Kabupaten Hulu Sungai Tengah, Kalimantan Selatan 71352","Palajau, Batu Mandi, Kabupaten Hulu Sungai Tengah",KALIMANTAN SELATAN,71352.0,Indonesia,85248862991.0,,,-2.5769683,115.3535,https://maps.google.com/?cid=0x0:0xa7b5e281d2bb2999,
hardware store,Toko Elektronik,Toko Gurun Putra,"C9HR+H85, Banua Jingah, Kec. Barabai, Kabupaten Hulu Sungai Tengah, Kalimantan Selatan","Kabupaten Hulu Sungai Tengah, Kalimantan Selatan",KALIMANTAN SELATAN,,Indonesia,,,,-2.5711062,115.3908651,https://maps.google.com/?cid=0x0:0x20be64dcba6abbe8,
hardware store,Toko Bahan Bangunan,TB AL BARKAH,"C97H+5RJ, Barabai Utara, Kec. Barabai, Kabupaten Hulu Sungai Tengah, Kalimantan Selatan","Kabupaten Hulu Sungai Tengah, Kalimantan Selatan",KALIMANTAN SELATAN,,Indonesia,,,,-2.5870491,115.3795146,https://maps.google.com/?cid=0x0:0x2f3e158615bf1923,
hardware store,hardware store,Haruyan,"Kec. Haruyan, Kabupaten Hulu Sungai Tengah, Kalimantan Selatan","Kabupaten Hulu Sungai Tengah, Kalimantan Selatan",KALIMANTAN SELATAN,,Indonesia,,,,-2.6892492,115.3400575,https://maps.google.com/?cid=0x0:0x78b72ecb9ce87082,
hardware store,hardware store,Kalimantan Selatan 71363,"Kec. Haruyan, Kabupaten Hulu Sungai Tengah, Kalimantan Selatan","Kabupaten Hulu Sungai Tengah, Kalimantan Selatan",KALIMANTAN SELATAN,,Indonesia,,,,-2.7175132,115.3904215,https://maps.google.com/?cid=0x0:0xc3f11fd884e0444f,
hardware store,Toko Bahan Bangunan,Tb. Al fatah,"88CG+63W, Jalan Raya, Barikin, Haruyan, Central Hulu Sungai Regency, South Kalimantan 71363","Jalan Raya, Barikin, Haruyan, Central Hulu Sungai Regency",KALIMANTAN SELATAN,71363.0,Indonesia,81348946946.0,,,-2.6793939,115.325208,https://maps.google.com/?cid=0x0:0xb744faf4b0c564f7,
hardware store,Toko Bahan Bangunan,Bahan Bangunan UD ANUGRAH/Wantilan,"RT.006/RW.003, Pajukungan, Kec. Barabai, Kabupaten Hulu Sungai Tengah, Kalimantan Selatan 71315","Pajukungan, Kec. Barabai, Kabupaten Hulu Sungai Tengah",KALIMANTAN SELATAN,71315.0,Indonesia,,,,-2.5987253,115.3495238,https://maps.google.com/?cid=0x0:0xc51436275f38e1fa,
hardware store,hardware store,Toko Cicil,"Desa Tabat Padang Rt.003 Rw.002, Kec. Haruyan, Kec. Barabai, Kabupaten Hulu Sungai Tengah, Kalimantan Selatan 71363","Kec. Haruyan, Kec. Barabai, Kabupaten Hulu Sungai Tengah",KALIMANTAN SELATAN,71363.0,Indonesia,,,,-2.7101227,115.3531844,https://maps.google.com/?cid=0x0:0x6e6888991c3ca03c,
hardware store,Toko Ponsel,AZ PART,"C96M+35X, Jl. Trikesuma, Barabai Darat, Kec. Barabai, Kabupaten Hulu Sungai Tengah, Kalimantan Selatan 71352","Jl. Trikesuma, Barabai Darat, Kec. Barabai, Kabupaten Hulu Sungai Tengah",KALIMANTAN SELATAN,71352.0,Indonesia,82350981358.0,,,-2.589759,115.382974,https://maps.google.com/?cid=0x0:0xdae09dae85752d10,
hardware store,hardware store,,,,KALIMANTAN SELATAN,,Indonesia,,,,-2.7164015,115.302366,https://maps.google.com/?cid=0x0:0x9f8bb652eecde08,
hardware store,Pusat Perbelanjaan,Arsyila Stationery,"Jl. Ahmad Yani, RT.003/RW.002, Bamban Utara, Kec. Angkinang, Kabupaten Hulu Sungai Selatan, Kalimantan Selatan 71291","RT.003/RW.002, Bamban Utara, Kec. Angkinang, Kabupaten Hulu Sungai Selatan",KALIMANTAN SELATAN,71291.0,Indonesia,81545743601.0,,,-2.7073003,115.3069147,https://maps.google.com/?cid=0x0:0x154d3f936dc9f5ad,
hardware store,Toko Bahan Bangunan,TB. JULAK DILLAH,"78W6+V46, Bamban Utara, Kec. Angkinang, Kabupaten Hulu Sungai Selatan, Kalimantan Selatan 71363","Bamban Utara, Kec. Angkinang, Kabupaten Hulu Sungai Selatan",KALIMANTAN SELATAN,71363.0,Indonesia,,,,-2.7028322,115.3102604,https://maps.google.com/?cid=0x0:0xa838bf4742b11de9,
hardware store,Toko Bahan Bangunan,"RAHMAT ILAHI,TB","88VG+3XP, Jl. Tabu Darat Hilir, Tabudarat Hulu, Kec. Labuan Amas Sel., Kabupaten Hulu Sungai Tengah, Kalimantan Selatan 71361","Jl. Tabu Darat Hilir, Tabudarat Hulu, Kec. Labuan Amas Sel., Kabupaten Hulu Sungai Tengah",KALIMANTAN SELATAN,71361.0,Indonesia,8125032674.0,,,-2.6572991,115.3274588,https://maps.google.com/?cid=0x0:0x80a1649fe36f02d4,
hardware store,Toko Bahan Bangunan,Tb Al mu'min,"77JX+XP8, Jl. Ahmad Yani, Bamban Sel., Kec. Angkinang, Kabupaten Hulu Sungai Selatan, Kalimantan Selatan","Kabupaten Hulu Sungai Selatan, Kalimantan Selatan",KALIMANTAN SELATAN,,Indonesia,,,,-2.7176283,115.2993077,https://maps.google.com/?cid=0x0:0x7efc565bd937a1fc,
hardware store,Toko Bahan Bangunan,MR.DIY,"C95F+G58, Bukat, Kec. Barabai, Kabupaten Hulu Sungai Tengah, Kalimantan Selatan 71352","Bukat, Kec. Barabai, Kabupaten Hulu Sungai Tengah",KALIMANTAN SELATAN,71352.0,Indonesia,,,,-2.590217,115.3727907,https://maps.google.com/?cid=0x0:0xbd08ccc46c1f9598,
hardware store,hardware store,Kalimantan Selatan 71361,"Kec. Labuan Amas Sel., Kabupaten Hulu Sungai Tengah, Kalimantan Selatan","Kabupaten Hulu Sungai Tengah, Kalimantan Selatan",KALIMANTAN SELATAN,,Indonesia,,,,-2.6462589,115.3430203,https://maps.google.com/?cid=0x0:0x72da1a00ef6df96a,
hardware store,Toko Bahan Bangunan,TB.RAHMAN,"988Q+3P4, Jl. A. Yani, Sungai Rangas, Kec. Labuan Amas Sel., Kabupaten Hulu Sungai Tengah, Kalimantan Selatan 71361","Jl. A. Yani, Sungai Rangas, Kec. Labuan Amas Sel., Kabupaten Hulu Sungai Tengah",KALIMANTAN SELATAN,71361.0,Indonesia,85821862815.0,,,-2.6348619,115.3393338,https://maps.google.com/?cid=0x0:0x374c65984edb5d67,
hardware store,Toko Bahan Bangunan,"RAHMAT ILAHI,TB","88VG+3XP, Jl. Tabu Darat Hilir, Tabudarat Hulu, Kec. Labuan Amas Sel., Kabupaten Hulu Sungai Tengah, Kalimantan Selatan 71361","Jl. Tabu Darat Hilir, Tabudarat Hulu, Kec. Labuan Amas Sel., Kabupaten Hulu Sungai Tengah",KALIMANTAN SELATAN,71361.0,Indonesia,8125032674.0,,,-2.6572991,115.3274588,https://maps.google.com/?cid=0x0:0x80a1649fe36f02d4,
hardware store,Toko,Meubel Rizki,"988R+C22, Sungai Rangas, Kec. Labuan Amas Sel., Kabupaten Hulu Sungai Tengah, Kalimantan Selatan 71361","Sungai Rangas, Kec. Labuan Amas Sel., Kabupaten Hulu Sungai Tengah",KALIMANTAN SELATAN,71361.0,Indonesia,,,,-2.6339812,115.3400166,https://maps.google.com/?cid=0x0:0xc233f724505f5f6a,
hardware store,Toko Bahan Bangunan,MR.DIY,"C95F+G58, Bukat, Kec. Barabai, Kabupaten Hulu Sungai Tengah, Kalimantan Selatan 71352","Bukat, Kec. Barabai, Kabupaten Hulu Sungai Tengah",KALIMANTAN SELATAN,71352.0,Indonesia,,,,-2.590217,115.3727907,https://maps.google.com/?cid=0x0:0xbd08ccc46c1f9598,
hardware store,Toko Bahan Bangunan,Tb. Annisa Rasau (Barabai),"Matang Ginalun, Kec. Pandawan, Kabupaten Hulu Sungai Tengah, Kalimantan Selatan 71352","Kec. Pandawan, Kabupaten Hulu Sungai Tengah",KALIMANTAN SELATAN,71352.0,Indonesia,81351482275.0,,,-2.5855869,115.3720548,https://maps.google.com/?cid=0x0:0x814cd2b28f7225dc,
hardware store,hardware store,,,,KALIMANTAN SELATAN,,Indonesia,,,,-2.7164015,115.302366,https://maps.google.com/?cid=0x0:0x9f8bb652eecde08,
hardware store,Toko bahan makanan,TB. NIDA  NAHZA,"997J+V2M, Murung Taal, Kec. Labuan Amas Sel., Kabupaten Hulu Sungai Tengah, Kalimantan Selatan 71361","Murung Taal, Kec. Labuan Amas Sel., Kabupaten Hulu Sungai Tengah",KALIMANTAN SELATAN,71361.0,Indonesia,,,,-2.6352925,115.3800531,https://maps.google.com/?cid=0x0:0x21e4560405071f03,
hardware store,Toko Bahan Bangunan,TB. AINUL AMIN,"97JQ+C59, Jalan Raya Pamangkih, Kasarangan, Kec. Labuan Amas Utara, Kabupaten Hulu Sungai Tengah, Kalimantan Selatan 71362","Jalan Raya Pamangkih, Kasarangan, Kec. Labuan Amas Utara, Kabupaten Hulu Sungai Tengah",KALIMANTAN SELATAN,71362.0,Indonesia,,,,-2.6189697,115.2879963,https://maps.google.com/?cid=0x0:0x1658e1408942fc17,
hardware store,Toko Bahan Bangunan,Toko Bangunan Hidayah,"Banua Kupang, Kec. Labuan Amas Utara, Kabupaten Hulu Sungai Tengah, Kalimantan Selatan 71362","Kec. Labuan Amas Utara, Kabupaten Hulu Sungai Tengah",KALIMANTAN SELATAN,71362.0,Indonesia,81357069229.0,,,-2.6016082,115.3217385,https://maps.google.com/?cid=0x0:0xafeaad0301b35e5e,
hardware store,hardware store,Kalimantan Selatan 71362,"Kec. Labuan Amas Utara, Kabupaten Hulu Sungai Tengah, Kalimantan Selatan","Kabupaten Hulu Sungai Tengah, Kalimantan Selatan",KALIMANTAN SELATAN,,Indonesia,,,,-2.603915,115.2126293,https://maps.google.com/?cid=0x0:0xab7bf48564cb2e60,
hardware store,Toko Bahan Bangunan,TB. AINUL AMIN,"97JQ+C59, Jalan Raya Pamangkih, Kasarangan, Kec. Labuan Amas Utara, Kabupaten Hulu Sungai Tengah, Kalimantan Selatan 71362","Jalan Raya Pamangkih, Kasarangan, Kec. Labuan Amas Utara, Kabupaten Hulu Sungai Tengah",KALIMANTAN SELATAN,71362.0,Indonesia,,,,-2.6189697,115.2879963,https://maps.google.com/?cid=0x0:0x1658e1408942fc17,
hardware store,Toko Bahan Bangunan,Toko Bangunan Hidayah,"Banua Kupang, Kec. Labuan Amas Utara, Kabupaten Hulu Sungai Tengah, Kalimantan Selatan 71362","Kec. Labuan Amas Utara, Kabupaten Hulu Sungai Tengah",KALIMANTAN SELATAN,71362.0,Indonesia,81357069229.0,,,-2.6016082,115.3217385,https://maps.google.com/?cid=0x0:0xafeaad0301b35e5e,
hardware store,Toko Bahan Bangunan,TB.RAHMAN,"988Q+3P4, Jl. A. Yani, Sungai Rangas, Kec. Labuan Amas Sel., Kabupaten Hulu Sungai Tengah, Kalimantan Selatan 71361","Jl. A. Yani, Sungai Rangas, Kec. Labuan Amas Sel., Kabupaten Hulu Sungai Tengah",KALIMANTAN SELATAN,71361.0,Indonesia,85821862815.0,,,-2.6348619,115.3393338,https://maps.google.com/?cid=0x0:0x374c65984edb5d67,
hardware store,Toko Bahan Bangunan,"RAHMAT ILAHI,TB","88VG+3XP, Jl. Tabu Darat Hilir, Tabudarat Hulu, Kec. Labuan Amas Sel., Kabupaten Hulu Sungai Tengah, Kalimantan Selatan 71361","Jl. Tabu Darat Hilir, Tabudarat Hulu, Kec. Labuan Amas Sel., Kabupaten Hulu Sungai Tengah",KALIMANTAN SELATAN,71361.0,Indonesia,8125032674.0,,,-2.6572991,115.3274588,https://maps.google.com/?cid=0x0:0x80a1649fe36f02d4,
hardware store,Toko Bahan Bangunan,Tb. Annisa Rasau (Barabai),"Matang Ginalun, Kec. Pandawan, Kabupaten Hulu Sungai Tengah, Kalimantan Selatan 71352","Kec. Pandawan, Kabupaten Hulu Sungai Tengah",KALIMANTAN SELATAN,71352.0,Indonesia,81351482275.0,,,-2.5855869,115.3720548,https://maps.google.com/?cid=0x0:0x814cd2b28f7225dc,
hardware store,hardware store,,,,KALIMANTAN SELATAN,,Indonesia,,,,-2.7164015,115.302366,https://maps.google.com/?cid=0x0:0x9f8bb652eecde08,
hardware store,Toko,Meubel Rizki,"988R+C22, Sungai Rangas, Kec. Labuan Amas Sel., Kabupaten Hulu Sungai Tengah, Kalimantan Selatan 71361","Sungai Rangas, Kec. Labuan Amas Sel., Kabupaten Hulu Sungai Tengah",KALIMANTAN SELATAN,71361.0,Indonesia,,,,-2.6339812,115.3400166,https://maps.google.com/?cid=0x0:0xc233f724505f5f6a,
hardware store,Toko Bahan Bangunan,Bahan Bangunan UD ANUGRAH/Wantilan,"RT.006/RW.003, Pajukungan, Kec. Barabai, Kabupaten Hulu Sungai Tengah, Kalimantan Selatan 71315","Pajukungan, Kec. Barabai, Kabupaten Hulu Sungai Tengah",KALIMANTAN SELATAN,71315.0,Indonesia,,,,-2.5987253,115.3495238,https://maps.google.com/?cid=0x0:0xc51436275f38e1fa,
hardware store,,Fotocopy Rezky,"Jl. A. Yani, Sungai Rangas, Kec. Barabai, Kabupaten Hulu Sungai Tengah, Kalimantan Selatan 71361","Sungai Rangas, Kec. Barabai, Kabupaten Hulu Sungai Tengah",KALIMANTAN SELATAN,71361.0,Indonesia,85249363989.0,,,-2.6378358,115.3374016,https://maps.google.com/?cid=0x0:0xc759315de89059c1,
hardware store,Pusat Perbelanjaan,Arsyila Stationery,"Jl. Ahmad Yani, RT.003/RW.002, Bamban Utara, Kec. Angkinang, Kabupaten Hulu Sungai Selatan, Kalimantan Selatan 71291","RT.003/RW.002, Bamban Utara, Kec. Angkinang, Kabupaten Hulu Sungai Selatan",KALIMANTAN SELATAN,71291.0,Indonesia,81545743601.0,,,-2.7073003,115.3069147,https://maps.google.com/?cid=0x0:0x154d3f936dc9f5ad,
hardware store,Toko Bahan Bangunan,MR.DIY,"C95F+G58, Bukat, Kec. Barabai, Kabupaten Hulu Sungai Tengah, Kalimantan Selatan 71352","Bukat, Kec. Barabai, Kabupaten Hulu Sungai Tengah",KALIMANTAN SELATAN,71352.0,Indonesia,,,,-2.590217,115.3727907,https://maps.google.com/?cid=0x0:0xbd08ccc46c1f9598,
hardware store,hardware store,Kalimantan Selatan 71391,"Kabupaten Hulu Sungai Tengah, Kalimantan Selatan","Kabupaten Hulu Sungai Tengah, Kalimantan Selatan",KALIMANTAN SELATAN,,Indonesia,,,,-2.5000289,115.4378152,https://maps.google.com/?cid=0x0:0xdffec40975c2ada2,
hardware store,Toko Bahan Bangunan,Toko lesmana2,"GFVF+5V8, Pelajau, Kec. Batu Mandi, Kabupaten Balangan, Kalimantan Selatan 71663","Pelajau, Kec. Batu Mandi, Kabupaten Balangan",KALIMANTAN SELATAN,71663.0,Indonesia,,,,-2.4570768,115.4746934,https://maps.google.com/?cid=0x0:0xbc749078023aef3a,
hardware store,Toko Perlengkapan Rumah,Tb berkat mandiri birayang,"FFWH+WJ8, Karatungan, Kec. Limpasu, Kabupaten Hulu Sungai Tengah, Kalimantan Selatan 71391","Karatungan, Kec. Limpasu, Kabupaten Hulu Sungai Tengah",KALIMANTAN SELATAN,71391.0,Indonesia,83160960400.0,,,-2.5040733,115.4788433,https://maps.google.com/?cid=0x0:0xbf9ab98bab9ff83e,
hardware store,Toko Bahan Bangunan,UD.Sinar Harapan,"Banua Batung, Kec. Pandawan, Kabupaten Hulu Sungai Tengah, Kalimantan, Selatan 71352, Kec. Barabai, Kalimantan Selatan 71352","Kec. Pandawan, Kabupaten Hulu Sungai Tengah, Kalimantan, Selatan",KALIMANTAN SELATAN,71352.0,Indonesia,85349430978.0,,,-2.5496071,115.3518284,https://maps.google.com/?cid=0x0:0x453de3c4ce5f3ec,
hardware store,Toko Bahan Bangunan,UD. Karya Abadi,"Jl. Surapati, Banua Jingah, Kec. Barabai, Kabupaten Hulu Sungai Tengah, Kalimantan Selatan 71315","Banua Jingah, Kec. Barabai, Kabupaten Hulu Sungai Tengah",KALIMANTAN SELATAN,71315.0,Indonesia,85348753072.0,,,-2.5654667,115.3869646,https://maps.google.com/?cid=0x0:0x7cd05325d89939ed,
hardware store,Pusat Perbelanjaan,Toko aisyah,"FFFF+XQ6, Abung Surapati, Kec. Limpasu, Kabupaten Hulu Sungai Tengah, Kalimantan Selatan","Kabupaten Hulu Sungai Tengah, Kalimantan Selatan",KALIMANTAN SELATAN,,Indonesia,85238105051.0,,,-2.5250808,115.4743904,https://maps.google.com/?cid=0x0:0x48fa9388812746fe,
hardware store,Toko Perlengkapan Rumah,Toko Bangunan hidry,"FC3X+GJ4, Birayang Surapati, Kec. Batang Alai Sel., Kabupaten Hulu Sungai Tengah, Kalimantan Selatan 71381","Birayang Surapati, Kec. Batang Alai Sel., Kabupaten Hulu Sungai Tengah",KALIMANTAN SELATAN,71381.0,Indonesia,,,,-2.5459785,115.4491334,https://maps.google.com/?cid=0x0:0xf2fddffdc4605a3,
hardware store,Toko Perlengkapan Rumah,Toko Bangunan,"Jl. A. Yani, Matang Ginalun, Kec. Pandawan, Kabupaten Hulu Sungai Tengah, Kalimantan Selatan 71352","Matang Ginalun, Kec. Pandawan, Kabupaten Hulu Sungai Tengah",KALIMANTAN SELATAN,71352.0,Indonesia,8161999912.0,,,-2.5866557,115.3759065,https://maps.google.com/?cid=0x0:0xf79511cc081343d5,
hardware store,Toko Bahan Bangunan,Toko Bangunan Berkat Berkawan,"C94C+79R, Bukat, Kec. Barabai, Kabupaten Hulu Sungai Tengah, Kalimantan Selatan 71352","Bukat, Kec. Barabai, Kabupaten Hulu Sungai Tengah",KALIMANTAN SELATAN,71352.0,Indonesia,,,,-2.5942679,115.3708752,https://maps.google.com/?cid=0x0:0x7829db9039b923ad,
hardware store,hardware store,Pandawan,"Kec. Pandawan, Kabupaten Hulu Sungai Tengah, Kalimantan Selatan","Kabupaten Hulu Sungai Tengah, Kalimantan Selatan",KALIMANTAN SELATAN,,Indonesia,,,,-2.5683337,115.3474645,https://maps.google.com/?cid=0x0:0x3ba4c355fadd93b4,
hardware store,Toko Bahan Bangunan,Pandawa Lima Perkasa,"Jl. Pahlawan No.65 1, RT.1/RW.2, Leuwinutug, Kec. Citeureup, Kabupaten Bogor, Jawa Barat 16810","RT.1/RW.2, Leuwinutug, Kec. Citeureup, Kabupaten Bogor",KALIMANTAN SELATAN,16810.0,Indonesia,8158892049.0,,,-6.5119938,106.8651042,https://maps.google.com/?cid=0x0:0xcc35da2dd1abe7fa,
hardware store,Toko Bahan Bangunan,TB. PANDAWA,"Jl. Ceger Raya No.99, RT.1/RW.02, Pd. Karya, Kec. Pd. Aren, Kota Tangerang Selatan, Banten 15225","RT.1/RW.02, Pd. Karya, Kec. Pd. Aren, Kota Tangerang Selatan",KALIMANTAN SELATAN,15225.0,Indonesia,8121943781.0,,,-6.2513669,106.7368819,https://maps.google.com/?cid=0x0:0x1b6e64dc40d2980e,
hardware store,hardware store,Pandawa Sakti,"Jl. Drs. Saleh Danasasmita No. 88, RT.01/RW.02, Batutulis, Kec. Bogor Sel., Kota Bogor, Jawa Barat 16134","RT.01/RW.02, Batutulis, Kec. Bogor Sel., Kota Bogor",KALIMANTAN SELATAN,16134.0,Indonesia,85213960916.0,,,-6.6247066,106.8092671,https://maps.google.com/?cid=0x0:0xc413cb1c0f80aa86,
hardware store,hardware store,Mitra Karya Pandawa,"Sumur Batu, Kec. Babakan Madang, Kabupaten Bogor, Jawa Barat 16810","Kec. Babakan Madang, Kabupaten Bogor",KALIMANTAN SELATAN,16810.0,Indonesia,2187961612.0,,,-6.586853,106.877403,https://maps.google.com/?cid=0x0:0x3b9c6a4ea14eae66,
