Category,Real Category,Business Name,Address,City,State,Postal Code,Country,Phone,Email,Website,Latitude,Longitude,Map Link,Details Link
mall,mall,mall lessi,"2V9P+2M3, Langaleso, Kec. Dolo, Kabupaten Sigi, Sulawesi Tengah 94362","Langaleso, Kec. Dolo, Kabupaten Sigi",SULAWESI TENGAH,94362.0,Indonesia,,,,-0.9824864,119.8866686,https://maps.google.com/?cid=0x0:0x5494208bf5046507,
mall,mall,Dolo,"Kotarindau, Kec. Dolo, Kabupaten Sigi, Sulawesi Tengah","Kabupaten Sigi, Sulawesi Tengah",SULAWESI TENGAH,,Indonesia,,,,-0.990628,119.878098,https://maps.google.com/?cid=0x0:0x5c92b62bdcba4dae,
mall,Pusat Perbelanjaan,XEIGHT Palu Grand Mall,"Grand Mall, Jl. Cumi-Cumi No.77 LT. GF UNIT G - 0150, BUMI BAHARI, Kec. Palu Bar., Kota Palu, Sulawesi Tengah 94221","Jl. Cumi-Cumi No.77 LT. GF UNIT G - 0150, BUMI BAHARI, Kec. Palu Bar., Kota Palu",SULAWESI TENGAH,94221.0,Indonesia, 04514134547,,,-0.8828723,119.8427211,https://maps.google.com/?cid=0x0:0xd7e6e97d68971afd,
mall,mall,Kios ainun,"XVPH+PM3, Jl. Poros Palu- Kulawi, Tulo, Kec. Dolo, Kabupaten Sigi, Sulawesi Tengah 94362","Jl. Poros Palu- Kulawi, Tulo, Kec. Dolo, Kabupaten Sigi",SULAWESI TENGAH,94362.0,Indonesia,,,,-1.0132321,119.8791643,https://maps.google.com/?cid=0x0:0x8eee90dc0e383283,
mall,mall,Sulawesi Tengah 94361,"Kabupaten Sigi, Sulawesi Tengah","Kabupaten Sigi, Sulawesi Tengah",SULAWESI TENGAH,,Indonesia,,,,-1.23459,119.9046594,https://maps.google.com/?cid=0x0:0x4f531feacb3953e3,
mall,mall,Sulawesi Tengah 94684,"Kec. Ampana Tete, Kabupaten Tojo Una-Una, Sulawesi Tengah","Kabupaten Tojo Una-Una, Sulawesi Tengah",SULAWESI TENGAH,,Indonesia,,,,-1.06437,121.6739371,https://maps.google.com/?cid=0x0:0x395f26e16da414ae,
mall,Pusat Kesejahteraan Sosial,Nuget muslimah ampana,"4M92+9VG, Tete-A, Kec. Ampana Tete, Kabupaten Tojo Una-Una, Sulawesi Tengah 94684","Tete-A, Kec. Ampana Tete, Kabupaten Tojo Una-Una",SULAWESI TENGAH,94684.0,Indonesia, 082259047553,,,-0.881557,121.6522018,https://maps.google.com/?cid=0x0:0x18128acb945e1e6a,
mall,Toko Swalayan,Madinah Mart,"Jl. Sungai Bongka, Uentanaga Atas, Kec. Ampana Kota, Kabupaten Tojo Una-Una, Sulawesi Tengah 94683","Uentanaga Atas, Kec. Ampana Kota, Kabupaten Tojo Una-Una",SULAWESI TENGAH,94683.0,Indonesia, 081284887237,,,-0.9052323,121.5834435,https://maps.google.com/?cid=0x0:0x6b753e2859f7baac,
mall,Komplek perumahan,Pasar balanggala,"2QG6+323, Balanggala, Kec. Ampana Tete, Kabupaten Tojo Una-Una, Sulawesi Tengah 94684","Balanggala, Kec. Ampana Tete, Kabupaten Tojo Una-Una",SULAWESI TENGAH,94684.0,Indonesia,,,,-0.9748646,121.7600603,https://maps.google.com/?cid=0x0:0x4f33735561a85288,
mall,Pusat Perbelanjaan,Katogean,"4HGV+PQX, Jl. Delima, Dondo, Kec. Ampana Kota, Kabupaten Tojo Una-Una, Sulawesi Tengah 94683","Jl. Delima, Dondo, Kec. Ampana Kota, Kabupaten Tojo Una-Una",SULAWESI TENGAH,94683.0,Indonesia,,,,-0.8731433,121.594494,https://maps.google.com/?cid=0x0:0x5ec947b42656ac34,
mall,Toko,MOHARRANG CELL  SUKSES GAME PS2 PS3,"4JHH+X44, Unnamed Road, Pusungi, Kec. Ampana Tete, Kabupaten Tojo Una-Una, Sulawesi Tengah 94684","Unnamed Road, Pusungi, Kec. Ampana Tete, Kabupaten Tojo Una-Una",SULAWESI TENGAH,94684.0,Indonesia,,,,-0.8701108,121.6278313,https://maps.google.com/?cid=0x0:0x5299fdd8b4e1f5c8,
mall,Pusat Perbelanjaan,WAYAU PARFUM,"4HJQ+CGR, Uentanaga Bawah, Kec. Ampana Kota, Kabupaten Tojo Una-Una, Sulawesi Tengah 94683","Uentanaga Bawah, Kec. Ampana Kota, Kabupaten Tojo Una-Una",SULAWESI TENGAH,94683.0,Indonesia, 082296510551,,,-0.8688751,121.588779,https://maps.google.com/?cid=0x0:0x965b22f88a43c87f,
mall,Toko Pakaian,Yuni,"Jl. Sungai Bongka No.81, Uentanaga Atas, Kec. Ampana Kota, Kabupaten Tojo Una-Una, Sulawesi Tengah 94683","Uentanaga Atas, Kec. Ampana Kota, Kabupaten Tojo Una-Una",SULAWESI TENGAH,94683.0,Indonesia,,,,-0.8818781,121.5858496,https://maps.google.com/?cid=0x0:0x7eee3fcd71ab08a,
mall,Pusat Perbelanjaan,Farel Shop Ampana,"Jl. Kepiting No.23, Sumoli, Kec. Ampana Kota, Kabupaten Tojo Una-Una, Sulawesi Tengah 94683","Sumoli, Kec. Ampana Kota, Kabupaten Tojo Una-Una",SULAWESI TENGAH,94683.0,Indonesia, 085280522228,,,-0.8695462,121.5906743,https://maps.google.com/?cid=0x0:0xb7e6b763db441b87,
mall,Pusat Perbelanjaan,Awy parfum,"4HHM+WGR, Jl. Moh. Hatta, Uentanaga Bawah, Kec. Ampana Kota, Kabupaten Tojo Una-Una, Sulawesi Tengah 94683","Jl. Moh. Hatta, Uentanaga Bawah, Kec. Ampana Kota, Kabupaten Tojo Una-Una",SULAWESI TENGAH,94683.0,Indonesia, 0811455654,,,-0.8701485,121.5837573,https://maps.google.com/?cid=0x0:0x1f4310aff860020,
mall,Toko bahan makanan,Toko Anugerah ampana,"Dondo, Kec. Ampana Kota, Kabupaten Tojo Una-Una, Sulawesi Tengah 94683","Kec. Ampana Kota, Kabupaten Tojo Una-Una",SULAWESI TENGAH,94683.0,Indonesia,,,,-0.8613874,121.5965478,https://maps.google.com/?cid=0x0:0x1b2c8dae3219cdd1,
mall,Toko bahan makanan,Ampana Mart,"4HPW+W4R, Jl. Ahmad Yani, Dondo, Kec. Ampana Kota, Kabupaten Tojo Una-Una, Sulawesi Tengah 94683","Jl. Ahmad Yani, Dondo, Kec. Ampana Kota, Kabupaten Tojo Una-Una",SULAWESI TENGAH,94683.0,Indonesia, 082339426494,,,-0.8624695,121.5951044,https://maps.google.com/?cid=0x0:0xa22741e00c83c78b,
mall,Toko Kelontong Asia,Zahra Cell,"Jl. Tancjepa No.05, Pusungi, Kec. Ampana Tete, Kabupaten Tojo Una-Una, Sulawesi Tengah 94684","Pusungi, Kec. Ampana Tete, Kabupaten Tojo Una-Una",SULAWESI TENGAH,94684.0,Indonesia,,,,-0.8721039,121.6269024,https://maps.google.com/?cid=0x0:0x444ad53f3abf4cc5,
mall,Minimarket,Toko Chi-noik,"4HHM+W6C, Uentanaga Bawah, Kec. Ampana Kota, Kabupaten Tojo Una-Una, Sulawesi Tengah 94683","Uentanaga Bawah, Kec. Ampana Kota, Kabupaten Tojo Una-Una",SULAWESI TENGAH,94683.0,Indonesia, 082169157543,,,-0.87018,121.5830083,https://maps.google.com/?cid=0x0:0x62c35764b042ee38,
mall,Toko bahan makanan,TOKO GALAXY STATIONERY,"4HMR+8RJ, Jl. Ahmad Yani, Dondo, Kec. Ampana Kota, Kabupaten Tojo Una-Una, Sulawesi Tengah 94683","Jl. Ahmad Yani, Dondo, Kec. Ampana Kota, Kabupaten Tojo Una-Una",SULAWESI TENGAH,94683.0,Indonesia, 085187074461,,,-0.8666647,121.5920191,https://maps.google.com/?cid=0x0:0x38eda3bf56811ecd,
mall,Toko bahan makanan,Ramayana palu,"4HHM+X9H, Jl. Moh. Hatta, Uentanaga Bawah, Kec. Ampana Kota, Kabupaten Tojo Una-Una, Sulawesi Tengah 94683","Jl. Moh. Hatta, Uentanaga Bawah, Kec. Ampana Kota, Kabupaten Tojo Una-Una",SULAWESI TENGAH,94683.0,Indonesia,,,,-0.8700736,121.583493,https://maps.google.com/?cid=0x0:0x4ac8294a9725920d,
mall,Minimarket,ALFAMIDI SULTAN HASANUDIN AMPANA,"Jl. Sultan Hasanudin No.30a, Labiabae, Kec. Ampana Kota, Kabupaten Tojo Una-Una, Sulawesi Tengah 94683","Labiabae, Kec. Ampana Kota, Kabupaten Tojo Una-Una",SULAWESI TENGAH,94683.0,Indonesia,,,,-0.869835,121.5673266,https://maps.google.com/?cid=0x0:0x87513c2fbcc2accf,
mall,Pasar Petani,Ampana sayur,"Jl. Sungai Bongka No.81, Uentanaga Atas, Kec. Ampana Kota, Kabupaten Tojo Una-Una, Sulawesi Tengah 94683","Uentanaga Atas, Kec. Ampana Kota, Kabupaten Tojo Una-Una",SULAWESI TENGAH,94683.0,Indonesia,,,,-0.8819593,121.5842587,https://maps.google.com/?cid=0x0:0x7c57a9402dae69,
mall,Pusat Perbelanjaan,Kaoskakinya. 4na,"Jl. Sungai Ampana No.4, Uentanaga Atas, Kec. Ampana Kota, Kabupaten Tojo Una-Una, Sulawesi Tengah 94683","Uentanaga Atas, Kec. Ampana Kota, Kabupaten Tojo Una-Una",SULAWESI TENGAH,94683.0,Indonesia, 082190335355,,,-0.8729221,121.5820039,https://maps.google.com/?cid=0x0:0xa27ab60e0675dc92,
mall,Restoran,OKe Mart,"4HHM+J65, Uentanaga Bawah, Kec. Ampana Kota, Kabupaten Tojo Una-Una, Sulawesi Tengah 94683","Uentanaga Bawah, Kec. Ampana Kota, Kabupaten Tojo Una-Una",SULAWESI TENGAH,94683.0,Indonesia,,,,-0.8709921,121.5831105,https://maps.google.com/?cid=0x0:0x2cd90e49643c8055,
mall,Toko Elektronik,YY Cellular (Toko Handphone Dan Aksesories),"Jl. Moh. Hatta No.21, Uentanaga Bawah, Kec. Ampana Kota, Kabupaten Tojo Una-Una, Sulawesi Tengah 94683","Uentanaga Bawah, Kec. Ampana Kota, Kabupaten Tojo Una-Una",SULAWESI TENGAH,94683.0,Indonesia,,,,-0.8691607,121.580643,https://maps.google.com/?cid=0x0:0xac03824add905255,
mall,Toko,HU LEA cell,"Jl. Sis Aljufri, Uentanaga Atas, Kec. Ampana Kota, Kabupaten Tojo Una-Una, Sulawesi Tengah 94683","Uentanaga Atas, Kec. Ampana Kota, Kabupaten Tojo Una-Una",SULAWESI TENGAH,94683.0,Indonesia, 082292088723,,,-0.9133095,121.5813361,https://maps.google.com/?cid=0x0:0xc85d4971d744fb0c,
mall,Pasar,Pasar Bailo,"4G8X+GHM, Unnamed Road, Bailo, Kec. Ampana Kota, Kabupaten Tojo Una-Una, Sulawesi Tengah 94683","Unnamed Road, Bailo, Kec. Ampana Kota, Kabupaten Tojo Una-Una",SULAWESI TENGAH,94683.0,Indonesia,,,,-0.8836744,121.5489346,https://maps.google.com/?cid=0x0:0xc9f63915c712fe0c,
mall,Toko,Toko Bintang Terang Abadi,"4HG4+7H4, Bailo, Kec. Ampana Kota, Kabupaten Tojo Una-Una, Sulawesi Tengah 94683","Bailo, Kec. Ampana Kota, Kabupaten Tojo Una-Una",SULAWESI TENGAH,94683.0,Indonesia, 082190379312,,,-0.8743541,121.5564435,https://maps.google.com/?cid=0x0:0xd63ed232ce597cef,
mall,Bengkel Sepeda Motor,Aba jaya motor,"4HCV+8CF, Unnamed Road, Sumoli, Kec. Ampana Kota, Kabupaten Tojo Una-Una, Sulawesi Tengah 94683","Unnamed Road, Sumoli, Kec. Ampana Kota, Kabupaten Tojo Una-Una",SULAWESI TENGAH,94683.0,Indonesia,,,,-0.8791839,121.5935616,https://maps.google.com/?cid=0x0:0x477f47e00a9b3c6c,
mall,Kantor Perusahaan,PLTU Ampana,"2RPF+665, Sabo, Kec. Ampana Tete, Kabupaten Tojo Una-Una, Sulawesi Tengah 94684","Sabo, Kec. Ampana Tete, Kabupaten Tojo Una-Una",SULAWESI TENGAH,94684.0,Indonesia,,,,-0.9644899,121.8231098,https://maps.google.com/?cid=0x0:0xccea9770a2f94387,
mall,mall,Sulawesi Tengah 94221,"Kec. Palu Bar., Kota Palu, Sulawesi Tengah","Kota Palu, Sulawesi Tengah",SULAWESI TENGAH,,Indonesia,,,,-0.8912088,119.8496976,https://maps.google.com/?cid=0x0:0xa023e20d5616ec4f,
mall,Pusat Perbelanjaan,XEIGHT Palu Grand Mall,"Grand Mall, Jl. Cumi-Cumi No.77 LT. GF UNIT G - 0150, BUMI BAHARI, Kec. Palu Bar., Kota Palu, Sulawesi Tengah 94221","Jl. Cumi-Cumi No.77 LT. GF UNIT G - 0150, BUMI BAHARI, Kec. Palu Bar., Kota Palu",SULAWESI TENGAH,94221.0,Indonesia, 04514134547,,,-0.8828723,119.8427211,https://maps.google.com/?cid=0x0:0xd7e6e97d68971afd,
mall,Pusat Perbelanjaan,Hypermart Palu Grand Mall,"Jl. Diponegoro No.8A, Lere, Kec. Palu Bar., Kota Palu, Sulawesi Tengah 94221","Lere, Kec. Palu Bar., Kota Palu",SULAWESI TENGAH,94221.0,Indonesia, 081312097422,,,-0.8837991,119.8423758,https://maps.google.com/?cid=0x0:0x9567cc1a06bb61e4,
mall,Toko Alat Kecantikan,Sociolla Palu Grand Mall,"Jl. Diponegoro Unit G-0031, Lere, Kec. Palu Bar., Kota Palu, Sulawesi Tengah 94221","Lere, Kec. Palu Bar., Kota Palu",SULAWESI TENGAH,94221.0,Indonesia,,,,-0.8836507,119.8424799,https://maps.google.com/?cid=0x0:0x7f34350e6d74ce93,
mall,Pempek,Pempek 10 Palu Grand Mall,"Jl. Diponegoro, Lere, Kec. Palu Bar., Kota Palu, Sulawesi Tengah 94221","Lere, Kec. Palu Bar., Kota Palu",SULAWESI TENGAH,94221.0,Indonesia, 081214411010,,,-0.8834848,119.8428685,https://maps.google.com/?cid=0x0:0x6db446eea4501165,
mall,Pusat Perbelanjaan,Plaza Palu,"Komplek Palu Plaza, Jl. Sis AlJufri, Blok IV, Siranindi, Kec. Ulujadi, Kota Palu, Sulawesi Tengah 94111","Jl. Sis AlJufri, Blok IV, Siranindi, Kec. Ulujadi, Kota Palu",SULAWESI TENGAH,94111.0,Indonesia,,,,-0.8993996,119.8607805,https://maps.google.com/?cid=0x0:0xc5f25dc5c9bc56bd,
mall,Pusat Perbelanjaan,Pertokoan Hasanuddin,"4V39+987, Jl. Sudirman, Lolu Utara, Kec. Palu Tim., Kota Palu, Sulawesi Tengah 94112","Jl. Sudirman, Lolu Utara, Kec. Palu Tim., Kota Palu",SULAWESI TENGAH,94112.0,Indonesia,,,,-0.8965978,119.8683028,https://maps.google.com/?cid=0x0:0x3f84768500f98cda,
mall,Taman bermain,HAPPY KiDDY Palu Grand Mall,"Grand Mall, Palu, Jl. Diponegoro Lantai Ground, Lere, Kec. Palu Bar., Kota Palu, Sulawesi Tengah 94221","Palu, Jl. Diponegoro Lantai Ground, Lere, Kec. Palu Bar., Kota Palu",SULAWESI TENGAH,94221.0,Indonesia, 081218246194,,,-0.8834201,119.8428293,https://maps.google.com/?cid=0x0:0xa5067bc606dd5fb8,
mall,Pusat Perbelanjaan,Cinema XXI - Palu Grand Mall,"Grand Mall, lt 3, Jl. Diponegoro No.77, Lere, Palu Barat, Palu City, Central Sulawesi 94111","lt 3, Jl. Diponegoro No.77, Lere, Palu Barat, Palu City",SULAWESI TENGAH,94111.0,Indonesia, 04514131021,,,-0.8837456,119.8432083,https://maps.google.com/?cid=0x0:0xcd283a995bf07939,
mall,Pusat Perbelanjaan,Palu Graha Sejahtera. PT,"Jl. Cumi-Cumi No.77, Lere, Kec. Palu Bar., Kota Palu, Sulawesi Tengah 94111","Lere, Kec. Palu Bar., Kota Palu",SULAWESI TENGAH,94111.0,Indonesia, 0451465555,,,-0.8835423,119.8429036,https://maps.google.com/?cid=0x0:0xbb3ea4b06e29c5ae,
mall,Toko Pakaian,Matahari Department Store,"Grand Mall, Jl. Diponegoro Lt.2, Lere, Kec. Ulujadi, Kota Palu, Sulawesi Tengah 94111","Jl. Diponegoro Lt.2, Lere, Kec. Ulujadi, Kota Palu",SULAWESI TENGAH,94111.0,Indonesia, 04514134505,,,-0.8833909,119.8425827,https://maps.google.com/?cid=0x0:0x7bf7303b193a2f49,
mall,Pusat Perbelanjaan,Kyla moment palu,"Jl. Tanderante No.20, Kabonena, Kec. Ulujadi, Kota Palu, Sulawesi Tengah 94221","Kabonena, Kec. Ulujadi, Kota Palu",SULAWESI TENGAH,94221.0,Indonesia, 085924420859,,,-0.8874706,119.8379476,https://maps.google.com/?cid=0x0:0x161c03146168584b,
mall,Kedai Kopi,Astore Palu,"4V22+V93, Jl. Langsat, Kamonji, Kec. Palu Bar., Kota Palu, Sulawesi Tengah 94111","Jl. Langsat, Kamonji, Kec. Palu Bar., Kota Palu",SULAWESI TENGAH,94111.0,Indonesia,,,,-0.8978507,119.8509086,https://maps.google.com/?cid=0x0:0x8ac5a1773a5616f8,
mall,Toko bahan makanan,rahman mart,"Jl. Asam II No.62, Lere, Kec. Palu Bar., Kota Palu, Sulawesi Tengah 94221","Lere, Kec. Palu Bar., Kota Palu",SULAWESI TENGAH,94221.0,Indonesia,,,,-0.894022,119.8469668,https://maps.google.com/?cid=0x0:0x2529344d272f37d,
mall,Pusat Perbelanjaan,PERTOKOAN HASANUDDIN 2,"4V39+64P, Jl. Sultan Hasanuddin, Lolu Utara, Kec. Palu Sel., Kota Palu, Sulawesi Tengah 94111","Jl. Sultan Hasanuddin, Lolu Utara, Kec. Palu Sel., Kota Palu",SULAWESI TENGAH,94111.0,Indonesia,,,,-0.8969006,119.867814,https://maps.google.com/?cid=0x0:0x6b10f78b13b2fea5,
mall,Toko Suku Cadang Mobil,LOAKAN 1,"4V23+V66, Kamonji, Kec. Palu Bar., Kota Palu, Sulawesi Tengah 94111","Kamonji, Kec. Palu Bar., Kota Palu",SULAWESI TENGAH,94111.0,Indonesia, 085230035777,,,-0.89784,119.8530202,https://maps.google.com/?cid=0x0:0x31df2f989c265695,
mall,Butik,Cha shop palu,"4V46+2HF, Jl. S. Miu, Baru, Kec. Palu Bar., Kota Palu, Sulawesi Tengah 94111","Jl. S. Miu, Baru, Kec. Palu Bar., Kota Palu",SULAWESI TENGAH,94111.0,Indonesia,,,,-0.8949439,119.8614299,https://maps.google.com/?cid=0x0:0xf6d43ddc165dcee7,
mall,Pusat Perbelanjaan,Laroshe,"4V32+9JF, Jl. WR. Supratman, Kamonji, Kec. Palu Bar., Kota Palu, Sulawesi Tengah 94111","Jl. WR. Supratman, Kamonji, Kec. Palu Bar., Kota Palu",SULAWESI TENGAH,94111.0,Indonesia, 082293526669,,,-0.8965645,119.8515381,https://maps.google.com/?cid=0x0:0x8f6e10ac61883aa4,
mall,Makanan Siap Saji,Solaria - Palu Grand Mall,"Jl. Diponegoro, Lere, Kec. Palu Bar., Kota Palu, Sulawesi Tengah 94221","Lere, Kec. Palu Bar., Kota Palu",SULAWESI TENGAH,94221.0,Indonesia, 02114099,,,-0.8835555,119.8425778,https://maps.google.com/?cid=0x0:0x2b1b92bd3559478f,
mall,Pusat Perbelanjaan,New Tatura Mall,"3VRG+PFQ, Jl. Emmy Saelan, Lolu Sel., Kec. Palu Sel., Kota Palu, Sulawesi Tengah 94111","Jl. Emmy Saelan, Lolu Sel., Kec. Palu Sel., Kota Palu",SULAWESI TENGAH,94111.0,Indonesia,,,,-0.9081841,119.876252,https://maps.google.com/?cid=0x0:0x49eb3482593ae789,
mall,Toko Kosmetik,Tfshop PALU,"Jl. Jamur Lorong III No.2, Duyu, Kec. Tatanga, Kota Palu, Sulawesi Tengah 94111","Duyu, Kec. Tatanga, Kota Palu",SULAWESI TENGAH,94111.0,Indonesia, 085397384386,,,-0.9070002,119.8521453,https://maps.google.com/?cid=0x0:0xcfd327143c2db4dc,
mall,Toko Mainan,Rayyanz Toys,"4R8V+8CC, Lere, Kec. Palu Bar., Kota Palu, Sulawesi Tengah 94221","Lere, Kec. Palu Bar., Kota Palu",SULAWESI TENGAH,94221.0,Indonesia, 085230634474,,,-0.8841741,119.8434779,https://maps.google.com/?cid=0x0:0x58b50f16baaebbe2,
mall,Toko Sepatu,Toko Almadinah,"Jl. Mangga, Kamonji, Kec. Palu Bar., Kota Palu, Sulawesi Tengah 94221","Kamonji, Kec. Palu Bar., Kota Palu",SULAWESI TENGAH,94221.0,Indonesia,,,,-0.8992689,119.8522269,https://maps.google.com/?cid=0x0:0x2f08c9274f61725a,
mall,Toko Pakaian,Markaz acc,"4R3R+P84, Jl. Tamako I, Donggala Kodi, Kec. Palu Bar., Kota Palu, Sulawesi Tengah 94111","Jl. Tamako I, Donggala Kodi, Kec. Palu Bar., Kota Palu",SULAWESI TENGAH,94111.0,Indonesia,,,,-0.8957392,119.8408245,https://maps.google.com/?cid=0x0:0x467f5a07a05d1bb4,
mall,Toko Perhiasan,Murni Indah Toko,"Jl. HOS Cokroaminoto No.31, Baru, Kec. Palu Bar., Kota Palu, Sulawesi Tengah 94221","Baru, Kec. Palu Bar., Kota Palu",SULAWESI TENGAH,94221.0,Indonesia, 0451423596,,,-0.8953108,119.8604055,https://maps.google.com/?cid=0x0:0xb386399f06027cdd,
mall,mall,Sulawesi Tengah 94222,Sulawesi Tengah,Sulawesi Tengah,SULAWESI TENGAH,,Indonesia,,,,-0.9471477,119.8641634,https://maps.google.com/?cid=0x0:0xbac940530ed27252,
mall,Pusat Perbelanjaan,XEIGHT Palu Grand Mall,"Grand Mall, Jl. Cumi-Cumi No.77 LT. GF UNIT G - 0150, BUMI BAHARI, Kec. Palu Bar., Kota Palu, Sulawesi Tengah 94221","Jl. Cumi-Cumi No.77 LT. GF UNIT G - 0150, BUMI BAHARI, Kec. Palu Bar., Kota Palu",SULAWESI TENGAH,94221.0,Indonesia, 04514134547,,,-0.8828723,119.8427211,https://maps.google.com/?cid=0x0:0xd7e6e97d68971afd,
mall,Pusat Perbelanjaan,THE PARK MALL PALU,"4RCP+6RC, Jl. Cumi-Cumi, Silae, Kec. Palu Bar., Kota Palu, Sulawesi Tengah 94227","Jl. Cumi-Cumi, Silae, Kec. Palu Bar., Kota Palu",SULAWESI TENGAH,94227.0,Indonesia, 04317554446,,,-0.8793749,119.8370341,https://maps.google.com/?cid=0x0:0x32487cdfd5e5d75f,
mall,Toko Kosmetik,Tfshop PALU,"Jl. Jamur Lorong III No.2, Duyu, Kec. Tatanga, Kota Palu, Sulawesi Tengah 94111","Duyu, Kec. Tatanga, Kota Palu",SULAWESI TENGAH,94111.0,Indonesia, 085397384386,,,-0.9070002,119.8521453,https://maps.google.com/?cid=0x0:0xcfd327143c2db4dc,
mall,Pusat Perbelanjaan,Pertokoan Hasanuddin,"4V39+987, Jl. Sudirman, Lolu Utara, Kec. Palu Tim., Kota Palu, Sulawesi Tengah 94112","Jl. Sudirman, Lolu Utara, Kec. Palu Tim., Kota Palu",SULAWESI TENGAH,94112.0,Indonesia,,,,-0.8965978,119.8683028,https://maps.google.com/?cid=0x0:0x3f84768500f98cda,
mall,Pembangunan Perumahan,Perumahan Anggur Petmai,"3VQ3+X3P, Duyu, Kec. Tatanga, Kota Palu, Sulawesi Tengah 94222","Duyu, Kec. Tatanga, Kota Palu",SULAWESI TENGAH,94222.0,Indonesia,,,,-0.9100253,119.8526918,https://maps.google.com/?cid=0x0:0x7b00b1c0974f6d90,
mall,Pusat Perbelanjaan,Plaza Palu,"Komplek Palu Plaza, Jl. Sis AlJufri, Blok IV, Siranindi, Kec. Ulujadi, Kota Palu, Sulawesi Tengah 94111","Jl. Sis AlJufri, Blok IV, Siranindi, Kec. Ulujadi, Kota Palu",SULAWESI TENGAH,94111.0,Indonesia,,,,-0.8993996,119.8607805,https://maps.google.com/?cid=0x0:0xc5f25dc5c9bc56bd,
mall,Toko Elektronik,RADIT STORE PALU (CABANG TOMBOLOTUTU),"Jl. I Gusti Ngurah Rai No.28, Tawanjuka, Kec. Tatanga, Kota Palu, Sulawesi Tengah 94127","Tawanjuka, Kec. Tatanga, Kota Palu",SULAWESI TENGAH,94127.0,Indonesia, 081341413663,,,-0.9224846,119.8681926,https://maps.google.com/?cid=0x0:0xe9bd8cb1fb58df8f,
mall,Pusat Perbelanjaan,New Tatura Mall,"3VRG+PFQ, Jl. Emmy Saelan, Lolu Sel., Kec. Palu Sel., Kota Palu, Sulawesi Tengah 94111","Jl. Emmy Saelan, Lolu Sel., Kec. Palu Sel., Kota Palu",SULAWESI TENGAH,94111.0,Indonesia,,,,-0.9081841,119.876252,https://maps.google.com/?cid=0x0:0x49eb3482593ae789,
mall,Komplek perumahan,Kompleks Ruko Graha Towua,"Jl. Towua No.84, Tatura Sel., Kec. Palu Sel., Kota Palu, Sulawesi Tengah 94235","Tatura Sel., Kec. Palu Sel., Kota Palu",SULAWESI TENGAH,94235.0,Indonesia, 082230055525,,,-0.9253488,119.8802197,https://maps.google.com/?cid=0x0:0x39933ab9ba15a08,
mall,Pusat Perbelanjaan,Chivousmn.id,"Jl. Mangga Lrg. III, Pengawu, Kec. Tatanga, Kota Palu, Sulawesi Tengah 94222","Pengawu, Kec. Tatanga, Kota Palu",SULAWESI TENGAH,94222.0,Indonesia, 085242410645,,,-0.919802,119.8486586,https://maps.google.com/?cid=0x0:0xfee146113f2518bf,
mall,Pusat Perbelanjaan,Hypermart Palu Grand Mall,"Jl. Diponegoro No.8A, Lere, Kec. Palu Bar., Kota Palu, Sulawesi Tengah 94221","Lere, Kec. Palu Bar., Kota Palu",SULAWESI TENGAH,94221.0,Indonesia, 081312097422,,,-0.8837991,119.8423758,https://maps.google.com/?cid=0x0:0x9567cc1a06bb61e4,
mall,Toko Pakaian,Azkashop,"3VC6+FH8, btn palupi permai blok a no, Palupi, Kec. Palu Sel., Kota Palu, Sulawesi Tengah 94222","btn palupi permai blok a no, Palupi, Kec. Palu Sel., Kota Palu",SULAWESI TENGAH,94222.0,Indonesia, 081243435151,,,-0.9288258,119.861452,https://maps.google.com/?cid=0x0:0xebc9f84b40cb091e,
mall,Komplek perumahan,BTN ANGGUR BOYAOGE,"3VQ2+VX7, Jl. Anggur, Duyu, Kec. Tatanga, Kota Palu, Sulawesi Tengah 94222","Jl. Anggur, Duyu, Kec. Tatanga, Kota Palu",SULAWESI TENGAH,94222.0,Indonesia,,,,-0.9099594,119.8525212,https://maps.google.com/?cid=0x0:0xf9e73b05e8106030,
mall,Kafe Buah Khas Jepang,dmask.palu,"BTN, Jl. Nikel 2 Blok Ad no, Baliase, Tatanga, Palu City, Central Sulawesi 94222","Jl. Nikel 2 Blok Ad no, Baliase, Tatanga, Palu City",SULAWESI TENGAH,94222.0,Indonesia, 085155459224,,,-0.9329921,119.8616462,https://maps.google.com/?cid=0x0:0x3b282f3e06b17695,
mall,Toko Pakaian,Toko Syafaat,"3VC6+3MJ, BTN PALUPI BLOK AB NO, Palupi, Kec. Palu Sel., Kota Palu, Sulawesi Tengah 94222","BTN PALUPI BLOK AB NO, Palupi, Kec. Palu Sel., Kota Palu",SULAWESI TENGAH,94222.0,Indonesia, 082280055822,,,-0.9297982,119.8616462,https://maps.google.com/?cid=0x0:0x33538fd0d9bb24bf,
mall,Toko Tas,Baggubag shop,"3VF6+CJ6, Jl. Tavanjuka Permai, Palupi, Kec. Palu Sel., Kota Palu, Sulawesi Tengah 94222","Jl. Tavanjuka Permai, Palupi, Kec. Palu Sel., Kota Palu",SULAWESI TENGAH,94222.0,Indonesia, 082271114911,,,-0.926467,119.861503,https://maps.google.com/?cid=0x0:0x9a1d493fd72ac76c,
mall,Pempek,Pempek 10 Palu Grand Mall,"Jl. Diponegoro, Lere, Kec. Palu Bar., Kota Palu, Sulawesi Tengah 94221","Lere, Kec. Palu Bar., Kota Palu",SULAWESI TENGAH,94221.0,Indonesia, 081214411010,,,-0.8834848,119.8428685,https://maps.google.com/?cid=0x0:0x6db446eea4501165,
mall,Toko Alat Kecantikan,Sociolla Palu Grand Mall,"Jl. Diponegoro Unit G-0031, Lere, Kec. Palu Bar., Kota Palu, Sulawesi Tengah 94221","Lere, Kec. Palu Bar., Kota Palu",SULAWESI TENGAH,94221.0,Indonesia,,,,-0.8836507,119.8424799,https://maps.google.com/?cid=0x0:0x7f34350e6d74ce93,
mall,Pusat Perbelanjaan,It's My Mabello Palu,"3VF6+G45, Palupi, Kec. Palu Sel., Kota Palu, Sulawesi Tengah 94222","Palupi, Kec. Palu Sel., Kota Palu",SULAWESI TENGAH,94222.0,Indonesia, 082210066674,,,-0.926236,119.860351,https://maps.google.com/?cid=0x0:0x847fe86880694050,
mall,Toko,Kios Mandiri,"3VR8+8RV, Nunu, Kec. Tatanga, Kota Palu, Sulawesi Tengah 94111","Nunu, Kec. Tatanga, Kota Palu",SULAWESI TENGAH,94111.0,Indonesia, 081243747477,,,-0.9091466,119.8670458,https://maps.google.com/?cid=0x0:0xa93c7552564571f4,
mall,Toko,Bawang goreng musdalifa,"3VQ2+GMQ, Jl. Cemangi, Duyu, Kec. Palu Bar., Kota Palu, Sulawesi Tengah 94222","Jl. Cemangi, Duyu, Kec. Palu Bar., Kota Palu",SULAWESI TENGAH,94222.0,Indonesia, 082310646800,,,-0.9111692,119.8517349,https://maps.google.com/?cid=0x0:0xd8cee96900aed5cb,
mall,Toko,AllShop,"BTN, Jl. Graha Mutiara No.19 Blok D1, Tinggede Sel., Kec. Marawola, Kabupaten Sigi, Sulawesi Tengah 94222","Jl. Graha Mutiara No.19 Blok D1, Tinggede Sel., Kec. Marawola, Kabupaten Sigi",SULAWESI TENGAH,94222.0,Indonesia, 082229300084,,,-0.944949,119.8644137,https://maps.google.com/?cid=0x0:0x7ad21c1500b640d8,
mall,Kantor Perusahaan,Distributor Bajakah Kalimantan,"Jl. Nusantara, Btn Palupi permai Blok BS2 No.14, Palupi, Kec. Palu Sel., Kota Palu, Sulawesi Tengah 94222","Btn Palupi permai Blok BS2 No.14, Palupi, Kec. Palu Sel., Kota Palu",SULAWESI TENGAH,94222.0,Indonesia, 082246105106,,,-0.9306613,119.8604184,https://maps.google.com/?cid=0x0:0x31d709790216976e,
mall,Toko Elektronik,BLOK HANDPHONE,"Jl. Pue Bongo No.18-19, Boyaoge, Kec. Tatanga, Kota Palu, Sulawesi Tengah 94222","Boyaoge, Kec. Tatanga, Kota Palu",SULAWESI TENGAH,94222.0,Indonesia, 081244802225,,,-0.9121339,119.8560669,https://maps.google.com/?cid=0x0:0xa1f4c964ccd84029,
mall,Toko Pertanian,Ud.Nusa Teknik,"3VQ4+MC4, Jl. Pue Bongo, Boyaoge, Kec. Tatanga, Kota Palu, Sulawesi Tengah 94222","Jl. Pue Bongo, Boyaoge, Kec. Tatanga, Kota Palu",SULAWESI TENGAH,94222.0,Indonesia,,,,-0.9108697,119.8560749,https://maps.google.com/?cid=0x0:0x4c4698c7e45cbb46,
mall,mall,Pasar Tangarava,"2VR4+C4V, Padende, Kec. Marawola, Kabupaten Sigi, Sulawesi Tengah 94237","Padende, Kec. Marawola, Kabupaten Sigi",SULAWESI TENGAH,94237.0,Indonesia, 085254773799,,,-0.958893,119.8553033,https://maps.google.com/?cid=0x0:0x9ae17100aacc9795,
mall,Bengkel Mobil,Doctor variasi,"Jl. Pue Bongo No.34, Boyaoge, Kec. Palu Bar., Kota Palu, Sulawesi Tengah 94222","Boyaoge, Kec. Palu Bar., Kota Palu",SULAWESI TENGAH,94222.0,Indonesia, 085329912929,,,-0.9128045,119.8560586,https://maps.google.com/?cid=0x0:0xb155332dbaf4a8d0,
mall,mall,Sulawesi Tengah 94225,"Kabupaten Sigi, Sulawesi Tengah","Kabupaten Sigi, Sulawesi Tengah",SULAWESI TENGAH,,Indonesia,,,,-0.9727709,119.7947139,https://maps.google.com/?cid=0x0:0x24ce1cc8904f7ae5,
mall,Pusat Perbelanjaan,XEIGHT Palu Grand Mall,"Grand Mall, Jl. Cumi-Cumi No.77 LT. GF UNIT G - 0150, BUMI BAHARI, Kec. Palu Bar., Kota Palu, Sulawesi Tengah 94221","Jl. Cumi-Cumi No.77 LT. GF UNIT G - 0150, BUMI BAHARI, Kec. Palu Bar., Kota Palu",SULAWESI TENGAH,94221.0,Indonesia, 04514134547,,,-0.8828723,119.8427211,https://maps.google.com/?cid=0x0:0xd7e6e97d68971afd,
mall,Pusat Perbelanjaan,THE PARK MALL PALU,"4RCP+6RC, Jl. Cumi-Cumi, Silae, Kec. Palu Bar., Kota Palu, Sulawesi Tengah 94227","Jl. Cumi-Cumi, Silae, Kec. Palu Bar., Kota Palu",SULAWESI TENGAH,94227.0,Indonesia, 04317554446,,,-0.8793749,119.8370341,https://maps.google.com/?cid=0x0:0x32487cdfd5e5d75f,
mall,Pusat Perbelanjaan,Pertokoan Hasanuddin,"4V39+987, Jl. Sudirman, Lolu Utara, Kec. Palu Tim., Kota Palu, Sulawesi Tengah 94112","Jl. Sudirman, Lolu Utara, Kec. Palu Tim., Kota Palu",SULAWESI TENGAH,94112.0,Indonesia,,,,-0.8965978,119.8683028,https://maps.google.com/?cid=0x0:0x3f84768500f98cda,
mall,Pusat Perbelanjaan,Plaza Palu,"Komplek Palu Plaza, Jl. Sis AlJufri, Blok IV, Siranindi, Kec. Ulujadi, Kota Palu, Sulawesi Tengah 94111","Jl. Sis AlJufri, Blok IV, Siranindi, Kec. Ulujadi, Kota Palu",SULAWESI TENGAH,94111.0,Indonesia,,,,-0.8993996,119.8607805,https://maps.google.com/?cid=0x0:0xc5f25dc5c9bc56bd,
mall,Toko Alat Kecantikan,Sociolla Palu Grand Mall,"Jl. Diponegoro Unit G-0031, Lere, Kec. Palu Bar., Kota Palu, Sulawesi Tengah 94221","Lere, Kec. Palu Bar., Kota Palu",SULAWESI TENGAH,94221.0,Indonesia,,,,-0.8836507,119.8424799,https://maps.google.com/?cid=0x0:0x7f34350e6d74ce93,
mall,Pempek,Pempek 10 Palu Grand Mall,"Jl. Diponegoro, Lere, Kec. Palu Bar., Kota Palu, Sulawesi Tengah 94221","Lere, Kec. Palu Bar., Kota Palu",SULAWESI TENGAH,94221.0,Indonesia, 081214411010,,,-0.8834848,119.8428685,https://maps.google.com/?cid=0x0:0x6db446eea4501165,
mall,Pusat Perbelanjaan,New Tatura Mall,"3VRG+PFQ, Jl. Emmy Saelan, Lolu Sel., Kec. Palu Sel., Kota Palu, Sulawesi Tengah 94111","Jl. Emmy Saelan, Lolu Sel., Kec. Palu Sel., Kota Palu",SULAWESI TENGAH,94111.0,Indonesia,,,,-0.9081841,119.876252,https://maps.google.com/?cid=0x0:0x49eb3482593ae789,
mall,Pusat Perbelanjaan,Cinema XXI - Palu Grand Mall,"Grand Mall, lt 3, Jl. Diponegoro No.77, Lere, Palu Barat, Palu City, Central Sulawesi 94111","lt 3, Jl. Diponegoro No.77, Lere, Palu Barat, Palu City",SULAWESI TENGAH,94111.0,Indonesia, 04514131021,,,-0.8837456,119.8432083,https://maps.google.com/?cid=0x0:0xcd283a995bf07939,
mall,Taman bermain,HAPPY KiDDY Palu Grand Mall,"Grand Mall, Palu, Jl. Diponegoro Lantai Ground, Lere, Kec. Palu Bar., Kota Palu, Sulawesi Tengah 94221","Palu, Jl. Diponegoro Lantai Ground, Lere, Kec. Palu Bar., Kota Palu",SULAWESI TENGAH,94221.0,Indonesia, 081218246194,,,-0.8834201,119.8428293,https://maps.google.com/?cid=0x0:0xa5067bc606dd5fb8,
mall,Pusat Perbelanjaan,PERTOKOAN HASANUDDIN 2,"4V39+64P, Jl. Sultan Hasanuddin, Lolu Utara, Kec. Palu Sel., Kota Palu, Sulawesi Tengah 94111","Jl. Sultan Hasanuddin, Lolu Utara, Kec. Palu Sel., Kota Palu",SULAWESI TENGAH,94111.0,Indonesia,,,,-0.8969006,119.867814,https://maps.google.com/?cid=0x0:0x6b10f78b13b2fea5,
mall,mall,Kec. Tatanga,"Kota Palu, Sulawesi Tengah","Kota Palu, Sulawesi Tengah",SULAWESI TENGAH,,Indonesia,,,,-0.9222608,119.8563729,https://maps.google.com/?cid=0x0:0x9b2bb5a133e4e1d7,
mall,Pusat Perbelanjaan,Kios ade,"Jl. Syukur, Duyu, Kec. Tatanga, Kota Palu, Sulawesi Tengah 94225","Duyu, Kec. Tatanga, Kota Palu",SULAWESI TENGAH,94225.0,Indonesia, 082272125277,,,-0.9100147,119.8463302,https://maps.google.com/?cid=0x0:0x2c926fdec06a78ec,
mall,mall,Sulawesi Tengah 94237,"Kec. Marawola, Kabupaten Sigi, Sulawesi Tengah","Kabupaten Sigi, Sulawesi Tengah",SULAWESI TENGAH,,Indonesia,,,,-0.9616704,119.8670563,https://maps.google.com/?cid=0x0:0xfcf6e79665085f54,
mall,Pusat Perbelanjaan,XEIGHT Palu Grand Mall,"Grand Mall, Jl. Cumi-Cumi No.77 LT. GF UNIT G - 0150, BUMI BAHARI, Kec. Palu Bar., Kota Palu, Sulawesi Tengah 94221","Jl. Cumi-Cumi No.77 LT. GF UNIT G - 0150, BUMI BAHARI, Kec. Palu Bar., Kota Palu",SULAWESI TENGAH,94221.0,Indonesia, 04514134547,,,-0.8828723,119.8427211,https://maps.google.com/?cid=0x0:0xd7e6e97d68971afd,
mall,Pusat Perbelanjaan,THE PARK MALL PALU,"4RCP+6RC, Jl. Cumi-Cumi, Silae, Kec. Palu Bar., Kota Palu, Sulawesi Tengah 94227","Jl. Cumi-Cumi, Silae, Kec. Palu Bar., Kota Palu",SULAWESI TENGAH,94227.0,Indonesia, 04317554446,,,-0.8793749,119.8370341,https://maps.google.com/?cid=0x0:0x32487cdfd5e5d75f,
mall,Pusat Perbelanjaan,Pertokoan Hasanuddin,"4V39+987, Jl. Sudirman, Lolu Utara, Kec. Palu Tim., Kota Palu, Sulawesi Tengah 94112","Jl. Sudirman, Lolu Utara, Kec. Palu Tim., Kota Palu",SULAWESI TENGAH,94112.0,Indonesia,,,,-0.8965978,119.8683028,https://maps.google.com/?cid=0x0:0x3f84768500f98cda,
mall,Pusat Perbelanjaan,Hypermart Palu Grand Mall,"Jl. Diponegoro No.8A, Lere, Kec. Palu Bar., Kota Palu, Sulawesi Tengah 94221","Lere, Kec. Palu Bar., Kota Palu",SULAWESI TENGAH,94221.0,Indonesia, 081312097422,,,-0.8837991,119.8423758,https://maps.google.com/?cid=0x0:0x9567cc1a06bb61e4,
mall,Pusat Perbelanjaan,Plaza Palu,"Komplek Palu Plaza, Jl. Sis AlJufri, Blok IV, Siranindi, Kec. Ulujadi, Kota Palu, Sulawesi Tengah 94111","Jl. Sis AlJufri, Blok IV, Siranindi, Kec. Ulujadi, Kota Palu",SULAWESI TENGAH,94111.0,Indonesia,,,,-0.8993996,119.8607805,https://maps.google.com/?cid=0x0:0xc5f25dc5c9bc56bd,
mall,Pusat Perbelanjaan,New Tatura Mall,"3VRG+PFQ, Jl. Emmy Saelan, Lolu Sel., Kec. Palu Sel., Kota Palu, Sulawesi Tengah 94111","Jl. Emmy Saelan, Lolu Sel., Kec. Palu Sel., Kota Palu",SULAWESI TENGAH,94111.0,Indonesia,,,,-0.9081841,119.876252,https://maps.google.com/?cid=0x0:0x49eb3482593ae789,
mall,Pempek,Pempek 10 Palu Grand Mall,"Jl. Diponegoro, Lere, Kec. Palu Bar., Kota Palu, Sulawesi Tengah 94221","Lere, Kec. Palu Bar., Kota Palu",SULAWESI TENGAH,94221.0,Indonesia, 081214411010,,,-0.8834848,119.8428685,https://maps.google.com/?cid=0x0:0x6db446eea4501165,
mall,Toko Alat Kecantikan,Sociolla Palu Grand Mall,"Jl. Diponegoro Unit G-0031, Lere, Kec. Palu Bar., Kota Palu, Sulawesi Tengah 94221","Lere, Kec. Palu Bar., Kota Palu",SULAWESI TENGAH,94221.0,Indonesia,,,,-0.8836507,119.8424799,https://maps.google.com/?cid=0x0:0x7f34350e6d74ce93,
mall,Pusat Perbelanjaan,PERTOKOAN HASANUDDIN 2,"4V39+64P, Jl. Sultan Hasanuddin, Lolu Utara, Kec. Palu Sel., Kota Palu, Sulawesi Tengah 94111","Jl. Sultan Hasanuddin, Lolu Utara, Kec. Palu Sel., Kota Palu",SULAWESI TENGAH,94111.0,Indonesia,,,,-0.8969006,119.867814,https://maps.google.com/?cid=0x0:0x6b10f78b13b2fea5,
mall,Pusat Perbelanjaan,Cinema XXI - Palu Grand Mall,"Grand Mall, lt 3, Jl. Diponegoro No.77, Lere, Palu Barat, Palu City, Central Sulawesi 94111","lt 3, Jl. Diponegoro No.77, Lere, Palu Barat, Palu City",SULAWESI TENGAH,94111.0,Indonesia, 04514131021,,,-0.8837456,119.8432083,https://maps.google.com/?cid=0x0:0xcd283a995bf07939,
mall,Tempat Cukur Rambut,Pangkas rambut angel porame,"2VR3+GX7, Padende, Kec. Marawola, Kabupaten Sigi, Sulawesi Tengah 94237","Padende, Kec. Marawola, Kabupaten Sigi",SULAWESI TENGAH,94237.0,Indonesia, 083132286759,,,-0.9587205,119.8549173,https://maps.google.com/?cid=0x0:0x49c04239ff022407,
mall,Taman bermain,HAPPY KiDDY Palu Grand Mall,"Grand Mall, Palu, Jl. Diponegoro Lantai Ground, Lere, Kec. Palu Bar., Kota Palu, Sulawesi Tengah 94221","Palu, Jl. Diponegoro Lantai Ground, Lere, Kec. Palu Bar., Kota Palu",SULAWESI TENGAH,94221.0,Indonesia, 081218246194,,,-0.8834201,119.8428293,https://maps.google.com/?cid=0x0:0xa5067bc606dd5fb8,
mall,Toko Pakan Hewan,Poultry Shop Papa Ayam,"2VVJ+PCP, Jl. Guru Tua, Kalukubula, Kec. Sigi Biromaru, Kabupaten Sigi, Sulawesi Tengah 94237","Jl. Guru Tua, Kalukubula, Kec. Sigi Biromaru, Kabupaten Sigi",SULAWESI TENGAH,94237.0,Indonesia, 085240809494,,,-0.9555388,119.8809333,https://maps.google.com/?cid=0x0:0x5ceaa4601423a265,
mall,Pusat Bisnis,Ruko Diamond 3,"2VPJ+JXV, Kalukubula, Kec. Sigi Biromaru, Kabupaten Sigi, Sulawesi Tengah 94364","Kalukubula, Kec. Sigi Biromaru, Kabupaten Sigi",SULAWESI TENGAH,94364.0,Indonesia,,,,-0.9633826,119.8823626,https://maps.google.com/?cid=0x0:0xc579acd51c046a55,
mall,mall,Kios AkiLa,"2VVQ+FXM, Jl. Lando, Kalukubula, Kec. Sigi Biromaru, Kabupaten Sigi, Sulawesi Tengah","Kabupaten Sigi, Sulawesi Tengah",SULAWESI TENGAH,,Indonesia,,,,-0.9562952,119.8899354,https://maps.google.com/?cid=0x0:0xcb7cd8288b7c3837,
mall,Pertanian,BASE CAMP HKBC PALU,"2VXM+RMP, Kalukubula, Kec. Sigi Biromaru, Kabupaten Sigi, Sulawesi Tengah 94236","Kalukubula, Kec. Sigi Biromaru, Kabupaten Sigi",SULAWESI TENGAH,94236.0,Indonesia, 082293551438,,,-0.9504119,119.8842149,https://maps.google.com/?cid=0x0:0x32e5b8b0ff852915,
mall,Gudang,PT. Tatalogam Lestari - Outlet Roofmart Palu,"Jl. Jenderal Basuki Rahmat No.71, Tatura Sel., Kec. Palu Sel., Kota Palu, Sulawesi Tengah 94111","Tatura Sel., Kec. Palu Sel., Kota Palu",SULAWESI TENGAH,94111.0,Indonesia, 0451484779,,,-0.9188819,119.8839149,https://maps.google.com/?cid=0x0:0xb2f82536b5ab09b8,
mall,,STAR SHOP,"Jl. Guru Tua, Kalukubula, Kec. Sigi Biromaru, Kabupaten Sigi, Sulawesi Tengah 94364","Kalukubula, Kec. Sigi Biromaru, Kabupaten Sigi",SULAWESI TENGAH,94364.0,Indonesia,,,,-0.966167,119.8807794,https://maps.google.com/?cid=0x0:0xa041523506539ae9,
mall,Kafe,Taman Agrowisata Palu,"Porame Jl. Raya, Padende, Kec. Marawola, Kabupaten Sigi, Sulawesi Tengah 94237","Padende, Kec. Marawola, Kabupaten Sigi",SULAWESI TENGAH,94237.0,Indonesia, 04518202162,,,-0.9582519,119.8477909,https://maps.google.com/?cid=0x0:0x2fc7e1dce8773656,
mall,Toko,AllShop,"BTN, Jl. Graha Mutiara No.19 Blok D1, Tinggede Sel., Kec. Marawola, Kabupaten Sigi, Sulawesi Tengah 94222","Jl. Graha Mutiara No.19 Blok D1, Tinggede Sel., Kec. Marawola, Kabupaten Sigi",SULAWESI TENGAH,94222.0,Indonesia, 082229300084,,,-0.944949,119.8644137,https://maps.google.com/?cid=0x0:0x7ad21c1500b640d8,
mall,Dapur Umum,RUMAH USAHA,"Kalukubula, Kec. Sigi Biromaru, Kabupaten Sigi, Sulawesi Tengah 94237","Kec. Sigi Biromaru, Kabupaten Sigi",SULAWESI TENGAH,94237.0,Indonesia, 085393949933,,,-0.9613428,119.8863406,https://maps.google.com/?cid=0x0:0x9e6a6dd280d0e22,
mall,Toko umum,Mall RM Shop,"Bukit Baliase Indah Blok. M18, Baliase, Kec. Marawola, Kabupaten Sigi, Sulawesi Tengah","Kabupaten Sigi, Sulawesi Tengah",SULAWESI TENGAH,,Indonesia,,,,-0.941236,119.8504996,https://maps.google.com/?cid=0x0:0x9b7417f4631079e9,
mall,Toko,Ann shop marawola,"Baliase, Kec. Marawola, Kabupaten Sigi, Sulawesi Tengah 94222","Kec. Marawola, Kabupaten Sigi",SULAWESI TENGAH,94222.0,Indonesia, 082292560622,,,-0.9459695,119.8535776,https://maps.google.com/?cid=0x0:0x142cb1369203eca2,
mall,mall,Kec. Tatanga,"Kota Palu, Sulawesi Tengah","Kota Palu, Sulawesi Tengah",SULAWESI TENGAH,,Indonesia,,,,-0.9222608,119.8563729,https://maps.google.com/?cid=0x0:0x9b2bb5a133e4e1d7,
mall,Toko Elektronik,RADIT STORE PALU (CABANG TOMBOLOTUTU),"Jl. I Gusti Ngurah Rai No.28, Tawanjuka, Kec. Tatanga, Kota Palu, Sulawesi Tengah 94127","Tawanjuka, Kec. Tatanga, Kota Palu",SULAWESI TENGAH,94127.0,Indonesia, 081341413663,,,-0.9224846,119.8681926,https://maps.google.com/?cid=0x0:0xe9bd8cb1fb58df8f,
mall,Toko,Kios Mandiri,"3VR8+8RV, Nunu, Kec. Tatanga, Kota Palu, Sulawesi Tengah 94111","Nunu, Kec. Tatanga, Kota Palu",SULAWESI TENGAH,94111.0,Indonesia, 081243747477,,,-0.9091466,119.8670458,https://maps.google.com/?cid=0x0:0xa93c7552564571f4,
mall,Toko Kosmetik,Tfshop PALU,"Jl. Jamur Lorong III No.2, Duyu, Kec. Tatanga, Kota Palu, Sulawesi Tengah 94111","Duyu, Kec. Tatanga, Kota Palu",SULAWESI TENGAH,94111.0,Indonesia, 085397384386,,,-0.9070002,119.8521453,https://maps.google.com/?cid=0x0:0xcfd327143c2db4dc,
mall,Toko bahan makanan,Swalayan Al-Khairaat,"3VR4+J5P, Bar, Boyaoge, Kec. Palu Bar., Kota Palu, Sulawesi Tengah 94111","Bar, Boyaoge, Kec. Palu Bar., Kota Palu",SULAWESI TENGAH,94111.0,Indonesia,,,,-0.9084131,119.8554457,https://maps.google.com/?cid=0x0:0x731c8d2f3dff9bba,
mall,mall,Sulawesi Tengah 94238,"Kec. Marawola, Kabupaten Sigi, Sulawesi Tengah","Kabupaten Sigi, Sulawesi Tengah",SULAWESI TENGAH,,Indonesia,,,,-0.9805285,119.8525909,https://maps.google.com/?cid=0x0:0x765635502230297,
mall,Pusat Perbelanjaan,XEIGHT Palu Grand Mall,"Grand Mall, Jl. Cumi-Cumi No.77 LT. GF UNIT G - 0150, BUMI BAHARI, Kec. Palu Bar., Kota Palu, Sulawesi Tengah 94221","Jl. Cumi-Cumi No.77 LT. GF UNIT G - 0150, BUMI BAHARI, Kec. Palu Bar., Kota Palu",SULAWESI TENGAH,94221.0,Indonesia, 04514134547,,,-0.8828723,119.8427211,https://maps.google.com/?cid=0x0:0xd7e6e97d68971afd,
mall,Pusat Perbelanjaan,THE PARK MALL PALU,"4RCP+6RC, Jl. Cumi-Cumi, Silae, Kec. Palu Bar., Kota Palu, Sulawesi Tengah 94227","Jl. Cumi-Cumi, Silae, Kec. Palu Bar., Kota Palu",SULAWESI TENGAH,94227.0,Indonesia, 04317554446,,,-0.8793749,119.8370341,https://maps.google.com/?cid=0x0:0x32487cdfd5e5d75f,
mall,Toko Alat Kecantikan,Sociolla Palu Grand Mall,"Jl. Diponegoro Unit G-0031, Lere, Kec. Palu Bar., Kota Palu, Sulawesi Tengah 94221","Lere, Kec. Palu Bar., Kota Palu",SULAWESI TENGAH,94221.0,Indonesia,,,,-0.8836507,119.8424799,https://maps.google.com/?cid=0x0:0x7f34350e6d74ce93,
mall,mall,Pasar Tangarava,"2VR4+C4V, Padende, Kec. Marawola, Kabupaten Sigi, Sulawesi Tengah 94237","Padende, Kec. Marawola, Kabupaten Sigi",SULAWESI TENGAH,94237.0,Indonesia, 085254773799,,,-0.958893,119.8553033,https://maps.google.com/?cid=0x0:0x9ae17100aacc9795,
mall,Toko Pakaian,Matahari Department Store,"Grand Mall, Jl. Diponegoro Lt.2, Lere, Kec. Ulujadi, Kota Palu, Sulawesi Tengah 94111","Jl. Diponegoro Lt.2, Lere, Kec. Ulujadi, Kota Palu",SULAWESI TENGAH,94111.0,Indonesia, 04514134505,,,-0.8833909,119.8425827,https://maps.google.com/?cid=0x0:0x7bf7303b193a2f49,
mall,Pempek,Pempek 10 Palu Grand Mall,"Jl. Diponegoro, Lere, Kec. Palu Bar., Kota Palu, Sulawesi Tengah 94221","Lere, Kec. Palu Bar., Kota Palu",SULAWESI TENGAH,94221.0,Indonesia, 081214411010,,,-0.8834848,119.8428685,https://maps.google.com/?cid=0x0:0x6db446eea4501165,
mall,Pusat Perbelanjaan,New Tatura Mall,"3VRG+PFQ, Jl. Emmy Saelan, Lolu Sel., Kec. Palu Sel., Kota Palu, Sulawesi Tengah 94111","Jl. Emmy Saelan, Lolu Sel., Kec. Palu Sel., Kota Palu",SULAWESI TENGAH,94111.0,Indonesia,,,,-0.9081841,119.876252,https://maps.google.com/?cid=0x0:0x49eb3482593ae789,
mall,Taman bermain,HAPPY KiDDY Palu Grand Mall,"Grand Mall, Palu, Jl. Diponegoro Lantai Ground, Lere, Kec. Palu Bar., Kota Palu, Sulawesi Tengah 94221","Palu, Jl. Diponegoro Lantai Ground, Lere, Kec. Palu Bar., Kota Palu",SULAWESI TENGAH,94221.0,Indonesia, 081218246194,,,-0.8834201,119.8428293,https://maps.google.com/?cid=0x0:0xa5067bc606dd5fb8,
mall,Toko,Kios ASNI,"Jl. Poros Palu Bangga No.54, Sibedi, Kec. Marawola, Kabupaten Sigi, Sulawesi Tengah 94238","Sibedi, Kec. Marawola, Kabupaten Sigi",SULAWESI TENGAH,94238.0,Indonesia, 082271007791,,,-0.976143,119.857168,https://maps.google.com/?cid=0x0:0xb86ba6e817346eae,
mall,Kios,CLEOSHOP,"Desa Beka No. 75 (Depan Lapangan Bola, Kec. Marawola, Kabupaten Sigi, Sulawesi Tengah 94372","Kec. Marawola, Kabupaten Sigi",SULAWESI TENGAH,94372.0,Indonesia, 082229300084,,,-0.9862635,119.8628325,https://maps.google.com/?cid=0x0:0xc03679a9a5bf2dde,
mall,Tujuan Wisata,Lembana Sibedi,"2VG5+HM5, Sibedi, Kec. Marawola, Kabupaten Sigi, Sulawesi Tengah 94238","Sibedi, Kec. Marawola, Kabupaten Sigi",SULAWESI TENGAH,94238.0,Indonesia, 085254773799,,,-0.9736181,119.8592265,https://maps.google.com/?cid=0x0:0x7392504af03ba53f,
mall,Pusat Perbelanjaan,Cinema XXI - Palu Grand Mall,"Grand Mall, lt 3, Jl. Diponegoro No.77, Lere, Palu Barat, Palu City, Central Sulawesi 94111","lt 3, Jl. Diponegoro No.77, Lere, Palu Barat, Palu City",SULAWESI TENGAH,94111.0,Indonesia, 04514131021,,,-0.8837456,119.8432083,https://maps.google.com/?cid=0x0:0xcd283a995bf07939,
mall,,STAR SHOP,"Jl. Guru Tua, Kalukubula, Kec. Sigi Biromaru, Kabupaten Sigi, Sulawesi Tengah 94364","Kalukubula, Kec. Sigi Biromaru, Kabupaten Sigi",SULAWESI TENGAH,94364.0,Indonesia,,,,-0.966167,119.8807794,https://maps.google.com/?cid=0x0:0xa041523506539ae9,
mall,Makanan Siap Saji,Solaria - Palu Grand Mall,"Jl. Diponegoro, Lere, Kec. Palu Bar., Kota Palu, Sulawesi Tengah 94221","Lere, Kec. Palu Bar., Kota Palu",SULAWESI TENGAH,94221.0,Indonesia, 02114099,,,-0.8835555,119.8425778,https://maps.google.com/?cid=0x0:0x2b1b92bd3559478f,
mall,Kafe,Taman Agrowisata Palu,"Porame Jl. Raya, Padende, Kec. Marawola, Kabupaten Sigi, Sulawesi Tengah 94237","Padende, Kec. Marawola, Kabupaten Sigi",SULAWESI TENGAH,94237.0,Indonesia, 04518202162,,,-0.9582519,119.8477909,https://maps.google.com/?cid=0x0:0x2fc7e1dce8773656,
mall,mall,Kios AkiLa,"2VVQ+FXM, Jl. Lando, Kalukubula, Kec. Sigi Biromaru, Kabupaten Sigi, Sulawesi Tengah","Kabupaten Sigi, Sulawesi Tengah",SULAWESI TENGAH,,Indonesia,,,,-0.9562952,119.8899354,https://maps.google.com/?cid=0x0:0xcb7cd8288b7c3837,
mall,Pasar,Pasar Masomba,"Jln.tg.panginpuan, masomba, Tatura Utara, Kec. Palu Sel., Kota Palu, Sulawesi Tengah 94112","masomba, Tatura Utara, Kec. Palu Sel., Kota Palu",SULAWESI TENGAH,94112.0,Indonesia,,,,-0.9084228,119.8791671,https://maps.google.com/?cid=0x0:0x5c75b3b59aaabc4c,
mall,Toko Pakaian Wanita,ERS SHOP,"2V5W+3R8, Langaleso, Kec. Dolo, Kabupaten Sigi, Sulawesi Tengah 94362","Langaleso, Kec. Dolo, Kabupaten Sigi",SULAWESI TENGAH,94362.0,Indonesia, 082296375232,,,-0.9923355,119.8970855,https://maps.google.com/?cid=0x0:0x2b24768bb3e6b426,
mall,Gudang,PT. Tatalogam Lestari - Outlet Roofmart Palu,"Jl. Jenderal Basuki Rahmat No.71, Tatura Sel., Kec. Palu Sel., Kota Palu, Sulawesi Tengah 94111","Tatura Sel., Kec. Palu Sel., Kota Palu",SULAWESI TENGAH,94111.0,Indonesia, 0451484779,,,-0.9188819,119.8839149,https://maps.google.com/?cid=0x0:0xb2f82536b5ab09b8,
mall,Pusat Bisnis,Ruko Diamond 3,"2VPJ+JXV, Kalukubula, Kec. Sigi Biromaru, Kabupaten Sigi, Sulawesi Tengah 94364","Kalukubula, Kec. Sigi Biromaru, Kabupaten Sigi",SULAWESI TENGAH,94364.0,Indonesia,,,,-0.9633826,119.8823626,https://maps.google.com/?cid=0x0:0xc579acd51c046a55,
mall,Pusat Perbelanjaan,Kios Fadhalna,"2V66+2R4, Jl. Poros Palu Bangga, Beka, Kec. Marawola, Kabupaten Sigi, Sulawesi Tengah 94362","Jl. Poros Palu Bangga, Beka, Kec. Marawola, Kabupaten Sigi",SULAWESI TENGAH,94362.0,Indonesia,,,,-0.9899896,119.8620854,https://maps.google.com/?cid=0x0:0x36421269eb868dae,
mall,Toko Pakaian,Delafemme Parfum (nunung),"2VJJ+8X4, Jl. Guru Tua, Kabobona, Kec. Dolo, Kabupaten Sigi, Sulawesi Tengah 94238","Jl. Guru Tua, Kabobona, Kec. Dolo, Kabupaten Sigi",SULAWESI TENGAH,94238.0,Indonesia, 082290577715,,,-0.9692376,119.8824411,https://maps.google.com/?cid=0x0:0x46a9e3209af8844,
mall,Tempat Cukur Rambut,Pangkas rambut angel porame,"2VR3+GX7, Padende, Kec. Marawola, Kabupaten Sigi, Sulawesi Tengah 94237","Padende, Kec. Marawola, Kabupaten Sigi",SULAWESI TENGAH,94237.0,Indonesia, 083132286759,,,-0.9587205,119.8549173,https://maps.google.com/?cid=0x0:0x49c04239ff022407,
mall,Kios,Toko Fiki Firmansyah,"2V9V+6RW, Unnamed Road, Langaleso, Dolo, Sigi Regency, Central Sulawesi 94362","Unnamed Road, Langaleso, Dolo, Sigi Regency",SULAWESI TENGAH,94362.0,Indonesia, 082293825663,,,-0.981899,119.8945734,https://maps.google.com/?cid=0x0:0x5312776ecf0f506d,
mall,mall,Kec. Tatanga,"Kota Palu, Sulawesi Tengah","Kota Palu, Sulawesi Tengah",SULAWESI TENGAH,,Indonesia,,,,-0.9222608,119.8563729,https://maps.google.com/?cid=0x0:0x9b2bb5a133e4e1d7,
mall,Toko Elektronik,RADIT STORE PALU (CABANG TOMBOLOTUTU),"Jl. I Gusti Ngurah Rai No.28, Tawanjuka, Kec. Tatanga, Kota Palu, Sulawesi Tengah 94127","Tawanjuka, Kec. Tatanga, Kota Palu",SULAWESI TENGAH,94127.0,Indonesia, 081341413663,,,-0.9224846,119.8681926,https://maps.google.com/?cid=0x0:0xe9bd8cb1fb58df8f,
mall,Toko,Kios Mandiri,"3VR8+8RV, Nunu, Kec. Tatanga, Kota Palu, Sulawesi Tengah 94111","Nunu, Kec. Tatanga, Kota Palu",SULAWESI TENGAH,94111.0,Indonesia, 081243747477,,,-0.9091466,119.8670458,https://maps.google.com/?cid=0x0:0xa93c7552564571f4,
mall,Toko Kosmetik,Tfshop PALU,"Jl. Jamur Lorong III No.2, Duyu, Kec. Tatanga, Kota Palu, Sulawesi Tengah 94111","Duyu, Kec. Tatanga, Kota Palu",SULAWESI TENGAH,94111.0,Indonesia, 085397384386,,,-0.9070002,119.8521453,https://maps.google.com/?cid=0x0:0xcfd327143c2db4dc,
mall,mall,Sulawesi Tengah 94239,"Uwemanje, Kec. Kinovaro, Kabupaten Sigi, Sulawesi Tengah","Kabupaten Sigi, Sulawesi Tengah",SULAWESI TENGAH,,Indonesia,,,,-0.9808693,119.8178676,https://maps.google.com/?cid=0x0:0xda5d962767809a40,
mall,Pusat Perbelanjaan,XEIGHT Palu Grand Mall,"Grand Mall, Jl. Cumi-Cumi No.77 LT. GF UNIT G - 0150, BUMI BAHARI, Kec. Palu Bar., Kota Palu, Sulawesi Tengah 94221","Jl. Cumi-Cumi No.77 LT. GF UNIT G - 0150, BUMI BAHARI, Kec. Palu Bar., Kota Palu",SULAWESI TENGAH,94221.0,Indonesia, 04514134547,,,-0.8828723,119.8427211,https://maps.google.com/?cid=0x0:0xd7e6e97d68971afd,
mall,Pusat Perbelanjaan,THE PARK MALL PALU,"4RCP+6RC, Jl. Cumi-Cumi, Silae, Kec. Palu Bar., Kota Palu, Sulawesi Tengah 94227","Jl. Cumi-Cumi, Silae, Kec. Palu Bar., Kota Palu",SULAWESI TENGAH,94227.0,Indonesia, 04317554446,,,-0.8793749,119.8370341,https://maps.google.com/?cid=0x0:0x32487cdfd5e5d75f,
mall,Pusat Perbelanjaan,Pertokoan Hasanuddin,"4V39+987, Jl. Sudirman, Lolu Utara, Kec. Palu Tim., Kota Palu, Sulawesi Tengah 94112","Jl. Sudirman, Lolu Utara, Kec. Palu Tim., Kota Palu",SULAWESI TENGAH,94112.0,Indonesia,,,,-0.8965978,119.8683028,https://maps.google.com/?cid=0x0:0x3f84768500f98cda,
mall,Pusat Perbelanjaan,Hypermart Palu Grand Mall,"Jl. Diponegoro No.8A, Lere, Kec. Palu Bar., Kota Palu, Sulawesi Tengah 94221","Lere, Kec. Palu Bar., Kota Palu",SULAWESI TENGAH,94221.0,Indonesia, 081312097422,,,-0.8837991,119.8423758,https://maps.google.com/?cid=0x0:0x9567cc1a06bb61e4,
mall,Pusat Perbelanjaan,New Tatura Mall,"3VRG+PFQ, Jl. Emmy Saelan, Lolu Sel., Kec. Palu Sel., Kota Palu, Sulawesi Tengah 94111","Jl. Emmy Saelan, Lolu Sel., Kec. Palu Sel., Kota Palu",SULAWESI TENGAH,94111.0,Indonesia,,,,-0.9081841,119.876252,https://maps.google.com/?cid=0x0:0x49eb3482593ae789,
mall,Pusat Perbelanjaan,Plaza Palu,"Komplek Palu Plaza, Jl. Sis AlJufri, Blok IV, Siranindi, Kec. Ulujadi, Kota Palu, Sulawesi Tengah 94111","Jl. Sis AlJufri, Blok IV, Siranindi, Kec. Ulujadi, Kota Palu",SULAWESI TENGAH,94111.0,Indonesia,,,,-0.8993996,119.8607805,https://maps.google.com/?cid=0x0:0xc5f25dc5c9bc56bd,
mall,Pempek,Pempek 10 Palu Grand Mall,"Jl. Diponegoro, Lere, Kec. Palu Bar., Kota Palu, Sulawesi Tengah 94221","Lere, Kec. Palu Bar., Kota Palu",SULAWESI TENGAH,94221.0,Indonesia, 081214411010,,,-0.8834848,119.8428685,https://maps.google.com/?cid=0x0:0x6db446eea4501165,
mall,Pusat Perbelanjaan,PERTOKOAN HASANUDDIN 2,"4V39+64P, Jl. Sultan Hasanuddin, Lolu Utara, Kec. Palu Sel., Kota Palu, Sulawesi Tengah 94111","Jl. Sultan Hasanuddin, Lolu Utara, Kec. Palu Sel., Kota Palu",SULAWESI TENGAH,94111.0,Indonesia,,,,-0.8969006,119.867814,https://maps.google.com/?cid=0x0:0x6b10f78b13b2fea5,
mall,Toko Alat Kecantikan,Sociolla Palu Grand Mall,"Jl. Diponegoro Unit G-0031, Lere, Kec. Palu Bar., Kota Palu, Sulawesi Tengah 94221","Lere, Kec. Palu Bar., Kota Palu",SULAWESI TENGAH,94221.0,Indonesia,,,,-0.8836507,119.8424799,https://maps.google.com/?cid=0x0:0x7f34350e6d74ce93,
mall,Taman bermain,HAPPY KiDDY Palu Grand Mall,"Grand Mall, Palu, Jl. Diponegoro Lantai Ground, Lere, Kec. Palu Bar., Kota Palu, Sulawesi Tengah 94221","Palu, Jl. Diponegoro Lantai Ground, Lere, Kec. Palu Bar., Kota Palu",SULAWESI TENGAH,94221.0,Indonesia, 081218246194,,,-0.8834201,119.8428293,https://maps.google.com/?cid=0x0:0xa5067bc606dd5fb8,
mall,Pusat Perbelanjaan,Cinema XXI - Palu Grand Mall,"Grand Mall, lt 3, Jl. Diponegoro No.77, Lere, Palu Barat, Palu City, Central Sulawesi 94111","lt 3, Jl. Diponegoro No.77, Lere, Palu Barat, Palu City",SULAWESI TENGAH,94111.0,Indonesia, 04514131021,,,-0.8837456,119.8432083,https://maps.google.com/?cid=0x0:0xcd283a995bf07939,
mall,Kafe,Taman Agrowisata Palu,"Porame Jl. Raya, Padende, Kec. Marawola, Kabupaten Sigi, Sulawesi Tengah 94237","Padende, Kec. Marawola, Kabupaten Sigi",SULAWESI TENGAH,94237.0,Indonesia, 04518202162,,,-0.9582519,119.8477909,https://maps.google.com/?cid=0x0:0x2fc7e1dce8773656,
mall,Toko,Kios ASNI,"Jl. Poros Palu Bangga No.54, Sibedi, Kec. Marawola, Kabupaten Sigi, Sulawesi Tengah 94238","Sibedi, Kec. Marawola, Kabupaten Sigi",SULAWESI TENGAH,94238.0,Indonesia, 082271007791,,,-0.976143,119.857168,https://maps.google.com/?cid=0x0:0xb86ba6e817346eae,
mall,Toko bahan makanan,Kios Ari,"2VR3+GW8, Padende, Kec. Marawola, Kabupaten Sigi, Sulawesi Tengah 94237","Padende, Kec. Marawola, Kabupaten Sigi",SULAWESI TENGAH,94237.0,Indonesia, 082349241117,,,-0.9587054,119.8548416,https://maps.google.com/?cid=0x0:0x3342a7454b036a65,
mall,Toko Pakaian,WHITE|MODE Palu Grand Mall,"LT. GF UNIT G - 0100, Palu Grand Mall, Jl. Diponegoro, Lere, Palu Bar, Kota, Kec. Ulujadi, Kota Palu, Sulawesi Tengah 94221","Palu Grand Mall, Jl. Diponegoro, Lere, Palu Bar, Kota, Kec. Ulujadi, Kota Palu",SULAWESI TENGAH,94221.0,Indonesia, 04514131566,,,-0.8826314,119.8425586,https://maps.google.com/?cid=0x0:0x14cb3cbb52cdf255,
mall,Pasar,Pasar Masomba,"Jln.tg.panginpuan, masomba, Tatura Utara, Kec. Palu Sel., Kota Palu, Sulawesi Tengah 94112","masomba, Tatura Utara, Kec. Palu Sel., Kota Palu",SULAWESI TENGAH,94112.0,Indonesia,,,,-0.9084228,119.8791671,https://maps.google.com/?cid=0x0:0x5c75b3b59aaabc4c,
mall,Gudang,PT. Tatalogam Lestari - Outlet Roofmart Palu,"Jl. Jenderal Basuki Rahmat No.71, Tatura Sel., Kec. Palu Sel., Kota Palu, Sulawesi Tengah 94111","Tatura Sel., Kec. Palu Sel., Kota Palu",SULAWESI TENGAH,94111.0,Indonesia, 0451484779,,,-0.9188819,119.8839149,https://maps.google.com/?cid=0x0:0xb2f82536b5ab09b8,
mall,Tempat Cukur Rambut,Pangkas rambut angel porame,"2VR3+GX7, Padende, Kec. Marawola, Kabupaten Sigi, Sulawesi Tengah 94237","Padende, Kec. Marawola, Kabupaten Sigi",SULAWESI TENGAH,94237.0,Indonesia, 083132286759,,,-0.9587205,119.8549173,https://maps.google.com/?cid=0x0:0x49c04239ff022407,
mall,mall,RAMAYANA Mall Tatura,"Jl. Emmy Saelan, Lolu Sel., Kec. Palu Sel., Kota Palu, Sulawesi Tengah 94111","Lolu Sel., Kec. Palu Sel., Kota Palu",SULAWESI TENGAH,94111.0,Indonesia, 0451458777,,,-0.9083346,119.8761368,https://maps.google.com/?cid=0x0:0x13fc0aad57cf872c,
mall,mall,Kec. Tatanga,"Kota Palu, Sulawesi Tengah","Kota Palu, Sulawesi Tengah",SULAWESI TENGAH,,Indonesia,,,,-0.9222608,119.8563729,https://maps.google.com/?cid=0x0:0x9b2bb5a133e4e1d7,
mall,Toko Elektronik,RADIT STORE PALU (CABANG TOMBOLOTUTU),"Jl. I Gusti Ngurah Rai No.28, Tawanjuka, Kec. Tatanga, Kota Palu, Sulawesi Tengah 94127","Tawanjuka, Kec. Tatanga, Kota Palu",SULAWESI TENGAH,94127.0,Indonesia, 081341413663,,,-0.9224846,119.8681926,https://maps.google.com/?cid=0x0:0xe9bd8cb1fb58df8f,
mall,Toko,Kios Mandiri,"3VR8+8RV, Nunu, Kec. Tatanga, Kota Palu, Sulawesi Tengah 94111","Nunu, Kec. Tatanga, Kota Palu",SULAWESI TENGAH,94111.0,Indonesia, 081243747477,,,-0.9091466,119.8670458,https://maps.google.com/?cid=0x0:0xa93c7552564571f4,
mall,Toko Kosmetik,Tfshop PALU,"Jl. Jamur Lorong III No.2, Duyu, Kec. Tatanga, Kota Palu, Sulawesi Tengah 94111","Duyu, Kec. Tatanga, Kota Palu",SULAWESI TENGAH,94111.0,Indonesia, 085397384386,,,-0.9070002,119.8521453,https://maps.google.com/?cid=0x0:0xcfd327143c2db4dc,
mall,Toko bahan makanan,Swalayan Al-Khairaat,"3VR4+J5P, Bar, Boyaoge, Kec. Palu Bar., Kota Palu, Sulawesi Tengah 94111","Bar, Boyaoge, Kec. Palu Bar., Kota Palu",SULAWESI TENGAH,94111.0,Indonesia,,,,-0.9084131,119.8554457,https://maps.google.com/?cid=0x0:0x731c8d2f3dff9bba,
mall,Pusat Perbelanjaan,Kios ade,"Jl. Syukur, Duyu, Kec. Tatanga, Kota Palu, Sulawesi Tengah 94225","Duyu, Kec. Tatanga, Kota Palu",SULAWESI TENGAH,94225.0,Indonesia, 082272125277,,,-0.9100147,119.8463302,https://maps.google.com/?cid=0x0:0x2c926fdec06a78ec,
mall,Pembangunan Perumahan,Perumahan Anggur Petmai,"3VQ3+X3P, Duyu, Kec. Tatanga, Kota Palu, Sulawesi Tengah 94222","Duyu, Kec. Tatanga, Kota Palu",SULAWESI TENGAH,94222.0,Indonesia,,,,-0.9100253,119.8526918,https://maps.google.com/?cid=0x0:0x7b00b1c0974f6d90,
mall,Minimarket,Loket Al-Jihad,"Jl. Al -Jihad No.20A, Tawanjuka, Kec. Tatanga, Kota Palu, Sulawesi Tengah 94127","Tawanjuka, Kec. Tatanga, Kota Palu",SULAWESI TENGAH,94127.0,Indonesia, 082232960595,,,-0.9222222,119.8691357,https://maps.google.com/?cid=0x0:0xe803dafaf3b94948,
mall,Toko Pakaian,Azkashop,"3VC6+FH8, btn palupi permai blok a no, Palupi, Kec. Palu Sel., Kota Palu, Sulawesi Tengah 94222","btn palupi permai blok a no, Palupi, Kec. Palu Sel., Kota Palu",SULAWESI TENGAH,94222.0,Indonesia, 081243435151,,,-0.9288258,119.861452,https://maps.google.com/?cid=0x0:0xebc9f84b40cb091e,
mall,mall,Sulawesi Tengah 94683,"Kabupaten Tojo Una-Una, Sulawesi Tengah","Kabupaten Tojo Una-Una, Sulawesi Tengah",SULAWESI TENGAH,,Indonesia,,,,-0.9183931,121.5598345,https://maps.google.com/?cid=0x0:0xfa1a3d7ada6aa1f8,
mall,Pusat Perbelanjaan,Katogean,"4HGV+PQX, Jl. Delima, Dondo, Kec. Ampana Kota, Kabupaten Tojo Una-Una, Sulawesi Tengah 94683","Jl. Delima, Dondo, Kec. Ampana Kota, Kabupaten Tojo Una-Una",SULAWESI TENGAH,94683.0,Indonesia,,,,-0.8731433,121.594494,https://maps.google.com/?cid=0x0:0x5ec947b42656ac34,
mall,Toko Pakaian,Yuni,"Jl. Sungai Bongka No.81, Uentanaga Atas, Kec. Ampana Kota, Kabupaten Tojo Una-Una, Sulawesi Tengah 94683","Uentanaga Atas, Kec. Ampana Kota, Kabupaten Tojo Una-Una",SULAWESI TENGAH,94683.0,Indonesia,,,,-0.8818781,121.5858496,https://maps.google.com/?cid=0x0:0x7eee3fcd71ab08a,
mall,Toko bahan makanan,TOKO GALAXY STATIONERY,"4HMR+8RJ, Jl. Ahmad Yani, Dondo, Kec. Ampana Kota, Kabupaten Tojo Una-Una, Sulawesi Tengah 94683","Jl. Ahmad Yani, Dondo, Kec. Ampana Kota, Kabupaten Tojo Una-Una",SULAWESI TENGAH,94683.0,Indonesia, 085187074461,,,-0.8666647,121.5920191,https://maps.google.com/?cid=0x0:0x38eda3bf56811ecd,
mall,Pasar,Pasar Bailo,"4G8X+GHM, Unnamed Road, Bailo, Kec. Ampana Kota, Kabupaten Tojo Una-Una, Sulawesi Tengah 94683","Unnamed Road, Bailo, Kec. Ampana Kota, Kabupaten Tojo Una-Una",SULAWESI TENGAH,94683.0,Indonesia,,,,-0.8836744,121.5489346,https://maps.google.com/?cid=0x0:0xc9f63915c712fe0c,
mall,Pasar,Pasar Rakyat Ampana,"3HXF+HP6, Sansarino, Kec. Ampana Kota, Kabupaten Tojo Una-Una, Sulawesi Tengah 94683","Sansarino, Kec. Ampana Kota, Kabupaten Tojo Una-Una",SULAWESI TENGAH,94683.0,Indonesia,,,,-0.9010828,121.5742537,https://maps.google.com/?cid=0x0:0x7527b489b3929b0,
mall,Toko Pakaian,BOGANI aksesoris,"4HQW+55P, Dondo, Kec. Ampana Kota, Kabupaten Tojo Una-Una, Sulawesi Tengah 94683","Dondo, Kec. Ampana Kota, Kabupaten Tojo Una-Una",SULAWESI TENGAH,94683.0,Indonesia, 082259050704,,,-0.8620437,121.5954622,https://maps.google.com/?cid=0x0:0x94ae139536b49af9,
mall,Toko Swalayan,Madinah Mart,"Jl. Sungai Bongka, Uentanaga Atas, Kec. Ampana Kota, Kabupaten Tojo Una-Una, Sulawesi Tengah 94683","Uentanaga Atas, Kec. Ampana Kota, Kabupaten Tojo Una-Una",SULAWESI TENGAH,94683.0,Indonesia, 081284887237,,,-0.9052323,121.5834435,https://maps.google.com/?cid=0x0:0x6b753e2859f7baac,
mall,Minimarket,Toko Chi-noik,"4HHM+W6C, Uentanaga Bawah, Kec. Ampana Kota, Kabupaten Tojo Una-Una, Sulawesi Tengah 94683","Uentanaga Bawah, Kec. Ampana Kota, Kabupaten Tojo Una-Una",SULAWESI TENGAH,94683.0,Indonesia, 082169157543,,,-0.87018,121.5830083,https://maps.google.com/?cid=0x0:0x62c35764b042ee38,
mall,Toko bahan makanan,Toko Anugerah ampana,"Dondo, Kec. Ampana Kota, Kabupaten Tojo Una-Una, Sulawesi Tengah 94683","Kec. Ampana Kota, Kabupaten Tojo Una-Una",SULAWESI TENGAH,94683.0,Indonesia,,,,-0.8613874,121.5965478,https://maps.google.com/?cid=0x0:0x1b2c8dae3219cdd1,
mall,Pusat Perbelanjaan,Awy parfum,"4HHM+WGR, Jl. Moh. Hatta, Uentanaga Bawah, Kec. Ampana Kota, Kabupaten Tojo Una-Una, Sulawesi Tengah 94683","Jl. Moh. Hatta, Uentanaga Bawah, Kec. Ampana Kota, Kabupaten Tojo Una-Una",SULAWESI TENGAH,94683.0,Indonesia, 0811455654,,,-0.8701485,121.5837573,https://maps.google.com/?cid=0x0:0x1f4310aff860020,
mall,Toko bahan makanan,Ramayana palu,"4HHM+X9H, Jl. Moh. Hatta, Uentanaga Bawah, Kec. Ampana Kota, Kabupaten Tojo Una-Una, Sulawesi Tengah 94683","Jl. Moh. Hatta, Uentanaga Bawah, Kec. Ampana Kota, Kabupaten Tojo Una-Una",SULAWESI TENGAH,94683.0,Indonesia,,,,-0.8700736,121.583493,https://maps.google.com/?cid=0x0:0x4ac8294a9725920d,
mall,Pusat Perbelanjaan,Farel Shop Ampana,"Jl. Kepiting No.23, Sumoli, Kec. Ampana Kota, Kabupaten Tojo Una-Una, Sulawesi Tengah 94683","Sumoli, Kec. Ampana Kota, Kabupaten Tojo Una-Una",SULAWESI TENGAH,94683.0,Indonesia, 085280522228,,,-0.8695462,121.5906743,https://maps.google.com/?cid=0x0:0xb7e6b763db441b87,
mall,Toko,TOKO MOH.ALI DG MASESE,"4H93+8M6, Bailo, Kec. Ampana Kota, Kabupaten Tojo Una-Una, Sulawesi Tengah 94683","Bailo, Kec. Ampana Kota, Kabupaten Tojo Una-Una",SULAWESI TENGAH,94683.0,Indonesia, 082293029627,,,-0.8817226,121.5541264,https://maps.google.com/?cid=0x0:0xa10d610d504cda87,
mall,Minimarket,ALFAMIDI SULTAN HASANUDIN AMPANA,"Jl. Sultan Hasanudin No.30a, Labiabae, Kec. Ampana Kota, Kabupaten Tojo Una-Una, Sulawesi Tengah 94683","Labiabae, Kec. Ampana Kota, Kabupaten Tojo Una-Una",SULAWESI TENGAH,94683.0,Indonesia,,,,-0.869835,121.5673266,https://maps.google.com/?cid=0x0:0x87513c2fbcc2accf,
mall,Toko,Toko Bintang Terang Abadi,"4HG4+7H4, Bailo, Kec. Ampana Kota, Kabupaten Tojo Una-Una, Sulawesi Tengah 94683","Bailo, Kec. Ampana Kota, Kabupaten Tojo Una-Una",SULAWESI TENGAH,94683.0,Indonesia, 082190379312,,,-0.8743541,121.5564435,https://maps.google.com/?cid=0x0:0xd63ed232ce597cef,
mall,Toko bahan makanan,Ampana Mart,"4HPW+W4R, Jl. Ahmad Yani, Dondo, Kec. Ampana Kota, Kabupaten Tojo Una-Una, Sulawesi Tengah 94683","Jl. Ahmad Yani, Dondo, Kec. Ampana Kota, Kabupaten Tojo Una-Una",SULAWESI TENGAH,94683.0,Indonesia, 082339426494,,,-0.8624695,121.5951044,https://maps.google.com/?cid=0x0:0xa22741e00c83c78b,
mall,Toko,SMART Computers,"3HMJ+RP4, Uemalingku, Ratolindo, Tojo Una-Una Regency, Central Sulawesi 94683","Uemalingku, Ratolindo, Tojo Una-Una Regency",SULAWESI TENGAH,94683.0,Indonesia, 04642251038,,,-0.9154907,121.5818159,https://maps.google.com/?cid=0x0:0x705c8ed5935c3edb,
mall,Bengkel Sepeda Motor,Aba jaya motor,"4HCV+8CF, Unnamed Road, Sumoli, Kec. Ampana Kota, Kabupaten Tojo Una-Una, Sulawesi Tengah 94683","Unnamed Road, Sumoli, Kec. Ampana Kota, Kabupaten Tojo Una-Una",SULAWESI TENGAH,94683.0,Indonesia,,,,-0.8791839,121.5935616,https://maps.google.com/?cid=0x0:0x477f47e00a9b3c6c,
mall,Pasar Petani,Hatim Poiyo,"2HP8+M6V, Sansarino, Kec. Ampana Kota, Kabupaten Tojo Una-Una, Sulawesi Tengah","Kabupaten Tojo Una-Una, Sulawesi Tengah",SULAWESI TENGAH,,Indonesia,,,,-0.9632718,121.5655424,https://maps.google.com/?cid=0x0:0x7c9b21c7fce75d05,
mall,Pusat Perbelanjaan,Kaoskakinya. 4na,"Jl. Sungai Ampana No.4, Uentanaga Atas, Kec. Ampana Kota, Kabupaten Tojo Una-Una, Sulawesi Tengah 94683","Uentanaga Atas, Kec. Ampana Kota, Kabupaten Tojo Una-Una",SULAWESI TENGAH,94683.0,Indonesia, 082190335355,,,-0.8729221,121.5820039,https://maps.google.com/?cid=0x0:0xa27ab60e0675dc92,
mall,Hipermarket,AEON MALL Jakarta Garden City,"Jl. Jkt Garden City Boulevard No.1, RT.8/RW.6, Cakung Tim., Kec. Cakung, Kota Jakarta Timur, Daerah Khusus Ibukota Jakarta 13910","RT.8/RW.6, Cakung Tim., Kec. Cakung, Kota Jakarta Timur",SULAWESI TENGAH,13910.0,Indonesia, 02122462525,,,-6.1721883,106.9522209,https://maps.google.com/?cid=0x0:0x2c473319d7d1eef6,
mall,Pusat Perbelanjaan,MargoCity,"Jl. Margonda Raya No.358, Kemiri Muka, Kecamatan Beji, Kota Depok, Jawa Barat 16423","Kemiri Muka, Kecamatan Beji, Kota Depok",SULAWESI TENGAH,16423.0,Indonesia, 02178870888,,,-6.372967,106.8344235,https://maps.google.com/?cid=0x0:0xd3365350a2ebe2f,
mall,mall,Sulawesi Tengah 94681,"Kabupaten Tojo Una-Una, Sulawesi Tengah","Kabupaten Tojo Una-Una, Sulawesi Tengah",SULAWESI TENGAH,,Indonesia,,,,-1.4002682,121.2168466,https://maps.google.com/?cid=0x0:0x296ad5ba9809fbd2,
mall,Pusat Perbelanjaan,Pasar Tayawa,"Tayawa, Kec. Tojo, Kabupaten Tojo Una-Una, Sulawesi Tengah 94681","Kec. Tojo, Kabupaten Tojo Una-Una",SULAWESI TENGAH,94681.0,Indonesia,,,,-1.4439479,121.0932977,https://maps.google.com/?cid=0x0:0x4ff920b4f9ca7b95,
mall,Toko,Kios Faizzah,"H4C9+Q3C, Uekuli, Kec. Tojo, Kabupaten Tojo Una-Una, Sulawesi Tengah 94681","Uekuli, Kec. Tojo, Kabupaten Tojo Una-Una",SULAWESI TENGAH,94681.0,Indonesia, 085256504825,,,-1.428051,121.1176345,https://maps.google.com/?cid=0x0:0x95fa1c631c438c10,
mall,Toko Bahan Bangunan,TOKO Bangunan Murah Lengkap,"Tayawa, Kec. Tojo, Kabupaten Tojo Una-Una, Sulawesi Tengah 94681","Kec. Tojo, Kabupaten Tojo Una-Una",SULAWESI TENGAH,94681.0,Indonesia, 081316222080,,,-1.4447977,121.0919483,https://maps.google.com/?cid=0x0:0xb677c82e4e1b69ac,
mall,Pusat Perbelanjaan,Butik,"Tayawa, Kec. Tojo, Kabupaten Tojo Una-Una, Sulawesi Tengah 94681","Kec. Tojo, Kabupaten Tojo Una-Una",SULAWESI TENGAH,94681.0,Indonesia, 082267494360,,,-1.4447905,121.0920337,https://maps.google.com/?cid=0x0:0x4fd9c92d3ae163bd,
mall,Toko bahan makanan,Agen Brilink Lulu Cell,"H4C7+8X9, Uekuli, Kec. Tojo, Kabupaten Tojo Una-Una, Sulawesi Tengah 94681","Uekuli, Kec. Tojo, Kabupaten Tojo Una-Una",SULAWESI TENGAH,94681.0,Indonesia, 085237759707,,,-1.4292142,121.1149956,https://maps.google.com/?cid=0x0:0xc0b45c449814877f,
mall,Toko,NURHASANAH NTARU,"Q6VH+G8W, Tongku, Kec. Tojo, Kabupaten Tojo Una-Una, Sulawesi Tengah","Kabupaten Tojo Una-Una, Sulawesi Tengah",SULAWESI TENGAH,,Indonesia,,,,-1.2061486,121.2283415,https://maps.google.com/?cid=0x0:0x6bb0a9d115cdcd32,
mall,Minimarket,Kios Halima Cell,"HXM4+MR6, Toliba, Kec. Tojo Bar., Kabupaten Tojo Una-Una, Sulawesi Tengah 94681","Toliba, Kec. Tojo Bar., Kabupaten Tojo Una-Una",SULAWESI TENGAH,94681.0,Indonesia,,,,-1.4158349,120.9570027,https://maps.google.com/?cid=0x0:0x8c426fcbb89a324,
mall,mall,MDA,"H36X+G8Q, Bahari, Kec. Tojo, Kabupaten Tojo Una-Una, Sulawesi Tengah 94681","Bahari, Kec. Tojo, Kabupaten Tojo Una-Una",SULAWESI TENGAH,94681.0,Indonesia,,,,-1.4386672,121.0983477,https://maps.google.com/?cid=0x0:0x6e27183529356ee2,
mall,mall,Kios Yayat,"HWHJ+C56, Bambalo, Kec. Tojo Bar., Kabupaten Tojo Una-Una, Sulawesi Tengah 94681","Bambalo, Kec. Tojo Bar., Kabupaten Tojo Una-Una",SULAWESI TENGAH,94681.0,Indonesia,,,,-1.421471,120.9304042,https://maps.google.com/?cid=0x0:0xc972892b4caa70a1,
mall,Pusat Perbelanjaan,Paris Van Java Resort Lifestyle Place,"Jl. Sukajadi No.131-139, Cipedes, Kec. Sukajadi, Kota Bandung, Jawa Barat 40162","Cipedes, Kec. Sukajadi, Kota Bandung",SULAWESI TENGAH,40162.0,Indonesia, 0222060800,,,-6.8895433,107.5960046,https://maps.google.com/?cid=0x0:0xb0506a362a7810b2,
mall,Pusat Perbelanjaan,Paris Van Java Supermall,"4H6W+G9H, Jl. Sukajadi, Cipedes, Kec. Sukajadi, Kota Bandung, Jawa Barat 40161","Jl. Sukajadi, Cipedes, Kec. Sukajadi, Kota Bandung",SULAWESI TENGAH,40161.0,Indonesia, 0222060800,,,-6.8886908,107.5959858,https://maps.google.com/?cid=0x0:0x352c2470f0988511,
mall,Pusat Perbelanjaan,Paris Van Java O.C.B,"Jl. Sukajadi No.146, Cipedes, Kec. Sukajadi, Kota Bandung, Jawa Barat 40162","Cipedes, Kec. Sukajadi, Kota Bandung",SULAWESI TENGAH,40162.0,Indonesia,,,,-6.8891664,107.5970489,https://maps.google.com/?cid=0x0:0x5de017bcedfa4a8c,
mall,Pusat Perbelanjaan,Paris Van Java Mall,"Cipedes, Kec. Sukajadi, Kota Bandung, Jawa Barat","Kota Bandung, Jawa Barat",SULAWESI TENGAH,,Indonesia,,,,-6.889741,107.596834,https://maps.google.com/?cid=0x0:0xf175cb9d029ca13a,
mall,mall,Kec. Tojo Bar.,"Kabupaten Tojo Una-Una, Sulawesi Tengah","Kabupaten Tojo Una-Una, Sulawesi Tengah",SULAWESI TENGAH,,Indonesia,,,,-1.4248079,121.0239625,https://maps.google.com/?cid=0x0:0x4a8aae277afc8955,
mall,Pusat Perbelanjaan,Pasar Tayawa,"Tayawa, Kec. Tojo, Kabupaten Tojo Una-Una, Sulawesi Tengah 94681","Kec. Tojo, Kabupaten Tojo Una-Una",SULAWESI TENGAH,94681.0,Indonesia,,,,-1.4439479,121.0932977,https://maps.google.com/?cid=0x0:0x4ff920b4f9ca7b95,
mall,Toko,Kios karisma ksg,"HWH7+XHX, Unnamed Road, Matako, Kec. Tojo Bar., Kabupaten Tojo Una-Una, Sulawesi Tengah 94681","Unnamed Road, Matako, Kec. Tojo Bar., Kabupaten Tojo Una-Una",SULAWESI TENGAH,94681.0,Indonesia, 081341374856,,,-1.4200097,120.9139904,https://maps.google.com/?cid=0x0:0x440de568346fbb00,
mall,Toko Bahan Bangunan,TOKO Bangunan Murah Lengkap,"Tayawa, Kec. Tojo, Kabupaten Tojo Una-Una, Sulawesi Tengah 94681","Kec. Tojo, Kabupaten Tojo Una-Una",SULAWESI TENGAH,94681.0,Indonesia, 081316222080,,,-1.4447977,121.0919483,https://maps.google.com/?cid=0x0:0xb677c82e4e1b69ac,
mall,Toko,Kios Faizzah,"H4C9+Q3C, Uekuli, Kec. Tojo, Kabupaten Tojo Una-Una, Sulawesi Tengah 94681","Uekuli, Kec. Tojo, Kabupaten Tojo Una-Una",SULAWESI TENGAH,94681.0,Indonesia, 085256504825,,,-1.428051,121.1176345,https://maps.google.com/?cid=0x0:0x95fa1c631c438c10,
mall,Minimarket,Kios Halima Cell,"HXM4+MR6, Toliba, Kec. Tojo Bar., Kabupaten Tojo Una-Una, Sulawesi Tengah 94681","Toliba, Kec. Tojo Bar., Kabupaten Tojo Una-Una",SULAWESI TENGAH,94681.0,Indonesia,,,,-1.4158349,120.9570027,https://maps.google.com/?cid=0x0:0x8c426fcbb89a324,
mall,Pasar,Pasar Malei,"HVPH+8X8, Malei, Kec. Lage, Kabupaten Poso, Sulawesi Tengah 94681","Malei, Kec. Lage, Kabupaten Poso",SULAWESI TENGAH,94681.0,Indonesia,,,,-1.4142093,120.8799448,https://maps.google.com/?cid=0x0:0x12fdcc391c9c254e,
mall,mall,Kios Yayat,"HWHJ+C56, Bambalo, Kec. Tojo Bar., Kabupaten Tojo Una-Una, Sulawesi Tengah 94681","Bambalo, Kec. Tojo Bar., Kabupaten Tojo Una-Una",SULAWESI TENGAH,94681.0,Indonesia,,,,-1.421471,120.9304042,https://maps.google.com/?cid=0x0:0xc972892b4caa70a1,
mall,mall,Kios UU,"H2GF+V9W, Tombiano, Kec. Tojo Bar., Kabupaten Tojo Una-Una, Sulawesi Tengah 94681","Tombiano, Kec. Tojo Bar., Kabupaten Tojo Una-Una",SULAWESI TENGAH,94681.0,Indonesia,,,,-1.4227623,121.0234515,https://maps.google.com/?cid=0x0:0x7f3ce343354f1ad0,
mall,mall,Sulawesi Tengah 94682,"Kec. Ulubongka, Kabupaten Tojo Una-Una, Sulawesi Tengah","Kabupaten Tojo Una-Una, Sulawesi Tengah",SULAWESI TENGAH,,Indonesia,,,,-1.2626977,121.5826642,https://maps.google.com/?cid=0x0:0x88ec4d69e80546d0,
mall,Toko bahan makanan,Tokoh hamida,"WCRP+JJF, Bongkakoi, Kec. Ulubongka, Kabupaten Tojo Una-Una, Sulawesi Tengah 94682","Bongkakoi, Kec. Ulubongka, Kabupaten Tojo Una-Una",SULAWESI TENGAH,94682.0,Indonesia, 082296730181,,,-1.0584364,121.4365521,https://maps.google.com/?cid=0x0:0xffbbcbcf59153094,
mall,Toko,Kiyos mama LEHA,"QHFH+RHQ, Dusun Lintetua Takibangke, Uematopa, Kec. Ulubongka, Kabupaten Tojo Una-Una, Sulawesi Tengah 94682","Dusun Lintetua Takibangke, Uematopa, Kec. Ulubongka, Kabupaten Tojo Una-Una",SULAWESI TENGAH,94682.0,Indonesia,,,,-1.225405,121.5789959,https://maps.google.com/?cid=0x0:0xde439b7043a799,
mall,mall,Sari Mart,"XF4R+PQ3, Jalan Trans-Marowo Desa, Borneang, Kec. Ulubongka, Kabupaten Tojo Una-Una, Sulawesi Tengah 94682","Jalan Trans-Marowo Desa, Borneang, Kec. Ulubongka, Kabupaten Tojo Una-Una",SULAWESI TENGAH,94682.0,Indonesia,,,,-1.0432489,121.4919327,https://maps.google.com/?cid=0x0:0x5470020c3146984e,
mall,Pusat Perbelanjaan,UMNA WOLIO PLAZA,"GJV3+VQ4, umna wolio plaza, Sulawesi Tenggara 93711",umna wolio plaza,SULAWESI TENGAH,93711.0,Indonesia,,,,-5.4553515,122.6044539,https://maps.google.com/?cid=0x0:0xf416e74b3da1f66b,
mall,Pusat Perbelanjaan,Mall Plaza,"FHVW+5Q6, Waborobo, Kec. Betoambari, Kota Bau-Bau, Sulawesi Tenggara 93721","Waborobo, Kec. Betoambari, Kota Bau-Bau",SULAWESI TENGAH,93721.0,Indonesia,,,,-5.507078,122.596901,https://maps.google.com/?cid=0x0:0xb838977c27239e8f,
mall,Perusahaan Ekspedisi,Ekspedisi iska jaya,"GJV3+RJ7, Jl. Yos Sudarso, Sulawesi Tenggara 93717",Jl. Yos Sudarso,SULAWESI TENGAH,93717.0,Indonesia, 081283542252,,,-5.4557538,122.6039568,https://maps.google.com/?cid=0x0:0x148f5831ab145b2a,
mall,Pusat Perbelanjaan,XEIGHT Palu Grand Mall,"Grand Mall, Jl. Cumi-Cumi No.77 LT. GF UNIT G - 0150, BUMI BAHARI, Kec. Palu Bar., Kota Palu, Sulawesi Tengah 94221","Jl. Cumi-Cumi No.77 LT. GF UNIT G - 0150, BUMI BAHARI, Kec. Palu Bar., Kota Palu",SULAWESI TENGAH,94221.0,Indonesia, 04514134547,,,-0.8828723,119.8427211,https://maps.google.com/?cid=0x0:0xd7e6e97d68971afd,
mall,Pusat Perbelanjaan,THE PARK MALL PALU,"4RCP+6RC, Jl. Cumi-Cumi, Silae, Kec. Palu Bar., Kota Palu, Sulawesi Tengah 94227","Jl. Cumi-Cumi, Silae, Kec. Palu Bar., Kota Palu",SULAWESI TENGAH,94227.0,Indonesia, 04317554446,,,-0.8793749,119.8370341,https://maps.google.com/?cid=0x0:0x32487cdfd5e5d75f,
mall,Pusat Perbelanjaan,New Tatura Mall,"3VRG+PFQ, Jl. Emmy Saelan, Lolu Sel., Kec. Palu Sel., Kota Palu, Sulawesi Tengah 94111","Jl. Emmy Saelan, Lolu Sel., Kec. Palu Sel., Kota Palu",SULAWESI TENGAH,94111.0,Indonesia,,,,-0.9081841,119.876252,https://maps.google.com/?cid=0x0:0x49eb3482593ae789,
mall,Pusat Perbelanjaan,UMNA WOLIO PLAZA,"GJV3+VQ4, umna wolio plaza, Sulawesi Tenggara 93711",umna wolio plaza,SULAWESI TENGAH,93711.0,Indonesia,,,,-5.4553515,122.6044539,https://maps.google.com/?cid=0x0:0xf416e74b3da1f66b,
mall,Pusat Perbelanjaan,Mall Plaza,"FHVW+5Q6, Waborobo, Kec. Betoambari, Kota Bau-Bau, Sulawesi Tenggara 93721","Waborobo, Kec. Betoambari, Kota Bau-Bau",SULAWESI TENGAH,93721.0,Indonesia,,,,-5.507078,122.596901,https://maps.google.com/?cid=0x0:0xb838977c27239e8f,
mall,Perusahaan Ekspedisi,Ekspedisi iska jaya,"GJV3+RJ7, Jl. Yos Sudarso, Sulawesi Tenggara 93717",Jl. Yos Sudarso,SULAWESI TENGAH,93717.0,Indonesia, 081283542252,,,-5.4557538,122.6039568,https://maps.google.com/?cid=0x0:0x148f5831ab145b2a,
mall,mall,Walea Besar,"Kabupaten Tojo Una-Una, Sulawesi Tengah","Kabupaten Tojo Una-Una, Sulawesi Tengah",SULAWESI TENGAH,,Indonesia,,,,-0.2611041,122.3220894,https://maps.google.com/?cid=0x0:0xf030bfcad7659f0,
mall,Pusat Perbelanjaan,XEIGHT Palu Grand Mall,"Grand Mall, Jl. Cumi-Cumi No.77 LT. GF UNIT G - 0150, BUMI BAHARI, Kec. Palu Bar., Kota Palu, Sulawesi Tengah 94221","Jl. Cumi-Cumi No.77 LT. GF UNIT G - 0150, BUMI BAHARI, Kec. Palu Bar., Kota Palu",SULAWESI TENGAH,94221.0,Indonesia, 04514134547,,,-0.8828723,119.8427211,https://maps.google.com/?cid=0x0:0xd7e6e97d68971afd,
mall,Pusat Perbelanjaan,THE PARK MALL PALU,"4RCP+6RC, Jl. Cumi-Cumi, Silae, Kec. Palu Bar., Kota Palu, Sulawesi Tengah 94227","Jl. Cumi-Cumi, Silae, Kec. Palu Bar., Kota Palu",SULAWESI TENGAH,94227.0,Indonesia, 04317554446,,,-0.8793749,119.8370341,https://maps.google.com/?cid=0x0:0x32487cdfd5e5d75f,
mall,Pusat Perbelanjaan,UMNA WOLIO PLAZA,"GJV3+VQ4, umna wolio plaza, Sulawesi Tenggara 93711",umna wolio plaza,SULAWESI TENGAH,93711.0,Indonesia,,,,-5.4553515,122.6044539,https://maps.google.com/?cid=0x0:0xf416e74b3da1f66b,
mall,Pusat Perbelanjaan,Mall Plaza,"FHVW+5Q6, Waborobo, Kec. Betoambari, Kota Bau-Bau, Sulawesi Tenggara 93721","Waborobo, Kec. Betoambari, Kota Bau-Bau",SULAWESI TENGAH,93721.0,Indonesia,,,,-5.507078,122.596901,https://maps.google.com/?cid=0x0:0xb838977c27239e8f,
mall,Perusahaan Ekspedisi,Ekspedisi iska jaya,"GJV3+RJ7, Jl. Yos Sudarso, Sulawesi Tenggara 93717",Jl. Yos Sudarso,SULAWESI TENGAH,93717.0,Indonesia, 081283542252,,,-5.4557538,122.6039568,https://maps.google.com/?cid=0x0:0x148f5831ab145b2a,
mall,mall,Kec. Walea Kepulauan,"Kabupaten Tojo Una-Una, Sulawesi Tengah","Kabupaten Tojo Una-Una, Sulawesi Tengah",SULAWESI TENGAH,,Indonesia,,,,-0.330267,122.0947725,https://maps.google.com/?cid=0x0:0xaa230538b3a05de9,
supermarket,supermarket,Sulawesi Tengah 94361,"Kabupaten Sigi, Sulawesi Tengah","Kabupaten Sigi, Sulawesi Tengah",SULAWESI TENGAH,,Indonesia,,,,-1.23459,119.9046594,https://maps.google.com/?cid=0x0:0x4f531feacb3953e3,
supermarket,Toko Swalayan,Kios Viffal,"Wisolo, Kec. Dolo Sel., Kabupaten Sigi, Sulawesi Tengah 94362","Kec. Dolo Sel., Kabupaten Sigi",SULAWESI TENGAH,94362.0,Indonesia, 0895320222858,,,-1.122846,119.8769465,https://maps.google.com/?cid=0x0:0x197fdc433a6e3f49,
supermarket,Minimarket,AZ Mini Mart,"XVWQ+7JG, Jl. Dolo Sidera, Potoya, Kec. Dolo, Kabupaten Sigi, Sulawesi Tengah 94362","Jl. Dolo Sidera, Potoya, Kec. Dolo, Kabupaten Sigi",SULAWESI TENGAH,94362.0,Indonesia,,,,-1.0043051,119.8890907,https://maps.google.com/?cid=0x0:0x9b4d0f8b5920abbf,
supermarket,supermarket,Dolo,"Kotarindau, Kec. Dolo, Kabupaten Sigi, Sulawesi Tengah","Kabupaten Sigi, Sulawesi Tengah",SULAWESI TENGAH,,Indonesia,,,,-0.990628,119.878098,https://maps.google.com/?cid=0x0:0x5c92b62bdcba4dae,
supermarket,Toko Makanan,Distributor Frozen food bogor,"Pilar 1, Jalan, RT.02/RW.06, Sindangbarang, Bogor Barat, Bogor City, West Java 16117","Jalan, RT.02/RW.06, Sindangbarang, Bogor Barat, Bogor City",SULAWESI TENGAH,16117.0,Indonesia, 085772936818,,,-6.5749213,106.7615543,https://maps.google.com/?cid=0x0:0x40094597443560d1,
supermarket,Toko Buah dan Sayuran,Serba Durian Citeureup,"Jl. Lanbau kp liobaru No.rt01/03, Sanja, Kec. Citeureup, Kabupaten Bogor, Jawa Barat 16818","Sanja, Kec. Citeureup, Kabupaten Bogor",SULAWESI TENGAH,16818.0,Indonesia, 087874153638,,,-6.4956348,106.8615691,https://maps.google.com/?cid=0x0:0x29a9a05378d3da62,
supermarket,supermarket,Sulawesi Tengah 94684,"Kec. Ampana Tete, Kabupaten Tojo Una-Una, Sulawesi Tengah","Kabupaten Tojo Una-Una, Sulawesi Tengah",SULAWESI TENGAH,,Indonesia,,,,-1.06437,121.6739371,https://maps.google.com/?cid=0x0:0x395f26e16da414ae,
supermarket,Restoran,OKe Mart,"4HHM+J65, Uentanaga Bawah, Kec. Ampana Kota, Kabupaten Tojo Una-Una, Sulawesi Tengah 94683","Uentanaga Bawah, Kec. Ampana Kota, Kabupaten Tojo Una-Una",SULAWESI TENGAH,94683.0,Indonesia,,,,-0.8709921,121.5831105,https://maps.google.com/?cid=0x0:0x2cd90e49643c8055,
supermarket,Toko Swalayan,Mega Mart,"Jl. Pulau Papan No.6, Uentanaga Bawah, Kec. Ampana Kota, Kabupaten Tojo Una-Una, Sulawesi Tengah 94683","Uentanaga Bawah, Kec. Ampana Kota, Kabupaten Tojo Una-Una",SULAWESI TENGAH,94683.0,Indonesia, 046422128,,,-0.8689669,121.584646,https://maps.google.com/?cid=0x0:0x80e265648553d828,
supermarket,Toko Perlengkapan Rumah,Swalayan Berkat Jaya,"4HHM+VFX, Jl. Moh. Hatta, Uentanaga Bawah, Kec. Ampana Kota, Kabupaten Tojo Una-Una, Sulawesi Tengah 94683","Jl. Moh. Hatta, Uentanaga Bawah, Kec. Ampana Kota, Kabupaten Tojo Una-Una",SULAWESI TENGAH,94683.0,Indonesia,,,,-0.8702716,121.5837206,https://maps.google.com/?cid=0x0:0xde6027b61411fe95,
supermarket,Toko Swalayan,Toko Nusantara,"4HJM+F4J, Uentanaga Bawah, Kec. Ampana Kota, Kabupaten Tojo Una-Una, Sulawesi Tengah 94683","Uentanaga Bawah, Kec. Ampana Kota, Kabupaten Tojo Una-Una",SULAWESI TENGAH,94683.0,Indonesia, 046421789,,,-0.8687791,121.5827711,https://maps.google.com/?cid=0x0:0x5cafea685a0fb706,
supermarket,Toko Swalayan,Alfamidi Pusungi,"4JHH+GH9, Pusungi, Kec. Ampana Tete, Kabupaten Tojo Una-Una, Sulawesi Tengah 94684","Pusungi, Kec. Ampana Tete, Kabupaten Tojo Una-Una",SULAWESI TENGAH,94684.0,Indonesia, 081399506288,,,-0.8707098,121.6287901,https://maps.google.com/?cid=0x0:0x7ad425393ff658ba,
supermarket,Minimarket,UD. SULTEMITA,"Jl. Moh. Hatta No.141, Uentanaga Bawah, Kec. Ampana Kota, Kabupaten Tojo Una-Una, Sulawesi Tengah 94683","Uentanaga Bawah, Kec. Ampana Kota, Kabupaten Tojo Una-Una",SULAWESI TENGAH,94683.0,Indonesia, 082259705519,,,-0.8689709,121.5882076,https://maps.google.com/?cid=0x0:0x65b278f540bae290,
supermarket,Toko Swalayan,86 Mart,"3HQF+3QQ, Sansarino, Kec. Ampana Kota, Kabupaten Tojo Una-Una, Sulawesi Tengah 94683","Sansarino, Kec. Ampana Kota, Kabupaten Tojo Una-Una",SULAWESI TENGAH,94683.0,Indonesia,,,,-0.9122977,121.5744864,https://maps.google.com/?cid=0x0:0x871f728dfa030881,
supermarket,Toko Swalayan,Maraja Mart,"4HJC+HM3, Ampana, Kec. Ampana Kota, Kabupaten Tojo Una-Una, Sulawesi Tengah 94683","Ampana, Kec. Ampana Kota, Kabupaten Tojo Una-Una",SULAWESI TENGAH,94683.0,Indonesia, 04642252378,,,-0.8686016,121.5716686,https://maps.google.com/?cid=0x0:0xfaa9958766c0e868,
supermarket,Toko,Herdizkendiz(USBA),"2QG7+XV4, Jl. Trans Sulawesi, Balanggala, Kec. Ampana Tete, Kabupaten Tojo Una-Una, Sulawesi Tengah 94684","Jl. Trans Sulawesi, Balanggala, Kec. Ampana Tete, Kabupaten Tojo Una-Una",SULAWESI TENGAH,94684.0,Indonesia,,,,-0.9726118,121.76471,https://maps.google.com/?cid=0x0:0xe229e0d46ea110a6,
supermarket,Pusat Perbelanjaan,Pasar Rakyat Tete B,"4MF6+MJQ, Tete B, Kec. Ampana Tete, Kabupaten Tojo Una-Una, Sulawesi Tengah 94684","Tete B, Kec. Ampana Tete, Kabupaten Tojo Una-Una",SULAWESI TENGAH,94684.0,Indonesia,,,,-0.875793,121.6615979,https://maps.google.com/?cid=0x0:0x988408a7ff07b18f,
supermarket,Minimarket,Kios Adhe Upik,"4HHP+W7Q, Unnamed Road, Uentanaga Bawah, Kec. Ampana Kota, Kabupaten Tojo Una-Una, Sulawesi Tengah 94683","Unnamed Road, Uentanaga Bawah, Kec. Ampana Kota, Kabupaten Tojo Una-Una",SULAWESI TENGAH,94683.0,Indonesia,,,,-0.8701571,121.5857253,https://maps.google.com/?cid=0x0:0x1034b9d24c0e1219,
supermarket,Minimarket,Dream land,"3HVG+6HV, Sansarino, Kec. Ampana Kota, Kabupaten Tojo Una-Una, Sulawesi Tengah 94683","Sansarino, Kec. Ampana Kota, Kabupaten Tojo Una-Una",SULAWESI TENGAH,94683.0,Indonesia,,,,-0.9068797,121.57642,https://maps.google.com/?cid=0x0:0xd0b46f3f1abb6e1,
supermarket,Toko umum,Kios nanda,"4HJQ+84J, Jl. Moh. Hatta, Uentanaga Bawah, Kec. Ampana Kota, Kabupaten Tojo Una-Una, Sulawesi Tengah 94683","Jl. Moh. Hatta, Uentanaga Bawah, Kec. Ampana Kota, Kabupaten Tojo Una-Una",SULAWESI TENGAH,94683.0,Indonesia,,,,-0.8691691,121.5877636,https://maps.google.com/?cid=0x0:0xd0ddc6045d8321d1,
supermarket,supermarket,TOKO GIENA,"4J49+JX4, RW.Jalur 2, Pusungi, Kec. Ampana Tete, Kabupaten Tojo Una-Una, Sulawesi Tengah 94684","RW.Jalur 2, Pusungi, Kec. Ampana Tete, Kabupaten Tojo Una-Una",SULAWESI TENGAH,94684.0,Indonesia,,,,-0.8928733,121.6195214,https://maps.google.com/?cid=0x0:0x222e30a29e4237e7,
supermarket,Minimarket,ALFAMIDI JENSUD AMPANA,"Jl. Jendral Sudirman No.86, Bailo, Kec. Ampana Kota, Kabupaten Tojo Una-Una, Sulawesi Tengah 94683","Bailo, Kec. Ampana Kota, Kabupaten Tojo Una-Una",SULAWESI TENGAH,94683.0,Indonesia, 082125320136,,,-0.8751433,121.5556499,https://maps.google.com/?cid=0x0:0x118ba19e64a57980,
supermarket,,Depot Air Minum BRO 2,"3HQJ+JQX, Uentanaga Atas, Kec. Ampana Kota, Kabupaten Tojo Una-Una, Sulawesi Tengah 94683","Uentanaga Atas, Kec. Ampana Kota, Kabupaten Tojo Una-Una",SULAWESI TENGAH,94683.0,Indonesia, 085340286341,,,-0.9108802,121.5819816,https://maps.google.com/?cid=0x0:0x695c2f61a9d5ff61,
supermarket,Toko,Kios Rachma,"4HGM+WM4, Uentanaga Atas, Kec. Ampana Kota, Kabupaten Tojo Una-Una, Sulawesi Tengah 94683","Uentanaga Atas, Kec. Ampana Kota, Kabupaten Tojo Una-Una",SULAWESI TENGAH,94683.0,Indonesia, 085757028520,,,-0.8727476,121.5842051,https://maps.google.com/?cid=0x0:0xb38d7447102bbaec,
supermarket,Minimarket,Indomaret Merdeka Ampana,"3HMJ+RP4, Uemalingku, Ratolindo, Kabupaten Tojo Una-Una, Sulawesi Tengah 94683","Uemalingku, Ratolindo, Kabupaten Tojo Una-Una",SULAWESI TENGAH,94683.0,Indonesia,,,,-0.9157879,121.5815601,https://maps.google.com/?cid=0x0:0x975d70aae3d4a902,
supermarket,Minimarket,Toko Fadizar,"Jl. Tanjumbulu No.35, Ampana, Kec. Ampana Kota, Kabupaten Tojo Una-Una, Sulawesi Tengah 94683","Ampana, Kec. Ampana Kota, Kabupaten Tojo Una-Una",SULAWESI TENGAH,94683.0,Indonesia,,,,-0.8721499,121.5752968,https://maps.google.com/?cid=0x0:0xf8a26ee0d3155e23,
supermarket,Pasar Petani,Toko Alam Subur,"4HJM+HH6, Uentanaga Bawah, Kec. Ampana Kota, Kabupaten Tojo Una-Una, Sulawesi Tengah 94683","Uentanaga Bawah, Kec. Ampana Kota, Kabupaten Tojo Una-Una",SULAWESI TENGAH,94683.0,Indonesia,,,,-0.8685776,121.583886,https://maps.google.com/?cid=0x0:0x5eaa12fe9ea30f44,
supermarket,Toko bahan makanan,Shaka Jaya Mart,"Ampana, Kec. Ampana Kota, Kabupaten Tojo Una-Una, Sulawesi Tengah 94683","Kec. Ampana Kota, Kabupaten Tojo Una-Una",SULAWESI TENGAH,94683.0,Indonesia, 085240005331,,,-0.8959903,121.5741676,https://maps.google.com/?cid=0x0:0x84d4c6df2d023948,
supermarket,Pusat Perbelanjaan,GALAXY MART,"4JQ4+842, Jl. Trans Sulawesi, Dondo, Kec. Ampana Kota, Kabupaten Tojo Una-Una, Sulawesi Tengah 94683","Jl. Trans Sulawesi, Dondo, Kec. Ampana Kota, Kabupaten Tojo Una-Una",SULAWESI TENGAH,94683.0,Indonesia, 082296029902,,,-0.8617453,121.6052784,https://maps.google.com/?cid=0x0:0xfe4b131909c78218,
supermarket,Toko,Metro Cellular,"Jl. Moh. Hatta No.117, Uentanaga Bawah, Kec. Ampana Kota, Kabupaten Tojo Una-Una, Sulawesi Tengah 94683","Uentanaga Bawah, Kec. Ampana Kota, Kabupaten Tojo Una-Una",SULAWESI TENGAH,94683.0,Indonesia, 082293274591,,,-0.8698151,121.5853474,https://maps.google.com/?cid=0x0:0x9ba95a354d313594,
supermarket,Minimarket,INDOMARET AHMAD YANI NO.103 TOUNA,"Jl. Tj. Api, Dondo, Kec. Ampana Kota, Kabupaten Tojo Una-Una, Sulawesi Tengah 94683","Dondo, Kec. Ampana Kota, Kabupaten Tojo Una-Una",SULAWESI TENGAH,94683.0,Indonesia,,,,-0.8609997,121.5970444,https://maps.google.com/?cid=0x0:0x7ea0ba8803e9833c,
supermarket,supermarket,Sulawesi Tengah 94221,"Kec. Palu Bar., Kota Palu, Sulawesi Tengah","Kota Palu, Sulawesi Tengah",SULAWESI TENGAH,,Indonesia,,,,-0.8912088,119.8496976,https://maps.google.com/?cid=0x0:0xa023e20d5616ec4f,
supermarket,Pusat Perbelanjaan,Hypermart Palu Grand Mall,"Jl. Diponegoro No.8A, Lere, Kec. Palu Bar., Kota Palu, Sulawesi Tengah 94221","Lere, Kec. Palu Bar., Kota Palu",SULAWESI TENGAH,94221.0,Indonesia, 081312097422,,,-0.8837991,119.8423758,https://maps.google.com/?cid=0x0:0x9567cc1a06bb61e4,
supermarket,Toserba,Zhafira Mart,"Donggala Kodi, Kec. Ulujadi, Kota Palu, Sulawesi Tengah 94111","Kec. Ulujadi, Kota Palu",SULAWESI TENGAH,94111.0,Indonesia,,,,-0.8978818,119.8505976,https://maps.google.com/?cid=0x0:0x619a5da9b6fc2354,
supermarket,Toko Swalayan,Delmart Swalayan,"4R5W+R85, Bar., Lere, Kec. Palu Bar., Kota Palu, Sulawesi Tengah 94221","Bar., Lere, Kec. Palu Bar., Kota Palu",SULAWESI TENGAH,94221.0,Indonesia,,,,-0.8904921,119.845854,https://maps.google.com/?cid=0x0:0x9626ee3b59cf70b8,
supermarket,Toko,Swalayan Amar Palupi,"3VC4+9QJ, Palupi, Kec. Tatanga, Kota Palu, Sulawesi Tengah 94222","Palupi, Kec. Tatanga, Kota Palu",SULAWESI TENGAH,94222.0,Indonesia,,,,-0.9290282,119.8568866,https://maps.google.com/?cid=0x0:0xe8d8177a1b4e63a1,
supermarket,Pusat Perbelanjaan,Swalayan Amar Kabonena,"4R4P+6CH, Jl. Munif Rahman, Kabonena, Kec. Palu Bar., Kota Palu, Sulawesi Tengah 94111","Jl. Munif Rahman, Kabonena, Kec. Palu Bar., Kota Palu",SULAWESI TENGAH,94111.0,Indonesia,,,,-0.8944487,119.8360948,https://maps.google.com/?cid=0x0:0xda93496757ced3c,
supermarket,Toko bahan makanan,Mini Market FQQ,"4R7R+FJM, Lere, Kec. Palu Bar., Kota Palu, Sulawesi Tengah 94221","Lere, Kec. Palu Bar., Kota Palu",SULAWESI TENGAH,94221.0,Indonesia,,,,-0.8862773,119.8415507,https://maps.google.com/?cid=0x0:0x69d228839d4885fa,
supermarket,Toko Swalayan,Kios Tornado,"4V53+GC4, Jl. Diponegoro, Lere, Kec. Palu Bar., Kota Palu, Sulawesi Tengah 94221","Jl. Diponegoro, Lere, Kec. Palu Bar., Kota Palu",SULAWESI TENGAH,94221.0,Indonesia, 083133015609,,,-0.8912262,119.8535878,https://maps.google.com/?cid=0x0:0xe02d4daef525c42a,
supermarket,Toko bahan makanan,Swalayan Akbar,"4R9P+Q75, Jl. Munif Rahman, Silae, Kec. Palu Bar., Kota Palu, Sulawesi Tengah 94227","Jl. Munif Rahman, Silae, Kec. Palu Bar., Kota Palu",SULAWESI TENGAH,94227.0,Indonesia,,,,-0.8806169,119.8357334,https://maps.google.com/?cid=0x0:0x9ba756260359e434,
supermarket,Toko Swalayan,Seven Mart,"Jl. I Gusti Ngurah Rai No.77, Tawanjuka, Kec. Palu Sel., Kota Palu, Sulawesi Tengah 94111","Tawanjuka, Kec. Palu Sel., Kota Palu",SULAWESI TENGAH,94111.0,Indonesia,,,,-0.9227722,119.8643451,https://maps.google.com/?cid=0x0:0xf6f567a3e7ac003b,
supermarket,Toko Swalayan,E-Warong Anontodea,"Jl. Sultan Alaudin No.1, RW.No. 01, Donggala Kodi, Kec. Ulujadi, Kota Palu, Sulawesi Tengah 94111","RW.No. 01, Donggala Kodi, Kec. Ulujadi, Kota Palu",SULAWESI TENGAH,94111.0,Indonesia,,,,-0.9002087,119.8393132,https://maps.google.com/?cid=0x0:0xfedb78c3a79e7da9,
supermarket,Toko Swalayan,X9 supermarket lebih lengkap,"4V57+7QG, Besusu Bar., Kec. Palu Tim., Kota Palu, Sulawesi Tengah","Kota Palu, Sulawesi Tengah",SULAWESI TENGAH,,Indonesia,,,,-0.8918233,119.8644568,https://maps.google.com/?cid=0x0:0xb52339dc403f2a4,
supermarket,Toko,Toko Family,"4V35+4CM, Jl. Siranindi, Siranindi, Kec. Palu Bar., Kota Palu, Sulawesi Tengah 94111","Jl. Siranindi, Siranindi, Kec. Palu Bar., Kota Palu",SULAWESI TENGAH,94111.0,Indonesia, 082240000837,,,-0.8971643,119.8585507,https://maps.google.com/?cid=0x0:0x3faf42fc6bc9cda8,
supermarket,Toko Swalayan,Kios Tiga Saudara,"Jl. Pue Bongo No.68, Pengawu, Kec. Tatanga, Kota Palu, Sulawesi Tengah 94222","Pengawu, Kec. Tatanga, Kota Palu",SULAWESI TENGAH,94222.0,Indonesia, 082193480592,,,-0.92139,119.8564117,https://maps.google.com/?cid=0x0:0xb96d0bb025278a40,
supermarket,Toko Swalayan,Swalayan BMS Pengawu,"3RGV+RWC, Duyu, Kec. Tatanga, Kota Palu, Sulawesi Tengah","Kota Palu, Sulawesi Tengah",SULAWESI TENGAH,,Indonesia,,,,-0.9229332,119.8447576,https://maps.google.com/?cid=0x0:0xd756beeb6f3774bf,
supermarket,Minimarket,Alfamidi Tanjung Santigi,"Jl. Tj. Santigi No.6A, Lolu Sel., Kec. Palu Tim., Kota Palu, Sulawesi Tengah 94235","Lolu Sel., Kec. Palu Tim., Kota Palu",SULAWESI TENGAH,94235.0,Indonesia,,,,-0.90288,119.875361,https://maps.google.com/?cid=0x0:0x36c1bcc7aa4133c0,
supermarket,Minimarket,Toko Eshan,"4R2X+Q3J, Bar., Donggala Kodi, Kec. Palu Bar., Kota Palu, Sulawesi Tengah 94111","Bar., Donggala Kodi, Kec. Palu Bar., Kota Palu",SULAWESI TENGAH,94111.0,Indonesia, 081354771116,,,-0.8980342,119.8476326,https://maps.google.com/?cid=0x0:0x53abf28de56944f4,
supermarket,Toko Kue,BINTANG BAKERY,"3VX4+WG8, Kamonji, Kec. Palu Bar., Kota Palu, Sulawesi Tengah 94111","Kamonji, Kec. Palu Bar., Kota Palu",SULAWESI TENGAH,94111.0,Indonesia, 082188190103,,,-0.9002144,119.8563304,https://maps.google.com/?cid=0x0:0x9c48785296b55c6,
supermarket,Toko Pakaian,A' Three Mart,"4V6Q+4MV, Jl. Lagarutu, Talise, Kec. Mantikulore, Kota Palu, Sulawesi Tengah 94118","Jl. Lagarutu, Talise, Kec. Mantikulore, Kota Palu",SULAWESI TENGAH,94118.0,Indonesia,,,,-0.8896435,119.8891619,https://maps.google.com/?cid=0x0:0x23eee71a5126a463,
supermarket,Toko,Cemara Swalayan,"Jl. Setia Budi No.36, Besusu Tengah, Kec. Palu Tim., Kota Palu, Sulawesi Tengah 94118","Besusu Tengah, Kec. Palu Tim., Kota Palu",SULAWESI TENGAH,94118.0,Indonesia, 082129089434,,,-0.8889602,119.8788128,https://maps.google.com/?cid=0x0:0x4147d219667a4674,
supermarket,Toko Swalayan,Swalayan Ganesha,"3VF4+3FW, Jl. Poros Palu Bangga, Palupi, Kec. Tatanga, Kota Palu, Sulawesi Tengah 94222","Jl. Poros Palu Bangga, Palupi, Kec. Tatanga, Kota Palu",SULAWESI TENGAH,94222.0,Indonesia,,,,-0.9272713,119.8561982,https://maps.google.com/?cid=0x0:0x84914685b537bd0f,
supermarket,Toko bahan makanan,As'Syifa Mart,"Jl. Malontara, Pengawu, Kec. Tatanga, Kota Palu, Sulawesi Tengah 94221","Pengawu, Kec. Tatanga, Kota Palu",SULAWESI TENGAH,94221.0,Indonesia, 085241367480,,,-0.9309681,119.8440876,https://maps.google.com/?cid=0x0:0xc754eb1edc93d9e4,
supermarket,Pusat Perbelanjaan,PT. Palu Mitra Utama,"Jl. Wolter Monginsidi No.33, Lolu Utara, Kec. Palu Tim., Kota Palu, Sulawesi Tengah 94112","Lolu Utara, Kec. Palu Tim., Kota Palu",SULAWESI TENGAH,94112.0,Indonesia, 0451424331,,,-0.9006466,119.8739108,https://maps.google.com/?cid=0x0:0x7f5c18bf17ca15de,
supermarket,Pusat Perbelanjaan,Bumi Nyiur Swalayan,"Jl. Letjen Jl. S. Parman No.44 lt.3, Besusu Tengah, Palu Timur, Palu City, Central Sulawesi 94111","Besusu Tengah, Palu Timur, Palu City",SULAWESI TENGAH,94111.0,Indonesia,,,,-0.8886556,119.8781443,https://maps.google.com/?cid=0x0:0xc91b8a1d69958b17,
supermarket,Toko Swalayan,E-Warong Depot Sarara,"3R9V+JQJ, Jl. Malontara, Pengawu, Kec. Tatanga, Kota Palu, Sulawesi Tengah 94221","Jl. Malontara, Pengawu, Kec. Tatanga, Kota Palu",SULAWESI TENGAH,94221.0,Indonesia,,,,-0.9309115,119.8443804,https://maps.google.com/?cid=0x0:0xb573bef30c0d94b7,
supermarket,Toko bahan makanan,Alfamidi Datu Adam,"4R5W+2XX, Jl. Datu Adam, Lere, Kec. Palu Bar., Kota Palu, Sulawesi Tengah 94221","Jl. Datu Adam, Lere, Kec. Palu Bar., Kota Palu",SULAWESI TENGAH,94221.0,Indonesia,,,,-0.8923811,119.8474942,https://maps.google.com/?cid=0x0:0xb81fbcff3b0d9137,
supermarket,Agen Properti,Tanah Mas Celebes Indah. PT,"Jl. Nangka No.2, Kamonji, Kec. Palu Bar., Kota Palu, Sulawesi Tengah 94111","Kamonji, Kec. Palu Bar., Kota Palu",SULAWESI TENGAH,94111.0,Indonesia, 0451453266,,,-0.8997939,119.8531668,https://maps.google.com/?cid=0x0:0xdacf439e211844ec,
supermarket,Toko umum,Kios Fathir,"4R2W+26Q, Donggala Kodi, Kec. Palu Bar., Kota Palu, Sulawesi Tengah 94111","Donggala Kodi, Kec. Palu Bar., Kota Palu",SULAWESI TENGAH,94111.0,Indonesia,,,,-0.8999061,119.8456217,https://maps.google.com/?cid=0x0:0xb9edf53455cbbb0f,
supermarket,Toko bahan makanan,Alfamidi Wahid Hasyim,"Jl. Teuku Umar No.1, Baru, Kec. Palu Bar., Kota Palu, Sulawesi Tengah 94221","Baru, Kec. Palu Bar., Kota Palu",SULAWESI TENGAH,94221.0,Indonesia,,,,-0.8932973,119.8597217,https://maps.google.com/?cid=0x0:0x2ab37639e057b774,
supermarket,supermarket,Sulawesi Tengah 94222,Sulawesi Tengah,Sulawesi Tengah,SULAWESI TENGAH,,Indonesia,,,,-0.9471477,119.8641634,https://maps.google.com/?cid=0x0:0xbac940530ed27252,
supermarket,Toko Swalayan,Swalayan Ganesha,"3VF4+3FW, Jl. Poros Palu Bangga, Palupi, Kec. Tatanga, Kota Palu, Sulawesi Tengah 94222","Jl. Poros Palu Bangga, Palupi, Kec. Tatanga, Kota Palu",SULAWESI TENGAH,94222.0,Indonesia,,,,-0.9272713,119.8561982,https://maps.google.com/?cid=0x0:0x84914685b537bd0f,
supermarket,Toko,Swalayan Amar Palupi,"3VC4+9QJ, Palupi, Kec. Tatanga, Kota Palu, Sulawesi Tengah 94222","Palupi, Kec. Tatanga, Kota Palu",SULAWESI TENGAH,94222.0,Indonesia,,,,-0.9290282,119.8568866,https://maps.google.com/?cid=0x0:0xe8d8177a1b4e63a1,
supermarket,Toko Swalayan,Seven Mart,"Jl. I Gusti Ngurah Rai No.77, Tawanjuka, Kec. Palu Sel., Kota Palu, Sulawesi Tengah 94111","Tawanjuka, Kec. Palu Sel., Kota Palu",SULAWESI TENGAH,94111.0,Indonesia,,,,-0.9227722,119.8643451,https://maps.google.com/?cid=0x0:0xf6f567a3e7ac003b,
supermarket,Toko bahan makanan,KIOS DIANA,"Jl. Padat Karya, BTN Palupi Block V1B No.04 Palu, 94238, Palupi, Kec. Tatanga, Kota Palu, Sulawesi Tengah 94222","BTN Palupi Block V1B No.04 Palu, 94238, Palupi, Kec. Tatanga, Kota Palu",SULAWESI TENGAH,94222.0,Indonesia, 082291672677,,,-0.9328742,119.8581024,https://maps.google.com/?cid=0x0:0xc59f49445331189d,
supermarket,Toko Swalayan,Swalayan BMS Pengawu,"3RGV+RWC, Duyu, Kec. Tatanga, Kota Palu, Sulawesi Tengah","Kota Palu, Sulawesi Tengah",SULAWESI TENGAH,,Indonesia,,,,-0.9229332,119.8447576,https://maps.google.com/?cid=0x0:0xd756beeb6f3774bf,
supermarket,Toko makanan beku,Cece Lalove,"3VP8+VFP, Jl. Bungi Indah, Nunu, Kec. Tatanga, Kota Palu, Sulawesi Tengah 94111","Jl. Bungi Indah, Nunu, Kec. Tatanga, Kota Palu",SULAWESI TENGAH,94111.0,Indonesia, 0811414904,,,-0.9127997,119.8662082,https://maps.google.com/?cid=0x0:0xed219ee106dd7088,
supermarket,Toko Swalayan,All swalayan,"3VH6+235, Jl. I Gusti Ngurah Rai, Palupi, Kec. Palu Sel., Kota Palu, Sulawesi Tengah 94222","Jl. I Gusti Ngurah Rai, Palupi, Kec. Palu Sel., Kota Palu",SULAWESI TENGAH,94222.0,Indonesia,,,,-0.9224784,119.8602189,https://maps.google.com/?cid=0x0:0xd5b5f4f7e4c15d65,
supermarket,Minimarket,"Halal Mart, BTN TANGARAVA","3VH2+J7H, Pengawu, Kec. Palu Sel., Kota Palu, Sulawesi Tengah 94222","Pengawu, Kec. Palu Sel., Kota Palu",SULAWESI TENGAH,94222.0,Indonesia,,,,-0.9209449,119.8507362,https://maps.google.com/?cid=0x0:0x47b0aaa97ff142eb,
supermarket,Minimarket,Kios Ichal,"3VH4+FGC, Jl. Pue Bongo, Pengawu, Kec. Palu Sel., Kota Palu, Sulawesi Tengah 94222","Jl. Pue Bongo, Pengawu, Kec. Palu Sel., Kota Palu",SULAWESI TENGAH,94222.0,Indonesia, 082193247183,,,-0.9213008,119.8562663,https://maps.google.com/?cid=0x0:0x8970567048b5bf61,
supermarket,Toko Swalayan,E-Warong Depot Sarara,"3R9V+JQJ, Jl. Malontara, Pengawu, Kec. Tatanga, Kota Palu, Sulawesi Tengah 94221","Jl. Malontara, Pengawu, Kec. Tatanga, Kota Palu",SULAWESI TENGAH,94221.0,Indonesia,,,,-0.9309115,119.8443804,https://maps.google.com/?cid=0x0:0xb573bef30c0d94b7,
supermarket,Toko Swalayan,Fadhilah shop,"3VF4+45F, Palupi, Kec. Palu Sel., Kota Palu, Sulawesi Tengah 94222","Palupi, Kec. Palu Sel., Kota Palu",SULAWESI TENGAH,94222.0,Indonesia, 08124251952,,,-0.92718,119.8554362,https://maps.google.com/?cid=0x0:0xfaf32074a8fc4980,
supermarket,Nasi,Hope Kitchen,"Jl. Paramedis Raya No.05 Blok L1, Palupi, Kec. Palu Sel., Kota Palu, Sulawesi Tengah 94222","Palupi, Kec. Palu Sel., Kota Palu",SULAWESI TENGAH,94222.0,Indonesia, 085942928160,,,-0.931607,119.8595777,https://maps.google.com/?cid=0x0:0x96eb5530d8465e3f,
supermarket,Minimarket,Alfamidi Tanjung Santigi,"Jl. Tj. Santigi No.6A, Lolu Sel., Kec. Palu Tim., Kota Palu, Sulawesi Tengah 94235","Lolu Sel., Kec. Palu Tim., Kota Palu",SULAWESI TENGAH,94235.0,Indonesia,,,,-0.90288,119.875361,https://maps.google.com/?cid=0x0:0x36c1bcc7aa4133c0,
supermarket,Rumah Kayu,Swalayan Santika,"no 36A2 RT 002/002, Jl. Banteng, Birobuli Sel., Kec. Palu Sel., Kota Palu, Sulawesi Tengah 94235","Jl. Banteng, Birobuli Sel., Kec. Palu Sel., Kota Palu",SULAWESI TENGAH,94235.0,Indonesia,,,,-0.9305061,119.8904226,https://maps.google.com/?cid=0x0:0xc67d34f8d582c67e,
supermarket,Minimarket,Alfamidi Emmy Saelan,"3VMG+JJX, Jl. Emmy Saelan, Tatura Utara, Kec. Palu Sel., Kota Palu, Sulawesi Tengah 94236","Jl. Emmy Saelan, Tatura Utara, Kec. Palu Sel., Kota Palu",SULAWESI TENGAH,94236.0,Indonesia, 082196940759,,,-0.9158847,119.8765958,https://maps.google.com/?cid=0x0:0xb74395adf471a55b,
supermarket,Toko Swalayan,Grand Hero Swalayan,"Jl. Jenderal Basuki Rahmat No.31, Tatura Sel., Kec. Palu Sel., Kota Palu, Sulawesi Tengah 94111","Tatura Sel., Kec. Palu Sel., Kota Palu",SULAWESI TENGAH,94111.0,Indonesia, 0451481451,,,-0.9187004,119.8796472,https://maps.google.com/?cid=0x0:0xb9406a15fa1dd6dc,
supermarket,Toko bahan makanan,Swalayan Al-Khairaat,"3VR4+J5P, Bar, Boyaoge, Kec. Palu Bar., Kota Palu, Sulawesi Tengah 94111","Bar, Boyaoge, Kec. Palu Bar., Kota Palu",SULAWESI TENGAH,94111.0,Indonesia,,,,-0.9084131,119.8554457,https://maps.google.com/?cid=0x0:0x731c8d2f3dff9bba,
supermarket,Toko bahan makanan,As'Syifa Mart,"Jl. Malontara, Pengawu, Kec. Tatanga, Kota Palu, Sulawesi Tengah 94221","Pengawu, Kec. Tatanga, Kota Palu",SULAWESI TENGAH,94221.0,Indonesia, 085241367480,,,-0.9309681,119.8440876,https://maps.google.com/?cid=0x0:0xc754eb1edc93d9e4,
supermarket,Toko Swalayan,Fatima,"3VW4+937, Jl. Sukun, Kamonji, Kec. Palu Bar., Kota Palu, Sulawesi Tengah 94111","Jl. Sukun, Kamonji, Kec. Palu Bar., Kota Palu",SULAWESI TENGAH,94111.0,Indonesia,,,,-0.904081,119.8551776,https://maps.google.com/?cid=0x0:0x1ad303a877ab9148,
supermarket,Komplek perumahan,Alfamidi Towua,"Jl. Towua, Tatura Sel., Kec. Palu Sel., Kota Palu, Sulawesi Tengah 94111","Tatura Sel., Kec. Palu Sel., Kota Palu",SULAWESI TENGAH,94111.0,Indonesia, 085341422103,,,-0.9253735,119.8803481,https://maps.google.com/?cid=0x0:0x2dcc3379e3a45f0,
supermarket,Kios,Toko Kita,"Tondo, Kec. Palu Tim., Kota Palu, Sulawesi Tengah","Kota Palu, Sulawesi Tengah",SULAWESI TENGAH,,Indonesia, 081354666803,,,-0.833055,119.8861405,https://maps.google.com/?cid=0x0:0x6ee4d07a5263148b,
supermarket,Toko Swalayan,Swalayan Fitrah,"3VCW+JGM, Jl. Dewi Sartika, Birobuli Sel., Kec. Palu Sel., Kota Palu, Sulawesi Tengah 94235","Jl. Dewi Sartika, Birobuli Sel., Kec. Palu Sel., Kota Palu",SULAWESI TENGAH,94235.0,Indonesia, 088896885977,,,-0.9284144,119.896285,https://maps.google.com/?cid=0x0:0x58b75f29b110197f,
supermarket,Layanan Binatu,Resique Supermarket Laundry Palu,"Jl. Dewi Sartika No.56, Birobuli Utara, Kec. Palu Sel., Kota Palu, Sulawesi Tengah 94231","Birobuli Utara, Kec. Palu Sel., Kota Palu",SULAWESI TENGAH,94231.0,Indonesia, 085215881133,,,-0.9229655,119.8943329,https://maps.google.com/?cid=0x0:0x72f71bcb1dbc7b02,
supermarket,Pusat Perbelanjaan,Hypermart Palu Grand Mall,"Jl. Diponegoro No.8A, Lere, Kec. Palu Bar., Kota Palu, Sulawesi Tengah 94221","Lere, Kec. Palu Bar., Kota Palu",SULAWESI TENGAH,94221.0,Indonesia, 081312097422,,,-0.8837991,119.8423758,https://maps.google.com/?cid=0x0:0x9567cc1a06bb61e4,
supermarket,Kantor Perusahaan,Jrs Murah Rak Supermarket Palu,"Jl. Tj. Santigi No.02, Kel, Lolu Sel., Kec. Palu Tim., Kota Palu, Sulawesi Tengah 94112","Kel, Lolu Sel., Kec. Palu Tim., Kota Palu",SULAWESI TENGAH,94112.0,Indonesia, 081249880451,,,-0.9065602,119.8767279,https://maps.google.com/?cid=0x0:0xd5353e3412c694a,
supermarket,Minimarket,Toko Heang,"3VW7+MCC, Jl. Sungai Lariang, Kalikoa, Ujuna, Kec. Palu Bar., Kota Palu, Sulawesi Tengah 94222","Jl. Sungai Lariang, Kalikoa, Ujuna, Kec. Palu Bar., Kota Palu",SULAWESI TENGAH,94222.0,Indonesia,,,,-0.903306,119.8635214,https://maps.google.com/?cid=0x0:0xc5bb97b30bbdb397,
supermarket,supermarket,Kios mama eva,"BTN Palupi Permai, Jl. Raya Palupi No.3 Block L1, Mas, Kec. Tatanga, Kota Palu, Sulawesi Tengah 94222","Jl. Raya Palupi No.3 Block L1, Mas, Kec. Tatanga, Kota Palu",SULAWESI TENGAH,94222.0,Indonesia,,,,-0.9315502,119.8598531,https://maps.google.com/?cid=0x0:0x9f2a8d99fb15541f,
supermarket,Minimarket,Kios Anissa,"BTN PENGAWU BLOK P1 NO 6, Pengawu, Kec. Tatanga, Kota Palu, Sulawesi Tengah 94222","Pengawu, Kec. Tatanga, Kota Palu",SULAWESI TENGAH,94222.0,Indonesia, 08114583769,,,-0.9259447,119.8484326,https://maps.google.com/?cid=0x0:0x5528cd97cf2eb4b7,
supermarket,supermarket,Sulawesi Tengah 94225,"Kabupaten Sigi, Sulawesi Tengah","Kabupaten Sigi, Sulawesi Tengah",SULAWESI TENGAH,,Indonesia,,,,-0.9727709,119.7947139,https://maps.google.com/?cid=0x0:0x24ce1cc8904f7ae5,
supermarket,Toko,Swalayan Amar Palupi,"3VC4+9QJ, Palupi, Kec. Tatanga, Kota Palu, Sulawesi Tengah 94222","Palupi, Kec. Tatanga, Kota Palu",SULAWESI TENGAH,94222.0,Indonesia,,,,-0.9290282,119.8568866,https://maps.google.com/?cid=0x0:0xe8d8177a1b4e63a1,
supermarket,Kios,Toko Kita,"Tondo, Kec. Palu Tim., Kota Palu, Sulawesi Tengah","Kota Palu, Sulawesi Tengah",SULAWESI TENGAH,,Indonesia, 081354666803,,,-0.833055,119.8861405,https://maps.google.com/?cid=0x0:0x6ee4d07a5263148b,
supermarket,supermarket,Kios Sangata,"Jalan Tadulako (Depan SD Inpres Porame) Porame, Kinovaro RT 03 RW 03, Porame, Kinovaro, Sigi Regency, Central Sulawesi 94362","Kinovaro RT 03 RW 03, Porame, Kinovaro, Sigi Regency",SULAWESI TENGAH,94362.0,Indonesia, 081937256492,,,-0.9568406,119.834611,https://maps.google.com/?cid=0x0:0xe86baba70bae5be9,
supermarket,supermarket,Sulawesi Tengah 94237,"Kec. Marawola, Kabupaten Sigi, Sulawesi Tengah","Kabupaten Sigi, Sulawesi Tengah",SULAWESI TENGAH,,Indonesia,,,,-0.9616704,119.8670563,https://maps.google.com/?cid=0x0:0xfcf6e79665085f54,
supermarket,Toko,Swalayan Amar Palupi,"3VC4+9QJ, Palupi, Kec. Tatanga, Kota Palu, Sulawesi Tengah 94222","Palupi, Kec. Tatanga, Kota Palu",SULAWESI TENGAH,94222.0,Indonesia,,,,-0.9290282,119.8568866,https://maps.google.com/?cid=0x0:0xe8d8177a1b4e63a1,
supermarket,Toko Swalayan,Seven Mart,"Jl. I Gusti Ngurah Rai No.77, Tawanjuka, Kec. Palu Sel., Kota Palu, Sulawesi Tengah 94111","Tawanjuka, Kec. Palu Sel., Kota Palu",SULAWESI TENGAH,94111.0,Indonesia,,,,-0.9227722,119.8643451,https://maps.google.com/?cid=0x0:0xf6f567a3e7ac003b,
supermarket,Toko bahan makanan,Kios adhy,"2VM3+FWF, Jl. Poros Palu Bangga, Padende, Kec. Marawola, Kabupaten Sigi, Sulawesi Tengah 94237","Jl. Poros Palu Bangga, Padende, Kec. Marawola, Kabupaten Sigi",SULAWESI TENGAH,94237.0,Indonesia,,,,-0.9663052,119.8548041,https://maps.google.com/?cid=0x0:0x529170bace57341c,
supermarket,Toko bahan makanan,Amar 2 Mini Swalayan,"2VGJ+R6H, Jl. Habib Moh. Al-Jufri, Kabobona, Kec. Dolo, Kabupaten Sigi, Sulawesi Tengah 94361","Jl. Habib Moh. Al-Jufri, Kabobona, Kec. Dolo, Kabupaten Sigi",SULAWESI TENGAH,94361.0,Indonesia,,,,-0.9729444,119.8806131,https://maps.google.com/?cid=0x0:0x6cb1af0ed630f3fc,
supermarket,Toko Swalayan,Grand Hero Swalayan,"Jl. Jenderal Basuki Rahmat No.31, Tatura Sel., Kec. Palu Sel., Kota Palu, Sulawesi Tengah 94111","Tatura Sel., Kec. Palu Sel., Kota Palu",SULAWESI TENGAH,94111.0,Indonesia, 0451481451,,,-0.9187004,119.8796472,https://maps.google.com/?cid=0x0:0xb9406a15fa1dd6dc,
supermarket,Toko bahan makanan,KIOS DIANA,"Jl. Padat Karya, BTN Palupi Block V1B No.04 Palu, 94238, Palupi, Kec. Tatanga, Kota Palu, Sulawesi Tengah 94222","BTN Palupi Block V1B No.04 Palu, 94238, Palupi, Kec. Tatanga, Kota Palu",SULAWESI TENGAH,94222.0,Indonesia, 082291672677,,,-0.9328742,119.8581024,https://maps.google.com/?cid=0x0:0xc59f49445331189d,
supermarket,Toko Pakaian,A' Three Mart,"4V6Q+4MV, Jl. Lagarutu, Talise, Kec. Mantikulore, Kota Palu, Sulawesi Tengah 94118","Jl. Lagarutu, Talise, Kec. Mantikulore, Kota Palu",SULAWESI TENGAH,94118.0,Indonesia,,,,-0.8896435,119.8891619,https://maps.google.com/?cid=0x0:0x23eee71a5126a463,
supermarket,Kios,Toko Kita,"Tondo, Kec. Palu Tim., Kota Palu, Sulawesi Tengah","Kota Palu, Sulawesi Tengah",SULAWESI TENGAH,,Indonesia, 081354666803,,,-0.833055,119.8861405,https://maps.google.com/?cid=0x0:0x6ee4d07a5263148b,
supermarket,Pusat Perbelanjaan,Hypermart Palu Grand Mall,"Jl. Diponegoro No.8A, Lere, Kec. Palu Bar., Kota Palu, Sulawesi Tengah 94221","Lere, Kec. Palu Bar., Kota Palu",SULAWESI TENGAH,94221.0,Indonesia, 081312097422,,,-0.8837991,119.8423758,https://maps.google.com/?cid=0x0:0x9567cc1a06bb61e4,
supermarket,Toko Swalayan,Tk.LEROY JAYA,"2VVQ+M97, Jl. Lando, Kalukubula, Kec. Sigi Biromaru, Kabupaten Sigi, Sulawesi Tengah 94236","Jl. Lando, Kalukubula, Kec. Sigi Biromaru, Kabupaten Sigi",SULAWESI TENGAH,94236.0,Indonesia, 085241199209,,,-0.955846,119.8884275,https://maps.google.com/?cid=0x0:0xe946328f1b17e250,
supermarket,Toko Swalayan,AMAR SWALAYAN,"2VRV+R32, Jl. Lando 2, Kalukubula, Kec. Sigi Biromaru, Kabupaten Sigi, Sulawesi Tengah 94236","Jl. Lando 2, Kalukubula, Kec. Sigi Biromaru, Kabupaten Sigi",SULAWESI TENGAH,94236.0,Indonesia,,,,-0.9579919,119.8926363,https://maps.google.com/?cid=0x0:0x96f1286183978e2b,
supermarket,Toko,Alif Laundry  Depot Air Minum,"2VVM+H4H, Kalukubula, Kec. Sigi Biromaru, Kabupaten Sigi, Sulawesi Tengah 94237","Kalukubula, Kec. Sigi Biromaru, Kabupaten Sigi",SULAWESI TENGAH,94237.0,Indonesia,,,,-0.9560666,119.8828714,https://maps.google.com/?cid=0x0:0xeb247a9d3b2ef0ed,
supermarket,Toko,Azizah Cell,"2VHJ+6H3, Jl. Poros Palu - Kulawi, Kabobona, Kec. Dolo, Kabupaten Sigi, Sulawesi Tengah 94238","Jl. Poros Palu - Kulawi, Kabobona, Kec. Dolo, Kabupaten Sigi",SULAWESI TENGAH,94238.0,Indonesia,,,,-0.9719979,119.8814157,https://maps.google.com/?cid=0x0:0xff06cac86e9c5086,
supermarket,Minimarket,TOKO MITHA,"Jl. Lando, Kalukubula, Kec. Sigi Biromaru, Kabupaten Sigi, Sulawesi Tengah","Kabupaten Sigi, Sulawesi Tengah",SULAWESI TENGAH,,Indonesia,,,,-0.9562332,119.8908447,https://maps.google.com/?cid=0x0:0x2898c4f291e93662,
supermarket,Toko bahan makanan,KIOS YUMNAYLA,"3V64+68F, Jl. Poros Palu Bangga, Baliase, Kec. Marawola, Kabupaten Sigi, Sulawesi Tengah 94222","Jl. Poros Palu Bangga, Baliase, Kec. Marawola, Kabupaten Sigi",SULAWESI TENGAH,94222.0,Indonesia,,,,-0.9394301,119.8557758,https://maps.google.com/?cid=0x0:0xa4d0b4926cdde55f,
supermarket,Toko bahan makanan,toko cahaya global,"3V54+XCG, Baliase, Kec. Marawola, Kabupaten Sigi, Sulawesi Tengah 94222","Baliase, Kec. Marawola, Kabupaten Sigi",SULAWESI TENGAH,94222.0,Indonesia,,,,-0.940051,119.856063,https://maps.google.com/?cid=0x0:0x81120b4b28b3a49b,
supermarket,Toko umum,Kios Kharisma,"3V54+V9R, Baliase, Kec. Marawola, Kabupaten Sigi, Sulawesi Tengah 94222","Baliase, Kec. Marawola, Kabupaten Sigi",SULAWESI TENGAH,94222.0,Indonesia, 082195593556,,,-0.9402518,119.8558923,https://maps.google.com/?cid=0x0:0xc1a068bbf737d7f6,
supermarket,Kios,Kios Riski Yani,"2VJX+67C, dusun 8, Kalukubula, Pangale, Kabupaten Sigi, Sulawesi Tengah","Kabupaten Sigi, Sulawesi Tengah",SULAWESI TENGAH,,Indonesia,,,,-0.9694912,119.8978067,https://maps.google.com/?cid=0x0:0xf1facce9b6b1eb8,
supermarket,Pusat Perbelanjaan,Alkhairaat Swalayan,"Jl. Poros Palu Bangga No.51-81, Palupi, Kec. Tatanga, Kota Palu, Sulawesi Tengah 94237","Palupi, Kec. Tatanga, Kota Palu",SULAWESI TENGAH,94237.0,Indonesia, 081241510488,,,-0.931417,119.855944,https://maps.google.com/?cid=0x0:0x81c83f55e0953585,
supermarket,Toko bahan makanan,As'Syifa Mart,"Jl. Malontara, Pengawu, Kec. Tatanga, Kota Palu, Sulawesi Tengah 94221","Pengawu, Kec. Tatanga, Kota Palu",SULAWESI TENGAH,94221.0,Indonesia, 085241367480,,,-0.9309681,119.8440876,https://maps.google.com/?cid=0x0:0xc754eb1edc93d9e4,
supermarket,Toko Swalayan,Toko Shakeel,"Jl. Malontara No.29, Pengawu, Kec. Tatanga, Kota Palu, Sulawesi Tengah 94239","Pengawu, Kec. Tatanga, Kota Palu",SULAWESI TENGAH,94239.0,Indonesia,,,,-0.9295367,119.8447267,https://maps.google.com/?cid=0x0:0x4f0411db75d723d,
supermarket,supermarket,Kec. Tatanga,"Kota Palu, Sulawesi Tengah","Kota Palu, Sulawesi Tengah",SULAWESI TENGAH,,Indonesia,,,,-0.9222608,119.8563729,https://maps.google.com/?cid=0x0:0x9b2bb5a133e4e1d7,
supermarket,Toko Swalayan,Swalayan Ganesha,"3VF4+3FW, Jl. Poros Palu Bangga, Palupi, Kec. Tatanga, Kota Palu, Sulawesi Tengah 94222","Jl. Poros Palu Bangga, Palupi, Kec. Tatanga, Kota Palu",SULAWESI TENGAH,94222.0,Indonesia,,,,-0.9272713,119.8561982,https://maps.google.com/?cid=0x0:0x84914685b537bd0f,
supermarket,Toko makanan beku,Cece Lalove,"3VP8+VFP, Jl. Bungi Indah, Nunu, Kec. Tatanga, Kota Palu, Sulawesi Tengah 94111","Jl. Bungi Indah, Nunu, Kec. Tatanga, Kota Palu",SULAWESI TENGAH,94111.0,Indonesia, 0811414904,,,-0.9127997,119.8662082,https://maps.google.com/?cid=0x0:0xed219ee106dd7088,
supermarket,Toko Swalayan,Kios Tiga Saudara,"Jl. Pue Bongo No.68, Pengawu, Kec. Tatanga, Kota Palu, Sulawesi Tengah 94222","Pengawu, Kec. Tatanga, Kota Palu",SULAWESI TENGAH,94222.0,Indonesia, 082193480592,,,-0.92139,119.8564117,https://maps.google.com/?cid=0x0:0xb96d0bb025278a40,
supermarket,Toko Swalayan,E-Warong Depot Sarara,"3R9V+JQJ, Jl. Malontara, Pengawu, Kec. Tatanga, Kota Palu, Sulawesi Tengah 94221","Jl. Malontara, Pengawu, Kec. Tatanga, Kota Palu",SULAWESI TENGAH,94221.0,Indonesia,,,,-0.9309115,119.8443804,https://maps.google.com/?cid=0x0:0xb573bef30c0d94b7,
supermarket,supermarket,Kios mama eva,"BTN Palupi Permai, Jl. Raya Palupi No.3 Block L1, Mas, Kec. Tatanga, Kota Palu, Sulawesi Tengah 94222","Jl. Raya Palupi No.3 Block L1, Mas, Kec. Tatanga, Kota Palu",SULAWESI TENGAH,94222.0,Indonesia,,,,-0.9315502,119.8598531,https://maps.google.com/?cid=0x0:0x9f2a8d99fb15541f,
supermarket,Minimarket,"Halal Mart, BTN TANGARAVA","3VH2+J7H, Pengawu, Kec. Palu Sel., Kota Palu, Sulawesi Tengah 94222","Pengawu, Kec. Palu Sel., Kota Palu",SULAWESI TENGAH,94222.0,Indonesia,,,,-0.9209449,119.8507362,https://maps.google.com/?cid=0x0:0x47b0aaa97ff142eb,
supermarket,supermarket,Sulawesi Tengah 94238,"Kec. Marawola, Kabupaten Sigi, Sulawesi Tengah","Kabupaten Sigi, Sulawesi Tengah",SULAWESI TENGAH,,Indonesia,,,,-0.9805285,119.8525909,https://maps.google.com/?cid=0x0:0x765635502230297,
supermarket,Toko Swalayan,Swalayan Ganesha,"3VF4+3FW, Jl. Poros Palu Bangga, Palupi, Kec. Tatanga, Kota Palu, Sulawesi Tengah 94222","Jl. Poros Palu Bangga, Palupi, Kec. Tatanga, Kota Palu",SULAWESI TENGAH,94222.0,Indonesia,,,,-0.9272713,119.8561982,https://maps.google.com/?cid=0x0:0x84914685b537bd0f,
supermarket,Toko,Swalayan Amar Palupi,"3VC4+9QJ, Palupi, Kec. Tatanga, Kota Palu, Sulawesi Tengah 94222","Palupi, Kec. Tatanga, Kota Palu",SULAWESI TENGAH,94222.0,Indonesia,,,,-0.9290282,119.8568866,https://maps.google.com/?cid=0x0:0xe8d8177a1b4e63a1,
supermarket,Toko Swalayan,Swalayan BMS Pengawu,"3RGV+RWC, Duyu, Kec. Tatanga, Kota Palu, Sulawesi Tengah","Kota Palu, Sulawesi Tengah",SULAWESI TENGAH,,Indonesia,,,,-0.9229332,119.8447576,https://maps.google.com/?cid=0x0:0xd756beeb6f3774bf,
supermarket,Toko bahan makanan,Amar 2 Mini Swalayan,"2VGJ+R6H, Jl. Habib Moh. Al-Jufri, Kabobona, Kec. Dolo, Kabupaten Sigi, Sulawesi Tengah 94361","Jl. Habib Moh. Al-Jufri, Kabobona, Kec. Dolo, Kabupaten Sigi",SULAWESI TENGAH,94361.0,Indonesia,,,,-0.9729444,119.8806131,https://maps.google.com/?cid=0x0:0x6cb1af0ed630f3fc,
supermarket,Toko Pakaian,A' Three Mart,"4V6Q+4MV, Jl. Lagarutu, Talise, Kec. Mantikulore, Kota Palu, Sulawesi Tengah 94118","Jl. Lagarutu, Talise, Kec. Mantikulore, Kota Palu",SULAWESI TENGAH,94118.0,Indonesia,,,,-0.8896435,119.8891619,https://maps.google.com/?cid=0x0:0x23eee71a5126a463,
supermarket,Pusat Perbelanjaan,Alkhairaat Swalayan,"Jl. Poros Palu Bangga No.51-81, Palupi, Kec. Tatanga, Kota Palu, Sulawesi Tengah 94237","Palupi, Kec. Tatanga, Kota Palu",SULAWESI TENGAH,94237.0,Indonesia, 081241510488,,,-0.931417,119.855944,https://maps.google.com/?cid=0x0:0x81c83f55e0953585,
supermarket,Toko bahan makanan,Kios adhy,"2VM3+FWF, Jl. Poros Palu Bangga, Padende, Kec. Marawola, Kabupaten Sigi, Sulawesi Tengah 94237","Jl. Poros Palu Bangga, Padende, Kec. Marawola, Kabupaten Sigi",SULAWESI TENGAH,94237.0,Indonesia,,,,-0.9663052,119.8548041,https://maps.google.com/?cid=0x0:0x529170bace57341c,
supermarket,Kios,Toko Kita,"Tondo, Kec. Palu Tim., Kota Palu, Sulawesi Tengah","Kota Palu, Sulawesi Tengah",SULAWESI TENGAH,,Indonesia, 081354666803,,,-0.833055,119.8861405,https://maps.google.com/?cid=0x0:0x6ee4d07a5263148b,
supermarket,Toko,Azizah Cell,"2VHJ+6H3, Jl. Poros Palu - Kulawi, Kabobona, Kec. Dolo, Kabupaten Sigi, Sulawesi Tengah 94238","Jl. Poros Palu - Kulawi, Kabobona, Kec. Dolo, Kabupaten Sigi",SULAWESI TENGAH,94238.0,Indonesia,,,,-0.9719979,119.8814157,https://maps.google.com/?cid=0x0:0xff06cac86e9c5086,
supermarket,Toko Swalayan,Tk.LEROY JAYA,"2VVQ+M97, Jl. Lando, Kalukubula, Kec. Sigi Biromaru, Kabupaten Sigi, Sulawesi Tengah 94236","Jl. Lando, Kalukubula, Kec. Sigi Biromaru, Kabupaten Sigi",SULAWESI TENGAH,94236.0,Indonesia, 085241199209,,,-0.955846,119.8884275,https://maps.google.com/?cid=0x0:0xe946328f1b17e250,
supermarket,Toko bahan makanan,As'Syifa Mart,"Jl. Malontara, Pengawu, Kec. Tatanga, Kota Palu, Sulawesi Tengah 94221","Pengawu, Kec. Tatanga, Kota Palu",SULAWESI TENGAH,94221.0,Indonesia, 085241367480,,,-0.9309681,119.8440876,https://maps.google.com/?cid=0x0:0xc754eb1edc93d9e4,
supermarket,Toko Swalayan,Kios fadhil,"2V8G+W7G, Kotarindau, Kec. Dolo, Kabupaten Sigi, Sulawesi Tengah 94362","Kotarindau, Kec. Dolo, Kabupaten Sigi",SULAWESI TENGAH,94362.0,Indonesia,,,,-0.9825416,119.8757613,https://maps.google.com/?cid=0x0:0x9b74c430da657f4d,
supermarket,Minimarket,Kios alya,"2V6F+R8W, Jl. Poros Palu - Kulawi, Kotarindau, Kec. Dolo, Kabupaten Sigi, Sulawesi Tengah 94362","Jl. Poros Palu - Kulawi, Kotarindau, Kec. Dolo, Kabupaten Sigi",SULAWESI TENGAH,94362.0,Indonesia,,,,-0.988049,119.8734007,https://maps.google.com/?cid=0x0:0x6219727c97b6e2b7,
supermarket,Toko Swalayan,AMAR SWALAYAN,"2VRV+R32, Jl. Lando 2, Kalukubula, Kec. Sigi Biromaru, Kabupaten Sigi, Sulawesi Tengah 94236","Jl. Lando 2, Kalukubula, Kec. Sigi Biromaru, Kabupaten Sigi",SULAWESI TENGAH,94236.0,Indonesia,,,,-0.9579919,119.8926363,https://maps.google.com/?cid=0x0:0x96f1286183978e2b,
supermarket,Toko Swalayan,KIOS FAUZI,"2V7H+GWX, Kotarindau, Kec. Dolo, Kabupaten Sigi, Sulawesi Tengah 94362","Kotarindau, Kec. Dolo, Kabupaten Sigi",SULAWESI TENGAH,94362.0,Indonesia, 081240764540,,,-0.9863165,119.8799264,https://maps.google.com/?cid=0x0:0x62c3fdf293a1b9f2,
supermarket,Toko Swalayan,Toko Shakeel,"Jl. Malontara No.29, Pengawu, Kec. Tatanga, Kota Palu, Sulawesi Tengah 94239","Pengawu, Kec. Tatanga, Kota Palu",SULAWESI TENGAH,94239.0,Indonesia,,,,-0.9295367,119.8447267,https://maps.google.com/?cid=0x0:0x4f0411db75d723d,
supermarket,Toko,Alif Laundry  Depot Air Minum,"2VVM+H4H, Kalukubula, Kec. Sigi Biromaru, Kabupaten Sigi, Sulawesi Tengah 94237","Kalukubula, Kec. Sigi Biromaru, Kabupaten Sigi",SULAWESI TENGAH,94237.0,Indonesia,,,,-0.9560666,119.8828714,https://maps.google.com/?cid=0x0:0xeb247a9d3b2ef0ed,
supermarket,Minimarket,TOKO MITHA,"Jl. Lando, Kalukubula, Kec. Sigi Biromaru, Kabupaten Sigi, Sulawesi Tengah","Kabupaten Sigi, Sulawesi Tengah",SULAWESI TENGAH,,Indonesia,,,,-0.9562332,119.8908447,https://maps.google.com/?cid=0x0:0x2898c4f291e93662,
supermarket,Kios,Kios Riski Yani,"2VJX+67C, dusun 8, Kalukubula, Pangale, Kabupaten Sigi, Sulawesi Tengah","Kabupaten Sigi, Sulawesi Tengah",SULAWESI TENGAH,,Indonesia,,,,-0.9694912,119.8978067,https://maps.google.com/?cid=0x0:0xf1facce9b6b1eb8,
supermarket,Toko Swalayan,Grand Hero Swalayan,"Jl. Jenderal Basuki Rahmat No.31, Tatura Sel., Kec. Palu Sel., Kota Palu, Sulawesi Tengah 94111","Tatura Sel., Kec. Palu Sel., Kota Palu",SULAWESI TENGAH,94111.0,Indonesia, 0451481451,,,-0.9187004,119.8796472,https://maps.google.com/?cid=0x0:0xb9406a15fa1dd6dc,
supermarket,Toko bahan makanan,Popok bayi palu semangat ke 2,"3VG5+QFW, Jl. Pue Bongo II, Palupi, Kec. Tatanga, Kota Palu, Sulawesi Tengah 94238","Jl. Pue Bongo II, Palupi, Kec. Tatanga, Kota Palu",SULAWESI TENGAH,94238.0,Indonesia, 085256157987,,,-0.9230135,119.8586992,https://maps.google.com/?cid=0x0:0x1ad99fc3aa13720f,
supermarket,supermarket,Kec. Tatanga,"Kota Palu, Sulawesi Tengah","Kota Palu, Sulawesi Tengah",SULAWESI TENGAH,,Indonesia,,,,-0.9222608,119.8563729,https://maps.google.com/?cid=0x0:0x9b2bb5a133e4e1d7,
supermarket,Toko Swalayan,Seven Mart,"Jl. I Gusti Ngurah Rai No.77, Tawanjuka, Kec. Palu Sel., Kota Palu, Sulawesi Tengah 94111","Tawanjuka, Kec. Palu Sel., Kota Palu",SULAWESI TENGAH,94111.0,Indonesia,,,,-0.9227722,119.8643451,https://maps.google.com/?cid=0x0:0xf6f567a3e7ac003b,
supermarket,Toko Swalayan,Kios Tiga Saudara,"Jl. Pue Bongo No.68, Pengawu, Kec. Tatanga, Kota Palu, Sulawesi Tengah 94222","Pengawu, Kec. Tatanga, Kota Palu",SULAWESI TENGAH,94222.0,Indonesia, 082193480592,,,-0.92139,119.8564117,https://maps.google.com/?cid=0x0:0xb96d0bb025278a40,
supermarket,Toko makanan beku,Cece Lalove,"3VP8+VFP, Jl. Bungi Indah, Nunu, Kec. Tatanga, Kota Palu, Sulawesi Tengah 94111","Jl. Bungi Indah, Nunu, Kec. Tatanga, Kota Palu",SULAWESI TENGAH,94111.0,Indonesia, 0811414904,,,-0.9127997,119.8662082,https://maps.google.com/?cid=0x0:0xed219ee106dd7088,
supermarket,Toko Swalayan,E-Warong Depot Sarara,"3R9V+JQJ, Jl. Malontara, Pengawu, Kec. Tatanga, Kota Palu, Sulawesi Tengah 94221","Jl. Malontara, Pengawu, Kec. Tatanga, Kota Palu",SULAWESI TENGAH,94221.0,Indonesia,,,,-0.9309115,119.8443804,https://maps.google.com/?cid=0x0:0xb573bef30c0d94b7,
supermarket,Minimarket,"Halal Mart, BTN TANGARAVA","3VH2+J7H, Pengawu, Kec. Palu Sel., Kota Palu, Sulawesi Tengah 94222","Pengawu, Kec. Palu Sel., Kota Palu",SULAWESI TENGAH,94222.0,Indonesia,,,,-0.9209449,119.8507362,https://maps.google.com/?cid=0x0:0x47b0aaa97ff142eb,
supermarket,supermarket,Kios mama eva,"BTN Palupi Permai, Jl. Raya Palupi No.3 Block L1, Mas, Kec. Tatanga, Kota Palu, Sulawesi Tengah 94222","Jl. Raya Palupi No.3 Block L1, Mas, Kec. Tatanga, Kota Palu",SULAWESI TENGAH,94222.0,Indonesia,,,,-0.9315502,119.8598531,https://maps.google.com/?cid=0x0:0x9f2a8d99fb15541f,
supermarket,supermarket,Sulawesi Tengah 94239,"Uwemanje, Kec. Kinovaro, Kabupaten Sigi, Sulawesi Tengah","Kabupaten Sigi, Sulawesi Tengah",SULAWESI TENGAH,,Indonesia,,,,-0.9808693,119.8178676,https://maps.google.com/?cid=0x0:0xda5d962767809a40,
supermarket,Toko Swalayan,Swalayan Ganesha,"3VF4+3FW, Jl. Poros Palu Bangga, Palupi, Kec. Tatanga, Kota Palu, Sulawesi Tengah 94222","Jl. Poros Palu Bangga, Palupi, Kec. Tatanga, Kota Palu",SULAWESI TENGAH,94222.0,Indonesia,,,,-0.9272713,119.8561982,https://maps.google.com/?cid=0x0:0x84914685b537bd0f,
supermarket,Toko,Swalayan Amar Palupi,"3VC4+9QJ, Palupi, Kec. Tatanga, Kota Palu, Sulawesi Tengah 94222","Palupi, Kec. Tatanga, Kota Palu",SULAWESI TENGAH,94222.0,Indonesia,,,,-0.9290282,119.8568866,https://maps.google.com/?cid=0x0:0xe8d8177a1b4e63a1,
supermarket,Toko bahan makanan,KIOS DIANA,"Jl. Padat Karya, BTN Palupi Block V1B No.04 Palu, 94238, Palupi, Kec. Tatanga, Kota Palu, Sulawesi Tengah 94222","BTN Palupi Block V1B No.04 Palu, 94238, Palupi, Kec. Tatanga, Kota Palu",SULAWESI TENGAH,94222.0,Indonesia, 082291672677,,,-0.9328742,119.8581024,https://maps.google.com/?cid=0x0:0xc59f49445331189d,
supermarket,Toko Swalayan,Grand Hero Swalayan,"Jl. Jenderal Basuki Rahmat No.31, Tatura Sel., Kec. Palu Sel., Kota Palu, Sulawesi Tengah 94111","Tatura Sel., Kec. Palu Sel., Kota Palu",SULAWESI TENGAH,94111.0,Indonesia, 0451481451,,,-0.9187004,119.8796472,https://maps.google.com/?cid=0x0:0xb9406a15fa1dd6dc,
supermarket,Kios,Toko Kita,"Tondo, Kec. Palu Tim., Kota Palu, Sulawesi Tengah","Kota Palu, Sulawesi Tengah",SULAWESI TENGAH,,Indonesia, 081354666803,,,-0.833055,119.8861405,https://maps.google.com/?cid=0x0:0x6ee4d07a5263148b,
supermarket,Toko bahan makanan,Kios adhy,"2VM3+FWF, Jl. Poros Palu Bangga, Padende, Kec. Marawola, Kabupaten Sigi, Sulawesi Tengah 94237","Jl. Poros Palu Bangga, Padende, Kec. Marawola, Kabupaten Sigi",SULAWESI TENGAH,94237.0,Indonesia,,,,-0.9663052,119.8548041,https://maps.google.com/?cid=0x0:0x529170bace57341c,
supermarket,supermarket,Edison,"2R99+M45, Uwemanje, Kec. Kinovaro, Kabupaten Sigi, Sulawesi Tengah 94239","Uwemanje, Kec. Kinovaro, Kabupaten Sigi",SULAWESI TENGAH,94239.0,Indonesia,,,,-0.9808693,119.8178676,https://maps.google.com/?cid=0x0:0x13630f9d5b32198d,
supermarket,supermarket,Kec. Tatanga,"Kota Palu, Sulawesi Tengah","Kota Palu, Sulawesi Tengah",SULAWESI TENGAH,,Indonesia,,,,-0.9222608,119.8563729,https://maps.google.com/?cid=0x0:0x9b2bb5a133e4e1d7,
supermarket,Toko Swalayan,Seven Mart,"Jl. I Gusti Ngurah Rai No.77, Tawanjuka, Kec. Palu Sel., Kota Palu, Sulawesi Tengah 94111","Tawanjuka, Kec. Palu Sel., Kota Palu",SULAWESI TENGAH,94111.0,Indonesia,,,,-0.9227722,119.8643451,https://maps.google.com/?cid=0x0:0xf6f567a3e7ac003b,
supermarket,Toko makanan beku,Cece Lalove,"3VP8+VFP, Jl. Bungi Indah, Nunu, Kec. Tatanga, Kota Palu, Sulawesi Tengah 94111","Jl. Bungi Indah, Nunu, Kec. Tatanga, Kota Palu",SULAWESI TENGAH,94111.0,Indonesia, 0811414904,,,-0.9127997,119.8662082,https://maps.google.com/?cid=0x0:0xed219ee106dd7088,
supermarket,Toko Swalayan,Kios Tiga Saudara,"Jl. Pue Bongo No.68, Pengawu, Kec. Tatanga, Kota Palu, Sulawesi Tengah 94222","Pengawu, Kec. Tatanga, Kota Palu",SULAWESI TENGAH,94222.0,Indonesia, 082193480592,,,-0.92139,119.8564117,https://maps.google.com/?cid=0x0:0xb96d0bb025278a40,
supermarket,supermarket,Kios mama eva,"BTN Palupi Permai, Jl. Raya Palupi No.3 Block L1, Mas, Kec. Tatanga, Kota Palu, Sulawesi Tengah 94222","Jl. Raya Palupi No.3 Block L1, Mas, Kec. Tatanga, Kota Palu",SULAWESI TENGAH,94222.0,Indonesia,,,,-0.9315502,119.8598531,https://maps.google.com/?cid=0x0:0x9f2a8d99fb15541f,
supermarket,Toko Swalayan,E-Warong Depot Sarara,"3R9V+JQJ, Jl. Malontara, Pengawu, Kec. Tatanga, Kota Palu, Sulawesi Tengah 94221","Jl. Malontara, Pengawu, Kec. Tatanga, Kota Palu",SULAWESI TENGAH,94221.0,Indonesia,,,,-0.9309115,119.8443804,https://maps.google.com/?cid=0x0:0xb573bef30c0d94b7,
supermarket,Pusat Perbelanjaan,Alkhairaat Swalayan,"Jl. Poros Palu Bangga No.51-81, Palupi, Kec. Tatanga, Kota Palu, Sulawesi Tengah 94237","Palupi, Kec. Tatanga, Kota Palu",SULAWESI TENGAH,94237.0,Indonesia, 081241510488,,,-0.931417,119.855944,https://maps.google.com/?cid=0x0:0x81c83f55e0953585,
supermarket,Minimarket,"Halal Mart, BTN TANGARAVA","3VH2+J7H, Pengawu, Kec. Palu Sel., Kota Palu, Sulawesi Tengah 94222","Pengawu, Kec. Palu Sel., Kota Palu",SULAWESI TENGAH,94222.0,Indonesia,,,,-0.9209449,119.8507362,https://maps.google.com/?cid=0x0:0x47b0aaa97ff142eb,
supermarket,Pusat Perbelanjaan,Outlet link ifha,"Jl. Malontara, Pengawu, Kec. Tatanga, Kota Palu, Sulawesi Tengah 91112","Pengawu, Kec. Tatanga, Kota Palu",SULAWESI TENGAH,91112.0,Indonesia, 085399390900,,,-0.922177,119.8476345,https://maps.google.com/?cid=0x0:0x3576d8a2e9edf3e4,
supermarket,Toko Swalayan,Toko Shakeel,"Jl. Malontara No.29, Pengawu, Kec. Tatanga, Kota Palu, Sulawesi Tengah 94239","Pengawu, Kec. Tatanga, Kota Palu",SULAWESI TENGAH,94239.0,Indonesia,,,,-0.9295367,119.8447267,https://maps.google.com/?cid=0x0:0x4f0411db75d723d,
supermarket,Toko makanan beku,Jati 46 Frozen,"Jl. Jati No.46, Nunu, Kec. Tatanga, Kota Palu, Sulawesi Tengah 94222","Nunu, Kec. Tatanga, Kota Palu",SULAWESI TENGAH,94222.0,Indonesia, 082343919169,,,-0.9120981,119.8630055,https://maps.google.com/?cid=0x0:0x30f9891bda0068f3,
supermarket,Toko,Toko Sinar Matahari,"3V85+R6W, Jl. Padat Karya, Palupi, Kec. Palu Sel., Kota Palu, Sulawesi Tengah 94222","Jl. Padat Karya, Palupi, Kec. Palu Sel., Kota Palu",SULAWESI TENGAH,94222.0,Indonesia,,,,-0.9328827,119.8580745,https://maps.google.com/?cid=0x0:0x6e988ad65991d411,
supermarket,Kios,Kios Indri,"3RFV+VQ8, Jl. Padan Jakaya, Pengawu, Kec. Palu Sel., Kota Palu, Sulawesi Tengah 94221","Jl. Padan Jakaya, Pengawu, Kec. Palu Sel., Kota Palu",SULAWESI TENGAH,94221.0,Indonesia, 082188360003,,,-0.925343,119.8444637,https://maps.google.com/?cid=0x0:0x8090076962b06e2a,
supermarket,Nasi,Hope Kitchen,"Jl. Paramedis Raya No.05 Blok L1, Palupi, Kec. Palu Sel., Kota Palu, Sulawesi Tengah 94222","Palupi, Kec. Palu Sel., Kota Palu",SULAWESI TENGAH,94222.0,Indonesia, 085942928160,,,-0.931607,119.8595777,https://maps.google.com/?cid=0x0:0x96eb5530d8465e3f,
supermarket,Toko Swalayan,Fadhilah shop,"3VF4+45F, Palupi, Kec. Palu Sel., Kota Palu, Sulawesi Tengah 94222","Palupi, Kec. Palu Sel., Kota Palu",SULAWESI TENGAH,94222.0,Indonesia, 08124251952,,,-0.92718,119.8554362,https://maps.google.com/?cid=0x0:0xfaf32074a8fc4980,
supermarket,Toko bahan makanan,Alfamidi Pue Bongo ll,"Jl. Poros Palu Bangga No.47, Palupi, Kec. Palu Sel., Kota Palu, Sulawesi Tengah 94222","Palupi, Kec. Palu Sel., Kota Palu",SULAWESI TENGAH,94222.0,Indonesia, 081399506295,,,-0.9294579,119.8562969,https://maps.google.com/?cid=0x0:0x7390b576ca0ddd7a,
supermarket,Toko bahan makanan,DAMIU PARADISE,"3VQ5+W7H, Jl. Ganogo, Boyaoge, Kec. Palu Bar., Kota Palu, Sulawesi Tengah 94111","Jl. Ganogo, Boyaoge, Kec. Palu Bar., Kota Palu",SULAWESI TENGAH,94111.0,Indonesia,,,,-0.9101814,119.8582317,https://maps.google.com/?cid=0x0:0x35eecef10eb16638,
supermarket,Restoran,OKe Mart,"4HHM+J65, Uentanaga Bawah, Kec. Ampana Kota, Kabupaten Tojo Una-Una, Sulawesi Tengah 94683","Uentanaga Bawah, Kec. Ampana Kota, Kabupaten Tojo Una-Una",SULAWESI TENGAH,94683.0,Indonesia,,,,-0.8709921,121.5831105,https://maps.google.com/?cid=0x0:0x2cd90e49643c8055,
supermarket,Kafe,Kedai Oke Food,"4HHP+P9X, Jl. Pulau Walea, Uentanaga Bawah, Kec. Ampana Kota, Kabupaten Tojo Una-Una, Sulawesi Tengah 94683","Jl. Pulau Walea, Uentanaga Bawah, Kec. Ampana Kota, Kabupaten Tojo Una-Una",SULAWESI TENGAH,94683.0,Indonesia,,,,-0.8706494,121.5859832,https://maps.google.com/?cid=0x0:0x9ab27a75c449f8ae,
supermarket,Toko Perlengkapan Rumah,Swalayan Berkat Jaya,"4HHM+VFX, Jl. Moh. Hatta, Uentanaga Bawah, Kec. Ampana Kota, Kabupaten Tojo Una-Una, Sulawesi Tengah 94683","Jl. Moh. Hatta, Uentanaga Bawah, Kec. Ampana Kota, Kabupaten Tojo Una-Una",SULAWESI TENGAH,94683.0,Indonesia,,,,-0.8702716,121.5837206,https://maps.google.com/?cid=0x0:0xde6027b61411fe95,
supermarket,Toko makanan beku,Mugie frozen,"Jl. Sawah Lio No.I, RT.11/RW.1, Jemb. Lima, Kec. Tambora, Kota Jakarta Barat, Daerah Khusus Ibukota Jakarta 11250","RT.11/RW.1, Jemb. Lima, Kec. Tambora, Kota Jakarta Barat",SULAWESI TENGAH,11250.0,Indonesia, 085814561987,,,-6.1466015,106.8060013,https://maps.google.com/?cid=0x0:0x6b272c8d9ccd891a,
supermarket,Produsen Makanan Beku,Umar Frozen Food Jembatan Lima,"Gang Musholla Al-Jihad No.22, RT.14/RW.6, Jemb. Lima, Kec. Tambora, Kota Jakarta Barat, Daerah Khusus Ibukota Jakarta 11250","RT.14/RW.6, Jemb. Lima, Kec. Tambora, Kota Jakarta Barat",SULAWESI TENGAH,11250.0,Indonesia, 082210332600,,,-6.1458901,106.8040754,https://maps.google.com/?cid=0x0:0x74275489e06c0c28,
supermarket,Pusat Perbelanjaan,Pasar Mitra,"Jl. KH.Moh.Mansyur No.1, RT.1/RW.11, Tanah Sereal, Kec. Tambora, Kota Jakarta Barat, Daerah Khusus Ibukota Jakarta 11250","RT.1/RW.11, Tanah Sereal, Kec. Tambora, Kota Jakarta Barat",SULAWESI TENGAH,11250.0,Indonesia,,,,-6.1450087,106.8068487,https://maps.google.com/?cid=0x0:0x93f33dfc242a487a,
supermarket,supermarket,Sulawesi Tengah 94681,"Kabupaten Tojo Una-Una, Sulawesi Tengah","Kabupaten Tojo Una-Una, Sulawesi Tengah",SULAWESI TENGAH,,Indonesia,,,,-1.4002682,121.2168466,https://maps.google.com/?cid=0x0:0x296ad5ba9809fbd2,
supermarket,Toko Swalayan,Toko Berkat Usaha2,"Bahari, Kec. Tojo, Kabupaten Tojo Una-Una, Sulawesi Tengah","Kabupaten Tojo Una-Una, Sulawesi Tengah",SULAWESI TENGAH,,Indonesia,,,,-1.4396645,121.0994796,https://maps.google.com/?cid=0x0:0xf88ac764dc3cf311,
supermarket,Toko,KIOS DIVAL,"HVMW+H5C, Unnamed Road, Malei Tojo, Kec. Tojo Bar., Kabupaten Tojo Una-Una, Sulawesi Tengah 94681","Unnamed Road, Malei Tojo, Kec. Tojo Bar., Kabupaten Tojo Una-Una",SULAWESI TENGAH,94681.0,Indonesia, 085340547742,,,-1.4160698,120.895399,https://maps.google.com/?cid=0x0:0x577a94b3a665045e,
supermarket,Kios,Anira,"H34V+774, Tayawa, Kec. Tojo, Kabupaten Tojo Una-Una, Sulawesi Tengah 94681","Tayawa, Kec. Tojo, Kabupaten Tojo Una-Una",SULAWESI TENGAH,94681.0,Indonesia,,,,-1.4443587,121.0931935,https://maps.google.com/?cid=0x0:0xb9f834ec7317940e,
supermarket,Toko bahan makanan,Toko 2 Putra Uekuli,"H4JF+WH9, Unnamed Road, Uekuli, Kec. Tojo, Kabupaten Tojo Una-Una, Sulawesi Tengah 94681","Unnamed Road, Uekuli, Kec. Tojo, Kabupaten Tojo Una-Una",SULAWESI TENGAH,94681.0,Indonesia, 082344589769,,,-1.4177032,121.1239792,https://maps.google.com/?cid=0x0:0x7dd302edb7c93aec,
supermarket,supermarket,Kios Andalan,"H4PG+C85, Uekuli, Kec. Tojo, Kabupaten Tojo Una-Una, Sulawesi Tengah 94681","Uekuli, Kec. Tojo, Kabupaten Tojo Una-Una",SULAWESI TENGAH,94681.0,Indonesia, 082290852308,,,-1.4139784,121.1258642,https://maps.google.com/?cid=0x0:0x962c0ac5b1b3ea07,
supermarket,Toko bahan makanan,LIFE Higashiawaji,"5 Chome-8-35 Higashiawaji, Higashiyodogawa Ward, Osaka, 533-0023, Jepang","Osaka, Jepang",SULAWESI TENGAH,,Indonesia, +81663235240,,,34.7368944,135.5222318,https://maps.google.com/?cid=0x0:0xa24161318f7cbe96,
supermarket,Toko bahan makanan,Tamade Supermarket - HigashiYodogawa,"4 Chome-4-30 Sugahara, Higashiyodogawa Ward, Osaka, 533-0022, Jepang","Osaka, Jepang",SULAWESI TENGAH,,Indonesia, +81663245888,,,34.7401942,135.5307445,https://maps.google.com/?cid=0x0:0x128963b2a7852a2e,
supermarket,supermarket,Kec. Tojo Bar.,"Kabupaten Tojo Una-Una, Sulawesi Tengah","Kabupaten Tojo Una-Una, Sulawesi Tengah",SULAWESI TENGAH,,Indonesia,,,,-1.4248079,121.0239625,https://maps.google.com/?cid=0x0:0x4a8aae277afc8955,
supermarket,Toko,KIOS DIVAL,"HVMW+H5C, Unnamed Road, Malei Tojo, Kec. Tojo Bar., Kabupaten Tojo Una-Una, Sulawesi Tengah 94681","Unnamed Road, Malei Tojo, Kec. Tojo Bar., Kabupaten Tojo Una-Una",SULAWESI TENGAH,94681.0,Indonesia, 085340547742,,,-1.4160698,120.895399,https://maps.google.com/?cid=0x0:0x577a94b3a665045e,
supermarket,Toko Perlengkapan Rumah,Toko Hikmah,"H34V+89G, Tayawa, Kec. Tojo, Kabupaten Tojo Una-Una, Sulawesi Tengah 94681","Tayawa, Kec. Tojo, Kabupaten Tojo Una-Una",SULAWESI TENGAH,94681.0,Indonesia, 081340444485,,,-1.444199,121.0934605,https://maps.google.com/?cid=0x0:0xcef449f737777472,
supermarket,Toko Swalayan,Toko Berkat Usaha2,"Bahari, Kec. Tojo, Kabupaten Tojo Una-Una, Sulawesi Tengah","Kabupaten Tojo Una-Una, Sulawesi Tengah",SULAWESI TENGAH,,Indonesia,,,,-1.4396645,121.0994796,https://maps.google.com/?cid=0x0:0xf88ac764dc3cf311,
supermarket,Toko bahan makanan,Toko Andalan,"H4QG+6J2, Uekuli, Kec. Tojo, Kabupaten Tojo Una-Una, Sulawesi Tengah 94681","Uekuli, Kec. Tojo, Kabupaten Tojo Una-Una",SULAWESI TENGAH,94681.0,Indonesia, 082290852308,,,-1.4119839,121.126509,https://maps.google.com/?cid=0x0:0x1da61fd4f8fadeea,
supermarket,Pusat Perbelanjaan,Naura@l Brilink,"H4C8+QMR, Uekuli, Kec. Tojo, Kabupaten Tojo Una-Una, Sulawesi Tengah 94681","Uekuli, Kec. Tojo, Kabupaten Tojo Una-Una",SULAWESI TENGAH,94681.0,Indonesia, 082188800104,,,-1.4280207,121.1166365,https://maps.google.com/?cid=0x0:0x5638c420d2fb0c71,
supermarket,Toko bahan makanan,Toko 2 Putra Uekuli,"H4JF+WH9, Unnamed Road, Uekuli, Kec. Tojo, Kabupaten Tojo Una-Una, Sulawesi Tengah 94681","Unnamed Road, Uekuli, Kec. Tojo, Kabupaten Tojo Una-Una",SULAWESI TENGAH,94681.0,Indonesia, 082344589769,,,-1.4177032,121.1239792,https://maps.google.com/?cid=0x0:0x7dd302edb7c93aec,
supermarket,Toko Swalayan,Toko Fatur,"H4JF+WH9, Uekuli, Kec. Tojo, Kabupaten Tojo Una-Una, Sulawesi Tengah 94681","Uekuli, Kec. Tojo, Kabupaten Tojo Una-Una",SULAWESI TENGAH,94681.0,Indonesia, 082246407459,,,-1.4185512,121.1236128,https://maps.google.com/?cid=0x0:0x32c7883feba9b1e9,
supermarket,supermarket,Jual ayam potong,"HWH9+H9J, Matako, Kec. Tojo Bar., Kabupaten Tojo Una-Una, Sulawesi Tengah 94681","Matako, Kec. Tojo Bar., Kabupaten Tojo Una-Una",SULAWESI TENGAH,94681.0,Indonesia,,,,-1.4208853,120.9188171,https://maps.google.com/?cid=0x0:0x4c170a8d9735da0d,
supermarket,supermarket,Sulawesi Tengah 94682,"Kec. Ulubongka, Kabupaten Tojo Una-Una, Sulawesi Tengah","Kabupaten Tojo Una-Una, Sulawesi Tengah",SULAWESI TENGAH,,Indonesia,,,,-1.2626977,121.5826642,https://maps.google.com/?cid=0x0:0x88ec4d69e80546d0,
supermarket,Toko,PASAR BONGKA MAKMUR,"WGG4+6WH, Unnamed Road, Bongka Makmur, Kec. Ulubongka, Kabupaten Tojo Una-Una, Sulawesi Tengah 94682","Unnamed Road, Bongka Makmur, Kec. Ulubongka, Kabupaten Tojo Una-Una",SULAWESI TENGAH,94682.0,Indonesia, 0811456200,,,-1.0744402,121.5073543,https://maps.google.com/?cid=0x0:0x9a499bd265fadcea,
supermarket,Toko bahan makanan,Toko restu bunda,"2F4H+VXC, Poko, Bonevoto, Kec. Ulubongka, Kabupaten Tojo Una-Una, Sulawesi Tengah","Kabupaten Tojo Una-Una, Sulawesi Tengah",SULAWESI TENGAH,,Indonesia,,,,-0.9928063,121.4798948,https://maps.google.com/?cid=0x0:0x20fb694a39ffc46b,
supermarket,Toko Makanan,SalSando.id,"utara, RT.26/RW.07, Kamarung, Kec. Pagaden, Kabupaten Subang, Jawa Barat 41252","RT.26/RW.07, Kamarung, Kec. Pagaden, Kabupaten Subang",SULAWESI TENGAH,41252.0,Indonesia, 082216231741,,,-6.4555652,107.8136801,https://maps.google.com/?cid=0x0:0xfea7ab9ed79faa1c,
supermarket,Padang,Tanamo,"Jalan Bintara Raya No. AA99-4, RT.01 / RW.08, RT.001/RW.008, Bintara, Kec. Bekasi Bar., Kota Bks, Jawa Barat 17134","RT.01 / RW.08, RT.001/RW.008, Bintara, Kec. Bekasi Bar., Kota Bks",SULAWESI TENGAH,17134.0,Indonesia, 02188964843,,,-6.2310643,106.9593856,https://maps.google.com/?cid=0x0:0xe682f5007a7f5d3b,
supermarket,Toko bahan makanan,Ampana Mart,"4HPW+W4R, Jl. Ahmad Yani, Dondo, Kec. Ampana Kota, Kabupaten Tojo Una-Una, Sulawesi Tengah 94683","Jl. Ahmad Yani, Dondo, Kec. Ampana Kota, Kabupaten Tojo Una-Una",SULAWESI TENGAH,94683.0,Indonesia, 082339426494,,,-0.8624695,121.5951044,https://maps.google.com/?cid=0x0:0xa22741e00c83c78b,
supermarket,Toko makanan beku,Mugie frozen,"Jl. Sawah Lio No.I, RT.11/RW.1, Jemb. Lima, Kec. Tambora, Kota Jakarta Barat, Daerah Khusus Ibukota Jakarta 11250","RT.11/RW.1, Jemb. Lima, Kec. Tambora, Kota Jakarta Barat",SULAWESI TENGAH,11250.0,Indonesia, 085814561987,,,-6.1466015,106.8060013,https://maps.google.com/?cid=0x0:0x6b272c8d9ccd891a,
supermarket,Toko Swalayan,Ampana,"Jl. Yos Sudarso No.10-6, Uentanaga Bawah, Kec. Ampana Kota, Kabupaten Tojo Una-Una, Sulawesi Tengah 94683","Uentanaga Bawah, Kec. Ampana Kota, Kabupaten Tojo Una-Una",SULAWESI TENGAH,94683.0,Indonesia,,,,-0.8681037,121.579581,https://maps.google.com/?cid=0x0:0x4d12a2566783ba2e,
supermarket,supermarket,Sanctum Una Una Dive Resort,"Lembanya, Kec. Una-Una, Kabupaten Tojo Una-Una, Sulawesi Tengah 94683","Kec. Una-Una, Kabupaten Tojo Una-Una",SULAWESI TENGAH,94683.0,Indonesia, 081347881721,,,-0.1574022,121.6563897,https://maps.google.com/?cid=0x0:0xd658d568213fdc88,
supermarket,supermarket,Colo,"Lembanya, Kec. Una-Una, Kabupaten Tojo Una-Una, Sulawesi Tengah","Kabupaten Tojo Una-Una, Sulawesi Tengah",SULAWESI TENGAH,,Indonesia,,,,-0.17,121.608,https://maps.google.com/?cid=0x0:0xc3ef1734ae21e0de,
supermarket,supermarket,Pristine Paradise Dive Resort,"Lembanya, Kec. Una-Una, Kabupaten Tojo Una-Una, Sulawesi Tengah 94683","Kec. Una-Una, Kabupaten Tojo Una-Una",SULAWESI TENGAH,94683.0,Indonesia, 081340433811,,,-0.1584312,121.6565616,https://maps.google.com/?cid=0x0:0x2784f546253a366,
supermarket,supermarket,Black Marlin Dive Resort,"Wakai, Pulau Kadidiri, Tj. Pude, Kec. Una-Una, Kabupaten Tojo Una-Una, Sulawesi Tengah 94691","Pulau Kadidiri, Tj. Pude, Kec. Una-Una, Kabupaten Tojo Una-Una",SULAWESI TENGAH,94691.0,Indonesia, 081238307077,,,-0.3557768,121.845122,https://maps.google.com/?cid=0x0:0xa572496fe97c34aa,
supermarket,supermarket,Pulau Kadidi,"Tj. Pude, Kec. Una-Una, Kabupaten Tojo Una-Una, Sulawesi Tengah","Kabupaten Tojo Una-Una, Sulawesi Tengah",SULAWESI TENGAH,,Indonesia,,,,-0.3591667,121.8466667,https://maps.google.com/?cid=0x0:0x4e86fb4bf4d05b41,
supermarket,Terminal kapal pesiar,Bandar Udara Tanjung Api Ampana,"4JMF+P44, Pusungi, Kec. Ampana Tete, Kabupaten Tojo Una-Una, Sulawesi Tengah 94683","Pusungi, Kec. Ampana Tete, Kabupaten Tojo Una-Una",SULAWESI TENGAH,94683.0,Indonesia, 04642253050,,,-0.8657352,121.6228346,https://maps.google.com/?cid=0x0:0xbdc529ba41433ff6,
supermarket,Toko bahan makanan,Ampana Mart,"4HPW+W4R, Jl. Ahmad Yani, Dondo, Kec. Ampana Kota, Kabupaten Tojo Una-Una, Sulawesi Tengah 94683","Jl. Ahmad Yani, Dondo, Kec. Ampana Kota, Kabupaten Tojo Una-Una",SULAWESI TENGAH,94683.0,Indonesia, 082339426494,,,-0.8624695,121.5951044,https://maps.google.com/?cid=0x0:0xa22741e00c83c78b,
supermarket,Toko Swalayan,Ampana,"Jl. Yos Sudarso No.10-6, Uentanaga Bawah, Kec. Ampana Kota, Kabupaten Tojo Una-Una, Sulawesi Tengah 94683","Uentanaga Bawah, Kec. Ampana Kota, Kabupaten Tojo Una-Una",SULAWESI TENGAH,94683.0,Indonesia,,,,-0.8681037,121.579581,https://maps.google.com/?cid=0x0:0x4d12a2566783ba2e,
supermarket,Rumah Makan,KERIPIK PISANG YY,"4HPW+W4R, Dondo, Kec. Ampana Kota, Kabupaten Tojo Una-Una, Sulawesi Tengah","Kabupaten Tojo Una-Una, Sulawesi Tengah",SULAWESI TENGAH,,Indonesia,,,,-0.8626258,121.5952652,https://maps.google.com/?cid=0x0:0xf261ceb39deb7b3e,
supermarket,supermarket,Kec. Walea Kepulauan,"Kabupaten Tojo Una-Una, Sulawesi Tengah","Kabupaten Tojo Una-Una, Sulawesi Tengah",SULAWESI TENGAH,,Indonesia,,,,-0.330267,122.0947725,https://maps.google.com/?cid=0x0:0xaa230538b3a05de9,
supermarket,Toko,KIOS DIVAL,"HVMW+H5C, Unnamed Road, Malei Tojo, Kec. Tojo Bar., Kabupaten Tojo Una-Una, Sulawesi Tengah 94681","Unnamed Road, Malei Tojo, Kec. Tojo Bar., Kabupaten Tojo Una-Una",SULAWESI TENGAH,94681.0,Indonesia, 085340547742,,,-1.4160698,120.895399,https://maps.google.com/?cid=0x0:0x577a94b3a665045e,
supermarket,Toko,Kios Kinta,"HWGH+W2C, Bambalo, Kec. Tojo Bar., Kabupaten Tojo Una-Una, Sulawesi Tengah 94681","Bambalo, Kec. Tojo Bar., Kabupaten Tojo Una-Una",SULAWESI TENGAH,94681.0,Indonesia, 085241046786,,,-1.4226986,120.9275261,https://maps.google.com/?cid=0x0:0x47c0c943c824b6a7,
