Category,Real Category,Business Name,Address,City,State,Postal Code,Country,Phone,Email,Website,Latitude,Longitude,Map Link,Details Link
komplek housing,Komplek perumahan,PERUMAHAN ORVIL LANDS BOYA BALIASE,"Jl. Vunja Sinongi No.8, Boyabaliase, Kec. Marawola, Kabupaten Sigi, Sulawesi Tengah 94222","Boyabaliase, Kec. Marawola, Kabupaten Sigi",SULAWESI TENGAH,94222.0,Indonesia, 085288498397,,,-0.948184,119.8467998,https://maps.google.com/?cid=0x0:0x5dbeee685e28bc4e,
komplek housing,Perumahan,Boyaaa baliase,"2RXX+R8J, Boyabaliase, Kec. Marawola, Kabupaten Sigi, Sulawesi Tengah","Kabupaten Sigi, Sulawesi Tengah",SULAWESI TENGAH,,Indonesia,,,,-0.9504167,119.8482509,https://maps.google.com/?cid=0x0:0xb4de63b85ab54c1a,
komplek housing,Toko Kosmetik,Tasya Vit. Gemuk  Jamu Plangsing,"Jl. Vunja Sinongi No.8, Boyabaliase, Kec. Marawola, Kabupaten Sigi, Sulawesi Tengah 94222","Boyabaliase, Kec. Marawola, Kabupaten Sigi",SULAWESI TENGAH,94222.0,Indonesia, 082296732591,,,-0.9481149,119.8466548,https://maps.google.com/?cid=0x0:0x3419f57e5ebd6581,
komplek housing,Komplek perumahan,Apinindo Residenza Kalukubula,"2VRW+4Q, Kalukubula, Kec. Sigi Biromaru, Kabupaten Sigi, Sulawesi Tengah 94231","Kalukubula, Kec. Sigi Biromaru, Kabupaten Sigi",SULAWESI TENGAH,94231.0,Indonesia,,,,-0.9603613,119.8969072,https://maps.google.com/?cid=0x0:0xe60cf5e51a905851,
komplek housing,Perumahan,Rumah Pak Armadi,"2V8P+PRP, Langaleso, Kec. Dolo, Kabupaten Sigi, Sulawesi Tengah 94362","Langaleso, Kec. Dolo, Kabupaten Sigi",SULAWESI TENGAH,94362.0,Indonesia,,,,-0.983155,119.8870796,https://maps.google.com/?cid=0x0:0x5c4ba67290da466a,
komplek housing,Perumahan,Rumah pak Adi,"2V9P+2M3, Langaleso, Kec. Dolo, Kabupaten Sigi, Sulawesi Tengah 94362","Langaleso, Kec. Dolo, Kabupaten Sigi",SULAWESI TENGAH,94362.0,Indonesia,,,,-0.983155,119.88708,https://maps.google.com/?cid=0x0:0x97457e033fe80b,
komplek housing,Komplek perumahan,Pondok Gede Housing 1,"Jl. Cipta Raya No.45-3, RT.001/RW.003, Jatirahayu, Kec. Pd. Melati, Kota Bks, Jawa Barat 17414","RT.001/RW.003, Jatirahayu, Kec. Pd. Melati, Kota Bks",SULAWESI TENGAH,17414.0,Indonesia,,,,-6.2852504,106.9163397,https://maps.google.com/?cid=0x0:0x3132afedbf38cd61,
komplek housing,Komplek perumahan,Pondok gede housing,"PW69+G7J, Jl. Teratai, RT.005/RW.003, Jatirahayu, Kec. Pd. Melati, Kota Bks, Jawa Barat 17414","Jl. Teratai, RT.005/RW.003, Jatirahayu, Kec. Pd. Melati, Kota Bks",SULAWESI TENGAH,17414.0,Indonesia,,,,-6.2886631,106.9181392,https://maps.google.com/?cid=0x0:0xe09247830c5049e9,
komplek housing,Komplek perumahan,Komplek Raya Housing (Molek) Blok L3 - ZAIA,"Komplek Raya Housing (Molek No.3 Blok-L, RT.005/RW.011, Jatiwaringin, Kec. Pd. Gede, Kota Bks, Jawa Barat 17411","RT.005/RW.011, Jatiwaringin, Kec. Pd. Gede, Kota Bks",SULAWESI TENGAH,17411.0,Indonesia,,,,-6.2791346,106.9098178,https://maps.google.com/?cid=0x0:0x70e05a91fbc23a92,
komplek housing,komplek housing,Sulawesi Tengah 94684,"Kec. Ampana Tete, Kabupaten Tojo Una-Una, Sulawesi Tengah","Kabupaten Tojo Una-Una, Sulawesi Tengah",SULAWESI TENGAH,,Indonesia,,,,-1.06437,121.6739371,https://maps.google.com/?cid=0x0:0x395f26e16da414ae,
komplek housing,komplek housing,Home Sela  Aliff cell,"Jl. Trans Sulawesi, Mantangisi, Kec. Ampana Tete, Kabupaten Tojo Una-Una, Sulawesi Tengah 94684","Mantangisi, Kec. Ampana Tete, Kabupaten Tojo Una-Una",SULAWESI TENGAH,94684.0,Indonesia, 081233477826,,,-0.9326165,121.6956757,https://maps.google.com/?cid=0x0:0x2848fee5484e396b,
komplek housing,Komplek perumahan,Lorong kantor desa,"WPHJ+69P, Balanggala, Kec. Ampana Tete, Kabupaten Tojo Una-Una, Sulawesi Tengah 94684","Balanggala, Kec. Ampana Tete, Kabupaten Tojo Una-Una",SULAWESI TENGAH,94684.0,Indonesia,,,,-1.0719015,121.7309452,https://maps.google.com/?cid=0x0:0x461140a70a63e112,
komplek housing,komplek housing,Rumah WAHID,"3HCP+JJ, Uentanaga Atas, Kec. Ampana Kota, Kabupaten Tojo Una-Una, Sulawesi Tengah","Kabupaten Tojo Una-Una, Sulawesi Tengah",SULAWESI TENGAH,,Indonesia, 082210980400,,,-0.9292515,121.586723,https://maps.google.com/?cid=0x0:0x3d09630c9efff110,
komplek housing,komplek housing,HomeGetss,"3MHF+46M, Mantangisi, Kec. Ampana Tete, Kabupaten Tojo Una-Una, Sulawesi Tengah","Kabupaten Tojo Una-Una, Sulawesi Tengah",SULAWESI TENGAH,,Indonesia,,,,-0.9221556,121.6730462,https://maps.google.com/?cid=0x0:0x8a77ab11b5a27a52,
komplek housing,Komplek perumahan,Lorong katapang,"4JHM+46Q, Jl. Trans Sulawesi, Pusungi, Kec. Ampana Tete, Kabupaten Tojo Una-Una, Sulawesi Tengah 94684","Jl. Trans Sulawesi, Pusungi, Kec. Ampana Tete, Kabupaten Tojo Una-Una",SULAWESI TENGAH,94684.0,Indonesia,,,,-0.8716417,121.6334343,https://maps.google.com/?cid=0x0:0x283535f5beaddbbb,
komplek housing,komplek housing,A2 Home,"2Q55+42, Balanggala, Kec. Ampana Tete, Kabupaten Tojo Una-Una, Sulawesi Tengah","Kabupaten Tojo Una-Una, Sulawesi Tengah",SULAWESI TENGAH,,Indonesia, 082293051145,,,-0.9921686,121.7575033,https://maps.google.com/?cid=0x0:0x40a7e577e2f35fd2,
komplek housing,komplek housing,Rumah Pipit,"2QJR+742, Jl. Trans Sulawesi, Tampabatu, Kec. Ampana Tete, Kabupaten Tojo Una-Una, Sulawesi Tengah 94684","Jl. Trans Sulawesi, Tampabatu, Kec. Ampana Tete, Kabupaten Tojo Una-Una",SULAWESI TENGAH,94684.0,Indonesia,,,,-0.969046,121.7907064,https://maps.google.com/?cid=0x0:0x895f40481ad7275f,
komplek housing,Rumah Kayu,Rumahnya Annisa,"2QMQ+HJ4, Tampabatu, Kec. Ampana Tete, Kabupaten Tojo Una-Una, Sulawesi Tengah","Kabupaten Tojo Una-Una, Sulawesi Tengah",SULAWESI TENGAH,,Indonesia,,,,-0.9661207,121.789084,https://maps.google.com/?cid=0x0:0xb89e27fdbcfeea35,
komplek housing,komplek housing,Uni home,"2QH6+2X3, Balanggala, Kec. Ampana Tete, Kabupaten Tojo Una-Una, Sulawesi Tengah 94684","Balanggala, Kec. Ampana Tete, Kabupaten Tojo Una-Una",SULAWESI TENGAH,94684.0,Indonesia,,,,-0.9724752,121.7624369,https://maps.google.com/?cid=0x0:0x739dba3783ae78b2,
komplek housing,Pembangunan Perumahan,Urundaka,"2PPR+J7H, Jl. Trans Sulawesi, Urundaka, Kec. Ampana Tete, Kabupaten Tojo Una-Una, Sulawesi Tengah 94684","Jl. Trans Sulawesi, Urundaka, Kec. Ampana Tete, Kabupaten Tojo Una-Una",SULAWESI TENGAH,94684.0,Indonesia,,,,-0.9634326,121.7407435,https://maps.google.com/?cid=0x0:0xc19e00b9c260bdb9,
komplek housing,komplek housing,Rumah enha,"3M8X+75H, Mantangisi, Kec. Ampana Tete, Kabupaten Tojo Una-Una, Sulawesi Tengah 94684","Mantangisi, Kec. Ampana Tete, Kabupaten Tojo Una-Una",SULAWESI TENGAH,94684.0,Indonesia, 082189554124,,,-0.9342682,121.6985828,https://maps.google.com/?cid=0x0:0x2f3334a8e59149e7,
komplek housing,komplek housing,Rumahku,"2RM7+VFC, Sabo, Kec. Ampana Tete, Kabupaten Tojo Una-Una, Sulawesi Tengah","Kabupaten Tojo Una-Una, Sulawesi Tengah",SULAWESI TENGAH,,Indonesia,,,,-0.9661761,121.8132265,https://maps.google.com/?cid=0x0:0x4475f42ef0b66662,
komplek housing,komplek housing,Rahma family home,"4M94+H2H, Tete-A, Kec. Ampana Tete, Kabupaten Tojo Una-Una, Sulawesi Tengah 94684","Tete-A, Kec. Ampana Tete, Kabupaten Tojo Una-Una",SULAWESI TENGAH,94684.0,Indonesia,,,,-0.8803699,121.6556385,https://maps.google.com/?cid=0x0:0x1902c382a81ec9e2,
komplek housing,Komplek perumahan,Rumah Rahim,"2PPP+Q73, Urundaka, Kec. Ampana Tete, Kabupaten Tojo Una-Una, Sulawesi Tengah","Kabupaten Tojo Una-Una, Sulawesi Tengah",SULAWESI TENGAH,,Indonesia,,,,-0.9631446,121.7357089,https://maps.google.com/?cid=0x0:0xe23ba3d97d4ddc78,
komplek housing,komplek housing,Afifa home ampana,"3HWG+X9, Sansarino, Kec. Ampana Kota, Kabupaten Tojo Una-Una, Sulawesi Tengah 94683","Sansarino, Kec. Ampana Kota, Kabupaten Tojo Una-Una",SULAWESI TENGAH,94683.0,Indonesia, 0895370906772,,,-0.9025625,121.5759375,https://maps.google.com/?cid=0x0:0xa1459a290d8a8d6,
komplek housing,komplek housing,Home ila,"4HGM+9V6, Jl. Sungai Balingara, Uentanaga Atas, Kec. Ampana Kota, Kabupaten Tojo Una-Una, Sulawesi Tengah 94683","Jl. Sungai Balingara, Uentanaga Atas, Kec. Ampana Kota, Kabupaten Tojo Una-Una",SULAWESI TENGAH,94683.0,Indonesia,,,,-0.8740896,121.5846378,https://maps.google.com/?cid=0x0:0xa4b5fb2078f854a,
komplek housing,Perhimpunan Pengembang Perumahan,MY HOME (RAMLYTAHA),"3M8W+9Q5, Mantangisi, Kec. Ampana Tete, Kabupaten Tojo Una-Una, Sulawesi Tengah","Kabupaten Tojo Una-Una, Sulawesi Tengah",SULAWESI TENGAH,,Indonesia,,,,-0.9341064,121.6969717,https://maps.google.com/?cid=0x0:0x93ddbac37c08ac64,
komplek housing,komplek housing,Rumah Hana,"3M8X+75H, Mantangisi, Kec. Ampana Tete, Kabupaten Tojo Una-Una, Sulawesi Tengah 94684","Mantangisi, Kec. Ampana Tete, Kabupaten Tojo Una-Una",SULAWESI TENGAH,94684.0,Indonesia,,,,-0.9342826,121.6986144,https://maps.google.com/?cid=0x0:0x9dc84124682d2494,
komplek housing,komplek housing,Rahmat Stay,"3HJV+78M, Uentanaga Atas, Kec. Ampana Kota, Kabupaten Tojo Una-Una, Sulawesi Tengah 94683","Uentanaga Atas, Kec. Ampana Kota, Kabupaten Tojo Una-Una",SULAWESI TENGAH,94683.0,Indonesia,,,,-0.9188965,121.5934466,https://maps.google.com/?cid=0x0:0x5c1826dda8210c0e,
komplek housing,komplek housing,Kec. Ampana Tete,"Kabupaten Tojo Una-Una, Sulawesi Tengah","Kabupaten Tojo Una-Una, Sulawesi Tengah",SULAWESI TENGAH,,Indonesia,,,,-1.1288349,121.7651362,https://maps.google.com/?cid=0x0:0x4030bfbcaf78210,
komplek housing,Pembangunan Perumahan,Uebone,"3MV3+Q6R, Uebone, Kec. Ampana Tete, Kabupaten Tojo Una-Una, Sulawesi Tengah 94684","Uebone, Kec. Ampana Tete, Kabupaten Tojo Una-Una",SULAWESI TENGAH,94684.0,Indonesia,,,,-0.905523,121.6530292,https://maps.google.com/?cid=0x0:0x4f227cf8067ad69b,
komplek housing,Komplek perumahan,Rumah pak makmur lantuka,"2PWC+967, Bantuga, Kec. Ampana Tete, Kabupaten Tojo Una-Una, Sulawesi Tengah 94684","Bantuga, Kec. Ampana Tete, Kabupaten Tojo Una-Una",SULAWESI TENGAH,94684.0,Indonesia,,,,-0.9541282,121.7205706,https://maps.google.com/?cid=0x0:0x15f08efabb133cad,
komplek housing,Komplek perumahan,Aryl_,"2QH7+3W2, Jl. Trans Sulawesi, Balanggala, Kec. Ampana Tete, Kabupaten Tojo Una-Una, Sulawesi Tengah 94684","Jl. Trans Sulawesi, Balanggala, Kec. Ampana Tete, Kabupaten Tojo Una-Una",SULAWESI TENGAH,94684.0,Indonesia,,,,-0.972278,121.764696,https://maps.google.com/?cid=0x0:0x3d35db16cc08def1,
komplek housing,Perhimpunan Pengembang Perumahan,Uchy,"4MF6+8JQ, Jl. Perikanan, Tete B, Kec. Ampana Tete, Kabupaten Tojo Una-Una, Sulawesi Tengah 94684","Jl. Perikanan, Tete B, Kec. Ampana Tete, Kabupaten Tojo Una-Una",SULAWESI TENGAH,94684.0,Indonesia,,,,-0.8766041,121.6616036,https://maps.google.com/?cid=0x0:0xb0503d49a634bf37,
komplek housing,Sekolah,Borone,"XP42+HX8, Borone, Kec. Ampana Tete, Kabupaten Tojo Una-Una, Sulawesi Tengah 94684","Borone, Kec. Ampana Tete, Kabupaten Tojo Una-Una",SULAWESI TENGAH,94684.0,Indonesia,,,,-1.0435819,121.7024448,https://maps.google.com/?cid=0x0:0xcf5cb5ebf8928efa,
komplek housing,Komplek perumahan,Rumah Dinas Guru ibu Nabila Kowiloy,"2PWC+37C, Bantuga, Kec. Ampana Tete, Kabupaten Tojo Una-Una, Sulawesi Tengah 94684","Bantuga, Kec. Ampana Tete, Kabupaten Tojo Una-Una",SULAWESI TENGAH,94684.0,Indonesia,,,,-0.9551842,121.7200967,https://maps.google.com/?cid=0x0:0xb3d6250877c3b1e7,
komplek housing,komplek housing,Rumah 3S,"Jl. Trans Sulawesi No.01, RT.01, Urundaka, Kec. Ampana Tete, Kabupaten Tojo Una-Una, Sulawesi Tengah 94684","RT.01, Urundaka, Kec. Ampana Tete, Kabupaten Tojo Una-Una",SULAWESI TENGAH,94684.0,Indonesia,,,,-0.9639359,121.7421785,https://maps.google.com/?cid=0x0:0xb2736a837d75d5a,
komplek housing,komplek housing,Rumah Nelsa,"3JQH+P6, atas, Kajulangko, Kec. Ampana Tete, Kabupaten Tojo Una-Una, Sulawesi Tengah 94684","atas, Kajulangko, Kec. Ampana Tete, Kabupaten Tojo Una-Una",SULAWESI TENGAH,94684.0,Indonesia, 082296030783,,,-0.9111087,121.6288997,https://maps.google.com/?cid=0x0:0xbf1c82b5b3b722d,
komplek housing,komplek housing,Sulawesi Tengah 94221,"Kec. Palu Bar., Kota Palu, Sulawesi Tengah","Kota Palu, Sulawesi Tengah",SULAWESI TENGAH,,Indonesia,,,,-0.8912088,119.8496976,https://maps.google.com/?cid=0x0:0xa023e20d5616ec4f,
komplek housing,Komplek perumahan,BEPONG!!!,"Jl. Donggata No.67, Lere, Kec. Palu Bar., Kota Palu, Sulawesi Tengah 94111","Lere, Kec. Palu Bar., Kota Palu",SULAWESI TENGAH,94111.0,Indonesia,,,,-0.8898672,119.8520968,https://maps.google.com/?cid=0x0:0xf6e0775b6e472b7c,
komplek housing,Komplek perumahan,Dhea Ardaeni,"4R7Q+RX9, Kabonena, Kec. Palu Bar., Kota Palu, Sulawesi Tengah 94221","Kabonena, Kec. Palu Bar., Kota Palu",SULAWESI TENGAH,94221.0,Indonesia,,,,-0.8855596,119.8401239,https://maps.google.com/?cid=0x0:0xa337c196b0d61dff,
komplek housing,komplek housing,Kel. Duyu kec. Tatanga kota palu,"Jl. Padanjakaya No.4, Duyu, Kec. Tatanga, Kota Palu, Sulawesi Tengah 94221","Duyu, Kec. Tatanga, Kota Palu",SULAWESI TENGAH,94221.0,Indonesia,,,,-0.9214929,119.8394134,https://maps.google.com/?cid=0x0:0xe15ed57817ad96f5,
komplek housing,Komplek perumahan,KEIRYU'S HOUSE,"4R3R+XWV, Donggala Kodi, Kec. Palu Bar., Kota Palu, Sulawesi Tengah 94111","Donggala Kodi, Kec. Palu Bar., Kota Palu",SULAWESI TENGAH,94111.0,Indonesia,,,,-0.8950168,119.8422906,https://maps.google.com/?cid=0x0:0xd18c4498515962c8,
komplek housing,Komplek perumahan,Rumah Bintang,"4V56+75F, Jl. KH Mas Mansyur, Baru, Kec. Palu Bar., Kota Palu, Sulawesi Tengah 94221","Jl. KH Mas Mansyur, Baru, Kec. Palu Bar., Kota Palu",SULAWESI TENGAH,94221.0,Indonesia,,,,-0.8918176,119.8604368,https://maps.google.com/?cid=0x0:0xd33dec37c49e8e1,
komplek housing,Pembangunan Perumahan,Kompleks Diamond Residence No 3,"Jl. Lamotu No.3, Lere, Kec. Palu Bar., Kota Palu, Sulawesi Tengah 94221","Lere, Kec. Palu Bar., Kota Palu",SULAWESI TENGAH,94221.0,Indonesia,,,,-0.8894645,119.8544029,https://maps.google.com/?cid=0x0:0x1083db8e10efcc38,
komplek housing,Komplek perumahan,Perumahan Dinas Sosial Pemprov Sulteng,"4R7V+2FG, Lere, Kec. Palu Bar., Kota Palu, Sulawesi Tengah 94221","Lere, Kec. Palu Bar., Kota Palu",SULAWESI TENGAH,94221.0,Indonesia,,,,-0.8874403,119.8436929,https://maps.google.com/?cid=0x0:0xc2442de65b883c,
komplek housing,Komplek perumahan,Lrg. UD. Mantap Kelurahan Baru,"4V45+CVM, Jl. HOS Cokroaminoto, Baru, Kec. Palu Bar., Kota Palu, Sulawesi Tengah 94221","Jl. HOS Cokroaminoto, Baru, Kec. Palu Bar., Kota Palu",SULAWESI TENGAH,94221.0,Indonesia,,,,-0.8951122,119.8601377,https://maps.google.com/?cid=0x0:0x9b1e9a7512259b9b,
komplek housing,Komplek perumahan,Rumah Idham jafar,"4V44+7WH, Baru, Kec. Palu Bar., Kota Palu, Sulawesi Tengah 94221","Baru, Kec. Palu Bar., Kota Palu",SULAWESI TENGAH,94221.0,Indonesia,,,,-0.894313,119.8573717,https://maps.google.com/?cid=0x0:0xbd3b6678d91d0711,
komplek housing,Pembangunan Perumahan,Jalan Talua Toma Yojo,"3RPQ+VVC, Jl. Gunung Gawalise, Balaroa, Kec. Tatanga, Kota Palu, Sulawesi Tengah 94221","Jl. Gunung Gawalise, Balaroa, Kec. Tatanga, Kota Palu",SULAWESI TENGAH,94221.0,Indonesia,,,,-0.9128031,119.8396488,https://maps.google.com/?cid=0x0:0x1d04bcc09e4581c9,
komplek housing,Komplek perumahan,ZuLhaM Home,"Jl. Bantilan No.45, Lere, Kec. Palu Bar., Kota Palu, Sulawesi Tengah","Kota Palu, Sulawesi Tengah",SULAWESI TENGAH,,Indonesia,,,,-0.8931086,119.8530423,https://maps.google.com/?cid=0x0:0xeea63b0254b75f78,
komplek housing,komplek housing,Lyly Dessert,"4V46+3RW, Baru, Kec. Palu Bar., Kota Palu, Sulawesi Tengah 94221","Baru, Kec. Palu Bar., Kota Palu",SULAWESI TENGAH,94221.0,Indonesia,,,,-0.8947506,119.8620743,https://maps.google.com/?cid=0x0:0x3e7ffa1d72452c5c,
komplek housing,Perhimpunan Pengembang Perumahan,Kompleks Perumahan Djamal Jafar,"3RPX+XP5, Jl. Umar Syarif, Duyu, Kec. Tatanga, Kota Palu, Sulawesi Tengah 94222","Jl. Umar Syarif, Duyu, Kec. Tatanga, Kota Palu",SULAWESI TENGAH,94222.0,Indonesia,,,,-0.9126054,119.8493702,https://maps.google.com/?cid=0x0:0xde5fd334b9257dcd,
komplek housing,Komplek perumahan,Akbar Home,"Jl. Samudra 2 No.9, Lere, Kec. Palu Bar., Kota Palu, Sulawesi Tengah 94111","Lere, Kec. Palu Bar., Kota Palu",SULAWESI TENGAH,94111.0,Indonesia,,,,-0.8868598,119.8427037,https://maps.google.com/?cid=0x0:0x83bae3b7fdd93db4,
komplek housing,Perumahan,Kompleks Perumahan BTN Anggur Permai,"Jl. Anggur Kompleks Perumahan BTN Anggur, Boyaoge, Kec. Tatanga, Kota Palu, Sulawesi Tengah 94223","Boyaoge, Kec. Tatanga, Kota Palu",SULAWESI TENGAH,94223.0,Indonesia, 082335257100,,,-0.9090594,119.853275,https://maps.google.com/?cid=0x0:0xf0009ec278f17fba,
komplek housing,Komplek perumahan,Aisyah Lataha,"Jl. Tembang No.24, Lere, Kec. Palu Bar., Kota Palu, Sulawesi Tengah","Kota Palu, Sulawesi Tengah",SULAWESI TENGAH,,Indonesia,,,,-0.8868481,119.8540003,https://maps.google.com/?cid=0x0:0x3c2c145347c016dc,
komplek housing,Komplek perumahan,Home family Diah,"Jl. Selar Lorong No.8, Lere, Kec. Palu Bar., Kota Palu, Sulawesi Tengah 94221","Lere, Kec. Palu Bar., Kota Palu",SULAWESI TENGAH,94221.0,Indonesia,,,,-0.8876715,119.8551441,https://maps.google.com/?cid=0x0:0xa05b38945d7040d1,
komplek housing,Komplek perumahan,Rumah Pogego,"Jl. Tamako 2 No.99, Donggala Kodi, Kec. Palu Bar., Kota Palu, Sulawesi Tengah 94111","Donggala Kodi, Kec. Palu Bar., Kota Palu",SULAWESI TENGAH,94111.0,Indonesia,,,,-0.8952732,119.8453413,https://maps.google.com/?cid=0x0:0xe4e648c5422f3472,
komplek housing,Pembangunan Perumahan,Komplek kos²an,"Jl. Durian No.88, Kamonji, Kec. Palu Bar., Kota Palu, Sulawesi Tengah 94111","Kamonji, Kec. Palu Bar., Kota Palu",SULAWESI TENGAH,94111.0,Indonesia,,,,-0.8955747,119.8498188,https://maps.google.com/?cid=0x0:0xb8cff56f292fd211,
komplek housing,Komplek perumahan,Rumah Hidayat,"Jl. Padanjakaya No.41, Duyu, Kec. Tatanga, Kota Palu, Sulawesi Tengah 94221","Duyu, Kec. Tatanga, Kota Palu",SULAWESI TENGAH,94221.0,Indonesia,,,,-0.9212103,119.8425358,https://maps.google.com/?cid=0x0:0x73ee9e5b82dbe835,
komplek housing,Pembangunan Perumahan,Kandang Sapi Berkualitas,"Jl. Gunung Gawalise No.220, Duyu, Kec. Palu Bar., Kota Palu, Sulawesi Tengah 94221","Duyu, Kec. Palu Bar., Kota Palu",SULAWESI TENGAH,94221.0,Indonesia,,,,-0.9163423,119.8387834,https://maps.google.com/?cid=0x0:0x77fdcf6a082a0309,
komplek housing,komplek housing,Kec. Tatanga,"Kota Palu, Sulawesi Tengah","Kota Palu, Sulawesi Tengah",SULAWESI TENGAH,,Indonesia,,,,-0.9222608,119.8563729,https://maps.google.com/?cid=0x0:0x9b2bb5a133e4e1d7,
komplek housing,Komplek perumahan,Rumah Om Dollah,"3RGW+X2M, Duyu, Kec. Palu Bar., Kota Palu, Sulawesi Tengah 94221","Duyu, Kec. Palu Bar., Kota Palu",SULAWESI TENGAH,94221.0,Indonesia,,,,-0.9225363,119.8450393,https://maps.google.com/?cid=0x0:0x88bac063e9937a9e,
komplek housing,Komplek perumahan,Rumah ortu,"Jl. Padanjakaya No.74, Pengawu, Kec. Tatanga, Kota Palu, Sulawesi Tengah 94221","Pengawu, Kec. Tatanga, Kota Palu",SULAWESI TENGAH,94221.0,Indonesia,,,,-0.9218098,119.8439654,https://maps.google.com/?cid=0x0:0xae44fde0af604d1d,
komplek housing,Komplek perumahan,INIRAZ HOME,"3RCW+8VH, Pengawu, Kec. Palu Sel., Kota Palu, Sulawesi Tengah 94221","Pengawu, Kec. Palu Sel., Kota Palu",SULAWESI TENGAH,94221.0,Indonesia,,,,-0.9291992,119.8472498,https://maps.google.com/?cid=0x0:0x362654a8e915823e,
komplek housing,Komplek perumahan,Purnama Residance,"3R8Q+828, Jl. Keramik, Duyu, Kec. Palu Bar., Kota Palu, Sulawesi Tengah 94221","Jl. Keramik, Duyu, Kec. Palu Bar., Kota Palu",SULAWESI TENGAH,94221.0,Indonesia,,,,-0.9348016,119.8371623,https://maps.google.com/?cid=0x0:0x19b311ee0433d6b1,
komplek housing,Komplek perumahan,Idham  Intan's House,"3R9V+9C7, Jl. Malontara, Duyu, Kec. Tatanga, Kota Palu, Sulawesi Tengah 94221","Jl. Malontara, Duyu, Kec. Tatanga, Kota Palu",SULAWESI TENGAH,94221.0,Indonesia,,,,-0.9313534,119.8430203,https://maps.google.com/?cid=0x0:0x68c979c8b2e93f5a,
komplek housing,Komplek perumahan,Ns,"3RHR+R28, Jl. Padanjakaya, Duyu, Kec. Palu Bar., Kota Palu, Sulawesi Tengah 94221","Jl. Padanjakaya, Duyu, Kec. Palu Bar., Kota Palu",SULAWESI TENGAH,94221.0,Indonesia,,,,-0.920107,119.8396665,https://maps.google.com/?cid=0x0:0x230272910d831a35,
komplek housing,komplek housing,Sulawesi Tengah 94222,Sulawesi Tengah,Sulawesi Tengah,SULAWESI TENGAH,,Indonesia,,,,-0.9471477,119.8641634,https://maps.google.com/?cid=0x0:0xbac940530ed27252,
komplek housing,Otoritas Perumahan,Perumahan Anda Blok H 7 ujung,"3V93+37X Nmr, Btn Puskud Perumahan Anda, Blk. B, Palupi, Kec. Tatanga, Kota Palu, Sulawesi Tengah 94222","Btn Puskud Perumahan Anda, Blk. B, Palupi, Kec. Tatanga, Kota Palu",SULAWESI TENGAH,94222.0,Indonesia,,,,-0.9322706,119.8531746,https://maps.google.com/?cid=0x0:0xb12a008ade528234,
komplek housing,Komplek perumahan,Perumahan Nurul Chairaat Palupi Kota Palu,"3VC4+2PR Perumahan Nurul Chairaat, Palupi, Kec. Tatanga, Kota Palu, Sulawesi Tengah 94222","Palupi, Kec. Tatanga, Kota Palu",SULAWESI TENGAH,94222.0,Indonesia,,,,-0.9298865,119.8567784,https://maps.google.com/?cid=0x0:0xe9262817c02adc30,
komplek housing,Komplek perumahan,PERUMAHAN PALUPI PERMAI BLOK C NO 5,"Jl. Virgo No.62, Palupi, Kec. Tatanga, Kota Palu, Sulawesi Tengah 94222","Palupi, Kec. Tatanga, Kota Palu",SULAWESI TENGAH,94222.0,Indonesia,,,,-0.9262223,119.8607748,https://maps.google.com/?cid=0x0:0x5476c110cf7d778f,
komplek housing,komplek housing,BTN UKHUWAH LAND TINGGEDE,"3V29+M59, Tinggede Sel., Kec. Marawola, Kabupaten Sigi, Sulawesi Tengah","Kabupaten Sigi, Sulawesi Tengah",SULAWESI TENGAH,,Indonesia,,,,-0.9483433,119.8679869,https://maps.google.com/?cid=0x0:0x6daae8fa3c521609,
komplek housing,komplek housing,Dani's House,"3V95+JXV, Jl. Nusantara, Palupi, Kec. Tatanga, Kota Palu, Sulawesi Tengah 94222","Jl. Nusantara, Palupi, Kec. Tatanga, Kota Palu",SULAWESI TENGAH,94222.0,Indonesia,,,,-0.9308817,119.8599243,https://maps.google.com/?cid=0x0:0x33d9ee196bffa61,
komplek housing,Komplek perumahan,BMW House,"BTN Palupi Permai, Blok C No.25, Palupi, Kec. Tatanga, Kota Palu, Sulawesi Tengah 94222","Blok C No.25, Palupi, Kec. Tatanga, Kota Palu",SULAWESI TENGAH,94222.0,Indonesia,,,,-0.9281369,119.8609378,https://maps.google.com/?cid=0x0:0x1700491e22870b79,
komplek housing,Komplek perumahan,Dea House,"Jl. Graha Mutiara No.20 Blok B2, Tinggede Sel., Kec. MarawolaKabupaten, Kabupaten Sigi, Sulawesi Tengah 94222","Tinggede Sel., Kec. MarawolaKabupaten, Kabupaten Sigi",SULAWESI TENGAH,94222.0,Indonesia,,,,-0.9431548,119.8653875,https://maps.google.com/?cid=0x0:0x29407e64d6dd803,
komplek housing,Komplek perumahan,LUNETTA HOME,"3VF5+MCH, Jl. Poros Palu Bangga, Palupi, Kec. Tatanga, Kota Palu, Sulawesi Tengah 94222","Jl. Poros Palu Bangga, Palupi, Kec. Tatanga, Kota Palu",SULAWESI TENGAH,94222.0,Indonesia,,,,-0.925845,119.8585663,https://maps.google.com/?cid=0x0:0x16a3f46d5f58fad2,
komplek housing,Komplek perumahan,HOME CHIO,"Kompx Btn Puskud, Jl. Pue Bongo II, Palupi, Kec. Tatanga, Kota Palu, Sulawesi Tengah 94222","Jl. Pue Bongo II, Palupi, Kec. Tatanga, Kota Palu",SULAWESI TENGAH,94222.0,Indonesia,,,,-0.9298881,119.8543321,https://maps.google.com/?cid=0x0:0x6a45685d84d40e9,
komplek housing,Pembangunan Perumahan,GRAND TANAMEA RESIDENCE,"3VR6+VMF, Jl. Sungai Tanamea, Boyaoge, Kec. Tatanga, Kota Palu, Sulawesi Tengah 94111","Jl. Sungai Tanamea, Boyaoge, Kec. Tatanga, Kota Palu",SULAWESI TENGAH,94111.0,Indonesia, 081944977062,,,-0.9078221,119.8616785,https://maps.google.com/?cid=0x0:0x79f0be1d638eb0f,
komplek housing,Komplek perumahan,Home,"BTN Griya Palupi Permai, Blok M. 1, Palupi, Kec. Tatanga, Kota Palu, Sulawesi Tengah 94222","Blok M. 1, Palupi, Kec. Tatanga, Kota Palu",SULAWESI TENGAH,94222.0,Indonesia,,,,-0.9268291,119.8581298,https://maps.google.com/?cid=0x0:0x7c0b477613614cfa,
komplek housing,Pembangunan Perumahan,Mitra Land Tinggede,"3V49+G98, Jl. Manunggal, Tinggede Sel., Kec. Marawola, Kabupaten Sigi, Sulawesi Tengah 94222","Jl. Manunggal, Tinggede Sel., Kec. Marawola, Kabupaten Sigi",SULAWESI TENGAH,94222.0,Indonesia,,,,-0.943714,119.8684626,https://maps.google.com/?cid=0x0:0x7c1a6bbdb98899e8,
komplek housing,Pembangunan Perumahan,Citra house,"3VF5+4C7, Palupi, Kec. Tatanga, Kota Palu, Sulawesi Tengah 94222","Palupi, Kec. Tatanga, Kota Palu",SULAWESI TENGAH,94222.0,Indonesia,,,,-0.9272248,119.8585479,https://maps.google.com/?cid=0x0:0x2b7bb67922b7ad64,
komplek housing,Komplek perumahan,BTN Green Palupi Mandiri 1,"3V93+MCG, Palupi, Kec. Tatanga, Kota Palu, Sulawesi Tengah 94222","Palupi, Kec. Tatanga, Kota Palu",SULAWESI TENGAH,94222.0,Indonesia,,,,-0.9308151,119.853591,https://maps.google.com/?cid=0x0:0x2ab6cfa2497c08e3,
komplek housing,Komplek perumahan,AFNADZ RUMAH BOMBA,"BTN Palupi Permai, Jl. Paramedis III No.2 blok D1, Palupi, Kec. Tatanga, Kota Palu, Sulawesi Tengah 94222","Jl. Paramedis III No.2 blok D1, Palupi, Kec. Tatanga, Kota Palu",SULAWESI TENGAH,94222.0,Indonesia, 082193805757,,,-0.9315195,119.8609132,https://maps.google.com/?cid=0x0:0x479321cf0f9c5ee5,
komplek housing,Komplek perumahan,Raya FF 15,"3VC7+72W, Jl. Sawerigading Kec tatanga, Tinggede, Kec. Palu Sel., Kota Palu, Sulawesi Tengah 94222","Jl. Sawerigading Kec tatanga, Tinggede, Kec. Palu Sel., Kota Palu",SULAWESI TENGAH,94222.0,Indonesia,,,,-0.9292538,119.8625866,https://maps.google.com/?cid=0x0:0x6cf80c127523ed4b,
komplek housing,Komplek perumahan,Perumahan Berlianland Baliase,"3V65+XH, Baliase, Kec. Marawola, Kabupaten Sigi, Sulawesi Tengah 94222","Baliase, Kec. Marawola, Kabupaten Sigi",SULAWESI TENGAH,94222.0,Indonesia,,,,-0.9386631,119.8595799,https://maps.google.com/?cid=0x0:0xb554f5f5317f0208,
komplek housing,Komplek perumahan,Udin Djabu House,"Blk. I No.1, Palupi, Kec. Tatanga, Kota Palu, Sulawesi Tengah 94222","Palupi, Kec. Tatanga, Kota Palu",SULAWESI TENGAH,94222.0,Indonesia,,,,-0.9285032,119.8592664,https://maps.google.com/?cid=0x0:0xaec5078444599b72,
komplek housing,Komplek perumahan,nadil home,"Jl. Kebersamaan No.1, Palupi, Kec. Tatanga, Kota Palu, Sulawesi Tengah 94222","Palupi, Kec. Tatanga, Kota Palu",SULAWESI TENGAH,94222.0,Indonesia,,,,-0.9295925,119.8593389,https://maps.google.com/?cid=0x0:0x2122a0428f16bffe,
komplek housing,komplek housing,Kec. Tatanga,"Kota Palu, Sulawesi Tengah","Kota Palu, Sulawesi Tengah",SULAWESI TENGAH,,Indonesia,,,,-0.9222608,119.8563729,https://maps.google.com/?cid=0x0:0x9b2bb5a133e4e1d7,
komplek housing,Perhimpunan Pengembang Perumahan,BENPENG,"3RGX+6R4, Pengawu, Kec. Tatanga, Kota Palu, Sulawesi Tengah 94222","Pengawu, Kec. Tatanga, Kota Palu",SULAWESI TENGAH,94222.0,Indonesia,,,,-0.92576,119.8485268,https://maps.google.com/?cid=0x0:0x8e96e5827611d2e9,
komplek housing,komplek housing,Home Nurhaida,"3VH2+Q2J, Jl. Padanjakaya Lorong Asam, Pengawu, Kec. Tatanga, Kota Palu, Sulawesi Tengah 94222","Jl. Padanjakaya Lorong Asam, Pengawu, Kec. Tatanga, Kota Palu",SULAWESI TENGAH,94222.0,Indonesia,,,,-0.9205287,119.8500037,https://maps.google.com/?cid=0x0:0xf5056e57ff3d5a4f,
komplek housing,Otoritas Perumahan,Perumahan harmoni 2 pengawu,"3RGX+6VP, perumahan harmoni No, 2, Pengawu, Kec. Palu Sel., Kota Palu, Sulawesi Tengah 94222","perumahan harmoni No, 2, Pengawu, Kec. Palu Sel., Kota Palu",SULAWESI TENGAH,94222.0,Indonesia,,,,-0.9213068,119.8503268,https://maps.google.com/?cid=0x0:0xd27f26b0baa40937,
komplek housing,Komplek perumahan,Aicah’s Home,"Jl. Btn Pengawu No.9 Blok L1, Pengawu, Tatanga, Palu City, Central Sulawesi 94222","Pengawu, Tatanga, Palu City",SULAWESI TENGAH,94222.0,Indonesia,,,,-0.9257179,119.8473064,https://maps.google.com/?cid=0x0:0x79b181c253b77c60,
komplek housing,Perhimpunan Pengembang Perumahan,Kompleks Perumahan Djamal Jafar,"3RPX+XP5, Jl. Umar Syarif, Duyu, Kec. Tatanga, Kota Palu, Sulawesi Tengah 94222","Jl. Umar Syarif, Duyu, Kec. Tatanga, Kota Palu",SULAWESI TENGAH,94222.0,Indonesia,,,,-0.9126054,119.8493702,https://maps.google.com/?cid=0x0:0xde5fd334b9257dcd,
komplek housing,Perhimpunan Pengembang Perumahan,PutriAdam cake,"Jl. Pue Bongo II, Palupi, Kec. Tatanga, Kota Palu, Sulawesi Tengah 94222","Palupi, Kec. Tatanga, Kota Palu",SULAWESI TENGAH,94222.0,Indonesia, 082122227132,,,-0.9314706,119.8533991,https://maps.google.com/?cid=0x0:0x7d8242dfaad84ab0,
komplek housing,Perhimpunan Pengembang Perumahan,Rezha_Store,"3VF4+VQV, Jl. Pue Bongo II, Palupi, Kec. Tatanga, Kota Palu, Sulawesi Tengah 94222","Jl. Pue Bongo II, Palupi, Kec. Tatanga, Kota Palu",SULAWESI TENGAH,94222.0,Indonesia,,,,-0.925261,119.8569341,https://maps.google.com/?cid=0x0:0x70a2f441fac539,
komplek housing,Komplek perumahan,Rumah nya Echa,"Jl. Poros Palu Bangga No.27, Palupi, Kec. Palu Sel., Kota Palu, Sulawesi Tengah 94222","Palupi, Kec. Palu Sel., Kota Palu",SULAWESI TENGAH,94222.0,Indonesia,,,,-0.924247,119.8587841,https://maps.google.com/?cid=0x0:0x6a90c63b75241d97,
komplek housing,komplek housing,Sulawesi Tengah 94225,"Kabupaten Sigi, Sulawesi Tengah","Kabupaten Sigi, Sulawesi Tengah",SULAWESI TENGAH,,Indonesia,,,,-0.9727709,119.7947139,https://maps.google.com/?cid=0x0:0x24ce1cc8904f7ae5,
komplek housing,Komplek perumahan,Pomandu Residence,"3RFR+54M, Duyu, Kec. Tatanga, Kota Palu, Sulawesi Tengah","Kota Palu, Sulawesi Tengah",SULAWESI TENGAH,,Indonesia,,,,-0.9270265,119.8402854,https://maps.google.com/?cid=0x0:0x4251affebdfd8da5,
komplek housing,komplek housing,Korwil,"2RJG+GG, Uwemanje, Kec. Kinovaro, Kabupaten Sigi, Sulawesi Tengah","Kabupaten Sigi, Sulawesi Tengah",SULAWESI TENGAH,,Indonesia,,,,-0.9686883,119.8263467,https://maps.google.com/?cid=0x0:0x8772f2cee569e420,
komplek housing,Kantor Pemerintah,Desa wayu,"2RV4+CWV, Wayu, Kec. Banawa Sel., Kabupaten Sigi, Sulawesi Tengah","Kabupaten Sigi, Sulawesi Tengah",SULAWESI TENGAH,,Indonesia,,,,-0.9563896,119.8073098,https://maps.google.com/?cid=0x0:0xde2103bac78da88f,
komplek housing,Komplek perumahan,Griya Tadulako Permai 5,"5W77+82Q, Tondo, Kec. Mantikulore, Kota Palu, Sulawesi Tengah","Kota Palu, Sulawesi Tengah",SULAWESI TENGAH,,Indonesia,,,,-0.8366576,119.9126029,https://maps.google.com/?cid=0x0:0x634ad1a5d45c2b19,
komplek housing,Toko Buah dan Sayuran,Kios Strawberry,"2QJH+WFW, Dombu, Kec. Marawola Barat, Kabupaten Sigi, Sulawesi Tengah","Kabupaten Sigi, Sulawesi Tengah",SULAWESI TENGAH,,Indonesia,,,,-0.9676293,119.7787062,https://maps.google.com/?cid=0x0:0x6efd50e702f7ab1a,
komplek housing,Komplek perumahan,Rumah pak andi,"2QVM+G72, Dombu, Kec. Marawola Barat, Kabupaten Sigi, Sulawesi Tengah","Kabupaten Sigi, Sulawesi Tengah",SULAWESI TENGAH,,Indonesia,,,,-0.9562363,119.7831356,https://maps.google.com/?cid=0x0:0x789a93af7820519f,
komplek housing,Komplek perumahan,Mbola,"2R26+Q4, Uwemanje, Kec. Kinovaro, Kabupaten Sigi, Sulawesi Tengah","Kabupaten Sigi, Sulawesi Tengah",SULAWESI TENGAH,,Indonesia,,,,-0.9980267,119.8103265,https://maps.google.com/?cid=0x0:0xacda6b698fc85cb8,
komplek housing,Pembangunan Perumahan,Rumah anesya,"2QVM+G72, Dombu, Kec. Marawola Barat, Kabupaten Sigi, Sulawesi Tengah","Kabupaten Sigi, Sulawesi Tengah",SULAWESI TENGAH,,Indonesia,,,,-0.9562363,119.7831356,https://maps.google.com/?cid=0x0:0xe32e1ab0d8d1a3b5,
komplek housing,Komplek perumahan,Grand Taipa Residence,"Jl. Langaleso No.Kel, Taipa, Kec. Palu Utara, Kota Palu, Sulawesi Tengah 94141","Taipa, Kec. Palu Utara, Kota Palu",SULAWESI TENGAH,94141.0,Indonesia,,,,-0.7798012,119.864549,https://maps.google.com/?cid=0x0:0x2e027e3e560311b4,
komplek housing,komplek housing,Kec. Tatanga,"Kota Palu, Sulawesi Tengah","Kota Palu, Sulawesi Tengah",SULAWESI TENGAH,,Indonesia,,,,-0.9222608,119.8563729,https://maps.google.com/?cid=0x0:0x9b2bb5a133e4e1d7,
komplek housing,Komplek perumahan,TAIPA RANGGU VILLAGE Duyu,"Jl. Taipa Ranggu, Duyu, Kec. Tatanga, Kota Palu, Sulawesi Tengah 94225","Duyu, Kec. Tatanga, Kota Palu",SULAWESI TENGAH,94225.0,Indonesia, 08114530877,,,-0.9316579,119.8354919,https://maps.google.com/?cid=0x0:0xbe46963461f4fa9c,
komplek housing,Perumahan,HUNTAP DUYU,"3RJP+HCR, Jalan Raya Kawasan Huntap No.7, Huntap, Duyu, Kec. Tatanga, Kota Palu, Sulawesi Tengah 94225","Jalan Raya Kawasan Huntap No.7, Huntap, Duyu, Kec. Tatanga, Kota Palu",SULAWESI TENGAH,94225.0,Indonesia,,,,-0.9188998,119.8335926,https://maps.google.com/?cid=0x0:0xd269b4f74330b5cb,
komplek housing,Pembangunan Perumahan,Rumah Agam Starboi,"3RMX+W69, Jl. Sungai Manonda Lorong Tagari, Duyu, Kec. Tatanga, Kota Palu, Sulawesi Tengah 94225","Jl. Sungai Manonda Lorong Tagari, Duyu, Kec. Tatanga, Kota Palu",SULAWESI TENGAH,94225.0,Indonesia,,,,-0.915217,119.8481249,https://maps.google.com/?cid=0x0:0x3497878720b04372,
komplek housing,Komplek perumahan,rumah moza,"Jl. PDAM No.10, Duyu, Kec. Tatanga, Kota Palu, Sulawesi Tengah 94225","Duyu, Kec. Tatanga, Kota Palu",SULAWESI TENGAH,94225.0,Indonesia,,,,-0.9118711,119.8429828,https://maps.google.com/?cid=0x0:0x6e6773da75b93a64,
komplek housing,Agensi real estat industri,Siomay pak gatot,"3RMX+W69 komp perumahan Griya@Tagari(green, Jl. Sungai Manonda Lorong Tagari, Duyu, Kec. Tatanga, Kota Palu, Sulawesi Tengah 94225","Jl. Sungai Manonda Lorong Tagari, Duyu, Kec. Tatanga, Kota Palu",SULAWESI TENGAH,94225.0,Indonesia,,,,-0.9152217,119.8480953,https://maps.google.com/?cid=0x0:0xa9869406878d45b1,
komplek housing,komplek housing,Sulawesi Tengah 94237,"Kec. Marawola, Kabupaten Sigi, Sulawesi Tengah","Kabupaten Sigi, Sulawesi Tengah",SULAWESI TENGAH,,Indonesia,,,,-0.9616704,119.8670563,https://maps.google.com/?cid=0x0:0xfcf6e79665085f54,
komplek housing,Perumahan,PERUMAHAN MACINNONG LAND KALUBULA,"2VRM+977, Kalukubula, Kec. Sigi Biromaru, Kabupaten Sigi, Sulawesi Tengah 94237","Kalukubula, Kec. Sigi Biromaru, Kabupaten Sigi",SULAWESI TENGAH,94237.0,Indonesia, 082259994994,,,-0.9594467,119.883539,https://maps.google.com/?cid=0x0:0x593e23120f9f8dfe,
komplek housing,Komplek perumahan,RUMPAS,"2VR3+JV, Padende, Kec. Marawola, Kabupaten Sigi, Sulawesi Tengah 94237","Padende, Kec. Marawola, Kabupaten Sigi",SULAWESI TENGAH,94237.0,Indonesia,,,,-0.9583803,119.854708,https://maps.google.com/?cid=0x0:0x89386ffa13b82867,
komplek housing,komplek housing,Lomo family home,"2VQC+QR3, Padende, Kec. Marawola, Kabupaten Sigi, Sulawesi Tengah 94237","Padende, Kec. Marawola, Kabupaten Sigi",SULAWESI TENGAH,94237.0,Indonesia,,,,-0.9606079,119.8720511,https://maps.google.com/?cid=0x0:0xefdc65a4075043cd,
komplek housing,komplek housing,Endy akay,"2VPP+82P, Kalukubula, Kec. Sigi Biromaru, Kabupaten Sigi, Sulawesi Tengah 94237","Kalukubula, Kec. Sigi Biromaru, Kabupaten Sigi",SULAWESI TENGAH,94237.0,Indonesia,,,,-0.9643808,119.8858054,https://maps.google.com/?cid=0x0:0x6079ab694dcd3cb4,
komplek housing,Komplek perumahan,Homesweet A3,"2VQM+3PX, Kalukubula, Kec. Sigi Biromaru, Kabupaten Sigi, Sulawesi Tengah 94237","Kalukubula, Kec. Sigi Biromaru, Kabupaten Sigi",SULAWESI TENGAH,94237.0,Indonesia,,,,-0.962114,119.8844151,https://maps.google.com/?cid=0x0:0xb4d754db2434f8b8,
komplek housing,Pembangunan Perumahan,KG121021,"2VQ3+CWM, Jl. Poros Palu Bangga, Padende, Kec. Marawola, Kabupaten Sigi, Sulawesi Tengah 94237","Jl. Poros Palu Bangga, Padende, Kec. Marawola, Kabupaten Sigi",SULAWESI TENGAH,94237.0,Indonesia,,,,-0.9614745,119.8546728,https://maps.google.com/?cid=0x0:0xea7908b13b61e7ca,
komplek housing,Pembangunan Perumahan,Kompleks Griya Persada Kalukubula,"2VVP+H35, Jl. Lando, Kalukubula, Kec. Sigi Biromaru, Kabupaten Sigi, Sulawesi Tengah 94236","Jl. Lando, Kalukubula, Kec. Sigi Biromaru, Kabupaten Sigi",SULAWESI TENGAH,94236.0,Indonesia,,,,-0.9561085,119.8852316,https://maps.google.com/?cid=0x0:0x4be2fdf6e7f050df,
komplek housing,komplek housing,BTN UKHUWAH LAND TINGGEDE,"3V29+M59, Tinggede Sel., Kec. Marawola, Kabupaten Sigi, Sulawesi Tengah","Kabupaten Sigi, Sulawesi Tengah",SULAWESI TENGAH,,Indonesia,,,,-0.9483433,119.8679869,https://maps.google.com/?cid=0x0:0x6daae8fa3c521609,
komplek housing,Komplek perumahan,Mezael home,"Btn Grand, Jl. Lando 2 blok Ag 95, Kalukubula, Kec. Sigi Biromaru, Kabupaten Sigi, Sulawesi Tengah","Kabupaten Sigi, Sulawesi Tengah",SULAWESI TENGAH,,Indonesia,,,,-0.9611694,119.8906838,https://maps.google.com/?cid=0x0:0xb408a7dcb018ee78,
komplek housing,Komplek perumahan,Home RiyadiDwiHandayani,"2VQP+FG8, Kalukubula, Kec. Sigi Biromaru, Kabupaten Sigi, Sulawesi Tengah 94237","Kalukubula, Kec. Sigi Biromaru, Kabupaten Sigi",SULAWESI TENGAH,94237.0,Indonesia,,,,-0.9613726,119.8860258,https://maps.google.com/?cid=0x0:0xfc0999a6ac540691,
komplek housing,Pembangunan Perumahan,Padende,"2VR2+JWP, Padende, Kec. Marawola, Kabupaten Sigi, Sulawesi Tengah 94237","Padende, Kec. Marawola, Kabupaten Sigi",SULAWESI TENGAH,94237.0,Indonesia,,,,-0.9584135,119.8523235,https://maps.google.com/?cid=0x0:0x1818e6d610cd0a78,
komplek housing,Komplek perumahan,Rumah Ega,"lrg balintuma, Bumi kelapa plus, Jl. Lando No.2","Kabupaten Sigi, Sulawesi Tengah",SULAWESI TENGAH,,Indonesia,,,,-0.956064,119.885019,https://maps.google.com/?cid=0x0:0x285272b19ad52727,
komplek housing,Perumahan,Rumah pak Rais,"2VHJ+HW2, Kabobona, Kec. Dolo, Kota Palu, Sulawesi Tengah 94238","Kabobona, Kec. Dolo, Kota Palu",SULAWESI TENGAH,94238.0,Indonesia,,,,-0.970999,119.882244,https://maps.google.com/?cid=0x0:0xe836f3bef07652c8,
komplek housing,Pembangunan Perumahan,Home AMERA,"2VQP+FG8, Kalukubula, Kec. Sigi Biromaru, Kabupaten Sigi, Sulawesi Tengah 94237","Kalukubula, Kec. Sigi Biromaru, Kabupaten Sigi",SULAWESI TENGAH,94237.0,Indonesia,,,,-0.9611872,119.8863292,https://maps.google.com/?cid=0x0:0xccc0da19ea956fb2,
komplek housing,Komplek perumahan,RUMAHNYA NOVA DAN FAJAR,"2VP4+G84, Jl. Buvumpoku, Padende, Kec. Marawola, Kabupaten Sigi, Sulawesi Tengah 94237","Jl. Buvumpoku, Padende, Kec. Marawola, Kabupaten Sigi",SULAWESI TENGAH,94237.0,Indonesia,,,,-0.9633883,119.8559771,https://maps.google.com/?cid=0x0:0x478eda9978de1a81,
komplek housing,Komplek perumahan,Smart Lando Blok B2,"2VRQ+HV6, Kalukubula, Kec. Sigi Biromaru, Kabupaten Sigi, Sulawesi Tengah 94236","Kalukubula, Kec. Sigi Biromaru, Kabupaten Sigi",SULAWESI TENGAH,94236.0,Indonesia,,,,-0.9591141,119.8889712,https://maps.google.com/?cid=0x0:0x375a4a4ee3dc923a,
komplek housing,Komplek perumahan,BTN Ukhuwaland Blok G 01,"Btn Ukhuwaland No.01 Blok G, Kalukubula, Kec. Sigi Biromaru, Kabupaten Sigi, Sulawesi Tengah","Kabupaten Sigi, Sulawesi Tengah",SULAWESI TENGAH,,Indonesia,,,,-0.9615141,119.8801403,https://maps.google.com/?cid=0x0:0x34149d28ee24d31f,
komplek housing,Komplek perumahan,Rumah Fadhilah,"2VP3+3WV, Jl. Poros Palu Bangga, Padende, Kec. Marawola, Kabupaten Sigi, Sulawesi Tengah 94237","Jl. Poros Palu Bangga, Padende, Kec. Marawola, Kabupaten Sigi",SULAWESI TENGAH,94237.0,Indonesia,,,,-0.9649337,119.8552531,https://maps.google.com/?cid=0x0:0x746314bc0f3b9466,
komplek housing,Komplek perumahan,Dea House,"Jl. Graha Mutiara No.20 Blok B2, Tinggede Sel., Kec. MarawolaKabupaten, Kabupaten Sigi, Sulawesi Tengah 94222","Tinggede Sel., Kec. MarawolaKabupaten, Kabupaten Sigi",SULAWESI TENGAH,94222.0,Indonesia,,,,-0.9431548,119.8653875,https://maps.google.com/?cid=0x0:0x29407e64d6dd803,
komplek housing,komplek housing,Kec. Tatanga,"Kota Palu, Sulawesi Tengah","Kota Palu, Sulawesi Tengah",SULAWESI TENGAH,,Indonesia,,,,-0.9222608,119.8563729,https://maps.google.com/?cid=0x0:0x9b2bb5a133e4e1d7,
komplek housing,komplek housing,Kost 75,,,SULAWESI TENGAH,,Indonesia, 081283196106,,,-2.44565,117.8888,https://maps.google.com/?cid=0x0:0x26b0a0088b3df2a3,
komplek housing,Rumah wisata,Kost Munifah,"Jl. Bente, RT.003/RW.004, Tawanjuka, Kec. Tatanga, Kota Palu, Sulawesi Tengah 94237","RT.003/RW.004, Tawanjuka, Kec. Tatanga, Kota Palu",SULAWESI TENGAH,94237.0,Indonesia, 085299474921,,,-0.9229736,119.8722933,https://maps.google.com/?cid=0x0:0x45d7377028b55f65,
komplek housing,komplek housing,e  p,,,SULAWESI TENGAH,,Indonesia, 082211448387,,,-0.789562,119.899274,https://maps.google.com/?cid=0x0:0xd244399dd0d17268,
komplek housing,Komplek perumahan,Burhanuddin,"3RPP+V7Q, Jl. Totosi, Duyu, Kec. Tatanga, Kota Palu, Sulawesi Tengah","Kota Palu, Sulawesi Tengah",SULAWESI TENGAH,,Indonesia,,,,-0.9127775,119.8357402,https://maps.google.com/?cid=0x0:0xc91ec3b8f6938cd0,
komplek housing,Pembangunan Perumahan,GREENHOUSE RESIDENCE,"4V5X+J32, Jl. Lagarutu, Talise, Kec. Mantikulore, Kota Palu, Sulawesi Tengah 94118","Jl. Lagarutu, Talise, Kec. Mantikulore, Kota Palu",SULAWESI TENGAH,94118.0,Indonesia,,,,-0.8909865,119.8976471,https://maps.google.com/?cid=0x0:0xcd5dd8bfce9e9e6,
komplek housing,Komplek perumahan,Row,"Jl. Dharma Putra No.4, Tawanjuka, Kec. Palu Sel., Kota Palu, Sulawesi Tengah 94237","Tawanjuka, Kec. Palu Sel., Kota Palu",SULAWESI TENGAH,94237.0,Indonesia,,,,-0.919846,119.8648878,https://maps.google.com/?cid=0x0:0x284ee9913737fa78,
komplek housing,komplek housing,Kec. Tatanga,"Kota Palu, Sulawesi Tengah","Kota Palu, Sulawesi Tengah",SULAWESI TENGAH,,Indonesia,,,,-0.9222608,119.8563729,https://maps.google.com/?cid=0x0:0x9b2bb5a133e4e1d7,
komplek housing,Komplek perumahan,BTN Palupi Permai Blok G No.9,"3VC5+8XG, Palupi, Kec. Palu Sel., Kota Palu, Sulawesi Tengah 94222","Palupi, Kec. Palu Sel., Kota Palu",SULAWESI TENGAH,94222.0,Indonesia,,,,-0.9291931,119.8599383,https://maps.google.com/?cid=0x0:0xbcf5133d2514b4ca,
komplek housing,Komplek perumahan,Burhanuddin,"3RPP+V7Q, Jl. Totosi, Duyu, Kec. Tatanga, Kota Palu, Sulawesi Tengah","Kota Palu, Sulawesi Tengah",SULAWESI TENGAH,,Indonesia,,,,-0.9127775,119.8357402,https://maps.google.com/?cid=0x0:0xc91ec3b8f6938cd0,
komplek housing,Otoritas Perumahan,Boyaoge Residence,"Jl. Pue Bongo No.1, Boyaoge, Kec. Tatanga, Kota Palu, Sulawesi Tengah 94222","Boyaoge, Kec. Tatanga, Kota Palu",SULAWESI TENGAH,94222.0,Indonesia,,,,-0.9145134,119.8581838,https://maps.google.com/?cid=0x0:0x3fb28f92499dc9a6,
komplek housing,Pemasok Produk Kecantikan,Distributor Imogen,"3VC4+4RW, Palupi, Kec. Palu Sel., Kota Palu, Sulawesi Tengah 94238","Palupi, Kec. Palu Sel., Kota Palu",SULAWESI TENGAH,94238.0,Indonesia,,,,-0.9296375,119.8570781,https://maps.google.com/?cid=0x0:0x41b4899c00f200b8,
komplek housing,,Perumahan Kintabaru,"Pengawu, Kec. Palu Sel., Kota Palu, Sulawesi Tengah","Kota Palu, Sulawesi Tengah",SULAWESI TENGAH,,Indonesia,,,,-0.9298464,119.8457653,https://maps.google.com/?cid=0x0:0x9053916de68e5034,
komplek housing,Komplek perumahan,BTN Puskud,"3VF4+496, Palupi Palu Selatan, Palupi, Kec. Tatanga, Kota Palu, Sulawesi Tengah 94222","Palupi Palu Selatan, Palupi, Kec. Tatanga, Kota Palu",SULAWESI TENGAH,94222.0,Indonesia,,,,-0.9272182,119.8559039,https://maps.google.com/?cid=0x0:0x809fcfd0a5995b9f,
komplek housing,Pembangunan Perumahan,GRIYA PALUPI PERMAI BLOK F NO 1,"3VF5+2PC, Palupi, Kec. Palu Sel., Kota Palu, Sulawesi Tengah 94222","Palupi, Kec. Palu Sel., Kota Palu",SULAWESI TENGAH,94222.0,Indonesia,,,,-0.9274382,119.85926,https://maps.google.com/?cid=0x0:0xd2ba281aef59d413,
komplek housing,Perumahan,Rumah pak Rais,"2VHJ+HW2, Kabobona, Kec. Dolo, Kota Palu, Sulawesi Tengah 94238","Kabobona, Kec. Dolo, Kota Palu",SULAWESI TENGAH,94238.0,Indonesia,,,,-0.970999,119.882244,https://maps.google.com/?cid=0x0:0xe836f3bef07652c8,
komplek housing,Perumahan,BTN Green Baliase,"3V63+JC6, Sibedi, Kec. Marawola, Kabupaten Sigi, Sulawesi Tengah 94238","Sibedi, Kec. Marawola, Kabupaten Sigi",SULAWESI TENGAH,94238.0,Indonesia,,,,-0.9384626,119.8535295,https://maps.google.com/?cid=0x0:0xadeba2d3dcc3d2e5,
komplek housing,Gudang,PT. Tatalogam Lestari - Outlet Roofmart Palu,"Jl. Jenderal Basuki Rahmat No.71, Tatura Sel., Kec. Palu Sel., Kota Palu, Sulawesi Tengah 94111","Tatura Sel., Kec. Palu Sel., Kota Palu",SULAWESI TENGAH,94111.0,Indonesia, 0451484779,,,-0.9188819,119.8839149,https://maps.google.com/?cid=0x0:0xb2f82536b5ab09b8,
komplek housing,Komplek perumahan,Rumahhkuu,"2VGM+82C, Kabobona, Kec. Dolo, Kabupaten Sigi, Sulawesi Tengah 94238","Kabobona, Kec. Dolo, Kabupaten Sigi",SULAWESI TENGAH,94238.0,Indonesia,,,,-0.9741932,119.8825073,https://maps.google.com/?cid=0x0:0x28122ad1958ce29d,
komplek housing,Komplek perumahan,Musliadi,"3W5H+8HW, Petobo, Kec. Palu Sel., Kota Palu, Sulawesi Tengah","Kota Palu, Sulawesi Tengah",SULAWESI TENGAH,,Indonesia,,,,-0.9416312,119.9289495,https://maps.google.com/?cid=0x0:0x8f4dbbc582b673a9,
komplek housing,Komplek perumahan,Rumahnya Nakhlah Musthafa,"2VHJ+JWJ, Kabobona, Kec. Dolo, Kabupaten Sigi, Sulawesi Tengah 94238","Kabobona, Kec. Dolo, Kabupaten Sigi",SULAWESI TENGAH,94238.0,Indonesia,,,,-0.9709159,119.8822572,https://maps.google.com/?cid=0x0:0x33ae33236b336c8b,
komplek housing,Pembangunan Perumahan,Anizar,"2VFH+Q9H, Kotarindau, Kec. Dolo, Kabupaten Sigi, Sulawesi Tengah 94238","Kotarindau, Kec. Dolo, Kabupaten Sigi",SULAWESI TENGAH,94238.0,Indonesia,,,,-0.9755683,119.8784744,https://maps.google.com/?cid=0x0:0x4722f756ae67db55,
komplek housing,komplek housing,e  p,,,SULAWESI TENGAH,,Indonesia, 082211448387,,,-0.789562,119.899274,https://maps.google.com/?cid=0x0:0xd244399dd0d17268,
komplek housing,komplek housing,BTN Griya Palupi Permai,"Blk. C, Palupi, Kec. Tatanga, Kota Palu, Sulawesi Tengah 94222","Palupi, Kec. Tatanga, Kota Palu",SULAWESI TENGAH,94222.0,Indonesia,,,,-0.9276802,119.8596678,https://maps.google.com/?cid=0x0:0xc929600b72fba6bc,
komplek housing,komplek housing,Kec. Tatanga,"Kota Palu, Sulawesi Tengah","Kota Palu, Sulawesi Tengah",SULAWESI TENGAH,,Indonesia,,,,-0.9222608,119.8563729,https://maps.google.com/?cid=0x0:0x9b2bb5a133e4e1d7,
komplek housing,Komplek perumahan,Rumahku,"BTN Gelora Indah Blk. A No.10, Pengawu, Kec. Tatanga, Kota Palu, Sulawesi Tengah 94239","Pengawu, Kec. Tatanga, Kota Palu",SULAWESI TENGAH,94239.0,Indonesia,,,,-0.9406055,119.8517594,https://maps.google.com/?cid=0x0:0xd0f46176807b96c1,
komplek housing,Perhimpunan Pengembang Perumahan,Rumah H.B.Paliudju,"Jl. Padanjakaya No.135, Pengawu, Kec. Tatanga, Kota Palu, Sulawesi Tengah 94239","Pengawu, Kec. Tatanga, Kota Palu",SULAWESI TENGAH,94239.0,Indonesia,,,,-0.9221466,119.8552149,https://maps.google.com/?cid=0x0:0x8132d3130afe4e73,
komplek housing,Perhimpunan Pengembang Perumahan,Rumah Fitra,"Jl. Btn Pengawu Permai No.18, Pengawu, Kec. Tatanga, Kota Palu, Sulawesi Tengah 94239","Pengawu, Kec. Tatanga, Kota Palu",SULAWESI TENGAH,94239.0,Indonesia,,,,-0.9255391,119.8459442,https://maps.google.com/?cid=0x0:0xd4c731fb0caef671,
komplek housing,Komplek perumahan,Burhanuddin,"3RPP+V7Q, Jl. Totosi, Duyu, Kec. Tatanga, Kota Palu, Sulawesi Tengah","Kota Palu, Sulawesi Tengah",SULAWESI TENGAH,,Indonesia,,,,-0.9127775,119.8357402,https://maps.google.com/?cid=0x0:0xc91ec3b8f6938cd0,
komplek housing,komplek housing,Kost 75,,,SULAWESI TENGAH,,Indonesia, 081283196106,,,-2.44565,117.8888,https://maps.google.com/?cid=0x0:0x26b0a0088b3df2a3,
komplek housing,komplek housing,Lokasi Rumah Hajran,"4HJP+PHQ, Jl. Kerapu, Uentanaga Bawah, Kec. Ampana Kota, Kabupaten Tojo Una-Una, Sulawesi Tengah 94683","Jl. Kerapu, Uentanaga Bawah, Kec. Ampana Kota, Kabupaten Tojo Una-Una",SULAWESI TENGAH,94683.0,Indonesia, 082266801875,,,-0.8680565,121.5865632,https://maps.google.com/?cid=0x0:0xf03e4952f56ceed1,
komplek housing,komplek housing,Kec. Togean,"Kabupaten Tojo Una-Una, Sulawesi Tengah","Kabupaten Tojo Una-Una, Sulawesi Tengah",SULAWESI TENGAH,,Indonesia,,,,-0.392597,121.9666348,https://maps.google.com/?cid=0x0:0xf030bfcad7659c0,
komplek housing,komplek housing,Pulau Togean,Kabupaten Tojo Una-Una,Kabupaten Tojo Una-Una,SULAWESI TENGAH,,Indonesia,,,,-0.398157,121.9245556,https://maps.google.com/?cid=0x0:0x60ad0a97a0019e95,
komplek housing,komplek housing,Sulawesi Tengah 94681,"Kabupaten Tojo Una-Una, Sulawesi Tengah","Kabupaten Tojo Una-Una, Sulawesi Tengah",SULAWESI TENGAH,,Indonesia,,,,-1.4002682,121.2168466,https://maps.google.com/?cid=0x0:0x296ad5ba9809fbd2,
komplek housing,komplek housing,Irna Home,"Q6VG+JM8, Tongku, Kec. Tojo, Kabupaten Tojo Una-Una, Sulawesi Tengah","Kabupaten Tojo Una-Una, Sulawesi Tengah",SULAWESI TENGAH,,Indonesia, 082211874817,,,-1.2059625,121.2267031,https://maps.google.com/?cid=0x0:0x3e755b4266cfb622,
komplek housing,Komplek perumahan,Home ziya,"HXP7+85M, Toliba, Kec. Tojo Bar., Kabupaten Tojo Una-Una, Sulawesi Tengah 94681","Toliba, Kec. Tojo Bar., Kabupaten Tojo Una-Una",SULAWESI TENGAH,94681.0,Indonesia,,,,-1.4141513,120.962928,https://maps.google.com/?cid=0x0:0x61f49bbdcd564da3,
komplek housing,Kantor Pemerintah,Desa,"H33R+WC9, Bahari, Kec. Tojo, Kabupaten Tojo Una-Una, Sulawesi Tengah 94681","Bahari, Kec. Tojo, Kabupaten Tojo Una-Una",SULAWESI TENGAH,94681.0,Indonesia,,,,-1.4452088,121.0911095,https://maps.google.com/?cid=0x0:0x9965c4c196130ecc,
komplek housing,Pembangunan Perumahan,Sekretariat Kayura,"H34W+VP4, Tayawa, Kec. Tojo, Kabupaten Tojo Una-Una, Sulawesi Tengah 94681","Tayawa, Kec. Tojo, Kabupaten Tojo Una-Una",SULAWESI TENGAH,94681.0,Indonesia,,,,-1.4428566,121.0968406,https://maps.google.com/?cid=0x0:0xcf98949d37bda399,
komplek housing,Komplek perumahan,Rumah Moh. Ali Lasawedi,"HXWH+4C4, Dusun 1, Ujung Tibu, Kec. Tojo Bar., Kabupaten Tojo Una-Una, Sulawesi Tengah","Kabupaten Tojo Una-Una, Sulawesi Tengah",SULAWESI TENGAH,,Indonesia,,,,-1.4047215,120.9785403,https://maps.google.com/?cid=0x0:0x3e2512c147406bd6,
komplek housing,komplek housing,Joice Home,"HWH7+R63, Matako, Kec. Tojo Bar., Kabupaten Tojo Una-Una, Sulawesi Tengah 94681","Matako, Kec. Tojo Bar., Kabupaten Tojo Una-Una",SULAWESI TENGAH,94681.0,Indonesia,,,,-1.4202698,120.9121074,https://maps.google.com/?cid=0x0:0x22a0910746caa7fb,
komplek housing,Komplek perumahan,Galuga,"HWHW+W52, Galuga, Kec. Tojo Bar., Kabupaten Tojo Una-Una, Sulawesi Tengah 94681","Galuga, Kec. Tojo Bar., Kabupaten Tojo Una-Una",SULAWESI TENGAH,94681.0,Indonesia,,,,-1.4202427,120.9453889,https://maps.google.com/?cid=0x0:0xf996615d3bde8157,
komplek housing,Komplek perumahan,rumah cahya,"H36W+8V8, Bahari, Kec. Tojo, Kabupaten Tojo Una-Una, Sulawesi Tengah 94681","Bahari, Kec. Tojo, Kabupaten Tojo Una-Una",SULAWESI TENGAH,94681.0,Indonesia,,,,-1.439666,121.0971692,https://maps.google.com/?cid=0x0:0x792bfba28f35ed0b,
komplek housing,Komplek perumahan,Sawah tayawa,"H432+V28, Jl. Tayawa-Malino/Morowali Utara, Tayawa, Kec. Tojo, Kabupaten Tojo Una-Una, Sulawesi Tengah 94681","Jl. Tayawa-Malino/Morowali Utara, Tayawa, Kec. Tojo, Kabupaten Tojo Una-Una",SULAWESI TENGAH,94681.0,Indonesia,,,,-1.4453468,121.1000884,https://maps.google.com/?cid=0x0:0x52cd8513dfd9a41b,
komplek housing,Pembangunan Perumahan,Lorong towendaya,"FWRF+FR2, Matako, Kec. Tojo Bar., Kabupaten Tojo Una-Una, Sulawesi Tengah 94681","Matako, Kec. Tojo Bar., Kabupaten Tojo Una-Una",SULAWESI TENGAH,94681.0,Indonesia,,,,-1.5088598,120.9245216,https://maps.google.com/?cid=0x0:0xb9bfc9ab0a169733,
komplek housing,Perhimpunan Pengembang Perumahan,Nur Afya,"F2VF+WXF, Tombiano, Kec. Tojo Bar., Kabupaten Tojo Una-Una, Sulawesi Tengah","Kabupaten Tojo Una-Una, Sulawesi Tengah",SULAWESI TENGAH,,Indonesia,,,,-1.5051881,121.0249093,https://maps.google.com/?cid=0x0:0x9f31c84f96b79a4c,
komplek housing,Komplek perumahan,Rumah habib Muhammad,"H497+WFP, Uekuli, Kec. Tojo, Kabupaten Tojo Una-Una, Sulawesi Tengah 94681","Uekuli, Kec. Tojo, Kabupaten Tojo Una-Una",SULAWESI TENGAH,94681.0,Indonesia,,,,-1.4301786,121.1137058,https://maps.google.com/?cid=0x0:0x2451f747272c98da,
komplek housing,Perhimpunan Pengembang Perumahan,Rumah di bahari,"H36X+96X, Bahari, Kec. Tojo, Kabupaten Tojo Una-Una, Sulawesi Tengah 94681","Bahari, Kec. Tojo, Kabupaten Tojo Una-Una",SULAWESI TENGAH,94681.0,Indonesia,,,,-1.4390209,121.0981203,https://maps.google.com/?cid=0x0:0xab752a63729f346f,
komplek housing,komplek housing,Adelia home,"HWJ5+59, Matako, Kec. Tojo Bar., Kabupaten Tojo Una-Una, Sulawesi Tengah 94681","Matako, Kec. Tojo Bar., Kabupaten Tojo Una-Una",SULAWESI TENGAH,94681.0,Indonesia,,,,-1.4196108,120.9083577,https://maps.google.com/?cid=0x0:0x17573e022a17fd37,
komplek housing,Komplek perumahan,Malini,"H424+33V, Tayawa, Kec. Tojo, Kabupaten Tojo Una-Una, Sulawesi Tengah 94681","Tayawa, Kec. Tojo, Kabupaten Tojo Una-Una",SULAWESI TENGAH,94681.0,Indonesia,,,,-1.4497614,121.1051594,https://maps.google.com/?cid=0x0:0x3d6862e1b82b92ee,
komplek housing,Komplek perumahan,Rmh(ua sum)warna biru dpn persawahan,"H32V+74, Lemoro, Kec. Tojo, Kabupaten Tojo Una-Una, Sulawesi Tengah","Kabupaten Tojo Una-Una, Sulawesi Tengah",SULAWESI TENGAH,,Indonesia,,,,-1.4492663,121.0928193,https://maps.google.com/?cid=0x0:0x4d7c5a8ce16279b5,
komplek housing,Tujuan Wisata,Lorong air terjun,"HWH7+QMP, Matako, Kec. Tojo Bar., Kabupaten Tojo Una-Una, Sulawesi Tengah 94681","Matako, Kec. Tojo Bar., Kabupaten Tojo Una-Una",SULAWESI TENGAH,94681.0,Indonesia,,,,-1.4212299,120.9142552,https://maps.google.com/?cid=0x0:0x6a877f7268e504d9,
komplek housing,Bengkel Sepeda Motor,Bengkel Tua,"H337+GX8, Mawomba, Kec. Tojo Bar., Kabupaten Tojo Una-Una, Sulawesi Tengah 94681","Mawomba, Kec. Tojo Bar., Kabupaten Tojo Una-Una",SULAWESI TENGAH,94681.0,Indonesia,,,,-1.4459758,121.0641786,https://maps.google.com/?cid=0x0:0x46c870c7f3efec25,
komplek housing,Komplek perumahan,Intan,"H6RH+J8M, Betaua, Kec. Tojo, Kabupaten Tojo Una-Una, Sulawesi Tengah 94681","Betaua, Kec. Tojo, Kabupaten Tojo Una-Una",SULAWESI TENGAH,94681.0,Indonesia,,,,-1.4084038,121.2282958,https://maps.google.com/?cid=0x0:0x7e4a41fd8ed98853,
komplek housing,Komplek perumahan,Pondok Gede Housing 1,"Jl. Cipta Raya No.45-3, RT.001/RW.003, Jatirahayu, Kec. Pd. Melati, Kota Bks, Jawa Barat 17414","RT.001/RW.003, Jatirahayu, Kec. Pd. Melati, Kota Bks",SULAWESI TENGAH,17414.0,Indonesia,,,,-6.2852504,106.9163397,https://maps.google.com/?cid=0x0:0x3132afedbf38cd61,
komplek housing,Komplek perumahan,Komplek Raya Housing/Molek Blok B No. 4,"PW95+CQ7, Jl. Raya Housing, RT.006/RW.011, Jatiwaringin, Kec. Pd. Gede, Kota Bks, Jawa Barat 17411","Jl. Raya Housing, RT.006/RW.011, Jatiwaringin, Kec. Pd. Gede, Kota Bks",SULAWESI TENGAH,17411.0,Indonesia,,,,-6.2814591,106.909408,https://maps.google.com/?cid=0x0:0x47a4e28e626334ff,
komplek housing,Komplek perumahan,Housing 1,"Blok D No.2a, Jl. Cipta Yasa, Jatirahayu, Kec. Pd. Melati, Kota Bks, Jawa Barat 17414","Jl. Cipta Yasa, Jatirahayu, Kec. Pd. Melati, Kota Bks",SULAWESI TENGAH,17414.0,Indonesia,,,,-6.2868008,106.9156516,https://maps.google.com/?cid=0x0:0x8caf99f97a1f37b,
komplek housing,komplek housing,Kec. Tojo Bar.,"Kabupaten Tojo Una-Una, Sulawesi Tengah","Kabupaten Tojo Una-Una, Sulawesi Tengah",SULAWESI TENGAH,,Indonesia,,,,-1.4248079,121.0239625,https://maps.google.com/?cid=0x0:0x4a8aae277afc8955,
komplek housing,Komplek perumahan,Home ziya,"HXP7+85M, Toliba, Kec. Tojo Bar., Kabupaten Tojo Una-Una, Sulawesi Tengah 94681","Toliba, Kec. Tojo Bar., Kabupaten Tojo Una-Una",SULAWESI TENGAH,94681.0,Indonesia,,,,-1.4141513,120.962928,https://maps.google.com/?cid=0x0:0x61f49bbdcd564da3,
komplek housing,komplek housing,Joice Home,"HWH7+R63, Matako, Kec. Tojo Bar., Kabupaten Tojo Una-Una, Sulawesi Tengah 94681","Matako, Kec. Tojo Bar., Kabupaten Tojo Una-Una",SULAWESI TENGAH,94681.0,Indonesia,,,,-1.4202698,120.9121074,https://maps.google.com/?cid=0x0:0x22a0910746caa7fb,
komplek housing,Komplek perumahan,Rumah Moh. Ali Lasawedi,"HXWH+4C4, Dusun 1, Ujung Tibu, Kec. Tojo Bar., Kabupaten Tojo Una-Una, Sulawesi Tengah","Kabupaten Tojo Una-Una, Sulawesi Tengah",SULAWESI TENGAH,,Indonesia,,,,-1.4047215,120.9785403,https://maps.google.com/?cid=0x0:0x3e2512c147406bd6,
komplek housing,Komplek perumahan,Galuga,"HWHW+W52, Galuga, Kec. Tojo Bar., Kabupaten Tojo Una-Una, Sulawesi Tengah 94681","Galuga, Kec. Tojo Bar., Kabupaten Tojo Una-Una",SULAWESI TENGAH,94681.0,Indonesia,,,,-1.4202427,120.9453889,https://maps.google.com/?cid=0x0:0xf996615d3bde8157,
komplek housing,komplek housing,Adelia home,"HWJ5+59, Matako, Kec. Tojo Bar., Kabupaten Tojo Una-Una, Sulawesi Tengah 94681","Matako, Kec. Tojo Bar., Kabupaten Tojo Una-Una",SULAWESI TENGAH,94681.0,Indonesia,,,,-1.4196108,120.9083577,https://maps.google.com/?cid=0x0:0x17573e022a17fd37,
komplek housing,Pembangunan Perumahan,Lorong towendaya,"FWRF+FR2, Matako, Kec. Tojo Bar., Kabupaten Tojo Una-Una, Sulawesi Tengah 94681","Matako, Kec. Tojo Bar., Kabupaten Tojo Una-Una",SULAWESI TENGAH,94681.0,Indonesia,,,,-1.5088598,120.9245216,https://maps.google.com/?cid=0x0:0xb9bfc9ab0a169733,
komplek housing,Perhimpunan Pengembang Perumahan,Nur Afya,"F2VF+WXF, Tombiano, Kec. Tojo Bar., Kabupaten Tojo Una-Una, Sulawesi Tengah","Kabupaten Tojo Una-Una, Sulawesi Tengah",SULAWESI TENGAH,,Indonesia,,,,-1.5051881,121.0249093,https://maps.google.com/?cid=0x0:0x9f31c84f96b79a4c,
komplek housing,Bengkel Sepeda Motor,Bengkel Tua,"H337+GX8, Mawomba, Kec. Tojo Bar., Kabupaten Tojo Una-Una, Sulawesi Tengah 94681","Mawomba, Kec. Tojo Bar., Kabupaten Tojo Una-Una",SULAWESI TENGAH,94681.0,Indonesia,,,,-1.4459758,121.0641786,https://maps.google.com/?cid=0x0:0x46c870c7f3efec25,
komplek housing,Pembangunan Perumahan,RUMAH BIRU_RYU,"HXWH+4F6, Ujung Tibu, Kec. Tojo Bar., Kabupaten Tojo Una-Una, Sulawesi Tengah","Kabupaten Tojo Una-Una, Sulawesi Tengah",SULAWESI TENGAH,,Indonesia,,,,-1.4047031,120.9786538,https://maps.google.com/?cid=0x0:0x966a898543fad8b8,
komplek housing,Komplek perumahan,Rumah ku,"H2HF+CHV, Tombiano, Kec. Tojo Bar., Kabupaten Tojo Una-Una, Sulawesi Tengah","Kabupaten Tojo Una-Una, Sulawesi Tengah",SULAWESI TENGAH,,Indonesia,,,,-1.4213801,121.0238155,https://maps.google.com/?cid=0x0:0xa65177112cbe3bd3,
komplek housing,Tujuan Wisata,Lorong air terjun,"HWH7+QMP, Matako, Kec. Tojo Bar., Kabupaten Tojo Una-Una, Sulawesi Tengah 94681","Matako, Kec. Tojo Bar., Kabupaten Tojo Una-Una",SULAWESI TENGAH,94681.0,Indonesia,,,,-1.4212299,120.9142552,https://maps.google.com/?cid=0x0:0x6a877f7268e504d9,
komplek housing,komplek housing,"Tombiano, Kabupaten Tojo Una-Una, Sulawesi Tengah","H2GF+6XQ, Tombiano, Kec. Tojo Bar., Kabupaten Tojo Una-Una, Sulawesi Tengah","Kabupaten Tojo Una-Una, Sulawesi Tengah",SULAWESI TENGAH,,Indonesia,,,,-1.4244244,121.0249943,https://maps.google.com/?cid=0x0:0x9a325e1418b60135,
komplek housing,Pembangunan Perumahan,Sekretariat Kayura,"H34W+VP4, Tayawa, Kec. Tojo, Kabupaten Tojo Una-Una, Sulawesi Tengah 94681","Tayawa, Kec. Tojo, Kabupaten Tojo Una-Una",SULAWESI TENGAH,94681.0,Indonesia,,,,-1.4428566,121.0968406,https://maps.google.com/?cid=0x0:0xcf98949d37bda399,
komplek housing,Komplek perumahan,RDG Muhamad Yamin,"H338+VXJ, Mawomba, Kec. Tojo Bar., Kabupaten Tojo Una-Una, Sulawesi Tengah 94681","Mawomba, Kec. Tojo Bar., Kabupaten Tojo Una-Una",SULAWESI TENGAH,94681.0,Indonesia,,,,-1.4452905,121.067391,https://maps.google.com/?cid=0x0:0xb8287a1d6860ab,
komplek housing,Perhimpunan Pengembang Perumahan,Mitra kumpa,"HWJW+C6W, Galuga, Kec. Tojo Bar., Kabupaten Tojo Una-Una, Sulawesi Tengah","Kabupaten Tojo Una-Una, Sulawesi Tengah",SULAWESI TENGAH,,Indonesia,,,,-1.4188813,120.9455874,https://maps.google.com/?cid=0x0:0x969b419168066a3d,
komplek housing,Komplek perumahan,TOLIBA,"FXMJ+FQC, Toliba, Kec. Tojo Bar., Kabupaten Tojo Una-Una, Sulawesi Tengah","Kabupaten Tojo Una-Una, Sulawesi Tengah",SULAWESI TENGAH,,Indonesia,,,,-1.516305,120.981896,https://maps.google.com/?cid=0x0:0x283978b169d246d8,
komplek housing,Komplek perumahan,Heni L. Kanukung,"HWHH+88W, Bambalo, Kec. Tojo Bar., Kabupaten Tojo Una-Una, Sulawesi Tengah","Kabupaten Tojo Una-Una, Sulawesi Tengah",SULAWESI TENGAH,,Indonesia,,,,-1.4216443,120.9283177,https://maps.google.com/?cid=0x0:0x6ce56ad585764778,
komplek housing,Komplek perumahan,Iyan M,"H2GG+46C, Tombiano, Kec. Tojo Bar., Kabupaten Tojo Una-Una, Sulawesi Tengah","Kabupaten Tojo Una-Una, Sulawesi Tengah",SULAWESI TENGAH,,Indonesia,,,,-1.4246986,121.0255035,https://maps.google.com/?cid=0x0:0x492b844a14a3a708,
komplek housing,Komplek perumahan,Rmh(ua sum)warna biru dpn persawahan,"H32V+74, Lemoro, Kec. Tojo, Kabupaten Tojo Una-Una, Sulawesi Tengah","Kabupaten Tojo Una-Una, Sulawesi Tengah",SULAWESI TENGAH,,Indonesia,,,,-1.4492663,121.0928193,https://maps.google.com/?cid=0x0:0x4d7c5a8ce16279b5,
komplek housing,Komplek perumahan,Kampung jawa,"HXG3+JCQ, Toliba, Kec. Tojo Bar., Kabupaten Tojo Una-Una, Sulawesi Tengah 94681","Toliba, Kec. Tojo Bar., Kabupaten Tojo Una-Una",SULAWESI TENGAH,94681.0,Indonesia,,,,-1.4234242,120.953617,https://maps.google.com/?cid=0x0:0xcd34f0e001c76fb9,
komplek housing,Komplek perumahan,rumah cahya,"H36W+8V8, Bahari, Kec. Tojo, Kabupaten Tojo Una-Una, Sulawesi Tengah 94681","Bahari, Kec. Tojo, Kabupaten Tojo Una-Una",SULAWESI TENGAH,94681.0,Indonesia,,,,-1.439666,121.0971692,https://maps.google.com/?cid=0x0:0x792bfba28f35ed0b,
komplek housing,Perhimpunan Pengembang Perumahan,Rumah di bahari,"H36X+96X, Bahari, Kec. Tojo, Kabupaten Tojo Una-Una, Sulawesi Tengah 94681","Bahari, Kec. Tojo, Kabupaten Tojo Una-Una",SULAWESI TENGAH,94681.0,Indonesia,,,,-1.4390209,121.0981203,https://maps.google.com/?cid=0x0:0xab752a63729f346f,
komplek housing,Komplek perumahan,Towulu Lambara,"HWH7+R63, Matako, Kec. Tojo Bar., Kabupaten Tojo Una-Una, Sulawesi Tengah 94681","Matako, Kec. Tojo Bar., Kabupaten Tojo Una-Una",SULAWESI TENGAH,94681.0,Indonesia,,,,-1.420333,120.912445,https://maps.google.com/?cid=0x0:0xc1195f88e2b3c318,
komplek housing,Komplek perumahan,Malini,"H424+33V, Tayawa, Kec. Tojo, Kabupaten Tojo Una-Una, Sulawesi Tengah 94681","Tayawa, Kec. Tojo, Kabupaten Tojo Una-Una",SULAWESI TENGAH,94681.0,Indonesia,,,,-1.4497614,121.1051594,https://maps.google.com/?cid=0x0:0x3d6862e1b82b92ee,
komplek housing,Komplek perumahan,Rumah habib Muhammad,"H497+WFP, Uekuli, Kec. Tojo, Kabupaten Tojo Una-Una, Sulawesi Tengah 94681","Uekuli, Kec. Tojo, Kabupaten Tojo Una-Una",SULAWESI TENGAH,94681.0,Indonesia,,,,-1.4301786,121.1137058,https://maps.google.com/?cid=0x0:0x2451f747272c98da,
komplek housing,komplek housing,Desa Bambalo,"HWHJ+8J5, Malei - Uekuli, Bambalo, Kec. Tojo Bar., Kabupaten Tojo Una-Una, Sulawesi Tengah 94681","Malei - Uekuli, Bambalo, Kec. Tojo Bar., Kabupaten Tojo Una-Una",SULAWESI TENGAH,94681.0,Indonesia,,,,-1.4217335,120.9316048,https://maps.google.com/?cid=0x0:0x1e633e39f22e0e39,
komplek housing,Komplek perumahan,Sawah tayawa,"H432+V28, Jl. Tayawa-Malino/Morowali Utara, Tayawa, Kec. Tojo, Kabupaten Tojo Una-Una, Sulawesi Tengah 94681","Jl. Tayawa-Malino/Morowali Utara, Tayawa, Kec. Tojo, Kabupaten Tojo Una-Una",SULAWESI TENGAH,94681.0,Indonesia,,,,-1.4453468,121.1000884,https://maps.google.com/?cid=0x0:0x52cd8513dfd9a41b,
komplek housing,Kantor Pemerintah,Desa matako,"FWRF+FR2, Matako, Kec. Tojo Bar., Kabupaten Tojo Una-Una, Sulawesi Tengah 94681","Matako, Kec. Tojo Bar., Kabupaten Tojo Una-Una",SULAWESI TENGAH,94681.0,Indonesia,,,,-1.5088598,120.9245216,https://maps.google.com/?cid=0x0:0x8a50beca54598ed0,
komplek housing,komplek housing,Sulawesi Tengah 94682,"Kec. Ulubongka, Kabupaten Tojo Una-Una, Sulawesi Tengah","Kabupaten Tojo Una-Una, Sulawesi Tengah",SULAWESI TENGAH,,Indonesia,,,,-1.2626977,121.5826642,https://maps.google.com/?cid=0x0:0x88ec4d69e80546d0,
komplek housing,Balai masyarakat,"Desa Watusongu, Kec. Ulubongka, Kabupaten Tojo Una-Una","VFPG+WJ2, Unnamed Road, Uekambuno, Kec. Ulubongka, Kabupaten Tojo Una-Una, Sulawesi Tengah 94682","Unnamed Road, Uekambuno, Kec. Ulubongka, Kabupaten Tojo Una-Una",SULAWESI TENGAH,94682.0,Indonesia,,,,-1.1127356,121.476514,https://maps.google.com/?cid=0x0:0xad5e3c0014c52b23,
komplek housing,Komplek perumahan,Eneng,"WGR4+2XV, Bongka Makmur, Kec. Ulubongka, Kabupaten Tojo Una-Una, Sulawesi Tengah 94682","Bongka Makmur, Kec. Ulubongka, Kabupaten Tojo Una-Una",SULAWESI TENGAH,94682.0,Indonesia,,,,-1.059889,121.50744,https://maps.google.com/?cid=0x0:0x2e84620c8bdf32e4,
komplek housing,Pembangunan Perumahan,Dusun Uesora,"JJVV+6VX, Uematopa, Kec. Ulubongka, Kabupaten Tojo Una-Una, Sulawesi Tengah","Kabupaten Tojo Una-Una, Sulawesi Tengah",SULAWESI TENGAH,,Indonesia,,,,-1.3568768,121.6447479,https://maps.google.com/?cid=0x0:0x133989dc9a68b616,
komplek housing,Perumahan,Upi Karau Home,"WGM5+VPC, Bongka Makmur, Kec. Ulubongka, Kabupaten Tojo Una-Una, Sulawesi Tengah 94682","Bongka Makmur, Kec. Ulubongka, Kabupaten Tojo Una-Una",SULAWESI TENGAH,94682.0,Indonesia,,,,-1.0653137,121.5092531,https://maps.google.com/?cid=0x0:0xa76f4dc0550510ff,
komplek housing,komplek housing,Nina home,"2FJ8+R5, Bonevoto, Kec. Ulubongka, Kabupaten Tojo Una-Una, Sulawesi Tengah","Kabupaten Tojo Una-Una, Sulawesi Tengah",SULAWESI TENGAH,,Indonesia,,,,-0.9679977,121.4654097,https://maps.google.com/?cid=0x0:0xbec81b50a08b87cb,
komplek housing,Pembangunan Perumahan,Tampanombo perumahan,"XCQJ+3P, Cempa, Kec. Ulubongka, Kabupaten Tojo Una-Una, Sulawesi Tengah","Kabupaten Tojo Una-Una, Sulawesi Tengah",SULAWESI TENGAH,,Indonesia,,,,-1.012262,121.431758,https://maps.google.com/?cid=0x0:0x32a3c49c24af3f13,
komplek housing,Komplek perumahan,ZORA,"VFPH+QF4, Watusongu, Kec. Ulubongka, Kabupaten Tojo Una-Una, Sulawesi Tengah 94682","Watusongu, Kec. Ulubongka, Kabupaten Tojo Una-Una",SULAWESI TENGAH,94682.0,Indonesia,,,,-1.1131154,121.478681,https://maps.google.com/?cid=0x0:0x10461a489a7914cc,
komplek housing,Pembangunan Perumahan,Pablo House,"WGP5+2HQ, Unnamed Road, Bongka Makmur, Kec. Ulubongka, Kabupaten Tojo Una-Una, Sulawesi Tengah 94682","Unnamed Road, Bongka Makmur, Kec. Ulubongka, Kabupaten Tojo Una-Una",SULAWESI TENGAH,94682.0,Indonesia,,,,-1.0649222,121.5089741,https://maps.google.com/?cid=0x0:0x60974dda5d8a7699,
komplek housing,komplek housing,Rahmat M.Bungu,"2C6G+WR2, Tampanombo, Kec. Ulubongka, Kabupaten Tojo Una-Una, Sulawesi Tengah 94682","Tampanombo, Kec. Ulubongka, Kabupaten Tojo Una-Una",SULAWESI TENGAH,94682.0,Indonesia,,,,-0.9877506,121.4268982,https://maps.google.com/?cid=0x0:0x55736ebfe5332500,
komplek housing,Perumahan,Anan's House,"XF5W+MFX, Jalan Kampung Baru, Borneang, Kec. Ulubongka, Kabupaten Tojo Una-Una, Sulawesi Tengah 94682","Jalan Kampung Baru, Borneang, Kec. Ulubongka, Kabupaten Tojo Una-Una",SULAWESI TENGAH,94682.0,Indonesia,,,,-1.0405209,121.4964925,https://maps.google.com/?cid=0x0:0x667faba72633cd19,
komplek housing,Komplek perumahan,Sari dan Bung,"2FQ5+R3R, Jln. Muslaeni, Marowo, Kec. Ulubongka, Kabupaten Tojo Una-Una, Sulawesi Tengah","Kabupaten Tojo Una-Una, Sulawesi Tengah",SULAWESI TENGAH,,Indonesia,,,,-0.960377,121.4576536,https://maps.google.com/?cid=0x0:0x7643d8c93a8947d7,
komplek housing,Perumahan,Rumah Guru Ingke Yawu,"VFJ3+MHG, Mire, Kec. Ulubongka, Kabupaten Tojo Una-Una, Sulawesi Tengah 94682","Mire, Kec. Ulubongka, Kabupaten Tojo Una-Una",SULAWESI TENGAH,94682.0,Indonesia,,,,-1.1183124,121.4539573,https://maps.google.com/?cid=0x0:0x784b746f3efe2043,
komplek housing,Komplek perumahan,Rumah Dinas guru SMAN 1 Ulubongka,"2CCX+M7, Bonevoto, Kec. Ulubongka, Kabupaten Tojo Una-Una, Sulawesi Tengah","Kabupaten Tojo Una-Una, Sulawesi Tengah",SULAWESI TENGAH,,Indonesia,,,,-0.9783664,121.4481505,https://maps.google.com/?cid=0x0:0x78c3202c4999250d,
komplek housing,Komplek perumahan,Rumah Aiman Ede,"XCRF+77R, Tampanombo, Kec. Ulubongka, Kabupaten Tojo Una-Una, Sulawesi Tengah","Kabupaten Tojo Una-Una, Sulawesi Tengah",SULAWESI TENGAH,,Indonesia,,,,-1.009262,121.4231475,https://maps.google.com/?cid=0x0:0xa7ac6d51a2705582,
komplek housing,Komplek perumahan,Rumah Ramdan,"2FV7+CG7, Marowo, Kec. Ulubongka, Kabupaten Tojo Una-Una, Sulawesi Tengah 94683","Marowo, Kec. Ulubongka, Kabupaten Tojo Una-Una",SULAWESI TENGAH,94683.0,Indonesia,,,,-0.9564597,121.4637859,https://maps.google.com/?cid=0x0:0x2d17d8ca6d789730,
komplek housing,Pembangunan Perumahan,Rumah pak habib burohman,"2FP5+GX, Bonevoto, Kec. Ulubongka, Kabupaten Tojo Una-Una, Sulawesi Tengah","Kabupaten Tojo Una-Una, Sulawesi Tengah",SULAWESI TENGAH,,Indonesia,,,,-0.9636377,121.4599065,https://maps.google.com/?cid=0x0:0x95978cb035bdd6a2,
komplek housing,Perhimpunan Pengembang Perumahan,Chen,"2FV6+9GH, Jl. Dewantoro, Marowo, Kec. Ulubongka, Kabupaten Tojo Una-Una, Sulawesi Tengah","Kabupaten Tojo Una-Una, Sulawesi Tengah",SULAWESI TENGAH,,Indonesia,,,,-0.9565619,121.46137,https://maps.google.com/?cid=0x0:0x445863c9cce696fb,
komplek housing,Pembangunan Perumahan,Rumah Tyann,"2FJ3+888, Bonevoto, Kec. Ulubongka, Kabupaten Tojo Una-Una, Sulawesi Tengah","Kabupaten Tojo Una-Una, Sulawesi Tengah",SULAWESI TENGAH,,Indonesia,,,,-0.9692195,121.4533362,https://maps.google.com/?cid=0x0:0x2d0dde4b7559a220,
komplek housing,Pembangunan Perumahan,Ampana kota,"WG2P+FRR, Uekambuno, Kec. Ulubongka, Kabupaten Tojo Una-Una, Sulawesi Tengah","Kabupaten Tojo Una-Una, Sulawesi Tengah",SULAWESI TENGAH,,Indonesia,,,,-1.098757,121.5370003,https://maps.google.com/?cid=0x0:0xae0b0e1ec84f699d,
komplek housing,komplek housing,Kec. Ulubongka,"Kabupaten Tojo Una-Una, Sulawesi Tengah","Kabupaten Tojo Una-Una, Sulawesi Tengah",SULAWESI TENGAH,,Indonesia,,,,-1.1968157,121.5826642,https://maps.google.com/?cid=0x0:0x4030bfbcaf781e0,
komplek housing,Kilang Minyak,Sulingan Nilam,"XF2X+RXJ, Borneang, Kec. Ulubongka, Kabupaten Tojo Una-Una, Sulawesi Tengah 94682","Borneang, Kec. Ulubongka, Kabupaten Tojo Una-Una",SULAWESI TENGAH,94682.0,Indonesia,,,,-1.0479038,121.499885,https://maps.google.com/?cid=0x0:0x29e0baee5e08bfad,
komplek housing,Perumahan rakyat,Rendy Asidi,"QF29+W95, Mire, Kec. Ulubongka, Kabupaten Tojo Una-Una, Sulawesi Tengah 94682","Mire, Kec. Ulubongka, Kabupaten Tojo Una-Una",SULAWESI TENGAH,94682.0,Indonesia,,,,-1.2477399,121.4684703,https://maps.google.com/?cid=0x0:0x13948e40ffaa176b,
komplek housing,komplek housing,PERUMAHAN KOPEL,"RJF4+W5H, Lembanya, Kec. Una-Una, Kabupaten Tojo Una-Una, Sulawesi Tengah 94691","Lembanya, Kec. Una-Una, Kabupaten Tojo Una-Una",SULAWESI TENGAH,94691.0,Indonesia,,,,-0.1751993,121.6054893,https://maps.google.com/?cid=0x0:0xe2ba6b1709bc4bfe,
komplek housing,komplek housing,Kec. Una-Una,"Kabupaten Tojo Una-Una, Sulawesi Tengah","Kabupaten Tojo Una-Una, Sulawesi Tengah",SULAWESI TENGAH,,Indonesia,,,,-0.4110644,121.8635815,https://maps.google.com/?cid=0x0:0x702f3bb12de39cd7,
komplek housing,Komplek perumahan,Pondok Gede Housing 1,"Jl. Cipta Raya No.45-3, RT.001/RW.003, Jatirahayu, Kec. Pd. Melati, Kota Bks, Jawa Barat 17414","RT.001/RW.003, Jatirahayu, Kec. Pd. Melati, Kota Bks",SULAWESI TENGAH,17414.0,Indonesia,,,,-6.2852504,106.9163397,https://maps.google.com/?cid=0x0:0x3132afedbf38cd61,
komplek housing,komplek housing,Walea Besar,"Kabupaten Tojo Una-Una, Sulawesi Tengah","Kabupaten Tojo Una-Una, Sulawesi Tengah",SULAWESI TENGAH,,Indonesia,,,,-0.2611041,122.3220894,https://maps.google.com/?cid=0x0:0xf030bfcad7659f0,
komplek housing,komplek housing,Isran home,"Q842+Q9V, Biga, Walea Besar, Kabupaten Tojo Una-Una, Sulawesi Tengah 94692","Biga, Walea Besar, Kabupaten Tojo Una-Una",SULAWESI TENGAH,94692.0,Indonesia,,,,-0.2437058,122.3002027,https://maps.google.com/?cid=0x0:0xe304687023dd3c28,
komplek housing,komplek housing,Wawan family,"P7MF+W58, Salinggoha, Walea Besar, Kabupaten Tojo Una-Una, Sulawesi Tengah 94692","Salinggoha, Walea Besar, Kabupaten Tojo Una-Una",SULAWESI TENGAH,94692.0,Indonesia, 082297454325,,,-0.2651659,122.272422,https://maps.google.com/?cid=0x0:0xd3639d024ffa4cc1,
komplek housing,komplek housing,Rumah Madins,"P82W+F54, Pasokan, Walea Besar, Kabupaten Tojo Una-Una, Sulawesi Tengah 94692","Pasokan, Walea Besar, Kabupaten Tojo Una-Una",SULAWESI TENGAH,94692.0,Indonesia,,,,-0.29919,122.344949,https://maps.google.com/?cid=0x0:0xb8d6ebe1a64af007,
komplek housing,Pembangkit listrik hidroelektrik,Lorong PLN,"P82W+F54, Pasokan, Walea Besar, Kabupaten Tojo Una-Una, Sulawesi Tengah 94692","Pasokan, Walea Besar, Kabupaten Tojo Una-Una",SULAWESI TENGAH,94692.0,Indonesia,,,,-0.2987595,122.3449047,https://maps.google.com/?cid=0x0:0xed0c2385e56f0b29,
komplek housing,Komplek perumahan,Rumah Taufik Thalib,"P82W+F54, Pasokan, Walea Besar, Kabupaten Tojo Una-Una, Sulawesi Tengah 94692","Pasokan, Walea Besar, Kabupaten Tojo Una-Una",SULAWESI TENGAH,94692.0,Indonesia,,,,-0.2995868,122.3446317,https://maps.google.com/?cid=0x0:0x637166f4d8ebdbfe,
komplek housing,Pembangunan Perumahan,Rumah Taufik Thalib,"M9XC+MH4, Katogop, Walea Besar, Kabupaten Tojo Una-Una, Sulawesi Tengah 94692","Katogop, Walea Besar, Kabupaten Tojo Una-Una",SULAWESI TENGAH,94692.0,Indonesia,,,,-0.3010927,122.3713898,https://maps.google.com/?cid=0x0:0x8456934faafc26dc,
komplek housing,Komplek perumahan,Rumah Rita Hi Sahada,"M8XV+HX9, Pasokan, Walea Besar, Kabupaten Tojo Una-Una, Sulawesi Tengah","Kabupaten Tojo Una-Una, Sulawesi Tengah",SULAWESI TENGAH,,Indonesia,,,,-0.3010753,122.3449726,https://maps.google.com/?cid=0x0:0x321f9baa458a07aa,
komplek housing,Perhimpunan Pengembang Perumahan,Tumpang,"Q67M+6G, Salinggoha, Walea Besar, Kabupaten Tojo Una-Una, Sulawesi Tengah","Kabupaten Tojo Una-Una, Sulawesi Tengah",SULAWESI TENGAH,,Indonesia,,,,-0.2369128,122.2337737,https://maps.google.com/?cid=0x0:0x83c4e903169700b0,
komplek housing,Perhimpunan Pengembang Perumahan,Rumah via,"Q58X+V54, Popolii, Kec. Walea Kepulauan, Kabupaten Tojo Una-Una, Sulawesi Tengah 94692","Popolii, Kec. Walea Kepulauan, Kabupaten Tojo Una-Una",SULAWESI TENGAH,94692.0,Indonesia,,,,-0.2328547,122.1979468,https://maps.google.com/?cid=0x0:0xd00bf16fdafd36e1,
komplek housing,komplek housing,Rumah H Arudji Salilung,"Q58W+4GH, Popolii, Kec. Walea Kepulauan, Kabupaten Tojo Una-Una, Sulawesi Tengah 94692","Popolii, Kec. Walea Kepulauan, Kabupaten Tojo Una-Una",SULAWESI TENGAH,94692.0,Indonesia,,,,-0.2345941,122.196309,https://maps.google.com/?cid=0x0:0x40aefca987c1f519,
komplek housing,Perhimpunan Pengembang Perumahan,Desa Loe,"P6GH+3W, Desa Loe, Kec. Walea Kepulauan, Kabupaten Tojo Una-Una, Sulawesi Tengah","Kabupaten Tojo Una-Una, Sulawesi Tengah",SULAWESI TENGAH,,Indonesia,,,,-0.2748125,122.2298125,https://maps.google.com/?cid=0x0:0x9568b4bb978801a0,
komplek housing,Komplek perumahan,Rumah Om Ramli,"P3H4+R2H, Malenge, Kec. Walea Kepulauan, Kabupaten Tojo Una-Una, Sulawesi Tengah 94692","Malenge, Kec. Walea Kepulauan, Kabupaten Tojo Una-Una",SULAWESI TENGAH,94692.0,Indonesia,,,,-0.2702537,122.0562065,https://maps.google.com/?cid=0x0:0x346ccbdb4e4c84a8,
komplek housing,komplek housing,Kec. Walea Kepulauan,"Kabupaten Tojo Una-Una, Sulawesi Tengah","Kabupaten Tojo Una-Una, Sulawesi Tengah",SULAWESI TENGAH,,Indonesia,,,,-0.330267,122.0947725,https://maps.google.com/?cid=0x0:0xaa230538b3a05de9,
komplek housing,komplek housing,Wawan family,"P7MF+W58, Salinggoha, Walea Besar, Kabupaten Tojo Una-Una, Sulawesi Tengah 94692","Salinggoha, Walea Besar, Kabupaten Tojo Una-Una",SULAWESI TENGAH,94692.0,Indonesia, 082297454325,,,-0.2651659,122.272422,https://maps.google.com/?cid=0x0:0xd3639d024ffa4cc1,
komplek housing,komplek housing,Isran home,"Q842+Q9V, Biga, Walea Besar, Kabupaten Tojo Una-Una, Sulawesi Tengah 94692","Biga, Walea Besar, Kabupaten Tojo Una-Una",SULAWESI TENGAH,94692.0,Indonesia,,,,-0.2437058,122.3002027,https://maps.google.com/?cid=0x0:0xe304687023dd3c28,
komplek housing,Perhimpunan Pengembang Perumahan,Rumah via,"Q58X+V54, Popolii, Kec. Walea Kepulauan, Kabupaten Tojo Una-Una, Sulawesi Tengah 94692","Popolii, Kec. Walea Kepulauan, Kabupaten Tojo Una-Una",SULAWESI TENGAH,94692.0,Indonesia,,,,-0.2328547,122.1979468,https://maps.google.com/?cid=0x0:0xd00bf16fdafd36e1,
komplek housing,Perhimpunan Pengembang Perumahan,Desa Loe,"P6GH+3W, Desa Loe, Kec. Walea Kepulauan, Kabupaten Tojo Una-Una, Sulawesi Tengah","Kabupaten Tojo Una-Una, Sulawesi Tengah",SULAWESI TENGAH,,Indonesia,,,,-0.2748125,122.2298125,https://maps.google.com/?cid=0x0:0x9568b4bb978801a0,
komplek housing,Komplek perumahan,Rumah Om Ramli,"P3H4+R2H, Malenge, Kec. Walea Kepulauan, Kabupaten Tojo Una-Una, Sulawesi Tengah 94692","Malenge, Kec. Walea Kepulauan, Kabupaten Tojo Una-Una",SULAWESI TENGAH,94692.0,Indonesia,,,,-0.2702537,122.0562065,https://maps.google.com/?cid=0x0:0x346ccbdb4e4c84a8,
komplek housing,komplek housing,Rumah Madins,"P82W+F54, Pasokan, Walea Besar, Kabupaten Tojo Una-Una, Sulawesi Tengah 94692","Pasokan, Walea Besar, Kabupaten Tojo Una-Una",SULAWESI TENGAH,94692.0,Indonesia,,,,-0.29919,122.344949,https://maps.google.com/?cid=0x0:0xb8d6ebe1a64af007,
komplek housing,Pembangunan Perumahan,Rumah zhoel,"P82W+F54, Pasokan, Walea Besar, Kabupaten Tojo Una-Una, Sulawesi Tengah 94692","Pasokan, Walea Besar, Kabupaten Tojo Una-Una",SULAWESI TENGAH,94692.0,Indonesia,,,,-0.300349,122.344011,https://maps.google.com/?cid=0x0:0xcc20a03c1db43661,
komplek housing,Komplek perumahan,Rumah Taufik Thalib,"P82W+F54, Pasokan, Walea Besar, Kabupaten Tojo Una-Una, Sulawesi Tengah 94692","Pasokan, Walea Besar, Kabupaten Tojo Una-Una",SULAWESI TENGAH,94692.0,Indonesia,,,,-0.2995868,122.3446317,https://maps.google.com/?cid=0x0:0x637166f4d8ebdbfe,
komplek housing,Pembangkit listrik hidroelektrik,Lorong PLN,"P82W+F54, Pasokan, Walea Besar, Kabupaten Tojo Una-Una, Sulawesi Tengah 94692","Pasokan, Walea Besar, Kabupaten Tojo Una-Una",SULAWESI TENGAH,94692.0,Indonesia,,,,-0.2987595,122.3449047,https://maps.google.com/?cid=0x0:0xed0c2385e56f0b29,
komplek housing,Perhimpunan Pengembang Perumahan,Tumpang,"Q67M+6G, Salinggoha, Walea Besar, Kabupaten Tojo Una-Una, Sulawesi Tengah","Kabupaten Tojo Una-Una, Sulawesi Tengah",SULAWESI TENGAH,,Indonesia,,,,-0.2369128,122.2337737,https://maps.google.com/?cid=0x0:0x83c4e903169700b0,
komplek housing,Komplek perumahan,Rumah Rita Hi Sahada,"M8XV+HX9, Pasokan, Walea Besar, Kabupaten Tojo Una-Una, Sulawesi Tengah","Kabupaten Tojo Una-Una, Sulawesi Tengah",SULAWESI TENGAH,,Indonesia,,,,-0.3010753,122.3449726,https://maps.google.com/?cid=0x0:0x321f9baa458a07aa,
komplek housing,komplek housing,Fadhila Cottages Togean Dive Resort,"Katupat, Kec. Togean, Kabupaten Tojo Una-Una, Sulawesi Tengah 14310","Kec. Togean, Kabupaten Tojo Una-Una",SULAWESI TENGAH,14310.0,Indonesia, 085241003685,,,-0.319047,121.9488378,https://maps.google.com/?cid=0x0:0x4c176bcbe85a5d5f,
komplek housing,komplek housing,The Angkayo,"Unnamed Road, Kalia, Kec. Walea Kepulauan, Kabupaten Tojo Una-Una, Sulawesi Tengah 94692","Kalia, Kec. Walea Kepulauan, Kabupaten Tojo Una-Una",SULAWESI TENGAH,94692.0,Indonesia, 082191179681,,,-0.2864763,122.0078257,https://maps.google.com/?cid=0x0:0x801e7b1a39e3a6b0,
komplek housing,komplek housing,Sera Beach,"Malenge, Kec. Walea Kepulauan, Kabupaten Tojo Una-Una, Sulawesi Tengah 94692","Kec. Walea Kepulauan, Kabupaten Tojo Una-Una",SULAWESI TENGAH,94692.0,Indonesia, 082349951833,,,-0.2520088,122.0593748,https://maps.google.com/?cid=0x0:0x93dcd2bef1502709,
perumahan,perumahan,Sulawesi Tengah 94361,"Kabupaten Sigi, Sulawesi Tengah","Kabupaten Sigi, Sulawesi Tengah",SULAWESI TENGAH,,Indonesia,,,,-1.23459,119.9046594,https://maps.google.com/?cid=0x0:0x4f531feacb3953e3,
perumahan,Perhimpunan Pengembang Perumahan,Ikbal Ebony,"XV3C+J4G, Kaleke, Kec. Dolo Bar., Kabupaten Sigi, Sulawesi Tengah 94362","Kaleke, Kec. Dolo Bar., Kabupaten Sigi",SULAWESI TENGAH,94362.0,Indonesia,,,,-1.045935,119.8703312,https://maps.google.com/?cid=0x0:0xaed9f688064b1d17,
perumahan,Kantor Pemda,Desa baluase,"QR4F+CF2, Baluase, Kec. Dolo Sel., Kabupaten Sigi, Sulawesi Tengah","Kabupaten Sigi, Sulawesi Tengah",SULAWESI TENGAH,,Indonesia,,,,-1.2439761,119.8236554,https://maps.google.com/?cid=0x0:0x65f1d5a8c584af85,
perumahan,Pembangunan Perumahan,Kalukubula Paradise,"2VPH+7RJ, Jl. Guru Tua, Kalukubula, Kec. Sigi Biromaru, Kabupaten Sigi, Sulawesi Tengah","Kabupaten Sigi, Sulawesi Tengah",SULAWESI TENGAH,,Indonesia,,,,-0.9642837,119.8795175,https://maps.google.com/?cid=0x0:0x1e866a5ccedf9692,
perumahan,Pembangunan Perumahan,Perumahan,"Blk. BJ No.15, Kalukubula, Kec. Sigi Biromaru, Kabupaten Sigi, Sulawesi Tengah 94235","Kalukubula, Kec. Sigi Biromaru, Kabupaten Sigi",SULAWESI TENGAH,94235.0,Indonesia,,,,-0.9454064,119.8908371,https://maps.google.com/?cid=0x0:0x2a5196ec87c2aea,
perumahan,Pembangunan Perumahan,Perumahan Biromaru Permai,"2WMG+PPJ, Lolu, Kec. Sigi Biromaru, Kabupaten Sigi, Sulawesi Tengah 94232","Lolu, Kec. Sigi Biromaru, Kabupaten Sigi",SULAWESI TENGAH,94232.0,Indonesia,,,,-0.9656619,119.9272879,https://maps.google.com/?cid=0x0:0x7fb21fc2008252a9,
perumahan,perumahan,Dolo,"Kotarindau, Kec. Dolo, Kabupaten Sigi, Sulawesi Tengah","Kabupaten Sigi, Sulawesi Tengah",SULAWESI TENGAH,,Indonesia,,,,-0.990628,119.878098,https://maps.google.com/?cid=0x0:0x5c92b62bdcba4dae,
perumahan,perumahan,Palu Biromaru,"2V5H+P6X, Kotarindau, Kec. Dolo, Kabupaten Sigi, Sulawesi Tengah","Kabupaten Sigi, Sulawesi Tengah",SULAWESI TENGAH,,Indonesia,,,,-0.990628,119.878098,https://maps.google.com/?cid=0x0:0x31ff6c20599e5f9a,
perumahan,Pembangunan Perumahan,Pwn,"RV5Q+VPQ, Rogo, Kec. Dolo Sel., Kabupaten Sigi, Sulawesi Tengah","Kabupaten Sigi, Sulawesi Tengah",SULAWESI TENGAH,,Indonesia,,,,-1.1902986,119.8893401,https://maps.google.com/?cid=0x0:0x5eed22cd9ead8ab6,
perumahan,Komplek perumahan,Rumah Adi Aoo,"Bangga, Kec. Dolo Sel., Kabupaten Sigi, Sulawesi Tengah","Kabupaten Sigi, Sulawesi Tengah",SULAWESI TENGAH,,Indonesia,,,,-1.2493038,119.9275132,https://maps.google.com/?cid=0x0:0xb7bf3fb81e85da66,
perumahan,Pembangunan Perumahan,Lorong sintuvu,"QW8C+929, Bangga, Kec. Dolo Sel., Kabupaten Sigi, Sulawesi Tengah","Kabupaten Sigi, Sulawesi Tengah",SULAWESI TENGAH,,Indonesia,,,,-1.2340922,119.9201053,https://maps.google.com/?cid=0x0:0x2395c60f15bdcd57,
perumahan,Komplek perumahan,Bulubete,"QWR4+PPG, Bulubete, Kec. Dolo Sel., Kabupaten Sigi, Sulawesi Tengah","Kabupaten Sigi, Sulawesi Tengah",SULAWESI TENGAH,,Indonesia,,,,-1.2081769,119.9068228,https://maps.google.com/?cid=0x0:0x796a008ceb20be2e,
perumahan,Komplek perumahan,Rumah Mertua Kim Taehyung,"RV6Q+RXF Jembatan Pewana, Jl. Poros Palu Bangga, Rogo, Kec. Dolo Sel., Kabupaten Sigi, Sulawesi Tengah 94361","Jl. Poros Palu Bangga, Rogo, Kec. Dolo Sel., Kabupaten Sigi",SULAWESI TENGAH,94361.0,Indonesia,,,,-1.1879388,119.8899212,https://maps.google.com/?cid=0x0:0xd4be5d206296e58f,
perumahan,Komplek perumahan,Sou kodi Raflin,"RV6Q+94C, Rogo, Kec. Dolo Sel., Kabupaten Sigi, Sulawesi Tengah 94361","Rogo, Kec. Dolo Sel., Kabupaten Sigi",SULAWESI TENGAH,94361.0,Indonesia,,,,-1.1890543,119.8877807,https://maps.google.com/?cid=0x0:0x6fc30fd1d1b0b08f,
perumahan,Pembangunan Perumahan,Dusun kecil petimbelagi,"XW69+268 Maranata, Waturalele, Kec. Dolo, Kabupaten Sigi, Sulawesi Tengah 94362","Waturalele, Kec. Dolo, Kabupaten Sigi",SULAWESI TENGAH,94362.0,Indonesia,,,,-1.0399601,119.9180748,https://maps.google.com/?cid=0x0:0x9e39bb873cde25e7,
perumahan,Komplek perumahan,LOPER (Lorong Perkuburan),"QWV3+XRQ, Jl. Poros Palu Bangga, Baluase, Kec. Dolo Sel., Kabupaten Sigi, Sulawesi Tengah 94361","Jl. Poros Palu Bangga, Baluase, Kec. Dolo Sel., Kabupaten Sigi",SULAWESI TENGAH,94361.0,Indonesia,,,,-1.2059809,119.9048065,https://maps.google.com/?cid=0x0:0x4040ffe0542be622,
perumahan,Komplek perumahan,Tempat leren,"XW32+G4, Waturalele, Kec. Dolo, Kabupaten Sigi, Sulawesi Tengah","Kabupaten Sigi, Sulawesi Tengah",SULAWESI TENGAH,,Indonesia,,,,-1.0461453,119.9003254,https://maps.google.com/?cid=0x0:0x95a5201fb47297f2,
perumahan,Perhimpunan Pengembang Perumahan,Lorong okodi,"PWWJ+CHF, Bangga, Kec. Dolo Sel., Kabupaten Sigi, Sulawesi Tengah","Kabupaten Sigi, Sulawesi Tengah",SULAWESI TENGAH,,Indonesia,,,,-1.2539422,119.9314326,https://maps.google.com/?cid=0x0:0xd2e2890d55a583ae,
perumahan,Komplek perumahan,Rumah jafar,"QWW5+53, Bulubete, Kec. Dolo Sel., Kabupaten Sigi, Sulawesi Tengah","Kabupaten Sigi, Sulawesi Tengah",SULAWESI TENGAH,,Indonesia,,,,-1.2046586,119.9066791,https://maps.google.com/?cid=0x0:0x2c51056154da2d29,
perumahan,Komplek perumahan,DION,"WVP9+58X, Balamoa, Kec. Dolo Bar., Kabupaten Sigi, Sulawesi Tengah 94362","Balamoa, Kec. Dolo Bar., Kabupaten Sigi",SULAWESI TENGAH,94362.0,Indonesia, 085657242207,,,-1.0643671,119.8686518,https://maps.google.com/?cid=0x0:0xdcf7feced7387574,
perumahan,Komplek perumahan,Banua Muminah Labaso,"RVRP+738, Pulu, Kec. Dolo Sel., Kabupaten Sigi, Sulawesi Tengah 94361","Pulu, Kec. Dolo Sel., Kabupaten Sigi",SULAWESI TENGAH,94361.0,Indonesia,,,,-1.1593419,119.8851963,https://maps.google.com/?cid=0x0:0x49f1b01286dfec7b,
perumahan,Komplek perumahan,Rumah Yulfien,"WVM7+HPP, Balamoa, Kec. Dolo Bar., Kabupaten Sigi, Sulawesi Tengah 94362","Balamoa, Kec. Dolo Bar., Kabupaten Sigi",SULAWESI TENGAH,94362.0,Indonesia,,,,-1.0641122,119.8695214,https://maps.google.com/?cid=0x0:0x8c4d4a969e329e2,
perumahan,Komplek perumahan,rumah mas agus,"PWWJ+7RV, Bangga, Kec. Dolo Sel., Kabupaten Sigi, Sulawesi Tengah","Kabupaten Sigi, Sulawesi Tengah",SULAWESI TENGAH,,Indonesia,,,,-1.2542577,119.9320341,https://maps.google.com/?cid=0x0:0x4922186079f1208,
perumahan,Gedung Apartemen,Rumahh,"QWP6+G2, Bulubete, Kec. Dolo Sel., Kabupaten Sigi, Sulawesi Tengah","Kabupaten Sigi, Sulawesi Tengah",SULAWESI TENGAH,,Indonesia,,,,-1.2143766,119.9102929,https://maps.google.com/?cid=0x0:0x48c830119a4fb119,
perumahan,Komplek perumahan,Rumah ku,"RV5Q+VPQ, Rogo, Kec. Dolo Sel., Kabupaten Sigi, Sulawesi Tengah","Kabupaten Sigi, Sulawesi Tengah",SULAWESI TENGAH,,Indonesia,,,,-1.1902397,119.8893362,https://maps.google.com/?cid=0x0:0x95f60bd047e2ac58,
perumahan,Komplek perumahan,Rumah dira,"RV7Q+3CV, Rogo, Kec. Dolo Sel., Kabupaten Sigi, Sulawesi Tengah","Kabupaten Sigi, Sulawesi Tengah",SULAWESI TENGAH,,Indonesia,,,,-1.1872642,119.8885498,https://maps.google.com/?cid=0x0:0x428583ebf2e9884a,
perumahan,Komplek perumahan,Warna Home,"QWH6+HRX, Walatana, Kec. Dolo Sel., Kabupaten Sigi, Sulawesi Tengah 94361","Walatana, Kec. Dolo Sel., Kabupaten Sigi",SULAWESI TENGAH,94361.0,Indonesia,,,,-1.2210025,119.9121234,https://maps.google.com/?cid=0x0:0x333ae3b7c24f828f,
perumahan,Gedung Apartemen,Bumi tanggu,"PWWJ+M65, Bangga, Kec. Dolo Sel., Kabupaten Sigi, Sulawesi Tengah","Kabupaten Sigi, Sulawesi Tengah",SULAWESI TENGAH,,Indonesia,,,,-1.2533731,119.9305981,https://maps.google.com/?cid=0x0:0xa226fc497243803b,
perumahan,perumahan,Sulawesi Tengah 94684,"Kec. Ampana Tete, Kabupaten Tojo Una-Una, Sulawesi Tengah","Kabupaten Tojo Una-Una, Sulawesi Tengah",SULAWESI TENGAH,,Indonesia,,,,-1.06437,121.6739371,https://maps.google.com/?cid=0x0:0x395f26e16da414ae,
perumahan,Komplek perumahan,Lorong kantor desa,"WPHJ+69P, Balanggala, Kec. Ampana Tete, Kabupaten Tojo Una-Una, Sulawesi Tengah 94684","Balanggala, Kec. Ampana Tete, Kabupaten Tojo Una-Una",SULAWESI TENGAH,94684.0,Indonesia,,,,-1.0719015,121.7309452,https://maps.google.com/?cid=0x0:0x461140a70a63e112,
perumahan,Komplek perumahan,Lorong katapang,"4JHM+46Q, Jl. Trans Sulawesi, Pusungi, Kec. Ampana Tete, Kabupaten Tojo Una-Una, Sulawesi Tengah 94684","Jl. Trans Sulawesi, Pusungi, Kec. Ampana Tete, Kabupaten Tojo Una-Una",SULAWESI TENGAH,94684.0,Indonesia,,,,-0.8716417,121.6334343,https://maps.google.com/?cid=0x0:0x283535f5beaddbbb,
perumahan,perumahan,Rumah Pipit,"2QJR+742, Jl. Trans Sulawesi, Tampabatu, Kec. Ampana Tete, Kabupaten Tojo Una-Una, Sulawesi Tengah 94684","Jl. Trans Sulawesi, Tampabatu, Kec. Ampana Tete, Kabupaten Tojo Una-Una",SULAWESI TENGAH,94684.0,Indonesia,,,,-0.969046,121.7907064,https://maps.google.com/?cid=0x0:0x895f40481ad7275f,
perumahan,Komplek perumahan,Rumah Rahim,"2PPP+Q73, Urundaka, Kec. Ampana Tete, Kabupaten Tojo Una-Una, Sulawesi Tengah","Kabupaten Tojo Una-Una, Sulawesi Tengah",SULAWESI TENGAH,,Indonesia,,,,-0.9631446,121.7357089,https://maps.google.com/?cid=0x0:0xe23ba3d97d4ddc78,
perumahan,Pembangunan Perumahan,Urundaka,"2PPR+J7H, Jl. Trans Sulawesi, Urundaka, Kec. Ampana Tete, Kabupaten Tojo Una-Una, Sulawesi Tengah 94684","Jl. Trans Sulawesi, Urundaka, Kec. Ampana Tete, Kabupaten Tojo Una-Una",SULAWESI TENGAH,94684.0,Indonesia,,,,-0.9634326,121.7407435,https://maps.google.com/?cid=0x0:0xc19e00b9c260bdb9,
perumahan,perumahan,Rumah Papa Iki,"3JW2+CJH, Sabulira Toba, Kec. Ampana Kota, Toba Robin, Sulawesi Tengah 94683","Sabulira Toba, Kec. Ampana Kota, Toba Robin",SULAWESI TENGAH,94683.0,Indonesia,,,,-0.9039437,121.6016096,https://maps.google.com/?cid=0x0:0xbc8a7b1c539e3862,
perumahan,perumahan,Home Sela  Aliff cell,"Jl. Trans Sulawesi, Mantangisi, Kec. Ampana Tete, Kabupaten Tojo Una-Una, Sulawesi Tengah 94684","Mantangisi, Kec. Ampana Tete, Kabupaten Tojo Una-Una",SULAWESI TENGAH,94684.0,Indonesia, 081233477826,,,-0.9326165,121.6956757,https://maps.google.com/?cid=0x0:0x2848fee5484e396b,
perumahan,Komplek perumahan,Rumah pak makmur lantuka,"2PWC+967, Bantuga, Kec. Ampana Tete, Kabupaten Tojo Una-Una, Sulawesi Tengah 94684","Bantuga, Kec. Ampana Tete, Kabupaten Tojo Una-Una",SULAWESI TENGAH,94684.0,Indonesia,,,,-0.9541282,121.7205706,https://maps.google.com/?cid=0x0:0x15f08efabb133cad,
perumahan,Komplek perumahan,FAT RESIDENCE AMPANA,"3HMC+RWJ, Perumahan Fat Ampana blok ,JL. Sumber Air Jalur 2, Sansarino, Kec. Ampana Kota, Kabupaten Tojo Una-Una, Sulawesi Tengah 94683","Perumahan Fat Ampana blok ,JL. Sumber Air Jalur 2, Sansarino, Kec. Ampana Kota, Kabupaten Tojo Una-Una",SULAWESI TENGAH,94683.0,Indonesia,,,,-0.9180101,121.5718837,https://maps.google.com/?cid=0x0:0xe5cd96217bb92fa1,
perumahan,Rumah Kayu,Rumahnya Annisa,"2QMQ+HJ4, Tampabatu, Kec. Ampana Tete, Kabupaten Tojo Una-Una, Sulawesi Tengah","Kabupaten Tojo Una-Una, Sulawesi Tengah",SULAWESI TENGAH,,Indonesia,,,,-0.9661207,121.789084,https://maps.google.com/?cid=0x0:0xb89e27fdbcfeea35,
perumahan,perumahan,Rumah 3S,"Jl. Trans Sulawesi No.01, RT.01, Urundaka, Kec. Ampana Tete, Kabupaten Tojo Una-Una, Sulawesi Tengah 94684","RT.01, Urundaka, Kec. Ampana Tete, Kabupaten Tojo Una-Una",SULAWESI TENGAH,94684.0,Indonesia,,,,-0.9639359,121.7421785,https://maps.google.com/?cid=0x0:0xb2736a837d75d5a,
perumahan,perumahan,HOME MANDRAPI,"3P35+V82, Bantuga, Kec. Ampana Tete, Kabupaten Tojo Una-Una, Sulawesi Tengah 94684","Bantuga, Kec. Ampana Tete, Kabupaten Tojo Una-Una",SULAWESI TENGAH,94684.0,Indonesia,,,,-0.9459453,121.7082351,https://maps.google.com/?cid=0x0:0x1ce8570bb4e96fd2,
perumahan,Komplek perumahan,Aryl_,"2QH7+3W2, Jl. Trans Sulawesi, Balanggala, Kec. Ampana Tete, Kabupaten Tojo Una-Una, Sulawesi Tengah 94684","Jl. Trans Sulawesi, Balanggala, Kec. Ampana Tete, Kabupaten Tojo Una-Una",SULAWESI TENGAH,94684.0,Indonesia,,,,-0.972278,121.764696,https://maps.google.com/?cid=0x0:0x3d35db16cc08def1,
perumahan,Pembangunan Perumahan,Uebone,"3MV3+Q6R, Uebone, Kec. Ampana Tete, Kabupaten Tojo Una-Una, Sulawesi Tengah 94684","Uebone, Kec. Ampana Tete, Kabupaten Tojo Una-Una",SULAWESI TENGAH,94684.0,Indonesia,,,,-0.905523,121.6530292,https://maps.google.com/?cid=0x0:0x4f227cf8067ad69b,
perumahan,perumahan,Rumah Ifa,"3P82+7F, Mantangisi, Kec. Ampana Tete, Kabupaten Tojo Una-Una, Sulawesi Tengah","Kabupaten Tojo Una-Una, Sulawesi Tengah",SULAWESI TENGAH,,Indonesia, 082259592995,,,-0.934258,121.701185,https://maps.google.com/?cid=0x0:0xa14f85996749bb69,
perumahan,Sekolah,Borone,"XP42+HX8, Borone, Kec. Ampana Tete, Kabupaten Tojo Una-Una, Sulawesi Tengah 94684","Borone, Kec. Ampana Tete, Kabupaten Tojo Una-Una",SULAWESI TENGAH,94684.0,Indonesia,,,,-1.0435819,121.7024448,https://maps.google.com/?cid=0x0:0xcf5cb5ebf8928efa,
perumahan,perumahan,Rumah siti,"Jl. Gn. Rapambai No.16, Uentanaga Atas, Kec. Ampana Kota, Kabupaten Tojo Una-Una, Sulawesi Tengah 94683","Uentanaga Atas, Kec. Ampana Kota, Kabupaten Tojo Una-Una",SULAWESI TENGAH,94683.0,Indonesia, 085194862886,,,-0.8751791,121.5825931,https://maps.google.com/?cid=0x0:0xa275eab02b5778f9,
perumahan,perumahan,HomeGetss,"3MHF+46M, Mantangisi, Kec. Ampana Tete, Kabupaten Tojo Una-Una, Sulawesi Tengah","Kabupaten Tojo Una-Una, Sulawesi Tengah",SULAWESI TENGAH,,Indonesia,,,,-0.9221556,121.6730462,https://maps.google.com/?cid=0x0:0x8a77ab11b5a27a52,
perumahan,Komplek perumahan,Rumah Dinas Guru ibu Nabila Kowiloy,"2PWC+37C, Bantuga, Kec. Ampana Tete, Kabupaten Tojo Una-Una, Sulawesi Tengah 94684","Bantuga, Kec. Ampana Tete, Kabupaten Tojo Una-Una",SULAWESI TENGAH,94684.0,Indonesia,,,,-0.9551842,121.7200967,https://maps.google.com/?cid=0x0:0xb3d6250877c3b1e7,
perumahan,Komplek perumahan,Toba permata,"3HVQ+58V, Uentanaga Atas, Kec. Ampana Kota, Kabupaten Tojo Una-Una, Sulawesi Tengah 94683","Uentanaga Atas, Kec. Ampana Kota, Kabupaten Tojo Una-Una",SULAWESI TENGAH,94683.0,Indonesia,,,,-0.9070197,121.5883108,https://maps.google.com/?cid=0x0:0x9a7928c2a57d7219,
perumahan,Komplek perumahan,Rumah panggung,"3HQW+8V7, Uentanaga Atas, Kec. Ampana Kota, Kabupaten Tojo Una-Una, Sulawesi Tengah 94683","Uentanaga Atas, Kec. Ampana Kota, Kabupaten Tojo Una-Una",SULAWESI TENGAH,94683.0,Indonesia,,,,-0.9117185,121.5971615,https://maps.google.com/?cid=0x0:0xb0717dcc65227c62,
perumahan,Komplek perumahan,AHDIN TENGKO,"3JXG+P55, Unnamed Road, Kajulangko, Kec. Ampana Tete, Kabupaten Tojo Una-Una, Sulawesi Tengah 94684","Unnamed Road, Kajulangko, Kec. Ampana Tete, Kabupaten Tojo Una-Una",SULAWESI TENGAH,94684.0,Indonesia,,,,-0.9007489,121.6254782,https://maps.google.com/?cid=0x0:0x31cb07a9d9d8986f,
perumahan,Komplek perumahan,Lorong asam,"2PWC+75, Bantuga, Kec. Ampana Tete, Kabupaten Tojo Una-Una, Sulawesi Tengah","Kabupaten Tojo Una-Una, Sulawesi Tengah",SULAWESI TENGAH,,Indonesia,,,,-0.9542501,121.7203888,https://maps.google.com/?cid=0x0:0x3f3137bf37d85a62,
perumahan,perumahan,Sulawesi Tengah 94221,"Kec. Palu Bar., Kota Palu, Sulawesi Tengah","Kota Palu, Sulawesi Tengah",SULAWESI TENGAH,,Indonesia,,,,-0.8912088,119.8496976,https://maps.google.com/?cid=0x0:0xa023e20d5616ec4f,
perumahan,Komplek perumahan,Kota palu sulawesi tengah,"4V34+V5G, Baru, Kec. Palu Bar., Kota Palu, Sulawesi Tengah 94221","Baru, Kec. Palu Bar., Kota Palu",SULAWESI TENGAH,94221.0,Indonesia, 085397666181,,,-0.8953013,119.855442,https://maps.google.com/?cid=0x0:0xd1cce6392ab8f2d5,
perumahan,Komplek perumahan,BEPONG!!!,"Jl. Donggata No.67, Lere, Kec. Palu Bar., Kota Palu, Sulawesi Tengah 94111","Lere, Kec. Palu Bar., Kota Palu",SULAWESI TENGAH,94111.0,Indonesia,,,,-0.8898672,119.8520968,https://maps.google.com/?cid=0x0:0xf6e0775b6e472b7c,
perumahan,Komplek perumahan,Perum CEMPAKA MAS Residence City,"Jl. Sungai Tanamea No.37a, Boyaoge, Kec. Tatanga, Kota Palu, Sulawesi Tengah 94221","Boyaoge, Kec. Tatanga, Kota Palu",SULAWESI TENGAH,94221.0,Indonesia,,,,-0.9078527,119.8607728,https://maps.google.com/?cid=0x0:0xf60de200d4a883a1,
perumahan,Perumahan,Lasoso permai,"Jl. Lasoso No.47, Kabonena, Kec. Palu Bar., Kota Palu, Sulawesi Tengah 94221","Kabonena, Kec. Palu Bar., Kota Palu",SULAWESI TENGAH,94221.0,Indonesia, 082217163838,,,-0.8861397,119.8399776,https://maps.google.com/?cid=0x0:0xa54220a70cc6004c,
perumahan,Komplek perumahan,Rumah Kuslan,"Jl. Asam I No.27, Lere, Kec. Palu Bar., Kota Palu, Sulawesi Tengah 94221","Lere, Kec. Palu Bar., Kota Palu",SULAWESI TENGAH,94221.0,Indonesia,,,,-0.8938498,119.8480644,https://maps.google.com/?cid=0x0:0xbe8b29f3938ddb15,
perumahan,Komplek perumahan,GRAND DIAMOND RESIDENT,"4V63+4VG, Lere, Kec. Palu Bar., Kota Palu, Sulawesi Tengah 94221","Lere, Kec. Palu Bar., Kota Palu",SULAWESI TENGAH,94221.0,Indonesia,,,,-0.8896755,119.8546897,https://maps.google.com/?cid=0x0:0x6b6a609de2e0c7be,
perumahan,Komplek perumahan,Rumah Idham jafar,"4V44+7WH, Baru, Kec. Palu Bar., Kota Palu, Sulawesi Tengah 94221","Baru, Kec. Palu Bar., Kota Palu",SULAWESI TENGAH,94221.0,Indonesia,,,,-0.894313,119.8573717,https://maps.google.com/?cid=0x0:0xbd3b6678d91d0711,
perumahan,Komplek perumahan,Rumah Pogego,"Jl. Tamako 2 No.99, Donggala Kodi, Kec. Palu Bar., Kota Palu, Sulawesi Tengah 94111","Donggala Kodi, Kec. Palu Bar., Kota Palu",SULAWESI TENGAH,94111.0,Indonesia,,,,-0.8952732,119.8453413,https://maps.google.com/?cid=0x0:0xe4e648c5422f3472,
perumahan,perumahan,Server HIMA S.i,"4R5W+G69, Lere, Kec. Palu Bar., Kota Palu, Sulawesi Tengah 94221","Lere, Kec. Palu Bar., Kota Palu",SULAWESI TENGAH,94221.0,Indonesia, 082261114092,,,-0.8912101,119.8456227,https://maps.google.com/?cid=0x0:0x884886759f1c1826,
perumahan,Komplek perumahan,Lrg. UD. Mantap Kelurahan Baru,"4V45+CVM, Jl. HOS Cokroaminoto, Baru, Kec. Palu Bar., Kota Palu, Sulawesi Tengah 94221","Jl. HOS Cokroaminoto, Baru, Kec. Palu Bar., Kota Palu",SULAWESI TENGAH,94221.0,Indonesia,,,,-0.8951122,119.8601377,https://maps.google.com/?cid=0x0:0x9b1e9a7512259b9b,
perumahan,Komplek perumahan,Rumah mama ray,"Jl. Bantilan Lrg 3 No.4, Lere, Kec. Palu Bar., Kota Palu, Sulawesi Tengah 94111","Lere, Kec. Palu Bar., Kota Palu",SULAWESI TENGAH,94111.0,Indonesia,,,,-0.8863888,119.8533149,https://maps.google.com/?cid=0x0:0x6fbf574f31bbc04d,
perumahan,Komplek perumahan,Asam2,"4V34+V5G, Baru, Kec. Palu Bar., Kota Palu, Sulawesi Tengah 94221","Baru, Kec. Palu Bar., Kota Palu",SULAWESI TENGAH,94221.0,Indonesia, 081393483768,,,-0.8953013,119.855442,https://maps.google.com/?cid=0x0:0x7577d7df04938cf,
perumahan,Komplek perumahan,Rumah haidir,"Jl. Nenas Lorong I No.20 c, Kamonji, Kec. Palu Bar., Kota Palu, Sulawesi Tengah 94221","Kamonji, Kec. Palu Bar., Kota Palu",SULAWESI TENGAH,94221.0,Indonesia,,,,-0.8981191,119.8536305,https://maps.google.com/?cid=0x0:0x35469e12ec10cca2,
perumahan,Komplek perumahan,Rumah imam bonjol,"4V35+W2V, Jl. Imam Bonjol, Siranindi, Kec. Palu Bar., Kota Palu, Sulawesi Tengah","Kota Palu, Sulawesi Tengah",SULAWESI TENGAH,,Indonesia,,,,-0.8951378,119.8575558,https://maps.google.com/?cid=0x0:0x8309664f2f3fd0de,
perumahan,Komplek perumahan,Rumah Nanda,"4R5X+HXV, Jl. Tanjumbulu, Lere, Kec. Palu Bar., Kota Palu, Sulawesi Tengah 94221","Jl. Tanjumbulu, Lere, Kec. Palu Bar., Kota Palu",SULAWESI TENGAH,94221.0,Indonesia,,,,-0.8910063,119.8499201,https://maps.google.com/?cid=0x0:0xf07af86899fff17d,
perumahan,Otoritas Perumahan,Perumahan Griya Banua Nagaya,"4R8M+5CG, Jl. Jalur Ghaza, Kabonena, Kec. Palu Bar., Kota Palu, Sulawesi Tengah 94221","Jl. Jalur Ghaza, Kabonena, Kec. Palu Bar., Kota Palu",SULAWESI TENGAH,94221.0,Indonesia,,,,-0.8845635,119.8335642,https://maps.google.com/?cid=0x0:0xb9f77fb10a0240dc,
perumahan,Komplek perumahan,Perumahan Green House Indonesia,"3RQR+9RG, Jl. PDAM Jl. Jamur Lorong III, Duyu, Kec. Tatanga, Kota Palu, Sulawesi Tengah 94225","Jl. PDAM Jl. Jamur Lorong III, Duyu, Kec. Tatanga, Kota Palu",SULAWESI TENGAH,94225.0,Indonesia,,,,-0.9115599,119.8420798,https://maps.google.com/?cid=0x0:0x9549fb4e400ffd2e,
perumahan,Komplek perumahan,Rumah Idaman,"4V42+M2C, Lere, Kec. Palu Bar., Kota Palu, Sulawesi Tengah 94111","Lere, Kec. Palu Bar., Kota Palu",SULAWESI TENGAH,94111.0,Indonesia,,,,-0.8933244,119.8500044,https://maps.google.com/?cid=0x0:0x565408d7326d9e1f,
perumahan,Komplek perumahan,kos,"4V66+JFR, Jl. Undata Lrg. Marlboro, Lere, Kec. Palu Bar., Kota Palu, Sulawesi Tengah 94221","Jl. Undata Lrg. Marlboro, Lere, Kec. Palu Bar., Kota Palu",SULAWESI TENGAH,94221.0,Indonesia,,,,-0.8883856,119.8611403,https://maps.google.com/?cid=0x0:0xf2829baa119aee4,
perumahan,Komplek perumahan,Tatanga,"3VJ5+WRG, Jl. Lekatu, Pengawu, Kec. Tatanga, Kota Palu, Sulawesi Tengah","Kota Palu, Sulawesi Tengah",SULAWESI TENGAH,,Indonesia,,,,-0.9176953,119.8595634,https://maps.google.com/?cid=0x0:0xba0cf6f43fcd4b6c,
perumahan,perumahan,Kel. Duyu kec. Tatanga kota palu,"Jl. Padanjakaya No.4, Duyu, Kec. Tatanga, Kota Palu, Sulawesi Tengah 94221","Duyu, Kec. Tatanga, Kota Palu",SULAWESI TENGAH,94221.0,Indonesia,,,,-0.9214929,119.8394134,https://maps.google.com/?cid=0x0:0xe15ed57817ad96f5,
perumahan,Pembangunan Perumahan,Jalan Talua Toma Yojo,"3RPQ+VVC, Jl. Gunung Gawalise, Balaroa, Kec. Tatanga, Kota Palu, Sulawesi Tengah 94221","Jl. Gunung Gawalise, Balaroa, Kec. Tatanga, Kota Palu",SULAWESI TENGAH,94221.0,Indonesia,,,,-0.9128031,119.8396488,https://maps.google.com/?cid=0x0:0x1d04bcc09e4581c9,
perumahan,Komplek perumahan,rumah aji akbar,"Griya permata hijau, Jl. PDAM No.2, Duyu, Kec. Tatanga, Kota Palu, Sulawesi Tengah 94221","Jl. PDAM No.2, Duyu, Kec. Tatanga, Kota Palu",SULAWESI TENGAH,94221.0,Indonesia,,,,-0.9129197,119.8432471,https://maps.google.com/?cid=0x0:0x44ea5e582e304299,
perumahan,Komplek perumahan,Rumah Hidayat,"Jl. Padanjakaya No.41, Duyu, Kec. Tatanga, Kota Palu, Sulawesi Tengah 94221","Duyu, Kec. Tatanga, Kota Palu",SULAWESI TENGAH,94221.0,Indonesia,,,,-0.9212103,119.8425358,https://maps.google.com/?cid=0x0:0x73ee9e5b82dbe835,
perumahan,Komplek perumahan,BTN Griya Tamako Blok,"4R3R+M9F, Donggala Kodi, Kec. Palu Bar., Kota Palu, Sulawesi Tengah 94111","Donggala Kodi, Kec. Palu Bar., Kota Palu",SULAWESI TENGAH,94111.0,Indonesia, 082247010090,,,-0.8958217,119.8409251,https://maps.google.com/?cid=0x0:0xb5cd64a3577a3edf,
perumahan,Komplek perumahan,Rumah Andi Dermawan,"BTN Griya, Jl. Kedondong V Blok D4, Donggala Kodi, Ulujadi, Palu City, Central Sulawesi 94111","Jl. Kedondong V Blok D4, Donggala Kodi, Ulujadi, Palu City",SULAWESI TENGAH,94111.0,Indonesia,,,,-0.897602,119.840612,https://maps.google.com/?cid=0x0:0x528b5ab1d480d120,
perumahan,perumahan,Lyly Dessert,"4V46+3RW, Baru, Kec. Palu Bar., Kota Palu, Sulawesi Tengah 94221","Baru, Kec. Palu Bar., Kota Palu",SULAWESI TENGAH,94221.0,Indonesia,,,,-0.8947506,119.8620743,https://maps.google.com/?cid=0x0:0x3e7ffa1d72452c5c,
perumahan,Komplek perumahan,Aisyah Lataha,"Jl. Tembang No.24, Lere, Kec. Palu Bar., Kota Palu, Sulawesi Tengah","Kota Palu, Sulawesi Tengah",SULAWESI TENGAH,,Indonesia,,,,-0.8868481,119.8540003,https://maps.google.com/?cid=0x0:0x3c2c145347c016dc,
perumahan,perumahan,Sulawesi Tengah 94222,Sulawesi Tengah,Sulawesi Tengah,SULAWESI TENGAH,,Indonesia,,,,-0.9471477,119.8641634,https://maps.google.com/?cid=0x0:0xbac940530ed27252,
perumahan,Otoritas Perumahan,Perumahan Anda Blok H 7 ujung,"3V93+37X Nmr, Btn Puskud Perumahan Anda, Blk. B, Palupi, Kec. Tatanga, Kota Palu, Sulawesi Tengah 94222","Btn Puskud Perumahan Anda, Blk. B, Palupi, Kec. Tatanga, Kota Palu",SULAWESI TENGAH,94222.0,Indonesia,,,,-0.9322706,119.8531746,https://maps.google.com/?cid=0x0:0xb12a008ade528234,
perumahan,Komplek perumahan,Perumahan Nurul Chairaat Palupi Kota Palu,"3VC4+2PR Perumahan Nurul Chairaat, Palupi, Kec. Tatanga, Kota Palu, Sulawesi Tengah 94222","Palupi, Kec. Tatanga, Kota Palu",SULAWESI TENGAH,94222.0,Indonesia,,,,-0.9298865,119.8567784,https://maps.google.com/?cid=0x0:0xe9262817c02adc30,
perumahan,Komplek perumahan,Perumahan Green Palupi Mandiri,"3V93+4R, Palupi, Kec. Tatanga, Kota Palu, Sulawesi Tengah 94222","Palupi, Kec. Tatanga, Kota Palu",SULAWESI TENGAH,94222.0,Indonesia,,,,-0.9322173,119.8545271,https://maps.google.com/?cid=0x0:0x217edbf43a6ab6a6,
perumahan,Komplek perumahan,PERUMAHAN PALUPI PERMAI BLOK C NO 5,"Jl. Virgo No.62, Palupi, Kec. Tatanga, Kota Palu, Sulawesi Tengah 94222","Palupi, Kec. Tatanga, Kota Palu",SULAWESI TENGAH,94222.0,Indonesia,,,,-0.9262223,119.8607748,https://maps.google.com/?cid=0x0:0x5476c110cf7d778f,
perumahan,Komplek perumahan,Perumahan,"3VF4+PHC, Jl. Pue Bongo, Palupi, Kec. Tatanga, Kota Palu, Sulawesi Tengah 94222","Jl. Pue Bongo, Palupi, Kec. Tatanga, Kota Palu",SULAWESI TENGAH,94222.0,Indonesia,,,,-0.9256955,119.8563924,https://maps.google.com/?cid=0x0:0x839c43611329dd49,
perumahan,Komplek perumahan,AFNADZ RUMAH BOMBA,"BTN Palupi Permai, Jl. Paramedis III No.2 blok D1, Palupi, Kec. Tatanga, Kota Palu, Sulawesi Tengah 94222","Jl. Paramedis III No.2 blok D1, Palupi, Kec. Tatanga, Kota Palu",SULAWESI TENGAH,94222.0,Indonesia, 082193805757,,,-0.9315195,119.8609132,https://maps.google.com/?cid=0x0:0x479321cf0f9c5ee5,
perumahan,Komplek perumahan,Rumah AL- Atha- ALeya,"BTN Palupi Permai, blok b no 76, Palupi, Kec. Tatanga, Kota Palu, Sulawesi Tengah 94222","blok b no 76, Palupi, Kec. Tatanga, Kota Palu",SULAWESI TENGAH,94222.0,Indonesia,,,,-0.928645,119.8611717,https://maps.google.com/?cid=0x0:0xd835d79dffc54029,
perumahan,Pembangunan Perumahan,Perumahan The Palupi Square,"3V93+CRW, Palupi, Kec. Tatanga, Kota Palu, Sulawesi Tengah 94222","Palupi, Kec. Tatanga, Kota Palu",SULAWESI TENGAH,94222.0,Indonesia,,,,-0.9313859,119.8546026,https://maps.google.com/?cid=0x0:0xd9cd438baaac7aed,
perumahan,Komplek perumahan,Rumah Mom'Nad,"BTN Palupi Permai, Jl. Kebersamaan, Palupi, Kec. Tatanga, Kota Palu, Sulawesi Tengah 94222","Jl. Kebersamaan, Palupi, Kec. Tatanga, Kota Palu",SULAWESI TENGAH,94222.0,Indonesia,,,,-0.928645,119.8611717,https://maps.google.com/?cid=0x0:0xae21c3230523e77a,
perumahan,Komplek perumahan,Rumah acel,"3V93+CMJ, Palupi, Kec. Tatanga, Kota Palu, Sulawesi Tengah 94222","Palupi, Kec. Tatanga, Kota Palu",SULAWESI TENGAH,94222.0,Indonesia,,,,-0.9314074,119.8540988,https://maps.google.com/?cid=0x0:0x6c5bd7024c296a80,
perumahan,Komplek perumahan,Rumah FeNa,"3VC4+GQG, Jl. Raya Palupi, Palupi, Kec. Tatanga, Kota Palu, Sulawesi Tengah 94222","Jl. Raya Palupi, Palupi, Kec. Tatanga, Kota Palu",SULAWESI TENGAH,94222.0,Indonesia,,,,-0.9286796,119.8569667,https://maps.google.com/?cid=0x0:0x6a4d49324f0533e1,
perumahan,Perumahan,Perumahan Manimbaya,"3VVJ+6MR, Tatura Utara, Kec. Palu Sel., Kota Palu, Sulawesi Tengah 94111","Tatura Utara, Kec. Palu Sel., Kota Palu",SULAWESI TENGAH,94111.0,Indonesia,,,,-0.9068924,119.8816303,https://maps.google.com/?cid=0x0:0x23ea8b5f66327021,
perumahan,Komplek perumahan,Rumah Dimas praditya,"BTN Palupi Permai, blok f no 17, Palupi, Kec. Tatanga, Kota Palu, Sulawesi Tengah 94222","blok f no 17, Palupi, Kec. Tatanga, Kota Palu",SULAWESI TENGAH,94222.0,Indonesia,,,,-0.9288907,119.8601542,https://maps.google.com/?cid=0x0:0x1f77bf18706ab8be,
perumahan,Komplek perumahan,rumah dewi,"BTN no 22, Palupi, Kec. Tatanga, Kota Palu, Sulawesi Tengah 94222","Palupi, Kec. Tatanga, Kota Palu",SULAWESI TENGAH,94222.0,Indonesia,,,,-0.9312009,119.8570157,https://maps.google.com/?cid=0x0:0x41e567df870f045,
perumahan,perumahan,Rumah Pak Ibrahim Assagaf,"BTN Palupi Permai, Jl. Raya Palupi, Mas, Kec. Tatanga, Kota Palu, Sulawesi Tengah 94222","Jl. Raya Palupi, Mas, Kec. Tatanga, Kota Palu",SULAWESI TENGAH,94222.0,Indonesia,,,,-0.9263722,119.8598655,https://maps.google.com/?cid=0x0:0xf65d48454a9c4ee3,
perumahan,Komplek perumahan,Pomandu Residence,"3RFR+54M, Duyu, Kec. Tatanga, Kota Palu, Sulawesi Tengah","Kota Palu, Sulawesi Tengah",SULAWESI TENGAH,,Indonesia,,,,-0.9270265,119.8402854,https://maps.google.com/?cid=0x0:0x4251affebdfd8da5,
perumahan,Agen Properti,Perumahan Banua Indah Permai,"3V76+6RF, Baliase, Kec. Marawola, Kabupaten Sigi, Sulawesi Tengah 94222","Baliase, Kec. Marawola, Kabupaten Sigi",SULAWESI TENGAH,94222.0,Indonesia,,,,-0.9369317,119.8620412,https://maps.google.com/?cid=0x0:0x2991207218580af6,
perumahan,Pembangunan Perumahan,Perumahan Graha Mutiara A1/9,"Perum Graha Mutiara Blok A1 No.9, RW.8, Tinggede Sel., Kec. Marawola, Kabupaten Sigi, Sulawesi Tengah 94222","RW.8, Tinggede Sel., Kec. Marawola, Kabupaten Sigi",SULAWESI TENGAH,94222.0,Indonesia,,,,-0.9423497,119.8659324,https://maps.google.com/?cid=0x0:0xead48bc32dff7ec6,
perumahan,Komplek perumahan,Perumahan,"3V58+PRM, Btn tinggede estate, Tinggede Sel., Kec. Marawola, Kabupaten Sigi, Sulawesi Tengah 94222","Btn tinggede estate, Tinggede Sel., Kec. Marawola, Kabupaten Sigi",SULAWESI TENGAH,94222.0,Indonesia,,,,-0.9406514,119.8670612,https://maps.google.com/?cid=0x0:0xac99a219a1658c27,
perumahan,Toko Perlengkapan Rumah,Perumahan anda 2 kintabaru,"Pengawu, Kec. Palu Sel., Kota Palu, Sulawesi Tengah 94222","Kec. Palu Sel., Kota Palu",SULAWESI TENGAH,94222.0,Indonesia,,,,-0.9338066,119.8509703,https://maps.google.com/?cid=0x0:0xb21dc6d19268493c,
perumahan,Komplek perumahan,Rumah Tante Mini,"3VG3+J8W, Pengawu, Kec. Tatanga, Kota Palu, Sulawesi Tengah 94222","Pengawu, Kec. Tatanga, Kota Palu",SULAWESI TENGAH,94222.0,Indonesia,,,,-0.9233993,119.853328,https://maps.google.com/?cid=0x0:0xb9539b0c17b0837d,
perumahan,Komplek perumahan,Rumah Fadlun,"Jl. Aquarius Blok.B, Palupi, Kec. Tatanga, Kota Palu, Sulawesi Tengah 94222","Palupi, Kec. Tatanga, Kota Palu",SULAWESI TENGAH,94222.0,Indonesia,,,,-0.9269002,119.8610859,https://maps.google.com/?cid=0x0:0x889c57b620748539,
perumahan,Pembangunan Perumahan,Rumah Papa Fajar,"Jl. Kebersamaan No.7, Palupi, Kec. Tatanga, Kota Palu, Sulawesi Tengah 94222","Palupi, Kec. Tatanga, Kota Palu",SULAWESI TENGAH,94222.0,Indonesia, 081354217568,,,-0.9294673,119.8592438,https://maps.google.com/?cid=0x0:0xce1fd31b515f4edb,
perumahan,Komplek perumahan,Rumah Radjak Karu Family,"Blk. I No.1, Palupi, Kec. Tatanga, Kota Palu, Sulawesi Tengah 94222","Palupi, Kec. Tatanga, Kota Palu",SULAWESI TENGAH,94222.0,Indonesia, 085397818934,,,-0.9285066,119.8594263,https://maps.google.com/?cid=0x0:0xe9014029998994e7,
perumahan,Pembangunan Perumahan,Rumah Pak Tris Egi,"Jl. Raya Palupi No.5, Mas, Kec. Tatanga, Kota Palu, Sulawesi Tengah 94222","Mas, Kec. Tatanga, Kota Palu",SULAWESI TENGAH,94222.0,Indonesia, 082315729424,,,-0.9262139,119.8582086,https://maps.google.com/?cid=0x0:0x9eadb2560a97e3eb,
perumahan,Komplek perumahan,Rumah Raya,"BTN Griya Palupi Permai Blok N 11, Palupi, Kec. Tatanga, Kota Palu, Sulawesi Tengah 94222","Palupi, Kec. Tatanga, Kota Palu",SULAWESI TENGAH,94222.0,Indonesia,,,,-0.9269318,119.8583205,https://maps.google.com/?cid=0x0:0xc843456620b7a39b,
perumahan,Komplek perumahan,Rafa Travell,"3V93+37X, Btn Puskud Perumahan Anda Blok B Nmr, Palupi, Kec. Tatanga, Kota Palu, Sulawesi Tengah 94222","Btn Puskud Perumahan Anda Blok B Nmr, Palupi, Kec. Tatanga, Kota Palu",SULAWESI TENGAH,94222.0,Indonesia, 085241191077,,,-0.9322511,119.853238,https://maps.google.com/?cid=0x0:0x535aa5f649a96df5,
perumahan,Komplek perumahan,Rumah,"BTN, Jl. Komp. Puskud No.18 Blok F2, Palupi, Kec. Tatanga, Kota Palu, Sulawesi Tengah 94222","Jl. Komp. Puskud No.18 Blok F2, Palupi, Kec. Tatanga, Kota Palu",SULAWESI TENGAH,94222.0,Indonesia,,,,-0.928842,119.853528,https://maps.google.com/?cid=0x0:0xe4d72fdde6b9329b,
perumahan,perumahan,Sulawesi Tengah 94225,"Kabupaten Sigi, Sulawesi Tengah","Kabupaten Sigi, Sulawesi Tengah",SULAWESI TENGAH,,Indonesia,,,,-0.9727709,119.7947139,https://maps.google.com/?cid=0x0:0x24ce1cc8904f7ae5,
perumahan,Komplek perumahan,Pomandu Residence,"3RFR+54M, Duyu, Kec. Tatanga, Kota Palu, Sulawesi Tengah","Kota Palu, Sulawesi Tengah",SULAWESI TENGAH,,Indonesia,,,,-0.9270265,119.8402854,https://maps.google.com/?cid=0x0:0x4251affebdfd8da5,
perumahan,Komplek perumahan,THE GREEN LAND KALUKUBULA,"Jl. Tara, Kalukubula, Kec. Sigi Biromaru, Kabupaten Sigi, Sulawesi Tengah 94235","Kalukubula, Kec. Sigi Biromaru, Kabupaten Sigi",SULAWESI TENGAH,94235.0,Indonesia, 085241947951,,,-0.9417069,119.8905885,https://maps.google.com/?cid=0x0:0x75ff240383cedc51,
perumahan,Komplek perumahan,Griya Tadulako Permai 5,"5W77+82Q, Tondo, Kec. Mantikulore, Kota Palu, Sulawesi Tengah","Kota Palu, Sulawesi Tengah",SULAWESI TENGAH,,Indonesia,,,,-0.8366576,119.9126029,https://maps.google.com/?cid=0x0:0x634ad1a5d45c2b19,
perumahan,Komplek perumahan,Perumahan,"3V7H+82F, Blk. F, Tinggede, Kec. Marawola, Kabupaten Sigi, Sulawesi Tengah 94235","Blk. F, Tinggede, Kec. Marawola, Kabupaten Sigi",SULAWESI TENGAH,94235.0,Indonesia, 082259833704,,,-0.9366971,119.8775571,https://maps.google.com/?cid=0x0:0xf37a6a934a3ce51d,
perumahan,perumahan,Korwil,"2RJG+GG, Uwemanje, Kec. Kinovaro, Kabupaten Sigi, Sulawesi Tengah","Kabupaten Sigi, Sulawesi Tengah",SULAWESI TENGAH,,Indonesia,,,,-0.9686883,119.8263467,https://maps.google.com/?cid=0x0:0x8772f2cee569e420,
perumahan,Komplek perumahan,BTN KORPRI Kawatuna,"3WJJ+QX8, Kawatuna, Kec. Palu Sel., Kota Palu, Sulawesi Tengah 94234","Kawatuna, Kec. Palu Sel., Kota Palu",SULAWESI TENGAH,94234.0,Indonesia,,,,-0.9180849,119.9324394,https://maps.google.com/?cid=0x0:0x7913adaa8ab35733,
perumahan,Kantor Pemerintah,Dinas Perumahan Dan Kawasan Permukiman Kota Palu,"3VG5+6F9, Jl. Pue Bongo II, Palupi, Kec. Tatanga, Kota Palu, Sulawesi Tengah 94237","Jl. Pue Bongo II, Palupi, Kec. Tatanga, Kota Palu",SULAWESI TENGAH,94237.0,Indonesia, 04514019143,,,-0.9244661,119.8587309,https://maps.google.com/?cid=0x0:0xcdd3684e543a5e38,
perumahan,Komplek perumahan,Rumah pak andi,"2QVM+G72, Dombu, Kec. Marawola Barat, Kabupaten Sigi, Sulawesi Tengah","Kabupaten Sigi, Sulawesi Tengah",SULAWESI TENGAH,,Indonesia,,,,-0.9562363,119.7831356,https://maps.google.com/?cid=0x0:0x789a93af7820519f,
perumahan,Komplek perumahan,BTN Griya Tadulako Permai,"5W75+7JQ, Tondo, Kec. Palu Tim., Kota Palu, Sulawesi Tengah 94148","Tondo, Kec. Palu Tim., Kota Palu",SULAWESI TENGAH,94148.0,Indonesia,,,,-0.836798,119.90912,https://maps.google.com/?cid=0x0:0x71bfc62bb1498259,
perumahan,Kantor Pemerintah,Desa wayu,"2RV4+CWV, Wayu, Kec. Banawa Sel., Kabupaten Sigi, Sulawesi Tengah","Kabupaten Sigi, Sulawesi Tengah",SULAWESI TENGAH,,Indonesia,,,,-0.9563896,119.8073098,https://maps.google.com/?cid=0x0:0xde2103bac78da88f,
perumahan,Toko Buah dan Sayuran,Kios Strawberry,"2QJH+WFW, Dombu, Kec. Marawola Barat, Kabupaten Sigi, Sulawesi Tengah","Kabupaten Sigi, Sulawesi Tengah",SULAWESI TENGAH,,Indonesia,,,,-0.9676293,119.7787062,https://maps.google.com/?cid=0x0:0x6efd50e702f7ab1a,
perumahan,Pembangunan Perumahan,Rumah anesya,"2QVM+G72, Dombu, Kec. Marawola Barat, Kabupaten Sigi, Sulawesi Tengah","Kabupaten Sigi, Sulawesi Tengah",SULAWESI TENGAH,,Indonesia,,,,-0.9562363,119.7831356,https://maps.google.com/?cid=0x0:0xe32e1ab0d8d1a3b5,
perumahan,perumahan,TONDO GREEN VIEW,"5WC6+RVQ, Jl. Jaksa Agung Suprapto, Tondo, Kec. Mantikulore, Kota Palu, Sulawesi Tengah","Kota Palu, Sulawesi Tengah",SULAWESI TENGAH,,Indonesia,,,,-0.8279135,119.9122491,https://maps.google.com/?cid=0x0:0x4f71dd39861dffb9,
perumahan,Komplek perumahan,Grand Taipa Residence,"Jl. Langaleso No.Kel, Taipa, Kec. Palu Utara, Kota Palu, Sulawesi Tengah 94141","Taipa, Kec. Palu Utara, Kota Palu",SULAWESI TENGAH,94141.0,Indonesia,,,,-0.7798012,119.864549,https://maps.google.com/?cid=0x0:0x2e027e3e560311b4,
perumahan,Perumahan,Grand View,"3WCF+QFH, Petobo, Kec. Palu Sel., Kota Palu, Sulawesi Tengah 94234","Petobo, Kec. Palu Sel., Kota Palu",SULAWESI TENGAH,94234.0,Indonesia,,,,-0.928055,119.9237447,https://maps.google.com/?cid=0x0:0xa7626da3d665cf3d,
perumahan,Komplek perumahan,Palu Green View,"5W95+JVH, Jl. Bukit Tadulako, Tondo, Kec. Mantikulore, Kota Palu, Sulawesi Tengah 94148","Jl. Bukit Tadulako, Tondo, Kec. Mantikulore, Kota Palu",SULAWESI TENGAH,94148.0,Indonesia,,,,-0.8291502,119.9091441,https://maps.google.com/?cid=0x0:0xe98a387e3979a8aa,
perumahan,Komplek perumahan,Green Tinggede 3,"3V69+JC6, Tinggede Sel., Kec. Marawola, Kabupaten Sigi, Sulawesi Tengah","Kabupaten Sigi, Sulawesi Tengah",SULAWESI TENGAH,,Indonesia, 08114503082,,,-0.9388361,119.8685143,https://maps.google.com/?cid=0x0:0x334fde213f87d70d,
perumahan,Pembangunan Perumahan,Palu Green View 2,"5W65+CMM, Tondo, Kec. Palu Tim., Kota Palu, Sulawesi Tengah","Kota Palu, Sulawesi Tengah",SULAWESI TENGAH,,Indonesia,,,,-0.838905,119.9091712,https://maps.google.com/?cid=0x0:0xf885787029e41c92,
perumahan,Komplek perumahan,Perum Green Harmony,"3RQR+CP4, Duyu, Kec. Palu Bar., Kota Palu, Sulawesi Tengah","Kota Palu, Sulawesi Tengah",SULAWESI TENGAH,,Indonesia,,,,-0.9114902,119.8418297,https://maps.google.com/?cid=0x0:0x87e83561cf7c6527,
perumahan,Perumahan,Perumahan,"Blok i No.8, Tondo, Kec. Mantikulore, Kota Palu, Sulawesi Tengah 94119","Tondo, Kec. Mantikulore, Kota Palu",SULAWESI TENGAH,94119.0,Indonesia,,,,-0.8502113,119.8882312,https://maps.google.com/?cid=0x0:0x6edc7a8fad24b82d,
perumahan,Komplek perumahan,Paluta Land Tondo,"5W74+FVC, Jl. Bukit Tadulako, Tondo, Kec. Mantikulore, Kota Palu, Sulawesi Tengah 94148","Jl. Bukit Tadulako, Tondo, Kec. Mantikulore, Kota Palu",SULAWESI TENGAH,94148.0,Indonesia, 081242451392,,,-0.8363046,119.9071429,https://maps.google.com/?cid=0x0:0xa8ec4957e6205239,
perumahan,Komplek perumahan,BTN BULU BULAVA PERMAI,"Jl. Dayodara No.11 Blok A, Tanamodindi, Kec. Mantikulore, Kota Palu, Sulawesi Tengah 94118","Tanamodindi, Kec. Mantikulore, Kota Palu",SULAWESI TENGAH,94118.0,Indonesia, 081245808797,,,-0.886122,119.8924255,https://maps.google.com/?cid=0x0:0xc0472ef08b847eef,
perumahan,Perumahan,Perumahan Manimbaya,"3VVJ+6MR, Tatura Utara, Kec. Palu Sel., Kota Palu, Sulawesi Tengah 94111","Tatura Utara, Kec. Palu Sel., Kota Palu",SULAWESI TENGAH,94111.0,Indonesia,,,,-0.9068924,119.8816303,https://maps.google.com/?cid=0x0:0x23ea8b5f66327021,
perumahan,Otoritas Perumahan,Btn Tagari Permai,"Duyu, Kec. Tatanga, Kota Palu, Sulawesi Tengah 94222","Kec. Tatanga, Kota Palu",SULAWESI TENGAH,94222.0,Indonesia,,,,-0.9126396,119.8502349,https://maps.google.com/?cid=0x0:0x1b2fe598acc6a455,
perumahan,Pembangunan Perumahan,Perumahan Kharisma Tinggede,"Jl. Manunggal Lrg. Kasiromu, Tinggede Sel., Kec. Marawola, Kabupaten Sigi, Sulawesi Tengah 94372","Tinggede Sel., Kec. Marawola, Kabupaten Sigi",SULAWESI TENGAH,94372.0,Indonesia, 082247550370,,,-0.9459073,119.8625244,https://maps.google.com/?cid=0x0:0x666b01ff90b1d882,
perumahan,,Intim Property,"Jl. Emmy Saelan No.33, Tatura Sel., Kec. Palu Sel., Kota Palu, Sulawesi Tengah 94111","Tatura Sel., Kec. Palu Sel., Kota Palu",SULAWESI TENGAH,94111.0,Indonesia, 0451481876,,,-0.9109388,119.8762382,https://maps.google.com/?cid=0x0:0xc69f7b788bc19084,
perumahan,Pembangunan Perumahan,Permata Mansion,"Jl. Tanjung Manimbaya No.191-195, Tatura Utara, Kec. Palu Sel., Kota Palu, Sulawesi Tengah 94111","Tatura Utara, Kec. Palu Sel., Kota Palu",SULAWESI TENGAH,94111.0,Indonesia, 081245629992,,,-0.9084411,119.8878216,https://maps.google.com/?cid=0x0:0x5c918075bd23d16b,
perumahan,Komplek perumahan,Mbola,"2R26+Q4, Uwemanje, Kec. Kinovaro, Kabupaten Sigi, Sulawesi Tengah","Kabupaten Sigi, Sulawesi Tengah",SULAWESI TENGAH,,Indonesia,,,,-0.9980267,119.8103265,https://maps.google.com/?cid=0x0:0xacda6b698fc85cb8,
perumahan,perumahan,Sulawesi Tengah 94237,"Kec. Marawola, Kabupaten Sigi, Sulawesi Tengah","Kabupaten Sigi, Sulawesi Tengah",SULAWESI TENGAH,,Indonesia,,,,-0.9616704,119.8670563,https://maps.google.com/?cid=0x0:0xfcf6e79665085f54,
perumahan,Komplek perumahan,Perumahan Kelapa Mas,"2VPM+G4R, Jl. Guru Tua, Kalukubula, Kec. Sigi Biromaru, Kabupaten Sigi, Sulawesi Tengah 94237","Jl. Guru Tua, Kalukubula, Kec. Sigi Biromaru, Kabupaten Sigi",SULAWESI TENGAH,94237.0,Indonesia,,,,-0.9636495,119.8827766,https://maps.google.com/?cid=0x0:0x6de4e9562ec20b9e,
perumahan,Komplek perumahan,Btn,"Btn Kelapa Mas Permai Blok H 3 No 17, Kalukubula, Kec. Sigi Biromaru, Kabupaten Sigi, Sulawesi Tengah 94237","Kalukubula, Kec. Sigi Biromaru, Kabupaten Sigi",SULAWESI TENGAH,94237.0,Indonesia,,,,-0.9621725,119.8859417,https://maps.google.com/?cid=0x0:0x6183266e47e08918,
perumahan,Komplek perumahan,RUMPAS,"2VR3+JV, Padende, Kec. Marawola, Kabupaten Sigi, Sulawesi Tengah 94237","Padende, Kec. Marawola, Kabupaten Sigi",SULAWESI TENGAH,94237.0,Indonesia,,,,-0.9583803,119.854708,https://maps.google.com/?cid=0x0:0x89386ffa13b82867,
perumahan,Komplek perumahan,SATRIANI,"2VQ4+VHV, Jl. Manunggal I, Padende, Kec. Marawola, Kabupaten Sigi, Sulawesi Tengah 94237","Jl. Manunggal I, Padende, Kec. Marawola, Kabupaten Sigi",SULAWESI TENGAH,94237.0,Indonesia,,,,-0.9602643,119.8564216,https://maps.google.com/?cid=0x0:0x535e9725175930ad,
perumahan,Pembangunan Perumahan,PERUMAHAN BTN BUMI KELAPA 3 KALUKUBULA,"2VVM+7MG, Jl. Nadoli, Kalukubula, Kec. Sigi Biromaru, Kabupaten Sigi, Sulawesi Tengah","Kabupaten Sigi, Sulawesi Tengah",SULAWESI TENGAH,,Indonesia,,,,-0.9568067,119.884205,https://maps.google.com/?cid=0x0:0x1ac8db4e165aeb0d,
perumahan,Komplek perumahan,Smar lando,"2VPH+48H, Kalukubula, Kec. Sigi Biromaru, Kabupaten Sigi, Sulawesi Tengah 94237","Kalukubula, Kec. Sigi Biromaru, Kabupaten Sigi",SULAWESI TENGAH,94237.0,Indonesia,,,,-0.9646991,119.87836,https://maps.google.com/?cid=0x0:0x1f5ec35b3d7ee8b9,
perumahan,Komplek perumahan,Marawola,"2VM3+3P4, Padende, Kec. Marawola, Kabupaten Sigi, Sulawesi Tengah 94237","Padende, Kec. Marawola, Kabupaten Sigi",SULAWESI TENGAH,94237.0,Indonesia,,,,-0.966545,119.854516,https://maps.google.com/?cid=0x0:0xf8a82c46bdde23cf,
perumahan,Perumahan,Perumahan Manimbaya,"3VVJ+6MR, Tatura Utara, Kec. Palu Sel., Kota Palu, Sulawesi Tengah 94111","Tatura Utara, Kec. Palu Sel., Kota Palu",SULAWESI TENGAH,94111.0,Indonesia,,,,-0.9068924,119.8816303,https://maps.google.com/?cid=0x0:0x23ea8b5f66327021,
perumahan,Komplek perumahan,Homesweet A3,"2VQM+3PX, Kalukubula, Kec. Sigi Biromaru, Kabupaten Sigi, Sulawesi Tengah 94237","Kalukubula, Kec. Sigi Biromaru, Kabupaten Sigi",SULAWESI TENGAH,94237.0,Indonesia,,,,-0.962114,119.8844151,https://maps.google.com/?cid=0x0:0xb4d754db2434f8b8,
perumahan,Komplek perumahan,Home EL,"BTN Kelapa Mas Permai No.4 Blok A1, Kalukubula, Kec. Sigi Biromaru, Kabupaten Sigi, Sulawesi Tengah 94237","Kalukubula, Kec. Sigi Biromaru, Kabupaten Sigi",SULAWESI TENGAH,94237.0,Indonesia,,,,-0.9644366,119.8858532,https://maps.google.com/?cid=0x0:0xd2af3ab6e8eeb310,
perumahan,Pembangunan Perumahan,Perumahan Lando Part BLOK N5,"2VQQ+Q3J, Kalukubula, Kec. Sigi Biromaru, Kabupaten Sigi, Sulawesi Tengah 94236","Kalukubula, Kec. Sigi Biromaru, Kabupaten Sigi",SULAWESI TENGAH,94236.0,Indonesia,,,,-0.9605308,119.8876522,https://maps.google.com/?cid=0x0:0x8825aa634b5bb1ff,
perumahan,Pembangunan Perumahan,KG121021,"2VQ3+CWM, Jl. Poros Palu Bangga, Padende, Kec. Marawola, Kabupaten Sigi, Sulawesi Tengah 94237","Jl. Poros Palu Bangga, Padende, Kec. Marawola, Kabupaten Sigi",SULAWESI TENGAH,94237.0,Indonesia,,,,-0.9614745,119.8546728,https://maps.google.com/?cid=0x0:0xea7908b13b61e7ca,
perumahan,Komplek perumahan,Rumah Ega,"lrg balintuma, Bumi kelapa plus, Jl. Lando No.2","Kabupaten Sigi, Sulawesi Tengah",SULAWESI TENGAH,,Indonesia,,,,-0.956064,119.885019,https://maps.google.com/?cid=0x0:0x285272b19ad52727,
perumahan,Perumahan,Rumah pak Rais,"2VHJ+HW2, Kabobona, Kec. Dolo, Kota Palu, Sulawesi Tengah 94238","Kabobona, Kec. Dolo, Kota Palu",SULAWESI TENGAH,94238.0,Indonesia,,,,-0.970999,119.882244,https://maps.google.com/?cid=0x0:0xe836f3bef07652c8,
perumahan,perumahan,Endy akay,"2VPP+82P, Kalukubula, Kec. Sigi Biromaru, Kabupaten Sigi, Sulawesi Tengah 94237","Kalukubula, Kec. Sigi Biromaru, Kabupaten Sigi",SULAWESI TENGAH,94237.0,Indonesia,,,,-0.9643808,119.8858054,https://maps.google.com/?cid=0x0:0x6079ab694dcd3cb4,
perumahan,Komplek perumahan,Rumah Arseto,"Jl. Guru tua BTN Ukhuwa Land Blok A. 1, Blk. A No.1, Kalukubula, Kec. Sigi Biromaru, Kabupaten Sigi, Sulawesi Tengah","Kabupaten Sigi, Sulawesi Tengah",SULAWESI TENGAH,,Indonesia,,,,-0.9606599,119.8799395,https://maps.google.com/?cid=0x0:0x5ceab1c3a3f51a26,
perumahan,Pembangunan Perumahan,Ukhuwah Land Kalukubula,"2VQJ+J45, Jl. Guru Tua, Kalukubula, Kec. Sigi Biromaru, Kabupaten Sigi, Sulawesi Tengah","Kabupaten Sigi, Sulawesi Tengah",SULAWESI TENGAH,,Indonesia,,,,-0.9609918,119.8803546,https://maps.google.com/?cid=0x0:0x177f2b0a4d7f4dd1,
perumahan,Komplek perumahan,rumah sunju,"2VXG+P6X, Sunju, Kec. Marawola, Kabupaten Sigi, Sulawesi Tengah","Kabupaten Sigi, Sulawesi Tengah",SULAWESI TENGAH,,Indonesia,,,,-0.9506253,119.8756165,https://maps.google.com/?cid=0x0:0xe1d6555752a7fe12,
perumahan,Komplek perumahan,Rumah Fadhilah,"2VP3+3WV, Jl. Poros Palu Bangga, Padende, Kec. Marawola, Kabupaten Sigi, Sulawesi Tengah 94237","Jl. Poros Palu Bangga, Padende, Kec. Marawola, Kabupaten Sigi",SULAWESI TENGAH,94237.0,Indonesia,,,,-0.9649337,119.8552531,https://maps.google.com/?cid=0x0:0x746314bc0f3b9466,
perumahan,Komplek perumahan,Rumah Altarafia,"2VRM+VMR, Kalukubula, Kec. Sigi Biromaru, Kabupaten Sigi, Sulawesi Tengah","Kabupaten Sigi, Sulawesi Tengah",SULAWESI TENGAH,,Indonesia,,,,-0.9577576,119.8841509,https://maps.google.com/?cid=0x0:0x7e234c969d3e6d13,
perumahan,Pembangunan Perumahan,Kalukubula Paradise,"2VPH+7RJ, Jl. Guru Tua, Kalukubula, Kec. Sigi Biromaru, Kabupaten Sigi, Sulawesi Tengah","Kabupaten Sigi, Sulawesi Tengah",SULAWESI TENGAH,,Indonesia,,,,-0.9642837,119.8795175,https://maps.google.com/?cid=0x0:0x1e866a5ccedf9692,
perumahan,Komplek perumahan,Rumah,"BTN UKHUWAH LAND BLOK A16, Jl. Guru Tua, Kalukubula, Kec. Sigi Biromaru, Kabupaten Sigi, Sulawesi Tengah","Kabupaten Sigi, Sulawesi Tengah",SULAWESI TENGAH,,Indonesia,,,,-0.9612355,119.8800203,https://maps.google.com/?cid=0x0:0xc2ff4d690e491ada,
perumahan,Komplek perumahan,Rumah Clein,"2VP3+3WV, Jl. Poros Palu Bangga, Padende, Kec. Marawola, Kabupaten Sigi, Sulawesi Tengah 94237","Jl. Poros Palu Bangga, Padende, Kec. Marawola, Kabupaten Sigi",SULAWESI TENGAH,94237.0,Indonesia,,,,-0.9649233,119.8554033,https://maps.google.com/?cid=0x0:0xd7f82907a8d64c70,
perumahan,Komplek perumahan,Murni,"2VQ3+CWJ, Jl. Poros Palu Bangga, Padende, Kec. Marawola, Kabupaten Sigi, Sulawesi Tengah 94237","Jl. Poros Palu Bangga, Padende, Kec. Marawola, Kabupaten Sigi",SULAWESI TENGAH,94237.0,Indonesia,,,,-0.9611449,119.8548342,https://maps.google.com/?cid=0x0:0x59fc87f0b66a5687,
perumahan,perumahan,Sulawesi Tengah 94238,"Kec. Marawola, Kabupaten Sigi, Sulawesi Tengah","Kabupaten Sigi, Sulawesi Tengah",SULAWESI TENGAH,,Indonesia,,,,-0.9805285,119.8525909,https://maps.google.com/?cid=0x0:0x765635502230297,
perumahan,Pembangunan Perumahan,BTN GRIYA ASRI KABOBONA,"2VGP+Q64, Kabobona, Kec. Dolo, Kabupaten Sigi, Sulawesi Tengah 94238","Kabobona, Kec. Dolo, Kabupaten Sigi",SULAWESI TENGAH,94238.0,Indonesia,,,,-0.973124,119.885563,https://maps.google.com/?cid=0x0:0x4aff495631f66d70,
perumahan,Pembangunan Perumahan,BTN Green Kabobona Residence,"2VGM+F89, Kabobona, Kec. Dolo, Kabupaten Sigi, Sulawesi Tengah 94238","Kabobona, Kec. Dolo, Kabupaten Sigi",SULAWESI TENGAH,94238.0,Indonesia,,,,-0.9739701,119.8836376,https://maps.google.com/?cid=0x0:0x7af99fa80dfa646b,
perumahan,Perumahan,Rumah pak Rais,"2VHJ+HW2, Kabobona, Kec. Dolo, Kota Palu, Sulawesi Tengah 94238","Kabobona, Kec. Dolo, Kota Palu",SULAWESI TENGAH,94238.0,Indonesia,,,,-0.970999,119.882244,https://maps.google.com/?cid=0x0:0xe836f3bef07652c8,
perumahan,Komplek perumahan,Rumah Sigit,"2V7G+Q5V, Jl. Dayosawi, Kotarindau, Kec. Dolo, Kabupaten Sigi, Sulawesi Tengah 94362","Jl. Dayosawi, Kotarindau, Kec. Dolo, Kabupaten Sigi",SULAWESI TENGAH,94362.0,Indonesia,,,,-0.9847638,119.8762365,https://maps.google.com/?cid=0x0:0x65d48c977d88118b,
perumahan,,Perumahan Kintabaru,"Pengawu, Kec. Palu Sel., Kota Palu, Sulawesi Tengah","Kota Palu, Sulawesi Tengah",SULAWESI TENGAH,,Indonesia,,,,-0.9298464,119.8457653,https://maps.google.com/?cid=0x0:0x9053916de68e5034,
perumahan,Pembangunan Perumahan,Perumahan Lando Part BLOK N5,"2VQQ+Q3J, Kalukubula, Kec. Sigi Biromaru, Kabupaten Sigi, Sulawesi Tengah 94236","Kalukubula, Kec. Sigi Biromaru, Kabupaten Sigi",SULAWESI TENGAH,94236.0,Indonesia,,,,-0.9605308,119.8876522,https://maps.google.com/?cid=0x0:0x8825aa634b5bb1ff,
perumahan,Kantor Perusahaan,Perumahan The Green Lando 2 Blok H108,"2VQV+XQ9, Jl. Lando, Kalukubula, Kec. Sigi Biromaru, Kabupaten Sigi, Sulawesi Tengah","Kabupaten Sigi, Sulawesi Tengah",SULAWESI TENGAH,,Indonesia, 081354493021,,,-0.9600897,119.8944865,https://maps.google.com/?cid=0x0:0x372f86ca42589f5a,
perumahan,Komplek perumahan,Btn,"Btn Kelapa Mas Permai Blok H 3 No 17, Kalukubula, Kec. Sigi Biromaru, Kabupaten Sigi, Sulawesi Tengah 94237","Kalukubula, Kec. Sigi Biromaru, Kabupaten Sigi",SULAWESI TENGAH,94237.0,Indonesia,,,,-0.9621725,119.8859417,https://maps.google.com/?cid=0x0:0x6183266e47e08918,
perumahan,Pembangunan Perumahan,PERUMAHAN BTN BUMI KELAPA 3 KALUKUBULA,"2VVM+7MG, Jl. Nadoli, Kalukubula, Kec. Sigi Biromaru, Kabupaten Sigi, Sulawesi Tengah","Kabupaten Sigi, Sulawesi Tengah",SULAWESI TENGAH,,Indonesia,,,,-0.9568067,119.884205,https://maps.google.com/?cid=0x0:0x1ac8db4e165aeb0d,
perumahan,Pembangunan Perumahan,Anizar,"2VFH+Q9H, Kotarindau, Kec. Dolo, Kabupaten Sigi, Sulawesi Tengah 94238","Kotarindau, Kec. Dolo, Kabupaten Sigi",SULAWESI TENGAH,94238.0,Indonesia,,,,-0.9755683,119.8784744,https://maps.google.com/?cid=0x0:0x4722f756ae67db55,
perumahan,Pembangunan Perumahan,Kalukubula Paradise,"2VPH+7RJ, Jl. Guru Tua, Kalukubula, Kec. Sigi Biromaru, Kabupaten Sigi, Sulawesi Tengah","Kabupaten Sigi, Sulawesi Tengah",SULAWESI TENGAH,,Indonesia,,,,-0.9642837,119.8795175,https://maps.google.com/?cid=0x0:0x1e866a5ccedf9692,
perumahan,Pembangunan Perumahan,Ukhuwah Land Kalukubula,"2VQJ+J45, Jl. Guru Tua, Kalukubula, Kec. Sigi Biromaru, Kabupaten Sigi, Sulawesi Tengah","Kabupaten Sigi, Sulawesi Tengah",SULAWESI TENGAH,,Indonesia,,,,-0.9609918,119.8803546,https://maps.google.com/?cid=0x0:0x177f2b0a4d7f4dd1,
perumahan,Perumahan,Rumah adibah,"2V8P+WHJ, Langaleso, Kec. Dolo, Kabupaten Sigi, Sulawesi Tengah 94362","Langaleso, Kec. Dolo, Kabupaten Sigi",SULAWESI TENGAH,94362.0,Indonesia,,,,-0.9826683,119.8863792,https://maps.google.com/?cid=0x0:0x5d5ba7cf85ec279b,
perumahan,Kantor Pemda,Desa beka,"Desa Beka Kec. Marawola Kab. Sigi, Jl. Poros Palu Bangga, Kota Palu, Sulawesi Tengah 94372","Jl. Poros Palu Bangga, Kota Palu",SULAWESI TENGAH,94372.0,Indonesia, 082271467863,,,-0.986591,119.8628478,https://maps.google.com/?cid=0x0:0x9c46d3e18c5f314e,
perumahan,Komplek perumahan,SATRIANI,"2VQ4+VHV, Jl. Manunggal I, Padende, Kec. Marawola, Kabupaten Sigi, Sulawesi Tengah 94237","Jl. Manunggal I, Padende, Kec. Marawola, Kabupaten Sigi",SULAWESI TENGAH,94237.0,Indonesia,,,,-0.9602643,119.8564216,https://maps.google.com/?cid=0x0:0x535e9725175930ad,
perumahan,Komplek perumahan,Rumahnya Bayet,"2V7H+GWX, Kotarindau, Kec. Dolo, Kabupaten Sigi, Sulawesi Tengah 94362","Kotarindau, Kec. Dolo, Kabupaten Sigi",SULAWESI TENGAH,94362.0,Indonesia,,,,-0.9862471,119.8798367,https://maps.google.com/?cid=0x0:0xb590a52f1dfaae66,
perumahan,Komplek perumahan,Rumah Arseto,"Jl. Guru tua BTN Ukhuwa Land Blok A. 1, Blk. A No.1, Kalukubula, Kec. Sigi Biromaru, Kabupaten Sigi, Sulawesi Tengah","Kabupaten Sigi, Sulawesi Tengah",SULAWESI TENGAH,,Indonesia,,,,-0.9606599,119.8799395,https://maps.google.com/?cid=0x0:0x5ceab1c3a3f51a26,
perumahan,Komplek perumahan,Homesweet A3,"2VQM+3PX, Kalukubula, Kec. Sigi Biromaru, Kabupaten Sigi, Sulawesi Tengah 94237","Kalukubula, Kec. Sigi Biromaru, Kabupaten Sigi",SULAWESI TENGAH,94237.0,Indonesia,,,,-0.962114,119.8844151,https://maps.google.com/?cid=0x0:0xb4d754db2434f8b8,
perumahan,Komplek perumahan,Rumah Altarafia,"2VRM+VMR, Kalukubula, Kec. Sigi Biromaru, Kabupaten Sigi, Sulawesi Tengah","Kabupaten Sigi, Sulawesi Tengah",SULAWESI TENGAH,,Indonesia,,,,-0.9577576,119.8841509,https://maps.google.com/?cid=0x0:0x7e234c969d3e6d13,
perumahan,Komplek perumahan,Rumah,"BTN UKHUWAH LAND BLOK A16, Jl. Guru Tua, Kalukubula, Kec. Sigi Biromaru, Kabupaten Sigi, Sulawesi Tengah","Kabupaten Sigi, Sulawesi Tengah",SULAWESI TENGAH,,Indonesia,,,,-0.9612355,119.8800203,https://maps.google.com/?cid=0x0:0xc2ff4d690e491ada,
perumahan,Komplek perumahan,Perumahan Lagarutu Vista,"Jl. Lagarutu No.Atas, Tanamodindi, Kec. Mantikulore, Kota Palu, Sulawesi Tengah 94118","Tanamodindi, Kec. Mantikulore, Kota Palu",SULAWESI TENGAH,94118.0,Indonesia,,,,-0.8894508,119.8999731,https://maps.google.com/?cid=0x0:0xb3218a54736229b8,
perumahan,Perumahan,Perumahan Manimbaya,"3VVJ+6MR, Tatura Utara, Kec. Palu Sel., Kota Palu, Sulawesi Tengah 94111","Tatura Utara, Kec. Palu Sel., Kota Palu",SULAWESI TENGAH,94111.0,Indonesia,,,,-0.9068924,119.8816303,https://maps.google.com/?cid=0x0:0x23ea8b5f66327021,
perumahan,Komplek perumahan,Rumah Koko aqsa,"2V86+MQM, Jl. Poros Palu Bangga, Palupi, Kec. Marawola, Kota Palu, Sulawesi Tengah","Kota Palu, Sulawesi Tengah",SULAWESI TENGAH,,Indonesia, 082291733280,,,-0.9832969,119.8619333,https://maps.google.com/?cid=0x0:0x4aa757c683fc75c,
perumahan,Pembangunan Perumahan,Rumah nayla,"2VJM+W3C, Kalukubula, Kec. Sigi Biromaru, Kabupaten Sigi, Sulawesi Tengah 94238","Kalukubula, Kec. Sigi Biromaru, Kabupaten Sigi",SULAWESI TENGAH,94238.0,Indonesia,,,,-0.9676816,119.8826369,https://maps.google.com/?cid=0x0:0x9b81b4fa13c89100,
perumahan,Komplek perumahan,Rumahhkuu,"2VGM+82C, Kabobona, Kec. Dolo, Kabupaten Sigi, Sulawesi Tengah 94238","Kabobona, Kec. Dolo, Kabupaten Sigi",SULAWESI TENGAH,94238.0,Indonesia,,,,-0.9741932,119.8825073,https://maps.google.com/?cid=0x0:0x28122ad1958ce29d,
perumahan,Komplek perumahan,BTN Puskud,"3VF4+496, Palupi Palu Selatan, Palupi, Kec. Tatanga, Kota Palu, Sulawesi Tengah 94222","Palupi Palu Selatan, Palupi, Kec. Tatanga, Kota Palu",SULAWESI TENGAH,94222.0,Indonesia,,,,-0.9272182,119.8559039,https://maps.google.com/?cid=0x0:0x809fcfd0a5995b9f,
perumahan,perumahan,Sulawesi Tengah 94239,"Uwemanje, Kec. Kinovaro, Kabupaten Sigi, Sulawesi Tengah","Kabupaten Sigi, Sulawesi Tengah",SULAWESI TENGAH,,Indonesia,,,,-0.9808693,119.8178676,https://maps.google.com/?cid=0x0:0xda5d962767809a40,
perumahan,Kantor Perusahaan,Desa porame,"2RRQ+V6Q, Porame, Kec. Kinovaro, Kabupaten Sigi, Sulawesi Tengah","Kabupaten Sigi, Sulawesi Tengah",SULAWESI TENGAH,,Indonesia,,,,-0.9577901,119.8381239,https://maps.google.com/?cid=0x0:0x14e39a7de8a257b8,
perumahan,Komplek perumahan,Alfa Land,"Jl. Bunti Raja, Padende, Kec. Marawola, Kabupaten Sigi, Sulawesi Tengah 94362","Padende, Kec. Marawola, Kabupaten Sigi",SULAWESI TENGAH,94362.0,Indonesia, 085241012825,,,-0.9584706,119.8525218,https://maps.google.com/?cid=0x0:0x83ce510c62f369d3,
perumahan,Komplek perumahan,RUMAH PUTRI,"2RRQ+V6Q, Porame, Kec. Kinovaro, Kabupaten Sigi, Sulawesi Tengah","Kabupaten Sigi, Sulawesi Tengah",SULAWESI TENGAH,,Indonesia,,,,-0.9577901,119.8381239,https://maps.google.com/?cid=0x0:0x8898aa190b23368a,
perumahan,Komplek perumahan,Rumah fandi,"2VR3+RCF, Padende, Kec. Marawola, Kabupaten Sigi, Sulawesi Tengah","Kabupaten Sigi, Sulawesi Tengah",SULAWESI TENGAH,,Indonesia,,,,-0.9579471,119.8535615,https://maps.google.com/?cid=0x0:0xbfa861b439823afd,
perumahan,Komplek perumahan,Rumah saya,"Rumah saya, Porame, Kec. Kinovaro, Kabupaten Sigi, Sulawesi Tengah","Kabupaten Sigi, Sulawesi Tengah",SULAWESI TENGAH,,Indonesia,,,,-0.9561175,119.835558,https://maps.google.com/?cid=0x0:0x5d677c2203fe909e,
perumahan,perumahan,Korwil,"2RJG+GG, Uwemanje, Kec. Kinovaro, Kabupaten Sigi, Sulawesi Tengah","Kabupaten Sigi, Sulawesi Tengah",SULAWESI TENGAH,,Indonesia,,,,-0.9686883,119.8263467,https://maps.google.com/?cid=0x0:0x8772f2cee569e420,
perumahan,Komplek perumahan,Rumah Fadhilah,"2VP3+3WV, Jl. Poros Palu Bangga, Padende, Kec. Marawola, Kabupaten Sigi, Sulawesi Tengah 94237","Jl. Poros Palu Bangga, Padende, Kec. Marawola, Kabupaten Sigi",SULAWESI TENGAH,94237.0,Indonesia,,,,-0.9649337,119.8552531,https://maps.google.com/?cid=0x0:0x746314bc0f3b9466,
perumahan,Komplek perumahan,RUMPAS,"2VR3+JV, Padende, Kec. Marawola, Kabupaten Sigi, Sulawesi Tengah 94237","Padende, Kec. Marawola, Kabupaten Sigi",SULAWESI TENGAH,94237.0,Indonesia,,,,-0.9583803,119.854708,https://maps.google.com/?cid=0x0:0x89386ffa13b82867,
perumahan,Komplek perumahan,Rumah Madina dan Azmi,"2RRP+WVQ, Porame, Kec. Kinovaro, Kabupaten Sigi, Sulawesi Tengah","Kabupaten Sigi, Sulawesi Tengah",SULAWESI TENGAH,,Indonesia,,,,-0.9572379,119.837544,https://maps.google.com/?cid=0x0:0xeab30fe14ce237a6,
perumahan,Komplek perumahan,Rumah nenek,"2RVP+RV9, Porame, Kec. Kinovaro, Kabupaten Sigi, Sulawesi Tengah","Kabupaten Sigi, Sulawesi Tengah",SULAWESI TENGAH,,Indonesia,,,,-0.9557236,119.8373212,https://maps.google.com/?cid=0x0:0x645eaffde84cbca8,
perumahan,Komplek perumahan,Rumah Clein,"2VP3+3WV, Jl. Poros Palu Bangga, Padende, Kec. Marawola, Kabupaten Sigi, Sulawesi Tengah 94237","Jl. Poros Palu Bangga, Padende, Kec. Marawola, Kabupaten Sigi",SULAWESI TENGAH,94237.0,Indonesia,,,,-0.9649233,119.8554033,https://maps.google.com/?cid=0x0:0xd7f82907a8d64c70,
perumahan,Gedung Apartemen,Rumah Cantik,"Jl. Tadulako No.2, Binangga, Kec. Marawola, Kabupaten Sigi, Sulawesi Tengah 94222","Binangga, Kec. Marawola, Kabupaten Sigi",SULAWESI TENGAH,94222.0,Indonesia,,,,-0.956282,119.8546295,https://maps.google.com/?cid=0x0:0x78ddba11f4467a4a,
perumahan,Komplek perumahan,Rumah leris,"2VQ3+JQR, Jl. Poros Palu Bangga, Padende, Kec. Marawola, Kabupaten Sigi, Sulawesi Tengah 94237","Jl. Poros Palu Bangga, Padende, Kec. Marawola, Kabupaten Sigi",SULAWESI TENGAH,94237.0,Indonesia,,,,-0.9608894,119.854381,https://maps.google.com/?cid=0x0:0x195126b19aca5bf3,
perumahan,Komplek perumahan,SATRIANI,"2VQ4+VHV, Jl. Manunggal I, Padende, Kec. Marawola, Kabupaten Sigi, Sulawesi Tengah 94237","Jl. Manunggal I, Padende, Kec. Marawola, Kabupaten Sigi",SULAWESI TENGAH,94237.0,Indonesia,,,,-0.9602643,119.8564216,https://maps.google.com/?cid=0x0:0x535e9725175930ad,
perumahan,Komplek perumahan,Marawola,"2VM3+3P4, Padende, Kec. Marawola, Kabupaten Sigi, Sulawesi Tengah 94237","Padende, Kec. Marawola, Kabupaten Sigi",SULAWESI TENGAH,94237.0,Indonesia,,,,-0.966545,119.854516,https://maps.google.com/?cid=0x0:0xf8a82c46bdde23cf,
perumahan,Komplek perumahan,Hardi dan lulun,"2RVP+JR7, Porame, Kec. Kinovaro, Kabupaten Sigi, Sulawesi Tengah","Kabupaten Sigi, Sulawesi Tengah",SULAWESI TENGAH,,Indonesia,,,,-0.9559595,119.8370492,https://maps.google.com/?cid=0x0:0x5e17f87c8c3c07be,
perumahan,Pembangunan Perumahan,Padende,"2VR2+JWP, Padende, Kec. Marawola, Kabupaten Sigi, Sulawesi Tengah 94237","Padende, Kec. Marawola, Kabupaten Sigi",SULAWESI TENGAH,94237.0,Indonesia,,,,-0.9584135,119.8523235,https://maps.google.com/?cid=0x0:0x1818e6d610cd0a78,
perumahan,Komplek perumahan,Murni,"2VQ3+CWJ, Jl. Poros Palu Bangga, Padende, Kec. Marawola, Kabupaten Sigi, Sulawesi Tengah 94237","Jl. Poros Palu Bangga, Padende, Kec. Marawola, Kabupaten Sigi",SULAWESI TENGAH,94237.0,Indonesia,,,,-0.9611449,119.8548342,https://maps.google.com/?cid=0x0:0x59fc87f0b66a5687,
perumahan,Perumahan,RUMAH CIHKA NUR AULIA,"2RRQ+393, Porame, Kec. Kinovaro, Kabupaten Sigi, Sulawesi Tengah","Kabupaten Sigi, Sulawesi Tengah",SULAWESI TENGAH,,Indonesia,,,,-0.9598596,119.8384318,https://maps.google.com/?cid=0x0:0x946ccc3a9487edfc,
perumahan,Perhimpunan Pengembang Perumahan,Perumahan tadulako bunti raja,"Jl. Tadulako No.2, Binangga, Kec. Marawola, Kabupaten Sigi, Sulawesi Tengah 94222","Binangga, Kec. Marawola, Kabupaten Sigi",SULAWESI TENGAH,94222.0,Indonesia,,,,-0.9566338,119.8537598,https://maps.google.com/?cid=0x0:0x3479b73c12ec8aff,
perumahan,Perumahan,Kahar,"2RVR+W5W, Porame, Kec. Kinovaro, Kabupaten Sigi, Sulawesi Tengah","Kabupaten Sigi, Sulawesi Tengah",SULAWESI TENGAH,,Indonesia,,,,-0.9551322,119.8404665,https://maps.google.com/?cid=0x0:0xb8109f21ba4c0f0a,
perumahan,Pembangunan Perumahan,KG121021,"2VQ3+CWM, Jl. Poros Palu Bangga, Padende, Kec. Marawola, Kabupaten Sigi, Sulawesi Tengah 94237","Jl. Poros Palu Bangga, Padende, Kec. Marawola, Kabupaten Sigi",SULAWESI TENGAH,94237.0,Indonesia,,,,-0.9614745,119.8546728,https://maps.google.com/?cid=0x0:0xea7908b13b61e7ca,
perumahan,Komplek perumahan,Asep Dj.P,"2RVP+27G, Porame, Kec. Kinovaro, Kabupaten Sigi, Sulawesi Tengah","Kabupaten Sigi, Sulawesi Tengah",SULAWESI TENGAH,,Indonesia,,,,-0.957442,119.8356964,https://maps.google.com/?cid=0x0:0xeef72c872daa7cad,
perumahan,perumahan,Sulawesi Tengah 94683,"Kabupaten Tojo Una-Una, Sulawesi Tengah","Kabupaten Tojo Una-Una, Sulawesi Tengah",SULAWESI TENGAH,,Indonesia,,,,-0.9183931,121.5598345,https://maps.google.com/?cid=0x0:0xfa1a3d7ada6aa1f8,
perumahan,perumahan,Kec. Togean,"Kabupaten Tojo Una-Una, Sulawesi Tengah","Kabupaten Tojo Una-Una, Sulawesi Tengah",SULAWESI TENGAH,,Indonesia,,,,-0.392597,121.9666348,https://maps.google.com/?cid=0x0:0xf030bfcad7659c0,
perumahan,perumahan,Pulau Togean,Kabupaten Tojo Una-Una,Kabupaten Tojo Una-Una,SULAWESI TENGAH,,Indonesia,,,,-0.398157,121.9245556,https://maps.google.com/?cid=0x0:0x60ad0a97a0019e95,
perumahan,Pembangunan Perumahan,PEREMPATAN ORANG GANTENG,"3HRJ+8V8, Jl. Sis Aljufri, Uentanaga Atas, Kec. Ampana Kota, Kabupaten Tojo Una-Una, Sulawesi Tengah 94683","Jl. Sis Aljufri, Uentanaga Atas, Kec. Ampana Kota, Kabupaten Tojo Una-Una",SULAWESI TENGAH,94683.0,Indonesia,,,,-0.9092118,121.5822185,https://maps.google.com/?cid=0x0:0x55310f01d3100777,
perumahan,Komplek perumahan,Rumah,"Komp BTN Rizki 1, Jl. Sungai Bongka Kelas Blok E No 4, Uenatanaga Atas, Kec. Ratolindo, Kabupaten Tojo Una-Una, Sulawesi Tengah 94683","Jl. Sungai Bongka Kelas Blok E No 4, Uenatanaga Atas, Kec. Ratolindo, Kabupaten Tojo Una-Una",SULAWESI TENGAH,94683.0,Indonesia,,,,-0.8893218,121.5830319,https://maps.google.com/?cid=0x0:0xce16a405126fba26,
perumahan,perumahan,Sulawesi Tengah 94681,"Kabupaten Tojo Una-Una, Sulawesi Tengah","Kabupaten Tojo Una-Una, Sulawesi Tengah",SULAWESI TENGAH,,Indonesia,,,,-1.4002682,121.2168466,https://maps.google.com/?cid=0x0:0x296ad5ba9809fbd2,
perumahan,Komplek perumahan,Perumahan Bahari,"H36W+8V8, Bahari, Kec. Tojo, Kabupaten Tojo Una-Una, Sulawesi Tengah 94681","Bahari, Kec. Tojo, Kabupaten Tojo Una-Una",SULAWESI TENGAH,94681.0,Indonesia,,,,-1.439207,121.0971885,https://maps.google.com/?cid=0x0:0xd867a66d8fe81860,
perumahan,Komplek perumahan,Galuga,"HWHW+W52, Galuga, Kec. Tojo Bar., Kabupaten Tojo Una-Una, Sulawesi Tengah 94681","Galuga, Kec. Tojo Bar., Kabupaten Tojo Una-Una",SULAWESI TENGAH,94681.0,Indonesia,,,,-1.4202427,120.9453889,https://maps.google.com/?cid=0x0:0xf996615d3bde8157,
perumahan,Developer Rumah Hunian Khusus,Ampana uemalingku,"Q666+P5G, Pancuma, Kec. Tojo, Kabupaten Tojo Una-Una, Sulawesi Tengah 94681","Pancuma, Kec. Tojo, Kabupaten Tojo Una-Una",SULAWESI TENGAH,94681.0,Indonesia,,,,-1.2389451,121.2103507,https://maps.google.com/?cid=0x0:0x5262c6f0a4a606de,
perumahan,Kantor Pemerintah,Desa uedele,"Uedele, Kec. Tojo, Kabupaten Tojo Una-Una, Sulawesi Tengah 94681","Kec. Tojo, Kabupaten Tojo Una-Una",SULAWESI TENGAH,94681.0,Indonesia,,,,-1.3322733,121.177659,https://maps.google.com/?cid=0x0:0xd521f396cb347004,
perumahan,Pembangunan Perumahan,Sekretariat Kayura,"H34W+VP4, Tayawa, Kec. Tojo, Kabupaten Tojo Una-Una, Sulawesi Tengah 94681","Tayawa, Kec. Tojo, Kabupaten Tojo Una-Una",SULAWESI TENGAH,94681.0,Indonesia,,,,-1.4428566,121.0968406,https://maps.google.com/?cid=0x0:0xcf98949d37bda399,
perumahan,Kantor Pemerintah,Desa,"H33R+WC9, Bahari, Kec. Tojo, Kabupaten Tojo Una-Una, Sulawesi Tengah 94681","Bahari, Kec. Tojo, Kabupaten Tojo Una-Una",SULAWESI TENGAH,94681.0,Indonesia,,,,-1.4452088,121.0911095,https://maps.google.com/?cid=0x0:0x9965c4c196130ecc,
perumahan,Komplek perumahan,Sawah tayawa,"H432+V28, Jl. Tayawa-Malino/Morowali Utara, Tayawa, Kec. Tojo, Kabupaten Tojo Una-Una, Sulawesi Tengah 94681","Jl. Tayawa-Malino/Morowali Utara, Tayawa, Kec. Tojo, Kabupaten Tojo Una-Una",SULAWESI TENGAH,94681.0,Indonesia,,,,-1.4453468,121.1000884,https://maps.google.com/?cid=0x0:0x52cd8513dfd9a41b,
perumahan,perumahan,rumah galuga,"HXG3+JCQ, Toliba, Kec. Tojo Bar., Kabupaten Tojo Una-Una, Sulawesi Tengah 94681","Toliba, Kec. Tojo Bar., Kabupaten Tojo Una-Una",SULAWESI TENGAH,94681.0,Indonesia,,,,-1.4234227,120.9536175,https://maps.google.com/?cid=0x0:0x874729ed0d29d59c,
perumahan,Komplek perumahan,Rumah Moh. Ali Lasawedi,"HXWH+4C4, Dusun 1, Ujung Tibu, Kec. Tojo Bar., Kabupaten Tojo Una-Una, Sulawesi Tengah","Kabupaten Tojo Una-Una, Sulawesi Tengah",SULAWESI TENGAH,,Indonesia,,,,-1.4047215,120.9785403,https://maps.google.com/?cid=0x0:0x3e2512c147406bd6,
perumahan,perumahan,Irna Home,"Q6VG+JM8, Tongku, Kec. Tojo, Kabupaten Tojo Una-Una, Sulawesi Tengah","Kabupaten Tojo Una-Una, Sulawesi Tengah",SULAWESI TENGAH,,Indonesia, 082211874817,,,-1.2059625,121.2267031,https://maps.google.com/?cid=0x0:0x3e755b4266cfb622,
perumahan,Pembangunan Perumahan,RUMAH BIRU_RYU,"HXWH+4F6, Ujung Tibu, Kec. Tojo Bar., Kabupaten Tojo Una-Una, Sulawesi Tengah","Kabupaten Tojo Una-Una, Sulawesi Tengah",SULAWESI TENGAH,,Indonesia,,,,-1.4047031,120.9786538,https://maps.google.com/?cid=0x0:0x966a898543fad8b8,
perumahan,Komplek perumahan,Malini,"H424+33V, Tayawa, Kec. Tojo, Kabupaten Tojo Una-Una, Sulawesi Tengah 94681","Tayawa, Kec. Tojo, Kabupaten Tojo Una-Una",SULAWESI TENGAH,94681.0,Indonesia,,,,-1.4497614,121.1051594,https://maps.google.com/?cid=0x0:0x3d6862e1b82b92ee,
perumahan,Perhimpunan Pengembang Perumahan,Rumah di bahari,"H36X+96X, Bahari, Kec. Tojo, Kabupaten Tojo Una-Una, Sulawesi Tengah 94681","Bahari, Kec. Tojo, Kabupaten Tojo Una-Una",SULAWESI TENGAH,94681.0,Indonesia,,,,-1.4390209,121.0981203,https://maps.google.com/?cid=0x0:0xab752a63729f346f,
perumahan,Perhimpunan Pengembang Perumahan,Nur Afya,"F2VF+WXF, Tombiano, Kec. Tojo Bar., Kabupaten Tojo Una-Una, Sulawesi Tengah","Kabupaten Tojo Una-Una, Sulawesi Tengah",SULAWESI TENGAH,,Indonesia,,,,-1.5051881,121.0249093,https://maps.google.com/?cid=0x0:0x9f31c84f96b79a4c,
perumahan,Bengkel Sepeda Motor,Bengkel Tua,"H337+GX8, Mawomba, Kec. Tojo Bar., Kabupaten Tojo Una-Una, Sulawesi Tengah 94681","Mawomba, Kec. Tojo Bar., Kabupaten Tojo Una-Una",SULAWESI TENGAH,94681.0,Indonesia,,,,-1.4459758,121.0641786,https://maps.google.com/?cid=0x0:0x46c870c7f3efec25,
perumahan,Komplek perumahan,rumah cahya,"H36W+8V8, Bahari, Kec. Tojo, Kabupaten Tojo Una-Una, Sulawesi Tengah 94681","Bahari, Kec. Tojo, Kabupaten Tojo Una-Una",SULAWESI TENGAH,94681.0,Indonesia,,,,-1.439666,121.0971692,https://maps.google.com/?cid=0x0:0x792bfba28f35ed0b,
perumahan,perumahan,Om tanah,"M56C+QRW, Uedele, Kec. Tojo, Kabupaten Tojo Una-Una, Sulawesi Tengah 94681","Uedele, Kec. Tojo, Kabupaten Tojo Una-Una",SULAWESI TENGAH,94681.0,Indonesia,,,,-1.3386707,121.1723548,https://maps.google.com/?cid=0x0:0x521de421500bb3c3,
perumahan,Tujuan Wisata,Lorong air terjun,"HWH7+QMP, Matako, Kec. Tojo Bar., Kabupaten Tojo Una-Una, Sulawesi Tengah 94681","Matako, Kec. Tojo Bar., Kabupaten Tojo Una-Una",SULAWESI TENGAH,94681.0,Indonesia,,,,-1.4212299,120.9142552,https://maps.google.com/?cid=0x0:0x6a877f7268e504d9,
perumahan,Pembangunan Perumahan,Lorong towendaya,"FWRF+FR2, Matako, Kec. Tojo Bar., Kabupaten Tojo Una-Una, Sulawesi Tengah 94681","Matako, Kec. Tojo Bar., Kabupaten Tojo Una-Una",SULAWESI TENGAH,94681.0,Indonesia,,,,-1.5088598,120.9245216,https://maps.google.com/?cid=0x0:0xb9bfc9ab0a169733,
perumahan,Perhimpunan Pengembang Perumahan,Syukur s,"H472+5G5, Bahari, Kec. Tojo, Kabupaten Tojo Una-Una, Sulawesi Tengah 94681","Bahari, Kec. Tojo, Kabupaten Tojo Una-Una",SULAWESI TENGAH,94681.0,Indonesia,,,,-1.437111,121.1013622,https://maps.google.com/?cid=0x0:0x215a2b584a0595ab,
perumahan,Rumah Makan,Rumah Makan Sanjaya,"HXR9+7PF, Unnamed Road, Toliba, Kec. Tojo Bar., Kabupaten Tojo Una-Una, Sulawesi Tengah 94681","Unnamed Road, Toliba, Kec. Tojo Bar., Kabupaten Tojo Una-Una",SULAWESI TENGAH,94681.0,Indonesia,,,,-1.409305,120.96929,https://maps.google.com/?cid=0x0:0x8426cc77459c0718,
perumahan,Komplek perumahan,Rumah Mama Yuni,"J46W+QPF, Jl. Trans Sulawesi, Betaua, Kec. Tojo, Kabupaten Tojo Una-Una, Sulawesi Tengah 94681","Jl. Trans Sulawesi, Betaua, Kec. Tojo, Kabupaten Tojo Una-Una",SULAWESI TENGAH,94681.0,Indonesia,,,,-1.3880625,121.1467969,https://maps.google.com/?cid=0x0:0xee9ad025f461151d,
perumahan,Komplek perumahan,Home ziya,"HXP7+85M, Toliba, Kec. Tojo Bar., Kabupaten Tojo Una-Una, Sulawesi Tengah 94681","Toliba, Kec. Tojo Bar., Kabupaten Tojo Una-Una",SULAWESI TENGAH,94681.0,Indonesia,,,,-1.4141513,120.962928,https://maps.google.com/?cid=0x0:0x61f49bbdcd564da3,
perumahan,Pembangunan Perumahan,lorong buntut,"H498+WC4, Kalemba I, Kec. Tojo, Kabupaten Tojo Una-Una, Sulawesi Tengah 94681","Kalemba I, Kec. Tojo, Kabupaten Tojo Una-Una",SULAWESI TENGAH,94681.0,Indonesia,,,,-1.4311146,121.1167785,https://maps.google.com/?cid=0x0:0xc2b91bc82be65cc4,
perumahan,perumahan,Joice Home,"HWH7+R63, Matako, Kec. Tojo Bar., Kabupaten Tojo Una-Una, Sulawesi Tengah 94681","Matako, Kec. Tojo Bar., Kabupaten Tojo Una-Una",SULAWESI TENGAH,94681.0,Indonesia,,,,-1.4202698,120.9121074,https://maps.google.com/?cid=0x0:0x22a0910746caa7fb,
perumahan,Perhimpunan Pengembang Perumahan,Ujungtibu,"HXWM+7HG, Ujung Tibu, Kec. Tojo Bar., Kabupaten Tojo Una-Una, Sulawesi Tengah","Kabupaten Tojo Una-Una, Sulawesi Tengah",SULAWESI TENGAH,,Indonesia,,,,-1.4048097,120.9835109,https://maps.google.com/?cid=0x0:0xcf2f06f6be99e76d,
perumahan,Komplek perumahan,Rumah Dinas Guru SD Tongku,"Q6VG+78W, Tongku, Kec. Tojo, Kabupaten Tojo Una-Una, Sulawesi Tengah","Kabupaten Tojo Una-Una, Sulawesi Tengah",SULAWESI TENGAH,,Indonesia,,,,-1.2067545,121.225818,https://maps.google.com/?cid=0x0:0x3fc0012b92d0badf,
perumahan,Komplek perumahan,Intan,"H6RH+J8M, Betaua, Kec. Tojo, Kabupaten Tojo Una-Una, Sulawesi Tengah 94681","Betaua, Kec. Tojo, Kabupaten Tojo Una-Una",SULAWESI TENGAH,94681.0,Indonesia,,,,-1.4084038,121.2282958,https://maps.google.com/?cid=0x0:0x7e4a41fd8ed98853,
perumahan,perumahan,Kec. Tojo Bar.,"Kabupaten Tojo Una-Una, Sulawesi Tengah","Kabupaten Tojo Una-Una, Sulawesi Tengah",SULAWESI TENGAH,,Indonesia,,,,-1.4248079,121.0239625,https://maps.google.com/?cid=0x0:0x4a8aae277afc8955,
perumahan,Komplek perumahan,Galuga,"HWHW+W52, Galuga, Kec. Tojo Bar., Kabupaten Tojo Una-Una, Sulawesi Tengah 94681","Galuga, Kec. Tojo Bar., Kabupaten Tojo Una-Una",SULAWESI TENGAH,94681.0,Indonesia,,,,-1.4202427,120.9453889,https://maps.google.com/?cid=0x0:0xf996615d3bde8157,
perumahan,perumahan,rumah galuga,"HXG3+JCQ, Toliba, Kec. Tojo Bar., Kabupaten Tojo Una-Una, Sulawesi Tengah 94681","Toliba, Kec. Tojo Bar., Kabupaten Tojo Una-Una",SULAWESI TENGAH,94681.0,Indonesia,,,,-1.4234227,120.9536175,https://maps.google.com/?cid=0x0:0x874729ed0d29d59c,
perumahan,Kantor Pemerintah,Desa,"H33R+WC9, Bahari, Kec. Tojo, Kabupaten Tojo Una-Una, Sulawesi Tengah 94681","Bahari, Kec. Tojo, Kabupaten Tojo Una-Una",SULAWESI TENGAH,94681.0,Indonesia,,,,-1.4452088,121.0911095,https://maps.google.com/?cid=0x0:0x9965c4c196130ecc,
perumahan,Komplek perumahan,Home ziya,"HXP7+85M, Toliba, Kec. Tojo Bar., Kabupaten Tojo Una-Una, Sulawesi Tengah 94681","Toliba, Kec. Tojo Bar., Kabupaten Tojo Una-Una",SULAWESI TENGAH,94681.0,Indonesia,,,,-1.4141513,120.962928,https://maps.google.com/?cid=0x0:0x61f49bbdcd564da3,
perumahan,Pembangunan Perumahan,Lorong towendaya,"FWRF+FR2, Matako, Kec. Tojo Bar., Kabupaten Tojo Una-Una, Sulawesi Tengah 94681","Matako, Kec. Tojo Bar., Kabupaten Tojo Una-Una",SULAWESI TENGAH,94681.0,Indonesia,,,,-1.5088598,120.9245216,https://maps.google.com/?cid=0x0:0xb9bfc9ab0a169733,
perumahan,Pembangunan Perumahan,RUMAH BIRU_RYU,"HXWH+4F6, Ujung Tibu, Kec. Tojo Bar., Kabupaten Tojo Una-Una, Sulawesi Tengah","Kabupaten Tojo Una-Una, Sulawesi Tengah",SULAWESI TENGAH,,Indonesia,,,,-1.4047031,120.9786538,https://maps.google.com/?cid=0x0:0x966a898543fad8b8,
perumahan,Komplek perumahan,Rumah Moh. Ali Lasawedi,"HXWH+4C4, Dusun 1, Ujung Tibu, Kec. Tojo Bar., Kabupaten Tojo Una-Una, Sulawesi Tengah","Kabupaten Tojo Una-Una, Sulawesi Tengah",SULAWESI TENGAH,,Indonesia,,,,-1.4047215,120.9785403,https://maps.google.com/?cid=0x0:0x3e2512c147406bd6,
perumahan,Bengkel Sepeda Motor,Bengkel Tua,"H337+GX8, Mawomba, Kec. Tojo Bar., Kabupaten Tojo Una-Una, Sulawesi Tengah 94681","Mawomba, Kec. Tojo Bar., Kabupaten Tojo Una-Una",SULAWESI TENGAH,94681.0,Indonesia,,,,-1.4459758,121.0641786,https://maps.google.com/?cid=0x0:0x46c870c7f3efec25,
perumahan,Perhimpunan Pengembang Perumahan,Nur Afya,"F2VF+WXF, Tombiano, Kec. Tojo Bar., Kabupaten Tojo Una-Una, Sulawesi Tengah","Kabupaten Tojo Una-Una, Sulawesi Tengah",SULAWESI TENGAH,,Indonesia,,,,-1.5051881,121.0249093,https://maps.google.com/?cid=0x0:0x9f31c84f96b79a4c,
perumahan,Tujuan Wisata,Lorong air terjun,"HWH7+QMP, Matako, Kec. Tojo Bar., Kabupaten Tojo Una-Una, Sulawesi Tengah 94681","Matako, Kec. Tojo Bar., Kabupaten Tojo Una-Una",SULAWESI TENGAH,94681.0,Indonesia,,,,-1.4212299,120.9142552,https://maps.google.com/?cid=0x0:0x6a877f7268e504d9,
perumahan,Perhimpunan Pengembang Perumahan,Desa Mawomba,"H33C+X5, Jl. Trans Poso, Mawomba, Kec. Tojo Bar., Kabupaten Tojo Una-Una, Sulawesi Tengah 94681","Jl. Trans Poso, Mawomba, Kec. Tojo Bar., Kabupaten Tojo Una-Una",SULAWESI TENGAH,94681.0,Indonesia,,,,-1.4451919,121.0673783,https://maps.google.com/?cid=0x0:0x531ebdff38d0228,
perumahan,Komplek perumahan,Kampung jawa,"HXG3+JCQ, Toliba, Kec. Tojo Bar., Kabupaten Tojo Una-Una, Sulawesi Tengah 94681","Toliba, Kec. Tojo Bar., Kabupaten Tojo Una-Una",SULAWESI TENGAH,94681.0,Indonesia,,,,-1.4234242,120.953617,https://maps.google.com/?cid=0x0:0xcd34f0e001c76fb9,
perumahan,Komplek perumahan,RDG Muhamad Yamin,"H338+VXJ, Mawomba, Kec. Tojo Bar., Kabupaten Tojo Una-Una, Sulawesi Tengah 94681","Mawomba, Kec. Tojo Bar., Kabupaten Tojo Una-Una",SULAWESI TENGAH,94681.0,Indonesia,,,,-1.4452905,121.067391,https://maps.google.com/?cid=0x0:0xb8287a1d6860ab,
perumahan,Komplek perumahan,Lorong labuan tatari,"F2RP+8HC, Tatari, Kec. Tojo Bar., Kabupaten Tojo Una-Una, Sulawesi Tengah 94681","Tatari, Kec. Tojo Bar., Kabupaten Tojo Una-Una",SULAWESI TENGAH,94681.0,Indonesia,,,,-1.5091793,121.0363768,https://maps.google.com/?cid=0x0:0x42fe0743765c5cee,
perumahan,Komplek perumahan,Rumah keluarga Imong,"HXM3+GPJ, Toliba, Kec. Tojo Bar., Kabupaten Tojo Una-Una, Sulawesi Tengah 94681","Toliba, Kec. Tojo Bar., Kabupaten Tojo Una-Una",SULAWESI TENGAH,94681.0,Indonesia,,,,-1.4161611,120.9542517,https://maps.google.com/?cid=0x0:0xed67cf3df69b4d3d,
perumahan,Perhimpunan Pengembang Perumahan,Ujungtibu,"HXWM+7HG, Ujung Tibu, Kec. Tojo Bar., Kabupaten Tojo Una-Una, Sulawesi Tengah","Kabupaten Tojo Una-Una, Sulawesi Tengah",SULAWESI TENGAH,,Indonesia,,,,-1.4048097,120.9835109,https://maps.google.com/?cid=0x0:0xcf2f06f6be99e76d,
perumahan,Komplek perumahan,TOLIBA,"FXMJ+FQC, Toliba, Kec. Tojo Bar., Kabupaten Tojo Una-Una, Sulawesi Tengah","Kabupaten Tojo Una-Una, Sulawesi Tengah",SULAWESI TENGAH,,Indonesia,,,,-1.516305,120.981896,https://maps.google.com/?cid=0x0:0x283978b169d246d8,
perumahan,Komplek perumahan,Towulu Lambara,"HWH7+R63, Matako, Kec. Tojo Bar., Kabupaten Tojo Una-Una, Sulawesi Tengah 94681","Matako, Kec. Tojo Bar., Kabupaten Tojo Una-Una",SULAWESI TENGAH,94681.0,Indonesia,,,,-1.420333,120.912445,https://maps.google.com/?cid=0x0:0xc1195f88e2b3c318,
perumahan,Perhimpunan Pengembang Perumahan,Nasrulah,"H26Q+X2, Tatari, Kec. Tojo Bar., Kabupaten Tojo Una-Una, Sulawesi Tengah 94681","Tatari, Kec. Tojo Bar., Kabupaten Tojo Una-Una",SULAWESI TENGAH,94681.0,Indonesia,,,,-1.4375521,121.0376198,https://maps.google.com/?cid=0x0:0x6210a29152f9e477,
perumahan,Pembangunan Perumahan,Sekretariat Kayura,"H34W+VP4, Tayawa, Kec. Tojo, Kabupaten Tojo Una-Una, Sulawesi Tengah 94681","Tayawa, Kec. Tojo, Kabupaten Tojo Una-Una",SULAWESI TENGAH,94681.0,Indonesia,,,,-1.4428566,121.0968406,https://maps.google.com/?cid=0x0:0xcf98949d37bda399,
perumahan,Komplek perumahan,Malini,"H424+33V, Tayawa, Kec. Tojo, Kabupaten Tojo Una-Una, Sulawesi Tengah 94681","Tayawa, Kec. Tojo, Kabupaten Tojo Una-Una",SULAWESI TENGAH,94681.0,Indonesia,,,,-1.4497614,121.1051594,https://maps.google.com/?cid=0x0:0x3d6862e1b82b92ee,
perumahan,perumahan,Adelia home,"HWJ5+59, Matako, Kec. Tojo Bar., Kabupaten Tojo Una-Una, Sulawesi Tengah 94681","Matako, Kec. Tojo Bar., Kabupaten Tojo Una-Una",SULAWESI TENGAH,94681.0,Indonesia,,,,-1.4196108,120.9083577,https://maps.google.com/?cid=0x0:0x17573e022a17fd37,
perumahan,perumahan,"Tombiano, Kabupaten Tojo Una-Una, Sulawesi Tengah","H2GF+6XQ, Tombiano, Kec. Tojo Bar., Kabupaten Tojo Una-Una, Sulawesi Tengah","Kabupaten Tojo Una-Una, Sulawesi Tengah",SULAWESI TENGAH,,Indonesia,,,,-1.4244244,121.0249943,https://maps.google.com/?cid=0x0:0x9a325e1418b60135,
perumahan,Perhimpunan Pengembang Perumahan,Mitra kumpa,"HWJW+C6W, Galuga, Kec. Tojo Bar., Kabupaten Tojo Una-Una, Sulawesi Tengah","Kabupaten Tojo Una-Una, Sulawesi Tengah",SULAWESI TENGAH,,Indonesia,,,,-1.4188813,120.9455874,https://maps.google.com/?cid=0x0:0x969b419168066a3d,
perumahan,Komplek perumahan,Rumah ku,"H2HF+CHV, Tombiano, Kec. Tojo Bar., Kabupaten Tojo Una-Una, Sulawesi Tengah","Kabupaten Tojo Una-Una, Sulawesi Tengah",SULAWESI TENGAH,,Indonesia,,,,-1.4213801,121.0238155,https://maps.google.com/?cid=0x0:0xa65177112cbe3bd3,
perumahan,Komplek perumahan,Iyan M,"H2GG+46C, Tombiano, Kec. Tojo Bar., Kabupaten Tojo Una-Una, Sulawesi Tengah","Kabupaten Tojo Una-Una, Sulawesi Tengah",SULAWESI TENGAH,,Indonesia,,,,-1.4246986,121.0255035,https://maps.google.com/?cid=0x0:0x492b844a14a3a708,
perumahan,perumahan,Sulawesi Tengah 94682,"Kec. Ulubongka, Kabupaten Tojo Una-Una, Sulawesi Tengah","Kabupaten Tojo Una-Una, Sulawesi Tengah",SULAWESI TENGAH,,Indonesia,,,,-1.2626977,121.5826642,https://maps.google.com/?cid=0x0:0x88ec4d69e80546d0,
perumahan,Balai masyarakat,"Desa Watusongu, Kec. Ulubongka, Kabupaten Tojo Una-Una","VFPG+WJ2, Unnamed Road, Uekambuno, Kec. Ulubongka, Kabupaten Tojo Una-Una, Sulawesi Tengah 94682","Unnamed Road, Uekambuno, Kec. Ulubongka, Kabupaten Tojo Una-Una",SULAWESI TENGAH,94682.0,Indonesia,,,,-1.1127356,121.476514,https://maps.google.com/?cid=0x0:0xad5e3c0014c52b23,
perumahan,Komplek perumahan,Lily House,"WGP5+3PR, Bongka Makmur, Kec. Ulubongka, Kabupaten Tojo Una-Una, Sulawesi Tengah","Kabupaten Tojo Una-Una, Sulawesi Tengah",SULAWESI TENGAH,,Indonesia,,,,-1.0647565,121.5092682,https://maps.google.com/?cid=0x0:0x2fac41ab8dd032f,
perumahan,Komplek perumahan,Takibangke,"VGFV+23G, Takibangke, Kec. Ulubongka, Kabupaten Tojo Una-Una, Sulawesi Tengah 94682","Takibangke, Kec. Ulubongka, Kabupaten Tojo Una-Una",SULAWESI TENGAH,94682.0,Indonesia,,,,-1.1274312,121.5427093,https://maps.google.com/?cid=0x0:0xa5ddc2be4052543e,
perumahan,Komplek perumahan,Eneng,"WGR4+2XV, Bongka Makmur, Kec. Ulubongka, Kabupaten Tojo Una-Una, Sulawesi Tengah 94682","Bongka Makmur, Kec. Ulubongka, Kabupaten Tojo Una-Una",SULAWESI TENGAH,94682.0,Indonesia,,,,-1.059889,121.50744,https://maps.google.com/?cid=0x0:0x2e84620c8bdf32e4,
perumahan,Pembangunan Perumahan,Dusun Uesora,"JJVV+6VX, Uematopa, Kec. Ulubongka, Kabupaten Tojo Una-Una, Sulawesi Tengah","Kabupaten Tojo Una-Una, Sulawesi Tengah",SULAWESI TENGAH,,Indonesia,,,,-1.3568768,121.6447479,https://maps.google.com/?cid=0x0:0x133989dc9a68b616,
perumahan,Komplek perumahan,ZORA,"VFPH+QF4, Watusongu, Kec. Ulubongka, Kabupaten Tojo Una-Una, Sulawesi Tengah 94682","Watusongu, Kec. Ulubongka, Kabupaten Tojo Una-Una",SULAWESI TENGAH,94682.0,Indonesia,,,,-1.1131154,121.478681,https://maps.google.com/?cid=0x0:0x10461a489a7914cc,
perumahan,Komplek perumahan,Sulawesi tengah,"WG2P+FRR, Uekambuno, Kec. Ulubongka, Kabupaten Tojo Una-Una, Sulawesi Tengah","Kabupaten Tojo Una-Una, Sulawesi Tengah",SULAWESI TENGAH,,Indonesia,,,,-1.098757,121.5370003,https://maps.google.com/?cid=0x0:0x4019cfb2cbaaeeae,
perumahan,Komplek perumahan,TAMPANOMBO,"2C3Q+3X6, Tampanombo, Kec. Ulubongka, Kabupaten Tojo Una-Una, Sulawesi Tengah","Kabupaten Tojo Una-Una, Sulawesi Tengah",SULAWESI TENGAH,,Indonesia,,,,-0.9973269,121.4399041,https://maps.google.com/?cid=0x0:0x2a08d8d0def1ddf8,
perumahan,Pembangunan Perumahan,Tampanombo perumahan,"XCQJ+3P, Cempa, Kec. Ulubongka, Kabupaten Tojo Una-Una, Sulawesi Tengah","Kabupaten Tojo Una-Una, Sulawesi Tengah",SULAWESI TENGAH,,Indonesia,,,,-1.012262,121.431758,https://maps.google.com/?cid=0x0:0x32a3c49c24af3f13,
perumahan,Perumahan,Rumah Guru Ingke Yawu,"VFJ3+MHG, Mire, Kec. Ulubongka, Kabupaten Tojo Una-Una, Sulawesi Tengah 94682","Mire, Kec. Ulubongka, Kabupaten Tojo Una-Una",SULAWESI TENGAH,94682.0,Indonesia,,,,-1.1183124,121.4539573,https://maps.google.com/?cid=0x0:0x784b746f3efe2043,
perumahan,Komplek perumahan,Rumah Dinas guru SMAN 1 Ulubongka,"2CCX+M7, Bonevoto, Kec. Ulubongka, Kabupaten Tojo Una-Una, Sulawesi Tengah","Kabupaten Tojo Una-Una, Sulawesi Tengah",SULAWESI TENGAH,,Indonesia,,,,-0.9783664,121.4481505,https://maps.google.com/?cid=0x0:0x78c3202c4999250d,
perumahan,Perumahan,Suleman rai,"QJCW+6JV, Kasiala, Kec. Ulubongka, Kabupaten Tojo Una-Una, Sulawesi Tengah","Kabupaten Tojo Una-Una, Sulawesi Tengah",SULAWESI TENGAH,,Indonesia,,,,-1.2293863,121.6465322,https://maps.google.com/?cid=0x0:0xa68b01e37cb8f6f6,
perumahan,Perumahan,Upi Karau Home,"WGM5+VPC, Bongka Makmur, Kec. Ulubongka, Kabupaten Tojo Una-Una, Sulawesi Tengah 94682","Bongka Makmur, Kec. Ulubongka, Kabupaten Tojo Una-Una",SULAWESI TENGAH,94682.0,Indonesia,,,,-1.0653137,121.5092531,https://maps.google.com/?cid=0x0:0xa76f4dc0550510ff,
perumahan,Area Mendaki,Kampung Atas Paranonge,"VG88+8VQ, Paranonge, Kec. Ulubongka, Kabupaten Tojo Una-Una, Sulawesi Tengah 94682","Paranonge, Kec. Ulubongka, Kabupaten Tojo Una-Una",SULAWESI TENGAH,94682.0,Indonesia,,,,-1.1341506,121.5172327,https://maps.google.com/?cid=0x0:0x1fffeaa64f98d365,
perumahan,perumahan,Rahmat M.Bungu,"2C6G+WR2, Tampanombo, Kec. Ulubongka, Kabupaten Tojo Una-Una, Sulawesi Tengah 94682","Tampanombo, Kec. Ulubongka, Kabupaten Tojo Una-Una",SULAWESI TENGAH,94682.0,Indonesia,,,,-0.9877506,121.4268982,https://maps.google.com/?cid=0x0:0x55736ebfe5332500,
perumahan,Komplek perumahan,Mas eko,"XF3R+52, Borneang, Kec. Ulubongka, Kabupaten Tojo Una-Una, Sulawesi Tengah","Kabupaten Tojo Una-Una, Sulawesi Tengah",SULAWESI TENGAH,,Indonesia,,,,-1.0469882,121.4900728,https://maps.google.com/?cid=0x0:0xecab923717c103ad,
perumahan,Pembangunan Perumahan,Pablo House,"WGP5+2HQ, Unnamed Road, Bongka Makmur, Kec. Ulubongka, Kabupaten Tojo Una-Una, Sulawesi Tengah 94682","Unnamed Road, Bongka Makmur, Kec. Ulubongka, Kabupaten Tojo Una-Una",SULAWESI TENGAH,94682.0,Indonesia,,,,-1.0649222,121.5089741,https://maps.google.com/?cid=0x0:0x60974dda5d8a7699,
perumahan,perumahan,Nina home,"2FJ8+R5, Bonevoto, Kec. Ulubongka, Kabupaten Tojo Una-Una, Sulawesi Tengah","Kabupaten Tojo Una-Una, Sulawesi Tengah",SULAWESI TENGAH,,Indonesia,,,,-0.9679977,121.4654097,https://maps.google.com/?cid=0x0:0xbec81b50a08b87cb,
perumahan,Komplek perumahan,Rumah Aiman Ede,"XCRF+77R, Tampanombo, Kec. Ulubongka, Kabupaten Tojo Una-Una, Sulawesi Tengah","Kabupaten Tojo Una-Una, Sulawesi Tengah",SULAWESI TENGAH,,Indonesia,,,,-1.009262,121.4231475,https://maps.google.com/?cid=0x0:0xa7ac6d51a2705582,
perumahan,Komplek perumahan,Rumah Ramdan,"2FV7+CG7, Marowo, Kec. Ulubongka, Kabupaten Tojo Una-Una, Sulawesi Tengah 94683","Marowo, Kec. Ulubongka, Kabupaten Tojo Una-Una",SULAWESI TENGAH,94683.0,Indonesia,,,,-0.9564597,121.4637859,https://maps.google.com/?cid=0x0:0x2d17d8ca6d789730,
perumahan,perumahan,Pulau Unauna,"Lembanya, Kec. Una-Una, Kabupaten Tojo Una-Una, Sulawesi Tengah","Kabupaten Tojo Una-Una, Sulawesi Tengah",SULAWESI TENGAH,,Indonesia,,,,-0.1751993,121.6054893,https://maps.google.com/?cid=0x0:0x4c812d56cdd5f23f,
perumahan,perumahan,PERUMAHAN KOPEL,"RJF4+W5H, Lembanya, Kec. Una-Una, Kabupaten Tojo Una-Una, Sulawesi Tengah 94691","Lembanya, Kec. Una-Una, Kabupaten Tojo Una-Una",SULAWESI TENGAH,94691.0,Indonesia,,,,-0.1751993,121.6054893,https://maps.google.com/?cid=0x0:0xe2ba6b1709bc4bfe,
perumahan,perumahan,Rumah Opa Elo,"QJRP+R69, Cendana, Kec. Una-Una, Kabupaten Tojo Una-Una, Sulawesi Tengah 94691","Cendana, Kec. Una-Una, Kabupaten Tojo Una-Una",SULAWESI TENGAH,94691.0,Indonesia,,,,-0.2079546,121.635613,https://maps.google.com/?cid=0x0:0xbe0804748c57e3dd,
perumahan,Perhimpunan Pengembang Perumahan,Desa Taningkola,"HR9C+HQR, Unnamed Road, Taningkola, Kec. Una-Una, Kabupaten Tojo Una-Una, Sulawesi Tengah 94691","Unnamed Road, Taningkola, Kec. Una-Una, Kabupaten Tojo Una-Una",SULAWESI TENGAH,94691.0,Indonesia,,,,-0.431014,121.82188,https://maps.google.com/?cid=0x0:0x3565afdc92a3555,
perumahan,Pembangunan Perumahan,Tobil,"JVJ9+RH9, Tobil, Kec. Togean, Kabupaten Tojo Una-Una, Sulawesi Tengah 94691","Tobil, Kec. Togean, Kabupaten Tojo Una-Una",SULAWESI TENGAH,94691.0,Indonesia,,,,-0.3679684,121.8689769,https://maps.google.com/?cid=0x0:0xee4f6f601702092d,
perumahan,Komplek perumahan,BTN PERUM SANSARINO PERMAI,"4H3F+42X, Unnamed Road, Ampana, Kec. Ampana Kota, Kabupaten Tojo Una-Una, Sulawesi Tengah 94683","Unnamed Road, Ampana, Kec. Ampana Kota, Kabupaten Tojo Una-Una",SULAWESI TENGAH,94683.0,Indonesia, 085250673114,,,-0.8971343,121.5726022,https://maps.google.com/?cid=0x0:0x6e3d5e7d23cc1258,
perumahan,perumahan,Pustu Binanguna,"VM62+QW, Binanguna, Kec. Una-Una, Kabupaten Tojo Una-Una, Sulawesi Tengah","Kabupaten Tojo Una-Una, Sulawesi Tengah",SULAWESI TENGAH,,Indonesia,,,,-0.1380625,121.6523125,https://maps.google.com/?cid=0x0:0xa7094696554f7bfc,
perumahan,Toko Perlengkapan Rumah,Sansarino Permai,"4H3F+FFQ, Perumahan Sansarino Permai, Ampana, Kec. Ampana Kota, Kabupaten Tojo Una-Una, Sulawesi Tengah 94683","Perumahan Sansarino Permai, Ampana, Kec. Ampana Kota, Kabupaten Tojo Una-Una",SULAWESI TENGAH,94683.0,Indonesia, 082292627494,,,-0.8962886,121.5737453,https://maps.google.com/?cid=0x0:0x62eac79b0286edff,
perumahan,Prasmanan,Rumah Makan Tante Nina,"Jln.Pantai Indah, Wakai, Kec. Una-Una, Kabupaten Tojo Una-Una, Sulawesi Tengah 94691","Wakai, Kec. Una-Una, Kabupaten Tojo Una-Una",SULAWESI TENGAH,94691.0,Indonesia, 082271182797,,,-0.4097608,121.8657448,https://maps.google.com/?cid=0x0:0x75132f6748663517,
perumahan,perumahan,Walea Besar,"Kabupaten Tojo Una-Una, Sulawesi Tengah","Kabupaten Tojo Una-Una, Sulawesi Tengah",SULAWESI TENGAH,,Indonesia,,,,-0.2611041,122.3220894,https://maps.google.com/?cid=0x0:0xf030bfcad7659f0,
perumahan,perumahan,Isran home,"Q842+Q9V, Biga, Walea Besar, Kabupaten Tojo Una-Una, Sulawesi Tengah 94692","Biga, Walea Besar, Kabupaten Tojo Una-Una",SULAWESI TENGAH,94692.0,Indonesia,,,,-0.2437058,122.3002027,https://maps.google.com/?cid=0x0:0xe304687023dd3c28,
perumahan,perumahan,Wawan family,"P7MF+W58, Salinggoha, Walea Besar, Kabupaten Tojo Una-Una, Sulawesi Tengah 94692","Salinggoha, Walea Besar, Kabupaten Tojo Una-Una",SULAWESI TENGAH,94692.0,Indonesia, 082297454325,,,-0.2651659,122.272422,https://maps.google.com/?cid=0x0:0xd3639d024ffa4cc1,
perumahan,Otoritas Pelabuhan,Kepulauan pasokan,"M8XV+2JV, Pasokan, Walea Besar, Kabupaten Tojo Una-Una, Sulawesi Tengah 94692","Pasokan, Walea Besar, Kabupaten Tojo Una-Una",SULAWESI TENGAH,94692.0,Indonesia,,,,-0.3023811,122.3440595,https://maps.google.com/?cid=0x0:0x4b3e5157e4be17d6,
perumahan,perumahan,Rumah nenek,"P82W+F54, Pasokan, Walea Besar, Kabupaten Tojo Una-Una, Sulawesi Tengah 94692","Pasokan, Walea Besar, Kabupaten Tojo Una-Una",SULAWESI TENGAH,94692.0,Indonesia,,,,-0.3003112,122.3441359,https://maps.google.com/?cid=0x0:0x3c55528a1c1b71b,
perumahan,Pembangunan Perumahan,Rumah zhoel,"P82W+F54, Pasokan, Walea Besar, Kabupaten Tojo Una-Una, Sulawesi Tengah 94692","Pasokan, Walea Besar, Kabupaten Tojo Una-Una",SULAWESI TENGAH,94692.0,Indonesia,,,,-0.300349,122.344011,https://maps.google.com/?cid=0x0:0xcc20a03c1db43661,
perumahan,Pembangkit listrik hidroelektrik,Lorong PLN,"P82W+F54, Pasokan, Walea Besar, Kabupaten Tojo Una-Una, Sulawesi Tengah 94692","Pasokan, Walea Besar, Kabupaten Tojo Una-Una",SULAWESI TENGAH,94692.0,Indonesia,,,,-0.2987595,122.3449047,https://maps.google.com/?cid=0x0:0xed0c2385e56f0b29,
perumahan,perumahan,Rumah Madins,"P82W+F54, Pasokan, Walea Besar, Kabupaten Tojo Una-Una, Sulawesi Tengah 94692","Pasokan, Walea Besar, Kabupaten Tojo Una-Una",SULAWESI TENGAH,94692.0,Indonesia,,,,-0.29919,122.344949,https://maps.google.com/?cid=0x0:0xb8d6ebe1a64af007,
perumahan,Otoritas Pelabuhan,Pelabuhan Katogop,"M9XF+6CR, Katogop, Walea Besar, Kabupaten Tojo Una-Una, Sulawesi Tengah","Kabupaten Tojo Una-Una, Sulawesi Tengah",SULAWESI TENGAH,,Indonesia,,,,-0.3018792,122.3735262,https://maps.google.com/?cid=0x0:0x80c6e89a0599e2f0,
perumahan,Komplek perumahan,Rumah Taufik Thalib,"P82W+F54, Pasokan, Walea Besar, Kabupaten Tojo Una-Una, Sulawesi Tengah 94692","Pasokan, Walea Besar, Kabupaten Tojo Una-Una",SULAWESI TENGAH,94692.0,Indonesia,,,,-0.2995868,122.3446317,https://maps.google.com/?cid=0x0:0x637166f4d8ebdbfe,
perumahan,Pembangunan Perumahan,Rumah Taufik Thalib,"M9XC+MH4, Katogop, Walea Besar, Kabupaten Tojo Una-Una, Sulawesi Tengah 94692","Katogop, Walea Besar, Kabupaten Tojo Una-Una",SULAWESI TENGAH,94692.0,Indonesia,,,,-0.3010927,122.3713898,https://maps.google.com/?cid=0x0:0x8456934faafc26dc,
perumahan,Perhimpunan Pengembang Perumahan,Rumah via,"Q58X+V54, Popolii, Kec. Walea Kepulauan, Kabupaten Tojo Una-Una, Sulawesi Tengah 94692","Popolii, Kec. Walea Kepulauan, Kabupaten Tojo Una-Una",SULAWESI TENGAH,94692.0,Indonesia,,,,-0.2328547,122.1979468,https://maps.google.com/?cid=0x0:0xd00bf16fdafd36e1,
perumahan,Komplek perumahan,"Kolami, Walea Kepulauan Kabupaten Tojo una-una","P68H+W47, Kolami, Kec. Walea Kepulauan, Kabupaten Tojo Una-Una, Sulawesi Tengah 94692","Kolami, Kec. Walea Kepulauan, Kabupaten Tojo Una-Una",SULAWESI TENGAH,94692.0,Indonesia,,,,-0.2827248,122.2277904,https://maps.google.com/?cid=0x0:0x2ba73f564254ca61,
perumahan,Kantor Pemerintah,RDG PKM Pasokan,"M8XW+3C5, Pasokan, Walea Besar, Kabupaten Tojo Una-Una, Sulawesi Tengah 94692","Pasokan, Walea Besar, Kabupaten Tojo Una-Una",SULAWESI TENGAH,94692.0,Indonesia,,,,-0.3020686,122.3461838,https://maps.google.com/?cid=0x0:0xff10faec3d4cae92,
perumahan,Perhimpunan Pengembang Perumahan,Tumpang,"Q67M+6G, Salinggoha, Walea Besar, Kabupaten Tojo Una-Una, Sulawesi Tengah","Kabupaten Tojo Una-Una, Sulawesi Tengah",SULAWESI TENGAH,,Indonesia,,,,-0.2369128,122.2337737,https://maps.google.com/?cid=0x0:0x83c4e903169700b0,
perumahan,Komplek perumahan,Rumah Rita Hi Sahada,"M8XV+HX9, Pasokan, Walea Besar, Kabupaten Tojo Una-Una, Sulawesi Tengah","Kabupaten Tojo Una-Una, Sulawesi Tengah",SULAWESI TENGAH,,Indonesia,,,,-0.3010753,122.3449726,https://maps.google.com/?cid=0x0:0x321f9baa458a07aa,
perumahan,perumahan,Rumah H Arudji Salilung,"Q58W+4GH, Popolii, Kec. Walea Kepulauan, Kabupaten Tojo Una-Una, Sulawesi Tengah 94692","Popolii, Kec. Walea Kepulauan, Kabupaten Tojo Una-Una",SULAWESI TENGAH,94692.0,Indonesia,,,,-0.2345941,122.196309,https://maps.google.com/?cid=0x0:0x40aefca987c1f519,
perumahan,Pembangunan Perumahan,RUMAH PAK IMAM DUSUN TUWEAN,"M9G3+V8C, Kondongan, Walea Besar, Kabupaten Tojo Una-Una, Sulawesi Tengah 94692","Kondongan, Walea Besar, Kabupaten Tojo Una-Una",SULAWESI TENGAH,94692.0,Indonesia,,,,-0.3228039,122.3532744,https://maps.google.com/?cid=0x0:0x1ea6021414ffee24,
perumahan,perumahan,Kel. Tard Thaib,"M9PC+74V, Tingki, Walea Besar, Kabupaten Tojo Una-Una, Sulawesi Tengah","Kabupaten Tojo Una-Una, Sulawesi Tengah",SULAWESI TENGAH,,Indonesia,,,,-0.3142548,122.3703047,https://maps.google.com/?cid=0x0:0x5053200d9bada88c,
perumahan,Perhimpunan Pengembang Perumahan,Desa Loe,"P6GH+3W, Desa Loe, Kec. Walea Kepulauan, Kabupaten Tojo Una-Una, Sulawesi Tengah","Kabupaten Tojo Una-Una, Sulawesi Tengah",SULAWESI TENGAH,,Indonesia,,,,-0.2748125,122.2298125,https://maps.google.com/?cid=0x0:0x9568b4bb978801a0,
perumahan,perumahan,"Salinggoha,walea besar , kabupaten Tojo una-una","P7MF+W58, Salinggoha, Walea Besar, Kabupaten Tojo Una-Una, Sulawesi Tengah 94692","Salinggoha, Walea Besar, Kabupaten Tojo Una-Una",SULAWESI TENGAH,94692.0,Indonesia,,,,-0.2652125,122.2729531,https://maps.google.com/?cid=0x0:0xeffbeb196f795112,
perumahan,Perhimpunan Pengembang Perumahan,Pong pitto,"J9XF+26X, Kondongan, Walea Besar, Kabupaten Tojo Una-Una, Sulawesi Tengah","Kabupaten Tojo Una-Una, Sulawesi Tengah",SULAWESI TENGAH,,Indonesia,,,,-0.3523865,122.373094,https://maps.google.com/?cid=0x0:0x2bb0cc5af0c86ddc,
perumahan,perumahan,Rumah makan jamrun barokah,"M8XV+V77, Pasokan, Kabupaten Tojo Una-Una, Sulawesi Tengah","Kabupaten Tojo Una-Una, Sulawesi Tengah",SULAWESI TENGAH,,Indonesia,,,,-0.3003369,122.3431583,https://maps.google.com/?cid=0x0:0x18809acab30cc7f7,
perumahan,perumahan,Kec. Walea Kepulauan,"Kabupaten Tojo Una-Una, Sulawesi Tengah","Kabupaten Tojo Una-Una, Sulawesi Tengah",SULAWESI TENGAH,,Indonesia,,,,-0.330267,122.0947725,https://maps.google.com/?cid=0x0:0xaa230538b3a05de9,
perumahan,Komplek perumahan,"Kolami, Walea Kepulauan Kabupaten Tojo una-una","P68H+W47, Kolami, Kec. Walea Kepulauan, Kabupaten Tojo Una-Una, Sulawesi Tengah 94692","Kolami, Kec. Walea Kepulauan, Kabupaten Tojo Una-Una",SULAWESI TENGAH,94692.0,Indonesia,,,,-0.2827248,122.2277904,https://maps.google.com/?cid=0x0:0x2ba73f564254ca61,
perumahan,perumahan,Wawan family,"P7MF+W58, Salinggoha, Walea Besar, Kabupaten Tojo Una-Una, Sulawesi Tengah 94692","Salinggoha, Walea Besar, Kabupaten Tojo Una-Una",SULAWESI TENGAH,94692.0,Indonesia, 082297454325,,,-0.2651659,122.272422,https://maps.google.com/?cid=0x0:0xd3639d024ffa4cc1,
perumahan,perumahan,Rumah H Arudji Salilung,"Q58W+4GH, Popolii, Kec. Walea Kepulauan, Kabupaten Tojo Una-Una, Sulawesi Tengah 94692","Popolii, Kec. Walea Kepulauan, Kabupaten Tojo Una-Una",SULAWESI TENGAH,94692.0,Indonesia,,,,-0.2345941,122.196309,https://maps.google.com/?cid=0x0:0x40aefca987c1f519,
perumahan,Perhimpunan Pengembang Perumahan,Desa Loe,"P6GH+3W, Desa Loe, Kec. Walea Kepulauan, Kabupaten Tojo Una-Una, Sulawesi Tengah","Kabupaten Tojo Una-Una, Sulawesi Tengah",SULAWESI TENGAH,,Indonesia,,,,-0.2748125,122.2298125,https://maps.google.com/?cid=0x0:0x9568b4bb978801a0,
perumahan,Perhimpunan Pengembang Perumahan,Tumpang,"P6P5+QQV, Dolong B, Kec. Walea Kepulauan, Kabupaten Tojo Una-Una, Sulawesi Tengah 94692","Dolong B, Kec. Walea Kepulauan, Kabupaten Tojo Una-Una",SULAWESI TENGAH,94692.0,Indonesia,,,,-0.263019,122.209434,https://maps.google.com/?cid=0x0:0x2460ef3eb78429dd,
perumahan,Balai masyarakat,Desa Tutung,"P6G3+RV5, Tutung, Kec. Walea Kepulauan, Kabupaten Tojo Una-Una, Sulawesi Tengah 94692","Tutung, Kec. Walea Kepulauan, Kabupaten Tojo Una-Una",SULAWESI TENGAH,94692.0,Indonesia,,,,-0.2729841,122.2047449,https://maps.google.com/?cid=0x0:0xf50aac155a63d17a,
perumahan,Komplek perumahan,Rumah Om Ramli,"P3H4+R2H, Malenge, Kec. Walea Kepulauan, Kabupaten Tojo Una-Una, Sulawesi Tengah 94692","Malenge, Kec. Walea Kepulauan, Kabupaten Tojo Una-Una",SULAWESI TENGAH,94692.0,Indonesia,,,,-0.2702537,122.0562065,https://maps.google.com/?cid=0x0:0x346ccbdb4e4c84a8,
perumahan,perumahan,Isran home,"Q842+Q9V, Biga, Walea Besar, Kabupaten Tojo Una-Una, Sulawesi Tengah 94692","Biga, Walea Besar, Kabupaten Tojo Una-Una",SULAWESI TENGAH,94692.0,Indonesia,,,,-0.2437058,122.3002027,https://maps.google.com/?cid=0x0:0xe304687023dd3c28,
perumahan,Komplek perumahan,Cafe icun slanker,"M8XW+F42, Pasokan, Walea Besar, Kabupaten Tojo Una-Una, Sulawesi Tengah 94692","Pasokan, Walea Besar, Kabupaten Tojo Una-Una",SULAWESI TENGAH,94692.0,Indonesia,,,,-0.3020693,122.345065,https://maps.google.com/?cid=0x0:0xdc48d3a39aa38f15,
perumahan,Otoritas Pelabuhan,Kepulauan pasokan,"M8XV+2JV, Pasokan, Walea Besar, Kabupaten Tojo Una-Una, Sulawesi Tengah 94692","Pasokan, Walea Besar, Kabupaten Tojo Una-Una",SULAWESI TENGAH,94692.0,Indonesia,,,,-0.3023811,122.3440595,https://maps.google.com/?cid=0x0:0x4b3e5157e4be17d6,
perumahan,perumahan,Rumah nenek,"P82W+F54, Pasokan, Walea Besar, Kabupaten Tojo Una-Una, Sulawesi Tengah 94692","Pasokan, Walea Besar, Kabupaten Tojo Una-Una",SULAWESI TENGAH,94692.0,Indonesia,,,,-0.3003112,122.3441359,https://maps.google.com/?cid=0x0:0x3c55528a1c1b71b,
perumahan,Pusat Kesehatan Masyarakat,Puskesmas Dolong,"P6Q7+5FC, Dolong B, Kec. Walea Kepulauan, Kabupaten Tojo Una-Una, Sulawesi Tengah 94692","Dolong B, Kec. Walea Kepulauan, Kabupaten Tojo Una-Una",SULAWESI TENGAH,94692.0,Indonesia,,,,-0.2620569,122.2136384,https://maps.google.com/?cid=0x0:0x473627e9f694c937,
perumahan,perumahan,"Salinggoha,walea besar , kabupaten Tojo una-una","P7MF+W58, Salinggoha, Walea Besar, Kabupaten Tojo Una-Una, Sulawesi Tengah 94692","Salinggoha, Walea Besar, Kabupaten Tojo Una-Una",SULAWESI TENGAH,94692.0,Indonesia,,,,-0.2652125,122.2729531,https://maps.google.com/?cid=0x0:0xeffbeb196f795112,
perumahan,Pembangkit listrik hidroelektrik,Lorong PLN,"P82W+F54, Pasokan, Walea Besar, Kabupaten Tojo Una-Una, Sulawesi Tengah 94692","Pasokan, Walea Besar, Kabupaten Tojo Una-Una",SULAWESI TENGAH,94692.0,Indonesia,,,,-0.2987595,122.3449047,https://maps.google.com/?cid=0x0:0xed0c2385e56f0b29,
perumahan,Pembangunan Perumahan,Rumah zhoel,"P82W+F54, Pasokan, Walea Besar, Kabupaten Tojo Una-Una, Sulawesi Tengah 94692","Pasokan, Walea Besar, Kabupaten Tojo Una-Una",SULAWESI TENGAH,94692.0,Indonesia,,,,-0.300349,122.344011,https://maps.google.com/?cid=0x0:0xcc20a03c1db43661,
perumahan,Komplek perumahan,Rumah Taufik Thalib,"P82W+F54, Pasokan, Walea Besar, Kabupaten Tojo Una-Una, Sulawesi Tengah 94692","Pasokan, Walea Besar, Kabupaten Tojo Una-Una",SULAWESI TENGAH,94692.0,Indonesia,,,,-0.2995868,122.3446317,https://maps.google.com/?cid=0x0:0x637166f4d8ebdbfe,
perumahan,perumahan,Rumah Madins,"P82W+F54, Pasokan, Walea Besar, Kabupaten Tojo Una-Una, Sulawesi Tengah 94692","Pasokan, Walea Besar, Kabupaten Tojo Una-Una",SULAWESI TENGAH,94692.0,Indonesia,,,,-0.29919,122.344949,https://maps.google.com/?cid=0x0:0xb8d6ebe1a64af007,
perumahan,Perhimpunan Pengembang Perumahan,Tumpang,"Q67M+6G, Salinggoha, Walea Besar, Kabupaten Tojo Una-Una, Sulawesi Tengah","Kabupaten Tojo Una-Una, Sulawesi Tengah",SULAWESI TENGAH,,Indonesia,,,,-0.2369128,122.2337737,https://maps.google.com/?cid=0x0:0x83c4e903169700b0,
perumahan,perumahan,The Angkayo,"Unnamed Road, Kalia, Kec. Walea Kepulauan, Kabupaten Tojo Una-Una, Sulawesi Tengah 94692","Kalia, Kec. Walea Kepulauan, Kabupaten Tojo Una-Una",SULAWESI TENGAH,94692.0,Indonesia, 082191179681,,,-0.2864763,122.0078257,https://maps.google.com/?cid=0x0:0x801e7b1a39e3a6b0,
perumahan,perumahan,Fadhila Cottages Togean Dive Resort,"Katupat, Kec. Togean, Kabupaten Tojo Una-Una, Sulawesi Tengah 14310","Kec. Togean, Kabupaten Tojo Una-Una",SULAWESI TENGAH,14310.0,Indonesia, 085241003685,,,-0.319047,121.9488378,https://maps.google.com/?cid=0x0:0x4c176bcbe85a5d5f,
perumahan,perumahan,Sera Beach,"Malenge, Kec. Walea Kepulauan, Kabupaten Tojo Una-Una, Sulawesi Tengah 94692","Kec. Walea Kepulauan, Kabupaten Tojo Una-Una",SULAWESI TENGAH,94692.0,Indonesia, 082349951833,,,-0.2520088,122.0593748,https://maps.google.com/?cid=0x0:0x93dcd2bef1502709,
