Category;Real Category;Business Name;Address;City;State;Postal Code;Country;Phone;Email;Website;Latitude;Longitude;Map Link;Details Link
"komplek housing";"komplek housing";"Kec. Kenyam";"Kenyam, Kabupaten Nduga, Papua";"Kabupaten Nduga, Papua";"PAPUA";"";"Indonesia";"";"";"";"-4.6049794";"138.3863687";"https://maps.google.com/?cid=0x0:0x4da75a927488f879";""
"komplek housing";"komplek housing";"Distrik Mapenduma";"Kabupaten Nduga, Papua";"Kabupaten Nduga, Papua";"PAPUA";"";"Indonesia";"";"";"";"-4.4847854";"138.2194523";"https://maps.google.com/?cid=0x0:0xbbd1e73ab9baafad";""
"komplek housing";"komplek housing";"Kec. Yigi";"Kabupaten Nduga, Papua";"Kabupaten Nduga, Papua";"PAPUA";"";"Indonesia";"";"";"";"-4.2284373";"138.3994114";"https://maps.google.com/?cid=0x0:0x4ea4fc47be3c606c";""
"komplek housing";"komplek housing";"Yigi";"Kec. Yigi, Kabupaten Nduga, Papua";"Kabupaten Nduga, Papua";"PAPUA";"";"Indonesia";"";"";"";"-4.2022358";"138.3688834";"https://maps.google.com/?cid=0x0:0xb481a2cdf13e34f7";""
"komplek housing";"Komplek perumahan";"Pondok Gede Housing II";"Housing II, Jl. Raya Hankam, RT.001/RW.004, Jatirahayu, Pondok Gede, Bekasi, West Java";"Kota Bks, Jawa Barat";"PAPUA";"";"Indonesia";"";"";"";"-6.2876701";"106.9147674";"https://maps.google.com/?cid=0x0:0x2a52e601c20d18f2";""
"komplek housing";"Komplek perumahan";"White House";"Jl. Komp. Pd. Gede Housing.II Blok FF. 1A, Jatirahayu, Pondok Melati, Bekasi, West Java 17414";"Jatirahayu, Pondok Melati, Bekasi";"PAPUA";"17414";"Indonesia";"";"";"";"-6.2883969";"106.9160196";"https://maps.google.com/?cid=0x0:0x2bf8b8029130581f";""
"komplek housing";"Galeri Seni";"Kwegono";"HQP7+X9, Gunia, Distrik Moba, Kabupaten Nduga, Papua";"Kabupaten Nduga, Papua";"PAPUA";"";"Indonesia";"";"";"";"-4.4126188";"138.7634038";"https://maps.google.com/?cid=0x0:0x4d75192bf241b054";""
"komplek housing";"Komplek perumahan";"Kogonggu hom";"WW76+4M8, Honelama, Distrik Wamena, Kabupaten Jayawijaya, Papua";"Kabupaten Jayawijaya, Papua";"PAPUA";"";"Indonesia";"";"";"";"-4.0872224";"138.9117008";"https://maps.google.com/?cid=0x0:0x70f1f6eeb71ac704";""
"komplek housing";"komplek housing";"Distrik Wosak";"Kabupaten Nduga, Papua";"Kabupaten Nduga, Papua";"PAPUA";"";"Indonesia";"";"";"";"-4.3506081";"138.5787728";"https://maps.google.com/?cid=0x0:0x6b833bac9829e280";""
"komplek housing";"Komplek perumahan";"H5/7 Perumahan Wahana Pondok Gede";"Perumahan Wahana Pondok Gede, Jl. Pabuaran Blk. H5 No.7, RT.001/RW.007, Jatiranggon, Jatisampurna, Bekasi, West Java 17432";"Jl. Pabuaran Blk. H5 No.7, RT.001/RW.007, Jatiranggon, Jatisampurna, Bekasi";"PAPUA";"17432";"Indonesia";"";"";"";"-6.3403082";"106.9368152";"https://maps.google.com/?cid=0x0:0xf24557cdc99701c6";""
"komplek housing";"Perhimpunan Pengembang Perumahan";"Kel.N.Wonda";"3FC3+FP2, werime, Kec. Yiginua, Kabupaten Lanny Jaya, Papua 99567";"werime, Kec. Yiginua, Kabupaten Lanny Jaya";"PAPUA";"99567";"Indonesia";" 082302971058";"";"";"-3.9296572";"138.4541367";"https://maps.google.com/?cid=0x0:0x937f2157df8c1495";""
"komplek housing";"komplek housing";"Papua 99564";"Papua";"Papua";"PAPUA";"";"Indonesia";"";"";"";"-4.2226519";"138.3190276";"https://maps.google.com/?cid=0x0:0x12113e40469ed72c";""
"komplek housing";"Komplek perumahan";"Kampung Ilim";"2864+H7, Ilim, Distrik Goa Balim, Kabupaten Lanny Jaya, Papua";"Kabupaten Lanny Jaya, Papua";"PAPUA";"";"Indonesia";"";"";"";"-3.9885625";"138.3056875";"https://maps.google.com/?cid=0x0:0x10fc243d3250ccc2";""
"komplek housing";"Komplek perumahan";"Kampung Gelokme";"4MHW+F2, Yudani, Distrik Gamelia, Kabupaten Lanny Jaya, Papua";"Kabupaten Lanny Jaya, Papua";"PAPUA";"";"Indonesia";"";"";"";"-3.8713704";"138.6950346";"https://maps.google.com/?cid=0x0:0x9222d03252908fdd";""
"komplek housing";"Komplek perumahan";"DSG";"VWWG+7R, Hurekama, Distrik Wamena, Kabupaten Jayawijaya, Papua";"Kabupaten Jayawijaya, Papua";"PAPUA";"";"Indonesia";" 082113574052";"";"";"-4.104343";"138.927108";"https://maps.google.com/?cid=0x0:0x2ee62cc3d45bccc7";""
"komplek housing";"Galeri Seni";"Kwegono";"HQP7+X9, Gunia, Distrik Moba, Kabupaten Nduga, Papua";"Kabupaten Nduga, Papua";"PAPUA";"";"Indonesia";"";"";"";"-4.4126188";"138.7634038";"https://maps.google.com/?cid=0x0:0x4d75192bf241b054";""
"komplek housing";"Pertanian";"Karunggame";"VXW5+PJ, Ketimavit, Distrik Piramid, Kabupaten Jayawijaya, Papua";"Kabupaten Jayawijaya, Papua";"PAPUA";"";"Indonesia";"";"";"";"-4.1033172";"138.9590803";"https://maps.google.com/?cid=0x0:0x354afc98c87092ef";""
"komplek housing";"Komplek perumahan";"Unggeme";"3FJ2+PC, Oyi, Distrik Tiom, Kabupaten Lanny Jaya, Papua";"Kabupaten Lanny Jaya, Papua";"PAPUA";"";"Indonesia";"";"";"";"-3.9182145";"138.4511039";"https://maps.google.com/?cid=0x0:0xed65eb9c9981dfbe";""
"komplek housing";"Komplek perumahan";"Elos Wanena";"4C4F+93, Gubo, Distrik Tiomneri, Kabupaten Lanny Jaya, Papua 99567";"Gubo, Distrik Tiomneri, Kabupaten Lanny Jaya";"PAPUA";"99567";"Indonesia";"";"";"";"-3.8934318";"138.4237614";"https://maps.google.com/?cid=0x0:0x2f573e404c686333";""
"komplek housing";"Pembangunan Perumahan";"Welco";"VW64+CJX, Walesi, Distrik Silo Karno Doga, Kabupaten Jayawijaya, Papua 99511";"Walesi, Distrik Silo Karno Doga, Kabupaten Jayawijaya";"PAPUA";"99511";"Indonesia";"";"";"";"-4.1388754";"138.9065982";"https://maps.google.com/?cid=0x0:0xebbca37477ea1f3f";""
"komplek housing";"komplek housing";"UGD Gangk";"WWGM+P7, Hetuma, Distrik Bugi, Kabupaten Jayawijaya, Papua";"Kabupaten Jayawijaya, Papua";"PAPUA";"";"Indonesia";"";"";"";"-4.073876";"138.933481";"https://maps.google.com/?cid=0x0:0x2967006de3a9d297";""
"komplek housing";"Komplek perumahan";"Kel londam Marpaung";"WW5W+G33, Wamena Kota, Distrik Wamena, Kabupaten Jayawijaya, Papua 99511";"Wamena Kota, Distrik Wamena, Kabupaten Jayawijaya";"PAPUA";"99511";"Indonesia";"";"";"";"-4.091078";"138.945216";"https://maps.google.com/?cid=0x0:0x17457d9e65353475";""
"komplek housing";"Komplek perumahan";"House of NPagawak";"VXV2+W6Q, Ketimavit, Distrik Wamena, Kabupaten Jayawijaya, Papua 99511";"Ketimavit, Distrik Wamena, Kabupaten Jayawijaya";"PAPUA";"99511";"Indonesia";"";"";"";"-4.1042177";"138.9501639";"https://maps.google.com/?cid=0x0:0xcd339cd025afd796";""
"komplek housing";"Galeri Seni";"Karogime gelok muara";"WWMH+3JR, Jl.Hom-hom, karogime, Distrik Wamena, Kabupaten Jayawijaya, Papua";"Kabupaten Jayawijaya, Papua";"PAPUA";"";"Indonesia";"";"";"";"-4.0672683";"138.9290249";"https://maps.google.com/?cid=0x0:0x5c2e084d6003ce4";""
"komplek housing";"Komplek perumahan";"Blok E";"WW9Q+R2X, Jl. Hom-Hom, Hetuma, Distrik Bugi, Kabupaten Jayawijaya, Papua 99511";"Jl. Hom-Hom, Hetuma, Distrik Bugi, Kabupaten Jayawijaya";"PAPUA";"99511";"Indonesia";"";"";"";"-4.0803924";"138.9376171";"https://maps.google.com/?cid=0x0:0x51dc04385309c06c";""
"komplek housing";"Komplek perumahan";"Husaqal abila";"XXJ6+R8, Mulima, Kec. Kurulu, Kabupaten Jayawijaya, Papua";"Kabupaten Jayawijaya, Papua";"PAPUA";"";"Indonesia";"";"";"";"-4.0178934";"138.9608479";"https://maps.google.com/?cid=0x0:0x170a0ba63e8ffa1a";""
"komplek housing";"komplek housing";"Eragwime";"WX44+2PP, Eragwime, Distrik Wesaput, Kabupaten Jayawijaya, Papua";"Kabupaten Jayawijaya, Papua";"PAPUA";"";"Indonesia";"";"";"";"-4.0949213";"138.9568372";"https://maps.google.com/?cid=0x0:0xd2c4b197c558daae";""
"komplek housing";"Komplek perumahan";"GOLANI L'AKER HEIGHTS WEUWENAKO";"L'AKER HEIGHTS WEUWENAKO. Jl. Ninabua Gg. Ir. Mendius weya, Kompleks Perumahan DPR, Ninabua, Distrik Tiom, Kabupaten Lanny Jaya, Papua 99507";"Kompleks Perumahan DPR, Ninabua, Distrik Tiom, Kabupaten Lanny Jaya";"PAPUA";"99507";"Indonesia";" 082248339888";"";"";"-3.9190695";"138.4398116";"https://maps.google.com/?cid=0x0:0xc591846d6138df91";""
"komplek housing";"Komplek perumahan";"Dusun Kinnime";"2FCR+H3, Karunggame, Distrik Pirime, Kabupaten Lanny Jaya, Papua";"Kabupaten Lanny Jaya, Papua";"PAPUA";"";"Indonesia";"";"";"";"-3.9785621";"138.4901193";"https://maps.google.com/?cid=0x0:0x5a80afcfe8d14433";""
"komplek housing";"komplek housing";"Geselema";"Geselma, Kabupaten Nduga, Papua";"Kabupaten Nduga, Papua";"PAPUA";"";"Indonesia";"";"";"";"-4.4426893";"137.8427298";"https://maps.google.com/?cid=0x0:0x9ec65a16e411da83";""
"komplek housing";"komplek housing";"Distrik Mugi";"Mugi, Kabupaten Nduga, Papua";"Kabupaten Nduga, Papua";"PAPUA";"";"Indonesia";"";"";"";"-4.2798832";"138.3489356";"https://maps.google.com/?cid=0x0:0x9a4568001d69065b";""
"komplek housing";"komplek housing";"Mugi";"Distrik Mugi, Kabupaten Nduga, Papua";"Kabupaten Nduga, Papua";"PAPUA";"";"Indonesia";"";"";"";"-4.2798832";"138.3489356";"https://maps.google.com/?cid=0x0:0xefdd2d670bec7206";""
"komplek housing";"Pembangunan Perumahan";"Perumahan Pondok Ungu Permai";"Jl. Raya Pd. Ungu Permai Melati 4 No.4 Blok B8, RT.002/RW.008, Kaliabang Tengah, Kec. Bekasi Utara, Kota Bks, Jawa Barat 17125";"RT.002/RW.008, Kaliabang Tengah, Kec. Bekasi Utara, Kota Bks";"PAPUA";"17125";"Indonesia";"";"";"";"-6.1764808";"107.0012361";"https://maps.google.com/?cid=0x0:0x19c96507d85ecc28";""
"komplek housing";"Komplek perumahan";"Sunrise River Muktijaya";"H2WP+3JH, Jl. Muktijaya - Cigelam, Muktijaya, Kec. Setu, Kabupaten Bekasi, Jawa Barat 17320";"Jl. Muktijaya - Cigelam, Muktijaya, Kec. Setu, Kabupaten Bekasi";"PAPUA";"17320";"Indonesia";" 081381381789";"";"";"-6.4048186";"107.0366116";"https://maps.google.com/?cid=0x0:0x4531fe10b04fec4c";""
"komplek housing";"Perumahan";"Perumahan Cikarang Utama Residence";"cikarang utama residence, Jayasampurna, Kec. Serang Baru, Kabupaten Bekasi, Jawa Barat 17330";"Jayasampurna, Kec. Serang Baru, Kabupaten Bekasi";"PAPUA";"17330";"Indonesia";"";"";"";"-6.3769939";"107.0863038";"https://maps.google.com/?cid=0x0:0xfca033f80de7c8af";""
"komplek housing";"Perumahan";"Grand Viona Kuripan (GVK)";"PERUMAHAN GRAND VIONA, Kuripan, Kec. Ciseeng, Kabupaten Bogor, Jawa Barat 16120";"Kuripan, Kec. Ciseeng, Kabupaten Bogor";"PAPUA";"16120";"Indonesia";"";"";"";"-6.4262313";"106.6567514";"https://maps.google.com/?cid=0x0:0xed7e731fc4a452ec";""
"komplek housing";"Kantor Perusahaan";"Grand Sukamulya Cisauk";"Jalan kampung Leuwiranji, Sukamulya, Kec. Rumpin, Kabupaten Bogor, Jawa Barat 16350";"Sukamulya, Kec. Rumpin, Kabupaten Bogor";"PAPUA";"16350";"Indonesia";" 085780881004";"";"";"-6.3721068";"106.6459588";"https://maps.google.com/?cid=0x0:0x13e210069e886101";""
"komplek housing";"komplek housing";"Komplek Housing";"Blok Bojong Nangka I, Jl. Ring Rudal Blok Bojong Nangka I No.68, RT.001/RW.007, Jatirahayu, Kec. Pd. Melati, Kota Bks, Jawa Barat 17414";"Jl. Ring Rudal Blok Bojong Nangka I No.68, RT.001/RW.007, Jatirahayu, Kec. Pd. Melati, Kota Bks";"PAPUA";"17414";"Indonesia";"";"";"";"-6.293724";"106.9165114";"https://maps.google.com/?cid=0x0:0x9c50464976dee674";""
"komplek housing";"komplek housing";"Distrik Mugi";"Mugi, Kabupaten Nduga, Papua";"Kabupaten Nduga, Papua";"PAPUA";"";"Indonesia";"";"";"";"-4.2798832";"138.3489356";"https://maps.google.com/?cid=0x0:0x9a4568001d69065b";""
"komplek housing";"komplek housing";"Mugi";"Distrik Mugi, Kabupaten Nduga, Papua";"Kabupaten Nduga, Papua";"PAPUA";"";"Indonesia";"";"";"";"-4.2798832";"138.3489356";"https://maps.google.com/?cid=0x0:0xefdd2d670bec7206";""
"komplek housing";"Komplek perumahan";"Pondok Gede Housing 1";"Jl. Cipta Raya No.45-3, RT.001/RW.003, Jatirahayu, Kec. Pd. Melati, Kota Bks, Jawa Barat 17414";"RT.001/RW.003, Jatirahayu, Kec. Pd. Melati, Kota Bks";"PAPUA";"17414";"Indonesia";"";"";"";"-6.2852504";"106.9163397";"https://maps.google.com/?cid=0x0:0x3132afedbf38cd61";""
"komplek housing";"komplek housing";"Papua 99564";"Papua";"Papua";"PAPUA";"";"Indonesia";"";"";"";"-4.2226519";"138.3190276";"https://maps.google.com/?cid=0x0:0x12113e40469ed72c";""
"komplek housing";"komplek housing";"Papua";"";"Papua";"PAPUA";"";"Indonesia";"";"";"";"-4.269928";"138.0803529";"https://maps.google.com/?cid=0x0:0xeba94e9c5eefe673";""
"komplek housing";"Komplek perumahan";"Komplek Raya Housing/Molek Blok B No. 4";"PW95+CQ7, Jl. Raya Housing, RT.006/RW.011, Jatiwaringin, Kec. Pd. Gede, Kota Bks, Jawa Barat 17411";"Jl. Raya Housing, RT.006/RW.011, Jatiwaringin, Kec. Pd. Gede, Kota Bks";"PAPUA";"17411";"Indonesia";"";"";"";"-6.2814591";"106.909408";"https://maps.google.com/?cid=0x0:0x47a4e28e626334ff";""
"komplek housing";"Pembangunan Perumahan";"Perumahan Green Harmoni Blok A5";"Perumahan Green Harmoni No.Blok A, Lubangbuaya, Kec. Setu, Kabupaten Bekasi, Jawa Barat 17320";"Lubangbuaya, Kec. Setu, Kabupaten Bekasi";"PAPUA";"17320";"Indonesia";" 085692353290";"";"";"-6.3236936";"107.0531157";"https://maps.google.com/?cid=0x0:0x10d92843ac65ec2e";""
"komplek housing";"Komplek perumahan";"Bekasi Timur Regensi 7";"Jl. BTR 7 Raya, Burangkeng, Kec. Setu, Kabupaten Bekasi, Jawa Barat 17320";"Burangkeng, Kec. Setu, Kabupaten Bekasi";"PAPUA";"17320";"Indonesia";"";"";"";"-6.3283991";"107.0207633";"https://maps.google.com/?cid=0x0:0x96866c38eae92c61";""
"komplek housing";"Komplek perumahan";"Perumahan Green Rahayu 1";"Taman Rahayu, Kec. Setu, Kota Bks, Jawa Barat 17153";"Kec. Setu, Kota Bks";"PAPUA";"17153";"Indonesia";" 02182486257";"";"";"-6.3633878";"106.9985309";"https://maps.google.com/?cid=0x0:0x448af6c03f3865ea";""
"komplek housing";"komplek housing";"Papua 99564";"Papua";"Papua";"PAPUA";"";"Indonesia";"";"";"";"-4.2226519";"138.3190276";"https://maps.google.com/?cid=0x0:0x12113e40469ed72c";""
"komplek housing";"komplek housing";"Papua";"";"Papua";"PAPUA";"";"Indonesia";"";"";"";"-4.269928";"138.0803529";"https://maps.google.com/?cid=0x0:0xeba94e9c5eefe673";""
"komplek housing";"Pembangunan Perumahan";"Cengkong Persada";"Jl. Perum Permata Cengkong Persada, Cengkong, Kec. Purwasari, Karawang, Jawa Barat 41373";"Cengkong, Kec. Purwasari, Karawang";"PAPUA";"41373";"Indonesia";"";"";"";"-6.3612152";"107.3960098";"https://maps.google.com/?cid=0x0:0x513c06736fa21b2b";""
"komplek housing";"komplek housing";"Tanpadp";"Jl. Jenderal Basuki Rachmat No.30 2, RT.2/RW.14, Cipinang Muara, Kecamatan Jatinegara, Kota Jakarta Timur, Daerah Khusus Ibukota Jakarta 13420";"RT.2/RW.14, Cipinang Muara, Kecamatan Jatinegara, Kota Jakarta Timur";"PAPUA";"13420";"Indonesia";"";"";"";"-6.2288358";"106.8878375";"https://maps.google.com/?cid=0x0:0xae45ab304e744cde";""
"komplek housing";"komplek housing";"Papua";"";"Papua";"PAPUA";"";"Indonesia";"";"";"";"-4.269928";"138.0803529";"https://maps.google.com/?cid=0x0:0xeba94e9c5eefe673";""
"komplek housing";"komplek housing";"Papua 99564";"Papua";"Papua";"PAPUA";"";"Indonesia";"";"";"";"-4.2226519";"138.3190276";"https://maps.google.com/?cid=0x0:0x12113e40469ed72c";""
"komplek housing";"Pembangunan Perumahan";"Kel. FX.Ngapiyo home";"CJ3M+87G, Komp. KUD Nembanye, Ekspo, Kp. Waena, Kec. Heram, Kota Jayapura, Papua 99351";"Komp. KUD Nembanye, Ekspo, Kp. Waena, Kec. Heram, Kota Jayapura";"PAPUA";"99351";"Indonesia";"";"";"";"-2.5966858";"140.6332027";"https://maps.google.com/?cid=0x0:0x737b240223480ab1";""
"komplek housing";"Komplek perumahan";"Alhikamah 4";"Jl. Kp. Rawageni Gg Alhikmah 4 No.85, RT.05/RW.02, Ratu Jaya, Kec. Cipayung, Kota Depok, Jawa Barat 16439";"RT.05/RW.02, Ratu Jaya, Kec. Cipayung, Kota Depok";"PAPUA";"16439";"Indonesia";"";"";"";"-6.4198024";"106.8065993";"https://maps.google.com/?cid=0x0:0xb6b1ca57e53171fb";""
"komplek housing";"Komplek perumahan";"Perumahan Kyra Residence 3 kantor pemasaran";"Jl. Gudang Bin Ali, Bahagia, Kec. Babelan, Kabupaten Bekasi, Jawa Barat 17610";"Bahagia, Kec. Babelan, Kabupaten Bekasi";"PAPUA";"17610";"Indonesia";" 082112762916";"";"";"-6.1945388";"107.0274494";"https://maps.google.com/?cid=0x0:0x3874af9c9c530e23";""
"komplek housing";"komplek housing";"Komplek Housing";"Blok Bojong Nangka I, Jl. Ring Rudal Blok Bojong Nangka I No.68, RT.001/RW.007, Jatirahayu, Kec. Pd. Melati, Kota Bks, Jawa Barat 17414";"Jl. Ring Rudal Blok Bojong Nangka I No.68, RT.001/RW.007, Jatirahayu, Kec. Pd. Melati, Kota Bks";"PAPUA";"17414";"Indonesia";"";"";"";"-6.293724";"106.9165114";"https://maps.google.com/?cid=0x0:0x9c50464976dee674";""
"komplek housing";"komplek housing";"Papua 99564";"Papua";"Papua";"PAPUA";"";"Indonesia";"";"";"";"-4.2226519";"138.3190276";"https://maps.google.com/?cid=0x0:0x12113e40469ed72c";""
"komplek housing";"komplek housing";"Papua";"";"Papua";"PAPUA";"";"Indonesia";"";"";"";"-4.269928";"138.0803529";"https://maps.google.com/?cid=0x0:0xeba94e9c5eefe673";""
"komplek housing";"Rumah Kaca";"Kavling Babelan City Regency (BCR)";"Kedung Pengawas, Kec. Babelan, Kabupaten Bekasi, Jawa Barat 17610";"Kec. Babelan, Kabupaten Bekasi";"PAPUA";"17610";"Indonesia";"";"";"";"-6.1366673";"107.0494889";"https://maps.google.com/?cid=0x0:0xb67bb7b09cd6e63f";""
"komplek housing";"komplek housing";"Komplek Housing";"Blok Bojong Nangka I, Jl. Ring Rudal Blok Bojong Nangka I No.68, RT.001/RW.007, Jatirahayu, Kec. Pd. Melati, Kota Bks, Jawa Barat 17414";"Jl. Ring Rudal Blok Bojong Nangka I No.68, RT.001/RW.007, Jatirahayu, Kec. Pd. Melati, Kota Bks";"PAPUA";"17414";"Indonesia";"";"";"";"-6.293724";"106.9165114";"https://maps.google.com/?cid=0x0:0x9c50464976dee674";""
"komplek housing";"komplek housing";"Papua 99564";"Papua";"Papua";"PAPUA";"";"Indonesia";"";"";"";"-4.2226519";"138.3190276";"https://maps.google.com/?cid=0x0:0x12113e40469ed72c";""
"komplek housing";"komplek housing";"Papua";"";"Papua";"PAPUA";"";"Indonesia";"";"";"";"-4.269928";"138.0803529";"https://maps.google.com/?cid=0x0:0xeba94e9c5eefe673";""
"komplek housing";"Komplek perumahan";"Komplek Raya Housing/Molek Blok B No. 4";"PW95+CQ7, Jl. Raya Housing, RT.006/RW.011, Jatiwaringin, Kec. Pd. Gede, Kota Bks, Jawa Barat 17411";"Jl. Raya Housing, RT.006/RW.011, Jatiwaringin, Kec. Pd. Gede, Kota Bks";"PAPUA";"17411";"Indonesia";"";"";"";"-6.2814591";"106.909408";"https://maps.google.com/?cid=0x0:0x47a4e28e626334ff";""
"komplek housing";"komplek housing";"Papua 99564";"Papua";"Papua";"PAPUA";"";"Indonesia";"";"";"";"-4.2226519";"138.3190276";"https://maps.google.com/?cid=0x0:0x12113e40469ed72c";""
"komplek housing";"komplek housing";"Papua";"";"Papua";"PAPUA";"";"Indonesia";"";"";"";"-4.269928";"138.0803529";"https://maps.google.com/?cid=0x0:0xeba94e9c5eefe673";""
"komplek housing";"Agen Sewa Ruangan Eksekutif";"Rumah123";"Level 37 EightyEight @ Kasablanka, Jl. Raya Casablanca No.Kav.88, RT.16/RW.5, Menteng Dalam, Kec. Tebet, Kota Jakarta Selatan, Daerah Khusus Ibukota Jakarta 12870";"Jl. Raya Casablanca No.Kav.88, RT.16/RW.5, Menteng Dalam, Kec. Tebet, Kota Jakarta Selatan";"PAPUA";"12870";"Indonesia";" 02130496123";"";"";"-6.2243351";"106.8418884";"https://maps.google.com/?cid=0x0:0xf630aa910b38c808";""
"komplek housing";"komplek housing";"Komplek Housing";"Blok Bojong Nangka I, Jl. Ring Rudal Blok Bojong Nangka I No.68, RT.001/RW.007, Jatirahayu, Kec. Pd. Melati, Kota Bks, Jawa Barat 17414";"Jl. Ring Rudal Blok Bojong Nangka I No.68, RT.001/RW.007, Jatirahayu, Kec. Pd. Melati, Kota Bks";"PAPUA";"17414";"Indonesia";"";"";"";"-6.293724";"106.9165114";"https://maps.google.com/?cid=0x0:0x9c50464976dee674";""
"komplek housing";"komplek housing";"Papua 99564";"Papua";"Papua";"PAPUA";"";"Indonesia";"";"";"";"-4.2226519";"138.3190276";"https://maps.google.com/?cid=0x0:0x12113e40469ed72c";""
"komplek housing";"komplek housing";"Papua";"";"Papua";"PAPUA";"";"Indonesia";"";"";"";"-4.269928";"138.0803529";"https://maps.google.com/?cid=0x0:0xeba94e9c5eefe673";""
"komplek housing";"Komplek perumahan";"Winville Residence";"Jl. Lb. Bulus Raya 1 No.50 M, RT.5/RW.1, Lb. Bulus, Kec. Cilandak, Kota Jakarta Selatan, Daerah Khusus Ibukota Jakarta 12440";"RT.5/RW.1, Lb. Bulus, Kec. Cilandak, Kota Jakarta Selatan";"PAPUA";"12440";"Indonesia";"";"";"";"-6.2934011";"106.7823337";"https://maps.google.com/?cid=0x0:0xad76022f5d936dba";""
"komplek housing";"Komplek perumahan";"Perumahan Citra Townhouse";"MWCF+5J6, Jl. Raya Hankam, RT.005/RW.006, Jatimurni, Kec. Pd. Melati, Kota Bks, Jawa Barat 17431";"Jl. Raya Hankam, RT.005/RW.006, Jatimurni, Kec. Pd. Melati, Kota Bks";"PAPUA";"17431";"Indonesia";"";"";"";"-6.3295866";"106.9240196";"https://maps.google.com/?cid=0x0:0x3a8b26daf7e305f7";""
"komplek housing";"komplek housing";"Perumahan";"Perumahan Jl. Alinda II No.9 blok c3, RT.06/RW.027, Kaliabang Tengah, Kec. Bekasi Utara, Kota Bks, Jawa Barat 17125";"RT.06/RW.027, Kaliabang Tengah, Kec. Bekasi Utara, Kota Bks";"PAPUA";"17125";"Indonesia";"";"";"";"-6.196398";"107.0108123";"https://maps.google.com/?cid=0x0:0x717d52c2e715063b";""
"komplek housing";"Komplek perumahan";"Arumaya Residence - Indana Land";"J2G5+X7R, Taman Rahayu, Kec. Setu, Kabupaten Bekasi, Jawa Barat 17320";"Taman Rahayu, Kec. Setu, Kabupaten Bekasi";"PAPUA";"17320";"Indonesia";"";"";"";"-6.3724666";"107.0083866";"https://maps.google.com/?cid=0x0:0x7fc9db5ec255e863";""
"komplek housing";"Komplek perumahan";"Kavling rizqi akbar";"Jl. Sengon Timur I, Cijengkol, Kec. Setu, Kabupaten Bekasi, Jawa Barat 17320";"Cijengkol, Kec. Setu, Kabupaten Bekasi";"PAPUA";"17320";"Indonesia";" 087763482004";"";"";"-6.3311678";"107.0442377";"https://maps.google.com/?cid=0x0:0x88fd42d67a10852e";""
"komplek housing";"komplek housing";"Komplek Housing";"Blok Bojong Nangka I, Jl. Ring Rudal Blok Bojong Nangka I No.68, RT.001/RW.007, Jatirahayu, Kec. Pd. Melati, Kota Bks, Jawa Barat 17414";"Jl. Ring Rudal Blok Bojong Nangka I No.68, RT.001/RW.007, Jatirahayu, Kec. Pd. Melati, Kota Bks";"PAPUA";"17414";"Indonesia";"";"";"";"-6.293724";"106.9165114";"https://maps.google.com/?cid=0x0:0x9c50464976dee674";""
"komplek housing";"komplek housing";"Papua 99564";"Papua";"Papua";"PAPUA";"";"Indonesia";"";"";"";"-4.2226519";"138.3190276";"https://maps.google.com/?cid=0x0:0x12113e40469ed72c";""
"komplek housing";"komplek housing";"Papua";"";"Papua";"PAPUA";"";"Indonesia";"";"";"";"-4.269928";"138.0803529";"https://maps.google.com/?cid=0x0:0xeba94e9c5eefe673";""
"komplek housing";"Komplek perumahan";"Komplek Raya Housing/Molek Blok B No. 4";"PW95+CQ7, Jl. Raya Housing, RT.006/RW.011, Jatiwaringin, Kec. Pd. Gede, Kota Bks, Jawa Barat 17411";"Jl. Raya Housing, RT.006/RW.011, Jatiwaringin, Kec. Pd. Gede, Kota Bks";"PAPUA";"17411";"Indonesia";"";"";"";"-6.2814591";"106.909408";"https://maps.google.com/?cid=0x0:0x47a4e28e626334ff";""
"komplek housing";"Komplek perumahan";"Perumahan Graha Cipta 5 Jejalen";"Jejalenjaya, Kec. Tambun Utara, Kabupaten Bekasi, Jawa Barat 17510";"Kec. Tambun Utara, Kabupaten Bekasi";"PAPUA";"17510";"Indonesia";" 081315755470";"";"";"-6.2098759";"107.0744829";"https://maps.google.com/?cid=0x0:0x4e428bb84a21f83f";""
"komplek housing";"Perhimpunan Pengembang Perumahan";"Srimaya Residence Cluster Candani ZCG 11";"Srimaya Sumarecon cluster candani, Jl. Pangkalan 6 No.11 Blok ZCG, Ciketing Udik, Bantar Gebang, Bekasi, West Java 17153";"Jl. Pangkalan 6 No.11 Blok ZCG, Ciketing Udik, Bantar Gebang, Bekasi";"PAPUA";"17153";"Indonesia";"";"";"";"-6.3555558";"106.9876387";"https://maps.google.com/?cid=0x0:0xe47ec961df600074";""
"komplek housing";"komplek housing";"Komplek Housing";"Blok Bojong Nangka I, Jl. Ring Rudal Blok Bojong Nangka I No.68, RT.001/RW.007, Jatirahayu, Kec. Pd. Melati, Kota Bks, Jawa Barat 17414";"Jl. Ring Rudal Blok Bojong Nangka I No.68, RT.001/RW.007, Jatirahayu, Kec. Pd. Melati, Kota Bks";"PAPUA";"17414";"Indonesia";"";"";"";"-6.293724";"106.9165114";"https://maps.google.com/?cid=0x0:0x9c50464976dee674";""
"komplek housing";"komplek housing";"Papua 99571";"Kabupaten Yahukimo, Papua";"Kabupaten Yahukimo, Papua";"PAPUA";"";"Indonesia";"";"";"";"-4.6597588";"139.1221414";"https://maps.google.com/?cid=0x0:0x8dc722ebb3251072";""
"komplek housing";"komplek housing";"Papua";"";"Papua";"PAPUA";"";"Indonesia";"";"";"";"-4.269928";"138.0803529";"https://maps.google.com/?cid=0x0:0xeba94e9c5eefe673";""
"komplek housing";"Komplek perumahan";"Pondok Gede Housing 1";"Jl. Cipta Raya No.45-3, RT.001/RW.003, Jatirahayu, Kec. Pd. Melati, Kota Bks, Jawa Barat 17414";"RT.001/RW.003, Jatirahayu, Kec. Pd. Melati, Kota Bks";"PAPUA";"17414";"Indonesia";"";"";"";"-6.2852504";"106.9163397";"https://maps.google.com/?cid=0x0:0x3132afedbf38cd61";""
"komplek housing";"Komplek perumahan";"Hunian";"PWC9+39R, Jl. Bojong Tua, RT.009/RW.008, Jatimakmur, Kec. Pd. Gede, Kota Bks, Jawa Barat 17411";"Jl. Bojong Tua, RT.009/RW.008, Jatimakmur, Kec. Pd. Gede, Kota Bks";"PAPUA";"17411";"Indonesia";" 08116145185";"";"";"-6.279762";"106.918378";"https://maps.google.com/?cid=0x0:0x677c66a269a60ad1";""
"komplek housing";"komplek housing";"Papua 99571";"Kabupaten Yahukimo, Papua";"Kabupaten Yahukimo, Papua";"PAPUA";"";"Indonesia";"";"";"";"-4.6597588";"139.1221414";"https://maps.google.com/?cid=0x0:0x8dc722ebb3251072";""
"komplek housing";"komplek housing";"Papua";"";"Papua";"PAPUA";"";"Indonesia";"";"";"";"-4.269928";"138.0803529";"https://maps.google.com/?cid=0x0:0xeba94e9c5eefe673";""
"komplek housing";"Komplek perumahan";"Pondok Gede Housing 1";"Jl. Cipta Raya No.45-3, RT.001/RW.003, Jatirahayu, Kec. Pd. Melati, Kota Bks, Jawa Barat 17414";"RT.001/RW.003, Jatirahayu, Kec. Pd. Melati, Kota Bks";"PAPUA";"17414";"Indonesia";"";"";"";"-6.2852504";"106.9163397";"https://maps.google.com/?cid=0x0:0x3132afedbf38cd61";""
"komplek housing";"Komplek perumahan";"Komplek Raya Housing (Molek) Blok L3 - ZAIA";"Komplek Raya Housing (Molek No.3 Blok-L, RT.005/RW.011, Jatiwaringin, Kec. Pd. Gede, Kota Bks, Jawa Barat 17411";"RT.005/RW.011, Jatiwaringin, Kec. Pd. Gede, Kota Bks";"PAPUA";"17411";"Indonesia";"";"";"";"-6.2791346";"106.9098178";"https://maps.google.com/?cid=0x0:0x70e05a91fbc23a92";""
"komplek housing";"Komplek perumahan";"Pondok gede housing";"PW69+G7J, Jl. Teratai, RT.005/RW.003, Jatirahayu, Kec. Pd. Melati, Kota Bks, Jawa Barat 17414";"Jl. Teratai, RT.005/RW.003, Jatirahayu, Kec. Pd. Melati, Kota Bks";"PAPUA";"17414";"Indonesia";"";"";"";"-6.2886631";"106.9181392";"https://maps.google.com/?cid=0x0:0xe09247830c5049e9";""
"komplek housing";"Komplek perumahan";"Pondok Gede Housing II";"Housing II, Jl. Raya Hankam, RT.001/RW.004, Jatirahayu, Pondok Gede, Bekasi, West Java";"Kota Bks, Jawa Barat";"PAPUA";"";"Indonesia";"";"";"";"-6.2876701";"106.9147674";"https://maps.google.com/?cid=0x0:0x2a52e601c20d18f2";""
"komplek housing";"komplek housing";"Papua 99564";"Papua";"Papua";"PAPUA";"";"Indonesia";"";"";"";"-4.2226519";"138.3190276";"https://maps.google.com/?cid=0x0:0x12113e40469ed72c";""
"komplek housing";"komplek housing";"Papua";"";"Papua";"PAPUA";"";"Indonesia";"";"";"";"-4.269928";"138.0803529";"https://maps.google.com/?cid=0x0:0xeba94e9c5eefe673";""
"komplek housing";"Komplek perumahan";"puri nirwana residences";"Jalan Puri Nirwana Residences sukaraya karang bahagia, cikarang, Kec. Cikarang Utara, Kabupaten Bekasi, Jawa Barat 17530";"cikarang, Kec. Cikarang Utara, Kabupaten Bekasi";"PAPUA";"17530";"Indonesia";"";"";"";"-6.2452915";"107.1650654";"https://maps.google.com/?cid=0x0:0x785c8ddad06098e9";""
"komplek housing";"Komplek perumahan";"Perumahan Puri nirwana residence,";"Q53G+F85, Jl. Lavender 5 No.23, Sukaraya, Kec. Karangbahagia, Kabupaten Bekasi, Jawa Barat 17530";"Jl. Lavender 5 No.23, Sukaraya, Kec. Karangbahagia, Kabupaten Bekasi";"PAPUA";"17530";"Indonesia";"";"";"";"-6.2445992";"107.1767213";"https://maps.google.com/?cid=0x0:0x569b6a040a641a72";""
"komplek housing";"Komplek perumahan";"Emerald Terrace Jatiasih Blok H26";"Jl. Wibawa Mukti II, RT.006/RW.RT.008, Jatisari, Jatiasih, Bekasi, West Java 17426";"RT.006/RW.RT.008, Jatisari, Jatiasih, Bekasi";"PAPUA";"17426";"Indonesia";" 081290116191";"";"";"-6.3465117";"106.9410169";"https://maps.google.com/?cid=0x0:0x6b9b78427823fecd";""
"komplek housing";"Komplek perumahan";"Griya Nawasena at Sawangan";"HQF7+8PH Perum Griya Nawasena, Bedahan, Kec. Sawangan, Kota Depok, Jawa Barat 16519";"Bedahan, Kec. Sawangan, Kota Depok";"PAPUA";"16519";"Indonesia";" 08568747874";"";"";"-6.4266935";"106.764364";"https://maps.google.com/?cid=0x0:0xe925dc60b28601f3";""
"komplek housing";"Perusahaan Media";"Sukamanah Residence";"Jalan Sukamanah, Sukamanah, Kec. Sukatani, Kabupaten Bekasi, Jawa Barat 17630";"Sukamanah, Kec. Sukatani, Kabupaten Bekasi";"PAPUA";"17630";"Indonesia";"";"";"";"-6.1880961";"107.1659131";"https://maps.google.com/?cid=0x0:0x101a15a49d09cb73";""
"komplek housing";"komplek housing";"Komplek Housing";"Blok Bojong Nangka I, Jl. Ring Rudal Blok Bojong Nangka I No.68, RT.001/RW.007, Jatirahayu, Kec. Pd. Melati, Kota Bks, Jawa Barat 17414";"Jl. Ring Rudal Blok Bojong Nangka I No.68, RT.001/RW.007, Jatirahayu, Kec. Pd. Melati, Kota Bks";"PAPUA";"17414";"Indonesia";"";"";"";"-6.293724";"106.9165114";"https://maps.google.com/?cid=0x0:0x9c50464976dee674";""
"komplek housing";"komplek housing";"Papua 99564";"Papua";"Papua";"PAPUA";"";"Indonesia";"";"";"";"-4.2226519";"138.3190276";"https://maps.google.com/?cid=0x0:0x12113e40469ed72c";""
"komplek housing";"komplek housing";"Papua";"";"Papua";"PAPUA";"";"Indonesia";"";"";"";"-4.269928";"138.0803529";"https://maps.google.com/?cid=0x0:0xeba94e9c5eefe673";""
"komplek housing";"Komplek perumahan";"Pondok Gede Housing II";"Housing II, Jl. Raya Hankam, RT.001/RW.004, Jatirahayu, Pondok Gede, Bekasi, West Java";"Kota Bks, Jawa Barat";"PAPUA";"";"Indonesia";"";"";"";"-6.2876701";"106.9147674";"https://maps.google.com/?cid=0x0:0x2a52e601c20d18f2";""
"komplek housing";"Kantor Perusahaan";"Komplek raya housing blok E";"Komplek raya hosing blok E.6 RT.003/001, Jatiwaringin, Kec. Pd. Gede";"Kota Bks, Jawa Barat";"PAPUA";"";"Indonesia";"";"";"";"-6.2811216";"106.9102168";"https://maps.google.com/?cid=0x0:0x8256ca23a46e5e57";""
"komplek housing";"Konsultan Realestat";"Komplek Raya Housing C-9";"Komplek Raya Jl. Raya Housing No.9 BLOK C, RT.003/RW.001, Jatiwaringin, Kec. Pd. Gede, Kota Bks, Jawa Barat 17411";"RT.003/RW.001, Jatiwaringin, Kec. Pd. Gede, Kota Bks";"PAPUA";"17411";"Indonesia";"";"";"";"-6.2809842";"106.9097473";"https://maps.google.com/?cid=0x0:0x5332830131150540";""
"komplek housing";"Komplek perumahan";"Komplek Bina Lindung";"PWJ5+49V, Jl. Bina Loka, RT.007/RW.011, Jaticempaka, Kec. Pd. Gede, Kota Bks, Jawa Barat 17411";"Jl. Bina Loka, RT.007/RW.011, Jaticempaka, Kec. Pd. Gede, Kota Bks";"PAPUA";"17411";"Indonesia";"";"";"";"-6.2696294";"106.9084203";"https://maps.google.com/?cid=0x0:0x3e834652721e8817";""
"komplek housing";"Komplek perumahan";"Pondok gede housing";"PW69+G7J, Jl. Teratai, RT.005/RW.003, Jatirahayu, Kec. Pd. Melati, Kota Bks, Jawa Barat 17414";"Jl. Teratai, RT.005/RW.003, Jatirahayu, Kec. Pd. Melati, Kota Bks";"PAPUA";"17414";"Indonesia";"";"";"";"-6.2886631";"106.9181392";"https://maps.google.com/?cid=0x0:0xe09247830c5049e9";""
"komplek housing";"Komplek perumahan";"Komplek Raya Housing Blok C No.6";"Jl. Bhineka, RT.006/RW.011, Jatiwaringin, Kec. Pd. Gede, Kota Bks, Jawa Barat 17411";"RT.006/RW.011, Jatiwaringin, Kec. Pd. Gede, Kota Bks";"PAPUA";"17411";"Indonesia";"";"";"";"-6.2813572";"106.9097108";"https://maps.google.com/?cid=0x0:0x8658ae7bd2f9a7a2";""
"komplek housing";"Komplek perumahan";"Komplek Raya Housing Blok O";"PWC5+FRJ, RT.005/RW.011, Jatiwaringin, Kec. Pd. Gede, Kota Bks, Jawa Barat 17411";"RT.005/RW.011, Jatiwaringin, Kec. Pd. Gede, Kota Bks";"PAPUA";"17411";"Indonesia";"";"";"";"-6.278778";"106.9095098";"https://maps.google.com/?cid=0x0:0xb8ccec3d47633fb4";""
"komplek housing";"Komplek perumahan";"Komplek Raya Housing Blok D no.6";"Jl. Raya Housing No.6 Blok D, RT.006/RW.011, Jatiwaringin, Pondok Gede, Bekasi, West Java 17411";"RT.006/RW.011, Jatiwaringin, Pondok Gede, Bekasi";"PAPUA";"17411";"Indonesia";" 0218469215";"";"";"-6.2812011";"106.9100437";"https://maps.google.com/?cid=0x0:0x1c9f453cf5cbab3a";""
"komplek housing";"Komplek perumahan";"Komplek DDN B.23 Jatiwaringin pondok gede";"PW89+4F3, Jl. Cendrawasih, RT.001/RW.010, Jatimakmur, Kec. Pd. Gede, Kota Bks, Jawa Barat 17413";"Jl. Cendrawasih, RT.001/RW.010, Jatimakmur, Kec. Pd. Gede, Kota Bks";"PAPUA";"17413";"Indonesia";"";"";"";"-6.2847437";"106.918686";"https://maps.google.com/?cid=0x0:0x7d3cc1ed6198c39d";""
"komplek housing";"Komplek perumahan";"Winville Residence";"Jl. Lb. Bulus Raya 1 No.50 M, RT.5/RW.1, Lb. Bulus, Kec. Cilandak, Kota Jakarta Selatan, Daerah Khusus Ibukota Jakarta 12440";"RT.5/RW.1, Lb. Bulus, Kec. Cilandak, Kota Jakarta Selatan";"PAPUA";"12440";"Indonesia";"";"";"";"-6.2934011";"106.7823337";"https://maps.google.com/?cid=0x0:0xad76022f5d936dba";""
"komplek housing";"komplek housing";"Komplek Housing";"Blok Bojong Nangka I, Jl. Ring Rudal Blok Bojong Nangka I No.68, RT.001/RW.007, Jatirahayu, Kec. Pd. Melati, Kota Bks, Jawa Barat 17414";"Jl. Ring Rudal Blok Bojong Nangka I No.68, RT.001/RW.007, Jatirahayu, Kec. Pd. Melati, Kota Bks";"PAPUA";"17414";"Indonesia";"";"";"";"-6.293724";"106.9165114";"https://maps.google.com/?cid=0x0:0x9c50464976dee674";""
"komplek housing";"Komplek perumahan";"Komplek Perumahan YPPGI";"8F7J+Q63, Karubaga, Kec. Karubaga, Kabupaten Tolikara, Papua";"Kabupaten Tolikara, Papua";"PAPUA";"";"Indonesia";"";"";"";"-3.6856154";"138.4805518";"https://maps.google.com/?cid=0x0:0x1e996dde1edb3b03";""
"komplek housing";"Pembangunan Perumahan";"Perumahan PEMDA";"8FCG+33Q, Muara, Kec. Karubaga, Kabupaten Tolikara, Papua 99567";"Muara, Kec. Karubaga, Kabupaten Tolikara";"PAPUA";"99567";"Indonesia";"";"";"";"-3.6797785";"138.4752409";"https://maps.google.com/?cid=0x0:0x92f2706a088cac78";""
"komplek housing";"Sekolah Dasar";"SD YPPGI Karubaga";"8F8J+35G, Karubaga, Kec. Karubaga, Kabupaten Tolikara, Papua 99567";"Karubaga, Kec. Karubaga, Kabupaten Tolikara";"PAPUA";"99567";"Indonesia";"";"";"";"-3.6848142";"138.4804659";"https://maps.google.com/?cid=0x0:0x8d7209b01bb6bb3f";""
"komplek housing";"Komplek perumahan";"Pondok Gede Housing II";"Housing II, Jl. Raya Hankam, RT.001/RW.004, Jatirahayu, Pondok Gede, Bekasi, West Java";"Kota Bks, Jawa Barat";"PAPUA";"";"Indonesia";"";"";"";"-6.2876701";"106.9147674";"https://maps.google.com/?cid=0x0:0x2a52e601c20d18f2";""
"komplek housing";"Komplek perumahan";"Komplek DDN B.23 Jatiwaringin pondok gede";"PW89+4F3, Jl. Cendrawasih, RT.001/RW.010, Jatimakmur, Kec. Pd. Gede, Kota Bks, Jawa Barat 17413";"Jl. Cendrawasih, RT.001/RW.010, Jatimakmur, Kec. Pd. Gede, Kota Bks";"PAPUA";"17413";"Indonesia";"";"";"";"-6.2847437";"106.918686";"https://maps.google.com/?cid=0x0:0x7d3cc1ed6198c39d";""
"komplek housing";"Establishment";"Ahzavi Residence Pondok Gede";"PW4J+JHQ, Jl. Celepuk I Ujung, RT.012/RW.014, Jatirahayu, Kec. Pd. Melati, Kota Bks, Jawa Barat 17414";"Jl. Celepuk I Ujung, RT.012/RW.014, Jatirahayu, Kec. Pd. Melati, Kota Bks";"PAPUA";"17414";"Indonesia";"";"";"";"-6.2934194";"106.9314803";"https://maps.google.com/?cid=0x0:0x7b24a580738077da";""
"komplek housing";"Komplek perumahan";"Dusun Wulugima Muliama";"JL. Muhammad Thamrin, No. 23, Miliama, Jaya Wijaya, Kabupaten Jayawijaya, Papua 99566";"No. 23, Miliama, Jaya Wijaya, Kabupaten Jayawijaya";"PAPUA";"99566";"Indonesia";"";"";"";"-3.995781";"138.804016";"https://maps.google.com/?cid=0x0:0x80e0feef2eeaf37";""
"komplek housing";"Komplek perumahan";"Dusun Wendama";"2QJW+H2, Halefa, Muliama, Kabupaten Jayawijaya, Papua";"Kabupaten Jayawijaya, Papua";"PAPUA";"";"Indonesia";"";"";"";"-3.9685256";"138.7950415";"https://maps.google.com/?cid=0x0:0xe7097f2308695e62";""
"komplek housing";"Gedung Apartemen";"Home YUSAK Marthen";"Kompleks Perumahan PU, Jl. Ampera, Persatuan, Kec. Mandobo, Kabupaten Boven Digoel, Papua 99663";"Jl. Ampera, Persatuan, Kec. Mandobo, Kabupaten Boven Digoel";"PAPUA";"99663";"Indonesia";"";"";"";"-6.1163325";"140.3098079";"https://maps.google.com/?cid=0x0:0x58ca23074888b002";""
"komplek housing";"komplek housing";"Distrik Mbulmu Yalma";"Kabupaten Nduga, Papua";"Kabupaten Nduga, Papua";"PAPUA";"";"Indonesia";"";"";"";"-4.225322";"137.8822604";"https://maps.google.com/?cid=0x0:0xb795a4751e629f3d";""
"komplek housing";"komplek housing";"Distrik Mbua Tengah";"Kabupaten Nduga, Papua";"Kabupaten Nduga, Papua";"PAPUA";"";"Indonesia";"";"";"";"-4.4405414";"138.4987208";"https://maps.google.com/?cid=0x0:0x4ed78ad434671583";""
"komplek housing";"Galeri Seni";"Kwegono";"HQP7+X9, Gunia, Distrik Moba, Kabupaten Nduga, Papua";"Kabupaten Nduga, Papua";"PAPUA";"";"Indonesia";"";"";"";"-4.4126188";"138.7634038";"https://maps.google.com/?cid=0x0:0x4d75192bf241b054";""
"komplek housing";"Komplek perumahan";"Kogonggu hom";"WW76+4M8, Honelama, Distrik Wamena, Kabupaten Jayawijaya, Papua";"Kabupaten Jayawijaya, Papua";"PAPUA";"";"Indonesia";"";"";"";"-4.0872224";"138.9117008";"https://maps.google.com/?cid=0x0:0x70f1f6eeb71ac704";""
"komplek housing";"komplek housing";"Embetpen";"Wendama, Kabupaten Nduga, Papua";"Kabupaten Nduga, Papua";"PAPUA";"";"Indonesia";"";"";"";"-4.6491621";"138.5187229";"https://maps.google.com/?cid=0x0:0xbea726e428a60cde";""
"komplek housing";"komplek housing";"Papua 99565";"Kabupaten Nduga, Papua";"Kabupaten Nduga, Papua";"PAPUA";"";"Indonesia";"";"";"";"-4.3888199";"138.4387577";"https://maps.google.com/?cid=0x0:0x3270519a4c3188d3";""
"komplek housing";"komplek housing";"Papua";"";"Papua";"PAPUA";"";"Indonesia";"";"";"";"-4.269928";"138.0803529";"https://maps.google.com/?cid=0x0:0xeba94e9c5eefe673";""
"komplek housing";"Pembangunan Perumahan";"Kav.Aurora Tarumajaya";"VX9R+Q4M, Setiamulya, Kec. Tarumajaya, Kabupaten Bekasi, Jawa Barat";"Kabupaten Bekasi, Jawa Barat";"PAPUA";"";"Indonesia";" 085693589513";"";"";"-6.1305273";"106.9903046";"https://maps.google.com/?cid=0x0:0x2bda62fcaba7b50d";""
"komplek housing";"Kantor Perusahaan";"De Casa Pura";"R384+MRV, Srimukti, Kec. Tambun Utara, Kabupaten Bekasi, Jawa Barat 17510";"Srimukti, Kec. Tambun Utara, Kabupaten Bekasi";"PAPUA";"17510";"Indonesia";" 087843975159";"";"";"-6.1832604";"107.057046";"https://maps.google.com/?cid=0x0:0xfcafadcecaa5d724";""
"komplek housing";"Perumahan rakyat";"perumahan grand city suka diri";"Mekar Kondang, Kec. Sukadiri, Kabupaten Tangerang, Banten";"Kabupaten Tangerang, Banten";"PAPUA";"";"Indonesia";" 081334975359";"";"";"-6.0719614";"106.5742094";"https://maps.google.com/?cid=0x0:0x19a1bcba6adaffc4";""
"komplek housing";"Pembangunan Perumahan";"PERMATA QUEENARA";"Jl. Pertamina, Kedungjaya, Kec. Babelan, Kabupaten Bekasi, Jawa Barat 17610";"Kedungjaya, Kec. Babelan, Kabupaten Bekasi";"PAPUA";"17610";"Indonesia";" 085217605932";"";"";"-6.1351251";"107.0273463";"https://maps.google.com/?cid=0x0:0x8ac0a11c8c0f680d";""
"komplek housing";"Komplek perumahan";"Perumahan Suropati Residence";"Jl. Suropati Raya No.2, Srimukti, Kec. Tambun Utara, Kabupaten Bekasi, Jawa Barat 17510";"Srimukti, Kec. Tambun Utara, Kabupaten Bekasi";"PAPUA";"17510";"Indonesia";" 02189133555";"";"";"-6.1851781";"107.0600533";"https://maps.google.com/?cid=0x0:0x62cbf9f7bf4e5806";""
"komplek housing";"Komplek perumahan";"PREMIER ESTATE 2";"Jl. Raya Kodau, Jatiwarna, Kec. Pd. Melati, Kota Bks, Jawa Barat 17422";"Jatiwarna, Kec. Pd. Melati, Kota Bks";"PAPUA";"17422";"Indonesia";"";"";"";"-6.3022763";"106.9367025";"https://maps.google.com/?cid=0x0:0xeb999add326dbe5d";""
"komplek housing";"Pembangunan Perumahan";"Koperumnas Cibitung Residence";"Perumahan Koperumnas Cibitung Residence, Jl. Kongsi Jagawana, Sukarukun, Kec. Sukatani, Kabupaten Bekasi, Jawa Barat 17630";"Jl. Kongsi Jagawana, Sukarukun, Kec. Sukatani, Kabupaten Bekasi";"PAPUA";"17630";"Indonesia";" 082310293096";"";"";"-6.1485742";"107.0574382";"https://maps.google.com/?cid=0x0:0x985cf7e2553f9303";""
"komplek housing";"Komplek perumahan";"KAV NAMARA";"Kp Bendungan, Satriajaya, Kec. Tambun Utara, Kabupaten Bekasi, Jawa Barat 17510";"Satriajaya, Kec. Tambun Utara, Kabupaten Bekasi";"PAPUA";"17510";"Indonesia";" 085883878665";"";"";"-6.2161975";"107.0554986";"https://maps.google.com/?cid=0x0:0xa0f793ff59b42afa";""
"komplek housing";"Komplek perumahan";"Cluster Cassia - Tarumajaya";"V2P6+4RF, Jl. Tanggul Raya Dusun V, Segarajaya, Kec. Tarumajaya, Kabupaten Bekasi, Jawa Barat 17218";"Jl. Tanggul Raya Dusun V, Segarajaya, Kec. Tarumajaya, Kabupaten Bekasi";"PAPUA";"17218";"Indonesia";"";"";"";"-6.114871";"107.0124568";"https://maps.google.com/?cid=0x0:0xc52061da71877989";""
"komplek housing";"Pembangunan Perumahan";"Pulo Asem Village";"Babelan Kota, Kec. Babelan, Kabupaten Bekasi, Jawa Barat 17610";"Kec. Babelan, Kabupaten Bekasi";"PAPUA";"17610";"Indonesia";" 02188380015";"";"";"-6.1703491";"107.0240224";"https://maps.google.com/?cid=0x0:0xbeb541c6da026527";""
"komplek housing";"Pembangunan Perumahan";"griya mahakarya residence";"R52C+9QP, Sukamanah, Kec. Sukatani, Kabupaten Bekasi, Jawa Barat 17630";"Sukamanah, Kec. Sukatani, Kabupaten Bekasi";"PAPUA";"17630";"Indonesia";" 081385641503";"";"";"-6.1990263";"107.1719394";"https://maps.google.com/?cid=0x0:0xf3bde049f5f360b2";""
"komplek housing";"Komplek perumahan";"Arafah village";"R3C8+MXF, Srijaya, Kec. Tambun Utara, Kabupaten Bekasi, Jawa Barat";"Kabupaten Bekasi, Jawa Barat";"PAPUA";"";"Indonesia";"";"";"";"-6.1783026";"107.067421";"https://maps.google.com/?cid=0x0:0xc5dc1685c8d22ce3";""
"komplek housing";"komplek housing";"Apartment Patra Land Urbano";"Jl. Pintu Air No.29, Marga Mulya, Kec. Bekasi Utara, Kota Bks, Jawa Barat 17142";"Marga Mulya, Kec. Bekasi Utara, Kota Bks";"PAPUA";"17142";"Indonesia";" 0895417300072";"";"";"-6.2345585";"106.9980497";"https://maps.google.com/?cid=0x0:0xf8e2a2ed3cd1b20b";""
"komplek housing";"Museum";"Taman Mini Indonesia Indah";"Jl. Taman Mini Indonesia Indah, Ceger, Kec. Cipayung, Kota Jakarta Timur, Daerah Khusus Ibukota Jakarta 13820";"Ceger, Kec. Cipayung, Kota Jakarta Timur";"PAPUA";"13820";"Indonesia";" 08041789789";"";"";"-6.3020386";"106.8898924";"https://maps.google.com/?cid=0x0:0x73127b9ecf2da0c";""
"komplek housing";"Perusahaan Kereta Api";"Bekasi";"Marga Mulya, Kec. Bekasi Utara, Kota Bks, Jawa Barat";"Kota Bks, Jawa Barat";"PAPUA";"";"Indonesia";"";"";"";"-6.23646";"106.99877";"https://maps.google.com/?cid=0x0:0x6ad4a999fff63886";""
"komplek housing";"Perumahan";"Marigold Lestari";"Sriamur, Kec. Tambun Utara, Kabupaten Bekasi, Jawa Barat 17510";"Kec. Tambun Utara, Kabupaten Bekasi";"PAPUA";"17510";"Indonesia";" 085158707455";"";"";"-6.1876134";"107.0564177";"https://maps.google.com/?cid=0x0:0x7ec1ba584f549e6c";""
"komplek housing";"Pembangunan Perumahan";"Perumahan Calesta Residence";"Perumahan Calesta Residence, Karangsentosa, Karangbahagia, Bekasi Regency, West Java 17530";"Karangsentosa, Karangbahagia, Bekasi Regency";"PAPUA";"17530";"Indonesia";"";"";"";"-6.1949491";"107.1838978";"https://maps.google.com/?cid=0x0:0x496f986a64de8928";""
"komplek housing";"Perusahaan Media";"Sukamanah Residence";"Jalan Sukamanah, Sukamanah, Kec. Sukatani, Kabupaten Bekasi, Jawa Barat 17630";"Sukamanah, Kec. Sukatani, Kabupaten Bekasi";"PAPUA";"17630";"Indonesia";"";"";"";"-6.1880961";"107.1659131";"https://maps.google.com/?cid=0x0:0x101a15a49d09cb73";""
"komplek housing";"Perumahan";"Citra Lake Sawangan";"Citra Lake Sawangan Blok B5. 6-8 Jalan Raya Cinangka Raya Km. 3 Bojongsari Baru, Kedaung, Kec. Sawangan, Kota Depok, Jawa Barat 16516";"Kedaung, Kec. Sawangan, Kota Depok";"PAPUA";"16516";"Indonesia";" 02129213877";"";"";"-6.3815217";"106.7468826";"https://maps.google.com/?cid=0x0:0x9b11c51f867c81ff";""
"komplek housing";"Penginapan";"Pesona Arumaya";"Jl. Bosih Raya No.21, Wanasari, Kec. Cibitung, Kabupaten Bekasi, Jawa Barat 17520";"Wanasari, Kec. Cibitung, Kabupaten Bekasi";"PAPUA";"17520";"Indonesia";" 081992266653";"";"";"-6.2550397";"107.0856927";"https://maps.google.com/?cid=0x0:0x91cd4ee862c1b4ec";""
"komplek housing";"Pembangunan Perumahan";"Grand Sukatani Residence | Rumah Subsidi";"Samping SPBU, Jl. Raya Sukatani Ds. Karangsentosa Kec. Karangbahagia, Karangsentosa, Kec. Sukatani, Kabupaten Bekasi, Jawa Barat 17530";"Jl. Raya Sukatani Ds. Karangsentosa Kec. Karangbahagia, Karangsentosa, Kec. Sukatani, Kabupaten Bekasi";"PAPUA";"17530";"Indonesia";" 085770781020";"";"";"-6.1762892";"107.1778715";"https://maps.google.com/?cid=0x0:0x7905aef5155e06c4";""
"komplek housing";"komplek housing";"Distrik Wusi";"Wusi, Kabupaten Nduga, Papua";"Kabupaten Nduga, Papua";"PAPUA";"";"Indonesia";"";"";"";"-4.5819668";"138.6990679";"https://maps.google.com/?cid=0x0:0x5268fa3467b9b52b";""
"komplek housing";"komplek housing";"Papua";"";"Papua";"PAPUA";"";"Indonesia";"";"";"";"-4.269928";"138.0803529";"https://maps.google.com/?cid=0x0:0xeba94e9c5eefe673";""
"komplek housing";"Komplek perumahan";"Pondok Gede Housing II";"Housing II, Jl. Raya Hankam, RT.001/RW.004, Jatirahayu, Pondok Gede, Bekasi, West Java";"Kota Bks, Jawa Barat";"PAPUA";"";"Indonesia";"";"";"";"-6.2876701";"106.9147674";"https://maps.google.com/?cid=0x0:0x2a52e601c20d18f2";""
"komplek housing";"Pembangunan Perumahan";"WILZI House";"Jl. Setia 1 Gg. Mutaqin II No.2, RT.004/RW.012, Jatiwaringin, Kec. Pd. Gede, Kota Bks, Jawa Barat 17411";"RT.004/RW.012, Jatiwaringin, Kec. Pd. Gede, Kota Bks";"PAPUA";"17411";"Indonesia";"";"";"";"-6.2689651";"106.9189788";"https://maps.google.com/?cid=0x0:0xd3f738024eca8e6c";""
"komplek housing";"Komplek perumahan";"Perumahan Graha Cipta 5 Jejalen";"Jejalenjaya, Kec. Tambun Utara, Kabupaten Bekasi, Jawa Barat 17510";"Kec. Tambun Utara, Kabupaten Bekasi";"PAPUA";"17510";"Indonesia";" 081315755470";"";"";"-6.2098759";"107.0744829";"https://maps.google.com/?cid=0x0:0x4e428bb84a21f83f";""
"komplek housing";"Galeri Seni";"Kwegono";"HQP7+X9, Gunia, Distrik Moba, Kabupaten Nduga, Papua";"Kabupaten Nduga, Papua";"PAPUA";"";"Indonesia";"";"";"";"-4.4126188";"138.7634038";"https://maps.google.com/?cid=0x0:0x4d75192bf241b054";""
"komplek housing";"Komplek perumahan";"Kogonggu hom";"WW76+4M8, Honelama, Distrik Wamena, Kabupaten Jayawijaya, Papua";"Kabupaten Jayawijaya, Papua";"PAPUA";"";"Indonesia";"";"";"";"-4.0872224";"138.9117008";"https://maps.google.com/?cid=0x0:0x70f1f6eeb71ac704";""
"komplek housing";"komplek housing";"Papua";"";"Papua";"PAPUA";"";"Indonesia";"";"";"";"-4.269928";"138.0803529";"https://maps.google.com/?cid=0x0:0xeba94e9c5eefe673";""
"komplek housing";"Komplek perumahan";"Komplek DDN B.23 Jatiwaringin pondok gede";"PW89+4F3, Jl. Cendrawasih, RT.001/RW.010, Jatimakmur, Kec. Pd. Gede, Kota Bks, Jawa Barat 17413";"Jl. Cendrawasih, RT.001/RW.010, Jatimakmur, Kec. Pd. Gede, Kota Bks";"PAPUA";"17413";"Indonesia";"";"";"";"-6.2847437";"106.918686";"https://maps.google.com/?cid=0x0:0x7d3cc1ed6198c39d";""
"komplek housing";"Komplek perumahan";"Perumahan Kyra Residence 3 kantor pemasaran";"Jl. Gudang Bin Ali, Bahagia, Kec. Babelan, Kabupaten Bekasi, Jawa Barat 17610";"Bahagia, Kec. Babelan, Kabupaten Bekasi";"PAPUA";"17610";"Indonesia";" 082112762916";"";"";"-6.1945388";"107.0274494";"https://maps.google.com/?cid=0x0:0x3874af9c9c530e23";""
"komplek housing";"komplek housing";"Perumahan";"Perumahan Jl. Alinda II No.9 blok c3, RT.06/RW.027, Kaliabang Tengah, Kec. Bekasi Utara, Kota Bks, Jawa Barat 17125";"RT.06/RW.027, Kaliabang Tengah, Kec. Bekasi Utara, Kota Bks";"PAPUA";"17125";"Indonesia";"";"";"";"-6.196398";"107.0108123";"https://maps.google.com/?cid=0x0:0x717d52c2e715063b";""
"komplek housing";"komplek housing";"Papua 99565";"Kabupaten Nduga, Papua";"Kabupaten Nduga, Papua";"PAPUA";"";"Indonesia";"";"";"";"-4.3888199";"138.4387577";"https://maps.google.com/?cid=0x0:0x3270519a4c3188d3";""
"komplek housing";"komplek housing";"Papua";"";"Papua";"PAPUA";"";"Indonesia";"";"";"";"-4.269928";"138.0803529";"https://maps.google.com/?cid=0x0:0xeba94e9c5eefe673";""
"komplek housing";"Pengembang Realestat";"Toyota Housing - Bekasi project office";"Mustikasari, Kec. Mustika Jaya, Kota Bks, Jawa Barat 17157";"Kec. Mustika Jaya, Kota Bks";"PAPUA";"17157";"Indonesia";" 02129613195";"";"";"-6.279558";"107.0145725";"https://maps.google.com/?cid=0x0:0x8c5075e2146e018a";""
"komplek housing";"komplek housing";"Vanica Residence";"Jalan Mutiara Gading City.10 Blok SA16/03, Setia Asih, Tarumajaya, Bekasi Regency, West Java 17215";"Setia Asih, Tarumajaya, Bekasi Regency";"PAPUA";"17215";"Indonesia";"";"";"";"-6.1563848";"107.001901";"https://maps.google.com/?cid=0x0:0xa2338efe8bae9ccc";""
"komplek housing";"Komplek perumahan";"Cluster Delima Residence Sumberjaya";"Jl. Pesona Raya, Sumberjaya, Kec. Tambun Sel., Kabupaten Bekasi, Jawa Barat 17510";"Sumberjaya, Kec. Tambun Sel., Kabupaten Bekasi";"PAPUA";"17510";"Indonesia";" 081288840090";"";"";"-6.2189044";"107.074914";"https://maps.google.com/?cid=0x0:0xe61d39cecc818202";""
"komplek housing";"Komplek perumahan";"Kavling rizqi akbar";"Jl. Sengon Timur I, Cijengkol, Kec. Setu, Kabupaten Bekasi, Jawa Barat 17320";"Cijengkol, Kec. Setu, Kabupaten Bekasi";"PAPUA";"17320";"Indonesia";" 087763482004";"";"";"-6.3311678";"107.0442377";"https://maps.google.com/?cid=0x0:0x88fd42d67a10852e";""
"komplek housing";"Pembangunan Perumahan";"TERA DAMAI by Harapan Indah";"Jl.Green City No.1, Sriamur, Kec. Tambun Utara, Kabupaten Bekasi, Jawa Barat 17510";"Sriamur, Kec. Tambun Utara, Kabupaten Bekasi";"PAPUA";"17510";"Indonesia";" 08111121004";"";"";"-6.1715187";"107.0495065";"https://maps.google.com/?cid=0x0:0x44ed8e40ce9abd4a";""
"komplek housing";"komplek housing";"Komplek Housing";"Blok Bojong Nangka I, Jl. Ring Rudal Blok Bojong Nangka I No.68, RT.001/RW.007, Jatirahayu, Kec. Pd. Melati, Kota Bks, Jawa Barat 17414";"Jl. Ring Rudal Blok Bojong Nangka I No.68, RT.001/RW.007, Jatirahayu, Kec. Pd. Melati, Kota Bks";"PAPUA";"17414";"Indonesia";"";"";"";"-6.293724";"106.9165114";"https://maps.google.com/?cid=0x0:0x9c50464976dee674";""
"komplek housing";"komplek housing";"Papua 99564";"Papua";"Papua";"PAPUA";"";"Indonesia";"";"";"";"-4.2226519";"138.3190276";"https://maps.google.com/?cid=0x0:0x12113e40469ed72c";""
"komplek housing";"komplek housing";"Papua";"";"Papua";"PAPUA";"";"Indonesia";"";"";"";"-4.269928";"138.0803529";"https://maps.google.com/?cid=0x0:0xeba94e9c5eefe673";""
"komplek housing";"Komplek perumahan";"Komplek Perumahan YPPGI";"8F7J+Q63, Karubaga, Kec. Karubaga, Kabupaten Tolikara, Papua";"Kabupaten Tolikara, Papua";"PAPUA";"";"Indonesia";"";"";"";"-3.6856154";"138.4805518";"https://maps.google.com/?cid=0x0:0x1e996dde1edb3b03";""
"komplek housing";"Perhimpunan Pengembang Perumahan";"Rumah Cantik";"Jl. Narogong Ceria raya blok d142 no 8, Pengasinan, Bekasi, West Java";"Kota Bks, Jawa Barat";"PAPUA";"";"Indonesia";"";"";"";"-6.2803168";"107.009965";"https://maps.google.com/?cid=0x0:0xda06260c8a5a5df2";""
"komplek housing";"Komplek perumahan";"Kantor Pemasaran Wahana Pondok Ungu";"Jl. Pulo Timaha, Babelan Kota, Kec. Babelan, Kabupaten Bekasi, Jawa Barat 17610";"Babelan Kota, Kec. Babelan, Kabupaten Bekasi";"PAPUA";"17610";"Indonesia";" 081285511195";"";"";"-6.1604121";"107.0165734";"https://maps.google.com/?cid=0x0:0xa604dbf48251fa41";""
"komplek housing";"komplek housing";"Komplek Housing";"Blok Bojong Nangka I, Jl. Ring Rudal Blok Bojong Nangka I No.68, RT.001/RW.007, Jatirahayu, Kec. Pd. Melati, Kota Bks, Jawa Barat 17414";"Jl. Ring Rudal Blok Bojong Nangka I No.68, RT.001/RW.007, Jatirahayu, Kec. Pd. Melati, Kota Bks";"PAPUA";"17414";"Indonesia";"";"";"";"-6.293724";"106.9165114";"https://maps.google.com/?cid=0x0:0x9c50464976dee674";""
"komplek housing";"komplek housing";"Papua 99564";"Papua";"Papua";"PAPUA";"";"Indonesia";"";"";"";"-4.2226519";"138.3190276";"https://maps.google.com/?cid=0x0:0x12113e40469ed72c";""
"komplek housing";"komplek housing";"Papua";"";"Papua";"PAPUA";"";"Indonesia";"";"";"";"-4.269928";"138.0803529";"https://maps.google.com/?cid=0x0:0xeba94e9c5eefe673";""
"komplek housing";"Perumahan";"GEMILANG NUANSA VERDANA";"Jl. Raya Batok, Batok, Kec. Tenjo, Kabupaten Bogor, Jawa Barat 16370";"Batok, Kec. Tenjo, Kabupaten Bogor";"PAPUA";"16370";"Indonesia";" 081545854526";"";"";"-6.3591159";"106.4997476";"https://maps.google.com/?cid=0x0:0xc7533e78cc381aea";""
"komplek housing";"komplek housing";"Papua";"";"Papua";"PAPUA";"";"Indonesia";"";"";"";"-4.269928";"138.0803529";"https://maps.google.com/?cid=0x0:0xeba94e9c5eefe673";""
"komplek housing";"komplek housing";"Papua 99565";"Kabupaten Nduga, Papua";"Kabupaten Nduga, Papua";"PAPUA";"";"Indonesia";"";"";"";"-4.3888199";"138.4387577";"https://maps.google.com/?cid=0x0:0x3270519a4c3188d3";""
"komplek housing";"Komplek perumahan";"Komplek Abadi";"Jl. Kolonel Sugiono No.64, RT.5/RW.4, Duren Sawit, Kec. Duren Sawit, Kota Jakarta Timur, Daerah Khusus Ibukota Jakarta 13440";"RT.5/RW.4, Duren Sawit, Kec. Duren Sawit, Kota Jakarta Timur";"PAPUA";"13440";"Indonesia";"";"";"";"-6.2263602";"106.9090587";"https://maps.google.com/?cid=0x0:0x411a933e73c7ea82";""
"komplek housing";"komplek housing";"Pasir Putih";"Kec. Sawangan, Kota Depok, Jawa Barat";"Kota Depok, Jawa Barat";"PAPUA";"";"Indonesia";"";"";"";"-6.4246452";"106.7831967";"https://maps.google.com/?cid=0x0:0x6c30fbecac2b5871";""
"komplek housing";"komplek housing";"Papua";"";"Papua";"PAPUA";"";"Indonesia";"";"";"";"-4.269928";"138.0803529";"https://maps.google.com/?cid=0x0:0xeba94e9c5eefe673";""
"komplek housing";"Otoritas Perumahan";"Hasanah Village Pasir Putih";"HQ6P+W3X, Jl. Garuda 2, Pasir Putih, Kec. Sawangan, Kota Depok, Jawa Barat 16519";"Jl. Garuda 2, Pasir Putih, Kec. Sawangan, Kota Depok";"PAPUA";"16519";"Indonesia";" 08121811616";"";"";"-6.4375687";"106.7851688";"https://maps.google.com/?cid=0x0:0x3ad363e09d3efeaa";""
"komplek housing";"Otoritas Perumahan";"Komplek TNI AL Pasir Putih Permai";"HQ7P+6W7, Pasir Putih, Kec. Sawangan, Kota Depok, Jawa Barat 16519";"Pasir Putih, Kec. Sawangan, Kota Depok";"PAPUA";"16519";"Indonesia";"";"";"";"-6.4369675";"106.7873108";"https://maps.google.com/?cid=0x0:0xe3824905da71f085";""
"komplek housing";"Perumahan";"Perumahan";"Jl. Garuda 4, Pasir Putih, Kec. Sawangan, Kota Depok, Jawa Barat 16519";"Pasir Putih, Kec. Sawangan, Kota Depok";"PAPUA";"16519";"Indonesia";"";"";"";"-6.4366005";"106.7842659";"https://maps.google.com/?cid=0x0:0x79e9329bf151074b";""
"komplek housing";"Pembangunan Perumahan";"Perumahan Al-Fatih Property";"HQHF+JWV, Pasir Putih, Kec. Sawangan, Kota Depok, Jawa Barat 16519";"Pasir Putih, Kec. Sawangan, Kota Depok";"PAPUA";"16519";"Indonesia";" 087886825571";"";"";"-6.422237";"106.7743129";"https://maps.google.com/?cid=0x0:0xe357358df2bf8e3e";""
"komplek housing";"Komplek perumahan";"Perumahan";"Jl. Kupu Bombay, Pasir Putih, Kec. Sawangan, Kota Depok, Jawa Barat 16519";"Pasir Putih, Kec. Sawangan, Kota Depok";"PAPUA";"16519";"Indonesia";"";"";"";"-6.4288747";"106.7829936";"https://maps.google.com/?cid=0x0:0xedea4e31293ec486";""
"komplek housing";"Komplek perumahan";"Villa Pasir Putih 5 PIK2";"XMGH+8X, Muara, Kec. Teluknaga, Kabupaten Tangerang, Banten";"Kabupaten Tangerang, Banten";"PAPUA";"";"Indonesia";" 087877058577";"";"";"-6.0241498";"106.679996";"https://maps.google.com/?cid=0x0:0x54e7d5ca33803d1e";""
"komplek housing";"Perumahan";"Pasir Putih Residence";"Jl. Kupu Bombay No.RT. 01/05, RT.01/RW.05, Pasir Putih, Kec. Sawangan, Kota Depok, Jawa Barat 16519";"RT.01/RW.05, Pasir Putih, Kec. Sawangan, Kota Depok";"PAPUA";"16519";"Indonesia";" 081915555147";"";"";"-6.4292288";"106.7813834";"https://maps.google.com/?cid=0x0:0xe73de7291bdcfbd1";""
"komplek housing";"komplek housing";"Papua";"";"Papua";"PAPUA";"";"Indonesia";"";"";"";"-4.269928";"138.0803529";"https://maps.google.com/?cid=0x0:0xeba94e9c5eefe673";""
"komplek housing";"Otoritas Perumahan";"Komplek TNI AL Pasir Putih Permai";"HQ7P+6W7, Pasir Putih, Kec. Sawangan, Kota Depok, Jawa Barat 16519";"Pasir Putih, Kec. Sawangan, Kota Depok";"PAPUA";"16519";"Indonesia";"";"";"";"-6.4369675";"106.7873108";"https://maps.google.com/?cid=0x0:0xe3824905da71f085";""
"komplek housing";"Otoritas Perumahan";"Hasanah Village Pasir Putih";"HQ6P+W3X, Jl. Garuda 2, Pasir Putih, Kec. Sawangan, Kota Depok, Jawa Barat 16519";"Jl. Garuda 2, Pasir Putih, Kec. Sawangan, Kota Depok";"PAPUA";"16519";"Indonesia";" 08121811616";"";"";"-6.4375687";"106.7851688";"https://maps.google.com/?cid=0x0:0x3ad363e09d3efeaa";""
"komplek housing";"Perumahan";"Perumahan";"Jl. Garuda 4, Pasir Putih, Kec. Sawangan, Kota Depok, Jawa Barat 16519";"Pasir Putih, Kec. Sawangan, Kota Depok";"PAPUA";"16519";"Indonesia";"";"";"";"-6.4366005";"106.7842659";"https://maps.google.com/?cid=0x0:0x79e9329bf151074b";""
"komplek housing";"Pembangunan Perumahan";"Perumahan Al-Fatih Property";"HQHF+JWV, Pasir Putih, Kec. Sawangan, Kota Depok, Jawa Barat 16519";"Pasir Putih, Kec. Sawangan, Kota Depok";"PAPUA";"16519";"Indonesia";" 087886825571";"";"";"-6.422237";"106.7743129";"https://maps.google.com/?cid=0x0:0xe357358df2bf8e3e";""
"komplek housing";"Komplek perumahan";"Perumahan";"Jl. Kupu Bombay, Pasir Putih, Kec. Sawangan, Kota Depok, Jawa Barat 16519";"Pasir Putih, Kec. Sawangan, Kota Depok";"PAPUA";"16519";"Indonesia";"";"";"";"-6.4288747";"106.7829936";"https://maps.google.com/?cid=0x0:0xedea4e31293ec486";""
"komplek housing";"Komplek perumahan";"Perumahan Kyra Residence 3 kantor pemasaran";"Jl. Gudang Bin Ali, Bahagia, Kec. Babelan, Kabupaten Bekasi, Jawa Barat 17610";"Bahagia, Kec. Babelan, Kabupaten Bekasi";"PAPUA";"17610";"Indonesia";" 082112762916";"";"";"-6.1945388";"107.0274494";"https://maps.google.com/?cid=0x0:0x3874af9c9c530e23";""
"komplek housing";"Agen Properti";"Rumah Murah";"Jl. Raya Pasir Putih, Pasir Putih, Kec. Sawangan, Kota Depok, Jawa Barat 16519";"Pasir Putih, Kec. Sawangan, Kota Depok";"PAPUA";"16519";"Indonesia";" 089526117421";"";"";"-6.4218515";"106.7828606";"https://maps.google.com/?cid=0x0:0xfe4060728c01fd95";""
"komplek housing";"komplek housing";"Perumahan";"Perumahan Jl. Alinda II No.9 blok c3, RT.06/RW.027, Kaliabang Tengah, Kec. Bekasi Utara, Kota Bks, Jawa Barat 17125";"RT.06/RW.027, Kaliabang Tengah, Kec. Bekasi Utara, Kota Bks";"PAPUA";"17125";"Indonesia";"";"";"";"-6.196398";"107.0108123";"https://maps.google.com/?cid=0x0:0x717d52c2e715063b";""
"komplek housing";"Komplek perumahan";"Cluster Kyra Taruma Jaya";"VX5X+R3V, Jl. Pahlawan Setia, Pahlawan Setia, Kec. Tarumajaya, Kabupaten Bekasi, Jawa Barat 17216";"Jl. Pahlawan Setia, Pahlawan Setia, Kec. Tarumajaya, Kabupaten Bekasi";"PAPUA";"17216";"Indonesia";" 089655979719";"";"";"-6.1403838";"106.9976826";"https://maps.google.com/?cid=0x0:0x39d254a570c4a3dd";""
"komplek housing";"Kantor Perusahaan";"Grand Sukamulya Cisauk";"Jalan kampung Leuwiranji, Sukamulya, Kec. Rumpin, Kabupaten Bogor, Jawa Barat 16350";"Sukamulya, Kec. Rumpin, Kabupaten Bogor";"PAPUA";"16350";"Indonesia";" 085780881004";"";"";"-6.3721068";"106.6459588";"https://maps.google.com/?cid=0x0:0x13e210069e886101";""
"komplek housing";"Komplek perumahan";"Rumah baru";"JP4R+7RC Jl.MADU. POK INDUN, Bojongsari Baru, Kec. Sawangan, Kota Depok, Jawa Barat 16516";"Bojongsari Baru, Kec. Sawangan, Kota Depok";"PAPUA";"16516";"Indonesia";"";"";"";"-6.3943123";"106.7420176";"https://maps.google.com/?cid=0x0:0x2798bed33ab12de5";""
"perumahan";"perumahan";"Kec. Kenyam";"Kenyam, Kabupaten Nduga, Papua";"Kabupaten Nduga, Papua";"PAPUA";"";"Indonesia";"";"";"";"-4.6049794";"138.3863687";"https://maps.google.com/?cid=0x0:0x4da75a927488f879";""
"perumahan";"perumahan";"Sinar damai Favian";"Kenyam, Kec. Kenyam, Kabupaten Nduga, Papua";"Kabupaten Nduga, Papua";"PAPUA";"";"Indonesia";" 082133725597";"";"";"-4.6092963";"138.3915645";"https://maps.google.com/?cid=0x0:0xea1736c70027f29e";""
"perumahan";"perumahan";"Distrik Mapenduma";"Kabupaten Nduga, Papua";"Kabupaten Nduga, Papua";"PAPUA";"";"Indonesia";"";"";"";"-4.4847854";"138.2194523";"https://maps.google.com/?cid=0x0:0xbbd1e73ab9baafad";""
"perumahan";"perumahan";"Sinar damai Favian";"Kenyam, Kec. Kenyam, Kabupaten Nduga, Papua";"Kabupaten Nduga, Papua";"PAPUA";"";"Indonesia";" 082133725597";"";"";"-4.6092963";"138.3915645";"https://maps.google.com/?cid=0x0:0xea1736c70027f29e";""
"perumahan";"perumahan";"Kec. Yigi";"Kabupaten Nduga, Papua";"Kabupaten Nduga, Papua";"PAPUA";"";"Indonesia";"";"";"";"-4.2284373";"138.3994114";"https://maps.google.com/?cid=0x0:0x4ea4fc47be3c606c";""
"perumahan";"perumahan";"Yigi";"Kec. Yigi, Kabupaten Nduga, Papua";"Kabupaten Nduga, Papua";"PAPUA";"";"Indonesia";"";"";"";"-4.2022358";"138.3688834";"https://maps.google.com/?cid=0x0:0xb481a2cdf13e34f7";""
"perumahan";"Toko";"Perum BWI 2";"Waringinjaya, Kec. Kedungwaringin, Kabupaten Bekasi, Jawa Barat 17540";"Kec. Kedungwaringin, Kabupaten Bekasi";"PAPUA";"17540";"Indonesia";"";"";"";"-6.2609582";"107.2362955";"https://maps.google.com/?cid=0x0:0x506f6aafe056a15a";""
"perumahan";"Galeri Seni";"Kwegono";"HQP7+X9, Gunia, Distrik Moba, Kabupaten Nduga, Papua";"Kabupaten Nduga, Papua";"PAPUA";"";"Indonesia";"";"";"";"-4.4126188";"138.7634038";"https://maps.google.com/?cid=0x0:0x4d75192bf241b054";""
"perumahan";"Komplek perumahan";"Kogonggu hom";"WW76+4M8, Honelama, Distrik Wamena, Kabupaten Jayawijaya, Papua";"Kabupaten Jayawijaya, Papua";"PAPUA";"";"Indonesia";"";"";"";"-4.0872224";"138.9117008";"https://maps.google.com/?cid=0x0:0x70f1f6eeb71ac704";""
"perumahan";"perumahan";"Distrik Wosak";"Kabupaten Nduga, Papua";"Kabupaten Nduga, Papua";"PAPUA";"";"Indonesia";"";"";"";"-4.3506081";"138.5787728";"https://maps.google.com/?cid=0x0:0x6b833bac9829e280";""
"perumahan";"perumahan";"Papua 99564";"Papua";"Papua";"PAPUA";"";"Indonesia";"";"";"";"-4.2226519";"138.3190276";"https://maps.google.com/?cid=0x0:0x12113e40469ed72c";""
"perumahan";"Perusahaan Konstruksi";"Perumahan Koramil Sinakma";"VWVJ+WHW, Hurekama, Distrik Wamena, Kabupaten Jayawijaya, Papua 99511";"Hurekama, Distrik Wamena, Kabupaten Jayawijaya";"PAPUA";"99511";"Indonesia";"";"";"";"-4.105891";"138.9311934";"https://maps.google.com/?cid=0x0:0x9b944dbed46d5a74";""
"perumahan";"Komplek perumahan";"Kampung Ilim";"2864+H7, Ilim, Distrik Goa Balim, Kabupaten Lanny Jaya, Papua";"Kabupaten Lanny Jaya, Papua";"PAPUA";"";"Indonesia";"";"";"";"-3.9885625";"138.3056875";"https://maps.google.com/?cid=0x0:0x10fc243d3250ccc2";""
"perumahan";"Komplek perumahan";"Kampung Gelokme";"4MHW+F2, Yudani, Distrik Gamelia, Kabupaten Lanny Jaya, Papua";"Kabupaten Lanny Jaya, Papua";"PAPUA";"";"Indonesia";"";"";"";"-3.8713704";"138.6950346";"https://maps.google.com/?cid=0x0:0x9222d03252908fdd";""
"perumahan";"Komplek perumahan";"Kel londam Marpaung";"WW5W+G33, Wamena Kota, Distrik Wamena, Kabupaten Jayawijaya, Papua 99511";"Wamena Kota, Distrik Wamena, Kabupaten Jayawijaya";"PAPUA";"99511";"Indonesia";"";"";"";"-4.091078";"138.945216";"https://maps.google.com/?cid=0x0:0x17457d9e65353475";""
"perumahan";"Komplek perumahan";"BOLOBA KARUME";"X7H5+63, Tinggipura, Kec. Kuyawage, Kabupaten Lanny Jaya, Papua";"Kabupaten Lanny Jaya, Papua";"PAPUA";"";"Indonesia";"";"";"";"-4.0219375";"138.2576875";"https://maps.google.com/?cid=0x0:0xeca1a5f89b782572";""
"perumahan";"Perhimpunan Pengembang Perumahan";"Kel.N.Wonda";"3FC3+FP2, werime, Kec. Yiginua, Kabupaten Lanny Jaya, Papua 99567";"werime, Kec. Yiginua, Kabupaten Lanny Jaya";"PAPUA";"99567";"Indonesia";" 082302971058";"";"";"-3.9296572";"138.4541367";"https://maps.google.com/?cid=0x0:0x937f2157df8c1495";""
"perumahan";"Galeri Seni";"Karogime gelok muara";"WWMH+3JR, Jl.Hom-hom, karogime, Distrik Wamena, Kabupaten Jayawijaya, Papua";"Kabupaten Jayawijaya, Papua";"PAPUA";"";"Indonesia";"";"";"";"-4.0672683";"138.9290249";"https://maps.google.com/?cid=0x0:0x5c2e084d6003ce4";""
"perumahan";"Komplek perumahan";"Elos Wanena";"4C4F+93, Gubo, Distrik Tiomneri, Kabupaten Lanny Jaya, Papua 99567";"Gubo, Distrik Tiomneri, Kabupaten Lanny Jaya";"PAPUA";"99567";"Indonesia";"";"";"";"-3.8934318";"138.4237614";"https://maps.google.com/?cid=0x0:0x2f573e404c686333";""
"perumahan";"Komplek perumahan";"DSG";"VWWG+7R, Hurekama, Distrik Wamena, Kabupaten Jayawijaya, Papua";"Kabupaten Jayawijaya, Papua";"PAPUA";"";"Indonesia";" 082113574052";"";"";"-4.104343";"138.927108";"https://maps.google.com/?cid=0x0:0x2ee62cc3d45bccc7";""
"perumahan";"Komplek perumahan";"Unggeme";"3FJ2+PC, Oyi, Distrik Tiom, Kabupaten Lanny Jaya, Papua";"Kabupaten Lanny Jaya, Papua";"PAPUA";"";"Indonesia";"";"";"";"-3.9182145";"138.4511039";"https://maps.google.com/?cid=0x0:0xed65eb9c9981dfbe";""
"perumahan";"Komplek perumahan";"Manda";"WWGP+F2P, Manda, Distrik Bugi, Kabupaten Jayawijaya, Papua";"Kabupaten Jayawijaya, Papua";"PAPUA";"";"Indonesia";"";"";"";"-4.0737862";"138.9350934";"https://maps.google.com/?cid=0x0:0x7c3a4c1783678d75";""
"perumahan";"Pembangunan Perumahan";"Kampung Yabenda Distrik Koragi";"WQXR+JR9, Ibele, Distrik Bpiri, Kabupaten Jayawijaya, Papua";"Kabupaten Jayawijaya, Papua";"PAPUA";"";"Indonesia";"";"";"";"-4.0509708";"138.7921043";"https://maps.google.com/?cid=0x0:0xe39a96c6fc7831a3";""
"perumahan";"Komplek perumahan";"Kirlunggama";"3QQM+VCC, Walak, Asologaima, Kabupaten Jayawijaya, Papua 99555";"Walak, Asologaima, Kabupaten Jayawijaya";"PAPUA";"99555";"Indonesia";"";"";"";"-3.9103137";"138.7835123";"https://maps.google.com/?cid=0x0:0xa8769c8873dba39";""
"perumahan";"Komplek perumahan";"TANAH ADAT MILIK AL.ABUGWE WEYA";"Jl. Inggen Wanena Kampung Milinggame Distrik Tiomneri Kabupaten Lanny jaya Propinsi Papua Pengunungan, 99595";"Kabupaten Lanny Jaya, Papua";"PAPUA";"";"Indonesia";"";"";"";"-3.8890253";"138.4165087";"https://maps.google.com/?cid=0x0:0x147c9d9f1fe5002f";""
"perumahan";"Pembangunan Perumahan";"Welco";"VW64+CJX, Walesi, Distrik Silo Karno Doga, Kabupaten Jayawijaya, Papua 99511";"Walesi, Distrik Silo Karno Doga, Kabupaten Jayawijaya";"PAPUA";"99511";"Indonesia";"";"";"";"-4.1388754";"138.9065982";"https://maps.google.com/?cid=0x0:0xebbca37477ea1f3f";""
"perumahan";"Komplek perumahan";"Rumah Ne' Ebggo";"WW3P+3HQ, Jl. Irian, Hurekama, Distrik Wamena, Kabupaten Jayawijaya, Papua 99511";"Jl. Irian, Hurekama, Distrik Wamena, Kabupaten Jayawijaya";"PAPUA";"99511";"Indonesia";"";"";"";"-4.0972996";"138.936482";"https://maps.google.com/?cid=0x0:0xb713166e015f9404";""
"perumahan";"Kantor Pemerintah Distrik";"agandugume";"3WW9+XC, Jiwot, Distrik Agandugume, Kabupaten Puncak, Papua";"Kabupaten Puncak, Papua";"PAPUA";"";"Indonesia";"";"";"";"-3.9025963";"137.9185611";"https://maps.google.com/?cid=0x0:0x4b89b094ac97b33a";""
"perumahan";"Pembangunan Perumahan";"JUGANIGIN";"3H5J+7WX, Kimbo, Kec. Makki, Kabupaten Lanny Jaya, Papua 99567";"Kimbo, Kec. Makki, Kabupaten Lanny Jaya";"PAPUA";"99567";"Indonesia";"";"";"";"-3.9417703";"138.5823577";"https://maps.google.com/?cid=0x0:0xdb748fdee5b62749";""
"perumahan";"Komplek perumahan";"RUMAH ZELL";"VWWJ+RP9, Wamena Kota, Distrik Wamena, Kabupaten Jayawijaya, Papua";"Kabupaten Jayawijaya, Papua";"PAPUA";"";"Indonesia";"";"";"";"-4.1029625";"138.9318594";"https://maps.google.com/?cid=0x0:0xfac80b2f9f22a73d";""
"perumahan";"perumahan";"Hitigima, kompleks Oikama";"WW4X+45X, Wamena Kota, Distrik Wamena, Kabupaten Jayawijaya, Papua 99511";"Wamena Kota, Distrik Wamena, Kabupaten Jayawijaya";"PAPUA";"99511";"Indonesia";"";"";"";"-4.0946449";"138.9479959";"https://maps.google.com/?cid=0x0:0x14eee23b1c164ed0";""
"perumahan";"Komplek perumahan";"Husaqal abila";"XXJ6+R8, Mulima, Kec. Kurulu, Kabupaten Jayawijaya, Papua";"Kabupaten Jayawijaya, Papua";"PAPUA";"";"Indonesia";"";"";"";"-4.0178934";"138.9608479";"https://maps.google.com/?cid=0x0:0x170a0ba63e8ffa1a";""
"perumahan";"Pertanian";"Karunggame";"VXW5+PJ, Ketimavit, Distrik Piramid, Kabupaten Jayawijaya, Papua";"Kabupaten Jayawijaya, Papua";"PAPUA";"";"Indonesia";"";"";"";"-4.1033172";"138.9590803";"https://maps.google.com/?cid=0x0:0x354afc98c87092ef";""
"perumahan";"Pembangunan Perumahan";"GNPK SINAPUK WAMENA";"WW6R+QP4, Jl. Hom-Hom, Kama, Distrik Wamena, Kabupaten Jayawijaya, Papua 99511";"Jl. Hom-Hom, Kama, Distrik Wamena, Kabupaten Jayawijaya";"PAPUA";"99511";"Indonesia";" 081247645647";"";"";"-4.0881111";"138.9418266";"https://maps.google.com/?cid=0x0:0xe4b23ea437d113d9";""
"perumahan";"Komplek perumahan";"Kompleks Rumah Dinas III, KPPN Wamena";"WW3Q+PG8, Jl. Irian, Hurekama, Distrik Wamena, Kabupaten Jayawijaya, Papua 99511";"Jl. Irian, Hurekama, Distrik Wamena, Kabupaten Jayawijaya";"PAPUA";"99511";"Indonesia";" 085244985655";"";"";"-4.0957184";"138.9388323";"https://maps.google.com/?cid=0x0:0x7c02eb7bf3530faf";""
"perumahan";"perumahan";"Distrik Mugi";"Mugi, Kabupaten Nduga, Papua";"Kabupaten Nduga, Papua";"PAPUA";"";"Indonesia";"";"";"";"-4.2798832";"138.3489356";"https://maps.google.com/?cid=0x0:0x9a4568001d69065b";""
"perumahan";"perumahan";"Mugi";"Distrik Mugi, Kabupaten Nduga, Papua";"Kabupaten Nduga, Papua";"PAPUA";"";"Indonesia";"";"";"";"-4.2798832";"138.3489356";"https://maps.google.com/?cid=0x0:0xefdd2d670bec7206";""
"perumahan";"perumahan";"Papua 99564";"Papua";"Papua";"PAPUA";"";"Indonesia";"";"";"";"-4.2226519";"138.3190276";"https://maps.google.com/?cid=0x0:0x12113e40469ed72c";""
"perumahan";"Pembangunan Perumahan";"RUMAH MUGNI";"Jl. Kp. Pelaukan No.74, RT.2/RW.1, Sukaraya, Kec. Karangbahagia, Kabupaten Bekasi, Jawa Barat 17530";"RT.2/RW.1, Sukaraya, Kec. Karangbahagia, Kabupaten Bekasi";"PAPUA";"17530";"Indonesia";"";"";"";"-6.2266131";"107.1706032";"https://maps.google.com/?cid=0x0:0xc6aeefb2dedab7bb";""
"perumahan";"perumahan";"Distrik Mugi";"Mugi, Kabupaten Nduga, Papua";"Kabupaten Nduga, Papua";"PAPUA";"";"Indonesia";"";"";"";"-4.2798832";"138.3489356";"https://maps.google.com/?cid=0x0:0x9a4568001d69065b";""
"perumahan";"perumahan";"Mugi";"Distrik Mugi, Kabupaten Nduga, Papua";"Kabupaten Nduga, Papua";"PAPUA";"";"Indonesia";"";"";"";"-4.2798832";"138.3489356";"https://maps.google.com/?cid=0x0:0xefdd2d670bec7206";""
"perumahan";"Pusat Kesehatan Masyarakat";"PUSKESMAS MUGI KABUPATEN YAHUKIMO";"M2FP+7V6, Panyoke, Distrik Mugi, Kabupaten Yahukimo, Papua 99571";"Panyoke, Distrik Mugi, Kabupaten Yahukimo";"PAPUA";"99571";"Indonesia";"";"";"";"-4.3268254";"139.0371514";"https://maps.google.com/?cid=0x0:0x20527a8ffa70d3ce";""
"perumahan";"perumahan";"Papua 99564";"Papua";"Papua";"PAPUA";"";"Indonesia";"";"";"";"-4.2226519";"138.3190276";"https://maps.google.com/?cid=0x0:0x12113e40469ed72c";""
"perumahan";"perumahan";"Distrik Gearek";"Kabupaten Nduga, Papua";"Kabupaten Nduga, Papua";"PAPUA";"";"Indonesia";"";"";"";"-4.6431503";"138.6589406";"https://maps.google.com/?cid=0x0:0x283028961cf7ed7a";""
"perumahan";"perumahan";"Papua 99564";"Papua";"Papua";"PAPUA";"";"Indonesia";"";"";"";"-4.2226519";"138.3190276";"https://maps.google.com/?cid=0x0:0x12113e40469ed72c";""
"perumahan";"perumahan";"Papua 99564";"Papua";"Papua";"PAPUA";"";"Indonesia";"";"";"";"-4.2226519";"138.3190276";"https://maps.google.com/?cid=0x0:0x12113e40469ed72c";""
"perumahan";"Komplek perumahan";"Cluster Pesona Pasawahan Indah";"Jl. Pemuda II, Margasari, Kec. Pasawahan, Kabupaten Purwakarta, Jawa Barat 41172";"Margasari, Kec. Pasawahan, Kabupaten Purwakarta";"PAPUA";"41172";"Indonesia";" 081213412388";"";"";"-6.5630735";"107.4679013";"https://maps.google.com/?cid=0x0:0x57eafdeaa65568e2";""
"perumahan";"perumahan";"Papua 99564";"Papua";"Papua";"PAPUA";"";"Indonesia";"";"";"";"-4.2226519";"138.3190276";"https://maps.google.com/?cid=0x0:0x12113e40469ed72c";""
"perumahan";"Komplek perumahan";"Perumahan mutiara sampurna";"Perumahan sukamanah residence, Blk. B5 No.7, Sukadami, Cikarang Sel., Kabupaten Bekasi, Jawa Barat 17330";"Blk. B5 No.7, Sukadami, Cikarang Sel., Kabupaten Bekasi";"PAPUA";"17330";"Indonesia";" 081384593308";"";"";"-6.3785752";"107.0884921";"https://maps.google.com/?cid=0x0:0x852b7fa64abb350";""
"perumahan";"Komplek perumahan";"Saung Kebon CKM";"M992+HPG, Bengle, Kec. Majalaya, Karawang, Jawa Barat 41371";"Bengle, Kec. Majalaya, Karawang";"PAPUA";"41371";"Indonesia";" 085719495911";"";"";"-6.3310568";"107.3518422";"https://maps.google.com/?cid=0x0:0xd3054fe32debe623";""
"perumahan";"perumahan";"Papua 99564";"Papua";"Papua";"PAPUA";"";"Indonesia";"";"";"";"-4.2226519";"138.3190276";"https://maps.google.com/?cid=0x0:0x12113e40469ed72c";""
"perumahan";"Otoritas Perumahan";"Perumahan saung kebun ckm city";"Bengle, Kec. Karawang Tim., Karawang, Jawa Barat";"Karawang, Jawa Barat";"PAPUA";"";"Indonesia";" 081328855341";"";"";"-6.3323294";"107.3502321";"https://maps.google.com/?cid=0x0:0xc0da54b963f9bd5f";""
"perumahan";"perumahan";"Papua 99564";"Papua";"Papua";"PAPUA";"";"Indonesia";"";"";"";"-4.2226519";"138.3190276";"https://maps.google.com/?cid=0x0:0x12113e40469ed72c";""
"perumahan";"perumahan";"Papua 99564";"Papua";"Papua";"PAPUA";"";"Indonesia";"";"";"";"-4.2226519";"138.3190276";"https://maps.google.com/?cid=0x0:0x12113e40469ed72c";""
"perumahan";"perumahan";"Papua 99564";"Papua";"Papua";"PAPUA";"";"Indonesia";"";"";"";"-4.2226519";"138.3190276";"https://maps.google.com/?cid=0x0:0x12113e40469ed72c";""
"perumahan";"Komplek perumahan";"Perumahan Panorama Alam";"MW83+RQ4, perumahan panorama alam, Cilangkap, Kec. Cipayung, Kota Jakarta Timur, Daerah Khusus Ibukota Jakarta";"Kota Jakarta Timur, Daerah Khusus Ibukota Jakarta";"PAPUA";"";"Indonesia";"";"";"";"-6.3329002";"106.904492";"https://maps.google.com/?cid=0x0:0x3d9dbba4de99f18f";""
"perumahan";"Komplek perumahan";"Alam Raya Residence No.4";"P25J+W96, Jl. Kramat, RT.004/RW.011, Mustikajaya, Kec. Mustika Jaya, Kota Bks, Jawa Barat 17158";"Jl. Kramat, RT.004/RW.011, Mustikajaya, Kec. Mustika Jaya, Kota Bks";"PAPUA";"17158";"Indonesia";"";"";"";"-6.2902132";"107.0308783";"https://maps.google.com/?cid=0x0:0x1c139fe4be998d6d";""
"perumahan";"Perhimpunan Pengembang Perumahan";"Villa Alam Permai 4";"JWM3+WV3, Jl. Al-Muzamil No.5, RW.6, Harjamukti, Kec. Cimanggis, Kota Depok, Jawa Barat 16454";"Jl. Al-Muzamil No.5, RW.6, Harjamukti, Kec. Cimanggis, Kota Depok";"PAPUA";"16454";"Indonesia";"";"";"";"-6.3655606";"106.9053874";"https://maps.google.com/?cid=0x0:0xe69f76ff0ec39bf3";""
"perumahan";"perumahan";"Papua 99571";"Kabupaten Yahukimo, Papua";"Kabupaten Yahukimo, Papua";"PAPUA";"";"Indonesia";"";"";"";"-4.6597588";"139.1221414";"https://maps.google.com/?cid=0x0:0x8dc722ebb3251072";""
"perumahan";"perumahan";"Papua";"";"Papua";"PAPUA";"";"Indonesia";"";"";"";"-4.269928";"138.0803529";"https://maps.google.com/?cid=0x0:0xeba94e9c5eefe673";""
"perumahan";"perumahan";"Hitigima, kompleks Oikama";"WW4X+45X, Wamena Kota, Distrik Wamena, Kabupaten Jayawijaya, Papua 99511";"Wamena Kota, Distrik Wamena, Kabupaten Jayawijaya";"PAPUA";"99511";"Indonesia";"";"";"";"-4.0946449";"138.9479959";"https://maps.google.com/?cid=0x0:0x14eee23b1c164ed0";""
"perumahan";"perumahan";"Papua 99571";"Kabupaten Yahukimo, Papua";"Kabupaten Yahukimo, Papua";"PAPUA";"";"Indonesia";"";"";"";"-4.6597588";"139.1221414";"https://maps.google.com/?cid=0x0:0x8dc722ebb3251072";""
"perumahan";"perumahan";"Distrik Mam";"Kabupaten Nduga, Papua";"Kabupaten Nduga, Papua";"PAPUA";"";"Indonesia";"";"";"";"-4.3870415";"138.2327774";"https://maps.google.com/?cid=0x0:0x6f645e0566a909b0";""
"perumahan";"Komplek perumahan";"Sasa mantap";"Perumahan pondok mekarsari permai jl.kelapa No.10 blok n, RT.06/RW.012, Mekarsari, Kec. Cimanggis, Kota Depok, Jawa Barat 16439";"RT.06/RW.012, Mekarsari, Kec. Cimanggis, Kota Depok";"PAPUA";"16439";"Indonesia";" 087785259858";"";"";"-6.3573931";"106.8698855";"https://maps.google.com/?cid=0x0:0xdb9156997ba48ff8";""
"perumahan";"Perhimpunan Pengembang Perumahan";"Rumah Om Bowo ( Arisan Ronodimedjo)";"JVQC+R6W, Jl. Met Gobel I, Mekarsari, Kec. Cimanggis, Kota Depok, Jawa Barat 16452";"Jl. Met Gobel I, Mekarsari, Kec. Cimanggis, Kota Depok";"PAPUA";"16452";"Indonesia";"";"";"";"-6.3603846";"106.8705683";"https://maps.google.com/?cid=0x0:0x47e94c24b14515b9";""
"perumahan";"perumahan";"Papua 99564";"Papua";"Papua";"PAPUA";"";"Indonesia";"";"";"";"-4.2226519";"138.3190276";"https://maps.google.com/?cid=0x0:0x12113e40469ed72c";""
"perumahan";"Komplek perumahan";"Komplek Perumahan YPPGI";"8F7J+Q63, Karubaga, Kec. Karubaga, Kabupaten Tolikara, Papua";"Kabupaten Tolikara, Papua";"PAPUA";"";"Indonesia";"";"";"";"-3.6856154";"138.4805518";"https://maps.google.com/?cid=0x0:0x1e996dde1edb3b03";""
"perumahan";"Pembangunan Perumahan";"Perumahan PEMDA";"8FCG+33Q, Muara, Kec. Karubaga, Kabupaten Tolikara, Papua 99567";"Muara, Kec. Karubaga, Kabupaten Tolikara";"PAPUA";"99567";"Indonesia";"";"";"";"-3.6797785";"138.4752409";"https://maps.google.com/?cid=0x0:0x92f2706a088cac78";""
"perumahan";"Sekolah Dasar";"SD YPPGI Karubaga";"8F8J+35G, Karubaga, Kec. Karubaga, Kabupaten Tolikara, Papua 99567";"Karubaga, Kec. Karubaga, Kabupaten Tolikara";"PAPUA";"99567";"Indonesia";"";"";"";"-3.6848142";"138.4804659";"https://maps.google.com/?cid=0x0:0x8d7209b01bb6bb3f";""
"perumahan";"perumahan";"Papua 99564";"Papua";"Papua";"PAPUA";"";"Indonesia";"";"";"";"-4.2226519";"138.3190276";"https://maps.google.com/?cid=0x0:0x12113e40469ed72c";""
"perumahan";"perumahan";"Papua 99564";"Papua";"Papua";"PAPUA";"";"Indonesia";"";"";"";"-4.2226519";"138.3190276";"https://maps.google.com/?cid=0x0:0x12113e40469ed72c";""
"perumahan";"perumahan";"Distrik Mbua Tengah";"Kabupaten Nduga, Papua";"Kabupaten Nduga, Papua";"PAPUA";"";"Indonesia";"";"";"";"-4.4405414";"138.4987208";"https://maps.google.com/?cid=0x0:0x4ed78ad434671583";""
"perumahan";"Komplek perumahan";"Kogonggu hom";"WW76+4M8, Honelama, Distrik Wamena, Kabupaten Jayawijaya, Papua";"Kabupaten Jayawijaya, Papua";"PAPUA";"";"Indonesia";"";"";"";"-4.0872224";"138.9117008";"https://maps.google.com/?cid=0x0:0x70f1f6eeb71ac704";""
"perumahan";"Galeri Seni";"Kwegono";"HQP7+X9, Gunia, Distrik Moba, Kabupaten Nduga, Papua";"Kabupaten Nduga, Papua";"PAPUA";"";"Indonesia";"";"";"";"-4.4126188";"138.7634038";"https://maps.google.com/?cid=0x0:0x4d75192bf241b054";""
"perumahan";"perumahan";"Papua 99565";"Kabupaten Nduga, Papua";"Kabupaten Nduga, Papua";"PAPUA";"";"Indonesia";"";"";"";"-4.3888199";"138.4387577";"https://maps.google.com/?cid=0x0:0x3270519a4c3188d3";""
"perumahan";"Pembangunan Perumahan";"Perumahan Calesta Residence";"Perumahan Calesta Residence, Karangsentosa, Karangbahagia, Bekasi Regency, West Java 17530";"Karangsentosa, Karangbahagia, Bekasi Regency";"PAPUA";"17530";"Indonesia";"";"";"";"-6.1949491";"107.1838978";"https://maps.google.com/?cid=0x0:0x496f986a64de8928";""
"perumahan";"Perumahan";"Cluster Caspia - BSD City";"MMP2+PVV, sinar mas multifinance di dekat Jalan Kompleks Bsd, Lengkong Wetan, Sampora, Kec. Cisauk, Kabupaten Tangerang, Banten 15345";"sinar mas multifinance di dekat Jalan Kompleks Bsd, Lengkong Wetan, Sampora, Kec. Cisauk, Kabupaten Tangerang";"PAPUA";"15345";"Indonesia";"";"";"";"-6.3131483";"106.6521658";"https://maps.google.com/?cid=0x0:0xa8c8722fc14b58e3";""
"perumahan";"perumahan";"Distrik Wusi";"Wusi, Kabupaten Nduga, Papua";"Kabupaten Nduga, Papua";"PAPUA";"";"Indonesia";"";"";"";"-4.5819668";"138.6990679";"https://maps.google.com/?cid=0x0:0x5268fa3467b9b52b";""
"perumahan";"perumahan";"Papua 99565";"Kabupaten Nduga, Papua";"Kabupaten Nduga, Papua";"PAPUA";"";"Indonesia";"";"";"";"-4.3888199";"138.4387577";"https://maps.google.com/?cid=0x0:0x3270519a4c3188d3";""
"perumahan";"Galeri Seni";"Kwegono";"HQP7+X9, Gunia, Distrik Moba, Kabupaten Nduga, Papua";"Kabupaten Nduga, Papua";"PAPUA";"";"Indonesia";"";"";"";"-4.4126188";"138.7634038";"https://maps.google.com/?cid=0x0:0x4d75192bf241b054";""
"perumahan";"perumahan";"Papua";"";"Papua";"PAPUA";"";"Indonesia";"";"";"";"-4.269928";"138.0803529";"https://maps.google.com/?cid=0x0:0xeba94e9c5eefe673";""
"perumahan";"Perumahan";"Kavling yulia residence 1";"Kp leles des, Sindangsari, Kec. Ps. Kemis, Kabupaten Tangerang, Banten 15560";"Sindangsari, Kec. Ps. Kemis, Kabupaten Tangerang";"PAPUA";"15560";"Indonesia";" 08978334756";"";"";"-6.1299358";"106.5472699";"https://maps.google.com/?cid=0x0:0x29629b08e38f5b2";""
"perumahan";"Komplek perumahan";"Kogonggu hom";"WW76+4M8, Honelama, Distrik Wamena, Kabupaten Jayawijaya, Papua";"Kabupaten Jayawijaya, Papua";"PAPUA";"";"Indonesia";"";"";"";"-4.0872224";"138.9117008";"https://maps.google.com/?cid=0x0:0x70f1f6eeb71ac704";""
"perumahan";"Perumahan";"Kavling yulia residence 3";"Kp leles No.RT 001/007, Sindangsari, Kec. Ps. Kemis, Kabupaten, Banten 15560";"Sindangsari, Kec. Ps. Kemis, Kabupaten";"PAPUA";"15560";"Indonesia";" 08978334756";"";"";"-6.1353227";"106.5451194";"https://maps.google.com/?cid=0x0:0x2b58098859134596";""
"perumahan";"Komplek perumahan";"Rmh ortu";"GQCH+66M, Sukmajaya, Kec. Tajur Halang, Kabupaten Bogor, Jawa Barat 16320";"Sukmajaya, Kec. Tajur Halang, Kabupaten Bogor";"PAPUA";"16320";"Indonesia";"";"";"";"-6.4794188";"106.7779959";"https://maps.google.com/?cid=0x0:0x131c2ad8331c210c";""
"perumahan";"Galeri Seni";"Kwegono";"HQP7+X9, Gunia, Distrik Moba, Kabupaten Nduga, Papua";"Kabupaten Nduga, Papua";"PAPUA";"";"Indonesia";"";"";"";"-4.4126188";"138.7634038";"https://maps.google.com/?cid=0x0:0x4d75192bf241b054";""
"perumahan";"perumahan";"Papua 99565";"Kabupaten Nduga, Papua";"Kabupaten Nduga, Papua";"PAPUA";"";"Indonesia";"";"";"";"-4.3888199";"138.4387577";"https://maps.google.com/?cid=0x0:0x3270519a4c3188d3";""
"perumahan";"Komplek perumahan";"Kogonggu hom";"WW76+4M8, Honelama, Distrik Wamena, Kabupaten Jayawijaya, Papua";"Kabupaten Jayawijaya, Papua";"PAPUA";"";"Indonesia";"";"";"";"-4.0872224";"138.9117008";"https://maps.google.com/?cid=0x0:0x70f1f6eeb71ac704";""
"perumahan";"perumahan";"Papua 99564";"Papua";"Papua";"PAPUA";"";"Indonesia";"";"";"";"-4.2226519";"138.3190276";"https://maps.google.com/?cid=0x0:0x12113e40469ed72c";""
"perumahan";"perumahan";"Papua 99564";"Papua";"Papua";"PAPUA";"";"Indonesia";"";"";"";"-4.2226519";"138.3190276";"https://maps.google.com/?cid=0x0:0x12113e40469ed72c";""
"perumahan";"perumahan";"Papua 99565";"Kabupaten Nduga, Papua";"Kabupaten Nduga, Papua";"PAPUA";"";"Indonesia";"";"";"";"-4.3888199";"138.4387577";"https://maps.google.com/?cid=0x0:0x3270519a4c3188d3";""
"perumahan";"perumahan";"Pasir awi";"RG6M+5MC, Jl. Pasir Awi, RT.03/RW.02, desa suka asih, Kec. Ps. Kemis, Kabupaten Tangerang, Banten 15560";"Jl. Pasir Awi, RT.03/RW.02, desa suka asih, Kec. Ps. Kemis, Kabupaten Tangerang";"PAPUA";"15560";"Indonesia";"";"";"";"-6.189574";"106.5341352";"https://maps.google.com/?cid=0x0:0x58e3a4d6a470e1c4";""
"perumahan";"perumahan";"Papua";"";"Papua";"PAPUA";"";"Indonesia";"";"";"";"-4.269928";"138.0803529";"https://maps.google.com/?cid=0x0:0xeba94e9c5eefe673";""
"perumahan";"perumahan";"Pasir Putih";"Kec. Sawangan, Kota Depok, Jawa Barat";"Kota Depok, Jawa Barat";"PAPUA";"";"Indonesia";"";"";"";"-6.4246452";"106.7831967";"https://maps.google.com/?cid=0x0:0x6c30fbecac2b5871";""
"perumahan";"perumahan";"Papua 99565";"Kabupaten Nduga, Papua";"Kabupaten Nduga, Papua";"PAPUA";"";"Indonesia";"";"";"";"-4.3888199";"138.4387577";"https://maps.google.com/?cid=0x0:0x3270519a4c3188d3";""
"perumahan";"perumahan";"Pasir Putih";"Kec. Sawangan, Kota Depok, Jawa Barat";"Kota Depok, Jawa Barat";"PAPUA";"";"Indonesia";"";"";"";"-6.4246452";"106.7831967";"https://maps.google.com/?cid=0x0:0x6c30fbecac2b5871";""
"perumahan";"Perumahan";"Pasir Putih Residence";"Jl. Kupu Bombay No.RT. 01/05, RT.01/RW.05, Pasir Putih, Kec. Sawangan, Kota Depok, Jawa Barat 16519";"RT.01/RW.05, Pasir Putih, Kec. Sawangan, Kota Depok";"PAPUA";"16519";"Indonesia";" 081915555147";"";"";"-6.4292288";"106.7813834";"https://maps.google.com/?cid=0x0:0xe73de7291bdcfbd1";""
"perumahan";"Komplek perumahan";"Perumahan Pesona Pasir Putih Residence";"Pesona, Jl. Kekupu residence, Pasir Putih, Kec. Sawangan, Kota Depok, Jawa Barat 16519";"Jl. Kekupu residence, Pasir Putih, Kec. Sawangan, Kota Depok";"PAPUA";"16519";"Indonesia";" 082113122290";"";"";"-6.4341898";"106.7828361";"https://maps.google.com/?cid=0x0:0xc290407591669fba";""
"perumahan";"Komplek perumahan";"Villa Pasir Putih 5 PIK2";"XMGH+8X, Muara, Kec. Teluknaga, Kabupaten Tangerang, Banten";"Kabupaten Tangerang, Banten";"PAPUA";"";"Indonesia";" 087877058577";"";"";"-6.0241498";"106.679996";"https://maps.google.com/?cid=0x0:0x54e7d5ca33803d1e";""
"perumahan";"Perumahan";"Perum GREEN PASIR PUTIH";"Jl. Mangga No., Jl. Mangga Blok Masjid No.22, Pasir Putih, Kec. Sawangan, Kota Depok, Jawa Barat 16519";"Jl. Mangga Blok Masjid No.22, Pasir Putih, Kec. Sawangan, Kota Depok";"PAPUA";"16519";"Indonesia";" 081514197832";"";"";"-6.4235473";"106.775854";"https://maps.google.com/?cid=0x0:0x2f8494cead55571f";""
"perumahan";"Komplek perumahan";"Pasir Putih Garden Residence";"Jl. Damai III No.A9, RT.05/RW.04, Pasir Putih, Kec. Sawangan, Kota Depok, Jawa Barat 16519";"RT.05/RW.04, Pasir Putih, Kec. Sawangan, Kota Depok";"PAPUA";"16519";"Indonesia";"";"";"";"-6.4312507";"106.7851318";"https://maps.google.com/?cid=0x0:0x9814c56033dec78f";""
"perumahan";"Komplek perumahan";"Pasir Putih Residences";"XMCC+GR, Tj. Pasir, Kec. Teluknaga, Kabupaten Tangerang, Banten";"Kabupaten Tangerang, Banten";"PAPUA";"";"Indonesia";"";"";"";"-6.0287024";"106.6721043";"https://maps.google.com/?cid=0x0:0xd02c07c9e11b219b";""
"perumahan";"Otoritas Perumahan";"Hasanah Village Pasir Putih";"HQ6P+W3X, Jl. Garuda 2, Pasir Putih, Kec. Sawangan, Kota Depok, Jawa Barat 16519";"Jl. Garuda 2, Pasir Putih, Kec. Sawangan, Kota Depok";"PAPUA";"16519";"Indonesia";" 08121811616";"";"";"-6.4375687";"106.7851688";"https://maps.google.com/?cid=0x0:0x3ad363e09d3efeaa";""
"perumahan";"Komplek perumahan";"Jimbaran Premiere";"HQPJ+V36, Jl. Raya Pasir Putih No.60, RT.3/RW.1, Pasir Putih, Kec. Sawangan, Kota Depok, Jawa Barat 16519";"Jl. Raya Pasir Putih No.60, RT.3/RW.1, Pasir Putih, Kec. Sawangan, Kota Depok";"PAPUA";"16519";"Indonesia";" 081310770622";"";"";"-6.4128717";"106.7801391";"https://maps.google.com/?cid=0x0:0x75c2033507975571";""
"perumahan";"Komplek perumahan";"Garuda Residence";"HQ8Q+9MV, Pasir Putih, Kec. Sawangan, Kota Depok, Jawa Barat 16519";"Pasir Putih, Kec. Sawangan, Kota Depok";"PAPUA";"16519";"Indonesia";"";"";"";"-6.4340019";"106.7889822";"https://maps.google.com/?cid=0x0:0x88d36b14258d0547";""
