Category;Real Category;Business Name;Address;City;State;Postal Code;Country;Phone;Email;Website;Latitude;Longitude;Map Link;Details Link
hotel;hotel;Kec. Mimika Baru;Kabupaten Mimika, Papua;Kabupaten Mimika, Papua;PAPUA;;Indonesia;;;;-45.671.869;1.368.873.528;https://maps.google.com/?cid=0x0:0xccefb04a6b60d82c;
hotel;hotel;Horison Diana Timika;Jl. Budi Utomo No.8, Kwamki, Kec. Mimika Baru, Kabupaten Mimika, Papua 99971;Kwamki, Kec. Mimika Baru, Kabupaten Mimika;PAPUA;99971;Indonesia;8114941818;;;-45.421.375;1.368.835.025;https://maps.google.com/?cid=0x0:0xc5f75bca5af54755;
hotel;hotel;Hotel Horison Ultima Timika;Jl. Hasanuddin No.9, Nawaripi, Kec. Mimika Baru, Kabupaten Mimika, Papua 99971;Nawaripi, Kec. Mimika Baru, Kabupaten Mimika;PAPUA;99971;Indonesia;9013264888;;;-45.657.683;1.368.827.914;https://maps.google.com/?cid=0x0:0x2acb1e774fc2c064;
hotel;hotel;N/A;;;PAPUA;;Indonesia;;;;;;https://maps.google.com/?cid=0x0:0xc5f75bca5af54755%7C/g/11hst6d1yy%7Cen-ID;
hotel;hotel;Rimba Papua Hotel;Jl. Kwamki Narama No. 1, Kwamki, Kec. Mimika Baru, Kabupaten Mimika, Papua 99971;Kwamki, Kec. Mimika Baru, Kabupaten Mimika;PAPUA;99971;Indonesia;901494949;;;-45.151.124;136.884.599;https://maps.google.com/?cid=0x0:0xa65056700db32492;
hotel;hotel;HOTEL CARTENZ TIMIKA;Jl. Budi Utomo, Pasar Sentral, Kec. Mimika Baru, Kabupaten Mimika, Papua 99910;Pasar Sentral, Kec. Mimika Baru, Kabupaten Mimika;PAPUA;99910;Indonesia;9013270746;;;-45.639.262;1.368.800.612;https://maps.google.com/?cid=0x0:0xff7b843c8dbed29d;
hotel;hotel;Noken Hotel Timika;FV5M+62C, Jl. Budi Utomo, Kwamki, Kec. Mimika Baru, Kabupaten Mimika, Papua 99910;Jl. Budi Utomo, Kwamki, Kec. Mimika Baru, Kabupaten Mimika;PAPUA;99910;Indonesia;8114991033;;;-45.419.296;1.368.825.128;https://maps.google.com/?cid=0x0:0x2fc89f236a139de5;
hotel;hotel;Hotel Cenderawasih 66;Kwamki, Kec. Mimika Baru, Kabupaten Mimika, Papua 99971;Kec. Mimika Baru, Kabupaten Mimika;PAPUA;99971;Indonesia;8114909466;;;-45.406.265;136.877.203;https://maps.google.com/?cid=0x0:0x5be4adf05d85555b;
hotel;hotel;Hotel OssA 'de' Villa;Jl.Acis No.1, Nawaripi, Kec. Mimika Baru, Kabupaten Mimika, Papua 99971;Nawaripi, Kec. Mimika Baru, Kabupaten Mimika;PAPUA;99971;Indonesia;811493777;;;-45.657.839;1.368.821.893;https://maps.google.com/?cid=0x0:0x557d79c7932567f6;
hotel;hotel;Emerald Hotel;Jl. Cendrawasih, Timika Jaya, Kec. Mimika Baru, Kabupaten Mimika, Papua 99963;Timika Jaya, Kec. Mimika Baru, Kabupaten Mimika;PAPUA;99963;Indonesia;9013260124;;;-45.405.312;1.368.759.912;https://maps.google.com/?cid=0x0:0x731314059a512d0f;
hotel;hotel;Hotel Serayu;Jl. Yos Sudarso No.10, Koperapoka, Kec. Mimika Baru, Kabupaten Mimika, Papua 99971;Koperapoka, Kec. Mimika Baru, Kabupaten Mimika;PAPUA;99971;Indonesia;82199984085;;;-45.492.995;1.368.902.348;https://maps.google.com/?cid=0x0:0xe357fb3041308a6c;
hotel;hotel;Hotel Grand Tembaga;Timika tembaga, Nawaripi, Kec. Mimika Baru, Kabupaten Mimika, Papua 23338;Nawaripi, Kec. Mimika Baru, Kabupaten Mimika;PAPUA;23338;Indonesia;;;;-45.531.771;1.368.896.109;https://maps.google.com/?cid=0x0:0x51c794842c50a185;
hotel;hotel;RAFAEL INN TIMIKA;Jl. Kelimutu, Kwamki, Kec. Mimika Baru, Kabupaten Mimika, Papua 99912;Kwamki, Kec. Mimika Baru, Kabupaten Mimika;PAPUA;99912;Indonesia;81222201567;;;-45.369.955;1.368.758.451;https://maps.google.com/?cid=0x0:0xb5f301a0d62aeed0;
hotel;hotel;Hotel R6;Jl.Cendrawasih SP2, Papua 99952;Kabupaten Mimika, Papua;PAPUA;;Indonesia;82245112457;;;-4.538.464;1.368.691.429;https://maps.google.com/?cid=0x0:0xb392d58fbaabfb69;
hotel;hotel;Komoro Tame Hotel  Resort;Jalan Cendrawasih SP II, Kwamki, Kec. Mimika Baru, Kabupaten Mimika, Papua 99910;Kwamki, Kec. Mimika Baru, Kabupaten Mimika;PAPUA;99910;Indonesia;9013260059;;;-45.411.009;1.368.800.714;https://maps.google.com/?cid=0x0:0xe4c13d4863f484f5;
hotel;hotel;Lavela Inn Timika;Kwamki, Kec. Mimika Baru, Kabupaten Mimika, Papua 99971;Kec. Mimika Baru, Kabupaten Mimika;PAPUA;99971;Indonesia;8114994940;;;-45.391.172;1.368.759.273;https://maps.google.com/?cid=0x0:0xa4c513a55702dcad;
hotel;hotel;Bisnis Hotel;Kwamki, Kec. Mimika Baru, Kabupaten Mimika, Papua 99971;Kec. Mimika Baru, Kabupaten Mimika;PAPUA;99971;Indonesia;9013264510;;;-45.452.777;1.368.833.867;https://maps.google.com/?cid=0x0:0x690d0340d9882c9c;
hotel;hotel;RedDoorz @ Jalan Cendrawasih Timika;Jalan Cendrawasih Belakang Manna, Kwamki, Bakerei, Kabupaten Mimika, Papua 99910;Kwamki, Bakerei, Kabupaten Mimika;PAPUA;99910;Indonesia;8,95417E+11;;;-45.424.845;1.368.797.499;https://maps.google.com/?cid=0x0:0xe497a05bd4efc640;
hotel;hotel;Hotel Timika;Jl. Hasanuddin No.9, Nawaripi, Kec. Mimika Baru, Kabupaten Mimika, Papua 99971;Nawaripi, Kec. Mimika Baru, Kabupaten Mimika;PAPUA;99971;Indonesia;;;;-4.566.916;1.368.828.964;https://maps.google.com/?cid=0x0:0x51b78f3be0c597f8;
hotel;hotel;Hotel Kanguru Timika;Timika Indah Cafe, Kwamki, Mimika Baru, Mimika Regency, Papua 99971;Kwamki, Mimika Baru, Mimika Regency;PAPUA;99971;Indonesia;811490022;;;-45.276.143;1.368.587.142;https://maps.google.com/?cid=0x0:0x83d1a0182193785;
hotel;hotel;HOTEL Timika Indah Papua;Jl. Jend. Ahmad Yani, Kwamki, Kec. Mimika Baru, Kabupaten Mimika, Papua 99910;Kwamki, Kec. Mimika Baru, Kabupaten Mimika;PAPUA;99910;Indonesia;8114900888;;;-45.450.918;1.368.950.181;https://maps.google.com/?cid=0x0:0x678db0783377d5c6;
hotel;hotel;Papua 99964;Kabupaten Mimika, Papua;Kabupaten Mimika, Papua;PAPUA;;Indonesia;;;;-45.348.379;1.373.706.554;https://maps.google.com/?cid=0x0:0x8a2567edb0b5d8c5;
hotel;hotel;Hotel Horison Ultima Timika;Jl. Hasanuddin No.9, Nawaripi, Kec. Mimika Baru, Kabupaten Mimika, Papua 99971;Nawaripi, Kec. Mimika Baru, Kabupaten Mimika;PAPUA;99971;Indonesia;9013264888;;;-45.657.683;1.368.827.914;https://maps.google.com/?cid=0x0:0x2acb1e774fc2c064;
hotel;hotel;HOTEL CARTENZ TIMIKA;Jl. Budi Utomo, Pasar Sentral, Kec. Mimika Baru, Kabupaten Mimika, Papua 99910;Pasar Sentral, Kec. Mimika Baru, Kabupaten Mimika;PAPUA;99910;Indonesia;9013270746;;;-45.639.262;1.368.800.612;https://maps.google.com/?cid=0x0:0xff7b843c8dbed29d;
hotel;hotel;Rimba Papua Hotel;Jl. Kwamki Narama No. 1, Kwamki, Kec. Mimika Baru, Kabupaten Mimika, Papua 99971;Kwamki, Kec. Mimika Baru, Kabupaten Mimika;PAPUA;99971;Indonesia;901494949;;;-45.151.124;136.884.599;https://maps.google.com/?cid=0x0:0xa65056700db32492;
hotel;hotel;Hotel Kanguru Timika;Timika Indah Cafe, Kwamki, Mimika Baru, Mimika Regency, Papua 99971;Kwamki, Mimika Baru, Mimika Regency;PAPUA;99971;Indonesia;811490022;;;-45.276.143;1.368.587.142;https://maps.google.com/?cid=0x0:0x83d1a0182193785;
hotel;hotel;HOTEL Timika Indah Papua;Jl. Jend. Ahmad Yani, Kwamki, Kec. Mimika Baru, Kabupaten Mimika, Papua 99910;Kwamki, Kec. Mimika Baru, Kabupaten Mimika;PAPUA;99910;Indonesia;8114900888;;;-45.450.918;1.368.950.181;https://maps.google.com/?cid=0x0:0x678db0783377d5c6;
hotel;hotel;Hotel Timika;Jl. Hasanuddin No.9, Nawaripi, Kec. Mimika Baru, Kabupaten Mimika, Papua 99971;Nawaripi, Kec. Mimika Baru, Kabupaten Mimika;PAPUA;99971;Indonesia;;;;-4.566.916;1.368.828.964;https://maps.google.com/?cid=0x0:0x51b78f3be0c597f8;
hotel;hotel;Hotel Golden Mimika;Jl. Klp. Dua No.25, Kwamki, Kec. Mimika Baru, Kabupaten Mimika, Papua 99971;Kwamki, Kec. Mimika Baru, Kabupaten Mimika;PAPUA;99971;Indonesia;901323111;;;-4.544.451;1.368.879.651;https://maps.google.com/?cid=0x0:0xc7ff62d17b20c3d1;
hotel;hotel;SAMUMAMBO HOTEL;jl. cenderawasih belakang manna bakerei, Kwamki, Kec. Mimika Baru, Kabupaten Mimika, Papua 99910;Kwamki, Kec. Mimika Baru, Kabupaten Mimika;PAPUA;99910;Indonesia;81344090664;;;-45.424.836;1.368.797.497;https://maps.google.com/?cid=0x0:0xcb5241de257efb93;
hotel;hotel;Jaya Hotel;CVJP+XV2, Jl. Raya Sp1, Inauga, Kec. Mimika Baru, Kabupaten Mimika, Papua 99971;Jl. Raya Sp1, Inauga, Kec. Mimika Baru, Kabupaten Mimika;PAPUA;99971;Indonesia;87777677405;;;-45.676.146;1.368.871.472;https://maps.google.com/?cid=0x0:0x854e1f8dfba40a6c;
hotel;hotel;Penginapan Paparisa Amungsa;Koperapoka, Kec. Mimika Baru, Kabupaten Mimika, Papua 99971;Kec. Mimika Baru, Kabupaten Mimika;PAPUA;99971;Indonesia;81343206383;;;-45.385.795;1.368.755.667;https://maps.google.com/?cid=0x0:0xfd07a1d4446c8f23;
hotel;hotel;Hotel Sawitto 1;FV4V+3QV, Timika Jaya, Kec. Mimika Baru, Kabupaten Mimika, Papua 99971;Timika Jaya, Kec. Mimika Baru, Kabupaten Mimika;PAPUA;99971;Indonesia;;;;-45.447.575;1.368.944.296;https://maps.google.com/?cid=0x0:0xa49800860bcb43de;
hotel;hotel;Agimuga;Kabupaten Mimika, Papua;Kabupaten Mimika, Papua;PAPUA;;Indonesia;;;;-46.377.699;1.374.882.762;https://maps.google.com/?cid=0x0:0x24e47a54c55e98d1;
hotel;hotel;Lavela Inn Timika;Kwamki, Kec. Mimika Baru, Kabupaten Mimika, Papua 99971;Kec. Mimika Baru, Kabupaten Mimika;PAPUA;99971;Indonesia;8114994940;;;-45.391.172;1.368.759.273;https://maps.google.com/?cid=0x0:0xa4c513a55702dcad;
hotel;hotel;Papua 99963;Kabupaten Mimika, Papua;Kabupaten Mimika, Papua;PAPUA;;Indonesia;;;;-46.420.578;1.367.091.767;https://maps.google.com/?cid=0x0:0x489f32e37e0cec35;
hotel;hotel;Swiss-Belinn Timika;Kwamki, Kec. Mimika Baru, Kabupaten Mimika, Papua 99971;Kec. Mimika Baru, Kabupaten Mimika;PAPUA;99971;Indonesia;9013265949;;;-45.320.138;1.368.642.398;https://maps.google.com/?cid=0x0:0xe2933010e70ba939;
hotel;hotel;Horison Diana Timika;Jl. Budi Utomo No.8, Kwamki, Kec. Mimika Baru, Kabupaten Mimika, Papua 99971;Kwamki, Kec. Mimika Baru, Kabupaten Mimika;PAPUA;99971;Indonesia;8114941818;;;-45.421.375;1.368.835.025;https://maps.google.com/?cid=0x0:0xc5f75bca5af54755;
hotel;hotel;Hotel Horison Ultima Timika;Jl. Hasanuddin No.9, Nawaripi, Kec. Mimika Baru, Kabupaten Mimika, Papua 99971;Nawaripi, Kec. Mimika Baru, Kabupaten Mimika;PAPUA;99971;Indonesia;9013264888;;;-45.657.683;1.368.827.914;https://maps.google.com/?cid=0x0:0x2acb1e774fc2c064;
hotel;hotel;HOTEL CARTENZ TIMIKA;Jl. Budi Utomo, Pasar Sentral, Kec. Mimika Baru, Kabupaten Mimika, Papua 99910;Pasar Sentral, Kec. Mimika Baru, Kabupaten Mimika;PAPUA;99910;Indonesia;9013270746;;;-45.639.262;1.368.800.612;https://maps.google.com/?cid=0x0:0xff7b843c8dbed29d;
hotel;hotel;Hotel Cenderawasih 66;Kwamki, Kec. Mimika Baru, Kabupaten Mimika, Papua 99971;Kec. Mimika Baru, Kabupaten Mimika;PAPUA;99971;Indonesia;8114909466;;;-45.406.265;136.877.203;https://maps.google.com/?cid=0x0:0x5be4adf05d85555b;
hotel;hotel;Emerald Hotel;Jl. Cendrawasih, Timika Jaya, Kec. Mimika Baru, Kabupaten Mimika, Papua 99963;Timika Jaya, Kec. Mimika Baru, Kabupaten Mimika;PAPUA;99963;Indonesia;9013260124;;;-45.405.312;1.368.759.912;https://maps.google.com/?cid=0x0:0x731314059a512d0f;
hotel;hotel;Hotel Serayu;Jl. Yos Sudarso No.10, Koperapoka, Kec. Mimika Baru, Kabupaten Mimika, Papua 99971;Koperapoka, Kec. Mimika Baru, Kabupaten Mimika;PAPUA;99971;Indonesia;82199984085;;;-45.492.995;1.368.902.348;https://maps.google.com/?cid=0x0:0xe357fb3041308a6c;
hotel;hotel;Noken Hotel Timika;FV5M+62C, Jl. Budi Utomo, Kwamki, Kec. Mimika Baru, Kabupaten Mimika, Papua 99910;Jl. Budi Utomo, Kwamki, Kec. Mimika Baru, Kabupaten Mimika;PAPUA;99910;Indonesia;8114991033;;;-45.419.296;1.368.825.128;https://maps.google.com/?cid=0x0:0x2fc89f236a139de5;
hotel;hotel;Rimba Papua Hotel;Jl. Kwamki Narama No. 1, Kwamki, Kec. Mimika Baru, Kabupaten Mimika, Papua 99971;Kwamki, Kec. Mimika Baru, Kabupaten Mimika;PAPUA;99971;Indonesia;901494949;;;-45.151.124;136.884.599;https://maps.google.com/?cid=0x0:0xa65056700db32492;
hotel;hotel;Hotel Grand Tembaga;Timika tembaga, Nawaripi, Kec. Mimika Baru, Kabupaten Mimika, Papua 23338;Nawaripi, Kec. Mimika Baru, Kabupaten Mimika;PAPUA;23338;Indonesia;;;;-45.531.771;1.368.896.109;https://maps.google.com/?cid=0x0:0x51c794842c50a185;
hotel;hotel;Bisnis Hotel;Kwamki, Kec. Mimika Baru, Kabupaten Mimika, Papua 99971;Kec. Mimika Baru, Kabupaten Mimika;PAPUA;99971;Indonesia;9013264510;;;-45.452.777;1.368.833.867;https://maps.google.com/?cid=0x0:0x690d0340d9882c9c;
hotel;hotel;Hotel R6;Jl.Cendrawasih SP2, Papua 99952;Kabupaten Mimika, Papua;PAPUA;;Indonesia;82245112457;;;-4.538.464;1.368.691.429;https://maps.google.com/?cid=0x0:0xb392d58fbaabfb69;
hotel;hotel;RedDoorz @ Jalan Cendrawasih Timika;Jalan Cendrawasih Belakang Manna, Kwamki, Bakerei, Kabupaten Mimika, Papua 99910;Kwamki, Bakerei, Kabupaten Mimika;PAPUA;99910;Indonesia;8,95417E+11;;;-45.424.845;1.368.797.499;https://maps.google.com/?cid=0x0:0xe497a05bd4efc640;
hotel;hotel;Hotel OssA 'de' Villa;Jl.Acis No.1, Nawaripi, Kec. Mimika Baru, Kabupaten Mimika, Papua 99971;Nawaripi, Kec. Mimika Baru, Kabupaten Mimika;PAPUA;99971;Indonesia;811493777;;;-45.657.839;1.368.821.893;https://maps.google.com/?cid=0x0:0x557d79c7932567f6;
hotel;hotel;RAFAEL INN TIMIKA;Jl. Kelimutu, Kwamki, Kec. Mimika Baru, Kabupaten Mimika, Papua 99912;Kwamki, Kec. Mimika Baru, Kabupaten Mimika;PAPUA;99912;Indonesia;81222201567;;;-45.369.955;1.368.758.451;https://maps.google.com/?cid=0x0:0xb5f301a0d62aeed0;
hotel;hotel;Komoro Tame Hotel  Resort;Jalan Cendrawasih SP II, Kwamki, Kec. Mimika Baru, Kabupaten Mimika, Papua 99910;Kwamki, Kec. Mimika Baru, Kabupaten Mimika;PAPUA;99910;Indonesia;9013260059;;;-45.411.009;1.368.800.714;https://maps.google.com/?cid=0x0:0xe4c13d4863f484f5;
hotel;hotel;Lavela Inn Timika;Kwamki, Kec. Mimika Baru, Kabupaten Mimika, Papua 99971;Kec. Mimika Baru, Kabupaten Mimika;PAPUA;99971;Indonesia;8114994940;;;-45.391.172;1.368.759.273;https://maps.google.com/?cid=0x0:0xa4c513a55702dcad;
hotel;hotel;Hotel Kanguru Timika;Timika Indah Cafe, Kwamki, Mimika Baru, Mimika Regency, Papua 99971;Kwamki, Mimika Baru, Mimika Regency;PAPUA;99971;Indonesia;811490022;;;-45.276.143;1.368.587.142;https://maps.google.com/?cid=0x0:0x83d1a0182193785;
hotel;hotel;Kec. Mimika Tim.;Kabupaten Mimika, Papua;Kabupaten Mimika, Papua;PAPUA;;Indonesia;;;;-46.725.723;1.368.266.129;https://maps.google.com/?cid=0x0:0xb9399f14e6d0d7e6;
hotel;hotel;Matoa Exclusive Homestay;Jln. Sahabat, 70meter ke dalam Jl. Busiri Ujung, Pasar Sentral, Kec. Mimika Baru, Mimika Baru, Papua 99952;70meter ke dalam Jl. Busiri Ujung, Pasar Sentral, Kec. Mimika Baru, Mimika Baru;PAPUA;99952;Indonesia;81234439288;;;-45.583.705;1.368.775.115;https://maps.google.com/?cid=0x0:0xca0c090941db49e0;
hotel;hotel;Jaya Hotel;CVJP+XV2, Jl. Raya Sp1, Inauga, Kec. Mimika Baru, Kabupaten Mimika, Papua 99971;Jl. Raya Sp1, Inauga, Kec. Mimika Baru, Kabupaten Mimika;PAPUA;99971;Indonesia;87777677405;;;-45.676.146;1.368.871.472;https://maps.google.com/?cid=0x0:0x854e1f8dfba40a6c;
hotel;hotel;HOTEL Timika Indah Papua;Jl. Jend. Ahmad Yani, Kwamki, Kec. Mimika Baru, Kabupaten Mimika, Papua 99910;Kwamki, Kec. Mimika Baru, Kabupaten Mimika;PAPUA;99910;Indonesia;8114900888;;;-45.450.918;1.368.950.181;https://maps.google.com/?cid=0x0:0x678db0783377d5c6;
hotel;hotel;Hotel Golden Mimika;Jl. Klp. Dua No.25, Kwamki, Kec. Mimika Baru, Kabupaten Mimika, Papua 99971;Kwamki, Kec. Mimika Baru, Kabupaten Mimika;PAPUA;99971;Indonesia;901323111;;;-4.544.451;1.368.879.651;https://maps.google.com/?cid=0x0:0xc7ff62d17b20c3d1;
hotel;hotel;Hotel Timika;Jl. Hasanuddin No.9, Nawaripi, Kec. Mimika Baru, Kabupaten Mimika, Papua 99971;Nawaripi, Kec. Mimika Baru, Kabupaten Mimika;PAPUA;99971;Indonesia;;;;-4.566.916;1.368.828.964;https://maps.google.com/?cid=0x0:0x51b78f3be0c597f8;
hotel;hotel;Mimika Bar.;Kabupaten Mimika, Papua;Kabupaten Mimika, Papua;PAPUA;;Indonesia;;;;-44.553.134;1.362.857.516;https://maps.google.com/?cid=0x0:0x6a9ad70ccbe49095;
hotel;hotel;Rimba Papua Hotel;Jl. Kwamki Narama No. 1, Kwamki, Kec. Mimika Baru, Kabupaten Mimika, Papua 99971;Kwamki, Kec. Mimika Baru, Kabupaten Mimika;PAPUA;99971;Indonesia;901494949;;;-45.151.124;136.884.599;https://maps.google.com/?cid=0x0:0xa65056700db32492;
hotel;hotel;Hotel Cenderawasih 66;Kwamki, Kec. Mimika Baru, Kabupaten Mimika, Papua 99971;Kec. Mimika Baru, Kabupaten Mimika;PAPUA;99971;Indonesia;8114909466;;;-45.406.265;136.877.203;https://maps.google.com/?cid=0x0:0x5be4adf05d85555b;
hotel;hotel;Swiss-Belinn Timika;Kwamki, Kec. Mimika Baru, Kabupaten Mimika, Papua 99971;Kec. Mimika Baru, Kabupaten Mimika;PAPUA;99971;Indonesia;9013265949;;;-45.320.138;1.368.642.398;https://maps.google.com/?cid=0x0:0xe2933010e70ba939;
hotel;Taman;Pusat kota kuala kencana;JV39+Q2H, Kuala Kencana, Kec. Kuala Kencana, Kabupaten Mimika, Papua;Kabupaten Mimika, Papua;PAPUA;;Indonesia;;;;-43.955.572;1.368.676.097;https://maps.google.com/?cid=0x0:0xc130e6059a0d59c3;
hotel;hotel;Horison Diana Timika;Jl. Budi Utomo No.8, Kwamki, Kec. Mimika Baru, Kabupaten Mimika, Papua 99971;Kwamki, Kec. Mimika Baru, Kabupaten Mimika;PAPUA;99971;Indonesia;8114941818;;;-45.421.375;1.368.835.025;https://maps.google.com/?cid=0x0:0xc5f75bca5af54755;
hotel;hotel;N/A;;;PAPUA;;Indonesia;;;;;;https://maps.google.com/?cid=0x0:0xc5f75bca5af54755%7C/g/11hst6d1yy%7Cen-ID;
hotel;hotel;Hotel OssA 'de' Villa;Jl.Acis No.1, Nawaripi, Kec. Mimika Baru, Kabupaten Mimika, Papua 99971;Nawaripi, Kec. Mimika Baru, Kabupaten Mimika;PAPUA;99971;Indonesia;811493777;;;-45.657.839;1.368.821.893;https://maps.google.com/?cid=0x0:0x557d79c7932567f6;
hotel;hotel;Hotel Horison Ultima Timika;Jl. Hasanuddin No.9, Nawaripi, Kec. Mimika Baru, Kabupaten Mimika, Papua 99971;Nawaripi, Kec. Mimika Baru, Kabupaten Mimika;PAPUA;99971;Indonesia;9013264888;;;-45.657.683;1.368.827.914;https://maps.google.com/?cid=0x0:0x2acb1e774fc2c064;
hotel;hotel;Hotel Golden Mimika;Jl. Klp. Dua No.25, Kwamki, Kec. Mimika Baru, Kabupaten Mimika, Papua 99971;Kwamki, Kec. Mimika Baru, Kabupaten Mimika;PAPUA;99971;Indonesia;901323111;;;-4.544.451;1.368.879.651;https://maps.google.com/?cid=0x0:0xc7ff62d17b20c3d1;
hotel;hotel;HOTEL CARTENZ TIMIKA;Jl. Budi Utomo, Pasar Sentral, Kec. Mimika Baru, Kabupaten Mimika, Papua 99910;Pasar Sentral, Kec. Mimika Baru, Kabupaten Mimika;PAPUA;99910;Indonesia;9013270746;;;-45.639.262;1.368.800.612;https://maps.google.com/?cid=0x0:0xff7b843c8dbed29d;
hotel;hotel;Emerald Hotel;Jl. Cendrawasih, Timika Jaya, Kec. Mimika Baru, Kabupaten Mimika, Papua 99963;Timika Jaya, Kec. Mimika Baru, Kabupaten Mimika;PAPUA;99963;Indonesia;9013260124;;;-45.405.312;1.368.759.912;https://maps.google.com/?cid=0x0:0x731314059a512d0f;
hotel;hotel;Hotel Grand Tembaga;Timika tembaga, Nawaripi, Kec. Mimika Baru, Kabupaten Mimika, Papua 23338;Nawaripi, Kec. Mimika Baru, Kabupaten Mimika;PAPUA;23338;Indonesia;;;;-45.531.771;1.368.896.109;https://maps.google.com/?cid=0x0:0x51c794842c50a185;
hotel;hotel;Noken Hotel Timika;FV5M+62C, Jl. Budi Utomo, Kwamki, Kec. Mimika Baru, Kabupaten Mimika, Papua 99910;Jl. Budi Utomo, Kwamki, Kec. Mimika Baru, Kabupaten Mimika;PAPUA;99910;Indonesia;8114991033;;;-45.419.296;1.368.825.128;https://maps.google.com/?cid=0x0:0x2fc89f236a139de5;
hotel;hotel;RedDoorz @ Jalan Cendrawasih Timika;Jalan Cendrawasih Belakang Manna, Kwamki, Bakerei, Kabupaten Mimika, Papua 99910;Kwamki, Bakerei, Kabupaten Mimika;PAPUA;99910;Indonesia;8,95417E+11;;;-45.424.845;1.368.797.499;https://maps.google.com/?cid=0x0:0xe497a05bd4efc640;
hotel;hotel;HOTEL Timika Indah Papua;Jl. Jend. Ahmad Yani, Kwamki, Kec. Mimika Baru, Kabupaten Mimika, Papua 99910;Kwamki, Kec. Mimika Baru, Kabupaten Mimika;PAPUA;99910;Indonesia;8114900888;;;-45.450.918;1.368.950.181;https://maps.google.com/?cid=0x0:0x678db0783377d5c6;
hotel;hotel;Hotel Serayu;Jl. Yos Sudarso No.10, Koperapoka, Kec. Mimika Baru, Kabupaten Mimika, Papua 99971;Koperapoka, Kec. Mimika Baru, Kabupaten Mimika;PAPUA;99971;Indonesia;82199984085;;;-45.492.995;1.368.902.348;https://maps.google.com/?cid=0x0:0xe357fb3041308a6c;
hotel;hotel;Matoa Exclusive Homestay;Jln. Sahabat, 70meter ke dalam Jl. Busiri Ujung, Pasar Sentral, Kec. Mimika Baru, Mimika Baru, Papua 99952;70meter ke dalam Jl. Busiri Ujung, Pasar Sentral, Kec. Mimika Baru, Mimika Baru;PAPUA;99952;Indonesia;81234439288;;;-45.583.705;1.368.775.115;https://maps.google.com/?cid=0x0:0xca0c090941db49e0;
hotel;hotel;Lavela Inn Timika;Kwamki, Kec. Mimika Baru, Kabupaten Mimika, Papua 99971;Kec. Mimika Baru, Kabupaten Mimika;PAPUA;99971;Indonesia;8114994940;;;-45.391.172;1.368.759.273;https://maps.google.com/?cid=0x0:0xa4c513a55702dcad;
hotel;hotel;SAMUMAMBO HOTEL;jl. cenderawasih belakang manna bakerei, Kwamki, Kec. Mimika Baru, Kabupaten Mimika, Papua 99910;Kwamki, Kec. Mimika Baru, Kabupaten Mimika;PAPUA;99910;Indonesia;81344090664;;;-45.424.836;1.368.797.497;https://maps.google.com/?cid=0x0:0xcb5241de257efb93;
hotel;hotel;RAFAEL INN TIMIKA;Jl. Kelimutu, Kwamki, Kec. Mimika Baru, Kabupaten Mimika, Papua 99912;Kwamki, Kec. Mimika Baru, Kabupaten Mimika;PAPUA;99912;Indonesia;81222201567;;;-45.369.955;1.368.758.451;https://maps.google.com/?cid=0x0:0xb5f301a0d62aeed0;
hotel;hotel;Hotel Kanguru Timika;Timika Indah Cafe, Kwamki, Mimika Baru, Mimika Regency, Papua 99971;Kwamki, Mimika Baru, Mimika Regency;PAPUA;99971;Indonesia;811490022;;;-45.276.143;1.368.587.142;https://maps.google.com/?cid=0x0:0x83d1a0182193785;
hotel;hotel;Papua 99965;Kabupaten Mimika, Papua;Kabupaten Mimika, Papua;PAPUA;;Indonesia;;;;-47.985.913;1.375.275.422;https://maps.google.com/?cid=0x0:0x7045b6939b86864;
hotel;hotel;Swiss-Belinn Timika;Kwamki, Kec. Mimika Baru, Kabupaten Mimika, Papua 99971;Kec. Mimika Baru, Kabupaten Mimika;PAPUA;99971;Indonesia;9013265949;;;-45.320.138;1.368.642.398;https://maps.google.com/?cid=0x0:0xe2933010e70ba939;
hotel;hotel;Horison Diana Timika;Jl. Budi Utomo No.8, Kwamki, Kec. Mimika Baru, Kabupaten Mimika, Papua 99971;Kwamki, Kec. Mimika Baru, Kabupaten Mimika;PAPUA;99971;Indonesia;8114941818;;;-45.421.375;1.368.835.025;https://maps.google.com/?cid=0x0:0xc5f75bca5af54755;
hotel;hotel;Hotel Horison Ultima Timika;Jl. Hasanuddin No.9, Nawaripi, Kec. Mimika Baru, Kabupaten Mimika, Papua 99971;Nawaripi, Kec. Mimika Baru, Kabupaten Mimika;PAPUA;99971;Indonesia;9013264888;;;-45.657.683;1.368.827.914;https://maps.google.com/?cid=0x0:0x2acb1e774fc2c064;
hotel;hotel;HOTEL CARTENZ TIMIKA;Jl. Budi Utomo, Pasar Sentral, Kec. Mimika Baru, Kabupaten Mimika, Papua 99910;Pasar Sentral, Kec. Mimika Baru, Kabupaten Mimika;PAPUA;99910;Indonesia;9013270746;;;-45.639.262;1.368.800.612;https://maps.google.com/?cid=0x0:0xff7b843c8dbed29d;
hotel;hotel;Hotel Grand Papua Sentani;Jalan Sosial No.388, Hinekombe, Kec. Sentani, Kabupaten Jayapura, Papua 99352;Hinekombe, Kec. Sentani, Kabupaten Jayapura;PAPUA;99352;Indonesia;8114827899;;;-2.557.344;1.404.958.181;https://maps.google.com/?cid=0x0:0x9afaf186d23bb377;
hotel;hotel;Hotel Cenderawasih 66;Kwamki, Kec. Mimika Baru, Kabupaten Mimika, Papua 99971;Kec. Mimika Baru, Kabupaten Mimika;PAPUA;99971;Indonesia;8114909466;;;-45.406.265;136.877.203;https://maps.google.com/?cid=0x0:0x5be4adf05d85555b;
hotel;hotel;N/A;;;PAPUA;;Indonesia;;;;;;https://maps.google.com/?cid=0x0:0x9c8a2fd141b3aa33%7C/g/11b73kkp76%7Cen-ID;
hotel;hotel;Hotel Sahid Papua;Jl. Klp. 2 No.18, Entrop, Distrik Jayapura Selatan, Kota Jayapura, Papua 99221;Entrop, Distrik Jayapura Selatan, Kota Jayapura;PAPUA;99221;Indonesia;811481167;;;-25.661.461;1.406.996.539;https://maps.google.com/?cid=0x0:0x9c8a2fd141b3aa33;
hotel;hotel;Noken Hotel Timika;FV5M+62C, Jl. Budi Utomo, Kwamki, Kec. Mimika Baru, Kabupaten Mimika, Papua 99910;Jl. Budi Utomo, Kwamki, Kec. Mimika Baru, Kabupaten Mimika;PAPUA;99910;Indonesia;8114991033;;;-45.419.296;1.368.825.128;https://maps.google.com/?cid=0x0:0x2fc89f236a139de5;
hotel;hotel;Hotel Serayu;Jl. Yos Sudarso No.10, Koperapoka, Kec. Mimika Baru, Kabupaten Mimika, Papua 99971;Koperapoka, Kec. Mimika Baru, Kabupaten Mimika;PAPUA;99971;Indonesia;82199984085;;;-45.492.995;1.368.902.348;https://maps.google.com/?cid=0x0:0xe357fb3041308a6c;
hotel;hotel;Emerald Hotel;Jl. Cendrawasih, Timika Jaya, Kec. Mimika Baru, Kabupaten Mimika, Papua 99963;Timika Jaya, Kec. Mimika Baru, Kabupaten Mimika;PAPUA;99963;Indonesia;9013260124;;;-45.405.312;1.368.759.912;https://maps.google.com/?cid=0x0:0x731314059a512d0f;
hotel;hotel;Bisnis Hotel;Kwamki, Kec. Mimika Baru, Kabupaten Mimika, Papua 99971;Kec. Mimika Baru, Kabupaten Mimika;PAPUA;99971;Indonesia;9013264510;;;-45.452.777;1.368.833.867;https://maps.google.com/?cid=0x0:0x690d0340d9882c9c;
hotel;hotel;Hotel R6;Jl.Cendrawasih SP2, Papua 99952;Kabupaten Mimika, Papua;PAPUA;;Indonesia;82245112457;;;-4.538.464;1.368.691.429;https://maps.google.com/?cid=0x0:0xb392d58fbaabfb69;
hotel;hotel;SIP Azana Hotel Jayapura;Jl. Ahmad Yani No.50, Gurabesi, Kec. Jayapura Utara, Kota Jayapura, Papua 99221;Gurabesi, Kec. Jayapura Utara, Kota Jayapura;PAPUA;99221;Indonesia;82197886688;;;-25.436.754;1.407.014.241;https://maps.google.com/?cid=0x0:0xc311c59465e76f9e;
hotel;hotel;Hotel Grand Tembaga;Timika tembaga, Nawaripi, Kec. Mimika Baru, Kabupaten Mimika, Papua 23338;Nawaripi, Kec. Mimika Baru, Kabupaten Mimika;PAPUA;23338;Indonesia;;;;-45.531.771;1.368.896.109;https://maps.google.com/?cid=0x0:0x51c794842c50a185;
hotel;hotel;RedDoorz @ Jalan Cendrawasih Timika;Jalan Cendrawasih Belakang Manna, Kwamki, Bakerei, Kabupaten Mimika, Papua 99910;Kwamki, Bakerei, Kabupaten Mimika;PAPUA;99910;Indonesia;8,95417E+11;;;-45.424.845;1.368.797.499;https://maps.google.com/?cid=0x0:0xe497a05bd4efc640;
hotel;hotel;Rimba Papua Hotel;Jl. Kwamki Narama No. 1, Kwamki, Kec. Mimika Baru, Kabupaten Mimika, Papua 99971;Kwamki, Kec. Mimika Baru, Kabupaten Mimika;PAPUA;99971;Indonesia;901494949;;;-45.151.124;136.884.599;https://maps.google.com/?cid=0x0:0xa65056700db32492;
hotel;hotel;Hotel OssA 'de' Villa;Jl.Acis No.1, Nawaripi, Kec. Mimika Baru, Kabupaten Mimika, Papua 99971;Nawaripi, Kec. Mimika Baru, Kabupaten Mimika;PAPUA;99971;Indonesia;811493777;;;-45.657.839;1.368.821.893;https://maps.google.com/?cid=0x0:0x557d79c7932567f6;
hotel;hotel;RAFAEL INN TIMIKA;Jl. Kelimutu, Kwamki, Kec. Mimika Baru, Kabupaten Mimika, Papua 99912;Kwamki, Kec. Mimika Baru, Kabupaten Mimika;PAPUA;99912;Indonesia;81222201567;;;-45.369.955;1.368.758.451;https://maps.google.com/?cid=0x0:0xb5f301a0d62aeed0;
hotel;hotel;Komoro Tame Hotel  Resort;Jalan Cendrawasih SP II, Kwamki, Kec. Mimika Baru, Kabupaten Mimika, Papua 99910;Kwamki, Kec. Mimika Baru, Kabupaten Mimika;PAPUA;99910;Indonesia;9013260059;;;-45.411.009;1.368.800.714;https://maps.google.com/?cid=0x0:0xe4c13d4863f484f5;
hotel;hotel;Lavela Inn Timika;Kwamki, Kec. Mimika Baru, Kabupaten Mimika, Papua 99971;Kec. Mimika Baru, Kabupaten Mimika;PAPUA;99971;Indonesia;8114994940;;;-45.391.172;1.368.759.273;https://maps.google.com/?cid=0x0:0xa4c513a55702dcad;
hotel;hotel;Hotel Kanguru Timika;Timika Indah Cafe, Kwamki, Mimika Baru, Mimika Regency, Papua 99971;Kwamki, Mimika Baru, Mimika Regency;PAPUA;99971;Indonesia;811490022;;;-45.276.143;1.368.587.142;https://maps.google.com/?cid=0x0:0x83d1a0182193785;
hotel;hotel;Amaris Hotel Dr. Satrio Kuningan - Jakarta;7, Jl. Prof. DR. Satrio No.23, RW.2, Kuningan Tim., Kecamatan Setiabudi, Kota Jakarta Selatan, Daerah Khusus Ibukota Jakarta 12950;Jl. Prof. DR. Satrio No.23, RW.2, Kuningan Tim., Kecamatan Setiabudi, Kota Jakarta Selatan;PAPUA;12950;Indonesia;2129023336;;;-62.256.071;1.068.296.596;https://maps.google.com/?cid=0x0:0x9703a3bf392e02d5;
hotel;hotel;N/A;;;PAPUA;;Indonesia;;;;;;https://maps.google.com/?cid=0x0:0x9703a3bf392e02d5%7C/g/11clzk9zfc%7Cen-ID;
hotel;hotel;N/A;;;PAPUA;;Indonesia;;;;;;https://maps.google.com/?cid=0x0:0x54fd31f2806946cb%7C/g/1tj5hl1s%7Cen-ID;
hotel;hotel;Manhattan Hotel Jakarta;Jl. Prof. DR. Satrio No.Kav.19-24, RT.7/RW.4, Kuningan, Karet Kuningan, Kecamatan Setiabudi, Kota Jakarta Selatan, Daerah Khusus Ibukota Jakarta 12940;RT.7/RW.4, Kuningan, Karet Kuningan, Kecamatan Setiabudi, Kota Jakarta Selatan;PAPUA;12940;Indonesia;2130040888;;;-62.252.344;1.068.313.176;https://maps.google.com/?cid=0x0:0x54fd31f2806946cb;
hotel;Prasmanan;Central Park Restaurant;Manhattan Hotel 3rd Floor, JL Prof. Dr. Satrio, No. 1, Casablanca Kuningan, RT.7/RW.4, Kuningan, Karet Kuningan, Jakarta Selatan, Kota Jakarta Selatan, Daerah Khusus Ibukota Jakarta 12950;JL Prof. Dr. Satrio, No. 1, Casablanca Kuningan, RT.7/RW.4, Kuningan, Karet Kuningan, Jakarta Selatan, Kota Jakarta Selatan;PAPUA;12950;Indonesia;2130040888;;;-62.254.615;1.068.312.765;https://maps.google.com/?cid=0x0:0x47e83ff4b2d01406;
hotel;hotel;Hotel D' Prima;Jl. Mega Kuningan Timur II No.1, Kuningan, Kuningan Tim., Kecamatan Setiabudi, Kota Jakarta Selatan, Daerah Khusus Ibukota Jakarta 12950;Kuningan, Kuningan Tim., Kecamatan Setiabudi, Kota Jakarta Selatan;PAPUA;12950;Indonesia;2129201234;;;-62.285.905;1.068.282.792;https://maps.google.com/?cid=0x0:0xb5a37f1e4d342823;
hotel;hotel;Papua 99966;Papua;Papua;PAPUA;;Indonesia;;;;-42.043.028;1.375.668.376;https://maps.google.com/?cid=0x0:0x1fe5af7715c1e227;
hotel;hotel;Hotel Sahid Papua;Jl. Klp. 2 No.18, Entrop, Distrik Jayapura Selatan, Kota Jayapura, Papua 99221;Entrop, Distrik Jayapura Selatan, Kota Jayapura;PAPUA;99221;Indonesia;811481167;;;-25.661.461;1.406.996.539;https://maps.google.com/?cid=0x0:0x9c8a2fd141b3aa33;
hotel;hotel;N/A;;;PAPUA;;Indonesia;;;;;;https://maps.google.com/?cid=0x0:0x9c8a2fd141b3aa33%7C/g/11b73kkp76%7Cen-ID;
hotel;hotel;RAFA HOTEL;9MXC+PQ7, Vim, Kec. Abepura, Kota Jayapura, Papua;Kota Jayapura, Papua;PAPUA;;Indonesia;;;;-26.011.488;1.406.717.368;https://maps.google.com/?cid=0x0:0x18c6cc75351cda98;
hotel;hotel;Hotel R6;Jl.Cendrawasih SP2, Papua 99952;Kabupaten Mimika, Papua;PAPUA;;Indonesia;82245112457;;;-4.538.464;1.368.691.429;https://maps.google.com/?cid=0x0:0xb392d58fbaabfb69;
hotel;hotel;SIP Azana Hotel Jayapura;Jl. Ahmad Yani No.50, Gurabesi, Kec. Jayapura Utara, Kota Jayapura, Papua 99221;Gurabesi, Kec. Jayapura Utara, Kota Jayapura;PAPUA;99221;Indonesia;82197886688;;;-25.436.754;1.407.014.241;https://maps.google.com/?cid=0x0:0xc311c59465e76f9e;
hotel;hotel;The Baliem Valley Resort;Desa Sekan Kecamatan Siepkosi, Pugima, Distrik Wamena, Kabupaten Jayawijaya, Papua 80034;Pugima, Distrik Wamena, Kabupaten Jayawijaya;PAPUA;80034;Indonesia;;;;-40.595.129;1.390.293.485;https://maps.google.com/?cid=0x0:0xa5f70df54e54f86c;
hotel;hotel;Rimba Papua Hotel;Jl. Kwamki Narama No. 1, Kwamki, Kec. Mimika Baru, Kabupaten Mimika, Papua 99971;Kwamki, Kec. Mimika Baru, Kabupaten Mimika;PAPUA;99971;Indonesia;901494949;;;-45.151.124;136.884.599;https://maps.google.com/?cid=0x0:0xa65056700db32492;
hotel;hotel;Hotel Karya Papua;JGX6+2PM, Jl. R.E. Martadinata Kalinona, Nabarua, Distrik Nabire, Papua 98816;Jl. R.E. Martadinata Kalinona, Nabarua, Distrik Nabire;PAPUA;98816;Indonesia;82164655697;;;-33.524.082;1.355.118.114;https://maps.google.com/?cid=0x0:0x8196bf4b8aafbb3f;
hotel;hotel;Horison Inn Relat Jayapura;Jl. Pantai Klp. No.21 - 23, Argapura, Distrik Jayapura Selatan, Kota Jayapura, Papua;Kota Jayapura, Papua;PAPUA;;Indonesia;9675160779;;;-25.537.101;1.407.148.929;https://maps.google.com/?cid=0x0:0xb98fc1bbb5c5c494;
hotel;hotel;Penginapan Paparisa Amungsa;Koperapoka, Kec. Mimika Baru, Kabupaten Mimika, Papua 99971;Kec. Mimika Baru, Kabupaten Mimika;PAPUA;99971;Indonesia;81343206383;;;-45.385.795;1.368.755.667;https://maps.google.com/?cid=0x0:0xfd07a1d4446c8f23;
hotel;hotel;Hotel Mutiara;CM3C+873, Jl. Perkutut, Vim, Kec. Abepura, Kota Jayapura, Papua 99225;Jl. Perkutut, Vim, Kec. Abepura, Kota Jayapura;PAPUA;99225;Indonesia;81348430963;;;-25.967.398;1.406.706.613;https://maps.google.com/?cid=0x0:0xb730b0fce1d80fe4;
hotel;hotel;Hotel Ratna Manunggal;JL Penerangan No.2, Sentani Kota, Kec. Sentani, Kabupaten Jayapura, Papua 99359;Sentani Kota, Kec. Sentani, Kabupaten Jayapura;PAPUA;99359;Indonesia;967592277;;;-25.664.673;1.405.131.587;https://maps.google.com/?cid=0x0:0x48909e20fce419f9;
hotel;hotel;Galaxy Hotel Abepura;Kp. Waena, Kec. Heram, Kota Jayapura, Papua 99351;Kec. Heram, Kota Jayapura;PAPUA;99351;Indonesia;81150500147;;;-25.944.039;1.406.254.198;https://maps.google.com/?cid=0x0:0xf9951793f247fc13;
hotel;hotel;Hotel Dafonsoro;Jl. Percetakan Negara No.20-24, Gurabesi, Kec. Jayapura Utara, Kota Jayapura, Papua 99221;Gurabesi, Kec. Jayapura Utara, Kota Jayapura;PAPUA;99221;Indonesia;85788877739;;;-25.406.973;1.407.041.061;https://maps.google.com/?cid=0x0:0xda20a7d826a77577;
hotel;hotel;Hotel Mapia;Jl. Jend. Ahmad Yani No.23, Mandala, Kec. Biak Kota, Kabupaten Biak Numfor, Papua 98111;Mandala, Kec. Biak Kota, Kabupaten Biak Numfor;PAPUA;98111;Indonesia;98121383;;;-11.848.375;1.360.856.602;https://maps.google.com/?cid=0x0:0x15f6e40202cd7120;
hotel;hotel;Numbay Hotel;Jl. Trikora No.23, Dok V, Trikora, Kec. Jayapura Utara, Kota Jayapura, Papua 99114;Dok V, Trikora, Kec. Jayapura Utara, Kota Jayapura;PAPUA;99114;Indonesia;9675166939;;;-2.527.363;1.407.185.297;https://maps.google.com/?cid=0x0:0x2a95e5b69088c98d;
hotel;hotel;Hotel Rannu Jaya;WW6V+7RM, Wamena Kota, Distrik Wamena, Kabupaten Jayawijaya, Papua 99511;Wamena Kota, Distrik Wamena, Kabupaten Jayawijaya;PAPUA;99511;Indonesia;82195455765;;;-40.892.985;1.389.445.592;https://maps.google.com/?cid=0x0:0xdd25cadd9590097a;
hotel;hotel;Hotel Matoa;Jl. Ahmad Yani No.14, Gurabesi, Kec. Jayapura Utara, Kota Jayapura, Papua 99222;Gurabesi, Kec. Jayapura Utara, Kota Jayapura;PAPUA;99222;Indonesia;967531633;;;-25.431.901;1.407.035.183;https://maps.google.com/?cid=0x0:0x81bb053fbf57415d;
hotel;hotel;Papua;;Papua;PAPUA;;Indonesia;;;;-4.269.928;1.380.803.529;https://maps.google.com/?cid=0x0:0xeba94e9c5eefe673;
hotel;hotel;Penginapan 69;Kp. Waena, Kec. Heram, Kota Jayapura, Papua 99225;Kec. Heram, Kota Jayapura;PAPUA;99225;Indonesia;81248523621;;;-2.593.495;1.406.310.796;https://maps.google.com/?cid=0x0:0x12711ec27878fab8;
hotel;hotel;Hotel Cenderawasih 66;Kwamki, Kec. Mimika Baru, Kabupaten Mimika, Papua 99971;Kec. Mimika Baru, Kabupaten Mimika;PAPUA;99971;Indonesia;8114909466;;;-45.406.265;136.877.203;https://maps.google.com/?cid=0x0:0x5be4adf05d85555b;
hotel;Taman;Pusat kota kuala kencana;JV39+Q2H, Kuala Kencana, Kec. Kuala Kencana, Kabupaten Mimika, Papua;Kabupaten Mimika, Papua;PAPUA;;Indonesia;;;;-43.955.572;1.368.676.097;https://maps.google.com/?cid=0x0:0xc130e6059a0d59c3;
hotel;hotel;HOTEL CARTENZ TIMIKA;Jl. Budi Utomo, Pasar Sentral, Kec. Mimika Baru, Kabupaten Mimika, Papua 99910;Pasar Sentral, Kec. Mimika Baru, Kabupaten Mimika;PAPUA;99910;Indonesia;9013270746;;;-45.639.262;1.368.800.612;https://maps.google.com/?cid=0x0:0xff7b843c8dbed29d;
hotel;hotel;Bisnis Hotel;Kwamki, Kec. Mimika Baru, Kabupaten Mimika, Papua 99971;Kec. Mimika Baru, Kabupaten Mimika;PAPUA;99971;Indonesia;9013264510;;;-45.452.777;1.368.833.867;https://maps.google.com/?cid=0x0:0x690d0340d9882c9c;
hotel;hotel;Swiss-Belinn Timika;Kwamki, Kec. Mimika Baru, Kabupaten Mimika, Papua 99971;Kec. Mimika Baru, Kabupaten Mimika;PAPUA;99971;Indonesia;9013265949;;;-45.320.138;1.368.642.398;https://maps.google.com/?cid=0x0:0xe2933010e70ba939;
hotel;hotel;Jaya Hotel;CVJP+XV2, Jl. Raya Sp1, Inauga, Kec. Mimika Baru, Kabupaten Mimika, Papua 99971;Jl. Raya Sp1, Inauga, Kec. Mimika Baru, Kabupaten Mimika;PAPUA;99971;Indonesia;87777677405;;;-45.676.146;1.368.871.472;https://maps.google.com/?cid=0x0:0x854e1f8dfba40a6c;
hotel;hotel;RAFAEL INN TIMIKA;Jl. Kelimutu, Kwamki, Kec. Mimika Baru, Kabupaten Mimika, Papua 99912;Kwamki, Kec. Mimika Baru, Kabupaten Mimika;PAPUA;99912;Indonesia;81222201567;;;-45.369.955;1.368.758.451;https://maps.google.com/?cid=0x0:0xb5f301a0d62aeed0;
hotel;hotel;Hotel Horison Ultima Timika;Jl. Hasanuddin No.9, Nawaripi, Kec. Mimika Baru, Kabupaten Mimika, Papua 99971;Nawaripi, Kec. Mimika Baru, Kabupaten Mimika;PAPUA;99971;Indonesia;9013264888;;;-45.657.683;1.368.827.914;https://maps.google.com/?cid=0x0:0x2acb1e774fc2c064;
hotel;hotel;Papua 99971;Kabupaten Mimika, Papua;Kabupaten Mimika, Papua;PAPUA;;Indonesia;;;;-47.222.914;136.941.659;https://maps.google.com/?cid=0x0:0x309b23773920c02b;
hotel;hotel;Horison Diana Timika;Jl. Budi Utomo No.8, Kwamki, Kec. Mimika Baru, Kabupaten Mimika, Papua 99971;Kwamki, Kec. Mimika Baru, Kabupaten Mimika;PAPUA;99971;Indonesia;8114941818;;;-45.421.375;1.368.835.025;https://maps.google.com/?cid=0x0:0xc5f75bca5af54755;
hotel;hotel;N/A;;;PAPUA;;Indonesia;;;;;;https://maps.google.com/?cid=0x0:0xc5f75bca5af54755%7C/g/11hst6d1yy%7Cen-ID;
hotel;hotel;HOTEL CARTENZ TIMIKA;Jl. Budi Utomo, Pasar Sentral, Kec. Mimika Baru, Kabupaten Mimika, Papua 99910;Pasar Sentral, Kec. Mimika Baru, Kabupaten Mimika;PAPUA;99910;Indonesia;9013270746;;;-45.639.262;1.368.800.612;https://maps.google.com/?cid=0x0:0xff7b843c8dbed29d;
hotel;hotel;Hotel Horison Ultima Timika;Jl. Hasanuddin No.9, Nawaripi, Kec. Mimika Baru, Kabupaten Mimika, Papua 99971;Nawaripi, Kec. Mimika Baru, Kabupaten Mimika;PAPUA;99971;Indonesia;9013264888;;;-45.657.683;1.368.827.914;https://maps.google.com/?cid=0x0:0x2acb1e774fc2c064;
hotel;hotel;Noken Hotel Timika;FV5M+62C, Jl. Budi Utomo, Kwamki, Kec. Mimika Baru, Kabupaten Mimika, Papua 99910;Jl. Budi Utomo, Kwamki, Kec. Mimika Baru, Kabupaten Mimika;PAPUA;99910;Indonesia;8114991033;;;-45.419.296;1.368.825.128;https://maps.google.com/?cid=0x0:0x2fc89f236a139de5;
hotel;hotel;Hotel Cenderawasih 66;Kwamki, Kec. Mimika Baru, Kabupaten Mimika, Papua 99971;Kec. Mimika Baru, Kabupaten Mimika;PAPUA;99971;Indonesia;8114909466;;;-45.406.265;136.877.203;https://maps.google.com/?cid=0x0:0x5be4adf05d85555b;
hotel;hotel;RedDoorz @ Jalan Cendrawasih Timika;Jalan Cendrawasih Belakang Manna, Kwamki, Bakerei, Kabupaten Mimika, Papua 99910;Kwamki, Bakerei, Kabupaten Mimika;PAPUA;99910;Indonesia;8,95417E+11;;;-45.424.845;1.368.797.499;https://maps.google.com/?cid=0x0:0xe497a05bd4efc640;
hotel;hotel;Hotel Serayu;Jl. Yos Sudarso No.10, Koperapoka, Kec. Mimika Baru, Kabupaten Mimika, Papua 99971;Koperapoka, Kec. Mimika Baru, Kabupaten Mimika;PAPUA;99971;Indonesia;82199984085;;;-45.492.995;1.368.902.348;https://maps.google.com/?cid=0x0:0xe357fb3041308a6c;
hotel;hotel;Bisnis Hotel;Kwamki, Kec. Mimika Baru, Kabupaten Mimika, Papua 99971;Kec. Mimika Baru, Kabupaten Mimika;PAPUA;99971;Indonesia;9013264510;;;-45.452.777;1.368.833.867;https://maps.google.com/?cid=0x0:0x690d0340d9882c9c;
hotel;hotel;Hotel R6;Jl.Cendrawasih SP2, Papua 99952;Kabupaten Mimika, Papua;PAPUA;;Indonesia;82245112457;;;-4.538.464;1.368.691.429;https://maps.google.com/?cid=0x0:0xb392d58fbaabfb69;
hotel;hotel;Lavela Inn Timika;Kwamki, Kec. Mimika Baru, Kabupaten Mimika, Papua 99971;Kec. Mimika Baru, Kabupaten Mimika;PAPUA;99971;Indonesia;8114994940;;;-45.391.172;1.368.759.273;https://maps.google.com/?cid=0x0:0xa4c513a55702dcad;
hotel;hotel;Emerald Hotel;Jl. Cendrawasih, Timika Jaya, Kec. Mimika Baru, Kabupaten Mimika, Papua 99963;Timika Jaya, Kec. Mimika Baru, Kabupaten Mimika;PAPUA;99963;Indonesia;9013260124;;;-45.405.312;1.368.759.912;https://maps.google.com/?cid=0x0:0x731314059a512d0f;
hotel;hotel;Rimba Papua Hotel;Jl. Kwamki Narama No. 1, Kwamki, Kec. Mimika Baru, Kabupaten Mimika, Papua 99971;Kwamki, Kec. Mimika Baru, Kabupaten Mimika;PAPUA;99971;Indonesia;901494949;;;-45.151.124;136.884.599;https://maps.google.com/?cid=0x0:0xa65056700db32492;
hotel;hotel;RAFAEL INN TIMIKA;Jl. Kelimutu, Kwamki, Kec. Mimika Baru, Kabupaten Mimika, Papua 99912;Kwamki, Kec. Mimika Baru, Kabupaten Mimika;PAPUA;99912;Indonesia;81222201567;;;-45.369.955;1.368.758.451;https://maps.google.com/?cid=0x0:0xb5f301a0d62aeed0;
hotel;hotel;Hotel OssA 'de' Villa;Jl.Acis No.1, Nawaripi, Kec. Mimika Baru, Kabupaten Mimika, Papua 99971;Nawaripi, Kec. Mimika Baru, Kabupaten Mimika;PAPUA;99971;Indonesia;811493777;;;-45.657.839;1.368.821.893;https://maps.google.com/?cid=0x0:0x557d79c7932567f6;
hotel;hotel;Hotel Timika;Jl. Hasanuddin No.9, Nawaripi, Kec. Mimika Baru, Kabupaten Mimika, Papua 99971;Nawaripi, Kec. Mimika Baru, Kabupaten Mimika;PAPUA;99971;Indonesia;;;;-4.566.916;1.368.828.964;https://maps.google.com/?cid=0x0:0x51b78f3be0c597f8;
hotel;hotel;Hotel Kanguru Timika;Timika Indah Cafe, Kwamki, Mimika Baru, Mimika Regency, Papua 99971;Kwamki, Mimika Baru, Mimika Regency;PAPUA;99971;Indonesia;811490022;;;-45.276.143;1.368.587.142;https://maps.google.com/?cid=0x0:0x83d1a0182193785;
hotel;hotel;Hotel Grand Tembaga;Timika tembaga, Nawaripi, Kec. Mimika Baru, Kabupaten Mimika, Papua 23338;Nawaripi, Kec. Mimika Baru, Kabupaten Mimika;PAPUA;23338;Indonesia;;;;-45.531.771;1.368.896.109;https://maps.google.com/?cid=0x0:0x51c794842c50a185;
hotel;hotel;Hotel Golden Mimika;Jl. Klp. Dua No.25, Kwamki, Kec. Mimika Baru, Kabupaten Mimika, Papua 99971;Kwamki, Kec. Mimika Baru, Kabupaten Mimika;PAPUA;99971;Indonesia;901323111;;;-4.544.451;1.368.879.651;https://maps.google.com/?cid=0x0:0xc7ff62d17b20c3d1;
hotel;hotel;Wisma Batu Emas;FV5V+8V6, Jl. Jend. Ahmad Yani No.82, Timika Jaya, Kec. Mimika Baru, Kabupaten Mimika, Papua 99971;Jl. Jend. Ahmad Yani No.82, Timika Jaya, Kec. Mimika Baru, Kabupaten Mimika;PAPUA;99971;Indonesia;82226644055;;;-45.416.378;1.368.946.189;https://maps.google.com/?cid=0x0:0x476fe2dfe1f91f59;
hotel;hotel;Jaya Hotel;CVJP+XV2, Jl. Raya Sp1, Inauga, Kec. Mimika Baru, Kabupaten Mimika, Papua 99971;Jl. Raya Sp1, Inauga, Kec. Mimika Baru, Kabupaten Mimika;PAPUA;99971;Indonesia;87777677405;;;-45.676.146;1.368.871.472;https://maps.google.com/?cid=0x0:0x854e1f8dfba40a6c;
hotel;hotel;Hotel Sawitto 1;FV4V+3QV, Timika Jaya, Kec. Mimika Baru, Kabupaten Mimika, Papua 99971;Timika Jaya, Kec. Mimika Baru, Kabupaten Mimika;PAPUA;99971;Indonesia;;;;-45.447.575;1.368.944.296;https://maps.google.com/?cid=0x0:0xa49800860bcb43de;
hotel;hotel;Homestay Timika Indah;CVXM+C24, Jl. Pendidikan, Nawaripi, Kec. Mimika Baru, Kabupaten Mimika, Papua 99971;Jl. Pendidikan, Nawaripi, Kec. Mimika Baru, Kabupaten Mimika;PAPUA;99971;Indonesia;8114900888;;;-45.514.946;1.368.825.645;https://maps.google.com/?cid=0x0:0xcf394a604ff7d3b1;
hotel;hotel;Papua 99968;Kabupaten Mimika, Papua;Kabupaten Mimika, Papua;PAPUA;;Indonesia;;;;-42.590.064;1.365.547.852;https://maps.google.com/?cid=0x0:0x32d5cd81eafb994;
hotel;hotel;HOTEL CARTENZ TIMIKA;Jl. Budi Utomo, Pasar Sentral, Kec. Mimika Baru, Kabupaten Mimika, Papua 99910;Pasar Sentral, Kec. Mimika Baru, Kabupaten Mimika;PAPUA;99910;Indonesia;9013270746;;;-45.639.262;1.368.800.612;https://maps.google.com/?cid=0x0:0xff7b843c8dbed29d;
hotel;Hostel;Swiss-Belinn Timika;Kwamki, Kec. Mimika Baru, Kabupaten Mimika, Papua 99971;Kec. Mimika Baru, Kabupaten Mimika;PAPUA;99971;Indonesia;9013265949;;;-45.320.138;1.368.642.398;https://maps.google.com/?cid=0x0:0xe2933010e70ba939;
hotel;hotel;N/A;;;PAPUA;;Indonesia;;;;;;https://maps.google.com/?cid=0x0:0xc5f75bca5af54755%7C/g/11hst6d1yy%7Cen-ID;
hotel;hotel;Hotel Horison Ultima Timika;Jl. Hasanuddin No.9, Nawaripi, Kec. Mimika Baru, Kabupaten Mimika, Papua 99971;Nawaripi, Kec. Mimika Baru, Kabupaten Mimika;PAPUA;99971;Indonesia;9013264888;;;-45.657.683;1.368.827.914;https://maps.google.com/?cid=0x0:0x2acb1e774fc2c064;
hotel;hotel;Hotel Cenderawasih 66;Kwamki, Kec. Mimika Baru, Kabupaten Mimika, Papua 99971;Kec. Mimika Baru, Kabupaten Mimika;PAPUA;99971;Indonesia;8114909466;;;-45.406.265;136.877.203;https://maps.google.com/?cid=0x0:0x5be4adf05d85555b;
hotel;hotel;Noken Hotel Timika;FV5M+62C, Jl. Budi Utomo, Kwamki, Kec. Mimika Baru, Kabupaten Mimika, Papua 99910;Jl. Budi Utomo, Kwamki, Kec. Mimika Baru, Kabupaten Mimika;PAPUA;99910;Indonesia;8114991033;;;-45.419.296;1.368.825.128;https://maps.google.com/?cid=0x0:0x2fc89f236a139de5;
hotel;hotel;Emerald Hotel;Jl. Cendrawasih, Timika Jaya, Kec. Mimika Baru, Kabupaten Mimika, Papua 99963;Timika Jaya, Kec. Mimika Baru, Kabupaten Mimika;PAPUA;99963;Indonesia;9013260124;;;-45.405.312;1.368.759.912;https://maps.google.com/?cid=0x0:0x731314059a512d0f;
hotel;hotel;Hotel Serayu;Jl. Yos Sudarso No.10, Koperapoka, Kec. Mimika Baru, Kabupaten Mimika, Papua 99971;Koperapoka, Kec. Mimika Baru, Kabupaten Mimika;PAPUA;99971;Indonesia;82199984085;;;-45.492.995;1.368.902.348;https://maps.google.com/?cid=0x0:0xe357fb3041308a6c;
hotel;hotel;Bisnis Hotel;Kwamki, Kec. Mimika Baru, Kabupaten Mimika, Papua 99971;Kec. Mimika Baru, Kabupaten Mimika;PAPUA;99971;Indonesia;9013264510;;;-45.452.777;1.368.833.867;https://maps.google.com/?cid=0x0:0x690d0340d9882c9c;
hotel;hotel;Hotel R6;Jl.Cendrawasih SP2, Papua 99952;Kabupaten Mimika, Papua;PAPUA;;Indonesia;82245112457;;;-4.538.464;1.368.691.429;https://maps.google.com/?cid=0x0:0xb392d58fbaabfb69;
hotel;hotel;RedDoorz @ Jalan Cendrawasih Timika;Jalan Cendrawasih Belakang Manna, Kwamki, Bakerei, Kabupaten Mimika, Papua 99910;Kwamki, Bakerei, Kabupaten Mimika;PAPUA;99910;Indonesia;8,95417E+11;;;-45.424.845;1.368.797.499;https://maps.google.com/?cid=0x0:0xe497a05bd4efc640;
hotel;hotel;Hotel Grand Tembaga;Timika tembaga, Nawaripi, Kec. Mimika Baru, Kabupaten Mimika, Papua 23338;Nawaripi, Kec. Mimika Baru, Kabupaten Mimika;PAPUA;23338;Indonesia;;;;-45.531.771;1.368.896.109;https://maps.google.com/?cid=0x0:0x51c794842c50a185;
hotel;hotel;RAFAEL INN TIMIKA;Jl. Kelimutu, Kwamki, Kec. Mimika Baru, Kabupaten Mimika, Papua 99912;Kwamki, Kec. Mimika Baru, Kabupaten Mimika;PAPUA;99912;Indonesia;81222201567;;;-45.369.955;1.368.758.451;https://maps.google.com/?cid=0x0:0xb5f301a0d62aeed0;
hotel;hotel;Rimba Papua Hotel;Jl. Kwamki Narama No. 1, Kwamki, Kec. Mimika Baru, Kabupaten Mimika, Papua 99971;Kwamki, Kec. Mimika Baru, Kabupaten Mimika;PAPUA;99971;Indonesia;901494949;;;-45.151.124;136.884.599;https://maps.google.com/?cid=0x0:0xa65056700db32492;
hotel;hotel;Komoro Tame Hotel  Resort;Jalan Cendrawasih SP II, Kwamki, Kec. Mimika Baru, Kabupaten Mimika, Papua 99910;Kwamki, Kec. Mimika Baru, Kabupaten Mimika;PAPUA;99910;Indonesia;9013260059;;;-45.411.009;1.368.800.714;https://maps.google.com/?cid=0x0:0xe4c13d4863f484f5;
hotel;hotel;Hotel OssA 'de' Villa;Jl.Acis No.1, Nawaripi, Kec. Mimika Baru, Kabupaten Mimika, Papua 99971;Nawaripi, Kec. Mimika Baru, Kabupaten Mimika;PAPUA;99971;Indonesia;811493777;;;-45.657.839;1.368.821.893;https://maps.google.com/?cid=0x0:0x557d79c7932567f6;
hotel;hotel;Lavela Inn Timika;Kwamki, Kec. Mimika Baru, Kabupaten Mimika, Papua 99971;Kec. Mimika Baru, Kabupaten Mimika;PAPUA;99971;Indonesia;8114994940;;;-45.391.172;1.368.759.273;https://maps.google.com/?cid=0x0:0xa4c513a55702dcad;
hotel;hotel;Hotel Kanguru Timika;Timika Indah Cafe, Kwamki, Mimika Baru, Mimika Regency, Papua 99971;Kwamki, Mimika Baru, Mimika Regency;PAPUA;99971;Indonesia;811490022;;;-45.276.143;1.368.587.142;https://maps.google.com/?cid=0x0:0x83d1a0182193785;
hotel;hotel;Hotel Timika;Jl. Hasanuddin No.9, Nawaripi, Kec. Mimika Baru, Kabupaten Mimika, Papua 99971;Nawaripi, Kec. Mimika Baru, Kabupaten Mimika;PAPUA;99971;Indonesia;;;;-4.566.916;1.368.828.964;https://maps.google.com/?cid=0x0:0x51b78f3be0c597f8;
hotel;hotel;SAMUMAMBO HOTEL;jl. cenderawasih belakang manna bakerei, Kwamki, Kec. Mimika Baru, Kabupaten Mimika, Papua 99910;Kwamki, Kec. Mimika Baru, Kabupaten Mimika;PAPUA;99910;Indonesia;81344090664;;;-45.424.836;1.368.797.497;https://maps.google.com/?cid=0x0:0xcb5241de257efb93;
hotel;hotel;Kec. Kuala Kencana;Kabupaten Mimika, Papua;Kabupaten Mimika, Papua;PAPUA;;Indonesia;;;;-43.653.215;1.367.478.493;https://maps.google.com/?cid=0x0:0xeec735e2ce5877e2;
hotel;hotel;Hotel Golden Mimika;Jl. Klp. Dua No.25, Kwamki, Kec. Mimika Baru, Kabupaten Mimika, Papua 99971;Kwamki, Kec. Mimika Baru, Kabupaten Mimika;PAPUA;99971;Indonesia;901323111;;;-4.544.451;1.368.879.651;https://maps.google.com/?cid=0x0:0xc7ff62d17b20c3d1;
hotel;hotel;HOTEL Timika Indah Papua;Jl. Jend. Ahmad Yani, Kwamki, Kec. Mimika Baru, Kabupaten Mimika, Papua 99910;Kwamki, Kec. Mimika Baru, Kabupaten Mimika;PAPUA;99910;Indonesia;8114900888;;;-45.450.918;1.368.950.181;https://maps.google.com/?cid=0x0:0x678db0783377d5c6;
hotel;hotel;Papua 99967;Kabupaten Mimika, Papua;Kabupaten Mimika, Papua;PAPUA;;Indonesia;;;;-42.294.388;1.370.193.913;https://maps.google.com/?cid=0x0:0x89f915cf55d48161;
hotel;hotel;Swiss-Belinn Timika;Kwamki, Kec. Mimika Baru, Kabupaten Mimika, Papua 99971;Kec. Mimika Baru, Kabupaten Mimika;PAPUA;99971;Indonesia;9013265949;;;-45.320.138;1.368.642.398;https://maps.google.com/?cid=0x0:0xe2933010e70ba939;
hotel;hotel;Horison Diana Timika;Jl. Budi Utomo No.8, Kwamki, Kec. Mimika Baru, Kabupaten Mimika, Papua 99971;Kwamki, Kec. Mimika Baru, Kabupaten Mimika;PAPUA;99971;Indonesia;8114941818;;;-45.421.375;1.368.835.025;https://maps.google.com/?cid=0x0:0xc5f75bca5af54755;
hotel;hotel;HOTEL CARTENZ TIMIKA;Jl. Budi Utomo, Pasar Sentral, Kec. Mimika Baru, Kabupaten Mimika, Papua 99910;Pasar Sentral, Kec. Mimika Baru, Kabupaten Mimika;PAPUA;99910;Indonesia;9013270746;;;-45.639.262;1.368.800.612;https://maps.google.com/?cid=0x0:0xff7b843c8dbed29d;
hotel;hotel;Hotel Cenderawasih 66;Kwamki, Kec. Mimika Baru, Kabupaten Mimika, Papua 99971;Kec. Mimika Baru, Kabupaten Mimika;PAPUA;99971;Indonesia;8114909466;;;-45.406.265;136.877.203;https://maps.google.com/?cid=0x0:0x5be4adf05d85555b;
hotel;hotel;Noken Hotel Timika;FV5M+62C, Jl. Budi Utomo, Kwamki, Kec. Mimika Baru, Kabupaten Mimika, Papua 99910;Jl. Budi Utomo, Kwamki, Kec. Mimika Baru, Kabupaten Mimika;PAPUA;99910;Indonesia;8114991033;;;-45.419.296;1.368.825.128;https://maps.google.com/?cid=0x0:0x2fc89f236a139de5;
hotel;Hotel;Emerald Hotel;Jl. Cendrawasih, Timika Jaya, Kec. Mimika Baru, Kabupaten Mimika, Papua 99963;Timika Jaya, Kec. Mimika Baru, Kabupaten Mimika;PAPUA;99963;Indonesia;9013260124;;;-45.405.312;1.368.759.912;https://maps.google.com/?cid=0x0:0x731314059a512d0f;
hotel;hotel;Hotel Serayu;Jl. Yos Sudarso No.10, Koperapoka, Kec. Mimika Baru, Kabupaten Mimika, Papua 99971;Koperapoka, Kec. Mimika Baru, Kabupaten Mimika;PAPUA;99971;Indonesia;82199984085;;;-45.492.995;1.368.902.348;https://maps.google.com/?cid=0x0:0xe357fb3041308a6c;
hotel;hotel;Bisnis Hotel;Kwamki, Kec. Mimika Baru, Kabupaten Mimika, Papua 99971;Kec. Mimika Baru, Kabupaten Mimika;PAPUA;99971;Indonesia;9013264510;;;-45.452.777;1.368.833.867;https://maps.google.com/?cid=0x0:0x690d0340d9882c9c;
hotel;hotel;Hotel R6;Jl.Cendrawasih SP2, Papua 99952;Kabupaten Mimika, Papua;PAPUA;;Indonesia;82245112457;;;-4.538.464;1.368.691.429;https://maps.google.com/?cid=0x0:0xb392d58fbaabfb69;
hotel;hotel;Rimba Papua Hotel;Jl. Kwamki Narama No. 1, Kwamki, Kec. Mimika Baru, Kabupaten Mimika, Papua 99971;Kwamki, Kec. Mimika Baru, Kabupaten Mimika;PAPUA;99971;Indonesia;901494949;;;-45.151.124;136.884.599;https://maps.google.com/?cid=0x0:0xa65056700db32492;
hotel;hotel;Hotel Grand Tembaga;Timika tembaga, Nawaripi, Kec. Mimika Baru, Kabupaten Mimika, Papua 23338;Nawaripi, Kec. Mimika Baru, Kabupaten Mimika;PAPUA;23338;Indonesia;;;;-45.531.771;1.368.896.109;https://maps.google.com/?cid=0x0:0x51c794842c50a185;
hotel;Hotel;RedDoorz @ Jalan Cendrawasih Timika;Jalan Cendrawasih Belakang Manna, Kwamki, Bakerei, Kabupaten Mimika, Papua 99910;Kwamki, Bakerei, Kabupaten Mimika;PAPUA;99910;Indonesia;8,95417E+11;;;-45.424.845;1.368.797.499;https://maps.google.com/?cid=0x0:0xe497a05bd4efc640;
hotel;hotel;RAFAEL INN TIMIKA;Jl. Kelimutu, Kwamki, Kec. Mimika Baru, Kabupaten Mimika, Papua 99912;Kwamki, Kec. Mimika Baru, Kabupaten Mimika;PAPUA;99912;Indonesia;81222201567;;;-45.369.955;1.368.758.451;https://maps.google.com/?cid=0x0:0xb5f301a0d62aeed0;
hotel;hotel;Lavela Inn Timika;Kwamki, Kec. Mimika Baru, Kabupaten Mimika, Papua 99971;Kec. Mimika Baru, Kabupaten Mimika;PAPUA;99971;Indonesia;8114994940;;;-45.391.172;1.368.759.273;https://maps.google.com/?cid=0x0:0xa4c513a55702dcad;
hotel;hotel;Komoro Tame Hotel  Resort;Jalan Cendrawasih SP II, Kwamki, Kec. Mimika Baru, Kabupaten Mimika, Papua 99910;Kwamki, Kec. Mimika Baru, Kabupaten Mimika;PAPUA;99910;Indonesia;9013260059;;;-45.411.009;1.368.800.714;https://maps.google.com/?cid=0x0:0xe4c13d4863f484f5;
hotel;hotel;Hotel Kanguru Timika;Timika Indah Cafe, Kwamki, Mimika Baru, Mimika Regency, Papua 99971;Kwamki, Mimika Baru, Mimika Regency;PAPUA;99971;Indonesia;811490022;;;-45.276.143;1.368.587.142;https://maps.google.com/?cid=0x0:0x83d1a0182193785;
hotel;hotel;Hotel Timika;Jl. Hasanuddin No.9, Nawaripi, Kec. Mimika Baru, Kabupaten Mimika, Papua 99971;Nawaripi, Kec. Mimika Baru, Kabupaten Mimika;PAPUA;99971;Indonesia;;;;-4.566.916;1.368.828.964;https://maps.google.com/?cid=0x0:0x51b78f3be0c597f8;
hotel;hotel;Hotel Golden Mimika;Jl. Klp. Dua No.25, Kwamki, Kec. Mimika Baru, Kabupaten Mimika, Papua 99971;Kwamki, Kec. Mimika Baru, Kabupaten Mimika;PAPUA;99971;Indonesia;901323111;;;-4.544.451;1.368.879.651;https://maps.google.com/?cid=0x0:0xc7ff62d17b20c3d1;
hotel;hotel;HOTEL Timika Indah Papua;Jl. Jend. Ahmad Yani, Kwamki, Kec. Mimika Baru, Kabupaten Mimika, Papua 99910;Kwamki, Kec. Mimika Baru, Kabupaten Mimika;PAPUA;99910;Indonesia;8114900888;;;-45.450.918;1.368.950.181;https://maps.google.com/?cid=0x0:0x678db0783377d5c6;
hotel;hotel;SAMUMAMBO HOTEL;jl. cenderawasih belakang manna bakerei, Kwamki, Kec. Mimika Baru, Kabupaten Mimika, Papua 99910;Kwamki, Kec. Mimika Baru, Kabupaten Mimika;PAPUA;99910;Indonesia;81344090664;;;-45.424.836;1.368.797.497;https://maps.google.com/?cid=0x0:0xcb5241de257efb93;
hotel;hotel;Hotel Horison Ultima Timika;Jl. Hasanuddin No.9, Nawaripi, Kec. Mimika Baru, Kabupaten Mimika, Papua 99971;Nawaripi, Kec. Mimika Baru, Kabupaten Mimika;PAPUA;99971;Indonesia;9013264888;;;-45.657.683;1.368.827.914;https://maps.google.com/?cid=0x0:0x2acb1e774fc2c064;
hotel;hotel;Horison Diana Timika;Jl. Budi Utomo No.8, Kwamki, Kec. Mimika Baru, Kabupaten Mimika, Papua 99971;Kwamki, Kec. Mimika Baru, Kabupaten Mimika;PAPUA;99971;Indonesia;8114941818;;;-45.421.375;1.368.835.025;https://maps.google.com/?cid=0x0:0xc5f75bca5af54755;
hotel;hotel;N/A;;;PAPUA;;Indonesia;;;;;;https://maps.google.com/?cid=0x0:0xc5f75bca5af54755%7C/g/11hst6d1yy%7Cen-ID;
hotel;hotel;Emerald Hotel;Jl. Cendrawasih, Timika Jaya, Kec. Mimika Baru, Kabupaten Mimika, Papua 99963;Timika Jaya, Kec. Mimika Baru, Kabupaten Mimika;PAPUA;99963;Indonesia;9013260124;;;-45.405.312;1.368.759.912;https://maps.google.com/?cid=0x0:0x731314059a512d0f;
hotel;hotel;Swiss-Belinn Timika;Kwamki, Kec. Mimika Baru, Kabupaten Mimika, Papua 99971;Kec. Mimika Baru, Kabupaten Mimika;PAPUA;99971;Indonesia;9013265949;;;-45.320.138;1.368.642.398;https://maps.google.com/?cid=0x0:0xe2933010e70ba939;
hotel;hotel;HOTEL CARTENZ TIMIKA;Jl. Budi Utomo, Pasar Sentral, Kec. Mimika Baru, Kabupaten Mimika, Papua 99910;Pasar Sentral, Kec. Mimika Baru, Kabupaten Mimika;PAPUA;99910;Indonesia;9013270746;;;-45.639.262;1.368.800.612;https://maps.google.com/?cid=0x0:0xff7b843c8dbed29d;
hotel;hotel;Hotel Grand Tembaga;Timika tembaga, Nawaripi, Kec. Mimika Baru, Kabupaten Mimika, Papua 23338;Nawaripi, Kec. Mimika Baru, Kabupaten Mimika;PAPUA;23338;Indonesia;;;;-45.531.771;1.368.896.109;https://maps.google.com/?cid=0x0:0x51c794842c50a185;
hotel;hotel;Hotel OssA 'de' Villa;Jl.Acis No.1, Nawaripi, Kec. Mimika Baru, Kabupaten Mimika, Papua 99971;Nawaripi, Kec. Mimika Baru, Kabupaten Mimika;PAPUA;99971;Indonesia;811493777;;;-45.657.839;1.368.821.893;https://maps.google.com/?cid=0x0:0x557d79c7932567f6;
hotel;hotel;Hotel Kanguru Timika;Timika Indah Cafe, Kwamki, Mimika Baru, Mimika Regency, Papua 99971;Kwamki, Mimika Baru, Mimika Regency;PAPUA;99971;Indonesia;811490022;;;-45.276.143;1.368.587.142;https://maps.google.com/?cid=0x0:0x83d1a0182193785;
hotel;hotel;RAFAEL INN TIMIKA;Jl. Kelimutu, Kwamki, Kec. Mimika Baru, Kabupaten Mimika, Papua 99912;Kwamki, Kec. Mimika Baru, Kabupaten Mimika;PAPUA;99912;Indonesia;81222201567;;;-45.369.955;1.368.758.451;https://maps.google.com/?cid=0x0:0xb5f301a0d62aeed0;
hotel;Taman;Pusat kota kuala kencana;JV39+Q2H, Kuala Kencana, Kec. Kuala Kencana, Kabupaten Mimika, Papua;Kabupaten Mimika, Papua;PAPUA;;Indonesia;;;;-43.955.572;1.368.676.097;https://maps.google.com/?cid=0x0:0xc130e6059a0d59c3;
hotel;Toko bahan makanan;Diana Supermarket;Jl. Budi Utomo No.8, Kwamki, Kec. Mimika Baru, Kabupaten Mimika, Papua 99971;Kwamki, Kec. Mimika Baru, Kabupaten Mimika;PAPUA;99971;Indonesia;901322829;;;-45.427.693;1.368.837.435;https://maps.google.com/?cid=0x0:0x4cea28f7389f57e8;
hotel;hotel;Mimika Bar. Tengah;Kabupaten Mimika, Papua;Kabupaten Mimika, Papua;PAPUA;;Indonesia;;;;-42.990.789;1.358.279.734;https://maps.google.com/?cid=0x0:0xb5b32b8dd9b435c1;
hotel;hotel;Rimba Papua Hotel;Jl. Kwamki Narama No. 1, Kwamki, Kec. Mimika Baru, Kabupaten Mimika, Papua 99971;Kwamki, Kec. Mimika Baru, Kabupaten Mimika;PAPUA;99971;Indonesia;901494949;;;-45.151.124;136.884.599;https://maps.google.com/?cid=0x0:0xa65056700db32492;
hotel;hotel;Hotel Golden Mimika;Jl. Klp. Dua No.25, Kwamki, Kec. Mimika Baru, Kabupaten Mimika, Papua 99971;Kwamki, Kec. Mimika Baru, Kabupaten Mimika;PAPUA;99971;Indonesia;901323111;;;-4.544.451;1.368.879.651;https://maps.google.com/?cid=0x0:0xc7ff62d17b20c3d1;
hotel;hotel;Bisnis Hotel;Kwamki, Kec. Mimika Baru, Kabupaten Mimika, Papua 99971;Kec. Mimika Baru, Kabupaten Mimika;PAPUA;99971;Indonesia;9013264510;;;-45.452.777;1.368.833.867;https://maps.google.com/?cid=0x0:0x690d0340d9882c9c;
hotel;hotel;Hotel Serayu;Jl. Yos Sudarso No.10, Koperapoka, Kec. Mimika Baru, Kabupaten Mimika, Papua 99971;Koperapoka, Kec. Mimika Baru, Kabupaten Mimika;PAPUA;99971;Indonesia;82199984085;;;-45.492.995;1.368.902.348;https://maps.google.com/?cid=0x0:0xe357fb3041308a6c;
hotel;hotel;RedDoorz @ Jalan Cendrawasih Timika;Jalan Cendrawasih Belakang Manna, Kwamki, Bakerei, Kabupaten Mimika, Papua 99910;Kwamki, Bakerei, Kabupaten Mimika;PAPUA;99910;Indonesia;8,95417E+11;;;-45.424.845;1.368.797.499;https://maps.google.com/?cid=0x0:0xe497a05bd4efc640;
hotel;hotel;Noken Hotel Timika;FV5M+62C, Jl. Budi Utomo, Kwamki, Kec. Mimika Baru, Kabupaten Mimika, Papua 99910;Jl. Budi Utomo, Kwamki, Kec. Mimika Baru, Kabupaten Mimika;PAPUA;99910;Indonesia;8114991033;;;-45.419.296;1.368.825.128;https://maps.google.com/?cid=0x0:0x2fc89f236a139de5;
hotel;hotel;Emerald Hotel;Jl. Cendrawasih, Timika Jaya, Kec. Mimika Baru, Kabupaten Mimika, Papua 99963;Timika Jaya, Kec. Mimika Baru, Kabupaten Mimika;PAPUA;99963;Indonesia;9013260124;;;-45.405.312;1.368.759.912;https://maps.google.com/?cid=0x0:0x731314059a512d0f;
hotel;hotel;Hotel Grand Tembaga;Timika tembaga, Nawaripi, Kec. Mimika Baru, Kabupaten Mimika, Papua 23338;Nawaripi, Kec. Mimika Baru, Kabupaten Mimika;PAPUA;23338;Indonesia;;;;-45.531.771;1.368.896.109;https://maps.google.com/?cid=0x0:0x51c794842c50a185;
hotel;hotel;Komoro Tame Hotel  Resort;Jalan Cendrawasih SP II, Kwamki, Kec. Mimika Baru, Kabupaten Mimika, Papua 99910;Kwamki, Kec. Mimika Baru, Kabupaten Mimika;PAPUA;99910;Indonesia;9013260059;;;-45.411.009;1.368.800.714;https://maps.google.com/?cid=0x0:0xe4c13d4863f484f5;
hotel;hotel;HOTEL Timika Indah Papua;Jl. Jend. Ahmad Yani, Kwamki, Kec. Mimika Baru, Kabupaten Mimika, Papua 99910;Kwamki, Kec. Mimika Baru, Kabupaten Mimika;PAPUA;99910;Indonesia;8114900888;;;-45.450.918;1.368.950.181;https://maps.google.com/?cid=0x0:0x678db0783377d5c6;
hotel;Taman;Pusat kota kuala kencana;JV39+Q2H, Kuala Kencana, Kec. Kuala Kencana, Kabupaten Mimika, Papua;Kabupaten Mimika, Papua;PAPUA;;Indonesia;;;;-43.955.572;1.368.676.097;https://maps.google.com/?cid=0x0:0xc130e6059a0d59c3;
hotel;hotel;Papua 99564;Papua;Papua;PAPUA;;Indonesia;;;;-42.226.519;1.383.190.276;https://maps.google.com/?cid=0x0:0x12113e40469ed72c;
hotel;hotel;Hotel Baliem Pilamo;Jl. Trikora No.114, Wamena Kota, Distrik Wamena, Kabupaten Jayawijaya, Papua 99511;Wamena Kota, Distrik Wamena, Kabupaten Jayawijaya;PAPUA;99511;Indonesia;81344090719;;;-4.089.872;1.389.452.891;https://maps.google.com/?cid=0x0:0x4c66aca0c6c4c202;
hotel;hotel;Hotel Sahid Papua;Jl. Klp. 2 No.18, Entrop, Distrik Jayapura Selatan, Kota Jayapura, Papua 99221;Entrop, Distrik Jayapura Selatan, Kota Jayapura;PAPUA;99221;Indonesia;811481167;;;-25.661.461;1.406.996.539;https://maps.google.com/?cid=0x0:0x9c8a2fd141b3aa33;
hotel;hotel;Hotel Grand Papua Sentani;Jalan Sosial No.388, Hinekombe, Kec. Sentani, Kabupaten Jayapura, Papua 99352;Hinekombe, Kec. Sentani, Kabupaten Jayapura;PAPUA;99352;Indonesia;8114827899;;;-2.557.344;1.404.958.181;https://maps.google.com/?cid=0x0:0x9afaf186d23bb377;
hotel;hotel;Grand ABE Hotel Jayapura;Jl. Raya Abepura, Kotabaru, Kota Baru, Kec. Abepura, Kota Jayapura, Papua 99351;Kotabaru, Kota Baru, Kec. Abepura, Kota Jayapura;PAPUA;99351;Indonesia;8114825123;;;-26.106.174;1.406.659.805;https://maps.google.com/?cid=0x0:0xadc84ceab536f6a;
hotel;hotel;N/A;;;PAPUA;;Indonesia;;;;;;https://maps.google.com/?cid=0x0:0xadc84ceab536f6a%7C/g/11btn18jtk%7Cen-ID;
hotel;hotel;Hotel Gamalama;9MP9+G56, Jl. Gerilyawan, Yobe, Kec. Abepura, Kota Jayapura, Papua 99351;Jl. Gerilyawan, Yobe, Kec. Abepura, Kota Jayapura;PAPUA;99351;Indonesia;85337358893;;;-26.137.021;1.406.678.935;https://maps.google.com/?cid=0x0:0xf95001e3d53d211;
hotel;hotel;Grand Baliem Hotel;Jl. Sumbawa No.1, Wamena Kota, Wamena, Jayawijaya Regency, Papua 99511;Wamena Kota, Wamena, Jayawijaya Regency;PAPUA;99511;Indonesia;81211516887;;;-40.970.243;1.389.489.266;https://maps.google.com/?cid=0x0:0xd313b387275f5f0b;
hotel;hotel;Hotel Musi Entrop;Entrop, Distrik Jayapura Selatan, Kota Jayapura, Papua 99221;Distrik Jayapura Selatan, Kota Jayapura;PAPUA;99221;Indonesia;8,95417E+11;;;-25.754.909;1.406.909.951;https://maps.google.com/?cid=0x0:0x20e691e9ad57b566;
hotel;hotel;Hotel New Season and Cafe;Jl. Raya Abepura No.7, Entrop, Distrik Jayapura Selatan, Kota Jayapura, Papua 99223;Entrop, Distrik Jayapura Selatan, Kota Jayapura;PAPUA;99223;Indonesia;967533715;;;-25.763.222;1.406.864.142;https://maps.google.com/?cid=0x0:0x4528213be5051091;
hotel;hotel;SIP Azana Hotel Jayapura;Jl. Ahmad Yani No.50, Gurabesi, Kec. Jayapura Utara, Kota Jayapura, Papua 99221;Gurabesi, Kec. Jayapura Utara, Kota Jayapura;PAPUA;99221;Indonesia;82197886688;;;-25.436.754;1.407.014.241;https://maps.google.com/?cid=0x0:0xc311c59465e76f9e;
hotel;hotel;Pintu Biru Hostel;Jl. Yos Sudarso No.88, Hurekama, Distrik Wamena, Kabupaten Jayawijaya, Papua Pegunungan, 99511;Hurekama, Distrik Wamena, Kabupaten Jayawijaya;PAPUA;99511;Indonesia;82269369789;;;-4.101.998;1.389.353.285;https://maps.google.com/?cid=0x0:0xc884605b24325550;
hotel;hotel;The Baliem Valley Resort;Desa Sekan Kecamatan Siepkosi, Pugima, Distrik Wamena, Kabupaten Jayawijaya, Papua 80034;Pugima, Distrik Wamena, Kabupaten Jayawijaya;PAPUA;80034;Indonesia;;;;-40.595.129;1.390.293.485;https://maps.google.com/?cid=0x0:0xa5f70df54e54f86c;
hotel;hotel;Hotel Grand Sartika;WW2Q+GM5, Jl. Bayangkara, Hurekama, Distrik Wamena, Kabupaten Jayawijaya, Papua 99511;Jl. Bayangkara, Hurekama, Distrik Wamena, Kabupaten Jayawijaya;PAPUA;99511;Indonesia;96931723;;;-40.989.887;1.389.395.079;https://maps.google.com/?cid=0x0:0x6ff62b4e3628ae0b;
hotel;hotel;Hotel Putri Dani;Jl. Irian No.40, Hurekama, Distrik Wamena, Kabupaten Jayawijaya, Papua 99511;Hurekama, Distrik Wamena, Kabupaten Jayawijaya;PAPUA;99511;Indonesia;81315241808;;;-40.957.582;1.389.392.487;https://maps.google.com/?cid=0x0:0x8f74e0c2ea557b12;
hotel;hotel;Hotel Rainbow;Jl. Irian No.26, Wamena Kota, Distrik Wamena, Kabupaten Jayawijaya, Papua 99511;Wamena Kota, Distrik Wamena, Kabupaten Jayawijaya;PAPUA;99511;Indonesia;81248000685;;;-40.943.536;1.389.419.192;https://maps.google.com/?cid=0x0:0x8a8c32fe134fd547;
hotel;hotel;Hotel Cartenz Wamena;Jl. Yos Sudarso No.45, Hurekama, Distrik Wamena, Kabupaten Jayawijaya, Papua 99511;Hurekama, Distrik Wamena, Kabupaten Jayawijaya;PAPUA;99511;Indonesia;81344804750;;;-41.012.558;1.389.376.982;https://maps.google.com/?cid=0x0:0xf2c5765f17cbf383;
hotel;hotel;Hotel Anggrek;Jl. Ambon No.1, Wamena Kota, Distrik Wamena, Kabupaten Jayawijaya, Papua 99511;Wamena Kota, Distrik Wamena, Kabupaten Jayawijaya;PAPUA;99511;Indonesia;;;;-40.951.401;1.389.486.951;https://maps.google.com/?cid=0x0:0x8c14510cd7032458;
hotel;hotel;Hotel Rannu Jaya;WW6V+7RM, Wamena Kota, Distrik Wamena, Kabupaten Jayawijaya, Papua 99511;Wamena Kota, Distrik Wamena, Kabupaten Jayawijaya;PAPUA;99511;Indonesia;82195455765;;;-40.892.985;1.389.445.592;https://maps.google.com/?cid=0x0:0xdd25cadd9590097a;
hotel;hotel;Numbay Hotel;Jl. Trikora No.23, Dok V, Trikora, Kec. Jayapura Utara, Kota Jayapura, Papua 99114;Dok V, Trikora, Kec. Jayapura Utara, Kota Jayapura;PAPUA;99114;Indonesia;9675166939;;;-2.527.363;1.407.185.297;https://maps.google.com/?cid=0x0:0x2a95e5b69088c98d;
hotel;hotel;AMABEL Hotel;AP, Bayangkara, Kec. Jayapura Utara, Kota Jayapura, Papua 99112;Bayangkara, Kec. Jayapura Utara, Kota Jayapura;PAPUA;99112;Indonesia;967522102;;;-25.354.528;1.407.046.727;https://maps.google.com/?cid=0x0:0xd37dfedb9adff6b7;
hotel;hotel;Hotel Matoa;Jl. Ahmad Yani No.14, Gurabesi, Kec. Jayapura Utara, Kota Jayapura, Papua 99222;Gurabesi, Kec. Jayapura Utara, Kota Jayapura;PAPUA;99222;Indonesia;967531633;;;-25.431.901;1.407.035.183;https://maps.google.com/?cid=0x0:0x81bb053fbf57415d;
hotel;hotel;Hotel Mapia;Jl. Jend. Ahmad Yani No.23, Mandala, Kec. Biak Kota, Kabupaten Biak Numfor, Papua 98111;Mandala, Kec. Biak Kota, Kabupaten Biak Numfor;PAPUA;98111;Indonesia;98121383;;;-11.848.375;1.360.856.602;https://maps.google.com/?cid=0x0:0x15f6e40202cd7120;
hotel;hotel;Hotel Dafonsoro;Jl. Percetakan Negara No.20-24, Gurabesi, Kec. Jayapura Utara, Kota Jayapura, Papua 99221;Gurabesi, Kec. Jayapura Utara, Kota Jayapura;PAPUA;99221;Indonesia;85788877739;;;-25.406.973;1.407.041.061;https://maps.google.com/?cid=0x0:0xda20a7d826a77577;
hotel;hotel;Srikandi Hotel;Jl. Irian No.18, Honelama, Distrik Wamena, Kabupaten Jayawijaya, Papua 99511;Honelama, Distrik Wamena, Kabupaten Jayawijaya;PAPUA;99511;Indonesia;96931367;;;-40.973.379;1.389.357.734;https://maps.google.com/?cid=0x0:0x26edbc5af0ffc65e;
hotel;hotel;ORCHID PASIFIC HOTEL;Belakang Mega, Jl. Raya Abepura, Kota Baru, Kec. Abepura, Kota Jayapura, Papua 99325;Jl. Raya Abepura, Kota Baru, Kec. Abepura, Kota Jayapura;PAPUA;99325;Indonesia;9675187812;;;-26.114.142;140.667.015;https://maps.google.com/?cid=0x0:0xbc065b81f1bb1912;
hotel;hotel;Tendy Hotel;Jl. Trikora AA No.112, Wamena Kota, Distrik Wamena, Kabupaten Jayawijaya, Papua 99511;Wamena Kota, Distrik Wamena, Kabupaten Jayawijaya;PAPUA;99511;Indonesia;96931092;;;-40.976.762;1.389.492.496;https://maps.google.com/?cid=0x0:0xf05ddbb5560071c5;
hotel;Penginapan;Alamsyaj;QVMF+3W7, Curugluhur, Kec. Sagaranten, Kabupaten Sukabumi, Jawa Barat 43181;Curugluhur, Kec. Sagaranten, Kabupaten Sukabumi;PAPUA;43181;Indonesia;;;;-72.173.298;1.068.747.848;https://maps.google.com/?cid=0x0:0x2e40c11afcbd9515;
hotel;Hotel;Arif lesmana;QRHV+2HW, Cidolog, Curugluhur, Sagaranten, Sukabumi Regency, West Java 43181;Cidolog, Curugluhur, Sagaranten, Sukabumi Regency;PAPUA;43181;Indonesia;81380590008;;;-72.223.779;1.068.439.583;https://maps.google.com/?cid=0x0:0xf585d25585c70e8f;
restaurant;restaurant;Kec. Mimika Baru;Kabupaten Mimika, Papua;Kabupaten Mimika, Papua;PAPUA;;Indonesia;;;;-45.671.869;1.368.873.528;https://maps.google.com/?cid=0x0:0xccefb04a6b60d82c;
restaurant;Kafe;PUA-PUA CAFE;Jl. Budi Utomo, Nawaripi, Kec. Mimika Baru, Kabupaten Mimika, Papua 99952;Nawaripi, Kec. Mimika Baru, Kabupaten Mimika;PAPUA;99952;Indonesia;82346750560;;;-45.620.805;1.368.806.057;https://maps.google.com/?cid=0x0:0xb7cc07f877baacb2;
restaurant;Restoran;DJ Resto Timika;Kamoro Jaya, Kec. Mimika Baru, Kabupaten Mimika, Papua 99971;Kec. Mimika Baru, Kabupaten Mimika;PAPUA;99971;Indonesia;85175277312;;;-45.808.953;1.368.721.819;https://maps.google.com/?cid=0x0:0x11447bfdde2862e5;
restaurant;Restoran;DJ Resto;GR8X+39M, Jl. Cendrawasih, Karang Senang, Kec. Kuala Kencana, Kabupaten Mimika, Papua 99910;Jl. Cendrawasih, Karang Senang, Kec. Kuala Kencana, Kabupaten Mimika;PAPUA;99910;Indonesia;82199260026;;;-44.847.814;1.368.484.316;https://maps.google.com/?cid=0x0:0xb84834f33eb06c32;
restaurant;Restoran;So Yummy Resto;FV3Q+QR9, Kwamki, Kec. Mimika Baru, Kabupaten Mimika, Papua 99971;Kwamki, Kec. Mimika Baru, Kabupaten Mimika;PAPUA;99971;Indonesia;81240005760;;;-45.455.973;1.368.896.159;https://maps.google.com/?cid=0x0:0xad18f6a2fb6ee6f8;
restaurant;Kafe;Star Cafe  Resto;Nawaripi, Kec. Mimika Baru, Kabupaten Mimika, Papua;Kabupaten Mimika, Papua;PAPUA;;Indonesia;82271574700;;;-45.590.625;1.368.811.875;https://maps.google.com/?cid=0x0:0xfa8e3e94425d99b6;
restaurant;Kedai Kopi;The Topas Cafe  Resto;CVMV+4QG, Jl. Mente Sempan, Nawaripi, Kec. Mimika Baru, Kabupaten Mimika, Papua 99971;Jl. Mente Sempan, Nawaripi, Kec. Mimika Baru, Kabupaten Mimika;PAPUA;99971;Indonesia;85273158976;;;-45.682.963;1.368.947.131;https://maps.google.com/?cid=0x0:0x95facf1998915083;
restaurant;Kafe;Flash Coffeetmk;Toko Trans Abadi, Jl. Hasanuddin No.Samping, Nawaripi, Kec. Mimika Baru, Kabupaten Mimika, Papua 99910;Jl. Hasanuddin No.Samping, Nawaripi, Kec. Mimika Baru, Kabupaten Mimika;PAPUA;99910;Indonesia;81354122154;;;-45.651.017;1.368.730.898;https://maps.google.com/?cid=0x0:0x3306a2138c69cc1;
restaurant;Dapur Umum;Rumah Makan 99;CVVJ+FXW, Nawaripi, Kec. Mimika Baru, Kabupaten Mimika, Papua 99971;Nawaripi, Kec. Mimika Baru, Kabupaten Mimika;PAPUA;99971;Indonesia;;;;-45.562.138;1.368.824.575;https://maps.google.com/?cid=0x0:0x5590aeb3fdbdcd68;
restaurant;Makanan Siap Saji;Kurulu Sky Lounge Diana Timika;FV5M+3FC, Jl. Budi Utomo, Nawaripi, Kec. Mimika Baru, Kabupaten Mimika, Papua 99971;Jl. Budi Utomo, Nawaripi, Kec. Mimika Baru, Kabupaten Mimika;PAPUA;99971;Indonesia;8114941818;;;-45.423.066;1.368.836.282;https://maps.google.com/?cid=0x0:0xae1df6d8404be209;
restaurant;Masakan Asia;RM Kuala Oriental;Jl. Budi Utomo No.88A, Kwamki, Kec. Mimika Baru, Kabupaten Mimika, Papua 99971;Kwamki, Kec. Mimika Baru, Kabupaten Mimika;PAPUA;99971;Indonesia;81224989888;;;-45.432.787;1.368.840.215;https://maps.google.com/?cid=0x0:0xa200bb016a6f04d5;
restaurant;Padang;rumah makan sepakat;Jl. Yos Sudarso No.29, Kwamki, Kec. Mimika Baru, Kabupaten Mimika, Papua 99910;Kwamki, Kec. Mimika Baru, Kabupaten Mimika;PAPUA;99910;Indonesia;81343171185;;;-45.449.454;1.368.896.908;https://maps.google.com/?cid=0x0:0x171b5780d29f85c6;
restaurant;Hotel Resor;Restaurant Ossa de Villa;CVMJ+QV7, Nawaripi, Kec. Mimika Baru, Kabupaten Mimika, Papua 99971;Nawaripi, Kec. Mimika Baru, Kabupaten Mimika;PAPUA;99971;Indonesia;;;;-4.565.599;136.882.175;https://maps.google.com/?cid=0x0:0x21c1de30d3c624aa;
restaurant;Hidangan Laut;Pondok mujair;depan hotel 66, Jl. Cendrawasih, Kwamki, Kec. Mimika Baru, Kabupaten Mimika, Papua 99910;Jl. Cendrawasih, Kwamki, Kec. Mimika Baru, Kabupaten Mimika;PAPUA;99910;Indonesia;81238112888;;;-45.414.996;1.368.783.552;https://maps.google.com/?cid=0x0:0x4684329b919cad75;
restaurant;Kafe;Waanal Coffee And Resto;Jl. Cendrawasih, Karang Senang, Kec. Kuala Kencana, Kabupaten Mimika, Papua 99910;Karang Senang, Kec. Kuala Kencana, Kabupaten Mimika;PAPUA;99910;Indonesia;81248677897;;;-44.916.566;1.368.474.106;https://maps.google.com/?cid=0x0:0xe6f6936c8a14d771;
restaurant;Jawa;Rm.Jawa Timur;CVMH+8P7, Jl. Nawaripi Baru, Nawaripi, Kec. Mimika Baru, Kabupaten Mimika, Papua 99971;Jl. Nawaripi Baru, Nawaripi, Kec. Mimika Baru, Kabupaten Mimika;PAPUA;99971;Indonesia;81232999855;;;-45.667.051;1.368.792.965;https://maps.google.com/?cid=0x0:0x2710ba3ef550c04e;
restaurant;Hidangan Laut;Restaurant seafood 212;toko eiger, Jl. Hasanuddin No.samping, Kamoro Jaya, Kec. Mimika Baru, Kabupaten Mimika, Papua 99910;Jl. Hasanuddin No.samping, Kamoro Jaya, Kec. Mimika Baru, Kabupaten Mimika;PAPUA;99910;Indonesia;85211029951;;;-45.645.452;1.368.591.462;https://maps.google.com/?cid=0x0:0xc9a58c6d4af3a7e7;
restaurant;Restoran;Rumah Makan Danau Toba;Jl. Hasanuddin No.9, Nawaripi, Kec. Mimika Baru, Kabupaten Mimika, Papua 99971;Nawaripi, Kec. Mimika Baru, Kabupaten Mimika;PAPUA;99971;Indonesia;82248122382;;;-45.665.298;1.368.821.497;https://maps.google.com/?cid=0x0:0x88864930c3f70f40;
restaurant;Pempek;D' Pempek House Sinar Palembang;CVVJ+5RQ, Koperapoka, Kec. Mimika Baru, Kabupaten Mimika, Papua 99971;Koperapoka, Kec. Mimika Baru, Kabupaten Mimika;PAPUA;99971;Indonesia;81271641198;;;-4.557.032;1.368.821.248;https://maps.google.com/?cid=0x0:0x48014f1767341c81;
restaurant;Restoran;BREAK LUNNER (Nasi Kuning - Ayam Bakar Rica - Es Milo);Area Pakapura  Undergras, Jl. Cendrawasih, Papua 99910;Jl. Cendrawasih;PAPUA;99910;Indonesia;85244239623;;;-45.412.192;1.368.826.715;https://maps.google.com/?cid=0x0:0x70b8abb4e439935c;
restaurant;Hidangan Laut;Lorenz Seafood  Cafe;FV4W+243, Timika Jaya, Kec. Mimika Baru, Kabupaten Mimika, Papua 99971;Timika Jaya, Kec. Mimika Baru, Kabupaten Mimika;PAPUA;99971;Indonesia;;;;-45.449.812;1.368.953.063;https://maps.google.com/?cid=0x0:0x5a543fe96d7456b7;
restaurant;Restoran;RM TERAS;Perum BTN Bumi Kamoro Indah blok A-10. Wonosari jaya. Mimika. Papua, Wonosari Jaya, Kec. Mimika Baru, Timika, Papua 99910;Wonosari Jaya, Kec. Mimika Baru, Timika;PAPUA;99910;Indonesia;82399099998;;;-45.879.329;1.368.741.214;https://maps.google.com/?cid=0x0:0xd66aa26aa7fc882f;
restaurant;Restoran;RM Cabe hijau Timika - Papua;Jl. Trikora No.2, Kwamki, Kec. Mimika Baru, Kabupaten Mimika, Papua 99971;Kwamki, Kec. Mimika Baru, Kabupaten Mimika;PAPUA;99971;Indonesia;8114910855;;;-45.414.393;1.368.902.665;https://maps.google.com/?cid=0x0:0x208e49f2d9ab643;
restaurant;Restoran;Papua Cafe;JV38+MF6, Kuala Kencana, Kec. Kuala Kencana, Kabupaten Mimika, Papua 99910;Kuala Kencana, Kec. Kuala Kencana, Kabupaten Mimika;PAPUA;99910;Indonesia;811490804;;;-4.395.844;1.368.661.365;https://maps.google.com/?cid=0x0:0x314a0b94209cdb62;
restaurant;China;Kuala Oriental Express;FV7J+3J6, Akses Bandara Mozes Kilangin, Kwamki, Kec. Mimika Baru, Kabupaten Mimika, Papua 99971;Akses Bandara Mozes Kilangin, Kwamki, Kec. Mimika Baru, Kabupaten Mimika;PAPUA;99971;Indonesia;;;;-45.373.445;1.368.815.006;https://maps.google.com/?cid=0x0:0xd26333ef0a737068;
restaurant;restaurant;Horison Diana Timika;Jl. Budi Utomo No.8, Kwamki, Kec. Mimika Baru, Kabupaten Mimika, Papua 99971;Kwamki, Kec. Mimika Baru, Kabupaten Mimika;PAPUA;99971;Indonesia;8114941818;;;-45.421.375;1.368.835.025;https://maps.google.com/?cid=0x0:0xc5f75bca5af54755;
restaurant;restaurant;N/A;;;PAPUA;;Indonesia;;;;;;https://maps.google.com/?cid=0x0:0xc5f75bca5af54755%7C/g/11hst6d1yy%7Cen-ID;
restaurant;Taman;Pusat kota kuala kencana;JV39+Q2H, Kuala Kencana, Kec. Kuala Kencana, Kabupaten Mimika, Papua;Kabupaten Mimika, Papua;PAPUA;;Indonesia;;;;-43.955.572;1.368.676.097;https://maps.google.com/?cid=0x0:0xc130e6059a0d59c3;
restaurant;restaurant;Rimba Papua Hotel;Jl. Kwamki Narama No. 1, Kwamki, Kec. Mimika Baru, Kabupaten Mimika, Papua 99971;Kwamki, Kec. Mimika Baru, Kabupaten Mimika;PAPUA;99971;Indonesia;901494949;;;-45.151.124;136.884.599;https://maps.google.com/?cid=0x0:0xa65056700db32492;
restaurant;restaurant;Papua 99964;Kabupaten Mimika, Papua;Kabupaten Mimika, Papua;PAPUA;;Indonesia;;;;-45.348.379;1.373.706.554;https://maps.google.com/?cid=0x0:0x8a2567edb0b5d8c5;
restaurant;Restoran;So Yummy Resto;FV3Q+QR9, Kwamki, Kec. Mimika Baru, Kabupaten Mimika, Papua 99971;Kwamki, Kec. Mimika Baru, Kabupaten Mimika;PAPUA;99971;Indonesia;81240005760;;;-45.455.973;1.368.896.159;https://maps.google.com/?cid=0x0:0xad18f6a2fb6ee6f8;
restaurant;Restoran;Resto Amungkat;Jl. Belibis No.1, Kwamki, Kec. Mimika Baru, Kabupaten Mimika, Papua 99971;Kwamki, Kec. Mimika Baru, Kabupaten Mimika;PAPUA;99971;Indonesia;811497797;;;-45.476.585;1.368.891.199;https://maps.google.com/?cid=0x0:0x4b50932f4df2eb52;
restaurant;Hidangan Laut;Lorenz Seafood  Cafe;FV4W+243, Timika Jaya, Kec. Mimika Baru, Kabupaten Mimika, Papua 99971;Timika Jaya, Kec. Mimika Baru, Kabupaten Mimika;PAPUA;99971;Indonesia;;;;-45.449.812;1.368.953.063;https://maps.google.com/?cid=0x0:0x5a543fe96d7456b7;
restaurant;Kedai Kopi;The Topas Cafe  Resto;CVMV+4QG, Jl. Mente Sempan, Nawaripi, Kec. Mimika Baru, Kabupaten Mimika, Papua 99971;Jl. Mente Sempan, Nawaripi, Kec. Mimika Baru, Kabupaten Mimika;PAPUA;99971;Indonesia;85273158976;;;-45.682.963;1.368.947.131;https://maps.google.com/?cid=0x0:0x95facf1998915083;
restaurant;Hotel Resor;Restaurant Ossa de Villa;CVMJ+QV7, Nawaripi, Kec. Mimika Baru, Kabupaten Mimika, Papua 99971;Nawaripi, Kec. Mimika Baru, Kabupaten Mimika;PAPUA;99971;Indonesia;;;;-4.565.599;136.882.175;https://maps.google.com/?cid=0x0:0x21c1de30d3c624aa;
restaurant;Restoran;Rumah makan babat;G4VP+VFG, Kihajar dewantara, Banigogom, Kec. Tembagapura, Kabupaten Mimika, Papua;Kabupaten Mimika, Papua;PAPUA;;Indonesia;85254811011;;;-44.553.223;1.371.362.125;https://maps.google.com/?cid=0x0:0xe9d75ac444683ac6;
restaurant;Restoran;Papua Cafe;JV38+MF6, Kuala Kencana, Kec. Kuala Kencana, Kabupaten Mimika, Papua 99910;Kuala Kencana, Kec. Kuala Kencana, Kabupaten Mimika;PAPUA;99910;Indonesia;811490804;;;-4.395.844;1.368.661.365;https://maps.google.com/?cid=0x0:0x314a0b94209cdb62;
restaurant;Betawi;Warung Jember (Gado-Gado Mama Angga);CVMR+P35, Inauga, Kec. Mimika Baru, Kabupaten Mimika, Papua 99971;Inauga, Kec. Mimika Baru, Kabupaten Mimika;PAPUA;99971;Indonesia;81240038067;;;-45.653.243;1.368.896.205;https://maps.google.com/?cid=0x0:0x35d887b91ad5e9dd;
restaurant;Ikan Bakar;Resto Jangkar;Jl. Yos Sudarso, Nawaripi, Kec. Mimika Baru, Kabupaten Mimika, Papua 99971;Nawaripi, Kec. Mimika Baru, Kabupaten Mimika;PAPUA;99971;Indonesia;82238302339;;;-45.681.968;1.368.865.993;https://maps.google.com/?cid=0x0:0x73ed65e33721012a;
restaurant;Kafe;Waanal Coffee And Resto;Jl. Cendrawasih, Karang Senang, Kec. Kuala Kencana, Kabupaten Mimika, Papua 99910;Karang Senang, Kec. Kuala Kencana, Kabupaten Mimika;PAPUA;99910;Indonesia;81248677897;;;-44.916.566;1.368.474.106;https://maps.google.com/?cid=0x0:0xe6f6936c8a14d771;
restaurant;Kafe;PUA-PUA CAFE;Jl. Budi Utomo, Nawaripi, Kec. Mimika Baru, Kabupaten Mimika, Papua 99952;Nawaripi, Kec. Mimika Baru, Kabupaten Mimika;PAPUA;99952;Indonesia;82346750560;;;-45.620.805;1.368.806.057;https://maps.google.com/?cid=0x0:0xb7cc07f877baacb2;
restaurant;Masakan Asia;Warung Eyang;Jl. Budi Utomo No.119, Kwamki, Kec. Mimika Baru, Kabupaten Mimika, Papua 99971;Kwamki, Kec. Mimika Baru, Kabupaten Mimika;PAPUA;99971;Indonesia;;;;-45.593.874;1.368.811.234;https://maps.google.com/?cid=0x0:0x733d707691b1f745;
restaurant;Padang;Rumah Makan Danau Toba II;Jalan Agimuga Mile No.32, Karang Senang, Kuala Kencana, Mimika Regency, Papua 99910;Karang Senang, Kuala Kencana, Mimika Regency;PAPUA;99910;Indonesia;82248122382;;;-44.718.603;1.368.509.154;https://maps.google.com/?cid=0x0:0x4b1b81c7ea1e7411;
restaurant;Masakan Asia;RM Kuala Oriental;Jl. Budi Utomo No.88A, Kwamki, Kec. Mimika Baru, Kabupaten Mimika, Papua 99971;Kwamki, Kec. Mimika Baru, Kabupaten Mimika;PAPUA;99971;Indonesia;81224989888;;;-45.432.787;1.368.840.215;https://maps.google.com/?cid=0x0:0xa200bb016a6f04d5;
restaurant;Kafe;RUMAH KOPI AMUNGME GOLD;Jl. Malcon, Kwamki, Kec. Mimika Baru, Kabupaten Mimika, Papua 99971;Kwamki, Kec. Mimika Baru, Kabupaten Mimika;PAPUA;99971;Indonesia;;;;-45.440.105;1.368.833.261;https://maps.google.com/?cid=0x0:0xedf616fc858eb39c;
restaurant;Dapur Umum;Nasi pecel mas Agus;CVMH+MWM, Nawaripi, Kec. Mimika Baru, Kabupaten Mimika, Papua 99971;Nawaripi, Kec. Mimika Baru, Kabupaten Mimika;PAPUA;99971;Indonesia;81240141880;;;-45.657.951;1.368.797.876;https://maps.google.com/?cid=0x0:0x949e60649b5a6b3f;
restaurant;Restoran;So Yummy Bakery  Cafe;Gedung Diana, Jl. Budi Utomo No.8 Lantai Dasar, Kwamki, Kec. Mimika Baru, Kabupaten Mimika, Papua 99971;Jl. Budi Utomo No.8 Lantai Dasar, Kwamki, Kec. Mimika Baru, Kabupaten Mimika;PAPUA;99971;Indonesia;9013264829;;;-45.428.654;1.368.837.126;https://maps.google.com/?cid=0x0:0x54ecba4b79b13ba2;
restaurant;Restoran;RM. MINAHASA;CVXV+4M9, Jl. Jend. Ahmad Yani, Koperapoka, Kec. Mimika Baru, Kabupaten Mimika, Papua 99971;Jl. Jend. Ahmad Yani, Koperapoka, Kec. Mimika Baru, Kabupaten Mimika;PAPUA;99971;Indonesia;82198592370;;;-45.522.098;1.368.942.366;https://maps.google.com/?cid=0x0:0xb4532cfc5c05c7da;
restaurant;Restoran;AW Restoran - Diana Shopping Center;Jl. Budi Utomo No.8, Kwamki, Kec. Mimika Baru, Kabupaten Mimika, Papua 99971;Kwamki, Kec. Mimika Baru, Kabupaten Mimika;PAPUA;99971;Indonesia;9013265974;;;-45.428.109;1.368.836.326;https://maps.google.com/?cid=0x0:0x3ea2678b7f663fb3;
restaurant;Restoran;Warung So Yummy;CVGG+845, Jl. Nawaripi Baru, Kamoro Jaya, Kec. Mimika Baru, Kabupaten Mimika, Papua 99971;Jl. Nawaripi Baru, Kamoro Jaya, Kec. Mimika Baru, Kabupaten Mimika;PAPUA;99971;Indonesia;;;;-45.739.942;136.874.668;https://maps.google.com/?cid=0x0:0xd72b75dce15192c8;
restaurant;Restoran;DJ Resto Timika;Kamoro Jaya, Kec. Mimika Baru, Kabupaten Mimika, Papua 99971;Kec. Mimika Baru, Kabupaten Mimika;PAPUA;99971;Indonesia;85175277312;;;-45.808.953;1.368.721.819;https://maps.google.com/?cid=0x0:0x11447bfdde2862e5;
restaurant;restaurant;Papua 99963;Kabupaten Mimika, Papua;Kabupaten Mimika, Papua;PAPUA;;Indonesia;;;;-46.420.578;1.367.091.767;https://maps.google.com/?cid=0x0:0x489f32e37e0cec35;
restaurant;Restoran;So Yummy Resto;FV3Q+QR9, Kwamki, Kec. Mimika Baru, Kabupaten Mimika, Papua 99971;Kwamki, Kec. Mimika Baru, Kabupaten Mimika;PAPUA;99971;Indonesia;81240005760;;;-45.455.973;1.368.896.159;https://maps.google.com/?cid=0x0:0xad18f6a2fb6ee6f8;
restaurant;Restoran;Yeosin All you can eat;FVG5+489, Jl. Cendrawasih, Kwamki, Kec. Mimika Baru, Kabupaten Mimika, Papua 99963;Jl. Cendrawasih, Kwamki, Kec. Mimika Baru, Kabupaten Mimika;PAPUA;99963;Indonesia;;;;-45.247.102;136.858.367;https://maps.google.com/?cid=0x0:0xf7c105830bbaed61;
restaurant;Nasi;Lesehan mutiara Sp3;FVH4+58W, Jl. Cendrawasih, Timika Jaya, sp3, Kabupaten Mimika, Papua 99963;Jl. Cendrawasih, Timika Jaya, sp3, Kabupaten Mimika;PAPUA;99963;Indonesia;82199136899;;;-45.220.249;1.368.558.204;https://maps.google.com/?cid=0x0:0x264deab0824fdf7d;
restaurant;Manado;RM. MANADO-MINSEL;FRVW+QP2, Jl. Cendrawasih, Timika Jaya, Kec. Mimika Baru, Kabupaten Mimika, Papua 99963;Jl. Cendrawasih, Timika Jaya, Kec. Mimika Baru, Kabupaten Mimika;PAPUA;99963;Indonesia;85242308003;;;-45.056.212;1.368.467.734;https://maps.google.com/?cid=0x0:0x8743e7e68c75adb8;
restaurant;Pengembang Realestat;BTS MALL;FVG5+486, Jl. Cendrawasih, Kwamki, Kec. Mimika Baru, Kabupaten Mimika, Papua 99963;Jl. Cendrawasih, Kwamki, Kec. Mimika Baru, Kabupaten Mimika;PAPUA;99963;Indonesia;8154035474;;;-45.247.044;1.368.582.568;https://maps.google.com/?cid=0x0:0x616ce2852d4ae25;
restaurant;Restoran;Resto Shasha;FRQW+VF7, Timika Jaya, Kec. Mimika Baru, Kabupaten Mimika, Papua 99963;Timika Jaya, Kec. Mimika Baru, Kabupaten Mimika;PAPUA;99963;Indonesia;82139374854;;;-45.103.305;1.368.461.744;https://maps.google.com/?cid=0x0:0x3c9ef7650d29c904;
restaurant;Restoran;Resto Amungkat;Jl. Belibis No.1, Kwamki, Kec. Mimika Baru, Kabupaten Mimika, Papua 99971;Kwamki, Kec. Mimika Baru, Kabupaten Mimika;PAPUA;99971;Indonesia;811497797;;;-45.476.585;1.368.891.199;https://maps.google.com/?cid=0x0:0x4b50932f4df2eb52;
restaurant;Rumah Makan;RM. MAUREEN;Jl. Poros SP 2 - SP 5, Timika Jaya, Kec. Mimika Baru, Kabupaten Mimika, Papua 99963;Timika Jaya, Kec. Mimika Baru, Kabupaten Mimika;PAPUA;99963;Indonesia;82198288643;;;-45.191.148;1.368.426.541;https://maps.google.com/?cid=0x0:0xf41648c7380f6d08;
restaurant;Restoran;Miesol Timika;Jl. Cendrawasih No.SP 2, Timika Jaya, Kec. Mimika Baru, Kabupaten Mimika, Papua 99963;Timika Jaya, Kec. Mimika Baru, Kabupaten Mimika;PAPUA;99963;Indonesia;82199200040;;;-4.516.696;1.368.510.436;https://maps.google.com/?cid=0x0:0xb48a036a0841552;
restaurant;Hidangan Laut;Restaurant seafood 212;toko eiger, Jl. Hasanuddin No.samping, Kamoro Jaya, Kec. Mimika Baru, Kabupaten Mimika, Papua 99910;Jl. Hasanuddin No.samping, Kamoro Jaya, Kec. Mimika Baru, Kabupaten Mimika;PAPUA;99910;Indonesia;85211029951;;;-45.645.452;1.368.591.462;https://maps.google.com/?cid=0x0:0xc9a58c6d4af3a7e7;
restaurant;restaurant;Mie Ngacoan Timika;FRJV+V33, Jl. Poros SP 2 - SP 5, Timika Jaya, Kec. Mimika Baru, Kabupaten Mimika, Papua 99963;Jl. Poros SP 2 - SP 5, Timika Jaya, Kec. Mimika Baru, Kabupaten Mimika;PAPUA;99963;Indonesia;;;;-45.179.193;1.368.426.675;https://maps.google.com/?cid=0x0:0xce5e6a36634d8207;
restaurant;Restoran;DJ Resto Timika;Kamoro Jaya, Kec. Mimika Baru, Kabupaten Mimika, Papua 99971;Kec. Mimika Baru, Kabupaten Mimika;PAPUA;99971;Indonesia;85175277312;;;-45.808.953;1.368.721.819;https://maps.google.com/?cid=0x0:0x11447bfdde2862e5;
restaurant;Ikan Bakar;Resto Jangkar;Jl. Yos Sudarso, Nawaripi, Kec. Mimika Baru, Kabupaten Mimika, Papua 99971;Nawaripi, Kec. Mimika Baru, Kabupaten Mimika;PAPUA;99971;Indonesia;82238302339;;;-45.681.968;1.368.865.993;https://maps.google.com/?cid=0x0:0x73ed65e33721012a;
restaurant;Restoran;Warung So Yummy;CVGG+845, Jl. Nawaripi Baru, Kamoro Jaya, Kec. Mimika Baru, Kabupaten Mimika, Papua 99971;Jl. Nawaripi Baru, Kamoro Jaya, Kec. Mimika Baru, Kabupaten Mimika;PAPUA;99971;Indonesia;;;;-45.739.942;136.874.668;https://maps.google.com/?cid=0x0:0xd72b75dce15192c8;
restaurant;restaurant;Hotel Cenderawasih 66;Kwamki, Kec. Mimika Baru, Kabupaten Mimika, Papua 99971;Kec. Mimika Baru, Kabupaten Mimika;PAPUA;99971;Indonesia;8114909466;;;-45.406.265;136.877.203;https://maps.google.com/?cid=0x0:0x5be4adf05d85555b;
restaurant;restaurant;Noken Hotel Timika;FV5M+62C, Jl. Budi Utomo, Kwamki, Kec. Mimika Baru, Kabupaten Mimika, Papua 99910;Jl. Budi Utomo, Kwamki, Kec. Mimika Baru, Kabupaten Mimika;PAPUA;99910;Indonesia;8114991033;;;-45.419.296;1.368.825.128;https://maps.google.com/?cid=0x0:0x2fc89f236a139de5;
restaurant;restaurant;Horison Diana Timika;Jl. Budi Utomo No.8, Kwamki, Kec. Mimika Baru, Kabupaten Mimika, Papua 99971;Kwamki, Kec. Mimika Baru, Kabupaten Mimika;PAPUA;99971;Indonesia;8114941818;;;-45.421.375;1.368.835.025;https://maps.google.com/?cid=0x0:0xc5f75bca5af54755;
restaurant;restaurant;Bisnis Hotel;Kwamki, Kec. Mimika Baru, Kabupaten Mimika, Papua 99971;Kec. Mimika Baru, Kabupaten Mimika;PAPUA;99971;Indonesia;9013264510;;;-45.452.777;1.368.833.867;https://maps.google.com/?cid=0x0:0x690d0340d9882c9c;
restaurant;restaurant;Swiss-Belinn Timika;Kwamki, Kec. Mimika Baru, Kabupaten Mimika, Papua 99971;Kec. Mimika Baru, Kabupaten Mimika;PAPUA;99971;Indonesia;9013265949;;;-45.320.138;1.368.642.398;https://maps.google.com/?cid=0x0:0xe2933010e70ba939;
restaurant;restaurant;Hotel Serayu;Jl. Yos Sudarso No.10, Koperapoka, Kec. Mimika Baru, Kabupaten Mimika, Papua 99971;Koperapoka, Kec. Mimika Baru, Kabupaten Mimika;PAPUA;99971;Indonesia;82199984085;;;-45.492.995;1.368.902.348;https://maps.google.com/?cid=0x0:0xe357fb3041308a6c;
restaurant;restaurant;Komoro Tame Hotel  Resort;Jalan Cendrawasih SP II, Kwamki, Kec. Mimika Baru, Kabupaten Mimika, Papua 99910;Kwamki, Kec. Mimika Baru, Kabupaten Mimika;PAPUA;99910;Indonesia;9013260059;;;-45.411.009;1.368.800.714;https://maps.google.com/?cid=0x0:0xe4c13d4863f484f5;
restaurant;restaurant;RAFAEL INN TIMIKA;Jl. Kelimutu, Kwamki, Kec. Mimika Baru, Kabupaten Mimika, Papua 99912;Kwamki, Kec. Mimika Baru, Kabupaten Mimika;PAPUA;99912;Indonesia;81222201567;;;-45.369.955;1.368.758.451;https://maps.google.com/?cid=0x0:0xb5f301a0d62aeed0;
restaurant;restaurant;Hotel Grand Tembaga;Timika tembaga, Nawaripi, Kec. Mimika Baru, Kabupaten Mimika, Papua 23338;Nawaripi, Kec. Mimika Baru, Kabupaten Mimika;PAPUA;23338;Indonesia;;;;-45.531.771;1.368.896.109;https://maps.google.com/?cid=0x0:0x51c794842c50a185;
restaurant;Taman;Pusat kota kuala kencana;JV39+Q2H, Kuala Kencana, Kec. Kuala Kencana, Kabupaten Mimika, Papua;Kabupaten Mimika, Papua;PAPUA;;Indonesia;;;;-43.955.572;1.368.676.097;https://maps.google.com/?cid=0x0:0xc130e6059a0d59c3;
restaurant;Makanan Siap Saji;Kurulu Sky Lounge Diana Timika;FV5M+3FC, Jl. Budi Utomo, Nawaripi, Kec. Mimika Baru, Kabupaten Mimika, Papua 99971;Jl. Budi Utomo, Nawaripi, Kec. Mimika Baru, Kabupaten Mimika;PAPUA;99971;Indonesia;8114941818;;;-45.423.066;1.368.836.282;https://maps.google.com/?cid=0x0:0xae1df6d8404be209;
restaurant;Mi;Depot Pace Rasta ( Rasa Tambah );FRMX+WP6, Jl. Salak SP. 2, Timika Jaya, Kec. Mimika Baru, Kabupaten Mimika, Papua 99963;Jl. Salak SP. 2, Timika Jaya, Kec. Mimika Baru, Kabupaten Mimika;PAPUA;99963;Indonesia;82198198293;;;-45.152.162;1.368.492.747;https://maps.google.com/?cid=0x0:0x3e5ea29f97936a8d;
restaurant;Dapur Umum;Bubur Ayam Pasundan;Jl. Irigasi Ujung, Kamoro Jaya, Kec. Mimika Baru, Kabupaten Mimika, Papua 99963;Kamoro Jaya, Kec. Mimika Baru, Kabupaten Mimika;PAPUA;99963;Indonesia;82336548236;;;-45.640.257;1.368.501.194;https://maps.google.com/?cid=0x0:0x86ce708786113c29;
restaurant;Kafe;Cafe ghanim;sp5, Jl. Poros SP 2 - SP 5, Timika Jaya, Kec. Mimika Baru, Kabupaten Mimika, Papua 99963;Jl. Poros SP 2 - SP 5, Timika Jaya, Kec. Mimika Baru, Kabupaten Mimika;PAPUA;99963;Indonesia;81248493552;;;-45.183.123;1.368.425.939;https://maps.google.com/?cid=0x0:0x67b5424af8280a0a;
restaurant;restaurant;Mimika Bar.;Kabupaten Mimika, Papua;Kabupaten Mimika, Papua;PAPUA;;Indonesia;;;;-44.553.134;1.362.857.516;https://maps.google.com/?cid=0x0:0x6a9ad70ccbe49095;
restaurant;Restoran;Papua Cafe;JV38+MF6, Kuala Kencana, Kec. Kuala Kencana, Kabupaten Mimika, Papua 99910;Kuala Kencana, Kec. Kuala Kencana, Kabupaten Mimika;PAPUA;99910;Indonesia;811490804;;;-4.395.844;1.368.661.365;https://maps.google.com/?cid=0x0:0x314a0b94209cdb62;
restaurant;Restoran;So Yummy Resto;FV3Q+QR9, Kwamki, Kec. Mimika Baru, Kabupaten Mimika, Papua 99971;Kwamki, Kec. Mimika Baru, Kabupaten Mimika;PAPUA;99971;Indonesia;81240005760;;;-45.455.973;1.368.896.159;https://maps.google.com/?cid=0x0:0xad18f6a2fb6ee6f8;
restaurant;Kafe;PUA-PUA CAFE;Jl. Budi Utomo, Nawaripi, Kec. Mimika Baru, Kabupaten Mimika, Papua 99952;Nawaripi, Kec. Mimika Baru, Kabupaten Mimika;PAPUA;99952;Indonesia;82346750560;;;-45.620.805;1.368.806.057;https://maps.google.com/?cid=0x0:0xb7cc07f877baacb2;
restaurant;Kafe;Waanal Coffee And Resto;Jl. Cendrawasih, Karang Senang, Kec. Kuala Kencana, Kabupaten Mimika, Papua 99910;Karang Senang, Kec. Kuala Kencana, Kabupaten Mimika;PAPUA;99910;Indonesia;81248677897;;;-44.916.566;1.368.474.106;https://maps.google.com/?cid=0x0:0xe6f6936c8a14d771;
restaurant;Es Krim;Misnow (Korean Milky Snow Ice) Timika;Jl. Budi Utomo No.168, Nawaripi, Kec. Mimika Baru, Kabupaten Mimika, Papua 99962;Nawaripi, Kec. Mimika Baru, Kabupaten Mimika;PAPUA;99962;Indonesia;81262631999;;;-45.621.162;1.368.809.057;https://maps.google.com/?cid=0x0:0xb6aee15e9b991f3d;
restaurant;Dapur Umum;Mimin;Jl. Kebun Sirih, Kwamki, Kec. Mimika Baru, Kabupaten Mimika, Papua 99971;Kwamki, Kec. Mimika Baru, Kabupaten Mimika;PAPUA;99971;Indonesia;;;;-45.438.288;1.368.975.735;https://maps.google.com/?cid=0x0:0xfaf6a9910f7cc152;
restaurant;Makanan Siap Saji;Solaria - Diana Mall Timika;Jl. Budi Utomo No.8, Kwamki, Kec. Mimika Baru, Kabupaten Mimika, Papua 99971;Kwamki, Kec. Mimika Baru, Kabupaten Mimika;PAPUA;99971;Indonesia;;;;-45.426.745;1.368.836.994;https://maps.google.com/?cid=0x0:0xfb37791b178a71d5;
restaurant;Restoran;So Yummy Bakery  Cafe;Gedung Diana, Jl. Budi Utomo No.8 Lantai Dasar, Kwamki, Kec. Mimika Baru, Kabupaten Mimika, Papua 99971;Jl. Budi Utomo No.8 Lantai Dasar, Kwamki, Kec. Mimika Baru, Kabupaten Mimika;PAPUA;99971;Indonesia;9013264829;;;-45.428.654;1.368.837.126;https://maps.google.com/?cid=0x0:0x54ecba4b79b13ba2;
restaurant;Bar;Amole Cafe;CVFJ+9H5, Koperapoka, Kec. Mimika Baru, Kabupaten Mimika, Papua 99971;Koperapoka, Kec. Mimika Baru, Kabupaten Mimika;PAPUA;99971;Indonesia;82238606904;;;-45.766.124;1.368.814.774;https://maps.google.com/?cid=0x0:0xeee01db2cefa3b39;
restaurant;Sesuai untuk keluarga;Warung Buhasan;HVX5+WMR, Kuala Kencana, Kec. Kuala Kencana, Kabupaten Mimika, Papua 99910;Kuala Kencana, Kec. Kuala Kencana, Kabupaten Mimika;PAPUA;99910;Indonesia;;;;-44.001.406;1.368.591.323;https://maps.google.com/?cid=0x0:0xdb242c4c00b26857;
restaurant;Restoran;Nimaome Cafe;Kuala Kencana, Kec. Kuala Kencana, Kabupaten Mimika, Papua 99910;Kec. Kuala Kencana, Kabupaten Mimika;PAPUA;99910;Indonesia;;;;-43.959.804;1.368.651.186;https://maps.google.com/?cid=0x0:0x474a8c91257d246d;
restaurant;restaurant;Papua 99965;Kabupaten Mimika, Papua;Kabupaten Mimika, Papua;PAPUA;;Indonesia;;;;-47.985.913;1.375.275.422;https://maps.google.com/?cid=0x0:0x7045b6939b86864;
restaurant;Kedai Kopi;The Topas Cafe  Resto;CVMV+4QG, Jl. Mente Sempan, Nawaripi, Kec. Mimika Baru, Kabupaten Mimika, Papua 99971;Jl. Mente Sempan, Nawaripi, Kec. Mimika Baru, Kabupaten Mimika;PAPUA;99971;Indonesia;85273158976;;;-45.682.963;1.368.947.131;https://maps.google.com/?cid=0x0:0x95facf1998915083;
restaurant;Hidangan Laut;Lorenz Seafood  Cafe;FV4W+243, Timika Jaya, Kec. Mimika Baru, Kabupaten Mimika, Papua 99971;Timika Jaya, Kec. Mimika Baru, Kabupaten Mimika;PAPUA;99971;Indonesia;;;;-45.449.812;1.368.953.063;https://maps.google.com/?cid=0x0:0x5a543fe96d7456b7;
restaurant;Lapangan Golf;Rimba Papua Golf Restaurant  Bar;Kuala Kencana, Kec. Kuala Kencana, Kabupaten Mimika, Papua 99910;Kec. Kuala Kencana, Kabupaten Mimika;PAPUA;99910;Indonesia;;;;-44.066.524;1.368.732.401;https://maps.google.com/?cid=0x0:0xf6fc98cb1830460b;
restaurant;Restoran;DJ Resto Timika;Kamoro Jaya, Kec. Mimika Baru, Kabupaten Mimika, Papua 99971;Kec. Mimika Baru, Kabupaten Mimika;PAPUA;99971;Indonesia;85175277312;;;-45.808.953;1.368.721.819;https://maps.google.com/?cid=0x0:0x11447bfdde2862e5;
restaurant;Restoran;So Yummy Resto;FV3Q+QR9, Kwamki, Kec. Mimika Baru, Kabupaten Mimika, Papua 99971;Kwamki, Kec. Mimika Baru, Kabupaten Mimika;PAPUA;99971;Indonesia;81240005760;;;-45.455.973;1.368.896.159;https://maps.google.com/?cid=0x0:0xad18f6a2fb6ee6f8;
restaurant;Restoran;Rumah makan babat;G4VP+VFG, Kihajar dewantara, Banigogom, Kec. Tembagapura, Kabupaten Mimika, Papua;Kabupaten Mimika, Papua;PAPUA;;Indonesia;85254811011;;;-44.553.223;1.371.362.125;https://maps.google.com/?cid=0x0:0xe9d75ac444683ac6;
restaurant;Kafe;PUA-PUA CAFE;Jl. Budi Utomo, Nawaripi, Kec. Mimika Baru, Kabupaten Mimika, Papua 99952;Nawaripi, Kec. Mimika Baru, Kabupaten Mimika;PAPUA;99952;Indonesia;82346750560;;;-45.620.805;1.368.806.057;https://maps.google.com/?cid=0x0:0xb7cc07f877baacb2;
restaurant;Padang;RM.Nusantara Indah;FV5M+6XJ, Timika Jaya, Kec. Mimika Baru, Kabupaten Mimika, Papua 99971;Timika Jaya, Kec. Mimika Baru, Kabupaten Mimika;PAPUA;99971;Indonesia;82236466668;;;-45.419.054;1.368.848.815;https://maps.google.com/?cid=0x0:0xbb8f4363267eff0;
restaurant;Ikan Bakar;Resto Jangkar;Jl. Yos Sudarso, Nawaripi, Kec. Mimika Baru, Kabupaten Mimika, Papua 99971;Nawaripi, Kec. Mimika Baru, Kabupaten Mimika;PAPUA;99971;Indonesia;82238302339;;;-45.681.968;1.368.865.993;https://maps.google.com/?cid=0x0:0x73ed65e33721012a;
restaurant;Sulawesi Selatan;Warung Coto Makassar Daeng Amir;CVWM+35V, Timika Jaya, Kec. Mimika Baru, Kabupaten Mimika, Papua 99971;Timika Jaya, Kec. Mimika Baru, Kabupaten Mimika;PAPUA;99971;Indonesia;;;;-45.547.591;1.368.829.187;https://maps.google.com/?cid=0x0:0x46cd2427966b25b1;
restaurant;Masakan Asia;RM Kuala Oriental;Jl. Budi Utomo No.88A, Kwamki, Kec. Mimika Baru, Kabupaten Mimika, Papua 99971;Kwamki, Kec. Mimika Baru, Kabupaten Mimika;PAPUA;99971;Indonesia;81224989888;;;-45.432.787;1.368.840.215;https://maps.google.com/?cid=0x0:0xa200bb016a6f04d5;
restaurant;Dapur Umum;Nasi pecel mas Agus;CVMH+MWM, Nawaripi, Kec. Mimika Baru, Kabupaten Mimika, Papua 99971;Nawaripi, Kec. Mimika Baru, Kabupaten Mimika;PAPUA;99971;Indonesia;81240141880;;;-45.657.951;1.368.797.876;https://maps.google.com/?cid=0x0:0x949e60649b5a6b3f;
restaurant;Ikan Bakar;RM. KHAS NUSANTARA;CVWM+W7J, Jl. Budi Utomo, Nawaripi, Kec. Mimika Baru, Kabupaten Mimika, Papua 99971;Jl. Budi Utomo, Nawaripi, Kec. Mimika Baru, Kabupaten Mimika;PAPUA;99971;Indonesia;82198599858;;;-4.552.673;1.368.831.556;https://maps.google.com/?cid=0x0:0x57319269ddd1f04d;
restaurant;Restoran;Wr Dinda Nasi Uduk;CVMH+VX5, Jl. Budi Utomo, Nawaripi, Kec. Mimika Baru, Kabupaten Mimika, Papua 99971;Jl. Budi Utomo, Nawaripi, Kec. Mimika Baru, Kabupaten Mimika;PAPUA;99971;Indonesia;82198380990;;;-45.653.508;1.368.799.841;https://maps.google.com/?cid=0x0:0xa0f8a41d0cba4389;
restaurant;Restoran;Rumah Makan Danau Toba;Jl. Hasanuddin No.9, Nawaripi, Kec. Mimika Baru, Kabupaten Mimika, Papua 99971;Nawaripi, Kec. Mimika Baru, Kabupaten Mimika;PAPUA;99971;Indonesia;82248122382;;;-45.665.298;1.368.821.497;https://maps.google.com/?cid=0x0:0x88864930c3f70f40;
restaurant;Manado;Rm. TEGAS;CVWJ+RJJ, Timika, Koperapoka, Kec. Mimika Baru, Kabupaten Mimika, Papua 99971;Timika, Koperapoka, Kec. Mimika Baru, Kabupaten Mimika;PAPUA;99971;Indonesia;82216229674;;;-45.529.189;1.368.815.045;https://maps.google.com/?cid=0x0:0xcd7e9a7b79093928;
restaurant;Indonesia;Warung LUMAYAN (Cak IPUL);FV2R+QFP, Jl. KH. Dewantara, Kwamki, Kec. Mimika Baru, Kabupaten Mimika, Papua 99971;Jl. KH. Dewantara, Kwamki, Kec. Mimika Baru, Kabupaten Mimika;PAPUA;99971;Indonesia;;;;-45.480.364;1.368.912.113;https://maps.google.com/?cid=0x0:0x2cd23e9c1f67979b;
restaurant;Restoran;Reataurant Nayak;FV2J+PMH, Koperapoka, Kec. Mimika Baru, Kabupaten Mimika, Papua 99971;Koperapoka, Kec. Mimika Baru, Kabupaten Mimika;PAPUA;99971;Indonesia;901321323;;;-4.548.191;136.881.738;https://maps.google.com/?cid=0x0:0x73e0d9af7c015110;
restaurant;Rumah Makan;WARUNG PAK DHE;Jl. Poros Makpur Jaya, Wonosari Jaya, Kec. Mimika Baru, Kabupaten Mimika, Papua 99971;Wonosari Jaya, Kec. Mimika Baru, Kabupaten Mimika;PAPUA;99971;Indonesia;82333067358;;;-4.578.152;13.687.982;https://maps.google.com/?cid=0x0:0x1b02300af1cb8e3e;
restaurant;Dapur Umum;Mess Hall Teratai PT. FREEPORT;Jl. Port Site, Amamapare, Mimika Baru, Kabupaten Mimika, Papua 99971;Amamapare, Mimika Baru, Kabupaten Mimika;PAPUA;99971;Indonesia;;;;-4.827.446;1.368.400.678;https://maps.google.com/?cid=0x0:0xebd940f557d933d8;
restaurant;Dapur Umum;Mess Hall Staff PSU;FVHP+XW8, Kwamki, Kec. Mimika Baru, Kabupaten Mimika, Papua 99971;Kwamki, Kec. Mimika Baru, Kabupaten Mimika;PAPUA;99971;Indonesia;;;;-45.200.982;1.368.873.374;https://maps.google.com/?cid=0x0:0xb8f321e53f7a47b6;
restaurant;Restoran;Mity Food;Deretan Cafe Mel's Timika, Ruko, Jl. Hasanuddin Pelangi, Nawaripi, Mimika Baru, Mimika Regency, Papua 99910;Ruko, Jl. Hasanuddin Pelangi, Nawaripi, Mimika Baru, Mimika Regency;PAPUA;99910;Indonesia;81344042429;;;-4.566.157;136.876.654;https://maps.google.com/?cid=0x0:0x5c0be1b61688298e;
restaurant;Mi;Depot Pace Rasta ( Rasa Tambah );FRMX+WP6, Jl. Salak SP. 2, Timika Jaya, Kec. Mimika Baru, Kabupaten Mimika, Papua 99963;Jl. Salak SP. 2, Timika Jaya, Kec. Mimika Baru, Kabupaten Mimika;PAPUA;99963;Indonesia;82198198293;;;-45.152.162;1.368.492.747;https://maps.google.com/?cid=0x0:0x3e5ea29f97936a8d;
restaurant;restaurant;N/A;;;PAPUA;;Indonesia;;;;;;https://maps.google.com/?cid=0x0:0xebd940f557d933d8u0026onu0026midu003d/g/11f_d_k0f2;
restaurant;Masakan Asia;Goodtime Restaurant  Bar;Jl. Senopati No.74, Selong, Kec. Kby. Lama, Kota Jakarta Selatan, Daerah Khusus Ibukota Jakarta 12110;Selong, Kec. Kby. Lama, Kota Jakarta Selatan;PAPUA;12110;Indonesia;85216506506;;;-6.232.192;106.810.501;https://maps.google.com/?cid=0x0:0xec3b59150718138a;
restaurant;Indonesia;Tide  Table  Restaurant;Jl. Iskandarsyah I No.9, Melawai, Kec. Kby. Baru, Kota Jakarta Selatan, Daerah Khusus Ibukota Jakarta 12160;Melawai, Kec. Kby. Baru, Kota Jakarta Selatan;PAPUA;12160;Indonesia;85693104541;;;-62.433.904;1.068.041.722;https://maps.google.com/?cid=0x0:0x3b7f3c1e07358244;
restaurant;Prasmanan;Henshin Restaurant;Level 67-69, The Westin Jakarta Jalan H.R. Rasuna Said Kav. C-22A, RT.2/RW.5, Karet Kuningan, Setiabudi, South Jakarta City, Jakarta 12940;The Westin Jakarta Jalan H.R. Rasuna Said Kav. C-22A, RT.2/RW.5, Karet Kuningan, Setiabudi, South Jakarta City;PAPUA;12940;Indonesia;2127887768;;;-62.237.891;1.068.335.536;https://maps.google.com/?cid=0x0:0xbc86c6868df3099a;
restaurant;China;PSY Steamboat Yakiniku Kebon Jeruk;7, Jl. Panjang Arteri Klp. Dua Raya No.24B, RT.7/RW.5, Klp. Dua, Kec. Kb. Jeruk, Kota Jakarta Barat, Daerah Khusus Ibukota Jakarta 11550;Jl. Panjang Arteri Klp. Dua Raya No.24B, RT.7/RW.5, Klp. Dua, Kec. Kb. Jeruk, Kota Jakarta Barat;PAPUA;11550;Indonesia;2122124285;;;-62.101.624;1.067.708.156;https://maps.google.com/?cid=0x0:0x796a0f97d5967130;
restaurant;restaurant;Papua 99966;Papua;Papua;PAPUA;;Indonesia;;;;-42.043.028;1.375.668.376;https://maps.google.com/?cid=0x0:0x1fe5af7715c1e227;
restaurant;Restoran;Papua Cafe;JV38+MF6, Kuala Kencana, Kec. Kuala Kencana, Kabupaten Mimika, Papua 99910;Kuala Kencana, Kec. Kuala Kencana, Kabupaten Mimika;PAPUA;99910;Indonesia;811490804;;;-4.395.844;1.368.661.365;https://maps.google.com/?cid=0x0:0x314a0b94209cdb62;
restaurant;Kafe;Waanal Coffee And Resto;Jl. Cendrawasih, Karang Senang, Kec. Kuala Kencana, Kabupaten Mimika, Papua 99910;Karang Senang, Kec. Kuala Kencana, Kabupaten Mimika;PAPUA;99910;Indonesia;81248677897;;;-44.916.566;1.368.474.106;https://maps.google.com/?cid=0x0:0xe6f6936c8a14d771;
restaurant;Restoran;DJ Resto;GR8X+39M, Jl. Cendrawasih, Karang Senang, Kec. Kuala Kencana, Kabupaten Mimika, Papua 99910;Jl. Cendrawasih, Karang Senang, Kec. Kuala Kencana, Kabupaten Mimika;PAPUA;99910;Indonesia;82199260026;;;-44.847.814;1.368.484.316;https://maps.google.com/?cid=0x0:0xb84834f33eb06c32;
restaurant;Restoran;Rumah Makan Singapore;FV3M+VH2, Kwamki, Kec. Mimika Baru, Kabupaten Mimika, Papua 99971;Kwamki, Kec. Mimika Baru, Kabupaten Mimika;PAPUA;99971;Indonesia;;;;-4.545.363;1.368.838.991;https://maps.google.com/?cid=0x0:0x47bee05ed308d4d5;
restaurant;Kafe;PUA-PUA CAFE;Jl. Budi Utomo, Nawaripi, Kec. Mimika Baru, Kabupaten Mimika, Papua 99952;Nawaripi, Kec. Mimika Baru, Kabupaten Mimika;PAPUA;99952;Indonesia;82346750560;;;-45.620.805;1.368.806.057;https://maps.google.com/?cid=0x0:0xb7cc07f877baacb2;
restaurant;Makanan Siap Saji;Kurulu Sky Lounge Diana Timika;FV5M+3FC, Jl. Budi Utomo, Nawaripi, Kec. Mimika Baru, Kabupaten Mimika, Papua 99971;Jl. Budi Utomo, Nawaripi, Kec. Mimika Baru, Kabupaten Mimika;PAPUA;99971;Indonesia;8114941818;;;-45.423.066;1.368.836.282;https://maps.google.com/?cid=0x0:0xae1df6d8404be209;
restaurant;Masakan Asia;RM Kuala Oriental;Jl. Budi Utomo No.88A, Kwamki, Kec. Mimika Baru, Kabupaten Mimika, Papua 99971;Kwamki, Kec. Mimika Baru, Kabupaten Mimika;PAPUA;99971;Indonesia;81224989888;;;-45.432.787;1.368.840.215;https://maps.google.com/?cid=0x0:0xa200bb016a6f04d5;
restaurant;Restoran;Resto Amungkat;Jl. Belibis No.1, Kwamki, Kec. Mimika Baru, Kabupaten Mimika, Papua 99971;Kwamki, Kec. Mimika Baru, Kabupaten Mimika;PAPUA;99971;Indonesia;811497797;;;-45.476.585;1.368.891.199;https://maps.google.com/?cid=0x0:0x4b50932f4df2eb52;
restaurant;Ikan Bakar;Resto Jangkar;Jl. Yos Sudarso, Nawaripi, Kec. Mimika Baru, Kabupaten Mimika, Papua 99971;Nawaripi, Kec. Mimika Baru, Kabupaten Mimika;PAPUA;99971;Indonesia;82238302339;;;-45.681.968;1.368.865.993;https://maps.google.com/?cid=0x0:0x73ed65e33721012a;
restaurant;Sulawesi Selatan;Coto Mangkasara Galaxy;FV4M+XVR, Kwamki, Kec. Mimika Baru, Kabupaten Mimika, Papua 99971;Kwamki, Kec. Mimika Baru, Kabupaten Mimika;PAPUA;99971;Indonesia;;;;-45.425.091;1.368.846.267;https://maps.google.com/?cid=0x0:0x5fb4274cfb32211d;
restaurant;Rumah Makan;RestoCafe Rumah Laut;Jl. Koti, Numbai, Distrik Jayapura Selatan, Kota Jayapura, Papua 99222;Numbai, Distrik Jayapura Selatan, Kota Jayapura;PAPUA;99222;Indonesia;9675160842;;;-25.443.152;1.407.078.561;https://maps.google.com/?cid=0x0:0xa0b850e17d17f09d;
restaurant;Mesin Sangrai Kopi;Alenia Papua Coffee  Kitchen;Jl. Kemang Raya No.66 B 8, RT.8/RW.2, Bangka, Kec. Mampang Prpt., Kota Jakarta Selatan, Daerah Khusus Ibukota Jakarta 12730;RT.8/RW.2, Bangka, Kec. Mampang Prpt., Kota Jakarta Selatan;PAPUA;12730;Indonesia;2171790141;;;-62.638.119;1.068.158.777;https://maps.google.com/?cid=0x0:0xe49807fcfab68b48;
restaurant;China;KOPS RESTO TPRA;V34R+QXH, Jl. Tembagapura Raya, Tembagapura, Kec. Tembagapura, Kabupaten Mimika, Papua 99967;Jl. Tembagapura Raya, Tembagapura, Kec. Tembagapura, Kabupaten Mimika;PAPUA;99967;Indonesia;;;;-4.143.062;1.370.924.871;https://maps.google.com/?cid=0x0:0x6bb2b4db62e6d0f9;
restaurant;Rumah Makan;RM. MAUREEN;Jl. Poros SP 2 - SP 5, Timika Jaya, Kec. Mimika Baru, Kabupaten Mimika, Papua 99963;Timika Jaya, Kec. Mimika Baru, Kabupaten Mimika;PAPUA;99963;Indonesia;82198288643;;;-45.191.148;1.368.426.541;https://maps.google.com/?cid=0x0:0xf41648c7380f6d08;
restaurant;Restoran;BREAK LUNNER (Nasi Kuning - Ayam Bakar Rica - Es Milo);Area Pakapura  Undergras, Jl. Cendrawasih, Papua 99910;Jl. Cendrawasih;PAPUA;99910;Indonesia;85244239623;;;-45.412.192;1.368.826.715;https://maps.google.com/?cid=0x0:0x70b8abb4e439935c;
restaurant;Hidangan Laut;Cafe  Resto Bakul;CVJP+XW5, Jl. Hasanuddin, Nawaripi, Kec. Mimika Baru, Kabupaten Mimika, Papua 99971;Jl. Hasanuddin, Nawaripi, Kec. Mimika Baru, Kabupaten Mimika;PAPUA;99971;Indonesia;82198552189;;;-45.676.203;1.368.873.463;https://maps.google.com/?cid=0x0:0xbd8bb704b5419ee5;
restaurant;Makanan Siap Saji;KFC Timika;KOMPLEKS MULIA MINI MALL, Jl. Cendrawasih, Kwamki, Kec. Mimika Baru, Kabupaten Mimika, Papua 99971;Jl. Cendrawasih, Kwamki, Kec. Mimika Baru, Kabupaten Mimika;PAPUA;99971;Indonesia;2114022;;;-45.424.857;1.368.857.177;https://maps.google.com/?cid=0x0:0x2a527016ae42ff4b;
restaurant;Restoran;Restaurant Yougwa;CJ63+H23, Jl. Raya Abepura - Sentani, Asei Kecil, Kec. Sentani Tim., Kabupaten Jayapura, Papua 99351;Jl. Raya Abepura - Sentani, Asei Kecil, Kec. Sentani Tim., Kabupaten Jayapura;PAPUA;99351;Indonesia;8114801448;;;-25.886.245;140.602.559;https://maps.google.com/?cid=0x0:0x65e60fc66014e79c;
restaurant;Rumah Makan;Rumah Makan Sendok Garpu Jayapura;Jl. Raya Abepura-Kotaraja Kota Baru, Wai Mhorock, Kec. Abepura, Kota Jayapura, Papua 99225;Wai Mhorock, Kec. Abepura, Kota Jayapura;PAPUA;99225;Indonesia;82310000123;;;-26.057.136;1.406.694.308;https://maps.google.com/?cid=0x0:0x9b347169a4f00047;
restaurant;Kedai Kopi;TERU;Jl. Barito I No.19, RT.4/RW.1, Kramat Pela, Kec. Kby. Baru, Kota Jakarta Selatan, Daerah Khusus Ibukota Jakarta 12130;RT.4/RW.1, Kramat Pela, Kec. Kby. Baru, Kota Jakarta Selatan;PAPUA;12130;Indonesia;81291004266;;;-62.437.594;1.067.933.397;https://maps.google.com/?cid=0x0:0xafcdf022dcc55410;
restaurant;Restoran;Mels Venue  Dining Pakubuwono;Jl. Pakubuwono VI No.77 11, RT.6/RW.2, Gunung, Kec. Kby. Baru, Kota Jakarta Selatan, Daerah Khusus Ibukota Jakarta 12120;RT.6/RW.2, Gunung, Kec. Kby. Baru, Kota Jakarta Selatan;PAPUA;12120;Indonesia;81119168222;;;-623.719;106.787.594;https://maps.google.com/?cid=0x0:0xe6ab93a55b6fc581;
restaurant;Masakan Barat;East Quarter - Grand Indonesia;Grand Indonesia East Mall - Lower Ground EM-LG 01  02, Kota Jakarta Pusat, Daerah Khusus Ibukota Jakarta 10310;Kota Jakarta Pusat;PAPUA;10310;Indonesia;81295146716;;;-61.950.053;1.068.212.203;https://maps.google.com/?cid=0x0:0x905e859c0b1d93;
restaurant;China;Twelve Chinese Dining Restaurant;Jl. Dr. Kusuma Atmaja No.75, Menteng, Kec. Menteng, Jakarta, Daerah Khusus Ibukota Jakarta 10310;Menteng, Kec. Menteng, Jakarta;PAPUA;10310;Indonesia;2121237040;;;-61.980.742;1.068.244.094;https://maps.google.com/?cid=0x0:0x456948e886e869e1;
restaurant;Indonesia;Remboelan - Senayan City;Jl. Asia Afrika Store 5 - 23, 25, 26, Gelora, Kecamatan Tanah Abang, Kota Jakarta Pusat, Daerah Khusus Ibukota Jakarta 10270;25, 26, Gelora, Kecamatan Tanah Abang, Kota Jakarta Pusat;PAPUA;10270;Indonesia;2172781586;;;-62.273.225;1.067.967.597;https://maps.google.com/?cid=0x0:0x4d7c5240f54edd51;
restaurant;Sushi;Kintaro Sushi PI (Plaza Indonesia);Jl. M.H. Thamrin No.kav 28-30 LT. Basement. Unit LB #25, Gondangdia, Kec. Menteng, Jakarta, Daerah Khusus Ibukota Jakarta 10210;Gondangdia, Kec. Menteng, Jakarta;PAPUA;10210;Indonesia;2121393788;;;-61.938.545;1.068.220.282;https://maps.google.com/?cid=0x0:0x6e7104230c3335a6;
restaurant;Masakan Jepang Autentik;Sukiyaki Rin - Goldfinch;PJGM+FW6, Jl. Goldfinch Raya, SGE 026, Cihuni, Pagedangan, Tangerang Regency, Banten 15332;Jl. Goldfinch Raya, SGE 026, Cihuni, Pagedangan, Tangerang Regency;PAPUA;15332;Indonesia;87733070370;;;-62.738.486;1.066.348.638;https://maps.google.com/?cid=0x0:0x6563c348c175d725;
restaurant;China;Ji Shi Yu ??? - Food Plaza PIK;VPWR+CMH, RT.6/RW.2, Kamal Muara, Kec. Penjaringan, Jkt Utara, Daerah Khusus Ibukota Jakarta;Jkt Utara, Daerah Khusus Ibukota Jakarta;PAPUA;;Indonesia;85224768200;;;-61.039.428;1.067.417.274;https://maps.google.com/?cid=0x0:0xe49b812a55a498ec;
restaurant;Jepang;Sushi Maru PIK;Golf Island Jl. Rukan Beach Boulevard No. 75  76, Jl. Pantai Indah Kapuk, DKI Jakarta 14470;Jl. Pantai Indah Kapuk;PAPUA;14470;Indonesia;81260005503;;;-60.929.526;1.067.406.357;https://maps.google.com/?cid=0x0:0xfac0467407151916;
restaurant;restaurant;Papua 99971;Kabupaten Mimika, Papua;Kabupaten Mimika, Papua;PAPUA;;Indonesia;;;;-47.222.914;136.941.659;https://maps.google.com/?cid=0x0:0x309b23773920c02b;
restaurant;Restoran;DJ Resto Timika;Kamoro Jaya, Kec. Mimika Baru, Kabupaten Mimika, Papua 99971;Kec. Mimika Baru, Kabupaten Mimika;PAPUA;99971;Indonesia;85175277312;;;-45.808.953;1.368.721.819;https://maps.google.com/?cid=0x0:0x11447bfdde2862e5;
restaurant;Restoran;So Yummy Resto;FV3Q+QR9, Kwamki, Kec. Mimika Baru, Kabupaten Mimika, Papua 99971;Kwamki, Kec. Mimika Baru, Kabupaten Mimika;PAPUA;99971;Indonesia;81240005760;;;-45.455.973;1.368.896.159;https://maps.google.com/?cid=0x0:0xad18f6a2fb6ee6f8;
restaurant;Kedai Kopi;The Topas Cafe  Resto;CVMV+4QG, Jl. Mente Sempan, Nawaripi, Kec. Mimika Baru, Kabupaten Mimika, Papua 99971;Jl. Mente Sempan, Nawaripi, Kec. Mimika Baru, Kabupaten Mimika;PAPUA;99971;Indonesia;85273158976;;;-45.682.963;1.368.947.131;https://maps.google.com/?cid=0x0:0x95facf1998915083;
restaurant;Masakan Asia;RM Kuala Oriental;Jl. Budi Utomo No.88A, Kwamki, Kec. Mimika Baru, Kabupaten Mimika, Papua 99971;Kwamki, Kec. Mimika Baru, Kabupaten Mimika;PAPUA;99971;Indonesia;81224989888;;;-45.432.787;1.368.840.215;https://maps.google.com/?cid=0x0:0xa200bb016a6f04d5;
restaurant;Hotel Resor;Restaurant Ossa de Villa;CVMJ+QV7, Nawaripi, Kec. Mimika Baru, Kabupaten Mimika, Papua 99971;Nawaripi, Kec. Mimika Baru, Kabupaten Mimika;PAPUA;99971;Indonesia;;;;-4.565.599;136.882.175;https://maps.google.com/?cid=0x0:0x21c1de30d3c624aa;
restaurant;Kafe;PUA-PUA CAFE;Jl. Budi Utomo, Nawaripi, Kec. Mimika Baru, Kabupaten Mimika, Papua 99952;Nawaripi, Kec. Mimika Baru, Kabupaten Mimika;PAPUA;99952;Indonesia;82346750560;;;-45.620.805;1.368.806.057;https://maps.google.com/?cid=0x0:0xb7cc07f877baacb2;
restaurant;Ikan Bakar;Resto Jangkar;Jl. Yos Sudarso, Nawaripi, Kec. Mimika Baru, Kabupaten Mimika, Papua 99971;Nawaripi, Kec. Mimika Baru, Kabupaten Mimika;PAPUA;99971;Indonesia;82238302339;;;-45.681.968;1.368.865.993;https://maps.google.com/?cid=0x0:0x73ed65e33721012a;
restaurant;Restoran;Rumah Makan Danau Toba;Jl. Hasanuddin No.9, Nawaripi, Kec. Mimika Baru, Kabupaten Mimika, Papua 99971;Nawaripi, Kec. Mimika Baru, Kabupaten Mimika;PAPUA;99971;Indonesia;82248122382;;;-45.665.298;1.368.821.497;https://maps.google.com/?cid=0x0:0x88864930c3f70f40;
restaurant;Rumah Makan;RM JIMBARAN;CV5C+VH7, Wonosari Jaya, Kec. Mimika Baru, Kabupaten Mimika, Papua 99971;Wonosari Jaya, Kec. Mimika Baru, Kabupaten Mimika;PAPUA;99971;Indonesia;81343058300;;;-45.903.421;1.368.714.332;https://maps.google.com/?cid=0x0:0x386f23e2af0aa1f8;
restaurant;Pizza;Pizza Hut Restoran;Jl. Budi Utomo, Koperapoka, Kec. Mimika Baru, Kabupaten Mimika, Papua 99971;Koperapoka, Kec. Mimika Baru, Kabupaten Mimika;PAPUA;99971;Indonesia;1500600;;;-45.525.913;1.368.827.561;https://maps.google.com/?cid=0x0:0x4c3214de7da567c1;
restaurant;Kedai Kopi;Junsei Cafe;Poros Mapurjaya Samping Toko Plastik Sarana Berkat - Depan Timika Mall, Jl. Yos Sudarso, Inauga, Kec. Mimika Baru, Kabupaten Mimika, Papua 99971;Jl. Yos Sudarso, Inauga, Kec. Mimika Baru, Kabupaten Mimika;PAPUA;99971;Indonesia;;;;-4.568.174;1.368.870.754;https://maps.google.com/?cid=0x0:0xe4b3254b59781b95;
restaurant;Restoran;So Yummy Bakery  Cafe;Gedung Diana, Jl. Budi Utomo No.8 Lantai Dasar, Kwamki, Kec. Mimika Baru, Kabupaten Mimika, Papua 99971;Jl. Budi Utomo No.8 Lantai Dasar, Kwamki, Kec. Mimika Baru, Kabupaten Mimika;PAPUA;99971;Indonesia;9013264829;;;-45.428.654;1.368.837.126;https://maps.google.com/?cid=0x0:0x54ecba4b79b13ba2;
restaurant;Dapur Umum;WARUNG MAKAN MBAK ALVY;Jl. Timika - Pomako, Pomako, Kec. Mimika Tim., Kabupaten Mimika, Papua 99971;Pomako, Kec. Mimika Tim., Kabupaten Mimika;PAPUA;99971;Indonesia;;;;-47.938.132;1.367.666.826;https://maps.google.com/?cid=0x0:0x4f87d6088e223ed4;
restaurant;Masakan Asia;Warung Eyang;Jl. Budi Utomo No.119, Kwamki, Kec. Mimika Baru, Kabupaten Mimika, Papua 99971;Kwamki, Kec. Mimika Baru, Kabupaten Mimika;PAPUA;99971;Indonesia;;;;-45.593.874;1.368.811.234;https://maps.google.com/?cid=0x0:0x733d707691b1f745;
restaurant;Dapur Umum;RM. PAPEDA / KAPURUNG INDOLOGO;Nawaripi, Kec. Mimika Baru, Kabupaten Mimika, Papua 99971;Kec. Mimika Baru, Kabupaten Mimika;PAPUA;99971;Indonesia;82199077432;;;-45.664.169;1.368.796.139;https://maps.google.com/?cid=0x0:0x5588c9daf63726f;
restaurant;Kafe;Mel's Cafe;Jl. Hasanuddin No.65, Nawaripi, Kec. Mimika Baru, Kabupaten Mimika, Papua 99971;Nawaripi, Kec. Mimika Baru, Kabupaten Mimika;PAPUA;99971;Indonesia;81214077777;;;-4.566.244;1.368.766.475;https://maps.google.com/?cid=0x0:0x4fffe59f3a189d59;
restaurant;Padang;RM Sederhana;5QW9+V8R, Jl. Timika - Pomako, Pomako, Kec. Mimika Tim., Kabupaten Mimika, Papua 99971;Jl. Timika - Pomako, Pomako, Kec. Mimika Tim., Kabupaten Mimika;PAPUA;99971;Indonesia;;;;-48.027.701;1.367.682.771;https://maps.google.com/?cid=0x0:0x498a0fd83b152379;
restaurant;Restoran;RM Cabe hijau Timika - Papua;Jl. Trikora No.2, Kwamki, Kec. Mimika Baru, Kabupaten Mimika, Papua 99971;Kwamki, Kec. Mimika Baru, Kabupaten Mimika;PAPUA;99971;Indonesia;8114910855;;;-45.414.393;1.368.902.665;https://maps.google.com/?cid=0x0:0x208e49f2d9ab643;
restaurant;Kafe;RUMAH KOPI AMUNGME GOLD;Jl. Malcon, Kwamki, Kec. Mimika Baru, Kabupaten Mimika, Papua 99971;Kwamki, Kec. Mimika Baru, Kabupaten Mimika;PAPUA;99971;Indonesia;;;;-45.440.105;1.368.833.261;https://maps.google.com/?cid=0x0:0xedf616fc858eb39c;
restaurant;Hidangan Laut;Lorenz Seafood  Cafe;FV4W+243, Timika Jaya, Kec. Mimika Baru, Kabupaten Mimika, Papua 99971;Timika Jaya, Kec. Mimika Baru, Kabupaten Mimika;PAPUA;99971;Indonesia;;;;-45.449.812;1.368.953.063;https://maps.google.com/?cid=0x0:0x5a543fe96d7456b7;
restaurant;Makanan Siap Saji;Kurulu Sky Lounge Diana Timika;FV5M+3FC, Jl. Budi Utomo, Nawaripi, Kec. Mimika Baru, Kabupaten Mimika, Papua 99971;Jl. Budi Utomo, Nawaripi, Kec. Mimika Baru, Kabupaten Mimika;PAPUA;99971;Indonesia;8114941818;;;-45.423.066;1.368.836.282;https://maps.google.com/?cid=0x0:0xae1df6d8404be209;
restaurant;Restoran;WAROENG KAMPOENG;Jl. Budi Utomo Lorong Osadevila Timika, Nawaripi, Kec. Mimika Baru, Kabupaten Mimika, Papua 99971;Nawaripi, Kec. Mimika Baru, Kabupaten Mimika;PAPUA;99971;Indonesia;85244401625;;;-45.654.969;136.880.423;https://maps.google.com/?cid=0x0:0xd05e841081f3f579;
restaurant;Bakso;Depot Safira;9VH7+W3G, Kamoro Jaya, Kec. Mimika Baru, Kabupaten Mimika, Papua 99971;Kamoro Jaya, Kec. Mimika Baru, Kabupaten Mimika;PAPUA;99971;Indonesia;;;;-46.201.772;13.686.271;https://maps.google.com/?cid=0x0:0x2596841089f47ec3;
restaurant;Kafe;Studio Cafe;Nawaripi, Kec. Mimika Baru, Kabupaten Mimika, Papua 99971;Kec. Mimika Baru, Kabupaten Mimika;PAPUA;99971;Indonesia;82230021018;;;-45.536.027;1.368.824.333;https://maps.google.com/?cid=0x0:0xe4abc3e17257d04f;
restaurant;Restoran;DJ Resto;GR8X+39M, Jl. Cendrawasih, Karang Senang, Kec. Kuala Kencana, Kabupaten Mimika, Papua 99910;Jl. Cendrawasih, Karang Senang, Kec. Kuala Kencana, Kabupaten Mimika;PAPUA;99910;Indonesia;82199260026;;;-44.847.814;1.368.484.316;https://maps.google.com/?cid=0x0:0xb84834f33eb06c32;
restaurant;Kafe;JCO COFFEE  DONUTS TIMIKA MALL;CVJP+XQ2, Nawaripi, Kec. Mimika Baru, Kabupaten Mimika, Papua 99971;Nawaripi, Kec. Mimika Baru, Kabupaten Mimika;PAPUA;99971;Indonesia;8158898000;;;-45.676.038;1.368.869.059;https://maps.google.com/?cid=0x0:0x45c3202312087e39;
restaurant;Kafe;LAVAS'CO COFFEE  RESTO;CVQJ+86W, Timika,, Koperapoka, Kec. Mimika Baru, Kabupaten Mimika, Papua 99971;Timika,, Koperapoka, Kec. Mimika Baru, Kabupaten Mimika;PAPUA;99971;Indonesia;8114909486;;;-45.616.468;1.368.805.836;https://maps.google.com/?cid=0x0:0xe3ccc616238019e9;
restaurant;Kafe;Chill N Chat (IQOS Partner Timika);CVQJ+FWR, Nawaripi, Kec. Mimika Baru, Kabupaten Mimika, Papua 99971;Nawaripi, Kec. Mimika Baru, Kabupaten Mimika;PAPUA;99971;Indonesia;82195000899;;;-45.614.472;1.368.821.841;https://maps.google.com/?cid=0x0:0x61ba06f75bfd49e5;
restaurant;restaurant;Kec. Kuala Kencana;Kabupaten Mimika, Papua;Kabupaten Mimika, Papua;PAPUA;;Indonesia;;;;-43.653.215;1.367.478.493;https://maps.google.com/?cid=0x0:0xeec735e2ce5877e2;
restaurant;restaurant;Papua 99968;Kabupaten Mimika, Papua;Kabupaten Mimika, Papua;PAPUA;;Indonesia;;;;-42.590.064;1.365.547.852;https://maps.google.com/?cid=0x0:0x32d5cd81eafb994;
restaurant;restaurant;Agen Goman Kopi Papua Barat;Jl. Kasuari No 72B RT 6 RW A, Bhintuka, Kuala Kencana, Mimika Regency, Papua 99910;Bhintuka, Kuala Kencana, Mimika Regency;PAPUA;99910;Indonesia;8125285378;;;-43.653.215;1.367.478.493;https://maps.google.com/?cid=0x0:0xb9e68c231e992eb5;
restaurant;China;Kuala Oriental Restaurant-Kuala Kencana;JV38+P6J Komplek Retail Center, Jl. Kuala Kencana, Bhintuka, Kec. Kuala Kencana, Kabupaten Mimika, Papua 99910;Jl. Kuala Kencana, Bhintuka, Kec. Kuala Kencana, Kabupaten Mimika;PAPUA;99910;Indonesia;901302888;;;-43.956.651;1.368.655.246;https://maps.google.com/?cid=0x0:0x9d02b811a593749e;
restaurant;Sesuai untuk keluarga;Warung Buhasan;HVX5+WMR, Kuala Kencana, Kec. Kuala Kencana, Kabupaten Mimika, Papua 99910;Kuala Kencana, Kec. Kuala Kencana, Kabupaten Mimika;PAPUA;99910;Indonesia;;;;-44.001.406;1.368.591.323;https://maps.google.com/?cid=0x0:0xdb242c4c00b26857;
restaurant;Lapangan Golf;Rimba Papua Golf Restaurant  Bar;Kuala Kencana, Kec. Kuala Kencana, Kabupaten Mimika, Papua 99910;Kec. Kuala Kencana, Kabupaten Mimika;PAPUA;99910;Indonesia;;;;-44.066.524;1.368.732.401;https://maps.google.com/?cid=0x0:0xf6fc98cb1830460b;
restaurant;Restoran;Nimaome Cafe;Kuala Kencana, Kec. Kuala Kencana, Kabupaten Mimika, Papua 99910;Kec. Kuala Kencana, Kabupaten Mimika;PAPUA;99910;Indonesia;;;;-43.959.804;1.368.651.186;https://maps.google.com/?cid=0x0:0x474a8c91257d246d;
restaurant;Restoran;Papua Cafe;JV38+MF6, Kuala Kencana, Kec. Kuala Kencana, Kabupaten Mimika, Papua 99910;Kuala Kencana, Kec. Kuala Kencana, Kabupaten Mimika;PAPUA;99910;Indonesia;811490804;;;-4.395.844;1.368.661.365;https://maps.google.com/?cid=0x0:0x314a0b94209cdb62;
restaurant;Kedai Kopi;Batagor Bandung;GR9X+XH8, Jl. Cendrawasih, Karang Senang, Kec. Kuala Kencana, Kabupaten Mimika, Papua 99910;Jl. Cendrawasih, Karang Senang, Kec. Kuala Kencana, Kabupaten Mimika;PAPUA;99910;Indonesia;;;;-44.800.785;1.368.489.473;https://maps.google.com/?cid=0x0:0x447b90911411107a;
restaurant;Restoran;Anna cafe  resto;HV35+H25, Jl. Agimuga Mile 32, Kuala Kencana, Kec. Kuala Kencana, Kabupaten Mimika, Papua 99910;Jl. Agimuga Mile 32, Kuala Kencana, Kec. Kuala Kencana, Kabupaten Mimika;PAPUA;99910;Indonesia;;;;-44.461.033;1.368.576.054;https://maps.google.com/?cid=0x0:0x41fbb99d60769bb7;
restaurant;Restoran;Dapur 463;Jl. Elang No.63, Kuala Kencana, Kec. Kuala Kencana, Kabupaten Mimika, Papua 99910;Kuala Kencana, Kec. Kuala Kencana, Kabupaten Mimika;PAPUA;99910;Indonesia;;;;-44.013.822;1.368.544.398;https://maps.google.com/?cid=0x0:0xb2a5c23e03698899;
restaurant;Restoran;DJ Resto;GR8X+39M, Jl. Cendrawasih, Karang Senang, Kec. Kuala Kencana, Kabupaten Mimika, Papua 99910;Jl. Cendrawasih, Karang Senang, Kec. Kuala Kencana, Kabupaten Mimika;PAPUA;99910;Indonesia;82199260026;;;-44.847.814;1.368.484.316;https://maps.google.com/?cid=0x0:0xb84834f33eb06c32;
restaurant;Masakan Asia;RM Kuala Oriental;Jl. Budi Utomo No.88A, Kwamki, Kec. Mimika Baru, Kabupaten Mimika, Papua 99971;Kwamki, Kec. Mimika Baru, Kabupaten Mimika;PAPUA;99971;Indonesia;81224989888;;;-45.432.787;1.368.840.215;https://maps.google.com/?cid=0x0:0xa200bb016a6f04d5;
restaurant;restaurant;Senja singgah sulage cafe  resto;Jalan Cendrawasih Sp2, Wonosari Jaya, Kec. Mimika Baru, Kabupaten Mimika, Papua;Kabupaten Mimika, Papua;PAPUA;;Indonesia;;;;-45.152.521;1.368.494.032;https://maps.google.com/?cid=0x0:0xdebcb50c34e9db7;
restaurant;Dapur Umum;Catering Mama Mans;HVX3+5H6, Kuala Kencana, Kec. Kuala Kencana, Kabupaten Mimika, Papua 99910;Kuala Kencana, Kec. Kuala Kencana, Kabupaten Mimika;PAPUA;99910;Indonesia;901301448;;;-44.020.881;1.368.538.967;https://maps.google.com/?cid=0x0:0xf4a6521f623b3241;
restaurant;Hidangan Laut;Resto Nelayan;FV79+36C, Kwamki, Kec. Mimika Baru, Kabupaten Mimika, Papua 99971;Kwamki, Kec. Mimika Baru, Kabupaten Mimika;PAPUA;99971;Indonesia;81247849951;;;-4.537.324;1.368.680.102;https://maps.google.com/?cid=0x0:0x9be66c1037e0a3ca;
restaurant;restaurant;Lesehan Mayang ayam geprek sp 3;Jl. Sp III, Karang Senang, Kec. Kuala Kencana, Kabupaten Mimika, Papua 99910;Karang Senang, Kec. Kuala Kencana, Kabupaten Mimika;PAPUA;99910;Indonesia;85354222326;;;-44.777.582;1.368.529.289;https://maps.google.com/?cid=0x0:0xd1fe8d7d6c474641;
restaurant;Pemasok makanan dan minuman katering;warung sido mulia;GVC2+V87, Karang Senang, Kec. Kuala Kencana, Kabupaten Mimika, Papua 99910;Karang Senang, Kec. Kuala Kencana, Kabupaten Mimika;PAPUA;99910;Indonesia;82399514701;;;-44.778.284;1.368.508.097;https://maps.google.com/?cid=0x0:0x6f64ac172da6af20;
restaurant;Restoran;Yeosin All you can eat;FVG5+489, Jl. Cendrawasih, Kwamki, Kec. Mimika Baru, Kabupaten Mimika, Papua 99963;Jl. Cendrawasih, Kwamki, Kec. Mimika Baru, Kabupaten Mimika;PAPUA;99963;Indonesia;;;;-45.247.102;136.858.367;https://maps.google.com/?cid=0x0:0xf7c105830bbaed61;
restaurant;Restoran;PAWON E'MAK;BLOK D4 NO.36, Utikini Baru, Kec. Kuala Kencana, Kabupaten Mimika, Papua 99969;Utikini Baru, Kec. Kuala Kencana, Kabupaten Mimika;PAPUA;99969;Indonesia;;;;-44.697.392;1.368.433.348;https://maps.google.com/?cid=0x0:0xe0b0860b5b561b10;
restaurant;Indonesia;RM. Mile 32;HV2H+5XM, Karang Senang, Kec. Kuala Kencana, Kabupaten Mimika, Papua 99910;Karang Senang, Kec. Kuala Kencana, Kabupaten Mimika;PAPUA;99910;Indonesia;;;;-44.495.334;136.879.911;https://maps.google.com/?cid=0x0:0x43031295b8ecd1f6;
restaurant;Makanan Siap Saji;Kurulu Sky Lounge Diana Timika;FV5M+3FC, Jl. Budi Utomo, Nawaripi, Kec. Mimika Baru, Kabupaten Mimika, Papua 99971;Jl. Budi Utomo, Nawaripi, Kec. Mimika Baru, Kabupaten Mimika;PAPUA;99971;Indonesia;8114941818;;;-45.423.066;1.368.836.282;https://maps.google.com/?cid=0x0:0xae1df6d8404be209;
restaurant;Toko bahan makanan;"NyukNyang KHUSUS SAMODA99""""";Jl. Cendrawasih, Utikini Baru, Kec. Kuala Kencana, Kabupaten Mimika, Papua;Kabupaten Mimika, Papua;PAPUA;;Indonesia;85221935519;;;-44.855.212;1.368.477.739;https://maps.google.com/?cid=0x0:0x32289424dd028c0d;
restaurant;Restoran;Amare Cafe Resto  Sport Center;Pondok Amor Indah SP3 Timika, Utikini Baru, Kec. Kuala Kencana, Kabupaten Mimika, Papua 99971;Utikini Baru, Kec. Kuala Kencana, Kabupaten Mimika;PAPUA;99971;Indonesia;81240334996;;;-44.721.692;1.368.455.616;https://maps.google.com/?cid=0x0:0x33943aa46260740f;
restaurant;Restoran;Noken Cafe by Primo;V34Q+XXH, Tembagapura, Arwandop, Tembagapura, Kec. Tembagapura, Kabupaten Mimika, Papua 99967;Tembagapura, Arwandop, Tembagapura, Kec. Tembagapura, Kabupaten Mimika;PAPUA;99967;Indonesia;;;;-41.425.625;1.370.899.844;https://maps.google.com/?cid=0x0:0xaed48ea0d834fa7a;
restaurant;Restoran;Melati Messhall;V35R+6PC, Arwandop, Kec. Tembagapura, Kabupaten Mimika, Papua 98972;Arwandop, Kec. Tembagapura, Kabupaten Mimika;PAPUA;98972;Indonesia;;;;-41.419.323;1.370.917.683;https://maps.google.com/?cid=0x0:0xcec4b3671f663e0f;
restaurant;restaurant;Papua 99967;Kabupaten Mimika, Papua;Kabupaten Mimika, Papua;PAPUA;;Indonesia;;;;-42.294.388;1.370.193.913;https://maps.google.com/?cid=0x0:0x89f915cf55d48161;
restaurant;Bar;Lupa Lelah Club;V35Q+3C5, Tembagapura, Arwandop, Tembagapura, Kec. Tembagapura, Kabupaten Mimika, Papua 98972;Tembagapura, Arwandop, Tembagapura, Kec. Tembagapura, Kabupaten Mimika;PAPUA;98972;Indonesia;901464294;;;-41.423.686;1.370.886.127;https://maps.google.com/?cid=0x0:0x34b42bf7fb4e9af2;
restaurant;Restoran;Mawar Mess Hall Tembagapura;V35V+9H5, Arwandop, Tembagapura, Kec. Tembagapura, Kabupaten Mimika, Papua 98972;Arwandop, Tembagapura, Kec. Tembagapura, Kabupaten Mimika;PAPUA;98972;Indonesia;82111651875;;;-41.416.131;1.370.939.934;https://maps.google.com/?cid=0x0:0xd853c8435a0e135e;
restaurant;Restoran;Kokarfi Resto;V34V+P2C, Arwandop, Tembagapura, Kec. Tembagapura, Kabupaten Mimika, Papua 99967;Arwandop, Tembagapura, Kec. Tembagapura, Kabupaten Mimika;PAPUA;99967;Indonesia;901466544;;;-41.431.882;137.092.517;https://maps.google.com/?cid=0x0:0xa4ef3aefd5f71d5;
restaurant;Restoran;New Kenanga Mess Hall;Tembagapura, Mimika Regency, Papua 98972;Mimika Regency;PAPUA;98972;Indonesia;;;;-41.099.385;1.370.999.715;https://maps.google.com/?cid=0x0:0xc5816325edeb9bea;
restaurant;Pusat Perbelanjaan;Shopping Family Tembagapura;V34Q+XXH, Tembagapura, Arwandop, Tembagapura, Kec. Tembagapura, Kabupaten Mimika, Papua 99967;Tembagapura, Arwandop, Tembagapura, Kec. Tembagapura, Kabupaten Mimika;PAPUA;99967;Indonesia;;;;-41.425.625;1.370.899.844;https://maps.google.com/?cid=0x0:0x23ff3f0a601439a2;
restaurant;Gedung Apartemen;Coffee Shop Hidden Valley;R3WX+49M, Arwandop, Kec. Tembagapura, Kabupaten Mimika, Papua 99967;Arwandop, Kec. Tembagapura, Kabupaten Mimika;PAPUA;99967;Indonesia;901466406;;;-4.154.668;1.370.984.148;https://maps.google.com/?cid=0x0:0x19897cfa42d33d8a;
restaurant;Guest house;Guest House 103;V33R+VWR, Tembagapura, Kec. Tembagapura, Kabupaten Mimika, Papua 99967;Tembagapura, Kec. Tembagapura, Kabupaten Mimika;PAPUA;99967;Indonesia;85250882818;;;-41.452.702;1.370.922.504;https://maps.google.com/?cid=0x0:0x2ff90c1eaf3677f;
restaurant;Kedai Kopi;Maxx Coffee Tembagapura;Tembagapura, Kec. Tembagapura, Kabupaten Mimika, Papua 98972;Kec. Tembagapura, Kabupaten Mimika;PAPUA;98972;Indonesia;;;;-41.424.586;1.370.899.319;https://maps.google.com/?cid=0x0:0x9ef773c4f6fba9d3;
restaurant;Lapangan Golf;Rimba Papua Golf Restaurant  Bar;Kuala Kencana, Kec. Kuala Kencana, Kabupaten Mimika, Papua 99910;Kec. Kuala Kencana, Kabupaten Mimika;PAPUA;99910;Indonesia;;;;-44.066.524;1.368.732.401;https://maps.google.com/?cid=0x0:0xf6fc98cb1830460b;
restaurant;Gedung Apartemen;BQ Garden;V34R+WWC, Tembagapura, Kec. Tembagapura, Kabupaten Mimika, Papua 98972;Tembagapura, Kec. Tembagapura, Kabupaten Mimika;PAPUA;98972;Indonesia;;;;-41.426.947;1.370.922.812;https://maps.google.com/?cid=0x0:0xb263d7123a3738cc;
restaurant;restaurant;Papua 99974;Papua;Papua;PAPUA;;Indonesia;;;;-41.344.258;1.352.243.578;https://maps.google.com/?cid=0x0:0x3424467e733abdd9;
restaurant;Restoran;Papua Cafe;JV38+MF6, Kuala Kencana, Kec. Kuala Kencana, Kabupaten Mimika, Papua 99910;Kuala Kencana, Kec. Kuala Kencana, Kabupaten Mimika;PAPUA;99910;Indonesia;811490804;;;-4.395.844;1.368.661.365;https://maps.google.com/?cid=0x0:0x314a0b94209cdb62;
restaurant;Kafe;PUA-PUA CAFE;Jl. Budi Utomo, Nawaripi, Kec. Mimika Baru, Kabupaten Mimika, Papua 99952;Nawaripi, Kec. Mimika Baru, Kabupaten Mimika;PAPUA;99952;Indonesia;82346750560;;;-45.620.805;1.368.806.057;https://maps.google.com/?cid=0x0:0xb7cc07f877baacb2;
restaurant;Kafe;Waanal Coffee And Resto;Jl. Cendrawasih, Karang Senang, Kec. Kuala Kencana, Kabupaten Mimika, Papua 99910;Karang Senang, Kec. Kuala Kencana, Kabupaten Mimika;PAPUA;99910;Indonesia;81248677897;;;-44.916.566;1.368.474.106;https://maps.google.com/?cid=0x0:0xe6f6936c8a14d771;
restaurant;Ikan Bakar;Resto Jangkar;Jl. Yos Sudarso, Nawaripi, Kec. Mimika Baru, Kabupaten Mimika, Papua 99971;Nawaripi, Kec. Mimika Baru, Kabupaten Mimika;PAPUA;99971;Indonesia;82238302339;;;-45.681.968;1.368.865.993;https://maps.google.com/?cid=0x0:0x73ed65e33721012a;
restaurant;Masakan Asia;RM Kuala Oriental;Jl. Budi Utomo No.88A, Kwamki, Kec. Mimika Baru, Kabupaten Mimika, Papua 99971;Kwamki, Kec. Mimika Baru, Kabupaten Mimika;PAPUA;99971;Indonesia;81224989888;;;-45.432.787;1.368.840.215;https://maps.google.com/?cid=0x0:0xa200bb016a6f04d5;
restaurant;Sekolah;KOGOU;Apogomakida, Distrik Piyaiye, Kabupaten Dogiyai, Papua 98711;Distrik Piyaiye, Kabupaten Dogiyai;PAPUA;98711;Indonesia;82221271147;;;-39.507.612;1.353.933.422;https://maps.google.com/?cid=0x0:0xfbb97c4a3e34ee91;
restaurant;restaurant;Desa Tapormai;Q7C6+XPH, Tapormai, Mimika Bar. Jauh, Kabupaten Mimika, Papua 99974;Tapormai, Mimika Bar. Jauh, Kabupaten Mimika;PAPUA;99974;Indonesia;;;;-42.275.569;1.352.618.568;https://maps.google.com/?cid=0x0:0xc265447ff7a3ca12;
restaurant;Sulawesi Selatan;Coto Mangkasara Galaxy;FV4M+XVR, Kwamki, Kec. Mimika Baru, Kabupaten Mimika, Papua 99971;Kwamki, Kec. Mimika Baru, Kabupaten Mimika;PAPUA;99971;Indonesia;;;;-45.425.091;1.368.846.267;https://maps.google.com/?cid=0x0:0x5fb4274cfb32211d;
restaurant;Restoran;DJ Resto Timika;Kamoro Jaya, Kec. Mimika Baru, Kabupaten Mimika, Papua 99971;Kec. Mimika Baru, Kabupaten Mimika;PAPUA;99971;Indonesia;85175277312;;;-45.808.953;1.368.721.819;https://maps.google.com/?cid=0x0:0x11447bfdde2862e5;
restaurant;Makanan Siap Saji;KFC Timika;KOMPLEKS MULIA MINI MALL, Jl. Cendrawasih, Kwamki, Kec. Mimika Baru, Kabupaten Mimika, Papua 99971;Jl. Cendrawasih, Kwamki, Kec. Mimika Baru, Kabupaten Mimika;PAPUA;99971;Indonesia;2114022;;;-45.424.857;1.368.857.177;https://maps.google.com/?cid=0x0:0x2a527016ae42ff4b;
restaurant;Restoran;Resto Amungkat;Jl. Belibis No.1, Kwamki, Kec. Mimika Baru, Kabupaten Mimika, Papua 99971;Kwamki, Kec. Mimika Baru, Kabupaten Mimika;PAPUA;99971;Indonesia;811497797;;;-45.476.585;1.368.891.199;https://maps.google.com/?cid=0x0:0x4b50932f4df2eb52;
restaurant;Kedai Kopi;Mozas coffee  eatery;FV5J+7CR, Jl. Cendrawasih, Kwamki, Kec. Mimika Baru, Kabupaten Mimika, Papua 99971;Jl. Cendrawasih, Kwamki, Kec. Mimika Baru, Kabupaten Mimika;PAPUA;99971;Indonesia;82346211581;;;-4.541.764;1.368.810.199;https://maps.google.com/?cid=0x0:0x472df8cc9760865b;
restaurant;Restoran;BREAK LUNNER (Nasi Kuning - Ayam Bakar Rica - Es Milo);Area Pakapura  Undergras, Jl. Cendrawasih, Papua 99910;Jl. Cendrawasih;PAPUA;99910;Indonesia;85244239623;;;-45.412.192;1.368.826.715;https://maps.google.com/?cid=0x0:0x70b8abb4e439935c;
restaurant;Manado;Rumah Makan Manado;FV4Q+QQH, Kwamki, Kec. Mimika Baru, Kabupaten Mimika, Papua 99971;Kwamki, Kec. Mimika Baru, Kabupaten Mimika;PAPUA;99971;Indonesia;;;;-45.430.547;1.368.894.817;https://maps.google.com/?cid=0x0:0xde2234cc28eb7696;
restaurant;restaurant;Mimika Bar. Tengah;Kabupaten Mimika, Papua;Kabupaten Mimika, Papua;PAPUA;;Indonesia;;;;-42.990.789;1.358.279.734;https://maps.google.com/?cid=0x0:0xb5b32b8dd9b435c1;
restaurant;Restoran;Papua Cafe;JV38+MF6, Kuala Kencana, Kec. Kuala Kencana, Kabupaten Mimika, Papua 99910;Kuala Kencana, Kec. Kuala Kencana, Kabupaten Mimika;PAPUA;99910;Indonesia;811490804;;;-4.395.844;1.368.661.365;https://maps.google.com/?cid=0x0:0x314a0b94209cdb62;
restaurant;Restoran;SULAGE RESTO;Jl. Budi Utomo No.kelurahan, Timika Indah, Kec. Mimika Baru, Kabupaten Mimika, Papua 99952;Timika Indah, Kec. Mimika Baru, Kabupaten Mimika;PAPUA;99952;Indonesia;81248910446;;;-45.451.762;1.368.835.607;https://maps.google.com/?cid=0x0:0xb30ef1412a9a4344;
restaurant;Restoran;DJ Resto;GR8X+39M, Jl. Cendrawasih, Karang Senang, Kec. Kuala Kencana, Kabupaten Mimika, Papua 99910;Jl. Cendrawasih, Karang Senang, Kec. Kuala Kencana, Kabupaten Mimika;PAPUA;99910;Indonesia;82199260026;;;-44.847.814;1.368.484.316;https://maps.google.com/?cid=0x0:0xb84834f33eb06c32;
restaurant;Ikan Bakar;Resto Jangkar;Jl. Yos Sudarso, Nawaripi, Kec. Mimika Baru, Kabupaten Mimika, Papua 99971;Nawaripi, Kec. Mimika Baru, Kabupaten Mimika;PAPUA;99971;Indonesia;82238302339;;;-45.681.968;1.368.865.993;https://maps.google.com/?cid=0x0:0x73ed65e33721012a;
restaurant;Restoran;So Yummy Resto;FV3Q+QR9, Kwamki, Kec. Mimika Baru, Kabupaten Mimika, Papua 99971;Kwamki, Kec. Mimika Baru, Kabupaten Mimika;PAPUA;99971;Indonesia;81240005760;;;-45.455.973;1.368.896.159;https://maps.google.com/?cid=0x0:0xad18f6a2fb6ee6f8;
restaurant;Brunch;MJ Cafe, Resto  Bakery;Jl. Cendrawasih, Kwamki, Kec. Mimika Baru, Kabupaten Mimika, Papua 91000;Kwamki, Kec. Mimika Baru, Kabupaten Mimika;PAPUA;91000;Indonesia;81343291808;;;-45.420.884;1.368.833.559;https://maps.google.com/?cid=0x0:0x9652aed5848e38a5;
restaurant;restaurant;N/A;;;PAPUA;;Indonesia;;;;;;https://maps.google.com/?cid=0x0:0xb84834f33eb06c32u0026onu003dNasi+Bakar+Ayamu0026midu003d/g/11dfkb486v;
restaurant;restaurant;N/A;;;PAPUA;;Indonesia;;;;;;https://maps.google.com/?cid=0x0:0xb84834f33eb06c32u0026onu003dSop+Buntutu0026midu003d/g/11dfkb486v;
restaurant;Pub;Alam Indah Restaurant Timika;FVPM+2Q8, Kwamki, Kec. Mimika Baru, Kabupaten Mimika, Papua 99971;Kwamki, Kec. Mimika Baru, Kabupaten Mimika;PAPUA;99971;Indonesia;;;;-4.514.974;1.368.844.671;https://maps.google.com/?cid=0x0:0xa3b1af7dd31b6ffe;
restaurant;Masakan Asia;Alena Cafe  Resto;FV5M+767, Jl. Cendrawasih Sp2, Wonosari Jaya, Kec. Mimika Baru, Kabupaten Mimika, Papua 99971;Jl. Cendrawasih Sp2, Wonosari Jaya, Kec. Mimika Baru, Kabupaten Mimika;PAPUA;99971;Indonesia;;;;-45.418.393;1.368.830.603;https://maps.google.com/?cid=0x0:0x784e958f8ca5b86f;
restaurant;Restoran;RUMAH MAKAN SURYA INDAH;CVP3+6R8, Jl. Hasanuddin, Kamoro Jaya, Kec. Mimika Baru, Kabupaten Mimika, Papua 99971;Jl. Hasanuddin, Kamoro Jaya, Kec. Mimika Baru, Kabupaten Mimika;PAPUA;99971;Indonesia;81354159958;;;-45.644.666;1.368.540.478;https://maps.google.com/?cid=0x0:0x555b21376327d277;
restaurant;restaurant;N/A;;;PAPUA;;Indonesia;;;;;;https://maps.google.com/?cid=0x0:0xa3b1af7dd31b6ffeu0026onu0026midu003d/g/11h5w3wb3_;
restaurant;Kafe;Alam Rasa Cafe and Resto;Jl. Raya Jejalen-Jabir kp. Pulo puter, Srimahi, Kec. Tambun Utara, Kabupaten Bekasi, Jawa Barat 17510;Srimahi, Kec. Tambun Utara, Kabupaten Bekasi;PAPUA;17510;Indonesia;87819999719;;;-61.910.863;1.070.754.723;https://maps.google.com/?cid=0x0:0xbb0e7a7882e6c78a;
restaurant;Kafe;Alam Bistro N Cafe;Jl. Bayangkara Pusdiklantas No.12, RW.4, Pd. Jagung Tim., Kec. Serpong Utara, Kota Tangerang Selatan, Banten 15326;RW.4, Pd. Jagung Tim., Kec. Serpong Utara, Kota Tangerang Selatan;PAPUA;15326;Indonesia;81399979589;;;-62.399.104;1.066.607.587;https://maps.google.com/?cid=0x0:0xb9c3defb0faddad6;
restaurant;Timur Tengah;Ahla Resto;Jl. Raya Kranggan No.44, RT.015/RW.017, Jatisampurna, Kec. Jatisampurna, Kota Bks, Jawa Barat 17433;RT.015/RW.017, Jatisampurna, Kec. Jatisampurna, Kota Bks;PAPUA;17433;Indonesia;82134629615;;;-63.720.931;1.069.180.424;https://maps.google.com/?cid=0x0:0xf9c3c037760e49ad;
restaurant;Restoran;Rumah Makan Aroma Alam 4;Karacak, Kec. Leuwiliang, Kabupaten Bogor, Jawa Barat;Kabupaten Bogor, Jawa Barat;PAPUA;;Indonesia;;;;-6.615.563;1.066.420.037;https://maps.google.com/?cid=0x0:0xdaad34f3e2c7ddb9;
restaurant;Hidangan Laut;Resto alam nusantara;7J26+7JQ, Pulau Pramuka, Pulau Panggang, Kepulauan Seribu Utara, Kab. Administrasi Kepulauan Seribu, Daerah Khusus Ibukota Jakarta 14530;Pulau Pramuka, Pulau Panggang, Kepulauan Seribu Utara, Kab. Administrasi Kepulauan Seribu;PAPUA;14530;Indonesia;;;;-5.749.287;1.066.116.138;https://maps.google.com/?cid=0x0:0x321f2ffd2d0840b5;
cafe;Kedai Kopi;QDA CAFE;Jl. Cendrawasih, Kwamki, Kec. Mimika Baru, Kabupaten Mimika, Papua 99962;Kwamki, Kec. Mimika Baru, Kabupaten Mimika;PAPUA;99962;Indonesia;8124010047;;;-45.414.817;1.368.789.128;https://maps.google.com/?cid=0x0:0x1cc7ca5b24645111;
cafe;cafe;Kec. Mimika Baru;Kabupaten Mimika, Papua;Kabupaten Mimika, Papua;PAPUA;;Indonesia;;;;-45.671.869;1.368.873.528;https://maps.google.com/?cid=0x0:0xccefb04a6b60d82c;
cafe;Kafe;PUA-PUA CAFE;Jl. Budi Utomo, Nawaripi, Kec. Mimika Baru, Kabupaten Mimika, Papua 99952;Nawaripi, Kec. Mimika Baru, Kabupaten Mimika;PAPUA;99952;Indonesia;82346750560;;;-45.620.805;1.368.806.057;https://maps.google.com/?cid=0x0:0xb7cc07f877baacb2;
cafe;Kafe;Tambelo Cafe and Eatery;Hotel Komoro Tame, Jl. Cendrawasih, SP II, Papua 99910;Jl. Cendrawasih, SP II;PAPUA;99910;Indonesia;82196304077;;;-45.401.975;1.368.801.802;https://maps.google.com/?cid=0x0:0xc1268401d457ebeb;
cafe;Kafe;Waanal Coffee And Resto;Jl. Cendrawasih, Karang Senang, Kec. Kuala Kencana, Kabupaten Mimika, Papua 99910;Karang Senang, Kec. Kuala Kencana, Kabupaten Mimika;PAPUA;99910;Indonesia;81248677897;;;-44.916.566;1.368.474.106;https://maps.google.com/?cid=0x0:0xe6f6936c8a14d771;
cafe;Kafe;BLACK COFFEE ROASTERY;FV3J+XC7, Jl. Perjuangan, Kwamki, Kec. Mimika Baru, Kabupaten Mimika, Papua 99971;Jl. Perjuangan, Kwamki, Kec. Mimika Baru, Kabupaten Mimika;PAPUA;99971;Indonesia;82211113323;;;-4.545.086;136.881.044;https://maps.google.com/?cid=0x0:0xfe681be587732e36;
cafe;Kafe;RUMAH KOPI AMUNGME GOLD;Jl. Malcon, Kwamki, Kec. Mimika Baru, Kabupaten Mimika, Papua 99971;Kwamki, Kec. Mimika Baru, Kabupaten Mimika;PAPUA;99971;Indonesia;;;;-45.440.105;1.368.833.261;https://maps.google.com/?cid=0x0:0xedf616fc858eb39c;
cafe;Kafe;Studio Cafe;Nawaripi, Kec. Mimika Baru, Kabupaten Mimika, Papua 99971;Kec. Mimika Baru, Kabupaten Mimika;PAPUA;99971;Indonesia;82230021018;;;-45.536.027;1.368.824.333;https://maps.google.com/?cid=0x0:0xe4abc3e17257d04f;
cafe;Kafe;Star Cafe  Resto;Nawaripi, Kec. Mimika Baru, Kabupaten Mimika, Papua;Kabupaten Mimika, Papua;PAPUA;;Indonesia;82271574700;;;-45.590.625;1.368.811.875;https://maps.google.com/?cid=0x0:0xfa8e3e94425d99b6;
cafe;Kafe;Mel's Cafe;Jl. Hasanuddin No.65, Nawaripi, Kec. Mimika Baru, Kabupaten Mimika, Papua 99971;Nawaripi, Kec. Mimika Baru, Kabupaten Mimika;PAPUA;99971;Indonesia;81214077777;;;-4.566.244;1.368.766.475;https://maps.google.com/?cid=0x0:0x4fffe59f3a189d59;
cafe;Kafe;Maoke Coffee House;Jl. Delima sp2, Timika Jaya, Mimika Baru, Mimika Regency, Papua 99963;Timika Jaya, Mimika Baru, Mimika Regency;PAPUA;99963;Indonesia;8114914480;;;-45.169.242;1.368.468.622;https://maps.google.com/?cid=0x0:0x7261e73da0cb2350;
cafe;Bar;Amole Cafe;CVFJ+9H5, Koperapoka, Kec. Mimika Baru, Kabupaten Mimika, Papua 99971;Koperapoka, Kec. Mimika Baru, Kabupaten Mimika;PAPUA;99971;Indonesia;82238606904;;;-45.766.124;1.368.814.774;https://maps.google.com/?cid=0x0:0xeee01db2cefa3b39;
cafe;Kedai Kopi;Junsei Cafe;Poros Mapurjaya Samping Toko Plastik Sarana Berkat - Depan Timika Mall, Jl. Yos Sudarso, Inauga, Kec. Mimika Baru, Kabupaten Mimika, Papua 99971;Jl. Yos Sudarso, Inauga, Kec. Mimika Baru, Kabupaten Mimika;PAPUA;99971;Indonesia;;;;-4.568.174;1.368.870.754;https://maps.google.com/?cid=0x0:0xe4b3254b59781b95;
cafe;Kedai Kopi;OKMI Coffee;Jl. Hasanuddin, Kamoro Jaya, Kec. Mimika Baru, Kabupaten Mimika, Papua 99910;Kamoro Jaya, Kec. Mimika Baru, Kabupaten Mimika;PAPUA;99910;Indonesia;;;;-45.656.265;1.368.748.785;https://maps.google.com/?cid=0x0:0xc0ee5e30be079f77;
cafe;Kafe;Rilex Cafe Roaster;CVWM+H6P, Jl. Budi Utomo, Kwamki, Kec. Mimika Baru, Kabupaten Mimika, Papua 99971;Jl. Budi Utomo, Kwamki, Kec. Mimika Baru, Kabupaten Mimika;PAPUA;99971;Indonesia;8114917775;;;-45.535.441;1.368.830.881;https://maps.google.com/?cid=0x0:0x60b33a852b0ec98a;
cafe;Kedai Kopi;Mozas coffee  eatery;FV5J+7CR, Jl. Cendrawasih, Kwamki, Kec. Mimika Baru, Kabupaten Mimika, Papua 99971;Jl. Cendrawasih, Kwamki, Kec. Mimika Baru, Kabupaten Mimika;PAPUA;99971;Indonesia;82346211581;;;-4.541.764;1.368.810.199;https://maps.google.com/?cid=0x0:0x472df8cc9760865b;
cafe;Restoran;Star Light Cafe Timika;CVVJ+HXW, Jl. Budi Utomo, Nawaripi, Kec. Mimika Baru, Kabupaten Mimika, Papua 99971;Jl. Budi Utomo, Nawaripi, Kec. Mimika Baru, Kabupaten Mimika;PAPUA;99971;Indonesia;;;;-4.556.119;1.368.825.085;https://maps.google.com/?cid=0x0:0x1dfd3af90eec6fc;
cafe;Kedai Kopi;TITIK KUMPUL;CVR3+65W, Kamoro Jaya, Kec. Mimika Baru, Kabupaten Mimika, Papua;Kabupaten Mimika, Papua;PAPUA;;Indonesia;;;;-45.582.017;136.853.218;https://maps.google.com/?cid=0x0:0x95fb5c1a05fac438;
cafe;Kafe;JCO COFFEE  DONUTS TIMIKA MALL;CVJP+XQ2, Nawaripi, Kec. Mimika Baru, Kabupaten Mimika, Papua 99971;Nawaripi, Kec. Mimika Baru, Kabupaten Mimika;PAPUA;99971;Indonesia;8158898000;;;-45.676.038;1.368.869.059;https://maps.google.com/?cid=0x0:0x45c3202312087e39;
cafe;Kafe;Chill N Chat (IQOS Partner Timika);CVQJ+FWR, Nawaripi, Kec. Mimika Baru, Kabupaten Mimika, Papua 99971;Nawaripi, Kec. Mimika Baru, Kabupaten Mimika;PAPUA;99971;Indonesia;82195000899;;;-45.614.472;1.368.821.841;https://maps.google.com/?cid=0x0:0x61ba06f75bfd49e5;
cafe;Kafetaria;DabelE cafe dan KedaiKopi;Bandara Mozes Kilangin, Papua 99910;Kabupaten Mimika, Papua;PAPUA;;Indonesia;811168325;;;-45.301.497;1.368.811.253;https://maps.google.com/?cid=0x0:0xe9ce05367bc4b501;
cafe;Kedai Kopi;08.30am Coffee.;RUKO 6, Jl. Cendrawasih, Kwamki, Kec. Mimika Baru, Kabupaten Mimika, Papua 99910;Jl. Cendrawasih, Kwamki, Kec. Mimika Baru, Kabupaten Mimika;PAPUA;99910;Indonesia;81222004774;;;-45.411.159;1.368.767.605;https://maps.google.com/?cid=0x0:0x80577e5344438416;
cafe;Kedai Kopi;MaPaCo;depan SD SMIRNA Timika Indah, Jl. Perjuangan, Kwamki, Kec. Mimika Baru, Kabupaten Mimika, Papua 99910;Jl. Perjuangan, Kwamki, Kec. Mimika Baru, Kabupaten Mimika;PAPUA;99910;Indonesia;;;;-45.452.123;136.882.207;https://maps.google.com/?cid=0x0:0xdc83bd5d4d0369b4;
cafe;Kedai Kopi;MAXX Coffee Kuala Kencana;JV38+MF6, Kuala Kencana, Kec. Kuala Kencana, Kabupaten Mimika, Papua 99910;Kuala Kencana, Kec. Kuala Kencana, Kabupaten Mimika;PAPUA;99910;Indonesia;85338183638;;;-43.958.751;1.368.661.196;https://maps.google.com/?cid=0x0:0x42512f5566554ead;
cafe;cafe;Papua 99964;Kabupaten Mimika, Papua;Kabupaten Mimika, Papua;PAPUA;;Indonesia;;;;-45.348.379;1.373.706.554;https://maps.google.com/?cid=0x0:0x8a2567edb0b5d8c5;
cafe;Kafe;Amungme Cafe;FRMX+PWP, Jl. Cendrawasih, Timika Jaya, Kec. Mimika Baru, Kabupaten Mimika, Papua 99963;Jl. Cendrawasih, Timika Jaya, Kec. Mimika Baru, Kabupaten Mimika;PAPUA;99963;Indonesia;;;;-45.156.605;1.368.498.142;https://maps.google.com/?cid=0x0:0xa720a4ec29173c7d;
cafe;Kafe;Queen Cafe;Jl samratulangi no 06 sempan timika, Nawaripi, Kec. Mimika Baru, Timika,PAPUA, Papua 99910;Nawaripi, Kec. Mimika Baru, Timika,PAPUA;PAPUA;99910;Indonesia;81247762604;;;-45.612.036;1.368.817.497;https://maps.google.com/?cid=0x0:0x861d412c6f5337ca;
cafe;Kafe;Waanal Coffee And Resto;Jl. Cendrawasih, Karang Senang, Kec. Kuala Kencana, Kabupaten Mimika, Papua 99910;Karang Senang, Kec. Kuala Kencana, Kabupaten Mimika;PAPUA;99910;Indonesia;81248677897;;;-44.916.566;1.368.474.106;https://maps.google.com/?cid=0x0:0xe6f6936c8a14d771;
cafe;Kedai Kopi;Mozas coffee  eatery;FV5J+7CR, Jl. Cendrawasih, Kwamki, Kec. Mimika Baru, Kabupaten Mimika, Papua 99971;Jl. Cendrawasih, Kwamki, Kec. Mimika Baru, Kabupaten Mimika;PAPUA;99971;Indonesia;82346211581;;;-4.541.764;1.368.810.199;https://maps.google.com/?cid=0x0:0x472df8cc9760865b;
cafe;Kedai Kopi;QDA CAFE;Jl. Cendrawasih, Kwamki, Kec. Mimika Baru, Kabupaten Mimika, Papua 99962;Kwamki, Kec. Mimika Baru, Kabupaten Mimika;PAPUA;99962;Indonesia;8124010047;;;-45.414.817;1.368.789.128;https://maps.google.com/?cid=0x0:0x1cc7ca5b24645111;
cafe;Kedai Kopi;Maxx Cofee Bandara Mozes Kilangin;Kwamki, Kec. Mimika Baru, Kabupaten Mimika, Papua 99971;Kec. Mimika Baru, Kabupaten Mimika;PAPUA;99971;Indonesia;;;;-45.275.391;1.368.900.638;https://maps.google.com/?cid=0x0:0xc89c21d6e1345cc8;
cafe;Kafe;PUA-PUA CAFE;Jl. Budi Utomo, Nawaripi, Kec. Mimika Baru, Kabupaten Mimika, Papua 99952;Nawaripi, Kec. Mimika Baru, Kabupaten Mimika;PAPUA;99952;Indonesia;82346750560;;;-45.620.805;1.368.806.057;https://maps.google.com/?cid=0x0:0xb7cc07f877baacb2;
cafe;Kedai Kopi;Junsei Cafe;Poros Mapurjaya Samping Toko Plastik Sarana Berkat - Depan Timika Mall, Jl. Yos Sudarso, Inauga, Kec. Mimika Baru, Kabupaten Mimika, Papua 99971;Jl. Yos Sudarso, Inauga, Kec. Mimika Baru, Kabupaten Mimika;PAPUA;99971;Indonesia;;;;-4.568.174;1.368.870.754;https://maps.google.com/?cid=0x0:0xe4b3254b59781b95;
cafe;Restoran;Papua Cafe;JV38+MF6, Kuala Kencana, Kec. Kuala Kencana, Kabupaten Mimika, Papua 99910;Kuala Kencana, Kec. Kuala Kencana, Kabupaten Mimika;PAPUA;99910;Indonesia;811490804;;;-4.395.844;1.368.661.365;https://maps.google.com/?cid=0x0:0x314a0b94209cdb62;
cafe;Bar;Amole Cafe;CVFJ+9H5, Koperapoka, Kec. Mimika Baru, Kabupaten Mimika, Papua 99971;Koperapoka, Kec. Mimika Baru, Kabupaten Mimika;PAPUA;99971;Indonesia;82238606904;;;-45.766.124;1.368.814.774;https://maps.google.com/?cid=0x0:0xeee01db2cefa3b39;
cafe;Kafe;Cafe Wina Rosa;FV6W+M5V, Jl. Kebun Sirih, Kwamki, Kec. Mimika Baru, Kabupaten Mimika, Papua 99971;Jl. Kebun Sirih, Kwamki, Kec. Mimika Baru, Kabupaten Mimika;PAPUA;99971;Indonesia;;;;-45.382.598;1.368.954.249;https://maps.google.com/?cid=0x0:0xee605358229faff3;
cafe;Restoran;So Yummy Bakery  Cafe;Gedung Diana, Jl. Budi Utomo No.8 Lantai Dasar, Kwamki, Kec. Mimika Baru, Kabupaten Mimika, Papua 99971;Jl. Budi Utomo No.8 Lantai Dasar, Kwamki, Kec. Mimika Baru, Kabupaten Mimika;PAPUA;99971;Indonesia;9013264829;;;-45.428.654;1.368.837.126;https://maps.google.com/?cid=0x0:0x54ecba4b79b13ba2;
cafe;Kedai Kopi;CAFE BOX SINGGAH VINNY;CVHM+3JC, Inauga, Kec. Mimika Baru, Kabupaten Mimika, Papua 99971;Inauga, Kec. Mimika Baru, Kabupaten Mimika;PAPUA;99971;Indonesia;;;;-4.572.629;1.368.837.516;https://maps.google.com/?cid=0x0:0x191e84ff839161d7;
cafe;Kafe;Studio Cafe;Nawaripi, Kec. Mimika Baru, Kabupaten Mimika, Papua 99971;Kec. Mimika Baru, Kabupaten Mimika;PAPUA;99971;Indonesia;82230021018;;;-45.536.027;1.368.824.333;https://maps.google.com/?cid=0x0:0xe4abc3e17257d04f;
cafe;Kafe;Kedai Qu;Jalan Mente, Jalan Jalur 3 No.Sempan, Inauga, Kec. Mimika Baru, Kabupaten Mimika, Papua 99971;Jalan Jalur 3 No.Sempan, Inauga, Kec. Mimika Baru, Kabupaten Mimika;PAPUA;99971;Indonesia;82190324830;;;-45.654.169;1.368.901.471;https://maps.google.com/?cid=0x0:0x8a574e8bc2f628;
cafe;Kedai Kopi;Secangkir Cerita Cafe;Sebrang Tk.Aneka Plastik, Jl. Kebun Sirih, Kwamki, Mimika Baru, Mimika Regency, Papua 99971;Jl. Kebun Sirih, Kwamki, Mimika Baru, Mimika Regency;PAPUA;99971;Indonesia;81343044559;;;-45.410.927;1.368.945.143;https://maps.google.com/?cid=0x0:0x381b3e880adaf06a;
cafe;Kedai Kopi;Nereg Coffee Home;Irigasi Jl. Hasanuddin, Kamoro Jaya, Kec. Mimika Baru, Kabupaten Mimika, Papua 99971;Kamoro Jaya, Kec. Mimika Baru, Kabupaten Mimika;PAPUA;99971;Indonesia;82199050379;;;-45.661.365;1.368.572.333;https://maps.google.com/?cid=0x0:0x21e787e56738c190;
cafe;Kedai Kopi;Lilo Cafe;Bandar Udara Mozes Kilangin, Kwamki, Mimika Baru, Mimika Regency, Papua 99971;Kwamki, Mimika Baru, Mimika Regency;PAPUA;99971;Indonesia;82197923728;;;-452.984;1.368.807.166;https://maps.google.com/?cid=0x0:0x91d814d2ca746419;
cafe;Kafe;Cafe Kamoro;FVC6+P6P, Jl. Cendrawasih, Kwamki, Kec. Mimika Baru, Kabupaten Mimika, Papua 99971;Jl. Cendrawasih, Kwamki, Kec. Mimika Baru, Kabupaten Mimika;PAPUA;99971;Indonesia;82111859669;;;-45.281.523;1.368.605.813;https://maps.google.com/?cid=0x0:0x5d9cc4506d530612;
cafe;Kafe;Amole Caffe;FVM2+CG3, Timika Jaya, Kec. Mimika Baru, Kabupaten Mimika, Papua 99963;Timika Jaya, Kec. Mimika Baru, Kabupaten Mimika;PAPUA;99963;Indonesia;;;;-45.164.849;1.368.513.012;https://maps.google.com/?cid=0x0:0xd17d083233c086a9;
cafe;Kafe;Coffee Amungme;FVHM+9F3, Kwamki, Kec. Mimika Baru, Kabupaten Mimika, Papua 99971;Kwamki, Kec. Mimika Baru, Kabupaten Mimika;PAPUA;99971;Indonesia;;;;-45.216.212;1.368.836.614;https://maps.google.com/?cid=0x0:0x2520773d468c3234;
cafe;cafe;Papua 99963;Kabupaten Mimika, Papua;Kabupaten Mimika, Papua;PAPUA;;Indonesia;;;;-46.420.578;1.367.091.767;https://maps.google.com/?cid=0x0:0x489f32e37e0cec35;
cafe;Kafe;Amungme Cafe;FRMX+PWP, Jl. Cendrawasih, Timika Jaya, Kec. Mimika Baru, Kabupaten Mimika, Papua 99963;Jl. Cendrawasih, Timika Jaya, Kec. Mimika Baru, Kabupaten Mimika;PAPUA;99963;Indonesia;;;;-45.156.605;1.368.498.142;https://maps.google.com/?cid=0x0:0xa720a4ec29173c7d;
cafe;Kafe;PUA-PUA CAFE;Jl. Budi Utomo, Nawaripi, Kec. Mimika Baru, Kabupaten Mimika, Papua 99952;Nawaripi, Kec. Mimika Baru, Kabupaten Mimika;PAPUA;99952;Indonesia;82346750560;;;-45.620.805;1.368.806.057;https://maps.google.com/?cid=0x0:0xb7cc07f877baacb2;
cafe;Kafe;Queen Cafe;Jl samratulangi no 06 sempan timika, Nawaripi, Kec. Mimika Baru, Timika,PAPUA, Papua 99910;Nawaripi, Kec. Mimika Baru, Timika,PAPUA;PAPUA;99910;Indonesia;81247762604;;;-45.612.036;1.368.817.497;https://maps.google.com/?cid=0x0:0x861d412c6f5337ca;
cafe;Kafe;RUMAH KOPI AMUNGME GOLD;Jl. Malcon, Kwamki, Kec. Mimika Baru, Kabupaten Mimika, Papua 99971;Kwamki, Kec. Mimika Baru, Kabupaten Mimika;PAPUA;99971;Indonesia;;;;-45.440.105;1.368.833.261;https://maps.google.com/?cid=0x0:0xedf616fc858eb39c;
cafe;Kafe;Mel's Cafe;Jl. Hasanuddin No.65, Nawaripi, Kec. Mimika Baru, Kabupaten Mimika, Papua 99971;Nawaripi, Kec. Mimika Baru, Kabupaten Mimika;PAPUA;99971;Indonesia;81214077777;;;-4.566.244;1.368.766.475;https://maps.google.com/?cid=0x0:0x4fffe59f3a189d59;
cafe;cafe;Senja singgah sulage cafe  resto;Jalan Cendrawasih Sp2, Wonosari Jaya, Kec. Mimika Baru, Kabupaten Mimika, Papua;Kabupaten Mimika, Papua;PAPUA;;Indonesia;;;;-45.152.521;1.368.494.032;https://maps.google.com/?cid=0x0:0xdebcb50c34e9db7;
cafe;Kafe;Studio Cafe;Nawaripi, Kec. Mimika Baru, Kabupaten Mimika, Papua 99971;Kec. Mimika Baru, Kabupaten Mimika;PAPUA;99971;Indonesia;82230021018;;;-45.536.027;1.368.824.333;https://maps.google.com/?cid=0x0:0xe4abc3e17257d04f;
cafe;Kafe;Emanuel Caf;Jl. Poros Timika-Pomako, Papua 99111;Kabupaten Mimika, Papua;PAPUA;;Indonesia;81344578783;;;-46.731.717;1.368.164.697;https://maps.google.com/?cid=0x0:0xa063d3a88328bf6;
cafe;Kafe;Maoke Coffee House;Jl. Delima sp2, Timika Jaya, Mimika Baru, Mimika Regency, Papua 99963;Timika Jaya, Mimika Baru, Mimika Regency;PAPUA;99963;Indonesia;8114914480;;;-45.169.242;1.368.468.622;https://maps.google.com/?cid=0x0:0x7261e73da0cb2350;
cafe;Kafe;Waanal Coffee And Resto;Jl. Cendrawasih, Karang Senang, Kec. Kuala Kencana, Kabupaten Mimika, Papua 99910;Karang Senang, Kec. Kuala Kencana, Kabupaten Mimika;PAPUA;99910;Indonesia;81248677897;;;-44.916.566;1.368.474.106;https://maps.google.com/?cid=0x0:0xe6f6936c8a14d771;
cafe;Kedai Kopi;Cafe TrioMAX;Jl. Hasanuddin, Nawaripi, Kec. Mimika Baru, Kabupaten Mimika, Papua 99952;Nawaripi, Kec. Mimika Baru, Kabupaten Mimika;PAPUA;99952;Indonesia;8114933300;;;-45.655.949;1.368.763.694;https://maps.google.com/?cid=0x0:0x7f5631e2d75bf031;
cafe;Kedai Kopi;Secangkir Cerita Cafe;Sebrang Tk.Aneka Plastik, Jl. Kebun Sirih, Kwamki, Mimika Baru, Mimika Regency, Papua 99971;Jl. Kebun Sirih, Kwamki, Mimika Baru, Mimika Regency;PAPUA;99971;Indonesia;81343044559;;;-45.410.927;1.368.945.143;https://maps.google.com/?cid=0x0:0x381b3e880adaf06a;
cafe;Bar;Amole Cafe;CVFJ+9H5, Koperapoka, Kec. Mimika Baru, Kabupaten Mimika, Papua 99971;Koperapoka, Kec. Mimika Baru, Kabupaten Mimika;PAPUA;99971;Indonesia;82238606904;;;-45.766.124;1.368.814.774;https://maps.google.com/?cid=0x0:0xeee01db2cefa3b39;
cafe;Kedai Kopi;Sudut Ruang Coffee;CVP9+36F, Jl. Hasanuddin, Kamoro Jaya, Kec. Mimika Baru, Kabupaten Mimika, Papua;Kabupaten Mimika, Papua;PAPUA;;Indonesia;;;;-45.648.108;1.368.680.593;https://maps.google.com/?cid=0x0:0xaed8dc3402f142b4;
cafe;Kafe;BLACK COFFEE ROASTERY;FV3J+XC7, Jl. Perjuangan, Kwamki, Kec. Mimika Baru, Kabupaten Mimika, Papua 99971;Jl. Perjuangan, Kwamki, Kec. Mimika Baru, Kabupaten Mimika;PAPUA;99971;Indonesia;82211113323;;;-4.545.086;136.881.044;https://maps.google.com/?cid=0x0:0xfe681be587732e36;
cafe;Kafe;Chill N Chat (IQOS Partner Timika);CVQJ+FWR, Nawaripi, Kec. Mimika Baru, Kabupaten Mimika, Papua 99971;Nawaripi, Kec. Mimika Baru, Kabupaten Mimika;PAPUA;99971;Indonesia;82195000899;;;-45.614.472;1.368.821.841;https://maps.google.com/?cid=0x0:0x61ba06f75bfd49e5;
cafe;Kafe;Amole Caffe;FVM2+CG3, Timika Jaya, Kec. Mimika Baru, Kabupaten Mimika, Papua 99963;Timika Jaya, Kec. Mimika Baru, Kabupaten Mimika;PAPUA;99963;Indonesia;;;;-45.164.849;1.368.513.012;https://maps.google.com/?cid=0x0:0xd17d083233c086a9;
cafe;Kafe;Honnais cafe  bar;CVCH+CQ9, Jl. Poros Makpur Jaya, Wonosari Jaya, Kec. Mimika Baru, Kabupaten Mimika, Papua 99971;Jl. Poros Makpur Jaya, Wonosari Jaya, Kec. Mimika Baru, Kabupaten Mimika;PAPUA;99971;Indonesia;;;;-4.578.866;1.368.793.773;https://maps.google.com/?cid=0x0:0xc1e105010bfa86f7;
cafe;Restoran;So Yummy Bakery  Cafe;Gedung Diana, Jl. Budi Utomo No.8 Lantai Dasar, Kwamki, Kec. Mimika Baru, Kabupaten Mimika, Papua 99971;Jl. Budi Utomo No.8 Lantai Dasar, Kwamki, Kec. Mimika Baru, Kabupaten Mimika;PAPUA;99971;Indonesia;9013264829;;;-45.428.654;1.368.837.126;https://maps.google.com/?cid=0x0:0x54ecba4b79b13ba2;
cafe;cafe;Kec. Mimika Tim.;Kabupaten Mimika, Papua;Kabupaten Mimika, Papua;PAPUA;;Indonesia;;;;-46.725.723;1.368.266.129;https://maps.google.com/?cid=0x0:0xb9399f14e6d0d7e6;
cafe;Kantor Pemerintah;Kadun Jaya;8VX5+QXF, Mwapi, Kec. Mimika Tim., Kabupaten Mimika, Papua 99971;Mwapi, Kec. Mimika Tim., Kabupaten Mimika;PAPUA;99971;Indonesia;82399225585;;;-4.650.563;136.859.933;https://maps.google.com/?cid=0x0:0xe698bac7890f522b;
cafe;Kedai Kopi;Junsei Cafe;Poros Mapurjaya Samping Toko Plastik Sarana Berkat - Depan Timika Mall, Jl. Yos Sudarso, Inauga, Kec. Mimika Baru, Kabupaten Mimika, Papua 99971;Jl. Yos Sudarso, Inauga, Kec. Mimika Baru, Kabupaten Mimika;PAPUA;99971;Indonesia;;;;-4.568.174;1.368.870.754;https://maps.google.com/?cid=0x0:0xe4b3254b59781b95;
cafe;Restoran;Puteri's Kitchen;CVJG+CJC, Unnamed Road, Nawaripi, Kec. Mimika Baru, Kabupaten Mimika, Papua 99971;Unnamed Road, Nawaripi, Kec. Mimika Baru, Kabupaten Mimika;PAPUA;99971;Indonesia;;;;-45.689.433;1.368.765.116;https://maps.google.com/?cid=0x0:0x8923559ccb9b52a1;
cafe;Kafe;Acemo Coffee Shop;CVQM+C4G, Jl. Dr. Samratulangi, Nawaripi, Kec. Mimika Baru, Kabupaten Mimika, Papua 99971;Jl. Dr. Samratulangi, Nawaripi, Kec. Mimika Baru, Kabupaten Mimika;PAPUA;99971;Indonesia;81320993306;;;-45.614.436;1.368.828.208;https://maps.google.com/?cid=0x0:0x4b85e8b73c870278;
cafe;Kafe;WARKOP CEQ;CVMM+62J, Jl. Hasanuddin, Nawaripi, Kec. Mimika Baru, Kabupaten Mimika, Papua 99971;Jl. Hasanuddin, Nawaripi, Kec. Mimika Baru, Kabupaten Mimika;PAPUA;99971;Indonesia;81336095359;;;-45.669.073;1.368.825.282;https://maps.google.com/?cid=0x0:0x415db1dfda40055f;
cafe;Dapur Umum;Dimsum Cafe;Jl. Hasanuddin No.9, Nawaripi, Kec. Mimika Baru, Kabupaten Mimika, Papua 99971;Nawaripi, Kec. Mimika Baru, Kabupaten Mimika;PAPUA;99971;Indonesia;;;;-45.664.392;136.882.112;https://maps.google.com/?cid=0x0:0xfec3a99e071a470e;
cafe;Kedai Kopi;Nereg Coffee Home;Irigasi Jl. Hasanuddin, Kamoro Jaya, Kec. Mimika Baru, Kabupaten Mimika, Papua 99971;Kamoro Jaya, Kec. Mimika Baru, Kabupaten Mimika;PAPUA;99971;Indonesia;82199050379;;;-45.661.365;1.368.572.333;https://maps.google.com/?cid=0x0:0x21e787e56738c190;
cafe;Kedai Kopi;The Topas Cafe  Resto;CVMV+4QG, Jl. Mente Sempan, Nawaripi, Kec. Mimika Baru, Kabupaten Mimika, Papua 99971;Jl. Mente Sempan, Nawaripi, Kec. Mimika Baru, Kabupaten Mimika;PAPUA;99971;Indonesia;85273158976;;;-45.682.963;1.368.947.131;https://maps.google.com/?cid=0x0:0x95facf1998915083;
cafe;cafe;Mimika Bar.;Kabupaten Mimika, Papua;Kabupaten Mimika, Papua;PAPUA;;Indonesia;;;;-44.553.134;1.362.857.516;https://maps.google.com/?cid=0x0:0x6a9ad70ccbe49095;
cafe;Bar;Amole Cafe;CVFJ+9H5, Koperapoka, Kec. Mimika Baru, Kabupaten Mimika, Papua 99971;Koperapoka, Kec. Mimika Baru, Kabupaten Mimika;PAPUA;99971;Indonesia;82238606904;;;-45.766.124;1.368.814.774;https://maps.google.com/?cid=0x0:0xeee01db2cefa3b39;
cafe;Kafe;BARLEY Lounge bakry and coffee;FV2Q+9VQ, Jl. Yos Sudarso, Koperapoka, Kec. Mimika Baru, Kabupaten Mimika, Papua 99971;Jl. Yos Sudarso, Koperapoka, Kec. Mimika Baru, Kabupaten Mimika;PAPUA;99971;Indonesia;;;;-45.490.358;1.368.897.188;https://maps.google.com/?cid=0x0:0xdd654fa361b008e4;
cafe;Kedai Kopi;Nereg Coffee Home;Irigasi Jl. Hasanuddin, Kamoro Jaya, Kec. Mimika Baru, Kabupaten Mimika, Papua 99971;Kamoro Jaya, Kec. Mimika Baru, Kabupaten Mimika;PAPUA;99971;Indonesia;82199050379;;;-45.661.365;1.368.572.333;https://maps.google.com/?cid=0x0:0x21e787e56738c190;
cafe;Kafe;PUA-PUA CAFE;Jl. Budi Utomo, Nawaripi, Kec. Mimika Baru, Kabupaten Mimika, Papua 99952;Nawaripi, Kec. Mimika Baru, Kabupaten Mimika;PAPUA;99952;Indonesia;82346750560;;;-45.620.805;1.368.806.057;https://maps.google.com/?cid=0x0:0xb7cc07f877baacb2;
cafe;Kafe;Waanal Coffee And Resto;Jl. Cendrawasih, Karang Senang, Kec. Kuala Kencana, Kabupaten Mimika, Papua 99910;Karang Senang, Kec. Kuala Kencana, Kabupaten Mimika;PAPUA;99910;Indonesia;81248677897;;;-44.916.566;1.368.474.106;https://maps.google.com/?cid=0x0:0xe6f6936c8a14d771;
cafe;Kafe;Maoke Coffee House;Jl. Delima sp2, Timika Jaya, Mimika Baru, Mimika Regency, Papua 99963;Timika Jaya, Mimika Baru, Mimika Regency;PAPUA;99963;Indonesia;8114914480;;;-45.169.242;1.368.468.622;https://maps.google.com/?cid=0x0:0x7261e73da0cb2350;
cafe;Kafe;RUMAH KOPI AMUNGME GOLD;Jl. Malcon, Kwamki, Kec. Mimika Baru, Kabupaten Mimika, Papua 99971;Kwamki, Kec. Mimika Baru, Kabupaten Mimika;PAPUA;99971;Indonesia;;;;-45.440.105;1.368.833.261;https://maps.google.com/?cid=0x0:0xedf616fc858eb39c;
cafe;Kafe;Cafe Kamoro;FVC6+P6P, Jl. Cendrawasih, Kwamki, Kec. Mimika Baru, Kabupaten Mimika, Papua 99971;Jl. Cendrawasih, Kwamki, Kec. Mimika Baru, Kabupaten Mimika;PAPUA;99971;Indonesia;82111859669;;;-45.281.523;1.368.605.813;https://maps.google.com/?cid=0x0:0x5d9cc4506d530612;
cafe;Kedai Kopi;Mozas coffee  eatery;FV5J+7CR, Jl. Cendrawasih, Kwamki, Kec. Mimika Baru, Kabupaten Mimika, Papua 99971;Jl. Cendrawasih, Kwamki, Kec. Mimika Baru, Kabupaten Mimika;PAPUA;99971;Indonesia;82346211581;;;-4.541.764;1.368.810.199;https://maps.google.com/?cid=0x0:0x472df8cc9760865b;
cafe;;Kopi mulo;CVVJ+QXV, Jl. Budi Utomo, Nawaripi, Kec. Mimika Baru, Kabupaten Mimika, Papua 99971;Jl. Budi Utomo, Nawaripi, Kec. Mimika Baru, Kabupaten Mimika;PAPUA;99971;Indonesia;;;;-45.555.186;1.368.824.279;https://maps.google.com/?cid=0x0:0xffa1baaff4d82852;
cafe;Restoran;Losari Caffe;CVWP+H8M, Nawaripi, Kec. Mimika Baru, Kabupaten Mimika, Papua 99971;Nawaripi, Kec. Mimika Baru, Kabupaten Mimika;PAPUA;99971;Indonesia;;;;-45.535.493;1.368.857.885;https://maps.google.com/?cid=0x0:0xb6aefd2c2281c622;
cafe;Kedai Kopi;New Kopi Amuro;FV2M+J47, Koperapoka, Kec. Mimika Baru, Kabupaten Mimika, Papua 99971;Koperapoka, Kec. Mimika Baru, Kabupaten Mimika;PAPUA;99971;Indonesia;;;;-45.484.698;1.368.828.218;https://maps.google.com/?cid=0x0:0x7b2c2ebfe3033730;
cafe;Kedai Kopi;MAXX Coffee Kuala Kencana;JV38+MF6, Kuala Kencana, Kec. Kuala Kencana, Kabupaten Mimika, Papua 99910;Kuala Kencana, Kec. Kuala Kencana, Kabupaten Mimika;PAPUA;99910;Indonesia;85338183638;;;-43.958.751;1.368.661.196;https://maps.google.com/?cid=0x0:0x42512f5566554ead;
cafe;Brunch;Warung mamrat official;CV48+99V, Kamoro Jaya, Kec. Mimika Baru, Kabupaten Mimika, Papua 99971;Kamoro Jaya, Kec. Mimika Baru, Kabupaten Mimika;PAPUA;99971;Indonesia;;;;-45.940.224;1.368.659.196;https://maps.google.com/?cid=0x0:0x9a3961f1a592c7cb;
cafe;Kafe;Tempat nongkrong;Pasar Baru, Jl. Irigasi No.98561, Nawaripi, Kec. Mimika Baru, Kabupaten Mimika, Papua 99971;Jl. Irigasi No.98561, Nawaripi, Kec. Mimika Baru, Kabupaten Mimika;PAPUA;99971;Indonesia;;;;-45.645.097;1.368.703.607;https://maps.google.com/?cid=0x0:0x500fc9b1f1fb1ba9;
cafe;Ikan Bakar;Resto Jangkar;Jl. Yos Sudarso, Nawaripi, Kec. Mimika Baru, Kabupaten Mimika, Papua 99971;Nawaripi, Kec. Mimika Baru, Kabupaten Mimika;PAPUA;99971;Indonesia;82238302339;;;-45.681.968;1.368.865.993;https://maps.google.com/?cid=0x0:0x73ed65e33721012a;
cafe;Kedai Kopi;Kedai M3;Jl. Maleo, Kwamki, Kec. Mimika Baru, Kabupaten Mimika, Papua 99971;Kwamki, Kec. Mimika Baru, Kabupaten Mimika;PAPUA;99971;Indonesia;82353301868;;;-45.461.124;1.368.920.089;https://maps.google.com/?cid=0x0:0x636342b4c2861c04;
cafe;Kafe;Studio Cafe;Nawaripi, Kec. Mimika Baru, Kabupaten Mimika, Papua 99971;Kec. Mimika Baru, Kabupaten Mimika;PAPUA;99971;Indonesia;82230021018;;;-45.536.027;1.368.824.333;https://maps.google.com/?cid=0x0:0xe4abc3e17257d04f;
cafe;Kafe;Amungme Cafe;FRMX+PWP, Jl. Cendrawasih, Timika Jaya, Kec. Mimika Baru, Kabupaten Mimika, Papua 99963;Jl. Cendrawasih, Timika Jaya, Kec. Mimika Baru, Kabupaten Mimika;PAPUA;99963;Indonesia;;;;-45.156.605;1.368.498.142;https://maps.google.com/?cid=0x0:0xa720a4ec29173c7d;
cafe;Bar;Cafe Marvel Resto  Bar;FV6X+QMG, Jl. Jend. Ahmad Yani, Kwamki, Kec. Mimika Baru, Kabupaten Mimika, Papua 99971;Jl. Jend. Ahmad Yani, Kwamki, Kec. Mimika Baru, Kabupaten Mimika;PAPUA;99971;Indonesia;;;;-45.385.328;1.368.988.622;https://maps.google.com/?cid=0x0:0x32534124303704a8;
cafe;Kedai Kopi;Para-para cafe;Bendungan, Jl. Sosial Jl. Kebun Sirih, Papua 99971;Jl. Sosial Jl. Kebun Sirih;PAPUA;99971;Indonesia;;;;-45.462.223;1.368.995.139;https://maps.google.com/?cid=0x0:0x526b99c1ac66338d;
cafe;Dapur Umum;Mimin;Jl. Kebun Sirih, Kwamki, Kec. Mimika Baru, Kabupaten Mimika, Papua 99971;Kwamki, Kec. Mimika Baru, Kabupaten Mimika;PAPUA;99971;Indonesia;;;;-45.438.288;1.368.975.735;https://maps.google.com/?cid=0x0:0xfaf6a9910f7cc152;
cafe;cafe;Papua 99965;Kabupaten Mimika, Papua;Kabupaten Mimika, Papua;PAPUA;;Indonesia;;;;-47.985.913;1.375.275.422;https://maps.google.com/?cid=0x0:0x7045b6939b86864;
cafe;Kedai Kopi;Maxx Cofee Bandara Mozes Kilangin;Kwamki, Kec. Mimika Baru, Kabupaten Mimika, Papua 99971;Kec. Mimika Baru, Kabupaten Mimika;PAPUA;99971;Indonesia;;;;-45.275.391;1.368.900.638;https://maps.google.com/?cid=0x0:0xc89c21d6e1345cc8;
cafe;Kafe;Waanal Coffee And Resto;Jl. Cendrawasih, Karang Senang, Kec. Kuala Kencana, Kabupaten Mimika, Papua 99910;Karang Senang, Kec. Kuala Kencana, Kabupaten Mimika;PAPUA;99910;Indonesia;81248677897;;;-44.916.566;1.368.474.106;https://maps.google.com/?cid=0x0:0xe6f6936c8a14d771;
cafe;Kafe;Queen Cafe;Jl samratulangi no 06 sempan timika, Nawaripi, Kec. Mimika Baru, Timika,PAPUA, Papua 99910;Nawaripi, Kec. Mimika Baru, Timika,PAPUA;PAPUA;99910;Indonesia;81247762604;;;-45.612.036;1.368.817.497;https://maps.google.com/?cid=0x0:0x861d412c6f5337ca;
cafe;Kedai Kopi;Junsei Cafe;Poros Mapurjaya Samping Toko Plastik Sarana Berkat - Depan Timika Mall, Jl. Yos Sudarso, Inauga, Kec. Mimika Baru, Kabupaten Mimika, Papua 99971;Jl. Yos Sudarso, Inauga, Kec. Mimika Baru, Kabupaten Mimika;PAPUA;99971;Indonesia;;;;-4.568.174;1.368.870.754;https://maps.google.com/?cid=0x0:0xe4b3254b59781b95;
cafe;Kafe;PUA-PUA CAFE;Jl. Budi Utomo, Nawaripi, Kec. Mimika Baru, Kabupaten Mimika, Papua 99952;Nawaripi, Kec. Mimika Baru, Kabupaten Mimika;PAPUA;99952;Indonesia;82346750560;;;-45.620.805;1.368.806.057;https://maps.google.com/?cid=0x0:0xb7cc07f877baacb2;
cafe;Kedai Kopi;Lilo Cafe;Bandar Udara Mozes Kilangin, Kwamki, Mimika Baru, Mimika Regency, Papua 99971;Kwamki, Mimika Baru, Mimika Regency;PAPUA;99971;Indonesia;82197923728;;;-452.984;1.368.807.166;https://maps.google.com/?cid=0x0:0x91d814d2ca746419;
cafe;Kafe;Studio Cafe;Nawaripi, Kec. Mimika Baru, Kabupaten Mimika, Papua 99971;Kec. Mimika Baru, Kabupaten Mimika;PAPUA;99971;Indonesia;82230021018;;;-45.536.027;1.368.824.333;https://maps.google.com/?cid=0x0:0xe4abc3e17257d04f;
cafe;Kafe;Mel's Cafe;Jl. Hasanuddin No.65, Nawaripi, Kec. Mimika Baru, Kabupaten Mimika, Papua 99971;Nawaripi, Kec. Mimika Baru, Kabupaten Mimika;PAPUA;99971;Indonesia;81214077777;;;-4.566.244;1.368.766.475;https://maps.google.com/?cid=0x0:0x4fffe59f3a189d59;
cafe;Kedai Kopi;Sudut Ruang Coffee;CVP9+36F, Jl. Hasanuddin, Kamoro Jaya, Kec. Mimika Baru, Kabupaten Mimika, Papua;Kabupaten Mimika, Papua;PAPUA;;Indonesia;;;;-45.648.108;1.368.680.593;https://maps.google.com/?cid=0x0:0xaed8dc3402f142b4;
cafe;Tempat Pencucian Mobil;46 CAR WASH  CAFE;Lapangan Sepk Bola, Jl. Belibis No.Samping, Timika indah, Kec. Mimika Baru, Kabupaten Mimika, Papua 99971;Jl. Belibis No.Samping, Timika indah, Kec. Mimika Baru, Kabupaten Mimika;PAPUA;99971;Indonesia;81222299307;;;-4.546.767;1.368.846.268;https://maps.google.com/?cid=0x0:0x495107dc42691e1f;
cafe;Kafe;Cafe Wina Rosa;FV6W+M5V, Jl. Kebun Sirih, Kwamki, Kec. Mimika Baru, Kabupaten Mimika, Papua 99971;Jl. Kebun Sirih, Kwamki, Kec. Mimika Baru, Kabupaten Mimika;PAPUA;99971;Indonesia;;;;-45.382.598;1.368.954.249;https://maps.google.com/?cid=0x0:0xee605358229faff3;
cafe;Kedai Kopi;PETTA COFFEE;FV2Q+8QJ, Jl. Yos Sudarso, Koperapoka, Kec. Mimika Baru, Kabupaten Mimika, Papua 99971;Jl. Yos Sudarso, Koperapoka, Kec. Mimika Baru, Kabupaten Mimika;PAPUA;99971;Indonesia;;;;-4.549.152;1.368.893.979;https://maps.google.com/?cid=0x0:0x772872eefcfb8e17;
cafe;Kedai Kopi;The Coffee Shot;CVQJ+XFM, Nawaripi, Kec. Mimika Baru, Kabupaten Mimika, Papua 99971;Nawaripi, Kec. Mimika Baru, Kabupaten Mimika;PAPUA;99971;Indonesia;;;;-45.600.257;136.881.178;https://maps.google.com/?cid=0x0:0x5fa8ebe6a381bb98;
cafe;Kedai Kopi;Secangkir Cerita Cafe;Sebrang Tk.Aneka Plastik, Jl. Kebun Sirih, Kwamki, Mimika Baru, Mimika Regency, Papua 99971;Jl. Kebun Sirih, Kwamki, Mimika Baru, Mimika Regency;PAPUA;99971;Indonesia;81343044559;;;-45.410.927;1.368.945.143;https://maps.google.com/?cid=0x0:0x381b3e880adaf06a;
cafe;Mesin Sangrai Kopi;Alenia Papua Coffee  Kitchen;Jl. Kemang Raya No.66 B 8, RT.8/RW.2, Bangka, Kec. Mampang Prpt., Kota Jakarta Selatan, Daerah Khusus Ibukota Jakarta 12730;RT.8/RW.2, Bangka, Kec. Mampang Prpt., Kota Jakarta Selatan;PAPUA;12730;Indonesia;2171790141;;;-62.638.119;1.068.158.777;https://maps.google.com/?cid=0x0:0xe49807fcfab68b48;
cafe;Kedai Kopi;Cafe TrioMAX;Jl. Hasanuddin, Nawaripi, Kec. Mimika Baru, Kabupaten Mimika, Papua 99952;Nawaripi, Kec. Mimika Baru, Kabupaten Mimika;PAPUA;99952;Indonesia;8114933300;;;-45.655.949;1.368.763.694;https://maps.google.com/?cid=0x0:0x7f5631e2d75bf031;
cafe;Kedai Kopi;Kedai HSD;CVXV+RR8, Koperapoka, Kec. Mimika Baru, Kabupaten Mimika, Papua 99971;Koperapoka, Kec. Mimika Baru, Kabupaten Mimika;PAPUA;99971;Indonesia;82140935225;;;-45.504.556;1.368.945.656;https://maps.google.com/?cid=0x0:0x826fed376d831a52;
cafe;Restoran;So Yummy Bakery  Cafe;Gedung Diana, Jl. Budi Utomo No.8 Lantai Dasar, Kwamki, Kec. Mimika Baru, Kabupaten Mimika, Papua 99971;Jl. Budi Utomo No.8 Lantai Dasar, Kwamki, Kec. Mimika Baru, Kabupaten Mimika;PAPUA;99971;Indonesia;9013264829;;;-45.428.654;1.368.837.126;https://maps.google.com/?cid=0x0:0x54ecba4b79b13ba2;
cafe;Kafe;LAVAS'CO COFFEE  RESTO;CVQJ+86W, Timika,, Koperapoka, Kec. Mimika Baru, Kabupaten Mimika, Papua 99971;Timika,, Koperapoka, Kec. Mimika Baru, Kabupaten Mimika;PAPUA;99971;Indonesia;8114909486;;;-45.616.468;1.368.805.836;https://maps.google.com/?cid=0x0:0xe3ccc616238019e9;
cafe;Restoran;Papua Cafe;JV38+MF6, Kuala Kencana, Kec. Kuala Kencana, Kabupaten Mimika, Papua 99910;Kuala Kencana, Kec. Kuala Kencana, Kabupaten Mimika;PAPUA;99910;Indonesia;811490804;;;-4.395.844;1.368.661.365;https://maps.google.com/?cid=0x0:0x314a0b94209cdb62;
cafe;Kedai Kopi;Linear 2.0 Coffee and Kitchen;Jl. Patimura Jl. Pendidikan Jalur 1, Nawaripi, Kec. Mimika Baru, Kabupaten Mimika, Papua 99971;Nawaripi, Kec. Mimika Baru, Kabupaten Mimika;PAPUA;99971;Indonesia;;;;-45.588.234;1.368.885.514;https://maps.google.com/?cid=0x0:0xf25ae76a4da65092;
cafe;Kedai Kopi;TSVAYA CAFE  TEAHOUSE;Rukan Grand Puri Niaga, Ruko, Jl. Puri Kencana No.2K Blok K6, Daerah Khusus Ibukota Jakarta 11610;Ruko, Jl. Puri Kencana No.2K Blok K6;PAPUA;11610;Indonesia;81196008222;;;-61.906.406;1.067.494.602;https://maps.google.com/?cid=0x0:0x3b219e7c24e40514;
cafe;Kafe;Nitro;Jl. Ciranjang No.10 2, RT.1/RW.1, Rw. Bar., Kec. Kby. Baru, Kota Jakarta Selatan, Daerah Khusus Ibukota Jakarta 12180;RT.1/RW.1, Rw. Bar., Kec. Kby. Baru, Kota Jakarta Selatan;PAPUA;12180;Indonesia;;;;-62.378.709;1.068.112.899;https://maps.google.com/?cid=0x0:0xa4b320d214c35f3b;
cafe;Kafe;Namamia Coffee  Eatery;49, Jl. Raya Pos Pengumben No.49, RT.7/RW.6, Sukabumi Sel., Kec. Kb. Jeruk, Kota Jakarta Barat, Daerah Khusus Ibukota Jakarta 11560;Jl. Raya Pos Pengumben No.49, RT.7/RW.6, Sukabumi Sel., Kec. Kb. Jeruk, Kota Jakarta Barat;PAPUA;11560;Indonesia;81389996490;;;-62.168.363;106.769.162;https://maps.google.com/?cid=0x0:0x16510b5bcd29ff4;
cafe;Restoran cendol;Agreya Coffee - Menteng;masjid Sunda Kelapa, Jl. Taman Sunda Kelapa, RT.6/RW.4, Menteng, Kec. Menteng, Kota Jakarta Pusat, Daerah Khusus Ibukota Jakarta 10310;Jl. Taman Sunda Kelapa, RT.6/RW.4, Menteng, Kec. Menteng, Kota Jakarta Pusat;PAPUA;10310;Indonesia;81188000603;;;-62.017.147;1.068.326.727;https://maps.google.com/?cid=0x0:0xcc4e3ce800e61d73;
cafe;Kedai Kopi;JITRO Cafe  Kitchen;Jl.Swasembada Barat XI No.107, Kebon Bawang, Tjg Priok, RT.9/RW.13, Jak Utara, Jakarta, Jkt Utara, Daerah Khusus Ibukota Jakarta 14320;Kebon Bawang, Tjg Priok, RT.9/RW.13, Jak Utara, Jakarta, Jkt Utara;PAPUA;14320;Indonesia;81289606718;;;-61.227.228;1.068.855.774;https://maps.google.com/?cid=0x0:0x1e868d0f87765bba;
cafe;Kedai Kopi;Wotish Coffee  Eatery;Komplek Bulog I, Jl. Raya Pos Pengumben No.4, South Sukabumi, Kebonjeruk, West Jakarta City, Jakarta 11560;Jl. Raya Pos Pengumben No.4, South Sukabumi, Kebonjeruk, West Jakarta City;PAPUA;11560;Indonesia;85176910007;;;-62.166.774;1.067.711.903;https://maps.google.com/?cid=0x0:0xeb15445cf73fc8d3;
cafe;Kedai Kopi;JITUL;Gg. Pahala Bawah No.11 5, RT.11/RW.5, Ragunan, Ps. Minggu, Kota Jakarta Selatan, Daerah Khusus Ibukota Jakarta 12550;RT.11/RW.5, Ragunan, Ps. Minggu, Kota Jakarta Selatan;PAPUA;12550;Indonesia;8,95634E+11;;;-63.006.424;106.816.669;https://maps.google.com/?cid=0x0:0x45b67ba0a8b94702;
cafe;cafe;Papua 99966;Papua;Papua;PAPUA;;Indonesia;;;;-42.043.028;1.375.668.376;https://maps.google.com/?cid=0x0:0x1fe5af7715c1e227;
cafe;Gedung Apartemen;Coffee Shop Hidden Valley;R3WX+49M, Arwandop, Kec. Tembagapura, Kabupaten Mimika, Papua 99967;Arwandop, Kec. Tembagapura, Kabupaten Mimika;PAPUA;99967;Indonesia;901466406;;;-4.154.668;1.370.984.148;https://maps.google.com/?cid=0x0:0x19897cfa42d33d8a;
cafe;Kafe;Waanal Coffee And Resto;Jl. Cendrawasih, Karang Senang, Kec. Kuala Kencana, Kabupaten Mimika, Papua 99910;Karang Senang, Kec. Kuala Kencana, Kabupaten Mimika;PAPUA;99910;Indonesia;81248677897;;;-44.916.566;1.368.474.106;https://maps.google.com/?cid=0x0:0xe6f6936c8a14d771;
cafe;Kafe;Saanjh Cafe;CJ2G+C7W, Jl. Gelanggang Remaja, Waena, Kec. Heram, Kota Jayapura, Papua 99351;Jl. Gelanggang Remaja, Waena, Kec. Heram, Kota Jayapura;PAPUA;99351;Indonesia;;;;-25.988.941;1.406.256.974;https://maps.google.com/?cid=0x0:0xf472b389c2309050;
cafe;Mesin Sangrai Kopi;Alenia Papua Coffee  Kitchen;Jl. Kemang Raya No.66 B 8, RT.8/RW.2, Bangka, Kec. Mampang Prpt., Kota Jakarta Selatan, Daerah Khusus Ibukota Jakarta 12730;RT.8/RW.2, Bangka, Kec. Mampang Prpt., Kota Jakarta Selatan;PAPUA;12730;Indonesia;2171790141;;;-62.638.119;1.068.158.777;https://maps.google.com/?cid=0x0:0xe49807fcfab68b48;
cafe;Kafe;PUA-PUA CAFE;Jl. Budi Utomo, Nawaripi, Kec. Mimika Baru, Kabupaten Mimika, Papua 99952;Nawaripi, Kec. Mimika Baru, Kabupaten Mimika;PAPUA;99952;Indonesia;82346750560;;;-45.620.805;1.368.806.057;https://maps.google.com/?cid=0x0:0xb7cc07f877baacb2;
cafe;Kedai Kopi;Junsei Cafe;Poros Mapurjaya Samping Toko Plastik Sarana Berkat - Depan Timika Mall, Jl. Yos Sudarso, Inauga, Kec. Mimika Baru, Kabupaten Mimika, Papua 99971;Jl. Yos Sudarso, Inauga, Kec. Mimika Baru, Kabupaten Mimika;PAPUA;99971;Indonesia;;;;-4.568.174;1.368.870.754;https://maps.google.com/?cid=0x0:0xe4b3254b59781b95;
cafe;Kafe;Amungme Cafe;FRMX+PWP, Jl. Cendrawasih, Timika Jaya, Kec. Mimika Baru, Kabupaten Mimika, Papua 99963;Jl. Cendrawasih, Timika Jaya, Kec. Mimika Baru, Kabupaten Mimika;PAPUA;99963;Indonesia;;;;-45.156.605;1.368.498.142;https://maps.google.com/?cid=0x0:0xa720a4ec29173c7d;
cafe;Kedai Kopi;QDA CAFE;Jl. Cendrawasih, Kwamki, Kec. Mimika Baru, Kabupaten Mimika, Papua 99962;Kwamki, Kec. Mimika Baru, Kabupaten Mimika;PAPUA;99962;Indonesia;8124010047;;;-45.414.817;1.368.789.128;https://maps.google.com/?cid=0x0:0x1cc7ca5b24645111;
cafe;Kafe;Mel's Cafe;Jl. Hasanuddin No.65, Nawaripi, Kec. Mimika Baru, Kabupaten Mimika, Papua 99971;Nawaripi, Kec. Mimika Baru, Kabupaten Mimika;PAPUA;99971;Indonesia;81214077777;;;-4.566.244;1.368.766.475;https://maps.google.com/?cid=0x0:0x4fffe59f3a189d59;
cafe;Kafe;RUMAH KOPI AMUNGME GOLD;Jl. Malcon, Kwamki, Kec. Mimika Baru, Kabupaten Mimika, Papua 99971;Kwamki, Kec. Mimika Baru, Kabupaten Mimika;PAPUA;99971;Indonesia;;;;-45.440.105;1.368.833.261;https://maps.google.com/?cid=0x0:0xedf616fc858eb39c;
cafe;Kedai Kopi;Sudut Ruang Coffee;CVP9+36F, Jl. Hasanuddin, Kamoro Jaya, Kec. Mimika Baru, Kabupaten Mimika, Papua;Kabupaten Mimika, Papua;PAPUA;;Indonesia;;;;-45.648.108;1.368.680.593;https://maps.google.com/?cid=0x0:0xaed8dc3402f142b4;
cafe;Kedai Kopi;HALAMAN SUDUT RUANG COFFEE;CVXM+H6J, Koperapoka, Kec. Mimika Baru, Kabupaten Mimika, Papua 99971;Koperapoka, Kec. Mimika Baru, Kabupaten Mimika;PAPUA;99971;Indonesia;82211050917;;;-45.509.454;1.368.829.524;https://maps.google.com/?cid=0x0:0x196da987e3732b5b;
cafe;Kafe;Studio Cafe;Nawaripi, Kec. Mimika Baru, Kabupaten Mimika, Papua 99971;Kec. Mimika Baru, Kabupaten Mimika;PAPUA;99971;Indonesia;82230021018;;;-45.536.027;1.368.824.333;https://maps.google.com/?cid=0x0:0xe4abc3e17257d04f;
cafe;Kedai Kopi;Kedai HSD;CVXV+RR8, Koperapoka, Kec. Mimika Baru, Kabupaten Mimika, Papua 99971;Koperapoka, Kec. Mimika Baru, Kabupaten Mimika;PAPUA;99971;Indonesia;82140935225;;;-45.504.556;1.368.945.656;https://maps.google.com/?cid=0x0:0x826fed376d831a52;
cafe;Tempat Pencucian Mobil;46 CAR WASH  CAFE;Lapangan Sepk Bola, Jl. Belibis No.Samping, Timika indah, Kec. Mimika Baru, Kabupaten Mimika, Papua 99971;Jl. Belibis No.Samping, Timika indah, Kec. Mimika Baru, Kabupaten Mimika;PAPUA;99971;Indonesia;81222299307;;;-4.546.767;1.368.846.268;https://maps.google.com/?cid=0x0:0x495107dc42691e1f;
cafe;Kafe;LAVAS'CO COFFEE  RESTO;CVQJ+86W, Timika,, Koperapoka, Kec. Mimika Baru, Kabupaten Mimika, Papua 99971;Timika,, Koperapoka, Kec. Mimika Baru, Kabupaten Mimika;PAPUA;99971;Indonesia;8114909486;;;-45.616.468;1.368.805.836;https://maps.google.com/?cid=0x0:0xe3ccc616238019e9;
cafe;Kedai Kopi;Lilo Cafe;Bandar Udara Mozes Kilangin, Kwamki, Mimika Baru, Mimika Regency, Papua 99971;Kwamki, Mimika Baru, Mimika Regency;PAPUA;99971;Indonesia;82197923728;;;-452.984;1.368.807.166;https://maps.google.com/?cid=0x0:0x91d814d2ca746419;
cafe;Kedai Kopi;Cendrawasih 66 Coffee  Gelato;Jl. Cendrawasih, Kwamki, Kec. Mimika Baru, Kabupaten Mimika, Papua 99910;Kwamki, Kec. Mimika Baru, Kabupaten Mimika;PAPUA;99910;Indonesia;82111888366;;;-45.407.413;1.368.768.388;https://maps.google.com/?cid=0x0:0xc16c97df2ed722b8;
cafe;Kafe;Cafe 86;Jl. Trans Papua, Titik Nol, Kec. Mandobo, Kabupaten Boven Digoel, Papua 99674;Titik Nol, Kec. Mandobo, Kabupaten Boven Digoel;PAPUA;99674;Indonesia;82399197389;;;-60.799.025;1.402.757.948;https://maps.google.com/?cid=0x0:0xb73aeacabd5bf86c;
cafe;Rumah Kayu;Jln.Kompleks KK Delpin Ujung Aspal;9VG6+546, Kamoro Jaya, Kec. Mimika Baru, Kabupaten Mimika, Papua;Kabupaten Mimika, Papua;PAPUA;;Indonesia;82199211985;;;-46.244.734;1.368.602.384;https://maps.google.com/?cid=0x0:0x4323ef93a201d11d;
cafe;Kafe;BARLEY Lounge bakry and coffee;FV2Q+9VQ, Jl. Yos Sudarso, Koperapoka, Kec. Mimika Baru, Kabupaten Mimika, Papua 99971;Jl. Yos Sudarso, Koperapoka, Kec. Mimika Baru, Kabupaten Mimika;PAPUA;99971;Indonesia;;;;-45.490.358;1.368.897.188;https://maps.google.com/?cid=0x0:0xdd654fa361b008e4;
cafe;Italia;Cafe Kissa - Grand Indonesia;Shinta Lobby, Grand Indonesia Mall, East Mall, Jl. Tlk. Betung I No.45A Ground Floor, RT.1/RW.5, Menteng, Kec. Menteng, Kota Jakarta Pusat, Daerah Khusus Ibukota Jakarta 10310;Grand Indonesia Mall, East Mall, Jl. Tlk. Betung I No.45A Ground Floor, RT.1/RW.5, Menteng, Kec. Menteng, Kota Jakarta Pusat;PAPUA;10310;Indonesia;8118001556;;;-61.963.714;1.068.225.994;https://maps.google.com/?cid=0x0:0x89e344c04d23a8ad;
cafe;Pastri;Makashiya Cafe and Kitchen;RVQ3+93J, Jl. Casa, RT.13/RW.6, Kb. Kosong, Kec. Kemayoran, Kota Jakarta Pusat, Daerah Khusus Ibukota Jakarta 10630;Jl. Casa, RT.13/RW.6, Kb. Kosong, Kec. Kemayoran, Kota Jakarta Pusat;PAPUA;10630;Indonesia;81400670469;;;-61.615.409;1.068.526.545;https://maps.google.com/?cid=0x0:0xe037a3909b1ea2d1;
cafe;Kedai Kopi;MALEENA COFFEE ROASTERS;Jl. KH. Agus Salim 30 / 07, Menteng, Kecamatan: Menteng, Kelurahan:, RT.2/RW.1, Kb. Sirih, Kec. Menteng, Kota Jakarta Pusat, Daerah Khusus Ibukota Jakarta 12980;Menteng, Kecamatan: Menteng, Kelurahan:, RT.2/RW.1, Kb. Sirih, Kec. Menteng, Kota Jakarta Pusat;PAPUA;12980;Indonesia;81281654622;;;-61.852.116;1.068.249.108;https://maps.google.com/?cid=0x0:0xbbb2f89e6083f99;
cafe;Indonesia;TWNTY FOUR COFFEE;Jl. Kyai Maja No.25, RT.10/RW.7, Kramat Pela, Kec. Kby. Baru, Kota Jakarta Selatan, Daerah Khusus Ibukota Jakarta 12130;RT.10/RW.7, Kramat Pela, Kec. Kby. Baru, Kota Jakarta Selatan;PAPUA;12130;Indonesia;;;;-62.406.156;1.067.937.566;https://maps.google.com/?cid=0x0:0x3e9525f7dd2519e0;
cafe;Kedai Kopi;Happy House;Jl. Tebet Timur Dalam Raya No.40, RT.4/RW.5, Tebet Tim., Kec. Tebet, Kota Jakarta Selatan, Daerah Khusus Ibukota Jakarta 12820;RT.4/RW.5, Tebet Tim., Kec. Tebet, Kota Jakarta Selatan;PAPUA;12820;Indonesia;;;;-62.402.191;1.068.561.359;https://maps.google.com/?cid=0x0:0xaaaf0a7af28e5f62;
cafe;cafe;Papua 99971;Kabupaten Mimika, Papua;Kabupaten Mimika, Papua;PAPUA;;Indonesia;;;;-47.222.914;136.941.659;https://maps.google.com/?cid=0x0:0x309b23773920c02b;
cafe;Kafe;Studio Cafe;Nawaripi, Kec. Mimika Baru, Kabupaten Mimika, Papua 99971;Kec. Mimika Baru, Kabupaten Mimika;PAPUA;99971;Indonesia;82230021018;;;-45.536.027;1.368.824.333;https://maps.google.com/?cid=0x0:0xe4abc3e17257d04f;
cafe;Kedai Kopi;Junsei Cafe;Poros Mapurjaya Samping Toko Plastik Sarana Berkat - Depan Timika Mall, Jl. Yos Sudarso, Inauga, Kec. Mimika Baru, Kabupaten Mimika, Papua 99971;Jl. Yos Sudarso, Inauga, Kec. Mimika Baru, Kabupaten Mimika;PAPUA;99971;Indonesia;;;;-4.568.174;1.368.870.754;https://maps.google.com/?cid=0x0:0xe4b3254b59781b95;
cafe;Kafe;Mel's Cafe;Jl. Hasanuddin No.65, Nawaripi, Kec. Mimika Baru, Kabupaten Mimika, Papua 99971;Nawaripi, Kec. Mimika Baru, Kabupaten Mimika;PAPUA;99971;Indonesia;81214077777;;;-4.566.244;1.368.766.475;https://maps.google.com/?cid=0x0:0x4fffe59f3a189d59;
cafe;Kafe;PUA-PUA CAFE;Jl. Budi Utomo, Nawaripi, Kec. Mimika Baru, Kabupaten Mimika, Papua 99952;Nawaripi, Kec. Mimika Baru, Kabupaten Mimika;PAPUA;99952;Indonesia;82346750560;;;-45.620.805;1.368.806.057;https://maps.google.com/?cid=0x0:0xb7cc07f877baacb2;
cafe;Kedai Kopi;HALAMAN SUDUT RUANG COFFEE;CVXM+H6J, Koperapoka, Kec. Mimika Baru, Kabupaten Mimika, Papua 99971;Koperapoka, Kec. Mimika Baru, Kabupaten Mimika;PAPUA;99971;Indonesia;82211050917;;;-45.509.454;1.368.829.524;https://maps.google.com/?cid=0x0:0x196da987e3732b5b;
cafe;Bar;Amole Cafe;CVFJ+9H5, Koperapoka, Kec. Mimika Baru, Kabupaten Mimika, Papua 99971;Koperapoka, Kec. Mimika Baru, Kabupaten Mimika;PAPUA;99971;Indonesia;82238606904;;;-45.766.124;1.368.814.774;https://maps.google.com/?cid=0x0:0xeee01db2cefa3b39;
cafe;Kedai Kopi;Nereg Coffee Home;Irigasi Jl. Hasanuddin, Kamoro Jaya, Kec. Mimika Baru, Kabupaten Mimika, Papua 99971;Kamoro Jaya, Kec. Mimika Baru, Kabupaten Mimika;PAPUA;99971;Indonesia;82199050379;;;-45.661.365;1.368.572.333;https://maps.google.com/?cid=0x0:0x21e787e56738c190;
cafe;Kafe;Chill N Chat (IQOS Partner Timika);CVQJ+FWR, Nawaripi, Kec. Mimika Baru, Kabupaten Mimika, Papua 99971;Nawaripi, Kec. Mimika Baru, Kabupaten Mimika;PAPUA;99971;Indonesia;82195000899;;;-45.614.472;1.368.821.841;https://maps.google.com/?cid=0x0:0x61ba06f75bfd49e5;
cafe;Kafe;JCO COFFEE  DONUTS TIMIKA MALL;CVJP+XQ2, Nawaripi, Kec. Mimika Baru, Kabupaten Mimika, Papua 99971;Nawaripi, Kec. Mimika Baru, Kabupaten Mimika;PAPUA;99971;Indonesia;8158898000;;;-45.676.038;1.368.869.059;https://maps.google.com/?cid=0x0:0x45c3202312087e39;
cafe;Restoran;So Yummy Bakery  Cafe;Gedung Diana, Jl. Budi Utomo No.8 Lantai Dasar, Kwamki, Kec. Mimika Baru, Kabupaten Mimika, Papua 99971;Jl. Budi Utomo No.8 Lantai Dasar, Kwamki, Kec. Mimika Baru, Kabupaten Mimika;PAPUA;99971;Indonesia;9013264829;;;-45.428.654;1.368.837.126;https://maps.google.com/?cid=0x0:0x54ecba4b79b13ba2;
cafe;Kafe;Rilex Cafe Roaster;CVWM+H6P, Jl. Budi Utomo, Kwamki, Kec. Mimika Baru, Kabupaten Mimika, Papua 99971;Jl. Budi Utomo, Kwamki, Kec. Mimika Baru, Kabupaten Mimika;PAPUA;99971;Indonesia;8114917775;;;-45.535.441;1.368.830.881;https://maps.google.com/?cid=0x0:0x60b33a852b0ec98a;
cafe;Kedai Kopi;The Topas Cafe  Resto;CVMV+4QG, Jl. Mente Sempan, Nawaripi, Kec. Mimika Baru, Kabupaten Mimika, Papua 99971;Jl. Mente Sempan, Nawaripi, Kec. Mimika Baru, Kabupaten Mimika;PAPUA;99971;Indonesia;85273158976;;;-45.682.963;1.368.947.131;https://maps.google.com/?cid=0x0:0x95facf1998915083;
cafe;Kafe;Maoke Coffee House;Jl. Delima sp2, Timika Jaya, Mimika Baru, Mimika Regency, Papua 99963;Timika Jaya, Mimika Baru, Mimika Regency;PAPUA;99963;Indonesia;8114914480;;;-45.169.242;1.368.468.622;https://maps.google.com/?cid=0x0:0x7261e73da0cb2350;
cafe;Kafe;BLACK COFFEE ROASTERY;FV3J+XC7, Jl. Perjuangan, Kwamki, Kec. Mimika Baru, Kabupaten Mimika, Papua 99971;Jl. Perjuangan, Kwamki, Kec. Mimika Baru, Kabupaten Mimika;PAPUA;99971;Indonesia;82211113323;;;-4.545.086;136.881.044;https://maps.google.com/?cid=0x0:0xfe681be587732e36;
cafe;Kafe;EASY COFFEE;FV4M+9F3, Jl. Malcon, timika indah, Kec. Mimika Baru, Kabupaten Mimika, Papua 99971;Jl. Malcon, timika indah, Kec. Mimika Baru, Kabupaten Mimika;PAPUA;99971;Indonesia;;;;-45.441.063;1.368.836.172;https://maps.google.com/?cid=0x0:0x8bce97ea57e6fb1f;
cafe;Kafe;LAVAS'CO COFFEE  RESTO;CVQJ+86W, Timika,, Koperapoka, Kec. Mimika Baru, Kabupaten Mimika, Papua 99971;Timika,, Koperapoka, Kec. Mimika Baru, Kabupaten Mimika;PAPUA;99971;Indonesia;8114909486;;;-45.616.468;1.368.805.836;https://maps.google.com/?cid=0x0:0xe3ccc616238019e9;
cafe;Kedai Kopi;Secangkir Cerita Cafe;Sebrang Tk.Aneka Plastik, Jl. Kebun Sirih, Kwamki, Mimika Baru, Mimika Regency, Papua 99971;Jl. Kebun Sirih, Kwamki, Mimika Baru, Mimika Regency;PAPUA;99971;Indonesia;81343044559;;;-45.410.927;1.368.945.143;https://maps.google.com/?cid=0x0:0x381b3e880adaf06a;
cafe;Kedai Kopi;The Coffee Shot;CVQJ+XFM, Nawaripi, Kec. Mimika Baru, Kabupaten Mimika, Papua 99971;Nawaripi, Kec. Mimika Baru, Kabupaten Mimika;PAPUA;99971;Indonesia;;;;-45.600.257;136.881.178;https://maps.google.com/?cid=0x0:0x5fa8ebe6a381bb98;
cafe;Restoran;So Yummy Resto;FV3Q+QR9, Kwamki, Kec. Mimika Baru, Kabupaten Mimika, Papua 99971;Kwamki, Kec. Mimika Baru, Kabupaten Mimika;PAPUA;99971;Indonesia;81240005760;;;-45.455.973;1.368.896.159;https://maps.google.com/?cid=0x0:0xad18f6a2fb6ee6f8;
cafe;Kafe;Cafe Kamoro;FVC6+P6P, Jl. Cendrawasih, Kwamki, Kec. Mimika Baru, Kabupaten Mimika, Papua 99971;Jl. Cendrawasih, Kwamki, Kec. Mimika Baru, Kabupaten Mimika;PAPUA;99971;Indonesia;82111859669;;;-45.281.523;1.368.605.813;https://maps.google.com/?cid=0x0:0x5d9cc4506d530612;
cafe;Restoran;RKB Cafe;CVRJ+3CM, Timika Jaya, Kec. Mimika Baru, Kabupaten Mimika, Papua 99971;Timika Jaya, Kec. Mimika Baru, Kabupaten Mimika;PAPUA;99971;Indonesia;82248394070;;;-45.597.857;1.368.810.406;https://maps.google.com/?cid=0x0:0xf407e8014cbbf432;
cafe;Kafe;BARLEY Lounge bakry and coffee;FV2Q+9VQ, Jl. Yos Sudarso, Koperapoka, Kec. Mimika Baru, Kabupaten Mimika, Papua 99971;Jl. Yos Sudarso, Koperapoka, Kec. Mimika Baru, Kabupaten Mimika;PAPUA;99971;Indonesia;;;;-45.490.358;1.368.897.188;https://maps.google.com/?cid=0x0:0xdd654fa361b008e4;
cafe;Kafe;Minuman kekinian;CVM9+X97, Jl. Hasanuddin, Kamoro Jaya, Kec. Mimika Baru, Kabupaten Mimika, Papua 99971;Jl. Hasanuddin, Kamoro Jaya, Kec. Mimika Baru, Kabupaten Mimika;PAPUA;99971;Indonesia;85320402636;;;-45.650.787;1.368.684.106;https://maps.google.com/?cid=0x0:0xe6b84fe53227ffeb;
cafe;Kedai Kopi;Kedai_bapmuez;CVWM+M4F, Jl. Budi Utomo, Nawaripi, Kec. Mimika Baru, Kabupaten Mimika, Papua 99971;Jl. Budi Utomo, Nawaripi, Kec. Mimika Baru, Kabupaten Mimika;PAPUA;99971;Indonesia;82347336789;;;-45.533.156;1.368.828.032;https://maps.google.com/?cid=0x0:0x59582df5c2a91380;
cafe;Kedai Kopi;TITIK KUMPUL;CVR3+65W, Kamoro Jaya, Kec. Mimika Baru, Kabupaten Mimika, Papua;Kabupaten Mimika, Papua;PAPUA;;Indonesia;;;;-45.582.017;136.853.218;https://maps.google.com/?cid=0x0:0x95fb5c1a05fac438;
cafe;Kedai Kopi;KOPIKAKA;Blk. AH, Wonosari Jaya, Kec. Mimika Baru, Kabupaten Mimika, Papua 99971;Wonosari Jaya, Kec. Mimika Baru, Kabupaten Mimika;PAPUA;99971;Indonesia;82239197798;;;-45.902.067;136.876.116;https://maps.google.com/?cid=0x0:0x909361bb8a3e6f9d;
cafe;Restoran;Papua Cafe;JV38+MF6, Kuala Kencana, Kec. Kuala Kencana, Kabupaten Mimika, Papua 99910;Kuala Kencana, Kec. Kuala Kencana, Kabupaten Mimika;PAPUA;99910;Indonesia;811490804;;;-4.395.844;1.368.661.365;https://maps.google.com/?cid=0x0:0x314a0b94209cdb62;
cafe;Sesuai untuk keluarga;Warung Buhasan;HVX5+WMR, Kuala Kencana, Kec. Kuala Kencana, Kabupaten Mimika, Papua 99910;Kuala Kencana, Kec. Kuala Kencana, Kabupaten Mimika;PAPUA;99910;Indonesia;;;;-44.001.406;1.368.591.323;https://maps.google.com/?cid=0x0:0xdb242c4c00b26857;
cafe;Restoran;Nimaome Cafe;Kuala Kencana, Kec. Kuala Kencana, Kabupaten Mimika, Papua 99910;Kec. Kuala Kencana, Kabupaten Mimika;PAPUA;99910;Indonesia;;;;-43.959.804;1.368.651.186;https://maps.google.com/?cid=0x0:0x474a8c91257d246d;
cafe;cafe;Papua 99967;Kabupaten Mimika, Papua;Kabupaten Mimika, Papua;PAPUA;;Indonesia;;;;-42.294.388;1.370.193.913;https://maps.google.com/?cid=0x0:0x89f915cf55d48161;
cafe;Restoran;Noken Cafe by Primo;V34Q+XXH, Tembagapura, Arwandop, Tembagapura, Kec. Tembagapura, Kabupaten Mimika, Papua 99967;Tembagapura, Arwandop, Tembagapura, Kec. Tembagapura, Kabupaten Mimika;PAPUA;99967;Indonesia;;;;-41.425.625;1.370.899.844;https://maps.google.com/?cid=0x0:0xaed48ea0d834fa7a;
cafe;Gedung Apartemen;Coffee Shop Hidden Valley;R3WX+49M, Arwandop, Kec. Tembagapura, Kabupaten Mimika, Papua 99967;Arwandop, Kec. Tembagapura, Kabupaten Mimika;PAPUA;99967;Indonesia;901466406;;;-4.154.668;1.370.984.148;https://maps.google.com/?cid=0x0:0x19897cfa42d33d8a;
cafe;Pusat Perbelanjaan;Shopping Family Tembagapura;V34Q+XXH, Tembagapura, Arwandop, Tembagapura, Kec. Tembagapura, Kabupaten Mimika, Papua 99967;Tembagapura, Arwandop, Tembagapura, Kec. Tembagapura, Kabupaten Mimika;PAPUA;99967;Indonesia;;;;-41.425.625;1.370.899.844;https://maps.google.com/?cid=0x0:0x23ff3f0a601439a2;
cafe;Bar;Lupa Lelah Club;V35Q+3C5, Tembagapura, Arwandop, Tembagapura, Kec. Tembagapura, Kabupaten Mimika, Papua 98972;Tembagapura, Arwandop, Tembagapura, Kec. Tembagapura, Kabupaten Mimika;PAPUA;98972;Indonesia;901464294;;;-41.423.686;1.370.886.127;https://maps.google.com/?cid=0x0:0x34b42bf7fb4e9af2;
cafe;China;KOPS RESTO TPRA;V34R+QXH, Jl. Tembagapura Raya, Tembagapura, Kec. Tembagapura, Kabupaten Mimika, Papua 99967;Jl. Tembagapura Raya, Tembagapura, Kec. Tembagapura, Kabupaten Mimika;PAPUA;99967;Indonesia;;;;-4.143.062;1.370.924.871;https://maps.google.com/?cid=0x0:0x6bb2b4db62e6d0f9;
cafe;Restoran;Melati Messhall;V35R+6PC, Arwandop, Kec. Tembagapura, Kabupaten Mimika, Papua 98972;Arwandop, Kec. Tembagapura, Kabupaten Mimika;PAPUA;98972;Indonesia;;;;-41.419.323;1.370.917.683;https://maps.google.com/?cid=0x0:0xcec4b3671f663e0f;
cafe;Restoran;Kokarfi Resto;V34V+P2C, Arwandop, Tembagapura, Kec. Tembagapura, Kabupaten Mimika, Papua 99967;Arwandop, Tembagapura, Kec. Tembagapura, Kabupaten Mimika;PAPUA;99967;Indonesia;901466544;;;-41.431.882;137.092.517;https://maps.google.com/?cid=0x0:0xa4ef3aefd5f71d5;
cafe;Restoran;New Kenanga Mess Hall;Tembagapura, Mimika Regency, Papua 98972;Mimika Regency;PAPUA;98972;Indonesia;;;;-41.099.385;1.370.999.715;https://maps.google.com/?cid=0x0:0xc5816325edeb9bea;
cafe;Restoran;Mawar Mess Hall Tembagapura;V35V+9H5, Arwandop, Tembagapura, Kec. Tembagapura, Kabupaten Mimika, Papua 98972;Arwandop, Tembagapura, Kec. Tembagapura, Kabupaten Mimika;PAPUA;98972;Indonesia;82111651875;;;-41.416.131;1.370.939.934;https://maps.google.com/?cid=0x0:0xd853c8435a0e135e;
cafe;Komplek perumahan;Hidden Valley Playground;R3WX+487, Arwandop, Kec. Tembagapura, Kabupaten Mimika, Papua 99967;Arwandop, Kec. Tembagapura, Kabupaten Mimika;PAPUA;99967;Indonesia;;;;-41.547.035;1.370.982.867;https://maps.google.com/?cid=0x0:0x188e55ffe36e1a60;
cafe;Lapangan Golf;Rimba Papua Golf Restaurant  Bar;Kuala Kencana, Kec. Kuala Kencana, Kabupaten Mimika, Papua 99910;Kec. Kuala Kencana, Kabupaten Mimika;PAPUA;99910;Indonesia;;;;-44.066.524;1.368.732.401;https://maps.google.com/?cid=0x0:0xf6fc98cb1830460b;
cafe;cafe;Cabang tossa ijo;W58P+5J9 Puncak Carstensz Timur, Puncak Jaya, Tembagapura, Kec. Tembagapura, Kabupaten Mimika, Papua 98972;Puncak Jaya, Tembagapura, Kec. Tembagapura, Kabupaten Mimika;PAPUA;98972;Indonesia;;;;-4.085.561;1.371.865.747;https://maps.google.com/?cid=0x0:0x2c09906034f9a58d;
cafe;cafe;Desa Tapormai;Q7C6+XPH, Tapormai, Mimika Bar. Jauh, Kabupaten Mimika, Papua 99974;Tapormai, Mimika Bar. Jauh, Kabupaten Mimika;PAPUA;99974;Indonesia;;;;-42.275.569;1.352.618.568;https://maps.google.com/?cid=0x0:0xc265447ff7a3ca12;
cafe;Kafe;Studio Cafe;Nawaripi, Kec. Mimika Baru, Kabupaten Mimika, Papua 99971;Kec. Mimika Baru, Kabupaten Mimika;PAPUA;99971;Indonesia;82230021018;;;-45.536.027;1.368.824.333;https://maps.google.com/?cid=0x0:0xe4abc3e17257d04f;
cafe;Kafe;PUA-PUA CAFE;Jl. Budi Utomo, Nawaripi, Kec. Mimika Baru, Kabupaten Mimika, Papua 99952;Nawaripi, Kec. Mimika Baru, Kabupaten Mimika;PAPUA;99952;Indonesia;82346750560;;;-45.620.805;1.368.806.057;https://maps.google.com/?cid=0x0:0xb7cc07f877baacb2;
cafe;Kafe;LAVAS'CO COFFEE  RESTO;CVQJ+86W, Timika,, Koperapoka, Kec. Mimika Baru, Kabupaten Mimika, Papua 99971;Timika,, Koperapoka, Kec. Mimika Baru, Kabupaten Mimika;PAPUA;99971;Indonesia;8114909486;;;-45.616.468;1.368.805.836;https://maps.google.com/?cid=0x0:0xe3ccc616238019e9;
cafe;cafe;N/A;;;PAPUA;;Indonesia;;;;;;https://maps.google.com/?cid=0x0:0xe4abc3e17257d04fu0026onu003dLemon+Teau0026midu003d/g/11vt23wr2t;
cafe;cafe;N/A;;;PAPUA;;Indonesia;;;;;;https://maps.google.com/?cid=0x0:0xe4abc3e17257d04fu0026onu0026midu003d/g/11vt23wr2t;
cafe;cafe;Papua 99564;Papua;Papua;PAPUA;;Indonesia;;;;-42.226.519;1.383.190.276;https://maps.google.com/?cid=0x0:0x12113e40469ed72c;
cafe;Kafe;Waanal Coffee And Resto;Jl. Cendrawasih, Karang Senang, Kec. Kuala Kencana, Kabupaten Mimika, Papua 99910;Karang Senang, Kec. Kuala Kencana, Kabupaten Mimika;PAPUA;99910;Indonesia;81248677897;;;-44.916.566;1.368.474.106;https://maps.google.com/?cid=0x0:0xe6f6936c8a14d771;
cafe;Kedai Kopi;New Kopi Amuro;FV2M+J47, Koperapoka, Kec. Mimika Baru, Kabupaten Mimika, Papua 99971;Koperapoka, Kec. Mimika Baru, Kabupaten Mimika;PAPUA;99971;Indonesia;;;;-45.484.698;1.368.828.218;https://maps.google.com/?cid=0x0:0x7b2c2ebfe3033730;
cafe;Kafe;LAVAS'CO COFFEE  RESTO;CVQJ+86W, Timika,, Koperapoka, Kec. Mimika Baru, Kabupaten Mimika, Papua 99971;Timika,, Koperapoka, Kec. Mimika Baru, Kabupaten Mimika;PAPUA;99971;Indonesia;8114909486;;;-45.616.468;1.368.805.836;https://maps.google.com/?cid=0x0:0xe3ccc616238019e9;
cafe;Restoran;Papua Cafe;JV38+MF6, Kuala Kencana, Kec. Kuala Kencana, Kabupaten Mimika, Papua 99910;Kuala Kencana, Kec. Kuala Kencana, Kabupaten Mimika;PAPUA;99910;Indonesia;811490804;;;-4.395.844;1.368.661.365;https://maps.google.com/?cid=0x0:0x314a0b94209cdb62;
cafe;Tempat Ibadah;Cafe Alam Al Barakah;J2F4+995, Jl. Raya Relife Greenville, Cikarageman, Kec. Setu, Kabupaten Bekasi, Jawa Barat 17320;Jl. Raya Relife Greenville, Cikarageman, Kec. Setu, Kabupaten Bekasi;PAPUA;17320;Indonesia;81319875808;;;-63.766.231;1.070.059.823;https://maps.google.com/?cid=0x0:0xa040d78e5702d559;
cafe;Kafe;CAFFE ALAM SAUNG JATI;Jl.kampung sawah, Gang Ursula, Rt.002/004, No.301B, RT.005/RW.004, Jatimurni, Kec. Jatisampurna, Kota Bks, Jawa Barat 17431;Gang Ursula, Rt.002/004, No.301B, RT.005/RW.004, Jatimurni, Kec. Jatisampurna, Kota Bks;PAPUA;17431;Indonesia;87884810766;;;-633.057;1.069.320.775;https://maps.google.com/?cid=0x0:0x905cf599897bb67a;
cafe;Kafe;Cagar Alam Cafe;JL Blora, 18, Menteng, Jakarta, 10310, RT.2/RW.6, Dukuh Atas, Menteng, Central Jakarta City, Jakarta 10220;Menteng, Jakarta,;PAPUA;10310;Indonesia;213162409;;;-6.200.486;1.068.236.222;https://maps.google.com/?cid=0x0:0x690d6592277ae3b;
cafe;Kafe;Alam Bistro N Cafe;Jl. Bayangkara Pusdiklantas No.12, RW.4, Pd. Jagung Tim., Kec. Serpong Utara, Kota Tangerang Selatan, Banten 15326;RW.4, Pd. Jagung Tim., Kec. Serpong Utara, Kota Tangerang Selatan;PAPUA;15326;Indonesia;81399979589;;;-62.399.104;1.066.607.587;https://maps.google.com/?cid=0x0:0xb9c3defb0faddad6;
