Category;Real Category;Business Name;Address;City;State;Postal Code;Country;Phone;Email;Website;Latitude;Longitude;Map Link;Details Link
mall;Pusat Perbelanjaan;Timika Mall;57522, Jl. Hasanuddin No.9, Nawaripi, Mimika Baru, Mimika Regency, Papua 99971;Jl. Hasanuddin No.9, Nawaripi, Mimika Baru, Mimika Regency;PAPUA;99971;Indonesia;;;;-45.673.682;1.368.869.612;https://maps.google.com/?cid=0x0:0x146edd1a60cab3dd;
mall;Pusat Perbelanjaan;Ramayana Timika;Jl. Cendrawasih No.66, Kwamki, Kec. Mimika Baru, Kabupaten Mimika, Papua 99910;Kwamki, Kec. Mimika Baru, Kabupaten Mimika;PAPUA;99910;Indonesia;81219332254;;;-45.408.303;1.368.776.915;https://maps.google.com/?cid=0x0:0x1129eedce4df0ad3;
mall;Restoran;RM Duta;CVMP+3P8, Nawaripi, Kec. Mimika Baru, Kabupaten Mimika, Papua 99971;Nawaripi, Kec. Mimika Baru, Kabupaten Mimika;PAPUA;99971;Indonesia;;;;-45.673.458;136.886.813;https://maps.google.com/?cid=0x0:0xc9a9476f7c104d5e;
mall;mall;Kec. Mimika Baru;Kabupaten Mimika, Papua;Kabupaten Mimika, Papua;PAPUA;;Indonesia;;;;-45.671.869;1.368.873.528;https://maps.google.com/?cid=0x0:0xccefb04a6b60d82c;
mall;Penginapan;Mess Crew Timika Mall;CVMP+VR3, Timika,, Koperapoka, Kec. Mimika Baru, Kabupaten Mimika, Papua 99971;Timika,, Koperapoka, Kec. Mimika Baru, Kabupaten Mimika;PAPUA;99971;Indonesia;;;;-45.653.566;136.887.045;https://maps.google.com/?cid=0x0:0x8b62fecd0ac19a7b;
mall;Toko bahan makanan;Diana Supermarket;Jl. Budi Utomo No.8, Kwamki, Kec. Mimika Baru, Kabupaten Mimika, Papua 99971;Kwamki, Kec. Mimika Baru, Kabupaten Mimika;PAPUA;99971;Indonesia;901322829;;;-45.427.693;1.368.837.435;https://maps.google.com/?cid=0x0:0x4cea28f7389f57e8;
mall;Pusat Perbelanjaan;Jl.pemuda Utara Spi;CV59+73R, Unnamed Rd, Kamoro Jaya, Kec. Mimika Baru, Kabupaten Mimika, Papua 99971;Unnamed Rd, Kamoro Jaya, Kec. Mimika Baru, Kabupaten Mimika;PAPUA;99971;Indonesia;;;;-45.917.652;1.368.676.322;https://maps.google.com/?cid=0x0:0xac6b78005a2dc6fb;
mall;Kafe;JCO COFFEE  DONUTS TIMIKA MALL;CVJP+XQ2, Nawaripi, Kec. Mimika Baru, Kabupaten Mimika, Papua 99971;Nawaripi, Kec. Mimika Baru, Kabupaten Mimika;PAPUA;99971;Indonesia;8158898000;;;-45.676.038;1.368.869.059;https://maps.google.com/?cid=0x0:0x45c3202312087e39;
mall;Layanan Distribusi;Senja Indah Mart;CVM8+XP4, Kamoro Jaya, Kec. Mimika Baru, Kabupaten Mimika, Papua 99971;Kamoro Jaya, Kec. Mimika Baru, Kabupaten Mimika;PAPUA;99971;Indonesia;;;;-45.651.166;1.368.668.316;https://maps.google.com/?cid=0x0:0x74b9b9ba08f6b532;
mall;Pusat Perbelanjaan;MEGA SQUARE;Jl. Yos Sudarso, Nawaripi, Kec. Mimika Baru, Kabupaten Mimika, Papua 99910;Nawaripi, Kec. Mimika Baru, Kabupaten Mimika;PAPUA;99910;Indonesia;9013260302;;;-45.546.591;1.368.889.479;https://maps.google.com/?cid=0x0:0x11dbe3ff2ca8b52b;
mall;Pusat Perbelanjaan;Fun world;Jl. Hasanuddin No.1, Nawaripi, Kec. Mimika Baru, Kabupaten Mimika, Papua 99971;Nawaripi, Kec. Mimika Baru, Kabupaten Mimika;PAPUA;99971;Indonesia;901321598;;;-45.673.588;1.368.869.773;https://maps.google.com/?cid=0x0:0xbc3871058084dfe4;
mall;Pusat Perbelanjaan;Mess Timika Mall;Jl. Hasanuddin No.9, Nawaripi, Kec. Mimika Baru, Kabupaten Mimika, Papua 99971;Nawaripi, Kec. Mimika Baru, Kabupaten Mimika;PAPUA;99971;Indonesia;82248679385;;;-45.668.616;1.368.863.407;https://maps.google.com/?cid=0x0:0x92c4e1594bcbbea;
mall;Pasar;Toko Mitra Jaya;CVMF+PHM, Jl. Hasanuddin Jl. Irigasi, Kamoro Jaya, Kec. Mimika Baru, Kabupaten Mimika, Papua 99971;Jl. Hasanuddin Jl. Irigasi, Kamoro Jaya, Kec. Mimika Baru, Kabupaten Mimika;PAPUA;99971;Indonesia;81240993700;;;-4.565.658;1.368.739.133;https://maps.google.com/?cid=0x0:0x7cf55f8cb0198f35;
mall;Pasar tradisional;PASAR SENTRAL MIMIKA;CVPC+23X, Kamoro Jaya, Kec. Mimika Baru, Kabupaten Mimika, Papua;Kabupaten Mimika, Papua;PAPUA;;Indonesia;;;;-45.648.793;136.870.249;https://maps.google.com/?cid=0x0:0x50599d4dbec60992;
mall;Pusat Perbelanjaan;Reski 77 Aksesoris;CVXQ+3GR, Timika Jaya, Kec. Mimika Baru, Kabupaten Mimika, Papua 99971;Timika Jaya, Kec. Mimika Baru, Kabupaten Mimika;PAPUA;99971;Indonesia;8114993334;;;-45.522.687;1.368.887.764;https://maps.google.com/?cid=0x0:0xc1c2d10aeeb2c3c4;
mall;Pusat Perbelanjaan;KIOS RIYAL;CV6F+7G8, Wonosari Jaya, Kec. Mimika Baru, Kabupaten Mimika, Papua 99971;Wonosari Jaya, Kec. Mimika Baru, Kabupaten Mimika;PAPUA;99971;Indonesia;81344183991;;;-4.589.338;1.368.738.206;https://maps.google.com/?cid=0x0:0xc2fdaf1e02794b9f;
mall;Pusat Perbelanjaan;Diana Mall XXI;Diana Mall Timika, Jl. Budi Utomo No.8 Lt. 6, Kwamki, Kec. Mimika Baru, Kabupaten Mimika, Papua 99971;Jl. Budi Utomo No.8 Lt. 6, Kwamki, Kec. Mimika Baru, Kabupaten Mimika;PAPUA;99971;Indonesia;8873070010;;;-45.420.634;1.368.835.379;https://maps.google.com/?cid=0x0:0x10f4b67038a1ac50;
mall;Toko Alat Tulis Kantor;Toko Anandika Zaera/foto Copy;FRHV+W2M, Jl. Poros SP V - SP II, Timika Jaya, Kec. Mimika Baru, Kabupaten Mimika, Papua 99963;Jl. Poros SP V - SP II, Timika Jaya, Kec. Mimika Baru, Kabupaten Mimika;PAPUA;99963;Indonesia;81354124030;;;-452.015;1.368.425.468;https://maps.google.com/?cid=0x0:0xfebd050eb9f03c56;
mall;Toko Perlengkapan Rumah;Toko Jarwal Bangunan;Kamoro Jaya, Kec. Mimika Baru, Kabupaten Mimika, Papua 99971;Kec. Mimika Baru, Kabupaten Mimika;PAPUA;99971;Indonesia;;;;-45.656.564;1.368.718.615;https://maps.google.com/?cid=0x0:0x6cdc385accf4a8b;
mall;Pusat Perbelanjaan;TRIPOINT(Pusat oleh-oleh timika Papua / kaos dan batik papua);Jl. Budi Utomo No.88a, Kwamki, Kec. Mimika Baru, Kabupaten Mimika, Papua 99971;Kwamki, Kec. Mimika Baru, Kabupaten Mimika;PAPUA;99971;Indonesia;81344448464;;;-45.431.006;1.368.840.793;https://maps.google.com/?cid=0x0:0xfb3a14721c808280;
mall;Pusat Perbelanjaan;Tokolhyna;Jl. Megantara No.34, Kamoro Jaya, Kec. Mimika Baru, Kabupaten Mimika, Papua 99971;Kamoro Jaya, Kec. Mimika Baru, Kabupaten Mimika;PAPUA;99971;Indonesia;81343817281;;;-45.798.812;1.368.692.634;https://maps.google.com/?cid=0x0:0x2a66da21cd1ca3f2;
mall;Toko Bunga;Kembang Vonny;Jl. Budi Utomo No.119, Kwamki, Kec. Mimika Baru, Kabupaten Mimika, Papua 99971;Kwamki, Kec. Mimika Baru, Kabupaten Mimika;PAPUA;99971;Indonesia;82199496789;;;-45.600.223;1.368.809.644;https://maps.google.com/?cid=0x0:0x7c55f45e819d1631;
mall;mall;Papua 99964;Kabupaten Mimika, Papua;Kabupaten Mimika, Papua;PAPUA;;Indonesia;;;;-45.348.379;1.373.706.554;https://maps.google.com/?cid=0x0:0x8a2567edb0b5d8c5;
mall;Pusat Perbelanjaan;Timika Mall;57522, Jl. Hasanuddin No.9, Nawaripi, Mimika Baru, Mimika Regency, Papua 99971;Jl. Hasanuddin No.9, Nawaripi, Mimika Baru, Mimika Regency;PAPUA;99971;Indonesia;;;;-45.673.682;1.368.869.612;https://maps.google.com/?cid=0x0:0x146edd1a60cab3dd;
mall;Penginapan;Mess Crew Timika Mall;CVMP+VR3, Timika,, Koperapoka, Kec. Mimika Baru, Kabupaten Mimika, Papua 99971;Timika,, Koperapoka, Kec. Mimika Baru, Kabupaten Mimika;PAPUA;99971;Indonesia;;;;-45.653.566;136.887.045;https://maps.google.com/?cid=0x0:0x8b62fecd0ac19a7b;
mall;Pusat Perbelanjaan;Ramayana Timika;Jl. Cendrawasih No.66, Kwamki, Kec. Mimika Baru, Kabupaten Mimika, Papua 99910;Kwamki, Kec. Mimika Baru, Kabupaten Mimika;PAPUA;99910;Indonesia;81219332254;;;-45.408.303;1.368.776.915;https://maps.google.com/?cid=0x0:0x1129eedce4df0ad3;
mall;Pusat Perbelanjaan;Jl.pemuda Utara Spi;CV59+73R, Unnamed Rd, Kamoro Jaya, Kec. Mimika Baru, Kabupaten Mimika, Papua 99971;Unnamed Rd, Kamoro Jaya, Kec. Mimika Baru, Kabupaten Mimika;PAPUA;99971;Indonesia;;;;-45.917.652;1.368.676.322;https://maps.google.com/?cid=0x0:0xac6b78005a2dc6fb;
mall;Pusat Perbelanjaan;MEGA SQUARE;Jl. Yos Sudarso, Nawaripi, Kec. Mimika Baru, Kabupaten Mimika, Papua 99910;Nawaripi, Kec. Mimika Baru, Kabupaten Mimika;PAPUA;99910;Indonesia;9013260302;;;-45.546.591;1.368.889.479;https://maps.google.com/?cid=0x0:0x11dbe3ff2ca8b52b;
mall;Layanan Distribusi;Senja Indah Mart;CVM8+XP4, Kamoro Jaya, Kec. Mimika Baru, Kabupaten Mimika, Papua 99971;Kamoro Jaya, Kec. Mimika Baru, Kabupaten Mimika;PAPUA;99971;Indonesia;;;;-45.651.166;1.368.668.316;https://maps.google.com/?cid=0x0:0x74b9b9ba08f6b532;
mall;Pusat Perbelanjaan;Mess Timika Mall;Jl. Hasanuddin No.9, Nawaripi, Kec. Mimika Baru, Kabupaten Mimika, Papua 99971;Nawaripi, Kec. Mimika Baru, Kabupaten Mimika;PAPUA;99971;Indonesia;82248679385;;;-45.668.616;1.368.863.407;https://maps.google.com/?cid=0x0:0x92c4e1594bcbbea;
mall;Toko Bunga;Kembang Vonny;Jl. Budi Utomo No.119, Kwamki, Kec. Mimika Baru, Kabupaten Mimika, Papua 99971;Kwamki, Kec. Mimika Baru, Kabupaten Mimika;PAPUA;99971;Indonesia;82199496789;;;-45.600.223;1.368.809.644;https://maps.google.com/?cid=0x0:0x7c55f45e819d1631;
mall;Pusat Perbelanjaan;Aquafish Timika;CVMQ+7RM konro jalur 2, Jl. Mente Sempan, Inauga, Kec. Mimika Baru, Kabupaten Mimika, Papua 99971;Jl. Mente Sempan, Inauga, Kec. Mimika Baru, Kabupaten Mimika;PAPUA;99971;Indonesia;81278311520;;;-45.667.914;1.368.895.404;https://maps.google.com/?cid=0x0:0xebca26f7c7d4f939;
mall;Pusat Perbelanjaan;Tokolhyna;Jl. Megantara No.34, Kamoro Jaya, Kec. Mimika Baru, Kabupaten Mimika, Papua 99971;Kamoro Jaya, Kec. Mimika Baru, Kabupaten Mimika;PAPUA;99971;Indonesia;81343817281;;;-45.798.812;1.368.692.634;https://maps.google.com/?cid=0x0:0x2a66da21cd1ca3f2;
mall;Pusat Perbelanjaan;Aksesoris timika;CVRV+C7F, Jl. Leo Mamiri, Koperapoka, Kec. Mimika Baru, Kabupaten Mimika, Papua 99971;Jl. Leo Mamiri, Koperapoka, Kec. Mimika Baru, Kabupaten Mimika;PAPUA;99971;Indonesia;81343096920;;;-45.589.497;1.368.931.802;https://maps.google.com/?cid=0x0:0x417bea8768e52fd7;
mall;Pusat Perbelanjaan;CAKRAWALA AKSESORIS;CVMP+34X, Jl. Nawaripi Baru, Kamoro Jaya, Kec. Mimika Baru, Kabupaten Mimika, Papua 99971;Jl. Nawaripi Baru, Kamoro Jaya, Kec. Mimika Baru, Kabupaten Mimika;PAPUA;99971;Indonesia;;;;-45.672.529;136.885.369;https://maps.google.com/?cid=0x0:0x3e958bef0d0e7d2f;
mall;Toko bahan makanan;Diana Supermarket;Jl. Budi Utomo No.8, Kwamki, Kec. Mimika Baru, Kabupaten Mimika, Papua 99971;Kwamki, Kec. Mimika Baru, Kabupaten Mimika;PAPUA;99971;Indonesia;901322829;;;-45.427.693;1.368.837.435;https://maps.google.com/?cid=0x0:0x4cea28f7389f57e8;
mall;Toko;Alfiya Store;CV48+F4J, Jl. Jalur 3, Kamoro Jaya, Kec. Mimika Baru, Kabupaten Mimika, Papua 99971;Jl. Jalur 3, Kamoro Jaya, Kec. Mimika Baru, Kabupaten Mimika;PAPUA;99971;Indonesia;81248282454;;;-45.937.794;1.368.652.789;https://maps.google.com/?cid=0x0:0x5bc475a2506b03bb;
mall;Toko Ponsel;VAVA CELL;FV3M+HF9, Kwamki, Kec. Mimika Baru, Kabupaten Mimika, Papua 99971;Kwamki, Kec. Mimika Baru, Kabupaten Mimika;PAPUA;99971;Indonesia;81225021756;;;-45.460.802;1.368.837.394;https://maps.google.com/?cid=0x0:0x53fdd0327a251e09;
mall;Toko Perlengkapan Rumah;Cahaya Maret;CV6C+GXM, Kamoro Jaya, Kec. Mimika Baru, Kabupaten Mimika, Papua 99971;Kamoro Jaya, Kec. Mimika Baru, Kabupaten Mimika;PAPUA;99971;Indonesia;82346555954;;;-4.588.666;136.872.411;https://maps.google.com/?cid=0x0:0x47c9c5dc981c22ce;
mall;Pusat Perbelanjaan;ANHA SOUVENIR ART SHOP;Jl. Kebun Sirih No.37B, Kwamki, Kec. Mimika Baru, Kabupaten Mimika, Papua 99971;Kwamki, Kec. Mimika Baru, Kabupaten Mimika;PAPUA;99971;Indonesia;85394562164;;;-45.443.754;136.894.986;https://maps.google.com/?cid=0x0:0x9064f2bfe0e3b32d;
mall;Toko Peralatan Olahraga;Toko Papua Jaya;FV2Q+4Q4 dpn. SMA1, Jl. Yos Sudarso, Nawaripi, Mimika Baru, Mimika Regency, Papua 99971;Jl. Yos Sudarso, Nawaripi, Mimika Baru, Mimika Regency;PAPUA;99971;Indonesia;812400646;;;-4.549.733;1.368.894.482;https://maps.google.com/?cid=0x0:0xc50856438848789f;
mall;Toko umum;KIOS SAFIQ;CVQR+W38, Jl. Leo Mamiri, Nawaripi, Kec. Mimika Baru, Kabupaten Mimika, Papua 99971;Jl. Leo Mamiri, Nawaripi, Kec. Mimika Baru, Kabupaten Mimika;PAPUA;99971;Indonesia;;;;-4.560.212;1.368.902.187;https://maps.google.com/?cid=0x0:0x53bafad3cc61692e;
mall;mall;Agimuga;Kabupaten Mimika, Papua;Kabupaten Mimika, Papua;PAPUA;;Indonesia;;;;-46.377.699;1.374.882.762;https://maps.google.com/?cid=0x0:0x24e47a54c55e98d1;
mall;Balai masyarakat;Plaza Agawaa Ogom;V4R2+53Q, Tembagapura, Kec. Tembagapura, Kabupaten Mimika, Papua 98972;Tembagapura, Kec. Tembagapura, Kabupaten Mimika;PAPUA;98972;Indonesia;;;;-41.095.287;1.371.002.252;https://maps.google.com/?cid=0x0:0x28909d5c3b81fbc0;
mall;mall;Papua 99963;Kabupaten Mimika, Papua;Kabupaten Mimika, Papua;PAPUA;;Indonesia;;;;-46.420.578;1.367.091.767;https://maps.google.com/?cid=0x0:0x489f32e37e0cec35;
mall;Pusat Perbelanjaan;Timika Mall;57522, Jl. Hasanuddin No.9, Nawaripi, Mimika Baru, Mimika Regency, Papua 99971;Jl. Hasanuddin No.9, Nawaripi, Mimika Baru, Mimika Regency;PAPUA;99971;Indonesia;;;;-45.673.682;1.368.869.612;https://maps.google.com/?cid=0x0:0x146edd1a60cab3dd;
mall;Pusat Perbelanjaan;Fun world;Jl. Hasanuddin No.1, Nawaripi, Kec. Mimika Baru, Kabupaten Mimika, Papua 99971;Nawaripi, Kec. Mimika Baru, Kabupaten Mimika;PAPUA;99971;Indonesia;901321598;;;-45.673.588;1.368.869.773;https://maps.google.com/?cid=0x0:0xbc3871058084dfe4;
mall;Penginapan;Mess Crew Timika Mall;CVMP+VR3, Timika,, Koperapoka, Kec. Mimika Baru, Kabupaten Mimika, Papua 99971;Timika,, Koperapoka, Kec. Mimika Baru, Kabupaten Mimika;PAPUA;99971;Indonesia;;;;-45.653.566;136.887.045;https://maps.google.com/?cid=0x0:0x8b62fecd0ac19a7b;
mall;Pusat Perbelanjaan;Mess Timika Mall;Jl. Hasanuddin No.9, Nawaripi, Kec. Mimika Baru, Kabupaten Mimika, Papua 99971;Nawaripi, Kec. Mimika Baru, Kabupaten Mimika;PAPUA;99971;Indonesia;82248679385;;;-45.668.616;1.368.863.407;https://maps.google.com/?cid=0x0:0x92c4e1594bcbbea;
mall;Pusat Perbelanjaan;MEGA SQUARE;Jl. Yos Sudarso, Nawaripi, Kec. Mimika Baru, Kabupaten Mimika, Papua 99910;Nawaripi, Kec. Mimika Baru, Kabupaten Mimika;PAPUA;99910;Indonesia;9013260302;;;-45.546.591;1.368.889.479;https://maps.google.com/?cid=0x0:0x11dbe3ff2ca8b52b;
mall;Toko bahan makanan;Diana Supermarket;Jl. Budi Utomo No.8, Kwamki, Kec. Mimika Baru, Kabupaten Mimika, Papua 99971;Kwamki, Kec. Mimika Baru, Kabupaten Mimika;PAPUA;99971;Indonesia;901322829;;;-45.427.693;1.368.837.435;https://maps.google.com/?cid=0x0:0x4cea28f7389f57e8;
mall;Pusat Perbelanjaan;Jl.pemuda Utara Spi;CV59+73R, Unnamed Rd, Kamoro Jaya, Kec. Mimika Baru, Kabupaten Mimika, Papua 99971;Unnamed Rd, Kamoro Jaya, Kec. Mimika Baru, Kabupaten Mimika;PAPUA;99971;Indonesia;;;;-45.917.652;1.368.676.322;https://maps.google.com/?cid=0x0:0xac6b78005a2dc6fb;
mall;Layanan Distribusi;Senja Indah Mart;CVM8+XP4, Kamoro Jaya, Kec. Mimika Baru, Kabupaten Mimika, Papua 99971;Kamoro Jaya, Kec. Mimika Baru, Kabupaten Mimika;PAPUA;99971;Indonesia;;;;-45.651.166;1.368.668.316;https://maps.google.com/?cid=0x0:0x74b9b9ba08f6b532;
mall;Pusat Perbelanjaan;Reski 77 Aksesoris;CVXQ+3GR, Timika Jaya, Kec. Mimika Baru, Kabupaten Mimika, Papua 99971;Timika Jaya, Kec. Mimika Baru, Kabupaten Mimika;PAPUA;99971;Indonesia;8114993334;;;-45.522.687;1.368.887.764;https://maps.google.com/?cid=0x0:0xc1c2d10aeeb2c3c4;
mall;Toko Bunga;Kembang Vonny;Jl. Budi Utomo No.119, Kwamki, Kec. Mimika Baru, Kabupaten Mimika, Papua 99971;Kwamki, Kec. Mimika Baru, Kabupaten Mimika;PAPUA;99971;Indonesia;82199496789;;;-45.600.223;1.368.809.644;https://maps.google.com/?cid=0x0:0x7c55f45e819d1631;
mall;Pusat Perbelanjaan;Tokolhyna;Jl. Megantara No.34, Kamoro Jaya, Kec. Mimika Baru, Kabupaten Mimika, Papua 99971;Kamoro Jaya, Kec. Mimika Baru, Kabupaten Mimika;PAPUA;99971;Indonesia;81343817281;;;-45.798.812;1.368.692.634;https://maps.google.com/?cid=0x0:0x2a66da21cd1ca3f2;
mall;Pasar;Toko Mitra Jaya;CVMF+PHM, Jl. Hasanuddin Jl. Irigasi, Kamoro Jaya, Kec. Mimika Baru, Kabupaten Mimika, Papua 99971;Jl. Hasanuddin Jl. Irigasi, Kamoro Jaya, Kec. Mimika Baru, Kabupaten Mimika;PAPUA;99971;Indonesia;81240993700;;;-4.565.658;1.368.739.133;https://maps.google.com/?cid=0x0:0x7cf55f8cb0198f35;
mall;Toko Perlengkapan Rumah;Cahaya Maret;CV6C+GXM, Kamoro Jaya, Kec. Mimika Baru, Kabupaten Mimika, Papua 99971;Kamoro Jaya, Kec. Mimika Baru, Kabupaten Mimika;PAPUA;99971;Indonesia;82346555954;;;-4.588.666;136.872.411;https://maps.google.com/?cid=0x0:0x47c9c5dc981c22ce;
mall;Pusat Perbelanjaan;Ayra Accesories;FRPV+9VP, Timika Jaya, Kec. Mimika Baru, Kabupaten Mimika, Papua 99963;Timika Jaya, Kec. Mimika Baru, Kabupaten Mimika;PAPUA;99963;Indonesia;82248928188;;;-45.140.336;1.368.446.956;https://maps.google.com/?cid=0x0:0xc15e82796664b321;
mall;Toko;DEKY SAGAY;FRGR+GWQ, Jl. Poros SP V - SP II, Timika Jaya, Kec. Mimika Baru, Kabupaten Mimika, Papua 99963;Jl. Poros SP V - SP II, Timika Jaya, Kec. Mimika Baru, Kabupaten Mimika;PAPUA;99963;Indonesia;85354000623;;;-45.236.609;1.368.423.712;https://maps.google.com/?cid=0x0:0x17a89f72ed979988;
mall;Toko Alat Tulis Kantor;Toko Anandika Zaera/foto Copy;FRHV+W2M, Jl. Poros SP V - SP II, Timika Jaya, Kec. Mimika Baru, Kabupaten Mimika, Papua 99963;Jl. Poros SP V - SP II, Timika Jaya, Kec. Mimika Baru, Kabupaten Mimika;PAPUA;99963;Indonesia;81354124030;;;-452.015;1.368.425.468;https://maps.google.com/?cid=0x0:0xfebd050eb9f03c56;
mall;Pusat Perbelanjaan;KIOS RIYAL;CV6F+7G8, Wonosari Jaya, Kec. Mimika Baru, Kabupaten Mimika, Papua 99971;Wonosari Jaya, Kec. Mimika Baru, Kabupaten Mimika;PAPUA;99971;Indonesia;81344183991;;;-4.589.338;1.368.738.206;https://maps.google.com/?cid=0x0:0xc2fdaf1e02794b9f;
mall;Kantor Perusahaan;pusat produk NASA TIMIKA;CVWP+WJM, Jl. Pendidikan, Koperapoka, Kec. Mimika Baru, Kabupaten Mimika, Papua 99971;Jl. Pendidikan, Koperapoka, Kec. Mimika Baru, Kabupaten Mimika;PAPUA;99971;Indonesia;82238983357;;;-45.526.684;1.368.865.512;https://maps.google.com/?cid=0x0:0x6609a587e97372ea;
mall;Pusat Perbelanjaan;Aksesoris timika;CVRV+C7F, Jl. Leo Mamiri, Koperapoka, Kec. Mimika Baru, Kabupaten Mimika, Papua 99971;Jl. Leo Mamiri, Koperapoka, Kec. Mimika Baru, Kabupaten Mimika;PAPUA;99971;Indonesia;81343096920;;;-45.589.497;1.368.931.802;https://maps.google.com/?cid=0x0:0x417bea8768e52fd7;
mall;mall;Kec. Mimika Tim.;Kabupaten Mimika, Papua;Kabupaten Mimika, Papua;PAPUA;;Indonesia;;;;-46.725.723;1.368.266.129;https://maps.google.com/?cid=0x0:0xb9399f14e6d0d7e6;
mall;Pusat Perbelanjaan;Kios lely;CV3M+V25, Unnamed Road, Wonosari Jaya, Kec. Mimika Baru, Kabupaten Mimika, Papua 99971;Unnamed Road, Wonosari Jaya, Kec. Mimika Baru, Kabupaten Mimika;PAPUA;99971;Indonesia;81343146229;;;-45.953.609;1.368.825.939;https://maps.google.com/?cid=0x0:0x40e91ff413bc45a2;
mall;Toko;Alfiya Store;CV48+F4J, Jl. Jalur 3, Kamoro Jaya, Kec. Mimika Baru, Kabupaten Mimika, Papua 99971;Jl. Jalur 3, Kamoro Jaya, Kec. Mimika Baru, Kabupaten Mimika;PAPUA;99971;Indonesia;81248282454;;;-45.937.794;1.368.652.789;https://maps.google.com/?cid=0x0:0x5bc475a2506b03bb;
mall;Pusat Perbelanjaan;BOSESIMX SHOP54;CVQV+X24, Jl. Leo Mamiri, Nawaripi, Kec. Mimika Baru, Kabupaten Mimika, Papua 99971;Jl. Leo Mamiri, Nawaripi, Kec. Mimika Baru, Kabupaten Mimika;PAPUA;99971;Indonesia;81315299614;;;-45.601.235;1.368.925.809;https://maps.google.com/?cid=0x0:0xe58b1b9fd424f4ca;
mall;Toko Perlengkapan Rumah;Toko Jarwal Bangunan;Kamoro Jaya, Kec. Mimika Baru, Kabupaten Mimika, Papua 99971;Kec. Mimika Baru, Kabupaten Mimika;PAPUA;99971;Indonesia;;;;-45.656.564;1.368.718.615;https://maps.google.com/?cid=0x0:0x6cdc385accf4a8b;
mall;Toko Ikan;BAROKAH AQUARIUM TIMIKA;9VV8+77C, Kamoro Jaya, Kec. Mimika Baru, Kabupaten Mimika, Papua 99971;Kamoro Jaya, Kec. Mimika Baru, Kabupaten Mimika;PAPUA;99971;Indonesia;8114990427;;;-46.068.097;1.368.656.477;https://maps.google.com/?cid=0x0:0x7afed4985468bab2;
mall;Toko Aksesori Ponsel;SOFLI AKSESORIS HP TIMIKA;CVPJ+54G, Timika Jaya, Kec. Mimika Baru, Kabupaten Mimika, Papua 99971;Timika Jaya, Kec. Mimika Baru, Kabupaten Mimika;PAPUA;99971;Indonesia;85395361141;;;-45.645.565;1.368.803.375;https://maps.google.com/?cid=0x0:0x4e28b67156ed6e6e;
mall;Kafe;JCO COFFEE  DONUTS TIMIKA MALL;CVJP+XQ2, Nawaripi, Kec. Mimika Baru, Kabupaten Mimika, Papua 99971;Nawaripi, Kec. Mimika Baru, Kabupaten Mimika;PAPUA;99971;Indonesia;8158898000;;;-45.676.038;1.368.869.059;https://maps.google.com/?cid=0x0:0x45c3202312087e39;
mall;Pasar tradisional;PASAR SENTRAL MIMIKA;CVPC+23X, Kamoro Jaya, Kec. Mimika Baru, Kabupaten Mimika, Papua;Kabupaten Mimika, Papua;PAPUA;;Indonesia;;;;-45.648.793;136.870.249;https://maps.google.com/?cid=0x0:0x50599d4dbec60992;
mall;mall;Mimika Bar.;Kabupaten Mimika, Papua;Kabupaten Mimika, Papua;PAPUA;;Indonesia;;;;-44.553.134;1.362.857.516;https://maps.google.com/?cid=0x0:0x6a9ad70ccbe49095;
mall;Pusat Perbelanjaan;Timika Mall;57522, Jl. Hasanuddin No.9, Nawaripi, Mimika Baru, Mimika Regency, Papua 99971;Jl. Hasanuddin No.9, Nawaripi, Mimika Baru, Mimika Regency;PAPUA;99971;Indonesia;;;;-45.673.682;1.368.869.612;https://maps.google.com/?cid=0x0:0x146edd1a60cab3dd;
mall;Pusat Perbelanjaan;Ramayana Timika;Jl. Cendrawasih No.66, Kwamki, Kec. Mimika Baru, Kabupaten Mimika, Papua 99910;Kwamki, Kec. Mimika Baru, Kabupaten Mimika;PAPUA;99910;Indonesia;81219332254;;;-45.408.303;1.368.776.915;https://maps.google.com/?cid=0x0:0x1129eedce4df0ad3;
mall;mall;Papua 99965;Kabupaten Mimika, Papua;Kabupaten Mimika, Papua;PAPUA;;Indonesia;;;;-47.985.913;1.375.275.422;https://maps.google.com/?cid=0x0:0x7045b6939b86864;
mall;Pusat Perbelanjaan;Timika Mall;57522, Jl. Hasanuddin No.9, Nawaripi, Mimika Baru, Mimika Regency, Papua 99971;Jl. Hasanuddin No.9, Nawaripi, Mimika Baru, Mimika Regency;PAPUA;99971;Indonesia;;;;-45.673.682;1.368.869.612;https://maps.google.com/?cid=0x0:0x146edd1a60cab3dd;
mall;Pusat Perbelanjaan;Pondok Indah Mall 1;Jl. Metro Pondok Indah No.Kav. 4, RT.1/RW.16, Pd. Pinang, Kec. Kby. Lama, Kota Jakarta Selatan, Daerah Khusus Ibukota Jakarta 12310;RT.1/RW.16, Pd. Pinang, Kec. Kby. Lama, Kota Jakarta Selatan;PAPUA;12310;Indonesia;217506750;;;-62.652.166;1.067.843.165;https://maps.google.com/?cid=0x0:0x682837113c4ea854;
mall;Pusat Perbelanjaan;Mall Senayan City;Jl. Asia Afrika No.Lot 19, Gelora, Kecamatan Tanah Abang, Kota Jakarta Pusat, Daerah Khusus Ibukota Jakarta 10270;Gelora, Kecamatan Tanah Abang, Kota Jakarta Pusat;PAPUA;10270;Indonesia;2172781000;;;-62.271.953;1.067.970.117;https://maps.google.com/?cid=0x0:0x300c043104acc004;
mall;Pusat Perbelanjaan;Thamrin City;Jl. Thamrin Boulevard, Kb. Melati, Kecamatan Tanah Abang, Kota Jakarta Pusat, Daerah Khusus Ibukota Jakarta 10230;Kb. Melati, Kecamatan Tanah Abang, Kota Jakarta Pusat;PAPUA;10230;Indonesia;2131990988;;;-61.939.374;1.068.161.005;https://maps.google.com/?cid=0x0:0x1b60abd2e0b3d6d1;
mall;Layanan Distribusi;Senja Indah Mart;CVM8+XP4, Kamoro Jaya, Kec. Mimika Baru, Kabupaten Mimika, Papua 99971;Kamoro Jaya, Kec. Mimika Baru, Kabupaten Mimika;PAPUA;99971;Indonesia;;;;-45.651.166;1.368.668.316;https://maps.google.com/?cid=0x0:0x74b9b9ba08f6b532;
mall;Pusat Perbelanjaan;Mall Kota Kasablanka;Jl. Raya Casablanca No.Kav 88, Menteng Dalam, Kec. Tebet, Kota Jakarta Selatan, Daerah Khusus Ibukota Jakarta 12870;Menteng Dalam, Kec. Tebet, Kota Jakarta Selatan;PAPUA;12870;Indonesia;2129465000;;;-62.240.353;1.068.425.979;https://maps.google.com/?cid=0x0:0xaf54cb631563acce;
mall;Pusat Perbelanjaan;Central Park;Jl. Letjen S. Parman No.Kav. 28, Tj. Duren Sel., Kec. Grogol petamburan, Kota Jakarta Barat, Daerah Khusus Ibukota Jakarta 11470;Tj. Duren Sel., Kec. Grogol petamburan, Kota Jakarta Barat;PAPUA;11470;Indonesia;2156989999;;;-61.771.373;1.067.909.788;https://maps.google.com/?cid=0x0:0xe816d65037c3207a;
mall;Pusat Perbelanjaan;Jl.pemuda Utara Spi;CV59+73R, Unnamed Rd, Kamoro Jaya, Kec. Mimika Baru, Kabupaten Mimika, Papua 99971;Unnamed Rd, Kamoro Jaya, Kec. Mimika Baru, Kabupaten Mimika;PAPUA;99971;Indonesia;;;;-45.917.652;1.368.676.322;https://maps.google.com/?cid=0x0:0xac6b78005a2dc6fb;
mall;Pusat Perbelanjaan;Pondok Indah Mall 2;Jl. Metro Pondok Indah, Pd. Pinang, Kec. Kby. Lama, Kota Jakarta Selatan, Daerah Khusus Ibukota Jakarta 12310;Pd. Pinang, Kec. Kby. Lama, Kota Jakarta Selatan;PAPUA;12310;Indonesia;217506750;;;-62.655.241;1.067.827.928;https://maps.google.com/?cid=0x0:0x203a5d09556daf5f;
mall;Toko bahan makanan;Diana Supermarket;Jl. Budi Utomo No.8, Kwamki, Kec. Mimika Baru, Kabupaten Mimika, Papua 99971;Kwamki, Kec. Mimika Baru, Kabupaten Mimika;PAPUA;99971;Indonesia;901322829;;;-45.427.693;1.368.837.435;https://maps.google.com/?cid=0x0:0x4cea28f7389f57e8;
mall;Pusat Perbelanjaan;Mall Of Indonesia;Jl. Boulevard Bar. Raya No.12, RT.18/RW.19, Klp. Gading Bar., Kec. Klp. Gading, Jkt Utara, Daerah Khusus Ibukota Jakarta 14240;RT.18/RW.19, Klp. Gading Bar., Kec. Klp. Gading, Jkt Utara;PAPUA;14240;Indonesia;2145867888;;;-61.514.549;1.068.918.949;https://maps.google.com/?cid=0x0:0x3431c7aaadd1f1b6;
mall;Pusat Perbelanjaan;Ramayana Timika;Jl. Cendrawasih No.66, Kwamki, Kec. Mimika Baru, Kabupaten Mimika, Papua 99910;Kwamki, Kec. Mimika Baru, Kabupaten Mimika;PAPUA;99910;Indonesia;81219332254;;;-45.408.303;1.368.776.915;https://maps.google.com/?cid=0x0:0x1129eedce4df0ad3;
mall;Pusat Perbelanjaan;Ratu Plaza;Jl. Jenderal Sudirman No.Kav. 9, RT.1/RW.3, Gelora, Kecamatan Tanah Abang, Kota Jakarta Pusat, Daerah Khusus Ibukota Jakarta 10270;RT.1/RW.3, Gelora, Kecamatan Tanah Abang, Kota Jakarta Pusat;PAPUA;10270;Indonesia;217394499;;;-62.266.481;1.068.015.903;https://maps.google.com/?cid=0x0:0x1fa8acd75c6678b;
mall;Pusat Perbelanjaan;Tokolhyna;Jl. Megantara No.34, Kamoro Jaya, Kec. Mimika Baru, Kabupaten Mimika, Papua 99971;Kamoro Jaya, Kec. Mimika Baru, Kabupaten Mimika;PAPUA;99971;Indonesia;81343817281;;;-45.798.812;1.368.692.634;https://maps.google.com/?cid=0x0:0x2a66da21cd1ca3f2;
mall;Pusat Perbelanjaan;Gajah Mada Plaza Mall;Jl. Gajah Mada No.19 26, RT.2/RW.1, North Petojo, Gambir, Central Jakarta City, Jakarta 10130;RT.2/RW.1, North Petojo, Gambir, Central Jakarta City;PAPUA;10130;Indonesia;2163858888;;;-61.607.576;1.068.187.836;https://maps.google.com/?cid=0x0:0x66b6d7b7ea79dc8a;
mall;Pusat Perbelanjaan;MEGA SQUARE;Jl. Yos Sudarso, Nawaripi, Kec. Mimika Baru, Kabupaten Mimika, Papua 99910;Nawaripi, Kec. Mimika Baru, Kabupaten Mimika;PAPUA;99910;Indonesia;9013260302;;;-45.546.591;1.368.889.479;https://maps.google.com/?cid=0x0:0x11dbe3ff2ca8b52b;
mall;Penginapan;Mess Crew Timika Mall;CVMP+VR3, Timika,, Koperapoka, Kec. Mimika Baru, Kabupaten Mimika, Papua 99971;Timika,, Koperapoka, Kec. Mimika Baru, Kabupaten Mimika;PAPUA;99971;Indonesia;;;;-45.653.566;136.887.045;https://maps.google.com/?cid=0x0:0x8b62fecd0ac19a7b;
mall;Pusat Perbelanjaan;Fun world;Jl. Hasanuddin No.1, Nawaripi, Kec. Mimika Baru, Kabupaten Mimika, Papua 99971;Nawaripi, Kec. Mimika Baru, Kabupaten Mimika;PAPUA;99971;Indonesia;901321598;;;-45.673.588;1.368.869.773;https://maps.google.com/?cid=0x0:0xbc3871058084dfe4;
mall;Pusat Perbelanjaan;Mess Timika Mall;Jl. Hasanuddin No.9, Nawaripi, Kec. Mimika Baru, Kabupaten Mimika, Papua 99971;Nawaripi, Kec. Mimika Baru, Kabupaten Mimika;PAPUA;99971;Indonesia;82248679385;;;-45.668.616;1.368.863.407;https://maps.google.com/?cid=0x0:0x92c4e1594bcbbea;
mall;Pusat Perbelanjaan;Kompleks belakang timika mall;CVJP+RMH Timika mall, Nawaripi, Kec. Mimika Baru, Kabupaten Mimika, Papua;Kabupaten Mimika, Papua;PAPUA;;Indonesia;;;;-45.679.428;1.368.867.419;https://maps.google.com/?cid=0x0:0x7e82358be57c0d1;
mall;Pusat Perbelanjaan;KIOS RIYAL;CV6F+7G8, Wonosari Jaya, Kec. Mimika Baru, Kabupaten Mimika, Papua 99971;Wonosari Jaya, Kec. Mimika Baru, Kabupaten Mimika;PAPUA;99971;Indonesia;81344183991;;;-4.589.338;1.368.738.206;https://maps.google.com/?cid=0x0:0xc2fdaf1e02794b9f;
mall;Toko Perlengkapan Rumah;Cahaya Maret;CV6C+GXM, Kamoro Jaya, Kec. Mimika Baru, Kabupaten Mimika, Papua 99971;Kamoro Jaya, Kec. Mimika Baru, Kabupaten Mimika;PAPUA;99971;Indonesia;82346555954;;;-4.588.666;136.872.411;https://maps.google.com/?cid=0x0:0x47c9c5dc981c22ce;
mall;Toko;DEKY SAGAY;FRGR+GWQ, Jl. Poros SP V - SP II, Timika Jaya, Kec. Mimika Baru, Kabupaten Mimika, Papua 99963;Jl. Poros SP V - SP II, Timika Jaya, Kec. Mimika Baru, Kabupaten Mimika;PAPUA;99963;Indonesia;85354000623;;;-45.236.609;1.368.423.712;https://maps.google.com/?cid=0x0:0x17a89f72ed979988;
mall;Toko umum;KIOS NAILA;CV6F+J6F, Jl. Yos Sudarso, Nawaripi, Kec. Mimika Baru, Kabupaten Mimika, Papua 99971;Jl. Yos Sudarso, Nawaripi, Kec. Mimika Baru, Kabupaten Mimika;PAPUA;99971;Indonesia;;;;-45.885.128;1.368.730.124;https://maps.google.com/?cid=0x0:0xd9ed13d00205cca5;
mall;Kantor Perusahaan;pusat produk NASA TIMIKA;CVWP+WJM, Jl. Pendidikan, Koperapoka, Kec. Mimika Baru, Kabupaten Mimika, Papua 99971;Jl. Pendidikan, Koperapoka, Kec. Mimika Baru, Kabupaten Mimika;PAPUA;99971;Indonesia;82238983357;;;-45.526.684;1.368.865.512;https://maps.google.com/?cid=0x0:0x6609a587e97372ea;
mall;Pusat Perbelanjaan;Mall Jayapura;APO, Jl. Samratulangi, Bayangkara, Kec. Jayapura Utara, Kota Jayapura, Papua 99112;Jl. Samratulangi, Bayangkara, Kec. Jayapura Utara, Kota Jayapura;PAPUA;99112;Indonesia;9675150000;;;-25.351.775;1.407.061.874;https://maps.google.com/?cid=0x0:0x54294cb27964023;
mall;Toko Perlengkapan Rumah;Toko Jarwal Bangunan;Kamoro Jaya, Kec. Mimika Baru, Kabupaten Mimika, Papua 99971;Kec. Mimika Baru, Kabupaten Mimika;PAPUA;99971;Indonesia;;;;-45.656.564;1.368.718.615;https://maps.google.com/?cid=0x0:0x6cdc385accf4a8b;
mall;Toko Bunga;Kembang Vonny;Jl. Budi Utomo No.119, Kwamki, Kec. Mimika Baru, Kabupaten Mimika, Papua 99971;Kwamki, Kec. Mimika Baru, Kabupaten Mimika;PAPUA;99971;Indonesia;82199496789;;;-45.600.223;1.368.809.644;https://maps.google.com/?cid=0x0:0x7c55f45e819d1631;
mall;Pusat Perbelanjaan;Timika Mall;57522, Jl. Hasanuddin No.9, Nawaripi, Mimika Baru, Mimika Regency, Papua 99971;Jl. Hasanuddin No.9, Nawaripi, Mimika Baru, Mimika Regency;PAPUA;99971;Indonesia;;;;-45.673.682;1.368.869.612;https://maps.google.com/?cid=0x0:0x146edd1a60cab3dd;
mall;Pusat Perbelanjaan;Ramayana Timika;Jl. Cendrawasih No.66, Kwamki, Kec. Mimika Baru, Kabupaten Mimika, Papua 99910;Kwamki, Kec. Mimika Baru, Kabupaten Mimika;PAPUA;99910;Indonesia;81219332254;;;-45.408.303;1.368.776.915;https://maps.google.com/?cid=0x0:0x1129eedce4df0ad3;
mall;Restoran;RM Duta;CVMP+3P8, Nawaripi, Kec. Mimika Baru, Kabupaten Mimika, Papua 99971;Nawaripi, Kec. Mimika Baru, Kabupaten Mimika;PAPUA;99971;Indonesia;;;;-45.673.458;136.886.813;https://maps.google.com/?cid=0x0:0xc9a9476f7c104d5e;
mall;Pusat Perbelanjaan;Kuningan Citymall;Jl. Prof. DR. Satrio No.Kav. 18, Kuningan, Karet Kuningan, Kecamatan Setiabudi, Kota Jakarta Selatan, Daerah Khusus Ibukota Jakarta 12940;Kuningan, Karet Kuningan, Kecamatan Setiabudi, Kota Jakarta Selatan;PAPUA;12940;Indonesia;2157905555;;;-62.250.136;106.829.553;https://maps.google.com/?cid=0x0:0x420d8f1dfd4d9452;
mall;Pusat Perbelanjaan;Lotte Shopping Avenue Mall;Jl. Prof. DR. Satrio No.Kav.3, RW.5, Kuningan, Karet Kuningan, Kecamatan Setiabudi, Kota Jakarta Selatan, Daerah Khusus Ibukota Jakarta 12940;RW.5, Kuningan, Karet Kuningan, Kecamatan Setiabudi, Kota Jakarta Selatan;PAPUA;12940;Indonesia;2129889292;;;-62.233.644;1.068.232.981;https://maps.google.com/?cid=0x0:0xe8323175da8b9770;
mall;Pusat Perbelanjaan;Grand Indonesia Shopping Town;Jl. M.H. Thamrin No.1, Menteng, Kec. Menteng, Kota Jakarta Pusat, Daerah Khusus Ibukota Jakarta 10310;Menteng, Kec. Menteng, Kota Jakarta Pusat;PAPUA;10310;Indonesia;2123580001;;;-61.965.848;1.068.224.882;https://maps.google.com/?cid=0x0:0xccfcc89b95aaf1ae;
mall;Pusat Perbelanjaan;Mall Kota Kasablanka;Jl. Raya Casablanca No.Kav 88, Menteng Dalam, Kec. Tebet, Kota Jakarta Selatan, Daerah Khusus Ibukota Jakarta 12870;Menteng Dalam, Kec. Tebet, Kota Jakarta Selatan;PAPUA;12870;Indonesia;2129465000;;;-62.240.353;1.068.425.979;https://maps.google.com/?cid=0x0:0xaf54cb631563acce;
mall;Pusat Perbelanjaan;Mall Of Indonesia;Jl. Boulevard Bar. Raya No.12, RT.18/RW.19, Klp. Gading Bar., Kec. Klp. Gading, Jkt Utara, Daerah Khusus Ibukota Jakarta 14240;RT.18/RW.19, Klp. Gading Bar., Kec. Klp. Gading, Jkt Utara;PAPUA;14240;Indonesia;2145867888;;;-61.514.549;1.068.918.949;https://maps.google.com/?cid=0x0:0x3431c7aaadd1f1b6;
mall;Pusat Perbelanjaan;Central Park;Jl. Letjen S. Parman No.Kav. 28, Tj. Duren Sel., Kec. Grogol petamburan, Kota Jakarta Barat, Daerah Khusus Ibukota Jakarta 11470;Tj. Duren Sel., Kec. Grogol petamburan, Kota Jakarta Barat;PAPUA;11470;Indonesia;2156989999;;;-61.771.373;1.067.909.788;https://maps.google.com/?cid=0x0:0xe816d65037c3207a;
mall;Pusat Perbelanjaan;Gandaria City;Jl. Sultan Iskandar Muda, Gandaria, Kec. Kby. Lama, Kota Jakarta Selatan, Daerah Khusus Ibukota Jakarta 12240;Gandaria, Kec. Kby. Lama, Kota Jakarta Selatan;PAPUA;12240;Indonesia;2129052888;;;-62.443.009;1.067.829.375;https://maps.google.com/?cid=0x0:0x6173704d396d5a99;
mall;Pusat Perbelanjaan;Thamrin City;Jl. Thamrin Boulevard, Kb. Melati, Kecamatan Tanah Abang, Kota Jakarta Pusat, Daerah Khusus Ibukota Jakarta 10230;Kb. Melati, Kecamatan Tanah Abang, Kota Jakarta Pusat;PAPUA;10230;Indonesia;2131990988;;;-61.939.374;1.068.161.005;https://maps.google.com/?cid=0x0:0x1b60abd2e0b3d6d1;
mall;Pusat Perbelanjaan;Timika Mall;57522, Jl. Hasanuddin No.9, Nawaripi, Mimika Baru, Mimika Regency, Papua 99971;Jl. Hasanuddin No.9, Nawaripi, Mimika Baru, Mimika Regency;PAPUA;99971;Indonesia;;;;-45.673.682;1.368.869.612;https://maps.google.com/?cid=0x0:0x146edd1a60cab3dd;
mall;Pusat Perbelanjaan;Ramayana Timika;Jl. Cendrawasih No.66, Kwamki, Kec. Mimika Baru, Kabupaten Mimika, Papua 99910;Kwamki, Kec. Mimika Baru, Kabupaten Mimika;PAPUA;99910;Indonesia;81219332254;;;-45.408.303;1.368.776.915;https://maps.google.com/?cid=0x0:0x1129eedce4df0ad3;
mall;Restoran;RM Duta;CVMP+3P8, Nawaripi, Kec. Mimika Baru, Kabupaten Mimika, Papua 99971;Nawaripi, Kec. Mimika Baru, Kabupaten Mimika;PAPUA;99971;Indonesia;;;;-45.673.458;136.886.813;https://maps.google.com/?cid=0x0:0xc9a9476f7c104d5e;
mall;mall;Papua 99971;Kabupaten Mimika, Papua;Kabupaten Mimika, Papua;PAPUA;;Indonesia;;;;-47.222.914;136.941.659;https://maps.google.com/?cid=0x0:0x309b23773920c02b;
mall;Penginapan;Mess Crew Timika Mall;CVMP+VR3, Timika,, Koperapoka, Kec. Mimika Baru, Kabupaten Mimika, Papua 99971;Timika,, Koperapoka, Kec. Mimika Baru, Kabupaten Mimika;PAPUA;99971;Indonesia;;;;-45.653.566;136.887.045;https://maps.google.com/?cid=0x0:0x8b62fecd0ac19a7b;
mall;Pusat Perbelanjaan;Jl.pemuda Utara Spi;CV59+73R, Unnamed Rd, Kamoro Jaya, Kec. Mimika Baru, Kabupaten Mimika, Papua 99971;Unnamed Rd, Kamoro Jaya, Kec. Mimika Baru, Kabupaten Mimika;PAPUA;99971;Indonesia;;;;-45.917.652;1.368.676.322;https://maps.google.com/?cid=0x0:0xac6b78005a2dc6fb;
mall;Kafe;JCO COFFEE  DONUTS TIMIKA MALL;CVJP+XQ2, Nawaripi, Kec. Mimika Baru, Kabupaten Mimika, Papua 99971;Nawaripi, Kec. Mimika Baru, Kabupaten Mimika;PAPUA;99971;Indonesia;8158898000;;;-45.676.038;1.368.869.059;https://maps.google.com/?cid=0x0:0x45c3202312087e39;
mall;Pusat Perbelanjaan;Mess Timika Mall;Jl. Hasanuddin No.9, Nawaripi, Kec. Mimika Baru, Kabupaten Mimika, Papua 99971;Nawaripi, Kec. Mimika Baru, Kabupaten Mimika;PAPUA;99971;Indonesia;82248679385;;;-45.668.616;1.368.863.407;https://maps.google.com/?cid=0x0:0x92c4e1594bcbbea;
mall;Pusat Perbelanjaan;Tokolhyna;Jl. Megantara No.34, Kamoro Jaya, Kec. Mimika Baru, Kabupaten Mimika, Papua 99971;Kamoro Jaya, Kec. Mimika Baru, Kabupaten Mimika;PAPUA;99971;Indonesia;81343817281;;;-45.798.812;1.368.692.634;https://maps.google.com/?cid=0x0:0x2a66da21cd1ca3f2;
mall;Pusat Perbelanjaan;Fun world;Jl. Hasanuddin No.1, Nawaripi, Kec. Mimika Baru, Kabupaten Mimika, Papua 99971;Nawaripi, Kec. Mimika Baru, Kabupaten Mimika;PAPUA;99971;Indonesia;901321598;;;-45.673.588;1.368.869.773;https://maps.google.com/?cid=0x0:0xbc3871058084dfe4;
mall;Layanan Distribusi;Senja Indah Mart;CVM8+XP4, Kamoro Jaya, Kec. Mimika Baru, Kabupaten Mimika, Papua 99971;Kamoro Jaya, Kec. Mimika Baru, Kabupaten Mimika;PAPUA;99971;Indonesia;;;;-45.651.166;1.368.668.316;https://maps.google.com/?cid=0x0:0x74b9b9ba08f6b532;
mall;Toko bahan makanan;Diana Supermarket;Jl. Budi Utomo No.8, Kwamki, Kec. Mimika Baru, Kabupaten Mimika, Papua 99971;Kwamki, Kec. Mimika Baru, Kabupaten Mimika;PAPUA;99971;Indonesia;901322829;;;-45.427.693;1.368.837.435;https://maps.google.com/?cid=0x0:0x4cea28f7389f57e8;
mall;Toko Perlengkapan Rumah;Cahaya Maret;CV6C+GXM, Kamoro Jaya, Kec. Mimika Baru, Kabupaten Mimika, Papua 99971;Kamoro Jaya, Kec. Mimika Baru, Kabupaten Mimika;PAPUA;99971;Indonesia;82346555954;;;-4.588.666;136.872.411;https://maps.google.com/?cid=0x0:0x47c9c5dc981c22ce;
mall;Pasar;Toko Mitra Jaya;CVMF+PHM, Jl. Hasanuddin Jl. Irigasi, Kamoro Jaya, Kec. Mimika Baru, Kabupaten Mimika, Papua 99971;Jl. Hasanuddin Jl. Irigasi, Kamoro Jaya, Kec. Mimika Baru, Kabupaten Mimika;PAPUA;99971;Indonesia;81240993700;;;-4.565.658;1.368.739.133;https://maps.google.com/?cid=0x0:0x7cf55f8cb0198f35;
mall;Pusat Perbelanjaan;Reski 77 Aksesoris;CVXQ+3GR, Timika Jaya, Kec. Mimika Baru, Kabupaten Mimika, Papua 99971;Timika Jaya, Kec. Mimika Baru, Kabupaten Mimika;PAPUA;99971;Indonesia;8114993334;;;-45.522.687;1.368.887.764;https://maps.google.com/?cid=0x0:0xc1c2d10aeeb2c3c4;
mall;Toko Perlengkapan Rumah;Toko Jarwal Bangunan;Kamoro Jaya, Kec. Mimika Baru, Kabupaten Mimika, Papua 99971;Kec. Mimika Baru, Kabupaten Mimika;PAPUA;99971;Indonesia;;;;-45.656.564;1.368.718.615;https://maps.google.com/?cid=0x0:0x6cdc385accf4a8b;
mall;Pusat Perbelanjaan;KIOS RIYAL;CV6F+7G8, Wonosari Jaya, Kec. Mimika Baru, Kabupaten Mimika, Papua 99971;Wonosari Jaya, Kec. Mimika Baru, Kabupaten Mimika;PAPUA;99971;Indonesia;81344183991;;;-4.589.338;1.368.738.206;https://maps.google.com/?cid=0x0:0xc2fdaf1e02794b9f;
mall;Toko Bunga;Kembang Vonny;Jl. Budi Utomo No.119, Kwamki, Kec. Mimika Baru, Kabupaten Mimika, Papua 99971;Kwamki, Kec. Mimika Baru, Kabupaten Mimika;PAPUA;99971;Indonesia;82199496789;;;-45.600.223;1.368.809.644;https://maps.google.com/?cid=0x0:0x7c55f45e819d1631;
mall;Pusat Perbelanjaan;MEGA SQUARE;Jl. Yos Sudarso, Nawaripi, Kec. Mimika Baru, Kabupaten Mimika, Papua 99910;Nawaripi, Kec. Mimika Baru, Kabupaten Mimika;PAPUA;99910;Indonesia;9013260302;;;-45.546.591;1.368.889.479;https://maps.google.com/?cid=0x0:0x11dbe3ff2ca8b52b;
mall;Toko;Alfiya Store;CV48+F4J, Jl. Jalur 3, Kamoro Jaya, Kec. Mimika Baru, Kabupaten Mimika, Papua 99971;Jl. Jalur 3, Kamoro Jaya, Kec. Mimika Baru, Kabupaten Mimika;PAPUA;99971;Indonesia;81248282454;;;-45.937.794;1.368.652.789;https://maps.google.com/?cid=0x0:0x5bc475a2506b03bb;
mall;Pusat Perbelanjaan;TRIPOINT(Pusat oleh-oleh timika Papua / kaos dan batik papua);Jl. Budi Utomo No.88a, Kwamki, Kec. Mimika Baru, Kabupaten Mimika, Papua 99971;Kwamki, Kec. Mimika Baru, Kabupaten Mimika;PAPUA;99971;Indonesia;81344448464;;;-45.431.006;1.368.840.793;https://maps.google.com/?cid=0x0:0xfb3a14721c808280;
mall;Pusat Perbelanjaan;Aksesoris timika;CVRV+C7F, Jl. Leo Mamiri, Koperapoka, Kec. Mimika Baru, Kabupaten Mimika, Papua 99971;Jl. Leo Mamiri, Koperapoka, Kec. Mimika Baru, Kabupaten Mimika;PAPUA;99971;Indonesia;81343096920;;;-45.589.497;1.368.931.802;https://maps.google.com/?cid=0x0:0x417bea8768e52fd7;
mall;mall;Papua 99968;Kabupaten Mimika, Papua;Kabupaten Mimika, Papua;PAPUA;;Indonesia;;;;-42.590.064;1.365.547.852;https://maps.google.com/?cid=0x0:0x32d5cd81eafb994;
mall;mall;Kec. Kuala Kencana;Kabupaten Mimika, Papua;Kabupaten Mimika, Papua;PAPUA;;Indonesia;;;;-43.653.215;1.367.478.493;https://maps.google.com/?cid=0x0:0xeec735e2ce5877e2;
mall;Pusat Perbelanjaan;Timika Mall;57522, Jl. Hasanuddin No.9, Nawaripi, Mimika Baru, Mimika Regency, Papua 99971;Jl. Hasanuddin No.9, Nawaripi, Mimika Baru, Mimika Regency;PAPUA;99971;Indonesia;;;;-45.673.682;1.368.869.612;https://maps.google.com/?cid=0x0:0x146edd1a60cab3dd;
mall;mall;Kios putra Buton;PQ94+J7Q, Bhintuka, Kec. Kuala Kencana, Kabupaten Mimika, Papua 99968;Bhintuka, Kec. Kuala Kencana, Kabupaten Mimika;PAPUA;99968;Indonesia;;;;-4.280.917;13.675.574;https://maps.google.com/?cid=0x0:0xc6b9470b4352416a;
mall;Toko bahan makanan;Diana Supermarket;Jl. Budi Utomo No.8, Kwamki, Kec. Mimika Baru, Kabupaten Mimika, Papua 99971;Kwamki, Kec. Mimika Baru, Kabupaten Mimika;PAPUA;99971;Indonesia;901322829;;;-45.427.693;1.368.837.435;https://maps.google.com/?cid=0x0:0x4cea28f7389f57e8;
mall;Taman;Alun Alun Kuala Kencana (Freeport);JV49+534, alun alun kuala kencana, Kuala Kencana, Kec. Kuala Kencana, Kabupaten Mimika, Papua 99910;alun alun kuala kencana, Kuala Kencana, Kec. Kuala Kencana, Kabupaten Mimika;PAPUA;99910;Indonesia;;;;-43.946.122;136.867.707;https://maps.google.com/?cid=0x0:0xf3456fbe932d3c3;
mall;Pusat Perbelanjaan;Fun world;Jl. Hasanuddin No.1, Nawaripi, Kec. Mimika Baru, Kabupaten Mimika, Papua 99971;Nawaripi, Kec. Mimika Baru, Kabupaten Mimika;PAPUA;99971;Indonesia;901321598;;;-45.673.588;1.368.869.773;https://maps.google.com/?cid=0x0:0xbc3871058084dfe4;
mall;Toko;RUKO MENUI LOMBOK PAPUA (MENBOK);GQ7M+GMV, Mulia Kencana, Kec. Kuala Kencana, Kabupaten Mimika, Papua 99910;Mulia Kencana, Kec. Kuala Kencana, Kabupaten Mimika;PAPUA;99910;Indonesia;82239692687;;;-44.861.404;1.367.841.842;https://maps.google.com/?cid=0x0:0x6d3cbe96906b9aeb;
mall;Komplek perumahan;Pasar sp3;GVC3+WX2, Karang Senang, Kec. Kuala Kencana, Kabupaten Mimika, Papua 99910;Karang Senang, Kec. Kuala Kencana, Kabupaten Mimika;PAPUA;99910;Indonesia;;;;-44.777.458;136.854.882;https://maps.google.com/?cid=0x0:0x49e154a12bfacc47;
mall;Pusat Perbelanjaan;Ramayana Timika;Jl. Cendrawasih No.66, Kwamki, Kec. Mimika Baru, Kabupaten Mimika, Papua 99910;Kwamki, Kec. Mimika Baru, Kabupaten Mimika;PAPUA;99910;Indonesia;81219332254;;;-45.408.303;1.368.776.915;https://maps.google.com/?cid=0x0:0x1129eedce4df0ad3;
mall;Penginapan;Mess Crew Timika Mall;CVMP+VR3, Timika,, Koperapoka, Kec. Mimika Baru, Kabupaten Mimika, Papua 99971;Timika,, Koperapoka, Kec. Mimika Baru, Kabupaten Mimika;PAPUA;99971;Indonesia;;;;-45.653.566;136.887.045;https://maps.google.com/?cid=0x0:0x8b62fecd0ac19a7b;
mall;Pusat Perbelanjaan;MEGA SQUARE;Jl. Yos Sudarso, Nawaripi, Kec. Mimika Baru, Kabupaten Mimika, Papua 99910;Nawaripi, Kec. Mimika Baru, Kabupaten Mimika;PAPUA;99910;Indonesia;9013260302;;;-45.546.591;1.368.889.479;https://maps.google.com/?cid=0x0:0x11dbe3ff2ca8b52b;
mall;Toko umum;Kios kalila;GRP6+W3F, Utikini Baru, Kec. Kuala Kencana, Kabupaten Mimika, Papua 99910;Utikini Baru, Kec. Kuala Kencana, Kabupaten Mimika;PAPUA;99910;Indonesia;;;;-44.626.786;1.368.101.807;https://maps.google.com/?cid=0x0:0x5233e599bad17e95;
mall;Toko;Kios putra buton;GRP6+W3F, Unnamed Road, Utikini Baru, Kec. Kuala Kencana, Kabupaten Mimika, Papua 99910;Unnamed Road, Utikini Baru, Kec. Kuala Kencana, Kabupaten Mimika;PAPUA;99910;Indonesia;;;;-44.625.479;1.368.102.266;https://maps.google.com/?cid=0x0:0xf278467d6c16348b;
mall;Toko;Foto Copy Arny;GRCX+CXW, Karang Senang, Kec. Kuala Kencana, Kabupaten Mimika, Papua 99910;Karang Senang, Kec. Kuala Kencana, Kabupaten Mimika;PAPUA;99910;Indonesia;;;;-44.788.944;1.368.499.507;https://maps.google.com/?cid=0x0:0xdeaab7a87c0bc231;
mall;Layanan Distribusi;Senja Indah Mart;CVM8+XP4, Kamoro Jaya, Kec. Mimika Baru, Kabupaten Mimika, Papua 99971;Kamoro Jaya, Kec. Mimika Baru, Kabupaten Mimika;PAPUA;99971;Indonesia;;;;-45.651.166;1.368.668.316;https://maps.google.com/?cid=0x0:0x74b9b9ba08f6b532;
mall;Hotel;Timika papua sp5;FQ7G+QCH, Limau Asri, Kec. Mimika Baru, Kabupaten Mimika, Papua Bar.;Kabupaten Mimika, Papua Bar.;PAPUA;;Indonesia;;;;-45.355.576;1.367.761.115;https://maps.google.com/?cid=0x0:0x4917f95e55ed500e;
mall;Toko;Kios Murah;GVC3+WCF, Jl. Sp III, Karang Senang, Kec. Kuala Kencana, Kabupaten Mimika, Papua 99910;Jl. Sp III, Karang Senang, Kec. Kuala Kencana, Kabupaten Mimika;PAPUA;99910;Indonesia;81354162867;;;-44.776.811;136.853.538;https://maps.google.com/?cid=0x0:0x60d3534bb2507e2b;
mall;Toko Bunga;Kembang Vonny;Jl. Budi Utomo No.119, Kwamki, Kec. Mimika Baru, Kabupaten Mimika, Papua 99971;Kwamki, Kec. Mimika Baru, Kabupaten Mimika;PAPUA;99971;Indonesia;82199496789;;;-45.600.223;1.368.809.644;https://maps.google.com/?cid=0x0:0x7c55f45e819d1631;
mall;Pusat Perbelanjaan;OLEH OLEH KHAS PAPUA;GRCX+4QG, Unnamed Road, Karang Senang, Kec. Kuala Kencana, Kabupaten Mimika, Papua 99910;Unnamed Road, Karang Senang, Kec. Kuala Kencana, Kabupaten Mimika;PAPUA;99910;Indonesia;81336094048;;;-44.796.792;1.368.494.428;https://maps.google.com/?cid=0x0:0x3a29a778fc4ad633;
mall;Pusat Perbelanjaan;ANHA SOUVENIR ART SHOP;Jl. Kebun Sirih No.37B, Kwamki, Kec. Mimika Baru, Kabupaten Mimika, Papua 99971;Kwamki, Kec. Mimika Baru, Kabupaten Mimika;PAPUA;99971;Indonesia;85394562164;;;-45.443.754;136.894.986;https://maps.google.com/?cid=0x0:0x9064f2bfe0e3b32d;
mall;Pusat Perbelanjaan;Reski 77 Aksesoris;CVXQ+3GR, Timika Jaya, Kec. Mimika Baru, Kabupaten Mimika, Papua 99971;Timika Jaya, Kec. Mimika Baru, Kabupaten Mimika;PAPUA;99971;Indonesia;8114993334;;;-45.522.687;1.368.887.764;https://maps.google.com/?cid=0x0:0xc1c2d10aeeb2c3c4;
mall;Pusat Perbelanjaan;Diana Mall XXI;Diana Mall Timika, Jl. Budi Utomo No.8 Lt. 6, Kwamki, Kec. Mimika Baru, Kabupaten Mimika, Papua 99971;Jl. Budi Utomo No.8 Lt. 6, Kwamki, Kec. Mimika Baru, Kabupaten Mimika;PAPUA;99971;Indonesia;8873070010;;;-45.420.634;1.368.835.379;https://maps.google.com/?cid=0x0:0x10f4b67038a1ac50;
mall;Toko Bahan Bangunan;TK. BSB (Distributor Bahan Bangunan);FV2W+PG2, Kwamki, Kec. Mimika Baru, Kabupaten Mimika, Papua 99971;Kwamki, Kec. Mimika Baru, Kabupaten Mimika;PAPUA;99971;Indonesia;85216670891;;;-45.482.327;136.896.264;https://maps.google.com/?cid=0x0:0x3eaef42db1bea5f6;
mall;Kantor Perusahaan;pusat produk NASA TIMIKA;CVWP+WJM, Jl. Pendidikan, Koperapoka, Kec. Mimika Baru, Kabupaten Mimika, Papua 99971;Jl. Pendidikan, Koperapoka, Kec. Mimika Baru, Kabupaten Mimika;PAPUA;99971;Indonesia;82238983357;;;-45.526.684;1.368.865.512;https://maps.google.com/?cid=0x0:0x6609a587e97372ea;
mall;mall;Papua 99967;Kabupaten Mimika, Papua;Kabupaten Mimika, Papua;PAPUA;;Indonesia;;;;-42.294.388;1.370.193.913;https://maps.google.com/?cid=0x0:0x89f915cf55d48161;
mall;Pusat Perbelanjaan;Shopping Family Tembagapura;V34Q+XXH, Tembagapura, Arwandop, Tembagapura, Kec. Tembagapura, Kabupaten Mimika, Papua 99967;Tembagapura, Arwandop, Tembagapura, Kec. Tembagapura, Kabupaten Mimika;PAPUA;99967;Indonesia;;;;-41.425.625;1.370.899.844;https://maps.google.com/?cid=0x0:0x23ff3f0a601439a2;
mall;Toko Swalayan;Primo Supermarket Tembagapura;Tembagapura, Kec. Tembagapura, Kabupaten Mimika, Papua 98972;Kec. Tembagapura, Kabupaten Mimika;PAPUA;98972;Indonesia;;;;-41.423.125;1.370.900.625;https://maps.google.com/?cid=0x0:0x79e7c0e104f18094;
mall;Kompleks Olahraga;Sporthall Mile 68 Tembagapura;Arwandop, Kec. Tembagapura, Kabupaten Mimika, Papua 98972;Kec. Tembagapura, Kabupaten Mimika;PAPUA;98972;Indonesia;;;;-41.414.725;137.091.039;https://maps.google.com/?cid=0x0:0x479ffe9520544de5;
mall;Balai masyarakat;Plaza Agawaa Ogom;V4R2+53Q, Tembagapura, Kec. Tembagapura, Kabupaten Mimika, Papua 98972;Tembagapura, Kec. Tembagapura, Kabupaten Mimika;PAPUA;98972;Indonesia;;;;-41.095.287;1.371.002.252;https://maps.google.com/?cid=0x0:0x28909d5c3b81fbc0;
mall;Perusahaan Pertambangan;PT Freeport;Baru, Kec. Tembagapura, Kabupaten Mimika, Papua 98972;Kec. Tembagapura, Kabupaten Mimika;PAPUA;98972;Indonesia;;;;-40.469.595;1.371.201.923;https://maps.google.com/?cid=0x0:0x13f46080d5eac84;
mall;Pusat Perbelanjaan;Timika Mall;57522, Jl. Hasanuddin No.9, Nawaripi, Mimika Baru, Mimika Regency, Papua 99971;Jl. Hasanuddin No.9, Nawaripi, Mimika Baru, Mimika Regency;PAPUA;99971;Indonesia;;;;-45.673.682;1.368.869.612;https://maps.google.com/?cid=0x0:0x146edd1a60cab3dd;
mall;Pusat Perbelanjaan;Ramayana Timika;Jl. Cendrawasih No.66, Kwamki, Kec. Mimika Baru, Kabupaten Mimika, Papua 99910;Kwamki, Kec. Mimika Baru, Kabupaten Mimika;PAPUA;99910;Indonesia;81219332254;;;-45.408.303;1.368.776.915;https://maps.google.com/?cid=0x0:0x1129eedce4df0ad3;
mall;Restoran;RM Duta;CVMP+3P8, Nawaripi, Kec. Mimika Baru, Kabupaten Mimika, Papua 99971;Nawaripi, Kec. Mimika Baru, Kabupaten Mimika;PAPUA;99971;Indonesia;;;;-45.673.458;136.886.813;https://maps.google.com/?cid=0x0:0xc9a9476f7c104d5e;
mall;Pusat Perbelanjaan;Timika Mall;57522, Jl. Hasanuddin No.9, Nawaripi, Mimika Baru, Mimika Regency, Papua 99971;Jl. Hasanuddin No.9, Nawaripi, Mimika Baru, Mimika Regency;PAPUA;99971;Indonesia;;;;-45.673.682;1.368.869.612;https://maps.google.com/?cid=0x0:0x146edd1a60cab3dd;
mall;Pusat Perbelanjaan;Ramayana Timika;Jl. Cendrawasih No.66, Kwamki, Kec. Mimika Baru, Kabupaten Mimika, Papua 99910;Kwamki, Kec. Mimika Baru, Kabupaten Mimika;PAPUA;99910;Indonesia;81219332254;;;-45.408.303;1.368.776.915;https://maps.google.com/?cid=0x0:0x1129eedce4df0ad3;
mall;Restoran;RM Duta;CVMP+3P8, Nawaripi, Kec. Mimika Baru, Kabupaten Mimika, Papua 99971;Nawaripi, Kec. Mimika Baru, Kabupaten Mimika;PAPUA;99971;Indonesia;;;;-45.673.458;136.886.813;https://maps.google.com/?cid=0x0:0xc9a9476f7c104d5e;
mall;mall;Papua 99564;Papua;Papua;PAPUA;;Indonesia;;;;-42.226.519;1.383.190.276;https://maps.google.com/?cid=0x0:0x12113e40469ed72c;
mall;Pusat Perbelanjaan;Timika Mall;57522, Jl. Hasanuddin No.9, Nawaripi, Mimika Baru, Mimika Regency, Papua 99971;Jl. Hasanuddin No.9, Nawaripi, Mimika Baru, Mimika Regency;PAPUA;99971;Indonesia;;;;-45.673.682;1.368.869.612;https://maps.google.com/?cid=0x0:0x146edd1a60cab3dd;
mall;Pusat Perbelanjaan;Mall Jayapura;APO, Jl. Samratulangi, Bayangkara, Kec. Jayapura Utara, Kota Jayapura, Papua 99112;Jl. Samratulangi, Bayangkara, Kec. Jayapura Utara, Kota Jayapura;PAPUA;99112;Indonesia;9675150000;;;-25.351.775;1.407.061.874;https://maps.google.com/?cid=0x0:0x54294cb27964023;
mall;Pusat Perbelanjaan;Mall @ Alam Sutera;Jl. Jalur Sutera Bar. No.Kav. 16, RT.002/RW.003, Panunggangan Tim., Kec. Pinang, Kota Tangerang, Banten 15143;RT.002/RW.003, Panunggangan Tim., Kec. Pinang, Kota Tangerang;PAPUA;15143;Indonesia;2130438899;;;-6.221.679;1.066.541.314;https://maps.google.com/?cid=0x0:0x7637aedafd55dea8;
mall;Pemasok Bahan Bangunan;AM.Alam Makmur;Jl. Wibawa Mukti II No.11, RT.003/RW.006, Jatisari, Payangan, Kota Bks, Jawa Barat 17426;RT.003/RW.006, Jatisari, Payangan, Kota Bks;PAPUA;17426;Indonesia;81382450600;;;-6.350.836;106.940.662;https://maps.google.com/?cid=0x0:0xc8e8ac54e80fd840;
mall;Pusat Perbelanjaan;Mall Senayan City;Jl. Asia Afrika No.Lot 19, Gelora, Kecamatan Tanah Abang, Kota Jakarta Pusat, Daerah Khusus Ibukota Jakarta 10270;Gelora, Kecamatan Tanah Abang, Kota Jakarta Pusat;PAPUA;10270;Indonesia;2172781000;;;-62.271.953;1.067.970.117;https://maps.google.com/?cid=0x0:0x300c043104acc004;
mall;Pusat Perbelanjaan;Alam Shop;Jl. Nusa Indah 9 No.9c Blok N11, Kebalen, Kec. Babelan, Kabupaten Bekasi, Jawa Barat 17610;Kebalen, Kec. Babelan, Kabupaten Bekasi;PAPUA;17610;Indonesia;;;;-61.885.702;1.070.347.546;https://maps.google.com/?cid=0x0:0x2f404e7854d4d127;
mall;Pusat Perbelanjaan;Gandaria City;Jl. Sultan Iskandar Muda, Gandaria, Kec. Kby. Lama, Kota Jakarta Selatan, Daerah Khusus Ibukota Jakarta 12240;Gandaria, Kec. Kby. Lama, Kota Jakarta Selatan;PAPUA;12240;Indonesia;2129052888;;;-62.443.009;1.067.829.375;https://maps.google.com/?cid=0x0:0x6173704d396d5a99;
mall;Pusat Perbelanjaan;Mall Of Indonesia;Jl. Boulevard Bar. Raya No.12, RT.18/RW.19, Klp. Gading Bar., Kec. Klp. Gading, Jkt Utara, Daerah Khusus Ibukota Jakarta 14240;RT.18/RW.19, Klp. Gading Bar., Kec. Klp. Gading, Jkt Utara;PAPUA;14240;Indonesia;2145867888;;;-61.514.549;1.068.918.949;https://maps.google.com/?cid=0x0:0x3431c7aaadd1f1b6;
mall;Pusat Perbelanjaan;Emporium Pluit Mall;Jl. Pluit Selatan Raya No.1, Penjaringan, Kec. Penjaringan, Jkt Utara, Daerah Khusus Ibukota Jakarta 14440;Penjaringan, Kec. Penjaringan, Jkt Utara;PAPUA;14440;Indonesia;2166676288;;;-61.272.711;1.067.909.758;https://maps.google.com/?cid=0x0:0x54cb9f1766bde458;
mall;Pusat Perbelanjaan;Mall Artha Gading Jakarta;Jl. Artha Gading Sel. No.1, Klp. Gading Bar., Kec. Klp. Gading, Jkt Utara, Daerah Khusus Ibukota Jakarta 14240;Klp. Gading Bar., Kec. Klp. Gading, Jkt Utara;PAPUA;14240;Indonesia;2145864000;;;-61.457.739;1.068.919.187;https://maps.google.com/?cid=0x0:0x176166b3d087c724;
mall;Mal outlet;Supermal Karawaci;Jl. Boulevard Diponegoro No.105, Bencongan, Kec. Klp. Dua, Kabupaten Tangerang, Banten 15810;Bencongan, Kec. Klp. Dua, Kabupaten Tangerang;PAPUA;15810;Indonesia;215466666;;;-62.268.116;1.066.070.233;https://maps.google.com/?cid=0x0:0xc5927a7be82e23b8;
mall;Taman;Senayan Park;Jl. Gerbang Pemuda No.3, RT.1/RW.3, Gelora, Kecamatan Tanah Abang, Kota Jakarta Pusat, Daerah Khusus Ibukota Jakarta 10270;RT.1/RW.3, Gelora, Kecamatan Tanah Abang, Kota Jakarta Pusat;PAPUA;10270;Indonesia;212512030;;;-62.128.077;1.068.036.757;https://maps.google.com/?cid=0x0:0xc0ea4d9a9d1b2936;
mall;Toserba;Lamode Aloha Store;Jl. Komp. Perdagangan No.63 Blok G2, RT.9/RW.7, Telaga Asih, Kec. Cikarang Bar., Kabupaten Bekasi, Jawa Barat 17530;RT.9/RW.7, Telaga Asih, Kec. Cikarang Bar., Kabupaten Bekasi;PAPUA;17530;Indonesia;85777018069;;;-62.637.313;1.071.036.068;https://maps.google.com/?cid=0x0:0x26111c6bb6b86d4b;
supermarket;supermarket;Papua 99964;Kabupaten Mimika, Papua;Kabupaten Mimika, Papua;PAPUA;;Indonesia;;;;-45.348.379;1.373.706.554;https://maps.google.com/?cid=0x0:0x8a2567edb0b5d8c5;
supermarket;Toko bahan makanan;Diana Supermarket;Jl. Budi Utomo No.8, Kwamki, Kec. Mimika Baru, Kabupaten Mimika, Papua 99971;Kwamki, Kec. Mimika Baru, Kabupaten Mimika;PAPUA;99971;Indonesia;901322829;;;-45.427.693;1.368.837.435;https://maps.google.com/?cid=0x0:0x4cea28f7389f57e8;
supermarket;Toko Perlengkapan Rumah;Swalayan Senyum 5000 Timika 4;Jl. Yos Sudarso, Koperapoka, Kec. Mimika Baru, Kabupaten Mimika, Papua 99971;Koperapoka, Kec. Mimika Baru, Kabupaten Mimika;PAPUA;99971;Indonesia;;;;-45.516.616;1.368.890.596;https://maps.google.com/?cid=0x0:0xbe4c1c56419a926e;
supermarket;Pusat Perbelanjaan;Gelael Mimika;Jl. Cendrawasih, Kwamki, Kec. Mimika Baru, Kabupaten Mimika, Papua 99971;Kwamki, Kec. Mimika Baru, Kabupaten Mimika;PAPUA;99971;Indonesia;;;;-45.423.615;1.368.855.786;https://maps.google.com/?cid=0x0:0xe328b5916e8a944c;
supermarket;Pusat Perbelanjaan;Primo Supermarket Ridge Camp;V4R2+62, Tembagapura, Kec. Tembagapura, Kabupaten Mimika, Papua 98972;Tembagapura, Kec. Tembagapura, Kabupaten Mimika;PAPUA;98972;Indonesia;;;;-4.109.473;1.371.002.082;https://maps.google.com/?cid=0x0:0x759edca03c3b320f;
supermarket;Toko Swalayan;SHARON MART;Jl. Budi Utomo No.89, Pasar Central, Kec. Mimika Baru, Kabupaten Mimika, Papua 99910;Pasar Central, Kec. Mimika Baru, Kabupaten Mimika;PAPUA;99910;Indonesia;9013126889;;;-45.635.485;1.368.803.274;https://maps.google.com/?cid=0x0:0x618886ebd385d517;
supermarket;Toko bahan makanan;Frozen Store Inaya;CV3F+MPR, Wonosari Jaya, Kec. Mimika Baru, Kabupaten Mimika, Papua 99971;Wonosari Jaya, Kec. Mimika Baru, Kabupaten Mimika;PAPUA;99971;Indonesia;81354251205;;;-45.940.635;1.368.709.088;https://maps.google.com/?cid=0x0:0xa6e64a22117aa05;
supermarket;Pusat Perbelanjaan;Primo Supermarket Kuala Kencana;Kuala Kencana, Kec. Kuala Kencana, Kabupaten Mimika, Papua 99910;Kec. Kuala Kencana, Kabupaten Mimika;PAPUA;99910;Indonesia;;;;-43.961.875;1.368.665.625;https://maps.google.com/?cid=0x0:0x93c7ed1ffc5553ba;
supermarket;Toko bahan makanan;Abadi Swalayan And Bakery;Koperapoka, Kec. Mimika Baru, Kabupaten Mimika, Papua 99971;Kec. Mimika Baru, Kabupaten Mimika;PAPUA;99971;Indonesia;;;;-455.025;1.368.904.248;https://maps.google.com/?cid=0x0:0xb92d58eac2f5c033;
supermarket;Pusat Perbelanjaan;kios airyn;FV4G+8J5, Kwamki, Kec. Mimika Baru, Kabupaten Mimika, Papua 99971;Kwamki, Kec. Mimika Baru, Kabupaten Mimika;PAPUA;99971;Indonesia;81247968035;;;-45.442.342;1.368.766.011;https://maps.google.com/?cid=0x0:0xadeb6e09c579e093;
supermarket;Toko Swalayan;FMX Minimarket Mile Post 38;JW3J+VVG, Kuala Kencana, Kec. Kuala Kencana, Kabupaten Mimika, Papua 99910;Kuala Kencana, Kec. Kuala Kencana, Kabupaten Mimika;PAPUA;99910;Indonesia;;;;-43.953.125;1.369.322.031;https://maps.google.com/?cid=0x0:0x80029a74664fe1a1;
supermarket;Toko Swalayan;PAREJAYA MART;CVPQ+496, Jl. Yos Sudarso, Inauga, Kec. Mimika Baru, Kabupaten Mimika, Papua 99971;Jl. Yos Sudarso, Inauga, Kec. Mimika Baru, Kabupaten Mimika;PAPUA;99971;Indonesia;;;;-45.647.205;1.368.883.784;https://maps.google.com/?cid=0x0:0xafdcce33f63a0b6e;
supermarket;supermarket;Hypermart - Timika Hasanuddin;Jl Hasanuddin RT 024 RW 000 Nawaripi, Wania, Kamoro Jaya, Kec. Mimika Baru, Kabupaten Mimika, Papua 99971;Wania, Kamoro Jaya, Kec. Mimika Baru, Kabupaten Mimika;PAPUA;99971;Indonesia;81314558885;;;-45.660.186;1.368.773.333;https://maps.google.com/?cid=0x0:0xff1b8f5d134e53fb;
supermarket;Grosir;TOKO HIDAYAH;Koperapoka, Kec. Mimika Baru, Kabupaten Mimika, Papua 99971;Kec. Mimika Baru, Kabupaten Mimika;PAPUA;99971;Indonesia;8114992722;;;-45.525.882;1.368.900.729;https://maps.google.com/?cid=0x0:0x41df47fa21d280df;
supermarket;Toko bahan makanan;Telaga Mart;CWV2+GCM, Timika Jaya, Kec. Mimika Baru, Kabupaten Mimika, Papua 99971;Timika Jaya, Kec. Mimika Baru, Kabupaten Mimika;PAPUA;99971;Indonesia;;;;-45.561.585;1.369.010.618;https://maps.google.com/?cid=0x0:0xfb5871a667c10b0f;
supermarket;Toko Pakaian;KIOS ANNISA;Jl. Nawaripi Baru, Kamoro Jaya, Kec. Mimika Baru, Kabupaten Mimika, Papua 99971;Kamoro Jaya, Kec. Mimika Baru, Kabupaten Mimika;PAPUA;99971;Indonesia;85256165162;;;-45.804.303;1.368.719.327;https://maps.google.com/?cid=0x0:0xef625f23de7479c0;
supermarket;Toko Swalayan;Toko IIS;FV3Q+PMW, Jl. Nuri, Kwamki, Kec. Mimika Baru, Kabupaten Mimika, Papua 99971;Jl. Nuri, Kwamki, Kec. Mimika Baru, Kabupaten Mimika;PAPUA;99971;Indonesia;;;;-45.456.257;1.368.892.104;https://maps.google.com/?cid=0x0:0x5cff685d048ba23f;
supermarket;Toko bahan makanan;Kios Nia;CVWJ+P7H, Nawaripi, Kec. Mimika Baru, Kabupaten Mimika, Papua 99971;Nawaripi, Kec. Mimika Baru, Kabupaten Mimika;PAPUA;99971;Indonesia;;;;-45.531.876;1.368.807.441;https://maps.google.com/?cid=0x0:0x8adcb3cbb2c11deb;
supermarket;Toko Swalayan;Gelael Indotim. PT;JL. Cendrawasih, Komplek Mulia Mini Mall, Kwamki, Timika, Kabupaten Mimika, Papua 99971;Komplek Mulia Mini Mall, Kwamki, Timika, Kabupaten Mimika;PAPUA;99971;Indonesia;901323809;;;-45.259.573;1.368.874.536;https://maps.google.com/?cid=0x0:0xb20ee3692aeaa260;
supermarket;Pusat Perbelanjaan;UD MEY;Jl.Yos Sudarso no 2 sp4, Wonosari Jaya, Kec. Mimika Baru, Kabupaten Mimika, Papua 99971;Wonosari Jaya, Kec. Mimika Baru, Kabupaten Mimika;PAPUA;99971;Indonesia;;;;-45.952.429;1.368.711.311;https://maps.google.com/?cid=0x0:0xed1a9eec5a83512a;
supermarket;supermarket;Agimuga;Kabupaten Mimika, Papua;Kabupaten Mimika, Papua;PAPUA;;Indonesia;;;;-46.377.699;1.374.882.762;https://maps.google.com/?cid=0x0:0x24e47a54c55e98d1;
supermarket;Toko Swalayan;Primo Supermarket Tembagapura;Tembagapura, Kec. Tembagapura, Kabupaten Mimika, Papua 98972;Kec. Tembagapura, Kabupaten Mimika;PAPUA;98972;Indonesia;;;;-41.423.125;1.370.900.625;https://maps.google.com/?cid=0x0:0x79e7c0e104f18094;
supermarket;supermarket;Papua 99963;Kabupaten Mimika, Papua;Kabupaten Mimika, Papua;PAPUA;;Indonesia;;;;-46.420.578;1.367.091.767;https://maps.google.com/?cid=0x0:0x489f32e37e0cec35;
supermarket;Toko bahan makanan;Diana Supermarket;Jl. Budi Utomo No.8, Kwamki, Kec. Mimika Baru, Kabupaten Mimika, Papua 99971;Kwamki, Kec. Mimika Baru, Kabupaten Mimika;PAPUA;99971;Indonesia;901322829;;;-45.427.693;1.368.837.435;https://maps.google.com/?cid=0x0:0x4cea28f7389f57e8;
supermarket;Toko Perlengkapan Rumah;Swalayan Senyum 5000 Timika 4;Jl. Yos Sudarso, Koperapoka, Kec. Mimika Baru, Kabupaten Mimika, Papua 99971;Koperapoka, Kec. Mimika Baru, Kabupaten Mimika;PAPUA;99971;Indonesia;;;;-45.516.616;1.368.890.596;https://maps.google.com/?cid=0x0:0xbe4c1c56419a926e;
supermarket;Toko Swalayan;TOKO FARHAN;CVXQ+WP9, Koperapoka, Kec. Mimika Baru, Kabupaten Mimika, Papua 99971;Koperapoka, Kec. Mimika Baru, Kabupaten Mimika;PAPUA;99971;Indonesia;82199995862;;;-45.502.229;1.368.893.548;https://maps.google.com/?cid=0x0:0xf1fb5b639c616fc9;
supermarket;Toko bahan makanan;Frozen Store Inaya;CV3F+MPR, Wonosari Jaya, Kec. Mimika Baru, Kabupaten Mimika, Papua 99971;Wonosari Jaya, Kec. Mimika Baru, Kabupaten Mimika;PAPUA;99971;Indonesia;81354251205;;;-45.940.635;1.368.709.088;https://maps.google.com/?cid=0x0:0xa6e64a22117aa05;
supermarket;Grosir;TOKO HIDAYAH;Koperapoka, Kec. Mimika Baru, Kabupaten Mimika, Papua 99971;Kec. Mimika Baru, Kabupaten Mimika;PAPUA;99971;Indonesia;8114992722;;;-45.525.882;1.368.900.729;https://maps.google.com/?cid=0x0:0x41df47fa21d280df;
supermarket;Pusat Perbelanjaan;Gelael Mimika;Jl. Cendrawasih, Kwamki, Kec. Mimika Baru, Kabupaten Mimika, Papua 99971;Kwamki, Kec. Mimika Baru, Kabupaten Mimika;PAPUA;99971;Indonesia;;;;-45.423.615;1.368.855.786;https://maps.google.com/?cid=0x0:0xe328b5916e8a944c;
supermarket;Pusat Perbelanjaan;UD MEY;Jl.Yos Sudarso no 2 sp4, Wonosari Jaya, Kec. Mimika Baru, Kabupaten Mimika, Papua 99971;Wonosari Jaya, Kec. Mimika Baru, Kabupaten Mimika;PAPUA;99971;Indonesia;;;;-45.952.429;1.368.711.311;https://maps.google.com/?cid=0x0:0xed1a9eec5a83512a;
supermarket;Toko Swalayan;Toko Karya Mulia;FRQW+2HX, Timika Jaya, Kec. Mimika Baru, Kabupaten Mimika, Papua 99963;Timika Jaya, Kec. Mimika Baru, Kabupaten Mimika;PAPUA;99963;Indonesia;;;;-45.123.947;1.368.464.974;https://maps.google.com/?cid=0x0:0xe297f0d57b2dc167;
supermarket;Pusat Perbelanjaan;kios airyn;FV4G+8J5, Kwamki, Kec. Mimika Baru, Kabupaten Mimika, Papua 99971;Kwamki, Kec. Mimika Baru, Kabupaten Mimika;PAPUA;99971;Indonesia;81247968035;;;-45.442.342;1.368.766.011;https://maps.google.com/?cid=0x0:0xadeb6e09c579e093;
supermarket;Pasar Makanan Segar;GROSIR LPMAK TIMIKA;Jl. Hasanuddin No.65, Pasar Sentral, Kec. Mimika Baru, Kabupaten Mimika, Papua 99971;Pasar Sentral, Kec. Mimika Baru, Kabupaten Mimika;PAPUA;99971;Indonesia;;;;-45.652.874;1.368.750.716;https://maps.google.com/?cid=0x0:0x7e3ab99803506103;
supermarket;Toko Swalayan;Supermarket GC;FV88+92, Kwamki, Kec. Mimika Baru, Kabupaten Mimika, Papua;Kabupaten Mimika, Papua;PAPUA;;Indonesia;;;;-45.340.676;136.865.065;https://maps.google.com/?cid=0x0:0xbb84d23ac480ee54;
supermarket;Toko bahan makanan;Abadi Swalayan And Bakery;Koperapoka, Kec. Mimika Baru, Kabupaten Mimika, Papua 99971;Kec. Mimika Baru, Kabupaten Mimika;PAPUA;99971;Indonesia;;;;-455.025;1.368.904.248;https://maps.google.com/?cid=0x0:0xb92d58eac2f5c033;
supermarket;Toko bahan makanan;TOKO YURI CHICKEN;Nawaripi, Kec. Mimika Baru, Kabupaten Mimika, Papua 99971;Kec. Mimika Baru, Kabupaten Mimika;PAPUA;99971;Indonesia;8114910147;;;-45.651.683;1.368.729.687;https://maps.google.com/?cid=0x0:0xf64c50f9e69703c7;
supermarket;Minimarket;Kios Gracia;FRWW+7M9, Jl. Cendrawasih, Timika Jaya, Kec. Mimika Baru, Kabupaten Mimika, Papua 99963;Jl. Cendrawasih, Timika Jaya, Kec. Mimika Baru, Kabupaten Mimika;PAPUA;99963;Indonesia;82171788812;;;-45.043.376;1.368.467.329;https://maps.google.com/?cid=0x0:0x4017c52a8732c105;
supermarket;Toko Pakaian;KIOS ANNISA;Jl. Nawaripi Baru, Kamoro Jaya, Kec. Mimika Baru, Kabupaten Mimika, Papua 99971;Kamoro Jaya, Kec. Mimika Baru, Kabupaten Mimika;PAPUA;99971;Indonesia;85256165162;;;-45.804.303;1.368.719.327;https://maps.google.com/?cid=0x0:0xef625f23de7479c0;
supermarket;Toko Swalayan;Toko IIS;FV3Q+PMW, Jl. Nuri, Kwamki, Kec. Mimika Baru, Kabupaten Mimika, Papua 99971;Jl. Nuri, Kwamki, Kec. Mimika Baru, Kabupaten Mimika;PAPUA;99971;Indonesia;;;;-45.456.257;1.368.892.104;https://maps.google.com/?cid=0x0:0x5cff685d048ba23f;
supermarket;Toko Swalayan;Toko Milenium;FV3Q+HRX, Timika,, Koperapoka, Kec. Mimika Baru, Kabupaten Mimika, Papua 99971;Timika,, Koperapoka, Kec. Mimika Baru, Kabupaten Mimika;PAPUA;99971;Indonesia;85242267797;;;-45.460.028;1.368.895.959;https://maps.google.com/?cid=0x0:0x9009e4ceea58ef19;
supermarket;supermarket;Hypermart - Timika Hasanuddin;Jl Hasanuddin RT 024 RW 000 Nawaripi, Wania, Kamoro Jaya, Kec. Mimika Baru, Kabupaten Mimika, Papua 99971;Wania, Kamoro Jaya, Kec. Mimika Baru, Kabupaten Mimika;PAPUA;99971;Indonesia;81314558885;;;-45.660.186;1.368.773.333;https://maps.google.com/?cid=0x0:0xff1b8f5d134e53fb;
supermarket;supermarket;Kec. Mimika Tim.;Kabupaten Mimika, Papua;Kabupaten Mimika, Papua;PAPUA;;Indonesia;;;;-46.725.723;1.368.266.129;https://maps.google.com/?cid=0x0:0xb9399f14e6d0d7e6;
supermarket;Pasar Grosir Pakaian;Marhani Grosir;Jl. Serui Mekar, Koperapoka, Kec. Mimika Baru, Kabupaten Mimika, Papua 99971;Koperapoka, Kec. Mimika Baru, Kabupaten Mimika;PAPUA;99971;Indonesia;;;;-45.500.447;1.368.888.367;https://maps.google.com/?cid=0x0:0x12ac3a6487c12b60;
supermarket;Pusat Perbelanjaan;FMX Minimarket Portsite;Amamapare, Kec. Mimika Tim. Jauh, Kabupaten Mimika, Papua 99971;Kec. Mimika Tim. Jauh, Kabupaten Mimika;PAPUA;99971;Indonesia;901465227;;;-48.275.568;1.368.405.144;https://maps.google.com/?cid=0x0:0xa55d07d7e322874c;
supermarket;Peternakan Ayam;BERKAH TIMUR FARM;CV4Q+P28, Wonosari Jaya, Kec. Mimika Baru, Kabupaten Mimika, Papua 99971;Wonosari Jaya, Kec. Mimika Baru, Kabupaten Mimika;PAPUA;99971;Indonesia;81235789226;;;-45.932.024;1.368.875.808;https://maps.google.com/?cid=0x0:0x1da5e524029fa13c;
supermarket;Toko Swalayan;PAREJAYA MART;CVPQ+496, Jl. Yos Sudarso, Inauga, Kec. Mimika Baru, Kabupaten Mimika, Papua 99971;Jl. Yos Sudarso, Inauga, Kec. Mimika Baru, Kabupaten Mimika;PAPUA;99971;Indonesia;;;;-45.647.205;1.368.883.784;https://maps.google.com/?cid=0x0:0xafdcce33f63a0b6e;
supermarket;Toko;TOKO USAHA BARU;Toko Usaha baru Agen TMK, Nawaripi, Kec. Mimika Baru, Kabupaten Mimika, Papua 99971;Nawaripi, Kec. Mimika Baru, Kabupaten Mimika;PAPUA;99971;Indonesia;;;;-45.636.716;1.368.879.628;https://maps.google.com/?cid=0x0:0x31b96839fbc356c3;
supermarket;Toko;GC grosir dan eceran;CVMG+PP3 Stiejb, Jl. Hasanuddin, Nawaripi, Kec. Mimika Baru, Kabupaten Mimika, Papua 99971;Jl. Hasanuddin, Nawaripi, Kec. Mimika Baru, Kabupaten Mimika;PAPUA;99971;Indonesia;;;;-45.658.685;1.368.767.299;https://maps.google.com/?cid=0x0:0x6e8adcd413a04817;
supermarket;Toko Swalayan;Kios Fathir Papua;Wonosari Jaya, Kec. Mimika Baru, Kabupaten Mimika, Papua 99971;Kec. Mimika Baru, Kabupaten Mimika;PAPUA;99971;Indonesia;;;;-4.582.584;13.687.695;https://maps.google.com/?cid=0x0:0x2004f637641b2ef2;
supermarket;Toko Swalayan;TRANS ABADI SWALAYAN;CVMF+X72, Nawaripi, Kec. Mimika Baru, Kabupaten Mimika, Papua 99971;Nawaripi, Kec. Mimika Baru, Kabupaten Mimika;PAPUA;99971;Indonesia;;;;-45.651.126;1.368.731.485;https://maps.google.com/?cid=0x0:0xc5a592c078b5eb2c;
supermarket;Toko bahan makanan;Kios yusran;CVM5+HJG, Kamoro Jaya, Kec. Mimika Baru, Kabupaten Mimika, Papua 99971;Kamoro Jaya, Kec. Mimika Baru, Kabupaten Mimika;PAPUA;99971;Indonesia;;;;-45.660.676;1.368.590.786;https://maps.google.com/?cid=0x0:0x7e0c1e19a435fa7f;
supermarket;supermarket;Mimika Bar.;Kabupaten Mimika, Papua;Kabupaten Mimika, Papua;PAPUA;;Indonesia;;;;-44.553.134;1.362.857.516;https://maps.google.com/?cid=0x0:0x6a9ad70ccbe49095;
supermarket;Toko bahan makanan;Diana Supermarket;Jl. Budi Utomo No.8, Kwamki, Kec. Mimika Baru, Kabupaten Mimika, Papua 99971;Kwamki, Kec. Mimika Baru, Kabupaten Mimika;PAPUA;99971;Indonesia;901322829;;;-45.427.693;1.368.837.435;https://maps.google.com/?cid=0x0:0x4cea28f7389f57e8;
supermarket;Pusat Perbelanjaan;Primo Supermarket Kuala Kencana;Kuala Kencana, Kec. Kuala Kencana, Kabupaten Mimika, Papua 99910;Kec. Kuala Kencana, Kabupaten Mimika;PAPUA;99910;Indonesia;;;;-43.961.875;1.368.665.625;https://maps.google.com/?cid=0x0:0x93c7ed1ffc5553ba;
supermarket;Toko bahan makanan;Kios Nia;CVWJ+P7H, Nawaripi, Kec. Mimika Baru, Kabupaten Mimika, Papua 99971;Nawaripi, Kec. Mimika Baru, Kabupaten Mimika;PAPUA;99971;Indonesia;;;;-45.531.876;1.368.807.441;https://maps.google.com/?cid=0x0:0x8adcb3cbb2c11deb;
supermarket;Pasar Grosir Pakaian;Marhani Grosir;Jl. Serui Mekar, Koperapoka, Kec. Mimika Baru, Kabupaten Mimika, Papua 99971;Koperapoka, Kec. Mimika Baru, Kabupaten Mimika;PAPUA;99971;Indonesia;;;;-45.500.447;1.368.888.367;https://maps.google.com/?cid=0x0:0x12ac3a6487c12b60;
supermarket;supermarket;Kios Aisyah;CVWJ+MG6, Nawaripi, Kec. Mimika Baru, Kabupaten Mimika, Papua 99971;Nawaripi, Kec. Mimika Baru, Kabupaten Mimika;PAPUA;99971;Indonesia;;;;-45.534.468;1.368.814.796;https://maps.google.com/?cid=0x0:0x90c1a0803596487f;
supermarket;Toko;GC grosir dan eceran;CVMG+PP3 Stiejb, Jl. Hasanuddin, Nawaripi, Kec. Mimika Baru, Kabupaten Mimika, Papua 99971;Jl. Hasanuddin, Nawaripi, Kec. Mimika Baru, Kabupaten Mimika;PAPUA;99971;Indonesia;;;;-45.658.685;1.368.767.299;https://maps.google.com/?cid=0x0:0x6e8adcd413a04817;
supermarket;Toko Swalayan;Anjurti;Sp1, Jl. Jalur 3 jalan maleoo;Kabupaten Mimika, Papua;PAPUA;;Indonesia;;;;-45.920.245;1.368.662.796;https://maps.google.com/?cid=0x0:0x3afa32a0526ddf34;
supermarket;Pusat Perbelanjaan;N Mart;CVP6+5WP, Jl. Hasanuddin, Nawaripi, Kec. Mimika Baru, Kabupaten Mimika, Papua;Kabupaten Mimika, Papua;PAPUA;;Indonesia;;;;-45.645.294;1.368.623.435;https://maps.google.com/?cid=0x0:0x2423cb0601866a60;
supermarket;Toko Peralatan dan Bahan Kue;Diana Mart A.Yani;CVXV+WV8, Koperapoka, Kec. Mimika Baru, Kabupaten Mimika, Papua 99971;Koperapoka, Kec. Mimika Baru, Kabupaten Mimika;PAPUA;99971;Indonesia;;;;-4.550.206;1.368.946.873;https://maps.google.com/?cid=0x0:0xabcbc5c30fc9c17d;
supermarket;Pusat Perbelanjaan;Timika Mall;57522, Jl. Hasanuddin No.9, Nawaripi, Mimika Baru, Mimika Regency, Papua 99971;Jl. Hasanuddin No.9, Nawaripi, Mimika Baru, Mimika Regency;PAPUA;99971;Indonesia;;;;-45.673.682;1.368.869.612;https://maps.google.com/?cid=0x0:0x146edd1a60cab3dd;
supermarket;Minimarket;MORESBY MART;CVMJ+FC9, Nawaripi, Kec. Mimika Baru, Kabupaten Mimika, Papua 99971;Nawaripi, Kec. Mimika Baru, Kabupaten Mimika;PAPUA;99971;Indonesia;;;;-4.566.304;136.881.035;https://maps.google.com/?cid=0x0:0x5f4cb300da3daa72;
supermarket;supermarket;E-MART Discount;CVCH+FX5, Koperapoka, Kec. Mimika Baru, Kabupaten Mimika, Papua 99971;Koperapoka, Kec. Mimika Baru, Kabupaten Mimika;PAPUA;99971;Indonesia;;;;-45.788.677;1.368.799.791;https://maps.google.com/?cid=0x0:0x9ed211d63f505c72;
supermarket;supermarket;Papua 99965;Kabupaten Mimika, Papua;Kabupaten Mimika, Papua;PAPUA;;Indonesia;;;;-47.985.913;1.375.275.422;https://maps.google.com/?cid=0x0:0x7045b6939b86864;
supermarket;Toko bahan makanan;Diana Supermarket;Jl. Budi Utomo No.8, Kwamki, Kec. Mimika Baru, Kabupaten Mimika, Papua 99971;Kwamki, Kec. Mimika Baru, Kabupaten Mimika;PAPUA;99971;Indonesia;901322829;;;-45.427.693;1.368.837.435;https://maps.google.com/?cid=0x0:0x4cea28f7389f57e8;
supermarket;Pusat Perbelanjaan;FMX Minimarket Portsite;Amamapare, Kec. Mimika Tim. Jauh, Kabupaten Mimika, Papua 99971;Kec. Mimika Tim. Jauh, Kabupaten Mimika;PAPUA;99971;Indonesia;901465227;;;-48.275.568;1.368.405.144;https://maps.google.com/?cid=0x0:0xa55d07d7e322874c;
supermarket;Toko Swalayan;SHARON MART;Jl. Budi Utomo No.89, Pasar Central, Kec. Mimika Baru, Kabupaten Mimika, Papua 99910;Pasar Central, Kec. Mimika Baru, Kabupaten Mimika;PAPUA;99910;Indonesia;9013126889;;;-45.635.485;1.368.803.274;https://maps.google.com/?cid=0x0:0x618886ebd385d517;
supermarket;Toko Swalayan;FMX Minimarket Mile Post 38;JW3J+VVG, Kuala Kencana, Kec. Kuala Kencana, Kabupaten Mimika, Papua 99910;Kuala Kencana, Kec. Kuala Kencana, Kabupaten Mimika;PAPUA;99910;Indonesia;;;;-43.953.125;1.369.322.031;https://maps.google.com/?cid=0x0:0x80029a74664fe1a1;
supermarket;Toko Perlengkapan Rumah;Swalayan Senyum 5000 Timika 4;Jl. Yos Sudarso, Koperapoka, Kec. Mimika Baru, Kabupaten Mimika, Papua 99971;Koperapoka, Kec. Mimika Baru, Kabupaten Mimika;PAPUA;99971;Indonesia;;;;-45.516.616;1.368.890.596;https://maps.google.com/?cid=0x0:0xbe4c1c56419a926e;
supermarket;Toko bahan makanan;Kios Nia;CVWJ+P7H, Nawaripi, Kec. Mimika Baru, Kabupaten Mimika, Papua 99971;Nawaripi, Kec. Mimika Baru, Kabupaten Mimika;PAPUA;99971;Indonesia;;;;-45.531.876;1.368.807.441;https://maps.google.com/?cid=0x0:0x8adcb3cbb2c11deb;
supermarket;Toko Swalayan;Toko IIS;FV3Q+PMW, Jl. Nuri, Kwamki, Kec. Mimika Baru, Kabupaten Mimika, Papua 99971;Jl. Nuri, Kwamki, Kec. Mimika Baru, Kabupaten Mimika;PAPUA;99971;Indonesia;;;;-45.456.257;1.368.892.104;https://maps.google.com/?cid=0x0:0x5cff685d048ba23f;
supermarket;Toko Swalayan;PAREJAYA MART;CVPQ+496, Jl. Yos Sudarso, Inauga, Kec. Mimika Baru, Kabupaten Mimika, Papua 99971;Jl. Yos Sudarso, Inauga, Kec. Mimika Baru, Kabupaten Mimika;PAPUA;99971;Indonesia;;;;-45.647.205;1.368.883.784;https://maps.google.com/?cid=0x0:0xafdcce33f63a0b6e;
supermarket;Pusat Perbelanjaan;Gelael Mimika;Jl. Cendrawasih, Kwamki, Kec. Mimika Baru, Kabupaten Mimika, Papua 99971;Kwamki, Kec. Mimika Baru, Kabupaten Mimika;PAPUA;99971;Indonesia;;;;-45.423.615;1.368.855.786;https://maps.google.com/?cid=0x0:0xe328b5916e8a944c;
supermarket;Toko Swalayan;Kios Fathir Papua;Wonosari Jaya, Kec. Mimika Baru, Kabupaten Mimika, Papua 99971;Kec. Mimika Baru, Kabupaten Mimika;PAPUA;99971;Indonesia;;;;-4.582.584;13.687.695;https://maps.google.com/?cid=0x0:0x2004f637641b2ef2;
supermarket;Toko Swalayan;TOKO FARHAN;CVXQ+WP9, Koperapoka, Kec. Mimika Baru, Kabupaten Mimika, Papua 99971;Koperapoka, Kec. Mimika Baru, Kabupaten Mimika;PAPUA;99971;Indonesia;82199995862;;;-45.502.229;1.368.893.548;https://maps.google.com/?cid=0x0:0xf1fb5b639c616fc9;
supermarket;Grosir;TOKO HIDAYAH;Koperapoka, Kec. Mimika Baru, Kabupaten Mimika, Papua 99971;Kec. Mimika Baru, Kabupaten Mimika;PAPUA;99971;Indonesia;8114992722;;;-45.525.882;1.368.900.729;https://maps.google.com/?cid=0x0:0x41df47fa21d280df;
supermarket;Toko bahan makanan;TOKO YURI CHICKEN;Nawaripi, Kec. Mimika Baru, Kabupaten Mimika, Papua 99971;Kec. Mimika Baru, Kabupaten Mimika;PAPUA;99971;Indonesia;8114910147;;;-45.651.683;1.368.729.687;https://maps.google.com/?cid=0x0:0xf64c50f9e69703c7;
supermarket;Toko Swalayan;Tokoh Jombang Indah;GRCX+3M6, Karang Senang, Kec. Kuala Kencana, Kabupaten Mimika, Papua 99910;Karang Senang, Kec. Kuala Kencana, Kabupaten Mimika;PAPUA;99910;Indonesia;81248233131;;;-44.798.411;1.368.491.413;https://maps.google.com/?cid=0x0:0x35d17e768f205d07;
supermarket;Pusat Perbelanjaan;kios airyn;FV4G+8J5, Kwamki, Kec. Mimika Baru, Kabupaten Mimika, Papua 99971;Kwamki, Kec. Mimika Baru, Kabupaten Mimika;PAPUA;99971;Indonesia;81247968035;;;-45.442.342;1.368.766.011;https://maps.google.com/?cid=0x0:0xadeb6e09c579e093;
supermarket;Toko Swalayan;Gelael Indotim. PT;JL. Cendrawasih, Komplek Mulia Mini Mall, Kwamki, Timika, Kabupaten Mimika, Papua 99971;Komplek Mulia Mini Mall, Kwamki, Timika, Kabupaten Mimika;PAPUA;99971;Indonesia;901323809;;;-45.259.573;1.368.874.536;https://maps.google.com/?cid=0x0:0xb20ee3692aeaa260;
supermarket;Toko Pakaian;KIOS ANNISA;Jl. Nawaripi Baru, Kamoro Jaya, Kec. Mimika Baru, Kabupaten Mimika, Papua 99971;Kamoro Jaya, Kec. Mimika Baru, Kabupaten Mimika;PAPUA;99971;Indonesia;85256165162;;;-45.804.303;1.368.719.327;https://maps.google.com/?cid=0x0:0xef625f23de7479c0;
supermarket;Toko bahan makanan;Kios yusran;CVM5+HJG, Kamoro Jaya, Kec. Mimika Baru, Kabupaten Mimika, Papua 99971;Kamoro Jaya, Kec. Mimika Baru, Kabupaten Mimika;PAPUA;99971;Indonesia;;;;-45.660.676;1.368.590.786;https://maps.google.com/?cid=0x0:0x7e0c1e19a435fa7f;
supermarket;Pusat Perbelanjaan;UD MEY;Jl.Yos Sudarso no 2 sp4, Wonosari Jaya, Kec. Mimika Baru, Kabupaten Mimika, Papua 99971;Wonosari Jaya, Kec. Mimika Baru, Kabupaten Mimika;PAPUA;99971;Indonesia;;;;-45.952.429;1.368.711.311;https://maps.google.com/?cid=0x0:0xed1a9eec5a83512a;
supermarket;Pusat Perbelanjaan;Primo Supermarket Kuala Kencana;Kuala Kencana, Kec. Kuala Kencana, Kabupaten Mimika, Papua 99910;Kec. Kuala Kencana, Kabupaten Mimika;PAPUA;99910;Indonesia;;;;-43.961.875;1.368.665.625;https://maps.google.com/?cid=0x0:0x93c7ed1ffc5553ba;
supermarket;Toko Swalayan;Supermarket GC;FV88+92, Kwamki, Kec. Mimika Baru, Kabupaten Mimika, Papua;Kabupaten Mimika, Papua;PAPUA;;Indonesia;;;;-45.340.676;136.865.065;https://maps.google.com/?cid=0x0:0xbb84d23ac480ee54;
supermarket;Apotek;Kios Sumber Sehat;CVXR+PJ9, Jl. Bhayangkara, Koperapoka, Kec. Mimika Baru, Kabupaten Mimika, Papua 99971;Jl. Bhayangkara, Koperapoka, Kec. Mimika Baru, Kabupaten Mimika;PAPUA;99971;Indonesia;;;;-45.506.618;1.368.916.001;https://maps.google.com/?cid=0x0:0x5258e17bf5b3b026;
supermarket;Toko Swalayan;Warung tuty;Jl. Subur Ujung No.2A 5, RT.5/RW.13, Menteng Atas, Kecamatan Setiabudi, Kota Jakarta Selatan, Daerah Khusus Ibukota Jakarta 12960;RT.5/RW.13, Menteng Atas, Kecamatan Setiabudi, Kota Jakarta Selatan;PAPUA;12960;Indonesia;85881705148;;;-62.193.729;1.068.403.155;https://maps.google.com/?cid=0x0:0x81d0de106768de7f;
supermarket;Toko bahan makanan;Warung H. Jimat;Jl. Batu III No.3/27 7, RT.7/RW.1, Gambir, Kecamatan Gambir, Kota Jakarta Pusat, Daerah Khusus Ibukota Jakarta 10110;RT.7/RW.1, Gambir, Kecamatan Gambir, Kota Jakarta Pusat;PAPUA;10110;Indonesia;;;;-61.791.706;1.068.359.387;https://maps.google.com/?cid=0x0:0x60d43c21979af9a4;
supermarket;Toko bahan makanan;Toko Giono;Jl. H. Jian No.10, RT.10/RW.3, Cipete Utara, Kec. Kby. Baru, Kota Jakarta Selatan, Daerah Khusus Ibukota Jakarta 12150;RT.10/RW.3, Cipete Utara, Kec. Kby. Baru, Kota Jakarta Selatan;PAPUA;12150;Indonesia;;;;-62.598.542;106.805.907;https://maps.google.com/?cid=0x0:0xc92fa5124bd196e7;
supermarket;Toko bahan makanan;Toko Sahati;No.2 11 4, Jl. Karet Belakang Barat No.11 4, RT.11/RW.4, Kuningan, Karet Kuningan, Kecamatan Setiabudi, Kota Jakarta Selatan, Daerah Khusus Ibukota Jakarta 12920;Jl. Karet Belakang Barat No.11 4, RT.11/RW.4, Kuningan, Karet Kuningan, Kecamatan Setiabudi, Kota Jakarta Selatan;PAPUA;12920;Indonesia;8121072043;;;-62.140.151;1.068.260.643;https://maps.google.com/?cid=0x0:0x610e1dcf09b272cb;
supermarket;Toko Kelontong Asia;Toko Cahaya jasmine;Jl. Raya Kalibata No.1 9, RT.9/RW.4, Rawajati, Kec. Pancoran, Kota Jakarta Selatan, Daerah Khusus Ibukota Jakarta 12750;RT.9/RW.4, Rawajati, Kec. Pancoran, Kota Jakarta Selatan;PAPUA;12750;Indonesia;81386026615;;;-62.569.911;1.068.517.556;https://maps.google.com/?cid=0x0:0x9e6e216a35c75ba5;
supermarket;Toko bahan makanan;Toko ichtiar;Jl.Kalibata utara 3 Rt.06/02 No.20, Daerah Khusus Ibukota Jakarta 12740;Kota Jakarta Selatan, Daerah Khusus Ibukota Jakarta;PAPUA;;Indonesia;85777365655;;;-625.847;106.842.533;https://maps.google.com/?cid=0x0:0xbf6c582b4e05c9a1;
supermarket;supermarket;Papua 99966;Papua;Papua;PAPUA;;Indonesia;;;;-42.043.028;1.375.668.376;https://maps.google.com/?cid=0x0:0x1fe5af7715c1e227;
supermarket;Toko bahan makanan;Diana Supermarket;Jl. Budi Utomo No.8, Kwamki, Kec. Mimika Baru, Kabupaten Mimika, Papua 99971;Kwamki, Kec. Mimika Baru, Kabupaten Mimika;PAPUA;99971;Indonesia;901322829;;;-45.427.693;1.368.837.435;https://maps.google.com/?cid=0x0:0x4cea28f7389f57e8;
supermarket;Pusat Perbelanjaan;Primo Supermarket Ridge Camp;V4R2+62, Tembagapura, Kec. Tembagapura, Kabupaten Mimika, Papua 98972;Tembagapura, Kec. Tembagapura, Kabupaten Mimika;PAPUA;98972;Indonesia;;;;-4.109.473;1.371.002.082;https://maps.google.com/?cid=0x0:0x759edca03c3b320f;
supermarket;Toko bahan makanan;Abadi Swalayan And Bakery;Koperapoka, Kec. Mimika Baru, Kabupaten Mimika, Papua 99971;Kec. Mimika Baru, Kabupaten Mimika;PAPUA;99971;Indonesia;;;;-455.025;1.368.904.248;https://maps.google.com/?cid=0x0:0xb92d58eac2f5c033;
supermarket;Toko Swalayan;Kios Fathir Papua;Wonosari Jaya, Kec. Mimika Baru, Kabupaten Mimika, Papua 99971;Kec. Mimika Baru, Kabupaten Mimika;PAPUA;99971;Indonesia;;;;-4.582.584;13.687.695;https://maps.google.com/?cid=0x0:0x2004f637641b2ef2;
supermarket;Toko Swalayan;Supermarket GC;FV88+92, Kwamki, Kec. Mimika Baru, Kabupaten Mimika, Papua;Kabupaten Mimika, Papua;PAPUA;;Indonesia;;;;-45.340.676;136.865.065;https://maps.google.com/?cid=0x0:0xbb84d23ac480ee54;
supermarket;Toko Swalayan;Swalayan new harapan;Jl. Trans Papua No.km. 2, Persatuan, Mandobo, Boven Digoel Regency, Papua 99663;Persatuan, Mandobo, Boven Digoel Regency;PAPUA;99663;Indonesia;81248781111;;;-61.254.842;1.403.275.427;https://maps.google.com/?cid=0x0:0xdcc4bfc1d76c22dd;
supermarket;Pusat Perbelanjaan;kios airyn;FV4G+8J5, Kwamki, Kec. Mimika Baru, Kabupaten Mimika, Papua 99971;Kwamki, Kec. Mimika Baru, Kabupaten Mimika;PAPUA;99971;Indonesia;81247968035;;;-45.442.342;1.368.766.011;https://maps.google.com/?cid=0x0:0xadeb6e09c579e093;
supermarket;Toko bahan makanan;Kios Nia;CVWJ+P7H, Nawaripi, Kec. Mimika Baru, Kabupaten Mimika, Papua 99971;Nawaripi, Kec. Mimika Baru, Kabupaten Mimika;PAPUA;99971;Indonesia;;;;-45.531.876;1.368.807.441;https://maps.google.com/?cid=0x0:0x8adcb3cbb2c11deb;
supermarket;Pusat Perbelanjaan;Saga Jayapura;Jl. Ahmad Yani, Gurabesi, Kec. Jayapura Utara, Kota Jayapura, Papua 99222;Gurabesi, Kec. Jayapura Utara, Kota Jayapura;PAPUA;99222;Indonesia;811480554;;;-25.433.433;1.407.016.688;https://maps.google.com/?cid=0x0:0x68f0411e320c4afb;
supermarket;supermarket;Hypermart - Timika Hasanuddin;Jl Hasanuddin RT 024 RW 000 Nawaripi, Wania, Kamoro Jaya, Kec. Mimika Baru, Kabupaten Mimika, Papua 99971;Wania, Kamoro Jaya, Kec. Mimika Baru, Kabupaten Mimika;PAPUA;99971;Indonesia;81314558885;;;-45.660.186;1.368.773.333;https://maps.google.com/?cid=0x0:0xff1b8f5d134e53fb;
supermarket;Toko bahan makanan;Kios yusran;CVM5+HJG, Kamoro Jaya, Kec. Mimika Baru, Kabupaten Mimika, Papua 99971;Kamoro Jaya, Kec. Mimika Baru, Kabupaten Mimika;PAPUA;99971;Indonesia;;;;-45.660.676;1.368.590.786;https://maps.google.com/?cid=0x0:0x7e0c1e19a435fa7f;
supermarket;Toko umum;Toko Papua Indah;Jl. Leo Mamiri, Nawaripi, Kec. Mimika Baru, Kabupaten Mimika, Papua 99971;Nawaripi, Kec. Mimika Baru, Kabupaten Mimika;PAPUA;99971;Indonesia;82199953612;;;-45.600.457;1.368.943.858;https://maps.google.com/?cid=0x0:0xe03a056106c77a34;
supermarket;Toko bahan makanan;Toko Mulia Jaya 2;CVXQ+X9V, Jl. Serui Mekar, Koperapoka, Kec. Mimika Baru, Kabupaten Mimika, Papua 99971;Jl. Serui Mekar, Koperapoka, Kec. Mimika Baru, Kabupaten Mimika;PAPUA;99971;Indonesia;85244855062;;;-45.500.184;1.368.884.344;https://maps.google.com/?cid=0x0:0x9cd59d295db474ab;
supermarket;Toko Swalayan;Toko Indy;CVMP+65Q, Nawaripi, Kec. Mimika Baru, Kabupaten Mimika, Papua 99971;Nawaripi, Kec. Mimika Baru, Kabupaten Mimika;PAPUA;99971;Indonesia;;;;-45.669.248;1.368.854.903;https://maps.google.com/?cid=0x0:0xdbecaf7be8eb888a;
supermarket;Produsen Makanan Beku;SHIRA FRESH;Jl. Caritas, Wangirja, Kec. Mimika Baru, Kabupaten Mimika, Papua 99963;Wangirja, Kec. Mimika Baru, Kabupaten Mimika;PAPUA;99963;Indonesia;;;;-4.524.018;1.368.369.282;https://maps.google.com/?cid=0x0:0x3dba377f703ceb7;
supermarket;Gereja;GBGP yope;CVQV+MJW samping Diana 2, Jl. Hasanuddin, Nawaripi, Kec. Mimika Baru, Kabupaten Mimika, Papua 99971;Jl. Hasanuddin, Nawaripi, Kec. Mimika Baru, Kabupaten Mimika;PAPUA;99971;Indonesia;;;;-45.607.627;1.368.940.675;https://maps.google.com/?cid=0x0:0xbacaec8c984abb95;
supermarket;Toko Swalayan;Saga Supermarket;CPW3+83X, Ardipura, Distrik Jayapura Selatan, Kota Jayapura, Papua 99222;Ardipura, Distrik Jayapura Selatan, Kota Jayapura;PAPUA;99222;Indonesia;;;;-25.541.438;1.407.027.385;https://maps.google.com/?cid=0x0:0x287c7b2014785d97;
supermarket;Toko Swalayan;SAGA Fresh Dok V;FP8F+CG5, Mandala, Kec. Jayapura Utara, Kota Jayapura, Papua;Kota Jayapura, Papua;PAPUA;;Indonesia;811481744;;;-25.339.841;1.407.238.702;https://maps.google.com/?cid=0x0:0x14ea247dbf0373ea;
supermarket;Toko Buah Kering;Toko FRESH Timika;Jl. Budi Utomo No.013, Nawaripi, Kec. Mimika Baru, Kabupaten Mimika, Papua 99971;Nawaripi, Kec. Mimika Baru, Kabupaten Mimika;PAPUA;99971;Indonesia;9013268846;;;-45.563.177;1.368.824.521;https://maps.google.com/?cid=0x0:0xecce4c50b57f8ffc;
supermarket;Toko;GC grosir dan eceran;CVMG+PP3 Stiejb, Jl. Hasanuddin, Nawaripi, Kec. Mimika Baru, Kabupaten Mimika, Papua 99971;Jl. Hasanuddin, Nawaripi, Kec. Mimika Baru, Kabupaten Mimika;PAPUA;99971;Indonesia;;;;-45.658.685;1.368.767.299;https://maps.google.com/?cid=0x0:0x6e8adcd413a04817;
supermarket;Toko Swalayan;GrandLucky - SCBD;Kawasan Niaga Terpadu Sudirman (SCBD, Jl. Jenderal Sudirman LOT-12, Senayan, Kec. Kby. Baru, Kota Jakarta Selatan, Daerah Khusus Ibukota Jakarta 12190;Jl. Jenderal Sudirman LOT-12, Senayan, Kec. Kby. Baru, Kota Jakarta Selatan;PAPUA;12190;Indonesia;85183118632;;;-622.691;1.068.059.153;https://maps.google.com/?cid=0x0:0x4efcd0d8d64cad53;
supermarket;Pusat Perbelanjaan;Loka Supermarket;JF2P+JV6, Jalan Topo, wadio, Bumi Wonorejo, Distrik Nabire, Kabupaten Nabire, Papua 98813;Jalan Topo, wadio, Bumi Wonorejo, Distrik Nabire, Kabupaten Nabire;PAPUA;98813;Indonesia;98424688;;;-33.984.625;1.354.871.406;https://maps.google.com/?cid=0x0:0x79cd9d7b246fedb4;
supermarket;Toko Swalayan;Super Indo Daan Mogot;Jl. Daan Mogot No.61, Tj. Duren Utara, Kecamatan Cengkareng, Kota Jakarta Barat, Daerah Khusus Ibukota Jakarta 11520;Tj. Duren Utara, Kecamatan Cengkareng, Kota Jakarta Barat;PAPUA;11520;Indonesia;215660436;;;-6.165.783;106.781.983;https://maps.google.com/?cid=0x0:0x99d904a8251a68ad;
supermarket;Toko bahan makanan;Diamond;Jl. Permata Artha Gading No.18, RT.18/RW.8, Klp. Gading Bar., Kec. Klp. Gading, Jkt Utara, Daerah Khusus Ibukota Jakarta 14240;RT.18/RW.8, Klp. Gading Bar., Kec. Klp. Gading, Jkt Utara;PAPUA;14240;Indonesia;2145863828;;;-61.464.444;1.068.922.506;https://maps.google.com/?cid=0x0:0x1b41fb935cae0e30;
supermarket;supermarket;Papua 99971;Kabupaten Mimika, Papua;Kabupaten Mimika, Papua;PAPUA;;Indonesia;;;;-47.222.914;136.941.659;https://maps.google.com/?cid=0x0:0x309b23773920c02b;
supermarket;Toko bahan makanan;Diana Supermarket;Jl. Budi Utomo No.8, Kwamki, Kec. Mimika Baru, Kabupaten Mimika, Papua 99971;Kwamki, Kec. Mimika Baru, Kabupaten Mimika;PAPUA;99971;Indonesia;901322829;;;-45.427.693;1.368.837.435;https://maps.google.com/?cid=0x0:0x4cea28f7389f57e8;
supermarket;Pusat Perbelanjaan;FMX Minimarket Portsite;Amamapare, Kec. Mimika Tim. Jauh, Kabupaten Mimika, Papua 99971;Kec. Mimika Tim. Jauh, Kabupaten Mimika;PAPUA;99971;Indonesia;901465227;;;-48.275.568;1.368.405.144;https://maps.google.com/?cid=0x0:0xa55d07d7e322874c;
supermarket;Pasar Makanan Segar;GROSIR LPMAK TIMIKA;Jl. Hasanuddin No.65, Pasar Sentral, Kec. Mimika Baru, Kabupaten Mimika, Papua 99971;Pasar Sentral, Kec. Mimika Baru, Kabupaten Mimika;PAPUA;99971;Indonesia;;;;-45.652.874;1.368.750.716;https://maps.google.com/?cid=0x0:0x7e3ab99803506103;
supermarket;Toko bahan makanan;Frozen Store Inaya;CV3F+MPR, Wonosari Jaya, Kec. Mimika Baru, Kabupaten Mimika, Papua 99971;Wonosari Jaya, Kec. Mimika Baru, Kabupaten Mimika;PAPUA;99971;Indonesia;81354251205;;;-45.940.635;1.368.709.088;https://maps.google.com/?cid=0x0:0xa6e64a22117aa05;
supermarket;Toko Swalayan;SHARON MART;Jl. Budi Utomo No.89, Pasar Central, Kec. Mimika Baru, Kabupaten Mimika, Papua 99910;Pasar Central, Kec. Mimika Baru, Kabupaten Mimika;PAPUA;99910;Indonesia;9013126889;;;-45.635.485;1.368.803.274;https://maps.google.com/?cid=0x0:0x618886ebd385d517;
supermarket;Pusat Perbelanjaan;Gelael Mimika;Jl. Cendrawasih, Kwamki, Kec. Mimika Baru, Kabupaten Mimika, Papua 99971;Kwamki, Kec. Mimika Baru, Kabupaten Mimika;PAPUA;99971;Indonesia;;;;-45.423.615;1.368.855.786;https://maps.google.com/?cid=0x0:0xe328b5916e8a944c;
supermarket;Toko;CV Pare Jaya Utama;FV4V+HW7, Jl. Jend. Ahmad Yani, Kwamki, Kec. Mimika Baru, Kabupaten Mimika, Papua 99971;Jl. Jend. Ahmad Yani, Kwamki, Kec. Mimika Baru, Kabupaten Mimika;PAPUA;99971;Indonesia;811494648;;;-45.435.938;136.894.806;https://maps.google.com/?cid=0x0:0xfabd06c1dea1eabd;
supermarket;Toko bahan makanan;Abadi Swalayan And Bakery;Koperapoka, Kec. Mimika Baru, Kabupaten Mimika, Papua 99971;Kec. Mimika Baru, Kabupaten Mimika;PAPUA;99971;Indonesia;;;;-455.025;1.368.904.248;https://maps.google.com/?cid=0x0:0xb92d58eac2f5c033;
supermarket;Toko Swalayan;TOKO FARHAN;CVXQ+WP9, Koperapoka, Kec. Mimika Baru, Kabupaten Mimika, Papua 99971;Koperapoka, Kec. Mimika Baru, Kabupaten Mimika;PAPUA;99971;Indonesia;82199995862;;;-45.502.229;1.368.893.548;https://maps.google.com/?cid=0x0:0xf1fb5b639c616fc9;
supermarket;Peternakan Ayam;BERKAH TIMUR FARM;CV4Q+P28, Wonosari Jaya, Kec. Mimika Baru, Kabupaten Mimika, Papua 99971;Wonosari Jaya, Kec. Mimika Baru, Kabupaten Mimika;PAPUA;99971;Indonesia;81235789226;;;-45.932.024;1.368.875.808;https://maps.google.com/?cid=0x0:0x1da5e524029fa13c;
supermarket;Grosir;TOKO HIDAYAH;Koperapoka, Kec. Mimika Baru, Kabupaten Mimika, Papua 99971;Kec. Mimika Baru, Kabupaten Mimika;PAPUA;99971;Indonesia;8114992722;;;-45.525.882;1.368.900.729;https://maps.google.com/?cid=0x0:0x41df47fa21d280df;
supermarket;Pusat Perbelanjaan;UD MEY;Jl.Yos Sudarso no 2 sp4, Wonosari Jaya, Kec. Mimika Baru, Kabupaten Mimika, Papua 99971;Wonosari Jaya, Kec. Mimika Baru, Kabupaten Mimika;PAPUA;99971;Indonesia;;;;-45.952.429;1.368.711.311;https://maps.google.com/?cid=0x0:0xed1a9eec5a83512a;
supermarket;Toko Swalayan;Toko Milenium;FV3Q+HRX, Timika,, Koperapoka, Kec. Mimika Baru, Kabupaten Mimika, Papua 99971;Timika,, Koperapoka, Kec. Mimika Baru, Kabupaten Mimika;PAPUA;99971;Indonesia;85242267797;;;-45.460.028;1.368.895.959;https://maps.google.com/?cid=0x0:0x9009e4ceea58ef19;
supermarket;Toko Swalayan;PAREJAYA MART;CVPQ+496, Jl. Yos Sudarso, Inauga, Kec. Mimika Baru, Kabupaten Mimika, Papua 99971;Jl. Yos Sudarso, Inauga, Kec. Mimika Baru, Kabupaten Mimika;PAPUA;99971;Indonesia;;;;-45.647.205;1.368.883.784;https://maps.google.com/?cid=0x0:0xafdcce33f63a0b6e;
supermarket;supermarket;Hypermart - Timika Hasanuddin;Jl Hasanuddin RT 024 RW 000 Nawaripi, Wania, Kamoro Jaya, Kec. Mimika Baru, Kabupaten Mimika, Papua 99971;Wania, Kamoro Jaya, Kec. Mimika Baru, Kabupaten Mimika;PAPUA;99971;Indonesia;81314558885;;;-45.660.186;1.368.773.333;https://maps.google.com/?cid=0x0:0xff1b8f5d134e53fb;
supermarket;Toko bahan makanan;Telaga Mart;CWV2+GCM, Timika Jaya, Kec. Mimika Baru, Kabupaten Mimika, Papua 99971;Timika Jaya, Kec. Mimika Baru, Kabupaten Mimika;PAPUA;99971;Indonesia;;;;-45.561.585;1.369.010.618;https://maps.google.com/?cid=0x0:0xfb5871a667c10b0f;
supermarket;Pasar Grosir Pakaian;Marhani Grosir;Jl. Serui Mekar, Koperapoka, Kec. Mimika Baru, Kabupaten Mimika, Papua 99971;Koperapoka, Kec. Mimika Baru, Kabupaten Mimika;PAPUA;99971;Indonesia;;;;-45.500.447;1.368.888.367;https://maps.google.com/?cid=0x0:0x12ac3a6487c12b60;
supermarket;Toko Buah Kering;Toko FRESH Timika;Jl. Budi Utomo No.013, Nawaripi, Kec. Mimika Baru, Kabupaten Mimika, Papua 99971;Nawaripi, Kec. Mimika Baru, Kabupaten Mimika;PAPUA;99971;Indonesia;9013268846;;;-45.563.177;1.368.824.521;https://maps.google.com/?cid=0x0:0xecce4c50b57f8ffc;
supermarket;Apotek;Kios Sumber Sehat;CVXR+PJ9, Jl. Bhayangkara, Koperapoka, Kec. Mimika Baru, Kabupaten Mimika, Papua 99971;Jl. Bhayangkara, Koperapoka, Kec. Mimika Baru, Kabupaten Mimika;PAPUA;99971;Indonesia;;;;-45.506.618;1.368.916.001;https://maps.google.com/?cid=0x0:0x5258e17bf5b3b026;
supermarket;Toko Swalayan;TRANS ABADI SWALAYAN;CVMF+X72, Nawaripi, Kec. Mimika Baru, Kabupaten Mimika, Papua 99971;Nawaripi, Kec. Mimika Baru, Kabupaten Mimika;PAPUA;99971;Indonesia;;;;-45.651.126;1.368.731.485;https://maps.google.com/?cid=0x0:0xc5a592c078b5eb2c;
supermarket;supermarket;Papua 99968;Kabupaten Mimika, Papua;Kabupaten Mimika, Papua;PAPUA;;Indonesia;;;;-42.590.064;1.365.547.852;https://maps.google.com/?cid=0x0:0x32d5cd81eafb994;
supermarket;supermarket;Kec. Kuala Kencana;Kabupaten Mimika, Papua;Kabupaten Mimika, Papua;PAPUA;;Indonesia;;;;-43.653.215;1.367.478.493;https://maps.google.com/?cid=0x0:0xeec735e2ce5877e2;
supermarket;supermarket;PT. Hero Supermarket P;JPMX+V6C, JL Retail Center, Supermarket Retail Center, Bhintuka, Tembaga Pura, Kabupaten Mimika, Papua 99910;JL Retail Center, Supermarket Retail Center, Bhintuka, Tembaga Pura, Kabupaten Mimika;PAPUA;99910;Indonesia;901351123;;;-4.365.304;136.748.003;https://maps.google.com/?cid=0x0:0x1a8503e756ce7bf1;
supermarket;Toko Swalayan;FMX Minimarket Mile Post 38;JW3J+VVG, Kuala Kencana, Kec. Kuala Kencana, Kabupaten Mimika, Papua 99910;Kuala Kencana, Kec. Kuala Kencana, Kabupaten Mimika;PAPUA;99910;Indonesia;;;;-43.953.125;1.369.322.031;https://maps.google.com/?cid=0x0:0x80029a74664fe1a1;
supermarket;Toko bahan makanan;Diana Supermarket;Jl. Budi Utomo No.8, Kwamki, Kec. Mimika Baru, Kabupaten Mimika, Papua 99971;Kwamki, Kec. Mimika Baru, Kabupaten Mimika;PAPUA;99971;Indonesia;901322829;;;-45.427.693;1.368.837.435;https://maps.google.com/?cid=0x0:0x4cea28f7389f57e8;
supermarket;Kios;Kios olla;Jl. Merpati No.56, Kuala Kencana, Kec. Kuala Kencana, Kabupaten Mimika, Papua 99910;Kuala Kencana, Kec. Kuala Kencana, Kabupaten Mimika;PAPUA;99910;Indonesia;82199665445;;;-43.986.359;1.368.538.604;https://maps.google.com/?cid=0x0:0xd65772fb9b7f8283;
supermarket;Toko bahan makanan;Kios 24 jam SP 3;Jl. Sunan Kali Jaga, Karang Senang, Kec. Kuala Kencana, Kabupaten Mimika, Papua 99910;Karang Senang, Kec. Kuala Kencana, Kabupaten Mimika;PAPUA;99910;Indonesia;82142668778;;;-44.786.574;1.368.513.681;https://maps.google.com/?cid=0x0:0x4428ae8027ee582e;
supermarket;Restoran;Kantin Blakang Xtm;HV66+RJQ, Kuala Kencana, Kec. Kuala Kencana, Kabupaten Mimika, Papua 99910;Kuala Kencana, Kec. Kuala Kencana, Kabupaten Mimika;PAPUA;99910;Indonesia;;;;-44.379.119;13.686.162;https://maps.google.com/?cid=0x0:0x6389d79641602c8;
supermarket;Toko Perlengkapan Rumah;Swalayan Senyum 5000 Timika 4;Jl. Yos Sudarso, Koperapoka, Kec. Mimika Baru, Kabupaten Mimika, Papua 99971;Koperapoka, Kec. Mimika Baru, Kabupaten Mimika;PAPUA;99971;Indonesia;;;;-45.516.616;1.368.890.596;https://maps.google.com/?cid=0x0:0xbe4c1c56419a926e;
supermarket;Toko Swalayan;Tokoh Jombang Indah;GRCX+3M6, Karang Senang, Kec. Kuala Kencana, Kabupaten Mimika, Papua 99910;Karang Senang, Kec. Kuala Kencana, Kabupaten Mimika;PAPUA;99910;Indonesia;81248233131;;;-44.798.411;1.368.491.413;https://maps.google.com/?cid=0x0:0x35d17e768f205d07;
supermarket;Toko Perlengkapan Rumah;Toko Zahwa;GVH6+R32, Karang Senang, Kec. Kuala Kencana, Kabupaten Mimika, Papua 99910;Karang Senang, Kec. Kuala Kencana, Kabupaten Mimika;PAPUA;99910;Indonesia;82238545179;;;-44.704.912;1.368.601.485;https://maps.google.com/?cid=0x0:0xb91894001d629e82;
supermarket;Pusat Perbelanjaan;Gelael Mimika;Jl. Cendrawasih, Kwamki, Kec. Mimika Baru, Kabupaten Mimika, Papua 99971;Kwamki, Kec. Mimika Baru, Kabupaten Mimika;PAPUA;99971;Indonesia;;;;-45.423.615;1.368.855.786;https://maps.google.com/?cid=0x0:0xe328b5916e8a944c;
supermarket;Toko Swalayan;SHARON MART;Jl. Budi Utomo No.89, Pasar Central, Kec. Mimika Baru, Kabupaten Mimika, Papua 99910;Pasar Central, Kec. Mimika Baru, Kabupaten Mimika;PAPUA;99910;Indonesia;9013126889;;;-45.635.485;1.368.803.274;https://maps.google.com/?cid=0x0:0x618886ebd385d517;
supermarket;Toko Swalayan;TOKO FARHAN;CVXQ+WP9, Koperapoka, Kec. Mimika Baru, Kabupaten Mimika, Papua 99971;Koperapoka, Kec. Mimika Baru, Kabupaten Mimika;PAPUA;99971;Indonesia;82199995862;;;-45.502.229;1.368.893.548;https://maps.google.com/?cid=0x0:0xf1fb5b639c616fc9;
supermarket;Toko Kosmetik;MS GLOW_Risna SP3;GVF2+729, Karang Senang, Kec. Kuala Kencana, Kabupaten Mimika, Papua 99910;Karang Senang, Kec. Kuala Kencana, Kabupaten Mimika;PAPUA;99910;Indonesia;81239732073;;;-4.476.848;1.368.501.164;https://maps.google.com/?cid=0x0:0x34fbcd59bbf9f421;
supermarket;Grosir;TOKO HIDAYAH;Koperapoka, Kec. Mimika Baru, Kabupaten Mimika, Papua 99971;Kec. Mimika Baru, Kabupaten Mimika;PAPUA;99971;Indonesia;8114992722;;;-45.525.882;1.368.900.729;https://maps.google.com/?cid=0x0:0x41df47fa21d280df;
supermarket;Toko bahan makanan;Jaya Frozen Sp3;Jl. Cendrawasih, Utikini Baru, Kec. Kuala Kencana, Kabupaten Mimika, Papua;Kabupaten Mimika, Papua;PAPUA;;Indonesia;81140604567;;;-44.813.911;1.368.479.877;https://maps.google.com/?cid=0x0:0xfb5f5c4cac87673d;
supermarket;Toko Swalayan;Asri kauyuyn;GVF3+QCG, Karang Senang, Kec. Kuala Kencana, Kabupaten Mimika, Papua 99910;Karang Senang, Kec. Kuala Kencana, Kabupaten Mimika;PAPUA;99910;Indonesia;81231241103;;;-44.755.536;1.368.535.763;https://maps.google.com/?cid=0x0:0xf89671638754088;
supermarket;Toko Swalayan;Supermarket GC;FV88+92, Kwamki, Kec. Mimika Baru, Kabupaten Mimika, Papua;Kabupaten Mimika, Papua;PAPUA;;Indonesia;;;;-45.340.676;136.865.065;https://maps.google.com/?cid=0x0:0xbb84d23ac480ee54;
supermarket;Toko Swalayan;Dagang;Jl. Henggi, Kuala Kencana, Kec. Kuala Kencana, Kabupaten Mimika, Papua 99910;Kuala Kencana, Kec. Kuala Kencana, Kabupaten Mimika;PAPUA;99910;Indonesia;;;;-44.046.472;1.368.640.458;https://maps.google.com/?cid=0x0:0x2a22fc11d24a11d8;
supermarket;Kedai Kopi;MAXX Coffee Kuala Kencana;JV38+MF6, Kuala Kencana, Kec. Kuala Kencana, Kabupaten Mimika, Papua 99910;Kuala Kencana, Kec. Kuala Kencana, Kabupaten Mimika;PAPUA;99910;Indonesia;85338183638;;;-43.958.751;1.368.661.196;https://maps.google.com/?cid=0x0:0x42512f5566554ead;
supermarket;supermarket;Papua 99967;Kabupaten Mimika, Papua;Kabupaten Mimika, Papua;PAPUA;;Indonesia;;;;-42.294.388;1.370.193.913;https://maps.google.com/?cid=0x0:0x89f915cf55d48161;
supermarket;Pusat Perbelanjaan;Shopping Family Tembagapura;V34Q+XXH, Tembagapura, Arwandop, Tembagapura, Kec. Tembagapura, Kabupaten Mimika, Papua 99967;Tembagapura, Arwandop, Tembagapura, Kec. Tembagapura, Kabupaten Mimika;PAPUA;99967;Indonesia;;;;-41.425.625;1.370.899.844;https://maps.google.com/?cid=0x0:0x23ff3f0a601439a2;
supermarket;Toko Swalayan;Primo Supermarket Tembagapura;Tembagapura, Kec. Tembagapura, Kabupaten Mimika, Papua 98972;Kec. Tembagapura, Kabupaten Mimika;PAPUA;98972;Indonesia;;;;-41.423.125;1.370.900.625;https://maps.google.com/?cid=0x0:0x79e7c0e104f18094;
supermarket;Toko Swalayan;FMX Minimarket Single Man Tembagapura;V34R+QWM, Tembagapura, Kec. Tembagapura, Kabupaten Mimika, Papua 98972;Tembagapura, Kec. Tembagapura, Kabupaten Mimika;PAPUA;98972;Indonesia;;;;-4.143.058;1.370.923.299;https://maps.google.com/?cid=0x0:0x8787c5cbafcd4915;
supermarket;Toko Swalayan;FMX Minimarket Hidden Valley;FMX Minimarket Hidden Valley, Tembagapura, Mimika Regency, Papua;Kabupaten Mimika, Papua;PAPUA;;Indonesia;901403085;;;-41.549.152;1.370.985.816;https://maps.google.com/?cid=0x0:0x16adc688324db981;
supermarket;Toko bahan makanan;Diana Supermarket;Jl. Budi Utomo No.8, Kwamki, Kec. Mimika Baru, Kabupaten Mimika, Papua 99971;Kwamki, Kec. Mimika Baru, Kabupaten Mimika;PAPUA;99971;Indonesia;901322829;;;-45.427.693;1.368.837.435;https://maps.google.com/?cid=0x0:0x4cea28f7389f57e8;
supermarket;Toko Peralatan dan Bahan Kue;Diana Mart A.Yani;CVXV+WV8, Koperapoka, Kec. Mimika Baru, Kabupaten Mimika, Papua 99971;Koperapoka, Kec. Mimika Baru, Kabupaten Mimika;PAPUA;99971;Indonesia;;;;-4.550.206;1.368.946.873;https://maps.google.com/?cid=0x0:0xabcbc5c30fc9c17d;
supermarket;Es Krim;Xiyue Ice Cream;FV5M+3FQ, Kwamki, Kec. Mimika Baru, Kabupaten Mimika, Papua 99971;Kwamki, Kec. Mimika Baru, Kabupaten Mimika;PAPUA;99971;Indonesia;;;;-45.422.941;1.368.837.479;https://maps.google.com/?cid=0x0:0x1384da690e293f40;
supermarket;Pusat Perbelanjaan;Diana Mall XXI;Diana Mall Timika, Jl. Budi Utomo No.8 Lt. 6, Kwamki, Kec. Mimika Baru, Kabupaten Mimika, Papua 99971;Jl. Budi Utomo No.8 Lt. 6, Kwamki, Kec. Mimika Baru, Kabupaten Mimika;PAPUA;99971;Indonesia;8873070010;;;-45.420.634;1.368.835.379;https://maps.google.com/?cid=0x0:0x10f4b67038a1ac50;
supermarket;Toko Buah Kering;Toko FRESH Timika;Jl. Budi Utomo No.013, Nawaripi, Kec. Mimika Baru, Kabupaten Mimika, Papua 99971;Nawaripi, Kec. Mimika Baru, Kabupaten Mimika;PAPUA;99971;Indonesia;9013268846;;;-45.563.177;1.368.824.521;https://maps.google.com/?cid=0x0:0xecce4c50b57f8ffc;
supermarket;Minimarket;Berkah Buah;FV3M+2C5, Jl. Budi Utomo, Koperapoka, Kec. Mimika Baru, Kabupaten Mimika, Papua 99971;Jl. Budi Utomo, Koperapoka, Kec. Mimika Baru, Kabupaten Mimika;PAPUA;99971;Indonesia;82238866185;;;-45.474.845;1.368.835.978;https://maps.google.com/?cid=0x0:0xc83e9d5a9fb0c151;
supermarket;supermarket;Mimika Bar. Tengah;Kabupaten Mimika, Papua;Kabupaten Mimika, Papua;PAPUA;;Indonesia;;;;-42.990.789;1.358.279.734;https://maps.google.com/?cid=0x0:0xb5b32b8dd9b435c1;
supermarket;Toko bahan makanan;Diana Supermarket;Jl. Budi Utomo No.8, Kwamki, Kec. Mimika Baru, Kabupaten Mimika, Papua 99971;Kwamki, Kec. Mimika Baru, Kabupaten Mimika;PAPUA;99971;Indonesia;901322829;;;-45.427.693;1.368.837.435;https://maps.google.com/?cid=0x0:0x4cea28f7389f57e8;
supermarket;supermarket;Kamp. Wakia Lama;FXJC+59Q, Wakia, Mimika Bar. Tengah, Kabupaten Mimika, Papua 99973;Wakia, Mimika Bar. Tengah, Kabupaten Mimika;PAPUA;99973;Indonesia;;;;-45.195.269;1.359.709.791;https://maps.google.com/?cid=0x0:0xe340cd4784d4e8c0;
supermarket;Toko Peralatan dan Bahan Kue;Diana Mart A.Yani;CVXV+WV8, Koperapoka, Kec. Mimika Baru, Kabupaten Mimika, Papua 99971;Koperapoka, Kec. Mimika Baru, Kabupaten Mimika;PAPUA;99971;Indonesia;;;;-4.550.206;1.368.946.873;https://maps.google.com/?cid=0x0:0xabcbc5c30fc9c17d;
supermarket;Minimarket;Online mart;Jl matoa bandara lama, Kwamki, Kec. Mimika Baru, Kabupaten Mimika, Papua 99910;Kwamki, Kec. Mimika Baru, Kabupaten Mimika;PAPUA;99910;Indonesia;81354179108;;;-4.546.759;1.368.837.207;https://maps.google.com/?cid=0x0:0x42ac42139347cb03;
supermarket;Toko bahan makanan;Diana Supermarket;Jl. Budi Utomo No.8, Kwamki, Kec. Mimika Baru, Kabupaten Mimika, Papua 99971;Kwamki, Kec. Mimika Baru, Kabupaten Mimika;PAPUA;99971;Indonesia;901322829;;;-45.427.693;1.368.837.435;https://maps.google.com/?cid=0x0:0x4cea28f7389f57e8;
supermarket;Toko Swalayan;Alam's Family;Jl. Setapak No.2, RT.5/RW.6, Cilebut Bar., Kec. Sukaraja, Kabupaten Bogor, Jawa Barat 16710;RT.5/RW.6, Cilebut Bar., Kec. Sukaraja, Kabupaten Bogor;PAPUA;16710;Indonesia;;;;-65.218.543;1.067.991.497;https://maps.google.com/?cid=0x0:0xa0f356e0b569317d;
supermarket;Toko kopi;ROVILINDO MART;FV7P+6J4, Kwamki, Kec. Mimika Baru, Kabupaten Mimika, Papua 99971;Kwamki, Kec. Mimika Baru, Kabupaten Mimika;PAPUA;99971;Indonesia;;;;-45.369.943;1.368.865.678;https://maps.google.com/?cid=0x0:0x5205199067f30650;
supermarket;Minimarket;Daily Supermarket - Tebet Sarana Square;Jl. Tebet Barat IV No.20, RT.8/RW.2, Tebet Bar., Kec. Tebet, Jakarta, Daerah Khusus Ibukota Jakarta 12810;RT.8/RW.2, Tebet Bar., Kec. Tebet, Jakarta;PAPUA;12810;Indonesia;;;;-62.337.357;1.068.476.898;https://maps.google.com/?cid=0x0:0x2f4be933ad972dbf;
supermarket;Toko Swalayan;Ranch Market Darmawangsa;Jl. Dharmawangsa VI Melawai Kebayoran Baru Jakarta Selatan DKI Jakarta RT.5, 5, RT.5/RW.1, Pulo, Kec. Kby. Baru, Kota Jakarta Selatan, Daerah Khusus Ibukota Jakarta 12160;5, RT.5/RW.1, Pulo, Kec. Kby. Baru, Kota Jakarta Selatan;PAPUA;12160;Indonesia;2172786480;;;-6.252.685;1.068.014.196;https://maps.google.com/?cid=0x0:0x227f1cf75ffc7e1e;
supermarket;Toko Swalayan;Amanmart;MW2C+6X8, Jl. Raya Kranggan, RT.004/RW.009, Jatiraden, Kec. Jatisampurna, Kota Bks, Jawa Barat 17432;Jl. Raya Kranggan, RT.004/RW.009, Jatiraden, Kec. Jatisampurna, Kota Bks;PAPUA;17432;Indonesia;;;;-63.493.438;1.069.224.415;https://maps.google.com/?cid=0x0:0xc20317068d602650;
supermarket;Toko Swalayan;The FoodHall - Grand Indonesia;Grand Indonesia shopping West Mall, Jl. M.H. Thamrin No.1 LG Floor, Kb. Melati, Kecamatan Tanah Abang, Kota Jakarta Pusat, Daerah Khusus Ibukota Jakarta 10350;Jl. M.H. Thamrin No.1 LG Floor, Kb. Melati, Kecamatan Tanah Abang, Kota Jakarta Pusat;PAPUA;10350;Indonesia;85973703191;;;-61.954.464;1.068.197.669;https://maps.google.com/?cid=0x0:0x4a1351e22f783bb;
supermarket;Minimarket;Aman Mart Kalimalang;HNI PLAZA, Jl. Raya Kalimalang, RT.3/RW.10, Pd. Klp., Kec. Duren Sawit, Kota Jakarta Timur, Daerah Khusus Ibukota Jakarta 13450;Jl. Raya Kalimalang, RT.3/RW.10, Pd. Klp., Kec. Duren Sawit, Kota Jakarta Timur;PAPUA;13450;Indonesia;;;;-62.475.398;1.069.271.388;https://maps.google.com/?cid=0x0:0xecde7059de6922b9;
supermarket;Toko Swalayan;Diskon Supermarket;Jl. Raya Bogor No.20 KM26 No, Susukan, Kec. Ciracas, Kota Jakarta Timur, Daerah Khusus Ibukota Jakarta 13740;Susukan, Kec. Ciracas, Kota Jakarta Timur;PAPUA;13740;Indonesia;81282109990;;;-63.290.415;106.865.772;https://maps.google.com/?cid=0x0:0xe881f3fa8ae14640;
supermarket;Toko Swalayan;Super Indo Daan Mogot;Jl. Daan Mogot No.61, Tj. Duren Utara, Kecamatan Cengkareng, Kota Jakarta Barat, Daerah Khusus Ibukota Jakarta 11520;Tj. Duren Utara, Kecamatan Cengkareng, Kota Jakarta Barat;PAPUA;11520;Indonesia;215660436;;;-6.165.783;106.781.983;https://maps.google.com/?cid=0x0:0x99d904a8251a68ad;
supermarket;Pusat Perbelanjaan;Daily Supermarket Puri Mansion;Ruko Puri Mansion Blok C 2, RT.2/RW.1, Kembangan Sel., Kec. Kembangan, Kota Jakarta Barat, Daerah Khusus Ibukota Jakarta 11610;RT.2/RW.1, Kembangan Sel., Kec. Kembangan, Kota Jakarta Barat;PAPUA;11610;Indonesia;81944117272;;;-61.782.717;106.727.934;https://maps.google.com/?cid=0x0:0xb5555bd3bf987072;
supermarket;Toko;Alma mart grosir dan eceran;4JFF+325, Gunungmalang, Kec. Cikidang, Kabupaten Sukabumi, Jawa Barat 43367;Gunungmalang, Kec. Cikidang, Kabupaten Sukabumi;PAPUA;43367;Indonesia;;;;-68.773.553;1.066.226.045;https://maps.google.com/?cid=0x0:0xc5d7bec080a53725;
