Category;Real Category;Business Name;Address;City;State;Postal Code;Country;Phone;Email;Website;Latitude;Longitude;Map Link;Details Link
"komplek housing";"komplek housing";"Kec. Mimika Baru";"Kabupaten Mimika, Papua";"Kabupaten Mimika, Papua";"PAPUA";"";"Indonesia";"";"";"";"-4.5671869";"136.8873528";"https://maps.google.com/?cid=0x0:0xccefb04a6b60d82c";""
"komplek housing";"komplek housing";"OA";"CVFG+37J, Kamoro Jaya, Kec. Mimika Baru, Kabupaten Mimika, Papua 99971";"Kamoro Jaya, Kec. Mimika Baru, Kabupaten Mimika";"PAPUA";"99971";"Indonesia";"";"";"";"-4.5774062";"136.8755972";"https://maps.google.com/?cid=0x0:0x550c12c116a82536";""
"komplek housing";"Komplek perumahan";"HOMEX";"CVFP+PJG, Inauga, Kec. Mimika Baru, Kabupaten Mimika, Papua 99971";"Inauga, Kec. Mimika Baru, Kabupaten Mimika";"PAPUA";"99971";"Indonesia";"";"";"";"-4.5754643";"136.887065";"https://maps.google.com/?cid=0x0:0xd646e82ac9aad7d7";""
"komplek housing";"Komplek perumahan";"Meta";"Gg. Pongtiku, Nawaripi, Kec. Mimika Baru, Kabupaten Mimika, Papua 99971";"Nawaripi, Kec. Mimika Baru, Kabupaten Mimika";"PAPUA";"99971";"Indonesia";"";"";"";"-4.5626273";"136.8834494";"https://maps.google.com/?cid=0x0:0xc80851b5794b112e";""
"komplek housing";"komplek housing";"Pebiyanti home";"Jln buntu, Nawaripi, Kec. Mimika Baru, Kabupaten Mimika, Papua";"Kabupaten Mimika, Papua";"PAPUA";"";"Indonesia";"";"";"";"-4.5746476";"136.8821332";"https://maps.google.com/?cid=0x0:0x5503793d156b91cb";""
"komplek housing";"komplek housing";"Obajas Home";"CVMP+M2F, Nawaripi, Kec. Mimika Baru, Kabupaten Mimika, Papua 99971";"Nawaripi, Kec. Mimika Baru, Kabupaten Mimika";"PAPUA";"99971";"Indonesia";"";"";"";"-4.5658148";"136.8850617";"https://maps.google.com/?cid=0x0:0x936d22b01982f0ef";""
"komplek housing";"komplek housing";"PA1000";"CVQP+7MV, Jl. Dr. Samratulangi, Nawaripi, Kec. Mimika Baru, Kabupaten Mimika, Papua 99971";"Jl. Dr. Samratulangi, Nawaripi, Kec. Mimika Baru, Kabupaten Mimika";"PAPUA";"99971";"Indonesia";"";"";"";"-4.562794";"136.886169";"https://maps.google.com/?cid=0x0:0x288831aa445e2405";""
"komplek housing";"Komplek perumahan";"ANDIR HOME";"CVMR+G5P, Inauga, Kec. Mimika Baru, Kabupaten Mimika, Papua 99971";"Inauga, Kec. Mimika Baru, Kabupaten Mimika";"PAPUA";"99971";"Indonesia";"";"";"";"-4.5661505";"136.8904439";"https://maps.google.com/?cid=0x0:0xa27028da9a541800";""
"komplek housing";"Komplek perumahan";"Pomako";"8VX7+3X, Mwapi, Kec. Mimika Baru, Kabupaten Mimika, Papua 99971";"Mwapi, Kec. Mimika Baru, Kabupaten Mimika";"PAPUA";"99971";"Indonesia";"";"";"";"-4.5642522";"136.8878477";"https://maps.google.com/?cid=0x0:0xb7088b89506dd497";""
"komplek housing";"Komplek perumahan";"Rmh";"CVPM+2GF, Nawaripi, Kec. Mimika Baru, Kabupaten Mimika, Papua 99971";"Nawaripi, Kec. Mimika Baru, Kabupaten Mimika";"PAPUA";"99971";"Indonesia";"";"";"";"-4.5649973";"136.8840098";"https://maps.google.com/?cid=0x0:0x6486967866571134";""
"komplek housing";"Komplek perumahan";"jln.mubex asap";"Jl. Hasanuddin No.19, Nawaripi, Kec. Mimika Baru, Kabupaten Mimika, Papua 99971";"Nawaripi, Kec. Mimika Baru, Kabupaten Mimika";"PAPUA";"99971";"Indonesia";"";"";"";"-4.5662071";"136.8843641";"https://maps.google.com/?cid=0x0:0x55b7407a2582f5b8";""
"komplek housing";"Pembangunan Perumahan";"Aveon Timika Residence";"CVHJ+WG4, Unnamed Road, Nawaripi, Mimika Baru, Mimika Regency, Papua 99971";"Unnamed Road, Nawaripi, Mimika Baru, Mimika Regency";"PAPUA";"99971";"Indonesia";"";"";"";"-4.5702282";"136.8813372";"https://maps.google.com/?cid=0x0:0xaf51d6d2e6e2438c";""
"komplek housing";"Komplek perumahan";"Perumahan Mente";"CVMW+22P, Jl. Mente Sempan, Nawaripi, Kec. Mimika Baru, Kabupaten Mimika, Papua 99971";"Jl. Mente Sempan, Nawaripi, Kec. Mimika Baru, Kabupaten Mimika";"PAPUA";"99971";"Indonesia";"";"";"";"-4.5674024";"136.8950743";"https://maps.google.com/?cid=0x0:0x733d0eaa764a2ad0";""
"komplek housing";"Komplek perumahan";"Kenzo Home";"CVPP+VQX, Nawaripi, Kec. Mimika Baru, Kabupaten Mimika, Papua 99971";"Nawaripi, Kec. Mimika Baru, Kabupaten Mimika";"PAPUA";"99971";"Indonesia";"";"";"";"-4.5627333";"136.8870625";"https://maps.google.com/?cid=0x0:0xe04cbd26bedc26c6";""
"komplek housing";"Komplek perumahan";"Kompleks Uangdollar";"CVRP+H82, Koperapoka, Kec. Mimika Baru, Kabupaten Mimika, Papua 99971";"Koperapoka, Kec. Mimika Baru, Kabupaten Mimika";"PAPUA";"99971";"Indonesia";"";"";"";"-4.5590783";"136.8854483";"https://maps.google.com/?cid=0x0:0x1214453aa6916b47";""
"komplek housing";"komplek housing";"FAS Auto Shop";"CVJM+6G5, Nawaripi, Kec. Mimika Baru, Kabupaten Mimika, Papua 99971";"Nawaripi, Kec. Mimika Baru, Kabupaten Mimika";"PAPUA";"99971";"Indonesia";"";"";"";"-4.5698849";"136.8828213";"https://maps.google.com/?cid=0x0:0xc9c0cfa95dbbaf9c";""
"komplek housing";"Komplek perumahan";"Perumahan Joko Indah (JOKIN)";"FR2Q+8X, Nayaro, Kec. Mimika Baru, Kabupaten Mimika, Papua";"Kabupaten Mimika, Papua";"PAPUA";"";"Indonesia";"";"";"";"-4.5492403";"136.8399904";"https://maps.google.com/?cid=0x0:0x8a20a090ab4c82dc";""
"komplek housing";"Komplek perumahan";"SOBAT HOME";"CVQJ+R59, Jl. Budi Utomo, Nawaripi, Kec. Mimika Baru, Kabupaten Mimika, Papua 99971";"Jl. Budi Utomo, Nawaripi, Kec. Mimika Baru, Kabupaten Mimika";"PAPUA";"99971";"Indonesia";"";"";"";"-4.5604593";"136.8804914";"https://maps.google.com/?cid=0x0:0xf137c4d901e43823";""
"komplek housing";"Pembangunan Perumahan";"Meno memet";"CVQJ+3FQ, Nawaripi, Kec. Mimika Baru, Kabupaten Mimika, Papua 99971";"Nawaripi, Kec. Mimika Baru, Kabupaten Mimika";"PAPUA";"99971";"Indonesia";"";"";"";"-4.5622973";"136.8811831";"https://maps.google.com/?cid=0x0:0xa8ca92f60f604ef7";""
"komplek housing";"Komplek perumahan";"POTORU FAMILY";"Jl. Gaharu, Inauga, Kec. Mimika Baru, Kabupaten Mimika, Papua 99971";"Inauga, Kec. Mimika Baru, Kabupaten Mimika";"PAPUA";"99971";"Indonesia";"";"";"";"-4.5715475";"136.8872566";"https://maps.google.com/?cid=0x0:0x7a05ed86a6880831";""
"komplek housing";"Pembangunan Perumahan";"Kacebong";"Jl. Pendidikan Jalur 6 No.123, Nawaripi, Kec. Mimika Baru, Kabupaten Mimika, Papua 99910";"Nawaripi, Kec. Mimika Baru, Kabupaten Mimika";"PAPUA";"99910";"Indonesia";"";"";"";"-4.5534464";"136.8848118";"https://maps.google.com/?cid=0x0:0xb2aa5121d440ac89";""
"komplek housing";"Pembangunan Perumahan";"Komplek WENDA";"CVPX+269, Jl. Freeport lama, Nawaripi, Kec. Mimika Baru, Kabupaten Mimika, Papua 99971";"Jl. Freeport lama, Nawaripi, Kec. Mimika Baru, Kabupaten Mimika";"PAPUA";"99971";"Indonesia";" 082396219214";"";"";"-4.5649609";"136.8981235";"https://maps.google.com/?cid=0x0:0xa2fbf4d11f929727";""
"komplek housing";"komplek housing";"Kediaman Pak Made";"CVCG+4RP, Jl. Yos Sudarso, Nawaripi, Kec. Mimika Baru, Kabupaten Mimika, Papua 99910";"Jl. Yos Sudarso, Nawaripi, Kec. Mimika Baru, Kabupaten Mimika";"PAPUA";"99910";"Indonesia";"";"";"";"-4.579741";"136.877024";"https://maps.google.com/?cid=0x0:0x8ab3b6178584bbda";""
"komplek housing";"Komplek perumahan";"Perumahan Queenz Residence";"Jl. Wage Rudolf Supratman, Kamoro Jaya, Kec. Mimika Baru, Kabupaten Mimika, Papua 99910";"Kamoro Jaya, Kec. Mimika Baru, Kabupaten Mimika";"PAPUA";"99910";"Indonesia";" 085240211062";"";"";"-4.5583912";"136.8560412";"https://maps.google.com/?cid=0x0:0x944665f0cc4ced49";""
"komplek housing";"Pembangunan Perumahan";"Perumahan Permata Garden (Jasti)";"CVM4+MRH, Jl. Hasanuddin, Kamoro Jaya, Kec. Mimika Baru, Kabupaten Mimika, Papua 99971";"Jl. Hasanuddin, Kamoro Jaya, Kec. Mimika Baru, Kabupaten Mimika";"PAPUA";"99971";"Indonesia";"";"";"";"-4.5658191";"136.8571125";"https://maps.google.com/?cid=0x0:0x4abcbfefef746717";""
"komplek housing";"komplek housing";"Rumah musa yikwa";"GVCH+68C, Karang Senang, Kec. Kuala Kencana, Kabupaten Mimika, Papua 99910";"Karang Senang, Kec. Kuala Kencana, Kabupaten Mimika";"PAPUA";"99910";"Indonesia";"";"";"";"-4.4789512";"136.8786675";"https://maps.google.com/?cid=0x0:0x8a6fbd85861c5c46";""
"komplek housing";"Komplek perumahan";"Kel Bleskadit";"Jl. Pendidikan, Koperapoka, Kec. Mimika Baru, Kabupaten Mimika, Papua 99910";"Koperapoka, Kec. Mimika Baru, Kabupaten Mimika";"PAPUA";"99910";"Indonesia";"";"";"";"-4.5503891";"136.8798727";"https://maps.google.com/?cid=0x0:0x8dd143da846b3b78";""
"komplek housing";"Komplek perumahan";"Iksan gacorr";"CVVH+274, Jl. Busiri Ujung, Nawaripi, Kec. Mimika Baru, Kabupaten Mimika, Papua 99910";"Jl. Busiri Ujung, Nawaripi, Kec. Mimika Baru, Kabupaten Mimika";"PAPUA";"99910";"Indonesia";"";"";"";"-4.55748";"136.8782014";"https://maps.google.com/?cid=0x0:0x7a05b616e9100994";""
"komplek housing";"Komplek perumahan";"Sagha Timika";"Unnamed Road, Utikini Baru, Kuala Kencana, Mimika Regency, Papua 99910";"Utikini Baru, Kuala Kencana, Mimika Regency";"PAPUA";"99910";"Indonesia";"";"";"";"-4.4727262";"136.844679";"https://maps.google.com/?cid=0x0:0x9b9a97fa9cd0a584";""
"komplek housing";"komplek housing";"Papua 99964";"Kabupaten Mimika, Papua";"Kabupaten Mimika, Papua";"PAPUA";"";"Indonesia";"";"";"";"-4.5348379";"137.3706554";"https://maps.google.com/?cid=0x0:0x8a2567edb0b5d8c5";""
"komplek housing";"Komplek perumahan";"Eguwai_home";"FV6W+2HW, Jl. Kebun Sirih, Kwamki, Kec. Mimika Baru, Kabupaten Mimika, Papua 99971";"Jl. Kebun Sirih, Kwamki, Kec. Mimika Baru, Kabupaten Mimika";"PAPUA";"99971";"Indonesia";"";"";"";"-4.5398878";"136.8964555";"https://maps.google.com/?cid=0x0:0xc2557046ea60742c";""
"komplek housing";"Komplek perumahan";"Gang Degama";"FV5X+R4C, Jl. Kebun Sirih, Kwamki, Kec. Mimika Baru, Kabupaten Mimika, Papua 99971";"Jl. Kebun Sirih, Kwamki, Kec. Mimika Baru, Kabupaten Mimika";"PAPUA";"99971";"Indonesia";"";"";"";"-4.5404256";"136.8977725";"https://maps.google.com/?cid=0x0:0x510e83c470f3e8eb";""
"komplek housing";"Dapur Umum";"Domoweta";"G4VP+VFG Muara gorong gorong, Banigogom, Kec. Tembagapura, Kabupaten Mimika, Papua";"Kabupaten Mimika, Papua";"PAPUA";"";"Indonesia";"";"";"";"-4.4553223";"137.1362125";"https://maps.google.com/?cid=0x0:0x6e37747e5ec99bd";""
"komplek housing";"Komplek perumahan";"kluarga imasuly";"CVJW+7FM, Jl. Anggrek, Inauga, Kec. Mimika Baru, Kabupaten Mimika, Papua 99971";"Jl. Anggrek, Inauga, Kec. Mimika Baru, Kabupaten Mimika";"PAPUA";"99971";"Indonesia";"";"";"";"-4.5694002";"136.8962162";"https://maps.google.com/?cid=0x0:0x56625b96f24ef56a";""
"komplek housing";"komplek housing";"Rumah Uchand";"FV5W+8WP, Jl. Sosial, Kwamki, Kec. Mimika Baru, Kabupaten Mimika, Papua 99971";"Jl. Sosial, Kwamki, Kec. Mimika Baru, Kabupaten Mimika";"PAPUA";"99971";"Indonesia";"";"";"";"-4.5413066";"136.8979197";"https://maps.google.com/?cid=0x0:0xe607d18d3b356fa3";""
"komplek housing";"Komplek perumahan";"Paulus kogoya";"G4VP+VFG, Jlr v, desa walani, kec.kwamkinarama, Kabupaten Mimika, papua tengah";"Kabupaten Mimika, papua tengah";"PAPUA";"";"Indonesia";"";"";"";"-4.4553223";"137.1362125";"https://maps.google.com/?cid=0x0:0x49e636c97cc0ff9f";""
"komplek housing";"Komplek perumahan";"Rumah Yunita";"64WR+54, Omawita, Kec. Mimika Tim. Jauh, Kabupaten Mimika, Papua";"Kabupaten Mimika, Papua";"PAPUA";"";"Indonesia";"";"";"";"-4.75456";"137.140324";"https://maps.google.com/?cid=0x0:0x1e84a54a2437c329";""
"komplek housing";"Perhimpunan Pengembang Perumahan";"Komp. Manado smping gereja advent";"FV5W+PRW, Kwamki, Kec. Mimika Baru, Kabupaten Mimika, Papua 99971";"Kwamki, Kec. Mimika Baru, Kabupaten Mimika";"PAPUA";"99971";"Indonesia";"";"";"";"-4.5406441";"136.8970906";"https://maps.google.com/?cid=0x0:0x5009e88e169fba53";""
"komplek housing";"Komplek perumahan";"Aqmar house";"CVJV+93F, Jl. Anggrek, jalur 9, Kec. Wania, Kabupaten Mimika, Papua 99971";"Jl. Anggrek, jalur 9, Kec. Wania, Kabupaten Mimika";"PAPUA";"99971";"Indonesia";"";"";"";"-4.5690523";"136.8926859";"https://maps.google.com/?cid=0x0:0x656ebed46b7bccf6";""
"komplek housing";"Pembangunan Perumahan";"Agustho,Micha";"Jl. Port Site, Kwamki, Kec. Mimika Baru, Kabupaten Mimika, Papua 99971";"Kwamki, Kec. Mimika Baru, Kabupaten Mimika";"PAPUA";"99971";"Indonesia";"";"";"";"-4.5337257";"136.8978366";"https://maps.google.com/?cid=0x0:0x470e8b0db53d90e4";""
"komplek housing";"Kompleks Kondominium";"Virel";"G4VP+VFG, Banigogom, Kec. Tembagapura, Kabupaten Mimika, Papua";"Kabupaten Mimika, Papua";"PAPUA";"";"Indonesia";"";"";"";"-4.4553223";"137.1362125";"https://maps.google.com/?cid=0x0:0x3b523d96f2cc504e";""
"komplek housing";"Komplek perumahan";"Home Zondegau";"CVRV+55X, Nawaripi, Kec. Mimika Baru, Kabupaten Mimika, Papua 99971";"Nawaripi, Kec. Mimika Baru, Kabupaten Mimika";"PAPUA";"99971";"Indonesia";"";"";"";"-4.5595165";"136.8929966";"https://maps.google.com/?cid=0x0:0x4787f32604a477dc";""
"komplek housing";"Komplek perumahan";"Home Tipagamina";"CWQ2+JWW, Jl. Cemara, gorong-gorong, Nawaripi, Kec. Mimika Baru, Kabupaten Mimika, Papua 99971";"Jl. Cemara, gorong-gorong, Nawaripi, Kec. Mimika Baru, Kabupaten Mimika";"PAPUA";"99971";"Indonesia";"";"";"";"-4.5608831";"136.9023323";"https://maps.google.com/?cid=0x0:0x70065c5baf681a82";""
"komplek housing";"Komplek perumahan";"ANDIR HOME";"CVMR+G5P, Inauga, Kec. Mimika Baru, Kabupaten Mimika, Papua 99971";"Inauga, Kec. Mimika Baru, Kabupaten Mimika";"PAPUA";"99971";"Indonesia";"";"";"";"-4.5661505";"136.8904439";"https://maps.google.com/?cid=0x0:0xa27028da9a541800";""
"komplek housing";"Komplek perumahan";"Lorong mangga";"FV4X+WFG, Jl. Kebun Sirih, Kwamki, Kec. Mimika Baru, Kabupaten Mimika, Papua 99971";"Jl. Kebun Sirih, Kwamki, Kec. Mimika Baru, Kabupaten Mimika";"PAPUA";"99971";"Indonesia";"";"";"";"-4.5426753";"136.8987109";"https://maps.google.com/?cid=0x0:0xcb25b68a8689c777";""
"komplek housing";"Komplek perumahan";"Kenzo Home";"CVPP+VQX, Nawaripi, Kec. Mimika Baru, Kabupaten Mimika, Papua 99971";"Nawaripi, Kec. Mimika Baru, Kabupaten Mimika";"PAPUA";"99971";"Indonesia";"";"";"";"-4.5627333";"136.8870625";"https://maps.google.com/?cid=0x0:0xe04cbd26bedc26c6";""
"komplek housing";"Komplek perumahan";"Kompleks garshop";"CWR2+4QP, Jl. Gorong-Gorong, muara, Kec. Mimika Baru, Kabupaten Mimika, Papua 99971";"Jl. Gorong-Gorong, muara, Kec. Mimika Baru, Kabupaten Mimika";"PAPUA";"99971";"Indonesia";"";"";"";"-4.5596508";"136.9019661";"https://maps.google.com/?cid=0x0:0xc906f93e09c141ae";""
"komplek housing";"Developer Rumah Hunian Khusus";"Yuki home";"FV4W+6FW, Timika, Kwamki, Kec. Mimika Baru, Kabupaten Mimika, Papua 99971";"Timika, Kwamki, Kec. Mimika Baru, Kabupaten Mimika";"PAPUA";"99971";"Indonesia";"";"";"";"-4.5443934";"136.8962093";"https://maps.google.com/?cid=0x0:0xa755ebb5dc0f240c";""
"komplek housing";"Komplek perumahan";"Komplek lorong ambon";"CVJQ+Q4F, Jalur 1, Inauga, Kec. Mimika Baru, Kabupaten Mimika, Papua 99971";"Jalur 1, Inauga, Kec. Mimika Baru, Kabupaten Mimika";"PAPUA";"99971";"Indonesia";" 081344411988";"";"";"-4.568072";"136.8877978";"https://maps.google.com/?cid=0x0:0xa261ece8c19ab810";""
"komplek housing";"komplek housing";"Agimuga";"Kabupaten Mimika, Papua";"Kabupaten Mimika, Papua";"PAPUA";"";"Indonesia";"";"";"";"-4.6377699";"137.4882762";"https://maps.google.com/?cid=0x0:0x24e47a54c55e98d1";""
"komplek housing";"komplek housing";"Papua 99963";"Kabupaten Mimika, Papua";"Kabupaten Mimika, Papua";"PAPUA";"";"Indonesia";"";"";"";"-4.6420578";"136.7091767";"https://maps.google.com/?cid=0x0:0x489f32e37e0cec35";""
"komplek housing";"Komplek perumahan";"Perumahan residence timika 3";"FR2V+396, Kamoro Jaya, Kec. Mimika Baru, Kabupaten Mimika, Papua";"Kabupaten Mimika, Papua";"PAPUA";"";"Indonesia";"";"";"";"-4.5498375";"136.8433906";"https://maps.google.com/?cid=0x0:0x408fdf94f9a11c58";""
"komplek housing";"Kompleks Apartemen";"Home Tisha";"FRQX+PFJ rumah warna orens,pagar hitam, Jl. Manggis jalur 1 gang kelor, Timika Jaya, Kec. Mimika Baru, Kabupaten Mimika, Papua 99963";"Jl. Manggis jalur 1 gang kelor, Timika Jaya, Kec. Mimika Baru, Kabupaten Mimika";"PAPUA";"99963";"Indonesia";"";"";"";"-4.5106625";"136.848639";"https://maps.google.com/?cid=0x0:0x51ea899198087c3c";""
"komplek housing";"komplek housing";"Amungsa Teknik AC";"FR2R+5RH, Nayaro, Kec. Mimika Baru, Kabupaten Mimika, Papua 99963";"Nayaro, Kec. Mimika Baru, Kabupaten Mimika";"PAPUA";"99963";"Indonesia";"";"";"";"-4.5495645";"136.842116";"https://maps.google.com/?cid=0x0:0xb6dda57651e996fa";""
"komplek housing";"komplek housing";"FF 19";"PERUMAHAN RESIDENCE TIMIKA 3, Kamoro Jaya, Kec. Mimika Baru, Kabupaten Mimika, Papua 99971";"Kamoro Jaya, Kec. Mimika Baru, Kabupaten Mimika";"PAPUA";"99971";"Indonesia";"";"";"";"-4.5499365";"136.8431138";"https://maps.google.com/?cid=0x0:0x22449dc247e3b116";""
"komplek housing";"Komplek perumahan";"Mothy home";"CV59+3R8, Kamoro Jaya, Kec. Mimika Baru, Kabupaten Mimika, Papua 99971";"Kamoro Jaya, Kec. Mimika Baru, Kabupaten Mimika";"PAPUA";"99971";"Indonesia";"";"";"";"-4.59234";"136.8695865";"https://maps.google.com/?cid=0x0:0x5ffb6593c75d3d8b";""
"komplek housing";"Komplek perumahan";"Edi's house";"FVR2+6XX, Jl. Anggur, RT.010/RW.003, Timika Jaya, Kec. Mimika Baru, Kabupaten Mimika, Papua 99963";"Jl. Anggur, RT.010/RW.003, Timika Jaya, Kec. Mimika Baru, Kabupaten Mimika";"PAPUA";"99963";"Indonesia";"";"";"";"-4.5093772";"136.8524894";"https://maps.google.com/?cid=0x0:0x2958b9f7b50c27d9";""
"komplek housing";"komplek housing";"Jb N Ji HOME";"Perumahan residen timika No.EE. 19, Kamoro Jaya, Kec. Mimika Baru, Kabupaten Mimika, Papua 99963";"Kamoro Jaya, Kec. Mimika Baru, Kabupaten Mimika";"PAPUA";"99963";"Indonesia";"";"";"";"-4.5490871";"136.8427694";"https://maps.google.com/?cid=0x0:0x5a526a8cf89ed92e";""
"komplek housing";"Komplek perumahan";"Yanzz in here";"FQ5G+C5V, Limau Asri, Kec. Mimika Baru, Kabupaten Mimika, Papua 99963";"Limau Asri, Kec. Mimika Baru, Kabupaten Mimika";"PAPUA";"99963";"Indonesia";"";"";"";"-4.5413935";"136.7754286";"https://maps.google.com/?cid=0x0:0x48bd08e641820993";""
"komplek housing";"Komplek perumahan";"Ambi Home";"FRMX+HX7, Jl. Jeruk, Timika Jaya, Kec. Mimika Baru, Kabupaten Mimika, Papua 99963";"Jl. Jeruk, Timika Jaya, Kec. Mimika Baru, Kabupaten Mimika";"PAPUA";"99963";"Indonesia";"";"";"";"-4.5160846";"136.8499102";"https://maps.google.com/?cid=0x0:0x69bd98ecd2659e06";""
"komplek housing";"Pembangunan Perumahan";"JLN. M.K.J. MALAROA IRIGASI KOMPLEK JAWAME";"irigasi, Kamoro Jaya, Kec. Mimika Baru, Kabupaten Mimika, Papua 99976";"Kamoro Jaya, Kec. Mimika Baru, Kabupaten Mimika";"PAPUA";"99976";"Indonesia";"";"";"";"-4.5492948";"136.8444049";"https://maps.google.com/?cid=0x0:0x38398cf23ddd9516";""
"komplek housing";"Komplek perumahan";"Kateyau's house";"CV59+54J, Kamoro Jaya, Kec. Mimika Baru, Kabupaten Mimika, Papua 99971";"Kamoro Jaya, Kec. Mimika Baru, Kabupaten Mimika";"PAPUA";"99971";"Indonesia";"";"";"";"-4.5924958";"136.8677546";"https://maps.google.com/?cid=0x0:0x75d4df1a66263d82";""
"komplek housing";"Kantor Perusahaan";"Perumahan dinas pertanian kompleks BBU";"9VVC+CWV, Wonosari Jaya, Kec. Mimika Baru, Kabupaten Mimika, Papua 99971";"Wonosari Jaya, Kec. Mimika Baru, Kabupaten Mimika";"PAPUA";"99971";"Indonesia";"";"";"";"-4.6079896";"136.8730683";"https://maps.google.com/?cid=0x0:0x213aa8ed984a65d6";""
"komplek housing";"Komplek perumahan";"FB Home";"FVJ2+442, Timika Jaya, Kec. Mimika Baru, Kabupaten Mimika, Papua 99963";"Timika Jaya, Kec. Mimika Baru, Kabupaten Mimika";"PAPUA";"99963";"Indonesia";"";"";"";"-4.5195804";"136.8499896";"https://maps.google.com/?cid=0x0:0xbabeae08355f7ab4";""
"komplek housing";"Pembangunan Perumahan";"Perumahan Pemda SP 2";"FVH3+JMJ, Timika Jaya, Kec. Mimika Baru, Kabupaten Mimika, Papua 99963";"Timika Jaya, Kec. Mimika Baru, Kabupaten Mimika";"PAPUA";"99963";"Indonesia";"";"";"";"-4.5209125";"136.8541547";"https://maps.google.com/?cid=0x0:0x9c8da662431edc97";""
"komplek housing";"Komplek perumahan";"Francis home";"9VW7+CXQ, Kamoro Jaya, Kec. Mimika Baru, Kabupaten Mimika, Papua 99971";"Kamoro Jaya, Kec. Mimika Baru, Kabupaten Mimika";"PAPUA";"99971";"Indonesia";"";"";"";"-4.6039159";"136.864987";"https://maps.google.com/?cid=0x0:0x504584307a74fa2e";""
"komplek housing";"Komplek perumahan";"Rumah ku";"FRJR+MWW, Jl. Poros SP 2 - SP 5, Timika Jaya, Kec. Mimika Baru, Kabupaten Mimika, Papua 99963";"Jl. Poros SP 2 - SP 5, Timika Jaya, Kec. Mimika Baru, Kabupaten Mimika";"PAPUA";"99963";"Indonesia";"";"";"";"-4.5182712";"136.8423175";"https://maps.google.com/?cid=0x0:0x9b56c5ad49da3315";""
"komplek housing";"Komplek perumahan";"Tanah Nuraeni Hamid";"CRPW+XHX, Kamoro Jaya, Kec. Mimika Baru, Kabupaten Mimika, Papua 99971";"Kamoro Jaya, Kec. Mimika Baru, Kabupaten Mimika";"PAPUA";"99971";"Indonesia";"";"";"";"-4.562505";"136.846481";"https://maps.google.com/?cid=0x0:0x46509105946cb9b7";""
"komplek housing";"Komplek perumahan";"Thiago Home";"CRPW+XF, Kamoro Jaya, Kec. Mimika Baru, Kabupaten Mimika, Papua 99971";"Kamoro Jaya, Kec. Mimika Baru, Kabupaten Mimika";"PAPUA";"99971";"Indonesia";"";"";"";"-4.5623513";"136.8457273";"https://maps.google.com/?cid=0x0:0x74e6c9300a6a5028";""
"komplek housing";"Pembangunan Perumahan";"Tong PU kompleks";"FR2R+6RV, Jl. Hasanuddin, Nayaro, Kec. Mimika Baru, Kabupaten Mimika, Papua 99963";"Jl. Hasanuddin, Nayaro, Kec. Mimika Baru, Kabupaten Mimika";"PAPUA";"99963";"Indonesia";"";"";"";"-4.5493114";"136.8420369";"https://maps.google.com/?cid=0x0:0x37dd1fff00bec32a";""
"komplek housing";"komplek housing";"Kec. Mimika Tim.";"Kabupaten Mimika, Papua";"Kabupaten Mimika, Papua";"PAPUA";"";"Indonesia";"";"";"";"-4.6725723";"136.8266129";"https://maps.google.com/?cid=0x0:0xb9399f14e6d0d7e6";""
"komplek housing";"Komplek perumahan";"Reffles 3 H-21 Putri";"CRQJ+5R, Nayaro, Kec. Mimika Baru, Kabupaten Mimika, Papua 99963";"Nayaro, Kec. Mimika Baru, Kabupaten Mimika";"PAPUA";"99963";"Indonesia";"";"";"";"-4.5613417";"136.8314257";"https://maps.google.com/?cid=0x0:0xdcd7ce3bba3f844b";""
"komplek housing";"komplek housing";"OA";"CVFG+37J, Kamoro Jaya, Kec. Mimika Baru, Kabupaten Mimika, Papua 99971";"Kamoro Jaya, Kec. Mimika Baru, Kabupaten Mimika";"PAPUA";"99971";"Indonesia";"";"";"";"-4.5774062";"136.8755972";"https://maps.google.com/?cid=0x0:0x550c12c116a82536";""
"komplek housing";"Komplek perumahan";"Jalur 3";"FRVW+87J, Wangirja, Kec. Mimika Baru, Kabupaten Mimika, Papua 99963";"Wangirja, Kec. Mimika Baru, Kabupaten Mimika";"PAPUA";"99963";"Indonesia";"";"";"";"-4.5066556";"136.8456365";"https://maps.google.com/?cid=0x0:0x8262bc996bd3145c";""
"komplek housing";"Komplek perumahan";"Perum🏠C.136";"FV78+JRQ, Jl. Cendrawasih, Kwamki, Kec. Mimika Baru, Kabupaten Mimika, Papua 99963";"Jl. Cendrawasih, Kwamki, Kec. Mimika Baru, Kabupaten Mimika";"PAPUA";"99963";"Indonesia";"";"";"";"-4.5359176";"136.8671143";"https://maps.google.com/?cid=0x0:0x6bc4aa82ae93ccf9";""
"komplek housing";"Komplek perumahan";"Perumahan Raffless Residence 3 Blok 5 No L5";"CRQJ+5R, Nayaro, Kec. Mimika Baru, Kabupaten Mimika, Papua 99963";"Nayaro, Kec. Mimika Baru, Kabupaten Mimika";"PAPUA";"99963";"Indonesia";" 081389570264";"";"";"-4.5619259";"136.8320358";"https://maps.google.com/?cid=0x0:0xc67f214d7b433c96";""
"komplek housing";"Komplek perumahan";"Petumahan LPMAK";"CRVR+V5, Kamoro Jaya, Kec. Mimika Baru, Kabupaten Mimika, Papua 99963";"Kamoro Jaya, Kec. Mimika Baru, Kabupaten Mimika";"PAPUA";"99963";"Indonesia";"";"";"";"-4.5554849";"136.8411694";"https://maps.google.com/?cid=0x0:0xd73ea85ce8862331";""
"komplek housing";"Pembangunan Perumahan";"Mess SSS";"FVJ2+XG7, Timika Jaya, Kec. Mimika Baru, Kabupaten Mimika, Papua 99963";"Timika Jaya, Kec. Mimika Baru, Kabupaten Mimika";"PAPUA";"99963";"Indonesia";"";"";"";"-4.5175908";"136.8512921";"https://maps.google.com/?cid=0x0:0x9fdaf8430883eae9";""
"komplek housing";"Pembangunan Perumahan";"Aveon Timika Residence";"CVHJ+WG4, Unnamed Road, Nawaripi, Mimika Baru, Mimika Regency, Papua 99971";"Unnamed Road, Nawaripi, Mimika Baru, Mimika Regency";"PAPUA";"99971";"Indonesia";"";"";"";"-4.5702282";"136.8813372";"https://maps.google.com/?cid=0x0:0xaf51d6d2e6e2438c";""
"komplek housing";"komplek housing";"Mimika Bar.";"Kabupaten Mimika, Papua";"Kabupaten Mimika, Papua";"PAPUA";"";"Indonesia";"";"";"";"-4.4553134";"136.2857516";"https://maps.google.com/?cid=0x0:0x6a9ad70ccbe49095";""
"komplek housing";"komplek housing";"OA";"CVFG+37J, Kamoro Jaya, Kec. Mimika Baru, Kabupaten Mimika, Papua 99971";"Kamoro Jaya, Kec. Mimika Baru, Kabupaten Mimika";"PAPUA";"99971";"Indonesia";"";"";"";"-4.5774062";"136.8755972";"https://maps.google.com/?cid=0x0:0x550c12c116a82536";""
"komplek housing";"komplek housing";"Papua 99965";"Kabupaten Mimika, Papua";"Kabupaten Mimika, Papua";"PAPUA";"";"Indonesia";"";"";"";"-4.7985913";"137.5275422";"https://maps.google.com/?cid=0x0:0x7045b6939b86864";""
"komplek housing";"komplek housing";"Jeckson Sidabalok";"Perumahan Residence 5 No.Blok 1, Banigogom, Kec. Tembagapura, Kabupaten Mimika, Papua";"Kabupaten Mimika, Papua";"PAPUA";"";"Indonesia";"";"";"";"-4.4553223";"137.1362125";"https://maps.google.com/?cid=0x0:0xa7e819f8984f1934";""
"komplek housing";"Perhimpunan Pengembang Perumahan";"Kampung Ohotia";"3365+RWQ, Amamapare, Kec. Mimika Tim. Jauh, Kabupaten Mimika, Papua";"Kabupaten Mimika, Papua";"PAPUA";"";"Indonesia";"";"";"";"-4.9379117";"137.0598658";"https://maps.google.com/?cid=0x0:0xed4b8b4522ba93f0";""
"komplek housing";"Komplek perumahan";"Rumah Keluarga Abdul Rahim/Eka Synta";"CVMQ+8WR KOMPLEKS MASJID NURUL HIDAYAH, Jl. Mente Sempan JALUR 3 No.23, Inauga, Kec. Mimika Baru, Kabupaten Mimika, Papua 99971";"Jl. Mente Sempan JALUR 3 No.23, Inauga, Kec. Mimika Baru, Kabupaten Mimika";"PAPUA";"99971";"Indonesia";"";"";"";"-4.5665084";"136.8898079";"https://maps.google.com/?cid=0x0:0xa464704686d9b89";""
"komplek housing";"komplek housing";"Pebiyanti home";"Jln buntu, Nawaripi, Kec. Mimika Baru, Kabupaten Mimika, Papua";"Kabupaten Mimika, Papua";"PAPUA";"";"Indonesia";"";"";"";"-4.5746476";"136.8821332";"https://maps.google.com/?cid=0x0:0x5503793d156b91cb";""
"komplek housing";"komplek housing";"Obajas Home";"CVMP+M2F, Nawaripi, Kec. Mimika Baru, Kabupaten Mimika, Papua 99971";"Nawaripi, Kec. Mimika Baru, Kabupaten Mimika";"PAPUA";"99971";"Indonesia";"";"";"";"-4.5658148";"136.8850617";"https://maps.google.com/?cid=0x0:0x936d22b01982f0ef";""
"komplek housing";"Komplek perumahan";"Kel Kuda-Katiandagho home";"CVJP+W72, Nawaripi, Kec. Mimika Baru, Kabupaten Mimika, Papua 99971";"Nawaripi, Kec. Mimika Baru, Kabupaten Mimika";"PAPUA";"99971";"Indonesia";" 085244810696";"";"";"-4.5677489";"136.8856389";"https://maps.google.com/?cid=0x0:0xb46faac500e1fbe9";""
"komplek housing";"komplek housing";"Quenzy home";"CVGP+2Q5, Lorong Damai, Nawaripi, dalam, Kabupaten Mimika, Papua";"Kabupaten Mimika, Papua";"PAPUA";"";"Indonesia";"";"";"";"-4.574996";"136.8869892";"https://maps.google.com/?cid=0x0:0x874d6ac55ab4f2ac";""
"komplek housing";"Komplek perumahan";"Nomo da House";"samping RSUD Timika, Jln Yos Sudarso, Wonosari Jaya, Kec. Mimika Baru, Kabupaten Mimika, Papua 99971";"Jln Yos Sudarso, Wonosari Jaya, Kec. Mimika Baru, Kabupaten Mimika";"PAPUA";"99971";"Indonesia";"";"";"";"-4.58491";"136.8772344";"https://maps.google.com/?cid=0x0:0x7026a2dca8a5d342";""
"komplek housing";"Komplek perumahan";"Hakim's home";"Jl. Kebun Sirih No.31c, Kwamki, Kec. Mimika Baru, Kabupaten Mimika, Papua 99971";"Kwamki, Kec. Mimika Baru, Kabupaten Mimika";"PAPUA";"99971";"Indonesia";"";"";"";"-4.5430285";"136.899182";"https://maps.google.com/?cid=0x0:0x19d2ebe52132ad5a";""
"komplek housing";"Komplek perumahan";"ITHA HOME";"CVHJ+RQ3, Nawaripi, Kec. Mimika Baru, Kabupaten Mimika, Papua 99971";"Nawaripi, Kec. Mimika Baru, Kabupaten Mimika";"PAPUA";"99971";"Indonesia";"";"";"";"-4.5704755";"136.8819284";"https://maps.google.com/?cid=0x0:0xb9a949ca2acf0a92";""
"komplek housing";"Komplek perumahan";"Tika home";"CVPP+PQC, Nawaripi, Kec. Mimika Baru, Kabupaten Mimika, Papua 99971";"Nawaripi, Kec. Mimika Baru, Kabupaten Mimika";"PAPUA";"99971";"Indonesia";"";"";"";"-4.5631338";"136.887024";"https://maps.google.com/?cid=0x0:0xed489804d5eb0298";""
"komplek housing";"Perumahan";"KOMPLEKS REJAT GOLDENLAND";"FV4X+82W, Kwamki, Kec. Mimika Baru, Kabupaten Mimika, Papua 99971";"Kwamki, Kec. Mimika Baru, Kabupaten Mimika";"PAPUA";"99971";"Indonesia";"";"";"";"-4.5441622";"136.8976566";"https://maps.google.com/?cid=0x0:0x8d55cc82e1051168";""
"komplek housing";"Pembangunan Perumahan";"Komplek WENDA";"CVPX+269, Jl. Freeport lama, Nawaripi, Kec. Mimika Baru, Kabupaten Mimika, Papua 99971";"Jl. Freeport lama, Nawaripi, Kec. Mimika Baru, Kabupaten Mimika";"PAPUA";"99971";"Indonesia";" 082396219214";"";"";"-4.5649609";"136.8981235";"https://maps.google.com/?cid=0x0:0xa2fbf4d11f929727";""
"komplek housing";"Komplek perumahan";"Jalur 9";"CVJV+93F, Jl. Anggrek, Inauga, Kec. Mimika Baru, Kabupaten Mimika, Papua 99971";"Jl. Anggrek, Inauga, Kec. Mimika Baru, Kabupaten Mimika";"PAPUA";"99971";"Indonesia";"";"";"";"-4.5690523";"136.8926859";"https://maps.google.com/?cid=0x0:0x38518afdfd0e36a3";""
"komplek housing";"Komplek perumahan";"Home Tipagamina";"CWQ2+JWW, Jl. Cemara, gorong-gorong, Nawaripi, Kec. Mimika Baru, Kabupaten Mimika, Papua 99971";"Jl. Cemara, gorong-gorong, Nawaripi, Kec. Mimika Baru, Kabupaten Mimika";"PAPUA";"99971";"Indonesia";"";"";"";"-4.5608831";"136.9023323";"https://maps.google.com/?cid=0x0:0x70065c5baf681a82";""
"komplek housing";"Komplek perumahan";"MING'SHouseTIMIKA";"CV6Q+928, Unnamed Road, Wonosari Jaya, Mimika Baru, Mimika Regency, Papua 99971";"Unnamed Road, Wonosari Jaya, Mimika Baru, Mimika Regency";"PAPUA";"99971";"Indonesia";"";"";"";"-4.5890806";"136.8875908";"https://maps.google.com/?cid=0x0:0xc40b188693dc1502";""
"komplek housing";"Komplek perumahan";"Rumah Yunita";"64WR+54, Omawita, Kec. Mimika Tim. Jauh, Kabupaten Mimika, Papua";"Kabupaten Mimika, Papua";"PAPUA";"";"Indonesia";"";"";"";"-4.75456";"137.140324";"https://maps.google.com/?cid=0x0:0x1e84a54a2437c329";""
"komplek housing";"Developer Rumah Hunian Khusus";"Yuki home";"FV4W+6FW, Timika, Kwamki, Kec. Mimika Baru, Kabupaten Mimika, Papua 99971";"Timika, Kwamki, Kec. Mimika Baru, Kabupaten Mimika";"PAPUA";"99971";"Indonesia";"";"";"";"-4.5443934";"136.8962093";"https://maps.google.com/?cid=0x0:0xa755ebb5dc0f240c";""
"komplek housing";"Kantor Perusahaan";"Perumahan dinas pertanian kompleks BBU";"9VVC+CWV, Wonosari Jaya, Kec. Mimika Baru, Kabupaten Mimika, Papua 99971";"Wonosari Jaya, Kec. Mimika Baru, Kabupaten Mimika";"PAPUA";"99971";"Indonesia";"";"";"";"-4.6079896";"136.8730683";"https://maps.google.com/?cid=0x0:0x213aa8ed984a65d6";""
"komplek housing";"komplek housing";"Jita";"Kabupaten Mimika, Papua";"Kabupaten Mimika, Papua";"PAPUA";"";"Indonesia";"";"";"";"-4.9253561";"137.5275422";"https://maps.google.com/?cid=0x0:0xf747072372ebd7c8";""
"komplek housing";"Komplek perumahan";"Pondok gede housing";"PW69+G7J, Jl. Teratai, RT.005/RW.003, Jatirahayu, Kec. Pd. Melati, Kota Bks, Jawa Barat 17414";"Jl. Teratai, RT.005/RW.003, Jatirahayu, Kec. Pd. Melati, Kota Bks";"PAPUA";"17414";"Indonesia";"";"";"";"-6.2886631";"106.9181392";"https://maps.google.com/?cid=0x0:0xe09247830c5049e9";""
"komplek housing";"Komplek perumahan";"Pondok Gede Housing 1";"Jl. Cipta Raya No.45-3, RT.001/RW.003, Jatirahayu, Kec. Pd. Melati, Kota Bks, Jawa Barat 17414";"RT.001/RW.003, Jatirahayu, Kec. Pd. Melati, Kota Bks";"PAPUA";"17414";"Indonesia";"";"";"";"-6.2852504";"106.9163397";"https://maps.google.com/?cid=0x0:0x3132afedbf38cd61";""
"komplek housing";"Komplek perumahan";"Pondok Gede Housing II";"Housing II, Jl. Raya Hankam, RT.001/RW.004, Jatirahayu, Pondok Gede, Bekasi, West Java";"Kota Bks, Jawa Barat";"PAPUA";"";"Indonesia";"";"";"";"-6.2876701";"106.9147674";"https://maps.google.com/?cid=0x0:0x2a52e601c20d18f2";""
"komplek housing";"Komplek perumahan";"housing ora sepele";"PW78+7XV, Jl. Eka Cipta, RT.002/RW.003, Jatirahayu, Kec. Pd. Melati, Kota Bks, Jawa Barat 17414";"Jl. Eka Cipta, RT.002/RW.003, Jatirahayu, Kec. Pd. Melati, Kota Bks";"PAPUA";"17414";"Indonesia";"";"";"";"-6.2867545";"106.9174087";"https://maps.google.com/?cid=0x0:0xd42fc03a69b93e2a";""
"komplek housing";"komplek housing";"Papua 99966";"Papua";"Papua";"PAPUA";"";"Indonesia";"";"";"";"-4.2043028";"137.5668376";"https://maps.google.com/?cid=0x0:0x1fe5af7715c1e227";""
"komplek housing";"komplek housing";"Papua";"";"Papua";"PAPUA";"";"Indonesia";"";"";"";"-4.269928";"138.0803529";"https://maps.google.com/?cid=0x0:0xeba94e9c5eefe673";""
"komplek housing";"Komplek perumahan";"Pondok Gede Housing II";"Housing II, Jl. Raya Hankam, RT.001/RW.004, Jatirahayu, Pondok Gede, Bekasi, West Java";"Kota Bks, Jawa Barat";"PAPUA";"";"Indonesia";"";"";"";"-6.2876701";"106.9147674";"https://maps.google.com/?cid=0x0:0x2a52e601c20d18f2";""
"komplek housing";"Komplek perumahan";"Pondok gede housing";"PW69+G7J, Jl. Teratai, RT.005/RW.003, Jatirahayu, Kec. Pd. Melati, Kota Bks, Jawa Barat 17414";"Jl. Teratai, RT.005/RW.003, Jatirahayu, Kec. Pd. Melati, Kota Bks";"PAPUA";"17414";"Indonesia";"";"";"";"-6.2886631";"106.9181392";"https://maps.google.com/?cid=0x0:0xe09247830c5049e9";""
"komplek housing";"Komplek perumahan";"Komplek Raya Housing Blok C No.6";"Jl. Bhineka, RT.006/RW.011, Jatiwaringin, Kec. Pd. Gede, Kota Bks, Jawa Barat 17411";"RT.006/RW.011, Jatiwaringin, Kec. Pd. Gede, Kota Bks";"PAPUA";"17411";"Indonesia";"";"";"";"-6.2813572";"106.9097108";"https://maps.google.com/?cid=0x0:0x8658ae7bd2f9a7a2";""
"komplek housing";"Kompleks Townhouse";"Jatos 6";"Jl. Cemp., RT.005/RW.007, Jatiwaringin, Kec. Pd. Gede, Kota Bks, Jawa Barat 17411";"RT.005/RW.007, Jatiwaringin, Kec. Pd. Gede, Kota Bks";"PAPUA";"17411";"Indonesia";" 085179971070";"";"";"-6.2710637";"106.928173";"https://maps.google.com/?cid=0x0:0x205b620f27592682";""
"komplek housing";"Establishment";"Ahzavi Residence Pondok Gede";"PW4J+JHQ, Jl. Celepuk I Ujung, RT.012/RW.014, Jatirahayu, Kec. Pd. Melati, Kota Bks, Jawa Barat 17414";"Jl. Celepuk I Ujung, RT.012/RW.014, Jatirahayu, Kec. Pd. Melati, Kota Bks";"PAPUA";"17414";"Indonesia";"";"";"";"-6.2934194";"106.9314803";"https://maps.google.com/?cid=0x0:0x7b24a580738077da";""
"komplek housing";"Komplek perumahan";"Perumahan seruni hills";"Seruni hills 3, Jatiranggon, Kec. Jatisampurna, Kota Bks, Jawa Barat 17432";"Jatiranggon, Kec. Jatisampurna, Kota Bks";"PAPUA";"17432";"Indonesia";" 02184310764";"";"";"-6.3404943";"106.9220168";"https://maps.google.com/?cid=0x0:0xab268aa8942fc95";""
"komplek housing";"Komplek perumahan";"Bumi Dirgantara Permai";"RT.009/RW.011, Jatisari, Kec. Jatiasih, Kota Bks, Jawa Barat 17426";"Jatisari, Kec. Jatiasih, Kota Bks";"PAPUA";"17426";"Indonesia";"";"";"";"-6.3463327";"106.9431248";"https://maps.google.com/?cid=0x0:0xf40af7137bfb745c";""
"komplek housing";"Perumahan";"warga";"Jl. Kusuma Barat Jl. Wisma Jaya No.16 Blok DD3, RT.006/RW.18, Duren Jaya, Kec. Bekasi Tim., Kota Bks, Jawa Barat 17111";"RT.006/RW.18, Duren Jaya, Kec. Bekasi Tim., Kota Bks";"PAPUA";"17111";"Indonesia";"";"";"";"-6.23561";"107.0278";"https://maps.google.com/?cid=0x0:0x56c4cd28ca82a2fc";""
"komplek housing";"komplek housing";"Papua 99971";"Kabupaten Mimika, Papua";"Kabupaten Mimika, Papua";"PAPUA";"";"Indonesia";"";"";"";"-4.7222914";"136.941659";"https://maps.google.com/?cid=0x0:0x309b23773920c02b";""
"komplek housing";"komplek housing";"Home elloy";"CWQ3+C44, Nawaripi, Kec. Mimika Baru, Kabupaten Mimika, Papua 99971";"Nawaripi, Kec. Mimika Baru, Kabupaten Mimika";"PAPUA";"99971";"Indonesia";"";"";"";"-4.5614994";"136.9028255";"https://maps.google.com/?cid=0x0:0x3916f274f151a55";""
"komplek housing";"Komplek perumahan";"HOMEX";"CVFP+PJG, Inauga, Kec. Mimika Baru, Kabupaten Mimika, Papua 99971";"Inauga, Kec. Mimika Baru, Kabupaten Mimika";"PAPUA";"99971";"Indonesia";"";"";"";"-4.5754643";"136.887065";"https://maps.google.com/?cid=0x0:0xd646e82ac9aad7d7";""
"komplek housing";"komplek housing";"Home jeko";"CV7H+867, Wonosari Jaya, Kec. Mimika Baru, Kabupaten Mimika, Papua 99971";"Wonosari Jaya, Kec. Mimika Baru, Kabupaten Mimika";"PAPUA";"99971";"Indonesia";"";"";"";"-4.5867219";"136.8780376";"https://maps.google.com/?cid=0x0:0x7309b70a642f58d9";""
"komplek housing";"Komplek perumahan";"Mothy home";"CV59+3R8, Kamoro Jaya, Kec. Mimika Baru, Kabupaten Mimika, Papua 99971";"Kamoro Jaya, Kec. Mimika Baru, Kabupaten Mimika";"PAPUA";"99971";"Indonesia";"";"";"";"-4.59234";"136.8695865";"https://maps.google.com/?cid=0x0:0x5ffb6593c75d3d8b";""
"komplek housing";"Komplek perumahan";"My home JJ Lawalata jr";"CV6M+24R, Wonosari Jaya, Kec. Mimika Baru, Kabupaten Mimika, Papua 99971";"Wonosari Jaya, Kec. Mimika Baru, Kabupaten Mimika";"PAPUA";"99971";"Indonesia";"";"";"";"-4.5898946";"136.8827511";"https://maps.google.com/?cid=0x0:0xbd219cbe3a0414a0";""
"komplek housing";"komplek housing";"Obajas Home";"CVMP+M2F, Nawaripi, Kec. Mimika Baru, Kabupaten Mimika, Papua 99971";"Nawaripi, Kec. Mimika Baru, Kabupaten Mimika";"PAPUA";"99971";"Indonesia";"";"";"";"-4.5658148";"136.8850617";"https://maps.google.com/?cid=0x0:0x936d22b01982f0ef";""
"komplek housing";"Komplek perumahan";"Muhammad Ainur Ridho House";"CV59+2V7, Kamoro Jaya, Kec. Mimika Baru, Kabupaten Mimika, Papua 99971";"Kamoro Jaya, Kec. Mimika Baru, Kabupaten Mimika";"PAPUA";"99971";"Indonesia";"";"";"";"-4.593461";"136.869511";"https://maps.google.com/?cid=0x0:0xf6ca2f1cd80184e5";""
"komplek housing";"komplek housing";"CiaCio House";"CVFG+46R, Kamoro Jaya, Kec. Mimika Baru, Kabupaten Mimika, Papua 99971";"Kamoro Jaya, Kec. Mimika Baru, Kabupaten Mimika";"PAPUA";"99971";"Indonesia";"";"";"";"-4.5771314";"136.8755219";"https://maps.google.com/?cid=0x0:0x6d1c4f7ca8cc4dd9";""
"komplek housing";"Komplek perumahan";"GWM";"CV5H+JG3, Jl. SP IV, Wonosari Jaya, Kec. Mimika Baru, Kabupaten Mimika, Papua 99971";"Jl. SP IV, Wonosari Jaya, Kec. Mimika Baru, Kabupaten Mimika";"PAPUA";"99971";"Indonesia";"";"";"";"-4.5909922";"136.8787927";"https://maps.google.com/?cid=0x0:0x4c192960a9de074c";""
"komplek housing";"Komplek perumahan";"HOUSE OF BANDITTO ∆REA°";"CV2C+R3C, Kamoro Jaya, Kec. Mimika Baru, Kabupaten Mimika, Papua 99971";"Kamoro Jaya, Kec. Mimika Baru, Kabupaten Mimika";"PAPUA";"99971";"Indonesia";"";"";"";"-4.5979288";"136.8701558";"https://maps.google.com/?cid=0x0:0x82645d553b52f2e";""
"komplek housing";"komplek housing";"Kel.B.Mainassy";"Graha Bintang Timur Blok.E Nomor 11, Kamoro Jaya, Kec. Mimika Baru, Kabupaten Mimika, Papua 99971";"Kamoro Jaya, Kec. Mimika Baru, Kabupaten Mimika";"PAPUA";"99971";"Indonesia";"";"";"";"-4.5751837";"136.8741523";"https://maps.google.com/?cid=0x0:0xeebd3652240096af";""
"komplek housing";"Komplek perumahan";"MING'SHouseTIMIKA";"CV6Q+928, Unnamed Road, Wonosari Jaya, Mimika Baru, Mimika Regency, Papua 99971";"Unnamed Road, Wonosari Jaya, Mimika Baru, Mimika Regency";"PAPUA";"99971";"Indonesia";"";"";"";"-4.5890806";"136.8875908";"https://maps.google.com/?cid=0x0:0xc40b188693dc1502";""
"komplek housing";"Komplek perumahan";"Oke papua";"CVFP+PJG, Inauga, Kec. Mimika Baru, Kabupaten Mimika, Papua 99971";"Inauga, Kec. Mimika Baru, Kabupaten Mimika";"PAPUA";"99971";"Indonesia";"";"";"";"-4.5750663";"136.8868348";"https://maps.google.com/?cid=0x0:0xa108ce81dde9ecf4";""
"komplek housing";"komplek housing";"Mhemey";"Jl. Bumi Kamoro Indah, Wonosari Jaya, Kabupaten Mimika, Papua 99971";"Wonosari Jaya, Kabupaten Mimika";"PAPUA";"99971";"Indonesia";"";"";"";"-4.5883303";"136.8762488";"https://maps.google.com/?cid=0x0:0x2123ffe03097ce84";""
"komplek housing";"Komplek perumahan";"Perumahan Mente";"CVMW+22P, Jl. Mente Sempan, Nawaripi, Kec. Mimika Baru, Kabupaten Mimika, Papua 99971";"Jl. Mente Sempan, Nawaripi, Kec. Mimika Baru, Kabupaten Mimika";"PAPUA";"99971";"Indonesia";"";"";"";"-4.5674024";"136.8950743";"https://maps.google.com/?cid=0x0:0x733d0eaa764a2ad0";""
"komplek housing";"Komplek perumahan";"Rumah tinggal";"CV2G+WJ6, Jl. Merpati, RT.04/RW.no 203, Wonosari Jaya, Kec. Mimika Baru, Kabupaten Mimika, Papua 99971";"Jl. Merpati, RT.04/RW.no 203, Wonosari Jaya, Kec. Mimika Baru, Kabupaten Mimika";"PAPUA";"99971";"Indonesia";"";"";"";"-4.597709";"136.8765289";"https://maps.google.com/?cid=0x0:0xcacdbc33807c0e81";""
"komplek housing";"komplek housing";"Alief Home";"CV6H+R7F, Wonosari Jaya, Kec. Mimika Baru, Kabupaten Mimika, Papua 99971";"Wonosari Jaya, Kec. Mimika Baru, Kabupaten Mimika";"PAPUA";"99971";"Indonesia";"";"";"";"-4.5879313";"136.878183";"https://maps.google.com/?cid=0x0:0x6b45597997a7c806";""
"komplek housing";"Komplek perumahan";"Alex";"CV6G+9H6, Jl. Bumi Kamoro Indah, Wonosari Jaya, Kec. Mimika Baru, Kabupaten Mimika, Papua 99971";"Jl. Bumi Kamoro Indah, Wonosari Jaya, Kec. Mimika Baru, Kabupaten Mimika";"PAPUA";"99971";"Indonesia";"";"";"";"-4.588967";"136.8764278";"https://maps.google.com/?cid=0x0:0xd7121e849a9d5125";""
"komplek housing";"";"Perumahan Bintang Timur Block BC";"Jl. Nawaripi Baru, Nawaripi, Kec. Mimika Baru, Kabupaten Mimika, Papua 99971";"Nawaripi, Kec. Mimika Baru, Kabupaten Mimika";"PAPUA";"99971";"Indonesia";"";"";"";"-4.576622";"136.8766452";"https://maps.google.com/?cid=0x0:0x9cce9dfd3fce32cb";""
"komplek housing";"komplek housing";"Kec. Mimika Tim. Jauh";"Kabupaten Mimika, Papua";"Kabupaten Mimika, Papua";"PAPUA";"";"Indonesia";"";"";"";"-4.762621";"137.058302";"https://maps.google.com/?cid=0x0:0x3a99f40c1508e3d2";""
"komplek housing";"Komplek perumahan";"PERUMAHAN GURU SMA NEGERI 1 MIMIKA";"CVJP+GQR, Inauga, Kec. Mimika Baru, Kabupaten Mimika, Papua 99971";"Inauga, Kec. Mimika Baru, Kabupaten Mimika";"PAPUA";"99971";"Indonesia";"";"";"";"-4.5686404";"136.8868878";"https://maps.google.com/?cid=0x0:0x11a065fe1962d55c";""
"komplek housing";"Komplek perumahan";"rumah Rhya";"CV3F+3WM, Ohotya, Kec. Mimika Tim. Jauh, Kabupaten Mimika, Papua 99971";"Ohotya, Kec. Mimika Tim. Jauh, Kabupaten Mimika";"PAPUA";"99971";"Indonesia";"";"";"";"-4.5973019";"136.8749562";"https://maps.google.com/?cid=0x0:0xa46ab6096274ce4";""
"komplek housing";"komplek housing";"OA";"CVFG+37J, Kamoro Jaya, Kec. Mimika Baru, Kabupaten Mimika, Papua 99971";"Kamoro Jaya, Kec. Mimika Baru, Kabupaten Mimika";"PAPUA";"99971";"Indonesia";"";"";"";"-4.5774062";"136.8755972";"https://maps.google.com/?cid=0x0:0x550c12c116a82536";""
"komplek housing";"Pembangunan Perumahan";"Home";"CVFG+G3G, Kamoro Jaya, Kec. Mimika Baru, Kabupaten Mimika, Papua 99971";"Kamoro Jaya, Kec. Mimika Baru, Kabupaten Mimika";"PAPUA";"99971";"Indonesia";"";"";"";"-4.5762619";"136.8751972";"https://maps.google.com/?cid=0x0:0x97a24accabbdd9ac";""
"komplek housing";"Pembangunan Perumahan";"Aveon Timika Residence";"CVHJ+WG4, Unnamed Road, Nawaripi, Mimika Baru, Mimika Regency, Papua 99971";"Unnamed Road, Nawaripi, Mimika Baru, Mimika Regency";"PAPUA";"99971";"Indonesia";"";"";"";"-4.5702282";"136.8813372";"https://maps.google.com/?cid=0x0:0xaf51d6d2e6e2438c";""
"komplek housing";"";"Perumahan";"CV3H+FC4, Wonosari Jaya, Kec. Mimika Baru, Kabupaten Mimika, Papua 99971";"Wonosari Jaya, Kec. Mimika Baru, Kabupaten Mimika";"PAPUA";"99971";"Indonesia";"";"";"";"-4.5963638";"136.8785892";"https://maps.google.com/?cid=0x0:0x8f697fea9e57ed37";""
"komplek housing";"Kantor Perusahaan";"Perumahan dinas pertanian kompleks BBU";"9VVC+CWV, Wonosari Jaya, Kec. Mimika Baru, Kabupaten Mimika, Papua 99971";"Wonosari Jaya, Kec. Mimika Baru, Kabupaten Mimika";"PAPUA";"99971";"Indonesia";"";"";"";"-4.6079896";"136.8730683";"https://maps.google.com/?cid=0x0:0x213aa8ed984a65d6";""
"komplek housing";"Hostel";"Kompleks Rumah Hantu Timika";"Jl. Megantara No.7, Kwamki, Kec. Mimika Baru, Kabupaten Mimika, Papua 99971";"Kwamki, Kec. Mimika Baru, Kabupaten Mimika";"PAPUA";"99971";"Indonesia";"";"";"";"-4.5476585";"136.892452";"https://maps.google.com/?cid=0x0:0x6f23eca628913499";""
"komplek housing";"komplek housing";"Papua 99968";"Kabupaten Mimika, Papua";"Kabupaten Mimika, Papua";"PAPUA";"";"Indonesia";"";"";"";"-4.2590064";"136.5547852";"https://maps.google.com/?cid=0x0:0x32d5cd81eafb994";""
"komplek housing";"Pembangunan Perumahan";"kuala kencana";"JPMX+V4H, Bhintuka, Kec. Kuala Kencana, Kabupaten Mimika, Papua";"Kabupaten Mimika, Papua";"PAPUA";"";"Indonesia";"";"";"";"-4.3653215";"136.7478493";"https://maps.google.com/?cid=0x0:0xc81e745aaeafee8a";""
"komplek housing";"komplek housing";"RT.1 JL.BANGAU PTFI KUALA KENCANA";"Jl. Bangau No.4, Kuala Kencana, Kec. Kuala Kencana, Kabupaten Mimika, Papua 99910";"Kuala Kencana, Kec. Kuala Kencana, Kabupaten Mimika";"PAPUA";"99910";"Indonesia";"";"";"";"-4.3975772";"136.8579399";"https://maps.google.com/?cid=0x0:0x818c8a5aca52be78";""
"komplek housing";"Kantor Perusahaan";"Perumahan PT Freeport Indonesia";"Jl. Minajerwi No.3, RW B, Kec. Kuala Kencana, Kabupaten Mimika, Papua 99910";"RW B, Kec. Kuala Kencana, Kabupaten Mimika";"PAPUA";"99910";"Indonesia";" 081371195726";"";"";"-4.4036994";"136.8656152";"https://maps.google.com/?cid=0x0:0x260c89677a3cb1bd";""
"komplek housing";"Komplek perumahan";"RT.3 KUALA KENCANA";"JV24+24V, Kuala Kencana, Kec. Kuala Kencana, Kabupaten Mimika, Papua 99910";"Kuala Kencana, Kec. Kuala Kencana, Kabupaten Mimika";"PAPUA";"99910";"Indonesia";"";"";"";"-4.3998978";"136.8552904";"https://maps.google.com/?cid=0x0:0xadbabd8da724a2db";""
"komplek housing";"Komplek perumahan";"Kuala Kencana";"Jl. Kasuari No.72 Rt. 6, Kuala Kencana, Kec. Kuala Kencana, Kabupaten Mimika, Papua 99910";"Kuala Kencana, Kec. Kuala Kencana, Kabupaten Mimika";"PAPUA";"99910";"Indonesia";"";"";"";"-4.4017425";"136.8586894";"https://maps.google.com/?cid=0x0:0x8741752a83c2f1c8";""
"komplek housing";"Otoritas Perumahan";"Kuala Kencana Rt.3 PT.freeport Indonesia";"JV23+6VX, Jl. Merpati, RT.03/RW.A, Taman komplek, Kec. Kuala Kencana, Kabupaten Mimika, Papua 99910";"Jl. Merpati, RT.03/RW.A, Taman komplek, Kec. Kuala Kencana, Kabupaten Mimika";"PAPUA";"99910";"Indonesia";" 081343236119";"";"";"-4.3993754";"136.8547445";"https://maps.google.com/?cid=0x0:0xf77e9a78bcad22d8";""
"komplek housing";"Komplek perumahan";"Bambang family house";"JLR JAWA TIMUR SP13, Bhintuka, Kabupaten Mimika, Papua";"Kabupaten Mimika, Papua";"PAPUA";"";"Indonesia";"";"";"";"-4.458017";"136.8038523";"https://maps.google.com/?cid=0x0:0x6b91e76955c665ee";""
"komplek housing";"Komplek perumahan";"De Forest House";"Jl. Bougenville No.15, Kuala Kencana, Mimika Regency, Papua 99968";"Kuala Kencana, Mimika Regency";"PAPUA";"99968";"Indonesia";"";"";"";"-4.4089649";"136.8686501";"https://maps.google.com/?cid=0x0:0xfccff93b624ec885";""
"komplek housing";"Komplek perumahan";"DMambor's House";"Pondok Amor Indah, Jalan Cendrawasih Perumahan No.36 Blok C8, Karang Senang, Kec. Kuala Kencana, Kabupaten Mimika, Papua 99968";"Jalan Cendrawasih Perumahan No.36 Blok C8, Karang Senang, Kec. Kuala Kencana, Kabupaten Mimika";"PAPUA";"99968";"Indonesia";"";"";"";"-4.4694768";"136.8423455";"https://maps.google.com/?cid=0x0:0x486788f95ecb70a9";""
"komplek housing";"Komplek perumahan";"Murib Family";"Kode Pos, Jl. Merpati No.42, RT.3, Kuala Kencana, Mimika Regency, Papua 99968";"Jl. Merpati No.42, RT.3, Kuala Kencana, Mimika Regency";"PAPUA";"99968";"Indonesia";"";"";"";"-4.3993871";"136.8532016";"https://maps.google.com/?cid=0x0:0xe1d4f58acbe72d88";""
"komplek housing";"komplek housing";"Papua 99967";"Kabupaten Mimika, Papua";"Kabupaten Mimika, Papua";"PAPUA";"";"Indonesia";"";"";"";"-4.2294388";"137.0193913";"https://maps.google.com/?cid=0x0:0x89f915cf55d48161";""
"komplek housing";"Gedung Apartemen";"HIDDEN VALLEY COMPLEX";"R3WX+8Q7, Tembagapura, Kec. Tembagapura, Kabupaten Mimika, Papua 99967";"Tembagapura, Kec. Tembagapura, Kabupaten Mimika";"PAPUA";"99967";"Indonesia";"";"";"";"-4.1542159";"137.0994215";"https://maps.google.com/?cid=0x0:0x8f548cbaf64490ca";""
"komplek housing";"Komplek perumahan";"AMOLE HOUSING COMPLEX";"V36Q+47Q, Jl. Tembagapura Raya, Tembagapura, Kec. Tembagapura, Kabupaten Mimika, Papua 99967";"Jl. Tembagapura Raya, Tembagapura, Kec. Tembagapura, Kabupaten Mimika";"PAPUA";"99967";"Indonesia";"";"";"";"-4.1396574";"137.0882283";"https://maps.google.com/?cid=0x0:0x52af69d45091d4cd";""
"komplek housing";"Komplek perumahan";"Tree Haven Housing Complex";"V35Q+JH8, Tembagapura, Kec. Tembagapura, Kabupaten Mimika, Papua 98972";"Tembagapura, Kec. Tembagapura, Kabupaten Mimika";"PAPUA";"98972";"Indonesia";"";"";"";"-4.1409705";"137.0889433";"https://maps.google.com/?cid=0x0:0x3b53b123b41db059";""
"komplek housing";"Komplek perumahan";"Street Housing Complex - ST11A 203";"V34Q+8XX, Tembagapura, Kec. Tembagapura, Kabupaten Mimika, Papua 99967";"Tembagapura, Kec. Tembagapura, Kabupaten Mimika";"PAPUA";"99967";"Indonesia";"";"";"";"-4.1441473";"137.0899709";"https://maps.google.com/?cid=0x0:0x9f8cfb7c723da1e4";""
"komplek housing";"Komplek perumahan";"Rainbow Ridge";"R3VW+C7M, Arwandop, Kec. Tembagapura, Kabupaten Mimika, Papua 99967";"Arwandop, Kec. Tembagapura, Kabupaten Mimika";"PAPUA";"99967";"Indonesia";"";"";"";"-4.1564045";"137.0956728";"https://maps.google.com/?cid=0x0:0xa35739bc5e39870b";""
"komplek housing";"Komplek perumahan";"WEST COMPLEX";"V35P+QQ8, Tembagapura, Kec. Tembagapura, Kabupaten Mimika, Papua 98972";"Tembagapura, Kec. Tembagapura, Kabupaten Mimika";"PAPUA";"98972";"Indonesia";"";"";"";"-4.1405946";"137.0869665";"https://maps.google.com/?cid=0x0:0x203e70c0e0946b6d";""
"komplek housing";"Komplek perumahan";"Terrace Estate";"V35Q+9V9, Tembagapura, Kec. Tembagapura, Kabupaten Mimika, Papua 98972";"Tembagapura, Kec. Tembagapura, Kabupaten Mimika";"PAPUA";"98972";"Indonesia";"";"";"";"-4.1415941";"137.0897204";"https://maps.google.com/?cid=0x0:0x20cc042f77e07d69";""
"komplek housing";"Komplek perumahan";"PRAMBANAN COMPLEX";"V35W+HC6, Tembagapura, Kec. Tembagapura, Kabupaten Mimika, Papua 98972";"Tembagapura, Kec. Tembagapura, Kabupaten Mimika";"PAPUA";"98972";"Indonesia";"";"";"";"-4.1410979";"137.0960039";"https://maps.google.com/?cid=0x0:0x6ec8d28bd206b244";""
"komplek housing";"Komplek perumahan";"DRZ House";"Jl. Street VI No.154, Tembagapura, Mimika Regency, Papua 99967";"Tembagapura, Mimika Regency";"PAPUA";"99967";"Indonesia";"";"";"";"-4.1430005";"137.0904884";"https://maps.google.com/?cid=0x0:0x37e756a8e396ff0a";""
"komplek housing";"Kompleks Kondominium";"BARAK P Ridge Camp";"V4Q2+X87, Jl. Ridge Camp Road, Tembagapura, Kec. Tembagapura, Kabupaten Mimika, Papua 98972";"Jl. Ridge Camp Road, Tembagapura, Kec. Tembagapura, Kabupaten Mimika";"PAPUA";"98972";"Indonesia";"";"";"";"-4.1100813";"137.1007832";"https://maps.google.com/?cid=0x0:0x12af5fa12694315c";""
"komplek housing";"Guest house";"Guest house 479";"V34Q+C8Q, Arwandop, Tembagapura, Mimika Regency, Papua";"Kabupaten Mimika, Papua";"PAPUA";"";"Indonesia";"";"";"";"-4.1440763";"137.0887154";"https://maps.google.com/?cid=0x0:0x151dcf5d69c42c12";""
"komplek housing";"Kompleks Apartemen";"Bukit Barat";"V34P+M9V, Tembagapura, Kec. Tembagapura, Kabupaten Mimika, Papua";"Kabupaten Mimika, Papua";"PAPUA";"";"Indonesia";"";"";"";"-4.1432711";"137.0859312";"https://maps.google.com/?cid=0x0:0x5d70423726dec353";""
"komplek housing";"Komplek perumahan";"Brilly's House";"Jl. Street VII No.162, Tembagapura, Kec. Tembagapura, Kabupaten Mimika, Papua 99967";"Tembagapura, Kec. Tembagapura, Kabupaten Mimika";"PAPUA";"99967";"Indonesia";"";"";"";"-4.1442164";"137.0911976";"https://maps.google.com/?cid=0x0:0x340e2f9b627e898a";""
"komplek housing";"Pembangunan Perumahan";"Beanekogma";"R679+GFC, Tsinga, Kec. Tembagapura, Kabupaten Mimika, Papua 99967";"Tsinga, Kec. Tembagapura, Kabupaten Mimika";"PAPUA";"99967";"Indonesia";"";"";"";"-4.1867372";"137.2192118";"https://maps.google.com/?cid=0x0:0x132ba7a7262896e3";""
"komplek housing";"Kompleks Apartemen";"Namek gunung";"V34R+Q5X, Tembagapura, Kec. Tembagapura, Kabupaten Mimika, Papua";"Kabupaten Mimika, Papua";"PAPUA";"";"Indonesia";"";"";"";"-4.1430005";"137.0904884";"https://maps.google.com/?cid=0x0:0xd74aefdda43f0f93";""
"komplek housing";"komplek housing";"Nesta silubun";"W58P+5J9, Tembagapura, Kec. Tembagapura, Kabupaten Mimika, Papua";"Kabupaten Mimika, Papua";"PAPUA";"";"Indonesia";"";"";"";"-4.0845928";"137.1866176";"https://maps.google.com/?cid=0x0:0xcf3887592f1c59b2";""
"komplek housing";"Perhimpunan Pengembang Perumahan";"Tagabera Atp fourseven";"R3W3+6W4, Waa, Kec. Tembagapura, Kabupaten Mimika, Papua 99967";"Waa, Kec. Tembagapura, Kabupaten Mimika";"PAPUA";"99967";"Indonesia";"";"";"";"-4.1544858";"137.0548125";"https://maps.google.com/?cid=0x0:0xfbb72043799ed056";""
"komplek housing";"Gedung Apartemen";"Erik Hidden Valley House";"R3WW+5WH, Tembagapura, Kec. Tembagapura, Kabupaten Mimika, Papua";"Kabupaten Mimika, Papua";"PAPUA";"";"Indonesia";"";"";"";"-4.1545585";"137.0973705";"https://maps.google.com/?cid=0x0:0xabe84648e3a5a3d9";""
"komplek housing";"Komplek perumahan";"Rumah Atharva Alisha";"R3WW+776, Aing Bugin Road, Tembagapura, Kec. Tembagapura, Kabupaten Mimika, Papua 99967";"Aing Bugin Road, Tembagapura, Kec. Tembagapura, Kabupaten Mimika";"PAPUA";"99967";"Indonesia";"";"";"";"-4.1540528";"137.0946094";"https://maps.google.com/?cid=0x0:0x2647d37ce3c5137e";""
"komplek housing";"komplek housing";"Kec. Tembagapura";"Kabupaten Mimika, Papua";"Kabupaten Mimika, Papua";"PAPUA";"";"Indonesia";"";"";"";"-4.1430904";"137.090491";"https://maps.google.com/?cid=0x0:0xffab8373da179115";""
"perumahan";"perumahan";"Kec. Mimika Baru";"Kabupaten Mimika, Papua";"Kabupaten Mimika, Papua";"PAPUA";"";"Indonesia";"";"";"";"-4.5671869";"136.8873528";"https://maps.google.com/?cid=0x0:0xccefb04a6b60d82c";""
"perumahan";"Komplek perumahan";"Perumahan Pemda Timika 2dapurchef";"FRJR+J69, Wangirja, Kec. Mimika Baru, Kabupaten Mimika, Papua 99963";"Wangirja, Kec. Mimika Baru, Kabupaten Mimika";"PAPUA";"99963";"Indonesia";"";"";"";"-4.5184583";"136.8405991";"https://maps.google.com/?cid=0x0:0xfda302a4b16e63d4";""
"perumahan";"Komplek perumahan";"Jalur 9";"CVJV+93F, Jl. Anggrek, Inauga, Kec. Mimika Baru, Kabupaten Mimika, Papua 99971";"Jl. Anggrek, Inauga, Kec. Mimika Baru, Kabupaten Mimika";"PAPUA";"99971";"Indonesia";"";"";"";"-4.5690523";"136.8926859";"https://maps.google.com/?cid=0x0:0x38518afdfd0e36a3";""
"perumahan";"Perusahaan investasi properti";"PERUMAHAN RESIDENCE TIMIKA";"Karitas, Poros. Sp2, Jl. Hasanuddin, Kamoro Jaya, Kec. Mimika Baru, Kabupaten Mimika, Papua 99963";"Poros. Sp2, Jl. Hasanuddin, Kamoro Jaya, Kec. Mimika Baru, Kabupaten Mimika";"PAPUA";"99963";"Indonesia";" 082166916612";"";"";"-4.5490871";"136.8427694";"https://maps.google.com/?cid=0x0:0x3c6db3530a11397";""
"perumahan";"perumahan";"Perumahan Griya Anggrek Timika";"Inauga, Kec. Mimika Baru, Kabupaten Mimika, Papua 99971";"Kec. Mimika Baru, Kabupaten Mimika";"PAPUA";"99971";"Indonesia";" 082398320792";"";"";"-4.569717";"136.8964737";"https://maps.google.com/?cid=0x0:0xc613497aecd9d067";""
"perumahan";"Komplek perumahan";"PERUMAHAN RESIDENCE TIMIKA";"FR2R+6XV, Unnamed Road, Inauga, Kec. Mimika Baru, Kabupaten Mimika, Papua 99971";"Unnamed Road, Inauga, Kec. Mimika Baru, Kabupaten Mimika";"PAPUA";"99971";"Indonesia";"";"";"";"-4.5493772";"136.8424203";"https://maps.google.com/?cid=0x0:0x766abab8a317e253";""
"perumahan";"Komplek perumahan";"HOMEX";"CVFP+PJG, Inauga, Kec. Mimika Baru, Kabupaten Mimika, Papua 99971";"Inauga, Kec. Mimika Baru, Kabupaten Mimika";"PAPUA";"99971";"Indonesia";"";"";"";"-4.5754643";"136.887065";"https://maps.google.com/?cid=0x0:0xd646e82ac9aad7d7";""
"perumahan";"Komplek perumahan";"Pomako";"8VX7+3X, Mwapi, Kec. Mimika Baru, Kabupaten Mimika, Papua 99971";"Mwapi, Kec. Mimika Baru, Kabupaten Mimika";"PAPUA";"99971";"Indonesia";"";"";"";"-4.5642522";"136.8878477";"https://maps.google.com/?cid=0x0:0xb7088b89506dd497";""
"perumahan";"Komplek perumahan";"Meta";"Gg. Pongtiku, Nawaripi, Kec. Mimika Baru, Kabupaten Mimika, Papua 99971";"Nawaripi, Kec. Mimika Baru, Kabupaten Mimika";"PAPUA";"99971";"Indonesia";"";"";"";"-4.5626273";"136.8834494";"https://maps.google.com/?cid=0x0:0xc80851b5794b112e";""
"perumahan";"perumahan";"PA1000";"CVQP+7MV, Jl. Dr. Samratulangi, Nawaripi, Kec. Mimika Baru, Kabupaten Mimika, Papua 99971";"Jl. Dr. Samratulangi, Nawaripi, Kec. Mimika Baru, Kabupaten Mimika";"PAPUA";"99971";"Indonesia";"";"";"";"-4.562794";"136.886169";"https://maps.google.com/?cid=0x0:0x288831aa445e2405";""
"perumahan";"Komplek perumahan";"Perumahan Joko Indah (JOKIN)";"FR2Q+8X, Nayaro, Kec. Mimika Baru, Kabupaten Mimika, Papua";"Kabupaten Mimika, Papua";"PAPUA";"";"Indonesia";"";"";"";"-4.5492403";"136.8399904";"https://maps.google.com/?cid=0x0:0x8a20a090ab4c82dc";""
"perumahan";"Pembangunan Perumahan";"Aveon Timika Residence";"CVHJ+WG4, Unnamed Road, Nawaripi, Mimika Baru, Mimika Regency, Papua 99971";"Unnamed Road, Nawaripi, Mimika Baru, Mimika Regency";"PAPUA";"99971";"Indonesia";"";"";"";"-4.5702282";"136.8813372";"https://maps.google.com/?cid=0x0:0xaf51d6d2e6e2438c";""
"perumahan";"Komplek perumahan";"Perumahan Anugerah Kasih";"FV88+GHF, Kwamki, Kec. Mimika Baru, Kabupaten Mimika, Papua";"Kabupaten Mimika, Papua";"PAPUA";"";"Indonesia";"";"";"";"-4.5336786";"136.8664262";"https://maps.google.com/?cid=0x0:0x1141aeef8f0d4c30";""
"perumahan";"Komplek perumahan";"Perumahan Mente";"CVMW+22P, Jl. Mente Sempan, Nawaripi, Kec. Mimika Baru, Kabupaten Mimika, Papua 99971";"Jl. Mente Sempan, Nawaripi, Kec. Mimika Baru, Kabupaten Mimika";"PAPUA";"99971";"Indonesia";"";"";"";"-4.5674024";"136.8950743";"https://maps.google.com/?cid=0x0:0x733d0eaa764a2ad0";""
"perumahan";"Komplek perumahan";"Jalur 3 Rumah Kel DendengLiey";"CVQP+WXM, Nawaripi, Kec. Mimika Baru, Kabupaten Mimika, Papua 99971";"Nawaripi, Kec. Mimika Baru, Kabupaten Mimika";"PAPUA";"99971";"Indonesia";"";"";"";"-4.5596402";"136.8875023";"https://maps.google.com/?cid=0x0:0xb5874ee9bd2c2719";""
"perumahan";"Pembangunan Perumahan";"Perumahan Griya Salsabila Samratulangi Timika";"CVPP+CCW, Jl. Samratulangi, Nawaripi, Kec. Mimika Baru, Kabupaten Mimika, papua tengah 99971";"Jl. Samratulangi, Nawaripi, Kec. Mimika Baru, Kabupaten Mimika";"PAPUA";"99971";"Indonesia";"";"";"";"-4.5638761";"136.8860668";"https://maps.google.com/?cid=0x0:0x78f3489850931e4";""
"perumahan";"";"Perumahan Bintang Timur Block BC";"Jl. Nawaripi Baru, Nawaripi, Kec. Mimika Baru, Kabupaten Mimika, Papua 99971";"Nawaripi, Kec. Mimika Baru, Kabupaten Mimika";"PAPUA";"99971";"Indonesia";"";"";"";"-4.576622";"136.8766452";"https://maps.google.com/?cid=0x0:0x9cce9dfd3fce32cb";""
"perumahan";"Komplek perumahan";"Rumah Keluarga Abdul Hamid";"CVMP+P4G, Jl. Hasanuddin Gg. Kecapi, Nawaripi, Kec. Mimika Baru, Kabupaten Mimika, Papua 99971";"Jl. Hasanuddin Gg. Kecapi, Nawaripi, Kec. Mimika Baru, Kabupaten Mimika";"PAPUA";"99971";"Indonesia";"";"";"";"-4.5656931";"136.8853378";"https://maps.google.com/?cid=0x0:0x5cb9be37e0d5c3ce";""
"perumahan";"Komplek perumahan";"Rmh";"CVPM+2GF, Nawaripi, Kec. Mimika Baru, Kabupaten Mimika, Papua 99971";"Nawaripi, Kec. Mimika Baru, Kabupaten Mimika";"PAPUA";"99971";"Indonesia";"";"";"";"-4.5649973";"136.8840098";"https://maps.google.com/?cid=0x0:0x6486967866571134";""
"perumahan";"Komplek perumahan";"Perumahan Joko indah ( JOKIN )";"Jl. Irigasi No.Ujung, Nawaripi, Kec. Mimika Baru, Kabupaten Mimika, Papua";"Kabupaten Mimika, Papua";"PAPUA";"";"Indonesia";"";"";"";"-4.5454223";"136.8657409";"https://maps.google.com/?cid=0x0:0x53ee52880f40380a";""
"perumahan";"Komplek perumahan";"Rumah Nenek";"CVQP+WGH, Nawaripi, Kec. Mimika Baru, Kabupaten Mimika, Papua 99971";"Nawaripi, Kec. Mimika Baru, Kabupaten Mimika";"PAPUA";"99971";"Indonesia";"";"";"";"-4.5593915";"136.8862749";"https://maps.google.com/?cid=0x0:0xd5b97ad9b9298901";""
"perumahan";"perumahan";"Papua 99964";"Kabupaten Mimika, Papua";"Kabupaten Mimika, Papua";"PAPUA";"";"Indonesia";"";"";"";"-4.5348379";"137.3706554";"https://maps.google.com/?cid=0x0:0x8a2567edb0b5d8c5";""
"perumahan";"Komplek perumahan";"Rumah Gue";"CVPP+2XP, Nawaripi, Kec. Mimika Baru, Kabupaten Mimika, Papua 99971";"Nawaripi, Kec. Mimika Baru, Kabupaten Mimika";"PAPUA";"99971";"Indonesia";"";"";"";"-4.5649288";"136.8875375";"https://maps.google.com/?cid=0x0:0xe78511820d968283";""
"perumahan";"Pembangunan Perumahan";"Perum As-Sunnah";"G4VP+VFG SP4, Jl. Pancasila, Banigogom, Kec. Tembagapura, Kabupaten Mimika, Papua";"Kabupaten Mimika, Papua";"PAPUA";"";"Indonesia";"";"";"";"-4.4553223";"137.1362125";"https://maps.google.com/?cid=0x0:0x55080f8b2c42fcdd";""
"perumahan";"perumahan";"Jeckson Sidabalok";"Perumahan Residence 5 No.Blok 1, Banigogom, Kec. Tembagapura, Kabupaten Mimika, Papua";"Kabupaten Mimika, Papua";"PAPUA";"";"Indonesia";"";"";"";"-4.4553223";"137.1362125";"https://maps.google.com/?cid=0x0:0xa7e819f8984f1934";""
"perumahan";"Komplek perumahan";"Rumah Yunita";"64WR+54, Omawita, Kec. Mimika Tim. Jauh, Kabupaten Mimika, Papua";"Kabupaten Mimika, Papua";"PAPUA";"";"Indonesia";"";"";"";"-4.75456";"137.140324";"https://maps.google.com/?cid=0x0:0x1e84a54a2437c329";""
"perumahan";"Komplek perumahan";"Gang Degama";"FV5X+R4C, Jl. Kebun Sirih, Kwamki, Kec. Mimika Baru, Kabupaten Mimika, Papua 99971";"Jl. Kebun Sirih, Kwamki, Kec. Mimika Baru, Kabupaten Mimika";"PAPUA";"99971";"Indonesia";"";"";"";"-4.5404256";"136.8977725";"https://maps.google.com/?cid=0x0:0x510e83c470f3e8eb";""
"perumahan";"perumahan";"Noemun";"QJWF+FJ, Noemun, Jila, Kabupaten Mimika, Papua";"Kabupaten Mimika, Papua";"PAPUA";"";"Indonesia";"";"";"";"-4.2418428";"137.4294326";"https://maps.google.com/?cid=0x0:0x5a752cc7e5d126ef";""
"perumahan";"Dapur Umum";"Domoweta";"G4VP+VFG Muara gorong gorong, Banigogom, Kec. Tembagapura, Kabupaten Mimika, Papua";"Kabupaten Mimika, Papua";"PAPUA";"";"Indonesia";"";"";"";"-4.4553223";"137.1362125";"https://maps.google.com/?cid=0x0:0x6e37747e5ec99bd";""
"perumahan";"Komplek perumahan";"Perumahan Anugerah Kasih";"FV88+GHF, Kwamki, Kec. Mimika Baru, Kabupaten Mimika, Papua";"Kabupaten Mimika, Papua";"PAPUA";"";"Indonesia";"";"";"";"-4.5336786";"136.8664262";"https://maps.google.com/?cid=0x0:0x1141aeef8f0d4c30";""
"perumahan";"Komplek perumahan";"PERUMAHAN GURU SMA NEGERI 1 MIMIKA";"CVJP+GQR, Inauga, Kec. Mimika Baru, Kabupaten Mimika, Papua 99971";"Inauga, Kec. Mimika Baru, Kabupaten Mimika";"PAPUA";"99971";"Indonesia";"";"";"";"-4.5686404";"136.8868878";"https://maps.google.com/?cid=0x0:0x11a065fe1962d55c";""
"perumahan";"Pembangunan Perumahan";"Jalan Amume indah Agimuga";"FV65+GW3, Timika indah, Kec. Mimika Baru, Kabupaten Mimika, Papua 99971";"Timika indah, Kec. Mimika Baru, Kabupaten Mimika";"PAPUA";"99971";"Indonesia";"";"";"";"-4.5387329";"136.8597875";"https://maps.google.com/?cid=0x0:0x86150a9d8ec66905";""
"perumahan";"Komplek perumahan";"Rumah Keluarga Abdul Rahim/Eka Synta";"CVMQ+8WR KOMPLEKS MASJID NURUL HIDAYAH, Jl. Mente Sempan JALUR 3 No.23, Inauga, Kec. Mimika Baru, Kabupaten Mimika, Papua 99971";"Jl. Mente Sempan JALUR 3 No.23, Inauga, Kec. Mimika Baru, Kabupaten Mimika";"PAPUA";"99971";"Indonesia";"";"";"";"-4.5665084";"136.8898079";"https://maps.google.com/?cid=0x0:0xa464704686d9b89";""
"perumahan";"Komplek perumahan";"Open House";"Sempan, Kec. Tembagapura, Kabupaten Mimika, Papua 19990";"Kec. Tembagapura, Kabupaten Mimika";"PAPUA";"19990";"Indonesia";"";"";"";"-4.4553223";"137.1362125";"https://maps.google.com/?cid=0x0:0x45985a3e0d8d2055";""
"perumahan";"Komplek perumahan";"Rumah";"CVJW+4H9, Jl. Anggrek perumahan griya anggrek asri, Inauga, Kec. Mimika Baru, Kabupaten Mimika, Papua 99971";"Jl. Anggrek perumahan griya anggrek asri, Inauga, Kec. Mimika Baru, Kabupaten Mimika";"PAPUA";"99971";"Indonesia";"";"";"";"-4.569717";"136.8964737";"https://maps.google.com/?cid=0x0:0x4bdd2f7010b2d076";""
"perumahan";"Komplek perumahan";"RUMAH GAMAI";"CVRQ+Q4H, Jl. Patimura, Nawaripi, Kec. Mimika Baru, Kabupaten Mimika, Papua 99971";"Jl. Patimura, Nawaripi, Kec. Mimika Baru, Kabupaten Mimika";"PAPUA";"99971";"Indonesia";"";"";"";"-4.558234";"136.887488";"https://maps.google.com/?cid=0x0:0x323b3a0991d3ca56";""
"perumahan";"Komplek perumahan";"Paulus kogoya";"G4VP+VFG, Jlr v, desa walani, kec.kwamkinarama, Kabupaten Mimika, papua tengah";"Kabupaten Mimika, papua tengah";"PAPUA";"";"Indonesia";"";"";"";"-4.4553223";"137.1362125";"https://maps.google.com/?cid=0x0:0x49e636c97cc0ff9f";""
"perumahan";"Kompleks Kondominium";"Virel";"G4VP+VFG, Banigogom, Kec. Tembagapura, Kabupaten Mimika, Papua";"Kabupaten Mimika, Papua";"PAPUA";"";"Indonesia";"";"";"";"-4.4553223";"137.1362125";"https://maps.google.com/?cid=0x0:0x3b523d96f2cc504e";""
"perumahan";"Pembangunan Perumahan";"Perumahan Permata Garden (Jasti)";"CVM4+MRH, Jl. Hasanuddin, Kamoro Jaya, Kec. Mimika Baru, Kabupaten Mimika, Papua 99971";"Jl. Hasanuddin, Kamoro Jaya, Kec. Mimika Baru, Kabupaten Mimika";"PAPUA";"99971";"Indonesia";"";"";"";"-4.5658191";"136.8571125";"https://maps.google.com/?cid=0x0:0x4abcbfefef746717";""
"perumahan";"Komplek perumahan";"Kam kamora mioko";"CXXJ+28, Ayuka, Kec. Mimika Tim. Jauh, Kabupaten Mimika, Papua";"Kabupaten Mimika, Papua";"PAPUA";"";"Indonesia";"";"";"";"-4.5524442";"136.9807745";"https://maps.google.com/?cid=0x0:0x4bc2d39ac7dd270d";""
"perumahan";"Pembangunan Perumahan";"Perumahan Pemda SP 2";"FVH3+JMJ, Timika Jaya, Kec. Mimika Baru, Kabupaten Mimika, Papua 99963";"Timika Jaya, Kec. Mimika Baru, Kabupaten Mimika";"PAPUA";"99963";"Indonesia";"";"";"";"-4.5209125";"136.8541547";"https://maps.google.com/?cid=0x0:0x9c8da662431edc97";""
"perumahan";"perumahan";"Agimuga";"Kabupaten Mimika, Papua";"Kabupaten Mimika, Papua";"PAPUA";"";"Indonesia";"";"";"";"-4.6377699";"137.4882762";"https://maps.google.com/?cid=0x0:0x24e47a54c55e98d1";""
"perumahan";"Komplek perumahan";"Eguwai_home";"FV6W+2HW, Jl. Kebun Sirih, Kwamki, Kec. Mimika Baru, Kabupaten Mimika, Papua 99971";"Jl. Kebun Sirih, Kwamki, Kec. Mimika Baru, Kabupaten Mimika";"PAPUA";"99971";"Indonesia";"";"";"";"-4.5398878";"136.8964555";"https://maps.google.com/?cid=0x0:0xc2557046ea60742c";""
"perumahan";"Komplek perumahan";"kluarga imasuly";"CVJW+7FM, Jl. Anggrek, Inauga, Kec. Mimika Baru, Kabupaten Mimika, Papua 99971";"Jl. Anggrek, Inauga, Kec. Mimika Baru, Kabupaten Mimika";"PAPUA";"99971";"Indonesia";"";"";"";"-4.5694002";"136.8962162";"https://maps.google.com/?cid=0x0:0x56625b96f24ef56a";""
"perumahan";"Pembangunan Perumahan";"Belakang kantor keuskupan timika";"G4VP+VFG, Jl kasih belakang, keuskupan, Kec. Tembagapura, Kabupaten Mimika, papua tengah";"Kabupaten Mimika, papua tengah";"PAPUA";"";"Indonesia";"";"";"";"-4.4553223";"137.1362125";"https://maps.google.com/?cid=0x0:0x32fbb9d84b964b86";""
"perumahan";"Komplek perumahan";"Kebun ppa kaleb";"G4VP+VFG, Banigogom, Kec. Tembagapura, Kabupaten Mimika, Papua";"Kabupaten Mimika, Papua";"PAPUA";"";"Indonesia";"";"";"";"-4.4553223";"137.1362125";"https://maps.google.com/?cid=0x0:0xdf97b878081ee8fd";""
"perumahan";"perumahan";"Ruma Mami Queen";"7WHR+3MM, Lorong Papua 1, Inauga, Kec. Mimika Tim. Jauh, Kabupaten Mimika, Papua 99971";"Lorong Papua 1, Inauga, Kec. Mimika Tim. Jauh, Kabupaten Mimika";"PAPUA";"99971";"Indonesia";"";"";"";"-4.7222914";"136.941659";"https://maps.google.com/?cid=0x0:0xcc6f56f8f0e51a53";""
"perumahan";"Kompleks Kondominium";"PURNAMA";"G4VP+VFG, jl.cendrawasih. belakang perum pemda, Banigogom, Kec. Tembagapura, Kabupaten Mimika, Papua";"Kabupaten Mimika, Papua";"PAPUA";"";"Indonesia";"";"";"";"-4.4553223";"137.1362125";"https://maps.google.com/?cid=0x0:0x2706dad8cd6873a3";""
"perumahan";"perumahan";"Rumah Uchand";"FV5W+8WP, Jl. Sosial, Kwamki, Kec. Mimika Baru, Kabupaten Mimika, Papua 99971";"Jl. Sosial, Kwamki, Kec. Mimika Baru, Kabupaten Mimika";"PAPUA";"99971";"Indonesia";"";"";"";"-4.5413066";"136.8979197";"https://maps.google.com/?cid=0x0:0xe607d18d3b356fa3";""
"perumahan";"Komplek perumahan";"Lorong mangga";"FV4X+WFG, Jl. Kebun Sirih, Kwamki, Kec. Mimika Baru, Kabupaten Mimika, Papua 99971";"Jl. Kebun Sirih, Kwamki, Kec. Mimika Baru, Kabupaten Mimika";"PAPUA";"99971";"Indonesia";"";"";"";"-4.5426753";"136.8987109";"https://maps.google.com/?cid=0x0:0xcb25b68a8689c777";""
"perumahan";"perumahan";"Papua 99963";"Kabupaten Mimika, Papua";"Kabupaten Mimika, Papua";"PAPUA";"";"Indonesia";"";"";"";"-4.6420578";"136.7091767";"https://maps.google.com/?cid=0x0:0x489f32e37e0cec35";""
"perumahan";"Komplek perumahan";"Perumahan residence timika 3";"FR2V+396, Kamoro Jaya, Kec. Mimika Baru, Kabupaten Mimika, Papua";"Kabupaten Mimika, Papua";"PAPUA";"";"Indonesia";"";"";"";"-4.5498375";"136.8433906";"https://maps.google.com/?cid=0x0:0x408fdf94f9a11c58";""
"perumahan";"Komplek perumahan";"Perumahan Queenz Residence";"Jl. Wage Rudolf Supratman, Kamoro Jaya, Kec. Mimika Baru, Kabupaten Mimika, Papua 99910";"Kamoro Jaya, Kec. Mimika Baru, Kabupaten Mimika";"PAPUA";"99910";"Indonesia";" 085240211062";"";"";"-4.5583912";"136.8560412";"https://maps.google.com/?cid=0x0:0x944665f0cc4ced49";""
"perumahan";"Perusahaan investasi properti";"PERUMAHAN RESIDENCE TIMIKA";"Karitas, Poros. Sp2, Jl. Hasanuddin, Kamoro Jaya, Kec. Mimika Baru, Kabupaten Mimika, Papua 99963";"Poros. Sp2, Jl. Hasanuddin, Kamoro Jaya, Kec. Mimika Baru, Kabupaten Mimika";"PAPUA";"99963";"Indonesia";" 082166916612";"";"";"-4.5490871";"136.8427694";"https://maps.google.com/?cid=0x0:0x3c6db3530a11397";""
"perumahan";"Komplek perumahan";"Tyas Blok C. No.3";"CRQR+F7H, Jl. Hasanuddin, Kamoro Jaya, Kec. Mimika Baru, Kabupaten Mimika, Papua 99963";"Jl. Hasanuddin, Kamoro Jaya, Kec. Mimika Baru, Kabupaten Mimika";"PAPUA";"99963";"Indonesia";" 08114991580";"";"";"-4.561301";"136.840745";"https://maps.google.com/?cid=0x0:0xf0d02a37c995065a";""
"perumahan";"Pembangunan Perumahan";"Perumahan Pemda SP 2";"FVH3+JMJ, Timika Jaya, Kec. Mimika Baru, Kabupaten Mimika, Papua 99963";"Timika Jaya, Kec. Mimika Baru, Kabupaten Mimika";"PAPUA";"99963";"Indonesia";"";"";"";"-4.5209125";"136.8541547";"https://maps.google.com/?cid=0x0:0x9c8da662431edc97";""
"perumahan";"Komplek perumahan";"Perum Residence 3";"CVP6+768, Jl. Hasanuddin, Kamoro Jaya, Kec. Mimika Baru, Kabupaten Mimika, Papua 99963";"Jl. Hasanuddin, Kamoro Jaya, Kec. Mimika Baru, Kabupaten Mimika";"PAPUA";"99963";"Indonesia";"";"";"";"-4.5643321";"136.8605682";"https://maps.google.com/?cid=0x0:0x60d6358e041a229b";""
"perumahan";"Pembangunan Perumahan";"PERUMAHAN GRIYA INTAN 3";"Jl. Hasanuddin No.ujung, Kamoro Jaya, Kec. Mimika Baru, Kabupaten Mimika, Papua 99963";"Kamoro Jaya, Kec. Mimika Baru, Kabupaten Mimika";"PAPUA";"99963";"Indonesia";"";"";"";"-4.5609485";"136.8343616";"https://maps.google.com/?cid=0x0:0xab2971521e2ba70b";""
"perumahan";"Otoritas Perumahan";"BTN BUMI KAMORO INDAH B3-6 WONOSARI JAYA. WANIA. MIMIKA. PAPUA. 99963";"CV7G+629, Wonosari Jaya, Kec. Mimika Baru, Kabupaten Mimika, Papua 99971";"Wonosari Jaya, Kec. Mimika Baru, Kabupaten Mimika";"PAPUA";"99971";"Indonesia";"";"";"";"-4.5869631";"136.8751112";"https://maps.google.com/?cid=0x0:0xbe742705fc673f6c";""
"perumahan";"Komplek perumahan";"Perumahan Pemda Timika 2dapurchef";"FRJR+J69, Wangirja, Kec. Mimika Baru, Kabupaten Mimika, Papua 99963";"Wangirja, Kec. Mimika Baru, Kabupaten Mimika";"PAPUA";"99963";"Indonesia";"";"";"";"-4.5184583";"136.8405991";"https://maps.google.com/?cid=0x0:0xfda302a4b16e63d4";""
"perumahan";"perumahan";"Perumahan Griya Anggrek Timika";"Inauga, Kec. Mimika Baru, Kabupaten Mimika, Papua 99971";"Kec. Mimika Baru, Kabupaten Mimika";"PAPUA";"99971";"Indonesia";" 082398320792";"";"";"-4.569717";"136.8964737";"https://maps.google.com/?cid=0x0:0xc613497aecd9d067";""
"perumahan";"Komplek perumahan";"RUMAH ADE KUSNADI";"Jalan jeruk,sp2, Timika Jaya, Kec. Mimika Baru, Kabupaten Mimika, Papua 99963";"Timika Jaya, Kec. Mimika Baru, Kabupaten Mimika";"PAPUA";"99963";"Indonesia";"";"";"";"-4.5148864";"136.8496061";"https://maps.google.com/?cid=0x0:0xccecbc511e9ff737";""
"perumahan";"Pembangunan Perumahan";"BLOK GG' PERUMAHAN RESIDENCE TIMIKA";"FR2V+9CM, Jl. Hasanuddin, Nayaro, Kec. Mimika Baru, Kabupaten Mimika, Papua 99963";"Jl. Hasanuddin, Nayaro, Kec. Mimika Baru, Kabupaten Mimika";"PAPUA";"99963";"Indonesia";"";"";"";"-4.5486819";"136.8414781";"https://maps.google.com/?cid=0x0:0x3e17ae0a137ffe51";""
"perumahan";"Komplek perumahan";"Perumahan Anugerah Kasih";"FV88+GHF, Kwamki, Kec. Mimika Baru, Kabupaten Mimika, Papua";"Kabupaten Mimika, Papua";"PAPUA";"";"Indonesia";"";"";"";"-4.5336786";"136.8664262";"https://maps.google.com/?cid=0x0:0x1141aeef8f0d4c30";""
"perumahan";"Komplek perumahan";"Rumah ku";"FRJR+MWW, Jl. Poros SP 2 - SP 5, Timika Jaya, Kec. Mimika Baru, Kabupaten Mimika, Papua 99963";"Jl. Poros SP 2 - SP 5, Timika Jaya, Kec. Mimika Baru, Kabupaten Mimika";"PAPUA";"99963";"Indonesia";"";"";"";"-4.5182712";"136.8423175";"https://maps.google.com/?cid=0x0:0x9b56c5ad49da3315";""
"perumahan";"Komplek perumahan";"Yanzz in here";"FQ5G+C5V, Limau Asri, Kec. Mimika Baru, Kabupaten Mimika, Papua 99963";"Limau Asri, Kec. Mimika Baru, Kabupaten Mimika";"PAPUA";"99963";"Indonesia";"";"";"";"-4.5413935";"136.7754286";"https://maps.google.com/?cid=0x0:0x48bd08e641820993";""
"perumahan";"Komplek perumahan";"PERUMAHAN RESIDENCE TIMIKA";"FR2R+6XV, Unnamed Road, Inauga, Kec. Mimika Baru, Kabupaten Mimika, Papua 99971";"Unnamed Road, Inauga, Kec. Mimika Baru, Kabupaten Mimika";"PAPUA";"99971";"Indonesia";"";"";"";"-4.5493772";"136.8424203";"https://maps.google.com/?cid=0x0:0x766abab8a317e253";""
"perumahan";"perumahan";"Kabupaten timika";"6QV8+MVP, Jalan poros pomako cendrawasih, Pomako, Kec. Mimika Tim., Kabupaten Mimika, Papua";"Kabupaten Mimika, Papua";"PAPUA";"";"Indonesia";"";"";"";"-4.755778";"136.7671967";"https://maps.google.com/?cid=0x0:0xfae80cba5fc4a616";""
"perumahan";"Komplek perumahan";"Perumahan Raffless Residence 3 Blok 5 No L5";"CRQJ+5R, Nayaro, Kec. Mimika Baru, Kabupaten Mimika, Papua 99963";"Nayaro, Kec. Mimika Baru, Kabupaten Mimika";"PAPUA";"99963";"Indonesia";" 081389570264";"";"";"-4.5619259";"136.8320358";"https://maps.google.com/?cid=0x0:0xc67f214d7b433c96";""
"perumahan";"Pembangunan Perumahan";"Aveon Timika Residence";"CVHJ+WG4, Unnamed Road, Nawaripi, Mimika Baru, Mimika Regency, Papua 99971";"Unnamed Road, Nawaripi, Mimika Baru, Mimika Regency";"PAPUA";"99971";"Indonesia";"";"";"";"-4.5702282";"136.8813372";"https://maps.google.com/?cid=0x0:0xaf51d6d2e6e2438c";""
"perumahan";"Pembangunan Perumahan";"Perum Bintang Timur Sejati";"CVFF+JR6, Kamoro Jaya, Kec. Mimika Baru, Kabupaten Mimika, Papua 99971";"Kamoro Jaya, Kec. Mimika Baru, Kabupaten Mimika";"PAPUA";"99971";"Indonesia";"";"";"";"-4.575964";"136.8745236";"https://maps.google.com/?cid=0x0:0xe6cfadd9dfa180a5";""
"perumahan";"Otoritas Perumahan";"KPR BINTANG TIMUR";"CVFG+7G6, Kamoro Jaya, Kec. Mimika Baru, Kabupaten Mimika, Papua 99971";"Kamoro Jaya, Kec. Mimika Baru, Kabupaten Mimika";"PAPUA";"99971";"Indonesia";"";"";"";"-4.5768268";"136.8762713";"https://maps.google.com/?cid=0x0:0x2b5b13ee38d95ee4";""
"perumahan";"Taman";"B. Utomo Ujung milik AB. Marpaung";"CVGG+5C5, Jl. Nawaripi Baru, Nawaripi, Kec. Mimika Baru, Kabupaten Mimika, Papua 99971";"Jl. Nawaripi Baru, Nawaripi, Kec. Mimika Baru, Kabupaten Mimika";"PAPUA";"99971";"Indonesia";"";"";"";"-4.5746078";"136.8761027";"https://maps.google.com/?cid=0x0:0x310c0b0c6a625f96";""
"perumahan";"Tempat Fitness";"Perumahan BTN Mimika Sport Complex";"FRJQ+2W7, Wangirja, Kec. Mimika Baru, Kabupaten Mimika, Papua 99963";"Wangirja, Kec. Mimika Baru, Kabupaten Mimika";"PAPUA";"99963";"Indonesia";"";"";"";"-4.5199628";"136.8398113";"https://maps.google.com/?cid=0x0:0xb4d2f67fff0ef359";""
"perumahan";"Komplek perumahan";"Rumah aa fatih";"FRPR+6CQ, Wangirja, Kec. Mimika Baru, Kabupaten Mimika, Papua 99963";"Wangirja, Kec. Mimika Baru, Kabupaten Mimika";"PAPUA";"99963";"Indonesia";"";"";"";"-4.5144091";"136.8410958";"https://maps.google.com/?cid=0x0:0xa0fc802f73f15649";""
"perumahan";"Komplek perumahan";"Rumah dzaky";"FVQ2+2FX, Timika Jaya, Kec. Mimika Baru, Kabupaten Mimika, Papua 99963";"Timika Jaya, Kec. Mimika Baru, Kabupaten Mimika";"PAPUA";"99963";"Indonesia";" 085254187447";"";"";"-4.512395";"136.8512429";"https://maps.google.com/?cid=0x0:0xf47d686a9e621fbb";""
"perumahan";"Komplek perumahan";"Rumah anandika";"FRHV+W2M, Timika Jaya, Kec. Mimika Baru, Kabupaten Mimika, Papua 99963";"Timika Jaya, Kec. Mimika Baru, Kabupaten Mimika";"PAPUA";"99963";"Indonesia";"";"";"";"-4.5201242";"136.8424875";"https://maps.google.com/?cid=0x0:0xe863a4699ce0463f";""
"perumahan";"Komplek perumahan";"Rumah Fatur";"FQ9F+CM, Limau Asri, Kec. Mimika Baru, Kabupaten Mimika, Papua 99963";"Limau Asri, Kec. Mimika Baru, Kabupaten Mimika";"PAPUA";"99963";"Indonesia";"";"";"";"-4.5309957";"136.7741763";"https://maps.google.com/?cid=0x0:0x4c77cc5ea52c7e61";""
"perumahan";"Komplek perumahan";"Rumah Narti Cia-Cia";"FVW2+237 Sp2, jalur 4, Timika Jaya, Mimika Baru, Mimika Regency, Papua 99963";"jalur 4, Timika Jaya, Mimika Baru, Mimika Regency";"PAPUA";"99963";"Indonesia";"";"";"";"-4.5049547";"136.8501697";"https://maps.google.com/?cid=0x0:0xa31bdc4dbe4cffb3";""
"perumahan";"perumahan";"Mimika Bar.";"Kabupaten Mimika, Papua";"Kabupaten Mimika, Papua";"PAPUA";"";"Indonesia";"";"";"";"-4.4553134";"136.2857516";"https://maps.google.com/?cid=0x0:0x6a9ad70ccbe49095";""
"perumahan";"perumahan";"Papua 99965";"Kabupaten Mimika, Papua";"Kabupaten Mimika, Papua";"PAPUA";"";"Indonesia";"";"";"";"-4.7985913";"137.5275422";"https://maps.google.com/?cid=0x0:0x7045b6939b86864";""
"perumahan";"Perhimpunan Pengembang Perumahan";"Kampung Ohotia";"3365+RWQ, Amamapare, Kec. Mimika Tim. Jauh, Kabupaten Mimika, Papua";"Kabupaten Mimika, Papua";"PAPUA";"";"Indonesia";"";"";"";"-4.9379117";"137.0598658";"https://maps.google.com/?cid=0x0:0xed4b8b4522ba93f0";""
"perumahan";"Komplek perumahan";"Rumah Gue";"CVPP+2XP, Nawaripi, Kec. Mimika Baru, Kabupaten Mimika, Papua 99971";"Nawaripi, Kec. Mimika Baru, Kabupaten Mimika";"PAPUA";"99971";"Indonesia";"";"";"";"-4.5649288";"136.8875375";"https://maps.google.com/?cid=0x0:0xe78511820d968283";""
"perumahan";"Komplek perumahan";"Rumah Keluarga Abdul Rahim/Eka Synta";"CVMQ+8WR KOMPLEKS MASJID NURUL HIDAYAH, Jl. Mente Sempan JALUR 3 No.23, Inauga, Kec. Mimika Baru, Kabupaten Mimika, Papua 99971";"Jl. Mente Sempan JALUR 3 No.23, Inauga, Kec. Mimika Baru, Kabupaten Mimika";"PAPUA";"99971";"Indonesia";"";"";"";"-4.5665084";"136.8898079";"https://maps.google.com/?cid=0x0:0xa464704686d9b89";""
"perumahan";"Pembangunan Perumahan";"Perumahan Pemda SP 2";"FVH3+JMJ, Timika Jaya, Kec. Mimika Baru, Kabupaten Mimika, Papua 99963";"Timika Jaya, Kec. Mimika Baru, Kabupaten Mimika";"PAPUA";"99963";"Indonesia";"";"";"";"-4.5209125";"136.8541547";"https://maps.google.com/?cid=0x0:0x9c8da662431edc97";""
"perumahan";"Komplek perumahan";"Rumah Yunita";"64WR+54, Omawita, Kec. Mimika Tim. Jauh, Kabupaten Mimika, Papua";"Kabupaten Mimika, Papua";"PAPUA";"";"Indonesia";"";"";"";"-4.75456";"137.140324";"https://maps.google.com/?cid=0x0:0x1e84a54a2437c329";""
"perumahan";"Komplek perumahan";"Perumahan Mente";"CVMW+22P, Jl. Mente Sempan, Nawaripi, Kec. Mimika Baru, Kabupaten Mimika, Papua 99971";"Jl. Mente Sempan, Nawaripi, Kec. Mimika Baru, Kabupaten Mimika";"PAPUA";"99971";"Indonesia";"";"";"";"-4.5674024";"136.8950743";"https://maps.google.com/?cid=0x0:0x733d0eaa764a2ad0";""
"perumahan";"Komplek perumahan";"Perumahan Anugerah Kasih";"FV88+GHF, Kwamki, Kec. Mimika Baru, Kabupaten Mimika, Papua";"Kabupaten Mimika, Papua";"PAPUA";"";"Indonesia";"";"";"";"-4.5336786";"136.8664262";"https://maps.google.com/?cid=0x0:0x1141aeef8f0d4c30";""
"perumahan";"Komplek perumahan";"Rumah siNYU";"CV4G+2PJ, Wonosari Jaya, Kec. Mimika Baru, Kabupaten Mimika, Papua 99971";"Wonosari Jaya, Kec. Mimika Baru, Kabupaten Mimika";"PAPUA";"99971";"Indonesia";"";"";"";"-4.5949047";"136.8767789";"https://maps.google.com/?cid=0x0:0x360e961c4200d990";""
"perumahan";"Komplek perumahan";"Jalur 3 Rumah Kel DendengLiey";"CVQP+WXM, Nawaripi, Kec. Mimika Baru, Kabupaten Mimika, Papua 99971";"Nawaripi, Kec. Mimika Baru, Kabupaten Mimika";"PAPUA";"99971";"Indonesia";"";"";"";"-4.5596402";"136.8875023";"https://maps.google.com/?cid=0x0:0xb5874ee9bd2c2719";""
"perumahan";"Pembangunan Perumahan";"Perumahan Permata Garden (Jasti)";"CVM4+MRH, Jl. Hasanuddin, Kamoro Jaya, Kec. Mimika Baru, Kabupaten Mimika, Papua 99971";"Jl. Hasanuddin, Kamoro Jaya, Kec. Mimika Baru, Kabupaten Mimika";"PAPUA";"99971";"Indonesia";"";"";"";"-4.5658191";"136.8571125";"https://maps.google.com/?cid=0x0:0x4abcbfefef746717";""
"perumahan";"Komplek perumahan";"Rumah tinggal";"CV2G+WJ6, Jl. Merpati, RT.04/RW.no 203, Wonosari Jaya, Kec. Mimika Baru, Kabupaten Mimika, Papua 99971";"Jl. Merpati, RT.04/RW.no 203, Wonosari Jaya, Kec. Mimika Baru, Kabupaten Mimika";"PAPUA";"99971";"Indonesia";"";"";"";"-4.597709";"136.8765289";"https://maps.google.com/?cid=0x0:0xcacdbc33807c0e81";""
"perumahan";"perumahan";"Perumahan Griya Anggrek Timika";"Inauga, Kec. Mimika Baru, Kabupaten Mimika, Papua 99971";"Kec. Mimika Baru, Kabupaten Mimika";"PAPUA";"99971";"Indonesia";" 082398320792";"";"";"-4.569717";"136.8964737";"https://maps.google.com/?cid=0x0:0xc613497aecd9d067";""
"perumahan";"Developer Rumah Hunian Khusus";"Perumahan Mutiara Regency";"CVJH+CMF, Nawaripi, Kec. Mimika Baru, Kabupaten Mimika, Papua 99971";"Nawaripi, Kec. Mimika Baru, Kabupaten Mimika";"PAPUA";"99971";"Indonesia";"";"";"";"-4.5689481";"136.8791655";"https://maps.google.com/?cid=0x0:0x52d44bbd0c8c172e";""
"perumahan";"perumahan";"Rumah Yutsin sutina latulusi";"SD INPRES TIMIKA 1 TIMIKA, JL. PRAMUKA, Kamoro Jaya, Kec. Mimika Baru, Kabupaten Mimika, Papua 99971";"JL. PRAMUKA, Kamoro Jaya, Kec. Mimika Baru, Kabupaten Mimika";"PAPUA";"99971";"Indonesia";"";"";"";"-4.5964256";"136.8694896";"https://maps.google.com/?cid=0x0:0x8ae4d051f991e9c4";""
"perumahan";"Pembangunan Perumahan";"Perumahan Griya Salsabila Samratulangi Timika";"CVPP+CCW, Jl. Samratulangi, Nawaripi, Kec. Mimika Baru, Kabupaten Mimika, papua tengah 99971";"Jl. Samratulangi, Nawaripi, Kec. Mimika Baru, Kabupaten Mimika";"PAPUA";"99971";"Indonesia";"";"";"";"-4.5638761";"136.8860668";"https://maps.google.com/?cid=0x0:0x78f3489850931e4";""
"perumahan";"Komplek perumahan";"Perumahan Graha Kwamki Lestari";"Jl. C. Heatubun, Kwamki, Kec. Mimika Baru, Kabupaten Mimika, Papua 99971";"Kwamki, Kec. Mimika Baru, Kabupaten Mimika";"PAPUA";"99971";"Indonesia";"";"";"";"-4.5368744";"136.8814945";"https://maps.google.com/?cid=0x0:0xb590a0147cc529f";""
"perumahan";"Kantor Perusahaan";"Perumahan dinas pertanian kompleks BBU";"9VVC+CWV, Wonosari Jaya, Kec. Mimika Baru, Kabupaten Mimika, Papua 99971";"Wonosari Jaya, Kec. Mimika Baru, Kabupaten Mimika";"PAPUA";"99971";"Indonesia";"";"";"";"-4.6079896";"136.8730683";"https://maps.google.com/?cid=0x0:0x213aa8ed984a65d6";""
"perumahan";"Pembangunan Perumahan";"Aveon Timika Residence";"CVHJ+WG4, Unnamed Road, Nawaripi, Mimika Baru, Mimika Regency, Papua 99971";"Unnamed Road, Nawaripi, Mimika Baru, Mimika Regency";"PAPUA";"99971";"Indonesia";"";"";"";"-4.5702282";"136.8813372";"https://maps.google.com/?cid=0x0:0xaf51d6d2e6e2438c";""
"perumahan";"Komplek perumahan";"Rumah Michael";"CVJM+6G5, Nawaripi, Kec. Mimika Baru, Kabupaten Mimika, Papua 99971";"Nawaripi, Kec. Mimika Baru, Kabupaten Mimika";"PAPUA";"99971";"Indonesia";"";"";"";"-4.569754";"136.883121";"https://maps.google.com/?cid=0x0:0x2813c3c7b269647";""
"perumahan";"Perusahaan investasi properti";"Jual Rumah 500 Juta Tanpa DP Jatiasih | Rumah 2 Lantai Tanpa DP Jatiasih| Jual Rumah 700 Juta ( Agency Beli Perumahan )";"Jl. Wibawa Mukti II, RT.002/RW.009, Jatiasih, Kec. Jatiasih, Kota Bks, Jawa Barat 17423";"RT.002/RW.009, Jatiasih, Kec. Jatiasih, Kota Bks";"PAPUA";"17423";"Indonesia";" 087731203625";"";"";"-6.3298115";"106.9458851";"https://maps.google.com/?cid=0x0:0x7d51b872f183ad64";""
"perumahan";"Agen real estat";"Kantor Pemasaran Rumah Murah Harga Mulai 85 Jutaan";"Ragajaya, Kecamatan Bojonggede, Kabupaten Bogor, Jawa Barat";"Kabupaten Bogor, Jawa Barat";"PAPUA";"";"Indonesia";"";"";"";"-6.4434275";"106.7863692";"https://maps.google.com/?cid=0x0:0x7075dfcb5c83de8c";""
"perumahan";"Pembangunan Perumahan";"Tutup - Salah input";"Jl. Pedurenan No.01, RT.002/RW.003, Jatiluhur, Kec. Jatiasih, Kota Bks, Jawa Barat 17425";"RT.002/RW.003, Jatiluhur, Kec. Jatiasih, Kota Bks";"PAPUA";"17425";"Indonesia";"";"";"";"-6.3118574";"106.9475196";"https://maps.google.com/?cid=0x0:0xab4de3f686e7b568";""
"perumahan";"perumahan";"Papua 99966";"Papua";"Papua";"PAPUA";"";"Indonesia";"";"";"";"-4.2043028";"137.5668376";"https://maps.google.com/?cid=0x0:0x1fe5af7715c1e227";""
"perumahan";"perumahan";"Noemun";"QJWF+FJ, Noemun, Jila, Kabupaten Mimika, Papua";"Kabupaten Mimika, Papua";"PAPUA";"";"Indonesia";"";"";"";"-4.2418428";"137.4294326";"https://maps.google.com/?cid=0x0:0x5a752cc7e5d126ef";""
"perumahan";"Pembangunan Perumahan";"PUTI";"RC53+8XP, Puti, Jila, Kabupaten Mimika, Papua";"Kabupaten Mimika, Papua";"PAPUA";"";"Indonesia";"";"";"";"-4.1916529";"137.404941";"https://maps.google.com/?cid=0x0:0x2f96e0953bdc6f52";""
"perumahan";"Gedung Apartemen";"HIDDEN VALLEY COMPLEX";"R3WX+8Q7, Tembagapura, Kec. Tembagapura, Kabupaten Mimika, Papua 99967";"Tembagapura, Kec. Tembagapura, Kabupaten Mimika";"PAPUA";"99967";"Indonesia";"";"";"";"-4.1542159";"137.0994215";"https://maps.google.com/?cid=0x0:0x8f548cbaf64490ca";""
"perumahan";"Pembangunan Perumahan";"Mamontoga";"RC97+344, Puti, Jila, Kabupaten Mimika, Papua";"Kabupaten Mimika, Papua";"PAPUA";"";"Indonesia";"";"";"";"-4.1823622";"137.4128126";"https://maps.google.com/?cid=0x0:0x402b43a7df25ffbf";""
"perumahan";"perumahan";"Distrik Jila";"QJ32+34, Jila, Kabupaten Mimika, Papua";"Kabupaten Mimika, Papua";"PAPUA";"";"Indonesia";"";"";"";"-4.2473207";"137.6003458";"https://maps.google.com/?cid=0x0:0x71031f1c2649d905";""
"perumahan";"Komplek perumahan";"Perumahan";"Jln raya Sasak jikin, RT 001/RW 005 nomor: 22, Jatimurni, Kota Bks";"Kota Bks, Jawa Barat";"PAPUA";"";"Indonesia";"";"";"";"-6.3206573";"106.9286306";"https://maps.google.com/?cid=0x0:0x899b796911579dce";""
"perumahan";"Komplek perumahan";"Perumahan Mahoni Residence";"JR96+53H, Mahoni, RT.1/RW.6, Beji, Kecamatan Beji, Kota Depok, Jawa Barat 16421";"Mahoni, RT.1/RW.6, Beji, Kecamatan Beji, Kota Depok";"PAPUA";"16421";"Indonesia";"";"";"";"-6.3820612";"106.8102362";"https://maps.google.com/?cid=0x0:0x4d723859c5c6d6a8";""
"perumahan";"Komplek perumahan";"Perumahan Joko Indah (JOKIN)";"FR2Q+8X, Nayaro, Kec. Mimika Baru, Kabupaten Mimika, Papua";"Kabupaten Mimika, Papua";"PAPUA";"";"Indonesia";"";"";"";"-4.5492403";"136.8399904";"https://maps.google.com/?cid=0x0:0x8a20a090ab4c82dc";""
"perumahan";"Komplek perumahan";"Perumahan Joko indah ( JOKIN )";"Jl. Irigasi No.Ujung, Nawaripi, Kec. Mimika Baru, Kabupaten Mimika, Papua";"Kabupaten Mimika, Papua";"PAPUA";"";"Indonesia";"";"";"";"-4.5454223";"136.8657409";"https://maps.google.com/?cid=0x0:0x53ee52880f40380a";""
"perumahan";"Kantor Perusahaan";"Perumahan PT Freeport Indonesia";"Jl. Minajerwi No.3, RW B, Kec. Kuala Kencana, Kabupaten Mimika, Papua 99910";"RW B, Kec. Kuala Kencana, Kabupaten Mimika";"PAPUA";"99910";"Indonesia";" 081371195726";"";"";"-4.4036994";"136.8656152";"https://maps.google.com/?cid=0x0:0x260c89677a3cb1bd";""
"perumahan";"Perusahaan Pertambangan";"Kantor Community Affairs PT Freeport Indonesia";"HVV3+6G4, Unnamed Road, Kuala Kencana, Kec. Kuala Kencana, Kabupaten Mimika, Papua 99910";"Unnamed Road, Kuala Kencana, Kec. Kuala Kencana, Kabupaten Mimika";"PAPUA";"99910";"Indonesia";" 0901461766";"";"";"-4.4069991";"136.8538334";"https://maps.google.com/?cid=0x0:0x59e0579038a03c9b";""
"perumahan";"perumahan";"Papua 99968";"Kabupaten Mimika, Papua";"Kabupaten Mimika, Papua";"PAPUA";"";"Indonesia";"";"";"";"-4.2590064";"136.5547852";"https://maps.google.com/?cid=0x0:0x32d5cd81eafb994";""
"perumahan";"Pembangunan Perumahan";"kuala kencana";"JPMX+V4H, Bhintuka, Kec. Kuala Kencana, Kabupaten Mimika, Papua";"Kabupaten Mimika, Papua";"PAPUA";"";"Indonesia";"";"";"";"-4.3653215";"136.7478493";"https://maps.google.com/?cid=0x0:0xc81e745aaeafee8a";""
"perumahan";"perumahan";"Kec. Kuala Kencana";"Kabupaten Mimika, Papua";"Kabupaten Mimika, Papua";"PAPUA";"";"Indonesia";"";"";"";"-4.3653215";"136.7478493";"https://maps.google.com/?cid=0x0:0xeec735e2ce5877e2";""
"perumahan";"Komplek perumahan";"RT.3 KUALA KENCANA";"JV24+24V, Kuala Kencana, Kec. Kuala Kencana, Kabupaten Mimika, Papua 99910";"Kuala Kencana, Kec. Kuala Kencana, Kabupaten Mimika";"PAPUA";"99910";"Indonesia";"";"";"";"-4.3998978";"136.8552904";"https://maps.google.com/?cid=0x0:0xadbabd8da724a2db";""
"perumahan";"Komplek perumahan";"Kuala Kencana";"Jl. Kasuari No.72 Rt. 6, Kuala Kencana, Kec. Kuala Kencana, Kabupaten Mimika, Papua 99910";"Kuala Kencana, Kec. Kuala Kencana, Kabupaten Mimika";"PAPUA";"99910";"Indonesia";"";"";"";"-4.4017425";"136.8586894";"https://maps.google.com/?cid=0x0:0x8741752a83c2f1c8";""
"perumahan";"perumahan";"Son home";"JPMX+V4H, Bhintuka, Kec. Kuala Kencana, Kabupaten Mimika, Papua";"Kabupaten Mimika, Papua";"PAPUA";"";"Indonesia";"";"";"";"-4.3653215";"136.7478493";"https://maps.google.com/?cid=0x0:0xff367ffc9f46c6ed";""
"perumahan";"Perhimpunan Pengembang Perumahan";"Kios niken";"JPMX+V4H, Bhintuka, Kec. Kuala Kencana, Kabupaten Mimika, Papua 99910";"Bhintuka, Kec. Kuala Kencana, Kabupaten Mimika";"PAPUA";"99910";"Indonesia";"";"";"";"-4.3653215";"136.7478493";"https://maps.google.com/?cid=0x0:0x952c2dc91449b5b5";""
"perumahan";"perumahan";"Mulia Kencana";"Kec. Kuala Kencana, Kabupaten Mimika, Papua";"Kabupaten Mimika, Papua";"PAPUA";"";"Indonesia";"";"";"";"-4.3120639";"136.6512239";"https://maps.google.com/?cid=0x0:0x2afb2b2e8e3c8c17";""
"perumahan";"Komplek perumahan";"Mulia kencana Sp 7";"Unnamed Road, Mulia Kencana, Kec. Kuala Kencana, Kabupaten Mimika, Papua 99910";"Mulia Kencana, Kec. Kuala Kencana, Kabupaten Mimika";"PAPUA";"99910";"Indonesia";"";"";"";"-4.4882478";"136.780452";"https://maps.google.com/?cid=0x0:0xc41c26ab76f13285";""
"perumahan";"Komplek perumahan";"Taman Kencana Timika";"Baru, Jl. Maleo No.Jalur 8, RT.013/RW.004, Wonosari Jaya, Kec. Mimika Baru, Papua 99971";"Jl. Maleo No.Jalur 8, RT.013/RW.004, Wonosari Jaya, Kec. Mimika Baru";"PAPUA";"99971";"Indonesia";" 081240007372";"";"";"-4.5861935";"136.88527";"https://maps.google.com/?cid=0x0:0x3895ee2791b74d40";""
"perumahan";"Komplek perumahan";"Kambar kokonao";"JFQ5+XCV, Kokonao, Mimika Bar., Kabupaten Mimika, Papua 99973";"Kokonao, Mimika Bar., Kabupaten Mimika";"PAPUA";"99973";"Indonesia";"";"";"";"-4.3600225";"136.4585333";"https://maps.google.com/?cid=0x0:0x708aacc035d5a636";""
"perumahan";"perumahan";"GUBURINI CAMP";"JPMX+V4H KARYA KENCANA, Bhintuka, Kec. Kuala Kencana, Kabupaten Mimika, Papua";"Kabupaten Mimika, Papua";"PAPUA";"";"Indonesia";"";"";"";"-4.3653215";"136.7478493";"https://maps.google.com/?cid=0x0:0x52f8a8f9d8c75e32";""
"perumahan";"perumahan";"Papua 99967";"Kabupaten Mimika, Papua";"Kabupaten Mimika, Papua";"PAPUA";"";"Indonesia";"";"";"";"-4.2294388";"137.0193913";"https://maps.google.com/?cid=0x0:0x89f915cf55d48161";""
"perumahan";"Penginapan";"Palapa Estate";"V34Q+FQ6, Arwandop, Tembagapura, Kec. Tembagapura, Kabupaten Mimika, Papua 99967";"Arwandop, Tembagapura, Kec. Tembagapura, Kabupaten Mimika";"PAPUA";"99967";"Indonesia";"";"";"";"-4.143844";"137.0893942";"https://maps.google.com/?cid=0x0:0xb9fb1abe3f573017";""
"perumahan";"Gedung Apartemen";"HIDDEN VALLEY COMPLEX";"R3WX+8Q7, Tembagapura, Kec. Tembagapura, Kabupaten Mimika, Papua 99967";"Tembagapura, Kec. Tembagapura, Kabupaten Mimika";"PAPUA";"99967";"Indonesia";"";"";"";"-4.1542159";"137.0994215";"https://maps.google.com/?cid=0x0:0x8f548cbaf64490ca";""
"perumahan";"Komplek perumahan";"AMOLE HOUSING COMPLEX";"V36Q+47Q, Jl. Tembagapura Raya, Tembagapura, Kec. Tembagapura, Kabupaten Mimika, Papua 99967";"Jl. Tembagapura Raya, Tembagapura, Kec. Tembagapura, Kabupaten Mimika";"PAPUA";"99967";"Indonesia";"";"";"";"-4.1396574";"137.0882283";"https://maps.google.com/?cid=0x0:0x52af69d45091d4cd";""
"perumahan";"Komplek perumahan";"Ramang's House";"V34R+4VQ, Tembagapura, Kec. Tembagapura, Kabupaten Mimika, Papua 99967";"Tembagapura, Kec. Tembagapura, Kabupaten Mimika";"PAPUA";"99967";"Indonesia";"";"";"";"-4.1446275";"137.0918857";"https://maps.google.com/?cid=0x0:0x1568d0b7f81067a3";""
"perumahan";"Komplek perumahan";"WEST COMPLEX";"V35P+QQ8, Tembagapura, Kec. Tembagapura, Kabupaten Mimika, Papua 98972";"Tembagapura, Kec. Tembagapura, Kabupaten Mimika";"PAPUA";"98972";"Indonesia";"";"";"";"-4.1405946";"137.0869665";"https://maps.google.com/?cid=0x0:0x203e70c0e0946b6d";""
"perumahan";"Komplek perumahan";"Tree Haven Housing Complex";"V35Q+JH8, Tembagapura, Kec. Tembagapura, Kabupaten Mimika, Papua 98972";"Tembagapura, Kec. Tembagapura, Kabupaten Mimika";"PAPUA";"98972";"Indonesia";"";"";"";"-4.1409705";"137.0889433";"https://maps.google.com/?cid=0x0:0x3b53b123b41db059";""
"perumahan";"Komplek perumahan";"PRAMBANAN COMPLEX";"V35W+HC6, Tembagapura, Kec. Tembagapura, Kabupaten Mimika, Papua 98972";"Tembagapura, Kec. Tembagapura, Kabupaten Mimika";"PAPUA";"98972";"Indonesia";"";"";"";"-4.1410979";"137.0960039";"https://maps.google.com/?cid=0x0:0x6ec8d28bd206b244";""
"perumahan";"Komplek perumahan";"Terrace Estate";"V35Q+9V9, Tembagapura, Kec. Tembagapura, Kabupaten Mimika, Papua 98972";"Tembagapura, Kec. Tembagapura, Kabupaten Mimika";"PAPUA";"98972";"Indonesia";"";"";"";"-4.1415941";"137.0897204";"https://maps.google.com/?cid=0x0:0x20cc042f77e07d69";""
"perumahan";"Guest house";"Senior Guest House 114";"V34R+9Q4, Tembagapura, Kec. Tembagapura, Kabupaten Mimika, Papua 99967";"Tembagapura, Kec. Tembagapura, Kabupaten Mimika";"PAPUA";"99967";"Indonesia";" 0901407114";"";"";"-4.1441074";"137.0919679";"https://maps.google.com/?cid=0x0:0x576d126a25051031";""
"perumahan";"Kompleks Apartemen";"Bukit Barat";"V34P+M9V, Tembagapura, Kec. Tembagapura, Kabupaten Mimika, Papua";"Kabupaten Mimika, Papua";"PAPUA";"";"Indonesia";"";"";"";"-4.1432711";"137.0859312";"https://maps.google.com/?cid=0x0:0x5d70423726dec353";""
"perumahan";"Komplek perumahan";"Street Housing Complex - ST11A 203";"V34Q+8XX, Tembagapura, Kec. Tembagapura, Kabupaten Mimika, Papua 99967";"Tembagapura, Kec. Tembagapura, Kabupaten Mimika";"PAPUA";"99967";"Indonesia";"";"";"";"-4.1441473";"137.0899709";"https://maps.google.com/?cid=0x0:0x9f8cfb7c723da1e4";""
"perumahan";"Rumah Sakit";"Rumah Sakit Tembagapura";"V34R+HXH, Jl. Tembagapura Raya, Tembagapura, Kec. Tembagapura, Kabupaten Mimika, Papua 99967";"Jl. Tembagapura Raya, Tembagapura, Kec. Tembagapura, Kabupaten Mimika";"PAPUA";"99967";"Indonesia";" 0901467666";"";"";"-4.143552";"137.0924918";"https://maps.google.com/?cid=0x0:0x7df88589cfae0c11";""
"perumahan";"Perhimpunan Pengembang Perumahan";"Desa Induk Opitawak";"R2RW+WQ8, Waa, Kec. Tembagapura, Kabupaten Mimika, Papua 99967";"Waa, Kec. Tembagapura, Kabupaten Mimika";"PAPUA";"99967";"Indonesia";"";"";"";"-4.1577088";"137.0469478";"https://maps.google.com/?cid=0x0:0x50b198ed001949dd";""
"perumahan";"Guest house";"Guest House 103";"V33R+VWR, Tembagapura, Kec. Tembagapura, Kabupaten Mimika, Papua 99967";"Tembagapura, Kec. Tembagapura, Kabupaten Mimika";"PAPUA";"99967";"Indonesia";" 085250882818";"";"";"-4.1452702";"137.0922504";"https://maps.google.com/?cid=0x0:0x2ff90c1eaf3677f";""
"perumahan";"Pembangunan Perumahan";"Beanekogma";"R679+GFC, Tsinga, Kec. Tembagapura, Kabupaten Mimika, Papua 99967";"Tsinga, Kec. Tembagapura, Kabupaten Mimika";"PAPUA";"99967";"Indonesia";"";"";"";"-4.1867372";"137.2192118";"https://maps.google.com/?cid=0x0:0x132ba7a7262896e3";""
"perumahan";"Kompleks Kondominium";"BARAK P Ridge Camp";"V4Q2+X87, Jl. Ridge Camp Road, Tembagapura, Kec. Tembagapura, Kabupaten Mimika, Papua 98972";"Jl. Ridge Camp Road, Tembagapura, Kec. Tembagapura, Kabupaten Mimika";"PAPUA";"98972";"Indonesia";"";"";"";"-4.1100813";"137.1007832";"https://maps.google.com/?cid=0x0:0x12af5fa12694315c";""
"perumahan";"Pembangunan Perumahan";"Pandita houm";"V3RX+33F, Jl. Zaagkam, Tembagapura, Kec. Tembagapura, Kabupaten Mimika, Papua 98972";"Jl. Zaagkam, Tembagapura, Kec. Tembagapura, Kabupaten Mimika";"PAPUA";"98972";"Indonesia";"";"";"";"-4.1098107";"137.097661";"https://maps.google.com/?cid=0x0:0xcc9d7a8f813dff8c";""
"perumahan";"Komplek perumahan";"DRZ House";"Jl. Street VI No.154, Tembagapura, Mimika Regency, Papua 99967";"Tembagapura, Mimika Regency";"PAPUA";"99967";"Indonesia";"";"";"";"-4.1430005";"137.0904884";"https://maps.google.com/?cid=0x0:0x37e756a8e396ff0a";""
"perumahan";"Komplek perumahan";"Brilly's House";"Jl. Street VII No.162, Tembagapura, Kec. Tembagapura, Kabupaten Mimika, Papua 99967";"Tembagapura, Kec. Tembagapura, Kabupaten Mimika";"PAPUA";"99967";"Indonesia";"";"";"";"-4.1442164";"137.0911976";"https://maps.google.com/?cid=0x0:0x340e2f9b627e898a";""
"perumahan";"Komplek perumahan";"Porta Camp 68";"V35P+6C7, Jl. Tembagapura Raya, Tembagapura, Kec. Tembagapura, Kabupaten Mimika, Papua 98972";"Jl. Tembagapura Raya, Tembagapura, Kec. Tembagapura, Kabupaten Mimika";"PAPUA";"98972";"Indonesia";"";"";"";"-4.1419509";"137.0860371";"https://maps.google.com/?cid=0x0:0xffd3b4abcde3bfde";""
"perumahan";"Kantor Perusahaan";"PT. Freeport Indonesia Co";"JL Sq, No. II/405 Tbg, Kwamki, Jl. Mimika Baru, Kuala Kencana, Kec. Kuala Kencana, Kabupaten Mimika, Papua 99971";"No. II/405 Tbg, Kwamki, Jl. Mimika Baru, Kuala Kencana, Kec. Kuala Kencana, Kabupaten Mimika";"PAPUA";"99971";"Indonesia";" 0901351892";"";"";"-4.3966932";"136.8675537";"https://maps.google.com/?cid=0x0:0x1e9bb75d126ffc5b";""
"perumahan";"Gedung Apartemen";"Hidden Valley 1001";"R3WX+G2G, Tembagapura, Kec. Tembagapura, Kabupaten Mimika, Papua";"Kabupaten Mimika, Papua";"PAPUA";"";"Indonesia";"";"";"";"-4.1538043";"137.0971197";"https://maps.google.com/?cid=0x0:0x1616febc3eb383c5";""
"perumahan";"Kompleks Apartemen";"Namek gunung";"V34R+Q5X, Tembagapura, Kec. Tembagapura, Kabupaten Mimika, Papua";"Kabupaten Mimika, Papua";"PAPUA";"";"Indonesia";"";"";"";"-4.1430005";"137.0904884";"https://maps.google.com/?cid=0x0:0xd74aefdda43f0f93";""
