Category,Real Category,Business Name,Address,City,State,Postal Code,Country,Phone,Email,Website,Latitude,Longitude,Map Link,Details Link
toko bangunan,toko bangunan,Sulawesi Barat 91574,"Kab. Pasangkayu, Sulawesi Barat","Kab. Pasangkayu, Sulawesi Barat",SULAWESI BARAT,,Indonesia,,,,-1.1559774,119.464359,https://maps.google.com/?cid=0x0:0x87450841cbc25162,
toko bangunan,Toko Bahan Bangunan,Toko Putra Baruga,"2GR8+9M9, Jl. Poros Palu - Mamuju, Tampaure, Kec. Bambaira, Kab. Pasangkayu, Sulawesi Barat 91574","Jl. Poros Palu - Mamuju, Tampaure, Kec. Bambaira, Kab. Pasangkayu",SULAWESI BARAT,91574.0,Indonesia,,,,-0.959098,119.5167301,https://maps.google.com/?cid=0x0:0xa5f78bd268a887aa,
toko bangunan,Toko Bahan Bangunan,Toko Valva Bangunan,"R995+F8H, Pasangkayu, Kec. Pasangkayu, Kab. Pasangkayu, Sulawesi Barat 91574","Pasangkayu, Kec. Pasangkayu, Kab. Pasangkayu",SULAWESI BARAT,91574.0,Indonesia,85341505076.0,,,-1.1812798,119.3583997,https://maps.google.com/?cid=0x0:0xba09a047162b033,
toko bangunan,Toko Bahan Bangunan,toko bintang bangunan,"R983+HJJ, Pasangkayu, Kec. Pasangkayu, Kab. Pasangkayu, Sulawesi Barat 91571","Pasangkayu, Kec. Pasangkayu, Kab. Pasangkayu",SULAWESI BARAT,91571.0,Indonesia,,,,-1.1835344,119.3540086,https://maps.google.com/?cid=0x0:0xb6a3491b20daf14c,
toko bangunan,Perhimpunan Pengembang Perumahan,Toko Berkah Bangunan,"P8HH+5J9, Malei, Pedongga, Kab. Pasangkayu, Sulawesi Barat 91571","Malei, Pedongga, Kab. Pasangkayu",SULAWESI BARAT,91571.0,Indonesia,82193524222.0,,,-1.2720843,119.3290953,https://maps.google.com/?cid=0x0:0x4fe58465f2606352,
toko bangunan,Toko Bahan Bangunan,Toko Bangunan SIKAPAYYA,"4HH4+6HM, Sarude, Kec. Sarjo, Kab. Pasangkayu, Sulawesi Barat 91574","Sarude, Kec. Sarjo, Kab. Pasangkayu",SULAWESI BARAT,91574.0,Indonesia,,,,-0.8719101,119.5564201,https://maps.google.com/?cid=0x0:0xd6b90f3982c99f9a,
toko bangunan,Toko Bahan Bangunan,Toko Sinar Bangunan,"R9FG+X5V, Jl. Abdul Muis, Pasangkayu, Kec. Pasangkayu, Kab. Pasangkayu, Sulawesi Barat 91574","Jl. Abdul Muis, Pasangkayu, Kec. Pasangkayu, Kab. Pasangkayu",SULAWESI BARAT,91574.0,Indonesia,,,,-1.1750085,119.375422,https://maps.google.com/?cid=0x0:0xc244aaf885dbe36e,
toko bangunan,Pembangunan Perumahan,Baliri,"WFF7+75, Bambalamotu, Kec. Bambalamotu, Kab. Pasangkayu, Sulawesi Barat","Kab. Pasangkayu, Sulawesi Barat",SULAWESI BARAT,,Indonesia,,,,-1.0768117,119.4629117,https://maps.google.com/?cid=0x0:0x56680b4fbaa2ff1c,
toko bangunan,Toko Bahan Bangunan,Toko MITRA LOGAM,"Baras, Kec. Baras, Kab. Pasangkayu, Sulawesi Barat 91572","Kec. Baras, Kab. Pasangkayu",SULAWESI BARAT,91572.0,Indonesia,82188536189.0,,,-1.5889408,119.3280431,https://maps.google.com/?cid=0x0:0x76a83f233bab70ed,
toko bangunan,Toko Bahan Bangunan,TOKO BAMBA (BANGUNAN),"XWR9+WVC, Jl. Poros Buntao, La'bo, Kec. Sanggalangi, Kabupaten Toraja Utara, Sulawesi Selatan 91852","Jl. Poros Buntao, La'bo, Kec. Sanggalangi, Kabupaten Toraja Utara",SULAWESI BARAT,91852.0,Indonesia,82195095815.0,,,-3.0076787,119.9196332,https://maps.google.com/?cid=0x0:0x727c01f49c931179,
toko bangunan,Toko Bahan Bangunan,Toko bangunan Anisa putri,"XF2G+5Q9, Randomayang, Kec. Bambalamotu, Kab. Pasangkayu, Sulawesi Barat 91574","Randomayang, Kec. Bambalamotu, Kab. Pasangkayu",SULAWESI BARAT,91574.0,Indonesia,,,,-1.0494404,119.4772917,https://maps.google.com/?cid=0x0:0xcdab2f2c6a7c18f2,
toko bangunan,Kantor Pemerintah,Desa Bambaira,"2GC4+FG9, Bambaira, Kec. Bambaira, Kab. Pasangkayu, Sulawesi Barat 91574","Bambaira, Kec. Bambaira, Kab. Pasangkayu",SULAWESI BARAT,91574.0,Indonesia,,,,-0.9788497,119.5063571,https://maps.google.com/?cid=0x0:0x4db0201848a1feb7,
toko bangunan,Toko Bahan Bangunan,Toko Sinar Bangunan,"R9FG+X5V, Jl. Abdul Muis, Pasangkayu, Kec. Pasangkayu, Kab. Pasangkayu, Sulawesi Barat 91574","Jl. Abdul Muis, Pasangkayu, Kec. Pasangkayu, Kab. Pasangkayu",SULAWESI BARAT,91574.0,Indonesia,,,,-1.1750085,119.375422,https://maps.google.com/?cid=0x0:0xc244aaf885dbe36e,
toko bangunan,Toko Bahan Bangunan,Toko Valva Bangunan,"R995+F8H, Pasangkayu, Kec. Pasangkayu, Kab. Pasangkayu, Sulawesi Barat 91574","Pasangkayu, Kec. Pasangkayu, Kab. Pasangkayu",SULAWESI BARAT,91574.0,Indonesia,85341505076.0,,,-1.1812798,119.3583997,https://maps.google.com/?cid=0x0:0xba09a047162b033,
toko bangunan,toko bangunan,Bambalamotu,"Kec. Bambalamotu, Kab. Pasangkayu, Sulawesi Barat","Kab. Pasangkayu, Sulawesi Barat",SULAWESI BARAT,,Indonesia,,,,-1.0952071,119.4614578,https://maps.google.com/?cid=0x0:0x2e0275783eb46598,
toko bangunan,Pembangunan Perumahan,Baliri,"WFF7+75, Bambalamotu, Kec. Bambalamotu, Kab. Pasangkayu, Sulawesi Barat","Kab. Pasangkayu, Sulawesi Barat",SULAWESI BARAT,,Indonesia,,,,-1.0768117,119.4629117,https://maps.google.com/?cid=0x0:0x56680b4fbaa2ff1c,
toko bangunan,Toko Bahan Bangunan,Toko bangunan Anisa putri,"XF2G+5Q9, Randomayang, Kec. Bambalamotu, Kab. Pasangkayu, Sulawesi Barat 91574","Randomayang, Kec. Bambalamotu, Kab. Pasangkayu",SULAWESI BARAT,91574.0,Indonesia,,,,-1.0494404,119.4772917,https://maps.google.com/?cid=0x0:0xcdab2f2c6a7c18f2,
toko bangunan,toko bangunan,Kec. Baras,"Kab. Pasangkayu, Sulawesi Barat","Kab. Pasangkayu, Sulawesi Barat",SULAWESI BARAT,,Indonesia,,,,-1.588752,119.3280298,https://maps.google.com/?cid=0x0:0x43abedd2f72d30c4,
toko bangunan,Toko Bahan Bangunan,Toko MITRA LOGAM,"Baras, Kec. Baras, Kab. Pasangkayu, Sulawesi Barat 91572","Kec. Baras, Kab. Pasangkayu",SULAWESI BARAT,91572.0,Indonesia,82188536189.0,,,-1.5889408,119.3280431,https://maps.google.com/?cid=0x0:0x76a83f233bab70ed,
toko bangunan,Toko Bahan Bangunan,Sinar Sejahtera,"CCW3+X6J, Kompleks KSU, Motu, Kec. Baras, Kab. Pasangkayu, Sulawesi Barat 91572","Kompleks KSU, Motu, Kec. Baras, Kab. Pasangkayu",SULAWESI BARAT,91572.0,Indonesia,,,,-1.5525327,119.4030159,https://maps.google.com/?cid=0x0:0x4c85fe05d3fc9a40,
toko bangunan,Toko Bahan Bangunan,Toko Bangunan Sumber Logam,"GC44+XVR, Unnamed Road, Karave, Bulu Taba, Pasangkayu, West Sulawesi 91572","Unnamed Road, Karave, Bulu Taba, Pasangkayu",SULAWESI BARAT,91572.0,Indonesia,81264671628.0,,,-1.4925023,119.4071365,https://maps.google.com/?cid=0x0:0xa59fc1df5babcbe,
toko bangunan,Toko Bahan Bangunan,Toko Buana Situju,"Jl. Poros Majene - Mamuju, Kasano, Kec. Baras, Kab. Pasangkayu, Sulawesi Barat 91572","Kasano, Kec. Baras, Kab. Pasangkayu",SULAWESI BARAT,91572.0,Indonesia,82292372644.0,,,-1.533804,119.3453907,https://maps.google.com/?cid=0x0:0x878e2217645bc595,
toko bangunan,Toko Bahan Bangunan,ANEKA LOSTER,"F84W+V7Q, Kasano, Kec. Baras, Kab. Pasangkayu, Sulawesi Barat 91572","Kasano, Kec. Baras, Kab. Pasangkayu",SULAWESI BARAT,91572.0,Indonesia,81343114822.0,,,-1.542782,119.3457226,https://maps.google.com/?cid=0x0:0x913b69725e07d54f,
toko bangunan,Pemasok Bahan Bangunan,toko CAHAYA LOGAM BURANGGE,"F86P+XMC, Kasano, Kec. Baras, Kab. Pasangkayu, Sulawesi Barat 91572","Kasano, Kec. Baras, Kab. Pasangkayu",SULAWESI BARAT,91572.0,Indonesia,,,,-1.5375613,119.3366501,https://maps.google.com/?cid=0x0:0xe90af9fa9065bfdb,
toko bangunan,toko bangunan,Sulawesi Barat 91572,"Kab. Pasangkayu, Sulawesi Barat","Kab. Pasangkayu, Sulawesi Barat",SULAWESI BARAT,,Indonesia,,,,-1.5596509,119.5571677,https://maps.google.com/?cid=0x0:0xedbe1b42f4cf1266,
toko bangunan,Toko Bahan Bangunan,Toko Bangunan Sumber Logam,"GC44+XVR, Unnamed Road, Karave, Bulu Taba, Pasangkayu, West Sulawesi 91572","Unnamed Road, Karave, Bulu Taba, Pasangkayu",SULAWESI BARAT,91572.0,Indonesia,81264671628.0,,,-1.4925023,119.4071365,https://maps.google.com/?cid=0x0:0xa59fc1df5babcbe,
toko bangunan,toko bangunan,TOKO CAHAYA DEMAK,"Jl Sultan Hasanuddin Dsn. Biai Desa Lilimori Kec. Bulutaba, Lilimori, Kec. Bulu Taba, Kab. Pasangkayu, Sulawesi Barat 91572","Lilimori, Kec. Bulu Taba, Kab. Pasangkayu",SULAWESI BARAT,91572.0,Indonesia,81341595236.0,,,-1.476158,119.4231359,https://maps.google.com/?cid=0x0:0xb040169c97921f67,
toko bangunan,Toko Bahan Bangunan,Toko MITRA LOGAM,"Baras, Kec. Baras, Kab. Pasangkayu, Sulawesi Barat 91572","Kec. Baras, Kab. Pasangkayu",SULAWESI BARAT,91572.0,Indonesia,82188536189.0,,,-1.5889408,119.3280431,https://maps.google.com/?cid=0x0:0x76a83f233bab70ed,
toko bangunan,Toko Bahan Bangunan,Cahaya Sinar Soloraya Jaya,"G9GH+7V5, Parabu, Kec. Lariang, Kab. Pasangkayu, Sulawesi Barat 91572","Parabu, Kec. Lariang, Kab. Pasangkayu",SULAWESI BARAT,91572.0,Indonesia,89570534106.0,,,-1.4743575,119.3797391,https://maps.google.com/?cid=0x0:0xf880716ccb5f64de,
toko bangunan,Toko Bahan Bangunan,toko subur jaya,"HC7F+6Q9, Lelejae, Kec. Bulu Taba, Kab. Pasangkayu, Sulawesi Barat 91571","Lelejae, Kec. Bulu Taba, Kab. Pasangkayu",SULAWESI BARAT,91571.0,Indonesia,,,,-1.437047,119.4262593,https://maps.google.com/?cid=0x0:0x2866de45335d52f9,
toko bangunan,Toko Bahan Bangunan,Toko Buana Situju,"Jl. Poros Majene - Mamuju, Kasano, Kec. Baras, Kab. Pasangkayu, Sulawesi Barat 91572","Kasano, Kec. Baras, Kab. Pasangkayu",SULAWESI BARAT,91572.0,Indonesia,82292372644.0,,,-1.533804,119.3453907,https://maps.google.com/?cid=0x0:0x878e2217645bc595,
toko bangunan,Toko Bahan Bangunan,Sinar Sejahtera,"CCW3+X6J, Kompleks KSU, Motu, Kec. Baras, Kab. Pasangkayu, Sulawesi Barat 91572","Kompleks KSU, Motu, Kec. Baras, Kab. Pasangkayu",SULAWESI BARAT,91572.0,Indonesia,,,,-1.5525327,119.4030159,https://maps.google.com/?cid=0x0:0x4c85fe05d3fc9a40,
toko bangunan,Toko Bahan Bangunan,Toko putra demak,"GCFF+GJF, Lilimori, Kec. Bulu Taba, Kab. Pasangkayu, Sulawesi Barat 91572","Lilimori, Kec. Bulu Taba, Kab. Pasangkayu",SULAWESI BARAT,91572.0,Indonesia,,,,-1.4761942,119.4240424,https://maps.google.com/?cid=0x0:0x1de3fa595e81118c,
toko bangunan,Toko bahan makanan,Toko Karya Bintoro,"GCG9+J92, Lilimori, Kec. Bulu Taba, Kab. Pasangkayu, Sulawesi Barat 91572","Lilimori, Kec. Bulu Taba, Kab. Pasangkayu",SULAWESI BARAT,91572.0,Indonesia,,,,-1.4734774,119.4183764,https://maps.google.com/?cid=0x0:0x4b7ce1f22c88838e,
toko bangunan,Toko Bahan Bangunan,Toko Bangunan Heder Abadi,"H984+XX5, Lariang, Kec. Tikke Raya, Kab. Pasangkayu, Sulawesi Barat","Kab. Pasangkayu, Sulawesi Barat",SULAWESI BARAT,,Indonesia,,,,-1.4326034,119.3574784,https://maps.google.com/?cid=0x0:0xd7ae5684ad89f37f,
toko bangunan,Toko Bahan Bangunan,ANEKA LOSTER,"F84W+V7Q, Kasano, Kec. Baras, Kab. Pasangkayu, Sulawesi Barat 91572","Kasano, Kec. Baras, Kab. Pasangkayu",SULAWESI BARAT,91572.0,Indonesia,81343114822.0,,,-1.542782,119.3457226,https://maps.google.com/?cid=0x0:0x913b69725e07d54f,
toko bangunan,Pemasok Bahan Bangunan,Toko bangunan sinar surya baras,"Dusun samonu/bambaloka, Baras, Kec. Baras, Kab. Pasangkayu, Sulawesi Barat 91572","Baras, Kec. Baras, Kab. Pasangkayu",SULAWESI BARAT,91572.0,Indonesia,82292516079.0,,,-1.5911398,119.3269777,https://maps.google.com/?cid=0x0:0x6cbe19908c2077d,
toko bangunan,Toko Bahan Bangunan,Toko Valva Bangunan,"R995+F8H, Pasangkayu, Kec. Pasangkayu, Kab. Pasangkayu, Sulawesi Barat 91574","Pasangkayu, Kec. Pasangkayu, Kab. Pasangkayu",SULAWESI BARAT,91574.0,Indonesia,85341505076.0,,,-1.1812798,119.3583997,https://maps.google.com/?cid=0x0:0xba09a047162b033,
toko bangunan,Toko Kayu,Toko bangunan Jufri,"887R+WQC, Jl. Belimbing, Bulu Mario, Kec. Sarudu, Kab. Pasangkayu, Sulawesi Barat 91573","Jl. Belimbing, Bulu Mario, Kec. Sarudu, Kab. Pasangkayu",SULAWESI BARAT,91573.0,Indonesia,,,,-1.6851793,119.34188,https://maps.google.com/?cid=0x0:0xdd534323d0686e66,
toko bangunan,Pemasok Bahan Bangunan,toko CAHAYA LOGAM BURANGGE,"F86P+XMC, Kasano, Kec. Baras, Kab. Pasangkayu, Sulawesi Barat 91572","Kasano, Kec. Baras, Kab. Pasangkayu",SULAWESI BARAT,91572.0,Indonesia,,,,-1.5375613,119.3366501,https://maps.google.com/?cid=0x0:0xe90af9fa9065bfdb,
toko bangunan,Toko Bahan Bangunan,UD. TASWIN PUTRA TUNGGAL,"Jalan Trans Mamuju, desa Bambakoro, Kec. Lariang, Kab. Pasangkayu, Sulawesi Barat 91571","desa Bambakoro, Kec. Lariang, Kab. Pasangkayu",SULAWESI BARAT,91571.0,Indonesia,82347475042.0,,,-1.4485786,119.3492565,https://maps.google.com/?cid=0x0:0x6eb29f912b30367c,
toko bangunan,Toko Bahan Bangunan,Toko Buana Situju Lame Ambo,"G8GP+FCM, Singgani, Kec. Lariang, Kab. Pasangkayu, Sulawesi Barat 91572","Singgani, Kec. Lariang, Kab. Pasangkayu",SULAWESI BARAT,91572.0,Indonesia,,,,-1.474595,119.336148,https://maps.google.com/?cid=0x0:0x5e09800d89339af0,
toko bangunan,Pembangunan Perumahan,Toko Bangunan Putra Tande 5 Tapalang,"Galung, Kec. Tapalang, Kabupaten Mamuju, Sulawesi Barat 91352","Kec. Tapalang, Kabupaten Mamuju",SULAWESI BARAT,91352.0,Indonesia,85397048983.0,,,-2.8651937,118.8702682,https://maps.google.com/?cid=0x0:0x5ece193e63138999,
toko bangunan,Kontraktor Umum,Matra Central Truss,"H9J6+76F, JL. Trans Sulawesi Pasangkayu, Lariang, Kec. Tikke Raya, Mamuju, Sulawesi Barat 91571","JL. Trans Sulawesi Pasangkayu, Lariang, Kec. Tikke Raya, Mamuju",SULAWESI BARAT,91571.0,Indonesia,81341232868.0,,,-1.4193227,119.3605328,https://maps.google.com/?cid=0x0:0x65dda0e785569554,
toko bangunan,Toko Bahan Bangunan,Toko Delta Bangunan,"8V6H+X4H, Karema, Kec. Mamuju, Kabupaten Mamuju, Sulawesi Barat 91512","Karema, Kec. Mamuju, Kabupaten Mamuju",SULAWESI BARAT,91512.0,Indonesia,81524333299.0,,,-2.6875662,118.8778488,https://maps.google.com/?cid=0x0:0x600c10af92b1cb4f,
toko bangunan,Toko Bahan Bangunan,Toko sinar Logam,"887R+5HH, Jl. Manggis, Bulu Mario, Kec. Sarudu, Kab. Pasangkayu, Sulawesi Barat 91573","Jl. Manggis, Bulu Mario, Kec. Sarudu, Kab. Pasangkayu",SULAWESI BARAT,91573.0,Indonesia,,,,-1.6870644,119.3414727,https://maps.google.com/?cid=0x0:0x8a8cd45da7eb025c,
toko bangunan,toko bangunan,Sulawesi Barat 91512,"Kabupaten Mamuju, Sulawesi Barat","Kabupaten Mamuju, Sulawesi Barat",SULAWESI BARAT,,Indonesia,,,,-1.8494265,119.5339711,https://maps.google.com/?cid=0x0:0x8e21c401717b8ceb,
toko bangunan,Toko Bahan Bangunan,Toko Multi Bangunan,"Jl. Diponegoro No.c14-15, Karema, Kec. Mamuju, Kabupaten Mamuju, Sulawesi Barat 91512","Karema, Kec. Mamuju, Kabupaten Mamuju",SULAWESI BARAT,91512.0,Indonesia,81242298806.0,,,-2.6862595,118.8768742,https://maps.google.com/?cid=0x0:0xd05c6306c1a3648f,
toko bangunan,Toko Bahan Bangunan,Toko. Fajar Bangunan - Mamuju,"8V6G+7WH, Jl. Diponegoro, Karema, Kec. Mamuju, Kabupaten Mamuju, Sulawesi Barat 91512","Jl. Diponegoro, Karema, Kec. Mamuju, Kabupaten Mamuju",SULAWESI BARAT,91512.0,Indonesia,85930982364.0,,,-2.689321,118.8773494,https://maps.google.com/?cid=0x0:0x6d4e74a959cf61d6,
toko bangunan,Toko Bahan Bangunan,Tk. Buana Bangunan,"8V7G+MJJ, Karema, Kec. Mamuju, Kabupaten Mamuju, Sulawesi Barat 91512","Karema, Kec. Mamuju, Kabupaten Mamuju",SULAWESI BARAT,91512.0,Indonesia,82179264696.0,,,-2.6857866,118.8765206,https://maps.google.com/?cid=0x0:0x8cdc46a0e8fa0fe6,
toko bangunan,Toko Alat Listrik,Toko Mitra Listrik,"Karema, Kec. Mamuju, Kabupaten Mamuju, Sulawesi Barat 91512","Kec. Mamuju, Kabupaten Mamuju",SULAWESI BARAT,91512.0,Indonesia,81216513956.0,,,-2.6836678,118.8758437,https://maps.google.com/?cid=0x0:0x9b2d83aba9467b91,
toko bangunan,Toko Bahan Bangunan,Toko Delta Bangunan,"8V6H+X4H, Karema, Kec. Mamuju, Kabupaten Mamuju, Sulawesi Barat 91512","Karema, Kec. Mamuju, Kabupaten Mamuju",SULAWESI BARAT,91512.0,Indonesia,81524333299.0,,,-2.6875662,118.8778488,https://maps.google.com/?cid=0x0:0x600c10af92b1cb4f,
toko bangunan,Toko Bahan Bangunan,Toko Makmur 88,"Simboro, Kec. Simboro Dan Kepulauan, Kabupaten Mamuju, Sulawesi Barat 91512","Kec. Simboro Dan Kepulauan, Kabupaten Mamuju",SULAWESI BARAT,91512.0,Indonesia,82195585978.0,,,-2.67092,118.8524302,https://maps.google.com/?cid=0x0:0xc963452732b791b2,
toko bangunan,Kios,Toko Bangunan To Tambayako,"Jl. RE Martadinata No.Kel, Simboro, Kec. Simboro Dan Kepulauan, Kab. Mamuju, Sulawesi Barat 91512","Simboro, Kec. Simboro Dan Kepulauan, Kab. Mamuju",SULAWESI BARAT,91512.0,Indonesia,,,,-2.6825789,118.857926,https://maps.google.com/?cid=0x0:0x3b9dad02b3718599,
toko bangunan,Toko Perlengkapan Rumah,Toko Fajar Mandiri,"6C32+6PH, Karossa, Kec. Karossa, Kabupaten Mamuju, Sulawesi Barat 91512","Karossa, Kec. Karossa, Kabupaten Mamuju",SULAWESI BARAT,91512.0,Indonesia,81373974815.0,,,-1.7969264,119.401873,https://maps.google.com/?cid=0x0:0x369b9c9c478b5faa,
toko bangunan,Toko Bahan Bangunan,Toko Harapan Jaya,"Jl. LetJend Hertasning, Binanga, Kec. Mamuju, Kabupaten Mamuju, Sulawesi Barat 91511","Binanga, Kec. Mamuju, Kabupaten Mamuju",SULAWESI BARAT,91511.0,Indonesia,,,,-2.6718353,118.8918529,https://maps.google.com/?cid=0x0:0x4aa8f68af0fe79ed,
toko bangunan,Toko Perlengkapan Rumah,Toko Menara Tomakaka,"Jl. Husni Thamrin No.46, Rimuku, Kec. Mamuju, Kabupaten Mamuju, Sulawesi Barat 91511","Rimuku, Kec. Mamuju, Kabupaten Mamuju",SULAWESI BARAT,91511.0,Indonesia,,,,-2.6850967,118.8933375,https://maps.google.com/?cid=0x0:0xa3d8445cf839e977,
toko bangunan,Toko Bahan Bangunan,TOKO GUDANG GRAHA TOMAKAKA 3,"Jl. Abd. Syakur, Karema, Kec. Mamuju, Kabupaten Mamuju, Sulawesi Barat 91512","Karema, Kec. Mamuju, Kabupaten Mamuju",SULAWESI BARAT,91512.0,Indonesia,82393103700.0,,,-2.6890654,118.8739797,https://maps.google.com/?cid=0x0:0x4944de5fe2559f5,
toko bangunan,Toko Perlengkapan Rumah,TB HIGAR BANGUNAN,"Jl. Abdul Malik Pattana Endeng No.kel, Simboro, Kec. Simboro Dan Kepulauan, Kabupaten Mamuju, Sulawesi Barat 91512","Simboro, Kec. Simboro Dan Kepulauan, Kabupaten Mamuju",SULAWESI BARAT,91512.0,Indonesia,81373974815.0,,,-2.6763392,118.8573914,https://maps.google.com/?cid=0x0:0xb4329c8acd4be00d,
toko bangunan,Toko Bahan Bangunan,Toko Bangunan 79,"8V8J+3MF, Karema, Kec. Mamuju, Kabupaten Mamuju, Sulawesi Barat 91511","Karema, Kec. Mamuju, Kabupaten Mamuju",SULAWESI BARAT,91511.0,Indonesia,,,,-2.684817,118.8816695,https://maps.google.com/?cid=0x0:0x101d0b0f58da7e81,
toko bangunan,Toko Bahan Bangunan,SUMBER HARAPAN,"Karema, Kec. Mamuju, Kabupaten Mamuju, Sulawesi Barat","Kabupaten Mamuju, Sulawesi Barat",SULAWESI BARAT,,Indonesia,85341996114.0,,,-2.6770968,118.8869489,https://maps.google.com/?cid=0x0:0xf393bd54539f675b,
toko bangunan,Toko Bahan Bangunan,Toko Usaha Maju,"Jl. Andi Dai No.66, Binanga, Kec. Mamuju, Kabupaten Mamuju, Sulawesi Barat 91511","Binanga, Kec. Mamuju, Kabupaten Mamuju",SULAWESI BARAT,91511.0,Indonesia,81242225181.0,,,-2.6719505,118.8959849,https://maps.google.com/?cid=0x0:0xce686b7c9c65b,
toko bangunan,Toko Bahan Bangunan,Tunas Jaya Mamuju,"8V7G+6W7, Jl. Diponegoro, Karema, Kec. Mamuju, Kabupaten Mamuju, Sulawesi Barat 91512","Jl. Diponegoro, Karema, Kec. Mamuju, Kabupaten Mamuju",SULAWESI BARAT,91512.0,Indonesia,,,,-2.6869645,118.8772869,https://maps.google.com/?cid=0x0:0xe9c75e78f96ac774,
toko bangunan,Toko Bahan Bangunan,TK. 21Jaya,"Jl. H. Andi Endeng, Karema, Kec. Mamuju, Kabupaten Mamuju, Sulawesi Barat 91515","Karema, Kec. Mamuju, Kabupaten Mamuju",SULAWESI BARAT,91515.0,Indonesia,85343714850.0,,,-2.6811042,118.8809294,https://maps.google.com/?cid=0x0:0x8e37c7da8f72ad40,
toko bangunan,Toko Elektronik,22 TEKNIK BANGUNAN,"Jl. Abdul Malik Pattana Endeng, Simboro, Kec. Simboro Dan Kepulauan, Kabupaten Mamuju, Sulawesi Barat 91512","Simboro, Kec. Simboro Dan Kepulauan, Kabupaten Mamuju",SULAWESI BARAT,91512.0,Indonesia,81265476914.0,,,-2.6838018,118.8580846,https://maps.google.com/?cid=0x0:0xc78c6920f1d024b5,
toko bangunan,Toko Bahan Bangunan,Fajar Mas Toko,"8VGQ+HV8, Komplek Pasar Sentral, Simboro, Kec. Mamuju, Kabupaten Mamuju, Sulawesi Barat 91811","Komplek Pasar Sentral, Simboro, Kec. Mamuju, Kabupaten Mamuju",SULAWESI BARAT,91811.0,Indonesia,42621498.0,,,-2.6735892,118.8897077,https://maps.google.com/?cid=0x0:0x25648f8d214d5e5b,
toko bangunan,,TOKO CAHAYA PUTRI,"Jl. Diponegoro, Karema, Kec. Mamuju, Kabupaten Mamuju, Sulawesi Barat 91512","Karema, Kec. Mamuju, Kabupaten Mamuju",SULAWESI BARAT,91512.0,Indonesia,82290305997.0,,,-2.6849443,118.876198,https://maps.google.com/?cid=0x0:0x29d11fe038dfd6c0,
toko bangunan,Toko Bahan Bangunan,Buana Fadly,"6C33+824, Karossa, Kec. Karossa, Kabupaten Mamuju, Sulawesi Barat 91512","Karossa, Kec. Karossa, Kabupaten Mamuju",SULAWESI BARAT,91512.0,Indonesia,85395764567.0,,,-1.7967481,119.4025853,https://maps.google.com/?cid=0x0:0xd7bc2ddb9906de73,
toko bangunan,toko bangunan,Dapurang,"Kec. Dapurang, Kab. Pasangkayu, Sulawesi Barat","Kab. Pasangkayu, Sulawesi Barat",SULAWESI BARAT,,Indonesia,,,,-1.7373218,119.3540715,https://maps.google.com/?cid=0x0:0x14e56f055de03929,
toko bangunan,Toko Bahan Bangunan,Toko Buana Situju,"785H+6RQ, Jl. Poros Majene - Mamuju, Dapurang, Kec. Dapurang, Kab. Pasangkayu, Sulawesi Barat 91573","Jl. Poros Majene - Mamuju, Dapurang, Kec. Dapurang, Kab. Pasangkayu",SULAWESI BARAT,91573.0,Indonesia,,,,-1.7419249,119.3296143,https://maps.google.com/?cid=0x0:0x25cccb0304d1e22d,
toko bangunan,Toko Bahan Bangunan,Toko Bangunan Sumber Logam,"GC44+XVR, Unnamed Road, Karave, Bulu Taba, Pasangkayu, West Sulawesi 91572","Unnamed Road, Karave, Bulu Taba, Pasangkayu",SULAWESI BARAT,91572.0,Indonesia,81264671628.0,,,-1.4925023,119.4071365,https://maps.google.com/?cid=0x0:0xa59fc1df5babcbe,
toko bangunan,Toko Bahan Bangunan,Toko Valva Bangunan,"R995+F8H, Pasangkayu, Kec. Pasangkayu, Kab. Pasangkayu, Sulawesi Barat 91574","Pasangkayu, Kec. Pasangkayu, Kab. Pasangkayu",SULAWESI BARAT,91574.0,Indonesia,85341505076.0,,,-1.1812798,119.3583997,https://maps.google.com/?cid=0x0:0xba09a047162b033,
toko bangunan,Toko Bahan Bangunan,Toko Delta Bangunan,"8V6H+X4H, Karema, Kec. Mamuju, Kabupaten Mamuju, Sulawesi Barat 91512","Karema, Kec. Mamuju, Kabupaten Mamuju",SULAWESI BARAT,91512.0,Indonesia,81524333299.0,,,-2.6875662,118.8778488,https://maps.google.com/?cid=0x0:0x600c10af92b1cb4f,
toko bangunan,Toko Bahan Bangunan,toko bintang bangunan,"R983+HJJ, Pasangkayu, Kec. Pasangkayu, Kab. Pasangkayu, Sulawesi Barat 91571","Pasangkayu, Kec. Pasangkayu, Kab. Pasangkayu",SULAWESI BARAT,91571.0,Indonesia,,,,-1.1835344,119.3540086,https://maps.google.com/?cid=0x0:0xb6a3491b20daf14c,
toko bangunan,Toko Bahan Bangunan,Toko Bangunan Putra Tande Lombang-Lombang,"C2GP+7RQ, lombang-lombang, Sinyonyoi, Kec. Kalukku, Kabupaten Mamuju, Sulawesi Barat 91561","lombang-lombang, Sinyonyoi, Kec. Kalukku, Kabupaten Mamuju",SULAWESI BARAT,91561.0,Indonesia,82398888856.0,,,-2.5742542,119.0368658,https://maps.google.com/?cid=0x0:0xfd16ae7e2f3692d9,
toko bangunan,Pembangunan Perumahan,Toko Bangunan Putra Tande 5 Tapalang,"Galung, Kec. Tapalang, Kabupaten Mamuju, Sulawesi Barat 91352","Kec. Tapalang, Kabupaten Mamuju",SULAWESI BARAT,91352.0,Indonesia,85397048983.0,,,-2.8651937,118.8702682,https://maps.google.com/?cid=0x0:0x5ece193e63138999,
toko bangunan,Toko Bahan Bangunan,Toko buyung bangunan,"5V55+QW8, Jl. Poros Majene - Mamuju, Tampalang, Kec. Tapalang, Kabupaten Mamuju, Sulawesi Barat 91352","Jl. Poros Majene - Mamuju, Tampalang, Kec. Tapalang, Kabupaten Mamuju",SULAWESI BARAT,91352.0,Indonesia,,,,-2.840579,118.8598397,https://maps.google.com/?cid=0x0:0xdaa7f0c9eeaba7c8,
toko bangunan,Toko Bahan Bangunan,Toko sinar Logam,"887R+5HH, Jl. Manggis, Bulu Mario, Kec. Sarudu, Kab. Pasangkayu, Sulawesi Barat 91573","Jl. Manggis, Bulu Mario, Kec. Sarudu, Kab. Pasangkayu",SULAWESI BARAT,91573.0,Indonesia,,,,-1.6870644,119.3414727,https://maps.google.com/?cid=0x0:0x8a8cd45da7eb025c,
toko bangunan,Perhimpunan Pengembang Perumahan,Toko Berkah Bangunan,"P8HH+5J9, Malei, Pedongga, Kab. Pasangkayu, Sulawesi Barat 91571","Malei, Pedongga, Kab. Pasangkayu",SULAWESI BARAT,91571.0,Indonesia,82193524222.0,,,-1.2720843,119.3290953,https://maps.google.com/?cid=0x0:0x4fe58465f2606352,
toko bangunan,Kios,Toko Bangunan To Tambayako,"Jl. RE Martadinata No.Kel, Simboro, Kec. Simboro Dan Kepulauan, Kab. Mamuju, Sulawesi Barat 91512","Simboro, Kec. Simboro Dan Kepulauan, Kab. Mamuju",SULAWESI BARAT,91512.0,Indonesia,,,,-2.6825789,118.857926,https://maps.google.com/?cid=0x0:0x3b9dad02b3718599,
toko bangunan,Toko Bahan Bangunan,Toko Sinar Bangunan,"R9FG+X5V, Jl. Abdul Muis, Pasangkayu, Kec. Pasangkayu, Kab. Pasangkayu, Sulawesi Barat 91574","Jl. Abdul Muis, Pasangkayu, Kec. Pasangkayu, Kab. Pasangkayu",SULAWESI BARAT,91574.0,Indonesia,,,,-1.1750085,119.375422,https://maps.google.com/?cid=0x0:0xc244aaf885dbe36e,
toko bangunan,Toko Perlengkapan Rumah,Toko Fajar Mas,"78R3+4XG, Jl. Poros Majene - Mamuju, Sarudu, Kec. Sarudu, Kab. Pasangkayu, Sulawesi Barat 91573","Jl. Poros Majene - Mamuju, Sarudu, Kec. Sarudu, Kab. Pasangkayu",SULAWESI BARAT,91573.0,Indonesia,,,,-1.7096903,119.3049596,https://maps.google.com/?cid=0x0:0x9228cd946562eccc,
toko bangunan,Toko Bahan Bangunan,Toko Multi Bangunan,"Jl. Diponegoro No.c14-15, Karema, Kec. Mamuju, Kabupaten Mamuju, Sulawesi Barat 91512","Karema, Kec. Mamuju, Kabupaten Mamuju",SULAWESI BARAT,91512.0,Indonesia,81242298806.0,,,-2.6862595,118.8768742,https://maps.google.com/?cid=0x0:0xd05c6306c1a3648f,
toko bangunan,Pasar,Toko Pantai Karossa,"6C22+HXP, Dusun Mora, Karossa, Kec. Karossa, Kabupaten Mamuju Tengah, Sulawesi Barat 91512","Dusun Mora, Karossa, Kec. Karossa, Kabupaten Mamuju Tengah",SULAWESI BARAT,91512.0,Indonesia,81373974815.0,,,-1.7985411,119.4024404,https://maps.google.com/?cid=0x0:0x24dafad928bb43c3,
toko bangunan,Toko Kayu,Toko bangunan Jufri,"887R+WQC, Jl. Belimbing, Bulu Mario, Kec. Sarudu, Kab. Pasangkayu, Sulawesi Barat 91573","Jl. Belimbing, Bulu Mario, Kec. Sarudu, Kab. Pasangkayu",SULAWESI BARAT,91573.0,Indonesia,,,,-1.6851793,119.34188,https://maps.google.com/?cid=0x0:0xdd534323d0686e66,
toko bangunan,Toko Bahan Bangunan,Toko. Fajar Bangunan - Mamuju,"8V6G+7WH, Jl. Diponegoro, Karema, Kec. Mamuju, Kabupaten Mamuju, Sulawesi Barat 91512","Jl. Diponegoro, Karema, Kec. Mamuju, Kabupaten Mamuju",SULAWESI BARAT,91512.0,Indonesia,85930982364.0,,,-2.689321,118.8773494,https://maps.google.com/?cid=0x0:0x6d4e74a959cf61d6,
toko bangunan,Kantor Pemerintah,Kantor Kecamatan Dapurang,"783H+968, Dapurang, Kec. Dapurang, Kab. Pasangkayu, Sulawesi Barat 91573","Dapurang, Kec. Dapurang, Kab. Pasangkayu",SULAWESI BARAT,91573.0,Indonesia,,,,-1.7465988,119.3280935,https://maps.google.com/?cid=0x0:0x943789cbb6e9301e,
toko bangunan,Toko Perlengkapan Rumah,Toko Fajar Mandiri,"6C32+6PH, Karossa, Kec. Karossa, Kabupaten Mamuju, Sulawesi Barat 91512","Karossa, Kec. Karossa, Kabupaten Mamuju",SULAWESI BARAT,91512.0,Indonesia,81373974815.0,,,-1.7969264,119.401873,https://maps.google.com/?cid=0x0:0x369b9c9c478b5faa,
toko bangunan,Masjid,Tabalia Desa Dapurang,"79MP+8HV, Dapurang, Kec. Dapurang, Kab. Pasangkayu, Sulawesi Barat 91573","Dapurang, Kec. Dapurang, Kab. Pasangkayu",SULAWESI BARAT,91573.0,Indonesia,85242015510.0,,,-1.7166354,119.3864195,https://maps.google.com/?cid=0x0:0x7c2af4a7dfffbf4f,
toko bangunan,Toko Bahan Bangunan,Toko wahyu bantayan,"886V+QFG, Jl. Elang, Bulu Mario, Kec. Sarudu, Kab. Pasangkayu, Sulawesi Barat 91573","Jl. Elang, Bulu Mario, Kec. Sarudu, Kab. Pasangkayu",SULAWESI BARAT,91573.0,Indonesia,,,,-1.6881185,119.3436634,https://maps.google.com/?cid=0x0:0x6f0e858fcdd4efb3,
toko bangunan,Toko Bahan Bangunan,Toko Buana Situju,"Jl. Poros Majene - Mamuju, Kasano, Kec. Baras, Kab. Pasangkayu, Sulawesi Barat 91572","Kasano, Kec. Baras, Kab. Pasangkayu",SULAWESI BARAT,91572.0,Indonesia,82292372644.0,,,-1.533804,119.3453907,https://maps.google.com/?cid=0x0:0x878e2217645bc595,
toko bangunan,Toko Bahan Bangunan,Lestari Handayani,"6C87+3X8, Karossa, Kec. Karossa, Kabupaten Mamuju, Sulawesi Barat 91573","Karossa, Kec. Karossa, Kabupaten Mamuju",SULAWESI BARAT,91573.0,Indonesia,,,,-1.784826,119.4149588,https://maps.google.com/?cid=0x0:0xe4b75cce83ea4494,
toko bangunan,Toko Bahan Bangunan,Toko Kayu,"Bulu Mario, Kec. Sarudu, Kab. Pasangkayu, Sulawesi Barat 91573","Kec. Sarudu, Kab. Pasangkayu",SULAWESI BARAT,91573.0,Indonesia,85217247256.0,,,-1.6883539,119.343478,https://maps.google.com/?cid=0x0:0xdf701ee855e87811,
toko bangunan,Toko Bahan Bangunan,Toko MITRA LOGAM,"Baras, Kec. Baras, Kab. Pasangkayu, Sulawesi Barat 91572","Kec. Baras, Kab. Pasangkayu",SULAWESI BARAT,91572.0,Indonesia,82188536189.0,,,-1.5889408,119.3280431,https://maps.google.com/?cid=0x0:0x76a83f233bab70ed,
toko bangunan,toko bangunan,Kec. Duripoku,"Kab. Pasangkayu, Sulawesi Barat","Kab. Pasangkayu, Sulawesi Barat",SULAWESI BARAT,,Indonesia,,,,-1.6543678,119.4203336,https://maps.google.com/?cid=0x0:0x2c307cba88191354,
toko bangunan,Toko Kayu,Toko bangunan Jufri,"887R+WQC, Jl. Belimbing, Bulu Mario, Kec. Sarudu, Kab. Pasangkayu, Sulawesi Barat 91573","Jl. Belimbing, Bulu Mario, Kec. Sarudu, Kab. Pasangkayu",SULAWESI BARAT,91573.0,Indonesia,,,,-1.6851793,119.34188,https://maps.google.com/?cid=0x0:0xdd534323d0686e66,
toko bangunan,Toko Bahan Bangunan,Toko Bangunan Sumber Logam,"GC44+XVR, Unnamed Road, Karave, Bulu Taba, Pasangkayu, West Sulawesi 91572","Unnamed Road, Karave, Bulu Taba, Pasangkayu",SULAWESI BARAT,91572.0,Indonesia,81264671628.0,,,-1.4925023,119.4071365,https://maps.google.com/?cid=0x0:0xa59fc1df5babcbe,
toko bangunan,Toko Bahan Bangunan,Toko Kayu,"Bulu Mario, Kec. Sarudu, Kab. Pasangkayu, Sulawesi Barat 91573","Kec. Sarudu, Kab. Pasangkayu",SULAWESI BARAT,91573.0,Indonesia,85217247256.0,,,-1.6883539,119.343478,https://maps.google.com/?cid=0x0:0xdf701ee855e87811,
toko bangunan,Toko Bahan Bangunan,Sinar Sejahtera,"CCW3+X6J, Kompleks KSU, Motu, Kec. Baras, Kab. Pasangkayu, Sulawesi Barat 91572","Kompleks KSU, Motu, Kec. Baras, Kab. Pasangkayu",SULAWESI BARAT,91572.0,Indonesia,,,,-1.5525327,119.4030159,https://maps.google.com/?cid=0x0:0x4c85fe05d3fc9a40,
toko bangunan,Toko Bahan Bangunan,Toko sinar Logam,"887R+5HH, Jl. Manggis, Bulu Mario, Kec. Sarudu, Kab. Pasangkayu, Sulawesi Barat 91573","Jl. Manggis, Bulu Mario, Kec. Sarudu, Kab. Pasangkayu",SULAWESI BARAT,91573.0,Indonesia,,,,-1.6870644,119.3414727,https://maps.google.com/?cid=0x0:0x8a8cd45da7eb025c,
toko bangunan,Toko Bahan Bangunan,TOKO FAJAR BANGUNAN MAPILLI,"Jl. Poros Majene - Mamuju, Baru, Kec. Luyo, Kabupaten Polewali Mandar, Sulawesi Barat 91352","Baru, Kec. Luyo, Kabupaten Polewali Mandar",SULAWESI BARAT,91352.0,Indonesia,82292595546.0,,,-3.4189333,119.164406,https://maps.google.com/?cid=0x0:0x89a76f2924e54666,
toko bangunan,Toko Bahan Bangunan,Toko Valva Bangunan,"R995+F8H, Pasangkayu, Kec. Pasangkayu, Kab. Pasangkayu, Sulawesi Barat 91574","Pasangkayu, Kec. Pasangkayu, Kab. Pasangkayu",SULAWESI BARAT,91574.0,Indonesia,85341505076.0,,,-1.1812798,119.3583997,https://maps.google.com/?cid=0x0:0xba09a047162b033,
toko bangunan,Toko Bahan Bangunan,Toko Bangunan SIKAPAYYA,"4HH4+6HM, Sarude, Kec. Sarjo, Kab. Pasangkayu, Sulawesi Barat 91574","Sarude, Kec. Sarjo, Kab. Pasangkayu",SULAWESI BARAT,91574.0,Indonesia,,,,-0.8719101,119.5564201,https://maps.google.com/?cid=0x0:0xd6b90f3982c99f9a,
toko bangunan,Toko Bahan Bangunan,Toko Delta Bangunan,"8V6H+X4H, Karema, Kec. Mamuju, Kabupaten Mamuju, Sulawesi Barat 91512","Karema, Kec. Mamuju, Kabupaten Mamuju",SULAWESI BARAT,91512.0,Indonesia,81524333299.0,,,-2.6875662,118.8778488,https://maps.google.com/?cid=0x0:0x600c10af92b1cb4f,
toko bangunan,Pemasok Bahan Bangunan,Toko bangunan sinar surya baras,"Dusun samonu/bambaloka, Baras, Kec. Baras, Kab. Pasangkayu, Sulawesi Barat 91572","Baras, Kec. Baras, Kab. Pasangkayu",SULAWESI BARAT,91572.0,Indonesia,82292516079.0,,,-1.5911398,119.3269777,https://maps.google.com/?cid=0x0:0x6cbe19908c2077d,
toko bangunan,Toko Bahan Bangunan,Toko Fikra Bangunan,"X8C5+52X, Salupangkang, Kec. Topoyo, Kabupaten Mamuju, Sulawesi Barat 91563","Salupangkang, Kec. Topoyo, Kabupaten Mamuju",SULAWESI BARAT,91563.0,Indonesia,85242916070.0,,,-2.029502,119.3076098,https://maps.google.com/?cid=0x0:0x46dffb048a9212b5,
toko bangunan,Toko Bahan Bangunan,Toko Besi Multi Teknik,"R9GF+WF4, Pasangkayu, Kec. Pasangkayu, Kab. Pasangkayu, Sulawesi Barat 91574","Pasangkayu, Kec. Pasangkayu, Kab. Pasangkayu",SULAWESI BARAT,91574.0,Indonesia,8114533785.0,,,-1.172749,119.3737029,https://maps.google.com/?cid=0x0:0x97fa8b2b82e27bdb,
toko bangunan,Perhimpunan Pengembang Perumahan,Toko Berkah Bangunan,"P8HH+5J9, Malei, Pedongga, Kab. Pasangkayu, Sulawesi Barat 91571","Malei, Pedongga, Kab. Pasangkayu",SULAWESI BARAT,91571.0,Indonesia,82193524222.0,,,-1.2720843,119.3290953,https://maps.google.com/?cid=0x0:0x4fe58465f2606352,
toko bangunan,Toko Bahan Bangunan,Toko Multi Bangunan,"Jl. Diponegoro No.c14-15, Karema, Kec. Mamuju, Kabupaten Mamuju, Sulawesi Barat 91512","Karema, Kec. Mamuju, Kabupaten Mamuju",SULAWESI BARAT,91512.0,Indonesia,81242298806.0,,,-2.6862595,118.8768742,https://maps.google.com/?cid=0x0:0xd05c6306c1a3648f,
toko bangunan,Toko Bahan Bangunan,UD MITRA JAYA,"Singgani, Kec. Lariang, Kab. Pasangkayu, Sulawesi Barat 91572","Kec. Lariang, Kab. Pasangkayu",SULAWESI BARAT,91572.0,Indonesia,,,,-1.4722425,119.336189,https://maps.google.com/?cid=0x0:0x22e4fdca26ba5229,
toko bangunan,Pembangunan Perumahan,Toko Bangunan Putra Tande 5 Tapalang,"Galung, Kec. Tapalang, Kabupaten Mamuju, Sulawesi Barat 91352","Kec. Tapalang, Kabupaten Mamuju",SULAWESI BARAT,91352.0,Indonesia,85397048983.0,,,-2.8651937,118.8702682,https://maps.google.com/?cid=0x0:0x5ece193e63138999,
toko bangunan,Toko Bahan Bangunan,Toko Sinar Bangunan,"R9FG+X5V, Jl. Abdul Muis, Pasangkayu, Kec. Pasangkayu, Kab. Pasangkayu, Sulawesi Barat 91574","Jl. Abdul Muis, Pasangkayu, Kec. Pasangkayu, Kab. Pasangkayu",SULAWESI BARAT,91574.0,Indonesia,,,,-1.1750085,119.375422,https://maps.google.com/?cid=0x0:0xc244aaf885dbe36e,
toko bangunan,Toko Bahan Bangunan,toko bintang bangunan,"R983+HJJ, Pasangkayu, Kec. Pasangkayu, Kab. Pasangkayu, Sulawesi Barat 91571","Pasangkayu, Kec. Pasangkayu, Kab. Pasangkayu",SULAWESI BARAT,91571.0,Indonesia,,,,-1.1835344,119.3540086,https://maps.google.com/?cid=0x0:0xb6a3491b20daf14c,
toko bangunan,Toko Bahan Bangunan,Toko wahyu bantayan,"886V+QFG, Jl. Elang, Bulu Mario, Kec. Sarudu, Kab. Pasangkayu, Sulawesi Barat 91573","Jl. Elang, Bulu Mario, Kec. Sarudu, Kab. Pasangkayu",SULAWESI BARAT,91573.0,Indonesia,,,,-1.6881185,119.3436634,https://maps.google.com/?cid=0x0:0x6f0e858fcdd4efb3,
toko bangunan,Toko Perlengkapan Rumah,Toko Fajar Mas,"78R3+4XG, Jl. Poros Majene - Mamuju, Sarudu, Kec. Sarudu, Kab. Pasangkayu, Sulawesi Barat 91573","Jl. Poros Majene - Mamuju, Sarudu, Kec. Sarudu, Kab. Pasangkayu",SULAWESI BARAT,91573.0,Indonesia,,,,-1.7096903,119.3049596,https://maps.google.com/?cid=0x0:0x9228cd946562eccc,
toko bangunan,Toko Bahan Bangunan,Toko Tanjum,"889R+86C, Bulu Mario, Kec. Sarudu, Kab. Pasangkayu, Sulawesi Barat 91573","Bulu Mario, Kec. Sarudu, Kab. Pasangkayu",SULAWESI BARAT,91573.0,Indonesia,,,,-1.681695,119.3405015,https://maps.google.com/?cid=0x0:0x876d1ff7b1c5057b,
toko bangunan,Toko Bahan Bangunan,Toko MITRA LOGAM,"Baras, Kec. Baras, Kab. Pasangkayu, Sulawesi Barat 91572","Kec. Baras, Kab. Pasangkayu",SULAWESI BARAT,91572.0,Indonesia,82188536189.0,,,-1.5889408,119.3280431,https://maps.google.com/?cid=0x0:0x76a83f233bab70ed,
toko bangunan,toko bangunan,Kec. Lariang,"Kab. Pasangkayu, Sulawesi Barat","Kab. Pasangkayu, Sulawesi Barat",SULAWESI BARAT,,Indonesia,,,,-1.4747552,119.3681607,https://maps.google.com/?cid=0x0:0x9800acb19cdd3433,
toko bangunan,Toko Bahan Bangunan,UD MITRA JAYA,"Singgani, Kec. Lariang, Kab. Pasangkayu, Sulawesi Barat 91572","Kec. Lariang, Kab. Pasangkayu",SULAWESI BARAT,91572.0,Indonesia,,,,-1.4722425,119.336189,https://maps.google.com/?cid=0x0:0x22e4fdca26ba5229,
toko bangunan,Toko Bahan Bangunan,Toko Bangunan Heder Abadi,"H984+XX5, Lariang, Kec. Tikke Raya, Kab. Pasangkayu, Sulawesi Barat","Kab. Pasangkayu, Sulawesi Barat",SULAWESI BARAT,,Indonesia,,,,-1.4326034,119.3574784,https://maps.google.com/?cid=0x0:0xd7ae5684ad89f37f,
toko bangunan,Toko Bahan Bangunan,Toko Bangunan Sumber Logam,"GC44+XVR, Unnamed Road, Karave, Bulu Taba, Pasangkayu, West Sulawesi 91572","Unnamed Road, Karave, Bulu Taba, Pasangkayu",SULAWESI BARAT,91572.0,Indonesia,81264671628.0,,,-1.4925023,119.4071365,https://maps.google.com/?cid=0x0:0xa59fc1df5babcbe,
toko bangunan,toko bangunan,TOKO CAHAYA DEMAK,"Jl Sultan Hasanuddin Dsn. Biai Desa Lilimori Kec. Bulutaba, Lilimori, Kec. Bulu Taba, Kab. Pasangkayu, Sulawesi Barat 91572","Lilimori, Kec. Bulu Taba, Kab. Pasangkayu",SULAWESI BARAT,91572.0,Indonesia,81341595236.0,,,-1.476158,119.4231359,https://maps.google.com/?cid=0x0:0xb040169c97921f67,
toko bangunan,Toko Bahan Bangunan,Toko Buana Situju Lame Ambo,"G8GP+FCM, Singgani, Kec. Lariang, Kab. Pasangkayu, Sulawesi Barat 91572","Singgani, Kec. Lariang, Kab. Pasangkayu",SULAWESI BARAT,91572.0,Indonesia,,,,-1.474595,119.336148,https://maps.google.com/?cid=0x0:0x5e09800d89339af0,
toko bangunan,Toko bahan makanan,Toko Karya Bintoro,"GCG9+J92, Lilimori, Kec. Bulu Taba, Kab. Pasangkayu, Sulawesi Barat 91572","Lilimori, Kec. Bulu Taba, Kab. Pasangkayu",SULAWESI BARAT,91572.0,Indonesia,,,,-1.4734774,119.4183764,https://maps.google.com/?cid=0x0:0x4b7ce1f22c88838e,
toko bangunan,Toko Bahan Bangunan,UD. TASWIN PUTRA TUNGGAL,"Jalan Trans Mamuju, desa Bambakoro, Kec. Lariang, Kab. Pasangkayu, Sulawesi Barat 91571","desa Bambakoro, Kec. Lariang, Kab. Pasangkayu",SULAWESI BARAT,91571.0,Indonesia,82347475042.0,,,-1.4485786,119.3492565,https://maps.google.com/?cid=0x0:0x6eb29f912b30367c,
toko bangunan,Perhimpunan Pengembang Perumahan,Toko Berkah Bangunan,"P8HH+5J9, Malei, Pedongga, Kab. Pasangkayu, Sulawesi Barat 91571","Malei, Pedongga, Kab. Pasangkayu",SULAWESI BARAT,91571.0,Indonesia,82193524222.0,,,-1.2720843,119.3290953,https://maps.google.com/?cid=0x0:0x4fe58465f2606352,
toko bangunan,Pusat Perbelanjaan,UD Fajar Baru,"G8CP+6CW, Singgani, Kec. Lariang, Kab. Pasangkayu, Sulawesi Barat 91572","Singgani, Kec. Lariang, Kab. Pasangkayu",SULAWESI BARAT,91572.0,Indonesia,,,,-1.4793987,119.336075,https://maps.google.com/?cid=0x0:0xe6faff46c2299f9f,
toko bangunan,Toko Bahan Bangunan,Toko Valva Bangunan,"R995+F8H, Pasangkayu, Kec. Pasangkayu, Kab. Pasangkayu, Sulawesi Barat 91574","Pasangkayu, Kec. Pasangkayu, Kab. Pasangkayu",SULAWESI BARAT,91574.0,Indonesia,85341505076.0,,,-1.1812798,119.3583997,https://maps.google.com/?cid=0x0:0xba09a047162b033,
toko bangunan,Kontraktor Umum,Matra Central Truss,"H9J6+76F, JL. Trans Sulawesi Pasangkayu, Lariang, Kec. Tikke Raya, Mamuju, Sulawesi Barat 91571","JL. Trans Sulawesi Pasangkayu, Lariang, Kec. Tikke Raya, Mamuju",SULAWESI BARAT,91571.0,Indonesia,81341232868.0,,,-1.4193227,119.3605328,https://maps.google.com/?cid=0x0:0x65dda0e785569554,
toko bangunan,Toko Bahan Bangunan,Toko Buana Situju,"Jl. Poros Majene - Mamuju, Kasano, Kec. Baras, Kab. Pasangkayu, Sulawesi Barat 91572","Kasano, Kec. Baras, Kab. Pasangkayu",SULAWESI BARAT,91572.0,Indonesia,82292372644.0,,,-1.533804,119.3453907,https://maps.google.com/?cid=0x0:0x878e2217645bc595,
toko bangunan,Pembangunan Perumahan,Toko Bangunan Putra Tande 5 Tapalang,"Galung, Kec. Tapalang, Kabupaten Mamuju, Sulawesi Barat 91352","Kec. Tapalang, Kabupaten Mamuju",SULAWESI BARAT,91352.0,Indonesia,85397048983.0,,,-2.8651937,118.8702682,https://maps.google.com/?cid=0x0:0x5ece193e63138999,
toko bangunan,Toko Bahan Bangunan,Toko putra demak,"GCFF+GJF, Lilimori, Kec. Bulu Taba, Kab. Pasangkayu, Sulawesi Barat 91572","Lilimori, Kec. Bulu Taba, Kab. Pasangkayu",SULAWESI BARAT,91572.0,Indonesia,,,,-1.4761942,119.4240424,https://maps.google.com/?cid=0x0:0x1de3fa595e81118c,
toko bangunan,Toko Bahan Bangunan,Toko Sinar Bangunan,"R9FG+X5V, Jl. Abdul Muis, Pasangkayu, Kec. Pasangkayu, Kab. Pasangkayu, Sulawesi Barat 91574","Jl. Abdul Muis, Pasangkayu, Kec. Pasangkayu, Kab. Pasangkayu",SULAWESI BARAT,91574.0,Indonesia,,,,-1.1750085,119.375422,https://maps.google.com/?cid=0x0:0xc244aaf885dbe36e,
toko bangunan,Toko Bahan Bangunan,TOKO FAJAR BANGUNAN MAPILLI,"Jl. Poros Majene - Mamuju, Baru, Kec. Luyo, Kabupaten Polewali Mandar, Sulawesi Barat 91352","Baru, Kec. Luyo, Kabupaten Polewali Mandar",SULAWESI BARAT,91352.0,Indonesia,82292595546.0,,,-3.4189333,119.164406,https://maps.google.com/?cid=0x0:0x89a76f2924e54666,
toko bangunan,Toko Bahan Bangunan,Toko Delta Bangunan,"8V6H+X4H, Karema, Kec. Mamuju, Kabupaten Mamuju, Sulawesi Barat 91512","Karema, Kec. Mamuju, Kabupaten Mamuju",SULAWESI BARAT,91512.0,Indonesia,81524333299.0,,,-2.6875662,118.8778488,https://maps.google.com/?cid=0x0:0x600c10af92b1cb4f,
toko bangunan,Toko Bahan Bangunan,Toko Multi Bangunan,"Jl. Diponegoro No.c14-15, Karema, Kec. Mamuju, Kabupaten Mamuju, Sulawesi Barat 91512","Karema, Kec. Mamuju, Kabupaten Mamuju",SULAWESI BARAT,91512.0,Indonesia,81242298806.0,,,-2.6862595,118.8768742,https://maps.google.com/?cid=0x0:0xd05c6306c1a3648f,
toko bangunan,Toko Bahan Bangunan,toko subur jaya,"HC7F+6Q9, Lelejae, Kec. Bulu Taba, Kab. Pasangkayu, Sulawesi Barat 91571","Lelejae, Kec. Bulu Taba, Kab. Pasangkayu",SULAWESI BARAT,91571.0,Indonesia,,,,-1.437047,119.4262593,https://maps.google.com/?cid=0x0:0x2866de45335d52f9,
toko bangunan,Toko Bahan Bangunan,Toko. Fajar Bangunan - Mamuju,"8V6G+7WH, Jl. Diponegoro, Karema, Kec. Mamuju, Kabupaten Mamuju, Sulawesi Barat 91512","Jl. Diponegoro, Karema, Kec. Mamuju, Kabupaten Mamuju",SULAWESI BARAT,91512.0,Indonesia,85930982364.0,,,-2.689321,118.8773494,https://maps.google.com/?cid=0x0:0x6d4e74a959cf61d6,
toko bangunan,Toko Bahan Bangunan,TOKO MARHANA 7,"Jl. Dr. Sam Ratulangi, Pasangkayu, Kec. Pasangkayu, Kab. Pasangkayu, Sulawesi Barat 91571","Pasangkayu, Kec. Pasangkayu, Kab. Pasangkayu",SULAWESI BARAT,91571.0,Indonesia,85231174115.0,,,-1.1751574,119.3694653,https://maps.google.com/?cid=0x0:0xb0b45a267f6def2a,
toko bangunan,toko bangunan,Sulawesi Barat 91571,"Kab. Pasangkayu, Sulawesi Barat","Kab. Pasangkayu, Sulawesi Barat",SULAWESI BARAT,,Indonesia,,,,-1.2916992,119.3714909,https://maps.google.com/?cid=0x0:0x12640eefba628a12,
toko bangunan,Toko Bahan Bangunan,toko bintang bangunan,"R983+HJJ, Pasangkayu, Kec. Pasangkayu, Kab. Pasangkayu, Sulawesi Barat 91571","Pasangkayu, Kec. Pasangkayu, Kab. Pasangkayu",SULAWESI BARAT,91571.0,Indonesia,,,,-1.1835344,119.3540086,https://maps.google.com/?cid=0x0:0xb6a3491b20daf14c,
toko bangunan,Toko Bahan Bangunan,Toko Valva Bangunan,"R995+F8H, Pasangkayu, Kec. Pasangkayu, Kab. Pasangkayu, Sulawesi Barat 91574","Pasangkayu, Kec. Pasangkayu, Kab. Pasangkayu",SULAWESI BARAT,91574.0,Indonesia,85341505076.0,,,-1.1812798,119.3583997,https://maps.google.com/?cid=0x0:0xba09a047162b033,
toko bangunan,Toko Bahan Bangunan,Toko BALQIS,"R9F7+W39, Pasangkayu, Kec. Pasangkayu, Kab. Pasangkayu, Sulawesi Barat 91574","Pasangkayu, Kec. Pasangkayu, Kab. Pasangkayu",SULAWESI BARAT,91574.0,Indonesia,,,,-1.1752014,119.3627388,https://maps.google.com/?cid=0x0:0x9a7710d580f1fbd,
toko bangunan,Toko Bahan Bangunan,UD.REZKY BANGUNAN,"M96F+359, Tikke, Kec. Tikke Raya, Kab. Pasangkayu, Sulawesi Barat 91571","Tikke, Kec. Tikke Raya, Kab. Pasangkayu",SULAWESI BARAT,91571.0,Indonesia,82192247233.0,,,-1.3398472,119.372978,https://maps.google.com/?cid=0x0:0xb8fa80d19c1226c6,
toko bangunan,Toko Bahan Bangunan,Toko Sinar Bangunan,"R9FG+X5V, Jl. Abdul Muis, Pasangkayu, Kec. Pasangkayu, Kab. Pasangkayu, Sulawesi Barat 91574","Jl. Abdul Muis, Pasangkayu, Kec. Pasangkayu, Kab. Pasangkayu",SULAWESI BARAT,91574.0,Indonesia,,,,-1.1750085,119.375422,https://maps.google.com/?cid=0x0:0xc244aaf885dbe36e,
toko bangunan,Toko Bahan Bangunan,UD MITRA JAYA,"Singgani, Kec. Lariang, Kab. Pasangkayu, Sulawesi Barat 91572","Kec. Lariang, Kab. Pasangkayu",SULAWESI BARAT,91572.0,Indonesia,,,,-1.4722425,119.336189,https://maps.google.com/?cid=0x0:0x22e4fdca26ba5229,
toko bangunan,Perhimpunan Pengembang Perumahan,Toko Berkah Bangunan,"P8HH+5J9, Malei, Pedongga, Kab. Pasangkayu, Sulawesi Barat 91571","Malei, Pedongga, Kab. Pasangkayu",SULAWESI BARAT,91571.0,Indonesia,82193524222.0,,,-1.2720843,119.3290953,https://maps.google.com/?cid=0x0:0x4fe58465f2606352,
toko bangunan,Toko Bahan Bangunan,Fajar Baru,"R9GM+9PF, Ako, Kec. Pasangkayu, Kab. Pasangkayu, Sulawesi Barat","Kab. Pasangkayu, Sulawesi Barat",SULAWESI BARAT,,Indonesia,87750580896.0,,,-1.1740596,119.3842912,https://maps.google.com/?cid=0x0:0x68922c0df03e9e87,
toko bangunan,Toko Bahan Bangunan,Toko Bangunan Sumber Logam,"GC44+XVR, Unnamed Road, Karave, Bulu Taba, Pasangkayu, West Sulawesi 91572","Unnamed Road, Karave, Bulu Taba, Pasangkayu",SULAWESI BARAT,91572.0,Indonesia,81264671628.0,,,-1.4925023,119.4071365,https://maps.google.com/?cid=0x0:0xa59fc1df5babcbe,
toko bangunan,Toko Bahan Bangunan,Toko Besi Multi Teknik,"R9GF+WF4, Pasangkayu, Kec. Pasangkayu, Kab. Pasangkayu, Sulawesi Barat 91574","Pasangkayu, Kec. Pasangkayu, Kab. Pasangkayu",SULAWESI BARAT,91574.0,Indonesia,8114533785.0,,,-1.172749,119.3737029,https://maps.google.com/?cid=0x0:0x97fa8b2b82e27bdb,
toko bangunan,Toko,Toko Irfan Jaya,"Dusun Mekar, Tikke, Kec. Tikke Raya, Kab. Pasangkayu, Sulawesi Barat 91571","Tikke, Kec. Tikke Raya, Kab. Pasangkayu",SULAWESI BARAT,91571.0,Indonesia,85398000151.0,,,-1.3371374,119.3749605,https://maps.google.com/?cid=0x0:0x603cc9f5da5ed73c,
toko bangunan,Toko Bahan Bangunan,Toko Bangunan Heder Abadi,"H984+XX5, Lariang, Kec. Tikke Raya, Kab. Pasangkayu, Sulawesi Barat","Kab. Pasangkayu, Sulawesi Barat",SULAWESI BARAT,,Indonesia,,,,-1.4326034,119.3574784,https://maps.google.com/?cid=0x0:0xd7ae5684ad89f37f,
toko bangunan,toko bangunan,JAYA PLAFON 01,"R9F9+RQ8, Jl. Dr. Sam Ratulangi, Pasangkayu, Kec. Pasangkayu, Kab. Pasangkayu, Sulawesi Barat 91574","Jl. Dr. Sam Ratulangi, Pasangkayu, Kec. Pasangkayu, Kab. Pasangkayu",SULAWESI BARAT,91574.0,Indonesia,,,,-1.1752694,119.3696123,https://maps.google.com/?cid=0x0:0x9e1ddb9c3fd4f231,
toko bangunan,Toko,Toko sulawesi,"Jln trans, Martajaya, Kec. Pasangkayu, Kab. Pasangkayu, Sulawesi Barat 91571","Martajaya, Kec. Pasangkayu, Kab. Pasangkayu",SULAWESI BARAT,91571.0,Indonesia,81258032292.0,,,-1.181735,119.4325598,https://maps.google.com/?cid=0x0:0x7cf8b5ab6c0c7ea,
toko bangunan,Toko Bahan Bangunan,Sinar Sejahtera,"CCW3+X6J, Kompleks KSU, Motu, Kec. Baras, Kab. Pasangkayu, Sulawesi Barat 91572","Kompleks KSU, Motu, Kec. Baras, Kab. Pasangkayu",SULAWESI BARAT,91572.0,Indonesia,,,,-1.5525327,119.4030159,https://maps.google.com/?cid=0x0:0x4c85fe05d3fc9a40,
toko bangunan,Toko Bahan Bangunan,Toko Buana Situju,"Jl. Poros Majene - Mamuju, Kasano, Kec. Baras, Kab. Pasangkayu, Sulawesi Barat 91572","Kasano, Kec. Baras, Kab. Pasangkayu",SULAWESI BARAT,91572.0,Indonesia,82292372644.0,,,-1.533804,119.3453907,https://maps.google.com/?cid=0x0:0x878e2217645bc595,
toko bangunan,Toko Bahan Bangunan,Toko bapak roki,"Q87C+72C, Jl. Ir. Soekarno, Karya Bersama, Kec. Pasangkayu, Kab. Pasangkayu, Sulawesi Barat 91571","Jl. Ir. Soekarno, Karya Bersama, Kec. Pasangkayu, Kab. Pasangkayu",SULAWESI BARAT,91571.0,Indonesia,,,,-1.236823,119.3200094,https://maps.google.com/?cid=0x0:0xd9bcaa7992a38e59,
toko bangunan,Toko Bahan Bangunan,Toko Bangunan SIKAPAYYA,"4HH4+6HM, Sarude, Kec. Sarjo, Kab. Pasangkayu, Sulawesi Barat 91574","Sarude, Kec. Sarjo, Kab. Pasangkayu",SULAWESI BARAT,91574.0,Indonesia,,,,-0.8719101,119.5564201,https://maps.google.com/?cid=0x0:0xd6b90f3982c99f9a,
toko bangunan,Kontraktor Umum,Matra Central Truss,"H9J6+76F, JL. Trans Sulawesi Pasangkayu, Lariang, Kec. Tikke Raya, Mamuju, Sulawesi Barat 91571","JL. Trans Sulawesi Pasangkayu, Lariang, Kec. Tikke Raya, Mamuju",SULAWESI BARAT,91571.0,Indonesia,81341232868.0,,,-1.4193227,119.3605328,https://maps.google.com/?cid=0x0:0x65dda0e785569554,
toko bangunan,Toko bahan makanan,Dg rurung,"P8RF+5Q5, Jl. Poros Palu - Mamuju, Batu Oge, Pedongga, Kab. Pasangkayu, Sulawesi Barat 91571","Jl. Poros Palu - Mamuju, Batu Oge, Pedongga, Kab. Pasangkayu",SULAWESI BARAT,91571.0,Indonesia,81245323466.0,,,-1.2596133,119.3244917,https://maps.google.com/?cid=0x0:0xf228e050a1f14f48,
toko bangunan,Toko Bahan Bangunan,toko subur jaya,"HC7F+6Q9, Lelejae, Kec. Bulu Taba, Kab. Pasangkayu, Sulawesi Barat 91571","Lelejae, Kec. Bulu Taba, Kab. Pasangkayu",SULAWESI BARAT,91571.0,Indonesia,,,,-1.437047,119.4262593,https://maps.google.com/?cid=0x0:0x2866de45335d52f9,
toko bangunan,Toko Bahan Bangunan,tokoh Rhizka,"Pajalele, Kec. Tikke Raya, Kab. Pasangkayu, Sulawesi Barat 91571","Kec. Tikke Raya, Kab. Pasangkayu",SULAWESI BARAT,91571.0,Indonesia,85930109146.0,,,-1.312261,119.412128,https://maps.google.com/?cid=0x0:0x810cfa8a41245811,
toko bangunan,Toko Bahan Bangunan,UD. TASWIN PUTRA TUNGGAL,"Jalan Trans Mamuju, desa Bambakoro, Kec. Lariang, Kab. Pasangkayu, Sulawesi Barat 91571","desa Bambakoro, Kec. Lariang, Kab. Pasangkayu",SULAWESI BARAT,91571.0,Indonesia,82347475042.0,,,-1.4485786,119.3492565,https://maps.google.com/?cid=0x0:0x6eb29f912b30367c,
toko bangunan,toko bangunan,Pedongga,"Kab. Pasangkayu, Sulawesi Barat","Kab. Pasangkayu, Sulawesi Barat",SULAWESI BARAT,,Indonesia,,,,-1.2745455,119.3947138,https://maps.google.com/?cid=0x0:0x9cbcb3a80b2b146e,
toko bangunan,Perhimpunan Pengembang Perumahan,Toko Berkah Bangunan,"P8HH+5J9, Malei, Pedongga, Kab. Pasangkayu, Sulawesi Barat 91571","Malei, Pedongga, Kab. Pasangkayu",SULAWESI BARAT,91571.0,Indonesia,82193524222.0,,,-1.2720843,119.3290953,https://maps.google.com/?cid=0x0:0x4fe58465f2606352,
toko bangunan,Toko bahan makanan,Dg rurung,"P8RF+5Q5, Jl. Poros Palu - Mamuju, Batu Oge, Pedongga, Kab. Pasangkayu, Sulawesi Barat 91571","Jl. Poros Palu - Mamuju, Batu Oge, Pedongga, Kab. Pasangkayu",SULAWESI BARAT,91571.0,Indonesia,81245323466.0,,,-1.2596133,119.3244917,https://maps.google.com/?cid=0x0:0xf228e050a1f14f48,
toko bangunan,Toko Bahan Bangunan,tokoh Rhizka,"Pajalele, Kec. Tikke Raya, Kab. Pasangkayu, Sulawesi Barat 91571","Kec. Tikke Raya, Kab. Pasangkayu",SULAWESI BARAT,91571.0,Indonesia,85930109146.0,,,-1.312261,119.412128,https://maps.google.com/?cid=0x0:0x810cfa8a41245811,
toko bangunan,Toko Bahan Bangunan,Toko bapak roki,"Q87C+72C, Jl. Ir. Soekarno, Karya Bersama, Kec. Pasangkayu, Kab. Pasangkayu, Sulawesi Barat 91571","Jl. Ir. Soekarno, Karya Bersama, Kec. Pasangkayu, Kab. Pasangkayu",SULAWESI BARAT,91571.0,Indonesia,,,,-1.236823,119.3200094,https://maps.google.com/?cid=0x0:0xd9bcaa7992a38e59,
toko bangunan,toko bangunan,Toko AMIN BANGUNAN,"Malei, Pedongga, Kab. Pasangkayu, Sulawesi Barat","Kab. Pasangkayu, Sulawesi Barat",SULAWESI BARAT,,Indonesia,,,,-1.265588,119.3237473,https://maps.google.com/?cid=0x0:0x38d4284fe0d252a0,
toko bangunan,toko bangunan,Sulawesi Barat 91574,"Kab. Pasangkayu, Sulawesi Barat","Kab. Pasangkayu, Sulawesi Barat",SULAWESI BARAT,,Indonesia,,,,-1.1559774,119.464359,https://maps.google.com/?cid=0x0:0x87450841cbc25162,
toko bangunan,Toko Bahan Bangunan,Toko Bangunan SIKAPAYYA,"4HH4+6HM, Sarude, Kec. Sarjo, Kab. Pasangkayu, Sulawesi Barat 91574","Sarude, Kec. Sarjo, Kab. Pasangkayu",SULAWESI BARAT,91574.0,Indonesia,,,,-0.8719101,119.5564201,https://maps.google.com/?cid=0x0:0xd6b90f3982c99f9a,
toko bangunan,Toko Bahan Bangunan,UD. NANDA SARJO,"4GCX+7FG, Sarjo, Kec. Sarjo, Kab. Pasangkayu, Sulawesi Barat 91574","Sarjo, Kec. Sarjo, Kab. Pasangkayu",SULAWESI BARAT,91574.0,Indonesia,,,,-0.8793227,119.5486887,https://maps.google.com/?cid=0x0:0x65b298fefc997bc5,
toko bangunan,Toko Bahan Bangunan,TOKO BERKAH,"4G7X+XF3, Letawa, Kec. Sarjo, Kab. Pasangkayu, Sulawesi Barat 91574","Letawa, Kec. Sarjo, Kab. Pasangkayu",SULAWESI BARAT,91574.0,Indonesia,85241247056.0,,,-0.8851177,119.5486643,https://maps.google.com/?cid=0x0:0x9130ee98074b1a26,
toko bangunan,Toko Bahan Bangunan,Toko Valva Bangunan,"R995+F8H, Pasangkayu, Kec. Pasangkayu, Kab. Pasangkayu, Sulawesi Barat 91574","Pasangkayu, Kec. Pasangkayu, Kab. Pasangkayu",SULAWESI BARAT,91574.0,Indonesia,85341505076.0,,,-1.1812798,119.3583997,https://maps.google.com/?cid=0x0:0xba09a047162b033,
toko bangunan,Toko Kayu,Toko bangunan Jufri,"887R+WQC, Jl. Belimbing, Bulu Mario, Kec. Sarudu, Kab. Pasangkayu, Sulawesi Barat 91573","Jl. Belimbing, Bulu Mario, Kec. Sarudu, Kab. Pasangkayu",SULAWESI BARAT,91573.0,Indonesia,,,,-1.6851793,119.34188,https://maps.google.com/?cid=0x0:0xdd534323d0686e66,
toko bangunan,Toko Bahan Bangunan,Toko sinar Logam,"887R+5HH, Jl. Manggis, Bulu Mario, Kec. Sarudu, Kab. Pasangkayu, Sulawesi Barat 91573","Jl. Manggis, Bulu Mario, Kec. Sarudu, Kab. Pasangkayu",SULAWESI BARAT,91573.0,Indonesia,,,,-1.6870644,119.3414727,https://maps.google.com/?cid=0x0:0x8a8cd45da7eb025c,
toko bangunan,Toko Perlengkapan Rumah,TOKO DAMAI JAYA SEMPO,"Sempo Selatan, Sarudu, Kec. Sarudu, Kab. Pasangkayu, Sulawesi Barat 91573","Sarudu, Kec. Sarudu, Kab. Pasangkayu",SULAWESI BARAT,91573.0,Indonesia,85394743029.0,,,-1.7014154,119.2984071,https://maps.google.com/?cid=0x0:0xab42261d3ac4fb28,
toko bangunan,Toko Perlengkapan Rumah,Toko Fajar Mas,"78R3+4XG, Jl. Poros Majene - Mamuju, Sarudu, Kec. Sarudu, Kab. Pasangkayu, Sulawesi Barat 91573","Jl. Poros Majene - Mamuju, Sarudu, Kec. Sarudu, Kab. Pasangkayu",SULAWESI BARAT,91573.0,Indonesia,,,,-1.7096903,119.3049596,https://maps.google.com/?cid=0x0:0x9228cd946562eccc,
toko bangunan,toko bangunan,toko bangunan,"888R+W8J, Bulu Mario, Kec. Sarudu, Kab. Pasangkayu, Sulawesi Barat 91573","Bulu Mario, Kec. Sarudu, Kab. Pasangkayu",SULAWESI BARAT,91573.0,Indonesia,,,,-1.682654,119.3407752,https://maps.google.com/?cid=0x0:0x210c90dba7bdf391,
toko bangunan,Toko Bahan Bangunan,Toko Tanjum,"889R+86C, Bulu Mario, Kec. Sarudu, Kab. Pasangkayu, Sulawesi Barat 91573","Bulu Mario, Kec. Sarudu, Kab. Pasangkayu",SULAWESI BARAT,91573.0,Indonesia,,,,-1.681695,119.3405015,https://maps.google.com/?cid=0x0:0x876d1ff7b1c5057b,
toko bangunan,Toko Bahan Bangunan,Supermarket Tija Prima,"88J7+7WP, Sarudu, Kec. Sarudu, Kab. Pasangkayu, Sulawesi Barat 91573","Sarudu, Kec. Sarudu, Kab. Pasangkayu",SULAWESI BARAT,91573.0,Indonesia,81840337005.0,,,-1.6692857,119.3148236,https://maps.google.com/?cid=0x0:0x4f00a87c0068de5,
toko bangunan,Toko Bahan Bangunan,Toko Kayu,"Bulu Mario, Kec. Sarudu, Kab. Pasangkayu, Sulawesi Barat 91573","Kec. Sarudu, Kab. Pasangkayu",SULAWESI BARAT,91573.0,Indonesia,85217247256.0,,,-1.6883539,119.343478,https://maps.google.com/?cid=0x0:0xdf701ee855e87811,
toko bangunan,Toko Bahan Bangunan,Toko Bangunan SIKAPAYYA,"4HH4+6HM, Sarude, Kec. Sarjo, Kab. Pasangkayu, Sulawesi Barat 91574","Sarude, Kec. Sarjo, Kab. Pasangkayu",SULAWESI BARAT,91574.0,Indonesia,,,,-0.8719101,119.5564201,https://maps.google.com/?cid=0x0:0xd6b90f3982c99f9a,
toko bangunan,Toko Bahan Bangunan,Toko wahyu bantayan,"886V+QFG, Jl. Elang, Bulu Mario, Kec. Sarudu, Kab. Pasangkayu, Sulawesi Barat 91573","Jl. Elang, Bulu Mario, Kec. Sarudu, Kab. Pasangkayu",SULAWESI BARAT,91573.0,Indonesia,,,,-1.6881185,119.3436634,https://maps.google.com/?cid=0x0:0x6f0e858fcdd4efb3,
toko bangunan,toko bangunan,Sarudu,"Kec. Sarudu, Kab. Pasangkayu, Sulawesi Barat","Kab. Pasangkayu, Sulawesi Barat",SULAWESI BARAT,,Indonesia,,,,-1.6954473,119.3076098,https://maps.google.com/?cid=0x0:0x4d23a34e4d81dc54,
toko bangunan,Pasar,Pasar Sempo,"Sarudu, Kec. Sarudu, Kab. Pasangkayu, Sulawesi Barat 91573","Kec. Sarudu, Kab. Pasangkayu",SULAWESI BARAT,91573.0,Indonesia,,,,-1.7105001,119.3057894,https://maps.google.com/?cid=0x0:0x1eae297836dc902f,
toko bangunan,toko bangunan,Sulawesi Barat 91571,"Kab. Pasangkayu, Sulawesi Barat","Kab. Pasangkayu, Sulawesi Barat",SULAWESI BARAT,,Indonesia,,,,-1.2916992,119.3714909,https://maps.google.com/?cid=0x0:0x12640eefba628a12,
toko bangunan,Toko Bahan Bangunan,UD.REZKY BANGUNAN,"M96F+359, Tikke, Kec. Tikke Raya, Kab. Pasangkayu, Sulawesi Barat 91571","Tikke, Kec. Tikke Raya, Kab. Pasangkayu",SULAWESI BARAT,91571.0,Indonesia,82192247233.0,,,-1.3398472,119.372978,https://maps.google.com/?cid=0x0:0xb8fa80d19c1226c6,
toko bangunan,Toko,Toko Irfan Jaya,"Dusun Mekar, Tikke, Kec. Tikke Raya, Kab. Pasangkayu, Sulawesi Barat 91571","Tikke, Kec. Tikke Raya, Kab. Pasangkayu",SULAWESI BARAT,91571.0,Indonesia,85398000151.0,,,-1.3371374,119.3749605,https://maps.google.com/?cid=0x0:0x603cc9f5da5ed73c,
toko bangunan,Perhimpunan Pengembang Perumahan,Toko Berkah Bangunan,"P8HH+5J9, Malei, Pedongga, Kab. Pasangkayu, Sulawesi Barat 91571","Malei, Pedongga, Kab. Pasangkayu",SULAWESI BARAT,91571.0,Indonesia,82193524222.0,,,-1.2720843,119.3290953,https://maps.google.com/?cid=0x0:0x4fe58465f2606352,
toko bangunan,Toko Bahan Bangunan,Toko Bangunan Heder Abadi,"H984+XX5, Lariang, Kec. Tikke Raya, Kab. Pasangkayu, Sulawesi Barat","Kab. Pasangkayu, Sulawesi Barat",SULAWESI BARAT,,Indonesia,,,,-1.4326034,119.3574784,https://maps.google.com/?cid=0x0:0xd7ae5684ad89f37f,
toko bangunan,Toko Bahan Bangunan,TOKO MARHANA 7,"Jl. Dr. Sam Ratulangi, Pasangkayu, Kec. Pasangkayu, Kab. Pasangkayu, Sulawesi Barat 91571","Pasangkayu, Kec. Pasangkayu, Kab. Pasangkayu",SULAWESI BARAT,91571.0,Indonesia,85231174115.0,,,-1.1751574,119.3694653,https://maps.google.com/?cid=0x0:0xb0b45a267f6def2a,
toko bangunan,Toko Bahan Bangunan,toko bintang bangunan,"R983+HJJ, Pasangkayu, Kec. Pasangkayu, Kab. Pasangkayu, Sulawesi Barat 91571","Pasangkayu, Kec. Pasangkayu, Kab. Pasangkayu",SULAWESI BARAT,91571.0,Indonesia,,,,-1.1835344,119.3540086,https://maps.google.com/?cid=0x0:0xb6a3491b20daf14c,
toko bangunan,Toko Bahan Bangunan,Toko Valva Bangunan,"R995+F8H, Pasangkayu, Kec. Pasangkayu, Kab. Pasangkayu, Sulawesi Barat 91574","Pasangkayu, Kec. Pasangkayu, Kab. Pasangkayu",SULAWESI BARAT,91574.0,Indonesia,85341505076.0,,,-1.1812798,119.3583997,https://maps.google.com/?cid=0x0:0xba09a047162b033,
toko bangunan,Toko Bahan Bangunan,tokoh Rhizka,"Pajalele, Kec. Tikke Raya, Kab. Pasangkayu, Sulawesi Barat 91571","Kec. Tikke Raya, Kab. Pasangkayu",SULAWESI BARAT,91571.0,Indonesia,85930109146.0,,,-1.312261,119.412128,https://maps.google.com/?cid=0x0:0x810cfa8a41245811,
toko bangunan,Kontraktor Umum,Matra Central Truss,"H9J6+76F, JL. Trans Sulawesi Pasangkayu, Lariang, Kec. Tikke Raya, Mamuju, Sulawesi Barat 91571","JL. Trans Sulawesi Pasangkayu, Lariang, Kec. Tikke Raya, Mamuju",SULAWESI BARAT,91571.0,Indonesia,81341232868.0,,,-1.4193227,119.3605328,https://maps.google.com/?cid=0x0:0x65dda0e785569554,
toko bangunan,Pasar,Pasar Tikke Raya,"M97G+RF3, Tikke, Kec. Tikke Raya, Kab. Pasangkayu, Sulawesi Barat 91571","Tikke, Kec. Tikke Raya, Kab. Pasangkayu",SULAWESI BARAT,91571.0,Indonesia,,,,-1.3354834,119.3761706,https://maps.google.com/?cid=0x0:0x92219c20e9174fa7,
toko bangunan,Toko Bahan Bangunan,Toko Sinar Bangunan,"R9FG+X5V, Jl. Abdul Muis, Pasangkayu, Kec. Pasangkayu, Kab. Pasangkayu, Sulawesi Barat 91574","Jl. Abdul Muis, Pasangkayu, Kec. Pasangkayu, Kab. Pasangkayu",SULAWESI BARAT,91574.0,Indonesia,,,,-1.1750085,119.375422,https://maps.google.com/?cid=0x0:0xc244aaf885dbe36e,
toko bangunan,Toko Bahan Bangunan,Toko Besi Multi Teknik,"R9GF+WF4, Pasangkayu, Kec. Pasangkayu, Kab. Pasangkayu, Sulawesi Barat 91574","Pasangkayu, Kec. Pasangkayu, Kab. Pasangkayu",SULAWESI BARAT,91574.0,Indonesia,8114533785.0,,,-1.172749,119.3737029,https://maps.google.com/?cid=0x0:0x97fa8b2b82e27bdb,
toko bangunan,Toko bahan makanan,Dg rurung,"P8RF+5Q5, Jl. Poros Palu - Mamuju, Batu Oge, Pedongga, Kab. Pasangkayu, Sulawesi Barat 91571","Jl. Poros Palu - Mamuju, Batu Oge, Pedongga, Kab. Pasangkayu",SULAWESI BARAT,91571.0,Indonesia,81245323466.0,,,-1.2596133,119.3244917,https://maps.google.com/?cid=0x0:0xf228e050a1f14f48,
toko bangunan,toko bangunan,Toko Rhizka Bangunan,"Pajalele, Kec. Tikke Raya, Kab. Pasangkayu, Sulawesi Barat","Kab. Pasangkayu, Sulawesi Barat",SULAWESI BARAT,,Indonesia,,,,-1.3265232,119.3795189,https://maps.google.com/?cid=0x0:0x57a77d27b2af0cd1,
toko bangunan,Toko Bahan Bangunan,Toko bapak roki,"Q87C+72C, Jl. Ir. Soekarno, Karya Bersama, Kec. Pasangkayu, Kab. Pasangkayu, Sulawesi Barat 91571","Jl. Ir. Soekarno, Karya Bersama, Kec. Pasangkayu, Kab. Pasangkayu",SULAWESI BARAT,91571.0,Indonesia,,,,-1.236823,119.3200094,https://maps.google.com/?cid=0x0:0xd9bcaa7992a38e59,
toko bangunan,Toko Bahan Bangunan,TB CAHAYA BANGUNAN,"Tobadak, Kec. Tobadak, Kabupaten Mamuju, Sulawesi Barat 91563","Kec. Tobadak, Kabupaten Mamuju",SULAWESI BARAT,91563.0,Indonesia,82299999951.0,,,-2.0751897,119.2902612,https://maps.google.com/?cid=0x0:0xab184661abda07b4,
toko bangunan,Toko Bahan Bangunan,UD MITRA JAYA,"Singgani, Kec. Lariang, Kab. Pasangkayu, Sulawesi Barat 91572","Kec. Lariang, Kab. Pasangkayu",SULAWESI BARAT,91572.0,Indonesia,,,,-1.4722425,119.336189,https://maps.google.com/?cid=0x0:0x22e4fdca26ba5229,
toko bangunan,toko bangunan,TOKO CAHAYA DEMAK,"Jl Sultan Hasanuddin Dsn. Biai Desa Lilimori Kec. Bulutaba, Lilimori, Kec. Bulu Taba, Kab. Pasangkayu, Sulawesi Barat 91572","Lilimori, Kec. Bulu Taba, Kab. Pasangkayu",SULAWESI BARAT,91572.0,Indonesia,81341595236.0,,,-1.476158,119.4231359,https://maps.google.com/?cid=0x0:0xb040169c97921f67,
toko bangunan,Toko Bahan Bangunan,Fajar Baru,"R9GM+9PF, Ako, Kec. Pasangkayu, Kab. Pasangkayu, Sulawesi Barat","Kab. Pasangkayu, Sulawesi Barat",SULAWESI BARAT,,Indonesia,87750580896.0,,,-1.1740596,119.3842912,https://maps.google.com/?cid=0x0:0x68922c0df03e9e87,
toko bangunan,toko bangunan,Tk Berkah jaya,"QH42+83W, Mbulawa, Kec. Rio Pakava, Kabupaten Donggala, Sulawesi Tengah 91571","Mbulawa, Kec. Rio Pakava, Kabupaten Donggala",SULAWESI BARAT,91571.0,Indonesia,,,,-1.2441478,119.5502132,https://maps.google.com/?cid=0x0:0x71c75216ccaefc7b,
toko bangunan,toko bangunan,Toko Bahan Bangunan Sinar Fajar,"Tikke, Kec. Tikke Raya, Kab. Pasangkayu, Sulawesi Barat","Kab. Pasangkayu, Sulawesi Barat",SULAWESI BARAT,,Indonesia,,,,-1.3351027,119.3774021,https://maps.google.com/?cid=0x0:0x10e359ea8ac64a5b,
toko bangunan,toko bangunan,JAYA PLAFON 01,"R9F9+RQ8, Jl. Dr. Sam Ratulangi, Pasangkayu, Kec. Pasangkayu, Kab. Pasangkayu, Sulawesi Barat 91574","Jl. Dr. Sam Ratulangi, Pasangkayu, Kec. Pasangkayu, Kab. Pasangkayu",SULAWESI BARAT,91574.0,Indonesia,,,,-1.1752694,119.3696123,https://maps.google.com/?cid=0x0:0x9e1ddb9c3fd4f231,
hardware store,hardware store,Bambaira,"Kec. Bambaira, Kab. Pasangkayu, Sulawesi Barat","Kab. Pasangkayu, Sulawesi Barat",SULAWESI BARAT,,Indonesia,,,,-0.9754628,119.5165713,https://maps.google.com/?cid=0x0:0x45c08ade50e72330,
hardware store,hardware store,Kec. Bambaira,"Kab. Pasangkayu, Sulawesi Barat","Kab. Pasangkayu, Sulawesi Barat",SULAWESI BARAT,,Indonesia,,,,-0.958853,119.5166622,https://maps.google.com/?cid=0x0:0xeedc4f3ae03e32b1,
hardware store,hardware store,Sulawesi Barat 91574,"Kab. Pasangkayu, Sulawesi Barat","Kab. Pasangkayu, Sulawesi Barat",SULAWESI BARAT,,Indonesia,,,,-1.1559774,119.464359,https://maps.google.com/?cid=0x0:0x87450841cbc25162,
hardware store,Sekolah Dasar,SDN Bambaira,"2G82+C94, Bambaira, Kec. Bambaira, Kab. Pasangkayu, Sulawesi Barat 91574","Bambaira, Kec. Bambaira, Kab. Pasangkayu",SULAWESI BARAT,91574.0,Indonesia,,,,-0.9839931,119.500953,https://maps.google.com/?cid=0x0:0x9a9cc218eea7ff2b,
hardware store,hardware store,Bambalamotu,"Kec. Bambalamotu, Kab. Pasangkayu, Sulawesi Barat","Kab. Pasangkayu, Sulawesi Barat",SULAWESI BARAT,,Indonesia,,,,-1.0952071,119.4614578,https://maps.google.com/?cid=0x0:0x2e0275783eb46598,
hardware store,Toko Pakaian,Toko NEAR HOME,"Bambalamotu, Kec. Bambalamotu, Kab. Pasangkayu, Sulawesi Barat 91574","Kec. Bambalamotu, Kab. Pasangkayu",SULAWESI BARAT,91574.0,Indonesia,,,,-1.0852983,119.4556077,https://maps.google.com/?cid=0x0:0xfb09984113fe1886,
hardware store,Pembangunan Perumahan,Baliri,"WFF7+75, Bambalamotu, Kec. Bambalamotu, Kab. Pasangkayu, Sulawesi Barat","Kab. Pasangkayu, Sulawesi Barat",SULAWESI BARAT,,Indonesia,,,,-1.0768117,119.4629117,https://maps.google.com/?cid=0x0:0x56680b4fbaa2ff1c,
hardware store,Toko Bahan Bangunan,Toko Valva Bangunan,"R995+F8H, Pasangkayu, Kec. Pasangkayu, Kab. Pasangkayu, Sulawesi Barat 91574","Pasangkayu, Kec. Pasangkayu, Kab. Pasangkayu",SULAWESI BARAT,91574.0,Indonesia,85341505076.0,,,-1.1812798,119.3583997,https://maps.google.com/?cid=0x0:0xba09a047162b033,
hardware store,Toko Bahan Bangunan,Toko bangunan Anisa putri,"XF2G+5Q9, Randomayang, Kec. Bambalamotu, Kab. Pasangkayu, Sulawesi Barat 91574","Randomayang, Kec. Bambalamotu, Kab. Pasangkayu",SULAWESI BARAT,91574.0,Indonesia,,,,-1.0494404,119.4772917,https://maps.google.com/?cid=0x0:0xcdab2f2c6a7c18f2,
hardware store,Toko Elektronik,EGHI CELLULAR,"VCMF+Q22, dusun sampadoda, Pangiang, Kec. Bambalamotu, Kab. Pasangkayu, Sulawesi Barat 91574","dusun sampadoda, Pangiang, Kec. Bambalamotu, Kab. Pasangkayu",SULAWESI BARAT,91574.0,Indonesia,82191841563.0,,,-1.1156209,119.4225252,https://maps.google.com/?cid=0x0:0x34ee5bcf9b1e188e,
hardware store,Toko Elektronik,JIBRIL CELLULAR,"Polewali, Kec. Bambalamotu, Kab. Pasangkayu, Sulawesi Barat 91574","Kec. Bambalamotu, Kab. Pasangkayu",SULAWESI BARAT,91574.0,Indonesia,4577021374.0,,,-1.1391683,119.4421068,https://maps.google.com/?cid=0x0:0xad0292869d57b9d9,
hardware store,Gereja,Tosonde,"VFW9+9H, Kalola, Kec. Bambalamotu, Kab. Pasangkayu, Sulawesi Barat","Kab. Pasangkayu, Sulawesi Barat",SULAWESI BARAT,,Indonesia,,,,-1.104063,119.4689041,https://maps.google.com/?cid=0x0:0x3ce6ded9615ceb27,
hardware store,hardware store,Kec. Baras,"Kab. Pasangkayu, Sulawesi Barat","Kab. Pasangkayu, Sulawesi Barat",SULAWESI BARAT,,Indonesia,,,,-1.588752,119.3280298,https://maps.google.com/?cid=0x0:0x43abedd2f72d30c4,
hardware store,Toko Bahan Bangunan,Sinar Sejahtera,"CCW3+X6J, Kompleks KSU, Motu, Kec. Baras, Kab. Pasangkayu, Sulawesi Barat 91572","Kompleks KSU, Motu, Kec. Baras, Kab. Pasangkayu",SULAWESI BARAT,91572.0,Indonesia,,,,-1.5525327,119.4030159,https://maps.google.com/?cid=0x0:0x4c85fe05d3fc9a40,
hardware store,Pemasok Bahan Bangunan,Toko bangunan sinar surya baras,"Dusun samonu/bambaloka, Baras, Kec. Baras, Kab. Pasangkayu, Sulawesi Barat 91572","Baras, Kec. Baras, Kab. Pasangkayu",SULAWESI BARAT,91572.0,Indonesia,82292516079.0,,,-1.5911398,119.3269777,https://maps.google.com/?cid=0x0:0x6cbe19908c2077d,
hardware store,Toko Bahan Bangunan,ANEKA LOSTER,"F84W+V7Q, Kasano, Kec. Baras, Kab. Pasangkayu, Sulawesi Barat 91572","Kasano, Kec. Baras, Kab. Pasangkayu",SULAWESI BARAT,91572.0,Indonesia,81343114822.0,,,-1.542782,119.3457226,https://maps.google.com/?cid=0x0:0x913b69725e07d54f,
hardware store,Toko Alat Tulis Kantor,ZONA ATK,"Dusun Sidomaju, Balanti, Kec. Baras, Kab. Pasangkayu, Sulawesi Barat 91572","Balanti, Kec. Baras, Kab. Pasangkayu",SULAWESI BARAT,91572.0,Indonesia,87750510388.0,,,-1.5703649,119.4049454,https://maps.google.com/?cid=0x0:0xbbbde6b1ad57a2f2,
hardware store,hardware store,TOKO CAHAYA DEMAK,"Jl Sultan Hasanuddin Dsn. Biai Desa Lilimori Kec. Bulutaba, Lilimori, Kec. Bulu Taba, Kab. Pasangkayu, Sulawesi Barat 91572","Lilimori, Kec. Bulu Taba, Kab. Pasangkayu",SULAWESI BARAT,91572.0,Indonesia,81341595236.0,,,-1.476158,119.4231359,https://maps.google.com/?cid=0x0:0xb040169c97921f67,
hardware store,Toko Alat Tulis Kantor,Toko Khanza,"Motu, Kec. Baras, Kab. Pasangkayu, Sulawesi Barat 91572","Kec. Baras, Kab. Pasangkayu",SULAWESI BARAT,91572.0,Indonesia,81314527563.0,,,-1.552671,119.4026965,https://maps.google.com/?cid=0x0:0x17c55d9a129ba107,
hardware store,Toko Bahan Bangunan,New Baras Hardware  Electrical Supply,"J. P. Rizal St, Santiago, Baras, 1970 Rizal, Filipina","Baras, Rizal, Filipina",SULAWESI BARAT,,Indonesia,639995374539.0,,,14.5238856,121.2600226,https://maps.google.com/?cid=0x0:0x6c6597d087843261,
hardware store,Toko Bahan Bangunan,Karlie Hardware,"Lot B Pinugay Road Barangay, Baras, 1800 Rizal, Filipina","Baras, Rizal, Filipina",SULAWESI BARAT,,Indonesia,,,,14.5463838,121.261212,https://maps.google.com/?cid=0x0:0x3cf822d53cbe8127,
hardware store,hardware store,Sulawesi Barat 91572,"Kab. Pasangkayu, Sulawesi Barat","Kab. Pasangkayu, Sulawesi Barat",SULAWESI BARAT,,Indonesia,,,,-1.5596509,119.5571677,https://maps.google.com/?cid=0x0:0xedbe1b42f4cf1266,
hardware store,Toko Bahan Bangunan,Toko Bangunan Sumber Logam,"GC44+XVR, Unnamed Road, Karave, Bulu Taba, Pasangkayu, West Sulawesi 91572","Unnamed Road, Karave, Bulu Taba, Pasangkayu",SULAWESI BARAT,91572.0,Indonesia,81264671628.0,,,-1.4925023,119.4071365,https://maps.google.com/?cid=0x0:0xa59fc1df5babcbe,
hardware store,hardware store,TOKO CAHAYA DEMAK,"Jl Sultan Hasanuddin Dsn. Biai Desa Lilimori Kec. Bulutaba, Lilimori, Kec. Bulu Taba, Kab. Pasangkayu, Sulawesi Barat 91572","Lilimori, Kec. Bulu Taba, Kab. Pasangkayu",SULAWESI BARAT,91572.0,Indonesia,81341595236.0,,,-1.476158,119.4231359,https://maps.google.com/?cid=0x0:0xb040169c97921f67,
hardware store,Toko Bahan Bangunan,Toko putra demak,"GCFF+GJF, Lilimori, Kec. Bulu Taba, Kab. Pasangkayu, Sulawesi Barat 91572","Lilimori, Kec. Bulu Taba, Kab. Pasangkayu",SULAWESI BARAT,91572.0,Indonesia,,,,-1.4761942,119.4240424,https://maps.google.com/?cid=0x0:0x1de3fa595e81118c,
hardware store,Toko Bahan Bangunan,ANEKA LOSTER,"F84W+V7Q, Kasano, Kec. Baras, Kab. Pasangkayu, Sulawesi Barat 91572","Kasano, Kec. Baras, Kab. Pasangkayu",SULAWESI BARAT,91572.0,Indonesia,81343114822.0,,,-1.542782,119.3457226,https://maps.google.com/?cid=0x0:0x913b69725e07d54f,
hardware store,Pemasok Bahan Bangunan,Toko bangunan sinar surya baras,"Dusun samonu/bambaloka, Baras, Kec. Baras, Kab. Pasangkayu, Sulawesi Barat 91572","Baras, Kec. Baras, Kab. Pasangkayu",SULAWESI BARAT,91572.0,Indonesia,82292516079.0,,,-1.5911398,119.3269777,https://maps.google.com/?cid=0x0:0x6cbe19908c2077d,
hardware store,Toko Alat Tulis Kantor,ZONA ATK,"Dusun Sidomaju, Balanti, Kec. Baras, Kab. Pasangkayu, Sulawesi Barat 91572","Balanti, Kec. Baras, Kab. Pasangkayu",SULAWESI BARAT,91572.0,Indonesia,87750510388.0,,,-1.5703649,119.4049454,https://maps.google.com/?cid=0x0:0xbbbde6b1ad57a2f2,
hardware store,Toko Bahan Bangunan,Toko Buana Situju Lame Ambo,"G8GP+FCM, Singgani, Kec. Lariang, Kab. Pasangkayu, Sulawesi Barat 91572","Singgani, Kec. Lariang, Kab. Pasangkayu",SULAWESI BARAT,91572.0,Indonesia,,,,-1.474595,119.336148,https://maps.google.com/?cid=0x0:0x5e09800d89339af0,
hardware store,Toko Kayu,Toko bangunan Jufri,"887R+WQC, Jl. Belimbing, Bulu Mario, Kec. Sarudu, Kab. Pasangkayu, Sulawesi Barat 91573","Jl. Belimbing, Bulu Mario, Kec. Sarudu, Kab. Pasangkayu",SULAWESI BARAT,91573.0,Indonesia,,,,-1.6851793,119.34188,https://maps.google.com/?cid=0x0:0xdd534323d0686e66,
hardware store,Toko,Hj Photocofy,"GC54+7Q8, Karave, Kec. Bulu Taba, Kab. Pasangkayu, Sulawesi Barat 91572","Karave, Kec. Bulu Taba, Kab. Pasangkayu",SULAWESI BARAT,91572.0,Indonesia,82194350339.0,,,-1.4920803,119.4068575,https://maps.google.com/?cid=0x0:0x703fe2e2d32152ab,
hardware store,Kontraktor Umum,Matra Central Truss,"H9J6+76F, JL. Trans Sulawesi Pasangkayu, Lariang, Kec. Tikke Raya, Mamuju, Sulawesi Barat 91571","JL. Trans Sulawesi Pasangkayu, Lariang, Kec. Tikke Raya, Mamuju",SULAWESI BARAT,91571.0,Indonesia,81341232868.0,,,-1.4193227,119.3605328,https://maps.google.com/?cid=0x0:0x65dda0e785569554,
hardware store,Toko bahan makanan,Toko rilis,"Lariang, Kec. Lariang, Kab. Pasangkayu, Sulawesi Barat 90115","Kec. Lariang, Kab. Pasangkayu",SULAWESI BARAT,90115.0,Indonesia,82296772733.0,,,-1.4322723,119.3571389,https://maps.google.com/?cid=0x0:0xf912b48052050f15,
hardware store,Toko Alat Tulis Kantor,Toko Khanza,"Motu, Kec. Baras, Kab. Pasangkayu, Sulawesi Barat 91572","Kec. Baras, Kab. Pasangkayu",SULAWESI BARAT,91572.0,Indonesia,81314527563.0,,,-1.552671,119.4026965,https://maps.google.com/?cid=0x0:0x17c55d9a129ba107,
hardware store,Toko Bahan Bangunan,Toko Valva Bangunan,"R995+F8H, Pasangkayu, Kec. Pasangkayu, Kab. Pasangkayu, Sulawesi Barat 91574","Pasangkayu, Kec. Pasangkayu, Kab. Pasangkayu",SULAWESI BARAT,91574.0,Indonesia,85341505076.0,,,-1.1812798,119.3583997,https://maps.google.com/?cid=0x0:0xba09a047162b033,
hardware store,Toko,Toko Irfan Jaya,"Dusun Mekar, Tikke, Kec. Tikke Raya, Kab. Pasangkayu, Sulawesi Barat 91571","Tikke, Kec. Tikke Raya, Kab. Pasangkayu",SULAWESI BARAT,91571.0,Indonesia,85398000151.0,,,-1.3371374,119.3749605,https://maps.google.com/?cid=0x0:0x603cc9f5da5ed73c,
hardware store,Toko Bahan Bangunan,Toko Delta Bangunan,"8V6H+X4H, Karema, Kec. Mamuju, Kabupaten Mamuju, Sulawesi Barat 91512","Karema, Kec. Mamuju, Kabupaten Mamuju",SULAWESI BARAT,91512.0,Indonesia,81524333299.0,,,-2.6875662,118.8778488,https://maps.google.com/?cid=0x0:0x600c10af92b1cb4f,
hardware store,hardware store,Toko Bala Rama,"G9G8+5CP, Parabu, Kec. Lariang, Kab. Pasangkayu, Sulawesi Barat 91572","Parabu, Kec. Lariang, Kab. Pasangkayu",SULAWESI BARAT,91572.0,Indonesia,,,,-1.4745285,119.3660704,https://maps.google.com/?cid=0x0:0xd3b9a84c867fe006,
hardware store,hardware store,Sulawesi Barat 91512,"Kabupaten Mamuju, Sulawesi Barat","Kabupaten Mamuju, Sulawesi Barat",SULAWESI BARAT,,Indonesia,,,,-1.8494265,119.5339711,https://maps.google.com/?cid=0x0:0x8e21c401717b8ceb,
hardware store,Toko Alat Listrik,Toko Mitra Listrik,"Karema, Kec. Mamuju, Kabupaten Mamuju, Sulawesi Barat 91512","Kec. Mamuju, Kabupaten Mamuju",SULAWESI BARAT,91512.0,Indonesia,81216513956.0,,,-2.6836678,118.8758437,https://maps.google.com/?cid=0x0:0x9b2d83aba9467b91,
hardware store,Toko Perlengkapan Rumah,MR.DIY,"Ruko Sudirman, Jl. Jend Sudirman No.63, Simboro, Kec. Simboro Dan Kepulauan, Kabupaten Mamuju, Sulawesi Barat 90512","Jl. Jend Sudirman No.63, Simboro, Kec. Simboro Dan Kepulauan, Kabupaten Mamuju",SULAWESI BARAT,90512.0,Indonesia,2130022789.0,,,-2.6858871,118.8693113,https://maps.google.com/?cid=0x0:0x4729ed80f7f3bf94,
hardware store,Toko Bahan Bangunan,Toko Delta Bangunan,"8V6H+X4H, Karema, Kec. Mamuju, Kabupaten Mamuju, Sulawesi Barat 91512","Karema, Kec. Mamuju, Kabupaten Mamuju",SULAWESI BARAT,91512.0,Indonesia,81524333299.0,,,-2.6875662,118.8778488,https://maps.google.com/?cid=0x0:0x600c10af92b1cb4f,
hardware store,Toko,Toko Sumber Sakti,"8V8G+F84, Jl. Diponegoro, Karema, Kec. Mamuju, Kabupaten Mamuju, Sulawesi Barat 91511","Jl. Diponegoro, Karema, Kec. Mamuju, Kabupaten Mamuju",SULAWESI BARAT,91511.0,Indonesia,,,,-2.6838659,118.875817,https://maps.google.com/?cid=0x0:0x40fead32aa2cf7c4,
hardware store,Toko Bahan Bangunan,Toko Harapan Jaya,"Jl. LetJend Hertasning, Binanga, Kec. Mamuju, Kabupaten Mamuju, Sulawesi Barat 91511","Binanga, Kec. Mamuju, Kabupaten Mamuju",SULAWESI BARAT,91511.0,Indonesia,,,,-2.6718353,118.8918529,https://maps.google.com/?cid=0x0:0x4aa8f68af0fe79ed,
hardware store,Pasar,Toko Pantai Karossa,"6C22+HXP, Dusun Mora, Karossa, Kec. Karossa, Kabupaten Mamuju Tengah, Sulawesi Barat 91512","Dusun Mora, Karossa, Kec. Karossa, Kabupaten Mamuju Tengah",SULAWESI BARAT,91512.0,Indonesia,81373974815.0,,,-1.7985411,119.4024404,https://maps.google.com/?cid=0x0:0x24dafad928bb43c3,
hardware store,Toko Bahan Bangunan,Toko Usaha Maju,"Jl. Andi Dai No.66, Binanga, Kec. Mamuju, Kabupaten Mamuju, Sulawesi Barat 91511","Binanga, Kec. Mamuju, Kabupaten Mamuju",SULAWESI BARAT,91511.0,Indonesia,81242225181.0,,,-2.6719505,118.8959849,https://maps.google.com/?cid=0x0:0xce686b7c9c65b,
hardware store,Toko Bahan Bangunan,Fajar Mas Toko,"8VGQ+HV8, Komplek Pasar Sentral, Simboro, Kec. Mamuju, Kabupaten Mamuju, Sulawesi Barat 91811","Komplek Pasar Sentral, Simboro, Kec. Mamuju, Kabupaten Mamuju",SULAWESI BARAT,91811.0,Indonesia,42621498.0,,,-2.6735892,118.8897077,https://maps.google.com/?cid=0x0:0x25648f8d214d5e5b,
hardware store,Toko Bahan Bangunan,Ud Sentral Jaya,"Binanga, Kec. Mamuju, Kabupaten Mamuju, Sulawesi Barat","Kabupaten Mamuju, Sulawesi Barat",SULAWESI BARAT,,Indonesia,82188708700.0,,,-2.6720221,118.8918978,https://maps.google.com/?cid=0x0:0xa909bb9558006e49,
hardware store,Toko Bahan Bangunan,Tk. Buana Bangunan,"8V7G+MJJ, Karema, Kec. Mamuju, Kabupaten Mamuju, Sulawesi Barat 91512","Karema, Kec. Mamuju, Kabupaten Mamuju",SULAWESI BARAT,91512.0,Indonesia,82179264696.0,,,-2.6857866,118.8765206,https://maps.google.com/?cid=0x0:0x8cdc46a0e8fa0fe6,
hardware store,Toko Bahan Bangunan,TOKO GUDANG GRAHA TOMAKAKA 3,"Jl. Abd. Syakur, Karema, Kec. Mamuju, Kabupaten Mamuju, Sulawesi Barat 91512","Karema, Kec. Mamuju, Kabupaten Mamuju",SULAWESI BARAT,91512.0,Indonesia,82393103700.0,,,-2.6890654,118.8739797,https://maps.google.com/?cid=0x0:0x4944de5fe2559f5,
hardware store,Toko Buku >>u0026 Alat Sekolah,Toko Citra Harmonis,"8V6G+MJP, Karema, Kec. Mamuju, Kabupaten Mamuju, Sulawesi Barat 91512","Karema, Kec. Mamuju, Kabupaten Mamuju",SULAWESI BARAT,91512.0,Indonesia,,,,-2.6882938,118.8765852,https://maps.google.com/?cid=0x0:0x54f94132bc6a942,
hardware store,Toko Perlengkapan Rumah,Toko Fajar Mandiri,"6C32+6PH, Karossa, Kec. Karossa, Kabupaten Mamuju, Sulawesi Barat 91512","Karossa, Kec. Karossa, Kabupaten Mamuju",SULAWESI BARAT,91512.0,Indonesia,81373974815.0,,,-1.7969264,119.401873,https://maps.google.com/?cid=0x0:0x369b9c9c478b5faa,
hardware store,Toko Perlengkapan Rumah,TOKO FAJAR HARAPAN Nippon paint topoyo,"W77P+HCW, Jl. Poros Majene - Mamuju, Tobadak, Kec. Tobadak, Kabupaten Mamuju Tengah, Sulawesi Barat 91563","Jl. Poros Majene - Mamuju, Tobadak, Kec. Tobadak, Kabupaten Mamuju Tengah",SULAWESI BARAT,91563.0,Indonesia,81373974815.0,,,-2.0860076,119.2860649,https://maps.google.com/?cid=0x0:0x60e2fb2e2ac626e8,
hardware store,Toko Pakaian,Toko KDR Baru,"8V7G+7Q2, Jl. Diponegoro, Karema, Kec. Mamuju, Kabupaten Mamuju, Sulawesi Barat 91512","Jl. Diponegoro, Karema, Kec. Mamuju, Kabupaten Mamuju",SULAWESI BARAT,91512.0,Indonesia,85256467478.0,,,-2.6868544,118.8768934,https://maps.google.com/?cid=0x0:0x36cc584c79da7fda,
hardware store,Toko,Photo Copy ADZIM,"8VH3+93P, Simboro, Kec. Simboro Dan Kepulauan, Kabupaten Mamuju, Sulawesi Barat 91512","Simboro, Kec. Simboro Dan Kepulauan, Kabupaten Mamuju",SULAWESI BARAT,91512.0,Indonesia,,,,-2.671528,118.8527057,https://maps.google.com/?cid=0x0:0x19c6c4994ef6ba57,
hardware store,Toko Bahan Bangunan,Buana Fadly,"6C33+824, Karossa, Kec. Karossa, Kabupaten Mamuju, Sulawesi Barat 91512","Karossa, Kec. Karossa, Kabupaten Mamuju",SULAWESI BARAT,91512.0,Indonesia,85395764567.0,,,-1.7967481,119.4025853,https://maps.google.com/?cid=0x0:0xd7bc2ddb9906de73,
hardware store,Toko Bahan Bangunan,Toko Bangunan 79,"8V8J+3MF, Karema, Kec. Mamuju, Kabupaten Mamuju, Sulawesi Barat 91511","Karema, Kec. Mamuju, Kabupaten Mamuju",SULAWESI BARAT,91511.0,Indonesia,,,,-2.684817,118.8816695,https://maps.google.com/?cid=0x0:0x101d0b0f58da7e81,
hardware store,Toko Bahan Bangunan,Tunas Jaya Mamuju,"8V7G+6W7, Jl. Diponegoro, Karema, Kec. Mamuju, Kabupaten Mamuju, Sulawesi Barat 91512","Jl. Diponegoro, Karema, Kec. Mamuju, Kabupaten Mamuju",SULAWESI BARAT,91512.0,Indonesia,,,,-2.6869645,118.8772869,https://maps.google.com/?cid=0x0:0xe9c75e78f96ac774,
hardware store,Toko Elektronik,Nusantara Teknik,"Jl. Poros Mamuju - Topoyo, Kalukku, Kec. Kalukku, Kabupaten Mamuju, Sulawesi Barat 91561","Kalukku, Kec. Kalukku, Kabupaten Mamuju",SULAWESI BARAT,91561.0,Indonesia,8124214996.0,,,-2.5471709,119.064666,https://maps.google.com/?cid=0x0:0xcfece9367ec47efa,
hardware store,hardware store,Dapurang,"Kec. Dapurang, Kab. Pasangkayu, Sulawesi Barat","Kab. Pasangkayu, Sulawesi Barat",SULAWESI BARAT,,Indonesia,,,,-1.7373218,119.3540715,https://maps.google.com/?cid=0x0:0x14e56f055de03929,
hardware store,Toko,Toko Andi Enal,"7952+37G, Jl. Poros Majene - Mamuju, Dapurang, Kec. Dapurang, Kab. Pasangkayu, Sulawesi Barat 91573","Jl. Poros Majene - Mamuju, Dapurang, Kec. Dapurang, Kab. Pasangkayu",SULAWESI BARAT,91573.0,Indonesia,,,,-1.7423204,119.3506988,https://maps.google.com/?cid=0x0:0xa600969bab470bc9,
hardware store,Pasar,Toko Pantai Karossa,"6C22+HXP, Dusun Mora, Karossa, Kec. Karossa, Kabupaten Mamuju Tengah, Sulawesi Barat 91512","Dusun Mora, Karossa, Kec. Karossa, Kabupaten Mamuju Tengah",SULAWESI BARAT,91512.0,Indonesia,81373974815.0,,,-1.7985411,119.4024404,https://maps.google.com/?cid=0x0:0x24dafad928bb43c3,
hardware store,Toko,Toko Ryandi,"785H+79P, Dapurang, Kec. Dapurang, Kab. Pasangkayu, Sulawesi Barat 91573","Dapurang, Kec. Dapurang, Kab. Pasangkayu",SULAWESI BARAT,91573.0,Indonesia,,,,-1.7417945,119.3284394,https://maps.google.com/?cid=0x0:0x779fc6ec8bf66f15,
hardware store,Toko Perlengkapan Rumah,Toko Fajar Mandiri,"6C32+6PH, Karossa, Kec. Karossa, Kabupaten Mamuju, Sulawesi Barat 91512","Karossa, Kec. Karossa, Kabupaten Mamuju",SULAWESI BARAT,91512.0,Indonesia,81373974815.0,,,-1.7969264,119.401873,https://maps.google.com/?cid=0x0:0x369b9c9c478b5faa,
hardware store,hardware store,Kec. Duripoku,"Kab. Pasangkayu, Sulawesi Barat","Kab. Pasangkayu, Sulawesi Barat",SULAWESI BARAT,,Indonesia,,,,-1.6543678,119.4203336,https://maps.google.com/?cid=0x0:0x2c307cba88191354,
hardware store,Toko Kayu,Toko bangunan Jufri,"887R+WQC, Jl. Belimbing, Bulu Mario, Kec. Sarudu, Kab. Pasangkayu, Sulawesi Barat 91573","Jl. Belimbing, Bulu Mario, Kec. Sarudu, Kab. Pasangkayu",SULAWESI BARAT,91573.0,Indonesia,,,,-1.6851793,119.34188,https://maps.google.com/?cid=0x0:0xdd534323d0686e66,
hardware store,Toko Perlengkapan Rumah,MR.DIY,"Ruko Sudirman, Jl. Jend Sudirman No.63, Simboro, Kec. Simboro Dan Kepulauan, Kabupaten Mamuju, Sulawesi Barat 90512","Jl. Jend Sudirman No.63, Simboro, Kec. Simboro Dan Kepulauan, Kabupaten Mamuju",SULAWESI BARAT,90512.0,Indonesia,2130022789.0,,,-2.6858871,118.8693113,https://maps.google.com/?cid=0x0:0x4729ed80f7f3bf94,
hardware store,Toko Perlengkapan Rumah,Toko Fajar Mas,"78R3+4XG, Jl. Poros Majene - Mamuju, Sarudu, Kec. Sarudu, Kab. Pasangkayu, Sulawesi Barat 91573","Jl. Poros Majene - Mamuju, Sarudu, Kec. Sarudu, Kab. Pasangkayu",SULAWESI BARAT,91573.0,Indonesia,,,,-1.7096903,119.3049596,https://maps.google.com/?cid=0x0:0x9228cd946562eccc,
hardware store,Toko Bahan Bangunan,Sinar Sejahtera,"CCW3+X6J, Kompleks KSU, Motu, Kec. Baras, Kab. Pasangkayu, Sulawesi Barat 91572","Kompleks KSU, Motu, Kec. Baras, Kab. Pasangkayu",SULAWESI BARAT,91572.0,Indonesia,,,,-1.5525327,119.4030159,https://maps.google.com/?cid=0x0:0x4c85fe05d3fc9a40,
hardware store,Toko Bahan Bangunan,Toko Besi Multi Teknik,"R9GF+WF4, Pasangkayu, Kec. Pasangkayu, Kab. Pasangkayu, Sulawesi Barat 91574","Pasangkayu, Kec. Pasangkayu, Kab. Pasangkayu",SULAWESI BARAT,91574.0,Indonesia,8114533785.0,,,-1.172749,119.3737029,https://maps.google.com/?cid=0x0:0x97fa8b2b82e27bdb,
hardware store,Toko Bahan Bangunan,Toko Kayu,"Bulu Mario, Kec. Sarudu, Kab. Pasangkayu, Sulawesi Barat 91573","Kec. Sarudu, Kab. Pasangkayu",SULAWESI BARAT,91573.0,Indonesia,85217247256.0,,,-1.6883539,119.343478,https://maps.google.com/?cid=0x0:0xdf701ee855e87811,
hardware store,hardware store,Kec. Lariang,"Kab. Pasangkayu, Sulawesi Barat","Kab. Pasangkayu, Sulawesi Barat",SULAWESI BARAT,,Indonesia,,,,-1.4747552,119.3681607,https://maps.google.com/?cid=0x0:0x9800acb19cdd3433,
hardware store,hardware store,TOKO CAHAYA DEMAK,"Jl Sultan Hasanuddin Dsn. Biai Desa Lilimori Kec. Bulutaba, Lilimori, Kec. Bulu Taba, Kab. Pasangkayu, Sulawesi Barat 91572","Lilimori, Kec. Bulu Taba, Kab. Pasangkayu",SULAWESI BARAT,91572.0,Indonesia,81341595236.0,,,-1.476158,119.4231359,https://maps.google.com/?cid=0x0:0xb040169c97921f67,
hardware store,Toko bahan makanan,Toko rilis,"Lariang, Kec. Lariang, Kab. Pasangkayu, Sulawesi Barat 90115","Kec. Lariang, Kab. Pasangkayu",SULAWESI BARAT,90115.0,Indonesia,82296772733.0,,,-1.4322723,119.3571389,https://maps.google.com/?cid=0x0:0xf912b48052050f15,
hardware store,Toko Bahan Bangunan,Toko putra demak,"GCFF+GJF, Lilimori, Kec. Bulu Taba, Kab. Pasangkayu, Sulawesi Barat 91572","Lilimori, Kec. Bulu Taba, Kab. Pasangkayu",SULAWESI BARAT,91572.0,Indonesia,,,,-1.4761942,119.4240424,https://maps.google.com/?cid=0x0:0x1de3fa595e81118c,
hardware store,Toko,Hj Photocofy,"GC54+7Q8, Karave, Kec. Bulu Taba, Kab. Pasangkayu, Sulawesi Barat 91572","Karave, Kec. Bulu Taba, Kab. Pasangkayu",SULAWESI BARAT,91572.0,Indonesia,82194350339.0,,,-1.4920803,119.4068575,https://maps.google.com/?cid=0x0:0x703fe2e2d32152ab,
hardware store,hardware store,Service Hp Hardware  Software,"Singgani, Kec. Lariang, Kab. Pasangkayu, Sulawesi Barat","Kab. Pasangkayu, Sulawesi Barat",SULAWESI BARAT,,Indonesia,,,,-1.4758065,119.336249,https://maps.google.com/?cid=0x0:0xb14ca847e25666e8,
hardware store,hardware store,Toko Bala Rama,"G9G8+5CP, Parabu, Kec. Lariang, Kab. Pasangkayu, Sulawesi Barat 91572","Parabu, Kec. Lariang, Kab. Pasangkayu",SULAWESI BARAT,91572.0,Indonesia,,,,-1.4745285,119.3660704,https://maps.google.com/?cid=0x0:0xd3b9a84c867fe006,
hardware store,hardware store,Sulawesi Barat 91571,"Kab. Pasangkayu, Sulawesi Barat","Kab. Pasangkayu, Sulawesi Barat",SULAWESI BARAT,,Indonesia,,,,-1.2916992,119.3714909,https://maps.google.com/?cid=0x0:0x12640eefba628a12,
hardware store,Toko Bahan Bangunan,Toko Valva Bangunan,"R995+F8H, Pasangkayu, Kec. Pasangkayu, Kab. Pasangkayu, Sulawesi Barat 91574","Pasangkayu, Kec. Pasangkayu, Kab. Pasangkayu",SULAWESI BARAT,91574.0,Indonesia,85341505076.0,,,-1.1812798,119.3583997,https://maps.google.com/?cid=0x0:0xba09a047162b033,
hardware store,hardware store,MR.DIY,"Jl. Ir. Soekarno Jl. Poros Majene - Mamuju, Pasangkayu, Kec. Pasangkayu, Kab. Pasangkayu, Sulawesi Barat 91574","Pasangkayu, Kec. Pasangkayu, Kab. Pasangkayu",SULAWESI BARAT,91574.0,Indonesia,,,,-1.1792577,119.3667105,https://maps.google.com/?cid=0x0:0x568ca9fcf84939c2,
hardware store,Toko Bahan Bangunan,TOKO MARHANA 7,"Jl. Dr. Sam Ratulangi, Pasangkayu, Kec. Pasangkayu, Kab. Pasangkayu, Sulawesi Barat 91571","Pasangkayu, Kec. Pasangkayu, Kab. Pasangkayu",SULAWESI BARAT,91571.0,Indonesia,85231174115.0,,,-1.1751574,119.3694653,https://maps.google.com/?cid=0x0:0xb0b45a267f6def2a,
hardware store,Toko,Toko Irfan Jaya,"Dusun Mekar, Tikke, Kec. Tikke Raya, Kab. Pasangkayu, Sulawesi Barat 91571","Tikke, Kec. Tikke Raya, Kab. Pasangkayu",SULAWESI BARAT,91571.0,Indonesia,85398000151.0,,,-1.3371374,119.3749605,https://maps.google.com/?cid=0x0:0x603cc9f5da5ed73c,
hardware store,Pasar,Rezky Mart Pasangkayu,"R9CF+X9V, Pasangkayu, Kec. Pasangkayu, Kab. Pasangkayu, Sulawesi Barat 91574","Pasangkayu, Kec. Pasangkayu, Kab. Pasangkayu",SULAWESI BARAT,91574.0,Indonesia,4577021866.0,,,-1.1775055,119.3734329,https://maps.google.com/?cid=0x0:0x985891a2092f80eb,
hardware store,Toko Bahan Bangunan,Toko Sinar Bangunan,"R9FG+X5V, Jl. Abdul Muis, Pasangkayu, Kec. Pasangkayu, Kab. Pasangkayu, Sulawesi Barat 91574","Jl. Abdul Muis, Pasangkayu, Kec. Pasangkayu, Kab. Pasangkayu",SULAWESI BARAT,91574.0,Indonesia,,,,-1.1750085,119.375422,https://maps.google.com/?cid=0x0:0xc244aaf885dbe36e,
hardware store,Toko Bahan Bangunan,Fajar Baru,"R9GM+9PF, Ako, Kec. Pasangkayu, Kab. Pasangkayu, Sulawesi Barat","Kab. Pasangkayu, Sulawesi Barat",SULAWESI BARAT,,Indonesia,87750580896.0,,,-1.1740596,119.3842912,https://maps.google.com/?cid=0x0:0x68922c0df03e9e87,
hardware store,Toko Bahan Bangunan,tokoh Rhizka,"Pajalele, Kec. Tikke Raya, Kab. Pasangkayu, Sulawesi Barat 91571","Kec. Tikke Raya, Kab. Pasangkayu",SULAWESI BARAT,91571.0,Indonesia,85930109146.0,,,-1.312261,119.412128,https://maps.google.com/?cid=0x0:0x810cfa8a41245811,
hardware store,Pemasok Air Minum Dalam Kemasan,Depot MJS Pasangkayu,"R9F4+43G, Jl Urip Sumoharjo, Pasangkayu, Kec. Pasangkayu, Kab. Pasangkayu, Sulawesi Barat 91571","Jl Urip Sumoharjo, Pasangkayu, Kec. Pasangkayu, Kab. Pasangkayu",SULAWESI BARAT,91571.0,Indonesia,85145252016.0,,,-1.177193,119.3552107,https://maps.google.com/?cid=0x0:0x6d706eab3b0c5449,
hardware store,Perhimpunan Pengembang Perumahan,Toko Berkah Bangunan,"P8HH+5J9, Malei, Pedongga, Kab. Pasangkayu, Sulawesi Barat 91571","Malei, Pedongga, Kab. Pasangkayu",SULAWESI BARAT,91571.0,Indonesia,82193524222.0,,,-1.2720843,119.3290953,https://maps.google.com/?cid=0x0:0x4fe58465f2606352,
hardware store,Pasar,Pasar Smart Pasangkayu,"R975+FRW, Pasangkayu, Kec. Pasangkayu, Kab. Pasangkayu, Sulawesi Barat 91571","Pasangkayu, Kec. Pasangkayu, Kab. Pasangkayu",SULAWESI BARAT,91571.0,Indonesia,,,,-1.1862598,119.3595745,https://maps.google.com/?cid=0x0:0x3ff831304dd5dfe0,
hardware store,Toko,toko tani pasangkayu,"Jl. Ir. Soekarno, Pasangkayu, Kec. Pasangkayu, please-select, Sulawesi Barat 91571","Pasangkayu, Kec. Pasangkayu, please-select",SULAWESI BARAT,91571.0,Indonesia,,,,-1.1794151,119.3683691,https://maps.google.com/?cid=0x0:0x96f12fe771933935,
hardware store,Toko Perlengkapan Mesin Fotokopi,Toko Chanaya Matra,"R9F7+X8H, Pasangkayu, Kec. Pasangkayu, Kab. Pasangkayu, Sulawesi Barat 91574","Pasangkayu, Kec. Pasangkayu, Kab. Pasangkayu",SULAWESI BARAT,91574.0,Indonesia,81354369005.0,,,-1.1750615,119.3633705,https://maps.google.com/?cid=0x0:0x1bd9737d9f914676,
hardware store,Toko Komputer,Bintang Libra Komputer Cabang Pasangkayu,"Jl. Ir. Soekarno, Pasangkayu, Kec. Pasangkayu, Kab. Pasangkayu, Sulawesi Barat 91574","Pasangkayu, Kec. Pasangkayu, Kab. Pasangkayu",SULAWESI BARAT,91574.0,Indonesia,82182164500.0,,,-1.1797181,119.3679099,https://maps.google.com/?cid=0x0:0xe5c23eef828ccb28,
hardware store,Dealer Honda,Dealer Honda Nusantara Sakti Pasangkayu,"Pasangkayu, Kec. Pasangkayu, Kab. Pasangkayu, Sulawesi Barat 91574","Kec. Pasangkayu, Kab. Pasangkayu",SULAWESI BARAT,91574.0,Indonesia,82260023789.0,,,-1.1797182,119.3679698,https://maps.google.com/?cid=0x0:0xf865b1a02dbe6f9b,
hardware store,Servis Komputer,Via Computer,"R983+GWP, Unnamed Road, Pasangkayu, Kec. Pasangkayu, Kab. Pasangkayu, Sulawesi Barat 91571","Unnamed Road, Pasangkayu, Kec. Pasangkayu, Kab. Pasangkayu",SULAWESI BARAT,91571.0,Indonesia,81241242985.0,,,-1.1836579,119.3548241,https://maps.google.com/?cid=0x0:0x766c125c387714ef,
hardware store,Dealer Honda,ASTRA MOTOR PASANGKAYU,"Jl. Ir. Soekarno, Pasangkayu, Kec. Pasangkayu, Kab. Pasangkayu, Sulawesi Barat 91574","Pasangkayu, Kec. Pasangkayu, Kab. Pasangkayu",SULAWESI BARAT,91574.0,Indonesia,82187767477.0,,,-1.1796782,119.3624776,https://maps.google.com/?cid=0x0:0x61154c9360fa826b,
hardware store,Toko Bahan Bangunan,Sinar Sejahtera,"CCW3+X6J, Kompleks KSU, Motu, Kec. Baras, Kab. Pasangkayu, Sulawesi Barat 91572","Kompleks KSU, Motu, Kec. Baras, Kab. Pasangkayu",SULAWESI BARAT,91572.0,Indonesia,,,,-1.5525327,119.4030159,https://maps.google.com/?cid=0x0:0x4c85fe05d3fc9a40,
hardware store,Kantor Perusahaan,Toyota Pasangkayu,"Jl. Ir. Soekarno, Pasangkayu, Kec. Pasangkayu, Kab. Pasangkayu, Sulawesi Barat 91574","Pasangkayu, Kec. Pasangkayu, Kab. Pasangkayu",SULAWESI BARAT,91574.0,Indonesia,85341470006.0,,,-1.1792954,119.3637028,https://maps.google.com/?cid=0x0:0x3bb725fd34c0bc50,
hardware store,Toko Bahan Bangunan,Toko BALQIS,"R9F7+W39, Pasangkayu, Kec. Pasangkayu, Kab. Pasangkayu, Sulawesi Barat 91574","Pasangkayu, Kec. Pasangkayu, Kab. Pasangkayu",SULAWESI BARAT,91574.0,Indonesia,,,,-1.1752014,119.3627388,https://maps.google.com/?cid=0x0:0x9a7710d580f1fbd,
hardware store,Toko,Toko sulawesi,"Jln trans, Martajaya, Kec. Pasangkayu, Kab. Pasangkayu, Sulawesi Barat 91571","Martajaya, Kec. Pasangkayu, Kab. Pasangkayu",SULAWESI BARAT,91571.0,Indonesia,81258032292.0,,,-1.181735,119.4325598,https://maps.google.com/?cid=0x0:0x7cf8b5ab6c0c7ea,
hardware store,Toko umum,Toko shanum,"R994+79, Pasangkayu, Kec. Pasangkayu, Kab. Pasangkayu, Sulawesi Barat 91571","Pasangkayu, Kec. Pasangkayu, Kab. Pasangkayu",SULAWESI BARAT,91571.0,Indonesia,81384321818.0,,,-1.1819263,119.3560322,https://maps.google.com/?cid=0x0:0xc9c02f263abdd976,
hardware store,Kontraktor Umum,Matra Central Truss,"H9J6+76F, JL. Trans Sulawesi Pasangkayu, Lariang, Kec. Tikke Raya, Mamuju, Sulawesi Barat 91571","JL. Trans Sulawesi Pasangkayu, Lariang, Kec. Tikke Raya, Mamuju",SULAWESI BARAT,91571.0,Indonesia,81341232868.0,,,-1.4193227,119.3605328,https://maps.google.com/?cid=0x0:0x65dda0e785569554,
hardware store,hardware store,Pedongga,"Kab. Pasangkayu, Sulawesi Barat","Kab. Pasangkayu, Sulawesi Barat",SULAWESI BARAT,,Indonesia,,,,-1.2745455,119.3947138,https://maps.google.com/?cid=0x0:0x9cbcb3a80b2b146e,
hardware store,Bengkel Sepeda Motor,AGUNG MOTOR PEDONGGA,"P84W+M3J, Martasari, Pedongga, Kab. Pasangkayu, Sulawesi Barat","Kab. Pasangkayu, Sulawesi Barat",SULAWESI BARAT,,Indonesia,85200111383.0,,,-1.2932849,119.34515,https://maps.google.com/?cid=0x0:0x43e5b31e3f01d556,
hardware store,Sekolah Dasar,SD Inpres pedongga,"P9JG+C72, Martasari, Pedongga, Kab. Pasangkayu, Sulawesi Barat 91571","Martasari, Pedongga, Kab. Pasangkayu",SULAWESI BARAT,91571.0,Indonesia,,,,-1.2690576,119.3755606,https://maps.google.com/?cid=0x0:0x5c4139efa8870e23,
hardware store,Toko Bahan Bangunan,tokoh Rhizka,"Pajalele, Kec. Tikke Raya, Kab. Pasangkayu, Sulawesi Barat 91571","Kec. Tikke Raya, Kab. Pasangkayu",SULAWESI BARAT,91571.0,Indonesia,85930109146.0,,,-1.312261,119.412128,https://maps.google.com/?cid=0x0:0x810cfa8a41245811,
hardware store,Sekolah,SD INPRES PEDANDA,"Pedanda, Pedongga, Kab. Pasangkayu, Sulawesi Barat 91571","Pedongga, Kab. Pasangkayu",SULAWESI BARAT,91571.0,Indonesia,,,,-1.2607808,119.352256,https://maps.google.com/?cid=0x0:0xe69f1d1cfabe2203,
hardware store,Gedung Apartemen,Rumah Pasangkayu,"P8P8+F9, Batu Oge, Pedongga, Kab. Pasangkayu, Sulawesi Barat","Kab. Pasangkayu, Sulawesi Barat",SULAWESI BARAT,,Indonesia,,,,-1.2638496,119.3158954,https://maps.google.com/?cid=0x0:0x177188f5ae56a8f3,
hardware store,hardware store,Sulawesi Barat 91574,"Kab. Pasangkayu, Sulawesi Barat","Kab. Pasangkayu, Sulawesi Barat",SULAWESI BARAT,,Indonesia,,,,-1.1559774,119.464359,https://maps.google.com/?cid=0x0:0x87450841cbc25162,
hardware store,Toko Bahan Bangunan,Saify Hardware Palu,"Jl. H Agus Salim No.2, Baru, Kec. Palu Bar., Kota Palu, Sulawesi Tengah 94211","Baru, Kec. Palu Bar., Kota Palu",SULAWESI BARAT,94211.0,Indonesia,87861105253.0,,,-0.8916556,119.8576696,https://maps.google.com/?cid=0x0:0xfe825bfebc6bc775,
hardware store,Toko Alat-Alat,hardware house,"4V57+7P4, Besusu Bar., Kec. Palu Tim., Kota Palu, Sulawesi Tengah 94111","Besusu Bar., Kec. Palu Tim., Kota Palu",SULAWESI BARAT,94111.0,Indonesia,82186587550.0,,,-0.8918694,119.8643227,https://maps.google.com/?cid=0x0:0x2f28d628a38cbdc2,
hardware store,Toko Alat-Alat,King Hardware Bali,"Jl. Bali No.30, Lolu Sel., Kec. Palu Sel., Kota Palu, Sulawesi Tengah 94111","Lolu Sel., Kec. Palu Sel., Kota Palu",SULAWESI BARAT,94111.0,Indonesia,81339999233.0,,,-0.9024416,119.8719859,https://maps.google.com/?cid=0x0:0x1e86b2d867d0326,
hardware store,Toko Alat-Alat,Plaza Hardware,"Jl. Jenderal Basuki Rahmat No.108, Tatura Sel., Kec. Palu Sel., Kota Palu, Sulawesi Tengah 94111","Tatura Sel., Kec. Palu Sel., Kota Palu",SULAWESI BARAT,94111.0,Indonesia,82195182783.0,,,-0.9191397,119.8856288,https://maps.google.com/?cid=0x0:0x7ba59e2806644434,
hardware store,Toko Alat-Alat,King Hardware Yos Sudarso,"Jl. Yos Sudarso No.2A, Talise, Kec. Mantikulore, Kota Palu, Sulawesi Tengah 94118","Talise, Kec. Mantikulore, Kota Palu",SULAWESI BARAT,94118.0,Indonesia,85322228832.0,,,-0.8808331,119.8727812,https://maps.google.com/?cid=0x0:0x8ba1b291f56af4f5,
hardware store,Toko Bahan Bangunan,Toko Bangunan SIKAPAYYA,"4HH4+6HM, Sarude, Kec. Sarjo, Kab. Pasangkayu, Sulawesi Barat 91574","Sarude, Kec. Sarjo, Kab. Pasangkayu",SULAWESI BARAT,91574.0,Indonesia,,,,-0.8719101,119.5564201,https://maps.google.com/?cid=0x0:0xd6b90f3982c99f9a,
hardware store,Toko Motor Elektrik,PT OYIKA ENERGI INDONESIA,"The Icon Business Park Jl Raya Cisauk Blok S No 5-6 Kel, Sampora, Cisauk, Tangerang Regency, Banten 15345","Sampora, Cisauk, Tangerang Regency",SULAWESI BARAT,15345.0,Indonesia,215319393.0,,,-6.3180734,106.6452755,https://maps.google.com/?cid=0x0:0x40c2797f8fd48df,
hardware store,Toko Perkakas,Aradhana Hardware,"Jl. Jenderal Basuki Rahmat No.124, Birobuli Utara, Kec. Palu Sel., Kota Palu, Sulawesi Tengah 94111","Birobuli Utara, Kec. Palu Sel., Kota Palu",SULAWESI BARAT,94111.0,Indonesia,81343691896.0,,,-0.9191527,119.8875967,https://maps.google.com/?cid=0x0:0xfd5d1e4e0c85fbb6,
hardware store,Kios,ICON 5 Business Park,"Icon 5 Business Park, Kabupaten Tangerang, Banten 15345",Kabupaten Tangerang,SULAWESI BARAT,15345.0,Indonesia,8159137981.0,,,-6.3178932,106.6442522,https://maps.google.com/?cid=0x0:0x7106cc620f98723f,
hardware store,Toko Motor Elektrik,Enine Motor Listrik Cisauk,"Jl. Raya Cisauk No.31, Cisauk, Kec. Cisauk, Kabupaten Tangerang, Banten 15341","Cisauk, Kec. Cisauk, Kabupaten Tangerang",SULAWESI BARAT,15341.0,Indonesia,82113788802.0,,,-6.3259183,106.6397494,https://maps.google.com/?cid=0x0:0x9b8715e8f1a0a660,
hardware store,Toko Perlengkapan Rumah,Toko Fajar Mas,"78R3+4XG, Jl. Poros Majene - Mamuju, Sarudu, Kec. Sarudu, Kab. Pasangkayu, Sulawesi Barat 91573","Jl. Poros Majene - Mamuju, Sarudu, Kec. Sarudu, Kab. Pasangkayu",SULAWESI BARAT,91573.0,Indonesia,,,,-1.7096903,119.3049596,https://maps.google.com/?cid=0x0:0x9228cd946562eccc,
hardware store,Toko Bahan Bangunan,Toko Fajar Mas Karossa,"6C33+H8H, Karossa, Kec. Karossa, Kabupaten Mamuju, Sulawesi Barat 91512","Karossa, Kec. Karossa, Kabupaten Mamuju",SULAWESI BARAT,91512.0,Indonesia,81219863842.0,,,-1.7960631,119.4033457,https://maps.google.com/?cid=0x0:0xd8da468ec62be5ab,
hardware store,hardware store,Sarudu,"Kec. Sarudu, Kab. Pasangkayu, Sulawesi Barat","Kab. Pasangkayu, Sulawesi Barat",SULAWESI BARAT,,Indonesia,,,,-1.6954473,119.3076098,https://maps.google.com/?cid=0x0:0x4d23a34e4d81dc54,
hardware store,Toko Bahan Bangunan,Toko sinar Logam,"887R+5HH, Jl. Manggis, Bulu Mario, Kec. Sarudu, Kab. Pasangkayu, Sulawesi Barat 91573","Jl. Manggis, Bulu Mario, Kec. Sarudu, Kab. Pasangkayu",SULAWESI BARAT,91573.0,Indonesia,,,,-1.6870644,119.3414727,https://maps.google.com/?cid=0x0:0x8a8cd45da7eb025c,
hardware store,Toko Kayu,Toko bangunan Jufri,"887R+WQC, Jl. Belimbing, Bulu Mario, Kec. Sarudu, Kab. Pasangkayu, Sulawesi Barat 91573","Jl. Belimbing, Bulu Mario, Kec. Sarudu, Kab. Pasangkayu",SULAWESI BARAT,91573.0,Indonesia,,,,-1.6851793,119.34188,https://maps.google.com/?cid=0x0:0xdd534323d0686e66,
hardware store,Toko,Toko Sinar Matahari,"78R3+Q78, Sarudu, Kec. Sarudu, Kab. Pasangkayu, Sulawesi Barat 91573","Sarudu, Kec. Sarudu, Kab. Pasangkayu",SULAWESI BARAT,91573.0,Indonesia,,,,-1.7080893,119.303192,https://maps.google.com/?cid=0x0:0x5588542f9166adc5,
hardware store,Toko Bahan Bangunan,URBAN HARDWARE SDN BHD -BRANCH TIARA SENDAYAN,"NO28 , JALAN TIARA SENDAYAN BIZ 1 PUSAT KOMERSIAL TIARA SENDAYAN 71900 LABU, 71900 Sendayan, Negeri Sembilan, Malaysia",LABU,SULAWESI BARAT,71900.0,Indonesia,60189628045.0,,,2.7019349,101.8197629,https://maps.google.com/?cid=0x0:0xa906b70e08f74df5,
hardware store,hardware store,Sulawesi Barat 91571,"Kab. Pasangkayu, Sulawesi Barat","Kab. Pasangkayu, Sulawesi Barat",SULAWESI BARAT,,Indonesia,,,,-1.2916992,119.3714909,https://maps.google.com/?cid=0x0:0x12640eefba628a12,
hardware store,Toko,Toko Irfan Jaya,"Dusun Mekar, Tikke, Kec. Tikke Raya, Kab. Pasangkayu, Sulawesi Barat 91571","Tikke, Kec. Tikke Raya, Kab. Pasangkayu",SULAWESI BARAT,91571.0,Indonesia,85398000151.0,,,-1.3371374,119.3749605,https://maps.google.com/?cid=0x0:0x603cc9f5da5ed73c,
hardware store,Toko Bahan Bangunan,tokoh Rhizka,"Pajalele, Kec. Tikke Raya, Kab. Pasangkayu, Sulawesi Barat 91571","Kec. Tikke Raya, Kab. Pasangkayu",SULAWESI BARAT,91571.0,Indonesia,85930109146.0,,,-1.312261,119.412128,https://maps.google.com/?cid=0x0:0x810cfa8a41245811,
hardware store,Toko Bahan Bangunan,TOKO MARHANA 7,"Jl. Dr. Sam Ratulangi, Pasangkayu, Kec. Pasangkayu, Kab. Pasangkayu, Sulawesi Barat 91571","Pasangkayu, Kec. Pasangkayu, Kab. Pasangkayu",SULAWESI BARAT,91571.0,Indonesia,85231174115.0,,,-1.1751574,119.3694653,https://maps.google.com/?cid=0x0:0xb0b45a267f6def2a,
hardware store,Toko Bahan Bangunan,Toko Besi Multi Teknik,"R9GF+WF4, Pasangkayu, Kec. Pasangkayu, Kab. Pasangkayu, Sulawesi Barat 91574","Pasangkayu, Kec. Pasangkayu, Kab. Pasangkayu",SULAWESI BARAT,91574.0,Indonesia,8114533785.0,,,-1.172749,119.3737029,https://maps.google.com/?cid=0x0:0x97fa8b2b82e27bdb,
