Category,Real Category,Business Name,Address,City,State,Postal Code,Country,Phone,Email,Website,Latitude,Longitude,Map Link,Details Link
mall,Kantor Pemerintah,Desa Bambaira,"2GC4+FG9, Bambaira, Kec. Bambaira, Kab. Pasangkayu, Sulawesi Barat 91574","Bambaira, Kec. Bambaira, Kab. Pasangkayu",SULAWESI BARAT,91574.0,Indonesia,,,,-0.9788497,119.5063571,https://maps.google.com/?cid=0x0:0x4db0201848a1feb7,
mall,Kantor Perusahaan,Maleo Town Square,"Jl. Yos Sudarso No.37, Binanga, Kec. Mamuju, Kabupaten Mamuju, Sulawesi Barat 91511","Binanga, Kec. Mamuju, Kabupaten Mamuju",SULAWESI BARAT,91511.0,Indonesia,81280867009.0,,,-2.6692803,118.8916841,https://maps.google.com/?cid=0x0:0x87dbaf62ffc34e7c,
mall,Toko umum,Pasar Sentral Bambaloka,"C8CH+Q8M, Baras, Kec. Baras, Kab. Pasangkayu, Sulawesi Barat","Kab. Pasangkayu, Sulawesi Barat",SULAWESI BARAT,,Indonesia,,,,-1.5780288,119.3283123,https://maps.google.com/?cid=0x0:0x6bb66b75ebe9df4d,
mall,mall,Sulawesi Barat 91574,"Kab. Pasangkayu, Sulawesi Barat","Kab. Pasangkayu, Sulawesi Barat",SULAWESI BARAT,,Indonesia,,,,-1.1559774,119.464359,https://maps.google.com/?cid=0x0:0x87450841cbc25162,
mall,mall,Bambalamotu,"Kec. Bambalamotu, Kab. Pasangkayu, Sulawesi Barat","Kab. Pasangkayu, Sulawesi Barat",SULAWESI BARAT,,Indonesia,,,,-1.0952071,119.4614578,https://maps.google.com/?cid=0x0:0x2e0275783eb46598,
mall,Toko Pakaian,Toko NEAR HOME,"Bambalamotu, Kec. Bambalamotu, Kab. Pasangkayu, Sulawesi Barat 91574","Kec. Bambalamotu, Kab. Pasangkayu",SULAWESI BARAT,91574.0,Indonesia,,,,-1.0852983,119.4556077,https://maps.google.com/?cid=0x0:0xfb09984113fe1886,
mall,Pasar,Pasar Randomayang,"WFVF+RM7, Unnamed Road, Randomayang, Kec. Bambalamotu, Kab. Pasangkayu, Sulawesi Barat 91574","Unnamed Road, Randomayang, Kec. Bambalamotu, Kab. Pasangkayu",SULAWESI BARAT,91574.0,Indonesia,,,,-1.0554703,119.474181,https://maps.google.com/?cid=0x0:0x9c7c6fb95bdd49b1,
mall,Toko,TOKO SURYA,"VGWM+2HX, Kalola, Kec. Bambalamotu, Kab. Pasangkayu, Sulawesi Barat 91574","Kalola, Kec. Bambalamotu, Kab. Pasangkayu",SULAWESI BARAT,91574.0,Indonesia,82393210133.0,,,-1.104892,119.5339711,https://maps.google.com/?cid=0x0:0x30c0558b84460fa6,
mall,mall,Kec. Baras,"Kab. Pasangkayu, Sulawesi Barat","Kab. Pasangkayu, Sulawesi Barat",SULAWESI BARAT,,Indonesia,,,,-1.588752,119.3280298,https://maps.google.com/?cid=0x0:0x43abedd2f72d30c4,
mall,Toko umum,Pasar Sentral Bambaloka,"C8CH+Q8M, Baras, Kec. Baras, Kab. Pasangkayu, Sulawesi Barat","Kab. Pasangkayu, Sulawesi Barat",SULAWESI BARAT,,Indonesia,,,,-1.5780288,119.3283123,https://maps.google.com/?cid=0x0:0x6bb66b75ebe9df4d,
mall,Pusat Perbelanjaan,PASAR BESAR MOTU,"CCP2+PRG, Motu, Kec. Baras, Kab. Pasangkayu, Sulawesi Barat 91572","Motu, Kec. Baras, Kab. Pasangkayu",SULAWESI BARAT,91572.0,Indonesia,,,,-1.5631829,119.4020656,https://maps.google.com/?cid=0x0:0x9dcb1d53b23fb393,
mall,Komplek perumahan,TOKO IRMA,"F8VR+385, Unnamed Road, Kasano, Kec. Baras, Kab. Pasangkayu, Sulawesi Barat 91572","Unnamed Road, Kasano, Kec. Baras, Kab. Pasangkayu",SULAWESI BARAT,91572.0,Indonesia,82191842069.0,,,-1.5073566,119.3408645,https://maps.google.com/?cid=0x0:0xc05db84c7c778aac,
mall,Pusat Perbelanjaan,UD.ALISA,"CCP2+JVF, Motu, Kec. Baras, Kab. Pasangkayu, Sulawesi Barat 91572","Motu, Kec. Baras, Kab. Pasangkayu",SULAWESI BARAT,91572.0,Indonesia,85340098843.0,,,-1.563447,119.4021737,https://maps.google.com/?cid=0x0:0xefc388fcb00e8621,
mall,Pusat Perbelanjaan,Pasar Kasano,"F85X+C6W, Kasano, Kec. Baras, Kab. Pasangkayu, Sulawesi Barat 91572","Kasano, Kec. Baras, Kab. Pasangkayu",SULAWESI BARAT,91572.0,Indonesia,,,,-1.5413764,119.3480882,https://maps.google.com/?cid=0x0:0x464881e02a505ea5,
mall,Pusat Perbelanjaan,Aneka usaha zainal,"CCG3+RVG, Balanti, Kec. Baras, Kab. Pasangkayu, Sulawesi Barat 91572","Balanti, Kec. Baras, Kab. Pasangkayu",SULAWESI BARAT,91572.0,Indonesia,,,,-1.5729471,119.404713,https://maps.google.com/?cid=0x0:0x668632533fb7cd4d,
mall,Pembangunan Perumahan,KIOS SARI NUSA,"CCQ6+9M5, Unnamed Road, Motu, Kec. Baras, Kab. Pasangkayu, Sulawesi Barat 91572","Unnamed Road, Motu, Kec. Baras, Kab. Pasangkayu",SULAWESI BARAT,91572.0,Indonesia,85253621234.0,,,-1.5616082,119.4117239,https://maps.google.com/?cid=0x0:0xe6b5becd0bd69235,
mall,Pusat Perbelanjaan,Toko herlina,"F94X+9QW, Unnamed Road, Motu, Kec. Baras, Kab. Pasangkayu, Sulawesi Barat 91572","Unnamed Road, Motu, Kec. Baras, Kab. Pasangkayu",SULAWESI BARAT,91572.0,Indonesia,,,,-1.5440114,119.3994533,https://maps.google.com/?cid=0x0:0xb7dfea010722154e,
mall,Minimarket,Anoto,"CCQ3+3FF, Motu, Kec. Baras, Kab. Pasangkayu, Sulawesi Barat 91572","Motu, Kec. Baras, Kab. Pasangkayu",SULAWESI BARAT,91572.0,Indonesia,82189835695.0,,,-1.5623177,119.4036644,https://maps.google.com/?cid=0x0:0xf6f45b3ccb37de79,
mall,Toko Swalayan,Depot MITRA SEHAT,"CCP2+J6G, Unnamed Road, Motu, Kec. Baras, Kab. Pasangkayu, Sulawesi Barat 91572","Unnamed Road, Motu, Kec. Baras, Kab. Pasangkayu",SULAWESI BARAT,91572.0,Indonesia,81241528339.0,,,-1.5634464,119.4005653,https://maps.google.com/?cid=0x0:0x9e7ac6d2e732d83c,
mall,Toko Herbal,KZ Natural Slingshot,"FC54+P27, Motu, Kec. Baras, Kab. Pasangkayu, Sulawesi Barat 91572","Motu, Kec. Baras, Kab. Pasangkayu",SULAWESI BARAT,91572.0,Indonesia,,,,-1.5407114,119.4050577,https://maps.google.com/?cid=0x0:0xe473ed8b04625431,
mall,Pusat Perbelanjaan,Wahyu Firman Anugrah,"C99V+4QF, Balanti, Kec. Baras, Kab. Pasangkayu, Sulawesi Barat 91572","Balanti, Kec. Baras, Kab. Pasangkayu",SULAWESI BARAT,91572.0,Indonesia,81354328139.0,,,-1.5821922,119.3944271,https://maps.google.com/?cid=0x0:0x71c9736dd63fc7a3,
mall,Pusat Perbelanjaan,AQUALEN,"GC26+M4Q, Karave, Kec. Bulu Taba, Kab. Pasangkayu, Sulawesi Barat 91572","Karave, Kec. Bulu Taba, Kab. Pasangkayu",SULAWESI BARAT,91572.0,Indonesia,,,,-1.4982994,119.4103656,https://maps.google.com/?cid=0x0:0xbdc04e17e02fe647,
mall,Pusat Perbelanjaan,Toko Baju Hj.tati,"C86H+X6M, Baras, Kec. Baras, Kab. Pasangkayu, Sulawesi Barat 91572","Baras, Kec. Baras, Kab. Pasangkayu",SULAWESI BARAT,91572.0,Indonesia,82293930254.0,,,-1.5875303,119.3280511,https://maps.google.com/?cid=0x0:0x713be5022ff75fa1,
mall,Toko Beras,Toko beras berkah,"F89V+P96, Jl. Poros Majene - Mamuju, Kasano, Kec. Baras, Kab. Pasangkayu, Sulawesi Barat 91572","Jl. Poros Majene - Mamuju, Kasano, Kec. Baras, Kab. Pasangkayu",SULAWESI BARAT,91572.0,Indonesia,,,,-1.5306907,119.3433569,https://maps.google.com/?cid=0x0:0x60a02f4c4a59ca56,
mall,Pusat Perbelanjaan,Toko Azka,"CCP2+JQF, kompleks pasar desa, Motu, Kec. Baras, Kab. Pasangkayu, Sulawesi Barat 91572","kompleks pasar desa, Motu, Kec. Baras, Kab. Pasangkayu",SULAWESI BARAT,91572.0,Indonesia,81355049101.0,,,-1.5634302,119.4019135,https://maps.google.com/?cid=0x0:0x9f1d094a60673699,
mall,Kantor Perusahaan,Pasar desa tammarunang,"8CWC+QQ6, Tammarunang, Kec. Duripoku, Kab. Pasangkayu, Sulawesi Barat 91573","Tammarunang, Kec. Duripoku, Kab. Pasangkayu",SULAWESI BARAT,91573.0,Indonesia,,,,-1.6530769,119.4218786,https://maps.google.com/?cid=0x0:0xa6ea2e01a6b104c0,
mall,Toko bahan makanan,Reski sembako,"C8MG+9XP, Jl. Poros Palu - Mamuju, Kasano, Kec. Baras, Kab. Pasangkayu, Sulawesi Barat","Kab. Pasangkayu, Sulawesi Barat",SULAWESI BARAT,,Indonesia,,,,-1.5665431,119.3274461,https://maps.google.com/?cid=0x0:0x3dd3857a6aacc57c,
mall,Toko,Toko Fajar,"GC54+2J6, Karave, Kec. Bulu Taba, Kab. Pasangkayu, Sulawesi Barat 91572","Karave, Kec. Bulu Taba, Kab. Pasangkayu",SULAWESI BARAT,91572.0,Indonesia,82259113683.0,,,-1.492452,119.4065024,https://maps.google.com/?cid=0x0:0xf2a0ba442e785783,
mall,Pusat Perbelanjaan,TerasKota,"CBD Lot VII B, Jl. Pahlawan Seribu, Lengkong Gudang, Kec. Serpong, Kota Tangerang Selatan, Banten 15322","Jl. Pahlawan Seribu, Lengkong Gudang, Kec. Serpong, Kota Tangerang Selatan",SULAWESI BARAT,15322.0,Indonesia,2155695758.0,,,-6.2955633,106.6674867,https://maps.google.com/?cid=0x0:0x77f0f9f1b6b6cc39,
mall,Pusat Perbelanjaan,ITC BSD City,"Jl. Pahlawan Seribu No.12, Lengkong Wetan, Kec. Serpong, Kota Tangerang Selatan, Banten 15310","Lengkong Wetan, Kec. Serpong, Kota Tangerang Selatan",SULAWESI BARAT,15310.0,Indonesia,2153152500.0,,,-6.2863554,106.6649334,https://maps.google.com/?cid=0x0:0x7e01add1f1c13d19,
mall,Pusat Perbelanjaan,BSD Plaza,"Jl. Pahlawan Seribu Sektor 4, Lengkong Wetan, Serpong Sub-District, South Tangerang City, Banten 15322","Lengkong Wetan, Serpong Sub-District, South Tangerang City",SULAWESI BARAT,15322.0,Indonesia,215371171.0,,,-6.2794797,106.6625764,https://maps.google.com/?cid=0x0:0xfa4e7a509dd69041,
mall,Kafe,"Susu Mbok Darmi, Teras Kota","Teras Kota, CBD Lot, Jl. Pahlawan Seribu No.VII B, Lengkong Gudang, Serpong Sub-District, South Tangerang City, Banten 15322","CBD Lot, Jl. Pahlawan Seribu No.VII B, Lengkong Gudang, Serpong Sub-District, South Tangerang City",SULAWESI BARAT,15322.0,Indonesia,81190070902.0,,,-6.2955633,106.6674867,https://maps.google.com/?cid=0x0:0x3920f4e9f53746a3,
mall,Pusat Perbelanjaan,Teraskota,"Lengkong Gudang, Kec. Serpong, Kota Tangerang Selatan, Banten","Kota Tangerang Selatan, Banten",SULAWESI BARAT,,Indonesia,,,,-6.2952666,106.6666028,https://maps.google.com/?cid=0x0:0xf54c01b0e9c9ac63,
mall,Bioskop,CGV Cinemas - Teraskota,"BSD City, Teras Kota CBD Sektor IV Lot VIIB, Jl. Pahlawan Seribu, Lengkong Gudang, Kec. Serpong, Kota Tangerang Selatan, Banten 15310","Teras Kota CBD Sektor IV Lot VIIB, Jl. Pahlawan Seribu, Lengkong Gudang, Kec. Serpong, Kota Tangerang Selatan",SULAWESI BARAT,15310.0,Indonesia,2129200100.0,,,-6.2956056,106.6675338,https://maps.google.com/?cid=0x0:0xfdf6ee99c108d53e,
mall,Restoran,Solaria - TerasKota,"Solaria Teraskota Entertainment Center, Jl. Pahlawan Seribu No.Kel Lantai Dasar, Lengkong Gudang, Kec. Serpong, Kota Tangerang Selatan, Banten 15321","Jl. Pahlawan Seribu No.Kel Lantai Dasar, Lengkong Gudang, Kec. Serpong, Kota Tangerang Selatan",SULAWESI BARAT,15321.0,Indonesia,2114099.0,,,-6.2957071,106.6678155,https://maps.google.com/?cid=0x0:0xa87778ce3c435933,
mall,Toko Swalayan,Super Indo Mall Teras Kota,"CBD Lot VII B, BSD City, Jl. Pahlawan Seribu, Lengkong Gudang, Kec. Serpong, Kota Tangerang Selatan, Banten 15321","BSD City, Jl. Pahlawan Seribu, Lengkong Gudang, Kec. Serpong, Kota Tangerang Selatan",SULAWESI BARAT,15321.0,Indonesia,2129003118.0,,,-6.2953255,106.6683594,https://maps.google.com/?cid=0x0:0xa54a688c18e96d6b,
mall,Kedai Kopi,Starbucks Coffee - Teraskota Mall,"Jl. Pahlawan Seribu No.4, Lengkong Gudang, Kec. Serpong, Kota Tangerang Selatan, Banten 15321","Lengkong Gudang, Kec. Serpong, Kota Tangerang Selatan",SULAWESI BARAT,15321.0,Indonesia,2155695993.0,,,-6.2957586,106.6669937,https://maps.google.com/?cid=0x0:0x8709dffadebf506a,
mall,mall,Sulawesi Barat 91572,"Kab. Pasangkayu, Sulawesi Barat","Kab. Pasangkayu, Sulawesi Barat",SULAWESI BARAT,,Indonesia,,,,-1.5596509,119.5571677,https://maps.google.com/?cid=0x0:0xedbe1b42f4cf1266,
mall,Pusat Perbelanjaan,AQUALEN,"GC26+M4Q, Karave, Kec. Bulu Taba, Kab. Pasangkayu, Sulawesi Barat 91572","Karave, Kec. Bulu Taba, Kab. Pasangkayu",SULAWESI BARAT,91572.0,Indonesia,,,,-1.4982994,119.4103656,https://maps.google.com/?cid=0x0:0xbdc04e17e02fe647,
mall,Toko,Toko Palu mitra,"888R+QMQ, Bulu Mario, Kec. Sarudu, Kab. Pasangkayu, Sulawesi Barat 91573","Bulu Mario, Kec. Sarudu, Kab. Pasangkayu",SULAWESI BARAT,91573.0,Indonesia,85145516333.0,,,-1.6830473,119.341732,https://maps.google.com/?cid=0x0:0xe1cd8cacd16fc35f,
mall,Toko,Toko Fajar,"GC54+2J6, Karave, Kec. Bulu Taba, Kab. Pasangkayu, Sulawesi Barat 91572","Karave, Kec. Bulu Taba, Kab. Pasangkayu",SULAWESI BARAT,91572.0,Indonesia,82259113683.0,,,-1.492452,119.4065024,https://maps.google.com/?cid=0x0:0xf2a0ba442e785783,
mall,Kantor Perusahaan,Maleo Town Square,"Jl. Yos Sudarso No.37, Binanga, Kec. Mamuju, Kabupaten Mamuju, Sulawesi Barat 91511","Binanga, Kec. Mamuju, Kabupaten Mamuju",SULAWESI BARAT,91511.0,Indonesia,81280867009.0,,,-2.6692803,118.8916841,https://maps.google.com/?cid=0x0:0x87dbaf62ffc34e7c,
mall,Toko,Percetakan AL-HA,"GCJC+567, Lilimori, Kec. Bulu Taba, Kab. Pasangkayu, Sulawesi Barat 91572","Lilimori, Kec. Bulu Taba, Kab. Pasangkayu",SULAWESI BARAT,91572.0,Indonesia,81243623158.0,,,-1.4695888,119.4205388,https://maps.google.com/?cid=0x0:0x10cbe3aa3b053cf,
mall,Toko umum,Pasar Sentral Bambaloka,"C8CH+Q8M, Baras, Kec. Baras, Kab. Pasangkayu, Sulawesi Barat","Kab. Pasangkayu, Sulawesi Barat",SULAWESI BARAT,,Indonesia,,,,-1.5780288,119.3283123,https://maps.google.com/?cid=0x0:0x6bb66b75ebe9df4d,
mall,Toko Pakaian,HN STIKER,"887R+GP8, Bulu Mario, Kec. Sarudu, Kab. Pasangkayu, Sulawesi Barat 91573","Bulu Mario, Kec. Sarudu, Kab. Pasangkayu",SULAWESI BARAT,91573.0,Indonesia,82293040262.0,,,-1.6862203,119.3418344,https://maps.google.com/?cid=0x0:0xb8f671a37ce264b,
mall,Pusat Perbelanjaan,Toko jaya,"CCP2+JWF, Motu, Kec. Baras, Kab. Pasangkayu, Sulawesi Barat 91572","Motu, Kec. Baras, Kab. Pasangkayu",SULAWESI BARAT,91572.0,Indonesia,81354791110.0,,,-1.5634332,119.4022937,https://maps.google.com/?cid=0x0:0x51ee4afadb992386,
mall,mall,Kec. Bulu Taba,"Kab. Pasangkayu, Sulawesi Barat","Kab. Pasangkayu, Sulawesi Barat",SULAWESI BARAT,,Indonesia,,,,-1.4733942,119.4185045,https://maps.google.com/?cid=0x0:0xa9d419b10c294925,
mall,Pusat Perbelanjaan,MATOS MALL OTC,"8VJR+7MC, Jl. Yos Sudarso, Binanga, Kec. Mamuju, Kabupaten Mamuju, Sulawesi Barat 91511","Jl. Yos Sudarso, Binanga, Kec. Mamuju, Kabupaten Mamuju",SULAWESI BARAT,91511.0,Indonesia,,,,-2.669308,118.8916431,https://maps.google.com/?cid=0x0:0xd0c1f3bfb34f7b6,
mall,Pusat Perbelanjaan,PASAR BESAR MOTU,"CCP2+PRG, Motu, Kec. Baras, Kab. Pasangkayu, Sulawesi Barat 91572","Motu, Kec. Baras, Kab. Pasangkayu",SULAWESI BARAT,91572.0,Indonesia,,,,-1.5631829,119.4020656,https://maps.google.com/?cid=0x0:0x9dcb1d53b23fb393,
mall,Pusat Perbelanjaan,Aneka usaha zainal,"CCG3+RVG, Balanti, Kec. Baras, Kab. Pasangkayu, Sulawesi Barat 91572","Balanti, Kec. Baras, Kab. Pasangkayu",SULAWESI BARAT,91572.0,Indonesia,,,,-1.5729471,119.404713,https://maps.google.com/?cid=0x0:0x668632533fb7cd4d,
mall,Kantor Perusahaan,Pasar desa tammarunang,"8CWC+QQ6, Tammarunang, Kec. Duripoku, Kab. Pasangkayu, Sulawesi Barat 91573","Tammarunang, Kec. Duripoku, Kab. Pasangkayu",SULAWESI BARAT,91573.0,Indonesia,,,,-1.6530769,119.4218786,https://maps.google.com/?cid=0x0:0xa6ea2e01a6b104c0,
mall,Minimarket,Anoto,"CCQ3+3FF, Motu, Kec. Baras, Kab. Pasangkayu, Sulawesi Barat 91572","Motu, Kec. Baras, Kab. Pasangkayu",SULAWESI BARAT,91572.0,Indonesia,82189835695.0,,,-1.5623177,119.4036644,https://maps.google.com/?cid=0x0:0xf6f45b3ccb37de79,
mall,Pusat Perbelanjaan,UD.ALISA,"CCP2+JVF, Motu, Kec. Baras, Kab. Pasangkayu, Sulawesi Barat 91572","Motu, Kec. Baras, Kab. Pasangkayu",SULAWESI BARAT,91572.0,Indonesia,85340098843.0,,,-1.563447,119.4021737,https://maps.google.com/?cid=0x0:0xefc388fcb00e8621,
mall,Komplek perumahan,TOKO IRMA,"F8VR+385, Unnamed Road, Kasano, Kec. Baras, Kab. Pasangkayu, Sulawesi Barat 91572","Unnamed Road, Kasano, Kec. Baras, Kab. Pasangkayu",SULAWESI BARAT,91572.0,Indonesia,82191842069.0,,,-1.5073566,119.3408645,https://maps.google.com/?cid=0x0:0xc05db84c7c778aac,
mall,Pusat Perbelanjaan,Pekebunan Salak,"8CWF+8G2, Tammarunang, Kec. Duripoku, Kab. Pasangkayu, Sulawesi Barat 91573","Tammarunang, Kec. Duripoku, Kab. Pasangkayu",SULAWESI BARAT,91573.0,Indonesia,85399897013.0,,,-1.6542431,119.4237551,https://maps.google.com/?cid=0x0:0x21cee78ac6fd44ef,
mall,Pembangunan Perumahan,KIOS SARI NUSA,"CCQ6+9M5, Unnamed Road, Motu, Kec. Baras, Kab. Pasangkayu, Sulawesi Barat 91572","Unnamed Road, Motu, Kec. Baras, Kab. Pasangkayu",SULAWESI BARAT,91572.0,Indonesia,85253621234.0,,,-1.5616082,119.4117239,https://maps.google.com/?cid=0x0:0xe6b5becd0bd69235,
mall,Toko,Toko wawan Belawa mulia,"889R+64W, Unnamed Road, Bulu Mario, Kec. Sarudu, Kab. Pasangkayu, Sulawesi Barat 91573","Unnamed Road, Bulu Mario, Kec. Sarudu, Kab. Pasangkayu",SULAWESI BARAT,91573.0,Indonesia,81342729938.0,,,-1.6818854,119.3403431,https://maps.google.com/?cid=0x0:0x1ec099f41bcda0f1,
mall,Toko Swalayan,Depot MITRA SEHAT,"CCP2+J6G, Unnamed Road, Motu, Kec. Baras, Kab. Pasangkayu, Sulawesi Barat 91572","Unnamed Road, Motu, Kec. Baras, Kab. Pasangkayu",SULAWESI BARAT,91572.0,Indonesia,81241528339.0,,,-1.5634464,119.4005653,https://maps.google.com/?cid=0x0:0x9e7ac6d2e732d83c,
mall,Pusat Perbelanjaan,Toko herlina,"F94X+9QW, Unnamed Road, Motu, Kec. Baras, Kab. Pasangkayu, Sulawesi Barat 91572","Unnamed Road, Motu, Kec. Baras, Kab. Pasangkayu",SULAWESI BARAT,91572.0,Indonesia,,,,-1.5440114,119.3994533,https://maps.google.com/?cid=0x0:0xb7dfea010722154e,
mall,Toko Herbal,KZ Natural Slingshot,"FC54+P27, Motu, Kec. Baras, Kab. Pasangkayu, Sulawesi Barat 91572","Motu, Kec. Baras, Kab. Pasangkayu",SULAWESI BARAT,91572.0,Indonesia,,,,-1.5407114,119.4050577,https://maps.google.com/?cid=0x0:0xe473ed8b04625431,
mall,Pusat Perbelanjaan,Wahyu Firman Anugrah,"C99V+4QF, Balanti, Kec. Baras, Kab. Pasangkayu, Sulawesi Barat 91572","Balanti, Kec. Baras, Kab. Pasangkayu",SULAWESI BARAT,91572.0,Indonesia,81354328139.0,,,-1.5821922,119.3944271,https://maps.google.com/?cid=0x0:0x71c9736dd63fc7a3,
mall,Toko,Toko Nur Azlina,"G9G8+4FH, Unnamed Road, Parabu, Kec. Lariang, Kab. Pasangkayu, Sulawesi Barat 91572","Unnamed Road, Parabu, Kec. Lariang, Kab. Pasangkayu",SULAWESI BARAT,91572.0,Indonesia,85214936219.0,,,-1.4746921,119.366248,https://maps.google.com/?cid=0x0:0x47be94726fc19b66,
mall,Komplek perumahan,Minimarket,"Singgani, Kec. Lariang, Kab. Pasangkayu, Sulawesi Barat 91572","Kec. Lariang, Kab. Pasangkayu",SULAWESI BARAT,91572.0,Indonesia,81343909786.0,,,-1.4922657,119.3344037,https://maps.google.com/?cid=0x0:0x3a60103d5d85743b,
mall,Pusat Perbelanjaan,Toko Baju Hj.tati,"C86H+X6M, Baras, Kec. Baras, Kab. Pasangkayu, Sulawesi Barat 91572","Baras, Kec. Baras, Kab. Pasangkayu",SULAWESI BARAT,91572.0,Indonesia,82293930254.0,,,-1.5875303,119.3280511,https://maps.google.com/?cid=0x0:0x713be5022ff75fa1,
mall,mall,Sulawesi Barat 91512,"Kabupaten Mamuju, Sulawesi Barat","Kabupaten Mamuju, Sulawesi Barat",SULAWESI BARAT,,Indonesia,,,,-1.8494265,119.5339711,https://maps.google.com/?cid=0x0:0x8e21c401717b8ceb,
mall,Pasar,Pasar Limua,"785H+35J, Jl. Poros Majene - Mamuju, Dapurang, Kec. Dapurang, Kab. Pasangkayu, Sulawesi Barat 91573","Jl. Poros Majene - Mamuju, Dapurang, Kec. Dapurang, Kab. Pasangkayu",SULAWESI BARAT,91573.0,Indonesia,,,,-1.7422795,119.3278943,https://maps.google.com/?cid=0x0:0x28fda08e816a2eb5,
mall,Kantor Perusahaan,Maleo Town Square,"Jl. Yos Sudarso No.37, Binanga, Kec. Mamuju, Kabupaten Mamuju, Sulawesi Barat 91511","Binanga, Kec. Mamuju, Kabupaten Mamuju",SULAWESI BARAT,91511.0,Indonesia,81280867009.0,,,-2.6692803,118.8916841,https://maps.google.com/?cid=0x0:0x87dbaf62ffc34e7c,
mall,Toko Bahan Bangunan,Toko Buana Situju,"785H+6RQ, Jl. Poros Majene - Mamuju, Dapurang, Kec. Dapurang, Kab. Pasangkayu, Sulawesi Barat 91573","Jl. Poros Majene - Mamuju, Dapurang, Kec. Dapurang, Kab. Pasangkayu",SULAWESI BARAT,91573.0,Indonesia,,,,-1.7419249,119.3296143,https://maps.google.com/?cid=0x0:0x25cccb0304d1e22d,
mall,Pusat Perbelanjaan,MATOS MALL OTC,"8VJR+7MC, Jl. Yos Sudarso, Binanga, Kec. Mamuju, Kabupaten Mamuju, Sulawesi Barat 91511","Jl. Yos Sudarso, Binanga, Kec. Mamuju, Kabupaten Mamuju",SULAWESI BARAT,91511.0,Indonesia,,,,-2.669308,118.8916431,https://maps.google.com/?cid=0x0:0xd0c1f3bfb34f7b6,
mall,mall,Kec. Dapurang,"Kab. Pasangkayu, Sulawesi Barat","Kab. Pasangkayu, Sulawesi Barat",SULAWESI BARAT,,Indonesia,,,,-1.7420077,119.3284609,https://maps.google.com/?cid=0x0:0x38bdbd5f49f6d751,
mall,Kantor Perusahaan,Pasar desa tammarunang,"8CWC+QQ6, Tammarunang, Kec. Duripoku, Kab. Pasangkayu, Sulawesi Barat 91573","Tammarunang, Kec. Duripoku, Kab. Pasangkayu",SULAWESI BARAT,91573.0,Indonesia,,,,-1.6530769,119.4218786,https://maps.google.com/?cid=0x0:0xa6ea2e01a6b104c0,
mall,Pasar,Super MarioðŸ˜‹,"7CM3+6W7, Tamue, Benggaulu, Kec. Dapurang, Kab. Pasangkayu, Sulawesi Barat","Kab. Pasangkayu, Sulawesi Barat",SULAWESI BARAT,,Indonesia,,,,-1.7169726,119.4047879,https://maps.google.com/?cid=0x0:0x405c47d89f0ff236,
mall,Toko Swalayan,Fadlansyah buah,"Jl. Abd. Syakur, Karema, Kec. Mamuju, Kabupaten Mamuju, Sulawesi Barat 91512","Karema, Kec. Mamuju, Kabupaten Mamuju",SULAWESI BARAT,91512.0,Indonesia,82292085938.0,,,-2.6871415,118.8788258,https://maps.google.com/?cid=0x0:0xfbce5ec273c5d611,
mall,Pusat Perbelanjaan,SURYA MANDIRI,"Jl. Abdul Malik Pattana Endeng depan SMK 1, Rangas, Kec. Simboro Dan Kepulauan, Kabupaten Mamuju, Sulawesi Barat 91512","Rangas, Kec. Simboro Dan Kepulauan, Kabupaten Mamuju",SULAWESI BARAT,91512.0,Indonesia,85256279152.0,,,-2.6592083,118.8489541,https://maps.google.com/?cid=0x0:0x8d2ea0a5839873dc,
mall,Toko,Toko Terang Jaya,"5CH4+MJ5, Jl. Poros Majene - Mamuju, Lembah Hopo, Kec. Karossa, Kabupaten Mamuju Tengah, Sulawesi Barat 91512","Jl. Poros Majene - Mamuju, Lembah Hopo, Kec. Karossa, Kabupaten Mamuju Tengah",SULAWESI BARAT,91512.0,Indonesia,82196702319.0,,,-1.8208693,119.4066241,https://maps.google.com/?cid=0x0:0xeb6b65ba00395e5,
mall,Toko Ponsel,SM Cell,"5CX3+725, Lembah Hopo, Kec. Karossa, Kabupaten Mamuju, Sulawesi Barat 91512","Lembah Hopo, Kec. Karossa, Kabupaten Mamuju",SULAWESI BARAT,91512.0,Indonesia,81355888161.0,,,-1.8018546,119.4026196,https://maps.google.com/?cid=0x0:0xc7c69274eea271e4,
mall,Pusat Perbelanjaan,Fira olshop,"8V5M+22W, Jl. Soekarno Hatta, Karema, Kec. Mamuju, Kabupaten Mamuju, Sulawesi Barat 91512","Jl. Soekarno Hatta, Karema, Kec. Mamuju, Kabupaten Mamuju",SULAWESI BARAT,91512.0,Indonesia,82393144004.0,,,-2.6923887,118.8825733,https://maps.google.com/?cid=0x0:0xc72c846494ee4c01,
mall,Bengkel Motor Skuter,Jor's Motor,"8V8G+6GV, Karema, Kec. Mamuju, Kabupaten Mamuju, Sulawesi Barat 91512","Karema, Kec. Mamuju, Kabupaten Mamuju",SULAWESI BARAT,91512.0,Indonesia,81231458448.0,,,-2.6843802,118.8762842,https://maps.google.com/?cid=0x0:0xf14c404f4563369f,
mall,Kios,Fikar Cell,"69V5+Q45, Jalan Desa, Tirta Buana, Dapurang, Pasangkayu, West Sulawesi 91573","Jalan Desa, Tirta Buana, Dapurang, Pasangkayu",SULAWESI BARAT,91573.0,Indonesia,82395111173.0,,,-1.7556174,119.357872,https://maps.google.com/?cid=0x0:0xf0a5b7c3f171878d,
mall,Kios,PERTAMINI KIOS ARFA,"Jl. Poros Majene - Mamuju, Benggaulu, Kec. Dapurang, Kab. Pasangkayu, Sulawesi Barat 91573","Benggaulu, Kec. Dapurang, Kab. Pasangkayu",SULAWESI BARAT,91573.0,Indonesia,82245479787.0,,,-1.7363914,119.3878828,https://maps.google.com/?cid=0x0:0x3a8cc8f649f3f4c1,
mall,Bengkel Bongkar Pasang Mesin,Bengkel Las Express,"797Q+GPG, Jl. Poros Majene - Mamuju, Benggaulu, Kec. Dapurang, Kab. Pasangkayu, Sulawesi Barat 91573","Jl. Poros Majene - Mamuju, Benggaulu, Kec. Dapurang, Kab. Pasangkayu",SULAWESI BARAT,91573.0,Indonesia,85255812376.0,,,-1.7361793,119.3893169,https://maps.google.com/?cid=0x0:0x8762bc24eb13f10b,
mall,mall,PD Cantik Karossa,"6C55+F24, Karossa, Kec. Karossa, Kabupaten Mamuju, Sulawesi Barat 91512","Karossa, Kec. Karossa, Kabupaten Mamuju",SULAWESI BARAT,91512.0,Indonesia,81221430280.0,,,-1.7913537,119.4075739,https://maps.google.com/?cid=0x0:0x6299f5ba3ec513fc,
mall,Pusat Perbelanjaan,Shopping Complex Mall Pasangkayu,"M9W3+H7X, Pajalele, Pedongga, Kab. Pasangkayu, Sulawesi Barat 91571","Pajalele, Pedongga, Kab. Pasangkayu",SULAWESI BARAT,91571.0,Indonesia,426677852.0,,,-1.3026863,119.3523259,https://maps.google.com/?cid=0x0:0xd93191c787e3bdfa,
mall,mall,ardhy fajar77 cell,"Jl. Pababari No.15, Karema, Kec. Mamuju, Kabupaten Mamuju, Sulawesi Barat 91512","Karema, Kec. Mamuju, Kabupaten Mamuju",SULAWESI BARAT,91512.0,Indonesia,,,,-2.6859549,118.8805572,https://maps.google.com/?cid=0x0:0xd21d0779fea6ab31,
mall,mall,Dapurang,"Kec. Dapurang, Kab. Pasangkayu, Sulawesi Barat","Kab. Pasangkayu, Sulawesi Barat",SULAWESI BARAT,,Indonesia,,,,-1.7373218,119.3540715,https://maps.google.com/?cid=0x0:0x14e56f055de03929,
mall,Toko Bahan Bangunan,Toko Buana Situju,"785H+6RQ, Jl. Poros Majene - Mamuju, Dapurang, Kec. Dapurang, Kab. Pasangkayu, Sulawesi Barat 91573","Jl. Poros Majene - Mamuju, Dapurang, Kec. Dapurang, Kab. Pasangkayu",SULAWESI BARAT,91573.0,Indonesia,,,,-1.7419249,119.3296143,https://maps.google.com/?cid=0x0:0x25cccb0304d1e22d,
mall,Pasar,Pasar Limua,"785H+35J, Jl. Poros Majene - Mamuju, Dapurang, Kec. Dapurang, Kab. Pasangkayu, Sulawesi Barat 91573","Jl. Poros Majene - Mamuju, Dapurang, Kec. Dapurang, Kab. Pasangkayu",SULAWESI BARAT,91573.0,Indonesia,,,,-1.7422795,119.3278943,https://maps.google.com/?cid=0x0:0x28fda08e816a2eb5,
mall,Kios,Fikar Cell,"69V5+Q45, Jalan Desa, Tirta Buana, Dapurang, Pasangkayu, West Sulawesi 91573","Jalan Desa, Tirta Buana, Dapurang, Pasangkayu",SULAWESI BARAT,91573.0,Indonesia,82395111173.0,,,-1.7556174,119.357872,https://maps.google.com/?cid=0x0:0xf0a5b7c3f171878d,
mall,Pasar,Super MarioðŸ˜‹,"7CM3+6W7, Tamue, Benggaulu, Kec. Dapurang, Kab. Pasangkayu, Sulawesi Barat","Kab. Pasangkayu, Sulawesi Barat",SULAWESI BARAT,,Indonesia,,,,-1.7169726,119.4047879,https://maps.google.com/?cid=0x0:0x405c47d89f0ff236,
mall,Bengkel Bongkar Pasang Mesin,Bengkel Las Express,"797Q+GPG, Jl. Poros Majene - Mamuju, Benggaulu, Kec. Dapurang, Kab. Pasangkayu, Sulawesi Barat 91573","Jl. Poros Majene - Mamuju, Benggaulu, Kec. Dapurang, Kab. Pasangkayu",SULAWESI BARAT,91573.0,Indonesia,85255812376.0,,,-1.7361793,119.3893169,https://maps.google.com/?cid=0x0:0x8762bc24eb13f10b,
mall,Pusat Perbelanjaan,Sakura Mall Tanamoni Sarudu,"78J6+FQF, Sarudu, Kec. Sarudu, Kab. Pasangkayu, Sulawesi Barat","Kab. Pasangkayu, Sulawesi Barat",SULAWESI BARAT,,Indonesia,,,,-1.7188064,119.3119144,https://maps.google.com/?cid=0x0:0x523b1f86517391da,
mall,Tempat Ibadah,Masjid Limua Kec. Dapurang,"785H+V74, Dapurang, Kec. Dapurang, Kab. Pasangkayu, Sulawesi Barat 91573","Dapurang, Kec. Dapurang, Kab. Pasangkayu",SULAWESI BARAT,91573.0,Indonesia,,,,-1.7403643,119.3281967,https://maps.google.com/?cid=0x0:0x46970a96c309cec6,
mall,mall,Kec. Duripoku,"Kab. Pasangkayu, Sulawesi Barat","Kab. Pasangkayu, Sulawesi Barat",SULAWESI BARAT,,Indonesia,,,,-1.6543678,119.4203336,https://maps.google.com/?cid=0x0:0x2c307cba88191354,
mall,Kantor Perusahaan,Pasar desa tammarunang,"8CWC+QQ6, Tammarunang, Kec. Duripoku, Kab. Pasangkayu, Sulawesi Barat 91573","Tammarunang, Kec. Duripoku, Kab. Pasangkayu",SULAWESI BARAT,91573.0,Indonesia,,,,-1.6530769,119.4218786,https://maps.google.com/?cid=0x0:0xa6ea2e01a6b104c0,
mall,Pusat Perbelanjaan,Pekebunan Salak,"8CWF+8G2, Tammarunang, Kec. Duripoku, Kab. Pasangkayu, Sulawesi Barat 91573","Tammarunang, Kec. Duripoku, Kab. Pasangkayu",SULAWESI BARAT,91573.0,Indonesia,85399897013.0,,,-1.6542431,119.4237551,https://maps.google.com/?cid=0x0:0x21cee78ac6fd44ef,
mall,Toko Pakaian,Rahman Tailor,"Tammarunang, Kec. Duripoku, Kab. Pasangkayu, Sulawesi Barat","Kab. Pasangkayu, Sulawesi Barat",SULAWESI BARAT,,Indonesia,81935664576.0,,,-1.6558747,119.4153737,https://maps.google.com/?cid=0x0:0x839b5beee97a4365,
mall,Toko Pakaian,HN STIKER,"887R+GP8, Bulu Mario, Kec. Sarudu, Kab. Pasangkayu, Sulawesi Barat 91573","Bulu Mario, Kec. Sarudu, Kab. Pasangkayu",SULAWESI BARAT,91573.0,Indonesia,82293040262.0,,,-1.6862203,119.3418344,https://maps.google.com/?cid=0x0:0xb8f671a37ce264b,
mall,Pasar,Super MarioðŸ˜‹,"7CM3+6W7, Tamue, Benggaulu, Kec. Dapurang, Kab. Pasangkayu, Sulawesi Barat","Kab. Pasangkayu, Sulawesi Barat",SULAWESI BARAT,,Indonesia,,,,-1.7169726,119.4047879,https://maps.google.com/?cid=0x0:0x405c47d89f0ff236,
mall,Toko,Toko wawan Belawa mulia,"889R+64W, Unnamed Road, Bulu Mario, Kec. Sarudu, Kab. Pasangkayu, Sulawesi Barat 91573","Unnamed Road, Bulu Mario, Kec. Sarudu, Kab. Pasangkayu",SULAWESI BARAT,91573.0,Indonesia,81342729938.0,,,-1.6818854,119.3403431,https://maps.google.com/?cid=0x0:0x1ec099f41bcda0f1,
mall,Toko,Toko Palu mitra,"888R+QMQ, Bulu Mario, Kec. Sarudu, Kab. Pasangkayu, Sulawesi Barat 91573","Bulu Mario, Kec. Sarudu, Kab. Pasangkayu",SULAWESI BARAT,91573.0,Indonesia,85145516333.0,,,-1.6830473,119.341732,https://maps.google.com/?cid=0x0:0xe1cd8cacd16fc35f,
mall,Kios,PERTAMINI KIOS ARFA,"Jl. Poros Majene - Mamuju, Benggaulu, Kec. Dapurang, Kab. Pasangkayu, Sulawesi Barat 91573","Benggaulu, Kec. Dapurang, Kab. Pasangkayu",SULAWESI BARAT,91573.0,Indonesia,82245479787.0,,,-1.7363914,119.3878828,https://maps.google.com/?cid=0x0:0x3a8cc8f649f3f4c1,
mall,Toko Kue,FIRDA CAKE  COKIES,"888R+RGC, Bulu Mario, Kec. Sarudu, Kab. Pasangkayu, Sulawesi Barat 91573","Bulu Mario, Kec. Sarudu, Kab. Pasangkayu",SULAWESI BARAT,91573.0,Indonesia,85399192996.0,,,-1.6829404,119.3412563,https://maps.google.com/?cid=0x0:0xa55fee8f9493ad9f,
mall,Pusat Perbelanjaan,Aneka usaha zainal,"CCG3+RVG, Balanti, Kec. Baras, Kab. Pasangkayu, Sulawesi Barat 91572","Balanti, Kec. Baras, Kab. Pasangkayu",SULAWESI BARAT,91572.0,Indonesia,,,,-1.5729471,119.404713,https://maps.google.com/?cid=0x0:0x668632533fb7cd4d,
mall,Toko Swalayan,UD. BERKAH TANI 2 BULUMARIO,"Lr. 6 barat, Bulu Mario, Kec. Sarudu, Kab. Pasangkayu, Sulawesi Barat 91573","Bulu Mario, Kec. Sarudu, Kab. Pasangkayu",SULAWESI BARAT,91573.0,Indonesia,81343540212.0,,,-1.6827922,119.3397661,https://maps.google.com/?cid=0x0:0xf1833c8fa6556111,
mall,Seafood,pasar ikan kuma,"88GP+GMJ, Bulu Mario, Kec. Sarudu, Kab. Pasangkayu, Sulawesi Barat 91573","Bulu Mario, Kec. Sarudu, Kab. Pasangkayu",SULAWESI BARAT,91573.0,Indonesia,85298577072.0,,,-1.6736559,119.3366501,https://maps.google.com/?cid=0x0:0x8de420fd7eff9682,
mall,Toko umum,Pasar Sentral Bambaloka,"C8CH+Q8M, Baras, Kec. Baras, Kab. Pasangkayu, Sulawesi Barat","Kab. Pasangkayu, Sulawesi Barat",SULAWESI BARAT,,Indonesia,,,,-1.5780288,119.3283123,https://maps.google.com/?cid=0x0:0x6bb66b75ebe9df4d,
mall,Pusat Perbelanjaan,Toko jaya,"CCP2+JWF, Motu, Kec. Baras, Kab. Pasangkayu, Sulawesi Barat 91572","Motu, Kec. Baras, Kab. Pasangkayu",SULAWESI BARAT,91572.0,Indonesia,81354791110.0,,,-1.5634332,119.4022937,https://maps.google.com/?cid=0x0:0x51ee4afadb992386,
mall,Pusat Perbelanjaan,Wahyu Firman Anugrah,"C99V+4QF, Balanti, Kec. Baras, Kab. Pasangkayu, Sulawesi Barat 91572","Balanti, Kec. Baras, Kab. Pasangkayu",SULAWESI BARAT,91572.0,Indonesia,81354328139.0,,,-1.5821922,119.3944271,https://maps.google.com/?cid=0x0:0x71c9736dd63fc7a3,
mall,Bengkel Bongkar Pasang Mesin,Bengkel Las Express,"797Q+GPG, Jl. Poros Majene - Mamuju, Benggaulu, Kec. Dapurang, Kab. Pasangkayu, Sulawesi Barat 91573","Jl. Poros Majene - Mamuju, Benggaulu, Kec. Dapurang, Kab. Pasangkayu",SULAWESI BARAT,91573.0,Indonesia,85255812376.0,,,-1.7361793,119.3893169,https://maps.google.com/?cid=0x0:0x8762bc24eb13f10b,
mall,Pusat Perbelanjaan,Shopping Complex Mall Pasangkayu,"M9W3+H7X, Pajalele, Pedongga, Kab. Pasangkayu, Sulawesi Barat 91571","Pajalele, Pedongga, Kab. Pasangkayu",SULAWESI BARAT,91571.0,Indonesia,426677852.0,,,-1.3026863,119.3523259,https://maps.google.com/?cid=0x0:0xd93191c787e3bdfa,
mall,Toko Swalayan,Depot MITRA SEHAT,"CCP2+J6G, Unnamed Road, Motu, Kec. Baras, Kab. Pasangkayu, Sulawesi Barat 91572","Unnamed Road, Motu, Kec. Baras, Kab. Pasangkayu",SULAWESI BARAT,91572.0,Indonesia,81241528339.0,,,-1.5634464,119.4005653,https://maps.google.com/?cid=0x0:0x9e7ac6d2e732d83c,
mall,Pusat Perbelanjaan,UD.ALISA,"CCP2+JVF, Motu, Kec. Baras, Kab. Pasangkayu, Sulawesi Barat 91572","Motu, Kec. Baras, Kab. Pasangkayu",SULAWESI BARAT,91572.0,Indonesia,85340098843.0,,,-1.563447,119.4021737,https://maps.google.com/?cid=0x0:0xefc388fcb00e8621,
mall,mall,Kec. Lariang,"Kab. Pasangkayu, Sulawesi Barat","Kab. Pasangkayu, Sulawesi Barat",SULAWESI BARAT,,Indonesia,,,,-1.4747552,119.3681607,https://maps.google.com/?cid=0x0:0x9800acb19cdd3433,
mall,Komplek perumahan,Minimarket,"Singgani, Kec. Lariang, Kab. Pasangkayu, Sulawesi Barat 91572","Kec. Lariang, Kab. Pasangkayu",SULAWESI BARAT,91572.0,Indonesia,81343909786.0,,,-1.4922657,119.3344037,https://maps.google.com/?cid=0x0:0x3a60103d5d85743b,
mall,Toko,Toko Nur Azlina,"G9G8+4FH, Unnamed Road, Parabu, Kec. Lariang, Kab. Pasangkayu, Sulawesi Barat 91572","Unnamed Road, Parabu, Kec. Lariang, Kab. Pasangkayu",SULAWESI BARAT,91572.0,Indonesia,85214936219.0,,,-1.4746921,119.366248,https://maps.google.com/?cid=0x0:0x47be94726fc19b66,
mall,Toko bahan makanan,Toko Smber urip,"G9GG+MW7, Dusun lestari, Parabu, Kec. Lariang, Kab. Pasangkayu, Sulawesi Barat 91572","Dusun lestari, Parabu, Kec. Lariang, Kab. Pasangkayu",SULAWESI BARAT,91572.0,Indonesia,82346795580.0,,,-1.4733478,119.3772969,https://maps.google.com/?cid=0x0:0x9af4aeb81faa9d7d,
mall,Toko,Toko wahyu,"H984+V85, Jl. Poros Palu - Mamuju, Lariang, Kec. Tikke Raya, Kab. Pasangkayu, Sulawesi Barat 91571","Jl. Poros Palu - Mamuju, Lariang, Kec. Tikke Raya, Kab. Pasangkayu",SULAWESI BARAT,91571.0,Indonesia,,,,-1.4323898,119.3569262,https://maps.google.com/?cid=0x0:0x5f4fee09ca229282,
mall,Komplek perumahan,TOKO IRMA,"F8VR+385, Unnamed Road, Kasano, Kec. Baras, Kab. Pasangkayu, Sulawesi Barat 91572","Unnamed Road, Kasano, Kec. Baras, Kab. Pasangkayu",SULAWESI BARAT,91572.0,Indonesia,82191842069.0,,,-1.5073566,119.3408645,https://maps.google.com/?cid=0x0:0xc05db84c7c778aac,
mall,Pusat Perbelanjaan,Nisfah Frozen Food,"Jl. Desa Bajawali No.mor.198, Kenangan, Kec. Lariang, Kab. Pasangkayu, Sulawesi Barat 91572","Kenangan, Kec. Lariang, Kab. Pasangkayu",SULAWESI BARAT,91572.0,Indonesia,85223770041.0,,,-1.4892663,119.3575096,https://maps.google.com/?cid=0x0:0xadf203e4acaefb23,
mall,Pusat Perbelanjaan,AQUALEN,"GC26+M4Q, Karave, Kec. Bulu Taba, Kab. Pasangkayu, Sulawesi Barat 91572","Karave, Kec. Bulu Taba, Kab. Pasangkayu",SULAWESI BARAT,91572.0,Indonesia,,,,-1.4982994,119.4103656,https://maps.google.com/?cid=0x0:0xbdc04e17e02fe647,
mall,Toko,Toko Fajar,"GC54+2J6, Karave, Kec. Bulu Taba, Kab. Pasangkayu, Sulawesi Barat 91572","Karave, Kec. Bulu Taba, Kab. Pasangkayu",SULAWESI BARAT,91572.0,Indonesia,82259113683.0,,,-1.492452,119.4065024,https://maps.google.com/?cid=0x0:0xf2a0ba442e785783,
mall,Pusat Perbelanjaan,Shopping Complex Mall Pasangkayu,"M9W3+H7X, Pajalele, Pedongga, Kab. Pasangkayu, Sulawesi Barat 91571","Pajalele, Pedongga, Kab. Pasangkayu",SULAWESI BARAT,91571.0,Indonesia,426677852.0,,,-1.3026863,119.3523259,https://maps.google.com/?cid=0x0:0xd93191c787e3bdfa,
mall,mall,Sulawesi Barat 91571,"Kab. Pasangkayu, Sulawesi Barat","Kab. Pasangkayu, Sulawesi Barat",SULAWESI BARAT,,Indonesia,,,,-1.2916992,119.3714909,https://maps.google.com/?cid=0x0:0x12640eefba628a12,
mall,Pusat Perbelanjaan,Shopping Complex Mall Pasangkayu,"M9W3+H7X, Pajalele, Pedongga, Kab. Pasangkayu, Sulawesi Barat 91571","Pajalele, Pedongga, Kab. Pasangkayu",SULAWESI BARAT,91571.0,Indonesia,426677852.0,,,-1.3026863,119.3523259,https://maps.google.com/?cid=0x0:0xd93191c787e3bdfa,
mall,Pusat Perbelanjaan,Candy Meow Mall Plaza Pasangkayu,"P8PJ+8X2, Malei, Pedongga, Kab. Pasangkayu, Sulawesi Barat 91571","Malei, Pedongga, Kab. Pasangkayu",SULAWESI BARAT,91571.0,Indonesia,426983455.0,,,-1.2639575,119.3330304,https://maps.google.com/?cid=0x0:0x64b72be964041a98,
mall,Pusat Perbelanjaan,My Mall Players City Pasangkayu,"R98J+CR, Pasangkayu, Kec. Pasangkayu, Kab. Pasangkayu, Sulawesi Barat","Kab. Pasangkayu, Sulawesi Barat",SULAWESI BARAT,,Indonesia,426667755.0,,,-1.1838851,119.3820686,https://maps.google.com/?cid=0x0:0x57379b1340284e9c,
mall,Toko,ANEKA WARNA PHOTO,"R9G8+689, Jl. Imam Bonjol, Pasangkayu, Kec. Pasangkayu, Kab. Pasangkayu, Sulawesi Barat 91574","Jl. Imam Bonjol, Pasangkayu, Kec. Pasangkayu, Kab. Pasangkayu",SULAWESI BARAT,91574.0,Indonesia,,,,-1.1744559,119.3658749,https://maps.google.com/?cid=0x0:0xd0e7555e68a25f9d,
mall,Pusat Perbelanjaan,Plaza Play City Mall Pasangkayu,"R9FG+4G9, Jl. Ambo Djiwa, Pasangkayu, Kec. Pasangkayu, Kab. Pasangkayu, Sulawesi Barat 91574","Jl. Ambo Djiwa, Pasangkayu, Kec. Pasangkayu, Kab. Pasangkayu",SULAWESI BARAT,91574.0,Indonesia,426976585.0,,,-1.1772976,119.3762629,https://maps.google.com/?cid=0x0:0x7af8eb52180eece8,
mall,Pembangunan Perumahan,Toko Rani pasangkayu,"R9F9+8W6, Pasangkayu, Kec. Pasangkayu, Kab. Pasangkayu, Sulawesi Barat 91574","Pasangkayu, Kec. Pasangkayu, Kab. Pasangkayu",SULAWESI BARAT,91574.0,Indonesia,81342417716.0,,,-1.1767197,119.3697754,https://maps.google.com/?cid=0x0:0xaa5316d14949ef21,
mall,Pasar,Pasar Tikke Raya,"M97G+RF3, Tikke, Kec. Tikke Raya, Kab. Pasangkayu, Sulawesi Barat 91571","Tikke, Kec. Tikke Raya, Kab. Pasangkayu",SULAWESI BARAT,91571.0,Indonesia,,,,-1.3354834,119.3761706,https://maps.google.com/?cid=0x0:0x92219c20e9174fa7,
mall,Kantor Perusahaan,ABANGCELL 01,"Jl. Ir. Soekarno, Pasangkayu, Kec. Pasangkayu, Kab. Pasangkayu, Sulawesi Barat 91574","Pasangkayu, Kec. Pasangkayu, Kab. Pasangkayu",SULAWESI BARAT,91574.0,Indonesia,85333337943.0,,,-1.1795748,119.3638884,https://maps.google.com/?cid=0x0:0xa9f0b3384409411c,
mall,Toko,Toko robusta,"Pasangkayu, Kec. Pasangkayu, Kab. Pasangkayu, Sulawesi Barat 91574","Kec. Pasangkayu, Kab. Pasangkayu",SULAWESI BARAT,91574.0,Indonesia,82189919189.0,,,-1.1744788,119.3692864,https://maps.google.com/?cid=0x0:0xfee1e741d98e193f,
mall,Kafe,BOBA CHA SIGNATURE DRINK PASANGKAYU,"R9C7+25X, Jl. Ir. Soekarno, Pasangkayu, Kec. Pasangkayu, Kab. Pasangkayu, Sulawesi Barat 91574","Jl. Ir. Soekarno, Pasangkayu, Kec. Pasangkayu, Kab. Pasangkayu",SULAWESI BARAT,91574.0,Indonesia,85333337943.0,,,-1.1798834,119.3629809,https://maps.google.com/?cid=0x0:0x6abcd16b16b6473a,
mall,Toko Pakaian Pria,Abu Ahyar Collection,"Jl. Andi Depu, Pasangkayu, Kec. Pasangkayu, Kab. Pasangkayu, Sulawesi Barat 91574","Pasangkayu, Kec. Pasangkayu, Kab. Pasangkayu",SULAWESI BARAT,91574.0,Indonesia,81243116735.0,,,-1.1740615,119.3673303,https://maps.google.com/?cid=0x0:0x115867469019f3e2,
mall,Minimarket,Aiy Store,"Jl. Poros Majene - Mamuju, Pajalele, Kec. Tikke Raya, Kab. Pasangkayu, Sulawesi Barat 91571","Pajalele, Kec. Tikke Raya, Kab. Pasangkayu",SULAWESI BARAT,91571.0,Indonesia,,,,-1.324268,119.378368,https://maps.google.com/?cid=0x0:0x27dfa0dfff99d722,
mall,Toko,Kios Najwa 3,"R995+JJV Samping Warung Jentak, Jl. Ir. Soekarno, Pasangkayu, Kec. Pasangkayu, Kab. Pasangkayu, Sulawesi Barat 91571","Jl. Ir. Soekarno, Pasangkayu, Kec. Pasangkayu, Kab. Pasangkayu",SULAWESI BARAT,91571.0,Indonesia,82397983971.0,,,-1.1808988,119.3590506,https://maps.google.com/?cid=0x0:0xfed903ef6c6e19ad,
mall,Toko Buah dan Sayur,Buah trans,"R9F9+HV4, Pasangkayu, Kec. Pasangkayu, Kab. Pasangkayu, Sulawesi Barat 91574","Pasangkayu, Kec. Pasangkayu, Kab. Pasangkayu",SULAWESI BARAT,91574.0,Indonesia,85343707448.0,,,-1.1761157,119.3697005,https://maps.google.com/?cid=0x0:0xfed835ab479bf475,
mall,Pusat Perbelanjaan,Toko mufti,"M98H+9PJ, Tikke, Kec. Tikke Raya, Kab. Pasangkayu, Sulawesi Barat 91571","Tikke, Kec. Tikke Raya, Kab. Pasangkayu",SULAWESI BARAT,91571.0,Indonesia,,,,-1.3340275,119.3792796,https://maps.google.com/?cid=0x0:0x133a80062666e15a,
mall,Toko umum,Kios Berkah,"J9X9+FPF, Jengeng Raya, Kec. Tikke Raya, Kab. Pasangkayu, Sulawesi Barat 91571","Jengeng Raya, Kec. Tikke Raya, Kab. Pasangkayu",SULAWESI BARAT,91571.0,Indonesia,82199470279.0,,,-1.3513137,119.3693058,https://maps.google.com/?cid=0x0:0x51bfcbd62aa02a41,
mall,Pusat Perbelanjaan,KUE LAA BOEGIS,"R9GF+562, Pasangkayu, Kec. Pasangkayu, Kab. Pasangkayu, Sulawesi Barat 91574","Pasangkayu, Kec. Pasangkayu, Kab. Pasangkayu",SULAWESI BARAT,91574.0,Indonesia,82348470158.0,,,-1.1746052,119.3730219,https://maps.google.com/?cid=0x0:0x62d18df77e932f4e,
mall,Kantor Perusahaan,Toko Bumdes,"M9FH+QJV, Jl. Poros Palu - Mamuju, Pajalele, Kec. Tikke Raya, Kab. Pasangkayu, Sulawesi Barat 91571","Jl. Poros Palu - Mamuju, Pajalele, Kec. Tikke Raya, Kab. Pasangkayu",SULAWESI BARAT,91571.0,Indonesia,8112141141.0,,,-1.3255062,119.3790528,https://maps.google.com/?cid=0x0:0x42fcd8443bed6849,
mall,Bengkel Mobil,Benkel Nabil Motor,"M95C+2GP, Jl. Poros Majene - Mamuju, Tikke, Kec. Tikke Raya, Kab. Pasangkayu, Sulawesi Barat 91571","Jl. Poros Majene - Mamuju, Tikke, Kec. Tikke Raya, Kab. Pasangkayu",SULAWESI BARAT,91571.0,Indonesia,82195041490.0,,,-1.3424228,119.3713136,https://maps.google.com/?cid=0x0:0x2971d800ab271b08,
mall,Toko,ANEKA PLASTIK PASANGKAYU,"R9C9+583, Jl. Ir. Soekarno, Pasangkayu, Kec. Pasangkayu, Kab. Pasangkayu, Sulawesi Barat 91574","Jl. Ir. Soekarno, Pasangkayu, Kec. Pasangkayu, Kab. Pasangkayu",SULAWESI BARAT,91574.0,Indonesia,8114944555.0,,,-1.1796083,119.3683088,https://maps.google.com/?cid=0x0:0x96990e4cb4e994c4,
mall,Toko Ponsel,ALIFA CELLULER TIKKE,"Dpn BRI , ALIFA CELL, Dekat Jembatan Tikke, Pajalele, Kec. Tikke Raya, Kab. Pasangkayu, Sulawesi Barat 91571","ALIFA CELL, Dekat Jembatan Tikke, Pajalele, Kec. Tikke Raya, Kab. Pasangkayu",SULAWESI BARAT,91571.0,Indonesia,85242817811.0,,,-1.3332649,119.3798613,https://maps.google.com/?cid=0x0:0xac80539310c1d384,
mall,Pasar,Rezky Mart Pasangkayu,"R9CF+X9V, Pasangkayu, Kec. Pasangkayu, Kab. Pasangkayu, Sulawesi Barat 91574","Pasangkayu, Kec. Pasangkayu, Kab. Pasangkayu",SULAWESI BARAT,91574.0,Indonesia,4577021866.0,,,-1.1775055,119.3734329,https://maps.google.com/?cid=0x0:0x985891a2092f80eb,
mall,mall,Pedongga,"Kab. Pasangkayu, Sulawesi Barat","Kab. Pasangkayu, Sulawesi Barat",SULAWESI BARAT,,Indonesia,,,,-1.2745455,119.3947138,https://maps.google.com/?cid=0x0:0x9cbcb3a80b2b146e,
mall,Pusat Perbelanjaan,Shopping Complex Mall Pasangkayu,"M9W3+H7X, Pajalele, Pedongga, Kab. Pasangkayu, Sulawesi Barat 91571","Pajalele, Pedongga, Kab. Pasangkayu",SULAWESI BARAT,91571.0,Indonesia,426677852.0,,,-1.3026863,119.3523259,https://maps.google.com/?cid=0x0:0xd93191c787e3bdfa,
mall,Pusat Perbelanjaan,Candy Meow Mall Plaza Pasangkayu,"P8PJ+8X2, Malei, Pedongga, Kab. Pasangkayu, Sulawesi Barat 91571","Malei, Pedongga, Kab. Pasangkayu",SULAWESI BARAT,91571.0,Indonesia,426983455.0,,,-1.2639575,119.3330304,https://maps.google.com/?cid=0x0:0x64b72be964041a98,
mall,Pusat Perbelanjaan,Toko Siporannu 2,"Jl. Poros Majene - Mamuju, Letawa, Kec. Sarjo, Kab. Pasangkayu, Sulawesi Barat 91574","Letawa, Kec. Sarjo, Kab. Pasangkayu",SULAWESI BARAT,91574.0,Indonesia,,,,-0.8996518,119.5410075,https://maps.google.com/?cid=0x0:0x453b1bc3f0041512,
mall,mall,Sulawesi Barat 91574,"Kab. Pasangkayu, Sulawesi Barat","Kab. Pasangkayu, Sulawesi Barat",SULAWESI BARAT,,Indonesia,,,,-1.1559774,119.464359,https://maps.google.com/?cid=0x0:0x87450841cbc25162,
mall,Toko Bahan Bangunan,Toko Siporannu,"4HH3+27V, Jl. Poros Majene - Mamuju, Sarjo, Kec. Sarjo, Kab. Pasangkayu, Sulawesi Barat 91574","Jl. Poros Majene - Mamuju, Sarjo, Kec. Sarjo, Kab. Pasangkayu",SULAWESI BARAT,91574.0,Indonesia,,,,-0.8723998,119.5531811,https://maps.google.com/?cid=0x0:0xb953bab90e153a9,
mall,Toko,Najwa Stiker,"3GXQ+QW2, Letawa, Kec. Sarjo, Kab. Pasangkayu, Sulawesi Barat 91574","Letawa, Kec. Sarjo, Kab. Pasangkayu",SULAWESI BARAT,91574.0,Indonesia,81355989661.0,,,-0.9006089,119.5397596,https://maps.google.com/?cid=0x0:0x977b6df7b6515cbf,
mall,Pusat Perbelanjaan,Sakura Mall Tanamoni Sarudu,"78J6+FQF, Sarudu, Kec. Sarudu, Kab. Pasangkayu, Sulawesi Barat","Kab. Pasangkayu, Sulawesi Barat",SULAWESI BARAT,,Indonesia,,,,-1.7188064,119.3119144,https://maps.google.com/?cid=0x0:0x523b1f86517391da,
mall,Pasar,Pasar Sempo,"Sarudu, Kec. Sarudu, Kab. Pasangkayu, Sulawesi Barat 91573","Kec. Sarudu, Kab. Pasangkayu",SULAWESI BARAT,91573.0,Indonesia,,,,-1.7105001,119.3057894,https://maps.google.com/?cid=0x0:0x1eae297836dc902f,
mall,Kios,MUTIARA SARUDU,"78J6+96Q, Jl. Poros Majene - Mamuju, Sarudu, Kec. Sarudu, Kab. Pasangkayu, Sulawesi Barat 91573","Jl. Poros Majene - Mamuju, Sarudu, Kec. Sarudu, Kab. Pasangkayu",SULAWESI BARAT,91573.0,Indonesia,,,,-1.7188095,119.3106702,https://maps.google.com/?cid=0x0:0xf0a8a0190a5d0b38,
mall,mall,Sarudu,"Kec. Sarudu, Kab. Pasangkayu, Sulawesi Barat","Kab. Pasangkayu, Sulawesi Barat",SULAWESI BARAT,,Indonesia,,,,-1.6954473,119.3076098,https://maps.google.com/?cid=0x0:0x4d23a34e4d81dc54,
mall,Toko Ponsel,Sakura Cell,"8825+P63, Sarudu, Kec. Sarudu, Kab. Pasangkayu, Sulawesi Barat 91573","Sarudu, Kec. Sarudu, Kab. Pasangkayu",SULAWESI BARAT,91573.0,Indonesia,,,,-1.6982357,119.3080416,https://maps.google.com/?cid=0x0:0xfd59a60ee78ca679,
mall,Toko Pakaian,HN STIKER,"887R+GP8, Bulu Mario, Kec. Sarudu, Kab. Pasangkayu, Sulawesi Barat 91573","Bulu Mario, Kec. Sarudu, Kab. Pasangkayu",SULAWESI BARAT,91573.0,Indonesia,82293040262.0,,,-1.6862203,119.3418344,https://maps.google.com/?cid=0x0:0xb8f671a37ce264b,
mall,Toko,Toko Palu mitra,"888R+QMQ, Bulu Mario, Kec. Sarudu, Kab. Pasangkayu, Sulawesi Barat 91573","Bulu Mario, Kec. Sarudu, Kab. Pasangkayu",SULAWESI BARAT,91573.0,Indonesia,85145516333.0,,,-1.6830473,119.341732,https://maps.google.com/?cid=0x0:0xe1cd8cacd16fc35f,
mall,Toko Ponsel,Arif Cell Sarudu,"Jl. Poros Majene - Mamuju, Sarudu, Kec. Sarudu, Kab. Pasangkayu, Sulawesi Barat 91573","Sarudu, Kec. Sarudu, Kab. Pasangkayu",SULAWESI BARAT,91573.0,Indonesia,85242689454.0,,,-1.7135427,119.3070057,https://maps.google.com/?cid=0x0:0x30c16b2ce78258fa,
mall,Toko Swalayan,Toko Berkah Mandiri,"78Q4+H62, Jl. Poros Majene - Mamuju, Sarudu, Kec. Sarudu, Kab. Pasangkayu, Sulawesi Barat 91573","Jl. Poros Majene - Mamuju, Sarudu, Kec. Sarudu, Kab. Pasangkayu",SULAWESI BARAT,91573.0,Indonesia,85299214234.0,,,-1.7111222,119.3055162,https://maps.google.com/?cid=0x0:0xefb73491f8447229,
mall,Pusat Perbelanjaan,Toko Syavika Bag,"Kompleks Pasar sempo, Sarudu, Kec. Sarudu, Kab. Pasangkayu, Sulawesi Barat 91573","Sarudu, Kec. Sarudu, Kab. Pasangkayu",SULAWESI BARAT,91573.0,Indonesia,,,,-1.7106123,119.3056342,https://maps.google.com/?cid=0x0:0x762f934f028b649a,
mall,Kios,KIOS SINAR HARAPAN,"Jl. Poros Majene - Mamuju No.sulawesi, Sarudu, Kec. Sarudu, Kab. Pasangkayu, Sulawesi Barat 91573","Sarudu, Kec. Sarudu, Kab. Pasangkayu",SULAWESI BARAT,91573.0,Indonesia,,,,-1.7198719,119.316257,https://maps.google.com/?cid=0x0:0x7a79e5b112d161ac,
mall,Pasar,Pasar Limua,"785H+35J, Jl. Poros Majene - Mamuju, Dapurang, Kec. Dapurang, Kab. Pasangkayu, Sulawesi Barat 91573","Jl. Poros Majene - Mamuju, Dapurang, Kec. Dapurang, Kab. Pasangkayu",SULAWESI BARAT,91573.0,Indonesia,,,,-1.7422795,119.3278943,https://maps.google.com/?cid=0x0:0x28fda08e816a2eb5,
mall,Toko,Toko wawan Belawa mulia,"889R+64W, Unnamed Road, Bulu Mario, Kec. Sarudu, Kab. Pasangkayu, Sulawesi Barat 91573","Unnamed Road, Bulu Mario, Kec. Sarudu, Kab. Pasangkayu",SULAWESI BARAT,91573.0,Indonesia,81342729938.0,,,-1.6818854,119.3403431,https://maps.google.com/?cid=0x0:0x1ec099f41bcda0f1,
mall,Toko Kue,FIRDA CAKE  COKIES,"888R+RGC, Bulu Mario, Kec. Sarudu, Kab. Pasangkayu, Sulawesi Barat 91573","Bulu Mario, Kec. Sarudu, Kab. Pasangkayu",SULAWESI BARAT,91573.0,Indonesia,85399192996.0,,,-1.6829404,119.3412563,https://maps.google.com/?cid=0x0:0xa55fee8f9493ad9f,
mall,Pusat Perbelanjaan,Toko Babalalang Pasangkayu,"8897+HMW, Sarudu, Kec. Sarudu, Kab. Pasangkayu, Sulawesi Barat","Kab. Pasangkayu, Sulawesi Barat",SULAWESI BARAT,,Indonesia,81346275306.0,,,-1.681019,119.3142077,https://maps.google.com/?cid=0x0:0x93cbe062fc34fbca,
mall,Toko Swalayan,UD. BERKAH TANI 2 BULUMARIO,"Lr. 6 barat, Bulu Mario, Kec. Sarudu, Kab. Pasangkayu, Sulawesi Barat 91573","Bulu Mario, Kec. Sarudu, Kab. Pasangkayu",SULAWESI BARAT,91573.0,Indonesia,81343540212.0,,,-1.6827922,119.3397661,https://maps.google.com/?cid=0x0:0xf1833c8fa6556111,
mall,Seafood,pasar ikan kuma,"88GP+GMJ, Bulu Mario, Kec. Sarudu, Kab. Pasangkayu, Sulawesi Barat 91573","Bulu Mario, Kec. Sarudu, Kab. Pasangkayu",SULAWESI BARAT,91573.0,Indonesia,85298577072.0,,,-1.6736559,119.3366501,https://maps.google.com/?cid=0x0:0x8de420fd7eff9682,
mall,Toko Elektronik,Toko rayyan,"877R+CCG depan SMP 1, Sarudu, Kec. Sarudu, Kab. Pasangkayu, Sulawesi Barat 91573","Sarudu, Kec. Sarudu, Kab. Pasangkayu",SULAWESI BARAT,91573.0,Indonesia,82292430443.0,,,-1.6864498,119.2910793,https://maps.google.com/?cid=0x0:0x581f359a40f900f0,
mall,Toko Pakaian,SHANTY OLSHOP,"78QM+5V9, dusun Sidomulyo, Kumasari, Kec. Sarudu, Kab. Pasangkayu, Sulawesi Barat 91573","dusun Sidomulyo, Kumasari, Kec. Sarudu, Kab. Pasangkayu",SULAWESI BARAT,91573.0,Indonesia,85242841596.0,,,-1.7120949,119.3347375,https://maps.google.com/?cid=0x0:0xfc3b3018dd690ea7,
mall,Toko Bahan Bangunan,Toko Buana Situju,"785H+6RQ, Jl. Poros Majene - Mamuju, Dapurang, Kec. Dapurang, Kab. Pasangkayu, Sulawesi Barat 91573","Jl. Poros Majene - Mamuju, Dapurang, Kec. Dapurang, Kab. Pasangkayu",SULAWESI BARAT,91573.0,Indonesia,,,,-1.7419249,119.3296143,https://maps.google.com/?cid=0x0:0x25cccb0304d1e22d,
mall,Toko Perlengkapan Rumah,Depot Isi Ulang Air Minum,"78R3+JCR, Sarudu, Kec. Sarudu, Kab. Pasangkayu, Sulawesi Barat 91573","Sarudu, Kec. Sarudu, Kab. Pasangkayu",SULAWESI BARAT,91573.0,Indonesia,85298495993.0,,,-1.7083857,119.3035241,https://maps.google.com/?cid=0x0:0x851f52c2cbae536f,
mall,Pemasok mesin penjual otomatis,TOKO LAPAK UNIK PERABOT,"78M5+V6H, Sarudu, Kec. Sarudu, Kab. Pasangkayu, Sulawesi Barat 91573","Sarudu, Kec. Sarudu, Kab. Pasangkayu",SULAWESI BARAT,91573.0,Indonesia,,,,-1.7146566,119.3079222,https://maps.google.com/?cid=0x0:0x7355bc893543f9f,
mall,Pasar,Pasar Tikke Raya,"M97G+RF3, Tikke, Kec. Tikke Raya, Kab. Pasangkayu, Sulawesi Barat 91571","Tikke, Kec. Tikke Raya, Kab. Pasangkayu",SULAWESI BARAT,91571.0,Indonesia,,,,-1.3354834,119.3761706,https://maps.google.com/?cid=0x0:0x92219c20e9174fa7,
mall,mall,Sulawesi Barat 91571,"Kab. Pasangkayu, Sulawesi Barat","Kab. Pasangkayu, Sulawesi Barat",SULAWESI BARAT,,Indonesia,,,,-1.2916992,119.3714909,https://maps.google.com/?cid=0x0:0x12640eefba628a12,
mall,Pusat Perbelanjaan,Shopping Complex Mall Pasangkayu,"M9W3+H7X, Pajalele, Pedongga, Kab. Pasangkayu, Sulawesi Barat 91571","Pajalele, Pedongga, Kab. Pasangkayu",SULAWESI BARAT,91571.0,Indonesia,426677852.0,,,-1.3026863,119.3523259,https://maps.google.com/?cid=0x0:0xd93191c787e3bdfa,
mall,Jasa Kurir,JNE TIKKE,"M98H+249, Tikke, Kec. Tikke Raya, Kab. Pasangkayu, Sulawesi Barat 91571","Tikke, Kec. Tikke Raya, Kab. Pasangkayu",SULAWESI BARAT,91571.0,Indonesia,85255126972.0,,,-1.33496,119.3778506,https://maps.google.com/?cid=0x0:0x8acb1e3d734517e9,
mall,Pasar,Pasar Smart Pasangkayu,"R975+FRW, Pasangkayu, Kec. Pasangkayu, Kab. Pasangkayu, Sulawesi Barat 91571","Pasangkayu, Kec. Pasangkayu, Kab. Pasangkayu",SULAWESI BARAT,91571.0,Indonesia,,,,-1.1862598,119.3595745,https://maps.google.com/?cid=0x0:0x3ff831304dd5dfe0,
mall,Toko umum,Kios Berkah,"J9X9+FPF, Jengeng Raya, Kec. Tikke Raya, Kab. Pasangkayu, Sulawesi Barat 91571","Jengeng Raya, Kec. Tikke Raya, Kab. Pasangkayu",SULAWESI BARAT,91571.0,Indonesia,82199470279.0,,,-1.3513137,119.3693058,https://maps.google.com/?cid=0x0:0x51bfcbd62aa02a41,
mall,Minimarket,Aiy Store,"Jl. Poros Majene - Mamuju, Pajalele, Kec. Tikke Raya, Kab. Pasangkayu, Sulawesi Barat 91571","Pajalele, Kec. Tikke Raya, Kab. Pasangkayu",SULAWESI BARAT,91571.0,Indonesia,,,,-1.324268,119.378368,https://maps.google.com/?cid=0x0:0x27dfa0dfff99d722,
mall,Pusat Perbelanjaan,Toko mufti,"M98H+9PJ, Tikke, Kec. Tikke Raya, Kab. Pasangkayu, Sulawesi Barat 91571","Tikke, Kec. Tikke Raya, Kab. Pasangkayu",SULAWESI BARAT,91571.0,Indonesia,,,,-1.3340275,119.3792796,https://maps.google.com/?cid=0x0:0x133a80062666e15a,
mall,Toko Ponsel,ALIFA CELLULER TIKKE,"Dpn BRI , ALIFA CELL, Dekat Jembatan Tikke, Pajalele, Kec. Tikke Raya, Kab. Pasangkayu, Sulawesi Barat 91571","ALIFA CELL, Dekat Jembatan Tikke, Pajalele, Kec. Tikke Raya, Kab. Pasangkayu",SULAWESI BARAT,91571.0,Indonesia,85242817811.0,,,-1.3332649,119.3798613,https://maps.google.com/?cid=0x0:0xac80539310c1d384,
mall,Pusat Perbelanjaan,UD. MITRA TIKKE,"Jalan Trans Sulawesi, Jengeng Raya, Kec. Tikke Raya, Kab. Pasangkayu, Sulawesi Barat 91571","Jengeng Raya, Kec. Tikke Raya, Kab. Pasangkayu",SULAWESI BARAT,91571.0,Indonesia,85398346086.0,,,-1.3403009,119.372497,https://maps.google.com/?cid=0x0:0x97acf23849b14d2c,
mall,Pusat Perbelanjaan,Plaza Play City Mall Pasangkayu,"R9FG+4G9, Jl. Ambo Djiwa, Pasangkayu, Kec. Pasangkayu, Kab. Pasangkayu, Sulawesi Barat 91574","Jl. Ambo Djiwa, Pasangkayu, Kec. Pasangkayu, Kab. Pasangkayu",SULAWESI BARAT,91574.0,Indonesia,426976585.0,,,-1.1772976,119.3762629,https://maps.google.com/?cid=0x0:0x7af8eb52180eece8,
mall,Bengkel Mobil,Benkel Nabil Motor,"M95C+2GP, Jl. Poros Majene - Mamuju, Tikke, Kec. Tikke Raya, Kab. Pasangkayu, Sulawesi Barat 91571","Jl. Poros Majene - Mamuju, Tikke, Kec. Tikke Raya, Kab. Pasangkayu",SULAWESI BARAT,91571.0,Indonesia,82195041490.0,,,-1.3424228,119.3713136,https://maps.google.com/?cid=0x0:0x2971d800ab271b08,
mall,Kantor Perusahaan,Toko Bumdes,"M9FH+QJV, Jl. Poros Palu - Mamuju, Pajalele, Kec. Tikke Raya, Kab. Pasangkayu, Sulawesi Barat 91571","Jl. Poros Palu - Mamuju, Pajalele, Kec. Tikke Raya, Kab. Pasangkayu",SULAWESI BARAT,91571.0,Indonesia,8112141141.0,,,-1.3255062,119.3790528,https://maps.google.com/?cid=0x0:0x42fcd8443bed6849,
mall,mall,FOTO COPY AA,"Dusun Mekar, Tikke, Kec. Tikke Raya, Kab. Pasangkayu, Sulawesi Barat 91571","Tikke, Kec. Tikke Raya, Kab. Pasangkayu",SULAWESI BARAT,91571.0,Indonesia,82187711996.0,,,-1.335421,119.3762381,https://maps.google.com/?cid=0x0:0xb0a4120bd3472efe,
mall,Toko,ANEKA WARNA PHOTO,"R9G8+689, Jl. Imam Bonjol, Pasangkayu, Kec. Pasangkayu, Kab. Pasangkayu, Sulawesi Barat 91574","Jl. Imam Bonjol, Pasangkayu, Kec. Pasangkayu, Kab. Pasangkayu",SULAWESI BARAT,91574.0,Indonesia,,,,-1.1744559,119.3658749,https://maps.google.com/?cid=0x0:0xd0e7555e68a25f9d,
mall,Pusat Perbelanjaan,My Mall Players City Pasangkayu,"R98J+CR, Pasangkayu, Kec. Pasangkayu, Kab. Pasangkayu, Sulawesi Barat","Kab. Pasangkayu, Sulawesi Barat",SULAWESI BARAT,,Indonesia,426667755.0,,,-1.1838851,119.3820686,https://maps.google.com/?cid=0x0:0x57379b1340284e9c,
mall,Kantor Perusahaan,ABANGCELL 01,"Jl. Ir. Soekarno, Pasangkayu, Kec. Pasangkayu, Kab. Pasangkayu, Sulawesi Barat 91574","Pasangkayu, Kec. Pasangkayu, Kab. Pasangkayu",SULAWESI BARAT,91574.0,Indonesia,85333337943.0,,,-1.1795748,119.3638884,https://maps.google.com/?cid=0x0:0xa9f0b3384409411c,
mall,Toko,TOKO DAFFA DAN MAUBEL DAFFA,"M95C+MV6, Jl. Poros Majene - Mamuju, Tikke, Kec. Tikke Raya, Kab. Pasangkayu, Sulawesi Barat 91571","Jl. Poros Majene - Mamuju, Tikke, Kec. Tikke Raya, Kab. Pasangkayu",SULAWESI BARAT,91571.0,Indonesia,82253513882.0,,,-1.3408477,119.3721273,https://maps.google.com/?cid=0x0:0x77528de9374afefe,
mall,Toko,Toko robusta,"Pasangkayu, Kec. Pasangkayu, Kab. Pasangkayu, Sulawesi Barat 91574","Kec. Pasangkayu, Kab. Pasangkayu",SULAWESI BARAT,91574.0,Indonesia,82189919189.0,,,-1.1744788,119.3692864,https://maps.google.com/?cid=0x0:0xfee1e741d98e193f,
mall,Pembangunan Perumahan,Toko Rani pasangkayu,"R9F9+8W6, Pasangkayu, Kec. Pasangkayu, Kab. Pasangkayu, Sulawesi Barat 91574","Pasangkayu, Kec. Pasangkayu, Kab. Pasangkayu",SULAWESI BARAT,91574.0,Indonesia,81342417716.0,,,-1.1767197,119.3697754,https://maps.google.com/?cid=0x0:0xaa5316d14949ef21,
mall,Toko,Kios Najwa 3,"R995+JJV Samping Warung Jentak, Jl. Ir. Soekarno, Pasangkayu, Kec. Pasangkayu, Kab. Pasangkayu, Sulawesi Barat 91571","Jl. Ir. Soekarno, Pasangkayu, Kec. Pasangkayu, Kab. Pasangkayu",SULAWESI BARAT,91571.0,Indonesia,82397983971.0,,,-1.1808988,119.3590506,https://maps.google.com/?cid=0x0:0xfed903ef6c6e19ad,
supermarket,Toko,ð™‰ð™ªð™§ð™›ð™– ð™ˆð™–ð™§ð™©,"2GG5+J6C, Lorong Puskemas, Bambaira, Kec. Bambaira, Kab. Pasangkayu, Sulawesi Barat 91574","Lorong Puskemas, Bambaira, Kec. Bambaira, Kab. Pasangkayu",SULAWESI BARAT,91574.0,Indonesia,82190170828.0,,,-0.9726261,119.5083817,https://maps.google.com/?cid=0x0:0x7507e85eaa7b4a02,
supermarket,Toko,Toko Nurfadillah,"XF6J+8FG, Randomayang, Kec. Bambalamotu, Kab. Pasangkayu, Sulawesi Barat 91574","Randomayang, Kec. Bambalamotu, Kab. Pasangkayu",SULAWESI BARAT,91574.0,Indonesia,,,,-1.039199,119.4811953,https://maps.google.com/?cid=0x0:0x881a4d5cb9ee7d6b,
supermarket,Toko umum,Warung Widya,"Pantai, Kasoloang, Kec. Bambaira, Kab. Pasangkayu, Sulawesi Barat 91571","Kasoloang, Kec. Bambaira, Kab. Pasangkayu",SULAWESI BARAT,91571.0,Indonesia,82296330652.0,,,-1.0052839,119.4797529,https://maps.google.com/?cid=0x0:0x977075f45245db5f,
supermarket,supermarket,Sulawesi Barat 91574,"Kab. Pasangkayu, Sulawesi Barat","Kab. Pasangkayu, Sulawesi Barat",SULAWESI BARAT,,Indonesia,,,,-1.1559774,119.464359,https://maps.google.com/?cid=0x0:0x87450841cbc25162,
supermarket,Minimarket,Swalayan Al Mubarok,"Jl. Poros Palu - Mamuju, Bulu Parigi, Kec. Baras, Kab. Pasangkayu, Sulawesi Barat 91572","Bulu Parigi, Kec. Baras, Kab. Pasangkayu",SULAWESI BARAT,91572.0,Indonesia,82292250099.0,,,-1.5971617,119.3247777,https://maps.google.com/?cid=0x0:0xbdd9b7b7928d06e6,
supermarket,Kantor Pemerintah,Desa Bambaira,"2GC4+FG9, Bambaira, Kec. Bambaira, Kab. Pasangkayu, Sulawesi Barat 91574","Bambaira, Kec. Bambaira, Kab. Pasangkayu",SULAWESI BARAT,91574.0,Indonesia,,,,-0.9788497,119.5063571,https://maps.google.com/?cid=0x0:0x4db0201848a1feb7,
supermarket,Kios,Kios zahwa,"2G2H+WC7, Kaluku Nangka, Kec. Bambaira, Kab. Pasangkayu, Sulawesi Barat 91574","Kaluku Nangka, Kec. Bambaira, Kab. Pasangkayu",SULAWESI BARAT,91574.0,Indonesia,,,,-0.999336,119.526621,https://maps.google.com/?cid=0x0:0xf84db85370266f3c,
supermarket,Toko,Toko triwiusaha,"2GRQ+HWC, Tampaure, Kec. Bambaira, Kab. Pasangkayu, Sulawesi Barat 91574","Tampaure, Kec. Bambaira, Kab. Pasangkayu",SULAWESI BARAT,91574.0,Indonesia,,,,-0.9585518,119.5397706,https://maps.google.com/?cid=0x0:0xecd2282de23c57e1,
supermarket,supermarket,Kios Farida,"2GF3+645, Bambaira, Kec. Bambaira, Kab. Pasangkayu, Sulawesi Barat 91574","Bambaira, Kec. Bambaira, Kab. Pasangkayu",SULAWESI BARAT,91574.0,Indonesia,,,,-0.9769869,119.5028729,https://maps.google.com/?cid=0x0:0x8874a3e2bce494db,
supermarket,supermarket,Bambalamotu,"Kec. Bambalamotu, Kab. Pasangkayu, Sulawesi Barat","Kab. Pasangkayu, Sulawesi Barat",SULAWESI BARAT,,Indonesia,,,,-1.0952071,119.4614578,https://maps.google.com/?cid=0x0:0x2e0275783eb46598,
supermarket,Pemasok dupa,PASAR BAMBALAMOTU,"Unnamed Road, Bambalamotu, Kec. Bambalamotu, Kab. Pasangkayu, Sulawesi Barat 91574","Bambalamotu, Kec. Bambalamotu, Kab. Pasangkayu",SULAWESI BARAT,91574.0,Indonesia,,,,-1.0934903,119.4572438,https://maps.google.com/?cid=0x0:0xa53e06183bd2deeb,
supermarket,Toko bahan makanan,Toko Belawa Tani,"WF84+7XV, Bambalamotu, Kec. Bambalamotu, Kab. Pasangkayu, Sulawesi Barat 91574","Bambalamotu, Kec. Bambalamotu, Kab. Pasangkayu",SULAWESI BARAT,91574.0,Indonesia,82259388359.0,,,-1.0842579,119.4574066,https://maps.google.com/?cid=0x0:0x5dd8352d141ec89,
supermarket,Minimarket,SOLA Mart,"WF26+7G, Bambalamotu, Kec. Bambalamotu, Kab. Pasangkayu, Sulawesi Barat","Kab. Pasangkayu, Sulawesi Barat",SULAWESI BARAT,,Indonesia,81242480800.0,,,-1.099375,119.4613724,https://maps.google.com/?cid=0x0:0xd5f21fa9cb5036ba,
supermarket,Toko Swalayan,KIOS RISKA,"VCQW+PW3, Jl. Trans Sulawesi, Polewali, Kec. Bambalamotu, Kab. Pasangkayu, Sulawesi Barat 91574","Jl. Trans Sulawesi, Polewali, Kec. Bambalamotu, Kab. Pasangkayu",SULAWESI BARAT,91574.0,Indonesia,,,,-1.1107323,119.4472935,https://maps.google.com/?cid=0x0:0xea4209c46beb633b,
supermarket,Toko Swalayan,Kios RISMA,"VCFW+264 - Pasangkayu, Polewali, Kec. Bambalamotu, Kab. Pasangkayu, Sulawesi Barat 91574","Polewali, Kec. Bambalamotu, Kab. Pasangkayu",SULAWESI BARAT,91574.0,Indonesia,,,,-1.1274875,119.4455781,https://maps.google.com/?cid=0x0:0xc1082ea24541dc82,
supermarket,Toko bahan makanan,Toko uwe wil,"Bambalamotu, Kec. Bambalamotu, Kab. Pasangkayu, Sulawesi Barat 91574","Kec. Bambalamotu, Kab. Pasangkayu",SULAWESI BARAT,91574.0,Indonesia,,,,-1.0840949,119.4550883,https://maps.google.com/?cid=0x0:0x73ddfd3fef1d46bd,
supermarket,Pusat Perbelanjaan,Kios putri,"VCPC+2W7, Pangiang, Kec. Bambalamotu, Kab. Pasangkayu, Sulawesi Barat 91574","Pangiang, Kec. Bambalamotu, Kab. Pasangkayu",SULAWESI BARAT,91574.0,Indonesia,85348194208.0,,,-1.1149568,119.4223001,https://maps.google.com/?cid=0x0:0xac0216bce3ee1958,
supermarket,Toko,TOKO KAHAR,"WF84+F3Q, Bambalamotu, Kec. Bambalamotu, Kab. Pasangkayu, Sulawesi Barat 91571","Bambalamotu, Kec. Bambalamotu, Kab. Pasangkayu",SULAWESI BARAT,91571.0,Indonesia,85294048798.0,,,-1.0837852,119.4552419,https://maps.google.com/?cid=0x0:0xcb9ed5752bdef651,
supermarket,Minimarket,Swalayan Al Mubarok,"Jl. Poros Palu - Mamuju, Bulu Parigi, Kec. Baras, Kab. Pasangkayu, Sulawesi Barat 91572","Bulu Parigi, Kec. Baras, Kab. Pasangkayu",SULAWESI BARAT,91572.0,Indonesia,82292250099.0,,,-1.5971617,119.3247777,https://maps.google.com/?cid=0x0:0xbdd9b7b7928d06e6,
supermarket,Toko Swalayan,Kios Nurmadinah,"VCQW+8GR, Polewali, Kec. Bambalamotu, Kab. Pasangkayu, Sulawesi Barat 91574","Polewali, Kec. Bambalamotu, Kab. Pasangkayu",SULAWESI BARAT,91574.0,Indonesia,82349562221.0,,,-1.111647,119.446251,https://maps.google.com/?cid=0x0:0x79a107b6c33ea101,
supermarket,Toko Swalayan,Kios Perdi,"WF74+V76, Bambalamotu, Kec. Bambalamotu, Kab. Pasangkayu, Sulawesi Barat","Kab. Pasangkayu, Sulawesi Barat",SULAWESI BARAT,,Indonesia,,,,-1.0850979,119.4552811,https://maps.google.com/?cid=0x0:0x8b45b5104eebed89,
supermarket,Toko bahan makanan,Kios Wiwi,"Jl. Poros Majene - Mamuju, Bambalamotu, Kec. Bambalamotu, Kab. Pasangkayu, Sulawesi Barat 91574","Bambalamotu, Kec. Bambalamotu, Kab. Pasangkayu",SULAWESI BARAT,91574.0,Indonesia,82291892554.0,,,-1.0873848,119.4563735,https://maps.google.com/?cid=0x0:0xb259067dad0d81e5,
supermarket,Toko,TOKO PARFUM,"WF32+HFM, Sikente, Kec. Bambalamotu, Kab. Pasangkayu, Sulawesi Barat 91574","Sikente, Kec. Bambalamotu, Kab. Pasangkayu",SULAWESI BARAT,91574.0,Indonesia,,,,-1.0956947,119.4510878,https://maps.google.com/?cid=0x0:0xb48f5dfe56fe7bf0,
supermarket,Toko,Toko ayra,"CCP2+JVC, Motu, Kec. Baras, Kab. Pasangkayu, Sulawesi Barat 91572","Motu, Kec. Baras, Kab. Pasangkayu",SULAWESI BARAT,91572.0,Indonesia,81355487013.0,,,-1.5634436,119.4021318,https://maps.google.com/?cid=0x0:0xf03749d484badbcd,
supermarket,supermarket,Kec. Baras,"Kab. Pasangkayu, Sulawesi Barat","Kab. Pasangkayu, Sulawesi Barat",SULAWESI BARAT,,Indonesia,,,,-1.588752,119.3280298,https://maps.google.com/?cid=0x0:0x43abedd2f72d30c4,
supermarket,Minimarket,Swalayan Al Mubarok,"Jl. Poros Palu - Mamuju, Bulu Parigi, Kec. Baras, Kab. Pasangkayu, Sulawesi Barat 91572","Bulu Parigi, Kec. Baras, Kab. Pasangkayu",SULAWESI BARAT,91572.0,Indonesia,82292250099.0,,,-1.5971617,119.3247777,https://maps.google.com/?cid=0x0:0xbdd9b7b7928d06e6,
supermarket,Toko Swalayan,TOKO RAHMA,"CCP2+JQ9, Motu, Kec. Baras, Kab. Pasangkayu, Sulawesi Barat 91572","Motu, Kec. Baras, Kab. Pasangkayu",SULAWESI BARAT,91572.0,Indonesia,82111222565.0,,,-1.5634513,119.4019917,https://maps.google.com/?cid=0x0:0xe3a102f9bd6ddb6f,
supermarket,Toko Swalayan,Kios Mama Wira,"Jl. Poros Majene - Mamuju, Kasano, Kec. Baras, Kab. Pasangkayu, Sulawesi Barat 91572","Kasano, Kec. Baras, Kab. Pasangkayu",SULAWESI BARAT,91572.0,Indonesia,81244355505.0,,,-1.5410864,119.3475411,https://maps.google.com/?cid=0x0:0x578b5df5c7cdb507,
supermarket,Toko Swalayan,Toko MITRA SimpaTi,"F85W+5X7, Kasano, Kec. Baras, Kab. Pasangkayu, Sulawesi Barat 91572","Kasano, Kec. Baras, Kab. Pasangkayu",SULAWESI BARAT,91572.0,Indonesia,81354543339.0,,,-1.5420903,119.3474215,https://maps.google.com/?cid=0x0:0x6b7926c472720325,
supermarket,Kios,Kios SAKHA,"C86H+43F, Jl Trans Sulawesi, Mamuju, Palu, Baras, Kec. Baras, Kab. Pasangkayu, Sulawesi Barat","Kab. Pasangkayu, Sulawesi Barat",SULAWESI BARAT,,Indonesia,82357079557.0,,,-1.5897823,119.3277785,https://maps.google.com/?cid=0x0:0xf71f6925047c67d5,
supermarket,Toko Swalayan,Toko Taktik Mart,"C86H+R74, Jl. Poros Palu - Mamuju, Baras, Kec. Baras, Kab. Pasangkayu, Sulawesi Barat 91572","Jl. Poros Palu - Mamuju, Baras, Kec. Baras, Kab. Pasangkayu",SULAWESI BARAT,91572.0,Indonesia,,,,-1.5879771,119.3281945,https://maps.google.com/?cid=0x0:0xd6789bead685dfb8,
supermarket,Minimarket,GALERI 947,"C86H+G4P, Baras, Kec. Baras, Kab. Pasangkayu, Sulawesi Barat 91572","Baras, Kec. Baras, Kab. Pasangkayu",SULAWESI BARAT,91572.0,Indonesia,85394159077.0,,,-1.5886654,119.3278155,https://maps.google.com/?cid=0x0:0x36c77533def2590d,
supermarket,Toko Percetakan,Percetakan @ur@,"F942+5V2, Kasano, Kec. Baras, Kab. Pasangkayu, Sulawesi Barat 91572","Kasano, Kec. Baras, Kab. Pasangkayu",SULAWESI BARAT,91572.0,Indonesia,82275101534.0,,,-1.5446241,119.3521532,https://maps.google.com/?cid=0x0:0xe1ea292bf1e1c7f8,
supermarket,Toko bahan makanan,Toko sinar,"CCP3+GPC, Motu, Kec. Baras, Kab. Pasangkayu, Sulawesi Barat 91572","Motu, Kec. Baras, Kab. Pasangkayu",SULAWESI BARAT,91572.0,Indonesia,,,,-1.5636993,119.404271,https://maps.google.com/?cid=0x0:0x2ee98e92dbeac5be,
supermarket,Kafe,HOUSE Deceng,"CCX2+9X8, Motu, Kec. Baras, Kab. Pasangkayu, Sulawesi Barat 91572","Motu, Kec. Baras, Kab. Pasangkayu",SULAWESI BARAT,91572.0,Indonesia,85242656114.0,,,-1.551597,119.4024617,https://maps.google.com/?cid=0x0:0x3b0cd15e22335425,
supermarket,Minimarket,Kios Efi  Efa,"F933+WX9, Kasano, Kec. Baras, Kab. Pasangkayu, Sulawesi Barat 91572","Kasano, Kec. Baras, Kab. Pasangkayu",SULAWESI BARAT,91572.0,Indonesia,,,,-1.545224,119.3549883,https://maps.google.com/?cid=0x0:0x1daebb5ca243cc5e,
supermarket,Kios,Depot aditiya,"GC44+8WF, Karave, Kec. Bulu Taba, Kab. Pasangkayu, Sulawesi Barat 91572","Karave, Kec. Bulu Taba, Kab. Pasangkayu",SULAWESI BARAT,91572.0,Indonesia,,,,-1.4939056,119.4073229,https://maps.google.com/?cid=0x0:0x960994880ccd4ecc,
supermarket,Kios,Kios Riski,"F85W+6VG, Jl. Poros Majene - Mamuju, Kasano, Kec. Baras, Kab. Pasangkayu, Sulawesi Barat 91572","Jl. Poros Majene - Mamuju, Kasano, Kec. Baras, Kab. Pasangkayu",SULAWESI BARAT,91572.0,Indonesia,82292807873.0,,,-1.5419441,119.3472098,https://maps.google.com/?cid=0x0:0x943d8e5cb23940aa,
supermarket,Toko,Kios Rhany Mashad,"9896+X85, Jl. Poros Majene - Mamuju, Doda, Kec. Sarudu, Kab. Pasangkayu, Sulawesi Barat 91573","Jl. Poros Majene - Mamuju, Doda, Kec. Sarudu, Kab. Pasangkayu",SULAWESI BARAT,91573.0,Indonesia,,,,-1.6301217,119.3108722,https://maps.google.com/?cid=0x0:0x622167fae5871320,
supermarket,Pusat Perbelanjaan,Kios Indi,"CCP6+GMJ, Motu, Kec. Baras, Kab. Pasangkayu, Sulawesi Barat 91572","Motu, Kec. Baras, Kab. Pasangkayu",SULAWESI BARAT,91572.0,Indonesia,,,,-1.563671,119.4116494,https://maps.google.com/?cid=0x0:0xc11eda3773a4aa0d,
supermarket,Toko Swalayan,Toko sembako Aurel,"C9Q7+HQJ, Kasano, Kec. Baras, Kab. Pasangkayu, Sulawesi Barat","Kab. Pasangkayu, Sulawesi Barat",SULAWESI BARAT,,Indonesia,,,,-1.5610252,119.3643864,https://maps.google.com/?cid=0x0:0x8a058b806edb742a,
supermarket,Toko,Bukit mas,"FF24+3R, Bukit Harapan, Kec. Bulu Taba, Kab. Pasangkayu, Sulawesi Barat","Kab. Pasangkayu, Sulawesi Barat",SULAWESI BARAT,,Indonesia,,,,-1.5498612,119.4571137,https://maps.google.com/?cid=0x0:0xa2a6d4ecc1ac155,
supermarket,Hipermarket,Hypermart Ciledug Tangerang,"Jalan, Kreo Selatan, Kec. Larangan, Kota Tangerang, Banten","Kota Tangerang, Banten",SULAWESI BARAT,,Indonesia,211500216.0,,,-6.2355513,106.7394626,https://maps.google.com/?cid=0x0:0xfdc143fbbe44f201,
supermarket,Hipermarket,Hypermart - Mall Metropolis,"Mall Metropolis Town Square, Kota Modernland, Cikokol, Lobby Utama, Klp. Indah, Kota Tangerang, Banten 15117","Kota Modernland, Cikokol, Lobby Utama, Klp. Indah, Kota Tangerang",SULAWESI BARAT,15117.0,Indonesia,2155780370.0,,,-6.1970808,106.6366596,https://maps.google.com/?cid=0x0:0x510f7c8f24bb7fa,
supermarket,Restoran,Lunpia Semarang Pak Kumis - Hypermart Kreo,"QP7Q+MX7 Hypermart, Kreo, Kec. Larangan, Kota Tangerang, Banten","Kota Tangerang, Banten",SULAWESI BARAT,,Indonesia,,,,-6.2358437,106.7399307,https://maps.google.com/?cid=0x0:0xe419fcfb5fc9f5be,
supermarket,supermarket,Sulawesi Barat 91572,"Kab. Pasangkayu, Sulawesi Barat","Kab. Pasangkayu, Sulawesi Barat",SULAWESI BARAT,,Indonesia,,,,-1.5596509,119.5571677,https://maps.google.com/?cid=0x0:0xedbe1b42f4cf1266,
supermarket,Minimarket,Swalayan Al Mubarok,"Jl. Poros Palu - Mamuju, Bulu Parigi, Kec. Baras, Kab. Pasangkayu, Sulawesi Barat 91572","Bulu Parigi, Kec. Baras, Kab. Pasangkayu",SULAWESI BARAT,91572.0,Indonesia,82292250099.0,,,-1.5971617,119.3247777,https://maps.google.com/?cid=0x0:0xbdd9b7b7928d06e6,
supermarket,Toko Swalayan,TOKO RAHMA,"CCP2+JQ9, Motu, Kec. Baras, Kab. Pasangkayu, Sulawesi Barat 91572","Motu, Kec. Baras, Kab. Pasangkayu",SULAWESI BARAT,91572.0,Indonesia,82111222565.0,,,-1.5634513,119.4019917,https://maps.google.com/?cid=0x0:0xe3a102f9bd6ddb6f,
supermarket,Kios,Depot aditiya,"GC44+8WF, Karave, Kec. Bulu Taba, Kab. Pasangkayu, Sulawesi Barat 91572","Karave, Kec. Bulu Taba, Kab. Pasangkayu",SULAWESI BARAT,91572.0,Indonesia,,,,-1.4939056,119.4073229,https://maps.google.com/?cid=0x0:0x960994880ccd4ecc,
supermarket,Toko Swalayan,Toko MITRA SimpaTi,"F85W+5X7, Kasano, Kec. Baras, Kab. Pasangkayu, Sulawesi Barat 91572","Kasano, Kec. Baras, Kab. Pasangkayu",SULAWESI BARAT,91572.0,Indonesia,81354543339.0,,,-1.5420903,119.3474215,https://maps.google.com/?cid=0x0:0x6b7926c472720325,
supermarket,Toko bahan makanan,Toko Sinar Demak,"G9G8+3C5, Parabu, Kec. Lariang, Kab. Pasangkayu, Sulawesi Barat 91572","Parabu, Kec. Lariang, Kab. Pasangkayu",SULAWESI BARAT,91572.0,Indonesia,,,,-1.47486,119.366116,https://maps.google.com/?cid=0x0:0xeb25bca58fc912d7,
supermarket,Toko Swalayan,Toko Taktik Mart,"C86H+R74, Jl. Poros Palu - Mamuju, Baras, Kec. Baras, Kab. Pasangkayu, Sulawesi Barat 91572","Jl. Poros Palu - Mamuju, Baras, Kec. Baras, Kab. Pasangkayu",SULAWESI BARAT,91572.0,Indonesia,,,,-1.5879771,119.3281945,https://maps.google.com/?cid=0x0:0xd6789bead685dfb8,
supermarket,Toko,Toko ayra,"CCP2+JVC, Motu, Kec. Baras, Kab. Pasangkayu, Sulawesi Barat 91572","Motu, Kec. Baras, Kab. Pasangkayu",SULAWESI BARAT,91572.0,Indonesia,81355487013.0,,,-1.5634436,119.4021318,https://maps.google.com/?cid=0x0:0xf03749d484badbcd,
supermarket,Minimarket,Minimarket,"GCG9+J82, Jl. I Gusti Ngurah Rai, Lilimori, Kec. Bulu Taba, Kab. Pasangkayu, Sulawesi Barat 91572","Jl. I Gusti Ngurah Rai, Lilimori, Kec. Bulu Taba, Kab. Pasangkayu",SULAWESI BARAT,91572.0,Indonesia,,,,-1.4734844,119.4182516,https://maps.google.com/?cid=0x0:0xb80e8d767d6cd450,
supermarket,Toko,Bukit mas,"FF24+3R, Bukit Harapan, Kec. Bulu Taba, Kab. Pasangkayu, Sulawesi Barat","Kab. Pasangkayu, Sulawesi Barat",SULAWESI BARAT,,Indonesia,,,,-1.5498612,119.4571137,https://maps.google.com/?cid=0x0:0xa2a6d4ecc1ac155,
supermarket,Toko Swalayan,Kios Mama Wira,"Jl. Poros Majene - Mamuju, Kasano, Kec. Baras, Kab. Pasangkayu, Sulawesi Barat 91572","Kasano, Kec. Baras, Kab. Pasangkayu",SULAWESI BARAT,91572.0,Indonesia,81244355505.0,,,-1.5410864,119.3475411,https://maps.google.com/?cid=0x0:0x578b5df5c7cdb507,
supermarket,Toko bahan makanan,Kios Rama,"HFF5+2RH, Kasta Buana, Kec. Bulu Taba, Kab. Pasangkayu, Sulawesi Barat 91571","Kasta Buana, Kec. Bulu Taba, Kab. Pasangkayu",SULAWESI BARAT,91571.0,Indonesia,87791868733.0,,,-1.4274711,119.4596537,https://maps.google.com/?cid=0x0:0xc4fcd032378a6724,
supermarket,Toko,Toko Al Ghazali/salim,"GCF6+7M6, Unnamed Road, Lilimori, Kec. Bulu Taba, Kab. Pasangkayu, Sulawesi Barat 91572","Unnamed Road, Lilimori, Kec. Bulu Taba, Kab. Pasangkayu",SULAWESI BARAT,91572.0,Indonesia,,,,-1.4768461,119.4116325,https://maps.google.com/?cid=0x0:0xf9b0c6ebd6b66a11,
supermarket,Toko bahan makanan,Toko nurhayati,"HFC5+3PM, Kasta Buana, Kec. Bulu Taba, Kab. Pasangkayu, Sulawesi Barat 91571","Kasta Buana, Kec. Bulu Taba, Kab. Pasangkayu",SULAWESI BARAT,91571.0,Indonesia,87750666214.0,,,-1.42978,119.4592977,https://maps.google.com/?cid=0x0:0x9957980a14b419f1,
supermarket,Toko Percetakan,Percetakan Kibad,"Kasta Buana, Kec. Bulu Taba, Kab. Pasangkayu, Sulawesi Barat 91571","Kec. Bulu Taba, Kab. Pasangkayu",SULAWESI BARAT,91571.0,Indonesia,81341182302.0,,,-1.4235914,119.4594207,https://maps.google.com/?cid=0x0:0xb7ac38d632f38171,
supermarket,Toko bahan makanan,Rda Kasmawati kamma,"G9G8+FG7, Parabu, Kec. Lariang, Kab. Pasangkayu, Sulawesi Barat 91572","Parabu, Kec. Lariang, Kab. Pasangkayu",SULAWESI BARAT,91572.0,Indonesia,82291997650.0,,,-1.4738323,119.3662893,https://maps.google.com/?cid=0x0:0x2b3c3d48a97d3ddf,
supermarket,Toko bahan makanan,Kios takora,"HFC5+RPW, Kasta Buana, Kec. Bulu Taba, Kab. Pasangkayu, Sulawesi Barat 91571","Kasta Buana, Kec. Bulu Taba, Kab. Pasangkayu",SULAWESI BARAT,91571.0,Indonesia,,,,-1.4278693,119.4593168,https://maps.google.com/?cid=0x0:0xf87f9b976c7debde,
supermarket,Kios,Kios SAKHA,"C86H+43F, Jl Trans Sulawesi, Mamuju, Palu, Baras, Kec. Baras, Kab. Pasangkayu, Sulawesi Barat","Kab. Pasangkayu, Sulawesi Barat",SULAWESI BARAT,,Indonesia,82357079557.0,,,-1.5897823,119.3277785,https://maps.google.com/?cid=0x0:0xf71f6925047c67d5,
supermarket,Toko,TOKO RIMA,"GCF9+H77, Jl. Sultan Hasanuddin, Lilimori, Kec. Bulu Taba, Kab. Pasangkayu, Sulawesi Barat 91572","Jl. Sultan Hasanuddin, Lilimori, Kec. Bulu Taba, Kab. Pasangkayu",SULAWESI BARAT,91572.0,Indonesia,,,,-1.4760966,119.4181844,https://maps.google.com/?cid=0x0:0x3fd6876f64a79f2d,
supermarket,Toko bahan makanan,Toko sinar,"CCP3+GPC, Motu, Kec. Baras, Kab. Pasangkayu, Sulawesi Barat 91572","Motu, Kec. Baras, Kab. Pasangkayu",SULAWESI BARAT,91572.0,Indonesia,,,,-1.5636993,119.404271,https://maps.google.com/?cid=0x0:0x2ee98e92dbeac5be,
supermarket,Toko Swalayan,TOKO SINAR MAROS,"G9G8+7C8, Parabu, Kec. Lariang, Kab. Pasangkayu, Sulawesi Barat 91572","Parabu, Kec. Lariang, Kab. Pasangkayu",SULAWESI BARAT,91572.0,Indonesia,82193780315.0,,,-1.4743417,119.3660648,https://maps.google.com/?cid=0x0:0x8a4c2af4e71f6c5d,
supermarket,Minimarket,GALERI 947,"C86H+G4P, Baras, Kec. Baras, Kab. Pasangkayu, Sulawesi Barat 91572","Baras, Kec. Baras, Kab. Pasangkayu",SULAWESI BARAT,91572.0,Indonesia,85394159077.0,,,-1.5886654,119.3278155,https://maps.google.com/?cid=0x0:0x36c77533def2590d,
supermarket,Toko bahan makanan,Kios HaryMei(HM),"HFF3+5F5, Kasta Buana, Kec. Bulu Taba, Kab. Pasangkayu, Sulawesi Barat 91571","Kasta Buana, Kec. Bulu Taba, Kab. Pasangkayu",SULAWESI BARAT,91571.0,Indonesia,87819978739.0,,,-1.4271134,119.4537236,https://maps.google.com/?cid=0x0:0x6e472152ae97c16e,
supermarket,Toko makanan beku,Nisfah Frozen Food ke2,"HFF5+C54, Kasta Buana, Kec. Bulu Taba, Kab. Pasangkayu, Sulawesi Barat","Kab. Pasangkayu, Sulawesi Barat",SULAWESI BARAT,,Indonesia,,,,-1.4263358,119.4580112,https://maps.google.com/?cid=0x0:0x7ed48f5866597608,
supermarket,Toko,Toko Andi Enal,"7952+37G, Jl. Poros Majene - Mamuju, Dapurang, Kec. Dapurang, Kab. Pasangkayu, Sulawesi Barat 91573","Jl. Poros Majene - Mamuju, Dapurang, Kec. Dapurang, Kab. Pasangkayu",SULAWESI BARAT,91573.0,Indonesia,,,,-1.7423204,119.3506988,https://maps.google.com/?cid=0x0:0xa600969bab470bc9,
supermarket,supermarket,Sulawesi Barat 91512,"Kabupaten Mamuju, Sulawesi Barat","Kabupaten Mamuju, Sulawesi Barat",SULAWESI BARAT,,Indonesia,,,,-1.8494265,119.5339711,https://maps.google.com/?cid=0x0:0x8e21c401717b8ceb,
supermarket,Toko,Asriani Kasya,"785J+CFP, Dapurang, Kec. Dapurang, Kab. Pasangkayu, Sulawesi Barat 91573","Dapurang, Kec. Dapurang, Kab. Pasangkayu",SULAWESI BARAT,91573.0,Indonesia,85299015764.0,,,-1.7414147,119.3311979,https://maps.google.com/?cid=0x0:0xfad00b11ea2f36b3,
supermarket,Toko Swalayan,Press Ban Dalam Smart La Udin,"7C62+VHR, Jl. Poros Majene - Mamuju, Benggaulu, Kec. Dapurang, Kab. Pasangkayu, Sulawesi Barat 91573","Jl. Poros Majene - Mamuju, Benggaulu, Kec. Dapurang, Kab. Pasangkayu",SULAWESI BARAT,91573.0,Indonesia,85298504509.0,,,-1.7377565,119.4013941,https://maps.google.com/?cid=0x0:0x26be09d3c090dc72,
supermarket,Minimarket,Prct. WAHYU,"49VR+C98, Jl. Poros Majene - Mamuju, Lara, Kec. Karossa, Kabupaten Mamuju Tengah, Sulawesi Barat 91563","Jl. Poros Majene - Mamuju, Lara, Kec. Karossa, Kabupaten Mamuju Tengah",SULAWESI BARAT,91563.0,Indonesia,82193183660.0,,,-1.8564504,119.3909668,https://maps.google.com/?cid=0x0:0x8a9ee561af9641f8,
supermarket,Toko Kelontong Asia,Rumah Aidil,"59XW+5V6, Karossa, Kec. Karossa, Kabupaten Mamuju, Sulawesi Barat 91512","Karossa, Kec. Karossa, Kabupaten Mamuju",SULAWESI BARAT,91512.0,Indonesia,,,,-1.8020914,119.3971328,https://maps.google.com/?cid=0x0:0x50c561edd619354,
supermarket,Kantor Pemda,Desa Dapurang,"787G+V5F, Dusun, tagari, Dapurang, Pasangkayu, West Sulawesi","Kab. Pasangkayu, Sulawesi Barat",SULAWESI BARAT,,Indonesia,,,,-1.7353232,119.3254328,https://maps.google.com/?cid=0x0:0x9c8f6b6b0ef7412d,
supermarket,Minimarket,Tokoh suka maju ria,"Suka Maju, Kec. Karossa, Kabupaten Mamuju Tengah, Sulawesi Barat 91512","Kec. Karossa, Kabupaten Mamuju Tengah",SULAWESI BARAT,91512.0,Indonesia,82347893835.0,,,-1.8272307,119.3969334,https://maps.google.com/?cid=0x0:0xdb58c9a5c42db403,
supermarket,Pasar,Gardu Mamana Bunga,"7C63+C33, Jl. Baru, Benggaulu, Kec. Dapurang, Kab. Pasangkayu, Sulawesi Barat 91573","Jl. Baru, Benggaulu, Kec. Dapurang, Kab. Pasangkayu",SULAWESI BARAT,91573.0,Indonesia,8114106221.0,,,-1.7389901,119.402659,https://maps.google.com/?cid=0x0:0xa417e81723e54bd9,
supermarket,Toko,Kios Rahmat,"59WV+G37, Karossa, Kec. Karossa, Kabupaten Mamuju, Sulawesi Barat 91512","Karossa, Kec. Karossa, Kabupaten Mamuju",SULAWESI BARAT,91512.0,Indonesia,,,,-1.8051917,119.3924287,https://maps.google.com/?cid=0x0:0x4b30c2363b0a9dab,
supermarket,Toko Ponsel,Valen Cell,"6FHF+QWW, Sanjango, Kec. Karossa, Kabupaten Mamuju Tengah, Sulawesi Barat 91573","Sanjango, Kec. Karossa, Kabupaten Mamuju Tengah",SULAWESI BARAT,91573.0,Indonesia,81355305449.0,,,-1.7705012,119.4748421,https://maps.google.com/?cid=0x0:0x139ecc66fa1c93ad,
supermarket,Dapur Umum,Kedai arsyila,"Jl.poros mora 1 desa kadaila/kec.karossa/kab.mamuju, Kadaila, Topoyo, Kabupaten Mamuju Tengah, Sulawesi Barat 91512","Kadaila, Topoyo, Kabupaten Mamuju Tengah",SULAWESI BARAT,91512.0,Indonesia,85398211238.0,,,-1.78268,119.3899271,https://maps.google.com/?cid=0x0:0x7dcb603cb43b7cd6,
supermarket,Toko,Kios faeza,"783H+948 Depan kantor camat, Dapurang, Kec. Dapurang, Kab. Pasangkayu, Sulawesi Barat 91571","Dapurang, Kec. Dapurang, Kab. Pasangkayu",SULAWESI BARAT,91571.0,Indonesia,85241876162.0,,,-1.7465976,119.3278157,https://maps.google.com/?cid=0x0:0xf88cb6e433b20889,
supermarket,Makanan Kecil,RM Parepare,"Jl. Poros Palu - Mamuju, Dapurang, Kec. Dapurang, Kab. Pasangkayu, Sulawesi Barat","Kab. Pasangkayu, Sulawesi Barat",SULAWESI BARAT,,Indonesia,,,,-1.7364034,119.3812375,https://maps.google.com/?cid=0x0:0xb812bbf5e8b5279d,
supermarket,Otoritas Perumahan,Pasar Sp4 Tirtabuana,"69V5+R7M, Unnamed Road, Tirta Buana, Kec. Dapurang, Kab. Pasangkayu, Sulawesi Barat 91573","Unnamed Road, Tirta Buana, Kec. Dapurang, Kab. Pasangkayu",SULAWESI BARAT,91573.0,Indonesia,,,,-1.7554223,119.3581752,https://maps.google.com/?cid=0x0:0xdc1295d7f9cd17e4,
supermarket,Pasar,Pasar Karossa,"6C32+67M, Karossa, Kec. Karossa, Kabupaten Mamuju, Sulawesi Barat 91512","Karossa, Kec. Karossa, Kabupaten Mamuju",SULAWESI BARAT,91512.0,Indonesia,,,,-1.796916,119.4006772,https://maps.google.com/?cid=0x0:0xf6c900f016fe6c9c,
supermarket,Pasar,Pasar Benggaulu,"7C54+V93, Benggaulu, Kec. Dapurang, Kab. Pasangkayu, Sulawesi Barat 91573","Benggaulu, Kec. Dapurang, Kab. Pasangkayu",SULAWESI BARAT,91573.0,Indonesia,,,,-1.7403694,119.4059268,https://maps.google.com/?cid=0x0:0x81ce62adc3e933d3,
supermarket,Toko bahan makanan,Lapak Sayur Mak Ikram,"69CV+FVF, Kadaila, Kec. Karossa, Kabupaten Mamuju Tengah, Sulawesi Barat 91573","Kadaila, Kec. Karossa, Kabupaten Mamuju Tengah",SULAWESI BARAT,91573.0,Indonesia,85320163301.0,,,-1.778813,119.3946769,https://maps.google.com/?cid=0x0:0x85a3e7c4b52089b0,
supermarket,Toko Pakaian,Toko KDR Baru,"8V7G+7Q2, Jl. Diponegoro, Karema, Kec. Mamuju, Kabupaten Mamuju, Sulawesi Barat 91512","Jl. Diponegoro, Karema, Kec. Mamuju, Kabupaten Mamuju",SULAWESI BARAT,91512.0,Indonesia,85256467478.0,,,-2.6868544,118.8768934,https://maps.google.com/?cid=0x0:0x36cc584c79da7fda,
supermarket,supermarket,PENGGILINGAN DAGING,"6C66+W94, Karossa, Kec. Karossa, Kabupaten Mamuju Tengah, Sulawesi Barat","Kabupaten Mamuju Tengah, Sulawesi Barat",SULAWESI BARAT,,Indonesia,,,,-1.7877411,119.4109613,https://maps.google.com/?cid=0x0:0xaa7cd562b731e6eb,
supermarket,supermarket,Toko Tani Indonesia,"Lara, Kec. Karossa, Kabupaten Mamuju Tengah, Sulawesi Barat","Kabupaten Mamuju Tengah, Sulawesi Barat",SULAWESI BARAT,,Indonesia,,,,-1.870154,119.3704342,https://maps.google.com/?cid=0x0:0xd7d3469ac3c7621,
supermarket,Toko,Kios Dafin,"59FW+VX8, Suka Maju, Kec. Karossa, Kabupaten Mamuju, Sulawesi Barat 91512","Suka Maju, Kec. Karossa, Kabupaten Mamuju",SULAWESI BARAT,91512.0,Indonesia,,,,-1.8253437,119.3974632,https://maps.google.com/?cid=0x0:0xfbea12f95b2e5410,
supermarket,supermarket,Dapurang,"Kec. Dapurang, Kab. Pasangkayu, Sulawesi Barat","Kab. Pasangkayu, Sulawesi Barat",SULAWESI BARAT,,Indonesia,,,,-1.7373218,119.3540715,https://maps.google.com/?cid=0x0:0x14e56f055de03929,
supermarket,Toko,Toko Andi Enal,"7952+37G, Jl. Poros Majene - Mamuju, Dapurang, Kec. Dapurang, Kab. Pasangkayu, Sulawesi Barat 91573","Jl. Poros Majene - Mamuju, Dapurang, Kec. Dapurang, Kab. Pasangkayu",SULAWESI BARAT,91573.0,Indonesia,,,,-1.7423204,119.3506988,https://maps.google.com/?cid=0x0:0xa600969bab470bc9,
supermarket,Toko,Asriani Kasya,"785J+CFP, Dapurang, Kec. Dapurang, Kab. Pasangkayu, Sulawesi Barat 91573","Dapurang, Kec. Dapurang, Kab. Pasangkayu",SULAWESI BARAT,91573.0,Indonesia,85299015764.0,,,-1.7414147,119.3311979,https://maps.google.com/?cid=0x0:0xfad00b11ea2f36b3,
supermarket,Toko Swalayan,Press Ban Dalam Smart La Udin,"7C62+VHR, Jl. Poros Majene - Mamuju, Benggaulu, Kec. Dapurang, Kab. Pasangkayu, Sulawesi Barat 91573","Jl. Poros Majene - Mamuju, Benggaulu, Kec. Dapurang, Kab. Pasangkayu",SULAWESI BARAT,91573.0,Indonesia,85298504509.0,,,-1.7377565,119.4013941,https://maps.google.com/?cid=0x0:0x26be09d3c090dc72,
supermarket,Pasar,Gardu Mamana Bunga,"7C63+C33, Jl. Baru, Benggaulu, Kec. Dapurang, Kab. Pasangkayu, Sulawesi Barat 91573","Jl. Baru, Benggaulu, Kec. Dapurang, Kab. Pasangkayu",SULAWESI BARAT,91573.0,Indonesia,8114106221.0,,,-1.7389901,119.402659,https://maps.google.com/?cid=0x0:0xa417e81723e54bd9,
supermarket,Kantor Pemda,Desa Dapurang,"787G+V5F, Dusun, tagari, Dapurang, Pasangkayu, West Sulawesi","Kab. Pasangkayu, Sulawesi Barat",SULAWESI BARAT,,Indonesia,,,,-1.7353232,119.3254328,https://maps.google.com/?cid=0x0:0x9c8f6b6b0ef7412d,
supermarket,Otoritas Perumahan,Pasar Sp4 Tirtabuana,"69V5+R7M, Unnamed Road, Tirta Buana, Kec. Dapurang, Kab. Pasangkayu, Sulawesi Barat 91573","Unnamed Road, Tirta Buana, Kec. Dapurang, Kab. Pasangkayu",SULAWESI BARAT,91573.0,Indonesia,,,,-1.7554223,119.3581752,https://maps.google.com/?cid=0x0:0xdc1295d7f9cd17e4,
supermarket,Makanan Kecil,RM Parepare,"Jl. Poros Palu - Mamuju, Dapurang, Kec. Dapurang, Kab. Pasangkayu, Sulawesi Barat","Kab. Pasangkayu, Sulawesi Barat",SULAWESI BARAT,,Indonesia,,,,-1.7364034,119.3812375,https://maps.google.com/?cid=0x0:0xb812bbf5e8b5279d,
supermarket,Restoran,Bakso Mas Saman,"785J+JW5, Dapurang, Kec. Dapurang, Kab. Pasangkayu, Sulawesi Barat","Kab. Pasangkayu, Sulawesi Barat",SULAWESI BARAT,,Indonesia,,,,-1.7409997,119.3323649,https://maps.google.com/?cid=0x0:0xdd0610730d8c70b9,
supermarket,Pasar,Pasar Benggaulu,"7C54+V93, Benggaulu, Kec. Dapurang, Kab. Pasangkayu, Sulawesi Barat 91573","Benggaulu, Kec. Dapurang, Kab. Pasangkayu",SULAWESI BARAT,91573.0,Indonesia,,,,-1.7403694,119.4059268,https://maps.google.com/?cid=0x0:0x81ce62adc3e933d3,
supermarket,Toko bahan makanan,TOKO ILHAM,"887R+PPX, Bulu Mario, Kec. Sarudu, Kab. Pasangkayu, Sulawesi Barat 91573","Bulu Mario, Kec. Sarudu, Kab. Pasangkayu",SULAWESI BARAT,91573.0,Indonesia,82343545170.0,,,-1.6856444,119.341844,https://maps.google.com/?cid=0x0:0xdd1506e0a6be9475,
supermarket,Toko Swalayan,Hello Mart,"887R+RJC, Bulu Mario, Kec. Sarudu, Kab. Pasangkayu, Sulawesi Barat 91573","Bulu Mario, Kec. Sarudu, Kab. Pasangkayu",SULAWESI BARAT,91573.0,Indonesia,81342193732.0,,,-1.6854321,119.3415189,https://maps.google.com/?cid=0x0:0x1d85cf02f2d24027,
supermarket,Kantor Pemerintah,Kantor Kecamatan Dapurang,"783H+968, Dapurang, Kec. Dapurang, Kab. Pasangkayu, Sulawesi Barat 91573","Dapurang, Kec. Dapurang, Kab. Pasangkayu",SULAWESI BARAT,91573.0,Indonesia,,,,-1.7465988,119.3280935,https://maps.google.com/?cid=0x0:0x943789cbb6e9301e,
supermarket,Pasar,Pasar Sempo,"Sarudu, Kec. Sarudu, Kab. Pasangkayu, Sulawesi Barat 91573","Kec. Sarudu, Kab. Pasangkayu",SULAWESI BARAT,91573.0,Indonesia,,,,-1.7105001,119.3057894,https://maps.google.com/?cid=0x0:0x1eae297836dc902f,
supermarket,Sekolah menengah,SMAN 1 Dapurang,"784X+GR3, Dapurang, Kec. Dapurang, Kab. Pasangkayu, Sulawesi Barat","Kab. Pasangkayu, Sulawesi Barat",SULAWESI BARAT,,Indonesia,,,,-1.7437255,119.3495515,https://maps.google.com/?cid=0x0:0x6fc7749b83569ee7,
supermarket,Toko Swalayan,toko vhy-mart,"Bulu Mario, Kec. Sarudu, Kab. Pasangkayu, Sulawesi Barat 91573","Kec. Sarudu, Kab. Pasangkayu",SULAWESI BARAT,91573.0,Indonesia,82293792955.0,,,-1.6882351,119.3390502,https://maps.google.com/?cid=0x0:0x67ca559b876d855b,
supermarket,Toko Swalayan,Toko Kamal T. Moni,"Sarudu, Kec. Sarudu, Kab. Pasangkayu, Sulawesi Barat 91573","Kec. Sarudu, Kab. Pasangkayu",SULAWESI BARAT,91573.0,Indonesia,,,,-1.7236738,119.3199359,https://maps.google.com/?cid=0x0:0x9f717d54fcc5563c,
supermarket,Pusat Perbelanjaan,Kios Berkah,"888R+4J5, Jl. Sultan Hasanuddin, Bulu Mario, Kec. Sarudu, Kab. Pasangkayu, Sulawesi Barat 91573","Jl. Sultan Hasanuddin, Bulu Mario, Kec. Sarudu, Kab. Pasangkayu",SULAWESI BARAT,91573.0,Indonesia,,,,-1.6847409,119.3416232,https://maps.google.com/?cid=0x0:0xae1ea5e4c9dd085b,
supermarket,Toko,Toko Putri Cell,"7CC6+JH7, Benggaulu, Kec. Dapurang, Kab. Pasangkayu, Sulawesi Barat 91573","Benggaulu, Kec. Dapurang, Kab. Pasangkayu",SULAWESI BARAT,91573.0,Indonesia,82352053426.0,,,-1.7284715,119.4114188,https://maps.google.com/?cid=0x0:0x38f02124ee7b33d4,
supermarket,supermarket,Kios mirwan,"885R+RG8, Bulu Mario, Kec. Sarudu, Kab. Pasangkayu, Sulawesi Barat 91573","Bulu Mario, Kec. Sarudu, Kab. Pasangkayu",SULAWESI BARAT,91573.0,Indonesia,,,,-1.6904114,119.3409432,https://maps.google.com/?cid=0x0:0xec71389c4e04b0a0,
supermarket,supermarket,Toko Asia,"7964+35Q, Dapurang, Kec. Dapurang, Kab. Pasangkayu, Sulawesi Barat 91573","Dapurang, Kec. Dapurang, Kab. Pasangkayu",SULAWESI BARAT,91573.0,Indonesia,,,,-1.739781,119.3554712,https://maps.google.com/?cid=0x0:0xb1837fd8a8502650,
supermarket,Tempat Ibadah,Masjid Limua Kec. Dapurang,"785H+V74, Dapurang, Kec. Dapurang, Kab. Pasangkayu, Sulawesi Barat 91573","Dapurang, Kec. Dapurang, Kab. Pasangkayu",SULAWESI BARAT,91573.0,Indonesia,,,,-1.7403643,119.3281967,https://maps.google.com/?cid=0x0:0x46970a96c309cec6,
supermarket,supermarket,Kec. Duripoku,"Kab. Pasangkayu, Sulawesi Barat","Kab. Pasangkayu, Sulawesi Barat",SULAWESI BARAT,,Indonesia,,,,-1.6543678,119.4203336,https://maps.google.com/?cid=0x0:0x2c307cba88191354,
supermarket,Toko bahan makanan,Toko hj.anti,"995F+HCR, Saptanajaya, Kec. Duripoku, Kab. Pasangkayu, Sulawesi Barat 91573","Saptanajaya, Kec. Duripoku, Kab. Pasangkayu",SULAWESI BARAT,91573.0,Indonesia,85289444684.0,,,-1.6410213,119.3735059,https://maps.google.com/?cid=0x0:0xabd748504ec39f8,
supermarket,Toko,Warung Desti,"89VV+3CP, Taranggi, Kec. Duripoku, Kab. Pasangkayu, Sulawesi Barat 91573","Taranggi, Kec. Duripoku, Kab. Pasangkayu",SULAWESI BARAT,91573.0,Indonesia,,,,-1.6570532,119.3945592,https://maps.google.com/?cid=0x0:0xaecd6b7ffc9fa927,
supermarket,Toko Swalayan,Hello Mart,"887R+RJC, Bulu Mario, Kec. Sarudu, Kab. Pasangkayu, Sulawesi Barat 91573","Bulu Mario, Kec. Sarudu, Kab. Pasangkayu",SULAWESI BARAT,91573.0,Indonesia,81342193732.0,,,-1.6854321,119.3415189,https://maps.google.com/?cid=0x0:0x1d85cf02f2d24027,
supermarket,supermarket,Kios mirwan,"885R+RG8, Bulu Mario, Kec. Sarudu, Kab. Pasangkayu, Sulawesi Barat 91573","Bulu Mario, Kec. Sarudu, Kab. Pasangkayu",SULAWESI BARAT,91573.0,Indonesia,,,,-1.6904114,119.3409432,https://maps.google.com/?cid=0x0:0xec71389c4e04b0a0,
supermarket,Toko Swalayan,toko vhy-mart,"Bulu Mario, Kec. Sarudu, Kab. Pasangkayu, Sulawesi Barat 91573","Kec. Sarudu, Kab. Pasangkayu",SULAWESI BARAT,91573.0,Indonesia,82293792955.0,,,-1.6882351,119.3390502,https://maps.google.com/?cid=0x0:0x67ca559b876d855b,
supermarket,Toko bahan makanan,TOKO ILHAM,"887R+PPX, Bulu Mario, Kec. Sarudu, Kab. Pasangkayu, Sulawesi Barat 91573","Bulu Mario, Kec. Sarudu, Kab. Pasangkayu",SULAWESI BARAT,91573.0,Indonesia,82343545170.0,,,-1.6856444,119.341844,https://maps.google.com/?cid=0x0:0xdd1506e0a6be9475,
supermarket,Pasar,Gardu Mamana Bunga,"7C63+C33, Jl. Baru, Benggaulu, Kec. Dapurang, Kab. Pasangkayu, Sulawesi Barat 91573","Jl. Baru, Benggaulu, Kec. Dapurang, Kab. Pasangkayu",SULAWESI BARAT,91573.0,Indonesia,8114106221.0,,,-1.7389901,119.402659,https://maps.google.com/?cid=0x0:0xa417e81723e54bd9,
supermarket,Grosir Sayur dan Buah,Pasar Sp1 Bulumario,"889R+582, Bulu Mario, Kec. Sarudu, Kab. Pasangkayu, Sulawesi Barat 91573","Bulu Mario, Kec. Sarudu, Kab. Pasangkayu",SULAWESI BARAT,91573.0,Indonesia,,,,-1.6821145,119.3407636,https://maps.google.com/?cid=0x0:0x3e781257ae6d5479,
supermarket,Pusat Perbelanjaan,Kios Berkah,"888R+4J5, Jl. Sultan Hasanuddin, Bulu Mario, Kec. Sarudu, Kab. Pasangkayu, Sulawesi Barat 91573","Jl. Sultan Hasanuddin, Bulu Mario, Kec. Sarudu, Kab. Pasangkayu",SULAWESI BARAT,91573.0,Indonesia,,,,-1.6847409,119.3416232,https://maps.google.com/?cid=0x0:0xae1ea5e4c9dd085b,
supermarket,Toko Swalayan,TOKO RAHMA,"CCP2+JQ9, Motu, Kec. Baras, Kab. Pasangkayu, Sulawesi Barat 91572","Motu, Kec. Baras, Kab. Pasangkayu",SULAWESI BARAT,91572.0,Indonesia,82111222565.0,,,-1.5634513,119.4019917,https://maps.google.com/?cid=0x0:0xe3a102f9bd6ddb6f,
supermarket,Toko Swalayan,echi market,"888P+X7M, Bulu Mario, Kec. Sarudu, Kab. Pasangkayu, Sulawesi Barat 91573","Bulu Mario, Kec. Sarudu, Kab. Pasangkayu",SULAWESI BARAT,91573.0,Indonesia,85312781323.0,,,-1.6825365,119.3356737,https://maps.google.com/?cid=0x0:0x736f99f7d1e17dd5,
supermarket,Pasar,Pasar Benggaulu,"7C54+V93, Benggaulu, Kec. Dapurang, Kab. Pasangkayu, Sulawesi Barat 91573","Benggaulu, Kec. Dapurang, Kab. Pasangkayu",SULAWESI BARAT,91573.0,Indonesia,,,,-1.7403694,119.4059268,https://maps.google.com/?cid=0x0:0x81ce62adc3e933d3,
supermarket,Toko umum,Kios Fadilah,"Lr. 6 barat Desa Bulumario, Bulu Mario, Kec. Sarudu, Kab. Pasangkayu, Sulawesi Barat 91573","Bulu Mario, Kec. Sarudu, Kab. Pasangkayu",SULAWESI BARAT,91573.0,Indonesia,82189910590.0,,,-1.6826787,119.3408536,https://maps.google.com/?cid=0x0:0x267ae5f859a3b116,
supermarket,Toko,Toko Putri Cell,"7CC6+JH7, Benggaulu, Kec. Dapurang, Kab. Pasangkayu, Sulawesi Barat 91573","Benggaulu, Kec. Dapurang, Kab. Pasangkayu",SULAWESI BARAT,91573.0,Indonesia,82352053426.0,,,-1.7284715,119.4114188,https://maps.google.com/?cid=0x0:0x38f02124ee7b33d4,
supermarket,Makanan Kecil,RM Parepare,"Jl. Poros Palu - Mamuju, Dapurang, Kec. Dapurang, Kab. Pasangkayu, Sulawesi Barat","Kab. Pasangkayu, Sulawesi Barat",SULAWESI BARAT,,Indonesia,,,,-1.7364034,119.3812375,https://maps.google.com/?cid=0x0:0xb812bbf5e8b5279d,
supermarket,Toko,Toko ayra,"CCP2+JVC, Motu, Kec. Baras, Kab. Pasangkayu, Sulawesi Barat 91572","Motu, Kec. Baras, Kab. Pasangkayu",SULAWESI BARAT,91572.0,Indonesia,81355487013.0,,,-1.5634436,119.4021318,https://maps.google.com/?cid=0x0:0xf03749d484badbcd,
supermarket,Pasar,Pasar Bulu Bonggu,"7CQG+2Q6, Bulu Bonggu, Kec. Dapurang, Kab. Pasangkayu, Sulawesi Barat 91573","Bulu Bonggu, Kec. Dapurang, Kab. Pasangkayu",SULAWESI BARAT,91573.0,Indonesia,,,,-1.7124544,119.4268892,https://maps.google.com/?cid=0x0:0x1dbed3ebf367af2f,
supermarket,Toko Swalayan,Toko Lalampa,"Bulu Mario, Kec. Sarudu, Kab. Pasangkayu, Sulawesi Barat 91573","Kec. Sarudu, Kab. Pasangkayu",SULAWESI BARAT,91573.0,Indonesia,85341897446.0,,,-1.6882351,119.3390502,https://maps.google.com/?cid=0x0:0xe1a6881204112c15,
supermarket,Produsen makanan,KERIPIK PISANG MAMA RAZKA,"8CWC+JMJ, Tammarunang, Kec. Duripoku, Kab. Pasangkayu, Sulawesi Barat","Kab. Pasangkayu, Sulawesi Barat",SULAWESI BARAT,,Indonesia,,,,-1.6534208,119.4217983,https://maps.google.com/?cid=0x0:0x39310f2b8f89baf2,
supermarket,Toko Bahan Bangunan,Supermarket Tija Prima,"88J7+7WP, Sarudu, Kec. Sarudu, Kab. Pasangkayu, Sulawesi Barat 91573","Sarudu, Kec. Sarudu, Kab. Pasangkayu",SULAWESI BARAT,91573.0,Indonesia,81840337005.0,,,-1.6692857,119.3148236,https://maps.google.com/?cid=0x0:0x4f00a87c0068de5,
supermarket,Toko Swalayan,RYAN SWALAYAN,"R9G9+GF8, Pasangkayu, Kec. Pasangkayu, Kab. Pasangkayu, Sulawesi Barat 91574","Pasangkayu, Kec. Pasangkayu, Kab. Pasangkayu",SULAWESI BARAT,91574.0,Indonesia,,,,-1.1737109,119.3687077,https://maps.google.com/?cid=0x0:0x4d0c2e61364c22b5,
supermarket,Minimarket,Swalayan Al Mubarok,"Jl. Poros Palu - Mamuju, Bulu Parigi, Kec. Baras, Kab. Pasangkayu, Sulawesi Barat 91572","Bulu Parigi, Kec. Baras, Kab. Pasangkayu",SULAWESI BARAT,91572.0,Indonesia,82292250099.0,,,-1.5971617,119.3247777,https://maps.google.com/?cid=0x0:0xbdd9b7b7928d06e6,
supermarket,Toko Swalayan,Toko Taktik Mart,"C86H+R74, Jl. Poros Palu - Mamuju, Baras, Kec. Baras, Kab. Pasangkayu, Sulawesi Barat 91572","Jl. Poros Palu - Mamuju, Baras, Kec. Baras, Kab. Pasangkayu",SULAWESI BARAT,91572.0,Indonesia,,,,-1.5879771,119.3281945,https://maps.google.com/?cid=0x0:0xd6789bead685dfb8,
supermarket,supermarket,Kec. Lariang,"Kab. Pasangkayu, Sulawesi Barat","Kab. Pasangkayu, Sulawesi Barat",SULAWESI BARAT,,Indonesia,,,,-1.4747552,119.3681607,https://maps.google.com/?cid=0x0:0x9800acb19cdd3433,
supermarket,Toko bahan makanan,Toko Sinar Demak,"G9G8+3C5, Parabu, Kec. Lariang, Kab. Pasangkayu, Sulawesi Barat 91572","Parabu, Kec. Lariang, Kab. Pasangkayu",SULAWESI BARAT,91572.0,Indonesia,,,,-1.47486,119.366116,https://maps.google.com/?cid=0x0:0xeb25bca58fc912d7,
supermarket,Toko bahan makanan,Rda Kasmawati kamma,"G9G8+FG7, Parabu, Kec. Lariang, Kab. Pasangkayu, Sulawesi Barat 91572","Parabu, Kec. Lariang, Kab. Pasangkayu",SULAWESI BARAT,91572.0,Indonesia,82291997650.0,,,-1.4738323,119.3662893,https://maps.google.com/?cid=0x0:0x2b3c3d48a97d3ddf,
supermarket,Toko Swalayan,TOKO SINAR MAROS,"G9G8+7C8, Parabu, Kec. Lariang, Kab. Pasangkayu, Sulawesi Barat 91572","Parabu, Kec. Lariang, Kab. Pasangkayu",SULAWESI BARAT,91572.0,Indonesia,82193780315.0,,,-1.4743417,119.3660648,https://maps.google.com/?cid=0x0:0x8a4c2af4e71f6c5d,
supermarket,Pusat Perbelanjaan,Bengkel Nurdin,"G9G8+CG9, Unnamed Road, Parabu, Kec. Lariang, Kab. Pasangkayu, Sulawesi Barat 91572","Unnamed Road, Parabu, Kec. Lariang, Kab. Pasangkayu",SULAWESI BARAT,91572.0,Indonesia,82259258539.0,,,-1.4739501,119.36636,https://maps.google.com/?cid=0x0:0x45a1a9b06eebd91f,
supermarket,Toko bahan makanan,Toko Gandhi Putra,"GCG8+JG8, Jl. I Gusti Ngurah Rai, Lilimori, Kec. Bulu Taba, Kab. Pasangkayu, Sulawesi Barat 91572","Jl. I Gusti Ngurah Rai, Lilimori, Kec. Bulu Taba, Kab. Pasangkayu",SULAWESI BARAT,91572.0,Indonesia,81340540394.0,,,-1.473458,119.4163131,https://maps.google.com/?cid=0x0:0x7a41b2787822820d,
supermarket,Toko umum,Kios belawa01,"G9G9+6VJ, Parabu, Kec. Lariang, Kab. Pasangkayu, Sulawesi Barat 91572","Parabu, Kec. Lariang, Kab. Pasangkayu",SULAWESI BARAT,91572.0,Indonesia,,,,-1.4745054,119.3708364,https://maps.google.com/?cid=0x0:0x2ea65718a384a981,
supermarket,Toko Swalayan,Toko obat wilda Farma,"G9G8+5CP, Parabu, Kec. Lariang, Kab. Pasangkayu, Sulawesi Barat 91572","Parabu, Kec. Lariang, Kab. Pasangkayu",SULAWESI BARAT,91572.0,Indonesia,,,,-1.4745284,119.3660836,https://maps.google.com/?cid=0x0:0x967bac69419b2cce,
supermarket,Toko,TOKO RIMA,"GCF9+H77, Jl. Sultan Hasanuddin, Lilimori, Kec. Bulu Taba, Kab. Pasangkayu, Sulawesi Barat 91572","Jl. Sultan Hasanuddin, Lilimori, Kec. Bulu Taba, Kab. Pasangkayu",SULAWESI BARAT,91572.0,Indonesia,,,,-1.4760966,119.4181844,https://maps.google.com/?cid=0x0:0x3fd6876f64a79f2d,
supermarket,Minimarket,Minimarket,"GCG9+J82, Jl. I Gusti Ngurah Rai, Lilimori, Kec. Bulu Taba, Kab. Pasangkayu, Sulawesi Barat 91572","Jl. I Gusti Ngurah Rai, Lilimori, Kec. Bulu Taba, Kab. Pasangkayu",SULAWESI BARAT,91572.0,Indonesia,,,,-1.4734844,119.4182516,https://maps.google.com/?cid=0x0:0xb80e8d767d6cd450,
supermarket,Toko,Toko Al Ghazali/salim,"GCF6+7M6, Unnamed Road, Lilimori, Kec. Bulu Taba, Kab. Pasangkayu, Sulawesi Barat 91572","Unnamed Road, Lilimori, Kec. Bulu Taba, Kab. Pasangkayu",SULAWESI BARAT,91572.0,Indonesia,,,,-1.4768461,119.4116325,https://maps.google.com/?cid=0x0:0xf9b0c6ebd6b66a11,
supermarket,Kios,Depot aditiya,"GC44+8WF, Karave, Kec. Bulu Taba, Kab. Pasangkayu, Sulawesi Barat 91572","Karave, Kec. Bulu Taba, Kab. Pasangkayu",SULAWESI BARAT,91572.0,Indonesia,,,,-1.4939056,119.4073229,https://maps.google.com/?cid=0x0:0x960994880ccd4ecc,
supermarket,Toko bahan makanan,Toko nurhayati,"HFC5+3PM, Kasta Buana, Kec. Bulu Taba, Kab. Pasangkayu, Sulawesi Barat 91571","Kasta Buana, Kec. Bulu Taba, Kab. Pasangkayu",SULAWESI BARAT,91571.0,Indonesia,87750666214.0,,,-1.42978,119.4592977,https://maps.google.com/?cid=0x0:0x9957980a14b419f1,
supermarket,Toko bahan makanan,Kios Rama,"HFF5+2RH, Kasta Buana, Kec. Bulu Taba, Kab. Pasangkayu, Sulawesi Barat 91571","Kasta Buana, Kec. Bulu Taba, Kab. Pasangkayu",SULAWESI BARAT,91571.0,Indonesia,87791868733.0,,,-1.4274711,119.4596537,https://maps.google.com/?cid=0x0:0xc4fcd032378a6724,
supermarket,Bengkel Sepeda Motor,Cayla Motor,"HC7F+6Q9, Lelejae, Kec. Bulu Taba, Kab. Pasangkayu, Sulawesi Barat 91571","Lelejae, Kec. Bulu Taba, Kab. Pasangkayu",SULAWESI BARAT,91571.0,Indonesia,87865207601.0,,,-1.4369632,119.4244868,https://maps.google.com/?cid=0x0:0x902ae5957f2f9d18,
supermarket,Komplek perumahan,Minimarket,"Singgani, Kec. Lariang, Kab. Pasangkayu, Sulawesi Barat 91572","Kec. Lariang, Kab. Pasangkayu",SULAWESI BARAT,91572.0,Indonesia,81343909786.0,,,-1.4922657,119.3344037,https://maps.google.com/?cid=0x0:0x3a60103d5d85743b,
supermarket,supermarket,Sulawesi Barat 91571,"Kab. Pasangkayu, Sulawesi Barat","Kab. Pasangkayu, Sulawesi Barat",SULAWESI BARAT,,Indonesia,,,,-1.2916992,119.3714909,https://maps.google.com/?cid=0x0:0x12640eefba628a12,
supermarket,Toko Swalayan,RYAN SWALAYAN,"R9G9+GF8, Pasangkayu, Kec. Pasangkayu, Kab. Pasangkayu, Sulawesi Barat 91574","Pasangkayu, Kec. Pasangkayu, Kab. Pasangkayu",SULAWESI BARAT,91574.0,Indonesia,,,,-1.1737109,119.3687077,https://maps.google.com/?cid=0x0:0x4d0c2e61364c22b5,
supermarket,Toko bahan makanan,Minimarket Waladun Shole,"R996+QJW, Jl. Slt. Hasanuddin, Pasangkayu, Kec. Pasangkayu, Kab. Pasangkayu, Sulawesi Barat 91574","Jl. Slt. Hasanuddin, Pasangkayu, Kec. Pasangkayu, Kab. Pasangkayu",SULAWESI BARAT,91574.0,Indonesia,,,,-1.1805149,119.3615778,https://maps.google.com/?cid=0x0:0x7bf964f004935936,
supermarket,Toko Swalayan,AZ Zahra Mart Pasangkayu,"R9FF+5J2, Jl. Poros Majene - Mamuju, Pasangkayu, Kec. Pasangkayu, Kab. Pasangkayu, Sulawesi Barat 91574","Jl. Poros Majene - Mamuju, Pasangkayu, Kec. Pasangkayu, Kab. Pasangkayu",SULAWESI BARAT,91574.0,Indonesia,,,,-1.1771086,119.3740025,https://maps.google.com/?cid=0x0:0xb15183cab36b71a1,
supermarket,Minimarket,ALFAMIDI ANDI DEPU,"R9F6+RWW, Jl. Andi Depu, Pasangkayu, Kec. Pasangkayu, Kab. Pasangkayu, Sulawesi Barat 91574","Jl. Andi Depu, Pasangkayu, Kec. Pasangkayu, Kab. Pasangkayu",SULAWESI BARAT,91574.0,Indonesia,,,,-1.1753932,119.3623193,https://maps.google.com/?cid=0x0:0x248b6de9b55139cf,
supermarket,Toko,Kios Padaidi,"R9F6+4V3, Pasangkayu, Kec. Pasangkayu, Kab. Pasangkayu, Sulawesi Barat 91574","Pasangkayu, Kec. Pasangkayu, Kab. Pasangkayu",SULAWESI BARAT,91574.0,Indonesia,85242329799.0,,,-1.1772343,119.3621837,https://maps.google.com/?cid=0x0:0xf1ac016e51a20b41,
supermarket,Pasar,Az Zahra Mart,"R9CC+H8J, Jl. Ir. Soekarno, Pasangkayu, Kec. Pasangkayu, Kab. Pasangkayu, Sulawesi Barat 91574","Jl. Ir. Soekarno, Pasangkayu, Kec. Pasangkayu, Kab. Pasangkayu",SULAWESI BARAT,91574.0,Indonesia,,,,-1.1785381,119.3707759,https://maps.google.com/?cid=0x0:0x5ccb3bd1c8fbb3ae,
supermarket,Toko umum,Kios WILDA,"R995+HFQ, Pasangkayu, Kec. Pasangkayu, Kab. Pasangkayu, Sulawesi Barat 91574","Pasangkayu, Kec. Pasangkayu, Kab. Pasangkayu",SULAWESI BARAT,91574.0,Indonesia,81256783345.0,,,-1.1810277,119.3587422,https://maps.google.com/?cid=0x0:0x216d4800e5ae587a,
supermarket,Toko bahan makanan,Toko Liza,"R9G9+7JM, Jl. Dr. Sam Ratulangi, Pasangkayu, Kec. Pasangkayu, Kab. Pasangkayu, Sulawesi Barat 91574","Jl. Dr. Sam Ratulangi, Pasangkayu, Kec. Pasangkayu, Kab. Pasangkayu",SULAWESI BARAT,91574.0,Indonesia,,,,-1.1742788,119.3690411,https://maps.google.com/?cid=0x0:0x24867cc641f44702,
supermarket,Toko,Toko RIFKY,"R9F5+HVV, Pasangkayu, Kec. Pasangkayu, Kab. Pasangkayu, Sulawesi Barat 91574","Pasangkayu, Kec. Pasangkayu, Kab. Pasangkayu",SULAWESI BARAT,91574.0,Indonesia,85274111510.0,,,-1.176021,119.3596717,https://maps.google.com/?cid=0x0:0xc588a777f8db6106,
supermarket,Minimarket,Alfamidi Tugu Sawit,"R996+R2F, Jl. Fatmawati, Pasangkayu, Kec. Pasangkayu, Kab. Pasangkayu, Sulawesi Barat 91574","Jl. Fatmawati, Pasangkayu, Kec. Pasangkayu, Kab. Pasangkayu",SULAWESI BARAT,91574.0,Indonesia,,,,-1.1804388,119.3600567,https://maps.google.com/?cid=0x0:0xff7c956647d19174,
supermarket,Pemasok Air Minum Dalam Kemasan,Depot MJS Pasangkayu,"R9F4+43G, Jl Urip Sumoharjo, Pasangkayu, Kec. Pasangkayu, Kab. Pasangkayu, Sulawesi Barat 91571","Jl Urip Sumoharjo, Pasangkayu, Kec. Pasangkayu, Kab. Pasangkayu",SULAWESI BARAT,91571.0,Indonesia,85145252016.0,,,-1.177193,119.3552107,https://maps.google.com/?cid=0x0:0x6d706eab3b0c5449,
supermarket,Pemasok Air Minum Dalam Kemasan,KANGEN WATER DILL'AS,"Pasangkayu, Kec. Pasangkayu, Kab. Pasangkayu, Sulawesi Barat 91571","Kec. Pasangkayu, Kab. Pasangkayu",SULAWESI BARAT,91571.0,Indonesia,82328819919.0,,,-1.1855383,119.3433217,https://maps.google.com/?cid=0x0:0x6956b01545033955,
supermarket,Toko Swalayan,Kios Hanan,"R9G6+4F3, Jl. Andi Pelang, Pasangkayu, Kec. Pasangkayu, Kab. Pasangkayu, Sulawesi Barat 91571","Jl. Andi Pelang, Pasangkayu, Kec. Pasangkayu, Kab. Pasangkayu",SULAWESI BARAT,91571.0,Indonesia,82293833113.0,,,-1.1747344,119.3611758,https://maps.google.com/?cid=0x0:0x2cfc29232240f190,
supermarket,Minimarket,MOCHU,"KOMP. PASAR, Martajaya, Kec. Pasangkayu, Kab. Pasangkayu, Sulawesi Barat 91574","Martajaya, Kec. Pasangkayu, Kab. Pasangkayu",SULAWESI BARAT,91574.0,Indonesia,85228444572.0,,,-1.1831348,119.4377308,https://maps.google.com/?cid=0x0:0x5d227b15b0b75326,
supermarket,Pusat Perbelanjaan,Dwy OlehÂ²,"R987+G29, Jl. Tuna, Pasangkayu, Kec. Pasangkayu, Kab. Pasangkayu, Sulawesi Barat 91571","Jl. Tuna, Pasangkayu, Kec. Pasangkayu, Kab. Pasangkayu",SULAWESI BARAT,91571.0,Indonesia,81905315878.0,,,-1.1837058,119.3626161,https://maps.google.com/?cid=0x0:0xd68f4b4ddb411f30,
supermarket,Toko,Hasan Shop,"P8JG+H7G, Malei, Pedongga, Kab. Pasangkayu, Sulawesi Barat 91571","Malei, Pedongga, Kab. Pasangkayu",SULAWESI BARAT,91571.0,Indonesia,,,,-1.2685573,119.3257051,https://maps.google.com/?cid=0x0:0xde53fa531f8963f0,
supermarket,Toko Swalayan,RIFAYA HALALMART,"QFG2+FV7, Gn. Sari, Kec. Pasangkayu, Kab. Pasangkayu, Sulawesi Barat 91571","Gn. Sari, Kec. Pasangkayu, Kab. Pasangkayu",SULAWESI BARAT,91571.0,Indonesia,81328591997.0,,,-1.2238408,119.4521587,https://maps.google.com/?cid=0x0:0xca6f014f07ad3fd8,
supermarket,Toko bahan makanan,Cahaya Ujung Pasangkayu,"R9FH+XPM, Jl. Pahlawan Syafiq, Pasangkayu, Kec. Pasangkayu, Kab. Pasangkayu, Sulawesi Barat 91574","Jl. Pahlawan Syafiq, Pasangkayu, Kec. Pasangkayu, Kab. Pasangkayu",SULAWESI BARAT,91574.0,Indonesia,,,,-1.1750279,119.3792992,https://maps.google.com/?cid=0x0:0x375adedc90452aed,
supermarket,Minimarket,Swalayan Al Mubarok,"Jl. Poros Palu - Mamuju, Bulu Parigi, Kec. Baras, Kab. Pasangkayu, Sulawesi Barat 91572","Bulu Parigi, Kec. Baras, Kab. Pasangkayu",SULAWESI BARAT,91572.0,Indonesia,82292250099.0,,,-1.5971617,119.3247777,https://maps.google.com/?cid=0x0:0xbdd9b7b7928d06e6,
supermarket,Toko Swalayan,Alfamidi Fatmawati,"R996+V5P, Pasangkayu, Kec. Pasangkayu, Kab. Pasangkayu, Sulawesi Barat 91574","Pasangkayu, Kec. Pasangkayu, Kab. Pasangkayu",SULAWESI BARAT,91574.0,Indonesia,,,,-1.1801347,119.360099,https://maps.google.com/?cid=0x0:0xe9652128ff8a63d9,
supermarket,Toko Swalayan,TOKO RAHMA,"CCP2+JQ9, Motu, Kec. Baras, Kab. Pasangkayu, Sulawesi Barat 91572","Motu, Kec. Baras, Kab. Pasangkayu",SULAWESI BARAT,91572.0,Indonesia,82111222565.0,,,-1.5634513,119.4019917,https://maps.google.com/?cid=0x0:0xe3a102f9bd6ddb6f,
supermarket,Toko Percetakan,Percetakan Kibad,"Kasta Buana, Kec. Bulu Taba, Kab. Pasangkayu, Sulawesi Barat 91571","Kec. Bulu Taba, Kab. Pasangkayu",SULAWESI BARAT,91571.0,Indonesia,81341182302.0,,,-1.4235914,119.4594207,https://maps.google.com/?cid=0x0:0xb7ac38d632f38171,
supermarket,Toko bahan makanan,Toko Piyopiyo,"Batu Oge, Pedongga, Kab. Pasangkayu, Sulawesi Barat 91571","Pedongga, Kab. Pasangkayu",SULAWESI BARAT,91571.0,Indonesia,85240200413.0,,,-1.2600336,119.3226496,https://maps.google.com/?cid=0x0:0x98b3bd0621c7640a,
supermarket,Toko,Shey's Shop Food  Frozen,"Jl. Unta, Pasangkayu, Kec. Pasangkayu, Kab. Pasangkayu, Sulawesi Barat 91571","Pasangkayu, Kec. Pasangkayu, Kab. Pasangkayu",SULAWESI BARAT,91571.0,Indonesia,81241902355.0,,,-1.1805188,119.3670925,https://maps.google.com/?cid=0x0:0xa8f5d89e2f3d3a,
supermarket,supermarket,Pedongga,"Kab. Pasangkayu, Sulawesi Barat","Kab. Pasangkayu, Sulawesi Barat",SULAWESI BARAT,,Indonesia,,,,-1.2745455,119.3947138,https://maps.google.com/?cid=0x0:0x9cbcb3a80b2b146e,
supermarket,Toko bahan makanan,Toko Piyopiyo,"Batu Oge, Pedongga, Kab. Pasangkayu, Sulawesi Barat 91571","Pedongga, Kab. Pasangkayu",SULAWESI BARAT,91571.0,Indonesia,85240200413.0,,,-1.2600336,119.3226496,https://maps.google.com/?cid=0x0:0x98b3bd0621c7640a,
supermarket,Toko,Hasan Shop,"P8JG+H7G, Malei, Pedongga, Kab. Pasangkayu, Sulawesi Barat 91571","Malei, Pedongga, Kab. Pasangkayu",SULAWESI BARAT,91571.0,Indonesia,,,,-1.2685573,119.3257051,https://maps.google.com/?cid=0x0:0xde53fa531f8963f0,
supermarket,Bank,Agen Brilink Toko Sinar Ilahi,"Martasari, Pedongga, Kab. Pasangkayu, Sulawesi Barat 91571","Pedongga, Kab. Pasangkayu",SULAWESI BARAT,91571.0,Indonesia,,,,-1.297115,119.3482599,https://maps.google.com/?cid=0x0:0xbc916905c4f67094,
supermarket,Toko,Cahaya Tija Jaya,"P83W+XPH, Jl. Poros Majene - Mamuju, Martasari, Pedongga, Kab. Pasangkayu, Sulawesi Barat 91571","Jl. Poros Majene - Mamuju, Martasari, Pedongga, Kab. Pasangkayu",SULAWESI BARAT,91571.0,Indonesia,85937063853.0,,,-1.2950711,119.3468538,https://maps.google.com/?cid=0x0:0x795c101907c33a6f,
supermarket,Perhimpunan Pengembang Perumahan,pasar pedanda,"P8PG+M4H, Malei, Pedongga, Kab. Pasangkayu, Sulawesi Barat 91571","Malei, Pedongga, Kab. Pasangkayu",SULAWESI BARAT,91571.0,Indonesia,82293137045.0,,,-1.2633023,119.325366,https://maps.google.com/?cid=0x0:0xd6a8a35cfb91ff9e,
supermarket,Minimarket,Alfamidi Pedongga,"P8MF+9Q4, Jl trans sulawesi, Malei, Pedongga, Kab. Pasangkayu, Sulawesi Barat","Kab. Pasangkayu, Sulawesi Barat",SULAWESI BARAT,,Indonesia,,,,-1.2666013,119.3244441,https://maps.google.com/?cid=0x0:0x20601292731f93e6,
supermarket,Pembangunan Perumahan,batu oge,"P8J6+76J, Batu Oge, Pedongga, Kab. Pasangkayu, Sulawesi Barat 91571","Batu Oge, Pedongga, Kab. Pasangkayu",SULAWESI BARAT,91571.0,Indonesia,,,,-1.2692773,119.3105141,https://maps.google.com/?cid=0x0:0x9012bab0cf24c958,
supermarket,Toko umum,Pedanda jual udang hidup,"P8FH+VF, Malei, Pedongga, Kab. Pasangkayu, Sulawesi Barat","Kab. Pasangkayu, Sulawesi Barat",SULAWESI BARAT,,Indonesia,,,,-1.2752707,119.3287201,https://maps.google.com/?cid=0x0:0x6ad5368493edf134,
supermarket,supermarket,Kios DIVA,"P8MF+MH7, Malei, Pedongga, Kab. Pasangkayu, Sulawesi Barat 91571","Malei, Pedongga, Kab. Pasangkayu",SULAWESI BARAT,91571.0,Indonesia,,,,-1.265829,119.3239144,https://maps.google.com/?cid=0x0:0xfd79418693dcece7,
supermarket,supermarket,Kios Nurhidayah,"P8MF+FM4, Malei, Pedongga, Kab. Pasangkayu, Sulawesi Barat 91571","Malei, Pedongga, Kab. Pasangkayu",SULAWESI BARAT,91571.0,Indonesia,,,,-1.2663693,119.324205,https://maps.google.com/?cid=0x0:0xb5ea69667c2717f,
supermarket,Toko bahan makanan,Toko Sahrul Rio Mukti,"PG54+CPR, Rio Mukti, Kec. Rio Pakava, Kabupaten Donggala, Sulawesi Tengah 94362","Rio Mukti, Kec. Rio Pakava, Kabupaten Donggala",SULAWESI BARAT,94362.0,Indonesia,,,,-1.2913939,119.5067616,https://maps.google.com/?cid=0x0:0xf9a7cd09e1fb1198,
supermarket,Hotel,Pt Mamuang,"PCJX+Q2G, Martasari, Pedongga, Kab. Pasangkayu, Sulawesi Barat 91571","Martasari, Pedongga, Kab. Pasangkayu",SULAWESI BARAT,91571.0,Indonesia,,,,-1.2680523,119.4475916,https://maps.google.com/?cid=0x0:0xcf52a58d8b870e17,
supermarket,supermarket,Sulawesi Barat 91574,"Kab. Pasangkayu, Sulawesi Barat","Kab. Pasangkayu, Sulawesi Barat",SULAWESI BARAT,,Indonesia,,,,-1.1559774,119.464359,https://maps.google.com/?cid=0x0:0x87450841cbc25162,
supermarket,Toko bahan makanan,Kios Neni,"Kios Neni, Dusun Takumpisi, Letawa, Kec. Sarjo, Kab. Pasangkayu, Sulawesi Barat","Kab. Pasangkayu, Sulawesi Barat",SULAWESI BARAT,,Indonesia,81340334189.0,,,-0.9084322,119.5513689,https://maps.google.com/?cid=0x0:0x7615ba033ae26e46,
supermarket,Toko Swalayan,Alfamidi Sarjo,"Jl. Poros Majene - Mamuju No.10, Sarude, Kec. Sarjo, Kab. Pasangkayu, Sulawesi Barat 91574","Sarude, Kec. Sarjo, Kab. Pasangkayu",SULAWESI BARAT,91574.0,Indonesia,,,,-0.8719062,119.5560122,https://maps.google.com/?cid=0x0:0xa1c01c5dc115a013,
supermarket,supermarket,TOKO WADI,"4G8X+J8C, Jl. Poros Majene - Mamuju, Sarjo, Kec. Sarjo, Kab. Pasangkayu, Sulawesi Barat 91574","Jl. Poros Majene - Mamuju, Sarjo, Kec. Sarjo, Kab. Pasangkayu",SULAWESI BARAT,91574.0,Indonesia,,,,-0.8834333,119.5482747,https://maps.google.com/?cid=0x0:0x77d0825b110ef9bc,
supermarket,Toko bahan makanan,TOKO ABDI,"Sarjo, Kec. Sarjo, Kab. Pasangkayu, Sulawesi Barat 91574","Kec. Sarjo, Kab. Pasangkayu",SULAWESI BARAT,91574.0,Indonesia,85298879745.0,,,-0.8818596,119.5479803,https://maps.google.com/?cid=0x0:0x6c073eb233fad1bf,
supermarket,Toko bahan makanan,JSGAS,"R9GM+GWQ, Jl. Poros Majene - Mamuju, Ako, Kec. Pasangkayu, Kab. Pasangkayu, Sulawesi Barat 91574","Jl. Poros Majene - Mamuju, Ako, Kec. Pasangkayu, Kab. Pasangkayu",SULAWESI BARAT,91574.0,Indonesia,,,,-1.1736675,119.3848525,https://maps.google.com/?cid=0x0:0x736e656c68c43a15,
supermarket,Minimarket,Kios djogja,"4HG9+7VF, Dusun rojo, Sarude, Kec. Sarjo, Kab. Pasangkayu, Sulawesi Barat","Kab. Pasangkayu, Sulawesi Barat",SULAWESI BARAT,,Indonesia,,,,-0.874325,119.5696566,https://maps.google.com/?cid=0x0:0xb4fde7efc43cd826,
supermarket,Kios,Kios Pammase,"3GXQ+JM2, Jl. Poros Palu - Mamuju, Dusun Takumpisi, Letawa, Kec. Sarjo, Kab. Pasangkayu, Sulawesi Barat 91574","Jl. Poros Palu - Mamuju, Dusun Takumpisi, Letawa, Kec. Sarjo, Kab. Pasangkayu",SULAWESI BARAT,91574.0,Indonesia,85341415101.0,,,-0.9009983,119.5391424,https://maps.google.com/?cid=0x0:0x41accc176511c0cc,
supermarket,Minimarket,TOKO NURUL RAHMAT,"4HH6+3RQ, Sarude, Kec. Sarjo, Kab. Pasangkayu, Sulawesi Barat 94351","Sarude, Kec. Sarjo, Kab. Pasangkayu",SULAWESI BARAT,94351.0,Indonesia,,,,-0.8722901,119.5621202,https://maps.google.com/?cid=0x0:0xde847de0793f4540,
supermarket,Kios,Kios bayu,"Maponu, Kec. Sarjo, Kab. Pasangkayu, Sulawesi Barat 91574","Kec. Sarjo, Kab. Pasangkayu",SULAWESI BARAT,91574.0,Indonesia,82187639282.0,,,-0.9212147,119.5241948,https://maps.google.com/?cid=0x0:0xc946feddf167475c,
supermarket,Toko Bahan Bangunan,Pratama Supermarket Bahan Bangunan Sukatani,"Jl. Pilar Sukatani No.204, Sukaraya, Kec. Karangbahagia, Kabupaten Bekasi, Jawa Barat 17535","Sukaraya, Kec. Karangbahagia, Kabupaten Bekasi",SULAWESI BARAT,17535.0,Indonesia,2189072770.0,,,-6.217434,107.1664019,https://maps.google.com/?cid=0x0:0xcc40347a47d8a121,
supermarket,supermarket,Sarjo,"Jl. Moh. Kahfi 1 No.1, RT.5/RW.6, Jagakarsa, Kec. Jagakarsa, Kota Jakarta Selatan, Daerah Khusus Ibukota Jakarta 12630","RT.5/RW.6, Jagakarsa, Kec. Jagakarsa, Kota Jakarta Selatan",SULAWESI BARAT,12630.0,Indonesia,,,,-6.3124377,106.8133153,https://maps.google.com/?cid=0x0:0x4b1062a1b4b30300,
supermarket,supermarket,Toko Sarjo,"RG8M+GJF, Jl. Pasir Awi, Ps. Kemis, Kec. Ps. Kemis, Kabupaten Tangerang, Banten 15560","Jl. Pasir Awi, Ps. Kemis, Kec. Ps. Kemis, Kabupaten Tangerang",SULAWESI BARAT,15560.0,Indonesia,,,,-6.1836938,106.534033,https://maps.google.com/?cid=0x0:0x3c0ef3d8c8639c43,
supermarket,Toko Swalayan,Toko melda sarudu,"78R3+7QH, Sarudu, Kec. Sarudu, Kab. Pasangkayu, Sulawesi Barat 91573","Sarudu, Kec. Sarudu, Kab. Pasangkayu",SULAWESI BARAT,91573.0,Indonesia,85298542344.0,,,-1.7093076,119.3044964,https://maps.google.com/?cid=0x0:0x44c6372788d0d886,
supermarket,Taman,Sarudu,"888R+RQ8, Bulu Mario, Kec. Sarudu, Kab. Pasangkayu, Sulawesi Barat 91573","Bulu Mario, Kec. Sarudu, Kab. Pasangkayu",SULAWESI BARAT,91573.0,Indonesia,,,,-1.6829433,119.3421933,https://maps.google.com/?cid=0x0:0x31fc2fb7d365f60e,
supermarket,Minimarket,Alfamidi,"874V+2G, Sarudu, Kec. Sarudu, Kab. Pasangkayu, Sulawesi Barat 91573","Sarudu, Kec. Sarudu, Kab. Pasangkayu",SULAWESI BARAT,91573.0,Indonesia,,,,-1.6951994,119.2934593,https://maps.google.com/?cid=0x0:0xc904fc9504a1ab41,
supermarket,Toko Swalayan,Toko Kamal T. Moni,"Sarudu, Kec. Sarudu, Kab. Pasangkayu, Sulawesi Barat 91573","Kec. Sarudu, Kab. Pasangkayu",SULAWESI BARAT,91573.0,Indonesia,,,,-1.7236738,119.3199359,https://maps.google.com/?cid=0x0:0x9f717d54fcc5563c,
supermarket,Pasar,Pasar Sempo,"Sarudu, Kec. Sarudu, Kab. Pasangkayu, Sulawesi Barat 91573","Kec. Sarudu, Kab. Pasangkayu",SULAWESI BARAT,91573.0,Indonesia,,,,-1.7105001,119.3057894,https://maps.google.com/?cid=0x0:0x1eae297836dc902f,
supermarket,Toko Swalayan,toko vhy-mart,"Bulu Mario, Kec. Sarudu, Kab. Pasangkayu, Sulawesi Barat 91573","Kec. Sarudu, Kab. Pasangkayu",SULAWESI BARAT,91573.0,Indonesia,82293792955.0,,,-1.6882351,119.3390502,https://maps.google.com/?cid=0x0:0x67ca559b876d855b,
supermarket,Minimarket,Alfamidi Sarudu 1,"78R3+9P, Sarudu, Kec. Sarudu, Kab. Pasangkayu, Sulawesi Barat 91573","Sarudu, Kec. Sarudu, Kab. Pasangkayu",SULAWESI BARAT,91573.0,Indonesia,,,,-1.7090454,119.3043617,https://maps.google.com/?cid=0x0:0xe5719e205444ae23,
supermarket,supermarket,Kios,"884R+9FW, Sarudu, Kec. Sarudu, Kab. Pasangkayu, Sulawesi Barat 91573","Sarudu, Kec. Sarudu, Kab. Pasangkayu",SULAWESI BARAT,91573.0,Indonesia,,,,-1.6940167,119.341165,https://maps.google.com/?cid=0x0:0x7fefc67b054983b6,
supermarket,Toko Swalayan,Hello Mart,"887R+RJC, Bulu Mario, Kec. Sarudu, Kab. Pasangkayu, Sulawesi Barat 91573","Bulu Mario, Kec. Sarudu, Kab. Pasangkayu",SULAWESI BARAT,91573.0,Indonesia,81342193732.0,,,-1.6854321,119.3415189,https://maps.google.com/?cid=0x0:0x1d85cf02f2d24027,
supermarket,supermarket,Kios mirwan,"885R+RG8, Bulu Mario, Kec. Sarudu, Kab. Pasangkayu, Sulawesi Barat 91573","Bulu Mario, Kec. Sarudu, Kab. Pasangkayu",SULAWESI BARAT,91573.0,Indonesia,,,,-1.6904114,119.3409432,https://maps.google.com/?cid=0x0:0xec71389c4e04b0a0,
supermarket,Toko Swalayan,echi market,"888P+X7M, Bulu Mario, Kec. Sarudu, Kab. Pasangkayu, Sulawesi Barat 91573","Bulu Mario, Kec. Sarudu, Kab. Pasangkayu",SULAWESI BARAT,91573.0,Indonesia,85312781323.0,,,-1.6825365,119.3356737,https://maps.google.com/?cid=0x0:0x736f99f7d1e17dd5,
supermarket,supermarket,Sarudu,"Kec. Sarudu, Kab. Pasangkayu, Sulawesi Barat","Kab. Pasangkayu, Sulawesi Barat",SULAWESI BARAT,,Indonesia,,,,-1.6954473,119.3076098,https://maps.google.com/?cid=0x0:0x4d23a34e4d81dc54,
supermarket,Toko bahan makanan,TOKO ILHAM,"887R+PPX, Bulu Mario, Kec. Sarudu, Kab. Pasangkayu, Sulawesi Barat 91573","Bulu Mario, Kec. Sarudu, Kab. Pasangkayu",SULAWESI BARAT,91573.0,Indonesia,82343545170.0,,,-1.6856444,119.341844,https://maps.google.com/?cid=0x0:0xdd1506e0a6be9475,
supermarket,Pusat Perbelanjaan,Kios Berkah,"888R+4J5, Jl. Sultan Hasanuddin, Bulu Mario, Kec. Sarudu, Kab. Pasangkayu, Sulawesi Barat 91573","Jl. Sultan Hasanuddin, Bulu Mario, Kec. Sarudu, Kab. Pasangkayu",SULAWESI BARAT,91573.0,Indonesia,,,,-1.6847409,119.3416232,https://maps.google.com/?cid=0x0:0xae1ea5e4c9dd085b,
supermarket,Toko umum,Kios Fadilah,"Lr. 6 barat Desa Bulumario, Bulu Mario, Kec. Sarudu, Kab. Pasangkayu, Sulawesi Barat 91573","Bulu Mario, Kec. Sarudu, Kab. Pasangkayu",SULAWESI BARAT,91573.0,Indonesia,82189910590.0,,,-1.6826787,119.3408536,https://maps.google.com/?cid=0x0:0x267ae5f859a3b116,
supermarket,Toko,Asriani Kasya,"785J+CFP, Dapurang, Kec. Dapurang, Kab. Pasangkayu, Sulawesi Barat 91573","Dapurang, Kec. Dapurang, Kab. Pasangkayu",SULAWESI BARAT,91573.0,Indonesia,85299015764.0,,,-1.7414147,119.3311979,https://maps.google.com/?cid=0x0:0xfad00b11ea2f36b3,
supermarket,Grosir Sayur dan Buah,Pasar Sp1 Bulumario,"889R+582, Bulu Mario, Kec. Sarudu, Kab. Pasangkayu, Sulawesi Barat 91573","Bulu Mario, Kec. Sarudu, Kab. Pasangkayu",SULAWESI BARAT,91573.0,Indonesia,,,,-1.6821145,119.3407636,https://maps.google.com/?cid=0x0:0x3e781257ae6d5479,
supermarket,Toko,Toko Sinar Matahari,"78R3+Q78, Sarudu, Kec. Sarudu, Kab. Pasangkayu, Sulawesi Barat 91573","Sarudu, Kec. Sarudu, Kab. Pasangkayu",SULAWESI BARAT,91573.0,Indonesia,,,,-1.7080893,119.303192,https://maps.google.com/?cid=0x0:0x5588542f9166adc5,
supermarket,Toko,Toko sri Devi,"78V2+RHG, Jl. Poros Majene - Mamuju, Sarudu, Kec. Sarudu, Kab. Pasangkayu, Sulawesi Barat 91573","Jl. Poros Majene - Mamuju, Sarudu, Kec. Sarudu, Kab. Pasangkayu",SULAWESI BARAT,91573.0,Indonesia,,,,-1.7054382,119.3014531,https://maps.google.com/?cid=0x0:0x41f7c9740b44b6d8,
supermarket,Toko Pakaian,H.anto,"887R+FP6, Jl. Belimbing, Bulu Mario, Kec. Sarudu, Kab. Pasangkayu, Sulawesi Barat 91573","Jl. Belimbing, Bulu Mario, Kec. Sarudu, Kab. Pasangkayu",SULAWESI BARAT,91573.0,Indonesia,,,,-1.6863392,119.3417714,https://maps.google.com/?cid=0x0:0xe8730d554c504e7a,
supermarket,Toko Swalayan,Toko Lalampa,"Bulu Mario, Kec. Sarudu, Kab. Pasangkayu, Sulawesi Barat 91573","Kec. Sarudu, Kab. Pasangkayu",SULAWESI BARAT,91573.0,Indonesia,85341897446.0,,,-1.6882351,119.3390502,https://maps.google.com/?cid=0x0:0xe1a6881204112c15,
supermarket,Toko bahan makanan,kios campuran,"887V+85G, Bulu Mario, Kec. Sarudu, Kab. Pasangkayu, Sulawesi Barat 91573","Bulu Mario, Kec. Sarudu, Kab. Pasangkayu",SULAWESI BARAT,91573.0,Indonesia,,,,-1.6866923,119.3429623,https://maps.google.com/?cid=0x0:0xf71f2830b2c8b03,
supermarket,supermarket,Sulawesi Barat 91571,"Kab. Pasangkayu, Sulawesi Barat","Kab. Pasangkayu, Sulawesi Barat",SULAWESI BARAT,,Indonesia,,,,-1.2916992,119.3714909,https://maps.google.com/?cid=0x0:0x12640eefba628a12,
supermarket,Pasar,Pasar Tikke Raya,"M97G+RF3, Tikke, Kec. Tikke Raya, Kab. Pasangkayu, Sulawesi Barat 91571","Tikke, Kec. Tikke Raya, Kab. Pasangkayu",SULAWESI BARAT,91571.0,Indonesia,,,,-1.3354834,119.3761706,https://maps.google.com/?cid=0x0:0x92219c20e9174fa7,
supermarket,Toko Swalayan,RYAN SWALAYAN,"R9G9+GF8, Pasangkayu, Kec. Pasangkayu, Kab. Pasangkayu, Sulawesi Barat 91574","Pasangkayu, Kec. Pasangkayu, Kab. Pasangkayu",SULAWESI BARAT,91574.0,Indonesia,,,,-1.1737109,119.3687077,https://maps.google.com/?cid=0x0:0x4d0c2e61364c22b5,
supermarket,Toko,Toko RIFKY,"R9F5+HVV, Pasangkayu, Kec. Pasangkayu, Kab. Pasangkayu, Sulawesi Barat 91574","Pasangkayu, Kec. Pasangkayu, Kab. Pasangkayu",SULAWESI BARAT,91574.0,Indonesia,85274111510.0,,,-1.176021,119.3596717,https://maps.google.com/?cid=0x0:0xc588a777f8db6106,
supermarket,Kios,Toko Azzahra,"M97G+XPP, Jl. Poros Majene - Mamuju, Tikke, Kec. Tikke Raya, Kab. Pasangkayu, Sulawesi Barat 91578","Jl. Poros Majene - Mamuju, Tikke, Kec. Tikke Raya, Kab. Pasangkayu",SULAWESI BARAT,91578.0,Indonesia,,,,-1.3350269,119.3768172,https://maps.google.com/?cid=0x0:0x92187d1db7efe039,
supermarket,Toko,Kios Padaidi,"R9F6+4V3, Pasangkayu, Kec. Pasangkayu, Kab. Pasangkayu, Sulawesi Barat 91574","Pasangkayu, Kec. Pasangkayu, Kab. Pasangkayu",SULAWESI BARAT,91574.0,Indonesia,85242329799.0,,,-1.1772343,119.3621837,https://maps.google.com/?cid=0x0:0xf1ac016e51a20b41,
supermarket,Toko,TOKO GHAYZAN TIKKE,"M98H+27V, Jl. Poros Majene - Mamuju, Tikke, Kec. Tikke Raya, Kab. Pasangkayu, Sulawesi Barat 91571","Jl. Poros Majene - Mamuju, Tikke, Kec. Tikke Raya, Kab. Pasangkayu",SULAWESI BARAT,91571.0,Indonesia,85397457779.0,,,-1.3348785,119.3781641,https://maps.google.com/?cid=0x0:0x8e12d4f388612211,
supermarket,Toko,Hasan Shop,"P8JG+H7G, Malei, Pedongga, Kab. Pasangkayu, Sulawesi Barat 91571","Malei, Pedongga, Kab. Pasangkayu",SULAWESI BARAT,91571.0,Indonesia,,,,-1.2685573,119.3257051,https://maps.google.com/?cid=0x0:0xde53fa531f8963f0,
supermarket,Toko,Cahaya Tija Jaya,"P83W+XPH, Jl. Poros Majene - Mamuju, Martasari, Pedongga, Kab. Pasangkayu, Sulawesi Barat 91571","Jl. Poros Majene - Mamuju, Martasari, Pedongga, Kab. Pasangkayu",SULAWESI BARAT,91571.0,Indonesia,85937063853.0,,,-1.2950711,119.3468538,https://maps.google.com/?cid=0x0:0x795c101907c33a6f,
supermarket,Toko bahan makanan,Toko Liza,"R9G9+7JM, Jl. Dr. Sam Ratulangi, Pasangkayu, Kec. Pasangkayu, Kab. Pasangkayu, Sulawesi Barat 91574","Jl. Dr. Sam Ratulangi, Pasangkayu, Kec. Pasangkayu, Kab. Pasangkayu",SULAWESI BARAT,91574.0,Indonesia,,,,-1.1742788,119.3690411,https://maps.google.com/?cid=0x0:0x24867cc641f44702,
supermarket,Pasar,Az Zahra Mart,"R9CC+H8J, Jl. Ir. Soekarno, Pasangkayu, Kec. Pasangkayu, Kab. Pasangkayu, Sulawesi Barat 91574","Jl. Ir. Soekarno, Pasangkayu, Kec. Pasangkayu, Kab. Pasangkayu",SULAWESI BARAT,91574.0,Indonesia,,,,-1.1785381,119.3707759,https://maps.google.com/?cid=0x0:0x5ccb3bd1c8fbb3ae,
supermarket,Toko umum,Kios WILDA,"R995+HFQ, Pasangkayu, Kec. Pasangkayu, Kab. Pasangkayu, Sulawesi Barat 91574","Pasangkayu, Kec. Pasangkayu, Kab. Pasangkayu",SULAWESI BARAT,91574.0,Indonesia,81256783345.0,,,-1.1810277,119.3587422,https://maps.google.com/?cid=0x0:0x216d4800e5ae587a,
supermarket,Kantor Perusahaan,Koperasi PT Mamuang,"PC9C+8WV, Martasari, Pedongga, Kab. Pasangkayu, Sulawesi Barat 91571","Martasari, Pedongga, Kab. Pasangkayu",SULAWESI BARAT,91571.0,Indonesia,,,,-1.2816484,119.422294,https://maps.google.com/?cid=0x0:0xda54f2429a66e6c6,
supermarket,Toko Swalayan,RIFAYA HALALMART,"QFG2+FV7, Gn. Sari, Kec. Pasangkayu, Kab. Pasangkayu, Sulawesi Barat 91571","Gn. Sari, Kec. Pasangkayu, Kab. Pasangkayu",SULAWESI BARAT,91571.0,Indonesia,81328591997.0,,,-1.2238408,119.4521587,https://maps.google.com/?cid=0x0:0xca6f014f07ad3fd8,
supermarket,Bank,Agen Brilink Toko Sinar Ilahi,"Martasari, Pedongga, Kab. Pasangkayu, Sulawesi Barat 91571","Pedongga, Kab. Pasangkayu",SULAWESI BARAT,91571.0,Indonesia,,,,-1.297115,119.3482599,https://maps.google.com/?cid=0x0:0xbc916905c4f67094,
supermarket,Pasar,Toko Asrullah Lariang,"Jl. Poros Palu - Mamuju, Pasar Desa No.Depan, Lariang, Kec. Tikke Raya, Kab. Pasangkayu, Sulawesi Barat 91571","Pasar Desa No.Depan, Lariang, Kec. Tikke Raya, Kab. Pasangkayu",SULAWESI BARAT,91571.0,Indonesia,8124186572.0,,,-1.4323189,119.3573652,https://maps.google.com/?cid=0x0:0x22f5bd74882eea0a,
supermarket,Toko Swalayan,AZ Zahra Mart Pasangkayu,"R9FF+5J2, Jl. Poros Majene - Mamuju, Pasangkayu, Kec. Pasangkayu, Kab. Pasangkayu, Sulawesi Barat 91574","Jl. Poros Majene - Mamuju, Pasangkayu, Kec. Pasangkayu, Kab. Pasangkayu",SULAWESI BARAT,91574.0,Indonesia,,,,-1.1771086,119.3740025,https://maps.google.com/?cid=0x0:0xb15183cab36b71a1,
supermarket,supermarket,Kios JNS Cell,"MC2H+RR8, Makmur Jaya, Kec. Tikke Raya, Kab. Pasangkayu, Sulawesi Barat 94362","Makmur Jaya, Kec. Tikke Raya, Kab. Pasangkayu",SULAWESI BARAT,94362.0,Indonesia,,,,-1.3478785,119.4299929,https://maps.google.com/?cid=0x0:0xf16fad740e1aa140,
supermarket,Pemasok Air Minum Dalam Kemasan,KANGEN WATER DILL'AS,"Pasangkayu, Kec. Pasangkayu, Kab. Pasangkayu, Sulawesi Barat 91571","Kec. Pasangkayu, Kab. Pasangkayu",SULAWESI BARAT,91571.0,Indonesia,82328819919.0,,,-1.1855383,119.3433217,https://maps.google.com/?cid=0x0:0x6956b01545033955,
supermarket,Toko bahan makanan,Toko Piyopiyo,"Batu Oge, Pedongga, Kab. Pasangkayu, Sulawesi Barat 91571","Pedongga, Kab. Pasangkayu",SULAWESI BARAT,91571.0,Indonesia,85240200413.0,,,-1.2600336,119.3226496,https://maps.google.com/?cid=0x0:0x98b3bd0621c7640a,
supermarket,Minimarket,ALFAMIDI ANDI DEPU,"R9F6+RWW, Jl. Andi Depu, Pasangkayu, Kec. Pasangkayu, Kab. Pasangkayu, Sulawesi Barat 91574","Jl. Andi Depu, Pasangkayu, Kec. Pasangkayu, Kab. Pasangkayu",SULAWESI BARAT,91574.0,Indonesia,,,,-1.1753932,119.3623193,https://maps.google.com/?cid=0x0:0x248b6de9b55139cf,
supermarket,Toko bahan makanan,Kios takora,"HFC5+RPW, Kasta Buana, Kec. Bulu Taba, Kab. Pasangkayu, Sulawesi Barat 91571","Kasta Buana, Kec. Bulu Taba, Kab. Pasangkayu",SULAWESI BARAT,91571.0,Indonesia,,,,-1.4278693,119.4593168,https://maps.google.com/?cid=0x0:0xf87f9b976c7debde,
supermarket,Toko Swalayan,Kios Hanan,"R9G6+4F3, Jl. Andi Pelang, Pasangkayu, Kec. Pasangkayu, Kab. Pasangkayu, Sulawesi Barat 91571","Jl. Andi Pelang, Pasangkayu, Kec. Pasangkayu, Kab. Pasangkayu",SULAWESI BARAT,91571.0,Indonesia,82293833113.0,,,-1.1747344,119.3611758,https://maps.google.com/?cid=0x0:0x2cfc29232240f190,
