Category,Real Category,Business Name,Address,City,State,Postal Code,Country,Phone,Email,Website,Latitude,Longitude,Map Link,Details Link
komplek housing,komplek housing,Sulawesi Barat 91574,"Kab. Pasangkayu, Sulawesi Barat","Kab. Pasangkayu, Sulawesi Barat",SULAWESI BARAT,,Indonesia,,,,-1.1559774,119.464359,https://maps.google.com/?cid=0x0:0x87450841cbc25162,
komplek housing,Kantor Pemerintah,Desa Bambaira,"2GC4+FG9, Bambaira, Kec. Bambaira, Kab. Pasangkayu, Sulawesi Barat 91574","Bambaira, Kec. Bambaira, Kab. Pasangkayu",SULAWESI BARAT,91574.0,Indonesia,,,,-0.9788497,119.5063571,https://maps.google.com/?cid=0x0:0x4db0201848a1feb7,
komplek housing,Paviliun Pantai,Taba Pantai,"2GR8+FJ8, Bambaira, Kec. Bambaira, Kab. Pasangkayu, Sulawesi Barat","Kab. Pasangkayu, Sulawesi Barat",SULAWESI BARAT,,Indonesia,,,,-0.9588392,119.5165754,https://maps.google.com/?cid=0x0:0x3567560e1b7a1fd8,
komplek housing,komplek housing,taba poros,"2GM7+P4F, Jl. Poros Majene - Mamuju, Bambaira, Kec. Bambaira, Kab. Pasangkayu, Sulawesi Barat 91574","Jl. Poros Majene - Mamuju, Bambaira, Kec. Bambaira, Kab. Pasangkayu",SULAWESI BARAT,91574.0,Indonesia,,,,-0.965472,119.512663,https://maps.google.com/?cid=0x0:0x89b9b6aeaec2fa1,
komplek housing,Komplek perumahan,Rumah Tahir,"XFGR+HJ, Kasoloang, Kec. Bambaira, Kab. Pasangkayu, Sulawesi Barat","Kab. Pasangkayu, Sulawesi Barat",SULAWESI BARAT,,Indonesia,,,,-1.0235369,119.4915409,https://maps.google.com/?cid=0x0:0x72082bdcfd367ae6,
komplek housing,Komplek perumahan,Rumah sicantik,"2GF3+52M, Bambaira, Kec. Bambaira, Kab. Pasangkayu, Sulawesi Barat 91574","Bambaira, Kec. Bambaira, Kab. Pasangkayu",SULAWESI BARAT,91574.0,Indonesia,,,,-0.9770375,119.5025469,https://maps.google.com/?cid=0x0:0x66757727cc65b4f7,
komplek housing,Komplek perumahan,Rumah iskandar,"2G63+J2V, Bambaira, Kec. Bambaira, Kab. Pasangkayu, Sulawesi Barat 91574","Bambaira, Kec. Bambaira, Kab. Pasangkayu",SULAWESI BARAT,91574.0,Indonesia,,,,-0.9878901,119.5031666,https://maps.google.com/?cid=0x0:0x49bc31395b27ea0,
komplek housing,Komplek perumahan,Rumah Aad Alfatih,"2G92+5C6, Dusun Sibala, Bambaira, Kec. Bambaira, Kab. Pasangkayu, Sulawesi Barat 91574","Dusun Sibala, Bambaira, Kec. Bambaira, Kab. Pasangkayu",SULAWESI BARAT,91574.0,Indonesia,,,,-0.982881,119.501073,https://maps.google.com/?cid=0x0:0x8cf8586984198ce5,
komplek housing,Komplek perumahan,Rumah Liana,"XGP4+PM8, Kasoloang, Kec. Bambaira, Kab. Pasangkayu, Sulawesi Barat 91574","Kasoloang, Kec. Bambaira, Kab. Pasangkayu",SULAWESI BARAT,91574.0,Indonesia,,,,-1.0132167,119.5067133,https://maps.google.com/?cid=0x0:0x820fa05242be4f87,
komplek housing,Komplek perumahan,Rumah Kost Barra,"XFGP+43Q, Jl. Poros Lalundu, Kasoloang, Kec. Bambaira, Kab. Pasangkayu, Sulawesi Barat 91571","Jl. Poros Lalundu, Kasoloang, Kec. Bambaira, Kab. Pasangkayu",SULAWESI BARAT,91571.0,Indonesia,,,,-1.0250118,119.4849229,https://maps.google.com/?cid=0x0:0x1ab2b4d3f9054085,
komplek housing,Komplek perumahan,Rumah Aslan,"2GXC+2W, Tampaure, Kec. Bambaira, Kab. Pasangkayu, Sulawesi Barat","Kab. Pasangkayu, Sulawesi Barat",SULAWESI BARAT,,Indonesia,,,,-0.9524292,119.5223542,https://maps.google.com/?cid=0x0:0x7712333ce9f50292,
komplek housing,Pembangunan Perumahan,Rumah Namruddin,"2GR9+G23, Tampaure, Kec. Bambaira, Kab. Pasangkayu, Sulawesi Barat 91574","Tampaure, Kec. Bambaira, Kab. Pasangkayu",SULAWESI BARAT,91574.0,Indonesia,,,,-0.9587374,119.5175335,https://maps.google.com/?cid=0x0:0xeeca1ddb37bde983,
komplek housing,Komplek perumahan,Rumah Randi muliadi,"XFMV+962, Kasoloang, Kec. Bambaira, Kab. Pasangkayu, Sulawesi Barat 91574","Kasoloang, Kec. Bambaira, Kab. Pasangkayu",SULAWESI BARAT,91574.0,Indonesia,,,,-1.0166014,119.4930198,https://maps.google.com/?cid=0x0:0x50da8af4e043ac67,
komplek housing,Pembangunan Perumahan,Dusun. Torenda,"XFVV+4H2, Kasoloang, Kec. Bambaira, Kab. Pasangkayu, Sulawesi Barat 91574","Kasoloang, Kec. Bambaira, Kab. Pasangkayu",SULAWESI BARAT,91574.0,Indonesia,,,,-1.0072272,119.4939058,https://maps.google.com/?cid=0x0:0xd9f1500bf89a93c2,
komplek housing,Komplek perumahan,Rumah Sapri Rinda,"XGQ4+M3R, Kasoloang, Kec. Bambaira, Kab. Pasangkayu, Sulawesi Barat 91574","Kasoloang, Kec. Bambaira, Kab. Pasangkayu",SULAWESI BARAT,91574.0,Indonesia,,,,-1.0107609,119.5051741,https://maps.google.com/?cid=0x0:0x88aaa7e504062e18,
komplek housing,Komplek perumahan,Rumah Fadhil,"XF2G+5Q9, Randomayang, Kec. Bambalamotu, Kab. Pasangkayu, Sulawesi Barat 91574","Randomayang, Kec. Bambalamotu, Kab. Pasangkayu",SULAWESI BARAT,91574.0,Indonesia,,,,-1.0497874,119.4772508,https://maps.google.com/?cid=0x0:0x80ecef96822c3b18,
komplek housing,Komplek perumahan,Rumah Sultan,"XFHP+7G4, Kasoloang, Kec. Bambaira, Kab. Pasangkayu, Sulawesi Barat 91574","Kasoloang, Kec. Bambaira, Kab. Pasangkayu",SULAWESI BARAT,91574.0,Indonesia,,,,-1.0218747,119.4863345,https://maps.google.com/?cid=0x0:0xc6e614447e375a50,
komplek housing,Komplek perumahan,Rumah Pak Tannang Tutu,"2G2C+7XX, Kaluku Nangka, Kec. Bambaira, Kab. Pasangkayu, Sulawesi Barat 91574","Kaluku Nangka, Kec. Bambaira, Kab. Pasangkayu",SULAWESI BARAT,91574.0,Indonesia,,,,-0.999272,119.5224866,https://maps.google.com/?cid=0x0:0x4f35a4545d2dd76d,
komplek housing,Pembangunan Perumahan,Perumahan Panorama Bekasi,"Q2V4+W89 Perumahan Panorama, RT.007/RW.006, Perwira, Kec. Bekasi Utara, Kota Bks, Jawa Barat 17122","RT.007/RW.006, Perwira, Kec. Bekasi Utara, Kota Bks",SULAWESI BARAT,17122.0,Indonesia,,,,-6.2052126,107.0058683,https://maps.google.com/?cid=0x0:0xce709e4ea96f37d4,
komplek housing,Pembangunan Perumahan,Perumahan Bambu Kuning,"Jl. Pd. Bambu Kuning No.12B, Bojonggede, Kecamatan Bojonggede, Kabupaten Bogor, Jawa Barat 16922","Bojonggede, Kecamatan Bojonggede, Kabupaten Bogor",SULAWESI BARAT,16922.0,Indonesia,82124314767.0,,,-6.4840749,106.8039181,https://maps.google.com/?cid=0x0:0x628fb203970bfd3e,
komplek housing,Komplek perumahan,Perumahan Kyra Residence 3 kantor pemasaran,"Jl. Gudang Bin Ali, Bahagia, Kec. Babelan, Kabupaten Bekasi, Jawa Barat 17610","Bahagia, Kec. Babelan, Kabupaten Bekasi",SULAWESI BARAT,17610.0,Indonesia,82112762916.0,,,-6.1945388,107.0274494,https://maps.google.com/?cid=0x0:0x3874af9c9c530e23,
komplek housing,Komplek perumahan,Kiyara Damai,"Jl. Raya Ps. Babelan, Kedung Pengawas, Kec. Babelan, Kabupaten Bekasi, Jawa Barat 17610","Kedung Pengawas, Kec. Babelan, Kabupaten Bekasi",SULAWESI BARAT,17610.0,Indonesia,8118685996.0,,,-6.1399651,107.0469217,https://maps.google.com/?cid=0x0:0xe14f16cd3281f94,
komplek housing,Komplek perumahan,Perum,"J3W4+XHP, Cibening, Kec. Setu, Kabupaten Bekasi, Jawa Barat 17320","Cibening, Kec. Setu, Kabupaten Bekasi",SULAWESI BARAT,17320.0,Indonesia,,,,-6.3525589,107.056555,https://maps.google.com/?cid=0x0:0x2b58ff3cd3541699,
komplek housing,Perumahan,Perumahan Pesona Kahuripan 9,"H3Q2+78R, Jl. Setu - Setusari, Jatisari, Kec. Cileungsi, Kabupaten Bogor, Jawa Barat 16820","Jl. Setu - Setusari, Jatisari, Kec. Cileungsi, Kabupaten Bogor",SULAWESI BARAT,16820.0,Indonesia,,,,-6.4117516,107.050564,https://maps.google.com/?cid=0x0:0xd61eff846358dffb,
komplek housing,Komplek perumahan,Metro Parung Panjang,"Cibunar, Kec. Parung Panjang, Kabupaten Bogor, Jawa Barat 16360","Kec. Parung Panjang, Kabupaten Bogor",SULAWESI BARAT,16360.0,Indonesia,,,,-6.3448785,106.5562563,https://maps.google.com/?cid=0x0:0x4a6ed56a8b94c4d9,
komplek housing,komplek housing,Bambalamotu,"Kec. Bambalamotu, Kab. Pasangkayu, Sulawesi Barat","Kab. Pasangkayu, Sulawesi Barat",SULAWESI BARAT,,Indonesia,,,,-1.0952071,119.4614578,https://maps.google.com/?cid=0x0:0x2e0275783eb46598,
komplek housing,Pembangunan Perumahan,Spp,"WFJ8+FCF, Jl. Poros Majene - Mamuju, Bambalamotu, Kec. Bambalamotu, Kab. Pasangkayu, Sulawesi Barat 91574","Jl. Poros Majene - Mamuju, Bambalamotu, Kec. Bambalamotu, Kab. Pasangkayu",SULAWESI BARAT,91574.0,Indonesia,,,,-1.0680611,119.4659974,https://maps.google.com/?cid=0x0:0x2160f5959b34d0a6,
komplek housing,Komplek perumahan,Bambalamotu,"WF94+6C7, Bambalamotu, Kec. Bambalamotu, Kab. Pasangkayu, Sulawesi Barat 91574","Bambalamotu, Kec. Bambalamotu, Kab. Pasangkayu",SULAWESI BARAT,91574.0,Indonesia,,,,-1.0819673,119.4560576,https://maps.google.com/?cid=0x0:0x18b86db0a49596e3,
komplek housing,Komplek perumahan,RUMAH AYANGG,"WF96+36W, Bambalamotu, Kec. Bambalamotu, Kab. Pasangkayu, Sulawesi Barat","Kab. Pasangkayu, Sulawesi Barat",SULAWESI BARAT,,Indonesia,,,,-1.0822603,119.4605828,https://maps.google.com/?cid=0x0:0x526411e227c3a87e,
komplek housing,komplek housing,Rumah SANTI,"WF77+WXM, Kalola, Kec. Bambalamotu, Kab. Pasangkayu, Sulawesi Barat 91574","Kalola, Kec. Bambalamotu, Kab. Pasangkayu",SULAWESI BARAT,91574.0,Indonesia,,,,-1.0851872,119.4648917,https://maps.google.com/?cid=0x0:0x1f72eeb062407558,
komplek housing,Pembangunan Perumahan,Join,"VG9F+2Q, Kalola, Kec. Bambalamotu, Kab. Pasangkayu, Sulawesi Barat","Kab. Pasangkayu, Sulawesi Barat",SULAWESI BARAT,,Indonesia,,,,-1.1324042,119.5244385,https://maps.google.com/?cid=0x0:0xf3c82fec5f5e4e7,
komplek housing,Pembangunan Perumahan,Beskem lorken,"WF84+7MG, Bambalamotu, Kec. Bambalamotu, Kab. Pasangkayu, Sulawesi Barat","Kab. Pasangkayu, Sulawesi Barat",SULAWESI BARAT,,Indonesia,,,,-1.0843079,119.4567024,https://maps.google.com/?cid=0x0:0x73b28e56f2ffbdda,
komplek housing,Komplek perumahan,Ayh fitri,"VCVV+W2P, Polewali, Kec. Bambalamotu, Kab. Pasangkayu, Sulawesi Barat 91574","Polewali, Kec. Bambalamotu, Kab. Pasangkayu",SULAWESI BARAT,91574.0,Indonesia,,,,-1.1043969,119.4429731,https://maps.google.com/?cid=0x0:0x23d41c4b52192412,
komplek housing,Komplek perumahan,Alfatih,"WFP8+9VM, Salunggaluku, Randomayang, Kec. Bambalamotu","Kab. Pasangkayu, Sulawesi Barat",SULAWESI BARAT,,Indonesia,,,,-1.0640311,119.4671773,https://maps.google.com/?cid=0x0:0x70edbaea05d7938a,
komplek housing,Komplek perumahan,Rumah Dian,"VCQW+6H4, Dusun Pakela, Polewali, Kec. Bambalamotu, Kab. Pasangkayu, Sulawesi Barat 91574","Dusun Pakela, Polewali, Kec. Bambalamotu, Kab. Pasangkayu",SULAWESI BARAT,91574.0,Indonesia,,,,-1.1119989,119.4464439,https://maps.google.com/?cid=0x0:0x671c918c7cdaf731,
komplek housing,Masjid,Rumah Pak Desa Kalola,"WF5C+2MG, Kalola, Kec. Bambalamotu, Kab. Pasangkayu, Sulawesi Barat 91574","Kalola, Kec. Bambalamotu, Kab. Pasangkayu",SULAWESI BARAT,91574.0,Indonesia,,,,-1.0924378,119.471704,https://maps.google.com/?cid=0x0:0x76d6c55ce50d19dc,
komplek housing,Komplek perumahan,Rumah Opa Gaul @AGM,"VCWV+P9J, Polewali, Kec. Bambalamotu, Kab. Pasangkayu, Sulawesi Barat","Kab. Pasangkayu, Sulawesi Barat",SULAWESI BARAT,,Indonesia,,,,-1.1031679,119.4433712,https://maps.google.com/?cid=0x0:0x276cba63beae0895,
komplek housing,Komplek perumahan,Rumah yaman,"VCQW+6H4, Dusun Pakela, Polewali, Kec. Bambalamotu, Kab. Pasangkayu, Sulawesi Barat 91574","Dusun Pakela, Polewali, Kec. Bambalamotu, Kab. Pasangkayu",SULAWESI BARAT,91574.0,Indonesia,,,,-1.1120121,119.4464278,https://maps.google.com/?cid=0x0:0xde6b10270ba7509,
komplek housing,Pembangunan Perumahan,Aspol sektor bambalamotu,"WFXJ+HPJ, Randomayang, Kec. Bambalamotu, Kab. Pasangkayu, Sulawesi Barat 91574","Randomayang, Kec. Bambalamotu, Kab. Pasangkayu",SULAWESI BARAT,91574.0,Indonesia,,,,-1.05103,119.4817652,https://maps.google.com/?cid=0x0:0xc0399b3c2ee822bb,
komplek housing,komplek housing,Kec. Baras,"Kab. Pasangkayu, Sulawesi Barat","Kab. Pasangkayu, Sulawesi Barat",SULAWESI BARAT,,Indonesia,,,,-1.588752,119.3280298,https://maps.google.com/?cid=0x0:0x43abedd2f72d30c4,
komplek housing,Pembangunan Perumahan,Rumah Nila,"C9QX+WVH, Motu, Kec. Baras, Kab. Pasangkayu, Sulawesi Barat 91572","Motu, Kec. Baras, Kab. Pasangkayu",SULAWESI BARAT,91572.0,Indonesia,,,,-1.5597415,119.3992602,https://maps.google.com/?cid=0x0:0x71334a7148e34a13,
komplek housing,Komplek perumahan,Y2J,"CCX3+76H, Motu, Kec. Baras, Kab. Pasangkayu, Sulawesi Barat 91572","Motu, Kec. Baras, Kab. Pasangkayu",SULAWESI BARAT,91572.0,Indonesia,,,,-1.5518259,119.4029915,https://maps.google.com/?cid=0x0:0x7ac1d49219f6385f,
komplek housing,Pembangunan Perumahan,Haidir,"CCP4+CJW, Motu, Kec. Baras, Kab. Pasangkayu, Sulawesi Barat 91572","Motu, Kec. Baras, Kab. Pasangkayu",SULAWESI BARAT,91572.0,Indonesia,,,,-1.5639729,119.4065614,https://maps.google.com/?cid=0x0:0xd195a3b871dc6d79,
komplek housing,Komplek perumahan,Rumah ayaaaa,"99FC+4G, Towoni, Kec. Baras, Kab. Pasangkayu, Sulawesi Barat","Kab. Pasangkayu, Sulawesi Barat",SULAWESI BARAT,,Indonesia,,,,-1.6271961,119.3711481,https://maps.google.com/?cid=0x0:0xb6ba77be30cb3625,
komplek housing,Komplek perumahan,Rumah Pak Mandala,"FC74+9GW, Motu, Kec. Baras, Kab. Pasangkayu, Sulawesi Barat 91572","Motu, Kec. Baras, Kab. Pasangkayu",SULAWESI BARAT,91572.0,Indonesia,,,,-1.5365098,119.4063234,https://maps.google.com/?cid=0x0:0x3a07243ecf25614d,
komplek housing,Komplek perumahan,Rumah naya dan raya,"C84G+PRQ, Baras, Kec. Baras, Kab. Pasangkayu, Sulawesi Barat 91572","Baras, Kec. Baras, Kab. Pasangkayu",SULAWESI BARAT,91572.0,Indonesia,,,,-1.5931517,119.3271229,https://maps.google.com/?cid=0x0:0x3ca3b27f8414c0eb,
komplek housing,Bidan,Rumah Bidan Hasna,"C9PX+G26, Motu, Kec. Baras, Kab. Pasangkayu, Sulawesi Barat 91572","Motu, Kec. Baras, Kab. Pasangkayu",SULAWESI BARAT,91572.0,Indonesia,,,,-1.5637821,119.3981615,https://maps.google.com/?cid=0x0:0xb093799e09e48d69,
komplek housing,Pembangunan Perumahan,David,"CCX3+76F, Motu, Kec. Baras, Kab. Pasangkayu, Sulawesi Barat 91572","Motu, Kec. Baras, Kab. Pasangkayu",SULAWESI BARAT,91572.0,Indonesia,,,,-1.5518054,119.4030365,https://maps.google.com/?cid=0x0:0xe6fdbf4aa83833b1,
komplek housing,Komplek perumahan,Rumah sukma,"C9PX+GH6, Motu, Kec. Baras, Kab. Pasangkayu, Sulawesi Barat","Kab. Pasangkayu, Sulawesi Barat",SULAWESI BARAT,,Indonesia,,,,-1.5637161,119.3988826,https://maps.google.com/?cid=0x0:0x1cfdd6cb4e5945ed,
komplek housing,Gedung Apartemen,Baras 2,"FC74+9GW, Motu, Kec. Baras, Kab. Pasangkayu, Sulawesi Barat 91572","Motu, Kec. Baras, Kab. Pasangkayu",SULAWESI BARAT,91572.0,Indonesia,,,,-1.5365098,119.4063234,https://maps.google.com/?cid=0x0:0xefd6ab0ffe40b517,
komplek housing,Komplek perumahan,Abdul rahman ssi,"Jl. Poros Palu - Mamuju, Baras, Kec. Baras, Kab. Pasangkayu, Sulawesi Barat","Kab. Pasangkayu, Sulawesi Barat",SULAWESI BARAT,,Indonesia,,,,-1.5847581,119.327496,https://maps.google.com/?cid=0x0:0x5f9cfd775f32238b,
komplek housing,Komplek perumahan,Lumbung Toraja Tristan,"C9PW+JCM, Motu, Kec. Baras, Kab. Pasangkayu, Sulawesi Barat 91572","Motu, Kec. Baras, Kab. Pasangkayu",SULAWESI BARAT,91572.0,Indonesia,,,,-1.5634193,119.3960607,https://maps.google.com/?cid=0x0:0x7a14784c3d1343b4,
komplek housing,komplek housing,Rumah Saya,"FC74+9GW, Lorong 3 Dsn Lembah Makmur, Motu, Kec. Baras, Kab. Pasangkayu, Sulawesi Barat 91572","Lorong 3 Dsn Lembah Makmur, Motu, Kec. Baras, Kab. Pasangkayu",SULAWESI BARAT,91572.0,Indonesia,,,,-1.5365098,119.4063234,https://maps.google.com/?cid=0x0:0x47453d92fdc25a27,
komplek housing,Balai masyarakat,Agri selatan,"9CXH+8GC, Towoni, Kec. Baras, Kab. Pasangkayu, Sulawesi Barat 91572","Towoni, Kec. Baras, Kab. Pasangkayu",SULAWESI BARAT,91572.0,Indonesia,,,,-1.6009616,119.4289221,https://maps.google.com/?cid=0x0:0xb3abe85cc2eae308,
komplek housing,Komplek perumahan,Rumah Kampoeng,"CCF5+GF5, Motu, Kec. Baras, Kab. Pasangkayu, Sulawesi Barat 91572","Motu, Kec. Baras, Kab. Pasangkayu",SULAWESI BARAT,91572.0,Indonesia,,,,-1.5762433,119.4087361,https://maps.google.com/?cid=0x0:0x476c2be4e7464db7,
komplek housing,Komplek perumahan,Rumahq,"C84G+Q97, Baras, Kec. Baras, Kab. Pasangkayu, Sulawesi Barat","Kab. Pasangkayu, Sulawesi Barat",SULAWESI BARAT,,Indonesia,,,,-1.5931224,119.3259838,https://maps.google.com/?cid=0x0:0x6b20046733b4d0d4,
komplek housing,Pembangunan Perumahan,Rumah salokaili,"C8PH+89F, Kasano, Kec. Baras, Kab. Pasangkayu, Sulawesi Barat 91572","Kasano, Kec. Baras, Kab. Pasangkayu",SULAWESI BARAT,91572.0,Indonesia,,,,-1.564187,119.328416,https://maps.google.com/?cid=0x0:0x68310f2ec7149879,
komplek housing,Komplek perumahan,Rumah Wahid Nur Rohman,"CCG5+7F2, Balanti, Kec. Baras, Kab. Pasangkayu, Sulawesi Barat 91572","Balanti, Kec. Baras, Kab. Pasangkayu",SULAWESI BARAT,91572.0,Indonesia,,,,-1.5743685,119.4086523,https://maps.google.com/?cid=0x0:0x84648c217b76a063,
komplek housing,komplek housing,Rumah Dharma,"CCM5+PG6, Lorong 3 Dsn Lembah Makmur, Motu, Kec. Baras, Kab. Pasangkayu, Sulawesi Barat 91572","Lorong 3 Dsn Lembah Makmur, Motu, Kec. Baras, Kab. Pasangkayu",SULAWESI BARAT,91572.0,Indonesia,,,,-1.5657168,119.4087783,https://maps.google.com/?cid=0x0:0x4fdf7ce45b5d1561,
komplek housing,Komplek perumahan,Rumah sukardi,"F94X+GQH, Motu, Kec. Baras, Kab. Pasangkayu, Sulawesi Barat 91572","Motu, Kec. Baras, Kab. Pasangkayu",SULAWESI BARAT,91572.0,Indonesia,,,,-1.5436791,119.4003515,https://maps.google.com/?cid=0x0:0xf8075c711eacf602,
komplek housing,Pembangunan Perumahan,Son endeh baras 3 desa karave jalan wanagiri,"G94X+RW5, Karave, Kec. Bulu Taba, Kab. Pasangkayu, Sulawesi Barat 91572","Karave, Kec. Bulu Taba, Kab. Pasangkayu",SULAWESI BARAT,91572.0,Indonesia,,,,-1.4934537,119.3997097,https://maps.google.com/?cid=0x0:0xd255f670f1f763a6,
komplek housing,Komplek perumahan,Ariana rumah,"C9RW+JPP, Motu, Kec. Baras, Kab. Pasangkayu, Sulawesi Barat 91572","Motu, Kec. Baras, Kab. Pasangkayu",SULAWESI BARAT,91572.0,Indonesia,,,,-1.5584125,119.3968281,https://maps.google.com/?cid=0x0:0xa72b21b4a30a7a34,
komplek housing,Komplek perumahan,Rumah keluarga bapak Aldo,"C9QX+WVH, Motu, Kec. Baras, Kab. Pasangkayu, Sulawesi Barat 91572","Motu, Kec. Baras, Kab. Pasangkayu",SULAWESI BARAT,91572.0,Indonesia,,,,-1.5593011,119.4000223,https://maps.google.com/?cid=0x0:0x3b7ec49750955462,
komplek housing,Komplek perumahan,Rumah Taufik,"FC23+8H8, Motu, Kec. Baras, Kab. Pasangkayu, Sulawesi Barat 91572","Motu, Kec. Baras, Kab. Pasangkayu",SULAWESI BARAT,91572.0,Indonesia,,,,-1.548354,119.4039051,https://maps.google.com/?cid=0x0:0x1f20b76afa8df3cb,
komplek housing,Komplek perumahan,Pondok Jati Indah B4/8,"Jl. Pd. Jati Indah No.8 Blok B4, RT.005/RW.003, Jatikramat, Jatiasih, Bekasi, West Java 17421","RT.005/RW.003, Jatikramat, Jatiasih, Bekasi",SULAWESI BARAT,17421.0,Indonesia,,,,-6.2773443,106.9502822,https://maps.google.com/?cid=0x0:0x27e6e7321698ce4,
komplek housing,Perumahan,PESONA BELLA CASA,"Jl. Pulo Timaha, Babelan Kota, Kec. Babelan, Kabupaten Bekasi, Jawa Barat 17610","Babelan Kota, Kec. Babelan, Kabupaten Bekasi",SULAWESI BARAT,17610.0,Indonesia,81221739475.0,,,-6.1602559,107.0139537,https://maps.google.com/?cid=0x0:0xd758f8289233aa5a,
komplek housing,komplek housing,Komplek Housing,"Blok Bojong Nangka I, Jl. Ring Rudal Blok Bojong Nangka I No.68, RT.001/RW.007, Jatirahayu, Kec. Pd. Melati, Kota Bks, Jawa Barat 17414","Jl. Ring Rudal Blok Bojong Nangka I No.68, RT.001/RW.007, Jatirahayu, Kec. Pd. Melati, Kota Bks",SULAWESI BARAT,17414.0,Indonesia,,,,-6.293724,106.9165114,https://maps.google.com/?cid=0x0:0x9c50464976dee674,
komplek housing,komplek housing,Sulawesi Barat 91572,"Kab. Pasangkayu, Sulawesi Barat","Kab. Pasangkayu, Sulawesi Barat",SULAWESI BARAT,,Indonesia,,,,-1.5596509,119.5571677,https://maps.google.com/?cid=0x0:0xedbe1b42f4cf1266,
komplek housing,Komplek perumahan,Rumahnya EL,"GCF7+RVM, Lilimori, Kec. Bulu Taba, Kab. Pasangkayu, Sulawesi Barat 91572","Lilimori, Kec. Bulu Taba, Kab. Pasangkayu",SULAWESI BARAT,91572.0,Indonesia,,,,-1.4754207,119.4146705,https://maps.google.com/?cid=0x0:0xe8d6afc6a7bc92ab,
komplek housing,Komplek perumahan,Karta‚Äôs house,"GCM9+4FJ, Lilimori, Kec. Bulu Taba, Kab. Pasangkayu, Sulawesi Barat 91572","Lilimori, Kec. Bulu Taba, Kab. Pasangkayu",SULAWESI BARAT,91572.0,Indonesia,,,,-1.4670737,119.4185963,https://maps.google.com/?cid=0x0:0x19bb6fd391435aa4,
komplek housing,Komplek perumahan,Artana Home,"GC23+QW, Karave, Kec. Bulu Taba, Kab. Pasangkayu, Sulawesi Barat","Kab. Pasangkayu, Sulawesi Barat",SULAWESI BARAT,,Indonesia,,,,-1.4981194,119.4047796,https://maps.google.com/?cid=0x0:0x37fb78d2c4b8096f,
komplek housing,Komplek perumahan,TEGUH,"GCH9+78, Lilimori, Kec. Bulu Taba, Kab. Pasangkayu, Sulawesi Barat","Kab. Pasangkayu, Sulawesi Barat",SULAWESI BARAT,,Indonesia,,,,-1.4718756,119.4183511,https://maps.google.com/?cid=0x0:0xdaf77fac3e610141,
komplek housing,komplek housing,Buldog,"HC5C+2F6, Lelejae, Kec. Bulu Taba, Kab. Pasangkayu, Sulawesi Barat","Kab. Pasangkayu, Sulawesi Barat",SULAWESI BARAT,,Indonesia,,,,-1.4424722,119.4211478,https://maps.google.com/?cid=0x0:0xbd91c51cbc0ec84e,
komplek housing,Komplek perumahan,BackHome,"GCF6+2GX, Lilimori, Kec. Bulu Taba, Kab. Pasangkayu, Sulawesi Barat 91572","Lilimori, Kec. Bulu Taba, Kab. Pasangkayu",SULAWESI BARAT,91572.0,Indonesia,,,,-1.4773998,119.4113586,https://maps.google.com/?cid=0x0:0x7a4af252ae11697a,
komplek housing,komplek housing,Raumah ayub mutalib,"GFCP+592, Bukit Harapan, Kec. Bulu Taba, Kab. Pasangkayu, Sulawesi Barat 91572","Bukit Harapan, Kec. Bulu Taba, Kab. Pasangkayu",SULAWESI BARAT,91572.0,Indonesia,,,,-1.4800131,119.4863127,https://maps.google.com/?cid=0x0:0x51af3f49354592df,
komplek housing,Komplek perumahan,Belakang toko pakaian,"GCFF+GWX, Lilimori, Kec. Bulu Taba, Kab. Pasangkayu, Sulawesi Barat 91572","Lilimori, Kec. Bulu Taba, Kab. Pasangkayu",SULAWESI BARAT,91572.0,Indonesia,,,,-1.4754653,119.4249681,https://maps.google.com/?cid=0x0:0x9600290d32a4ee5d,
komplek housing,Komplek perumahan,Sunarko,"GC46+XWC, Karave, Kec. Bulu Taba, Kab. Pasangkayu, Sulawesi Barat 91572","Karave, Kec. Bulu Taba, Kab. Pasangkayu",SULAWESI BARAT,91572.0,Indonesia,,,,-1.4921231,119.4125878,https://maps.google.com/?cid=0x0:0xe3ab874248224dfe,
komplek housing,Komplek perumahan,Nova home,"GC62+266, Karave, Kec. Bulu Taba, Kab. Pasangkayu, Sulawesi Barat 91572","Karave, Kec. Bulu Taba, Kab. Pasangkayu",SULAWESI BARAT,91572.0,Indonesia,,,,-1.4899574,119.4005185,https://maps.google.com/?cid=0x0:0xf53dc97a7269d7c9,
komplek housing,Komplek perumahan,Dusun Matari Allo,"FCHV+47, Bukit Harapan, Kec. Bulu Taba, Kab. Pasangkayu, Sulawesi Barat","Kab. Pasangkayu, Sulawesi Barat",SULAWESI BARAT,,Indonesia,,,,-1.5222296,119.4431787,https://maps.google.com/?cid=0x0:0x99f65d11200b1f97,
komplek housing,komplek housing,Riza Nurkhofifah,"Jl Sultan Hasanudin, Karave, Kec. Bulu Taba, Kab. Pasangkayu, Sulawesi Barat 91572","Karave, Kec. Bulu Taba, Kab. Pasangkayu",SULAWESI BARAT,91572.0,Indonesia,,,,-1.4926149,119.4121066,https://maps.google.com/?cid=0x0:0x74765382e19dde1,
komplek housing,Pembangunan Perumahan,Aldi_Djawa,"GC52+9PC, Karave, Kec. Bulu Taba, Kab. Pasangkayu, Sulawesi Barat 91572","Karave, Kec. Bulu Taba, Kab. Pasangkayu",SULAWESI BARAT,91572.0,Indonesia,,,,-1.4915685,119.4017643,https://maps.google.com/?cid=0x0:0x74dc71507120a1aa,
komplek housing,Komplek perumahan,Bulutaba,"GCPF+8F9, Lilimori, Kec. Bulu Taba, Kab. Pasangkayu, Sulawesi Barat 91572","Lilimori, Kec. Bulu Taba, Kab. Pasangkayu",SULAWESI BARAT,91572.0,Indonesia,,,,-1.4642073,119.4237365,https://maps.google.com/?cid=0x0:0x6bd50feebb727524,
komplek housing,Komplek perumahan,RUMAH BAYU SHANTIASA,"GCJ9+WH9, Lilimori, Kec. Bulu Taba, Kab. Pasangkayu, Sulawesi Barat 91572","Lilimori, Kec. Bulu Taba, Kab. Pasangkayu",SULAWESI BARAT,91572.0,Indonesia,,,,-1.4677112,119.4198867,https://maps.google.com/?cid=0x0:0x131a33f0b475445,
komplek housing,komplek housing,Rumah ari,"GC26+J8G, Karave, Kec. Bulu Taba, Kab. Pasangkayu, Sulawesi Barat 91572","Karave, Kec. Bulu Taba, Kab. Pasangkayu",SULAWESI BARAT,91572.0,Indonesia,,,,-1.4984347,119.4108423,https://maps.google.com/?cid=0x0:0x5ef680950b0383df,
komplek housing,Komplek perumahan,Hometown MaEdo,"GC62+CGX, Karave, Kec. Bulu Taba, Kab. Pasangkayu, Sulawesi Barat","Kab. Pasangkayu, Sulawesi Barat",SULAWESI BARAT,,Indonesia,,,,-1.4888855,119.4013603,https://maps.google.com/?cid=0x0:0x9ef52aa90ae8719d,
komplek housing,Otoritas Perumahan,Rumah Pak Nyoman Sukandra,"GCM9+M63, Jl. Cendrawasih, Lilimori, Kec. Bulu Taba, Kab. Pasangkayu, Sulawesi Barat 91572","Jl. Cendrawasih, Lilimori, Kec. Bulu Taba, Kab. Pasangkayu",SULAWESI BARAT,91572.0,Indonesia,,,,-1.4658553,119.4180559,https://maps.google.com/?cid=0x0:0xdf9c77068c050447,
komplek housing,Pembangunan Perumahan,"Sulawesi Barat,kecamatan Pasangkayu, dusun bambaapu","FGF6+C86 dusun petunggu, Bukit Harapan, Kec. Bulu Taba, Kab. Pasangkayu, Sulawesi Barat","Kab. Pasangkayu, Sulawesi Barat",SULAWESI BARAT,,Indonesia,,,,-1.5264542,119.5107708,https://maps.google.com/?cid=0x0:0xc27825c097e7a903,
komplek housing,komplek housing,Kec. Bulu Taba,"Kab. Pasangkayu, Sulawesi Barat","Kab. Pasangkayu, Sulawesi Barat",SULAWESI BARAT,,Indonesia,,,,-1.4733942,119.4185045,https://maps.google.com/?cid=0x0:0xa9d419b10c294925,
komplek housing,komplek housing,Bpk Al,"F9HM+CWW, Motu, Kec. Baras, Kab. Pasangkayu, Sulawesi Barat 91572","Motu, Kec. Baras, Kab. Pasangkayu",SULAWESI BARAT,91572.0,Indonesia,,,,-1.521143,119.38458,https://maps.google.com/?cid=0x0:0xda881eb2f2230af4,
komplek housing,Komplek perumahan,Rumah Ajik Mang Merta,"GCM9+GFH, Jl. Cendrawasih, Lilimori, Kec. Bulu Taba, Kab. Pasangkayu, Sulawesi Barat 91572","Jl. Cendrawasih, Lilimori, Kec. Bulu Taba, Kab. Pasangkayu",SULAWESI BARAT,91572.0,Indonesia,,,,-1.4661779,119.4187308,https://maps.google.com/?cid=0x0:0x317cb3a208d47ef4,
komplek housing,Komplek perumahan,Kompleks Bali Lilimori,"Unnamed Road, Lilimori, Kec. Bulu Taba, Kab. Pasangkayu, Sulawesi Barat 91572","Lilimori, Kec. Bulu Taba, Kab. Pasangkayu",SULAWESI BARAT,91572.0,Indonesia,,,,-1.4734666,119.4152374,https://maps.google.com/?cid=0x0:0xc07d09cd1a19224c,
komplek housing,Komplek perumahan,Rumah Iko,"GCPF+8F9, JL. Merak, Dusun Tohiti, Lilimori, Kec. Bulu Taba, Kab. Pasangkayu, Sulawesi Barat 91572","JL. Merak, Dusun Tohiti, Lilimori, Kec. Bulu Taba, Kab. Pasangkayu",SULAWESI BARAT,91572.0,Indonesia,,,,-1.4642073,119.4237365,https://maps.google.com/?cid=0x0:0xe269088d621e4da1,
komplek housing,Komplek perumahan,M Hutagalung,"GC54+XQ5, Karave, Kec. Bulu Taba, Kab. Pasangkayu, Sulawesi Barat 91572","Karave, Kec. Bulu Taba, Kab. Pasangkayu",SULAWESI BARAT,91572.0,Indonesia,,,,-1.4901223,119.40699,https://maps.google.com/?cid=0x0:0x4bd0e879d5d1415b,
komplek housing,Pembangunan Perumahan,Rumah Aayuni,"GC44+8WF, Karave, Kec. Bulu Taba, Kab. Pasangkayu, Sulawesi Barat 91572","Karave, Kec. Bulu Taba, Kab. Pasangkayu",SULAWESI BARAT,91572.0,Indonesia,,,,-1.4941761,119.4073028,https://maps.google.com/?cid=0x0:0x1f9618b1dad7c1bd,
komplek housing,komplek housing,Rumah Ummu afifa/ abu afifa,"GC9C+5P9, Lilimori, Kec. Bulu Taba, Kab. Pasangkayu, Sulawesi Barat 91572","Lilimori, Kec. Bulu Taba, Kab. Pasangkayu",SULAWESI BARAT,91572.0,Indonesia,,,,-1.4820977,119.4218625,https://maps.google.com/?cid=0x0:0x4e41fbca018d778c,
komplek housing,Komplek perumahan,Rumah Pak Suleman agustin,"GCF9+HRW, Lilimori, Kec. Bulu Taba, Kab. Pasangkayu, Sulawesi Barat 91572","Lilimori, Kec. Bulu Taba, Kab. Pasangkayu",SULAWESI BARAT,91572.0,Indonesia,,,,-1.4763961,119.4194236,https://maps.google.com/?cid=0x0:0xd99333250fadb665,
komplek housing,komplek housing,Sulawesi Barat 91512,"Kabupaten Mamuju, Sulawesi Barat","Kabupaten Mamuju, Sulawesi Barat",SULAWESI BARAT,,Indonesia,,,,-1.8494265,119.5339711,https://maps.google.com/?cid=0x0:0x8e21c401717b8ceb,
komplek housing,Toko bahan makanan,Dapurang,"7973+3JG, Dapurang, Kec. Dapurang, Kab. Pasangkayu, Sulawesi Barat 91573","Dapurang, Kec. Dapurang, Kab. Pasangkayu",SULAWESI BARAT,91573.0,Indonesia,,,,-1.7373218,119.3540715,https://maps.google.com/?cid=0x0:0x8c6bae3209e3a55d,
komplek housing,Komplek perumahan,Suar,"6867+6RX, Sarasa, Kec. Dapurang, Kab. Pasangkayu, Sulawesi Barat 91512","Sarasa, Kec. Dapurang, Kab. Pasangkayu",SULAWESI BARAT,91512.0,Indonesia,,,,-1.7893875,119.3146094,https://maps.google.com/?cid=0x0:0x193c3c6b3fd89f83,
komplek housing,Komplek perumahan,SAPARUDDIN HOME,"7C42+P3J, Benggaulu, Kec. Dapurang, Kab. Pasangkayu, Sulawesi Barat","Kab. Pasangkayu, Sulawesi Barat",SULAWESI BARAT,,Indonesia,,,,-1.7431675,119.4001513,https://maps.google.com/?cid=0x0:0xc2440d6fe548560f,
komplek housing,Komplek perumahan,RUMAH AFIAFA,"784Q+H6C, Dapurang, Kec. Dapurang, Kab. Pasangkayu, Sulawesi Barat","Kab. Pasangkayu, Sulawesi Barat",SULAWESI BARAT,,Indonesia,,,,-1.7435736,119.3380023,https://maps.google.com/?cid=0x0:0xa29027a5e7149765,
komplek housing,Layanan Binatu,ANA'OGI laundry,"784H+Q72, Dapurang, Kec. Dapurang, Kab. Pasangkayu, Sulawesi Barat","Kab. Pasangkayu, Sulawesi Barat",SULAWESI BARAT,,Indonesia,,,,-1.7431125,119.3281406,https://maps.google.com/?cid=0x0:0x895876907ec2f2d2,
komplek housing,Komplek perumahan,Bolana Citu‚Äô,"68FG+9J, Sarasa, Kec. Dapurang, Kab. Pasangkayu, Sulawesi Barat","Kab. Pasangkayu, Sulawesi Barat",SULAWESI BARAT,,Indonesia,,,,-1.7765906,119.3265146,https://maps.google.com/?cid=0x0:0x89fc4283f6d46335,
komplek housing,Komplek perumahan,Rumah Kayu,"8C6Q+3C, Bulu Bonggu, Kec. Dapurang, Kab. Pasangkayu, Sulawesi Barat","Kab. Pasangkayu, Sulawesi Barat",SULAWESI BARAT,,Indonesia,,,,-1.6898186,119.4385689,https://maps.google.com/?cid=0x0:0x6641b2e0189b5e18,
komplek housing,Komplek perumahan,Sekretariat PPS DAPURANG,"785J+863, Jl. Poros Majene - Mamuju, Dapurang, Kec. Dapurang, Kab. Pasangkayu, Sulawesi Barat 91573","Jl. Poros Majene - Mamuju, Dapurang, Kec. Dapurang, Kab. Pasangkayu",SULAWESI BARAT,91573.0,Indonesia,,,,-1.7417489,119.3305589,https://maps.google.com/?cid=0x0:0xc8fd080ab97e80de,
komplek housing,Komplek perumahan,Reza Home,"7CPQ+5F, Benggaulu, Kec. Dapurang, Kab. Pasangkayu, Sulawesi Barat","Kab. Pasangkayu, Sulawesi Barat",SULAWESI BARAT,,Indonesia,,,,-1.7142571,119.4400804,https://maps.google.com/?cid=0x0:0x6294f54b33797b8a,
komplek housing,Komplek perumahan,Irfan sengke,"785H+59W, Dapurang, Kec. Dapurang, Kab. Pasangkayu, Sulawesi Barat 91573","Dapurang, Kec. Dapurang, Kab. Pasangkayu",SULAWESI BARAT,91573.0,Indonesia,,,,-1.7420077,119.3284609,https://maps.google.com/?cid=0x0:0x8cec13a1a85349c2,
komplek housing,Tempat Cukur Rambut,BARBERSHOP SULAWESI,"785H+59W, KMP BARU, Kec. Dapurang, Kab. Pasangkayu, Sulawesi Barat 91573","KMP BARU, Kec. Dapurang, Kab. Pasangkayu",SULAWESI BARAT,91573.0,Indonesia,,,,-1.7420077,119.3284609,https://maps.google.com/?cid=0x0:0x9001558634980986,
komplek housing,Komplek perumahan,Naya,"7CMF+555, Bulu Bonggu, Kec. Dapurang, Kab. Pasangkayu, Sulawesi Barat 91573","Bulu Bonggu, Kec. Dapurang, Kab. Pasangkayu",SULAWESI BARAT,91573.0,Indonesia,,,,-1.717105,119.4229726,https://maps.google.com/?cid=0x0:0xa44324184fe30e9,
komplek housing,Perhimpunan Pengembang Perumahan,GRAHA LOTU VILLAGE,"5CV2+XHW, Lembah Hopo, Kec. Karossa, Kabupaten Mamuju Tengah, Sulawesi Barat","Kabupaten Mamuju Tengah, Sulawesi Barat",SULAWESI BARAT,,Indonesia,81242789242.0,,,-1.805003,119.4014442,https://maps.google.com/?cid=0x0:0x16ffb35bbb97f51,
komplek housing,Pembangunan Perumahan,Aikin,"693X+CWH, Karossa, Kec. Karossa, Kabupaten Mamuju, Sulawesi Barat 91512","Karossa, Kec. Karossa, Kabupaten Mamuju",SULAWESI BARAT,91512.0,Indonesia,85334552526.0,,,-1.796449,119.3993118,https://maps.google.com/?cid=0x0:0x81165e17ab4b6570,
komplek housing,Pembangunan Perumahan,rumah pak karno,"69W5+WX5, Lrg. 3, Tirta Buana, Kec. Dapurang, Kab. Pasangkayu, Sulawesi Barat 91573","Lrg. 3, Tirta Buana, Kec. Dapurang, Kab. Pasangkayu",SULAWESI BARAT,91573.0,Indonesia,,,,-1.7527252,119.3599782,https://maps.google.com/?cid=0x0:0x5bfa5134e2846cad,
komplek housing,Komplek perumahan,Mery andini,"pasar limua, Dapurang, Kec. Dapurang, Kab. Pasangkayu, Sulawesi Barat 91573","Dapurang, Kec. Dapurang, Kab. Pasangkayu",SULAWESI BARAT,91573.0,Indonesia,,,,-1.7418234,119.3290513,https://maps.google.com/?cid=0x0:0x9242ae9b2923a54,
komplek housing,komplek housing,House on land,"WCQJ+GGQ, Batu Parigi, Kec. Tobadak, Kabupaten Mamuju Tengah, Sulawesi Barat","Kabupaten Mamuju Tengah, Sulawesi Barat",SULAWESI BARAT,,Indonesia,,,,-2.0612228,119.4313961,https://maps.google.com/?cid=0x0:0x9c4286a583348066,
komplek housing,Komplek perumahan,Bolana Muhlis,"68GC+X9, Sarasa, Kec. Dapurang, Kab. Pasangkayu, Sulawesi Barat","Kab. Pasangkayu, Sulawesi Barat",SULAWESI BARAT,,Indonesia,,,,-1.7725973,119.3208887,https://maps.google.com/?cid=0x0:0x60aedb79f259b52c,
komplek housing,komplek housing,Suryanto,"69CX+Q5J, Kadaila, Kec. Karossa, Kabupaten Mamuju Tengah, Sulawesi Barat 91573","Kadaila, Kec. Karossa, Kabupaten Mamuju Tengah",SULAWESI BARAT,91573.0,Indonesia,,,,-1.777199,119.3990484,https://maps.google.com/?cid=0x0:0x85064fabd234bfd9,
komplek housing,Masjid,Masjid Nurul Yaqin,"6867+6RX, Unnamed Road, Sarasa, Kec. Dapurang, Kab. Pasangkayu, Sulawesi Barat 91512","Unnamed Road, Sarasa, Kec. Dapurang, Kab. Pasangkayu",SULAWESI BARAT,91512.0,Indonesia,,,,-1.7893859,119.3146006,https://maps.google.com/?cid=0x0:0xbced4ac0fa6a8c44,
komplek housing,komplek housing,Dapurang,"Kec. Dapurang, Kab. Pasangkayu, Sulawesi Barat","Kab. Pasangkayu, Sulawesi Barat",SULAWESI BARAT,,Indonesia,,,,-1.7373218,119.3540715,https://maps.google.com/?cid=0x0:0x14e56f055de03929,
komplek housing,Toko bahan makanan,Dapurang,"7973+3JG, Dapurang, Kec. Dapurang, Kab. Pasangkayu, Sulawesi Barat 91573","Dapurang, Kec. Dapurang, Kab. Pasangkayu",SULAWESI BARAT,91573.0,Indonesia,,,,-1.7373218,119.3540715,https://maps.google.com/?cid=0x0:0x8c6bae3209e3a55d,
komplek housing,Komplek perumahan,RUMAH AFIAFA,"784Q+H6C, Dapurang, Kec. Dapurang, Kab. Pasangkayu, Sulawesi Barat","Kab. Pasangkayu, Sulawesi Barat",SULAWESI BARAT,,Indonesia,,,,-1.7435736,119.3380023,https://maps.google.com/?cid=0x0:0xa29027a5e7149765,
komplek housing,Layanan Binatu,ANA'OGI laundry,"784H+Q72, Dapurang, Kec. Dapurang, Kab. Pasangkayu, Sulawesi Barat","Kab. Pasangkayu, Sulawesi Barat",SULAWESI BARAT,,Indonesia,,,,-1.7431125,119.3281406,https://maps.google.com/?cid=0x0:0x895876907ec2f2d2,
komplek housing,Komplek perumahan,SAPARUDDIN HOME,"7C42+P3J, Benggaulu, Kec. Dapurang, Kab. Pasangkayu, Sulawesi Barat","Kab. Pasangkayu, Sulawesi Barat",SULAWESI BARAT,,Indonesia,,,,-1.7431675,119.4001513,https://maps.google.com/?cid=0x0:0xc2440d6fe548560f,
komplek housing,Komplek perumahan,Irfan sengke,"785H+59W, Dapurang, Kec. Dapurang, Kab. Pasangkayu, Sulawesi Barat 91573","Dapurang, Kec. Dapurang, Kab. Pasangkayu",SULAWESI BARAT,91573.0,Indonesia,,,,-1.7420077,119.3284609,https://maps.google.com/?cid=0x0:0x8cec13a1a85349c2,
komplek housing,Komplek perumahan,Sekretariat PPS DAPURANG,"785J+863, Jl. Poros Majene - Mamuju, Dapurang, Kec. Dapurang, Kab. Pasangkayu, Sulawesi Barat 91573","Jl. Poros Majene - Mamuju, Dapurang, Kec. Dapurang, Kab. Pasangkayu",SULAWESI BARAT,91573.0,Indonesia,,,,-1.7417489,119.3305589,https://maps.google.com/?cid=0x0:0xc8fd080ab97e80de,
komplek housing,Pembangunan Perumahan,rumah pak karno,"69W5+WX5, Lrg. 3, Tirta Buana, Kec. Dapurang, Kab. Pasangkayu, Sulawesi Barat 91573","Lrg. 3, Tirta Buana, Kec. Dapurang, Kab. Pasangkayu",SULAWESI BARAT,91573.0,Indonesia,,,,-1.7527252,119.3599782,https://maps.google.com/?cid=0x0:0x5bfa5134e2846cad,
komplek housing,Komplek perumahan,Mery andini,"pasar limua, Dapurang, Kec. Dapurang, Kab. Pasangkayu, Sulawesi Barat 91573","Dapurang, Kec. Dapurang, Kab. Pasangkayu",SULAWESI BARAT,91573.0,Indonesia,,,,-1.7418234,119.3290513,https://maps.google.com/?cid=0x0:0x9242ae9b2923a54,
komplek housing,komplek housing,Rumahnya agus gogon,"69V5+VQM Dusun Rano Pinga, Jl. Desa Tirta Buana, Tirta Buana, Kec. Dapurang, Kab. Pasangkayu, Sulawesi Barat 91573","Jl. Desa Tirta Buana, Tirta Buana, Kec. Dapurang, Kab. Pasangkayu",SULAWESI BARAT,91573.0,Indonesia,,,,-1.7549936,119.3587863,https://maps.google.com/?cid=0x0:0x948ad92a6fbd2b58,
komplek housing,Bengkel Elektronik,Udin servis eletronic,"7C53+757, Jl. Poros Majene - Mamuju, Benggaulu, Kec. Dapurang, Kab. Pasangkayu, Sulawesi Barat 91573","Jl. Poros Majene - Mamuju, Benggaulu, Kec. Dapurang, Kab. Pasangkayu",SULAWESI BARAT,91573.0,Indonesia,,,,-1.7420609,119.4020917,https://maps.google.com/?cid=0x0:0xa62018a280ee790a,
komplek housing,komplek housing,Kec. Duripoku,"Kab. Pasangkayu, Sulawesi Barat","Kab. Pasangkayu, Sulawesi Barat",SULAWESI BARAT,,Indonesia,,,,-1.6543678,119.4203336,https://maps.google.com/?cid=0x0:0x2c307cba88191354,
komplek housing,Komplek perumahan,Rumahku,"997M+269, Saptanajaya, Kec. Duripoku, Kab. Pasangkayu, Sulawesi Barat","Kab. Pasangkayu, Sulawesi Barat",SULAWESI BARAT,,Indonesia,,,,-1.6374676,119.3831049,https://maps.google.com/?cid=0x0:0x9fc12008bb1ae9d3,
komplek housing,Komplek perumahan,Kecamatan duripoku,"8CWC+744, Tammarunang, Kec. Duripoku, Kab. Pasangkayu, Sulawesi Barat","Kab. Pasangkayu, Sulawesi Barat",SULAWESI BARAT,,Indonesia,,,,-1.6543678,119.4203336,https://maps.google.com/?cid=0x0:0x9440ae42829a6f65,
komplek housing,Kantor Perusahaan,Desa,"8CXC+7J2, Tammarunang, Kec. Duripoku, Kab. Pasangkayu, Sulawesi Barat 91573","Tammarunang, Kec. Duripoku, Kab. Pasangkayu",SULAWESI BARAT,91573.0,Indonesia,,,,-1.65164,119.4225249,https://maps.google.com/?cid=0x0:0x99bd2770780c560b,
komplek housing,Pembangunan Perumahan,Kios shinta,"995J+497, Saptanajaya, Kec. Duripoku, Kab. Pasangkayu, Sulawesi Barat 91573","Saptanajaya, Kec. Duripoku, Kab. Pasangkayu",SULAWESI BARAT,91573.0,Indonesia,,,,-1.6422027,119.3809327,https://maps.google.com/?cid=0x0:0x2f0a010d884a8d13,
komplek housing,komplek housing,Rumah khaliq,"8CX9+3XQ lorong 4, Tammarunang, Kec. Duripoku, Kab. Pasangkayu, Sulawesi Barat 91573","Tammarunang, Kec. Duripoku, Kab. Pasangkayu",SULAWESI BARAT,91573.0,Indonesia,,,,-1.652291,119.4199933,https://maps.google.com/?cid=0x0:0x96d1530c2e1a3bfd,
komplek housing,Perhimpunan Pengembang Perumahan,Rumah,"9C4Q+MW, Sipakainga, Kec. Duripoku, Kab. Pasangkayu, Sulawesi Barat","Kab. Pasangkayu, Sulawesi Barat",SULAWESI BARAT,,Indonesia,,,,-1.6433519,119.4397525,https://maps.google.com/?cid=0x0:0xfe996a1ff0717b60,
komplek housing,Komplek perumahan,Sr. 017,"9C32+74J, Taranggi, Kec. Duripoku, Kab. Pasangkayu, Sulawesi Barat","Kab. Pasangkayu, Sulawesi Barat",SULAWESI BARAT,,Indonesia,,,,-1.6467914,119.4002603,https://maps.google.com/?cid=0x0:0x1354071d4c89c98d,
komplek housing,Komplek perumahan,Rumah istanaku,"995C+H8W, Saptanajaya, Kec. Duripoku, Kab. Pasangkayu, Sulawesi Barat 91573","Saptanajaya, Kec. Duripoku, Kab. Pasangkayu",SULAWESI BARAT,91573.0,Indonesia,,,,-1.640268,119.371127,https://maps.google.com/?cid=0x0:0x74d7f04fb0b81852,
komplek housing,Komplek perumahan,RUMAH SEKRETARIS DESA,"9CFV+9X, Sipakainga, Kec. Duripoku, Kab. Pasangkayu, Sulawesi Barat","Kab. Pasangkayu, Sulawesi Barat",SULAWESI BARAT,,Indonesia,,,,-1.626631,119.4449475,https://maps.google.com/?cid=0x0:0x6f400f1645e955df,
komplek housing,Komplek perumahan,Juntak Home Stay,"997P+4MR, Unnamed Road, Saptanajaya, Kec. Duripoku, Kab. Pasangkayu, Sulawesi Barat 91573","Unnamed Road, Saptanajaya, Kec. Duripoku, Kab. Pasangkayu",SULAWESI BARAT,91573.0,Indonesia,,,,-1.6371295,119.3866516,https://maps.google.com/?cid=0x0:0x6759188524b8bb3e,
komplek housing,Gedung Apartemen,Rumahnya arfil,"998G+4WF, Saptanajaya, Kec. Duripoku, Kab. Pasangkayu, Sulawesi Barat","Kab. Pasangkayu, Sulawesi Barat",SULAWESI BARAT,,Indonesia,,,,-1.6346778,119.3772969,https://maps.google.com/?cid=0x0:0x4d0a0a5bd70dc298,
komplek housing,Komplek perumahan,Buk kartik,"994H+W42, Saptanajaya, Kec. Duripoku, Kab. Pasangkayu, Sulawesi Barat 91573","Saptanajaya, Kec. Duripoku, Kab. Pasangkayu",SULAWESI BARAT,91573.0,Indonesia,,,,-1.6427491,119.3777523,https://maps.google.com/?cid=0x0:0x943ab30891d87bb7,
komplek housing,Komplek perumahan,Rumah Mas Adit Woilah Cik,"8CWF+G2F, Tammarunang, Kec. Duripoku, Kab. Pasangkayu, Sulawesi Barat 91573","Tammarunang, Kec. Duripoku, Kab. Pasangkayu",SULAWESI BARAT,91573.0,Indonesia,,,,-1.6536868,119.4225324,https://maps.google.com/?cid=0x0:0x6a9ed7bbeff323ea,
komplek housing,Komplek perumahan,Rumah sahrul,"996M+XVV, Saptanajaya, Kec. Duripoku, Kab. Pasangkayu, Sulawesi Barat","Kab. Pasangkayu, Sulawesi Barat",SULAWESI BARAT,,Indonesia,,,,-1.637503,119.3846837,https://maps.google.com/?cid=0x0:0xef59890c2915512b,
komplek housing,Komplek perumahan,Rumah Awal,"8CR6+4VR, Tammarunang, Kec. Duripoku, Kab. Pasangkayu, Sulawesi Barat 91573","Tammarunang, Kec. Duripoku, Kab. Pasangkayu",SULAWESI BARAT,91573.0,Indonesia,,,,-1.6596459,119.412128,https://maps.google.com/?cid=0x0:0xa87cabec1d53b815,
komplek housing,Komplek perumahan,RUMAH SEKDES SIPAKAINGA,"9CFV+9X, Sipakainga, Kec. Duripoku, Kab. Pasangkayu, Sulawesi Barat","Kab. Pasangkayu, Sulawesi Barat",SULAWESI BARAT,,Indonesia,,,,-1.6265754,119.4449707,https://maps.google.com/?cid=0x0:0xbe51deb1df92aa07,
komplek housing,Komplek perumahan,Rumah waris,"8CW5+98V, Tammarunang, Kec. Duripoku, Kab. Pasangkayu, Sulawesi Barat 91573","Tammarunang, Kec. Duripoku, Kab. Pasangkayu",SULAWESI BARAT,91573.0,Indonesia,,,,-1.654003,119.4082966,https://maps.google.com/?cid=0x0:0x4eedc2621fbbf2c8,
komplek housing,Komplek perumahan,Rumah Thyna,"8CXC+7J2, Tammarunang, Kec. Duripoku, Kab. Pasangkayu, Sulawesi Barat 91573","Tammarunang, Kec. Duripoku, Kab. Pasangkayu",SULAWESI BARAT,91573.0,Indonesia,,,,-1.651761,119.422486,https://maps.google.com/?cid=0x0:0x26fc27eff5dc3dcd,
komplek housing,Komplek perumahan,Rumah Fira,"8CWH+3H3, Tammarunang, Kec. Duripoku, Kab. Pasangkayu, Sulawesi Barat 91573","Tammarunang, Kec. Duripoku, Kab. Pasangkayu",SULAWESI BARAT,91573.0,Indonesia,,,,-1.6548673,119.4289205,https://maps.google.com/?cid=0x0:0x8e47d97613cf65ce,
komplek housing,Komplek perumahan,Reza Reza,"996G+CFP, Saptanajaya, Kec. Duripoku, Kab. Pasangkayu, Sulawesi Barat","Kab. Pasangkayu, Sulawesi Barat",SULAWESI BARAT,,Indonesia,,,,-1.6389066,119.376214,https://maps.google.com/?cid=0x0:0xb2a60b3f682d5f93,
komplek housing,Komplek perumahan,perumahan bravo,"79WG+762, Kumasari, Kec. Sarudu, Kab. Pasangkayu, Sulawesi Barat 91573","Kumasari, Kec. Sarudu, Kab. Pasangkayu",SULAWESI BARAT,91573.0,Indonesia,,,,-1.7043526,119.37551,https://maps.google.com/?cid=0x0:0xd3cb33b304b949f0,
komplek housing,Komplek perumahan,Rumah Sekdes Tammarunang,"8CWC+JMJ, Tammarunang, Kec. Duripoku, Kab. Pasangkayu, Sulawesi Barat","Kab. Pasangkayu, Sulawesi Barat",SULAWESI BARAT,,Indonesia,,,,-1.6536634,119.421902,https://maps.google.com/?cid=0x0:0x7113d330b4613003,
komplek housing,Pembangunan Perumahan,AL Qodry,"996M+9CH, Saptanajaya, Kec. Duripoku, Kab. Pasangkayu, Sulawesi Barat 91573","Saptanajaya, Kec. Duripoku, Kab. Pasangkayu",SULAWESI BARAT,91573.0,Indonesia,,,,-1.6390746,119.3836043,https://maps.google.com/?cid=0x0:0xa2b1ca8ec7823897,
komplek housing,Komplek perumahan,rumah hasan suratman,"8CWF+PQF, Tammarunang, Kec. Duripoku, Kab. Pasangkayu, Sulawesi Barat 91573","Tammarunang, Kec. Duripoku, Kab. Pasangkayu",SULAWESI BARAT,91573.0,Indonesia,,,,-1.6525286,119.4249678,https://maps.google.com/?cid=0x0:0x5e0834d3d7cec4f8,
komplek housing,Komplek perumahan,DPRD KAB,"7CQG+GMP, Bulu Bonggu, Kec. Dapurang, Kab. Pasangkayu, Sulawesi Barat 91573","Bulu Bonggu, Kec. Dapurang, Kab. Pasangkayu",SULAWESI BARAT,91573.0,Indonesia,,,,-1.7111689,119.4267052,https://maps.google.com/?cid=0x0:0xc1b141d33cde953b,
komplek housing,Komplek perumahan,APK Presiden  Wakil Presiden,"7CQG+2XM, Bulu Bonggu, Kec. Dapurang, Kab. Pasangkayu, Sulawesi Barat 91573","Bulu Bonggu, Kec. Dapurang, Kab. Pasangkayu",SULAWESI BARAT,91573.0,Indonesia,,,,-1.7124285,119.4274492,https://maps.google.com/?cid=0x0:0xc0c663fe2ce16799,
komplek housing,Komplek perumahan,Rumah bokcu,"78XV+8MF, Kumasari, Kec. Sarudu, Kab. Pasangkayu, Sulawesi Barat 91573","Kumasari, Kec. Sarudu, Kab. Pasangkayu",SULAWESI BARAT,91573.0,Indonesia,,,,-1.7016915,119.3441807,https://maps.google.com/?cid=0x0:0x8f25bc392a1792c6,
komplek housing,Komplek perumahan,Rumah melsi,"8CR6+4VR, Lorong 3 BTN, Tammarunang, Kec. Duripoku, Kab. Pasangkayu, Sulawesi Barat 91573","Lorong 3 BTN, Tammarunang, Kec. Duripoku, Kab. Pasangkayu",SULAWESI BARAT,91573.0,Indonesia,,,,-1.6596459,119.412128,https://maps.google.com/?cid=0x0:0x45cf336d20f5df27,
komplek housing,komplek housing,Kec. Lariang,"Kab. Pasangkayu, Sulawesi Barat","Kab. Pasangkayu, Sulawesi Barat",SULAWESI BARAT,,Indonesia,,,,-1.4747552,119.3681607,https://maps.google.com/?cid=0x0:0x9800acb19cdd3433,
komplek housing,komplek housing,Rumah üè† Muhammad al khalifi,"G9H5+28Q, Kenangan, Kec. Lariang, Kab. Pasangkayu, Sulawesi Barat 91572","Kenangan, Kec. Lariang, Kab. Pasangkayu",SULAWESI BARAT,91572.0,Indonesia,,,,-1.4724122,119.3583615,https://maps.google.com/?cid=0x0:0x32e885171f16fb6d,
komplek housing,Komplek perumahan,Sul,"H77X+CH, Bambakoro, Kec. Lariang, Kab. Pasangkayu, Sulawesi Barat","Kab. Pasangkayu, Sulawesi Barat",SULAWESI BARAT,,Indonesia,,,,-1.436408,119.298943,https://maps.google.com/?cid=0x0:0x53ba0c1efef958f2,
komplek housing,Pembangunan Perumahan,Rumah Ketut Sudarya,"G9G8+2GH, Parabu, Kec. Lariang, Kab. Pasangkayu, Sulawesi Barat 91572","Parabu, Kec. Lariang, Kab. Pasangkayu",SULAWESI BARAT,91572.0,Indonesia,,,,-1.4756164,119.3660554,https://maps.google.com/?cid=0x0:0xf1a73c151eca8e13,
komplek housing,Komplek perumahan,Perumahan nelayan,"H77X+485, Bambakoro, Kec. Lariang, Kab. Pasangkayu, Sulawesi Barat","Kab. Pasangkayu, Sulawesi Barat",SULAWESI BARAT,,Indonesia,81244383848.0,,,-1.4372441,119.2983689,https://maps.google.com/?cid=0x0:0x8852e2222904e582,
komplek housing,Komplek perumahan,kel.besar ASHARI,"H855+R29, Bambakoro, Kec. Lariang, Kab. Pasangkayu, Sulawesi Barat","Kab. Pasangkayu, Sulawesi Barat",SULAWESI BARAT,,Indonesia,,,,-1.4404559,119.3076098,https://maps.google.com/?cid=0x0:0x7f5b87c7befa18b1,
komplek housing,Komplek perumahan,Rumah AFIF,"G9G9+F4M, Parabu, Kec. Lariang, Kab. Pasangkayu, Sulawesi Barat 91572","Parabu, Kec. Lariang, Kab. Pasangkayu",SULAWESI BARAT,91572.0,Indonesia,,,,-1.4737861,119.3677991,https://maps.google.com/?cid=0x0:0x91a6f65abb6dfc37,
komplek housing,Pusat Perbelanjaan,Ruko,"G877+693, Singgani, Kec. Lariang, Kab. Pasangkayu, Sulawesi Barat 91572","Singgani, Kec. Lariang, Kab. Pasangkayu",SULAWESI BARAT,91572.0,Indonesia,,,,-1.4869906,119.3134183,https://maps.google.com/?cid=0x0:0x1cf42fbaf714b880,
komplek housing,Komplek perumahan,Fikri,"H855+R29, Tanjung Harapan, Bambakoro","Kab. Pasangkayu, Sulawesi Barat",SULAWESI BARAT,,Indonesia,,,,-1.4404559,119.3076098,https://maps.google.com/?cid=0x0:0x61917445ddb7c8dc,
komplek housing,Komplek perumahan,Rumah tinggal kediaman baharuddin,"G8R8+854, Dusun palapi, Bambakoro, Kec. Lariang, Kab. Pasangkayu, Sulawesi Barat","Kab. Pasangkayu, Sulawesi Barat",SULAWESI BARAT,,Indonesia,82351478228.0,,,-1.4592422,119.315467,https://maps.google.com/?cid=0x0:0x61a9cdf81bb373e8,
komplek housing,Pusat Perbelanjaan,Irma,"H993+GX2, Lariang, Kec. Tikke Raya, Kab. Pasangkayu, Sulawesi Barat 91571","Lariang, Kec. Tikke Raya, Kab. Pasangkayu",SULAWESI BARAT,91571.0,Indonesia,,,,-1.4315817,119.3536395,https://maps.google.com/?cid=0x0:0xe571ad3f41e22e96,
komplek housing,Komplek perumahan,Rumah tinggal,"G9GC+24X, G9G9+6VJParabuKec. LariangKab, Parabu, Kec. Lariang, Kab. Pasangkayu, Sulawesi Barat","Kab. Pasangkayu, Sulawesi Barat",SULAWESI BARAT,,Indonesia,,,,-1.4748767,119.3703517,https://maps.google.com/?cid=0x0:0xeb367d7291421a78,
komplek housing,Komplek perumahan,Kadek Wirawan,"G965+GW8, Bajawali, Kec. Lariang, Kab. Pasangkayu, Sulawesi Barat 91572","Bajawali, Kec. Lariang, Kab. Pasangkayu",SULAWESI BARAT,91572.0,Indonesia,,,,-1.4886586,119.3597462,https://maps.google.com/?cid=0x0:0x6c98dc76ec45460e,
komplek housing,Komplek perumahan,Karta‚Äôs house,"GCM9+4FJ, Lilimori, Kec. Bulu Taba, Kab. Pasangkayu, Sulawesi Barat 91572","Lilimori, Kec. Bulu Taba, Kab. Pasangkayu",SULAWESI BARAT,91572.0,Indonesia,,,,-1.4670737,119.4185963,https://maps.google.com/?cid=0x0:0x19bb6fd391435aa4,
komplek housing,Komplek perumahan,RUMAH SULFADLI,"H77X+FGH, Bambakoro, Kec. Lariang, Kab. Pasangkayu, Sulawesi Barat","Kab. Pasangkayu, Sulawesi Barat",SULAWESI BARAT,,Indonesia,,,,-1.4363143,119.2988584,https://maps.google.com/?cid=0x0:0xdbf880104db5a14c,
komplek housing,komplek housing,Rumah Mahrus,"G8CP+Q69, Singgani, Kec. Lariang, Kab. Pasangkayu, Sulawesi Barat 12345","Singgani, Kec. Lariang, Kab. Pasangkayu",SULAWESI BARAT,12345.0,Indonesia,,,,-1.4777444,119.3355644,https://maps.google.com/?cid=0x0:0xb5e6cedca01bcbf,
komplek housing,Komplek perumahan,Anci home,"H9F4+362, Lariang, Kec. Tikke Raya, Kab. Pasangkayu, Sulawesi Barat","Kab. Pasangkayu, Sulawesi Barat",SULAWESI BARAT,,Indonesia,,,,-1.4273602,119.3555046,https://maps.google.com/?cid=0x0:0x2d9851b2dfda350c,
komplek housing,Pembangunan Perumahan,Kadek sucita,"G9GG+MW7, Parabu, Kec. Lariang, Kab. Pasangkayu, Sulawesi Barat 91572","Parabu, Kec. Lariang, Kab. Pasangkayu",SULAWESI BARAT,91572.0,Indonesia,,,,-1.4733478,119.3772969,https://maps.google.com/?cid=0x0:0xbc511479047327ab,
komplek housing,Komplek perumahan,Rumah NI PUTU DIAN MEGAWATI,"G9G8+2GH, Parabu, Kec. Lariang, Kab. Pasangkayu, Sulawesi Barat 91572","Parabu, Kec. Lariang, Kab. Pasangkayu",SULAWESI BARAT,91572.0,Indonesia,,,,-1.4751899,119.3662592,https://maps.google.com/?cid=0x0:0x3864c13a14a4e997,
komplek housing,Komplek perumahan,Rumah suardi(,"H8GW+GC, Lariang, Kec. Lariang, Kab. Pasangkayu, Sulawesi Barat","Kab. Pasangkayu, Sulawesi Barat",SULAWESI BARAT,,Indonesia,,,,-1.4236813,119.3460606,https://maps.google.com/?cid=0x0:0xf6b2d656d2145852,
komplek housing,Komplek perumahan,Rumah Keluarga Bpk Paulus J,"H9C4+629, Lariang, Kec. Tikke Raya, Mamuju, Sulawesi Barat 91571","Lariang, Kec. Tikke Raya, Mamuju",SULAWESI BARAT,91571.0,Indonesia,,,,-1.429401,119.3551644,https://maps.google.com/?cid=0x0:0xd0687a9854e006b7,
komplek housing,Komplek perumahan,Rumahnya EL,"GCF7+RVM, Lilimori, Kec. Bulu Taba, Kab. Pasangkayu, Sulawesi Barat 91572","Lilimori, Kec. Bulu Taba, Kab. Pasangkayu",SULAWESI BARAT,91572.0,Indonesia,,,,-1.4754207,119.4146705,https://maps.google.com/?cid=0x0:0xe8d6afc6a7bc92ab,
komplek housing,komplek housing,Riza Nurkhofifah,"Jl Sultan Hasanudin, Karave, Kec. Bulu Taba, Kab. Pasangkayu, Sulawesi Barat 91572","Karave, Kec. Bulu Taba, Kab. Pasangkayu",SULAWESI BARAT,91572.0,Indonesia,,,,-1.4926149,119.4121066,https://maps.google.com/?cid=0x0:0x74765382e19dde1,
komplek housing,Komplek perumahan,Rumah tiawan,"G8FP+PPJ Rumah tiawan, Singgani, Kec. Lariang, Kab. Pasangkayu, Sulawesi Barat 91572","Singgani, Kec. Lariang, Kab. Pasangkayu",SULAWESI BARAT,91572.0,Indonesia,,,,-1.4756619,119.3367789,https://maps.google.com/?cid=0x0:0x6c8d61c4a1646f18,
komplek housing,komplek housing,Bpk Al,"F9HM+CWW, Motu, Kec. Baras, Kab. Pasangkayu, Sulawesi Barat 91572","Motu, Kec. Baras, Kab. Pasangkayu",SULAWESI BARAT,91572.0,Indonesia,,,,-1.521143,119.38458,https://maps.google.com/?cid=0x0:0xda881eb2f2230af4,
komplek housing,komplek housing,Rumah Nawira Dekat Bengkel,"G9G9+6VJ, Parabu, Kec. Lariang, Kab. Pasangkayu, Sulawesi Barat 91572","Parabu, Kec. Lariang, Kab. Pasangkayu",SULAWESI BARAT,91572.0,Indonesia,,,,-1.4744025,119.3695352,https://maps.google.com/?cid=0x0:0x707343f9fe03ac00,
komplek housing,Komplek perumahan,Dek Aya Family,"GCM9+JFW, Jl. Cendrawasih, Lilimori, Kec. Bulu Taba, Kab. Pasangkayu, Sulawesi Barat 91572","Jl. Cendrawasih, Lilimori, Kec. Bulu Taba, Kab. Pasangkayu",SULAWESI BARAT,91572.0,Indonesia,,,,-1.4658866,119.4186894,https://maps.google.com/?cid=0x0:0xa8fa4cb9224a60e6,
komplek housing,Komplek perumahan,Rumah Baby,"G9PG+RW3, Kulu, Kec. Lariang, Kab. Pasangkayu, Sulawesi Barat 91572","Kulu, Kec. Lariang, Kab. Pasangkayu",SULAWESI BARAT,91572.0,Indonesia,,,,-1.4633054,119.3777546,https://maps.google.com/?cid=0x0:0x149d36429a8521af,
komplek housing,Komplek perumahan,PANDAWA,"G958+R7M, Lorong 8, dusun mandiri, Bajawali, Kec. Lariang, Kab. Pasangkayu, Sulawesi Barat 91572","Lorong 8, dusun mandiri, Bajawali, Kec. Lariang, Kab. Pasangkayu",SULAWESI BARAT,91572.0,Indonesia,,,,-1.4904059,119.3656848,https://maps.google.com/?cid=0x0:0x6ac26d42cf1a58b6,
komplek housing,komplek housing,Sulawesi Barat 91571,"Kab. Pasangkayu, Sulawesi Barat","Kab. Pasangkayu, Sulawesi Barat",SULAWESI BARAT,,Indonesia,,,,-1.2916992,119.3714909,https://maps.google.com/?cid=0x0:0x12640eefba628a12,
komplek housing,Komplek perumahan,Perumahan,"R9C3+QHG, Jl. Durian, Pasangkayu, Kec. Pasangkayu, Kab. Pasangkayu, Sulawesi Barat 91571","Jl. Durian, Pasangkayu, Kec. Pasangkayu, Kab. Pasangkayu",SULAWESI BARAT,91571.0,Indonesia,,,,-1.1780629,119.3539379,https://maps.google.com/?cid=0x0:0xcf78454d6831c9bd,
komplek housing,komplek housing,Agus Ayu,"R9C4+55X, Pasangkayu, Kec. Pasangkayu, Kab. Pasangkayu, Sulawesi Barat 91571","Pasangkayu, Kec. Pasangkayu, Kab. Pasangkayu",SULAWESI BARAT,91571.0,Indonesia,,,,-1.179939,119.3547201,https://maps.google.com/?cid=0x0:0x8b2f56542a529c43,
komplek housing,Komplek perumahan,Rumah barra,"QFG8+CF, Gn. Sari, Kec. Pasangkayu, Kab. Pasangkayu, Sulawesi Barat 91571","Gn. Sari, Kec. Pasangkayu, Kab. Pasangkayu",SULAWESI BARAT,91571.0,Indonesia,,,,-1.2239994,119.4661323,https://maps.google.com/?cid=0x0:0x1fd9a121a2e16b3a,
komplek housing,Komplek perumahan,Drh Yogi,"HC7C+5MQ, Sumber Sari, Kec. Bulu Taba, Kab. Pasangkayu, Sulawesi Barat 91571","Sumber Sari, Kec. Bulu Taba, Kab. Pasangkayu",SULAWESI BARAT,91571.0,Indonesia,,,,-1.4368985,119.4213592,https://maps.google.com/?cid=0x0:0x580fb8bd9306d02f,
komplek housing,Perhimpunan Pengembang Perumahan,Bung HY,"R9G8+3VP, Jl. Imam Bonjol, Pasangkayu, Kec. Pasangkayu, Kab. Pasangkayu, Sulawesi Barat 91574","Jl. Imam Bonjol, Pasangkayu, Kec. Pasangkayu, Kab. Pasangkayu",SULAWESI BARAT,91574.0,Indonesia,,,,-1.1747783,119.3672154,https://maps.google.com/?cid=0x0:0x4937d8458bc4823d,
komplek housing,Komplek perumahan,Perumahan Green City Pasangkayu,"R82R+9P9, Karya Bersama, Kec. Pasangkayu, Kab. Pasangkayu, Sulawesi Barat 91571","Karya Bersama, Kec. Pasangkayu, Kab. Pasangkayu",SULAWESI BARAT,91571.0,Indonesia,,,,-1.1990973,119.3418448,https://maps.google.com/?cid=0x0:0x92fa79a250ab897c,
komplek housing,Komplek perumahan,Home Arsya aulia,"R984+4FH, Jl. Gatot Subroto, Pasangkayu, Kec. Pasangkayu, Kab. Pasangkayu, Sulawesi Barat 91571","Jl. Gatot Subroto, Pasangkayu, Kec. Pasangkayu, Kab. Pasangkayu",SULAWESI BARAT,91571.0,Indonesia,,,,-1.1846942,119.3562268,https://maps.google.com/?cid=0x0:0xe5fb525306991139,
komplek housing,Pembangunan Perumahan,Home Joe_Lisdha,"Jl. Pendidikan No.3, Pasangkayu, Kec. Pasangkayu, Kab. Pasangkayu, Sulawesi Barat 91574","Pasangkayu, Kec. Pasangkayu, Kab. Pasangkayu",SULAWESI BARAT,91574.0,Indonesia,,,,-1.1750013,119.360574,https://maps.google.com/?cid=0x0:0x63e6f43d03ab0e0e,
komplek housing,Komplek perumahan,Kost Dhini-Dhiqa,"R998+RQ, Pasangkayu, Kec. Pasangkayu, Kab. Pasangkayu, Sulawesi Barat 91574","Pasangkayu, Kec. Pasangkayu, Kab. Pasangkayu",SULAWESI BARAT,91574.0,Indonesia,,,,-1.1805799,119.3668413,https://maps.google.com/?cid=0x0:0x885d2b11ba85fc60,
komplek housing,Komplek perumahan,Rumah DAHNIAL,"R9HF+98X, Pasangkayu, Kec. Pasangkayu, Kab. Pasangkayu, Sulawesi Barat","Kab. Pasangkayu, Sulawesi Barat",SULAWESI BARAT,,Indonesia,,,,-1.1715212,119.3733699,https://maps.google.com/?cid=0x0:0x599a8ea38f9b15f0,
komplek housing,Toko Perlengkapan Rumah,UM plafon,"R9G9+W2R, Jl. Moh. Hatta, Pasangkayu, Kec. Pasangkayu, Kab. Pasangkayu, Sulawesi Barat","Kab. Pasangkayu, Sulawesi Barat",SULAWESI BARAT,,Indonesia,,,,-1.1726376,119.3675171,https://maps.google.com/?cid=0x0:0x71a59672771df738,
komplek housing,Otoritas Perumahan,Perumahan pabrik,"MC8F+247, Makmur Jaya, Kec. Tikke Raya, Kab. Pasangkayu, Sulawesi Barat 91571","Makmur Jaya, Kec. Tikke Raya, Kab. Pasangkayu",SULAWESI BARAT,91571.0,Indonesia,,,,-1.3352561,119.4227332,https://maps.google.com/?cid=0x0:0xeed2f1e83b6081f2,
komplek housing,Komplek perumahan,Rumah Obetnego,"M982+MW, Tikke, Kec. Tikke Raya, Kab. Pasangkayu, Sulawesi Barat 91571","Tikke, Kec. Tikke Raya, Kab. Pasangkayu",SULAWESI BARAT,91571.0,Indonesia,,,,-1.3329793,119.3521726,https://maps.google.com/?cid=0x0:0xd96d33c704ed2163,
komplek housing,Komplek perumahan,Aisyah House,"Jengeng Raya, Kec. Tikke Raya, Kab. Pasangkayu, Sulawesi Barat 91571","Kec. Tikke Raya, Kab. Pasangkayu",SULAWESI BARAT,91571.0,Indonesia,,,,-1.343567,119.3713462,https://maps.google.com/?cid=0x0:0x708acafa1d982855,
komplek housing,Komplek perumahan,Kost fida/nur,"R9C4+7FW, Jl. Manggis, Pasangkayu, Kec. Pasangkayu, Kab. Pasangkayu, Sulawesi Barat","Kab. Pasangkayu, Sulawesi Barat",SULAWESI BARAT,,Indonesia,,,,-1.1792679,119.3562104,https://maps.google.com/?cid=0x0:0xa47b66cd166f9318,
komplek housing,Komplek perumahan,Perumahan bravo,"QCH5+H3J, Ako, Kec. Pasangkayu, Kab. Pasangkayu, Sulawesi Barat","Kab. Pasangkayu, Sulawesi Barat",SULAWESI BARAT,,Indonesia,,,,-1.2210265,119.4076374,https://maps.google.com/?cid=0x0:0xc043ebb0f1315eff,
komplek housing,Komplek perumahan,Rumah nya mukmin,"R8FR+V5G, Pasangkayu, Kec. Pasangkayu, Kab. Pasangkayu, Sulawesi Barat 91571","Pasangkayu, Kec. Pasangkayu, Kab. Pasangkayu",SULAWESI BARAT,91571.0,Indonesia,,,,-1.1753134,119.3404614,https://maps.google.com/?cid=0x0:0xdf79179f11d0cc76,
komplek housing,Komplek perumahan,Rumah dg sukku,"R9C4+55X, Pasangkayu, Kec. Pasangkayu, Kab. Pasangkayu, Sulawesi Barat 91571","Pasangkayu, Kec. Pasangkayu, Kab. Pasangkayu",SULAWESI BARAT,91571.0,Indonesia,,,,-1.1798069,119.3547822,https://maps.google.com/?cid=0x0:0x46ac61ef429cd0b,
komplek housing,Komplek perumahan,Faiz's house,"P9P2+J9Q, Pedanda, Pedongga, Kab. Pasangkayu, Sulawesi Barat 91571","Pedanda, Pedongga, Kab. Pasangkayu",SULAWESI BARAT,91571.0,Indonesia,,,,-1.2634227,119.3509974,https://maps.google.com/?cid=0x0:0xb774933763738abb,
komplek housing,Perhimpunan Pengembang Perumahan,Perumahan Pamulang Residence Pasangkayu,"R9HF+P58, Jl. Moh. Hatta, Pasangkayu, Kec. Pasangkayu, Kab. Pasangkayu, Sulawesi Barat 91574","Jl. Moh. Hatta, Pasangkayu, Kec. Pasangkayu, Kab. Pasangkayu",SULAWESI BARAT,91574.0,Indonesia,85395854042.0,,,-1.1707225,119.3729671,https://maps.google.com/?cid=0x0:0x751e5c3117a052fc,
komplek housing,Komplek perumahan,azzahra Home,"R994+QQQ, Lrg. Angguni 2, Pasangkayu, Kec. Pasangkayu, Kab. Pasangkayu, Sulawesi Barat 91571","Lrg. Angguni 2, Pasangkayu, Kec. Pasangkayu, Kab. Pasangkayu",SULAWESI BARAT,91571.0,Indonesia,,,,-1.1805431,119.3569986,https://maps.google.com/?cid=0x0:0x8300acfdc5b80647,
komplek housing,Komplek perumahan,Agus rudiansya,"R9C4+55X, Pasangkayu, Kec. Pasangkayu, Kab. Pasangkayu, Sulawesi Barat 91571","Pasangkayu, Kec. Pasangkayu, Kab. Pasangkayu",SULAWESI BARAT,91571.0,Indonesia,,,,-1.1798834,119.3547705,https://maps.google.com/?cid=0x0:0x15217d09a1e47d81,
komplek housing,komplek housing,rumah iyan,"R88V+3GF, Jl. Gn. Latimojong, Pasangkayu, Kec. Pasangkayu, Kab. Pasangkayu, Sulawesi Barat 91571","Jl. Gn. Latimojong, Pasangkayu, Kec. Pasangkayu, Kab. Pasangkayu",SULAWESI BARAT,91571.0,Indonesia,,,,-1.1848106,119.3437901,https://maps.google.com/?cid=0x0:0x8893690eae291e1f,
komplek housing,Komplek perumahan,Rumah Pak Ansal,"R8GV+XW, Pasangkayu, Kec. Pasangkayu, Kab. Pasangkayu, Sulawesi Barat 91571","Pasangkayu, Kec. Pasangkayu, Kab. Pasangkayu",SULAWESI BARAT,91571.0,Indonesia,,,,-1.1724253,119.3446578,https://maps.google.com/?cid=0x0:0xf6e1e090c329db2c,
komplek housing,Pembangunan Perumahan,Home i.komang suarta,"HFF5+43V, Kasta Buana, Kec. Bulu Taba, Kab. Pasangkayu, Sulawesi Barat 91571","Kasta Buana, Kec. Bulu Taba, Kab. Pasangkayu",SULAWESI BARAT,91571.0,Indonesia,,,,-1.4271303,119.457678,https://maps.google.com/?cid=0x0:0x4efc4adc81ecf85d,
komplek housing,Komplek perumahan,Pemukiman,"Jl. Manggis No.1, Pasangkayu, Kec. Pasangkayu, Kab. Pasangkayu, Sulawesi Barat 91571","Pasangkayu, Kec. Pasangkayu, Kab. Pasangkayu",SULAWESI BARAT,91571.0,Indonesia,,,,-1.179332,119.356549,https://maps.google.com/?cid=0x0:0xf8a7711a345d652b,
komplek housing,komplek housing,Sakka,"P8HG+XRJ, Pasangkayu - Baras, Malei, Pedongga, Kab. Pasangkayu, Sulawesi Barat 91571","Pasangkayu - Baras, Malei, Pedongga, Kab. Pasangkayu",SULAWESI BARAT,91571.0,Indonesia,,,,-1.2678145,119.3252533,https://maps.google.com/?cid=0x0:0x26ff53e0bd5f0db9,
komplek housing,Perhimpunan Pengembang Perumahan,Rumah PK Rido,"R8HR+4WJ, Jl. Tj. Babia, Pasangkayu, Kec. Pasangkayu, Kab. Pasangkayu, Sulawesi Barat 91571","Jl. Tj. Babia, Pasangkayu, Kec. Pasangkayu, Kab. Pasangkayu",SULAWESI BARAT,91571.0,Indonesia,,,,-1.1721575,119.3422759,https://maps.google.com/?cid=0x0:0x4ff09b025b097223,
komplek housing,komplek housing,Pedongga,"Kab. Pasangkayu, Sulawesi Barat","Kab. Pasangkayu, Sulawesi Barat",SULAWESI BARAT,,Indonesia,,,,-1.2745455,119.3947138,https://maps.google.com/?cid=0x0:0x9cbcb3a80b2b146e,
komplek housing,komplek housing,Dokter cukur,"P9W3+CJ4, Pedanda, Pedongga, Kab. Pasangkayu, Sulawesi Barat 91571","Pedanda, Pedongga, Kab. Pasangkayu",SULAWESI BARAT,91571.0,Indonesia,,,,-1.2539891,119.3540715,https://maps.google.com/?cid=0x0:0x4c88f588598c302d,
komplek housing,Komplek perumahan,Faiz's house,"P9P2+J9Q, Pedanda, Pedongga, Kab. Pasangkayu, Sulawesi Barat 91571","Pedanda, Pedongga, Kab. Pasangkayu",SULAWESI BARAT,91571.0,Indonesia,,,,-1.2634227,119.3509974,https://maps.google.com/?cid=0x0:0xb774933763738abb,
komplek housing,Komplek perumahan,Wahid hasan,"P9R3+9P6, Pedanda, Pedongga, Kab. Pasangkayu, Sulawesi Barat 91571","Pedanda, Pedongga, Kab. Pasangkayu",SULAWESI BARAT,91571.0,Indonesia,,,,-1.2590717,119.3542934,https://maps.google.com/?cid=0x0:0xd5fcb873bfcc5142,
komplek housing,Komplek perumahan,Indi house,"P8PX+9H, Pedanda, Pedongga, Kab. Pasangkayu, Sulawesi Barat","Kab. Pasangkayu, Sulawesi Barat",SULAWESI BARAT,,Indonesia,,,,-1.2640343,119.3489654,https://maps.google.com/?cid=0x0:0xfa2f454c52767d89,
komplek housing,Komplek perumahan,Firmansyah/ Itha,"PC9C+HHX, Martasari, Pedongga, Kab. Pasangkayu, Sulawesi Barat 91571","Martasari, Pedongga, Kab. Pasangkayu",SULAWESI BARAT,91571.0,Indonesia,,,,-1.2808768,119.4212921,https://maps.google.com/?cid=0x0:0xf65f90d90ae61182,
komplek housing,Pembangunan Perumahan,Perum. OC MMG/ardianto,"PFMF+JF8, Martasari, Pedongga, Kab. Pasangkayu, Sulawesi Barat","Kab. Pasangkayu, Sulawesi Barat",SULAWESI BARAT,,Indonesia,,,,-1.2659633,119.4737086,https://maps.google.com/?cid=0x0:0x3aeedc3ef8cbfc58,
komplek housing,,Dea Ulandari,"P9P2+J9Q, Pedanda, Pedongga, Kab. Pasangkayu, Sulawesi Barat 91571","Pedanda, Pedongga, Kab. Pasangkayu",SULAWESI BARAT,91571.0,Indonesia,,,,-1.263167,119.350457,https://maps.google.com/?cid=0x0:0x9327ddc320d45775,
komplek housing,Komplek perumahan,Perumahan Charlie 2 PT. Mamuang,"PFC8+2W, Martasari, Pedongga, Kab. Pasangkayu, Sulawesi Barat","Kab. Pasangkayu, Sulawesi Barat",SULAWESI BARAT,,Indonesia,,,,-1.2800153,119.4673437,https://maps.google.com/?cid=0x0:0xe8b9b83752a246a9,
komplek housing,Komplek perumahan,Ahmad taufikin,"P9P3+F5, Pedanda, Pedongga, Kab. Pasangkayu, Sulawesi Barat","Kab. Pasangkayu, Sulawesi Barat",SULAWESI BARAT,,Indonesia,,,,-1.2637795,119.3528573,https://maps.google.com/?cid=0x0:0xaa7d63c81f5a3435,
komplek housing,Komplek perumahan,Ibnu house,"P9P2+9C8, Pedanda, Pedongga, Kab. Pasangkayu, Sulawesi Barat 91571","Pedanda, Pedongga, Kab. Pasangkayu",SULAWESI BARAT,91571.0,Indonesia,,,,-1.2640841,119.3510665,https://maps.google.com/?cid=0x0:0x67426b50b5e9cafe,
komplek housing,Komplek perumahan,Rumah pak pami,"P9V2+2VM, Pedanda, Pedongga, Kab. Pasangkayu, Sulawesi Barat 91571","Pedanda, Pedongga, Kab. Pasangkayu",SULAWESI BARAT,91571.0,Indonesia,,,,-1.257406,119.3521804,https://maps.google.com/?cid=0x0:0xd9c7817f70034b5e,
komplek housing,Komplek perumahan,Rumah Pak Anton,"P9F8+G22, Unnamed Road, Martasari, Pedongga, Kab. Pasangkayu, Sulawesi Barat 91571","Unnamed Road, Martasari, Pedongga, Kab. Pasangkayu",SULAWESI BARAT,91571.0,Indonesia,,,,-1.2762261,119.365013,https://maps.google.com/?cid=0x0:0x8ccdb53ddc0699f6,
komplek housing,komplek housing,Sakka,"P8HG+XRJ, Pasangkayu - Baras, Malei, Pedongga, Kab. Pasangkayu, Sulawesi Barat 91571","Pasangkayu - Baras, Malei, Pedongga, Kab. Pasangkayu",SULAWESI BARAT,91571.0,Indonesia,,,,-1.2678145,119.3252533,https://maps.google.com/?cid=0x0:0x26ff53e0bd5f0db9,
komplek housing,komplek housing,BUE ANDYRAKA,"P9P2+X5W, Pedanda, Pedongga, Kab. Pasangkayu, Sulawesi Barat 91571","Pedanda, Pedongga, Kab. Pasangkayu",SULAWESI BARAT,91571.0,Indonesia,,,,-1.2625045,119.35045,https://maps.google.com/?cid=0x0:0xaae2fd88720b30e5,
komplek housing,Pembangunan Perumahan,Sandhy,"P8MF+C9P, Malei, Pedongga, Kab. Pasangkayu, Sulawesi Barat","Kab. Pasangkayu, Sulawesi Barat",SULAWESI BARAT,,Indonesia,,,,-1.2663996,119.3234251,https://maps.google.com/?cid=0x0:0x17aa065468068058,
komplek housing,Komplek perumahan,Rumah Fahmi Al Azzam,"P9R3+3HM, Pedanda, Pedongga, Kab. Pasangkayu, Sulawesi Barat 91571","Pedanda, Pedongga, Kab. Pasangkayu",SULAWESI BARAT,91571.0,Indonesia,,,,-1.259782,119.3539241,https://maps.google.com/?cid=0x0:0x2c6c9d89d4ab8c05,
komplek housing,Pembangunan Perumahan,Rumah nidaa,"P8PG+W95, Malei, Pedongga, Kab. Pasangkayu, Sulawesi Barat 91571","Malei, Pedongga, Kab. Pasangkayu",SULAWESI BARAT,91571.0,Indonesia,,,,-1.2627428,119.3259779,https://maps.google.com/?cid=0x0:0x33a5415f65546f2f,
komplek housing,Pembangunan Perumahan,KEPALA DUSUN KUSUMANEGARA,"P8VF+HJ, Malei, Pedongga, Kab. Pasangkayu, Sulawesi Barat","Kab. Pasangkayu, Sulawesi Barat",SULAWESI BARAT,,Indonesia,,,,-1.2560863,119.324139,https://maps.google.com/?cid=0x0:0x93e1ded1acfed370,
komplek housing,Pembangunan Perumahan,driver truck,"P8JG+5HV, Jl. Poros Palu - Mamuju, Malei, Pedongga, Kab. Pasangkayu, Sulawesi Barat 91571","Jl. Poros Palu - Mamuju, Malei, Pedongga, Kab. Pasangkayu",SULAWESI BARAT,91571.0,Indonesia,,,,-1.2697095,119.3269813,https://maps.google.com/?cid=0x0:0x1747cac418f6ac49,
komplek housing,Komplek perumahan,Afdeling Bravo 1 PT. Mamuang,"PCP7+82Q, Martasari, Pedongga, Kab. Pasangkayu, Sulawesi Barat 91571","Martasari, Pedongga, Kab. Pasangkayu",SULAWESI BARAT,91571.0,Indonesia,,,,-1.2641689,119.4125955,https://maps.google.com/?cid=0x0:0x33e19175591b08ef,
komplek housing,Komplek perumahan,AFD Alpha PT. Mamuang,"PCPX+3VW, Martasari, Pedongga, Kab. Pasangkayu, Sulawesi Barat 91571","Martasari, Pedongga, Kab. Pasangkayu",SULAWESI BARAT,91571.0,Indonesia,,,,-1.2647613,119.4496896,https://maps.google.com/?cid=0x0:0x150c00d65e9256b0,
komplek housing,Kantor Perusahaan,Perumahan afdeling hotel PT. Lestari Tani Teladan,"PF6J+H26, Rio Mukti, Pedongga, Kabupaten Donggala, Sulawesi Tengah","Kabupaten Donggala, Sulawesi Tengah",SULAWESI BARAT,,Indonesia,,,,-1.2885788,119.4800158,https://maps.google.com/?cid=0x0:0xf46ef7f0b931ba5a,
komplek housing,Komplek perumahan,Rumah Pak Yakub,"P8VF+2P5, Malei, Pedongga, Kab. Pasangkayu, Sulawesi Barat 91571","Malei, Pedongga, Kab. Pasangkayu",SULAWESI BARAT,91571.0,Indonesia,,,,-1.2574813,119.3246726,https://maps.google.com/?cid=0x0:0xa2b4b8c49446a017,
komplek housing,Komplek perumahan,Rumah Demmatande,"P9V2+4QP, Pedanda, Pedongga, Kab. Pasangkayu, Sulawesi Barat 91571","Pedanda, Pedongga, Kab. Pasangkayu",SULAWESI BARAT,91571.0,Indonesia,,,,-1.2571601,119.3519547,https://maps.google.com/?cid=0x0:0x7a5215632d6e6dd6,
komplek housing,Komplek perumahan,Rumah Syafa Naisyah,"P8RF+JJW, Malei, Pedongga, Kab. Pasangkayu, Sulawesi Barat 91571","Malei, Pedongga, Kab. Pasangkayu",SULAWESI BARAT,91571.0,Indonesia,,,,-1.258097,119.324241,https://maps.google.com/?cid=0x0:0xdcc19cc1c2dd303e,
komplek housing,Komplek perumahan,pak juli,"P9F8+JG6, Martasari, Pedongga, Kab. Pasangkayu, Sulawesi Barat 91571","Martasari, Pedongga, Kab. Pasangkayu",SULAWESI BARAT,91571.0,Indonesia,,,,-1.2752292,119.366323,https://maps.google.com/?cid=0x0:0xedbd931995e7a42a,
komplek housing,Komplek perumahan,KADEK ARNAWA,"P9F8+G22, Martasari, Pedongga, Kab. Pasangkayu, Sulawesi Barat 91571","Martasari, Pedongga, Kab. Pasangkayu",SULAWESI BARAT,91571.0,Indonesia,,,,-1.2765977,119.3652917,https://maps.google.com/?cid=0x0:0x345b185b63a0b082,
komplek housing,Komplek perumahan,Sarjo,"M97G+PC9, Tikke, Kec. Tikke Raya, Kab. Pasangkayu, Sulawesi Barat","Kab. Pasangkayu, Sulawesi Barat",SULAWESI BARAT,,Indonesia,,,,-1.3357243,119.3761217,https://maps.google.com/?cid=0x0:0xc31bb083b62e67ce,
komplek housing,Komplek perumahan,SAFRI,"M985+9XJ, Tikke, Kec. Tikke Raya, Kab. Pasangkayu, Sulawesi Barat","Kab. Pasangkayu, Sulawesi Barat",SULAWESI BARAT,,Indonesia,,,,-1.3340353,119.3598782,https://maps.google.com/?cid=0x0:0x10d188a19b4cb1e2,
komplek housing,komplek housing,Kec. Sarjo,"Kab. Pasangkayu, Sulawesi Barat","Kab. Pasangkayu, Sulawesi Barat",SULAWESI BARAT,,Indonesia,,,,-0.8720471,119.5555784,https://maps.google.com/?cid=0x0:0x2f2acb88545e4ee2,
komplek housing,komplek housing,taba poros,"2GM7+P4F, Jl. Poros Majene - Mamuju, Bambaira, Kec. Bambaira, Kab. Pasangkayu, Sulawesi Barat 91574","Jl. Poros Majene - Mamuju, Bambaira, Kec. Bambaira, Kab. Pasangkayu",SULAWESI BARAT,91574.0,Indonesia,,,,-0.965472,119.512663,https://maps.google.com/?cid=0x0:0x89b9b6aeaec2fa1,
komplek housing,Komplek perumahan,H AHMAD,"4GFX+495, Dusun Tangnga-Tangnga, Sarjo, Kec. Sarjo, Kab. Pasangkayu, Sulawesi Barat 91574","Dusun Tangnga-Tangnga, Sarjo, Kec. Sarjo, Kab. Pasangkayu",SULAWESI BARAT,91574.0,Indonesia,,,,-0.8772368,119.5484694,https://maps.google.com/?cid=0x0:0x7aa71345878a18ea,
komplek housing,Agen Persewaan Rumah Peristirahatan,Rumah Boss Koes,"4GCW+23P, Sarjo, Kec. Sarjo, Kab. Pasangkayu, Sulawesi Barat 91574","Sarjo, Kec. Sarjo, Kab. Pasangkayu",SULAWESI BARAT,91574.0,Indonesia,,,,-0.8799082,119.5451996,https://maps.google.com/?cid=0x0:0xc252147d4aab4e06,
komplek housing,Perhimpunan Pengembang Perumahan,Rumah Rusman,"4HF2+R3P, Sarjo, Kec. Sarjo, Kab. Pasangkayu, Sulawesi Barat 91574","Sarjo, Kec. Sarjo, Kab. Pasangkayu",SULAWESI BARAT,91574.0,Indonesia,,,,-0.8755167,119.5502357,https://maps.google.com/?cid=0x0:0x1d6fd01b34f2165b,
komplek housing,Perhimpunan Pengembang Perumahan,Salwah Samil,"4HF2+R3P, Sarjo, Kec. Sarjo, Kab. Pasangkayu, Sulawesi Barat 91574","Sarjo, Kec. Sarjo, Kab. Pasangkayu",SULAWESI BARAT,91574.0,Indonesia,,,,-0.8753119,119.5502555,https://maps.google.com/?cid=0x0:0x3fc11fc371ecc54b,
komplek housing,Masjid,IMAM MASJID AL-AMIN URUBANUA,"4G9X+97C, Jl. Trans Sulawesi, Sarjo, Kec. Sarjo, Kab. Pasangkayu, Sulawesi Barat 91574","Jl. Trans Sulawesi, Sarjo, Kec. Sarjo, Kab. Pasangkayu",SULAWESI BARAT,91574.0,Indonesia,,,,-0.8815777,119.5480881,https://maps.google.com/?cid=0x0:0x24d3a917c5e2049b,
komplek housing,Komplek perumahan,jl aselih no 39A,"Jl. Aselih No.39a, RT.9/RW.1, Cipedak, Kec. Jagakarsa, Kota Jakarta Selatan, Daerah Khusus Ibukota Jakarta 12630","RT.9/RW.1, Cipedak, Kec. Jagakarsa, Kota Jakarta Selatan",SULAWESI BARAT,12630.0,Indonesia,81384496080.0,,,-6.3511054,106.7972432,https://maps.google.com/?cid=0x0:0xfa71365d8dad5294,
komplek housing,Komplek perumahan,Perum,"J3W4+XHP, Cibening, Kec. Setu, Kabupaten Bekasi, Jawa Barat 17320","Cibening, Kec. Setu, Kabupaten Bekasi",SULAWESI BARAT,17320.0,Indonesia,,,,-6.3525589,107.056555,https://maps.google.com/?cid=0x0:0x2b58ff3cd3541699,
komplek housing,Kantor Perusahaan,ERA Indonesia,"TCC Batavia Tower One, 8th, Jl. K.H. Mas Mansyur No.126 Floor, Suite 3-5, Karet Tengsin, Kecamatan Tanah Abang, Kota Jakarta Pusat, Daerah Khusus Ibukota Jakarta 10220","8th, Jl. K.H. Mas Mansyur No.126 Floor, Suite 3-5, Karet Tengsin, Kecamatan Tanah Abang, Kota Jakarta Pusat",SULAWESI BARAT,10220.0,Indonesia,2129675123.0,,,-6.2110536,106.8158558,https://maps.google.com/?cid=0x0:0xe86f1174c24dbf07,
komplek housing,komplek housing,Komplek Housing,"Blok Bojong Nangka I, Jl. Ring Rudal Blok Bojong Nangka I No.68, RT.001/RW.007, Jatirahayu, Kec. Pd. Melati, Kota Bks, Jawa Barat 17414","Jl. Ring Rudal Blok Bojong Nangka I No.68, RT.001/RW.007, Jatirahayu, Kec. Pd. Melati, Kota Bks",SULAWESI BARAT,17414.0,Indonesia,,,,-6.293724,106.9165114,https://maps.google.com/?cid=0x0:0x9c50464976dee674,
komplek housing,Komplek perumahan,Rumah pak stevanus suri moi,"888P+X7M, Bulu Mario, Kec. Sarudu, Kab. Pasangkayu, Sulawesi Barat 91573","Bulu Mario, Kec. Sarudu, Kab. Pasangkayu",SULAWESI BARAT,91573.0,Indonesia,,,,-1.6823476,119.3362062,https://maps.google.com/?cid=0x0:0xcca6550f56cb7866,
komplek housing,Komplek perumahan,Wafa,"78M9+28J, Sarudu, Kec. Sarudu, Kab. Pasangkayu, Sulawesi Barat 91573","Sarudu, Kec. Sarudu, Kab. Pasangkayu",SULAWESI BARAT,91573.0,Indonesia,,,,-1.7175708,119.3181207,https://maps.google.com/?cid=0x0:0xc578713999f06989,
komplek housing,Komplek perumahan,Rumah Syaefurohman,"886V+393 sebelah kiri mushollah Al Anshor, Dusun Tri Tunggal, Lrg 2 Timur Jl. Merpati, Bulu Mario, Kec. Sarudu, Kab. Pasangkayu, Sulawesi Barat 91573","Dusun Tri Tunggal, Lrg 2 Timur Jl. Merpati, Bulu Mario, Kec. Sarudu, Kab. Pasangkayu",SULAWESI BARAT,91573.0,Indonesia,,,,-1.6898504,119.343435,https://maps.google.com/?cid=0x0:0x2ac0ee200d7466a4,
komplek housing,Komplek perumahan,Rumah Pondeng,"78R3+R68, Sarudu, Kec. Sarudu, Kab. Pasangkayu, Sulawesi Barat 91573","Sarudu, Kec. Sarudu, Kab. Pasangkayu",SULAWESI BARAT,91573.0,Indonesia,,,,-1.7079659,119.3030778,https://maps.google.com/?cid=0x0:0x7b60a5cf2719fea4,
komplek housing,Komplek perumahan,Lorong SD nunu,"873W+C5M, Dusun sempo, Sarudu, Kec. Sarudu, Kab. Pasangkayu, Sulawesi Barat 91573","Dusun sempo, Sarudu, Kec. Sarudu, Kab. Pasangkayu",SULAWESI BARAT,91573.0,Indonesia,,,,-1.6964987,119.2951563,https://maps.google.com/?cid=0x0:0xeb5bd8ed2ef6136f,
komplek housing,Komplek perumahan,Rumah fiq,"78QP+HX4, Kumasari, Kec. Sarudu, Kab. Pasangkayu, Sulawesi Barat 91573","Kumasari, Kec. Sarudu, Kab. Pasangkayu",SULAWESI BARAT,91573.0,Indonesia,,,,-1.711112,119.3374651,https://maps.google.com/?cid=0x0:0xff5a57529604bd66,
komplek housing,Komplek perumahan,H. Ampa House,"78GC+M2W, Dusun Tanamoni, Sarudu, Kec. Sarudu, Kab. Pasangkayu, Sulawesi Barat 91573","Dusun Tanamoni, Sarudu, Kec. Sarudu, Kab. Pasangkayu",SULAWESI BARAT,91573.0,Indonesia,,,,-1.723269,119.3200857,https://maps.google.com/?cid=0x0:0x84858ddbcf78242d,
komplek housing,Komplek perumahan,Lukas Naku,"78WW+PWR, Kumasari, Kec. Sarudu, Kab. Pasangkayu, Sulawesi Barat 91573","Kumasari, Kec. Sarudu, Kab. Pasangkayu",SULAWESI BARAT,91573.0,Indonesia,,,,-1.702738,119.346535,https://maps.google.com/?cid=0x0:0xe4e110eae7b17b00,
komplek housing,Kios,KIOS TANI SEJAHTERA,"873V+3W7, Sarudu, Kec. Sarudu, Kab. Pasangkayu, Sulawesi Barat 91573","Sarudu, Kec. Sarudu, Kab. Pasangkayu",SULAWESI BARAT,91573.0,Indonesia,,,,-1.6973427,119.2947894,https://maps.google.com/?cid=0x0:0xebd58aeee4cf809e,
komplek housing,Perhimpunan Pengembang Perumahan,RUMAHNYA SULTAN S.SOS,"877R+QG8, Sarudu, Kec. Sarudu, Kab. Pasangkayu, Sulawesi Barat 91573","Sarudu, Kec. Sarudu, Kab. Pasangkayu",SULAWESI BARAT,91573.0,Indonesia,822918950377.0,,,-1.6855926,119.291314,https://maps.google.com/?cid=0x0:0x1c3d40b658c908d3,
komplek housing,Komplek perumahan,Rumah risha,"78PM+VRW, Kumasari, Kec. Sarudu, Kab. Pasangkayu, Sulawesi Barat 91573","Kumasari, Kec. Sarudu, Kab. Pasangkayu",SULAWESI BARAT,91573.0,Indonesia,,,,-1.7125441,119.3340248,https://maps.google.com/?cid=0x0:0x22ebe85bdfdb6a9f,
komplek housing,Komplek perumahan,Rumah ku,"888V+6X8, Bulu Mario, Kec. Sarudu, Kab. Pasangkayu, Sulawesi Barat 91573","Bulu Mario, Kec. Sarudu, Kab. Pasangkayu",SULAWESI BARAT,91573.0,Indonesia,,,,-1.6844588,119.3449558,https://maps.google.com/?cid=0x0:0x67af699a67484555,
komplek housing,Komplek perumahan,Rumah nya jinul,"887Q+CV6, Jl. Belimbing, Bulu Mario, Kec. Sarudu, Kab. Pasangkayu, Sulawesi Barat 91573","Jl. Belimbing, Bulu Mario, Kec. Sarudu, Kab. Pasangkayu",SULAWESI BARAT,91573.0,Indonesia,,,,-1.6864562,119.3396265,https://maps.google.com/?cid=0x0:0x236d9d190aa0a886,
komplek housing,Komplek perumahan,Rumah bokcu,"78XV+8MF, Kumasari, Kec. Sarudu, Kab. Pasangkayu, Sulawesi Barat 91573","Kumasari, Kec. Sarudu, Kab. Pasangkayu",SULAWESI BARAT,91573.0,Indonesia,,,,-1.7016915,119.3441807,https://maps.google.com/?cid=0x0:0x8f25bc392a1792c6,
komplek housing,Komplek perumahan,huailiningsih,"887W+X54, Bulu Mario, Kec. Sarudu, Kab. Pasangkayu, Sulawesi Barat 91573","Bulu Mario, Kec. Sarudu, Kab. Pasangkayu",SULAWESI BARAT,91573.0,Indonesia,,,,-1.6851193,119.3454451,https://maps.google.com/?cid=0x0:0x4daea1776c1051c3,
komplek housing,Komplek perumahan,Rumah ff,"78RM+WQ5, Kumasari, Kec. Sarudu, Kab. Pasangkayu, Sulawesi Barat 91573","Kumasari, Kec. Sarudu, Kab. Pasangkayu",SULAWESI BARAT,91573.0,Indonesia,,,,-1.7077446,119.3344978,https://maps.google.com/?cid=0x0:0x2515341f52664b35,
komplek housing,Komplek perumahan,Rumah pak dusun sempo utara,"872W+GJW, Sarudu, Kec. Sarudu, Kab. Pasangkayu, Sulawesi Barat 91573","Sarudu, Kec. Sarudu, Kab. Pasangkayu",SULAWESI BARAT,91573.0,Indonesia,,,,-1.6983265,119.2968776,https://maps.google.com/?cid=0x0:0xd44ec7b06212b005,
komplek housing,Komplek perumahan,Pak awan/Mama adit,"887W+666, Bulu Mario, Kec. Sarudu, Kab. Pasangkayu, Sulawesi Barat 91573","Bulu Mario, Kec. Sarudu, Kab. Pasangkayu",SULAWESI BARAT,91573.0,Indonesia,,,,-1.6864693,119.3450641,https://maps.google.com/?cid=0x0:0x616afb1ebe320608,
komplek housing,komplek housing,Kios Triple R ABRAIN,"889R+5FR, Kompleks pasar SP1, Bulu Mario, Kec. Sarudu, Kab. Pasangkayu, Sulawesi Barat 91573","Kompleks pasar SP1, Bulu Mario, Kec. Sarudu, Kab. Pasangkayu",SULAWESI BARAT,91573.0,Indonesia,,,,-1.6820101,119.3411343,https://maps.google.com/?cid=0x0:0xb582e5bb34566847,
komplek housing,komplek housing,Sarudu,"Kec. Sarudu, Kab. Pasangkayu, Sulawesi Barat","Kab. Pasangkayu, Sulawesi Barat",SULAWESI BARAT,,Indonesia,,,,-1.6954473,119.3076098,https://maps.google.com/?cid=0x0:0x4d23a34e4d81dc54,
komplek housing,Komplek perumahan,Simpan tiga tana Moni...,"78J8+3H4, Sarudu, Kec. Sarudu, Kab. Pasangkayu, Sulawesi Barat 91573","Sarudu, Kec. Sarudu, Kab. Pasangkayu",SULAWESI BARAT,91573.0,Indonesia,,,,-1.7198574,119.3164385,https://maps.google.com/?cid=0x0:0x5d44014c1c0beddf,
komplek housing,Pembangunan Perumahan,Ahmad Kholil,"886R+2HV, Jl. Rambutan, Bulu Mario, Kec. Sarudu, Kab. Pasangkayu, Sulawesi Barat 91573","Jl. Rambutan, Bulu Mario, Kec. Sarudu, Kab. Pasangkayu",SULAWESI BARAT,91573.0,Indonesia,,,,-1.6899186,119.3414226,https://maps.google.com/?cid=0x0:0x5af8c43618a5f7a4,
komplek housing,komplek housing,sinin house,"78PM+WVQ, Kumasari, Kec. Sarudu, Kab. Pasangkayu, Sulawesi Barat 91573","Kumasari, Kec. Sarudu, Kab. Pasangkayu",SULAWESI BARAT,91573.0,Indonesia,,,,-1.7126625,119.3347344,https://maps.google.com/?cid=0x0:0x472851f86e219b38,
komplek housing,Komplek perumahan,Rumah Pak Khamid,"78PP+2MC, Kumasari, Kec. Sarudu, Kab. Pasangkayu, Sulawesi Barat 91573","Kumasari, Kec. Sarudu, Kab. Pasangkayu",SULAWESI BARAT,91573.0,Indonesia,,,,-1.7148852,119.3365672,https://maps.google.com/?cid=0x0:0xc6820e06f04ba2c4,
komplek housing,komplek housing,Sulawesi Barat 91571,"Kab. Pasangkayu, Sulawesi Barat","Kab. Pasangkayu, Sulawesi Barat",SULAWESI BARAT,,Indonesia,,,,-1.2916992,119.3714909,https://maps.google.com/?cid=0x0:0x12640eefba628a12,
komplek housing,Komplek perumahan,Rumah Obetnego,"M982+MW, Tikke, Kec. Tikke Raya, Kab. Pasangkayu, Sulawesi Barat 91571","Tikke, Kec. Tikke Raya, Kab. Pasangkayu",SULAWESI BARAT,91571.0,Indonesia,,,,-1.3329793,119.3521726,https://maps.google.com/?cid=0x0:0xd96d33c704ed2163,
komplek housing,Komplek perumahan,Aisyah House,"Jengeng Raya, Kec. Tikke Raya, Kab. Pasangkayu, Sulawesi Barat 91571","Kec. Tikke Raya, Kab. Pasangkayu",SULAWESI BARAT,91571.0,Indonesia,,,,-1.343567,119.3713462,https://maps.google.com/?cid=0x0:0x708acafa1d982855,
komplek housing,Komplek perumahan,Kost Dhini-Dhiqa,"R998+RQ, Pasangkayu, Kec. Pasangkayu, Kab. Pasangkayu, Sulawesi Barat 91574","Pasangkayu, Kec. Pasangkayu, Kab. Pasangkayu",SULAWESI BARAT,91574.0,Indonesia,,,,-1.1805799,119.3668413,https://maps.google.com/?cid=0x0:0x885d2b11ba85fc60,
komplek housing,Komplek perumahan,Nung Home,"MC52+V9, Makmur Jaya, Kec. Tikke Raya, Kab. Pasangkayu, Sulawesi Barat","Kab. Pasangkayu, Sulawesi Barat",SULAWESI BARAT,,Indonesia,,,,-1.3403298,119.4009104,https://maps.google.com/?cid=0x0:0x4b76137259c8806f,
komplek housing,Perumahan,Rumah Muhammad Sauki,"M9C7+Q86, Tikke, Kec. Tikke Raya, Kab. Pasangkayu, Sulawesi Barat 91571","Tikke, Kec. Tikke Raya, Kab. Pasangkayu",SULAWESI BARAT,91571.0,Indonesia,,,,-1.328099,119.3632502,https://maps.google.com/?cid=0x0:0x52163aa3afd55a29,
komplek housing,Komplek perumahan,Madeceng Town House,"MCCJ+824, Makmur Jaya, Kec. Tikke Raya, Kab. Pasangkayu, Sulawesi Barat","Kab. Pasangkayu, Sulawesi Barat",SULAWESI BARAT,,Indonesia,,,,-1.3292476,119.4300633,https://maps.google.com/?cid=0x0:0xdcaa43fefaf9c007,
komplek housing,Pusat Perbelanjaan,Irma,"H993+GX2, Lariang, Kec. Tikke Raya, Kab. Pasangkayu, Sulawesi Barat 91571","Lariang, Kec. Tikke Raya, Kab. Pasangkayu",SULAWESI BARAT,91571.0,Indonesia,,,,-1.4315817,119.3536395,https://maps.google.com/?cid=0x0:0xe571ad3f41e22e96,
komplek housing,Kantor SIM,tikke raya,"M97G+PC5, Tikke, Kec. Tikke Raya, Kab. Pasangkayu, Sulawesi Barat","Kab. Pasangkayu, Sulawesi Barat",SULAWESI BARAT,,Indonesia,,,,-1.3357332,119.3761201,https://maps.google.com/?cid=0x0:0x92620c53e6dba53a,
komplek housing,Rumah Kayu,Rumah H Hammatang,"JCXC+C4Q, Makmur Jaya, Kec. Tikke Raya, Kab. Pasangkayu, Sulawesi Barat","Kab. Pasangkayu, Sulawesi Barat",SULAWESI BARAT,,Indonesia,,,,-1.3518883,119.4189365,https://maps.google.com/?cid=0x0:0x4d3cd683fea295da,
komplek housing,komplek housing,Rumah anto,"MCFM+3CX, Makmur Jaya, Kec. Tikke Raya, Kab. Pasangkayu, Sulawesi Barat","Kab. Pasangkayu, Sulawesi Barat",SULAWESI BARAT,,Indonesia,,,,-1.3272619,119.4336216,https://maps.google.com/?cid=0x0:0x9b2a45016ae52dce,
komplek housing,Komplek perumahan,Rumah RUSTAM HUSEIN,"M9C7+H5V, Tikke, Kec. Tikke Raya, Kab. Pasangkayu, Sulawesi Barat 91571","Tikke, Kec. Tikke Raya, Kab. Pasangkayu",SULAWESI BARAT,91571.0,Indonesia,,,,-1.328665,119.36254,https://maps.google.com/?cid=0x0:0xb2114fdfef8d6c1b,
komplek housing,Pembangunan Perumahan,Kebun,"M97G+PC9, Tikke, Kec. Tikke Raya, Kab. Pasangkayu, Sulawesi Barat","Kab. Pasangkayu, Sulawesi Barat",SULAWESI BARAT,,Indonesia,,,,-1.3357243,119.3761217,https://maps.google.com/?cid=0x0:0xb59369f556315b9c,
komplek housing,Komplek perumahan,Rahmatullah,"MC9F+MW4, Makmur Jaya, Kec. Tikke Raya, Kab. Pasangkayu, Sulawesi Barat","Kab. Pasangkayu, Sulawesi Barat",SULAWESI BARAT,,Indonesia,,,,-1.3308518,119.4248169,https://maps.google.com/?cid=0x0:0x2df9a75fc986988e,
komplek housing,Komplek perumahan,Faiz's house,"P9P2+J9Q, Pedanda, Pedongga, Kab. Pasangkayu, Sulawesi Barat 91571","Pedanda, Pedongga, Kab. Pasangkayu",SULAWESI BARAT,91571.0,Indonesia,,,,-1.2634227,119.3509974,https://maps.google.com/?cid=0x0:0xb774933763738abb,
komplek housing,Komplek perumahan,Sarjo,"M97G+PC9, Tikke, Kec. Tikke Raya, Kab. Pasangkayu, Sulawesi Barat","Kab. Pasangkayu, Sulawesi Barat",SULAWESI BARAT,,Indonesia,,,,-1.3357243,119.3761217,https://maps.google.com/?cid=0x0:0xc31bb083b62e67ce,
komplek housing,Komplek perumahan,Anci home,"H9F4+362, Lariang, Kec. Tikke Raya, Kab. Pasangkayu, Sulawesi Barat","Kab. Pasangkayu, Sulawesi Barat",SULAWESI BARAT,,Indonesia,,,,-1.4273602,119.3555046,https://maps.google.com/?cid=0x0:0x2d9851b2dfda350c,
komplek housing,komplek housing,Agus Ayu,"R9C4+55X, Pasangkayu, Kec. Pasangkayu, Kab. Pasangkayu, Sulawesi Barat 91571","Pasangkayu, Kec. Pasangkayu, Kab. Pasangkayu",SULAWESI BARAT,91571.0,Indonesia,,,,-1.179939,119.3547201,https://maps.google.com/?cid=0x0:0x8b2f56542a529c43,
komplek housing,komplek housing,Rumah Manda,"J9W5+JR8, Jengeng Raya, Kec. Tikke Raya, Kab. Pasangkayu, Sulawesi Barat 91571","Jengeng Raya, Kec. Tikke Raya, Kab. Pasangkayu",SULAWESI BARAT,91571.0,Indonesia,,,,-1.3527882,119.3605666,https://maps.google.com/?cid=0x0:0x844d8bcd84e62030,
komplek housing,Komplek perumahan,Hana house,"M94C+HG2, Dusun salubalo, Jengeng Raya, Kec. Tikke Raya, Kab. Pasangkayu, Sulawesi Barat 91571","Dusun salubalo, Jengeng Raya, Kec. Tikke Raya, Kab. Pasangkayu",SULAWESI BARAT,91571.0,Indonesia,,,,-1.3436221,119.3712744,https://maps.google.com/?cid=0x0:0x2d6880c9312a857d,
komplek housing,komplek housing,Kec. Tikke Raya,"Kab. Pasangkayu, Sulawesi Barat","Kab. Pasangkayu, Sulawesi Barat",SULAWESI BARAT,,Indonesia,,,,-1.335652,119.3760766,https://maps.google.com/?cid=0x0:0xbde993291243d44d,
komplek housing,Komplek perumahan,Drh Yogi,"HC7C+5MQ, Sumber Sari, Kec. Bulu Taba, Kab. Pasangkayu, Sulawesi Barat 91571","Sumber Sari, Kec. Bulu Taba, Kab. Pasangkayu",SULAWESI BARAT,91571.0,Indonesia,,,,-1.4368985,119.4213592,https://maps.google.com/?cid=0x0:0x580fb8bd9306d02f,
komplek housing,Komplek perumahan,Rumah Keluarga Bpk Paulus J,"H9C4+629, Lariang, Kec. Tikke Raya, Mamuju, Sulawesi Barat 91571","Lariang, Kec. Tikke Raya, Mamuju",SULAWESI BARAT,91571.0,Indonesia,,,,-1.429401,119.3551644,https://maps.google.com/?cid=0x0:0xd0687a9854e006b7,
komplek housing,Komplek perumahan,Rumah Aldi Paji,"H9C4+629, Lariang, Kec. Tikke Raya, Mamuju, Sulawesi Barat 91571","Lariang, Kec. Tikke Raya, Mamuju",SULAWESI BARAT,91571.0,Indonesia,,,,-1.429401,119.3551644,https://maps.google.com/?cid=0x0:0x3257bc76244ba3ed,
komplek housing,Otoritas Perumahan,Letawa,"M985+9XJ, Tikke, Kec. Tikke Raya, Kab. Pasangkayu, Sulawesi Barat 91571","Tikke, Kec. Tikke Raya, Kab. Pasangkayu",SULAWESI BARAT,91571.0,Indonesia,,,,-1.3340353,119.3598782,https://maps.google.com/?cid=0x0:0xaafb01dca869f701,
komplek housing,Komplek perumahan,Rumahnya Zayyan,"M929+CQF, Jengeng Raya, Kec. Tikke Raya, Kab. Pasangkayu, Sulawesi Barat 91571","Jengeng Raya, Kec. Tikke Raya, Kab. Pasangkayu",SULAWESI BARAT,91571.0,Indonesia,,,,-1.3491505,119.3690779,https://maps.google.com/?cid=0x0:0xd458c3158c0e51a2,
komplek housing,Otoritas Perumahan,Perumahan pabrik,"MC8F+247, Makmur Jaya, Kec. Tikke Raya, Kab. Pasangkayu, Sulawesi Barat 91571","Makmur Jaya, Kec. Tikke Raya, Kab. Pasangkayu",SULAWESI BARAT,91571.0,Indonesia,,,,-1.3352561,119.4227332,https://maps.google.com/?cid=0x0:0xeed2f1e83b6081f2,
komplek housing,Komplek perumahan,rumah salwaa,"MC5C+VQ8, Makmur Jaya, Kec. Tikke Raya, Kab. Pasangkayu, Sulawesi Barat 91571","Makmur Jaya, Kec. Tikke Raya, Kab. Pasangkayu",SULAWESI BARAT,91571.0,Indonesia,,,,-1.3403375,119.4219531,https://maps.google.com/?cid=0x0:0x5648043f5889114f,
komplek housing,Komplek perumahan,Ahmad Syarif,"MC9G+5FV PT.Letawa, Perumahan Pabrik, Makmur Jaya, Kec. Tikke Raya, Kab. Pasangkayu, Sulawesi Barat 91571","Perumahan Pabrik, Makmur Jaya, Kec. Tikke Raya, Kab. Pasangkayu",SULAWESI BARAT,91571.0,Indonesia,,,,-1.3320149,119.4261768,https://maps.google.com/?cid=0x0:0x9be93c5e52844196,
perumahan,perumahan,Kec. Bambaira,"Kab. Pasangkayu, Sulawesi Barat","Kab. Pasangkayu, Sulawesi Barat",SULAWESI BARAT,,Indonesia,,,,-0.958853,119.5166622,https://maps.google.com/?cid=0x0:0xeedc4f3ae03e32b1,
perumahan,perumahan,Sulawesi Barat 91574,"Kab. Pasangkayu, Sulawesi Barat","Kab. Pasangkayu, Sulawesi Barat",SULAWESI BARAT,,Indonesia,,,,-1.1559774,119.464359,https://maps.google.com/?cid=0x0:0x87450841cbc25162,
perumahan,perumahan,taba poros,"2GM7+P4F, Jl. Poros Majene - Mamuju, Bambaira, Kec. Bambaira, Kab. Pasangkayu, Sulawesi Barat 91574","Jl. Poros Majene - Mamuju, Bambaira, Kec. Bambaira, Kab. Pasangkayu",SULAWESI BARAT,91574.0,Indonesia,,,,-0.965472,119.512663,https://maps.google.com/?cid=0x0:0x89b9b6aeaec2fa1,
perumahan,Komplek perumahan,Rumah iskandar,"2G63+J2V, Bambaira, Kec. Bambaira, Kab. Pasangkayu, Sulawesi Barat 91574","Bambaira, Kec. Bambaira, Kab. Pasangkayu",SULAWESI BARAT,91574.0,Indonesia,,,,-0.9878901,119.5031666,https://maps.google.com/?cid=0x0:0x49bc31395b27ea0,
perumahan,Komplek perumahan,Rumah Tahir,"XFGR+HJ, Kasoloang, Kec. Bambaira, Kab. Pasangkayu, Sulawesi Barat","Kab. Pasangkayu, Sulawesi Barat",SULAWESI BARAT,,Indonesia,,,,-1.0235369,119.4915409,https://maps.google.com/?cid=0x0:0x72082bdcfd367ae6,
perumahan,Komplek perumahan,Rumah sicantik,"2GF3+52M, Bambaira, Kec. Bambaira, Kab. Pasangkayu, Sulawesi Barat 91574","Bambaira, Kec. Bambaira, Kab. Pasangkayu",SULAWESI BARAT,91574.0,Indonesia,,,,-0.9770375,119.5025469,https://maps.google.com/?cid=0x0:0x66757727cc65b4f7,
perumahan,Komplek perumahan,Rumah Aad Alfatih,"2G92+5C6, Dusun Sibala, Bambaira, Kec. Bambaira, Kab. Pasangkayu, Sulawesi Barat 91574","Dusun Sibala, Bambaira, Kec. Bambaira, Kab. Pasangkayu",SULAWESI BARAT,91574.0,Indonesia,,,,-0.982881,119.501073,https://maps.google.com/?cid=0x0:0x8cf8586984198ce5,
perumahan,Komplek perumahan,Rumah Aslan,"2GXC+2W, Tampaure, Kec. Bambaira, Kab. Pasangkayu, Sulawesi Barat","Kab. Pasangkayu, Sulawesi Barat",SULAWESI BARAT,,Indonesia,,,,-0.9524292,119.5223542,https://maps.google.com/?cid=0x0:0x7712333ce9f50292,
perumahan,Pusat Kesehatan Masyarakat,PKM Bambaira,"2GH5+XQ7, Jl. Poros Majene - Mamuju, Bambaira, Kec. Bambaira, Kab. Pasangkayu, Sulawesi Barat 91574","Jl. Poros Majene - Mamuju, Bambaira, Kec. Bambaira, Kab. Pasangkayu",SULAWESI BARAT,91574.0,Indonesia,,,,-0.9700958,119.5094187,https://maps.google.com/?cid=0x0:0xce1953a004bc348e,
perumahan,Komplek perumahan,Rumah Liana,"XGP4+PM8, Kasoloang, Kec. Bambaira, Kab. Pasangkayu, Sulawesi Barat 91574","Kasoloang, Kec. Bambaira, Kab. Pasangkayu",SULAWESI BARAT,91574.0,Indonesia,,,,-1.0132167,119.5067133,https://maps.google.com/?cid=0x0:0x820fa05242be4f87,
perumahan,Pembangunan Perumahan,Rumah Namruddin,"2GR9+G23, Tampaure, Kec. Bambaira, Kab. Pasangkayu, Sulawesi Barat 91574","Tampaure, Kec. Bambaira, Kab. Pasangkayu",SULAWESI BARAT,91574.0,Indonesia,,,,-0.9587374,119.5175335,https://maps.google.com/?cid=0x0:0xeeca1ddb37bde983,
perumahan,Komplek perumahan,Rumah safitry,"XGQ4+M3R, Kasoloang, Kec. Bambaira, Kab. Pasangkayu, Sulawesi Barat 91574","Kasoloang, Kec. Bambaira, Kab. Pasangkayu",SULAWESI BARAT,91574.0,Indonesia,,,,-1.0107706,119.5051293,https://maps.google.com/?cid=0x0:0x13d12f756ae1640,
perumahan,Komplek perumahan,Rumah Randi muliadi,"XFMV+962, Kasoloang, Kec. Bambaira, Kab. Pasangkayu, Sulawesi Barat 91574","Kasoloang, Kec. Bambaira, Kab. Pasangkayu",SULAWESI BARAT,91574.0,Indonesia,,,,-1.0166014,119.4930198,https://maps.google.com/?cid=0x0:0x50da8af4e043ac67,
perumahan,Komplek perumahan,Rumah Kost Barra,"XFGP+43Q, Jl. Poros Lalundu, Kasoloang, Kec. Bambaira, Kab. Pasangkayu, Sulawesi Barat 91571","Jl. Poros Lalundu, Kasoloang, Kec. Bambaira, Kab. Pasangkayu",SULAWESI BARAT,91571.0,Indonesia,,,,-1.0250118,119.4849229,https://maps.google.com/?cid=0x0:0x1ab2b4d3f9054085,
perumahan,Komplek perumahan,Rumah Sapri Rinda,"XGQ4+M3R, Kasoloang, Kec. Bambaira, Kab. Pasangkayu, Sulawesi Barat 91574","Kasoloang, Kec. Bambaira, Kab. Pasangkayu",SULAWESI BARAT,91574.0,Indonesia,,,,-1.0107609,119.5051741,https://maps.google.com/?cid=0x0:0x88aaa7e504062e18,
perumahan,Komplek perumahan,Rumah Sultan,"XFHP+7G4, Kasoloang, Kec. Bambaira, Kab. Pasangkayu, Sulawesi Barat 91574","Kasoloang, Kec. Bambaira, Kab. Pasangkayu",SULAWESI BARAT,91574.0,Indonesia,,,,-1.0218747,119.4863345,https://maps.google.com/?cid=0x0:0xc6e614447e375a50,
perumahan,Komplek perumahan,Rumah Pak Tannang Tutu,"2G2C+7XX, Kaluku Nangka, Kec. Bambaira, Kab. Pasangkayu, Sulawesi Barat 91574","Kaluku Nangka, Kec. Bambaira, Kab. Pasangkayu",SULAWESI BARAT,91574.0,Indonesia,,,,-0.999272,119.5224866,https://maps.google.com/?cid=0x0:0x4f35a4545d2dd76d,
perumahan,Komplek perumahan,Kepala Dusun,"XFMV+GC, Kasoloang, Kec. Bambaira, Kab. Pasangkayu, Sulawesi Barat","Kab. Pasangkayu, Sulawesi Barat",SULAWESI BARAT,,Indonesia,,,,-1.0162112,119.4936364,https://maps.google.com/?cid=0x0:0xb20b5f035b6c4b1d,
perumahan,Paviliun Pantai,Taba Pantai,"2GR8+FJ8, Bambaira, Kec. Bambaira, Kab. Pasangkayu, Sulawesi Barat","Kab. Pasangkayu, Sulawesi Barat",SULAWESI BARAT,,Indonesia,,,,-0.9588392,119.5165754,https://maps.google.com/?cid=0x0:0x3567560e1b7a1fd8,
perumahan,Perhimpunan Pengembang Perumahan,ujung baru,"J8C2+WRG, ujung baru, Kec. Bambaira, Kab. Pasangkayu, Sulawesi Barat 91352","ujung baru, Kec. Bambaira, Kab. Pasangkayu",SULAWESI BARAT,91352.0,Indonesia,,,,-0.9588391,119.5165754,https://maps.google.com/?cid=0x0:0x7a5ae6631d653a4f,
perumahan,Pembangunan Perumahan,Dusun. Torenda,"XFVV+4H2, Kasoloang, Kec. Bambaira, Kab. Pasangkayu, Sulawesi Barat 91574","Kasoloang, Kec. Bambaira, Kab. Pasangkayu",SULAWESI BARAT,91574.0,Indonesia,,,,-1.0072272,119.4939058,https://maps.google.com/?cid=0x0:0xd9f1500bf89a93c2,
perumahan,perumahan,Bambalamotu,"Kec. Bambalamotu, Kab. Pasangkayu, Sulawesi Barat","Kab. Pasangkayu, Sulawesi Barat",SULAWESI BARAT,,Indonesia,,,,-1.0952071,119.4614578,https://maps.google.com/?cid=0x0:0x2e0275783eb46598,
perumahan,Pembangunan Perumahan,Lorong SMA Bambalamotu,"WF45+3R7, Bambalamotu, Kec. Bambalamotu, Kab. Pasangkayu, Sulawesi Barat","Kab. Pasangkayu, Sulawesi Barat",SULAWESI BARAT,,Indonesia,,,,-1.0948339,119.4595364,https://maps.google.com/?cid=0x0:0xd8d63d202ace3126,
perumahan,Komplek perumahan,Bambalamotu,"WF94+6C7, Bambalamotu, Kec. Bambalamotu, Kab. Pasangkayu, Sulawesi Barat 91574","Bambalamotu, Kec. Bambalamotu, Kab. Pasangkayu",SULAWESI BARAT,91574.0,Indonesia,,,,-1.0819673,119.4560576,https://maps.google.com/?cid=0x0:0x18b86db0a49596e3,
perumahan,perumahan,Rumah Ina,"WF4F+JG, Kalola, Kec. Bambalamotu, Kab. Pasangkayu, Sulawesi Barat","Kab. Pasangkayu, Sulawesi Barat",SULAWESI BARAT,,Indonesia,,,,-1.093421,119.4738749,https://maps.google.com/?cid=0x0:0x60498d2e0d3b9e93,
perumahan,perumahan,Rumah SANTI,"WF77+WXM, Kalola, Kec. Bambalamotu, Kab. Pasangkayu, Sulawesi Barat 91574","Kalola, Kec. Bambalamotu, Kab. Pasangkayu",SULAWESI BARAT,91574.0,Indonesia,,,,-1.0851872,119.4648917,https://maps.google.com/?cid=0x0:0x1f72eeb062407558,
perumahan,Komplek perumahan,RUMAH AYANGG,"WF96+36W, Bambalamotu, Kec. Bambalamotu, Kab. Pasangkayu, Sulawesi Barat","Kab. Pasangkayu, Sulawesi Barat",SULAWESI BARAT,,Indonesia,,,,-1.0822603,119.4605828,https://maps.google.com/?cid=0x0:0x526411e227c3a87e,
perumahan,Pembangunan Perumahan,Rumah Sahrul,"WF84+928, Bambalamotu, Kec. Bambalamotu, Kab. Pasangkayu, Sulawesi Barat 91574","Bambalamotu, Kec. Bambalamotu, Kab. Pasangkayu",SULAWESI BARAT,91574.0,Indonesia,,,,-1.0845015,119.45514,https://maps.google.com/?cid=0x0:0xd58ed50f85c192cb,
perumahan,Komplek perumahan,Rumah saya,"VFQ6+JV4 Sawi, Bambalamotu, Kec. Bambalamotu, Kab. Pasangkayu, Sulawesi Barat","Kab. Pasangkayu, Sulawesi Barat",SULAWESI BARAT,,Indonesia,,,,-1.1109946,119.4622026,https://maps.google.com/?cid=0x0:0xbbaf929d78149c96,
perumahan,Komplek perumahan,Rumanya Aril,"WF26+66V, Bambalamotu, Kec. Bambalamotu, Kab. Pasangkayu, Sulawesi Barat 91574","Bambalamotu, Kec. Bambalamotu, Kab. Pasangkayu",SULAWESI BARAT,91574.0,Indonesia,,,,-1.0987094,119.459516,https://maps.google.com/?cid=0x0:0xb4d255999a37748a,
perumahan,Pembangunan Perumahan,Rumah butik bambalamotu,"WF84+928, Bambalamotu, Kec. Bambalamotu, Kab. Pasangkayu, Sulawesi Barat 91574","Bambalamotu, Kec. Bambalamotu, Kab. Pasangkayu",SULAWESI BARAT,91574.0,Indonesia,,,,-1.0838445,119.4550746,https://maps.google.com/?cid=0x0:0xab653a5c72387d3c,
perumahan,Masjid,Rumah Pak Desa Kalola,"WF5C+2MG, Kalola, Kec. Bambalamotu, Kab. Pasangkayu, Sulawesi Barat 91574","Kalola, Kec. Bambalamotu, Kab. Pasangkayu",SULAWESI BARAT,91574.0,Indonesia,,,,-1.0924378,119.471704,https://maps.google.com/?cid=0x0:0x76d6c55ce50d19dc,
perumahan,Komplek perumahan,Alfatih,"WFP8+9VM, Salunggaluku, Randomayang, Kec. Bambalamotu","Kab. Pasangkayu, Sulawesi Barat",SULAWESI BARAT,,Indonesia,,,,-1.0640311,119.4671773,https://maps.google.com/?cid=0x0:0x70edbaea05d7938a,
perumahan,Rumah Sakit,Pustu Bambalamotu,"WF84+682, Bambalamotu, Kec. Bambalamotu, Kab. Pasangkayu, Sulawesi Barat 91574","Bambalamotu, Kec. Bambalamotu, Kab. Pasangkayu",SULAWESI BARAT,91574.0,Indonesia,85242493256.0,,,-1.0844952,119.4557787,https://maps.google.com/?cid=0x0:0x341fd46dbe4f5795,
perumahan,Komplek perumahan,Ayh fitri,"VCVV+W2P, Polewali, Kec. Bambalamotu, Kab. Pasangkayu, Sulawesi Barat 91574","Polewali, Kec. Bambalamotu, Kab. Pasangkayu",SULAWESI BARAT,91574.0,Indonesia,,,,-1.1043969,119.4429731,https://maps.google.com/?cid=0x0:0x23d41c4b52192412,
perumahan,Komplek perumahan,Kalola,"WF8F+9G, Kalola, Kec. Bambalamotu, Kab. Pasangkayu, Sulawesi Barat","Kab. Pasangkayu, Sulawesi Barat",SULAWESI BARAT,,Indonesia,,,,-1.0840686,119.473797,https://maps.google.com/?cid=0x0:0x6341fb8650116a64,
perumahan,Pembangunan Perumahan,Beskem lorken,"WF84+7MG, Bambalamotu, Kec. Bambalamotu, Kab. Pasangkayu, Sulawesi Barat","Kab. Pasangkayu, Sulawesi Barat",SULAWESI BARAT,,Indonesia,,,,-1.0843079,119.4567024,https://maps.google.com/?cid=0x0:0x73b28e56f2ffbdda,
perumahan,Komplek perumahan,Rumah yaman,"VCQW+6H4, Dusun Pakela, Polewali, Kec. Bambalamotu, Kab. Pasangkayu, Sulawesi Barat 91574","Dusun Pakela, Polewali, Kec. Bambalamotu, Kab. Pasangkayu",SULAWESI BARAT,91574.0,Indonesia,,,,-1.1120121,119.4464278,https://maps.google.com/?cid=0x0:0xde6b10270ba7509,
perumahan,Pembangunan Perumahan,Masita cell,"WFP8+9VM, Randomayang, Kec. Bambalamotu, Kab. Pasangkayu, Sulawesi Barat 91574","Randomayang, Kec. Bambalamotu, Kab. Pasangkayu",SULAWESI BARAT,91574.0,Indonesia,,,,-1.0647802,119.4675462,https://maps.google.com/?cid=0x0:0xe4ec2fa252919afd,
perumahan,Komplek perumahan,Rumah sarman,"WF26+66V, Bambalamotu, Kec. Bambalamotu, Kab. Pasangkayu, Sulawesi Barat 91574","Bambalamotu, Kec. Bambalamotu, Kab. Pasangkayu",SULAWESI BARAT,91574.0,Indonesia,,,,-1.0993866,119.460557,https://maps.google.com/?cid=0x0:0xca66e82be322d07c,
perumahan,Komplek perumahan,Rumah Opa Gaul @AGM,"VCWV+P9J, Polewali, Kec. Bambalamotu, Kab. Pasangkayu, Sulawesi Barat","Kab. Pasangkayu, Sulawesi Barat",SULAWESI BARAT,,Indonesia,,,,-1.1031679,119.4433712,https://maps.google.com/?cid=0x0:0x276cba63beae0895,
perumahan,Komplek perumahan,Rumah Dian,"VCQW+6H4, Dusun Pakela, Polewali, Kec. Bambalamotu, Kab. Pasangkayu, Sulawesi Barat 91574","Dusun Pakela, Polewali, Kec. Bambalamotu, Kab. Pasangkayu",SULAWESI BARAT,91574.0,Indonesia,,,,-1.1119989,119.4464439,https://maps.google.com/?cid=0x0:0x671c918c7cdaf731,
perumahan,Komplek perumahan,Rumah nya ilman,"VCVV+W2P, Polewali, Kec. Bambalamotu, Kab. Pasangkayu, Sulawesi Barat 91574","Polewali, Kec. Bambalamotu, Kab. Pasangkayu",SULAWESI BARAT,91574.0,Indonesia,,,,-1.1045876,119.4432035,https://maps.google.com/?cid=0x0:0xeedb3c0195de7e9f,
perumahan,perumahan,Kec. Baras,"Kab. Pasangkayu, Sulawesi Barat","Kab. Pasangkayu, Sulawesi Barat",SULAWESI BARAT,,Indonesia,,,,-1.588752,119.3280298,https://maps.google.com/?cid=0x0:0x43abedd2f72d30c4,
perumahan,Pembangunan Perumahan,Rumah Nila,"C9QX+WVH, Motu, Kec. Baras, Kab. Pasangkayu, Sulawesi Barat 91572","Motu, Kec. Baras, Kab. Pasangkayu",SULAWESI BARAT,91572.0,Indonesia,,,,-1.5597415,119.3992602,https://maps.google.com/?cid=0x0:0x71334a7148e34a13,
perumahan,Komplek perumahan,Y2J,"CCX3+76H, Motu, Kec. Baras, Kab. Pasangkayu, Sulawesi Barat 91572","Motu, Kec. Baras, Kab. Pasangkayu",SULAWESI BARAT,91572.0,Indonesia,,,,-1.5518259,119.4029915,https://maps.google.com/?cid=0x0:0x7ac1d49219f6385f,
perumahan,Komplek perumahan,Kios naysila,"CCW3+R46, Motu, Kec. Baras, Kab. Pasangkayu, Sulawesi Barat 91572","Motu, Kec. Baras, Kab. Pasangkayu",SULAWESI BARAT,91572.0,Indonesia,,,,-1.5529289,119.4025764,https://maps.google.com/?cid=0x0:0x42da752cc22c1d42,
perumahan,Komplek perumahan,Rumah Pak Mandala,"FC74+9GW, Motu, Kec. Baras, Kab. Pasangkayu, Sulawesi Barat 91572","Motu, Kec. Baras, Kab. Pasangkayu",SULAWESI BARAT,91572.0,Indonesia,,,,-1.5365098,119.4063234,https://maps.google.com/?cid=0x0:0x3a07243ecf25614d,
perumahan,Komplek perumahan,Rumah ayaaaa,"99FC+4G, Towoni, Kec. Baras, Kab. Pasangkayu, Sulawesi Barat","Kab. Pasangkayu, Sulawesi Barat",SULAWESI BARAT,,Indonesia,,,,-1.6271961,119.3711481,https://maps.google.com/?cid=0x0:0xb6ba77be30cb3625,
perumahan,perumahan,Bpk Al,"F9HM+CWW, Motu, Kec. Baras, Kab. Pasangkayu, Sulawesi Barat 91572","Motu, Kec. Baras, Kab. Pasangkayu",SULAWESI BARAT,91572.0,Indonesia,,,,-1.521143,119.38458,https://maps.google.com/?cid=0x0:0xda881eb2f2230af4,
perumahan,Pembangunan Perumahan,Rumah salokaili,"C8PH+89F, Kasano, Kec. Baras, Kab. Pasangkayu, Sulawesi Barat 91572","Kasano, Kec. Baras, Kab. Pasangkayu",SULAWESI BARAT,91572.0,Indonesia,,,,-1.564187,119.328416,https://maps.google.com/?cid=0x0:0x68310f2ec7149879,
perumahan,Komplek perumahan,Ariana rumah,"C9RW+JPP, Motu, Kec. Baras, Kab. Pasangkayu, Sulawesi Barat 91572","Motu, Kec. Baras, Kab. Pasangkayu",SULAWESI BARAT,91572.0,Indonesia,,,,-1.5584125,119.3968281,https://maps.google.com/?cid=0x0:0xa72b21b4a30a7a34,
perumahan,Komplek perumahan,Kopral,"C9QW+83, Motu, Kec. Baras, Kab. Pasangkayu, Sulawesi Barat","Kab. Pasangkayu, Sulawesi Barat",SULAWESI BARAT,,Indonesia,,,,-1.5616325,119.3951822,https://maps.google.com/?cid=0x0:0x8dc7e8d3d9f6f9e7,
perumahan,Rumah Kayu,Rumah Mansur Jabbar,"C9MG+375 kan, Dusun sungai too desa balanti perumahan afd Majene, Kec. Baras, Kab. Pasangkayu, Sulawesi Barat","Kab. Pasangkayu, Sulawesi Barat",SULAWESI BARAT,,Indonesia,,,,-1.5673609,119.3757224,https://maps.google.com/?cid=0x0:0x1d256347f24751d3,
perumahan,Gedung Apartemen,Baras 2,"FC74+9GW, Motu, Kec. Baras, Kab. Pasangkayu, Sulawesi Barat 91572","Motu, Kec. Baras, Kab. Pasangkayu",SULAWESI BARAT,91572.0,Indonesia,,,,-1.5365098,119.4063234,https://maps.google.com/?cid=0x0:0xefd6ab0ffe40b517,
perumahan,Komplek perumahan,Perumahan Rerod,"CCQ6+6P2, Motu, Kec. Baras, Kab. Pasangkayu, Sulawesi Barat","Kab. Pasangkayu, Sulawesi Barat",SULAWESI BARAT,,Indonesia,,,,-1.5619941,119.411752,https://maps.google.com/?cid=0x0:0xf59729ca625515fa,
perumahan,Komplek perumahan,Rumah keluarga bapak Aldo,"C9QX+WVH, Motu, Kec. Baras, Kab. Pasangkayu, Sulawesi Barat 91572","Motu, Kec. Baras, Kab. Pasangkayu",SULAWESI BARAT,91572.0,Indonesia,,,,-1.5593011,119.4000223,https://maps.google.com/?cid=0x0:0x3b7ec49750955462,
perumahan,Komplek perumahan,Rumah Kampoeng,"CCF5+GF5, Motu, Kec. Baras, Kab. Pasangkayu, Sulawesi Barat 91572","Motu, Kec. Baras, Kab. Pasangkayu",SULAWESI BARAT,91572.0,Indonesia,,,,-1.5762433,119.4087361,https://maps.google.com/?cid=0x0:0x476c2be4e7464db7,
perumahan,Komplek perumahan,Kampoeng Pantai Batu,"C89G+HJ2, Baras, Kec. Baras, Kab. Pasangkayu, Sulawesi Barat 91572","Baras, Kec. Baras, Kab. Pasangkayu",SULAWESI BARAT,91572.0,Indonesia,,,,-1.5811046,119.3265227,https://maps.google.com/?cid=0x0:0x34113b6657f9941f,
perumahan,Bidan,Rumah Bidan Hasna,"C9PX+G26, Motu, Kec. Baras, Kab. Pasangkayu, Sulawesi Barat 91572","Motu, Kec. Baras, Kab. Pasangkayu",SULAWESI BARAT,91572.0,Indonesia,,,,-1.5637821,119.3981615,https://maps.google.com/?cid=0x0:0xb093799e09e48d69,
perumahan,Komplek perumahan,Rumah sukma,"C9PX+GH6, Motu, Kec. Baras, Kab. Pasangkayu, Sulawesi Barat","Kab. Pasangkayu, Sulawesi Barat",SULAWESI BARAT,,Indonesia,,,,-1.5637161,119.3988826,https://maps.google.com/?cid=0x0:0x1cfdd6cb4e5945ed,
perumahan,Pembangunan Perumahan,David,"CCX3+76F, Motu, Kec. Baras, Kab. Pasangkayu, Sulawesi Barat 91572","Motu, Kec. Baras, Kab. Pasangkayu",SULAWESI BARAT,91572.0,Indonesia,,,,-1.5518054,119.4030365,https://maps.google.com/?cid=0x0:0xe6fdbf4aa83833b1,
perumahan,Komplek perumahan,Rumah sukardi,"F94X+GQH, Motu, Kec. Baras, Kab. Pasangkayu, Sulawesi Barat 91572","Motu, Kec. Baras, Kab. Pasangkayu",SULAWESI BARAT,91572.0,Indonesia,,,,-1.5436791,119.4003515,https://maps.google.com/?cid=0x0:0xf8075c711eacf602,
perumahan,Kantor Perusahaan,perumahan agri baras,"FCHM+R3Q ken panjang agri, Motu, Kec. Baras, Kab. Pasangkayu, Sulawesi Barat","Kab. Pasangkayu, Sulawesi Barat",SULAWESI BARAT,,Indonesia,,,,-1.5204178,119.4327318,https://maps.google.com/?cid=0x0:0x457a6ba36698fac6,
perumahan,Balai masyarakat,Agri selatan,"9CXH+8GC, Towoni, Kec. Baras, Kab. Pasangkayu, Sulawesi Barat 91572","Towoni, Kec. Baras, Kab. Pasangkayu",SULAWESI BARAT,91572.0,Indonesia,,,,-1.6009616,119.4289221,https://maps.google.com/?cid=0x0:0xb3abe85cc2eae308,
perumahan,Komplek perumahan,Ndar Home,"CCH4+67, Balanti, Kec. Baras, Kab. Pasangkayu, Sulawesi Barat 91572","Balanti, Kec. Baras, Kab. Pasangkayu",SULAWESI BARAT,91572.0,Indonesia,,,,-1.5718365,119.4056526,https://maps.google.com/?cid=0x0:0x36384ddffd8d586b,
perumahan,Komplek perumahan,Rumah robi satria  romi satria,"FC52+55Q, Motu, Kec. Baras, Kab. Pasangkayu, Sulawesi Barat 91572","Motu, Kec. Baras, Kab. Pasangkayu",SULAWESI BARAT,91572.0,Indonesia,,,,-1.5420375,119.4004844,https://maps.google.com/?cid=0x0:0x4e5b46f9530cdc50,
perumahan,Komplek perumahan,Lumbung Toraja dan Goa Maria,"C9PW+JCF, Motu, Kec. Baras, Kab. Pasangkayu, Sulawesi Barat 91572","Motu, Kec. Baras, Kab. Pasangkayu",SULAWESI BARAT,91572.0,Indonesia,87814936815.0,,,-1.5631768,119.3959574,https://maps.google.com/?cid=0x0:0xbb77a3d67fe8398a,
perumahan,Komplek perumahan,Mama indah,"F86P+XMC, Kasano, Kec. Baras, Kab. Pasangkayu, Sulawesi Barat 91572","Kasano, Kec. Baras, Kab. Pasangkayu",SULAWESI BARAT,91572.0,Indonesia,,,,-1.5375613,119.3366501,https://maps.google.com/?cid=0x0:0x7b61bcc7e65c3a7a,
perumahan,perumahan,Rumah Saya,"FC74+9GW, Lorong 3 Dsn Lembah Makmur, Motu, Kec. Baras, Kab. Pasangkayu, Sulawesi Barat 91572","Lorong 3 Dsn Lembah Makmur, Motu, Kec. Baras, Kab. Pasangkayu",SULAWESI BARAT,91572.0,Indonesia,,,,-1.5365098,119.4063234,https://maps.google.com/?cid=0x0:0x47453d92fdc25a27,
perumahan,Pembangunan Perumahan,Son endeh baras 3 desa karave jalan wanagiri,"G94X+RW5, Karave, Kec. Bulu Taba, Kab. Pasangkayu, Sulawesi Barat 91572","Karave, Kec. Bulu Taba, Kab. Pasangkayu",SULAWESI BARAT,91572.0,Indonesia,,,,-1.4934537,119.3997097,https://maps.google.com/?cid=0x0:0xd255f670f1f763a6,
perumahan,Komplek perumahan,Malaika Sandrina  Akasya,"Perumahan Malaika Sandrina  Akasya, RT.003/RW.019, Kedungjaya, Kec. Babelan, Kabupaten Bekasi, Jawa Barat 17610","RT.003/RW.019, Kedungjaya, Kec. Babelan, Kabupaten Bekasi",SULAWESI BARAT,17610.0,Indonesia,,,,-6.1470404,107.0246371,https://maps.google.com/?cid=0x0:0xaa9d9d13040c31ff,
perumahan,perumahan,Sulawesi Barat 91572,"Kab. Pasangkayu, Sulawesi Barat","Kab. Pasangkayu, Sulawesi Barat",SULAWESI BARAT,,Indonesia,,,,-1.5596509,119.5571677,https://maps.google.com/?cid=0x0:0xedbe1b42f4cf1266,
perumahan,Komplek perumahan,Herman Batula,"Dusun mattodopuli Desa, Bukit Harapan, Kec. Bulu Taba, Kab. Pasangkayu, Sulawesi Barat 91572","Bukit Harapan, Kec. Bulu Taba, Kab. Pasangkayu",SULAWESI BARAT,91572.0,Indonesia,85352018177.0,,,-1.5083665,119.4609996,https://maps.google.com/?cid=0x0:0xe15b1bbb3c4fee7b,
perumahan,Komplek perumahan,Rumahnya EL,"GCF7+RVM, Lilimori, Kec. Bulu Taba, Kab. Pasangkayu, Sulawesi Barat 91572","Lilimori, Kec. Bulu Taba, Kab. Pasangkayu",SULAWESI BARAT,91572.0,Indonesia,,,,-1.4754207,119.4146705,https://maps.google.com/?cid=0x0:0xe8d6afc6a7bc92ab,
perumahan,Komplek perumahan,"kec, Bulu Taba","HFGX+9WJ, Ompi, Kec. Bulu Taba, Kab. Pasangkayu, Sulawesi Barat","Kab. Pasangkayu, Sulawesi Barat",SULAWESI BARAT,,Indonesia,,,,-1.4240406,119.4997693,https://maps.google.com/?cid=0x0:0xb0769fdc3f61c85f,
perumahan,Otoritas Perumahan,Rumah Pak Nyoman Sukandra,"GCM9+M63, Jl. Cendrawasih, Lilimori, Kec. Bulu Taba, Kab. Pasangkayu, Sulawesi Barat 91572","Jl. Cendrawasih, Lilimori, Kec. Bulu Taba, Kab. Pasangkayu",SULAWESI BARAT,91572.0,Indonesia,,,,-1.4658553,119.4180559,https://maps.google.com/?cid=0x0:0xdf9c77068c050447,
perumahan,Komplek perumahan,Leli,"GC62+266, Karave, Kec. Bulu Taba, Kab. Pasangkayu, Sulawesi Barat 91572","Karave, Kec. Bulu Taba, Kab. Pasangkayu",SULAWESI BARAT,91572.0,Indonesia,,,,-1.4899574,119.4005185,https://maps.google.com/?cid=0x0:0x762b2aa28c6c0b82,
perumahan,Komplek perumahan,Artana Home,"GC23+QW, Karave, Kec. Bulu Taba, Kab. Pasangkayu, Sulawesi Barat","Kab. Pasangkayu, Sulawesi Barat",SULAWESI BARAT,,Indonesia,,,,-1.4981194,119.4047796,https://maps.google.com/?cid=0x0:0x37fb78d2c4b8096f,
perumahan,Komplek perumahan,Bulutaba,"GCPF+8F9, Lilimori, Kec. Bulu Taba, Kab. Pasangkayu, Sulawesi Barat 91572","Lilimori, Kec. Bulu Taba, Kab. Pasangkayu",SULAWESI BARAT,91572.0,Indonesia,,,,-1.4642073,119.4237365,https://maps.google.com/?cid=0x0:0x6bd50feebb727524,
perumahan,Komplek perumahan,RUMAH BAYU SHANTIASA,"GCJ9+WH9, Lilimori, Kec. Bulu Taba, Kab. Pasangkayu, Sulawesi Barat 91572","Lilimori, Kec. Bulu Taba, Kab. Pasangkayu",SULAWESI BARAT,91572.0,Indonesia,,,,-1.4677112,119.4198867,https://maps.google.com/?cid=0x0:0x131a33f0b475445,
perumahan,Komplek perumahan,Rumah Ajik Mang Merta,"GCM9+GFH, Jl. Cendrawasih, Lilimori, Kec. Bulu Taba, Kab. Pasangkayu, Sulawesi Barat 91572","Jl. Cendrawasih, Lilimori, Kec. Bulu Taba, Kab. Pasangkayu",SULAWESI BARAT,91572.0,Indonesia,,,,-1.4661779,119.4187308,https://maps.google.com/?cid=0x0:0x317cb3a208d47ef4,
perumahan,Komplek perumahan,Karta‚Äôs house,"GCM9+4FJ, Lilimori, Kec. Bulu Taba, Kab. Pasangkayu, Sulawesi Barat 91572","Lilimori, Kec. Bulu Taba, Kab. Pasangkayu",SULAWESI BARAT,91572.0,Indonesia,,,,-1.4670737,119.4185963,https://maps.google.com/?cid=0x0:0x19bb6fd391435aa4,
perumahan,Komplek perumahan,Sunarko,"GC46+XWC, Karave, Kec. Bulu Taba, Kab. Pasangkayu, Sulawesi Barat 91572","Karave, Kec. Bulu Taba, Kab. Pasangkayu",SULAWESI BARAT,91572.0,Indonesia,,,,-1.4921231,119.4125878,https://maps.google.com/?cid=0x0:0xe3ab874248224dfe,
perumahan,perumahan,Raumah ayub mutalib,"GFCP+592, Bukit Harapan, Kec. Bulu Taba, Kab. Pasangkayu, Sulawesi Barat 91572","Bukit Harapan, Kec. Bulu Taba, Kab. Pasangkayu",SULAWESI BARAT,91572.0,Indonesia,,,,-1.4800131,119.4863127,https://maps.google.com/?cid=0x0:0x51af3f49354592df,
perumahan,Komplek perumahan,Rumah Rio,"GC53+66J, Karave, Kec. Bulu Taba, Kab. Pasangkayu, Sulawesi Barat 91572","Karave, Kec. Bulu Taba, Kab. Pasangkayu",SULAWESI BARAT,91572.0,Indonesia,,,,-1.4911016,119.4018069,https://maps.google.com/?cid=0x0:0x3df60f09a10a2fea,
perumahan,perumahan,Riza Nurkhofifah,"Jl Sultan Hasanudin, Karave, Kec. Bulu Taba, Kab. Pasangkayu, Sulawesi Barat 91572","Karave, Kec. Bulu Taba, Kab. Pasangkayu",SULAWESI BARAT,91572.0,Indonesia,,,,-1.4926149,119.4121066,https://maps.google.com/?cid=0x0:0x74765382e19dde1,
perumahan,Komplek perumahan,Rumah seldi,"GCP7+5W6, Lilimori, Kec. Bulu Taba, Kab. Pasangkayu, Sulawesi Barat 91572","Lilimori, Kec. Bulu Taba, Kab. Pasangkayu",SULAWESI BARAT,91572.0,Indonesia,,,,-1.4645901,119.4147519,https://maps.google.com/?cid=0x0:0xd1013be2bc815fb1,
perumahan,Pembangunan Perumahan,Aldi_Djawa,"GC52+9PC, Karave, Kec. Bulu Taba, Kab. Pasangkayu, Sulawesi Barat 91572","Karave, Kec. Bulu Taba, Kab. Pasangkayu",SULAWESI BARAT,91572.0,Indonesia,,,,-1.4915685,119.4017643,https://maps.google.com/?cid=0x0:0x74dc71507120a1aa,
perumahan,Komplek perumahan,TEGUH,"GCH9+78, Lilimori, Kec. Bulu Taba, Kab. Pasangkayu, Sulawesi Barat","Kab. Pasangkayu, Sulawesi Barat",SULAWESI BARAT,,Indonesia,,,,-1.4718756,119.4183511,https://maps.google.com/?cid=0x0:0xdaf77fac3e610141,
perumahan,Pembangunan Perumahan,Rumah Aayuni,"GC44+8WF, Karave, Kec. Bulu Taba, Kab. Pasangkayu, Sulawesi Barat 91572","Karave, Kec. Bulu Taba, Kab. Pasangkayu",SULAWESI BARAT,91572.0,Indonesia,,,,-1.4941761,119.4073028,https://maps.google.com/?cid=0x0:0x1f9618b1dad7c1bd,
perumahan,Komplek perumahan,BackHome,"GCF6+2GX, Lilimori, Kec. Bulu Taba, Kab. Pasangkayu, Sulawesi Barat 91572","Lilimori, Kec. Bulu Taba, Kab. Pasangkayu",SULAWESI BARAT,91572.0,Indonesia,,,,-1.4773998,119.4113586,https://maps.google.com/?cid=0x0:0x7a4af252ae11697a,
perumahan,Komplek perumahan,Gian gondrong dusun telaga sari,"GC34+9M9, Karave, Kec. Bulu Taba, Kab. Pasangkayu, Sulawesi Barat 91572","Karave, Kec. Bulu Taba, Kab. Pasangkayu",SULAWESI BARAT,91572.0,Indonesia,,,,-1.4965862,119.4067325,https://maps.google.com/?cid=0x0:0xab21b87a7181eda,
perumahan,Perumahan,Dusun Cahaya Botteng,"GFXF+25, Bukit Harapan, Kec. Bulu Taba, Kab. Pasangkayu, Sulawesi Barat 91572","Bukit Harapan, Kec. Bulu Taba, Kab. Pasangkayu",SULAWESI BARAT,91572.0,Indonesia,,,,-1.4524429,119.4729187,https://maps.google.com/?cid=0x0:0x24669c64955fb928,
perumahan,Komplek perumahan,Kompleks Bali Lilimori,"Unnamed Road, Lilimori, Kec. Bulu Taba, Kab. Pasangkayu, Sulawesi Barat 91572","Lilimori, Kec. Bulu Taba, Kab. Pasangkayu",SULAWESI BARAT,91572.0,Indonesia,,,,-1.4734666,119.4152374,https://maps.google.com/?cid=0x0:0xc07d09cd1a19224c,
perumahan,Rumah Sakit,Puskesmas Bulu Taba,"GCF9+HRW, Lilimori, Kec. Bulu Taba, Kab. Pasangkayu, Sulawesi Barat 91572","Lilimori, Kec. Bulu Taba, Kab. Pasangkayu",SULAWESI BARAT,91572.0,Indonesia,,,,-1.4760092,119.4195846,https://maps.google.com/?cid=0x0:0xc64a0ef3884374f0,
perumahan,Komplek perumahan,Rumah Iko,"GCPF+8F9, JL. Merak, Dusun Tohiti, Lilimori, Kec. Bulu Taba, Kab. Pasangkayu, Sulawesi Barat 91572","JL. Merak, Dusun Tohiti, Lilimori, Kec. Bulu Taba, Kab. Pasangkayu",SULAWESI BARAT,91572.0,Indonesia,,,,-1.4642073,119.4237365,https://maps.google.com/?cid=0x0:0xe269088d621e4da1,
perumahan,perumahan,Rumah Wayan Brata,"Dalem, Lrg. Pura, Lilimori, Kec. Bulu Taba, Kab. Pasangkayu, Sulawesi Barat 91572","Lrg. Pura, Lilimori, Kec. Bulu Taba, Kab. Pasangkayu",SULAWESI BARAT,91572.0,Indonesia,,,,-1.4696587,119.4185018,https://maps.google.com/?cid=0x0:0xf886c1d0ab528ec1,
perumahan,Komplek perumahan,Belakang toko pakaian,"GCFF+GWX, Lilimori, Kec. Bulu Taba, Kab. Pasangkayu, Sulawesi Barat 91572","Lilimori, Kec. Bulu Taba, Kab. Pasangkayu",SULAWESI BARAT,91572.0,Indonesia,,,,-1.4754653,119.4249681,https://maps.google.com/?cid=0x0:0x9600290d32a4ee5d,
perumahan,perumahan,Sulawesi Barat 91512,"Kabupaten Mamuju, Sulawesi Barat","Kabupaten Mamuju, Sulawesi Barat",SULAWESI BARAT,,Indonesia,,,,-1.8494265,119.5339711,https://maps.google.com/?cid=0x0:0x8e21c401717b8ceb,
perumahan,Toko bahan makanan,Dapurang,"7973+3JG, Dapurang, Kec. Dapurang, Kab. Pasangkayu, Sulawesi Barat 91573","Dapurang, Kec. Dapurang, Kab. Pasangkayu",SULAWESI BARAT,91573.0,Indonesia,,,,-1.7373218,119.3540715,https://maps.google.com/?cid=0x0:0x8c6bae3209e3a55d,
perumahan,Komplek perumahan,Suar,"6867+6RX, Sarasa, Kec. Dapurang, Kab. Pasangkayu, Sulawesi Barat 91512","Sarasa, Kec. Dapurang, Kab. Pasangkayu",SULAWESI BARAT,91512.0,Indonesia,,,,-1.7893875,119.3146094,https://maps.google.com/?cid=0x0:0x193c3c6b3fd89f83,
perumahan,Komplek perumahan,irmaHartawan,"69X4+4Q9, Lrg. 3, dusun Ranopinga, Tirta Buana, Kec. Dapurang, Kab. Pasangkayu, Sulawesi Barat 91573","Lrg. 3, dusun Ranopinga, Tirta Buana, Kec. Dapurang, Kab. Pasangkayu",SULAWESI BARAT,91573.0,Indonesia,,,,-1.7522094,119.3569749,https://maps.google.com/?cid=0x0:0xa07d10991ad822a4,
perumahan,Layanan Binatu,ANA'OGI laundry,"784H+Q72, Dapurang, Kec. Dapurang, Kab. Pasangkayu, Sulawesi Barat","Kab. Pasangkayu, Sulawesi Barat",SULAWESI BARAT,,Indonesia,,,,-1.7431125,119.3281406,https://maps.google.com/?cid=0x0:0x895876907ec2f2d2,
perumahan,Komplek perumahan,Rumah Kayu,"8C6Q+3C, Bulu Bonggu, Kec. Dapurang, Kab. Pasangkayu, Sulawesi Barat","Kab. Pasangkayu, Sulawesi Barat",SULAWESI BARAT,,Indonesia,,,,-1.6898186,119.4385689,https://maps.google.com/?cid=0x0:0x6641b2e0189b5e18,
perumahan,Komplek perumahan,Sekretariat PPS DAPURANG,"785J+863, Jl. Poros Majene - Mamuju, Dapurang, Kec. Dapurang, Kab. Pasangkayu, Sulawesi Barat 91573","Jl. Poros Majene - Mamuju, Dapurang, Kec. Dapurang, Kab. Pasangkayu",SULAWESI BARAT,91573.0,Indonesia,,,,-1.7417489,119.3305589,https://maps.google.com/?cid=0x0:0xc8fd080ab97e80de,
perumahan,Komplek perumahan,Bolana Citu‚Äô,"68FG+9J, Sarasa, Kec. Dapurang, Kab. Pasangkayu, Sulawesi Barat","Kab. Pasangkayu, Sulawesi Barat",SULAWESI BARAT,,Indonesia,,,,-1.7765906,119.3265146,https://maps.google.com/?cid=0x0:0x89fc4283f6d46335,
perumahan,Komplek perumahan,SAPARUDDIN HOME,"7C42+P3J, Benggaulu, Kec. Dapurang, Kab. Pasangkayu, Sulawesi Barat","Kab. Pasangkayu, Sulawesi Barat",SULAWESI BARAT,,Indonesia,,,,-1.7431675,119.4001513,https://maps.google.com/?cid=0x0:0xc2440d6fe548560f,
perumahan,Tempat Cukur Rambut,BARBERSHOP SULAWESI,"785H+59W, KMP BARU, Kec. Dapurang, Kab. Pasangkayu, Sulawesi Barat 91573","KMP BARU, Kec. Dapurang, Kab. Pasangkayu",SULAWESI BARAT,91573.0,Indonesia,,,,-1.7420077,119.3284609,https://maps.google.com/?cid=0x0:0x9001558634980986,
perumahan,Komplek perumahan,SAWERIGADING,"Jl. Poros Majene - Mamuju No.20, Karossa, Kec. Karossa, Kabupaten Mamuju Tengah, Sulawesi Barat 91512","Karossa, Kec. Karossa, Kabupaten Mamuju Tengah",SULAWESI BARAT,91512.0,Indonesia,,,,-1.7930176,119.407117,https://maps.google.com/?cid=0x0:0x59bca1bb24b907cc,
perumahan,Komplek perumahan,Irfan sengke,"785H+59W, Dapurang, Kec. Dapurang, Kab. Pasangkayu, Sulawesi Barat 91573","Dapurang, Kec. Dapurang, Kab. Pasangkayu",SULAWESI BARAT,91573.0,Indonesia,,,,-1.7420077,119.3284609,https://maps.google.com/?cid=0x0:0x8cec13a1a85349c2,
perumahan,Pembangunan Perumahan,rumah pak karno,"69W5+WX5, Lrg. 3, Tirta Buana, Kec. Dapurang, Kab. Pasangkayu, Sulawesi Barat 91573","Lrg. 3, Tirta Buana, Kec. Dapurang, Kab. Pasangkayu",SULAWESI BARAT,91573.0,Indonesia,,,,-1.7527252,119.3599782,https://maps.google.com/?cid=0x0:0x5bfa5134e2846cad,
perumahan,perumahan,Suryanto,"69CX+Q5J, Kadaila, Kec. Karossa, Kabupaten Mamuju Tengah, Sulawesi Barat 91573","Kadaila, Kec. Karossa, Kabupaten Mamuju Tengah",SULAWESI BARAT,91573.0,Indonesia,,,,-1.777199,119.3990484,https://maps.google.com/?cid=0x0:0x85064fabd234bfd9,
perumahan,Komplek perumahan,SRI HOME,"7FW5+XJ, Bulu Bonggu, Kec. Dapurang, Kab. Pasangkayu, Sulawesi Barat","Kab. Pasangkayu, Sulawesi Barat",SULAWESI BARAT,,Indonesia,,,,-1.702631,119.4589636,https://maps.google.com/?cid=0x0:0x55d1117dd902ce6a,
perumahan,perumahan,House on land,"WCQJ+GGQ, Batu Parigi, Kec. Tobadak, Kabupaten Mamuju Tengah, Sulawesi Barat","Kabupaten Mamuju Tengah, Sulawesi Barat",SULAWESI BARAT,,Indonesia,,,,-2.0612228,119.4313961,https://maps.google.com/?cid=0x0:0x9c4286a583348066,
perumahan,Komplek perumahan,Mery andini,"pasar limua, Dapurang, Kec. Dapurang, Kab. Pasangkayu, Sulawesi Barat 91573","Dapurang, Kec. Dapurang, Kab. Pasangkayu",SULAWESI BARAT,91573.0,Indonesia,,,,-1.7418234,119.3290513,https://maps.google.com/?cid=0x0:0x9242ae9b2923a54,
perumahan,Komplek perumahan,Rumah Pdt. Amstrong Pongelo,"698R+2FQ Perempatan pertama, Jl. Poros, Kadaila, Kec. Karossa, Kabupaten Mamuju Tengah, Sulawesi Barat 91573","Jl. Poros, Kadaila, Kec. Karossa, Kabupaten Mamuju Tengah",SULAWESI BARAT,91573.0,Indonesia,,,,-1.7849141,119.3912479,https://maps.google.com/?cid=0x0:0x74475428a530c432,
perumahan,Pembangunan Perumahan,Aikin,"693X+CWH, Karossa, Kec. Karossa, Kabupaten Mamuju, Sulawesi Barat 91512","Karossa, Kec. Karossa, Kabupaten Mamuju",SULAWESI BARAT,91512.0,Indonesia,85334552526.0,,,-1.796449,119.3993118,https://maps.google.com/?cid=0x0:0x81165e17ab4b6570,
perumahan,Komplek perumahan,Reza Home,"7CPQ+5F, Benggaulu, Kec. Dapurang, Kab. Pasangkayu, Sulawesi Barat","Kab. Pasangkayu, Sulawesi Barat",SULAWESI BARAT,,Indonesia,,,,-1.7142571,119.4400804,https://maps.google.com/?cid=0x0:0x6294f54b33797b8a,
perumahan,Perhimpunan Pengembang Perumahan,GRAHA LOTU VILLAGE,"5CV2+XHW, Lembah Hopo, Kec. Karossa, Kabupaten Mamuju Tengah, Sulawesi Barat","Kabupaten Mamuju Tengah, Sulawesi Barat",SULAWESI BARAT,,Indonesia,81242789242.0,,,-1.805003,119.4014442,https://maps.google.com/?cid=0x0:0x16ffb35bbb97f51,
perumahan,Kantor Pemerintah,Desa sanjango emasnya,"5HG9+PGJ, Sanjango, Kec. Karossa, Kabupaten Mamuju, Sulawesi Barat 91512","Sanjango, Kec. Karossa, Kabupaten Mamuju",SULAWESI BARAT,91512.0,Indonesia,,,,-1.8231738,119.5687646,https://maps.google.com/?cid=0x0:0x427cd5b9ac87db10,
perumahan,Komplek perumahan,Bolana Muhlis,"68GC+X9, Sarasa, Kec. Dapurang, Kab. Pasangkayu, Sulawesi Barat","Kab. Pasangkayu, Sulawesi Barat",SULAWESI BARAT,,Indonesia,,,,-1.7725973,119.3208887,https://maps.google.com/?cid=0x0:0x60aedb79f259b52c,
perumahan,perumahan,Senjango,"6G4G+4H, Sanjango, Kec. Karossa, Kabupaten Mamuju Tengah, Sulawesi Barat","Kabupaten Mamuju Tengah, Sulawesi Barat",SULAWESI BARAT,,Indonesia,,,,-1.794638,119.526466,https://maps.google.com/?cid=0x0:0x3c107e764384daeb,
perumahan,Komplek perumahan,Muhram/Nurjannah,"59JG+Q7X, Karossa, Kec. Karossa, Kabupaten Mamuju, Sulawesi Barat 91512","Karossa, Kec. Karossa, Kabupaten Mamuju",SULAWESI BARAT,91512.0,Indonesia,,,,-1.8180113,119.3757203,https://maps.google.com/?cid=0x0:0xcf69402fb0ac4355,
perumahan,Pembangunan Perumahan,Timbangan Buana Rifky,"69CV+35, Kadaila, Kec. Karossa, Kabupaten Mamuju, Sulawesi Barat","Kabupaten Mamuju, Sulawesi Barat",SULAWESI BARAT,,Indonesia,,,,-1.7798046,119.3928998,https://maps.google.com/?cid=0x0:0x9f5778cae55341cd,
perumahan,perumahan,Dapurang,"Kec. Dapurang, Kab. Pasangkayu, Sulawesi Barat","Kab. Pasangkayu, Sulawesi Barat",SULAWESI BARAT,,Indonesia,,,,-1.7373218,119.3540715,https://maps.google.com/?cid=0x0:0x14e56f055de03929,
perumahan,Toko bahan makanan,Dapurang,"7973+3JG, Dapurang, Kec. Dapurang, Kab. Pasangkayu, Sulawesi Barat 91573","Dapurang, Kec. Dapurang, Kab. Pasangkayu",SULAWESI BARAT,91573.0,Indonesia,,,,-1.7373218,119.3540715,https://maps.google.com/?cid=0x0:0x8c6bae3209e3a55d,
perumahan,Komplek perumahan,RUMAH AFIAFA,"784Q+H6C, Dapurang, Kec. Dapurang, Kab. Pasangkayu, Sulawesi Barat","Kab. Pasangkayu, Sulawesi Barat",SULAWESI BARAT,,Indonesia,,,,-1.7435736,119.3380023,https://maps.google.com/?cid=0x0:0xa29027a5e7149765,
perumahan,Tempat Cukur Rambut,BARBERSHOP SULAWESI,"785H+59W, KMP BARU, Kec. Dapurang, Kab. Pasangkayu, Sulawesi Barat 91573","KMP BARU, Kec. Dapurang, Kab. Pasangkayu",SULAWESI BARAT,91573.0,Indonesia,,,,-1.7420077,119.3284609,https://maps.google.com/?cid=0x0:0x9001558634980986,
perumahan,Komplek perumahan,Sekretariat PPS DAPURANG,"785J+863, Jl. Poros Majene - Mamuju, Dapurang, Kec. Dapurang, Kab. Pasangkayu, Sulawesi Barat 91573","Jl. Poros Majene - Mamuju, Dapurang, Kec. Dapurang, Kab. Pasangkayu",SULAWESI BARAT,91573.0,Indonesia,,,,-1.7417489,119.3305589,https://maps.google.com/?cid=0x0:0xc8fd080ab97e80de,
perumahan,Layanan Binatu,ANA'OGI laundry,"784H+Q72, Dapurang, Kec. Dapurang, Kab. Pasangkayu, Sulawesi Barat","Kab. Pasangkayu, Sulawesi Barat",SULAWESI BARAT,,Indonesia,,,,-1.7431125,119.3281406,https://maps.google.com/?cid=0x0:0x895876907ec2f2d2,
perumahan,Komplek perumahan,Irfan sengke,"785H+59W, Dapurang, Kec. Dapurang, Kab. Pasangkayu, Sulawesi Barat 91573","Dapurang, Kec. Dapurang, Kab. Pasangkayu",SULAWESI BARAT,91573.0,Indonesia,,,,-1.7420077,119.3284609,https://maps.google.com/?cid=0x0:0x8cec13a1a85349c2,
perumahan,Pembangunan Perumahan,rumah pak karno,"69W5+WX5, Lrg. 3, Tirta Buana, Kec. Dapurang, Kab. Pasangkayu, Sulawesi Barat 91573","Lrg. 3, Tirta Buana, Kec. Dapurang, Kab. Pasangkayu",SULAWESI BARAT,91573.0,Indonesia,,,,-1.7527252,119.3599782,https://maps.google.com/?cid=0x0:0x5bfa5134e2846cad,
perumahan,Komplek perumahan,Mck Umum Belawa Raya,"7964+43G, Dapurang, Kec. Dapurang, Kab. Pasangkayu, Sulawesi Barat 91573","Dapurang, Kec. Dapurang, Kab. Pasangkayu",SULAWESI BARAT,91573.0,Indonesia,,,,-1.7396866,119.3552171,https://maps.google.com/?cid=0x0:0xd5ff815be043f5f,
perumahan,Komplek perumahan,Mery andini,"pasar limua, Dapurang, Kec. Dapurang, Kab. Pasangkayu, Sulawesi Barat 91573","Dapurang, Kec. Dapurang, Kab. Pasangkayu",SULAWESI BARAT,91573.0,Indonesia,,,,-1.7418234,119.3290513,https://maps.google.com/?cid=0x0:0x9242ae9b2923a54,
perumahan,Pembangunan Perumahan,Tirta Buana Sp4,"69X4+7J5, Tirta Buana, Kec. Dapurang, Kab. Pasangkayu, Sulawesi Barat 91573","Tirta Buana, Kec. Dapurang, Kab. Pasangkayu",SULAWESI BARAT,91573.0,Indonesia,,,,-1.7518522,119.356611,https://maps.google.com/?cid=0x0:0xb7bfe2abdb147978,
perumahan,Komplek perumahan,perumahan bravo,"79WG+762, Kumasari, Kec. Sarudu, Kab. Pasangkayu, Sulawesi Barat 91573","Kumasari, Kec. Sarudu, Kab. Pasangkayu",SULAWESI BARAT,91573.0,Indonesia,,,,-1.7043526,119.37551,https://maps.google.com/?cid=0x0:0xd3cb33b304b949f0,
perumahan,Komplek perumahan,SAPARUDDIN HOME,"7C42+P3J, Benggaulu, Kec. Dapurang, Kab. Pasangkayu, Sulawesi Barat","Kab. Pasangkayu, Sulawesi Barat",SULAWESI BARAT,,Indonesia,,,,-1.7431675,119.4001513,https://maps.google.com/?cid=0x0:0xc2440d6fe548560f,
perumahan,Pusat Kesehatan Masyarakat,Puskesmas Dapurang,"785H+X6F, Dapurang, Kec. Dapurang, Kab. Pasangkayu, Sulawesi Barat 91573","Dapurang, Kec. Dapurang, Kab. Pasangkayu",SULAWESI BARAT,91573.0,Indonesia,,,,-1.740051,119.3280405,https://maps.google.com/?cid=0x0:0x3fe6ed3af6ea7c97,
perumahan,Komplek perumahan,SAKA,"7CH8+73W, Benggaulu, Kec. Dapurang, Kab. Pasangkayu, Sulawesi Barat","Kab. Pasangkayu, Sulawesi Barat",SULAWESI BARAT,,Indonesia,,,,-1.7217522,119.4151979,https://maps.google.com/?cid=0x0:0xc6a3f5722ad502ed,
perumahan,perumahan,Kec. Dapurang,"Kab. Pasangkayu, Sulawesi Barat","Kab. Pasangkayu, Sulawesi Barat",SULAWESI BARAT,,Indonesia,,,,-1.7420077,119.3284609,https://maps.google.com/?cid=0x0:0x38bdbd5f49f6d751,
perumahan,Bengkel Elektronik,Udin servis eletronic,"7C53+757, Jl. Poros Majene - Mamuju, Benggaulu, Kec. Dapurang, Kab. Pasangkayu, Sulawesi Barat 91573","Jl. Poros Majene - Mamuju, Benggaulu, Kec. Dapurang, Kab. Pasangkayu",SULAWESI BARAT,91573.0,Indonesia,,,,-1.7420609,119.4020917,https://maps.google.com/?cid=0x0:0xa62018a280ee790a,
perumahan,Komplek perumahan,BTN GREEN CITY 1 BLOK E2,"V7W5+37Q, Jl. Poros Palu - Mamuju, Babana, Topoyo, Kabupaten Mamuju Tengah, Sulawesi Barat 91563","Jl. Poros Palu - Mamuju, Babana, Topoyo, Kabupaten Mamuju Tengah",SULAWESI BARAT,91563.0,Indonesia,,,,-1.7364034,119.3812375,https://maps.google.com/?cid=0x0:0xa180d364f2fbfb75,
perumahan,Kantor Perusahaan,Fathir julham,"785M+G86, Jl. Poros Majene - Mamuju, Dapurang, Kec. Dapurang, Kab. Pasangkayu, Sulawesi Barat 91573","Jl. Poros Majene - Mamuju, Dapurang, Kec. Dapurang, Kab. Pasangkayu",SULAWESI BARAT,91573.0,Indonesia,82239882617.0,,,-1.7412128,119.3332577,https://maps.google.com/?cid=0x0:0x5193df4f10b2c74c,
perumahan,perumahan,Rumahnya agus gogon,"69V5+VQM Dusun Rano Pinga, Jl. Desa Tirta Buana, Tirta Buana, Kec. Dapurang, Kab. Pasangkayu, Sulawesi Barat 91573","Jl. Desa Tirta Buana, Tirta Buana, Kec. Dapurang, Kab. Pasangkayu",SULAWESI BARAT,91573.0,Indonesia,,,,-1.7549936,119.3587863,https://maps.google.com/?cid=0x0:0x948ad92a6fbd2b58,
perumahan,Komplek perumahan,Rumah Sukma,"7CG5+FQ3, Benggaulu, Kec. Dapurang, Kab. Pasangkayu, Sulawesi Barat","Kab. Pasangkayu, Sulawesi Barat",SULAWESI BARAT,,Indonesia,,,,-1.7238564,119.4094271,https://maps.google.com/?cid=0x0:0x333c30e2d556997c,
perumahan,Komplek perumahan,Baim,"7CH8+8MP, Benggaulu, Kec. Dapurang, Kab. Pasangkayu, Sulawesi Barat 91573","Benggaulu, Kec. Dapurang, Kab. Pasangkayu",SULAWESI BARAT,91573.0,Indonesia,,,,-1.721829,119.416103,https://maps.google.com/?cid=0x0:0x11c66fe884b08519,
perumahan,perumahan,Kec. Duripoku,"Kab. Pasangkayu, Sulawesi Barat","Kab. Pasangkayu, Sulawesi Barat",SULAWESI BARAT,,Indonesia,,,,-1.6543678,119.4203336,https://maps.google.com/?cid=0x0:0x2c307cba88191354,
perumahan,Perhimpunan Pengembang Perumahan,Rumah,"9C4Q+MW, Sipakainga, Kec. Duripoku, Kab. Pasangkayu, Sulawesi Barat","Kab. Pasangkayu, Sulawesi Barat",SULAWESI BARAT,,Indonesia,,,,-1.6433519,119.4397525,https://maps.google.com/?cid=0x0:0xfe996a1ff0717b60,
perumahan,perumahan,ANDIKA,"8CXF+623, Tammarunang, Kec. Duripoku, Kab. Pasangkayu, Sulawesi Barat 91573","Tammarunang, Kec. Duripoku, Kab. Pasangkayu",SULAWESI BARAT,91573.0,Indonesia,,,,-1.6519813,119.4225454,https://maps.google.com/?cid=0x0:0xda6fb50aca683503,
perumahan,Komplek perumahan,Rumah Awal,"8CR6+4VR, Tammarunang, Kec. Duripoku, Kab. Pasangkayu, Sulawesi Barat 91573","Tammarunang, Kec. Duripoku, Kab. Pasangkayu",SULAWESI BARAT,91573.0,Indonesia,,,,-1.6596459,119.412128,https://maps.google.com/?cid=0x0:0xa87cabec1d53b815,
perumahan,Komplek perumahan,Rumahku,"997M+269, Saptanajaya, Kec. Duripoku, Kab. Pasangkayu, Sulawesi Barat","Kab. Pasangkayu, Sulawesi Barat",SULAWESI BARAT,,Indonesia,,,,-1.6374676,119.3831049,https://maps.google.com/?cid=0x0:0x9fc12008bb1ae9d3,
perumahan,Komplek perumahan,Rumah waris,"8CW5+98V, Tammarunang, Kec. Duripoku, Kab. Pasangkayu, Sulawesi Barat 91573","Tammarunang, Kec. Duripoku, Kab. Pasangkayu",SULAWESI BARAT,91573.0,Indonesia,,,,-1.654003,119.4082966,https://maps.google.com/?cid=0x0:0x4eedc2621fbbf2c8,
perumahan,Komplek perumahan,Rumah Fira,"8CWH+3H3, Tammarunang, Kec. Duripoku, Kab. Pasangkayu, Sulawesi Barat 91573","Tammarunang, Kec. Duripoku, Kab. Pasangkayu",SULAWESI BARAT,91573.0,Indonesia,,,,-1.6548673,119.4289205,https://maps.google.com/?cid=0x0:0x8e47d97613cf65ce,
perumahan,perumahan,Rumah khaliq,"8CX9+3XQ lorong 4, Tammarunang, Kec. Duripoku, Kab. Pasangkayu, Sulawesi Barat 91573","Tammarunang, Kec. Duripoku, Kab. Pasangkayu",SULAWESI BARAT,91573.0,Indonesia,,,,-1.652291,119.4199933,https://maps.google.com/?cid=0x0:0x96d1530c2e1a3bfd,
perumahan,Komplek perumahan,Kecamatan duripoku,"8CWC+744, Tammarunang, Kec. Duripoku, Kab. Pasangkayu, Sulawesi Barat","Kab. Pasangkayu, Sulawesi Barat",SULAWESI BARAT,,Indonesia,,,,-1.6543678,119.4203336,https://maps.google.com/?cid=0x0:0x9440ae42829a6f65,
perumahan,Komplek perumahan,Sr. 017,"9C32+74J, Taranggi, Kec. Duripoku, Kab. Pasangkayu, Sulawesi Barat","Kab. Pasangkayu, Sulawesi Barat",SULAWESI BARAT,,Indonesia,,,,-1.6467914,119.4002603,https://maps.google.com/?cid=0x0:0x1354071d4c89c98d,
perumahan,Gedung Apartemen,Rumahnya arfil,"998G+4WF, Saptanajaya, Kec. Duripoku, Kab. Pasangkayu, Sulawesi Barat","Kab. Pasangkayu, Sulawesi Barat",SULAWESI BARAT,,Indonesia,,,,-1.6346778,119.3772969,https://maps.google.com/?cid=0x0:0x4d0a0a5bd70dc298,
perumahan,Komplek perumahan,Reza Reza,"996G+CFP, Saptanajaya, Kec. Duripoku, Kab. Pasangkayu, Sulawesi Barat","Kab. Pasangkayu, Sulawesi Barat",SULAWESI BARAT,,Indonesia,,,,-1.6389066,119.376214,https://maps.google.com/?cid=0x0:0xb2a60b3f682d5f93,
perumahan,Komplek perumahan,Rumah Thyna,"8CXC+7J2, Tammarunang, Kec. Duripoku, Kab. Pasangkayu, Sulawesi Barat 91573","Tammarunang, Kec. Duripoku, Kab. Pasangkayu",SULAWESI BARAT,91573.0,Indonesia,,,,-1.651761,119.422486,https://maps.google.com/?cid=0x0:0x26fc27eff5dc3dcd,
perumahan,Komplek perumahan,Rumah Mamuju PaMadi,"997M+269, Saptanajaya, Kec. Duripoku, Kab. Pasangkayu, Sulawesi Barat","Kab. Pasangkayu, Sulawesi Barat",SULAWESI BARAT,,Indonesia,,,,-1.6378857,119.3831186,https://maps.google.com/?cid=0x0:0x331bf4b587bebcf1,
perumahan,Komplek perumahan,Rumah Mas Adit Woilah Cik,"8CWF+G2F, Tammarunang, Kec. Duripoku, Kab. Pasangkayu, Sulawesi Barat 91573","Tammarunang, Kec. Duripoku, Kab. Pasangkayu",SULAWESI BARAT,91573.0,Indonesia,,,,-1.6536868,119.4225324,https://maps.google.com/?cid=0x0:0x6a9ed7bbeff323ea,
perumahan,Komplek perumahan,Rumah Vincenti B,"8CV6+QR, Tammarunang, Kec. Duripoku, Kab. Pasangkayu, Sulawesi Barat","Kab. Pasangkayu, Sulawesi Barat",SULAWESI BARAT,,Indonesia,,,,-1.6556135,119.4120674,https://maps.google.com/?cid=0x0:0x35afd247f13a901e,
perumahan,Pembangunan Perumahan,Kios shinta,"995J+497, Saptanajaya, Kec. Duripoku, Kab. Pasangkayu, Sulawesi Barat 91573","Saptanajaya, Kec. Duripoku, Kab. Pasangkayu",SULAWESI BARAT,91573.0,Indonesia,,,,-1.6422027,119.3809327,https://maps.google.com/?cid=0x0:0x2f0a010d884a8d13,
perumahan,Komplek perumahan,Rumah billiam,"8CW5+HV6, Lorong 3, Tammarunang, Kec. Duripoku, Kab. Pasangkayu, Sulawesi Barat 91574","Lorong 3, Tammarunang, Kec. Duripoku, Kab. Pasangkayu",SULAWESI BARAT,91574.0,Indonesia,,,,-1.653595,119.4096376,https://maps.google.com/?cid=0x0:0xe1513cf68859be4b,
perumahan,Komplek perumahan,Rumah istanaku,"995C+H8W, Saptanajaya, Kec. Duripoku, Kab. Pasangkayu, Sulawesi Barat 91573","Saptanajaya, Kec. Duripoku, Kab. Pasangkayu",SULAWESI BARAT,91573.0,Indonesia,,,,-1.640268,119.371127,https://maps.google.com/?cid=0x0:0x74d7f04fb0b81852,
perumahan,Komplek perumahan,Supriadi/bapak meli,"8CX6+2CQ, Tammarunang, Kec. Duripoku, Kab. Pasangkayu, Sulawesi Barat 91573","Tammarunang, Kec. Duripoku, Kab. Pasangkayu",SULAWESI BARAT,91573.0,Indonesia,,,,-1.6524093,119.4111125,https://maps.google.com/?cid=0x0:0xe60c0df05e6c0f51,
perumahan,Komplek perumahan,Rumah Hisban,"89HV+999, Unnamed Road, Tammarunang, Taranggi, Kec. Duripoku, Kab. Pasangkayu, Sulawesi Barat 91573","Unnamed Road, Tammarunang, Taranggi, Kec. Duripoku, Kab. Pasangkayu",SULAWESI BARAT,91573.0,Indonesia,,,,-1.6715818,119.3934925,https://maps.google.com/?cid=0x0:0xe8da4f0035ce9f40,
perumahan,Perusahaan Konstruksi,SP5 Mamuju,"8CV5+MGW, Tammarunang, Kec. Duripoku, Kab. Pasangkayu, Sulawesi Barat 91573","Tammarunang, Kec. Duripoku, Kab. Pasangkayu",SULAWESI BARAT,91573.0,Indonesia,,,,-1.6557682,119.408843,https://maps.google.com/?cid=0x0:0xb7737b4232e7e547,
perumahan,perumahan,Dusun Puto,"99H3+2G4, Patika, Kec. Sarudu, Kab. Pasangkayu, Sulawesi Barat","Kab. Pasangkayu, Sulawesi Barat",SULAWESI BARAT,,Indonesia,,,,-1.6224753,119.3538183,https://maps.google.com/?cid=0x0:0x283ba19454f44ff4,
perumahan,Komplek perumahan,perumahan bravo,"79WG+762, Kumasari, Kec. Sarudu, Kab. Pasangkayu, Sulawesi Barat 91573","Kumasari, Kec. Sarudu, Kab. Pasangkayu",SULAWESI BARAT,91573.0,Indonesia,,,,-1.7043526,119.37551,https://maps.google.com/?cid=0x0:0xd3cb33b304b949f0,
perumahan,Komplek perumahan,Buk kartik,"994H+W42, Saptanajaya, Kec. Duripoku, Kab. Pasangkayu, Sulawesi Barat 91573","Saptanajaya, Kec. Duripoku, Kab. Pasangkayu",SULAWESI BARAT,91573.0,Indonesia,,,,-1.6427491,119.3777523,https://maps.google.com/?cid=0x0:0x943ab30891d87bb7,
perumahan,perumahan,Kec. Lariang,"Kab. Pasangkayu, Sulawesi Barat","Kab. Pasangkayu, Sulawesi Barat",SULAWESI BARAT,,Indonesia,,,,-1.4747552,119.3681607,https://maps.google.com/?cid=0x0:0x9800acb19cdd3433,
perumahan,Pembangunan Perumahan,Rumah Ketut Sudarya,"G9G8+2GH, Parabu, Kec. Lariang, Kab. Pasangkayu, Sulawesi Barat 91572","Parabu, Kec. Lariang, Kab. Pasangkayu",SULAWESI BARAT,91572.0,Indonesia,,,,-1.4756164,119.3660554,https://maps.google.com/?cid=0x0:0xf1a73c151eca8e13,
perumahan,Komplek perumahan,KELUARGA BESAR TAHIRUDDIN,"H7JV+9C, Bambakoro, Kec. Lariang, Kab. Pasangkayu, Sulawesi Barat","Kab. Pasangkayu, Sulawesi Barat",SULAWESI BARAT,,Indonesia,,,,-1.4190094,119.2935077,https://maps.google.com/?cid=0x0:0x367a3922821336a2,
perumahan,Komplek perumahan,Perumahan nelayan,"H77X+485, Bambakoro, Kec. Lariang, Kab. Pasangkayu, Sulawesi Barat","Kab. Pasangkayu, Sulawesi Barat",SULAWESI BARAT,,Indonesia,81244383848.0,,,-1.4372441,119.2983689,https://maps.google.com/?cid=0x0:0x8852e2222904e582,
perumahan,perumahan,Rumah üè† Muhammad al khalifi,"G9H5+28Q, Kenangan, Kec. Lariang, Kab. Pasangkayu, Sulawesi Barat 91572","Kenangan, Kec. Lariang, Kab. Pasangkayu",SULAWESI BARAT,91572.0,Indonesia,,,,-1.4724122,119.3583615,https://maps.google.com/?cid=0x0:0x32e885171f16fb6d,
perumahan,Komplek perumahan,Rumah AFIF,"G9G9+F4M, Parabu, Kec. Lariang, Kab. Pasangkayu, Sulawesi Barat 91572","Parabu, Kec. Lariang, Kab. Pasangkayu",SULAWESI BARAT,91572.0,Indonesia,,,,-1.4737861,119.3677991,https://maps.google.com/?cid=0x0:0x91a6f65abb6dfc37,
perumahan,Pembangunan Perumahan,Jalsit Seluler,"H869+JX6, Bambakoro, Kec. Lariang, Kab. Pasangkayu, Sulawesi Barat 91572","Bambakoro, Kec. Lariang, Kab. Pasangkayu",SULAWESI BARAT,91572.0,Indonesia,,,,-1.4384727,119.3198819,https://maps.google.com/?cid=0x0:0x12a4b8d6ffe41a62,
perumahan,Komplek perumahan,Sul,"H77X+CH, Bambakoro, Kec. Lariang, Kab. Pasangkayu, Sulawesi Barat","Kab. Pasangkayu, Sulawesi Barat",SULAWESI BARAT,,Indonesia,,,,-1.436408,119.298943,https://maps.google.com/?cid=0x0:0x53ba0c1efef958f2,
perumahan,Komplek perumahan,Rumah NI PUTU DIAN MEGAWATI,"G9G8+2GH, Parabu, Kec. Lariang, Kab. Pasangkayu, Sulawesi Barat 91572","Parabu, Kec. Lariang, Kab. Pasangkayu",SULAWESI BARAT,91572.0,Indonesia,,,,-1.4751899,119.3662592,https://maps.google.com/?cid=0x0:0x3864c13a14a4e997,
perumahan,Komplek perumahan,RUMAH SULFADLI,"H77X+FGH, Bambakoro, Kec. Lariang, Kab. Pasangkayu, Sulawesi Barat","Kab. Pasangkayu, Sulawesi Barat",SULAWESI BARAT,,Indonesia,,,,-1.4363143,119.2988584,https://maps.google.com/?cid=0x0:0xdbf880104db5a14c,
perumahan,Pusat Perbelanjaan,Ruko,"G877+693, Singgani, Kec. Lariang, Kab. Pasangkayu, Sulawesi Barat 91572","Singgani, Kec. Lariang, Kab. Pasangkayu",SULAWESI BARAT,91572.0,Indonesia,,,,-1.4869906,119.3134183,https://maps.google.com/?cid=0x0:0x1cf42fbaf714b880,
perumahan,Komplek perumahan,Rumah Keluarga Bpk Paulus J,"H9C4+629, Lariang, Kec. Tikke Raya, Mamuju, Sulawesi Barat 91571","Lariang, Kec. Tikke Raya, Mamuju",SULAWESI BARAT,91571.0,Indonesia,,,,-1.429401,119.3551644,https://maps.google.com/?cid=0x0:0xd0687a9854e006b7,
perumahan,Komplek perumahan,Fikri,"H855+R29, Tanjung Harapan, Bambakoro","Kab. Pasangkayu, Sulawesi Barat",SULAWESI BARAT,,Indonesia,,,,-1.4404559,119.3076098,https://maps.google.com/?cid=0x0:0x61917445ddb7c8dc,
perumahan,Komplek perumahan,Rumah tinggal,"G9GC+24X, G9G9+6VJParabuKec. LariangKab, Parabu, Kec. Lariang, Kab. Pasangkayu, Sulawesi Barat","Kab. Pasangkayu, Sulawesi Barat",SULAWESI BARAT,,Indonesia,,,,-1.4748767,119.3703517,https://maps.google.com/?cid=0x0:0xeb367d7291421a78,
perumahan,Komplek perumahan,Rumah ikram,"G9J5+55V, Unnamed Road, Kenangan, Kec. Lariang, Kab. Pasangkayu, Sulawesi Barat 91572","Unnamed Road, Kenangan, Kec. Lariang, Kab. Pasangkayu",SULAWESI BARAT,91572.0,Indonesia,,,,-1.4695184,119.3579266,https://maps.google.com/?cid=0x0:0xc7dd1874f8f495e0,
perumahan,Otoritas Perumahan,Rumah Pak Nyoman Sukandra,"GCM9+M63, Jl. Cendrawasih, Lilimori, Kec. Bulu Taba, Kab. Pasangkayu, Sulawesi Barat 91572","Jl. Cendrawasih, Lilimori, Kec. Bulu Taba, Kab. Pasangkayu",SULAWESI BARAT,91572.0,Indonesia,,,,-1.4658553,119.4180559,https://maps.google.com/?cid=0x0:0xdf9c77068c050447,
perumahan,Komplek perumahan,Kadek wie,"G949+7Q, Bajawali, Kec. Lariang, Kab. Pasangkayu, Sulawesi Barat","Kab. Pasangkayu, Sulawesi Barat",SULAWESI BARAT,,Indonesia,,,,-1.4943625,119.3695626,https://maps.google.com/?cid=0x0:0xf3579f68d705ea96,
perumahan,Komplek perumahan,Rumahnya EL,"GCF7+RVM, Lilimori, Kec. Bulu Taba, Kab. Pasangkayu, Sulawesi Barat 91572","Lilimori, Kec. Bulu Taba, Kab. Pasangkayu",SULAWESI BARAT,91572.0,Indonesia,,,,-1.4754207,119.4146705,https://maps.google.com/?cid=0x0:0xe8d6afc6a7bc92ab,
perumahan,Komplek perumahan,Tempat istirahat,"G9QG+GC8, Kulu, Kec. Lariang, Kab. Pasangkayu, Sulawesi Barat 91572","Kulu, Kec. Lariang, Kab. Pasangkayu",SULAWESI BARAT,91572.0,Indonesia,,,,-1.4612006,119.3760883,https://maps.google.com/?cid=0x0:0xeff8d90304159015,
perumahan,Komplek perumahan,Kadek sunarto home,"G9G5+89J, Kenangan, Kec. Lariang, Kab. Pasangkayu, Sulawesi Barat 91572","Kenangan, Kec. Lariang, Kab. Pasangkayu",SULAWESI BARAT,91572.0,Indonesia,,,,-1.4746528,119.3575367,https://maps.google.com/?cid=0x0:0x12b0cc91b5ea66e8,
perumahan,Komplek perumahan,Anci home,"H9F4+362, Lariang, Kec. Tikke Raya, Kab. Pasangkayu, Sulawesi Barat","Kab. Pasangkayu, Sulawesi Barat",SULAWESI BARAT,,Indonesia,,,,-1.4273602,119.3555046,https://maps.google.com/?cid=0x0:0x2d9851b2dfda350c,
perumahan,Komplek perumahan,Karta‚Äôs house,"GCM9+4FJ, Lilimori, Kec. Bulu Taba, Kab. Pasangkayu, Sulawesi Barat 91572","Lilimori, Kec. Bulu Taba, Kab. Pasangkayu",SULAWESI BARAT,91572.0,Indonesia,,,,-1.4670737,119.4185963,https://maps.google.com/?cid=0x0:0x19bb6fd391435aa4,
perumahan,perumahan,Sulawesi Barat 91571,"Kab. Pasangkayu, Sulawesi Barat","Kab. Pasangkayu, Sulawesi Barat",SULAWESI BARAT,,Indonesia,,,,-1.2916992,119.3714909,https://maps.google.com/?cid=0x0:0x12640eefba628a12,
perumahan,Komplek perumahan,Perumahan,"R9C3+QHG, Jl. Durian, Pasangkayu, Kec. Pasangkayu, Kab. Pasangkayu, Sulawesi Barat 91571","Jl. Durian, Pasangkayu, Kec. Pasangkayu, Kab. Pasangkayu",SULAWESI BARAT,91571.0,Indonesia,,,,-1.1780629,119.3539379,https://maps.google.com/?cid=0x0:0xcf78454d6831c9bd,
perumahan,Komplek perumahan,Rumah barra,"QFG8+CF, Gn. Sari, Kec. Pasangkayu, Kab. Pasangkayu, Sulawesi Barat 91571","Gn. Sari, Kec. Pasangkayu, Kab. Pasangkayu",SULAWESI BARAT,91571.0,Indonesia,,,,-1.2239994,119.4661323,https://maps.google.com/?cid=0x0:0x1fd9a121a2e16b3a,
perumahan,Komplek perumahan,Kota Pasangkayu Sulawesi Barat Indonesia,"R9F7+X3W, Jl. Andi Depu, Pasangkayu, Kec. Pasangkayu, Kab. Pasangkayu, Sulawesi Barat","Kab. Pasangkayu, Sulawesi Barat",SULAWESI BARAT,,Indonesia,,,,-1.1750008,119.3627019,https://maps.google.com/?cid=0x0:0x348a006983980bc,
perumahan,Komplek perumahan,Rumah nya mukmin,"R8FR+V5G, Pasangkayu, Kec. Pasangkayu, Kab. Pasangkayu, Sulawesi Barat 91571","Pasangkayu, Kec. Pasangkayu, Kab. Pasangkayu",SULAWESI BARAT,91571.0,Indonesia,,,,-1.1753134,119.3404614,https://maps.google.com/?cid=0x0:0xdf79179f11d0cc76,
perumahan,Komplek perumahan,Perumahan Green City Pasangkayu,"R82R+9P9, Karya Bersama, Kec. Pasangkayu, Kab. Pasangkayu, Sulawesi Barat 91571","Karya Bersama, Kec. Pasangkayu, Kab. Pasangkayu",SULAWESI BARAT,91571.0,Indonesia,,,,-1.1990973,119.3418448,https://maps.google.com/?cid=0x0:0x92fa79a250ab897c,
perumahan,Komplek perumahan,Perumahan Btn Pasangkayu,"R9GJ+QMM, Pasangkayu, Kec. Pasangkayu, Kab. Pasangkayu, Sulawesi Barat 91574","Pasangkayu, Kec. Pasangkayu, Kab. Pasangkayu",SULAWESI BARAT,91574.0,Indonesia,,,,-1.1730462,119.3816766,https://maps.google.com/?cid=0x0:0x3e878113d757e9a7,
perumahan,Komplek perumahan,Home Arsya aulia,"R984+4FH, Jl. Gatot Subroto, Pasangkayu, Kec. Pasangkayu, Kab. Pasangkayu, Sulawesi Barat 91571","Jl. Gatot Subroto, Pasangkayu, Kec. Pasangkayu, Kab. Pasangkayu",SULAWESI BARAT,91571.0,Indonesia,,,,-1.1846942,119.3562268,https://maps.google.com/?cid=0x0:0xe5fb525306991139,
perumahan,perumahan,RUMAH ANGGA,"R9G5+3Q9, Pasangkayu, Kec. Pasangkayu, Kab. Pasangkayu, Sulawesi Barat 91574","Pasangkayu, Kec. Pasangkayu, Kab. Pasangkayu",SULAWESI BARAT,91574.0,Indonesia,,,,-1.1748643,119.3595606,https://maps.google.com/?cid=0x0:0xee54dbc86b72d827,
perumahan,Komplek perumahan,PERUMAHAN Salunggadue,"R87V+R6R, Jl. Gn. Latimojong, Pasangkayu, Kec. Pasangkayu, Kab. Pasangkayu, Sulawesi Barat 91571","Jl. Gn. Latimojong, Pasangkayu, Kec. Pasangkayu, Kab. Pasangkayu",SULAWESI BARAT,91571.0,Indonesia,,,,-1.1853835,119.3430268,https://maps.google.com/?cid=0x0:0x68c337dac23fd73c,
perumahan,perumahan,rumah iyan,"R88V+3GF, Jl. Gn. Latimojong, Pasangkayu, Kec. Pasangkayu, Kab. Pasangkayu, Sulawesi Barat 91571","Jl. Gn. Latimojong, Pasangkayu, Kec. Pasangkayu, Kab. Pasangkayu",SULAWESI BARAT,91571.0,Indonesia,,,,-1.1848106,119.3437901,https://maps.google.com/?cid=0x0:0x8893690eae291e1f,
perumahan,Komplek perumahan,PASANGKAYU,"R9F5+8QW, Pasangkayu, Kec. Pasangkayu, Kab. Pasangkayu, Sulawesi Barat","Kab. Pasangkayu, Sulawesi Barat",SULAWESI BARAT,,Indonesia,,,,-1.1766258,119.3594637,https://maps.google.com/?cid=0x0:0xddec3580376ec0bc,
perumahan,Komplek perumahan,Rumah DAHNIAL,"R9HF+98X, Pasangkayu, Kec. Pasangkayu, Kab. Pasangkayu, Sulawesi Barat","Kab. Pasangkayu, Sulawesi Barat",SULAWESI BARAT,,Indonesia,,,,-1.1715212,119.3733699,https://maps.google.com/?cid=0x0:0x599a8ea38f9b15f0,
perumahan,Kantor Perusahaan,ALFA PT PASANG KAYU,"Q88P+PMR, Karya Bersama, Kec. Pasangkayu, Kab. Pasangkayu, Sulawesi Barat 91571","Karya Bersama, Kec. Pasangkayu, Kab. Pasangkayu",SULAWESI BARAT,91571.0,Indonesia,,,,-1.233144,119.3366501,https://maps.google.com/?cid=0x0:0xaf5d4d7129b7eccb,
perumahan,Komplek perumahan,Rumah Obetnego,"M982+MW, Tikke, Kec. Tikke Raya, Kab. Pasangkayu, Sulawesi Barat 91571","Tikke, Kec. Tikke Raya, Kab. Pasangkayu",SULAWESI BARAT,91571.0,Indonesia,,,,-1.3329793,119.3521726,https://maps.google.com/?cid=0x0:0xd96d33c704ed2163,
perumahan,Komplek perumahan,Rumah dg sukku,"R9C4+55X, Pasangkayu, Kec. Pasangkayu, Kab. Pasangkayu, Sulawesi Barat 91571","Pasangkayu, Kec. Pasangkayu, Kab. Pasangkayu",SULAWESI BARAT,91571.0,Indonesia,,,,-1.1798069,119.3547822,https://maps.google.com/?cid=0x0:0x46ac61ef429cd0b,
perumahan,Komplek perumahan,Pemukiman,"Jl. Manggis No.1, Pasangkayu, Kec. Pasangkayu, Kab. Pasangkayu, Sulawesi Barat 91571","Pasangkayu, Kec. Pasangkayu, Kab. Pasangkayu",SULAWESI BARAT,91571.0,Indonesia,,,,-1.179332,119.356549,https://maps.google.com/?cid=0x0:0xf8a7711a345d652b,
perumahan,Komplek perumahan,Rumah Pak Ansal,"R8GV+XW, Pasangkayu, Kec. Pasangkayu, Kab. Pasangkayu, Sulawesi Barat 91571","Pasangkayu, Kec. Pasangkayu, Kab. Pasangkayu",SULAWESI BARAT,91571.0,Indonesia,,,,-1.1724253,119.3446578,https://maps.google.com/?cid=0x0:0xf6e1e090c329db2c,
perumahan,Komplek perumahan,Gria Pasangkayu Permai,"R87V+J4X, Pasangkayu, Kec. Pasangkayu, Kab. Pasangkayu, Sulawesi Barat 91571","Pasangkayu, Kec. Pasangkayu, Kab. Pasangkayu",SULAWESI BARAT,91571.0,Indonesia,,,,-1.185892,119.3428526,https://maps.google.com/?cid=0x0:0xf45d995010c103ca,
perumahan,Komplek perumahan,Rumah,"R9HF+P58, Jl. Andi Bandaco, Pasangkayu, Kec. Pasangkayu, Kab. Pasangkayu, Sulawesi Barat 91574","Jl. Andi Bandaco, Pasangkayu, Kec. Pasangkayu, Kab. Pasangkayu",SULAWESI BARAT,91574.0,Indonesia,,,,-1.1700306,119.3744175,https://maps.google.com/?cid=0x0:0xae95c83cc827f188,
perumahan,Kantor Perusahaan,Perumahan Staf D5 PT Pasangkayu,"QFJ5+JMP, Gn. Sari, Kec. Pasangkayu, Kab. Pasangkayu, Sulawesi Barat 91574","Gn. Sari, Kec. Pasangkayu, Kab. Pasangkayu",SULAWESI BARAT,91574.0,Indonesia,,,,-1.2184218,119.4592074,https://maps.google.com/?cid=0x0:0x38f1d05b909fae7d,
perumahan,Pembangunan Perumahan,Sulawesi Barat,"Q8MG+3V8, Karya Bersama, Kec. Pasangkayu, Kab. Pasangkayu, Sulawesi Barat 91571","Karya Bersama, Kec. Pasangkayu, Kab. Pasangkayu",SULAWESI BARAT,91571.0,Indonesia,,,,-1.216995,119.32768,https://maps.google.com/?cid=0x0:0x1397e7064df62479,
perumahan,Pembangunan Perumahan,Perumahan Bukit indah pasangkayu,"R8CV+8CF, Jl. Poros Majene - Mamuju, Lingkar Tanjung, Kec. Pasangkayu, Kab. Pasangkayu, Sulawesi Barat 91571","Jl. Poros Majene - Mamuju, Lingkar Tanjung, Kec. Pasangkayu, Kab. Pasangkayu",SULAWESI BARAT,91571.0,Indonesia,82247654662.0,,,-1.1791895,119.3435426,https://maps.google.com/?cid=0x0:0x785fd7e46ffe6feb,
perumahan,Komplek perumahan,Perum Karyawan Afd Charlie,"QCHM+2PW, Gn. Sari, Kec. Pasangkayu, Kab. Pasangkayu, Sulawesi Barat 91571","Gn. Sari, Kec. Pasangkayu, Kab. Pasangkayu",SULAWESI BARAT,91571.0,Indonesia,,,,-1.2223771,119.4343127,https://maps.google.com/?cid=0x0:0x749055e1e2d42a5c,
perumahan,Pembangunan Perumahan,Perumahan afd echo,"QFP3+24J PERUMAHAN AFD ECHO, Gn. Sari, Kec. Pasangkayu, Kab. Pasangkayu, Sulawesi Barat 91571","Gn. Sari, Kec. Pasangkayu, Kab. Pasangkayu",SULAWESI BARAT,91571.0,Indonesia,,,,-1.2149178,119.4527538,https://maps.google.com/?cid=0x0:0xcb52e272b7511688,
perumahan,Komplek perumahan,Posisi lahan H. Abdul Rahman,"R8HR+GRH, Pasangkayu, Kec. Pasangkayu, Kab. Pasangkayu, Sulawesi Barat 91571","Pasangkayu, Kec. Pasangkayu, Kab. Pasangkayu",SULAWESI BARAT,91571.0,Indonesia,,,,-1.1712743,119.3432235,https://maps.google.com/?cid=0x0:0x6e42cc0ea64fe4a2,
perumahan,Pembangunan Perumahan,"Najwa, Rani, Maher","Jl. Tj. Babia No.3, Pasangkayu, Kec. Pasangkayu, Kab. Pasangkayu, Sulawesi Barat 91571","Pasangkayu, Kec. Pasangkayu, Kab. Pasangkayu",SULAWESI BARAT,91571.0,Indonesia,,,,-1.1734982,119.342198,https://maps.google.com/?cid=0x0:0xd8d2ff84aa853cac,
perumahan,Perhimpunan Pengembang Perumahan,Perumahan Pamulang Residence Pasangkayu,"R9HF+P58, Jl. Moh. Hatta, Pasangkayu, Kec. Pasangkayu, Kab. Pasangkayu, Sulawesi Barat 91574","Jl. Moh. Hatta, Pasangkayu, Kec. Pasangkayu, Kab. Pasangkayu",SULAWESI BARAT,91574.0,Indonesia,85395854042.0,,,-1.1707225,119.3729671,https://maps.google.com/?cid=0x0:0x751e5c3117a052fc,
perumahan,Komplek perumahan,BTN Hans Motor Pasangkayu,"R9C5+5CG, Bar., Pasangkayu, Kec. Pasangkayu, Kab. Pasangkayu, Sulawesi Barat 91574","Bar., Pasangkayu, Kec. Pasangkayu, Kab. Pasangkayu",SULAWESI BARAT,91574.0,Indonesia,,,,-1.1795545,119.3585892,https://maps.google.com/?cid=0x0:0x71b107890cb8d7fc,
perumahan,perumahan,Pedongga,"Kab. Pasangkayu, Sulawesi Barat","Kab. Pasangkayu, Sulawesi Barat",SULAWESI BARAT,,Indonesia,,,,-1.2745455,119.3947138,https://maps.google.com/?cid=0x0:0x9cbcb3a80b2b146e,
perumahan,Pembangunan Perumahan,Perum. OC MMG/ardianto,"PFMF+JF8, Martasari, Pedongga, Kab. Pasangkayu, Sulawesi Barat","Kab. Pasangkayu, Sulawesi Barat",SULAWESI BARAT,,Indonesia,,,,-1.2659633,119.4737086,https://maps.google.com/?cid=0x0:0x3aeedc3ef8cbfc58,
perumahan,Komplek perumahan,Rumah Firlia/pak suhud,"P8MF+4R2, Malei, Pedongga, Kab. Pasangkayu, Sulawesi Barat","Kab. Pasangkayu, Sulawesi Barat",SULAWESI BARAT,,Indonesia,,,,-1.267231,119.3245094,https://maps.google.com/?cid=0x0:0x329484b3e8ba7e04,
perumahan,Pembangunan Perumahan,Muh Anwar,"P8Q6+H97, Batu Oge, Pedongga, Kab. Pasangkayu, Sulawesi Barat 91571","Batu Oge, Pedongga, Kab. Pasangkayu",SULAWESI BARAT,91571.0,Indonesia,,,,-1.2610853,119.3109354,https://maps.google.com/?cid=0x0:0x6882b4efb94e2b2c,
perumahan,Komplek perumahan,Faiz's house,"P9P2+J9Q, Pedanda, Pedongga, Kab. Pasangkayu, Sulawesi Barat 91571","Pedanda, Pedongga, Kab. Pasangkayu",SULAWESI BARAT,91571.0,Indonesia,,,,-1.2634227,119.3509974,https://maps.google.com/?cid=0x0:0xb774933763738abb,
perumahan,perumahan,Rumah fadiyah,"P9W3+CJ4, Pedanda, Pedongga, Kab. Pasangkayu, Sulawesi Barat 91571","Pedanda, Pedongga, Kab. Pasangkayu",SULAWESI BARAT,91571.0,Indonesia,,,,-1.2539891,119.3540715,https://maps.google.com/?cid=0x0:0x873ba43fa8e0bc2,
perumahan,Komplek perumahan,Rumah pak pami,"P9V2+2VM, Pedanda, Pedongga, Kab. Pasangkayu, Sulawesi Barat 91571","Pedanda, Pedongga, Kab. Pasangkayu",SULAWESI BARAT,91571.0,Indonesia,,,,-1.257406,119.3521804,https://maps.google.com/?cid=0x0:0xd9c7817f70034b5e,
perumahan,Perhimpunan Pengembang Perumahan,Gibran,"P8QG+G6, Malei, Pedongga, Kab. Pasangkayu, Sulawesi Barat","Kab. Pasangkayu, Sulawesi Barat",SULAWESI BARAT,,Indonesia,,,,-1.2611791,119.3255826,https://maps.google.com/?cid=0x0:0x80b2f0345e05c033,
perumahan,Komplek perumahan,Rumah Pak Anton,"P9F8+G22, Unnamed Road, Martasari, Pedongga, Kab. Pasangkayu, Sulawesi Barat 91571","Unnamed Road, Martasari, Pedongga, Kab. Pasangkayu",SULAWESI BARAT,91571.0,Indonesia,,,,-1.2762261,119.365013,https://maps.google.com/?cid=0x0:0x8ccdb53ddc0699f6,
perumahan,Perhimpunan Pengembang Perumahan,Pedanda,"P8JF+XFV, Unnamed Road, Malei, Pedongga, Kab. Pasangkayu, Sulawesi Barat 91571","Unnamed Road, Malei, Pedongga, Kab. Pasangkayu",SULAWESI BARAT,91571.0,Indonesia,,,,-1.2675166,119.3236826,https://maps.google.com/?cid=0x0:0x17090db064a23d52,
perumahan,Otoritas Perumahan,"Perumahan Afdeling Kilo, PT.MMG","P934+R5M, Martasari, Pedongga, Kab. Pasangkayu, Sulawesi Barat 91571","Martasari, Pedongga, Kab. Pasangkayu",SULAWESI BARAT,91571.0,Indonesia,,,,-1.2954102,119.3554347,https://maps.google.com/?cid=0x0:0xabba34edd95595f3,
perumahan,Komplek perumahan,Rumah Fahmi Al Azzam,"P9R3+3HM, Pedanda, Pedongga, Kab. Pasangkayu, Sulawesi Barat 91571","Pedanda, Pedongga, Kab. Pasangkayu",SULAWESI BARAT,91571.0,Indonesia,,,,-1.259782,119.3539241,https://maps.google.com/?cid=0x0:0x2c6c9d89d4ab8c05,
perumahan,Komplek perumahan,Firmansyah/ Itha,"PC9C+HHX, Martasari, Pedongga, Kab. Pasangkayu, Sulawesi Barat 91571","Martasari, Pedongga, Kab. Pasangkayu",SULAWESI BARAT,91571.0,Indonesia,,,,-1.2808768,119.4212921,https://maps.google.com/?cid=0x0:0xf65f90d90ae61182,
perumahan,Otoritas Perumahan,Perumahan India 3 PT Mamuang,"Unnamed Road, 91571, Martasari, Pedongga, Kab. Pasangkayu, Sulawesi Barat 91571","91571, Martasari, Pedongga, Kab. Pasangkayu",SULAWESI BARAT,91571.0,Indonesia,,,,-1.2839708,119.4296907,https://maps.google.com/?cid=0x0:0x34762bdf6da3a940,
perumahan,Komplek perumahan,Afdeling Bravo 1 PT. Mamuang,"PCP7+82Q, Martasari, Pedongga, Kab. Pasangkayu, Sulawesi Barat 91571","Martasari, Pedongga, Kab. Pasangkayu",SULAWESI BARAT,91571.0,Indonesia,,,,-1.2641689,119.4125955,https://maps.google.com/?cid=0x0:0x33e19175591b08ef,
perumahan,Perhimpunan Pengembang Perumahan,Pedanda 2,"P8MH+53H, Jl. Poros Palu - Mamuju, Malei, Pedongga, Kab. Pasangkayu, Sulawesi Barat 91571","Jl. Poros Palu - Mamuju, Malei, Pedongga, Kab. Pasangkayu",SULAWESI BARAT,91571.0,Indonesia,,,,-1.2674989,119.3285746,https://maps.google.com/?cid=0x0:0xfbc89df6c1abefaf,
perumahan,Komplek perumahan,Perumahan Charlie 2 PT. Mamuang,"PFC8+2W, Martasari, Pedongga, Kab. Pasangkayu, Sulawesi Barat","Kab. Pasangkayu, Sulawesi Barat",SULAWESI BARAT,,Indonesia,,,,-1.2800153,119.4673437,https://maps.google.com/?cid=0x0:0xe8b9b83752a246a9,
perumahan,perumahan,Sakka,"P8HG+XRJ, Pasangkayu - Baras, Malei, Pedongga, Kab. Pasangkayu, Sulawesi Barat 91571","Pasangkayu - Baras, Malei, Pedongga, Kab. Pasangkayu",SULAWESI BARAT,91571.0,Indonesia,,,,-1.2678145,119.3252533,https://maps.google.com/?cid=0x0:0x26ff53e0bd5f0db9,
perumahan,Komplek perumahan,Rumah Syafa Naisyah,"P8RF+JJW, Malei, Pedongga, Kab. Pasangkayu, Sulawesi Barat 91571","Malei, Pedongga, Kab. Pasangkayu",SULAWESI BARAT,91571.0,Indonesia,,,,-1.258097,119.324241,https://maps.google.com/?cid=0x0:0xdcc19cc1c2dd303e,
perumahan,Perhimpunan Pengembang Perumahan,Rumah Agnes Imut,"P9R2+3F6, Pedanda, Pedongga, Kab. Pasangkayu, Sulawesi Barat 91571","Pedanda, Pedongga, Kab. Pasangkayu",SULAWESI BARAT,91571.0,Indonesia,,,,-1.2586628,119.3504832,https://maps.google.com/?cid=0x0:0x7c55e63ea0975867,
perumahan,Komplek perumahan,Sotek afandi,"P9M2+J5J, Pedanda, Pedongga, Kab. Pasangkayu, Sulawesi Barat","Kab. Pasangkayu, Sulawesi Barat",SULAWESI BARAT,,Indonesia,,,,-1.265539,119.350501,https://maps.google.com/?cid=0x0:0x663489dca901a124,
perumahan,Komplek perumahan,AFD Alpha PT. Mamuang,"PCPX+3VW, Martasari, Pedongga, Kab. Pasangkayu, Sulawesi Barat 91571","Martasari, Pedongga, Kab. Pasangkayu",SULAWESI BARAT,91571.0,Indonesia,,,,-1.2647613,119.4496896,https://maps.google.com/?cid=0x0:0x150c00d65e9256b0,
perumahan,Perhimpunan Pengembang Perumahan,CAHAYA TEMPE,"P8JF+5X7, Malei, Pedongga, Kab. Pasangkayu, Sulawesi Barat 91571","Malei, Pedongga, Kab. Pasangkayu",SULAWESI BARAT,91571.0,Indonesia,81356220905.0,,,-1.2695985,119.3249147,https://maps.google.com/?cid=0x0:0x6b0a7f6d25dfe66a,
perumahan,perumahan,Sulawesi Barat 91574,"Kab. Pasangkayu, Sulawesi Barat","Kab. Pasangkayu, Sulawesi Barat",SULAWESI BARAT,,Indonesia,,,,-1.1559774,119.464359,https://maps.google.com/?cid=0x0:0x87450841cbc25162,
perumahan,Komplek perumahan,Sarjo,"M97G+PC9, Tikke, Kec. Tikke Raya, Kab. Pasangkayu, Sulawesi Barat","Kab. Pasangkayu, Sulawesi Barat",SULAWESI BARAT,,Indonesia,,,,-1.3357243,119.3761217,https://maps.google.com/?cid=0x0:0xc31bb083b62e67ce,
perumahan,Rumah Makan,RM SEDERHANA,"4G3W+M8H, Letawa, Kec. Sarjo, Kab. Pasangkayu, Sulawesi Barat 91574","Letawa, Kec. Sarjo, Kab. Pasangkayu",SULAWESI BARAT,91574.0,Indonesia,85298721015.0,,,-0.8958174,119.5458657,https://maps.google.com/?cid=0x0:0xa2c5233abb824f87,
perumahan,Komplek perumahan,Rumah Aslan,"4HH9+GRR, Sarude, Kec. Sarjo, Kab. Pasangkayu, Sulawesi Barat","Kab. Pasangkayu, Sulawesi Barat",SULAWESI BARAT,,Indonesia,,,,-0.8711422,119.5695238,https://maps.google.com/?cid=0x0:0x83cb2bc75d29f5e7,
perumahan,Komplek perumahan,Surumana,"4HH4+56P, Sarjo, Kec. Sarjo, Kab. Pasangkayu, Sulawesi Barat","Kab. Pasangkayu, Sulawesi Barat",SULAWESI BARAT,,Indonesia,,,,-0.8720471,119.5555784,https://maps.google.com/?cid=0x0:0xf48207c82990ed67,
perumahan,Komplek perumahan,Rumah Firly,"4GFW+4R, Sarjo, Kec. Sarjo, Kab. Pasangkayu, Sulawesi Barat","Kab. Pasangkayu, Sulawesi Barat",SULAWESI BARAT,,Indonesia,,,,-0.8772477,119.5471,https://maps.google.com/?cid=0x0:0xc2c5f118e4d227d1,
perumahan,Komplek perumahan,Fahri,"4HF7+X5P, Sarude, Kec. Sarjo, Kab. Pasangkayu, Sulawesi Barat","Kab. Pasangkayu, Sulawesi Barat",SULAWESI BARAT,,Indonesia,,,,-0.8750308,119.5629662,https://maps.google.com/?cid=0x0:0xc810864a87e23a8,
perumahan,Komplek perumahan,Rumah acha,"3GFG+M8V, Maponu, Kec. Sarjo, Kab. Pasangkayu, Sulawesi Barat 91574","Maponu, Kec. Sarjo, Kab. Pasangkayu",SULAWESI BARAT,91574.0,Indonesia,,,,-0.9257726,119.5257975,https://maps.google.com/?cid=0x0:0x58de504d195dbdb0,
perumahan,Perhimpunan Pengembang Perumahan,Rumah Rusman,"4HF2+R3P, Sarjo, Kec. Sarjo, Kab. Pasangkayu, Sulawesi Barat 91574","Sarjo, Kec. Sarjo, Kab. Pasangkayu",SULAWESI BARAT,91574.0,Indonesia,,,,-0.8755167,119.5502357,https://maps.google.com/?cid=0x0:0x1d6fd01b34f2165b,
perumahan,Komplek perumahan,Indo sora,"4HH4+56P, Sarjo, Kec. Sarjo, Kab. Pasangkayu, Sulawesi Barat","Kab. Pasangkayu, Sulawesi Barat",SULAWESI BARAT,,Indonesia,,,,-0.8720471,119.5555784,https://maps.google.com/?cid=0x0:0x89c7789bc15081e6,
perumahan,Komplek perumahan,Herman,"4HF7+X5P, Sarude, Kec. Sarjo, Kab. Pasangkayu, Sulawesi Barat","Kab. Pasangkayu, Sulawesi Barat",SULAWESI BARAT,,Indonesia,,,,-0.8750308,119.5629662,https://maps.google.com/?cid=0x0:0x1ecbb1372fa462b9,
perumahan,Komplek perumahan,Asri,"Sarude, Kec. Sarjo, Kab. Pasangkayu, Sulawesi Barat 94351","Kec. Sarjo, Kab. Pasangkayu",SULAWESI BARAT,94351.0,Indonesia,82349522793.0,,,-0.8729146,119.5690902,https://maps.google.com/?cid=0x0:0xf14650789c8b63b9,
perumahan,Agen Persewaan Rumah Peristirahatan,Rumah Boss Koes,"4GCW+23P, Sarjo, Kec. Sarjo, Kab. Pasangkayu, Sulawesi Barat 91574","Sarjo, Kec. Sarjo, Kab. Pasangkayu",SULAWESI BARAT,91574.0,Indonesia,,,,-0.8799082,119.5451996,https://maps.google.com/?cid=0x0:0xc252147d4aab4e06,
perumahan,Komplek perumahan,ARMY RASYA,"4HF5+X5R, Sarude, Kec. Sarjo, Kab. Pasangkayu, Sulawesi Barat 94362","Sarude, Kec. Sarjo, Kab. Pasangkayu",SULAWESI BARAT,94362.0,Indonesia,,,,-0.8750237,119.5578808,https://maps.google.com/?cid=0x0:0xab9c8c4f8aafcc89,
perumahan,Kantor Pemerintah,Rumah Jabatan Camat Sarjo,"4HH3+MR3, Sarjo, Kec. Sarjo, Kab. Pasangkayu, Sulawesi Barat 91574","Sarjo, Kec. Sarjo, Kab. Pasangkayu",SULAWESI BARAT,91574.0,Indonesia,,,,-0.8708398,119.5547981,https://maps.google.com/?cid=0x0:0xb08d2a0aa4e38c2c,
perumahan,Perhimpunan Pengembang Perumahan,Salwah Samil,"4HF2+R3P, Sarjo, Kec. Sarjo, Kab. Pasangkayu, Sulawesi Barat 91574","Sarjo, Kec. Sarjo, Kab. Pasangkayu",SULAWESI BARAT,91574.0,Indonesia,,,,-0.8753119,119.5502555,https://maps.google.com/?cid=0x0:0x3fc11fc371ecc54b,
perumahan,Otoritas Perumahan,Letawa,"3HR2+JGH, Letawa, Kec. Sarjo, Kab. Pasangkayu, Sulawesi Barat","Kab. Pasangkayu, Sulawesi Barat",SULAWESI BARAT,,Indonesia,,,,-0.9084322,119.5513689,https://maps.google.com/?cid=0x0:0x3bd5a89112347531,
perumahan,Komplek perumahan,RUMAH SLAMET/ ERNA WATI,"3G8G+82, Maponu, Kec. Sarjo, Kab. Pasangkayu, Sulawesi Barat","Kab. Pasangkayu, Sulawesi Barat",SULAWESI BARAT,,Indonesia,,,,-0.934232,119.5250776,https://maps.google.com/?cid=0x0:0xca1f0035d2950874,
perumahan,Komplek perumahan,Keluarga besar Sulaiman (Pua Calu),"4HJ3+4H9 penjual ayam potong, Sendana, Depan, Sarjo, Kec. Sarjo, Kab. Pasangkayu, Sulawesi Barat","Kab. Pasangkayu, Sulawesi Barat",SULAWESI BARAT,,Indonesia,,,,-0.8697176,119.5539731,https://maps.google.com/?cid=0x0:0x7fc9312936e077a7,
perumahan,Komplek perumahan,TANAH MILIK KELUARGA BESAR ALM.SUBEHI,"4G8R+26, Letawa, Kec. Sarjo, Kab. Pasangkayu, Sulawesi Barat","Kab. Pasangkayu, Sulawesi Barat",SULAWESI BARAT,,Indonesia,,,,-0.8849201,119.540572,https://maps.google.com/?cid=0x0:0x7e58afb9088db8ca,
perumahan,Komplek perumahan,Rumah Darman,"4G9X+R78, Sarjo, Kec. Sarjo, Kab. Pasangkayu, Sulawesi Barat 91574","Sarjo, Kec. Sarjo, Kab. Pasangkayu",SULAWESI BARAT,91574.0,Indonesia,,,,-0.8805319,119.5492641,https://maps.google.com/?cid=0x0:0xb587959473816587,
perumahan,Komplek perumahan,H AHMAD,"4GFX+495, Dusun Tangnga-Tangnga, Sarjo, Kec. Sarjo, Kab. Pasangkayu, Sulawesi Barat 91574","Dusun Tangnga-Tangnga, Sarjo, Kec. Sarjo, Kab. Pasangkayu",SULAWESI BARAT,91574.0,Indonesia,,,,-0.8772368,119.5484694,https://maps.google.com/?cid=0x0:0x7aa71345878a18ea,
perumahan,Komplek perumahan,Naim's Home,"4HG8+RRW, Sarude, Kec. Sarjo, Kab. Pasangkayu, Sulawesi Barat 94351","Sarude, Kec. Sarjo, Kab. Pasangkayu",SULAWESI BARAT,94351.0,Indonesia,,,,-0.8732197,119.5675587,https://maps.google.com/?cid=0x0:0x5638c5e7c042735c,
perumahan,Restoran,Rumah makan Pa'De,"887R+7P9, Bulu Mario, Kec. Sarudu, Kab. Pasangkayu, Sulawesi Barat 91573","Bulu Mario, Kec. Sarudu, Kab. Pasangkayu",SULAWESI BARAT,91573.0,Indonesia,,,,-1.6868425,119.3418613,https://maps.google.com/?cid=0x0:0x68bb5bfd7d095c0b,
perumahan,Padang,BAKSO PAK' DE,"78J5+QXW, Sarudu, Kec. Sarudu, Kab. Pasangkayu, Sulawesi Barat","Kab. Pasangkayu, Sulawesi Barat",SULAWESI BARAT,,Indonesia,,,,-1.7182995,119.3095602,https://maps.google.com/?cid=0x0:0xf1ce82d4800e9809,
perumahan,Padang,Warung DWi,"885R+WPF, Bulu Mario, Kec. Sarudu, Kab. Pasangkayu, Sulawesi Barat 91573","Bulu Mario, Kec. Sarudu, Kab. Pasangkayu",SULAWESI BARAT,91573.0,Indonesia,,,,-1.6901775,119.3417898,https://maps.google.com/?cid=0x0:0xc3ad416178902aad,
perumahan,Perhimpunan Pengembang Perumahan,Perumahan SMPN 4 Sarudu,"889V+8RW, Bulu Mario, Kec. Sarudu, Kab. Pasangkayu, Sulawesi Barat 91573","Bulu Mario, Kec. Sarudu, Kab. Pasangkayu",SULAWESI BARAT,91573.0,Indonesia,82291583010.0,,,-1.6816295,119.3445633,https://maps.google.com/?cid=0x0:0x6905b9c2a792046d,
perumahan,Perhimpunan Pengembang Perumahan,Jalan rambutan barat,"885Q+RP4, Bulu Mario, Kec. Sarudu, Kab. Pasangkayu, Sulawesi Barat 91573","Bulu Mario, Kec. Sarudu, Kab. Pasangkayu",SULAWESI BARAT,91573.0,Indonesia,,,,-1.6904828,119.339343,https://maps.google.com/?cid=0x0:0x44dadf1b15549bf3,
perumahan,Komplek perumahan,Rumah pak stevanus suri moi,"888P+X7M, Bulu Mario, Kec. Sarudu, Kab. Pasangkayu, Sulawesi Barat 91573","Bulu Mario, Kec. Sarudu, Kab. Pasangkayu",SULAWESI BARAT,91573.0,Indonesia,,,,-1.6823476,119.3362062,https://maps.google.com/?cid=0x0:0xcca6550f56cb7866,
perumahan,Komplek perumahan,Wafa,"78M9+28J, Sarudu, Kec. Sarudu, Kab. Pasangkayu, Sulawesi Barat 91573","Sarudu, Kec. Sarudu, Kab. Pasangkayu",SULAWESI BARAT,91573.0,Indonesia,,,,-1.7175708,119.3181207,https://maps.google.com/?cid=0x0:0xc578713999f06989,
perumahan,Komplek perumahan,Rumah Syaefurohman,"886V+393 sebelah kiri mushollah Al Anshor, Dusun Tri Tunggal, Lrg 2 Timur Jl. Merpati, Bulu Mario, Kec. Sarudu, Kab. Pasangkayu, Sulawesi Barat 91573","Dusun Tri Tunggal, Lrg 2 Timur Jl. Merpati, Bulu Mario, Kec. Sarudu, Kab. Pasangkayu",SULAWESI BARAT,91573.0,Indonesia,,,,-1.6898504,119.343435,https://maps.google.com/?cid=0x0:0x2ac0ee200d7466a4,
perumahan,Komplek perumahan,Rumah fiq,"78QP+HX4, Kumasari, Kec. Sarudu, Kab. Pasangkayu, Sulawesi Barat 91573","Kumasari, Kec. Sarudu, Kab. Pasangkayu",SULAWESI BARAT,91573.0,Indonesia,,,,-1.711112,119.3374651,https://maps.google.com/?cid=0x0:0xff5a57529604bd66,
perumahan,Pembangunan Perumahan,TPQ,"88GP+GMJ, Bulu Mario, Kec. Sarudu, Kab. Pasangkayu, Sulawesi Barat 91573","Bulu Mario, Kec. Sarudu, Kab. Pasangkayu",SULAWESI BARAT,91573.0,Indonesia,,,,-1.6736559,119.3366501,https://maps.google.com/?cid=0x0:0x7e298a8c4f0c909d,
perumahan,Komplek perumahan,Rumah Suprionto,"874V+55R, Sarudu, Kec. Sarudu, Kab. Pasangkayu, Sulawesi Barat 91573","Sarudu, Kec. Sarudu, Kab. Pasangkayu",SULAWESI BARAT,91573.0,Indonesia,,,,-1.6945104,119.2929012,https://maps.google.com/?cid=0x0:0xc944484c6730b3e0,
perumahan,Komplek perumahan,G. Starboi,"889V+2V5, Bulu Mario, Kec. Sarudu, Kab. Pasangkayu, Sulawesi Barat 91573","Bulu Mario, Kec. Sarudu, Kab. Pasangkayu",SULAWESI BARAT,91573.0,Indonesia,,,,-1.6824768,119.3447255,https://maps.google.com/?cid=0x0:0xa9b63d8e41e12987,
perumahan,Komplek perumahan,Rumah ff,"78RM+WQ5, Kumasari, Kec. Sarudu, Kab. Pasangkayu, Sulawesi Barat 91573","Kumasari, Kec. Sarudu, Kab. Pasangkayu",SULAWESI BARAT,91573.0,Indonesia,,,,-1.7077446,119.3344978,https://maps.google.com/?cid=0x0:0x2515341f52664b35,
perumahan,Komplek perumahan,Lorong SD nunu,"873W+C5M, Dusun sempo, Sarudu, Kec. Sarudu, Kab. Pasangkayu, Sulawesi Barat 91573","Dusun sempo, Sarudu, Kec. Sarudu, Kab. Pasangkayu",SULAWESI BARAT,91573.0,Indonesia,,,,-1.6964987,119.2951563,https://maps.google.com/?cid=0x0:0xeb5bd8ed2ef6136f,
perumahan,Perhimpunan Pengembang Perumahan,Pantai,"9844+47G, Jl. Poros Majene - Mamuju, Doda, Kec. Sarudu, Kab. Pasangkayu, Sulawesi Barat 91573","Jl. Poros Majene - Mamuju, Doda, Kec. Sarudu, Kab. Pasangkayu",SULAWESI BARAT,91573.0,Indonesia,,,,-1.6450312,119.3050513,https://maps.google.com/?cid=0x0:0x7d8368cc780b9419,
perumahan,Komplek perumahan,Rumah nya jinul,"887Q+CV6, Jl. Belimbing, Bulu Mario, Kec. Sarudu, Kab. Pasangkayu, Sulawesi Barat 91573","Jl. Belimbing, Bulu Mario, Kec. Sarudu, Kab. Pasangkayu",SULAWESI BARAT,91573.0,Indonesia,,,,-1.6864562,119.3396265,https://maps.google.com/?cid=0x0:0x236d9d190aa0a886,
perumahan,Komplek perumahan,Pak awan/Mama adit,"887W+666, Bulu Mario, Kec. Sarudu, Kab. Pasangkayu, Sulawesi Barat 91573","Bulu Mario, Kec. Sarudu, Kab. Pasangkayu",SULAWESI BARAT,91573.0,Indonesia,,,,-1.6864693,119.3450641,https://maps.google.com/?cid=0x0:0x616afb1ebe320608,
perumahan,Komplek perumahan,Simpan tiga tana Moni...,"78J8+3H4, Sarudu, Kec. Sarudu, Kab. Pasangkayu, Sulawesi Barat 91573","Sarudu, Kec. Sarudu, Kab. Pasangkayu",SULAWESI BARAT,91573.0,Indonesia,,,,-1.7198574,119.3164385,https://maps.google.com/?cid=0x0:0x5d44014c1c0beddf,
perumahan,Komplek perumahan,Rumah Pondeng,"78R3+R68, Sarudu, Kec. Sarudu, Kab. Pasangkayu, Sulawesi Barat 91573","Sarudu, Kec. Sarudu, Kab. Pasangkayu",SULAWESI BARAT,91573.0,Indonesia,,,,-1.7079659,119.3030778,https://maps.google.com/?cid=0x0:0x7b60a5cf2719fea4,
perumahan,Komplek perumahan,Lukas Naku,"78WW+PWR, Kumasari, Kec. Sarudu, Kab. Pasangkayu, Sulawesi Barat 91573","Kumasari, Kec. Sarudu, Kab. Pasangkayu",SULAWESI BARAT,91573.0,Indonesia,,,,-1.702738,119.346535,https://maps.google.com/?cid=0x0:0xe4e110eae7b17b00,
perumahan,Kios,KIOS TANI SEJAHTERA,"873V+3W7, Sarudu, Kec. Sarudu, Kab. Pasangkayu, Sulawesi Barat 91573","Sarudu, Kec. Sarudu, Kab. Pasangkayu",SULAWESI BARAT,91573.0,Indonesia,,,,-1.6973427,119.2947894,https://maps.google.com/?cid=0x0:0xebd58aeee4cf809e,
perumahan,perumahan,Kios Triple R ABRAIN,"889R+5FR, Kompleks pasar SP1, Bulu Mario, Kec. Sarudu, Kab. Pasangkayu, Sulawesi Barat 91573","Kompleks pasar SP1, Bulu Mario, Kec. Sarudu, Kab. Pasangkayu",SULAWESI BARAT,91573.0,Indonesia,,,,-1.6820101,119.3411343,https://maps.google.com/?cid=0x0:0xb582e5bb34566847,
perumahan,Komplek perumahan,Maspul,"88CR+2P6, Bulu Mario, Kec. Sarudu, Kab. Pasangkayu, Sulawesi Barat 91573","Bulu Mario, Kec. Sarudu, Kab. Pasangkayu",SULAWESI BARAT,91573.0,Indonesia,,,,-1.6799592,119.3417523,https://maps.google.com/?cid=0x0:0x112be05e02d246de,
perumahan,Komplek perumahan,Rumah pak dusun sempo utara,"872W+GJW, Sarudu, Kec. Sarudu, Kab. Pasangkayu, Sulawesi Barat 91573","Sarudu, Kec. Sarudu, Kab. Pasangkayu",SULAWESI BARAT,91573.0,Indonesia,,,,-1.6983265,119.2968776,https://maps.google.com/?cid=0x0:0xd44ec7b06212b005,
perumahan,Perhimpunan Pengembang Perumahan,RUMAHNYA SULTAN S.SOS,"877R+QG8, Sarudu, Kec. Sarudu, Kab. Pasangkayu, Sulawesi Barat 91573","Sarudu, Kec. Sarudu, Kab. Pasangkayu",SULAWESI BARAT,91573.0,Indonesia,822918950377.0,,,-1.6855926,119.291314,https://maps.google.com/?cid=0x0:0x1c3d40b658c908d3,
perumahan,perumahan,Sulawesi Barat 91571,"Kab. Pasangkayu, Sulawesi Barat","Kab. Pasangkayu, Sulawesi Barat",SULAWESI BARAT,,Indonesia,,,,-1.2916992,119.3714909,https://maps.google.com/?cid=0x0:0x12640eefba628a12,
perumahan,Kantor SIM,tikke raya,"M97G+PC5, Tikke, Kec. Tikke Raya, Kab. Pasangkayu, Sulawesi Barat","Kab. Pasangkayu, Sulawesi Barat",SULAWESI BARAT,,Indonesia,,,,-1.3357332,119.3761201,https://maps.google.com/?cid=0x0:0x92620c53e6dba53a,
perumahan,Komplek perumahan,Rumah Obetnego,"M982+MW, Tikke, Kec. Tikke Raya, Kab. Pasangkayu, Sulawesi Barat 91571","Tikke, Kec. Tikke Raya, Kab. Pasangkayu",SULAWESI BARAT,91571.0,Indonesia,,,,-1.3329793,119.3521726,https://maps.google.com/?cid=0x0:0xd96d33c704ed2163,
perumahan,Komplek perumahan,Rumah Pa'Madika,"M982+MW, Tikke, Kec. Tikke Raya, Kab. Pasangkayu, Sulawesi Barat 91571","Tikke, Kec. Tikke Raya, Kab. Pasangkayu",SULAWESI BARAT,91571.0,Indonesia,,,,-1.3325807,119.3519651,https://maps.google.com/?cid=0x0:0x165b5806b38f8b4d,
perumahan,Pembangunan Perumahan,Rehan,"M985+9XJ, Tikke, Kec. Tikke Raya, Kab. Pasangkayu, Sulawesi Barat 91571","Tikke, Kec. Tikke Raya, Kab. Pasangkayu",SULAWESI BARAT,91571.0,Indonesia,,,,-1.3340353,119.3598782,https://maps.google.com/?cid=0x0:0x3261c4293d107d3,
perumahan,Pembangunan Perumahan,Perepatan tikke,"M97G+PC5, Tikke, Kec. Tikke Raya, Kab. Pasangkayu, Sulawesi Barat 91571","Tikke, Kec. Tikke Raya, Kab. Pasangkayu",SULAWESI BARAT,91571.0,Indonesia,,,,-1.3357332,119.3761201,https://maps.google.com/?cid=0x0:0xbd0156a7e937a760,
perumahan,perumahan,Agus Ayu,"R9C4+55X, Pasangkayu, Kec. Pasangkayu, Kab. Pasangkayu, Sulawesi Barat 91571","Pasangkayu, Kec. Pasangkayu, Kab. Pasangkayu",SULAWESI BARAT,91571.0,Indonesia,,,,-1.179939,119.3547201,https://maps.google.com/?cid=0x0:0x8b2f56542a529c43,
perumahan,Perumahan,Rumah Muhammad Sauki,"M9C7+Q86, Tikke, Kec. Tikke Raya, Kab. Pasangkayu, Sulawesi Barat 91571","Tikke, Kec. Tikke Raya, Kab. Pasangkayu",SULAWESI BARAT,91571.0,Indonesia,,,,-1.328099,119.3632502,https://maps.google.com/?cid=0x0:0x52163aa3afd55a29,
perumahan,perumahan,Rumah Manda,"J9W5+JR8, Jengeng Raya, Kec. Tikke Raya, Kab. Pasangkayu, Sulawesi Barat 91571","Jengeng Raya, Kec. Tikke Raya, Kab. Pasangkayu",SULAWESI BARAT,91571.0,Indonesia,,,,-1.3527882,119.3605666,https://maps.google.com/?cid=0x0:0x844d8bcd84e62030,
perumahan,Pembangunan Perumahan,Joni pranata Jengeng raya kecamatan Tikke raya kabupaten Pasangkayu Sulawesi barat,"J9XG+CV, Jengeng Raya, Kec. Tikke Raya, Kab. Pasangkayu, Sulawesi Barat","Kab. Pasangkayu, Sulawesi Barat",SULAWESI BARAT,,Indonesia,,,,-1.3514163,119.3771746,https://maps.google.com/?cid=0x0:0xc0ad71578f1d9c12,
perumahan,Komplek perumahan,Rumah Keluarga Bpk Paulus J,"H9C4+629, Lariang, Kec. Tikke Raya, Mamuju, Sulawesi Barat 91571","Lariang, Kec. Tikke Raya, Mamuju",SULAWESI BARAT,91571.0,Indonesia,,,,-1.429401,119.3551644,https://maps.google.com/?cid=0x0:0xd0687a9854e006b7,
perumahan,perumahan,Rumah anto,"MCFM+3CX, Makmur Jaya, Kec. Tikke Raya, Kab. Pasangkayu, Sulawesi Barat","Kab. Pasangkayu, Sulawesi Barat",SULAWESI BARAT,,Indonesia,,,,-1.3272619,119.4336216,https://maps.google.com/?cid=0x0:0x9b2a45016ae52dce,
perumahan,Pusat Perbelanjaan,Irma,"H993+GX2, Lariang, Kec. Tikke Raya, Kab. Pasangkayu, Sulawesi Barat 91571","Lariang, Kec. Tikke Raya, Kab. Pasangkayu",SULAWESI BARAT,91571.0,Indonesia,,,,-1.4315817,119.3536395,https://maps.google.com/?cid=0x0:0xe571ad3f41e22e96,
perumahan,Kantor Perusahaan,Pabrik PT.Letawa,"MC9H+78M, Makmur Jaya, Kec. Tikke Raya, Kab. Pasangkayu, Sulawesi Barat 91571","Makmur Jaya, Kec. Tikke Raya, Kab. Pasangkayu",SULAWESI BARAT,91571.0,Indonesia,82251463957.0,,,-1.3317962,119.4282884,https://maps.google.com/?cid=0x0:0x668fd12f91dc66c6,
perumahan,Kantor Perusahaan,Perumahan AFD.CHARLIE PT.LETAWA,"JCV2+2J, Makmur Jaya, Kec. Tikke Raya, Kab. Pasangkayu, Sulawesi Barat 91571","Makmur Jaya, Kec. Tikke Raya, Kab. Pasangkayu",SULAWESI BARAT,91571.0,Indonesia,,,,-1.3574077,119.401588,https://maps.google.com/?cid=0x0:0xe8f8ca38255d4865,
perumahan,Komplek perumahan,Aisyah House,"Jengeng Raya, Kec. Tikke Raya, Kab. Pasangkayu, Sulawesi Barat 91571","Kec. Tikke Raya, Kab. Pasangkayu",SULAWESI BARAT,91571.0,Indonesia,,,,-1.343567,119.3713462,https://maps.google.com/?cid=0x0:0x708acafa1d982855,
perumahan,Pembangunan Perumahan,Kebun,"M97G+PC9, Tikke, Kec. Tikke Raya, Kab. Pasangkayu, Sulawesi Barat","Kab. Pasangkayu, Sulawesi Barat",SULAWESI BARAT,,Indonesia,,,,-1.3357243,119.3761217,https://maps.google.com/?cid=0x0:0xb59369f556315b9c,
perumahan,Otoritas Perumahan,Letawa,"M985+9XJ, Tikke, Kec. Tikke Raya, Kab. Pasangkayu, Sulawesi Barat 91571","Tikke, Kec. Tikke Raya, Kab. Pasangkayu",SULAWESI BARAT,91571.0,Indonesia,,,,-1.3340353,119.3598782,https://maps.google.com/?cid=0x0:0xaafb01dca869f701,
perumahan,Otoritas Perumahan,Perumahan pabrik,"MC8F+247, Makmur Jaya, Kec. Tikke Raya, Kab. Pasangkayu, Sulawesi Barat 91571","Makmur Jaya, Kec. Tikke Raya, Kab. Pasangkayu",SULAWESI BARAT,91571.0,Indonesia,,,,-1.3352561,119.4227332,https://maps.google.com/?cid=0x0:0xeed2f1e83b6081f2,
perumahan,Komplek perumahan,Rumah RUSTAM HUSEIN,"M9C7+H5V, Tikke, Kec. Tikke Raya, Kab. Pasangkayu, Sulawesi Barat 91571","Tikke, Kec. Tikke Raya, Kab. Pasangkayu",SULAWESI BARAT,91571.0,Indonesia,,,,-1.328665,119.36254,https://maps.google.com/?cid=0x0:0xb2114fdfef8d6c1b,
perumahan,Pasar,Pasar Tikke Raya,"M97G+RF3, Tikke, Kec. Tikke Raya, Kab. Pasangkayu, Sulawesi Barat 91571","Tikke, Kec. Tikke Raya, Kab. Pasangkayu",SULAWESI BARAT,91571.0,Indonesia,,,,-1.3354834,119.3761706,https://maps.google.com/?cid=0x0:0x92219c20e9174fa7,
perumahan,perumahan,Kec. Tikke Raya,"Kab. Pasangkayu, Sulawesi Barat","Kab. Pasangkayu, Sulawesi Barat",SULAWESI BARAT,,Indonesia,,,,-1.335652,119.3760766,https://maps.google.com/?cid=0x0:0xbde993291243d44d,
perumahan,Pembangunan Perumahan,Temma/fatma,"M97G+XC4, Tikke, Kec. Tikke Raya, Kab. Pasangkayu, Sulawesi Barat 91571","Tikke, Kec. Tikke Raya, Kab. Pasangkayu",SULAWESI BARAT,91571.0,Indonesia,,,,-1.3344311,119.3755705,https://maps.google.com/?cid=0x0:0xf7c88e9b67137abe,
perumahan,Rumah Kayu,P. WALESTA,"M985+9XJ, Tikke, Kec. Tikke Raya, Kab. Pasangkayu, Sulawesi Barat 91571","Tikke, Kec. Tikke Raya, Kab. Pasangkayu",SULAWESI BARAT,91571.0,Indonesia,,,,-1.3340353,119.3598782,https://maps.google.com/?cid=0x0:0x37a5597c5b6d2684,
perumahan,Komplek perumahan,Rumahnya Zayyan,"M929+CQF, Jengeng Raya, Kec. Tikke Raya, Kab. Pasangkayu, Sulawesi Barat 91571","Jengeng Raya, Kec. Tikke Raya, Kab. Pasangkayu",SULAWESI BARAT,91571.0,Indonesia,,,,-1.3491505,119.3690779,https://maps.google.com/?cid=0x0:0xd458c3158c0e51a2,
perumahan,Perkumpulan kaum muda,Tikke pajalele,"M9HC+WM5, Pasangkayu - Baras, Pajalele, Kec. Tikke Raya, Kab. Pasangkayu, Sulawesi Barat 91571","Pasangkayu - Baras, Pajalele, Kec. Tikke Raya, Kab. Pasangkayu",SULAWESI BARAT,91571.0,Indonesia,,,,-1.3202371,119.3717243,https://maps.google.com/?cid=0x0:0x26f69f6573faf937,
perumahan,Komplek perumahan,Rumahnya anca mahendra,"M9FH+QMJ, Jl. Poros Palu - Mamuju, Pajalele, Kec. Tikke Raya, Kab. Pasangkayu, Sulawesi Barat 91571","Jl. Poros Palu - Mamuju, Pajalele, Kec. Tikke Raya, Kab. Pasangkayu",SULAWESI BARAT,91571.0,Indonesia,,,,-1.3265443,119.3787416,https://maps.google.com/?cid=0x0:0x3806d2e0fbe31593,
perumahan,Pembangunan Perumahan,Al Ghifari,"M929+2WF, Jl. Poros Majene - Mamuju, Jengeng Raya, Kec. Tikke Raya, Kab. Pasangkayu, Sulawesi Barat 91571","Jl. Poros Majene - Mamuju, Jengeng Raya, Kec. Tikke Raya, Kab. Pasangkayu",SULAWESI BARAT,91571.0,Indonesia,,,,-1.3498491,119.369861,https://maps.google.com/?cid=0x0:0xc84bd8751761f4df,
perumahan,Komplek perumahan,Desa tawiora,"JF58+GC, Makmur Jaya, Kec. Tikke Raya, Kab. Pasangkayu, Sulawesi Tengah","Kab. Pasangkayu, Sulawesi Tengah",SULAWESI BARAT,,Indonesia,,,,-1.3911485,119.4659805,https://maps.google.com/?cid=0x0:0xab9c9a9779bbb8ff,
