Category,Real Category,Business Name,Address,City,State,Postal Code,Country,Phone,Email,Website,Latitude,Longitude,Map Link,Details Link
perumahan,perumahan,Nusa Tenggara Tim.,,Nusa Tenggara Tim.,NUSA TENGGARA TIMUR,,Indonesia,,,,-8.6573819,121.0793705,https://maps.google.com/?cid=0x0:0x1030bfbcaf71ae0,
perumahan,Komplek perumahan,Kampung Welu,"FGGC+V5V, Welu, Kec. Cibal, Kabupaten Manggarai, Nusa Tenggara Tim.","Kabupaten Manggarai, Nusa Tenggara Tim.",NUSA TENGGARA TIMUR,,Indonesia,,,,-8.5227569,120.5204121,https://maps.google.com/?cid=0x0:0xc1c8d3c8476d341b,
perumahan,Komplek perumahan,Rumah arcel,"FFJQ+PPW, Nenu, Kec. Cibal, Kabupaten Manggarai Flores, Nusa Tenggara Tim. 86591","Nenu, Kec. Cibal, Kabupaten Manggarai Flores",NUSA TENGGARA TIMUR,86591.0,Indonesia,,,,-8.5180545,120.4897143,https://maps.google.com/?cid=0x0:0xecda0ec7a3ecea50,
perumahan,Komplek perumahan,Aswan Home,"GF67+85J, Compang Cibal, Barat, Kabupaten Manggarai, Nusa Tenggara Tim. 86591","Compang Cibal, Barat, Kabupaten Manggarai",NUSA TENGGARA TIMUR,86591.0,Indonesia,,,,-8.4899363,120.4621026,https://maps.google.com/?cid=0x0:0xc10c1f2f84092142,
perumahan,Komplek perumahan,Kampung Roho,"Dusun Roho, Bere, Barat, Kec. Cibal, Kabupaten Manggarai Timur, Nusa Tenggara Tim. 86591","Bere, Barat, Kec. Cibal, Kabupaten Manggarai Timur",NUSA TENGGARA TIMUR,86591.0,Indonesia,,,,-8.518386,120.437008,https://maps.google.com/?cid=0x0:0xe364116a6e49ae7a,
perumahan,Komplek perumahan,Ruma Cen jeheor,"GG5H+PMP, Pinggang, Kec. Cibal, Kabupaten Manggarai, Nusa Tenggara Tim. 86591","Pinggang, Kec. Cibal, Kabupaten Manggarai",NUSA TENGGARA TIMUR,86591.0,Indonesia,,,,-8.490569,120.530132,https://maps.google.com/?cid=0x0:0x786a5887831a0806,
perumahan,,Andhy Rumah,"Timbang, Ladur, Kec. Cibal, Kabupaten Manggarai, Nusa Tenggara Tim. 86591","Ladur, Kec. Cibal, Kabupaten Manggarai",NUSA TENGGARA TIMUR,86591.0,Indonesia,,,,-8.4131307,120.4991209,https://maps.google.com/?cid=0x0:0x59597bfe1aa87ae8,
perumahan,Rumah Kaca,Ninong Gensi,"Beawaja, Pagal, Kec. Cibal, Kabupaten Manggarai, Nusa Tenggara Tim. 86591","Pagal, Kec. Cibal, Kabupaten Manggarai",NUSA TENGGARA TIMUR,86591.0,Indonesia,81238403824.0,,,-8.5082642,120.4916509,https://maps.google.com/?cid=0x0:0x25d12c6bb8cd9890,
perumahan,Klinik Kesehatan,Perumnas Maumere,"96H6+3MP, Jl. Dahlia 1, Madawat, Kec. Alok, Kabupaten Sikka, Nusa Tenggara Tim.","Kabupaten Sikka, Nusa Tenggara Tim.",NUSA TENGGARA TIMUR,,Indonesia,,,,-8.6222838,122.2117176,https://maps.google.com/?cid=0x0:0x206c6c9f15b5d2e3,
perumahan,Komplek perumahan,Perumahan Gloria Regency,"Waturia, Kolisia B, Kec. Magepanda, Kabupaten Sikka, Nusa Tenggara Tim. 86111","Kolisia B, Kec. Magepanda, Kabupaten Sikka",NUSA TENGGARA TIMUR,86111.0,Indonesia,81353928372.0,,,-8.5500341,122.1347679,https://maps.google.com/?cid=0x0:0xa74817ac7a773063,
perumahan,perumahan,Kec. Wae Rii,"Kabupaten Manggarai, Nusa Tenggara Tim.","Kabupaten Manggarai, Nusa Tenggara Tim.",NUSA TENGGARA TIMUR,,Indonesia,,,,-8.5562437,120.4448297,https://maps.google.com/?cid=0x0:0x4b2946f12ae0d921,
perumahan,Komplek perumahan,"Nggori, Kecamatan Wae Ri'i, Kabupaten Manggarai","CF6W+CR7, Bangka Jong, Kec. Wae Rii, Kabupaten Manggarai, Nusa Tenggara Tim.","Kabupaten Manggarai, Nusa Tenggara Tim.",NUSA TENGGARA TIMUR,,Indonesia,,,,-8.5889604,120.497057,https://maps.google.com/?cid=0x0:0xf650e03c8a6c29e,
perumahan,Gereja,Ling Wae Rii,"CGR5+5GH, Golo Cador, Kec. Wae Rii, Kabupaten Manggarai, Nusa Tenggara Tim.","Kabupaten Manggarai, Nusa Tenggara Tim.",NUSA TENGGARA TIMUR,,Indonesia,,,,-8.559577,120.5089674,https://maps.google.com/?cid=0x0:0xc697e2a07e0bbed6,
perumahan,Balai Pertemuan Desa,Rumah Gendang Ngeri,"CFRQ+87P, Ndehes, Kec. Wae Rii, Kabupaten Manggarai, Nusa Tenggara Tim.","Kabupaten Manggarai, Nusa Tenggara Tim.",NUSA TENGGARA TIMUR,,Indonesia,,,,-8.5591566,120.4882085,https://maps.google.com/?cid=0x0:0xfea08fb676f77af4,
perumahan,Komplek perumahan,Rumah florencia,"FF48+8X4, Wae Mulu, Kec. Wae Rii, Kabupaten Manggarai, Nusa Tenggara Tim.","Kabupaten Manggarai, Nusa Tenggara Tim.",NUSA TENGGARA TIMUR,,Indonesia,,,,-8.5442327,120.4674459,https://maps.google.com/?cid=0x0:0x2e3b8c265aacd7a2,
perumahan,Komplek perumahan,Watu wirung,"CCFQ+MF6, Lalong, Kec. Wae Rii, Kabupaten Manggarai, Nusa Tenggara Tim.","Kabupaten Manggarai, Nusa Tenggara Tim.",NUSA TENGGARA TIMUR,,Indonesia,,,,-8.5758364,120.4386437,https://maps.google.com/?cid=0x0:0x9e6a14b582a113f0,
perumahan,Kompleks Kondominium,Pela,"CFQJ+JR3, Ndehes, Kec. Wae Rii, Kabupaten Manggarai, Nusa Tenggara Tim.","Kabupaten Manggarai, Nusa Tenggara Tim.",NUSA TENGGARA TIMUR,,Indonesia,,,,-8.5628639,120.4813099,https://maps.google.com/?cid=0x0:0xdb857e6ce5941e94,
perumahan,Rumah Kayu,Rumah Gendang Timung,"Golo Cador, Kec. Wae Rii, Kabupaten Manggarai, Nusa Tenggara Tim.","Kabupaten Manggarai, Nusa Tenggara Tim.",NUSA TENGGARA TIMUR,,Indonesia,,,,-8.579384,120.501982,https://maps.google.com/?cid=0x0:0x75620adb1ca61e6e,
perumahan,Komplek perumahan,Rumah Orlan Papu,"FF2V+PGF, Compang Ndehes, Kec. Wae Rii, Kabupaten Manggarai, Nusa Tenggara Tim.","Kabupaten Manggarai, Nusa Tenggara Tim.",NUSA TENGGARA TIMUR,,Indonesia,,,,-8.5488953,120.4938519,https://maps.google.com/?cid=0x0:0x6fcf86e481121956,
perumahan,Pembangunan Perumahan,Kaweng,"Kaweng,RT/RW:009/004, Bangka Kenda, Kec. Wae Rii, Kabupaten Manggarai, Nusa Tenggara Tim.","Kabupaten Manggarai, Nusa Tenggara Tim.",NUSA TENGGARA TIMUR,,Indonesia,,,,-8.5694846,120.4559014,https://maps.google.com/?cid=0x0:0x9e206813751b760e,
perumahan,Komplek perumahan,Digitekol,"CFQQ+GX4, Ndehes, Kec. Wae Rii, Kabupaten Manggarai, Nusa Tenggara Tim.","Kabupaten Manggarai, Nusa Tenggara Tim.",NUSA TENGGARA TIMUR,,Indonesia,,,,-8.561247,120.4899509,https://maps.google.com/?cid=0x0:0x6d049223bbfdb425,
perumahan,Pembangunan Perumahan,Rumah Gendang Nengkem,"CCRX+XC, Golo Watu, Kec. Wae Rii, Kabupaten Manggarai, Nusa Tenggara Tim.","Kabupaten Manggarai, Nusa Tenggara Tim.",NUSA TENGGARA TIMUR,,Indonesia,,,,-8.557601,120.4485082,https://maps.google.com/?cid=0x0:0x8e4c9d1dd6dd119b,
perumahan,Komplek perumahan,Ngantok,"CCQP+VP4, Golo Wua, Kec. Wae Rii, Kabupaten Manggarai, Nusa Tenggara Tim.","Kabupaten Manggarai, Nusa Tenggara Tim.",NUSA TENGGARA TIMUR,,Indonesia,,,,-8.5611397,120.4363329,https://maps.google.com/?cid=0x0:0x9d28b8375fa05afb,
perumahan,Perhimpunan Pengembang Perumahan,Ting kecamatan wae RI I,"CCVV+GW2, Desa Ting, Kec. Wae Rii, Kabupaten Manggarai, Nusa Tenggara Tim.","Kabupaten Manggarai, Nusa Tenggara Tim.",NUSA TENGGARA TIMUR,,Indonesia,,,,-8.5562376,120.4447756,https://maps.google.com/?cid=0x0:0x64706406d7020b24,
perumahan,Pembangunan Perumahan,Perumahan desa bangka kenda,"CFM6+22J, Unnamed Road, Bangka Kenda, Kec. Wae Rii, Kabupaten Manggarai, Nusa Tenggara Tim.","Kabupaten Manggarai, Nusa Tenggara Tim.",NUSA TENGGARA TIMUR,,Indonesia,,,,-8.5674142,120.4600029,https://maps.google.com/?cid=0x0:0x27b2b182d657580c,
perumahan,Komplek perumahan,Wae Mulu,"FF58+493 kampung welong, Wae Mulu, Kec. Wae Rii, Kabupaten Manggarai, Nusa Tenggara Tim.","Kabupaten Manggarai, Nusa Tenggara Tim.",NUSA TENGGARA TIMUR,,Indonesia,,,,-8.542225,120.4659233,https://maps.google.com/?cid=0x0:0x8ff49508f0b9be48,
perumahan,Komplek perumahan,Rumah jeman,"FF47+PCP, Unnamed Road, Wae Mulu, Kec. Wae Rii, Kabupaten Manggarai, Nusa Tenggara Tim.","Kabupaten Manggarai, Nusa Tenggara Tim.",NUSA TENGGARA TIMUR,,Indonesia,82165706670.0,,,-8.5431561,120.4635684,https://maps.google.com/?cid=0x0:0x77b99674a9e8835f,
perumahan,Komplek perumahan,Rumah Vitalis Bandur,"Wae Ri'i, Jalan Ruteng Reo Km 8-9, Pela, RT.001/RW.001, Ndehes","Kabupaten Manggarai, Nusa Tenggara Tim.",NUSA TENGGARA TIMUR,,Indonesia,,,,-8.563037,120.4813434,https://maps.google.com/?cid=0x0:0x218e8ae93ad14a7a,
perumahan,Komplek perumahan,Gibraltar Home,"CFH5+82J, Bangka Kenda, Kec. Wae Rii, Kabupaten Manggarai, Nusa Tenggara Tim.","Kabupaten Manggarai, Nusa Tenggara Tim.",NUSA TENGGARA TIMUR,,Indonesia,,,,-8.5716576,120.4575301,https://maps.google.com/?cid=0x0:0x9b66f37584ef8370,
perumahan,perumahan,Ruteng,"Watu, Kec. Langke Rembong, Kabupaten Manggarai, Nusa Tenggara Tim.","Kabupaten Manggarai, Nusa Tenggara Tim.",NUSA TENGGARA TIMUR,,Indonesia,,,,-8.614365,120.466499,https://maps.google.com/?cid=0x0:0x4ebf85b0d2e46fde,
perumahan,Komplek perumahan,ruteng,"9FP8+7H5, Watu, Kec. Langke Rembong, Kabupaten Manggarai, Nusa Tenggara Tim.","Kabupaten Manggarai, Nusa Tenggara Tim.",NUSA TENGGARA TIMUR,,Indonesia,,,,-8.614365,120.466499,https://maps.google.com/?cid=0x0:0xb963c00133f236db,
perumahan,Komplek perumahan,Rumah bapa Yefta kase,"Woang ruteng, Watu, Kec. Langke Rembong, Kabupaten Manggarai, Nusa Tenggara Tim.","Kabupaten Manggarai, Nusa Tenggara Tim.",NUSA TENGGARA TIMUR,,Indonesia,,,,-8.614365,120.466499,https://maps.google.com/?cid=0x0:0x7dcd6a86204d6630,
perumahan,Tujuan Wisata,Rumah Adat Manggarai,"9FP7+RRX, Watu, Kec. Langke Rembong, Kabupaten Manggarai, Nusa Tenggara Tim.","Kabupaten Manggarai, Nusa Tenggara Tim.",NUSA TENGGARA TIMUR,,Indonesia,,,,-8.6128892,120.4646078,https://maps.google.com/?cid=0x0:0x2d4182e125b16b1a,
perumahan,perumahan,FREN MOTOR CUNCALAWAR,"Cuncalawar ruteng, Watu, Kec. Langke Rembong, Kabupaten Manggarai, Nusa Tenggara Tim.","Kabupaten Manggarai, Nusa Tenggara Tim.",NUSA TENGGARA TIMUR,,Indonesia,,,,-8.614365,120.466499,https://maps.google.com/?cid=0x0:0xf011dfb29e27d9a8,
perumahan,Komplek perumahan,Wudi,"9FP8+7H5, Watu, Kec. Langke Rembong, Kabupaten Manggarai, Nusa Tenggara Tim.","Kabupaten Manggarai, Nusa Tenggara Tim.",NUSA TENGGARA TIMUR,,Indonesia,,,,-8.614365,120.466499,https://maps.google.com/?cid=0x0:0x2c62703a629c046,
perumahan,Komplek perumahan,Rumah Bapak Damianus Daput,"9FP8+7H5 Rangkat Ruteng, RT./ 020/RW./06, Watu, Kec. Langke Rembong, Kabupaten Manggarai, Nusa Tenggara Tim.","Kabupaten Manggarai, Nusa Tenggara Tim.",NUSA TENGGARA TIMUR,,Indonesia,,,,-8.614365,120.466499,https://maps.google.com/?cid=0x0:0x2fa4a80bbe0dadf2,
perumahan,Pembangunan Perumahan,Wella,"9FP8+7H5 Wella, Watu, Kec. Langke Rembong, Kabupaten Manggarai, Nusa Tenggara Tim.","Kabupaten Manggarai, Nusa Tenggara Tim.",NUSA TENGGARA TIMUR,,Indonesia,,,,-8.614365,120.466499,https://maps.google.com/?cid=0x0:0xbb094e3f6f29c566,
perumahan,Komplek perumahan,LB House,"9FP8+7H5, Watu, Kec. Langke Rembong, Kabupaten Manggarai, Nusa Tenggara Tim.","Kabupaten Manggarai, Nusa Tenggara Tim.",NUSA TENGGARA TIMUR,,Indonesia,,,,-8.614365,120.466499,https://maps.google.com/?cid=0x0:0x8c94dac9d210247d,
perumahan,Balai Pertemuan Desa,Welong,"9FP8+7H5, Watu, Kec. Langke Rembong, Kabupaten Manggarai, Nusa Tenggara Tim.","Kabupaten Manggarai, Nusa Tenggara Tim.",NUSA TENGGARA TIMUR,,Indonesia,,,,-8.614365,120.466499,https://maps.google.com/?cid=0x0:0x4a0925832fc660dc,
perumahan,Komplek perumahan,RUMAH LEON~SARAH,"Jl. Slamet Riyadi No.10, RT.008/RW.002, Kel.Bangka Nekang, Kec. Langke Rembong, Kabupaten Manggarai, Nusa Tenggara Tim. 86511","RT.008/RW.002, Kel.Bangka Nekang, Kec. Langke Rembong, Kabupaten Manggarai",NUSA TENGGARA TIMUR,86511.0,Indonesia,,,,-8.6139964,120.4664922,https://maps.google.com/?cid=0x0:0x78ff9640fa0ad542,
perumahan,Pembangunan Perumahan,Rumah Wadi,"Jl. Diponegoro gang Jambu No.kelurahan, Sayang-sayang, mataram, Kabupaten Manggarai, Nusa Tenggara Tim.","Kabupaten Manggarai, Nusa Tenggara Tim.",NUSA TENGGARA TIMUR,,Indonesia,,,,-8.6132153,120.4662938,https://maps.google.com/?cid=0x0:0x8ca15577dcfb8639,
perumahan,Komplek perumahan,Watu dopak,"9FP8+7H5, Jln raya Wukir, Watu, Kec. Langke Rembong, Kabupaten Manggarai, Nusa Tenggara Tim.","Kabupaten Manggarai, Nusa Tenggara Tim.",NUSA TENGGARA TIMUR,,Indonesia,,,,-8.614365,120.466499,https://maps.google.com/?cid=0x0:0x9c4b3f98e5d24e4b,
perumahan,Perhimpunan Pengembang Perumahan,Kedutul,"9F5F+M7G, Watu, Kec. Langke Rembong, Kabupaten Manggarai, Nusa Tenggara Tim.","Kabupaten Manggarai, Nusa Tenggara Tim.",NUSA TENGGARA TIMUR,,Indonesia,,,,-8.6408029,120.4732056,https://maps.google.com/?cid=0x0:0xa5a5b804e2589ffa,
perumahan,Rumah Sakit,Rumah Sakit Umum Ruteng,"Jl. Diponegoro No.16, Watu, Kec. Langke Rembong, Kabupaten Manggarai, Nusa Tenggara Tim.","Kabupaten Manggarai, Nusa Tenggara Tim.",NUSA TENGGARA TIMUR,,Indonesia,,,,-8.614364,120.4665,https://maps.google.com/?cid=0x0:0xa7f208ebcee24fe5,
perumahan,Komplek perumahan,Maria Jemimun,"9FP8+7H5, Watu, Kec. Langke Rembong, Kabupaten Manggarai, Nusa Tenggara Tim.","Kabupaten Manggarai, Nusa Tenggara Tim.",NUSA TENGGARA TIMUR,,Indonesia,,,,-8.614365,120.466499,https://maps.google.com/?cid=0x0:0xb7ec5c9b0b4fef1f,
perumahan,Komplek perumahan,Wasot todor,"9FP8+7H5, Watu, Kec. Langke Rembong, Kabupaten Manggarai, Nusa Tenggara Tim.","Kabupaten Manggarai, Nusa Tenggara Tim.",NUSA TENGGARA TIMUR,,Indonesia,,,,-8.614365,120.466499,https://maps.google.com/?cid=0x0:0xfcf88ba80627318e,
perumahan,Lembaga Swadaya Masyarakat (LSM),rumah yayasan Swadharm Ruteng,"9FP8+GH5, Watu, Kec. Langke Rembong, Kabupaten Manggarai, Nusa Tenggara Tim.","Kabupaten Manggarai, Nusa Tenggara Tim.",NUSA TENGGARA TIMUR,,Indonesia,,,,-8.6137283,120.4664841,https://maps.google.com/?cid=0x0:0x157d6d207dd6b82,
perumahan,Pembangunan Perumahan,Bilas,"9FP8+7H5, Watu, Kec. Langke Rembong, Kabupaten Manggarai, Nusa Tenggara Tim.","Kabupaten Manggarai, Nusa Tenggara Tim.",NUSA TENGGARA TIMUR,,Indonesia,,,,-8.614365,120.466499,https://maps.google.com/?cid=0x0:0xb74dd7e063112a28,
perumahan,Rumah Kayu,Pedrokiara,"Rangkat,ruteng, Watu, Kec. Langke Rembong, Kabupaten Manggarai, Nusa Tenggara Tim.","Kabupaten Manggarai, Nusa Tenggara Tim.",NUSA TENGGARA TIMUR,,Indonesia,,,,-8.614365,120.466499,https://maps.google.com/?cid=0x0:0x12f82ad95ac4b880,
perumahan,Jasa Pengiriman Kargo,JT Express Ruteng,"Jl. Sukarno, Pau, Langke Rembong, Manggarai Regency, East Nusa Tenggara","Kabupaten Manggarai, Nusa Tenggara Tim.",NUSA TENGGARA TIMUR,,Indonesia,,,,-8.6140822,120.4655452,https://maps.google.com/?cid=0x0:0xbccd408cf8e76961,
perumahan,perumahan,Kec. Satar Mese,"Kabupaten Manggarai, Nusa Tenggara Tim.","Kabupaten Manggarai, Nusa Tenggara Tim.",NUSA TENGGARA TIMUR,,Indonesia,,,,-8.8125909,120.4244651,https://maps.google.com/?cid=0x0:0x2794b4c09ad60140,
perumahan,Perhimpunan Pengembang Perumahan,Melo,"694W+WMF, Tal, Kec. Satar Mese, Kabupaten Manggarai, Nusa Tenggara Tim.","Kabupaten Manggarai, Nusa Tenggara Tim.",NUSA TENGGARA TIMUR,,Indonesia,,,,-8.7926995,120.3966744,https://maps.google.com/?cid=0x0:0xebb000d2c69e7c9f,
perumahan,Kompleks Kondominium,"Nunur, Desa Iteng, Kecamatan Satarmese","5CM7+3GX, Tal, Kec. Satar Mese, Kabupaten Manggarai, Nusa Tenggara Tim.","Kabupaten Manggarai, Nusa Tenggara Tim.",NUSA TENGGARA TIMUR,,Indonesia,,,,-8.8172717,120.4138697,https://maps.google.com/?cid=0x0:0x46da333431051cc4,
perumahan,Kantor Pemerintah,Kabupaten Manggarai kecamatan Satar Mese,"5CP9+988, Paka, Kec. Satar Mese, Kabupaten Manggarai, Nusa Tenggara Tim.","Kabupaten Manggarai, Nusa Tenggara Tim.",NUSA TENGGARA TIMUR,,Indonesia,,,,-8.8140972,120.4183266,https://maps.google.com/?cid=0x0:0x173317732f0fd303,
perumahan,Komplek perumahan,Rumah Afdal,"5CPM+3C4, Legu, Kec. Satar Mese, Kabupaten Manggarai, Nusa Tenggara Tim.","Kabupaten Manggarai, Nusa Tenggara Tim.",NUSA TENGGARA TIMUR,,Indonesia,,,,-8.814691,120.433345,https://maps.google.com/?cid=0x0:0x226f01893b4941ae,
perumahan,Perhimpunan Pengembang Perumahan,Rumah mateus masur,"5CPC+XHG, Paka, Kec. Satar Mese, Kabupaten Manggarai, Nusa Tenggara Tim.","Kabupaten Manggarai, Nusa Tenggara Tim.",NUSA TENGGARA TIMUR,,Indonesia,,,,-8.812994,120.421432,https://maps.google.com/?cid=0x0:0x72006e124d1d74f2,
perumahan,Komplek perumahan,Depan rumah,"7CJF+R69, Wewo, Kec. Satar Mese, Kabupaten Manggarai, Nusa Tenggara Tim.","Kabupaten Manggarai, Nusa Tenggara Tim.",NUSA TENGGARA TIMUR,,Indonesia,,,,-8.7179678,120.4231237,https://maps.google.com/?cid=0x0:0x4c7c055ca7c4590a,
perumahan,Pembangunan Perumahan,Rumah Ega,"5CWP+44G Lamba, Legu, Kec. Satar Mese, Kabupaten Manggarai, Nusa Tenggara Tim.","Kabupaten Manggarai, Nusa Tenggara Tim.",NUSA TENGGARA TIMUR,,Indonesia,,,,-8.8046875,120.4353281,https://maps.google.com/?cid=0x0:0x3921f3813e373b4a,
perumahan,perumahan,Rumah,"5CPM+5Q3, Legu, Kec. Satar Mese, Kabupaten Manggarai, Nusa Tenggara Tim.","Kabupaten Manggarai, Nusa Tenggara Tim.",NUSA TENGGARA TIMUR,,Indonesia,,,,-8.814893,120.434425,https://maps.google.com/?cid=0x0:0xfac689c92b1b30e5,
perumahan,Perumahan,Topok satar mese,"7C85+PX7, Ponggeok, Kec. Satar Mese, Kabupaten Manggarai, Nusa Tenggara Tim.","Kabupaten Manggarai, Nusa Tenggara Tim.",NUSA TENGGARA TIMUR,,Indonesia,,,,-8.7332039,120.4099105,https://maps.google.com/?cid=0x0:0x464b1a1df586c62c,
perumahan,Pembangunan Perumahan,Wae meseh,"692V+VV HUBER, Hilihintir, Kec. Satar Mese Bar., Kabupaten Manggarai, Nusa Tenggara Tim.","Kabupaten Manggarai, Nusa Tenggara Tim.",NUSA TENGGARA TIMUR,,Indonesia,,,,-8.7969866,120.3948506,https://maps.google.com/?cid=0x0:0xf1109789285376b0,
perumahan,Komplek perumahan,Juna,"69GX+R7, Tal, Kec. Satar Mese, Kabupaten Manggarai, Nusa Tenggara Tim.","Kabupaten Manggarai, Nusa Tenggara Tim.",NUSA TENGGARA TIMUR,,Indonesia,,,,-8.7728835,120.3981726,https://maps.google.com/?cid=0x0:0xe1659fb7facf3277,
perumahan,Kantor Perusahaan,Desa paka kecamatan Satarmese,"6C98+56Q, Paka, Kec. Satar Mese, Kabupaten Manggarai, Nusa Tenggara Tim.","Kabupaten Manggarai, Nusa Tenggara Tim.",NUSA TENGGARA TIMUR,,Indonesia,,,,-8.7820436,120.4155972,https://maps.google.com/?cid=0x0:0xc52a7dde580baa6b,
perumahan,Perhimpunan Pengembang Perumahan,"Desa ruang, kecamatan Satarmese Utara kabupaten Manggarai","5CPF+XRM, Paka, Kec. Satar Mese, Kabupaten Manggarai, Nusa Tenggara Tim.","Kabupaten Manggarai, Nusa Tenggara Tim.",NUSA TENGGARA TIMUR,,Indonesia,,,,-8.8125463,120.4245327,https://maps.google.com/?cid=0x0:0x21ebb703acbeac89,
perumahan,Pembangunan Perumahan,Rumah Kor,"69FC+C4C, Hilihintir, Kec. Satar Mese Bar., Kabupaten Manggarai, Nusa Tenggara Tim.","Kabupaten Manggarai, Nusa Tenggara Tim.",NUSA TENGGARA TIMUR,,Indonesia,,,,-8.7764491,120.3702674,https://maps.google.com/?cid=0x0:0x65a47d94dd80a5fe,
perumahan,Komplek perumahan,Rumah Yakobus Jehamut,"6F8C+65X, Langgo, Kec. Satar Mese, Kabupaten Manggarai, Nusa Tenggara Tim.","Kabupaten Manggarai, Nusa Tenggara Tim.",NUSA TENGGARA TIMUR,,Indonesia,,,,-8.784602,120.470572,https://maps.google.com/?cid=0x0:0x9430a0fad9f36051,
perumahan,Pembangunan Perumahan,Ashila mansyur,"5CPM+8C7, Legu, Kec. Satar Mese, Kabupaten Manggarai, Nusa Tenggara Tim.","Kabupaten Manggarai, Nusa Tenggara Tim.",NUSA TENGGARA TIMUR,,Indonesia,,,,-8.8142138,120.4335448,https://maps.google.com/?cid=0x0:0xf53df1d9121c6cf8,
perumahan,Perhimpunan Pengembang Perumahan,Tadonunang,"6C98+56Q, RT.015/RW.005, Paka, Kec. Satar Mese, Kabupaten Manggarai, Nusa Tenggara Tim.","Kabupaten Manggarai, Nusa Tenggara Tim.",NUSA TENGGARA TIMUR,,Indonesia,,,,-8.7820436,120.4155972,https://maps.google.com/?cid=0x0:0x9a228a5d289fcec4,
perumahan,Komplek perumahan,Cepang //Argen,"6C78+344, Paka, Kec. Satar Mese, Kabupaten Manggarai, Nusa Tenggara Tim.","Kabupaten Manggarai, Nusa Tenggara Tim.",NUSA TENGGARA TIMUR,,Indonesia,,,,-8.7873633,120.4153209,https://maps.google.com/?cid=0x0:0x2d44cd30f37ef3ac,
perumahan,Pembangunan Perumahan,Lamba Iteng Kecamatan Satarmese,"5CXM+58, Legu, Kec. Satar Mese, Kabupaten Manggarai, Nusa Tenggara Tim.","Kabupaten Manggarai, Nusa Tenggara Tim.",NUSA TENGGARA TIMUR,,Indonesia,,,,-8.8020625,120.4333125,https://maps.google.com/?cid=0x0:0x368b88326e42eac5,
perumahan,Komplek perumahan,Mowol. Kecamatan Satarmese utara,"79M8+5XW, Lia, Kec. Satar Mese, Kabupaten Manggarai, Nusa Tenggara Tim.","Kabupaten Manggarai, Nusa Tenggara Tim.",NUSA TENGGARA TIMUR,,Indonesia,,,,-8.7170213,120.3674528,https://maps.google.com/?cid=0x0:0xc0fae9183035777f,
perumahan,Komplek perumahan,RUMAH ADAT GENDANG LIMBA,"79HR+5C, Papang, Kec. Satar Mese, Kabupaten Manggarai, Nusa Tenggara Tim.","Kabupaten Manggarai, Nusa Tenggara Tim.",NUSA TENGGARA TIMUR,,Indonesia,,,,-8.7220339,120.3910356,https://maps.google.com/?cid=0x0:0x84e390911be8308d,
perumahan,Komplek perumahan,Hawut Satarmese Barat,"7949+5RC, Renda, Kec. Satar Mese Bar., Kabupaten Manggarai, Nusa Tenggara Tim.","Kabupaten Manggarai, Nusa Tenggara Tim.",NUSA TENGGARA TIMUR,,Indonesia,,,,-8.7445697,120.3695183,https://maps.google.com/?cid=0x0:0x598f46f76d0237b7,
perumahan,Pembangunan Perumahan,Basirun Djanu,"5CPM+5CQ, Unnamed Road, Legu, Kec. Satar Mese, Kabupaten Manggarai, Nusa Tenggara Tim.","Kabupaten Manggarai, Nusa Tenggara Tim.",NUSA TENGGARA TIMUR,,Indonesia,85333697434.0,,,-8.814528,120.4335972,https://maps.google.com/?cid=0x0:0x9fcababbc61606d4,
perumahan,perumahan,Kec. Cibal,"Kabupaten Manggarai, Nusa Tenggara Tim.","Kabupaten Manggarai, Nusa Tenggara Tim.",NUSA TENGGARA TIMUR,,Indonesia,,,,-8.5094904,120.4929526,https://maps.google.com/?cid=0x0:0xe5a3456d5b62241f,
perumahan,Komplek perumahan,Cibal pinggang,"GG7J+67, Pinggang, Kec. Cibal, Kabupaten Manggarai, Nusa Tenggara Tim.","Kabupaten Manggarai, Nusa Tenggara Tim.",NUSA TENGGARA TIMUR,,Indonesia,,,,-8.4869622,120.5306723,https://maps.google.com/?cid=0x0:0x284993ec8c460d2b,
perumahan,Pembangunan Perumahan,Cibal barat,"HFV4+MH3, Wae Renca, Kec. Reok, Kabupaten Manggarai, Nusa Tenggara Tim.","Kabupaten Manggarai, Nusa Tenggara Tim.",NUSA TENGGARA TIMUR,,Indonesia,,,,-8.4058653,120.4564307,https://maps.google.com/?cid=0x0:0xde21f948bd9b1ccd,
perumahan,perumahan,Jee,"GG44+XW, Golo, Kec. Cibal, Kabupaten Manggarai, Nusa Tenggara Tim.","Kabupaten Manggarai, Nusa Tenggara Tim.",NUSA TENGGARA TIMUR,,Indonesia,,,,-8.4925625,120.5073125,https://maps.google.com/?cid=0x0:0xbca3afefecbbb5b,
perumahan,Rumah Kayu,Kampung Laci Desa Golo Kec. Cibal,"FGW6+7F, Golo, Kec. Cibal, Kabupaten Manggarai, Nusa Tenggara Tim.","Kabupaten Manggarai, Nusa Tenggara Tim.",NUSA TENGGARA TIMUR,,Indonesia,,,,-8.5043008,120.5111472,https://maps.google.com/?cid=0x0:0xfe1bda19d69d8786,
perumahan,Komplek perumahan,"Lalang, Compang Cibal","GF67+85J Lalang, Compang Cibal, Barat, Manggarai Regency, East Nusa Tenggara 86591","Compang Cibal, Barat, Manggarai Regency",NUSA TENGGARA TIMUR,86591.0,Indonesia,,,,-8.4891532,120.4628992,https://maps.google.com/?cid=0x0:0x3d17550a843ac152,
perumahan,Taman,Lujang Cibal,"FFRV+56R, Lujang, Kec. Cibal, Kabupaten Manggarai, Nusa Tenggara Tim.","Kabupaten Manggarai, Nusa Tenggara Tim.",NUSA TENGGARA TIMUR,,Indonesia,,,,-8.5095153,120.4930026,https://maps.google.com/?cid=0x0:0x36164726915f688f,
perumahan,Pembangunan Perumahan,Kompleks perumahan di Peso kelurahan pagal kecamatan cibal,"FFVP+P64, RT.008/RW.3, Peso, Pagal, Kec. Cibal, Kabupaten Manggarai, Nusa Tenggara Tim.","Kabupaten Manggarai, Nusa Tenggara Tim.",NUSA TENGGARA TIMUR,,Indonesia,,,,-8.5057297,120.4855856,https://maps.google.com/?cid=0x0:0x2d184666d91adf1c,
perumahan,Pembangunan Perumahan,Golomandang,"Nenu, Kec. Cibal, Kabupaten Manggarai, Nusa Tenggara Tim.","Kabupaten Manggarai, Nusa Tenggara Tim.",NUSA TENGGARA TIMUR,,Indonesia,,,,-8.5206722,120.4876036,https://maps.google.com/?cid=0x0:0x4adc762dca19cede,
perumahan,Komplek perumahan,Tungku,"GG44+XW, Golo, Kec. Cibal, Kabupaten Manggarai, Nusa Tenggara Tim.","Kabupaten Manggarai, Nusa Tenggara Tim.",NUSA TENGGARA TIMUR,,Indonesia,,,,-8.4925489,120.5072817,https://maps.google.com/?cid=0x0:0xf5c5c7ee3277de39,
perumahan,Pembangunan Perumahan,Kawak Cibal Barat,"FFV4+F9, Lenda, Kec. Cibal, Kabupaten Manggarai Timur, Nusa Tenggara Tim.","Kabupaten Manggarai Timur, Nusa Tenggara Tim.",NUSA TENGGARA TIMUR,,Indonesia,,,,-8.5063125,120.4559375,https://maps.google.com/?cid=0x0:0xaa69bce0acf45080,
perumahan,Komplek perumahan,Kaca Village,"GF8G+554, Compang Cibal, Kec. Cibal, Kabupaten Manggarai Timur, Nusa Tenggara Tim.","Kabupaten Manggarai Timur, Nusa Tenggara Tim.",NUSA TENGGARA TIMUR,,Indonesia,,,,-8.4846085,120.4754655,https://maps.google.com/?cid=0x0:0xeddc5f4439ac064a,
perumahan,Pembangunan Perumahan,Nanu Cibal Barat,"FCWX+PVM, Lenda, Kec. Cibal, Kabupaten Manggarai Timur, Nusa Tenggara Tim.","Kabupaten Manggarai Timur, Nusa Tenggara Tim.",NUSA TENGGARA TIMUR,,Indonesia,,,,-8.503172,120.449682,https://maps.google.com/?cid=0x0:0xfe1190959a6f569e,
perumahan,Perhimpunan Pengembang Perumahan,Natas,"FFQR+QH8, Pagal, Kec. Cibal, Kabupaten Manggarai, Nusa Tenggara Tim.","Kabupaten Manggarai, Nusa Tenggara Tim.",NUSA TENGGARA TIMUR,,Indonesia,,,,-8.510594,120.4914483,https://maps.google.com/?cid=0x0:0x7462c797cc23c9d6,
perumahan,Komplek perumahan,Meni Cibal Barat,"FFV5+9V, Lenda, Kec. Poco Ranaka Timur, Kabupaten Manggarai Timur, Nusa Tenggara Tim.","Kabupaten Manggarai Timur, Nusa Tenggara Tim.",NUSA TENGGARA TIMUR,,Indonesia,,,,-8.5065767,120.4597339,https://maps.google.com/?cid=0x0:0xce9d755a1e320ffc,
perumahan,Perumahan,Home Ves,"GG5H+RWW, Pinggang, Kec. Cibal, Kabupaten Manggarai, Nusa Tenggara Tim.","Kabupaten Manggarai, Nusa Tenggara Tim.",NUSA TENGGARA TIMUR,,Indonesia,,,,-8.4903793,120.5298243,https://maps.google.com/?cid=0x0:0x45c3fc08892dc344,
perumahan,Pembangunan Perumahan,"Welu, kecamatan cibal, kabupaten Manggarai","FGGC+P4F, Welu, Kec. Cibal, Kabupaten Manggarai, Nusa Tenggara Tim.","Kabupaten Manggarai, Nusa Tenggara Tim.",NUSA TENGGARA TIMUR,,Indonesia,,,,-8.5231969,120.5202901,https://maps.google.com/?cid=0x0:0x72f614270261fe84,
perumahan,Komplek perumahan,Kampung Welu,"FGGC+V5V, Welu, Kec. Cibal, Kabupaten Manggarai, Nusa Tenggara Tim.","Kabupaten Manggarai, Nusa Tenggara Tim.",NUSA TENGGARA TIMUR,,Indonesia,,,,-8.5227569,120.5204121,https://maps.google.com/?cid=0x0:0xc1c8d3c8476d341b,
perumahan,perumahan,Davine Cell,"FFXQ+F2Q, Pagal, Kec. Cibal, Kabupaten Manggarai, Nusa Tenggara Tim.","Kabupaten Manggarai, Nusa Tenggara Tim.",NUSA TENGGARA TIMUR,,Indonesia,,,,-8.5012848,120.4876036,https://maps.google.com/?cid=0x0:0x7d4c09a03a584f81,
perumahan,Komplek perumahan,Rumah aris,"GG35+44R, Golo, Kec. Cibal, Kabupaten Manggarai, Nusa Tenggara Tim.","Kabupaten Manggarai, Nusa Tenggara Tim.",NUSA TENGGARA TIMUR,,Indonesia,,,,-8.4971269,120.5077582,https://maps.google.com/?cid=0x0:0x90e17ccf170c109b,
perumahan,Perhimpunan Pengembang Perumahan,"Kampung Cipi,Desa Bere","FFRV+56R, Desa Bere, Kec. Cibal, Kabupaten Manggarai, Nusa Tenggara Tim.","Kabupaten Manggarai, Nusa Tenggara Tim.",NUSA TENGGARA TIMUR,,Indonesia,,,,-8.5095153,120.4930026,https://maps.google.com/?cid=0x0:0xe787ce093e1b0d5f,
perumahan,Komplek perumahan,Beasintang,"FGVC+XW, Barang, Kec. Cibal, Kabupaten Manggarai, Nusa Tenggara Tim.","Kabupaten Manggarai, Nusa Tenggara Tim.",NUSA TENGGARA TIMUR,,Indonesia,,,,-8.50417,120.5217696,https://maps.google.com/?cid=0x0:0xfcd08352a4d6f0f7,
perumahan,perumahan,Nusa Tenggara Tim.,,Nusa Tenggara Tim.,NUSA TENGGARA TIMUR,,Indonesia,,,,-8.6573819,121.0793705,https://maps.google.com/?cid=0x0:0x1030bfbcaf71ae0,
perumahan,Pembangunan Perumahan,Reok,"MFQR+JP4, Reo, Kec. Reok, Kabupaten Manggarai, Nusa Tenggara Tim.","Kabupaten Manggarai, Nusa Tenggara Tim.",NUSA TENGGARA TIMUR,,Indonesia,,,,-8.3109835,120.491842,https://maps.google.com/?cid=0x0:0xd4a8a6622c01cca,
perumahan,Komplek perumahan,Reok,"89CQ+4VF, Ngkaer, Kec. Satar Mese, Kabupaten Manggarai, Nusa Tenggara Tim.","Kabupaten Manggarai, Nusa Tenggara Tim.",NUSA TENGGARA TIMUR,,Indonesia,,,,-8.6796987,120.3896651,https://maps.google.com/?cid=0x0:0xf0a0e50537a92879,
perumahan,Komplek perumahan,Razan Home,"Lingkungan Jeneluma, Mata Air, Kec. Reok, Kabupaten Manggarai, Nusa Tenggara Tim. 86592","Mata Air, Kec. Reok, Kabupaten Manggarai",NUSA TENGGARA TIMUR,86592.0,Indonesia,82144357144.0,,,-8.3100689,120.4884358,https://maps.google.com/?cid=0x0:0x880876d04340acd5,
perumahan,perumahan,Reo,"Reo, Kec. Reok, Kabupaten Manggarai, Nusa Tenggara Tim.","Kabupaten Manggarai, Nusa Tenggara Tim.",NUSA TENGGARA TIMUR,,Indonesia,,,,-8.314914,120.489899,https://maps.google.com/?cid=0x0:0xa376afe8d418570f,
perumahan,Komplek perumahan,Kajong kecamatan Reok Barat,"MFPQ+2XJ, Reo, Kec. Reok, Kabupaten Manggarai, Nusa Tenggara Tim.","Kabupaten Manggarai, Nusa Tenggara Tim.",NUSA TENGGARA TIMUR,,Indonesia,81239331395.0,,,-8.314914,120.489899,https://maps.google.com/?cid=0x0:0xd00189c8c3f8271d,
perumahan,perumahan,Pasar reo manggarai,"MFPQ+2XJ, Pasar, Reo, Kec. Reok, Kabupaten Manggarai, Nusa Tenggara Tim.","Kabupaten Manggarai, Nusa Tenggara Tim.",NUSA TENGGARA TIMUR,,Indonesia,,,,-8.314914,120.489899,https://maps.google.com/?cid=0x0:0xb45f602d1d63f023,
perumahan,Komplek perumahan,Rumah Syaiful Islam,"MFPQ+2XJ, Reo, Kec. Reok, Kabupaten Manggarai, Nusa Tenggara Tim.","Kabupaten Manggarai, Nusa Tenggara Tim.",NUSA TENGGARA TIMUR,,Indonesia,,,,-8.314914,120.489899,https://maps.google.com/?cid=0x0:0x74460ee7db5c4e5d,
perumahan,Komplek perumahan,Rumah Shafa Reo,"MFPQ+2XJ, Reo, Kec. Reok, Kabupaten Manggarai, Nusa Tenggara Tim.","Kabupaten Manggarai, Nusa Tenggara Tim.",NUSA TENGGARA TIMUR,,Indonesia,,,,-8.314914,120.489899,https://maps.google.com/?cid=0x0:0x5781b78812c1613e,
perumahan,perumahan,Kampung ujung wangkung reok,"MFPQ+2XJ, Reo, Kec. Reok, Kabupaten Manggarai, Nusa Tenggara Tim.","Kabupaten Manggarai, Nusa Tenggara Tim.",NUSA TENGGARA TIMUR,,Indonesia,,,,-8.314914,120.489899,https://maps.google.com/?cid=0x0:0x373fcac9a977a36e,
perumahan,Pembangunan Perumahan,SYAMSUDIN,"MFPQ+2XJ, Reo, Kec. Reok, Kabupaten Manggarai, Nusa Tenggara Tim.","Kabupaten Manggarai, Nusa Tenggara Tim.",NUSA TENGGARA TIMUR,,Indonesia,,,,-8.314914,120.489899,https://maps.google.com/?cid=0x0:0x9440bd75157a404c,
perumahan,Pembangunan Perumahan,"Sambi, Kecamatan Reok Barat, Kabupaten Manggarai","MFPQ+2XJ, Barat, Sambi, Desa Kajong, Kec. Reok, Kabupaten Manggarai, Nusa Tenggara Tim.","Kabupaten Manggarai, Nusa Tenggara Tim.",NUSA TENGGARA TIMUR,,Indonesia,81337529715.0,,,-8.314914,120.489899,https://maps.google.com/?cid=0x0:0xdf04736304d2bfa8,
perumahan,Komplek perumahan,Rumah A. Majid Saleh,"MFPQ+2XJ, Lingk. Raca, Reo, Kec. Reok, Kabupaten Manggarai, Nusa Tenggara Tim.","Kabupaten Manggarai, Nusa Tenggara Tim.",NUSA TENGGARA TIMUR,,Indonesia,,,,-8.314914,120.489899,https://maps.google.com/?cid=0x0:0x3b3efce37b6b9c1b,
perumahan,Komplek perumahan,Rumah Hamid Abdullah,"MFPQ+2XJ, Lingkungan Raca, Reo, Kec. Reok, Kabupaten Manggarai, Nusa Tenggara Tim.","Kabupaten Manggarai, Nusa Tenggara Tim.",NUSA TENGGARA TIMUR,,Indonesia,,,,-8.314914,120.489899,https://maps.google.com/?cid=0x0:0x437b94b35bdb6544,
perumahan,Pembangunan Perumahan,Gongger,"MFPQ+2XJ, Reo, Kec. Reok, Kabupaten Manggarai, Nusa Tenggara Tim.","Kabupaten Manggarai, Nusa Tenggara Tim.",NUSA TENGGARA TIMUR,,Indonesia,,,,-8.314914,120.489899,https://maps.google.com/?cid=0x0:0x930f3f6db29209f6,
perumahan,Komplek perumahan,Rumah BPK Stevanus jemarut,"MFPQ+2XJ, Reo, Kec. Reok, Kabupaten Manggarai, Nusa Tenggara Tim.","Kabupaten Manggarai, Nusa Tenggara Tim.",NUSA TENGGARA TIMUR,,Indonesia,,,,-8.314914,120.489899,https://maps.google.com/?cid=0x0:0x6b47c711a5ebd131,
perumahan,Komplek perumahan,Rumah Harun R. Syarif,"MFPQ+2XJ, Lingk. Raca, Reo, Kec. Reok, Kabupaten Manggarai, Nusa Tenggara Tim.","Kabupaten Manggarai, Nusa Tenggara Tim.",NUSA TENGGARA TIMUR,,Indonesia,,,,-8.314914,120.489899,https://maps.google.com/?cid=0x0:0x923d9bc7ac4df1fb,
perumahan,Komplek perumahan,Rumah Usman Hasan,"MFPQ+2XJ, Lingk. Raca, Reo, Kec. Reok, Kabupaten Manggarai, Nusa Tenggara Tim.","Kabupaten Manggarai, Nusa Tenggara Tim.",NUSA TENGGARA TIMUR,,Indonesia,,,,-8.314914,120.489899,https://maps.google.com/?cid=0x0:0x7a39899d5c3d7552,
perumahan,Komplek perumahan,Rumah Gunawan Mantara,"MFPQ+2XJ, Lingk. Raca, Reo, Kec. Reok, Kabupaten Manggarai, Nusa Tenggara Tim.","Kabupaten Manggarai, Nusa Tenggara Tim.",NUSA TENGGARA TIMUR,,Indonesia,,,,-8.314914,120.489899,https://maps.google.com/?cid=0x0:0xabfeeba1536a5ba4,
perumahan,Komplek perumahan,Rumah Ahmad Daeng Maro,"MFPQ+2XJ, Lingk. Raca, Reo, Kec. Reok, Kabupaten Manggarai, Nusa Tenggara Tim.","Kabupaten Manggarai, Nusa Tenggara Tim.",NUSA TENGGARA TIMUR,,Indonesia,,,,-8.314914,120.489899,https://maps.google.com/?cid=0x0:0x6b17094730998c15,
perumahan,Komplek perumahan,Rumah Selviana Sato,"MFPQ+2XJ Desa Lengkosambi Tengah, Reo, Kec. Reok, Kabupaten Manggarai, Nusa Tenggara Tim.","Kabupaten Manggarai, Nusa Tenggara Tim.",NUSA TENGGARA TIMUR,,Indonesia,,,,-8.314914,120.489899,https://maps.google.com/?cid=0x0:0x48286d040e1dc15d,
perumahan,Komplek perumahan,Rosliana Fika,"MFPQ+2XJ, Reo, Kec. Reok, Kabupaten Manggarai, Nusa Tenggara Tim.","Kabupaten Manggarai, Nusa Tenggara Tim.",NUSA TENGGARA TIMUR,,Indonesia,,,,-8.314914,120.489899,https://maps.google.com/?cid=0x0:0x40e8df4f882aca4f,
perumahan,Komplek perumahan,Rumah Azzuhri Manau,"MFPQ+2XJ, Lingkungan Raca, Reo, Kec. Reok, Kabupaten Manggarai, Nusa Tenggara Tim.","Kabupaten Manggarai, Nusa Tenggara Tim.",NUSA TENGGARA TIMUR,,Indonesia,,,,-8.314914,120.489899,https://maps.google.com/?cid=0x0:0xdb92f3ca94255204,
perumahan,Komplek perumahan,Bealalang,"MFPQ+2XJ, Jl. Raya Ruteng, Reo, Kec. Reok, Kabupaten Manggarai, Nusa Tenggara Tim.","Kabupaten Manggarai, Nusa Tenggara Tim.",NUSA TENGGARA TIMUR,,Indonesia,,,,-8.314914,120.489899,https://maps.google.com/?cid=0x0:0x76c5f4a24b5d60f4,
perumahan,Komplek perumahan,RH Residence,"Jl. Kenari Hijau II No.15, RT.6/RW.2, Kamal Muara, Kec. Penjaringan, Jkt Utara, Daerah Khusus Ibukota Jakarta 14470","RT.6/RW.2, Kamal Muara, Kec. Penjaringan, Jkt Utara",NUSA TENGGARA TIMUR,14470.0,Indonesia,,,,-6.1061048,106.7433945,https://maps.google.com/?cid=0x0:0xcec9f9bfb7176a13,
perumahan,perumahan,Kec. Langke Rembong,"Kabupaten Manggarai, Nusa Tenggara Tim.","Kabupaten Manggarai, Nusa Tenggara Tim.",NUSA TENGGARA TIMUR,,Indonesia,,,,-8.6155061,120.4613028,https://maps.google.com/?cid=0x0:0xe5ebb83f7cef70eb,
perumahan,Pembangunan Perumahan,Perumahan Dinas BMKG ruteng,"9FXG+FXC, Tenda, Kec. Langke Rembong, Kabupaten Manggarai, Nusa Tenggara Tim.","Kabupaten Manggarai, Nusa Tenggara Tim.",NUSA TENGGARA TIMUR,,Indonesia,38521264.0,,,-8.6013217,120.4773901,https://maps.google.com/?cid=0x0:0xfbb77a480d325a7a,
perumahan,Layanan Perujuk Teman Kos,Gewak Tenda,"9FMH+R3F, Tenda, Kec. Langke Rembong, Kabupaten Manggarai, Nusa Tenggara Tim.","Kabupaten Manggarai, Nusa Tenggara Tim.",NUSA TENGGARA TIMUR,,Indonesia,,,,-8.6150376,120.4767307,https://maps.google.com/?cid=0x0:0xaaaaf0dcfd941219,
perumahan,Taman,"Kakor, Kecamatan Ruteng, Kabupaten Manggarai, Nusa Tenggara Timur, Indonesia","CCC7+4M6, Kakor, Kec. Ruteng, Kabupaten Manggarai, Nusa Tenggara Tim.","Kabupaten Manggarai, Nusa Tenggara Tim.",NUSA TENGGARA TIMUR,,Indonesia,,,,-8.5797172,120.4141341,https://maps.google.com/?cid=0x0:0xc8ab917dd5015c50,
perumahan,Rumah wisata,Nekang,"9FP8+3GJ, Jl. Slamet Riyadi, Watu, Kec. Langke Rembong, Kabupaten Manggarai, Nusa Tenggara Tim. 86511","Jl. Slamet Riyadi, Watu, Kec. Langke Rembong, Kabupaten Manggarai",NUSA TENGGARA TIMUR,86511.0,Indonesia,,,,-8.6171664,120.469025,https://maps.google.com/?cid=0x0:0x982ad86e533a4711,
perumahan,Lidah,Warung PADANG Sumber Baru,"9FR8+VPH, Mbaumuku, Kec. Langke Rembong, Kabupaten Manggarai, Nusa Tenggara Tim.","Kabupaten Manggarai, Nusa Tenggara Tim.",NUSA TENGGARA TIMUR,,Indonesia,,,,-8.6078128,120.4668575,https://maps.google.com/?cid=0x0:0xbb812d774a7d51bd,
perumahan,Padang,Rumah Makan Sindang Roso,"9FV8+3J7, Mbaumuku, Kec. Langke Rembong, Kabupaten Manggarai, Nusa Tenggara Tim.","Kabupaten Manggarai, Nusa Tenggara Tim.",NUSA TENGGARA TIMUR,,Indonesia,,,,-8.6073276,120.4665598,https://maps.google.com/?cid=0x0:0x473f54505c88adc0,
perumahan,perumahan,Karleta homestay,"Pau, Kec. Langke Rembong, Kabupaten Manggarai, Nusa Tenggara Tim.","Kabupaten Manggarai, Nusa Tenggara Tim.",NUSA TENGGARA TIMUR,,Indonesia,81338434271.0,,,-8.6247392,120.4480249,https://maps.google.com/?cid=0x0:0xc0cae5850d7fc6c8,
perumahan,Taman,Kampung Ruteng Pu'u,"9CPW+FP, Golo Dukal, Kec. Langke Rembong, Kabupaten Manggarai, Nusa Tenggara Tim.","Kabupaten Manggarai, Nusa Tenggara Tim.",NUSA TENGGARA TIMUR,,Indonesia,82235132065.0,,,-8.6118462,120.4459329,https://maps.google.com/?cid=0x0:0x77e6ee736159c680,
perumahan,perumahan,Hobbit Hill Homestay,"CF64+77F, Wali, Kec. Langke Rembong, Kabupaten Manggarai, Nusa Tenggara Tim.","Kabupaten Manggarai, Nusa Tenggara Tim.",NUSA TENGGARA TIMUR,,Indonesia,81246487553.0,,,-8.5894152,120.4564399,https://maps.google.com/?cid=0x0:0x5195107ebad1a36a,
perumahan,Taman,Lingko Spider Web Rice Fields,"C97C+C3W, Meler, Kec. Ruteng, Kabupaten Manggarai, Nusa Tenggara Tim.","Kabupaten Manggarai, Nusa Tenggara Tim.",NUSA TENGGARA TIMUR,,Indonesia,,,,-8.5863925,120.3702138,https://maps.google.com/?cid=0x0:0xee5b62f323e2d2a8,
perumahan,Padang,Rumah Makan Famili Indah,"9FQ8+FQ7, Jl. Ahmad Yani, Tenda, Kec. Langke Rembong, Kabupaten Manggarai, Nusa Tenggara Tim.","Kabupaten Manggarai, Nusa Tenggara Tim.",NUSA TENGGARA TIMUR,,Indonesia,,,,-8.6113278,120.4669309,https://maps.google.com/?cid=0x0:0x5f38edaa15859060,
perumahan,Padang,RM Ranah Minang Dua,"9FR8+P58, Mbaumuku, Kec. Langke Rembong, Kabupaten Manggarai, Nusa Tenggara Tim.","Kabupaten Manggarai, Nusa Tenggara Tim.",NUSA TENGGARA TIMUR,,Indonesia,,,,-8.6082248,120.4654464,https://maps.google.com/?cid=0x0:0xcebd4aac041e9cc6,
perumahan,Bakso,Rumah Bakso Aa,"Tenda, Kec. Langke Rembong, Kabupaten Manggarai, Nusa Tenggara Tim.","Kabupaten Manggarai, Nusa Tenggara Tim.",NUSA TENGGARA TIMUR,,Indonesia,81236935233.0,,,-8.6104256,120.4755082,https://maps.google.com/?cid=0x0:0xc1c14b8a95b41dcc,
perumahan,Restoran,RM SH,"CC2X+FQ9, Wali, Kec. Langke Rembong, Kabupaten Manggarai, Nusa Tenggara Tim.","Kabupaten Manggarai, Nusa Tenggara Tim.",NUSA TENGGARA TIMUR,,Indonesia,,,,-8.5988483,120.4494953,https://maps.google.com/?cid=0x0:0x1986952864e02c7,
perumahan,Rumah Sakit,BLUD RSUD Ruteng,"9FM9+55R, Jl. Dr. Soetomo No.1, Watu, Kec. Langke Rembong, Kabupaten Manggarai, Nusa Tenggara Tim.","Kabupaten Manggarai, Nusa Tenggara Tim.",NUSA TENGGARA TIMUR,,Indonesia,,,,-8.6170815,120.4670041,https://maps.google.com/?cid=0x0:0xa16ff5c1b884248c,
perumahan,Warnet,Dede Net,"Jl. Harimau No.3, Watu, Kec. Langke Rembong, Kabupaten Manggarai, Nusa Tenggara Tim.","Kabupaten Manggarai, Nusa Tenggara Tim.",NUSA TENGGARA TIMUR,,Indonesia,38521795.0,,,-8.613887,120.4665986,https://maps.google.com/?cid=0x0:0xbb499a66241ece1a,
perumahan,Restoran,BAKSO77,"Jl. Yos Sudarso, Mbaumuku, Kec. Langke Rembong, Kabupaten Manggarai, Nusa Tenggara Tim.","Kabupaten Manggarai, Nusa Tenggara Tim.",NUSA TENGGARA TIMUR,,Indonesia,82145425319.0,,,-8.6098407,120.466547,https://maps.google.com/?cid=0x0:0x6bf8372708677bca,
perumahan,Padang,RM Padang Pincuran Tujuah RUTENG MANGGARAI,"9FV8+2MW, Mbaumuku, Kec. Langke Rembong, Kabupaten Manggarai, Nusa Tenggara Tim.","Kabupaten Manggarai, Nusa Tenggara Tim.",NUSA TENGGARA TIMUR,,Indonesia,,,,-8.607379,120.4667062,https://maps.google.com/?cid=0x0:0xb40a74c65e2ff018,
perumahan,Restoran,Rumah makan jawa LAMONGAN,"Jl. Dr. Soetomo No.20, RT.016/RW.004, Bangka Nekang, Kec. Langke Rembong, Kabupaten Manggarai, Nusa Tenggara Tim.","Kabupaten Manggarai, Nusa Tenggara Tim.",NUSA TENGGARA TIMUR,,Indonesia,81237174016.0,,,-8.6170744,120.4659452,https://maps.google.com/?cid=0x0:0xd2b87fb7781cba6c,
perumahan,Komplek perumahan,Perumahan,"9FX2+4PQ, Wali, Kec. Langke Rembong, Kabupaten Manggarai, Nusa Tenggara Tim.","Kabupaten Manggarai, Nusa Tenggara Tim.",NUSA TENGGARA TIMUR,,Indonesia,,,,-8.6021665,120.4518609,https://maps.google.com/?cid=0x0:0x265aee011e976d27,
perumahan,Komplek perumahan,Rumah,"9FV4+6XQ, Lawir, Kec. Langke Rembong, Kabupaten Manggarai, Nusa Tenggara Tim.","Kabupaten Manggarai, Nusa Tenggara Tim.",NUSA TENGGARA TIMUR,,Indonesia,,,,-8.6069113,120.4574728,https://maps.google.com/?cid=0x0:0x7f609bb363b30c3a,
perumahan,Komplek perumahan,Rumah,"9FM3+GV2, Pau, Kec. Langke Rembong, Kabupaten Manggarai, Nusa Tenggara Tim.","Kabupaten Manggarai, Nusa Tenggara Tim.",NUSA TENGGARA TIMUR,,Indonesia,,,,-8.6162347,120.4546526,https://maps.google.com/?cid=0x0:0x3ca3df1593dd52fc,
perumahan,Gedung Apartemen,Perumahan Fideliva,"Jl. Kartini Ruteng No.17, Wali, Kec. Langke Rembong, Kabupaten Manggarai, Nusa Tenggara Tim.","Kabupaten Manggarai, Nusa Tenggara Tim.",NUSA TENGGARA TIMUR,,Indonesia,,,,-8.6093874,120.4507438,https://maps.google.com/?cid=0x0:0x46388dfd1026eab0,
perumahan,Komplek perumahan,Rumah om Mus,"9FV2+H25, Wali, Kec. Langke Rembong, Kabupaten Manggarai, Nusa Tenggara Tim.","Kabupaten Manggarai, Nusa Tenggara Tim.",NUSA TENGGARA TIMUR,,Indonesia,,,,-8.6061102,120.4501137,https://maps.google.com/?cid=0x0:0x243e7866d7b260c6,
perumahan,Komplek perumahan,Rumah Diana,"9FM3+Q78, Jl. Anggrek Utara, Pau, Kec. Langke Rembong, Kabupaten Manggarai, Nusa Tenggara Tim.","Kabupaten Manggarai, Nusa Tenggara Tim.",NUSA TENGGARA TIMUR,,Indonesia,,,,-8.615577,120.453212,https://maps.google.com/?cid=0x0:0x73f6eabb3e8f22d9,
perumahan,Komplek perumahan,Ponggara,"Pau, Kec. Langke Rembong, Kabupaten Manggarai, Nusa Tenggara Tim.","Kabupaten Manggarai, Nusa Tenggara Tim.",NUSA TENGGARA TIMUR,,Indonesia,,,,-8.6155294,120.4613943,https://maps.google.com/?cid=0x0:0xeeb2efbd55192e28,
perumahan,Pembangunan Perumahan,Rumah detraqiandra,"9FF3+QXP, Waso, Kec. Langke Rembong, Kabupaten Manggarai, Nusa Tenggara Tim.","Kabupaten Manggarai, Nusa Tenggara Tim.",NUSA TENGGARA TIMUR,,Indonesia,,,,-8.626217,120.45531,https://maps.google.com/?cid=0x0:0xc1a144f479af3f55,
perumahan,Perhimpunan Pengembang Perumahan,Ruko pemda ruteng,"Ruko pemda ruteng, Mbaumuku, Kec. Langke Rembong, Kabupaten Manggarai, Nusa Tenggara Tim.","Kabupaten Manggarai, Nusa Tenggara Tim.",NUSA TENGGARA TIMUR,,Indonesia,,,,-8.6088718,120.464858,https://maps.google.com/?cid=0x0:0x6eb68ac111a9bfaa,
perumahan,perumahan,Kec. Langke Rembong,"Kabupaten Manggarai, Nusa Tenggara Tim.","Kabupaten Manggarai, Nusa Tenggara Tim.",NUSA TENGGARA TIMUR,,Indonesia,,,,-8.6155061,120.4613028,https://maps.google.com/?cid=0x0:0xe5ebb83f7cef70eb,
perumahan,Taman,"Kakor, Kecamatan Ruteng, Kabupaten Manggarai, Nusa Tenggara Timur, Indonesia","CCC7+4M6, Kakor, Kec. Ruteng, Kabupaten Manggarai, Nusa Tenggara Tim.","Kabupaten Manggarai, Nusa Tenggara Tim.",NUSA TENGGARA TIMUR,,Indonesia,,,,-8.5797172,120.4141341,https://maps.google.com/?cid=0x0:0xc8ab917dd5015c50,
perumahan,Pembangunan Perumahan,Perumahan Dinas BMKG ruteng,"9FXG+FXC, Tenda, Kec. Langke Rembong, Kabupaten Manggarai, Nusa Tenggara Tim.","Kabupaten Manggarai, Nusa Tenggara Tim.",NUSA TENGGARA TIMUR,,Indonesia,38521264.0,,,-8.6013217,120.4773901,https://maps.google.com/?cid=0x0:0xfbb77a480d325a7a,
perumahan,Layanan Perujuk Teman Kos,Gewak Tenda,"9FMH+R3F, Tenda, Kec. Langke Rembong, Kabupaten Manggarai, Nusa Tenggara Tim.","Kabupaten Manggarai, Nusa Tenggara Tim.",NUSA TENGGARA TIMUR,,Indonesia,,,,-8.6150376,120.4767307,https://maps.google.com/?cid=0x0:0xaaaaf0dcfd941219,
perumahan,Rumah Sakit,BLUD RSUD Ruteng,"9FM9+55R, Jl. Dr. Soetomo No.1, Watu, Kec. Langke Rembong, Kabupaten Manggarai, Nusa Tenggara Tim.","Kabupaten Manggarai, Nusa Tenggara Tim.",NUSA TENGGARA TIMUR,,Indonesia,,,,-8.6170815,120.4670041,https://maps.google.com/?cid=0x0:0xa16ff5c1b884248c,
perumahan,Rumah wisata,Nekang,"9FP8+3GJ, Jl. Slamet Riyadi, Watu, Kec. Langke Rembong, Kabupaten Manggarai, Nusa Tenggara Tim. 86511","Jl. Slamet Riyadi, Watu, Kec. Langke Rembong, Kabupaten Manggarai",NUSA TENGGARA TIMUR,86511.0,Indonesia,,,,-8.6171664,120.469025,https://maps.google.com/?cid=0x0:0x982ad86e533a4711,
perumahan,perumahan,Hobbit Hill Homestay,"CF64+77F, Wali, Kec. Langke Rembong, Kabupaten Manggarai, Nusa Tenggara Tim.","Kabupaten Manggarai, Nusa Tenggara Tim.",NUSA TENGGARA TIMUR,,Indonesia,81246487553.0,,,-8.5894152,120.4564399,https://maps.google.com/?cid=0x0:0x5195107ebad1a36a,
perumahan,Taman,Lingko Spider Web Rice Fields,"C97C+C3W, Meler, Kec. Ruteng, Kabupaten Manggarai, Nusa Tenggara Tim.","Kabupaten Manggarai, Nusa Tenggara Tim.",NUSA TENGGARA TIMUR,,Indonesia,,,,-8.5863925,120.3702138,https://maps.google.com/?cid=0x0:0xee5b62f323e2d2a8,
perumahan,Komplek perumahan,"Leda,Bangka Leda","9CHV+FGR, Jl. Tulur, bangka leda, Kec. Langke Rembong, Kabupaten Manggarai, Nusa Tenggara Tim.","Kabupaten Manggarai, Nusa Tenggara Tim.",NUSA TENGGARA TIMUR,,Indonesia,,,,-8.6212511,120.4437603,https://maps.google.com/?cid=0x0:0x49445a5ecbbb4c7d,
perumahan,Padang,Rumah Makan Sindang Roso,"9FV8+3J7, Mbaumuku, Kec. Langke Rembong, Kabupaten Manggarai, Nusa Tenggara Tim.","Kabupaten Manggarai, Nusa Tenggara Tim.",NUSA TENGGARA TIMUR,,Indonesia,,,,-8.6073276,120.4665598,https://maps.google.com/?cid=0x0:0x473f54505c88adc0,
perumahan,perumahan,Karleta homestay,"Pau, Kec. Langke Rembong, Kabupaten Manggarai, Nusa Tenggara Tim.","Kabupaten Manggarai, Nusa Tenggara Tim.",NUSA TENGGARA TIMUR,,Indonesia,81338434271.0,,,-8.6247392,120.4480249,https://maps.google.com/?cid=0x0:0xc0cae5850d7fc6c8,
perumahan,Taman,Kampung Ruteng Pu'u,"9CPW+FP, Golo Dukal, Kec. Langke Rembong, Kabupaten Manggarai, Nusa Tenggara Tim.","Kabupaten Manggarai, Nusa Tenggara Tim.",NUSA TENGGARA TIMUR,,Indonesia,82235132065.0,,,-8.6118462,120.4459329,https://maps.google.com/?cid=0x0:0x77e6ee736159c680,
perumahan,Restoran,Rumah makan jawa LAMONGAN,"Jl. Dr. Soetomo No.20, RT.016/RW.004, Bangka Nekang, Kec. Langke Rembong, Kabupaten Manggarai, Nusa Tenggara Tim.","Kabupaten Manggarai, Nusa Tenggara Tim.",NUSA TENGGARA TIMUR,,Indonesia,81237174016.0,,,-8.6170744,120.4659452,https://maps.google.com/?cid=0x0:0xd2b87fb7781cba6c,
perumahan,Padang,RM Ranah Minang Dua,"9FR8+P58, Mbaumuku, Kec. Langke Rembong, Kabupaten Manggarai, Nusa Tenggara Tim.","Kabupaten Manggarai, Nusa Tenggara Tim.",NUSA TENGGARA TIMUR,,Indonesia,,,,-8.6082248,120.4654464,https://maps.google.com/?cid=0x0:0xcebd4aac041e9cc6,
perumahan,Bakso,Rumah Bakso Aa,"Tenda, Kec. Langke Rembong, Kabupaten Manggarai, Nusa Tenggara Tim.","Kabupaten Manggarai, Nusa Tenggara Tim.",NUSA TENGGARA TIMUR,,Indonesia,81236935233.0,,,-8.6104256,120.4755082,https://maps.google.com/?cid=0x0:0xc1c14b8a95b41dcc,
perumahan,perumahan,Ruteng,"Watu, Kec. Langke Rembong, Kabupaten Manggarai, Nusa Tenggara Tim.","Kabupaten Manggarai, Nusa Tenggara Tim.",NUSA TENGGARA TIMUR,,Indonesia,,,,-8.614365,120.466499,https://maps.google.com/?cid=0x0:0x4ebf85b0d2e46fde,
perumahan,Komplek perumahan,Robo,"9GP9+26, Ranaka, Kec. Wae Rii, Kabupaten Manggarai, Nusa Tenggara Tim.","Kabupaten Manggarai, Nusa Tenggara Tim.",NUSA TENGGARA TIMUR,,Indonesia,,,,-8.6148636,120.5180493,https://maps.google.com/?cid=0x0:0xd09e8cede03d6eff,
perumahan,Restoran,Rumah Makan Cha Cha,"Jl. Diponegoro No.12, Watu, Kec. Langke Rembong, Kabupaten Manggarai, Nusa Tenggara Tim. 86511","Watu, Kec. Langke Rembong, Kabupaten Manggarai",NUSA TENGGARA TIMUR,86511.0,Indonesia,81236989009.0,,,-8.6153631,120.465275,https://maps.google.com/?cid=0x0:0x36ac988c726ed544,
perumahan,Padang,RM SIMPANG ANDALAS,"9FQ7+837, Jl. Kartini, Pau, Kec. Langke Rembong, Kabupaten Manggarai, Nusa Tenggara Tim.","Kabupaten Manggarai, Nusa Tenggara Tim.",NUSA TENGGARA TIMUR,,Indonesia,81334813765.0,,,-8.6117048,120.4626718,https://maps.google.com/?cid=0x0:0x43f01b6e26b18c90,
perumahan,Komplek perumahan,Rumah,"9FM3+GV2, Pau, Kec. Langke Rembong, Kabupaten Manggarai, Nusa Tenggara Tim.","Kabupaten Manggarai, Nusa Tenggara Tim.",NUSA TENGGARA TIMUR,,Indonesia,,,,-8.6162347,120.4546526,https://maps.google.com/?cid=0x0:0x3ca3df1593dd52fc,
perumahan,Restoran,Rumah Makan Podomoro,"9FQF+RVP, Tenda, Kec. Langke Rembong, Kabupaten Manggarai, Nusa Tenggara Tim.","Kabupaten Manggarai, Nusa Tenggara Tim.",NUSA TENGGARA TIMUR,,Indonesia,85333654577.0,,,-8.6104246,120.4746911,https://maps.google.com/?cid=0x0:0x5acebb0cbbcb5585,
perumahan,Komplek perumahan,Rumah,"9FV4+6XQ, Lawir, Kec. Langke Rembong, Kabupaten Manggarai, Nusa Tenggara Tim.","Kabupaten Manggarai, Nusa Tenggara Tim.",NUSA TENGGARA TIMUR,,Indonesia,,,,-8.6069113,120.4574728,https://maps.google.com/?cid=0x0:0x7f609bb363b30c3a,
perumahan,Komplek perumahan,Rumah Riana-Riani,"9FG9+92R, Watu, Kec. Langke Rembong, Kabupaten Manggarai, Nusa Tenggara Tim.","Kabupaten Manggarai, Nusa Tenggara Tim.",NUSA TENGGARA TIMUR,,Indonesia,,,,-8.624003,120.467513,https://maps.google.com/?cid=0x0:0x72e3ba929aa3f419,
perumahan,Kantor Pendaftaran Militer,Perum Koramil,"9FM2+C9Q, Pau, Kec. Langke Rembong, Kabupaten Manggarai, Nusa Tenggara Tim.","Kabupaten Manggarai, Nusa Tenggara Tim.",NUSA TENGGARA TIMUR,,Indonesia,,,,-8.6164246,120.4509969,https://maps.google.com/?cid=0x0:0xfd776db5df539315,
perumahan,Komplek perumahan,Rumah Diana,"9FM3+Q78, Jl. Anggrek Utara, Pau, Kec. Langke Rembong, Kabupaten Manggarai, Nusa Tenggara Tim.","Kabupaten Manggarai, Nusa Tenggara Tim.",NUSA TENGGARA TIMUR,,Indonesia,,,,-8.615577,120.453212,https://maps.google.com/?cid=0x0:0x73f6eabb3e8f22d9,
perumahan,Gedung Apartemen,Perumahan Fideliva,"Jl. Kartini Ruteng No.17, Wali, Kec. Langke Rembong, Kabupaten Manggarai, Nusa Tenggara Tim.","Kabupaten Manggarai, Nusa Tenggara Tim.",NUSA TENGGARA TIMUR,,Indonesia,,,,-8.6093874,120.4507438,https://maps.google.com/?cid=0x0:0x46388dfd1026eab0,
perumahan,Komplek perumahan,Kakor,"9FP5+RWR, Pau, Kec. Langke Rembong, Kabupaten Manggarai, Nusa Tenggara Tim.","Kabupaten Manggarai, Nusa Tenggara Tim.",NUSA TENGGARA TIMUR,,Indonesia,,,,-8.6128816,120.459751,https://maps.google.com/?cid=0x0:0xb3be09305e28796a,
perumahan,Komplek perumahan,Ponggara,"Pau, Kec. Langke Rembong, Kabupaten Manggarai, Nusa Tenggara Tim.","Kabupaten Manggarai, Nusa Tenggara Tim.",NUSA TENGGARA TIMUR,,Indonesia,,,,-8.6155294,120.4613943,https://maps.google.com/?cid=0x0:0xeeb2efbd55192e28,
perumahan,Pembangunan Perumahan,Rumah detraqiandra,"9FF3+QXP, Waso, Kec. Langke Rembong, Kabupaten Manggarai, Nusa Tenggara Tim.","Kabupaten Manggarai, Nusa Tenggara Tim.",NUSA TENGGARA TIMUR,,Indonesia,,,,-8.626217,120.45531,https://maps.google.com/?cid=0x0:0xc1a144f479af3f55,
perumahan,perumahan,Kec. Langke Rembong,"Kabupaten Manggarai, Nusa Tenggara Tim.","Kabupaten Manggarai, Nusa Tenggara Tim.",NUSA TENGGARA TIMUR,,Indonesia,,,,-8.6155061,120.4613028,https://maps.google.com/?cid=0x0:0xe5ebb83f7cef70eb,
perumahan,Taman,"Kakor, Kecamatan Ruteng, Kabupaten Manggarai, Nusa Tenggara Timur, Indonesia","CCC7+4M6, Kakor, Kec. Ruteng, Kabupaten Manggarai, Nusa Tenggara Tim.","Kabupaten Manggarai, Nusa Tenggara Tim.",NUSA TENGGARA TIMUR,,Indonesia,,,,-8.5797172,120.4141341,https://maps.google.com/?cid=0x0:0xc8ab917dd5015c50,
perumahan,Balai masyarakat,Compang Tuke,"CC3R+6H5, Wali, Kec. Langke Rembong, Kabupaten Manggarai, Nusa Tenggara Tim.","Kabupaten Manggarai, Nusa Tenggara Tim.",NUSA TENGGARA TIMUR,,Indonesia,,,,-8.5969982,120.4414714,https://maps.google.com/?cid=0x0:0xf2a2c7d5528831bf,
perumahan,Pembangunan Perumahan,Perumahan Dinas BMKG ruteng,"9FXG+FXC, Tenda, Kec. Langke Rembong, Kabupaten Manggarai, Nusa Tenggara Tim.","Kabupaten Manggarai, Nusa Tenggara Tim.",NUSA TENGGARA TIMUR,,Indonesia,38521264.0,,,-8.6013217,120.4773901,https://maps.google.com/?cid=0x0:0xfbb77a480d325a7a,
perumahan,Rumah Sakit,BLUD RSUD Ruteng,"9FM9+55R, Jl. Dr. Soetomo No.1, Watu, Kec. Langke Rembong, Kabupaten Manggarai, Nusa Tenggara Tim.","Kabupaten Manggarai, Nusa Tenggara Tim.",NUSA TENGGARA TIMUR,,Indonesia,,,,-8.6170815,120.4670041,https://maps.google.com/?cid=0x0:0xa16ff5c1b884248c,
perumahan,Rumah wisata,Nekang,"9FP8+3GJ, Jl. Slamet Riyadi, Watu, Kec. Langke Rembong, Kabupaten Manggarai, Nusa Tenggara Tim. 86511","Jl. Slamet Riyadi, Watu, Kec. Langke Rembong, Kabupaten Manggarai",NUSA TENGGARA TIMUR,86511.0,Indonesia,,,,-8.6171664,120.469025,https://maps.google.com/?cid=0x0:0x982ad86e533a4711,
perumahan,perumahan,Hobbit Hill Homestay,"CF64+77F, Wali, Kec. Langke Rembong, Kabupaten Manggarai, Nusa Tenggara Tim.","Kabupaten Manggarai, Nusa Tenggara Tim.",NUSA TENGGARA TIMUR,,Indonesia,81246487553.0,,,-8.5894152,120.4564399,https://maps.google.com/?cid=0x0:0x5195107ebad1a36a,
perumahan,Taman,Lingko Spider Web Rice Fields,"C97C+C3W, Meler, Kec. Ruteng, Kabupaten Manggarai, Nusa Tenggara Tim.","Kabupaten Manggarai, Nusa Tenggara Tim.",NUSA TENGGARA TIMUR,,Indonesia,,,,-8.5863925,120.3702138,https://maps.google.com/?cid=0x0:0xee5b62f323e2d2a8,
perumahan,Padang,Rumah Makan Sindang Roso,"9FV8+3J7, Mbaumuku, Kec. Langke Rembong, Kabupaten Manggarai, Nusa Tenggara Tim.","Kabupaten Manggarai, Nusa Tenggara Tim.",NUSA TENGGARA TIMUR,,Indonesia,,,,-8.6073276,120.4665598,https://maps.google.com/?cid=0x0:0x473f54505c88adc0,
perumahan,perumahan,Karleta homestay,"Pau, Kec. Langke Rembong, Kabupaten Manggarai, Nusa Tenggara Tim.","Kabupaten Manggarai, Nusa Tenggara Tim.",NUSA TENGGARA TIMUR,,Indonesia,81338434271.0,,,-8.6247392,120.4480249,https://maps.google.com/?cid=0x0:0xc0cae5850d7fc6c8,
perumahan,Taman,Kampung Ruteng Pu'u,"9CPW+FP, Golo Dukal, Kec. Langke Rembong, Kabupaten Manggarai, Nusa Tenggara Tim.","Kabupaten Manggarai, Nusa Tenggara Tim.",NUSA TENGGARA TIMUR,,Indonesia,82235132065.0,,,-8.6118462,120.4459329,https://maps.google.com/?cid=0x0:0x77e6ee736159c680,
perumahan,perumahan,Ruteng,"Watu, Kec. Langke Rembong, Kabupaten Manggarai, Nusa Tenggara Tim.","Kabupaten Manggarai, Nusa Tenggara Tim.",NUSA TENGGARA TIMUR,,Indonesia,,,,-8.614365,120.466499,https://maps.google.com/?cid=0x0:0x4ebf85b0d2e46fde,
perumahan,Restoran,Rumah makan jawa LAMONGAN,"Jl. Dr. Soetomo No.20, RT.016/RW.004, Bangka Nekang, Kec. Langke Rembong, Kabupaten Manggarai, Nusa Tenggara Tim.","Kabupaten Manggarai, Nusa Tenggara Tim.",NUSA TENGGARA TIMUR,,Indonesia,81237174016.0,,,-8.6170744,120.4659452,https://maps.google.com/?cid=0x0:0xd2b87fb7781cba6c,
perumahan,Restoran,Rumah Makan Cha Cha,"Jl. Diponegoro No.12, Watu, Kec. Langke Rembong, Kabupaten Manggarai, Nusa Tenggara Tim. 86511","Watu, Kec. Langke Rembong, Kabupaten Manggarai",NUSA TENGGARA TIMUR,86511.0,Indonesia,81236989009.0,,,-8.6153631,120.465275,https://maps.google.com/?cid=0x0:0x36ac988c726ed544,
perumahan,Bakso,Rumah Bakso Aa,"Tenda, Kec. Langke Rembong, Kabupaten Manggarai, Nusa Tenggara Tim.","Kabupaten Manggarai, Nusa Tenggara Tim.",NUSA TENGGARA TIMUR,,Indonesia,81236935233.0,,,-8.6104256,120.4755082,https://maps.google.com/?cid=0x0:0xc1c14b8a95b41dcc,
perumahan,Lidah,Warung PADANG Sumber Baru,"9FR8+VPH, Mbaumuku, Kec. Langke Rembong, Kabupaten Manggarai, Nusa Tenggara Tim.","Kabupaten Manggarai, Nusa Tenggara Tim.",NUSA TENGGARA TIMUR,,Indonesia,,,,-8.6078128,120.4668575,https://maps.google.com/?cid=0x0:0xbb812d774a7d51bd,
perumahan,Padang,RM SIMPANG ANDALAS,"9FQ7+837, Jl. Kartini, Pau, Kec. Langke Rembong, Kabupaten Manggarai, Nusa Tenggara Tim.","Kabupaten Manggarai, Nusa Tenggara Tim.",NUSA TENGGARA TIMUR,,Indonesia,81334813765.0,,,-8.6117048,120.4626718,https://maps.google.com/?cid=0x0:0x43f01b6e26b18c90,
perumahan,perumahan,Ruteng Hostel,"9FP3+5MM, Jl. Anggrek Utara, Pau, Kec. Langke Rembong, Kabupaten Manggarai, Nusa Tenggara Tim.","Kabupaten Manggarai, Nusa Tenggara Tim.",NUSA TENGGARA TIMUR,,Indonesia,82181696949.0,,,-8.6147117,120.4540858,https://maps.google.com/?cid=0x0:0x5a799d202e1a1a7f,
perumahan,Toko Swalayan,Nirwana Pasaraya,"Mbaumuku, Kec. Langke Rembong, Kabupaten Manggarai, Nusa Tenggara Tim.","Kabupaten Manggarai, Nusa Tenggara Tim.",NUSA TENGGARA TIMUR,,Indonesia,38521265.0,,,-8.6090783,120.4685412,https://maps.google.com/?cid=0x0:0x43d25be070da0bcb,
perumahan,Bank,BNI Ruteng,"Jalan Kartini No.6, Tenda, Kec. Langke Rembong, Kabupaten Manggarai, Nusa Tenggara Tim.","Kabupaten Manggarai, Nusa Tenggara Tim.",NUSA TENGGARA TIMUR,,Indonesia,38521385.0,,,-8.6085618,120.4726055,https://maps.google.com/?cid=0x0:0xec097f8b71499bdd,
perumahan,Komplek perumahan,Rumah,"9FV4+6XQ, Lawir, Kec. Langke Rembong, Kabupaten Manggarai, Nusa Tenggara Tim.","Kabupaten Manggarai, Nusa Tenggara Tim.",NUSA TENGGARA TIMUR,,Indonesia,,,,-8.6069113,120.4574728,https://maps.google.com/?cid=0x0:0x7f609bb363b30c3a,
perumahan,Komplek perumahan,Rumah Riana-Riani,"9FG9+92R, Watu, Kec. Langke Rembong, Kabupaten Manggarai, Nusa Tenggara Tim.","Kabupaten Manggarai, Nusa Tenggara Tim.",NUSA TENGGARA TIMUR,,Indonesia,,,,-8.624003,120.467513,https://maps.google.com/?cid=0x0:0x72e3ba929aa3f419,
perumahan,Komplek perumahan,Rumah,"9FM3+GV2, Pau, Kec. Langke Rembong, Kabupaten Manggarai, Nusa Tenggara Tim.","Kabupaten Manggarai, Nusa Tenggara Tim.",NUSA TENGGARA TIMUR,,Indonesia,,,,-8.6162347,120.4546526,https://maps.google.com/?cid=0x0:0x3ca3df1593dd52fc,
perumahan,Komplek perumahan,Ponggara,"Pau, Kec. Langke Rembong, Kabupaten Manggarai, Nusa Tenggara Tim.","Kabupaten Manggarai, Nusa Tenggara Tim.",NUSA TENGGARA TIMUR,,Indonesia,,,,-8.6155294,120.4613943,https://maps.google.com/?cid=0x0:0xeeb2efbd55192e28,
perumahan,Pembangunan Perumahan,Rumah detraqiandra,"9FF3+QXP, Waso, Kec. Langke Rembong, Kabupaten Manggarai, Nusa Tenggara Tim.","Kabupaten Manggarai, Nusa Tenggara Tim.",NUSA TENGGARA TIMUR,,Indonesia,,,,-8.626217,120.45531,https://maps.google.com/?cid=0x0:0xc1a144f479af3f55,
perumahan,Komplek perumahan,Rumah ende Udis,"9FF5+P4H, Waso, Kec. Langke Rembong, Kabupaten Manggarai, Nusa Tenggara Tim.","Kabupaten Manggarai, Nusa Tenggara Tim.",NUSA TENGGARA TIMUR,,Indonesia,,,,-8.6256933,120.4578573,https://maps.google.com/?cid=0x0:0xad7e467d5cb1b498,
perumahan,Gedung Apartemen,Perumahan Fideliva,"Jl. Kartini Ruteng No.17, Wali, Kec. Langke Rembong, Kabupaten Manggarai, Nusa Tenggara Tim.","Kabupaten Manggarai, Nusa Tenggara Tim.",NUSA TENGGARA TIMUR,,Indonesia,,,,-8.6093874,120.4507438,https://maps.google.com/?cid=0x0:0x46388dfd1026eab0,
perumahan,Komplek perumahan,Rumah Eman Bria,"9FP5+7FM, Pau, Kec. Langke Rembong, Kabupaten Manggarai, Nusa Tenggara Tim.","Kabupaten Manggarai, Nusa Tenggara Tim.",NUSA TENGGARA TIMUR,,Indonesia,,,,-8.6142878,120.4586593,https://maps.google.com/?cid=0x0:0x15117833159777fa,
perumahan,Komplek perumahan,Rumah Diana,"9FM3+Q78, Jl. Anggrek Utara, Pau, Kec. Langke Rembong, Kabupaten Manggarai, Nusa Tenggara Tim.","Kabupaten Manggarai, Nusa Tenggara Tim.",NUSA TENGGARA TIMUR,,Indonesia,,,,-8.615577,120.453212,https://maps.google.com/?cid=0x0:0x73f6eabb3e8f22d9,
perumahan,perumahan,Kec. Langke Rembong,"Kabupaten Manggarai, Nusa Tenggara Tim.","Kabupaten Manggarai, Nusa Tenggara Tim.",NUSA TENGGARA TIMUR,,Indonesia,,,,-8.6155061,120.4613028,https://maps.google.com/?cid=0x0:0xe5ebb83f7cef70eb,
perumahan,Komplek perumahan,Rumah,"9FV4+6XQ, Lawir, Kec. Langke Rembong, Kabupaten Manggarai, Nusa Tenggara Tim.","Kabupaten Manggarai, Nusa Tenggara Tim.",NUSA TENGGARA TIMUR,,Indonesia,,,,-8.6069113,120.4574728,https://maps.google.com/?cid=0x0:0x7f609bb363b30c3a,
perumahan,Komplek perumahan,Rumah,"9FM3+GV2, Pau, Kec. Langke Rembong, Kabupaten Manggarai, Nusa Tenggara Tim.","Kabupaten Manggarai, Nusa Tenggara Tim.",NUSA TENGGARA TIMUR,,Indonesia,,,,-8.6162347,120.4546526,https://maps.google.com/?cid=0x0:0x3ca3df1593dd52fc,
perumahan,Gedung Apartemen,Perumahan Fideliva,"Jl. Kartini Ruteng No.17, Wali, Kec. Langke Rembong, Kabupaten Manggarai, Nusa Tenggara Tim.","Kabupaten Manggarai, Nusa Tenggara Tim.",NUSA TENGGARA TIMUR,,Indonesia,,,,-8.6093874,120.4507438,https://maps.google.com/?cid=0x0:0x46388dfd1026eab0,
perumahan,Komplek perumahan,Rumah Diana,"9FM3+Q78, Jl. Anggrek Utara, Pau, Kec. Langke Rembong, Kabupaten Manggarai, Nusa Tenggara Tim.","Kabupaten Manggarai, Nusa Tenggara Tim.",NUSA TENGGARA TIMUR,,Indonesia,,,,-8.615577,120.453212,https://maps.google.com/?cid=0x0:0x73f6eabb3e8f22d9,
perumahan,Komplek perumahan,Ponggara,"Pau, Kec. Langke Rembong, Kabupaten Manggarai, Nusa Tenggara Tim.","Kabupaten Manggarai, Nusa Tenggara Tim.",NUSA TENGGARA TIMUR,,Indonesia,,,,-8.6155294,120.4613943,https://maps.google.com/?cid=0x0:0xeeb2efbd55192e28,
perumahan,Komplek perumahan,Lempe,"9FP3+M7C, Pau, Kec. Langke Rembong, Kabupaten Manggarai, Nusa Tenggara Tim.","Kabupaten Manggarai, Nusa Tenggara Tim.",NUSA TENGGARA TIMUR,,Indonesia,,,,-8.6135376,120.4529087,https://maps.google.com/?cid=0x0:0x42d1de6db627e67a,
perumahan,Komplek perumahan,Rumah Eman Bria,"9FP5+7FM, Pau, Kec. Langke Rembong, Kabupaten Manggarai, Nusa Tenggara Tim.","Kabupaten Manggarai, Nusa Tenggara Tim.",NUSA TENGGARA TIMUR,,Indonesia,,,,-8.6142878,120.4586593,https://maps.google.com/?cid=0x0:0x15117833159777fa,
perumahan,Komplek perumahan,Kakor,"9FP5+RWR, Pau, Kec. Langke Rembong, Kabupaten Manggarai, Nusa Tenggara Tim.","Kabupaten Manggarai, Nusa Tenggara Tim.",NUSA TENGGARA TIMUR,,Indonesia,,,,-8.6128816,120.459751,https://maps.google.com/?cid=0x0:0xb3be09305e28796a,
perumahan,Komplek perumahan,"Labe, Kel. Carep. Kec. Langke Rembong Kab. Manggarai NTT","Labe, Carep, Kec. Langke Rembong, Kabupaten Manggarai, Nusa Tenggara Tim.","Kabupaten Manggarai, Nusa Tenggara Tim.",NUSA TENGGARA TIMUR,,Indonesia,,,,-8.6142556,120.4829474,https://maps.google.com/?cid=0x0:0xfb1c2b4509aa243c,
perumahan,Komplek perumahan,Rumah Milea,"9FX6+735, RT.007/RW.004, Pitak, Kec. Langke Rembong, Kabupaten Manggarai, Nusa Tenggara Tim.","Kabupaten Manggarai, Nusa Tenggara Tim.",NUSA TENGGARA TIMUR,,Indonesia,,,,-8.6018725,120.4602459,https://maps.google.com/?cid=0x0:0x2f80f14750c48e08,
perumahan,perumahan,Ergi Permana,"9FP4+5HX, Pau, Kec. Langke Rembong, Kabupaten Manggarai, Nusa Tenggara Tim.","Kabupaten Manggarai, Nusa Tenggara Tim.",NUSA TENGGARA TIMUR,,Indonesia,,,,-8.6146346,120.4564459,https://maps.google.com/?cid=0x0:0xe2e8a75a7cd1a4,
perumahan,Komplek perumahan,Rumah kenangan,"9FM8+V44, Jl. Diponegoro, Watu, Kec. Langke Rembong, Kabupaten Manggarai, Nusa Tenggara Tim.","Kabupaten Manggarai, Nusa Tenggara Tim.",NUSA TENGGARA TIMUR,,Indonesia,,,,-8.6153579,120.4653397,https://maps.google.com/?cid=0x0:0x9e6df448ef3284af,
perumahan,Komplek perumahan,Rumah ende Udis,"9FF5+P4H, Waso, Kec. Langke Rembong, Kabupaten Manggarai, Nusa Tenggara Tim.","Kabupaten Manggarai, Nusa Tenggara Tim.",NUSA TENGGARA TIMUR,,Indonesia,,,,-8.6256933,120.4578573,https://maps.google.com/?cid=0x0:0xad7e467d5cb1b498,
perumahan,Komplek perumahan,Casa de Baleo,"Jl. Kartini No.03, Lawir, Kec. Langke Rembong, Kabupaten Manggarai, Nusa Tenggara Tim.","Kabupaten Manggarai, Nusa Tenggara Tim.",NUSA TENGGARA TIMUR,,Indonesia,,,,-8.6130206,120.4624737,https://maps.google.com/?cid=0x0:0x88f3208b7f42ea6c,
perumahan,perumahan,Caesar lajar,"9FJ5+7J4, Waso, Kec. Langke Rembong, Kabupaten Manggarai, Nusa Tenggara Tim.","Kabupaten Manggarai, Nusa Tenggara Tim.",NUSA TENGGARA TIMUR,,Indonesia,,,,-8.6193742,120.4590653,https://maps.google.com/?cid=0x0:0x91b3a48298b0d682,
perumahan,Komplek perumahan,KOS LIMA BERSAUDARA,"9FH4+24P, Waso, Kec. Langke Rembong, Kabupaten Manggarai, Nusa Tenggara Tim.","Kabupaten Manggarai, Nusa Tenggara Tim.",NUSA TENGGARA TIMUR,,Indonesia,,,,-8.622401,120.4553424,https://maps.google.com/?cid=0x0:0xcdfc37fad31c3663,
perumahan,Komplek perumahan,Rumah bpa damianaus,"9F97+X7W, Waso, Kec. Langke Rembong, Kabupaten Manggarai, Nusa Tenggara Tim.","Kabupaten Manggarai, Nusa Tenggara Tim.",NUSA TENGGARA TIMUR,,Indonesia,,,,-8.6289315,120.4642662,https://maps.google.com/?cid=0x0:0x9e8e3b4653bc95f1,
perumahan,perumahan,Rumah Bpk Yos Danu,"9CMX+GWW, Jl. Lavender I, RT.33/RW.10, Pau, Kec. Langke Rembong, Kabupaten Manggarai, Nusa Tenggara Tim.","Kabupaten Manggarai, Nusa Tenggara Tim.",NUSA TENGGARA TIMUR,,Indonesia,,,,-8.6161395,120.4498151,https://maps.google.com/?cid=0x0:0x10ffb65c86d1dfac,
perumahan,Komplek perumahan,Frans sareng,"9FH7+82R, Waso, Kec. Langke Rembong, Kabupaten Manggarai, Nusa Tenggara Tim.","Kabupaten Manggarai, Nusa Tenggara Tim.",NUSA TENGGARA TIMUR,,Indonesia,,,,-8.6216337,120.4625282,https://maps.google.com/?cid=0x0:0x7e8517c495ab44ac,
perumahan,Komplek perumahan,Perumahan,"9FX2+4PQ, Wali, Kec. Langke Rembong, Kabupaten Manggarai, Nusa Tenggara Tim.","Kabupaten Manggarai, Nusa Tenggara Tim.",NUSA TENGGARA TIMUR,,Indonesia,,,,-8.6021665,120.4518609,https://maps.google.com/?cid=0x0:0x265aee011e976d27,
perumahan,Komplek perumahan,Perumnas Mena,"CC5R+H9C, Jl. Komodo Trans Ruteng, Wali, Kec. Langke Rembong, Kabupaten Manggarai, Nusa Tenggara Tim.","Kabupaten Manggarai, Nusa Tenggara Tim.",NUSA TENGGARA TIMUR,,Indonesia,81334128289.0,,,-8.5910676,120.4408984,https://maps.google.com/?cid=0x0:0xfeb3ba27dea64522,
perumahan,Komplek perumahan,Rumah om Mus,"9FV2+H25, Wali, Kec. Langke Rembong, Kabupaten Manggarai, Nusa Tenggara Tim.","Kabupaten Manggarai, Nusa Tenggara Tim.",NUSA TENGGARA TIMUR,,Indonesia,,,,-8.6061102,120.4501137,https://maps.google.com/?cid=0x0:0x243e7866d7b260c6,
perumahan,Pembangunan Perumahan,Rumah detraqiandra,"9FF3+QXP, Waso, Kec. Langke Rembong, Kabupaten Manggarai, Nusa Tenggara Tim.","Kabupaten Manggarai, Nusa Tenggara Tim.",NUSA TENGGARA TIMUR,,Indonesia,,,,-8.626217,120.45531,https://maps.google.com/?cid=0x0:0xc1a144f479af3f55,
perumahan,Komplek perumahan,"Kelurahan Lawir,kec langke rembong Manggarai","CF49+R5G, Karot, Kec. Langke Rembong, Kabupaten Manggarai, Nusa Tenggara Tim.","Kabupaten Manggarai, Nusa Tenggara Tim.",NUSA TENGGARA TIMUR,,Indonesia,81338564245.0,,,-8.5927109,120.4681434,https://maps.google.com/?cid=0x0:0x38752ddfc4f18b4,
perumahan,Kantor Pendaftaran Militer,Perum Koramil,"9FM2+C9Q, Pau, Kec. Langke Rembong, Kabupaten Manggarai, Nusa Tenggara Tim.","Kabupaten Manggarai, Nusa Tenggara Tim.",NUSA TENGGARA TIMUR,,Indonesia,,,,-8.6164246,120.4509969,https://maps.google.com/?cid=0x0:0xfd776db5df539315,
perumahan,Komplek perumahan,H.G Home,"9FF5+GVW, Waso, Kec. Langke Rembong, Kabupaten Manggarai, Nusa Tenggara Tim.","Kabupaten Manggarai, Nusa Tenggara Tim.",NUSA TENGGARA TIMUR,,Indonesia,,,,-8.6261274,120.4596949,https://maps.google.com/?cid=0x0:0xb1887dbfd64b1dac,
perumahan,Perhimpunan Pengembang Perumahan,Ruko pemda ruteng,"Ruko pemda ruteng, Mbaumuku, Kec. Langke Rembong, Kabupaten Manggarai, Nusa Tenggara Tim.","Kabupaten Manggarai, Nusa Tenggara Tim.",NUSA TENGGARA TIMUR,,Indonesia,,,,-8.6088718,120.464858,https://maps.google.com/?cid=0x0:0x6eb68ac111a9bfaa,
perumahan,Komplek perumahan,Djedoma Family Ruko,"9FR7+987, Pitak, Kec. Langke Rembong, Kabupaten Manggarai, Nusa Tenggara Tim.","Kabupaten Manggarai, Nusa Tenggara Tim.",NUSA TENGGARA TIMUR,,Indonesia,81387650412.0,,,-8.6090014,120.4633139,https://maps.google.com/?cid=0x0:0xe13bf615903f9cab,
perumahan,perumahan,Kec. Langke Rembong,"Kabupaten Manggarai, Nusa Tenggara Tim.","Kabupaten Manggarai, Nusa Tenggara Tim.",NUSA TENGGARA TIMUR,,Indonesia,,,,-8.6155061,120.4613028,https://maps.google.com/?cid=0x0:0xe5ebb83f7cef70eb,
perumahan,Komplek perumahan,Perumnas Mena,"CC5R+H9C, Jl. Komodo Trans Ruteng, Wali, Kec. Langke Rembong, Kabupaten Manggarai, Nusa Tenggara Tim.","Kabupaten Manggarai, Nusa Tenggara Tim.",NUSA TENGGARA TIMUR,,Indonesia,81334128289.0,,,-8.5910676,120.4408984,https://maps.google.com/?cid=0x0:0xfeb3ba27dea64522,
perumahan,Taman,"Kakor, Kecamatan Ruteng, Kabupaten Manggarai, Nusa Tenggara Timur, Indonesia","CCC7+4M6, Kakor, Kec. Ruteng, Kabupaten Manggarai, Nusa Tenggara Tim.","Kabupaten Manggarai, Nusa Tenggara Tim.",NUSA TENGGARA TIMUR,,Indonesia,,,,-8.5797172,120.4141341,https://maps.google.com/?cid=0x0:0xc8ab917dd5015c50,
perumahan,Balai masyarakat,Compang Tuke,"CC3R+6H5, Wali, Kec. Langke Rembong, Kabupaten Manggarai, Nusa Tenggara Tim.","Kabupaten Manggarai, Nusa Tenggara Tim.",NUSA TENGGARA TIMUR,,Indonesia,,,,-8.5969982,120.4414714,https://maps.google.com/?cid=0x0:0xf2a2c7d5528831bf,
perumahan,Layanan Perujuk Teman Kos,Gewak Tenda,"9FMH+R3F, Tenda, Kec. Langke Rembong, Kabupaten Manggarai, Nusa Tenggara Tim.","Kabupaten Manggarai, Nusa Tenggara Tim.",NUSA TENGGARA TIMUR,,Indonesia,,,,-8.6150376,120.4767307,https://maps.google.com/?cid=0x0:0xaaaaf0dcfd941219,
perumahan,Rumah Sakit,BLUD RSUD Ruteng,"9FM9+55R, Jl. Dr. Soetomo No.1, Watu, Kec. Langke Rembong, Kabupaten Manggarai, Nusa Tenggara Tim.","Kabupaten Manggarai, Nusa Tenggara Tim.",NUSA TENGGARA TIMUR,,Indonesia,,,,-8.6170815,120.4670041,https://maps.google.com/?cid=0x0:0xa16ff5c1b884248c,
perumahan,perumahan,Hobbit Hill Homestay,"CF64+77F, Wali, Kec. Langke Rembong, Kabupaten Manggarai, Nusa Tenggara Tim.","Kabupaten Manggarai, Nusa Tenggara Tim.",NUSA TENGGARA TIMUR,,Indonesia,81246487553.0,,,-8.5894152,120.4564399,https://maps.google.com/?cid=0x0:0x5195107ebad1a36a,
perumahan,Sekolah,Rumah Baca Aksara,"Gg. Timor, Carep, Kec. Langke Rembong, Kabupaten Manggarai, Nusa Tenggara Tim. 86519","Carep, Kec. Langke Rembong, Kabupaten Manggarai",NUSA TENGGARA TIMUR,86519.0,Indonesia,82339623899.0,,,-8.6106439,120.4842103,https://maps.google.com/?cid=0x0:0x25f9e61391e111d6,
perumahan,Taman,Lingko Spider Web Rice Fields,"C97C+C3W, Meler, Kec. Ruteng, Kabupaten Manggarai, Nusa Tenggara Tim.","Kabupaten Manggarai, Nusa Tenggara Tim.",NUSA TENGGARA TIMUR,,Indonesia,,,,-8.5863925,120.3702138,https://maps.google.com/?cid=0x0:0xee5b62f323e2d2a8,
perumahan,Rumah wisata,Nekang,"9FP8+3GJ, Jl. Slamet Riyadi, Watu, Kec. Langke Rembong, Kabupaten Manggarai, Nusa Tenggara Tim. 86511","Jl. Slamet Riyadi, Watu, Kec. Langke Rembong, Kabupaten Manggarai",NUSA TENGGARA TIMUR,86511.0,Indonesia,,,,-8.6171664,120.469025,https://maps.google.com/?cid=0x0:0x982ad86e533a4711,
perumahan,perumahan,Karleta homestay,"Pau, Kec. Langke Rembong, Kabupaten Manggarai, Nusa Tenggara Tim.","Kabupaten Manggarai, Nusa Tenggara Tim.",NUSA TENGGARA TIMUR,,Indonesia,81338434271.0,,,-8.6247392,120.4480249,https://maps.google.com/?cid=0x0:0xc0cae5850d7fc6c8,
perumahan,Taman,Kampung Ruteng Pu'u,"9CPW+FP, Golo Dukal, Kec. Langke Rembong, Kabupaten Manggarai, Nusa Tenggara Tim.","Kabupaten Manggarai, Nusa Tenggara Tim.",NUSA TENGGARA TIMUR,,Indonesia,82235132065.0,,,-8.6118462,120.4459329,https://maps.google.com/?cid=0x0:0x77e6ee736159c680,
perumahan,Restoran,Rumah makan jawa LAMONGAN,"Jl. Dr. Soetomo No.20, RT.016/RW.004, Bangka Nekang, Kec. Langke Rembong, Kabupaten Manggarai, Nusa Tenggara Tim.","Kabupaten Manggarai, Nusa Tenggara Tim.",NUSA TENGGARA TIMUR,,Indonesia,81237174016.0,,,-8.6170744,120.4659452,https://maps.google.com/?cid=0x0:0xd2b87fb7781cba6c,
perumahan,perumahan,Ruteng,"Watu, Kec. Langke Rembong, Kabupaten Manggarai, Nusa Tenggara Tim.","Kabupaten Manggarai, Nusa Tenggara Tim.",NUSA TENGGARA TIMUR,,Indonesia,,,,-8.614365,120.466499,https://maps.google.com/?cid=0x0:0x4ebf85b0d2e46fde,
perumahan,Padang,Rumah Makan Sindang Roso,"9FV8+3J7, Mbaumuku, Kec. Langke Rembong, Kabupaten Manggarai, Nusa Tenggara Tim.","Kabupaten Manggarai, Nusa Tenggara Tim.",NUSA TENGGARA TIMUR,,Indonesia,,,,-8.6073276,120.4665598,https://maps.google.com/?cid=0x0:0x473f54505c88adc0,
perumahan,Padang,RM SIMPANG ANDALAS,"9FQ7+837, Jl. Kartini, Pau, Kec. Langke Rembong, Kabupaten Manggarai, Nusa Tenggara Tim.","Kabupaten Manggarai, Nusa Tenggara Tim.",NUSA TENGGARA TIMUR,,Indonesia,81334813765.0,,,-8.6117048,120.4626718,https://maps.google.com/?cid=0x0:0x43f01b6e26b18c90,
perumahan,Bakso,Rumah Bakso Aa,"Tenda, Kec. Langke Rembong, Kabupaten Manggarai, Nusa Tenggara Tim.","Kabupaten Manggarai, Nusa Tenggara Tim.",NUSA TENGGARA TIMUR,,Indonesia,81236935233.0,,,-8.6104256,120.4755082,https://maps.google.com/?cid=0x0:0xc1c14b8a95b41dcc,
perumahan,perumahan,D-Rima Homestay,"Mbaumuku, Kec. Langke Rembong, Kabupaten Manggarai, Nusa Tenggara Tim.","Kabupaten Manggarai, Nusa Tenggara Tim.",NUSA TENGGARA TIMUR,,Indonesia,81379581188.0,,,-8.6053096,120.4680183,https://maps.google.com/?cid=0x0:0xb2e300d5998124c2,
perumahan,Tempat Religius,Keuskupan Ruteng,"Jl. Ahmad Yani No.10, Watu, Kec. Langke Rembong, Kabupaten Manggarai, Nusa Tenggara Tim.","Kabupaten Manggarai, Nusa Tenggara Tim.",NUSA TENGGARA TIMUR,,Indonesia,,,,-8.6114349,120.4687303,https://maps.google.com/?cid=0x0:0x69109760a8d24b10,
perumahan,Toko Swalayan,Nirwana Pasaraya,"Mbaumuku, Kec. Langke Rembong, Kabupaten Manggarai, Nusa Tenggara Tim.","Kabupaten Manggarai, Nusa Tenggara Tim.",NUSA TENGGARA TIMUR,,Indonesia,38521265.0,,,-8.6090783,120.4685412,https://maps.google.com/?cid=0x0:0x43d25be070da0bcb,
perumahan,Lidah,Warung PADANG Sumber Baru,"9FR8+VPH, Mbaumuku, Kec. Langke Rembong, Kabupaten Manggarai, Nusa Tenggara Tim.","Kabupaten Manggarai, Nusa Tenggara Tim.",NUSA TENGGARA TIMUR,,Indonesia,,,,-8.6078128,120.4668575,https://maps.google.com/?cid=0x0:0xbb812d774a7d51bd,
perumahan,Komplek perumahan,Rumah,"9FV4+6XQ, Lawir, Kec. Langke Rembong, Kabupaten Manggarai, Nusa Tenggara Tim.","Kabupaten Manggarai, Nusa Tenggara Tim.",NUSA TENGGARA TIMUR,,Indonesia,,,,-8.6069113,120.4574728,https://maps.google.com/?cid=0x0:0x7f609bb363b30c3a,
perumahan,Komplek perumahan,Rumah Riana-Riani,"9FG9+92R, Watu, Kec. Langke Rembong, Kabupaten Manggarai, Nusa Tenggara Tim.","Kabupaten Manggarai, Nusa Tenggara Tim.",NUSA TENGGARA TIMUR,,Indonesia,,,,-8.624003,120.467513,https://maps.google.com/?cid=0x0:0x72e3ba929aa3f419,
perumahan,Komplek perumahan,Rumah,"9FM3+GV2, Pau, Kec. Langke Rembong, Kabupaten Manggarai, Nusa Tenggara Tim.","Kabupaten Manggarai, Nusa Tenggara Tim.",NUSA TENGGARA TIMUR,,Indonesia,,,,-8.6162347,120.4546526,https://maps.google.com/?cid=0x0:0x3ca3df1593dd52fc,
perumahan,Gedung Apartemen,Perumahan Fideliva,"Jl. Kartini Ruteng No.17, Wali, Kec. Langke Rembong, Kabupaten Manggarai, Nusa Tenggara Tim.","Kabupaten Manggarai, Nusa Tenggara Tim.",NUSA TENGGARA TIMUR,,Indonesia,,,,-8.6093874,120.4507438,https://maps.google.com/?cid=0x0:0x46388dfd1026eab0,
perumahan,Pembangunan Perumahan,Rumah detraqiandra,"9FF3+QXP, Waso, Kec. Langke Rembong, Kabupaten Manggarai, Nusa Tenggara Tim.","Kabupaten Manggarai, Nusa Tenggara Tim.",NUSA TENGGARA TIMUR,,Indonesia,,,,-8.626217,120.45531,https://maps.google.com/?cid=0x0:0xc1a144f479af3f55,
perumahan,Komplek perumahan,Ponggara,"Pau, Kec. Langke Rembong, Kabupaten Manggarai, Nusa Tenggara Tim.","Kabupaten Manggarai, Nusa Tenggara Tim.",NUSA TENGGARA TIMUR,,Indonesia,,,,-8.6155294,120.4613943,https://maps.google.com/?cid=0x0:0xeeb2efbd55192e28,
perumahan,Komplek perumahan,Rumah Milea,"9FX6+735, RT.007/RW.004, Pitak, Kec. Langke Rembong, Kabupaten Manggarai, Nusa Tenggara Tim.","Kabupaten Manggarai, Nusa Tenggara Tim.",NUSA TENGGARA TIMUR,,Indonesia,,,,-8.6018725,120.4602459,https://maps.google.com/?cid=0x0:0x2f80f14750c48e08,
perumahan,Komplek perumahan,Rumah Eman Bria,"9FP5+7FM, Pau, Kec. Langke Rembong, Kabupaten Manggarai, Nusa Tenggara Tim.","Kabupaten Manggarai, Nusa Tenggara Tim.",NUSA TENGGARA TIMUR,,Indonesia,,,,-8.6142878,120.4586593,https://maps.google.com/?cid=0x0:0x15117833159777fa,
perumahan,perumahan,Kec. Langke Rembong,"Kabupaten Manggarai, Nusa Tenggara Tim.","Kabupaten Manggarai, Nusa Tenggara Tim.",NUSA TENGGARA TIMUR,,Indonesia,,,,-8.6155061,120.4613028,https://maps.google.com/?cid=0x0:0xe5ebb83f7cef70eb,
perumahan,Taman,"Kakor, Kecamatan Ruteng, Kabupaten Manggarai, Nusa Tenggara Timur, Indonesia","CCC7+4M6, Kakor, Kec. Ruteng, Kabupaten Manggarai, Nusa Tenggara Tim.","Kabupaten Manggarai, Nusa Tenggara Tim.",NUSA TENGGARA TIMUR,,Indonesia,,,,-8.5797172,120.4141341,https://maps.google.com/?cid=0x0:0xc8ab917dd5015c50,
perumahan,Pembangunan Perumahan,Perumahan Dinas BMKG ruteng,"9FXG+FXC, Tenda, Kec. Langke Rembong, Kabupaten Manggarai, Nusa Tenggara Tim.","Kabupaten Manggarai, Nusa Tenggara Tim.",NUSA TENGGARA TIMUR,,Indonesia,38521264.0,,,-8.6013217,120.4773901,https://maps.google.com/?cid=0x0:0xfbb77a480d325a7a,
perumahan,Komplek perumahan,Rangkat Redong,"9FG9+MCH, Jl. Pahlawan, Watu, Kec. Langke Rembong, Kabupaten Manggarai, Nusa Tenggara Tim.","Kabupaten Manggarai, Nusa Tenggara Tim.",NUSA TENGGARA TIMUR,,Indonesia,,,,-8.6233021,120.4686118,https://maps.google.com/?cid=0x0:0x2a388e42ed30b6e,
perumahan,Layanan Perujuk Teman Kos,Gewak Tenda,"9FMH+R3F, Tenda, Kec. Langke Rembong, Kabupaten Manggarai, Nusa Tenggara Tim.","Kabupaten Manggarai, Nusa Tenggara Tim.",NUSA TENGGARA TIMUR,,Indonesia,,,,-8.6150376,120.4767307,https://maps.google.com/?cid=0x0:0xaaaaf0dcfd941219,
perumahan,Rumah Sakit,BLUD RSUD Ruteng,"9FM9+55R, Jl. Dr. Soetomo No.1, Watu, Kec. Langke Rembong, Kabupaten Manggarai, Nusa Tenggara Tim.","Kabupaten Manggarai, Nusa Tenggara Tim.",NUSA TENGGARA TIMUR,,Indonesia,,,,-8.6170815,120.4670041,https://maps.google.com/?cid=0x0:0xa16ff5c1b884248c,
perumahan,Komplek perumahan,Waso Dede,"9FF2+7Q4, Waso, Kec. Langke Rembong, Kabupaten Manggarai, Nusa Tenggara Tim.","Kabupaten Manggarai, Nusa Tenggara Tim.",NUSA TENGGARA TIMUR,,Indonesia,,,,-8.6268721,120.4519585,https://maps.google.com/?cid=0x0:0x343e362b798ae6fb,
perumahan,perumahan,Hobbit Hill Homestay,"CF64+77F, Wali, Kec. Langke Rembong, Kabupaten Manggarai, Nusa Tenggara Tim.","Kabupaten Manggarai, Nusa Tenggara Tim.",NUSA TENGGARA TIMUR,,Indonesia,81246487553.0,,,-8.5894152,120.4564399,https://maps.google.com/?cid=0x0:0x5195107ebad1a36a,
perumahan,Taman,Lingko Spider Web Rice Fields,"C97C+C3W, Meler, Kec. Ruteng, Kabupaten Manggarai, Nusa Tenggara Tim.","Kabupaten Manggarai, Nusa Tenggara Tim.",NUSA TENGGARA TIMUR,,Indonesia,,,,-8.5863925,120.3702138,https://maps.google.com/?cid=0x0:0xee5b62f323e2d2a8,
perumahan,Taman,Kampung Ruteng Pu'u,"9CPW+FP, Golo Dukal, Kec. Langke Rembong, Kabupaten Manggarai, Nusa Tenggara Tim.","Kabupaten Manggarai, Nusa Tenggara Tim.",NUSA TENGGARA TIMUR,,Indonesia,82235132065.0,,,-8.6118462,120.4459329,https://maps.google.com/?cid=0x0:0x77e6ee736159c680,
perumahan,perumahan,Karleta homestay,"Pau, Kec. Langke Rembong, Kabupaten Manggarai, Nusa Tenggara Tim.","Kabupaten Manggarai, Nusa Tenggara Tim.",NUSA TENGGARA TIMUR,,Indonesia,81338434271.0,,,-8.6247392,120.4480249,https://maps.google.com/?cid=0x0:0xc0cae5850d7fc6c8,
perumahan,Rumah wisata,Nekang,"9FP8+3GJ, Jl. Slamet Riyadi, Watu, Kec. Langke Rembong, Kabupaten Manggarai, Nusa Tenggara Tim. 86511","Jl. Slamet Riyadi, Watu, Kec. Langke Rembong, Kabupaten Manggarai",NUSA TENGGARA TIMUR,86511.0,Indonesia,,,,-8.6171664,120.469025,https://maps.google.com/?cid=0x0:0x982ad86e533a4711,
perumahan,Restoran,Rumah makan jawa LAMONGAN,"Jl. Dr. Soetomo No.20, RT.016/RW.004, Bangka Nekang, Kec. Langke Rembong, Kabupaten Manggarai, Nusa Tenggara Tim.","Kabupaten Manggarai, Nusa Tenggara Tim.",NUSA TENGGARA TIMUR,,Indonesia,81237174016.0,,,-8.6170744,120.4659452,https://maps.google.com/?cid=0x0:0xd2b87fb7781cba6c,
perumahan,Padang,Rumah Makan Sindang Roso,"9FV8+3J7, Mbaumuku, Kec. Langke Rembong, Kabupaten Manggarai, Nusa Tenggara Tim.","Kabupaten Manggarai, Nusa Tenggara Tim.",NUSA TENGGARA TIMUR,,Indonesia,,,,-8.6073276,120.4665598,https://maps.google.com/?cid=0x0:0x473f54505c88adc0,
perumahan,perumahan,Ruteng,"Watu, Kec. Langke Rembong, Kabupaten Manggarai, Nusa Tenggara Tim.","Kabupaten Manggarai, Nusa Tenggara Tim.",NUSA TENGGARA TIMUR,,Indonesia,,,,-8.614365,120.466499,https://maps.google.com/?cid=0x0:0x4ebf85b0d2e46fde,
perumahan,Perhimpunan Pengembang Perumahan,Namut,"9CR8+VCH, Poco Likang, Kec. Ruteng, Kabupaten Manggarai, Nusa Tenggara Tim.","Kabupaten Manggarai, Nusa Tenggara Tim.",NUSA TENGGARA TIMUR,,Indonesia,,,,-8.6078089,120.4161062,https://maps.google.com/?cid=0x0:0x1ddaf7aea858cde1,
perumahan,Sekolah,Rumah Baca Aksara,"Gg. Timor, Carep, Kec. Langke Rembong, Kabupaten Manggarai, Nusa Tenggara Tim. 86519","Carep, Kec. Langke Rembong, Kabupaten Manggarai",NUSA TENGGARA TIMUR,86519.0,Indonesia,82339623899.0,,,-8.6106439,120.4842103,https://maps.google.com/?cid=0x0:0x25f9e61391e111d6,
perumahan,Bakso,Rumah Bakso Aa,"Tenda, Kec. Langke Rembong, Kabupaten Manggarai, Nusa Tenggara Tim.","Kabupaten Manggarai, Nusa Tenggara Tim.",NUSA TENGGARA TIMUR,,Indonesia,81236935233.0,,,-8.6104256,120.4755082,https://maps.google.com/?cid=0x0:0xc1c14b8a95b41dcc,
perumahan,Restoran,Rumah Makan Cha Cha,"Jl. Diponegoro No.12, Watu, Kec. Langke Rembong, Kabupaten Manggarai, Nusa Tenggara Tim. 86511","Watu, Kec. Langke Rembong, Kabupaten Manggarai",NUSA TENGGARA TIMUR,86511.0,Indonesia,81236989009.0,,,-8.6153631,120.465275,https://maps.google.com/?cid=0x0:0x36ac988c726ed544,
perumahan,Komplek perumahan,Rangkat,"9FHC+6W6, Watu, Kec. Langke Rembong, Kabupaten Manggarai, Nusa Tenggara Tim.","Kabupaten Manggarai, Nusa Tenggara Tim.",NUSA TENGGARA TIMUR,,Indonesia,,,,-8.6219632,120.4722564,https://maps.google.com/?cid=0x0:0x624d62ab18fb7a42,
perumahan,Komplek perumahan,Rumah,"9FM3+GV2, Pau, Kec. Langke Rembong, Kabupaten Manggarai, Nusa Tenggara Tim.","Kabupaten Manggarai, Nusa Tenggara Tim.",NUSA TENGGARA TIMUR,,Indonesia,,,,-8.6162347,120.4546526,https://maps.google.com/?cid=0x0:0x3ca3df1593dd52fc,
perumahan,Komplek perumahan,Rumah,"9FV4+6XQ, Lawir, Kec. Langke Rembong, Kabupaten Manggarai, Nusa Tenggara Tim.","Kabupaten Manggarai, Nusa Tenggara Tim.",NUSA TENGGARA TIMUR,,Indonesia,,,,-8.6069113,120.4574728,https://maps.google.com/?cid=0x0:0x7f609bb363b30c3a,
perumahan,Komplek perumahan,Rumah Riana-Riani,"9FG9+92R, Watu, Kec. Langke Rembong, Kabupaten Manggarai, Nusa Tenggara Tim.","Kabupaten Manggarai, Nusa Tenggara Tim.",NUSA TENGGARA TIMUR,,Indonesia,,,,-8.624003,120.467513,https://maps.google.com/?cid=0x0:0x72e3ba929aa3f419,
perumahan,Gedung Apartemen,Perumahan Fideliva,"Jl. Kartini Ruteng No.17, Wali, Kec. Langke Rembong, Kabupaten Manggarai, Nusa Tenggara Tim.","Kabupaten Manggarai, Nusa Tenggara Tim.",NUSA TENGGARA TIMUR,,Indonesia,,,,-8.6093874,120.4507438,https://maps.google.com/?cid=0x0:0x46388dfd1026eab0,
perumahan,Komplek perumahan,Kakor,"9FP5+RWR, Pau, Kec. Langke Rembong, Kabupaten Manggarai, Nusa Tenggara Tim.","Kabupaten Manggarai, Nusa Tenggara Tim.",NUSA TENGGARA TIMUR,,Indonesia,,,,-8.6128816,120.459751,https://maps.google.com/?cid=0x0:0xb3be09305e28796a,
perumahan,Komplek perumahan,Lempe,"9FP3+M7C, Pau, Kec. Langke Rembong, Kabupaten Manggarai, Nusa Tenggara Tim.","Kabupaten Manggarai, Nusa Tenggara Tim.",NUSA TENGGARA TIMUR,,Indonesia,,,,-8.6135376,120.4529087,https://maps.google.com/?cid=0x0:0x42d1de6db627e67a,
perumahan,Pembangunan Perumahan,Rumah detraqiandra,"9FF3+QXP, Waso, Kec. Langke Rembong, Kabupaten Manggarai, Nusa Tenggara Tim.","Kabupaten Manggarai, Nusa Tenggara Tim.",NUSA TENGGARA TIMUR,,Indonesia,,,,-8.626217,120.45531,https://maps.google.com/?cid=0x0:0xc1a144f479af3f55,
perumahan,Komplek perumahan,Rumah Diana,"9FM3+Q78, Jl. Anggrek Utara, Pau, Kec. Langke Rembong, Kabupaten Manggarai, Nusa Tenggara Tim.","Kabupaten Manggarai, Nusa Tenggara Tim.",NUSA TENGGARA TIMUR,,Indonesia,,,,-8.615577,120.453212,https://maps.google.com/?cid=0x0:0x73f6eabb3e8f22d9,
perumahan,Komplek perumahan,Ponggara,"Pau, Kec. Langke Rembong, Kabupaten Manggarai, Nusa Tenggara Tim.","Kabupaten Manggarai, Nusa Tenggara Tim.",NUSA TENGGARA TIMUR,,Indonesia,,,,-8.6155294,120.4613943,https://maps.google.com/?cid=0x0:0xeeb2efbd55192e28,
perumahan,perumahan,Kec. Langke Rembong,"Kabupaten Manggarai, Nusa Tenggara Tim.","Kabupaten Manggarai, Nusa Tenggara Tim.",NUSA TENGGARA TIMUR,,Indonesia,,,,-8.6155061,120.4613028,https://maps.google.com/?cid=0x0:0xe5ebb83f7cef70eb,
perumahan,Taman,"Kakor, Kecamatan Ruteng, Kabupaten Manggarai, Nusa Tenggara Timur, Indonesia","CCC7+4M6, Kakor, Kec. Ruteng, Kabupaten Manggarai, Nusa Tenggara Tim.","Kabupaten Manggarai, Nusa Tenggara Tim.",NUSA TENGGARA TIMUR,,Indonesia,,,,-8.5797172,120.4141341,https://maps.google.com/?cid=0x0:0xc8ab917dd5015c50,
perumahan,Balai masyarakat,Compang Tuke,"CC3R+6H5, Wali, Kec. Langke Rembong, Kabupaten Manggarai, Nusa Tenggara Tim.","Kabupaten Manggarai, Nusa Tenggara Tim.",NUSA TENGGARA TIMUR,,Indonesia,,,,-8.5969982,120.4414714,https://maps.google.com/?cid=0x0:0xf2a2c7d5528831bf,
perumahan,Pembangunan Perumahan,Perumahan Dinas BMKG ruteng,"9FXG+FXC, Tenda, Kec. Langke Rembong, Kabupaten Manggarai, Nusa Tenggara Tim.","Kabupaten Manggarai, Nusa Tenggara Tim.",NUSA TENGGARA TIMUR,,Indonesia,38521264.0,,,-8.6013217,120.4773901,https://maps.google.com/?cid=0x0:0xfbb77a480d325a7a,
perumahan,Rumah Sakit,BLUD RSUD Ruteng,"9FM9+55R, Jl. Dr. Soetomo No.1, Watu, Kec. Langke Rembong, Kabupaten Manggarai, Nusa Tenggara Tim.","Kabupaten Manggarai, Nusa Tenggara Tim.",NUSA TENGGARA TIMUR,,Indonesia,,,,-8.6170815,120.4670041,https://maps.google.com/?cid=0x0:0xa16ff5c1b884248c,
perumahan,Layanan Perujuk Teman Kos,Gewak Tenda,"9FMH+R3F, Tenda, Kec. Langke Rembong, Kabupaten Manggarai, Nusa Tenggara Tim.","Kabupaten Manggarai, Nusa Tenggara Tim.",NUSA TENGGARA TIMUR,,Indonesia,,,,-8.6150376,120.4767307,https://maps.google.com/?cid=0x0:0xaaaaf0dcfd941219,
perumahan,perumahan,Karleta homestay,"Pau, Kec. Langke Rembong, Kabupaten Manggarai, Nusa Tenggara Tim.","Kabupaten Manggarai, Nusa Tenggara Tim.",NUSA TENGGARA TIMUR,,Indonesia,81338434271.0,,,-8.6247392,120.4480249,https://maps.google.com/?cid=0x0:0xc0cae5850d7fc6c8,
perumahan,Taman,Kampung Ruteng Pu'u,"9CPW+FP, Golo Dukal, Kec. Langke Rembong, Kabupaten Manggarai, Nusa Tenggara Tim.","Kabupaten Manggarai, Nusa Tenggara Tim.",NUSA TENGGARA TIMUR,,Indonesia,82235132065.0,,,-8.6118462,120.4459329,https://maps.google.com/?cid=0x0:0x77e6ee736159c680,
perumahan,Bakso,Rumah Bakso Aa,"Tenda, Kec. Langke Rembong, Kabupaten Manggarai, Nusa Tenggara Tim.","Kabupaten Manggarai, Nusa Tenggara Tim.",NUSA TENGGARA TIMUR,,Indonesia,81236935233.0,,,-8.6104256,120.4755082,https://maps.google.com/?cid=0x0:0xc1c14b8a95b41dcc,
perumahan,Restoran,Rumah makan jawa LAMONGAN,"Jl. Dr. Soetomo No.20, RT.016/RW.004, Bangka Nekang, Kec. Langke Rembong, Kabupaten Manggarai, Nusa Tenggara Tim.","Kabupaten Manggarai, Nusa Tenggara Tim.",NUSA TENGGARA TIMUR,,Indonesia,81237174016.0,,,-8.6170744,120.4659452,https://maps.google.com/?cid=0x0:0xd2b87fb7781cba6c,
perumahan,perumahan,Hobbit Hill Homestay,"CF64+77F, Wali, Kec. Langke Rembong, Kabupaten Manggarai, Nusa Tenggara Tim.","Kabupaten Manggarai, Nusa Tenggara Tim.",NUSA TENGGARA TIMUR,,Indonesia,81246487553.0,,,-8.5894152,120.4564399,https://maps.google.com/?cid=0x0:0x5195107ebad1a36a,
perumahan,Taman,Lingko Spider Web Rice Fields,"C97C+C3W, Meler, Kec. Ruteng, Kabupaten Manggarai, Nusa Tenggara Tim.","Kabupaten Manggarai, Nusa Tenggara Tim.",NUSA TENGGARA TIMUR,,Indonesia,,,,-8.5863925,120.3702138,https://maps.google.com/?cid=0x0:0xee5b62f323e2d2a8,
perumahan,Padang,Rumah Makan Sindang Roso,"9FV8+3J7, Mbaumuku, Kec. Langke Rembong, Kabupaten Manggarai, Nusa Tenggara Tim.","Kabupaten Manggarai, Nusa Tenggara Tim.",NUSA TENGGARA TIMUR,,Indonesia,,,,-8.6073276,120.4665598,https://maps.google.com/?cid=0x0:0x473f54505c88adc0,
perumahan,perumahan,Karot,"Kec. Langke Rembong, Kabupaten Manggarai, Nusa Tenggara Tim.","Kabupaten Manggarai, Nusa Tenggara Tim.",NUSA TENGGARA TIMUR,,Indonesia,,,,-8.5776925,120.4732056,https://maps.google.com/?cid=0x0:0x3da2aee14f2b253c,
perumahan,perumahan,Ruteng Hostel,"9FP3+5MM, Jl. Anggrek Utara, Pau, Kec. Langke Rembong, Kabupaten Manggarai, Nusa Tenggara Tim.","Kabupaten Manggarai, Nusa Tenggara Tim.",NUSA TENGGARA TIMUR,,Indonesia,82181696949.0,,,-8.6147117,120.4540858,https://maps.google.com/?cid=0x0:0x5a799d202e1a1a7f,
perumahan,perumahan,Waso,"Kec. Langke Rembong, Kabupaten Manggarai, Nusa Tenggara Tim.","Kabupaten Manggarai, Nusa Tenggara Tim.",NUSA TENGGARA TIMUR,,Indonesia,,,,-8.6423128,120.4559258,https://maps.google.com/?cid=0x0:0x14d10215995f35a3,
perumahan,perumahan,Golo Dukal,"Kec. Langke Rembong, Kabupaten Manggarai, Nusa Tenggara Tim.","Kabupaten Manggarai, Nusa Tenggara Tim.",NUSA TENGGARA TIMUR,,Indonesia,,,,-8.63243,120.4300017,https://maps.google.com/?cid=0x0:0x94fe57d330268eb7,
perumahan,perumahan,Watu,"Kec. Langke Rembong, Kabupaten Manggarai, Nusa Tenggara Tim.","Kabupaten Manggarai, Nusa Tenggara Tim.",NUSA TENGGARA TIMUR,,Indonesia,,,,-8.6408029,120.4732056,https://maps.google.com/?cid=0x0:0x19216e0629493d91,
perumahan,Sekolah,Rumah Baca Aksara,"Gg. Timor, Carep, Kec. Langke Rembong, Kabupaten Manggarai, Nusa Tenggara Tim. 86519","Carep, Kec. Langke Rembong, Kabupaten Manggarai",NUSA TENGGARA TIMUR,86519.0,Indonesia,82339623899.0,,,-8.6106439,120.4842103,https://maps.google.com/?cid=0x0:0x25f9e61391e111d6,
perumahan,Restoran,Rumah Makan Cha Cha,"Jl. Diponegoro No.12, Watu, Kec. Langke Rembong, Kabupaten Manggarai, Nusa Tenggara Tim. 86511","Watu, Kec. Langke Rembong, Kabupaten Manggarai",NUSA TENGGARA TIMUR,86511.0,Indonesia,81236989009.0,,,-8.6153631,120.465275,https://maps.google.com/?cid=0x0:0x36ac988c726ed544,
perumahan,Rumah wisata,Nekang,"9FP8+3GJ, Jl. Slamet Riyadi, Watu, Kec. Langke Rembong, Kabupaten Manggarai, Nusa Tenggara Tim. 86511","Jl. Slamet Riyadi, Watu, Kec. Langke Rembong, Kabupaten Manggarai",NUSA TENGGARA TIMUR,86511.0,Indonesia,,,,-8.6171664,120.469025,https://maps.google.com/?cid=0x0:0x982ad86e533a4711,
perumahan,Komplek perumahan,Rumah,"9FV4+6XQ, Lawir, Kec. Langke Rembong, Kabupaten Manggarai, Nusa Tenggara Tim.","Kabupaten Manggarai, Nusa Tenggara Tim.",NUSA TENGGARA TIMUR,,Indonesia,,,,-8.6069113,120.4574728,https://maps.google.com/?cid=0x0:0x7f609bb363b30c3a,
perumahan,Komplek perumahan,Rumah Riana-Riani,"9FG9+92R, Watu, Kec. Langke Rembong, Kabupaten Manggarai, Nusa Tenggara Tim.","Kabupaten Manggarai, Nusa Tenggara Tim.",NUSA TENGGARA TIMUR,,Indonesia,,,,-8.624003,120.467513,https://maps.google.com/?cid=0x0:0x72e3ba929aa3f419,
perumahan,Komplek perumahan,Rumah,"9FM3+GV2, Pau, Kec. Langke Rembong, Kabupaten Manggarai, Nusa Tenggara Tim.","Kabupaten Manggarai, Nusa Tenggara Tim.",NUSA TENGGARA TIMUR,,Indonesia,,,,-8.6162347,120.4546526,https://maps.google.com/?cid=0x0:0x3ca3df1593dd52fc,
perumahan,Gedung Apartemen,Perumahan Fideliva,"Jl. Kartini Ruteng No.17, Wali, Kec. Langke Rembong, Kabupaten Manggarai, Nusa Tenggara Tim.","Kabupaten Manggarai, Nusa Tenggara Tim.",NUSA TENGGARA TIMUR,,Indonesia,,,,-8.6093874,120.4507438,https://maps.google.com/?cid=0x0:0x46388dfd1026eab0,
perumahan,Komplek perumahan,Tulung jln. Bougenville selatan,"9FM4+M2C, Pau, Kec. Langke Rembong, Kabupaten Manggarai, Nusa Tenggara Tim.","Kabupaten Manggarai, Nusa Tenggara Tim.",NUSA TENGGARA TIMUR,,Indonesia,,,,-8.6158133,120.4550252,https://maps.google.com/?cid=0x0:0xab83b5d717d17c1d,
perumahan,Komplek perumahan,Ponggara,"Pau, Kec. Langke Rembong, Kabupaten Manggarai, Nusa Tenggara Tim.","Kabupaten Manggarai, Nusa Tenggara Tim.",NUSA TENGGARA TIMUR,,Indonesia,,,,-8.6155294,120.4613943,https://maps.google.com/?cid=0x0:0xeeb2efbd55192e28,
perumahan,Komplek perumahan,KOS LIMA BERSAUDARA,"9FH4+24P, Waso, Kec. Langke Rembong, Kabupaten Manggarai, Nusa Tenggara Tim.","Kabupaten Manggarai, Nusa Tenggara Tim.",NUSA TENGGARA TIMUR,,Indonesia,,,,-8.622401,120.4553424,https://maps.google.com/?cid=0x0:0xcdfc37fad31c3663,
perumahan,Komplek perumahan,Rumah Diana,"9FM3+Q78, Jl. Anggrek Utara, Pau, Kec. Langke Rembong, Kabupaten Manggarai, Nusa Tenggara Tim.","Kabupaten Manggarai, Nusa Tenggara Tim.",NUSA TENGGARA TIMUR,,Indonesia,,,,-8.615577,120.453212,https://maps.google.com/?cid=0x0:0x73f6eabb3e8f22d9,
perumahan,perumahan,Kec. Langke Rembong,"Kabupaten Manggarai, Nusa Tenggara Tim.","Kabupaten Manggarai, Nusa Tenggara Tim.",NUSA TENGGARA TIMUR,,Indonesia,,,,-8.6155061,120.4613028,https://maps.google.com/?cid=0x0:0xe5ebb83f7cef70eb,
perumahan,Komplek perumahan,Rumah,"9FV4+6XQ, Lawir, Kec. Langke Rembong, Kabupaten Manggarai, Nusa Tenggara Tim.","Kabupaten Manggarai, Nusa Tenggara Tim.",NUSA TENGGARA TIMUR,,Indonesia,,,,-8.6069113,120.4574728,https://maps.google.com/?cid=0x0:0x7f609bb363b30c3a,
perumahan,Komplek perumahan,Rumah,"9FM3+GV2, Pau, Kec. Langke Rembong, Kabupaten Manggarai, Nusa Tenggara Tim.","Kabupaten Manggarai, Nusa Tenggara Tim.",NUSA TENGGARA TIMUR,,Indonesia,,,,-8.6162347,120.4546526,https://maps.google.com/?cid=0x0:0x3ca3df1593dd52fc,
perumahan,Kantor Pendaftaran Militer,Perum Koramil,"9FM2+C9Q, Pau, Kec. Langke Rembong, Kabupaten Manggarai, Nusa Tenggara Tim.","Kabupaten Manggarai, Nusa Tenggara Tim.",NUSA TENGGARA TIMUR,,Indonesia,,,,-8.6164246,120.4509969,https://maps.google.com/?cid=0x0:0xfd776db5df539315,
perumahan,Komplek perumahan,Komplek Perum. Bidang KSDA Wilayah II,"Jl. Satar Tacik No.108, Tenda, Kec. Langke Rembong, Kabupaten Manggarai, Nusa Tenggara Tim. 86518","Tenda, Kec. Langke Rembong, Kabupaten Manggarai",NUSA TENGGARA TIMUR,86518.0,Indonesia,82247570960.0,,,-8.601021,120.4768602,https://maps.google.com/?cid=0x0:0xcd82da41c87436f0,
perumahan,Pembangunan Perumahan,Rumah detraqiandra,"9FF3+QXP, Waso, Kec. Langke Rembong, Kabupaten Manggarai, Nusa Tenggara Tim.","Kabupaten Manggarai, Nusa Tenggara Tim.",NUSA TENGGARA TIMUR,,Indonesia,,,,-8.626217,120.45531,https://maps.google.com/?cid=0x0:0xc1a144f479af3f55,
perumahan,Komplek perumahan,Ponggara,"Pau, Kec. Langke Rembong, Kabupaten Manggarai, Nusa Tenggara Tim.","Kabupaten Manggarai, Nusa Tenggara Tim.",NUSA TENGGARA TIMUR,,Indonesia,,,,-8.6155294,120.4613943,https://maps.google.com/?cid=0x0:0xeeb2efbd55192e28,
perumahan,Komplek perumahan,Casa de Baleo,"Jl. Kartini No.03, Lawir, Kec. Langke Rembong, Kabupaten Manggarai, Nusa Tenggara Tim.","Kabupaten Manggarai, Nusa Tenggara Tim.",NUSA TENGGARA TIMUR,,Indonesia,,,,-8.6130206,120.4624737,https://maps.google.com/?cid=0x0:0x88f3208b7f42ea6c,
perumahan,Komplek perumahan,Rumah Diana,"9FM3+Q78, Jl. Anggrek Utara, Pau, Kec. Langke Rembong, Kabupaten Manggarai, Nusa Tenggara Tim.","Kabupaten Manggarai, Nusa Tenggara Tim.",NUSA TENGGARA TIMUR,,Indonesia,,,,-8.615577,120.453212,https://maps.google.com/?cid=0x0:0x73f6eabb3e8f22d9,
perumahan,Komplek perumahan,Djedoma Family Ruko,"9FR7+987, Pitak, Kec. Langke Rembong, Kabupaten Manggarai, Nusa Tenggara Tim.","Kabupaten Manggarai, Nusa Tenggara Tim.",NUSA TENGGARA TIMUR,,Indonesia,81387650412.0,,,-8.6090014,120.4633139,https://maps.google.com/?cid=0x0:0xe13bf615903f9cab,
perumahan,perumahan,Ergi Permana,"9FP4+5HX, Pau, Kec. Langke Rembong, Kabupaten Manggarai, Nusa Tenggara Tim.","Kabupaten Manggarai, Nusa Tenggara Tim.",NUSA TENGGARA TIMUR,,Indonesia,,,,-8.6146346,120.4564459,https://maps.google.com/?cid=0x0:0xe2e8a75a7cd1a4,
perumahan,Perhimpunan Pengembang Perumahan,Ruko pemda ruteng,"Ruko pemda ruteng, Mbaumuku, Kec. Langke Rembong, Kabupaten Manggarai, Nusa Tenggara Tim.","Kabupaten Manggarai, Nusa Tenggara Tim.",NUSA TENGGARA TIMUR,,Indonesia,,,,-8.6088718,120.464858,https://maps.google.com/?cid=0x0:0x6eb68ac111a9bfaa,
perumahan,Komplek perumahan,Rumah Enjelina,"9FM3+W8J, Pau, Kec. Langke Rembong, Kabupaten Manggarai, Nusa Tenggara Tim.","Kabupaten Manggarai, Nusa Tenggara Tim.",NUSA TENGGARA TIMUR,,Indonesia,,,,-8.61526,120.4532788,https://maps.google.com/?cid=0x0:0x652730ec71dc8c3d,
perumahan,Komplek perumahan,Rumah Eman Bria,"9FP5+7FM, Pau, Kec. Langke Rembong, Kabupaten Manggarai, Nusa Tenggara Tim.","Kabupaten Manggarai, Nusa Tenggara Tim.",NUSA TENGGARA TIMUR,,Indonesia,,,,-8.6142878,120.4586593,https://maps.google.com/?cid=0x0:0x15117833159777fa,
perumahan,Komplek perumahan,Frans sareng,"9FH7+82R, Waso, Kec. Langke Rembong, Kabupaten Manggarai, Nusa Tenggara Tim.","Kabupaten Manggarai, Nusa Tenggara Tim.",NUSA TENGGARA TIMUR,,Indonesia,,,,-8.6216337,120.4625282,https://maps.google.com/?cid=0x0:0x7e8517c495ab44ac,
perumahan,Komplek perumahan,KOS SONYA,"9FG7+6X, Watu, Kec. Langke Rembong, Kabupaten Manggarai, Nusa Tenggara Tim.","Kabupaten Manggarai, Nusa Tenggara Tim.",NUSA TENGGARA TIMUR,,Indonesia,,,,-8.6244115,120.4649202,https://maps.google.com/?cid=0x0:0x28b1075925f6acfe,
perumahan,Komplek perumahan,Lempe,"9FP3+M7C, Pau, Kec. Langke Rembong, Kabupaten Manggarai, Nusa Tenggara Tim.","Kabupaten Manggarai, Nusa Tenggara Tim.",NUSA TENGGARA TIMUR,,Indonesia,,,,-8.6135376,120.4529087,https://maps.google.com/?cid=0x0:0x42d1de6db627e67a,
perumahan,Komplek perumahan,KOS LIMA BERSAUDARA,"9FH4+24P, Waso, Kec. Langke Rembong, Kabupaten Manggarai, Nusa Tenggara Tim.","Kabupaten Manggarai, Nusa Tenggara Tim.",NUSA TENGGARA TIMUR,,Indonesia,,,,-8.622401,120.4553424,https://maps.google.com/?cid=0x0:0xcdfc37fad31c3663,
perumahan,Komplek perumahan,Rumah yen,"Jl. Komodo No.16, Pitak, Kec. Langke Rembong, Kabupaten Manggarai, Nusa Tenggara Tim.","Kabupaten Manggarai, Nusa Tenggara Tim.",NUSA TENGGARA TIMUR,,Indonesia,,,,-8.6052068,120.460202,https://maps.google.com/?cid=0x0:0x39bfabee368c78a1,
perumahan,Komplek perumahan,RESIDENTIAL HOUSE,"9FF5+GVW, Waso, Kec. Langke Rembong, Kabupaten Manggarai, Nusa Tenggara Tim.","Kabupaten Manggarai, Nusa Tenggara Tim.",NUSA TENGGARA TIMUR,,Indonesia,,,,-8.6261716,120.4594807,https://maps.google.com/?cid=0x0:0x65fd4c9a36a8d9a8,
perumahan,Komplek perumahan,Rumah Riana-Riani,"9FG9+92R, Watu, Kec. Langke Rembong, Kabupaten Manggarai, Nusa Tenggara Tim.","Kabupaten Manggarai, Nusa Tenggara Tim.",NUSA TENGGARA TIMUR,,Indonesia,,,,-8.624003,120.467513,https://maps.google.com/?cid=0x0:0x72e3ba929aa3f419,
perumahan,Komplek perumahan,Rumah riefky,"9CQX+PRF, Pau, Kec. Langke Rembong, Kabupaten Manggarai, Nusa Tenggara Tim.","Kabupaten Manggarai, Nusa Tenggara Tim.",NUSA TENGGARA TIMUR,,Indonesia,,,,-8.6103549,120.4498573,https://maps.google.com/?cid=0x0:0xb28f6b2f9f0c1e08,
perumahan,Pembangunan Perumahan,Mbaumuku,"Jl. Yos Sudarso No.15, Mbaumuku, Kec. Langke Rembong, Kabupaten Manggarai, Nusa Tenggara Tim.","Kabupaten Manggarai, Nusa Tenggara Tim.",NUSA TENGGARA TIMUR,,Indonesia,,,,-8.60841,120.4689674,https://maps.google.com/?cid=0x0:0x5b9312125ee4b290,
perumahan,Komplek perumahan,Kakor,"9FP5+RWR, Pau, Kec. Langke Rembong, Kabupaten Manggarai, Nusa Tenggara Tim.","Kabupaten Manggarai, Nusa Tenggara Tim.",NUSA TENGGARA TIMUR,,Indonesia,,,,-8.6128816,120.459751,https://maps.google.com/?cid=0x0:0xb3be09305e28796a,
perumahan,Komplek perumahan,H.G Home,"9FF5+GVW, Waso, Kec. Langke Rembong, Kabupaten Manggarai, Nusa Tenggara Tim.","Kabupaten Manggarai, Nusa Tenggara Tim.",NUSA TENGGARA TIMUR,,Indonesia,,,,-8.6261274,120.4596949,https://maps.google.com/?cid=0x0:0xb1887dbfd64b1dac,
perumahan,Komplek perumahan,Rumah kenangan,"9FM8+V44, Jl. Diponegoro, Watu, Kec. Langke Rembong, Kabupaten Manggarai, Nusa Tenggara Tim.","Kabupaten Manggarai, Nusa Tenggara Tim.",NUSA TENGGARA TIMUR,,Indonesia,,,,-8.6153579,120.4653397,https://maps.google.com/?cid=0x0:0x9e6df448ef3284af,
perumahan,Komplek perumahan,Rumah ende Udis,"9FF5+P4H, Waso, Kec. Langke Rembong, Kabupaten Manggarai, Nusa Tenggara Tim.","Kabupaten Manggarai, Nusa Tenggara Tim.",NUSA TENGGARA TIMUR,,Indonesia,,,,-8.6256933,120.4578573,https://maps.google.com/?cid=0x0:0xad7e467d5cb1b498,
perumahan,Komplek perumahan,Rumah opa Jeji,"9FF3+QXP, Waso, Kec. Langke Rembong, Kabupaten Manggarai, Nusa Tenggara Tim.","Kabupaten Manggarai, Nusa Tenggara Tim.",NUSA TENGGARA TIMUR,,Indonesia,,,,-8.6255411,120.4549424,https://maps.google.com/?cid=0x0:0xcb15bc7ad571699f,
perumahan,perumahan,Kec. Langke Rembong,"Kabupaten Manggarai, Nusa Tenggara Tim.","Kabupaten Manggarai, Nusa Tenggara Tim.",NUSA TENGGARA TIMUR,,Indonesia,,,,-8.6155061,120.4613028,https://maps.google.com/?cid=0x0:0xe5ebb83f7cef70eb,
perumahan,Taman,"Kakor, Kecamatan Ruteng, Kabupaten Manggarai, Nusa Tenggara Timur, Indonesia","CCC7+4M6, Kakor, Kec. Ruteng, Kabupaten Manggarai, Nusa Tenggara Tim.","Kabupaten Manggarai, Nusa Tenggara Tim.",NUSA TENGGARA TIMUR,,Indonesia,,,,-8.5797172,120.4141341,https://maps.google.com/?cid=0x0:0xc8ab917dd5015c50,
perumahan,Balai masyarakat,Compang Tuke,"CC3R+6H5, Wali, Kec. Langke Rembong, Kabupaten Manggarai, Nusa Tenggara Tim.","Kabupaten Manggarai, Nusa Tenggara Tim.",NUSA TENGGARA TIMUR,,Indonesia,,,,-8.5969982,120.4414714,https://maps.google.com/?cid=0x0:0xf2a2c7d5528831bf,
perumahan,Layanan Perujuk Teman Kos,Gewak Tenda,"9FMH+R3F, Tenda, Kec. Langke Rembong, Kabupaten Manggarai, Nusa Tenggara Tim.","Kabupaten Manggarai, Nusa Tenggara Tim.",NUSA TENGGARA TIMUR,,Indonesia,,,,-8.6150376,120.4767307,https://maps.google.com/?cid=0x0:0xaaaaf0dcfd941219,
perumahan,Rumah wisata,Nekang,"9FP8+3GJ, Jl. Slamet Riyadi, Watu, Kec. Langke Rembong, Kabupaten Manggarai, Nusa Tenggara Tim. 86511","Jl. Slamet Riyadi, Watu, Kec. Langke Rembong, Kabupaten Manggarai",NUSA TENGGARA TIMUR,86511.0,Indonesia,,,,-8.6171664,120.469025,https://maps.google.com/?cid=0x0:0x982ad86e533a4711,
perumahan,Rumah Sakit,BLUD RSUD Ruteng,"9FM9+55R, Jl. Dr. Soetomo No.1, Watu, Kec. Langke Rembong, Kabupaten Manggarai, Nusa Tenggara Tim.","Kabupaten Manggarai, Nusa Tenggara Tim.",NUSA TENGGARA TIMUR,,Indonesia,,,,-8.6170815,120.4670041,https://maps.google.com/?cid=0x0:0xa16ff5c1b884248c,
perumahan,perumahan,Hobbit Hill Homestay,"CF64+77F, Wali, Kec. Langke Rembong, Kabupaten Manggarai, Nusa Tenggara Tim.","Kabupaten Manggarai, Nusa Tenggara Tim.",NUSA TENGGARA TIMUR,,Indonesia,81246487553.0,,,-8.5894152,120.4564399,https://maps.google.com/?cid=0x0:0x5195107ebad1a36a,
perumahan,Taman,Lingko Spider Web Rice Fields,"C97C+C3W, Meler, Kec. Ruteng, Kabupaten Manggarai, Nusa Tenggara Tim.","Kabupaten Manggarai, Nusa Tenggara Tim.",NUSA TENGGARA TIMUR,,Indonesia,,,,-8.5863925,120.3702138,https://maps.google.com/?cid=0x0:0xee5b62f323e2d2a8,
perumahan,Padang,Rumah Makan Sindang Roso,"9FV8+3J7, Mbaumuku, Kec. Langke Rembong, Kabupaten Manggarai, Nusa Tenggara Tim.","Kabupaten Manggarai, Nusa Tenggara Tim.",NUSA TENGGARA TIMUR,,Indonesia,,,,-8.6073276,120.4665598,https://maps.google.com/?cid=0x0:0x473f54505c88adc0,
perumahan,perumahan,Karleta homestay,"Pau, Kec. Langke Rembong, Kabupaten Manggarai, Nusa Tenggara Tim.","Kabupaten Manggarai, Nusa Tenggara Tim.",NUSA TENGGARA TIMUR,,Indonesia,81338434271.0,,,-8.6247392,120.4480249,https://maps.google.com/?cid=0x0:0xc0cae5850d7fc6c8,
perumahan,Sekolah,Rumah Baca Aksara,"Gg. Timor, Carep, Kec. Langke Rembong, Kabupaten Manggarai, Nusa Tenggara Tim. 86519","Carep, Kec. Langke Rembong, Kabupaten Manggarai",NUSA TENGGARA TIMUR,86519.0,Indonesia,82339623899.0,,,-8.6106439,120.4842103,https://maps.google.com/?cid=0x0:0x25f9e61391e111d6,
perumahan,Taman,Kampung Ruteng Pu'u,"9CPW+FP, Golo Dukal, Kec. Langke Rembong, Kabupaten Manggarai, Nusa Tenggara Tim.","Kabupaten Manggarai, Nusa Tenggara Tim.",NUSA TENGGARA TIMUR,,Indonesia,82235132065.0,,,-8.6118462,120.4459329,https://maps.google.com/?cid=0x0:0x77e6ee736159c680,
perumahan,Restoran,Rumah makan jawa LAMONGAN,"Jl. Dr. Soetomo No.20, RT.016/RW.004, Bangka Nekang, Kec. Langke Rembong, Kabupaten Manggarai, Nusa Tenggara Tim.","Kabupaten Manggarai, Nusa Tenggara Tim.",NUSA TENGGARA TIMUR,,Indonesia,81237174016.0,,,-8.6170744,120.4659452,https://maps.google.com/?cid=0x0:0xd2b87fb7781cba6c,
perumahan,Bakso,Rumah Bakso Aa,"Tenda, Kec. Langke Rembong, Kabupaten Manggarai, Nusa Tenggara Tim.","Kabupaten Manggarai, Nusa Tenggara Tim.",NUSA TENGGARA TIMUR,,Indonesia,81236935233.0,,,-8.6104256,120.4755082,https://maps.google.com/?cid=0x0:0xc1c14b8a95b41dcc,
perumahan,Padang,RM Ranah Minang Dua,"9FR8+P58, Mbaumuku, Kec. Langke Rembong, Kabupaten Manggarai, Nusa Tenggara Tim.","Kabupaten Manggarai, Nusa Tenggara Tim.",NUSA TENGGARA TIMUR,,Indonesia,,,,-8.6082248,120.4654464,https://maps.google.com/?cid=0x0:0xcebd4aac041e9cc6,
perumahan,perumahan,Ruteng,"Watu, Kec. Langke Rembong, Kabupaten Manggarai, Nusa Tenggara Tim.","Kabupaten Manggarai, Nusa Tenggara Tim.",NUSA TENGGARA TIMUR,,Indonesia,,,,-8.614365,120.466499,https://maps.google.com/?cid=0x0:0x4ebf85b0d2e46fde,
perumahan,Komplek perumahan,Robo,"9GP9+26, Ranaka, Kec. Wae Rii, Kabupaten Manggarai, Nusa Tenggara Tim.","Kabupaten Manggarai, Nusa Tenggara Tim.",NUSA TENGGARA TIMUR,,Indonesia,,,,-8.6148636,120.5180493,https://maps.google.com/?cid=0x0:0xd09e8cede03d6eff,
perumahan,Lidah,Warung PADANG Sumber Baru,"9FR8+VPH, Mbaumuku, Kec. Langke Rembong, Kabupaten Manggarai, Nusa Tenggara Tim.","Kabupaten Manggarai, Nusa Tenggara Tim.",NUSA TENGGARA TIMUR,,Indonesia,,,,-8.6078128,120.4668575,https://maps.google.com/?cid=0x0:0xbb812d774a7d51bd,
perumahan,Restoran,Rumah Makan Cha Cha,"Jl. Diponegoro No.12, Watu, Kec. Langke Rembong, Kabupaten Manggarai, Nusa Tenggara Tim. 86511","Watu, Kec. Langke Rembong, Kabupaten Manggarai",NUSA TENGGARA TIMUR,86511.0,Indonesia,81236989009.0,,,-8.6153631,120.465275,https://maps.google.com/?cid=0x0:0x36ac988c726ed544,
perumahan,Komplek perumahan,Rumah Riana-Riani,"9FG9+92R, Watu, Kec. Langke Rembong, Kabupaten Manggarai, Nusa Tenggara Tim.","Kabupaten Manggarai, Nusa Tenggara Tim.",NUSA TENGGARA TIMUR,,Indonesia,,,,-8.624003,120.467513,https://maps.google.com/?cid=0x0:0x72e3ba929aa3f419,
perumahan,Padang,RM SIMPANG ANDALAS,"9FQ7+837, Jl. Kartini, Pau, Kec. Langke Rembong, Kabupaten Manggarai, Nusa Tenggara Tim.","Kabupaten Manggarai, Nusa Tenggara Tim.",NUSA TENGGARA TIMUR,,Indonesia,81334813765.0,,,-8.6117048,120.4626718,https://maps.google.com/?cid=0x0:0x43f01b6e26b18c90,
perumahan,Komplek perumahan,Rumah,"9FM3+GV2, Pau, Kec. Langke Rembong, Kabupaten Manggarai, Nusa Tenggara Tim.","Kabupaten Manggarai, Nusa Tenggara Tim.",NUSA TENGGARA TIMUR,,Indonesia,,,,-8.6162347,120.4546526,https://maps.google.com/?cid=0x0:0x3ca3df1593dd52fc,
perumahan,Komplek perumahan,Rumah,"9FV4+6XQ, Lawir, Kec. Langke Rembong, Kabupaten Manggarai, Nusa Tenggara Tim.","Kabupaten Manggarai, Nusa Tenggara Tim.",NUSA TENGGARA TIMUR,,Indonesia,,,,-8.6069113,120.4574728,https://maps.google.com/?cid=0x0:0x7f609bb363b30c3a,
perumahan,Kantor Pendaftaran Militer,Perum Koramil,"9FM2+C9Q, Pau, Kec. Langke Rembong, Kabupaten Manggarai, Nusa Tenggara Tim.","Kabupaten Manggarai, Nusa Tenggara Tim.",NUSA TENGGARA TIMUR,,Indonesia,,,,-8.6164246,120.4509969,https://maps.google.com/?cid=0x0:0xfd776db5df539315,
perumahan,Komplek perumahan,Ponggara,"Pau, Kec. Langke Rembong, Kabupaten Manggarai, Nusa Tenggara Tim.","Kabupaten Manggarai, Nusa Tenggara Tim.",NUSA TENGGARA TIMUR,,Indonesia,,,,-8.6155294,120.4613943,https://maps.google.com/?cid=0x0:0xeeb2efbd55192e28,
perumahan,Komplek perumahan,Rumah Diana,"9FM3+Q78, Jl. Anggrek Utara, Pau, Kec. Langke Rembong, Kabupaten Manggarai, Nusa Tenggara Tim.","Kabupaten Manggarai, Nusa Tenggara Tim.",NUSA TENGGARA TIMUR,,Indonesia,,,,-8.615577,120.453212,https://maps.google.com/?cid=0x0:0x73f6eabb3e8f22d9,
perumahan,Pembangunan Perumahan,Rumah detraqiandra,"9FF3+QXP, Waso, Kec. Langke Rembong, Kabupaten Manggarai, Nusa Tenggara Tim.","Kabupaten Manggarai, Nusa Tenggara Tim.",NUSA TENGGARA TIMUR,,Indonesia,,,,-8.626217,120.45531,https://maps.google.com/?cid=0x0:0xc1a144f479af3f55,
perumahan,Gedung Apartemen,Perumahan Fideliva,"Jl. Kartini Ruteng No.17, Wali, Kec. Langke Rembong, Kabupaten Manggarai, Nusa Tenggara Tim.","Kabupaten Manggarai, Nusa Tenggara Tim.",NUSA TENGGARA TIMUR,,Indonesia,,,,-8.6093874,120.4507438,https://maps.google.com/?cid=0x0:0x46388dfd1026eab0,
perumahan,Komplek perumahan,Rumah Milea,"9FX6+735, RT.007/RW.004, Pitak, Kec. Langke Rembong, Kabupaten Manggarai, Nusa Tenggara Tim.","Kabupaten Manggarai, Nusa Tenggara Tim.",NUSA TENGGARA TIMUR,,Indonesia,,,,-8.6018725,120.4602459,https://maps.google.com/?cid=0x0:0x2f80f14750c48e08,
perumahan,perumahan,Kec. Satar Mese Bar.,"Kabupaten Manggarai, Nusa Tenggara Tim.","Kabupaten Manggarai, Nusa Tenggara Tim.",NUSA TENGGARA TIMUR,,Indonesia,,,,-8.7752924,120.3691155,https://maps.google.com/?cid=0x0:0x14b428962dba7c00,
perumahan,Perhimpunan Pengembang Perumahan,Melo,"694W+WMF, Tal, Kec. Satar Mese, Kabupaten Manggarai, Nusa Tenggara Tim.","Kabupaten Manggarai, Nusa Tenggara Tim.",NUSA TENGGARA TIMUR,,Indonesia,,,,-8.7926995,120.3966744,https://maps.google.com/?cid=0x0:0xebb000d2c69e7c9f,
perumahan,Komplek perumahan,Hawut Satarmese Barat,"7949+5RC, Renda, Kec. Satar Mese Bar., Kabupaten Manggarai, Nusa Tenggara Tim.","Kabupaten Manggarai, Nusa Tenggara Tim.",NUSA TENGGARA TIMUR,,Indonesia,,,,-8.7445697,120.3695183,https://maps.google.com/?cid=0x0:0x598f46f76d0237b7,
perumahan,Pembangunan Perumahan,Rumah Kor,"69FC+C4C, Hilihintir, Kec. Satar Mese Bar., Kabupaten Manggarai, Nusa Tenggara Tim.","Kabupaten Manggarai, Nusa Tenggara Tim.",NUSA TENGGARA TIMUR,,Indonesia,,,,-8.7764491,120.3702674,https://maps.google.com/?cid=0x0:0x65a47d94dd80a5fe,
perumahan,Kompleks Kondominium,"Nunur, Desa Iteng, Kecamatan Satarmese","5CM7+3GX, Tal, Kec. Satar Mese, Kabupaten Manggarai, Nusa Tenggara Tim.","Kabupaten Manggarai, Nusa Tenggara Tim.",NUSA TENGGARA TIMUR,,Indonesia,,,,-8.8172717,120.4138697,https://maps.google.com/?cid=0x0:0x46da333431051cc4,
perumahan,Perhimpunan Pengembang Perumahan,Rejo,"59H5+C67, Ceka Luju, Kec. Satar Mese Bar., Kabupaten Manggarai, Nusa Tenggara Tim.","Kabupaten Manggarai, Nusa Tenggara Tim.",NUSA TENGGARA TIMUR,,Indonesia,,,,-8.8214669,120.3580597,https://maps.google.com/?cid=0x0:0xa28f2389f6f21f0e,
perumahan,Komplek perumahan,Rumah bapa Maka,"58RF+Q86, Satar Luju, Kec. Satar Mese Bar., Kabupaten Manggarai, Nusa Tenggara Tim.","Kabupaten Manggarai, Nusa Tenggara Tim.",NUSA TENGGARA TIMUR,,Indonesia,,,,-8.8081295,120.3232674,https://maps.google.com/?cid=0x0:0x4027d42a04006697,
perumahan,Komplek perumahan,"Hiro,s house","59R9+79R, Terong, Kec. Satar Mese Bar., Kabupaten Manggarai, Nusa Tenggara Tim.","Kabupaten Manggarai, Nusa Tenggara Tim.",NUSA TENGGARA TIMUR,,Indonesia,,,,-8.8092556,120.3684036,https://maps.google.com/?cid=0x0:0xeb71d3ac01f28f65,
perumahan,Komplek perumahan,Mbaru/Rumah Watang,"58RF+Q86, Satar Luju, Kec. Satar Mese Bar., Kabupaten Manggarai, Nusa Tenggara Tim.","Kabupaten Manggarai, Nusa Tenggara Tim.",NUSA TENGGARA TIMUR,,Indonesia,,,,-8.8080665,120.3234495,https://maps.google.com/?cid=0x0:0x2b87adc223d8e38f,
perumahan,Perumahan,Okta,"69CF+84G, Unnamed Road, Hilihintir, Kec. Satar Mese Bar., Kabupaten Manggarai, Nusa Tenggara Tim.","Kabupaten Manggarai, Nusa Tenggara Tim.",NUSA TENGGARA TIMUR,,Indonesia,,,,-8.7791877,120.3728397,https://maps.google.com/?cid=0x0:0x337221933934675f,
perumahan,Pembangunan Perumahan,Rikar House,"59Q4+X55, Terong, Kec. Satar Mese Bar., Kabupaten Manggarai, Nusa Tenggara Tim.","Kabupaten Manggarai, Nusa Tenggara Tim.",NUSA TENGGARA TIMUR,,Indonesia,,,,-8.8101002,120.3554878,https://maps.google.com/?cid=0x0:0x7a0527cdf18eda2,
perumahan,Pembangunan Perumahan,Wae meseh,"692V+VV HUBER, Hilihintir, Kec. Satar Mese Bar., Kabupaten Manggarai, Nusa Tenggara Tim.","Kabupaten Manggarai, Nusa Tenggara Tim.",NUSA TENGGARA TIMUR,,Indonesia,,,,-8.7969866,120.3948506,https://maps.google.com/?cid=0x0:0xf1109789285376b0,
perumahan,Komplek perumahan,Rumah Konradus Oka,"69GF+QQ3, Hilihintir, Kec. Satar Mese Bar., Kabupaten Manggarai, Nusa Tenggara Tim.","Kabupaten Manggarai, Nusa Tenggara Tim.",NUSA TENGGARA TIMUR,,Indonesia,,,,-8.7731237,120.3744127,https://maps.google.com/?cid=0x0:0x9b1f43cdd8f68f97,
perumahan,Pembangunan Perumahan,ARKA,"698C+JWH, Hilihintir, Kec. Satar Mese Bar., Kabupaten Manggarai, Nusa Tenggara Tim.","Kabupaten Manggarai, Nusa Tenggara Tim.",NUSA TENGGARA TIMUR,,Indonesia,,,,-8.784491,120.3717657,https://maps.google.com/?cid=0x0:0x8a3f8f3474df43d9,
perumahan,Kantor Pemerintah,Kampung Renda,"69WJ+J4X, Unnamed Road, Bea Kondo, Kec. Satar Mese Bar., Kabupaten Manggarai, Nusa Tenggara Tim.","Kabupaten Manggarai, Nusa Tenggara Tim.",NUSA TENGGARA TIMUR,,Indonesia,,,,-8.7533849,120.3803714,https://maps.google.com/?cid=0x0:0x6cbbac7431503ea2,
perumahan,Pembangunan Perumahan,"Labe, pertigaan menuju Desa Lia","79PG+8G, Popo, Kec. Satar Mese Bar., Kabupaten Manggarai, Nusa Tenggara Tim.","Kabupaten Manggarai, Nusa Tenggara Tim.",NUSA TENGGARA TIMUR,,Indonesia,,,,-8.7141927,120.3762572,https://maps.google.com/?cid=0x0:0x2d7e4ce117399a33,
perumahan,Komplek perumahan,Rumah bapa Anton Batas,"58RF+Q86, Satar Luju, Kec. Satar Mese Bar., Kabupaten Manggarai, Nusa Tenggara Tim.","Kabupaten Manggarai, Nusa Tenggara Tim.",NUSA TENGGARA TIMUR,,Indonesia,,,,-8.8080413,120.3232493,https://maps.google.com/?cid=0x0:0x6268797ca405bc28,
perumahan,Komplek perumahan,Rysta,"7934+CX9, Renda, Kec. Satar Mese Bar., Kabupaten Manggarai, Nusa Tenggara Tim.","Kabupaten Manggarai, Nusa Tenggara Tim.",NUSA TENGGARA TIMUR,,Indonesia,,,,-8.746285,120.35646,https://maps.google.com/?cid=0x0:0xcf0f935f64b9a051,
perumahan,Komplek perumahan,Satarmese Utara,"79F6+H8X, Gulung, Kec. Satar Mese Bar., Kabupaten Manggarai, Nusa Tenggara Tim.","Kabupaten Manggarai, Nusa Tenggara Tim.",NUSA TENGGARA TIMUR,,Indonesia,,,,-8.7260147,120.3608455,https://maps.google.com/?cid=0x0:0x5c1b2b1fe7c47ef9,
perumahan,Komplek perumahan,Cepang //Argen,"6C78+344, Paka, Kec. Satar Mese, Kabupaten Manggarai, Nusa Tenggara Tim.","Kabupaten Manggarai, Nusa Tenggara Tim.",NUSA TENGGARA TIMUR,,Indonesia,,,,-8.7873633,120.4153209,https://maps.google.com/?cid=0x0:0x2d44cd30f37ef3ac,
perumahan,Perhimpunan Pengembang Perumahan,Rumah mateus masur,"5CPC+XHG, Paka, Kec. Satar Mese, Kabupaten Manggarai, Nusa Tenggara Tim.","Kabupaten Manggarai, Nusa Tenggara Tim.",NUSA TENGGARA TIMUR,,Indonesia,,,,-8.812994,120.421432,https://maps.google.com/?cid=0x0:0x72006e124d1d74f2,
perumahan,Komplek perumahan,Dusun Kombo,"58H7+R3G, Satar Lenda, Kec. Satar Mese Bar., Kabupaten Manggarai, Nusa Tenggara Tim.","Kabupaten Manggarai, Nusa Tenggara Tim.",NUSA TENGGARA TIMUR,,Indonesia,,,,-8.8204649,120.3126937,https://maps.google.com/?cid=0x0:0xb0b5f29d877973da,
perumahan,Kantor Pemerintah,Kabupaten Manggarai kecamatan Satar Mese,"5CP9+988, Paka, Kec. Satar Mese, Kabupaten Manggarai, Nusa Tenggara Tim.","Kabupaten Manggarai, Nusa Tenggara Tim.",NUSA TENGGARA TIMUR,,Indonesia,,,,-8.8140972,120.4183266,https://maps.google.com/?cid=0x0:0x173317732f0fd303,
perumahan,Komplek perumahan,"Kampung repok, desa compang repok, Manggarai, NTT","78MW+M6W, Repok, Lia, Kec. Satar Mese Bar., Kabupaten Manggarai, Nusa Tenggara Tim.","Kabupaten Manggarai, Nusa Tenggara Tim.",NUSA TENGGARA TIMUR,,Indonesia,,,,-8.7157739,120.3455787,https://maps.google.com/?cid=0x0:0x5c403ae82655a5ca,
perumahan,Kantor Perusahaan,Desa paka kecamatan Satarmese,"6C98+56Q, Paka, Kec. Satar Mese, Kabupaten Manggarai, Nusa Tenggara Tim.","Kabupaten Manggarai, Nusa Tenggara Tim.",NUSA TENGGARA TIMUR,,Indonesia,,,,-8.7820436,120.4155972,https://maps.google.com/?cid=0x0:0xc52a7dde580baa6b,
perumahan,Komplek perumahan,Juna,"69GX+R7, Tal, Kec. Satar Mese, Kabupaten Manggarai, Nusa Tenggara Tim.","Kabupaten Manggarai, Nusa Tenggara Tim.",NUSA TENGGARA TIMUR,,Indonesia,,,,-8.7728835,120.3981726,https://maps.google.com/?cid=0x0:0xe1659fb7facf3277,
perumahan,Komplek perumahan,Woang,"59X8+XV2, Terong, Kec. Satar Mese Bar., Kabupaten Manggarai, Nusa Tenggara Tim.","Kabupaten Manggarai, Nusa Tenggara Tim.",NUSA TENGGARA TIMUR,,Indonesia,,,,-8.79967,120.367323,https://maps.google.com/?cid=0x0:0x878651796a3fca79,
perumahan,Komplek perumahan,Rumah Kornelis Nambur,"69FC+F33, Hilihintir, Kec. Satar Mese Bar., Kabupaten Manggarai, Nusa Tenggara Tim.","Kabupaten Manggarai, Nusa Tenggara Tim.",NUSA TENGGARA TIMUR,,Indonesia,,,,-8.7763671,120.3701686,https://maps.google.com/?cid=0x0:0xf9bcd80068846799,
perumahan,Komplek perumahan,Rumah ema Rinus,"58P4+8JM, Satar Lenda, Kec. Satar Mese Bar., Kabupaten Manggarai, Nusa Tenggara Tim.","Kabupaten Manggarai, Nusa Tenggara Tim.",NUSA TENGGARA TIMUR,,Indonesia,,,,-8.8141279,120.306538,https://maps.google.com/?cid=0x0:0x72b94957882ab6e9,
perumahan,perumahan,Kec. Lelak,"Kabupaten Manggarai, Nusa Tenggara Tim.","Kabupaten Manggarai, Nusa Tenggara Tim.",NUSA TENGGARA TIMUR,,Indonesia,,,,-8.6305152,120.3299832,https://maps.google.com/?cid=0x0:0xd58e9a46bf6e0258,
perumahan,Komplek perumahan,Rumah All,"97FQ+9WV, Ndiwar, Kec. Lelak, Kabupaten Manggarai, Nusa Tenggara Tim.","Kabupaten Manggarai, Nusa Tenggara Tim.",NUSA TENGGARA TIMUR,,Indonesia,,,,-8.6265071,120.2897911,https://maps.google.com/?cid=0x0:0xc8a0277d74463283,
perumahan,Komplek perumahan,Rumah NN,"986P+C8G, Ketang, Kec. Lelak, Kabupaten Manggarai, Nusa Tenggara Tim.","Kabupaten Manggarai, Nusa Tenggara Tim.",NUSA TENGGARA TIMUR,,Indonesia,,,,-8.6398219,120.3358047,https://maps.google.com/?cid=0x0:0xfee688179ffa0070,
perumahan,perumahan,Balo,"985G+CG6, Ketang, Kec. Lelak, Kabupaten Manggarai, Nusa Tenggara Tim.","Kabupaten Manggarai, Nusa Tenggara Tim.",NUSA TENGGARA TIMUR,,Indonesia,,,,-8.6414593,120.3262535,https://maps.google.com/?cid=0x0:0x39fe2b31e8e5f240,
perumahan,perumahan,Jln Londa,"988M+7M2, Bangka Lelak, Kec. Lelak, Kabupaten Manggarai, Nusa Tenggara Tim.","Kabupaten Manggarai, Nusa Tenggara Tim.",NUSA TENGGARA TIMUR,,Indonesia,,,,-8.6344635,120.3340804,https://maps.google.com/?cid=0x0:0x8aa60c94a90ccc80,
perumahan,Kompleks Kondominium,Rumah Gendang Urang,"977V+FCC, Pong Umpu, Kec. Lelak, Kabupaten Manggarai, Nusa Tenggara Tim.","Kabupaten Manggarai, Nusa Tenggara Tim.",NUSA TENGGARA TIMUR,,Indonesia,,,,-8.635469,120.2932763,https://maps.google.com/?cid=0x0:0x1e8682834292d5fa,
perumahan,Gedung Apartemen,Rumah febri,"98HG+WV, Bangka Lelak, Kec. Lelak, Kabupaten Manggarai, Nusa Tenggara Tim.","Kabupaten Manggarai, Nusa Tenggara Tim.",NUSA TENGGARA TIMUR,,Indonesia,,,,-8.6201866,120.3271301,https://maps.google.com/?cid=0x0:0x46a0216df55151fa,
perumahan,Komplek perumahan,Gendang Wakel,"989J+3FR, Bangka Lelak, Kec. Lelak, Kabupaten Manggarai, Nusa Tenggara Tim.","Kabupaten Manggarai, Nusa Tenggara Tim.",NUSA TENGGARA TIMUR,,Indonesia,,,,-8.6322616,120.3311501,https://maps.google.com/?cid=0x0:0x6ff9f3a9ad7177ec,
perumahan,Komplek perumahan,Rumah hilda,"98GJ+P4R, Bangka Lelak, Kec. Lelak, Kabupaten Manggarai, Nusa Tenggara Tim.","Kabupaten Manggarai, Nusa Tenggara Tim.",NUSA TENGGARA TIMUR,,Indonesia,,,,-8.6231448,120.3302526,https://maps.google.com/?cid=0x0:0x970ed29a232513db,
perumahan,Pembangunan Perumahan,Pering kec. Lelak,"C857+78, Nati, Kec. Lelak, Kabupaten Manggarai, Nusa Tenggara Tim.","Kabupaten Manggarai, Nusa Tenggara Tim.",NUSA TENGGARA TIMUR,,Indonesia,,,,-8.5923597,120.3121168,https://maps.google.com/?cid=0x0:0x7f6aa479a86549f6,
perumahan,Komplek perumahan,Kampung poreng,"9843+25Q, Urang, Kec. Lelak, Kabupaten Manggarai, Nusa Tenggara Tim.","Kabupaten Manggarai, Nusa Tenggara Tim.",NUSA TENGGARA TIMUR,,Indonesia,81238839209.0,,,-8.6449035,120.3029825,https://maps.google.com/?cid=0x0:0x771f7112bd388964,
perumahan,perumahan,D'Asmand Home,"98JC+GHH Asmand, Karot,Desa Bangka Tonggur, Bangka Lelak, Kec. Lelak, Kabupaten Manggarai, Nusa Tenggara Tim.","Kabupaten Manggarai, Nusa Tenggara Tim.",NUSA TENGGARA TIMUR,,Indonesia,,,,-8.617496,120.321395,https://maps.google.com/?cid=0x0:0x4e2b750c19b975fb,
perumahan,Komplek perumahan,Rumah keraf,"97QR+G8, Gelong, Kec. Lelak, Kabupaten Manggarai, Nusa Tenggara Tim.","Kabupaten Manggarai, Nusa Tenggara Tim.",NUSA TENGGARA TIMUR,,Indonesia,,,,-8.6111653,120.2907391,https://maps.google.com/?cid=0x0:0xf7abde97e75a8dbd,
perumahan,Komplek perumahan,Rumah Hendro Damai,"98M2+C6V, Bangka Dese, Kec. Lelak, Kabupaten Manggarai, Nusa Tenggara Tim.","Kabupaten Manggarai, Nusa Tenggara Tim.",NUSA TENGGARA TIMUR,,Indonesia,,,,-8.6163984,120.3005391,https://maps.google.com/?cid=0x0:0xdbda82b50790ea8f,
perumahan,Komplek perumahan,Ds ketang kec. Lelak.kab manggarai,"983W+JJ, Ketang, Kec. Lelak, Kabupaten Manggarai, Nusa Tenggara Tim.","Kabupaten Manggarai, Nusa Tenggara Tim.",NUSA TENGGARA TIMUR,,Indonesia,,,,-8.645967,120.346522,https://maps.google.com/?cid=0x0:0xfb96eb8d550a89fe,
perumahan,Komplek perumahan,Prumahan,"88H3+P8, Urang, Kec. Lelak, Kabupaten Manggarai, Nusa Tenggara Tim.","Kabupaten Manggarai, Nusa Tenggara Tim.",NUSA TENGGARA TIMUR,,Indonesia,,,,-8.67067,120.3032667,https://maps.google.com/?cid=0x0:0x60d8a78dabcf4290,
perumahan,perumahan,Rumah kecil,"98JJ+554, Kawong, Kec. Lelak, Kabupaten Manggarai, Nusa Tenggara Tim.","Kabupaten Manggarai, Nusa Tenggara Tim.",NUSA TENGGARA TIMUR,,Indonesia,,,,-8.6195184,120.3298177,https://maps.google.com/?cid=0x0:0xfd73256215b32ced,
perumahan,Komplek perumahan,"Valois home, Kec. Lelak, Kabupaten Manggarai, Nusa Tenggara Tim.","987P+22X, Ketang, Kec. Lelak, Kabupaten Manggarai, Nusa Tenggara Tim.","Kabupaten Manggarai, Nusa Tenggara Tim.",NUSA TENGGARA TIMUR,,Indonesia,,,,-8.6375934,120.3357152,https://maps.google.com/?cid=0x0:0x733fb6122783ffee,
perumahan,Perhimpunan Pengembang Perumahan,Kampung Nati,"98V3+FF, Gelong, Kec. Lelak, Kabupaten Manggarai, Nusa Tenggara Tim.","Kabupaten Manggarai, Nusa Tenggara Tim.",NUSA TENGGARA TIMUR,,Indonesia,,,,-8.6063472,120.3036948,https://maps.google.com/?cid=0x0:0x6e4e732a27bd536,
perumahan,Komplek perumahan,Rohak-Nggeng,"98Q5+2XR, RT.Rohak/RW.Nggeng, Bangka Dese, Lelak, Manggarai Regency, East Nusa Tenggara","Kabupaten Manggarai, Nusa Tenggara Tim.",NUSA TENGGARA TIMUR,,Indonesia,,,,-8.6123992,120.3098829,https://maps.google.com/?cid=0x0:0x1fa98bd04151452,
perumahan,Komplek perumahan,Rumah Dela,"98V3+FF, Gelong, Kec. Lelak, Kabupaten Manggarai, Nusa Tenggara Tim.","Kabupaten Manggarai, Nusa Tenggara Tim.",NUSA TENGGARA TIMUR,,Indonesia,,,,-8.6066524,120.3032149,https://maps.google.com/?cid=0x0:0x2effe386d1ebdeda,
perumahan,Pertanian,Ra'ong Lelak Manggarai,"98F4+FQ, Ketang, Kec. Lelak, Kabupaten Manggarai, Nusa Tenggara Tim.","Kabupaten Manggarai, Nusa Tenggara Tim.",NUSA TENGGARA TIMUR,,Indonesia,,,,-8.6260818,120.306621,https://maps.google.com/?cid=0x0:0xad53ad7e7371518,
perumahan,Komplek perumahan,Reok,"89CQ+4VF, Ngkaer, Kec. Satar Mese, Kabupaten Manggarai, Nusa Tenggara Tim.","Kabupaten Manggarai, Nusa Tenggara Tim.",NUSA TENGGARA TIMUR,,Indonesia,,,,-8.6796987,120.3896651,https://maps.google.com/?cid=0x0:0xf0a0e50537a92879,
perumahan,Pembangunan Perumahan,Kec. Reom,"89CQ+4VF, Ngkaer, Kec. Satar Mese, Kabupaten Manggarai, Nusa Tenggara Tim.","Kabupaten Manggarai, Nusa Tenggara Tim.",NUSA TENGGARA TIMUR,,Indonesia,,,,-8.6796987,120.3896651,https://maps.google.com/?cid=0x0:0x13978d7d617c0d5,
perumahan,Komplek perumahan,Kajong kecamatan Reok Barat,"MFPQ+2XJ, Reo, Kec. Reok, Kabupaten Manggarai, Nusa Tenggara Tim.","Kabupaten Manggarai, Nusa Tenggara Tim.",NUSA TENGGARA TIMUR,,Indonesia,81239331395.0,,,-8.314914,120.489899,https://maps.google.com/?cid=0x0:0xd00189c8c3f8271d,
perumahan,perumahan,Kec. Cibal,"Kabupaten Manggarai, Nusa Tenggara Tim.","Kabupaten Manggarai, Nusa Tenggara Tim.",NUSA TENGGARA TIMUR,,Indonesia,,,,-8.5094904,120.4929526,https://maps.google.com/?cid=0x0:0xe5a3456d5b62241f,
perumahan,Pembangunan Perumahan,Cibal barat,"HFV4+MH3, Wae Renca, Kec. Reok, Kabupaten Manggarai, Nusa Tenggara Tim.","Kabupaten Manggarai, Nusa Tenggara Tim.",NUSA TENGGARA TIMUR,,Indonesia,,,,-8.4058653,120.4564307,https://maps.google.com/?cid=0x0:0xde21f948bd9b1ccd,
perumahan,Komplek perumahan,Cibal pinggang,"GG7J+67, Pinggang, Kec. Cibal, Kabupaten Manggarai, Nusa Tenggara Tim.","Kabupaten Manggarai, Nusa Tenggara Tim.",NUSA TENGGARA TIMUR,,Indonesia,,,,-8.4869622,120.5306723,https://maps.google.com/?cid=0x0:0x284993ec8c460d2b,
perumahan,Pembangunan Perumahan,Kawak Cibal Barat,"FFV4+F9, Lenda, Kec. Cibal, Kabupaten Manggarai Timur, Nusa Tenggara Tim.","Kabupaten Manggarai Timur, Nusa Tenggara Tim.",NUSA TENGGARA TIMUR,,Indonesia,,,,-8.5063125,120.4559375,https://maps.google.com/?cid=0x0:0xaa69bce0acf45080,
perumahan,Komplek perumahan,Meni Cibal Barat,"FFV5+9V, Lenda, Kec. Poco Ranaka Timur, Kabupaten Manggarai Timur, Nusa Tenggara Tim.","Kabupaten Manggarai Timur, Nusa Tenggara Tim.",NUSA TENGGARA TIMUR,,Indonesia,,,,-8.5065767,120.4597339,https://maps.google.com/?cid=0x0:0xce9d755a1e320ffc,
perumahan,Komplek perumahan,Nundang cibal,"FGQJ+CX5, Nundang, Kec. Cibal, Kabupaten Manggarai, Nusa Tenggara Tim.","Kabupaten Manggarai, Nusa Tenggara Tim.",NUSA TENGGARA TIMUR,,Indonesia,,,,-8.5114905,120.5324716,https://maps.google.com/?cid=0x0:0xb1de7283744b92b4,
perumahan,Rumah Kayu,Kampung Laci Desa Golo Kec. Cibal,"FGW6+7F, Golo, Kec. Cibal, Kabupaten Manggarai, Nusa Tenggara Tim.","Kabupaten Manggarai, Nusa Tenggara Tim.",NUSA TENGGARA TIMUR,,Indonesia,,,,-8.5043008,120.5111472,https://maps.google.com/?cid=0x0:0xfe1bda19d69d8786,
perumahan,Pembangunan Perumahan,Nanu Cibal Barat,"FCWX+PVM, Lenda, Kec. Cibal, Kabupaten Manggarai Timur, Nusa Tenggara Tim.","Kabupaten Manggarai Timur, Nusa Tenggara Tim.",NUSA TENGGARA TIMUR,,Indonesia,,,,-8.503172,120.449682,https://maps.google.com/?cid=0x0:0xfe1190959a6f569e,
perumahan,Pembangunan Perumahan,Golomandang,"Nenu, Kec. Cibal, Kabupaten Manggarai, Nusa Tenggara Tim.","Kabupaten Manggarai, Nusa Tenggara Tim.",NUSA TENGGARA TIMUR,,Indonesia,,,,-8.5206722,120.4876036,https://maps.google.com/?cid=0x0:0x4adc762dca19cede,
perumahan,perumahan,Jee,"GG44+XW, Golo, Kec. Cibal, Kabupaten Manggarai, Nusa Tenggara Tim.","Kabupaten Manggarai, Nusa Tenggara Tim.",NUSA TENGGARA TIMUR,,Indonesia,,,,-8.4925625,120.5073125,https://maps.google.com/?cid=0x0:0xbca3afefecbbb5b,
perumahan,Pembangunan Perumahan,Kompleks perumahan di Peso kelurahan pagal kecamatan cibal,"FFVP+P64, RT.008/RW.3, Peso, Pagal, Kec. Cibal, Kabupaten Manggarai, Nusa Tenggara Tim.","Kabupaten Manggarai, Nusa Tenggara Tim.",NUSA TENGGARA TIMUR,,Indonesia,,,,-8.5057297,120.4855856,https://maps.google.com/?cid=0x0:0x2d184666d91adf1c,
perumahan,Komplek perumahan,Tungku,"GG44+XW, Golo, Kec. Cibal, Kabupaten Manggarai, Nusa Tenggara Tim.","Kabupaten Manggarai, Nusa Tenggara Tim.",NUSA TENGGARA TIMUR,,Indonesia,,,,-8.4925489,120.5072817,https://maps.google.com/?cid=0x0:0xf5c5c7ee3277de39,
perumahan,Perhimpunan Pengembang Perumahan,Natas,"FFQR+QH8, Pagal, Kec. Cibal, Kabupaten Manggarai, Nusa Tenggara Tim.","Kabupaten Manggarai, Nusa Tenggara Tim.",NUSA TENGGARA TIMUR,,Indonesia,,,,-8.510594,120.4914483,https://maps.google.com/?cid=0x0:0x7462c797cc23c9d6,
perumahan,Perumahan,Home Ves,"GG5H+RWW, Pinggang, Kec. Cibal, Kabupaten Manggarai, Nusa Tenggara Tim.","Kabupaten Manggarai, Nusa Tenggara Tim.",NUSA TENGGARA TIMUR,,Indonesia,,,,-8.4903793,120.5298243,https://maps.google.com/?cid=0x0:0x45c3fc08892dc344,
perumahan,Komplek perumahan,Beasintang,"FGVC+XW, Barang, Kec. Cibal, Kabupaten Manggarai, Nusa Tenggara Tim.","Kabupaten Manggarai, Nusa Tenggara Tim.",NUSA TENGGARA TIMUR,,Indonesia,,,,-8.50417,120.5217696,https://maps.google.com/?cid=0x0:0xfcd08352a4d6f0f7,
perumahan,Taman,Lujang Cibal,"FFRV+56R, Lujang, Kec. Cibal, Kabupaten Manggarai, Nusa Tenggara Tim.","Kabupaten Manggarai, Nusa Tenggara Tim.",NUSA TENGGARA TIMUR,,Indonesia,,,,-8.5095153,120.4930026,https://maps.google.com/?cid=0x0:0x36164726915f688f,
perumahan,Pembangunan Perumahan,"Welu, kecamatan cibal, kabupaten Manggarai","FGGC+P4F, Welu, Kec. Cibal, Kabupaten Manggarai, Nusa Tenggara Tim.","Kabupaten Manggarai, Nusa Tenggara Tim.",NUSA TENGGARA TIMUR,,Indonesia,,,,-8.5231969,120.5202901,https://maps.google.com/?cid=0x0:0x72f614270261fe84,
perumahan,Pembangunan Perumahan,Richard Barat,"FFRQ+274, Pagal, Kec. Cibal, Kabupaten Manggarai, Nusa Tenggara Tim.","Kabupaten Manggarai, Nusa Tenggara Tim.",NUSA TENGGARA TIMUR,,Indonesia,,,,-8.5099781,120.4881954,https://maps.google.com/?cid=0x0:0xa8159390ecf200bf,
perumahan,Komplek perumahan,Kaca Village,"GF8G+554, Compang Cibal, Kec. Cibal, Kabupaten Manggarai Timur, Nusa Tenggara Tim.","Kabupaten Manggarai Timur, Nusa Tenggara Tim.",NUSA TENGGARA TIMUR,,Indonesia,,,,-8.4846085,120.4754655,https://maps.google.com/?cid=0x0:0xeddc5f4439ac064a,
perumahan,Perhimpunan Pengembang Perumahan,"Kampung Cipi,Desa Bere","FFRV+56R, Desa Bere, Kec. Cibal, Kabupaten Manggarai, Nusa Tenggara Tim.","Kabupaten Manggarai, Nusa Tenggara Tim.",NUSA TENGGARA TIMUR,,Indonesia,,,,-8.5095153,120.4930026,https://maps.google.com/?cid=0x0:0xe787ce093e1b0d5f,
perumahan,Pembangunan Perumahan,"Podor,Desa Timbu Kecamatan Cibal Barat","GCPQ+FX6, Timbu, Kec. Cibal, Kabupaten Manggarai Timur, Nusa Tenggara Tim.","Kabupaten Manggarai Timur, Nusa Tenggara Tim.",NUSA TENGGARA TIMUR,,Indonesia,,,,-8.4638483,120.439876,https://maps.google.com/?cid=0x0:0xe9e092db4eab3f75,
perumahan,Taman,"Kakor, Kecamatan Ruteng, Kabupaten Manggarai, Nusa Tenggara Timur, Indonesia","CCC7+4M6, Kakor, Kec. Ruteng, Kabupaten Manggarai, Nusa Tenggara Tim.","Kabupaten Manggarai, Nusa Tenggara Tim.",NUSA TENGGARA TIMUR,,Indonesia,,,,-8.5797172,120.4141341,https://maps.google.com/?cid=0x0:0xc8ab917dd5015c50,
perumahan,Komplek perumahan,Kakor,"CCF7+PM5, Kakor, Kec. Ruteng, Kabupaten Manggarai, Nusa Tenggara Tim.","Kabupaten Manggarai, Nusa Tenggara Tim.",NUSA TENGGARA TIMUR,,Indonesia,,,,-8.5757397,120.4142201,https://maps.google.com/?cid=0x0:0xa0dbdea0eb830a3,
perumahan,perumahan,Kec. Rahong Utara,"Kabupaten Manggarai, Nusa Tenggara Tim.","Kabupaten Manggarai, Nusa Tenggara Tim.",NUSA TENGGARA TIMUR,,Indonesia,,,,-8.5061988,120.3846692,https://maps.google.com/?cid=0x0:0x3fa7358c3a7047f,
perumahan,Gedung Apartemen,Kampung Lando desa wae mantang kecamatan rahong utara,"G95X+VH, Wae Mantang, Kec. Rahong Utara, Kabupaten Manggarai, Nusa Tenggara Tim.","Kabupaten Manggarai, Nusa Tenggara Tim.",NUSA TENGGARA TIMUR,,Indonesia,,,,-8.49031,120.3989929,https://maps.google.com/?cid=0x0:0x5b6fff605d8fab08,
perumahan,Rumah Kayu,Purang - Buar Rahong Utara,"F9FQ+2MM, Buar, Kec. Rahong Utara, Kabupaten Manggarai, Nusa Tenggara Tim.","Kabupaten Manggarai, Nusa Tenggara Tim.",NUSA TENGGARA TIMUR,,Indonesia,,,,-8.5274051,120.3891804,https://maps.google.com/?cid=0x0:0x78662922bc1a6880,
perumahan,Komplek perumahan,"Rumah Gendang Ntala,Buar,Kec.Rahong Utara","F98X+X5X, Buar, Kec. Rahong Utara, Kabupaten Manggarai, Nusa Tenggara Tim.","Kabupaten Manggarai, Nusa Tenggara Tim.",NUSA TENGGARA TIMUR,,Indonesia,,,,-8.5325193,120.3979969,https://maps.google.com/?cid=0x0:0x107699ecd7cbb38f,
perumahan,Perhimpunan Pengembang Perumahan,Kelumpang,"FCQ8+JG6, Manong, Kec. Rahong Utara, Kabupaten Manggarai, Nusa Tenggara Tim.","Kabupaten Manggarai, Nusa Tenggara Tim.",NUSA TENGGARA TIMUR,,Indonesia,,,,-8.510958,120.4162784,https://maps.google.com/?cid=0x0:0xa1d85eb85d1ca1b5,
perumahan,Komplek perumahan,Wontong rahong utara,"F9QM+WHC, Wontong, Bangka Ruang, Kabupaten Manggarai, Nusa Tenggara Tim.","Kabupaten Manggarai, Nusa Tenggara Tim.",NUSA TENGGARA TIMUR,,Indonesia,,,,-8.5101976,120.3839017,https://maps.google.com/?cid=0x0:0x60dcea835b50da65,
perumahan,Vila,Laru,"Laru, Kec. Rahong Utara, Kabupaten Manggarai, Nusa Tenggara Tim.","Kabupaten Manggarai, Nusa Tenggara Tim.",NUSA TENGGARA TIMUR,,Indonesia,,,,-8.5072911,120.4121087,https://maps.google.com/?cid=0x0:0xc1e677c6260b6554,
perumahan,Komplek perumahan,"Loi, Rahong Utara","F99F+PP, Buar, Kec. Rahong Utara, Kabupaten Manggarai, Nusa Tenggara Tim.","Kabupaten Manggarai, Nusa Tenggara Tim.",NUSA TENGGARA TIMUR,,Indonesia,,,,-8.5307137,120.3742885,https://maps.google.com/?cid=0x0:0xa19fd8585b7307b5,
perumahan,Perhimpunan Pengembang Perumahan,Kampung Garang,"FCX8+W69, Manong, Kec. Rahong Utara, Kabupaten Manggarai, Nusa Tenggara Tim.","Kabupaten Manggarai, Nusa Tenggara Tim.",NUSA TENGGARA TIMUR,,Indonesia,,,,-8.5017348,120.4153161,https://maps.google.com/?cid=0x0:0x59b1dca56344547b,
perumahan,Komplek perumahan,Linda,"F968+VCG, Dimpong, Kec. Rahong Utara, Kabupaten Manggarai, Nusa Tenggara Tim.","Kabupaten Manggarai, Nusa Tenggara Tim.",NUSA TENGGARA TIMUR,,Indonesia,,,,-8.5378236,120.3660643,https://maps.google.com/?cid=0x0:0x1ae0d8ad9f3e817a,
perumahan,Pembangunan Perumahan,Kampung Redong,"FCH3+QJ8, Benteng Tubi, Kec. Rahong Utara, Kabupaten Manggarai, Nusa Tenggara Tim.","Kabupaten Manggarai, Nusa Tenggara Tim.",NUSA TENGGARA TIMUR,,Indonesia,,,,-8.5205925,120.4040725,https://maps.google.com/?cid=0x0:0x4cc17b4559e12d7,
perumahan,Komplek perumahan,Pau,"FCFH+G7W, Pau, Bangka Ajang, Kec. Rahong Utara, Kabupaten Manggarai, Nusa Tenggara Tim.","Kabupaten Manggarai, Nusa Tenggara Tim.",NUSA TENGGARA TIMUR,,Indonesia,,,,-8.526147,120.4281906,https://maps.google.com/?cid=0x0:0x3bd6c36759c7acb0,
perumahan,Komplek perumahan,Rumah Ahock,"FCCM+QR2, Liang Bua, Kec. Rahong Utara, Kabupaten Manggarai, Nusa Tenggara Tim.","Kabupaten Manggarai, Nusa Tenggara Tim.",NUSA TENGGARA TIMUR,,Indonesia,,,,-8.5281206,120.4345099,https://maps.google.com/?cid=0x0:0x72824b0394c81caf,
perumahan,Komplek perumahan,Samsa Popa,"C9VG+C4V, Pong Lengor, Kec. Rahong Utara, Kabupaten Manggarai, Nusa Tenggara Tim.","Kabupaten Manggarai, Nusa Tenggara Tim.",NUSA TENGGARA TIMUR,,Indonesia,,,,-8.5563858,120.3752945,https://maps.google.com/?cid=0x0:0xd36280959b0edb90,
perumahan,Perhimpunan Pengembang Perumahan,Mbaru Kraeng Lery,"CCW4+V9W, Golo Langkok, Kec. Rahong Utara, Kabupaten Manggarai, Nusa Tenggara Tim.","Kabupaten Manggarai, Nusa Tenggara Tim.",NUSA TENGGARA TIMUR,,Indonesia,,,,-8.5527677,120.4059458,https://maps.google.com/?cid=0x0:0xb6e86443398c9e60,
perumahan,Perhimpunan Pengembang Perumahan,Mbora,"C9WR+VWH, Tengku Lese, Kec. Rahong Utara, Kabupaten Manggarai, Nusa Tenggara Tim.","Kabupaten Manggarai, Nusa Tenggara Tim.",NUSA TENGGARA TIMUR,,Indonesia,,,,-8.5528142,120.3923721,https://maps.google.com/?cid=0x0:0x267041985adfb534,
perumahan,Komplek perumahan,Rumah Gendang Purek,"C9HM+943, Beo Rahong, Kec. Ruteng, Kabupaten Manggarai, Nusa Tenggara Tim.","Kabupaten Manggarai, Nusa Tenggara Tim.",NUSA TENGGARA TIMUR,,Indonesia,,,,-8.5716065,120.38279,https://maps.google.com/?cid=0x0:0x5e44b52d6f819a03,
perumahan,Komplek perumahan,Rumah Gendang Bangka Ruang,"F9VM+GVF, Bangka Ruang, Kec. Rahong Utara, Kabupaten Manggarai, Nusa Tenggara Tim.","Kabupaten Manggarai, Nusa Tenggara Tim.",NUSA TENGGARA TIMUR,,Indonesia,,,,-8.5061782,120.3852238,https://maps.google.com/?cid=0x0:0x28f68f740ffdfbe5,
perumahan,Perhimpunan Pengembang Perumahan,Gang Tower,"FCJ5+85M, Poka, Benteng Tubi, Kec. Rahong Utara, Kabupaten Manggarai","Kabupaten Manggarai, Nusa Tenggara Tim.",NUSA TENGGARA TIMUR,,Indonesia,,,,-8.5191582,120.4079277,https://maps.google.com/?cid=0x0:0x597d31b02c048f41,
perumahan,Komplek perumahan,Wira,"FC27+5M8, Golo Langkok, Kec. Rahong Utara, Kabupaten Manggarai, Nusa Tenggara Tim.","Kabupaten Manggarai, Nusa Tenggara Tim.",NUSA TENGGARA TIMUR,,Indonesia,,,,-8.5495899,120.414197,https://maps.google.com/?cid=0x0:0x4a932ec7d6965d78,
perumahan,Komplek perumahan,Gendang Rembong,"F977+F6, Dimpong, Kec. Rahong Utara, Kabupaten Manggarai, Nusa Tenggara Tim.","Kabupaten Manggarai, Nusa Tenggara Tim.",NUSA TENGGARA TIMUR,,Indonesia,,,,-8.5370421,120.3634302,https://maps.google.com/?cid=0x0:0xb7484407b5bcc2a9,
perumahan,Pembangunan Perumahan,Rumah weng Ladang,"CCW4+XCR, Golo Langkok, Kec. Rahong Utara, Kabupaten Manggarai, Nusa Tenggara Tim.","Kabupaten Manggarai, Nusa Tenggara Tim.",NUSA TENGGARA TIMUR,,Indonesia,,,,-8.5521524,120.4050704,https://maps.google.com/?cid=0x0:0x64bb10360d1ba273,
