Category,Real Category,Business Name,Address,City,State,Postal Code,Country,Phone,Email,Website,Latitude,Longitude,Map Link,Details Link
toko bangunan,toko bangunan,Kalimantan Timur 76285,"Kabupaten Penajam Paser Utara, Kalimantan Timur","Kabupaten Penajam Paser Utara, Kalimantan Timur",KALIMANTAN TIMUR,,Indonesia,,,,-1.4657049,116.4665975,https://maps.google.com/?cid=0x0:0x5943ae3383f3a6bc,
toko bangunan,Toko Bahan Bangunan,Toko bangunan Sumber Rejeki,"FFW4+67H, Babulu Darat, Kec. Babulu, Kabupaten Penajam Paser Utara, Kalimantan Timur 76285","Babulu Darat, Kec. Babulu, Kabupaten Penajam Paser Utara",KALIMANTAN TIMUR,76285.0,Indonesia, 01348000073,,,-1.5044376,116.4557446,https://maps.google.com/?cid=0x0:0xcdc8f94a16e46d6c,
toko bangunan,Toko Bahan Bangunan,Toko sinar bangunan babulu,"Jl. Propinsi No.KM. 48, Babulu Darat, Kec. Babulu, Kabupaten Penajam Paser Utara, Kalimantan Timur 76285","Babulu Darat, Kec. Babulu, Kabupaten Penajam Paser Utara",KALIMANTAN TIMUR,76285.0,Indonesia, 081347388868,,,-1.5021436,116.4578093,https://maps.google.com/?cid=0x0:0xe00713d6cc523a67,
toko bangunan,Toko Bahan Bangunan,Toko Fajar,"FFV2+7C4, Babulu Darat, Kec. Babulu, Kabupaten Penajam Paser Utara, Kalimantan Timur 76285","Babulu Darat, Kec. Babulu, Kabupaten Penajam Paser Utara",KALIMANTAN TIMUR,76285.0,Indonesia, 081346550971,,,-1.5068627,116.4510743,https://maps.google.com/?cid=0x0:0x9c265c69fd9def4e,
toko bangunan,Toko Bahan Bangunan,TB Borneo Raya,"Jl. Penajam-Kuaro barat, Babulu Darat, Kec. Babulu, Kabupaten Penajam Paser Utara, Kalimantan Timur 76285","Babulu Darat, Kec. Babulu, Kabupaten Penajam Paser Utara",KALIMANTAN TIMUR,76285.0,Indonesia, 081282798289,,,-1.4995739,116.4612082,https://maps.google.com/?cid=0x0:0x3fc4b39b433d7ab6,
toko bangunan,Toko Bahan Bangunan,Toko Jaya bangunan,"Gn. Intan, Kec. Babulu, Kabupaten Penajam Paser Utara, Kalimantan Timur 76285","Kec. Babulu, Kabupaten Penajam Paser Utara",KALIMANTAN TIMUR,76285.0,Indonesia, 081351230990,,,-1.5299275,116.4485721,https://maps.google.com/?cid=0x0:0x44c847a992e1b383,
toko bangunan,Toko Perlengkapan Rumah,Toko bangunan kharisma jaya,"FC5X+R9G, Unnamed Road, Gn. Intan, Kec. Babulu, Kabupaten Penajam Paser Utara, Kalimantan Timur 76285","Unnamed Road, Gn. Intan, Kec. Babulu, Kabupaten Penajam Paser Utara",KALIMANTAN TIMUR,76285.0,Indonesia,,,,-1.5404323,116.4484645,https://maps.google.com/?cid=0x0:0x4a9e2f3a27ea0a7,
toko bangunan,Toko Bahan Bangunan,Bintang Mas,"FCRV+V2Q, Babulu Darat, Kec. Babulu, Kabupaten Penajam Paser Utara, Kalimantan Timur 76285","Babulu Darat, Kec. Babulu, Kabupaten Penajam Paser Utara",KALIMANTAN TIMUR,76285.0,Indonesia,,,,-1.5077944,116.4426025,https://maps.google.com/?cid=0x0:0xd1fc178a8abca4d8,
toko bangunan,Toko Bahan Bangunan,Toko Rizky,"GF26+272, Babulu Darat, Kec. Babulu, Kabupaten Penajam Paser Utara, Kalimantan Timur 76285","Babulu Darat, Kec. Babulu, Kabupaten Penajam Paser Utara",KALIMANTAN TIMUR,76285.0,Indonesia,,,,-1.4999952,116.4606504,https://maps.google.com/?cid=0x0:0x2615cb729c71a71a,
toko bangunan,Toko Bahan Bangunan,TK Mitra Baru,"GF27+H47, Babulu Darat, Kec. Babulu, Kabupaten Penajam Paser Utara, Kalimantan Timur 76285","Babulu Darat, Kec. Babulu, Kabupaten Penajam Paser Utara",KALIMANTAN TIMUR,76285.0,Indonesia,,,,-1.4983445,116.4629642,https://maps.google.com/?cid=0x0:0x3f086ae3617075a7,
toko bangunan,Pusat Perbelanjaan,Toko Pasir Jaya Abadi (PJA) Babulu,"Jl. Penajam-Kuaro, Babulu Darat, Kec. Babulu, Kabupaten Penajam Paser Utara, Kalimantan Timur 76285","Babulu Darat, Kec. Babulu, Kabupaten Penajam Paser Utara",KALIMANTAN TIMUR,76285.0,Indonesia, 082279629048,,,-1.5021979,116.458057,https://maps.google.com/?cid=0x0:0x1c55eee4ac8b454b,
toko bangunan,Toko Kayu,Kios Kayu Sinar Abadi2,"FCVP+Q9G, Babulu Darat, Kec. Babulu, Kabupaten Penajam Paser Utara, Kalimantan Timur 76285","Babulu Darat, Kec. Babulu, Kabupaten Penajam Paser Utara",KALIMANTAN TIMUR,76285.0,Indonesia, 082350103224,,,-1.5055639,116.4359459,https://maps.google.com/?cid=0x0:0xd1973f6e327b9d5c,
toko bangunan,Toko Kayu,Kios Kayu Sinar Abadi1,"FCRQ+PQ8, Babulu Darat, Kec. Babulu, Kabupaten Penajam Paser Utara, Kalimantan Timur 76285","Babulu Darat, Kec. Babulu, Kabupaten Penajam Paser Utara",KALIMANTAN TIMUR,76285.0,Indonesia, 082350103224,,,-1.5082157,116.4394653,https://maps.google.com/?cid=0x0:0x57ee6457d19dc83b,
toko bangunan,Pusat Perbelanjaan,Toko Tata indah,"GFCX+GG8, Labangka, Kec. Babulu, Kabupaten Penajam Paser Utara, Kalimantan Timur 76285","Labangka, Kec. Babulu, Kabupaten Penajam Paser Utara",KALIMANTAN TIMUR,76285.0,Indonesia,,,,-1.4790923,116.4982193,https://maps.google.com/?cid=0x0:0x77b911c931e930d5,
toko bangunan,Toko Bahan Bangunan,TOKO BENING(Pesan Antar By WA),"Jalan Widodo No.1, Gunung Intan, Kec. Babulu, Kabupaten Penajam Paser Utara, Kalimantan Timur","Kabupaten Penajam Paser Utara, Kalimantan Timur",KALIMANTAN TIMUR,,Indonesia, 081347563619,,,-1.5143427,116.4168637,https://maps.google.com/?cid=0x0:0x46fdf154d36f2d92,
toko bangunan,Jasa Konstruksi dan Bangunan,Plafon PVC babulu Agus plafon,"Jl. Propinsi No.km50, Babulu Darat, Kec. Babulu, Kabupaten Penajam Paser Utara, Kalimantan Timur 76285","Babulu Darat, Kec. Babulu, Kabupaten Penajam Paser Utara",KALIMANTAN TIMUR,76285.0,Indonesia, 085246353544,,,-1.5073103,116.4417637,https://maps.google.com/?cid=0x0:0x1962bfa54c456e76,
toko bangunan,Toko Bahan Bangunan,TOKO BANGUNAN MULTI SUMBER RAYA,"Jl. Lapangan No.RT.04, Gn. Seteleng, Penajam, Kabupaten Penajam Paser Utara, Kalimantan Timur 76141","Gn. Seteleng, Penajam, Kabupaten Penajam Paser Utara",KALIMANTAN TIMUR,76141.0,Indonesia,,,,-1.2510438,116.7681878,https://maps.google.com/?cid=0x0:0x4cd71101ecb93c66,
toko bangunan,Toko Bahan Bangunan,"Toko bangunan Bintang Baru, waru","JJ58+26P, Waru, Kec. Waru, Kabupaten Penajam Paser Utara, Kalimantan Timur 76143","Waru, Kec. Waru, Kabupaten Penajam Paser Utara",KALIMANTAN TIMUR,76143.0,Indonesia, 087781689879,,,-1.3924236,116.6155842,https://maps.google.com/?cid=0x0:0xaaafa1bbc44fc9a1,
toko bangunan,Toko Bahan Bangunan,TOKO BINTANG BANGUNAN,"Giri Mukti, Penajam, Kabupaten Penajam Paser Utara, Kalimantan Timur","Kabupaten Penajam Paser Utara, Kalimantan Timur",KALIMANTAN TIMUR,,Indonesia, 081350135293,,,-1.3447351,116.6804445,https://maps.google.com/?cid=0x0:0x66a390f709093190,
toko bangunan,toko bangunan,Rahma jaya,"FF66+73J, Unnamed Road, Gn. Intan, Kec. Babulu, Kabupaten Penajam Paser Utara, Kalimantan Timur 76285","Unnamed Road, Gn. Intan, Kec. Babulu, Kabupaten Penajam Paser Utara",KALIMANTAN TIMUR,76285.0,Indonesia,,,,-1.539288,116.4601363,https://maps.google.com/?cid=0x0:0x7df6975d816e0226,
toko bangunan,Toko Perlengkapan Rumah,Toko bangunan CEMERLANG BINTANG sumbersari SBK3,"CCJH+H7X, Sebakung Taka, Kec. Long Kali, Kabupaten Paser, Kalimantan Timur 76283","Sebakung Taka, Kec. Long Kali, Kabupaten Paser",KALIMANTAN TIMUR,76283.0,Indonesia,,,,-1.5685018,116.4281871,https://maps.google.com/?cid=0x0:0x442508c6093d5504,
toko bangunan,Kantor Perusahaan,Bata Ringan AJA,"Jl. Propinsi No.KM.58, Rintik, Kec. Babulu, Kabupaten Penajam Paser Utara, Kalimantan Timur 76285","Rintik, Kec. Babulu, Kabupaten Penajam Paser Utara",KALIMANTAN TIMUR,76285.0,Indonesia, 085788871084,,,-1.4988056,116.3814005,https://maps.google.com/?cid=0x0:0x5f7e2137000abfc2,
toko bangunan,Toko Alat Tulis Kantor,Toko Buana,"Babulu Darat, Kec. Babulu, Kabupaten Penajam Paser Utara, Kalimantan Timur 76285","Kec. Babulu, Kabupaten Penajam Paser Utara",KALIMANTAN TIMUR,76285.0,Indonesia, 081350278095,,,-1.5062661,116.453243,https://maps.google.com/?cid=0x0:0xaf95046cfa142dc4,
toko bangunan,toko bangunan,Kalimantan Timur 76141,"Penajam, Kabupaten Penajam Paser Utara, Kalimantan Timur","Kabupaten Penajam Paser Utara, Kalimantan Timur",KALIMANTAN TIMUR,,Indonesia,,,,-1.2030733,116.7260713,https://maps.google.com/?cid=0x0:0xa626321142eadacb,
toko bangunan,Toko Bahan Bangunan,TOKO BANGUNAN MULTI SUMBER RAYA,"Jl. Lapangan No.RT.04, Gn. Seteleng, Penajam, Kabupaten Penajam Paser Utara, Kalimantan Timur 76141","Gn. Seteleng, Penajam, Kabupaten Penajam Paser Utara",KALIMANTAN TIMUR,76141.0,Indonesia,,,,-1.2510438,116.7681878,https://maps.google.com/?cid=0x0:0x4cd71101ecb93c66,
toko bangunan,Toko Bahan Bangunan,TOKO BINTANG BANGUNAN,"Giri Mukti, Penajam, Kabupaten Penajam Paser Utara, Kalimantan Timur","Kabupaten Penajam Paser Utara, Kalimantan Timur",KALIMANTAN TIMUR,,Indonesia, 081350135293,,,-1.3447351,116.6804445,https://maps.google.com/?cid=0x0:0x66a390f709093190,
toko bangunan,Toko Bahan Bangunan,"Toko Bangunan Anugrah Property, Kontraktor, Supplier","Sepaku 4 Bukit Raya, Penajam, Kabupaten Penajam Paser Utara, Kalimantan Timur 76141","Penajam, Kabupaten Penajam Paser Utara",KALIMANTAN TIMUR,76141.0,Indonesia, 8228193,,,-1.1955898,116.6604662,https://maps.google.com/?cid=0x0:0x2df67015ef1098da,
toko bangunan,Toko Bahan Bangunan,Toko Bangunan Bintang Timur 2,"MMJ8+X82, Lawe-lawe, Penajam, Kabupaten Penajam Paser Utara, Kalimantan Timur 76141","Lawe-lawe, Penajam, Kabupaten Penajam Paser Utara",KALIMANTAN TIMUR,76141.0,Indonesia, 081225533972,,,-1.3176246,116.665752,https://maps.google.com/?cid=0x0:0xdfcda08570765d1d,
toko bangunan,Toko Bahan Bangunan,Toko Sinar Bangunan,"QQ2G+X5Q, Jl. Propinsi, Penajam, Kabupaten Penajam Paser Utara, Kalimantan Timur 76141","Jl. Propinsi, Penajam, Kabupaten Penajam Paser Utara",KALIMANTAN TIMUR,76141.0,Indonesia, 081331039944,,,-1.2475297,116.775485,https://maps.google.com/?cid=0x0:0xd1622f7785f3ea64,
toko bangunan,Toko Bahan Bangunan,TB Karya Utama,"Jl. Penajam-Kuaro No.16, Giri Mukti, Penajam, Kabupaten Penajam Paser Utara, Kalimantan Timur 76143","Giri Mukti, Penajam, Kabupaten Penajam Paser Utara",KALIMANTAN TIMUR,76143.0,Indonesia, 081311515141,,,-1.3381789,116.6875237,https://maps.google.com/?cid=0x0:0x7959d11645401c8c,
toko bangunan,Toko Bahan Bangunan,USAHA BARU JAYA,"Giri Mukti, Penajam, Kabupaten Penajam Paser Utara, Kalimantan Timur 76143","Penajam, Kabupaten Penajam Paser Utara",KALIMANTAN TIMUR,76143.0,Indonesia, 085248256666,,,-1.3471944,116.6770356,https://maps.google.com/?cid=0x0:0x49ff93f654bb9cb9,
toko bangunan,Toko Perlengkapan Rumah,Toko Berlian Abadi,"Jl. Propinsi No.km 3, Penajam, Kabupaten Penajam Paser Utara, Kalimantan Timur 76142","Penajam, Kabupaten Penajam Paser Utara",KALIMANTAN TIMUR,76142.0,Indonesia, 083181673940,,,-1.267416,116.7589707,https://maps.google.com/?cid=0x0:0xe8f99fa1de93dfcf,
toko bangunan,Toko Bahan Bangunan,Toko Bersama Bangun Jaya,"Jl. Propinsi No.56, Penajam, Kabupaten Penajam Paser Utara, Kalimantan Timur 76141","Penajam, Kabupaten Penajam Paser Utara",KALIMANTAN TIMUR,76141.0,Indonesia, 085752632166,,,-1.2526214,116.7729313,https://maps.google.com/?cid=0x0:0xc1b5b193af2c88f4,
toko bangunan,Toko Perlengkapan Rumah,Toko Mitra Teknik,"Petung, Penajam, Kabupaten Penajam Paser Utara, Kalimantan Timur 76143","Penajam, Kabupaten Penajam Paser Utara",KALIMANTAN TIMUR,76143.0,Indonesia,,,,-1.3568021,116.6637411,https://maps.google.com/?cid=0x0:0x123062f11ce151e0,
toko bangunan,Toko Bahan Bangunan,Depo Cat Penajam Petung,"Jl, Petung, Penajam, Kabupaten Penajam Paser Utara, Kalimantan Timur 76143","Petung, Penajam, Kabupaten Penajam Paser Utara",KALIMANTAN TIMUR,76143.0,Indonesia, 087840651549,,,-1.3571927,116.6630952,https://maps.google.com/?cid=0x0:0x46e0e6bdfde23e7e,
toko bangunan,Toko Bahan Bangunan,Indo Kerajaan Keramik,"JMR6+WQ9, Jl. Penajam-Kuaro, Giri Mukti, Penajam, Kabupaten Penajam Paser Utara, Kalimantan Timur 76143","Jl. Penajam-Kuaro, Giri Mukti, Penajam, Kabupaten Penajam Paser Utara",KALIMANTAN TIMUR,76143.0,Indonesia, 082228044923,,,-1.3577082,116.661978,https://maps.google.com/?cid=0x0:0xbe48c5f45235b0a0,
toko bangunan,Toko Bahan Bangunan,BJR TRUSS 2 PENAJAM,"Jl. Propinsi No.KM 3, RT.01, Penajam, Kabupaten Penajam Paser Utara, Kalimantan Timur 76141","RT.01, Penajam, Kabupaten Penajam Paser Utara",KALIMANTAN TIMUR,76141.0,Indonesia, 082254100445,,,-1.2644764,116.7621984,https://maps.google.com/?cid=0x0:0x24036d50d94d680e,
toko bangunan,Toko Bahan Bangunan,Toko Bangunan SBN Sinar Bangunan nipah-nipah penajam,"jl propinsi No.km 7, Nipah-Nipah, Penajam, Kabupaten Penajam Paser Utara, Kalimantan Timur 76142","Nipah-Nipah, Penajam, Kabupaten Penajam Paser Utara",KALIMANTAN TIMUR,76142.0,Indonesia, 082152076602,,,-1.29781,116.7395643,https://maps.google.com/?cid=0x0:0x79a68f4209442d87,
toko bangunan,Toko Bahan Bangunan,"Toko bangunan Bintang Baru, waru","JJ58+26P, Waru, Kec. Waru, Kabupaten Penajam Paser Utara, Kalimantan Timur 76143","Waru, Kec. Waru, Kabupaten Penajam Paser Utara",KALIMANTAN TIMUR,76143.0,Indonesia, 087781689879,,,-1.3924236,116.6155842,https://maps.google.com/?cid=0x0:0xaaafa1bbc44fc9a1,
toko bangunan,Perusahaan Konstruksi,PT. Inne Dongwha Development Ltd,"RPFV+98Q, Jenebora, Penajam, Pasir, Jenebora, Penajam, Kabupaten Penajam Paser Utara, Kalimantan Timur 76141","Jenebora, Penajam, Pasir, Jenebora, Penajam, Kabupaten Penajam Paser Utara",KALIMANTAN TIMUR,76141.0,Indonesia, 0543424366,,,-1.1765333,116.7433636,https://maps.google.com/?cid=0x0:0x936fa9a46808b8c7,
toko bangunan,Toko Bahan Bangunan,Batako Sumber Mas Ayu,"Jl Raya Km 17 Depan Kompi C Rider, Giri Mukti, Penajam, Kabupaten Penajam Paser Utara, Kalimantan Timur 76143","Giri Mukti, Penajam, Kabupaten Penajam Paser Utara",KALIMANTAN TIMUR,76143.0,Indonesia, 082151053995,,,-1.3501378,116.6713959,https://maps.google.com/?cid=0x0:0x932c2a7e70ac6ad3,
toko bangunan,Toko Perlengkapan Rumah,TOKO BANGUNAN KAWAN TEKNIK,"Jalan Propinsi Petung - Sepaku KM. 21, RT.4, Sotek, Kabupaten Penajam Paser Utara, Kalimantan Timur 76144","RT.4, Sotek, Kabupaten Penajam Paser Utara",KALIMANTAN TIMUR,76144.0,Indonesia, 081351688370,,,-1.1975596,116.6138258,https://maps.google.com/?cid=0x0:0xf9a3a6f61cfe568d,
toko bangunan,Rumah Makan,Toko Bangunanalat2 Listrik USAHA BARU 2,"JMR6+VP3, Jl. Propinsi, Petung, Penajam, Kabupaten Penajam Paser Utara, Kalimantan Timur 76143","Jl. Propinsi, Petung, Penajam, Kabupaten Penajam Paser Utara",KALIMANTAN TIMUR,76143.0,Indonesia, 081225533972,,,-1.3578632,116.6617977,https://maps.google.com/?cid=0x0:0x1413de1f473534c7,
toko bangunan,Toko Bahan Bangunan,TOKO BANGUNAN SURYA MANDIRI,"Jalan Provinsi Km 4 Nenang, Penajam, Kabupaten Penajam Paser Utara, Kalimantan Timur 76141","Penajam, Kabupaten Penajam Paser Utara",KALIMANTAN TIMUR,76141.0,Indonesia, 081253439393,,,-1.2765893,116.7523826,https://maps.google.com/?cid=0x0:0x800e17ad3c73b8b,
toko bangunan,Toko Bahan Bangunan,Toko Bangunan Anam Jaya,"MM8W+R22, Lawe-lawe, Penajam, Kabupaten Penajam Paser Utara, Kalimantan Timur 76142","Lawe-lawe, Penajam, Kabupaten Penajam Paser Utara",KALIMANTAN TIMUR,76142.0,Indonesia, 085962336780,,,-1.3329842,116.6950233,https://maps.google.com/?cid=0x0:0xe8b51b943af5b6a2,
toko bangunan,toko bangunan,Kalimantan Timur 76142,"Penajam, Kabupaten Penajam Paser Utara, Kalimantan Timur","Kabupaten Penajam Paser Utara, Kalimantan Timur",KALIMANTAN TIMUR,,Indonesia,,,,-1.2725765,116.6789163,https://maps.google.com/?cid=0x0:0x21dbfde82442773a,
toko bangunan,Toko Bahan Bangunan,TOKO BJR TRUSS PENAJAM IKN,"Jl. Propinsi No.5, Penajam, Kabupaten Penajam Paser Utara, Kalimantan Timur 76142","Penajam, Kabupaten Penajam Paser Utara",KALIMANTAN TIMUR,76142.0,Indonesia, 0811545424,,,-1.2619936,116.7648304,https://maps.google.com/?cid=0x0:0x6d057caee41e6f72,
toko bangunan,Toko Bahan Bangunan,TOKO BANGUNAN MULTI SUMBER RAYA,"Jl. Lapangan No.RT.04, Gn. Seteleng, Penajam, Kabupaten Penajam Paser Utara, Kalimantan Timur 76141","Gn. Seteleng, Penajam, Kabupaten Penajam Paser Utara",KALIMANTAN TIMUR,76141.0,Indonesia,,,,-1.2510438,116.7681878,https://maps.google.com/?cid=0x0:0x4cd71101ecb93c66,
toko bangunan,Toko Bahan Bangunan,TOKO BINTANG BANGUNAN,"Giri Mukti, Penajam, Kabupaten Penajam Paser Utara, Kalimantan Timur","Kabupaten Penajam Paser Utara, Kalimantan Timur",KALIMANTAN TIMUR,,Indonesia, 081350135293,,,-1.3447351,116.6804445,https://maps.google.com/?cid=0x0:0x66a390f709093190,
toko bangunan,Toko Bahan Bangunan,Toko Bangunan Bintang Timur 2,"MMJ8+X82, Lawe-lawe, Penajam, Kabupaten Penajam Paser Utara, Kalimantan Timur 76141","Lawe-lawe, Penajam, Kabupaten Penajam Paser Utara",KALIMANTAN TIMUR,76141.0,Indonesia, 081225533972,,,-1.3176246,116.665752,https://maps.google.com/?cid=0x0:0xdfcda08570765d1d,
toko bangunan,Toko Bahan Bangunan,Toko Bangunan berkah jaya abadi,"Jl. provinsi km. 7 Depan masjid Al Amin, kel, Nipah-Nipah, Penajam, Kabupaten Penajam Paser Utara, Kalimantan Timur 76142","kel, Nipah-Nipah, Penajam, Kabupaten Penajam Paser Utara",KALIMANTAN TIMUR,76142.0,Indonesia, 083181673940,,,-1.2943663,116.7421899,https://maps.google.com/?cid=0x0:0xaeac9a709200c03,
toko bangunan,Toko Bahan Bangunan,Toko Bangunan Eka Jaya 2,"MPPR+7FV, Unnamed Road, Sungai Parit, Penajam, Kabupaten Penajam Paser Utara, Kalimantan Timur 76142","Unnamed Road, Sungai Parit, Penajam, Kabupaten Penajam Paser Utara",KALIMANTAN TIMUR,76142.0,Indonesia, 085654856095,,,-1.3142525,116.7411765,https://maps.google.com/?cid=0x0:0xf2217aeb2e742b2e,
toko bangunan,Toko Perlengkapan Rumah,Toko Berlian Abadi,"Jl. Propinsi No.km 3, Penajam, Kabupaten Penajam Paser Utara, Kalimantan Timur 76142","Penajam, Kabupaten Penajam Paser Utara",KALIMANTAN TIMUR,76142.0,Indonesia, 083181673940,,,-1.267416,116.7589707,https://maps.google.com/?cid=0x0:0xe8f99fa1de93dfcf,
toko bangunan,Toko Bahan Bangunan,Toko Bangun Jaya,"PP5R+RRV, Jl. Penajam-Kuaro, Nenang, Penajam, Kabupaten Penajam Paser Utara, Kalimantan Timur 76142","Jl. Penajam-Kuaro, Nenang, Penajam, Kabupaten Penajam Paser Utara",KALIMANTAN TIMUR,76142.0,Indonesia, 082183195877,,,-1.2903958,116.7420615,https://maps.google.com/?cid=0x0:0xca8b0968f9cd4c6e,
toko bangunan,Toko Bahan Bangunan,TB Karya Utama,"Jl. Penajam-Kuaro No.16, Giri Mukti, Penajam, Kabupaten Penajam Paser Utara, Kalimantan Timur 76143","Giri Mukti, Penajam, Kabupaten Penajam Paser Utara",KALIMANTAN TIMUR,76143.0,Indonesia, 081311515141,,,-1.3381789,116.6875237,https://maps.google.com/?cid=0x0:0x7959d11645401c8c,
toko bangunan,Toko Bahan Bangunan,"Toko Bangunan Anugrah Property, Kontraktor, Supplier","Sepaku 4 Bukit Raya, Penajam, Kabupaten Penajam Paser Utara, Kalimantan Timur 76141","Penajam, Kabupaten Penajam Paser Utara",KALIMANTAN TIMUR,76141.0,Indonesia, 8228193,,,-1.1955898,116.6604662,https://maps.google.com/?cid=0x0:0x2df67015ef1098da,
toko bangunan,Toko Bahan Bangunan,Toko Bersama Bangun Jaya,"Jl. Propinsi No.56, Penajam, Kabupaten Penajam Paser Utara, Kalimantan Timur 76141","Penajam, Kabupaten Penajam Paser Utara",KALIMANTAN TIMUR,76141.0,Indonesia, 085752632166,,,-1.2526214,116.7729313,https://maps.google.com/?cid=0x0:0xc1b5b193af2c88f4,
toko bangunan,Toko Bahan Bangunan,USAHA BARU JAYA,"Giri Mukti, Penajam, Kabupaten Penajam Paser Utara, Kalimantan Timur 76143","Penajam, Kabupaten Penajam Paser Utara",KALIMANTAN TIMUR,76143.0,Indonesia, 085248256666,,,-1.3471944,116.6770356,https://maps.google.com/?cid=0x0:0x49ff93f654bb9cb9,
toko bangunan,Toko Perlengkapan Rumah,TOKO BANGUNAN KAWAN TEKNIK,"Jalan Propinsi Petung - Sepaku KM. 21, RT.4, Sotek, Kabupaten Penajam Paser Utara, Kalimantan Timur 76144","RT.4, Sotek, Kabupaten Penajam Paser Utara",KALIMANTAN TIMUR,76144.0,Indonesia, 081351688370,,,-1.1975596,116.6138258,https://maps.google.com/?cid=0x0:0xf9a3a6f61cfe568d,
toko bangunan,Toko Perlengkapan Rumah,Tb. Cahaya baru nenang,"Jl. Propinsi No.6, Penajam, Kabupaten Penajam Paser Utara, Kalimantan Timur 76142","Penajam, Kabupaten Penajam Paser Utara",KALIMANTAN TIMUR,76142.0,Indonesia, 082183195877,,,-1.2839215,116.7435794,https://maps.google.com/?cid=0x0:0x87bb03870b1318d4,
toko bangunan,Toko Bahan Bangunan,BJR TRUSS 2 PENAJAM,"Jl. Propinsi No.KM 3, RT.01, Penajam, Kabupaten Penajam Paser Utara, Kalimantan Timur 76141","RT.01, Penajam, Kabupaten Penajam Paser Utara",KALIMANTAN TIMUR,76141.0,Indonesia, 082254100445,,,-1.2644764,116.7621984,https://maps.google.com/?cid=0x0:0x24036d50d94d680e,
toko bangunan,Toko Bahan Bangunan,Toko Sinar Bangunan,"QQ2G+X5Q, Jl. Propinsi, Penajam, Kabupaten Penajam Paser Utara, Kalimantan Timur 76141","Jl. Propinsi, Penajam, Kabupaten Penajam Paser Utara",KALIMANTAN TIMUR,76141.0,Indonesia, 081331039944,,,-1.2475297,116.775485,https://maps.google.com/?cid=0x0:0xd1622f7785f3ea64,
toko bangunan,Toko Bahan Bangunan,Toko Bangunan Anam Jaya,"MM8W+R22, Lawe-lawe, Penajam, Kabupaten Penajam Paser Utara, Kalimantan Timur 76142","Lawe-lawe, Penajam, Kabupaten Penajam Paser Utara",KALIMANTAN TIMUR,76142.0,Indonesia, 085962336780,,,-1.3329842,116.6950233,https://maps.google.com/?cid=0x0:0xe8b51b943af5b6a2,
toko bangunan,Toko Bahan Bangunan,TOKO BANGUNAN SURYA MANDIRI,"Jalan Provinsi Km 4 Nenang, Penajam, Kabupaten Penajam Paser Utara, Kalimantan Timur 76141","Penajam, Kabupaten Penajam Paser Utara",KALIMANTAN TIMUR,76141.0,Indonesia, 081253439393,,,-1.2765893,116.7523826,https://maps.google.com/?cid=0x0:0x800e17ad3c73b8b,
toko bangunan,Toko Bahan Bangunan,Depo Cat Penajam Petung,"Jl, Petung, Penajam, Kabupaten Penajam Paser Utara, Kalimantan Timur 76143","Petung, Penajam, Kabupaten Penajam Paser Utara",KALIMANTAN TIMUR,76143.0,Indonesia, 087840651549,,,-1.3571927,116.6630952,https://maps.google.com/?cid=0x0:0x46e0e6bdfde23e7e,
toko bangunan,Toko Perlengkapan Rumah,TOKO PELITA ABADI SEJAHTERA,"PP9W+438, Penajam, Kabupaten Penajam Paser Utara, Kalimantan Timur 76142","Penajam, Kabupaten Penajam Paser Utara",KALIMANTAN TIMUR,76142.0,Indonesia,,,,-1.2821935,116.7451864,https://maps.google.com/?cid=0x0:0xc1db2565fcce4d9d,
toko bangunan,toko bangunan,Kalimantan Timur 76143,"Penajam, Kabupaten Penajam Paser Utara, Kalimantan Timur","Kabupaten Penajam Paser Utara, Kalimantan Timur",KALIMANTAN TIMUR,,Indonesia,,,,-1.3675236,116.690706,https://maps.google.com/?cid=0x0:0xb94f64efcaa9f1af,
toko bangunan,Toko Bahan Bangunan,TOKO BINTANG BANGUNAN,"Giri Mukti, Penajam, Kabupaten Penajam Paser Utara, Kalimantan Timur","Kabupaten Penajam Paser Utara, Kalimantan Timur",KALIMANTAN TIMUR,,Indonesia, 081350135293,,,-1.3447351,116.6804445,https://maps.google.com/?cid=0x0:0x66a390f709093190,
toko bangunan,Toko Bahan Bangunan,"Toko bangunan Bintang Baru, waru","JJ58+26P, Waru, Kec. Waru, Kabupaten Penajam Paser Utara, Kalimantan Timur 76143","Waru, Kec. Waru, Kabupaten Penajam Paser Utara",KALIMANTAN TIMUR,76143.0,Indonesia, 087781689879,,,-1.3924236,116.6155842,https://maps.google.com/?cid=0x0:0xaaafa1bbc44fc9a1,
toko bangunan,Toko Perlengkapan Rumah,Toko BONE JAYA ABADI,"JM7W+H67, Penajam, Kabupaten Penajam Paser Utara, Kalimantan Timur 76143","Penajam, Kabupaten Penajam Paser Utara",KALIMANTAN TIMUR,76143.0,Indonesia, 085265465000,,,-1.3860872,116.6955455,https://maps.google.com/?cid=0x0:0x2f74f42b88101573,
toko bangunan,Toko Bahan Bangunan,Depo Cat Penajam Petung,"Jl, Petung, Penajam, Kabupaten Penajam Paser Utara, Kalimantan Timur 76143","Petung, Penajam, Kabupaten Penajam Paser Utara",KALIMANTAN TIMUR,76143.0,Indonesia, 087840651549,,,-1.3571927,116.6630952,https://maps.google.com/?cid=0x0:0x46e0e6bdfde23e7e,
toko bangunan,Toko Bahan Bangunan,TB Karya Utama,"Jl. Penajam-Kuaro No.16, Giri Mukti, Penajam, Kabupaten Penajam Paser Utara, Kalimantan Timur 76143","Giri Mukti, Penajam, Kabupaten Penajam Paser Utara",KALIMANTAN TIMUR,76143.0,Indonesia, 081311515141,,,-1.3381789,116.6875237,https://maps.google.com/?cid=0x0:0x7959d11645401c8c,
toko bangunan,Toko Bahan Bangunan,Toko Bangunan Mulya Jaya,"JJ87+4F4, Jl. Bangun Mulyo, Waru, Kec. Waru, Kabupaten Penajam Paser Utara, Kalimantan Timur","Kabupaten Penajam Paser Utara, Kalimantan Timur",KALIMANTAN TIMUR,,Indonesia,,,,-1.3847376,116.6137144,https://maps.google.com/?cid=0x0:0xb8dc6cf99b37d7a1,
toko bangunan,Toko Perlengkapan Rumah,Toko Mitra Teknik,"Petung, Penajam, Kabupaten Penajam Paser Utara, Kalimantan Timur 76143","Penajam, Kabupaten Penajam Paser Utara",KALIMANTAN TIMUR,76143.0,Indonesia,,,,-1.3568021,116.6637411,https://maps.google.com/?cid=0x0:0x123062f11ce151e0,
toko bangunan,Toko bahan makanan,TOKO BERKAH MULIA,"Waru, Kec. Waru, Kabupaten Penajam Paser Utara, Kalimantan Timur 76284","Kec. Waru, Kabupaten Penajam Paser Utara",KALIMANTAN TIMUR,76284.0,Indonesia, 085828583579,,,-1.4031516,116.6059228,https://maps.google.com/?cid=0x0:0x8fd3cceaf6065d4a,
toko bangunan,Toko Bahan Bangunan,TOKO BJR TRUSS PENAJAM IKN,"Jl. Propinsi No.5, Penajam, Kabupaten Penajam Paser Utara, Kalimantan Timur 76142","Penajam, Kabupaten Penajam Paser Utara",KALIMANTAN TIMUR,76142.0,Indonesia, 0811545424,,,-1.2619936,116.7648304,https://maps.google.com/?cid=0x0:0x6d057caee41e6f72,
toko bangunan,Toko Bahan Bangunan,TOKO BANGUNAN MULTI SUMBER RAYA,"Jl. Lapangan No.RT.04, Gn. Seteleng, Penajam, Kabupaten Penajam Paser Utara, Kalimantan Timur 76141","Gn. Seteleng, Penajam, Kabupaten Penajam Paser Utara",KALIMANTAN TIMUR,76141.0,Indonesia,,,,-1.2510438,116.7681878,https://maps.google.com/?cid=0x0:0x4cd71101ecb93c66,
toko bangunan,Toko Bahan Bangunan,Toko Bangunan Tokoku,"Petung, Penajam, Kabupaten Penajam Paser Utara, Kalimantan Timur 76143","Penajam, Kabupaten Penajam Paser Utara",KALIMANTAN TIMUR,76143.0,Indonesia,,,,-1.3773057,116.6490981,https://maps.google.com/?cid=0x0:0x421f29db4b5e2aec,
toko bangunan,Toko Bahan Bangunan,Toko ALYA JAYA,"Jl. Propinsi No.km.25, Waru, Kec. Waru, Kabupaten Penajam Paser Utara, Kalimantan Timur","Kabupaten Penajam Paser Utara, Kalimantan Timur",KALIMANTAN TIMUR,,Indonesia,,,,-1.3895454,116.6203967,https://maps.google.com/?cid=0x0:0x26752ea600c804d9,
toko bangunan,Toko Bahan Bangunan,TOKO BANGUNAN PASIR RAYA,"JJ47+CMX, Waru, Kec. Waru, Kabupaten Penajam Paser Utara, Kalimantan Timur 76284","Waru, Kec. Waru, Kabupaten Penajam Paser Utara",KALIMANTAN TIMUR,76284.0,Indonesia, 085349349138,,,-1.3938997,116.6142471,https://maps.google.com/?cid=0x0:0x240aef7654d24f00,
toko bangunan,Rumah Makan,Toko Bangunanalat2 Listrik USAHA BARU 2,"JMR6+VP3, Jl. Propinsi, Petung, Penajam, Kabupaten Penajam Paser Utara, Kalimantan Timur 76143","Jl. Propinsi, Petung, Penajam, Kabupaten Penajam Paser Utara",KALIMANTAN TIMUR,76143.0,Indonesia, 081225533972,,,-1.3578632,116.6617977,https://maps.google.com/?cid=0x0:0x1413de1f473534c7,
toko bangunan,Toko Bahan Bangunan,Batako Sumber Mas Ayu,"Jl Raya Km 17 Depan Kompi C Rider, Giri Mukti, Penajam, Kabupaten Penajam Paser Utara, Kalimantan Timur 76143","Giri Mukti, Penajam, Kabupaten Penajam Paser Utara",KALIMANTAN TIMUR,76143.0,Indonesia, 082151053995,,,-1.3501378,116.6713959,https://maps.google.com/?cid=0x0:0x932c2a7e70ac6ad3,
toko bangunan,Toko Bahan Bangunan,Indo Kerajaan Keramik,"JMR6+WQ9, Jl. Penajam-Kuaro, Giri Mukti, Penajam, Kabupaten Penajam Paser Utara, Kalimantan Timur 76143","Jl. Penajam-Kuaro, Giri Mukti, Penajam, Kabupaten Penajam Paser Utara",KALIMANTAN TIMUR,76143.0,Indonesia, 082228044923,,,-1.3577082,116.661978,https://maps.google.com/?cid=0x0:0xbe48c5f45235b0a0,
toko bangunan,Jasa Konstruksi dan Bangunan,Toko Bangunan Bangun Niaga Raya,"JJ78+FC4, Jl. Sidodadi, Waru, Kec. Waru, Kabupaten Penajam Paser Utara, Kalimantan Timur 76143","Jl. Sidodadi, Waru, Kec. Waru, Kabupaten Penajam Paser Utara",KALIMANTAN TIMUR,76143.0,Indonesia, 081359956965,,,-1.3863615,116.6160927,https://maps.google.com/?cid=0x0:0x5dcbc38363877cfd,
toko bangunan,Pemasok Bahan Bangunan,Pawit Beton,"RT 02, Sesulu, Kec. Waru, Kabupaten Penajam Paser Utara, Kalimantan Timur 76284","Sesulu, Kec. Waru, Kabupaten Penajam Paser Utara",KALIMANTAN TIMUR,76284.0,Indonesia, 085651946466,,,-1.400622,116.6091305,https://maps.google.com/?cid=0x0:0xb1d0ce51c4a4d45a,
toko bangunan,Toko Bahan Bangunan,Toko Bangunan SBN Sinar Bangunan nipah-nipah penajam,"jl propinsi No.km 7, Nipah-Nipah, Penajam, Kabupaten Penajam Paser Utara, Kalimantan Timur 76142","Nipah-Nipah, Penajam, Kabupaten Penajam Paser Utara",KALIMANTAN TIMUR,76142.0,Indonesia, 082152076602,,,-1.29781,116.7395643,https://maps.google.com/?cid=0x0:0x79a68f4209442d87,
toko bangunan,Toko Bahan Bangunan,Toko Bangunan Anam Jaya,"MM8W+R22, Lawe-lawe, Penajam, Kabupaten Penajam Paser Utara, Kalimantan Timur 76142","Lawe-lawe, Penajam, Kabupaten Penajam Paser Utara",KALIMANTAN TIMUR,76142.0,Indonesia, 085962336780,,,-1.3329842,116.6950233,https://maps.google.com/?cid=0x0:0xe8b51b943af5b6a2,
toko bangunan,Pemasok Bahan Bangunan,Modern Beton,"Waru, Kec. Waru, Kabupaten Penajam Paser Utara, Kalimantan Timur 76143","Kec. Waru, Kabupaten Penajam Paser Utara",KALIMANTAN TIMUR,76143.0,Indonesia, 082140034979,,,-1.4005399,116.6091238,https://maps.google.com/?cid=0x0:0x1f7335c18bfd9fe3,
toko bangunan,toko bangunan,Kalimantan Timur 76144,"Penajam, Kabupaten Penajam Paser Utara, Kalimantan Timur","Kabupaten Penajam Paser Utara, Kalimantan Timur",KALIMANTAN TIMUR,,Indonesia,,,,-1.205061,116.5373923,https://maps.google.com/?cid=0x0:0x14dfcfbff172af2f,
toko bangunan,Toko Bahan Bangunan,TOKO BINTANG BANGUNAN,"Giri Mukti, Penajam, Kabupaten Penajam Paser Utara, Kalimantan Timur","Kabupaten Penajam Paser Utara, Kalimantan Timur",KALIMANTAN TIMUR,,Indonesia, 081350135293,,,-1.3447351,116.6804445,https://maps.google.com/?cid=0x0:0x66a390f709093190,
toko bangunan,Toko Bahan Bangunan,"Toko Bangunan Anugrah Property, Kontraktor, Supplier","Sepaku 4 Bukit Raya, Penajam, Kabupaten Penajam Paser Utara, Kalimantan Timur 76141","Penajam, Kabupaten Penajam Paser Utara",KALIMANTAN TIMUR,76141.0,Indonesia, 8228193,,,-1.1955898,116.6604662,https://maps.google.com/?cid=0x0:0x2df67015ef1098da,
toko bangunan,Toko Bahan Bangunan,"Toko bangunan Bintang Baru, waru","JJ58+26P, Waru, Kec. Waru, Kabupaten Penajam Paser Utara, Kalimantan Timur 76143","Waru, Kec. Waru, Kabupaten Penajam Paser Utara",KALIMANTAN TIMUR,76143.0,Indonesia, 087781689879,,,-1.3924236,116.6155842,https://maps.google.com/?cid=0x0:0xaaafa1bbc44fc9a1,
toko bangunan,Toko Bahan Bangunan,TOKO BANGUNAN INDAH BARU,"RJ56+4RW, Sepan, Penajam, Kabupaten Penajam Paser Utara, Kalimantan Timur 76144","Sepan, Penajam, Kabupaten Penajam Paser Utara",KALIMANTAN TIMUR,76144.0,Indonesia, 081347244500,,,-1.1921286,116.612076,https://maps.google.com/?cid=0x0:0x12bb276216de65bf,
toko bangunan,Toko Bahan Bangunan,USAHA BARU JAYA,"Giri Mukti, Penajam, Kabupaten Penajam Paser Utara, Kalimantan Timur 76143","Penajam, Kabupaten Penajam Paser Utara",KALIMANTAN TIMUR,76143.0,Indonesia, 085248256666,,,-1.3471944,116.6770356,https://maps.google.com/?cid=0x0:0x49ff93f654bb9cb9,
toko bangunan,Toko Bahan Bangunan,Depo Cat Penajam Petung,"Jl, Petung, Penajam, Kabupaten Penajam Paser Utara, Kalimantan Timur 76143","Petung, Penajam, Kabupaten Penajam Paser Utara",KALIMANTAN TIMUR,76143.0,Indonesia, 087840651549,,,-1.3571927,116.6630952,https://maps.google.com/?cid=0x0:0x46e0e6bdfde23e7e,
toko bangunan,Toko Bahan Bangunan,TB Karya Utama,"Jl. Penajam-Kuaro No.16, Giri Mukti, Penajam, Kabupaten Penajam Paser Utara, Kalimantan Timur 76143","Giri Mukti, Penajam, Kabupaten Penajam Paser Utara",KALIMANTAN TIMUR,76143.0,Indonesia, 081311515141,,,-1.3381789,116.6875237,https://maps.google.com/?cid=0x0:0x7959d11645401c8c,
toko bangunan,Toko Bahan Bangunan,Toko Bangunan Mulya Jaya,"JJ87+4F4, Jl. Bangun Mulyo, Waru, Kec. Waru, Kabupaten Penajam Paser Utara, Kalimantan Timur","Kabupaten Penajam Paser Utara, Kalimantan Timur",KALIMANTAN TIMUR,,Indonesia,,,,-1.3847376,116.6137144,https://maps.google.com/?cid=0x0:0xb8dc6cf99b37d7a1,
toko bangunan,Toko Bahan Bangunan,TOKO BANGUNAN MULTI SUMBER RAYA,"Jl. Lapangan No.RT.04, Gn. Seteleng, Penajam, Kabupaten Penajam Paser Utara, Kalimantan Timur 76141","Gn. Seteleng, Penajam, Kabupaten Penajam Paser Utara",KALIMANTAN TIMUR,76141.0,Indonesia,,,,-1.2510438,116.7681878,https://maps.google.com/?cid=0x0:0x4cd71101ecb93c66,
toko bangunan,Toko Perlengkapan Rumah,Toko Mitra Teknik,"Petung, Penajam, Kabupaten Penajam Paser Utara, Kalimantan Timur 76143","Penajam, Kabupaten Penajam Paser Utara",KALIMANTAN TIMUR,76143.0,Indonesia,,,,-1.3568021,116.6637411,https://maps.google.com/?cid=0x0:0x123062f11ce151e0,
toko bangunan,Toko Bahan Bangunan,TOKO BJR TRUSS PENAJAM IKN,"Jl. Propinsi No.5, Penajam, Kabupaten Penajam Paser Utara, Kalimantan Timur 76142","Penajam, Kabupaten Penajam Paser Utara",KALIMANTAN TIMUR,76142.0,Indonesia, 0811545424,,,-1.2619936,116.7648304,https://maps.google.com/?cid=0x0:0x6d057caee41e6f72,
toko bangunan,Toko Bahan Bangunan,Toko Bangunan Bintang Timur 2,"MMJ8+X82, Lawe-lawe, Penajam, Kabupaten Penajam Paser Utara, Kalimantan Timur 76141","Lawe-lawe, Penajam, Kabupaten Penajam Paser Utara",KALIMANTAN TIMUR,76141.0,Indonesia, 081225533972,,,-1.3176246,116.665752,https://maps.google.com/?cid=0x0:0xdfcda08570765d1d,
toko bangunan,Toko Bahan Bangunan,TOKO BANGUNAN PASIR RAYA,"JJ47+CMX, Waru, Kec. Waru, Kabupaten Penajam Paser Utara, Kalimantan Timur 76284","Waru, Kec. Waru, Kabupaten Penajam Paser Utara",KALIMANTAN TIMUR,76284.0,Indonesia, 085349349138,,,-1.3938997,116.6142471,https://maps.google.com/?cid=0x0:0x240aef7654d24f00,
toko bangunan,Toko Bahan Bangunan,Toko ALYA JAYA,"Jl. Propinsi No.km.25, Waru, Kec. Waru, Kabupaten Penajam Paser Utara, Kalimantan Timur","Kabupaten Penajam Paser Utara, Kalimantan Timur",KALIMANTAN TIMUR,,Indonesia,,,,-1.3895454,116.6203967,https://maps.google.com/?cid=0x0:0x26752ea600c804d9,
toko bangunan,Toko Bahan Bangunan,"Toko Anugrah Bangunan,Sepan Kalimantan Timur","simpang 4, Sepan, Penajam, Kabupaten Penajam Paser Utara, Kalimantan Timur 76144","Sepan, Penajam, Kabupaten Penajam Paser Utara",KALIMANTAN TIMUR,76144.0,Indonesia, 081258858989,,,-1.1933903,116.6124843,https://maps.google.com/?cid=0x0:0xf608e2e681c75d0d,
toko bangunan,Grosir,99 Nusantara,"RJ46+XVW, Jl. Ahmad Yani, Sepan, Penajam, Kabupaten Penajam Paser Utara, Kalimantan Timur 76144","Jl. Ahmad Yani, Sepan, Penajam, Kabupaten Penajam Paser Utara",KALIMANTAN TIMUR,76144.0,Indonesia,,,,-1.1925913,116.6122623,https://maps.google.com/?cid=0x0:0xb8fa539039db7345,
toko bangunan,Toko Bahan Bangunan,Indo Kerajaan Keramik,"JMR6+WQ9, Jl. Penajam-Kuaro, Giri Mukti, Penajam, Kabupaten Penajam Paser Utara, Kalimantan Timur 76143","Jl. Penajam-Kuaro, Giri Mukti, Penajam, Kabupaten Penajam Paser Utara",KALIMANTAN TIMUR,76143.0,Indonesia, 082228044923,,,-1.3577082,116.661978,https://maps.google.com/?cid=0x0:0xbe48c5f45235b0a0,
toko bangunan,Toko Bahan Bangunan,Toko Bangunan Tokoku,"Petung, Penajam, Kabupaten Penajam Paser Utara, Kalimantan Timur 76143","Penajam, Kabupaten Penajam Paser Utara",KALIMANTAN TIMUR,76143.0,Indonesia,,,,-1.3773057,116.6490981,https://maps.google.com/?cid=0x0:0x421f29db4b5e2aec,
toko bangunan,Rumah Makan,Toko Bangunanalat2 Listrik USAHA BARU 2,"JMR6+VP3, Jl. Propinsi, Petung, Penajam, Kabupaten Penajam Paser Utara, Kalimantan Timur 76143","Jl. Propinsi, Petung, Penajam, Kabupaten Penajam Paser Utara",KALIMANTAN TIMUR,76143.0,Indonesia, 081225533972,,,-1.3578632,116.6617977,https://maps.google.com/?cid=0x0:0x1413de1f473534c7,
toko bangunan,Toko Perlengkapan Rumah,Budi Bangunan Sepan,"RJVC+4XM, Sepan, Penajam, Kabupaten Penajam Paser Utara, Kalimantan Timur 76145","Sepan, Penajam, Kabupaten Penajam Paser Utara",KALIMANTAN TIMUR,76145.0,Indonesia,,,,-1.1571721,116.6224289,https://maps.google.com/?cid=0x0:0x1236c1609b91e542,
toko bangunan,toko bangunan,Kalimantan Timur 76145,"Penajam, Kalimantan Timur",Kalimantan Timur,KALIMANTAN TIMUR,,Indonesia,,,,-1.0507183,116.4665975,https://maps.google.com/?cid=0x0:0xd3c9f8cd908cb0af,
toko bangunan,Toko Bahan Bangunan,TOKO BANGUNAN MULTI SUMBER RAYA,"Jl. Lapangan No.RT.04, Gn. Seteleng, Penajam, Kabupaten Penajam Paser Utara, Kalimantan Timur 76141","Gn. Seteleng, Penajam, Kabupaten Penajam Paser Utara",KALIMANTAN TIMUR,76141.0,Indonesia,,,,-1.2510438,116.7681878,https://maps.google.com/?cid=0x0:0x4cd71101ecb93c66,
toko bangunan,Toko Bahan Bangunan,"Toko Bangunan Anugrah Property, Kontraktor, Supplier","Sepaku 4 Bukit Raya, Penajam, Kabupaten Penajam Paser Utara, Kalimantan Timur 76141","Penajam, Kabupaten Penajam Paser Utara",KALIMANTAN TIMUR,76141.0,Indonesia, 8228193,,,-1.1955898,116.6604662,https://maps.google.com/?cid=0x0:0x2df67015ef1098da,
toko bangunan,Toko Perlengkapan Rumah,Budi Bangunan Sepan,"RJVC+4XM, Sepan, Penajam, Kabupaten Penajam Paser Utara, Kalimantan Timur 76145","Sepan, Penajam, Kabupaten Penajam Paser Utara",KALIMANTAN TIMUR,76145.0,Indonesia,,,,-1.1571721,116.6224289,https://maps.google.com/?cid=0x0:0x1236c1609b91e542,
toko bangunan,Toko Perlengkapan Rumah,TOKO BANGUNAN KAWAN TEKNIK,"Jalan Propinsi Petung - Sepaku KM. 21, RT.4, Sotek, Kabupaten Penajam Paser Utara, Kalimantan Timur 76144","RT.4, Sotek, Kabupaten Penajam Paser Utara",KALIMANTAN TIMUR,76144.0,Indonesia, 081351688370,,,-1.1975596,116.6138258,https://maps.google.com/?cid=0x0:0xf9a3a6f61cfe568d,
toko bangunan,Toko Bahan Bangunan,Toko candra,"Jalan Propinsi Jl. Ahmad Yani, Riko, Penajam, Kabupaten Penajam Paser Utara, Kalimantan Timur 76146","Riko, Penajam, Kabupaten Penajam Paser Utara",KALIMANTAN TIMUR,76146.0,Indonesia,,,,-1.1252556,116.6348569,https://maps.google.com/?cid=0x0:0x9d24b484042b8d25,
toko bangunan,Toko Bahan Bangunan,TOKO BJR TRUSS PENAJAM IKN,"Jl. Propinsi No.5, Penajam, Kabupaten Penajam Paser Utara, Kalimantan Timur 76142","Penajam, Kabupaten Penajam Paser Utara",KALIMANTAN TIMUR,76142.0,Indonesia, 0811545424,,,-1.2619936,116.7648304,https://maps.google.com/?cid=0x0:0x6d057caee41e6f72,
toko bangunan,Toko Bahan Bangunan,TOKO BANGUNAN INDAH BARU,"RJ56+4RW, Sepan, Penajam, Kabupaten Penajam Paser Utara, Kalimantan Timur 76144","Sepan, Penajam, Kabupaten Penajam Paser Utara",KALIMANTAN TIMUR,76144.0,Indonesia, 081347244500,,,-1.1921286,116.612076,https://maps.google.com/?cid=0x0:0x12bb276216de65bf,
toko bangunan,Toko Bahan Bangunan,TOKO BINTANG BANGUNAN,"Giri Mukti, Penajam, Kabupaten Penajam Paser Utara, Kalimantan Timur","Kabupaten Penajam Paser Utara, Kalimantan Timur",KALIMANTAN TIMUR,,Indonesia, 081350135293,,,-1.3447351,116.6804445,https://maps.google.com/?cid=0x0:0x66a390f709093190,
toko bangunan,Pemasok Bahan Bangunan,Eka Jaya Toko,"JL. Propinsi 25 RT 002, Balikpapan, Sepan, Penajam, Penajam North Paser Regency, East Kalimantan 76145","Balikpapan, Sepan, Penajam, Penajam North Paser Regency",KALIMANTAN TIMUR,76145.0,Indonesia, 0542850475,,,-1.15014,116.625023,https://maps.google.com/?cid=0x0:0x42b5820e41a32fc,
toko bangunan,Grosir,Toko bangunan MWP NUSANTARA,"Jl. Sepaku No.4, Riko, Penajam, Kabupaten Penajam Paser Utara, Kalimantan Timur 76146","Riko, Penajam, Kabupaten Penajam Paser Utara",KALIMANTAN TIMUR,76146.0,Indonesia, 082280805791,,,-1.1219861,116.6369679,https://maps.google.com/?cid=0x0:0x7457f0462bd896a4,
toko bangunan,Toko Bahan Bangunan,Toko bangunan Sinar Terang Sepaku 1,"Jl. Negara No.2, Bukit Raya, Kec. Sepaku, Kabupaten Penajam Paser Utara, Kalimantan Timur 76148","Bukit Raya, Kec. Sepaku, Kabupaten Penajam Paser Utara",KALIMANTAN TIMUR,76148.0,Indonesia,,,,-0.9138427,116.7631601,https://maps.google.com/?cid=0x0:0x3159567434a8214d,
toko bangunan,Toko Bahan Bangunan,"Toko Anugrah Bangunan,Sepan Kalimantan Timur","simpang 4, Sepan, Penajam, Kabupaten Penajam Paser Utara, Kalimantan Timur 76144","Sepan, Penajam, Kabupaten Penajam Paser Utara",KALIMANTAN TIMUR,76144.0,Indonesia, 081258858989,,,-1.1933903,116.6124843,https://maps.google.com/?cid=0x0:0xf608e2e681c75d0d,
toko bangunan,Grosir,99 Nusantara,"RJ46+XVW, Jl. Ahmad Yani, Sepan, Penajam, Kabupaten Penajam Paser Utara, Kalimantan Timur 76144","Jl. Ahmad Yani, Sepan, Penajam, Kabupaten Penajam Paser Utara",KALIMANTAN TIMUR,76144.0,Indonesia,,,,-1.1925913,116.6122623,https://maps.google.com/?cid=0x0:0xb8fa539039db7345,
toko bangunan,Toko Elektronik,Toko Bangunan  elektronik STK,"Maridan, Kec. Sepaku, Kabupaten Penajam Paser Utara, Kalimantan Timur 76146","Kec. Sepaku, Kabupaten Penajam Paser Utara",KALIMANTAN TIMUR,76146.0,Indonesia, 082182357020,,,-1.0944601,116.6895181,https://maps.google.com/?cid=0x0:0x2f612f96bc7e742f,
toko bangunan,Pemasok Bahan Bangunan,Tb selamat sotek,"RJ76+F3M, Jl. Ahmad Yani, Sepan, Penajam, Kabupaten Penajam Paser Utara, Kalimantan Timur 76144","Jl. Ahmad Yani, Sepan, Penajam, Kabupaten Penajam Paser Utara",KALIMANTAN TIMUR,76144.0,Indonesia,,,,-1.1862756,116.6101621,https://maps.google.com/?cid=0x0:0x5797fe66ed0aec35,
toko bangunan,Toko Bahan Bangunan,"Toko bangunan Bintang Baru, waru","JJ58+26P, Waru, Kec. Waru, Kabupaten Penajam Paser Utara, Kalimantan Timur 76143","Waru, Kec. Waru, Kabupaten Penajam Paser Utara",KALIMANTAN TIMUR,76143.0,Indonesia, 087781689879,,,-1.3924236,116.6155842,https://maps.google.com/?cid=0x0:0xaaafa1bbc44fc9a1,
toko bangunan,Toko Bahan Bangunan,Cerah Hardware Riko,"WJ2P+83, Maridan, Kec. Sepaku, Kabupaten Penajam Paser Utara, Kalimantan Timur 76146","Maridan, Kec. Sepaku, Kabupaten Penajam Paser Utara",KALIMANTAN TIMUR,76146.0,Indonesia,,,,-1.0991494,116.6352461,https://maps.google.com/?cid=0x0:0x179b7778e3c0336f,
toko bangunan,Toko Perlengkapan Rumah,Wahyu jaya,"3RP9+P4Q, Jl. Negara, Tengin Baru, Kec. Sepaku, Kabupaten Penajam Paser Utara, Kalimantan Timur 76147","Jl. Negara, Tengin Baru, Kec. Sepaku, Kabupaten Penajam Paser Utara",KALIMANTAN TIMUR,76147.0,Indonesia, 085381216569,,,-0.9131562,116.8178488,https://maps.google.com/?cid=0x0:0x912007193ff2f688,
toko bangunan,Toko Bahan Bangunan,Toko Sinar Bangunan,"QQ2G+X5Q, Jl. Propinsi, Penajam, Kabupaten Penajam Paser Utara, Kalimantan Timur 76141","Jl. Propinsi, Penajam, Kabupaten Penajam Paser Utara",KALIMANTAN TIMUR,76141.0,Indonesia, 081331039944,,,-1.2475297,116.775485,https://maps.google.com/?cid=0x0:0xd1622f7785f3ea64,
toko bangunan,Jasa Konstruksi dan Bangunan,HH Plafon pvc,"Jln ahmad yani rt 01 samping, Riko, Kabupaten Penajam Paser Utara, Kalimantan Timur","Kabupaten Penajam Paser Utara, Kalimantan Timur",KALIMANTAN TIMUR,,Indonesia, 081219200832,,,-1.1325634,116.6317484,https://maps.google.com/?cid=0x0:0xbbba60a93443b107,
toko bangunan,Toko Bahan Bangunan,Toko Bangunan berkah jaya abadi,"Jl. provinsi km. 7 Depan masjid Al Amin, kel, Nipah-Nipah, Penajam, Kabupaten Penajam Paser Utara, Kalimantan Timur 76142","kel, Nipah-Nipah, Penajam, Kabupaten Penajam Paser Utara",KALIMANTAN TIMUR,76142.0,Indonesia, 083181673940,,,-1.2943663,116.7421899,https://maps.google.com/?cid=0x0:0xaeac9a709200c03,
toko bangunan,toko bangunan,Kalimantan Timur 76146,"Kabupaten Penajam Paser Utara, Kalimantan Timur","Kabupaten Penajam Paser Utara, Kalimantan Timur",KALIMANTAN TIMUR,,Indonesia,,,,-1.0746392,116.667126,https://maps.google.com/?cid=0x0:0x6092e058892a0e0e,
toko bangunan,Toko Elektronik,Toko Bangunan  elektronik STK,"Maridan, Kec. Sepaku, Kabupaten Penajam Paser Utara, Kalimantan Timur 76146","Kec. Sepaku, Kabupaten Penajam Paser Utara",KALIMANTAN TIMUR,76146.0,Indonesia, 082182357020,,,-1.0944601,116.6895181,https://maps.google.com/?cid=0x0:0x2f612f96bc7e742f,
toko bangunan,Toko Bahan Bangunan,Toko bangunan  elekronik AMR,"Jl. Propinsi, Riko, Penajam, Kabupaten Penajam Paser Utara, Kalimantan Timur 45161","Riko, Penajam, Kabupaten Penajam Paser Utara",KALIMANTAN TIMUR,45161.0,Indonesia, 085931237784,,,-1.1214433,116.6372171,https://maps.google.com/?cid=0x0:0xcfd89e35725df68a,
toko bangunan,Toko Bahan Bangunan,TOKO BANGUNAN MULTI SUMBER RAYA,"Jl. Lapangan No.RT.04, Gn. Seteleng, Penajam, Kabupaten Penajam Paser Utara, Kalimantan Timur 76141","Gn. Seteleng, Penajam, Kabupaten Penajam Paser Utara",KALIMANTAN TIMUR,76141.0,Indonesia,,,,-1.2510438,116.7681878,https://maps.google.com/?cid=0x0:0x4cd71101ecb93c66,
toko bangunan,Toko Bahan Bangunan,TOKO BJR TRUSS PENAJAM IKN,"Jl. Propinsi No.5, Penajam, Kabupaten Penajam Paser Utara, Kalimantan Timur 76142","Penajam, Kabupaten Penajam Paser Utara",KALIMANTAN TIMUR,76142.0,Indonesia, 0811545424,,,-1.2619936,116.7648304,https://maps.google.com/?cid=0x0:0x6d057caee41e6f72,
toko bangunan,Toko Bahan Bangunan,Toko Bangunan Prima Jaya,"WM9M+9HC, Maridan, Kec. Sepaku, Kabupaten Penajam Paser Utara, Kalimantan Timur 76146","Maridan, Kec. Sepaku, Kabupaten Penajam Paser Utara",KALIMANTAN TIMUR,76146.0,Indonesia, 0852452168979,,,-1.0815572,116.6838879,https://maps.google.com/?cid=0x0:0x457294f78125a982,
toko bangunan,Toko Bahan Bangunan,Cerah Hardware Riko,"WJ2P+83, Maridan, Kec. Sepaku, Kabupaten Penajam Paser Utara, Kalimantan Timur 76146","Maridan, Kec. Sepaku, Kabupaten Penajam Paser Utara",KALIMANTAN TIMUR,76146.0,Indonesia,,,,-1.0991494,116.6352461,https://maps.google.com/?cid=0x0:0x179b7778e3c0336f,
toko bangunan,Toko Bahan Bangunan,"Toko Bangunan Anugrah Property, Kontraktor, Supplier","Sepaku 4 Bukit Raya, Penajam, Kabupaten Penajam Paser Utara, Kalimantan Timur 76141","Penajam, Kabupaten Penajam Paser Utara",KALIMANTAN TIMUR,76141.0,Indonesia, 8228193,,,-1.1955898,116.6604662,https://maps.google.com/?cid=0x0:0x2df67015ef1098da,
toko bangunan,Pusat Perbelanjaan,Toko Bangunan  Alat Pancing,"RPRX+3WX, Pantai Lango, Penajam, Kabupaten Penajam Paser Utara, Kalimantan Timur 76146","Pantai Lango, Penajam, Kabupaten Penajam Paser Utara",KALIMANTAN TIMUR,76146.0,Indonesia,,,,-1.1598595,116.7501701,https://maps.google.com/?cid=0x0:0x9f426951c90f8f6d,
toko bangunan,Grosir,Toko bangunan MWP NUSANTARA,"Jl. Sepaku No.4, Riko, Penajam, Kabupaten Penajam Paser Utara, Kalimantan Timur 76146","Riko, Penajam, Kabupaten Penajam Paser Utara",KALIMANTAN TIMUR,76146.0,Indonesia, 082280805791,,,-1.1219861,116.6369679,https://maps.google.com/?cid=0x0:0x7457f0462bd896a4,
toko bangunan,Toko Bahan Bangunan,Toko bangunan Sinar Terang Sepaku 1,"Jl. Negara No.2, Bukit Raya, Kec. Sepaku, Kabupaten Penajam Paser Utara, Kalimantan Timur 76148","Bukit Raya, Kec. Sepaku, Kabupaten Penajam Paser Utara",KALIMANTAN TIMUR,76148.0,Indonesia,,,,-0.9138427,116.7631601,https://maps.google.com/?cid=0x0:0x3159567434a8214d,
toko bangunan,Toko Bahan Bangunan,TOKO BINTANG BANGUNAN,"Giri Mukti, Penajam, Kabupaten Penajam Paser Utara, Kalimantan Timur","Kabupaten Penajam Paser Utara, Kalimantan Timur",KALIMANTAN TIMUR,,Indonesia, 081350135293,,,-1.3447351,116.6804445,https://maps.google.com/?cid=0x0:0x66a390f709093190,
toko bangunan,Toko Perlengkapan Rumah,Wahyu jaya,"3RP9+P4Q, Jl. Negara, Tengin Baru, Kec. Sepaku, Kabupaten Penajam Paser Utara, Kalimantan Timur 76147","Jl. Negara, Tengin Baru, Kec. Sepaku, Kabupaten Penajam Paser Utara",KALIMANTAN TIMUR,76147.0,Indonesia, 085381216569,,,-0.9131562,116.8178488,https://maps.google.com/?cid=0x0:0x912007193ff2f688,
toko bangunan,Jasa Konstruksi dan Bangunan,HH Plafon pvc,"Jln ahmad yani rt 01 samping, Riko, Kabupaten Penajam Paser Utara, Kalimantan Timur","Kabupaten Penajam Paser Utara, Kalimantan Timur",KALIMANTAN TIMUR,,Indonesia, 081219200832,,,-1.1325634,116.6317484,https://maps.google.com/?cid=0x0:0xbbba60a93443b107,
toko bangunan,Toko Bahan Bangunan,Toko bangunan Sumber Rejeki,"FFW4+67H, Babulu Darat, Kec. Babulu, Kabupaten Penajam Paser Utara, Kalimantan Timur 76285","Babulu Darat, Kec. Babulu, Kabupaten Penajam Paser Utara",KALIMANTAN TIMUR,76285.0,Indonesia, 01348000073,,,-1.5044376,116.4557446,https://maps.google.com/?cid=0x0:0xcdc8f94a16e46d6c,
toko bangunan,Toko Bahan Bangunan,"Toko bangunan Bintang Baru, waru","JJ58+26P, Waru, Kec. Waru, Kabupaten Penajam Paser Utara, Kalimantan Timur 76143","Waru, Kec. Waru, Kabupaten Penajam Paser Utara",KALIMANTAN TIMUR,76143.0,Indonesia, 087781689879,,,-1.3924236,116.6155842,https://maps.google.com/?cid=0x0:0xaaafa1bbc44fc9a1,
toko bangunan,Toko Bahan Bangunan,USAHA BARU JAYA,"Giri Mukti, Penajam, Kabupaten Penajam Paser Utara, Kalimantan Timur 76143","Penajam, Kabupaten Penajam Paser Utara",KALIMANTAN TIMUR,76143.0,Indonesia, 085248256666,,,-1.3471944,116.6770356,https://maps.google.com/?cid=0x0:0x49ff93f654bb9cb9,
toko bangunan,Perusahaan Konstruksi,PT. Inne Dongwha Development Ltd,"RPFV+98Q, Jenebora, Penajam, Pasir, Jenebora, Penajam, Kabupaten Penajam Paser Utara, Kalimantan Timur 76141","Jenebora, Penajam, Pasir, Jenebora, Penajam, Kabupaten Penajam Paser Utara",KALIMANTAN TIMUR,76141.0,Indonesia, 0543424366,,,-1.1765333,116.7433636,https://maps.google.com/?cid=0x0:0x936fa9a46808b8c7,
toko bangunan,Toko Perlengkapan Rumah,Budi Bangunan Sepan,"RJVC+4XM, Sepan, Penajam, Kabupaten Penajam Paser Utara, Kalimantan Timur 76145","Sepan, Penajam, Kabupaten Penajam Paser Utara",KALIMANTAN TIMUR,76145.0,Indonesia,,,,-1.1571721,116.6224289,https://maps.google.com/?cid=0x0:0x1236c1609b91e542,
toko bangunan,Toko Perlengkapan Rumah,TOKO BANGUNAN KAWAN TEKNIK,"Jalan Propinsi Petung - Sepaku KM. 21, RT.4, Sotek, Kabupaten Penajam Paser Utara, Kalimantan Timur 76144","RT.4, Sotek, Kabupaten Penajam Paser Utara",KALIMANTAN TIMUR,76144.0,Indonesia, 081351688370,,,-1.1975596,116.6138258,https://maps.google.com/?cid=0x0:0xf9a3a6f61cfe568d,
toko bangunan,Toko Bahan Bangunan,Toko Bangunan Mitra Jaya,"2RP9+X46, Wonosari, Kec. Sepaku, Kabupaten Penajam Paser Utara, Kalimantan Timur 76147","Wonosari, Kec. Sepaku, Kabupaten Penajam Paser Utara",KALIMANTAN TIMUR,76147.0,Indonesia, 085931237784,,,-0.9625953,116.8177539,https://maps.google.com/?cid=0x0:0xea924e3030dac492,
toko bangunan,Toko Bahan Bangunan,Toko Bangunan berkah jaya abadi,"Jl. provinsi km. 7 Depan masjid Al Amin, kel, Nipah-Nipah, Penajam, Kabupaten Penajam Paser Utara, Kalimantan Timur 76142","kel, Nipah-Nipah, Penajam, Kabupaten Penajam Paser Utara",KALIMANTAN TIMUR,76142.0,Indonesia, 083181673940,,,-1.2943663,116.7421899,https://maps.google.com/?cid=0x0:0xaeac9a709200c03,
toko bangunan,Toko Bahan Bangunan,TOKO BANGUNAN INDAH BARU,"RJ56+4RW, Sepan, Penajam, Kabupaten Penajam Paser Utara, Kalimantan Timur 76144","Sepan, Penajam, Kabupaten Penajam Paser Utara",KALIMANTAN TIMUR,76144.0,Indonesia, 081347244500,,,-1.1921286,116.612076,https://maps.google.com/?cid=0x0:0x12bb276216de65bf,
toko bangunan,Toko Bahan Bangunan,Toko Sinar Bangunan,"QQ2G+X5Q, Jl. Propinsi, Penajam, Kabupaten Penajam Paser Utara, Kalimantan Timur 76141","Jl. Propinsi, Penajam, Kabupaten Penajam Paser Utara",KALIMANTAN TIMUR,76141.0,Indonesia, 081331039944,,,-1.2475297,116.775485,https://maps.google.com/?cid=0x0:0xd1622f7785f3ea64,
toko bangunan,toko bangunan,Kalimantan Timur 76146,"Kabupaten Penajam Paser Utara, Kalimantan Timur","Kabupaten Penajam Paser Utara, Kalimantan Timur",KALIMANTAN TIMUR,,Indonesia,,,,-1.0746392,116.667126,https://maps.google.com/?cid=0x0:0x6092e058892a0e0e,
toko bangunan,Toko Elektronik,Toko Bangunan  elektronik STK,"Maridan, Kec. Sepaku, Kabupaten Penajam Paser Utara, Kalimantan Timur 76146","Kec. Sepaku, Kabupaten Penajam Paser Utara",KALIMANTAN TIMUR,76146.0,Indonesia, 082182357020,,,-1.0944601,116.6895181,https://maps.google.com/?cid=0x0:0x2f612f96bc7e742f,
toko bangunan,Toko Bahan Bangunan,Toko bangunan Sinar Terang Sepaku 1,"Jl. Negara No.2, Bukit Raya, Kec. Sepaku, Kabupaten Penajam Paser Utara, Kalimantan Timur 76148","Bukit Raya, Kec. Sepaku, Kabupaten Penajam Paser Utara",KALIMANTAN TIMUR,76148.0,Indonesia,,,,-0.9138427,116.7631601,https://maps.google.com/?cid=0x0:0x3159567434a8214d,
toko bangunan,Toko Bahan Bangunan,Cerah Hardware Riko,"WJ2P+83, Maridan, Kec. Sepaku, Kabupaten Penajam Paser Utara, Kalimantan Timur 76146","Maridan, Kec. Sepaku, Kabupaten Penajam Paser Utara",KALIMANTAN TIMUR,76146.0,Indonesia,,,,-1.0991494,116.6352461,https://maps.google.com/?cid=0x0:0x179b7778e3c0336f,
toko bangunan,Toko Bahan Bangunan,"Toko Bangunan Anugrah Property, Kontraktor, Supplier","Sepaku 4 Bukit Raya, Penajam, Kabupaten Penajam Paser Utara, Kalimantan Timur 76141","Penajam, Kabupaten Penajam Paser Utara",KALIMANTAN TIMUR,76141.0,Indonesia, 8228193,,,-1.1955898,116.6604662,https://maps.google.com/?cid=0x0:0x2df67015ef1098da,
toko bangunan,Toko Bahan Bangunan,Toko bangunan  elekronik AMR,"Jl. Propinsi, Riko, Penajam, Kabupaten Penajam Paser Utara, Kalimantan Timur 45161","Riko, Penajam, Kabupaten Penajam Paser Utara",KALIMANTAN TIMUR,45161.0,Indonesia, 085931237784,,,-1.1214433,116.6372171,https://maps.google.com/?cid=0x0:0xcfd89e35725df68a,
toko bangunan,Toko Bahan Bangunan,TOKO BANGUNAN MULTI SUMBER RAYA,"Jl. Lapangan No.RT.04, Gn. Seteleng, Penajam, Kabupaten Penajam Paser Utara, Kalimantan Timur 76141","Gn. Seteleng, Penajam, Kabupaten Penajam Paser Utara",KALIMANTAN TIMUR,76141.0,Indonesia,,,,-1.2510438,116.7681878,https://maps.google.com/?cid=0x0:0x4cd71101ecb93c66,
toko bangunan,Toko Bahan Bangunan,Toko bangunan sumber rejeki sepaku,"Jl. Negara No.RT 12, Bukit Raya, Kec. Sepaku, Kabupaten Penajam Paser Utara, Kalimantan Timur 76148","Bukit Raya, Kec. Sepaku, Kabupaten Penajam Paser Utara",KALIMANTAN TIMUR,76148.0,Indonesia, 085751517129,,,-0.9337399,116.7480046,https://maps.google.com/?cid=0x0:0x4c6c7b7a766b823a,
toko bangunan,Toko Perlengkapan Rumah,Wahyu jaya,"3RP9+P4Q, Jl. Negara, Tengin Baru, Kec. Sepaku, Kabupaten Penajam Paser Utara, Kalimantan Timur 76147","Jl. Negara, Tengin Baru, Kec. Sepaku, Kabupaten Penajam Paser Utara",KALIMANTAN TIMUR,76147.0,Indonesia, 085381216569,,,-0.9131562,116.8178488,https://maps.google.com/?cid=0x0:0x912007193ff2f688,
toko bangunan,Toko Bahan Bangunan,Toko candra,"Jalan Propinsi Jl. Ahmad Yani, Riko, Penajam, Kabupaten Penajam Paser Utara, Kalimantan Timur 76146","Riko, Penajam, Kabupaten Penajam Paser Utara",KALIMANTAN TIMUR,76146.0,Indonesia,,,,-1.1252556,116.6348569,https://maps.google.com/?cid=0x0:0x9d24b484042b8d25,
toko bangunan,Toko Bahan Bangunan,TOKO BJR TRUSS PENAJAM IKN,"Jl. Propinsi No.5, Penajam, Kabupaten Penajam Paser Utara, Kalimantan Timur 76142","Penajam, Kabupaten Penajam Paser Utara",KALIMANTAN TIMUR,76142.0,Indonesia, 0811545424,,,-1.2619936,116.7648304,https://maps.google.com/?cid=0x0:0x6d057caee41e6f72,
toko bangunan,Toko Bahan Bangunan,Toko Bangunan Mitra Jaya,"2RP9+X46, Wonosari, Kec. Sepaku, Kabupaten Penajam Paser Utara, Kalimantan Timur 76147","Wonosari, Kec. Sepaku, Kabupaten Penajam Paser Utara",KALIMANTAN TIMUR,76147.0,Indonesia, 085931237784,,,-0.9625953,116.8177539,https://maps.google.com/?cid=0x0:0xea924e3030dac492,
toko bangunan,Grosir,Toko bangunan MWP NUSANTARA,"Jl. Sepaku No.4, Riko, Penajam, Kabupaten Penajam Paser Utara, Kalimantan Timur 76146","Riko, Penajam, Kabupaten Penajam Paser Utara",KALIMANTAN TIMUR,76146.0,Indonesia, 082280805791,,,-1.1219861,116.6369679,https://maps.google.com/?cid=0x0:0x7457f0462bd896a4,
toko bangunan,Toko Perlengkapan Rumah,TOKO BANGUNAN KAWAN TEKNIK,"Jalan Propinsi Petung - Sepaku KM. 21, RT.4, Sotek, Kabupaten Penajam Paser Utara, Kalimantan Timur 76144","RT.4, Sotek, Kabupaten Penajam Paser Utara",KALIMANTAN TIMUR,76144.0,Indonesia, 081351688370,,,-1.1975596,116.6138258,https://maps.google.com/?cid=0x0:0xf9a3a6f61cfe568d,
toko bangunan,Toko Bahan Bangunan,Plafon PVC Artha Jaya Sepaku,"Jl. Negara, RW.1, Bukit Raya, Kec. Sepaku, Kabupaten Penajam Paser Utara, Kalimantan Timur 76146","RW.1, Bukit Raya, Kec. Sepaku, Kabupaten Penajam Paser Utara",KALIMANTAN TIMUR,76146.0,Indonesia, 088744755898,,,-0.9155361,116.7624373,https://maps.google.com/?cid=0x0:0x5a743b6de73a8bbe,
toko bangunan,Pusat Perbelanjaan,Toko Bangunan  Alat Pancing,"RPRX+3WX, Pantai Lango, Penajam, Kabupaten Penajam Paser Utara, Kalimantan Timur 76146","Pantai Lango, Penajam, Kabupaten Penajam Paser Utara",KALIMANTAN TIMUR,76146.0,Indonesia,,,,-1.1598595,116.7501701,https://maps.google.com/?cid=0x0:0x9f426951c90f8f6d,
toko bangunan,Toko Perlengkapan Rumah,Budi Bangunan Sepan,"RJVC+4XM, Sepan, Penajam, Kabupaten Penajam Paser Utara, Kalimantan Timur 76145","Sepan, Penajam, Kabupaten Penajam Paser Utara",KALIMANTAN TIMUR,76145.0,Indonesia,,,,-1.1571721,116.6224289,https://maps.google.com/?cid=0x0:0x1236c1609b91e542,
toko bangunan,Toko Bahan Bangunan,Toko bangunan Sumber Rejeki,"FFW4+67H, Babulu Darat, Kec. Babulu, Kabupaten Penajam Paser Utara, Kalimantan Timur 76285","Babulu Darat, Kec. Babulu, Kabupaten Penajam Paser Utara",KALIMANTAN TIMUR,76285.0,Indonesia, 01348000073,,,-1.5044376,116.4557446,https://maps.google.com/?cid=0x0:0xcdc8f94a16e46d6c,
toko bangunan,Toko Bahan Bangunan,Toko Bangunan Ivan Jaya,"2PVQ+QWJ, Jl. Negara, Bumi Harapan, Kec. Sepaku, Kabupaten Penajam Paser Utara, Kalimantan Timur","Kabupaten Penajam Paser Utara, Kalimantan Timur",KALIMANTAN TIMUR,,Indonesia,,,,-0.9555312,116.7397634,https://maps.google.com/?cid=0x0:0x29f3dd932ebc162a,
toko bangunan,Toko Bahan Bangunan,toko bangunan,"3QG4+G5W, Bukit Raya, Kec. Sepaku, Kabupaten Penajam Paser Utara, Kalimantan Timur","Kabupaten Penajam Paser Utara, Kalimantan Timur",KALIMANTAN TIMUR,,Indonesia,,,,-0.9244444,116.7549444,https://maps.google.com/?cid=0x0:0x53f0586c0d5215d6,
toko bangunan,Jasa Konstruksi dan Bangunan,HH Plafon pvc,"Jln ahmad yani rt 01 samping, Riko, Kabupaten Penajam Paser Utara, Kalimantan Timur","Kabupaten Penajam Paser Utara, Kalimantan Timur",KALIMANTAN TIMUR,,Indonesia, 081219200832,,,-1.1325634,116.6317484,https://maps.google.com/?cid=0x0:0xbbba60a93443b107,
toko bangunan,Toko Bahan Bangunan,Toko Bangunan Putri Pandawa,"3RMQ+PM4 NO WA OI54O54249, Jl. Negara, Argo Mulyo, Kec. Sepaku, Kabupaten Penajam Paser Utara, Kalimantan Timur 76147","Jl. Negara, Argo Mulyo, Kec. Sepaku, Kabupaten Penajam Paser Utara",KALIMANTAN TIMUR,76147.0,Indonesia, 081545453474,,,-0.9157421,116.8392061,https://maps.google.com/?cid=0x0:0xc5d1b2e68e2bf35,
toko bangunan,Toko Bahan Bangunan,Toko bangunan mitra mandiri,"Sepaku, Kec. Sepaku, Kabupaten Penajam Paser Utara, Kalimantan Timur 76147","Kec. Sepaku, Kabupaten Penajam Paser Utara",KALIMANTAN TIMUR,76147.0,Indonesia, 081322522074,,,-0.9068861,116.765928,https://maps.google.com/?cid=0x0:0x570dff914b9f192f,
toko bangunan,Toko Bahan Bangunan,Toko Bumi Harapan Indah,"3QVG+3CW, Sukaraja, Kec. Sepaku, Kabupaten Penajam Paser Utara, Kalimantan Timur 76147","Sukaraja, Kec. Sepaku, Kabupaten Penajam Paser Utara",KALIMANTAN TIMUR,76147.0,Indonesia,,,,-0.9072712,116.7760732,https://maps.google.com/?cid=0x0:0x1a1ec68f08e8022d,
toko bangunan,Toko Bahan Bangunan,Nusantara Keramik,"Jl. Negara Km. 40 Sepaku 2, Sukaraja, Kabupaten Penajam Paser Utara, Kalimantan Timur 76147","Sukaraja, Kabupaten Penajam Paser Utara",KALIMANTAN TIMUR,76147.0,Indonesia, 081346462204,,,-0.9119399,116.7924768,https://maps.google.com/?cid=0x0:0x7bf243da457867c7,
toko bangunan,Toko Bahan Bangunan,Toko Sinar Bangunan,"QQ2G+X5Q, Jl. Propinsi, Penajam, Kabupaten Penajam Paser Utara, Kalimantan Timur 76141","Jl. Propinsi, Penajam, Kabupaten Penajam Paser Utara",KALIMANTAN TIMUR,76141.0,Indonesia, 081331039944,,,-1.2475297,116.775485,https://maps.google.com/?cid=0x0:0xd1622f7785f3ea64,
toko bangunan,toko bangunan,Kalimantan Timur 76147,"Kec. Sepaku, Kabupaten Penajam Paser Utara, Kalimantan Timur","Kabupaten Penajam Paser Utara, Kalimantan Timur",KALIMANTAN TIMUR,,Indonesia,,,,-0.9803829,116.6553351,https://maps.google.com/?cid=0x0:0x9738d24775d3bf7a,
toko bangunan,Toko Bahan Bangunan,Toko bangunan Sinar Terang Sepaku 1,"Jl. Negara No.2, Bukit Raya, Kec. Sepaku, Kabupaten Penajam Paser Utara, Kalimantan Timur 76148","Bukit Raya, Kec. Sepaku, Kabupaten Penajam Paser Utara",KALIMANTAN TIMUR,76148.0,Indonesia,,,,-0.9138427,116.7631601,https://maps.google.com/?cid=0x0:0x3159567434a8214d,
toko bangunan,Toko Perlengkapan Rumah,Wahyu jaya,"3RP9+P4Q, Jl. Negara, Tengin Baru, Kec. Sepaku, Kabupaten Penajam Paser Utara, Kalimantan Timur 76147","Jl. Negara, Tengin Baru, Kec. Sepaku, Kabupaten Penajam Paser Utara",KALIMANTAN TIMUR,76147.0,Indonesia, 085381216569,,,-0.9131562,116.8178488,https://maps.google.com/?cid=0x0:0x912007193ff2f688,
toko bangunan,Toko Bahan Bangunan,Toko Bangunan Mitra Jaya,"2RP9+X46, Wonosari, Kec. Sepaku, Kabupaten Penajam Paser Utara, Kalimantan Timur 76147","Wonosari, Kec. Sepaku, Kabupaten Penajam Paser Utara",KALIMANTAN TIMUR,76147.0,Indonesia, 085931237784,,,-0.9625953,116.8177539,https://maps.google.com/?cid=0x0:0xea924e3030dac492,
toko bangunan,Toko Bahan Bangunan,Nusantara Keramik,"Jl. Negara Km. 40 Sepaku 2, Sukaraja, Kabupaten Penajam Paser Utara, Kalimantan Timur 76147","Sukaraja, Kabupaten Penajam Paser Utara",KALIMANTAN TIMUR,76147.0,Indonesia, 081346462204,,,-0.9119399,116.7924768,https://maps.google.com/?cid=0x0:0x7bf243da457867c7,
toko bangunan,Toko Bahan Bangunan,TB IIN SEKAWAN,"3RQ4+4J9, Jl. Negara, Tengin Baru, Kec. Sepaku, Kabupaten Penajam Paser Utara, Kalimantan Timur 76147","Jl. Negara, Tengin Baru, Kec. Sepaku, Kabupaten Penajam Paser Utara",KALIMANTAN TIMUR,76147.0,Indonesia, 085381216569,,,-0.9122189,116.8065948,https://maps.google.com/?cid=0x0:0x2773c034b47b452c,
toko bangunan,Toko Bahan Bangunan,Toko Bangunan Ivan Jaya,"2PVQ+QWJ, Jl. Negara, Bumi Harapan, Kec. Sepaku, Kabupaten Penajam Paser Utara, Kalimantan Timur","Kabupaten Penajam Paser Utara, Kalimantan Timur",KALIMANTAN TIMUR,,Indonesia,,,,-0.9555312,116.7397634,https://maps.google.com/?cid=0x0:0x29f3dd932ebc162a,
toko bangunan,Toko Bahan Bangunan,Toko Bangunan Prima Jaya,"WM9M+9HC, Maridan, Kec. Sepaku, Kabupaten Penajam Paser Utara, Kalimantan Timur 76146","Maridan, Kec. Sepaku, Kabupaten Penajam Paser Utara",KALIMANTAN TIMUR,76146.0,Indonesia, 0852452168979,,,-1.0815572,116.6838879,https://maps.google.com/?cid=0x0:0x457294f78125a982,
toko bangunan,Toko Bahan Bangunan,TB.Mitra Bangunan,"3RP9+M48, Jl. Negara, Tengin Baru, Kec. Sepaku, Kabupaten Penajam Paser Utara, Kalimantan Timur 76147","Jl. Negara, Tengin Baru, Kec. Sepaku, Kabupaten Penajam Paser Utara",KALIMANTAN TIMUR,76147.0,Indonesia,,,,-0.9133308,116.8178269,https://maps.google.com/?cid=0x0:0xdc9ff37f337c1275,
toko bangunan,Toko Bahan Bangunan,toko bangunan,"3QG4+G5W, Bukit Raya, Kec. Sepaku, Kabupaten Penajam Paser Utara, Kalimantan Timur","Kabupaten Penajam Paser Utara, Kalimantan Timur",KALIMANTAN TIMUR,,Indonesia,,,,-0.9244444,116.7549444,https://maps.google.com/?cid=0x0:0x53f0586c0d5215d6,
toko bangunan,Toko Bahan Bangunan,Toko bangunan mitra mandiri,"Sepaku, Kec. Sepaku, Kabupaten Penajam Paser Utara, Kalimantan Timur 76147","Kec. Sepaku, Kabupaten Penajam Paser Utara",KALIMANTAN TIMUR,76147.0,Indonesia, 081322522074,,,-0.9068861,116.765928,https://maps.google.com/?cid=0x0:0x570dff914b9f192f,
toko bangunan,Toko Bahan Bangunan,Toko Bumi Harapan Indah,"3QVG+3CW, Sukaraja, Kec. Sepaku, Kabupaten Penajam Paser Utara, Kalimantan Timur 76147","Sukaraja, Kec. Sepaku, Kabupaten Penajam Paser Utara",KALIMANTAN TIMUR,76147.0,Indonesia,,,,-0.9072712,116.7760732,https://maps.google.com/?cid=0x0:0x1a1ec68f08e8022d,
toko bangunan,toko bangunan,Toko Bangunan Nusantara 08,"Yani, Jl. Ahmad Yani, Sukaraja, Kec. Sepaku, Kabupaten Penajam Paser Utara, Kalimantan Timur 76147","Jl. Ahmad Yani, Sukaraja, Kec. Sepaku, Kabupaten Penajam Paser Utara",KALIMANTAN TIMUR,76147.0,Indonesia, 082118941401,,,-0.9068439,116.7725643,https://maps.google.com/?cid=0x0:0x648b5b5545705084,
toko bangunan,Toko Elektronik,Toko Bangunan  elektronik STK,"Maridan, Kec. Sepaku, Kabupaten Penajam Paser Utara, Kalimantan Timur 76146","Kec. Sepaku, Kabupaten Penajam Paser Utara",KALIMANTAN TIMUR,76146.0,Indonesia, 082182357020,,,-1.0944601,116.6895181,https://maps.google.com/?cid=0x0:0x2f612f96bc7e742f,
toko bangunan,Toko Bahan Bangunan,Toko Bangunan Baru,"3QQJ+G6V, Jl. Negara, Sukaraja, Kec. Sepaku, Kabupaten Penajam Paser Utara, Kalimantan Timur 76147","Jl. Negara, Sukaraja, Kec. Sepaku, Kabupaten Penajam Paser Utara",KALIMANTAN TIMUR,76147.0,Indonesia,,,,-0.9111512,116.7805587,https://maps.google.com/?cid=0x0:0xf0f3e5baf4b4dc77,
toko bangunan,Toko Bahan Bangunan,Plafon PVC Artha Jaya Sepaku,"Jl. Negara, RW.1, Bukit Raya, Kec. Sepaku, Kabupaten Penajam Paser Utara, Kalimantan Timur 76146","RW.1, Bukit Raya, Kec. Sepaku, Kabupaten Penajam Paser Utara",KALIMANTAN TIMUR,76146.0,Indonesia, 088744755898,,,-0.9155361,116.7624373,https://maps.google.com/?cid=0x0:0x5a743b6de73a8bbe,
toko bangunan,Toko Bahan Bangunan,Toko Bangunan Putri Pandawa,"3RMQ+PM4 NO WA OI54O54249, Jl. Negara, Argo Mulyo, Kec. Sepaku, Kabupaten Penajam Paser Utara, Kalimantan Timur 76147","Jl. Negara, Argo Mulyo, Kec. Sepaku, Kabupaten Penajam Paser Utara",KALIMANTAN TIMUR,76147.0,Indonesia, 081545453474,,,-0.9157421,116.8392061,https://maps.google.com/?cid=0x0:0xc5d1b2e68e2bf35,
toko bangunan,Toko Bahan Bangunan,"Toko Bangunan Anugrah Property, Kontraktor, Supplier","Sepaku 4 Bukit Raya, Penajam, Kabupaten Penajam Paser Utara, Kalimantan Timur 76141","Penajam, Kabupaten Penajam Paser Utara",KALIMANTAN TIMUR,76141.0,Indonesia, 8228193,,,-1.1955898,116.6604662,https://maps.google.com/?cid=0x0:0x2df67015ef1098da,
toko bangunan,Toko Bahan Bangunan,Distributor silicone sealant IKN,"Jl. Negara No.17, Bumi Harapan, Kec. Sepaku, Kabupaten Penajam Paser Utara, Kalimantan Timur 76147","Bumi Harapan, Kec. Sepaku, Kabupaten Penajam Paser Utara",KALIMANTAN TIMUR,76147.0,Indonesia, 08158052000,,,-0.9642147,116.7289386,https://maps.google.com/?cid=0x0:0xf4d8cbae674a2e08,
toko bangunan,Toko Bahan Bangunan,CAHAYA PLAFON,"Jl. Negara Km. 40, Sepaku - Semoi Dua No.2, Sukaraja, Kec. Sepaku, Kabupaten Penajam Paser Utara, Kalimantan Timur 76147","Sepaku - Semoi Dua No.2, Sukaraja, Kec. Sepaku, Kabupaten Penajam Paser Utara",KALIMANTAN TIMUR,76147.0,Indonesia, 082226006075,,,-0.9118639,116.7922193,https://maps.google.com/?cid=0x0:0x8503db611ed86819,
toko bangunan,Grosir,Q - Bic Air Mineral,"Bukit Raya, Kec. Sepaku, Kabupaten Penajam Paser Utara, Kalimantan Timur","Kabupaten Penajam Paser Utara, Kalimantan Timur",KALIMANTAN TIMUR,,Indonesia, 087717568928,,,-0.9111488,116.749645,https://maps.google.com/?cid=0x0:0x52c5841847cf20cf,
toko bangunan,toko bangunan,Kalimantan Timur 76148,"Bukit Raya, Kec. Sepaku, Kabupaten Penajam Paser Utara, Kalimantan Timur","Kabupaten Penajam Paser Utara, Kalimantan Timur",KALIMANTAN TIMUR,,Indonesia,,,,-0.9126508,116.7633476,https://maps.google.com/?cid=0x0:0x5ee9584894a96cd4,
toko bangunan,Toko Bahan Bangunan,Toko bangunan Sinar Terang Sepaku 1,"Jl. Negara No.2, Bukit Raya, Kec. Sepaku, Kabupaten Penajam Paser Utara, Kalimantan Timur 76148","Bukit Raya, Kec. Sepaku, Kabupaten Penajam Paser Utara",KALIMANTAN TIMUR,76148.0,Indonesia,,,,-0.9138427,116.7631601,https://maps.google.com/?cid=0x0:0x3159567434a8214d,
toko bangunan,Toko Bahan Bangunan,Toko bangunan sumber rejeki sepaku,"Jl. Negara No.RT 12, Bukit Raya, Kec. Sepaku, Kabupaten Penajam Paser Utara, Kalimantan Timur 76148","Bukit Raya, Kec. Sepaku, Kabupaten Penajam Paser Utara",KALIMANTAN TIMUR,76148.0,Indonesia, 085751517129,,,-0.9337399,116.7480046,https://maps.google.com/?cid=0x0:0x4c6c7b7a766b823a,
toko bangunan,Toko Bahan Bangunan,Plafon PVC Artha Jaya Sepaku,"Jl. Negara, RW.1, Bukit Raya, Kec. Sepaku, Kabupaten Penajam Paser Utara, Kalimantan Timur 76146","RW.1, Bukit Raya, Kec. Sepaku, Kabupaten Penajam Paser Utara",KALIMANTAN TIMUR,76146.0,Indonesia, 088744755898,,,-0.9155361,116.7624373,https://maps.google.com/?cid=0x0:0x5a743b6de73a8bbe,
toko bangunan,Toko Bahan Bangunan,"Toko Bangunan Anugrah Property, Kontraktor, Supplier","Sepaku 4 Bukit Raya, Penajam, Kabupaten Penajam Paser Utara, Kalimantan Timur 76141","Penajam, Kabupaten Penajam Paser Utara",KALIMANTAN TIMUR,76141.0,Indonesia, 8228193,,,-1.1955898,116.6604662,https://maps.google.com/?cid=0x0:0x2df67015ef1098da,
toko bangunan,Toko Bahan Bangunan,Toko bangunan mitra mandiri,"Sepaku, Kec. Sepaku, Kabupaten Penajam Paser Utara, Kalimantan Timur 76147","Kec. Sepaku, Kabupaten Penajam Paser Utara",KALIMANTAN TIMUR,76147.0,Indonesia, 081322522074,,,-0.9068861,116.765928,https://maps.google.com/?cid=0x0:0x570dff914b9f192f,
toko bangunan,Toko Bahan Bangunan,toko bangunan,"3QG4+G5W, Bukit Raya, Kec. Sepaku, Kabupaten Penajam Paser Utara, Kalimantan Timur","Kabupaten Penajam Paser Utara, Kalimantan Timur",KALIMANTAN TIMUR,,Indonesia,,,,-0.9244444,116.7549444,https://maps.google.com/?cid=0x0:0x53f0586c0d5215d6,
toko bangunan,toko bangunan,Kalimantan Timur 76149,"Kariangau, Kec. Balikpapan Bar., Kota Balikpapan, Kalimantan Timur","Kota Balikpapan, Kalimantan Timur",KALIMANTAN TIMUR,,Indonesia,,,,-1.0735268,116.7850009,https://maps.google.com/?cid=0x0:0x4534af6d88473e34,
toko bangunan,Toko Bahan Bangunan,Toko bangunan Sinar Terang Sepaku 1,"Jl. Negara No.2, Bukit Raya, Kec. Sepaku, Kabupaten Penajam Paser Utara, Kalimantan Timur 76148","Bukit Raya, Kec. Sepaku, Kabupaten Penajam Paser Utara",KALIMANTAN TIMUR,76148.0,Indonesia,,,,-0.9138427,116.7631601,https://maps.google.com/?cid=0x0:0x3159567434a8214d,
toko bangunan,Toko Bahan Bangunan,"Toko Bangunan Anugrah Property, Kontraktor, Supplier","Sepaku 4 Bukit Raya, Penajam, Kabupaten Penajam Paser Utara, Kalimantan Timur 76141","Penajam, Kabupaten Penajam Paser Utara",KALIMANTAN TIMUR,76141.0,Indonesia, 8228193,,,-1.1955898,116.6604662,https://maps.google.com/?cid=0x0:0x2df67015ef1098da,
toko bangunan,Toko Perlengkapan Rumah,Wahyu jaya,"3RP9+P4Q, Jl. Negara, Tengin Baru, Kec. Sepaku, Kabupaten Penajam Paser Utara, Kalimantan Timur 76147","Jl. Negara, Tengin Baru, Kec. Sepaku, Kabupaten Penajam Paser Utara",KALIMANTAN TIMUR,76147.0,Indonesia, 085381216569,,,-0.9131562,116.8178488,https://maps.google.com/?cid=0x0:0x912007193ff2f688,
toko bangunan,Toko Bahan Bangunan,Toko bangunan sumber rejeki sepaku,"Jl. Negara No.RT 12, Bukit Raya, Kec. Sepaku, Kabupaten Penajam Paser Utara, Kalimantan Timur 76148","Bukit Raya, Kec. Sepaku, Kabupaten Penajam Paser Utara",KALIMANTAN TIMUR,76148.0,Indonesia, 085751517129,,,-0.9337399,116.7480046,https://maps.google.com/?cid=0x0:0x4c6c7b7a766b823a,
toko bangunan,Toko Bahan Bangunan,Toko Bangunan Mitra Jaya,"2RP9+X46, Wonosari, Kec. Sepaku, Kabupaten Penajam Paser Utara, Kalimantan Timur 76147","Wonosari, Kec. Sepaku, Kabupaten Penajam Paser Utara",KALIMANTAN TIMUR,76147.0,Indonesia, 085931237784,,,-0.9625953,116.8177539,https://maps.google.com/?cid=0x0:0xea924e3030dac492,
toko bangunan,Toko Bahan Bangunan,TOKO BANGUNAN MULTI SUMBER RAYA,"Jl. Lapangan No.RT.04, Gn. Seteleng, Penajam, Kabupaten Penajam Paser Utara, Kalimantan Timur 76141","Gn. Seteleng, Penajam, Kabupaten Penajam Paser Utara",KALIMANTAN TIMUR,76141.0,Indonesia,,,,-1.2510438,116.7681878,https://maps.google.com/?cid=0x0:0x4cd71101ecb93c66,
toko bangunan,Toko Bahan Bangunan,TOKO BJR TRUSS PENAJAM IKN,"Jl. Propinsi No.5, Penajam, Kabupaten Penajam Paser Utara, Kalimantan Timur 76142","Penajam, Kabupaten Penajam Paser Utara",KALIMANTAN TIMUR,76142.0,Indonesia, 0811545424,,,-1.2619936,116.7648304,https://maps.google.com/?cid=0x0:0x6d057caee41e6f72,
toko bangunan,Toko Bahan Bangunan,Toko Bangunan Ivan Jaya,"2PVQ+QWJ, Jl. Negara, Bumi Harapan, Kec. Sepaku, Kabupaten Penajam Paser Utara, Kalimantan Timur","Kabupaten Penajam Paser Utara, Kalimantan Timur",KALIMANTAN TIMUR,,Indonesia,,,,-0.9555312,116.7397634,https://maps.google.com/?cid=0x0:0x29f3dd932ebc162a,
toko bangunan,Toko Bahan Bangunan,Toko Bangunan Prima Jaya,"WM9M+9HC, Maridan, Kec. Sepaku, Kabupaten Penajam Paser Utara, Kalimantan Timur 76146","Maridan, Kec. Sepaku, Kabupaten Penajam Paser Utara",KALIMANTAN TIMUR,76146.0,Indonesia, 0852452168979,,,-1.0815572,116.6838879,https://maps.google.com/?cid=0x0:0x457294f78125a982,
toko bangunan,Toko Bahan Bangunan,Nusantara Keramik,"Jl. Negara Km. 40 Sepaku 2, Sukaraja, Kabupaten Penajam Paser Utara, Kalimantan Timur 76147","Sukaraja, Kabupaten Penajam Paser Utara",KALIMANTAN TIMUR,76147.0,Indonesia, 081346462204,,,-0.9119399,116.7924768,https://maps.google.com/?cid=0x0:0x7bf243da457867c7,
toko bangunan,Toko Bahan Bangunan,TB IIN SEKAWAN,"3RQ4+4J9, Jl. Negara, Tengin Baru, Kec. Sepaku, Kabupaten Penajam Paser Utara, Kalimantan Timur 76147","Jl. Negara, Tengin Baru, Kec. Sepaku, Kabupaten Penajam Paser Utara",KALIMANTAN TIMUR,76147.0,Indonesia, 085381216569,,,-0.9122189,116.8065948,https://maps.google.com/?cid=0x0:0x2773c034b47b452c,
toko bangunan,Toko Bahan Bangunan,toko bangunan,"3QG4+G5W, Bukit Raya, Kec. Sepaku, Kabupaten Penajam Paser Utara, Kalimantan Timur","Kabupaten Penajam Paser Utara, Kalimantan Timur",KALIMANTAN TIMUR,,Indonesia,,,,-0.9244444,116.7549444,https://maps.google.com/?cid=0x0:0x53f0586c0d5215d6,
toko bangunan,Toko Bahan Bangunan,Toko bangunan mitra mandiri,"Sepaku, Kec. Sepaku, Kabupaten Penajam Paser Utara, Kalimantan Timur 76147","Kec. Sepaku, Kabupaten Penajam Paser Utara",KALIMANTAN TIMUR,76147.0,Indonesia, 081322522074,,,-0.9068861,116.765928,https://maps.google.com/?cid=0x0:0x570dff914b9f192f,
toko bangunan,Toko Bahan Bangunan,Toko Bumi Harapan Indah,"3QVG+3CW, Sukaraja, Kec. Sepaku, Kabupaten Penajam Paser Utara, Kalimantan Timur 76147","Sukaraja, Kec. Sepaku, Kabupaten Penajam Paser Utara",KALIMANTAN TIMUR,76147.0,Indonesia,,,,-0.9072712,116.7760732,https://maps.google.com/?cid=0x0:0x1a1ec68f08e8022d,
toko bangunan,Toko Bahan Bangunan,Toko Sinar Bangunan,"QQ2G+X5Q, Jl. Propinsi, Penajam, Kabupaten Penajam Paser Utara, Kalimantan Timur 76141","Jl. Propinsi, Penajam, Kabupaten Penajam Paser Utara",KALIMANTAN TIMUR,76141.0,Indonesia, 081331039944,,,-1.2475297,116.775485,https://maps.google.com/?cid=0x0:0xd1622f7785f3ea64,
toko bangunan,Toko Bahan Bangunan,Toko bangunan Sumber Rejeki,"FFW4+67H, Babulu Darat, Kec. Babulu, Kabupaten Penajam Paser Utara, Kalimantan Timur 76285","Babulu Darat, Kec. Babulu, Kabupaten Penajam Paser Utara",KALIMANTAN TIMUR,76285.0,Indonesia, 01348000073,,,-1.5044376,116.4557446,https://maps.google.com/?cid=0x0:0xcdc8f94a16e46d6c,
toko bangunan,Toko Bahan Bangunan,Plafon PVC Artha Jaya Sepaku,"Jl. Negara, RW.1, Bukit Raya, Kec. Sepaku, Kabupaten Penajam Paser Utara, Kalimantan Timur 76146","RW.1, Bukit Raya, Kec. Sepaku, Kabupaten Penajam Paser Utara",KALIMANTAN TIMUR,76146.0,Indonesia, 088744755898,,,-0.9155361,116.7624373,https://maps.google.com/?cid=0x0:0x5a743b6de73a8bbe,
toko bangunan,Toko Bahan Bangunan,Toko bangunan  elekronik AMR,"Jl. Propinsi, Riko, Penajam, Kabupaten Penajam Paser Utara, Kalimantan Timur 45161","Riko, Penajam, Kabupaten Penajam Paser Utara",KALIMANTAN TIMUR,45161.0,Indonesia, 085931237784,,,-1.1214433,116.6372171,https://maps.google.com/?cid=0x0:0xcfd89e35725df68a,
toko bangunan,Toko Bahan Bangunan,Toko Bangunan Putri Pandawa,"3RMQ+PM4 NO WA OI54O54249, Jl. Negara, Argo Mulyo, Kec. Sepaku, Kabupaten Penajam Paser Utara, Kalimantan Timur 76147","Jl. Negara, Argo Mulyo, Kec. Sepaku, Kabupaten Penajam Paser Utara",KALIMANTAN TIMUR,76147.0,Indonesia, 081545453474,,,-0.9157421,116.8392061,https://maps.google.com/?cid=0x0:0xc5d1b2e68e2bf35,
toko bangunan,Toko Bahan Bangunan,TB.Mitra Bangunan,"3RP9+M48, Jl. Negara, Tengin Baru, Kec. Sepaku, Kabupaten Penajam Paser Utara, Kalimantan Timur 76147","Jl. Negara, Tengin Baru, Kec. Sepaku, Kabupaten Penajam Paser Utara",KALIMANTAN TIMUR,76147.0,Indonesia,,,,-0.9133308,116.8178269,https://maps.google.com/?cid=0x0:0xdc9ff37f337c1275,
toko bangunan,Toko Perlengkapan Rumah,TOKO BANGUNAN KAWAN TEKNIK,"Jalan Propinsi Petung - Sepaku KM. 21, RT.4, Sotek, Kabupaten Penajam Paser Utara, Kalimantan Timur 76144","RT.4, Sotek, Kabupaten Penajam Paser Utara",KALIMANTAN TIMUR,76144.0,Indonesia, 081351688370,,,-1.1975596,116.6138258,https://maps.google.com/?cid=0x0:0xf9a3a6f61cfe568d,
toko bangunan,Toko Bahan Bangunan,Toko Bangunan Baru,"3QQJ+G6V, Jl. Negara, Sukaraja, Kec. Sepaku, Kabupaten Penajam Paser Utara, Kalimantan Timur 76147","Jl. Negara, Sukaraja, Kec. Sepaku, Kabupaten Penajam Paser Utara",KALIMANTAN TIMUR,76147.0,Indonesia,,,,-0.9111512,116.7805587,https://maps.google.com/?cid=0x0:0xf0f3e5baf4b4dc77,
toko bangunan,Toko Bahan Bangunan,"Toko bangunan Bintang Baru, waru","JJ58+26P, Waru, Kec. Waru, Kabupaten Penajam Paser Utara, Kalimantan Timur 76143","Waru, Kec. Waru, Kabupaten Penajam Paser Utara",KALIMANTAN TIMUR,76143.0,Indonesia, 087781689879,,,-1.3924236,116.6155842,https://maps.google.com/?cid=0x0:0xaaafa1bbc44fc9a1,
toko bangunan,Toko Bahan Bangunan,Toko Bangunan Mulya Jaya,"JJ87+4F4, Jl. Bangun Mulyo, Waru, Kec. Waru, Kabupaten Penajam Paser Utara, Kalimantan Timur","Kabupaten Penajam Paser Utara, Kalimantan Timur",KALIMANTAN TIMUR,,Indonesia,,,,-1.3847376,116.6137144,https://maps.google.com/?cid=0x0:0xb8dc6cf99b37d7a1,
toko bangunan,Toko Bahan Bangunan,TOKO BANGUNAN PASIR RAYA,"JJ47+CMX, Waru, Kec. Waru, Kabupaten Penajam Paser Utara, Kalimantan Timur 76284","Waru, Kec. Waru, Kabupaten Penajam Paser Utara",KALIMANTAN TIMUR,76284.0,Indonesia, 085349349138,,,-1.3938997,116.6142471,https://maps.google.com/?cid=0x0:0x240aef7654d24f00,
toko bangunan,Toko bahan makanan,TOKO BERKAH MULIA,"Waru, Kec. Waru, Kabupaten Penajam Paser Utara, Kalimantan Timur 76284","Kec. Waru, Kabupaten Penajam Paser Utara",KALIMANTAN TIMUR,76284.0,Indonesia, 085828583579,,,-1.4031516,116.6059228,https://maps.google.com/?cid=0x0:0x8fd3cceaf6065d4a,
toko bangunan,Toko Bahan Bangunan,Toko ALYA JAYA,"Jl. Propinsi No.km.25, Waru, Kec. Waru, Kabupaten Penajam Paser Utara, Kalimantan Timur","Kabupaten Penajam Paser Utara, Kalimantan Timur",KALIMANTAN TIMUR,,Indonesia,,,,-1.3895454,116.6203967,https://maps.google.com/?cid=0x0:0x26752ea600c804d9,
toko bangunan,Toko Bahan Bangunan,TOKO BJR TRUSS PENAJAM IKN,"Jl. Propinsi No.5, Penajam, Kabupaten Penajam Paser Utara, Kalimantan Timur 76142","Penajam, Kabupaten Penajam Paser Utara",KALIMANTAN TIMUR,76142.0,Indonesia, 0811545424,,,-1.2619936,116.7648304,https://maps.google.com/?cid=0x0:0x6d057caee41e6f72,
toko bangunan,Toko Bahan Bangunan,"Toko Bangunan Anugrah Property, Kontraktor, Supplier","Sepaku 4 Bukit Raya, Penajam, Kabupaten Penajam Paser Utara, Kalimantan Timur 76141","Penajam, Kabupaten Penajam Paser Utara",KALIMANTAN TIMUR,76141.0,Indonesia, 8228193,,,-1.1955898,116.6604662,https://maps.google.com/?cid=0x0:0x2df67015ef1098da,
toko bangunan,Toko Bahan Bangunan,TB Karya Utama,"Jl. Penajam-Kuaro No.16, Giri Mukti, Penajam, Kabupaten Penajam Paser Utara, Kalimantan Timur 76143","Giri Mukti, Penajam, Kabupaten Penajam Paser Utara",KALIMANTAN TIMUR,76143.0,Indonesia, 081311515141,,,-1.3381789,116.6875237,https://maps.google.com/?cid=0x0:0x7959d11645401c8c,
toko bangunan,Toko Bahan Bangunan,Toko bangunan Sumber Rejeki,"FFW4+67H, Babulu Darat, Kec. Babulu, Kabupaten Penajam Paser Utara, Kalimantan Timur 76285","Babulu Darat, Kec. Babulu, Kabupaten Penajam Paser Utara",KALIMANTAN TIMUR,76285.0,Indonesia, 01348000073,,,-1.5044376,116.4557446,https://maps.google.com/?cid=0x0:0xcdc8f94a16e46d6c,
toko bangunan,Jasa Konstruksi dan Bangunan,Toko Bangunan Bangun Niaga Raya,"JJ78+FC4, Jl. Sidodadi, Waru, Kec. Waru, Kabupaten Penajam Paser Utara, Kalimantan Timur 76143","Jl. Sidodadi, Waru, Kec. Waru, Kabupaten Penajam Paser Utara",KALIMANTAN TIMUR,76143.0,Indonesia, 081359956965,,,-1.3863615,116.6160927,https://maps.google.com/?cid=0x0:0x5dcbc38363877cfd,
toko bangunan,Toko Perlengkapan Rumah,Wahyu jaya,"3RP9+P4Q, Jl. Negara, Tengin Baru, Kec. Sepaku, Kabupaten Penajam Paser Utara, Kalimantan Timur 76147","Jl. Negara, Tengin Baru, Kec. Sepaku, Kabupaten Penajam Paser Utara",KALIMANTAN TIMUR,76147.0,Indonesia, 085381216569,,,-0.9131562,116.8178488,https://maps.google.com/?cid=0x0:0x912007193ff2f688,
toko bangunan,Toko Bahan Bangunan,TOKO BANGUNAN MULTI SUMBER RAYA,"Jl. Lapangan No.RT.04, Gn. Seteleng, Penajam, Kabupaten Penajam Paser Utara, Kalimantan Timur 76141","Gn. Seteleng, Penajam, Kabupaten Penajam Paser Utara",KALIMANTAN TIMUR,76141.0,Indonesia,,,,-1.2510438,116.7681878,https://maps.google.com/?cid=0x0:0x4cd71101ecb93c66,
toko bangunan,toko bangunan,Jawa Timur 61256,"Kec. Waru, Kabupaten Sidoarjo, Jawa Timur","Kabupaten Sidoarjo, Jawa Timur",KALIMANTAN TIMUR,,Indonesia,,,,-7.3511436,112.7688416,https://maps.google.com/?cid=0x0:0x1c00c5eb5b53f120,
toko bangunan,Toko Bahan Bangunan,Sari Bumi Bangunan,"Jl. Letjen Suprapto No.12, Tambakrejo, Kec. Waru, Kabupaten Sidoarjo, Jawa Timur 61256","Tambakrejo, Kec. Waru, Kabupaten Sidoarjo",KALIMANTAN TIMUR,61256.0,Indonesia, 085852057070,,,-7.3547853,112.7662224,https://maps.google.com/?cid=0x0:0x46add017ec3c10ec,
toko bangunan,Toko Bahan Bangunan,TB. Yang Abadi,"Jl. Raya Tropodo No.114, Tropodo Wetan, Tropodo, Kec. Waru, Kabupaten Sidoarjo, Jawa Timur 61256","Tropodo Wetan, Tropodo, Kec. Waru, Kabupaten Sidoarjo",KALIMANTAN TIMUR,61256.0,Indonesia, 0318672972,,,-7.3614032,112.7644128,https://maps.google.com/?cid=0x0:0x81c9cc45bb4b445a,
toko bangunan,Toko Bahan Bangunan,Toko Sari Bumi Bangunan,"Jl. Brigjend Katamso No.76, Wedoro, Kec. Waru, Kabupaten Sidoarjo, Jawa Timur 61256","Wedoro, Kec. Waru, Kabupaten Sidoarjo",KALIMANTAN TIMUR,61256.0,Indonesia, 082280801743,,,-7.3492297,112.7475592,https://maps.google.com/?cid=0x0:0x7b4718583a6d3944,
toko bangunan,Toko Bahan Bangunan,Toko Bangunan Joyo Mas,"Pengkol, Jl. Brigjend Katamso No.7, Bandilan, Kedungrejo, Kec. Waru, Kabupaten Sidoarjo, Jawa Timur 61256","Jl. Brigjend Katamso No.7, Bandilan, Kedungrejo, Kec. Waru, Kabupaten Sidoarjo",KALIMANTAN TIMUR,61256.0,Indonesia, 085166900649,,,-7.3511244,112.7363073,https://maps.google.com/?cid=0x0:0xb4767ef0809198e8,
toko bangunan,Toko Bahan Bangunan,Toko Bangunan Makmur,"Jl. Raya Wisma Tropodo EM No.37, Tropodo Wetan, Tropodo, Kec. Waru, Kabupaten Sidoarjo, Jawa Timur 61256","Tropodo Wetan, Tropodo, Kec. Waru, Kabupaten Sidoarjo",KALIMANTAN TIMUR,61256.0,Indonesia, 085166900649,,,-7.3556726,112.758056,https://maps.google.com/?cid=0x0:0x99541649f4bad9b1,
toko bangunan,Toko Bahan Bangunan,Toko Dua Saudara,"Jl. Gajah Putih Jalan Kampung Baru No.114, Kp. Baru, Tambakoso, Kec. Waru, Kabupaten Sidoarjo, Jawa Timur 61256","Kp. Baru, Tambakoso, Kec. Waru, Kabupaten Sidoarjo",KALIMANTAN TIMUR,61256.0,Indonesia, 085731142269,,,-7.3590181,112.8067864,https://maps.google.com/?cid=0x0:0x15ed69d542e870d2,
toko bangunan,Toko Bahan Bangunan,Toko bangunan kurnia indah,"Jl. Bungurasih Bar. No.21, Bungurasih, Kec. Waru, Kabupaten Sidoarjo, Jawa Timur 61256","Bungurasih, Kec. Waru, Kabupaten Sidoarjo",KALIMANTAN TIMUR,61256.0,Indonesia, 082280801743,,,-7.3518326,112.7187135,https://maps.google.com/?cid=0x0:0x8dff249de0e6df66,
toko bangunan,Toko Bahan Bangunan,Toko Bangunan,"MQ28+CXQ, Wadungasri, Kec. Waru, Kabupaten Sidoarjo, Jawa Timur 61256","Wadungasri, Kec. Waru, Kabupaten Sidoarjo",KALIMANTAN TIMUR,61256.0,Indonesia, 082280801743,,,-7.3489104,112.7674762,https://maps.google.com/?cid=0x0:0xe55fd42624417e60,
toko bangunan,Toko Bahan Bangunan,GALAXY BANGUNAN,"Jl. Raya Tropodo No.46, Tropodo Wetan, Tropodo, Kec. Waru, Kabupaten Sidoarjo, Jawa Timur 61256","Tropodo Wetan, Tropodo, Kec. Waru, Kabupaten Sidoarjo",KALIMANTAN TIMUR,61256.0,Indonesia, 081233223690,,,-7.364303,112.764228,https://maps.google.com/?cid=0x0:0xae151be4d758a8fb,
toko bangunan,Pemasok bahan paving blok,"Supplier Pasir , Koral , Sirtu , Sirtu Ayak , Abu Batu , Batu Belah , Dll","Jl. Tamasa Regency, Jabon, Tambaksawah, Kec. Waru, Kabupaten Sidoarjo, Jawa Timur 61256","Jabon, Tambaksawah, Kec. Waru, Kabupaten Sidoarjo",KALIMANTAN TIMUR,61256.0,Indonesia, 081335556629,,,-7.3623984,112.7683459,https://maps.google.com/?cid=0x0:0x7ad2cf526ce02913,
toko bangunan,Toko Bahan Bangunan,Toko Bangunan Bb Bumi Berkah,"JPWX+33H, Jalan, Belahan, Wedoro, Waru, Sidoarjo Regency, East Java 61256","Jalan, Belahan, Wedoro, Waru, Sidoarjo Regency",KALIMANTAN TIMUR,61256.0,Indonesia,,,,-7.3548201,112.7477305,https://maps.google.com/?cid=0x0:0x15aa24fe29e7f51,
toko bangunan,Toko Bahan Bangunan,Toko Sinar Jaya,"Jl. Raya Tropodo No.67, Tropodo Wetan, Tropodo, Kec. Waru, Kabupaten Sidoarjo, Jawa Timur 61256","Tropodo Wetan, Tropodo, Kec. Waru, Kabupaten Sidoarjo",KALIMANTAN TIMUR,61256.0,Indonesia, 085166901385,,,-7.3583624,112.7643023,https://maps.google.com/?cid=0x0:0x49da62f0ffefdb6b,
toko bangunan,Pemasok Bahan Bangunan,Trevizo ( Distributor Bahan Bangunan ),"Jl. H. Anwar Hamzah, RT.09 RW03/RW.03, Kp. Baru, Tambakoso, Kec. Waru, Kabupaten Sidoarjo, Jawa Timur 61256","RT.09 RW03/RW.03, Kp. Baru, Tambakoso, Kec. Waru, Kabupaten Sidoarjo",KALIMANTAN TIMUR,61256.0,Indonesia, 082320003834,,,-7.3500932,112.8044293,https://maps.google.com/?cid=0x0:0x1fe2225494eb880e,
toko bangunan,Toko Bahan Bangunan,Aulia Bangunan,"muji, Jl. Tambak Rejo Blk. H No.4, Tambak Kidul, Tambakrejo, Waru, Sidoarjo Regency, East Java 61256","Jl. Tambak Rejo Blk. H No.4, Tambak Kidul, Tambakrejo, Waru, Sidoarjo Regency",KALIMANTAN TIMUR,61256.0,Indonesia,,,,-7.3548121,112.7780641,https://maps.google.com/?cid=0x0:0x5d2df5a67b73fbe9,
toko bangunan,Toko Bahan Bangunan,UD. Nusa Indah,"Jl. Letjen Suprapto No.62, Kepuh, Kepuhkiriman, Kec. Waru, Kabupaten Sidoarjo, Jawa Timur 61256","Kepuh, Kepuhkiriman, Kec. Waru, Kabupaten Sidoarjo",KALIMANTAN TIMUR,61256.0,Indonesia, 082280801743,,,-7.354912,112.765901,https://maps.google.com/?cid=0x0:0xec85c5d0f0a482fa,
toko bangunan,Toko,Toko Teguh Jaya,"Jl. Raya Tropodo No.21, Tropodo Wetan, Tropodo, Kec. Waru, Kabupaten Sidoarjo, Jawa Timur 61256","Tropodo Wetan, Tropodo, Kec. Waru, Kabupaten Sidoarjo",KALIMANTAN TIMUR,61256.0,Indonesia, 0318667662,,,-7.362788,112.763961,https://maps.google.com/?cid=0x0:0x9191b6b622be3a39,
toko bangunan,Toko Bahan Bangunan,"Toko bangunan Bintang Baru, waru","JJ58+26P, Waru, Kec. Waru, Kabupaten Penajam Paser Utara, Kalimantan Timur 76143","Waru, Kec. Waru, Kabupaten Penajam Paser Utara",KALIMANTAN TIMUR,76143.0,Indonesia, 087781689879,,,-1.3924236,116.6155842,https://maps.google.com/?cid=0x0:0xaaafa1bbc44fc9a1,
toko bangunan,Toko Bahan Bangunan,Toko Bangunan Mulya Jaya,"JJ87+4F4, Jl. Bangun Mulyo, Waru, Kec. Waru, Kabupaten Penajam Paser Utara, Kalimantan Timur","Kabupaten Penajam Paser Utara, Kalimantan Timur",KALIMANTAN TIMUR,,Indonesia,,,,-1.3847376,116.6137144,https://maps.google.com/?cid=0x0:0xb8dc6cf99b37d7a1,
toko bangunan,Toko Bahan Bangunan,TOKO BANGUNAN PASIR RAYA,"JJ47+CMX, Waru, Kec. Waru, Kabupaten Penajam Paser Utara, Kalimantan Timur 76284","Waru, Kec. Waru, Kabupaten Penajam Paser Utara",KALIMANTAN TIMUR,76284.0,Indonesia, 085349349138,,,-1.3938997,116.6142471,https://maps.google.com/?cid=0x0:0x240aef7654d24f00,
toko bangunan,Toko Bahan Bangunan,Toko ALYA JAYA,"Jl. Propinsi No.km.25, Waru, Kec. Waru, Kabupaten Penajam Paser Utara, Kalimantan Timur","Kabupaten Penajam Paser Utara, Kalimantan Timur",KALIMANTAN TIMUR,,Indonesia,,,,-1.3895454,116.6203967,https://maps.google.com/?cid=0x0:0x26752ea600c804d9,
toko bangunan,Jasa Konstruksi dan Bangunan,Toko Bangunan Bangun Niaga Raya,"JJ78+FC4, Jl. Sidodadi, Waru, Kec. Waru, Kabupaten Penajam Paser Utara, Kalimantan Timur 76143","Jl. Sidodadi, Waru, Kec. Waru, Kabupaten Penajam Paser Utara",KALIMANTAN TIMUR,76143.0,Indonesia, 081359956965,,,-1.3863615,116.6160927,https://maps.google.com/?cid=0x0:0x5dcbc38363877cfd,
toko bangunan,Toko Bahan Bangunan,TOKO BJR TRUSS PENAJAM IKN,"Jl. Propinsi No.5, Penajam, Kabupaten Penajam Paser Utara, Kalimantan Timur 76142","Penajam, Kabupaten Penajam Paser Utara",KALIMANTAN TIMUR,76142.0,Indonesia, 0811545424,,,-1.2619936,116.7648304,https://maps.google.com/?cid=0x0:0x6d057caee41e6f72,
toko bangunan,Toko Bahan Bangunan,"Toko Bangunan Anugrah Property, Kontraktor, Supplier","Sepaku 4 Bukit Raya, Penajam, Kabupaten Penajam Paser Utara, Kalimantan Timur 76141","Penajam, Kabupaten Penajam Paser Utara",KALIMANTAN TIMUR,76141.0,Indonesia, 8228193,,,-1.1955898,116.6604662,https://maps.google.com/?cid=0x0:0x2df67015ef1098da,
toko bangunan,Toko Perlengkapan Rumah,Wahyu jaya,"3RP9+P4Q, Jl. Negara, Tengin Baru, Kec. Sepaku, Kabupaten Penajam Paser Utara, Kalimantan Timur 76147","Jl. Negara, Tengin Baru, Kec. Sepaku, Kabupaten Penajam Paser Utara",KALIMANTAN TIMUR,76147.0,Indonesia, 085381216569,,,-0.9131562,116.8178488,https://maps.google.com/?cid=0x0:0x912007193ff2f688,
toko bangunan,Toko Bahan Bangunan,TOKO BANGUNAN MULTI SUMBER RAYA,"Jl. Lapangan No.RT.04, Gn. Seteleng, Penajam, Kabupaten Penajam Paser Utara, Kalimantan Timur 76141","Gn. Seteleng, Penajam, Kabupaten Penajam Paser Utara",KALIMANTAN TIMUR,76141.0,Indonesia,,,,-1.2510438,116.7681878,https://maps.google.com/?cid=0x0:0x4cd71101ecb93c66,
toko bangunan,Toko Bahan Bangunan,Toko bangunan Sumber Rejeki,"FFW4+67H, Babulu Darat, Kec. Babulu, Kabupaten Penajam Paser Utara, Kalimantan Timur 76285","Babulu Darat, Kec. Babulu, Kabupaten Penajam Paser Utara",KALIMANTAN TIMUR,76285.0,Indonesia, 01348000073,,,-1.5044376,116.4557446,https://maps.google.com/?cid=0x0:0xcdc8f94a16e46d6c,
toko bangunan,Toko Bahan Bangunan,Toko Bangunan Bintang Timur 2,"MMJ8+X82, Lawe-lawe, Penajam, Kabupaten Penajam Paser Utara, Kalimantan Timur 76141","Lawe-lawe, Penajam, Kabupaten Penajam Paser Utara",KALIMANTAN TIMUR,76141.0,Indonesia, 081225533972,,,-1.3176246,116.665752,https://maps.google.com/?cid=0x0:0xdfcda08570765d1d,
toko bangunan,Toko Bahan Bangunan,TB Karya Utama,"Jl. Penajam-Kuaro No.16, Giri Mukti, Penajam, Kabupaten Penajam Paser Utara, Kalimantan Timur 76143","Giri Mukti, Penajam, Kabupaten Penajam Paser Utara",KALIMANTAN TIMUR,76143.0,Indonesia, 081311515141,,,-1.3381789,116.6875237,https://maps.google.com/?cid=0x0:0x7959d11645401c8c,
toko bangunan,Toko Bahan Bangunan,Toko bangunan  elekronik AMR,"Jl. Propinsi, Riko, Penajam, Kabupaten Penajam Paser Utara, Kalimantan Timur 45161","Riko, Penajam, Kabupaten Penajam Paser Utara",KALIMANTAN TIMUR,45161.0,Indonesia, 085931237784,,,-1.1214433,116.6372171,https://maps.google.com/?cid=0x0:0xcfd89e35725df68a,
toko bangunan,Toko Bahan Bangunan,Toko bangunan Sinar Terang Sepaku 1,"Jl. Negara No.2, Bukit Raya, Kec. Sepaku, Kabupaten Penajam Paser Utara, Kalimantan Timur 76148","Bukit Raya, Kec. Sepaku, Kabupaten Penajam Paser Utara",KALIMANTAN TIMUR,76148.0,Indonesia,,,,-0.9138427,116.7631601,https://maps.google.com/?cid=0x0:0x3159567434a8214d,
toko bangunan,Toko Bahan Bangunan,TOKO BINTANG BANGUNAN,"Giri Mukti, Penajam, Kabupaten Penajam Paser Utara, Kalimantan Timur","Kabupaten Penajam Paser Utara, Kalimantan Timur",KALIMANTAN TIMUR,,Indonesia, 081350135293,,,-1.3447351,116.6804445,https://maps.google.com/?cid=0x0:0x66a390f709093190,
toko bangunan,Toko Bahan Bangunan,"Toko Anugrah Bangunan,Sepan Kalimantan Timur","simpang 4, Sepan, Penajam, Kabupaten Penajam Paser Utara, Kalimantan Timur 76144","Sepan, Penajam, Kabupaten Penajam Paser Utara",KALIMANTAN TIMUR,76144.0,Indonesia, 081258858989,,,-1.1933903,116.6124843,https://maps.google.com/?cid=0x0:0xf608e2e681c75d0d,
toko bangunan,Toko Bahan Bangunan,USAHA BARU JAYA,"Giri Mukti, Penajam, Kabupaten Penajam Paser Utara, Kalimantan Timur 76143","Penajam, Kabupaten Penajam Paser Utara",KALIMANTAN TIMUR,76143.0,Indonesia, 085248256666,,,-1.3471944,116.6770356,https://maps.google.com/?cid=0x0:0x49ff93f654bb9cb9,
toko bangunan,Toko Perlengkapan Rumah,Toko BONE JAYA ABADI,"JM7W+H67, Penajam, Kabupaten Penajam Paser Utara, Kalimantan Timur 76143","Penajam, Kabupaten Penajam Paser Utara",KALIMANTAN TIMUR,76143.0,Indonesia, 085265465000,,,-1.3860872,116.6955455,https://maps.google.com/?cid=0x0:0x2f74f42b88101573,
toko bangunan,toko bangunan,Tb Lancar Jaya Waru,"pas samping kiri, Jl. Propinsi Polsek No.KM 28, RT.029, Waru, Kec. Waru, Kabupaten Penajam Paser Utara, Kalimantan Timur 76284","Jl. Propinsi Polsek No.KM 28, RT.029, Waru, Kec. Waru, Kabupaten Penajam Paser Utara",KALIMANTAN TIMUR,76284.0,Indonesia,,,,-1.3956,116.6126173,https://maps.google.com/?cid=0x0:0xc2a855f2036fd07c,
toko bangunan,toko bangunan,Jawa Timur 69353,"Kec. Waru, Kabupaten Pamekasan, Jawa Timur","Kabupaten Pamekasan, Jawa Timur",KALIMANTAN TIMUR,,Indonesia,,,,-6.9734771,113.5609459,https://maps.google.com/?cid=0x0:0x1c00c5eb5b543320,
toko bangunan,Toko Bahan Bangunan,Toko Dua Fajar,"3H53+J9X, Jl. Raya Waru, Tobalang 3, Waru Bar., Kec. Waru, Kabupaten Pamekasan, Jawa Timur 69353","Jl. Raya Waru, Tobalang 3, Waru Bar., Kec. Waru, Kabupaten Pamekasan",KALIMANTAN TIMUR,69353.0,Indonesia,,,,-6.9408903,113.5534861,https://maps.google.com/?cid=0x0:0x4545508a484cc2d6,
toko bangunan,Toko Bahan Bangunan,Hk mart waru pamekasan,"3G3W+FGX, Jl. Raya Pakong - Waru, Tobalang 1, Waru Bar., Kec. Waru, Kabupaten Pamekasan, Jawa Timur 69353","Jl. Raya Pakong - Waru, Tobalang 1, Waru Bar., Kec. Waru, Kabupaten Pamekasan",KALIMANTAN TIMUR,69353.0,Indonesia,,,,-6.9462526,113.5463643,https://maps.google.com/?cid=0x0:0xd9a5290779156c24,
toko bangunan,Toko Bahan Bangunan,UD. Cahaya Murni,"Jl. Raya Waru, Tobalang 3, Waru Bar., Kec. Waru, Kabupaten Pamekasan, Jawa Timur 69353","Tobalang 3, Waru Bar., Kec. Waru, Kabupaten Pamekasan",KALIMANTAN TIMUR,69353.0,Indonesia, 0817303250,,,-6.9414884,113.5525765,https://maps.google.com/?cid=0x0:0x82d1c1ffa1535a9c,
toko bangunan,Toko Bahan Bangunan,Fajar Jaya Teknik,"Jl. Raya Waru, Tobalang 3, Waru Bar., Kec. Waru, Kabupaten Pamekasan, Jawa Timur 69353","Tobalang 3, Waru Bar., Kec. Waru, Kabupaten Pamekasan",KALIMANTAN TIMUR,69353.0,Indonesia, 0817397750,,,-6.9414354,113.552887,https://maps.google.com/?cid=0x0:0xaaf41bc7eaf6be22,
toko bangunan,Toko Bahan Bangunan,UD. USAHA INDAH,"Jl. Raya Waru, Barat 1, Waru Tim., Kec. Waru, Kabupaten Pamekasan, Jawa Timur 69353","Barat 1, Waru Tim., Kec. Waru, Kabupaten Pamekasan",KALIMANTAN TIMUR,69353.0,Indonesia,,,,-6.9364266,113.5595198,https://maps.google.com/?cid=0x0:0x5d7188fbc8cba236,
toko bangunan,toko bangunan,Ud. Tenang Jaya,"3G5W+HG4, Jl. Raya Pakong - Waru, Tobalang 3, Waru Bar., Kec. Waru, Kabupaten Pamekasan, Jawa Timur 69353","Jl. Raya Pakong - Waru, Tobalang 3, Waru Bar., Kec. Waru, Kabupaten Pamekasan",KALIMANTAN TIMUR,69353.0,Indonesia,,,,-6.9411249,113.5463128,https://maps.google.com/?cid=0x0:0x10b0881238480d29,
toko bangunan,Toko bahan makanan,Toko bangunan al baidawi waru pamekasan,"3GJP+CFP, Palalang, Jl. Raya Waru, Tengat 1, Tagengser Dajah, Kec. Pasean, Kabupaten Pamekasan, Jawa Timur 69356","Palalang, Jl. Raya Waru, Tengat 1, Tagengser Dajah, Kec. Pasean, Kabupaten Pamekasan",KALIMANTAN TIMUR,69356.0,Indonesia, 085330384725,,,-6.9189033,113.5361877,https://maps.google.com/?cid=0x0:0x1c23fba81f84caf3,
toko bangunan,Toko Bahan Bangunan,Toko Bangunan Ust Matrasat,"WA (O779O3O54I, Jl. Batumarmar - Waru No.desa, Wa'duwa Timur, Ponjangan Timur, Kec. Batumarmar, madura, Jawa Timur 69354","Jl. Batumarmar - Waru No.desa, Wa'duwa Timur, Ponjangan Timur, Kec. Batumarmar, madura",KALIMANTAN TIMUR,69354.0,Indonesia, 085123248799,,,-6.9397505,113.5266557,https://maps.google.com/?cid=0x0:0x5ac81a43817bca95,
toko bangunan,Toko Bahan Bangunan,Ud waru indah,"3H52+9XX, Tobalang 3, Waru Bar., Kec. Waru, Kabupaten Pamekasan, Jawa Timur 69353","Tobalang 3, Waru Bar., Kec. Waru, Kabupaten Pamekasan",KALIMANTAN TIMUR,69353.0,Indonesia,,,,-6.941506,113.5524994,https://maps.google.com/?cid=0x0:0xbd48ad071bf6f1d8,
toko bangunan,toko bangunan,Kalimantan Timur 76284,"Kec. Waru, Kabupaten Penajam Paser Utara, Kalimantan Timur","Kabupaten Penajam Paser Utara, Kalimantan Timur",KALIMANTAN TIMUR,,Indonesia,,,,-1.2746751,116.4901981,https://maps.google.com/?cid=0x0:0x74a053edcfb83c51,
toko bangunan,Toko Bahan Bangunan,"Toko bangunan Bintang Baru, waru","JJ58+26P, Waru, Kec. Waru, Kabupaten Penajam Paser Utara, Kalimantan Timur 76143","Waru, Kec. Waru, Kabupaten Penajam Paser Utara",KALIMANTAN TIMUR,76143.0,Indonesia, 087781689879,,,-1.3924236,116.6155842,https://maps.google.com/?cid=0x0:0xaaafa1bbc44fc9a1,
toko bangunan,Toko bahan makanan,TOKO BERKAH MULIA,"Waru, Kec. Waru, Kabupaten Penajam Paser Utara, Kalimantan Timur 76284","Kec. Waru, Kabupaten Penajam Paser Utara",KALIMANTAN TIMUR,76284.0,Indonesia, 085828583579,,,-1.4031516,116.6059228,https://maps.google.com/?cid=0x0:0x8fd3cceaf6065d4a,
toko bangunan,Toko Bahan Bangunan,TOKO BANGUNAN PASIR RAYA,"JJ47+CMX, Waru, Kec. Waru, Kabupaten Penajam Paser Utara, Kalimantan Timur 76284","Waru, Kec. Waru, Kabupaten Penajam Paser Utara",KALIMANTAN TIMUR,76284.0,Indonesia, 085349349138,,,-1.3938997,116.6142471,https://maps.google.com/?cid=0x0:0x240aef7654d24f00,
toko bangunan,Toko Bahan Bangunan,Toko ALYA JAYA,"Jl. Propinsi No.km.25, Waru, Kec. Waru, Kabupaten Penajam Paser Utara, Kalimantan Timur","Kabupaten Penajam Paser Utara, Kalimantan Timur",KALIMANTAN TIMUR,,Indonesia,,,,-1.3895454,116.6203967,https://maps.google.com/?cid=0x0:0x26752ea600c804d9,
toko bangunan,Jasa Konstruksi dan Bangunan,Toko Bangunan Bangun Niaga Raya,"JJ78+FC4, Jl. Sidodadi, Waru, Kec. Waru, Kabupaten Penajam Paser Utara, Kalimantan Timur 76143","Jl. Sidodadi, Waru, Kec. Waru, Kabupaten Penajam Paser Utara",KALIMANTAN TIMUR,76143.0,Indonesia, 081359956965,,,-1.3863615,116.6160927,https://maps.google.com/?cid=0x0:0x5dcbc38363877cfd,
toko bangunan,Pemasok Bahan Bangunan,Pawit Beton,"RT 02, Sesulu, Kec. Waru, Kabupaten Penajam Paser Utara, Kalimantan Timur 76284","Sesulu, Kec. Waru, Kabupaten Penajam Paser Utara",KALIMANTAN TIMUR,76284.0,Indonesia, 085651946466,,,-1.400622,116.6091305,https://maps.google.com/?cid=0x0:0xb1d0ce51c4a4d45a,
toko bangunan,toko bangunan,Tb Lancar Jaya Waru,"pas samping kiri, Jl. Propinsi Polsek No.KM 28, RT.029, Waru, Kec. Waru, Kabupaten Penajam Paser Utara, Kalimantan Timur 76284","Jl. Propinsi Polsek No.KM 28, RT.029, Waru, Kec. Waru, Kabupaten Penajam Paser Utara",KALIMANTAN TIMUR,76284.0,Indonesia,,,,-1.3956,116.6126173,https://maps.google.com/?cid=0x0:0xc2a855f2036fd07c,
toko bangunan,Toko Bahan Bangunan,Toko Alaras Baja Teknik,"Jl. Propinsi, Waru, Kec. Waru, Kabupaten Penajam Paser Utara, Kalimantan Timur 76284","Waru, Kec. Waru, Kabupaten Penajam Paser Utara",KALIMANTAN TIMUR,76284.0,Indonesia, 081241428114,,,-1.3979165,116.6110553,https://maps.google.com/?cid=0x0:0x3b6d5a3579c0bcaf,
toko bangunan,Pemasok Bahan Bangunan,Modern Beton,"Waru, Kec. Waru, Kabupaten Penajam Paser Utara, Kalimantan Timur 76143","Kec. Waru, Kabupaten Penajam Paser Utara",KALIMANTAN TIMUR,76143.0,Indonesia, 082140034979,,,-1.4005399,116.6091238,https://maps.google.com/?cid=0x0:0x1f7335c18bfd9fe3,
toko bangunan,Toko Bahan Bangunan,TOKO BJR TRUSS PENAJAM IKN,"Jl. Propinsi No.5, Penajam, Kabupaten Penajam Paser Utara, Kalimantan Timur 76142","Penajam, Kabupaten Penajam Paser Utara",KALIMANTAN TIMUR,76142.0,Indonesia, 0811545424,,,-1.2619936,116.7648304,https://maps.google.com/?cid=0x0:0x6d057caee41e6f72,
toko bangunan,Toko Bahan Bangunan,TOKO BANGUNAN MULTI SUMBER RAYA,"Jl. Lapangan No.RT.04, Gn. Seteleng, Penajam, Kabupaten Penajam Paser Utara, Kalimantan Timur 76141","Gn. Seteleng, Penajam, Kabupaten Penajam Paser Utara",KALIMANTAN TIMUR,76141.0,Indonesia,,,,-1.2510438,116.7681878,https://maps.google.com/?cid=0x0:0x4cd71101ecb93c66,
toko bangunan,Toko Bahan Bangunan,TOKO BINTANG BANGUNAN,"Giri Mukti, Penajam, Kabupaten Penajam Paser Utara, Kalimantan Timur","Kabupaten Penajam Paser Utara, Kalimantan Timur",KALIMANTAN TIMUR,,Indonesia, 081350135293,,,-1.3447351,116.6804445,https://maps.google.com/?cid=0x0:0x66a390f709093190,
toko bangunan,Toko Perlengkapan Rumah,Toko BONE JAYA ABADI,"JM7W+H67, Penajam, Kabupaten Penajam Paser Utara, Kalimantan Timur 76143","Penajam, Kabupaten Penajam Paser Utara",KALIMANTAN TIMUR,76143.0,Indonesia, 085265465000,,,-1.3860872,116.6955455,https://maps.google.com/?cid=0x0:0x2f74f42b88101573,
toko bangunan,Pusat Perbelanjaan,TRI PUTRA MART,"JJ59+J4F, Waru, Kec. Waru, Kabupaten Penajam Paser Utara, Kalimantan Timur 76143","Waru, Kec. Waru, Kabupaten Penajam Paser Utara",KALIMANTAN TIMUR,76143.0,Indonesia, 08999999437,,,-1.3909341,116.6178064,https://maps.google.com/?cid=0x0:0x10f08a9e5b30666,
toko bangunan,Toko Bahan Bangunan,"Toko Bangunan Anugrah Property, Kontraktor, Supplier","Sepaku 4 Bukit Raya, Penajam, Kabupaten Penajam Paser Utara, Kalimantan Timur 76141","Penajam, Kabupaten Penajam Paser Utara",KALIMANTAN TIMUR,76141.0,Indonesia, 8228193,,,-1.1955898,116.6604662,https://maps.google.com/?cid=0x0:0x2df67015ef1098da,
toko bangunan,toko bangunan,TB. Mahkota Lima,"JJ9Q+F5M, Waru, Kec. Waru, Kabupaten Penajam Paser Utara, Kalimantan Timur","Kabupaten Penajam Paser Utara, Kalimantan Timur",KALIMANTAN TIMUR,,Indonesia,,,,-1.381288,116.6379374,https://maps.google.com/?cid=0x0:0x7b12db16b978c374,
toko bangunan,toko bangunan,Kec. Waru,"Kabupaten Sidoarjo, Jawa Timur","Kabupaten Sidoarjo, Jawa Timur",KALIMANTAN TIMUR,,Indonesia,,,,-7.3503078,112.7674661,https://maps.google.com/?cid=0x0:0x65e2727f2e900a82,
toko bangunan,Toko Bahan Bangunan,TB. Yang Abadi,"Jl. Raya Tropodo No.114, Tropodo Wetan, Tropodo, Kec. Waru, Kabupaten Sidoarjo, Jawa Timur 61256","Tropodo Wetan, Tropodo, Kec. Waru, Kabupaten Sidoarjo",KALIMANTAN TIMUR,61256.0,Indonesia, 0318672972,,,-7.3614032,112.7644128,https://maps.google.com/?cid=0x0:0x81c9cc45bb4b445a,
toko bangunan,Toko Bahan Bangunan,Toko Bangunan Joyo Mas,"Pengkol, Jl. Brigjend Katamso No.7, Bandilan, Kedungrejo, Kec. Waru, Kabupaten Sidoarjo, Jawa Timur 61256","Jl. Brigjend Katamso No.7, Bandilan, Kedungrejo, Kec. Waru, Kabupaten Sidoarjo",KALIMANTAN TIMUR,61256.0,Indonesia, 085166900649,,,-7.3511244,112.7363073,https://maps.google.com/?cid=0x0:0xb4767ef0809198e8,
toko bangunan,Toko Bahan Bangunan,Sari Bumi Bangunan,"Jl. Letjen Suprapto No.12, Tambakrejo, Kec. Waru, Kabupaten Sidoarjo, Jawa Timur 61256","Tambakrejo, Kec. Waru, Kabupaten Sidoarjo",KALIMANTAN TIMUR,61256.0,Indonesia, 085852057070,,,-7.3547853,112.7662224,https://maps.google.com/?cid=0x0:0x46add017ec3c10ec,
toko bangunan,Toko Bahan Bangunan,Toko Sari Bumi Bangunan,"Jl. Brigjend Katamso No.76, Wedoro, Kec. Waru, Kabupaten Sidoarjo, Jawa Timur 61256","Wedoro, Kec. Waru, Kabupaten Sidoarjo",KALIMANTAN TIMUR,61256.0,Indonesia, 082280801743,,,-7.3492297,112.7475592,https://maps.google.com/?cid=0x0:0x7b4718583a6d3944,
toko bangunan,Toko Bahan Bangunan,Toko Bangunan Makmur,"Jl. Raya Wisma Tropodo EM No.37, Tropodo Wetan, Tropodo, Kec. Waru, Kabupaten Sidoarjo, Jawa Timur 61256","Tropodo Wetan, Tropodo, Kec. Waru, Kabupaten Sidoarjo",KALIMANTAN TIMUR,61256.0,Indonesia, 085166900649,,,-7.3556726,112.758056,https://maps.google.com/?cid=0x0:0x99541649f4bad9b1,
toko bangunan,Toko Bahan Bangunan,Toko Sinar Jaya,"Jl. Raya Tropodo No.67, Tropodo Wetan, Tropodo, Kec. Waru, Kabupaten Sidoarjo, Jawa Timur 61256","Tropodo Wetan, Tropodo, Kec. Waru, Kabupaten Sidoarjo",KALIMANTAN TIMUR,61256.0,Indonesia, 085166901385,,,-7.3583624,112.7643023,https://maps.google.com/?cid=0x0:0x49da62f0ffefdb6b,
toko bangunan,Toko Bahan Bangunan,Toko Anugerah,"No Jl. Brigjend Katamso No.142, Kedungrejo, Kec. Waru, Kabupaten Sidoarjo, Jawa Timur 61256","Kedungrejo, Kec. Waru, Kabupaten Sidoarjo",KALIMANTAN TIMUR,61256.0,Indonesia, 085166901385,,,-7.3509414,112.7327653,https://maps.google.com/?cid=0x0:0xc96c13d22db6d55e,
toko bangunan,Toko Bahan Bangunan,TB. Sumber Joyo,"Jl. Raya Tropodo No.4, Tropodo Wetan, Tropodo, Kec. Waru, Kabupaten Sidoarjo, Jawa Timur 61256","Tropodo Wetan, Tropodo, Kec. Waru, Kabupaten Sidoarjo",KALIMANTAN TIMUR,61256.0,Indonesia, 085166900648,,,-7.3659255,112.7640716,https://maps.google.com/?cid=0x0:0x442d3da4a5f4128d,
toko bangunan,Toko Bahan Bangunan,UD. Nusa Indah,"Jl. Letjen Suprapto No.62, Kepuh, Kepuhkiriman, Kec. Waru, Kabupaten Sidoarjo, Jawa Timur 61256","Kepuh, Kepuhkiriman, Kec. Waru, Kabupaten Sidoarjo",KALIMANTAN TIMUR,61256.0,Indonesia, 082280801743,,,-7.354912,112.765901,https://maps.google.com/?cid=0x0:0xec85c5d0f0a482fa,
toko bangunan,Toko,Toko Teguh Jaya,"Jl. Raya Tropodo No.21, Tropodo Wetan, Tropodo, Kec. Waru, Kabupaten Sidoarjo, Jawa Timur 61256","Tropodo Wetan, Tropodo, Kec. Waru, Kabupaten Sidoarjo",KALIMANTAN TIMUR,61256.0,Indonesia, 0318667662,,,-7.362788,112.763961,https://maps.google.com/?cid=0x0:0x9191b6b622be3a39,
toko bangunan,Toko Bahan Bangunan,"Toko bangunan falah jaya,","Jl. Brigjend Katamso No.20a, Turipinggir, Berbek, Kec. Waru, Kabupaten Sidoarjo, Jawa Timur 61256","Turipinggir, Berbek, Kec. Waru, Kabupaten Sidoarjo",KALIMANTAN TIMUR,61256.0,Indonesia, 082375348315,,,-7.3498168,112.765478,https://maps.google.com/?cid=0x0:0xc67610825fa2a2d4,
hardware store,hardware store,Kalimantan Timur 76285,"Kabupaten Penajam Paser Utara, Kalimantan Timur","Kabupaten Penajam Paser Utara, Kalimantan Timur",KALIMANTAN TIMUR,,Indonesia,,,,-1.4657049,116.4665975,https://maps.google.com/?cid=0x0:0x5943ae3383f3a6bc,
hardware store,Toko Perlengkapan Rumah,Mr. DIY,"Babulu Darat, Kec. Babulu, Kabupaten Penajam Paser Utara, Kalimantan Timur 76285","Kec. Babulu, Kabupaten Penajam Paser Utara",KALIMANTAN TIMUR,76285.0,Indonesia,,,,-1.4983065,116.4634859,https://maps.google.com/?cid=0x0:0xd044e8fc3fec5919,
hardware store,Toko Bahan Bangunan,TB Borneo Raya,"Jl. Penajam-Kuaro barat, Babulu Darat, Kec. Babulu, Kabupaten Penajam Paser Utara, Kalimantan Timur 76285","Babulu Darat, Kec. Babulu, Kabupaten Penajam Paser Utara",KALIMANTAN TIMUR,76285.0,Indonesia, 081282798289,,,-1.4995739,116.4612082,https://maps.google.com/?cid=0x0:0x3fc4b39b433d7ab6,
hardware store,Toko Bahan Bangunan,Toko Fajar,"FFV2+7C4, Babulu Darat, Kec. Babulu, Kabupaten Penajam Paser Utara, Kalimantan Timur 76285","Babulu Darat, Kec. Babulu, Kabupaten Penajam Paser Utara",KALIMANTAN TIMUR,76285.0,Indonesia, 081346550971,,,-1.5068627,116.4510743,https://maps.google.com/?cid=0x0:0x9c265c69fd9def4e,
hardware store,Toko Perlengkapan Rumah,Toko Bangunan Cahaya Makmur,"FCC5+Q7X, Gn. Makmur, Kec. Babulu, Kabupaten Penajam Paser Utara, Kalimantan Timur 76283","Gn. Makmur, Kec. Babulu, Kabupaten Penajam Paser Utara",KALIMANTAN TIMUR,76283.0,Indonesia,,,,-1.5275871,116.4082314,https://maps.google.com/?cid=0x0:0xc54ca38b03ce840a,
hardware store,Toko Bahan Bangunan,Toko Rizky,"GF26+272, Babulu Darat, Kec. Babulu, Kabupaten Penajam Paser Utara, Kalimantan Timur 76285","Babulu Darat, Kec. Babulu, Kabupaten Penajam Paser Utara",KALIMANTAN TIMUR,76285.0,Indonesia,,,,-1.4999952,116.4606504,https://maps.google.com/?cid=0x0:0x2615cb729c71a71a,
hardware store,Toko Bahan Bangunan,TK Mitra Baru,"GF27+H47, Babulu Darat, Kec. Babulu, Kabupaten Penajam Paser Utara, Kalimantan Timur 76285","Babulu Darat, Kec. Babulu, Kabupaten Penajam Paser Utara",KALIMANTAN TIMUR,76285.0,Indonesia,,,,-1.4983445,116.4629642,https://maps.google.com/?cid=0x0:0x3f086ae3617075a7,
hardware store,Toko bahan makanan,Indomaret Babulu,"GF27+C3C, Babulu Darat, Kec. Babulu, Kabupaten Penajam Paser Utara, Kalimantan Timur 76285","Babulu Darat, Kec. Babulu, Kabupaten Penajam Paser Utara",KALIMANTAN TIMUR,76285.0,Indonesia,,,,-1.4989477,116.4626272,https://maps.google.com/?cid=0x0:0xd39196b5584c1a9e,
hardware store,Toko,Toko Ariyadi Elektronik,"Babulu Darat, Kec. Babulu, Kabupaten Penajam Paser Utara, Kalimantan Timur 76285","Kec. Babulu, Kabupaten Penajam Paser Utara",KALIMANTAN TIMUR,76285.0,Indonesia, 085169984628,,,-1.5019605,116.4583285,https://maps.google.com/?cid=0x0:0x6e731a9a69238ac0,
hardware store,Toko,TOKO NUR RAHMAN BABULU,"JL.Provinsi No.Km.48, RT.10, Babulu Darat, Kec. Babulu, Kabupaten Penajam Paser Utara, Kalimantan Timur","Kabupaten Penajam Paser Utara, Kalimantan Timur",KALIMANTAN TIMUR,,Indonesia, 081333336664,,,-1.5049057,116.4546845,https://maps.google.com/?cid=0x0:0x6e60371db03353f3,
hardware store,Toko Alat Tulis Kantor,Toko Buana,"Babulu Darat, Kec. Babulu, Kabupaten Penajam Paser Utara, Kalimantan Timur 76285","Kec. Babulu, Kabupaten Penajam Paser Utara",KALIMANTAN TIMUR,76285.0,Indonesia, 081350278095,,,-1.5062661,116.453243,https://maps.google.com/?cid=0x0:0xaf95046cfa142dc4,
hardware store,Toko Pakaian,TOKO FARAS BABULU DARAT,"Jl. Propinsi No.KM. 48, Babulu Darat, Kec. Babulu, Kabupaten Penajam Paser Utara, Kalimantan Timur 76285","Babulu Darat, Kec. Babulu, Kabupaten Penajam Paser Utara",KALIMANTAN TIMUR,76285.0,Indonesia,,,,-1.5034705,116.4566559,https://maps.google.com/?cid=0x0:0x634183e6596270a0,
hardware store,Toko Bahan Bangunan,TOKO BENING(Pesan Antar By WA),"Jalan Widodo No.1, Gunung Intan, Kec. Babulu, Kabupaten Penajam Paser Utara, Kalimantan Timur","Kabupaten Penajam Paser Utara, Kalimantan Timur",KALIMANTAN TIMUR,,Indonesia, 081347563619,,,-1.5143427,116.4168637,https://maps.google.com/?cid=0x0:0x46fdf154d36f2d92,
hardware store,Toko,Toko Agiel,"CFJR+M26, Rw. Mulia, Kec. Babulu, Kabupaten Penajam Paser Utara, Kalimantan Timur 76285","Rw. Mulia, Kec. Babulu, Kabupaten Penajam Paser Utara",KALIMANTAN TIMUR,76285.0,Indonesia,,,,-1.5683473,116.4900084,https://maps.google.com/?cid=0x0:0xd7dd05c7ffdb626,
hardware store,Toko bahan makanan,Toko IRA,"Rt 12 dusun 3 desa gunung makmur, darat, Kec. Babulu","Kabupaten Paser, Kalimantan Timur",KALIMANTAN TIMUR,,Indonesia,,,,-1.5203685,116.3760331,https://maps.google.com/?cid=0x0:0x346a5e9eaf021470,
hardware store,Toko Buku,Fotocopy SintaSalsa,"Jl. Penajam-Kuaro, Babulu Darat, Kec. Babulu, Kabupaten Penajam Paser Utara, Kalimantan Timur 76285","Babulu Darat, Kec. Babulu, Kabupaten Penajam Paser Utara",KALIMANTAN TIMUR,76285.0,Indonesia, 08119862208,,,-1.5054497,116.4363139,https://maps.google.com/?cid=0x0:0xeae4d011c0958428,
hardware store,Toko Buku,toko fajar Utama,"FFW5+X3C, Babulu Darat, Kec. Babulu, Kabupaten Penajam Paser Utara, Kalimantan Timur 76285","Babulu Darat, Kec. Babulu, Kabupaten Penajam Paser Utara",KALIMANTAN TIMUR,76285.0,Indonesia, 081347198469,,,-1.5025668,116.4576394,https://maps.google.com/?cid=0x0:0x933fd8a8a7e16a61,
hardware store,Toko Bahan Bangunan,Toko Jaya bangunan,"Gn. Intan, Kec. Babulu, Kabupaten Penajam Paser Utara, Kalimantan Timur 76285","Kec. Babulu, Kabupaten Penajam Paser Utara",KALIMANTAN TIMUR,76285.0,Indonesia, 081351230990,,,-1.5299275,116.4485721,https://maps.google.com/?cid=0x0:0x44c847a992e1b383,
hardware store,Toko Pertanian,Toko Jamil 2,"FCRF+82G, Gn. Intan, Kec. Babulu, Kabupaten Penajam Paser Utara, Kalimantan Timur 76285","Gn. Intan, Kec. Babulu, Kabupaten Penajam Paser Utara",KALIMANTAN TIMUR,76285.0,Indonesia, 081347027865,,,-1.5091859,116.4225879,https://maps.google.com/?cid=0x0:0x213ddb713271d2c,
hardware store,Toko Buku,Toko fotocopy Syukur,"GF49+46J, Labangka, Kec. Babulu, Kabupaten Penajam Paser Utara, Kalimantan Timur 76285","Labangka, Kec. Babulu, Kabupaten Penajam Paser Utara",KALIMANTAN TIMUR,76285.0,Indonesia, 085845618631,,,-1.4946735,116.4680186,https://maps.google.com/?cid=0x0:0x5134ae4269b8c43a,
hardware store,Toko,TOKO ANDRI BAGUS,"FF57+288, Sebakung Jaya, Kec. Babulu, Kabupaten Penajam Paser Utara, Kalimantan Timur","Kabupaten Penajam Paser Utara, Kalimantan Timur",KALIMANTAN TIMUR,,Indonesia, 082253577478,,,-1.542454,116.4633279,https://maps.google.com/?cid=0x0:0xccc71dca37f01346,
hardware store,hardware store,"Cahaya mandiri,babulu","Jl. Penajam-Kuaro No.3, Babulu Darat, Kec. Babulu, Kabupaten Penajam Paser Utara, Kalimantan Timur 76285","Babulu Darat, Kec. Babulu, Kabupaten Penajam Paser Utara",KALIMANTAN TIMUR,76285.0,Indonesia,,,,-1.4988933,116.4628417,https://maps.google.com/?cid=0x0:0x28a5ef9d922d4ab9,
hardware store,hardware store,Kalimantan Timur 76141,"Penajam, Kabupaten Penajam Paser Utara, Kalimantan Timur","Kabupaten Penajam Paser Utara, Kalimantan Timur",KALIMANTAN TIMUR,,Indonesia,,,,-1.2030733,116.7260713,https://maps.google.com/?cid=0x0:0xa626321142eadacb,
hardware store,Toko Bahan Bangunan,"Toko Bangunan Anugrah Property, Kontraktor, Supplier","Sepaku 4 Bukit Raya, Penajam, Kabupaten Penajam Paser Utara, Kalimantan Timur 76141","Penajam, Kabupaten Penajam Paser Utara",KALIMANTAN TIMUR,76141.0,Indonesia, 8228193,,,-1.1955898,116.6604662,https://maps.google.com/?cid=0x0:0x2df67015ef1098da,
hardware store,Toko Bahan Bangunan,TOKO BANGUNAN MULTI SUMBER RAYA,"Jl. Lapangan No.RT.04, Gn. Seteleng, Penajam, Kabupaten Penajam Paser Utara, Kalimantan Timur 76141","Gn. Seteleng, Penajam, Kabupaten Penajam Paser Utara",KALIMANTAN TIMUR,76141.0,Indonesia,,,,-1.2510438,116.7681878,https://maps.google.com/?cid=0x0:0x4cd71101ecb93c66,
hardware store,Toko Bahan Bangunan,TOKO BJR TRUSS PENAJAM IKN,"Jl. Propinsi No.5, Penajam, Kabupaten Penajam Paser Utara, Kalimantan Timur 76142","Penajam, Kabupaten Penajam Paser Utara",KALIMANTAN TIMUR,76142.0,Indonesia, 0811545424,,,-1.2619936,116.7648304,https://maps.google.com/?cid=0x0:0x6d057caee41e6f72,
hardware store,Toko,MR.DIY,"Jl. Provinsi KM 19 No.23, RT.023/RW.019, Petung, Penajam, Penajam North Paser Regency, East Kalimantan 76143","RT.023/RW.019, Petung, Penajam, Penajam North Paser Regency",KALIMANTAN TIMUR,76143.0,Indonesia,,,,-1.361375,116.6583354,https://maps.google.com/?cid=0x0:0xfd5dffb5f32a55df,
hardware store,Toko Cat,Jotun Trubus Steel 2,"Jl. Penajam-Kuaro, Giri Mukti, Penajam, Kabupaten Penajam Paser Utara, Kalimantan Timur 76143","Giri Mukti, Penajam, Kabupaten Penajam Paser Utara",KALIMANTAN TIMUR,76143.0,Indonesia, 081347220680,,,-1.3488314,116.6737486,https://maps.google.com/?cid=0x0:0x9dd3f89d1ac1b25d,
hardware store,Toko Perlengkapan Rumah,Pendawa elektrik,"Jl. Silkar No.km 2.5, Giri Mukti, Penajam, Kabupaten Penajam Paser Utara, Kalimantan Timur","Kabupaten Penajam Paser Utara, Kalimantan Timur",KALIMANTAN TIMUR,,Indonesia, 081350375971,,,-1.3313336,116.6698329,https://maps.google.com/?cid=0x0:0xefe6ba73cfdd62a5,
hardware store,Toko Bahan Bangunan,TB Karya Utama,"Jl. Penajam-Kuaro No.16, Giri Mukti, Penajam, Kabupaten Penajam Paser Utara, Kalimantan Timur 76143","Giri Mukti, Penajam, Kabupaten Penajam Paser Utara",KALIMANTAN TIMUR,76143.0,Indonesia, 081311515141,,,-1.3381789,116.6875237,https://maps.google.com/?cid=0x0:0x7959d11645401c8c,
hardware store,Toko Bahan Bangunan,BJR TRUSS 2 PENAJAM,"Jl. Propinsi No.KM 3, RT.01, Penajam, Kabupaten Penajam Paser Utara, Kalimantan Timur 76141","RT.01, Penajam, Kabupaten Penajam Paser Utara",KALIMANTAN TIMUR,76141.0,Indonesia, 082254100445,,,-1.2644764,116.7621984,https://maps.google.com/?cid=0x0:0x24036d50d94d680e,
hardware store,Toko Bahan Bangunan,USAHA BARU JAYA,"Giri Mukti, Penajam, Kabupaten Penajam Paser Utara, Kalimantan Timur 76143","Penajam, Kabupaten Penajam Paser Utara",KALIMANTAN TIMUR,76143.0,Indonesia, 085248256666,,,-1.3471944,116.6770356,https://maps.google.com/?cid=0x0:0x49ff93f654bb9cb9,
hardware store,Toko Bahan Bangunan,Toko RIDHA JAYA,"Jl. Propinsi, RT.05/RW.02, Kilometer 1, Penajam, Kabupaten Penajam Paser Utara, Kalimantan Timur 76141","RT.05/RW.02, Kilometer 1, Penajam, Kabupaten Penajam Paser Utara",KALIMANTAN TIMUR,76141.0,Indonesia, 081346401217,,,-1.250083,116.7742988,https://maps.google.com/?cid=0x0:0xaf25cfa76158e51b,
hardware store,Toko Bahan Bangunan,TOKO BANGUNAN SURYA MANDIRI,"Jalan Provinsi Km 4 Nenang, Penajam, Kabupaten Penajam Paser Utara, Kalimantan Timur 76141","Penajam, Kabupaten Penajam Paser Utara",KALIMANTAN TIMUR,76141.0,Indonesia, 081253439393,,,-1.2765893,116.7523826,https://maps.google.com/?cid=0x0:0x800e17ad3c73b8b,
hardware store,Toko Bahan Bangunan,toko sinar rezeki,"JMV7+MVG, Jl. Petung, Petung, Penajam, Kabupaten Penajam Paser Utara, Kalimantan Timur 76143","Jl. Petung, Petung, Penajam, Kabupaten Penajam Paser Utara",KALIMANTAN TIMUR,76143.0,Indonesia, 08125373332,,,-1.3558246,116.6646984,https://maps.google.com/?cid=0x0:0xe198b0c82d6c824e,
hardware store,Toko Bahan Bangunan,Toko Bangunan SBN Sinar Bangunan nipah-nipah penajam,"jl propinsi No.km 7, Nipah-Nipah, Penajam, Kabupaten Penajam Paser Utara, Kalimantan Timur 76142","Nipah-Nipah, Penajam, Kabupaten Penajam Paser Utara",KALIMANTAN TIMUR,76142.0,Indonesia, 082152076602,,,-1.29781,116.7395643,https://maps.google.com/?cid=0x0:0x79a68f4209442d87,
hardware store,Toko Alat Tulis,TOKO SS ( fotocopy dan atk),"Jl. Propinsi No.km No.17, Petung, Penajam, Kabupaten Penajam Paser Utara, Kalimantan Timur 76143","Petung, Penajam, Kabupaten Penajam Paser Utara",KALIMANTAN TIMUR,76143.0,Indonesia, 085751518235,,,-1.347576,116.6758691,https://maps.google.com/?cid=0x0:0x95c906a69a3b725c,
hardware store,Toko Bahan Bangunan,Cerah Hardware Riko,"WJ2P+83, Maridan, Kec. Sepaku, Kabupaten Penajam Paser Utara, Kalimantan Timur 76146","Maridan, Kec. Sepaku, Kabupaten Penajam Paser Utara",KALIMANTAN TIMUR,76146.0,Indonesia,,,,-1.0991494,116.6352461,https://maps.google.com/?cid=0x0:0x179b7778e3c0336f,
hardware store,Toko Perlengkapan Rumah,toko sheren,"jalan sidorejo No.RT 4, Petung, Penajam, Kabupaten Penajam Paser Utara, Kalimantan Timur 76143","Petung, Penajam, Kabupaten Penajam Paser Utara",KALIMANTAN TIMUR,76143.0,Indonesia, 081251070644,,,-1.3700184,116.6890577,https://maps.google.com/?cid=0x0:0x6852aad8419ebc34,
hardware store,Toko Alat Tulis Kantor,Agam Bersaudara,"Jl. Sukamaju No.Rt 04 No 30, Gn. Seteleng, Penajam, Kabupaten Penajam Paser Utara, Kalimantan Timur 76141","Gn. Seteleng, Penajam, Kabupaten Penajam Paser Utara",KALIMANTAN TIMUR,76141.0,Indonesia, 081545546346,,,-1.2473728,116.7719248,https://maps.google.com/?cid=0x0:0xc7d679aca78c5d0f,
hardware store,Toko Ponsel,LITTLE PANDA WALI CELLULAR 354,"Jl. Propinsi Km 1,5 RT.3/RW.No. 17 Penajam, Penajam, Kabupaten Penajam Paser Utara, Kalimantan Timur 76141","Penajam, Kabupaten Penajam Paser Utara",KALIMANTAN TIMUR,76141.0,Indonesia, 081952956555,,,-1.2562825,116.7703089,https://maps.google.com/?cid=0x0:0x1508443397da8db6,
hardware store,Toko Alat Tulis Kantor,Toko Benuo Taka,"RPGR+7VH, Unnamed Road, Gersik, Penajam, Kabupaten Penajam Paser Utara, Kalimantan Timur 76141","Unnamed Road, Gersik, Penajam, Kabupaten Penajam Paser Utara",KALIMANTAN TIMUR,76141.0,Indonesia, 085753231999,,,-1.1743193,116.742232,https://maps.google.com/?cid=0x0:0x401697f9e553d542,
hardware store,Toko Buku >>u0026 Alat Sekolah,D'Model Enterprise toko fotocopy terdekat,"Jl. Propinsi No.km 18, Giri Mukti, Penajam, Kabupaten Penajam Paser Utara, Kalimantan Timur 76144","Giri Mukti, Penajam, Kabupaten Penajam Paser Utara",KALIMANTAN TIMUR,76144.0,Indonesia, 081351840541,,,-1.3540934,116.6667462,https://maps.google.com/?cid=0x0:0xd3fd21852e836505,
hardware store,Toko Alat Tulis,Liwa Rayah ( fotocopy and Print ),"Jl. Pariwisata kavling, Giri Mukti, Penajam, Kabupaten Penajam Paser Utara, Kalimantan Timur 76141","Giri Mukti, Penajam, Kabupaten Penajam Paser Utara",KALIMANTAN TIMUR,76141.0,Indonesia,,,,-1.3394183,116.6896708,https://maps.google.com/?cid=0x0:0xa36e557557c442fc,
hardware store,hardware store,Kalimantan Timur 76142,"Penajam, Kabupaten Penajam Paser Utara, Kalimantan Timur","Kabupaten Penajam Paser Utara, Kalimantan Timur",KALIMANTAN TIMUR,,Indonesia,,,,-1.2725765,116.6789163,https://maps.google.com/?cid=0x0:0x21dbfde82442773a,
hardware store,Toko Perlengkapan Rumah,Toko Berlian Abadi,"Jl. Propinsi No.km 3, Penajam, Kabupaten Penajam Paser Utara, Kalimantan Timur 76142","Penajam, Kabupaten Penajam Paser Utara",KALIMANTAN TIMUR,76142.0,Indonesia, 083181673940,,,-1.267416,116.7589707,https://maps.google.com/?cid=0x0:0xe8f99fa1de93dfcf,
hardware store,Toko Bahan Bangunan,Toko Bangunan SBN Sinar Bangunan nipah-nipah penajam,"jl propinsi No.km 7, Nipah-Nipah, Penajam, Kabupaten Penajam Paser Utara, Kalimantan Timur 76142","Nipah-Nipah, Penajam, Kabupaten Penajam Paser Utara",KALIMANTAN TIMUR,76142.0,Indonesia, 082152076602,,,-1.29781,116.7395643,https://maps.google.com/?cid=0x0:0x79a68f4209442d87,
hardware store,Toko Bahan Bangunan,TOKO BANGUNAN MULTI SUMBER RAYA,"Jl. Lapangan No.RT.04, Gn. Seteleng, Penajam, Kabupaten Penajam Paser Utara, Kalimantan Timur 76141","Gn. Seteleng, Penajam, Kabupaten Penajam Paser Utara",KALIMANTAN TIMUR,76141.0,Indonesia,,,,-1.2510438,116.7681878,https://maps.google.com/?cid=0x0:0x4cd71101ecb93c66,
hardware store,Toko Perlengkapan Rumah,Pendawa elektrik,"Jl. Silkar No.km 2.5, Giri Mukti, Penajam, Kabupaten Penajam Paser Utara, Kalimantan Timur","Kabupaten Penajam Paser Utara, Kalimantan Timur",KALIMANTAN TIMUR,,Indonesia, 081350375971,,,-1.3313336,116.6698329,https://maps.google.com/?cid=0x0:0xefe6ba73cfdd62a5,
hardware store,Toko Bahan Bangunan,"Toko Bangunan Anugrah Property, Kontraktor, Supplier","Sepaku 4 Bukit Raya, Penajam, Kabupaten Penajam Paser Utara, Kalimantan Timur 76141","Penajam, Kabupaten Penajam Paser Utara",KALIMANTAN TIMUR,76141.0,Indonesia, 8228193,,,-1.1955898,116.6604662,https://maps.google.com/?cid=0x0:0x2df67015ef1098da,
hardware store,Toko Bahan Bangunan,TB Karya Utama,"Jl. Penajam-Kuaro No.16, Giri Mukti, Penajam, Kabupaten Penajam Paser Utara, Kalimantan Timur 76143","Giri Mukti, Penajam, Kabupaten Penajam Paser Utara",KALIMANTAN TIMUR,76143.0,Indonesia, 081311515141,,,-1.3381789,116.6875237,https://maps.google.com/?cid=0x0:0x7959d11645401c8c,
hardware store,Toko Bahan Bangunan,BJR TRUSS 2 PENAJAM,"Jl. Propinsi No.KM 3, RT.01, Penajam, Kabupaten Penajam Paser Utara, Kalimantan Timur 76141","RT.01, Penajam, Kabupaten Penajam Paser Utara",KALIMANTAN TIMUR,76141.0,Indonesia, 082254100445,,,-1.2644764,116.7621984,https://maps.google.com/?cid=0x0:0x24036d50d94d680e,
hardware store,Toko Cat,Jotun Trubus Steel 2,"Jl. Penajam-Kuaro, Giri Mukti, Penajam, Kabupaten Penajam Paser Utara, Kalimantan Timur 76143","Giri Mukti, Penajam, Kabupaten Penajam Paser Utara",KALIMANTAN TIMUR,76143.0,Indonesia, 081347220680,,,-1.3488314,116.6737486,https://maps.google.com/?cid=0x0:0x9dd3f89d1ac1b25d,
hardware store,Toko Bahan Bangunan,TOKO BANGUNAN SURYA MANDIRI,"Jalan Provinsi Km 4 Nenang, Penajam, Kabupaten Penajam Paser Utara, Kalimantan Timur 76141","Penajam, Kabupaten Penajam Paser Utara",KALIMANTAN TIMUR,76141.0,Indonesia, 081253439393,,,-1.2765893,116.7523826,https://maps.google.com/?cid=0x0:0x800e17ad3c73b8b,
hardware store,Toko Bahan Bangunan,USAHA BARU JAYA,"Giri Mukti, Penajam, Kabupaten Penajam Paser Utara, Kalimantan Timur 76143","Penajam, Kabupaten Penajam Paser Utara",KALIMANTAN TIMUR,76143.0,Indonesia, 085248256666,,,-1.3471944,116.6770356,https://maps.google.com/?cid=0x0:0x49ff93f654bb9cb9,
hardware store,Toko Bahan Bangunan,Toko RIDHA JAYA,"Jl. Propinsi, RT.05/RW.02, Kilometer 1, Penajam, Kabupaten Penajam Paser Utara, Kalimantan Timur 76141","RT.05/RW.02, Kilometer 1, Penajam, Kabupaten Penajam Paser Utara",KALIMANTAN TIMUR,76141.0,Indonesia, 081346401217,,,-1.250083,116.7742988,https://maps.google.com/?cid=0x0:0xaf25cfa76158e51b,
hardware store,Toko Alat Tulis,TOKO SS ( fotocopy dan atk),"Jl. Propinsi No.km No.17, Petung, Penajam, Kabupaten Penajam Paser Utara, Kalimantan Timur 76143","Petung, Penajam, Kabupaten Penajam Paser Utara",KALIMANTAN TIMUR,76143.0,Indonesia, 085751518235,,,-1.347576,116.6758691,https://maps.google.com/?cid=0x0:0x95c906a69a3b725c,
hardware store,Toko Alat Tulis Kantor,Nurul ATK,"Jln BTN km 4 Blok A No.01, Penajam, Kabupaten Penajam Paser Utara, Kalimantan Timur 76141","Penajam, Kabupaten Penajam Paser Utara",KALIMANTAN TIMUR,76141.0,Indonesia, 085247478411,,,-1.2755924,116.7523641,https://maps.google.com/?cid=0x0:0xa14d97b902cd30f0,
hardware store,hardware store,NICK. ST STORE,"MMG8+RVQ, Jl. Silkar, Lawe-lawe, Penajam, Kabupaten Penajam Paser Utara, Kalimantan Timur","Kabupaten Penajam Paser Utara, Kalimantan Timur",KALIMANTAN TIMUR,,Indonesia, 081522507330,,,-1.3229048,116.6672214,https://maps.google.com/?cid=0x0:0x6049adebfbccce3b,
hardware store,Toko Bahan Bangunan,toko sinar rezeki,"JMV7+MVG, Jl. Petung, Petung, Penajam, Kabupaten Penajam Paser Utara, Kalimantan Timur 76143","Jl. Petung, Petung, Penajam, Kabupaten Penajam Paser Utara",KALIMANTAN TIMUR,76143.0,Indonesia, 08125373332,,,-1.3558246,116.6646984,https://maps.google.com/?cid=0x0:0xe198b0c82d6c824e,
hardware store,Toko Ponsel,LITTLE PANDA WALI CELLULAR 354,"Jl. Propinsi Km 1,5 RT.3/RW.No. 17 Penajam, Penajam, Kabupaten Penajam Paser Utara, Kalimantan Timur 76141","Penajam, Kabupaten Penajam Paser Utara",KALIMANTAN TIMUR,76141.0,Indonesia, 081952956555,,,-1.2562825,116.7703089,https://maps.google.com/?cid=0x0:0x1508443397da8db6,
hardware store,Toko Alat Tulis,Toko Fotocopy Fikri,"Jl.Provinsi km 08 rt007 no 51, Nenang, Penajam, Kabupaten Penajam Paser Utara, Kalimantan Timur 76141","Nenang, Penajam, Kabupaten Penajam Paser Utara",KALIMANTAN TIMUR,76141.0,Indonesia, 081350588678,,,-1.2982079,116.7388996,https://maps.google.com/?cid=0x0:0x54d8ac44b2c44c9c,
hardware store,Toko Alat Tulis,Liwa Rayah ( fotocopy and Print ),"Jl. Pariwisata kavling, Giri Mukti, Penajam, Kabupaten Penajam Paser Utara, Kalimantan Timur 76141","Giri Mukti, Penajam, Kabupaten Penajam Paser Utara",KALIMANTAN TIMUR,76141.0,Indonesia,,,,-1.3394183,116.6896708,https://maps.google.com/?cid=0x0:0xa36e557557c442fc,
hardware store,Toko Alat Tulis Kantor,Agam Bersaudara,"Jl. Sukamaju No.Rt 04 No 30, Gn. Seteleng, Penajam, Kabupaten Penajam Paser Utara, Kalimantan Timur 76141","Gn. Seteleng, Penajam, Kabupaten Penajam Paser Utara",KALIMANTAN TIMUR,76141.0,Indonesia, 081545546346,,,-1.2473728,116.7719248,https://maps.google.com/?cid=0x0:0xc7d679aca78c5d0f,
hardware store,Toko Bahan Bangunan,Toko BANGUN JAYA RAYA / GALLERY TEKNIK,"PQQ7+5X9, Penajam, Kabupaten Penajam Paser Utara, Kalimantan Timur 76142","Penajam, Kabupaten Penajam Paser Utara",KALIMANTAN TIMUR,76142.0,Indonesia, 0811545424,,,-1.2620977,116.7649939,https://maps.google.com/?cid=0x0:0xe08bc4f9c21a385e,
hardware store,hardware store,Kalimantan Timur 76143,"Penajam, Kabupaten Penajam Paser Utara, Kalimantan Timur","Kabupaten Penajam Paser Utara, Kalimantan Timur",KALIMANTAN TIMUR,,Indonesia,,,,-1.3675236,116.690706,https://maps.google.com/?cid=0x0:0xb94f64efcaa9f1af,
hardware store,Toko,MR.DIY,"Jl. Provinsi KM 19 No.23, RT.023/RW.019, Petung, Penajam, Penajam North Paser Regency, East Kalimantan 76143","RT.023/RW.019, Petung, Penajam, Penajam North Paser Regency",KALIMANTAN TIMUR,76143.0,Indonesia,,,,-1.361375,116.6583354,https://maps.google.com/?cid=0x0:0xfd5dffb5f32a55df,
hardware store,Toko Cat,Jotun Trubus Steel 2,"Jl. Penajam-Kuaro, Giri Mukti, Penajam, Kabupaten Penajam Paser Utara, Kalimantan Timur 76143","Giri Mukti, Penajam, Kabupaten Penajam Paser Utara",KALIMANTAN TIMUR,76143.0,Indonesia, 081347220680,,,-1.3488314,116.6737486,https://maps.google.com/?cid=0x0:0x9dd3f89d1ac1b25d,
hardware store,Toko Bahan Bangunan,"Toko bangunan Bintang Baru, waru","JJ58+26P, Waru, Kec. Waru, Kabupaten Penajam Paser Utara, Kalimantan Timur 76143","Waru, Kec. Waru, Kabupaten Penajam Paser Utara",KALIMANTAN TIMUR,76143.0,Indonesia, 087781689879,,,-1.3924236,116.6155842,https://maps.google.com/?cid=0x0:0xaaafa1bbc44fc9a1,
hardware store,Toko Bahan Bangunan,USAHA BARU JAYA,"Giri Mukti, Penajam, Kabupaten Penajam Paser Utara, Kalimantan Timur 76143","Penajam, Kabupaten Penajam Paser Utara",KALIMANTAN TIMUR,76143.0,Indonesia, 085248256666,,,-1.3471944,116.6770356,https://maps.google.com/?cid=0x0:0x49ff93f654bb9cb9,
hardware store,Toko Perlengkapan Rumah,toko sheren,"jalan sidorejo No.RT 4, Petung, Penajam, Kabupaten Penajam Paser Utara, Kalimantan Timur 76143","Petung, Penajam, Kabupaten Penajam Paser Utara",KALIMANTAN TIMUR,76143.0,Indonesia, 081251070644,,,-1.3700184,116.6890577,https://maps.google.com/?cid=0x0:0x6852aad8419ebc34,
hardware store,Toko Bahan Bangunan,Toko Alaras Baja Teknik,"Jl. Propinsi, Waru, Kec. Waru, Kabupaten Penajam Paser Utara, Kalimantan Timur 76284","Waru, Kec. Waru, Kabupaten Penajam Paser Utara",KALIMANTAN TIMUR,76284.0,Indonesia, 081241428114,,,-1.3979165,116.6110553,https://maps.google.com/?cid=0x0:0x3b6d5a3579c0bcaf,
hardware store,Toko Bahan Bangunan,toko sinar rezeki,"JMV7+MVG, Jl. Petung, Petung, Penajam, Kabupaten Penajam Paser Utara, Kalimantan Timur 76143","Jl. Petung, Petung, Penajam, Kabupaten Penajam Paser Utara",KALIMANTAN TIMUR,76143.0,Indonesia, 08125373332,,,-1.3558246,116.6646984,https://maps.google.com/?cid=0x0:0xe198b0c82d6c824e,
hardware store,Toko Perlengkapan Rumah,Pendawa elektrik,"Jl. Silkar No.km 2.5, Giri Mukti, Penajam, Kabupaten Penajam Paser Utara, Kalimantan Timur","Kabupaten Penajam Paser Utara, Kalimantan Timur",KALIMANTAN TIMUR,,Indonesia, 081350375971,,,-1.3313336,116.6698329,https://maps.google.com/?cid=0x0:0xefe6ba73cfdd62a5,
hardware store,Toko Alat Tulis,TOKO SS ( fotocopy dan atk),"Jl. Propinsi No.km No.17, Petung, Penajam, Kabupaten Penajam Paser Utara, Kalimantan Timur 76143","Petung, Penajam, Kabupaten Penajam Paser Utara",KALIMANTAN TIMUR,76143.0,Indonesia, 085751518235,,,-1.347576,116.6758691,https://maps.google.com/?cid=0x0:0x95c906a69a3b725c,
hardware store,Toko Bahan Bangunan,Toko Bangunan SBN Sinar Bangunan nipah-nipah penajam,"jl propinsi No.km 7, Nipah-Nipah, Penajam, Kabupaten Penajam Paser Utara, Kalimantan Timur 76142","Nipah-Nipah, Penajam, Kabupaten Penajam Paser Utara",KALIMANTAN TIMUR,76142.0,Indonesia, 082152076602,,,-1.29781,116.7395643,https://maps.google.com/?cid=0x0:0x79a68f4209442d87,
hardware store,Layanan Percetakan Undangan,YATAMA MANDIRI,"Jl. Teratai No.RT. 020, Waru, Kec. Waru, Kabupaten Penajam Paser Utara, Kalimantan Timur 76284","Waru, Kec. Waru, Kabupaten Penajam Paser Utara",KALIMANTAN TIMUR,76284.0,Indonesia, 082177719950,,,-1.391838,116.6132431,https://maps.google.com/?cid=0x0:0xabc2a5d084440c83,
hardware store,Toko Bahan Bangunan,Toko Bangunan Tokoku,"Petung, Penajam, Kabupaten Penajam Paser Utara, Kalimantan Timur 76143","Penajam, Kabupaten Penajam Paser Utara",KALIMANTAN TIMUR,76143.0,Indonesia,,,,-1.3773057,116.6490981,https://maps.google.com/?cid=0x0:0x421f29db4b5e2aec,
hardware store,Dealer Motor Bekas,Yamaha Petung - PT. Serba Mulia Auto,"JMW9+WCJ, Giri Mukti, Penajam, Kabupaten Penajam Paser Utara, Kalimantan Timur 76143","Giri Mukti, Penajam, Kabupaten Penajam Paser Utara",KALIMANTAN TIMUR,76143.0,Indonesia, 05427028647,,,-1.3526719,116.6685109,https://maps.google.com/?cid=0x0:0x8e9c2798de8f5b8d,
hardware store,Toko Alat Tulis,Mjc (Mandiri Jaya Com ),"JM7V+33F, Penajam, Kabupaten Penajam Paser Utara, Kalimantan Timur 76143","Penajam, Kabupaten Penajam Paser Utara",KALIMANTAN TIMUR,76143.0,Indonesia, 085343641114,,,-1.3873032,116.6926818,https://maps.google.com/?cid=0x0:0x1877a9bd65f69423,
hardware store,Jasa Konstruksi dan Bangunan,Toko Bangunan Bangun Niaga Raya,"JJ78+FC4, Jl. Sidodadi, Waru, Kec. Waru, Kabupaten Penajam Paser Utara, Kalimantan Timur 76143","Jl. Sidodadi, Waru, Kec. Waru, Kabupaten Penajam Paser Utara",KALIMANTAN TIMUR,76143.0,Indonesia, 081359956965,,,-1.3863615,116.6160927,https://maps.google.com/?cid=0x0:0x5dcbc38363877cfd,
hardware store,Toko Alat Tulis,Sulastri,"JM6R+XR6, Unnamed Road, Penajam, Kabupaten Penajam Paser Utara, Kalimantan Timur 76143","Unnamed Road, Penajam, Kabupaten Penajam Paser Utara",KALIMANTAN TIMUR,76143.0,Indonesia, 085399560114,,,-1.3875929,116.6920054,https://maps.google.com/?cid=0x0:0x2eed53148f617e37,
hardware store,Toko Buku >>u0026 Alat Sekolah,D'Model Enterprise toko fotocopy terdekat,"Jl. Propinsi No.km 18, Giri Mukti, Penajam, Kabupaten Penajam Paser Utara, Kalimantan Timur 76144","Giri Mukti, Penajam, Kabupaten Penajam Paser Utara",KALIMANTAN TIMUR,76144.0,Indonesia, 081351840541,,,-1.3540934,116.6667462,https://maps.google.com/?cid=0x0:0xd3fd21852e836505,
hardware store,Toko Alat Tulis Kantor,Toko SS Cab.Giripurwa,"Jl. giripurwa, Giri Mukti, Penajam, Kabupaten Penajam Paser Utara, Kalimantan Timur 76143","Giri Mukti, Penajam, Kabupaten Penajam Paser Utara",KALIMANTAN TIMUR,76143.0,Indonesia, 081252119741,,,-1.3514966,116.6689448,https://maps.google.com/?cid=0x0:0x1f3f787e967b4ccf,
hardware store,Toko Alat Tulis,Liwa Rayah ( fotocopy and Print ),"Jl. Pariwisata kavling, Giri Mukti, Penajam, Kabupaten Penajam Paser Utara, Kalimantan Timur 76141","Giri Mukti, Penajam, Kabupaten Penajam Paser Utara",KALIMANTAN TIMUR,76141.0,Indonesia,,,,-1.3394183,116.6896708,https://maps.google.com/?cid=0x0:0xa36e557557c442fc,
hardware store,hardware store,Kalimantan Timur 76144,"Penajam, Kabupaten Penajam Paser Utara, Kalimantan Timur","Kabupaten Penajam Paser Utara, Kalimantan Timur",KALIMANTAN TIMUR,,Indonesia,,,,-1.205061,116.5373923,https://maps.google.com/?cid=0x0:0x14dfcfbff172af2f,
hardware store,Toko Bahan Bangunan,"Toko Bangunan Anugrah Property, Kontraktor, Supplier","Sepaku 4 Bukit Raya, Penajam, Kabupaten Penajam Paser Utara, Kalimantan Timur 76141","Penajam, Kabupaten Penajam Paser Utara",KALIMANTAN TIMUR,76141.0,Indonesia, 8228193,,,-1.1955898,116.6604662,https://maps.google.com/?cid=0x0:0x2df67015ef1098da,
hardware store,Toko Cat,Jotun Trubus Steel 2,"Jl. Penajam-Kuaro, Giri Mukti, Penajam, Kabupaten Penajam Paser Utara, Kalimantan Timur 76143","Giri Mukti, Penajam, Kabupaten Penajam Paser Utara",KALIMANTAN TIMUR,76143.0,Indonesia, 081347220680,,,-1.3488314,116.6737486,https://maps.google.com/?cid=0x0:0x9dd3f89d1ac1b25d,
hardware store,Toko Perlengkapan Rumah,Pendawa elektrik,"Jl. Silkar No.km 2.5, Giri Mukti, Penajam, Kabupaten Penajam Paser Utara, Kalimantan Timur","Kabupaten Penajam Paser Utara, Kalimantan Timur",KALIMANTAN TIMUR,,Indonesia, 081350375971,,,-1.3313336,116.6698329,https://maps.google.com/?cid=0x0:0xefe6ba73cfdd62a5,
hardware store,Toko Bahan Bangunan,USAHA BARU JAYA,"Giri Mukti, Penajam, Kabupaten Penajam Paser Utara, Kalimantan Timur 76143","Penajam, Kabupaten Penajam Paser Utara",KALIMANTAN TIMUR,76143.0,Indonesia, 085248256666,,,-1.3471944,116.6770356,https://maps.google.com/?cid=0x0:0x49ff93f654bb9cb9,
hardware store,Toko Bahan Bangunan,TB Karya Utama,"Jl. Penajam-Kuaro No.16, Giri Mukti, Penajam, Kabupaten Penajam Paser Utara, Kalimantan Timur 76143","Giri Mukti, Penajam, Kabupaten Penajam Paser Utara",KALIMANTAN TIMUR,76143.0,Indonesia, 081311515141,,,-1.3381789,116.6875237,https://maps.google.com/?cid=0x0:0x7959d11645401c8c,
hardware store,Toko Bahan Bangunan,"Toko bangunan Bintang Baru, waru","JJ58+26P, Waru, Kec. Waru, Kabupaten Penajam Paser Utara, Kalimantan Timur 76143","Waru, Kec. Waru, Kabupaten Penajam Paser Utara",KALIMANTAN TIMUR,76143.0,Indonesia, 087781689879,,,-1.3924236,116.6155842,https://maps.google.com/?cid=0x0:0xaaafa1bbc44fc9a1,
hardware store,Toko Bahan Bangunan,Toko Bangunan SBN Sinar Bangunan nipah-nipah penajam,"jl propinsi No.km 7, Nipah-Nipah, Penajam, Kabupaten Penajam Paser Utara, Kalimantan Timur 76142","Nipah-Nipah, Penajam, Kabupaten Penajam Paser Utara",KALIMANTAN TIMUR,76142.0,Indonesia, 082152076602,,,-1.29781,116.7395643,https://maps.google.com/?cid=0x0:0x79a68f4209442d87,
hardware store,Toko Bahan Bangunan,toko sinar rezeki,"JMV7+MVG, Jl. Petung, Petung, Penajam, Kabupaten Penajam Paser Utara, Kalimantan Timur 76143","Jl. Petung, Petung, Penajam, Kabupaten Penajam Paser Utara",KALIMANTAN TIMUR,76143.0,Indonesia, 08125373332,,,-1.3558246,116.6646984,https://maps.google.com/?cid=0x0:0xe198b0c82d6c824e,
hardware store,Toko Bahan Bangunan,Toko Alaras Baja Teknik,"Jl. Propinsi, Waru, Kec. Waru, Kabupaten Penajam Paser Utara, Kalimantan Timur 76284","Waru, Kec. Waru, Kabupaten Penajam Paser Utara",KALIMANTAN TIMUR,76284.0,Indonesia, 081241428114,,,-1.3979165,116.6110553,https://maps.google.com/?cid=0x0:0x3b6d5a3579c0bcaf,
hardware store,Layanan Percetakan Undangan,YATAMA MANDIRI,"Jl. Teratai No.RT. 020, Waru, Kec. Waru, Kabupaten Penajam Paser Utara, Kalimantan Timur 76284","Waru, Kec. Waru, Kabupaten Penajam Paser Utara",KALIMANTAN TIMUR,76284.0,Indonesia, 082177719950,,,-1.391838,116.6132431,https://maps.google.com/?cid=0x0:0xabc2a5d084440c83,
hardware store,Toko Perlengkapan Rumah,Mr. DIY,"Babulu Darat, Kec. Babulu, Kabupaten Penajam Paser Utara, Kalimantan Timur 76285","Kec. Babulu, Kabupaten Penajam Paser Utara",KALIMANTAN TIMUR,76285.0,Indonesia,,,,-1.4983065,116.4634859,https://maps.google.com/?cid=0x0:0xd044e8fc3fec5919,
hardware store,Toko Bahan Bangunan,TOKO BANGUNAN MULTI SUMBER RAYA,"Jl. Lapangan No.RT.04, Gn. Seteleng, Penajam, Kabupaten Penajam Paser Utara, Kalimantan Timur 76141","Gn. Seteleng, Penajam, Kabupaten Penajam Paser Utara",KALIMANTAN TIMUR,76141.0,Indonesia,,,,-1.2510438,116.7681878,https://maps.google.com/?cid=0x0:0x4cd71101ecb93c66,
hardware store,Toko Buku >>u0026 Alat Sekolah,D'Model Enterprise toko fotocopy terdekat,"Jl. Propinsi No.km 18, Giri Mukti, Penajam, Kabupaten Penajam Paser Utara, Kalimantan Timur 76144","Giri Mukti, Penajam, Kabupaten Penajam Paser Utara",KALIMANTAN TIMUR,76144.0,Indonesia, 081351840541,,,-1.3540934,116.6667462,https://maps.google.com/?cid=0x0:0xd3fd21852e836505,
hardware store,Toko Alat Tulis,TOKO SS ( fotocopy dan atk),"Jl. Propinsi No.km No.17, Petung, Penajam, Kabupaten Penajam Paser Utara, Kalimantan Timur 76143","Petung, Penajam, Kabupaten Penajam Paser Utara",KALIMANTAN TIMUR,76143.0,Indonesia, 085751518235,,,-1.347576,116.6758691,https://maps.google.com/?cid=0x0:0x95c906a69a3b725c,
hardware store,Toko Perlengkapan Rumah,Budi Bangunan Sepan,"RJVC+4XM, Sepan, Penajam, Kabupaten Penajam Paser Utara, Kalimantan Timur 76145","Sepan, Penajam, Kabupaten Penajam Paser Utara",KALIMANTAN TIMUR,76145.0,Indonesia,,,,-1.1571721,116.6224289,https://maps.google.com/?cid=0x0:0x1236c1609b91e542,
hardware store,Toko Perlengkapan Rumah,Toko Berlian Abadi,"Jl. Propinsi No.km 3, Penajam, Kabupaten Penajam Paser Utara, Kalimantan Timur 76142","Penajam, Kabupaten Penajam Paser Utara",KALIMANTAN TIMUR,76142.0,Indonesia, 083181673940,,,-1.267416,116.7589707,https://maps.google.com/?cid=0x0:0xe8f99fa1de93dfcf,
hardware store,Toko Bahan Bangunan,TOKO BJR TRUSS PENAJAM IKN,"Jl. Propinsi No.5, Penajam, Kabupaten Penajam Paser Utara, Kalimantan Timur 76142","Penajam, Kabupaten Penajam Paser Utara",KALIMANTAN TIMUR,76142.0,Indonesia, 0811545424,,,-1.2619936,116.7648304,https://maps.google.com/?cid=0x0:0x6d057caee41e6f72,
hardware store,Toko Bahan Bangunan,Cerah Hardware Riko,"WJ2P+83, Maridan, Kec. Sepaku, Kabupaten Penajam Paser Utara, Kalimantan Timur 76146","Maridan, Kec. Sepaku, Kabupaten Penajam Paser Utara",KALIMANTAN TIMUR,76146.0,Indonesia,,,,-1.0991494,116.6352461,https://maps.google.com/?cid=0x0:0x179b7778e3c0336f,
hardware store,Toko Bahan Bangunan,Toko candra,"Jalan Propinsi Jl. Ahmad Yani, Riko, Penajam, Kabupaten Penajam Paser Utara, Kalimantan Timur 76146","Riko, Penajam, Kabupaten Penajam Paser Utara",KALIMANTAN TIMUR,76146.0,Indonesia,,,,-1.1252556,116.6348569,https://maps.google.com/?cid=0x0:0x9d24b484042b8d25,
hardware store,Toko Perlengkapan Rumah,toko sheren,"jalan sidorejo No.RT 4, Petung, Penajam, Kabupaten Penajam Paser Utara, Kalimantan Timur 76143","Petung, Penajam, Kabupaten Penajam Paser Utara",KALIMANTAN TIMUR,76143.0,Indonesia, 081251070644,,,-1.3700184,116.6890577,https://maps.google.com/?cid=0x0:0x6852aad8419ebc34,
hardware store,Toko Fotokopi,Rina fotocopy  printing,"Jl. Ahmad Yani No.Kel, RT.009, Sotek, Penajam, Kabupaten Penajam Paser Utara, Kalimantan Timur","Kabupaten Penajam Paser Utara, Kalimantan Timur",KALIMANTAN TIMUR,,Indonesia, 085652021320,,,-1.1870119,116.60916,https://maps.google.com/?cid=0x0:0x9ee1adeed80070fd,
hardware store,Toko Alat Tulis,Liwa Rayah ( fotocopy and Print ),"Jl. Pariwisata kavling, Giri Mukti, Penajam, Kabupaten Penajam Paser Utara, Kalimantan Timur 76141","Giri Mukti, Penajam, Kabupaten Penajam Paser Utara",KALIMANTAN TIMUR,76141.0,Indonesia,,,,-1.3394183,116.6896708,https://maps.google.com/?cid=0x0:0xa36e557557c442fc,
hardware store,hardware store,NICK. ST STORE,"MMG8+RVQ, Jl. Silkar, Lawe-lawe, Penajam, Kabupaten Penajam Paser Utara, Kalimantan Timur","Kabupaten Penajam Paser Utara, Kalimantan Timur",KALIMANTAN TIMUR,,Indonesia, 081522507330,,,-1.3229048,116.6672214,https://maps.google.com/?cid=0x0:0x6049adebfbccce3b,
hardware store,Toko Alat Tulis Kantor,Toko SS Cab.Giripurwa,"Jl. giripurwa, Giri Mukti, Penajam, Kabupaten Penajam Paser Utara, Kalimantan Timur 76143","Giri Mukti, Penajam, Kabupaten Penajam Paser Utara",KALIMANTAN TIMUR,76143.0,Indonesia, 081252119741,,,-1.3514966,116.6689448,https://maps.google.com/?cid=0x0:0x1f3f787e967b4ccf,
hardware store,hardware store,Kalimantan Timur 76145,"Penajam, Kalimantan Timur",Kalimantan Timur,KALIMANTAN TIMUR,,Indonesia,,,,-1.0507183,116.4665975,https://maps.google.com/?cid=0x0:0xd3c9f8cd908cb0af,
hardware store,Toko Bahan Bangunan,Cerah Hardware Riko,"WJ2P+83, Maridan, Kec. Sepaku, Kabupaten Penajam Paser Utara, Kalimantan Timur 76146","Maridan, Kec. Sepaku, Kabupaten Penajam Paser Utara",KALIMANTAN TIMUR,76146.0,Indonesia,,,,-1.0991494,116.6352461,https://maps.google.com/?cid=0x0:0x179b7778e3c0336f,
hardware store,Toko Bahan Bangunan,"Toko Bangunan Anugrah Property, Kontraktor, Supplier","Sepaku 4 Bukit Raya, Penajam, Kabupaten Penajam Paser Utara, Kalimantan Timur 76141","Penajam, Kabupaten Penajam Paser Utara",KALIMANTAN TIMUR,76141.0,Indonesia, 8228193,,,-1.1955898,116.6604662,https://maps.google.com/?cid=0x0:0x2df67015ef1098da,
hardware store,Toko Bahan Bangunan,Toko bangunan Sinar Terang Sepaku 1,"Jl. Negara No.2, Bukit Raya, Kec. Sepaku, Kabupaten Penajam Paser Utara, Kalimantan Timur 76148","Bukit Raya, Kec. Sepaku, Kabupaten Penajam Paser Utara",KALIMANTAN TIMUR,76148.0,Indonesia,,,,-0.9138427,116.7631601,https://maps.google.com/?cid=0x0:0x3159567434a8214d,
hardware store,Jasa Konstruksi dan Bangunan,HH Plafon pvc,"Jln ahmad yani rt 01 samping, Riko, Kabupaten Penajam Paser Utara, Kalimantan Timur","Kabupaten Penajam Paser Utara, Kalimantan Timur",KALIMANTAN TIMUR,,Indonesia, 081219200832,,,-1.1325634,116.6317484,https://maps.google.com/?cid=0x0:0xbbba60a93443b107,
hardware store,Toko Perlengkapan Rumah,Budi Bangunan Sepan,"RJVC+4XM, Sepan, Penajam, Kabupaten Penajam Paser Utara, Kalimantan Timur 76145","Sepan, Penajam, Kabupaten Penajam Paser Utara",KALIMANTAN TIMUR,76145.0,Indonesia,,,,-1.1571721,116.6224289,https://maps.google.com/?cid=0x0:0x1236c1609b91e542,
hardware store,Toko Fotokopi,Rina fotocopy  printing,"Jl. Ahmad Yani No.Kel, RT.009, Sotek, Penajam, Kabupaten Penajam Paser Utara, Kalimantan Timur","Kabupaten Penajam Paser Utara, Kalimantan Timur",KALIMANTAN TIMUR,,Indonesia, 085652021320,,,-1.1870119,116.60916,https://maps.google.com/?cid=0x0:0x9ee1adeed80070fd,
hardware store,Toko Bahan Bangunan,Toko bangunan sumber rejeki sepaku,"Jl. Negara No.RT 12, Bukit Raya, Kec. Sepaku, Kabupaten Penajam Paser Utara, Kalimantan Timur 76148","Bukit Raya, Kec. Sepaku, Kabupaten Penajam Paser Utara",KALIMANTAN TIMUR,76148.0,Indonesia, 085751517129,,,-0.9337399,116.7480046,https://maps.google.com/?cid=0x0:0x4c6c7b7a766b823a,
hardware store,hardware store,Toko Bangunan Nusantara 08,"Yani, Jl. Ahmad Yani, Sukaraja, Kec. Sepaku, Kabupaten Penajam Paser Utara, Kalimantan Timur 76147","Jl. Ahmad Yani, Sukaraja, Kec. Sepaku, Kabupaten Penajam Paser Utara",KALIMANTAN TIMUR,76147.0,Indonesia, 082118941401,,,-0.9068439,116.7725643,https://maps.google.com/?cid=0x0:0x648b5b5545705084,
hardware store,Toko Bahan Bangunan,TOKO BJR TRUSS PENAJAM IKN,"Jl. Propinsi No.5, Penajam, Kabupaten Penajam Paser Utara, Kalimantan Timur 76142","Penajam, Kabupaten Penajam Paser Utara",KALIMANTAN TIMUR,76142.0,Indonesia, 0811545424,,,-1.2619936,116.7648304,https://maps.google.com/?cid=0x0:0x6d057caee41e6f72,
hardware store,Toko Bahan Bangunan,Nusantara Keramik,"Jl. Negara Km. 40 Sepaku 2, Sukaraja, Kabupaten Penajam Paser Utara, Kalimantan Timur 76147","Sukaraja, Kabupaten Penajam Paser Utara",KALIMANTAN TIMUR,76147.0,Indonesia, 081346462204,,,-0.9119399,116.7924768,https://maps.google.com/?cid=0x0:0x7bf243da457867c7,
hardware store,Toko Bahan Bangunan,Distributor silicone sealant IKN,"Jl. Negara No.17, Bumi Harapan, Kec. Sepaku, Kabupaten Penajam Paser Utara, Kalimantan Timur 76147","Bumi Harapan, Kec. Sepaku, Kabupaten Penajam Paser Utara",KALIMANTAN TIMUR,76147.0,Indonesia, 08158052000,,,-0.9642147,116.7289386,https://maps.google.com/?cid=0x0:0xf4d8cbae674a2e08,
hardware store,Toko Bahan Bangunan,Plafon PVC Artha Jaya Sepaku,"Jl. Negara, RW.1, Bukit Raya, Kec. Sepaku, Kabupaten Penajam Paser Utara, Kalimantan Timur 76146","RW.1, Bukit Raya, Kec. Sepaku, Kabupaten Penajam Paser Utara",KALIMANTAN TIMUR,76146.0,Indonesia, 088744755898,,,-0.9155361,116.7624373,https://maps.google.com/?cid=0x0:0x5a743b6de73a8bbe,
hardware store,Toko Bahan Bangunan,Toko Bangunan Ivan Jaya,"2PVQ+QWJ, Jl. Negara, Bumi Harapan, Kec. Sepaku, Kabupaten Penajam Paser Utara, Kalimantan Timur","Kabupaten Penajam Paser Utara, Kalimantan Timur",KALIMANTAN TIMUR,,Indonesia,,,,-0.9555312,116.7397634,https://maps.google.com/?cid=0x0:0x29f3dd932ebc162a,
hardware store,Toko Bahan Bangunan,Toko BANGUN JAYA RAYA / GALLERY TEKNIK,"PQQ7+5X9, Penajam, Kabupaten Penajam Paser Utara, Kalimantan Timur 76142","Penajam, Kabupaten Penajam Paser Utara",KALIMANTAN TIMUR,76142.0,Indonesia, 0811545424,,,-1.2620977,116.7649939,https://maps.google.com/?cid=0x0:0xe08bc4f9c21a385e,
hardware store,hardware store,Kalimantan Timur 76146,"Kabupaten Penajam Paser Utara, Kalimantan Timur","Kabupaten Penajam Paser Utara, Kalimantan Timur",KALIMANTAN TIMUR,,Indonesia,,,,-1.0746392,116.667126,https://maps.google.com/?cid=0x0:0x6092e058892a0e0e,
hardware store,Toko Bahan Bangunan,Cerah Hardware Riko,"WJ2P+83, Maridan, Kec. Sepaku, Kabupaten Penajam Paser Utara, Kalimantan Timur 76146","Maridan, Kec. Sepaku, Kabupaten Penajam Paser Utara",KALIMANTAN TIMUR,76146.0,Indonesia,,,,-1.0991494,116.6352461,https://maps.google.com/?cid=0x0:0x179b7778e3c0336f,
hardware store,Toko Bahan Bangunan,Toko candra,"Jalan Propinsi Jl. Ahmad Yani, Riko, Penajam, Kabupaten Penajam Paser Utara, Kalimantan Timur 76146","Riko, Penajam, Kabupaten Penajam Paser Utara",KALIMANTAN TIMUR,76146.0,Indonesia,,,,-1.1252556,116.6348569,https://maps.google.com/?cid=0x0:0x9d24b484042b8d25,
hardware store,Toko Bahan Bangunan,"Toko Bangunan Anugrah Property, Kontraktor, Supplier","Sepaku 4 Bukit Raya, Penajam, Kabupaten Penajam Paser Utara, Kalimantan Timur 76141","Penajam, Kabupaten Penajam Paser Utara",KALIMANTAN TIMUR,76141.0,Indonesia, 8228193,,,-1.1955898,116.6604662,https://maps.google.com/?cid=0x0:0x2df67015ef1098da,
hardware store,Toko Alat Tulis Kantor,Toko Obat dan Fotocopy Aryanda,"Jln. PT.ITCI No.km.6, Simpang Tiga, Desa Telemow, Kabupaten Penajam Paser Utara, Kalimantan Timur 76146","Simpang Tiga, Desa Telemow, Kabupaten Penajam Paser Utara",KALIMANTAN TIMUR,76146.0,Indonesia, 08561775999,,,-1.0821326,116.683004,https://maps.google.com/?cid=0x0:0x75079470189cc1a8,
hardware store,Toko Elektronik,Toko Bangunan  elektronik STK,"Maridan, Kec. Sepaku, Kabupaten Penajam Paser Utara, Kalimantan Timur 76146","Kec. Sepaku, Kabupaten Penajam Paser Utara",KALIMANTAN TIMUR,76146.0,Indonesia, 082182357020,,,-1.0944601,116.6895181,https://maps.google.com/?cid=0x0:0x2f612f96bc7e742f,
hardware store,Toko Bahan Bangunan,TOKO BANGUNAN MULTI SUMBER RAYA,"Jl. Lapangan No.RT.04, Gn. Seteleng, Penajam, Kabupaten Penajam Paser Utara, Kalimantan Timur 76141","Gn. Seteleng, Penajam, Kabupaten Penajam Paser Utara",KALIMANTAN TIMUR,76141.0,Indonesia,,,,-1.2510438,116.7681878,https://maps.google.com/?cid=0x0:0x4cd71101ecb93c66,
hardware store,Toko Perlengkapan Rumah,Pendawa elektrik,"Jl. Silkar No.km 2.5, Giri Mukti, Penajam, Kabupaten Penajam Paser Utara, Kalimantan Timur","Kabupaten Penajam Paser Utara, Kalimantan Timur",KALIMANTAN TIMUR,,Indonesia, 081350375971,,,-1.3313336,116.6698329,https://maps.google.com/?cid=0x0:0xefe6ba73cfdd62a5,
hardware store,Toko Bahan Bangunan,Toko bangunan Sinar Terang Sepaku 1,"Jl. Negara No.2, Bukit Raya, Kec. Sepaku, Kabupaten Penajam Paser Utara, Kalimantan Timur 76148","Bukit Raya, Kec. Sepaku, Kabupaten Penajam Paser Utara",KALIMANTAN TIMUR,76148.0,Indonesia,,,,-0.9138427,116.7631601,https://maps.google.com/?cid=0x0:0x3159567434a8214d,
hardware store,Toko Bahan Bangunan,TB Karya Utama,"Jl. Penajam-Kuaro No.16, Giri Mukti, Penajam, Kabupaten Penajam Paser Utara, Kalimantan Timur 76143","Giri Mukti, Penajam, Kabupaten Penajam Paser Utara",KALIMANTAN TIMUR,76143.0,Indonesia, 081311515141,,,-1.3381789,116.6875237,https://maps.google.com/?cid=0x0:0x7959d11645401c8c,
hardware store,Toko Bahan Bangunan,Plafon PVC Artha Jaya Sepaku,"Jl. Negara, RW.1, Bukit Raya, Kec. Sepaku, Kabupaten Penajam Paser Utara, Kalimantan Timur 76146","RW.1, Bukit Raya, Kec. Sepaku, Kabupaten Penajam Paser Utara",KALIMANTAN TIMUR,76146.0,Indonesia, 088744755898,,,-0.9155361,116.7624373,https://maps.google.com/?cid=0x0:0x5a743b6de73a8bbe,
hardware store,Toko Bahan Bangunan,Toko Bangunan Ivan Jaya,"2PVQ+QWJ, Jl. Negara, Bumi Harapan, Kec. Sepaku, Kabupaten Penajam Paser Utara, Kalimantan Timur","Kabupaten Penajam Paser Utara, Kalimantan Timur",KALIMANTAN TIMUR,,Indonesia,,,,-0.9555312,116.7397634,https://maps.google.com/?cid=0x0:0x29f3dd932ebc162a,
hardware store,Toko Cat,Jotun Trubus Steel 2,"Jl. Penajam-Kuaro, Giri Mukti, Penajam, Kabupaten Penajam Paser Utara, Kalimantan Timur 76143","Giri Mukti, Penajam, Kabupaten Penajam Paser Utara",KALIMANTAN TIMUR,76143.0,Indonesia, 081347220680,,,-1.3488314,116.6737486,https://maps.google.com/?cid=0x0:0x9dd3f89d1ac1b25d,
hardware store,Toko Bahan Bangunan,TB Borneo Raya,"Jl. Penajam-Kuaro barat, Babulu Darat, Kec. Babulu, Kabupaten Penajam Paser Utara, Kalimantan Timur 76285","Babulu Darat, Kec. Babulu, Kabupaten Penajam Paser Utara",KALIMANTAN TIMUR,76285.0,Indonesia, 081282798289,,,-1.4995739,116.4612082,https://maps.google.com/?cid=0x0:0x3fc4b39b433d7ab6,
hardware store,Toko Perlengkapan Rumah,Budi Bangunan Sepan,"RJVC+4XM, Sepan, Penajam, Kabupaten Penajam Paser Utara, Kalimantan Timur 76145","Sepan, Penajam, Kabupaten Penajam Paser Utara",KALIMANTAN TIMUR,76145.0,Indonesia,,,,-1.1571721,116.6224289,https://maps.google.com/?cid=0x0:0x1236c1609b91e542,
hardware store,Toko Bahan Bangunan,USAHA BARU JAYA,"Giri Mukti, Penajam, Kabupaten Penajam Paser Utara, Kalimantan Timur 76143","Penajam, Kabupaten Penajam Paser Utara",KALIMANTAN TIMUR,76143.0,Indonesia, 085248256666,,,-1.3471944,116.6770356,https://maps.google.com/?cid=0x0:0x49ff93f654bb9cb9,
hardware store,Toko Bahan Bangunan,TB. Panca Tunggal Putra,"Jl. Propinsi Penajam - kuaro Lampi, Kayungo, Kec. Long Ikis, Kabupaten Paser, Kalimantan Timur 76282","Kayungo, Kec. Long Ikis, Kabupaten Paser",KALIMANTAN TIMUR,76282.0,Indonesia, 085244103320,,,-1.5702375,116.2115935,https://maps.google.com/?cid=0x0:0xdb811e9cf71832a0,
hardware store,Toko Bahan Bangunan,Toko bangunan sumber rejeki sepaku,"Jl. Negara No.RT 12, Bukit Raya, Kec. Sepaku, Kabupaten Penajam Paser Utara, Kalimantan Timur 76148","Bukit Raya, Kec. Sepaku, Kabupaten Penajam Paser Utara",KALIMANTAN TIMUR,76148.0,Indonesia, 085751517129,,,-0.9337399,116.7480046,https://maps.google.com/?cid=0x0:0x4c6c7b7a766b823a,
hardware store,Toko Bahan Bangunan,Toko Bangunan SBN Sinar Bangunan nipah-nipah penajam,"jl propinsi No.km 7, Nipah-Nipah, Penajam, Kabupaten Penajam Paser Utara, Kalimantan Timur 76142","Nipah-Nipah, Penajam, Kabupaten Penajam Paser Utara",KALIMANTAN TIMUR,76142.0,Indonesia, 082152076602,,,-1.29781,116.7395643,https://maps.google.com/?cid=0x0:0x79a68f4209442d87,
hardware store,Toko,MR.DIY,"Jl. Provinsi KM 19 No.23, RT.023/RW.019, Petung, Penajam, Penajam North Paser Regency, East Kalimantan 76143","RT.023/RW.019, Petung, Penajam, Penajam North Paser Regency",KALIMANTAN TIMUR,76143.0,Indonesia,,,,-1.361375,116.6583354,https://maps.google.com/?cid=0x0:0xfd5dffb5f32a55df,
hardware store,Toko Perlengkapan Rumah,Toko Berlian Abadi,"Jl. Propinsi No.km 3, Penajam, Kabupaten Penajam Paser Utara, Kalimantan Timur 76142","Penajam, Kabupaten Penajam Paser Utara",KALIMANTAN TIMUR,76142.0,Indonesia, 083181673940,,,-1.267416,116.7589707,https://maps.google.com/?cid=0x0:0xe8f99fa1de93dfcf,
hardware store,Toko Bahan Bangunan,"Toko bangunan Bintang Baru, waru","JJ58+26P, Waru, Kec. Waru, Kabupaten Penajam Paser Utara, Kalimantan Timur 76143","Waru, Kec. Waru, Kabupaten Penajam Paser Utara",KALIMANTAN TIMUR,76143.0,Indonesia, 087781689879,,,-1.3924236,116.6155842,https://maps.google.com/?cid=0x0:0xaaafa1bbc44fc9a1,
hardware store,hardware store,Kalimantan Timur 76146,"Kabupaten Penajam Paser Utara, Kalimantan Timur","Kabupaten Penajam Paser Utara, Kalimantan Timur",KALIMANTAN TIMUR,,Indonesia,,,,-1.0746392,116.667126,https://maps.google.com/?cid=0x0:0x6092e058892a0e0e,
hardware store,Toko Bahan Bangunan,Cerah Hardware Riko,"WJ2P+83, Maridan, Kec. Sepaku, Kabupaten Penajam Paser Utara, Kalimantan Timur 76146","Maridan, Kec. Sepaku, Kabupaten Penajam Paser Utara",KALIMANTAN TIMUR,76146.0,Indonesia,,,,-1.0991494,116.6352461,https://maps.google.com/?cid=0x0:0x179b7778e3c0336f,
hardware store,Toko Bahan Bangunan,"Toko Bangunan Anugrah Property, Kontraktor, Supplier","Sepaku 4 Bukit Raya, Penajam, Kabupaten Penajam Paser Utara, Kalimantan Timur 76141","Penajam, Kabupaten Penajam Paser Utara",KALIMANTAN TIMUR,76141.0,Indonesia, 8228193,,,-1.1955898,116.6604662,https://maps.google.com/?cid=0x0:0x2df67015ef1098da,
hardware store,Jasa Konstruksi dan Bangunan,HH Plafon pvc,"Jln ahmad yani rt 01 samping, Riko, Kabupaten Penajam Paser Utara, Kalimantan Timur","Kabupaten Penajam Paser Utara, Kalimantan Timur",KALIMANTAN TIMUR,,Indonesia, 081219200832,,,-1.1325634,116.6317484,https://maps.google.com/?cid=0x0:0xbbba60a93443b107,
hardware store,hardware store,Kec. Sepaku,"Kabupaten Penajam Paser Utara, Kalimantan Timur","Kabupaten Penajam Paser Utara, Kalimantan Timur",KALIMANTAN TIMUR,,Indonesia,,,,-0.9111488,116.749645,https://maps.google.com/?cid=0x0:0xb301fc67903cf08a,
hardware store,Toko Bahan Bangunan,Toko bangunan Sinar Terang Sepaku 1,"Jl. Negara No.2, Bukit Raya, Kec. Sepaku, Kabupaten Penajam Paser Utara, Kalimantan Timur 76148","Bukit Raya, Kec. Sepaku, Kabupaten Penajam Paser Utara",KALIMANTAN TIMUR,76148.0,Indonesia,,,,-0.9138427,116.7631601,https://maps.google.com/?cid=0x0:0x3159567434a8214d,
hardware store,Toko Bahan Bangunan,Toko bangunan sumber rejeki sepaku,"Jl. Negara No.RT 12, Bukit Raya, Kec. Sepaku, Kabupaten Penajam Paser Utara, Kalimantan Timur 76148","Bukit Raya, Kec. Sepaku, Kabupaten Penajam Paser Utara",KALIMANTAN TIMUR,76148.0,Indonesia, 085751517129,,,-0.9337399,116.7480046,https://maps.google.com/?cid=0x0:0x4c6c7b7a766b823a,
hardware store,Toko Bahan Bangunan,Plafon PVC Artha Jaya Sepaku,"Jl. Negara, RW.1, Bukit Raya, Kec. Sepaku, Kabupaten Penajam Paser Utara, Kalimantan Timur 76146","RW.1, Bukit Raya, Kec. Sepaku, Kabupaten Penajam Paser Utara",KALIMANTAN TIMUR,76146.0,Indonesia, 088744755898,,,-0.9155361,116.7624373,https://maps.google.com/?cid=0x0:0x5a743b6de73a8bbe,
hardware store,Toko Elektronik,Toko Bangunan  elektronik STK,"Maridan, Kec. Sepaku, Kabupaten Penajam Paser Utara, Kalimantan Timur 76146","Kec. Sepaku, Kabupaten Penajam Paser Utara",KALIMANTAN TIMUR,76146.0,Indonesia, 082182357020,,,-1.0944601,116.6895181,https://maps.google.com/?cid=0x0:0x2f612f96bc7e742f,
hardware store,Toko Bahan Bangunan,Toko Bangunan Ivan Jaya,"2PVQ+QWJ, Jl. Negara, Bumi Harapan, Kec. Sepaku, Kabupaten Penajam Paser Utara, Kalimantan Timur","Kabupaten Penajam Paser Utara, Kalimantan Timur",KALIMANTAN TIMUR,,Indonesia,,,,-0.9555312,116.7397634,https://maps.google.com/?cid=0x0:0x29f3dd932ebc162a,
hardware store,hardware store,Toko Bangunan Nusantara 08,"Yani, Jl. Ahmad Yani, Sukaraja, Kec. Sepaku, Kabupaten Penajam Paser Utara, Kalimantan Timur 76147","Jl. Ahmad Yani, Sukaraja, Kec. Sepaku, Kabupaten Penajam Paser Utara",KALIMANTAN TIMUR,76147.0,Indonesia, 082118941401,,,-0.9068439,116.7725643,https://maps.google.com/?cid=0x0:0x648b5b5545705084,
hardware store,Toko Bahan Bangunan,Distributor silicone sealant IKN,"Jl. Negara No.17, Bumi Harapan, Kec. Sepaku, Kabupaten Penajam Paser Utara, Kalimantan Timur 76147","Bumi Harapan, Kec. Sepaku, Kabupaten Penajam Paser Utara",KALIMANTAN TIMUR,76147.0,Indonesia, 08158052000,,,-0.9642147,116.7289386,https://maps.google.com/?cid=0x0:0xf4d8cbae674a2e08,
hardware store,Toko Bahan Bangunan,toko bangunan,"3QG4+G5W, Bukit Raya, Kec. Sepaku, Kabupaten Penajam Paser Utara, Kalimantan Timur","Kabupaten Penajam Paser Utara, Kalimantan Timur",KALIMANTAN TIMUR,,Indonesia,,,,-0.9244444,116.7549444,https://maps.google.com/?cid=0x0:0x53f0586c0d5215d6,
hardware store,Toko Bahan Bangunan,Nusantara Keramik,"Jl. Negara Km. 40 Sepaku 2, Sukaraja, Kabupaten Penajam Paser Utara, Kalimantan Timur 76147","Sukaraja, Kabupaten Penajam Paser Utara",KALIMANTAN TIMUR,76147.0,Indonesia, 081346462204,,,-0.9119399,116.7924768,https://maps.google.com/?cid=0x0:0x7bf243da457867c7,
hardware store,Toko Perlengkapan Rumah,Budi Bangunan Sepan,"RJVC+4XM, Sepan, Penajam, Kabupaten Penajam Paser Utara, Kalimantan Timur 76145","Sepan, Penajam, Kabupaten Penajam Paser Utara",KALIMANTAN TIMUR,76145.0,Indonesia,,,,-1.1571721,116.6224289,https://maps.google.com/?cid=0x0:0x1236c1609b91e542,
hardware store,Toko Perlengkapan Rumah,N'Shop (perabotan homestore),"2VXQ+WMP, Semoi Dua, Kec. Sepaku, Kabupaten Penajam Paser Utara, Kalimantan Timur 76147","Semoi Dua, Kec. Sepaku, Kabupaten Penajam Paser Utara",KALIMANTAN TIMUR,76147.0,Indonesia, 081255591127,,,-0.950152,116.888432,https://maps.google.com/?cid=0x0:0x5438e2245bb0241c,
hardware store,Toko Perlengkapan Rumah,TB. Putri Pandawa,"3RMW+F87, Jl. Negara, Argo Mulyo, Kec. Sepaku, Kabupaten Penajam Paser Utara, Kalimantan Timur 76147","Jl. Negara, Argo Mulyo, Kec. Sepaku, Kabupaten Penajam Paser Utara",KALIMANTAN TIMUR,76147.0,Indonesia,,,,-0.9163345,116.8457392,https://maps.google.com/?cid=0x0:0x6f2d10fe64617e4f,
hardware store,Toko Bahan Bangunan,TB Sinar Terang Nusantara,"Jl. Danau Maninjau, Bukit Raya, Kec. Sepaku, Kabupaten Penajam Paser Utara, Kalimantan Timur 76147","Bukit Raya, Kec. Sepaku, Kabupaten Penajam Paser Utara",KALIMANTAN TIMUR,76147.0,Indonesia,,,,-0.9168878,116.7587592,https://maps.google.com/?cid=0x0:0x53aaf96fbf8cdfc9,
hardware store,Toko Alat Tulis Kantor,Santoso Jaya Abadi Fotocopy,"WM8J+Q4G, Unnamed Road, Maridan, Kec. Sepaku, Kabupaten Penajam Paser Utara, Kalimantan Timur 76146","Unnamed Road, Maridan, Kec. Sepaku, Kabupaten Penajam Paser Utara",KALIMANTAN TIMUR,76146.0,Indonesia, 081345103450,,,-1.0830679,116.6803137,https://maps.google.com/?cid=0x0:0xfb09b2c777cfd478,
hardware store,Toko Alat Tulis Kantor,Toko Obat dan Fotocopy Aryanda,"Jln. PT.ITCI No.km.6, Simpang Tiga, Desa Telemow, Kabupaten Penajam Paser Utara, Kalimantan Timur 76146","Simpang Tiga, Desa Telemow, Kabupaten Penajam Paser Utara",KALIMANTAN TIMUR,76146.0,Indonesia, 08561775999,,,-1.0821326,116.683004,https://maps.google.com/?cid=0x0:0x75079470189cc1a8,
hardware store,Toko Alat Tulis Kantor,Fotokopi Shaka Media,"Semoi Dua, Kec. Sepaku, Kabupaten Penajam Paser Utara, Kalimantan Timur 76147","Kec. Sepaku, Kabupaten Penajam Paser Utara",KALIMANTAN TIMUR,76147.0,Indonesia,,,,-0.9525158,116.8910884,https://maps.google.com/?cid=0x0:0x7ccbdacb4c26cba2,
hardware store,hardware store,Kalimantan Timur 76147,"Kec. Sepaku, Kabupaten Penajam Paser Utara, Kalimantan Timur","Kabupaten Penajam Paser Utara, Kalimantan Timur",KALIMANTAN TIMUR,,Indonesia,,,,-0.9803829,116.6553351,https://maps.google.com/?cid=0x0:0x9738d24775d3bf7a,
hardware store,Toko Bahan Bangunan,Toko bangunan Sinar Terang Sepaku 1,"Jl. Negara No.2, Bukit Raya, Kec. Sepaku, Kabupaten Penajam Paser Utara, Kalimantan Timur 76148","Bukit Raya, Kec. Sepaku, Kabupaten Penajam Paser Utara",KALIMANTAN TIMUR,76148.0,Indonesia,,,,-0.9138427,116.7631601,https://maps.google.com/?cid=0x0:0x3159567434a8214d,
hardware store,Toko Bahan Bangunan,Toko bangunan sumber rejeki sepaku,"Jl. Negara No.RT 12, Bukit Raya, Kec. Sepaku, Kabupaten Penajam Paser Utara, Kalimantan Timur 76148","Bukit Raya, Kec. Sepaku, Kabupaten Penajam Paser Utara",KALIMANTAN TIMUR,76148.0,Indonesia, 085751517129,,,-0.9337399,116.7480046,https://maps.google.com/?cid=0x0:0x4c6c7b7a766b823a,
hardware store,hardware store,Toko Bangunan Nusantara 08,"Yani, Jl. Ahmad Yani, Sukaraja, Kec. Sepaku, Kabupaten Penajam Paser Utara, Kalimantan Timur 76147","Jl. Ahmad Yani, Sukaraja, Kec. Sepaku, Kabupaten Penajam Paser Utara",KALIMANTAN TIMUR,76147.0,Indonesia, 082118941401,,,-0.9068439,116.7725643,https://maps.google.com/?cid=0x0:0x648b5b5545705084,
hardware store,Toko Bahan Bangunan,Toko Bangunan Ivan Jaya,"2PVQ+QWJ, Jl. Negara, Bumi Harapan, Kec. Sepaku, Kabupaten Penajam Paser Utara, Kalimantan Timur","Kabupaten Penajam Paser Utara, Kalimantan Timur",KALIMANTAN TIMUR,,Indonesia,,,,-0.9555312,116.7397634,https://maps.google.com/?cid=0x0:0x29f3dd932ebc162a,
hardware store,Toko Bahan Bangunan,TB IIN SEKAWAN,"3RQ4+4J9, Jl. Negara, Tengin Baru, Kec. Sepaku, Kabupaten Penajam Paser Utara, Kalimantan Timur 76147","Jl. Negara, Tengin Baru, Kec. Sepaku, Kabupaten Penajam Paser Utara",KALIMANTAN TIMUR,76147.0,Indonesia, 085381216569,,,-0.9122189,116.8065948,https://maps.google.com/?cid=0x0:0x2773c034b47b452c,
hardware store,Toko Bahan Bangunan,Distributor silicone sealant IKN,"Jl. Negara No.17, Bumi Harapan, Kec. Sepaku, Kabupaten Penajam Paser Utara, Kalimantan Timur 76147","Bumi Harapan, Kec. Sepaku, Kabupaten Penajam Paser Utara",KALIMANTAN TIMUR,76147.0,Indonesia, 08158052000,,,-0.9642147,116.7289386,https://maps.google.com/?cid=0x0:0xf4d8cbae674a2e08,
hardware store,Toko Bahan Bangunan,Cerah Hardware Riko,"WJ2P+83, Maridan, Kec. Sepaku, Kabupaten Penajam Paser Utara, Kalimantan Timur 76146","Maridan, Kec. Sepaku, Kabupaten Penajam Paser Utara",KALIMANTAN TIMUR,76146.0,Indonesia,,,,-1.0991494,116.6352461,https://maps.google.com/?cid=0x0:0x179b7778e3c0336f,
hardware store,Toko Bahan Bangunan,Nusantara Keramik,"Jl. Negara Km. 40 Sepaku 2, Sukaraja, Kabupaten Penajam Paser Utara, Kalimantan Timur 76147","Sukaraja, Kabupaten Penajam Paser Utara",KALIMANTAN TIMUR,76147.0,Indonesia, 081346462204,,,-0.9119399,116.7924768,https://maps.google.com/?cid=0x0:0x7bf243da457867c7,
hardware store,Toko Bahan Bangunan,"Toko Bangunan Anugrah Property, Kontraktor, Supplier","Sepaku 4 Bukit Raya, Penajam, Kabupaten Penajam Paser Utara, Kalimantan Timur 76141","Penajam, Kabupaten Penajam Paser Utara",KALIMANTAN TIMUR,76141.0,Indonesia, 8228193,,,-1.1955898,116.6604662,https://maps.google.com/?cid=0x0:0x2df67015ef1098da,
hardware store,Toko Bahan Bangunan,Toko bangunan mitra mandiri,"Sepaku, Kec. Sepaku, Kabupaten Penajam Paser Utara, Kalimantan Timur 76147","Kec. Sepaku, Kabupaten Penajam Paser Utara",KALIMANTAN TIMUR,76147.0,Indonesia, 081322522074,,,-0.9068861,116.765928,https://maps.google.com/?cid=0x0:0x570dff914b9f192f,
hardware store,Toko Perlengkapan Rumah,N'Shop (perabotan homestore),"2VXQ+WMP, Semoi Dua, Kec. Sepaku, Kabupaten Penajam Paser Utara, Kalimantan Timur 76147","Semoi Dua, Kec. Sepaku, Kabupaten Penajam Paser Utara",KALIMANTAN TIMUR,76147.0,Indonesia, 081255591127,,,-0.950152,116.888432,https://maps.google.com/?cid=0x0:0x5438e2245bb0241c,
hardware store,Toko Bahan Bangunan,TB Sinar Terang Nusantara,"Jl. Danau Maninjau, Bukit Raya, Kec. Sepaku, Kabupaten Penajam Paser Utara, Kalimantan Timur 76147","Bukit Raya, Kec. Sepaku, Kabupaten Penajam Paser Utara",KALIMANTAN TIMUR,76147.0,Indonesia,,,,-0.9168878,116.7587592,https://maps.google.com/?cid=0x0:0x53aaf96fbf8cdfc9,
hardware store,Toko Perlengkapan Rumah,TB. Putri Pandawa,"3RMW+F87, Jl. Negara, Argo Mulyo, Kec. Sepaku, Kabupaten Penajam Paser Utara, Kalimantan Timur 76147","Jl. Negara, Argo Mulyo, Kec. Sepaku, Kabupaten Penajam Paser Utara",KALIMANTAN TIMUR,76147.0,Indonesia,,,,-0.9163345,116.8457392,https://maps.google.com/?cid=0x0:0x6f2d10fe64617e4f,
hardware store,Toko Alat Tulis Kantor,Fotokopi Shaka Media,"Semoi Dua, Kec. Sepaku, Kabupaten Penajam Paser Utara, Kalimantan Timur 76147","Kec. Sepaku, Kabupaten Penajam Paser Utara",KALIMANTAN TIMUR,76147.0,Indonesia,,,,-0.9525158,116.8910884,https://maps.google.com/?cid=0x0:0x7ccbdacb4c26cba2,
hardware store,Toko Elektronik,Toko Bangunan  elektronik STK,"Maridan, Kec. Sepaku, Kabupaten Penajam Paser Utara, Kalimantan Timur 76146","Kec. Sepaku, Kabupaten Penajam Paser Utara",KALIMANTAN TIMUR,76146.0,Indonesia, 082182357020,,,-1.0944601,116.6895181,https://maps.google.com/?cid=0x0:0x2f612f96bc7e742f,
hardware store,Toko Bahan Bangunan,toko bangunan,"3QG4+G5W, Bukit Raya, Kec. Sepaku, Kabupaten Penajam Paser Utara, Kalimantan Timur","Kabupaten Penajam Paser Utara, Kalimantan Timur",KALIMANTAN TIMUR,,Indonesia,,,,-0.9244444,116.7549444,https://maps.google.com/?cid=0x0:0x53f0586c0d5215d6,
hardware store,Toko Bahan Bangunan,Toko bangunan Sinar Terang Sepaku 1,"Jl. Negara No.2, Bukit Raya, Kec. Sepaku, Kabupaten Penajam Paser Utara, Kalimantan Timur 76148","Bukit Raya, Kec. Sepaku, Kabupaten Penajam Paser Utara",KALIMANTAN TIMUR,76148.0,Indonesia,,,,-0.9138427,116.7631601,https://maps.google.com/?cid=0x0:0x3159567434a8214d,
hardware store,Toko Bahan Bangunan,Toko bangunan sumber rejeki sepaku,"Jl. Negara No.RT 12, Bukit Raya, Kec. Sepaku, Kabupaten Penajam Paser Utara, Kalimantan Timur 76148","Bukit Raya, Kec. Sepaku, Kabupaten Penajam Paser Utara",KALIMANTAN TIMUR,76148.0,Indonesia, 085751517129,,,-0.9337399,116.7480046,https://maps.google.com/?cid=0x0:0x4c6c7b7a766b823a,
hardware store,Kedai Kopi,Budi Gembol,"Jl. Negara No.2, Bukit Raya, Kec. Sepaku, Kabupaten Penajam Paser Utara, Kalimantan Timur 76148","Bukit Raya, Kec. Sepaku, Kabupaten Penajam Paser Utara",KALIMANTAN TIMUR,76148.0,Indonesia,,,,-0.9168539,116.7633521,https://maps.google.com/?cid=0x0:0x2ca8a5a043f0564a,
hardware store,Toko Bahan Bangunan,Cerah Hardware Riko,"WJ2P+83, Maridan, Kec. Sepaku, Kabupaten Penajam Paser Utara, Kalimantan Timur 76146","Maridan, Kec. Sepaku, Kabupaten Penajam Paser Utara",KALIMANTAN TIMUR,76146.0,Indonesia,,,,-1.0991494,116.6352461,https://maps.google.com/?cid=0x0:0x179b7778e3c0336f,
hardware store,Toko Bahan Bangunan,Plafon PVC Artha Jaya Sepaku,"Jl. Negara, RW.1, Bukit Raya, Kec. Sepaku, Kabupaten Penajam Paser Utara, Kalimantan Timur 76146","RW.1, Bukit Raya, Kec. Sepaku, Kabupaten Penajam Paser Utara",KALIMANTAN TIMUR,76146.0,Indonesia, 088744755898,,,-0.9155361,116.7624373,https://maps.google.com/?cid=0x0:0x5a743b6de73a8bbe,
hardware store,Toko Bahan Bangunan,Toko Bangunan Ivan Jaya,"2PVQ+QWJ, Jl. Negara, Bumi Harapan, Kec. Sepaku, Kabupaten Penajam Paser Utara, Kalimantan Timur","Kabupaten Penajam Paser Utara, Kalimantan Timur",KALIMANTAN TIMUR,,Indonesia,,,,-0.9555312,116.7397634,https://maps.google.com/?cid=0x0:0x29f3dd932ebc162a,
hardware store,hardware store,Toko Bangunan Nusantara 08,"Yani, Jl. Ahmad Yani, Sukaraja, Kec. Sepaku, Kabupaten Penajam Paser Utara, Kalimantan Timur 76147","Jl. Ahmad Yani, Sukaraja, Kec. Sepaku, Kabupaten Penajam Paser Utara",KALIMANTAN TIMUR,76147.0,Indonesia, 082118941401,,,-0.9068439,116.7725643,https://maps.google.com/?cid=0x0:0x648b5b5545705084,
hardware store,Toko Bahan Bangunan,Distributor silicone sealant IKN,"Jl. Negara No.17, Bumi Harapan, Kec. Sepaku, Kabupaten Penajam Paser Utara, Kalimantan Timur 76147","Bumi Harapan, Kec. Sepaku, Kabupaten Penajam Paser Utara",KALIMANTAN TIMUR,76147.0,Indonesia, 08158052000,,,-0.9642147,116.7289386,https://maps.google.com/?cid=0x0:0xf4d8cbae674a2e08,
hardware store,Toko Bahan Bangunan,"Toko Bangunan Anugrah Property, Kontraktor, Supplier","Sepaku 4 Bukit Raya, Penajam, Kabupaten Penajam Paser Utara, Kalimantan Timur 76141","Penajam, Kabupaten Penajam Paser Utara",KALIMANTAN TIMUR,76141.0,Indonesia, 8228193,,,-1.1955898,116.6604662,https://maps.google.com/?cid=0x0:0x2df67015ef1098da,
hardware store,hardware store,Kalimantan Timur 76149,"Kariangau, Kec. Balikpapan Bar., Kota Balikpapan, Kalimantan Timur","Kota Balikpapan, Kalimantan Timur",KALIMANTAN TIMUR,,Indonesia,,,,-1.0735268,116.7850009,https://maps.google.com/?cid=0x0:0x4534af6d88473e34,
hardware store,Toko Bahan Bangunan,Toko bangunan Sinar Terang Sepaku 1,"Jl. Negara No.2, Bukit Raya, Kec. Sepaku, Kabupaten Penajam Paser Utara, Kalimantan Timur 76148","Bukit Raya, Kec. Sepaku, Kabupaten Penajam Paser Utara",KALIMANTAN TIMUR,76148.0,Indonesia,,,,-0.9138427,116.7631601,https://maps.google.com/?cid=0x0:0x3159567434a8214d,
hardware store,Toko Bahan Bangunan,Cerah Hardware Riko,"WJ2P+83, Maridan, Kec. Sepaku, Kabupaten Penajam Paser Utara, Kalimantan Timur 76146","Maridan, Kec. Sepaku, Kabupaten Penajam Paser Utara",KALIMANTAN TIMUR,76146.0,Indonesia,,,,-1.0991494,116.6352461,https://maps.google.com/?cid=0x0:0x179b7778e3c0336f,
hardware store,Kedai Kopi,Budi Gembol,"Jl. Negara No.2, Bukit Raya, Kec. Sepaku, Kabupaten Penajam Paser Utara, Kalimantan Timur 76148","Bukit Raya, Kec. Sepaku, Kabupaten Penajam Paser Utara",KALIMANTAN TIMUR,76148.0,Indonesia,,,,-0.9168539,116.7633521,https://maps.google.com/?cid=0x0:0x2ca8a5a043f0564a,
hardware store,Toko Elektronik,Toko Bangunan  elektronik STK,"Maridan, Kec. Sepaku, Kabupaten Penajam Paser Utara, Kalimantan Timur 76146","Kec. Sepaku, Kabupaten Penajam Paser Utara",KALIMANTAN TIMUR,76146.0,Indonesia, 082182357020,,,-1.0944601,116.6895181,https://maps.google.com/?cid=0x0:0x2f612f96bc7e742f,
hardware store,Toko Bahan Bangunan,"Toko bangunan Bintang Baru, waru","JJ58+26P, Waru, Kec. Waru, Kabupaten Penajam Paser Utara, Kalimantan Timur 76143","Waru, Kec. Waru, Kabupaten Penajam Paser Utara",KALIMANTAN TIMUR,76143.0,Indonesia, 087781689879,,,-1.3924236,116.6155842,https://maps.google.com/?cid=0x0:0xaaafa1bbc44fc9a1,
hardware store,Toko bahan makanan,TOKO BERKAH MULIA,"Waru, Kec. Waru, Kabupaten Penajam Paser Utara, Kalimantan Timur 76284","Kec. Waru, Kabupaten Penajam Paser Utara",KALIMANTAN TIMUR,76284.0,Indonesia, 085828583579,,,-1.4031516,116.6059228,https://maps.google.com/?cid=0x0:0x8fd3cceaf6065d4a,
hardware store,Toko Perlengkapan Rumah,Mr. DIY,"Babulu Darat, Kec. Babulu, Kabupaten Penajam Paser Utara, Kalimantan Timur 76285","Kec. Babulu, Kabupaten Penajam Paser Utara",KALIMANTAN TIMUR,76285.0,Indonesia,,,,-1.4983065,116.4634859,https://maps.google.com/?cid=0x0:0xd044e8fc3fec5919,
hardware store,hardware store,,,,KALIMANTAN TIMUR,,Indonesia, 085777883592,,,-2.44565,117.8888,https://maps.google.com/?cid=0x0:0xbf54891ed7e24812,
hardware store,Toko Bahan Bangunan,TB Karya Utama,"Jl. Penajam-Kuaro No.16, Giri Mukti, Penajam, Kabupaten Penajam Paser Utara, Kalimantan Timur 76143","Giri Mukti, Penajam, Kabupaten Penajam Paser Utara",KALIMANTAN TIMUR,76143.0,Indonesia, 081311515141,,,-1.3381789,116.6875237,https://maps.google.com/?cid=0x0:0x7959d11645401c8c,
hardware store,Toko Bahan Bangunan,"Toko Bangunan Anugrah Property, Kontraktor, Supplier","Sepaku 4 Bukit Raya, Penajam, Kabupaten Penajam Paser Utara, Kalimantan Timur 76141","Penajam, Kabupaten Penajam Paser Utara",KALIMANTAN TIMUR,76141.0,Indonesia, 8228193,,,-1.1955898,116.6604662,https://maps.google.com/?cid=0x0:0x2df67015ef1098da,
hardware store,Toko Bahan Bangunan,Toko Alaras Baja Teknik,"Jl. Propinsi, Waru, Kec. Waru, Kabupaten Penajam Paser Utara, Kalimantan Timur 76284","Waru, Kec. Waru, Kabupaten Penajam Paser Utara",KALIMANTAN TIMUR,76284.0,Indonesia, 081241428114,,,-1.3979165,116.6110553,https://maps.google.com/?cid=0x0:0x3b6d5a3579c0bcaf,
hardware store,Toko Alat Pancing,Toko Pancing Waru,"Waru, Kec. Waru, Kabupaten Penajam Paser Utara, Kalimantan Timur","Kabupaten Penajam Paser Utara, Kalimantan Timur",KALIMANTAN TIMUR,,Indonesia,,,,-1.3937746,116.6142533,https://maps.google.com/?cid=0x0:0xaffef11f28947d7e,
hardware store,Toko Komputer,DZA KOMPUTER,"Jalan Bangun Mulya Desa Bangun Mulya Rt01, Kec. Waru, Kabupaten Penajam Paser Utara, Kalimantan Timur 76384","Kec. Waru, Kabupaten Penajam Paser Utara",KALIMANTAN TIMUR,76384.0,Indonesia, 0811595552,,,-1.3827538,116.6126918,https://maps.google.com/?cid=0x0:0xe2a3f4038ed7ab09,
hardware store,hardware store,Jawa Timur 61256,"Kec. Waru, Kabupaten Sidoarjo, Jawa Timur","Kabupaten Sidoarjo, Jawa Timur",KALIMANTAN TIMUR,,Indonesia,,,,-7.3511436,112.7688416,https://maps.google.com/?cid=0x0:0x1c00c5eb5b53f120,
hardware store,Pemasok bahan paving blok,"Supplier Pasir , Koral , Sirtu , Sirtu Ayak , Abu Batu , Batu Belah , Dll","Jl. Tamasa Regency, Jabon, Tambaksawah, Kec. Waru, Kabupaten Sidoarjo, Jawa Timur 61256","Jabon, Tambaksawah, Kec. Waru, Kabupaten Sidoarjo",KALIMANTAN TIMUR,61256.0,Indonesia, 081335556629,,,-7.3623984,112.7683459,https://maps.google.com/?cid=0x0:0x7ad2cf526ce02913,
hardware store,Toko Bahan Bangunan,Toko Sari Bumi Bangunan,"Jl. Brigjend Katamso No.76, Wedoro, Kec. Waru, Kabupaten Sidoarjo, Jawa Timur 61256","Wedoro, Kec. Waru, Kabupaten Sidoarjo",KALIMANTAN TIMUR,61256.0,Indonesia, 082280801743,,,-7.3492297,112.7475592,https://maps.google.com/?cid=0x0:0x7b4718583a6d3944,
hardware store,Toko Bahan Bangunan,Ud. Ria Jaya I,"Jl. Tambak Sawah No.22, Tambak Kidul, Tambakrejo, Kec. Waru, Kabupaten Sidoarjo, Jawa Timur 61256","Tambak Kidul, Tambakrejo, Kec. Waru, Kabupaten Sidoarjo",KALIMANTAN TIMUR,61256.0,Indonesia, 0318672245,,,-7.3602934,112.7791433,https://maps.google.com/?cid=0x0:0xbc457754ebd77a03,
hardware store,Toko Bahan Bangunan,UD. Lancar jaya 1,"Jl. Jatisari Besar No.3b, Legi, Pepelegi, Kec. Waru, Kabupaten Sidoarjo, Jawa Timur 61256","Legi, Pepelegi, Kec. Waru, Kabupaten Sidoarjo",KALIMANTAN TIMUR,61256.0,Indonesia, 081259155106,,,-7.3632045,112.7169766,https://maps.google.com/?cid=0x0:0x37aa655a84018c37,
hardware store,Toko Bahan Bangunan,UD Karunia Jaya,"Jl. Raya Wadung Asri No.46-48 B17, Wadungasri, Kec. Waru, Kabupaten Sidoarjo, Jawa Timur 61256","Wadungasri, Kec. Waru, Kabupaten Sidoarjo",KALIMANTAN TIMUR,61256.0,Indonesia, 0318688172,,,-7.3453137,112.7678376,https://maps.google.com/?cid=0x0:0xe8a17f90e7351b7e,
hardware store,Toko Bahan Bangunan,Toko Anugerah,"No Jl. Brigjend Katamso No.142, Kedungrejo, Kec. Waru, Kabupaten Sidoarjo, Jawa Timur 61256","Kedungrejo, Kec. Waru, Kabupaten Sidoarjo",KALIMANTAN TIMUR,61256.0,Indonesia, 085166901385,,,-7.3509414,112.7327653,https://maps.google.com/?cid=0x0:0xc96c13d22db6d55e,
hardware store,Toko Bahan Bangunan,UD. Mulya Jaya,"Jl. Tambak Rejo No.63, Tambak Kidul, Tambakrejo, Kec. Waru, Kabupaten Sidoarjo, Jawa Timur 61256","Tambak Kidul, Tambakrejo, Kec. Waru, Kabupaten Sidoarjo",KALIMANTAN TIMUR,61256.0,Indonesia, 0318662448,,,-7.3580517,112.7777612,https://maps.google.com/?cid=0x0:0x4c5cc42bee306815,
hardware store,Toko Alat-Alat,Supplier Alat2 Bangunan,"Jalan ngingas selatan rt 01, Jl. Ngingas Selatan Baru, RT.04/RW.01, Ngingas, Kec. Waru, Kabupaten Sidoarjo, Jawa Timur 61256","Jl. Ngingas Selatan Baru, RT.04/RW.01, Ngingas, Kec. Waru, Kabupaten Sidoarjo",KALIMANTAN TIMUR,61256.0,Indonesia, 087815580116,,,-7.3582044,112.7452419,https://maps.google.com/?cid=0x0:0x80d72a4734ff28ad,
hardware store,Toko Bahan Bangunan,Toko Sejahtera,"Jl. Kolonel Sugiono No.78, Panyunan, Kepuhkiriman, Kec. Waru, Kabupaten Sidoarjo, Jawa Timur 61256","Panyunan, Kepuhkiriman, Kec. Waru, Kabupaten Sidoarjo",KALIMANTAN TIMUR,61256.0,Indonesia, 0318673135,,,-7.350012,112.762713,https://maps.google.com/?cid=0x0:0xa730d41e9eb46897,
hardware store,Toko Perkakas,Toko Usaha Baru,"Jl. Raya Tropodo No.8-10, Tropodo Wetan, Tropodo, Kec. Waru, Kabupaten Sidoarjo, Jawa Timur 61256","Tropodo Wetan, Tropodo, Kec. Waru, Kabupaten Sidoarjo",KALIMANTAN TIMUR,61256.0,Indonesia, 085166901385,,,-7.3657164,112.7640083,https://maps.google.com/?cid=0x0:0x5ecb2ef49ad1b4bc,
hardware store,Toko Bahan Bangunan,Toko Mulya Jaya,"Jl. Kolonel Sugiono No.82, Krajan Wetan, Kureksari, Kec. Waru, Kabupaten Sidoarjo, Jawa Timur 61256","Krajan Wetan, Kureksari, Kec. Waru, Kabupaten Sidoarjo",KALIMANTAN TIMUR,61256.0,Indonesia, 08123058977,,,-7.356661,112.735916,https://maps.google.com/?cid=0x0:0xdfe4d11abe45c3de,
hardware store,Toko Bahan Bangunan,UD. Jatisari Atmojo,"Jl. Jatisari No.55, Legi, Pepelegi, Kec. Waru, Kabupaten Sidoarjo, Jawa Timur 61256","Legi, Pepelegi, Kec. Waru, Kabupaten Sidoarjo",KALIMANTAN TIMUR,61256.0,Indonesia, 085748263399,,,-7.3632425,112.7158001,https://maps.google.com/?cid=0x0:0x865a3bdbf8a75b39,
hardware store,Toko Perkakas,Toko Utama Jaya,"Ruko Deltasari Indah Blk. AP No.2, Koreksari, Kureksari, Sidoarjo, Kabupaten Sidoarjo, Jawa Timur 61256","Koreksari, Kureksari, Sidoarjo, Kabupaten Sidoarjo",KALIMANTAN TIMUR,61256.0,Indonesia, 085166900648,,,-7.3649701,112.7342375,https://maps.google.com/?cid=0x0:0xbfa13273dc304de0,
hardware store,Toko bahan makanan,Toko Hasan Mas,"Jl. Raya Berbek No.24, Turipinggir, Berbek, Kec. Waru, Kabupaten Sidoarjo, Jawa Timur 61256","Turipinggir, Berbek, Kec. Waru, Kabupaten Sidoarjo",KALIMANTAN TIMUR,61256.0,Indonesia, 0318671219,,,-7.3490744,112.7607325,https://maps.google.com/?cid=0x0:0x4e3b704c7fc33c35,
hardware store,Toko Bahan Bangunan,Toko Sumber Joyo,"Jl. Jatisari Besar No.71 No. A, Legi, Pepelegi, Kec. Waru, Kabupaten Sidoarjo, Jawa Timur 61256","Legi, Pepelegi, Kec. Waru, Kabupaten Sidoarjo",KALIMANTAN TIMUR,61256.0,Indonesia,,,,-7.3592373,112.7182587,https://maps.google.com/?cid=0x0:0x167a5471769d2552,
hardware store,Toko Kayu,Toko TS (Tunggak Semi),"Perum Deltasari Indah Blk. V No.12, Koreksari, Kureksari, Sidoarjo, Kabupaten Sidoarjo, Jawa Timur 61256","Koreksari, Kureksari, Sidoarjo, Kabupaten Sidoarjo",KALIMANTAN TIMUR,61256.0,Indonesia, 0318535144,,,-7.3646802,112.738867,https://maps.google.com/?cid=0x0:0xfbae53cadf24ccbb,
hardware store,Pemasok sistem pendingin udara,CV Terus Jaya,"Jl. Rungkut Asri Tim. XVIII No.2, Medokan Ayu, Kec. Rungkut, Surabaya, Jawa Timur 60293","Medokan Ayu, Kec. Rungkut, Surabaya",KALIMANTAN TIMUR,60293.0,Indonesia, 0318701330,,,-7.331509,112.7881892,https://maps.google.com/?cid=0x0:0xfdc30f907bd936db,
hardware store,Toko Bahan Bangunan,Toko Jaya,"Jl. Bhineka No.15, Kundi, Kepuhkiriman, Kec. Waru, Kabupaten Sidoarjo, Jawa Timur 61256","Kundi, Kepuhkiriman, Kec. Waru, Kabupaten Sidoarjo",KALIMANTAN TIMUR,61256.0,Indonesia, 083129546332,,,-7.3534191,112.7656965,https://maps.google.com/?cid=0x0:0x859d670b76fd032,
hardware store,Toko Bahan Bangunan,Lis Gypsum,"Jl. Brigjend Katamso No.10, Mekar Raya Binangun, Janti, Kec. Waru, Kabupaten Sidoarjo, Jawa Timur 61256","Mekar Raya Binangun, Janti, Kec. Waru, Kabupaten Sidoarjo",KALIMANTAN TIMUR,61256.0,Indonesia, 087859950073,,,-7.3507277,112.736938,https://maps.google.com/?cid=0x0:0x5fc9d7bac02142f5,
hardware store,Toko Bahan Bangunan,"Toko bangunan Bintang Baru, waru","JJ58+26P, Waru, Kec. Waru, Kabupaten Penajam Paser Utara, Kalimantan Timur 76143","Waru, Kec. Waru, Kabupaten Penajam Paser Utara",KALIMANTAN TIMUR,76143.0,Indonesia, 087781689879,,,-1.3924236,116.6155842,https://maps.google.com/?cid=0x0:0xaaafa1bbc44fc9a1,
hardware store,Toko bahan makanan,TOKO BERKAH MULIA,"Waru, Kec. Waru, Kabupaten Penajam Paser Utara, Kalimantan Timur 76284","Kec. Waru, Kabupaten Penajam Paser Utara",KALIMANTAN TIMUR,76284.0,Indonesia, 085828583579,,,-1.4031516,116.6059228,https://maps.google.com/?cid=0x0:0x8fd3cceaf6065d4a,
hardware store,Toko Perlengkapan Rumah,Mr. DIY,"Babulu Darat, Kec. Babulu, Kabupaten Penajam Paser Utara, Kalimantan Timur 76285","Kec. Babulu, Kabupaten Penajam Paser Utara",KALIMANTAN TIMUR,76285.0,Indonesia,,,,-1.4983065,116.4634859,https://maps.google.com/?cid=0x0:0xd044e8fc3fec5919,
hardware store,Toko Bahan Bangunan,TB Karya Utama,"Jl. Penajam-Kuaro No.16, Giri Mukti, Penajam, Kabupaten Penajam Paser Utara, Kalimantan Timur 76143","Giri Mukti, Penajam, Kabupaten Penajam Paser Utara",KALIMANTAN TIMUR,76143.0,Indonesia, 081311515141,,,-1.3381789,116.6875237,https://maps.google.com/?cid=0x0:0x7959d11645401c8c,
hardware store,hardware store,,,,KALIMANTAN TIMUR,,Indonesia, 085777883592,,,-2.44565,117.8888,https://maps.google.com/?cid=0x0:0xbf54891ed7e24812,
hardware store,Toko Bahan Bangunan,Toko Alaras Baja Teknik,"Jl. Propinsi, Waru, Kec. Waru, Kabupaten Penajam Paser Utara, Kalimantan Timur 76284","Waru, Kec. Waru, Kabupaten Penajam Paser Utara",KALIMANTAN TIMUR,76284.0,Indonesia, 081241428114,,,-1.3979165,116.6110553,https://maps.google.com/?cid=0x0:0x3b6d5a3579c0bcaf,
hardware store,Toko Komputer,DZA KOMPUTER,"Jalan Bangun Mulya Desa Bangun Mulya Rt01, Kec. Waru, Kabupaten Penajam Paser Utara, Kalimantan Timur 76384","Kec. Waru, Kabupaten Penajam Paser Utara",KALIMANTAN TIMUR,76384.0,Indonesia, 0811595552,,,-1.3827538,116.6126918,https://maps.google.com/?cid=0x0:0xe2a3f4038ed7ab09,
hardware store,Toko Alat-Alat,Supplier Alat2 Bangunan,"Jalan ngingas selatan rt 01, Jl. Ngingas Selatan Baru, RT.04/RW.01, Ngingas, Kec. Waru, Kabupaten Sidoarjo, Jawa Timur 61256","Jl. Ngingas Selatan Baru, RT.04/RW.01, Ngingas, Kec. Waru, Kabupaten Sidoarjo",KALIMANTAN TIMUR,61256.0,Indonesia, 087815580116,,,-7.3582044,112.7452419,https://maps.google.com/?cid=0x0:0x80d72a4734ff28ad,
hardware store,Toko Bahan Bangunan,Ud. Ria Jaya I,"Jl. Tambak Sawah No.22, Tambak Kidul, Tambakrejo, Kec. Waru, Kabupaten Sidoarjo, Jawa Timur 61256","Tambak Kidul, Tambakrejo, Kec. Waru, Kabupaten Sidoarjo",KALIMANTAN TIMUR,61256.0,Indonesia, 0318672245,,,-7.3602934,112.7791433,https://maps.google.com/?cid=0x0:0xbc457754ebd77a03,
hardware store,Pemasok bahan paving blok,"Supplier Pasir , Koral , Sirtu , Sirtu Ayak , Abu Batu , Batu Belah , Dll","Jl. Tamasa Regency, Jabon, Tambaksawah, Kec. Waru, Kabupaten Sidoarjo, Jawa Timur 61256","Jabon, Tambaksawah, Kec. Waru, Kabupaten Sidoarjo",KALIMANTAN TIMUR,61256.0,Indonesia, 081335556629,,,-7.3623984,112.7683459,https://maps.google.com/?cid=0x0:0x7ad2cf526ce02913,
hardware store,Toko Bahan Bangunan,Toko Anugerah,"No Jl. Brigjend Katamso No.142, Kedungrejo, Kec. Waru, Kabupaten Sidoarjo, Jawa Timur 61256","Kedungrejo, Kec. Waru, Kabupaten Sidoarjo",KALIMANTAN TIMUR,61256.0,Indonesia, 085166901385,,,-7.3509414,112.7327653,https://maps.google.com/?cid=0x0:0xc96c13d22db6d55e,
hardware store,Toko Bahan Bangunan,UD. Lancar jaya 1,"Jl. Jatisari Besar No.3b, Legi, Pepelegi, Kec. Waru, Kabupaten Sidoarjo, Jawa Timur 61256","Legi, Pepelegi, Kec. Waru, Kabupaten Sidoarjo",KALIMANTAN TIMUR,61256.0,Indonesia, 081259155106,,,-7.3632045,112.7169766,https://maps.google.com/?cid=0x0:0x37aa655a84018c37,
hardware store,Toko Bahan Bangunan,Toko Sari Bumi Bangunan,"Jl. Brigjend Katamso No.76, Wedoro, Kec. Waru, Kabupaten Sidoarjo, Jawa Timur 61256","Wedoro, Kec. Waru, Kabupaten Sidoarjo",KALIMANTAN TIMUR,61256.0,Indonesia, 082280801743,,,-7.3492297,112.7475592,https://maps.google.com/?cid=0x0:0x7b4718583a6d3944,
hardware store,Toko Bahan Bangunan,Toko Bangunan Joyo Mas,"Pengkol, Jl. Brigjend Katamso No.7, Bandilan, Kedungrejo, Kec. Waru, Kabupaten Sidoarjo, Jawa Timur 61256","Jl. Brigjend Katamso No.7, Bandilan, Kedungrejo, Kec. Waru, Kabupaten Sidoarjo",KALIMANTAN TIMUR,61256.0,Indonesia, 085166900649,,,-7.3511244,112.7363073,https://maps.google.com/?cid=0x0:0xb4767ef0809198e8,
hardware store,Toko Bahan Bangunan,UD Karunia Jaya,"Jl. Raya Wadung Asri No.46-48 B17, Wadungasri, Kec. Waru, Kabupaten Sidoarjo, Jawa Timur 61256","Wadungasri, Kec. Waru, Kabupaten Sidoarjo",KALIMANTAN TIMUR,61256.0,Indonesia, 0318688172,,,-7.3453137,112.7678376,https://maps.google.com/?cid=0x0:0xe8a17f90e7351b7e,
hardware store,Toko Perkakas,Toko Usaha Baru,"Jl. Raya Tropodo No.8-10, Tropodo Wetan, Tropodo, Kec. Waru, Kabupaten Sidoarjo, Jawa Timur 61256","Tropodo Wetan, Tropodo, Kec. Waru, Kabupaten Sidoarjo",KALIMANTAN TIMUR,61256.0,Indonesia, 085166901385,,,-7.3657164,112.7640083,https://maps.google.com/?cid=0x0:0x5ecb2ef49ad1b4bc,
hardware store,Toko Bahan Bangunan,Toko Bangunan Bb Bumi Berkah,"JPWX+33H, Jalan, Belahan, Wedoro, Waru, Sidoarjo Regency, East Java 61256","Jalan, Belahan, Wedoro, Waru, Sidoarjo Regency",KALIMANTAN TIMUR,61256.0,Indonesia,,,,-7.3548201,112.7477305,https://maps.google.com/?cid=0x0:0x15aa24fe29e7f51,
hardware store,Toko Alat Tulis Kantor,Toko waru,"Jl. Brigjend Katamso No.222 Blok A2, Wedoro, Kec. Waru, Kabupaten Sidoarjo, Jawa Timur 61256","Wedoro, Kec. Waru, Kabupaten Sidoarjo",KALIMANTAN TIMUR,61256.0,Indonesia, 085730633869,,,-7.3497174,112.7507935,https://maps.google.com/?cid=0x0:0x35e316c0aa4cfe64,
hardware store,Toko Bahan Bangunan,TB. Sumber Joyo,"Jl. Raya Tropodo No.4, Tropodo Wetan, Tropodo, Kec. Waru, Kabupaten Sidoarjo, Jawa Timur 61256","Tropodo Wetan, Tropodo, Kec. Waru, Kabupaten Sidoarjo",KALIMANTAN TIMUR,61256.0,Indonesia, 085166900648,,,-7.3659255,112.7640716,https://maps.google.com/?cid=0x0:0x442d3da4a5f4128d,
hardware store,Toko Bahan Bangunan,UD. Jatisari Atmojo,"Jl. Jatisari No.55, Legi, Pepelegi, Kec. Waru, Kabupaten Sidoarjo, Jawa Timur 61256","Legi, Pepelegi, Kec. Waru, Kabupaten Sidoarjo",KALIMANTAN TIMUR,61256.0,Indonesia, 085748263399,,,-7.3632425,112.7158001,https://maps.google.com/?cid=0x0:0x865a3bdbf8a75b39,
hardware store,Toko bahan makanan,Toko Hasan Mas,"Jl. Raya Berbek No.24, Turipinggir, Berbek, Kec. Waru, Kabupaten Sidoarjo, Jawa Timur 61256","Turipinggir, Berbek, Kec. Waru, Kabupaten Sidoarjo",KALIMANTAN TIMUR,61256.0,Indonesia, 0318671219,,,-7.3490744,112.7607325,https://maps.google.com/?cid=0x0:0x4e3b704c7fc33c35,
hardware store,Toko Bahan Bangunan,Toko Sejahtera,"Jl. Kolonel Sugiono No.78, Panyunan, Kepuhkiriman, Kec. Waru, Kabupaten Sidoarjo, Jawa Timur 61256","Panyunan, Kepuhkiriman, Kec. Waru, Kabupaten Sidoarjo",KALIMANTAN TIMUR,61256.0,Indonesia, 0318673135,,,-7.350012,112.762713,https://maps.google.com/?cid=0x0:0xa730d41e9eb46897,
hardware store,Toko Bahan Bangunan,Karunia Jaya,"Jl. Tambak Rejo No.66, Tambakrejo, Kec. Waru, Kabupaten Sidoarjo, Jawa Timur 61256","Tambakrejo, Kec. Waru, Kabupaten Sidoarjo",KALIMANTAN TIMUR,61256.0,Indonesia,,,,-7.3524407,112.7739418,https://maps.google.com/?cid=0x0:0x7a2979f9456e8ee9,
hardware store,Toko Bahan Bangunan,Galangan Griya Glugu,"JL. Brigadir Jenderal Katamso, No. 68, Waru, Ngeni, Kepuhkiriman, Sidoarjo, Kabupaten Sidoarjo, Jawa Timur 61256","No. 68, Waru, Ngeni, Kepuhkiriman, Sidoarjo, Kabupaten Sidoarjo",KALIMANTAN TIMUR,61256.0,Indonesia, 0318668719,,,-7.3498442,112.7536393,https://maps.google.com/?cid=0x0:0x96baab182d46ec88,
hardware store,Toko Bahan Bangunan,Sinar Jaya Asri. UD,"Jl. Raya Buncitan No.283, Dusun Kp. Baro, Buncitan, Kec. Sedati, Kabupaten Sidoarjo, Jawa Timur 61253","Dusun Kp. Baro, Buncitan, Kec. Sedati, Kabupaten Sidoarjo",KALIMANTAN TIMUR,61253.0,Indonesia, 085102216889,,,-7.3964047,112.7858774,https://maps.google.com/?cid=0x0:0xefa4238705c7a067,
hardware store,Toko Bahan Bangunan,UD. Mulya Jaya,"Jl. Tambak Rejo No.63, Tambak Kidul, Tambakrejo, Kec. Waru, Kabupaten Sidoarjo, Jawa Timur 61256","Tambak Kidul, Tambakrejo, Kec. Waru, Kabupaten Sidoarjo",KALIMANTAN TIMUR,61256.0,Indonesia, 0318662448,,,-7.3580517,112.7777612,https://maps.google.com/?cid=0x0:0x4c5cc42bee306815,
hardware store,Toko Alat Listrik,Cahaya Teknik,"Jl. Ngingas Selatan No.10, RT.01/RW.01, Ngingas, Kec. Waru, Kabupaten Sidoarjo, Jawa Timur 61256","RT.01/RW.01, Ngingas, Kec. Waru, Kabupaten Sidoarjo",KALIMANTAN TIMUR,61256.0,Indonesia, 085100002576,,,-7.3565635,112.7407948,https://maps.google.com/?cid=0x0:0x53909de14baa30d1,
hardware store,hardware store,Kalimantan Timur 76284,"Kec. Waru, Kabupaten Penajam Paser Utara, Kalimantan Timur","Kabupaten Penajam Paser Utara, Kalimantan Timur",KALIMANTAN TIMUR,,Indonesia,,,,-1.2746751,116.4901981,https://maps.google.com/?cid=0x0:0x74a053edcfb83c51,
hardware store,Toko Bahan Bangunan,"Toko bangunan Bintang Baru, waru","JJ58+26P, Waru, Kec. Waru, Kabupaten Penajam Paser Utara, Kalimantan Timur 76143","Waru, Kec. Waru, Kabupaten Penajam Paser Utara",KALIMANTAN TIMUR,76143.0,Indonesia, 087781689879,,,-1.3924236,116.6155842,https://maps.google.com/?cid=0x0:0xaaafa1bbc44fc9a1,
hardware store,Toko Bahan Bangunan,Toko Alaras Baja Teknik,"Jl. Propinsi, Waru, Kec. Waru, Kabupaten Penajam Paser Utara, Kalimantan Timur 76284","Waru, Kec. Waru, Kabupaten Penajam Paser Utara",KALIMANTAN TIMUR,76284.0,Indonesia, 081241428114,,,-1.3979165,116.6110553,https://maps.google.com/?cid=0x0:0x3b6d5a3579c0bcaf,
hardware store,Layanan Percetakan Undangan,YATAMA MANDIRI,"Jl. Teratai No.RT. 020, Waru, Kec. Waru, Kabupaten Penajam Paser Utara, Kalimantan Timur 76284","Waru, Kec. Waru, Kabupaten Penajam Paser Utara",KALIMANTAN TIMUR,76284.0,Indonesia, 082177719950,,,-1.391838,116.6132431,https://maps.google.com/?cid=0x0:0xabc2a5d084440c83,
hardware store,Jasa Konstruksi dan Bangunan,Toko Bangunan Bangun Niaga Raya,"JJ78+FC4, Jl. Sidodadi, Waru, Kec. Waru, Kabupaten Penajam Paser Utara, Kalimantan Timur 76143","Jl. Sidodadi, Waru, Kec. Waru, Kabupaten Penajam Paser Utara",KALIMANTAN TIMUR,76143.0,Indonesia, 081359956965,,,-1.3863615,116.6160927,https://maps.google.com/?cid=0x0:0x5dcbc38363877cfd,
hardware store,hardware store,Tb Lancar Jaya Waru,"pas samping kiri, Jl. Propinsi Polsek No.KM 28, RT.029, Waru, Kec. Waru, Kabupaten Penajam Paser Utara, Kalimantan Timur 76284","Jl. Propinsi Polsek No.KM 28, RT.029, Waru, Kec. Waru, Kabupaten Penajam Paser Utara",KALIMANTAN TIMUR,76284.0,Indonesia,,,,-1.3956,116.6126173,https://maps.google.com/?cid=0x0:0xc2a855f2036fd07c,
hardware store,Toko Cat,Jotun Trubus Steel 2,"Jl. Penajam-Kuaro, Giri Mukti, Penajam, Kabupaten Penajam Paser Utara, Kalimantan Timur 76143","Giri Mukti, Penajam, Kabupaten Penajam Paser Utara",KALIMANTAN TIMUR,76143.0,Indonesia, 081347220680,,,-1.3488314,116.6737486,https://maps.google.com/?cid=0x0:0x9dd3f89d1ac1b25d,
hardware store,Toko Perlengkapan Rumah,Mr. DIY,"Babulu Darat, Kec. Babulu, Kabupaten Penajam Paser Utara, Kalimantan Timur 76285","Kec. Babulu, Kabupaten Penajam Paser Utara",KALIMANTAN TIMUR,76285.0,Indonesia,,,,-1.4983065,116.4634859,https://maps.google.com/?cid=0x0:0xd044e8fc3fec5919,
hardware store,Toko,MR.DIY,"Jl. Provinsi KM 19 No.23, RT.023/RW.019, Petung, Penajam, Penajam North Paser Regency, East Kalimantan 76143","RT.023/RW.019, Petung, Penajam, Penajam North Paser Regency",KALIMANTAN TIMUR,76143.0,Indonesia,,,,-1.361375,116.6583354,https://maps.google.com/?cid=0x0:0xfd5dffb5f32a55df,
hardware store,Toko Bahan Bangunan,"Toko Bangunan Anugrah Property, Kontraktor, Supplier","Sepaku 4 Bukit Raya, Penajam, Kabupaten Penajam Paser Utara, Kalimantan Timur 76141","Penajam, Kabupaten Penajam Paser Utara",KALIMANTAN TIMUR,76141.0,Indonesia, 8228193,,,-1.1955898,116.6604662,https://maps.google.com/?cid=0x0:0x2df67015ef1098da,
hardware store,Toko Bahan Bangunan,Cerah Hardware Riko,"WJ2P+83, Maridan, Kec. Sepaku, Kabupaten Penajam Paser Utara, Kalimantan Timur 76146","Maridan, Kec. Sepaku, Kabupaten Penajam Paser Utara",KALIMANTAN TIMUR,76146.0,Indonesia,,,,-1.0991494,116.6352461,https://maps.google.com/?cid=0x0:0x179b7778e3c0336f,
hardware store,Toko Bahan Bangunan,TOKO BANGUNAN MULTI SUMBER RAYA,"Jl. Lapangan No.RT.04, Gn. Seteleng, Penajam, Kabupaten Penajam Paser Utara, Kalimantan Timur 76141","Gn. Seteleng, Penajam, Kabupaten Penajam Paser Utara",KALIMANTAN TIMUR,76141.0,Indonesia,,,,-1.2510438,116.7681878,https://maps.google.com/?cid=0x0:0x4cd71101ecb93c66,
hardware store,Toko Bahan Bangunan,TB Borneo Raya,"Jl. Penajam-Kuaro barat, Babulu Darat, Kec. Babulu, Kabupaten Penajam Paser Utara, Kalimantan Timur 76285","Babulu Darat, Kec. Babulu, Kabupaten Penajam Paser Utara",KALIMANTAN TIMUR,76285.0,Indonesia, 081282798289,,,-1.4995739,116.4612082,https://maps.google.com/?cid=0x0:0x3fc4b39b433d7ab6,
hardware store,Toko Perlengkapan Rumah,Toko Berlian Abadi,"Jl. Propinsi No.km 3, Penajam, Kabupaten Penajam Paser Utara, Kalimantan Timur 76142","Penajam, Kabupaten Penajam Paser Utara",KALIMANTAN TIMUR,76142.0,Indonesia, 083181673940,,,-1.267416,116.7589707,https://maps.google.com/?cid=0x0:0xe8f99fa1de93dfcf,
hardware store,Toko Perlengkapan Rumah,toko sheren,"jalan sidorejo No.RT 4, Petung, Penajam, Kabupaten Penajam Paser Utara, Kalimantan Timur 76143","Petung, Penajam, Kabupaten Penajam Paser Utara",KALIMANTAN TIMUR,76143.0,Indonesia, 081251070644,,,-1.3700184,116.6890577,https://maps.google.com/?cid=0x0:0x6852aad8419ebc34,
hardware store,Toko bahan makanan,TOKO BERKAH MULIA,"Waru, Kec. Waru, Kabupaten Penajam Paser Utara, Kalimantan Timur 76284","Kec. Waru, Kabupaten Penajam Paser Utara",KALIMANTAN TIMUR,76284.0,Indonesia, 085828583579,,,-1.4031516,116.6059228,https://maps.google.com/?cid=0x0:0x8fd3cceaf6065d4a,
hardware store,Toko Perlengkapan Rumah,Pendawa elektrik,"Jl. Silkar No.km 2.5, Giri Mukti, Penajam, Kabupaten Penajam Paser Utara, Kalimantan Timur","Kabupaten Penajam Paser Utara, Kalimantan Timur",KALIMANTAN TIMUR,,Indonesia, 081350375971,,,-1.3313336,116.6698329,https://maps.google.com/?cid=0x0:0xefe6ba73cfdd62a5,
hardware store,Toko Bahan Bangunan,TB Karya Utama,"Jl. Penajam-Kuaro No.16, Giri Mukti, Penajam, Kabupaten Penajam Paser Utara, Kalimantan Timur 76143","Giri Mukti, Penajam, Kabupaten Penajam Paser Utara",KALIMANTAN TIMUR,76143.0,Indonesia, 081311515141,,,-1.3381789,116.6875237,https://maps.google.com/?cid=0x0:0x7959d11645401c8c,
hardware store,Toko Perlengkapan Rumah,Budi Bangunan Sepan,"RJVC+4XM, Sepan, Penajam, Kabupaten Penajam Paser Utara, Kalimantan Timur 76145","Sepan, Penajam, Kabupaten Penajam Paser Utara",KALIMANTAN TIMUR,76145.0,Indonesia,,,,-1.1571721,116.6224289,https://maps.google.com/?cid=0x0:0x1236c1609b91e542,
hardware store,Toko Kosmetik,Toko ATK Wardah Sotek,"RJ68+9C8, Jl. Lawai Baru, RT.008/RW.Kelurahan, Sepan, Penajam, Kabupaten Penajam Paser Utara, Kalimantan Timur 76144","Jl. Lawai Baru, RT.008/RW.Kelurahan, Sepan, Penajam, Kabupaten Penajam Paser Utara",KALIMANTAN TIMUR,76144.0,Indonesia,,,,-1.1890751,116.6160742,https://maps.google.com/?cid=0x0:0x831d61e1b7d8989a,
hardware store,Toko Bahan Bangunan,USAHA BARU JAYA,"Giri Mukti, Penajam, Kabupaten Penajam Paser Utara, Kalimantan Timur 76143","Penajam, Kabupaten Penajam Paser Utara",KALIMANTAN TIMUR,76143.0,Indonesia, 085248256666,,,-1.3471944,116.6770356,https://maps.google.com/?cid=0x0:0x49ff93f654bb9cb9,
hardware store,Toko Bahan Bangunan,Ud. Ria Jaya I,"Jl. Tambak Sawah No.22, Tambak Kidul, Tambakrejo, Kec. Waru, Kabupaten Sidoarjo, Jawa Timur 61256","Tambak Kidul, Tambakrejo, Kec. Waru, Kabupaten Sidoarjo",KALIMANTAN TIMUR,61256.0,Indonesia, 0318672245,,,-7.3602934,112.7791433,https://maps.google.com/?cid=0x0:0xbc457754ebd77a03,
hardware store,Toko Bahan Bangunan,Toko Bangunan Joyo Mas,"Pengkol, Jl. Brigjend Katamso No.7, Bandilan, Kedungrejo, Kec. Waru, Kabupaten Sidoarjo, Jawa Timur 61256","Jl. Brigjend Katamso No.7, Bandilan, Kedungrejo, Kec. Waru, Kabupaten Sidoarjo",KALIMANTAN TIMUR,61256.0,Indonesia, 085166900649,,,-7.3511244,112.7363073,https://maps.google.com/?cid=0x0:0xb4767ef0809198e8,
hardware store,Toko Alat-Alat,Supplier Alat2 Bangunan,"Jalan ngingas selatan rt 01, Jl. Ngingas Selatan Baru, RT.04/RW.01, Ngingas, Kec. Waru, Kabupaten Sidoarjo, Jawa Timur 61256","Jl. Ngingas Selatan Baru, RT.04/RW.01, Ngingas, Kec. Waru, Kabupaten Sidoarjo",KALIMANTAN TIMUR,61256.0,Indonesia, 087815580116,,,-7.3582044,112.7452419,https://maps.google.com/?cid=0x0:0x80d72a4734ff28ad,
hardware store,Toko Bahan Bangunan,Toko Anugerah,"No Jl. Brigjend Katamso No.142, Kedungrejo, Kec. Waru, Kabupaten Sidoarjo, Jawa Timur 61256","Kedungrejo, Kec. Waru, Kabupaten Sidoarjo",KALIMANTAN TIMUR,61256.0,Indonesia, 085166901385,,,-7.3509414,112.7327653,https://maps.google.com/?cid=0x0:0xc96c13d22db6d55e,
hardware store,Toko Bahan Bangunan,TB. Sumber Joyo,"Jl. Raya Tropodo No.4, Tropodo Wetan, Tropodo, Kec. Waru, Kabupaten Sidoarjo, Jawa Timur 61256","Tropodo Wetan, Tropodo, Kec. Waru, Kabupaten Sidoarjo",KALIMANTAN TIMUR,61256.0,Indonesia, 085166900648,,,-7.3659255,112.7640716,https://maps.google.com/?cid=0x0:0x442d3da4a5f4128d,
hardware store,Pemasok bahan paving blok,"Supplier Pasir , Koral , Sirtu , Sirtu Ayak , Abu Batu , Batu Belah , Dll","Jl. Tamasa Regency, Jabon, Tambaksawah, Kec. Waru, Kabupaten Sidoarjo, Jawa Timur 61256","Jabon, Tambaksawah, Kec. Waru, Kabupaten Sidoarjo",KALIMANTAN TIMUR,61256.0,Indonesia, 081335556629,,,-7.3623984,112.7683459,https://maps.google.com/?cid=0x0:0x7ad2cf526ce02913,
hardware store,Toko Bahan Bangunan,Toko Sejahtera,"Jl. Kolonel Sugiono No.78, Panyunan, Kepuhkiriman, Kec. Waru, Kabupaten Sidoarjo, Jawa Timur 61256","Panyunan, Kepuhkiriman, Kec. Waru, Kabupaten Sidoarjo",KALIMANTAN TIMUR,61256.0,Indonesia, 0318673135,,,-7.350012,112.762713,https://maps.google.com/?cid=0x0:0xa730d41e9eb46897,
hardware store,Toko Bahan Bangunan,UD. Lancar jaya 1,"Jl. Jatisari Besar No.3b, Legi, Pepelegi, Kec. Waru, Kabupaten Sidoarjo, Jawa Timur 61256","Legi, Pepelegi, Kec. Waru, Kabupaten Sidoarjo",KALIMANTAN TIMUR,61256.0,Indonesia, 081259155106,,,-7.3632045,112.7169766,https://maps.google.com/?cid=0x0:0x37aa655a84018c37,
