Category,Real Category,Business Name,Address,City,State,Postal Code,Country,Phone,Email,Website,Latitude,Longitude,Map Link,Details Link
hotel,hotel,Sulawesi Tenggara 93761,"Kec. Gu, Kabupaten Buton, Sulawesi Tenggara","Kabupaten Buton, Sulawesi Tenggara",SULAWESI TENGGARA,,Indonesia,,,,-5.2702397,122.593828,https://maps.google.com/?cid=0x0:0xe714ef696c5af545,
hotel,Hotel,PENGINAPAN YUSMIN (LOMBE BUTON TENGAH),"PHWC+2P6, Jl. Jend. Sudirman, Walando, Kec. Gu, Kabupaten Buton, Sulawesi Tenggara 93761","Jl. Jend. Sudirman, Walando, Kec. Gu, Kabupaten Buton",SULAWESI TENGGARA,93761.0,Indonesia,,,,-5.2549643,122.5717787,https://maps.google.com/?cid=0x0:0xd7ef33dba9f3a541,
hotel,Hotel,Findi Hotel,"MGGQ+JJ9, Jl. Gersamata, Lakudo, Kec. Lakudo, Kabupaten Buton, Sulawesi Tenggara 93763","Jl. Gersamata, Lakudo, Kec. Lakudo, Kabupaten Buton",SULAWESI TENGGARA,93763.0,Indonesia,,,,-5.3234694,122.5391201,https://maps.google.com/?cid=0x0:0x9046350efa4256c0,
hotel,hotel,Calista Beach Hotel,"Jl. Yos Sudarso No.25, Wale, Kec. Wolio, Kota Bau-Bau, Sulawesi Tenggara 93711","Wale, Kec. Wolio, Kota Bau-Bau",SULAWESI TENGGARA,93711.0,Indonesia,4022823088.0,,,-5.4551628,122.6076955,https://maps.google.com/?cid=0x0:0xb6aa93333821debf,
hotel,hotel,ZENITH Premiere Hotel Baubau,"Jl. Pahlawan No.2, Batulo, Kec. Wolio, Kota Bau-Bau, Sulawesi Tenggara 93716","Batulo, Kec. Wolio, Kota Bau-Bau",SULAWESI TENGGARA,93716.0,Indonesia,4022818181.0,,,-5.4605781,122.6202256,https://maps.google.com/?cid=0x0:0x6804d2f2f593324b,
hotel,hotel,THE GALTON HOTEL BAUBAU,"Jl. R.a. Kartini, Wale, Kec. Wolio, Kota Bau-Bau, Sulawesi Tenggara 93717","Wale, Kec. Wolio, Kota Bau-Bau",SULAWESI TENGGARA,93717.0,Indonesia,4022811272.0,,,-5.4562939,122.6078209,https://maps.google.com/?cid=0x0:0xe55e85708088710,
hotel,hotel,THE BONTE HOTEL,"Jl. Budi Utomo No.1, Mataiwoi, Kec. Kadia, Kota Kendari, Sulawesi Tenggara","Kota Kendari, Sulawesi Tenggara",SULAWESI TENGGARA,,Indonesia,81356267213.0,,,-3.988472,122.5055925,https://maps.google.com/?cid=0x0:0x1674b5a580e0e1f9,
hotel,hotel,Agung Hotel,"Jl. Saranani No.168, Korumba, Kec. Mandonga, Kota Kendari, Sulawesi Tenggara 93111","Korumba, Kec. Mandonga, Kota Kendari",SULAWESI TENGGARA,93111.0,Indonesia,8114006500.0,,,-3.9672247,122.5215238,https://maps.google.com/?cid=0x0:0x47c1a101f71f1691,
hotel,hotel,Hotel Qubah 9 Kendari,"Jl. Martandu No.99A, Kambu, Kec. Kambu, Kota Kendari, Sulawesi Tenggara 93231","Kambu, Kec. Kambu, Kota Kendari",SULAWESI TENGGARA,93231.0,Indonesia,4013136047.0,,,-4.0082509,122.5345007,https://maps.google.com/?cid=0x0:0x16da52124c17b9e7,
hotel,hotel,Hing Amimah Hotel,"Jl. Diponegoro No.16C, Batulo, Kec. Wolio, Kota Bau-Bau, Sulawesi Tenggara 93717","Batulo, Kec. Wolio, Kota Bau-Bau",SULAWESI TENGGARA,93717.0,Indonesia,895417300072.0,,,-5.460841,122.6150883,https://maps.google.com/?cid=0x0:0x207762f3208662ed,
hotel,hotel,RedDoorz Near Lippo Plaza Buton,"Jl. Pahlawan, Kadolo, Kec. Kokalukuna, Kota Bau-Bau, Sulawesi Tenggara 93711","Kadolo, Kec. Kokalukuna, Kota Bau-Bau",SULAWESI TENGGARA,93711.0,Indonesia,895417300072.0,,,-5.4631502,122.6225948,https://maps.google.com/?cid=0x0:0x876b994274395f18,
hotel,hotel,Wisma Kahyangan,"Jl. Dr. Wahidin No.108, Lamangga, Kec. Murhum, Kota Bau-Bau, Sulawesi Tenggara 97000","Lamangga, Kec. Murhum, Kota Bau-Bau",SULAWESI TENGGARA,97000.0,Indonesia,81355508858.0,,,-5.4677596,122.5982659,https://maps.google.com/?cid=0x0:0x53ca2fa0026360b7,
hotel,hotel,RedDoorz @ Hotel Bravo Pantai Kamali Bau Bau,"Jl. Yos Sudarso No.19A, Wale, Kec. Wolio, Kota Bau-Bau, Sulawesi Tenggara 93717","Wale, Kec. Wolio, Kota Bau-Bau",SULAWESI TENGGARA,93717.0,Indonesia,895417300072.0,,,-5.4553279,122.6081926,https://maps.google.com/?cid=0x0:0x5149999a1bb19615,
hotel,hotel,RedDoorz @ Green Homestay Syariah Baubau,"Jl. Lakarambau, Lipu, Kec. Betoambari, Kota Bau-Bau, Sulawesi Tenggara 93724","Lipu, Kec. Betoambari, Kota Bau-Bau",SULAWESI TENGGARA,93724.0,Indonesia,895417300072.0,,,-5.4830603,122.581514,https://maps.google.com/?cid=0x0:0x416e2ec42c090538,
hotel,hotel,PENGINAPAN BINTANG TIMUR,"Jl. Kamali, Wale, Kec. Wolio, Kota Bau-Bau, Sulawesi Tenggara 93717","Wale, Kec. Wolio, Kota Bau-Bau",SULAWESI TENGGARA,93717.0,Indonesia,82294239246.0,,,-5.4562341,122.6070725,https://maps.google.com/?cid=0x0:0xdf2a93e9102410a8,
hotel,hotel,Byeropa Resort and cafe,"Jl. Tapak Kuda No.21, Korumba, Kec. Mandonga, Kota Kendari, Sulawesi Tenggara 93231","Korumba, Kec. Mandonga, Kota Kendari",SULAWESI TENGGARA,93231.0,Indonesia,,,,-3.9768026,122.5289414,https://maps.google.com/?cid=0x0:0xde9ad19bba6fd440,
hotel,hotel,Hotel Rosichan Bau-Bau,"Jl. Betoambari No.117, Lamangga, Kec. Murhum, Kota Bau-Bau, Sulawesi Tenggara 93713","Lamangga, Kec. Murhum, Kota Bau-Bau",SULAWESI TENGGARA,93713.0,Indonesia,895417300072.0,,,-5.465081,122.596467,https://maps.google.com/?cid=0x0:0x4b84b1a3577f7831,
hotel,hotel,Wisma Mulia,"Wale, Kec. Wolio, Kota Bau-Bau, Sulawesi Tenggara 93717","Kec. Wolio, Kota Bau-Bau",SULAWESI TENGGARA,93717.0,Indonesia,4022821673.0,,,-5.4557221,122.6074078,https://maps.google.com/?cid=0x0:0x6115dd3369632f34,
hotel,hotel,Hotel Mulia Kendari,"Jl. Saranani No.95, Korumba, Kec. Mandonga, Kota Kendari, Sulawesi Tenggara 93461","Korumba, Kec. Mandonga, Kota Kendari",SULAWESI TENGGARA,93461.0,Indonesia,895417300072.0,,,-3.97062,122.5201697,https://maps.google.com/?cid=0x0:0x969a857d0b649ea9,
hotel,hotel,Lixxio Hotel,"Jl. Budi Utomo, Wangkanapi, Kec. Wolio, Kota Bau-Bau, Sulawesi Tenggara 93717","Wangkanapi, Kec. Wolio, Kota Bau-Bau",SULAWESI TENGGARA,93717.0,Indonesia,4022811575.0,,,-5.4666296,122.607907,https://maps.google.com/?cid=0x0:0xbf75eda8c5ed233d,
hotel,hotel,Hotel Galaxy Inn,"Jl. Budi Utomo No.71, Bataraguru, Kec. Wolio, Kota Bau-Bau, Sulawesi Tenggara 93717","Bataraguru, Kec. Wolio, Kota Bau-Bau",SULAWESI TENGGARA,93717.0,Indonesia,4022825003.0,,,-5.4666076,122.607875,https://maps.google.com/?cid=0x0:0x94aae5caad99a0ba,
hotel,hotel,Grand Hanura Hotel,"Jl. Martadinata No.56, Batulo, Kec. Wolio, Kota Bau-Bau, Sulawesi Tenggara 93717","Batulo, Kec. Wolio, Kota Bau-Bau",SULAWESI TENGGARA,93717.0,Indonesia,4022816840.0,,,-5.4580701,122.6160526,https://maps.google.com/?cid=0x0:0xac93edfdae173f26,
hotel,hotel,"Fresno, California 93761","Fresno, California, Amerika Serikat","Fresno, California, Amerika Serikat",SULAWESI TENGGARA,,Indonesia,,,,36.7507018,-119.7883821,https://maps.google.com/?cid=0x0:0x11d678f8f0915e6e,
hotel,hotel,La Quinta Inn by Wyndham Fresno Yosemite,"2926 Tulare St, Fresno, CA 93721, Amerika Serikat","Fresno, CA",SULAWESI TENGGARA,93721.0,Indonesia,15594421110.0,,,36.7406929,-119.7800599,https://maps.google.com/?cid=0x0:0xad790b9e998ea28c,
hotel,hotel,,,,SULAWESI TENGGARA,,Indonesia,,,,,,https://maps.google.com/?cid=0x0:0xad790b9e998ea28c%7C/g/1tgz5qxj%7Cen-ID,
hotel,hotel,,,,SULAWESI TENGGARA,,Indonesia,,,,,,https://maps.google.com/?cid=0x0:0x40a5ab0f5ebae211%7C/g/1tfly3tq%7Cen-ID,
hotel,Hotel bintang 2,DoubleTree by Hilton Hotel Fresno Convention Center,"2233 Cesar Chavez Blvd, Fresno, CA 93721, Amerika Serikat","Fresno, CA",SULAWESI TENGGARA,93721.0,Indonesia,15592681000.0,,,36.7328955,-119.7843325,https://maps.google.com/?cid=0x0:0x40a5ab0f5ebae211,
hotel,Gedung Pertemuan,Robert A. Schoettler Conference Center,"717 M St, Fresno, CA 93721, Amerika Serikat","Fresno, CA",SULAWESI TENGGARA,93721.0,Indonesia,,,,36.7333059,-119.7844857,https://maps.google.com/?cid=0x0:0xadfe3a98dc872f43,
hotel,hotel,The Good Manor,"1245 N Linden Ave, Fresno, CA 93728, Amerika Serikat","Fresno, CA",SULAWESI TENGGARA,93728.0,Indonesia,15593191737.0,,,36.7585106,-119.8026245,https://maps.google.com/?cid=0x0:0x97af99be2ed7792a,
hotel,hotel,Sulawesi Tenggara 93763,"Kec. Lakudo, Kabupaten Buton, Sulawesi Tenggara","Kabupaten Buton, Sulawesi Tenggara",SULAWESI TENGGARA,,Indonesia,,,,-5.3531329,122.5598994,https://maps.google.com/?cid=0x0:0x62c2a15eea95dc2,
hotel,hotel,Calista Beach Hotel,"Jl. Yos Sudarso No.25, Wale, Kec. Wolio, Kota Bau-Bau, Sulawesi Tenggara 93711","Wale, Kec. Wolio, Kota Bau-Bau",SULAWESI TENGGARA,93711.0,Indonesia,4022823088.0,,,-5.4551628,122.6076955,https://maps.google.com/?cid=0x0:0xb6aa93333821debf,
hotel,hotel,ZENITH Premiere Hotel Baubau,"Jl. Pahlawan No.2, Batulo, Kec. Wolio, Kota Bau-Bau, Sulawesi Tenggara 93716","Batulo, Kec. Wolio, Kota Bau-Bau",SULAWESI TENGGARA,93716.0,Indonesia,4022818181.0,,,-5.4605781,122.6202256,https://maps.google.com/?cid=0x0:0x6804d2f2f593324b,
hotel,hotel,THE GALTON HOTEL BAUBAU,"Jl. R.a. Kartini, Wale, Kec. Wolio, Kota Bau-Bau, Sulawesi Tenggara 93717","Wale, Kec. Wolio, Kota Bau-Bau",SULAWESI TENGGARA,93717.0,Indonesia,4022811272.0,,,-5.4562939,122.6078209,https://maps.google.com/?cid=0x0:0xe55e85708088710,
hotel,hotel,RedDoorz @ Hotel Bravo Pantai Kamali Bau Bau,"Jl. Yos Sudarso No.19A, Wale, Kec. Wolio, Kota Bau-Bau, Sulawesi Tenggara 93717","Wale, Kec. Wolio, Kota Bau-Bau",SULAWESI TENGGARA,93717.0,Indonesia,895417300072.0,,,-5.4553279,122.6081926,https://maps.google.com/?cid=0x0:0x5149999a1bb19615,
hotel,hotel,RedDoorz Near Lippo Plaza Buton,"Jl. Pahlawan, Kadolo, Kec. Kokalukuna, Kota Bau-Bau, Sulawesi Tenggara 93711","Kadolo, Kec. Kokalukuna, Kota Bau-Bau",SULAWESI TENGGARA,93711.0,Indonesia,895417300072.0,,,-5.4631502,122.6225948,https://maps.google.com/?cid=0x0:0x876b994274395f18,
hotel,hotel,Wisma Mulia,"Wale, Kec. Wolio, Kota Bau-Bau, Sulawesi Tenggara 93717","Kec. Wolio, Kota Bau-Bau",SULAWESI TENGGARA,93717.0,Indonesia,4022821673.0,,,-5.4557221,122.6074078,https://maps.google.com/?cid=0x0:0x6115dd3369632f34,
hotel,hotel,RedDoorz @ Green Homestay Syariah Baubau,"Jl. Lakarambau, Lipu, Kec. Betoambari, Kota Bau-Bau, Sulawesi Tenggara 93724","Lipu, Kec. Betoambari, Kota Bau-Bau",SULAWESI TENGGARA,93724.0,Indonesia,895417300072.0,,,-5.4830603,122.581514,https://maps.google.com/?cid=0x0:0x416e2ec42c090538,
hotel,hotel,Hing Amimah Hotel,"Jl. Diponegoro No.16C, Batulo, Kec. Wolio, Kota Bau-Bau, Sulawesi Tenggara 93717","Batulo, Kec. Wolio, Kota Bau-Bau",SULAWESI TENGGARA,93717.0,Indonesia,895417300072.0,,,-5.460841,122.6150883,https://maps.google.com/?cid=0x0:0x207762f3208662ed,
hotel,hotel,PENGINAPAN BINTANG TIMUR,"Jl. Kamali, Wale, Kec. Wolio, Kota Bau-Bau, Sulawesi Tenggara 93717","Wale, Kec. Wolio, Kota Bau-Bau",SULAWESI TENGGARA,93717.0,Indonesia,82294239246.0,,,-5.4562341,122.6070725,https://maps.google.com/?cid=0x0:0xdf2a93e9102410a8,
hotel,hotel,Wisma Kahyangan,"Jl. Dr. Wahidin No.108, Lamangga, Kec. Murhum, Kota Bau-Bau, Sulawesi Tenggara 97000","Lamangga, Kec. Murhum, Kota Bau-Bau",SULAWESI TENGGARA,97000.0,Indonesia,81355508858.0,,,-5.4677596,122.5982659,https://maps.google.com/?cid=0x0:0x53ca2fa0026360b7,
hotel,hotel,Hotel Rosichan Bau-Bau,"Jl. Betoambari No.117, Lamangga, Kec. Murhum, Kota Bau-Bau, Sulawesi Tenggara 93713","Lamangga, Kec. Murhum, Kota Bau-Bau",SULAWESI TENGGARA,93713.0,Indonesia,895417300072.0,,,-5.465081,122.596467,https://maps.google.com/?cid=0x0:0x4b84b1a3577f7831,
hotel,hotel,Lixxio Hotel,"Jl. Budi Utomo, Wangkanapi, Kec. Wolio, Kota Bau-Bau, Sulawesi Tenggara 93717","Wangkanapi, Kec. Wolio, Kota Bau-Bau",SULAWESI TENGGARA,93717.0,Indonesia,4022811575.0,,,-5.4666296,122.607907,https://maps.google.com/?cid=0x0:0xbf75eda8c5ed233d,
hotel,hotel,Hotel Galaxy Inn,"Jl. Budi Utomo No.71, Bataraguru, Kec. Wolio, Kota Bau-Bau, Sulawesi Tenggara 93717","Bataraguru, Kec. Wolio, Kota Bau-Bau",SULAWESI TENGGARA,93717.0,Indonesia,4022825003.0,,,-5.4666076,122.607875,https://maps.google.com/?cid=0x0:0x94aae5caad99a0ba,
hotel,hotel,BRAVO Hotel,"Jl. Yos Sudarso No.19 A, Wale, Kec. Wolio, Kota Bau-Bau, Sulawesi Tenggara 93711","Wale, Kec. Wolio, Kota Bau-Bau",SULAWESI TENGGARA,93711.0,Indonesia,82393512288.0,,,-5.455327,122.608185,https://maps.google.com/?cid=0x0:0x1121e149f74e5d6,
hotel,hotel,Grand Hanura Hotel,"Jl. Martadinata No.56, Batulo, Kec. Wolio, Kota Bau-Bau, Sulawesi Tenggara 93717","Batulo, Kec. Wolio, Kota Bau-Bau",SULAWESI TENGGARA,93717.0,Indonesia,4022816840.0,,,-5.4580701,122.6160526,https://maps.google.com/?cid=0x0:0xac93edfdae173f26,
hotel,hotel,Hotel Mira,"Jl. Mawar No.7, Sulawesi Tenggara 93716",Sulawesi Tenggara,SULAWESI TENGGARA,,Indonesia,4022822911.0,,,-5.4580111,122.6215632,https://maps.google.com/?cid=0x0:0xe1ed6673be7b57e7,
hotel,hotel,Mulya Wisma,"Jl. Tangkalawa No. 13, Lakudo Buton Tengah, Wongko Lakudo, Baubau, Kabupaten Buton, Sulawesi Tenggara 93763","Lakudo Buton Tengah, Wongko Lakudo, Baubau, Kabupaten Buton",SULAWESI TENGGARA,93763.0,Indonesia,81242713781.0,,,-5.3189168,122.5313996,https://maps.google.com/?cid=0x0:0x24cd137af11e95cf,
hotel,hotel,Sunset Resort Hotel,"Jl. Poros Lakeba Sulaa, Katobengke, Kec. Betoambari, Kota Bau-Bau, Sulawesi Tenggara 93721","Katobengke, Kec. Betoambari, Kota Bau-Bau",SULAWESI TENGGARA,93721.0,Indonesia,2180629666.0,,,-5.4890938,122.5629603,https://maps.google.com/?cid=0x0:0x4a21a5e9622fc2e4,
hotel,hotel,Hotel Debora,"JL. RA. Kartini No.15, Wale, Kec. Wolio, Kota Bau-Bau, Sulawesi Tenggara 93717","Wale, Kec. Wolio, Kota Bau-Bau",SULAWESI TENGGARA,93717.0,Indonesia,4022821203.0,,,-5.456677,122.6076848,https://maps.google.com/?cid=0x0:0xf9e8feba6879d2f3,
hotel,hotel,Hotel Qubah 9 Kendari,"Jl. Martandu No.99A, Kambu, Kec. Kambu, Kota Kendari, Sulawesi Tenggara 93231","Kambu, Kec. Kambu, Kota Kendari",SULAWESI TENGGARA,93231.0,Indonesia,4013136047.0,,,-4.0082509,122.5345007,https://maps.google.com/?cid=0x0:0x16da52124c17b9e7,
hotel,hotel,Athina Puncak Hotel  Resort,"GJMG+42J, Jl. Cendana, Kadolo, Kec. Kokalukuna, Kota Bau-Bau, Sulawesi Tenggara 93711","Jl. Cendana, Kadolo, Kec. Kokalukuna, Kota Bau-Bau",SULAWESI TENGGARA,93711.0,Indonesia,85241689034.0,,,-5.4671625,122.6250301,https://maps.google.com/?cid=0x0:0xfbecc0a711b2d55e,
hotel,hotel,Mawasangka,"Mawasangka, Kec. Mawasangka, Kabupaten Buton, Sulawesi Tenggara","Kabupaten Buton, Sulawesi Tenggara",SULAWESI TENGGARA,,Indonesia,,,,-5.290863,122.298897,https://maps.google.com/?cid=0x0:0x6eab10a86a088341,
hotel,hotel,Mulya Wisma,"Jl. Tangkalawa No. 13, Lakudo Buton Tengah, Wongko Lakudo, Baubau, Kabupaten Buton, Sulawesi Tenggara 93763","Lakudo Buton Tengah, Wongko Lakudo, Baubau, Kabupaten Buton",SULAWESI TENGGARA,93763.0,Indonesia,81242713781.0,,,-5.3189168,122.5313996,https://maps.google.com/?cid=0x0:0x24cd137af11e95cf,
hotel,hotel,Hotel Mutiara,"5PCG+QX3, Jl. Wamponiki 1, Butung-Butung, Kec. Katobu, Kabupaten Muna, Sulawesi Tenggara 93611","Jl. Wamponiki 1, Butung-Butung, Kec. Katobu, Kabupaten Muna",SULAWESI TENGGARA,93611.0,Indonesia,85255942333.0,,,-4.8281009,122.7274264,https://maps.google.com/?cid=0x0:0x802393a5ea8c1b3,
hotel,Hotel,Hotel Ferdian,"Mawasangka Kecamatan Mawasangka Depan Kantor Pos Mawasangka, Tengah, Kec. Mawasangka, Kabupaten Buton, Sulawesi Tenggara 93762","Tengah, Kec. Mawasangka, Kabupaten Buton",SULAWESI TENGGARA,93762.0,Indonesia,81325822357.0,,,-5.2793782,122.2930769,https://maps.google.com/?cid=0x0:0xf1ac82530f9b2687,
hotel,Pondok,WISMA THISYA,"P78P+PW6, Mawasangka, Kec. Mawasangka, Kabupaten Buton, Sulawesi Tenggara 93762","Mawasangka, Kec. Mawasangka, Kabupaten Buton",SULAWESI TENGGARA,93762.0,Indonesia,82296978411.0,,,-5.283219,122.287259,https://maps.google.com/?cid=0x0:0x850007f08c955d20,
hotel,hotel,Sulawesi Tenggara 93762,"Kabupaten Buton, Sulawesi Tenggara","Kabupaten Buton, Sulawesi Tenggara",SULAWESI TENGGARA,,Indonesia,,,,-5.291781,122.3787597,https://maps.google.com/?cid=0x0:0x29d13fe4e83e4ba7,
hotel,hotel,Calista Beach Hotel,"Jl. Yos Sudarso No.25, Wale, Kec. Wolio, Kota Bau-Bau, Sulawesi Tenggara 93711","Wale, Kec. Wolio, Kota Bau-Bau",SULAWESI TENGGARA,93711.0,Indonesia,4022823088.0,,,-5.4551628,122.6076955,https://maps.google.com/?cid=0x0:0xb6aa93333821debf,
hotel,hotel,Kadena Glamping Dive Resort - Muna Island,"Jl. Poros Lombe No.Desa, RW.Kamama, Wakea Kea, Kec. Gu, Buton Tengah, Sulawesi Tenggara","Buton Tengah, Sulawesi Tenggara",SULAWESI TENGGARA,,Indonesia,81222777348.0,,,-5.3155071,122.6334774,https://maps.google.com/?cid=0x0:0xcdbf16bccf2ffd6a,
hotel,hotel,THE GALTON HOTEL BAUBAU,"Jl. R.a. Kartini, Wale, Kec. Wolio, Kota Bau-Bau, Sulawesi Tenggara 93717","Wale, Kec. Wolio, Kota Bau-Bau",SULAWESI TENGGARA,93717.0,Indonesia,4022811272.0,,,-5.4562939,122.6078209,https://maps.google.com/?cid=0x0:0xe55e85708088710,
hotel,hotel,PENGINAPAN BINTANG TIMUR,"Jl. Kamali, Wale, Kec. Wolio, Kota Bau-Bau, Sulawesi Tenggara 93717","Wale, Kec. Wolio, Kota Bau-Bau",SULAWESI TENGGARA,93717.0,Indonesia,82294239246.0,,,-5.4562341,122.6070725,https://maps.google.com/?cid=0x0:0xdf2a93e9102410a8,
hotel,hotel,RedDoorz Near Lippo Plaza Buton,"Jl. Pahlawan, Kadolo, Kec. Kokalukuna, Kota Bau-Bau, Sulawesi Tenggara 93711","Kadolo, Kec. Kokalukuna, Kota Bau-Bau",SULAWESI TENGGARA,93711.0,Indonesia,895417300072.0,,,-5.4631502,122.6225948,https://maps.google.com/?cid=0x0:0x876b994274395f18,
hotel,hotel,Hing Amimah Hotel,"Jl. Diponegoro No.16C, Batulo, Kec. Wolio, Kota Bau-Bau, Sulawesi Tenggara 93717","Batulo, Kec. Wolio, Kota Bau-Bau",SULAWESI TENGGARA,93717.0,Indonesia,895417300072.0,,,-5.460841,122.6150883,https://maps.google.com/?cid=0x0:0x207762f3208662ed,
hotel,hotel,RedDoorz @ Green Homestay Syariah Baubau,"Jl. Lakarambau, Lipu, Kec. Betoambari, Kota Bau-Bau, Sulawesi Tenggara 93724","Lipu, Kec. Betoambari, Kota Bau-Bau",SULAWESI TENGGARA,93724.0,Indonesia,895417300072.0,,,-5.4830603,122.581514,https://maps.google.com/?cid=0x0:0x416e2ec42c090538,
hotel,hotel,Wisma Kahyangan,"Jl. Dr. Wahidin No.108, Lamangga, Kec. Murhum, Kota Bau-Bau, Sulawesi Tenggara 97000","Lamangga, Kec. Murhum, Kota Bau-Bau",SULAWESI TENGGARA,97000.0,Indonesia,81355508858.0,,,-5.4677596,122.5982659,https://maps.google.com/?cid=0x0:0x53ca2fa0026360b7,
hotel,hotel,RedDoorz @ Hotel Bravo Pantai Kamali Bau Bau,"Jl. Yos Sudarso No.19A, Wale, Kec. Wolio, Kota Bau-Bau, Sulawesi Tenggara 93717","Wale, Kec. Wolio, Kota Bau-Bau",SULAWESI TENGGARA,93717.0,Indonesia,895417300072.0,,,-5.4553279,122.6081926,https://maps.google.com/?cid=0x0:0x5149999a1bb19615,
hotel,hotel,Hotel Rosichan Bau-Bau,"Jl. Betoambari No.117, Lamangga, Kec. Murhum, Kota Bau-Bau, Sulawesi Tenggara 93713","Lamangga, Kec. Murhum, Kota Bau-Bau",SULAWESI TENGGARA,93713.0,Indonesia,895417300072.0,,,-5.465081,122.596467,https://maps.google.com/?cid=0x0:0x4b84b1a3577f7831,
hotel,hotel,Lixxio Hotel,"Jl. Budi Utomo, Wangkanapi, Kec. Wolio, Kota Bau-Bau, Sulawesi Tenggara 93717","Wangkanapi, Kec. Wolio, Kota Bau-Bau",SULAWESI TENGGARA,93717.0,Indonesia,4022811575.0,,,-5.4666296,122.607907,https://maps.google.com/?cid=0x0:0xbf75eda8c5ed233d,
hotel,hotel,Wisma Mulia,"Wale, Kec. Wolio, Kota Bau-Bau, Sulawesi Tenggara 93717","Kec. Wolio, Kota Bau-Bau",SULAWESI TENGGARA,93717.0,Indonesia,4022821673.0,,,-5.4557221,122.6074078,https://maps.google.com/?cid=0x0:0x6115dd3369632f34,
hotel,hotel,Athina Puncak Hotel  Resort,"GJMG+42J, Jl. Cendana, Kadolo, Kec. Kokalukuna, Kota Bau-Bau, Sulawesi Tenggara 93711","Jl. Cendana, Kadolo, Kec. Kokalukuna, Kota Bau-Bau",SULAWESI TENGGARA,93711.0,Indonesia,85241689034.0,,,-5.4671625,122.6250301,https://maps.google.com/?cid=0x0:0xfbecc0a711b2d55e,
hotel,hotel,Hotel Galaxy Inn,"Jl. Budi Utomo No.71, Bataraguru, Kec. Wolio, Kota Bau-Bau, Sulawesi Tenggara 93717","Bataraguru, Kec. Wolio, Kota Bau-Bau",SULAWESI TENGGARA,93717.0,Indonesia,4022825003.0,,,-5.4666076,122.607875,https://maps.google.com/?cid=0x0:0x94aae5caad99a0ba,
hotel,hotel,Nirwana Buton Villa,"Jalan Dayanu Ikhsanuddin, Sulla - Betoambari, Sulaa, Kec. Betoambari, Kota Bau-Bau, Sulawesi Tenggara","Kota Bau-Bau, Sulawesi Tenggara",SULAWESI TENGGARA,,Indonesia,82395399962.0,,,-5.521921,122.565666,https://maps.google.com/?cid=0x0:0x9b537d4c9b6ad161,
hotel,hotel,Sunset Resort Hotel,"Jl. Poros Lakeba Sulaa, Katobengke, Kec. Betoambari, Kota Bau-Bau, Sulawesi Tenggara 93721","Katobengke, Kec. Betoambari, Kota Bau-Bau",SULAWESI TENGGARA,93721.0,Indonesia,2180629666.0,,,-5.4890938,122.5629603,https://maps.google.com/?cid=0x0:0x4a21a5e9622fc2e4,
hotel,hotel,Grand Hanura Hotel,"Jl. Martadinata No.56, Batulo, Kec. Wolio, Kota Bau-Bau, Sulawesi Tenggara 93717","Batulo, Kec. Wolio, Kota Bau-Bau",SULAWESI TENGGARA,93717.0,Indonesia,4022816840.0,,,-5.4580701,122.6160526,https://maps.google.com/?cid=0x0:0xac93edfdae173f26,
hotel,hotel,BRAVO Hotel,"Jl. Yos Sudarso No.19 A, Wale, Kec. Wolio, Kota Bau-Bau, Sulawesi Tenggara 93711","Wale, Kec. Wolio, Kota Bau-Bau",SULAWESI TENGGARA,93711.0,Indonesia,82393512288.0,,,-5.455327,122.608185,https://maps.google.com/?cid=0x0:0x1121e149f74e5d6,
hotel,hotel,Hotel Mira,"Jl. Mawar No.7, Sulawesi Tenggara 93716",Sulawesi Tenggara,SULAWESI TENGGARA,,Indonesia,4022822911.0,,,-5.4580111,122.6215632,https://maps.google.com/?cid=0x0:0xe1ed6673be7b57e7,
hotel,hotel,Mawasangka Tim.,"Kabupaten Buton, Sulawesi Tenggara","Kabupaten Buton, Sulawesi Tenggara",SULAWESI TENGGARA,,Indonesia,,,,-5.3611739,122.424074,https://maps.google.com/?cid=0x0:0xf58d05571c4d04f4,
hotel,hotel,Kadena Glamping Dive Resort - Muna Island,"Jl. Poros Lombe No.Desa, RW.Kamama, Wakea Kea, Kec. Gu, Buton Tengah, Sulawesi Tenggara","Buton Tengah, Sulawesi Tenggara",SULAWESI TENGGARA,,Indonesia,81222777348.0,,,-5.3155071,122.6334774,https://maps.google.com/?cid=0x0:0xcdbf16bccf2ffd6a,
hotel,hotel,ZENITH Premiere Hotel Baubau,"Jl. Pahlawan No.2, Batulo, Kec. Wolio, Kota Bau-Bau, Sulawesi Tenggara 93716","Batulo, Kec. Wolio, Kota Bau-Bau",SULAWESI TENGGARA,93716.0,Indonesia,4022818181.0,,,-5.4605781,122.6202256,https://maps.google.com/?cid=0x0:0x6804d2f2f593324b,
hotel,hotel,RedDoorz @ Green Homestay Syariah Baubau,"Jl. Lakarambau, Lipu, Kec. Betoambari, Kota Bau-Bau, Sulawesi Tenggara 93724","Lipu, Kec. Betoambari, Kota Bau-Bau",SULAWESI TENGGARA,93724.0,Indonesia,895417300072.0,,,-5.4830603,122.581514,https://maps.google.com/?cid=0x0:0x416e2ec42c090538,
hotel,Losmen,PENGINAPAN BINTANG TIMUR,"Jl. Kamali, Wale, Kec. Wolio, Kota Bau-Bau, Sulawesi Tenggara 93717","Wale, Kec. Wolio, Kota Bau-Bau",SULAWESI TENGGARA,93717.0,Indonesia,82294239246.0,,,-5.4562341,122.6070725,https://maps.google.com/?cid=0x0:0xdf2a93e9102410a8,
hotel,hotel,THE GALTON HOTEL BAUBAU,"Jl. R.a. Kartini, Wale, Kec. Wolio, Kota Bau-Bau, Sulawesi Tenggara 93717","Wale, Kec. Wolio, Kota Bau-Bau",SULAWESI TENGGARA,93717.0,Indonesia,4022811272.0,,,-5.4562939,122.6078209,https://maps.google.com/?cid=0x0:0xe55e85708088710,
hotel,hotel,Hotel Rosichan Bau-Bau,"Jl. Betoambari No.117, Lamangga, Kec. Murhum, Kota Bau-Bau, Sulawesi Tenggara 93713","Lamangga, Kec. Murhum, Kota Bau-Bau",SULAWESI TENGGARA,93713.0,Indonesia,895417300072.0,,,-5.465081,122.596467,https://maps.google.com/?cid=0x0:0x4b84b1a3577f7831,
hotel,hotel,Wisma Kahyangan,"Jl. Dr. Wahidin No.108, Lamangga, Kec. Murhum, Kota Bau-Bau, Sulawesi Tenggara 97000","Lamangga, Kec. Murhum, Kota Bau-Bau",SULAWESI TENGGARA,97000.0,Indonesia,81355508858.0,,,-5.4677596,122.5982659,https://maps.google.com/?cid=0x0:0x53ca2fa0026360b7,
hotel,hotel,RedDoorz Near Lippo Plaza Buton,"Jl. Pahlawan, Kadolo, Kec. Kokalukuna, Kota Bau-Bau, Sulawesi Tenggara 93711","Kadolo, Kec. Kokalukuna, Kota Bau-Bau",SULAWESI TENGGARA,93711.0,Indonesia,895417300072.0,,,-5.4631502,122.6225948,https://maps.google.com/?cid=0x0:0x876b994274395f18,
hotel,hotel,Hing Amimah Hotel,"Jl. Diponegoro No.16C, Batulo, Kec. Wolio, Kota Bau-Bau, Sulawesi Tenggara 93717","Batulo, Kec. Wolio, Kota Bau-Bau",SULAWESI TENGGARA,93717.0,Indonesia,895417300072.0,,,-5.460841,122.6150883,https://maps.google.com/?cid=0x0:0x207762f3208662ed,
hotel,hotel,RedDoorz @ Hotel Bravo Pantai Kamali Bau Bau,"Jl. Yos Sudarso No.19A, Wale, Kec. Wolio, Kota Bau-Bau, Sulawesi Tenggara 93717","Wale, Kec. Wolio, Kota Bau-Bau",SULAWESI TENGGARA,93717.0,Indonesia,895417300072.0,,,-5.4553279,122.6081926,https://maps.google.com/?cid=0x0:0x5149999a1bb19615,
hotel,hotel,Wisma Mulia,"Wale, Kec. Wolio, Kota Bau-Bau, Sulawesi Tenggara 93717","Kec. Wolio, Kota Bau-Bau",SULAWESI TENGGARA,93717.0,Indonesia,4022821673.0,,,-5.4557221,122.6074078,https://maps.google.com/?cid=0x0:0x6115dd3369632f34,
hotel,hotel,Nirwana Buton Villa,"Jalan Dayanu Ikhsanuddin, Sulla - Betoambari, Sulaa, Kec. Betoambari, Kota Bau-Bau, Sulawesi Tenggara","Kota Bau-Bau, Sulawesi Tenggara",SULAWESI TENGGARA,,Indonesia,82395399962.0,,,-5.521921,122.565666,https://maps.google.com/?cid=0x0:0x9b537d4c9b6ad161,
hotel,hotel,Lixxio Hotel,"Jl. Budi Utomo, Wangkanapi, Kec. Wolio, Kota Bau-Bau, Sulawesi Tenggara 93717","Wangkanapi, Kec. Wolio, Kota Bau-Bau",SULAWESI TENGGARA,93717.0,Indonesia,4022811575.0,,,-5.4666296,122.607907,https://maps.google.com/?cid=0x0:0xbf75eda8c5ed233d,
hotel,hotel,Mulya Wisma,"Jl. Tangkalawa No. 13, Lakudo Buton Tengah, Wongko Lakudo, Baubau, Kabupaten Buton, Sulawesi Tenggara 93763","Lakudo Buton Tengah, Wongko Lakudo, Baubau, Kabupaten Buton",SULAWESI TENGGARA,93763.0,Indonesia,81242713781.0,,,-5.3189168,122.5313996,https://maps.google.com/?cid=0x0:0x24cd137af11e95cf,
hotel,hotel,Sunset Resort Hotel,"Jl. Poros Lakeba Sulaa, Katobengke, Kec. Betoambari, Kota Bau-Bau, Sulawesi Tenggara 93721","Katobengke, Kec. Betoambari, Kota Bau-Bau",SULAWESI TENGGARA,93721.0,Indonesia,2180629666.0,,,-5.4890938,122.5629603,https://maps.google.com/?cid=0x0:0x4a21a5e9622fc2e4,
hotel,hotel,Athina Puncak Hotel  Resort,"GJMG+42J, Jl. Cendana, Kadolo, Kec. Kokalukuna, Kota Bau-Bau, Sulawesi Tenggara 93711","Jl. Cendana, Kadolo, Kec. Kokalukuna, Kota Bau-Bau",SULAWESI TENGGARA,93711.0,Indonesia,85241689034.0,,,-5.4671625,122.6250301,https://maps.google.com/?cid=0x0:0xfbecc0a711b2d55e,
hotel,Hotel,Villa The View (0821-6409-4926),"Kadolo, Kec. Kokalukuna, Kota Bau-Bau, Sulawesi Tenggara 93716","Kec. Kokalukuna, Kota Bau-Bau",SULAWESI TENGGARA,93716.0,Indonesia,82164094926.0,,,-5.4636652,122.6191307,https://maps.google.com/?cid=0x0:0x3fc9dbd16a4d85a8,
hotel,hotel,Hotel Galaxy Inn,"Jl. Budi Utomo No.71, Bataraguru, Kec. Wolio, Kota Bau-Bau, Sulawesi Tenggara 93717","Bataraguru, Kec. Wolio, Kota Bau-Bau",SULAWESI TENGGARA,93717.0,Indonesia,4022825003.0,,,-5.4666076,122.607875,https://maps.google.com/?cid=0x0:0x94aae5caad99a0ba,
hotel,hotel,Grand Hanura Hotel,"Jl. Martadinata No.56, Batulo, Kec. Wolio, Kota Bau-Bau, Sulawesi Tenggara 93717","Batulo, Kec. Wolio, Kota Bau-Bau",SULAWESI TENGGARA,93717.0,Indonesia,4022816840.0,,,-5.4580701,122.6160526,https://maps.google.com/?cid=0x0:0xac93edfdae173f26,
hotel,hotel,Sulawesi Tenggara 93761,"Kec. Gu, Kabupaten Buton, Sulawesi Tenggara","Kabupaten Buton, Sulawesi Tenggara",SULAWESI TENGGARA,,Indonesia,,,,-5.2702397,122.593828,https://maps.google.com/?cid=0x0:0xe714ef696c5af545,
hotel,hotel,Sangia,"Kec. Sape, Kabupaten Bima, Nusa Tenggara Bar.","Kabupaten Bima, Nusa Tenggara Bar.",SULAWESI TENGGARA,,Indonesia,,,,-8.541726,118.9848837,https://maps.google.com/?cid=0x0:0x4fc2629c6b776e9f,
hotel,hotel,Mambulu,"Kec. Sembakung, Kabupaten Nunukan, Kalimantan Utara","Kabupaten Nunukan, Kalimantan Utara",SULAWESI TENGGARA,,Indonesia,,,,3.8355275,116.9204787,https://maps.google.com/?cid=0x0:0xef28284fdf733144,
hotel,hotel,Mulya Wisma,"Jl. Tangkalawa No. 13, Lakudo Buton Tengah, Wongko Lakudo, Baubau, Kabupaten Buton, Sulawesi Tenggara 93763","Lakudo Buton Tengah, Wongko Lakudo, Baubau, Kabupaten Buton",SULAWESI TENGGARA,93763.0,Indonesia,81242713781.0,,,-5.3189168,122.5313996,https://maps.google.com/?cid=0x0:0x24cd137af11e95cf,
hotel,Rumah Kayu,Sangia wambulu,"JJM9+H6M, Tolandona, Kec. Sangia Wambulu, Kabupaten Buton, Sulawesi Tenggara","Kabupaten Buton, Sulawesi Tenggara",SULAWESI TENGGARA,,Indonesia,,,,-5.3660467,122.6180429,https://maps.google.com/?cid=0x0:0x623b1e8f611ee924,
hotel,Pembangunan Perumahan,Pantai Katembe,"Madongka, Kec. Lakudo, Kabupaten Buton, Sulawesi Tenggara 93763","Kec. Lakudo, Kabupaten Buton",SULAWESI TENGGARA,93763.0,Indonesia,,,,-5.4063177,122.5127077,https://maps.google.com/?cid=0x0:0x61ef6fd02033b90d,
hotel,Taman,Tolandona,"JJM9+Q2V, Jl. Imam Bonjol, Tolandona, Kec. Sangia Wambulu, Kabupaten Buton, Sulawesi Tenggara 93761","Jl. Imam Bonjol, Tolandona, Kec. Sangia Wambulu, Kabupaten Buton",SULAWESI TENGGARA,93761.0,Indonesia,,,,-5.3677907,122.6188062,https://maps.google.com/?cid=0x0:0x4a2c94eb532492a6,
hotel,Gudang,Basecamp WORKES ONE,"JJM9+W5W, Tolandona, Kec. Sangia Wambulu, Kabupaten Buton, Sulawesi Tenggara 93761","Tolandona, Kec. Sangia Wambulu, Kabupaten Buton",SULAWESI TENGGARA,93761.0,Indonesia,,,,-5.3650869,122.6180253,https://maps.google.com/?cid=0x0:0xf3ca9e096dbd9f77,
hotel,hotel,Talaga Raya,"Kabupaten Buton, Sulawesi Tenggara","Kabupaten Buton, Sulawesi Tenggara",SULAWESI TENGGARA,,Indonesia,,,,-5.4213926,122.0155491,https://maps.google.com/?cid=0x0:0x2e35b700451321ba,
hotel,Rumah wisata,Rumah nenek firgo,"G3CG+C6Q, Talaga I, Talaga Raya, Kabupaten Buton, Sulawesi Tenggara 93781","Talaga I, Talaga Raya, Kabupaten Buton",SULAWESI TENGGARA,93781.0,Indonesia,,,,-5.4790423,122.0759539,https://maps.google.com/?cid=0x0:0xa120e39f01c122e3,
hotel,Rumah wisata,Rumah mama mawar,"G3CG+C6Q, Talaga I, Talaga Raya, Kabupaten Buton, Sulawesi Tenggara 93781","Talaga I, Talaga Raya, Kabupaten Buton",SULAWESI TENGGARA,93781.0,Indonesia,,,,-5.479298,122.0760494,https://maps.google.com/?cid=0x0:0x468607a4b72280b2,
restaurant,restaurant,Sulawesi Tenggara 93761,"Kec. Gu, Kabupaten Buton, Sulawesi Tenggara","Kabupaten Buton, Sulawesi Tenggara",SULAWESI TENGGARA,,Indonesia,,,,-5.2702397,122.593828,https://maps.google.com/?cid=0x0:0xe714ef696c5af545,
restaurant,Padang,"Coto Makassar Cabang Jeneberang Raha Di Lombe,buton Tengah","PHV8+FX6, Walando, Kec. Gu, Kabupaten Buton, Sulawesi Tenggara 93761","Walando, Kec. Gu, Kabupaten Buton",SULAWESI TENGGARA,93761.0,Indonesia,82291442757.0,,,-5.2563395,122.5673792,https://maps.google.com/?cid=0x0:0xe6b1af1a83117c1,
restaurant,Prasmanan,Rumah Makan Yusmin,"PHWC+2QG, Walando, Kec. Gu, Kabupaten Buton, Sulawesi Tenggara 93761","Walando, Kec. Gu, Kabupaten Buton",SULAWESI TENGGARA,93761.0,Indonesia,81210650568.0,,,-5.2549305,122.5719578,https://maps.google.com/?cid=0x0:0x2bfb0e923e44a4ff,
restaurant,Restoran,WR. Makan Dita Lestari,"PHWF+FG6, Jl. Jend. Sudirman, Bombonawulu, Kec. Gu, Kabupaten Buton, Sulawesi Tenggara 93761","Jl. Jend. Sudirman, Bombonawulu, Kec. Gu, Kabupaten Buton",SULAWESI TENGGARA,93761.0,Indonesia,,,,-5.2538252,122.5737591,https://maps.google.com/?cid=0x0:0x1003a76edb61563f,
restaurant,Nasi,NASI KUNING MANADO,"Kel. Bombonawulu Kec. Gu. Kab. Buton, Tengah, Kabupaten Buton Tengah, Sulawesi Tenggara 93761","Tengah, Kabupaten Buton Tengah",SULAWESI TENGGARA,93761.0,Indonesia,82259773675.0,,,-5.2539321,122.5781083,https://maps.google.com/?cid=0x0:0x1b5d784e9d22c875,
restaurant,Sulawesi Selatan,Rumah Makan Minang Jaya Lombe,"PHV7+45W, Jl. Poros Lakapera-Waara, Walando, Kec. Gu, Kabupaten Buton, Sulawesi Tenggara 93761","Jl. Poros Lakapera-Waara, Walando, Kec. Gu, Kabupaten Buton",SULAWESI TENGGARA,93761.0,Indonesia,82291672756.0,,,-5.2571448,122.5629435,https://maps.google.com/?cid=0x0:0x889727309b24ac91,
restaurant,Brunch,GAZEBO PAVANA,"PHV9+MPH, Jl. Jend. Sudirman, Walando, Kec. Gu, Kabupaten Buton, Sulawesi Tenggara 93761","Jl. Jend. Sudirman, Walando, Kec. Gu, Kabupaten Buton",SULAWESI TENGGARA,93761.0,Indonesia,81340412139.0,,,-5.2558211,122.5693706,https://maps.google.com/?cid=0x0:0xa675a3d8439df30b,
restaurant,Bakso,Bakso Solo,"PHXG+7WX, Watulea, Kec. Gu, Kabupaten Buton, Sulawesi Tenggara 93761","Watulea, Kec. Gu, Kabupaten Buton",SULAWESI TENGGARA,93761.0,Indonesia,81244982569.0,,,-5.2517533,122.577373,https://maps.google.com/?cid=0x0:0xb000c0edc7086a0f,
restaurant,Kafe,Cobek Buton Sky Lounge,"GJPH+3V4, Kadolo, Kec. Kokalukuna, Kota Bau-Bau, Sulawesi Tenggara 93716","Kadolo, Kec. Kokalukuna, Kota Bau-Bau",SULAWESI TENGGARA,93716.0,Indonesia,,,,-5.4647486,122.6296976,https://maps.google.com/?cid=0x0:0x5a622e9c9b640397,
restaurant,Nasi,NASI KUNING MAMA SARI,"QH2F+VFW, Watulea, Kec. Gu, Kabupaten Buton, Sulawesi Tenggara 93761","Watulea, Kec. Gu, Kabupaten Buton",SULAWESI TENGGARA,93761.0,Indonesia,,,,-5.2477445,122.573704,https://maps.google.com/?cid=0x0:0x8b158bf69ab36771,
restaurant,Restoran,RUMAH MAKAN AHZA,"PHXG+JQ4, Jl. Yos Sudarso, Bombonawulu, Kec. Gu, Kabupaten Buton, Sulawesi Tenggara 93761","Jl. Yos Sudarso, Bombonawulu, Kec. Gu, Kabupaten Buton",SULAWESI TENGGARA,93761.0,Indonesia,85213816116.0,,,-5.2509777,122.5769518,https://maps.google.com/?cid=0x0:0xc3099d0c5d44164c,
restaurant,Restoran,Rumah Makan Cikeas,"Jl. Jend. Sudirman, Bombonawulu, Kec. Gu, Kabupaten Buton, Sulawesi Tenggara 93761","Bombonawulu, Kec. Gu, Kabupaten Buton",SULAWESI TENGGARA,93761.0,Indonesia,,,,-5.254329,122.5732621,https://maps.google.com/?cid=0x0:0x492e8cb5e1e0dec3,
restaurant,Padang,Rumah Makan Anoamo,"PHXG+VPV, Jl. Yos Sudarso, Watulea, Kec. Gu, Kabupaten Buton, Sulawesi Tenggara 93761","Jl. Yos Sudarso, Watulea, Kec. Gu, Kabupaten Buton",SULAWESI TENGGARA,93761.0,Indonesia,,,,-5.2501925,122.5768003,https://maps.google.com/?cid=0x0:0xa16c58c4763f7b3a,
restaurant,Restoran,Kedai FR Sup Ubi Rusuk Daging,"PHR6+PPQ, Jl. Poros Lakapera-Waara, Walando, Kec. Gu, Kabupaten Buton, Sulawesi Tenggara 93761","Jl. Poros Lakapera-Waara, Walando, Kec. Gu, Kabupaten Buton",SULAWESI TENGGARA,93761.0,Indonesia,,,,-5.2581794,122.5617374,https://maps.google.com/?cid=0x0:0xde67a6c16623afdf,
restaurant,Butik,Butik Uthy Collection  O nagget CAFE,"PHWH+98W, Bombonawulu, Kec. Gu, Kabupaten Buton, Sulawesi Tenggara 93761","Bombonawulu, Kec. Gu, Kabupaten Buton",SULAWESI TENGGARA,93761.0,Indonesia,85399400829.0,,,-5.254025,122.5783241,https://maps.google.com/?cid=0x0:0xaac573cf931c41ae,
restaurant,Kafe,Kedai Ferosa Lombe,"PHWF+QX2, Bombonawulu, Kec. Gu, Kabupaten Buton, Sulawesi Tenggara 93761","Bombonawulu, Kec. Gu, Kabupaten Buton",SULAWESI TENGGARA,93761.0,Indonesia,81380983851.0,,,-5.2531047,122.574891,https://maps.google.com/?cid=0x0:0xac22913fba066522,
restaurant,Restoran,DAPUR SHANUM,"Wongko Lakudo, Kec. Lakudo, Kabupaten Buton, Sulawesi Tenggara 93763","Kec. Lakudo, Kabupaten Buton",SULAWESI TENGGARA,93763.0,Indonesia,81315911370.0,,,-5.3213561,122.5360157,https://maps.google.com/?cid=0x0:0x48b1d611dde068a4,
restaurant,Bangunan Bersejarah,Pantai Singku Desa Lowu-Lowu,"PJX7+RFW, Waliko, Kec. Gu, Kabupaten Buton, Sulawesi Tenggara 93761","Waliko, Kec. Gu, Kabupaten Buton",SULAWESI TENGGARA,93761.0,Indonesia,,,,-5.2503893,122.6137153,https://maps.google.com/?cid=0x0:0xcdbcefcc5315dcb5,
restaurant,Kafe,Aneka Dessert Lombe,"PHVG+58, Bombonawulu, Kec. Gu, Kabupaten Buton, Sulawesi Tenggara 93761","Bombonawulu, Kec. Gu, Kabupaten Buton",SULAWESI TENGGARA,93761.0,Indonesia,85243394991.0,,,-5.2568677,122.5642718,https://maps.google.com/?cid=0x0:0xcd4dd779390366ae,
restaurant,Kedai Kopi,Terserahmie Noodle and Drink,"PHWC+2QG, Walando, Kec. Gu, Kabupaten Buton, Sulawesi Tenggara 93761","Walando, Kec. Gu, Kabupaten Buton",SULAWESI TENGGARA,93761.0,Indonesia,,,,-5.2549242,122.5719762,https://maps.google.com/?cid=0x0:0x6f373a72e61f3323,
restaurant,Tujuan Wisata,Karamba Resto Gerak Makmur,"9P3W+QM3, Gerak Makmur, Kec. Sampolawa, Kabupaten Buton",Kabupaten Buton,SULAWESI TENGGARA,,Indonesia,,,,-5.645617,122.7466597,https://maps.google.com/?cid=0x0:0x1813fb2db1a0651a,
restaurant,Padang,R.M Rajawali Masakan Padang,"PHVC+WHR, Jl. Jend. Sudirman, Walando, Kec. Gu, Kabupaten Buton, Sulawesi Tenggara 93761","Jl. Jend. Sudirman, Walando, Kec. Gu, Kabupaten Buton",SULAWESI TENGGARA,93761.0,Indonesia,,,,-5.2551364,122.5714011,https://maps.google.com/?cid=0x0:0xd9142113852683ad,
restaurant,Vila,Bungi Beach,"PGFF+WRX, Moko, Kec. Lakudo, Kabupaten Buton, Sulawesi Tenggara","Kabupaten Buton, Sulawesi Tenggara",SULAWESI TENGGARA,,Indonesia,,,,-5.2751453,122.5246228,https://maps.google.com/?cid=0x0:0x2c7f2c85e1e3fce9,
restaurant,Restoran,Rumah makan prasmanan Mutiara,"perbatasan, Jl. Gersamata, Wongko Lakudo, Kec. Lakudo, Kabupaten Buton, Sulawesi Tenggara","Kabupaten Buton, Sulawesi Tenggara",SULAWESI TENGGARA,,Indonesia,,,,-5.3055641,122.5295395,https://maps.google.com/?cid=0x0:0x5380686d8d75ab11,
restaurant,Restoran,Warung Bomega,"MGJM+M45, Jl. Gersamata, Wongko Lakudo, Kec. Lakudo, Kabupaten Buton, Sulawesi Tenggara 93763","Jl. Gersamata, Wongko Lakudo, Kec. Lakudo, Kabupaten Buton",SULAWESI TENGGARA,93763.0,Indonesia,,,,-5.3183704,122.5328528,https://maps.google.com/?cid=0x0:0xc7e034be9913b48b,
restaurant,Sesuai untuk keluarga,Guska Kitchen,"Jl. Parung Permata Indah Blk. C1 No.21, Kalisuren, Kec. Tajur Halang, Kabupaten Bogor, Jawa Barat 16320","Kalisuren, Kec. Tajur Halang, Kabupaten Bogor",SULAWESI TENGGARA,16320.0,Indonesia,85156799711.0,,,-6.4562002,106.743687,https://maps.google.com/?cid=0x0:0x8d7201e48cb46e10,
restaurant,Rumah Makan,Degung Cafe  Resto,"Cibedug, Kec. Ciawi, Kabupaten Bogor, Jawa Barat","Kabupaten Bogor, Jawa Barat",SULAWESI TENGGARA,,Indonesia,81399908220.0,,,-6.7039993,106.8840825,https://maps.google.com/?cid=0x0:0xe20c85bfab927c55,
restaurant,Kafe,Gg Guee,"7VWG+2FG, Unnamed Road, Citapen, Kec. Ciawi, Kabupaten Bogor, Jawa Barat 16720","Unnamed Road, Citapen, Kec. Ciawi, Kabupaten Bogor",SULAWESI TENGGARA,16720.0,Indonesia,89512221957.0,,,-6.7049459,106.8762143,https://maps.google.com/?cid=0x0:0x68dc00bcda4fcf86,
restaurant,Restoran,GHULAM ON THE SPOT,"Jl. Pembangunan, RT.04/RW.05, Kedunghalang, Kec. Bogor Utara, Kota Bogor, Jawa Barat 16158","RT.04/RW.05, Kedunghalang, Kec. Bogor Utara, Kota Bogor",SULAWESI TENGGARA,16158.0,Indonesia,88221973968.0,,,-6.5521533,106.8127683,https://maps.google.com/?cid=0x0:0xc8dd6d7533b39231,
restaurant,Restoran,DAPUR SHANUM,"Wongko Lakudo, Kec. Lakudo, Kabupaten Buton, Sulawesi Tenggara 93763","Kec. Lakudo, Kabupaten Buton",SULAWESI TENGGARA,93763.0,Indonesia,81315911370.0,,,-5.3213561,122.5360157,https://maps.google.com/?cid=0x0:0x48b1d611dde068a4,
restaurant,restaurant,Sulawesi Tenggara 93763,"Kec. Lakudo, Kabupaten Buton, Sulawesi Tenggara","Kabupaten Buton, Sulawesi Tenggara",SULAWESI TENGGARA,,Indonesia,,,,-5.3531329,122.5598994,https://maps.google.com/?cid=0x0:0x62c2a15eea95dc2,
restaurant,Restoran,RM SEDAP MALAM,"MGHP+92J, Jl. KH. Abdul Syukur, Wongko Lakudo, Kec. Lakudo, Kabupaten Buton, Sulawesi Tenggara","Kabupaten Buton, Sulawesi Tenggara",SULAWESI TENGGARA,,Indonesia,,,,-5.321544,122.535005,https://maps.google.com/?cid=0x0:0x4515c65997e47cfe,
restaurant,Restoran,Warung Bomega,"MGJM+M45, Jl. Gersamata, Wongko Lakudo, Kec. Lakudo, Kabupaten Buton, Sulawesi Tenggara 93763","Jl. Gersamata, Wongko Lakudo, Kec. Lakudo, Kabupaten Buton",SULAWESI TENGGARA,93763.0,Indonesia,,,,-5.3183704,122.5328528,https://maps.google.com/?cid=0x0:0xc7e034be9913b48b,
restaurant,Restoran,Warung Anugrah,"Wongko Lakudo, Kec. Lakudo, Kabupaten Buton, Sulawesi Tenggara","Kabupaten Buton, Sulawesi Tenggara",SULAWESI TENGGARA,,Indonesia,85342855432.0,,,-5.319439,122.5328662,https://maps.google.com/?cid=0x0:0xbc67fdba2dacc7d9,
restaurant,Rumah Makan,Warung makan si kembar,"MGMG+9F2, Wongko Lakudo, Kec. Lakudo, Kabupaten Buton, Sulawesi Tenggara","Kabupaten Buton, Sulawesi Tenggara",SULAWESI TENGGARA,,Indonesia,,,,-5.3166095,122.5261285,https://maps.google.com/?cid=0x0:0xfa80b929c9ab8bc9,
restaurant,Sarapan,Warung Makan AURA LAKUDO,"MGHM+VRG, Jl. Gersamata, Wongko Lakudo, Kec. Lakudo, Kabupaten Buton, Sulawesi Tenggara 93763","Jl. Gersamata, Wongko Lakudo, Kec. Lakudo, Kabupaten Buton",SULAWESI TENGGARA,93763.0,Indonesia,82189303556.0,,,-5.320308,122.5345702,https://maps.google.com/?cid=0x0:0x3b0d854d5e871f4,
restaurant,Rumah Makan,RM.poleang Indah,"MGHM+QM9, Unnamed Road, Wongko Lakudo, Kec. Lakudo, Kabupaten Buton, Sulawesi Tenggara","Kabupaten Buton, Sulawesi Tenggara",SULAWESI TENGGARA,,Indonesia,85340094522.0,,,-5.3205945,122.5342311,https://maps.google.com/?cid=0x0:0xc22edcd0702a11b,
restaurant,Vila,Bungi Beach,"PGFF+WRX, Moko, Kec. Lakudo, Kabupaten Buton, Sulawesi Tenggara","Kabupaten Buton, Sulawesi Tenggara",SULAWESI TENGGARA,,Indonesia,,,,-5.2751453,122.5246228,https://maps.google.com/?cid=0x0:0x2c7f2c85e1e3fce9,
restaurant,Sarapan,"Warung mamaG,","JG6G+C46, Boneoge, Kec. Lakudo, Kabupaten Buton, Sulawesi Tenggara 93763","Boneoge, Kec. Lakudo, Kabupaten Buton",SULAWESI TENGGARA,93763.0,Indonesia,,,,-5.3889553,122.5247579,https://maps.google.com/?cid=0x0:0x2f4327cf2098daa9,
restaurant,Restoran,Rumah makan prasmanan Mutiara,"perbatasan, Jl. Gersamata, Wongko Lakudo, Kec. Lakudo, Kabupaten Buton, Sulawesi Tenggara","Kabupaten Buton, Sulawesi Tenggara",SULAWESI TENGGARA,,Indonesia,,,,-5.3055641,122.5295395,https://maps.google.com/?cid=0x0:0x5380686d8d75ab11,
restaurant,restaurant,Capcin afdal,"Lolibu, Kec. Lakudo, Kabupaten Buton, Sulawesi Tenggara 93762","Kec. Lakudo, Kabupaten Buton",SULAWESI TENGGARA,93762.0,Indonesia,,,,-5.2950453,122.4874014,https://maps.google.com/?cid=0x0:0xd6e280c49d9b3d0e,
restaurant,Restoran,WM SiKembar,"Wongko Lakudo, Kec. Lakudo, Buton Tengah, Sulawesi Tenggara 93763","Kec. Lakudo, Buton Tengah",SULAWESI TENGGARA,93763.0,Indonesia,81242391375.0,,,-5.3195258,122.5330677,https://maps.google.com/?cid=0x0:0x18458d67768258ee,
restaurant,Indonesia,Rumah makan nikmat,"PF4R+WWX, jl.lintas labungkari, mawasangka, Kec. Lakudo, Kabupaten Buton, Sulawesi Tenggara","Kabupaten Buton, Sulawesi Tenggara",SULAWESI TENGGARA,,Indonesia,82252632084.0,,,-5.2926256,122.4923462,https://maps.google.com/?cid=0x0:0xddf5e72db0ffd2d4,
restaurant,Restoran,Dapur Mama Nesha,"Kelurahan Lakudo Belakang MAN I Buton, Tengah, Kabupaten Buton Tengah, Sulawesi Tenggara 93763","Tengah, Kabupaten Buton Tengah",SULAWESI TENGGARA,93763.0,Indonesia,82190441850.0,,,-5.3144311,122.5323796,https://maps.google.com/?cid=0x0:0x38081e1aba99f6da,
restaurant,Restoran,BAKSO RAHMAT,"JG5G+53J, Jl. Langgasa, Boneoge, Kec. Lakudo, Kabupaten Buton, Sulawesi Tenggara 93763","Jl. Langgasa, Boneoge, Kec. Lakudo, Kabupaten Buton",SULAWESI TENGGARA,93763.0,Indonesia,81253999575.0,,,-5.3920349,122.5251335,https://maps.google.com/?cid=0x0:0x9bab422ff633e573,
restaurant,Restoran,RUMAH MAKAN AHZA,"PHXG+JQ4, Jl. Yos Sudarso, Bombonawulu, Kec. Gu, Kabupaten Buton, Sulawesi Tenggara 93761","Jl. Yos Sudarso, Bombonawulu, Kec. Gu, Kabupaten Buton",SULAWESI TENGGARA,93761.0,Indonesia,85213816116.0,,,-5.2509777,122.5769518,https://maps.google.com/?cid=0x0:0xc3099d0c5d44164c,
restaurant,Kafe,Caka cafe,"PG64+M7Q, Wajogu, Kec. Lakudo, Kabupaten Buton, Sulawesi Tenggara","Kabupaten Buton, Sulawesi Tenggara",SULAWESI TENGGARA,,Indonesia,,,,-5.2882887,122.5057388,https://maps.google.com/?cid=0x0:0xdb16111acb51c8f5,
restaurant,Rumah Makan,Warung makan saliwu,"MGHM+MR, Wongko Lakudo, Kec. Lakudo, Kabupaten Buton, Sulawesi Tenggara","Kabupaten Buton, Sulawesi Tenggara",SULAWESI TENGGARA,,Indonesia,,,,-5.320816,122.534526,https://maps.google.com/?cid=0x0:0xe90ce329bc8eda7f,
restaurant,restaurant,Kedai jangkar buton,"HJHG+QF3, Jembatan Biru Pulau Makasar(puma)Dekat Pertigaan ATMmini Kedai Jangkar Buton, Jalan Lingkungan Banabungi Kel, RT.003/RW.001, Sukanayo, Kec. Kokalukuna, Kota Bau-Bau, Sulawesi Tenggara 93716","Jembatan Biru Pulau Makasar(puma)Dekat Pertigaan ATMmini Kedai Jangkar Buton, Jalan Lingkungan Banabungi Kel, RT.003/RW.001, Sukanayo, Kec. Kokalukuna, Kota Bau-Bau",SULAWESI TENGGARA,93716.0,Indonesia,,,,-5.4206232,122.6261595,https://maps.google.com/?cid=0x0:0xae48b732686e90a9,
restaurant,Padang,"Coto Makassar Cabang Jeneberang Raha Di Lombe,buton Tengah","PHV8+FX6, Walando, Kec. Gu, Kabupaten Buton, Sulawesi Tenggara 93761","Walando, Kec. Gu, Kabupaten Buton",SULAWESI TENGGARA,93761.0,Indonesia,82291442757.0,,,-5.2563395,122.5673792,https://maps.google.com/?cid=0x0:0xe6b1af1a83117c1,
restaurant,Kafe,MINI CAFE RX,"MGJM+J9C, Jl. Gersamata, Wongko Lakudo, Kec. Lakudo, Kabupaten Buton, Sulawesi Tenggara 93763","Jl. Gersamata, Wongko Lakudo, Kec. Lakudo, Kabupaten Buton",SULAWESI TENGGARA,93763.0,Indonesia,,,,-5.3184497,122.5334002,https://maps.google.com/?cid=0x0:0x901c59ba84b05f40,
restaurant,restaurant,Mawasangka,"Mawasangka, Kec. Mawasangka, Kabupaten Buton, Sulawesi Tenggara","Kabupaten Buton, Sulawesi Tenggara",SULAWESI TENGGARA,,Indonesia,,,,-5.290863,122.298897,https://maps.google.com/?cid=0x0:0x6eab10a86a088341,
restaurant,Brunch,RM.SINAR SEJATI,"Unnamed Road, Mawasangka, Kec. Mawasangka, Kabupaten Buton tengah, Sulawesi Tenggara 93762","Mawasangka, Kec. Mawasangka, Kabupaten Buton tengah",SULAWESI TENGGARA,93762.0,Indonesia,82225162565.0,,,-5.2903213,122.2966418,https://maps.google.com/?cid=0x0:0xc44f7b9c97572bc2,
restaurant,Brunch,RUMAH MAKAN MASYA,"P74M+J78, Unnamed Road, Watolo, Kec. Mawasangka, Kabupaten Buton, Sulawesi Tenggara 93762","Unnamed Road, Watolo, Kec. Mawasangka, Kabupaten Buton",SULAWESI TENGGARA,93762.0,Indonesia,,,,-5.2934671,122.2832024,https://maps.google.com/?cid=0x0:0xfd9589ec19ca680f,
restaurant,Brunch,RM. Aremania,"P76M+CPF, Mawasangka, Kec. Mawasangka, Kabupaten Buton, Sulawesi Tenggara 93762","Mawasangka, Kec. Mawasangka, Kabupaten Buton",SULAWESI TENGGARA,93762.0,Indonesia,,,,-5.2889312,122.2842909,https://maps.google.com/?cid=0x0:0xbbd9dea86fda9b08,
restaurant,Rumah Makan,Warung makan rafha,"P76M+7HG, Watolo, Kec. Mawasangka, Kabupaten Buton, Sulawesi Tenggara 93762","Watolo, Kec. Mawasangka, Kabupaten Buton",SULAWESI TENGGARA,93762.0,Indonesia,81344227381.0,,,-5.2893154,122.2840038,https://maps.google.com/?cid=0x0:0xe978183566fda95c,
restaurant,Rumah Makan,Cafe Triple S,"M969+GXW, Lakorua, Kec. Mawasangka Tengah, Kabupaten Buton, Sulawesi Tenggara 93762","Lakorua, Kec. Mawasangka Tengah, Kabupaten Buton",SULAWESI TENGGARA,93762.0,Indonesia,,,,-5.3397677,122.37032,https://maps.google.com/?cid=0x0:0xb725b4a05c639c51,
restaurant,Rumah Makan,Rumah makn rafha,"M7XR+WWG, Watolo, Kec. Mawasangka, Kabupaten Buton, Sulawesi Tenggara 93762","Watolo, Kec. Mawasangka, Kabupaten Buton",SULAWESI TENGGARA,93762.0,Indonesia,,,,-5.3001873,122.2923253,https://maps.google.com/?cid=0x0:0x18ce1fecdc29ae88,
restaurant,restaurant,Sulawesi Tenggara 93762,"Kabupaten Buton, Sulawesi Tenggara","Kabupaten Buton, Sulawesi Tenggara",SULAWESI TENGGARA,,Indonesia,,,,-5.291781,122.3787597,https://maps.google.com/?cid=0x0:0x29d13fe4e83e4ba7,
restaurant,Brunch,RM.SINAR SEJATI,"Unnamed Road, Mawasangka, Kec. Mawasangka, Kabupaten Buton tengah, Sulawesi Tenggara 93762","Mawasangka, Kec. Mawasangka, Kabupaten Buton tengah",SULAWESI TENGGARA,93762.0,Indonesia,82225162565.0,,,-5.2903213,122.2966418,https://maps.google.com/?cid=0x0:0xc44f7b9c97572bc2,
restaurant,Rumah Makan,Wr.sari Rasa,"P78Q+JH2, Mawasangka, Kec. Mawasangka, Kabupaten Buton, Sulawesi Tenggara 93762","Mawasangka, Kec. Mawasangka, Kabupaten Buton",SULAWESI TENGGARA,93762.0,Indonesia,81317518885.0,,,-5.2834843,122.2889022,https://maps.google.com/?cid=0x0:0x2f08f067a475efba,
restaurant,Jawa,RM. Maulagi,"Jl. Poros Mawasangka-Wamengkoli, Lakorua, Kec. Mawasangka Tengah, Buton Tengah, Sulawesi Tenggara 93762","Lakorua, Kec. Mawasangka Tengah, Buton Tengah",SULAWESI TENGGARA,93762.0,Indonesia,82189377171.0,,,-5.3288816,122.3718706,https://maps.google.com/?cid=0x0:0xb727792dbff0a6c0,
restaurant,Agensi foto,Mutiara beach cafe n' Resto,"Pantai mutiara desa, gumanano, Kec. Mawasangka, Kabupaten Buton, Sulawesi Tenggara","Kabupaten Buton, Sulawesi Tenggara",SULAWESI TENGGARA,,Indonesia,85146258566.0,,,-5.3955496,122.3201193,https://maps.google.com/?cid=0x0:0x10dd115aa7cf0985,
restaurant,Rumah Makan,RM. Putra Sragen,"P77P+VQW, Mawasangka, Mawasangka Tengah, Kabupaten Buton, Sulawesi Tenggara 93762","Mawasangka, Mawasangka Tengah, Kabupaten Buton",SULAWESI TENGGARA,93762.0,Indonesia,,,,-5.2852721,122.2869391,https://maps.google.com/?cid=0x0:0x31b2aca3711d32c5,
restaurant,Pusat Perbelanjaan,Rumah Makan Inang,"M9HJ+VX4, Unnamed Road, Lalibo, Kec. Mawasangka Tengah, Kabupaten Buton, Sulawesi Tenggara 93762","Unnamed Road, Lalibo, Kec. Mawasangka Tengah, Kabupaten Buton",SULAWESI TENGGARA,93762.0,Indonesia,,,,-5.3203534,122.3824462,https://maps.google.com/?cid=0x0:0x26361905f13156e,
restaurant,Hotel,RM dan Penginapan Totonayinca,"P77P+RG9, Unnamed Road, Mawasangka, Buton Regency, South East Sulawesi 93762","Unnamed Road, Mawasangka, Buton Regency",SULAWESI TENGGARA,93762.0,Indonesia,,,,-5.285454,122.2863544,https://maps.google.com/?cid=0x0:0x4a7b4719e92e115f,
restaurant,Ayam Goreng,AyPo Mawasangka,"P77P+334, Mawasangka, Kec. Mawasangka, Kabupaten Buton, Sulawesi Tenggara 93762","Mawasangka, Kec. Mawasangka, Kabupaten Buton",SULAWESI TENGGARA,93762.0,Indonesia,82327249888.0,,,-5.2873663,122.2852176,https://maps.google.com/?cid=0x0:0xe8cd4a6c05875674,
restaurant,Brunch,RUMAH MAKAN MASYA,"P74M+J78, Unnamed Road, Watolo, Kec. Mawasangka, Kabupaten Buton, Sulawesi Tenggara 93762","Unnamed Road, Watolo, Kec. Mawasangka, Kabupaten Buton",SULAWESI TENGGARA,93762.0,Indonesia,,,,-5.2934671,122.2832024,https://maps.google.com/?cid=0x0:0xfd9589ec19ca680f,
restaurant,Indonesia,Rumah Makan NZ,"MCM3+8Q3, Garangga (Dekat Goa Maobu, Lalibo, Kec. Mawasangka Tengah, Kabupaten Buton, Sulawesi Tenggara","Kabupaten Buton, Sulawesi Tenggara",SULAWESI TENGGARA,,Indonesia,,,,-5.3167333,122.4044222,https://maps.google.com/?cid=0x0:0x8b156d646dbc3ef7,
restaurant,Kedai Kopi,Rumah Makan Bulan Mey,"Mawasangka, Kec. Mawasangka, Buton Tengah, Sulawesi Tenggara 93762","Kec. Mawasangka, Buton Tengah",SULAWESI TENGGARA,93762.0,Indonesia,82275544467.0,,,-5.2914218,122.2952688,https://maps.google.com/?cid=0x0:0x9ed62229bd01db83,
restaurant,Rumah Makan,RM. Massipa,"P77Q+MJ5, Mawasangka, Kec. Mawasangka, Kabupaten Buton, Sulawesi Tenggara 93762","Mawasangka, Kec. Mawasangka, Kabupaten Buton",SULAWESI TENGGARA,93762.0,Indonesia,,,,-5.2858519,122.2891046,https://maps.google.com/?cid=0x0:0x77525b0a6a10ae8a,
restaurant,Rumah Makan,Cafe Triple S,"M969+GXW, Lakorua, Kec. Mawasangka Tengah, Kabupaten Buton, Sulawesi Tenggara 93762","Lakorua, Kec. Mawasangka Tengah, Kabupaten Buton",SULAWESI TENGGARA,93762.0,Indonesia,,,,-5.3397677,122.37032,https://maps.google.com/?cid=0x0:0xb725b4a05c639c51,
restaurant,Restoran,Warung jawa,"M9CF+Q98, Lakorua, Kec. Mawasangka Tengah, Kabupaten Buton, Sulawesi Tenggara","Kabupaten Buton, Sulawesi Tenggara",SULAWESI TENGGARA,,Indonesia,,,,-5.3280866,122.3734508,https://maps.google.com/?cid=0x0:0xa2a2b73033207b,
restaurant,Brunch,RM. Aremania,"P76M+CPF, Mawasangka, Kec. Mawasangka, Kabupaten Buton, Sulawesi Tenggara 93762","Mawasangka, Kec. Mawasangka, Kabupaten Buton",SULAWESI TENGGARA,93762.0,Indonesia,,,,-5.2889312,122.2842909,https://maps.google.com/?cid=0x0:0xbbd9dea86fda9b08,
restaurant,Kafe,Warung kota wali,"P78Q+P38, Mawasangka, Kec. Mawasangka, Kabupaten Buton, Sulawesi Tenggara 93762","Mawasangka, Kec. Mawasangka, Kabupaten Buton",SULAWESI TENGGARA,93762.0,Indonesia,82189114483.0,,,-5.2832086,122.2876922,https://maps.google.com/?cid=0x0:0xa8ba168916636280,
restaurant,Toko Roti,Raisha Cake  Cookies,"Mawasangka, Unnamed Road, Kec. Mawasangka, Kabupaten Buton, Sulawesi Tenggara 93762","Unnamed Road, Kec. Mawasangka, Kabupaten Buton",SULAWESI TENGGARA,93762.0,Indonesia,82396230094.0,,,-5.2786182,122.2929118,https://maps.google.com/?cid=0x0:0x2cbe27be731c0532,
restaurant,Tujuan Wisata,Desa Gumanano,"J833+HPJ, Unnamed Road, Gumamano, Kec. Mawasangka, Kabupaten Buton, Sulawesi Tenggara","Kabupaten Buton, Sulawesi Tenggara",SULAWESI TENGGARA,,Indonesia,,,,-5.3960289,122.3042647,https://maps.google.com/?cid=0x0:0xbbbeb372e1cab202,
restaurant,Dapur Umum,RM. UMAY IRMA,"P75M+X8G, Lingkungan Kaweli, Watolo, Kec. Mawasangka, Kabupaten Buton, Sulawesi Tenggara","Kabupaten Buton, Sulawesi Tenggara",SULAWESI TENGGARA,,Indonesia,81244832887.0,,,-5.290057,122.283314,https://maps.google.com/?cid=0x0:0xe48d019894d91d7b,
restaurant,Restoran,Kedai Pesisir,"P7CV+G7R, Mawasangka, Kec. Mawasangka Tengah, Kabupaten Buton, Sulawesi Tenggara 93762","Mawasangka, Kec. Mawasangka Tengah, Kabupaten Buton",SULAWESI TENGGARA,93762.0,Indonesia,85299146141.0,,,-5.2786308,122.2931499,https://maps.google.com/?cid=0x0:0xaaead9c563131806,
restaurant,restaurant,Warkop HT,"M88R+6HQ, Morikana, Kec. Mawasangka Tengah, Kabupaten Buton, Sulawesi Tenggara 93762","Morikana, Kec. Mawasangka Tengah, Kabupaten Buton",SULAWESI TENGGARA,93762.0,Indonesia,,,,-5.3344049,122.3414695,https://maps.google.com/?cid=0x0:0x9d7295a6afb6ba96,
restaurant,Kedai Kopi,CAFE NTOYNI,"Pasar sentral, kelurahan, Lakorua, Kec. Mawasangka Tengah, Buton tengah, Sulawesi Tenggara 97362","kelurahan, Lakorua, Kec. Mawasangka Tengah, Buton tengah",SULAWESI TENGGARA,97362.0,Indonesia,82238653899.0,,,-5.3318078,122.3725515,https://maps.google.com/?cid=0x0:0x631a48a4f047413a,
restaurant,Rumah Makan,Warung makan rafha,"P76M+7HG, Watolo, Kec. Mawasangka, Kabupaten Buton, Sulawesi Tenggara 93762","Watolo, Kec. Mawasangka, Kabupaten Buton",SULAWESI TENGGARA,93762.0,Indonesia,81344227381.0,,,-5.2893154,122.2840038,https://maps.google.com/?cid=0x0:0xe978183566fda95c,
restaurant,restaurant,Mawasangka Tim.,"Kabupaten Buton, Sulawesi Tenggara","Kabupaten Buton, Sulawesi Tenggara",SULAWESI TENGGARA,,Indonesia,,,,-5.3611739,122.424074,https://maps.google.com/?cid=0x0:0xf58d05571c4d04f4,
restaurant,Pusat Perbelanjaan,Rumah Makan Inang,"M9HJ+VX4, Unnamed Road, Lalibo, Kec. Mawasangka Tengah, Kabupaten Buton, Sulawesi Tenggara 93762","Unnamed Road, Lalibo, Kec. Mawasangka Tengah, Kabupaten Buton",SULAWESI TENGGARA,93762.0,Indonesia,,,,-5.3203534,122.3824462,https://maps.google.com/?cid=0x0:0x26361905f13156e,
restaurant,Indonesia,Rumah Makan NZ,"MCM3+8Q3, Garangga (Dekat Goa Maobu, Lalibo, Kec. Mawasangka Tengah, Kabupaten Buton, Sulawesi Tenggara","Kabupaten Buton, Sulawesi Tenggara",SULAWESI TENGGARA,,Indonesia,,,,-5.3167333,122.4044222,https://maps.google.com/?cid=0x0:0x8b156d646dbc3ef7,
restaurant,Kedai Kopi,Jiwamu_86,"Watorumbe, Kec. Mawasangka Tengah, Kabupaten Buton, Sulawesi Tenggara","Kabupaten Buton, Sulawesi Tenggara",SULAWESI TENGGARA,,Indonesia,812413444440.0,,,-5.3726129,122.3789681,https://maps.google.com/?cid=0x0:0x2de6762706606288,
restaurant,Kedai Kopi,Kedai Acil,"HCWX+HJJ, Inulu, Mawasangka Tim., Kabupaten Buton, Sulawesi Tenggara","Kabupaten Buton, Sulawesi Tenggara",SULAWESI TENGGARA,,Indonesia,82271603656.0,,,-5.4030511,122.4497359,https://maps.google.com/?cid=0x0:0xf1f3d2103fa0e2ea,
restaurant,Restoran,Bapak igo,"HFX4+VX5, Inulu, Mawasangka Tim., Kabupaten Buton, Sulawesi Tenggara 93762","Inulu, Mawasangka Tim., Kabupaten Buton",SULAWESI TENGGARA,93762.0,Indonesia,,,,-5.4003502,122.4574784,https://maps.google.com/?cid=0x0:0x18a147b6262678dd,
restaurant,Rumah Makan,Cafe Triple S,"M969+GXW, Lakorua, Kec. Mawasangka Tengah, Kabupaten Buton, Sulawesi Tenggara 93762","Lakorua, Kec. Mawasangka Tengah, Kabupaten Buton",SULAWESI TENGGARA,93762.0,Indonesia,,,,-5.3397677,122.37032,https://maps.google.com/?cid=0x0:0xb725b4a05c639c51,
restaurant,Rumah Makan,RM. Massipa,"P77Q+MJ5, Mawasangka, Kec. Mawasangka, Kabupaten Buton, Sulawesi Tenggara 93762","Mawasangka, Kec. Mawasangka, Kabupaten Buton",SULAWESI TENGGARA,93762.0,Indonesia,,,,-5.2858519,122.2891046,https://maps.google.com/?cid=0x0:0x77525b0a6a10ae8a,
restaurant,Brunch,RUMAH MAKAN MASYA,"P74M+J78, Unnamed Road, Watolo, Kec. Mawasangka, Kabupaten Buton, Sulawesi Tenggara 93762","Unnamed Road, Watolo, Kec. Mawasangka, Kabupaten Buton",SULAWESI TENGGARA,93762.0,Indonesia,,,,-5.2934671,122.2832024,https://maps.google.com/?cid=0x0:0xfd9589ec19ca680f,
restaurant,Brunch,RM. Aremania,"P76M+CPF, Mawasangka, Kec. Mawasangka, Kabupaten Buton, Sulawesi Tenggara 93762","Mawasangka, Kec. Mawasangka, Kabupaten Buton",SULAWESI TENGGARA,93762.0,Indonesia,,,,-5.2889312,122.2842909,https://maps.google.com/?cid=0x0:0xbbd9dea86fda9b08,
restaurant,Kedai Kopi,PESONA JIWAMU,"Unnamed Road, Watorumbe Bata, Kec. Mawasangka Tengah, Kabupaten Buton, Sulawesi Tenggara","Kabupaten Buton, Sulawesi Tenggara",SULAWESI TENGGARA,,Indonesia,81241344440.0,,,-5.3719724,122.3792304,https://maps.google.com/?cid=0x0:0x38091815fd272bd3,
restaurant,Restoran,Warung Bomega,"MGJM+M45, Jl. Gersamata, Wongko Lakudo, Kec. Lakudo, Kabupaten Buton, Sulawesi Tenggara 93763","Jl. Gersamata, Wongko Lakudo, Kec. Lakudo, Kabupaten Buton",SULAWESI TENGGARA,93763.0,Indonesia,,,,-5.3183704,122.5328528,https://maps.google.com/?cid=0x0:0xc7e034be9913b48b,
restaurant,restaurant,Kedai Rara,"HFX4+48R, Inulu, Mawasangka Tim., Kabupaten Buton, Sulawesi Tenggara","Kabupaten Buton, Sulawesi Tenggara",SULAWESI TENGGARA,,Indonesia,,,,-5.4021256,122.4557219,https://maps.google.com/?cid=0x0:0x3d145efc491cee52,
restaurant,Kafe,KEDAI BENTE,"MGHP+24R, Wongko Lakudo, Kec. Lakudo, Kabupaten Buton, Sulawesi Tenggara","Kabupaten Buton, Sulawesi Tenggara",SULAWESI TENGGARA,,Indonesia,,,,-5.3223794,122.5352751,https://maps.google.com/?cid=0x0:0x5a10dd1988f9448,
restaurant,Restoran,Warung Anugrah,"Wongko Lakudo, Kec. Lakudo, Kabupaten Buton, Sulawesi Tenggara","Kabupaten Buton, Sulawesi Tenggara",SULAWESI TENGGARA,,Indonesia,85342855432.0,,,-5.319439,122.5328662,https://maps.google.com/?cid=0x0:0xbc67fdba2dacc7d9,
restaurant,Restoran,DAPUR SHANUM,"Wongko Lakudo, Kec. Lakudo, Kabupaten Buton, Sulawesi Tenggara 93763","Kec. Lakudo, Kabupaten Buton",SULAWESI TENGGARA,93763.0,Indonesia,81315911370.0,,,-5.3213561,122.5360157,https://maps.google.com/?cid=0x0:0x48b1d611dde068a4,
restaurant,Jawa,Warung Jahit (Warja),"Unnamed Road, Lalibo, Kec. Mawasangka Tengah, Kabupaten Buton, Sulawesi Tenggara","Kabupaten Buton, Sulawesi Tenggara",SULAWESI TENGGARA,,Indonesia,81268683439.0,,,-5.3193806,122.3882237,https://maps.google.com/?cid=0x0:0x9292e19a234ac7b1,
restaurant,Vila,Bungi Beach,"PGFF+WRX, Moko, Kec. Lakudo, Kabupaten Buton, Sulawesi Tenggara","Kabupaten Buton, Sulawesi Tenggara",SULAWESI TENGGARA,,Indonesia,,,,-5.2751453,122.5246228,https://maps.google.com/?cid=0x0:0x2c7f2c85e1e3fce9,
restaurant,Indonesia,Rumah makan nikmat,"PF4R+WWX, jl.lintas labungkari, mawasangka, Kec. Lakudo, Kabupaten Buton, Sulawesi Tenggara","Kabupaten Buton, Sulawesi Tenggara",SULAWESI TENGGARA,,Indonesia,82252632084.0,,,-5.2926256,122.4923462,https://maps.google.com/?cid=0x0:0xddf5e72db0ffd2d4,
restaurant,Kafe,Hoki Ice Blend,"Jl. Poros Lamena, Wantopi, Mawasangka Tim., Kabupaten Buton, Sulawesi Tenggara 93762","Wantopi, Mawasangka Tim., Kabupaten Buton",SULAWESI TENGGARA,93762.0,Indonesia,82293894140.0,,,-5.3695896,122.4681167,https://maps.google.com/?cid=0x0:0xbdfc16c522d8124d,
restaurant,Rumah Makan,Warung makan rafha,"P76M+7HG, Watolo, Kec. Mawasangka, Kabupaten Buton, Sulawesi Tenggara 93762","Watolo, Kec. Mawasangka, Kabupaten Buton",SULAWESI TENGGARA,93762.0,Indonesia,81344227381.0,,,-5.2893154,122.2840038,https://maps.google.com/?cid=0x0:0xe978183566fda95c,
restaurant,Restoran,WM SiKembar,"Wongko Lakudo, Kec. Lakudo, Buton Tengah, Sulawesi Tenggara 93763","Kec. Lakudo, Buton Tengah",SULAWESI TENGGARA,93763.0,Indonesia,81242391375.0,,,-5.3195258,122.5330677,https://maps.google.com/?cid=0x0:0x18458d67768258ee,
restaurant,Rumah Makan,Warung makan si kembar,"MGMG+9F2, Wongko Lakudo, Kec. Lakudo, Kabupaten Buton, Sulawesi Tenggara","Kabupaten Buton, Sulawesi Tenggara",SULAWESI TENGGARA,,Indonesia,,,,-5.3166095,122.5261285,https://maps.google.com/?cid=0x0:0xfa80b929c9ab8bc9,
restaurant,Jus,JIU SHUI (Boba),"Jl. Poros Lamena No.49, Inulu, Mawasangka Tim., Kabupaten Buton, Sulawesi Tenggara","Kabupaten Buton, Sulawesi Tenggara",SULAWESI TENGGARA,,Indonesia,82290209520.0,,,-5.4025373,122.4518241,https://maps.google.com/?cid=0x0:0x922cdde3cc4f1b69,
restaurant,restaurant,Pentol kuah bang ampo,"HFX4+F22, Jl. Poros Lamena, Inulu, Mawasangka Tim., Kabupaten Buton, Sulawesi Tenggara","Kabupaten Buton, Sulawesi Tenggara",SULAWESI TENGGARA,,Indonesia,,,,-5.4013621,122.4548896,https://maps.google.com/?cid=0x0:0xb39d684a3d54648c,
restaurant,Rumah Makan,Rumah Makan Lambusango,"QRG5+F8H, Watumotobe, Kec. Kapontori, Kabupaten Buton, Sulawesi Tenggara 93755","Watumotobe, Kec. Kapontori, Kabupaten Buton",SULAWESI TENGGARA,93755.0,Indonesia,,,,-5.2238188,122.8083503,https://maps.google.com/?cid=0x0:0x50610edf6883623e,
restaurant,Restoran,Rumah Makan Liangkamoi,"QRWQ+WFJ, Wakangka, Kec. Kapontori, Kabupaten Buton, Sulawesi Tenggara 93755","Wakangka, Kec. Kapontori, Kabupaten Buton",SULAWESI TENGGARA,93755.0,Indonesia,,,,-5.2026502,122.8386494,https://maps.google.com/?cid=0x0:0x97bfffd00e6eafc4,
restaurant,Rumah Makan,Rumah Makan Barokah,"PPRR+HPG, Boneatiro, Kec. Kapontori, Kabupaten Buton, Sulawesi Tenggara 93755","Boneatiro, Kec. Kapontori, Kabupaten Buton",SULAWESI TENGGARA,93755.0,Indonesia,,,,-5.2585593,122.7418411,https://maps.google.com/?cid=0x0:0x347d656d9181e1fc,
restaurant,restaurant,Sulawesi Tenggara,,Sulawesi Tenggara,SULAWESI TENGGARA,,Indonesia,,,,-4.14491,122.174605,https://maps.google.com/?cid=0x0:0x621d7c439f04a4ed,
restaurant,Tujuan Wisata,Karamba Resto Gerak Makmur,"9P3W+QM3, Gerak Makmur, Kec. Sampolawa, Kabupaten Buton",Kabupaten Buton,SULAWESI TENGGARA,,Indonesia,,,,-5.645617,122.7466597,https://maps.google.com/?cid=0x0:0x1813fb2db1a0651a,
restaurant,Bakso,RM. Warung Bakso Mombaka Bunda Lia.,"Jl. Ama Hatibi, Laburunci, Kec. Ps. Wajo, Kabupaten Buton, Sulawesi Tenggara 93754","Laburunci, Kec. Ps. Wajo, Kabupaten Buton",SULAWESI TENGGARA,93754.0,Indonesia,81346340930.0,,,-5.5211059,122.8400949,https://maps.google.com/?cid=0x0:0x554fe4716e11f1e2,
restaurant,Dapur Umum,Rumah Makan Mama Dimas,"Q3G9+632, Lasembangi, Kec. Lasalimu, Kabupaten Buton, Sulawesi Tenggara 93756","Lasembangi, Kec. Lasalimu, Kabupaten Buton",SULAWESI TENGGARA,93756.0,Indonesia,,,,-5.2244891,123.0676469,https://maps.google.com/?cid=0x0:0xa336b66721a6a510,
restaurant,Brunch,Warung makan dimas,"GVH4+VXF, Wasaga, Kec. Ps. Wajo, Kabupaten Buton, Sulawesi Tenggara 93754","Wasaga, Kec. Ps. Wajo, Kabupaten Buton",SULAWESI TENGGARA,93754.0,Indonesia,,,,-5.4703025,122.8574141,https://maps.google.com/?cid=0x0:0x240b6f9630dfc7a0,
restaurant,Dapur Umum,Lambu no la singgel,"G3GH+3F, Talaga I, Talaga Raya, Kabupaten Buton, Sulawesi Tenggara 93781","Talaga I, Talaga Raya, Kabupaten Buton",SULAWESI TENGGARA,93781.0,Indonesia,,,,-5.4749393,122.078336,https://maps.google.com/?cid=0x0:0x598f32063dfe5949,
restaurant,Toko bahan makanan,Rumah La Ngenge,"9Q66+C5, Gerak Makmur, Kec. Sampolawa, Kabupaten Buton, Sulawesi Tenggara 93753","Gerak Makmur, Kec. Sampolawa, Kabupaten Buton",SULAWESI TENGGARA,93753.0,Indonesia,,,,-5.6389429,122.760378,https://maps.google.com/?cid=0x0:0xd6f18721bc083580,
restaurant,Tujuan Wisata,Karamba,"9Q54+PHR, Lande, Kec. Lapandewa, Kabupaten Buton, Sulawesi Tenggara","Kabupaten Buton, Sulawesi Tenggara",SULAWESI TENGGARA,,Indonesia,,,,-5.6406362,122.7563959,https://maps.google.com/?cid=0x0:0x3f847b6035dcc3a4,
restaurant,restaurant,Warung makan mama Dimas,"Q3J3+M66, Lasembangi, Kec. Lasalimu, Kabupaten Buton, Sulawesi Tenggara 93756","Lasembangi, Kec. Lasalimu, Kabupaten Buton",SULAWESI TENGGARA,93756.0,Indonesia,,,,-5.2183375,123.0530156,https://maps.google.com/?cid=0x0:0x75b397a1ee664a59,
restaurant,restaurant,Talaga Raya,"Kabupaten Buton, Sulawesi Tenggara","Kabupaten Buton, Sulawesi Tenggara",SULAWESI TENGGARA,,Indonesia,,,,-5.4213926,122.0155491,https://maps.google.com/?cid=0x0:0x2e35b700451321ba,
restaurant,Kafe,Cafe 34,"Talaga I, Talaga Raya, Kabupaten Buton Tengah, Sulawesi Tenggara 93781","Talaga Raya, Kabupaten Buton Tengah",SULAWESI TENGGARA,93781.0,Indonesia,82114457806.0,,,-5.4736455,122.0818014,https://maps.google.com/?cid=0x0:0x90274fab2b0a05d3,
restaurant,restaurant,Rumah mama Iyom,"G39J+9GG Desa pangilia, Talaga II, Talaga Raya, Kabupaten Buton, Sulawesi Tenggara 93781","Talaga II, Talaga Raya, Kabupaten Buton",SULAWESI TENGGARA,93781.0,Indonesia,,,,-5.4802939,122.0754067,https://maps.google.com/?cid=0x0:0x417379ee22df7f14,
restaurant,Rumah Makan,RM Bu Harwidah,"GX72+HR5, Kokoe, Talaga Raya, Kabupaten Buton, Sulawesi Tenggara 93781","Kokoe, Talaga Raya, Kabupaten Buton",SULAWESI TENGGARA,93781.0,Indonesia,,,,-5.4873405,121.95212,https://maps.google.com/?cid=0x0:0x8466fc069717903c,
restaurant,Toko Roti,Warung makan. Mama icha,"G3FG+6MW, Talaga I, Talaga Raya, Kabupaten Buton, Sulawesi Tenggara 93781","Talaga I, Talaga Raya, Kabupaten Buton",SULAWESI TENGGARA,93781.0,Indonesia,,,,-5.4769182,122.0765696,https://maps.google.com/?cid=0x0:0xaf2b4ef55515c09c,
restaurant,Tukang Las,BENGKEL LAS IHWAL-BUTON,"G26X+2PQ, Talaga Besar, Talaga Raya, Kabupaten Buton, Sulawesi Tenggara 93781","Talaga Besar, Talaga Raya, Kabupaten Buton",SULAWESI TENGGARA,93781.0,Indonesia,82217430831.0,,,-5.489918,122.0493628,https://maps.google.com/?cid=0x0:0x5bc72479525c3115,
restaurant,Kedai Kopi,D'TALAGA Cafe  Resto Ratahan,"2RRH+FG2, Wioi Tiga, Kec. Ratahan Tim., Kabupaten Minahasa Tenggara, Sulawesi Utara","Kabupaten Minahasa Tenggara, Sulawesi Utara",SULAWESI TENGGARA,,Indonesia,,,,1.0411449,124.8287507,https://maps.google.com/?cid=0x0:0xe6ab41e11ad7c01f,
restaurant,Komplek perumahan,Rumah yamin,"G352+M28, Talaga Besar, Talaga Raya, Kabupaten Buton, Sulawesi Tenggara 93781","Talaga Besar, Talaga Raya, Kabupaten Buton",SULAWESI TENGGARA,93781.0,Indonesia,,,,-5.4913333,122.0500186,https://maps.google.com/?cid=0x0:0x1655ce0287e74a3e,
cafe,cafe,Sulawesi Tenggara 93761,"Kec. Gu, Kabupaten Buton, Sulawesi Tenggara","Kabupaten Buton, Sulawesi Tenggara",SULAWESI TENGGARA,,Indonesia,,,,-5.2702397,122.593828,https://maps.google.com/?cid=0x0:0xe714ef696c5af545,
cafe,Padang,"Coto Makassar Cabang Jeneberang Raha Di Lombe,buton Tengah","PHV8+FX6, Walando, Kec. Gu, Kabupaten Buton, Sulawesi Tenggara 93761","Walando, Kec. Gu, Kabupaten Buton",SULAWESI TENGGARA,93761.0,Indonesia,82291442757.0,,,-5.2563395,122.5673792,https://maps.google.com/?cid=0x0:0xe6b1af1a83117c1,
cafe,Brunch,GAZEBO PAVANA,"PHV9+MPH, Jl. Jend. Sudirman, Walando, Kec. Gu, Kabupaten Buton, Sulawesi Tenggara 93761","Jl. Jend. Sudirman, Walando, Kec. Gu, Kabupaten Buton",SULAWESI TENGGARA,93761.0,Indonesia,81340412139.0,,,-5.2558211,122.5693706,https://maps.google.com/?cid=0x0:0xa675a3d8439df30b,
cafe,Restoran,WR. Makan Dita Lestari,"PHWF+FG6, Jl. Jend. Sudirman, Bombonawulu, Kec. Gu, Kabupaten Buton, Sulawesi Tenggara 93761","Jl. Jend. Sudirman, Bombonawulu, Kec. Gu, Kabupaten Buton",SULAWESI TENGGARA,93761.0,Indonesia,,,,-5.2538252,122.5737591,https://maps.google.com/?cid=0x0:0x1003a76edb61563f,
cafe,Prasmanan,Rumah Makan Yusmin,"PHWC+2QG, Walando, Kec. Gu, Kabupaten Buton, Sulawesi Tenggara 93761","Walando, Kec. Gu, Kabupaten Buton",SULAWESI TENGGARA,93761.0,Indonesia,81210650568.0,,,-5.2549305,122.5719578,https://maps.google.com/?cid=0x0:0x2bfb0e923e44a4ff,
cafe,Nasi,NASI KUNING MANADO,"Kel. Bombonawulu Kec. Gu. Kab. Buton, Tengah, Kabupaten Buton Tengah, Sulawesi Tenggara 93761","Tengah, Kabupaten Buton Tengah",SULAWESI TENGGARA,93761.0,Indonesia,82259773675.0,,,-5.2539321,122.5781083,https://maps.google.com/?cid=0x0:0x1b5d784e9d22c875,
cafe,Bakso,Bakso Solo,"PHXG+7WX, Watulea, Kec. Gu, Kabupaten Buton, Sulawesi Tenggara 93761","Watulea, Kec. Gu, Kabupaten Buton",SULAWESI TENGGARA,93761.0,Indonesia,81244982569.0,,,-5.2517533,122.577373,https://maps.google.com/?cid=0x0:0xb000c0edc7086a0f,
cafe,Sulawesi Selatan,Rumah Makan Minang Jaya Lombe,"PHV7+45W, Jl. Poros Lakapera-Waara, Walando, Kec. Gu, Kabupaten Buton, Sulawesi Tenggara 93761","Jl. Poros Lakapera-Waara, Walando, Kec. Gu, Kabupaten Buton",SULAWESI TENGGARA,93761.0,Indonesia,82291672756.0,,,-5.2571448,122.5629435,https://maps.google.com/?cid=0x0:0x889727309b24ac91,
cafe,Nasi,NASI KUNING MAMA SARI,"QH2F+VFW, Watulea, Kec. Gu, Kabupaten Buton, Sulawesi Tenggara 93761","Watulea, Kec. Gu, Kabupaten Buton",SULAWESI TENGGARA,93761.0,Indonesia,,,,-5.2477445,122.573704,https://maps.google.com/?cid=0x0:0x8b158bf69ab36771,
cafe,cafe,Cafe FEROSA depan Polsek GU Lama BUTON TENGAH,"PHWF+QW5, Watulea, Kec. Gu, Kabupaten Buton, Sulawesi Tenggara 93761","Watulea, Kec. Gu, Kabupaten Buton",SULAWESI TENGGARA,93761.0,Indonesia,,,,-5.2531187,122.5748736,https://maps.google.com/?cid=0x0:0x284dd205f6ad3127,
cafe,Kafe,ide Coffee,"PHWF+57J, Jl. Jend. Sudirman, Bombonawulu, Kec. Gu, Kabupaten Buton, Sulawesi Tenggara 93761","Jl. Jend. Sudirman, Bombonawulu, Kec. Gu, Kabupaten Buton",SULAWESI TENGGARA,93761.0,Indonesia,,,,-5.2545266,122.5731346,https://maps.google.com/?cid=0x0:0x5bdb892f4b42a8d3,
cafe,Kafe,KEPO CAFFE LOMBE,"Lombe, Walando, Kec. Gu, Kabupaten Buton tengah, Sulawesi Tenggara 93761","Walando, Kec. Gu, Kabupaten Buton tengah",SULAWESI TENGGARA,93761.0,Indonesia,82349151119.0,,,-5.2544948,122.573102,https://maps.google.com/?cid=0x0:0xe560261b3494fe5e,
cafe,Butik,Butik Uthy Collection  O nagget CAFE,"PHWH+98W, Bombonawulu, Kec. Gu, Kabupaten Buton, Sulawesi Tenggara 93761","Bombonawulu, Kec. Gu, Kabupaten Buton",SULAWESI TENGGARA,93761.0,Indonesia,85399400829.0,,,-5.254025,122.5783241,https://maps.google.com/?cid=0x0:0xaac573cf931c41ae,
cafe,Kafe,LABETA CAFE,"PHV9+RRV, Walando, Kec. Gu, Kabupaten Buton, Sulawesi Tenggara 93761","Walando, Kec. Gu, Kabupaten Buton",SULAWESI TENGGARA,93761.0,Indonesia,,,,-5.255433,122.5694682,https://maps.google.com/?cid=0x0:0x9e5aafa945764dde,
cafe,Kedai Kopi,MABES COMMUNITY (PUNCAK MANDAR),"QH4C+72P, Watulea, Kec. Gu, Kabupaten Buton, Sulawesi Tenggara","Kabupaten Buton, Sulawesi Tenggara",SULAWESI TENGGARA,,Indonesia,,,,-5.2442802,122.5700802,https://maps.google.com/?cid=0x0:0x3f1f0a22a6d07911,
cafe,Kafe,Kafe Pelangi,"PHWF+5C5, Watulea, Kec. Gu, Kabupaten Buton, Sulawesi Tenggara 93761","Watulea, Kec. Gu, Kabupaten Buton",SULAWESI TENGGARA,93761.0,Indonesia,82293901355.0,,,-5.254609,122.5735984,https://maps.google.com/?cid=0x0:0x8317712915f94f27,
cafe,Kafe,Aneka Dessert Lombe,"PHVG+58, Bombonawulu, Kec. Gu, Kabupaten Buton, Sulawesi Tenggara 93761","Bombonawulu, Kec. Gu, Kabupaten Buton",SULAWESI TENGGARA,93761.0,Indonesia,85243394991.0,,,-5.2568677,122.5642718,https://maps.google.com/?cid=0x0:0xcd4dd779390366ae,
cafe,Kedai Kopi,Terserahmie Noodle and Drink,"PHWC+2QG, Walando, Kec. Gu, Kabupaten Buton, Sulawesi Tenggara 93761","Walando, Kec. Gu, Kabupaten Buton",SULAWESI TENGGARA,93761.0,Indonesia,,,,-5.2549242,122.5719762,https://maps.google.com/?cid=0x0:0x6f373a72e61f3323,
cafe,Kafe,Kedai Ferosa Lombe,"PHWF+QX2, Bombonawulu, Kec. Gu, Kabupaten Buton, Sulawesi Tenggara 93761","Bombonawulu, Kec. Gu, Kabupaten Buton",SULAWESI TENGGARA,93761.0,Indonesia,81380983851.0,,,-5.2531047,122.574891,https://maps.google.com/?cid=0x0:0xac22913fba066522,
cafe,Kafe,Ketsubi Lombe,"PHWF+MXH, Bombonawulu, Kec. Gu, Kabupaten Buton, Sulawesi Tenggara 93761","Bombonawulu, Kec. Gu, Kabupaten Buton",SULAWESI TENGGARA,93761.0,Indonesia,82347470256.0,,,-5.253315,122.5749986,https://maps.google.com/?cid=0x0:0xae3b9f40a085d102,
cafe,Kedai Kopi,KLASIX Cafe  Hills,"Jl. Poros RSUD Buton Tengah, Bombonawulu, Kec. Gu, Lombe, Sulawesi Tenggara 97361","Bombonawulu, Kec. Gu, Lombe",SULAWESI TENGGARA,97361.0,Indonesia,85757233128.0,,,-5.2605921,122.5791671,https://maps.google.com/?cid=0x0:0x5a4f173f2cadb5c4,
cafe,Kedai Kopi,KEDAI RUTEN,"JJJ9+QRG, Tolandona, Kec. Sangia Wambulu, Kabupaten Buton, Sulawesi Tenggara 93761","Tolandona, Kec. Sangia Wambulu, Kabupaten Buton",SULAWESI TENGGARA,93761.0,Indonesia,,,,-5.3680622,122.6195912,https://maps.google.com/?cid=0x0:0x28c8df444fce1fcd,
cafe,Kedai Kopi,Kedai sts,"QH3G+62R, Watulea, Kec. Gu, Kabupaten Buton, Sulawesi Tenggara 93761","Watulea, Kec. Gu, Kabupaten Buton",SULAWESI TENGGARA,93761.0,Indonesia,82326604691.0,,,-5.246899,122.5750262,https://maps.google.com/?cid=0x0:0xe0fb54e3aab5f301,
cafe,Restoran,RUMAH MAKAN AHZA,"PHXG+JQ4, Jl. Yos Sudarso, Bombonawulu, Kec. Gu, Kabupaten Buton, Sulawesi Tenggara 93761","Jl. Yos Sudarso, Bombonawulu, Kec. Gu, Kabupaten Buton",SULAWESI TENGGARA,93761.0,Indonesia,85213816116.0,,,-5.2509777,122.5769518,https://maps.google.com/?cid=0x0:0xc3099d0c5d44164c,
cafe,Bangunan Bersejarah,Pantai Singku Desa Lowu-Lowu,"PJX7+RFW, Waliko, Kec. Gu, Kabupaten Buton, Sulawesi Tenggara 93761","Waliko, Kec. Gu, Kabupaten Buton",SULAWESI TENGGARA,93761.0,Indonesia,,,,-5.2503893,122.6137153,https://maps.google.com/?cid=0x0:0xcdbcefcc5315dcb5,
cafe,Restoran,Warkop harapan baru,"PHWF+F9V, Bombonawulu, Kec. Gu, Kabupaten Buton, Sulawesi Tenggara 93761","Bombonawulu, Kec. Gu, Kabupaten Buton",SULAWESI TENGGARA,93761.0,Indonesia,,,,-5.2536853,122.5735691,https://maps.google.com/?cid=0x0:0x752c660dec85ceb4,
cafe,Kafe,Kedai kurmahcair,"PHRF+6X5 Samping puskesmas Lombe, Walando, Kec. Gu, Kabupaten Buton, Sulawesi Tenggara 93761","Walando, Kec. Gu, Kabupaten Buton",SULAWESI TENGGARA,93761.0,Indonesia,85398002080.0,,,-5.2594882,122.5749829,https://maps.google.com/?cid=0x0:0xc1a8bd9b2f815f08,
cafe,Kafe,Kopi GUE Bogor,"Jl. Achmad Sobana No.72, RT.005/RW.10, Tegal Gundil, Kec. Bogor Utara, Kota Bogor, Jawa Barat 16152","RT.005/RW.10, Tegal Gundil, Kec. Bogor Utara, Kota Bogor",SULAWESI TENGGARA,16152.0,Indonesia,81999933829.0,,,-6.5819661,106.8140478,https://maps.google.com/?cid=0x0:0x96b1015cfe70a345,
cafe,Kafe,Gubuck Ndelik,"Citayam, Kec. Tajur Halang, Kabupaten Bogor, Jawa Barat","Kabupaten Bogor, Jawa Barat",SULAWESI TENGGARA,,Indonesia,85891930108.0,,,-6.4480145,106.7414559,https://maps.google.com/?cid=0x0:0x7170b4d68666dfbe,
cafe,cafe,Sulawesi Tenggara 93763,"Kec. Lakudo, Kabupaten Buton, Sulawesi Tenggara","Kabupaten Buton, Sulawesi Tenggara",SULAWESI TENGGARA,,Indonesia,,,,-5.3531329,122.5598994,https://maps.google.com/?cid=0x0:0x62c2a15eea95dc2,
cafe,Restoran,Warkop Garasi,"MGJJ+XW7, Wongko Lakudo, Kec. Lakudo, Kabupaten Buton, Sulawesi Tenggara 93763","Wongko Lakudo, Kec. Lakudo, Kabupaten Buton",SULAWESI TENGGARA,93763.0,Indonesia,,,,-5.3175873,122.5322935,https://maps.google.com/?cid=0x0:0xbee5f8a3f62135d2,
cafe,Kafe,KEDAI BENTE,"MGHP+24R, Wongko Lakudo, Kec. Lakudo, Kabupaten Buton, Sulawesi Tenggara","Kabupaten Buton, Sulawesi Tenggara",SULAWESI TENGGARA,,Indonesia,,,,-5.3223794,122.5352751,https://maps.google.com/?cid=0x0:0x5a10dd1988f9448,
cafe,Restoran,DAPUR SHANUM,"Wongko Lakudo, Kec. Lakudo, Kabupaten Buton, Sulawesi Tenggara 93763","Kec. Lakudo, Kabupaten Buton",SULAWESI TENGGARA,93763.0,Indonesia,81315911370.0,,,-5.3213561,122.5360157,https://maps.google.com/?cid=0x0:0x48b1d611dde068a4,
cafe,Area Wi-Fi,Sabangka kopi (free Wi-Fi),"PF4Q+7F5, Lolibu, Kec. Lakudo, Kabupaten Buton, Sulawesi Tenggara","Kabupaten Buton, Sulawesi Tenggara",SULAWESI TENGGARA,,Indonesia,82197210456.0,,,-5.2943581,122.4887223,https://maps.google.com/?cid=0x0:0x2815c2927f52b28e,
cafe,Komplek perumahan,Lambu Ceno,"JG6G+947, Boneoge, Kec. Lakudo, Kabupaten Buton, Sulawesi Tenggara 93763","Boneoge, Kec. Lakudo, Kabupaten Buton",SULAWESI TENGGARA,93763.0,Indonesia,,,,-5.3892734,122.5252484,https://maps.google.com/?cid=0x0:0xc082fed4e4ff06ab,
cafe,Kedai Kopi,Mr. MANISE,"MGHP+436, Wongko Lakudo, Kec. Lakudo, Kabupaten Buton, Sulawesi Tenggara","Kabupaten Buton, Sulawesi Tenggara",SULAWESI TENGGARA,,Indonesia,85299334865.0,,,-5.3218862,122.5351205,https://maps.google.com/?cid=0x0:0xd0b5eb06e004a89c,
cafe,Restoran,Warung Anugrah,"Wongko Lakudo, Kec. Lakudo, Kabupaten Buton, Sulawesi Tenggara","Kabupaten Buton, Sulawesi Tenggara",SULAWESI TENGGARA,,Indonesia,85342855432.0,,,-5.319439,122.5328662,https://maps.google.com/?cid=0x0:0xbc67fdba2dacc7d9,
cafe,Restoran,Warung Bomega,"MGJM+M45, Jl. Gersamata, Wongko Lakudo, Kec. Lakudo, Kabupaten Buton, Sulawesi Tenggara 93763","Jl. Gersamata, Wongko Lakudo, Kec. Lakudo, Kabupaten Buton",SULAWESI TENGGARA,93763.0,Indonesia,,,,-5.3183704,122.5328528,https://maps.google.com/?cid=0x0:0xc7e034be9913b48b,
cafe,Kafe,tempatku,"MGJH+GQ7 pantai kenangan, Wongko Lakudo, Kec. Lakudo, Kabupaten Buton, Sulawesi Tenggara","Kabupaten Buton, Sulawesi Tenggara",SULAWESI TENGGARA,,Indonesia,823053083861.0,,,-5.3187081,122.5294248,https://maps.google.com/?cid=0x0:0xf1e834ddaa454929,
cafe,Kedai Kopi,Double.R Cafe,"GJQ8+X6G, Batulo, Kec. Wolio, Kota Bau-Bau, Sulawesi Tenggara 93717","Batulo, Kec. Wolio, Kota Bau-Bau",SULAWESI TENGGARA,93717.0,Indonesia,,,,-5.4600341,122.6155022,https://maps.google.com/?cid=0x0:0x3c8060b9aa58b9c9,
cafe,Restoran,RM SEDAP MALAM,"MGHP+92J, Jl. KH. Abdul Syukur, Wongko Lakudo, Kec. Lakudo, Kabupaten Buton, Sulawesi Tenggara","Kabupaten Buton, Sulawesi Tenggara",SULAWESI TENGGARA,,Indonesia,,,,-5.321544,122.535005,https://maps.google.com/?cid=0x0:0x4515c65997e47cfe,
cafe,Sarapan,Warung Makan AURA LAKUDO,"MGHM+VRG, Jl. Gersamata, Wongko Lakudo, Kec. Lakudo, Kabupaten Buton, Sulawesi Tenggara 93763","Jl. Gersamata, Wongko Lakudo, Kec. Lakudo, Kabupaten Buton",SULAWESI TENGGARA,93763.0,Indonesia,82189303556.0,,,-5.320308,122.5345702,https://maps.google.com/?cid=0x0:0x3b0d854d5e871f4,
cafe,Kafe,Ronron Cafe,"Jl. Gersamata No.5, Wongko Lakudo, Kec. Lakudo, Kabupaten Buton, Sulawesi Tenggara 93763","Wongko Lakudo, Kec. Lakudo, Kabupaten Buton",SULAWESI TENGGARA,93763.0,Indonesia,,,,-5.3206518,122.5366406,https://maps.google.com/?cid=0x0:0xe280139570fd482b,
cafe,Restoran,RM.Dapur Sultan,"Jl. Gersamata, Wongko Lakudo, Kec. Lakudo, Kabupaten Buton, Sulawesi Tenggara 93763","Wongko Lakudo, Kec. Lakudo, Kabupaten Buton",SULAWESI TENGGARA,93763.0,Indonesia,,,,-5.3185644,122.5329986,https://maps.google.com/?cid=0x0:0xa055812906059f8d,
cafe,Restoran,Cave Una,"PGCF+F3R, Moko, Kec. Lakudo, Kabupaten Buton, Sulawesi Tenggara","Kabupaten Buton, Sulawesi Tenggara",SULAWESI TENGGARA,,Indonesia,85241581186.0,,,-5.2787619,122.5226322,https://maps.google.com/?cid=0x0:0xcd55a43935fb6b4e,
cafe,Restoran,Warkop Garasi,"Jl. Gersamata, Lakudo, Kec. Lakudo, Kabupaten Buton, Sulawesi Tenggara 93763","Lakudo, Kec. Lakudo, Kabupaten Buton",SULAWESI TENGGARA,93763.0,Indonesia,,,,-5.325133,122.5391598,https://maps.google.com/?cid=0x0:0xa5d2d44a3a106d87,
cafe,Rumah Makan,Warung makan si kembar,"MGMG+9F2, Wongko Lakudo, Kec. Lakudo, Kabupaten Buton, Sulawesi Tenggara","Kabupaten Buton, Sulawesi Tenggara",SULAWESI TENGGARA,,Indonesia,,,,-5.3166095,122.5261285,https://maps.google.com/?cid=0x0:0xfa80b929c9ab8bc9,
cafe,Kafe,Caka cafe,"PG64+M7Q, Wajogu, Kec. Lakudo, Kabupaten Buton, Sulawesi Tenggara","Kabupaten Buton, Sulawesi Tenggara",SULAWESI TENGGARA,,Indonesia,,,,-5.2882887,122.5057388,https://maps.google.com/?cid=0x0:0xdb16111acb51c8f5,
cafe,Kafe,SKUY! Cafe and Eatery,"Jl. Dr. HOS. Cokroaminoto, Lamangga, Kec. Murhum, Kota Bau-Bau, Sulawesi Tenggara 93725","Lamangga, Kec. Murhum, Kota Bau-Bau",SULAWESI TENGGARA,93725.0,Indonesia,85343675170.0,,,-5.4707839,122.5991096,https://maps.google.com/?cid=0x0:0xf529bb3e68bf5ee9,
cafe,Sarapan,"Warung mamaG,","JG6G+C46, Boneoge, Kec. Lakudo, Kabupaten Buton, Sulawesi Tenggara 93763","Boneoge, Kec. Lakudo, Kabupaten Buton",SULAWESI TENGGARA,93763.0,Indonesia,,,,-5.3889553,122.5247579,https://maps.google.com/?cid=0x0:0x2f4327cf2098daa9,
cafe,Kedai Kopi,Talk's Space Coffee and Eatery,"Jl. Sultan Hasanuddin No.17, Batulo, Kec. Wolio, Kota Bau-Bau, Sulawesi Tenggara 93717","Batulo, Kec. Wolio, Kota Bau-Bau",SULAWESI TENGGARA,93717.0,Indonesia,8114020204.0,,,-5.4590954,122.6143794,https://maps.google.com/?cid=0x0:0xd947f686d7dee5ac,
cafe,Kafe,Kedai Kopi,"QF7X+R3M, Moko, Kec. Lakudo, Kabupaten Buton, Sulawesi Tenggara 93763","Moko, Kec. Lakudo, Kabupaten Buton",SULAWESI TENGGARA,93763.0,Indonesia,85255425800.0,,,-5.235423,122.497668,https://maps.google.com/?cid=0x0:0x90ac7aa187208565,
cafe,cafe,Mawasangka,"Mawasangka, Kec. Mawasangka, Kabupaten Buton, Sulawesi Tenggara","Kabupaten Buton, Sulawesi Tenggara",SULAWESI TENGGARA,,Indonesia,,,,-5.290863,122.298897,https://maps.google.com/?cid=0x0:0x6eab10a86a088341,
cafe,Restoran,Dialog Cafe Mawasangka,"P74M+J78, Watolo, Kec. Mawasangka, Kabupaten Buton, Sulawesi Tenggara 93762","Watolo, Kec. Mawasangka, Kabupaten Buton",SULAWESI TENGGARA,93762.0,Indonesia,,,,-5.2934718,122.2831939,https://maps.google.com/?cid=0x0:0x4fab8a47d35f139d,
cafe,Kafe,TitikNol Cafe,"P76W+WXP, Unnamed Road, Mawasangka, Kec. Mawasangka, Kabupaten Buton, Sulawesi Tenggara 93762","Unnamed Road, Mawasangka, Kec. Mawasangka, Kabupaten Buton",SULAWESI TENGGARA,93762.0,Indonesia,85299791911.0,,,-5.2876621,122.2974376,https://maps.google.com/?cid=0x0:0xacc6b73781a2d411,
cafe,Kedai Kopi,Angkringan Food  Drink,"P78Q+R62, Jl. RA Kartini, Mawasangka, Kec. Mawasangka, Kabupaten Buton, Sulawesi Tenggara 93762","Jl. RA Kartini, Mawasangka, Kec. Mawasangka, Kabupaten Buton",SULAWESI TENGGARA,93762.0,Indonesia,82291141660.0,,,-5.2829849,122.2880258,https://maps.google.com/?cid=0x0:0xa1a43144248b1941,
cafe,Kedai Kopi,Kedai TikTok,"Jl. RA Kartini, Mawasangka, Kec. Mawasangka, Kabupaten Buton, Sulawesi Tenggara 93762","Mawasangka, Kec. Mawasangka, Kabupaten Buton",SULAWESI TENGGARA,93762.0,Indonesia,82352481361.0,,,-5.283532,122.2885625,https://maps.google.com/?cid=0x0:0x6dcad6d6606eb13,
cafe,Brunch,RM.SINAR SEJATI,"Unnamed Road, Mawasangka, Kec. Mawasangka, Kabupaten Buton tengah, Sulawesi Tenggara 93762","Mawasangka, Kec. Mawasangka, Kabupaten Buton tengah",SULAWESI TENGGARA,93762.0,Indonesia,82225162565.0,,,-5.2903213,122.2966418,https://maps.google.com/?cid=0x0:0xc44f7b9c97572bc2,
cafe,Kedai Kopi,Jiwamu_86,"Watorumbe, Kec. Mawasangka Tengah, Kabupaten Buton, Sulawesi Tenggara","Kabupaten Buton, Sulawesi Tenggara",SULAWESI TENGGARA,,Indonesia,812413444440.0,,,-5.3726129,122.3789681,https://maps.google.com/?cid=0x0:0x2de6762706606288,
cafe,Kedai Kopi,XI NO NA BOBA Mawasangka,"P77P+XXR, Mawasangka, Kec. Mawasangka, Kabupaten Buton, Sulawesi Tenggara 93762","Mawasangka, Kec. Mawasangka, Kabupaten Buton",SULAWESI TENGGARA,93762.0,Indonesia,82271225165.0,,,-5.2850095,122.2873805,https://maps.google.com/?cid=0x0:0x8a89728d6e40a758,
cafe,Kedai Kopi,Ondo Coffee Buteng,"Taman Matana Sorumba, Mawasangka, Kec. Mawasangka, Kabupaten Buton, Sulawesi Tenggara 93762","Mawasangka, Kec. Mawasangka, Kabupaten Buton",SULAWESI TENGGARA,93762.0,Indonesia,81360220187.0,,,-5.2829928,122.2886365,https://maps.google.com/?cid=0x0:0x6fd0666500ecc64a,
cafe,Kafe,Dialektika Coffee,"Jl. RA Kartini, Mawasangka, Kec. Mawasangka, Kabupaten Buton, Sulawesi Tenggara 93762","Mawasangka, Kec. Mawasangka, Kabupaten Buton",SULAWESI TENGGARA,93762.0,Indonesia,85656950002.0,,,-5.2835706,122.2883836,https://maps.google.com/?cid=0x0:0x97446b7b6d4499d7,
cafe,Rumah Makan,Cafe Triple S,"M969+GXW, Lakorua, Kec. Mawasangka Tengah, Kabupaten Buton, Sulawesi Tenggara 93762","Lakorua, Kec. Mawasangka Tengah, Kabupaten Buton",SULAWESI TENGGARA,93762.0,Indonesia,,,,-5.3397677,122.37032,https://maps.google.com/?cid=0x0:0xb725b4a05c639c51,
cafe,Kedai Kopi,CAFE NTOYNI,"Pasar sentral, kelurahan, Lakorua, Kec. Mawasangka Tengah, Buton tengah, Sulawesi Tenggara 97362","kelurahan, Lakorua, Kec. Mawasangka Tengah, Buton tengah",SULAWESI TENGGARA,97362.0,Indonesia,82238653899.0,,,-5.3318078,122.3725515,https://maps.google.com/?cid=0x0:0x631a48a4f047413a,
cafe,Kafe,Kedai Qleona,"P75M+4G2, Watolo, Kec. Mawasangka, Kabupaten Buton, Sulawesi Tenggara 93762","Watolo, Kec. Mawasangka, Kabupaten Buton",SULAWESI TENGGARA,93762.0,Indonesia,,,,-5.2922298,122.2837674,https://maps.google.com/?cid=0x0:0x46ef0e7cafd853b7,
cafe,Kedai Kopi,TERASCAFE,"M99F+83R, Lanto, Kec. Mawasangka Tengah, Kabupaten Buton, Sulawesi Tenggara","Kabupaten Buton, Sulawesi Tenggara",SULAWESI TENGGARA,,Indonesia,82198514232.0,,,-5.3316306,122.3726454,https://maps.google.com/?cid=0x0:0x411ecf07e65d5818,
cafe,cafe,Sulawesi Tenggara 93762,"Kabupaten Buton, Sulawesi Tenggara","Kabupaten Buton, Sulawesi Tenggara",SULAWESI TENGGARA,,Indonesia,,,,-5.291781,122.3787597,https://maps.google.com/?cid=0x0:0x29d13fe4e83e4ba7,
cafe,Restoran,Dialog Cafe Mawasangka,"P74M+J78, Watolo, Kec. Mawasangka, Kabupaten Buton, Sulawesi Tenggara 93762","Watolo, Kec. Mawasangka, Kabupaten Buton",SULAWESI TENGGARA,93762.0,Indonesia,,,,-5.2934718,122.2831939,https://maps.google.com/?cid=0x0:0x4fab8a47d35f139d,
cafe,Rumah Makan,Kedai Mr.Ken,"Lingkungan Landuhu, Mawasangka, Kec. Mawasangka, KABUPATEN BUTON TENGAH, Sulawesi Tenggara 93762","Mawasangka, Kec. Mawasangka, KABUPATEN BUTON TENGAH",SULAWESI TENGGARA,93762.0,Indonesia,82339081956.0,,,-5.2891787,122.2958716,https://maps.google.com/?cid=0x0:0xb2fad732b48ea76b,
cafe,Restoran,Kedai Pesisir,"P7CV+G7R, Mawasangka, Kec. Mawasangka Tengah, Kabupaten Buton, Sulawesi Tenggara 93762","Mawasangka, Kec. Mawasangka Tengah, Kabupaten Buton",SULAWESI TENGGARA,93762.0,Indonesia,85299146141.0,,,-5.2786308,122.2931499,https://maps.google.com/?cid=0x0:0xaaead9c563131806,
cafe,Kafe,TitikNol Cafe,"P76W+WXP, Unnamed Road, Mawasangka, Kec. Mawasangka, Kabupaten Buton, Sulawesi Tenggara 93762","Unnamed Road, Mawasangka, Kec. Mawasangka, Kabupaten Buton",SULAWESI TENGGARA,93762.0,Indonesia,85299791911.0,,,-5.2876621,122.2974376,https://maps.google.com/?cid=0x0:0xacc6b73781a2d411,
cafe,Kedai Kopi,Angkringan Food  Drink,"P78Q+R62, Jl. RA Kartini, Mawasangka, Kec. Mawasangka, Kabupaten Buton, Sulawesi Tenggara 93762","Jl. RA Kartini, Mawasangka, Kec. Mawasangka, Kabupaten Buton",SULAWESI TENGGARA,93762.0,Indonesia,82291141660.0,,,-5.2829849,122.2880258,https://maps.google.com/?cid=0x0:0xa1a43144248b1941,
cafe,Kedai Kopi,Ondo Coffee Buteng,"Taman Matana Sorumba, Mawasangka, Kec. Mawasangka, Kabupaten Buton, Sulawesi Tenggara 93762","Mawasangka, Kec. Mawasangka, Kabupaten Buton",SULAWESI TENGGARA,93762.0,Indonesia,81360220187.0,,,-5.2829928,122.2886365,https://maps.google.com/?cid=0x0:0x6fd0666500ecc64a,
cafe,Kedai Kopi,CAFE NTOYNI,"Pasar sentral, kelurahan, Lakorua, Kec. Mawasangka Tengah, Buton tengah, Sulawesi Tenggara 97362","kelurahan, Lakorua, Kec. Mawasangka Tengah, Buton tengah",SULAWESI TENGGARA,97362.0,Indonesia,82238653899.0,,,-5.3318078,122.3725515,https://maps.google.com/?cid=0x0:0x631a48a4f047413a,
cafe,Agensi foto,Mutiara beach cafe n' Resto,"Pantai mutiara desa, gumanano, Kec. Mawasangka, Kabupaten Buton, Sulawesi Tenggara","Kabupaten Buton, Sulawesi Tenggara",SULAWESI TENGGARA,,Indonesia,85146258566.0,,,-5.3955496,122.3201193,https://maps.google.com/?cid=0x0:0x10dd115aa7cf0985,
cafe,Kedai Kopi,Kedai TikTok,"Jl. RA Kartini, Mawasangka, Kec. Mawasangka, Kabupaten Buton, Sulawesi Tenggara 93762","Mawasangka, Kec. Mawasangka, Kabupaten Buton",SULAWESI TENGGARA,93762.0,Indonesia,82352481361.0,,,-5.283532,122.2885625,https://maps.google.com/?cid=0x0:0x6dcad6d6606eb13,
cafe,Rumah Makan,Wr.sari Rasa,"P78Q+JH2, Mawasangka, Kec. Mawasangka, Kabupaten Buton, Sulawesi Tenggara 93762","Mawasangka, Kec. Mawasangka, Kabupaten Buton",SULAWESI TENGGARA,93762.0,Indonesia,81317518885.0,,,-5.2834843,122.2889022,https://maps.google.com/?cid=0x0:0x2f08f067a475efba,
cafe,Rumah Makan,Cafe Triple S,"M969+GXW, Lakorua, Kec. Mawasangka Tengah, Kabupaten Buton, Sulawesi Tenggara 93762","Lakorua, Kec. Mawasangka Tengah, Kabupaten Buton",SULAWESI TENGGARA,93762.0,Indonesia,,,,-5.3397677,122.37032,https://maps.google.com/?cid=0x0:0xb725b4a05c639c51,
cafe,Kafe,Dialektika Coffee,"Jl. RA Kartini, Mawasangka, Kec. Mawasangka, Kabupaten Buton, Sulawesi Tenggara 93762","Mawasangka, Kec. Mawasangka, Kabupaten Buton",SULAWESI TENGGARA,93762.0,Indonesia,85656950002.0,,,-5.2835706,122.2883836,https://maps.google.com/?cid=0x0:0x97446b7b6d4499d7,
cafe,Kedai Kopi,Kedai Acil,"HCWX+HJJ, Inulu, Mawasangka Tim., Kabupaten Buton, Sulawesi Tenggara","Kabupaten Buton, Sulawesi Tenggara",SULAWESI TENGGARA,,Indonesia,82271603656.0,,,-5.4030511,122.4497359,https://maps.google.com/?cid=0x0:0xf1f3d2103fa0e2ea,
cafe,Kafe,Kedai Koffee Beach,"J833+F3G, Gumamano, Kec. Mawasangka, Kabupaten Buton, Sulawesi Tenggara","Kabupaten Buton, Sulawesi Tenggara",SULAWESI TENGGARA,,Indonesia,85388280642.0,,,-5.3963151,122.3027174,https://maps.google.com/?cid=0x0:0x4e92286d47e12292,
cafe,Kedai Kopi,PESONA JIWAMU,"Unnamed Road, Watorumbe Bata, Kec. Mawasangka Tengah, Kabupaten Buton, Sulawesi Tenggara","Kabupaten Buton, Sulawesi Tenggara",SULAWESI TENGGARA,,Indonesia,81241344440.0,,,-5.3719724,122.3792304,https://maps.google.com/?cid=0x0:0x38091815fd272bd3,
cafe,Restoran,Teluk Bening Cafe  Resto,"Lakorua, Kabupaten Buton Tengah, Sulawesi Tenggara 93762",Kabupaten Buton Tengah,SULAWESI TENGGARA,93762.0,Indonesia,82259540510.0,,,-5.3266857,122.3759306,https://maps.google.com/?cid=0x0:0xd0c627faba246330,
cafe,Brunch,RM.SINAR SEJATI,"Unnamed Road, Mawasangka, Kec. Mawasangka, Kabupaten Buton tengah, Sulawesi Tenggara 93762","Mawasangka, Kec. Mawasangka, Kabupaten Buton tengah",SULAWESI TENGGARA,93762.0,Indonesia,82225162565.0,,,-5.2903213,122.2966418,https://maps.google.com/?cid=0x0:0xc44f7b9c97572bc2,
cafe,Pusat Perbelanjaan,Rumah Makan Inang,"M9HJ+VX4, Unnamed Road, Lalibo, Kec. Mawasangka Tengah, Kabupaten Buton, Sulawesi Tenggara 93762","Unnamed Road, Lalibo, Kec. Mawasangka Tengah, Kabupaten Buton",SULAWESI TENGGARA,93762.0,Indonesia,,,,-5.3203534,122.3824462,https://maps.google.com/?cid=0x0:0x26361905f13156e,
cafe,Kafe,Cafe I.respect,"R868+X8G, Terapung, Kec. Mawasangka, Kabupaten Buton, Sulawesi Tenggara 93663","Terapung, Kec. Mawasangka, Kabupaten Buton",SULAWESI TENGGARA,93663.0,Indonesia,81242527342.0,,,-5.1875516,122.3158403,https://maps.google.com/?cid=0x0:0xe83e81cab331e824,
cafe,Ayam Goreng,AyPo Mawasangka,"P77P+334, Mawasangka, Kec. Mawasangka, Kabupaten Buton, Sulawesi Tenggara 93762","Mawasangka, Kec. Mawasangka, Kabupaten Buton",SULAWESI TENGGARA,93762.0,Indonesia,82327249888.0,,,-5.2873663,122.2852176,https://maps.google.com/?cid=0x0:0xe8cd4a6c05875674,
cafe,Jawa,RM. Maulagi,"Jl. Poros Mawasangka-Wamengkoli, Lakorua, Kec. Mawasangka Tengah, Buton Tengah, Sulawesi Tenggara 93762","Lakorua, Kec. Mawasangka Tengah, Buton Tengah",SULAWESI TENGGARA,93762.0,Indonesia,82189377171.0,,,-5.3288816,122.3718706,https://maps.google.com/?cid=0x0:0xb727792dbff0a6c0,
cafe,cafe,Warkop HT,"M88R+6HQ, Morikana, Kec. Mawasangka Tengah, Kabupaten Buton, Sulawesi Tenggara 93762","Morikana, Kec. Mawasangka Tengah, Kabupaten Buton",SULAWESI TENGGARA,93762.0,Indonesia,,,,-5.3344049,122.3414695,https://maps.google.com/?cid=0x0:0x9d7295a6afb6ba96,
cafe,Kedai Kopi,Nongki Coffe,"Lakorua, Kec. Mawasangka Tengah, Sulawesi Tenggara 93764",Kec. Mawasangka Tengah,SULAWESI TENGGARA,93764.0,Indonesia,82211571723.0,,,-5.3286109,122.3749732,https://maps.google.com/?cid=0x0:0x1e3fa228fa039339,
cafe,cafe,Mawasangka Tim.,"Kabupaten Buton, Sulawesi Tenggara","Kabupaten Buton, Sulawesi Tenggara",SULAWESI TENGGARA,,Indonesia,,,,-5.3611739,122.424074,https://maps.google.com/?cid=0x0:0xf58d05571c4d04f4,
cafe,Kedai Kopi,Jiwamu_86,"Watorumbe, Kec. Mawasangka Tengah, Kabupaten Buton, Sulawesi Tenggara","Kabupaten Buton, Sulawesi Tenggara",SULAWESI TENGGARA,,Indonesia,812413444440.0,,,-5.3726129,122.3789681,https://maps.google.com/?cid=0x0:0x2de6762706606288,
cafe,Kedai Kopi,Kedai Acil,"HCWX+HJJ, Inulu, Mawasangka Tim., Kabupaten Buton, Sulawesi Tenggara","Kabupaten Buton, Sulawesi Tenggara",SULAWESI TENGGARA,,Indonesia,82271603656.0,,,-5.4030511,122.4497359,https://maps.google.com/?cid=0x0:0xf1f3d2103fa0e2ea,
cafe,Kedai Kopi,CAFE NTOYNI,"Pasar sentral, kelurahan, Lakorua, Kec. Mawasangka Tengah, Buton tengah, Sulawesi Tenggara 97362","kelurahan, Lakorua, Kec. Mawasangka Tengah, Buton tengah",SULAWESI TENGGARA,97362.0,Indonesia,82238653899.0,,,-5.3318078,122.3725515,https://maps.google.com/?cid=0x0:0x631a48a4f047413a,
cafe,Kedai Kopi,PESONA JIWAMU,"Unnamed Road, Watorumbe Bata, Kec. Mawasangka Tengah, Kabupaten Buton, Sulawesi Tenggara","Kabupaten Buton, Sulawesi Tenggara",SULAWESI TENGGARA,,Indonesia,81241344440.0,,,-5.3719724,122.3792304,https://maps.google.com/?cid=0x0:0x38091815fd272bd3,
cafe,Restoran,Kedai Pesisir,"P7CV+G7R, Mawasangka, Kec. Mawasangka Tengah, Kabupaten Buton, Sulawesi Tenggara 93762","Mawasangka, Kec. Mawasangka Tengah, Kabupaten Buton",SULAWESI TENGGARA,93762.0,Indonesia,85299146141.0,,,-5.2786308,122.2931499,https://maps.google.com/?cid=0x0:0xaaead9c563131806,
cafe,Kafe,TitikNol Cafe,"P76W+WXP, Unnamed Road, Mawasangka, Kec. Mawasangka, Kabupaten Buton, Sulawesi Tenggara 93762","Unnamed Road, Mawasangka, Kec. Mawasangka, Kabupaten Buton",SULAWESI TENGGARA,93762.0,Indonesia,85299791911.0,,,-5.2876621,122.2974376,https://maps.google.com/?cid=0x0:0xacc6b73781a2d411,
cafe,Rumah Makan,Cafe Triple S,"M969+GXW, Lakorua, Kec. Mawasangka Tengah, Kabupaten Buton, Sulawesi Tenggara 93762","Lakorua, Kec. Mawasangka Tengah, Kabupaten Buton",SULAWESI TENGGARA,93762.0,Indonesia,,,,-5.3397677,122.37032,https://maps.google.com/?cid=0x0:0xb725b4a05c639c51,
cafe,Kedai Kopi,Ondo Coffee Buteng,"Taman Matana Sorumba, Mawasangka, Kec. Mawasangka, Kabupaten Buton, Sulawesi Tenggara 93762","Mawasangka, Kec. Mawasangka, Kabupaten Buton",SULAWESI TENGGARA,93762.0,Indonesia,81360220187.0,,,-5.2829928,122.2886365,https://maps.google.com/?cid=0x0:0x6fd0666500ecc64a,
cafe,Pusat Perbelanjaan,Rumah Makan Inang,"M9HJ+VX4, Unnamed Road, Lalibo, Kec. Mawasangka Tengah, Kabupaten Buton, Sulawesi Tenggara 93762","Unnamed Road, Lalibo, Kec. Mawasangka Tengah, Kabupaten Buton",SULAWESI TENGGARA,93762.0,Indonesia,,,,-5.3203534,122.3824462,https://maps.google.com/?cid=0x0:0x26361905f13156e,
cafe,cafe,Kedai Rara,"HFX4+48R, Inulu, Mawasangka Tim., Kabupaten Buton, Sulawesi Tenggara","Kabupaten Buton, Sulawesi Tenggara",SULAWESI TENGGARA,,Indonesia,,,,-5.4021256,122.4557219,https://maps.google.com/?cid=0x0:0x3d145efc491cee52,
cafe,Kafe,Hoki Ice Blend,"Jl. Poros Lamena, Wantopi, Mawasangka Tim., Kabupaten Buton, Sulawesi Tenggara 93762","Wantopi, Mawasangka Tim., Kabupaten Buton",SULAWESI TENGGARA,93762.0,Indonesia,82293894140.0,,,-5.3695896,122.4681167,https://maps.google.com/?cid=0x0:0xbdfc16c522d8124d,
cafe,Restoran,Bapak igo,"HFX4+VX5, Inulu, Mawasangka Tim., Kabupaten Buton, Sulawesi Tenggara 93762","Inulu, Mawasangka Tim., Kabupaten Buton",SULAWESI TENGGARA,93762.0,Indonesia,,,,-5.4003502,122.4574784,https://maps.google.com/?cid=0x0:0x18a147b6262678dd,
cafe,Kedai Kopi,Kedai TikTok,"Jl. RA Kartini, Mawasangka, Kec. Mawasangka, Kabupaten Buton, Sulawesi Tenggara 93762","Mawasangka, Kec. Mawasangka, Kabupaten Buton",SULAWESI TENGGARA,93762.0,Indonesia,82352481361.0,,,-5.283532,122.2885625,https://maps.google.com/?cid=0x0:0x6dcad6d6606eb13,
cafe,Jus,JIU SHUI (Boba),"Jl. Poros Lamena No.49, Inulu, Mawasangka Tim., Kabupaten Buton, Sulawesi Tenggara","Kabupaten Buton, Sulawesi Tenggara",SULAWESI TENGGARA,,Indonesia,82290209520.0,,,-5.4025373,122.4518241,https://maps.google.com/?cid=0x0:0x922cdde3cc4f1b69,
cafe,Kafe,KEDAI BENTE,"MGHP+24R, Wongko Lakudo, Kec. Lakudo, Kabupaten Buton, Sulawesi Tenggara","Kabupaten Buton, Sulawesi Tenggara",SULAWESI TENGGARA,,Indonesia,,,,-5.3223794,122.5352751,https://maps.google.com/?cid=0x0:0x5a10dd1988f9448,
cafe,cafe,Pentol kuah bang ampo,"HFX4+F22, Jl. Poros Lamena, Inulu, Mawasangka Tim., Kabupaten Buton, Sulawesi Tenggara","Kabupaten Buton, Sulawesi Tenggara",SULAWESI TENGGARA,,Indonesia,,,,-5.4013621,122.4548896,https://maps.google.com/?cid=0x0:0xb39d684a3d54648c,
cafe,Indonesia,Rumah Makan NZ,"MCM3+8Q3, Garangga (Dekat Goa Maobu, Lalibo, Kec. Mawasangka Tengah, Kabupaten Buton, Sulawesi Tenggara","Kabupaten Buton, Sulawesi Tenggara",SULAWESI TENGGARA,,Indonesia,,,,-5.3167333,122.4044222,https://maps.google.com/?cid=0x0:0x8b156d646dbc3ef7,
cafe,Jawa,Warung Jahit (Warja),"Unnamed Road, Lalibo, Kec. Mawasangka Tengah, Kabupaten Buton, Sulawesi Tenggara","Kabupaten Buton, Sulawesi Tenggara",SULAWESI TENGGARA,,Indonesia,81268683439.0,,,-5.3193806,122.3882237,https://maps.google.com/?cid=0x0:0x9292e19a234ac7b1,
cafe,cafe,Cafe Eta,"M9JQ+3W8, Lalibo, Kec. Mawasangka Tengah, Kabupaten Buton, Sulawesi Tenggara","Kabupaten Buton, Sulawesi Tenggara",SULAWESI TENGGARA,,Indonesia,,,,-5.319831,122.3898158,https://maps.google.com/?cid=0x0:0x61a0afc9f7596e35,
cafe,Kedai Kopi,Angkringan Food  Drink,"P78Q+R62, Jl. RA Kartini, Mawasangka, Kec. Mawasangka, Kabupaten Buton, Sulawesi Tenggara 93762","Jl. RA Kartini, Mawasangka, Kec. Mawasangka, Kabupaten Buton",SULAWESI TENGGARA,93762.0,Indonesia,82291141660.0,,,-5.2829849,122.2880258,https://maps.google.com/?cid=0x0:0xa1a43144248b1941,
cafe,Kafe,Kedai Koffee Beach,"J833+F3G, Gumamano, Kec. Mawasangka, Kabupaten Buton, Sulawesi Tenggara","Kabupaten Buton, Sulawesi Tenggara",SULAWESI TENGGARA,,Indonesia,85388280642.0,,,-5.3963151,122.3027174,https://maps.google.com/?cid=0x0:0x4e92286d47e12292,
cafe,Kedai Kopi,TERASCAFE,"M99F+83R, Lanto, Kec. Mawasangka Tengah, Kabupaten Buton, Sulawesi Tenggara","Kabupaten Buton, Sulawesi Tenggara",SULAWESI TENGGARA,,Indonesia,82198514232.0,,,-5.3316306,122.3726454,https://maps.google.com/?cid=0x0:0x411ecf07e65d5818,
cafe,cafe,Sulawesi Tenggara 93761,"Kec. Gu, Kabupaten Buton, Sulawesi Tenggara","Kabupaten Buton, Sulawesi Tenggara",SULAWESI TENGGARA,,Indonesia,,,,-5.2702397,122.593828,https://maps.google.com/?cid=0x0:0xe714ef696c5af545,
cafe,Kedai Kopi,KEDAI SA,"P487+86R, Mulya Jaya, Kec. Lasalimu Sel., Kabupaten Buton, Sulawesi Tenggara 93756","Mulya Jaya, Kec. Lasalimu Sel., Kabupaten Buton",SULAWESI TENGGARA,93756.0,Indonesia,82264849774.0,,,-5.2841313,123.1130213,https://maps.google.com/?cid=0x0:0x3a936427b0857765,
cafe,Kios,KIOS BARNAKI,"JJVQ+XGQ, Baruta Analalaki, Kec. Sangia Wambulu, Kabupaten Buton, Sulawesi Tenggara","Kabupaten Buton, Sulawesi Tenggara",SULAWESI TENGGARA,,Indonesia,,,,-5.355046,122.6388475,https://maps.google.com/?cid=0x0:0xe4521442474a9753,
cafe,cafe,Sulawesi Tenggara,,Sulawesi Tenggara,SULAWESI TENGGARA,,Indonesia,,,,-4.14491,122.174605,https://maps.google.com/?cid=0x0:0x621d7c439f04a4ed,
cafe,Kedai Kopi,L. CLASICC COFFIE,"9Q73+HP8, Gerak Makmur, Kec. Sampolawa, Kabupaten Buton, Sulawesi Tenggara 93753","Gerak Makmur, Kec. Sampolawa, Kabupaten Buton",SULAWESI TENGGARA,93753.0,Indonesia,81349316058.0,,,-5.6367555,122.7543945,https://maps.google.com/?cid=0x0:0x61bd8d012794c04b,
cafe,Tempat Cukur Rambut,Mamberamo Barber  coffe Shop,"Kambula Mbulana, Kec. Ps. Wajo, Kabupaten Buton, Sulawesi Tenggara 93754","Kec. Ps. Wajo, Kabupaten Buton",SULAWESI TENGGARA,93754.0,Indonesia,81247451392.0,,,-5.4924287,122.8420376,https://maps.google.com/?cid=0x0:0x3b28372d992f15d6,
cafe,Biro Jasa Penyewaan Kondominium,Kedai Maimo Beloka,"FP4R+7X7, Jln. Poros, Sandang Pangan, Kec. Sampolawa, Kabupaten Buton, Sulawesi Tenggara","Kabupaten Buton, Sulawesi Tenggara",SULAWESI TENGGARA,,Indonesia,,,,-5.5443268,122.7424322,https://maps.google.com/?cid=0x0:0x18afbfaf3914849c,
cafe,Kedai Kopi,Semira coffee cafe,"GHCR+VR, Baadia, Kec. Murhum, Kota Bau-Bau, Sulawesi Tenggara","Kota Bau-Bau, Sulawesi Tenggara",SULAWESI TENGGARA,,Indonesia,,,,-5.4778188,122.592069,https://maps.google.com/?cid=0x0:0x27fe14b02ad3e6b,
cafe,Kedai Kopi,Hendea Coffe D Puncak,"Sandang Pangan, Kec. Sampolawa, Kabupaten Buton, Sulawesi Tenggara","Kabupaten Buton, Sulawesi Tenggara",SULAWESI TENGGARA,,Indonesia,81244357371.0,,,-5.5123564,122.7500695,https://maps.google.com/?cid=0x0:0xa4dd1105d31d0342,
cafe,Dapur Umum,ambuau,"JX4M+JJP, Jl. Poros Lasalimu, Walompo, Kec. Wolowa, Kabupaten Buton, Sulawesi Tenggara","Kabupaten Buton, Sulawesi Tenggara",SULAWESI TENGGARA,,Indonesia,,,,-5.3934096,122.9840807,https://maps.google.com/?cid=0x0:0xd5f99df72441b7a5,
cafe,Kedai Kopi,lokasi usaha ebitbalano,"GQGV+JJ5 teletabis, Warinta, Kec. Ps. Wajo, Kabupaten Buton, Sulawesi Tenggara","Kabupaten Buton, Sulawesi Tenggara",SULAWESI TENGGARA,,Indonesia,,,,-5.4734858,122.794119,https://maps.google.com/?cid=0x0:0xca5cc06a24170523,
cafe,Kedai Kopi,Banyuwanggi,"QXVG+9CV, Suandala, Kec. Lasalimu, Kabupaten Buton, Sulawesi Tenggara","Kabupaten Buton, Sulawesi Tenggara",SULAWESI TENGGARA,,Indonesia,,,,-5.206522,122.976058,https://maps.google.com/?cid=0x0:0x93b183adaa986516,
cafe,Kompleks Apartemen,Mambulu,"FP8W+F2W, Sandang Pangan, Kec. Sampolawa, Kabupaten Buton, Sulawesi Tenggara","Kabupaten Buton, Sulawesi Tenggara",SULAWESI TENGGARA,,Indonesia,,,,-5.5337573,122.7450732,https://maps.google.com/?cid=0x0:0x9bcaae89cf18c55b,
cafe,Kios,Kedai GORENGAN Mama Hazim,"H2GF+RV3, Jl. Poros Lasalimu, Kuraa, Kec. Siontapina, Kabupaten Buton, Sulawesi Tenggara 93756","Jl. Poros Lasalimu, Kuraa, Kec. Siontapina, Kabupaten Buton",SULAWESI TENGGARA,93756.0,Indonesia,85312602095.0,,,-5.422983,123.0246703,https://maps.google.com/?cid=0x0:0x3927fa0025fe2d9c,
cafe,Toko bahan makanan,Rumah La Ngenge,"9Q66+C5, Gerak Makmur, Kec. Sampolawa, Kabupaten Buton, Sulawesi Tenggara 93753","Gerak Makmur, Kec. Sampolawa, Kabupaten Buton",SULAWESI TENGGARA,93753.0,Indonesia,,,,-5.6389429,122.760378,https://maps.google.com/?cid=0x0:0xd6f18721bc083580,
cafe,Kedai Kopi,Kedai Tani,"P5V3+MP9, Jl. poros Lasalimu, Lasalimu, Kec. Lasalimu Sel., Kabupaten Buton, Sulawesi Tenggara 93756","Jl. poros Lasalimu, Lasalimu, Kec. Lasalimu Sel., Kabupaten Buton",SULAWESI TENGGARA,93756.0,Indonesia,,,,-5.2558436,123.1543491,https://maps.google.com/?cid=0x0:0x4a48e4190fe191f6,
cafe,cafe,,,,SULAWESI TENGGARA,,Indonesia,,,,,,https://maps.google.com/?cid=0x0:0x3a936427b0857765u0026onu0026midu003d/g/11y74q6st4,
cafe,cafe,Talaga Raya,"Kabupaten Buton, Sulawesi Tenggara","Kabupaten Buton, Sulawesi Tenggara",SULAWESI TENGGARA,,Indonesia,,,,-5.4213926,122.0155491,https://maps.google.com/?cid=0x0:0x2e35b700451321ba,
cafe,Kedai Kopi,Cafe Manis,"G3GJ+GHH, Talaga I, Talaga Raya, Kabupaten Buton, Sulawesi Tenggara 93781","Talaga I, Talaga Raya, Kabupaten Buton",SULAWESI TENGGARA,93781.0,Indonesia,,,,-5.473697,122.081492,https://maps.google.com/?cid=0x0:0x3fb714c87f5478df,
cafe,Kafe,Cafe 34,"Talaga I, Talaga Raya, Kabupaten Buton Tengah, Sulawesi Tenggara 93781","Talaga Raya, Kabupaten Buton Tengah",SULAWESI TENGGARA,93781.0,Indonesia,82114457806.0,,,-5.4736455,122.0818014,https://maps.google.com/?cid=0x0:0x90274fab2b0a05d3,
cafe,Tukang Las,BENGKEL LAS IHWAL-BUTON,"G26X+2PQ, Talaga Besar, Talaga Raya, Kabupaten Buton, Sulawesi Tenggara 93781","Talaga Besar, Talaga Raya, Kabupaten Buton",SULAWESI TENGGARA,93781.0,Indonesia,82217430831.0,,,-5.489918,122.0493628,https://maps.google.com/?cid=0x0:0x5bc72479525c3115,
cafe,cafe,Rumah mama Iyom,"G39J+9GG Desa pangilia, Talaga II, Talaga Raya, Kabupaten Buton, Sulawesi Tenggara 93781","Talaga II, Talaga Raya, Kabupaten Buton",SULAWESI TENGGARA,93781.0,Indonesia,,,,-5.4802939,122.0754067,https://maps.google.com/?cid=0x0:0x417379ee22df7f14,
cafe,Komplek perumahan,Rumah yamin,"G352+M28, Talaga Besar, Talaga Raya, Kabupaten Buton, Sulawesi Tenggara 93781","Talaga Besar, Talaga Raya, Kabupaten Buton",SULAWESI TENGGARA,93781.0,Indonesia,,,,-5.4913333,122.0500186,https://maps.google.com/?cid=0x0:0x1655ce0287e74a3e,
cafe,Kedai Kopi,D'TALAGA Cafe  Resto Ratahan,"2RRH+FG2, Wioi Tiga, Kec. Ratahan Tim., Kabupaten Minahasa Tenggara, Sulawesi Utara","Kabupaten Minahasa Tenggara, Sulawesi Utara",SULAWESI TENGGARA,,Indonesia,,,,1.0411449,124.8287507,https://maps.google.com/?cid=0x0:0xe6ab41e11ad7c01f,
cafe,Rumah Makan,RM Bu Harwidah,"GX72+HR5, Kokoe, Talaga Raya, Kabupaten Buton, Sulawesi Tenggara 93781","Kokoe, Talaga Raya, Kabupaten Buton",SULAWESI TENGGARA,93781.0,Indonesia,,,,-5.4873405,121.95212,https://maps.google.com/?cid=0x0:0x8466fc069717903c,
