Category,Real Category,Business Name,Address,City,State,Postal Code,Country,Phone,Email,Website,Latitude,Longitude,Map Link,Details Link
building materials,Toko Bahan Bangunan,Toko Enam Saudara Lombe,"PHXH+439, kompleks pasar lombe, Bombonawulu, Kec. Gu, Kabupaten Buton, Sulawesi Tenggara 93761","kompleks pasar lombe, Bombonawulu, Kec. Gu, Kabupaten Buton",SULAWESI TENGGARA,93761.0,Indonesia,85299578579.0,,,-5.2522026,122.5777204,https://maps.google.com/?cid=0x0:0x278b5a28c6ed5919,
building materials,building materials,Sulawesi Tenggara 93761,"Kec. Gu, Kabupaten Buton, Sulawesi Tenggara","Kabupaten Buton, Sulawesi Tenggara",SULAWESI TENGGARA,,Indonesia,,,,-5.2702397,122.593828,https://maps.google.com/?cid=0x0:0xe714ef696c5af545,
building materials,Toko Bahan Bangunan,Jual Batako/Semen (Lailio),"PHXF+R52, Watulea, Kec. Gu, Kabupaten Buton, Sulawesi Tenggara 93761","Watulea, Kec. Gu, Kabupaten Buton",SULAWESI TENGGARA,93761.0,Indonesia,81354000464.0,,,-5.2504853,122.572876,https://maps.google.com/?cid=0x0:0x2bf9cbe58b0cc54e,
building materials,Toko Bahan Bangunan,Toko Bangunan Rajawali,"Jl. Jend. Sudirman Lombe Buton Tengah No.7, Bombonawulu, Kec. Gu, Kabupaten Buton, Sulawesi Tenggara 93761","Bombonawulu, Kec. Gu, Kabupaten Buton",SULAWESI TENGGARA,93761.0,Indonesia,85241808922.0,,,-5.2526042,122.5763954,https://maps.google.com/?cid=0x0:0xf2f6cd42a4098c43,
building materials,Toko Bahan Bangunan,Toko Bangunan Haffisa,"PHXG+2H7, Bombonawulu, Kec. Gu, Kabupaten Buton, Sulawesi Tenggara 93761","Bombonawulu, Kec. Gu, Kabupaten Buton",SULAWESI TENGGARA,93761.0,Indonesia,85399543612.0,,,-5.2524619,122.5764101,https://maps.google.com/?cid=0x0:0x664eed9514923bea,
building materials,Toko,Toko BERLIAN LOMBE,"PHVG+XVP, Unnamed Road, Bombonawulu, Kec. Gu, Kabupaten Buton, Sulawesi Tenggara 93761","Unnamed Road, Bombonawulu, Kec. Gu, Kabupaten Buton",SULAWESI TENGGARA,93761.0,Indonesia,,,,-5.2550406,122.5772125,https://maps.google.com/?cid=0x0:0xb2653d169c95c330,
building materials,Toko Bahan Bangunan,Toko Irfan Jaya,"JJX5+78C, Wadiabero, Kec. Gu, Kabupaten Buton, Sulawesi Tenggara 93761","Wadiabero, Kec. Gu, Kabupaten Buton",SULAWESI TENGGARA,93761.0,Indonesia,81381862044.0,,,-5.3518092,122.6082658,https://maps.google.com/?cid=0x0:0x47068639be57546e,
building materials,Rumah Kayu,Toko(WDR) Tolandona,"JJMC+7C2, Tolandona Matanaeo, Kec. Sangia Wambulu, Kabupaten Buton, Sulawesi Tenggara 93761","Tolandona Matanaeo, Kec. Sangia Wambulu, Kabupaten Buton",SULAWESI TENGGARA,93761.0,Indonesia,,,,-5.3668257,122.6208758,https://maps.google.com/?cid=0x0:0x613247cb39b5b94b,
building materials,Toko Bahan Bangunan,CV.PUTRA WALANDO,"PHV8+F6W, Jl. Poros Lakapera-Waara, Walando, Kec. Gu, Kabupaten Buton, Sulawesi Tenggara 93761","Jl. Poros Lakapera-Waara, Walando, Kec. Gu, Kabupaten Buton",SULAWESI TENGGARA,93761.0,Indonesia,82192714002.0,,,-5.256261,122.5655662,https://maps.google.com/?cid=0x0:0x38cb3b159a675951,
building materials,Toko Bahan Bangunan,Toko Artha Dico,"PGRQ+FPV, Mone, Kec. Lakudo, Kabupaten Buton, Sulawesi Tenggara 93763","Mone, Kec. Lakudo, Kabupaten Buton",SULAWESI TENGGARA,93763.0,Indonesia,,,,-5.2587621,122.5392985,https://maps.google.com/?cid=0x0:0x58fdcf6296ac5fe3,
building materials,Toko Swalayan,Sumber Rejeki,"Jln poros walengkabola, Oempu, Sulawesi Tenggara 93662",Oempu,SULAWESI TENGGARA,93662.0,Indonesia,82396460470.0,,,-5.1897034,122.5857083,https://maps.google.com/?cid=0x0:0xdf7524ce863fdb09,
building materials,Toko Swalayan,RAHMAN MART,"Lingk. Bantea 01, Tolandona, Kec. Sangia Wambulu, Buton Tengah, Sulawesi Tenggara 93761","Tolandona, Kec. Sangia Wambulu, Buton Tengah",SULAWESI TENGGARA,93761.0,Indonesia,81525899929.0,,,-5.3676296,122.6179701,https://maps.google.com/?cid=0x0:0x6870baefabadd6d8,
building materials,Toko Bahan Bangunan,Mitra usaha,"PGFC+5GH, Moko, Kec. Lakudo, Kabupaten Buton, Sulawesi Tenggara","Kabupaten Buton, Sulawesi Tenggara",SULAWESI TENGGARA,,Indonesia,82287361861.0,,,-5.2770333,122.52132,https://maps.google.com/?cid=0x0:0x15b9e85f4be9dfc0,
building materials,Toko Bahan Bangunan,Bintang kembar,"QGW8+Q24, Mone, Kec. Lakudo, Kabupaten Buton, Sulawesi Tenggara 93662","Mone, Kec. Lakudo, Kabupaten Buton",SULAWESI TENGGARA,93662.0,Indonesia,81269341060.0,,,-5.2031206,122.5150782,https://maps.google.com/?cid=0x0:0xa3353c383df6c413,
building materials,Toko,UD.KEMBAR JAYA MANDIRI(LOLIBU),"PF4Q+45Q, Lolibu, Kec. Lakudo, Kabupaten Buton, Sulawesi Tenggara","Kabupaten Buton, Sulawesi Tenggara",SULAWESI TENGGARA,,Indonesia,,,,-5.294669,122.4879767,https://maps.google.com/?cid=0x0:0x184a0921ff25939b,
building materials,Toko Bahan Bangunan,Toko Fitrah Central Bangunan,"Jl. Gersamata, Wongko Lakudo, Kec. Lakudo, Kabupaten Buton, Sulawesi Tenggara 93763","Wongko Lakudo, Kec. Lakudo, Kabupaten Buton",SULAWESI TENGGARA,93763.0,Indonesia,81242310809.0,,,-5.320151,122.535901,https://maps.google.com/?cid=0x0:0x64a3a8274e6efecc,
building materials,Toko Bahan Bangunan,Toko Sinar Muda,"PHXG+2VC, Jl. Jend. Sudirman, Bombonawulu, Kec. Gu, Kabupaten Buton, Sulawesi Tenggara 93761","Jl. Jend. Sudirman, Bombonawulu, Kec. Gu, Kabupaten Buton",SULAWESI TENGGARA,93761.0,Indonesia,85344320346.0,,,-5.2524493,122.577134,https://maps.google.com/?cid=0x0:0xcb452b27674549d9,
building materials,Toko Bahan Bangunan,Building Material,"Jalan Raya Bogor KM 41.5 Mitra 10, Kec. Cibinong, Kabupaten Bogor, Jawa Barat","Kabupaten Bogor, Jawa Barat",SULAWESI TENGGARA,,Indonesia,8888553230.0,,,-6.4611293,106.8578126,https://maps.google.com/?cid=0x0:0xdf26c1dd6cf56797,
building materials,Toko Bahan Bangunan,Toko Bangunan Cibinong Terlengkap - Mitra10 Cibinong,"Jl. Raya Jakarta-Bogor No.Km.41, RW.5, Ciriung, Kec. Cibinong, Kabupaten Bogor, Jawa Barat 16916","RW.5, Ciriung, Kec. Cibinong, Kabupaten Bogor",SULAWESI TENGGARA,16916.0,Indonesia,87800021010.0,,,-6.4612456,106.8574643,https://maps.google.com/?cid=0x0:0x69780f893a257c1a,
building materials,Toko Bahan Bangunan,Toko Fitrah Central Bangunan,"Jl. Gersamata, Wongko Lakudo, Kec. Lakudo, Kabupaten Buton, Sulawesi Tenggara 93763","Wongko Lakudo, Kec. Lakudo, Kabupaten Buton",SULAWESI TENGGARA,93763.0,Indonesia,81242310809.0,,,-5.320151,122.535901,https://maps.google.com/?cid=0x0:0x64a3a8274e6efecc,
building materials,Toko Bahan Bangunan,Mitra usaha,"PGFC+5GH, Moko, Kec. Lakudo, Kabupaten Buton, Sulawesi Tenggara","Kabupaten Buton, Sulawesi Tenggara",SULAWESI TENGGARA,,Indonesia,82287361861.0,,,-5.2770333,122.52132,https://maps.google.com/?cid=0x0:0x15b9e85f4be9dfc0,
building materials,Toko Bahan Bangunan,Toko Artha Dico,"PGRQ+FPV, Mone, Kec. Lakudo, Kabupaten Buton, Sulawesi Tenggara 93763","Mone, Kec. Lakudo, Kabupaten Buton",SULAWESI TENGGARA,93763.0,Indonesia,,,,-5.2587621,122.5392985,https://maps.google.com/?cid=0x0:0x58fdcf6296ac5fe3,
building materials,Toko,UD.KEMBAR JAYA MANDIRI(LOLIBU),"PF4Q+45Q, Lolibu, Kec. Lakudo, Kabupaten Buton, Sulawesi Tenggara","Kabupaten Buton, Sulawesi Tenggara",SULAWESI TENGGARA,,Indonesia,,,,-5.294669,122.4879767,https://maps.google.com/?cid=0x0:0x184a0921ff25939b,
building materials,Toko Bahan Bangunan,Bintang kembar,"QGW8+Q24, Mone, Kec. Lakudo, Kabupaten Buton, Sulawesi Tenggara 93662","Mone, Kec. Lakudo, Kabupaten Buton",SULAWESI TENGGARA,93662.0,Indonesia,81269341060.0,,,-5.2031206,122.5150782,https://maps.google.com/?cid=0x0:0xa3353c383df6c413,
building materials,building materials,Sulawesi Tenggara 93763,"Kec. Lakudo, Kabupaten Buton, Sulawesi Tenggara","Kabupaten Buton, Sulawesi Tenggara",SULAWESI TENGGARA,,Indonesia,,,,-5.3531329,122.5598994,https://maps.google.com/?cid=0x0:0x62c2a15eea95dc2,
building materials,Toko Bahan Bangunan,KAPOINDALONTO,"MG4Q+H4, Wanepa Nepa, Kec. Lakudo, Kabupaten Buton, Sulawesi Tenggara","Kabupaten Buton, Sulawesi Tenggara",SULAWESI TENGGARA,,Indonesia,,,,-5.3436086,122.5377962,https://maps.google.com/?cid=0x0:0x1eb736801ca0e00b,
building materials,Toko Bahan Bangunan,CV.PUTRA WALANDO,"PHV8+F6W, Jl. Poros Lakapera-Waara, Walando, Kec. Gu, Kabupaten Buton, Sulawesi Tenggara 93761","Jl. Poros Lakapera-Waara, Walando, Kec. Gu, Kabupaten Buton",SULAWESI TENGGARA,93761.0,Indonesia,82192714002.0,,,-5.256261,122.5655662,https://maps.google.com/?cid=0x0:0x38cb3b159a675951,
building materials,Rumah Kayu,Toko(WDR) Tolandona,"JJMC+7C2, Tolandona Matanaeo, Kec. Sangia Wambulu, Kabupaten Buton, Sulawesi Tenggara 93761","Tolandona Matanaeo, Kec. Sangia Wambulu, Kabupaten Buton",SULAWESI TENGGARA,93761.0,Indonesia,,,,-5.3668257,122.6208758,https://maps.google.com/?cid=0x0:0x613247cb39b5b94b,
building materials,Toko Bahan Bangunan,Toko Irfan Jaya,"JJX5+78C, Wadiabero, Kec. Gu, Kabupaten Buton, Sulawesi Tenggara 93761","Wadiabero, Kec. Gu, Kabupaten Buton",SULAWESI TENGGARA,93761.0,Indonesia,81381862044.0,,,-5.3518092,122.6082658,https://maps.google.com/?cid=0x0:0x47068639be57546e,
building materials,Toko Alat Tulis Kantor,Toko Disra,"MGJM+C4W, Wongko Lakudo, Kec. Lakudo, Kabupaten Buton Tengah, Sulawesi Tenggara 93763","Wongko Lakudo, Kec. Lakudo, Kabupaten Buton Tengah",SULAWESI TENGGARA,93763.0,Indonesia,,,,-5.3188895,122.5328172,https://maps.google.com/?cid=0x0:0x566846123d778e92,
building materials,Jasa Konstruksi dan Bangunan,"Mebel lemari, jendela, pintu, koseng, meja dan kursi","QG8C+943, Mone, Kec. Lakudo, Kabupaten Buton, Sulawesi Tenggara 93763","Mone, Kec. Lakudo, Kabupaten Buton",SULAWESI TENGGARA,93763.0,Indonesia,82271334840.0,,,-5.2341125,122.5203019,https://maps.google.com/?cid=0x0:0x24adaae69a4c4ee8,
building materials,Toko Bahan Bangunan,Toko Bangunan Rajawali,"Jl. Jend. Sudirman Lombe Buton Tengah No.7, Bombonawulu, Kec. Gu, Kabupaten Buton, Sulawesi Tenggara 93761","Bombonawulu, Kec. Gu, Kabupaten Buton",SULAWESI TENGGARA,93761.0,Indonesia,85241808922.0,,,-5.2526042,122.5763954,https://maps.google.com/?cid=0x0:0xf2f6cd42a4098c43,
building materials,Toko Alat Tulis Kantor,Diyafizul ART  ATK,"MGJJ+5WQ, Wongko Lakudo, Kec. Lakudo, Kabupaten Buton, Sulawesi Tenggara","Kabupaten Buton, Sulawesi Tenggara",SULAWESI TENGGARA,,Indonesia,82347706730.0,,,-5.3195294,122.5323714,https://maps.google.com/?cid=0x0:0x4c413ecd303964e0,
building materials,Toko,Toko BERLIAN LOMBE,"PHVG+XVP, Unnamed Road, Bombonawulu, Kec. Gu, Kabupaten Buton, Sulawesi Tenggara 93761","Unnamed Road, Bombonawulu, Kec. Gu, Kabupaten Buton",SULAWESI TENGGARA,93761.0,Indonesia,,,,-5.2550406,122.5772125,https://maps.google.com/?cid=0x0:0xb2653d169c95c330,
building materials,Pasar bahan bangunan,Intan Building Center,"Jl. Budi Utomo No.90, Bataraguru, Kec. Wolio, Kota Bau-Bau, Sulawesi Tenggara 93717","Bataraguru, Kec. Wolio, Kota Bau-Bau",SULAWESI TENGGARA,93717.0,Indonesia,82292888886.0,,,-5.4658703,122.607269,https://maps.google.com/?cid=0x0:0xdd0e5cfd517f12e5,
building materials,Toko Alat Tulis Kantor,TOKO R4FIF LAKUDO,"Lingk. Lawa Samping Masjid KH Abd. Syukur No.1, Lakudo, Kec. Lakudo, Buton Tengah, Sulawesi Tenggara 93763","Lakudo, Kec. Lakudo, Buton Tengah",SULAWESI TENGGARA,93763.0,Indonesia,81341701998.0,,,-5.3215833,122.5344417,https://maps.google.com/?cid=0x0:0xf058c7689ec49bd2,
building materials,Toko Bahan Bangunan,Toko Enam Saudara Lombe,"PHXH+439, kompleks pasar lombe, Bombonawulu, Kec. Gu, Kabupaten Buton, Sulawesi Tenggara 93761","kompleks pasar lombe, Bombonawulu, Kec. Gu, Kabupaten Buton",SULAWESI TENGGARA,93761.0,Indonesia,85299578579.0,,,-5.2522026,122.5777204,https://maps.google.com/?cid=0x0:0x278b5a28c6ed5919,
building materials,Toko Bahan Bangunan,Intan Building Center 2,"Jl. R.a. Kartini No.68, Wale, Kec. Wolio, Kota Bau-Bau, Sulawesi Tenggara 93717","Wale, Kec. Wolio, Kota Bau-Bau",SULAWESI TENGGARA,93717.0,Indonesia,82292888886.0,,,-5.4565292,122.6051852,https://maps.google.com/?cid=0x0:0x4743d2cd70649910,
building materials,Toko Bahan Bangunan,Toko Bangunan Haffisa,"PHXG+2H7, Bombonawulu, Kec. Gu, Kabupaten Buton, Sulawesi Tenggara 93761","Bombonawulu, Kec. Gu, Kabupaten Buton",SULAWESI TENGGARA,93761.0,Indonesia,85399543612.0,,,-5.2524619,122.5764101,https://maps.google.com/?cid=0x0:0x664eed9514923bea,
building materials,building materials,Mawasangka,"Mawasangka, Kec. Mawasangka, Kabupaten Buton, Sulawesi Tenggara","Kabupaten Buton, Sulawesi Tenggara",SULAWESI TENGGARA,,Indonesia,,,,-5.290863,122.298897,https://maps.google.com/?cid=0x0:0x6eab10a86a088341,
building materials,Toko,Batako,"P79W+5WG, Mawasangka, Kec. Mawasangka, Kabupaten Buton, Sulawesi Tenggara 93762","Mawasangka, Kec. Mawasangka, Kabupaten Buton",SULAWESI TENGGARA,93762.0,Indonesia,,,,-5.2817542,122.2967245,https://maps.google.com/?cid=0x0:0x662335bdc4a82d97,
building materials,Toko,Toko Aneka Diesel Mawasangka,"LINGK. KAMPUNG BARU, Watolo, Kec. Mawasangka, Kab. Buton Tengah, Sulawesi Tenggara 93762","Watolo, Kec. Mawasangka, Kab. Buton Tengah",SULAWESI TENGGARA,93762.0,Indonesia,85143949893.0,,,-5.2869569,122.2861459,https://maps.google.com/?cid=0x0:0x6b940188542e09a2,
building materials,Toko Bahan Bangunan,TB. Tani Fajar,"R857+X6G, Terapung, Kec. Mawasangka, Kabupaten Buton, Sulawesi Tenggara 93663","Terapung, Kec. Mawasangka, Kabupaten Buton",SULAWESI TENGGARA,93663.0,Indonesia,81354245380.0,,,-5.1900641,122.3130837,https://maps.google.com/?cid=0x0:0xeb904d63cad01b07,
building materials,Toko Bahan Bangunan,Sinar Auddy,"M9FG+H6V, Lanto, Kec. Mawasangka Tengah, Kabupaten Buton, Sulawesi Tenggara","Kabupaten Buton, Sulawesi Tenggara",SULAWESI TENGGARA,,Indonesia,,,,-5.3260116,122.3755396,https://maps.google.com/?cid=0x0:0x66642e7bdfa26c8,
building materials,Pusat Perbelanjaan,TOKO ZAM2,"M99C+PMW, Lakorua, Kec. Mawasangka Tengah, Kabupaten Buton, Sulawesi Tenggara","Kabupaten Buton, Sulawesi Tenggara",SULAWESI TENGGARA,,Indonesia,,,,-5.3306331,122.3717017,https://maps.google.com/?cid=0x0:0x1d8b135911347334,
building materials,Toko Bahan Bangunan,UD. ALTAF PRIMA,"Lingkungan Jalan Layang, Watolo, Kec. Mawasangka, Kabupaten Buton, Sulawesi Tenggara 93762","Watolo, Kec. Mawasangka, Kabupaten Buton",SULAWESI TENGGARA,93762.0,Indonesia,,,,-5.2899755,122.2823759,https://maps.google.com/?cid=0x0:0x92ce95953492d1e6,
building materials,Toko Bahan Bangunan,Batako Desa Polindu,"Q85Q+8M8, Dusun landilee, Polindu, Kec. Mawasangka, Kabupaten Buton, Sulawesi Tenggara 93762","Dusun landilee, Polindu, Kec. Mawasangka, Kabupaten Buton",SULAWESI TENGGARA,93762.0,Indonesia,,,,-5.241703,122.339212,https://maps.google.com/?cid=0x0:0x782ccf56e2dd4ac0,
building materials,building materials,Sulawesi Tenggara 93762,"Kabupaten Buton, Sulawesi Tenggara","Kabupaten Buton, Sulawesi Tenggara",SULAWESI TENGGARA,,Indonesia,,,,-5.291781,122.3787597,https://maps.google.com/?cid=0x0:0x29d13fe4e83e4ba7,
building materials,Toko,Batako,"P79W+5WG, Mawasangka, Kec. Mawasangka, Kabupaten Buton, Sulawesi Tenggara 93762","Mawasangka, Kec. Mawasangka, Kabupaten Buton",SULAWESI TENGGARA,93762.0,Indonesia,,,,-5.2817542,122.2967245,https://maps.google.com/?cid=0x0:0x662335bdc4a82d97,
building materials,Toko Swalayan,Kios Romay K,"M798+5R2, Napa, Kec. Mawasangka, Kabupaten Buton, Sulawesi Tenggara 93762","Napa, Kec. Mawasangka, Kabupaten Buton",SULAWESI TENGGARA,93762.0,Indonesia,82399133980.0,,,-5.3331447,122.267695,https://maps.google.com/?cid=0x0:0x15510adbb540629a,
building materials,Toko Bahan Bangunan,Sinar Auddy,"M9FG+H6V, Lanto, Kec. Mawasangka Tengah, Kabupaten Buton, Sulawesi Tenggara","Kabupaten Buton, Sulawesi Tenggara",SULAWESI TENGGARA,,Indonesia,,,,-5.3260116,122.3755396,https://maps.google.com/?cid=0x0:0x66642e7bdfa26c8,
building materials,Toko bahan makanan,Toko Daffa al-fazza,"Depan PM celluler, Jalan poros, Matara, Kec. Mawasangka, Sulawesi Tenggara 93762","Jalan poros, Matara, Kec. Mawasangka",SULAWESI TENGGARA,93762.0,Indonesia,82398087792.0,,,-5.3270481,122.3218269,https://maps.google.com/?cid=0x0:0xa32662af35ff0ce0,
building materials,Toko Bahan Bangunan,Toko Supardin,"Q89F+CW7, Unnamed Road, Tanailandu, Kec. Mawasangka, Kabupaten Buton, Sulawesi Tenggara 93762","Unnamed Road, Tanailandu, Kec. Mawasangka, Kabupaten Buton",SULAWESI TENGGARA,93762.0,Indonesia,82344297099.0,,,-5.2314659,122.3248031,https://maps.google.com/?cid=0x0:0xe7f4fd98a3dc15c9,
building materials,Pusat Perbelanjaan,TOKO ZAM2,"M99C+PMW, Lakorua, Kec. Mawasangka Tengah, Kabupaten Buton, Sulawesi Tenggara","Kabupaten Buton, Sulawesi Tenggara",SULAWESI TENGGARA,,Indonesia,,,,-5.3306331,122.3717017,https://maps.google.com/?cid=0x0:0x1d8b135911347334,
building materials,building materials,Tempat pengambilan material,"JCJX+H3, Wantopi, Mawasangka Tim., Kabupaten Buton, Sulawesi Tenggara","Kabupaten Buton, Sulawesi Tenggara",SULAWESI TENGGARA,,Indonesia,,,,-5.3685388,122.4476645,https://maps.google.com/?cid=0x0:0x726f4d6a706ba5b3,
building materials,Toko,Toko Aneka Diesel Mawasangka,"LINGK. KAMPUNG BARU, Watolo, Kec. Mawasangka, Kab. Buton Tengah, Sulawesi Tenggara 93762","Watolo, Kec. Mawasangka, Kab. Buton Tengah",SULAWESI TENGGARA,93762.0,Indonesia,85143949893.0,,,-5.2869569,122.2861459,https://maps.google.com/?cid=0x0:0x6b940188542e09a2,
building materials,Toko Bahan Bangunan,UD. Sinar Mantunga,"HFX4+F22, Jl. Poros Lamena, Inulu, Mawasangka Tim., Kabupaten Buton, Sulawesi Tenggara","Kabupaten Buton, Sulawesi Tenggara",SULAWESI TENGGARA,,Indonesia,,,,-5.401365,122.455011,https://maps.google.com/?cid=0x0:0xc96c5d86af4f166f,
building materials,Toko Bahan Bangunan,TB. Tani Fajar,"R857+X6G, Terapung, Kec. Mawasangka, Kabupaten Buton, Sulawesi Tenggara 93663","Terapung, Kec. Mawasangka, Kabupaten Buton",SULAWESI TENGGARA,93663.0,Indonesia,81354245380.0,,,-5.1900641,122.3130837,https://maps.google.com/?cid=0x0:0xeb904d63cad01b07,
building materials,Balai masyarakat,Desa Oengkolaki,"P8J5+724, Oengkolaki, Kec. Mawasangka, Kabupaten Buton, Sulawesi Tenggara 93762","Oengkolaki, Kec. Mawasangka, Kabupaten Buton",SULAWESI TENGGARA,93762.0,Indonesia,82346222168.0,,,-5.2693698,122.307581,https://maps.google.com/?cid=0x0:0x2ee875197746d44c,
building materials,Komplek perumahan,Material Instasi listrik,"Siding baru, Napa, Kec. Mawasangka, Buton tengah, Sulawesi Tenggara","Buton tengah, Sulawesi Tenggara",SULAWESI TENGGARA,,Indonesia,85245234715.0,,,-5.3279395,122.2665615,https://maps.google.com/?cid=0x0:0xe3dc8a8b6b6dbb2b,
building materials,Toko,UD.KEMBAR JAYA MANDIRI(LOLIBU),"PF4Q+45Q, Lolibu, Kec. Lakudo, Kabupaten Buton, Sulawesi Tenggara","Kabupaten Buton, Sulawesi Tenggara",SULAWESI TENGGARA,,Indonesia,,,,-5.294669,122.4879767,https://maps.google.com/?cid=0x0:0x184a0921ff25939b,
building materials,Kantor Perusahaan,depot rahmat,"P79R+XP5, Mawasangka, Kec. Mawasangka, Kabupaten Buton, Sulawesi Tenggara 93762","Mawasangka, Kec. Mawasangka, Kabupaten Buton",SULAWESI TENGGARA,93762.0,Indonesia,85398279562.0,,,-5.2801087,122.2918468,https://maps.google.com/?cid=0x0:0xc61779be338cbe42,
building materials,Toko Alat Tulis Kantor,TOKO SINAR LA ULU,"M9CC+9JJ, Lakorua, Kec. Mawasangka Tengah, Kabupaten Buton, Sulawesi Tenggara 93762","Lakorua, Kec. Mawasangka Tengah, Kabupaten Buton",SULAWESI TENGGARA,93762.0,Indonesia,82393321551.0,,,-5.3290179,122.3717273,https://maps.google.com/?cid=0x0:0xe122ae30ee15255b,
building materials,Toko Bahan Bangunan,Mitra usaha,"PGFC+5GH, Moko, Kec. Lakudo, Kabupaten Buton, Sulawesi Tenggara","Kabupaten Buton, Sulawesi Tenggara",SULAWESI TENGGARA,,Indonesia,82287361861.0,,,-5.2770333,122.52132,https://maps.google.com/?cid=0x0:0x15b9e85f4be9dfc0,
building materials,Pasar bahan bangunan,Intan Building Center,"Jl. Budi Utomo No.90, Bataraguru, Kec. Wolio, Kota Bau-Bau, Sulawesi Tenggara 93717","Bataraguru, Kec. Wolio, Kota Bau-Bau",SULAWESI TENGGARA,93717.0,Indonesia,82292888886.0,,,-5.4658703,122.607269,https://maps.google.com/?cid=0x0:0xdd0e5cfd517f12e5,
building materials,Toko Bahan Bangunan,Toko Fitrah Central Bangunan,"Jl. Gersamata, Wongko Lakudo, Kec. Lakudo, Kabupaten Buton, Sulawesi Tenggara 93763","Wongko Lakudo, Kec. Lakudo, Kabupaten Buton",SULAWESI TENGGARA,93763.0,Indonesia,81242310809.0,,,-5.320151,122.535901,https://maps.google.com/?cid=0x0:0x64a3a8274e6efecc,
building materials,building materials,Kec. Mawasangka Tengah,"Kabupaten Buton, Sulawesi Tenggara","Kabupaten Buton, Sulawesi Tenggara",SULAWESI TENGGARA,,Indonesia,,,,-5.3281582,122.3735319,https://maps.google.com/?cid=0x0:0x5d31cab3951c9500,
building materials,Toko Bahan Bangunan,Toko MILA JAYA,"MGJM+CHJ, Wongko Lakudo, Kec. Lakudo, Kabupaten Buton, Sulawesi Tenggara 93763","Wongko Lakudo, Kec. Lakudo, Kabupaten Buton",SULAWESI TENGGARA,93763.0,Indonesia,,,,-5.3189193,122.5338982,https://maps.google.com/?cid=0x0:0x60aa9ab12b677be,
building materials,building materials,Toko Rahmat Bangunan,"Jalan Poros Wamengkoli - Mawasangka No. 23, Lakorua, Lanto, Kec. Mawasangka Tengah, Kabupaten Buton, Sulawesi Tenggara 93762","Lakorua, Lanto, Kec. Mawasangka Tengah, Kabupaten Buton",SULAWESI TENGGARA,93762.0,Indonesia,,,,-5.328134,122.3737285,https://maps.google.com/?cid=0x0:0x697f7a2484d18aca,
building materials,building materials,Mawasangka Tim.,"Kabupaten Buton, Sulawesi Tenggara","Kabupaten Buton, Sulawesi Tenggara",SULAWESI TENGGARA,,Indonesia,,,,-5.3611739,122.424074,https://maps.google.com/?cid=0x0:0xf58d05571c4d04f4,
building materials,building materials,Tempat pengambilan material,"JCJX+H3, Wantopi, Mawasangka Tim., Kabupaten Buton, Sulawesi Tenggara","Kabupaten Buton, Sulawesi Tenggara",SULAWESI TENGGARA,,Indonesia,,,,-5.3685388,122.4476645,https://maps.google.com/?cid=0x0:0x726f4d6a706ba5b3,
building materials,Toko Bahan Bangunan,UD. Sinar Mantunga,"HFX4+F22, Jl. Poros Lamena, Inulu, Mawasangka Tim., Kabupaten Buton, Sulawesi Tenggara","Kabupaten Buton, Sulawesi Tenggara",SULAWESI TENGGARA,,Indonesia,,,,-5.401365,122.455011,https://maps.google.com/?cid=0x0:0xc96c5d86af4f166f,
building materials,Pusat Perbelanjaan,TOKO ZAM2,"M99C+PMW, Lakorua, Kec. Mawasangka Tengah, Kabupaten Buton, Sulawesi Tenggara","Kabupaten Buton, Sulawesi Tenggara",SULAWESI TENGGARA,,Indonesia,,,,-5.3306331,122.3717017,https://maps.google.com/?cid=0x0:0x1d8b135911347334,
building materials,Toko,UD.KEMBAR JAYA MANDIRI(LOLIBU),"PF4Q+45Q, Lolibu, Kec. Lakudo, Kabupaten Buton, Sulawesi Tenggara","Kabupaten Buton, Sulawesi Tenggara",SULAWESI TENGGARA,,Indonesia,,,,-5.294669,122.4879767,https://maps.google.com/?cid=0x0:0x184a0921ff25939b,
building materials,Toko,Batako,"P79W+5WG, Mawasangka, Kec. Mawasangka, Kabupaten Buton, Sulawesi Tenggara 93762","Mawasangka, Kec. Mawasangka, Kabupaten Buton",SULAWESI TENGGARA,93762.0,Indonesia,,,,-5.2817542,122.2967245,https://maps.google.com/?cid=0x0:0x662335bdc4a82d97,
building materials,Toko Bahan Bangunan,Mitra usaha,"PGFC+5GH, Moko, Kec. Lakudo, Kabupaten Buton, Sulawesi Tenggara","Kabupaten Buton, Sulawesi Tenggara",SULAWESI TENGGARA,,Indonesia,82287361861.0,,,-5.2770333,122.52132,https://maps.google.com/?cid=0x0:0x15b9e85f4be9dfc0,
building materials,Toko Bahan Bangunan,Toko Fitrah Central Bangunan,"Jl. Gersamata, Wongko Lakudo, Kec. Lakudo, Kabupaten Buton, Sulawesi Tenggara 93763","Wongko Lakudo, Kec. Lakudo, Kabupaten Buton",SULAWESI TENGGARA,93763.0,Indonesia,81242310809.0,,,-5.320151,122.535901,https://maps.google.com/?cid=0x0:0x64a3a8274e6efecc,
building materials,Toko Bahan Bangunan,Toko Supardin,"Q89F+CW7, Unnamed Road, Tanailandu, Kec. Mawasangka, Kabupaten Buton, Sulawesi Tenggara 93762","Unnamed Road, Tanailandu, Kec. Mawasangka, Kabupaten Buton",SULAWESI TENGGARA,93762.0,Indonesia,82344297099.0,,,-5.2314659,122.3248031,https://maps.google.com/?cid=0x0:0xe7f4fd98a3dc15c9,
building materials,Toko,Toko Aneka Diesel Mawasangka,"LINGK. KAMPUNG BARU, Watolo, Kec. Mawasangka, Kab. Buton Tengah, Sulawesi Tenggara 93762","Watolo, Kec. Mawasangka, Kab. Buton Tengah",SULAWESI TENGGARA,93762.0,Indonesia,85143949893.0,,,-5.2869569,122.2861459,https://maps.google.com/?cid=0x0:0x6b940188542e09a2,
building materials,Toko Bahan Bangunan,Toko MILA JAYA,"MGJM+CHJ, Wongko Lakudo, Kec. Lakudo, Kabupaten Buton, Sulawesi Tenggara 93763","Wongko Lakudo, Kec. Lakudo, Kabupaten Buton",SULAWESI TENGGARA,93763.0,Indonesia,,,,-5.3189193,122.5338982,https://maps.google.com/?cid=0x0:0x60aa9ab12b677be,
building materials,building materials,Toko Rahmat Bangunan,"Jalan Poros Wamengkoli - Mawasangka No. 23, Lakorua, Lanto, Kec. Mawasangka Tengah, Kabupaten Buton, Sulawesi Tenggara 93762","Lakorua, Lanto, Kec. Mawasangka Tengah, Kabupaten Buton",SULAWESI TENGGARA,93762.0,Indonesia,,,,-5.328134,122.3737285,https://maps.google.com/?cid=0x0:0x697f7a2484d18aca,
building materials,Toko Bahan Bangunan,UD. ALTAF PRIMA,"Lingkungan Jalan Layang, Watolo, Kec. Mawasangka, Kabupaten Buton, Sulawesi Tenggara 93762","Watolo, Kec. Mawasangka, Kabupaten Buton",SULAWESI TENGGARA,93762.0,Indonesia,,,,-5.2899755,122.2823759,https://maps.google.com/?cid=0x0:0x92ce95953492d1e6,
building materials,Toko Bahan Bangunan,TB. Tani Fajar,"R857+X6G, Terapung, Kec. Mawasangka, Kabupaten Buton, Sulawesi Tenggara 93663","Terapung, Kec. Mawasangka, Kabupaten Buton",SULAWESI TENGGARA,93663.0,Indonesia,81354245380.0,,,-5.1900641,122.3130837,https://maps.google.com/?cid=0x0:0xeb904d63cad01b07,
building materials,building materials,,,,SULAWESI TENGGARA,,Indonesia,82293486588.0,,,-2.44565,117.8888,https://maps.google.com/?cid=0x0:0xde387e986ecf8e6c,
building materials,building materials,Sulawesi Tenggara 93761,"Kec. Gu, Kabupaten Buton, Sulawesi Tenggara","Kabupaten Buton, Sulawesi Tenggara",SULAWESI TENGGARA,,Indonesia,,,,-5.2702397,122.593828,https://maps.google.com/?cid=0x0:0xe714ef696c5af545,
building materials,Toko Bahan Bangunan,Toko Enam Saudara Lombe,"PHXH+439, kompleks pasar lombe, Bombonawulu, Kec. Gu, Kabupaten Buton, Sulawesi Tenggara 93761","kompleks pasar lombe, Bombonawulu, Kec. Gu, Kabupaten Buton",SULAWESI TENGGARA,93761.0,Indonesia,85299578579.0,,,-5.2522026,122.5777204,https://maps.google.com/?cid=0x0:0x278b5a28c6ed5919,
building materials,Pasar bahan bangunan,Intan Building Center,"Jl. Budi Utomo No.90, Bataraguru, Kec. Wolio, Kota Bau-Bau, Sulawesi Tenggara 93717","Bataraguru, Kec. Wolio, Kota Bau-Bau",SULAWESI TENGGARA,93717.0,Indonesia,82292888886.0,,,-5.4658703,122.607269,https://maps.google.com/?cid=0x0:0xdd0e5cfd517f12e5,
building materials,Toko Bahan Bangunan,Intan Building Center 2,"Jl. R.a. Kartini No.68, Wale, Kec. Wolio, Kota Bau-Bau, Sulawesi Tenggara 93717","Wale, Kec. Wolio, Kota Bau-Bau",SULAWESI TENGGARA,93717.0,Indonesia,82292888886.0,,,-5.4565292,122.6051852,https://maps.google.com/?cid=0x0:0x4743d2cd70649910,
building materials,Toko,Kios Mambulu (Barokah) Jaya Utama,"Jl. Poros Batauga, Dusun Laporoworu, Gn. Sejuk, Kec. Sampolawa, Kabupaten Buton, Sulawesi Tenggara 93753","Dusun Laporoworu, Gn. Sejuk, Kec. Sampolawa, Kabupaten Buton",SULAWESI TENGGARA,93753.0,Indonesia,,,,-5.5819375,122.7381875,https://maps.google.com/?cid=0x0:0xc02d319280ee6290,
building materials,Toko Bahan Bangunan,Toko Bangunan Mama Mpou,"RV69+WG, Wambulu, Kec. Kapontori, Kabupaten Buton, Sulawesi Tenggara 93755","Wambulu, Kec. Kapontori, Kabupaten Buton",SULAWESI TENGGARA,93755.0,Indonesia,82213276297.0,,,-5.1868821,122.8691116,https://maps.google.com/?cid=0x0:0x19a6c4072fea81ed,
building materials,Toko Bahan Bangunan,Toko Bangunan Mukhlis,"M5J7+J49, jalan Sulawesi Desa, Ambuau Indah, Lasalimu Selatan, Buton Regency, South East Sulawesi 93756","jalan Sulawesi Desa, Ambuau Indah, Lasalimu Selatan, Buton Regency",SULAWESI TENGGARA,93756.0,Indonesia,,,,-5.3184709,123.1628725,https://maps.google.com/?cid=0x0:0xf58ed61e19c8e691,
building materials,building materials,Sulawesi,,,SULAWESI TENGGARA,,Indonesia,,,,-1.8479,120.5279,https://maps.google.com/?cid=0x0:0xbc9a51d168f47742,
building materials,Toko Bahan Bangunan,Toko. SM banguna,"M5M8+425, Jl. Bali, Ambuau Indah, Kec. Lasalimu Sel., Kabupaten Buton, Sulawesi Tenggara 93756","Jl. Bali, Ambuau Indah, Kec. Lasalimu Sel., Kabupaten Buton",SULAWESI TENGGARA,93756.0,Indonesia,,,,-5.3172202,123.1651354,https://maps.google.com/?cid=0x0:0x711eb771c6dc2f3c,
building materials,building materials,,,,SULAWESI TENGGARA,,Indonesia,82293486588.0,,,-2.44565,117.8888,https://maps.google.com/?cid=0x0:0xde387e986ecf8e6c,
building materials,Kios,KIOS MAMBULU JAYA,"Jln.Pasar Mambulu No.29 Kel, Jaya Bakti, Kec. Sampolawa, Kabupaten Buton, Sulawesi Tenggara 93753","Jaya Bakti, Kec. Sampolawa, Kabupaten Buton",SULAWESI TENGGARA,93753.0,Indonesia,81396660008.0,,,-5.6287177,122.7057181,https://maps.google.com/?cid=0x0:0x18d08671ac614520,
building materials,building materials,Talaga Raya,"Kabupaten Buton, Sulawesi Tenggara","Kabupaten Buton, Sulawesi Tenggara",SULAWESI TENGGARA,,Indonesia,,,,-5.4213926,122.0155491,https://maps.google.com/?cid=0x0:0x2e35b700451321ba,
building materials,Toko Bahan Bangunan,Jual batako,"G39G+QQX, Talaga I, Talaga Raya, Kabupaten Buton, Sulawesi Tenggara 93781","Talaga I, Talaga Raya, Kabupaten Buton",SULAWESI TENGGARA,93781.0,Indonesia,,,,-5.4805031,122.0769855,https://maps.google.com/?cid=0x0:0x3e5a03cd87aa60f6,
building materials,Toko,"Toko Syakti Raya16, 02","G3FJ+9PX, Talaga I, Talaga Raya, Kabupaten Buton tengah, Sulawesi Tenggara 93781","Talaga I, Talaga Raya, Kabupaten Buton tengah",SULAWESI TENGGARA,93781.0,Indonesia,,,,-5.4762398,122.0821594,https://maps.google.com/?cid=0x0:0x78ee9e7ad6b7c343,
toko bangunan,toko bangunan,Sulawesi Tenggara 93761,"Kec. Gu, Kabupaten Buton, Sulawesi Tenggara","Kabupaten Buton, Sulawesi Tenggara",SULAWESI TENGGARA,,Indonesia,,,,-5.2702397,122.593828,https://maps.google.com/?cid=0x0:0xe714ef696c5af545,
toko bangunan,Toko Bahan Bangunan,Toko Bangunan Rajawali,"Jl. Jend. Sudirman Lombe Buton Tengah No.7, Bombonawulu, Kec. Gu, Kabupaten Buton, Sulawesi Tenggara 93761","Bombonawulu, Kec. Gu, Kabupaten Buton",SULAWESI TENGGARA,93761.0,Indonesia,85241808922.0,,,-5.2526042,122.5763954,https://maps.google.com/?cid=0x0:0xf2f6cd42a4098c43,
toko bangunan,Toko Bahan Bangunan,Toko Bangunan Haffisa,"PHXG+2H7, Bombonawulu, Kec. Gu, Kabupaten Buton, Sulawesi Tenggara 93761","Bombonawulu, Kec. Gu, Kabupaten Buton",SULAWESI TENGGARA,93761.0,Indonesia,85399543612.0,,,-5.2524619,122.5764101,https://maps.google.com/?cid=0x0:0x664eed9514923bea,
toko bangunan,Toko Bahan Bangunan,Toko Irfan Jaya,"JJX5+78C, Wadiabero, Kec. Gu, Kabupaten Buton, Sulawesi Tenggara 93761","Wadiabero, Kec. Gu, Kabupaten Buton",SULAWESI TENGGARA,93761.0,Indonesia,81381862044.0,,,-5.3518092,122.6082658,https://maps.google.com/?cid=0x0:0x47068639be57546e,
toko bangunan,Toko,Toko BERLIAN LOMBE,"PHVG+XVP, Unnamed Road, Bombonawulu, Kec. Gu, Kabupaten Buton, Sulawesi Tenggara 93761","Unnamed Road, Bombonawulu, Kec. Gu, Kabupaten Buton",SULAWESI TENGGARA,93761.0,Indonesia,,,,-5.2550406,122.5772125,https://maps.google.com/?cid=0x0:0xb2653d169c95c330,
toko bangunan,Rumah Kayu,Toko(WDR) Tolandona,"JJMC+7C2, Tolandona Matanaeo, Kec. Sangia Wambulu, Kabupaten Buton, Sulawesi Tenggara 93761","Tolandona Matanaeo, Kec. Sangia Wambulu, Kabupaten Buton",SULAWESI TENGGARA,93761.0,Indonesia,,,,-5.3668257,122.6208758,https://maps.google.com/?cid=0x0:0x613247cb39b5b94b,
toko bangunan,Toko Bahan Bangunan,Toko Artha Dico,"PGRQ+FPV, Mone, Kec. Lakudo, Kabupaten Buton, Sulawesi Tenggara 93763","Mone, Kec. Lakudo, Kabupaten Buton",SULAWESI TENGGARA,93763.0,Indonesia,,,,-5.2587621,122.5392985,https://maps.google.com/?cid=0x0:0x58fdcf6296ac5fe3,
toko bangunan,Toko Bahan Bangunan,CV.PUTRA WALANDO,"PHV8+F6W, Jl. Poros Lakapera-Waara, Walando, Kec. Gu, Kabupaten Buton, Sulawesi Tenggara 93761","Jl. Poros Lakapera-Waara, Walando, Kec. Gu, Kabupaten Buton",SULAWESI TENGGARA,93761.0,Indonesia,82192714002.0,,,-5.256261,122.5655662,https://maps.google.com/?cid=0x0:0x38cb3b159a675951,
toko bangunan,Toko Swalayan,Sumber Rejeki,"Jln poros walengkabola, Oempu, Sulawesi Tenggara 93662",Oempu,SULAWESI TENGGARA,93662.0,Indonesia,82396460470.0,,,-5.1897034,122.5857083,https://maps.google.com/?cid=0x0:0xdf7524ce863fdb09,
toko bangunan,Toko Bahan Bangunan,Jual Batako/Semen (Lailio),"PHXF+R52, Watulea, Kec. Gu, Kabupaten Buton, Sulawesi Tenggara 93761","Watulea, Kec. Gu, Kabupaten Buton",SULAWESI TENGGARA,93761.0,Indonesia,81354000464.0,,,-5.2504853,122.572876,https://maps.google.com/?cid=0x0:0x2bf9cbe58b0cc54e,
toko bangunan,Toko Bahan Bangunan,Mitra usaha,"PGFC+5GH, Moko, Kec. Lakudo, Kabupaten Buton, Sulawesi Tenggara","Kabupaten Buton, Sulawesi Tenggara",SULAWESI TENGGARA,,Indonesia,82287361861.0,,,-5.2770333,122.52132,https://maps.google.com/?cid=0x0:0x15b9e85f4be9dfc0,
toko bangunan,Toko Bahan Bangunan,Toko Supardin,"Q89F+CW7, Unnamed Road, Tanailandu, Kec. Mawasangka, Kabupaten Buton, Sulawesi Tenggara 93762","Unnamed Road, Tanailandu, Kec. Mawasangka, Kabupaten Buton",SULAWESI TENGGARA,93762.0,Indonesia,82344297099.0,,,-5.2314659,122.3248031,https://maps.google.com/?cid=0x0:0xe7f4fd98a3dc15c9,
toko bangunan,Toko Bahan Bangunan,Toko Fitrah Central Bangunan,"Jl. Gersamata, Wongko Lakudo, Kec. Lakudo, Kabupaten Buton, Sulawesi Tenggara 93763","Wongko Lakudo, Kec. Lakudo, Kabupaten Buton",SULAWESI TENGGARA,93763.0,Indonesia,81242310809.0,,,-5.320151,122.535901,https://maps.google.com/?cid=0x0:0x64a3a8274e6efecc,
toko bangunan,Toko Bahan Bangunan,Toko Tunas Karya,"lingkungan kelurahan No.1, Laompo, Batauga, Kabupaten Buton, Sulawesi Tenggara 93752","Laompo, Batauga, Kabupaten Buton",SULAWESI TENGGARA,93752.0,Indonesia,85394331595.0,,,-5.6139928,122.6037674,https://maps.google.com/?cid=0x0:0x95b6404fb233c1f2,
toko bangunan,Pasar bahan bangunan,Intan Building Center,"Jl. Budi Utomo No.90, Bataraguru, Kec. Wolio, Kota Bau-Bau, Sulawesi Tenggara 93717","Bataraguru, Kec. Wolio, Kota Bau-Bau",SULAWESI TENGGARA,93717.0,Indonesia,82292888886.0,,,-5.4658703,122.607269,https://maps.google.com/?cid=0x0:0xdd0e5cfd517f12e5,
toko bangunan,Toko Bahan Bangunan,Toko PELITA BANGUNAN,"G6V3+6GM, Jalan Poros, Asingi, Tinanggea, South Konawe Regency, South East Sulawesi 93885","Jalan Poros, Asingi, Tinanggea, South Konawe Regency",SULAWESI TENGGARA,93885.0,Indonesia,,,,-4.4569106,122.2038017,https://maps.google.com/?cid=0x0:0xe0f78aa91abccd20,
toko bangunan,Toko Bahan Bangunan,Toko Bangunan Mukhlis,"M5J7+J49, jalan Sulawesi Desa, Ambuau Indah, Lasalimu Selatan, Buton Regency, South East Sulawesi 93756","jalan Sulawesi Desa, Ambuau Indah, Lasalimu Selatan, Buton Regency",SULAWESI TENGGARA,93756.0,Indonesia,,,,-5.3184709,123.1628725,https://maps.google.com/?cid=0x0:0xf58ed61e19c8e691,
toko bangunan,Toko,UD.KEMBAR JAYA MANDIRI(LOLIBU),"PF4Q+45Q, Lolibu, Kec. Lakudo, Kabupaten Buton, Sulawesi Tenggara","Kabupaten Buton, Sulawesi Tenggara",SULAWESI TENGGARA,,Indonesia,,,,-5.294669,122.4879767,https://maps.google.com/?cid=0x0:0x184a0921ff25939b,
toko bangunan,Pemasok Bahan Bangunan,TOKO BANGUNAN 88 DANDIZA,"GJJH+6HH, Jl. Pahlawan, Bukit Wolio Indah, Kec. Wolio, Kota Bau-Bau, Sulawesi Tenggara 93711","Jl. Pahlawan, Bukit Wolio Indah, Kec. Wolio, Kota Bau-Bau",SULAWESI TENGGARA,93711.0,Indonesia,85381242891.0,,,-5.4694446,122.6289906,https://maps.google.com/?cid=0x0:0x4d015acbc312e669,
toko bangunan,Toko Bahan Bangunan,Toko SAHABAT BANGUNAN Puosu Jaya (murah  bersahabat),"Poros konda - baruga + 1km setelah simpang Brimob, Jl. Brigjen Katamso, Puosu Jaya, Kec. Konda, Kabupaten Konawe Selatan, Sulawesi Tenggara 93870","Jl. Brigjen Katamso, Puosu Jaya, Kec. Konda, Kabupaten Konawe Selatan",SULAWESI TENGGARA,93870.0,Indonesia,82112427393.0,,,-4.060166,122.4713702,https://maps.google.com/?cid=0x0:0x7a3380da8aac272d,
toko bangunan,Toko Bahan Bangunan,Toko Sinar Samuli,"RGMC+PCV, Jl Poros Raha Wamengkoli, Watondo, Kec. Tongkuno Sel., Kabupaten Muna, Sulawesi Tenggara 93662","Jl Poros Raha Wamengkoli, Watondo, Kec. Tongkuno Sel., Kabupaten Muna",SULAWESI TENGGARA,93662.0,Indonesia,82271218088.0,,,-5.1656396,122.5210432,https://maps.google.com/?cid=0x0:0x409de9a2896c31b3,
toko bangunan,Rumah Kaca,Rumah Hayon Dawud (Toko Umam Jaya),"PHVH+FPJ, Bombonawulu, Kec. Gu, Kabupaten Buton, Sulawesi Tenggara 93761","Bombonawulu, Kec. Gu, Kabupaten Buton",SULAWESI TENGGARA,93761.0,Indonesia,,,,-5.2562997,122.5792519,https://maps.google.com/?cid=0x0:0xd972436319c3b8db,
toko bangunan,toko bangunan,"Fresno, California 93761","Fresno, California, Amerika Serikat","Fresno, California, Amerika Serikat",SULAWESI TENGGARA,,Indonesia,,,,36.7507018,-119.7883821,https://maps.google.com/?cid=0x0:0x11d678f8f0915e6e,
toko bangunan,toko bangunan,La Quinta Inn by Wyndham Fresno Yosemite,"2926 Tulare St, Fresno, CA 93721, Amerika Serikat","Fresno, CA",SULAWESI TENGGARA,93721.0,Indonesia,15594421110.0,,,36.7406929,-119.7800599,https://maps.google.com/?cid=0x0:0xad790b9e998ea28c,
toko bangunan,toko bangunan,Sulawesi Tenggara 93763,"Kec. Lakudo, Kabupaten Buton, Sulawesi Tenggara","Kabupaten Buton, Sulawesi Tenggara",SULAWESI TENGGARA,,Indonesia,,,,-5.3531329,122.5598994,https://maps.google.com/?cid=0x0:0x62c2a15eea95dc2,
toko bangunan,Toko Bahan Bangunan,Toko Artha Dico,"PGRQ+FPV, Mone, Kec. Lakudo, Kabupaten Buton, Sulawesi Tenggara 93763","Mone, Kec. Lakudo, Kabupaten Buton",SULAWESI TENGGARA,93763.0,Indonesia,,,,-5.2587621,122.5392985,https://maps.google.com/?cid=0x0:0x58fdcf6296ac5fe3,
toko bangunan,Toko Bahan Bangunan,Mitra usaha,"PGFC+5GH, Moko, Kec. Lakudo, Kabupaten Buton, Sulawesi Tenggara","Kabupaten Buton, Sulawesi Tenggara",SULAWESI TENGGARA,,Indonesia,82287361861.0,,,-5.2770333,122.52132,https://maps.google.com/?cid=0x0:0x15b9e85f4be9dfc0,
toko bangunan,Toko Bahan Bangunan,Toko MILA JAYA,"MGJM+CHJ, Wongko Lakudo, Kec. Lakudo, Kabupaten Buton, Sulawesi Tenggara 93763","Wongko Lakudo, Kec. Lakudo, Kabupaten Buton",SULAWESI TENGGARA,93763.0,Indonesia,,,,-5.3189193,122.5338982,https://maps.google.com/?cid=0x0:0x60aa9ab12b677be,
toko bangunan,Toko,UD.KEMBAR JAYA MANDIRI(LOLIBU),"PF4Q+45Q, Lolibu, Kec. Lakudo, Kabupaten Buton, Sulawesi Tenggara","Kabupaten Buton, Sulawesi Tenggara",SULAWESI TENGGARA,,Indonesia,,,,-5.294669,122.4879767,https://maps.google.com/?cid=0x0:0x184a0921ff25939b,
toko bangunan,Rumah Kayu,Toko(WDR) Tolandona,"JJMC+7C2, Tolandona Matanaeo, Kec. Sangia Wambulu, Kabupaten Buton, Sulawesi Tenggara 93761","Tolandona Matanaeo, Kec. Sangia Wambulu, Kabupaten Buton",SULAWESI TENGGARA,93761.0,Indonesia,,,,-5.3668257,122.6208758,https://maps.google.com/?cid=0x0:0x613247cb39b5b94b,
toko bangunan,Toko Bahan Bangunan,Toko Bangunan Rajawali,"Jl. Jend. Sudirman Lombe Buton Tengah No.7, Bombonawulu, Kec. Gu, Kabupaten Buton, Sulawesi Tenggara 93761","Bombonawulu, Kec. Gu, Kabupaten Buton",SULAWESI TENGGARA,93761.0,Indonesia,85241808922.0,,,-5.2526042,122.5763954,https://maps.google.com/?cid=0x0:0xf2f6cd42a4098c43,
toko bangunan,Toko Bahan Bangunan,CV.PUTRA WALANDO,"PHV8+F6W, Jl. Poros Lakapera-Waara, Walando, Kec. Gu, Kabupaten Buton, Sulawesi Tenggara 93761","Jl. Poros Lakapera-Waara, Walando, Kec. Gu, Kabupaten Buton",SULAWESI TENGGARA,93761.0,Indonesia,82192714002.0,,,-5.256261,122.5655662,https://maps.google.com/?cid=0x0:0x38cb3b159a675951,
toko bangunan,Toko Bahan Bangunan,Toko Irfan Jaya,"JJX5+78C, Wadiabero, Kec. Gu, Kabupaten Buton, Sulawesi Tenggara 93761","Wadiabero, Kec. Gu, Kabupaten Buton",SULAWESI TENGGARA,93761.0,Indonesia,81381862044.0,,,-5.3518092,122.6082658,https://maps.google.com/?cid=0x0:0x47068639be57546e,
toko bangunan,Toko Bahan Bangunan,Bintang kembar,"QGW8+Q24, Mone, Kec. Lakudo, Kabupaten Buton, Sulawesi Tenggara 93662","Mone, Kec. Lakudo, Kabupaten Buton",SULAWESI TENGGARA,93662.0,Indonesia,81269341060.0,,,-5.2031206,122.5150782,https://maps.google.com/?cid=0x0:0xa3353c383df6c413,
toko bangunan,Toko Bahan Bangunan,Toko KD,"Jl. Yos Sudarso No.76, Wale, Kec. Wolio, Kota Bau-Bau, Sulawesi Tenggara 93717","Wale, Kec. Wolio, Kota Bau-Bau",SULAWESI TENGGARA,93717.0,Indonesia,85394504786.0,,,-5.4562864,122.604447,https://maps.google.com/?cid=0x0:0xa2a0d6e8dcc4d4e7,
toko bangunan,Toko Bahan Bangunan,Toko Bangunan Haffisa,"PHXG+2H7, Bombonawulu, Kec. Gu, Kabupaten Buton, Sulawesi Tenggara 93761","Bombonawulu, Kec. Gu, Kabupaten Buton",SULAWESI TENGGARA,93761.0,Indonesia,85399543612.0,,,-5.2524619,122.5764101,https://maps.google.com/?cid=0x0:0x664eed9514923bea,
toko bangunan,Pasar bahan bangunan,Intan Building Center,"Jl. Budi Utomo No.90, Bataraguru, Kec. Wolio, Kota Bau-Bau, Sulawesi Tenggara 93717","Bataraguru, Kec. Wolio, Kota Bau-Bau",SULAWESI TENGGARA,93717.0,Indonesia,82292888886.0,,,-5.4658703,122.607269,https://maps.google.com/?cid=0x0:0xdd0e5cfd517f12e5,
toko bangunan,Toko Bahan Bangunan,Toko Enam Saudara Lombe,"PHXH+439, kompleks pasar lombe, Bombonawulu, Kec. Gu, Kabupaten Buton, Sulawesi Tenggara 93761","kompleks pasar lombe, Bombonawulu, Kec. Gu, Kabupaten Buton",SULAWESI TENGGARA,93761.0,Indonesia,85299578579.0,,,-5.2522026,122.5777204,https://maps.google.com/?cid=0x0:0x278b5a28c6ed5919,
toko bangunan,Toko Bahan Bangunan,KAPOINDALONTO,"MG4Q+H4, Wanepa Nepa, Kec. Lakudo, Kabupaten Buton, Sulawesi Tenggara","Kabupaten Buton, Sulawesi Tenggara",SULAWESI TENGGARA,,Indonesia,,,,-5.3436086,122.5377962,https://maps.google.com/?cid=0x0:0x1eb736801ca0e00b,
toko bangunan,Pemasok Bahan Bangunan,TOKO BANGUNAN 88 DANDIZA,"GJJH+6HH, Jl. Pahlawan, Bukit Wolio Indah, Kec. Wolio, Kota Bau-Bau, Sulawesi Tenggara 93711","Jl. Pahlawan, Bukit Wolio Indah, Kec. Wolio, Kota Bau-Bau",SULAWESI TENGGARA,93711.0,Indonesia,85381242891.0,,,-5.4694446,122.6289906,https://maps.google.com/?cid=0x0:0x4d015acbc312e669,
toko bangunan,Toko Bahan Bangunan,Toko Besindo Jaya,"Jl. Betoambari, Tanganapada, Kec. Murhum, Kota Bau-Bau, Sulawesi Tenggara 93713","Tanganapada, Kec. Murhum, Kota Bau-Bau",SULAWESI TENGGARA,93713.0,Indonesia,4022827047.0,,,-5.4685904,122.5909317,https://maps.google.com/?cid=0x0:0x259b170f28384b21,
toko bangunan,Gudang,Toko Jawi Konstruksi,"Lanto, Kec. Murhum, Kota Bau-Bau, Sulawesi Tenggara 93717","Kec. Murhum, Kota Bau-Bau",SULAWESI TENGGARA,93717.0,Indonesia,82119453925.0,,,-5.4571169,122.5991928,https://maps.google.com/?cid=0x0:0xca0f712e7cb09266,
toko bangunan,Toko Bahan Bangunan,Toko Sinar Surya,"Jl. RA. Kartini No.37, Wale, Kec. Wolio, Kota Bau-Bau, Sulawesi Tenggara 93717","Wale, Kec. Wolio, Kota Bau-Bau",SULAWESI TENGGARA,93717.0,Indonesia,4022821608.0,,,-5.4561494,122.6047287,https://maps.google.com/?cid=0x0:0xf9e53df0c463e05e,
toko bangunan,Toko Bahan Bangunan,Sinar Berlian,"Jl. Brigjen Katamso No.3 A, Wale, Kec. Wolio, Kota Bau-Bau, Sulawesi Tenggara 93717","Wale, Kec. Wolio, Kota Bau-Bau",SULAWESI TENGGARA,93717.0,Indonesia,4022821413.0,,,-5.4564908,122.6048778,https://maps.google.com/?cid=0x0:0xa0c883fa27494e61,
toko bangunan,Toko Bahan Bangunan,Toko Bangunan UD.Luthfi Lawama,"RG8F+849, Jl. Jend. Ahmad Yani, Labasa, Kec. Tongkuno Sel., Kabupaten Muna, Sulawesi Tenggara 93662","Jl. Jend. Ahmad Yani, Labasa, Kec. Tongkuno Sel., Kabupaten Muna",SULAWESI TENGGARA,93662.0,Indonesia,85241515218.0,,,-5.1842093,122.5228712,https://maps.google.com/?cid=0x0:0xc701a5d054c6feba,
toko bangunan,Toko,Toko BERLIAN LOMBE,"PHVG+XVP, Unnamed Road, Bombonawulu, Kec. Gu, Kabupaten Buton, Sulawesi Tenggara 93761","Unnamed Road, Bombonawulu, Kec. Gu, Kabupaten Buton",SULAWESI TENGGARA,93761.0,Indonesia,,,,-5.2550406,122.5772125,https://maps.google.com/?cid=0x0:0xb2653d169c95c330,
toko bangunan,Jasa Konstruksi dan Bangunan,"Mebel lemari, jendela, pintu, koseng, meja dan kursi","QG8C+943, Mone, Kec. Lakudo, Kabupaten Buton, Sulawesi Tenggara 93763","Mone, Kec. Lakudo, Kabupaten Buton",SULAWESI TENGGARA,93763.0,Indonesia,82271334840.0,,,-5.2341125,122.5203019,https://maps.google.com/?cid=0x0:0x24adaae69a4c4ee8,
toko bangunan,toko bangunan,Mawasangka,"Mawasangka, Kec. Mawasangka, Kabupaten Buton, Sulawesi Tenggara","Kabupaten Buton, Sulawesi Tenggara",SULAWESI TENGGARA,,Indonesia,,,,-5.290863,122.298897,https://maps.google.com/?cid=0x0:0x6eab10a86a088341,
toko bangunan,Toko,Batako,"P79W+5WG, Mawasangka, Kec. Mawasangka, Kabupaten Buton, Sulawesi Tenggara 93762","Mawasangka, Kec. Mawasangka, Kabupaten Buton",SULAWESI TENGGARA,93762.0,Indonesia,,,,-5.2817542,122.2967245,https://maps.google.com/?cid=0x0:0x662335bdc4a82d97,
toko bangunan,Toko,Toko Aneka Diesel Mawasangka,"LINGK. KAMPUNG BARU, Watolo, Kec. Mawasangka, Kab. Buton Tengah, Sulawesi Tenggara 93762","Watolo, Kec. Mawasangka, Kab. Buton Tengah",SULAWESI TENGGARA,93762.0,Indonesia,85143949893.0,,,-5.2869569,122.2861459,https://maps.google.com/?cid=0x0:0x6b940188542e09a2,
toko bangunan,Pusat Perbelanjaan,TOKO ZAM2,"M99C+PMW, Lakorua, Kec. Mawasangka Tengah, Kabupaten Buton, Sulawesi Tenggara","Kabupaten Buton, Sulawesi Tenggara",SULAWESI TENGGARA,,Indonesia,,,,-5.3306331,122.3717017,https://maps.google.com/?cid=0x0:0x1d8b135911347334,
toko bangunan,Toko bahan makanan,Toko Daffa al-fazza,"Depan PM celluler, Jalan poros, Matara, Kec. Mawasangka, Sulawesi Tenggara 93762","Jalan poros, Matara, Kec. Mawasangka",SULAWESI TENGGARA,93762.0,Indonesia,82398087792.0,,,-5.3270481,122.3218269,https://maps.google.com/?cid=0x0:0xa32662af35ff0ce0,
toko bangunan,Toko,Toko Akbar Mawasangka,"P77R+R8W, Jl. Jend. Sudirman, Mawasangka, Kec. Mawasangka, Buton Tengah, Sulawesi Tenggara 93762","Jl. Jend. Sudirman, Mawasangka, Kec. Mawasangka, Buton Tengah",SULAWESI TENGGARA,93762.0,Indonesia,85235948079.0,,,-5.2853904,122.2908364,https://maps.google.com/?cid=0x0:0x51a0f43197af10d,
toko bangunan,toko bangunan,Toko Rahmat Bangunan,"Jalan Poros Wamengkoli - Mawasangka No. 23, Lakorua, Lanto, Kec. Mawasangka Tengah, Kabupaten Buton, Sulawesi Tenggara 93762","Lakorua, Lanto, Kec. Mawasangka Tengah, Kabupaten Buton",SULAWESI TENGGARA,93762.0,Indonesia,,,,-5.328134,122.3737285,https://maps.google.com/?cid=0x0:0x697f7a2484d18aca,
toko bangunan,toko bangunan,Sulawesi Tenggara 93762,"Kabupaten Buton, Sulawesi Tenggara","Kabupaten Buton, Sulawesi Tenggara",SULAWESI TENGGARA,,Indonesia,,,,-5.291781,122.3787597,https://maps.google.com/?cid=0x0:0x29d13fe4e83e4ba7,
toko bangunan,Toko Swalayan,Kios Romay K,"M798+5R2, Napa, Kec. Mawasangka, Kabupaten Buton, Sulawesi Tenggara 93762","Napa, Kec. Mawasangka, Kabupaten Buton",SULAWESI TENGGARA,93762.0,Indonesia,82399133980.0,,,-5.3331447,122.267695,https://maps.google.com/?cid=0x0:0x15510adbb540629a,
toko bangunan,Toko Bahan Bangunan,Toko Supardin,"Q89F+CW7, Unnamed Road, Tanailandu, Kec. Mawasangka, Kabupaten Buton, Sulawesi Tenggara 93762","Unnamed Road, Tanailandu, Kec. Mawasangka, Kabupaten Buton",SULAWESI TENGGARA,93762.0,Indonesia,82344297099.0,,,-5.2314659,122.3248031,https://maps.google.com/?cid=0x0:0xe7f4fd98a3dc15c9,
toko bangunan,Toko,Batako,"P79W+5WG, Mawasangka, Kec. Mawasangka, Kabupaten Buton, Sulawesi Tenggara 93762","Mawasangka, Kec. Mawasangka, Kabupaten Buton",SULAWESI TENGGARA,93762.0,Indonesia,,,,-5.2817542,122.2967245,https://maps.google.com/?cid=0x0:0x662335bdc4a82d97,
toko bangunan,Toko,Toko Aneka Diesel Mawasangka,"LINGK. KAMPUNG BARU, Watolo, Kec. Mawasangka, Kab. Buton Tengah, Sulawesi Tenggara 93762","Watolo, Kec. Mawasangka, Kab. Buton Tengah",SULAWESI TENGGARA,93762.0,Indonesia,85143949893.0,,,-5.2869569,122.2861459,https://maps.google.com/?cid=0x0:0x6b940188542e09a2,
toko bangunan,Toko bahan makanan,Toko Daffa al-fazza,"Depan PM celluler, Jalan poros, Matara, Kec. Mawasangka, Sulawesi Tenggara 93762","Jalan poros, Matara, Kec. Mawasangka",SULAWESI TENGGARA,93762.0,Indonesia,82398087792.0,,,-5.3270481,122.3218269,https://maps.google.com/?cid=0x0:0xa32662af35ff0ce0,
toko bangunan,Pusat Perbelanjaan,TOKO ZAM2,"M99C+PMW, Lakorua, Kec. Mawasangka Tengah, Kabupaten Buton, Sulawesi Tenggara","Kabupaten Buton, Sulawesi Tenggara",SULAWESI TENGGARA,,Indonesia,,,,-5.3306331,122.3717017,https://maps.google.com/?cid=0x0:0x1d8b135911347334,
toko bangunan,Toko Bahan Bangunan,Sinar Auddy,"M9FG+H6V, Lanto, Kec. Mawasangka Tengah, Kabupaten Buton, Sulawesi Tenggara","Kabupaten Buton, Sulawesi Tenggara",SULAWESI TENGGARA,,Indonesia,,,,-5.3260116,122.3755396,https://maps.google.com/?cid=0x0:0x66642e7bdfa26c8,
toko bangunan,Toko Bahan Bangunan,UD. Sinar Mantunga,"HFX4+F22, Jl. Poros Lamena, Inulu, Mawasangka Tim., Kabupaten Buton, Sulawesi Tenggara","Kabupaten Buton, Sulawesi Tenggara",SULAWESI TENGGARA,,Indonesia,,,,-5.401365,122.455011,https://maps.google.com/?cid=0x0:0xc96c5d86af4f166f,
toko bangunan,Toko Bahan Bangunan,TB. Tani Fajar,"R857+X6G, Terapung, Kec. Mawasangka, Kabupaten Buton, Sulawesi Tenggara 93663","Terapung, Kec. Mawasangka, Kabupaten Buton",SULAWESI TENGGARA,93663.0,Indonesia,81354245380.0,,,-5.1900641,122.3130837,https://maps.google.com/?cid=0x0:0xeb904d63cad01b07,
toko bangunan,Toko Alat Tulis Kantor,TOKO SINAR LA ULU,"M9CC+9JJ, Lakorua, Kec. Mawasangka Tengah, Kabupaten Buton, Sulawesi Tenggara 93762","Lakorua, Kec. Mawasangka Tengah, Kabupaten Buton",SULAWESI TENGGARA,93762.0,Indonesia,82393321551.0,,,-5.3290179,122.3717273,https://maps.google.com/?cid=0x0:0xe122ae30ee15255b,
toko bangunan,Balai masyarakat,Desa Oengkolaki,"P8J5+724, Oengkolaki, Kec. Mawasangka, Kabupaten Buton, Sulawesi Tenggara 93762","Oengkolaki, Kec. Mawasangka, Kabupaten Buton",SULAWESI TENGGARA,93762.0,Indonesia,82346222168.0,,,-5.2693698,122.307581,https://maps.google.com/?cid=0x0:0x2ee875197746d44c,
toko bangunan,Toko,UD.KEMBAR JAYA MANDIRI(LOLIBU),"PF4Q+45Q, Lolibu, Kec. Lakudo, Kabupaten Buton, Sulawesi Tenggara","Kabupaten Buton, Sulawesi Tenggara",SULAWESI TENGGARA,,Indonesia,,,,-5.294669,122.4879767,https://maps.google.com/?cid=0x0:0x184a0921ff25939b,
toko bangunan,Pemasok Bahan Bangunan,TOKO BANGUNAN 88 DANDIZA,"GJJH+6HH, Jl. Pahlawan, Bukit Wolio Indah, Kec. Wolio, Kota Bau-Bau, Sulawesi Tenggara 93711","Jl. Pahlawan, Bukit Wolio Indah, Kec. Wolio, Kota Bau-Bau",SULAWESI TENGGARA,93711.0,Indonesia,85381242891.0,,,-5.4694446,122.6289906,https://maps.google.com/?cid=0x0:0x4d015acbc312e669,
toko bangunan,Toko Bahan Bangunan,Toko Bangunan Rajawali,"Jl. Jend. Sudirman Lombe Buton Tengah No.7, Bombonawulu, Kec. Gu, Kabupaten Buton, Sulawesi Tenggara 93761","Bombonawulu, Kec. Gu, Kabupaten Buton",SULAWESI TENGGARA,93761.0,Indonesia,85241808922.0,,,-5.2526042,122.5763954,https://maps.google.com/?cid=0x0:0xf2f6cd42a4098c43,
toko bangunan,Toko Bahan Bangunan,Toko Fitrah Central Bangunan,"Jl. Gersamata, Wongko Lakudo, Kec. Lakudo, Kabupaten Buton, Sulawesi Tenggara 93763","Wongko Lakudo, Kec. Lakudo, Kabupaten Buton",SULAWESI TENGGARA,93763.0,Indonesia,81242310809.0,,,-5.320151,122.535901,https://maps.google.com/?cid=0x0:0x64a3a8274e6efecc,
toko bangunan,Toko Bahan Bangunan,Toko Bangunan Haffisa,"PHXG+2H7, Bombonawulu, Kec. Gu, Kabupaten Buton, Sulawesi Tenggara 93761","Bombonawulu, Kec. Gu, Kabupaten Buton",SULAWESI TENGGARA,93761.0,Indonesia,85399543612.0,,,-5.2524619,122.5764101,https://maps.google.com/?cid=0x0:0x664eed9514923bea,
toko bangunan,Toko Bahan Bangunan,Mitra usaha,"PGFC+5GH, Moko, Kec. Lakudo, Kabupaten Buton, Sulawesi Tenggara","Kabupaten Buton, Sulawesi Tenggara",SULAWESI TENGGARA,,Indonesia,82287361861.0,,,-5.2770333,122.52132,https://maps.google.com/?cid=0x0:0x15b9e85f4be9dfc0,
toko bangunan,Toko Bahan Bangunan,Toko Enam Saudara Lombe,"PHXH+439, kompleks pasar lombe, Bombonawulu, Kec. Gu, Kabupaten Buton, Sulawesi Tenggara 93761","kompleks pasar lombe, Bombonawulu, Kec. Gu, Kabupaten Buton",SULAWESI TENGGARA,93761.0,Indonesia,85299578579.0,,,-5.2522026,122.5777204,https://maps.google.com/?cid=0x0:0x278b5a28c6ed5919,
toko bangunan,Pasar bahan bangunan,Intan Building Center,"Jl. Budi Utomo No.90, Bataraguru, Kec. Wolio, Kota Bau-Bau, Sulawesi Tenggara 93717","Bataraguru, Kec. Wolio, Kota Bau-Bau",SULAWESI TENGGARA,93717.0,Indonesia,82292888886.0,,,-5.4658703,122.607269,https://maps.google.com/?cid=0x0:0xdd0e5cfd517f12e5,
toko bangunan,toko bangunan,Toko Rahmat Bangunan,"Jalan Poros Wamengkoli - Mawasangka No. 23, Lakorua, Lanto, Kec. Mawasangka Tengah, Kabupaten Buton, Sulawesi Tenggara 93762","Lakorua, Lanto, Kec. Mawasangka Tengah, Kabupaten Buton",SULAWESI TENGGARA,93762.0,Indonesia,,,,-5.328134,122.3737285,https://maps.google.com/?cid=0x0:0x697f7a2484d18aca,
toko bangunan,toko bangunan,Mawasangka Tim.,"Kabupaten Buton, Sulawesi Tenggara","Kabupaten Buton, Sulawesi Tenggara",SULAWESI TENGGARA,,Indonesia,,,,-5.3611739,122.424074,https://maps.google.com/?cid=0x0:0xf58d05571c4d04f4,
toko bangunan,Toko Bahan Bangunan,UD. Sinar Mantunga,"HFX4+F22, Jl. Poros Lamena, Inulu, Mawasangka Tim., Kabupaten Buton, Sulawesi Tenggara","Kabupaten Buton, Sulawesi Tenggara",SULAWESI TENGGARA,,Indonesia,,,,-5.401365,122.455011,https://maps.google.com/?cid=0x0:0xc96c5d86af4f166f,
toko bangunan,Pusat Perbelanjaan,TOKO ZAM2,"M99C+PMW, Lakorua, Kec. Mawasangka Tengah, Kabupaten Buton, Sulawesi Tenggara","Kabupaten Buton, Sulawesi Tenggara",SULAWESI TENGGARA,,Indonesia,,,,-5.3306331,122.3717017,https://maps.google.com/?cid=0x0:0x1d8b135911347334,
toko bangunan,Toko,Batako,"P79W+5WG, Mawasangka, Kec. Mawasangka, Kabupaten Buton, Sulawesi Tenggara 93762","Mawasangka, Kec. Mawasangka, Kabupaten Buton",SULAWESI TENGGARA,93762.0,Indonesia,,,,-5.2817542,122.2967245,https://maps.google.com/?cid=0x0:0x662335bdc4a82d97,
toko bangunan,Toko Bahan Bangunan,Toko Fitrah Central Bangunan,"Jl. Gersamata, Wongko Lakudo, Kec. Lakudo, Kabupaten Buton, Sulawesi Tenggara 93763","Wongko Lakudo, Kec. Lakudo, Kabupaten Buton",SULAWESI TENGGARA,93763.0,Indonesia,81242310809.0,,,-5.320151,122.535901,https://maps.google.com/?cid=0x0:0x64a3a8274e6efecc,
toko bangunan,Toko,Toko Aneka Diesel Mawasangka,"LINGK. KAMPUNG BARU, Watolo, Kec. Mawasangka, Kab. Buton Tengah, Sulawesi Tenggara 93762","Watolo, Kec. Mawasangka, Kab. Buton Tengah",SULAWESI TENGGARA,93762.0,Indonesia,85143949893.0,,,-5.2869569,122.2861459,https://maps.google.com/?cid=0x0:0x6b940188542e09a2,
toko bangunan,Toko Bahan Bangunan,Mitra usaha,"PGFC+5GH, Moko, Kec. Lakudo, Kabupaten Buton, Sulawesi Tenggara","Kabupaten Buton, Sulawesi Tenggara",SULAWESI TENGGARA,,Indonesia,82287361861.0,,,-5.2770333,122.52132,https://maps.google.com/?cid=0x0:0x15b9e85f4be9dfc0,
toko bangunan,Toko Bahan Bangunan,Toko Bangunan Aneka Baya,"RJG7+6X4, Tonggoni, Kec. Pomalaa, Kabupaten Kolaka, Sulawesi Tenggara 93562","Tonggoni, Kec. Pomalaa, Kabupaten Kolaka",SULAWESI TENGGARA,93562.0,Indonesia,85241824886.0,,,-4.1744932,121.6149507,https://maps.google.com/?cid=0x0:0x8938d63b80a7ac4,
toko bangunan,Toko Bahan Bangunan,Toko MILA JAYA,"MGJM+CHJ, Wongko Lakudo, Kec. Lakudo, Kabupaten Buton, Sulawesi Tenggara 93763","Wongko Lakudo, Kec. Lakudo, Kabupaten Buton",SULAWESI TENGGARA,93763.0,Indonesia,,,,-5.3189193,122.5338982,https://maps.google.com/?cid=0x0:0x60aa9ab12b677be,
toko bangunan,Toko,UD.KEMBAR JAYA MANDIRI(LOLIBU),"PF4Q+45Q, Lolibu, Kec. Lakudo, Kabupaten Buton, Sulawesi Tenggara","Kabupaten Buton, Sulawesi Tenggara",SULAWESI TENGGARA,,Indonesia,,,,-5.294669,122.4879767,https://maps.google.com/?cid=0x0:0x184a0921ff25939b,
toko bangunan,Toko Bahan Bangunan,Sinar Auddy,"M9FG+H6V, Lanto, Kec. Mawasangka Tengah, Kabupaten Buton, Sulawesi Tenggara","Kabupaten Buton, Sulawesi Tenggara",SULAWESI TENGGARA,,Indonesia,,,,-5.3260116,122.3755396,https://maps.google.com/?cid=0x0:0x66642e7bdfa26c8,
toko bangunan,Toko bahan makanan,Toko Daffa al-fazza,"Depan PM celluler, Jalan poros, Matara, Kec. Mawasangka, Sulawesi Tenggara 93762","Jalan poros, Matara, Kec. Mawasangka",SULAWESI TENGGARA,93762.0,Indonesia,82398087792.0,,,-5.3270481,122.3218269,https://maps.google.com/?cid=0x0:0xa32662af35ff0ce0,
toko bangunan,Toko Bahan Bangunan,Toko Bangunan Haffisa,"PHXG+2H7, Bombonawulu, Kec. Gu, Kabupaten Buton, Sulawesi Tenggara 93761","Bombonawulu, Kec. Gu, Kabupaten Buton",SULAWESI TENGGARA,93761.0,Indonesia,85399543612.0,,,-5.2524619,122.5764101,https://maps.google.com/?cid=0x0:0x664eed9514923bea,
toko bangunan,Toko Bahan Bangunan,Toko Naufal Bangunan Jaya,"P823+3XH, Tolihe, Kec. Baito, Kabupaten Konawe Selatan, Sulawesi Tenggara 93811","Tolihe, Kec. Baito, Kabupaten Konawe Selatan",SULAWESI TENGGARA,93811.0,Indonesia,85398320400.0,,,-4.2995232,122.3054134,https://maps.google.com/?cid=0x0:0x9ff855b5880dcec0,
toko bangunan,Pasar bahan bangunan,TOKO MEGA TAMA Wawotobi (Toko Bangunan),"Jl. Jend Sudirman No.17, Wawotobi, Kec. Wawotobi, Kabupaten Konawe, Sulawesi Tenggara 93461","Wawotobi, Kec. Wawotobi, Kabupaten Konawe",SULAWESI TENGGARA,93461.0,Indonesia,85216149991.0,,,-3.8766033,122.1086909,https://maps.google.com/?cid=0x0:0x6590efc314bd5d70,
toko bangunan,Pemasok Bahan Bangunan,TOKO BANGUNAN 88 DANDIZA,"GJJH+6HH, Jl. Pahlawan, Bukit Wolio Indah, Kec. Wolio, Kota Bau-Bau, Sulawesi Tenggara 93711","Jl. Pahlawan, Bukit Wolio Indah, Kec. Wolio, Kota Bau-Bau",SULAWESI TENGGARA,93711.0,Indonesia,85381242891.0,,,-5.4694446,122.6289906,https://maps.google.com/?cid=0x0:0x4d015acbc312e669,
toko bangunan,toko bangunan,TOKO AYYAT 96,"M9HJ+G9, Lalibo, Kec. Mawasangka Tengah, Kabupaten Buton, Sulawesi Tenggara","Kabupaten Buton, Sulawesi Tenggara",SULAWESI TENGGARA,,Indonesia,,,,-5.3212073,122.3808774,https://maps.google.com/?cid=0x0:0x74ca45e7d51a2fe6,
toko bangunan,Toko Bahan Bangunan,Toko Sumber Bangunan,"M3X6+GM8, Jl. Poros Basala-Benua, Lipu Masagena, Kec. Basala, Kabupaten Konawe Selatan, Sulawesi Tenggara 93875","Jl. Poros Basala-Benua, Lipu Masagena, Kec. Basala, Kabupaten Konawe Selatan",SULAWESI TENGGARA,93875.0,Indonesia,82112427393.0,,,-4.3012196,122.0617042,https://maps.google.com/?cid=0x0:0xfe3b3a09c506810e,
toko bangunan,Toko Bahan Bangunan,TOKO NUR BASALA,"blok K, Basala, Kec. Basala, Kendari, Sulawesi Tenggara 93876","Basala, Kec. Basala, Kendari",SULAWESI TENGGARA,93876.0,Indonesia,81341968137.0,,,-4.3043126,122.0617642,https://maps.google.com/?cid=0x0:0x5e266fb52d9f18b1,
toko bangunan,toko bangunan,Sulawesi Tenggara,,Sulawesi Tenggara,SULAWESI TENGGARA,,Indonesia,,,,-4.14491,122.174605,https://maps.google.com/?cid=0x0:0x621d7c439f04a4ed,
toko bangunan,Toko Bahan Bangunan,Toko Enam Saudara Lombe,"PHXH+439, kompleks pasar lombe, Bombonawulu, Kec. Gu, Kabupaten Buton, Sulawesi Tenggara 93761","kompleks pasar lombe, Bombonawulu, Kec. Gu, Kabupaten Buton",SULAWESI TENGGARA,93761.0,Indonesia,85299578579.0,,,-5.2522026,122.5777204,https://maps.google.com/?cid=0x0:0x278b5a28c6ed5919,
toko bangunan,Toko Bahan Bangunan,Toko Bangunan Rajawali,"Jl. Jend. Sudirman Lombe Buton Tengah No.7, Bombonawulu, Kec. Gu, Kabupaten Buton, Sulawesi Tenggara 93761","Bombonawulu, Kec. Gu, Kabupaten Buton",SULAWESI TENGGARA,93761.0,Indonesia,85241808922.0,,,-5.2526042,122.5763954,https://maps.google.com/?cid=0x0:0xf2f6cd42a4098c43,
toko bangunan,Toko Bahan Bangunan,Toko Bangunan Mukhlis,"M5J7+J49, jalan Sulawesi Desa, Ambuau Indah, Lasalimu Selatan, Buton Regency, South East Sulawesi 93756","jalan Sulawesi Desa, Ambuau Indah, Lasalimu Selatan, Buton Regency",SULAWESI TENGGARA,93756.0,Indonesia,,,,-5.3184709,123.1628725,https://maps.google.com/?cid=0x0:0xf58ed61e19c8e691,
toko bangunan,Toko Bahan Bangunan,Toko Bahan Bangunan Batauga Jaya,"Jl. Poros, pasar, Masiri, Batauga, Kabupaten Buton, Sulawesi Tenggara 93752","pasar, Masiri, Batauga, Kabupaten Buton",SULAWESI TENGGARA,93752.0,Indonesia,81242299192.0,,,-5.6058423,122.5966813,https://maps.google.com/?cid=0x0:0xa23110e6ef30e0e6,
toko bangunan,Toko Bahan Bangunan,Toko Bangunan Mama Mpou,"RV69+WG, Wambulu, Kec. Kapontori, Kabupaten Buton, Sulawesi Tenggara 93755","Wambulu, Kec. Kapontori, Kabupaten Buton",SULAWESI TENGGARA,93755.0,Indonesia,82213276297.0,,,-5.1868821,122.8691116,https://maps.google.com/?cid=0x0:0x19a6c4072fea81ed,
toko bangunan,Pusat Perbelanjaan,TOKO ZAM2,"M99C+PMW, Lakorua, Kec. Mawasangka Tengah, Kabupaten Buton, Sulawesi Tenggara","Kabupaten Buton, Sulawesi Tenggara",SULAWESI TENGGARA,,Indonesia,,,,-5.3306331,122.3717017,https://maps.google.com/?cid=0x0:0x1d8b135911347334,
toko bangunan,Toko Perlengkapan Rumah,toko sulbiana bangunan,"299M+H42, Kaloloa, Kec. Samaturu, Kabupaten Kolaka, Sulawesi Tenggara 93915","Kaloloa, Kec. Samaturu, Kabupaten Kolaka",SULAWESI TENGGARA,93915.0,Indonesia,82259762942.0,,,-3.9811133,121.3827505,https://maps.google.com/?cid=0x0:0xa0dbb47903b398ee,
toko bangunan,Toko Bahan Bangunan,Toko bahan bangunan,"M52J+QXP, Unnamed Road, Mataiwoi, Kec. Andoolo, Kabupaten Konawe Selatan, Sulawesi Tenggara 93819","Unnamed Road, Mataiwoi, Kec. Andoolo, Kabupaten Konawe Selatan",SULAWESI TENGGARA,93819.0,Indonesia,,,,-4.348029,122.1824396,https://maps.google.com/?cid=0x0:0x6eac64bf582c5bd2,
toko bangunan,Toko Bahan Bangunan,Toko Sumber Rezeki,"Jl. Pangeran Limboro, Banabungi, Kec. Ps. Wajo, Kabupaten Buton, Sulawesi Tenggara 93754","Banabungi, Kec. Ps. Wajo, Kabupaten Buton",SULAWESI TENGGARA,93754.0,Indonesia,85241637184.0,,,-5.5110635,122.8429251,https://maps.google.com/?cid=0x0:0x502705c8e2f51436,
toko bangunan,Toko Bahan Bangunan,Toko Aza bahan bangunan,"HV3J+CC4, Kahulungaya, Kec. Ps. Wajo, Kabupaten Buton, Sulawesi Tenggara","Kabupaten Buton, Sulawesi Tenggara",SULAWESI TENGGARA,,Indonesia,,,,-5.4464894,122.8810813,https://maps.google.com/?cid=0x0:0x218c2ca5248cf2e7,
toko bangunan,Kantor Perusahaan,Toko Bangunan Bintang Selatan,"HG6C+R9, Wolulu, Kec. Watubangga, Kabupaten Kolaka, Sulawesi Tenggara 93563","Wolulu, Kec. Watubangga, Kabupaten Kolaka",SULAWESI TENGGARA,93563.0,Indonesia,82343561011.0,,,-4.4379908,121.5210458,https://maps.google.com/?cid=0x0:0x511910030b33bfba,
toko bangunan,Gudang,Toko Logam,"Jl. Yos Sudarso No.117, Wale, Kec. Wolio, Kota Bau-Bau, Sulawesi Tenggara 93717","Wale, Kec. Wolio, Kota Bau-Bau",SULAWESI TENGGARA,93717.0,Indonesia,4022821127.0,,,-5.4565578,122.604395,https://maps.google.com/?cid=0x0:0xd8e740cae277e7e4,
toko bangunan,Pusat Perbelanjaan,Toko bangunan Melati,"FVF5+WPR, Wagola, Kec. Ps. Wajo, Kabupaten Buton, Sulawesi Tenggara 93754","Wagola, Kec. Ps. Wajo, Kabupaten Buton",SULAWESI TENGGARA,93754.0,Indonesia,,,,-5.5251448,122.8592612,https://maps.google.com/?cid=0x0:0xeba8ba6f03670240,
toko bangunan,Pemasok Aluminium,"Depo Tunggak Semi Sampang (Toko Bangunan Material, Keramik  Sanitary, Alumunium, Hebel, Kaca, dsb)","Jl. Tugu Barat No.30, Tinggar Jambu, Sampang, Kec. Sampang, Kabupaten Cilacap, Jawa Tengah 53273","Tinggar Jambu, Sampang, Kec. Sampang, Kabupaten Cilacap",SULAWESI TENGGARA,53273.0,Indonesia,81233441117.0,,,-7.5626888,109.1991636,https://maps.google.com/?cid=0x0:0x3efda6979bbdb4ee,
toko bangunan,Toko Bahan Bangunan,TOKO BANGUNAN SURGA DUNIA,"W4JX+7CJ, Samaran Barat, Samaran, Kec. Tambelangan, Kabupaten Sampang, Jawa Timur 69253","Samaran Barat, Samaran, Kec. Tambelangan, Kabupaten Sampang",SULAWESI TENGGARA,69253.0,Indonesia,,,,-7.0692915,113.1485056,https://maps.google.com/?cid=0x0:0x4db9ab9bc5b24ac6,
toko bangunan,Toko Bahan Bangunan,TB. Sampang Makmur (Gunung Sari),"Jl. Tugu Barat, RT.01/RW.01, Tinggarjarak, Sampang, Kec. Sampang, Kabupaten Cilacap, Jawa Tengah 53273","RT.01/RW.01, Tinggarjarak, Sampang, Kec. Sampang, Kabupaten Cilacap",SULAWESI TENGGARA,53273.0,Indonesia,81229963190.0,,,-7.5641914,109.1940269,https://maps.google.com/?cid=0x0:0xff2208ce85e1641f,
toko bangunan,Toko Bahan Bangunan,TB. Gunung Sari Putra Sampang,"Sampang Utara, Sampang, Kec. Sampang, Kabupaten Cilacap, Jawa Tengah 53273","Sampang, Kec. Sampang, Kabupaten Cilacap",SULAWESI TENGGARA,53273.0,Indonesia,82225253151.0,,,-7.5582559,109.1980204,https://maps.google.com/?cid=0x0:0xd0c4d79d6306b73f,
toko bangunan,toko bangunan,Talaga Raya,"Kabupaten Buton, Sulawesi Tenggara","Kabupaten Buton, Sulawesi Tenggara",SULAWESI TENGGARA,,Indonesia,,,,-5.4213926,122.0155491,https://maps.google.com/?cid=0x0:0x2e35b700451321ba,
toko bangunan,Toko,"Toko Syakti Raya16, 02","G3FJ+9PX, Talaga I, Talaga Raya, Kabupaten Buton tengah, Sulawesi Tenggara 93781","Talaga I, Talaga Raya, Kabupaten Buton tengah",SULAWESI TENGGARA,93781.0,Indonesia,,,,-5.4762398,122.0821594,https://maps.google.com/?cid=0x0:0x78ee9e7ad6b7c343,
toko bangunan,Toko Bahan Bangunan,Jual batako,"G39G+QQX, Talaga I, Talaga Raya, Kabupaten Buton, Sulawesi Tenggara 93781","Talaga I, Talaga Raya, Kabupaten Buton",SULAWESI TENGGARA,93781.0,Indonesia,,,,-5.4805031,122.0769855,https://maps.google.com/?cid=0x0:0x3e5a03cd87aa60f6,
hardware store,hardware store,Sulawesi Tenggara 93761,"Kec. Gu, Kabupaten Buton, Sulawesi Tenggara","Kabupaten Buton, Sulawesi Tenggara",SULAWESI TENGGARA,,Indonesia,,,,-5.2702397,122.593828,https://maps.google.com/?cid=0x0:0xe714ef696c5af545,
hardware store,hardware store,Kadena Glamping Dive Resort - Muna Island,"Jl. Poros Lombe No.Desa, RW.Kamama, Wakea Kea, Kec. Gu, Buton Tengah, Sulawesi Tenggara","Buton Tengah, Sulawesi Tenggara",SULAWESI TENGGARA,,Indonesia,81222777348.0,,,-5.3155071,122.6334774,https://maps.google.com/?cid=0x0:0xcdbf16bccf2ffd6a,
hardware store,Toko Swalayan,RAHMAN MART,"Lingk. Bantea 01, Tolandona, Kec. Sangia Wambulu, Buton Tengah, Sulawesi Tenggara 93761","Tolandona, Kec. Sangia Wambulu, Buton Tengah",SULAWESI TENGGARA,93761.0,Indonesia,81525899929.0,,,-5.3676296,122.6179701,https://maps.google.com/?cid=0x0:0x6870baefabadd6d8,
hardware store,Toko Bahan Bangunan,Toko Bangunan Rajawali,"Jl. Jend. Sudirman Lombe Buton Tengah No.7, Bombonawulu, Kec. Gu, Kabupaten Buton, Sulawesi Tenggara 93761","Bombonawulu, Kec. Gu, Kabupaten Buton",SULAWESI TENGGARA,93761.0,Indonesia,85241808922.0,,,-5.2526042,122.5763954,https://maps.google.com/?cid=0x0:0xf2f6cd42a4098c43,
hardware store,Rumah Kayu,Toko(WDR) Tolandona,"JJMC+7C2, Tolandona Matanaeo, Kec. Sangia Wambulu, Kabupaten Buton, Sulawesi Tenggara 93761","Tolandona Matanaeo, Kec. Sangia Wambulu, Kabupaten Buton",SULAWESI TENGGARA,93761.0,Indonesia,,,,-5.3668257,122.6208758,https://maps.google.com/?cid=0x0:0x613247cb39b5b94b,
hardware store,Toko Bahan Bangunan,Toko Artha Dico,"PGRQ+FPV, Mone, Kec. Lakudo, Kabupaten Buton, Sulawesi Tenggara 93763","Mone, Kec. Lakudo, Kabupaten Buton",SULAWESI TENGGARA,93763.0,Indonesia,,,,-5.2587621,122.5392985,https://maps.google.com/?cid=0x0:0x58fdcf6296ac5fe3,
hardware store,Toko,Najwa Photocopy  Alat Tulis Kantor,"Bombonawulu, Kec. Gu, Kabupaten Buton, Sulawesi Tenggara 93761","Kec. Gu, Kabupaten Buton",SULAWESI TENGGARA,93761.0,Indonesia,8114050505.0,,,-5.2532847,122.5746112,https://maps.google.com/?cid=0x0:0x4971045c06e571c2,
hardware store,Toko Bahan Bangunan,Toko MILA JAYA,"MGJM+CHJ, Wongko Lakudo, Kec. Lakudo, Kabupaten Buton, Sulawesi Tenggara 93763","Wongko Lakudo, Kec. Lakudo, Kabupaten Buton",SULAWESI TENGGARA,93763.0,Indonesia,,,,-5.3189193,122.5338982,https://maps.google.com/?cid=0x0:0x60aa9ab12b677be,
hardware store,Toko Alat Tulis Kantor,Diyafizul ART  ATK,"MGJJ+5WQ, Wongko Lakudo, Kec. Lakudo, Kabupaten Buton, Sulawesi Tenggara","Kabupaten Buton, Sulawesi Tenggara",SULAWESI TENGGARA,,Indonesia,82347706730.0,,,-5.3195294,122.5323714,https://maps.google.com/?cid=0x0:0x4c413ecd303964e0,
hardware store,Toko umum,Kios Arrinti,"PGCC+X2X, Moko, Kec. Lakudo, Kabupaten Buton, Sulawesi Tenggara","Kabupaten Buton, Sulawesi Tenggara",SULAWESI TENGGARA,,Indonesia,85242025789.0,,,-5.2775074,122.5200965,https://maps.google.com/?cid=0x0:0x2d107ca7ba0907e2,
hardware store,Toko Alat Tulis Kantor,"Toko AL Fazza (FC,ATKUndangan Pernikahan Super Lengkap)","MGHM+WCG, Unnamed Road, Wongko Lakudo, Kec. Lakudo, Kabupaten Buton, Sulawesi Tenggara","Kabupaten Buton, Sulawesi Tenggara",SULAWESI TENGGARA,,Indonesia,81341530576.0,,,-5.3201993,122.533578,https://maps.google.com/?cid=0x0:0x5528e97000b41d56,
hardware store,Toko Alat Tulis Kantor,Toko Disra,"MGJM+C4W, Wongko Lakudo, Kec. Lakudo, Kabupaten Buton Tengah, Sulawesi Tenggara 93763","Wongko Lakudo, Kec. Lakudo, Kabupaten Buton Tengah",SULAWESI TENGGARA,93763.0,Indonesia,,,,-5.3188895,122.5328172,https://maps.google.com/?cid=0x0:0x566846123d778e92,
hardware store,Toko Batu,mabulugo bata merah ok,"Mabulugo, Kec. Kapontori, Kabupaten Buton, Sulawesi Tenggara 93755","Kec. Kapontori, Kabupaten Buton",SULAWESI TENGGARA,93755.0,Indonesia,82399583835.0,,,-5.2655865,122.7154158,https://maps.google.com/?cid=0x0:0x9d0823238dbe9550,
hardware store,Toko Perlengkapan Rumah,Gope Hardware  Tools,"Jl. Sunter Hijau VII No.2, RT.9/RW.13, Sunter Jaya, Kec. Tj. Priok, Jkt Utara, Daerah Khusus Ibukota Jakarta 14350","RT.9/RW.13, Sunter Jaya, Kec. Tj. Priok, Jkt Utara",SULAWESI TENGGARA,14350.0,Indonesia,81383340735.0,,,-6.1550118,106.8788533,https://maps.google.com/?cid=0x0:0xd8076c52080bb59c,
hardware store,hardware store,Hardware Toko,"Niaga Bukit Sentul Plaza Bl C%2F18 Cijayanti Babakan Madang Kabupaten Bogor Jawa Barat, Sumur Batu, Kec. Babakan Madang, Kabupaten Bogor, Jawa Barat 16810","Sumur Batu, Kec. Babakan Madang, Kabupaten Bogor",SULAWESI TENGGARA,16810.0,Indonesia,2187961456.0,,,-6.586853,106.877403,https://maps.google.com/?cid=0x0:0x62428eca88dbeb56,
hardware store,hardware store,Hardware Toko,"Niaga Bukit Sentul Plaza, Blok C/18, Babakan Madang, Citaringgul, Kec. Babakan Madang, Kabupaten Bogor, Jawa Barat 16810","Blok C/18, Babakan Madang, Citaringgul, Kec. Babakan Madang, Kabupaten Bogor",SULAWESI TENGGARA,16810.0,Indonesia,2187961456.0,,,-6.5707589,106.8614388,https://maps.google.com/?cid=0x0:0xfbd1125070c10e47,
hardware store,Toko Bahan Bangunan,Toko Fitrah Central Bangunan,"Jl. Gersamata, Wongko Lakudo, Kec. Lakudo, Kabupaten Buton, Sulawesi Tenggara 93763","Wongko Lakudo, Kec. Lakudo, Kabupaten Buton",SULAWESI TENGGARA,93763.0,Indonesia,81242310809.0,,,-5.320151,122.535901,https://maps.google.com/?cid=0x0:0x64a3a8274e6efecc,
hardware store,Toko Bahan Bangunan,Toko MILA JAYA,"MGJM+CHJ, Wongko Lakudo, Kec. Lakudo, Kabupaten Buton, Sulawesi Tenggara 93763","Wongko Lakudo, Kec. Lakudo, Kabupaten Buton",SULAWESI TENGGARA,93763.0,Indonesia,,,,-5.3189193,122.5338982,https://maps.google.com/?cid=0x0:0x60aa9ab12b677be,
hardware store,hardware store,Sulawesi Tenggara 93763,"Kec. Lakudo, Kabupaten Buton, Sulawesi Tenggara","Kabupaten Buton, Sulawesi Tenggara",SULAWESI TENGGARA,,Indonesia,,,,-5.3531329,122.5598994,https://maps.google.com/?cid=0x0:0x62c2a15eea95dc2,
hardware store,Toko Alat Tulis Kantor,Toko Disra,"MGJM+C4W, Wongko Lakudo, Kec. Lakudo, Kabupaten Buton Tengah, Sulawesi Tenggara 93763","Wongko Lakudo, Kec. Lakudo, Kabupaten Buton Tengah",SULAWESI TENGGARA,93763.0,Indonesia,,,,-5.3188895,122.5328172,https://maps.google.com/?cid=0x0:0x566846123d778e92,
hardware store,Toko Alat Tulis Kantor,Diyafizul ART  ATK,"MGJJ+5WQ, Wongko Lakudo, Kec. Lakudo, Kabupaten Buton, Sulawesi Tenggara","Kabupaten Buton, Sulawesi Tenggara",SULAWESI TENGGARA,,Indonesia,82347706730.0,,,-5.3195294,122.5323714,https://maps.google.com/?cid=0x0:0x4c413ecd303964e0,
hardware store,Rumah Kayu,Toko(WDR) Tolandona,"JJMC+7C2, Tolandona Matanaeo, Kec. Sangia Wambulu, Kabupaten Buton, Sulawesi Tenggara 93761","Tolandona Matanaeo, Kec. Sangia Wambulu, Kabupaten Buton",SULAWESI TENGGARA,93761.0,Indonesia,,,,-5.3668257,122.6208758,https://maps.google.com/?cid=0x0:0x613247cb39b5b94b,
hardware store,Toko Alat Tulis Kantor,TOKO R4FIF LAKUDO,"Lingk. Lawa Samping Masjid KH Abd. Syukur No.1, Lakudo, Kec. Lakudo, Buton Tengah, Sulawesi Tenggara 93763","Lakudo, Kec. Lakudo, Buton Tengah",SULAWESI TENGGARA,93763.0,Indonesia,81341701998.0,,,-5.3215833,122.5344417,https://maps.google.com/?cid=0x0:0xf058c7689ec49bd2,
hardware store,Toko Alat Tulis Kantor,"Toko AL Fazza (FC,ATKUndangan Pernikahan Super Lengkap)","MGHM+WCG, Unnamed Road, Wongko Lakudo, Kec. Lakudo, Kabupaten Buton, Sulawesi Tenggara","Kabupaten Buton, Sulawesi Tenggara",SULAWESI TENGGARA,,Indonesia,81341530576.0,,,-5.3201993,122.533578,https://maps.google.com/?cid=0x0:0x5528e97000b41d56,
hardware store,Gudang,Toko Jawi Konstruksi,"Lanto, Kec. Murhum, Kota Bau-Bau, Sulawesi Tenggara 93717","Kec. Murhum, Kota Bau-Bau",SULAWESI TENGGARA,93717.0,Indonesia,82119453925.0,,,-5.4571169,122.5991928,https://maps.google.com/?cid=0x0:0xca0f712e7cb09266,
hardware store,Toko Bahan Bangunan,Toko Bangunan Rajawali,"Jl. Jend. Sudirman Lombe Buton Tengah No.7, Bombonawulu, Kec. Gu, Kabupaten Buton, Sulawesi Tenggara 93761","Bombonawulu, Kec. Gu, Kabupaten Buton",SULAWESI TENGGARA,93761.0,Indonesia,85241808922.0,,,-5.2526042,122.5763954,https://maps.google.com/?cid=0x0:0xf2f6cd42a4098c43,
hardware store,Toko umum,Kios Arrinti,"PGCC+X2X, Moko, Kec. Lakudo, Kabupaten Buton, Sulawesi Tenggara","Kabupaten Buton, Sulawesi Tenggara",SULAWESI TENGGARA,,Indonesia,85242025789.0,,,-5.2775074,122.5200965,https://maps.google.com/?cid=0x0:0x2d107ca7ba0907e2,
hardware store,Toko Bahan Bangunan,Sinar Berlian,"Jl. Brigjen Katamso No.3 A, Wale, Kec. Wolio, Kota Bau-Bau, Sulawesi Tenggara 93717","Wale, Kec. Wolio, Kota Bau-Bau",SULAWESI TENGGARA,93717.0,Indonesia,4022821413.0,,,-5.4564908,122.6048778,https://maps.google.com/?cid=0x0:0xa0c883fa27494e61,
hardware store,Toko Swalayan,RAHMAN MART,"Lingk. Bantea 01, Tolandona, Kec. Sangia Wambulu, Buton Tengah, Sulawesi Tenggara 93761","Tolandona, Kec. Sangia Wambulu, Buton Tengah",SULAWESI TENGGARA,93761.0,Indonesia,81525899929.0,,,-5.3676296,122.6179701,https://maps.google.com/?cid=0x0:0x6870baefabadd6d8,
hardware store,Toserba,MR.DIY Lippo Buton,"Lippo Plaza Buton, Jl. Sultan Hasanuddin No.58, Batulo, Kec. Wolio, Kota Bau-Bau, Sulawesi Tenggara 93716","Jl. Sultan Hasanuddin No.58, Batulo, Kec. Wolio, Kota Bau-Bau",SULAWESI TENGGARA,93716.0,Indonesia,2130022789.0,,,-5.4610252,122.6195438,https://maps.google.com/?cid=0x0:0xa034470c6f876dce,
hardware store,Toko Perlengkapan Rumah,Toko Jakarta (Alat Teknik  Barang Campuran),"Jl. R.a. Kartini No.80, Wale, Kec. Wolio, Kota Bau-Bau, Sulawesi Tenggara 93717","Wale, Kec. Wolio, Kota Bau-Bau",SULAWESI TENGGARA,93717.0,Indonesia,4022821059.0,,,-5.4566777,122.6048037,https://maps.google.com/?cid=0x0:0x2220a0eb94b5728b,
hardware store,Toko Bahan Bangunan,Toko Bangunan Haffisa,"PHXG+2H7, Bombonawulu, Kec. Gu, Kabupaten Buton, Sulawesi Tenggara 93761","Bombonawulu, Kec. Gu, Kabupaten Buton",SULAWESI TENGGARA,93761.0,Indonesia,85399543612.0,,,-5.2524619,122.5764101,https://maps.google.com/?cid=0x0:0x664eed9514923bea,
hardware store,Toko,Toko Hakiki,"Jl. Dr. Wahidin No.106, Lamangga, Kec. Murhum, Kota Bau-Bau, Sulawesi Tenggara 93713","Lamangga, Kec. Murhum, Kota Bau-Bau",SULAWESI TENGGARA,93713.0,Indonesia,,,,-5.4632577,122.5967795,https://maps.google.com/?cid=0x0:0x99f9d6a11094f05a,
hardware store,Pasar bahan bangunan,Intan Building Center,"Jl. Budi Utomo No.90, Bataraguru, Kec. Wolio, Kota Bau-Bau, Sulawesi Tenggara 93717","Bataraguru, Kec. Wolio, Kota Bau-Bau",SULAWESI TENGGARA,93717.0,Indonesia,82292888886.0,,,-5.4658703,122.607269,https://maps.google.com/?cid=0x0:0xdd0e5cfd517f12e5,
hardware store,Toko Bahan Bangunan,Sinar Auddy,"M9FG+H6V, Lanto, Kec. Mawasangka Tengah, Kabupaten Buton, Sulawesi Tenggara","Kabupaten Buton, Sulawesi Tenggara",SULAWESI TENGGARA,,Indonesia,,,,-5.3260116,122.3755396,https://maps.google.com/?cid=0x0:0x66642e7bdfa26c8,
hardware store,Toko Bahan Bangunan,Toko Roda Mas 88,"Jl. Yos Sudarso No.88, Wale, Kec. Wolio, Kota Bau-Bau, Sulawesi Tenggara 93711","Wale, Kec. Wolio, Kota Bau-Bau",SULAWESI TENGGARA,93711.0,Indonesia,82193135333.0,,,-5.4563469,122.6042567,https://maps.google.com/?cid=0x0:0x668f3e5a4d1b1366,
hardware store,Toko Perlengkapan Rumah,MR.DIY,"GHHP+JM2, Jl. Betoambari, Katobengke, Kec. Betoambari, Kota Bau-Bau, Sulawesi Tenggara 93714","Jl. Betoambari, Katobengke, Kec. Betoambari, Kota Bau-Bau",SULAWESI TENGGARA,93714.0,Indonesia,,,,-5.4709486,122.5865845,https://maps.google.com/?cid=0x0:0xd3b2f333e8b02115,
hardware store,hardware store,Mawasangka,"Mawasangka, Kec. Mawasangka, Kabupaten Buton, Sulawesi Tenggara","Kabupaten Buton, Sulawesi Tenggara",SULAWESI TENGGARA,,Indonesia,,,,-5.290863,122.298897,https://maps.google.com/?cid=0x0:0x6eab10a86a088341,
hardware store,Toko bahan makanan,Toko Daffa al-fazza,"Depan PM celluler, Jalan poros, Matara, Kec. Mawasangka, Sulawesi Tenggara 93762","Jalan poros, Matara, Kec. Mawasangka",SULAWESI TENGGARA,93762.0,Indonesia,82398087792.0,,,-5.3270481,122.3218269,https://maps.google.com/?cid=0x0:0xa32662af35ff0ce0,
hardware store,Toko,Toko Akbar Mawasangka,"P77R+R8W, Jl. Jend. Sudirman, Mawasangka, Kec. Mawasangka, Buton Tengah, Sulawesi Tenggara 93762","Jl. Jend. Sudirman, Mawasangka, Kec. Mawasangka, Buton Tengah",SULAWESI TENGGARA,93762.0,Indonesia,85235948079.0,,,-5.2853904,122.2908364,https://maps.google.com/?cid=0x0:0x51a0f43197af10d,
hardware store,Toko Bahan Bangunan,Toko Supardin,"Q89F+CW7, Unnamed Road, Tanailandu, Kec. Mawasangka, Kabupaten Buton, Sulawesi Tenggara 93762","Unnamed Road, Tanailandu, Kec. Mawasangka, Kabupaten Buton",SULAWESI TENGGARA,93762.0,Indonesia,82344297099.0,,,-5.2314659,122.3248031,https://maps.google.com/?cid=0x0:0xe7f4fd98a3dc15c9,
hardware store,hardware store,Sulawesi Tenggara 93762,"Kabupaten Buton, Sulawesi Tenggara","Kabupaten Buton, Sulawesi Tenggara",SULAWESI TENGGARA,,Indonesia,,,,-5.291781,122.3787597,https://maps.google.com/?cid=0x0:0x29d13fe4e83e4ba7,
hardware store,hardware store,Sulawesi Tenggara 93762,"Kabupaten Buton, Sulawesi Tenggara","Kabupaten Buton, Sulawesi Tenggara",SULAWESI TENGGARA,,Indonesia,,,,-5.291781,122.3787597,https://maps.google.com/?cid=0x0:0x29d13fe4e83e4ba7,
hardware store,Toko bahan makanan,Toko Daffa al-fazza,"Depan PM celluler, Jalan poros, Matara, Kec. Mawasangka, Sulawesi Tenggara 93762","Jalan poros, Matara, Kec. Mawasangka",SULAWESI TENGGARA,93762.0,Indonesia,82398087792.0,,,-5.3270481,122.3218269,https://maps.google.com/?cid=0x0:0xa32662af35ff0ce0,
hardware store,Toko Bahan Bangunan,Toko Supardin,"Q89F+CW7, Unnamed Road, Tanailandu, Kec. Mawasangka, Kabupaten Buton, Sulawesi Tenggara 93762","Unnamed Road, Tanailandu, Kec. Mawasangka, Kabupaten Buton",SULAWESI TENGGARA,93762.0,Indonesia,82344297099.0,,,-5.2314659,122.3248031,https://maps.google.com/?cid=0x0:0xe7f4fd98a3dc15c9,
hardware store,Toko,Toko Akbar Mawasangka,"P77R+R8W, Jl. Jend. Sudirman, Mawasangka, Kec. Mawasangka, Buton Tengah, Sulawesi Tenggara 93762","Jl. Jend. Sudirman, Mawasangka, Kec. Mawasangka, Buton Tengah",SULAWESI TENGGARA,93762.0,Indonesia,85235948079.0,,,-5.2853904,122.2908364,https://maps.google.com/?cid=0x0:0x51a0f43197af10d,
hardware store,Toko Bahan Bangunan,Sinar Auddy,"M9FG+H6V, Lanto, Kec. Mawasangka Tengah, Kabupaten Buton, Sulawesi Tenggara","Kabupaten Buton, Sulawesi Tenggara",SULAWESI TENGGARA,,Indonesia,,,,-5.3260116,122.3755396,https://maps.google.com/?cid=0x0:0x66642e7bdfa26c8,
hardware store,Toko Bahan Bangunan,TB. Tani Fajar,"R857+X6G, Terapung, Kec. Mawasangka, Kabupaten Buton, Sulawesi Tenggara 93663","Terapung, Kec. Mawasangka, Kabupaten Buton",SULAWESI TENGGARA,93663.0,Indonesia,81354245380.0,,,-5.1900641,122.3130837,https://maps.google.com/?cid=0x0:0xeb904d63cad01b07,
hardware store,Toko,Kios Wahyun Computer,"M8Q6+QC5, Wasilomata II, Kec. Mawasangka, Kabupaten Buton, Sulawesi Tenggara 93762","Wasilomata II, Kec. Mawasangka, Kabupaten Buton",SULAWESI TENGGARA,93762.0,Indonesia,85241510696.0,,,-5.3106167,122.3111021,https://maps.google.com/?cid=0x0:0x2ab6e78800bcfe2e,
hardware store,Toko bahan makanan,Toko Daffa al-fazza,"Depan PM celluler, Jalan poros, Matara, Kec. Mawasangka, Sulawesi Tenggara 93762","Jalan poros, Matara, Kec. Mawasangka",SULAWESI TENGGARA,93762.0,Indonesia,82398087792.0,,,-5.3270481,122.3218269,https://maps.google.com/?cid=0x0:0xa32662af35ff0ce0,
hardware store,Toko bahan makanan,Usaha Daffa,"J9X6+FP6, desa, Watorumbe Bata, Kec. Mawasangka Tengah, Kabupaten Buton, Sulawesi Tenggara 93762","desa, Watorumbe Bata, Kec. Mawasangka Tengah, Kabupaten Buton",SULAWESI TENGGARA,93762.0,Indonesia,85342528987.0,,,-5.3513293,122.3617618,https://maps.google.com/?cid=0x0:0x4b656b544b42217b,
hardware store,hardware store,Mawasangka Tim.,"Kabupaten Buton, Sulawesi Tenggara","Kabupaten Buton, Sulawesi Tenggara",SULAWESI TENGGARA,,Indonesia,,,,-5.3611739,122.424074,https://maps.google.com/?cid=0x0:0xf58d05571c4d04f4,
hardware store,Toko Bahan Bangunan,Toko MILA JAYA,"MGJM+CHJ, Wongko Lakudo, Kec. Lakudo, Kabupaten Buton, Sulawesi Tenggara 93763","Wongko Lakudo, Kec. Lakudo, Kabupaten Buton",SULAWESI TENGGARA,93763.0,Indonesia,,,,-5.3189193,122.5338982,https://maps.google.com/?cid=0x0:0x60aa9ab12b677be,
hardware store,Toko Alat Tulis Kantor,Foto Copy  Pring Agoes,"M9JR+GGW, Lalibo, Kec. Mawasangka Tengah, Kabupaten Buton, Sulawesi Tenggara","Kabupaten Buton, Sulawesi Tenggara",SULAWESI TENGGARA,,Indonesia,,,,-5.3186275,122.3913274,https://maps.google.com/?cid=0x0:0x33b3d66ccbcdbd2e,
hardware store,hardware store,Sulawesi Tenggara 93761,"Kec. Gu, Kabupaten Buton, Sulawesi Tenggara","Kabupaten Buton, Sulawesi Tenggara",SULAWESI TENGGARA,,Indonesia,,,,-5.2702397,122.593828,https://maps.google.com/?cid=0x0:0xe714ef696c5af545,
hardware store,Rumah Kayu,Toko(WDR) Tolandona,"JJMC+7C2, Tolandona Matanaeo, Kec. Sangia Wambulu, Kabupaten Buton, Sulawesi Tenggara 93761","Tolandona Matanaeo, Kec. Sangia Wambulu, Kabupaten Buton",SULAWESI TENGGARA,93761.0,Indonesia,,,,-5.3668257,122.6208758,https://maps.google.com/?cid=0x0:0x613247cb39b5b94b,
hardware store,Toko,Kios Mambulu (Barokah) Jaya Utama,"Jl. Poros Batauga, Dusun Laporoworu, Gn. Sejuk, Kec. Sampolawa, Kabupaten Buton, Sulawesi Tenggara 93753","Dusun Laporoworu, Gn. Sejuk, Kec. Sampolawa, Kabupaten Buton",SULAWESI TENGGARA,93753.0,Indonesia,,,,-5.5819375,122.7381875,https://maps.google.com/?cid=0x0:0xc02d319280ee6290,
hardware store,Toko Bahan Bangunan,Toko bahan bangunan,"M52J+QXP, Unnamed Road, Mataiwoi, Kec. Andoolo, Kabupaten Konawe Selatan, Sulawesi Tenggara 93819","Unnamed Road, Mataiwoi, Kec. Andoolo, Kabupaten Konawe Selatan",SULAWESI TENGGARA,93819.0,Indonesia,,,,-4.348029,122.1824396,https://maps.google.com/?cid=0x0:0x6eac64bf582c5bd2,
hardware store,Kios,KIOS MAMBULU JAYA,"Jln.Pasar Mambulu No.29 Kel, Jaya Bakti, Kec. Sampolawa, Kabupaten Buton, Sulawesi Tenggara 93753","Jaya Bakti, Kec. Sampolawa, Kabupaten Buton",SULAWESI TENGGARA,93753.0,Indonesia,81396660008.0,,,-5.6287177,122.7057181,https://maps.google.com/?cid=0x0:0x18d08671ac614520,
hardware store,hardware store,Talaga Raya,"Kabupaten Buton, Sulawesi Tenggara","Kabupaten Buton, Sulawesi Tenggara",SULAWESI TENGGARA,,Indonesia,,,,-5.4213926,122.0155491,https://maps.google.com/?cid=0x0:0x2e35b700451321ba,
hardware store,hardware store,Kia Fotocopy,"G25W+4G2, Talaga Besar, Talaga Raya, Kabupaten Buton, Sulawesi Tenggara 93781","Talaga Besar, Talaga Raya, Kabupaten Buton",SULAWESI TENGGARA,93781.0,Indonesia,,,,-5.4922401,122.0462473,https://maps.google.com/?cid=0x0:0x876e3d51e5014cc3,
hardware store,Toko,"Toko Syakti Raya16, 02","G3FJ+9PX, Talaga I, Talaga Raya, Kabupaten Buton tengah, Sulawesi Tenggara 93781","Talaga I, Talaga Raya, Kabupaten Buton tengah",SULAWESI TENGGARA,93781.0,Indonesia,,,,-5.4762398,122.0821594,https://maps.google.com/?cid=0x0:0x78ee9e7ad6b7c343,
home improvement,home improvement,Sulawesi Tenggara 93761,"Kec. Gu, Kabupaten Buton, Sulawesi Tenggara","Kabupaten Buton, Sulawesi Tenggara",SULAWESI TENGGARA,,Indonesia,,,,-5.2702397,122.593828,https://maps.google.com/?cid=0x0:0xe714ef696c5af545,
home improvement,home improvement,Kadena Glamping Dive Resort - Muna Island,"Jl. Poros Lombe No.Desa, RW.Kamama, Wakea Kea, Kec. Gu, Buton Tengah, Sulawesi Tenggara","Buton Tengah, Sulawesi Tenggara",SULAWESI TENGGARA,,Indonesia,81222777348.0,,,-5.3155071,122.6334774,https://maps.google.com/?cid=0x0:0xcdbf16bccf2ffd6a,
home improvement,Jasa Konstruksi dan Bangunan,Meubel CV. Berkah Lombe,"PHV7+FWP, Walando, Kec. Gu, Kabupaten Buton, Sulawesi Tenggara 93761","Walando, Kec. Gu, Kabupaten Buton",SULAWESI TENGGARA,93761.0,Indonesia,,,,-5.2562798,122.5648197,https://maps.google.com/?cid=0x0:0x7d612f538fa4a609,
home improvement,Jasa Konstruksi dan Bangunan,Mobiler,"HGF9+9MM, Madongka, Kec. Lakudo, Kabupaten Buton, Sulawesi Tenggara 93763","Madongka, Kec. Lakudo, Kabupaten Buton",SULAWESI TENGGARA,93763.0,Indonesia,,,,-5.4255898,122.5204517,https://maps.google.com/?cid=0x0:0x523fff61967add82,
home improvement,Toko Mebel,Mebel,"HHR8+79H, Wara, Kec. Lakudo, Kabupaten Buton, Sulawesi Tenggara 93763","Wara, Kec. Lakudo, Kabupaten Buton",SULAWESI TENGGARA,93763.0,Indonesia,,,,-5.4089466,122.5654826,https://maps.google.com/?cid=0x0:0x5a2b904057c59a83,
home improvement,home improvement,Sulawesi Tenggara 93763,"Kec. Lakudo, Kabupaten Buton, Sulawesi Tenggara","Kabupaten Buton, Sulawesi Tenggara",SULAWESI TENGGARA,,Indonesia,,,,-5.3531329,122.5598994,https://maps.google.com/?cid=0x0:0x62c2a15eea95dc2,
home improvement,Toserba,MR.DIY Lippo Buton,"Lippo Plaza Buton, Jl. Sultan Hasanuddin No.58, Batulo, Kec. Wolio, Kota Bau-Bau, Sulawesi Tenggara 93716","Jl. Sultan Hasanuddin No.58, Batulo, Kec. Wolio, Kota Bau-Bau",SULAWESI TENGGARA,93716.0,Indonesia,2130022789.0,,,-5.4610252,122.6195438,https://maps.google.com/?cid=0x0:0xa034470c6f876dce,
home improvement,Pasar bahan bangunan,Intan Building Center,"Jl. Budi Utomo No.90, Bataraguru, Kec. Wolio, Kota Bau-Bau, Sulawesi Tenggara 93717","Bataraguru, Kec. Wolio, Kota Bau-Bau",SULAWESI TENGGARA,93717.0,Indonesia,82292888886.0,,,-5.4658703,122.607269,https://maps.google.com/?cid=0x0:0xdd0e5cfd517f12e5,
home improvement,Toko Perlengkapan Rumah,MR.DIY,"GHHP+JM2, Jl. Betoambari, Katobengke, Kec. Betoambari, Kota Bau-Bau, Sulawesi Tenggara 93714","Jl. Betoambari, Katobengke, Kec. Betoambari, Kota Bau-Bau",SULAWESI TENGGARA,93714.0,Indonesia,,,,-5.4709486,122.5865845,https://maps.google.com/?cid=0x0:0xd3b2f333e8b02115,
home improvement,Toko Bahan Bangunan,Intan Building Center 2,"Jl. R.a. Kartini No.68, Wale, Kec. Wolio, Kota Bau-Bau, Sulawesi Tenggara 93717","Wale, Kec. Wolio, Kota Bau-Bau",SULAWESI TENGGARA,93717.0,Indonesia,82292888886.0,,,-5.4565292,122.6051852,https://maps.google.com/?cid=0x0:0x4743d2cd70649910,
home improvement,Jasa Konstruksi dan Bangunan,Meubel CV. Berkah Lombe,"PHV7+FWP, Walando, Kec. Gu, Kabupaten Buton, Sulawesi Tenggara 93761","Walando, Kec. Gu, Kabupaten Buton",SULAWESI TENGGARA,93761.0,Indonesia,,,,-5.2562798,122.5648197,https://maps.google.com/?cid=0x0:0x7d612f538fa4a609,
home improvement,Toko Mebel,Meubel F-4R,"Sukanayo, Kec. Kokalukuna, Kota Bau-Bau, Sulawesi Tenggara 93711","Kec. Kokalukuna, Kota Bau-Bau",SULAWESI TENGGARA,93711.0,Indonesia,82328230722.0,,,-5.4241206,122.624128,https://maps.google.com/?cid=0x0:0xabb50c8c928a82dd,
home improvement,Toko,GOLDEN PLAFON BAUBAU,"Jl. Moh. Husni Thamrin No.55, Bataraguru, Kec. Wolio, Kota Bau-Bau, Sulawesi Tenggara 93717","Bataraguru, Kec. Wolio, Kota Bau-Bau",SULAWESI TENGGARA,93717.0,Indonesia,82271353831.0,,,-5.4633357,122.6088964,https://maps.google.com/?cid=0x0:0x4581a6d850b3578a,
home improvement,Komplek perumahan,Home umar,"M8X4+Q74, Jl.Puskesmas Mawasangka, Ling.Liwuwawono, Kec. Mawasangka","Kabupaten Buton, Sulawesi Tenggara",SULAWESI TENGGARA,,Indonesia,,,,-5.3006173,122.3057039,https://maps.google.com/?cid=0x0:0x46f092e83a6d90ee,
home improvement,Komplek perumahan,Nurma Ayumi,"P77Q+C54, Watolo, Kec. Mawasangka, Kabupaten Buton, Sulawesi Tenggara 93762","Watolo, Kec. Mawasangka, Kabupaten Buton",SULAWESI TENGGARA,93762.0,Indonesia,,,,-5.2865351,122.2887506,https://maps.google.com/?cid=0x0:0x3c94d607d5408fe7,
home improvement,home improvement,Mawasangka,"Mawasangka, Kec. Mawasangka, Kabupaten Buton, Sulawesi Tenggara","Kabupaten Buton, Sulawesi Tenggara",SULAWESI TENGGARA,,Indonesia,,,,-5.290863,122.298897,https://maps.google.com/?cid=0x0:0x6eab10a86a088341,
home improvement,home improvement,Kec. Mawasangka Tengah,"Kabupaten Buton, Sulawesi Tenggara","Kabupaten Buton, Sulawesi Tenggara",SULAWESI TENGGARA,,Indonesia,,,,-5.3281582,122.3735319,https://maps.google.com/?cid=0x0:0x5d31cab3951c9500,
home improvement,home improvement,Sulawesi Tenggara 93762,"Kabupaten Buton, Sulawesi Tenggara","Kabupaten Buton, Sulawesi Tenggara",SULAWESI TENGGARA,,Indonesia,,,,-5.291781,122.3787597,https://maps.google.com/?cid=0x0:0x29d13fe4e83e4ba7,
home improvement,Komplek perumahan,Konsulatasi dan Desain Rumah Murah,"Link, MabesKuta, Kec. Mawasangka, Kabupaten Buton, Sulawesi Tenggara","Kabupaten Buton, Sulawesi Tenggara",SULAWESI TENGGARA,,Indonesia,82296216277.0,,,-5.2884008,122.2875675,https://maps.google.com/?cid=0x0:0x2eb1d30f89a2c34c,
home improvement,home improvement,GAMBAR RUMAH STUDIO,"Mawasangka, Kec. Mawasangka, Kabupaten Buton, Sulawesi Tenggara","Kabupaten Buton, Sulawesi Tenggara",SULAWESI TENGGARA,,Indonesia,85283723864.0,,,-5.2956108,122.3016318,https://maps.google.com/?cid=0x0:0xbf80bea0a0ab3291,
home improvement,Komplek perumahan,Home umar,"M8X4+Q74, Jl.Puskesmas Mawasangka, Ling.Liwuwawono, Kec. Mawasangka","Kabupaten Buton, Sulawesi Tenggara",SULAWESI TENGGARA,,Indonesia,,,,-5.3006173,122.3057039,https://maps.google.com/?cid=0x0:0x46f092e83a6d90ee,
home improvement,Masjid,INULU EXPRESS,"Unnamed Road, Inulu, Mawasangka Tim., Kabupaten Buton, Sulawesi Tenggara 93762","Inulu, Mawasangka Tim., Kabupaten Buton",SULAWESI TENGGARA,93762.0,Indonesia,82199324920.0,,,-5.4018113,122.4591439,https://maps.google.com/?cid=0x0:0x4b88879fbcb252ac,
home improvement,Jasa Konstruksi dan Bangunan,Kampung Baharin,"Wasilomata II, Kec. Mawasangka, Kabupaten Buton, Sulawesi Tenggara 93762","Kec. Mawasangka, Kabupaten Buton",SULAWESI TENGGARA,93762.0,Indonesia,601139201077.0,,,-5.3136686,122.312149,https://maps.google.com/?cid=0x0:0xf4f964226d5c8e50,
home improvement,Kantor Perusahaan,Tanjung Gea,"J956+WQ, Gundu-Gundu, Kec. Mawasangka Tengah, Kabupaten Buton, Sulawesi Tenggara","Kabupaten Buton, Sulawesi Tenggara",SULAWESI TENGGARA,,Indonesia,,,,-5.39018,122.3618935,https://maps.google.com/?cid=0x0:0x4555ab9e09c66834,
home improvement,Toko Bahan Bangunan,IzzieHome Baubau,"Batulo, Kec. Wolio, Kota Bau-Bau, Sulawesi Tenggara 93717","Kec. Wolio, Kota Bau-Bau",SULAWESI TENGGARA,93717.0,Indonesia,4022821377.0,,,-5.4592394,122.6140646,https://maps.google.com/?cid=0x0:0x63f4893b60e877da,
home improvement,Toko,Yhn home,"M9HM+RVM, Lalibo, Kec. Mawasangka Tengah, Kabupaten Buton, Sulawesi Tenggara","Kabupaten Buton, Sulawesi Tenggara",SULAWESI TENGGARA,,Indonesia,,,,-5.3204061,122.3846738,https://maps.google.com/?cid=0x0:0x81410f922eebbac,
home improvement,Komplek perumahan,Markas mabeskuta,"M7XR+WWG, Watolo, Kec. Mawasangka, Kabupaten Buton, Sulawesi Tenggara 93762","Watolo, Kec. Mawasangka, Kabupaten Buton",SULAWESI TENGGARA,93762.0,Indonesia,,,,-5.3001873,122.2923253,https://maps.google.com/?cid=0x0:0x9e6ebd14b42ffee8,
home improvement,Toko Pakaian,Rumah karisu,"M9H7+6RX, Lakorua, Kec. Mawasangka Tengah, Kabupaten Buton, Sulawesi Tenggara","Kabupaten Buton, Sulawesi Tenggara",SULAWESI TENGGARA,,Indonesia,,,,-5.3218755,122.3645949,https://maps.google.com/?cid=0x0:0xfdeb4707d46d1af6,
home improvement,home improvement,Putra pandawa,,,SULAWESI TENGGARA,,Indonesia,82271421854.0,,,-5.4710754,122.6063884,https://maps.google.com/?cid=0x0:0xf7ee45907f69ed33,
home improvement,Komplek perumahan,Meubel Lombe Putri,"PHV7+4F2, Jl. Jend. Sudirman, Walando, Kec. Gu, Kabupaten Buton, Sulawesi Tenggara 93761","Jl. Jend. Sudirman, Walando, Kec. Gu, Kabupaten Buton",SULAWESI TENGGARA,93761.0,Indonesia,82291118895.0,,,-5.257248,122.5636385,https://maps.google.com/?cid=0x0:0xb8a6789897a57a49,
home improvement,Toko Elektronik,Home Service,"Jl. Murhum No.1A, Wajo, Kec. Murhum, Kota Bau-Bau, Sulawesi Tenggara 93726","Wajo, Kec. Murhum, Kota Bau-Bau",SULAWESI TENGGARA,93726.0,Indonesia,85229022228.0,,,-5.4711251,122.6010542,https://maps.google.com/?cid=0x0:0xa733421ce07892f1,
home improvement,Rumah Kaca,Rumah Hayon Dawud (Toko Umam Jaya),"PHVH+FPJ, Bombonawulu, Kec. Gu, Kabupaten Buton, Sulawesi Tenggara 93761","Bombonawulu, Kec. Gu, Kabupaten Buton",SULAWESI TENGGARA,93761.0,Indonesia,,,,-5.2562997,122.5792519,https://maps.google.com/?cid=0x0:0xd972436319c3b8db,
home improvement,Pasar bahan bangunan,Intan Building Center,"Jl. Budi Utomo No.90, Bataraguru, Kec. Wolio, Kota Bau-Bau, Sulawesi Tenggara 93717","Bataraguru, Kec. Wolio, Kota Bau-Bau",SULAWESI TENGGARA,93717.0,Indonesia,82292888886.0,,,-5.4658703,122.607269,https://maps.google.com/?cid=0x0:0xdd0e5cfd517f12e5,
home improvement,Kios,D3da dahiango,"Q9QM+WF9, Polindu, Kec. Mawasangka, Kabupaten Buton, Sulawesi Tenggara","Kabupaten Buton, Sulawesi Tenggara",SULAWESI TENGGARA,,Indonesia,,,,-5.2102189,122.3837421,https://maps.google.com/?cid=0x0:0x2caca29d8e2c96cd,
home improvement,Tukang Kayu,UMIYAH JAWA BUTON MEUBEL,"Rumah mas ade atau umiyah, Dusun kalumpa, Meubel nya mas, Jl. Sangia Wambulu, Doda Bahari, Buton Tengah, Sulawesi Tenggara 93761","Dusun kalumpa, Meubel nya mas, Jl. Sangia Wambulu, Doda Bahari, Buton Tengah",SULAWESI TENGGARA,93761.0,Indonesia,85272846796.0,,,-5.358627,122.6326691,https://maps.google.com/?cid=0x0:0x72a5efb13de7843a,
home improvement,Toserba,MR.DIY Lippo Buton,"Lippo Plaza Buton, Jl. Sultan Hasanuddin No.58, Batulo, Kec. Wolio, Kota Bau-Bau, Sulawesi Tenggara 93716","Jl. Sultan Hasanuddin No.58, Batulo, Kec. Wolio, Kota Bau-Bau",SULAWESI TENGGARA,93716.0,Indonesia,2130022789.0,,,-5.4610252,122.6195438,https://maps.google.com/?cid=0x0:0xa034470c6f876dce,
home improvement,home improvement,"Desa morikana Kec. Mawasangka tengah, kab. Buton tengah","M88R+745, Morikana, Kec. Mawasangka Tengah, Kabupaten Buton Tengah, Sulawesi Tenggara 93762","Morikana, Kec. Mawasangka Tengah, Kabupaten Buton Tengah",SULAWESI TENGGARA,93762.0,Indonesia,,,,-5.334377,122.3403579,https://maps.google.com/?cid=0x0:0x964812cc6f1e87cf,
home improvement,Toko,Yhn home,"M9HM+RVM, Lalibo, Kec. Mawasangka Tengah, Kabupaten Buton, Sulawesi Tenggara","Kabupaten Buton, Sulawesi Tenggara",SULAWESI TENGGARA,,Indonesia,,,,-5.3204061,122.3846738,https://maps.google.com/?cid=0x0:0x81410f922eebbac,
home improvement,Toko,KIOS HIDAYAT,"M9JP+62J, Lalibo, Kec. Mawasangka Tengah, Kabupaten Buton, Sulawesi Tenggara","Kabupaten Buton, Sulawesi Tenggara",SULAWESI TENGGARA,,Indonesia,82153590852.0,,,-5.3194221,122.3850282,https://maps.google.com/?cid=0x0:0x93173a788509d676,
home improvement,home improvement,Mawasangka Tim.,"Kabupaten Buton, Sulawesi Tenggara","Kabupaten Buton, Sulawesi Tenggara",SULAWESI TENGGARA,,Indonesia,,,,-5.3611739,122.424074,https://maps.google.com/?cid=0x0:0xf58d05571c4d04f4,
home improvement,Komplek perumahan,Home umar,"M8X4+Q74, Jl.Puskesmas Mawasangka, Ling.Liwuwawono, Kec. Mawasangka","Kabupaten Buton, Sulawesi Tenggara",SULAWESI TENGGARA,,Indonesia,,,,-5.3006173,122.3057039,https://maps.google.com/?cid=0x0:0x46f092e83a6d90ee,
home improvement,home improvement,,,,SULAWESI TENGGARA,,Indonesia,82293486588.0,,,-2.44565,117.8888,https://maps.google.com/?cid=0x0:0xde387e986ecf8e6c,
home improvement,home improvement,Sulawesi Tenggara 93761,"Kec. Gu, Kabupaten Buton, Sulawesi Tenggara","Kabupaten Buton, Sulawesi Tenggara",SULAWESI TENGGARA,,Indonesia,,,,-5.2702397,122.593828,https://maps.google.com/?cid=0x0:0xe714ef696c5af545,
home improvement,Tukang Kayu,UMIYAH JAWA BUTON MEUBEL,"Rumah mas ade atau umiyah, Dusun kalumpa, Meubel nya mas, Jl. Sangia Wambulu, Doda Bahari, Buton Tengah, Sulawesi Tenggara 93761","Dusun kalumpa, Meubel nya mas, Jl. Sangia Wambulu, Doda Bahari, Buton Tengah",SULAWESI TENGGARA,93761.0,Indonesia,85272846796.0,,,-5.358627,122.6326691,https://maps.google.com/?cid=0x0:0x72a5efb13de7843a,
home improvement,Gedung Apartemen,YOSPIAN HOME,"JJP8+8XW, Tolandona, Kec. Sangia Wambulu, Kabupaten Buton, Sulawesi Tenggara","Kabupaten Buton, Sulawesi Tenggara",SULAWESI TENGGARA,,Indonesia,,,,-5.3641331,122.6174619,https://maps.google.com/?cid=0x0:0x56267c155051eb58,
home improvement,Rumah Kaca,Rumah Hayon Dawud (Toko Umam Jaya),"PHVH+FPJ, Bombonawulu, Kec. Gu, Kabupaten Buton, Sulawesi Tenggara 93761","Bombonawulu, Kec. Gu, Kabupaten Buton",SULAWESI TENGGARA,93761.0,Indonesia,,,,-5.2562997,122.5792519,https://maps.google.com/?cid=0x0:0xd972436319c3b8db,
home improvement,Rumah Kayu,Sangia wambulu,"JJM9+H6M, Tolandona, Kec. Sangia Wambulu, Kabupaten Buton, Sulawesi Tenggara","Kabupaten Buton, Sulawesi Tenggara",SULAWESI TENGGARA,,Indonesia,,,,-5.3660467,122.6180429,https://maps.google.com/?cid=0x0:0x623b1e8f611ee924,
home improvement,home improvement,Sulawesi,,,SULAWESI TENGGARA,,Indonesia,,,,-1.8479,120.5279,https://maps.google.com/?cid=0x0:0xbc9a51d168f47742,
home improvement,home improvement,,,,SULAWESI TENGGARA,,Indonesia,82293486588.0,,,-2.44565,117.8888,https://maps.google.com/?cid=0x0:0xde387e986ecf8e6c,
home improvement,Komplek perumahan,Home Jumino,"M3W4+348, Blok i, Basala, Kec. Basala, Kabupaten Konawe Selatan, Sulawesi Tenggara 93875","Blok i, Basala, Kec. Basala, Kabupaten Konawe Selatan",SULAWESI TENGGARA,93875.0,Indonesia,,,,-4.3048255,122.055319,https://maps.google.com/?cid=0x0:0x549e03f2465f258d,
home improvement,Tukang Kayu,Yunipa Mebel,"PF2H+C4C, Lolibu, Kec. Mawasangka Tengah, Kabupaten Buton, Sulawesi Tenggara","Kabupaten Buton, Sulawesi Tenggara",SULAWESI TENGGARA,,Indonesia,,,,-5.2989387,122.4777605,https://maps.google.com/?cid=0x0:0xa359ac0617855724,
home improvement,home improvement,Talaga Raya,"Kabupaten Buton, Sulawesi Tenggara","Kabupaten Buton, Sulawesi Tenggara",SULAWESI TENGGARA,,Indonesia,,,,-5.4213926,122.0155491,https://maps.google.com/?cid=0x0:0x2e35b700451321ba,
home improvement,Toko umum,Ihram Home,"G3FH+V2M, Unnamed Road, Talaga I, Talaga Raya, Kabupaten Buton, Sulawesi Tenggara 93781","Unnamed Road, Talaga I, Talaga Raya, Kabupaten Buton",SULAWESI TENGGARA,93781.0,Indonesia,85341300193.0,,,-5.4752763,122.0775409,https://maps.google.com/?cid=0x0:0x1b302b1901ea3e1d,
home improvement,Komplek perumahan,D Home,"H2H8+C6V, Wulu, Talaga Raya, Kabupaten Buton, Sulawesi Tenggara","Kabupaten Buton, Sulawesi Tenggara",SULAWESI TENGGARA,,Indonesia,,,,-5.4213926,122.0155491,https://maps.google.com/?cid=0x0:0xbdac90215377f648,
home improvement,Toko,Rumah Mahsydof,"G3FF+8JM, Talaga I, Talaga Raya, Kabupaten Buton, Sulawesi Tenggara","Kabupaten Buton, Sulawesi Tenggara",SULAWESI TENGGARA,,Indonesia,,,,-5.4766724,122.0740475,https://maps.google.com/?cid=0x0:0x7c8c8df5747f9e87,
home improvement,home improvement,Kios Denis Kantona,"G3GG+822, Talaga I, Talaga Raya, Kabupaten Buton, Sulawesi Tenggara 93781","Talaga I, Talaga Raya, Kabupaten Buton",SULAWESI TENGGARA,93781.0,Indonesia,,,,-5.4742369,122.0750283,https://maps.google.com/?cid=0x0:0x83ce69c7b5deefa6,
home improvement,Toko Bahan Bangunan,Tombi,"G2GH+GF, Talaga Besar, Talaga Raya, Kabupaten Buton, Sulawesi Tenggara","Kabupaten Buton, Sulawesi Tenggara",SULAWESI TENGGARA,,Indonesia,,,,-5.4736286,122.0286508,https://maps.google.com/?cid=0x0:0xe4fde064d6b821f5,
home improvement,Toko Ponsel,Nadhira Com,"Talaga I, Talaga Raya, Buton Tengah, Sulawesi Tenggara 93769","Talaga Raya, Buton Tengah",SULAWESI TENGGARA,93769.0,Indonesia,,,,-5.4748572,122.0750505,https://maps.google.com/?cid=0x0:0x89a4274fc88206a6,
home improvement,Toko,"Toko Syakti Raya16, 02","G3FJ+9PX, Talaga I, Talaga Raya, Kabupaten Buton tengah, Sulawesi Tenggara 93781","Talaga I, Talaga Raya, Kabupaten Buton tengah",SULAWESI TENGGARA,93781.0,Indonesia,,,,-5.4762398,122.0821594,https://maps.google.com/?cid=0x0:0x78ee9e7ad6b7c343,
