Category,Real Category,Business Name,Address,City,State,Postal Code,Country,Phone,Email,Website,Latitude,Longitude,Map Link,Details Link
mall,mall,Sulawesi Tenggara 93761,"Kec. Gu, Kabupaten Buton, Sulawesi Tenggara","Kabupaten Buton, Sulawesi Tenggara",SULAWESI TENGGARA,,Indonesia,,,,-5.2702397,122.593828,https://maps.google.com/?cid=0x0:0xe714ef696c5af545,
mall,Toko Pakaian,Pasar Lombe,"PHXG+3X9, Pasar Lombe, Bombonawulu, Kec. Gu, Kabupaten Buton, Sulawesi Tenggara 93761","Pasar Lombe, Bombonawulu, Kec. Gu, Kabupaten Buton",SULAWESI TENGGARA,93761.0,Indonesia,,,,-5.252328,122.5774717,https://maps.google.com/?cid=0x0:0x8908c50e37c5e64c,
mall,Sekolah Menengah Atas,Kantin SMA 1 gu,"PHWC+5QR, Walando, Kec. Gu, Kabupaten Buton, Sulawesi Tenggara 93761","Walando, Kec. Gu, Kabupaten Buton",SULAWESI TENGGARA,93761.0,Indonesia,,,,-5.2545106,122.5719047,https://maps.google.com/?cid=0x0:0x981a8d2c25619b7a,
mall,Toko,Toko Iksan,"PHXH+525, Bombonawulu, Kec. Gu, Kabupaten Buton, Sulawesi Tenggara 93761","Bombonawulu, Kec. Gu, Kabupaten Buton",SULAWESI TENGGARA,93761.0,Indonesia,82231456521.0,,,-5.2521026,122.5776172,https://maps.google.com/?cid=0x0:0x9ff211e2fec7dd94,
mall,Toko Perbaikan Ponsel,AZKAPHONE LOMBE 2,"PHXG+5W8, Bombonawulu, Kec. Gu, Kabupaten Buton, Sulawesi Tenggara 93761","Bombonawulu, Kec. Gu, Kabupaten Buton",SULAWESI TENGGARA,93761.0,Indonesia,,,,-5.2520798,122.5773365,https://maps.google.com/?cid=0x0:0xfd2dbdd43ba2ab9b,
mall,Pusat Perbelanjaan,Lippo Plaza Baubau,"GJQ9+JR2, Batulo, Kec. Wolio, Kota Bau-Bau, Sulawesi Tenggara 93716","Batulo, Kec. Wolio, Kota Bau-Bau",SULAWESI TENGGARA,93716.0,Indonesia,,,,-5.4609875,122.6195156,https://maps.google.com/?cid=0x0:0xa36840a3dba9c932,
mall,Masjid,Mesjid Haqqul yakin,"MJVR+2P6, dusun uncume,desa, Rahia, Kec. Gu, kab.buton tengah, Sulawesi Tenggara","kab.buton tengah, Sulawesi Tenggara",SULAWESI TENGGARA,,Indonesia,81344477499.0,,,-5.3074685,122.641762,https://maps.google.com/?cid=0x0:0x87db45ef264c8831,
mall,Pusat Perbelanjaan,Toko Mama Tiara Lombe,"Samping Konter Arumi, Pasar Lombe, Buton Tengah, Sulawesi Tenggara 93761","Pasar Lombe, Buton Tengah",SULAWESI TENGGARA,93761.0,Indonesia,82299410098.0,,,-5.252595,122.5775061,https://maps.google.com/?cid=0x0:0xb057aed1ca1c3f20,
mall,Toko Swalayan,KIOS ERLIN,"QGXG+Q4G, Lakapera, Kec. Gu, Kabupaten Buton, Sulawesi Tenggara","Kabupaten Buton, Sulawesi Tenggara",SULAWESI TENGGARA,,Indonesia,,,,-5.2005724,122.5253352,https://maps.google.com/?cid=0x0:0x4f52e644237e973e,
mall,Toko Elektronik,Fotocopy Hafes 2,"PHWG+HXR, kel. bombonawulu lombe kec. Gu, Bombonawulu, Kec. Lakudo, Kabupaten Buton, Sulawesi Tenggara 93761","kel. bombonawulu lombe kec. Gu, Bombonawulu, Kec. Lakudo, Kabupaten Buton",SULAWESI TENGGARA,93761.0,Indonesia,85399403102.0,,,-5.2535202,122.5774046,https://maps.google.com/?cid=0x0:0x71cfd5ff510e9c29,
mall,Toko,Pesisir,"PGCC+J94, Moko, Kec. Lakudo, Kabupaten Buton, Sulawesi Tenggara 93763","Moko, Kec. Lakudo, Kabupaten Buton",SULAWESI TENGGARA,93763.0,Indonesia,,,,-5.2789756,122.5207488,https://maps.google.com/?cid=0x0:0x6fd2429d1ddf0726,
mall,Pusat Perbelanjaan,Andaba Star Mart,"PHQ5+WG, Walando, Kec. Gu, Kabupaten Buton, Sulawesi Tenggara 93761","Walando, Kec. Gu, Kabupaten Buton",SULAWESI TENGGARA,93761.0,Indonesia,,,,-5.2601541,122.559203,https://maps.google.com/?cid=0x0:0x93f55e311fb6d9e9,
mall,Pemasok Air Minum Dalam Kemasan,Depot RO Plus Air Alkali N Bioenergi,"Tengah, Wongko Lakudo, Kec. Lakudo, Kabupaten Buton, Sulawesi Tenggara 93763","Wongko Lakudo, Kec. Lakudo, Kabupaten Buton",SULAWESI TENGGARA,93763.0,Indonesia,81230050005.0,,,-5.3189517,122.5332177,https://maps.google.com/?cid=0x0:0x75ba1bcaaee1bd6,
mall,Pusat Perbelanjaan,Mall Mandonga,"JL. Abdullah Silondae, Korumba, Kec. Mandonga, Kota Kendari, Sulawesi Tenggara 93111","Korumba, Kec. Mandonga, Kota Kendari",SULAWESI TENGGARA,93111.0,Indonesia,,,,-3.9642856,122.5189989,https://maps.google.com/?cid=0x0:0x96320466b7420e2b,
mall,Pasar,Pasar Kalia-Lia,"Kalia-Lia, Kec. Lea-Lea, Kota Bau-Bau, Sulawesi Tenggara 93758","Kec. Lea-Lea, Kota Bau-Bau",SULAWESI TENGGARA,93758.0,Indonesia,,,,-5.3900612,122.6283066,https://maps.google.com/?cid=0x0:0x960d63ba7c212b40,
mall,Pasar,Pasar Madongka,"HGG9+9Q3, Madongka, Kec. Lakudo, Kabupaten Buton, Sulawesi Tenggara 93763","Madongka, Kec. Lakudo, Kabupaten Buton",SULAWESI TENGGARA,93763.0,Indonesia,,,,-5.4241118,122.5194202,https://maps.google.com/?cid=0x0:0xce0886315784779,
mall,Komplek perumahan,Pasar Watorumbe,"J9GH+R95, Watorumbe, Kec. Mawasangka Tengah, kabupaten buton tengah, Sulawesi Tenggara","kabupaten buton tengah, Sulawesi Tenggara",SULAWESI TENGGARA,,Indonesia,,,,-5.3729894,122.3785,https://maps.google.com/?cid=0x0:0x865ec41afc911638,
mall,Jasa Reparasi Komputer,Mentox Computer,"Labasa, Kec. Tongkuno Sel., Kabupaten Muna, Sulawesi Tenggara 93662","Kec. Tongkuno Sel., Kabupaten Muna",SULAWESI TENGGARA,93662.0,Indonesia,,,,-5.190605,122.5218654,https://maps.google.com/?cid=0x0:0xb6a1e504ed29ac66,
mall,Komplek perumahan,Banapis | Pisang-Kita |,"JJJC+RQP, Tolandona Matanaeo, Kec. Sangia Wambulu, Kabupaten Buton, Sulawesi Tenggara","Kabupaten Buton, Sulawesi Tenggara",SULAWESI TENGGARA,,Indonesia,82285790314.0,,,-5.3679126,122.6219645,https://maps.google.com/?cid=0x0:0x8eafd5b704599471,
mall,Pusat Perbelanjaan,Mall Kelapa Gading 5,"Jl. Boulevard Raya, RT.13/RW.18, Klp. Gading Tim., Kec. Klp. Gading, Jkt Utara, Daerah Khusus Ibukota Jakarta 14240","RT.13/RW.18, Klp. Gading Tim., Kec. Klp. Gading, Jkt Utara",SULAWESI TENGGARA,14240.0,Indonesia,214531101.0,,,-6.1567385,106.910945,https://maps.google.com/?cid=0x0:0xf81b02e78061a7af,
mall,Pusat Perbelanjaan,Summarecon Mall Kelapa Gading,"Jl. Boulevard Raya, Klp. Gading Tim., Kec. Klp. Gading, Jkt Utara, Daerah Khusus Ibukota Jakarta 14240","Klp. Gading Tim., Kec. Klp. Gading, Jkt Utara",SULAWESI TENGGARA,14240.0,Indonesia,214531101.0,,,-6.1572666,106.9084263,https://maps.google.com/?cid=0x0:0x1c1a278e20ff1c47,
mall,Pusat Perbelanjaan,Mall Of Indonesia,"Jl. Boulevard Bar. Raya No.12, RT.18/RW.19, Klp. Gading Bar., Kec. Klp. Gading, Jkt Utara, Daerah Khusus Ibukota Jakarta 14240","RT.18/RW.19, Klp. Gading Bar., Kec. Klp. Gading, Jkt Utara",SULAWESI TENGGARA,14240.0,Indonesia,2145867888.0,,,-6.1514549,106.8918949,https://maps.google.com/?cid=0x0:0x3431c7aaadd1f1b6,
mall,Pusat Perbelanjaan,Mal Kelapa Gading 2,"Menara Satu Sentra Klp. Gading, Kompleks Jl. Boulevard Raya, Klp. Gading Tim., Kec. Klp. Gading, Jkt Utara, Daerah Khusus Ibukota Jakarta 14240","Kompleks Jl. Boulevard Raya, Klp. Gading Tim., Kec. Klp. Gading, Jkt Utara",SULAWESI TENGGARA,14240.0,Indonesia,214531101.0,,,-6.157809,106.9076198,https://maps.google.com/?cid=0x0:0x8ab66acdf75a2503,
mall,Bali,Nasi Pedas Kampung Bali - MKG 3,"Mall Klp. Gading, Jl. Boulevard Raya, RT.13/RW.18, Klp. Gading Tim., Kec. Klp. Gading, Jkt Utara, Daerah Khusus Ibukota Jakarta 14240","Jl. Boulevard Raya, RT.13/RW.18, Klp. Gading Tim., Kec. Klp. Gading, Jkt Utara",SULAWESI TENGGARA,14240.0,Indonesia,,,,-6.1565898,106.9098577,https://maps.google.com/?cid=0x0:0xba81e24d854ff4ee,
mall,Pastri,Dough Lab MKG 3,"Jl. Boulevard Raya No.13, RT.12/RW.18, Klp. Gading Tim., Kec. Klp. Gading, Jkt Utara, Daerah Khusus Ibukota Jakarta 14240","RT.12/RW.18, Klp. Gading Tim., Kec. Klp. Gading, Jkt Utara",SULAWESI TENGGARA,14240.0,Indonesia,,,,-6.1570785,106.9087107,https://maps.google.com/?cid=0x0:0x19df9efa6791b7d7,
mall,mall,Sulawesi Tenggara 93763,"Kec. Lakudo, Kabupaten Buton, Sulawesi Tenggara","Kabupaten Buton, Sulawesi Tenggara",SULAWESI TENGGARA,,Indonesia,,,,-5.3531329,122.5598994,https://maps.google.com/?cid=0x0:0x62c2a15eea95dc2,
mall,Toko,Pesisir,"PGCC+J94, Moko, Kec. Lakudo, Kabupaten Buton, Sulawesi Tenggara 93763","Moko, Kec. Lakudo, Kabupaten Buton",SULAWESI TENGGARA,93763.0,Indonesia,,,,-5.2789756,122.5207488,https://maps.google.com/?cid=0x0:0x6fd2429d1ddf0726,
mall,Pemasok Air Minum Dalam Kemasan,Depot RO Plus Air Alkali N Bioenergi,"Tengah, Wongko Lakudo, Kec. Lakudo, Kabupaten Buton, Sulawesi Tenggara 93763","Wongko Lakudo, Kec. Lakudo, Kabupaten Buton",SULAWESI TENGGARA,93763.0,Indonesia,81230050005.0,,,-5.3189517,122.5332177,https://maps.google.com/?cid=0x0:0x75ba1bcaaee1bd6,
mall,Kios,Toko tunas lakudo,"MGJM+3PW, Wongko Lakudo, Kec. Lakudo, Kabupaten Buton, Sulawesi Tenggara 93763","Wongko Lakudo, Kec. Lakudo, Kabupaten Buton",SULAWESI TENGGARA,93763.0,Indonesia,,,,-5.3197606,122.5343302,https://maps.google.com/?cid=0x0:0x4fe4a12f0ebc623e,
mall,Pusat Perbelanjaan,Lippo Plaza Baubau,"GJQ9+JR2, Batulo, Kec. Wolio, Kota Bau-Bau, Sulawesi Tenggara 93716","Batulo, Kec. Wolio, Kota Bau-Bau",SULAWESI TENGGARA,93716.0,Indonesia,,,,-5.4609875,122.6195156,https://maps.google.com/?cid=0x0:0xa36840a3dba9c932,
mall,Toko Makanan,Darman Manulesi,"JG6G+C46, Boneoge, Kec. Lakudo, Kabupaten Buton, Sulawesi Tenggara 93763","Boneoge, Kec. Lakudo, Kabupaten Buton",SULAWESI TENGGARA,93763.0,Indonesia,,,,-5.3889566,122.5252775,https://maps.google.com/?cid=0x0:0x297edcc7ae43986b,
mall,Pusat Perbelanjaan,Kondowua Seafood Mart,"JG7G+J3R, Boneoge, Kec. Lakudo, Kabupaten Buton, Sulawesi Tenggara 93763","Boneoge, Kec. Lakudo, Kabupaten Buton",SULAWESI TENGGARA,93763.0,Indonesia,,,,-5.3858812,122.5251422,https://maps.google.com/?cid=0x0:0xa609f6b7a3b33f97,
mall,Toko Pakaian,Pasar Lombe,"PHXG+3X9, Pasar Lombe, Bombonawulu, Kec. Gu, Kabupaten Buton, Sulawesi Tenggara 93761","Pasar Lombe, Bombonawulu, Kec. Gu, Kabupaten Buton",SULAWESI TENGGARA,93761.0,Indonesia,,,,-5.252328,122.5774717,https://maps.google.com/?cid=0x0:0x8908c50e37c5e64c,
mall,Pusat Perbelanjaan,U. D. JAYADY MOKO,"Moko, Kec. Lakudo, Kabupaten Buton, Sulawesi Tenggara 93763","Kec. Lakudo, Kabupaten Buton",SULAWESI TENGGARA,93763.0,Indonesia,,,,-5.2765046,122.5204415,https://maps.google.com/?cid=0x0:0x750c6c1a3eceee16,
mall,Toko bahan makanan,Toko Iwan,"Boneoge, Kec. Lakudo, Kabupaten Buton, Sulawesi Tenggara 93763","Kec. Lakudo, Kabupaten Buton",SULAWESI TENGGARA,93763.0,Indonesia,81334465215.0,,,-5.390117,122.5256256,https://maps.google.com/?cid=0x0:0x1c313bdaa6cd2693,
mall,Toko,"KIOS HIKMAH. Kel, H. Aludin","tengah, Boneoge, Kec. Lakudo, Kabupaten Buton, Sulawesi Tenggara 93760","Boneoge, Kec. Lakudo, Kabupaten Buton",SULAWESI TENGGARA,93760.0,Indonesia,81240653774.0,,,-5.390622,122.5260974,https://maps.google.com/?cid=0x0:0x22be65f705882c0,
mall,Toko Elektronik,SINAR LOLIBU CELL  TRAVEL 01,"PF5V+8JC CELL  TRAVEL, SINAR, Lolibu, Kec. Lakudo, Kabupaten Buton, Sulawesi Tenggara","Kabupaten Buton, Sulawesi Tenggara",SULAWESI TENGGARA,,Indonesia,82398180000.0,,,-5.2916885,122.4940018,https://maps.google.com/?cid=0x0:0x21a093b70bb2efdc,
mall,Pusat Perbelanjaan,UMNA WOLIO PLAZA,"GJV3+VQ4, umna wolio plaza, Sulawesi Tenggara 93711",umna wolio plaza,SULAWESI TENGGARA,93711.0,Indonesia,,,,-5.4553515,122.6044539,https://maps.google.com/?cid=0x0:0xf416e74b3da1f66b,
mall,Toko bahan makanan,Kios Bibi Ifa,"JG6G+56P, Boneoge, Kec. Lakudo, Kabupaten Buton, Sulawesi Tenggara 93763","Boneoge, Kec. Lakudo, Kabupaten Buton",SULAWESI TENGGARA,93763.0,Indonesia,,,,-5.3895259,122.5255669,https://maps.google.com/?cid=0x0:0x1927db392d5283f1,
mall,Toko Swalayan,KIOS ERLIN,"QGXG+Q4G, Lakapera, Kec. Gu, Kabupaten Buton, Sulawesi Tenggara","Kabupaten Buton, Sulawesi Tenggara",SULAWESI TENGGARA,,Indonesia,,,,-5.2005724,122.5253352,https://maps.google.com/?cid=0x0:0x4f52e644237e973e,
mall,Toko Perbaikan Ponsel,AZKAPHONE LOMBE 2,"PHXG+5W8, Bombonawulu, Kec. Gu, Kabupaten Buton, Sulawesi Tenggara 93761","Bombonawulu, Kec. Gu, Kabupaten Buton",SULAWESI TENGGARA,93761.0,Indonesia,,,,-5.2520798,122.5773365,https://maps.google.com/?cid=0x0:0xfd2dbdd43ba2ab9b,
mall,Pusat Perbelanjaan,Lippo Plaza Kendari,"Jl. Jenderal M.t. Haryono No.61 - 63, Bende, Kec. Kadia, Kota Kendari, Sulawesi Tenggara 93117","Bende, Kec. Kadia, Kota Kendari",SULAWESI TENGGARA,93117.0,Indonesia,4013196500.0,,,-3.9921675,122.5122065,https://maps.google.com/?cid=0x0:0x3216add04ddfc0d3,
mall,Pusat Perbelanjaan,MULTIMEDIA BAUBAU04,"Jl. Batara Guru No.83, Wajo, Kec. Murhum, Kota Bau-Bau, Sulawesi Tenggara 93717","Wajo, Kec. Murhum, Kota Bau-Bau",SULAWESI TENGGARA,93717.0,Indonesia,82292785898.0,,,-5.462573,122.6048978,https://maps.google.com/?cid=0x0:0x64b416d1bbc12d56,
mall,Pasar,Pasar Sore Lakorua,"M99F+F2W, Lakorua, Kec. Mawasangka Tengah, Buton Tengah, Sulawesi Tenggara","Buton Tengah, Sulawesi Tenggara",SULAWESI TENGGARA,,Indonesia,,,,-5.3312532,122.3725894,https://maps.google.com/?cid=0x0:0x5ae5a79968789be4,
mall,Kantor Pemerintah Distrik,KANTOR KEL. GU TIMUR,"MGGP+XP4, Wongko Lakudo, Kec. Lakudo, Kabupaten Buton, Sulawesi Tenggara","Kabupaten Buton, Sulawesi Tenggara",SULAWESI TENGGARA,,Indonesia,,,,-5.322605,122.5368326,https://maps.google.com/?cid=0x0:0x63db3ddf898d4262,
mall,Toko,Kampoeng Lombe Store,"PHXG+JQP, Jl. Yos Sudarso, Bombonawulu, Kec. Gu, Kabupaten Buton, Sulawesi Tenggara 93761","Jl. Yos Sudarso, Bombonawulu, Kec. Gu, Kabupaten Buton",SULAWESI TENGGARA,93761.0,Indonesia,,,,-5.2509221,122.5769476,https://maps.google.com/?cid=0x0:0xa89a3873df5e96b,
mall,Tempat Cukur Rambut,Pangkas rambut madura,"PHXG+JQ4, Jl. Yos Sudarso, Bombonawulu, Kec. Gu, Kabupaten Buton, Sulawesi Tenggara 93761","Jl. Yos Sudarso, Bombonawulu, Kec. Gu, Kabupaten Buton",SULAWESI TENGGARA,93761.0,Indonesia,,,,-5.2495273,122.5765464,https://maps.google.com/?cid=0x0:0xc17186f4d8cb0e91,
mall,Toko,Toko Iksan,"PHXH+525, Bombonawulu, Kec. Gu, Kabupaten Buton, Sulawesi Tenggara 93761","Bombonawulu, Kec. Gu, Kabupaten Buton",SULAWESI TENGGARA,93761.0,Indonesia,82231456521.0,,,-5.2521026,122.5776172,https://maps.google.com/?cid=0x0:0x9ff211e2fec7dd94,
mall,Peternakan Ayam,Peternakan Ayam Petelur Mansur Amila,"JG7G+MR2, Boneoge, Kec. Lakudo, Kabupaten Buton, Sulawesi Tenggara 93763","Boneoge, Kec. Lakudo, Kabupaten Buton",SULAWESI TENGGARA,93763.0,Indonesia,,,,-5.3858648,122.5270284,https://maps.google.com/?cid=0x0:0x6d8dad620cd56519,
mall,mall,Mawasangka,"Mawasangka, Kec. Mawasangka, Kabupaten Buton, Sulawesi Tenggara","Kabupaten Buton, Sulawesi Tenggara",SULAWESI TENGGARA,,Indonesia,,,,-5.290863,122.298897,https://maps.google.com/?cid=0x0:0x6eab10a86a088341,
mall,Gudang,Pusat belanja,"M8X4+P9V, Mawasangka, Kec. Mawasangka, Kabupaten Buton, Sulawesi Tenggara 93762","Mawasangka, Kec. Mawasangka, Kabupaten Buton",SULAWESI TENGGARA,93762.0,Indonesia,,,,-5.3006582,122.3060036,https://maps.google.com/?cid=0x0:0xfc4559ab0e8be53c,
mall,Toko bahan makanan,SA Cellular,"M738+HQ7, Wakambangura, Kec. Mawasangka, Kabupaten Buton, Sulawesi Tenggara 93762","Wakambangura, Kec. Mawasangka, Kabupaten Buton",SULAWESI TENGGARA,93762.0,Indonesia,82299919216.0,,,-5.3460816,122.2669711,https://maps.google.com/?cid=0x0:0x11f2c799f6c88c39,
mall,Pusat Perbelanjaan,Lippo Plaza Baubau,"GJQ9+JR2, Batulo, Kec. Wolio, Kota Bau-Bau, Sulawesi Tenggara 93716","Batulo, Kec. Wolio, Kota Bau-Bau",SULAWESI TENGGARA,93716.0,Indonesia,,,,-5.4609875,122.6195156,https://maps.google.com/?cid=0x0:0xa36840a3dba9c932,
mall,Pusat Perbelanjaan,Toko Fika,"M9HP+X9Q, Lalibo, Kec. Mawasangka Tengah, Kabupaten Buton, Sulawesi Tenggara","Kabupaten Buton, Sulawesi Tenggara",SULAWESI TENGGARA,,Indonesia,,,,-5.3200475,122.3859932,https://maps.google.com/?cid=0x0:0x67096f5d9ef31a6,
mall,Pusat Perbelanjaan,Toko Ika,"M9CF+C4H, Lakorua, Kec. Mawasangka Tengah, Kabupaten Buton Tengah, Sulawesi Tenggara","Kabupaten Buton Tengah, Sulawesi Tenggara",SULAWESI TENGGARA,,Indonesia,,,,-5.3289251,122.3728697,https://maps.google.com/?cid=0x0:0xd250ab60b7fc8fce,
mall,mall,Toko Monica,"P75J+8RM, Watolo, Kec. Mawasangka, Kabupaten Buton, Sulawesi Tenggara 93762","Watolo, Kec. Mawasangka, Kabupaten Buton",SULAWESI TENGGARA,93762.0,Indonesia,,,,-5.2916639,122.2820505,https://maps.google.com/?cid=0x0:0xfcd4e76c21caa613,
mall,Pasar tradisional,Pasar Baru Mawasangka,"P75J+8RM, Watolo, Kec. Mawasangka, Kabupaten Buton, Sulawesi Tenggara 93762","Watolo, Kec. Mawasangka, Kabupaten Buton",SULAWESI TENGGARA,93762.0,Indonesia,,,,-5.2915511,122.2818798,https://maps.google.com/?cid=0x0:0x852661d4af9acd6d,
mall,Toko Swalayan,Lestari Alshoop,"P79W+5WG, Mawasangka, Kec. Mawasangka, Kabupaten Buton, Sulawesi Tenggara 93762","Mawasangka, Kec. Mawasangka, Kabupaten Buton",SULAWESI TENGGARA,93762.0,Indonesia,82353086189.0,,,-5.2820627,122.297333,https://maps.google.com/?cid=0x0:0xe89e0c525ab5dcb0,
mall,Toko bahan makanan,Toko Abit,"P75J+8RM, Watolo, Kec. Mawasangka, Kabupaten Buton, Sulawesi Tenggara 93762","Watolo, Kec. Mawasangka, Kabupaten Buton",SULAWESI TENGGARA,93762.0,Indonesia,,,,-5.2916547,122.2820599,https://maps.google.com/?cid=0x0:0xbba8becbac8635c2,
mall,Pusat Perbelanjaan,Innagallery,"P7CR+2P9, Depan kampus USN BUTON TENGAH(PUSKESMAS LAMA)MOLUNO, Mawasangka, INDUK, Kabupaten Buton, Sulawesi Tenggara 93762","Depan kampus USN BUTON TENGAH(PUSKESMAS LAMA)MOLUNO, Mawasangka, INDUK, Kabupaten Buton",SULAWESI TENGGARA,93762.0,Indonesia,82132761803.0,,,-5.2799568,122.2918704,https://maps.google.com/?cid=0x0:0xb82f03a10e9fd713,
mall,Minimarket,Toko RIZQYAH,"P77Q+XCP, Mawasangka, Kec. Mawasangka, Kabupaten Buton, Sulawesi Tenggara 93762","Mawasangka, Kec. Mawasangka, Kabupaten Buton",SULAWESI TENGGARA,93762.0,Indonesia,,,,-5.2850312,122.2885718,https://maps.google.com/?cid=0x0:0x57adf18ddc4580f1,
mall,Toko Pakaian,Toko Inang,"M9GH+MCP, Lanto, Kec. Mawasangka Tengah, Kabupaten Buton, Sulawesi Tenggara","Kabupaten Buton, Sulawesi Tenggara",SULAWESI TENGGARA,,Indonesia,,,,-5.3232808,122.3785678,https://maps.google.com/?cid=0x0:0x1e661cc27a400cff,
mall,Toko bahan makanan,Pasar Swalayan Cahaya Andaba Mart,"P823+VFR, Mawasangka, Kec. Mawasangka, Kabupaten Buton, Sulawesi Tenggara 93762","Mawasangka, Kec. Mawasangka, Kabupaten Buton",SULAWESI TENGGARA,93762.0,Indonesia,,,,-5.2977823,122.3036241,https://maps.google.com/?cid=0x0:0x42760c7ddd0db997,
mall,Pusat Perbelanjaan,Innagallery 2,"Mawasangka, Kec. Mawasangka, Kabupaten Buton, Sulawesi Tenggara 93762","Kec. Mawasangka, Kabupaten Buton",SULAWESI TENGGARA,93762.0,Indonesia,85242725888.0,,,-5.2813506,122.2908964,https://maps.google.com/?cid=0x0:0xbe30bf251d6cf637,
mall,mall,Sulawesi Tenggara 93762,"Kabupaten Buton, Sulawesi Tenggara","Kabupaten Buton, Sulawesi Tenggara",SULAWESI TENGGARA,,Indonesia,,,,-5.291781,122.3787597,https://maps.google.com/?cid=0x0:0x29d13fe4e83e4ba7,
mall,Toko bahan makanan,Pasar Swalayan Cahaya Andaba Mart,"P823+VFR, Mawasangka, Kec. Mawasangka, Kabupaten Buton, Sulawesi Tenggara 93762","Mawasangka, Kec. Mawasangka, Kabupaten Buton",SULAWESI TENGGARA,93762.0,Indonesia,,,,-5.2977823,122.3036241,https://maps.google.com/?cid=0x0:0x42760c7ddd0db997,
mall,Pusat Perbelanjaan,TOKO MITRA PUTRA,"Lakorua, Kec. Mawasangka Tengah, Kabupaten Buton tengah, Sulawesi Tenggara 93762","Kec. Mawasangka Tengah, Kabupaten Buton tengah",SULAWESI TENGGARA,93762.0,Indonesia,81341510379.0,,,-5.3299754,122.370156,https://maps.google.com/?cid=0x0:0xcaca35992ba160,
mall,Pusat Perbelanjaan,Innagallery,"P7CR+2P9, Depan kampus USN BUTON TENGAH(PUSKESMAS LAMA)MOLUNO, Mawasangka, INDUK, Kabupaten Buton, Sulawesi Tenggara 93762","Depan kampus USN BUTON TENGAH(PUSKESMAS LAMA)MOLUNO, Mawasangka, INDUK, Kabupaten Buton",SULAWESI TENGGARA,93762.0,Indonesia,82132761803.0,,,-5.2799568,122.2918704,https://maps.google.com/?cid=0x0:0xb82f03a10e9fd713,
mall,Toko bahan makanan,Kios darli,"M995+3HJ, Lantongau, Kec. Mawasangka Tengah, Kabupaten Buton, Sulawesi Tenggara 93762","Lantongau, Kec. Mawasangka Tengah, Kabupaten Buton",SULAWESI TENGGARA,93762.0,Indonesia,,,,-5.3322994,122.3588793,https://maps.google.com/?cid=0x0:0x703f8b79c858f0d4,
mall,Komplek perumahan,Pasar Watorumbe,"J9GH+R95, Watorumbe, Kec. Mawasangka Tengah, kabupaten buton tengah, Sulawesi Tenggara","kabupaten buton tengah, Sulawesi Tenggara",SULAWESI TENGGARA,,Indonesia,,,,-5.3729894,122.3785,https://maps.google.com/?cid=0x0:0x865ec41afc911638,
mall,Toko Swalayan,Lestari Alshoop,"P79W+5WG, Mawasangka, Kec. Mawasangka, Kabupaten Buton, Sulawesi Tenggara 93762","Mawasangka, Kec. Mawasangka, Kabupaten Buton",SULAWESI TENGGARA,93762.0,Indonesia,82353086189.0,,,-5.2820627,122.297333,https://maps.google.com/?cid=0x0:0xe89e0c525ab5dcb0,
mall,Toko bahan makanan,Toko Abit,"P75J+8RM, Watolo, Kec. Mawasangka, Kabupaten Buton, Sulawesi Tenggara 93762","Watolo, Kec. Mawasangka, Kabupaten Buton",SULAWESI TENGGARA,93762.0,Indonesia,,,,-5.2916547,122.2820599,https://maps.google.com/?cid=0x0:0xbba8becbac8635c2,
mall,Pasar,Pasar Sore Lakorua,"M99F+F2W, Lakorua, Kec. Mawasangka Tengah, Buton Tengah, Sulawesi Tenggara","Buton Tengah, Sulawesi Tenggara",SULAWESI TENGGARA,,Indonesia,,,,-5.3312532,122.3725894,https://maps.google.com/?cid=0x0:0x5ae5a79968789be4,
mall,Toko,Toko Ipman Lamena,"Desa Lasori, Mawasangka Tim., Buton Tengah, Sulawesi Tenggara 93765","Mawasangka Tim., Buton Tengah",SULAWESI TENGGARA,93765.0,Indonesia,82291696494.0,,,-5.3999778,122.4547877,https://maps.google.com/?cid=0x0:0x9d0f2ce7ea042510,
mall,Minimarket,Kios Laraja,"J9JH+FHC, Watorumbe Bata, Kec. Mawasangka Tengah, Kabupaten Buton, Sulawesi Tenggara 93762","Watorumbe Bata, Kec. Mawasangka Tengah, Kabupaten Buton",SULAWESI TENGGARA,93762.0,Indonesia,,,,-5.3688006,122.3788981,https://maps.google.com/?cid=0x0:0x207539d3d26beec4,
mall,Pusat Perbelanjaan,Toko FILDA.R,"Desa Watorumbe Bata kec.mawasangka Tengah, Kab.Buton Tengah, Kec. Mawasangka Tengah, Buton Tengah, Sulawesi Tenggara 93764","Kab.Buton Tengah, Kec. Mawasangka Tengah, Buton Tengah",SULAWESI TENGGARA,93764.0,Indonesia,,,,-5.3663128,122.3792474,https://maps.google.com/?cid=0x0:0xb4ed2d21a0557051,
mall,Toko,Toko mama ladaru,"M9GF+4Q7, Lanto, Kec. Mawasangka Tengah, Kabupaten Buton, Sulawesi Tenggara","Kabupaten Buton, Sulawesi Tenggara",SULAWESI TENGGARA,,Indonesia,81341542056.0,,,-5.3247006,122.3744339,https://maps.google.com/?cid=0x0:0xc0e2f296b50ca68,
mall,Pusat Perbelanjaan,Toko Ika,"M9CF+C4H, Lakorua, Kec. Mawasangka Tengah, Kabupaten Buton Tengah, Sulawesi Tenggara","Kabupaten Buton Tengah, Sulawesi Tenggara",SULAWESI TENGGARA,,Indonesia,,,,-5.3289251,122.3728697,https://maps.google.com/?cid=0x0:0xd250ab60b7fc8fce,
mall,Toko,Rumah nenek suryadi,"M8H7+CPH, Unnamed Road, Wasilomata I, Kec. Mawasangka, Kabupaten Buton, Sulawesi Tenggara 93762","Unnamed Road, Wasilomata I, Kec. Mawasangka, Kabupaten Buton",SULAWESI TENGGARA,93762.0,Indonesia,85393039219.0,,,-5.3214388,122.3143709,https://maps.google.com/?cid=0x0:0xa2fe72dc43c5f587,
mall,Toko bahan makanan,SA Cellular,"M738+HQ7, Wakambangura, Kec. Mawasangka, Kabupaten Buton, Sulawesi Tenggara 93762","Wakambangura, Kec. Mawasangka, Kabupaten Buton",SULAWESI TENGGARA,93762.0,Indonesia,82299919216.0,,,-5.3460816,122.2669711,https://maps.google.com/?cid=0x0:0x11f2c799f6c88c39,
mall,Gudang,Pusat belanja,"M8X4+P9V, Mawasangka, Kec. Mawasangka, Kabupaten Buton, Sulawesi Tenggara 93762","Mawasangka, Kec. Mawasangka, Kabupaten Buton",SULAWESI TENGGARA,93762.0,Indonesia,,,,-5.3006582,122.3060036,https://maps.google.com/?cid=0x0:0xfc4559ab0e8be53c,
mall,Grosir aksesori elektronik,Nono Cell,"lingkungan padat karya, Watolo, Kec. Mawasangka, Kabupaten Buton, Sulawesi Tenggara 93762","Watolo, Kec. Mawasangka, Kabupaten Buton",SULAWESI TENGGARA,93762.0,Indonesia,85335112473.0,,,-5.2882163,122.2864144,https://maps.google.com/?cid=0x0:0x517ad979becebae6,
mall,Toko Pakaian,Toko Inang,"M9GH+MCP, Lanto, Kec. Mawasangka Tengah, Kabupaten Buton, Sulawesi Tenggara","Kabupaten Buton, Sulawesi Tenggara",SULAWESI TENGGARA,,Indonesia,,,,-5.3232808,122.3785678,https://maps.google.com/?cid=0x0:0x1e661cc27a400cff,
mall,Pusat Perbelanjaan,Toko Fika,"M9HP+X9Q, Lalibo, Kec. Mawasangka Tengah, Kabupaten Buton, Sulawesi Tenggara","Kabupaten Buton, Sulawesi Tenggara",SULAWESI TENGGARA,,Indonesia,,,,-5.3200475,122.3859932,https://maps.google.com/?cid=0x0:0x67096f5d9ef31a6,
mall,Pasar tradisional,Pasar Baru Mawasangka,"P75J+8RM, Watolo, Kec. Mawasangka, Kabupaten Buton, Sulawesi Tenggara 93762","Watolo, Kec. Mawasangka, Kabupaten Buton",SULAWESI TENGGARA,93762.0,Indonesia,,,,-5.2915511,122.2818798,https://maps.google.com/?cid=0x0:0x852661d4af9acd6d,
mall,Minimarket,Toko RIZQYAH,"P77Q+XCP, Mawasangka, Kec. Mawasangka, Kabupaten Buton, Sulawesi Tenggara 93762","Mawasangka, Kec. Mawasangka, Kabupaten Buton",SULAWESI TENGGARA,93762.0,Indonesia,,,,-5.2850312,122.2885718,https://maps.google.com/?cid=0x0:0x57adf18ddc4580f1,
mall,Toko Perlengkapan Rumah,Toko jum jum,"M9GH+G7P, Lanto, Kec. Mawasangka Tengah, Kabupaten Buton, Sulawesi Tenggara","Kabupaten Buton, Sulawesi Tenggara",SULAWESI TENGGARA,,Indonesia,85256771518.0,,,-5.323657,122.3781907,https://maps.google.com/?cid=0x0:0x209ef4efa30f4a25,
mall,mall,Mawasangka Tim.,"Kabupaten Buton, Sulawesi Tenggara","Kabupaten Buton, Sulawesi Tenggara",SULAWESI TENGGARA,,Indonesia,,,,-5.3611739,122.424074,https://maps.google.com/?cid=0x0:0xf58d05571c4d04f4,
mall,Komplek perumahan,Pasar Watorumbe,"J9GH+R95, Watorumbe, Kec. Mawasangka Tengah, kabupaten buton tengah, Sulawesi Tenggara","kabupaten buton tengah, Sulawesi Tenggara",SULAWESI TENGGARA,,Indonesia,,,,-5.3729894,122.3785,https://maps.google.com/?cid=0x0:0x865ec41afc911638,
mall,Toko,Toko Ipman Lamena,"Desa Lasori, Mawasangka Tim., Buton Tengah, Sulawesi Tenggara 93765","Mawasangka Tim., Buton Tengah",SULAWESI TENGGARA,93765.0,Indonesia,82291696494.0,,,-5.3999778,122.4547877,https://maps.google.com/?cid=0x0:0x9d0f2ce7ea042510,
mall,Pusat Perbelanjaan,Toko FILDA.R,"Desa Watorumbe Bata kec.mawasangka Tengah, Kab.Buton Tengah, Kec. Mawasangka Tengah, Buton Tengah, Sulawesi Tenggara 93764","Kab.Buton Tengah, Kec. Mawasangka Tengah, Buton Tengah",SULAWESI TENGGARA,93764.0,Indonesia,,,,-5.3663128,122.3792474,https://maps.google.com/?cid=0x0:0xb4ed2d21a0557051,
mall,Pusat Perbelanjaan,Toko Fika,"M9HP+X9Q, Lalibo, Kec. Mawasangka Tengah, Kabupaten Buton, Sulawesi Tenggara","Kabupaten Buton, Sulawesi Tenggara",SULAWESI TENGGARA,,Indonesia,,,,-5.3200475,122.3859932,https://maps.google.com/?cid=0x0:0x67096f5d9ef31a6,
mall,Toko Swalayan,Es Cream Kamelia,"M9JQ+8WG, Unnamed Road, Lalibo, Kec. Mawasangka Tengah, Kabupaten Buton, Sulawesi Tenggara","Kabupaten Buton, Sulawesi Tenggara",SULAWESI TENGGARA,,Indonesia,85232017613.0,,,-5.3191897,122.3898337,https://maps.google.com/?cid=0x0:0x59ce245d131ee16c,
mall,Toko bahan makanan,Toko Abit,"P75J+8RM, Watolo, Kec. Mawasangka, Kabupaten Buton, Sulawesi Tenggara 93762","Watolo, Kec. Mawasangka, Kabupaten Buton",SULAWESI TENGGARA,93762.0,Indonesia,,,,-5.2916547,122.2820599,https://maps.google.com/?cid=0x0:0xbba8becbac8635c2,
mall,Toko bahan makanan,SA Cellular,"M738+HQ7, Wakambangura, Kec. Mawasangka, Kabupaten Buton, Sulawesi Tenggara 93762","Wakambangura, Kec. Mawasangka, Kabupaten Buton",SULAWESI TENGGARA,93762.0,Indonesia,82299919216.0,,,-5.3460816,122.2669711,https://maps.google.com/?cid=0x0:0x11f2c799f6c88c39,
mall,Gudang,Pusat belanja,"M8X4+P9V, Mawasangka, Kec. Mawasangka, Kabupaten Buton, Sulawesi Tenggara 93762","Mawasangka, Kec. Mawasangka, Kabupaten Buton",SULAWESI TENGGARA,93762.0,Indonesia,,,,-5.3006582,122.3060036,https://maps.google.com/?cid=0x0:0xfc4559ab0e8be53c,
mall,Toko,Toko yadin,"M9JM+3GX, Unnamed Road, Lalibo, Kec. Mawasangka Tengah, Kabupaten Buton, Sulawesi Tenggara","Kabupaten Buton, Sulawesi Tenggara",SULAWESI TENGGARA,,Indonesia,85399912431.0,,,-5.3197574,122.3838539,https://maps.google.com/?cid=0x0:0x6aebecbe3fe9691e,
mall,Pusat Perbelanjaan,Lippo Plaza Baubau,"GJQ9+JR2, Batulo, Kec. Wolio, Kota Bau-Bau, Sulawesi Tenggara 93716","Batulo, Kec. Wolio, Kota Bau-Bau",SULAWESI TENGGARA,93716.0,Indonesia,,,,-5.4609875,122.6195156,https://maps.google.com/?cid=0x0:0xa36840a3dba9c932,
mall,Pusat Perbelanjaan,Toko Ika,"M9CF+C4H, Lakorua, Kec. Mawasangka Tengah, Kabupaten Buton Tengah, Sulawesi Tenggara","Kabupaten Buton Tengah, Sulawesi Tenggara",SULAWESI TENGGARA,,Indonesia,,,,-5.3289251,122.3728697,https://maps.google.com/?cid=0x0:0xd250ab60b7fc8fce,
mall,Pusat Perbelanjaan,Toko Reli,"M9HR+W2J, Lalibo, Kec. Mawasangka Tengah, Kabupaten Buton, Sulawesi Tenggara","Kabupaten Buton, Sulawesi Tenggara",SULAWESI TENGGARA,,Indonesia,,,,-5.3201512,122.3900214,https://maps.google.com/?cid=0x0:0xadead038421fde56,
mall,mall,Conter 3Februari,"HFX3+9R4, Unnamed Road, Inulu, Mawasangka Tim., Kabupaten Buton, Sulawesi Tenggara 93762","Unnamed Road, Inulu, Mawasangka Tim., Kabupaten Buton",SULAWESI TENGGARA,93762.0,Indonesia,,,,-5.4016072,122.4545918,https://maps.google.com/?cid=0x0:0xa92ca113abe61453,
mall,mall,Sayur Masak,"J9MJ+642, Watorumbe Bata, Kec. Mawasangka Tengah, Kabupaten Buton, Sulawesi Tenggara","Kabupaten Buton, Sulawesi Tenggara",SULAWESI TENGGARA,,Indonesia,81342992575.0,,,-5.3669936,122.3802505,https://maps.google.com/?cid=0x0:0x40b7a069a0c87afd,
mall,Toko Pakaian,Toko Inang,"M9GH+MCP, Lanto, Kec. Mawasangka Tengah, Kabupaten Buton, Sulawesi Tenggara","Kabupaten Buton, Sulawesi Tenggara",SULAWESI TENGGARA,,Indonesia,,,,-5.3232808,122.3785678,https://maps.google.com/?cid=0x0:0x1e661cc27a400cff,
mall,Pusat Perbelanjaan,Innagallery 2,"Mawasangka, Kec. Mawasangka, Kabupaten Buton, Sulawesi Tenggara 93762","Kec. Mawasangka, Kabupaten Buton",SULAWESI TENGGARA,93762.0,Indonesia,85242725888.0,,,-5.2813506,122.2908964,https://maps.google.com/?cid=0x0:0xbe30bf251d6cf637,
mall,Pusat Perbelanjaan,Innagallery,"P7CR+2P9, Depan kampus USN BUTON TENGAH(PUSKESMAS LAMA)MOLUNO, Mawasangka, INDUK, Kabupaten Buton, Sulawesi Tenggara 93762","Depan kampus USN BUTON TENGAH(PUSKESMAS LAMA)MOLUNO, Mawasangka, INDUK, Kabupaten Buton",SULAWESI TENGGARA,93762.0,Indonesia,82132761803.0,,,-5.2799568,122.2918704,https://maps.google.com/?cid=0x0:0xb82f03a10e9fd713,
mall,mall,Kios Mita,"J9JJ+Q3W, Watorumbe Bata, Kec. Mawasangka Tengah, Kabupaten Buton, Sulawesi Tenggara 93762","Watorumbe Bata, Kec. Mawasangka Tengah, Kabupaten Buton",SULAWESI TENGGARA,93762.0,Indonesia,,,,-5.368021,122.380212,https://maps.google.com/?cid=0x0:0xcfd6af72d4274441,
mall,Toko,Pesisir,"PGCC+J94, Moko, Kec. Lakudo, Kabupaten Buton, Sulawesi Tenggara 93763","Moko, Kec. Lakudo, Kabupaten Buton",SULAWESI TENGGARA,93763.0,Indonesia,,,,-5.2789756,122.5207488,https://maps.google.com/?cid=0x0:0x6fd2429d1ddf0726,
mall,mall,Sulawesi Tenggara 93761,"Kec. Gu, Kabupaten Buton, Sulawesi Tenggara","Kabupaten Buton, Sulawesi Tenggara",SULAWESI TENGGARA,,Indonesia,,,,-5.2702397,122.593828,https://maps.google.com/?cid=0x0:0xe714ef696c5af545,
mall,Pusat Perbelanjaan,UMNA WOLIO PLAZA,"GJV3+VQ4, umna wolio plaza, Sulawesi Tenggara 93711",umna wolio plaza,SULAWESI TENGGARA,93711.0,Indonesia,,,,-5.4553515,122.6044539,https://maps.google.com/?cid=0x0:0xf416e74b3da1f66b,
mall,mall,Pasar Dolango,"JJRQ+X3X, Unnamed Road, Baruta, Kec. Sangia Wambulu, Kabupaten Buton, Sulawesi Tenggara","Kabupaten Buton, Sulawesi Tenggara",SULAWESI TENGGARA,,Indonesia,,,,-5.3575148,122.6377489,https://maps.google.com/?cid=0x0:0x560cee679dd32143,
mall,mall,Sulawesi Tenggara,,Sulawesi Tenggara,SULAWESI TENGGARA,,Indonesia,,,,-4.14491,122.174605,https://maps.google.com/?cid=0x0:0x621d7c439f04a4ed,
mall,Pusat Perbelanjaan,fayola Store Rantegola,"6XFP+G3J, Ronta, Kec. Bonegunu, Kabupaten Buton Utara, Sulawesi Tenggara 93673","Ronta, Kec. Bonegunu, Kabupaten Buton Utara",SULAWESI TENGGARA,93673.0,Indonesia,82189307930.0,,,-4.7761638,122.9851396,https://maps.google.com/?cid=0x0:0x7fb28ef5c0233e5f,
mall,Kompleks Apartemen,Mambulu,"FP8W+F2W, Sandang Pangan, Kec. Sampolawa, Kabupaten Buton, Sulawesi Tenggara","Kabupaten Buton, Sulawesi Tenggara",SULAWESI TENGGARA,,Indonesia,,,,-5.5337573,122.7450732,https://maps.google.com/?cid=0x0:0x9bcaae89cf18c55b,
mall,mall,Talaga Raya,"Kabupaten Buton, Sulawesi Tenggara","Kabupaten Buton, Sulawesi Tenggara",SULAWESI TENGGARA,,Indonesia,,,,-5.4213926,122.0155491,https://maps.google.com/?cid=0x0:0x2e35b700451321ba,
mall,Toko,Kios Indah,"G25W+QQM, Talaga Besar, Talaga Raya, Kabupaten Buton, Sulawesi Tenggara 93781","Talaga Besar, Talaga Raya, Kabupaten Buton",SULAWESI TENGGARA,93781.0,Indonesia,81241328006.0,,,-5.4905257,122.0469344,https://maps.google.com/?cid=0x0:0x3c926fd6a39b9cfa,
mall,Pusat Perbelanjaan,Naufal Kios,"G3CF+RVJ, Talaga I, Talaga Raya, Kabupaten Buton, Sulawesi Tenggara 93781","Talaga I, Talaga Raya, Kabupaten Buton",SULAWESI TENGGARA,93781.0,Indonesia,82292728176.0,,,-5.4779244,122.0746331,https://maps.google.com/?cid=0x0:0xc598e15643ed8ef7,
mall,mall,Toko abel,"G3CG+H6C, Unnamed Road, Talaga I, Talaga Raya, Kabupaten Buton, Sulawesi Tenggara 93781","Unnamed Road, Talaga I, Talaga Raya, Kabupaten Buton",SULAWESI TENGGARA,93781.0,Indonesia,,,,-5.4785652,122.0755209,https://maps.google.com/?cid=0x0:0x3ca2abe0a80a12ad,
mall,mall,Kios izzat,"G3CF+RV6, Talaga ll, Talaga I, Talaga Raya, Kabupaten Buton, Sulawesi Tenggara 93781","Talaga ll, Talaga I, Talaga Raya, Kabupaten Buton",SULAWESI TENGGARA,93781.0,Indonesia,82238550817.0,,,-5.4779532,122.0746529,https://maps.google.com/?cid=0x0:0x1121268cf43073fb,
mall,mall,Kios izzat,"G3FG+4C4, Talaga I, Talaga Raya, Kabupaten Buton, Sulawesi Tenggara 93781","Talaga I, Talaga Raya, Kabupaten Buton",SULAWESI TENGGARA,93781.0,Indonesia,82128995153.0,,,-5.4772389,122.0760688,https://maps.google.com/?cid=0x0:0x1762f3de61c82b50,
mall,Toko,Kios Nurfatma,"G352+GCW, Talaga Besar, Talaga Raya, Kabupaten Buton, Sulawesi Tenggara 93781","Talaga Besar, Talaga Raya, Kabupaten Buton",SULAWESI TENGGARA,93781.0,Indonesia,81340305229.0,,,-5.4911494,122.0510637,https://maps.google.com/?cid=0x0:0xe773d0b8b2f61075,
mall,Minimarket,Kios Acen dede,"G3CG+Q8F, Unnamed Road, Talaga I, Talaga Raya, Kabupaten Buton, Sulawesi Tenggara 93781","Unnamed Road, Talaga I, Talaga Raya, Kabupaten Buton",SULAWESI TENGGARA,93781.0,Indonesia,85399505080.0,,,-5.4780514,122.0757852,https://maps.google.com/?cid=0x0:0x185e3e145a1dbe1,
mall,Toko sembako pemerintah,Minimarket KUD Mina Bahari Talaga1,"Talaga I, Talaga Raya, Buton Tengah, Sulawesi Tenggara 93783","Talaga Raya, Buton Tengah",SULAWESI TENGGARA,93783.0,Indonesia,,,,-5.4734688,122.0747191,https://maps.google.com/?cid=0x0:0xef474c0938c9abb6,
mall,Pusat Perbelanjaan,Kios Sinar Jaya,"H2H8+C6V, Wulu, Talaga Raya, Kabupaten Buton, Sulawesi Tenggara","Kabupaten Buton, Sulawesi Tenggara",SULAWESI TENGGARA,,Indonesia,,,,-5.4213926,122.0155491,https://maps.google.com/?cid=0x0:0x22d979ae7715bbe8,
mall,mall,Toko WAHAB,"G3GF+9WW, Talaga I, Talaga Raya, Kabupaten Buton, Sulawesi Tenggara 93781","Talaga I, Talaga Raya, Kabupaten Buton",SULAWESI TENGGARA,93781.0,Indonesia,,,,-5.474,122.0748254,https://maps.google.com/?cid=0x0:0xfa8d1f4843d99173,
mall,mall,KIOS SYAKTI16,"G3GF+3RV, Talaga I, Talaga Raya, Kabupaten Buton, Sulawesi Tenggara 93781","Talaga I, Talaga Raya, Kabupaten Buton",SULAWESI TENGGARA,93781.0,Indonesia,,,,-5.4747595,122.0745456,https://maps.google.com/?cid=0x0:0xebcf6d3fcf94f392,
supermarket,Pusat Perbelanjaan,Andaba Star Mart,"PHQ5+WG, Walando, Kec. Gu, Kabupaten Buton, Sulawesi Tenggara 93761","Walando, Kec. Gu, Kabupaten Buton",SULAWESI TENGGARA,93761.0,Indonesia,,,,-5.2601541,122.559203,https://maps.google.com/?cid=0x0:0x93f55e311fb6d9e9,
supermarket,supermarket,Sulawesi Tenggara 93761,"Kec. Gu, Kabupaten Buton, Sulawesi Tenggara","Kabupaten Buton, Sulawesi Tenggara",SULAWESI TENGGARA,,Indonesia,,,,-5.2702397,122.593828,https://maps.google.com/?cid=0x0:0xe714ef696c5af545,
supermarket,Toko bahan makanan,Pasar Swalayan Cahaya Andaba Mart,"P823+VFR, Mawasangka, Kec. Mawasangka, Kabupaten Buton, Sulawesi Tenggara 93762","Mawasangka, Kec. Mawasangka, Kabupaten Buton",SULAWESI TENGGARA,93762.0,Indonesia,,,,-5.2977823,122.3036241,https://maps.google.com/?cid=0x0:0x42760c7ddd0db997,
supermarket,Toko Pakaian,Pasar Lombe,"PHXG+3X9, Pasar Lombe, Bombonawulu, Kec. Gu, Kabupaten Buton, Sulawesi Tenggara 93761","Pasar Lombe, Bombonawulu, Kec. Gu, Kabupaten Buton",SULAWESI TENGGARA,93761.0,Indonesia,,,,-5.252328,122.5774717,https://maps.google.com/?cid=0x0:0x8908c50e37c5e64c,
supermarket,Toko,Kios aser,"QGQQ+6JJ, Jl. A. Yani, Lakapera, Kec. Gu, Kabupaten Buton, Sulawesi Tenggara 93662","Jl. A. Yani, Lakapera, Kec. Gu, Kabupaten Buton",SULAWESI TENGGARA,93662.0,Indonesia,,,,-5.2119187,122.5390042,https://maps.google.com/?cid=0x0:0x20d73919950bee4e,
supermarket,Toko,Kios vita,"MJ59+M53, Kolowa, Kec. Gu, Kabupaten Buton, Sulawesi Tenggara 93761","Kolowa, Kec. Gu, Kabupaten Buton",SULAWESI TENGGARA,93761.0,Indonesia,,,,-5.3399737,122.6175328,https://maps.google.com/?cid=0x0:0xfe6da301ba4a5f46,
supermarket,Kios,Kios Awal,"PGGC+HWG kios awal, Moko, Kec. Lakudo, Kabupaten Buton, Sulawesi Tenggara 93763","Moko, Kec. Lakudo, Kabupaten Buton",SULAWESI TENGGARA,93763.0,Indonesia,81241344851.0,,,-5.2735552,122.5223341,https://maps.google.com/?cid=0x0:0xd3937b8d40622cb2,
supermarket,Toko Swalayan,NGESTI SUPERMARKET,"Jl. Raya Pajajaran No.3 ABC, RT.04/RW.02, Baranangsiang, Kec. Bogor Tim., Kota Bogor, Jawa Barat 16143","RT.04/RW.02, Baranangsiang, Kec. Bogor Tim., Kota Bogor",SULAWESI TENGGARA,16143.0,Indonesia,2518325615.0,,,-6.6028757,106.8056793,https://maps.google.com/?cid=0x0:0x75a8931ee9c73f78,
supermarket,Toko bahan makanan,Toko Agung Gs,"8VWH+VM9, Unnamed Road, Cipayung Datar, Kec. Megamendung, Kabupaten Bogor, Jawa Barat 16770","Unnamed Road, Cipayung Datar, Kec. Megamendung, Kabupaten Bogor",SULAWESI TENGGARA,16770.0,Indonesia,85864517060.0,,,-6.6528407,106.8792484,https://maps.google.com/?cid=0x0:0x315db7f9632aa07a,
supermarket,Toko Swalayan,GS Supermarket Legenda Wisata,"Blok T Cluster, Jl. Da Vinci Jl. Legenda Wisata Boulevard No.16, Nagrak, Kec. Gn. Putri, Kabupaten Bogor, Jawa Barat 16967","Jl. Da Vinci Jl. Legenda Wisata Boulevard No.16, Nagrak, Kec. Gn. Putri, Kabupaten Bogor",SULAWESI TENGGARA,16967.0,Indonesia,2122950333.0,,,-6.3910974,106.9480619,https://maps.google.com/?cid=0x0:0xd6b083eb344b5a12,
supermarket,Toko Swalayan,Gg Dirga,"9QHC+7CW, Gg. Damai, Parakan, Kec. Ciomas, Kabupaten Bogor, Jawa Barat 16610","Gg. Damai, Parakan, Kec. Ciomas, Kabupaten Bogor",SULAWESI TENGGARA,16610.0,Indonesia,,,,-6.6217599,106.7710707,https://maps.google.com/?cid=0x0:0xdf4615b67d00e540,
supermarket,Toko Swalayan,Warung ungu,"9V28+65F, Cipayung Datar, Kec. Megamendung, Kabupaten Bogor, Jawa Barat 16770","Cipayung Datar, Kec. Megamendung, Kabupaten Bogor",SULAWESI TENGGARA,16770.0,Indonesia,89680805454.0,,,-6.649435,106.8654329,https://maps.google.com/?cid=0x0:0x949695b8f7c48046,
supermarket,Toko Swalayan,Gs supermarket,"Jl. KH. Hasyim Ashari No.93, RT.002/RW.003, Poris Plawad Utara, Kec. Cipondoh, Kota Tangerang, Banten 15148","RT.002/RW.003, Poris Plawad Utara, Kec. Cipondoh, Kota Tangerang",SULAWESI TENGGARA,15148.0,Indonesia,2155712070.0,,,-6.1879187,106.661738,https://maps.google.com/?cid=0x0:0x86a83e6d17a220b2,
supermarket,Toko Swalayan,GS Supermarket Jatiasih,"GsSupermarket :, Jl. Wibawa Mukti II No.125, RT.002/ RW017/RW.017, Jatiasih, Kec. Jatiasih, Kota Bks, Jawa Barat 17423","Jl. Wibawa Mukti II No.125, RT.002/ RW017/RW.017, Jatiasih, Kec. Jatiasih, Kota Bks",SULAWESI TENGGARA,17423.0,Indonesia,2182736918.0,,,-6.3070579,106.955731,https://maps.google.com/?cid=0x0:0x74efd6ce433268e6,
supermarket,Toko Swalayan,GS The Fresh Mampang,"Jl. Buncit Raya No.301, Duren Tiga, Kec. Pancoran, Kota Jakarta Selatan, Daerah Khusus Ibukota Jakarta 12760","Duren Tiga, Kec. Pancoran, Kota Jakarta Selatan",SULAWESI TENGGARA,12760.0,Indonesia,2126961986.0,,,-6.256991,106.828987,https://maps.google.com/?cid=0x0:0x47a84d3b86619147,
supermarket,Toko bahan makanan,THE FRESH Supermarket,"Tajur, Kec. Bogor Tim., Kota Bogor, Jawa Barat","Kota Bogor, Jawa Barat",SULAWESI TENGGARA,,Indonesia,,,,-6.6311192,106.8248652,https://maps.google.com/?cid=0x0:0x729bd1d988949b37,
supermarket,Toko Swalayan,GS THE FRESH JATIBENING,"Jl. Caman Raya No.7-24, RT.004/RW.003, Jatibening, Kec. Pd. Gede, Kota Bks, Jawa Barat 17412","RT.004/RW.003, Jatibening, Kec. Pd. Gede, Kota Bks",SULAWESI TENGGARA,17412.0,Indonesia,2184982211.0,,,-6.2676455,106.9436409,https://maps.google.com/?cid=0x0:0x2cdb50c3ee3206c,
supermarket,Toko Swalayan,GS The Fresh Supermarket Kemang Pratama,"Linc Square Kemang Pratama, Jl. Kemang Pratama Raya, RT.004/RW.001, Bojong Rawalumbu, Kec. Rawalumbu, Kota Bks, Jawa Barat 17116","Jl. Kemang Pratama Raya, RT.004/RW.001, Bojong Rawalumbu, Kec. Rawalumbu, Kota Bks",SULAWESI TENGGARA,17116.0,Indonesia,2182416910.0,,,-6.2779418,106.9910558,https://maps.google.com/?cid=0x0:0x4ce692f4b9ef21ee,
supermarket,Toko Swalayan,GS The Fresh Alam Sutera,"Flavor Bliss, Jl. Alam Sutera Boulevard, Pakulonan, Kec. Serpong Utara, Kota Tangerang Selatan, Banten 15325","Jl. Alam Sutera Boulevard, Pakulonan, Kec. Serpong Utara, Kota Tangerang Selatan",SULAWESI TENGGARA,15325.0,Indonesia,2150200763.0,,,-6.2429576,106.6509779,https://maps.google.com/?cid=0x0:0x2e1e78cfe6fb23eb,
supermarket,supermarket,Sulawesi Tenggara 93763,"Kec. Lakudo, Kabupaten Buton, Sulawesi Tenggara","Kabupaten Buton, Sulawesi Tenggara",SULAWESI TENGGARA,,Indonesia,,,,-5.3531329,122.5598994,https://maps.google.com/?cid=0x0:0x62c2a15eea95dc2,
supermarket,Pasar,Pasar Tradisonal Lakudo,"MGPJ+F7P, Wongko Lakudo, Kec. Lakudo, Kabupaten Buton, Sulawesi Tenggara 93763","Wongko Lakudo, Kec. Lakudo, Kabupaten Buton",SULAWESI TENGGARA,93763.0,Indonesia,,,,-5.3137969,122.5307084,https://maps.google.com/?cid=0x0:0xf24495ddeb7247b4,
supermarket,Kios,Kios Awal,"PGGC+HWG kios awal, Moko, Kec. Lakudo, Kabupaten Buton, Sulawesi Tenggara 93763","Moko, Kec. Lakudo, Kabupaten Buton",SULAWESI TENGGARA,93763.0,Indonesia,81241344851.0,,,-5.2735552,122.5223341,https://maps.google.com/?cid=0x0:0xd3937b8d40622cb2,
supermarket,Toko Makanan,Kios mama ono,"PF5V+CR6, Lolibu, Kec. Lakudo, Kabupaten Buton, Sulawesi Tenggara","Kabupaten Buton, Sulawesi Tenggara",SULAWESI TENGGARA,,Indonesia,,,,-5.2914747,122.4945012,https://maps.google.com/?cid=0x0:0x74f35e48d38f7e3c,
supermarket,Toko Swalayan,Dua Sekawan swalayan lamangga,"GHHX+C74, Lamangga, Kec. Murhum, Kota Bau-Bau, Sulawesi Tenggara 93713","Lamangga, Kec. Murhum, Kota Bau-Bau",SULAWESI TENGGARA,93713.0,Indonesia,40223855.0,,,-5.4714996,122.5982133,https://maps.google.com/?cid=0x0:0xa6fdbccedf42bbc,
supermarket,Pusat Perbelanjaan,Andaba Star Mart,"PHQ5+WG, Walando, Kec. Gu, Kabupaten Buton, Sulawesi Tenggara 93761","Walando, Kec. Gu, Kabupaten Buton",SULAWESI TENGGARA,93761.0,Indonesia,,,,-5.2601541,122.559203,https://maps.google.com/?cid=0x0:0x93f55e311fb6d9e9,
supermarket,Pusat Perbelanjaan,Toko Ceria,"JG5G+24Q, Boneoge, Kec. Lakudo, Kabupaten Buton, Sulawesi Tenggara 93763","Boneoge, Kec. Lakudo, Kabupaten Buton",SULAWESI TENGGARA,93763.0,Indonesia,,,,-5.3924091,122.5253528,https://maps.google.com/?cid=0x0:0x4c149d0ebb9b44ed,
supermarket,Kios,Tokoh Sahrul lakudo,"MGJM+W92, Wongko Lakudo, Kec. Lakudo, Kabupaten Buton, Sulawesi Tenggara","Kabupaten Buton, Sulawesi Tenggara",SULAWESI TENGGARA,,Indonesia,82291629937.0,,,-5.3177357,122.5333974,https://maps.google.com/?cid=0x0:0x47365d61263a8f27,
supermarket,Kios,TOKO AIRAFAISH,"MGQJ+73X, Jl. Gersamata, Wongko Lakudo, Kec. Lakudo, Kabupaten Buton, Sulawesi Tenggara 93763","Jl. Gersamata, Wongko Lakudo, Kec. Lakudo, Kabupaten Buton",SULAWESI TENGGARA,93763.0,Indonesia,,,,-5.3118463,122.5304928,https://maps.google.com/?cid=0x0:0x2406e1b85cc0119d,
supermarket,Toko,Kios Hasan,"Bombonawulu, Kec. Gu, Lombe, Sulawesi Tenggara 93761","Kec. Gu, Lombe",SULAWESI TENGGARA,93761.0,Indonesia,,,,-5.2521827,122.5777004,https://maps.google.com/?cid=0x0:0xb467d8b38876da77,
supermarket,Toko Perlengkapan Rumah,Toko Liwanda,"Jl. Wr Monginsidi No.113, Bataraguru, Kec. Wolio, Kota Bau-Bau, Sulawesi Tenggara 93714","Bataraguru, Kec. Wolio, Kota Bau-Bau",SULAWESI TENGGARA,93714.0,Indonesia,4022823081.0,,,-5.4610429,122.60761,https://maps.google.com/?cid=0x0:0x290c86876b030200,
supermarket,Toko Perlengkapan Rumah,TOKO MEGA UTAMA,"GJV4+V3Q, Wale, Kec. Wolio, Kota Bau-Bau, Sulawesi Tenggara 93717","Wale, Kec. Wolio, Kota Bau-Bau",SULAWESI TENGGARA,93717.0,Indonesia,5255446128.0,,,-5.455296,122.6052295,https://maps.google.com/?cid=0x0:0x63e881c92a4e1dab,
supermarket,Toko Alat Tulis,Toko SINAR KENCANA,"Jl. Murhum No.95A, Wajo, Kec. Murhum, Kota Bau-Bau, Sulawesi Tenggara 93717","Wajo, Kec. Murhum, Kota Bau-Bau",SULAWESI TENGGARA,93717.0,Indonesia,4022811951.0,,,-5.464405,122.6015497,https://maps.google.com/?cid=0x0:0x1f19d35976f75198,
supermarket,Toko,TOKO DUTA MODEREN,"GHGR+M5V, Lipu, Kec. Betoambari, Kota Bau-Bau, Sulawesi Tenggara 93714","Lipu, Kec. Betoambari, Kota Bau-Bau",SULAWESI TENGGARA,93714.0,Indonesia,,,,-5.4732574,122.590425,https://maps.google.com/?cid=0x0:0xec3b66f66ec36bb,
supermarket,Toko Swalayan,MGM Swalayan Baubau,"GHPX+F5M, Jl. Betoambari, Tanganapada, Kec. Murhum, Kota Bau-Bau, Sulawesi Tenggara 93713","Jl. Betoambari, Tanganapada, Kec. Murhum, Kota Bau-Bau",SULAWESI TENGGARA,93713.0,Indonesia,,,,-5.4637881,122.5979087,https://maps.google.com/?cid=0x0:0x166f744cae826f4b,
supermarket,Toserba,Hypermart Lippo Plaza Baubau,"Jl. Sultan Hasanuddin, Batulo, Kec. Wolio, Kota Bau-Bau, Sulawesi Tenggara","Kota Bau-Bau, Sulawesi Tenggara",SULAWESI TENGGARA,,Indonesia,4022823895.0,,,-5.4609114,122.6201466,https://maps.google.com/?cid=0x0:0x6d97a28db9b15e8f,
supermarket,Taman Komunitas,KML Berjaya,"M9JP+8H7, Unnamed Road, Lalibo, Kec. Mawasangka Tengah, Kabupaten Buton, Sulawesi Tenggara","Kabupaten Buton, Sulawesi Tenggara",SULAWESI TENGGARA,,Indonesia,82331093834.0,,,-5.3192107,122.3864177,https://maps.google.com/?cid=0x0:0x1e55c40fb5f4ce0c,
supermarket,Toko Swalayan,Kios Anas,"RF5Q+J3M, Jalan poros Wale Ale - Matombura, Waleale, Kec. Tongkuno Sel., Kabupaten Muna, Sulawesi Tenggara 93662","Jalan poros Wale Ale - Matombura, Waleale, Kec. Tongkuno Sel., Kabupaten Muna",SULAWESI TENGGARA,93662.0,Indonesia,,,,-5.1909079,122.4876615,https://maps.google.com/?cid=0x0:0x2a095aaf7a7c11da,
supermarket,Toko,Kios aser,"QGQQ+6JJ, Jl. A. Yani, Lakapera, Kec. Gu, Kabupaten Buton, Sulawesi Tenggara 93662","Jl. A. Yani, Lakapera, Kec. Gu, Kabupaten Buton",SULAWESI TENGGARA,93662.0,Indonesia,,,,-5.2119187,122.5390042,https://maps.google.com/?cid=0x0:0x20d73919950bee4e,
supermarket,,Putri Grosir,"Jl. Moh. Husni Thamrin No.90, Bataraguru, Kec. Murhum, Kota Bau-Bau, Sulawesi Tenggara 93717","Bataraguru, Kec. Murhum, Kota Bau-Bau",SULAWESI TENGGARA,93717.0,Indonesia,,,,-5.4628786,122.6081494,https://maps.google.com/?cid=0x0:0xadd7bc3b55c9c52e,
supermarket,Toko Swalayan,Toko Senyum 5000 Baubau,"GJR2+3XJ, Jl. Murhum, Lanto, Kec. Murhum, Kota Bau-Bau, Sulawesi Tenggara","Kota Bau-Bau, Sulawesi Tenggara",SULAWESI TENGGARA,,Indonesia,,,,-5.4597876,122.6023797,https://maps.google.com/?cid=0x0:0xa9c6bf82f971a867,
supermarket,Toko bahan makanan,Toko Syukuriyah,"MCP8+92C, Langkomu, Kec. Mawasangka Tengah, Kabupaten Buton, Sulawesi Tenggara","Kabupaten Buton, Sulawesi Tenggara",SULAWESI TENGGARA,,Indonesia,,,,-5.3140687,122.4150172,https://maps.google.com/?cid=0x0:0x15a19cb4cb853038,
supermarket,Toko umum,Toko Kalam Suci 2,"GHHP+JQM, Bone-Bone, Kec. Murhum, Kota Bau-Bau, Sulawesi Tenggara 93714","Bone-Bone, Kec. Murhum, Kota Bau-Bau",SULAWESI TENGGARA,93714.0,Indonesia,,,,-5.4709003,122.5869132,https://maps.google.com/?cid=0x0:0xf8749a6ff608941c,
supermarket,Toko bahan makanan,Kios Asykar Lolibu,"Lolibu, Kec. Lakudo, Kabupaten Buton, Sulawesi Tenggara","Kabupaten Buton, Sulawesi Tenggara",SULAWESI TENGGARA,,Indonesia,,,,-5.288703,122.5015935,https://maps.google.com/?cid=0x0:0xf800c91a9119ec33,
supermarket,Toko,Kios fian,"MGHP+4CM, Wongko Lakudo, Kec. Lakudo, Kabupaten Buton, Sulawesi Tenggara","Kabupaten Buton, Sulawesi Tenggara",SULAWESI TENGGARA,,Indonesia,,,,-5.322317,122.5364503,https://maps.google.com/?cid=0x0:0x3a71673d29475612,
supermarket,Toko bahan makanan,Kios Isti Lolibu,"PF5V+4RP, Lolibu, Kec. Lakudo, Kabupaten Buton Tengah, Sulawesi Tenggara","Kabupaten Buton Tengah, Sulawesi Tenggara",SULAWESI TENGGARA,,Indonesia,822996250996.0,,,-5.2921601,122.4945831,https://maps.google.com/?cid=0x0:0x92bdad5148d69831,
supermarket,supermarket,Warung NOAH,"PGC9+QV3, Moko, Kec. Lakudo, Kabupaten Buton, Sulawesi Tenggara","Kabupaten Buton, Sulawesi Tenggara",SULAWESI TENGGARA,,Indonesia,,,,-5.2781112,122.5196872,https://maps.google.com/?cid=0x0:0x5906e3804ed27e95,
supermarket,Toko Swalayan,Ruko Mama Chali,"PGQM+CVV, Mone, Kec. Lakudo, Kabupaten Buton, Sulawesi Tenggara","Kabupaten Buton, Sulawesi Tenggara",SULAWESI TENGGARA,,Indonesia,,,,-5.2613882,122.53468,https://maps.google.com/?cid=0x0:0x6cd73a4c660cbee8,
supermarket,supermarket,Mawasangka,"Mawasangka, Kec. Mawasangka, Kabupaten Buton, Sulawesi Tenggara","Kabupaten Buton, Sulawesi Tenggara",SULAWESI TENGGARA,,Indonesia,,,,-5.290863,122.298897,https://maps.google.com/?cid=0x0:0x6eab10a86a088341,
supermarket,Toko bahan makanan,Swalayan OKE OCE,"P77P+9C8, Mawasangka, Kec. Mawasangka, Kabupaten Buton, Sulawesi Tenggara 93762","Mawasangka, Kec. Mawasangka, Kabupaten Buton",SULAWESI TENGGARA,93762.0,Indonesia,,,,-5.286587,122.286082,https://maps.google.com/?cid=0x0:0x664c88a366043516,
supermarket,Toko bahan makanan,Pasar Swalayan Cahaya Andaba Mart,"P823+VFR, Mawasangka, Kec. Mawasangka, Kabupaten Buton, Sulawesi Tenggara 93762","Mawasangka, Kec. Mawasangka, Kabupaten Buton",SULAWESI TENGGARA,93762.0,Indonesia,,,,-5.2977823,122.3036241,https://maps.google.com/?cid=0x0:0x42760c7ddd0db997,
supermarket,Toko Swalayan,Konter Zahra,"P78Q+HRC, Jl. Landeu, Mawasangka, Kec. Mawasangka, Kabupaten Buton, Sulawesi Tenggara 93762","Jl. Landeu, Mawasangka, Kec. Mawasangka, Kabupaten Buton",SULAWESI TENGGARA,93762.0,Indonesia,82343551626.0,,,-5.2835514,122.2895069,https://maps.google.com/?cid=0x0:0xb5cfe8a26c79d8c3,
supermarket,Toko Swalayan,Kios lestari,"M798+GW8, Napa, Kec. Mawasangka, Kabupaten Buton, Sulawesi Tenggara 93762","Napa, Kec. Mawasangka, Kabupaten Buton",SULAWESI TENGGARA,93762.0,Indonesia,81356494568.0,,,-5.3315253,122.2672008,https://maps.google.com/?cid=0x0:0xb859db54d7838ad5,
supermarket,Toko Swalayan,Kios zahra,"M7C8+2X3, Napa, Kec. Mawasangka, Kabupaten Buton, Sulawesi Tenggara","Kabupaten Buton, Sulawesi Tenggara",SULAWESI TENGGARA,,Indonesia,82344513998.0,,,-5.3299818,122.2674291,https://maps.google.com/?cid=0x0:0x4847181e96de8ce4,
supermarket,Gudang,Pusat belanja,"M8X4+P9V, Mawasangka, Kec. Mawasangka, Kabupaten Buton, Sulawesi Tenggara 93762","Mawasangka, Kec. Mawasangka, Kabupaten Buton",SULAWESI TENGGARA,93762.0,Indonesia,,,,-5.3006582,122.3060036,https://maps.google.com/?cid=0x0:0xfc4559ab0e8be53c,
supermarket,Toko umum,Nabila Mart,"93762, Mawasangka, Kec. Mawasangka, Kabupaten Buton, Sulawesi Tenggara 93762","Mawasangka, Kec. Mawasangka, Kabupaten Buton",SULAWESI TENGGARA,93762.0,Indonesia,81343948794.0,,,-5.2897006,122.2958404,https://maps.google.com/?cid=0x0:0xb3c0f5a3833aecb8,
supermarket,Taman Komunitas,KML Berjaya,"M9JP+8H7, Unnamed Road, Lalibo, Kec. Mawasangka Tengah, Kabupaten Buton, Sulawesi Tenggara","Kabupaten Buton, Sulawesi Tenggara",SULAWESI TENGGARA,,Indonesia,82331093834.0,,,-5.3192107,122.3864177,https://maps.google.com/?cid=0x0:0x1e55c40fb5f4ce0c,
supermarket,supermarket,Sulawesi Tenggara 93762,"Kabupaten Buton, Sulawesi Tenggara","Kabupaten Buton, Sulawesi Tenggara",SULAWESI TENGGARA,,Indonesia,,,,-5.291781,122.3787597,https://maps.google.com/?cid=0x0:0x29d13fe4e83e4ba7,
supermarket,Toko bahan makanan,Swalayan OKE OCE,"P77P+9C8, Mawasangka, Kec. Mawasangka, Kabupaten Buton, Sulawesi Tenggara 93762","Mawasangka, Kec. Mawasangka, Kabupaten Buton",SULAWESI TENGGARA,93762.0,Indonesia,,,,-5.286587,122.286082,https://maps.google.com/?cid=0x0:0x664c88a366043516,
supermarket,Toko bahan makanan,Pasar Swalayan Cahaya Andaba Mart,"P823+VFR, Mawasangka, Kec. Mawasangka, Kabupaten Buton, Sulawesi Tenggara 93762","Mawasangka, Kec. Mawasangka, Kabupaten Buton",SULAWESI TENGGARA,93762.0,Indonesia,,,,-5.2977823,122.3036241,https://maps.google.com/?cid=0x0:0x42760c7ddd0db997,
supermarket,Toko bahan makanan,Toko Syukuriyah,"MCP8+92C, Langkomu, Kec. Mawasangka Tengah, Kabupaten Buton, Sulawesi Tenggara","Kabupaten Buton, Sulawesi Tenggara",SULAWESI TENGGARA,,Indonesia,,,,-5.3140687,122.4150172,https://maps.google.com/?cid=0x0:0x15a19cb4cb853038,
supermarket,Pengangkut Rumah Pra-produksi,Rasyid Andi Group,"P7CV+M9H, Mawasangka, Kec. Mawasangka, Kabupaten Buton, Sulawesi Tenggara 93762","Mawasangka, Kec. Mawasangka, Kabupaten Buton",SULAWESI TENGGARA,93762.0,Indonesia,,,,-5.2783186,122.2934904,https://maps.google.com/?cid=0x0:0x5ba30436ae5ab5a7,
supermarket,Pasar tradisional,Pasar Baru Mawasangka,"P75J+8RM, Watolo, Kec. Mawasangka, Kabupaten Buton, Sulawesi Tenggara 93762","Watolo, Kec. Mawasangka, Kabupaten Buton",SULAWESI TENGGARA,93762.0,Indonesia,,,,-5.2915511,122.2818798,https://maps.google.com/?cid=0x0:0x852661d4af9acd6d,
supermarket,Toko Swalayan,Kios lestari,"M798+GW8, Napa, Kec. Mawasangka, Kabupaten Buton, Sulawesi Tenggara 93762","Napa, Kec. Mawasangka, Kabupaten Buton",SULAWESI TENGGARA,93762.0,Indonesia,81356494568.0,,,-5.3315253,122.2672008,https://maps.google.com/?cid=0x0:0xb859db54d7838ad5,
supermarket,Toko Swalayan,Konter Zahra,"P78Q+HRC, Jl. Landeu, Mawasangka, Kec. Mawasangka, Kabupaten Buton, Sulawesi Tenggara 93762","Jl. Landeu, Mawasangka, Kec. Mawasangka, Kabupaten Buton",SULAWESI TENGGARA,93762.0,Indonesia,82343551626.0,,,-5.2835514,122.2895069,https://maps.google.com/?cid=0x0:0xb5cfe8a26c79d8c3,
supermarket,Toko Swalayan,Kios zahra,"M7C8+2X3, Napa, Kec. Mawasangka, Kabupaten Buton, Sulawesi Tenggara","Kabupaten Buton, Sulawesi Tenggara",SULAWESI TENGGARA,,Indonesia,82344513998.0,,,-5.3299818,122.2674291,https://maps.google.com/?cid=0x0:0x4847181e96de8ce4,
supermarket,Gudang,Pusat belanja,"M8X4+P9V, Mawasangka, Kec. Mawasangka, Kabupaten Buton, Sulawesi Tenggara 93762","Mawasangka, Kec. Mawasangka, Kabupaten Buton",SULAWESI TENGGARA,93762.0,Indonesia,,,,-5.3006582,122.3060036,https://maps.google.com/?cid=0x0:0xfc4559ab0e8be53c,
supermarket,Toko Swalayan,Dua Sekawan swalayan lamangga,"GHHX+C74, Lamangga, Kec. Murhum, Kota Bau-Bau, Sulawesi Tenggara 93713","Lamangga, Kec. Murhum, Kota Bau-Bau",SULAWESI TENGGARA,93713.0,Indonesia,40223855.0,,,-5.4714996,122.5982133,https://maps.google.com/?cid=0x0:0xa6fdbccedf42bbc,
supermarket,Toko Swalayan,Dua Sekawan Swalayan,"GJJF+44R, Jl. Pahlawan, Bukit Wolio Indah, Kec. Wolio, Kota Bau-Bau, Sulawesi Tenggara 93711","Jl. Pahlawan, Bukit Wolio Indah, Kec. Wolio, Kota Bau-Bau",SULAWESI TENGGARA,93711.0,Indonesia,82291453738.0,,,-5.469635,122.6227769,https://maps.google.com/?cid=0x0:0x569c728c1fce6cd4,
supermarket,Toko Makanan,Kios mama ono,"PF5V+CR6, Lolibu, Kec. Lakudo, Kabupaten Buton, Sulawesi Tenggara","Kabupaten Buton, Sulawesi Tenggara",SULAWESI TENGGARA,,Indonesia,,,,-5.2914747,122.4945012,https://maps.google.com/?cid=0x0:0x74f35e48d38f7e3c,
supermarket,supermarket,Kios dewi,"M738+FQQ, Wakambangura, Kec. Mawasangka, Kabupaten Buton, Sulawesi Tenggara","Kabupaten Buton, Sulawesi Tenggara",SULAWESI TENGGARA,,Indonesia,82241623452.0,,,-5.3462922,122.2669954,https://maps.google.com/?cid=0x0:0x2c93feb676e0b112,
supermarket,,Aghil mart,"P77P+MHH, Mawasangka, Kec. Mawasangka, Kabupaten Buton, Sulawesi Tenggara","Kabupaten Buton, Sulawesi Tenggara",SULAWESI TENGGARA,,Indonesia,,,,-5.2858206,122.2864995,https://maps.google.com/?cid=0x0:0xf10c2feb1fe7dda7,
supermarket,Toko umum,Nabila Mart,"93762, Mawasangka, Kec. Mawasangka, Kabupaten Buton, Sulawesi Tenggara 93762","Mawasangka, Kec. Mawasangka, Kabupaten Buton",SULAWESI TENGGARA,93762.0,Indonesia,81343948794.0,,,-5.2897006,122.2958404,https://maps.google.com/?cid=0x0:0xb3c0f5a3833aecb8,
supermarket,Kios,Kios Fany  Alfat,"P77R+9V3, Mawasangka, Kec. Mawasangka Tengah, Kabupaten Buton, Sulawesi Tenggara 93762","Mawasangka, Kec. Mawasangka Tengah, Kabupaten Buton",SULAWESI TENGGARA,93762.0,Indonesia,,,,-5.2866134,122.2921729,https://maps.google.com/?cid=0x0:0x743bfa1ad3d1f6fe,
supermarket,Toko bahan makanan,Kios bayu,"M9FF+6Q5, Lanto, Kec. Mawasangka Tengah, Kabupaten Buton, Sulawesi Tenggara 93762","Lanto, Kec. Mawasangka Tengah, Kabupaten Buton",SULAWESI TENGGARA,93762.0,Indonesia,81380919787.0,,,-5.3270644,122.3746159,https://maps.google.com/?cid=0x0:0xa51848927ad27ccf,
supermarket,Toko,Kios kahamano,"Q82C+X4Q, Unnamed Road, Banga, Kec. Mawasangka, Kabupaten Buton, Sulawesi Tenggara 93762","Unnamed Road, Banga, Kec. Mawasangka, Kabupaten Buton",SULAWESI TENGGARA,93762.0,Indonesia,,,,-5.2475434,122.3203555,https://maps.google.com/?cid=0x0:0xa14365b1908d553e,
supermarket,Toko bahan makanan,Usaha Daffa,"J9X6+FP6, desa, Watorumbe Bata, Kec. Mawasangka Tengah, Kabupaten Buton, Sulawesi Tenggara 93762","desa, Watorumbe Bata, Kec. Mawasangka Tengah, Kabupaten Buton",SULAWESI TENGGARA,93762.0,Indonesia,85342528987.0,,,-5.3513293,122.3617618,https://maps.google.com/?cid=0x0:0x4b656b544b42217b,
supermarket,Toko bahan makanan,Salim market,"Q86F+872, Jl. Sangia Jampaka, Tanailandu, Kec. Mawasangka, Kabupaten Buton, Sulawesi Tenggara 93762","Jl. Sangia Jampaka, Tanailandu, Kec. Mawasangka, Kabupaten Buton",SULAWESI TENGGARA,93762.0,Indonesia,85342353510.0,,,-5.2392282,122.3231326,https://maps.google.com/?cid=0x0:0x2763d56c6aff3eaa,
supermarket,Toko bahan makanan,TOKO AL-FARID,"M89J+9M, Morikana, Kec. Mawasangka Tengah, Kabupaten Buton, Sulawesi Tenggara","Kabupaten Buton, Sulawesi Tenggara",SULAWESI TENGGARA,,Indonesia,81318100070.0,,,-5.331589,122.3316219,https://maps.google.com/?cid=0x0:0xfd203162c819597,
supermarket,Toko bahan makanan,Kios A2,"P78Q+8GG, Mawasangka, Kec. Mawasangka, Kabupaten Buton, Sulawesi Tenggara","Kabupaten Buton, Sulawesi Tenggara",SULAWESI TENGGARA,,Indonesia,,,,-5.2841984,122.2888144,https://maps.google.com/?cid=0x0:0x1747ddd9f50e35ae,
supermarket,Pusat Perbelanjaan,TOKO CAHAYA PUTRI,"M7C9+M7R, Napa, Kec. Mawasangka, Kabupaten Buton, Sulawesi Tenggara 93762","Napa, Kec. Mawasangka, Kabupaten Buton",SULAWESI TENGGARA,93762.0,Indonesia,82293071248.0,,,-5.3284538,122.2686478,https://maps.google.com/?cid=0x0:0xf91c38f7e3109f9,
supermarket,supermarket,Kios anggun,"HFX3+9R4, Inulu, Mawasangka Tim., Kabupaten Buton, Sulawesi Tenggara 93762","Inulu, Mawasangka Tim., Kabupaten Buton",SULAWESI TENGGARA,93762.0,Indonesia,,,,-5.402294,122.454108,https://maps.google.com/?cid=0x0:0x120f0dae7a915a56,
supermarket,Komplek perumahan,Nurjannah's house,"P77P+256, Watolo, Kec. Mawasangka, Kabupaten Buton Tengah, Sulawesi Tenggara 93762","Watolo, Kec. Mawasangka, Kabupaten Buton Tengah",SULAWESI TENGGARA,93762.0,Indonesia,85239767073.0,,,-5.2874702,122.2853977,https://maps.google.com/?cid=0x0:0x38090942d2686eec,
supermarket,supermarket,Mawasangka Tim.,"Kabupaten Buton, Sulawesi Tenggara","Kabupaten Buton, Sulawesi Tenggara",SULAWESI TENGGARA,,Indonesia,,,,-5.3611739,122.424074,https://maps.google.com/?cid=0x0:0xf58d05571c4d04f4,
supermarket,Toko bahan makanan,Toko Syukuriyah,"MCP8+92C, Langkomu, Kec. Mawasangka Tengah, Kabupaten Buton, Sulawesi Tenggara","Kabupaten Buton, Sulawesi Tenggara",SULAWESI TENGGARA,,Indonesia,,,,-5.3140687,122.4150172,https://maps.google.com/?cid=0x0:0x15a19cb4cb853038,
supermarket,Taman Komunitas,KML Berjaya,"M9JP+8H7, Unnamed Road, Lalibo, Kec. Mawasangka Tengah, Kabupaten Buton, Sulawesi Tenggara","Kabupaten Buton, Sulawesi Tenggara",SULAWESI TENGGARA,,Indonesia,82331093834.0,,,-5.3192107,122.3864177,https://maps.google.com/?cid=0x0:0x1e55c40fb5f4ce0c,
supermarket,supermarket,Toko awi,"HFX2+9HF, Lasori, Mawasangka Tim., Kabupaten Buton, Sulawesi Tenggara","Kabupaten Buton, Sulawesi Tenggara",SULAWESI TENGGARA,,Indonesia,,,,-5.40213,122.450911,https://maps.google.com/?cid=0x0:0x2546234286bf12cd,
supermarket,Toko bahan makanan,Pasar Swalayan Cahaya Andaba Mart,"P823+VFR, Mawasangka, Kec. Mawasangka, Kabupaten Buton, Sulawesi Tenggara 93762","Mawasangka, Kec. Mawasangka, Kabupaten Buton",SULAWESI TENGGARA,93762.0,Indonesia,,,,-5.2977823,122.3036241,https://maps.google.com/?cid=0x0:0x42760c7ddd0db997,
supermarket,Pasar tradisional,Pasar Baru Mawasangka,"P75J+8RM, Watolo, Kec. Mawasangka, Kabupaten Buton, Sulawesi Tenggara 93762","Watolo, Kec. Mawasangka, Kabupaten Buton",SULAWESI TENGGARA,93762.0,Indonesia,,,,-5.2915511,122.2818798,https://maps.google.com/?cid=0x0:0x852661d4af9acd6d,
supermarket,supermarket,Kios anggun,"HFX3+9R4, Inulu, Mawasangka Tim., Kabupaten Buton, Sulawesi Tenggara 93762","Inulu, Mawasangka Tim., Kabupaten Buton",SULAWESI TENGGARA,93762.0,Indonesia,,,,-5.402294,122.454108,https://maps.google.com/?cid=0x0:0x120f0dae7a915a56,
supermarket,Toko bahan makanan,Toko Taufik sembako,"J9GH+W33, Watorumbe, Kec. Mawasangka Tengah, Kabupaten Buton, Sulawesi Tenggara","Kabupaten Buton, Sulawesi Tenggara",SULAWESI TENGGARA,,Indonesia,82122546499.0,,,-5.3727396,122.3776663,https://maps.google.com/?cid=0x0:0x54f9e19ea1fce1dc,
supermarket,Toko Ponsel,Warung sembako Al Fatih Cell,"Unnamed Road, Langkomu, Kec. Mawasangka Tengah, Kabupaten Buton, Sulawesi Tenggara","Kabupaten Buton, Sulawesi Tenggara",SULAWESI TENGGARA,,Indonesia,82259489946.0,,,-5.3147391,122.4127762,https://maps.google.com/?cid=0x0:0xf5a06b0e521bb2d2,
supermarket,Toko Swalayan,Kios zahra,"M7C8+2X3, Napa, Kec. Mawasangka, Kabupaten Buton, Sulawesi Tenggara","Kabupaten Buton, Sulawesi Tenggara",SULAWESI TENGGARA,,Indonesia,82344513998.0,,,-5.3299818,122.2674291,https://maps.google.com/?cid=0x0:0x4847181e96de8ce4,
supermarket,Toko Swalayan,Kios lestari,"M798+GW8, Napa, Kec. Mawasangka, Kabupaten Buton, Sulawesi Tenggara 93762","Napa, Kec. Mawasangka, Kabupaten Buton",SULAWESI TENGGARA,93762.0,Indonesia,81356494568.0,,,-5.3315253,122.2672008,https://maps.google.com/?cid=0x0:0xb859db54d7838ad5,
supermarket,Toko Swalayan,Kios mama fian,"JF24+2GV, Jl. Poros Lamena, Inulu, Mawasangka Tim., Kabupaten Buton, Sulawesi Tenggara 93762","Jl. Poros Lamena, Inulu, Mawasangka Tim., Kabupaten Buton",SULAWESI TENGGARA,93762.0,Indonesia,,,,-5.399884,122.456296,https://maps.google.com/?cid=0x0:0x99a4168679e5d3a2,
supermarket,Gudang,Pusat belanja,"M8X4+P9V, Mawasangka, Kec. Mawasangka, Kabupaten Buton, Sulawesi Tenggara 93762","Mawasangka, Kec. Mawasangka, Kabupaten Buton",SULAWESI TENGGARA,93762.0,Indonesia,,,,-5.3006582,122.3060036,https://maps.google.com/?cid=0x0:0xfc4559ab0e8be53c,
supermarket,Toko bahan makanan,Usaha Daffa,"J9X6+FP6, desa, Watorumbe Bata, Kec. Mawasangka Tengah, Kabupaten Buton, Sulawesi Tenggara 93762","desa, Watorumbe Bata, Kec. Mawasangka Tengah, Kabupaten Buton",SULAWESI TENGGARA,93762.0,Indonesia,85342528987.0,,,-5.3513293,122.3617618,https://maps.google.com/?cid=0x0:0x4b656b544b42217b,
supermarket,Toko,Kios Darussalam,"M9JR+F89, Lalibo, Kec. Mawasangka Tengah, Kabupaten Buton, Sulawesi Tenggara","Kabupaten Buton, Sulawesi Tenggara",SULAWESI TENGGARA,,Indonesia,,,,-5.3188392,122.3908444,https://maps.google.com/?cid=0x0:0xe271be927519736e,
supermarket,Toko,Yhn home,"M9HM+RVM, Lalibo, Kec. Mawasangka Tengah, Kabupaten Buton, Sulawesi Tenggara","Kabupaten Buton, Sulawesi Tenggara",SULAWESI TENGGARA,,Indonesia,,,,-5.3204061,122.3846738,https://maps.google.com/?cid=0x0:0x81410f922eebbac,
supermarket,Toko Makanan,Kios mama ono,"PF5V+CR6, Lolibu, Kec. Lakudo, Kabupaten Buton, Sulawesi Tenggara","Kabupaten Buton, Sulawesi Tenggara",SULAWESI TENGGARA,,Indonesia,,,,-5.2914747,122.4945012,https://maps.google.com/?cid=0x0:0x74f35e48d38f7e3c,
supermarket,Kios,Kios Awal,"PGGC+HWG kios awal, Moko, Kec. Lakudo, Kabupaten Buton, Sulawesi Tenggara 93763","Moko, Kec. Lakudo, Kabupaten Buton",SULAWESI TENGGARA,93763.0,Indonesia,81241344851.0,,,-5.2735552,122.5223341,https://maps.google.com/?cid=0x0:0xd3937b8d40622cb2,
supermarket,Toko umum,Nabila Mart,"93762, Mawasangka, Kec. Mawasangka, Kabupaten Buton, Sulawesi Tenggara 93762","Mawasangka, Kec. Mawasangka, Kabupaten Buton",SULAWESI TENGGARA,93762.0,Indonesia,81343948794.0,,,-5.2897006,122.2958404,https://maps.google.com/?cid=0x0:0xb3c0f5a3833aecb8,
supermarket,Toko Swalayan,Konter Zahra,"P78Q+HRC, Jl. Landeu, Mawasangka, Kec. Mawasangka, Kabupaten Buton, Sulawesi Tenggara 93762","Jl. Landeu, Mawasangka, Kec. Mawasangka, Kabupaten Buton",SULAWESI TENGGARA,93762.0,Indonesia,82343551626.0,,,-5.2835514,122.2895069,https://maps.google.com/?cid=0x0:0xb5cfe8a26c79d8c3,
supermarket,Toko bahan makanan,Kios A2,"P78Q+8GG, Mawasangka, Kec. Mawasangka, Kabupaten Buton, Sulawesi Tenggara","Kabupaten Buton, Sulawesi Tenggara",SULAWESI TENGGARA,,Indonesia,,,,-5.2841984,122.2888144,https://maps.google.com/?cid=0x0:0x1747ddd9f50e35ae,
supermarket,supermarket,Sulawesi Tenggara 93761,"Kec. Gu, Kabupaten Buton, Sulawesi Tenggara","Kabupaten Buton, Sulawesi Tenggara",SULAWESI TENGGARA,,Indonesia,,,,-5.2702397,122.593828,https://maps.google.com/?cid=0x0:0xe714ef696c5af545,
supermarket,Pasar,Pasar Desa Wasuamba ( PPS 1 ),"Q4V5+445, Wasuamba, Kec. Lasalimu, Kabupaten Buton, Sulawesi Tenggara 93756","Wasuamba, Kec. Lasalimu, Kabupaten Buton",SULAWESI TENGGARA,93756.0,Indonesia,,,,-5.207233,123.107873,https://maps.google.com/?cid=0x0:0x2e81ae257cc90bfc,
supermarket,Minimarket,Kios A-Mona,"9P92+747, Lingkungan Makolona, Jaya Bakti, Kec. Sampolawa, Kabupaten Buton, Sulawesi Tenggara","Kabupaten Buton, Sulawesi Tenggara",SULAWESI TENGGARA,,Indonesia,82259173286.0,,,-5.6318377,122.7003024,https://maps.google.com/?cid=0x0:0x6d10941ed07924b3,
supermarket,supermarket,Pasar kecamatan sangia Wambulu,"JJM8+GR8, Tolandona, Kec. Sangia Wambulu, Kabupaten Buton, Sulawesi Tenggara 93761","Tolandona, Kec. Sangia Wambulu, Kabupaten Buton",SULAWESI TENGGARA,93761.0,Indonesia,,,,-5.3662125,122.6170781,https://maps.google.com/?cid=0x0:0x16523a76df21679c,
supermarket,supermarket,Sulawesi Tenggara,,Sulawesi Tenggara,SULAWESI TENGGARA,,Indonesia,,,,-4.14491,122.174605,https://maps.google.com/?cid=0x0:0x621d7c439f04a4ed,
supermarket,Toko Pakaian,Toko Sandang Murah Sembako,"WHXR+GQP, Latambaga, Kec. Latambaga, Kabupaten Kolaka, Sulawesi Tenggara 93511","Latambaga, Kec. Latambaga, Kabupaten Kolaka",SULAWESI TENGGARA,93511.0,Indonesia,85399886836.0,,,-4.0511524,121.5919644,https://maps.google.com/?cid=0x0:0xd01cda19d5525299,
supermarket,supermarket,Talaga Raya,"Kabupaten Buton, Sulawesi Tenggara","Kabupaten Buton, Sulawesi Tenggara",SULAWESI TENGGARA,,Indonesia,,,,-5.4213926,122.0155491,https://maps.google.com/?cid=0x0:0x2e35b700451321ba,
supermarket,Toko umum,TOKO HEXA,"G3CG+P6V, Talaga I, Talaga Raya, Kabupaten Buton, Sulawesi Tenggara 93781","Talaga I, Talaga Raya, Kabupaten Buton",SULAWESI TENGGARA,93781.0,Indonesia,81354947743.0,,,-5.4781322,122.0755561,https://maps.google.com/?cid=0x0:0x34e12772b8828aeb,
supermarket,Toko sembako pemerintah,Minimarket KUD Mina Bahari Talaga1,"Talaga I, Talaga Raya, Buton Tengah, Sulawesi Tenggara 93783","Talaga Raya, Buton Tengah",SULAWESI TENGGARA,93783.0,Indonesia,,,,-5.4734688,122.0747191,https://maps.google.com/?cid=0x0:0xef474c0938c9abb6,
supermarket,Tujuan Wisata,Pasar Desa Talaga Besar,"G25X+VJF, Talaga Besar, Talaga Raya, Kabupaten Buton, Sulawesi Tenggara 93781","Talaga Besar, Talaga Raya, Kabupaten Buton",SULAWESI TENGGARA,93781.0,Indonesia,,,,-5.4900151,122.0488425,https://maps.google.com/?cid=0x0:0xdd9863e1b837d020,
supermarket,Toko umum,Ihram Home,"G3FH+V2M, Unnamed Road, Talaga I, Talaga Raya, Kabupaten Buton, Sulawesi Tenggara 93781","Unnamed Road, Talaga I, Talaga Raya, Kabupaten Buton",SULAWESI TENGGARA,93781.0,Indonesia,85341300193.0,,,-5.4752763,122.0775409,https://maps.google.com/?cid=0x0:0x1b302b1901ea3e1d,
supermarket,Toko,Frozen Food Papay,"G3FF+8JC, Talaga I, Talaga Raya, Kabupaten Buton, Sulawesi Tenggara 93781","Talaga I, Talaga Raya, Kabupaten Buton",SULAWESI TENGGARA,93781.0,Indonesia,82226512615.0,,,-5.4766724,122.0740408,https://maps.google.com/?cid=0x0:0x592da6d9c77ff3dd,
supermarket,Toko,Rumah Mahsydof,"G3FF+8JM, Talaga I, Talaga Raya, Kabupaten Buton, Sulawesi Tenggara","Kabupaten Buton, Sulawesi Tenggara",SULAWESI TENGGARA,,Indonesia,,,,-5.4766724,122.0740475,https://maps.google.com/?cid=0x0:0x7c8c8df5747f9e87,
