Category,Real Category,Business Name,Address,City,State,Postal Code,Country,Phone,Email,Website,Latitude,Longitude,Map Link,Details Link
komplek housing,Komplek perumahan,Griya Liwanda - Perumahan Eksklusif Terjangkau Buton Tengah,"Jalan Gersamata, Desa Matawine, Kecamatan Lakudo, Kabupaten Buton, Tengah, Buton Tengah, Sulawesi Tenggara 93763","Desa Matawine, Kecamatan Lakudo, Kabupaten Buton, Tengah, Buton Tengah",SULAWESI TENGGARA,93763.0,Indonesia,811401850.0,,,-5.2796994,122.5406304,https://maps.google.com/?cid=0x0:0xa896023c6d6fc2a3,
komplek housing,komplek housing,Sulawesi Tenggara 93761,"Kec. Gu, Kabupaten Buton, Sulawesi Tenggara","Kabupaten Buton, Sulawesi Tenggara",SULAWESI TENGGARA,,Indonesia,,,,-5.2702397,122.593828,https://maps.google.com/?cid=0x0:0xe714ef696c5af545,
komplek housing,Komplek perumahan,Kompleks Bakes,"PHXF+RXV, Watulea, Kec. Gu, Kabupaten Buton, Sulawesi Tenggara 93761","Watulea, Kec. Gu, Kabupaten Buton",SULAWESI TENGGARA,93761.0,Indonesia,,,,-5.250435,122.5748423,https://maps.google.com/?cid=0x0:0x6231205b70243532,
komplek housing,Komplek perumahan,Kompleks Manguncu (Komang),"QH2F+66M, Watulea, Kec. Gu, Kabupaten Buton, Sulawesi Tenggara","Kabupaten Buton, Sulawesi Tenggara",SULAWESI TENGGARA,,Indonesia,85293123388.0,,,-5.2494051,122.5730402,https://maps.google.com/?cid=0x0:0x4a94a087e6e5d950,
komplek housing,komplek housing,Rumahku,"MJ37+F73, Wadiabero, Kec. Gu, Kabupaten Buton, Sulawesi Tenggara","Kabupaten Buton, Sulawesi Tenggara",SULAWESI TENGGARA,,Indonesia,,,,-5.3463741,122.6132844,https://maps.google.com/?cid=0x0:0x89d75391c670bf5b,
komplek housing,Komplek perumahan,Kompleks Jempasz Area,"PHXH+55R, Bombonawulu, Kec. Gu, Kabupaten Buton, Sulawesi Tenggara 93761","Bombonawulu, Kec. Gu, Kabupaten Buton",SULAWESI TENGGARA,93761.0,Indonesia,,,,-5.2520229,122.5778431,https://maps.google.com/?cid=0x0:0x43bb7b3bfb4c9a5c,
komplek housing,Komplek perumahan,Future house DRð ,"PGRR+GFH, Poros Labungkari-Mawasangka, Tengah, Mone, Kec. Lakudo, Kabupaten Buton, Sulawesi Tenggara 93763","Poros Labungkari-Mawasangka, Tengah, Mone, Kec. Lakudo, Kabupaten Buton",SULAWESI TENGGARA,93763.0,Indonesia,,,,-5.2596932,122.541862,https://maps.google.com/?cid=0x0:0xbbeb327b9da8be04,
komplek housing,Rumah Kayu,Asrudin Home Stay,"MJ36+4V7, Wadiabero, Kec. Gu, Kabupaten Buton, Sulawesi Tenggara 93761","Wadiabero, Kec. Gu, Kabupaten Buton",SULAWESI TENGGARA,93761.0,Indonesia,85210332816.0,,,-5.3472125,122.6121719,https://maps.google.com/?cid=0x0:0xd0d6139a067d2dcd,
komplek housing,Pembangunan Perumahan,Balobuea,"MJ25+Q5P, Wadiabero, Kec. Gu, Kabupaten Buton, Sulawesi Tenggara","Kabupaten Buton, Sulawesi Tenggara",SULAWESI TENGGARA,,Indonesia,,,,-5.3480322,122.6079616,https://maps.google.com/?cid=0x0:0xa08f1e2207563e39,
komplek housing,Komplek perumahan,Dusun Labanaha,"MJVR+83M, Rahia, Kec. Gu, Kabupaten Buton, Sulawesi Tenggara 93761","Rahia, Kec. Gu, Kabupaten Buton",SULAWESI TENGGARA,93761.0,Indonesia,,,,-5.3066505,122.6401433,https://maps.google.com/?cid=0x0:0xaef3809512355f0d,
komplek housing,Komplek perumahan,LDM Family,"PHVC+VVF, Jl. Jend. Sudirman, Walando, Kec. Gu, Kabupaten Buton Tengah, Sulawesi Tenggara 93761","Jl. Jend. Sudirman, Walando, Kec. Gu, Kabupaten Buton Tengah",SULAWESI TENGGARA,93761.0,Indonesia,,,,-5.2553033,122.5721837,https://maps.google.com/?cid=0x0:0x86f5702a241c684d,
komplek housing,Komplek perumahan,Rumah Yuli FD,"PHXC+799, Watulea, Kec. Gu, Kabupaten Buton, Sulawesi Tenggara","Kabupaten Buton, Sulawesi Tenggara",SULAWESI TENGGARA,,Indonesia,,,,-5.2518376,122.5709876,https://maps.google.com/?cid=0x0:0xe9d6b2bb39058bdb,
komplek housing,Pembangunan Perumahan,Kaliwuliwuto,"QHCW+X5G, Kaliwuliwuto, Kec. Gu, Kabupaten Buton, Sulawesi Tenggara 93761","Kaliwuliwuto, Kec. Gu, Kabupaten Buton",SULAWESI TENGGARA,93761.0,Indonesia,,,,-5.2275544,122.5954565,https://maps.google.com/?cid=0x0:0xb8ea38686d89f6c2,
komplek housing,komplek housing,Rumah nunung,"JJM9+C4P, Tolandona, Kec. Sangia Wambulu, Kabupaten Buton, Sulawesi Tenggara 93761","Tolandona, Kec. Sangia Wambulu, Kabupaten Buton",SULAWESI TENGGARA,93761.0,Indonesia,,,,-5.3664428,122.6175928,https://maps.google.com/?cid=0x0:0x42b4d07a29c6553f,
komplek housing,Komplek perumahan,KOSTPENG,"JJJ9+P5G, Tolandona, Kec. Sangia Wambulu, Kabupaten Buton, Sulawesi Tenggara 93761","Tolandona, Kec. Sangia Wambulu, Kabupaten Buton",SULAWESI TENGGARA,93761.0,Indonesia,,,,-5.3681923,122.617959,https://maps.google.com/?cid=0x0:0x65cef151d382aaf2,
komplek housing,Pembangunan Perumahan,BCL Gank,"Bombonawulu, Kec. Gu, Kabupaten Buton, Sulawesi Tenggara 93761","Kec. Gu, Kabupaten Buton",SULAWESI TENGGARA,93761.0,Indonesia,85256461431.0,,,-5.2538675,122.5757158,https://maps.google.com/?cid=0x0:0x846e84add8759859,
komplek housing,Perhimpunan Pengembang Perumahan,Kampung Kodok,"PHXF+65W, Bombonawulu, Kec. Gu, Kabupaten Buton, Sulawesi Tenggara 93761","Bombonawulu, Kec. Gu, Kabupaten Buton",SULAWESI TENGGARA,93761.0,Indonesia,,,,-5.2524165,122.5732563,https://maps.google.com/?cid=0x0:0xca81f431716a9c67,
komplek housing,Pembangunan Perumahan,LB (lorong Bahagia),"PHXF+9XH, Watulea, Kec. Gu, Kabupaten Buton, Sulawesi Tenggara 93761","Watulea, Kec. Gu, Kabupaten Buton",SULAWESI TENGGARA,93761.0,Indonesia,,,,-5.2515625,122.5749844,https://maps.google.com/?cid=0x0:0xafeff9cfd8a7e926,
komplek housing,Komplek perumahan,Rumah Shinta Jauhari,"PHWH+H4F, Bombonawulu, Kec. Gu, Kabupaten Buton, Sulawesi Tenggara 93761","Bombonawulu, Kec. Gu, Kabupaten Buton",SULAWESI TENGGARA,93761.0,Indonesia,,,,-5.2535648,122.5778036,https://maps.google.com/?cid=0x0:0xb4ed62905210fcbb,
komplek housing,Komplek perumahan,Rumah SalKhadav,"PHWG+4R4, Jl. Ahmad Yani, RT.47/RW.NO.17, gunungsari, Kec. Gu, Kabupaten Buton, Sulawesi Tenggara 93761","Jl. Ahmad Yani, RT.47/RW.NO.17, gunungsari, Kec. Gu, Kabupaten Buton",SULAWESI TENGGARA,93761.0,Indonesia,,,,-5.2547351,122.5770673,https://maps.google.com/?cid=0x0:0x7f94aed7de837197,
komplek housing,komplek housing,Kec. Gu,"Kabupaten Buton, Sulawesi Tenggara","Kabupaten Buton, Sulawesi Tenggara",SULAWESI TENGGARA,,Indonesia,,,,-5.2528338,122.5757195,https://maps.google.com/?cid=0x0:0xf30762db66f08233,
komplek housing,Komplek perumahan,White house,"PHM8+26M, Walando, Kec. Gu, Kabupaten Buton, Sulawesi Tenggara","Kabupaten Buton, Sulawesi Tenggara",SULAWESI TENGGARA,,Indonesia,,,,-5.2674016,122.5655549,https://maps.google.com/?cid=0x0:0x19e873590aad2c34,
komplek housing,Komplek perumahan,Rumah Juiki,"PHXF+6V3, Bombonawulu, Kec. Gu, Kabupaten Buton, Sulawesi Tenggara 93761","Bombonawulu, Kec. Gu, Kabupaten Buton",SULAWESI TENGGARA,93761.0,Indonesia,,,,-5.2519485,122.5745991,https://maps.google.com/?cid=0x0:0xeffaabe4d39e5a92,
komplek housing,Komplek perumahan,GRIYO BANG LA,"PHXG+7C3, Watulea, Kec. Gu, Kabupaten Buton, Sulawesi Tenggara 93761","Watulea, Kec. Gu, Kabupaten Buton",SULAWESI TENGGARA,93761.0,Indonesia,,,,-5.2518537,122.5760474,https://maps.google.com/?cid=0x0:0x64013597205aafb5,
komplek housing,Kantor Pemerintah,Rumah Dinas,"MJVR+C6Q, Rahia, Kec. Gu, Kabupaten Buton, Sulawesi Tenggara 93761","Rahia, Kec. Gu, Kabupaten Buton",SULAWESI TENGGARA,93761.0,Indonesia,,,,-5.3061784,122.6406158,https://maps.google.com/?cid=0x0:0x6fcfb6213490e415,
komplek housing,komplek housing,Risman lorhan,"JJM9+77C, Jl. Imam Bonjol, Tolandona, Kec. Sangia Wambulu, Kabupaten Buton, Sulawesi Tenggara 93761","Jl. Imam Bonjol, Tolandona, Kec. Sangia Wambulu, Kabupaten Buton",SULAWESI TENGGARA,93761.0,Indonesia,,,,-5.367077,122.618359,https://maps.google.com/?cid=0x0:0x2a99cbb7357a8db4,
komplek housing,Komplek perumahan,Kompeks beskem family,"PHWH+4H4, Bombonawulu, Kec. Gu, Kabupaten Buton, Sulawesi Tenggara 93761","Bombonawulu, Kec. Gu, Kabupaten Buton",SULAWESI TENGGARA,93761.0,Indonesia,,,,-5.2547461,122.5789607,https://maps.google.com/?cid=0x0:0xd5862d899103cdac,
komplek housing,Komplek perumahan,Jelita,"PHXH+659, Bombonawulu, Kec. Gu, Kabupaten Buton, Sulawesi Tenggara 93761","Bombonawulu, Kec. Gu, Kabupaten Buton",SULAWESI TENGGARA,93761.0,Indonesia,,,,-5.25142,122.578201,https://maps.google.com/?cid=0x0:0xdcfc45991d91f81b,
komplek housing,komplek housing,Komplek Housing,"Blok Bojong Nangka I, Jl. Ring Rudal Blok Bojong Nangka I No.68, RT.001/RW.007, Jatirahayu, Kec. Pd. Melati, Kota Bks, Jawa Barat 17414","Jl. Ring Rudal Blok Bojong Nangka I No.68, RT.001/RW.007, Jatirahayu, Kec. Pd. Melati, Kota Bks",SULAWESI TENGGARA,17414.0,Indonesia,,,,-6.293724,106.9165114,https://maps.google.com/?cid=0x0:0x9c50464976dee674,
komplek housing,komplek housing,Sulawesi Tenggara 93763,"Kec. Lakudo, Kabupaten Buton, Sulawesi Tenggara","Kabupaten Buton, Sulawesi Tenggara",SULAWESI TENGGARA,,Indonesia,,,,-5.3531329,122.5598994,https://maps.google.com/?cid=0x0:0x62c2a15eea95dc2,
komplek housing,Komplek perumahan,Perumahan Anak Sultan Lakudo Residence,"Barat, Lakudo, Kec. Lakudo, Buton Tengah, Sulawesi Tenggara 93763","Lakudo, Kec. Lakudo, Buton Tengah",SULAWESI TENGGARA,93763.0,Indonesia,85359992899.0,,,-5.3164533,122.5287974,https://maps.google.com/?cid=0x0:0x50402f2af9ca351a,
komplek housing,Komplek perumahan,Griya Liwanda - Perumahan Eksklusif Terjangkau Buton Tengah,"Jalan Gersamata, Desa Matawine, Kecamatan Lakudo, Kabupaten Buton, Tengah, Buton Tengah, Sulawesi Tenggara 93763","Desa Matawine, Kecamatan Lakudo, Kabupaten Buton, Tengah, Buton Tengah",SULAWESI TENGGARA,93763.0,Indonesia,811401850.0,,,-5.2796994,122.5406304,https://maps.google.com/?cid=0x0:0xa896023c6d6fc2a3,
komplek housing,Komplek perumahan,LA ERU,"MG6Q+QFW, Lakudo, Kec. Lakudo, Kabupaten Buton, Sulawesi Tenggara 93763","Lakudo, Kec. Lakudo, Kabupaten Buton",SULAWESI TENGGARA,93763.0,Indonesia,,,,-5.3378596,122.5393987,https://maps.google.com/?cid=0x0:0x2dbbf5357e29ac2a,
komplek housing,Komplek perumahan,ABDUL RAHMAN,"MG6Q+QFW, Lakudo, Kec. Lakudo, Kabupaten Buton, Sulawesi Tenggara 93763","Lakudo, Kec. Lakudo, Kabupaten Buton",SULAWESI TENGGARA,93763.0,Indonesia,,,,-5.3374881,122.5398621,https://maps.google.com/?cid=0x0:0x5a3e864d8178528e,
komplek housing,Pembangunan Perumahan,Kompleks rajawali,"PGCC+J94, Moko, Kec. Lakudo, Kabupaten Buton, Sulawesi Tenggara 93763","Moko, Kec. Lakudo, Kabupaten Buton",SULAWESI TENGGARA,93763.0,Indonesia,81383329381.0,,,-5.2784905,122.5209555,https://maps.google.com/?cid=0x0:0xa753e014591227e5,
komplek housing,Komplek perumahan,SARANG WALET H MUHTAR,"MG6Q+QFW, Lakudo, Kec. Lakudo, Kabupaten Buton, Sulawesi Tenggara 93763","Lakudo, Kec. Lakudo, Kabupaten Buton",SULAWESI TENGGARA,93763.0,Indonesia,,,,-5.3375595,122.539218,https://maps.google.com/?cid=0x0:0xe6d25dc0d5b6ba1,
komplek housing,Komplek perumahan,MUAYA,"MG6Q+QFW, Lakudo, Kec. Lakudo, Kabupaten Buton, Sulawesi Tenggara 93763","Lakudo, Kec. Lakudo, Kabupaten Buton",SULAWESI TENGGARA,93763.0,Indonesia,,,,-5.3384528,122.5394503,https://maps.google.com/?cid=0x0:0x48f01f67dddba47d,
komplek housing,Komplek perumahan,LA IDI,"MG6Q+QFW, Lakudo, Kec. Lakudo, Kabupaten Buton, Sulawesi Tenggara 93763","Lakudo, Kec. Lakudo, Kabupaten Buton",SULAWESI TENGGARA,93763.0,Indonesia,,,,-5.3386204,122.5393591,https://maps.google.com/?cid=0x0:0x9082cbbc5f9a65c9,
komplek housing,Komplek perumahan,YAMIN,"MG6Q+QFW, Lakudo, Kec. Lakudo, Kabupaten Buton, Sulawesi Tenggara 93763","Lakudo, Kec. Lakudo, Kabupaten Buton",SULAWESI TENGGARA,93763.0,Indonesia,,,,-5.3381804,122.5388608,https://maps.google.com/?cid=0x0:0xd502778853a55c3,
komplek housing,Komplek perumahan,Beit Lahia,"JG8G+M6G, Boneoge, Kec. Lakudo, Kabupaten Buton, Sulawesi Tenggara 93763","Boneoge, Kec. Lakudo, Kabupaten Buton",SULAWESI TENGGARA,93763.0,Indonesia,,,,-5.3838172,122.5250543,https://maps.google.com/?cid=0x0:0xec9f9552ce705d52,
komplek housing,Komplek perumahan,RUMAH HAJI SAFAR,"MG7Q+FJC, Lakudo, Kec. Lakudo, Kabupaten Buton, Sulawesi Tenggara 93763","Lakudo, Kec. Lakudo, Kabupaten Buton",SULAWESI TENGGARA,93763.0,Indonesia,,,,-5.3361668,122.5391399,https://maps.google.com/?cid=0x0:0xfa8672a05ca1169d,
komplek housing,Komplek perumahan,Rumah Wabante,"HHQ8+V6J, Wara, Kec. Lakudo, Kabupaten Buton, Sulawesi Tenggara 93763","Wara, Kec. Lakudo, Kabupaten Buton",SULAWESI TENGGARA,93763.0,Indonesia,,,,-5.4102733,122.5654704,https://maps.google.com/?cid=0x0:0xedd275df700c14fe,
komplek housing,Komplek perumahan,Hanpoex,"HHQ9+JJ7, One Waara, Kec. Lakudo, Kabupaten Buton, Sulawesi Tenggara 93763","One Waara, Kec. Lakudo, Kabupaten Buton",SULAWESI TENGGARA,93763.0,Indonesia,,,,-5.4109469,122.5684531,https://maps.google.com/?cid=0x0:0x1f05c650d4c5e517,
komplek housing,Komplek perumahan,ILYAS,"MG6Q+QFW, Lakudo, Kec. Lakudo, Kabupaten Buton, Sulawesi Tenggara 93763","Lakudo, Kec. Lakudo, Kabupaten Buton",SULAWESI TENGGARA,93763.0,Indonesia,,,,-5.338564,122.5391563,https://maps.google.com/?cid=0x0:0x7944698d906cf6ac,
komplek housing,Komplek perumahan,Future house DRð ,"PGRR+GFH, Poros Labungkari-Mawasangka, Tengah, Mone, Kec. Lakudo, Kabupaten Buton, Sulawesi Tenggara 93763","Poros Labungkari-Mawasangka, Tengah, Mone, Kec. Lakudo, Kabupaten Buton",SULAWESI TENGGARA,93763.0,Indonesia,,,,-5.2596932,122.541862,https://maps.google.com/?cid=0x0:0xbbeb327b9da8be04,
komplek housing,Komplek perumahan,Home,"PF5W+J7P, Lolibu, Kec. Lakudo, Kabupaten Buton, Sulawesi Tenggara","Kabupaten Buton, Sulawesi Tenggara",SULAWESI TENGGARA,,Indonesia,,,,-5.2909201,122.4956931,https://maps.google.com/?cid=0x0:0x4998dd6c72c55f4d,
komplek housing,Komplek perumahan,HAJI LA AMANI,"MG6Q+QFW, Lakudo, Kec. Lakudo, Kabupaten Buton, Sulawesi Tenggara 93763","Lakudo, Kec. Lakudo, Kabupaten Buton",SULAWESI TENGGARA,93763.0,Indonesia,,,,-5.3381872,122.538858,https://maps.google.com/?cid=0x0:0x9cef57bd03c80260,
komplek housing,Pembangunan Perumahan,Kompleks AMBLO,"PF5W+MCF Central, Lolibu, Lakudo, Buton Regency, South East Sulawesi","Kabupaten Buton, Sulawesi Tenggara",SULAWESI TENGGARA,,Indonesia,,,,-5.290812,122.4960521,https://maps.google.com/?cid=0x0:0x9987e0e62b464379,
komplek housing,Pembangunan Perumahan,Lorong la subuh,"HGGC+668, Madongka, Kec. Lakudo, Kabupaten Buton, Sulawesi Tenggara 93763","Madongka, Kec. Lakudo, Kabupaten Buton",SULAWESI TENGGARA,93763.0,Indonesia,,,,-5.4244739,122.5205713,https://maps.google.com/?cid=0x0:0xf9857bef7e185a7e,
komplek housing,Komplek perumahan,LY RIZQIQAH HOUSE,"PGRR+HF5, Mone, Kec. Lakudo, Kabupaten Buton, Sulawesi Tenggara","Kabupaten Buton, Sulawesi Tenggara",SULAWESI TENGGARA,,Indonesia,,,,-5.2586063,122.5412487,https://maps.google.com/?cid=0x0:0x92c0e076cbb20d26,
komplek housing,komplek housing,Kec. Lakudo,"Kabupaten Buton, Sulawesi Tenggara","Kabupaten Buton, Sulawesi Tenggara",SULAWESI TENGGARA,,Indonesia,,,,-5.3869624,122.526445,https://maps.google.com/?cid=0x0:0xe7c662408e324bed,
komplek housing,Komplek perumahan,Ummu Aufa House,"MGHQ+J47, Wongko Lakudo, Kec. Lakudo, Kabupaten Buton, Sulawesi Tenggara 93763","Wongko Lakudo, Kec. Lakudo, Kabupaten Buton",SULAWESI TENGGARA,93763.0,Indonesia,,,,-5.3209741,122.5377981,https://maps.google.com/?cid=0x0:0x6fa87453e2484e53,
komplek housing,Komplek perumahan,Rumah uli,"MGJP+H4W, Jl. Gersamata, Wongko Lakudo, Kec. Lakudo, Kabupaten Buton, Sulawesi Tenggara 93763","Jl. Gersamata, Wongko Lakudo, Kec. Lakudo, Kabupaten Buton",SULAWESI TENGGARA,93763.0,Indonesia,,,,-5.3185095,122.535288,https://maps.google.com/?cid=0x0:0x4cf77de93d25357d,
komplek housing,Komplek perumahan,Rza House,"PGRR+GFH, Mone, Kec. Lakudo, Kabupaten Buton, Sulawesi Tenggara 93763","Mone, Kec. Lakudo, Kabupaten Buton",SULAWESI TENGGARA,93763.0,Indonesia,,,,-5.2587474,122.5411794,https://maps.google.com/?cid=0x0:0x744b6cb4972b73be,
komplek housing,komplek housing,Mawasangka,"Mawasangka, Kec. Mawasangka, Kabupaten Buton, Sulawesi Tenggara","Kabupaten Buton, Sulawesi Tenggara",SULAWESI TENGGARA,,Indonesia,,,,-5.290863,122.298897,https://maps.google.com/?cid=0x0:0x6eab10a86a088341,
komplek housing,Pembangunan Perumahan,Bagea,"P75X+MH2, Mawasangka, Kec. Mawasangka, Kabupaten Buton, Sulawesi Tenggara","Kabupaten Buton, Sulawesi Tenggara",SULAWESI TENGGARA,,Indonesia,,,,-5.290863,122.298897,https://maps.google.com/?cid=0x0:0x5a683123c50339a1,
komplek housing,Komplek perumahan,Rumah Bail Info,"P75W+GQP, Unnamed Road, Mawasangka, Kec. Mawasangka, Kabupaten Buton, Sulawesi Tenggara 93762","Unnamed Road, Mawasangka, Kec. Mawasangka, Kabupaten Buton",SULAWESI TENGGARA,93762.0,Indonesia,82343190530.0,,,-5.2911608,122.2969512,https://maps.google.com/?cid=0x0:0x2cc9ee98c3d12352,
komplek housing,Komplek perumahan,Putri balqis house,"P75W+HX4, Unnamed Road, Mawasangka, Kec. Mawasangka, Kabupaten Buton, Sulawesi Tenggara 93762","Unnamed Road, Mawasangka, Kec. Mawasangka, Kabupaten Buton",SULAWESI TENGGARA,93762.0,Indonesia,,,,-5.291117,122.2974391,https://maps.google.com/?cid=0x0:0x25abcf9056bc54b3,
komplek housing,Komplek perumahan,Desa Wajogu,"P75X+MH2, Jl. Poros Labungkari, Mawasangka, Buton Regency, South East Sulawesi","Kabupaten Buton, Sulawesi Tenggara",SULAWESI TENGGARA,,Indonesia,,,,-5.290863,122.298897,https://maps.google.com/?cid=0x0:0xd76269e34bdc607,
komplek housing,komplek housing,Sulawesi Tenggara 93762,"Kabupaten Buton, Sulawesi Tenggara","Kabupaten Buton, Sulawesi Tenggara",SULAWESI TENGGARA,,Indonesia,,,,-5.291781,122.3787597,https://maps.google.com/?cid=0x0:0x29d13fe4e83e4ba7,
komplek housing,Pembangunan Perumahan,Kecamatan mawasangka kabupayen buton tengah,"P78Q+8GG, Mawasangka, Kec. Mawasangka, Kabupaten Buton, Sulawesi Tenggara","Kabupaten Buton, Sulawesi Tenggara",SULAWESI TENGGARA,,Indonesia,82345100032.0,,,-5.2841984,122.2888144,https://maps.google.com/?cid=0x0:0xcd0e8409d9ee231a,
komplek housing,Komplek perumahan,Lawalangke kompleks,"M99C+6GM, Lakorua, Kec. Mawasangka Tengah, Kabupaten Buton, Sulawesi Tenggara 93762","Lakorua, Kec. Mawasangka Tengah, Kabupaten Buton",SULAWESI TENGGARA,93762.0,Indonesia,,,,-5.3319222,122.3712909,https://maps.google.com/?cid=0x0:0xe418e1e31b9f16d7,
komplek housing,Perumahan,Dhifa Home,"P74X+W85, Ling. Landuhu, Watolo, Kec. Mawasangka, Kabupaten Buton, Sulawesi Tenggara 93762","Ling. Landuhu, Watolo, Kec. Mawasangka, Kabupaten Buton",SULAWESI TENGGARA,93762.0,Indonesia,,,,-5.2927442,122.2983617,https://maps.google.com/?cid=0x0:0xb3d2d6275a6c7df9,
komplek housing,Pembangunan Perumahan,Elma's House,"Q86P+R75, Polindu, Kec. Mawasangka, Kabupaten Buton, Sulawesi Tenggara","Kabupaten Buton, Sulawesi Tenggara",SULAWESI TENGGARA,,Indonesia,,,,-5.2379913,122.3357315,https://maps.google.com/?cid=0x0:0xac1aca0fded189d3,
komplek housing,Komplek perumahan,"Kompleks Pasar Lama, Jl Poros Pelabuhan","P78P+PW6, Mawasangka, Kec. Mawasangka, Kabupaten Buton, Sulawesi Tenggara 93762","Mawasangka, Kec. Mawasangka, Kabupaten Buton",SULAWESI TENGGARA,93762.0,Indonesia,,,,-5.2831043,122.2873729,https://maps.google.com/?cid=0x0:0xa8e5f1eb1487ffb6,
komplek housing,Komplek perumahan,Rumah heti,"P79W+5WG, Mawasangka, Kec. Mawasangka, Kabupaten Buton, Sulawesi Tenggara 93762","Mawasangka, Kec. Mawasangka, Kabupaten Buton",SULAWESI TENGGARA,93762.0,Indonesia,,,,-5.2817476,122.29687,https://maps.google.com/?cid=0x0:0xfd1b68ff6924d05c,
komplek housing,Pembangunan Perumahan,Bagea,"P75X+MH2, Mawasangka, Kec. Mawasangka, Kabupaten Buton, Sulawesi Tenggara","Kabupaten Buton, Sulawesi Tenggara",SULAWESI TENGGARA,,Indonesia,,,,-5.290863,122.298897,https://maps.google.com/?cid=0x0:0x5a683123c50339a1,
komplek housing,Toko Pakaian,Rumah,"M9CC+HX8, Lakorua, Kec. Mawasangka Tengah, Kabupaten Buton, Sulawesi Tenggara","Kabupaten Buton, Sulawesi Tenggara",SULAWESI TENGGARA,,Indonesia,,,,-5.3285857,122.3724539,https://maps.google.com/?cid=0x0:0xb9bb4f2506b9b4a4,
komplek housing,Komplek perumahan,Rumah Chaken,"M88R+5H9, Morikana, Kec. Mawasangka Tengah, Kabupaten Buton, Sulawesi Tenggara 93762","Morikana, Kec. Mawasangka Tengah, Kabupaten Buton",SULAWESI TENGGARA,93762.0,Indonesia,,,,-5.334182,122.341045,https://maps.google.com/?cid=0x0:0xc63df785c8f30d43,
komplek housing,Pembangunan Perumahan,Dusun Balano,"P8X9+FRG, Banga, Kec. Mawasangka, Kabupaten Buton, Sulawesi Tenggara 93762","Banga, Kec. Mawasangka, Kabupaten Buton",SULAWESI TENGGARA,93762.0,Indonesia,81341517332.0,,,-5.2513056,122.3195702,https://maps.google.com/?cid=0x0:0xa8518f58c5498964,
komplek housing,Rumah wisata,Pasilingga Home,"P7CV+P46, Mawasangka, Kec. Mawasangka, Kabupaten Buton, Sulawesi Tenggara 93762","Mawasangka, Kec. Mawasangka, Kabupaten Buton",SULAWESI TENGGARA,93762.0,Indonesia,,,,-5.2782064,122.2927604,https://maps.google.com/?cid=0x0:0x91d526cd59cbd281,
komplek housing,Komplek perumahan,Rini Astika Home,"P79R+476, Loring Jl. Landeu, Lingkungan Saubula, Mawasangka, Kec. Mawasangka, Kabupaten Buton, Sulawesi Tenggara 93762","Loring Jl. Landeu, Lingkungan Saubula, Mawasangka, Kec. Mawasangka, Kabupaten Buton",SULAWESI TENGGARA,93762.0,Indonesia,,,,-5.2822165,122.2906505,https://maps.google.com/?cid=0x0:0x3a8aaaf0bf379aff,
komplek housing,Komplek perumahan,Desa Wajogu,"P75X+MH2, Jl. Poros Labungkari, Mawasangka, Buton Regency, South East Sulawesi","Kabupaten Buton, Sulawesi Tenggara",SULAWESI TENGGARA,,Indonesia,,,,-5.290863,122.298897,https://maps.google.com/?cid=0x0:0xd76269e34bdc607,
komplek housing,Komplek perumahan,Rumah Wisno,"P823+RGW, Mawasangka, Kec. Mawasangka, Kabupaten Buton, Sulawesi Tenggara 93762","Mawasangka, Kec. Mawasangka, Kabupaten Buton",SULAWESI TENGGARA,93762.0,Indonesia,,,,-5.298243,122.304074,https://maps.google.com/?cid=0x0:0xc74fc6d88c72c45,
komplek housing,Perhimpunan Pengembang Perumahan,Rumah farhan,"P862+6V9, Lingkungan tengah, Mawasangka, Kec. Mawasangka, Kabupaten Buton, Sulawesi Tenggara","Kabupaten Buton, Sulawesi Tenggara",SULAWESI TENGGARA,,Indonesia,,,,-5.289475,122.3022476,https://maps.google.com/?cid=0x0:0xdc593ddff91e5fed,
komplek housing,Komplek perumahan,Kosmetik ibu yuni,"HFX5+4J2, Inulu, Mawasangka Tim., Kabupaten Buton, Sulawesi Tenggara 93762","Inulu, Mawasangka Tim., Kabupaten Buton",SULAWESI TENGGARA,93762.0,Indonesia,,,,-5.4016137,122.4586682,https://maps.google.com/?cid=0x0:0xd405c27514b4980c,
komplek housing,Komplek perumahan,INAL LAKSSA,"Mawasangka, Kec. Mawasangka, Kabupaten Buton, Sulawesi Tenggara 93762","Kec. Mawasangka, Kabupaten Buton",SULAWESI TENGGARA,93762.0,Indonesia,82343545931.0,,,-5.2880343,122.2866562,https://maps.google.com/?cid=0x0:0x5fd0cccdf5c41a40,
komplek housing,Pembangunan Perumahan,Mawasangka lingkungan karya suka,"P862+6V9, Mawasangka, Kec. Mawasangka, Kabupaten Buton, Sulawesi Tenggara","Kabupaten Buton, Sulawesi Tenggara",SULAWESI TENGGARA,,Indonesia,,,,-5.289475,122.3022476,https://maps.google.com/?cid=0x0:0xd7e72fe766152fc5,
komplek housing,Pembangunan Perumahan,Rumah ramadan,"P873+Q69, Mawasangka, Kec. Mawasangka, Kabupaten Buton, Sulawesi Tenggara","Kabupaten Buton, Sulawesi Tenggara",SULAWESI TENGGARA,,Indonesia,,,,-5.2855924,122.3030982,https://maps.google.com/?cid=0x0:0x22450c45c92971d9,
komplek housing,komplek housing,Kec. Mawasangka Tengah,"Kabupaten Buton, Sulawesi Tenggara","Kabupaten Buton, Sulawesi Tenggara",SULAWESI TENGGARA,,Indonesia,,,,-5.3281582,122.3735319,https://maps.google.com/?cid=0x0:0x5d31cab3951c9500,
komplek housing,Komplek perumahan,Rumah Azizah,"J9JH+2HV, Watorumbe Bata, Kec. Mawasangka Tengah, Kabupaten Buton, Sulawesi Tenggara 93762","Watorumbe Bata, Kec. Mawasangka Tengah, Kabupaten Buton",SULAWESI TENGGARA,93762.0,Indonesia,,,,-5.3696751,122.3791605,https://maps.google.com/?cid=0x0:0x2153f07394d0ea90,
komplek housing,Komplek perumahan,Wisma Hijau Hitam,"J9JH+FHC, Watorumbe Bata, Kec. Mawasangka Tengah, Kabupaten Buton, Sulawesi Tenggara 93762","Watorumbe Bata, Kec. Mawasangka Tengah, Kabupaten Buton",SULAWESI TENGGARA,93762.0,Indonesia,,,,-5.36894,122.378855,https://maps.google.com/?cid=0x0:0xb1f72dc35bfd4c22,
komplek housing,Pembangunan Perumahan,Posko KKN UM BUTON,"M98M+MQ2, Lagili, Mawasangka Tim., Kabupaten Buton, Sulawesi Tenggara 93762","Lagili, Mawasangka Tim., Kabupaten Buton",SULAWESI TENGGARA,93762.0,Indonesia,,,,-5.3333654,122.3843757,https://maps.google.com/?cid=0x0:0xd303619b4b5abcf5,
komplek housing,Kantor Perusahaan,Desa Watorumbe Bata,"J9MH+GM9, Watorumbe Bata, Kec. Mawasangka Tengah, Kabupaten Buton, Sulawesi Tenggara 93762","Watorumbe Bata, Kec. Mawasangka Tengah, Kabupaten Buton",SULAWESI TENGGARA,93762.0,Indonesia,,,,-5.3662165,122.3792456,https://maps.google.com/?cid=0x0:0xc747823d31a16d39,
komplek housing,Bangunan Bersejarah,Albastar wasilomata,"M8G7+VR5, Wasilomata I, Kec. Mawasangka, Kabupaten Buton, Sulawesi Tenggara 93762","Wasilomata I, Kec. Mawasangka, Kabupaten Buton",SULAWESI TENGGARA,93762.0,Indonesia,,,,-5.3228619,122.3145998,https://maps.google.com/?cid=0x0:0x191d06dfc5343ded,
komplek housing,Komplek perumahan,Risna,"M88R+7QC, Morikana, Kec. Mawasangka Tengah, Kabupaten Buton, Sulawesi Tenggara 93762","Morikana, Kec. Mawasangka Tengah, Kabupaten Buton",SULAWESI TENGGARA,93762.0,Indonesia,,,,-5.3341886,122.3418629,https://maps.google.com/?cid=0x0:0xccee5de774b09d77,
komplek housing,Komplek perumahan,Adlin,"J9MJ+X59, Watorumbe Bata, Kec. Mawasangka Tengah, Kabupaten Buton, Sulawesi Tenggara 93762","Watorumbe Bata, Kec. Mawasangka Tengah, Kabupaten Buton",SULAWESI TENGGARA,93762.0,Indonesia,,,,-5.3641834,122.3805183,https://maps.google.com/?cid=0x0:0x4acf2ab25c597a05,
komplek housing,Komplek perumahan,Rumah lilis,"JFM9+32R, Topa, Tengah, Wantopi, Mawasangka Tim., Kabupaten Buton, Sulawesi Tenggara 93762","Topa, Tengah, Wantopi, Mawasangka Tim., Kabupaten Buton",SULAWESI TENGGARA,93762.0,Indonesia,,,,-5.3672568,122.4675192,https://maps.google.com/?cid=0x0:0xd365240cd9e709eb,
komplek housing,komplek housing,Mawasangka Tim.,"Kabupaten Buton, Sulawesi Tenggara","Kabupaten Buton, Sulawesi Tenggara",SULAWESI TENGGARA,,Indonesia,,,,-5.3611739,122.424074,https://maps.google.com/?cid=0x0:0xf58d05571c4d04f4,
komplek housing,Komplek perumahan,Kosmetik ibu yuni,"HFX5+4J2, Inulu, Mawasangka Tim., Kabupaten Buton, Sulawesi Tenggara 93762","Inulu, Mawasangka Tim., Kabupaten Buton",SULAWESI TENGGARA,93762.0,Indonesia,,,,-5.4016137,122.4586682,https://maps.google.com/?cid=0x0:0xd405c27514b4980c,
komplek housing,Komplek perumahan,Rumah biasa,"J9HH+XF8, Watorumbe Bata, Kec. Mawasangka Tengah, Kabupaten Buton, Sulawesi Tenggara","Kabupaten Buton, Sulawesi Tenggara",SULAWESI TENGGARA,,Indonesia,,,,-5.370995,122.37832,https://maps.google.com/?cid=0x0:0xb60489d585250914,
komplek housing,komplek housing,Rumah Dzaif WBL,"J9PV+WQ7, Wambuloli, Mawasangka Tim., Kabupaten Buton, Sulawesi Tenggara","Kabupaten Buton, Sulawesi Tenggara",SULAWESI TENGGARA,,Indonesia,,,,-5.3627017,122.3944261,https://maps.google.com/?cid=0x0:0xfb4fd7b43f701935,
komplek housing,Komplek perumahan,Nenek Aisyah Dea,"HFX2+5VJ, Inulu, Mawasangka Tim., Kabupaten Buton, Sulawesi Tenggara","Kabupaten Buton, Sulawesi Tenggara",SULAWESI TENGGARA,,Indonesia,,,,-5.4020377,122.4521408,https://maps.google.com/?cid=0x0:0x2c37070513cad608,
komplek housing,Komplek perumahan,Rumah Yuyun,"HFX3+754, Jalan Dermaga Desa, Inulu, East Mawasangka, Buton Regency, South East Sulawesi","Kabupaten Buton, Sulawesi Tenggara",SULAWESI TENGGARA,,Indonesia,,,,-5.4018523,122.4529663,https://maps.google.com/?cid=0x0:0x7521c495ad1b0e7a,
komplek housing,Hotel,Kompleks Bersaudara,"Lorong Kembar, Lanto, Kec. Mawasangka Tengah, Kabupaten Buton, Sulawesi Tenggara","Kabupaten Buton, Sulawesi Tenggara",SULAWESI TENGGARA,,Indonesia,82190741099.0,,,-5.320692,122.379479,https://maps.google.com/?cid=0x0:0xa1fcdd86d04ee958,
komplek housing,Komplek perumahan,Lorong arak,"J9HW+79F, Wambuloli, Mawasangka Tim., Kabupaten Buton, Sulawesi Tenggara","Kabupaten Buton, Sulawesi Tenggara",SULAWESI TENGGARA,,Indonesia,,,,-5.3718122,122.3959198,https://maps.google.com/?cid=0x0:0xd876b7023e832513,
komplek housing,Pembangunan Perumahan,Dusun lamena,"HFX2+9HF, Lasori, Mawasangka Tim., Kabupaten Buton, Sulawesi Tenggara","Kabupaten Buton, Sulawesi Tenggara",SULAWESI TENGGARA,,Indonesia,,,,-5.401573,122.45143,https://maps.google.com/?cid=0x0:0xc9c7c2df9e1d83f2,
komplek housing,Komplek perumahan,Rumah Azizah,"J9JH+2HV, Watorumbe Bata, Kec. Mawasangka Tengah, Kabupaten Buton, Sulawesi Tenggara 93762","Watorumbe Bata, Kec. Mawasangka Tengah, Kabupaten Buton",SULAWESI TENGGARA,93762.0,Indonesia,,,,-5.3696751,122.3791605,https://maps.google.com/?cid=0x0:0x2153f07394d0ea90,
komplek housing,Pembangunan Perumahan,Rumah Indra,"HFX3+9R4, Lamena, Mawasangka Tim., Kabupaten Buton, Sulawesi Tenggara 93762","Lamena, Mawasangka Tim., Kabupaten Buton",SULAWESI TENGGARA,93762.0,Indonesia,,,,-5.4016694,122.4544099,https://maps.google.com/?cid=0x0:0x640fedbb965a2ca4,
komplek housing,Komplek perumahan,Wisma Hijau Hitam,"J9JH+FHC, Watorumbe Bata, Kec. Mawasangka Tengah, Kabupaten Buton, Sulawesi Tenggara 93762","Watorumbe Bata, Kec. Mawasangka Tengah, Kabupaten Buton",SULAWESI TENGGARA,93762.0,Indonesia,,,,-5.36894,122.378855,https://maps.google.com/?cid=0x0:0xb1f72dc35bfd4c22,
komplek housing,Kantor Perusahaan,Desa Watorumbe Bata,"J9MH+GM9, Watorumbe Bata, Kec. Mawasangka Tengah, Kabupaten Buton, Sulawesi Tenggara 93762","Watorumbe Bata, Kec. Mawasangka Tengah, Kabupaten Buton",SULAWESI TENGGARA,93762.0,Indonesia,,,,-5.3662165,122.3792456,https://maps.google.com/?cid=0x0:0xc747823d31a16d39,
komplek housing,Komplek perumahan,Rumah lilis,"JFM9+32R, Topa, Tengah, Wantopi, Mawasangka Tim., Kabupaten Buton, Sulawesi Tenggara 93762","Topa, Tengah, Wantopi, Mawasangka Tim., Kabupaten Buton",SULAWESI TENGGARA,93762.0,Indonesia,,,,-5.3672568,122.4675192,https://maps.google.com/?cid=0x0:0xd365240cd9e709eb,
komplek housing,Pembangunan Perumahan,Posko KKN UM BUTON,"M98M+MQ2, Lagili, Mawasangka Tim., Kabupaten Buton, Sulawesi Tenggara 93762","Lagili, Mawasangka Tim., Kabupaten Buton",SULAWESI TENGGARA,93762.0,Indonesia,,,,-5.3333654,122.3843757,https://maps.google.com/?cid=0x0:0xd303619b4b5abcf5,
komplek housing,komplek housing,Rumah jabatan kepala Desa Lasori,"HFX4+48R, Inulu, Mawasangka Tim., Kabupaten Buton, Sulawesi Tenggara","Kabupaten Buton, Sulawesi Tenggara",SULAWESI TENGGARA,,Indonesia,,,,-5.4020462,122.4554667,https://maps.google.com/?cid=0x0:0xe61aea6bcb155b71,
komplek housing,Komplek perumahan,Rumah Hulis,"Dusun Raja Manguntu, Wambuloli, Mawasangka Tim., Kabupaten Buton Tengah, Sulawesi Tenggara","Kabupaten Buton Tengah, Sulawesi Tenggara",SULAWESI TENGGARA,,Indonesia,,,,-5.3753564,122.3974877,https://maps.google.com/?cid=0x0:0x2c2f26a6fd0e5395,
komplek housing,Komplek perumahan,rumah ARIMO,"HFX3+754, Jl. Dermaga Desa Inulu, Inulu, Mawasangka Tim., Kabupaten Buton, Sulawesi Tenggara","Kabupaten Buton, Sulawesi Tenggara",SULAWESI TENGGARA,,Indonesia,,,,-5.4011954,122.4536357,https://maps.google.com/?cid=0x0:0x2723885981eacf77,
komplek housing,komplek housing,Rumah Bahruddin Talaleng,"J9PH+3JW, Watorumbe Bata, Kec. Mawasangka Tengah, Kabupaten Buton, Sulawesi Tenggara","Kabupaten Buton, Sulawesi Tenggara",SULAWESI TENGGARA,,Indonesia,,,,-5.3647631,122.3790663,https://maps.google.com/?cid=0x0:0x9badd5a46b8b43ad,
komplek housing,Komplek perumahan,Rumah la Amusi,"HFX2+3R7, Lasori, Mawasangka Tim., Kabupaten Buton, Sulawesi Tenggara","Kabupaten Buton, Sulawesi Tenggara",SULAWESI TENGGARA,,Indonesia,,,,-5.402327,122.4520489,https://maps.google.com/?cid=0x0:0x4f81026a1bc4d0db,
komplek housing,Komplek perumahan,Adlin,"J9MJ+X59, Watorumbe Bata, Kec. Mawasangka Tengah, Kabupaten Buton, Sulawesi Tenggara 93762","Watorumbe Bata, Kec. Mawasangka Tengah, Kabupaten Buton",SULAWESI TENGGARA,93762.0,Indonesia,,,,-5.3641834,122.3805183,https://maps.google.com/?cid=0x0:0x4acf2ab25c597a05,
komplek housing,komplek housing,Sulawesi Tenggara 93761,"Kec. Gu, Kabupaten Buton, Sulawesi Tenggara","Kabupaten Buton, Sulawesi Tenggara",SULAWESI TENGGARA,,Indonesia,,,,-5.2702397,122.593828,https://maps.google.com/?cid=0x0:0xe714ef696c5af545,
komplek housing,komplek housing,Sangia,"Kec. Sape, Kabupaten Bima, Nusa Tenggara Bar.","Kabupaten Bima, Nusa Tenggara Bar.",SULAWESI TENGGARA,,Indonesia,,,,-8.541726,118.9848837,https://maps.google.com/?cid=0x0:0x4fc2629c6b776e9f,
komplek housing,komplek housing,Mambulu,"Kec. Sembakung, Kabupaten Nunukan, Kalimantan Utara","Kabupaten Nunukan, Kalimantan Utara",SULAWESI TENGGARA,,Indonesia,,,,3.8355275,116.9204787,https://maps.google.com/?cid=0x0:0xef28284fdf733144,
komplek housing,Rumah Kayu,Sangia wambulu,"JJM9+H6M, Tolandona, Kec. Sangia Wambulu, Kabupaten Buton, Sulawesi Tenggara","Kabupaten Buton, Sulawesi Tenggara",SULAWESI TENGGARA,,Indonesia,,,,-5.3660467,122.6180429,https://maps.google.com/?cid=0x0:0x623b1e8f611ee924,
komplek housing,Kompleks Apartemen,Mambulu,"FP8W+F2W, Sandang Pangan, Kec. Sampolawa, Kabupaten Buton, Sulawesi Tenggara","Kabupaten Buton, Sulawesi Tenggara",SULAWESI TENGGARA,,Indonesia,,,,-5.5337573,122.7450732,https://maps.google.com/?cid=0x0:0x9bcaae89cf18c55b,
komplek housing,komplek housing,Komplek Housing,"Blok Bojong Nangka I, Jl. Ring Rudal Blok Bojong Nangka I No.68, RT.001/RW.007, Jatirahayu, Kec. Pd. Melati, Kota Bks, Jawa Barat 17414","Jl. Ring Rudal Blok Bojong Nangka I No.68, RT.001/RW.007, Jatirahayu, Kec. Pd. Melati, Kota Bks",SULAWESI TENGGARA,17414.0,Indonesia,,,,-6.293724,106.9165114,https://maps.google.com/?cid=0x0:0x9c50464976dee674,
komplek housing,komplek housing,Talaga Raya,"Kabupaten Buton, Sulawesi Tenggara","Kabupaten Buton, Sulawesi Tenggara",SULAWESI TENGGARA,,Indonesia,,,,-5.4213926,122.0155491,https://maps.google.com/?cid=0x0:0x2e35b700451321ba,
komplek housing,Komplek perumahan,KOMPLEKS GSE (GENERASI SIMPANG EMPAT),"G3CG+C7J, Talaga I, Talaga Raya, Kabupaten Buton, Sulawesi Tenggara 93781","Talaga I, Talaga Raya, Kabupaten Buton",SULAWESI TENGGARA,93781.0,Indonesia,,,,-5.4789111,122.075625,https://maps.google.com/?cid=0x0:0x4db0e62f52d32f55,
komplek housing,komplek housing,Rumah Haikal,"G3FF+GQH, Talaga I, Talaga Raya, Kabupaten Buton, Sulawesi Tenggara 93781","Talaga I, Talaga Raya, Kabupaten Buton",SULAWESI TENGGARA,93781.0,Indonesia,,,,-5.4761872,122.0744889,https://maps.google.com/?cid=0x0:0x216e72718172b212,
komplek housing,Komplek perumahan,Rumah,"G3CG+QQQ, Talaga II, Talaga Raya, Kabupaten Buton, Sulawesi Tenggara 93781","Talaga II, Talaga Raya, Kabupaten Buton",SULAWESI TENGGARA,93781.0,Indonesia,,,,-5.4780375,122.0769844,https://maps.google.com/?cid=0x0:0xae3152e31ba22cdc,
komplek housing,komplek housing,Dusun Tanah Merah,"G25W+3P5, Talaga Besar, Talaga Raya, Kabupaten Buton, Sulawesi Tenggara","Kabupaten Buton, Sulawesi Tenggara",SULAWESI TENGGARA,,Indonesia,,,,-5.4928569,122.0466812,https://maps.google.com/?cid=0x0:0x4e1b1621349c934,
komplek housing,Komplek perumahan,Dubai House,"G3GM+GJ3, Talaga I, Talaga Raya, Kabupaten Buton, Sulawesi Tenggara 93781","Talaga I, Talaga Raya, Kabupaten Buton",SULAWESI TENGGARA,93781.0,Indonesia,,,,-5.4741754,122.0849953,https://maps.google.com/?cid=0x0:0x3ab84eeec2939be9,
komplek housing,Komplek perumahan,Nurul,"G3CH+HJ4, Talaga I, Talaga Raya, Kabupaten Buton, Sulawesi Tenggara 93781","Talaga I, Talaga Raya, Kabupaten Buton",SULAWESI TENGGARA,93781.0,Indonesia,,,,-5.4785299,122.0799967,https://maps.google.com/?cid=0x0:0x2fdb0c99e3f5d668,
komplek housing,Komplek perumahan,Rumah Dea,"G3FJ+2W8, Talaga I, Talaga Raya, Kabupaten Buton, Sulawesi Tenggara 93781","Talaga I, Talaga Raya, Kabupaten Buton",SULAWESI TENGGARA,93781.0,Indonesia,,,,-5.4774587,122.0823242,https://maps.google.com/?cid=0x0:0xd5665b72bce94452,
komplek housing,Komplek perumahan,Kompleks darkness,"G3CG+QFV, Talaga I, Talaga Raya, Kabupaten Buton, Sulawesi Tenggara 93781","Talaga I, Talaga Raya, Kabupaten Buton",SULAWESI TENGGARA,93781.0,Indonesia,,,,-5.4780052,122.0761741,https://maps.google.com/?cid=0x0:0x97c51a5473f95586,
komplek housing,Perhimpunan Pengembang Perumahan,Rumah Dhin,"G25X+VJQ, Talaga Besar, Talaga Raya, Kabupaten Buton, Sulawesi Tenggara 93781","Talaga Besar, Talaga Raya, Kabupaten Buton",SULAWESI TENGGARA,93781.0,Indonesia,,,,-5.490362,122.049234,https://maps.google.com/?cid=0x0:0xd690bfb91993f6c2,
komplek housing,Komplek perumahan,Rumah elsa,"G3GM+98P, Talaga I, Talaga Raya, Kabupaten Buton, Sulawesi Tenggara 93781","Talaga I, Talaga Raya, Kabupaten Buton",SULAWESI TENGGARA,93781.0,Indonesia,,,,-5.4739817,122.0827007,https://maps.google.com/?cid=0x0:0x576754349a92d92b,
komplek housing,Komplek perumahan,Tempat tinggal kami,"00029, Talaga I, Talaga Raya, Kabupaten Buton, Sulawesi Tenggara","Kabupaten Buton, Sulawesi Tenggara",SULAWESI TENGGARA,,Indonesia,,,,-5.4751488,122.075422,https://maps.google.com/?cid=0x0:0x82f1a5c7f77d2342,
komplek housing,Komplek perumahan,Rumah atifa,"G3FF+VG5, Unnamed Road, Talaga I, Talaga Raya, Kabupaten Buton, Sulawesi Tenggara 93781","Unnamed Road, Talaga I, Talaga Raya, Kabupaten Buton",SULAWESI TENGGARA,93781.0,Indonesia,,,,-5.4752997,122.0738608,https://maps.google.com/?cid=0x0:0x7f25f1ca6d0150fe,
komplek housing,Komplek perumahan,JUJU HOUSE,"G3GG+F8C, Talaga I, Talaga Raya, Kabupaten Buton, Sulawesi Tenggara 93781","Talaga I, Talaga Raya, Kabupaten Buton",SULAWESI TENGGARA,93781.0,Indonesia,,,,-5.4737944,122.0757993,https://maps.google.com/?cid=0x0:0x8d5609cdd1eee8b0,
komplek housing,Komplek perumahan,Rumah Hajar,"G3CG+H4W, Talaga II, Talaga Raya, Kabupaten Buton, Sulawesi Tenggara 93781","Talaga II, Talaga Raya, Kabupaten Buton",SULAWESI TENGGARA,93781.0,Indonesia,,,,-5.4785125,122.0753512,https://maps.google.com/?cid=0x0:0xa031b9d373a75cd,
komplek housing,Komplek perumahan,Rumah Rasti,"G3FH+M29, Talaga I, Talaga Raya, Kabupaten Buton, Sulawesi Tenggara","Kabupaten Buton, Sulawesi Tenggara",SULAWESI TENGGARA,,Indonesia,,,,-5.475834,122.0776004,https://maps.google.com/?cid=0x0:0x7a451914ebf5537f,
komplek housing,Komplek perumahan,Rumah Egayatri,"G3GF+6W5, Talaga I, Talaga Raya, Kabupaten Buton, Sulawesi Tenggara","Kabupaten Buton, Sulawesi Tenggara",SULAWESI TENGGARA,,Indonesia,,,,-5.4744383,122.0747026,https://maps.google.com/?cid=0x0:0x854be5bc42d299ce,
komplek housing,Perhimpunan Pengembang Perumahan,Rumah sherli,"G24W+XC4, Pulau Telaga Besar, Talaga Besar, Talaga Raya, Kabupaten Buton, Sulawesi Tenggara","Kabupaten Buton, Sulawesi Tenggara",SULAWESI TENGGARA,,Indonesia,,,,-5.4926105,122.0460714,https://maps.google.com/?cid=0x0:0x69a91d80fd2237df,
komplek housing,Komplek perumahan,Takdir.S Home,"G3FF+QH5, Talaga I, Talaga Raya, Kabupaten Buton, Sulawesi Tenggara 93781","Talaga I, Talaga Raya, Kabupaten Buton",SULAWESI TENGGARA,93781.0,Indonesia,,,,-5.4758631,122.0737243,https://maps.google.com/?cid=0x0:0x7362d718154b826d,
komplek housing,komplek housing,Dusun Kambara,"G25W+4G2, Talaga Besar, Talaga Raya, Kabupaten Buton, Sulawesi Tenggara 93781","Talaga Besar, Talaga Raya, Kabupaten Buton",SULAWESI TENGGARA,93781.0,Indonesia,,,,-5.4921697,122.0463175,https://maps.google.com/?cid=0x0:0x66fa4171d0ad9899,
komplek housing,Perhimpunan Pengembang Perumahan,rumah yasir,"G352+MC3, Pulau Telaga Besar, Talaga Besar, Talaga Raya, Kabupaten Buton, Sulawesi Tenggara","Kabupaten Buton, Sulawesi Tenggara",SULAWESI TENGGARA,,Indonesia,,,,-5.4908696,122.0510435,https://maps.google.com/?cid=0x0:0xd909c941cae98617,
komplek housing,Komplek perumahan,RUMAH MASTA,"G39G+P7F, Talaga II, Talaga Raya, Kabupaten Buton, Sulawesi Tenggara","Kabupaten Buton, Sulawesi Tenggara",SULAWESI TENGGARA,,Indonesia,,,,-5.4806894,122.0756591,https://maps.google.com/?cid=0x0:0xcea984460845f232,
komplek housing,Komplek perumahan,RUMAH BUNDA NADIA,"G25W+JX6, Talaga Besar, Talaga Raya, Kabupaten Buton, Sulawesi Tenggara 93781","Talaga Besar, Talaga Raya, Kabupaten Buton",SULAWESI TENGGARA,93781.0,Indonesia,82196933303.0,,,-5.4909155,122.0473176,https://maps.google.com/?cid=0x0:0xe1fac82547f41540,
komplek housing,komplek housing,Rumah mama Ocha,"G3CG+2R5, Talaga I, Talaga Raya, Kabupaten Buton, Sulawesi Tenggara 93781","Talaga I, Talaga Raya, Kabupaten Buton",SULAWESI TENGGARA,93781.0,Indonesia,,,,-5.4796311,122.0771542,https://maps.google.com/?cid=0x0:0x88be5e17fe317f5b,
komplek housing,Komplek perumahan,Om dayat,"G3FH+W5X, Talaga I, Talaga Raya, Kabupaten Buton, Sulawesi Tenggara 93781","Talaga I, Talaga Raya, Kabupaten Buton",SULAWESI TENGGARA,93781.0,Indonesia,,,,-5.4750512,122.0780514,https://maps.google.com/?cid=0x0:0x13346861f7645815,
komplek housing,Komplek perumahan,Rumah Alzuzu,"G3CG+H4W, Talaga II, Talaga Raya, Kabupaten Buton, Sulawesi Tenggara 93781","Talaga II, Talaga Raya, Kabupaten Buton",SULAWESI TENGGARA,93781.0,Indonesia,,,,-5.4785125,122.0753512,https://maps.google.com/?cid=0x0:0xfbf67045db67e7dc,
komplek housing,Komplek perumahan,Rumah Khabotu Tata EmpeÂ²,"G3FF+VG5, Unnamed Road, Talaga I, Talaga Raya, Kabupaten Buton, Sulawesi Tenggara 93781","Unnamed Road, Talaga I, Talaga Raya, Kabupaten Buton",SULAWESI TENGGARA,93781.0,Indonesia,,,,-5.4752857,122.0738698,https://maps.google.com/?cid=0x0:0x4587163c730251cc,
perumahan,perumahan,Sulawesi Tenggara 93761,"Kec. Gu, Kabupaten Buton, Sulawesi Tenggara","Kabupaten Buton, Sulawesi Tenggara",SULAWESI TENGGARA,,Indonesia,,,,-5.2702397,122.593828,https://maps.google.com/?cid=0x0:0xe714ef696c5af545,
perumahan,Komplek perumahan,Kompleks Bakes,"PHXF+RXV, Watulea, Kec. Gu, Kabupaten Buton, Sulawesi Tenggara 93761","Watulea, Kec. Gu, Kabupaten Buton",SULAWESI TENGGARA,93761.0,Indonesia,,,,-5.250435,122.5748423,https://maps.google.com/?cid=0x0:0x6231205b70243532,
perumahan,Perhimpunan Pengembang Perumahan,Green House,"PHVM+32R, Bombonawulu, Kec. Gu, Kabupaten Buton, Sulawesi Tenggara 93761","Bombonawulu, Kec. Gu, Kabupaten Buton",SULAWESI TENGGARA,93761.0,Indonesia,,,,-5.2572513,122.5825139,https://maps.google.com/?cid=0x0:0xeeb056b98982e4e5,
perumahan,Komplek perumahan,Griya Liwanda - Perumahan Eksklusif Terjangkau Buton Tengah,"Jalan Gersamata, Desa Matawine, Kecamatan Lakudo, Kabupaten Buton, Tengah, Buton Tengah, Sulawesi Tenggara 93763","Desa Matawine, Kecamatan Lakudo, Kabupaten Buton, Tengah, Buton Tengah",SULAWESI TENGGARA,93763.0,Indonesia,811401850.0,,,-5.2796994,122.5406304,https://maps.google.com/?cid=0x0:0xa896023c6d6fc2a3,
perumahan,Komplek perumahan,Rumah Yuli FD,"PHXC+799, Watulea, Kec. Gu, Kabupaten Buton, Sulawesi Tenggara","Kabupaten Buton, Sulawesi Tenggara",SULAWESI TENGGARA,,Indonesia,,,,-5.2518376,122.5709876,https://maps.google.com/?cid=0x0:0xe9d6b2bb39058bdb,
perumahan,Komplek perumahan,Lingkungan 18 Kelurahan Watulea,"PHXF+65W, Bombonawulu, Kec. Gu, Kabupaten Buton, Sulawesi Tenggara 93761","Bombonawulu, Kec. Gu, Kabupaten Buton",SULAWESI TENGGARA,93761.0,Indonesia,,,,-5.2518826,122.5729674,https://maps.google.com/?cid=0x0:0x6175f76cb0e53529,
perumahan,Komplek perumahan,lorong balobuea,"MJ37+282, Jl. Poros Lombe, Wadiabero, Kec. Gu, Kabupaten Buton, Sulawesi Tenggara 93761","Jl. Poros Lombe, Wadiabero, Kec. Gu, Kabupaten Buton",SULAWESI TENGGARA,93761.0,Indonesia,,,,-5.3474833,122.6132553,https://maps.google.com/?cid=0x0:0xb78e65aec30f6ab2,
perumahan,Perhimpunan Pengembang Perumahan,Kampung Kodok,"PHXF+65W, Bombonawulu, Kec. Gu, Kabupaten Buton, Sulawesi Tenggara 93761","Bombonawulu, Kec. Gu, Kabupaten Buton",SULAWESI TENGGARA,93761.0,Indonesia,,,,-5.2524165,122.5732563,https://maps.google.com/?cid=0x0:0xca81f431716a9c67,
perumahan,Pembangunan Perumahan,Kaliwuliwuto,"QHCW+X5G, Kaliwuliwuto, Kec. Gu, Kabupaten Buton, Sulawesi Tenggara 93761","Kaliwuliwuto, Kec. Gu, Kabupaten Buton",SULAWESI TENGGARA,93761.0,Indonesia,,,,-5.2275544,122.5954565,https://maps.google.com/?cid=0x0:0xb8ea38686d89f6c2,
perumahan,Pembangunan Perumahan,Balobuea,"MJ25+Q5P, Wadiabero, Kec. Gu, Kabupaten Buton, Sulawesi Tenggara","Kabupaten Buton, Sulawesi Tenggara",SULAWESI TENGGARA,,Indonesia,,,,-5.3480322,122.6079616,https://maps.google.com/?cid=0x0:0xa08f1e2207563e39,
perumahan,Perhimpunan Pengembang Perumahan,Perumahan Guru SMA Neg. 1. Gu,"PHVH+97H, Bombonawulu, tengah, Kec. Gu, Kabupaten Buton, Sulawesi Tenggara","Kabupaten Buton, Sulawesi Tenggara",SULAWESI TENGGARA,,Indonesia,,,,-5.2565687,122.5782224,https://maps.google.com/?cid=0x0:0xa4544ca42dec04d8,
perumahan,perumahan,Rumah nunung,"JJM9+C4P, Tolandona, Kec. Sangia Wambulu, Kabupaten Buton, Sulawesi Tenggara 93761","Tolandona, Kec. Sangia Wambulu, Kabupaten Buton",SULAWESI TENGGARA,93761.0,Indonesia,,,,-5.3664428,122.6175928,https://maps.google.com/?cid=0x0:0x42b4d07a29c6553f,
perumahan,Komplek perumahan,Syukur,"PHVG+58, Bombonawulu, Kec. Gu, Kabupaten Buton, Sulawesi Tenggara 93761","Bombonawulu, Kec. Gu, Kabupaten Buton",SULAWESI TENGGARA,93761.0,Indonesia,,,,-5.2570408,122.5758517,https://maps.google.com/?cid=0x0:0x9ee6fccf291230eb,
perumahan,perumahan,Home AnggiAngga,"PGRP+8PX, Dusun Wambulu, Desa Teluk Lasongko, Kec. Lakudo, Kabupaten Buton tengah, Sulawesi Tenggara","Kabupaten Buton tengah, Sulawesi Tenggara",SULAWESI TENGGARA,,Indonesia,,,,-5.2591433,122.5368597,https://maps.google.com/?cid=0x0:0x52ca1990916f8903,
perumahan,Komplek perumahan,GRIYO BANG LA,"PHXG+7C3, Watulea, Kec. Gu, Kabupaten Buton, Sulawesi Tenggara 93761","Watulea, Kec. Gu, Kabupaten Buton",SULAWESI TENGGARA,93761.0,Indonesia,,,,-5.2518537,122.5760474,https://maps.google.com/?cid=0x0:0x64013597205aafb5,
perumahan,perumahan,Rumahku,"MJ37+F73, Wadiabero, Kec. Gu, Kabupaten Buton, Sulawesi Tenggara","Kabupaten Buton, Sulawesi Tenggara",SULAWESI TENGGARA,,Indonesia,,,,-5.3463741,122.6132844,https://maps.google.com/?cid=0x0:0x89d75391c670bf5b,
perumahan,Pembangunan Perumahan,BCL Gank,"Bombonawulu, Kec. Gu, Kabupaten Buton, Sulawesi Tenggara 93761","Kec. Gu, Kabupaten Buton",SULAWESI TENGGARA,93761.0,Indonesia,85256461431.0,,,-5.2538675,122.5757158,https://maps.google.com/?cid=0x0:0x846e84add8759859,
perumahan,Komplek perumahan,Rumah Juiki,"PHXF+6V3, Bombonawulu, Kec. Gu, Kabupaten Buton, Sulawesi Tenggara 93761","Bombonawulu, Kec. Gu, Kabupaten Buton",SULAWESI TENGGARA,93761.0,Indonesia,,,,-5.2519485,122.5745991,https://maps.google.com/?cid=0x0:0xeffaabe4d39e5a92,
perumahan,Perhimpunan Pengembang Perumahan,La eoona,"Ling. XIV, Watulea, Kec. Gu, Kabupaten Buton, Sulawesi Tenggara","Kabupaten Buton, Sulawesi Tenggara",SULAWESI TENGGARA,,Indonesia,,,,-5.2509983,122.5746342,https://maps.google.com/?cid=0x0:0x5f8013bab1e5e318,
perumahan,Komplek perumahan,Rumah,"MJRR+WRW, dusun uncume, Rahia, Kec. Gu, kab.buton tengah, Sulawesi Tenggara","kab.buton tengah, Sulawesi Tenggara",SULAWESI TENGGARA,,Indonesia,,,,-5.30679,122.6417786,https://maps.google.com/?cid=0x0:0x5da4eb204dfd5010,
perumahan,Komplek perumahan,Pasar Lombe,"Jl. Yos Sudarso No.5, Watulea, Kec. Gu, Kabupaten Buton, Sulawesi Tenggara 93761","Watulea, Kec. Gu, Kabupaten Buton",SULAWESI TENGGARA,93761.0,Indonesia,,,,-5.2484897,122.5764845,https://maps.google.com/?cid=0x0:0x32179b296515c047,
perumahan,Komplek perumahan,LDM Family,"PHVC+VVF, Jl. Jend. Sudirman, Walando, Kec. Gu, Kabupaten Buton Tengah, Sulawesi Tenggara 93761","Jl. Jend. Sudirman, Walando, Kec. Gu, Kabupaten Buton Tengah",SULAWESI TENGGARA,93761.0,Indonesia,,,,-5.2553033,122.5721837,https://maps.google.com/?cid=0x0:0x86f5702a241c684d,
perumahan,Kantor Pemerintah,Lombe,"QHG3+PMQ, Lakapera, Kec. Gu, Kabupaten Buton, Sulawesi Tenggara","Kabupaten Buton, Sulawesi Tenggara",SULAWESI TENGGARA,,Indonesia,,,,-5.2231708,122.5542435,https://maps.google.com/?cid=0x0:0xae0c9c838872fb15,
perumahan,Komplek perumahan,Liagusi ILUSI,"PHX9+CHX, Watulea, Kec. Gu, Kabupaten Buton, Sulawesi Tenggara","Kabupaten Buton, Sulawesi Tenggara",SULAWESI TENGGARA,,Indonesia,,,,-5.2513836,122.5689878,https://maps.google.com/?cid=0x0:0x29668c2c159780ef,
perumahan,Komplek perumahan,BARUTA LESTARI,"JJR9+J9F, Baruta Lestari, Kec. Sangia Wambulu, Kabupaten Buton tengah, Sulawesi Tenggara 93761","Baruta Lestari, Kec. Sangia Wambulu, Kabupaten Buton tengah",SULAWESI TENGGARA,93761.0,Indonesia,82240424995.0,,,-5.358443,122.6184351,https://maps.google.com/?cid=0x0:0xc0a0aab70c3c0013,
perumahan,perumahan,Sulawesi Tenggara 93763,"Kec. Lakudo, Kabupaten Buton, Sulawesi Tenggara","Kabupaten Buton, Sulawesi Tenggara",SULAWESI TENGGARA,,Indonesia,,,,-5.3531329,122.5598994,https://maps.google.com/?cid=0x0:0x62c2a15eea95dc2,
perumahan,Komplek perumahan,Perumahan Anak Sultan Lakudo Residence,"Barat, Lakudo, Kec. Lakudo, Buton Tengah, Sulawesi Tenggara 93763","Lakudo, Kec. Lakudo, Buton Tengah",SULAWESI TENGGARA,93763.0,Indonesia,85359992899.0,,,-5.3164533,122.5287974,https://maps.google.com/?cid=0x0:0x50402f2af9ca351a,
perumahan,Komplek perumahan,Griya Liwanda - Perumahan Eksklusif Terjangkau Buton Tengah,"Jalan Gersamata, Desa Matawine, Kecamatan Lakudo, Kabupaten Buton, Tengah, Buton Tengah, Sulawesi Tenggara 93763","Desa Matawine, Kecamatan Lakudo, Kabupaten Buton, Tengah, Buton Tengah",SULAWESI TENGGARA,93763.0,Indonesia,811401850.0,,,-5.2796994,122.5406304,https://maps.google.com/?cid=0x0:0xa896023c6d6fc2a3,
perumahan,Komplek perumahan,YAMIN,"MG6Q+QFW, Lakudo, Kec. Lakudo, Kabupaten Buton, Sulawesi Tenggara 93763","Lakudo, Kec. Lakudo, Kabupaten Buton",SULAWESI TENGGARA,93763.0,Indonesia,,,,-5.3381804,122.5388608,https://maps.google.com/?cid=0x0:0xd502778853a55c3,
perumahan,Komplek perumahan,"KOMPLEKX ,KG","HG99+MR8, Madongka, Kec. Lakudo, Kabupaten Buton, Sulawesi Tenggara 93763","Madongka, Kec. Lakudo, Kabupaten Buton",SULAWESI TENGGARA,93763.0,Indonesia,,,,-5.4308307,122.5195711,https://maps.google.com/?cid=0x0:0x8bc9e148ab3a5a7d,
perumahan,Komplek perumahan,ABDUL RAHMAN,"MG6Q+QFW, Lakudo, Kec. Lakudo, Kabupaten Buton, Sulawesi Tenggara 93763","Lakudo, Kec. Lakudo, Kabupaten Buton",SULAWESI TENGGARA,93763.0,Indonesia,,,,-5.3374881,122.5398621,https://maps.google.com/?cid=0x0:0x5a3e864d8178528e,
perumahan,Komplek perumahan,Rumah Wabante,"HHQ8+V6J, Wara, Kec. Lakudo, Kabupaten Buton, Sulawesi Tenggara 93763","Wara, Kec. Lakudo, Kabupaten Buton",SULAWESI TENGGARA,93763.0,Indonesia,,,,-5.4102733,122.5654704,https://maps.google.com/?cid=0x0:0xedd275df700c14fe,
perumahan,Komplek perumahan,LA IDI,"MG6Q+QFW, Lakudo, Kec. Lakudo, Kabupaten Buton, Sulawesi Tenggara 93763","Lakudo, Kec. Lakudo, Kabupaten Buton",SULAWESI TENGGARA,93763.0,Indonesia,,,,-5.3386204,122.5393591,https://maps.google.com/?cid=0x0:0x9082cbbc5f9a65c9,
perumahan,Komplek perumahan,MUAYA,"MG6Q+QFW, Lakudo, Kec. Lakudo, Kabupaten Buton, Sulawesi Tenggara 93763","Lakudo, Kec. Lakudo, Kabupaten Buton",SULAWESI TENGGARA,93763.0,Indonesia,,,,-5.3384528,122.5394503,https://maps.google.com/?cid=0x0:0x48f01f67dddba47d,
perumahan,Komplek perumahan,ILYAS,"MG6Q+QFW, Lakudo, Kec. Lakudo, Kabupaten Buton, Sulawesi Tenggara 93763","Lakudo, Kec. Lakudo, Kabupaten Buton",SULAWESI TENGGARA,93763.0,Indonesia,,,,-5.338564,122.5391563,https://maps.google.com/?cid=0x0:0x7944698d906cf6ac,
perumahan,Komplek perumahan,RUMAH HAJI SAFAR,"MG7Q+FJC, Lakudo, Kec. Lakudo, Kabupaten Buton, Sulawesi Tenggara 93763","Lakudo, Kec. Lakudo, Kabupaten Buton",SULAWESI TENGGARA,93763.0,Indonesia,,,,-5.3361668,122.5391399,https://maps.google.com/?cid=0x0:0xfa8672a05ca1169d,
perumahan,Pembangunan Perumahan,Kompleks rajawali,"PGCC+J94, Moko, Kec. Lakudo, Kabupaten Buton, Sulawesi Tenggara 93763","Moko, Kec. Lakudo, Kabupaten Buton",SULAWESI TENGGARA,93763.0,Indonesia,81383329381.0,,,-5.2784905,122.5209555,https://maps.google.com/?cid=0x0:0xa753e014591227e5,
perumahan,Komplek perumahan,SARANG WALET H MUHTAR,"MG6Q+QFW, Lakudo, Kec. Lakudo, Kabupaten Buton, Sulawesi Tenggara 93763","Lakudo, Kec. Lakudo, Kabupaten Buton",SULAWESI TENGGARA,93763.0,Indonesia,,,,-5.3375595,122.539218,https://maps.google.com/?cid=0x0:0xe6d25dc0d5b6ba1,
perumahan,Komplek perumahan,Rumah uli,"MGJP+H4W, Jl. Gersamata, Wongko Lakudo, Kec. Lakudo, Kabupaten Buton, Sulawesi Tenggara 93763","Jl. Gersamata, Wongko Lakudo, Kec. Lakudo, Kabupaten Buton",SULAWESI TENGGARA,93763.0,Indonesia,,,,-5.3185095,122.535288,https://maps.google.com/?cid=0x0:0x4cf77de93d25357d,
perumahan,Perumahan,Rumah dinas SDN 7 Lakudo,"MHP2+FQ2, Lakudo, Kec. Lakudo, Kabupaten Buton, Sulawesi Tenggara","Kabupaten Buton, Sulawesi Tenggara",SULAWESI TENGGARA,,Indonesia,85322535997.0,,,-5.3138569,122.551903,https://maps.google.com/?cid=0x0:0xe2f8becd122e80c6,
perumahan,Pembangunan Perumahan,Lorong la subuh,"HGGC+668, Madongka, Kec. Lakudo, Kabupaten Buton, Sulawesi Tenggara 93763","Madongka, Kec. Lakudo, Kabupaten Buton",SULAWESI TENGGARA,93763.0,Indonesia,,,,-5.4244739,122.5205713,https://maps.google.com/?cid=0x0:0xf9857bef7e185a7e,
perumahan,Komplek perumahan,Rumah warga,"MGHM+PQ7, Jl. Gersamata, Lakudo, Kec. Lakudo, Kabupaten Buton, Sulawesi Tenggara 93763","Jl. Gersamata, Lakudo, Kec. Lakudo, Kabupaten Buton",SULAWESI TENGGARA,93763.0,Indonesia,,,,-5.3207061,122.5343887,https://maps.google.com/?cid=0x0:0xb5c9c7692b21be80,
perumahan,Pembangunan Perumahan,Kompleks AMBLO,"PF5W+MCF Central, Lolibu, Lakudo, Buton Regency, South East Sulawesi","Kabupaten Buton, Sulawesi Tenggara",SULAWESI TENGGARA,,Indonesia,,,,-5.290812,122.4960521,https://maps.google.com/?cid=0x0:0x9987e0e62b464379,
perumahan,Komplek perumahan,Beit Lahia,"JG8G+M6G, Boneoge, Kec. Lakudo, Kabupaten Buton, Sulawesi Tenggara 93763","Boneoge, Kec. Lakudo, Kabupaten Buton",SULAWESI TENGGARA,93763.0,Indonesia,,,,-5.3838172,122.5250543,https://maps.google.com/?cid=0x0:0xec9f9552ce705d52,
perumahan,Komplek perumahan,Future house DRð ,"PGRR+GFH, Poros Labungkari-Mawasangka, Tengah, Mone, Kec. Lakudo, Kabupaten Buton, Sulawesi Tenggara 93763","Poros Labungkari-Mawasangka, Tengah, Mone, Kec. Lakudo, Kabupaten Buton",SULAWESI TENGGARA,93763.0,Indonesia,,,,-5.2596932,122.541862,https://maps.google.com/?cid=0x0:0xbbeb327b9da8be04,
perumahan,Komplek perumahan,Azri Ishma'il Pakambi,"Lingkungan pantai nelayan No.44, Boneoge, Kec. Lakudo, Kabupaten Buton, Sulawesi Tenggara 93763","Boneoge, Kec. Lakudo, Kabupaten Buton",SULAWESI TENGGARA,93763.0,Indonesia,82113794987.0,,,-5.3856457,122.5429309,https://maps.google.com/?cid=0x0:0x9119f056474accc0,
perumahan,Pembangunan Perumahan,SALWA,"JG6G+Q3G, Boneoge, Kec. Lakudo, Kabupaten Buton, Sulawesi Tenggara 93763","Boneoge, Kec. Lakudo, Kabupaten Buton",SULAWESI TENGGARA,93763.0,Indonesia,,,,-5.3880679,122.525214,https://maps.google.com/?cid=0x0:0x613811f5a70fd105,
perumahan,Komplek perumahan,HAJI LA AMANI,"MG6Q+QFW, Lakudo, Kec. Lakudo, Kabupaten Buton, Sulawesi Tenggara 93763","Lakudo, Kec. Lakudo, Kabupaten Buton",SULAWESI TENGGARA,93763.0,Indonesia,,,,-5.3381872,122.538858,https://maps.google.com/?cid=0x0:0x9cef57bd03c80260,
perumahan,perumahan,Mawasangka,"Mawasangka, Kec. Mawasangka, Kabupaten Buton, Sulawesi Tenggara","Kabupaten Buton, Sulawesi Tenggara",SULAWESI TENGGARA,,Indonesia,,,,-5.290863,122.298897,https://maps.google.com/?cid=0x0:0x6eab10a86a088341,
perumahan,Pembangunan Perumahan,Bagea,"P75X+MH2, Mawasangka, Kec. Mawasangka, Kabupaten Buton, Sulawesi Tenggara","Kabupaten Buton, Sulawesi Tenggara",SULAWESI TENGGARA,,Indonesia,,,,-5.290863,122.298897,https://maps.google.com/?cid=0x0:0x5a683123c50339a1,
perumahan,Komplek perumahan,Rumah Bail Info,"P75W+GQP, Unnamed Road, Mawasangka, Kec. Mawasangka, Kabupaten Buton, Sulawesi Tenggara 93762","Unnamed Road, Mawasangka, Kec. Mawasangka, Kabupaten Buton",SULAWESI TENGGARA,93762.0,Indonesia,82343190530.0,,,-5.2911608,122.2969512,https://maps.google.com/?cid=0x0:0x2cc9ee98c3d12352,
perumahan,Komplek perumahan,Lamaraja,"P75X+MH2, Mawasangka, Kec. Mawasangka, Kabupaten Buton, Sulawesi Tenggara","Kabupaten Buton, Sulawesi Tenggara",SULAWESI TENGGARA,,Indonesia,,,,-5.290863,122.298897,https://maps.google.com/?cid=0x0:0x2620ce3974d5ce04,
perumahan,Komplek perumahan,ALMAN'S RESIDENCE,"P75X+MH2, JL. JEND. SUDIRMAN, LINGK. MULUNO, Mawasangka, Kec. Mawasangka, KAB. BUTON TENGAH, Sulawesi Tenggara","KAB. BUTON TENGAH, Sulawesi Tenggara",SULAWESI TENGGARA,,Indonesia,,,,-5.290863,122.298897,https://maps.google.com/?cid=0x0:0x2ab3172ae07c5e9,
perumahan,Perhimpunan Pengembang Perumahan,Mama angkit house's,"P75X+H26, Unnamed Road, Mawasangka, Kec. Mawasangka, Kabupaten Buton, Sulawesi Tenggara 93762","Unnamed Road, Mawasangka, Kec. Mawasangka, Kabupaten Buton",SULAWESI TENGGARA,93762.0,Indonesia,81346226954.0,,,-5.2910923,122.2975041,https://maps.google.com/?cid=0x0:0xdbcd802719006074,
perumahan,Pembangunan Perumahan,Depan penggilingan batu,"P75X+MH2, Mawasangka, Kec. Mawasangka, Kabupaten Buton, Sulawesi Tenggara","Kabupaten Buton, Sulawesi Tenggara",SULAWESI TENGGARA,,Indonesia,,,,-5.290863,122.298897,https://maps.google.com/?cid=0x0:0x16b3743c5f96401b,
perumahan,perumahan,Agil suci,"P75X+MH2, Mawasangka, Kec. Mawasangka, Kabupaten Buton, Sulawesi Tenggara","Kabupaten Buton, Sulawesi Tenggara",SULAWESI TENGGARA,,Indonesia,,,,-5.290863,122.298897,https://maps.google.com/?cid=0x0:0x6e6b88fd80849a78,
perumahan,Komplek perumahan,Putri balqis house,"P75W+HX4, Unnamed Road, Mawasangka, Kec. Mawasangka, Kabupaten Buton, Sulawesi Tenggara 93762","Unnamed Road, Mawasangka, Kec. Mawasangka, Kabupaten Buton",SULAWESI TENGGARA,93762.0,Indonesia,,,,-5.291117,122.2974391,https://maps.google.com/?cid=0x0:0x25abcf9056bc54b3,
perumahan,Komplek perumahan,Kios FIRAMIRA,"P75X+MH2, Mawasangka, Kec. Mawasangka, Kabupaten Buton, Sulawesi Tenggara","Kabupaten Buton, Sulawesi Tenggara",SULAWESI TENGGARA,,Indonesia,,,,-5.290863,122.298897,https://maps.google.com/?cid=0x0:0xf327f69b6dddd569,
perumahan,Brunch,RM.SINAR SEJATI,"Unnamed Road, Mawasangka, Kec. Mawasangka, Kabupaten Buton tengah, Sulawesi Tenggara 93762","Mawasangka, Kec. Mawasangka, Kabupaten Buton tengah",SULAWESI TENGGARA,93762.0,Indonesia,82225162565.0,,,-5.2903213,122.2966418,https://maps.google.com/?cid=0x0:0xc44f7b9c97572bc2,
perumahan,perumahan,Sulawesi Tenggara 93762,"Kabupaten Buton, Sulawesi Tenggara","Kabupaten Buton, Sulawesi Tenggara",SULAWESI TENGGARA,,Indonesia,,,,-5.291781,122.3787597,https://maps.google.com/?cid=0x0:0x29d13fe4e83e4ba7,
perumahan,Pembangunan Perumahan,Kecamatan mawasangka kabupayen buton tengah,"P78Q+8GG, Mawasangka, Kec. Mawasangka, Kabupaten Buton, Sulawesi Tenggara","Kabupaten Buton, Sulawesi Tenggara",SULAWESI TENGGARA,,Indonesia,82345100032.0,,,-5.2841984,122.2888144,https://maps.google.com/?cid=0x0:0xcd0e8409d9ee231a,
perumahan,Jasa Konstruksi dan Bangunan,Mabeskuta,"P76P+XW6, Watolo, Kec. Mawasangka, Kabupaten Buton, Sulawesi Tenggara 93762","Watolo, Kec. Mawasangka, Kabupaten Buton",SULAWESI TENGGARA,93762.0,Indonesia,,,,-5.2875983,122.287275,https://maps.google.com/?cid=0x0:0x5df6a430d2b02d84,
perumahan,Toko Pakaian,Rumah,"M9CC+HX8, Lakorua, Kec. Mawasangka Tengah, Kabupaten Buton, Sulawesi Tenggara","Kabupaten Buton, Sulawesi Tenggara",SULAWESI TENGGARA,,Indonesia,,,,-5.3285857,122.3724539,https://maps.google.com/?cid=0x0:0xb9bb4f2506b9b4a4,
perumahan,Kantor Pemerintah,Perumahan Dokter Umum,"M8W3+37H, Mawasangka, Kec. Mawasangka, Kabupaten Buton, Sulawesi Tenggara 93762","Mawasangka, Kec. Mawasangka, Kabupaten Buton",SULAWESI TENGGARA,93762.0,Indonesia,,,,-5.3048023,122.3032363,https://maps.google.com/?cid=0x0:0x3c7c50a107e25213,
perumahan,Perhimpunan Pengembang Perumahan,LiNGK KATIBU,"P77P+9H7, Mawasangka, Kec. Mawasangka, Kabupaten Buton, Sulawesi Tenggara 93762","Mawasangka, Kec. Mawasangka, Kabupaten Buton",SULAWESI TENGGARA,93762.0,Indonesia,,,,-5.2865759,122.2864327,https://maps.google.com/?cid=0x0:0x107d621469e87379,
perumahan,Komplek perumahan,Mawasangka,"P77V+54P, Mawasangka, Kec. Mawasangka, Kabupaten Buton, Sulawesi Tenggara 93762","Mawasangka, Kec. Mawasangka, Kabupaten Buton",SULAWESI TENGGARA,93762.0,Indonesia,,,,-5.2870627,122.2927572,https://maps.google.com/?cid=0x0:0x201e9caaee6f2eb3,
perumahan,Pembangunan Perumahan,Bagea,"P75X+MH2, Mawasangka, Kec. Mawasangka, Kabupaten Buton, Sulawesi Tenggara","Kabupaten Buton, Sulawesi Tenggara",SULAWESI TENGGARA,,Indonesia,,,,-5.290863,122.298897,https://maps.google.com/?cid=0x0:0x5a683123c50339a1,
perumahan,Komplek perumahan,Dusun Damai,"P8M6+625, Oengkolaki, Kec. Mawasangka, Kabupaten Buton, Sulawesi Tenggara","Kabupaten Buton, Sulawesi Tenggara",SULAWESI TENGGARA,,Indonesia,,,,-5.2669887,122.3101194,https://maps.google.com/?cid=0x0:0xf7a76d2a5bbdee67,
perumahan,Pembangunan Perumahan,Dusun Balano,"P8X9+FRG, Banga, Kec. Mawasangka, Kabupaten Buton, Sulawesi Tenggara 93762","Banga, Kec. Mawasangka, Kabupaten Buton",SULAWESI TENGGARA,93762.0,Indonesia,81341517332.0,,,-5.2513056,122.3195702,https://maps.google.com/?cid=0x0:0xa8518f58c5498964,
perumahan,Toko Batu,Sekdes Oengkolaki,"P8P6+5WM, Oengkolaki, Kec. Mawasangka, Kabupaten Buton, Sulawesi Tenggara 93762","Oengkolaki, Kec. Mawasangka, Kabupaten Buton",SULAWESI TENGGARA,93762.0,Indonesia,,,,-5.2644633,122.3123344,https://maps.google.com/?cid=0x0:0x5304cc3a4447efbe,
perumahan,Komplek perumahan,Samran,"P77P+F3M, Watolo, Kec. Mawasangka, Kabupaten Buton, Sulawesi Tenggara 93762","Watolo, Kec. Mawasangka, Kabupaten Buton",SULAWESI TENGGARA,93762.0,Indonesia,,,,-5.2862823,122.2851585,https://maps.google.com/?cid=0x0:0x5223103b3575a65d,
perumahan,Kedai Kopi,Rumah Dwi Sartika Syaputri,"M748+GVQ, II, Wakambangura, Kec. Mawasangka, Kabupaten Buton, Sulawesi Tenggara 93762","II, Wakambangura, Kec. Mawasangka, Kabupaten Buton",SULAWESI TENGGARA,93762.0,Indonesia,,,,-5.3436538,122.2672344,https://maps.google.com/?cid=0x0:0x9e6b88a391872026,
perumahan,Komplek perumahan,Polindu,"Q86P+P36, Polindu, Kec. Mawasangka, Kabupaten Buton tengah, Sulawesi Tenggara 93762","Polindu, Kec. Mawasangka, Kabupaten Buton tengah",SULAWESI TENGGARA,93762.0,Indonesia,,,,-5.237667,122.335111,https://maps.google.com/?cid=0x0:0x3b1323b58a5c0ec1,
perumahan,Komplek perumahan,Rumah Wisno,"P823+RGW, Mawasangka, Kec. Mawasangka, Kabupaten Buton, Sulawesi Tenggara 93762","Mawasangka, Kec. Mawasangka, Kabupaten Buton",SULAWESI TENGGARA,93762.0,Indonesia,,,,-5.298243,122.304074,https://maps.google.com/?cid=0x0:0xc74fc6d88c72c45,
perumahan,Pembangunan Perumahan,KILOMETER SATU,"M9G3+X8J, Jalan poros, Lantongau, Kec. Mawasangka Tengah, Kab. Buton Tengah, Sulawesi Tenggara 93762","Jalan poros, Lantongau, Kec. Mawasangka Tengah, Kab. Buton Tengah",SULAWESI TENGGARA,93762.0,Indonesia,,,,-5.3225387,122.3532618,https://maps.google.com/?cid=0x0:0x7e3eb3689dc28f59,
perumahan,Komplek perumahan,Rumah heti,"P79W+5WG, Mawasangka, Kec. Mawasangka, Kabupaten Buton, Sulawesi Tenggara 93762","Mawasangka, Kec. Mawasangka, Kabupaten Buton",SULAWESI TENGGARA,93762.0,Indonesia,,,,-5.2817476,122.29687,https://maps.google.com/?cid=0x0:0xfd1b68ff6924d05c,
perumahan,Perhimpunan Pengembang Perumahan,Rumah farhan,"P862+6V9, Lingkungan tengah, Mawasangka, Kec. Mawasangka, Kabupaten Buton, Sulawesi Tenggara","Kabupaten Buton, Sulawesi Tenggara",SULAWESI TENGGARA,,Indonesia,,,,-5.289475,122.3022476,https://maps.google.com/?cid=0x0:0xdc593ddff91e5fed,
perumahan,Komplek perumahan,"Kompleks Pasar Lama, Jl Poros Pelabuhan","P78P+PW6, Mawasangka, Kec. Mawasangka, Kabupaten Buton, Sulawesi Tenggara 93762","Mawasangka, Kec. Mawasangka, Kabupaten Buton",SULAWESI TENGGARA,93762.0,Indonesia,,,,-5.2831043,122.2873729,https://maps.google.com/?cid=0x0:0xa8e5f1eb1487ffb6,
perumahan,Komplek perumahan,Rumah Bail Info,"P75W+GQP, Unnamed Road, Mawasangka, Kec. Mawasangka, Kabupaten Buton, Sulawesi Tenggara 93762","Unnamed Road, Mawasangka, Kec. Mawasangka, Kabupaten Buton",SULAWESI TENGGARA,93762.0,Indonesia,82343190530.0,,,-5.2911608,122.2969512,https://maps.google.com/?cid=0x0:0x2cc9ee98c3d12352,
perumahan,Pusat Kesehatan Masyarakat,Perumahan Dinas Puskesmas Mawasangka,"M8W3+3FR, Unnamed Road, Mawasangka, Kec. Mawasangka, Kabupaten Buton, Sulawesi Tenggara 93762","Unnamed Road, Mawasangka, Kec. Mawasangka, Kabupaten Buton",SULAWESI TENGGARA,93762.0,Indonesia,,,,-5.3047683,122.3036308,https://maps.google.com/?cid=0x0:0xb8345d868900bd58,
perumahan,perumahan,Agen PUPUK PATEN,"P76W+993, Lingkungan Landuhu, Mawasangka, Kec. Mawasangka, KABUPATEN BUTON TENGAH, Sulawesi Tenggara 93762","Lingkungan Landuhu, Mawasangka, Kec. Mawasangka, KABUPATEN BUTON TENGAH",SULAWESI TENGGARA,93762.0,Indonesia,,,,-5.2891191,122.2959254,https://maps.google.com/?cid=0x0:0xa3fcaa268509b215,
perumahan,Komplek perumahan,Kampung tenga,"PCCP+652, Langkomu, Kec. Mawasangka Tengah, Kabupaten Buton, Sulawesi Tenggara 93762","Langkomu, Kec. Mawasangka Tengah, Kabupaten Buton",SULAWESI TENGGARA,93762.0,Indonesia,,,,-5.2794844,122.4353995,https://maps.google.com/?cid=0x0:0xda5fd994db50c608,
perumahan,Perumahan,Dhifa Home,"P74X+W85, Ling. Landuhu, Watolo, Kec. Mawasangka, Kabupaten Buton, Sulawesi Tenggara 93762","Ling. Landuhu, Watolo, Kec. Mawasangka, Kabupaten Buton",SULAWESI TENGGARA,93762.0,Indonesia,,,,-5.2927442,122.2983617,https://maps.google.com/?cid=0x0:0xb3d2d6275a6c7df9,
perumahan,Komplek perumahan,Istana JiWaMu,"J9HG+J73, Watorumbe, Kec. Mawasangka Tengah, Kabupaten Buton, Sulawesi Tenggara","Kabupaten Buton, Sulawesi Tenggara",SULAWESI TENGGARA,,Indonesia,,,,-5.3705066,122.3758396,https://maps.google.com/?cid=0x0:0x583f0cae90151f82,
perumahan,Komplek perumahan,Rumah iza,"P76M+4WW, Watolo, Kec. Mawasangka, Kabupaten Buton, Sulawesi Tenggara 93762","Watolo, Kec. Mawasangka, Kabupaten Buton",SULAWESI TENGGARA,93762.0,Indonesia,,,,-5.290597,122.2845626,https://maps.google.com/?cid=0x0:0xa22bc679b0dd18ca,
perumahan,perumahan,Mawasangka Tim.,"Kabupaten Buton, Sulawesi Tenggara","Kabupaten Buton, Sulawesi Tenggara",SULAWESI TENGGARA,,Indonesia,,,,-5.3611739,122.424074,https://maps.google.com/?cid=0x0:0xf58d05571c4d04f4,
perumahan,Komplek perumahan,Lamena,"HCWW+3WG, Inulu, Mawasangka Tim., Kabupaten Buton, Sulawesi Tenggara","Kabupaten Buton, Sulawesi Tenggara",SULAWESI TENGGARA,,Indonesia,,,,-5.4048047,122.4473399,https://maps.google.com/?cid=0x0:0xa2b801b250b70e17,
perumahan,Pembangunan Perumahan,Dusun Kaobula,"JCQF+GJP, Bonemarambe, Mawasangka Tim., Kabupaten Buton Tengah, Sulawesi Tenggara","Kabupaten Buton Tengah, Sulawesi Tenggara",SULAWESI TENGGARA,,Indonesia,,,,-5.3611739,122.424074,https://maps.google.com/?cid=0x0:0x73380f95aca4a07a,
perumahan,Komplek perumahan,Rumah lilis,"JFM9+32R, Topa, Tengah, Wantopi, Mawasangka Tim., Kabupaten Buton, Sulawesi Tenggara 93762","Topa, Tengah, Wantopi, Mawasangka Tim., Kabupaten Buton",SULAWESI TENGGARA,93762.0,Indonesia,,,,-5.3672568,122.4675192,https://maps.google.com/?cid=0x0:0xd365240cd9e709eb,
perumahan,Komplek perumahan,Kosmetik ibu yuni,"HFX5+4J2, Inulu, Mawasangka Tim., Kabupaten Buton, Sulawesi Tenggara 93762","Inulu, Mawasangka Tim., Kabupaten Buton",SULAWESI TENGGARA,93762.0,Indonesia,,,,-5.4016137,122.4586682,https://maps.google.com/?cid=0x0:0xd405c27514b4980c,
perumahan,Pembangunan Perumahan,A.MUWAHID,"M9HM+Q39, Unnamed Road, Lalibo, Kec. Mawasangka Tengah, Kabupaten Buton, Sulawesi Tenggara 93762","Unnamed Road, Lalibo, Kec. Mawasangka Tengah, Kabupaten Buton",SULAWESI TENGGARA,93762.0,Indonesia,,,,-5.3205872,122.382719,https://maps.google.com/?cid=0x0:0x86a06e0bdd3b7bf6,
perumahan,Pembangunan Perumahan,Dusun Karyamandiri,"HFX5+28H, Inulu, Mawasangka Tim., Kabupaten Buton, Sulawesi Tenggara 93762","Inulu, Mawasangka Tim., Kabupaten Buton",SULAWESI TENGGARA,93762.0,Indonesia,,,,-5.4024279,122.4583676,https://maps.google.com/?cid=0x0:0x91a35b5d76f3f59f,
perumahan,Komplek perumahan,Rumah Azizah,"J9JH+2HV, Watorumbe Bata, Kec. Mawasangka Tengah, Kabupaten Buton, Sulawesi Tenggara 93762","Watorumbe Bata, Kec. Mawasangka Tengah, Kabupaten Buton",SULAWESI TENGGARA,93762.0,Indonesia,,,,-5.3696751,122.3791605,https://maps.google.com/?cid=0x0:0x2153f07394d0ea90,
perumahan,Pembangunan Perumahan,Dusun Wakengku,"JCQF+GJP, Bonemarambe, Mawasangka Tim., Kabupaten Buton, Sulawesi Tenggara","Kabupaten Buton, Sulawesi Tenggara",SULAWESI TENGGARA,,Indonesia,,,,-5.3611739,122.424074,https://maps.google.com/?cid=0x0:0xf444b271d6e1b1d,
perumahan,Komplek perumahan,Rumah Yuyun,"HFX3+754, Jalan Dermaga Desa, Inulu, East Mawasangka, Buton Regency, South East Sulawesi","Kabupaten Buton, Sulawesi Tenggara",SULAWESI TENGGARA,,Indonesia,,,,-5.4018523,122.4529663,https://maps.google.com/?cid=0x0:0x7521c495ad1b0e7a,
perumahan,Pembangunan Perumahan,Dusun Sukamaju,"HFX5+6RV, Inulu, Mawasangka Tim., Kabupaten Buton, Sulawesi Tenggara 93762","Inulu, Mawasangka Tim., Kabupaten Buton",SULAWESI TENGGARA,93762.0,Indonesia,,,,-5.4018917,122.4595381,https://maps.google.com/?cid=0x0:0x8f69d0c28030140f,
perumahan,Komplek perumahan,Lorong arak,"J9HW+79F, Wambuloli, Mawasangka Tim., Kabupaten Buton, Sulawesi Tenggara","Kabupaten Buton, Sulawesi Tenggara",SULAWESI TENGGARA,,Indonesia,,,,-5.3718122,122.3959198,https://maps.google.com/?cid=0x0:0xd876b7023e832513,
perumahan,Pembangunan Perumahan,Advokat La Nade. SH,"HFX5+4J2, Unnamed Road, Inulu, Mawasangka Tim., Kabupaten Buton, Sulawesi Tenggara 93762","Unnamed Road, Inulu, Mawasangka Tim., Kabupaten Buton",SULAWESI TENGGARA,93762.0,Indonesia,85395832916.0,,,-5.4022258,122.4590022,https://maps.google.com/?cid=0x0:0xe4652e53b314b6b8,
perumahan,Pembangunan Perumahan,Rumah Indra,"HFX3+9R4, Lamena, Mawasangka Tim., Kabupaten Buton, Sulawesi Tenggara 93762","Lamena, Mawasangka Tim., Kabupaten Buton",SULAWESI TENGGARA,93762.0,Indonesia,,,,-5.4016694,122.4544099,https://maps.google.com/?cid=0x0:0x640fedbb965a2ca4,
perumahan,Kantor Perusahaan,Desa Watorumbe Bata,"J9MH+GM9, Watorumbe Bata, Kec. Mawasangka Tengah, Kabupaten Buton, Sulawesi Tenggara 93762","Watorumbe Bata, Kec. Mawasangka Tengah, Kabupaten Buton",SULAWESI TENGGARA,93762.0,Indonesia,,,,-5.3662165,122.3792456,https://maps.google.com/?cid=0x0:0xc747823d31a16d39,
perumahan,Pembangunan Perumahan,Posko KKN UM BUTON,"M98M+MQ2, Lagili, Mawasangka Tim., Kabupaten Buton, Sulawesi Tenggara 93762","Lagili, Mawasangka Tim., Kabupaten Buton",SULAWESI TENGGARA,93762.0,Indonesia,,,,-5.3333654,122.3843757,https://maps.google.com/?cid=0x0:0xd303619b4b5abcf5,
perumahan,Komplek perumahan,Nenek Aisyah Dea,"HFX2+5VJ, Inulu, Mawasangka Tim., Kabupaten Buton, Sulawesi Tenggara","Kabupaten Buton, Sulawesi Tenggara",SULAWESI TENGGARA,,Indonesia,,,,-5.4020377,122.4521408,https://maps.google.com/?cid=0x0:0x2c37070513cad608,
perumahan,perumahan,Rumah Achmad WBL,"J9PV+WQ, Wambuloli, Mawasangka Tim., Kabupaten Buton, Sulawesi Tenggara","Kabupaten Buton, Sulawesi Tenggara",SULAWESI TENGGARA,,Indonesia,,,,-5.3627006,122.3944362,https://maps.google.com/?cid=0x0:0x6befe56ffeff3703,
perumahan,Komplek perumahan,rumah ARIMO,"HFX3+754, Jl. Dermaga Desa Inulu, Inulu, Mawasangka Tim., Kabupaten Buton, Sulawesi Tenggara","Kabupaten Buton, Sulawesi Tenggara",SULAWESI TENGGARA,,Indonesia,,,,-5.4011954,122.4536357,https://maps.google.com/?cid=0x0:0x2723885981eacf77,
perumahan,Komplek perumahan,Istana JiWaMu,"J9HG+J73, Watorumbe, Kec. Mawasangka Tengah, Kabupaten Buton, Sulawesi Tenggara","Kabupaten Buton, Sulawesi Tenggara",SULAWESI TENGGARA,,Indonesia,,,,-5.3705066,122.3758396,https://maps.google.com/?cid=0x0:0x583f0cae90151f82,
perumahan,Kantor Pemerintah,Desa lasori,"HFX2+9J8, Lasori, Mawasangka Tim., Kabupaten Buton, Sulawesi Tenggara","Kabupaten Buton, Sulawesi Tenggara",SULAWESI TENGGARA,,Indonesia,,,,-5.4015898,122.4515813,https://maps.google.com/?cid=0x0:0x4914ef3307d5f724,
perumahan,Pembangunan Perumahan,Dusun lamena,"HFX2+9HF, Lasori, Mawasangka Tim., Kabupaten Buton, Sulawesi Tenggara","Kabupaten Buton, Sulawesi Tenggara",SULAWESI TENGGARA,,Indonesia,,,,-5.401573,122.45143,https://maps.google.com/?cid=0x0:0xc9c7c2df9e1d83f2,
perumahan,Komplek perumahan,Adrian,"J9HH+XF8, Watorumbe Bata, Kec. Mawasangka Tengah, Kabupaten Buton, Sulawesi Tenggara","Kabupaten Buton, Sulawesi Tenggara",SULAWESI TENGGARA,,Indonesia,,,,-5.370995,122.37832,https://maps.google.com/?cid=0x0:0x8af0630767dd1a83,
perumahan,Klinik Kesehatan,Puskesmas Mawasangka Timur,"Inulu, Mawasangka Tim., Kabupaten Buton, Sulawesi Tenggara 93762","Mawasangka Tim., Kabupaten Buton",SULAWESI TENGGARA,93762.0,Indonesia,,,,-5.3980211,122.4574649,https://maps.google.com/?cid=0x0:0x25b4ad5f2670ef8c,
perumahan,perumahan,Sulawesi Tenggara 93761,"Kec. Gu, Kabupaten Buton, Sulawesi Tenggara","Kabupaten Buton, Sulawesi Tenggara",SULAWESI TENGGARA,,Indonesia,,,,-5.2702397,122.593828,https://maps.google.com/?cid=0x0:0xe714ef696c5af545,
perumahan,perumahan,Sangia,"Kec. Sape, Kabupaten Bima, Nusa Tenggara Bar.","Kabupaten Bima, Nusa Tenggara Bar.",SULAWESI TENGGARA,,Indonesia,,,,-8.541726,118.9848837,https://maps.google.com/?cid=0x0:0x4fc2629c6b776e9f,
perumahan,perumahan,Mambulu,"Kec. Sembakung, Kabupaten Nunukan, Kalimantan Utara","Kabupaten Nunukan, Kalimantan Utara",SULAWESI TENGGARA,,Indonesia,,,,3.8355275,116.9204787,https://maps.google.com/?cid=0x0:0xef28284fdf733144,
perumahan,Komplek perumahan,Mama lolo,"JJP9+3C7, Tolandona, Kec. Sangia Wambulu, Kabupaten Buton, Sulawesi Tenggara","Kabupaten Buton, Sulawesi Tenggara",SULAWESI TENGGARA,,Indonesia,,,,-5.3648263,122.6185606,https://maps.google.com/?cid=0x0:0x10a5f469ccda3d0,
perumahan,perumahan,Talaga Raya,"Kabupaten Buton, Sulawesi Tenggara","Kabupaten Buton, Sulawesi Tenggara",SULAWESI TENGGARA,,Indonesia,,,,-5.4213926,122.0155491,https://maps.google.com/?cid=0x0:0x2e35b700451321ba,
perumahan,Komplek perumahan,Rumah,"G3CG+QQQ, Talaga II, Talaga Raya, Kabupaten Buton, Sulawesi Tenggara 93781","Talaga II, Talaga Raya, Kabupaten Buton",SULAWESI TENGGARA,93781.0,Indonesia,,,,-5.4780375,122.0769844,https://maps.google.com/?cid=0x0:0xae3152e31ba22cdc,
perumahan,Komplek perumahan,Talaga raya,"G3GG+4V6, Talaga I, Talaga Raya, Kabupaten Buton, Sulawesi Tenggara 93781","Talaga I, Talaga Raya, Kabupaten Buton",SULAWESI TENGGARA,93781.0,Indonesia,82215890854.0,,,-5.4746043,122.0765659,https://maps.google.com/?cid=0x0:0xf06cb0b285499f7e,
perumahan,Komplek perumahan,Rumah Rasti,"G3FH+M29, Talaga I, Talaga Raya, Kabupaten Buton, Sulawesi Tenggara","Kabupaten Buton, Sulawesi Tenggara",SULAWESI TENGGARA,,Indonesia,,,,-5.475834,122.0776004,https://maps.google.com/?cid=0x0:0x7a451914ebf5537f,
perumahan,Komplek perumahan,Rumah elsa,"G3GM+98P, Talaga I, Talaga Raya, Kabupaten Buton, Sulawesi Tenggara 93781","Talaga I, Talaga Raya, Kabupaten Buton",SULAWESI TENGGARA,93781.0,Indonesia,,,,-5.4739817,122.0827007,https://maps.google.com/?cid=0x0:0x576754349a92d92b,
perumahan,Komplek perumahan,Nurul,"G3CH+HJ4, Talaga I, Talaga Raya, Kabupaten Buton, Sulawesi Tenggara 93781","Talaga I, Talaga Raya, Kabupaten Buton",SULAWESI TENGGARA,93781.0,Indonesia,,,,-5.4785299,122.0799967,https://maps.google.com/?cid=0x0:0x2fdb0c99e3f5d668,
perumahan,Komplek perumahan,KOMPLEKS GSE (GENERASI SIMPANG EMPAT),"G3CG+C7J, Talaga I, Talaga Raya, Kabupaten Buton, Sulawesi Tenggara 93781","Talaga I, Talaga Raya, Kabupaten Buton",SULAWESI TENGGARA,93781.0,Indonesia,,,,-5.4789111,122.075625,https://maps.google.com/?cid=0x0:0x4db0e62f52d32f55,
perumahan,Komplek perumahan,Rumah,"G25X+Q27, Pulau Telaga Besar, Talaga Besar, Talaga Raya, Kabupaten Buton, Sulawesi Tenggara","Kabupaten Buton, Sulawesi Tenggara",SULAWESI TENGGARA,,Indonesia,,,,-5.49059,122.0475547,https://maps.google.com/?cid=0x0:0xf709b194330c9c10,
perumahan,perumahan,Rumah Haikal,"G3FF+GQH, Talaga I, Talaga Raya, Kabupaten Buton, Sulawesi Tenggara 93781","Talaga I, Talaga Raya, Kabupaten Buton",SULAWESI TENGGARA,93781.0,Indonesia,,,,-5.4761872,122.0744889,https://maps.google.com/?cid=0x0:0x216e72718172b212,
perumahan,Komplek perumahan,Rumah Egayatri,"G3GF+6W5, Talaga I, Talaga Raya, Kabupaten Buton, Sulawesi Tenggara","Kabupaten Buton, Sulawesi Tenggara",SULAWESI TENGGARA,,Indonesia,,,,-5.4744383,122.0747026,https://maps.google.com/?cid=0x0:0x854be5bc42d299ce,
perumahan,perumahan,Dusun Tanah Merah,"G25W+3P5, Talaga Besar, Talaga Raya, Kabupaten Buton, Sulawesi Tenggara","Kabupaten Buton, Sulawesi Tenggara",SULAWESI TENGGARA,,Indonesia,,,,-5.4928569,122.0466812,https://maps.google.com/?cid=0x0:0x4e1b1621349c934,
perumahan,Komplek perumahan,rumah cubit,"G3CG+Q8F, Talaga I, Talaga Raya, Kabupaten Buton, Sulawesi Tenggara 93781","Talaga I, Talaga Raya, Kabupaten Buton",SULAWESI TENGGARA,93781.0,Indonesia,,,,-5.4781432,122.0758583,https://maps.google.com/?cid=0x0:0x4c5f3ebd4273d45a,
perumahan,Komplek perumahan,RUMAH BUNDA NADIA,"G25W+JX6, Talaga Besar, Talaga Raya, Kabupaten Buton, Sulawesi Tenggara 93781","Talaga Besar, Talaga Raya, Kabupaten Buton",SULAWESI TENGGARA,93781.0,Indonesia,82196933303.0,,,-5.4909155,122.0473176,https://maps.google.com/?cid=0x0:0xe1fac82547f41540,
perumahan,Komplek perumahan,Rumah atifa,"G3FF+VG5, Unnamed Road, Talaga I, Talaga Raya, Kabupaten Buton, Sulawesi Tenggara 93781","Unnamed Road, Talaga I, Talaga Raya, Kabupaten Buton",SULAWESI TENGGARA,93781.0,Indonesia,,,,-5.4752997,122.0738608,https://maps.google.com/?cid=0x0:0x7f25f1ca6d0150fe,
perumahan,Komplek perumahan,Rumah Dea,"G3FJ+2W8, Talaga I, Talaga Raya, Kabupaten Buton, Sulawesi Tenggara 93781","Talaga I, Talaga Raya, Kabupaten Buton",SULAWESI TENGGARA,93781.0,Indonesia,,,,-5.4774587,122.0823242,https://maps.google.com/?cid=0x0:0xd5665b72bce94452,
perumahan,Komplek perumahan,Tempat tinggal kami,"00029, Talaga I, Talaga Raya, Kabupaten Buton, Sulawesi Tenggara","Kabupaten Buton, Sulawesi Tenggara",SULAWESI TENGGARA,,Indonesia,,,,-5.4751488,122.075422,https://maps.google.com/?cid=0x0:0x82f1a5c7f77d2342,
perumahan,Perhimpunan Pengembang Perumahan,rumah yasir,"G352+MC3, Pulau Telaga Besar, Talaga Besar, Talaga Raya, Kabupaten Buton, Sulawesi Tenggara","Kabupaten Buton, Sulawesi Tenggara",SULAWESI TENGGARA,,Indonesia,,,,-5.4908696,122.0510435,https://maps.google.com/?cid=0x0:0xd909c941cae98617,
perumahan,Komplek perumahan,Ina,"G3FG+MCG, Talaga I, Talaga Raya, Kabupaten Buton, Sulawesi Tenggara 93781","Talaga I, Talaga Raya, Kabupaten Buton",SULAWESI TENGGARA,93781.0,Indonesia,,,,-5.4758197,122.076085,https://maps.google.com/?cid=0x0:0xc46164d138808381,
perumahan,Perhimpunan Pengembang Perumahan,Rumah sherli,"G24W+XC4, Pulau Telaga Besar, Talaga Besar, Talaga Raya, Kabupaten Buton, Sulawesi Tenggara","Kabupaten Buton, Sulawesi Tenggara",SULAWESI TENGGARA,,Indonesia,,,,-5.4926105,122.0460714,https://maps.google.com/?cid=0x0:0x69a91d80fd2237df,
perumahan,Perhimpunan Pengembang Perumahan,Faisal Home,"G25W+9W9, Pulau Telaga Besar, Talaga Besar, Talaga Raya, Kabupaten Buton, Sulawesi Tenggara 93781","Pulau Telaga Besar, Talaga Besar, Talaga Raya, Kabupaten Buton",SULAWESI TENGGARA,93781.0,Indonesia,,,,-5.4913781,122.047563,https://maps.google.com/?cid=0x0:0x70a37093efccd51f,
perumahan,Perhimpunan Pengembang Perumahan,Rumah Dhin,"G25X+VJQ, Talaga Besar, Talaga Raya, Kabupaten Buton, Sulawesi Tenggara 93781","Talaga Besar, Talaga Raya, Kabupaten Buton",SULAWESI TENGGARA,93781.0,Indonesia,,,,-5.490362,122.049234,https://maps.google.com/?cid=0x0:0xd690bfb91993f6c2,
perumahan,perumahan,Dusun Kambara,"G25W+4G2, Talaga Besar, Talaga Raya, Kabupaten Buton, Sulawesi Tenggara 93781","Talaga Besar, Talaga Raya, Kabupaten Buton",SULAWESI TENGGARA,93781.0,Indonesia,,,,-5.4921697,122.0463175,https://maps.google.com/?cid=0x0:0x66fa4171d0ad9899,
