Category,Real Category,Business Name,Address,City,State,Postal Code,Country,Phone,Latitude,Longitude,Map Link
cafe,cafe,Bomberay,"Kabupaten Fakfak, Papua Bar.","Kabupaten Fakfak, Papua Bar.",PAPUA BARAT,,Indonesia,,-2.9067292,133.2521507,https://maps.google.com/?cid=0x0:0x8b6d998000da2107
cafe,Bar Karaoke,labamba karoke,"37MR+MQ4, Unnamed Road, Wagom Utara, Distrik Fakfak, Kabupaten Fakfak, Papua Bar. 98651","Unnamed Road, Wagom Utara, Distrik Fakfak, Kabupaten Fakfak",PAPUA BARAT,98651.0,Indonesia,85244986000.0,-2.9158598,132.2919647,https://maps.google.com/?cid=0x0:0xc35c8f7a7a21b36b
cafe,Kafe,"MEMBOEMI COFFEE  RESTO (balinese, Japanese, western)","Kelapa Dua, Gading Serpong, Kec. Serpong, Banten 15831","Gading Serpong, Kec. Serpong",PAPUA BARAT,15831.0,Indonesia,8111135389.0,-6.2668043,106.5950183,https://maps.google.com/?cid=0x0:0x349d17c196a60d77
cafe,Restoran,BOMBA Cafe,"Pujasera, Jl. Raya Bumi Indah, Kutajaya, Kec. Ps. Kemis, Kabupaten Tangerang, Banten 15510","Jl. Raya Bumi Indah, Kutajaya, Kec. Ps. Kemis, Kabupaten Tangerang",PAPUA BARAT,15510.0,Indonesia,81395012382.0,-6.1622089,106.5598888,https://maps.google.com/?cid=0x0:0xca4f3c725db73334
cafe,Kedai Kopi,Binsyo Coffee,"Jl Raya Kotaraja No.93, Wai Mhorock, Kec. Abepura, Kota Jayapura, Papua 99351","Wai Mhorock, Kec. Abepura, Kota Jayapura",PAPUA BARAT,99351.0,Indonesia,85251667890.0,-2.6054242,140.6718344,https://maps.google.com/?cid=0x0:0x4ce0f038ffa9d59e
cafe,Restoran,Bistro Bomba,"Jl. Tanjung Duren Raya No.18C, Tj. Duren Utara, Kec. Grogol petamburan, Kota Jakarta Barat, Daerah Khusus Ibukota Jakarta 11470","Tj. Duren Utara, Kec. Grogol petamburan, Kota Jakarta Barat",PAPUA BARAT,11470.0,Indonesia,82128915944.0,-6.1804252,106.7835772,https://maps.google.com/?cid=0x0:0xd70ddbca7a74e4ab
cafe,Kafe,New Bomba Cafe,"Ruko Graha Dutar, Jl. Pesantren No.2, Cibabat, Kec. Cimahi Utara, Kota Cimahi, Jawa Barat 40513","Jl. Pesantren No.2, Cibabat, Kec. Cimahi Utara, Kota Cimahi",PAPUA BARAT,40513.0,Indonesia,81297782280.0,-6.882562,107.5578499,https://maps.google.com/?cid=0x0:0xa3da4de7840a73c1
cafe,Tujuan Wisata,Air Besar,"389W+9J9, Air Besar, Distrik Fakfak Tengah, Kabupaten Fakfak, Papua Bar. 98611","Air Besar, Distrik Fakfak Tengah, Kabupaten Fakfak",PAPUA BARAT,98611.0,Indonesia,,-2.931783,132.345843,https://maps.google.com/?cid=0x0:0x7b8a14352b514129
cafe,cafe,THE COLONY COFFEE,"4X2P+XHG, Mekar Sari, Bomberay, Kabupaten Fakfak, Papua Bar.","Kabupaten Fakfak, Papua Bar.",PAPUA BARAT,,Indonesia,,-2.8975655,132.986453,https://maps.google.com/?cid=0x0:0xc575517a7c2146b9
cafe,cafe,Semenanjung Bomberai,"Bumi Muroh Indah, Bomberay, Kabupaten Fakfak, Papua Bar.","Kabupaten Fakfak, Papua Bar.",PAPUA BARAT,,Indonesia,,-3.0,133.0,https://maps.google.com/?cid=0x0:0x358d63ae92225b78
cafe,cafe,Papua Bar. 98611,"Kabupaten Fakfak, Papua Bar.","Kabupaten Fakfak, Papua Bar.",PAPUA BARAT,,Indonesia,,-2.9152703,132.4331624,https://maps.google.com/?cid=0x0:0xd346582f482a91e7
cafe,Kafe,Khaya cafe,"Jl. Salasa Namudat, Fak Fak Selatan, Distrik Fakfak, Kabupaten Fakfak, Papua Bar. 98611","Fak Fak Selatan, Distrik Fakfak, Kabupaten Fakfak",PAPUA BARAT,98611.0,Indonesia,81248077878.0,-2.9334967,132.3076209,https://maps.google.com/?cid=0x0:0x853d99f3d072e901
cafe,Kafe,Cafe Dijiku,"Fak Fak Utara, Distrik Fakfak, Kabupaten Fakfak, Papua Bar. 98611","Distrik Fakfak, Kabupaten Fakfak",PAPUA BARAT,98611.0,Indonesia,82197959191.0,-2.9282773,132.3072462,https://maps.google.com/?cid=0x0:0xf17980116562a93a
cafe,Kedai Kopi,Tomang Caffeine,"38G2+GF4, Fak Fak Utara, Distrik Fakfak, Kabupaten Fakfak, Papua Bar. 98651","Fak Fak Utara, Distrik Fakfak, Kabupaten Fakfak",PAPUA BARAT,98651.0,Indonesia,81248265093.0,-2.9240543,132.3013222,https://maps.google.com/?cid=0x0:0x4411f8816ffe48c7
cafe,Kafe,Kedai Mehak,"38C4+3VJ, Jl. Soegiono, Fak Fak Selatan, Distrik Fakfak, Kabupaten Fakfak, Papua Bar. 98611","Jl. Soegiono, Fak Fak Selatan, Distrik Fakfak, Kabupaten Fakfak",PAPUA BARAT,98611.0,Indonesia,,-2.9297783,132.3071385,https://maps.google.com/?cid=0x0:0x8ef95bcd8694feaf
cafe,Kafe,Cafe ZANE MILAN,"38H2+HVH, Fak Fak Utara, Distrik Fakfak, Kabupaten Fakfak, Papua Bar. 98651","Fak Fak Utara, Distrik Fakfak, Kabupaten Fakfak",PAPUA BARAT,98651.0,Indonesia,,-2.9210664,132.3022336,https://maps.google.com/?cid=0x0:0xdfb1fd1b9bbf1ab8
cafe,Kedai Kopi,Coffee Bear,"3894+9Q2, Fak Fak Selatan, Distrik Fakfak, Kabupaten Fakfak, Papua Bar. 98611","Fak Fak Selatan, Distrik Fakfak, Kabupaten Fakfak",PAPUA BARAT,98611.0,Indonesia,,-2.931037,132.3064496,https://maps.google.com/?cid=0x0:0xa544237d48119e60
cafe,Kedai Kopi,Star Coffee @fak fak,"37FJ+4P6, Jl. Fakfak - Torea, Tanama, Distrik Fakfak, Kabupaten Fakfak, Papua Bar. 98614","Jl. Fakfak - Torea, Tanama, Distrik Fakfak, Kabupaten Fakfak",PAPUA BARAT,98614.0,Indonesia,82290268180.0,-2.9272249,132.2817762,https://maps.google.com/?cid=0x0:0x6f56bc00f456cfe7
cafe,Kedai Kopi,Nong Coffee,"Jl. MT Haryono, Fak Fak Utara, Distrik Fakfak, Kabupaten Fakfak, Papua Bar. 98651","Fak Fak Utara, Distrik Fakfak, Kabupaten Fakfak",PAPUA BARAT,98651.0,Indonesia,82239483461.0,-2.9272684,132.3040004,https://maps.google.com/?cid=0x0:0x50f858cf09a6a87c
cafe,Kedai Kopi,Cafe AURORA,"37JQ+P9H, Wagom Utara, Distrik Fakfak, Kabupaten Fakfak, Papua Bar. 98611","Wagom Utara, Distrik Fakfak, Kabupaten Fakfak",PAPUA BARAT,98611.0,Indonesia,82214913145.0,-2.9181963,132.2884846,https://maps.google.com/?cid=0x0:0x46c434d7d632a8fe
cafe,Kedai Kopi,Kopi Paste Family,"3895+4F5, Fak Fak Selatan, Distrik Fakfak, Kabupaten Fakfak, Papua Bar. 98611","Fak Fak Selatan, Distrik Fakfak, Kabupaten Fakfak",PAPUA BARAT,98611.0,Indonesia,82248191160.0,-2.9324245,132.308816,https://maps.google.com/?cid=0x0:0xd3dae24f798ff30c
cafe,Kafe,Cafe 99,"37QM+RMQ, Wrikapal, Distrik Fakfak, Kabupaten Fakfak, Papua Bar. 98611","Wrikapal, Distrik Fakfak, Kabupaten Fakfak",PAPUA BARAT,98611.0,Indonesia,,-2.9104176,132.2842392,https://maps.google.com/?cid=0x0:0x8643d487a51ce9dc
cafe,Kafe,MAXi coffee  Pallubasa,"tj, Jl. Yos Sudarso, Wagom Utara, Distrik Fakfak, Kabupaten Fakfak, Papua Bar. 98024","Jl. Yos Sudarso, Wagom Utara, Distrik Fakfak, Kabupaten Fakfak",PAPUA BARAT,98024.0,Indonesia,82197744444.0,-2.9320504,132.299967,https://maps.google.com/?cid=0x0:0x54282a6baca55509
cafe,Kedai Kopi,Kedai MaNo by Nofi Chu,"Jl. DI Panjaitan, Fak Fak Utara, Distrik Fakfak, Kabupaten Fakfak, Papua Bar. 98611","Fak Fak Utara, Distrik Fakfak, Kabupaten Fakfak",PAPUA BARAT,98611.0,Indonesia,82399621849.0,-2.9286187,132.3078664,https://maps.google.com/?cid=0x0:0x97848f1fac9c9f2b
cafe,cafe,Papua Bar. 98661,"Kabupaten Fakfak, Papua Bar.","Kabupaten Fakfak, Papua Bar.",PAPUA BARAT,,Indonesia,,-2.8087988,132.1177396,https://maps.google.com/?cid=0x0:0x6512126b96febab4
cafe,Kafe,Khaya cafe,"Jl. Salasa Namudat, Fak Fak Selatan, Distrik Fakfak, Kabupaten Fakfak, Papua Bar. 98611","Fak Fak Selatan, Distrik Fakfak, Kabupaten Fakfak",PAPUA BARAT,98611.0,Indonesia,81248077878.0,-2.9334967,132.3076209,https://maps.google.com/?cid=0x0:0x853d99f3d072e901
cafe,Kafe,Cleza Caffee  Eatery,"Fak Fak Utara, Distrik Fakfak, Kabupaten Fakfak, Papua Bar. 98651","Distrik Fakfak, Kabupaten Fakfak",PAPUA BARAT,98651.0,Indonesia,82248303362.0,-2.9229135,132.3028757,https://maps.google.com/?cid=0x0:0x31ffad25226722b6
cafe,Kafe,Cafe ZANE MILAN,"38H2+HVH, Fak Fak Utara, Distrik Fakfak, Kabupaten Fakfak, Papua Bar. 98651","Fak Fak Utara, Distrik Fakfak, Kabupaten Fakfak",PAPUA BARAT,98651.0,Indonesia,,-2.9210664,132.3022336,https://maps.google.com/?cid=0x0:0xdfb1fd1b9bbf1ab8
cafe,Kedai Kopi,Tomang Caffeine,"38G2+GF4, Fak Fak Utara, Distrik Fakfak, Kabupaten Fakfak, Papua Bar. 98651","Fak Fak Utara, Distrik Fakfak, Kabupaten Fakfak",PAPUA BARAT,98651.0,Indonesia,81248265093.0,-2.9240543,132.3013222,https://maps.google.com/?cid=0x0:0x4411f8816ffe48c7
cafe,Kafe,Cafe Berlian,"37MV+68W, Wagom Utara, Distrik Fakfak, Kabupaten Fakfak, Papua Bar. 98651","Wagom Utara, Distrik Fakfak, Kabupaten Fakfak",PAPUA BARAT,98651.0,Indonesia,,-2.9168816,132.2933315,https://maps.google.com/?cid=0x0:0xff2b13028839e34f
cafe,Kedai Kopi,Coffee Bear,"3894+9Q2, Fak Fak Selatan, Distrik Fakfak, Kabupaten Fakfak, Papua Bar. 98611","Fak Fak Selatan, Distrik Fakfak, Kabupaten Fakfak",PAPUA BARAT,98611.0,Indonesia,,-2.931037,132.3064496,https://maps.google.com/?cid=0x0:0xa544237d48119e60
cafe,Kafe,MAXi coffee  Pallubasa,"tj, Jl. Yos Sudarso, Wagom Utara, Distrik Fakfak, Kabupaten Fakfak, Papua Bar. 98024","Jl. Yos Sudarso, Wagom Utara, Distrik Fakfak, Kabupaten Fakfak",PAPUA BARAT,98024.0,Indonesia,82197744444.0,-2.9320504,132.299967,https://maps.google.com/?cid=0x0:0x54282a6baca55509
cafe,Kedai Kopi,Star Coffee @fak fak,"37FJ+4P6, Jl. Fakfak - Torea, Tanama, Distrik Fakfak, Kabupaten Fakfak, Papua Bar. 98614","Jl. Fakfak - Torea, Tanama, Distrik Fakfak, Kabupaten Fakfak",PAPUA BARAT,98614.0,Indonesia,82290268180.0,-2.9272249,132.2817762,https://maps.google.com/?cid=0x0:0x6f56bc00f456cfe7
cafe,Kafe,Kedai Mehak,"38C4+3VJ, Jl. Soegiono, Fak Fak Selatan, Distrik Fakfak, Kabupaten Fakfak, Papua Bar. 98611","Jl. Soegiono, Fak Fak Selatan, Distrik Fakfak, Kabupaten Fakfak",PAPUA BARAT,98611.0,Indonesia,,-2.9297783,132.3071385,https://maps.google.com/?cid=0x0:0x8ef95bcd8694feaf
cafe,Kedai Kopi,Nong Coffee,"Jl. MT Haryono, Fak Fak Utara, Distrik Fakfak, Kabupaten Fakfak, Papua Bar. 98651","Fak Fak Utara, Distrik Fakfak, Kabupaten Fakfak",PAPUA BARAT,98651.0,Indonesia,82239483461.0,-2.9272684,132.3040004,https://maps.google.com/?cid=0x0:0x50f858cf09a6a87c
cafe,Kedai Kopi,Cafe AURORA,"37JQ+P9H, Wagom Utara, Distrik Fakfak, Kabupaten Fakfak, Papua Bar. 98611","Wagom Utara, Distrik Fakfak, Kabupaten Fakfak",PAPUA BARAT,98611.0,Indonesia,82214913145.0,-2.9181963,132.2884846,https://maps.google.com/?cid=0x0:0x46c434d7d632a8fe
cafe,Kedai Kopi,Kopi Paste Family,"3895+4F5, Fak Fak Selatan, Distrik Fakfak, Kabupaten Fakfak, Papua Bar. 98611","Fak Fak Selatan, Distrik Fakfak, Kabupaten Fakfak",PAPUA BARAT,98611.0,Indonesia,82248191160.0,-2.9324245,132.308816,https://maps.google.com/?cid=0x0:0xd3dae24f798ff30c
cafe,Kafe,Werba WMC,"36W5+68F, Unnamed Road, Kwuhkendak, Kec. Fakfak Bar., Kabupaten Fakfak, Papua Bar. 98661","Unnamed Road, Kwuhkendak, Kec. Fakfak Bar., Kabupaten Fakfak",PAPUA BARAT,98661.0,Indonesia,81340991080.0,-2.9044416,132.2082993,https://maps.google.com/?cid=0x0:0x24ab8cd81cbabf4b
cafe,cafe,Distrik Fakfak Tengah,"Kabupaten Fakfak, Papua Bar.","Kabupaten Fakfak, Papua Bar.",PAPUA BARAT,,Indonesia,,-2.9352442,132.3183355,https://maps.google.com/?cid=0x0:0x4e103c5ed15f609d
cafe,Kafe,Khaya cafe,"Jl. Salasa Namudat, Fak Fak Selatan, Distrik Fakfak, Kabupaten Fakfak, Papua Bar. 98611","Fak Fak Selatan, Distrik Fakfak, Kabupaten Fakfak",PAPUA BARAT,98611.0,Indonesia,81248077878.0,-2.9334967,132.3076209,https://maps.google.com/?cid=0x0:0x853d99f3d072e901
cafe,Kafe,Cafe Dijiku,"Fak Fak Utara, Distrik Fakfak, Kabupaten Fakfak, Papua Bar. 98611","Distrik Fakfak, Kabupaten Fakfak",PAPUA BARAT,98611.0,Indonesia,82197959191.0,-2.9282773,132.3072462,https://maps.google.com/?cid=0x0:0xf17980116562a93a
cafe,Brunch,Tentang Kita,"3878+HWP, Jl. Fakfak - Torea, Dana Weria, Distrik Fakfak Tengah, Kabupaten Fakfak, Papua Bar. 98611","Jl. Fakfak - Torea, Dana Weria, Distrik Fakfak Tengah, Kabupaten Fakfak",PAPUA BARAT,98611.0,Indonesia,81259108382.0,-2.9360349,132.3173318,https://maps.google.com/?cid=0x0:0x6130cb62286c7398
cafe,Kafe,3BEACHES COFFEE,"Jalanan timbunan baru, Dana Weria, Distrik Fakfak Tengah, Kabupaten Fakfak, Papua Bar. 98011","Dana Weria, Distrik Fakfak Tengah, Kabupaten Fakfak",PAPUA BARAT,98011.0,Indonesia,82375529488.0,-2.9362938,132.3169667,https://maps.google.com/?cid=0x0:0xff63563392c372b5
cafe,Kedai Kopi,Kopi Paste Family,"3895+4F5, Fak Fak Selatan, Distrik Fakfak, Kabupaten Fakfak, Papua Bar. 98611","Fak Fak Selatan, Distrik Fakfak, Kabupaten Fakfak",PAPUA BARAT,98611.0,Indonesia,82248191160.0,-2.9324245,132.308816,https://maps.google.com/?cid=0x0:0xd3dae24f798ff30c
cafe,Kedai Kopi,Coffee Bear,"3894+9Q2, Fak Fak Selatan, Distrik Fakfak, Kabupaten Fakfak, Papua Bar. 98611","Fak Fak Selatan, Distrik Fakfak, Kabupaten Fakfak",PAPUA BARAT,98611.0,Indonesia,,-2.931037,132.3064496,https://maps.google.com/?cid=0x0:0xa544237d48119e60
cafe,Kafe,Kedai Mehak,"38C4+3VJ, Jl. Soegiono, Fak Fak Selatan, Distrik Fakfak, Kabupaten Fakfak, Papua Bar. 98611","Jl. Soegiono, Fak Fak Selatan, Distrik Fakfak, Kabupaten Fakfak",PAPUA BARAT,98611.0,Indonesia,,-2.9297783,132.3071385,https://maps.google.com/?cid=0x0:0x8ef95bcd8694feaf
cafe,Kafe,Cafe ZANE MILAN,"38H2+HVH, Fak Fak Utara, Distrik Fakfak, Kabupaten Fakfak, Papua Bar. 98651","Fak Fak Utara, Distrik Fakfak, Kabupaten Fakfak",PAPUA BARAT,98651.0,Indonesia,,-2.9210664,132.3022336,https://maps.google.com/?cid=0x0:0xdfb1fd1b9bbf1ab8
cafe,Kedai Kopi,Tomang Caffeine,"38G2+GF4, Fak Fak Utara, Distrik Fakfak, Kabupaten Fakfak, Papua Bar. 98651","Fak Fak Utara, Distrik Fakfak, Kabupaten Fakfak",PAPUA BARAT,98651.0,Indonesia,81248265093.0,-2.9240543,132.3013222,https://maps.google.com/?cid=0x0:0x4411f8816ffe48c7
cafe,Kedai Kopi,Cafe AURORA,"37JQ+P9H, Wagom Utara, Distrik Fakfak, Kabupaten Fakfak, Papua Bar. 98611","Wagom Utara, Distrik Fakfak, Kabupaten Fakfak",PAPUA BARAT,98611.0,Indonesia,82214913145.0,-2.9181963,132.2884846,https://maps.google.com/?cid=0x0:0x46c434d7d632a8fe
cafe,Kedai Kopi,Kedai MaNo by Nofi Chu,"Jl. DI Panjaitan, Fak Fak Utara, Distrik Fakfak, Kabupaten Fakfak, Papua Bar. 98611","Fak Fak Utara, Distrik Fakfak, Kabupaten Fakfak",PAPUA BARAT,98611.0,Indonesia,82399621849.0,-2.9286187,132.3078664,https://maps.google.com/?cid=0x0:0x97848f1fac9c9f2b
cafe,Kedai Kopi,Nong Coffee,"Jl. MT Haryono, Fak Fak Utara, Distrik Fakfak, Kabupaten Fakfak, Papua Bar. 98651","Fak Fak Utara, Distrik Fakfak, Kabupaten Fakfak",PAPUA BARAT,98651.0,Indonesia,82239483461.0,-2.9272684,132.3040004,https://maps.google.com/?cid=0x0:0x50f858cf09a6a87c
cafe,Kafe,MAXi coffee  Pallubasa,"tj, Jl. Yos Sudarso, Wagom Utara, Distrik Fakfak, Kabupaten Fakfak, Papua Bar. 98024","Jl. Yos Sudarso, Wagom Utara, Distrik Fakfak, Kabupaten Fakfak",PAPUA BARAT,98024.0,Indonesia,82197744444.0,-2.9320504,132.299967,https://maps.google.com/?cid=0x0:0x54282a6baca55509
cafe,cafe,Fakfak Tim.,"Kabupaten Fakfak, Papua Bar.","Kabupaten Fakfak, Papua Bar.",PAPUA BARAT,,Indonesia,,-3.0285426,132.5901672,https://maps.google.com/?cid=0x0:0x6a0537f2cba21df
cafe,Kafe,Cleza Caffee  Eatery,"Fak Fak Utara, Distrik Fakfak, Kabupaten Fakfak, Papua Bar. 98651","Distrik Fakfak, Kabupaten Fakfak",PAPUA BARAT,98651.0,Indonesia,82248303362.0,-2.9229135,132.3028757,https://maps.google.com/?cid=0x0:0x31ffad25226722b6
cafe,Kafe,Khaya cafe,"Jl. Salasa Namudat, Fak Fak Selatan, Distrik Fakfak, Kabupaten Fakfak, Papua Bar. 98611","Fak Fak Selatan, Distrik Fakfak, Kabupaten Fakfak",PAPUA BARAT,98611.0,Indonesia,81248077878.0,-2.9334967,132.3076209,https://maps.google.com/?cid=0x0:0x853d99f3d072e901
cafe,Kedai Kopi,Tomang Caffeine,"38G2+GF4, Fak Fak Utara, Distrik Fakfak, Kabupaten Fakfak, Papua Bar. 98651","Fak Fak Utara, Distrik Fakfak, Kabupaten Fakfak",PAPUA BARAT,98651.0,Indonesia,81248265093.0,-2.9240543,132.3013222,https://maps.google.com/?cid=0x0:0x4411f8816ffe48c7
cafe,Kafe,Kedai Mehak,"38C4+3VJ, Jl. Soegiono, Fak Fak Selatan, Distrik Fakfak, Kabupaten Fakfak, Papua Bar. 98611","Jl. Soegiono, Fak Fak Selatan, Distrik Fakfak, Kabupaten Fakfak",PAPUA BARAT,98611.0,Indonesia,,-2.9297783,132.3071385,https://maps.google.com/?cid=0x0:0x8ef95bcd8694feaf
cafe,Kafe,Cafe 99,"37QM+RMQ, Wrikapal, Distrik Fakfak, Kabupaten Fakfak, Papua Bar. 98611","Wrikapal, Distrik Fakfak, Kabupaten Fakfak",PAPUA BARAT,98611.0,Indonesia,,-2.9104176,132.2842392,https://maps.google.com/?cid=0x0:0x8643d487a51ce9dc
cafe,Kafe,3BEACHES COFFEE,"Jalanan timbunan baru, Dana Weria, Distrik Fakfak Tengah, Kabupaten Fakfak, Papua Bar. 98011","Dana Weria, Distrik Fakfak Tengah, Kabupaten Fakfak",PAPUA BARAT,98011.0,Indonesia,82375529488.0,-2.9362938,132.3169667,https://maps.google.com/?cid=0x0:0xff63563392c372b5
cafe,Kafe,Cafe ZANE MILAN,"38H2+HVH, Fak Fak Utara, Distrik Fakfak, Kabupaten Fakfak, Papua Bar. 98651","Fak Fak Utara, Distrik Fakfak, Kabupaten Fakfak",PAPUA BARAT,98651.0,Indonesia,,-2.9210664,132.3022336,https://maps.google.com/?cid=0x0:0xdfb1fd1b9bbf1ab8
cafe,Kedai Kopi,Coffee Bear,"3894+9Q2, Fak Fak Selatan, Distrik Fakfak, Kabupaten Fakfak, Papua Bar. 98611","Fak Fak Selatan, Distrik Fakfak, Kabupaten Fakfak",PAPUA BARAT,98611.0,Indonesia,,-2.931037,132.3064496,https://maps.google.com/?cid=0x0:0xa544237d48119e60
cafe,Rumah Makan,Restaurant Famili,"3895+5FP, Jl. Fakfak - Torea, Fak Fak Selatan, Distrik Fakfak, Kabupaten Fakfak, Papua Bar. 98611","Jl. Fakfak - Torea, Fak Fak Selatan, Distrik Fakfak, Kabupaten Fakfak",PAPUA BARAT,98611.0,Indonesia,,-2.9320459,132.3086959,https://maps.google.com/?cid=0x0:0x235fbbeec61e32cb
cafe,Kedai Kopi,Cafe AURORA,"37JQ+P9H, Wagom Utara, Distrik Fakfak, Kabupaten Fakfak, Papua Bar. 98611","Wagom Utara, Distrik Fakfak, Kabupaten Fakfak",PAPUA BARAT,98611.0,Indonesia,82214913145.0,-2.9181963,132.2884846,https://maps.google.com/?cid=0x0:0x46c434d7d632a8fe
cafe,Kafe,Cafe Berlian,"37MV+68W, Wagom Utara, Distrik Fakfak, Kabupaten Fakfak, Papua Bar. 98651","Wagom Utara, Distrik Fakfak, Kabupaten Fakfak",PAPUA BARAT,98651.0,Indonesia,,-2.9168816,132.2933315,https://maps.google.com/?cid=0x0:0xff2b13028839e34f
cafe,Brunch,Tentang Kita,"3878+HWP, Jl. Fakfak - Torea, Dana Weria, Distrik Fakfak Tengah, Kabupaten Fakfak, Papua Bar. 98611","Jl. Fakfak - Torea, Dana Weria, Distrik Fakfak Tengah, Kabupaten Fakfak",PAPUA BARAT,98611.0,Indonesia,81259108382.0,-2.9360349,132.3173318,https://maps.google.com/?cid=0x0:0x6130cb62286c7398
cafe,Restoran,Seafood Usaha Baru,"38C7+J3V, Fak Fak Selatan, Distrik Fakfak, Kabupaten Fakfak, Papua Bar. 98651","Fak Fak Selatan, Distrik Fakfak, Kabupaten Fakfak",PAPUA BARAT,98651.0,Indonesia,,-2.928379,132.3126672,https://maps.google.com/?cid=0x0:0xd5cca83ec7f713fc
cafe,cafe,Papua Bar.,,Papua Bar.,PAPUA BARAT,,Indonesia,,-1.3361154,133.1747162,https://maps.google.com/?cid=0x0:0x5349c1f8c5c7cb62
cafe,Kedai Kopi,Zee Kopi,"38C6+5V5, Jl. JP. Matondang, Gewerpe, Distrik Fakfak, Kabupaten Fakfak, Papua Bar.","Kabupaten Fakfak, Papua Bar.",PAPUA BARAT,,Indonesia,,-2.9304035,132.3122053,https://maps.google.com/?cid=0x0:0x37d514c1bf8f2a41
cafe,Tujuan Wisata,Air Besar,"389W+9J9, Air Besar, Distrik Fakfak Tengah, Kabupaten Fakfak, Papua Bar. 98611","Air Besar, Distrik Fakfak Tengah, Kabupaten Fakfak",PAPUA BARAT,98611.0,Indonesia,,-2.931783,132.345843,https://maps.google.com/?cid=0x0:0x7b8a14352b514129
cafe,Kafe,The carstensz cafe,"Ruko Pisa Grande Blok E No. 31 Gading serpong, Curug Sangereng, Kec. Klp. Dua, Kabupaten Tangerang, Banten 15810","Curug Sangereng, Kec. Klp. Dua, Kabupaten Tangerang",PAPUA BARAT,15810.0,Indonesia,81585242345.0,-6.2593312,106.630849,https://maps.google.com/?cid=0x0:0x67c6c2ad57ce7962
cafe,Bar,COSTESS Cafe  Bar,"Cyber 2 Tower 17th Floor, Jalan Haji R. Rasuna Said Blok X-5, RT.7/RW.2, Kuningan, Kecamatan Setiabudi, Kota Jakarta Selatan, Daerah Khusus Ibukota Jakarta 12950","Jalan Haji R. Rasuna Said Blok X-5, RT.7/RW.2, Kuningan, Kecamatan Setiabudi, Kota Jakarta Selatan",PAPUA BARAT,12950.0,Indonesia,2157998268.0,-6.2262487,106.8325278,https://maps.google.com/?cid=0x0:0x9527d08740bd45d2
cafe,Bar Karaoke,BAKUTE PANCORAN Cafe  Karaoke Khai Khai Sing Sing,"ç¹é¦ èéª¨è¶ï¼ é¤å / å¼å¼å¿ðå¡æOK æ½èå°åäººè¡è´­ç©ä¸­å¿, Mall Pancoran Chinatown Point, Jl. Pancoran No.42A Basement Unit LG-03, Pinangsia, Kec. Taman Sari, Kota Jakarta Barat, Daerah Khusus Ibukota Jakarta 11120","Mall Pancoran Chinatown Point, Jl. Pancoran No.42A Basement Unit LG-03, Pinangsia, Kec. Taman Sari, Kota Jakarta Barat",PAPUA BARAT,11120.0,Indonesia,81258882188.0,-6.1411467,106.8133328,https://maps.google.com/?cid=0x0:0xf066497cfdb092f3
cafe,Ayam,Winners Backyard,"Jl. Ciputat Raya No.8, Pd. Pinang, Kec. Kby. Lama, Kota Jakarta Selatan, Daerah Khusus Ibukota Jakarta 12310","Pd. Pinang, Kec. Kby. Lama, Kota Jakarta Selatan",PAPUA BARAT,12310.0,Indonesia,81389908255.0,-6.2835775,106.7714181,https://maps.google.com/?cid=0x0:0xcdb71d73e5a18ab9
cafe,Kafe,Karalea cafe,"JF84+8WV, Legok nyenang, Raksabaya, Kec. Cimaragas, Kabupaten Ciamis, Jawa Barat 46381","Legok nyenang, Raksabaya, Kec. Cimaragas, Kabupaten Ciamis",PAPUA BARAT,46381.0,Indonesia,,-7.3841349,108.4572898,https://maps.google.com/?cid=0x0:0x53c4c3d8c2193ac8
cafe,Restoran,Cerita Rasa Nusantara,"Jl. Ampera Raya No.9, RT.4/RW.2, Cilandak Tim., Ps. Minggu, Kota Jakarta Selatan, Daerah Khusus Ibukota Jakarta 12560","RT.4/RW.2, Cilandak Tim., Ps. Minggu, Kota Jakarta Selatan",PAPUA BARAT,12560.0,Indonesia,2178831600.0,-6.2893489,106.8177559,https://maps.google.com/?cid=0x0:0x24bc9923f5a0b994
cafe,Indonesia,The Acre,"Jl. HOS. Cokroaminoto No.100, RT.2/RW.5, Menteng, Kec. Menteng, Kota Jakarta Pusat, Daerah Khusus Ibukota Jakarta 10310","RT.2/RW.5, Menteng, Kec. Menteng, Kota Jakarta Pusat",PAPUA BARAT,10310.0,Indonesia,81138138138.0,-6.1985912,106.8282199,https://maps.google.com/?cid=0x0:0x730dae6b8299c717
cafe,Restoran,Cafe KITA,"Jl. KH Ahmad Dahlan No.25, Kramat Pela, Kec. Kby. Baru, Kota Jakarta Selatan, Daerah Khusus Ibukota Jakarta","Kota Jakarta Selatan, Daerah Khusus Ibukota Jakarta",PAPUA BARAT,,Indonesia,87812006901.0,-6.245824,106.7920624,https://maps.google.com/?cid=0x0:0xdf1988a5dc999470
cafe,Kedai Kopi,"Hangfive Coffee and Surf, Coffee by %ARABICA","Jl. Pantai Indah, Batukaras, Kec. Cijulang, Kab. Pangandaran, Jawa Barat 46394","Batukaras, Kec. Cijulang, Kab. Pangandaran",PAPUA BARAT,46394.0,Indonesia,82120693644.0,-7.7491741,108.5007972,https://maps.google.com/?cid=0x0:0x94bb149aa7621b83
cafe,Kafe,Scarlett's CafÃ© Pantai Indah Kapuk,"Ruko Golf Island Boulevard No.31 Jakarta, Daerah Khusus Ibukota Jakarta 14460",Daerah Khusus Ibukota Jakarta,PAPUA BARAT,,Indonesia,,-6.0941141,106.7437324,https://maps.google.com/?cid=0x0:0xa288d22bbe15316f
cafe,cafe,Papua Bar. 98662,"Kabupaten Fakfak, Papua Bar.","Kabupaten Fakfak, Papua Bar.",PAPUA BARAT,,Indonesia,,-3.097706,133.0194897,https://maps.google.com/?cid=0x0:0xb4392ea87e61dc2a
cafe,Toko,Pak Aka,"GVG6+3W, Malakuli, Tubirwasak, Kabupaten Fakfak, Papua Bar.","Kabupaten Fakfak, Papua Bar.",PAPUA BARAT,,Indonesia,,-3.4748613,132.8623253,https://maps.google.com/?cid=0x0:0x9773b84ae1da51b5
cafe,Restoran,Sora Cafe,"Koya Tengah, Kec. Muara Tami, Kota Jayapura, Papua 99351","Kec. Muara Tami, Kota Jayapura",PAPUA BARAT,99351.0,Indonesia,82198566899.0,-2.6440425,140.806528,https://maps.google.com/?cid=0x0:0xa841f0ad6cb359a6
cafe,Kafe,Waanal Coffee And Resto,"Jl. Cendrawasih, Karang Senang, Kec. Kuala Kencana, Kabupaten Mimika, Papua 99910","Karang Senang, Kec. Kuala Kencana, Kabupaten Mimika",PAPUA BARAT,99910.0,Indonesia,81248677897.0,-4.4916566,136.8474106,https://maps.google.com/?cid=0x0:0xe6f6936c8a14d771
cafe,Kedai Kopi,Zee Kopi,"38C6+5V5, Jl. JP. Matondang, Gewerpe, Distrik Fakfak, Kabupaten Fakfak, Papua Bar.","Kabupaten Fakfak, Papua Bar.",PAPUA BARAT,,Indonesia,,-2.9304035,132.3122053,https://maps.google.com/?cid=0x0:0x37d514c1bf8f2a41
cafe,Restoran,Pit's Corner ( Papua Specialty Coffee ),"Jalan kasuari no.2 Dok V Atas, Mandala, Jayapura Utara, Jayapura City, Papua 99114","Mandala, Jayapura Utara, Jayapura City",PAPUA BARAT,99114.0,Indonesia,9675160443.0,-2.5310642,140.71875,https://maps.google.com/?cid=0x0:0xf39f3950a3bf5ed2
cafe,Kedai Kopi,SORAS CafeResto,"9PX8+GC, Engros, Kec. Abepura, Kota Jayapura, Papua","Kota Jayapura, Papua",PAPUA BARAT,,Indonesia,85255233397.0,-2.6011763,140.7160462,https://maps.google.com/?cid=0x0:0x5ad3e142525c4f3
cafe,Restoran,Yasbeer Cafe dan resto,"Engros, Kec. Abepura, Kota Jayapura, Papua","Kota Jayapura, Papua",PAPUA BARAT,,Indonesia,81248941111.0,-2.6005334,140.7153915,https://maps.google.com/?cid=0x0:0x34cbd734e60fa36b
cafe,Kafe,Maoke Coffee House,"Jl. Delima sp2, Timika Jaya, Mimika Baru, Mimika Regency, Papua 99963","Timika Jaya, Mimika Baru, Mimika Regency",PAPUA BARAT,99963.0,Indonesia,8114914480.0,-4.5169242,136.8468622,https://maps.google.com/?cid=0x0:0x7261e73da0cb2350
cafe,Tujuan Wisata,Air Besar,"389W+9J9, Air Besar, Distrik Fakfak Tengah, Kabupaten Fakfak, Papua Bar. 98611","Air Besar, Distrik Fakfak Tengah, Kabupaten Fakfak",PAPUA BARAT,98611.0,Indonesia,,-2.931783,132.345843,https://maps.google.com/?cid=0x0:0x7b8a14352b514129
cafe,Kedai Kopi,Krays Coffee,"7809 NE Vancouver Plaza Dr #150, Vancouver, WA 98662, Amerika Serikat","Vancouver, WA",PAPUA BARAT,98662.0,Indonesia,13609524877.0,45.6485835,-122.5913189,https://maps.google.com/?cid=0x0:0xc86217f3463d826b
cafe,Kedai Kopi,KARA Coffee Culture  Co Working Space,"Jl. Cengger Ayam I, Tulusrejo, Kec. Lowokwaru, Kota Malang, Jawa Timur 65142","Tulusrejo, Kec. Lowokwaru, Kota Malang",PAPUA BARAT,65142.0,Indonesia,,-7.9461869,112.6315815,https://maps.google.com/?cid=0x0:0x33a5b1f8f762be17
cafe,Kedai Kopi,Zee Kopi,"38C6+5V5, Jl. JP. Matondang, Gewerpe, Distrik Fakfak, Kabupaten Fakfak, Papua Bar.","Kabupaten Fakfak, Papua Bar.",PAPUA BARAT,,Indonesia,,-2.9304035,132.3122053,https://maps.google.com/?cid=0x0:0x37d514c1bf8f2a41
cafe,Kedai Kopi,Kopi sebrang,"38C6+5V5, Jl. JP. Matondang, Gewerpe, Distrik Fakfak, Kabupaten Fakfak, Papua Bar.","Kabupaten Fakfak, Papua Bar.",PAPUA BARAT,,Indonesia,,-2.9305201,132.3121634,https://maps.google.com/?cid=0x0:0xfc4c47f2eca54c7c
cafe,Kedai Kopi,TOMORO COFFEE - Kota Kasablanka,"Jl. Raya Casablanca No.Raya Kav. 88, Menteng Dalam, Kec. Tebet, Kota Jakarta Selatan, Daerah Khusus Ibukota Jakarta 12960","Menteng Dalam, Kec. Tebet, Kota Jakarta Selatan",PAPUA BARAT,12960.0,Indonesia,,-6.2242472,106.8422516,https://maps.google.com/?cid=0x0:0xa93751472d8a6ee4
cafe,Kedai Kopi,Toby's Estate Kota Kasablanka,"Kota Kasablanka Ground Floor, Food Society, Jl. Raya Casablanca No.88, RT.16/RW.5, Menteng Dalam, Tebet, South Jakarta City, Jakarta 12870","Food Society, Jl. Raya Casablanca No.88, RT.16/RW.5, Menteng Dalam, Tebet, South Jakarta City",PAPUA BARAT,12870.0,Indonesia,2182850506.0,-6.2242354,106.8421781,https://maps.google.com/?cid=0x0:0xe465db7aa307da33
cafe,Kafe,segafredo cafe  bar kokas,"Jl. Raya Casablanca No.Kav 88, Menteng Dalam, Kec. Tebet, Kota Jakarta Selatan, Daerah Khusus Ibukota Jakarta 12870","Menteng Dalam, Kec. Tebet, Kota Jakarta Selatan",PAPUA BARAT,12870.0,Indonesia,81215555481.0,-6.2239485,106.841926,https://maps.google.com/?cid=0x0:0x7bca002620980087
cafe,Kafe,The People's Cafe - Kota Kasablanka,"Food Society, Jl. Raya Casablanca No.88 16 Ground Floor, RT.16/RW.5, Menteng Dalam, Kec. Tebet, Kota Jakarta Selatan, Daerah Khusus Ibukota Jakarta 12870","Jl. Raya Casablanca No.88 16 Ground Floor, RT.16/RW.5, Menteng Dalam, Kec. Tebet, Kota Jakarta Selatan",PAPUA BARAT,12870.0,Indonesia,2129475170.0,-6.2237256,106.8425139,https://maps.google.com/?cid=0x0:0x9754cfe995f50720
cafe,Kedai Kopi,Djournal Coffee Kota Kasablanka,"Food Society, Jl. Raya Casablanca No.88 Lobby, Ground Floor, Menteng Dalam, Kec. Tebet, Kota Jakarta Selatan, Daerah Khusus Ibukota Jakarta 12870","Jl. Raya Casablanca No.88 Lobby, Ground Floor, Menteng Dalam, Kec. Tebet, Kota Jakarta Selatan",PAPUA BARAT,12870.0,Indonesia,,-6.222827,106.8428202,https://maps.google.com/?cid=0x0:0x227bf780373b1c5f
cafe,Kafe,Sleepless Owls,"Jl. Tebet Utara Dalam No.27 7, RT.10/RW.2, Tebet Tim., Kec. Tebet, Kota Jakarta Selatan, Daerah Khusus Ibukota Jakarta 12820","RT.10/RW.2, Tebet Tim., Kec. Tebet, Kota Jakarta Selatan",PAPUA BARAT,12820.0,Indonesia,2122837396.0,-6.2259828,106.854612,https://maps.google.com/?cid=0x0:0x1ae76a51d8f772b8
cafe,Toko Kue,Bakerzin Kota Kasablanka,"16, Jl. Raya Casablanca No.88, RT.16/RW.5, Menteng Dalam, Kec. Tebet, Kota Jakarta Selatan, Daerah Khusus Ibukota Jakarta 12870","Jl. Raya Casablanca No.88, RT.16/RW.5, Menteng Dalam, Kec. Tebet, Kota Jakarta Selatan",PAPUA BARAT,12870.0,Indonesia,2129475128.0,-6.2231276,106.8421473,https://maps.google.com/?cid=0x0:0xbdcdd1a04115c815
cafe,Shabu Shabu,Butterman Kota Kasablanka,"Kota Kasablanka, Jl. Raya Casablanca Raya No.Kav. 88 Lantai G Unit GF-08, Menteng Dalam, Kec. Tebet, Kota Jakarta Selatan, Daerah Khusus Ibukota Jakarta 12960","Jl. Raya Casablanca Raya No.Kav. 88 Lantai G Unit GF-08, Menteng Dalam, Kec. Tebet, Kota Jakarta Selatan",PAPUA BARAT,12960.0,Indonesia,81398898809.0,-6.2238377,106.8433087,https://maps.google.com/?cid=0x0:0x8744bc82869bd46d
cafe,Pujasera,Food Society,"Kota Kasablanka, Ground Floor, Jl. Raya Casablanca No.Kav. 88 Kav 88, RT.16/RW.5, Menteng Dalam, Tebet, South Jakarta City, Jakarta 12870","Ground Floor, Jl. Raya Casablanca No.Kav. 88 Kav 88, RT.16/RW.5, Menteng Dalam, Tebet, South Jakarta City",PAPUA BARAT,12870.0,Indonesia,,-6.2242411,106.8423388,https://maps.google.com/?cid=0x0:0x1d6e4b01873b2af8
cafe,Masakan Barat,OHLALA Mall Kota Kasablanka,"Jl. Raya Casablanca No.88 FSU05, RT.14, RW.5, Menteng Dalam, Kec. Tebet, Kota Jakarta Selatan, Daerah Khusus Ibukota Jakarta 12870","RT.14, RW.5, Menteng Dalam, Kec. Tebet, Kota Jakarta Selatan",PAPUA BARAT,12870.0,Indonesia,2129488702.0,-6.2240955,106.8424745,https://maps.google.com/?cid=0x0:0x4b82eca56598cc3
cafe,Kedai Kopi,Kopitagram Centang Biru - Kuningan,"Jl. Karet Sawah 1, Karet, Kecamatan Setiabudi, Kota Jakarta Selatan, Daerah Khusus Ibukota Jakarta 12950","Karet, Kecamatan Setiabudi, Kota Jakarta Selatan",PAPUA BARAT,12950.0,Indonesia,87780774318.0,-6.2215621,106.8188306,https://maps.google.com/?cid=0x0:0x42f3834ce27634cb
cafe,Kedai Kopi,Golden Black Coffee - Kemang,"Jl. Kemang Selatan VIII No.5B, Cipete Sel., Kec. Cilandak, Kota Jakarta Selatan, Daerah Khusus Ibukota Jakarta 12410","Cipete Sel., Kec. Cilandak, Kota Jakarta Selatan",PAPUA BARAT,12410.0,Indonesia,,-6.2670038,106.8119412,https://maps.google.com/?cid=0x0:0xeab4a645d6269247
cafe,Kedai Kopi,Kedai MaNo by Nofi Chu,"Jl. DI Panjaitan, Fak Fak Utara, Distrik Fakfak, Kabupaten Fakfak, Papua Bar. 98611","Fak Fak Utara, Distrik Fakfak, Kabupaten Fakfak",PAPUA BARAT,98611.0,Indonesia,82399621849.0,-2.9286187,132.3078664,https://maps.google.com/?cid=0x0:0x97848f1fac9c9f2b
cafe,Kedai Kopi,Nong Coffee,"Jl. MT Haryono, Fak Fak Utara, Distrik Fakfak, Kabupaten Fakfak, Papua Bar. 98651","Fak Fak Utara, Distrik Fakfak, Kabupaten Fakfak",PAPUA BARAT,98651.0,Indonesia,82239483461.0,-2.9272684,132.3040004,https://maps.google.com/?cid=0x0:0x50f858cf09a6a87c
cafe,cafe,,,,PAPUA BARAT,,Indonesia,,,,https://maps.google.com/?cid=0x0:0x97848f1fac9c9f2bu0026onu003dSalad+Buah+Mediumu0026midu003d/g/11fj_09kls
cafe,cafe,,,,PAPUA BARAT,,Indonesia,,,,https://maps.google.com/?cid=0x0:0x97848f1fac9c9f2bu0026onu003dEs+Buah+Segaru0026midu003d/g/11fj_09kls
cafe,cafe,,,,PAPUA BARAT,,Indonesia,,,,https://maps.google.com/?cid=0x0:0x97848f1fac9c9f2bu0026onu003dSalad+Buah+Mini+Cupu0026midu003d/g/11fj_09kls
cafe,cafe,,,,PAPUA BARAT,,Indonesia,,,,https://maps.google.com/?cid=0x0:0x97848f1fac9c9f2bu0026onu003dSalad+Buah+Smallu0026midu003d/g/11fj_09kls
cafe,cafe,,,,PAPUA BARAT,,Indonesia,,,,https://maps.google.com/?cid=0x0:0x97848f1fac9c9f2bu0026onu003dBuko+Pandanu0026midu003d/g/11fj_09kls
cafe,cafe,,,,PAPUA BARAT,,Indonesia,,,,https://maps.google.com/?cid=0x0:0x97848f1fac9c9f2bu0026onu003dCoffee+Milo+%26+Greentea+Latteu0026midu003d/g/11fj_09kls
cafe,cafe,,,,PAPUA BARAT,,Indonesia,,,,https://maps.google.com/?cid=0x0:0x97848f1fac9c9f2bu0026onu003dNasi+Kepalu0026midu003d/g/11fj_09kls
cafe,cafe,,,,PAPUA BARAT,,Indonesia,,,,https://maps.google.com/?cid=0x0:0x97848f1fac9c9f2bu0026onu003dAneka+Cemilanu0026midu003d/g/11fj_09kls
cafe,cafe,,,,PAPUA BARAT,,Indonesia,,,,https://maps.google.com/?cid=0x0:0x97848f1fac9c9f2bu0026onu003dBuah+Potong+Segaru0026midu003d/g/11fj_09kls
cafe,cafe,,,,PAPUA BARAT,,Indonesia,,,,https://maps.google.com/?cid=0x0:0x97848f1fac9c9f2bu0026onu003dOrange+Yakult+Squashu0026midu003d/g/11fj_09kls
cafe,cafe,,,,PAPUA BARAT,,Indonesia,,,,https://maps.google.com/?cid=0x0:0x97848f1fac9c9f2bu0026onu003dKlapertartu0026midu003d/g/11fj_09kls
cafe,cafe,,,,PAPUA BARAT,,Indonesia,,,,https://maps.google.com/?cid=0x0:0x97848f1fac9c9f2bu0026onu003dPempek+Ikanu0026midu003d/g/11fj_09kls
cafe,cafe,Papua Bar. 98661,"Kabupaten Fakfak, Papua Bar.","Kabupaten Fakfak, Papua Bar.",PAPUA BARAT,,Indonesia,,-2.8087988,132.1177396,https://maps.google.com/?cid=0x0:0x6512126b96febab4
cafe,Kafe,Cafe Dijiku,"Fak Fak Utara, Distrik Fakfak, Kabupaten Fakfak, Papua Bar. 98611","Distrik Fakfak, Kabupaten Fakfak",PAPUA BARAT,98611.0,Indonesia,82197959191.0,-2.9282773,132.3072462,https://maps.google.com/?cid=0x0:0xf17980116562a93a
cafe,Kafe,Cafe Berlian,"37MV+68W, Wagom Utara, Distrik Fakfak, Kabupaten Fakfak, Papua Bar. 98651","Wagom Utara, Distrik Fakfak, Kabupaten Fakfak",PAPUA BARAT,98651.0,Indonesia,,-2.9168816,132.2933315,https://maps.google.com/?cid=0x0:0xff2b13028839e34f
cafe,Kedai Kopi,Tomang Caffeine,"38G2+GF4, Fak Fak Utara, Distrik Fakfak, Kabupaten Fakfak, Papua Bar. 98651","Fak Fak Utara, Distrik Fakfak, Kabupaten Fakfak",PAPUA BARAT,98651.0,Indonesia,81248265093.0,-2.9240543,132.3013222,https://maps.google.com/?cid=0x0:0x4411f8816ffe48c7
cafe,Kafe,Cleza Caffee  Eatery,"Fak Fak Utara, Distrik Fakfak, Kabupaten Fakfak, Papua Bar. 98651","Distrik Fakfak, Kabupaten Fakfak",PAPUA BARAT,98651.0,Indonesia,82248303362.0,-2.9229135,132.3028757,https://maps.google.com/?cid=0x0:0x31ffad25226722b6
cafe,Kafe,MAXi coffee  Pallubasa,"tj, Jl. Yos Sudarso, Wagom Utara, Distrik Fakfak, Kabupaten Fakfak, Papua Bar. 98024","Jl. Yos Sudarso, Wagom Utara, Distrik Fakfak, Kabupaten Fakfak",PAPUA BARAT,98024.0,Indonesia,82197744444.0,-2.9320504,132.299967,https://maps.google.com/?cid=0x0:0x54282a6baca55509
cafe,Rumah Makan,Restaurant Famili,"3895+5FP, Jl. Fakfak - Torea, Fak Fak Selatan, Distrik Fakfak, Kabupaten Fakfak, Papua Bar. 98611","Jl. Fakfak - Torea, Fak Fak Selatan, Distrik Fakfak, Kabupaten Fakfak",PAPUA BARAT,98611.0,Indonesia,,-2.9320459,132.3086959,https://maps.google.com/?cid=0x0:0x235fbbeec61e32cb
cafe,Kafe,Cafe 99,"37QM+RMQ, Wrikapal, Distrik Fakfak, Kabupaten Fakfak, Papua Bar. 98611","Wrikapal, Distrik Fakfak, Kabupaten Fakfak",PAPUA BARAT,98611.0,Indonesia,,-2.9104176,132.2842392,https://maps.google.com/?cid=0x0:0x8643d487a51ce9dc
cafe,Kafe,Cafe ZANE MILAN,"38H2+HVH, Fak Fak Utara, Distrik Fakfak, Kabupaten Fakfak, Papua Bar. 98651","Fak Fak Utara, Distrik Fakfak, Kabupaten Fakfak",PAPUA BARAT,98651.0,Indonesia,,-2.9210664,132.3022336,https://maps.google.com/?cid=0x0:0xdfb1fd1b9bbf1ab8
cafe,Kafe,Cafe galaxi,"37PQ+RJJ, Unnamed Road, Wrikapal, Distrik Fakfak, Kabupaten Fakfak, Papua Bar. 98611","Unnamed Road, Wrikapal, Distrik Fakfak, Kabupaten Fakfak",PAPUA BARAT,98611.0,Indonesia,,-2.9129105,132.2890262,https://maps.google.com/?cid=0x0:0xa3d47068816b99bd
cafe,Jawa,Warung Makan Joni,"379V+RXP, Jalan Yos Sudarso, Wagom Selatan, Wagom Utara, Fakfak, Fakfak Regency, West Papua 98651","Jalan Yos Sudarso, Wagom Selatan, Wagom Utara, Fakfak, Fakfak Regency",PAPUA BARAT,98651.0,Indonesia,,-2.9304224,132.2949474,https://maps.google.com/?cid=0x0:0x1819baa625bbf082
cafe,Rumah Makan,Warung Makan Dedi,"Unnamed Road, Papua Bar. 98611, Wagom Utara, Distrik Fakfak, Kabupaten Fakfak, Papua Bar. 98611",Papua Bar.,PAPUA BARAT,98611.0,Indonesia,81354160605.0,-2.9238565,132.2907796,https://maps.google.com/?cid=0x0:0xd9d09e320f8fc963
cafe,Kedai Kopi,Cafe AURORA,"37JQ+P9H, Wagom Utara, Distrik Fakfak, Kabupaten Fakfak, Papua Bar. 98611","Wagom Utara, Distrik Fakfak, Kabupaten Fakfak",PAPUA BARAT,98611.0,Indonesia,82214913145.0,-2.9181963,132.2884846,https://maps.google.com/?cid=0x0:0x46c434d7d632a8fe
cafe,Kedai Kopi,Kopi Paste Family,"3895+4F5, Fak Fak Selatan, Distrik Fakfak, Kabupaten Fakfak, Papua Bar. 98611","Fak Fak Selatan, Distrik Fakfak, Kabupaten Fakfak",PAPUA BARAT,98611.0,Indonesia,82248191160.0,-2.9324245,132.308816,https://maps.google.com/?cid=0x0:0xd3dae24f798ff30c
hotel,hotel,Bomberay,"Kabupaten Fakfak, Papua Bar.","Kabupaten Fakfak, Papua Bar.",PAPUA BARAT,,Indonesia,,-2.9067292,133.2521507,https://maps.google.com/?cid=0x0:0x8b6d998000da2107
hotel,hotel,Marina Mamberamo,"Jl. Yos. Sudarso No.1, Kp. Baru, Distrik Sorong, Kota Sorong, Papua Bar. 98413","Kp. Baru, Distrik Sorong, Kota Sorong",PAPUA BARAT,98413.0,Indonesia,85244588484.0,-0.8757299,131.2440035,https://maps.google.com/?cid=0x0:0x90a6ebcb4c6ebcbd
hotel,hotel,Royal Mamberamo Hotel,"Jl. Dr. Sam Ratulangi No.35, Kp. Baru, Distrik Sorong, Kota Sorong, Papua Bar. 98413","Kp. Baru, Distrik Sorong, Kota Sorong",PAPUA BARAT,98413.0,Indonesia,951325666.0,-0.871573,131.250864,https://maps.google.com/?cid=0x0:0xb5e32e36111d42eb
hotel,hotel,Papua Bar. 98611,"Kabupaten Fakfak, Papua Bar.","Kabupaten Fakfak, Papua Bar.",PAPUA BARAT,,Indonesia,,-2.9152703,132.4331624,https://maps.google.com/?cid=0x0:0xd346582f482a91e7
hotel,hotel,Hotel Grand Papua Fakfak,"38C3+WJ8, Fak Fak Utara, Distrik Fakfak, Kabupaten Fakfak, Papua Bar. 98651","Fak Fak Utara, Distrik Fakfak, Kabupaten Fakfak",PAPUA BARAT,98651.0,Indonesia,8114852349.0,-2.9273756,132.3046214,https://maps.google.com/?cid=0x0:0x9ff2b85d6b66a2ca
hotel,hotel,,,,PAPUA BARAT,,Indonesia,,,,https://maps.google.com/?cid=0x0:0x9ff2b85d6b66a2ca%7C/g/11b6c__t4_%7Cid-ID
hotel,hotel,Cotton Fields Home Stay,"Fak Fak Utara, Distrik Fakfak, Kabupaten Fakfak, Papua Bar. 98651","Distrik Fakfak, Kabupaten Fakfak",PAPUA BARAT,98651.0,Indonesia,82198879999.0,-2.9221846,132.3017058,https://maps.google.com/?cid=0x0:0x42eb409e4b5d0344
hotel,hotel,Wisma Torea,"37FC+2P5, Dulan Pok Pok, Distrik Fakfak, Kabupaten Fakfak, Papua Bar. 98611","Dulan Pok Pok, Distrik Fakfak, Kabupaten Fakfak",PAPUA BARAT,98611.0,Indonesia,82239394765.0,-2.9274883,132.27185,https://maps.google.com/?cid=0x0:0x2260383d783da7b9
hotel,hotel,Hotel HI,"38C2+2X4, Fak Fak Selatan, Distrik Fakfak, Kabupaten Fakfak, Papua Bar. 98651","Fak Fak Selatan, Distrik Fakfak, Kabupaten Fakfak",PAPUA BARAT,98651.0,Indonesia,8888695878.0,-2.9299949,132.3024558,https://maps.google.com/?cid=0x0:0xa6762a3966976144
hotel,hotel,Distrik Fakfak,"Kabupaten Fakfak, Papua Bar.","Kabupaten Fakfak, Papua Bar.",PAPUA BARAT,,Indonesia,,-2.9301404,132.3024382,https://maps.google.com/?cid=0x0:0x1fb44d294e112bc3
hotel,hotel,Papua Bar. 98661,"Kabupaten Fakfak, Papua Bar.","Kabupaten Fakfak, Papua Bar.",PAPUA BARAT,,Indonesia,,-2.8087988,132.1177396,https://maps.google.com/?cid=0x0:0x6512126b96febab4
hotel,hotel,Hotel Grand Papua Fakfak,"38C3+WJ8, Fak Fak Utara, Distrik Fakfak, Kabupaten Fakfak, Papua Bar. 98651","Fak Fak Utara, Distrik Fakfak, Kabupaten Fakfak",PAPUA BARAT,98651.0,Indonesia,8114852349.0,-2.9273756,132.3046214,https://maps.google.com/?cid=0x0:0x9ff2b85d6b66a2ca
hotel,hotel,,,,PAPUA BARAT,,Indonesia,,,,https://maps.google.com/?cid=0x0:0x9ff2b85d6b66a2ca%7C/g/11b6c__t4_%7Cid-ID
hotel,hotel,Wisma Torea,"37FC+2P5, Dulan Pok Pok, Distrik Fakfak, Kabupaten Fakfak, Papua Bar. 98611","Dulan Pok Pok, Distrik Fakfak, Kabupaten Fakfak",PAPUA BARAT,98611.0,Indonesia,82239394765.0,-2.9274883,132.27185,https://maps.google.com/?cid=0x0:0x2260383d783da7b9
hotel,hotel,Cotton Fields Home Stay,"Fak Fak Utara, Distrik Fakfak, Kabupaten Fakfak, Papua Bar. 98651","Distrik Fakfak, Kabupaten Fakfak",PAPUA BARAT,98651.0,Indonesia,82198879999.0,-2.9221846,132.3017058,https://maps.google.com/?cid=0x0:0x42eb409e4b5d0344
hotel,hotel,Hotel HI,"38C2+2X4, Fak Fak Selatan, Distrik Fakfak, Kabupaten Fakfak, Papua Bar. 98651","Fak Fak Selatan, Distrik Fakfak, Kabupaten Fakfak",PAPUA BARAT,98651.0,Indonesia,8888695878.0,-2.9299949,132.3024558,https://maps.google.com/?cid=0x0:0xa6762a3966976144
hotel,hotel,Fajar Roon Hotel,"Jl. Trikora Wosi, Wosi, Kec. Manokwari Bar., Kabupaten Manokwari, Papua Bar. 98312","Wosi, Kec. Manokwari Bar., Kabupaten Manokwari",PAPUA BARAT,98312.0,Indonesia,85333112338.0,-0.8680273,134.0564644,https://maps.google.com/?cid=0x0:0xec6cf3d20bba5444
hotel,Hutan Nasional,PULAU TUBIR SERAM,"28XF+477, Dana Weria, Distrik Fakfak Tengah, Kabupaten Fakfak, Papua Bar.","Kabupaten Fakfak, Papua Bar.",PAPUA BARAT,,Indonesia,,-2.9522091,132.3231871,https://maps.google.com/?cid=0x0:0x716e873f0c48008f
hotel,Hotel,Hotel Tembagapura,"Fak Fak Selatan, Distrik Fakfak, Kabupaten Fakfak, Papua Bar. 98611","Distrik Fakfak, Kabupaten Fakfak",PAPUA BARAT,98611.0,Indonesia,82241749630.0,-2.9320664,132.3079974,https://maps.google.com/?cid=0x0:0xe5a35c345e461cb1
hotel,Hotel,HOTEL SYEBA,"Jl. Izaak Telussa No.63A, Fak Fak Selatan, Distrik Fakfak, Kabupaten Fakfak, Papua Bar. 98611","Fak Fak Selatan, Distrik Fakfak, Kabupaten Fakfak",PAPUA BARAT,98611.0,Indonesia,85244567400.0,-2.9317071,132.3061167,https://maps.google.com/?cid=0x0:0x4e1b2ea517799334
hotel,Hotel,HOTEL SULINAH,"3893+GJ9, Jl. Izaak Telussa, Fak Fak Selatan, Distrik Fakfak, Kabupaten Fakfak, Papua Bar. 98651","Jl. Izaak Telussa, Fak Fak Selatan, Distrik Fakfak, Kabupaten Fakfak",PAPUA BARAT,98651.0,Indonesia,81343333282.0,-2.9312082,132.3041141,https://maps.google.com/?cid=0x0:0x7ddf9687fab2406f
hotel,Hotel,Hotel Surya Teluk,"37CQ+XF2, Unnamed Road, Wagom Sel., Distrik Fakfak, Kabupaten Fakfak, Papua Bar. 98611","Unnamed Road, Wagom Sel., Distrik Fakfak, Kabupaten Fakfak",PAPUA BARAT,98611.0,Indonesia,81248908754.0,-2.9276157,132.2886324,https://maps.google.com/?cid=0x0:0x193945b735cb44e4
hotel,Hotel,Kokas Mini Hotel,"JL. Izak Telussa, Fak Fak Selatan, Distrik Fakfak, Kabupaten Fakfak, Papua Bar. 98611","Fak Fak Selatan, Distrik Fakfak, Kabupaten Fakfak",PAPUA BARAT,98611.0,Indonesia,81380969939.0,-2.9312255,132.3048798,https://maps.google.com/?cid=0x0:0x32ce65788c40045b
hotel,Hotel,Putra baan,"33FQ+J6, Sipatnanam, Kec. Fakfak Bar., Kabupaten Fakfak, Papua Bar.","Kabupaten Fakfak, Papua Bar.",PAPUA BARAT,,Indonesia,,-2.9259381,132.0880387,https://maps.google.com/?cid=0x0:0xf1ea4bca413bf2b1
hotel,hotel,Distrik Fakfak Tengah,"Kabupaten Fakfak, Papua Bar.","Kabupaten Fakfak, Papua Bar.",PAPUA BARAT,,Indonesia,,-2.9352442,132.3183355,https://maps.google.com/?cid=0x0:0x4e103c5ed15f609d
hotel,hotel,,,,PAPUA BARAT,,Indonesia,,,,https://maps.google.com/?cid=0x0:0x9ff2b85d6b66a2ca%7C/g/11b6c__t4_%7Cid-ID
hotel,hotel,Hotel Grand Papua Fakfak,"38C3+WJ8, Fak Fak Utara, Distrik Fakfak, Kabupaten Fakfak, Papua Bar. 98651","Fak Fak Utara, Distrik Fakfak, Kabupaten Fakfak",PAPUA BARAT,98651.0,Indonesia,8114852349.0,-2.9273756,132.3046214,https://maps.google.com/?cid=0x0:0x9ff2b85d6b66a2ca
hotel,hotel,Cotton Fields Home Stay,"Fak Fak Utara, Distrik Fakfak, Kabupaten Fakfak, Papua Bar. 98651","Distrik Fakfak, Kabupaten Fakfak",PAPUA BARAT,98651.0,Indonesia,82198879999.0,-2.9221846,132.3017058,https://maps.google.com/?cid=0x0:0x42eb409e4b5d0344
hotel,hotel,Hotel HI,"38C2+2X4, Fak Fak Selatan, Distrik Fakfak, Kabupaten Fakfak, Papua Bar. 98651","Fak Fak Selatan, Distrik Fakfak, Kabupaten Fakfak",PAPUA BARAT,98651.0,Indonesia,8888695878.0,-2.9299949,132.3024558,https://maps.google.com/?cid=0x0:0xa6762a3966976144
hotel,hotel,Wisma Torea,"37FC+2P5, Dulan Pok Pok, Distrik Fakfak, Kabupaten Fakfak, Papua Bar. 98611","Dulan Pok Pok, Distrik Fakfak, Kabupaten Fakfak",PAPUA BARAT,98611.0,Indonesia,82239394765.0,-2.9274883,132.27185,https://maps.google.com/?cid=0x0:0x2260383d783da7b9
hotel,hotel,Fakfak Tim.,"Kabupaten Fakfak, Papua Bar.","Kabupaten Fakfak, Papua Bar.",PAPUA BARAT,,Indonesia,,-3.0285426,132.5901672,https://maps.google.com/?cid=0x0:0x6a0537f2cba21df
hotel,hotel,Hotel Grand Papua Fakfak,"38C3+WJ8, Fak Fak Utara, Distrik Fakfak, Kabupaten Fakfak, Papua Bar. 98651","Fak Fak Utara, Distrik Fakfak, Kabupaten Fakfak",PAPUA BARAT,98651.0,Indonesia,8114852349.0,-2.9273756,132.3046214,https://maps.google.com/?cid=0x0:0x9ff2b85d6b66a2ca
hotel,hotel,,,,PAPUA BARAT,,Indonesia,,,,https://maps.google.com/?cid=0x0:0x9ff2b85d6b66a2ca%7C/g/11b6c__t4_%7Cid-ID
hotel,hotel,Cotton Fields Home Stay,"Fak Fak Utara, Distrik Fakfak, Kabupaten Fakfak, Papua Bar. 98651","Distrik Fakfak, Kabupaten Fakfak",PAPUA BARAT,98651.0,Indonesia,82198879999.0,-2.9221846,132.3017058,https://maps.google.com/?cid=0x0:0x42eb409e4b5d0344
hotel,hotel,Hotel HI,"38C2+2X4, Fak Fak Selatan, Distrik Fakfak, Kabupaten Fakfak, Papua Bar. 98651","Fak Fak Selatan, Distrik Fakfak, Kabupaten Fakfak",PAPUA BARAT,98651.0,Indonesia,8888695878.0,-2.9299949,132.3024558,https://maps.google.com/?cid=0x0:0xa6762a3966976144
hotel,hotel,Wisma Torea,"37FC+2P5, Dulan Pok Pok, Distrik Fakfak, Kabupaten Fakfak, Papua Bar. 98611","Dulan Pok Pok, Distrik Fakfak, Kabupaten Fakfak",PAPUA BARAT,98611.0,Indonesia,82239394765.0,-2.9274883,132.27185,https://maps.google.com/?cid=0x0:0x2260383d783da7b9
hotel,hotel,35 Inn,"476C+RFX, Jl. Ferry, Malawei, Distrik Sorong, Kota Sorong, Papua Bar. 98412","Jl. Ferry, Malawei, Distrik Sorong, Kota Sorong",PAPUA BARAT,98412.0,Indonesia,,-0.8878893,131.271243,https://maps.google.com/?cid=0x0:0xb276478752dcd2b2
hotel,hotel,Fajar Roon Hotel,"Jl. Trikora Wosi, Wosi, Kec. Manokwari Bar., Kabupaten Manokwari, Papua Bar. 98312","Wosi, Kec. Manokwari Bar., Kabupaten Manokwari",PAPUA BARAT,98312.0,Indonesia,85333112338.0,-0.8680273,134.0564644,https://maps.google.com/?cid=0x0:0xec6cf3d20bba5444
hotel,hotel,Papua Bar.,,Papua Bar.,PAPUA BARAT,,Indonesia,,-1.3361154,133.1747162,https://maps.google.com/?cid=0x0:0x5349c1f8c5c7cb62
hotel,hotel,Wisma Torea,"37FC+2P5, Dulan Pok Pok, Distrik Fakfak, Kabupaten Fakfak, Papua Bar. 98611","Dulan Pok Pok, Distrik Fakfak, Kabupaten Fakfak",PAPUA BARAT,98611.0,Indonesia,82239394765.0,-2.9274883,132.27185,https://maps.google.com/?cid=0x0:0x2260383d783da7b9
hotel,Hutan Nasional,PULAU TUBIR SERAM,"28XF+477, Dana Weria, Distrik Fakfak Tengah, Kabupaten Fakfak, Papua Bar.","Kabupaten Fakfak, Papua Bar.",PAPUA BARAT,,Indonesia,,-2.9522091,132.3231871,https://maps.google.com/?cid=0x0:0x716e873f0c48008f
hotel,hotel,,,,PAPUA BARAT,,Indonesia,,,,https://maps.google.com/?cid=0x0:0x9ff2b85d6b66a2ca%7C/g/11b6c__t4_%7Cid-ID
hotel,Hotel,Kokas Mini Hotel,"JL. Izak Telussa, Fak Fak Selatan, Distrik Fakfak, Kabupaten Fakfak, Papua Bar. 98611","Fak Fak Selatan, Distrik Fakfak, Kabupaten Fakfak",PAPUA BARAT,98611.0,Indonesia,81380969939.0,-2.9312255,132.3048798,https://maps.google.com/?cid=0x0:0x32ce65788c40045b
hotel,hotel,Korpak Villa and Resort,"HQ6M+RGH, Unnamed Road, Waisai, Distrik Kota Waisai, Kabupaten Raja Ampat, Papua Bar. 98482","Unnamed Road, Waisai, Distrik Kota Waisai, Kabupaten Raja Ampat",PAPUA BARAT,98482.0,Indonesia,,-0.4379467,130.7838521,https://maps.google.com/?cid=0x0:0x7d6048504236c32d
hotel,hotel,Pantai Saleo,"Waisai, Distrik Kota Waisai, Kabupaten Raja Ampat, Papua Bar. 98482","Distrik Kota Waisai, Kabupaten Raja Ampat",PAPUA BARAT,98482.0,Indonesia,,-0.4411768,130.7875287,https://maps.google.com/?cid=0x0:0x848c26d0dfb12814
hotel,Layanan Transportasi,Waisai,,,PAPUA BARAT,,Indonesia,,-0.43245,130.80278,https://maps.google.com/?cid=0x0:0xefa3cc42d8fe7cd0
hotel,hotel,Vogelkopf Resort,"Waisai, Distrik Kota Waisai, Kabupaten Raja Ampat, Papua Bar. 98482","Distrik Kota Waisai, Kabupaten Raja Ampat",PAPUA BARAT,98482.0,Indonesia,81360001088.0,-0.4385338,130.785262,https://maps.google.com/?cid=0x0:0x132e94aff8281150
hotel,hotel,Kakatua Hostel,"HR86+2Q3, Jl. Yos Sudarso No.8 Sapordanco, Waisai, Distrik Kota Waisai, Kabupaten Raja Ampat, Papua Bar. 98482","Jl. Yos Sudarso No.8 Sapordanco, Waisai, Distrik Kota Waisai, Kabupaten Raja Ampat",PAPUA BARAT,98482.0,Indonesia,82197509582.0,-0.4343033,130.815622,https://maps.google.com/?cid=0x0:0x5f169d5bf2686410
hotel,Hotel Resor,Cape Kri,"CMVR+F5H, Yenbuba, Meos Mansar, Kabupaten Raja Ampat, Papua Bar.","Kabupaten Raja Ampat, Papua Bar.",PAPUA BARAT,,Indonesia,,-0.5563238,130.6904922,https://maps.google.com/?cid=0x0:0x4a2598db75b36835
hotel,hotel,Swiss Belhotel Manokwari,"Jl. Yos Sudarso Manokwari No.8, Manokwari Bar., Kec. Manokwari Bar., Kabupaten Manokwari, Papua Bar. 98312","Manokwari Bar., Kec. Manokwari Bar., Kabupaten Manokwari",PAPUA BARAT,98312.0,Indonesia,8114854000.0,-0.8572937,134.0672125,https://maps.google.com/?cid=0x0:0x92c98d5e96ee2a8f
hotel,hotel,,,,PAPUA BARAT,,Indonesia,,,,https://maps.google.com/?cid=0x0:0x92c98d5e96ee2a8f%7C/g/1yl475f47%7Cid-ID
hotel,hotel,Pulau Mansinam,"Mansinam, Kec. Manokwari Tim., Kabupaten Manokwari, Papua Bar.","Kabupaten Manokwari, Papua Bar.",PAPUA BARAT,,Indonesia,,-0.9141667,134.1083333,https://maps.google.com/?cid=0x0:0x94a3a276c08ef3eb
hotel,hotel,Papua Bar. 98662,"Kabupaten Fakfak, Papua Bar.","Kabupaten Fakfak, Papua Bar.",PAPUA BARAT,,Indonesia,,-3.097706,133.0194897,https://maps.google.com/?cid=0x0:0xb4392ea87e61dc2a
hotel,hotel,Hotel Grand Papua Kaimana,"Lingkar tanjung simora, Kroy, Kec. Kaimana, Kabupaten Kaimana, Papua Bar. 98654","Kroy, Kec. Kaimana, Kabupaten Kaimana",PAPUA BARAT,98654.0,Indonesia,82248850669.0,-3.6691103,133.7028408,https://maps.google.com/?cid=0x0:0x964de24b7e359ec2
hotel,hotel,Kaimana Beach Hotel,"9P2Q+VWP, Jl. Utarom, Mai Mai, Kec. Kaimana, Kabupaten Kaimana, Papua Bar. 98654","Jl. Utarom, Mai Mai, Kec. Kaimana, Kabupaten Kaimana",PAPUA BARAT,98654.0,Indonesia,82228055551.0,-3.6477828,133.7398156,https://maps.google.com/?cid=0x0:0xb61c6c96053942ee
hotel,hotel,Kasuari Valley Beach Resort Sorong,"Tj. Kasuari, Distrik Sorong Barat, Kota Sorong, Papua Bar. 98411","Distrik Sorong Barat, Kota Sorong",PAPUA BARAT,98411.0,Indonesia,81247423939.0,-0.8229453,131.2259207,https://maps.google.com/?cid=0x0:0x7ae87156c62b6490
hotel,hotel,Hotel Grand Papua Fakfak,"38C3+WJ8, Fak Fak Utara, Distrik Fakfak, Kabupaten Fakfak, Papua Bar. 98651","Fak Fak Utara, Distrik Fakfak, Kabupaten Fakfak",PAPUA BARAT,98651.0,Indonesia,8114852349.0,-2.9273756,132.3046214,https://maps.google.com/?cid=0x0:0x9ff2b85d6b66a2ca
hotel,hotel,,,,PAPUA BARAT,,Indonesia,,,,https://maps.google.com/?cid=0x0:0x9ff2b85d6b66a2ca%7C/g/11b6c__t4_%7Cid-ID
hotel,hotel,Frances Homestay,"CJF8+H7, Kurkapa, Kabupaten Raja Ampat, Papua Bar.","Kabupaten Raja Ampat, Papua Bar.",PAPUA BARAT,,Indonesia,,-0.5737089,130.6207701,https://maps.google.com/?cid=0x0:0x2da7e8e00eb3b56a
hotel,hotel,Penginapan Kofiyau,"46MX+QV7, Unnamed Road, Klasuur, Distrik Sorong, Kota Sorong, Papua Bar. 98411","Unnamed Road, Klasuur, Distrik Sorong, Kota Sorong",PAPUA BARAT,98411.0,Indonesia,82398017326.0,-0.86559,131.2496721,https://maps.google.com/?cid=0x0:0xfc32a1234a9c5c47
hotel,hotel,Hotel Fakfak,"38C4+8RJ, Fak Fak Selatan, Distrik Fakfak, Kabupaten Fakfak, Papua Bar. 98611","Fak Fak Selatan, Distrik Fakfak, Kabupaten Fakfak",PAPUA BARAT,98611.0,Indonesia,81217125670.0,-2.9291646,132.307019,https://maps.google.com/?cid=0x0:0xf780a447b07e398b
hotel,hotel,Hotel HI,"38C2+2X4, Fak Fak Selatan, Distrik Fakfak, Kabupaten Fakfak, Papua Bar. 98651","Fak Fak Selatan, Distrik Fakfak, Kabupaten Fakfak",PAPUA BARAT,98651.0,Indonesia,8888695878.0,-2.9299949,132.3024558,https://maps.google.com/?cid=0x0:0xa6762a3966976144
hotel,hotel,Cotton Fields Home Stay,"Fak Fak Utara, Distrik Fakfak, Kabupaten Fakfak, Papua Bar. 98651","Distrik Fakfak, Kabupaten Fakfak",PAPUA BARAT,98651.0,Indonesia,82198879999.0,-2.9221846,132.3017058,https://maps.google.com/?cid=0x0:0x42eb409e4b5d0344
hotel,hotel,Wisma Torea,"37FC+2P5, Dulan Pok Pok, Distrik Fakfak, Kabupaten Fakfak, Papua Bar. 98611","Dulan Pok Pok, Distrik Fakfak, Kabupaten Fakfak",PAPUA BARAT,98611.0,Indonesia,82239394765.0,-2.9274883,132.27185,https://maps.google.com/?cid=0x0:0x2260383d783da7b9
hotel,hotel,Fajar Roon Hotel,"Jl. Trikora Wosi, Wosi, Kec. Manokwari Bar., Kabupaten Manokwari, Papua Bar. 98312","Wosi, Kec. Manokwari Bar., Kabupaten Manokwari",PAPUA BARAT,98312.0,Indonesia,85333112338.0,-0.8680273,134.0564644,https://maps.google.com/?cid=0x0:0xec6cf3d20bba5444
hotel,hotel,Hotel Batanta,"46GW+RMC, Kp. Baru, Distrik Sorong, Kota Sorong, Papua Bar. 98411","Kp. Baru, Distrik Sorong, Kota Sorong",PAPUA BARAT,98411.0,Indonesia,,-0.8729338,131.246629,https://maps.google.com/?cid=0x0:0xd18e7775760a134a
hotel,Hotel,Kokas Mini Hotel,"JL. Izak Telussa, Fak Fak Selatan, Distrik Fakfak, Kabupaten Fakfak, Papua Bar. 98611","Fak Fak Selatan, Distrik Fakfak, Kabupaten Fakfak",PAPUA BARAT,98611.0,Indonesia,81380969939.0,-2.9312255,132.3048798,https://maps.google.com/?cid=0x0:0x32ce65788c40045b
hotel,Hotel,ð¼ð°ð±ð´ð ð¿ðððððððð,"Fak Fak Selatan, Distrik Fakfak, Kabupaten Fakfak, Papua Bar.","Kabupaten Fakfak, Papua Bar.",PAPUA BARAT,,Indonesia,,-2.9330192,132.2997897,https://maps.google.com/?cid=0x0:0xdbcc27136d54645e
hotel,Pusat Perbelanjaan,Mall Kota Kasablanka,"Jl. Raya Casablanca No.Kav 88, Menteng Dalam, Kec. Tebet, Kota Jakarta Selatan, Daerah Khusus Ibukota Jakarta 12870","Menteng Dalam, Kec. Tebet, Kota Jakarta Selatan",PAPUA BARAT,12870.0,Indonesia,2129465000.0,-6.2240353,106.8425979,https://maps.google.com/?cid=0x0:0xaf54cb631563acce
hotel,hotel,,,,PAPUA BARAT,,Indonesia,,,,https://maps.google.com/?cid=0x0:0x70e5ae0ff55cdac1%7C/g/11h081m9fz%7Cid-ID
hotel,hotel,Cityloog Hotel Tebet - Jakarta,"Jl. Dr. Saharjo No.191 1st floor, RT.6/RW.1, Manggarai Sel., Kec. Tebet, Kota Jakarta Selatan, Daerah Khusus Ibukota Jakarta 12960","RT.6/RW.1, Manggarai Sel., Kec. Tebet, Kota Jakarta Selatan",PAPUA BARAT,12960.0,Indonesia,218303355.0,-6.2230159,106.8479561,https://maps.google.com/?cid=0x0:0x2e9f64b149881949
hotel,hotel,,,,PAPUA BARAT,,Indonesia,,,,https://maps.google.com/?cid=0x0:0x2e9f64b149881949%7C/g/1v2bnctb%7Cid-ID
hotel,hotel,Horison Ultima Suites  Residences Rasuna - Jakarta,"Apartment Taman Rasuna, Jl. H. R. Rasuna Said Tower 3, RT.17/RW.1, Menteng Atas, Kecamatan Setiabudi, Kota Jakarta Selatan, Daerah Khusus Ibukota Jakarta 12960","Jl. H. R. Rasuna Said Tower 3, RT.17/RW.1, Menteng Atas, Kecamatan Setiabudi, Kota Jakarta Selatan",PAPUA BARAT,12960.0,Indonesia,2183705555.0,-6.2193601,106.8365809,https://maps.google.com/?cid=0x0:0x27db10815b390914
hotel,Prasmanan,Mezza Cafe,"Komplek Apartemen Taman Rasuna, Jl. H. R. Rasuna Said No.17, RT.17/RW.1, Menteng Atas, Kecamatan Setiabudi, Kota Jakarta Selatan, Daerah Khusus Ibukota Jakarta 12960","Jl. H. R. Rasuna Said No.17, RT.17/RW.1, Menteng Atas, Kecamatan Setiabudi, Kota Jakarta Selatan",PAPUA BARAT,12960.0,Indonesia,2183705555.0,-6.2193165,106.8368211,https://maps.google.com/?cid=0x0:0xc022045324feab53
hotel,hotel,Citadines Gatot Subroto Jakarta,"Jl. Gatot Subroto Street Kav.64 No.177A, RT.9/RW.1, Menteng Dalam, Kec. Tebet, Kota Jakarta Selatan, Daerah Khusus Ibukota Jakarta 12870","RT.9/RW.1, Menteng Dalam, Kec. Tebet, Kota Jakarta Selatan",PAPUA BARAT,12870.0,Indonesia,218317780.0,-6.2401,106.8371105,https://maps.google.com/?cid=0x0:0x23412b22a82cebb5
hotel,hotel,Tebet Utara Residence,"Jl. Tebet Utara IV No.8B, RT.4/RW.2, Tebet Tim., Kec. Tebet, Kota Jakarta Selatan, Daerah Khusus Ibukota Jakarta 12820","RT.4/RW.2, Tebet Tim., Kec. Tebet, Kota Jakarta Selatan",PAPUA BARAT,12820.0,Indonesia,81805657588.0,-6.2276582,106.8537073,https://maps.google.com/?cid=0x0:0xea845a37d31b864a
hotel,hotel,The Westin Jakarta,"Jl. H. R. Rasuna Said No.Kav.C-22A, RT.2/RW.5, Karet Kuningan, Kecamatan Setiabudi, Kota Jakarta Selatan, Daerah Khusus Ibukota Jakarta 12940","RT.2/RW.5, Karet Kuningan, Kecamatan Setiabudi, Kota Jakarta Selatan",PAPUA BARAT,12940.0,Indonesia,2127887788.0,-6.2237501,106.8338607,https://maps.google.com/?cid=0x0:0x55b5886634b5a317
hotel,hotel,,,,PAPUA BARAT,,Indonesia,,,,https://maps.google.com/?cid=0x0:0x55b5886634b5a317%7C/g/11ckvvj713%7Cid-ID
hotel,hotel,Hotel JS Luwansa,"Jl. H. R. Rasuna Said No.22 Kav. C, RT.2/RW.5, Karet Kuningan, Kecamatan Setiabudi, Kota Jakarta Selatan, Daerah Khusus Ibukota Jakarta 12940","RT.2/RW.5, Karet Kuningan, Kecamatan Setiabudi, Kota Jakarta Selatan",PAPUA BARAT,12940.0,Indonesia,2129543030.0,-6.2228755,106.8330025,https://maps.google.com/?cid=0x0:0x29a39276bac061d4
hotel,hotel,,,,PAPUA BARAT,,Indonesia,,,,https://maps.google.com/?cid=0x0:0x29a39276bac061d4%7C/g/1yfjcpq5y%7Cid-ID
hotel,hotel,Papua Bar. 98652,"Doom Tim., Distrik Sorong Kepulauan, Kota Sorong, Papua Bar.","Kota Sorong, Papua Bar.",PAPUA BARAT,,Indonesia,,-0.9375383,131.254499,https://maps.google.com/?cid=0x0:0x5905364cc30efd0e
hotel,hotel,RYLICH PANORAMA HOTEL,"Jl. Sam Ratulangi No.55, Klasuur, Distrik Sorong, Kota Sorong, Papua Bar. 98411","Klasuur, Distrik Sorong, Kota Sorong",PAPUA BARAT,98411.0,Indonesia,81240607603.0,-0.8690863,131.2526553,https://maps.google.com/?cid=0x0:0x994aef0f06a4c9a4
hotel,hotel,Hotel Mariat,"479F+3XR, Jl. Ahmad Yani No.1, Klademak, Distrik Sorong, Kota Sorong, Papua Bar. 98412","Jl. Ahmad Yani No.1, Klademak, Distrik Sorong, Kota Sorong",PAPUA BARAT,98412.0,Indonesia,951323535.0,-0.8822653,131.2745998,https://maps.google.com/?cid=0x0:0xbf6ecabef3414744
hotel,hotel,Aimas Hotel And Convention Center,"Klamasen, Distrik Mariat, Kabupaten Sorong, Papua Bar. 98416","Distrik Mariat, Kabupaten Sorong",PAPUA BARAT,98416.0,Indonesia,8114887778.0,-0.9780957,131.3535192,https://maps.google.com/?cid=0x0:0x622ceae2f7c756cf
hotel,hotel,VEGA PRIME Hotel  Convention,"Jl. Frans Kaisiepo, Malaingkedi, Kec. Sorong Utara, Kota Sorong, Papua Bar. 98412","Malaingkedi, Kec. Sorong Utara, Kota Sorong",PAPUA BARAT,98412.0,Indonesia,81148501658.0,-0.8863935,131.2926608,https://maps.google.com/?cid=0x0:0x9490ccc0d9334885
hotel,hotel,Darefan Hotel Sorong,"Jl. Selat Morotai, Remu Sel., Kecamatan Sorong Manoi, Kota Sorong, Papua Bar. 98412","Remu Sel., Kecamatan Sorong Manoi, Kota Sorong",PAPUA BARAT,98412.0,Indonesia,8114868887.0,-0.8877595,131.2893739,https://maps.google.com/?cid=0x0:0x5709bb2ac9cbd24
hotel,hotel,City View Hotel,"479J+38V, Jl. Srigunting, Remu Utara, Distrik Sorong, Kota Sorong, Papua Bar. 98412","Jl. Srigunting, Remu Utara, Distrik Sorong, Kota Sorong",PAPUA BARAT,98412.0,Indonesia,951324102.0,-0.8822749,131.2808058,https://maps.google.com/?cid=0x0:0xac64df2bc7cde404
hotel,hotel,Swiss-Belhotel Sorong,"Hunting, Telepon, Jl. Jend. Sudirman Kecamatan, Malawei, Kecamatan Sorong Manoi, Kota Sorong, Papua Bar. 98412","Telepon, Jl. Jend. Sudirman Kecamatan, Malawei, Kecamatan Sorong Manoi, Kota Sorong",PAPUA BARAT,98412.0,Indonesia,8114853888.0,-0.889363,131.2749649,https://maps.google.com/?cid=0x0:0x4d32c5e468c00628
hotel,hotel,Aston Sorong Hotel  Conference Center,"476V+J9X, Jl. Basuki Rahmat, Malaingkedi, Kec. Sorong Utara, Kota Sorong, Papua Bar. 98412","Jl. Basuki Rahmat, Malaingkedi, Kec. Sorong Utara, Kota Sorong",PAPUA BARAT,98412.0,Indonesia,81148500888.0,-0.8887467,131.2931592,https://maps.google.com/?cid=0x0:0x110a6a5f0a67a7f7
hotel,hotel,,,,PAPUA BARAT,,Indonesia,,,,https://maps.google.com/?cid=0x0:0x4d32c5e468c00628%7C/g/11btmq5mpb%7Cid-ID
hotel,hotel,The ignislo sorong hotel,"Basuki Rahmat Street KM 7 Sorong, Malaingkedi, Sorong Utara, Sorong City, West Papua 98412","Malaingkedi, Sorong Utara, Sorong City",PAPUA BARAT,98412.0,Indonesia,,-0.8885403,131.2925628,https://maps.google.com/?cid=0x0:0x9992b24f2542a546
hotel,hotel,favehotel Sorong,"Klabulu, Jl. Basuki Rahmat Malaimsimsa, RT.001/RW.005, Kecamatan Malaimsimsa, Kota Sorong, Papua Bar. 98419","Jl. Basuki Rahmat Malaimsimsa, RT.001/RW.005, Kecamatan Malaimsimsa, Kota Sorong",PAPUA BARAT,98419.0,Indonesia,9513173888.0,-0.8892152,131.2985379,https://maps.google.com/?cid=0x0:0x56f2eb1c250a17fa
hotel,hotel,,,,PAPUA BARAT,,Indonesia,,,,https://maps.google.com/?cid=0x0:0x56f2eb1c250a17fa%7C/g/11g8bwyjxb%7Cid-ID
hotel,hotel,Marina Mamberamo,"Jl. Yos. Sudarso No.1, Kp. Baru, Distrik Sorong, Kota Sorong, Papua Bar. 98413","Kp. Baru, Distrik Sorong, Kota Sorong",PAPUA BARAT,98413.0,Indonesia,85244588484.0,-0.8757299,131.2440035,https://maps.google.com/?cid=0x0:0x90a6ebcb4c6ebcbd
hotel,hotel,Papua Bar. 98661,"Kabupaten Fakfak, Papua Bar.","Kabupaten Fakfak, Papua Bar.",PAPUA BARAT,,Indonesia,,-2.8087988,132.1177396,https://maps.google.com/?cid=0x0:0x6512126b96febab4
hotel,Hotel,Hotel Surya Teluk,"37CQ+XF2, Unnamed Road, Wagom Sel., Distrik Fakfak, Kabupaten Fakfak, Papua Bar. 98611","Unnamed Road, Wagom Sel., Distrik Fakfak, Kabupaten Fakfak",PAPUA BARAT,98611.0,Indonesia,81248908754.0,-2.9276157,132.2886324,https://maps.google.com/?cid=0x0:0x193945b735cb44e4
hotel,hotel,Hotel Grand Papua Fakfak,"38C3+WJ8, Fak Fak Utara, Distrik Fakfak, Kabupaten Fakfak, Papua Bar. 98651","Fak Fak Utara, Distrik Fakfak, Kabupaten Fakfak",PAPUA BARAT,98651.0,Indonesia,8114852349.0,-2.9273756,132.3046214,https://maps.google.com/?cid=0x0:0x9ff2b85d6b66a2ca
hotel,Hutan Nasional,PULAU TUBIR SERAM,"28XF+477, Dana Weria, Distrik Fakfak Tengah, Kabupaten Fakfak, Papua Bar.","Kabupaten Fakfak, Papua Bar.",PAPUA BARAT,,Indonesia,,-2.9522091,132.3231871,https://maps.google.com/?cid=0x0:0x716e873f0c48008f
hotel,Hotel,Hotel Tembagapura,"Fak Fak Selatan, Distrik Fakfak, Kabupaten Fakfak, Papua Bar. 98611","Distrik Fakfak, Kabupaten Fakfak",PAPUA BARAT,98611.0,Indonesia,82241749630.0,-2.9320664,132.3079974,https://maps.google.com/?cid=0x0:0xe5a35c345e461cb1
hotel,hotel,Wisma Torea,"37FC+2P5, Dulan Pok Pok, Distrik Fakfak, Kabupaten Fakfak, Papua Bar. 98611","Dulan Pok Pok, Distrik Fakfak, Kabupaten Fakfak",PAPUA BARAT,98611.0,Indonesia,82239394765.0,-2.9274883,132.27185,https://maps.google.com/?cid=0x0:0x2260383d783da7b9
hotel,Taman Ekologi,Ubadari Resort,"785X+46Q, Ubadari, Distrik Kramongmongga, Kabupaten Fakfak, Papua Bar.","Kabupaten Fakfak, Papua Bar.",PAPUA BARAT,,Indonesia,,-2.7421553,132.348106,https://maps.google.com/?cid=0x0:0xe963f2fde9027230
hotel,hotel,Cotton Fields Home Stay,"Fak Fak Utara, Distrik Fakfak, Kabupaten Fakfak, Papua Bar. 98651","Distrik Fakfak, Kabupaten Fakfak",PAPUA BARAT,98651.0,Indonesia,82198879999.0,-2.9221846,132.3017058,https://maps.google.com/?cid=0x0:0x42eb409e4b5d0344
hotel,hotel,Hotel HI,"38C2+2X4, Fak Fak Selatan, Distrik Fakfak, Kabupaten Fakfak, Papua Bar. 98651","Fak Fak Selatan, Distrik Fakfak, Kabupaten Fakfak",PAPUA BARAT,98651.0,Indonesia,8888695878.0,-2.9299949,132.3024558,https://maps.google.com/?cid=0x0:0xa6762a3966976144
hotel,Hotel,HOTEL SYEBA,"Jl. Izaak Telussa No.63A, Fak Fak Selatan, Distrik Fakfak, Kabupaten Fakfak, Papua Bar. 98611","Fak Fak Selatan, Distrik Fakfak, Kabupaten Fakfak",PAPUA BARAT,98611.0,Indonesia,85244567400.0,-2.9317071,132.3061167,https://maps.google.com/?cid=0x0:0x4e1b2ea517799334
hotel,Hotel,Kokas Mini Hotel,"JL. Izak Telussa, Fak Fak Selatan, Distrik Fakfak, Kabupaten Fakfak, Papua Bar. 98611","Fak Fak Selatan, Distrik Fakfak, Kabupaten Fakfak",PAPUA BARAT,98611.0,Indonesia,81380969939.0,-2.9312255,132.3048798,https://maps.google.com/?cid=0x0:0x32ce65788c40045b
hotel,Hotel,Hawai Homestay,"37FJ+3P3, Tanama, Distrik Fakfak, Kabupaten Fakfak, Papua Bar. 98614","Tanama, Distrik Fakfak, Kabupaten Fakfak",PAPUA BARAT,98614.0,Indonesia,81248830861.0,-2.9273709,132.2817957,https://maps.google.com/?cid=0x0:0xbf6a416e29ec7f68
hotel,hotel,Hotel Fakfak,"38C4+8RJ, Fak Fak Selatan, Distrik Fakfak, Kabupaten Fakfak, Papua Bar. 98611","Fak Fak Selatan, Distrik Fakfak, Kabupaten Fakfak",PAPUA BARAT,98611.0,Indonesia,81217125670.0,-2.9291646,132.307019,https://maps.google.com/?cid=0x0:0xf780a447b07e398b
hotel,Hotel,Putra baan,"33FQ+J6, Sipatnanam, Kec. Fakfak Bar., Kabupaten Fakfak, Papua Bar.","Kabupaten Fakfak, Papua Bar.",PAPUA BARAT,,Indonesia,,-2.9259381,132.0880387,https://maps.google.com/?cid=0x0:0xf1ea4bca413bf2b1
restaurant,Restoran,Bistro Bomba,"Jl. Tanjung Duren Raya No.18C, Tj. Duren Utara, Kec. Grogol petamburan, Kota Jakarta Barat, Daerah Khusus Ibukota Jakarta 11470","Tj. Duren Utara, Kec. Grogol petamburan, Kota Jakarta Barat",PAPUA BARAT,11470.0,Indonesia,82128915944.0,-6.1804252,106.7835772,https://maps.google.com/?cid=0x0:0xd70ddbca7a74e4ab
restaurant,Steak,Bombom Steak,"Jl. Tanjung Duren Barat III No.22, RT.14/RW.5, Tj. Duren Utara, Jakarta, Kota Jakarta Barat, Daerah Khusus Ibukota Jakarta 11470","RT.14/RW.5, Tj. Duren Utara, Jakarta, Kota Jakarta Barat",PAPUA BARAT,11470.0,Indonesia,87875699024.0,-6.1772146,106.7819038,https://maps.google.com/?cid=0x0:0x580843d0a58a3f3
restaurant,restaurant,,,,PAPUA BARAT,,Indonesia,,,,https://maps.google.com/?cid=0x0:0xd70ddbca7a74e4abu0026onu003dNasi+Teloru0026midu003d/g/11ltgfg61m
restaurant,restaurant,Bomberay,"Kabupaten Fakfak, Papua Bar.","Kabupaten Fakfak, Papua Bar.",PAPUA BARAT,,Indonesia,,-2.9067292,133.2521507,https://maps.google.com/?cid=0x0:0x8b6d998000da2107
restaurant,Thailand,"Busaba a Thai CafÃ©, Street Gallery PIM","Pd. Indah Mall Street Gallery, Jl. Metro Pondok Indah Blok III B, RT.1/RW.16, Pd. Pinang, Kec. Kby. Lama, Jakarta, Daerah Khusus Ibukota Jakarta 12310","Jl. Metro Pondok Indah Blok III B, RT.1/RW.16, Pd. Pinang, Kec. Kby. Lama, Jakarta",PAPUA BARAT,12310.0,Indonesia,82128905178.0,-6.2677154,106.7840097,https://maps.google.com/?cid=0x0:0x2cbe088624a97b5e
restaurant,Klub,ZODIAC Baresto,"Jl. Adityawarman No.71, Melawai, Kec. Kby. Baru, Jakarta, Daerah Khusus Ibukota Jakarta 12160","Melawai, Kec. Kby. Baru, Jakarta",PAPUA BARAT,12160.0,Indonesia,87817441635.0,-6.2426811,106.8038536,https://maps.google.com/?cid=0x0:0xcf15886a3395a263
restaurant,Thailand,Busaba A Thai Cafe,"Pacific Place Mall, Jl. Jenderal Sudirman No.52-53 Ground Floor, RT.5/RW.3, Senayan, Kec. Kby. Baru, Kota Jakarta Selatan, Daerah Khusus Ibukota Jakarta 12190","Jl. Jenderal Sudirman No.52-53 Ground Floor, RT.5/RW.3, Senayan, Kec. Kby. Baru, Kota Jakarta Selatan",PAPUA BARAT,12190.0,Indonesia,81936113485.0,-6.224618,106.8099103,https://maps.google.com/?cid=0x0:0x2012a2bd6be6f5b7
restaurant,restaurant,Papua Bar. 98611,"Kabupaten Fakfak, Papua Bar.","Kabupaten Fakfak, Papua Bar.",PAPUA BARAT,,Indonesia,,-2.9152703,132.4331624,https://maps.google.com/?cid=0x0:0xd346582f482a91e7
restaurant,Rumah Makan,Restaurant Famili,"3895+5FP, Jl. Fakfak - Torea, Fak Fak Selatan, Distrik Fakfak, Kabupaten Fakfak, Papua Bar. 98611","Jl. Fakfak - Torea, Fak Fak Selatan, Distrik Fakfak, Kabupaten Fakfak",PAPUA BARAT,98611.0,Indonesia,,-2.9320459,132.3086959,https://maps.google.com/?cid=0x0:0x235fbbeec61e32cb
restaurant,Rumah Makan,Restaurant Angelo's,"3895+3F9, Fak Fak Selatan, Distrik Fakfak, Kabupaten Fakfak, Papua Bar. 98611","Fak Fak Selatan, Distrik Fakfak, Kabupaten Fakfak",PAPUA BARAT,98611.0,Indonesia,85244441115.0,-2.9323371,132.3087309,https://maps.google.com/?cid=0x0:0xe91675d841e36ba5
restaurant,Restoran,Warung Mas Ribut,"38C4+MWP, Fak Fak Utara, Distrik Fakfak, Kabupaten Fakfak, Papua Bar. 98611","Fak Fak Utara, Distrik Fakfak, Kabupaten Fakfak",PAPUA BARAT,98611.0,Indonesia,,-2.9282777,132.3073391,https://maps.google.com/?cid=0x0:0xe5e80b7396fbda7b
restaurant,Nasi,Warung Makan Sari Nikmat,"379R+QWR, Wagom Sel., Distrik Fakfak, Kabupaten Fakfak, Papua Bar. 98611","Wagom Sel., Distrik Fakfak, Kabupaten Fakfak",PAPUA BARAT,98611.0,Indonesia,,-2.9305095,132.2922709,https://maps.google.com/?cid=0x0:0xfe477e597b08b176
restaurant,Nasi,Kencana,"379V+VCP, Jl. Yos Sudarso, Wagom Utara, Distrik Fakfak, Kabupaten Fakfak, Papua Bar. 98611","Jl. Yos Sudarso, Wagom Utara, Distrik Fakfak, Kabupaten Fakfak",PAPUA BARAT,98611.0,Indonesia,,-2.930367,132.2935338,https://maps.google.com/?cid=0x0:0x86ff0f318d42ba3c
restaurant,Rumah Makan,Warung Makan Dedi,"Unnamed Road, Papua Bar. 98611, Wagom Utara, Distrik Fakfak, Kabupaten Fakfak, Papua Bar. 98611",Papua Bar.,PAPUA BARAT,98611.0,Indonesia,81354160605.0,-2.9238565,132.2907796,https://maps.google.com/?cid=0x0:0xd9d09e320f8fc963
restaurant,Jawa,Coto Makasar,"37FJ+863, Unnamed Road, Kapaurtutin, Distrik Fakfak, Kabupaten Fakfak, Papua Bar. 98614","Unnamed Road, Kapaurtutin, Distrik Fakfak, Kabupaten Fakfak",PAPUA BARAT,98614.0,Indonesia,,-2.9267425,132.2805352,https://maps.google.com/?cid=0x0:0xc21d7cb4d72fc78f
restaurant,Kafe,Cleza Caffee  Eatery,"Fak Fak Utara, Distrik Fakfak, Kabupaten Fakfak, Papua Bar. 98651","Distrik Fakfak, Kabupaten Fakfak",PAPUA BARAT,98651.0,Indonesia,82248303362.0,-2.9229135,132.3028757,https://maps.google.com/?cid=0x0:0x31ffad25226722b6
restaurant,Masakan Asia,Pujasera,"Jl. Salasa Namudat, Fak Fak Selatan, Distrik Fakfak, Kabupaten Fakfak, Papua Bar. 18061","Fak Fak Selatan, Distrik Fakfak, Kabupaten Fakfak",PAPUA BARAT,18061.0,Indonesia,85387702103.0,-2.9331482,132.3079999,https://maps.google.com/?cid=0x0:0xce1511e8f0960adb
restaurant,Jawa,Warung Makan Joni,"379V+RXP, Jalan Yos Sudarso, Wagom Selatan, Wagom Utara, Fakfak, Fakfak Regency, West Papua 98651","Jalan Yos Sudarso, Wagom Selatan, Wagom Utara, Fakfak, Fakfak Regency",PAPUA BARAT,98651.0,Indonesia,,-2.9304224,132.2949474,https://maps.google.com/?cid=0x0:0x1819baa625bbf082
restaurant,Kafe,Cafe Dijiku,"Fak Fak Utara, Distrik Fakfak, Kabupaten Fakfak, Papua Bar. 98611","Distrik Fakfak, Kabupaten Fakfak",PAPUA BARAT,98611.0,Indonesia,82197959191.0,-2.9282773,132.3072462,https://maps.google.com/?cid=0x0:0xf17980116562a93a
restaurant,Rumah Makan,WARUNG DEWATA,"38C3+9V, Fak Fak Selatan, Distrik Fakfak, Kabupaten Fakfak, Papua Bar.","Kabupaten Fakfak, Papua Bar.",PAPUA BARAT,,Indonesia,81343099432.0,-2.9290545,132.3047202,https://maps.google.com/?cid=0x0:0x2db40646a63c11e6
restaurant,Kantor Perusahaan,Warung Depan Kodim,"38C5+J5C, Fak Fak Utara, Distrik Fakfak, Kabupaten Fakfak, Papua Bar. 98611","Fak Fak Utara, Distrik Fakfak, Kabupaten Fakfak",PAPUA BARAT,98611.0,Indonesia,,-2.9284467,132.3079053,https://maps.google.com/?cid=0x0:0x2a017d1855e5e4ee
restaurant,restaurant,Papua Bar. 98661,"Kabupaten Fakfak, Papua Bar.","Kabupaten Fakfak, Papua Bar.",PAPUA BARAT,,Indonesia,,-2.8087988,132.1177396,https://maps.google.com/?cid=0x0:0x6512126b96febab4
restaurant,Rumah Makan,Restaurant Famili,"3895+5FP, Jl. Fakfak - Torea, Fak Fak Selatan, Distrik Fakfak, Kabupaten Fakfak, Papua Bar. 98611","Jl. Fakfak - Torea, Fak Fak Selatan, Distrik Fakfak, Kabupaten Fakfak",PAPUA BARAT,98611.0,Indonesia,,-2.9320459,132.3086959,https://maps.google.com/?cid=0x0:0x235fbbeec61e32cb
restaurant,Restoran,Seafood Usaha Baru,"38C7+J3V, Fak Fak Selatan, Distrik Fakfak, Kabupaten Fakfak, Papua Bar. 98651","Fak Fak Selatan, Distrik Fakfak, Kabupaten Fakfak",PAPUA BARAT,98651.0,Indonesia,,-2.928379,132.3126672,https://maps.google.com/?cid=0x0:0xd5cca83ec7f713fc
restaurant,Kafe,Cleza Caffee  Eatery,"Fak Fak Utara, Distrik Fakfak, Kabupaten Fakfak, Papua Bar. 98651","Distrik Fakfak, Kabupaten Fakfak",PAPUA BARAT,98651.0,Indonesia,82248303362.0,-2.9229135,132.3028757,https://maps.google.com/?cid=0x0:0x31ffad25226722b6
restaurant,Jawa,Coto Makasar,"37FJ+863, Unnamed Road, Kapaurtutin, Distrik Fakfak, Kabupaten Fakfak, Papua Bar. 98614","Unnamed Road, Kapaurtutin, Distrik Fakfak, Kabupaten Fakfak",PAPUA BARAT,98614.0,Indonesia,,-2.9267425,132.2805352,https://maps.google.com/?cid=0x0:0xc21d7cb4d72fc78f
restaurant,Sarapan,RM Uthies Food Fakfak,"Jl. Yos Sudarso, Dulan Pok Pok, Distrik Fakfak, Kabupaten Fakfak, Papua Bar. 98013","Dulan Pok Pok, Distrik Fakfak, Kabupaten Fakfak",PAPUA BARAT,98013.0,Indonesia,81359010101.0,-2.9274525,132.2718142,https://maps.google.com/?cid=0x0:0xebe265b16e36dcc5
restaurant,Restoran,Warung Mas Ribut,"38C4+MWP, Fak Fak Utara, Distrik Fakfak, Kabupaten Fakfak, Papua Bar. 98611","Fak Fak Utara, Distrik Fakfak, Kabupaten Fakfak",PAPUA BARAT,98611.0,Indonesia,,-2.9282777,132.3073391,https://maps.google.com/?cid=0x0:0xe5e80b7396fbda7b
restaurant,Nasi,Kencana,"379V+VCP, Jl. Yos Sudarso, Wagom Utara, Distrik Fakfak, Kabupaten Fakfak, Papua Bar. 98611","Jl. Yos Sudarso, Wagom Utara, Distrik Fakfak, Kabupaten Fakfak",PAPUA BARAT,98611.0,Indonesia,,-2.930367,132.2935338,https://maps.google.com/?cid=0x0:0x86ff0f318d42ba3c
restaurant,Masakan Asia,Pujasera,"Jl. Salasa Namudat, Fak Fak Selatan, Distrik Fakfak, Kabupaten Fakfak, Papua Bar. 18061","Fak Fak Selatan, Distrik Fakfak, Kabupaten Fakfak",PAPUA BARAT,18061.0,Indonesia,85387702103.0,-2.9331482,132.3079999,https://maps.google.com/?cid=0x0:0xce1511e8f0960adb
restaurant,Nasi,Warung Makan Sari Nikmat,"379R+QWR, Wagom Sel., Distrik Fakfak, Kabupaten Fakfak, Papua Bar. 98611","Wagom Sel., Distrik Fakfak, Kabupaten Fakfak",PAPUA BARAT,98611.0,Indonesia,,-2.9305095,132.2922709,https://maps.google.com/?cid=0x0:0xfe477e597b08b176
restaurant,Rumah Makan,Warung Makan Dedi,"Unnamed Road, Papua Bar. 98611, Wagom Utara, Distrik Fakfak, Kabupaten Fakfak, Papua Bar. 98611",Papua Bar.,PAPUA BARAT,98611.0,Indonesia,81354160605.0,-2.9238565,132.2907796,https://maps.google.com/?cid=0x0:0xd9d09e320f8fc963
restaurant,Jawa,Warung Makan Joni,"379V+RXP, Jalan Yos Sudarso, Wagom Selatan, Wagom Utara, Fakfak, Fakfak Regency, West Papua 98651","Jalan Yos Sudarso, Wagom Selatan, Wagom Utara, Fakfak, Fakfak Regency",PAPUA BARAT,98651.0,Indonesia,,-2.9304224,132.2949474,https://maps.google.com/?cid=0x0:0x1819baa625bbf082
restaurant,Rumah Makan,Wrg Makan Titoti,"379W+82V, Jl. Yos Sudarso, Wagom Sel., Distrik Fakfak, Kabupaten Fakfak, Papua Bar. 98651","Jl. Yos Sudarso, Wagom Sel., Distrik Fakfak, Kabupaten Fakfak",PAPUA BARAT,98651.0,Indonesia,81344449955.0,-2.9316463,132.2950575,https://maps.google.com/?cid=0x0:0x97755af4c169be80
restaurant,Brunch,Warung Makan Tebing Berkah,"38C6+5V5, Jl. JP. Matondang, Gewerpe, Distrik Fakfak, Kabupaten Fakfak, Papua Bar.","Kabupaten Fakfak, Papua Bar.",PAPUA BARAT,,Indonesia,,-2.9301447,132.312148,https://maps.google.com/?cid=0x0:0x5e94e456d7d8ea24
restaurant,restaurant,Distrik Fakfak Tengah,"Kabupaten Fakfak, Papua Bar.","Kabupaten Fakfak, Papua Bar.",PAPUA BARAT,,Indonesia,,-2.9352442,132.3183355,https://maps.google.com/?cid=0x0:0x4e103c5ed15f609d
restaurant,Rumah Makan,Restaurant Famili,"3895+5FP, Jl. Fakfak - Torea, Fak Fak Selatan, Distrik Fakfak, Kabupaten Fakfak, Papua Bar. 98611","Jl. Fakfak - Torea, Fak Fak Selatan, Distrik Fakfak, Kabupaten Fakfak",PAPUA BARAT,98611.0,Indonesia,,-2.9320459,132.3086959,https://maps.google.com/?cid=0x0:0x235fbbeec61e32cb
restaurant,Rumah Makan,Restaurant Angelo's,"3895+3F9, Fak Fak Selatan, Distrik Fakfak, Kabupaten Fakfak, Papua Bar. 98611","Fak Fak Selatan, Distrik Fakfak, Kabupaten Fakfak",PAPUA BARAT,98611.0,Indonesia,85244441115.0,-2.9323371,132.3087309,https://maps.google.com/?cid=0x0:0xe91675d841e36ba5
restaurant,Nasi,Kencana,"379V+VCP, Jl. Yos Sudarso, Wagom Utara, Distrik Fakfak, Kabupaten Fakfak, Papua Bar. 98611","Jl. Yos Sudarso, Wagom Utara, Distrik Fakfak, Kabupaten Fakfak",PAPUA BARAT,98611.0,Indonesia,,-2.930367,132.2935338,https://maps.google.com/?cid=0x0:0x86ff0f318d42ba3c
restaurant,Restoran,Warung Mas Ribut,"38C4+MWP, Fak Fak Utara, Distrik Fakfak, Kabupaten Fakfak, Papua Bar. 98611","Fak Fak Utara, Distrik Fakfak, Kabupaten Fakfak",PAPUA BARAT,98611.0,Indonesia,,-2.9282777,132.3073391,https://maps.google.com/?cid=0x0:0xe5e80b7396fbda7b
restaurant,Masakan Asia,Pujasera,"Jl. Salasa Namudat, Fak Fak Selatan, Distrik Fakfak, Kabupaten Fakfak, Papua Bar. 18061","Fak Fak Selatan, Distrik Fakfak, Kabupaten Fakfak",PAPUA BARAT,18061.0,Indonesia,85387702103.0,-2.9331482,132.3079999,https://maps.google.com/?cid=0x0:0xce1511e8f0960adb
restaurant,Kafe,Cleza Caffee  Eatery,"Fak Fak Utara, Distrik Fakfak, Kabupaten Fakfak, Papua Bar. 98651","Distrik Fakfak, Kabupaten Fakfak",PAPUA BARAT,98651.0,Indonesia,82248303362.0,-2.9229135,132.3028757,https://maps.google.com/?cid=0x0:0x31ffad25226722b6
restaurant,Nasi,Warung Makan Sari Nikmat,"379R+QWR, Wagom Sel., Distrik Fakfak, Kabupaten Fakfak, Papua Bar. 98611","Wagom Sel., Distrik Fakfak, Kabupaten Fakfak",PAPUA BARAT,98611.0,Indonesia,,-2.9305095,132.2922709,https://maps.google.com/?cid=0x0:0xfe477e597b08b176
restaurant,Sup,RM. Selamat Datang,"38C2+282, Jl. Dr Jl. Salasa Namudat, Fak Fak Selatan, Fakfak, Fakfak Regency, West Papua 98651","Jl. Dr Jl. Salasa Namudat, Fak Fak Selatan, Fakfak, Fakfak Regency",PAPUA BARAT,98651.0,Indonesia,,-2.9299911,132.3007753,https://maps.google.com/?cid=0x0:0xaa3ab1f5fb538175
restaurant,Brunch,Warung Makan Tebing Berkah,"38C6+5V5, Jl. JP. Matondang, Gewerpe, Distrik Fakfak, Kabupaten Fakfak, Papua Bar.","Kabupaten Fakfak, Papua Bar.",PAPUA BARAT,,Indonesia,,-2.9301447,132.312148,https://maps.google.com/?cid=0x0:0x5e94e456d7d8ea24
restaurant,Rumah Makan,Warung Makan Dedi,"Unnamed Road, Papua Bar. 98611, Wagom Utara, Distrik Fakfak, Kabupaten Fakfak, Papua Bar. 98611",Papua Bar.,PAPUA BARAT,98611.0,Indonesia,81354160605.0,-2.9238565,132.2907796,https://maps.google.com/?cid=0x0:0xd9d09e320f8fc963
restaurant,Nasi,WARUNG LAMONGAN,"3895+53W, Fak Fak Selatan, Distrik Fakfak, Kabupaten Fakfak, Papua Bar. 98611","Fak Fak Selatan, Distrik Fakfak, Kabupaten Fakfak",PAPUA BARAT,98611.0,Indonesia,81247558042.0,-2.9320226,132.3076896,https://maps.google.com/?cid=0x0:0x3f4bbfc6d118b0fa
restaurant,Kantor Perusahaan,Warung Depan Kodim,"38C5+J5C, Fak Fak Utara, Distrik Fakfak, Kabupaten Fakfak, Papua Bar. 98611","Fak Fak Utara, Distrik Fakfak, Kabupaten Fakfak",PAPUA BARAT,98611.0,Indonesia,,-2.9284467,132.3079053,https://maps.google.com/?cid=0x0:0x2a017d1855e5e4ee
restaurant,Nasi Goreng,Nasi Goreng Mas Eko,"3885+P93, Fak Fak Selatan, Distrik Fakfak, Kabupaten Fakfak, Papua Bar. 98611","Fak Fak Selatan, Distrik Fakfak, Kabupaten Fakfak",PAPUA BARAT,98611.0,Indonesia,,-2.9331974,132.3081126,https://maps.google.com/?cid=0x0:0xa7fa221f9ffca8e8
restaurant,restaurant,Fakfak Tim.,"Kabupaten Fakfak, Papua Bar.","Kabupaten Fakfak, Papua Bar.",PAPUA BARAT,,Indonesia,,-3.0285426,132.5901672,https://maps.google.com/?cid=0x0:0x6a0537f2cba21df
restaurant,Rumah Makan,Restaurant Famili,"3895+5FP, Jl. Fakfak - Torea, Fak Fak Selatan, Distrik Fakfak, Kabupaten Fakfak, Papua Bar. 98611","Jl. Fakfak - Torea, Fak Fak Selatan, Distrik Fakfak, Kabupaten Fakfak",PAPUA BARAT,98611.0,Indonesia,,-2.9320459,132.3086959,https://maps.google.com/?cid=0x0:0x235fbbeec61e32cb
restaurant,Rumah Makan,Restaurant Angelo's,"3895+3F9, Fak Fak Selatan, Distrik Fakfak, Kabupaten Fakfak, Papua Bar. 98611","Fak Fak Selatan, Distrik Fakfak, Kabupaten Fakfak",PAPUA BARAT,98611.0,Indonesia,85244441115.0,-2.9323371,132.3087309,https://maps.google.com/?cid=0x0:0xe91675d841e36ba5
restaurant,Kafe,Cleza Caffee  Eatery,"Fak Fak Utara, Distrik Fakfak, Kabupaten Fakfak, Papua Bar. 98651","Distrik Fakfak, Kabupaten Fakfak",PAPUA BARAT,98651.0,Indonesia,82248303362.0,-2.9229135,132.3028757,https://maps.google.com/?cid=0x0:0x31ffad25226722b6
restaurant,Kafe,LOâQ ZONE CAFE  RESTO,"3894+WC8, Jl peteran, Fak Fak Selatan, Distrik Fakfak, Kabupaten Fakfak, Papua Bar.","Kabupaten Fakfak, Papua Bar.",PAPUA BARAT,,Indonesia,,-2.9302125,132.3060781,https://maps.google.com/?cid=0x0:0x7781443b7c906aa7
restaurant,Sup,RM. Selamat Datang,"38C2+282, Jl. Dr Jl. Salasa Namudat, Fak Fak Selatan, Fakfak, Fakfak Regency, West Papua 98651","Jl. Dr Jl. Salasa Namudat, Fak Fak Selatan, Fakfak, Fakfak Regency",PAPUA BARAT,98651.0,Indonesia,,-2.9299911,132.3007753,https://maps.google.com/?cid=0x0:0xaa3ab1f5fb538175
restaurant,Nasi,Kencana,"379V+VCP, Jl. Yos Sudarso, Wagom Utara, Distrik Fakfak, Kabupaten Fakfak, Papua Bar. 98611","Jl. Yos Sudarso, Wagom Utara, Distrik Fakfak, Kabupaten Fakfak",PAPUA BARAT,98611.0,Indonesia,,-2.930367,132.2935338,https://maps.google.com/?cid=0x0:0x86ff0f318d42ba3c
restaurant,Restoran,Warung Mas Ribut,"38C4+MWP, Fak Fak Utara, Distrik Fakfak, Kabupaten Fakfak, Papua Bar. 98611","Fak Fak Utara, Distrik Fakfak, Kabupaten Fakfak",PAPUA BARAT,98611.0,Indonesia,,-2.9282777,132.3073391,https://maps.google.com/?cid=0x0:0xe5e80b7396fbda7b
restaurant,Rumah Makan,Wrg Makan Titoti,"379W+82V, Jl. Yos Sudarso, Wagom Sel., Distrik Fakfak, Kabupaten Fakfak, Papua Bar. 98651","Jl. Yos Sudarso, Wagom Sel., Distrik Fakfak, Kabupaten Fakfak",PAPUA BARAT,98651.0,Indonesia,81344449955.0,-2.9316463,132.2950575,https://maps.google.com/?cid=0x0:0x97755af4c169be80
restaurant,Kafe,Khaya cafe,"Jl. Salasa Namudat, Fak Fak Selatan, Distrik Fakfak, Kabupaten Fakfak, Papua Bar. 98611","Fak Fak Selatan, Distrik Fakfak, Kabupaten Fakfak",PAPUA BARAT,98611.0,Indonesia,81248077878.0,-2.9334967,132.3076209,https://maps.google.com/?cid=0x0:0x853d99f3d072e901
restaurant,Masakan Asia,Pujasera,"Jl. Salasa Namudat, Fak Fak Selatan, Distrik Fakfak, Kabupaten Fakfak, Papua Bar. 18061","Fak Fak Selatan, Distrik Fakfak, Kabupaten Fakfak",PAPUA BARAT,18061.0,Indonesia,85387702103.0,-2.9331482,132.3079999,https://maps.google.com/?cid=0x0:0xce1511e8f0960adb
restaurant,Rumah Makan,WARUNG DEWATA,"38C3+9V, Fak Fak Selatan, Distrik Fakfak, Kabupaten Fakfak, Papua Bar.","Kabupaten Fakfak, Papua Bar.",PAPUA BARAT,,Indonesia,81343099432.0,-2.9290545,132.3047202,https://maps.google.com/?cid=0x0:0x2db40646a63c11e6
restaurant,Nasi,Sop Daging  Soto Ayam Es Doger,"Jl. Yos Sudarso, Wagom Utara, Distrik Fakfak, Kabupaten Fakfak, Papua Bar. 98651","Wagom Utara, Distrik Fakfak, Kabupaten Fakfak",PAPUA BARAT,98651.0,Indonesia,81386661015.0,-2.9322733,132.3002809,https://maps.google.com/?cid=0x0:0xdbe9694d1055efe7
restaurant,Brunch,Warung Makan Tebing Berkah,"38C6+5V5, Jl. JP. Matondang, Gewerpe, Distrik Fakfak, Kabupaten Fakfak, Papua Bar.","Kabupaten Fakfak, Papua Bar.",PAPUA BARAT,,Indonesia,,-2.9301447,132.312148,https://maps.google.com/?cid=0x0:0x5e94e456d7d8ea24
restaurant,restaurant,Papua Bar.,,Papua Bar.,PAPUA BARAT,,Indonesia,,-1.3361154,133.1747162,https://maps.google.com/?cid=0x0:0x5349c1f8c5c7cb62
restaurant,Ikan Bakar,Resto Jangkar,"Jl. Yos Sudarso, Nawaripi, Kec. Mimika Baru, Kabupaten Mimika, Papua 99971","Nawaripi, Kec. Mimika Baru, Kabupaten Mimika",PAPUA BARAT,99971.0,Indonesia,82238302339.0,-4.5681968,136.8865993,https://maps.google.com/?cid=0x0:0x73ed65e33721012a
restaurant,Restoran,Inggandi Beach Restaurant,"43GV+7Q3, Jl. Pasir Putih No.33, Pasir Putih, Kec. Manokwari Tim., Kabupaten Manokwari, Papua Bar. 98313","Jl. Pasir Putih No.33, Pasir Putih, Kec. Manokwari Tim., Kabupaten Manokwari",PAPUA BARAT,98313.0,Indonesia,81240372255.0,-0.8780927,134.0933631,https://maps.google.com/?cid=0x0:0xba66c7a3124731e6
restaurant,Pizza,Pizzeria Terrazza di Sorong,"Behind SKKMIGAS, dibelakang SKKMIGAS, Jl. Arfak, Kp. Baru, Kota Sorong, Papua Bar. 98414","dibelakang SKKMIGAS, Jl. Arfak, Kp. Baru, Kota Sorong",PAPUA BARAT,98414.0,Indonesia,81356867669.0,-0.8737438,131.25222,https://maps.google.com/?cid=0x0:0xf46c05068677dc1
restaurant,Hidangan Laut,Marina Star Restaurant Seafood,"Kompleks, Jl. Bubara Jl. Pelabuhan Perikanan, Distrik Sorong, Kota Sorong, Papua Bar. 98414","Jl. Bubara Jl. Pelabuhan Perikanan, Distrik Sorong, Kota Sorong",PAPUA BARAT,98414.0,Indonesia,81240250548.0,-0.8790069,131.2552456,https://maps.google.com/?cid=0x0:0x6d780e763a272c1a
restaurant,Rumah Makan,RestoCafe Rumah Laut,"Jl. Koti, Numbai, Distrik Jayapura Selatan, Kota Jayapura, Papua 99222","Numbai, Distrik Jayapura Selatan, Kota Jayapura",PAPUA BARAT,99222.0,Indonesia,9675160842.0,-2.5443152,140.7078561,https://maps.google.com/?cid=0x0:0xa0b850e17d17f09d
restaurant,Restoran,So Yummy Resto,"FV3Q+QR9, Kwamki, Kec. Mimika Baru, Kabupaten Mimika, Papua 99971","Kwamki, Kec. Mimika Baru, Kabupaten Mimika",PAPUA BARAT,99971.0,Indonesia,81240005760.0,-4.5455973,136.8896159,https://maps.google.com/?cid=0x0:0xad18f6a2fb6ee6f8
restaurant,Rumah Makan,Rumah Makan Mini (Miniresto.sorong),"Klademak, Distrik Sorong, Kota Sorong, Papua Bar. 98412","Distrik Sorong, Kota Sorong",PAPUA BARAT,98412.0,Indonesia,85354611115.0,-0.8820389,131.2740136,https://maps.google.com/?cid=0x0:0x1b2e4c712665ee5b
restaurant,Rumah Makan,Ayam kremes karas,"C9GM+WVQ, Jl. Karas - Prampelan, RT.05/RW.03, Karas, Kec. Karas, Kabupaten Magetan, Jawa Timur 63395","Jl. Karas - Prampelan, RT.05/RW.03, Karas, Kec. Karas, Kabupaten Magetan",PAPUA BARAT,63395.0,Indonesia,82131671244.0,-7.5726616,111.3847467,https://maps.google.com/?cid=0x0:0xf6388cf5ea45876d
restaurant,Restoran,KaraKara Chicken,"Jl. Niaga Hijau Raya No.43, Pd. Pinang, Kec. Kby. Lama, Kota Jakarta Selatan, Daerah Khusus Ibukota Jakarta 12310","Pd. Pinang, Kec. Kby. Lama, Kota Jakarta Selatan",PAPUA BARAT,12310.0,Indonesia,82111210056.0,-6.2848644,106.7773371,https://maps.google.com/?cid=0x0:0x1faacabefb473581
restaurant,Restoran,Amanah Resto,"Jl. Karas - Karangrejo, RT.05/RW.03, Karas, Kec. Karas, Kabupaten Magetan, Jawa Timur 63395","RT.05/RW.03, Karas, Kec. Karas, Kabupaten Magetan",PAPUA BARAT,63395.0,Indonesia,82334895858.0,-7.573287,111.385872,https://maps.google.com/?cid=0x0:0x4663c58d4cc22432
restaurant,Restoran,Sakinah Resto,"Jl. Karas - Karangrejo, RT.04/RW.01, Kuwon, Kec. Karas, Kabupaten Magetan, Jawa Timur 63395","RT.04/RW.01, Kuwon, Kec. Karas, Kabupaten Magetan",PAPUA BARAT,63395.0,Indonesia,85708672124.0,-7.5737367,111.3816607,https://maps.google.com/?cid=0x0:0xe7cfc650ba6d6d8c
restaurant,Prasmanan,Asia Restaurant,"Jl. Mega Kuningan Tim. No.I.E 1, RT.5/RW.2, Kuningan, Kuningan Tim., Kecamatan Setiabudi, Kota Jakarta Selatan, Daerah Khusus Ibukota Jakarta 12950","RT.5/RW.2, Kuningan, Kuningan Tim., Kecamatan Setiabudi, Kota Jakarta Selatan",PAPUA BARAT,12950.0,Indonesia,2125518882.0,-6.2284195,106.827364,https://maps.google.com/?cid=0x0:0x44d71ca2ac547082
restaurant,Indonesia,The Acre,"Jl. HOS. Cokroaminoto No.100, RT.2/RW.5, Menteng, Kec. Menteng, Kota Jakarta Pusat, Daerah Khusus Ibukota Jakarta 10310","RT.2/RW.5, Menteng, Kec. Menteng, Kota Jakarta Pusat",PAPUA BARAT,10310.0,Indonesia,81138138138.0,-6.1985912,106.8282199,https://maps.google.com/?cid=0x0:0x730dae6b8299c717
restaurant,restaurant,Papua Bar. 98662,"Kabupaten Fakfak, Papua Bar.","Kabupaten Fakfak, Papua Bar.",PAPUA BARAT,,Indonesia,,-3.097706,133.0194897,https://maps.google.com/?cid=0x0:0xb4392ea87e61dc2a
restaurant,Ikan Bakar,Resto Jangkar,"Jl. Yos Sudarso, Nawaripi, Kec. Mimika Baru, Kabupaten Mimika, Papua 99971","Nawaripi, Kec. Mimika Baru, Kabupaten Mimika",PAPUA BARAT,99971.0,Indonesia,82238302339.0,-4.5681968,136.8865993,https://maps.google.com/?cid=0x0:0x73ed65e33721012a
restaurant,Restoran,So Yummy Resto,"FV3Q+QR9, Kwamki, Kec. Mimika Baru, Kabupaten Mimika, Papua 99971","Kwamki, Kec. Mimika Baru, Kabupaten Mimika",PAPUA BARAT,99971.0,Indonesia,81240005760.0,-4.5455973,136.8896159,https://maps.google.com/?cid=0x0:0xad18f6a2fb6ee6f8
restaurant,Toko,Pak Aka,"GVG6+3W, Malakuli, Tubirwasak, Kabupaten Fakfak, Papua Bar.","Kabupaten Fakfak, Papua Bar.",PAPUA BARAT,,Indonesia,,-3.4748613,132.8623253,https://maps.google.com/?cid=0x0:0x9773b84ae1da51b5
restaurant,Italia,DOSALAS latin kitchen + tequila bar,"777 Waterfront Wy Suite 201, Vancouver, WA 98660, Amerika Serikat","Vancouver, WA",PAPUA BARAT,98660.0,Indonesia,13607685249.0,45.6238983,-122.6804619,https://maps.google.com/?cid=0x0:0x1a248640cc733e10
restaurant,Masakan Amerika Modern,Grassa,"780 Waterfront Wy, Vancouver, WA 98660, Amerika Serikat","Vancouver, WA",PAPUA BARAT,98660.0,Indonesia,13603604687.0,45.6241702,-122.6803676,https://maps.google.com/?cid=0x0:0x41162674784e218
restaurant,restaurant,,,,PAPUA BARAT,,Indonesia,,,,https://maps.google.com/?cid=0x0:0x1a248640cc733e10u0026onu003dDosalas+Paellau0026midu003d/g/11qpz593t_
restaurant,restaurant,,,,PAPUA BARAT,,Indonesia,,,,https://maps.google.com/?cid=0x0:0x1a248640cc733e10u0026onu003dPork+Belly+Skewersu0026midu003d/g/11qpz593t_
restaurant,restaurant,,,,PAPUA BARAT,,Indonesia,,,,https://maps.google.com/?cid=0x0:0x1a248640cc733e10u0026onu003dCoco+Chanelu0026midu003d/g/11qpz593t_
restaurant,restaurant,,,,PAPUA BARAT,,Indonesia,,,,https://maps.google.com/?cid=0x0:0x1a248640cc733e10u0026onu003dShort+Rib+Sopesu0026midu003d/g/11qpz593t_
restaurant,restaurant,,,,PAPUA BARAT,,Indonesia,,,,https://maps.google.com/?cid=0x0:0x1a248640cc733e10u0026onu003dBarrel+Aged+Manhattanu0026midu003d/g/11qpz593t_
restaurant,restaurant,,,,PAPUA BARAT,,Indonesia,,,,https://maps.google.com/?cid=0x0:0x1a248640cc733e10u0026onu003dTuna+Tostadasu0026midu003d/g/11qpz593t_
restaurant,restaurant,,,,PAPUA BARAT,,Indonesia,,,,https://maps.google.com/?cid=0x0:0x1a248640cc733e10u0026onu003dAncho-Spiced+Lamb+Chopsu0026midu003d/g/11qpz593t_
restaurant,restaurant,,,,PAPUA BARAT,,Indonesia,,,,https://maps.google.com/?cid=0x0:0x1a248640cc733e10u0026onu003dTomahawk+Steaku0026midu003d/g/11qpz593t_
restaurant,Jawa,Warung Makan Anak Kokas,"37FR+2VV Kompleks Pameran, Wagom Utara, Distrik Fakfak, Kabupaten Fakfak, Papua Bar. 98611","Wagom Utara, Distrik Fakfak, Kabupaten Fakfak",PAPUA BARAT,98611.0,Indonesia,81247745651.0,-2.9273973,132.2921771,https://maps.google.com/?cid=0x0:0xffbcc5882b8e21b0
restaurant,Rumah Makan,Warung Makan Lalapan,"379V+JHR, Wagom Sel., Distrik Fakfak, Kabupaten Fakfak, Papua Bar. 98611","Wagom Sel., Distrik Fakfak, Kabupaten Fakfak",PAPUA BARAT,98611.0,Indonesia,,-2.9308852,132.2938918,https://maps.google.com/?cid=0x0:0x793b5d8c5ae06d2a
restaurant,Pusat Perbelanjaan,Mall Kota Kasablanka,"Jl. Raya Casablanca No.Kav 88, Menteng Dalam, Kec. Tebet, Kota Jakarta Selatan, Daerah Khusus Ibukota Jakarta 12870","Menteng Dalam, Kec. Tebet, Kota Jakarta Selatan",PAPUA BARAT,12870.0,Indonesia,2129465000.0,-6.2240353,106.8425979,https://maps.google.com/?cid=0x0:0xaf54cb631563acce
restaurant,Indonesia,Baia Nonna,"Kota Kasablanka, Jl. Raya Casablanca, RT.2/RW.12, Menteng Dalam, Kec. Tebet, Kota Jakarta Selatan, Daerah Khusus Ibukota Jakarta 12960","Jl. Raya Casablanca, RT.2/RW.12, Menteng Dalam, Kec. Tebet, Kota Jakarta Selatan",PAPUA BARAT,12960.0,Indonesia,82228903344.0,-6.2237664,106.8423897,https://maps.google.com/?cid=0x0:0xc60c70fa38cc8167
restaurant,Malaysia,Wayang Bistro,"Kota Kasablanka Mall Lantai 3 Jl. Casablanca Raya Kav. 88, RT.2/RW.14, Menteng Dalam, Kec. Tebet, Kota Jakarta Selatan, Daerah Khusus Ibukota Jakarta 12960","RT.2/RW.14, Menteng Dalam, Kec. Tebet, Kota Jakarta Selatan",PAPUA BARAT,12960.0,Indonesia,811177260.0,-6.2235188,106.8420419,https://maps.google.com/?cid=0x0:0x37f20eb07b24ee54
restaurant,Sushi,ZENBU KOTA KASABLANKA,"Mall Kota Kasablanka Lantai UG, Jalan Casablanca No. 88, Menteng Dalam, Tebet, Jl. Raya Casablanca No.88 FSU01, RT.14/RW.5, Menteng Dalam, Kec. Tebet, Kota Jakarta Selatan, Daerah Khusus Ibukota Jakarta 12870","Jalan Casablanca No. 88, Menteng Dalam, Tebet, Jl. Raya Casablanca No.88 FSU01, RT.14/RW.5, Menteng Dalam, Kec. Tebet, Kota Jakarta Selatan",PAPUA BARAT,12870.0,Indonesia,2129464916.0,-6.2242313,106.8428049,https://maps.google.com/?cid=0x0:0x1a802b5cf625cce
restaurant,Jepang,Isshin,"Mall Kota Kasablanka Lantai UG #Food Society unit 22, Jl. Raya Casablanca No.88, RT.14/RW.5, Menteng Dalam, Kec. Tebet, Kota Jakarta Selatan, Daerah Khusus Ibukota Jakarta 12870","Jl. Raya Casablanca No.88, RT.14/RW.5, Menteng Dalam, Kec. Tebet, Kota Jakarta Selatan",PAPUA BARAT,12870.0,Indonesia,2129475221.0,-6.2227543,106.8420102,https://maps.google.com/?cid=0x0:0xca2a95d5e72c403
restaurant,Shabu Shabu,The Social Pot Kota Kasablanka,"Kota Kasablanka Mall, LG Floor, Jl. Raya Casablanca No.88, RT.2/RW.14, Menteng Dalam, Kec. Tebet, Kota Jakarta Selatan, Daerah Khusus Ibukota Jakarta 12870","LG Floor, Jl. Raya Casablanca No.88, RT.2/RW.14, Menteng Dalam, Kec. Tebet, Kota Jakarta Selatan",PAPUA BARAT,12870.0,Indonesia,2129612745.0,-6.2232365,106.8425171,https://maps.google.com/?cid=0x0:0xca54d3196a3afe33
restaurant,Ramen,RamenYa! Mal Kota Kasablanka,"Kota Kasablanka, Kota Kasablanka, Lt. UG/FSU, Jl. Raya Casablanca No.Raya Lt. LG-17, Menteng Dalam, Kec. Tebet, Kota Jakarta Selatan, Daerah Khusus Ibukota Jakarta 12870","Kota Kasablanka, Lt. UG/FSU, Jl. Raya Casablanca No.Raya Lt. LG-17, Menteng Dalam, Kec. Tebet, Kota Jakarta Selatan",PAPUA BARAT,12870.0,Indonesia,81218173672.0,-6.2229821,106.842408,https://maps.google.com/?cid=0x0:0xde4cae39ffe14954
restaurant,Restoran,Markette - Kota Kasablanka,"Food Society, Jl. Raya Casablanca No.88 Lobby, Ground Floor, Menteng Dalam, Kec. Tebet, Kota Jakarta Selatan, Daerah Khusus Ibukota Jakarta 12870","Jl. Raya Casablanca No.88 Lobby, Ground Floor, Menteng Dalam, Kec. Tebet, Kota Jakarta Selatan",PAPUA BARAT,12870.0,Indonesia,2129626161.0,-6.222827,106.8428202,https://maps.google.com/?cid=0x0:0x8c0daa8e7ed6b228
restaurant,Jepang,"Marugame Udon, Kota Kasablanka Mall","Kota Kasablanka Mall Lt. LG Unit 11-12, Jl. Raya Casablanca No.Kav. 88 14, RT.14/RW.5, Menteng Dalam, Tebet, South Jakarta City, Jakarta 12870","Jl. Raya Casablanca No.Kav. 88 14, RT.14/RW.5, Menteng Dalam, Tebet, South Jakarta City",PAPUA BARAT,12870.0,Indonesia,8113248766.0,-6.2240295,106.8433481,https://maps.google.com/?cid=0x0:0x85a2549f56daed6d
restaurant,Kafe,segafredo cafe  bar kokas,"Jl. Raya Casablanca No.Kav 88, Menteng Dalam, Kec. Tebet, Kota Jakarta Selatan, Daerah Khusus Ibukota Jakarta 12870","Menteng Dalam, Kec. Tebet, Kota Jakarta Selatan",PAPUA BARAT,12870.0,Indonesia,81215555481.0,-6.2239485,106.841926,https://maps.google.com/?cid=0x0:0x7bca002620980087
restaurant,Sushi,Genki Sushi,"Jalan Casablanca RT.16/RW.5 Menteng Dalam Kecamatan Tebet Kota Kasablanka at SOGO, UG Floor, RT.4/RW.12, Menteng Dalam, Kec. Tebet, Kota Jakarta Selatan, Daerah Khusus Ibukota Jakarta 12960","UG Floor, RT.4/RW.12, Menteng Dalam, Kec. Tebet, Kota Jakarta Selatan",PAPUA BARAT,12960.0,Indonesia,2129465183.0,-6.2233564,106.8432852,https://maps.google.com/?cid=0x0:0xa3abef781160761e
restaurant,Toko Kue,Bakerzin Kota Kasablanka,"16, Jl. Raya Casablanca No.88, RT.16/RW.5, Menteng Dalam, Kec. Tebet, Kota Jakarta Selatan, Daerah Khusus Ibukota Jakarta 12870","Jl. Raya Casablanca No.88, RT.16/RW.5, Menteng Dalam, Kec. Tebet, Kota Jakarta Selatan",PAPUA BARAT,12870.0,Indonesia,2129475128.0,-6.2231276,106.8421473,https://maps.google.com/?cid=0x0:0xbdcdd1a04115c815
restaurant,restaurant,Papua Bar. 98652,"Doom Tim., Distrik Sorong Kepulauan, Kota Sorong, Papua Bar.","Kota Sorong, Papua Bar.",PAPUA BARAT,,Indonesia,,-0.9375383,131.254499,https://maps.google.com/?cid=0x0:0x5905364cc30efd0e
restaurant,Hidangan Laut,Republik Seafood,"Sawagumu, Kec. Sorong Utara, Kota Sorong, Papua Bar. 98412","Kec. Sorong Utara, Kota Sorong",PAPUA BARAT,98412.0,Indonesia,81344615005.0,-0.8883945,131.3109228,https://maps.google.com/?cid=0x0:0xec5acb934a352d67
restaurant,Hidangan Laut,Marina Star Restaurant Seafood,"Kompleks, Jl. Bubara Jl. Pelabuhan Perikanan, Distrik Sorong, Kota Sorong, Papua Bar. 98414","Jl. Bubara Jl. Pelabuhan Perikanan, Distrik Sorong, Kota Sorong",PAPUA BARAT,98414.0,Indonesia,81240250548.0,-0.8790069,131.2552456,https://maps.google.com/?cid=0x0:0x6d780e763a272c1a
restaurant,Rumah Makan,Rumah Makan Mini (Miniresto.sorong),"Klademak, Distrik Sorong, Kota Sorong, Papua Bar. 98412","Distrik Sorong, Kota Sorong",PAPUA BARAT,98412.0,Indonesia,85354611115.0,-0.8820389,131.2740136,https://maps.google.com/?cid=0x0:0x1b2e4c712665ee5b
restaurant,restaurant,Distrik Kramongmongga,"Kabupaten Fakfak, Papua Bar.","Kabupaten Fakfak, Papua Bar.",PAPUA BARAT,,Indonesia,,-2.7329977,132.3367683,https://maps.google.com/?cid=0x0:0x7fc19de8aa000323
restaurant,restaurant,Papua Bar. 98661,"Kabupaten Fakfak, Papua Bar.","Kabupaten Fakfak, Papua Bar.",PAPUA BARAT,,Indonesia,,-2.8087988,132.1177396,https://maps.google.com/?cid=0x0:0x6512126b96febab4
restaurant,Jawa,Warung Makan Joni,"379V+RXP, Jalan Yos Sudarso, Wagom Selatan, Wagom Utara, Fakfak, Fakfak Regency, West Papua 98651","Jalan Yos Sudarso, Wagom Selatan, Wagom Utara, Fakfak, Fakfak Regency",PAPUA BARAT,98651.0,Indonesia,,-2.9304224,132.2949474,https://maps.google.com/?cid=0x0:0x1819baa625bbf082
restaurant,Restoran,Seafood Usaha Baru,"38C7+J3V, Fak Fak Selatan, Distrik Fakfak, Kabupaten Fakfak, Papua Bar. 98651","Fak Fak Selatan, Distrik Fakfak, Kabupaten Fakfak",PAPUA BARAT,98651.0,Indonesia,,-2.928379,132.3126672,https://maps.google.com/?cid=0x0:0xd5cca83ec7f713fc
restaurant,Rumah Makan,Warung Makan Dedi,"Unnamed Road, Papua Bar. 98611, Wagom Utara, Distrik Fakfak, Kabupaten Fakfak, Papua Bar. 98611",Papua Bar.,PAPUA BARAT,98611.0,Indonesia,81354160605.0,-2.9238565,132.2907796,https://maps.google.com/?cid=0x0:0xd9d09e320f8fc963
restaurant,Brunch,Warung Makan Tebing Berkah,"38C6+5V5, Jl. JP. Matondang, Gewerpe, Distrik Fakfak, Kabupaten Fakfak, Papua Bar.","Kabupaten Fakfak, Papua Bar.",PAPUA BARAT,,Indonesia,,-2.9301447,132.312148,https://maps.google.com/?cid=0x0:0x5e94e456d7d8ea24
restaurant,Rumah Makan,Wrg Makan Titoti,"379W+82V, Jl. Yos Sudarso, Wagom Sel., Distrik Fakfak, Kabupaten Fakfak, Papua Bar. 98651","Jl. Yos Sudarso, Wagom Sel., Distrik Fakfak, Kabupaten Fakfak",PAPUA BARAT,98651.0,Indonesia,81344449955.0,-2.9316463,132.2950575,https://maps.google.com/?cid=0x0:0x97755af4c169be80
restaurant,Nasi Goreng,Warung Makan Sariroso,"38C3+24J, Fak Fak Selatan, Kec. Kabupaten Bar., Fak Fak Selatan, Distrik Fakfak, Kabupaten Fakfak, Papua Bar. 98651","Fak Fak Selatan, Kec. Kabupaten Bar., Fak Fak Selatan, Distrik Fakfak, Kabupaten Fakfak",PAPUA BARAT,98651.0,Indonesia,,-2.929915,132.3027592,https://maps.google.com/?cid=0x0:0xec11c07fcfd78e89
restaurant,Restoran,Warung Lufi Ojolali,"38C3+XPC, Fak Fak Utara, Distrik Fakfak, Kabupaten Fakfak, Papua Bar. 98651","Fak Fak Utara, Distrik Fakfak, Kabupaten Fakfak",PAPUA BARAT,98651.0,Indonesia,,-2.927568,132.3042778,https://maps.google.com/?cid=0x0:0x1f88673b16d89830
restaurant,Masakan Asia,Pujasera,"Jl. Salasa Namudat, Fak Fak Selatan, Distrik Fakfak, Kabupaten Fakfak, Papua Bar. 18061","Fak Fak Selatan, Distrik Fakfak, Kabupaten Fakfak",PAPUA BARAT,18061.0,Indonesia,85387702103.0,-2.9331482,132.3079999,https://maps.google.com/?cid=0x0:0xce1511e8f0960adb
restaurant,Sarapan,RM Uthies Food Fakfak,"Jl. Yos Sudarso, Dulan Pok Pok, Distrik Fakfak, Kabupaten Fakfak, Papua Bar. 98013","Dulan Pok Pok, Distrik Fakfak, Kabupaten Fakfak",PAPUA BARAT,98013.0,Indonesia,81359010101.0,-2.9274525,132.2718142,https://maps.google.com/?cid=0x0:0xebe265b16e36dcc5
restaurant,Restoran,Warung Mas Ribut,"38C4+MWP, Fak Fak Utara, Distrik Fakfak, Kabupaten Fakfak, Papua Bar. 98611","Fak Fak Utara, Distrik Fakfak, Kabupaten Fakfak",PAPUA BARAT,98611.0,Indonesia,,-2.9282777,132.3073391,https://maps.google.com/?cid=0x0:0xe5e80b7396fbda7b
restaurant,Kafe,MAXi coffee  Pallubasa,"tj, Jl. Yos Sudarso, Wagom Utara, Distrik Fakfak, Kabupaten Fakfak, Papua Bar. 98024","Jl. Yos Sudarso, Wagom Utara, Distrik Fakfak, Kabupaten Fakfak",PAPUA BARAT,98024.0,Indonesia,82197744444.0,-2.9320504,132.299967,https://maps.google.com/?cid=0x0:0x54282a6baca55509
restaurant,Nasi,Warung Makan Sari Nikmat,"379R+QWR, Wagom Sel., Distrik Fakfak, Kabupaten Fakfak, Papua Bar. 98611","Wagom Sel., Distrik Fakfak, Kabupaten Fakfak",PAPUA BARAT,98611.0,Indonesia,,-2.9305095,132.2922709,https://maps.google.com/?cid=0x0:0xfe477e597b08b176
restaurant,Jawa,Coto Makasar,"37FJ+863, Unnamed Road, Kapaurtutin, Distrik Fakfak, Kabupaten Fakfak, Papua Bar. 98614","Unnamed Road, Kapaurtutin, Distrik Fakfak, Kabupaten Fakfak",PAPUA BARAT,98614.0,Indonesia,,-2.9267425,132.2805352,https://maps.google.com/?cid=0x0:0xc21d7cb4d72fc78f
