Category,Real Category,Business Name,Address,City,State,Postal Code,Country,Phone,Latitude,Longitude,Map Link
toko bangunan,toko bangunan,Papua Bar. 98662,"Kabupaten Fakfak, Papua Bar.","Kabupaten Fakfak, Papua Bar.",PAPUA BARAT,,Indonesia,,-3.097706,133.0194897,https://maps.google.com/?cid=0x0:0xb4392ea87e61dc2a
toko bangunan,Toko Bahan Bangunan,Toko Rahayu Babo,"FF52+F2R, Unnamed Road, Nusei, Babo, Kabupaten Teluk Bintuni, Papua Bar. 98363","Unnamed Road, Nusei, Babo, Kabupaten Teluk Bintuni",PAPUA BARAT,98363.0,Indonesia,85244200777.0,-2.5412733,133.45003,https://maps.google.com/?cid=0x0:0x2d6ca9cad594f391
toko bangunan,Toko Bahan Bangunan,Toko Sulawesi Tekhnik,"FC5X+94, Nusei, Babo, Kabupaten Teluk Bintuni, Papua Bar. 98363","Nusei, Babo, Kabupaten Teluk Bintuni",PAPUA BARAT,98363.0,Indonesia,85254235788.0,-2.5415228,133.4478073,https://maps.google.com/?cid=0x0:0xd55ca5f310ac8df0
toko bangunan,Pusat Perbelanjaan,Toko Surya Mas,"3894+4WW, Fak Fak Selatan, Distrik Fakfak, Kabupaten Fakfak, Papua Bar. 98611","Fak Fak Selatan, Distrik Fakfak, Kabupaten Fakfak",PAPUA BARAT,98611.0,Indonesia,818728072.0,-2.9321276,132.3073282,https://maps.google.com/?cid=0x0:0x5331cc492f124a58
toko bangunan,toko bangunan,Papua Bar. 98611,"Kabupaten Fakfak, Papua Bar.","Kabupaten Fakfak, Papua Bar.",PAPUA BARAT,,Indonesia,,-2.9152703,132.4331624,https://maps.google.com/?cid=0x0:0xd346582f482a91e7
toko bangunan,Toko Swalayan,Toko Depo Bangunan,"379V+Q4W, Fak Fak Selatan, Distrik Fakfak, Kabupaten Fakfak, Papua Bar. 98611","Fak Fak Selatan, Distrik Fakfak, Kabupaten Fakfak",PAPUA BARAT,98611.0,Indonesia,81332930235.0,-2.9305033,132.292834,https://maps.google.com/?cid=0x0:0x8845a3bfe8af225c
toko bangunan,Toko Bahan Bangunan,Toko Bangunan Depo Dewata,"38G2+FXC, Jl. Gajah Mada, Fak Fak Utara, Distrik Fakfak, Kabupaten Fakfak, Papua Bar. 98651","Jl. Gajah Mada, Fak Fak Utara, Distrik Fakfak, Kabupaten Fakfak",PAPUA BARAT,98651.0,Indonesia,81346731165.0,-2.9239262,132.3023407,https://maps.google.com/?cid=0x0:0x6877b3b6dab70059
toko bangunan,Toko Bahan Bangunan,TOKO BANGUNAN,"38G3+5PF, Fak Fak Utara, Distrik Fakfak, Kabupaten Fakfak, Papua Bar. 98651","Fak Fak Utara, Distrik Fakfak, Kabupaten Fakfak",PAPUA BARAT,98651.0,Indonesia,83121529512.0,-2.9245593,132.3042975,https://maps.google.com/?cid=0x0:0x3e3de1be5a573a7
toko bangunan,Pusat Perbelanjaan,Toko Langgeng Jaya,"Wagom Utara, Distrik Fakfak, Kabupaten Fakfak, Papua Bar. 98651","Distrik Fakfak, Kabupaten Fakfak",PAPUA BARAT,98651.0,Indonesia,82241598338.0,-2.9248988,132.2949657,https://maps.google.com/?cid=0x0:0x87a54f2d08f9fb99
toko bangunan,Toko Bahan Bangunan,TOKO PUTRA UTAMA TANAMA,"37CM+WGR, Jl. Yos Sudarso, Tanama, Distrik Fakfak, Kabupaten Fakfak, Papua Bar. 98614","Jl. Yos Sudarso, Tanama, Distrik Fakfak, Kabupaten Fakfak",PAPUA BARAT,98614.0,Indonesia,,-2.9276309,132.2837622,https://maps.google.com/?cid=0x0:0x3628cc4731e4acc7
toko bangunan,Toko Bahan Bangunan,Gudang Toko Depo Bangunan,"37FJ+7G5, Jl. Fakfak - Torea, Tanama, Distrik Fakfak, Kabupaten Fakfak, Papua Bar. 98614","Jl. Fakfak - Torea, Tanama, Distrik Fakfak, Kabupaten Fakfak",PAPUA BARAT,98614.0,Indonesia,,-2.9268666,132.2813702,https://maps.google.com/?cid=0x0:0x605ba6cbab94e804
toko bangunan,Toko Bahan Bangunan,Toko SIGMA BANGUNAN,"37FM+2G5, Jl. Yos Sudarso, Tanama, Distrik Fakfak, Kabupaten Fakfak, Papua Bar. 98614","Jl. Yos Sudarso, Tanama, Distrik Fakfak, Kabupaten Fakfak",PAPUA BARAT,98614.0,Indonesia,,-2.9274959,132.2838546,https://maps.google.com/?cid=0x0:0x896756e6fcb2635d
toko bangunan,Toko Bahan Bangunan,Toko Kayu,"Jalan Tebing Sebrang, Gewerpe, Kabupaten Fakfak, Papua Bar. 98012","Gewerpe, Kabupaten Fakfak",PAPUA BARAT,98012.0,Indonesia,85254291018.0,-2.9275353,132.3127042,https://maps.google.com/?cid=0x0:0x4b220017b6ea9c7e
toko bangunan,Toko Perlengkapan Rumah,Toko Kaliurang,"3894+9C9, jl izak di dekat Jl. Izaak Telussa, Fak Fak Selatan, Distrik Fakfak, Kabupaten Fakfak, Papua Bar. 98611","jl izak di dekat Jl. Izaak Telussa, Fak Fak Selatan, Distrik Fakfak, Kabupaten Fakfak",PAPUA BARAT,98611.0,Indonesia,81240391452.0,-2.9315795,132.3061148,https://maps.google.com/?cid=0x0:0xc67931c3499554fe
toko bangunan,Toko Bahan Bangunan,DEPO BANGUNAN SINAR MATAHARI,"379X+243, Jl. Fakfak - Torea, Wagom Sel., Distrik Fakfak, Kabupaten Fakfak, Papua Bar. 98651","Jl. Fakfak - Torea, Wagom Sel., Distrik Fakfak, Kabupaten Fakfak",PAPUA BARAT,98651.0,Indonesia,81232387999.0,-2.9324935,132.2978043,https://maps.google.com/?cid=0x0:0x35e53a9d40e95e48
toko bangunan,Pemasok Bahan Bangunan,Wiharco Prima. PT,"376X+725, Jl. Ki Hajar Dewantara, Distrik Fakfak, Kabupaten Fakfak, Papua Bar.","Kabupaten Fakfak, Papua Bar.",PAPUA BARAT,,Indonesia,95625128.0,-2.939355,132.297606,https://maps.google.com/?cid=0x0:0xd823d4d62d59165c
toko bangunan,Toko Bahan Bangunan,Gudang Toko Surya Mas,"37CQ+2X6, Wagom Sel., Distrik Fakfak, Kabupaten Fakfak, Papua Bar. 98611","Wagom Sel., Distrik Fakfak, Kabupaten Fakfak",PAPUA BARAT,98611.0,Indonesia,,-2.9299525,132.2899061,https://maps.google.com/?cid=0x0:0x37a642c4931ddf76
toko bangunan,toko bangunan,Papua Bar. 98661,"Kabupaten Fakfak, Papua Bar.","Kabupaten Fakfak, Papua Bar.",PAPUA BARAT,,Indonesia,,-2.8087988,132.1177396,https://maps.google.com/?cid=0x0:0x6512126b96febab4
toko bangunan,Toko Bahan Bangunan,Toko Bangunan Depo Dewata,"38G2+FXC, Jl. Gajah Mada, Fak Fak Utara, Distrik Fakfak, Kabupaten Fakfak, Papua Bar. 98651","Jl. Gajah Mada, Fak Fak Utara, Distrik Fakfak, Kabupaten Fakfak",PAPUA BARAT,98651.0,Indonesia,81346731165.0,-2.9239262,132.3023407,https://maps.google.com/?cid=0x0:0x6877b3b6dab70059
toko bangunan,Toko Swalayan,Toko Depo Bangunan,"379V+Q4W, Fak Fak Selatan, Distrik Fakfak, Kabupaten Fakfak, Papua Bar. 98611","Fak Fak Selatan, Distrik Fakfak, Kabupaten Fakfak",PAPUA BARAT,98611.0,Indonesia,81332930235.0,-2.9305033,132.292834,https://maps.google.com/?cid=0x0:0x8845a3bfe8af225c
toko bangunan,Pusat Perbelanjaan,Toko Langgeng Jaya,"Wagom Utara, Distrik Fakfak, Kabupaten Fakfak, Papua Bar. 98651","Distrik Fakfak, Kabupaten Fakfak",PAPUA BARAT,98651.0,Indonesia,82241598338.0,-2.9248988,132.2949657,https://maps.google.com/?cid=0x0:0x87a54f2d08f9fb99
toko bangunan,Toko Bahan Bangunan,Toko Idaman,"387C+43P, Dana Weria, Distrik Fakfak Tengah, Kabupaten Fakfak, Papua Bar. 98611","Dana Weria, Distrik Fakfak Tengah, Kabupaten Fakfak",PAPUA BARAT,98611.0,Indonesia,81233333193.0,-2.9371717,132.3201884,https://maps.google.com/?cid=0x0:0xb250f5bbd07b5204
toko bangunan,Toko Bahan Bangunan,TOKO BANGUNAN,"38G3+5PF, Fak Fak Utara, Distrik Fakfak, Kabupaten Fakfak, Papua Bar. 98651","Fak Fak Utara, Distrik Fakfak, Kabupaten Fakfak",PAPUA BARAT,98651.0,Indonesia,83121529512.0,-2.9245593,132.3042975,https://maps.google.com/?cid=0x0:0x3e3de1be5a573a7
toko bangunan,Toko Bahan Bangunan,Gudang Toko Depo Bangunan,"37FJ+7G5, Jl. Fakfak - Torea, Tanama, Distrik Fakfak, Kabupaten Fakfak, Papua Bar. 98614","Jl. Fakfak - Torea, Tanama, Distrik Fakfak, Kabupaten Fakfak",PAPUA BARAT,98614.0,Indonesia,,-2.9268666,132.2813702,https://maps.google.com/?cid=0x0:0x605ba6cbab94e804
toko bangunan,Toko Bahan Bangunan,TOKO PUTRA UTAMA TANAMA,"37CM+WGR, Jl. Yos Sudarso, Tanama, Distrik Fakfak, Kabupaten Fakfak, Papua Bar. 98614","Jl. Yos Sudarso, Tanama, Distrik Fakfak, Kabupaten Fakfak",PAPUA BARAT,98614.0,Indonesia,,-2.9276309,132.2837622,https://maps.google.com/?cid=0x0:0x3628cc4731e4acc7
toko bangunan,Toko Bahan Bangunan,Toko SIGMA BANGUNAN,"37FM+2G5, Jl. Yos Sudarso, Tanama, Distrik Fakfak, Kabupaten Fakfak, Papua Bar. 98614","Jl. Yos Sudarso, Tanama, Distrik Fakfak, Kabupaten Fakfak",PAPUA BARAT,98614.0,Indonesia,,-2.9274959,132.2838546,https://maps.google.com/?cid=0x0:0x896756e6fcb2635d
toko bangunan,Toko Bahan Bangunan,DEPO BANGUNAN SINAR MATAHARI,"379X+243, Jl. Fakfak - Torea, Wagom Sel., Distrik Fakfak, Kabupaten Fakfak, Papua Bar. 98651","Jl. Fakfak - Torea, Wagom Sel., Distrik Fakfak, Kabupaten Fakfak",PAPUA BARAT,98651.0,Indonesia,81232387999.0,-2.9324935,132.2978043,https://maps.google.com/?cid=0x0:0x35e53a9d40e95e48
toko bangunan,Toko Perlengkapan Rumah,Toko Kaliurang,"3894+9C9, jl izak di dekat Jl. Izaak Telussa, Fak Fak Selatan, Distrik Fakfak, Kabupaten Fakfak, Papua Bar. 98611","jl izak di dekat Jl. Izaak Telussa, Fak Fak Selatan, Distrik Fakfak, Kabupaten Fakfak",PAPUA BARAT,98611.0,Indonesia,81240391452.0,-2.9315795,132.3061148,https://maps.google.com/?cid=0x0:0xc67931c3499554fe
toko bangunan,Toko Bahan Bangunan,Toko Kayu,"Jalan Tebing Sebrang, Gewerpe, Kabupaten Fakfak, Papua Bar. 98012","Gewerpe, Kabupaten Fakfak",PAPUA BARAT,98012.0,Indonesia,85254291018.0,-2.9275353,132.3127042,https://maps.google.com/?cid=0x0:0x4b220017b6ea9c7e
toko bangunan,Toko Bahan Bangunan,Gudang Toko Surya Mas,"37CQ+2X6, Wagom Sel., Distrik Fakfak, Kabupaten Fakfak, Papua Bar. 98611","Wagom Sel., Distrik Fakfak, Kabupaten Fakfak",PAPUA BARAT,98611.0,Indonesia,,-2.9299525,132.2899061,https://maps.google.com/?cid=0x0:0x37a642c4931ddf76
toko bangunan,Pemasok Bahan Bangunan,Wiharco Prima. PT,"376X+725, Jl. Ki Hajar Dewantara, Distrik Fakfak, Kabupaten Fakfak, Papua Bar.","Kabupaten Fakfak, Papua Bar.",PAPUA BARAT,,Indonesia,95625128.0,-2.939355,132.297606,https://maps.google.com/?cid=0x0:0xd823d4d62d59165c
toko bangunan,toko bangunan,Distrik Fakfak Tengah,"Kabupaten Fakfak, Papua Bar.","Kabupaten Fakfak, Papua Bar.",PAPUA BARAT,,Indonesia,,-2.9352442,132.3183355,https://maps.google.com/?cid=0x0:0x4e103c5ed15f609d
toko bangunan,Toko Bahan Bangunan,Toko Idaman,"387C+43P, Dana Weria, Distrik Fakfak Tengah, Kabupaten Fakfak, Papua Bar. 98611","Dana Weria, Distrik Fakfak Tengah, Kabupaten Fakfak",PAPUA BARAT,98611.0,Indonesia,81233333193.0,-2.9371717,132.3201884,https://maps.google.com/?cid=0x0:0xb250f5bbd07b5204
toko bangunan,Pusat Perbelanjaan,Toko Surya Mas,"3894+4WW, Fak Fak Selatan, Distrik Fakfak, Kabupaten Fakfak, Papua Bar. 98611","Fak Fak Selatan, Distrik Fakfak, Kabupaten Fakfak",PAPUA BARAT,98611.0,Indonesia,818728072.0,-2.9321276,132.3073282,https://maps.google.com/?cid=0x0:0x5331cc492f124a58
toko bangunan,Toko Swalayan,Toko Depo Bangunan,"379V+Q4W, Fak Fak Selatan, Distrik Fakfak, Kabupaten Fakfak, Papua Bar. 98611","Fak Fak Selatan, Distrik Fakfak, Kabupaten Fakfak",PAPUA BARAT,98611.0,Indonesia,81332930235.0,-2.9305033,132.292834,https://maps.google.com/?cid=0x0:0x8845a3bfe8af225c
toko bangunan,Toko Bahan Bangunan,TOKO BANGUNAN,"38G3+5PF, Fak Fak Utara, Distrik Fakfak, Kabupaten Fakfak, Papua Bar. 98651","Fak Fak Utara, Distrik Fakfak, Kabupaten Fakfak",PAPUA BARAT,98651.0,Indonesia,83121529512.0,-2.9245593,132.3042975,https://maps.google.com/?cid=0x0:0x3e3de1be5a573a7
toko bangunan,Pusat Perbelanjaan,Toko Langgeng Jaya,"Wagom Utara, Distrik Fakfak, Kabupaten Fakfak, Papua Bar. 98651","Distrik Fakfak, Kabupaten Fakfak",PAPUA BARAT,98651.0,Indonesia,82241598338.0,-2.9248988,132.2949657,https://maps.google.com/?cid=0x0:0x87a54f2d08f9fb99
toko bangunan,Toko Bahan Bangunan,TOKO PUTRA UTAMA TANAMA,"37CM+WGR, Jl. Yos Sudarso, Tanama, Distrik Fakfak, Kabupaten Fakfak, Papua Bar. 98614","Jl. Yos Sudarso, Tanama, Distrik Fakfak, Kabupaten Fakfak",PAPUA BARAT,98614.0,Indonesia,,-2.9276309,132.2837622,https://maps.google.com/?cid=0x0:0x3628cc4731e4acc7
toko bangunan,Toko Bahan Bangunan,Toko Kayu,"Jalan Tebing Sebrang, Gewerpe, Kabupaten Fakfak, Papua Bar. 98012","Gewerpe, Kabupaten Fakfak",PAPUA BARAT,98012.0,Indonesia,85254291018.0,-2.9275353,132.3127042,https://maps.google.com/?cid=0x0:0x4b220017b6ea9c7e
toko bangunan,Toko Bahan Bangunan,Gudang Toko Depo Bangunan,"37FJ+7G5, Jl. Fakfak - Torea, Tanama, Distrik Fakfak, Kabupaten Fakfak, Papua Bar. 98614","Jl. Fakfak - Torea, Tanama, Distrik Fakfak, Kabupaten Fakfak",PAPUA BARAT,98614.0,Indonesia,,-2.9268666,132.2813702,https://maps.google.com/?cid=0x0:0x605ba6cbab94e804
toko bangunan,Toko Bahan Bangunan,Toko SIGMA BANGUNAN,"37FM+2G5, Jl. Yos Sudarso, Tanama, Distrik Fakfak, Kabupaten Fakfak, Papua Bar. 98614","Jl. Yos Sudarso, Tanama, Distrik Fakfak, Kabupaten Fakfak",PAPUA BARAT,98614.0,Indonesia,,-2.9274959,132.2838546,https://maps.google.com/?cid=0x0:0x896756e6fcb2635d
toko bangunan,Toko Perlengkapan Rumah,Toko Kaliurang,"3894+9C9, jl izak di dekat Jl. Izaak Telussa, Fak Fak Selatan, Distrik Fakfak, Kabupaten Fakfak, Papua Bar. 98611","jl izak di dekat Jl. Izaak Telussa, Fak Fak Selatan, Distrik Fakfak, Kabupaten Fakfak",PAPUA BARAT,98611.0,Indonesia,81240391452.0,-2.9315795,132.3061148,https://maps.google.com/?cid=0x0:0xc67931c3499554fe
toko bangunan,Toko Bahan Bangunan,DEPO BANGUNAN SINAR MATAHARI,"379X+243, Jl. Fakfak - Torea, Wagom Sel., Distrik Fakfak, Kabupaten Fakfak, Papua Bar. 98651","Jl. Fakfak - Torea, Wagom Sel., Distrik Fakfak, Kabupaten Fakfak",PAPUA BARAT,98651.0,Indonesia,81232387999.0,-2.9324935,132.2978043,https://maps.google.com/?cid=0x0:0x35e53a9d40e95e48
toko bangunan,Toko Bahan Bangunan,Gudang Toko Surya Mas,"37CQ+2X6, Wagom Sel., Distrik Fakfak, Kabupaten Fakfak, Papua Bar. 98611","Wagom Sel., Distrik Fakfak, Kabupaten Fakfak",PAPUA BARAT,98611.0,Indonesia,,-2.9299525,132.2899061,https://maps.google.com/?cid=0x0:0x37a642c4931ddf76
toko bangunan,Toko Swalayan,"DEWATA STORE CABANG 01 Â· Fak Fak Selatan, Fakfak, Fakfak Regency, West Papua 98611, Indonesia","Fak Fak Selatan, Distrik Fakfak, Kabupaten Fakfak, Papua Bar. 98611","Distrik Fakfak, Kabupaten Fakfak",PAPUA BARAT,98611.0,Indonesia,85233711344.0,-2.9315415,132.305605,https://maps.google.com/?cid=0x0:0xe93a0c40ffaa1941
toko bangunan,toko bangunan,Fakfak Tim.,"Kabupaten Fakfak, Papua Bar.","Kabupaten Fakfak, Papua Bar.",PAPUA BARAT,,Indonesia,,-3.0285426,132.5901672,https://maps.google.com/?cid=0x0:0x6a0537f2cba21df
toko bangunan,Toko Bahan Bangunan,Toko Bangunan Depo Dewata,"38G2+FXC, Jl. Gajah Mada, Fak Fak Utara, Distrik Fakfak, Kabupaten Fakfak, Papua Bar. 98651","Jl. Gajah Mada, Fak Fak Utara, Distrik Fakfak, Kabupaten Fakfak",PAPUA BARAT,98651.0,Indonesia,81346731165.0,-2.9239262,132.3023407,https://maps.google.com/?cid=0x0:0x6877b3b6dab70059
toko bangunan,Pusat Perbelanjaan,Toko Surya Mas,"3894+4WW, Fak Fak Selatan, Distrik Fakfak, Kabupaten Fakfak, Papua Bar. 98611","Fak Fak Selatan, Distrik Fakfak, Kabupaten Fakfak",PAPUA BARAT,98611.0,Indonesia,818728072.0,-2.9321276,132.3073282,https://maps.google.com/?cid=0x0:0x5331cc492f124a58
toko bangunan,Toko Bahan Bangunan,Toko Idaman,"387C+43P, Dana Weria, Distrik Fakfak Tengah, Kabupaten Fakfak, Papua Bar. 98611","Dana Weria, Distrik Fakfak Tengah, Kabupaten Fakfak",PAPUA BARAT,98611.0,Indonesia,81233333193.0,-2.9371717,132.3201884,https://maps.google.com/?cid=0x0:0xb250f5bbd07b5204
toko bangunan,Pusat Perbelanjaan,Toko Langgeng Jaya,"Wagom Utara, Distrik Fakfak, Kabupaten Fakfak, Papua Bar. 98651","Distrik Fakfak, Kabupaten Fakfak",PAPUA BARAT,98651.0,Indonesia,82241598338.0,-2.9248988,132.2949657,https://maps.google.com/?cid=0x0:0x87a54f2d08f9fb99
toko bangunan,Toko Bahan Bangunan,TOKO BANGUNAN,"38G3+5PF, Fak Fak Utara, Distrik Fakfak, Kabupaten Fakfak, Papua Bar. 98651","Fak Fak Utara, Distrik Fakfak, Kabupaten Fakfak",PAPUA BARAT,98651.0,Indonesia,83121529512.0,-2.9245593,132.3042975,https://maps.google.com/?cid=0x0:0x3e3de1be5a573a7
toko bangunan,Toko Bahan Bangunan,TOKO PUTRA UTAMA TANAMA,"37CM+WGR, Jl. Yos Sudarso, Tanama, Distrik Fakfak, Kabupaten Fakfak, Papua Bar. 98614","Jl. Yos Sudarso, Tanama, Distrik Fakfak, Kabupaten Fakfak",PAPUA BARAT,98614.0,Indonesia,,-2.9276309,132.2837622,https://maps.google.com/?cid=0x0:0x3628cc4731e4acc7
toko bangunan,Toko Bahan Bangunan,Gudang Toko Depo Bangunan,"37FJ+7G5, Jl. Fakfak - Torea, Tanama, Distrik Fakfak, Kabupaten Fakfak, Papua Bar. 98614","Jl. Fakfak - Torea, Tanama, Distrik Fakfak, Kabupaten Fakfak",PAPUA BARAT,98614.0,Indonesia,,-2.9268666,132.2813702,https://maps.google.com/?cid=0x0:0x605ba6cbab94e804
toko bangunan,Toko Bahan Bangunan,Toko SIGMA BANGUNAN,"37FM+2G5, Jl. Yos Sudarso, Tanama, Distrik Fakfak, Kabupaten Fakfak, Papua Bar. 98614","Jl. Yos Sudarso, Tanama, Distrik Fakfak, Kabupaten Fakfak",PAPUA BARAT,98614.0,Indonesia,,-2.9274959,132.2838546,https://maps.google.com/?cid=0x0:0x896756e6fcb2635d
toko bangunan,Toko Bahan Bangunan,Toko Kayu,"Jalan Tebing Sebrang, Gewerpe, Kabupaten Fakfak, Papua Bar. 98012","Gewerpe, Kabupaten Fakfak",PAPUA BARAT,98012.0,Indonesia,85254291018.0,-2.9275353,132.3127042,https://maps.google.com/?cid=0x0:0x4b220017b6ea9c7e
toko bangunan,Toko Perlengkapan Rumah,Toko Kaliurang,"3894+9C9, jl izak di dekat Jl. Izaak Telussa, Fak Fak Selatan, Distrik Fakfak, Kabupaten Fakfak, Papua Bar. 98611","jl izak di dekat Jl. Izaak Telussa, Fak Fak Selatan, Distrik Fakfak, Kabupaten Fakfak",PAPUA BARAT,98611.0,Indonesia,81240391452.0,-2.9315795,132.3061148,https://maps.google.com/?cid=0x0:0xc67931c3499554fe
toko bangunan,Toko Bahan Bangunan,DEPO BANGUNAN SINAR MATAHARI,"379X+243, Jl. Fakfak - Torea, Wagom Sel., Distrik Fakfak, Kabupaten Fakfak, Papua Bar. 98651","Jl. Fakfak - Torea, Wagom Sel., Distrik Fakfak, Kabupaten Fakfak",PAPUA BARAT,98651.0,Indonesia,81232387999.0,-2.9324935,132.2978043,https://maps.google.com/?cid=0x0:0x35e53a9d40e95e48
toko bangunan,Toko Bahan Bangunan,Gudang Toko Surya Mas,"37CQ+2X6, Wagom Sel., Distrik Fakfak, Kabupaten Fakfak, Papua Bar. 98611","Wagom Sel., Distrik Fakfak, Kabupaten Fakfak",PAPUA BARAT,98611.0,Indonesia,,-2.9299525,132.2899061,https://maps.google.com/?cid=0x0:0x37a642c4931ddf76
toko bangunan,Pemasok Bahan Bangunan,Wiharco Prima. PT,"376X+725, Jl. Ki Hajar Dewantara, Distrik Fakfak, Kabupaten Fakfak, Papua Bar.","Kabupaten Fakfak, Papua Bar.",PAPUA BARAT,,Indonesia,95625128.0,-2.939355,132.297606,https://maps.google.com/?cid=0x0:0xd823d4d62d59165c
toko bangunan,toko bangunan,Papua Bar.,,Papua Bar.,PAPUA BARAT,,Indonesia,,-1.3361154,133.1747162,https://maps.google.com/?cid=0x0:0x5349c1f8c5c7cb62
toko bangunan,Toko Swalayan,Toko Depo Bangunan,"379V+Q4W, Fak Fak Selatan, Distrik Fakfak, Kabupaten Fakfak, Papua Bar. 98611","Fak Fak Selatan, Distrik Fakfak, Kabupaten Fakfak",PAPUA BARAT,98611.0,Indonesia,81332930235.0,-2.9305033,132.292834,https://maps.google.com/?cid=0x0:0x8845a3bfe8af225c
toko bangunan,Toko Bahan Bangunan,ANEKA BANGUNAN,"Wosi, Kec. Manokwari Bar., Kabupaten Manokwari, Papua Bar. 98312","Kec. Manokwari Bar., Kabupaten Manokwari",PAPUA BARAT,98312.0,Indonesia,81344843001.0,-0.8631883,134.0498559,https://maps.google.com/?cid=0x0:0x3598159af16f30ea
toko bangunan,Pemasok Bahan Bangunan,Toko bangunan Sumber Makmur,"32CM+75G, Jl. Manokwari - Maruni, Anday, Distrik Manokwari, Kabupaten Manokwari, Papua Bar. 98315","Jl. Manokwari - Maruni, Anday, Distrik Manokwari, Kabupaten Manokwari",PAPUA BARAT,98315.0,Indonesia,8114846060.0,-0.9293075,134.0329487,https://maps.google.com/?cid=0x0:0xa0a85c7270dde255
toko bangunan,Toko Bahan Bangunan,"Papua Bangunan, CV PAPUA ABADI","Jl. Basuki Rahmat No.780, Klawuyuk, Distrik Sorong Timur, Kota Sorong, Papua Bar. 98416","Klawuyuk, Distrik Sorong Timur, Kota Sorong",PAPUA BARAT,98416.0,Indonesia,81332017550.0,-0.8954087,131.3186922,https://maps.google.com/?cid=0x0:0x851804bc3aa7f033
toko bangunan,Toko Bahan Bangunan,PAPUA BANGUNAN,"42GX+945, Wosi, Kec. Manokwari Bar., Kabupaten Manokwari, Papua Bar. 98312","Wosi, Kec. Manokwari Bar., Kabupaten Manokwari",PAPUA BARAT,98312.0,Indonesia,82198055550.0,-0.874101,134.0478473,https://maps.google.com/?cid=0x0:0x2c3683b193d9430f
toko bangunan,Pusat Perbelanjaan,Toko Surya Mas,"3894+4WW, Fak Fak Selatan, Distrik Fakfak, Kabupaten Fakfak, Papua Bar. 98611","Fak Fak Selatan, Distrik Fakfak, Kabupaten Fakfak",PAPUA BARAT,98611.0,Indonesia,818728072.0,-2.9321276,132.3073282,https://maps.google.com/?cid=0x0:0x5331cc492f124a58
toko bangunan,Toko Bahan Bangunan,Gudang Toko Depo Bangunan,"37FJ+7G5, Jl. Fakfak - Torea, Tanama, Distrik Fakfak, Kabupaten Fakfak, Papua Bar. 98614","Jl. Fakfak - Torea, Tanama, Distrik Fakfak, Kabupaten Fakfak",PAPUA BARAT,98614.0,Indonesia,,-2.9268666,132.2813702,https://maps.google.com/?cid=0x0:0x605ba6cbab94e804
toko bangunan,Toko Bahan Bangunan,Toko Bangunan Abadi,"4862+H2G, Malaingkedi, Kec. Sorong Utara, Kota Sorong, Papua Bar. 98412","Malaingkedi, Kec. Sorong Utara, Kota Sorong",PAPUA BARAT,98412.0,Indonesia,81248762864.0,-0.8885625,131.3000781,https://maps.google.com/?cid=0x0:0xa4c5e3d6e0f0bf2b
toko bangunan,Toko Bahan Bangunan,Toko Bangunan AURORA ABADI Distributor Lampu LED VDR,"Jl. Tuturuga, Klamalu, Distrik Mariat, Kabupaten Sorong, Papua Bar. 98416","Klamalu, Distrik Mariat, Kabupaten Sorong",PAPUA BARAT,98416.0,Indonesia,82239496309.0,-1.0002603,131.3432543,https://maps.google.com/?cid=0x0:0x8d8d01a10734bfdc
toko bangunan,Toko Bahan Bangunan,DEPO BANGUNAN SINAR MATAHARI,"379X+243, Jl. Fakfak - Torea, Wagom Sel., Distrik Fakfak, Kabupaten Fakfak, Papua Bar. 98651","Jl. Fakfak - Torea, Wagom Sel., Distrik Fakfak, Kabupaten Fakfak",PAPUA BARAT,98651.0,Indonesia,81232387999.0,-2.9324935,132.2978043,https://maps.google.com/?cid=0x0:0x35e53a9d40e95e48
toko bangunan,Pusat Perbelanjaan,Toko sumber rizqi,"C9RW+W42, Jl. Karas - Prampelan, Perobahan, Sobontoro, Kec. Karas, Kabupaten Magetan, Jawa Timur 63395","Jl. Karas - Prampelan, Perobahan, Sobontoro, Kec. Karas, Kabupaten Magetan",PAPUA BARAT,63395.0,Indonesia,85234059264.0,-7.5577378,111.3952694,https://maps.google.com/?cid=0x0:0xb9cdd6397771eac2
toko bangunan,Toko Bahan Bangunan,Super Ceramic Pusat Bahan Bangunan (Jatirahayu),"Jl. Raya Hankam No.27, RT.004/RW.008, Jatirahayu, Kec. Pd. Melati, Kota Bks, Jawa Barat 17414","RT.004/RW.008, Jatirahayu, Kec. Pd. Melati, Kota Bks",PAPUA BARAT,17414.0,Indonesia,2184985075.0,-6.2982629,106.9229271,https://maps.google.com/?cid=0x0:0xc54057c71bf29cdb
toko bangunan,Toko Bahan Bangunan,Super Ceramic Pusat Bahan Bangunan (Pekayon),"Jl. Raya Pekayon No.1, Pekayon Jaya, Kec. Bekasi Sel., Kota Bks, Jawa Barat 17148","Pekayon Jaya, Kec. Bekasi Sel., Kota Bks",PAPUA BARAT,17148.0,Indonesia,2182409922.0,-6.2698276,106.9814523,https://maps.google.com/?cid=0x0:0x11f433bba5e46398
toko bangunan,toko bangunan,Papua Bar. 98662,"Kabupaten Fakfak, Papua Bar.","Kabupaten Fakfak, Papua Bar.",PAPUA BARAT,,Indonesia,,-3.097706,133.0194897,https://maps.google.com/?cid=0x0:0xb4392ea87e61dc2a
toko bangunan,Toko Swalayan,Toko Depo Bangunan,"379V+Q4W, Fak Fak Selatan, Distrik Fakfak, Kabupaten Fakfak, Papua Bar. 98611","Fak Fak Selatan, Distrik Fakfak, Kabupaten Fakfak",PAPUA BARAT,98611.0,Indonesia,81332930235.0,-2.9305033,132.292834,https://maps.google.com/?cid=0x0:0x8845a3bfe8af225c
toko bangunan,Toko Bahan Bangunan,Gudang Toko Depo Bangunan,"37FJ+7G5, Jl. Fakfak - Torea, Tanama, Distrik Fakfak, Kabupaten Fakfak, Papua Bar. 98614","Jl. Fakfak - Torea, Tanama, Distrik Fakfak, Kabupaten Fakfak",PAPUA BARAT,98614.0,Indonesia,,-2.9268666,132.2813702,https://maps.google.com/?cid=0x0:0x605ba6cbab94e804
toko bangunan,toko bangunan,Papua Bar.,,Papua Bar.,PAPUA BARAT,,Indonesia,,-1.3361154,133.1747162,https://maps.google.com/?cid=0x0:0x5349c1f8c5c7cb62
toko bangunan,Toko Bahan Bangunan,ANEKA BANGUNAN,"Wosi, Kec. Manokwari Bar., Kabupaten Manokwari, Papua Bar. 98312","Kec. Manokwari Bar., Kabupaten Manokwari",PAPUA BARAT,98312.0,Indonesia,81344843001.0,-0.8631883,134.0498559,https://maps.google.com/?cid=0x0:0x3598159af16f30ea
toko bangunan,Toko Bahan Bangunan,"Papua Bangunan, CV PAPUA ABADI","Jl. Basuki Rahmat No.780, Klawuyuk, Distrik Sorong Timur, Kota Sorong, Papua Bar. 98416","Klawuyuk, Distrik Sorong Timur, Kota Sorong",PAPUA BARAT,98416.0,Indonesia,81332017550.0,-0.8954087,131.3186922,https://maps.google.com/?cid=0x0:0x851804bc3aa7f033
toko bangunan,Pemasok Bahan Bangunan,Toko bangunan Sumber Makmur,"32CM+75G, Jl. Manokwari - Maruni, Anday, Distrik Manokwari, Kabupaten Manokwari, Papua Bar. 98315","Jl. Manokwari - Maruni, Anday, Distrik Manokwari, Kabupaten Manokwari",PAPUA BARAT,98315.0,Indonesia,8114846060.0,-0.9293075,134.0329487,https://maps.google.com/?cid=0x0:0xa0a85c7270dde255
toko bangunan,Toko Bahan Bangunan,PAPUA BANGUNAN,"42GX+945, Wosi, Kec. Manokwari Bar., Kabupaten Manokwari, Papua Bar. 98312","Wosi, Kec. Manokwari Bar., Kabupaten Manokwari",PAPUA BARAT,98312.0,Indonesia,82198055550.0,-0.874101,134.0478473,https://maps.google.com/?cid=0x0:0x2c3683b193d9430f
toko bangunan,toko bangunan,Papua Bar. 98652,"Doom Tim., Distrik Sorong Kepulauan, Kota Sorong, Papua Bar.","Kota Sorong, Papua Bar.",PAPUA BARAT,,Indonesia,,-0.9375383,131.254499,https://maps.google.com/?cid=0x0:0x5905364cc30efd0e
toko bangunan,Toko,Toko Jaya,"7CXR+PJG, Sekar, Kokas, Kabupaten Fakfak, Papua Bar.","Kabupaten Fakfak, Papua Bar.",PAPUA BARAT,,Indonesia,,-2.7006963,132.4415733,https://maps.google.com/?cid=0x0:0x5bbf9a44c557ae04
toko bangunan,Toko Swalayan,Toko Depo Bangunan,"379V+Q4W, Fak Fak Selatan, Distrik Fakfak, Kabupaten Fakfak, Papua Bar. 98611","Fak Fak Selatan, Distrik Fakfak, Kabupaten Fakfak",PAPUA BARAT,98611.0,Indonesia,81332930235.0,-2.9305033,132.292834,https://maps.google.com/?cid=0x0:0x8845a3bfe8af225c
toko bangunan,Toko,Utama Jaya,"Jl. Ring Road Taman Yasmin, RT.02/RW.03, Curugmekar, Kec. Bogor Bar., Kota Bogor, Jawa Barat 16113","RT.02/RW.03, Curugmekar, Kec. Bogor Bar., Kota Bogor",PAPUA BARAT,16113.0,Indonesia,81399935521.0,-6.5572931,106.7708993,https://maps.google.com/?cid=0x0:0x4bea745b44f3552a
toko bangunan,Toko Bahan Bangunan,Toko Bangunan Agung Jaya,"JL KH. Sholeh Iskandar (Jalan Baru), No. 168 Depan Rumah Makan Ampera,, Sesudah Bukit Cimanggu City, Kedung Jaya, Kedung Waringin, RT.05/RW.09, Kedung Jaya, Kec. Tanah Sereal, Kota Bogor, Jawa Barat 16163","No. 168 Depan Rumah Makan Ampera,, Sesudah Bukit Cimanggu City, Kedung Jaya, Kedung Waringin, RT.05/RW.09, Kedung Jaya, Kec. Tanah Sereal, Kota Bogor",PAPUA BARAT,16163.0,Indonesia,8179170666.0,-6.5583245,106.7841321,https://maps.google.com/?cid=0x0:0xf9b3de623d8a987d
toko bangunan,Toko Perlengkapan Rumah,AZKO Kota Kasablanka,"Kota Kasablanka, Jl. Raya Casablanca No.88, RT.16/RW.5, Menteng Dalam, Kec. Tebet, Kota Jakarta Selatan, Daerah Khusus Ibukota Jakarta 12870","Jl. Raya Casablanca No.88, RT.16/RW.5, Menteng Dalam, Kec. Tebet, Kota Jakarta Selatan",PAPUA BARAT,12870.0,Indonesia,85781411671.0,-6.2222965,106.8423884,https://maps.google.com/?cid=0x0:0x93342bf0e4ddbcb0
toko bangunan,Pusat Perbelanjaan,Miniso Kota Kasablanka,"QRGR+RXC, Kota Kasablanka LG, Jl. Raya Casablanca, RT.2/RW.14, Menteng Dalam, Tebet, South Jakarta City, Jakarta 12960","Kota Kasablanka LG, Jl. Raya Casablanca, RT.2/RW.14, Menteng Dalam, Tebet, South Jakarta City",PAPUA BARAT,12960.0,Indonesia,,-6.2229401,106.8423964,https://maps.google.com/?cid=0x0:0x30bbf82860a6ae1b
toko bangunan,Toko Pakaian,Buttonscarves,"Kota Kasablanka IU-LG.09.10, Jl. Raya Casablanca No.Raya, RT.16/RW.5, Menteng Dalam, Tebet, South Jakarta City, Jakarta 12870","Jl. Raya Casablanca No.Raya, RT.16/RW.5, Menteng Dalam, Tebet, South Jakarta City",PAPUA BARAT,12870.0,Indonesia,,-6.222626,106.842517,https://maps.google.com/?cid=0x0:0x5c9380a8d596ba3d
toko bangunan,Toko Mainan,Top Toy Kota Kasablanka,"Mall Jl. Raya Casablanca No.43, Menteng Dalam, Kec. Tebet, Kota Jakarta Selatan, Daerah Khusus Ibukota Jakarta 12870","Menteng Dalam, Kec. Tebet, Kota Jakarta Selatan",PAPUA BARAT,12870.0,Indonesia,,-6.2233157,106.8426633,https://maps.google.com/?cid=0x0:0x39e25a8c5289d360
toko bangunan,Minimarket,Transmart Kota Kasablanka,"16, Jl. Raya Casablanca No.88 9-10, RT.2/RW.5, Menteng Dalam, Kec. Tebet, Kota Jakarta Selatan, Daerah Khusus Ibukota Jakarta 12870","Jl. Raya Casablanca No.88 9-10, RT.2/RW.5, Menteng Dalam, Kec. Tebet, Kota Jakarta Selatan",PAPUA BARAT,12870.0,Indonesia,82208255175.0,-6.2226058,106.8423994,https://maps.google.com/?cid=0x0:0x332636bc39ff68d0
toko bangunan,Pusat Perbelanjaan,Mall Kota Kasablanka,"Jl. Raya Casablanca No.Kav 88, Menteng Dalam, Kec. Tebet, Kota Jakarta Selatan, Daerah Khusus Ibukota Jakarta 12870","Menteng Dalam, Kec. Tebet, Kota Jakarta Selatan",PAPUA BARAT,12870.0,Indonesia,2129465000.0,-6.2240353,106.8425979,https://maps.google.com/?cid=0x0:0xaf54cb631563acce
toko bangunan,Toko Pakaian,HM Kota Kasablanka,"Kota Casablanka Jl. Raya Casablanca No.56 Unit# G51, Raya, Jakarta, South Jakarta City, Banten 12870","Raya, Jakarta, South Jakarta City",PAPUA BARAT,12870.0,Indonesia,2129475102.0,-6.2238651,106.8428624,https://maps.google.com/?cid=0x0:0xbc49ac86f3b627f9
toko bangunan,Toko Pakaian dan Peralatan Luar Ruangan,HARDWARE - Kota Kasablanka,"Kota Kasablanka, Jl. Makmur 1 No.19 16, RT.2/RW.5, Menteng Dalam, Kec. Tebet, Kota Jakarta Selatan, Daerah Khusus Ibukota Jakarta 12870","Jl. Makmur 1 No.19 16, RT.2/RW.5, Menteng Dalam, Kec. Tebet, Kota Jakarta Selatan",PAPUA BARAT,12870.0,Indonesia,,-6.2229478,106.8423143,https://maps.google.com/?cid=0x0:0x983a015440bc0878
toko bangunan,Toko Sepatu,Payless Kota Cassablanca,"KOTA KASABLANKA Lt. 1 Jl. Casablanca Raya Kav. 88, RT.7/RW.11, Menteng Dalam, Kec. Tebet, Kota Jakarta Selatan, Daerah Khusus Ibukota Jakarta 12870","RT.7/RW.11, Menteng Dalam, Kec. Tebet, Kota Jakarta Selatan",PAPUA BARAT,12870.0,Indonesia,2129465025.0,-6.223628,106.8431401,https://maps.google.com/?cid=0x0:0x15ad0033f552e17b
toko bangunan,toko bangunan,Papua Bar. 98652,"Doom Tim., Distrik Sorong Kepulauan, Kota Sorong, Papua Bar.","Kota Sorong, Papua Bar.",PAPUA BARAT,,Indonesia,,-0.9375383,131.254499,https://maps.google.com/?cid=0x0:0x5905364cc30efd0e
toko bangunan,toko bangunan,Kramongmongga,"Distrik Kramongmongga, Kabupaten Fakfak, Papua Bar.","Kabupaten Fakfak, Papua Bar.",PAPUA BARAT,,Indonesia,,-2.740824,132.379083,https://maps.google.com/?cid=0x0:0xab9781b7710e9fcb
toko bangunan,toko bangunan,Distrik Kramongmongga,"Kabupaten Fakfak, Papua Bar.","Kabupaten Fakfak, Papua Bar.",PAPUA BARAT,,Indonesia,,-2.7329977,132.3367683,https://maps.google.com/?cid=0x0:0x7fc19de8aa000323
toko bangunan,Toko Bahan Bangunan,TOKO BANGUNAN,"38G3+5PF, Fak Fak Utara, Distrik Fakfak, Kabupaten Fakfak, Papua Bar. 98651","Fak Fak Utara, Distrik Fakfak, Kabupaten Fakfak",PAPUA BARAT,98651.0,Indonesia,83121529512.0,-2.9245593,132.3042975,https://maps.google.com/?cid=0x0:0x3e3de1be5a573a7
toko bangunan,toko bangunan,Papua Bar. 98661,"Kabupaten Fakfak, Papua Bar.","Kabupaten Fakfak, Papua Bar.",PAPUA BARAT,,Indonesia,,-2.8087988,132.1177396,https://maps.google.com/?cid=0x0:0x6512126b96febab4
toko bangunan,Toko Bahan Bangunan,Toko Bangunan Depo Dewata,"38G2+FXC, Jl. Gajah Mada, Fak Fak Utara, Distrik Fakfak, Kabupaten Fakfak, Papua Bar. 98651","Jl. Gajah Mada, Fak Fak Utara, Distrik Fakfak, Kabupaten Fakfak",PAPUA BARAT,98651.0,Indonesia,81346731165.0,-2.9239262,132.3023407,https://maps.google.com/?cid=0x0:0x6877b3b6dab70059
toko bangunan,Toko Swalayan,Toko Depo Bangunan,"379V+Q4W, Fak Fak Selatan, Distrik Fakfak, Kabupaten Fakfak, Papua Bar. 98611","Fak Fak Selatan, Distrik Fakfak, Kabupaten Fakfak",PAPUA BARAT,98611.0,Indonesia,81332930235.0,-2.9305033,132.292834,https://maps.google.com/?cid=0x0:0x8845a3bfe8af225c
toko bangunan,Toko Bahan Bangunan,TOKO PUTRA UTAMA TANAMA,"37CM+WGR, Jl. Yos Sudarso, Tanama, Distrik Fakfak, Kabupaten Fakfak, Papua Bar. 98614","Jl. Yos Sudarso, Tanama, Distrik Fakfak, Kabupaten Fakfak",PAPUA BARAT,98614.0,Indonesia,,-2.9276309,132.2837622,https://maps.google.com/?cid=0x0:0x3628cc4731e4acc7
toko bangunan,Pusat Perbelanjaan,Toko Langgeng Jaya,"Wagom Utara, Distrik Fakfak, Kabupaten Fakfak, Papua Bar. 98651","Distrik Fakfak, Kabupaten Fakfak",PAPUA BARAT,98651.0,Indonesia,82241598338.0,-2.9248988,132.2949657,https://maps.google.com/?cid=0x0:0x87a54f2d08f9fb99
toko bangunan,Pusat Perbelanjaan,Toko Surya Mas,"3894+4WW, Fak Fak Selatan, Distrik Fakfak, Kabupaten Fakfak, Papua Bar. 98611","Fak Fak Selatan, Distrik Fakfak, Kabupaten Fakfak",PAPUA BARAT,98611.0,Indonesia,818728072.0,-2.9321276,132.3073282,https://maps.google.com/?cid=0x0:0x5331cc492f124a58
toko bangunan,Toko Bahan Bangunan,Toko SIGMA BANGUNAN,"37FM+2G5, Jl. Yos Sudarso, Tanama, Distrik Fakfak, Kabupaten Fakfak, Papua Bar. 98614","Jl. Yos Sudarso, Tanama, Distrik Fakfak, Kabupaten Fakfak",PAPUA BARAT,98614.0,Indonesia,,-2.9274959,132.2838546,https://maps.google.com/?cid=0x0:0x896756e6fcb2635d
toko bangunan,Toko Bahan Bangunan,TOKO BANGUNAN,"38G3+5PF, Fak Fak Utara, Distrik Fakfak, Kabupaten Fakfak, Papua Bar. 98651","Fak Fak Utara, Distrik Fakfak, Kabupaten Fakfak",PAPUA BARAT,98651.0,Indonesia,83121529512.0,-2.9245593,132.3042975,https://maps.google.com/?cid=0x0:0x3e3de1be5a573a7
toko bangunan,Toko Bahan Bangunan,DEPO BANGUNAN SINAR MATAHARI,"379X+243, Jl. Fakfak - Torea, Wagom Sel., Distrik Fakfak, Kabupaten Fakfak, Papua Bar. 98651","Jl. Fakfak - Torea, Wagom Sel., Distrik Fakfak, Kabupaten Fakfak",PAPUA BARAT,98651.0,Indonesia,81232387999.0,-2.9324935,132.2978043,https://maps.google.com/?cid=0x0:0x35e53a9d40e95e48
toko bangunan,Toko Bahan Bangunan,"Papua Bangunan, CV PAPUA ABADI","Jl. Basuki Rahmat No.780, Klawuyuk, Distrik Sorong Timur, Kota Sorong, Papua Bar. 98416","Klawuyuk, Distrik Sorong Timur, Kota Sorong",PAPUA BARAT,98416.0,Indonesia,81332017550.0,-0.8954087,131.3186922,https://maps.google.com/?cid=0x0:0x851804bc3aa7f033
toko bangunan,Toko Bahan Bangunan,Toko Karya Abadi,"WJ4X+24P, Tuasai, Distrik Bintuni, Kabupaten Teluk Bintuni, Papua Bar. 98364","Tuasai, Distrik Bintuni, Kabupaten Teluk Bintuni",PAPUA BARAT,98364.0,Indonesia,82244443838.0,-2.094909,133.6478193,https://maps.google.com/?cid=0x0:0x860a78b44fea4433
toko bangunan,Toko Perlengkapan Rumah,Toko Kaliurang,"3894+9C9, jl izak di dekat Jl. Izaak Telussa, Fak Fak Selatan, Distrik Fakfak, Kabupaten Fakfak, Papua Bar. 98611","jl izak di dekat Jl. Izaak Telussa, Fak Fak Selatan, Distrik Fakfak, Kabupaten Fakfak",PAPUA BARAT,98611.0,Indonesia,81240391452.0,-2.9315795,132.3061148,https://maps.google.com/?cid=0x0:0xc67931c3499554fe
toko bangunan,Toko Bahan Bangunan,Gudang Toko Surya Mas,"37CQ+2X6, Wagom Sel., Distrik Fakfak, Kabupaten Fakfak, Papua Bar. 98611","Wagom Sel., Distrik Fakfak, Kabupaten Fakfak",PAPUA BARAT,98611.0,Indonesia,,-2.9299525,132.2899061,https://maps.google.com/?cid=0x0:0x37a642c4931ddf76
toko bangunan,Toko Bahan Bangunan,Toko Kayu,"Jalan Tebing Sebrang, Gewerpe, Kabupaten Fakfak, Papua Bar. 98012","Gewerpe, Kabupaten Fakfak",PAPUA BARAT,98012.0,Indonesia,85254291018.0,-2.9275353,132.3127042,https://maps.google.com/?cid=0x0:0x4b220017b6ea9c7e
building materials,building materials,Papua Bar. 98662,"Kabupaten Fakfak, Papua Bar.","Kabupaten Fakfak, Papua Bar.",PAPUA BARAT,,Indonesia,,-3.097706,133.0194897,https://maps.google.com/?cid=0x0:0xb4392ea87e61dc2a
building materials,building materials,Bomberay,"Kabupaten Fakfak, Papua Bar.","Kabupaten Fakfak, Papua Bar.",PAPUA BARAT,,Indonesia,,-2.9067292,133.2521507,https://maps.google.com/?cid=0x0:0x8b6d998000da2107
building materials,Pemasok Produk Makanan,PT. Indofood CBP Sukses Makmur Tbk.,"Jl. Daan Mogot No.KM 19, RT.003/RW.002, Kb. Besar, Kec. Batuceper, Kota Tangerang, Banten 15122","RT.003/RW.002, Kb. Besar, Kec. Batuceper, Kota Tangerang",PAPUA BARAT,15122.0,Indonesia,,-6.1606163,106.6833012,https://maps.google.com/?cid=0x0:0x3bd75719e37453d1
building materials,,POS PANTAU POKDARKAMTIBMAS POLSEK BATU CEPER,"RMQM+M72, RT.003/RW.002, Kb. Besar, Kec. Batuceper, Kota Tangerang, Banten 15122","RT.003/RW.002, Kb. Besar, Kec. Batuceper, Kota Tangerang",PAPUA BARAT,15122.0,Indonesia,,-6.1608502,106.6831272,https://maps.google.com/?cid=0x0:0xf6ddbc645b623355
building materials,building materials,Papua Bar. 98611,"Kabupaten Fakfak, Papua Bar.","Kabupaten Fakfak, Papua Bar.",PAPUA BARAT,,Indonesia,,-2.9152703,132.4331624,https://maps.google.com/?cid=0x0:0xd346582f482a91e7
building materials,Pusat Perbelanjaan,Toko Surya Mas,"3894+4WW, Fak Fak Selatan, Distrik Fakfak, Kabupaten Fakfak, Papua Bar. 98611","Fak Fak Selatan, Distrik Fakfak, Kabupaten Fakfak",PAPUA BARAT,98611.0,Indonesia,818728072.0,-2.9321276,132.3073282,https://maps.google.com/?cid=0x0:0x5331cc492f124a58
building materials,Toko Swalayan,Toko Depo Bangunan,"379V+Q4W, Fak Fak Selatan, Distrik Fakfak, Kabupaten Fakfak, Papua Bar. 98611","Fak Fak Selatan, Distrik Fakfak, Kabupaten Fakfak",PAPUA BARAT,98611.0,Indonesia,81332930235.0,-2.9305033,132.292834,https://maps.google.com/?cid=0x0:0x8845a3bfe8af225c
building materials,Toko Bahan Bangunan,Toko Idaman,"387C+43P, Dana Weria, Distrik Fakfak Tengah, Kabupaten Fakfak, Papua Bar. 98611","Dana Weria, Distrik Fakfak Tengah, Kabupaten Fakfak",PAPUA BARAT,98611.0,Indonesia,81233333193.0,-2.9371717,132.3201884,https://maps.google.com/?cid=0x0:0xb250f5bbd07b5204
building materials,Toko Bahan Bangunan,TOKO PUTRA UTAMA TANAMA,"37CM+WGR, Jl. Yos Sudarso, Tanama, Distrik Fakfak, Kabupaten Fakfak, Papua Bar. 98614","Jl. Yos Sudarso, Tanama, Distrik Fakfak, Kabupaten Fakfak",PAPUA BARAT,98614.0,Indonesia,,-2.9276309,132.2837622,https://maps.google.com/?cid=0x0:0x3628cc4731e4acc7
building materials,Toko Bahan Bangunan,Toko SIGMA BANGUNAN,"37FM+2G5, Jl. Yos Sudarso, Tanama, Distrik Fakfak, Kabupaten Fakfak, Papua Bar. 98614","Jl. Yos Sudarso, Tanama, Distrik Fakfak, Kabupaten Fakfak",PAPUA BARAT,98614.0,Indonesia,,-2.9274959,132.2838546,https://maps.google.com/?cid=0x0:0x896756e6fcb2635d
building materials,Toko Bahan Bangunan,TOKO BANGUNAN,"38G3+5PF, Fak Fak Utara, Distrik Fakfak, Kabupaten Fakfak, Papua Bar. 98651","Fak Fak Utara, Distrik Fakfak, Kabupaten Fakfak",PAPUA BARAT,98651.0,Indonesia,83121529512.0,-2.9245593,132.3042975,https://maps.google.com/?cid=0x0:0x3e3de1be5a573a7
building materials,Toko Bahan Bangunan,Material bangunan pasir Laut dan Batu krikil,"JL. Kapten Napitupulu Jl. Wagom, Wagom Sel., Piyahar, Kabupaten Fakfak, Papua Bar. 98611","Wagom Sel., Piyahar, Kabupaten Fakfak",PAPUA BARAT,98611.0,Indonesia,82299397861.0,-2.9314734,132.292064,https://maps.google.com/?cid=0x0:0xfd5295d5cd6c9a09
building materials,Pemasok Bahan Bangunan,Wiharco Prima. PT,"376X+725, Jl. Ki Hajar Dewantara, Distrik Fakfak, Kabupaten Fakfak, Papua Bar.","Kabupaten Fakfak, Papua Bar.",PAPUA BARAT,,Indonesia,95625128.0,-2.939355,132.297606,https://maps.google.com/?cid=0x0:0xd823d4d62d59165c
building materials,Toko Bahan Bangunan,Toko Kayu,"Jalan Tebing Sebrang, Gewerpe, Kabupaten Fakfak, Papua Bar. 98012","Gewerpe, Kabupaten Fakfak",PAPUA BARAT,98012.0,Indonesia,85254291018.0,-2.9275353,132.3127042,https://maps.google.com/?cid=0x0:0x4b220017b6ea9c7e
building materials,building materials,Distrik Fakfak,"Kabupaten Fakfak, Papua Bar.","Kabupaten Fakfak, Papua Bar.",PAPUA BARAT,,Indonesia,,-2.9301404,132.3024382,https://maps.google.com/?cid=0x0:0x1fb44d294e112bc3
building materials,building materials,Papua Bar. 98661,"Kabupaten Fakfak, Papua Bar.","Kabupaten Fakfak, Papua Bar.",PAPUA BARAT,,Indonesia,,-2.8087988,132.1177396,https://maps.google.com/?cid=0x0:0x6512126b96febab4
building materials,Toko Swalayan,Toko Depo Bangunan,"379V+Q4W, Fak Fak Selatan, Distrik Fakfak, Kabupaten Fakfak, Papua Bar. 98611","Fak Fak Selatan, Distrik Fakfak, Kabupaten Fakfak",PAPUA BARAT,98611.0,Indonesia,81332930235.0,-2.9305033,132.292834,https://maps.google.com/?cid=0x0:0x8845a3bfe8af225c
building materials,Pusat Perbelanjaan,Toko Surya Mas,"3894+4WW, Fak Fak Selatan, Distrik Fakfak, Kabupaten Fakfak, Papua Bar. 98611","Fak Fak Selatan, Distrik Fakfak, Kabupaten Fakfak",PAPUA BARAT,98611.0,Indonesia,818728072.0,-2.9321276,132.3073282,https://maps.google.com/?cid=0x0:0x5331cc492f124a58
building materials,Toko Bahan Bangunan,TOKO PUTRA UTAMA TANAMA,"37CM+WGR, Jl. Yos Sudarso, Tanama, Distrik Fakfak, Kabupaten Fakfak, Papua Bar. 98614","Jl. Yos Sudarso, Tanama, Distrik Fakfak, Kabupaten Fakfak",PAPUA BARAT,98614.0,Indonesia,,-2.9276309,132.2837622,https://maps.google.com/?cid=0x0:0x3628cc4731e4acc7
building materials,Toko Bahan Bangunan,Toko SIGMA BANGUNAN,"37FM+2G5, Jl. Yos Sudarso, Tanama, Distrik Fakfak, Kabupaten Fakfak, Papua Bar. 98614","Jl. Yos Sudarso, Tanama, Distrik Fakfak, Kabupaten Fakfak",PAPUA BARAT,98614.0,Indonesia,,-2.9274959,132.2838546,https://maps.google.com/?cid=0x0:0x896756e6fcb2635d
building materials,Toko Bahan Bangunan,Material bangunan pasir Laut dan Batu krikil,"JL. Kapten Napitupulu Jl. Wagom, Wagom Sel., Piyahar, Kabupaten Fakfak, Papua Bar. 98611","Wagom Sel., Piyahar, Kabupaten Fakfak",PAPUA BARAT,98611.0,Indonesia,82299397861.0,-2.9314734,132.292064,https://maps.google.com/?cid=0x0:0xfd5295d5cd6c9a09
building materials,Pemasok Bahan Bangunan,Wiharco Prima. PT,"376X+725, Jl. Ki Hajar Dewantara, Distrik Fakfak, Kabupaten Fakfak, Papua Bar.","Kabupaten Fakfak, Papua Bar.",PAPUA BARAT,,Indonesia,95625128.0,-2.939355,132.297606,https://maps.google.com/?cid=0x0:0xd823d4d62d59165c
building materials,Toko Bahan Bangunan,TOKO BANGUNAN,"38G3+5PF, Fak Fak Utara, Distrik Fakfak, Kabupaten Fakfak, Papua Bar. 98651","Fak Fak Utara, Distrik Fakfak, Kabupaten Fakfak",PAPUA BARAT,98651.0,Indonesia,83121529512.0,-2.9245593,132.3042975,https://maps.google.com/?cid=0x0:0x3e3de1be5a573a7
building materials,Toko Bahan Bangunan,Toko Kayu,"Jalan Tebing Sebrang, Gewerpe, Kabupaten Fakfak, Papua Bar. 98012","Gewerpe, Kabupaten Fakfak",PAPUA BARAT,98012.0,Indonesia,85254291018.0,-2.9275353,132.3127042,https://maps.google.com/?cid=0x0:0x4b220017b6ea9c7e
building materials,building materials,Kec. Fakfak Bar.,"Kabupaten Fakfak, Papua Bar.","Kabupaten Fakfak, Papua Bar.",PAPUA BARAT,,Indonesia,,-2.9234454,132.2067983,https://maps.google.com/?cid=0x0:0x6524659bcce79ab2
building materials,building materials,Distrik Fakfak Tengah,"Kabupaten Fakfak, Papua Bar.","Kabupaten Fakfak, Papua Bar.",PAPUA BARAT,,Indonesia,,-2.9352442,132.3183355,https://maps.google.com/?cid=0x0:0x4e103c5ed15f609d
building materials,Toko Bahan Bangunan,Toko Idaman,"387C+43P, Dana Weria, Distrik Fakfak Tengah, Kabupaten Fakfak, Papua Bar. 98611","Dana Weria, Distrik Fakfak Tengah, Kabupaten Fakfak",PAPUA BARAT,98611.0,Indonesia,81233333193.0,-2.9371717,132.3201884,https://maps.google.com/?cid=0x0:0xb250f5bbd07b5204
building materials,Pusat Perbelanjaan,Toko Surya Mas,"3894+4WW, Fak Fak Selatan, Distrik Fakfak, Kabupaten Fakfak, Papua Bar. 98611","Fak Fak Selatan, Distrik Fakfak, Kabupaten Fakfak",PAPUA BARAT,98611.0,Indonesia,818728072.0,-2.9321276,132.3073282,https://maps.google.com/?cid=0x0:0x5331cc492f124a58
building materials,Pusat Perbelanjaan,Toko Langgeng Jaya,"Wagom Utara, Distrik Fakfak, Kabupaten Fakfak, Papua Bar. 98651","Distrik Fakfak, Kabupaten Fakfak",PAPUA BARAT,98651.0,Indonesia,82241598338.0,-2.9248988,132.2949657,https://maps.google.com/?cid=0x0:0x87a54f2d08f9fb99
building materials,Toko Bahan Bangunan,TOKO PUTRA UTAMA TANAMA,"37CM+WGR, Jl. Yos Sudarso, Tanama, Distrik Fakfak, Kabupaten Fakfak, Papua Bar. 98614","Jl. Yos Sudarso, Tanama, Distrik Fakfak, Kabupaten Fakfak",PAPUA BARAT,98614.0,Indonesia,,-2.9276309,132.2837622,https://maps.google.com/?cid=0x0:0x3628cc4731e4acc7
building materials,Toko Bahan Bangunan,Toko SIGMA BANGUNAN,"37FM+2G5, Jl. Yos Sudarso, Tanama, Distrik Fakfak, Kabupaten Fakfak, Papua Bar. 98614","Jl. Yos Sudarso, Tanama, Distrik Fakfak, Kabupaten Fakfak",PAPUA BARAT,98614.0,Indonesia,,-2.9274959,132.2838546,https://maps.google.com/?cid=0x0:0x896756e6fcb2635d
building materials,Toko Bahan Bangunan,Material bangunan pasir Laut dan Batu krikil,"JL. Kapten Napitupulu Jl. Wagom, Wagom Sel., Piyahar, Kabupaten Fakfak, Papua Bar. 98611","Wagom Sel., Piyahar, Kabupaten Fakfak",PAPUA BARAT,98611.0,Indonesia,82299397861.0,-2.9314734,132.292064,https://maps.google.com/?cid=0x0:0xfd5295d5cd6c9a09
building materials,Toko Bahan Bangunan,Toko Kayu,"Jalan Tebing Sebrang, Gewerpe, Kabupaten Fakfak, Papua Bar. 98012","Gewerpe, Kabupaten Fakfak",PAPUA BARAT,98012.0,Indonesia,85254291018.0,-2.9275353,132.3127042,https://maps.google.com/?cid=0x0:0x4b220017b6ea9c7e
building materials,Toko Bahan Bangunan,TOKO BANGUNAN,"38G3+5PF, Fak Fak Utara, Distrik Fakfak, Kabupaten Fakfak, Papua Bar. 98651","Fak Fak Utara, Distrik Fakfak, Kabupaten Fakfak",PAPUA BARAT,98651.0,Indonesia,83121529512.0,-2.9245593,132.3042975,https://maps.google.com/?cid=0x0:0x3e3de1be5a573a7
building materials,Pemasok Bahan Bangunan,Wiharco Prima. PT,"376X+725, Jl. Ki Hajar Dewantara, Distrik Fakfak, Kabupaten Fakfak, Papua Bar.","Kabupaten Fakfak, Papua Bar.",PAPUA BARAT,,Indonesia,95625128.0,-2.939355,132.297606,https://maps.google.com/?cid=0x0:0xd823d4d62d59165c
building materials,building materials,Fakfak Tim.,"Kabupaten Fakfak, Papua Bar.","Kabupaten Fakfak, Papua Bar.",PAPUA BARAT,,Indonesia,,-3.0285426,132.5901672,https://maps.google.com/?cid=0x0:0x6a0537f2cba21df
building materials,Pusat Perbelanjaan,Toko Surya Mas,"3894+4WW, Fak Fak Selatan, Distrik Fakfak, Kabupaten Fakfak, Papua Bar. 98611","Fak Fak Selatan, Distrik Fakfak, Kabupaten Fakfak",PAPUA BARAT,98611.0,Indonesia,818728072.0,-2.9321276,132.3073282,https://maps.google.com/?cid=0x0:0x5331cc492f124a58
building materials,Toko Bahan Bangunan,Toko Idaman,"387C+43P, Dana Weria, Distrik Fakfak Tengah, Kabupaten Fakfak, Papua Bar. 98611","Dana Weria, Distrik Fakfak Tengah, Kabupaten Fakfak",PAPUA BARAT,98611.0,Indonesia,81233333193.0,-2.9371717,132.3201884,https://maps.google.com/?cid=0x0:0xb250f5bbd07b5204
building materials,Toko Swalayan,Toko Depo Bangunan,"379V+Q4W, Fak Fak Selatan, Distrik Fakfak, Kabupaten Fakfak, Papua Bar. 98611","Fak Fak Selatan, Distrik Fakfak, Kabupaten Fakfak",PAPUA BARAT,98611.0,Indonesia,81332930235.0,-2.9305033,132.292834,https://maps.google.com/?cid=0x0:0x8845a3bfe8af225c
building materials,Toko Bahan Bangunan,TOKO PUTRA UTAMA TANAMA,"37CM+WGR, Jl. Yos Sudarso, Tanama, Distrik Fakfak, Kabupaten Fakfak, Papua Bar. 98614","Jl. Yos Sudarso, Tanama, Distrik Fakfak, Kabupaten Fakfak",PAPUA BARAT,98614.0,Indonesia,,-2.9276309,132.2837622,https://maps.google.com/?cid=0x0:0x3628cc4731e4acc7
building materials,Toko Bahan Bangunan,Toko SIGMA BANGUNAN,"37FM+2G5, Jl. Yos Sudarso, Tanama, Distrik Fakfak, Kabupaten Fakfak, Papua Bar. 98614","Jl. Yos Sudarso, Tanama, Distrik Fakfak, Kabupaten Fakfak",PAPUA BARAT,98614.0,Indonesia,,-2.9274959,132.2838546,https://maps.google.com/?cid=0x0:0x896756e6fcb2635d
building materials,Toko Bahan Bangunan,Toko Kayu,"Jalan Tebing Sebrang, Gewerpe, Kabupaten Fakfak, Papua Bar. 98012","Gewerpe, Kabupaten Fakfak",PAPUA BARAT,98012.0,Indonesia,85254291018.0,-2.9275353,132.3127042,https://maps.google.com/?cid=0x0:0x4b220017b6ea9c7e
building materials,Toko Perlengkapan Rumah,MR.DIY,"Jl. Cendrawasih, Fak Fak Utara, Distrik Fakfak, Kabupaten Fakfak, Papua Bar. 98651","Fak Fak Utara, Distrik Fakfak, Kabupaten Fakfak",PAPUA BARAT,98651.0,Indonesia,,-2.9239974,132.3044706,https://maps.google.com/?cid=0x0:0x413a45d8c6fc38ee
building materials,Toko Bahan Bangunan,TOKO BANGUNAN,"38G3+5PF, Fak Fak Utara, Distrik Fakfak, Kabupaten Fakfak, Papua Bar. 98651","Fak Fak Utara, Distrik Fakfak, Kabupaten Fakfak",PAPUA BARAT,98651.0,Indonesia,83121529512.0,-2.9245593,132.3042975,https://maps.google.com/?cid=0x0:0x3e3de1be5a573a7
building materials,Toko Bahan Bangunan,Material bangunan pasir Laut dan Batu krikil,"JL. Kapten Napitupulu Jl. Wagom, Wagom Sel., Piyahar, Kabupaten Fakfak, Papua Bar. 98611","Wagom Sel., Piyahar, Kabupaten Fakfak",PAPUA BARAT,98611.0,Indonesia,82299397861.0,-2.9314734,132.292064,https://maps.google.com/?cid=0x0:0xfd5295d5cd6c9a09
building materials,Pemasok Bahan Bangunan,Wiharco Prima. PT,"376X+725, Jl. Ki Hajar Dewantara, Distrik Fakfak, Kabupaten Fakfak, Papua Bar.","Kabupaten Fakfak, Papua Bar.",PAPUA BARAT,,Indonesia,95625128.0,-2.939355,132.297606,https://maps.google.com/?cid=0x0:0xd823d4d62d59165c
building materials,Toko Alat Tulis Kantor,Amanda Jaya Fakfak,"Jl. Yos Sudarso, Wagom Sel., Distrik Fakfak, Kabupaten Fakfak, Papua Bar. 98612","Wagom Sel., Distrik Fakfak, Kabupaten Fakfak",PAPUA BARAT,98612.0,Indonesia,85334805443.0,-2.9320011,132.2990614,https://maps.google.com/?cid=0x0:0xf2903ad7d338ed12
building materials,Toko Perlengkapan Rumah,Toko Kaliurang,"3894+9C9, jl izak di dekat Jl. Izaak Telussa, Fak Fak Selatan, Distrik Fakfak, Kabupaten Fakfak, Papua Bar. 98611","jl izak di dekat Jl. Izaak Telussa, Fak Fak Selatan, Distrik Fakfak, Kabupaten Fakfak",PAPUA BARAT,98611.0,Indonesia,81240391452.0,-2.9315795,132.3061148,https://maps.google.com/?cid=0x0:0xc67931c3499554fe
building materials,Toko Alat Tulis Kantor,baricly copy centre ( photo copy kawasan ),"3892+VWX, Fak Fak Selatan, Distrik Fakfak, Kabupaten Fakfak, Papua Bar. 98651","Fak Fak Selatan, Distrik Fakfak, Kabupaten Fakfak",PAPUA BARAT,98651.0,Indonesia,,-2.9302702,132.3023572,https://maps.google.com/?cid=0x0:0x6e673607c0b04788
building materials,building materials,Papua Bar.,,Papua Bar.,PAPUA BARAT,,Indonesia,,-1.3361154,133.1747162,https://maps.google.com/?cid=0x0:0x5349c1f8c5c7cb62
building materials,Toko Bahan Bangunan,"Papua Bangunan, CV PAPUA ABADI","Jl. Basuki Rahmat No.780, Klawuyuk, Distrik Sorong Timur, Kota Sorong, Papua Bar. 98416","Klawuyuk, Distrik Sorong Timur, Kota Sorong",PAPUA BARAT,98416.0,Indonesia,81332017550.0,-0.8954087,131.3186922,https://maps.google.com/?cid=0x0:0x851804bc3aa7f033
building materials,Toko Bahan Bangunan,ANEKA BANGUNAN,"Wosi, Kec. Manokwari Bar., Kabupaten Manokwari, Papua Bar. 98312","Kec. Manokwari Bar., Kabupaten Manokwari",PAPUA BARAT,98312.0,Indonesia,81344843001.0,-0.8631883,134.0498559,https://maps.google.com/?cid=0x0:0x3598159af16f30ea
building materials,Pemasok Bahan Bangunan,Toko bangunan Sumber Makmur,"32CM+75G, Jl. Manokwari - Maruni, Anday, Distrik Manokwari, Kabupaten Manokwari, Papua Bar. 98315","Jl. Manokwari - Maruni, Anday, Distrik Manokwari, Kabupaten Manokwari",PAPUA BARAT,98315.0,Indonesia,8114846060.0,-0.9293075,134.0329487,https://maps.google.com/?cid=0x0:0xa0a85c7270dde255
building materials,Kantor Perusahaan,PT. BUMI PAPUA SEVENINDO,"Jl. Mesjid Raya, Remu Utara, HBM, Kota Sorong, Papua Bar. 98416","Remu Utara, HBM, Kota Sorong",PAPUA BARAT,98416.0,Indonesia,82198126653.0,-0.8807928,131.2828486,https://maps.google.com/?cid=0x0:0xbe773b0ac3ca8612
building materials,Toko Swalayan,Toko Depo Bangunan,"379V+Q4W, Fak Fak Selatan, Distrik Fakfak, Kabupaten Fakfak, Papua Bar. 98611","Fak Fak Selatan, Distrik Fakfak, Kabupaten Fakfak",PAPUA BARAT,98611.0,Indonesia,81332930235.0,-2.9305033,132.292834,https://maps.google.com/?cid=0x0:0x8845a3bfe8af225c
building materials,Pemasok Bahan Bangunan,Depo Bangunan Tangerang Selatan,"Jl. Raya Serpong No.KM.2, Pakulonan, Kec. Serpong Utara, Kota Tangerang Selatan, Banten 15325","Pakulonan, Kec. Serpong Utara, Kota Tangerang Selatan",PAPUA BARAT,15325.0,Indonesia,2153120808.0,-6.2407101,106.6492227,https://maps.google.com/?cid=0x0:0x9a4b22c9292d3f53
building materials,Toko Bahan Bangunan,Okabe Gallery Alam Sutera,"QM66+Q46, Jalur Sutera No.32A, Pakualam, Kec. Serpong Utara, Kota Tangerang Selatan, Banten 15320","Jalur Sutera No.32A, Pakualam, Kec. Serpong Utara, Kota Tangerang Selatan",PAPUA BARAT,15320.0,Indonesia,82118888519.0,-6.2381706,106.6605396,https://maps.google.com/?cid=0x0:0x685a953a8450fdbb
building materials,building materials,Papua Bar. 98662,"Kabupaten Fakfak, Papua Bar.","Kabupaten Fakfak, Papua Bar.",PAPUA BARAT,,Indonesia,,-3.097706,133.0194897,https://maps.google.com/?cid=0x0:0xb4392ea87e61dc2a
building materials,building materials,Karas,"Kabupaten Fakfak, Papua Bar.","Kabupaten Fakfak, Papua Bar.",PAPUA BARAT,,Indonesia,,-3.3952572,133.0971625,https://maps.google.com/?cid=0x0:0x9ce5e4d1792f1647
building materials,Penyedia batu alam,Mutual Materials,"10019 NE 72nd Ave, Vancouver, WA 98686, Amerika Serikat",NE 72nd Ave,PAPUA BARAT,10019.0,Indonesia,13605735925.0,45.6944423,-122.598592,https://maps.google.com/?cid=0x0:0xb4d8539f5a9bc2b4
building materials,building materials,Papua Bar. 98652,"Doom Tim., Distrik Sorong Kepulauan, Kota Sorong, Papua Bar.","Kota Sorong, Papua Bar.",PAPUA BARAT,,Indonesia,,-0.9375383,131.254499,https://maps.google.com/?cid=0x0:0x5905364cc30efd0e
building materials,building materials,Kokas,"Kabupaten Fakfak, Papua Bar.","Kabupaten Fakfak, Papua Bar.",PAPUA BARAT,,Indonesia,,-2.840682,132.7466993,https://maps.google.com/?cid=0x0:0x1cdceb61ef4340b7
building materials,building materials,Kokas,"Patimburak, Kokas, Kabupaten Fakfak, Papua Bar.","Kabupaten Fakfak, Papua Bar.",PAPUA BARAT,,Indonesia,,-2.720797,132.412903,https://maps.google.com/?cid=0x0:0x6768eccb2851c972
building materials,Pusat Perbelanjaan,Mall k,"Mall Kota Kasablanka, Menteng Dalam, Kec. Tebet, Kota Jakarta Selatan, Daerah Khusus Ibukota Jakarta 12960","Menteng Dalam, Kec. Tebet, Kota Jakarta Selatan",PAPUA BARAT,12960.0,Indonesia,,-6.2240353,106.8425979,https://maps.google.com/?cid=0x0:0xa3a16fc4381476fb
building materials,Toko Alat Kecantikan,SOGO,"Jl. Raya Casablanca No.88, RT.2/RW.14, Menteng Dalam, Kec. Tebet, Kota Jakarta Selatan, Daerah Khusus Ibukota Jakarta 12870","RT.2/RW.14, Menteng Dalam, Kec. Tebet, Kota Jakarta Selatan",PAPUA BARAT,12870.0,Indonesia,8111252807.0,-6.2229772,106.843111,https://maps.google.com/?cid=0x0:0xa96f0bcb4777740e
building materials,Hot Pot,Shaburi Kota Kasablanka,"Mal Kota Kasablanka, Jl. Raya Casablanca No.Kav. 88 Lt. 1, RT.14/RW.5, Menteng Dalam, Kec. Tebet, Kota Jakarta Selatan, Daerah Khusus Ibukota Jakarta 12870","Jl. Raya Casablanca No.Kav. 88 Lt. 1, RT.14/RW.5, Menteng Dalam, Kec. Tebet, Kota Jakarta Selatan",PAPUA BARAT,12870.0,Indonesia,81294378786.0,-6.2239885,106.8431041,https://maps.google.com/?cid=0x0:0x2df3ec83a703a23f
building materials,Pusat Perbelanjaan,The Kasablanka,"Kota Kasablanka Lt. 3, Jl. Casablanca Raya kav. 88, RT.3/RW.14, Menteng Dalam, Kec. Tebet, Kota Jakarta Selatan, Daerah Khusus Ibukota Jakarta 12870","Jl. Casablanca Raya kav. 88, RT.3/RW.14, Menteng Dalam, Kec. Tebet, Kota Jakarta Selatan",PAPUA BARAT,12870.0,Indonesia,2129488633.0,-6.2242538,106.8435205,https://maps.google.com/?cid=0x0:0x3225ec9b7b7adc0c
building materials,Toko Ponsel,iBox,"Jl. Raya Casablanca No.88 # 36 - 38, RT.16/RW.5, Menteng Dalam, Kec. Tebet, Kota Jakarta Selatan, Daerah Khusus Ibukota Jakarta 12870","RT.16/RW.5, Menteng Dalam, Kec. Tebet, Kota Jakarta Selatan",PAPUA BARAT,12870.0,Indonesia,2129488545.0,-6.223889,106.8428715,https://maps.google.com/?cid=0x0:0x134101a873911f6c
building materials,building materials,Papua Bar. 98652,"Doom Tim., Distrik Sorong Kepulauan, Kota Sorong, Papua Bar.","Kota Sorong, Papua Bar.",PAPUA BARAT,,Indonesia,,-0.9375383,131.254499,https://maps.google.com/?cid=0x0:0x5905364cc30efd0e
building materials,building materials,Distrik Kramongmongga,"Kabupaten Fakfak, Papua Bar.","Kabupaten Fakfak, Papua Bar.",PAPUA BARAT,,Indonesia,,-2.7329977,132.3367683,https://maps.google.com/?cid=0x0:0x7fc19de8aa000323
building materials,Toko Bahan Bangunan,TOKO PUTRA UTAMA TANAMA,"37CM+WGR, Jl. Yos Sudarso, Tanama, Distrik Fakfak, Kabupaten Fakfak, Papua Bar. 98614","Jl. Yos Sudarso, Tanama, Distrik Fakfak, Kabupaten Fakfak",PAPUA BARAT,98614.0,Indonesia,,-2.9276309,132.2837622,https://maps.google.com/?cid=0x0:0x3628cc4731e4acc7
building materials,building materials,Papua Bar. 98661,"Kabupaten Fakfak, Papua Bar.","Kabupaten Fakfak, Papua Bar.",PAPUA BARAT,,Indonesia,,-2.8087988,132.1177396,https://maps.google.com/?cid=0x0:0x6512126b96febab4
building materials,Toko Bahan Bangunan,Material bangunan pasir Laut dan Batu krikil,"JL. Kapten Napitupulu Jl. Wagom, Wagom Sel., Piyahar, Kabupaten Fakfak, Papua Bar. 98611","Wagom Sel., Piyahar, Kabupaten Fakfak",PAPUA BARAT,98611.0,Indonesia,82299397861.0,-2.9314734,132.292064,https://maps.google.com/?cid=0x0:0xfd5295d5cd6c9a09
building materials,Toko Bahan Bangunan,Toko SIGMA BANGUNAN,"37FM+2G5, Jl. Yos Sudarso, Tanama, Distrik Fakfak, Kabupaten Fakfak, Papua Bar. 98614","Jl. Yos Sudarso, Tanama, Distrik Fakfak, Kabupaten Fakfak",PAPUA BARAT,98614.0,Indonesia,,-2.9274959,132.2838546,https://maps.google.com/?cid=0x0:0x896756e6fcb2635d
building materials,Pusat Perbelanjaan,Toko Langgeng Jaya,"Wagom Utara, Distrik Fakfak, Kabupaten Fakfak, Papua Bar. 98651","Distrik Fakfak, Kabupaten Fakfak",PAPUA BARAT,98651.0,Indonesia,82241598338.0,-2.9248988,132.2949657,https://maps.google.com/?cid=0x0:0x87a54f2d08f9fb99
building materials,Pusat Perbelanjaan,Toko Surya Mas,"3894+4WW, Fak Fak Selatan, Distrik Fakfak, Kabupaten Fakfak, Papua Bar. 98611","Fak Fak Selatan, Distrik Fakfak, Kabupaten Fakfak",PAPUA BARAT,98611.0,Indonesia,818728072.0,-2.9321276,132.3073282,https://maps.google.com/?cid=0x0:0x5331cc492f124a58
building materials,Toko Bahan Bangunan,TOKO BANGUNAN,"38G3+5PF, Fak Fak Utara, Distrik Fakfak, Kabupaten Fakfak, Papua Bar. 98651","Fak Fak Utara, Distrik Fakfak, Kabupaten Fakfak",PAPUA BARAT,98651.0,Indonesia,83121529512.0,-2.9245593,132.3042975,https://maps.google.com/?cid=0x0:0x3e3de1be5a573a7
building materials,Pemasok Bahan Bangunan,Wiharco Prima. PT,"376X+725, Jl. Ki Hajar Dewantara, Distrik Fakfak, Kabupaten Fakfak, Papua Bar.","Kabupaten Fakfak, Papua Bar.",PAPUA BARAT,,Indonesia,95625128.0,-2.939355,132.297606,https://maps.google.com/?cid=0x0:0xd823d4d62d59165c
building materials,Toko Bahan Bangunan,Toko Kayu,"Jalan Tebing Sebrang, Gewerpe, Kabupaten Fakfak, Papua Bar. 98012","Gewerpe, Kabupaten Fakfak",PAPUA BARAT,98012.0,Indonesia,85254291018.0,-2.9275353,132.3127042,https://maps.google.com/?cid=0x0:0x4b220017b6ea9c7e
building materials,building materials,Distrik Tlk. Patipi,"Kabupaten Fakfak, Papua Bar.","Kabupaten Fakfak, Papua Bar.",PAPUA BARAT,,Indonesia,,-2.7115037,132.1613078,https://maps.google.com/?cid=0x0:0xc20fae114c05069d
hardware store,hardware store,Papua Bar. 98662,"Kabupaten Fakfak, Papua Bar.","Kabupaten Fakfak, Papua Bar.",PAPUA BARAT,,Indonesia,,-3.097706,133.0194897,https://maps.google.com/?cid=0x0:0xb4392ea87e61dc2a
hardware store,hardware store,Bomberay,"Kabupaten Fakfak, Papua Bar.","Kabupaten Fakfak, Papua Bar.",PAPUA BARAT,,Indonesia,,-2.9067292,133.2521507,https://maps.google.com/?cid=0x0:0x8b6d998000da2107
hardware store,hardware store,Semenanjung Bomberai,"Bumi Muroh Indah, Bomberay, Kabupaten Fakfak, Papua Bar.","Kabupaten Fakfak, Papua Bar.",PAPUA BARAT,,Indonesia,,-3.0,133.0,https://maps.google.com/?cid=0x0:0x358d63ae92225b78
hardware store,hardware store,Papua Bar. 98611,"Kabupaten Fakfak, Papua Bar.","Kabupaten Fakfak, Papua Bar.",PAPUA BARAT,,Indonesia,,-2.9152703,132.4331624,https://maps.google.com/?cid=0x0:0xd346582f482a91e7
hardware store,Pusat Perbelanjaan,Toko Surya Mas,"3894+4WW, Fak Fak Selatan, Distrik Fakfak, Kabupaten Fakfak, Papua Bar. 98611","Fak Fak Selatan, Distrik Fakfak, Kabupaten Fakfak",PAPUA BARAT,98611.0,Indonesia,818728072.0,-2.9321276,132.3073282,https://maps.google.com/?cid=0x0:0x5331cc492f124a58
hardware store,Toko Swalayan,Toko Depo Bangunan,"379V+Q4W, Fak Fak Selatan, Distrik Fakfak, Kabupaten Fakfak, Papua Bar. 98611","Fak Fak Selatan, Distrik Fakfak, Kabupaten Fakfak",PAPUA BARAT,98611.0,Indonesia,81332930235.0,-2.9305033,132.292834,https://maps.google.com/?cid=0x0:0x8845a3bfe8af225c
hardware store,Toko Bahan Bangunan,Toko Kayu,"Jalan Tebing Sebrang, Gewerpe, Kabupaten Fakfak, Papua Bar. 98012","Gewerpe, Kabupaten Fakfak",PAPUA BARAT,98012.0,Indonesia,85254291018.0,-2.9275353,132.3127042,https://maps.google.com/?cid=0x0:0x4b220017b6ea9c7e
hardware store,Toko Perlengkapan Rumah,MR.DIY,"Jl. Cendrawasih, Fak Fak Utara, Distrik Fakfak, Kabupaten Fakfak, Papua Bar. 98651","Fak Fak Utara, Distrik Fakfak, Kabupaten Fakfak",PAPUA BARAT,98651.0,Indonesia,,-2.9239974,132.3044706,https://maps.google.com/?cid=0x0:0x413a45d8c6fc38ee
hardware store,Toko Alat Tulis Kantor,Amanda Jaya Fakfak,"Jl. Yos Sudarso, Wagom Sel., Distrik Fakfak, Kabupaten Fakfak, Papua Bar. 98612","Wagom Sel., Distrik Fakfak, Kabupaten Fakfak",PAPUA BARAT,98612.0,Indonesia,85334805443.0,-2.9320011,132.2990614,https://maps.google.com/?cid=0x0:0xf2903ad7d338ed12
hardware store,Toko Bahan Bangunan,TOKO PUTRA UTAMA TANAMA,"37CM+WGR, Jl. Yos Sudarso, Tanama, Distrik Fakfak, Kabupaten Fakfak, Papua Bar. 98614","Jl. Yos Sudarso, Tanama, Distrik Fakfak, Kabupaten Fakfak",PAPUA BARAT,98614.0,Indonesia,,-2.9276309,132.2837622,https://maps.google.com/?cid=0x0:0x3628cc4731e4acc7
hardware store,Pusat Perbelanjaan,Toko Ubadari,"Wagom Utara, Distrik Fakfak, Kabupaten Fakfak, Papua Bar. 98651","Distrik Fakfak, Kabupaten Fakfak",PAPUA BARAT,98651.0,Indonesia,,-2.9288735,132.2944016,https://maps.google.com/?cid=0x0:0x5a0c28d80fdf29bc
hardware store,Toko Alat Tulis Kantor,baricly copy centre ( photo copy kawasan ),"3892+VWX, Fak Fak Selatan, Distrik Fakfak, Kabupaten Fakfak, Papua Bar. 98651","Fak Fak Selatan, Distrik Fakfak, Kabupaten Fakfak",PAPUA BARAT,98651.0,Indonesia,,-2.9302702,132.3023572,https://maps.google.com/?cid=0x0:0x6e673607c0b04788
hardware store,Toko Kosmetik,Beauty Store,"Jl. Yos Sudarso, Sekban, Distrik Fakfak, Kabupaten Fakfak, Papua Bar. 98013","Sekban, Distrik Fakfak, Kabupaten Fakfak",PAPUA BARAT,98013.0,Indonesia,82398841501.0,-2.9240337,132.2636494,https://maps.google.com/?cid=0x0:0xb907b51cc26a2cdb
hardware store,Toko Perlengkapan Rumah,Sunda Gorden,"Wagom Utara, Distrik Fakfak, Kabupaten Fakfak, Papua Bar. 98651","Distrik Fakfak, Kabupaten Fakfak",PAPUA BARAT,98651.0,Indonesia,81344201041.0,-2.931528,132.299397,https://maps.google.com/?cid=0x0:0x5742b35d1a16253b
hardware store,Seafood,Pasar Kelapa Dua Fakfak,"3884+8WJ, Fak Fak Selatan, Distrik Fakfak, Kabupaten Fakfak, Papua Bar. 98611","Fak Fak Selatan, Distrik Fakfak, Kabupaten Fakfak",PAPUA BARAT,98611.0,Indonesia,82196619469.0,-2.9341333,132.3075423,https://maps.google.com/?cid=0x0:0x3d1ea804147164fd
hardware store,Toko,ABI SHOP FAKFAK,"37GW+73G, Wagom Utara, Distrik Fakfak, Kabupaten Fakfak, Papua Bar. 98651","Wagom Utara, Distrik Fakfak, Kabupaten Fakfak",PAPUA BARAT,98651.0,Indonesia,82397394345.0,-2.9243011,132.2951955,https://maps.google.com/?cid=0x0:0x23df56576f39f9c7
hardware store,Pusat Perbelanjaan,Pasar Tumburuni,"37CX+PVC, Wagom piahar., Papua Bar., Wagom Sel., Distrik Fakfak, Kabupaten Fakfak, Papua Bar. 98611","Wagom piahar., Papua Bar., Wagom Sel., Distrik Fakfak, Kabupaten Fakfak",PAPUA BARAT,98611.0,Indonesia,,-2.9281826,132.2996368,https://maps.google.com/?cid=0x0:0x990421468c2bf0d1
hardware store,hardware store,Papua Bar. 98661,"Kabupaten Fakfak, Papua Bar.","Kabupaten Fakfak, Papua Bar.",PAPUA BARAT,,Indonesia,,-2.8087988,132.1177396,https://maps.google.com/?cid=0x0:0x6512126b96febab4
hardware store,Pusat Perbelanjaan,Toko Surya Mas,"3894+4WW, Fak Fak Selatan, Distrik Fakfak, Kabupaten Fakfak, Papua Bar. 98611","Fak Fak Selatan, Distrik Fakfak, Kabupaten Fakfak",PAPUA BARAT,98611.0,Indonesia,818728072.0,-2.9321276,132.3073282,https://maps.google.com/?cid=0x0:0x5331cc492f124a58
hardware store,Toko Swalayan,Toko Depo Bangunan,"379V+Q4W, Fak Fak Selatan, Distrik Fakfak, Kabupaten Fakfak, Papua Bar. 98611","Fak Fak Selatan, Distrik Fakfak, Kabupaten Fakfak",PAPUA BARAT,98611.0,Indonesia,81332930235.0,-2.9305033,132.292834,https://maps.google.com/?cid=0x0:0x8845a3bfe8af225c
hardware store,Toko Bahan Bangunan,Toko Kayu,"Jalan Tebing Sebrang, Gewerpe, Kabupaten Fakfak, Papua Bar. 98012","Gewerpe, Kabupaten Fakfak",PAPUA BARAT,98012.0,Indonesia,85254291018.0,-2.9275353,132.3127042,https://maps.google.com/?cid=0x0:0x4b220017b6ea9c7e
hardware store,Toko Bahan Bangunan,TOKO PUTRA UTAMA TANAMA,"37CM+WGR, Jl. Yos Sudarso, Tanama, Distrik Fakfak, Kabupaten Fakfak, Papua Bar. 98614","Jl. Yos Sudarso, Tanama, Distrik Fakfak, Kabupaten Fakfak",PAPUA BARAT,98614.0,Indonesia,,-2.9276309,132.2837622,https://maps.google.com/?cid=0x0:0x3628cc4731e4acc7
hardware store,Toko Perlengkapan Rumah,MR.DIY,"Jl. Cendrawasih, Fak Fak Utara, Distrik Fakfak, Kabupaten Fakfak, Papua Bar. 98651","Fak Fak Utara, Distrik Fakfak, Kabupaten Fakfak",PAPUA BARAT,98651.0,Indonesia,,-2.9239974,132.3044706,https://maps.google.com/?cid=0x0:0x413a45d8c6fc38ee
hardware store,Toko Alat Tulis Kantor,Amanda Jaya Fakfak,"Jl. Yos Sudarso, Wagom Sel., Distrik Fakfak, Kabupaten Fakfak, Papua Bar. 98612","Wagom Sel., Distrik Fakfak, Kabupaten Fakfak",PAPUA BARAT,98612.0,Indonesia,85334805443.0,-2.9320011,132.2990614,https://maps.google.com/?cid=0x0:0xf2903ad7d338ed12
hardware store,Toko Kosmetik,Beauty Store,"Jl. Yos Sudarso, Sekban, Distrik Fakfak, Kabupaten Fakfak, Papua Bar. 98013","Sekban, Distrik Fakfak, Kabupaten Fakfak",PAPUA BARAT,98013.0,Indonesia,82398841501.0,-2.9240337,132.2636494,https://maps.google.com/?cid=0x0:0xb907b51cc26a2cdb
hardware store,Pusat Perbelanjaan,Toko Ubadari,"Wagom Utara, Distrik Fakfak, Kabupaten Fakfak, Papua Bar. 98651","Distrik Fakfak, Kabupaten Fakfak",PAPUA BARAT,98651.0,Indonesia,,-2.9288735,132.2944016,https://maps.google.com/?cid=0x0:0x5a0c28d80fdf29bc
hardware store,Toko Alat Tulis Kantor,baricly copy centre ( photo copy kawasan ),"3892+VWX, Fak Fak Selatan, Distrik Fakfak, Kabupaten Fakfak, Papua Bar. 98651","Fak Fak Selatan, Distrik Fakfak, Kabupaten Fakfak",PAPUA BARAT,98651.0,Indonesia,,-2.9302702,132.3023572,https://maps.google.com/?cid=0x0:0x6e673607c0b04788
hardware store,Toko Perlengkapan Rumah,Sunda Gorden,"Wagom Utara, Distrik Fakfak, Kabupaten Fakfak, Papua Bar. 98651","Distrik Fakfak, Kabupaten Fakfak",PAPUA BARAT,98651.0,Indonesia,81344201041.0,-2.931528,132.299397,https://maps.google.com/?cid=0x0:0x5742b35d1a16253b
hardware store,Toko,ABI SHOP FAKFAK,"37GW+73G, Wagom Utara, Distrik Fakfak, Kabupaten Fakfak, Papua Bar. 98651","Wagom Utara, Distrik Fakfak, Kabupaten Fakfak",PAPUA BARAT,98651.0,Indonesia,82397394345.0,-2.9243011,132.2951955,https://maps.google.com/?cid=0x0:0x23df56576f39f9c7
hardware store,Pusat Perbelanjaan,Pasar Tumburuni,"37CX+PVC, Wagom piahar., Papua Bar., Wagom Sel., Distrik Fakfak, Kabupaten Fakfak, Papua Bar. 98611","Wagom piahar., Papua Bar., Wagom Sel., Distrik Fakfak, Kabupaten Fakfak",PAPUA BARAT,98611.0,Indonesia,,-2.9281826,132.2996368,https://maps.google.com/?cid=0x0:0x990421468c2bf0d1
hardware store,Seafood,Pasar Kelapa Dua Fakfak,"3884+8WJ, Fak Fak Selatan, Distrik Fakfak, Kabupaten Fakfak, Papua Bar. 98611","Fak Fak Selatan, Distrik Fakfak, Kabupaten Fakfak",PAPUA BARAT,98611.0,Indonesia,82196619469.0,-2.9341333,132.3075423,https://maps.google.com/?cid=0x0:0x3d1ea804147164fd
hardware store,hardware store,Distrik Fakfak Tengah,"Kabupaten Fakfak, Papua Bar.","Kabupaten Fakfak, Papua Bar.",PAPUA BARAT,,Indonesia,,-2.9352442,132.3183355,https://maps.google.com/?cid=0x0:0x4e103c5ed15f609d
hardware store,Toko Bahan Bangunan,Toko Kayu,"Jalan Tebing Sebrang, Gewerpe, Kabupaten Fakfak, Papua Bar. 98012","Gewerpe, Kabupaten Fakfak",PAPUA BARAT,98012.0,Indonesia,85254291018.0,-2.9275353,132.3127042,https://maps.google.com/?cid=0x0:0x4b220017b6ea9c7e
hardware store,Pusat Perbelanjaan,Toko Surya Mas,"3894+4WW, Fak Fak Selatan, Distrik Fakfak, Kabupaten Fakfak, Papua Bar. 98611","Fak Fak Selatan, Distrik Fakfak, Kabupaten Fakfak",PAPUA BARAT,98611.0,Indonesia,818728072.0,-2.9321276,132.3073282,https://maps.google.com/?cid=0x0:0x5331cc492f124a58
hardware store,Toko Perlengkapan Rumah,MR.DIY,"Jl. Cendrawasih, Fak Fak Utara, Distrik Fakfak, Kabupaten Fakfak, Papua Bar. 98651","Fak Fak Utara, Distrik Fakfak, Kabupaten Fakfak",PAPUA BARAT,98651.0,Indonesia,,-2.9239974,132.3044706,https://maps.google.com/?cid=0x0:0x413a45d8c6fc38ee
hardware store,Pusat Perbelanjaan,Toko Langgeng Jaya,"Wagom Utara, Distrik Fakfak, Kabupaten Fakfak, Papua Bar. 98651","Distrik Fakfak, Kabupaten Fakfak",PAPUA BARAT,98651.0,Indonesia,82241598338.0,-2.9248988,132.2949657,https://maps.google.com/?cid=0x0:0x87a54f2d08f9fb99
hardware store,Toko Alat Tulis Kantor,Amanda Jaya Fakfak,"Jl. Yos Sudarso, Wagom Sel., Distrik Fakfak, Kabupaten Fakfak, Papua Bar. 98612","Wagom Sel., Distrik Fakfak, Kabupaten Fakfak",PAPUA BARAT,98612.0,Indonesia,85334805443.0,-2.9320011,132.2990614,https://maps.google.com/?cid=0x0:0xf2903ad7d338ed12
hardware store,Toko Bahan Bangunan,TOKO PUTRA UTAMA TANAMA,"37CM+WGR, Jl. Yos Sudarso, Tanama, Distrik Fakfak, Kabupaten Fakfak, Papua Bar. 98614","Jl. Yos Sudarso, Tanama, Distrik Fakfak, Kabupaten Fakfak",PAPUA BARAT,98614.0,Indonesia,,-2.9276309,132.2837622,https://maps.google.com/?cid=0x0:0x3628cc4731e4acc7
hardware store,Toko Alat Tulis Kantor,baricly copy centre ( photo copy kawasan ),"3892+VWX, Fak Fak Selatan, Distrik Fakfak, Kabupaten Fakfak, Papua Bar. 98651","Fak Fak Selatan, Distrik Fakfak, Kabupaten Fakfak",PAPUA BARAT,98651.0,Indonesia,,-2.9302702,132.3023572,https://maps.google.com/?cid=0x0:0x6e673607c0b04788
hardware store,Pusat Perbelanjaan,Toko Ubadari,"Wagom Utara, Distrik Fakfak, Kabupaten Fakfak, Papua Bar. 98651","Distrik Fakfak, Kabupaten Fakfak",PAPUA BARAT,98651.0,Indonesia,,-2.9288735,132.2944016,https://maps.google.com/?cid=0x0:0x5a0c28d80fdf29bc
hardware store,Toko,ABI SHOP FAKFAK,"37GW+73G, Wagom Utara, Distrik Fakfak, Kabupaten Fakfak, Papua Bar. 98651","Wagom Utara, Distrik Fakfak, Kabupaten Fakfak",PAPUA BARAT,98651.0,Indonesia,82397394345.0,-2.9243011,132.2951955,https://maps.google.com/?cid=0x0:0x23df56576f39f9c7
hardware store,hardware store,Fakfak Tim.,"Kabupaten Fakfak, Papua Bar.","Kabupaten Fakfak, Papua Bar.",PAPUA BARAT,,Indonesia,,-3.0285426,132.5901672,https://maps.google.com/?cid=0x0:0x6a0537f2cba21df
hardware store,Pusat Perbelanjaan,Toko Surya Mas,"3894+4WW, Fak Fak Selatan, Distrik Fakfak, Kabupaten Fakfak, Papua Bar. 98611","Fak Fak Selatan, Distrik Fakfak, Kabupaten Fakfak",PAPUA BARAT,98611.0,Indonesia,818728072.0,-2.9321276,132.3073282,https://maps.google.com/?cid=0x0:0x5331cc492f124a58
hardware store,Pusat Perbelanjaan,Toko Langgeng Jaya,"Wagom Utara, Distrik Fakfak, Kabupaten Fakfak, Papua Bar. 98651","Distrik Fakfak, Kabupaten Fakfak",PAPUA BARAT,98651.0,Indonesia,82241598338.0,-2.9248988,132.2949657,https://maps.google.com/?cid=0x0:0x87a54f2d08f9fb99
hardware store,Toko Swalayan,Toko Depo Bangunan,"379V+Q4W, Fak Fak Selatan, Distrik Fakfak, Kabupaten Fakfak, Papua Bar. 98611","Fak Fak Selatan, Distrik Fakfak, Kabupaten Fakfak",PAPUA BARAT,98611.0,Indonesia,81332930235.0,-2.9305033,132.292834,https://maps.google.com/?cid=0x0:0x8845a3bfe8af225c
hardware store,Toko Perlengkapan Rumah,MR.DIY,"Jl. Cendrawasih, Fak Fak Utara, Distrik Fakfak, Kabupaten Fakfak, Papua Bar. 98651","Fak Fak Utara, Distrik Fakfak, Kabupaten Fakfak",PAPUA BARAT,98651.0,Indonesia,,-2.9239974,132.3044706,https://maps.google.com/?cid=0x0:0x413a45d8c6fc38ee
hardware store,Toko Alat Tulis Kantor,Amanda Jaya Fakfak,"Jl. Yos Sudarso, Wagom Sel., Distrik Fakfak, Kabupaten Fakfak, Papua Bar. 98612","Wagom Sel., Distrik Fakfak, Kabupaten Fakfak",PAPUA BARAT,98612.0,Indonesia,85334805443.0,-2.9320011,132.2990614,https://maps.google.com/?cid=0x0:0xf2903ad7d338ed12
hardware store,Toko Bahan Bangunan,TOKO PUTRA UTAMA TANAMA,"37CM+WGR, Jl. Yos Sudarso, Tanama, Distrik Fakfak, Kabupaten Fakfak, Papua Bar. 98614","Jl. Yos Sudarso, Tanama, Distrik Fakfak, Kabupaten Fakfak",PAPUA BARAT,98614.0,Indonesia,,-2.9276309,132.2837622,https://maps.google.com/?cid=0x0:0x3628cc4731e4acc7
hardware store,Toko Bahan Bangunan,Toko Idaman,"387C+43P, Dana Weria, Distrik Fakfak Tengah, Kabupaten Fakfak, Papua Bar. 98611","Dana Weria, Distrik Fakfak Tengah, Kabupaten Fakfak",PAPUA BARAT,98611.0,Indonesia,81233333193.0,-2.9371717,132.3201884,https://maps.google.com/?cid=0x0:0xb250f5bbd07b5204
hardware store,Toko,ABI SHOP FAKFAK,"37GW+73G, Wagom Utara, Distrik Fakfak, Kabupaten Fakfak, Papua Bar. 98651","Wagom Utara, Distrik Fakfak, Kabupaten Fakfak",PAPUA BARAT,98651.0,Indonesia,82397394345.0,-2.9243011,132.2951955,https://maps.google.com/?cid=0x0:0x23df56576f39f9c7
hardware store,Toko Bahan Bangunan,Toko tanjung,"3886+HHX, Gewerpe, Distrik Fakfak, Kabupaten Fakfak, Papua Bar.","Kabupaten Fakfak, Papua Bar.",PAPUA BARAT,,Indonesia,,-2.9335017,132.3114925,https://maps.google.com/?cid=0x0:0x48aeb3b5950163fe
hardware store,Toko Alat Tulis Kantor,baricly copy centre ( photo copy kawasan ),"3892+VWX, Fak Fak Selatan, Distrik Fakfak, Kabupaten Fakfak, Papua Bar. 98651","Fak Fak Selatan, Distrik Fakfak, Kabupaten Fakfak",PAPUA BARAT,98651.0,Indonesia,,-2.9302702,132.3023572,https://maps.google.com/?cid=0x0:0x6e673607c0b04788
hardware store,Pusat Perbelanjaan,Toko Ubadari,"Wagom Utara, Distrik Fakfak, Kabupaten Fakfak, Papua Bar. 98651","Distrik Fakfak, Kabupaten Fakfak",PAPUA BARAT,98651.0,Indonesia,,-2.9288735,132.2944016,https://maps.google.com/?cid=0x0:0x5a0c28d80fdf29bc
hardware store,hardware store,Papua Bar.,,Papua Bar.,PAPUA BARAT,,Indonesia,,-1.3361154,133.1747162,https://maps.google.com/?cid=0x0:0x5349c1f8c5c7cb62
hardware store,hardware store,Online Shop,"SD inpres 46, Malanu, Kec. Sorong Utara, Kota Sorong, Papua Bar. 98412","Malanu, Kec. Sorong Utara, Kota Sorong",PAPUA BARAT,98412.0,Indonesia,,-0.8765726,131.2931923,https://maps.google.com/?cid=0x0:0x2eea083d5532e9a0
hardware store,Toko Bahan Bangunan,Casa Hardware,"575Q+7GR, Mount Hagen Western Highlands Province, Papua Nugini","Mount Hagen, Papua Nugini",PAPUA BARAT,,Indonesia,,-5.8417722,144.288756,https://maps.google.com/?cid=0x0:0x5572b0cd99723bb6
hardware store,hardware store,Papua Bar. 98662,"Kabupaten Fakfak, Papua Bar.","Kabupaten Fakfak, Papua Bar.",PAPUA BARAT,,Indonesia,,-3.097706,133.0194897,https://maps.google.com/?cid=0x0:0xb4392ea87e61dc2a
hardware store,Toko Bahan Bangunan,Parkrose Hardware,"16509 SE 1st St, Vancouver, WA 98684, Amerika Serikat",SE 1st St,PAPUA BARAT,16509.0,Indonesia,13606937881.0,45.6204499,-122.5022229,https://maps.google.com/?cid=0x0:0x551b3971f96b98ed
hardware store,hardware store,Papua Bar.,,Papua Bar.,PAPUA BARAT,,Indonesia,,-1.3361154,133.1747162,https://maps.google.com/?cid=0x0:0x5349c1f8c5c7cb62
hardware store,Toko Bahan Bangunan,Parkrose Hardware,"8000 E Mill Plain Blvd, Vancouver, WA 98664, Amerika Serikat","Vancouver, WA",PAPUA BARAT,98664.0,Indonesia,13604330855.0,45.6258543,-122.5907388,https://maps.google.com/?cid=0x0:0x29776a7825e3386c
hardware store,Toko,ABI SHOP FAKFAK,"37GW+73G, Wagom Utara, Distrik Fakfak, Kabupaten Fakfak, Papua Bar. 98651","Wagom Utara, Distrik Fakfak, Kabupaten Fakfak",PAPUA BARAT,98651.0,Indonesia,82397394345.0,-2.9243011,132.2951955,https://maps.google.com/?cid=0x0:0x23df56576f39f9c7
hardware store,Toko,Abanana.id Fakfak,"379W+87F, Jl. Yos Sudarso, Fak Fak Selatan, Distrik Fakfak, Kabupaten Fakfak, Papua Bar. 98651","Jl. Yos Sudarso, Fak Fak Selatan, Distrik Fakfak, Kabupaten Fakfak",PAPUA BARAT,98651.0,Indonesia,,-2.9316858,132.2956674,https://maps.google.com/?cid=0x0:0xca33a9f8128393d7
hardware store,Toko Perlengkapan Rumah,AZKO Kota Kasablanka,"Kota Kasablanka, Jl. Raya Casablanca No.88, RT.16/RW.5, Menteng Dalam, Kec. Tebet, Kota Jakarta Selatan, Daerah Khusus Ibukota Jakarta 12870","Jl. Raya Casablanca No.88, RT.16/RW.5, Menteng Dalam, Kec. Tebet, Kota Jakarta Selatan",PAPUA BARAT,12870.0,Indonesia,85781411671.0,-6.2222965,106.8423884,https://maps.google.com/?cid=0x0:0x93342bf0e4ddbcb0
hardware store,Toko Elektronik,Electronic City Kota Kasablanka,"Kota Kasablanka, Jl. Raya Casablanca Raya No.Kav.88, RT.14/RW.5, Menteng Dalam, Kec. Tebet, Kota Jakarta Selatan, Daerah Khusus Ibukota Jakarta 12870","Jl. Raya Casablanca Raya No.Kav.88, RT.14/RW.5, Menteng Dalam, Kec. Tebet, Kota Jakarta Selatan",PAPUA BARAT,12870.0,Indonesia,1500032.0,-6.2242215,106.8427073,https://maps.google.com/?cid=0x0:0xf6de648980467b7a
hardware store,Pusat Perbelanjaan,Mall Kota Kasablanka,"Jl. Raya Casablanca No.Kav 88, Menteng Dalam, Kec. Tebet, Kota Jakarta Selatan, Daerah Khusus Ibukota Jakarta 12870","Menteng Dalam, Kec. Tebet, Kota Jakarta Selatan",PAPUA BARAT,12870.0,Indonesia,2129465000.0,-6.2240353,106.8425979,https://maps.google.com/?cid=0x0:0xaf54cb631563acce
hardware store,Toko Perhiasan,Diamond  Co Mall Kota Kasablanka,"Kota Kasablanka, Upper Ground, Menteng Dalam, Kec. Tebet, Jakarta, Daerah Khusus Ibukota Jakarta 12870","Upper Ground, Menteng Dalam, Kec. Tebet, Jakarta",PAPUA BARAT,12870.0,Indonesia,81119160586.0,-6.2236803,106.8420929,https://maps.google.com/?cid=0x0:0x176344089e701906
hardware store,hardware store,Papua Bar. 98652,"Doom Tim., Distrik Sorong Kepulauan, Kota Sorong, Papua Bar.","Kota Sorong, Papua Bar.",PAPUA BARAT,,Indonesia,,-0.9375383,131.254499,https://maps.google.com/?cid=0x0:0x5905364cc30efd0e
hardware store,hardware store,Kramongmongga,"Distrik Kramongmongga, Kabupaten Fakfak, Papua Bar.","Kabupaten Fakfak, Papua Bar.",PAPUA BARAT,,Indonesia,,-2.740824,132.379083,https://maps.google.com/?cid=0x0:0xab9781b7710e9fcb
hardware store,hardware store,Distrik Kramongmongga,"Kabupaten Fakfak, Papua Bar.","Kabupaten Fakfak, Papua Bar.",PAPUA BARAT,,Indonesia,,-2.7329977,132.3367683,https://maps.google.com/?cid=0x0:0x7fc19de8aa000323
hardware store,hardware store,Papua Bar. 98661,"Kabupaten Fakfak, Papua Bar.","Kabupaten Fakfak, Papua Bar.",PAPUA BARAT,,Indonesia,,-2.8087988,132.1177396,https://maps.google.com/?cid=0x0:0x6512126b96febab4
hardware store,Toko Bahan Bangunan,TOKO PUTRA UTAMA TANAMA,"37CM+WGR, Jl. Yos Sudarso, Tanama, Distrik Fakfak, Kabupaten Fakfak, Papua Bar. 98614","Jl. Yos Sudarso, Tanama, Distrik Fakfak, Kabupaten Fakfak",PAPUA BARAT,98614.0,Indonesia,,-2.9276309,132.2837622,https://maps.google.com/?cid=0x0:0x3628cc4731e4acc7
hardware store,Pusat Perbelanjaan,Toko Langgeng Jaya,"Wagom Utara, Distrik Fakfak, Kabupaten Fakfak, Papua Bar. 98651","Distrik Fakfak, Kabupaten Fakfak",PAPUA BARAT,98651.0,Indonesia,82241598338.0,-2.9248988,132.2949657,https://maps.google.com/?cid=0x0:0x87a54f2d08f9fb99
hardware store,Toko Swalayan,Toko Depo Bangunan,"379V+Q4W, Fak Fak Selatan, Distrik Fakfak, Kabupaten Fakfak, Papua Bar. 98611","Fak Fak Selatan, Distrik Fakfak, Kabupaten Fakfak",PAPUA BARAT,98611.0,Indonesia,81332930235.0,-2.9305033,132.292834,https://maps.google.com/?cid=0x0:0x8845a3bfe8af225c
hardware store,Toko Bahan Bangunan,Toko Kayu,"Jalan Tebing Sebrang, Gewerpe, Kabupaten Fakfak, Papua Bar. 98012","Gewerpe, Kabupaten Fakfak",PAPUA BARAT,98012.0,Indonesia,85254291018.0,-2.9275353,132.3127042,https://maps.google.com/?cid=0x0:0x4b220017b6ea9c7e
hardware store,Toko Perlengkapan Rumah,MR.DIY,"Jl. Cendrawasih, Fak Fak Utara, Distrik Fakfak, Kabupaten Fakfak, Papua Bar. 98651","Fak Fak Utara, Distrik Fakfak, Kabupaten Fakfak",PAPUA BARAT,98651.0,Indonesia,,-2.9239974,132.3044706,https://maps.google.com/?cid=0x0:0x413a45d8c6fc38ee
supermarket bangunan,supermarket bangunan,Semenanjung Bomberai,"Bumi Muroh Indah, Bomberay, Kabupaten Fakfak, Papua Bar.","Kabupaten Fakfak, Papua Bar.",PAPUA BARAT,,Indonesia,,-3.0,133.0,https://maps.google.com/?cid=0x0:0x358d63ae92225b78
supermarket bangunan,Toko Bahan Bangunan,Supermarket Multi Bangunan,"Jl Baru No.98, Wai Mhorock, Abepura, Jayapura City, Papua 99225","Wai Mhorock, Abepura, Jayapura City",PAPUA BARAT,99225.0,Indonesia,967588677.0,-2.6077336,140.6742812,https://maps.google.com/?cid=0x0:0x3b19f301c68f1d6f
supermarket bangunan,Toko Swalayan,Toko Depo Bangunan,"379V+Q4W, Fak Fak Selatan, Distrik Fakfak, Kabupaten Fakfak, Papua Bar. 98611","Fak Fak Selatan, Distrik Fakfak, Kabupaten Fakfak",PAPUA BARAT,98611.0,Indonesia,81332930235.0,-2.9305033,132.292834,https://maps.google.com/?cid=0x0:0x8845a3bfe8af225c
supermarket bangunan,Toko Bahan Bangunan,Gudang Toko Depo Bangunan,"37FJ+7G5, Jl. Fakfak - Torea, Tanama, Distrik Fakfak, Kabupaten Fakfak, Papua Bar. 98614","Jl. Fakfak - Torea, Tanama, Distrik Fakfak, Kabupaten Fakfak",PAPUA BARAT,98614.0,Indonesia,,-2.9268666,132.2813702,https://maps.google.com/?cid=0x0:0x605ba6cbab94e804
supermarket bangunan,Toko Bahan Bangunan,TOKO BANGUNAN,"38G3+5PF, Fak Fak Utara, Distrik Fakfak, Kabupaten Fakfak, Papua Bar. 98651","Fak Fak Utara, Distrik Fakfak, Kabupaten Fakfak",PAPUA BARAT,98651.0,Indonesia,83121529512.0,-2.9245593,132.3042975,https://maps.google.com/?cid=0x0:0x3e3de1be5a573a7
supermarket bangunan,Toko Bahan Bangunan,Toko Rahayu Babo,"FF52+F2R, Unnamed Road, Nusei, Babo, Kabupaten Teluk Bintuni, Papua Bar. 98363","Unnamed Road, Nusei, Babo, Kabupaten Teluk Bintuni",PAPUA BARAT,98363.0,Indonesia,85244200777.0,-2.5412733,133.45003,https://maps.google.com/?cid=0x0:0x2d6ca9cad594f391
supermarket bangunan,Toko Bahan Bangunan,Toko Karya Abadi,"WJ4X+24P, Tuasai, Distrik Bintuni, Kabupaten Teluk Bintuni, Papua Bar. 98364","Tuasai, Distrik Bintuni, Kabupaten Teluk Bintuni",PAPUA BARAT,98364.0,Indonesia,82244443838.0,-2.094909,133.6478193,https://maps.google.com/?cid=0x0:0x860a78b44fea4433
supermarket bangunan,Kantor Perusahaan,Pabrik Kelapa Sawit PT. Rimbun Sawit Papua,"V732+JVJ, Bumi Muroh Indah, Bomberay, Kabupaten Fakfak, Papua Bar. 98662","Bumi Muroh Indah, Bomberay, Kabupaten Fakfak",PAPUA BARAT,98662.0,Indonesia,,-3.145909,133.2521507,https://maps.google.com/?cid=0x0:0x9bd8fe6c2c8a3046
supermarket bangunan,Toko Bahan Bangunan,Toko Multi Bangunan,"Jl. Dr. Sam Ratulangi No.26, Oyehe, Distrik Nabire, Kabupaten Nabire, Papua 98811","Oyehe, Distrik Nabire, Kabupaten Nabire",PAPUA BARAT,98811.0,Indonesia,,-3.359637,135.500162,https://maps.google.com/?cid=0x0:0x98ed43eaecd09cca
supermarket bangunan,Toko Bahan Bangunan,Tokoh bagunan fajriani h.m,"WJ3W+GJ5, Tuasai, Distrik Bintuni, Kabupaten Teluk Bintuni, Papua Bar. 98364","Tuasai, Distrik Bintuni, Kabupaten Teluk Bintuni",PAPUA BARAT,98364.0,Indonesia,,-2.0953093,133.6466562,https://maps.google.com/?cid=0x0:0x107c1e110f767af6
supermarket bangunan,Toko Bahan Bangunan,Toko SIGMA BANGUNAN,"37FM+2G5, Jl. Yos Sudarso, Tanama, Distrik Fakfak, Kabupaten Fakfak, Papua Bar. 98614","Jl. Yos Sudarso, Tanama, Distrik Fakfak, Kabupaten Fakfak",PAPUA BARAT,98614.0,Indonesia,,-2.9274959,132.2838546,https://maps.google.com/?cid=0x0:0x896756e6fcb2635d
supermarket bangunan,Toko Bahan Bangunan,Toko Bangunan Ria-Utama,"Unnamed Road, Malaingkedi, Papua Bar. 98412, Malaingkedi, Kecamatan Sorong Manoi, Kota Sorong, Papua Bar. 98412","Malaingkedi, Papua Bar.",PAPUA BARAT,98412.0,Indonesia,82199656081.0,-0.8774608,131.2993409,https://maps.google.com/?cid=0x0:0x6fa2bf791344f50d
supermarket bangunan,Toko Bahan Bangunan,Surya Prima,"Jl. Kelapa Dua Raya Entrop No.18, Entrop, Jayapura Selatan, Jayapura City, Papua 99221","Entrop, Jayapura Selatan, Jayapura City",PAPUA BARAT,99221.0,Indonesia,82199367291.0,-2.5685557,140.7022939,https://maps.google.com/?cid=0x0:0x52a2d9ba8f08d112
supermarket bangunan,Pasar bahan bangunan,Toko Surya Bangunan Jayapura,"JL. Tg Ria, Mandala, Kec. Jayapura Utara, Kota Jayapura, Papua","Kota Jayapura, Papua",PAPUA BARAT,,Indonesia,967542886.0,-2.533,140.717,https://maps.google.com/?cid=0x0:0xeaf29527728b7d48
supermarket bangunan,supermarket bangunan,Papua Bar. 98611,"Kabupaten Fakfak, Papua Bar.","Kabupaten Fakfak, Papua Bar.",PAPUA BARAT,,Indonesia,,-2.9152703,132.4331624,https://maps.google.com/?cid=0x0:0xd346582f482a91e7
supermarket bangunan,Toko Swalayan,Toko Depo Bangunan,"379V+Q4W, Fak Fak Selatan, Distrik Fakfak, Kabupaten Fakfak, Papua Bar. 98611","Fak Fak Selatan, Distrik Fakfak, Kabupaten Fakfak",PAPUA BARAT,98611.0,Indonesia,81332930235.0,-2.9305033,132.292834,https://maps.google.com/?cid=0x0:0x8845a3bfe8af225c
supermarket bangunan,Pusat Perbelanjaan,Toko Surya Mas,"3894+4WW, Fak Fak Selatan, Distrik Fakfak, Kabupaten Fakfak, Papua Bar. 98611","Fak Fak Selatan, Distrik Fakfak, Kabupaten Fakfak",PAPUA BARAT,98611.0,Indonesia,818728072.0,-2.9321276,132.3073282,https://maps.google.com/?cid=0x0:0x5331cc492f124a58
supermarket bangunan,Pusat Perbelanjaan,Toko Langgeng Jaya,"Wagom Utara, Distrik Fakfak, Kabupaten Fakfak, Papua Bar. 98651","Distrik Fakfak, Kabupaten Fakfak",PAPUA BARAT,98651.0,Indonesia,82241598338.0,-2.9248988,132.2949657,https://maps.google.com/?cid=0x0:0x87a54f2d08f9fb99
supermarket bangunan,Toko Bahan Bangunan,Toko Idaman,"387C+43P, Dana Weria, Distrik Fakfak Tengah, Kabupaten Fakfak, Papua Bar. 98611","Dana Weria, Distrik Fakfak Tengah, Kabupaten Fakfak",PAPUA BARAT,98611.0,Indonesia,81233333193.0,-2.9371717,132.3201884,https://maps.google.com/?cid=0x0:0xb250f5bbd07b5204
supermarket bangunan,Toko Bahan Bangunan,DEPO BANGUNAN SINAR MATAHARI,"379X+243, Jl. Fakfak - Torea, Wagom Sel., Distrik Fakfak, Kabupaten Fakfak, Papua Bar. 98651","Jl. Fakfak - Torea, Wagom Sel., Distrik Fakfak, Kabupaten Fakfak",PAPUA BARAT,98651.0,Indonesia,81232387999.0,-2.9324935,132.2978043,https://maps.google.com/?cid=0x0:0x35e53a9d40e95e48
supermarket bangunan,Toko Bahan Bangunan,TOKO BANGUNAN,"38G3+5PF, Fak Fak Utara, Distrik Fakfak, Kabupaten Fakfak, Papua Bar. 98651","Fak Fak Utara, Distrik Fakfak, Kabupaten Fakfak",PAPUA BARAT,98651.0,Indonesia,83121529512.0,-2.9245593,132.3042975,https://maps.google.com/?cid=0x0:0x3e3de1be5a573a7
supermarket bangunan,Toko Bahan Bangunan,Toko SIGMA BANGUNAN,"37FM+2G5, Jl. Yos Sudarso, Tanama, Distrik Fakfak, Kabupaten Fakfak, Papua Bar. 98614","Jl. Yos Sudarso, Tanama, Distrik Fakfak, Kabupaten Fakfak",PAPUA BARAT,98614.0,Indonesia,,-2.9274959,132.2838546,https://maps.google.com/?cid=0x0:0x896756e6fcb2635d
supermarket bangunan,Toko Bahan Bangunan,Gudang Toko Depo Bangunan,"37FJ+7G5, Jl. Fakfak - Torea, Tanama, Distrik Fakfak, Kabupaten Fakfak, Papua Bar. 98614","Jl. Fakfak - Torea, Tanama, Distrik Fakfak, Kabupaten Fakfak",PAPUA BARAT,98614.0,Indonesia,,-2.9268666,132.2813702,https://maps.google.com/?cid=0x0:0x605ba6cbab94e804
supermarket bangunan,Toko Bahan Bangunan,TOKO PUTRA UTAMA TANAMA,"37CM+WGR, Jl. Yos Sudarso, Tanama, Distrik Fakfak, Kabupaten Fakfak, Papua Bar. 98614","Jl. Yos Sudarso, Tanama, Distrik Fakfak, Kabupaten Fakfak",PAPUA BARAT,98614.0,Indonesia,,-2.9276309,132.2837622,https://maps.google.com/?cid=0x0:0x3628cc4731e4acc7
supermarket bangunan,Toko Perlengkapan Rumah,Toko Kaliurang,"3894+9C9, jl izak di dekat Jl. Izaak Telussa, Fak Fak Selatan, Distrik Fakfak, Kabupaten Fakfak, Papua Bar. 98611","jl izak di dekat Jl. Izaak Telussa, Fak Fak Selatan, Distrik Fakfak, Kabupaten Fakfak",PAPUA BARAT,98611.0,Indonesia,81240391452.0,-2.9315795,132.3061148,https://maps.google.com/?cid=0x0:0xc67931c3499554fe
supermarket bangunan,Toko Bahan Bangunan,Toko Kayu,"Jalan Tebing Sebrang, Gewerpe, Kabupaten Fakfak, Papua Bar. 98012","Gewerpe, Kabupaten Fakfak",PAPUA BARAT,98012.0,Indonesia,85254291018.0,-2.9275353,132.3127042,https://maps.google.com/?cid=0x0:0x4b220017b6ea9c7e
supermarket bangunan,Toko Swalayan,Market Matahari,"378X+X3X, JL Kom. L. Yos Sudarso, Fak Fak Utara, Fak Fak, Fak Fak Selatan, Distrik Fakfak, Kabupaten Fakfak, Papua Bar. 98612","JL Kom. L. Yos Sudarso, Fak Fak Utara, Fak Fak, Fak Fak Selatan, Distrik Fakfak, Kabupaten Fakfak",PAPUA BARAT,98612.0,Indonesia,95623257.0,-2.9325067,132.2977351,https://maps.google.com/?cid=0x0:0xfe9e8cfe81278a52
supermarket bangunan,Toko Bahan Bangunan,Gudang Toko Surya Mas,"37CQ+2X6, Wagom Sel., Distrik Fakfak, Kabupaten Fakfak, Papua Bar. 98611","Wagom Sel., Distrik Fakfak, Kabupaten Fakfak",PAPUA BARAT,98611.0,Indonesia,,-2.9299525,132.2899061,https://maps.google.com/?cid=0x0:0x37a642c4931ddf76
supermarket bangunan,supermarket bangunan,Papua Bar. 98661,"Kabupaten Fakfak, Papua Bar.","Kabupaten Fakfak, Papua Bar.",PAPUA BARAT,,Indonesia,,-2.8087988,132.1177396,https://maps.google.com/?cid=0x0:0x6512126b96febab4
supermarket bangunan,Toko Swalayan,Toko Depo Bangunan,"379V+Q4W, Fak Fak Selatan, Distrik Fakfak, Kabupaten Fakfak, Papua Bar. 98611","Fak Fak Selatan, Distrik Fakfak, Kabupaten Fakfak",PAPUA BARAT,98611.0,Indonesia,81332930235.0,-2.9305033,132.292834,https://maps.google.com/?cid=0x0:0x8845a3bfe8af225c
supermarket bangunan,Toko Bahan Bangunan,Toko Bangunan Depo Dewata,"38G2+FXC, Jl. Gajah Mada, Fak Fak Utara, Distrik Fakfak, Kabupaten Fakfak, Papua Bar. 98651","Jl. Gajah Mada, Fak Fak Utara, Distrik Fakfak, Kabupaten Fakfak",PAPUA BARAT,98651.0,Indonesia,81346731165.0,-2.9239262,132.3023407,https://maps.google.com/?cid=0x0:0x6877b3b6dab70059
supermarket bangunan,Toko Bahan Bangunan,Gudang Toko Depo Bangunan,"37FJ+7G5, Jl. Fakfak - Torea, Tanama, Distrik Fakfak, Kabupaten Fakfak, Papua Bar. 98614","Jl. Fakfak - Torea, Tanama, Distrik Fakfak, Kabupaten Fakfak",PAPUA BARAT,98614.0,Indonesia,,-2.9268666,132.2813702,https://maps.google.com/?cid=0x0:0x605ba6cbab94e804
supermarket bangunan,Toko Bahan Bangunan,Toko SIGMA BANGUNAN,"37FM+2G5, Jl. Yos Sudarso, Tanama, Distrik Fakfak, Kabupaten Fakfak, Papua Bar. 98614","Jl. Yos Sudarso, Tanama, Distrik Fakfak, Kabupaten Fakfak",PAPUA BARAT,98614.0,Indonesia,,-2.9274959,132.2838546,https://maps.google.com/?cid=0x0:0x896756e6fcb2635d
supermarket bangunan,Pusat Perbelanjaan,Toko Langgeng Jaya,"Wagom Utara, Distrik Fakfak, Kabupaten Fakfak, Papua Bar. 98651","Distrik Fakfak, Kabupaten Fakfak",PAPUA BARAT,98651.0,Indonesia,82241598338.0,-2.9248988,132.2949657,https://maps.google.com/?cid=0x0:0x87a54f2d08f9fb99
supermarket bangunan,Toko Bahan Bangunan,TOKO BANGUNAN,"38G3+5PF, Fak Fak Utara, Distrik Fakfak, Kabupaten Fakfak, Papua Bar. 98651","Fak Fak Utara, Distrik Fakfak, Kabupaten Fakfak",PAPUA BARAT,98651.0,Indonesia,83121529512.0,-2.9245593,132.3042975,https://maps.google.com/?cid=0x0:0x3e3de1be5a573a7
supermarket bangunan,Toko Bahan Bangunan,DEPO BANGUNAN SINAR MATAHARI,"379X+243, Jl. Fakfak - Torea, Wagom Sel., Distrik Fakfak, Kabupaten Fakfak, Papua Bar. 98651","Jl. Fakfak - Torea, Wagom Sel., Distrik Fakfak, Kabupaten Fakfak",PAPUA BARAT,98651.0,Indonesia,81232387999.0,-2.9324935,132.2978043,https://maps.google.com/?cid=0x0:0x35e53a9d40e95e48
supermarket bangunan,Toko Bahan Bangunan,Gudang Toko Surya Mas,"37CQ+2X6, Wagom Sel., Distrik Fakfak, Kabupaten Fakfak, Papua Bar. 98611","Wagom Sel., Distrik Fakfak, Kabupaten Fakfak",PAPUA BARAT,98611.0,Indonesia,,-2.9299525,132.2899061,https://maps.google.com/?cid=0x0:0x37a642c4931ddf76
supermarket bangunan,Toko Bahan Bangunan,TOKO PUTRA UTAMA TANAMA,"37CM+WGR, Jl. Yos Sudarso, Tanama, Distrik Fakfak, Kabupaten Fakfak, Papua Bar. 98614","Jl. Yos Sudarso, Tanama, Distrik Fakfak, Kabupaten Fakfak",PAPUA BARAT,98614.0,Indonesia,,-2.9276309,132.2837622,https://maps.google.com/?cid=0x0:0x3628cc4731e4acc7
supermarket bangunan,Toko Perlengkapan Rumah,Toko Kaliurang,"3894+9C9, jl izak di dekat Jl. Izaak Telussa, Fak Fak Selatan, Distrik Fakfak, Kabupaten Fakfak, Papua Bar. 98611","jl izak di dekat Jl. Izaak Telussa, Fak Fak Selatan, Distrik Fakfak, Kabupaten Fakfak",PAPUA BARAT,98611.0,Indonesia,81240391452.0,-2.9315795,132.3061148,https://maps.google.com/?cid=0x0:0xc67931c3499554fe
supermarket bangunan,Toko Bahan Bangunan,Toko Kayu,"Jalan Tebing Sebrang, Gewerpe, Kabupaten Fakfak, Papua Bar. 98012","Gewerpe, Kabupaten Fakfak",PAPUA BARAT,98012.0,Indonesia,85254291018.0,-2.9275353,132.3127042,https://maps.google.com/?cid=0x0:0x4b220017b6ea9c7e
supermarket bangunan,Toko Bahan Bangunan,Supermarket Multi Bangunan,"Jl Baru No.98, Wai Mhorock, Abepura, Jayapura City, Papua 99225","Wai Mhorock, Abepura, Jayapura City",PAPUA BARAT,99225.0,Indonesia,967588677.0,-2.6077336,140.6742812,https://maps.google.com/?cid=0x0:0x3b19f301c68f1d6f
supermarket bangunan,Toko Swalayan,Swalayan Meriah,"38C2+36X, Fak Fak Selatan, Distrik Fakfak, Kabupaten Fakfak, Papua Bar. 98651","Fak Fak Selatan, Distrik Fakfak, Kabupaten Fakfak",PAPUA BARAT,98651.0,Indonesia,,-2.9297675,132.3005989,https://maps.google.com/?cid=0x0:0x846190cb35ea475e
supermarket bangunan,supermarket bangunan,Distrik Fakfak Tengah,"Kabupaten Fakfak, Papua Bar.","Kabupaten Fakfak, Papua Bar.",PAPUA BARAT,,Indonesia,,-2.9352442,132.3183355,https://maps.google.com/?cid=0x0:0x4e103c5ed15f609d
supermarket bangunan,Pusat Perbelanjaan,Toko Surya Mas,"3894+4WW, Fak Fak Selatan, Distrik Fakfak, Kabupaten Fakfak, Papua Bar. 98611","Fak Fak Selatan, Distrik Fakfak, Kabupaten Fakfak",PAPUA BARAT,98611.0,Indonesia,818728072.0,-2.9321276,132.3073282,https://maps.google.com/?cid=0x0:0x5331cc492f124a58
supermarket bangunan,Toko Bahan Bangunan,Toko Idaman,"387C+43P, Dana Weria, Distrik Fakfak Tengah, Kabupaten Fakfak, Papua Bar. 98611","Dana Weria, Distrik Fakfak Tengah, Kabupaten Fakfak",PAPUA BARAT,98611.0,Indonesia,81233333193.0,-2.9371717,132.3201884,https://maps.google.com/?cid=0x0:0xb250f5bbd07b5204
supermarket bangunan,Toko Bahan Bangunan,Toko Bangunan Depo Dewata,"38G2+FXC, Jl. Gajah Mada, Fak Fak Utara, Distrik Fakfak, Kabupaten Fakfak, Papua Bar. 98651","Jl. Gajah Mada, Fak Fak Utara, Distrik Fakfak, Kabupaten Fakfak",PAPUA BARAT,98651.0,Indonesia,81346731165.0,-2.9239262,132.3023407,https://maps.google.com/?cid=0x0:0x6877b3b6dab70059
supermarket bangunan,Toko Bahan Bangunan,Gudang Toko Depo Bangunan,"37FJ+7G5, Jl. Fakfak - Torea, Tanama, Distrik Fakfak, Kabupaten Fakfak, Papua Bar. 98614","Jl. Fakfak - Torea, Tanama, Distrik Fakfak, Kabupaten Fakfak",PAPUA BARAT,98614.0,Indonesia,,-2.9268666,132.2813702,https://maps.google.com/?cid=0x0:0x605ba6cbab94e804
supermarket bangunan,Toko Bahan Bangunan,TOKO BANGUNAN,"38G3+5PF, Fak Fak Utara, Distrik Fakfak, Kabupaten Fakfak, Papua Bar. 98651","Fak Fak Utara, Distrik Fakfak, Kabupaten Fakfak",PAPUA BARAT,98651.0,Indonesia,83121529512.0,-2.9245593,132.3042975,https://maps.google.com/?cid=0x0:0x3e3de1be5a573a7
supermarket bangunan,Toko Bahan Bangunan,DEPO BANGUNAN SINAR MATAHARI,"379X+243, Jl. Fakfak - Torea, Wagom Sel., Distrik Fakfak, Kabupaten Fakfak, Papua Bar. 98651","Jl. Fakfak - Torea, Wagom Sel., Distrik Fakfak, Kabupaten Fakfak",PAPUA BARAT,98651.0,Indonesia,81232387999.0,-2.9324935,132.2978043,https://maps.google.com/?cid=0x0:0x35e53a9d40e95e48
supermarket bangunan,Toko Bahan Bangunan,Toko SIGMA BANGUNAN,"37FM+2G5, Jl. Yos Sudarso, Tanama, Distrik Fakfak, Kabupaten Fakfak, Papua Bar. 98614","Jl. Yos Sudarso, Tanama, Distrik Fakfak, Kabupaten Fakfak",PAPUA BARAT,98614.0,Indonesia,,-2.9274959,132.2838546,https://maps.google.com/?cid=0x0:0x896756e6fcb2635d
supermarket bangunan,Pusat Perbelanjaan,Toko Langgeng Jaya,"Wagom Utara, Distrik Fakfak, Kabupaten Fakfak, Papua Bar. 98651","Distrik Fakfak, Kabupaten Fakfak",PAPUA BARAT,98651.0,Indonesia,82241598338.0,-2.9248988,132.2949657,https://maps.google.com/?cid=0x0:0x87a54f2d08f9fb99
supermarket bangunan,Toko Bahan Bangunan,TOKO PUTRA UTAMA TANAMA,"37CM+WGR, Jl. Yos Sudarso, Tanama, Distrik Fakfak, Kabupaten Fakfak, Papua Bar. 98614","Jl. Yos Sudarso, Tanama, Distrik Fakfak, Kabupaten Fakfak",PAPUA BARAT,98614.0,Indonesia,,-2.9276309,132.2837622,https://maps.google.com/?cid=0x0:0x3628cc4731e4acc7
supermarket bangunan,Toko Bahan Bangunan,Toko Kayu,"Jalan Tebing Sebrang, Gewerpe, Kabupaten Fakfak, Papua Bar. 98012","Gewerpe, Kabupaten Fakfak",PAPUA BARAT,98012.0,Indonesia,85254291018.0,-2.9275353,132.3127042,https://maps.google.com/?cid=0x0:0x4b220017b6ea9c7e
supermarket bangunan,Toko Perlengkapan Rumah,Toko Kaliurang,"3894+9C9, jl izak di dekat Jl. Izaak Telussa, Fak Fak Selatan, Distrik Fakfak, Kabupaten Fakfak, Papua Bar. 98611","jl izak di dekat Jl. Izaak Telussa, Fak Fak Selatan, Distrik Fakfak, Kabupaten Fakfak",PAPUA BARAT,98611.0,Indonesia,81240391452.0,-2.9315795,132.3061148,https://maps.google.com/?cid=0x0:0xc67931c3499554fe
supermarket bangunan,Toko Swalayan,"DEWATA STORE CABANG 01 Â· Fak Fak Selatan, Fakfak, Fakfak Regency, West Papua 98611, Indonesia","Fak Fak Selatan, Distrik Fakfak, Kabupaten Fakfak, Papua Bar. 98611","Distrik Fakfak, Kabupaten Fakfak",PAPUA BARAT,98611.0,Indonesia,85233711344.0,-2.9315415,132.305605,https://maps.google.com/?cid=0x0:0xe93a0c40ffaa1941
supermarket bangunan,Toko Swalayan,Market Matahari,"378X+X3X, JL Kom. L. Yos Sudarso, Fak Fak Utara, Fak Fak, Fak Fak Selatan, Distrik Fakfak, Kabupaten Fakfak, Papua Bar. 98612","JL Kom. L. Yos Sudarso, Fak Fak Utara, Fak Fak, Fak Fak Selatan, Distrik Fakfak, Kabupaten Fakfak",PAPUA BARAT,98612.0,Indonesia,95623257.0,-2.9325067,132.2977351,https://maps.google.com/?cid=0x0:0xfe9e8cfe81278a52
supermarket bangunan,supermarket bangunan,Fakfak Tim.,"Kabupaten Fakfak, Papua Bar.","Kabupaten Fakfak, Papua Bar.",PAPUA BARAT,,Indonesia,,-3.0285426,132.5901672,https://maps.google.com/?cid=0x0:0x6a0537f2cba21df
supermarket bangunan,Pusat Perbelanjaan,Toko Surya Mas,"3894+4WW, Fak Fak Selatan, Distrik Fakfak, Kabupaten Fakfak, Papua Bar. 98611","Fak Fak Selatan, Distrik Fakfak, Kabupaten Fakfak",PAPUA BARAT,98611.0,Indonesia,818728072.0,-2.9321276,132.3073282,https://maps.google.com/?cid=0x0:0x5331cc492f124a58
supermarket bangunan,Toko Swalayan,Toko Depo Bangunan,"379V+Q4W, Fak Fak Selatan, Distrik Fakfak, Kabupaten Fakfak, Papua Bar. 98611","Fak Fak Selatan, Distrik Fakfak, Kabupaten Fakfak",PAPUA BARAT,98611.0,Indonesia,81332930235.0,-2.9305033,132.292834,https://maps.google.com/?cid=0x0:0x8845a3bfe8af225c
supermarket bangunan,Toko Bahan Bangunan,Toko Idaman,"387C+43P, Dana Weria, Distrik Fakfak Tengah, Kabupaten Fakfak, Papua Bar. 98611","Dana Weria, Distrik Fakfak Tengah, Kabupaten Fakfak",PAPUA BARAT,98611.0,Indonesia,81233333193.0,-2.9371717,132.3201884,https://maps.google.com/?cid=0x0:0xb250f5bbd07b5204
supermarket bangunan,Toko Bahan Bangunan,Gudang Toko Depo Bangunan,"37FJ+7G5, Jl. Fakfak - Torea, Tanama, Distrik Fakfak, Kabupaten Fakfak, Papua Bar. 98614","Jl. Fakfak - Torea, Tanama, Distrik Fakfak, Kabupaten Fakfak",PAPUA BARAT,98614.0,Indonesia,,-2.9268666,132.2813702,https://maps.google.com/?cid=0x0:0x605ba6cbab94e804
supermarket bangunan,Pusat Perbelanjaan,Toko Langgeng Jaya,"Wagom Utara, Distrik Fakfak, Kabupaten Fakfak, Papua Bar. 98651","Distrik Fakfak, Kabupaten Fakfak",PAPUA BARAT,98651.0,Indonesia,82241598338.0,-2.9248988,132.2949657,https://maps.google.com/?cid=0x0:0x87a54f2d08f9fb99
supermarket bangunan,Toko Bahan Bangunan,DEPO BANGUNAN SINAR MATAHARI,"379X+243, Jl. Fakfak - Torea, Wagom Sel., Distrik Fakfak, Kabupaten Fakfak, Papua Bar. 98651","Jl. Fakfak - Torea, Wagom Sel., Distrik Fakfak, Kabupaten Fakfak",PAPUA BARAT,98651.0,Indonesia,81232387999.0,-2.9324935,132.2978043,https://maps.google.com/?cid=0x0:0x35e53a9d40e95e48
supermarket bangunan,Toko Bahan Bangunan,Toko SIGMA BANGUNAN,"37FM+2G5, Jl. Yos Sudarso, Tanama, Distrik Fakfak, Kabupaten Fakfak, Papua Bar. 98614","Jl. Yos Sudarso, Tanama, Distrik Fakfak, Kabupaten Fakfak",PAPUA BARAT,98614.0,Indonesia,,-2.9274959,132.2838546,https://maps.google.com/?cid=0x0:0x896756e6fcb2635d
supermarket bangunan,Toko Bahan Bangunan,TOKO BANGUNAN,"38G3+5PF, Fak Fak Utara, Distrik Fakfak, Kabupaten Fakfak, Papua Bar. 98651","Fak Fak Utara, Distrik Fakfak, Kabupaten Fakfak",PAPUA BARAT,98651.0,Indonesia,83121529512.0,-2.9245593,132.3042975,https://maps.google.com/?cid=0x0:0x3e3de1be5a573a7
supermarket bangunan,Toko Bahan Bangunan,TOKO PUTRA UTAMA TANAMA,"37CM+WGR, Jl. Yos Sudarso, Tanama, Distrik Fakfak, Kabupaten Fakfak, Papua Bar. 98614","Jl. Yos Sudarso, Tanama, Distrik Fakfak, Kabupaten Fakfak",PAPUA BARAT,98614.0,Indonesia,,-2.9276309,132.2837622,https://maps.google.com/?cid=0x0:0x3628cc4731e4acc7
supermarket bangunan,Toko Bahan Bangunan,Toko Kayu,"Jalan Tebing Sebrang, Gewerpe, Kabupaten Fakfak, Papua Bar. 98012","Gewerpe, Kabupaten Fakfak",PAPUA BARAT,98012.0,Indonesia,85254291018.0,-2.9275353,132.3127042,https://maps.google.com/?cid=0x0:0x4b220017b6ea9c7e
supermarket bangunan,Toko Perlengkapan Rumah,Toko Kaliurang,"3894+9C9, jl izak di dekat Jl. Izaak Telussa, Fak Fak Selatan, Distrik Fakfak, Kabupaten Fakfak, Papua Bar. 98611","jl izak di dekat Jl. Izaak Telussa, Fak Fak Selatan, Distrik Fakfak, Kabupaten Fakfak",PAPUA BARAT,98611.0,Indonesia,81240391452.0,-2.9315795,132.3061148,https://maps.google.com/?cid=0x0:0xc67931c3499554fe
supermarket bangunan,Toko Swalayan,Market Matahari,"378X+X3X, JL Kom. L. Yos Sudarso, Fak Fak Utara, Fak Fak, Fak Fak Selatan, Distrik Fakfak, Kabupaten Fakfak, Papua Bar. 98612","JL Kom. L. Yos Sudarso, Fak Fak Utara, Fak Fak, Fak Fak Selatan, Distrik Fakfak, Kabupaten Fakfak",PAPUA BARAT,98612.0,Indonesia,95623257.0,-2.9325067,132.2977351,https://maps.google.com/?cid=0x0:0xfe9e8cfe81278a52
supermarket bangunan,Toko Bahan Bangunan,Gudang Toko Surya Mas,"37CQ+2X6, Wagom Sel., Distrik Fakfak, Kabupaten Fakfak, Papua Bar. 98611","Wagom Sel., Distrik Fakfak, Kabupaten Fakfak",PAPUA BARAT,98611.0,Indonesia,,-2.9299525,132.2899061,https://maps.google.com/?cid=0x0:0x37a642c4931ddf76
supermarket bangunan,supermarket bangunan,Papua Bar.,,Papua Bar.,PAPUA BARAT,,Indonesia,,-1.3361154,133.1747162,https://maps.google.com/?cid=0x0:0x5349c1f8c5c7cb62
supermarket bangunan,Toko Bahan Bangunan,DEPO BANGUNAN SINAR MATAHARI,"379X+243, Jl. Fakfak - Torea, Wagom Sel., Distrik Fakfak, Kabupaten Fakfak, Papua Bar. 98651","Jl. Fakfak - Torea, Wagom Sel., Distrik Fakfak, Kabupaten Fakfak",PAPUA BARAT,98651.0,Indonesia,81232387999.0,-2.9324935,132.2978043,https://maps.google.com/?cid=0x0:0x35e53a9d40e95e48
supermarket bangunan,Toko Swalayan,Toko Depo Bangunan,"379V+Q4W, Fak Fak Selatan, Distrik Fakfak, Kabupaten Fakfak, Papua Bar. 98611","Fak Fak Selatan, Distrik Fakfak, Kabupaten Fakfak",PAPUA BARAT,98611.0,Indonesia,81332930235.0,-2.9305033,132.292834,https://maps.google.com/?cid=0x0:0x8845a3bfe8af225c
supermarket bangunan,Toko Bahan Bangunan,Supermarket Multi Bangunan,"Jl Baru No.98, Wai Mhorock, Abepura, Jayapura City, Papua 99225","Wai Mhorock, Abepura, Jayapura City",PAPUA BARAT,99225.0,Indonesia,967588677.0,-2.6077336,140.6742812,https://maps.google.com/?cid=0x0:0x3b19f301c68f1d6f
supermarket bangunan,Toko Bahan Bangunan,Toko Bangunan Depo Dewata,"38G2+FXC, Jl. Gajah Mada, Fak Fak Utara, Distrik Fakfak, Kabupaten Fakfak, Papua Bar. 98651","Jl. Gajah Mada, Fak Fak Utara, Distrik Fakfak, Kabupaten Fakfak",PAPUA BARAT,98651.0,Indonesia,81346731165.0,-2.9239262,132.3023407,https://maps.google.com/?cid=0x0:0x6877b3b6dab70059
supermarket bangunan,Toko Bahan Bangunan,PAPUA BANGUNAN,"42GX+945, Wosi, Kec. Manokwari Bar., Kabupaten Manokwari, Papua Bar. 98312","Wosi, Kec. Manokwari Bar., Kabupaten Manokwari",PAPUA BARAT,98312.0,Indonesia,82198055550.0,-0.874101,134.0478473,https://maps.google.com/?cid=0x0:0x2c3683b193d9430f
supermarket bangunan,Toko Bahan Bangunan,TOKO BANGUNAN,"38G3+5PF, Fak Fak Utara, Distrik Fakfak, Kabupaten Fakfak, Papua Bar. 98651","Fak Fak Utara, Distrik Fakfak, Kabupaten Fakfak",PAPUA BARAT,98651.0,Indonesia,83121529512.0,-2.9245593,132.3042975,https://maps.google.com/?cid=0x0:0x3e3de1be5a573a7
supermarket bangunan,Pemasok Bahan Bangunan,Toko bangunan Sumber Makmur,"32CM+75G, Jl. Manokwari - Maruni, Anday, Distrik Manokwari, Kabupaten Manokwari, Papua Bar. 98315","Jl. Manokwari - Maruni, Anday, Distrik Manokwari, Kabupaten Manokwari",PAPUA BARAT,98315.0,Indonesia,8114846060.0,-0.9293075,134.0329487,https://maps.google.com/?cid=0x0:0xa0a85c7270dde255
supermarket bangunan,Toko Bahan Bangunan,Gudang Toko Depo Bangunan,"37FJ+7G5, Jl. Fakfak - Torea, Tanama, Distrik Fakfak, Kabupaten Fakfak, Papua Bar. 98614","Jl. Fakfak - Torea, Tanama, Distrik Fakfak, Kabupaten Fakfak",PAPUA BARAT,98614.0,Indonesia,,-2.9268666,132.2813702,https://maps.google.com/?cid=0x0:0x605ba6cbab94e804
supermarket bangunan,Grosir bahan konstruksi,Supermarket Sumber Bangunan,"J5GG+HC7, Sukamahi, Kec. Cikarang Pusat, Kabupaten Bekasi, Jawa Barat 17530","Sukamahi, Kec. Cikarang Pusat, Kabupaten Bekasi",PAPUA BARAT,17530.0,Indonesia,,-6.3735753,107.1760423,https://maps.google.com/?cid=0x0:0x6a22acadf7672133
supermarket bangunan,Toko Bahan Bangunan,Supermarket bahan bangunan,"V5F7+6MP, Jl. Ciwaru Raya II, Cipare, Kec. Serang, Kota Serang, Banten 42117","Jl. Ciwaru Raya II, Cipare, Kec. Serang, Kota Serang",PAPUA BARAT,42117.0,Indonesia,,-6.1269098,106.1642094,https://maps.google.com/?cid=0x0:0x53d26cf4a6530615
supermarket bangunan,supermarket bangunan,Supermarket Bahan Bangunan,"Jl. Raya Sawangan No.3, RT.3/RW.1, Mampang, Kec. Pancoran Mas, Kota Depok, Jawa Barat 16433","RT.3/RW.1, Mampang, Kec. Pancoran Mas, Kota Depok",PAPUA BARAT,16433.0,Indonesia,,-6.3956904,106.8033472,https://maps.google.com/?cid=0x0:0xbf85e2787e32635c
supermarket bangunan,supermarket bangunan,Papua Bar. 98662,"Kabupaten Fakfak, Papua Bar.","Kabupaten Fakfak, Papua Bar.",PAPUA BARAT,,Indonesia,,-3.097706,133.0194897,https://maps.google.com/?cid=0x0:0xb4392ea87e61dc2a
supermarket bangunan,Toko Swalayan,Toko Depo Bangunan,"379V+Q4W, Fak Fak Selatan, Distrik Fakfak, Kabupaten Fakfak, Papua Bar. 98611","Fak Fak Selatan, Distrik Fakfak, Kabupaten Fakfak",PAPUA BARAT,98611.0,Indonesia,81332930235.0,-2.9305033,132.292834,https://maps.google.com/?cid=0x0:0x8845a3bfe8af225c
supermarket bangunan,Toko Bahan Bangunan,DEPO BANGUNAN SINAR MATAHARI,"379X+243, Jl. Fakfak - Torea, Wagom Sel., Distrik Fakfak, Kabupaten Fakfak, Papua Bar. 98651","Jl. Fakfak - Torea, Wagom Sel., Distrik Fakfak, Kabupaten Fakfak",PAPUA BARAT,98651.0,Indonesia,81232387999.0,-2.9324935,132.2978043,https://maps.google.com/?cid=0x0:0x35e53a9d40e95e48
supermarket bangunan,Toko Bahan Bangunan,Gudang Toko Depo Bangunan,"37FJ+7G5, Jl. Fakfak - Torea, Tanama, Distrik Fakfak, Kabupaten Fakfak, Papua Bar. 98614","Jl. Fakfak - Torea, Tanama, Distrik Fakfak, Kabupaten Fakfak",PAPUA BARAT,98614.0,Indonesia,,-2.9268666,132.2813702,https://maps.google.com/?cid=0x0:0x605ba6cbab94e804
supermarket bangunan,Toko Bahan Bangunan,TOKO BANGUNAN,"38G3+5PF, Fak Fak Utara, Distrik Fakfak, Kabupaten Fakfak, Papua Bar. 98651","Fak Fak Utara, Distrik Fakfak, Kabupaten Fakfak",PAPUA BARAT,98651.0,Indonesia,83121529512.0,-2.9245593,132.3042975,https://maps.google.com/?cid=0x0:0x3e3de1be5a573a7
supermarket bangunan,supermarket bangunan,Papua Bar.,,Papua Bar.,PAPUA BARAT,,Indonesia,,-1.3361154,133.1747162,https://maps.google.com/?cid=0x0:0x5349c1f8c5c7cb62
supermarket bangunan,Toko Bahan Bangunan,Toko SIGMA BANGUNAN,"37FM+2G5, Jl. Yos Sudarso, Tanama, Distrik Fakfak, Kabupaten Fakfak, Papua Bar. 98614","Jl. Yos Sudarso, Tanama, Distrik Fakfak, Kabupaten Fakfak",PAPUA BARAT,98614.0,Indonesia,,-2.9274959,132.2838546,https://maps.google.com/?cid=0x0:0x896756e6fcb2635d
supermarket bangunan,Grosir bahan konstruksi,Supermarket Sumber Bangunan,"J5GG+HC7, Sukamahi, Kec. Cikarang Pusat, Kabupaten Bekasi, Jawa Barat 17530","Sukamahi, Kec. Cikarang Pusat, Kabupaten Bekasi",PAPUA BARAT,17530.0,Indonesia,,-6.3735753,107.1760423,https://maps.google.com/?cid=0x0:0x6a22acadf7672133
supermarket bangunan,supermarket bangunan,,,,PAPUA BARAT,,Indonesia,85947000018.0,-6.2297465,106.829518,https://maps.google.com/?cid=0x0:0xa1da7ae6dc5969f4
supermarket bangunan,supermarket bangunan,Supermarket Bahan Bangunan,"Jl. Raya Sawangan No.3, RT.3/RW.1, Mampang, Kec. Pancoran Mas, Kota Depok, Jawa Barat 16433","RT.3/RW.1, Mampang, Kec. Pancoran Mas, Kota Depok",PAPUA BARAT,16433.0,Indonesia,,-6.3956904,106.8033472,https://maps.google.com/?cid=0x0:0xbf85e2787e32635c
supermarket bangunan,Toko Bahan Bangunan,DEPO BANGUNAN SINAR MATAHARI,"379X+243, Jl. Fakfak - Torea, Wagom Sel., Distrik Fakfak, Kabupaten Fakfak, Papua Bar. 98651","Jl. Fakfak - Torea, Wagom Sel., Distrik Fakfak, Kabupaten Fakfak",PAPUA BARAT,98651.0,Indonesia,81232387999.0,-2.9324935,132.2978043,https://maps.google.com/?cid=0x0:0x35e53a9d40e95e48
supermarket bangunan,Toko Swalayan,Toko Depo Bangunan,"379V+Q4W, Fak Fak Selatan, Distrik Fakfak, Kabupaten Fakfak, Papua Bar. 98611","Fak Fak Selatan, Distrik Fakfak, Kabupaten Fakfak",PAPUA BARAT,98611.0,Indonesia,81332930235.0,-2.9305033,132.292834,https://maps.google.com/?cid=0x0:0x8845a3bfe8af225c
supermarket bangunan,Toko Perlengkapan Rumah,AZKO Kota Kasablanka,"Kota Kasablanka, Jl. Raya Casablanca No.88, RT.16/RW.5, Menteng Dalam, Kec. Tebet, Kota Jakarta Selatan, Daerah Khusus Ibukota Jakarta 12870","Jl. Raya Casablanca No.88, RT.16/RW.5, Menteng Dalam, Kec. Tebet, Kota Jakarta Selatan",PAPUA BARAT,12870.0,Indonesia,85781411671.0,-6.2222965,106.8423884,https://maps.google.com/?cid=0x0:0x93342bf0e4ddbcb0
supermarket bangunan,Pusat Perbelanjaan,Miniso Kota Kasablanka,"QRGR+RXC, Kota Kasablanka LG, Jl. Raya Casablanca, RT.2/RW.14, Menteng Dalam, Tebet, South Jakarta City, Jakarta 12960","Kota Kasablanka LG, Jl. Raya Casablanca, RT.2/RW.14, Menteng Dalam, Tebet, South Jakarta City",PAPUA BARAT,12960.0,Indonesia,,-6.2229401,106.8423964,https://maps.google.com/?cid=0x0:0x30bbf82860a6ae1b
supermarket bangunan,Toko Perlengkapan Rumah,MINISO TRANSMART KOTA KASABLANKA,"Kota Kasablanka, Mall Jl. Raya Casablanca lantai LG, RT.2/RW.14, Menteng Dalam, Kec. Tebet, Kota Jakarta Selatan, Daerah Khusus Ibukota Jakarta 12960","Mall Jl. Raya Casablanca lantai LG, RT.2/RW.14, Menteng Dalam, Kec. Tebet, Kota Jakarta Selatan",PAPUA BARAT,12960.0,Indonesia,,-6.222827,106.8428202,https://maps.google.com/?cid=0x0:0x406c9edd87747208
supermarket bangunan,Toko Sepatu,Payless Kota Cassablanca,"KOTA KASABLANKA Lt. 1 Jl. Casablanca Raya Kav. 88, RT.7/RW.11, Menteng Dalam, Kec. Tebet, Kota Jakarta Selatan, Daerah Khusus Ibukota Jakarta 12870","RT.7/RW.11, Menteng Dalam, Kec. Tebet, Kota Jakarta Selatan",PAPUA BARAT,12870.0,Indonesia,2129465025.0,-6.223628,106.8431401,https://maps.google.com/?cid=0x0:0x15ad0033f552e17b
supermarket bangunan,Pusat Perbelanjaan,Mall Kota Kasablanka,"Jl. Raya Casablanca No.Kav 88, Menteng Dalam, Kec. Tebet, Kota Jakarta Selatan, Daerah Khusus Ibukota Jakarta 12870","Menteng Dalam, Kec. Tebet, Kota Jakarta Selatan",PAPUA BARAT,12870.0,Indonesia,2129465000.0,-6.2240353,106.8425979,https://maps.google.com/?cid=0x0:0xaf54cb631563acce
supermarket bangunan,Toko Mainan,Top Toy Kota Kasablanka,"Mall Jl. Raya Casablanca No.43, Menteng Dalam, Kec. Tebet, Kota Jakarta Selatan, Daerah Khusus Ibukota Jakarta 12870","Menteng Dalam, Kec. Tebet, Kota Jakarta Selatan",PAPUA BARAT,12870.0,Indonesia,,-6.2233157,106.8426633,https://maps.google.com/?cid=0x0:0x39e25a8c5289d360
supermarket bangunan,Toko Perlengkapan Olahraga,ASICS,"MALL KOTA KASABLANKA LT. 1 Jl. Casablanca Raya Kav. 88, Jl. Raya Casablanca, RT.7/RW.11, Menteng Dalam, Kec. Tebet, Kota Jakarta Selatan, Daerah Khusus Ibukota Jakarta 12870","Jl. Raya Casablanca, RT.7/RW.11, Menteng Dalam, Kec. Tebet, Kota Jakarta Selatan",PAPUA BARAT,12870.0,Indonesia,2129612744.0,-6.2237715,106.8424444,https://maps.google.com/?cid=0x0:0x4e95d91066b9ed50
supermarket bangunan,Masjid,"Musholla Lantai Basement2, Kota Kasablanka","Kota Kasablanka Lantai Basement2, RT.14/RW.5, Menteng Dalam, Kec. Tebet, Kota Jakarta Selatan, Daerah Khusus Ibukota Jakarta 12960","RT.14/RW.5, Menteng Dalam, Kec. Tebet, Kota Jakarta Selatan",PAPUA BARAT,12960.0,Indonesia,,-6.2242044,106.8434419,https://maps.google.com/?cid=0x0:0x8fa5fa9ef713c6bb
supermarket bangunan,Toko Pakaian dan Peralatan Luar Ruangan,HARDWARE - Kota Kasablanka,"Kota Kasablanka, Jl. Makmur 1 No.19 16, RT.2/RW.5, Menteng Dalam, Kec. Tebet, Kota Jakarta Selatan, Daerah Khusus Ibukota Jakarta 12870","Jl. Makmur 1 No.19 16, RT.2/RW.5, Menteng Dalam, Kec. Tebet, Kota Jakarta Selatan",PAPUA BARAT,12870.0,Indonesia,,-6.2229478,106.8423143,https://maps.google.com/?cid=0x0:0x983a015440bc0878
supermarket bangunan,Toko Pakaian,HM Kota Kasablanka,"Kota Casablanka Jl. Raya Casablanca No.56 Unit# G51, Raya, Jakarta, South Jakarta City, Banten 12870","Raya, Jakarta, South Jakarta City",PAPUA BARAT,12870.0,Indonesia,2129475102.0,-6.2238651,106.8428624,https://maps.google.com/?cid=0x0:0xbc49ac86f3b627f9
supermarket bangunan,Toko Alat Kecantikan,Bath  Body Works - Mall Kota Kasablanka,"Kota Kasablanka, Jl. Raya Casablanca No.88 Unit U06, RT.16/RW.5, Menteng Dalam, Kec. Tebet, Kota Jakarta Selatan, Daerah Khusus Ibukota Jakarta 12870","Jl. Raya Casablanca No.88 Unit U06, RT.16/RW.5, Menteng Dalam, Kec. Tebet, Kota Jakarta Selatan",PAPUA BARAT,12870.0,Indonesia,2129488757.0,-6.2239444,106.8433191,https://maps.google.com/?cid=0x0:0x9b38f1a2c2281e57
supermarket bangunan,Toko Pakaian,Buttonscarves,"Kota Kasablanka IU-LG.09.10, Jl. Raya Casablanca No.Raya, RT.16/RW.5, Menteng Dalam, Tebet, South Jakarta City, Jakarta 12870","Jl. Raya Casablanca No.Raya, RT.16/RW.5, Menteng Dalam, Tebet, South Jakarta City",PAPUA BARAT,12870.0,Indonesia,,-6.222626,106.842517,https://maps.google.com/?cid=0x0:0x5c9380a8d596ba3d
supermarket bangunan,supermarket bangunan,Papua Bar. 98652,"Doom Tim., Distrik Sorong Kepulauan, Kota Sorong, Papua Bar.","Kota Sorong, Papua Bar.",PAPUA BARAT,,Indonesia,,-0.9375383,131.254499,https://maps.google.com/?cid=0x0:0x5905364cc30efd0e
supermarket bangunan,Toko Bahan Bangunan,Toko SIGMA BANGUNAN,"37FM+2G5, Jl. Yos Sudarso, Tanama, Distrik Fakfak, Kabupaten Fakfak, Papua Bar. 98614","Jl. Yos Sudarso, Tanama, Distrik Fakfak, Kabupaten Fakfak",PAPUA BARAT,98614.0,Indonesia,,-2.9274959,132.2838546,https://maps.google.com/?cid=0x0:0x896756e6fcb2635d
supermarket bangunan,Toko Swalayan,Toko Depo Bangunan,"379V+Q4W, Fak Fak Selatan, Distrik Fakfak, Kabupaten Fakfak, Papua Bar. 98611","Fak Fak Selatan, Distrik Fakfak, Kabupaten Fakfak",PAPUA BARAT,98611.0,Indonesia,81332930235.0,-2.9305033,132.292834,https://maps.google.com/?cid=0x0:0x8845a3bfe8af225c
supermarket bangunan,Minimarket,SAGA Supermarket  Dept. Store,"Jalan A. Yani, Ruko Kuda Laut, Klademak, Kecamatan Sorong Manoi, Kota Sorong, Papua Bar. 98414","Ruko Kuda Laut, Klademak, Kecamatan Sorong Manoi, Kota Sorong",PAPUA BARAT,98414.0,Indonesia,951322784.0,-0.8765248,131.2576755,https://maps.google.com/?cid=0x0:0x963043ed646a7e1e
supermarket bangunan,Toko Bahan Bangunan,TOKO BANGUNAN,"38G3+5PF, Fak Fak Utara, Distrik Fakfak, Kabupaten Fakfak, Papua Bar. 98651","Fak Fak Utara, Distrik Fakfak, Kabupaten Fakfak",PAPUA BARAT,98651.0,Indonesia,83121529512.0,-2.9245593,132.3042975,https://maps.google.com/?cid=0x0:0x3e3de1be5a573a7
supermarket bangunan,Toko Perlengkapan Rumah,JEFRI SUPPLIER BAHAN BANGUNAN,"Jl. Industri Jl. Rw. Bogo, Pasir Mukti, Kec. Citeureup, Kabupaten Bogor Jawa Barat 16810, Kabupaten Bogor, Jawa Barat 16811","Pasir Mukti, Kec. Citeureup, Kabupaten Bogor Jawa Barat",PAPUA BARAT,16810.0,Indonesia,85747107419.0,-6.5023051,106.8983691,https://maps.google.com/?cid=0x0:0x817997c380156414
supermarket bangunan,Toko Perlengkapan Rumah,Toko Bangunan Mekar Jaya,"FVRX+M35, Pasir Mukti, Kec. Citeureup, Kabupaten Bogor, Jawa Barat 16810","Pasir Mukti, Kec. Citeureup, Kabupaten Bogor",PAPUA BARAT,16810.0,Indonesia,,-6.5083633,106.897739,https://maps.google.com/?cid=0x0:0xcf86c9bb6248d188
supermarket bangunan,supermarket bangunan,Papua Bar. 98661,"Kabupaten Fakfak, Papua Bar.","Kabupaten Fakfak, Papua Bar.",PAPUA BARAT,,Indonesia,,-2.8087988,132.1177396,https://maps.google.com/?cid=0x0:0x6512126b96febab4
supermarket bangunan,Toko Swalayan,Toko Depo Bangunan,"379V+Q4W, Fak Fak Selatan, Distrik Fakfak, Kabupaten Fakfak, Papua Bar. 98611","Fak Fak Selatan, Distrik Fakfak, Kabupaten Fakfak",PAPUA BARAT,98611.0,Indonesia,81332930235.0,-2.9305033,132.292834,https://maps.google.com/?cid=0x0:0x8845a3bfe8af225c
supermarket bangunan,Toko Bahan Bangunan,Gudang Toko Depo Bangunan,"37FJ+7G5, Jl. Fakfak - Torea, Tanama, Distrik Fakfak, Kabupaten Fakfak, Papua Bar. 98614","Jl. Fakfak - Torea, Tanama, Distrik Fakfak, Kabupaten Fakfak",PAPUA BARAT,98614.0,Indonesia,,-2.9268666,132.2813702,https://maps.google.com/?cid=0x0:0x605ba6cbab94e804
supermarket bangunan,Toko Bahan Bangunan,DEPO BANGUNAN SINAR MATAHARI,"379X+243, Jl. Fakfak - Torea, Wagom Sel., Distrik Fakfak, Kabupaten Fakfak, Papua Bar. 98651","Jl. Fakfak - Torea, Wagom Sel., Distrik Fakfak, Kabupaten Fakfak",PAPUA BARAT,98651.0,Indonesia,81232387999.0,-2.9324935,132.2978043,https://maps.google.com/?cid=0x0:0x35e53a9d40e95e48
supermarket bangunan,Toko Bahan Bangunan,Toko SIGMA BANGUNAN,"37FM+2G5, Jl. Yos Sudarso, Tanama, Distrik Fakfak, Kabupaten Fakfak, Papua Bar. 98614","Jl. Yos Sudarso, Tanama, Distrik Fakfak, Kabupaten Fakfak",PAPUA BARAT,98614.0,Indonesia,,-2.9274959,132.2838546,https://maps.google.com/?cid=0x0:0x896756e6fcb2635d
supermarket bangunan,Toko Bahan Bangunan,TOKO PUTRA UTAMA TANAMA,"37CM+WGR, Jl. Yos Sudarso, Tanama, Distrik Fakfak, Kabupaten Fakfak, Papua Bar. 98614","Jl. Yos Sudarso, Tanama, Distrik Fakfak, Kabupaten Fakfak",PAPUA BARAT,98614.0,Indonesia,,-2.9276309,132.2837622,https://maps.google.com/?cid=0x0:0x3628cc4731e4acc7
supermarket bangunan,Pusat Perbelanjaan,Toko Surya Mas,"3894+4WW, Fak Fak Selatan, Distrik Fakfak, Kabupaten Fakfak, Papua Bar. 98611","Fak Fak Selatan, Distrik Fakfak, Kabupaten Fakfak",PAPUA BARAT,98611.0,Indonesia,818728072.0,-2.9321276,132.3073282,https://maps.google.com/?cid=0x0:0x5331cc492f124a58
supermarket bangunan,Pusat Perbelanjaan,Toko Langgeng Jaya,"Wagom Utara, Distrik Fakfak, Kabupaten Fakfak, Papua Bar. 98651","Distrik Fakfak, Kabupaten Fakfak",PAPUA BARAT,98651.0,Indonesia,82241598338.0,-2.9248988,132.2949657,https://maps.google.com/?cid=0x0:0x87a54f2d08f9fb99
supermarket bangunan,Toko Bahan Bangunan,TOKO BANGUNAN,"38G3+5PF, Fak Fak Utara, Distrik Fakfak, Kabupaten Fakfak, Papua Bar. 98651","Fak Fak Utara, Distrik Fakfak, Kabupaten Fakfak",PAPUA BARAT,98651.0,Indonesia,83121529512.0,-2.9245593,132.3042975,https://maps.google.com/?cid=0x0:0x3e3de1be5a573a7
supermarket bangunan,Toko Bahan Bangunan,Supermarket Multi Bangunan,"Jl Baru No.98, Wai Mhorock, Abepura, Jayapura City, Papua 99225","Wai Mhorock, Abepura, Jayapura City",PAPUA BARAT,99225.0,Indonesia,967588677.0,-2.6077336,140.6742812,https://maps.google.com/?cid=0x0:0x3b19f301c68f1d6f
supermarket bangunan,Toko Swalayan,Market Matahari,"378X+X3X, JL Kom. L. Yos Sudarso, Fak Fak Utara, Fak Fak, Fak Fak Selatan, Distrik Fakfak, Kabupaten Fakfak, Papua Bar. 98612","JL Kom. L. Yos Sudarso, Fak Fak Utara, Fak Fak, Fak Fak Selatan, Distrik Fakfak, Kabupaten Fakfak",PAPUA BARAT,98612.0,Indonesia,95623257.0,-2.9325067,132.2977351,https://maps.google.com/?cid=0x0:0xfe9e8cfe81278a52
supermarket bangunan,Toko Perlengkapan Rumah,Toko Kaliurang,"3894+9C9, jl izak di dekat Jl. Izaak Telussa, Fak Fak Selatan, Distrik Fakfak, Kabupaten Fakfak, Papua Bar. 98611","jl izak di dekat Jl. Izaak Telussa, Fak Fak Selatan, Distrik Fakfak, Kabupaten Fakfak",PAPUA BARAT,98611.0,Indonesia,81240391452.0,-2.9315795,132.3061148,https://maps.google.com/?cid=0x0:0xc67931c3499554fe
supermarket bangunan,Toko Bahan Bangunan,Gudang Toko Surya Mas,"37CQ+2X6, Wagom Sel., Distrik Fakfak, Kabupaten Fakfak, Papua Bar. 98611","Wagom Sel., Distrik Fakfak, Kabupaten Fakfak",PAPUA BARAT,98611.0,Indonesia,,-2.9299525,132.2899061,https://maps.google.com/?cid=0x0:0x37a642c4931ddf76
supermarket bangunan,Toko Bahan Bangunan,Toko Kayu,"Jalan Tebing Sebrang, Gewerpe, Kabupaten Fakfak, Papua Bar. 98012","Gewerpe, Kabupaten Fakfak",PAPUA BARAT,98012.0,Indonesia,85254291018.0,-2.9275353,132.3127042,https://maps.google.com/?cid=0x0:0x4b220017b6ea9c7e
