Category;Real Category;Business Name;Address;City;State;Postal Code;Country;Phone;Latitude;Longitude;Map Link
"mall";"mall";"Kec. Atu Lintang";"Kabupaten Aceh Tengah, Aceh";"Kabupaten Aceh Tengah, Aceh";"ACEH";"";"Indonesia";"";"4.4471548";"96.7737666";"https://maps.google.com/?cid=0x0:0x628bebcc216373e8"
"mall";"Grosir elektronik";"Pasar Atu Lintang";"CQXF+G9Q, Atu Lintang, Kec. Atu Lintang, Kabupaten Aceh Tengah, Aceh 24563";"Atu Lintang, Kec. Atu Lintang, Kabupaten Aceh Tengah";"ACEH";"24563";"Indonesia";"";"4.4488441";"96.7734981";"https://maps.google.com/?cid=0x0:0x971c078bb2a9156b"
"mall";"Pusat Perbelanjaan";"ALEA Shop";"FQ4F+JP2, Atu Lintang, Kec. Atu Lintang, Kabupaten Aceh Tengah, Aceh 24563";"Atu Lintang, Kec. Atu Lintang, Kabupaten Aceh Tengah";"ACEH";"24563";"Indonesia";"";"4.4564627";"96.7743641";"https://maps.google.com/?cid=0x0:0x5bbee1ef29770c40"
"mall";"Pusat Perbelanjaan";"Toko Ucok";"FQ7Q+M4W, Merah Mege, Kec. Atu Lintang, Kabupaten Aceh Tengah, Aceh 24563";"Merah Mege, Kec. Atu Lintang, Kabupaten Aceh Tengah";"ACEH";"24563";"Indonesia";"";"4.4642269";"96.7878161";"https://maps.google.com/?cid=0x0:0x2893dac82745b298"
"mall";"Kantor Perusahaan";"Pasar Merah Mege";"FQ6M+VP9, Merah Mege, Kec. Atu Lintang, Kabupaten Aceh Tengah, Aceh 24563";"Merah Mege, Kec. Atu Lintang, Kabupaten Aceh Tengah";"ACEH";"24563";"Indonesia";"";"4.4621511";"96.7843665";"https://maps.google.com/?cid=0x0:0x56a8e3de0224734a"
"mall";"Pusat Perbelanjaan";"Toko akmal";"FQ4F+MRV, Jl. Takengon - Blangkejeren II, Atu Lintang, Kec. Atu Lintang, Kabupaten Aceh Tengah, Aceh 24563";"Jl. Takengon - Blangkejeren II, Atu Lintang, Kec. Atu Lintang, Kabupaten Aceh Tengah";"ACEH";"24563";"Indonesia";"";"4.4567418";"96.7745616";"https://maps.google.com/?cid=0x0:0x994dd9e61089c376"
"mall";"Pusat Perbelanjaan";"toko zaki";"CRX5+X3H, Tanoh Abu, Kec. Atu Lintang, Kabupaten Aceh Tengah, Aceh 24563";"Tanoh Abu, Kec. Atu Lintang, Kabupaten Aceh Tengah";"ACEH";"24563";"Indonesia";" 082294972045";"4.4499277";"96.8077418";"https://maps.google.com/?cid=0x0:0x3bc0d2e774f16e9d"
"mall";"Pusat Perbelanjaan";"UD ONE GEMASIH";"Tanoh Abu, Kec. Atu Lintang, Kabupaten Aceh Tengah, Aceh 24563";"Kec. Atu Lintang, Kabupaten Aceh Tengah";"ACEH";"24563";"Indonesia";"";"4.4520625";"96.8078125";"https://maps.google.com/?cid=0x0:0x268e0137549d7a23"
"mall";"Pusat Perbelanjaan";"UMi Zaky Ols .olshop";"Merah Jernang, Kec. Atu Lintang, Kabupaten Aceh Tengah, Aceh 24563";"Kec. Atu Lintang, Kabupaten Aceh Tengah";"ACEH";"24563";"Indonesia";"";"4.4605533";"96.8176146";"https://maps.google.com/?cid=0x0:0xc4da99c7a2f0e1ba"
"mall";"Toko";"UD. ALMAHYRA";"FR68+FGP, Merah Jernang, Kec. Atu Lintang, Kabupaten Aceh Tengah, Aceh 24563";"Merah Jernang, Kec. Atu Lintang, Kabupaten Aceh Tengah";"ACEH";"24563";"Indonesia";"";"4.4612249";"96.8163432";"https://maps.google.com/?cid=0x0:0x60216366be53f5b5"
"mall";"Pusat Perbelanjaan";"ayam potong bu asnawati";"FQ4F+JRF, Atu Lintang, Kec. Atu Lintang, Kabupaten Aceh Tengah, Aceh 24563";"Atu Lintang, Kec. Atu Lintang, Kabupaten Aceh Tengah";"ACEH";"24563";"Indonesia";" 085250973329";"4.456553";"96.7745315";"https://maps.google.com/?cid=0x0:0xe5ef40e194cfdff9"
"mall";"Kantor Pemerintah";"Kantor Camat Atu Lintang";"FQ7P+649, Merah Mege, Kec. Atu Lintang, Kabupaten Aceh Tengah, Aceh 24563";"Merah Mege, Kec. Atu Lintang, Kabupaten Aceh Tengah";"ACEH";"24563";"Indonesia";"";"4.4630479";"96.7853531";"https://maps.google.com/?cid=0x0:0xae15c0e462c55eac"
"mall";"Kantor Pemerintah";"Kantor Desa Damar Mulyo";"CQM9+WH6 Damar Mulyo, Atu Lintang, Kec. Atu Lintang, Kabupaten Aceh Tengah, Aceh 24563";"Atu Lintang, Kec. Atu Lintang, Kabupaten Aceh Tengah";"ACEH";"24563";"Indonesia";"";"4.4347978";"96.7689021";"https://maps.google.com/?cid=0x0:0x979ed832cc71f684"
"mall";"Sekolah Dasar";"S D N 1 Atu Lintang";"CQXC+FFM, Atu Lintang, Kec. Atu Lintang, Kabupaten Aceh Tengah, Aceh 24563";"Atu Lintang, Kec. Atu Lintang, Kabupaten Aceh Tengah";"ACEH";"24563";"Indonesia";"";"4.4487104";"96.7711582";"https://maps.google.com/?cid=0x0:0x1c1fc2d46ebb1d74"
"mall";"mall";"Kec. Bebesen";"Kabupaten Aceh Tengah, Aceh";"Kabupaten Aceh Tengah, Aceh";"ACEH";"";"Indonesia";"";"4.6302813";"96.8522896";"https://maps.google.com/?cid=0x0:0xee869ea2be8289e9"
"mall";"Toko";"Shopping Point Takengon";"Jl. Sengeda, Nunang Antara, Kec. Bebesen, Kabupaten Aceh Tengah, Aceh 24552";"Nunang Antara, Kec. Bebesen, Kabupaten Aceh Tengah";"ACEH";"24552";"Indonesia";" 082365691992";"4.6322175";"96.8526307";"https://maps.google.com/?cid=0x0:0x45fce3a4291d12a"
"mall";"Toko Ponsel";"BP Cellular";"Jl. Terminal Paya Ilang, Blang Kolak II, Kec. Bebesen, Kabupaten Aceh Tengah, Aceh 24471";"Blang Kolak II, Kec. Bebesen, Kabupaten Aceh Tengah";"ACEH";"24471";"Indonesia";" 082166923561";"4.6255598";"96.83423";"https://maps.google.com/?cid=0x0:0x2f0edef229ffa213"
"mall";"Bengkel Sepeda Motor";"mulya motor";"Jl. HM Hasan Gayo No.8, Takengon Tim., Kec. Bebesen, Kabupaten Aceh Tengah, Aceh 24552";"Takengon Tim., Kec. Bebesen, Kabupaten Aceh Tengah";"ACEH";"24552";"Indonesia";" 081248690091";"4.6245361";"96.8510831";"https://maps.google.com/?cid=0x0:0x7cc3b31c729ed8d4"
"mall";"Lembaga Keuangan";"Komplek Baitul.mall Aceh Tengah";"JR6V+7RF, Asir Asir, Kec. Lut Tawar, Kabupaten Aceh Tengah, Aceh 24519";"Asir Asir, Kec. Lut Tawar, Kabupaten Aceh Tengah";"ACEH";"24519";"Indonesia";"";"4.6106877";"96.8445344";"https://maps.google.com/?cid=0x0:0x6af556d73a7879f6"
"mall";"Toko";"Toko Republik Sembako";"Jl. Yos Sudarso, Blang Kolak II, Kec. Bebesen, Kabupaten Aceh Tengah, Aceh 24471";"Blang Kolak II, Kec. Bebesen, Kabupaten Aceh Tengah";"ACEH";"24471";"Indonesia";" 082160161026";"4.624167";"96.8348337";"https://maps.google.com/?cid=0x0:0xc2bea0b57fb56115"
"mall";"Toko Aksesori Ponsel";"OUTLET GAIB REBORN";"Mongal, Kec. Kebayakan, Kabupaten Aceh Tengah, Aceh 24552";"Kec. Kebayakan, Kabupaten Aceh Tengah";"ACEH";"24552";"Indonesia";" 085270707878";"4.6488779";"96.8341642";"https://maps.google.com/?cid=0x0:0xa47075e824638229"
"mall";"Toko Swalayan";"dubai 21 serba 35000";"Jl. Sengeda, Takengon Tim., Kec. Lut Tawar, Kabupaten Aceh Tengah, Aceh 24511";"Takengon Tim., Kec. Lut Tawar, Kabupaten Aceh Tengah";"ACEH";"24511";"Indonesia";" 082171783226";"4.6238501";"96.8511765";"https://maps.google.com/?cid=0x0:0xfcbe9d8c804a8233"
"mall";"Pusat Perbelanjaan";"Kota sultan";"JR87+3XF, Jl. Yos Sudarso, Uning, Kec. Pegasing, Kabupaten Aceh Tengah, Aceh 24471";"Jl. Yos Sudarso, Uning, Kec. Pegasing, Kabupaten Aceh Tengah";"ACEH";"24471";"Indonesia";" 085277730844";"4.6151789";"96.81492";"https://maps.google.com/?cid=0x0:0xf2c62a5d73723884"
"mall";"Arena Bermain Anak-Anak";"Cabang BELTEX'S Mall";"JRCX+JW8, Takengon Tim., Kec. Lut Tawar, Kabupaten Aceh Tengah, Aceh 24519";"Takengon Tim., Kec. Lut Tawar, Kabupaten Aceh Tengah";"ACEH";"24519";"Indonesia";"";"4.6215492";"96.8497917";"https://maps.google.com/?cid=0x0:0xbbdf58396fab943e"
"mall";"Toko Ikan Tropis";"Market aquarium";"JRPV+6WC, Jl. Abdul Wahab, Simpang Empat, Kec. Bebesen, Kabupaten Aceh Tengah, Aceh 24519";"Jl. Abdul Wahab, Simpang Empat, Kec. Bebesen, Kabupaten Aceh Tengah";"ACEH";"24519";"Indonesia";" 082160169388";"4.6355433";"96.8446999";"https://maps.google.com/?cid=0x0:0xabb55f7a399d41d2"
"mall";"Pusat Perbelanjaan";"Toko Gembira";"Pendere Saril, Kec. Bebesen, Kabupaten Aceh Tengah, Aceh 24471";"Kec. Bebesen, Kabupaten Aceh Tengah";"ACEH";"24471";"Indonesia";"";"4.6188663";"96.8238465";"https://maps.google.com/?cid=0x0:0xe4ab2e6826ea2272"
"mall";"Toko Pakaian";"Image Anugerah Takengon";"JRFX+R5Q, Unnamed Road, Bale Atu, Kec. Lut Tawar, Kabupaten Aceh Tengah, Aceh 24519";"Unnamed Road, Bale Atu, Kec. Lut Tawar, Kabupaten Aceh Tengah";"ACEH";"24519";"Indonesia";"";"4.6245954";"96.8479988";"https://maps.google.com/?cid=0x0:0x9035b5006c6aa567"
"mall";"Toko Elektronik";"The Real Acc";"Jl. Qurata Aini No.96, Nunang Antara, Kec. Bebesen, Kabupaten Aceh Tengah, Aceh 24519";"Nunang Antara, Kec. Bebesen, Kabupaten Aceh Tengah";"ACEH";"24519";"Indonesia";" 082284327297";"4.6372098";"96.8474455";"https://maps.google.com/?cid=0x0:0x1789df8703ea7d9b"
"mall";"mall";"Kec. Bies";"Kabupaten Aceh Tengah, Aceh";"Kabupaten Aceh Tengah, Aceh";"ACEH";"";"Indonesia";"";"4.6053524";"96.7887047";"https://maps.google.com/?cid=0x0:0x7a713d24d00a3f00"
"mall";"Pusat Perbelanjaan";"Kota sultan";"JR87+3XF, Jl. Yos Sudarso, Uning, Kec. Pegasing, Kabupaten Aceh Tengah, Aceh 24471";"Jl. Yos Sudarso, Uning, Kec. Pegasing, Kabupaten Aceh Tengah";"ACEH";"24471";"Indonesia";" 085277730844";"4.6151789";"96.81492";"https://maps.google.com/?cid=0x0:0xf2c62a5d73723884"
"mall";"Toko Ponsel";"BP Cellular";"Jl. Terminal Paya Ilang, Blang Kolak II, Kec. Bebesen, Kabupaten Aceh Tengah, Aceh 24471";"Blang Kolak II, Kec. Bebesen, Kabupaten Aceh Tengah";"ACEH";"24471";"Indonesia";" 082166923561";"4.6255598";"96.83423";"https://maps.google.com/?cid=0x0:0x2f0edef229ffa213"
"mall";"Pusat Perbelanjaan";"Toko Gembira";"Pendere Saril, Kec. Bebesen, Kabupaten Aceh Tengah, Aceh 24471";"Kec. Bebesen, Kabupaten Aceh Tengah";"ACEH";"24471";"Indonesia";"";"4.6188663";"96.8238465";"https://maps.google.com/?cid=0x0:0xe4ab2e6826ea2272"
"mall";"Toko Aksesori Ponsel";"OUTLET GAIB REBORN";"Mongal, Kec. Kebayakan, Kabupaten Aceh Tengah, Aceh 24552";"Kec. Kebayakan, Kabupaten Aceh Tengah";"ACEH";"24552";"Indonesia";" 085270707878";"4.6488779";"96.8341642";"https://maps.google.com/?cid=0x0:0xa47075e824638229"
"mall";"Pusat Perbelanjaan";"Plaza Aceh";"Jl. T. Hasan Dek Jl. Teuku Iskandar No.49, Beurawe, Kec. Kuta Alam, Kota Banda Aceh, Aceh 23127";"Beurawe, Kec. Kuta Alam, Kota Banda Aceh";"ACEH";"23127";"Indonesia";" 08116899890";"5.5547881";"95.3308683";"https://maps.google.com/?cid=0x0:0x45c9eb2ec9e62a76"
"mall";"Pusat Perbelanjaan";"Mw ayam";"JR99+5RG, Jl. Yos Sudarso, Uning, Pegasing, Pendere Saril, Kec. Bebesen, Kabupaten Aceh Tengah, Aceh 24471";"Jl. Yos Sudarso, Uning, Pegasing, Pendere Saril, Kec. Bebesen, Kabupaten Aceh Tengah";"ACEH";"24471";"Indonesia";" 082112124701";"4.61793";"96.819567";"https://maps.google.com/?cid=0x0:0x4bee2f8f469cc772"
"mall";"Toko";"Toko Republik Sembako";"Jl. Yos Sudarso, Blang Kolak II, Kec. Bebesen, Kabupaten Aceh Tengah, Aceh 24471";"Blang Kolak II, Kec. Bebesen, Kabupaten Aceh Tengah";"ACEH";"24471";"Indonesia";" 082160161026";"4.624167";"96.8348337";"https://maps.google.com/?cid=0x0:0xc2bea0b57fb56115"
"mall";"Toko Herbal";"HERBALIFE TAKENGON (Coach Silvi)";"Polsek, Bur Biah, Kec. Bebesen, Kabupaten Aceh Tengah, Aceh 24471";"Bur Biah, Kec. Bebesen, Kabupaten Aceh Tengah";"ACEH";"24471";"Indonesia";" 085260787080";"4.6318598";"96.8212776";"https://maps.google.com/?cid=0x0:0xa5f0ba44ee60362c"
"mall";"Toko Swalayan";"Suzuya Mall Banda Aceh";"Jl. Teuku Umar, Lamtemen Tim., Kec. Jaya Baru, Kota Banda Aceh, Aceh 23232";"Lamtemen Tim., Kec. Jaya Baru, Kota Banda Aceh";"ACEH";"23232";"Indonesia";" 06518011022";"5.5377324";"95.3068005";"https://maps.google.com/?cid=0x0:0xc5c56efc74442dea"
"mall";"Toko Suvenir";"Kedai Alfarizi";"Jl. Soekarno - Hatta No.kampung, Kebet, Kec. Bebesen, Kabupaten Aceh Tengah, Aceh 24471";"Kebet, Kec. Bebesen, Kabupaten Aceh Tengah";"ACEH";"24471";"Indonesia";"";"4.6407668";"96.8343015";"https://maps.google.com/?cid=0x0:0x97b8739ad8ef191b"
"mall";"Toko Barang Pecah Belah";"Kana Rahmat Pecah Belah";"JRGM+2VC, Blang Kolak II, Kec. Bebesen, Kabupaten Aceh Tengah, Aceh 24471";"Blang Kolak II, Kec. Bebesen, Kabupaten Aceh Tengah";"ACEH";"24471";"Indonesia";" 082273876195";"4.6250529";"96.8346409";"https://maps.google.com/?cid=0x0:0x5a8718a1762347e1"
"mall";"Pusat Perbelanjaan";"HINONASHOP TAKENGON";"JRGM+29V, Takengon Tim, Kec. Lut Tawar, Kabupaten Aceh Tengah, Aceh 24519";"Takengon Tim, Kec. Lut Tawar, Kabupaten Aceh Tengah";"ACEH";"24519";"Indonesia";" 082292947817";"4.6250487";"96.8334692";"https://maps.google.com/?cid=0x0:0x81e0167ced74ee58"
"mall";"mall";"Malio. Galery Grupel Gayo";"JR24+X78, Simpang Lukup Badak, Kec. Bies, Kabupaten Aceh Tengah, Aceh 24552";"Simpang Lukup Badak, Kec. Bies, Kabupaten Aceh Tengah";"ACEH";"24552";"Indonesia";"";"4.6024163";"96.8056958";"https://maps.google.com/?cid=0x0:0x25822c5bfbc32454"
"mall";"mall";"Aceh 24571";"Aceh";"Aceh";"ACEH";"";"Indonesia";"";"4.507827";"97.0283383";"https://maps.google.com/?cid=0x0:0x77a6c4861552772a"
"mall";"";"BBI Sentral Toweren";"HVWV+6H2, Toweren Antara, Kec. Lut Tawar, Kabupaten Aceh Tengah, Aceh";"Kabupaten Aceh Tengah, Aceh";"ACEH";"";"Indonesia";"";"4.5955102";"96.893891";"https://maps.google.com/?cid=0x0:0xaaf0c45e5619a98b"
"mall";"Toko Swalayan";"Suzuya Mall Banda Aceh";"Jl. Teuku Umar, Lamtemen Tim., Kec. Jaya Baru, Kota Banda Aceh, Aceh 23232";"Lamtemen Tim., Kec. Jaya Baru, Kota Banda Aceh";"ACEH";"23232";"Indonesia";" 06518011022";"5.5377324";"95.3068005";"https://maps.google.com/?cid=0x0:0xc5c56efc74442dea"
"mall";"Toko Kerajinan Tangan";"Bintang kerawang,nola armay";"JRMQ+RX9, Jalan keding, karang, Kec. Bebesen, Kabupaten Aceh Tengah, Aceh 24471";"Jalan keding, karang, Kec. Bebesen, Kabupaten Aceh Tengah";"ACEH";"24471";"Indonesia";" 085270328203";"4.6345368";"96.8399902";"https://maps.google.com/?cid=0x0:0x255eaf83c2bb1304"
"mall";"Pusat Perbelanjaan";"Kota sultan";"JR87+3XF, Jl. Yos Sudarso, Uning, Kec. Pegasing, Kabupaten Aceh Tengah, Aceh 24471";"Jl. Yos Sudarso, Uning, Kec. Pegasing, Kabupaten Aceh Tengah";"ACEH";"24471";"Indonesia";" 085277730844";"4.6151789";"96.81492";"https://maps.google.com/?cid=0x0:0xf2c62a5d73723884"
"mall";"Pusat Perbelanjaan";"Plaza Aceh";"Jl. T. Hasan Dek Jl. Teuku Iskandar No.49, Beurawe, Kec. Kuta Alam, Kota Banda Aceh, Aceh 23127";"Beurawe, Kec. Kuta Alam, Kota Banda Aceh";"ACEH";"23127";"Indonesia";" 08116899890";"5.5547881";"95.3308683";"https://maps.google.com/?cid=0x0:0x45c9eb2ec9e62a76"
"mall";"Toko Pakaian";"Pusat Pasar Loak Monza";"JVF4+9C7, Takengon Tim., Kec. Lut Tawar, Kabupaten Aceh Tengah, Aceh 24519";"Takengon Tim., Kec. Lut Tawar, Kabupaten Aceh Tengah";"ACEH";"24519";"Indonesia";"";"4.6234146";"96.8560531";"https://maps.google.com/?cid=0x0:0xa78a4f13d796c627"
"mall";"Komplek perumahan";"RH LAS";"Timangan Gading, Kec. Kebayakan, Kabupaten Aceh Tengah, Aceh 24471";"Kec. Kebayakan, Kabupaten Aceh Tengah";"ACEH";"24471";"Indonesia";" 082283879086";"4.6516335";"96.8396909";"https://maps.google.com/?cid=0x0:0xa1643e5d54fe7a31"
"mall";"Toko";"Pusat Oleh-oleh Tapai Ubi";"FVFF+P7G, Kute Robel, Kec. Linge, Kabupaten Aceh Tengah, Aceh 24563";"Kute Robel, Kec. Linge, Kabupaten Aceh Tengah";"ACEH";"24563";"Indonesia";"";"4.4743226";"96.873196";"https://maps.google.com/?cid=0x0:0x21f0e977fd71c92b"
"mall";"Toko";"Shopping Point Takengon";"Jl. Sengeda, Nunang Antara, Kec. Bebesen, Kabupaten Aceh Tengah, Aceh 24552";"Nunang Antara, Kec. Bebesen, Kabupaten Aceh Tengah";"ACEH";"24552";"Indonesia";" 082365691992";"4.6322175";"96.8526307";"https://maps.google.com/?cid=0x0:0x45fce3a4291d12a"
"mall";"Toko Swalayan";"dubai 21 serba 35000";"Jl. Sengeda, Takengon Tim., Kec. Lut Tawar, Kabupaten Aceh Tengah, Aceh 24511";"Takengon Tim., Kec. Lut Tawar, Kabupaten Aceh Tengah";"ACEH";"24511";"Indonesia";" 082171783226";"4.6238501";"96.8511765";"https://maps.google.com/?cid=0x0:0xfcbe9d8c804a8233"
"mall";"Pusat Perbelanjaan";"Toko Asia";"MRPM+8J7, Simpang Teritit, Kec. Wih Pesam, Kabupaten Bener Meriah, Aceh 24471";"Simpang Teritit, Kec. Wih Pesam, Kabupaten Bener Meriah";"ACEH";"24471";"Indonesia";" 082272322303";"4.685788";"96.8340399";"https://maps.google.com/?cid=0x0:0xa9f012586104f679"
"mall";"Kantor Perusahaan";"BANDAR - PONDOK BARU";"QW46+3WR, Janarata, Kec. Bandar, Kabupaten Bener Meriah, Aceh 24582";"Janarata, Kec. Bandar, Kabupaten Bener Meriah";"ACEH";"24582";"Indonesia";"";"4.7552496";"96.9122779";"https://maps.google.com/?cid=0x0:0xb155b569084f9c83"
"mall";"Toko Kerajinan Tangan";"OLA KERAWANG  ADHA ART";"Jl. Pd. Baru No.24581, Simpang Teritit, Kec. Bukit, Kabupaten Bener Meriah, Aceh 24581";"Simpang Teritit, Kec. Bukit, Kabupaten Bener Meriah";"ACEH";"24581";"Indonesia";"";"4.6940391";"96.8587279";"https://maps.google.com/?cid=0x0:0xfa5de0d8aa7f1331"
"mall";"Pusat Perbelanjaan";"Kota sultan";"JR87+3XF, Jl. Yos Sudarso, Uning, Kec. Pegasing, Kabupaten Aceh Tengah, Aceh 24471";"Jl. Yos Sudarso, Uning, Kec. Pegasing, Kabupaten Aceh Tengah";"ACEH";"24471";"Indonesia";" 085277730844";"4.6151789";"96.81492";"https://maps.google.com/?cid=0x0:0xf2c62a5d73723884"
"mall";"Pusat Perbelanjaan";"Raja Nya Santan";"JVQ4+H65, Jl. Peteri Pukes, Lot Kala, Kec. Kebayakan, Kabupaten Aceh Tengah, Aceh 24519";"Jl. Peteri Pukes, Lot Kala, Kec. Kebayakan, Kabupaten Aceh Tengah";"ACEH";"24519";"Indonesia";" 081298478082";"4.6388985";"96.8556115";"https://maps.google.com/?cid=0x0:0x1d987917a6c3a350"
"mall";"mall";"Kec. Celala";"Kabupaten Aceh Tengah, Aceh";"Kabupaten Aceh Tengah, Aceh";"ACEH";"";"Indonesia";"";"4.5891291";"96.6866223";"https://maps.google.com/?cid=0x0:0xdbbaad28c14a7d60"
"mall";"Pasar";"Angkup";"JPCC+MWJ, Jl. Angkup - Rusip, Pepayungen Angkup, Kec. Silih Nara, Kabupaten Aceh Tengah, Aceh 24773";"Jl. Angkup - Rusip, Pepayungen Angkup, Kec. Silih Nara, Kabupaten Aceh Tengah";"ACEH";"24773";"Indonesia";"";"4.6217043";"96.7222603";"https://maps.google.com/?cid=0x0:0x3126af42b67b1d8b"
"mall";"Toko";"toko DRP IBUK ATIK";"JP5X+27F, Burni Bius Baru, Kec. Silih Nara, Kabupaten Aceh Tengah, Aceh 24568";"Burni Bius Baru, Kec. Silih Nara, Kabupaten Aceh Tengah";"ACEH";"24568";"Indonesia";" 082201234567";"4.6075728";"96.748162";"https://maps.google.com/?cid=0x0:0x7aa2a976b071ff0f"
"mall";"Pusat Perbelanjaan";"Wijaya Makmur";"JPCF+M3F, Pepayungen Angkup, Kec. Silih Nara, Kabupaten Aceh Tengah, Aceh 24773";"Pepayungen Angkup, Kec. Silih Nara, Kabupaten Aceh Tengah";"ACEH";"24773";"Indonesia";"";"4.621677";"96.7226687";"https://maps.google.com/?cid=0x0:0xfc06339935291b56"
"mall";"Pasar";"Berkah Buah";"JPCF+J9P, Pepayungen Angkup, Kec. Silih Nara, Kabupaten Aceh Tengah, Aceh 24773";"Pepayungen Angkup, Kec. Silih Nara, Kabupaten Aceh Tengah";"ACEH";"24773";"Indonesia";" 085275233977";"4.6215842";"96.7234576";"https://maps.google.com/?cid=0x0:0xad95ce788adf403c"
"mall";"Pusat Perbelanjaan";"ANEKA BARU";"JPCF+Q29, Jl. Genting-Angkup, Pepayungen Angkup, Kec. Silih Nara, Kabupaten Aceh Tengah, Aceh 24773";"Jl. Genting-Angkup, Pepayungen Angkup, Kec. Silih Nara, Kabupaten Aceh Tengah";"ACEH";"24773";"Indonesia";" 085213134682";"4.6219215";"96.7226155";"https://maps.google.com/?cid=0x0:0x28ee3677caece5fe"
"mall";"Gudang";"UD ALBI BAROKAH";"JJ2M+3WP, Rusip, Kec. Rusip Antara, Kabupaten Aceh Tengah, Aceh 24552";"Rusip, Kec. Rusip Antara, Kabupaten Aceh Tengah";"ACEH";"24552";"Indonesia";" 082364996190";"4.6002188";"96.6348299";"https://maps.google.com/?cid=0x0:0xda32737e826b35f0"
"mall";"Pusat Perbelanjaan";"toko jabal nur angkop";"JPCF+X23, Pepayungen Angkup, Kec. Silih Nara, Kabupaten Aceh Tengah, Aceh 24773";"Pepayungen Angkup, Kec. Silih Nara, Kabupaten Aceh Tengah";"ACEH";"24773";"Indonesia";" 082272346296";"4.6223795";"96.7225554";"https://maps.google.com/?cid=0x0:0xd3f71088f6a6f0b1"
"mall";"Toko bahan makanan";"UD Bg An Sar ( Kebun Percontohan)";"GQ3H+9JX, Jl. Takengon - Blangkejeren II, Jejem, Kec. Pegasing, Kabupaten Aceh Tengah, Aceh 24561";"Jl. Takengon - Blangkejeren II, Jejem, Kec. Pegasing, Kabupaten Aceh Tengah";"ACEH";"24561";"Indonesia";" 085277098906";"4.5034936";"96.7791175";"https://maps.google.com/?cid=0x0:0x138541aa53749096"
"mall";"Toko Bahan Bangunan";"Toko besi maju jaya";"JPCF+Q6G, Jl. Angkup - Belang Mancung, Pepayungen Angkup, Kec. Silih Nara, Kabupaten Aceh Tengah, Aceh 24773";"Jl. Angkup - Belang Mancung, Pepayungen Angkup, Kec. Silih Nara, Kabupaten Aceh Tengah";"ACEH";"24773";"Indonesia";"";"4.6219477";"96.7230833";"https://maps.google.com/?cid=0x0:0x39a92957f3dc1b09"
"mall";"Toko Makanan";"UD OZIEL";"JMF9+VQ6jerata, Kec. Silih Nara, Kabupaten Aceh Tengah, Aceh";"Kabupaten Aceh Tengah, Aceh";"ACEH";"";"Indonesia";" 085361525352";"4.6242039";"96.6698519";"https://maps.google.com/?cid=0x0:0xb28a96db2db9a9a9"
"mall";"Toko Pakaian";"Image Anugerah Takengon";"JRFX+R5Q, Unnamed Road, Bale Atu, Kec. Lut Tawar, Kabupaten Aceh Tengah, Aceh 24519";"Unnamed Road, Bale Atu, Kec. Lut Tawar, Kabupaten Aceh Tengah";"ACEH";"24519";"Indonesia";"";"4.6245954";"96.8479988";"https://maps.google.com/?cid=0x0:0x9035b5006c6aa567"
"mall";"mall";"Kec. Jagong Jeget";"Kabupaten Aceh Tengah, Aceh";"Kabupaten Aceh Tengah, Aceh";"ACEH";"";"Indonesia";"";"4.3753143";"96.7564258";"https://maps.google.com/?cid=0x0:0xd1981acbde368f04"
"mall";"Pusat Perbelanjaan";"Ud Japar Grosir Dan Eceran";"9QGF+VVC, lorong 2, Jagong, Kec. Jagong Jeget, Kabupaten Aceh Tengah, Aceh 24563";"lorong 2, Jagong, Kec. Jagong Jeget, Kabupaten Aceh Tengah";"ACEH";"24563";"Indonesia";" 085358610123";"4.3771774";"96.7746541";"https://maps.google.com/?cid=0x0:0xde5845dd361389df"
"mall";"Toko bahan makanan";"KIOS";"9QHF+MG2, Jl. Takengon - Blangkejeren II, Jagong, Kec. Jagong Jeget, Kabupaten Aceh Tengah, Aceh 24563";"Jl. Takengon - Blangkejeren II, Jagong, Kec. Jagong Jeget, Kabupaten Aceh Tengah";"ACEH";"24563";"Indonesia";" 082287000216";"4.3791494";"96.7737795";"https://maps.google.com/?cid=0x0:0x2d8cabde90676a23"
"mall";"Pusat Perbelanjaan";"TOKO MAS JASA INDAH";"9QG5+GRM, Unnamed Road, Jeget Ayu, Kec. Jagong Jeget, Kabupaten Aceh Tengah, Aceh 24563";"Unnamed Road, Jeget Ayu, Kec. Jagong Jeget, Kabupaten Aceh Tengah";"ACEH";"24563";"Indonesia";" 085358659241";"4.3763432";"96.7595551";"https://maps.google.com/?cid=0x0:0x128dc50fbad4186a"
"mall";"Toko umum";"Pasar Sabtu Jagong Jeget";"9QF5+PHW, Paya Tungel, Kec. Jagong Jeget, Kabupaten Aceh Tengah, Aceh 24563";"Paya Tungel, Kec. Jagong Jeget, Kabupaten Aceh Tengah";"ACEH";"24563";"Indonesia";"";"4.3743655";"96.7589575";"https://maps.google.com/?cid=0x0:0x244cb423672abfda"
"mall";"Toko";"TOKO AGUS DEWANGGA";"Bukit Sari, Kec. Jagong Jeget, Kabupaten Aceh Tengah, Aceh 24563";"Kec. Jagong Jeget, Kabupaten Aceh Tengah";"ACEH";"24563";"Indonesia";"";"4.398114";"96.762317";"https://maps.google.com/?cid=0x0:0xc9fc11529d3dd6c0"
"mall";"Pusat Perbelanjaan";"UD. Kurniawan";"Jeget Ayu, Kec. Jagong Jeget, Kabupaten Aceh Tengah, Aceh 24563";"Kec. Jagong Jeget, Kabupaten Aceh Tengah";"ACEH";"24563";"Indonesia";"";"4.3761552";"96.7591741";"https://maps.google.com/?cid=0x0:0x190a112bf7176853"
"mall";"Pusat Perbelanjaan";"UD. ATINA ALCHUSNA";"Jl. M. Fadlan, Pantan Gading, Kec. Jagong Jeget, Kabupaten Aceh Tengah, Aceh 24563";"Pantan Gading, Kec. Jagong Jeget, Kabupaten Aceh Tengah";"ACEH";"24563";"Indonesia";" 085358608180";"4.3778979";"96.7738239";"https://maps.google.com/?cid=0x0:0xb182c7925d4f6bae"
"mall";"mall";"Aceh 24517";"Nunang Antara, Kec. Bebesen, Kabupaten Aceh Tengah, Aceh";"Kabupaten Aceh Tengah, Aceh";"ACEH";"";"Indonesia";"";"4.6359608";"96.8533098";"https://maps.google.com/?cid=0x0:0x6d9d84d775f81d2c"
"mall";"Kantor Perusahaan";"Pasar Kebayakan";"JVQ3+7CJ, Jl. Sengeda, Lot Kala, Kec. Kebayakan, Kabupaten Aceh Tengah, Aceh 24519";"Jl. Sengeda, Lot Kala, Kec. Kebayakan, Kabupaten Aceh Tengah";"ACEH";"24519";"Indonesia";"";"4.6382204";"96.853527";"https://maps.google.com/?cid=0x0:0x41a478e98721e1e5"
"mall";"Toko Perlengkapan Rumah";"Yaman aluminium 2";"Jl. Qurata Aini No.6kel, Lot Kala, Kec. Kebayakan, Kabupaten Aceh Tengah, Aceh 24517";"Lot Kala, Kec. Kebayakan, Kabupaten Aceh Tengah";"ACEH";"24517";"Indonesia";" 085278549889";"4.6356231";"96.8527634";"https://maps.google.com/?cid=0x0:0xd639a10d5fabf792"
"mall";"Studio Foto";"Studio Foto/Fotocopy Isnawan Picture";"JVP3+J76, Jl. Sengeda, Mampak, Lot Kala, Kec. Kebayakan, Kabupaten Aceh Tengah, Aceh 24519";"Jl. Sengeda, Mampak, Lot Kala, Kec. Kebayakan, Kabupaten Aceh Tengah";"ACEH";"24519";"Indonesia";" 085297072716";"4.6365416";"96.8531524";"https://maps.google.com/?cid=0x0:0xf04f94975e626bb2"
"mall";"Toko";"Berkah buah";"Jl. Takengon Jl. rumah sakit No.153, Nunang Antara, Kec. Bebesen, Kabupaten Aceh Tengah, Aceh 24519";"Nunang Antara, Kec. Bebesen, Kabupaten Aceh Tengah";"ACEH";"24519";"Indonesia";" 085294708355";"4.6358021";"96.8527145";"https://maps.google.com/?cid=0x0:0xbac56baf832195fc"
"mall";"Pusat Perbelanjaan";"Raja Nya Santan";"JVQ4+H65, Jl. Peteri Pukes, Lot Kala, Kec. Kebayakan, Kabupaten Aceh Tengah, Aceh 24519";"Jl. Peteri Pukes, Lot Kala, Kec. Kebayakan, Kabupaten Aceh Tengah";"ACEH";"24519";"Indonesia";" 081298478082";"4.6388985";"96.8556115";"https://maps.google.com/?cid=0x0:0x1d987917a6c3a350"
"mall";"Kantor Perusahaan";"Kantor reje";"JVV8+P22, Mendale, Kec. Kebayakan, Kabupaten Aceh Tengah, Aceh 24519";"Mendale, Kec. Kebayakan, Kabupaten Aceh Tengah";"ACEH";"24519";"Indonesia";"";"4.6442674";"96.8650255";"https://maps.google.com/?cid=0x0:0xebc165c4da45b3e2"
"mall";"Toko Swalayan";"dubai 21 serba 35000";"Jl. Sengeda, Takengon Tim., Kec. Lut Tawar, Kabupaten Aceh Tengah, Aceh 24511";"Takengon Tim., Kec. Lut Tawar, Kabupaten Aceh Tengah";"ACEH";"24511";"Indonesia";" 082171783226";"4.6238501";"96.8511765";"https://maps.google.com/?cid=0x0:0xfcbe9d8c804a8233"
"mall";"Kantor Perusahaan";"Kantor Camat Kebayakan";"JVQ2+C63, Jl. Abdul Wahab, Gn. Bukit, Kec. Kebayakan, Kabupaten Aceh Tengah, Aceh 24471";"Jl. Abdul Wahab, Gn. Bukit, Kec. Kebayakan, Kabupaten Aceh Tengah";"ACEH";"24471";"Indonesia";" 064321094";"4.6385031";"96.8505543";"https://maps.google.com/?cid=0x0:0xa96c615f725e9504"
"mall";"Pusat Perbelanjaan";"RATU STORE";"PQHW+5GJ, Jl. Simpang Balik-Blang Mancung, Simpang Balek, Kec. Wih Pesam, Kabupaten Bener Meriah, Aceh 24471";"Jl. Simpang Balik-Blang Mancung, Simpang Balek, Kec. Wih Pesam, Kabupaten Bener Meriah";"ACEH";"24471";"Indonesia";" 082370941041";"4.7279683";"96.7962651";"https://maps.google.com/?cid=0x0:0x661a30ae000ddf93"
"mall";"Toko Ponsel";"JASA CELLULER 2  SERVICE HP BERGARANSI";"JVP2+9X8, Nunang Antara, Kec. Bebesen, Kabupaten Aceh Tengah, Aceh 24519";"Nunang Antara, Kec. Bebesen, Kabupaten Aceh Tengah";"ACEH";"24519";"Indonesia";" 082167375432";"4.6359144";"96.8524517";"https://maps.google.com/?cid=0x0:0xcc0cacc13f6cd9af"
"mall";"Pusat Perbelanjaan";"Plaza Mandiri";"JVF2+54P, Takengon Tim., Kec. Lut Tawar, Kabupaten Aceh Tengah, Aceh 24519";"Takengon Tim., Kec. Lut Tawar, Kabupaten Aceh Tengah";"ACEH";"24519";"Indonesia";" 085240567002";"4.6229662";"96.8503228";"https://maps.google.com/?cid=0x0:0xa27a336cb08429bc"
"mall";"mall";"Kec. Kebayakan";"Kabupaten Aceh Tengah, Aceh";"Kabupaten Aceh Tengah, Aceh";"ACEH";"";"Indonesia";"";"4.6396395";"96.8523604";"https://maps.google.com/?cid=0x0:0x988e1a386334e16c"
"mall";"Kantor Perusahaan";"Pasar Kebayakan";"JVQ3+7CJ, Jl. Sengeda, Lot Kala, Kec. Kebayakan, Kabupaten Aceh Tengah, Aceh 24519";"Jl. Sengeda, Lot Kala, Kec. Kebayakan, Kabupaten Aceh Tengah";"ACEH";"24519";"Indonesia";"";"4.6382204";"96.853527";"https://maps.google.com/?cid=0x0:0x41a478e98721e1e5"
"mall";"Komplek perumahan";"RH LAS";"Timangan Gading, Kec. Kebayakan, Kabupaten Aceh Tengah, Aceh 24471";"Kec. Kebayakan, Kabupaten Aceh Tengah";"ACEH";"24471";"Indonesia";" 082283879086";"4.6516335";"96.8396909";"https://maps.google.com/?cid=0x0:0xa1643e5d54fe7a31"
"mall";"Kantor Perusahaan";"Kantor reje";"JVV8+P22, Mendale, Kec. Kebayakan, Kabupaten Aceh Tengah, Aceh 24519";"Mendale, Kec. Kebayakan, Kabupaten Aceh Tengah";"ACEH";"24519";"Indonesia";"";"4.6442674";"96.8650255";"https://maps.google.com/?cid=0x0:0xebc165c4da45b3e2"
"mall";"Toko Aksesori Ponsel";"OUTLET GAIB REBORN";"Mongal, Kec. Kebayakan, Kabupaten Aceh Tengah, Aceh 24552";"Kec. Kebayakan, Kabupaten Aceh Tengah";"ACEH";"24552";"Indonesia";" 085270707878";"4.6488779";"96.8341642";"https://maps.google.com/?cid=0x0:0xa47075e824638229"
"mall";"Toko";"Shopping Point Takengon";"Jl. Sengeda, Nunang Antara, Kec. Bebesen, Kabupaten Aceh Tengah, Aceh 24552";"Nunang Antara, Kec. Bebesen, Kabupaten Aceh Tengah";"ACEH";"24552";"Indonesia";" 082365691992";"4.6322175";"96.8526307";"https://maps.google.com/?cid=0x0:0x45fce3a4291d12a"
"mall";"Toko Elektronik";"The Real Acc";"Jl. Qurata Aini No.96, Nunang Antara, Kec. Bebesen, Kabupaten Aceh Tengah, Aceh 24519";"Nunang Antara, Kec. Bebesen, Kabupaten Aceh Tengah";"ACEH";"24519";"Indonesia";" 082284327297";"4.6372098";"96.8474455";"https://maps.google.com/?cid=0x0:0x1789df8703ea7d9b"
"mall";"Studio Foto";"Studio Foto/Fotocopy Isnawan Picture";"JVP3+J76, Jl. Sengeda, Mampak, Lot Kala, Kec. Kebayakan, Kabupaten Aceh Tengah, Aceh 24519";"Jl. Sengeda, Mampak, Lot Kala, Kec. Kebayakan, Kabupaten Aceh Tengah";"ACEH";"24519";"Indonesia";" 085297072716";"4.6365416";"96.8531524";"https://maps.google.com/?cid=0x0:0xf04f94975e626bb2"
"mall";"Jasa penitipan kucing";"MISTER CAT GALLERY - LHOKSEUMAWE";"JVP2+94Q, Jl. Qurata Aini, Nunang Antara, Kec. Bebesen, Kabupaten Aceh Tengah, Aceh 24519";"Jl. Qurata Aini, Nunang Antara, Kec. Bebesen, Kabupaten Aceh Tengah";"ACEH";"24519";"Indonesia";" 081213622414";"4.6359554";"96.8503705";"https://maps.google.com/?cid=0x0:0xafb7b66e1cdfb325"
"mall";"Toko Ikan Tropis";"Market aquarium";"JRPV+6WC, Jl. Abdul Wahab, Simpang Empat, Kec. Bebesen, Kabupaten Aceh Tengah, Aceh 24519";"Jl. Abdul Wahab, Simpang Empat, Kec. Bebesen, Kabupaten Aceh Tengah";"ACEH";"24519";"Indonesia";" 082160169388";"4.6355433";"96.8446999";"https://maps.google.com/?cid=0x0:0xabb55f7a399d41d2"
"mall";"Pusat Perbelanjaan";"Raja Nya Santan";"JVQ4+H65, Jl. Peteri Pukes, Lot Kala, Kec. Kebayakan, Kabupaten Aceh Tengah, Aceh 24519";"Jl. Peteri Pukes, Lot Kala, Kec. Kebayakan, Kabupaten Aceh Tengah";"ACEH";"24519";"Indonesia";" 081298478082";"4.6388985";"96.8556115";"https://maps.google.com/?cid=0x0:0x1d987917a6c3a350"
"mall";"Toko Pakaian";"Image Anugerah Takengon";"JRFX+R5Q, Unnamed Road, Bale Atu, Kec. Lut Tawar, Kabupaten Aceh Tengah, Aceh 24519";"Unnamed Road, Bale Atu, Kec. Lut Tawar, Kabupaten Aceh Tengah";"ACEH";"24519";"Indonesia";"";"4.6245954";"96.8479988";"https://maps.google.com/?cid=0x0:0x9035b5006c6aa567"
"mall";"Pusat Perbelanjaan";"Queen Ceramics";"JRHV+XGR, Kemili, Kec. Bebesen, Kabupaten Aceh Tengah, Aceh 24519";"Kemili, Kec. Bebesen, Kabupaten Aceh Tengah";"ACEH";"24519";"Indonesia";" 08227749913";"4.6299899";"96.8437691";"https://maps.google.com/?cid=0x0:0x397fabea7a19c454"
"mall";"Pusat Perbelanjaan";"Deastro Jakarta";"PQJW+45V, Jl. Raya Bireuen - Takengon, Simpang Balek, Kec. Wih Pesam, Kabupaten Bener Meriah, Aceh 24471";"Jl. Raya Bireuen - Takengon, Simpang Balek, Kec. Wih Pesam, Kabupaten Bener Meriah";"ACEH";"24471";"Indonesia";" 085296006890";"4.7303643";"96.7954064";"https://maps.google.com/?cid=0x0:0x690b92b83fcdea39"
"mall";"mall";"Aceh 24519";"Kabupaten Aceh Tengah, Aceh";"Kabupaten Aceh Tengah, Aceh";"ACEH";"";"Indonesia";"";"4.626985";"96.8940846";"https://maps.google.com/?cid=0x0:0x696b245c7c9b4bce"
"mall";"Kantor Perusahaan";"Pasar Kebayakan";"JVQ3+7CJ, Jl. Sengeda, Lot Kala, Kec. Kebayakan, Kabupaten Aceh Tengah, Aceh 24519";"Jl. Sengeda, Lot Kala, Kec. Kebayakan, Kabupaten Aceh Tengah";"ACEH";"24519";"Indonesia";"";"4.6382204";"96.853527";"https://maps.google.com/?cid=0x0:0x41a478e98721e1e5"
"mall";"Toko Pakaian";"Pusat Pasar Loak Monza";"JVF4+9C7, Takengon Tim., Kec. Lut Tawar, Kabupaten Aceh Tengah, Aceh 24519";"Takengon Tim., Kec. Lut Tawar, Kabupaten Aceh Tengah";"ACEH";"24519";"Indonesia";"";"4.6234146";"96.8560531";"https://maps.google.com/?cid=0x0:0xa78a4f13d796c627"
"mall";"Komplek perumahan";"RH LAS";"Timangan Gading, Kec. Kebayakan, Kabupaten Aceh Tengah, Aceh 24471";"Kec. Kebayakan, Kabupaten Aceh Tengah";"ACEH";"24471";"Indonesia";" 082283879086";"4.6516335";"96.8396909";"https://maps.google.com/?cid=0x0:0xa1643e5d54fe7a31"
"mall";"Perpustakaan";"DEPIK KELITU";"Kelitu, Kec. Bintang, Kabupaten Aceh Tengah, Aceh 24519";"Kec. Bintang, Kabupaten Aceh Tengah";"ACEH";"24519";"Indonesia";" 085206812396";"4.6301758";"96.9473147";"https://maps.google.com/?cid=0x0:0xa2827f9087203ff1"
"mall";"Lembaga Keuangan";"Komplek Baitul.mall Aceh Tengah";"JR6V+7RF, Asir Asir, Kec. Lut Tawar, Kabupaten Aceh Tengah, Aceh 24519";"Asir Asir, Kec. Lut Tawar, Kabupaten Aceh Tengah";"ACEH";"24519";"Indonesia";"";"4.6106877";"96.8445344";"https://maps.google.com/?cid=0x0:0x6af556d73a7879f6"
"mall";"Toko Pakaian";"Image Anugerah Takengon";"JRFX+R5Q, Unnamed Road, Bale Atu, Kec. Lut Tawar, Kabupaten Aceh Tengah, Aceh 24519";"Unnamed Road, Bale Atu, Kec. Lut Tawar, Kabupaten Aceh Tengah";"ACEH";"24519";"Indonesia";"";"4.6245954";"96.8479988";"https://maps.google.com/?cid=0x0:0x9035b5006c6aa567"
"mall";"Pusat Perbelanjaan";"Queen Ceramics";"JRHV+XGR, Kemili, Kec. Bebesen, Kabupaten Aceh Tengah, Aceh 24519";"Kemili, Kec. Bebesen, Kabupaten Aceh Tengah";"ACEH";"24519";"Indonesia";" 08227749913";"4.6299899";"96.8437691";"https://maps.google.com/?cid=0x0:0x397fabea7a19c454"
"mall";"Pusat Perbelanjaan";"Filosofi Takengon";"JRHV+9P3, Blang Kolak I, Kec. Bebesen, Kabupaten Aceh Tengah, Aceh 24519";"Blang Kolak I, Kec. Bebesen, Kabupaten Aceh Tengah";"ACEH";"24519";"Indonesia";" 08520062422";"4.6283973";"96.8443118";"https://maps.google.com/?cid=0x0:0x40924ebe41d863eb"
"mall";"Toko Elektronik";"The Real Acc";"Jl. Qurata Aini No.96, Nunang Antara, Kec. Bebesen, Kabupaten Aceh Tengah, Aceh 24519";"Nunang Antara, Kec. Bebesen, Kabupaten Aceh Tengah";"ACEH";"24519";"Indonesia";" 082284327297";"4.6372098";"96.8474455";"https://maps.google.com/?cid=0x0:0x1789df8703ea7d9b"
"mall";"Toko Gorden";"Indah gordyn";"JRCX+QVH, Jl. Gatot Subroto, Takengon Tim., Kec. Lut Tawar, Kabupaten Aceh Tengah, Aceh 24519";"Jl. Gatot Subroto, Takengon Tim., Kec. Lut Tawar, Kabupaten Aceh Tengah";"ACEH";"24519";"Indonesia";" 085286696655";"4.6219458";"96.8497299";"https://maps.google.com/?cid=0x0:0x255f2e2ce2788f81"
"mall";"Arena Bermain Anak-Anak";"Cabang BELTEX'S Mall";"JRCX+JW8, Takengon Tim., Kec. Lut Tawar, Kabupaten Aceh Tengah, Aceh 24519";"Takengon Tim., Kec. Lut Tawar, Kabupaten Aceh Tengah";"ACEH";"24519";"Indonesia";"";"4.6215492";"96.8497917";"https://maps.google.com/?cid=0x0:0xbbdf58396fab943e"
"mall";"Pusat Perbelanjaan";"Rxkinggayogarage";"Jl. Gatot Subroto No.390, Takengon Tim., Kec. Lut Tawar, Kabupaten Aceh Tengah, Aceh 24519";"Takengon Tim., Kec. Lut Tawar, Kabupaten Aceh Tengah";"ACEH";"24519";"Indonesia";" 082274408888";"4.6217704";"96.8496396";"https://maps.google.com/?cid=0x0:0x6f60d2221676afb1"
"mall";"Pusat Perbelanjaan";"Raja Nya Santan";"JVQ4+H65, Jl. Peteri Pukes, Lot Kala, Kec. Kebayakan, Kabupaten Aceh Tengah, Aceh 24519";"Jl. Peteri Pukes, Lot Kala, Kec. Kebayakan, Kabupaten Aceh Tengah";"ACEH";"24519";"Indonesia";" 081298478082";"4.6388985";"96.8556115";"https://maps.google.com/?cid=0x0:0x1d987917a6c3a350"
"mall";"mall";"Kec. Ketol";"Kabupaten Aceh Tengah, Aceh";"Kabupaten Aceh Tengah, Aceh";"ACEH";"";"Indonesia";"";"4.7028922";"96.7130788";"https://maps.google.com/?cid=0x0:0x2b297203f32bf43a"
"mall";"Toko";"PT Gleh";"MPWX+3Q2, Blang Mancung Bawah, Kec. Ketol, Kabupaten Aceh Tengah, Aceh";"Kabupaten Aceh Tengah, Aceh";"ACEH";"";"Indonesia";"";"4.695135";"96.7493993";"https://maps.google.com/?cid=0x0:0x2e7f2202e83dc9e2"
"mall";"Pembangunan Perumahan";"Ketol";"MPJR+WGX, Blang Mancung, Kec. Ketol, Kabupaten Aceh Tengah, Aceh 24571";"Blang Mancung, Kec. Ketol, Kabupaten Aceh Tengah";"ACEH";"24571";"Indonesia";"";"4.6823678";"96.7413706";"https://maps.google.com/?cid=0x0:0xf18d5abe392b2ea9"
"mall";"Pusat Perbelanjaan";"Deastro Jakarta";"PQJW+45V, Jl. Raya Bireuen - Takengon, Simpang Balek, Kec. Wih Pesam, Kabupaten Bener Meriah, Aceh 24471";"Jl. Raya Bireuen - Takengon, Simpang Balek, Kec. Wih Pesam, Kabupaten Bener Meriah";"ACEH";"24471";"Indonesia";" 085296006890";"4.7303643";"96.7954064";"https://maps.google.com/?cid=0x0:0x690b92b83fcdea39"
"mall";"Pusat Perbelanjaan";"Kota sultan";"JR87+3XF, Jl. Yos Sudarso, Uning, Kec. Pegasing, Kabupaten Aceh Tengah, Aceh 24471";"Jl. Yos Sudarso, Uning, Kec. Pegasing, Kabupaten Aceh Tengah";"ACEH";"24471";"Indonesia";" 085277730844";"4.6151789";"96.81492";"https://maps.google.com/?cid=0x0:0xf2c62a5d73723884"
"mall";"Masjid";"ACEH Indonesia";"Blang Mancung Bawah, Kec. Ketol, Kabupaten Aceh Tengah, Aceh 24571";"Kec. Ketol, Kabupaten Aceh Tengah";"ACEH";"24571";"Indonesia";" 081937427100";"4.695135";"96.7493993";"https://maps.google.com/?cid=0x0:0xc4e033c1948938e3"
"mall";"Pasar";"Rejeki Unggas";"PPFW+X9P, Jl. Simpang Balik-Blang Mancung, Blang Paku, Kec. Wih Pesam, Kabupaten Bener Meriah, Aceh 24571";"Jl. Simpang Balik-Blang Mancung, Blang Paku, Kec. Wih Pesam, Kabupaten Bener Meriah";"ACEH";"24571";"Indonesia";" 082246840060";"4.7249582";"96.7459641";"https://maps.google.com/?cid=0x0:0xb2b23100774b1d88"
"mall";"";"BBI. Timang Gajah";"RP2M+XM7, Timang Gajah, Kec. Gajah Putih, Kabupaten Bener Meriah, Aceh 24571";"Timang Gajah, Kec. Gajah Putih, Kabupaten Bener Meriah";"ACEH";"24571";"Indonesia";"";"4.8024174";"96.7341871";"https://maps.google.com/?cid=0x0:0x56e95316b5e74d87"
"mall";"Toko Pertanian";"Jual kambing dan domba";"PP37+572, Rejewali, Kec. Ketol, Kabupaten Aceh Tengah, Aceh";"Kabupaten Aceh Tengah, Aceh";"ACEH";"";"Indonesia";"";"4.7028956";"96.7131492";"https://maps.google.com/?cid=0x0:0x53dd3586611bcd55"
"mall";"Pasar";"Angkup";"JPCC+MWJ, Jl. Angkup - Rusip, Pepayungen Angkup, Kec. Silih Nara, Kabupaten Aceh Tengah, Aceh 24773";"Jl. Angkup - Rusip, Pepayungen Angkup, Kec. Silih Nara, Kabupaten Aceh Tengah";"ACEH";"24773";"Indonesia";"";"4.6217043";"96.7222603";"https://maps.google.com/?cid=0x0:0x3126af42b67b1d8b"
"mall";"Pusat Perbelanjaan";"Wijaya Makmur";"JPCF+M3F, Pepayungen Angkup, Kec. Silih Nara, Kabupaten Aceh Tengah, Aceh 24773";"Pepayungen Angkup, Kec. Silih Nara, Kabupaten Aceh Tengah";"ACEH";"24773";"Indonesia";"";"4.621677";"96.7226687";"https://maps.google.com/?cid=0x0:0xfc06339935291b56"
"mall";"Toko Makanan";"UD OZIEL";"JMF9+VQ6jerata, Kec. Silih Nara, Kabupaten Aceh Tengah, Aceh";"Kabupaten Aceh Tengah, Aceh";"ACEH";"";"Indonesia";" 085361525352";"4.6242039";"96.6698519";"https://maps.google.com/?cid=0x0:0xb28a96db2db9a9a9"
"mall";"Kantor Perusahaan";"KANTOR CAMAT KETOL";"PP37+FFP, Rejewali, Kec. Ketol, Kabupaten Aceh Tengah, Aceh 24571";"Rejewali, Kec. Ketol, Kabupaten Aceh Tengah";"ACEH";"24571";"Indonesia";"";"4.7037141";"96.7136957";"https://maps.google.com/?cid=0x0:0x48c097d44e603a8a"
"mall";"Pusat Perbelanjaan";"RATU STORE";"PQHW+5GJ, Jl. Simpang Balik-Blang Mancung, Simpang Balek, Kec. Wih Pesam, Kabupaten Bener Meriah, Aceh 24471";"Jl. Simpang Balik-Blang Mancung, Simpang Balek, Kec. Wih Pesam, Kabupaten Bener Meriah";"ACEH";"24471";"Indonesia";" 082370941041";"4.7279683";"96.7962651";"https://maps.google.com/?cid=0x0:0x661a30ae000ddf93"
"mall";"mall";"Aceh 24568";"Kec. Silih Nara, Kabupaten Aceh Tengah, Aceh";"Kabupaten Aceh Tengah, Aceh";"ACEH";"";"Indonesia";"";"4.6181645";"96.7440467";"https://maps.google.com/?cid=0x0:0xf199dfba392d9d38"
"mall";"Pasar";"Angkup";"JPCC+MWJ, Jl. Angkup - Rusip, Pepayungen Angkup, Kec. Silih Nara, Kabupaten Aceh Tengah, Aceh 24773";"Jl. Angkup - Rusip, Pepayungen Angkup, Kec. Silih Nara, Kabupaten Aceh Tengah";"ACEH";"24773";"Indonesia";"";"4.6217043";"96.7222603";"https://maps.google.com/?cid=0x0:0x3126af42b67b1d8b"
"mall";"Pusat Perbelanjaan";"Kota sultan";"JR87+3XF, Jl. Yos Sudarso, Uning, Kec. Pegasing, Kabupaten Aceh Tengah, Aceh 24471";"Jl. Yos Sudarso, Uning, Kec. Pegasing, Kabupaten Aceh Tengah";"ACEH";"24471";"Indonesia";" 085277730844";"4.6151789";"96.81492";"https://maps.google.com/?cid=0x0:0xf2c62a5d73723884"
"mall";"Toko";"PT Gleh";"MPWX+3Q2, Blang Mancung Bawah, Kec. Ketol, Kabupaten Aceh Tengah, Aceh";"Kabupaten Aceh Tengah, Aceh";"ACEH";"";"Indonesia";"";"4.695135";"96.7493993";"https://maps.google.com/?cid=0x0:0x2e7f2202e83dc9e2"
"mall";"Toko Swalayan";"Suzuya Mall Banda Aceh";"Jl. Teuku Umar, Lamtemen Tim., Kec. Jaya Baru, Kota Banda Aceh, Aceh 23232";"Lamtemen Tim., Kec. Jaya Baru, Kota Banda Aceh";"ACEH";"23232";"Indonesia";" 06518011022";"5.5377324";"95.3068005";"https://maps.google.com/?cid=0x0:0xc5c56efc74442dea"
"mall";"Pusat Perbelanjaan";"Plaza Aceh";"Jl. T. Hasan Dek Jl. Teuku Iskandar No.49, Beurawe, Kec. Kuta Alam, Kota Banda Aceh, Aceh 23127";"Beurawe, Kec. Kuta Alam, Kota Banda Aceh";"ACEH";"23127";"Indonesia";" 08116899890";"5.5547881";"95.3308683";"https://maps.google.com/?cid=0x0:0x45c9eb2ec9e62a76"
"mall";"Pusat Perbelanjaan";"Wijaya Makmur";"JPCF+M3F, Pepayungen Angkup, Kec. Silih Nara, Kabupaten Aceh Tengah, Aceh 24773";"Pepayungen Angkup, Kec. Silih Nara, Kabupaten Aceh Tengah";"ACEH";"24773";"Indonesia";"";"4.621677";"96.7226687";"https://maps.google.com/?cid=0x0:0xfc06339935291b56"
"mall";"Pusat Perbelanjaan";"ANEKA BARU";"JPCF+Q29, Jl. Genting-Angkup, Pepayungen Angkup, Kec. Silih Nara, Kabupaten Aceh Tengah, Aceh 24773";"Jl. Genting-Angkup, Pepayungen Angkup, Kec. Silih Nara, Kabupaten Aceh Tengah";"ACEH";"24773";"Indonesia";" 085213134682";"4.6219215";"96.7226155";"https://maps.google.com/?cid=0x0:0x28ee3677caece5fe"
"mall";"Pasar";"Berkah Buah";"JPCF+J9P, Pepayungen Angkup, Kec. Silih Nara, Kabupaten Aceh Tengah, Aceh 24773";"Pepayungen Angkup, Kec. Silih Nara, Kabupaten Aceh Tengah";"ACEH";"24773";"Indonesia";" 085275233977";"4.6215842";"96.7234576";"https://maps.google.com/?cid=0x0:0xad95ce788adf403c"
"mall";"Toko Ponsel";"BP Cellular";"Jl. Terminal Paya Ilang, Blang Kolak II, Kec. Bebesen, Kabupaten Aceh Tengah, Aceh 24471";"Blang Kolak II, Kec. Bebesen, Kabupaten Aceh Tengah";"ACEH";"24471";"Indonesia";" 082166923561";"4.6255598";"96.83423";"https://maps.google.com/?cid=0x0:0x2f0edef229ffa213"
"mall";"Pusat Perbelanjaan";"toko jabal nur angkop";"JPCF+X23, Pepayungen Angkup, Kec. Silih Nara, Kabupaten Aceh Tengah, Aceh 24773";"Pepayungen Angkup, Kec. Silih Nara, Kabupaten Aceh Tengah";"ACEH";"24773";"Indonesia";" 082272346296";"4.6223795";"96.7225554";"https://maps.google.com/?cid=0x0:0xd3f71088f6a6f0b1"
"mall";"Pusat Perbelanjaan";"Toko Gembira";"Pendere Saril, Kec. Bebesen, Kabupaten Aceh Tengah, Aceh 24471";"Kec. Bebesen, Kabupaten Aceh Tengah";"ACEH";"24471";"Indonesia";"";"4.6188663";"96.8238465";"https://maps.google.com/?cid=0x0:0xe4ab2e6826ea2272"
"mall";"Toko";"kios kiki";"HMJJ+PVR, Blang Delem, Kec. Celala, Kabupaten Aceh Tengah, Aceh 24552";"Blang Delem, Kec. Celala, Kabupaten Aceh Tengah";"ACEH";"24552";"Indonesia";" 082118651594";"4.5818525";"96.6821375";"https://maps.google.com/?cid=0x0:0x77509c5f16e41099"
"mall";"Pusat Perbelanjaan";"Mw ayam";"JR99+5RG, Jl. Yos Sudarso, Uning, Pegasing, Pendere Saril, Kec. Bebesen, Kabupaten Aceh Tengah, Aceh 24471";"Jl. Yos Sudarso, Uning, Pegasing, Pendere Saril, Kec. Bebesen, Kabupaten Aceh Tengah";"ACEH";"24471";"Indonesia";" 082112124701";"4.61793";"96.819567";"https://maps.google.com/?cid=0x0:0x4bee2f8f469cc772"
"mall";"mall";"Aceh 24511";"Kabupaten Aceh Tengah, Aceh";"Kabupaten Aceh Tengah, Aceh";"ACEH";"";"Indonesia";"";"4.5478015";"96.8645856";"https://maps.google.com/?cid=0x0:0xd74671bd307a2f46"
"mall";"Toko";"Toko lut tawar";"Jl. Sengeda, Takengon Tim., Kec. Lut Tawar, Kabupaten Aceh Tengah, Aceh 24519";"Takengon Tim., Kec. Lut Tawar, Kabupaten Aceh Tengah";"ACEH";"24519";"Indonesia";" 082163142902";"4.6241166";"96.8510791";"https://maps.google.com/?cid=0x0:0x619d1646d8118710"
"mall";"Tujuan Wisata";"DANAU LUT TAWAR TAKENGON";"JVGJ+43H, Danau, Kabupaten Aceh Tengah, Aceh";"Kabupaten Aceh Tengah, Aceh";"ACEH";"";"Indonesia";"";"4.6253077";"96.8802219";"https://maps.google.com/?cid=0x0:0xa36aace8c227e29f"
"mall";"Rental Bus";"Terminal LAMA TAKENGON";"JVF2+R8P, Terminal, Takengon Tim., Kec. Lut Tawar, Kabupaten Aceh Tengah, Aceh 24519";"Terminal, Takengon Tim., Kec. Lut Tawar, Kabupaten Aceh Tengah";"ACEH";"24519";"Indonesia";"";"4.6245762";"96.8508198";"https://maps.google.com/?cid=0x0:0xa65db78df16e77c6"
"mall";"Pusat Perbelanjaan";"Lr,jami-jami";"JVG2+QMV, Jl. Sengeda, Takengon Tim., Kec. Lut Tawar, Kabupaten Aceh Tengah, Aceh 24519";"Jl. Sengeda, Takengon Tim., Kec. Lut Tawar, Kabupaten Aceh Tengah";"ACEH";"24519";"Indonesia";" 082272223255";"4.6269823";"96.851662";"https://maps.google.com/?cid=0x0:0xfa1749849c08641e"
"mall";"Taman bermain";"Toweren";"JV2V+95X, Jl. Takengon - Bintang, Toweren Uken, Kec. Lut Tawar, Kabupaten Aceh Tengah, Aceh 24519";"Jl. Takengon - Bintang, Toweren Uken, Kec. Lut Tawar, Kabupaten Aceh Tengah";"ACEH";"24519";"Indonesia";"";"4.6009898";"96.8929724";"https://maps.google.com/?cid=0x0:0x639f5770f1d1581c"
"mall";"Pasar tradisional";"Pasar Pagi Lama";"JV92+XC9 teri, jl.inen mayak, Hakim Bale Bujang, Kec. Lut Tawar, Kabupaten Aceh Tengah, Aceh 24519";"jl.inen mayak, Hakim Bale Bujang, Kec. Lut Tawar, Kabupaten Aceh Tengah";"ACEH";"24519";"Indonesia";"";"4.619923";"96.8511157";"https://maps.google.com/?cid=0x0:0xbe148374c2177a24"
"mall";"Tujuan Wisata";"Kota Takengon";"Simpang Empat, Kec. Ketol, Kabupaten Aceh Tengah, Aceh 24516";"Kec. Ketol, Kabupaten Aceh Tengah";"ACEH";"24516";"Indonesia";"";"4.6344789";"96.8427394";"https://maps.google.com/?cid=0x0:0x92c75f93b5a14924"
"mall";"Pusat Bisnis";"Qila Store";"HR4C+4M2, Pedekok, Kec. Pegasing, Kabupaten Aceh Tengah, Aceh";"Kabupaten Aceh Tengah, Aceh";"ACEH";"";"Indonesia";" 081373084350";"4.5552649";"96.8216546";"https://maps.google.com/?cid=0x0:0x6ba72469700cb5c8"
"mall";"Toko Pakaian";"Image Anugerah Takengon";"JRFX+R5Q, Unnamed Road, Bale Atu, Kec. Lut Tawar, Kabupaten Aceh Tengah, Aceh 24519";"Unnamed Road, Bale Atu, Kec. Lut Tawar, Kabupaten Aceh Tengah";"ACEH";"24519";"Indonesia";"";"4.6245954";"96.8479988";"https://maps.google.com/?cid=0x0:0x9035b5006c6aa567"
"mall";"mall";"Aceh 24512";"Kec. Pegasing, Kabupaten Aceh Tengah, Aceh";"Kabupaten Aceh Tengah, Aceh";"ACEH";"";"Indonesia";"";"4.5583042";"96.8377799";"https://maps.google.com/?cid=0x0:0x6b11ac66f675b7b5"
"mall";"Toko";"Toko lut tawar";"Jl. Sengeda, Takengon Tim., Kec. Lut Tawar, Kabupaten Aceh Tengah, Aceh 24519";"Takengon Tim., Kec. Lut Tawar, Kabupaten Aceh Tengah";"ACEH";"24519";"Indonesia";" 082163142902";"4.6241166";"96.8510791";"https://maps.google.com/?cid=0x0:0x619d1646d8118710"
"mall";"Tujuan Wisata";"DANAU LUT TAWAR TAKENGON";"JVGJ+43H, Danau, Kabupaten Aceh Tengah, Aceh";"Kabupaten Aceh Tengah, Aceh";"ACEH";"";"Indonesia";"";"4.6253077";"96.8802219";"https://maps.google.com/?cid=0x0:0xa36aace8c227e29f"
"mall";"Pusat Perbelanjaan";"Lr,jami-jami";"JVG2+QMV, Jl. Sengeda, Takengon Tim., Kec. Lut Tawar, Kabupaten Aceh Tengah, Aceh 24519";"Jl. Sengeda, Takengon Tim., Kec. Lut Tawar, Kabupaten Aceh Tengah";"ACEH";"24519";"Indonesia";" 082272223255";"4.6269823";"96.851662";"https://maps.google.com/?cid=0x0:0xfa1749849c08641e"
"mall";"mall";"MALL BERTINGKAT INPRES";"Jl. Gatot Subroto No.390, Takengon Tim., Kec. Lut Tawar, Kabupaten Aceh Tengah, Aceh 24519";"Takengon Tim., Kec. Lut Tawar, Kabupaten Aceh Tengah";"ACEH";"24519";"Indonesia";"";"4.6217704";"96.8496396";"https://maps.google.com/?cid=0x0:0x2c3529a677c8093d"
"mall";"Toko Pakaian";"Image Anugerah Takengon";"JRFX+R5Q, Unnamed Road, Bale Atu, Kec. Lut Tawar, Kabupaten Aceh Tengah, Aceh 24519";"Unnamed Road, Bale Atu, Kec. Lut Tawar, Kabupaten Aceh Tengah";"ACEH";"24519";"Indonesia";"";"4.6245954";"96.8479988";"https://maps.google.com/?cid=0x0:0x9035b5006c6aa567"
"mall";"Pusat Perbelanjaan";"Toko Atlanta";"Jl. Sengeda No.26, Takengon Tim., Kec. Lut Tawar, Kabupaten Aceh Tengah, Aceh 24519";"Takengon Tim., Kec. Lut Tawar, Kabupaten Aceh Tengah";"ACEH";"24519";"Indonesia";" 064322216";"4.6244115";"96.8510501";"https://maps.google.com/?cid=0x0:0xfd6523b8ab44bcea"
"mall";"mall";"Aceh 24513";"Kabupaten Aceh Tengah, Aceh";"Kabupaten Aceh Tengah, Aceh";"ACEH";"";"Indonesia";"";"4.5249796";"96.84046";"https://maps.google.com/?cid=0x0:0xb136b51d8b738d87"
"mall";"Toko";"Toko lut tawar";"Jl. Sengeda, Takengon Tim., Kec. Lut Tawar, Kabupaten Aceh Tengah, Aceh 24519";"Takengon Tim., Kec. Lut Tawar, Kabupaten Aceh Tengah";"ACEH";"24519";"Indonesia";" 082163142902";"4.6241166";"96.8510791";"https://maps.google.com/?cid=0x0:0x619d1646d8118710"
"mall";"Pusat Perbelanjaan";"Lr,jami-jami";"JVG2+QMV, Jl. Sengeda, Takengon Tim., Kec. Lut Tawar, Kabupaten Aceh Tengah, Aceh 24519";"Jl. Sengeda, Takengon Tim., Kec. Lut Tawar, Kabupaten Aceh Tengah";"ACEH";"24519";"Indonesia";" 082272223255";"4.6269823";"96.851662";"https://maps.google.com/?cid=0x0:0xfa1749849c08641e"
"mall";"Tujuan Wisata";"DANAU LUT TAWAR TAKENGON";"JVGJ+43H, Danau, Kabupaten Aceh Tengah, Aceh";"Kabupaten Aceh Tengah, Aceh";"ACEH";"";"Indonesia";"";"4.6253077";"96.8802219";"https://maps.google.com/?cid=0x0:0xa36aace8c227e29f"
"mall";"Rental Bus";"Terminal LAMA TAKENGON";"JVF2+R8P, Terminal, Takengon Tim., Kec. Lut Tawar, Kabupaten Aceh Tengah, Aceh 24519";"Terminal, Takengon Tim., Kec. Lut Tawar, Kabupaten Aceh Tengah";"ACEH";"24519";"Indonesia";"";"4.6245762";"96.8508198";"https://maps.google.com/?cid=0x0:0xa65db78df16e77c6"
"mall";"Pusat Bisnis";"Qila Store";"HR4C+4M2, Pedekok, Kec. Pegasing, Kabupaten Aceh Tengah, Aceh";"Kabupaten Aceh Tengah, Aceh";"ACEH";"";"Indonesia";" 081373084350";"4.5552649";"96.8216546";"https://maps.google.com/?cid=0x0:0x6ba72469700cb5c8"
"mall";"Pusat Perbelanjaan";"Toko Atlanta";"Jl. Sengeda No.26, Takengon Tim., Kec. Lut Tawar, Kabupaten Aceh Tengah, Aceh 24519";"Takengon Tim., Kec. Lut Tawar, Kabupaten Aceh Tengah";"ACEH";"24519";"Indonesia";" 064322216";"4.6244115";"96.8510501";"https://maps.google.com/?cid=0x0:0xfd6523b8ab44bcea"
"mall";"mall";"Aceh 24514";"Kec. Pegasing, Kabupaten Aceh Tengah, Aceh";"Kabupaten Aceh Tengah, Aceh";"ACEH";"";"Indonesia";"";"4.5532815";"96.8270607";"https://maps.google.com/?cid=0x0:0x149b0586ab5eec66"
"mall";"Kafe";"LTC MENCIKEY MONGAL";"Jl. Raya Bireuen - Takengon, Mongal, Kec. Bebesen, Kabupaten Aceh Tengah, Aceh";"Kabupaten Aceh Tengah, Aceh";"ACEH";"";"Indonesia";" 085277777219";"4.6430993";"96.8383233";"https://maps.google.com/?cid=0x0:0x63b9c520b6174417"
"mall";"Toko";"Shopping Point Takengon";"Jl. Sengeda, Nunang Antara, Kec. Bebesen, Kabupaten Aceh Tengah, Aceh 24552";"Nunang Antara, Kec. Bebesen, Kabupaten Aceh Tengah";"ACEH";"24552";"Indonesia";" 082365691992";"4.6322175";"96.8526307";"https://maps.google.com/?cid=0x0:0x45fce3a4291d12a"
"mall";"Pusat Bisnis";"Qila Store";"HR4C+4M2, Pedekok, Kec. Pegasing, Kabupaten Aceh Tengah, Aceh";"Kabupaten Aceh Tengah, Aceh";"ACEH";"";"Indonesia";" 081373084350";"4.5552649";"96.8216546";"https://maps.google.com/?cid=0x0:0x6ba72469700cb5c8"
"mall";"Toko";"Toko lut tawar";"Jl. Sengeda, Takengon Tim., Kec. Lut Tawar, Kabupaten Aceh Tengah, Aceh 24519";"Takengon Tim., Kec. Lut Tawar, Kabupaten Aceh Tengah";"ACEH";"24519";"Indonesia";" 082163142902";"4.6241166";"96.8510791";"https://maps.google.com/?cid=0x0:0x619d1646d8118710"
"mall";"Toko Pakaian";"Image Anugerah Takengon";"JRFX+R5Q, Unnamed Road, Bale Atu, Kec. Lut Tawar, Kabupaten Aceh Tengah, Aceh 24519";"Unnamed Road, Bale Atu, Kec. Lut Tawar, Kabupaten Aceh Tengah";"ACEH";"24519";"Indonesia";"";"4.6245954";"96.8479988";"https://maps.google.com/?cid=0x0:0x9035b5006c6aa567"
"mall";"Pusat Perbelanjaan";"Lr,jami-jami";"JVG2+QMV, Jl. Sengeda, Takengon Tim., Kec. Lut Tawar, Kabupaten Aceh Tengah, Aceh 24519";"Jl. Sengeda, Takengon Tim., Kec. Lut Tawar, Kabupaten Aceh Tengah";"ACEH";"24519";"Indonesia";" 082272223255";"4.6269823";"96.851662";"https://maps.google.com/?cid=0x0:0xfa1749849c08641e"
"mall";"mall";"Aceh 24515";"Kec. Linge, Kabupaten Aceh Tengah, Aceh";"Kabupaten Aceh Tengah, Aceh";"ACEH";"";"Indonesia";"";"4.5171211";"96.8592236";"https://maps.google.com/?cid=0x0:0x12e462276045bb6b"
"mall";"Toko";"Toko lut tawar";"Jl. Sengeda, Takengon Tim., Kec. Lut Tawar, Kabupaten Aceh Tengah, Aceh 24519";"Takengon Tim., Kec. Lut Tawar, Kabupaten Aceh Tengah";"ACEH";"24519";"Indonesia";" 082163142902";"4.6241166";"96.8510791";"https://maps.google.com/?cid=0x0:0x619d1646d8118710"
"mall";"Tujuan Wisata";"DANAU LUT TAWAR TAKENGON";"JVGJ+43H, Danau, Kabupaten Aceh Tengah, Aceh";"Kabupaten Aceh Tengah, Aceh";"ACEH";"";"Indonesia";"";"4.6253077";"96.8802219";"https://maps.google.com/?cid=0x0:0xa36aace8c227e29f"
"mall";"Pusat Perbelanjaan";"Lr,jami-jami";"JVG2+QMV, Jl. Sengeda, Takengon Tim., Kec. Lut Tawar, Kabupaten Aceh Tengah, Aceh 24519";"Jl. Sengeda, Takengon Tim., Kec. Lut Tawar, Kabupaten Aceh Tengah";"ACEH";"24519";"Indonesia";" 082272223255";"4.6269823";"96.851662";"https://maps.google.com/?cid=0x0:0xfa1749849c08641e"
"mall";"Rental Bus";"Terminal LAMA TAKENGON";"JVF2+R8P, Terminal, Takengon Tim., Kec. Lut Tawar, Kabupaten Aceh Tengah, Aceh 24519";"Terminal, Takengon Tim., Kec. Lut Tawar, Kabupaten Aceh Tengah";"ACEH";"24519";"Indonesia";"";"4.6245762";"96.8508198";"https://maps.google.com/?cid=0x0:0xa65db78df16e77c6"
"mall";"Pusat Perbelanjaan";"Toko Atlanta";"Jl. Sengeda No.26, Takengon Tim., Kec. Lut Tawar, Kabupaten Aceh Tengah, Aceh 24519";"Takengon Tim., Kec. Lut Tawar, Kabupaten Aceh Tengah";"ACEH";"24519";"Indonesia";" 064322216";"4.6244115";"96.8510501";"https://maps.google.com/?cid=0x0:0xfd6523b8ab44bcea"
"mall";"mall";"Aceh 24516";"Kabupaten Aceh Tengah, Aceh";"Kabupaten Aceh Tengah, Aceh";"ACEH";"";"Indonesia";"";"4.5194021";"96.8887202";"https://maps.google.com/?cid=0x0:0x3c9a17af1bc497a9"
"mall";"Toko";"Toko lut tawar";"Jl. Sengeda, Takengon Tim., Kec. Lut Tawar, Kabupaten Aceh Tengah, Aceh 24519";"Takengon Tim., Kec. Lut Tawar, Kabupaten Aceh Tengah";"ACEH";"24519";"Indonesia";" 082163142902";"4.6241166";"96.8510791";"https://maps.google.com/?cid=0x0:0x619d1646d8118710"
"mall";"Tujuan Wisata";"DANAU LUT TAWAR TAKENGON";"JVGJ+43H, Danau, Kabupaten Aceh Tengah, Aceh";"Kabupaten Aceh Tengah, Aceh";"ACEH";"";"Indonesia";"";"4.6253077";"96.8802219";"https://maps.google.com/?cid=0x0:0xa36aace8c227e29f"
"mall";"Pusat Perbelanjaan";"Lr,jami-jami";"JVG2+QMV, Jl. Sengeda, Takengon Tim., Kec. Lut Tawar, Kabupaten Aceh Tengah, Aceh 24519";"Jl. Sengeda, Takengon Tim., Kec. Lut Tawar, Kabupaten Aceh Tengah";"ACEH";"24519";"Indonesia";" 082272223255";"4.6269823";"96.851662";"https://maps.google.com/?cid=0x0:0xfa1749849c08641e"
"mall";"Pusat Perbelanjaan";"Toko Atlanta";"Jl. Sengeda No.26, Takengon Tim., Kec. Lut Tawar, Kabupaten Aceh Tengah, Aceh 24519";"Takengon Tim., Kec. Lut Tawar, Kabupaten Aceh Tengah";"ACEH";"24519";"Indonesia";" 064322216";"4.6244115";"96.8510501";"https://maps.google.com/?cid=0x0:0xfd6523b8ab44bcea"
"mall";"Tujuan Wisata";"Danau Laut Tawar Aceh Tengah";"JW97+82X, Danau, Kabupaten Aceh Tengah, Aceh";"Kabupaten Aceh Tengah, Aceh";"ACEH";"";"Indonesia";"";"4.6183714";"96.9126139";"https://maps.google.com/?cid=0x0:0x8189d19821a50a7b"
"mall";"Toko";"Pusat Oleh-oleh Tapai Ubi";"FVFF+P7G, Kute Robel, Kec. Linge, Kabupaten Aceh Tengah, Aceh 24563";"Kute Robel, Kec. Linge, Kabupaten Aceh Tengah";"ACEH";"24563";"Indonesia";"";"4.4743226";"96.873196";"https://maps.google.com/?cid=0x0:0x21f0e977fd71c92b"
"mall";"mall";"Aceh 24563";"Kabupaten Aceh Tengah, Aceh";"Kabupaten Aceh Tengah, Aceh";"ACEH";"";"Indonesia";"";"4.323702";"97.0498442";"https://maps.google.com/?cid=0x0:0x7d0f262101229bc9"
"mall";"Restoran";"Jamur Kulit";"754J+CJ8, Kenyaran, Kec. Pantan Cuaca, Kabupaten Gayo Lues, Aceh 24563";"Kenyaran, Kec. Pantan Cuaca, Kabupaten Gayo Lues";"ACEH";"24563";"Indonesia";"";"4.2560327";"97.1815874";"https://maps.google.com/?cid=0x0:0x90fb8a61ad054d6c"
"mall";"Kantor Perusahaan";"Warung. Dan kilang padi";"Gelampang Gading, Kec. Linge, Kabupaten Aceh Tengah, Aceh 24563";"Kec. Linge, Kabupaten Aceh Tengah";"ACEH";"24563";"Indonesia";" 082246131340";"4.4763178";"96.8596957";"https://maps.google.com/?cid=0x0:0x3e67d2e821f4966"
"mall";"Toko Swalayan";"Suzuya Mall Banda Aceh";"Jl. Teuku Umar, Lamtemen Tim., Kec. Jaya Baru, Kota Banda Aceh, Aceh 23232";"Lamtemen Tim., Kec. Jaya Baru, Kota Banda Aceh";"ACEH";"23232";"Indonesia";" 06518011022";"5.5377324";"95.3068005";"https://maps.google.com/?cid=0x0:0xc5c56efc74442dea"
"mall";"Kantor Perusahaan";"Pasar Merah Mege";"FQ6M+VP9, Merah Mege, Kec. Atu Lintang, Kabupaten Aceh Tengah, Aceh 24563";"Merah Mege, Kec. Atu Lintang, Kabupaten Aceh Tengah";"ACEH";"24563";"Indonesia";"";"4.4621511";"96.7843665";"https://maps.google.com/?cid=0x0:0x56a8e3de0224734a"
"mall";"Pusat Perbelanjaan";"warung mbah tari";"FR7J+FG2, Dispot Linge, Kec. Linge, Kabupaten Aceh Tengah, Aceh 24563";"Dispot Linge, Kec. Linge, Kabupaten Aceh Tengah";"ACEH";"24563";"Indonesia";" 085373105705";"4.4636316";"96.8312722";"https://maps.google.com/?cid=0x0:0xea49d2c5fa460b50"
"mall";"Kantor Perusahaan";"Main Camp PT Linge Mineral Resources";"8565+5G, Ise-Ise, Kec. Linge, Kabupaten Aceh Tengah, Aceh";"Kabupaten Aceh Tengah, Aceh";"ACEH";"";"Indonesia";"";"4.3104401";"97.1587636";"https://maps.google.com/?cid=0x0:0x30623db6618ddb9a"
"mall";"Grosir Barang Kelontong";"Toko sembako ansar";"9RQ6+XF, Gemboyah, Kec. Linge, Kabupaten Aceh Tengah, Aceh 24563";"Gemboyah, Kec. Linge, Kabupaten Aceh Tengah";"ACEH";"24563";"Indonesia";"";"4.3899598";"96.8111707";"https://maps.google.com/?cid=0x0:0xc82a49676ec0da4c"
"mall";"Pusat Perbelanjaan";"UD ONE GEMASIH";"Tanoh Abu, Kec. Atu Lintang, Kabupaten Aceh Tengah, Aceh 24563";"Kec. Atu Lintang, Kabupaten Aceh Tengah";"ACEH";"24563";"Indonesia";"";"4.4520625";"96.8078125";"https://maps.google.com/?cid=0x0:0x268e0137549d7a23"
"mall";"Toko bahan makanan";"KIOS";"9QHF+MG2, Jl. Takengon - Blangkejeren II, Jagong, Kec. Jagong Jeget, Kabupaten Aceh Tengah, Aceh 24563";"Jl. Takengon - Blangkejeren II, Jagong, Kec. Jagong Jeget, Kabupaten Aceh Tengah";"ACEH";"24563";"Indonesia";" 082287000216";"4.3791494";"96.7737795";"https://maps.google.com/?cid=0x0:0x2d8cabde90676a23"
"mall";"Pasar";"Pusat Kota Kutapanjang";"278H+P75, Dusun kota, Kerukunan Kuta Panjang, Kec. Kutapanjang, Kabupaten Gayo Lues, Aceh 24655";"Dusun kota, Kerukunan Kuta Panjang, Kec. Kutapanjang, Kabupaten Gayo Lues";"ACEH";"24655";"Indonesia";"";"4.016754";"97.2782318";"https://maps.google.com/?cid=0x0:0xc29331f2e702702"
"mall";"Pusat Perbelanjaan";"Empat Putri | Tape Ubi khas Penarun";"C3JP+8X5, Jl. Lintas Takengon - Blangkejeren, Penarun, Kec. Linge, Kabupaten Aceh Tengah, Aceh 24563";"Jl. Lintas Takengon - Blangkejeren, Penarun, Kec. Linge, Kabupaten Aceh Tengah";"ACEH";"24563";"Indonesia";"";"4.4307549";"97.0874812";"https://maps.google.com/?cid=0x0:0x849113886fed2f2"
"mall";"Pusat Perbelanjaan";"Plaza Aceh";"Jl. T. Hasan Dek Jl. Teuku Iskandar No.49, Beurawe, Kec. Kuta Alam, Kota Banda Aceh, Aceh 23127";"Beurawe, Kec. Kuta Alam, Kota Banda Aceh";"ACEH";"23127";"Indonesia";" 08116899890";"5.5547881";"95.3308683";"https://maps.google.com/?cid=0x0:0x45c9eb2ec9e62a76"
"mall";"mall";"Aceh 24561";"Kec. Bies, Kabupaten Aceh Tengah, Aceh";"Kabupaten Aceh Tengah, Aceh";"ACEH";"";"Indonesia";"";"4.6357106";"96.5143087";"https://maps.google.com/?cid=0x0:0x56523b06c23bbd5f"
"mall";"Pusat Perbelanjaan";"Deastro Jakarta";"PQJW+45V, Jl. Raya Bireuen - Takengon, Simpang Balek, Kec. Wih Pesam, Kabupaten Bener Meriah, Aceh 24471";"Jl. Raya Bireuen - Takengon, Simpang Balek, Kec. Wih Pesam, Kabupaten Bener Meriah";"ACEH";"24471";"Indonesia";" 085296006890";"4.7303643";"96.7954064";"https://maps.google.com/?cid=0x0:0x690b92b83fcdea39"
"mall";"Pasar";"Angkup";"JPCC+MWJ, Jl. Angkup - Rusip, Pepayungen Angkup, Kec. Silih Nara, Kabupaten Aceh Tengah, Aceh 24773";"Jl. Angkup - Rusip, Pepayungen Angkup, Kec. Silih Nara, Kabupaten Aceh Tengah";"ACEH";"24773";"Indonesia";"";"4.6217043";"96.7222603";"https://maps.google.com/?cid=0x0:0x3126af42b67b1d8b"
"mall";"Pasar";"Rejeki Unggas";"PPFW+X9P, Jl. Simpang Balik-Blang Mancung, Blang Paku, Kec. Wih Pesam, Kabupaten Bener Meriah, Aceh 24571";"Jl. Simpang Balik-Blang Mancung, Blang Paku, Kec. Wih Pesam, Kabupaten Bener Meriah";"ACEH";"24571";"Indonesia";" 082246840060";"4.7249582";"96.7459641";"https://maps.google.com/?cid=0x0:0xb2b23100774b1d88"
"mall";"Pusat Perbelanjaan";"Kota sultan";"JR87+3XF, Jl. Yos Sudarso, Uning, Kec. Pegasing, Kabupaten Aceh Tengah, Aceh 24471";"Jl. Yos Sudarso, Uning, Kec. Pegasing, Kabupaten Aceh Tengah";"ACEH";"24471";"Indonesia";" 085277730844";"4.6151789";"96.81492";"https://maps.google.com/?cid=0x0:0xf2c62a5d73723884"
"mall";"Kantor Perusahaan";"Pasar Merah Mege";"FQ6M+VP9, Merah Mege, Kec. Atu Lintang, Kabupaten Aceh Tengah, Aceh 24563";"Merah Mege, Kec. Atu Lintang, Kabupaten Aceh Tengah";"ACEH";"24563";"Indonesia";"";"4.4621511";"96.7843665";"https://maps.google.com/?cid=0x0:0x56a8e3de0224734a"
"mall";"Pusat Perbelanjaan";"Murah Raya Hardware Store";"PQJW+542, Jl. Raya Bireuen - Takengon, Simpang Balek, Kec. Wih Pesam, Kabupaten Bener Meriah, Aceh 24471";"Jl. Raya Bireuen - Takengon, Simpang Balek, Kec. Wih Pesam, Kabupaten Bener Meriah";"ACEH";"24471";"Indonesia";" 085362706420";"4.7303786";"96.7952812";"https://maps.google.com/?cid=0x0:0x3e8fe0065713afdb"
"mall";"Pusat Perbelanjaan";"Warung Aep";"FR47+PGC, Merah Jernang, Kec. Atu Lintang, Kabupaten Aceh Tengah, Aceh 24563";"Merah Jernang, Kec. Atu Lintang, Kabupaten Aceh Tengah";"ACEH";"24563";"Indonesia";"";"4.456808";"96.8137574";"https://maps.google.com/?cid=0x0:0x85121cb2c96a6021"
"mall";"Pusat Bisnis";"Qila Store";"HR4C+4M2, Pedekok, Kec. Pegasing, Kabupaten Aceh Tengah, Aceh";"Kabupaten Aceh Tengah, Aceh";"ACEH";"";"Indonesia";" 081373084350";"4.5552649";"96.8216546";"https://maps.google.com/?cid=0x0:0x6ba72469700cb5c8"
"mall";"Pusat Perbelanjaan";"RATU STORE";"PQHW+5GJ, Jl. Simpang Balik-Blang Mancung, Simpang Balek, Kec. Wih Pesam, Kabupaten Bener Meriah, Aceh 24471";"Jl. Simpang Balik-Blang Mancung, Simpang Balek, Kec. Wih Pesam, Kabupaten Bener Meriah";"ACEH";"24471";"Indonesia";" 082370941041";"4.7279683";"96.7962651";"https://maps.google.com/?cid=0x0:0x661a30ae000ddf93"
"mall";"Pusat Perbelanjaan";"Wijaya Makmur";"JPCF+M3F, Pepayungen Angkup, Kec. Silih Nara, Kabupaten Aceh Tengah, Aceh 24773";"Pepayungen Angkup, Kec. Silih Nara, Kabupaten Aceh Tengah";"ACEH";"24773";"Indonesia";"";"4.621677";"96.7226687";"https://maps.google.com/?cid=0x0:0xfc06339935291b56"
"mall";"Toko";"PT Gleh";"MPWX+3Q2, Blang Mancung Bawah, Kec. Ketol, Kabupaten Aceh Tengah, Aceh";"Kabupaten Aceh Tengah, Aceh";"ACEH";"";"Indonesia";"";"4.695135";"96.7493993";"https://maps.google.com/?cid=0x0:0x2e7f2202e83dc9e2"
"mall";"Toko Ponsel";"Dika Ponsel";"PRC4+FV9, Lut Kucak, Kec. Wih Pesam, Kabupaten Bener Meriah, Aceh 24471";"Lut Kucak, Kec. Wih Pesam, Kabupaten Bener Meriah";"ACEH";"24471";"Indonesia";" 085260146400";"4.7211594";"96.8072306";"https://maps.google.com/?cid=0x0:0x6c81f2acc6f47eb9"
"mall";"Pasar";"Berkah Buah";"JPCF+J9P, Pepayungen Angkup, Kec. Silih Nara, Kabupaten Aceh Tengah, Aceh 24773";"Pepayungen Angkup, Kec. Silih Nara, Kabupaten Aceh Tengah";"ACEH";"24773";"Indonesia";" 085275233977";"4.6215842";"96.7234576";"https://maps.google.com/?cid=0x0:0xad95ce788adf403c"
"mall";"Gudang";"UD ALBI BAROKAH";"JJ2M+3WP, Rusip, Kec. Rusip Antara, Kabupaten Aceh Tengah, Aceh 24552";"Rusip, Kec. Rusip Antara, Kabupaten Aceh Tengah";"ACEH";"24552";"Indonesia";" 082364996190";"4.6002188";"96.6348299";"https://maps.google.com/?cid=0x0:0xda32737e826b35f0"
"mall";"mall";"Kec. Rusip Antara";"Kabupaten Aceh Tengah, Aceh";"Kabupaten Aceh Tengah, Aceh";"ACEH";"";"Indonesia";"";"4.7473709";"96.4536555";"https://maps.google.com/?cid=0x0:0x8dc34f971c061ad6"
"mall";"Pasar";"Angkup";"JPCC+MWJ, Jl. Angkup - Rusip, Pepayungen Angkup, Kec. Silih Nara, Kabupaten Aceh Tengah, Aceh 24773";"Jl. Angkup - Rusip, Pepayungen Angkup, Kec. Silih Nara, Kabupaten Aceh Tengah";"ACEH";"24773";"Indonesia";"";"4.6217043";"96.7222603";"https://maps.google.com/?cid=0x0:0x3126af42b67b1d8b"
"mall";"Pusat Perbelanjaan";"YI Cell";"Jl. Angkup - Rusip Blang Mancung, Pepayungen Angkup, Kec. Silih Nara, Kabupaten Aceh Tengah, Aceh 24562";"Pepayungen Angkup, Kec. Silih Nara, Kabupaten Aceh Tengah";"ACEH";"24562";"Indonesia";" 085156787077";"4.6267997";"96.723642";"https://maps.google.com/?cid=0x0:0x3d65eb562ff3f115"
"mall";"Toko";"kios kiki";"HMJJ+PVR, Blang Delem, Kec. Celala, Kabupaten Aceh Tengah, Aceh 24552";"Blang Delem, Kec. Celala, Kabupaten Aceh Tengah";"ACEH";"24552";"Indonesia";" 082118651594";"4.5818525";"96.6821375";"https://maps.google.com/?cid=0x0:0x77509c5f16e41099"
"mall";"Pusat Perbelanjaan";"ANEKA BARU";"JPCF+Q29, Jl. Genting-Angkup, Pepayungen Angkup, Kec. Silih Nara, Kabupaten Aceh Tengah, Aceh 24773";"Jl. Genting-Angkup, Pepayungen Angkup, Kec. Silih Nara, Kabupaten Aceh Tengah";"ACEH";"24773";"Indonesia";" 085213134682";"4.6219215";"96.7226155";"https://maps.google.com/?cid=0x0:0x28ee3677caece5fe"
"mall";"Toko";"toko DRP IBUK ATIK";"JP5X+27F, Burni Bius Baru, Kec. Silih Nara, Kabupaten Aceh Tengah, Aceh 24568";"Burni Bius Baru, Kec. Silih Nara, Kabupaten Aceh Tengah";"ACEH";"24568";"Indonesia";" 082201234567";"4.6075728";"96.748162";"https://maps.google.com/?cid=0x0:0x7aa2a976b071ff0f"
"mall";"Pusat Perbelanjaan";"Wijaya Makmur";"JPCF+M3F, Pepayungen Angkup, Kec. Silih Nara, Kabupaten Aceh Tengah, Aceh 24773";"Pepayungen Angkup, Kec. Silih Nara, Kabupaten Aceh Tengah";"ACEH";"24773";"Indonesia";"";"4.621677";"96.7226687";"https://maps.google.com/?cid=0x0:0xfc06339935291b56"
"mall";"Toko Makanan";"UD OZIEL";"JMF9+VQ6jerata, Kec. Silih Nara, Kabupaten Aceh Tengah, Aceh";"Kabupaten Aceh Tengah, Aceh";"ACEH";"";"Indonesia";" 085361525352";"4.6242039";"96.6698519";"https://maps.google.com/?cid=0x0:0xb28a96db2db9a9a9"
"mall";"Pusat Perbelanjaan";"Plaza Aceh";"Jl. T. Hasan Dek Jl. Teuku Iskandar No.49, Beurawe, Kec. Kuta Alam, Kota Banda Aceh, Aceh 23127";"Beurawe, Kec. Kuta Alam, Kota Banda Aceh";"ACEH";"23127";"Indonesia";" 08116899890";"5.5547881";"95.3308683";"https://maps.google.com/?cid=0x0:0x45c9eb2ec9e62a76"
"mall";"Sekolah Dasar";"SDN 7 Rusip Antara";"QC2M+PR9, Merandeh Paya, Kec. Rusip Antara, Kabupaten Aceh Tengah, Aceh 24183";"Merandeh Paya, Kec. Rusip Antara, Kabupaten Aceh Tengah";"ACEH";"24183";"Indonesia";"";"4.7517817";"96.4346136";"https://maps.google.com/?cid=0x0:0x5185641ce1b29327"
"mall";"mall";"Kec. Silih Nara";"Kabupaten Aceh Tengah, Aceh";"Kabupaten Aceh Tengah, Aceh";"ACEH";"";"Indonesia";"";"4.6417568";"96.7325032";"https://maps.google.com/?cid=0x0:0xba6d4d84a00888d5"
"mall";"Pusat Perbelanjaan";"ANEKA BARU";"JPCF+Q29, Jl. Genting-Angkup, Pepayungen Angkup, Kec. Silih Nara, Kabupaten Aceh Tengah, Aceh 24773";"Jl. Genting-Angkup, Pepayungen Angkup, Kec. Silih Nara, Kabupaten Aceh Tengah";"ACEH";"24773";"Indonesia";" 085213134682";"4.6219215";"96.7226155";"https://maps.google.com/?cid=0x0:0x28ee3677caece5fe"
"mall";"Pasar";"Berkah Buah";"JPCF+J9P, Pepayungen Angkup, Kec. Silih Nara, Kabupaten Aceh Tengah, Aceh 24773";"Pepayungen Angkup, Kec. Silih Nara, Kabupaten Aceh Tengah";"ACEH";"24773";"Indonesia";" 085275233977";"4.6215842";"96.7234576";"https://maps.google.com/?cid=0x0:0xad95ce788adf403c"
"mall";"Toko";"toko DRP IBUK ATIK";"JP5X+27F, Burni Bius Baru, Kec. Silih Nara, Kabupaten Aceh Tengah, Aceh 24568";"Burni Bius Baru, Kec. Silih Nara, Kabupaten Aceh Tengah";"ACEH";"24568";"Indonesia";" 082201234567";"4.6075728";"96.748162";"https://maps.google.com/?cid=0x0:0x7aa2a976b071ff0f"
"mall";"Toko Makanan";"UD OZIEL";"JMF9+VQ6jerata, Kec. Silih Nara, Kabupaten Aceh Tengah, Aceh";"Kabupaten Aceh Tengah, Aceh";"ACEH";"";"Indonesia";" 085361525352";"4.6242039";"96.6698519";"https://maps.google.com/?cid=0x0:0xb28a96db2db9a9a9"
"mall";"Pasar";"Angkup";"JPCC+MWJ, Jl. Angkup - Rusip, Pepayungen Angkup, Kec. Silih Nara, Kabupaten Aceh Tengah, Aceh 24773";"Jl. Angkup - Rusip, Pepayungen Angkup, Kec. Silih Nara, Kabupaten Aceh Tengah";"ACEH";"24773";"Indonesia";"";"4.6217043";"96.7222603";"https://maps.google.com/?cid=0x0:0x3126af42b67b1d8b"
"mall";"Pusat Perbelanjaan";"YI Cell";"Jl. Angkup - Rusip Blang Mancung, Pepayungen Angkup, Kec. Silih Nara, Kabupaten Aceh Tengah, Aceh 24562";"Pepayungen Angkup, Kec. Silih Nara, Kabupaten Aceh Tengah";"ACEH";"24562";"Indonesia";" 085156787077";"4.6267997";"96.723642";"https://maps.google.com/?cid=0x0:0x3d65eb562ff3f115"
"mall";"Pusat Perbelanjaan";"toko jabal nur angkop";"JPCF+X23, Pepayungen Angkup, Kec. Silih Nara, Kabupaten Aceh Tengah, Aceh 24773";"Pepayungen Angkup, Kec. Silih Nara, Kabupaten Aceh Tengah";"ACEH";"24773";"Indonesia";" 082272346296";"4.6223795";"96.7225554";"https://maps.google.com/?cid=0x0:0xd3f71088f6a6f0b1"
"mall";"Toko Bahan Bangunan";"Toko besi maju jaya";"JPCF+Q6G, Jl. Angkup - Belang Mancung, Pepayungen Angkup, Kec. Silih Nara, Kabupaten Aceh Tengah, Aceh 24773";"Jl. Angkup - Belang Mancung, Pepayungen Angkup, Kec. Silih Nara, Kabupaten Aceh Tengah";"ACEH";"24773";"Indonesia";"";"4.6219477";"96.7230833";"https://maps.google.com/?cid=0x0:0x39a92957f3dc1b09"
"mall";"mall";"ballons_buket";"Bius Utama, Kec. Silih Nara, Kabupaten Aceh Tengah, Aceh";"Kabupaten Aceh Tengah, Aceh";"ACEH";"";"Indonesia";"";"4.6050168";"96.755076";"https://maps.google.com/?cid=0x0:0x908176893b84cf60"
"supermarket";"supermarket";"Kec. Atu Lintang";"Kabupaten Aceh Tengah, Aceh";"Kabupaten Aceh Tengah, Aceh";"ACEH";"";"Indonesia";"";"4.4471548";"96.7737666";"https://maps.google.com/?cid=0x0:0x628bebcc216373e8"
"supermarket";"Pusat Perbelanjaan";"Yufi Market";"FR58+934, Unnamed Road, Merah Jernang, Kec. Atu Lintang, Kabupaten Aceh Tengah, Aceh 24563";"Unnamed Road, Merah Jernang, Kec. Atu Lintang, Kabupaten Aceh Tengah";"ACEH";"24563";"Indonesia";" 082365845092";"4.4583782";"96.8152126";"https://maps.google.com/?cid=0x0:0xaa5d2ea93b7f3c9c"
"supermarket";"Toko umum";"Aqua/Aries Store";"Pasar Senin, Kec. Atu Lintang, Kabupaten Aceh Tengah, Aceh";"Kabupaten Aceh Tengah, Aceh";"ACEH";"";"Indonesia";" 082214597781";"4.4483286";"96.7738267";"https://maps.google.com/?cid=0x0:0x11f8d0e502febb03"
"supermarket";"Grosir Barang Kelontong";"UD Deni";"FQ9R+547, Merah Mege, Kec. Atu Lintang, Kabupaten Aceh Tengah, Aceh 24563";"Merah Mege, Kec. Atu Lintang, Kabupaten Aceh Tengah";"ACEH";"24563";"Indonesia";" 085296915873";"4.4679091";"96.7903112";"https://maps.google.com/?cid=0x0:0x93523238e3d30577"
"supermarket";"Toko Makanan";"industri Tempe Rahono";"FR57+FWF, Unnamed Road, Merah Jernang, Kec. Atu Lintang, Kabupaten Aceh Tengah, Aceh 24563";"Unnamed Road, Merah Jernang, Kec. Atu Lintang, Kabupaten Aceh Tengah";"ACEH";"24563";"Indonesia";"";"4.458686";"96.8148072";"https://maps.google.com/?cid=0x0:0x84de3561414a5fbb"
"supermarket";"Toko";"Atha Frozen food";"FQ8V+JX7, Merah Mege, Kec. Atu Lintang, Kabupaten Aceh Tengah, Aceh 24563";"Merah Mege, Kec. Atu Lintang, Kabupaten Aceh Tengah";"ACEH";"24563";"Indonesia";"";"4.4665392";"96.7949137";"https://maps.google.com/?cid=0x0:0x11357bb42e433bb3"
"supermarket";"Pusat Perbelanjaan";"UD. GIBRAN sembako";"Merah Mege, Kec. Atu Lintang, Kabupaten Aceh Tengah, Aceh 24563";"Kec. Atu Lintang, Kabupaten Aceh Tengah";"ACEH";"24563";"Indonesia";" 082285536344";"4.4654305";"96.7888616";"https://maps.google.com/?cid=0x0:0xd5ba149a9cba76db"
"supermarket";"Kantor Perusahaan";"Bos muda sifa palawidja";"CQRF+R3M, Atu Lintang, Kec. Atu Lintang, Kabupaten Aceh Tengah, Aceh";"Kabupaten Aceh Tengah, Aceh";"ACEH";"";"Indonesia";"";"4.4412078";"96.7725258";"https://maps.google.com/?cid=0x0:0x19e10b49e9fb7f0e"
"supermarket";"Layanan Sewa Tenda";"Damar Mulyo";"CQQF+22J, Atu Lintang, Kec. Atu Lintang, Kabupaten Aceh Tengah, Aceh 24563";"Atu Lintang, Kec. Atu Lintang, Kabupaten Aceh Tengah";"ACEH";"24563";"Indonesia";"";"4.4375997";"96.7725074";"https://maps.google.com/?cid=0x0:0xda139ba2155dcf71"
"supermarket";"Sekolah Dasar";"S D N 1 Atu Lintang";"CQXC+FFM, Atu Lintang, Kec. Atu Lintang, Kabupaten Aceh Tengah, Aceh 24563";"Atu Lintang, Kec. Atu Lintang, Kabupaten Aceh Tengah";"ACEH";"24563";"Indonesia";"";"4.4487104";"96.7711582";"https://maps.google.com/?cid=0x0:0x1c1fc2d46ebb1d74"
"supermarket";"Minimarket";"Pop corn al";"CQRC+WMR, Atu Lintang, Kec. Atu Lintang, Kabupaten Aceh Tengah, Aceh";"Kabupaten Aceh Tengah, Aceh";"ACEH";"";"Indonesia";" 082214596770";"4.4423683";"96.7716544";"https://maps.google.com/?cid=0x0:0x5c6f432f5ec8e2cf"
"supermarket";"Restoran";"Dapur IRA Frozen Mart";"Jl. Lebe Kader No.22, Simpang Empat, Kec. Bebesen, Kabupaten Aceh Tengah, Aceh 24471";"Simpang Empat, Kec. Bebesen, Kabupaten Aceh Tengah";"ACEH";"24471";"Indonesia";" 085321346141";"4.6345352";"96.8425713";"https://maps.google.com/?cid=0x0:0x6a22635a40a2a844"
"supermarket";"Pusat Perbelanjaan";"Warung rian saputra";"FR5H+HH8, Dispot Linge, Kec. Linge, Kabupaten Aceh Tengah, Aceh";"Kabupaten Aceh Tengah, Aceh";"ACEH";"";"Indonesia";"";"4.4589159";"96.8289668";"https://maps.google.com/?cid=0x0:0xd88734785a5cbd50"
"supermarket";"Pasar Petani";"Pasar";"Paya ilang, Kec. Bebesen, Kabupaten Aceh Tengah, Aceh";"Kabupaten Aceh Tengah, Aceh";"ACEH";"";"Indonesia";"";"4.6246361";"96.8346541";"https://maps.google.com/?cid=0x0:0x3deec3ebf20d06b4"
"supermarket";"supermarket";"Kec. Bebesen";"Kabupaten Aceh Tengah, Aceh";"Kabupaten Aceh Tengah, Aceh";"ACEH";"";"Indonesia";"";"4.6302813";"96.8522896";"https://maps.google.com/?cid=0x0:0xee869ea2be8289e9"
"supermarket";"Pom bensin/SPBU";"Petro Market SPBU";"Jl. Sengeda, Nunang Antara, Kec. Bebesen, Kabupaten Aceh Tengah, Aceh 24552";"Nunang Antara, Kec. Bebesen, Kabupaten Aceh Tengah";"ACEH";"24552";"Indonesia";"";"4.6320614";"96.8534164";"https://maps.google.com/?cid=0x0:0x877a757780a661fe"
"supermarket";"Toko Swalayan";"Serba Ada Square";"JRFW+MHG, Jl. Lebe Kader, Blang Kolak I, Kec. Bebesen, Kabupaten Aceh Tengah, Aceh 24552";"Jl. Lebe Kader, Blang Kolak I, Kec. Bebesen, Kabupaten Aceh Tengah";"ACEH";"24552";"Indonesia";"";"4.6241766";"96.8464582";"https://maps.google.com/?cid=0x0:0x639d311c6a2807b2"
"supermarket";"Toko";"Belangi Swalayan";"JRJM+2QR, Kebet, Kec. Bebesen, Kabupaten Aceh Tengah, Aceh 24471";"Kebet, Kec. Bebesen, Kabupaten Aceh Tengah";"ACEH";"24471";"Indonesia";"";"4.6301177";"96.8343826";"https://maps.google.com/?cid=0x0:0x7fe3aef71d498548"
"supermarket";"Minimarket";"Indomaret Bebesan";"JRMR+FW5, Simpang Empat, Kec. Bebesen, Kabupaten Aceh Tengah, Aceh 24471";"Simpang Empat, Kec. Bebesen, Kabupaten Aceh Tengah";"ACEH";"24471";"Indonesia";"";"4.6336287";"96.8423519";"https://maps.google.com/?cid=0x0:0x5acbfebc9274f53d"
"supermarket";"Toko";"Indomaret Yos Sudarso Takengon";"JRFR+2C9, Blang Kolak II, Kec. Bebesen, Kabupaten Aceh Tengah, Aceh 24519";"Blang Kolak II, Kec. Bebesen, Kabupaten Aceh Tengah";"ACEH";"24519";"Indonesia";"";"4.6225264";"96.8411054";"https://maps.google.com/?cid=0x0:0xf44370c054c1d15d"
"supermarket";"Toko Swalayan";"Serba Ada Swalayan";"JRFX+MW7, Bale Atu, Kec. Lut Tawar, Kabupaten Aceh Tengah, Aceh 24519";"Bale Atu, Kec. Lut Tawar, Kabupaten Aceh Tengah";"ACEH";"24519";"Indonesia";"";"4.6241692";"96.8497913";"https://maps.google.com/?cid=0x0:0x6e7a236a8fb515ae"
"supermarket";"Toko";"Pante Cermin Baru";"JRHV+XC5, Kemili, Kec. Bebesen, Kabupaten Aceh Tengah, Aceh 24519";"Kemili, Kec. Bebesen, Kabupaten Aceh Tengah";"ACEH";"24519";"Indonesia";" 085359226562";"4.6298757";"96.8436131";"https://maps.google.com/?cid=0x0:0x8a882866f89f5f98"
"supermarket";"Minimarket";"toko bakureh";"JRJM+4Q2, Jl. Soekarno - Hatta, Kebet, Kec. Bebesen, Kabupaten Aceh Tengah, Aceh 24471";"Jl. Soekarno - Hatta, Kebet, Kec. Bebesen, Kabupaten Aceh Tengah";"ACEH";"24471";"Indonesia";" 085261971828";"4.6302699";"96.8343939";"https://maps.google.com/?cid=0x0:0x3c3c9ac3b48398d7"
"supermarket";"Restoran";"Dapur IRA Frozen Mart";"Jl. Lebe Kader No.22, Simpang Empat, Kec. Bebesen, Kabupaten Aceh Tengah, Aceh 24471";"Simpang Empat, Kec. Bebesen, Kabupaten Aceh Tengah";"ACEH";"24471";"Indonesia";" 085321346141";"4.6345352";"96.8425713";"https://maps.google.com/?cid=0x0:0x6a22635a40a2a844"
"supermarket";"Toko Pakaian";"Miniso X Bonbox";"https://maps.app.goo.gl/cTbYTwwv4ZCpXGT3A, Keramat Mupakat, Kec. Bebesen, Kabupaten Aceh Tengah, Aceh 24552";"Keramat Mupakat, Kec. Bebesen, Kabupaten Aceh Tengah";"ACEH";"24552";"Indonesia";" 085362221333";"4.6307862";"96.852336";"https://maps.google.com/?cid=0x0:0xae0d735cb582e2f9"
"supermarket";"supermarket";"N/A";"";"";"ACEH";"";"Indonesia";"";"";"";"https://maps.google.com/?cid=0x0:0xce95619e970818bb"
"supermarket";"Toko bahan makanan";"Abil jaya";"JVM3+33F, Nunang Antara, Kec. Bebesen, Kabupaten Aceh Tengah, Aceh 24519";"Nunang Antara, Kec. Bebesen, Kabupaten Aceh Tengah";"ACEH";"24519";"Indonesia";"";"4.6326771";"96.8526801";"https://maps.google.com/?cid=0x0:0x6d5ca80b642bef17"
"supermarket";"Pasar";"Rakyat mart";"JRFM+XF8, Jl. Terminal Paya Ilang, Blang Kolak II, Kec. Bebesen, Kabupaten Aceh Tengah, Aceh 24471";"Jl. Terminal Paya Ilang, Blang Kolak II, Kec. Bebesen, Kabupaten Aceh Tengah";"ACEH";"24471";"Indonesia";" 082249431652";"4.6248108";"96.8337439";"https://maps.google.com/?cid=0x0:0x67a22057a202941a"
"supermarket";"supermarket";"Kec. Bies";"Kabupaten Aceh Tengah, Aceh";"Kabupaten Aceh Tengah, Aceh";"ACEH";"";"Indonesia";"";"4.6053524";"96.7887047";"https://maps.google.com/?cid=0x0:0x7a713d24d00a3f00"
"supermarket";"Toko Swalayan";"KIOS ALFARIZKY (Pulsa, PPOB, Kelontong, dsb)";"Jl. Beutong Ateuh - Takengon, Simpang Lukup Badak, Kec. Bies, Kabupaten Aceh Tengah, Aceh 24552";"Simpang Lukup Badak, Kec. Bies, Kabupaten Aceh Tengah";"ACEH";"24552";"Indonesia";"";"4.5979727";"96.8009919";"https://maps.google.com/?cid=0x0:0x3ec0af7382ee4bcf"
"supermarket";"Toko Swalayan";"ARIKE FOTOCOPY, KELONTONG  PULSA";"HQWX+R4M, Jl. Beutong Ateuh - Takengon, Atang Jungket, Kec. Bies, Kabupaten Aceh Tengah, Aceh 24552";"Jl. Beutong Ateuh - Takengon, Atang Jungket, Kec. Bies, Kabupaten Aceh Tengah";"ACEH";"24552";"Indonesia";" 081361534130";"4.5970845";"96.7978026";"https://maps.google.com/?cid=0x0:0x93c92f32d1757cf4"
"supermarket";"Minimarket";"toko bakureh";"JRJM+4Q2, Jl. Soekarno - Hatta, Kebet, Kec. Bebesen, Kabupaten Aceh Tengah, Aceh 24471";"Jl. Soekarno - Hatta, Kebet, Kec. Bebesen, Kabupaten Aceh Tengah";"ACEH";"24471";"Indonesia";" 085261971828";"4.6302699";"96.8343939";"https://maps.google.com/?cid=0x0:0x3c3c9ac3b48398d7"
"supermarket";"Toko umum";"UD IRHAMNA JAYA";"Belang Bebangka, Kec. Pegasing, Kabupaten Aceh Tengah, Aceh 24552";"Kec. Pegasing, Kabupaten Aceh Tengah";"ACEH";"24552";"Indonesia";"";"4.6028588";"96.8164861";"https://maps.google.com/?cid=0x0:0x62486b5d35bb68cd"
"supermarket";"Toko Swalayan";"KANAMBIA";"JRPM+QQ8, Jl. Soekarno - Hatta, Empus Talu, Kec. Bebesen, Kabupaten Aceh Tengah, Aceh 24471";"Jl. Soekarno - Hatta, Empus Talu, Kec. Bebesen, Kabupaten Aceh Tengah";"ACEH";"24471";"Indonesia";"";"4.636917";"96.8344545";"https://maps.google.com/?cid=0x0:0x68f70ab89dccaa7d"
"supermarket";"Restoran";"Dapur IRA Frozen Mart";"Jl. Lebe Kader No.22, Simpang Empat, Kec. Bebesen, Kabupaten Aceh Tengah, Aceh 24471";"Simpang Empat, Kec. Bebesen, Kabupaten Aceh Tengah";"ACEH";"24471";"Indonesia";" 085321346141";"4.6345352";"96.8425713";"https://maps.google.com/?cid=0x0:0x6a22635a40a2a844"
"supermarket";"Toko Swalayan";"Murni maju";"Jln takengon isaq, desa bebangka, Kec. Pegasing, Kabupaten Aceh Tengah, Aceh 24261";"desa bebangka, Kec. Pegasing, Kabupaten Aceh Tengah";"ACEH";"24261";"Indonesia";" 082267999876";"4.6006962";"96.8163331";"https://maps.google.com/?cid=0x0:0x84ef2ff758412b85"
"supermarket";"Pasar Petani";"Pasar";"Paya ilang, Kec. Bebesen, Kabupaten Aceh Tengah, Aceh";"Kabupaten Aceh Tengah, Aceh";"ACEH";"";"Indonesia";"";"4.6246361";"96.8346541";"https://maps.google.com/?cid=0x0:0x3deec3ebf20d06b4"
"supermarket";"Toko";"Toko muslim jaya";"HRW8+4WR, Kung, Kec. Pegasing, Kabupaten Aceh Tengah, Aceh 24552";"Kung, Kec. Pegasing, Kabupaten Aceh Tengah";"ACEH";"24552";"Indonesia";"";"4.5953201";"96.8172469";"https://maps.google.com/?cid=0x0:0x83313a235e3ebc5b"
"supermarket";"Toko grosir";"UD. KENANGAN";"Jl. Yos Sudarso, Tansaril, Kec. Bebesen, Kabupaten Aceh Tengah, Aceh 24471";"Tansaril, Kec. Bebesen, Kabupaten Aceh Tengah";"ACEH";"24471";"Indonesia";" 081349623840";"4.6248296";"96.8309075";"https://maps.google.com/?cid=0x0:0x97ed523421a72d36"
"supermarket";"Toko bahan makanan";"Tansa Kupi";"JRFJ+WMM, Jl. Yos Sudarso, Tansaril, Kec. Bebesen, Kabupaten Aceh Tengah, Aceh";"Kabupaten Aceh Tengah, Aceh";"ACEH";"";"Indonesia";"";"4.6248332";"96.8316564";"https://maps.google.com/?cid=0x0:0x73a8d034b5d97bbc"
"supermarket";"Bar";"jual beli pokat";"JQ36+3M6, Jl. Takengon - Angkup, Wih Pesam, Kec. Silih Nara, Kabupaten Aceh Tengah, Aceh 24552";"Jl. Takengon - Angkup, Wih Pesam, Kec. Silih Nara, Kabupaten Aceh Tengah";"ACEH";"24552";"Indonesia";"";"4.6026728";"96.7616518";"https://maps.google.com/?cid=0x0:0x3504943c6c6034c"
"supermarket";"supermarket";"Aceh 24561";"Kec. Bies, Kabupaten Aceh Tengah, Aceh";"Kabupaten Aceh Tengah, Aceh";"ACEH";"";"Indonesia";"";"4.6357106";"96.5143087";"https://maps.google.com/?cid=0x0:0x56523b06c23bbd5f"
"supermarket";"supermarket";"Aceh 24571";"Aceh";"Aceh";"ACEH";"";"Indonesia";"";"4.507827";"97.0283383";"https://maps.google.com/?cid=0x0:0x77a6c4861552772a"
"supermarket";"Toko";"Arbinja Mart";"H2P4+6FH, Wakil Jalil, Kec. Bintang, Kabupaten Aceh Tengah, Aceh 24582";"Wakil Jalil, Kec. Bintang, Kabupaten Aceh Tengah";"ACEH";"24582";"Indonesia";"";"4.5855716";"97.0062275";"https://maps.google.com/?cid=0x0:0x425f657212f2f6af"
"supermarket";"Toko Swalayan";"4 Market BM";"Jalan Bireuen-Takengon, Pante Raya Barat, Wih Pesam, Simpang Balek di samping Serba 35 ribu (4 Market BM) (4 Market BM. KAB. BENER MERIAH, WIH PESAM, NANGGROE ACEH DARUSSALAM (NAD, 24591";"Pante Raya Barat, Wih Pesam, Simpang Balek di samping Serba 35 ribu (4 Market BM) (4 Market BM. KAB. BENER MERIAH, WIH PESAM";"ACEH";"24591";"Indonesia";"";"4.7261329";"96.8020214";"https://maps.google.com/?cid=0x0:0x56fb51668dbdd6a0"
"supermarket";"Pom bensin/SPBU";"Petro Market SPBU";"Jl. Sengeda, Nunang Antara, Kec. Bebesen, Kabupaten Aceh Tengah, Aceh 24552";"Nunang Antara, Kec. Bebesen, Kabupaten Aceh Tengah";"ACEH";"24552";"Indonesia";"";"4.6320614";"96.8534164";"https://maps.google.com/?cid=0x0:0x877a757780a661fe"
"supermarket";"Toko Swalayan";"Serba Ada Swalayan";"JRFX+MW7, Bale Atu, Kec. Lut Tawar, Kabupaten Aceh Tengah, Aceh 24519";"Bale Atu, Kec. Lut Tawar, Kabupaten Aceh Tengah";"ACEH";"24519";"Indonesia";"";"4.6241692";"96.8497913";"https://maps.google.com/?cid=0x0:0x6e7a236a8fb515ae"
"supermarket";"Toko bahan makanan";"SimpangLima Grocery Store";"Jl. Tengku Angkasa H Abdullah Ujong Rimba No 20, Kp. Baru, Kec. Baiturrahman, Kota Banda Aceh, Aceh 23242";"Kp. Baru, Kec. Baiturrahman, Kota Banda Aceh";"ACEH";"23242";"Indonesia";" 0811686677";"5.5504966";"95.3167777";"https://maps.google.com/?cid=0x0:0x22361fe0a56c2da4"
"supermarket";"Toko Swalayan";"Serba Ada Square";"JRFW+MHG, Jl. Lebe Kader, Blang Kolak I, Kec. Bebesen, Kabupaten Aceh Tengah, Aceh 24552";"Jl. Lebe Kader, Blang Kolak I, Kec. Bebesen, Kabupaten Aceh Tengah";"ACEH";"24552";"Indonesia";"";"4.6241766";"96.8464582";"https://maps.google.com/?cid=0x0:0x639d311c6a2807b2"
"supermarket";"Minimarket";"ENI MARKET";"PQG7+W9H, Jl. Simpang Balik-Blang Mancung, Blang Kucak, Kec. Wih Pesam, Kabupaten Bener Meriah, Aceh 24571";"Jl. Simpang Balik-Blang Mancung, Blang Kucak, Kec. Wih Pesam, Kabupaten Bener Meriah";"ACEH";"24571";"Indonesia";"";"4.7273172";"96.7634874";"https://maps.google.com/?cid=0x0:0x6750a6a5ee19057c"
"supermarket";"Toko Swalayan";"City Market";"JVH2+3J8, Jl. Sengeda, Kala Kemili, Kec. Bebesen, Kabupaten Aceh Tengah, Aceh 24519";"Jl. Sengeda, Kala Kemili, Kec. Bebesen, Kabupaten Aceh Tengah";"ACEH";"24519";"Indonesia";"";"4.627662";"96.8515751";"https://maps.google.com/?cid=0x0:0xf6ec5c1edd40b7b2"
"supermarket";"Toko Swalayan";"Toko Sejahtra swalayan";"Jl. Gatot Subroto, Bale Atu, Kec. Lut Tawar, Kabupaten Aceh Tengah, Aceh 24519";"Bale Atu, Kec. Lut Tawar, Kabupaten Aceh Tengah";"ACEH";"24519";"Indonesia";"";"4.6233746";"96.8499305";"https://maps.google.com/?cid=0x0:0xf93184dd2ceafe62"
"supermarket";"Toko Swalayan";"KIOS ALFARIZKY (Pulsa, PPOB, Kelontong, dsb)";"Jl. Beutong Ateuh - Takengon, Simpang Lukup Badak, Kec. Bies, Kabupaten Aceh Tengah, Aceh 24552";"Simpang Lukup Badak, Kec. Bies, Kabupaten Aceh Tengah";"ACEH";"24552";"Indonesia";"";"4.5979727";"96.8009919";"https://maps.google.com/?cid=0x0:0x3ec0af7382ee4bcf"
"supermarket";"Toko Kelontong Asia";"UD. Tahu langkir";"QQ97+4WR, Suka Damai, Kec. Timang Gajah, Kabupaten Bener Meriah, Aceh 24571";"Suka Damai, Kec. Timang Gajah, Kabupaten Bener Meriah";"ACEH";"24571";"Indonesia";" 082369528336";"4.7678702";"96.7647751";"https://maps.google.com/?cid=0x0:0x8f43434de29bacc"
"supermarket";"Pusat Perbelanjaan";"Geubrina Jaya Market Simpang Tiga";"Jl. Pd. Baru No.355, Uring, Kec. Bukit, Kabupaten Bener Meriah, Aceh 24582";"Uring, Kec. Bukit, Kabupaten Bener Meriah";"ACEH";"24582";"Indonesia";"";"4.717986";"96.8715744";"https://maps.google.com/?cid=0x0:0x8236bb5f1f009149"
"supermarket";"Toko Swalayan";"BINTANG SWALAYAN";"QVPR+583, Jl. Medan Banda Aceh, Alue Nibong, Kec. Peureulak, Kabupaten Aceh Timur, Aceh 24458";"Jl. Medan Banda Aceh, Alue Nibong, Kec. Peureulak, Kabupaten Aceh Timur";"ACEH";"24458";"Indonesia";"";"4.7854501";"97.8907979";"https://maps.google.com/?cid=0x0:0x2c75d197aad31c05"
"supermarket";"supermarket";"Aceh 24562";"Kabupaten Aceh Tenggara, Aceh";"Kabupaten Aceh Tenggara, Aceh";"ACEH";"";"Indonesia";"";"3.5579154";"97.8395151";"https://maps.google.com/?cid=0x0:0xb30973a1a0ff7eb2"
"supermarket";"Kafe";"Lina market";"HMVQ+6QR, Melala, Kec. Celala, Kabupaten Aceh Tengah, Aceh 24562";"Melala, Kec. Celala, Kabupaten Aceh Tengah";"ACEH";"24562";"Indonesia";" 085296376500";"4.5930434";"96.6893405";"https://maps.google.com/?cid=0x0:0x75ac5af35aacf0c3"
"supermarket";"Toko Swalayan";"Toko Sejahtra swalayan";"Jl. Gatot Subroto, Bale Atu, Kec. Lut Tawar, Kabupaten Aceh Tengah, Aceh 24519";"Bale Atu, Kec. Lut Tawar, Kabupaten Aceh Tengah";"ACEH";"24519";"Indonesia";"";"4.6233746";"96.8499305";"https://maps.google.com/?cid=0x0:0xf93184dd2ceafe62"
"supermarket";"Minimarket";"Kios Lena/inen sahru";"HMJJ+G2F, Blang Delem, Kec. Celala, Kabupaten Aceh Tengah, Aceh 24552";"Blang Delem, Kec. Celala, Kabupaten Aceh Tengah";"ACEH";"24552";"Indonesia";" 082364911964";"4.581301";"96.6800544";"https://maps.google.com/?cid=0x0:0x2a5e8a0dbd34393d"
"supermarket";"Toko Beras";"Kios idris ( A. Dian )";"Jl. Beutong Ateuh - Takengon, Blang Kekumur, Kec. Celala, Kabupaten Aceh Tengah, Aceh 24773";"Blang Kekumur, Kec. Celala, Kabupaten Aceh Tengah";"ACEH";"24773";"Indonesia";" 081312389697";"4.6062637";"96.696732";"https://maps.google.com/?cid=0x0:0xfab42de72b2f8a70"
"supermarket";"Toko Percetakan";"Foto copy  Atk khalif";"HMQP+GQC, Cibro, Kec. Celala, Kabupaten Aceh Tengah, Aceh 24552";"Cibro, Kec. Celala, Kabupaten Aceh Tengah";"ACEH";"24552";"Indonesia";"";"4.5886809";"96.6876242";"https://maps.google.com/?cid=0x0:0x4fa43c441837a686"
"supermarket";"Grosir Kopi";"Kedai Ungel";"Makmur, Kec. Celala, Kabupaten Aceh Tengah, Aceh";"Kabupaten Aceh Tengah, Aceh";"ACEH";"";"Indonesia";"";"4.601172";"96.695372";"https://maps.google.com/?cid=0x0:0x9763a660862250d4"
"supermarket";"Kedai Kopi";"Rolly Market";"JPCF+M3F, Pepayungen Angkup, Kec. Silih Nara, Kabupaten Aceh Tengah, Aceh 24773";"Pepayungen Angkup, Kec. Silih Nara, Kabupaten Aceh Tengah";"ACEH";"24773";"Indonesia";" 085270548885";"4.621685";"96.7226646";"https://maps.google.com/?cid=0x0:0xad0860543f994497"
"supermarket";"Toko Makanan";"Dapoer Cemal Cemil";"Jl. Angkup - Rusip, Genting Gerbang, Kec. Silih Nara, Kabupaten Aceh Tengah, Aceh 24562";"Genting Gerbang, Kec. Silih Nara, Kabupaten Aceh Tengah";"ACEH";"24562";"Indonesia";"";"4.6276678";"96.7011407";"https://maps.google.com/?cid=0x0:0x971381d412e4a523"
"supermarket";"Bengkel Bongkar Pasang Mesin";"Nurhayati SPd";"HPCC+889, Jl. Gele Lungi, Kuyun, Kec. Celala, Kabupaten Aceh Tengah, Aceh";"Kabupaten Aceh Tengah, Aceh";"ACEH";"";"Indonesia";"";"4.5711805";"96.7190355";"https://maps.google.com/?cid=0x0:0xa5793c8476025308"
"supermarket";"Toko";"Makmur";"JM3W+529, Jl. Beutong Ateuh - Takengon, Makmur, Kec. Celala, Kabupaten Aceh Tengah, Aceh 24773";"Jl. Beutong Ateuh - Takengon, Makmur, Kec. Celala, Kabupaten Aceh Tengah";"ACEH";"24773";"Indonesia";"";"4.6028676";"96.695053";"https://maps.google.com/?cid=0x0:0xe6f44caad517bfbf"
"supermarket";"Kafe";"kontercafegudang";"HQVF+HCQ, Sanehen, Kec. Silih Nara, Kabupaten Aceh Tengah, Aceh 24552";"Sanehen, Kec. Silih Nara, Kabupaten Aceh Tengah";"ACEH";"24552";"Indonesia";" 082267734102";"4.5939736";"96.7736077";"https://maps.google.com/?cid=0x0:0x8e5a155b8087dea8"
"supermarket";"Pertanian";"UD BERKAH TANI";"REMESEN jalan PAYA BEKE (dsn, Belang merepah, Aceh 24562";"Belang merepah";"ACEH";"24562";"Indonesia";" 082264901615";"4.6057683";"96.7353741";"https://maps.google.com/?cid=0x0:0xc7ccc3027fd7df75"
"supermarket";"Toko grosir";"Kaisar";"HMQP+HJH, Jl. Beutong Ateuh - Takengon, Cibro, Kec. Celala, Kabupaten Aceh Tengah, Aceh 24552";"Jl. Beutong Ateuh - Takengon, Cibro, Kec. Celala, Kabupaten Aceh Tengah";"ACEH";"24552";"Indonesia";"";"4.5889444";"96.6866148";"https://maps.google.com/?cid=0x0:0xcb6661fe992186d4"
"supermarket";"supermarket";"Kec. Jagong Jeget";"Kabupaten Aceh Tengah, Aceh";"Kabupaten Aceh Tengah, Aceh";"ACEH";"";"Indonesia";"";"4.3753143";"96.7564258";"https://maps.google.com/?cid=0x0:0xd1981acbde368f04"
"supermarket";"Toko umum";"Pasar Sabtu Jagong Jeget";"9QF5+PHW, Paya Tungel, Kec. Jagong Jeget, Kabupaten Aceh Tengah, Aceh 24563";"Paya Tungel, Kec. Jagong Jeget, Kabupaten Aceh Tengah";"ACEH";"24563";"Indonesia";"";"4.3743655";"96.7589575";"https://maps.google.com/?cid=0x0:0x244cb423672abfda"
"supermarket";"Toko";"Ruhni Minimarket";"9QG5+C6M, Jeget Ayu, Kec. Jagong Jeget, Kabupaten Aceh Tengah, Aceh 24563";"Jeget Ayu, Kec. Jagong Jeget, Kabupaten Aceh Tengah";"ACEH";"24563";"Indonesia";" 082363644702";"4.3760788";"96.7580565";"https://maps.google.com/?cid=0x0:0xcae348d23e228d69"
"supermarket";"Pusat Perbelanjaan";"Kios Mbak Erna";"9QG8+VC, Jeget Ayu, Kec. Jagong Jeget, Kabupaten Aceh Tengah, Aceh 24563";"Jeget Ayu, Kec. Jagong Jeget, Kabupaten Aceh Tengah";"ACEH";"24563";"Indonesia";"";"4.3771289";"96.7660972";"https://maps.google.com/?cid=0x0:0x9a6a53d5ae45ed5e"
"supermarket";"Grosir Barang Kelontong";"UD. BARRAN";"Depan toko permata Baja, jalan Berawang dewal Dusun Sida Reja, Gegarang, Kec. Jagong Jeget, Kabupaten Aceh Tengah, Aceh 24563";"jalan Berawang dewal Dusun Sida Reja, Gegarang, Kec. Jagong Jeget, Kabupaten Aceh Tengah";"ACEH";"24563";"Indonesia";" 082272247494";"4.3758896";"96.7084302";"https://maps.google.com/?cid=0x0:0xd33fe045be136d6d"
"supermarket";"Toko bahan makanan";"Toko Sembako Ibu Daim";"9QF4+M47, Paya Tungel, Kec. Jagong Jeget, Kabupaten Aceh Tengah, Aceh 24563";"Paya Tungel, Kec. Jagong Jeget, Kabupaten Aceh Tengah";"ACEH";"24563";"Indonesia";"";"4.3741587";"96.7552939";"https://maps.google.com/?cid=0x0:0x9cafcdd38db709da"
"supermarket";"Toko umum";"Kadai mak nurul";"9QX2+3WH, Jl. Takengon - Blangkejeren II, Bukit Sari, Kec. Jagong Jeget, Kabupaten Aceh Tengah, Aceh 24563";"Jl. Takengon - Blangkejeren II, Bukit Sari, Kec. Jagong Jeget, Kabupaten Aceh Tengah";"ACEH";"24563";"Indonesia";"";"4.397695";"96.7523539";"https://maps.google.com/?cid=0x0:0x134d694cea18f5e0"
"supermarket";"Toko Ikan";"Lapak Ikan Afkar";"9QHF+MMV, Jl. Takengon - Blangkejeren II, Jagong, Kec. Jagong Jeget, Kabupaten Aceh Tengah, Aceh 24563";"Jl. Takengon - Blangkejeren II, Jagong, Kec. Jagong Jeget, Kabupaten Aceh Tengah";"ACEH";"24563";"Indonesia";"";"4.3792443";"96.7741874";"https://maps.google.com/?cid=0x0:0x1b23131180d49855"
"supermarket";"supermarket";"Minimarket Merah Jambu";"9QG3+JW8, Paya Tungel, Kec. Jagong Jeget, Kabupaten Aceh Tengah, Aceh 24563";"Paya Tungel, Kec. Jagong Jeget, Kabupaten Aceh Tengah";"ACEH";"24563";"Indonesia";"";"4.3765258";"96.7548393";"https://maps.google.com/?cid=0x0:0xe719113eb969c24e"
"supermarket";"Toko";"HUDI FAMILY";"9QH8+GX5, Jeget Ayu, Kec. Jagong Jeget, Kabupaten Aceh Tengah, Aceh 24563";"Jeget Ayu, Kec. Jagong Jeget, Kabupaten Aceh Tengah";"ACEH";"24563";"Indonesia";"";"4.3787581";"96.7674842";"https://maps.google.com/?cid=0x0:0x76400ac4cc9cea37"
"supermarket";"";"Alam subur jagong";"9QC3+VF2, Unnamed Rd, Paya Dedep, Kec. Jagong Jeget, Kabupaten Aceh Tengah, Aceh 24563";"Unnamed Rd, Paya Dedep, Kec. Jagong Jeget, Kabupaten Aceh Tengah";"ACEH";"24563";"Indonesia";" 082272215248";"4.3721274";"96.7536458";"https://maps.google.com/?cid=0x0:0x25acfc26580d2637"
"supermarket";"supermarket";"Wps";"CQ24+5X7, Bukit Sari, Kec. Jagong Jeget, Kabupaten Aceh Tengah, Aceh 24563";"Bukit Sari, Kec. Jagong Jeget, Kabupaten Aceh Tengah";"ACEH";"24563";"Indonesia";"";"4.4004108";"96.7574289";"https://maps.google.com/?cid=0x0:0xfebb7e32782f29e0"
"supermarket";"Toko Perlengkapan Rumah";"Toko Ayu Jaya";"9QG5+C58, Jeget Ayu, Kec. Jagong Jeget, Kabupaten Aceh Tengah, Aceh 24563";"Jeget Ayu, Kec. Jagong Jeget, Kabupaten Aceh Tengah";"ACEH";"24563";"Indonesia";"";"4.3760273";"96.757959";"https://maps.google.com/?cid=0x0:0x169a9450eb643ba2"
"supermarket";"Toko Ponsel";"GAFUR PONSEL";"Jl. Iskandar Muda, Jeget Ayu, Kec. Jagong Jeget, Kabupaten Aceh Tengah, Aceh 24563";"Jeget Ayu, Kec. Jagong Jeget, Kabupaten Aceh Tengah";"ACEH";"24563";"Indonesia";" 081361181911";"4.3763179";"96.7593474";"https://maps.google.com/?cid=0x0:0x2987cf8ce0ff2701"
"supermarket";"Toko outlet";"In Gadget Store";"Jalan kebayakan kampung bukit (di sebelah, mesjid tua, Kec. Kebayakan, Aceh 24519";"mesjid tua, Kec. Kebayakan";"ACEH";"24519";"Indonesia";" 081350085007";"4.6375202";"96.8532609";"https://maps.google.com/?cid=0x0:0x3a52e1452562c3d0"
"supermarket";"Pusat Perbelanjaan";"HANDPHONE DAN ACCESORIES";"Jl. Sengeda kp lot kala kec. Kebayakan kab, Nunang Antara, Kec. Bebesen, Kabupaten Aceh Tengah, Aceh 24519";"Nunang Antara, Kec. Bebesen, Kabupaten Aceh Tengah";"ACEH";"24519";"Indonesia";"";"4.6353503";"96.8532791";"https://maps.google.com/?cid=0x0:0x956bd43dfa1bc3ab"
"supermarket";"supermarket";"Aceh 24517";"Nunang Antara, Kec. Bebesen, Kabupaten Aceh Tengah, Aceh";"Kabupaten Aceh Tengah, Aceh";"ACEH";"";"Indonesia";"";"4.6359608";"96.8533098";"https://maps.google.com/?cid=0x0:0x6d9d84d775f81d2c"
"supermarket";"Kantor Perusahaan";"Pasar Kebayakan";"JVQ3+7CJ, Jl. Sengeda, Lot Kala, Kec. Kebayakan, Kabupaten Aceh Tengah, Aceh 24519";"Jl. Sengeda, Lot Kala, Kec. Kebayakan, Kabupaten Aceh Tengah";"ACEH";"24519";"Indonesia";"";"4.6382204";"96.853527";"https://maps.google.com/?cid=0x0:0x41a478e98721e1e5"
"supermarket";"Toko Suvenir";"Dapur neni oleh oleh Takengon";"Jl. Sengeda, Dsn. Mampak, Lot Kala, Kec. Kebayakan, Kabupaten Aceh Tengah, Aceh 24517";"Dsn. Mampak, Lot Kala, Kec. Kebayakan, Kabupaten Aceh Tengah";"ACEH";"24517";"Indonesia";" 085277042378";"4.6365416";"96.8531524";"https://maps.google.com/?cid=0x0:0xd7d480c104aad00b"
"supermarket";"Minimarket";"Toko Penawar";"JVR7+PMX, Unnamed Road, Kala Lengkio, Kec. Kebayakan, Kabupaten Aceh Tengah, Aceh 24519";"Unnamed Road, Kala Lengkio, Kec. Kebayakan, Kabupaten Aceh Tengah";"ACEH";"24519";"Indonesia";"";"4.6418717";"96.864225";"https://maps.google.com/?cid=0x0:0xf04968863c684a4"
"supermarket";"Toko Elektronik";"Lay Elektronik";"JVP3+R7P NO WA OI54O54249, Lot Kala, Kec. Kebayakan, Kabupaten Aceh Tengah, Aceh 24519";"Lot Kala, Kec. Kebayakan, Kabupaten Aceh Tengah";"ACEH";"24519";"Indonesia";"";"4.6370875";"96.8532031";"https://maps.google.com/?cid=0x0:0xc38bbbb7d8ae2c58"
"supermarket";"Toko Roti";"Dekna Cake";"Sebelum RSUD Datu Beru, Jl. Qurata Aini, Dusun Mampak, Lot Kala, Kebayakan, Central Aceh Regency, Aceh 24517";"Jl. Qurata Aini, Dusun Mampak, Lot Kala, Kebayakan, Central Aceh Regency";"ACEH";"24517";"Indonesia";" 081361508778";"4.6357739";"96.8522874";"https://maps.google.com/?cid=0x0:0x7a51a47d20c3dc82"
"supermarket";"Toko";"BAJEE POLOS";"JVP3+F82, Jl. Sengeda, Lot Kala, Kec. Kebayakan, Kabupaten Aceh Tengah, Aceh 24517";"Jl. Sengeda, Lot Kala, Kec. Kebayakan, Kabupaten Aceh Tengah";"ACEH";"24517";"Indonesia";" 081362322097";"4.6361486";"96.8532663";"https://maps.google.com/?cid=0x0:0x3d31fd4d9dc20df9"
"supermarket";"supermarket";"Kec. Kebayakan";"Kabupaten Aceh Tengah, Aceh";"Kabupaten Aceh Tengah, Aceh";"ACEH";"";"Indonesia";"";"4.6396395";"96.8523604";"https://maps.google.com/?cid=0x0:0x988e1a386334e16c"
"supermarket";"Pasar";"Bukit cell and market";"JVQ3+CFC, Lot Kala, Kec. Kebayakan, Kabupaten Aceh Tengah, Aceh 24519";"Lot Kala, Kec. Kebayakan, Kabupaten Aceh Tengah";"ACEH";"24519";"Indonesia";" 085358608080";"4.6385696";"96.8536348";"https://maps.google.com/?cid=0x0:0xf1066a129215cef2"
"supermarket";"Toko Kelontong Asia";"Warung Mak Odah";"JVQ4+FG3, Jl. Takengon, Lot Kala, Kec. Kebayakan, Kabupaten Aceh Tengah, Aceh 24519";"Jl. Takengon, Lot Kala, Kec. Kebayakan, Kabupaten Aceh Tengah";"ACEH";"24519";"Indonesia";"";"4.6386265";"96.8563046";"https://maps.google.com/?cid=0x0:0xf12c935b329a793b"
"supermarket";"Minimarket";"Indomaret Bebesan";"JRMR+FW5, Simpang Empat, Kec. Bebesen, Kabupaten Aceh Tengah, Aceh 24471";"Simpang Empat, Kec. Bebesen, Kabupaten Aceh Tengah";"ACEH";"24471";"Indonesia";"";"4.6336287";"96.8423519";"https://maps.google.com/?cid=0x0:0x5acbfebc9274f53d"
"supermarket";"Toko Swalayan";"Serba Ada Swalayan";"JRFX+MW7, Bale Atu, Kec. Lut Tawar, Kabupaten Aceh Tengah, Aceh 24519";"Bale Atu, Kec. Lut Tawar, Kabupaten Aceh Tengah";"ACEH";"24519";"Indonesia";"";"4.6241692";"96.8497913";"https://maps.google.com/?cid=0x0:0x6e7a236a8fb515ae"
"supermarket";"Pom bensin/SPBU";"Petro Market SPBU";"Jl. Sengeda, Nunang Antara, Kec. Bebesen, Kabupaten Aceh Tengah, Aceh 24552";"Nunang Antara, Kec. Bebesen, Kabupaten Aceh Tengah";"ACEH";"24552";"Indonesia";"";"4.6320614";"96.8534164";"https://maps.google.com/?cid=0x0:0x877a757780a661fe"
"supermarket";"Toko Swalayan";"City Market";"JVH2+3J8, Jl. Sengeda, Kala Kemili, Kec. Bebesen, Kabupaten Aceh Tengah, Aceh 24519";"Jl. Sengeda, Kala Kemili, Kec. Bebesen, Kabupaten Aceh Tengah";"ACEH";"24519";"Indonesia";"";"4.627662";"96.8515751";"https://maps.google.com/?cid=0x0:0xf6ec5c1edd40b7b2"
"supermarket";"supermarket";"Kios mak toni";"Jongok Meluem, Kec. Kebayakan, Kabupaten Aceh Tengah, Aceh 24518";"Kec. Kebayakan, Kabupaten Aceh Tengah";"ACEH";"24518";"Indonesia";" 082277568776";"4.6429735";"96.8545535";"https://maps.google.com/?cid=0x0:0xcf88ab2df6d63291"
"supermarket";"Grosir Barang Kelontong";"ud.murah jaya";"JVQ3+QCJ, Jl. Abdul Wahab, Lot Kala, Kec. Kebayakan, Kabupaten Aceh Tengah, Aceh 24471";"Jl. Abdul Wahab, Lot Kala, Kec. Kebayakan, Kabupaten Aceh Tengah";"ACEH";"24471";"Indonesia";" 085277818781";"4.6394713";"96.8535005";"https://maps.google.com/?cid=0x0:0x7cac17baaeb7c68e"
"supermarket";"Minimarket";"UD. RAHMAN";"JRPW+PWQ, Simpang Empat, Kec. Bebesen, Kabupaten Aceh Tengah, Aceh 24519";"Simpang Empat, Kec. Bebesen, Kabupaten Aceh Tengah";"ACEH";"24519";"Indonesia";" 082166338879";"4.6368366";"96.8473687";"https://maps.google.com/?cid=0x0:0x3102c98194f62ab7"
"supermarket";"Pusat Perbelanjaan";"Kenari Mas";"JRJP+57V, JL. Abdul Wahab, Kp. Gunung Balohen, Kebet, Kec. Bebesen, Kabupaten Aceh Tengah, Aceh 24471";"JL. Abdul Wahab, Kp. Gunung Balohen, Kebet, Kec. Bebesen, Kabupaten Aceh Tengah";"ACEH";"24471";"Indonesia";" 064321085";"4.630495";"96.835681";"https://maps.google.com/?cid=0x0:0x29e609adad375689"
"supermarket";"Toko Swalayan";"Serba Ada Square";"JRFW+MHG, Jl. Lebe Kader, Blang Kolak I, Kec. Bebesen, Kabupaten Aceh Tengah, Aceh 24552";"Jl. Lebe Kader, Blang Kolak I, Kec. Bebesen, Kabupaten Aceh Tengah";"ACEH";"24552";"Indonesia";"";"4.6241766";"96.8464582";"https://maps.google.com/?cid=0x0:0x639d311c6a2807b2"
"supermarket";"Toko bahan makanan";"UD. AN NAUFAL MART";"JVQ4+H39, Lot Kala, Kec. Kebayakan, Kabupaten Aceh Tengah, Aceh";"Kabupaten Aceh Tengah, Aceh";"ACEH";"";"Indonesia";"";"4.638907";"96.8552295";"https://maps.google.com/?cid=0x0:0x1bf9ffbbff0fb6a8"
"supermarket";"Toko Suvenir";"Dapur neni oleh oleh Takengon";"Jl. Sengeda, Dsn. Mampak, Lot Kala, Kec. Kebayakan, Kabupaten Aceh Tengah, Aceh 24517";"Dsn. Mampak, Lot Kala, Kec. Kebayakan, Kabupaten Aceh Tengah";"ACEH";"24517";"Indonesia";" 085277042378";"4.6365416";"96.8531524";"https://maps.google.com/?cid=0x0:0xd7d480c104aad00b"
"supermarket";"Pasar";"Bukit cell and market";"JVQ3+CFC, Lot Kala, Kec. Kebayakan, Kabupaten Aceh Tengah, Aceh 24519";"Lot Kala, Kec. Kebayakan, Kabupaten Aceh Tengah";"ACEH";"24519";"Indonesia";" 085358608080";"4.6385696";"96.8536348";"https://maps.google.com/?cid=0x0:0xf1066a129215cef2"
"supermarket";"supermarket";"Aceh 24519";"Kabupaten Aceh Tengah, Aceh";"Kabupaten Aceh Tengah, Aceh";"ACEH";"";"Indonesia";"";"4.626985";"96.8940846";"https://maps.google.com/?cid=0x0:0x696b245c7c9b4bce"
"supermarket";"Toko Swalayan";"Serba Ada Swalayan";"JRFX+MW7, Bale Atu, Kec. Lut Tawar, Kabupaten Aceh Tengah, Aceh 24519";"Bale Atu, Kec. Lut Tawar, Kabupaten Aceh Tengah";"ACEH";"24519";"Indonesia";"";"4.6241692";"96.8497913";"https://maps.google.com/?cid=0x0:0x6e7a236a8fb515ae"
"supermarket";"Toko Swalayan";"City Market";"JVH2+3J8, Jl. Sengeda, Kala Kemili, Kec. Bebesen, Kabupaten Aceh Tengah, Aceh 24519";"Jl. Sengeda, Kala Kemili, Kec. Bebesen, Kabupaten Aceh Tengah";"ACEH";"24519";"Indonesia";"";"4.627662";"96.8515751";"https://maps.google.com/?cid=0x0:0xf6ec5c1edd40b7b2"
"supermarket";"Minimarket";"Toko Penawar";"JVR7+PMX, Unnamed Road, Kala Lengkio, Kec. Kebayakan, Kabupaten Aceh Tengah, Aceh 24519";"Unnamed Road, Kala Lengkio, Kec. Kebayakan, Kabupaten Aceh Tengah";"ACEH";"24519";"Indonesia";"";"4.6418717";"96.864225";"https://maps.google.com/?cid=0x0:0xf04968863c684a4"
"supermarket";"Toko Swalayan";"Serba Ada Square";"JRFW+MHG, Jl. Lebe Kader, Blang Kolak I, Kec. Bebesen, Kabupaten Aceh Tengah, Aceh 24552";"Jl. Lebe Kader, Blang Kolak I, Kec. Bebesen, Kabupaten Aceh Tengah";"ACEH";"24552";"Indonesia";"";"4.6241766";"96.8464582";"https://maps.google.com/?cid=0x0:0x639d311c6a2807b2"
"supermarket";"Minimarket";"UD. RAHMAN";"JRPW+PWQ, Simpang Empat, Kec. Bebesen, Kabupaten Aceh Tengah, Aceh 24519";"Simpang Empat, Kec. Bebesen, Kabupaten Aceh Tengah";"ACEH";"24519";"Indonesia";" 082166338879";"4.6368366";"96.8473687";"https://maps.google.com/?cid=0x0:0x3102c98194f62ab7"
"supermarket";"Toko Makanan";"Toko Mak Eman";"JR8W+PPF, Asir Asir Asia, Kec. Lut Tawar, Kabupaten Aceh Tengah, Aceh 24519";"Asir Asir Asia, Kec. Lut Tawar, Kabupaten Aceh Tengah";"ACEH";"24519";"Indonesia";" 085360856018";"4.6168191";"96.8468099";"https://maps.google.com/?cid=0x0:0xbe14824210e24118"
"supermarket";"Toko Swalayan";"Toko Sejahtra swalayan";"Jl. Gatot Subroto, Bale Atu, Kec. Lut Tawar, Kabupaten Aceh Tengah, Aceh 24519";"Bale Atu, Kec. Lut Tawar, Kabupaten Aceh Tengah";"ACEH";"24519";"Indonesia";"";"4.6233746";"96.8499305";"https://maps.google.com/?cid=0x0:0xf93184dd2ceafe62"
"supermarket";"Toko";"Pante Cermin Baru";"JRHV+XC5, Kemili, Kec. Bebesen, Kabupaten Aceh Tengah, Aceh 24519";"Kemili, Kec. Bebesen, Kabupaten Aceh Tengah";"ACEH";"24519";"Indonesia";" 085359226562";"4.6298757";"96.8436131";"https://maps.google.com/?cid=0x0:0x8a882866f89f5f98"
"supermarket";"Pom bensin/SPBU";"Petro Market SPBU";"Jl. Sengeda, Nunang Antara, Kec. Bebesen, Kabupaten Aceh Tengah, Aceh 24552";"Nunang Antara, Kec. Bebesen, Kabupaten Aceh Tengah";"ACEH";"24552";"Indonesia";"";"4.6320614";"96.8534164";"https://maps.google.com/?cid=0x0:0x877a757780a661fe"
"supermarket";"Minimarket";"Indomaret Bebesan";"JRMR+FW5, Simpang Empat, Kec. Bebesen, Kabupaten Aceh Tengah, Aceh 24471";"Simpang Empat, Kec. Bebesen, Kabupaten Aceh Tengah";"ACEH";"24471";"Indonesia";"";"4.6336287";"96.8423519";"https://maps.google.com/?cid=0x0:0x5acbfebc9274f53d"
"supermarket";"Toko";"Indomaret";"Jl. Sengeda, Takengon Tim., Kec. Lut Tawar, Kabupaten Aceh Tengah, Aceh 24519";"Takengon Tim., Kec. Lut Tawar, Kabupaten Aceh Tengah";"ACEH";"24519";"Indonesia";"";"4.6219001";"96.8505841";"https://maps.google.com/?cid=0x0:0x790e5e2c5c72495e"
"supermarket";"Toko Elektronik";"Lay Elektronik";"JVP3+R7P NO WA OI54O54249, Lot Kala, Kec. Kebayakan, Kabupaten Aceh Tengah, Aceh 24519";"Lot Kala, Kec. Kebayakan, Kabupaten Aceh Tengah";"ACEH";"24519";"Indonesia";" 087822318681";"4.6370875";"96.8532031";"https://maps.google.com/?cid=0x0:0xc38bbbb7d8ae2c58"
"supermarket";"supermarket";"Kec. Ketol";"Kabupaten Aceh Tengah, Aceh";"Kabupaten Aceh Tengah, Aceh";"ACEH";"";"Indonesia";"";"4.7028922";"96.7130788";"https://maps.google.com/?cid=0x0:0x2b297203f32bf43a"
"supermarket";"Toko umum";"AJA Mart";"Jalan Canduri, Cang Duri, Kec. Ketol, Kabupaten Aceh Tengah, Aceh 24568";"Cang Duri, Kec. Ketol, Kabupaten Aceh Tengah";"ACEH";"24568";"Indonesia";" 081362685283";"4.6748894";"96.7277042";"https://maps.google.com/?cid=0x0:0x8722881f25caad06"
"supermarket";"Toko";"Medan";"MPWX+3Q2, Blang Mancung Bawah, Kec. Ketol, Kabupaten Aceh Tengah, Aceh";"Kabupaten Aceh Tengah, Aceh";"ACEH";"";"Indonesia";"";"4.695135";"96.7493993";"https://maps.google.com/?cid=0x0:0x7e018a33455cad0"
"supermarket";"supermarket";"KampusHelper";"In, Blang Mancung Bawah, Kec. Ketol, Kabupaten Aceh Tengah, Aceh";"Kabupaten Aceh Tengah, Aceh";"ACEH";"";"Indonesia";" 082272154422";"4.695135";"96.7493993";"https://maps.google.com/?cid=0x0:0xb1217564733f43e2"
"supermarket";"Toko";"Muksal";"MPWX+3Q2, Blang Mancung Bawah, Kec. Ketol, Kabupaten Aceh Tengah, Aceh";"Kabupaten Aceh Tengah, Aceh";"ACEH";"";"Indonesia";"";"4.695135";"96.7493993";"https://maps.google.com/?cid=0x0:0x3f5569aecf849d1"
"supermarket";"Toko bahan makanan";"Mulia Ulsa";"MPWX+3Q2, jl pintu air, Mata Ie, Kec. Ketol, Kabupaten Aceh Besar, Aceh 24571";"jl pintu air, Mata Ie, Kec. Ketol, Kabupaten Aceh Besar";"ACEH";"24571";"Indonesia";" 082277978175";"4.6951349";"96.7493992";"https://maps.google.com/?cid=0x0:0x1dd847d1e9a27bea"
"supermarket";"Toko Pakaian";"Sigli Garot";"PQJV+3XV, Jl. Raya Bireuen - Takengon, Rime Raya, Kec. Wih Pesam, Kabupaten Bener Meriah, Aceh 24471";"Jl. Raya Bireuen - Takengon, Rime Raya, Kec. Wih Pesam, Kabupaten Bener Meriah";"ACEH";"24471";"Indonesia";"";"4.7302425";"96.7949199";"https://maps.google.com/?cid=0x0:0xcaa7bd916e56d675"
"supermarket";"Toko";"hojrehjadid";"خیابان بیست بهار پلاک 19, نجف اباد, Aceh 60321";"نجف اباد";"ACEH";"60321";"Indonesia";" +989132317451";"4.695135";"96.7493993";"https://maps.google.com/?cid=0x0:0x7ced82ffaa01d382"
"supermarket";"Toko bahan makanan";"UD. IBRAHIM FAMILY";"Unnamed Road, Atu Gogop, Kec. Kute Panang, Kabupaten Aceh Tengah, Aceh 24471";"Atu Gogop, Kec. Kute Panang, Kabupaten Aceh Tengah";"ACEH";"24471";"Indonesia";" 081276169251";"4.6885967";"96.7693127";"https://maps.google.com/?cid=0x0:0xda3ce67d5ad84a87"
"supermarket";"Toko bahan makanan";"ISCO SETIA";"Lampahan Bar., Kec. Timang Gajah, Kabupaten Bener Meriah, Aceh 24571";"Kec. Timang Gajah, Kabupaten Bener Meriah";"ACEH";"24571";"Indonesia";" 085270700024";"4.7580208";"96.7625349";"https://maps.google.com/?cid=0x0:0xf08cbd453e4306b2"
"supermarket";"Kedai Kopi";"Rolly Market";"JPCF+M3F, Pepayungen Angkup, Kec. Silih Nara, Kabupaten Aceh Tengah, Aceh 24773";"Pepayungen Angkup, Kec. Silih Nara, Kabupaten Aceh Tengah";"ACEH";"24773";"Indonesia";" 085270548885";"4.621685";"96.7226646";"https://maps.google.com/?cid=0x0:0xad0860543f994497"
"supermarket";"Toko bahan makanan";"Rayyan mart";"QQ72+Q43, Mekar Ayu, Kec. Timang Gajah, Kabupaten Bener Meriah, Aceh 24571";"Mekar Ayu, Kec. Timang Gajah, Kabupaten Bener Meriah";"ACEH";"24571";"Indonesia";" 085296097621";"4.7643963";"96.7502815";"https://maps.google.com/?cid=0x0:0x3f0eb64eb8892c24"
"supermarket";"Bakso";"Warung bakso reva";"PM9C+VQR, Kalaketol, Kec. Ketol, Kabupaten Aceh Tengah, Aceh 24571";"Kalaketol, Kec. Ketol, Kabupaten Aceh Tengah";"ACEH";"24571";"Indonesia";"";"4.7197309";"96.6718769";"https://maps.google.com/?cid=0x0:0x143663f1888c186b"
"supermarket";"Toko Swalayan";"Kios Tiara";"QPFQ+JGH, Simpang Layang, Kec. Timang Gajah, Kabupaten Bener Meriah, Aceh 24571";"Simpang Layang, Kec. Timang Gajah, Kabupaten Bener Meriah";"ACEH";"24571";"Indonesia";"";"4.7740623";"96.7388742";"https://maps.google.com/?cid=0x0:0x183b66616ec9fe8a"
"supermarket";"supermarket";"Aceh 24568";"Kec. Silih Nara, Kabupaten Aceh Tengah, Aceh";"Kabupaten Aceh Tengah, Aceh";"ACEH";"";"Indonesia";"";"4.6181645";"96.7440467";"https://maps.google.com/?cid=0x0:0xf199dfba392d9d38"
"supermarket";"Toko umum";"AJA Mart";"Jalan Canduri, Cang Duri, Kec. Ketol, Kabupaten Aceh Tengah, Aceh 24568";"Cang Duri, Kec. Ketol, Kabupaten Aceh Tengah";"ACEH";"24568";"Indonesia";" 081362685283";"4.6748894";"96.7277042";"https://maps.google.com/?cid=0x0:0x8722881f25caad06"
"supermarket";"Toko bahan makanan";"UD. IBRAHIM FAMILY";"Unnamed Road, Atu Gogop, Kec. Kute Panang, Kabupaten Aceh Tengah, Aceh 24471";"Atu Gogop, Kec. Kute Panang, Kabupaten Aceh Tengah";"ACEH";"24471";"Indonesia";" 081276169251";"4.6885967";"96.7693127";"https://maps.google.com/?cid=0x0:0xda3ce67d5ad84a87"
"supermarket";"Kedai Kopi";"Rolly Market";"JPCF+M3F, Pepayungen Angkup, Kec. Silih Nara, Kabupaten Aceh Tengah, Aceh 24773";"Pepayungen Angkup, Kec. Silih Nara, Kabupaten Aceh Tengah";"ACEH";"24773";"Indonesia";" 085270548885";"4.621685";"96.7226646";"https://maps.google.com/?cid=0x0:0xad0860543f994497"
"supermarket";"Toko bahan makanan";"Mulia Ulsa";"MPWX+3Q2, jl pintu air, Mata Ie, Kec. Ketol, Kabupaten Aceh Besar, Aceh 24571";"jl pintu air, Mata Ie, Kec. Ketol, Kabupaten Aceh Besar";"ACEH";"24571";"Indonesia";" 082277978175";"4.6951349";"96.7493992";"https://maps.google.com/?cid=0x0:0x1dd847d1e9a27bea"
"supermarket";"supermarket";"KampusHelper";"In, Blang Mancung Bawah, Kec. Ketol, Kabupaten Aceh Tengah, Aceh";"Kabupaten Aceh Tengah, Aceh";"ACEH";"";"Indonesia";" 082272154422";"4.695135";"96.7493993";"https://maps.google.com/?cid=0x0:0xb1217564733f43e2"
"supermarket";"Minimarket";"toko bakureh";"JRJM+4Q2, Jl. Soekarno - Hatta, Kebet, Kec. Bebesen, Kabupaten Aceh Tengah, Aceh 24471";"Jl. Soekarno - Hatta, Kebet, Kec. Bebesen, Kabupaten Aceh Tengah";"ACEH";"24471";"Indonesia";" 085261971828";"4.6302699";"96.8343939";"https://maps.google.com/?cid=0x0:0x3c3c9ac3b48398d7"
"supermarket";"Toko";"hojrehjadid";"خیابان بیست بهار پلاک 19, نجف اباد, Aceh 60321";"نجف اباد";"ACEH";"60321";"Indonesia";" +989132317451";"4.695135";"96.7493993";"https://maps.google.com/?cid=0x0:0x7ced82ffaa01d382"
"supermarket";"Toko Aksesori Ponsel";"RIZKY PONSEL BIUS";"Jl. Takengon - Angkup, Burni Bius, Kec. Silih Nara, Kabupaten Aceh Tengah, Aceh 24568";"Burni Bius, Kec. Silih Nara, Kabupaten Aceh Tengah";"ACEH";"24568";"Indonesia";" 085359915881";"4.608294";"96.7461158";"https://maps.google.com/?cid=0x0:0xa1dadafc31c9a35"
"supermarket";"Toko Swalayan";"KIOS ALFARIZKY (Pulsa, PPOB, Kelontong, dsb)";"Jl. Beutong Ateuh - Takengon, Simpang Lukup Badak, Kec. Bies, Kabupaten Aceh Tengah, Aceh 24552";"Simpang Lukup Badak, Kec. Bies, Kabupaten Aceh Tengah";"ACEH";"24552";"Indonesia";"";"4.5979727";"96.8009919";"https://maps.google.com/?cid=0x0:0x3ec0af7382ee4bcf"
"supermarket";"Toko bahan makanan";"SimpangLima Grocery Store";"Jl. Tengku Angkasa H Abdullah Ujong Rimba No 20, Kp. Baru, Kec. Baiturrahman, Kota Banda Aceh, Aceh 23242";"Kp. Baru, Kec. Baiturrahman, Kota Banda Aceh";"ACEH";"23242";"Indonesia";" 0811686677";"5.5504966";"95.3167777";"https://maps.google.com/?cid=0x0:0x22361fe0a56c2da4"
"supermarket";"Toko";"Muksal";"MPWX+3Q2, Blang Mancung Bawah, Kec. Ketol, Kabupaten Aceh Tengah, Aceh";"Kabupaten Aceh Tengah, Aceh";"ACEH";"";"Indonesia";"";"4.695135";"96.7493993";"https://maps.google.com/?cid=0x0:0x3f5569aecf849d1"
"supermarket";"supermarket";"Bangka belitung";"MQX4+3X3, Atu Gogop, Kec. Kute Panang, Kabupaten Aceh Tengah, Aceh";"Kabupaten Aceh Tengah, Aceh";"ACEH";"";"Indonesia";"";"4.6976266";"96.7574289";"https://maps.google.com/?cid=0x0:0x67579db79a0b3a80"
"supermarket";"Pasar Petani";"Pasar";"Paya ilang, Kec. Bebesen, Kabupaten Aceh Tengah, Aceh";"Kabupaten Aceh Tengah, Aceh";"ACEH";"";"Indonesia";"";"4.6246361";"96.8346541";"https://maps.google.com/?cid=0x0:0x3deec3ebf20d06b4"
"supermarket";"supermarket";"Aceh 24511";"Kabupaten Aceh Tengah, Aceh";"Kabupaten Aceh Tengah, Aceh";"ACEH";"";"Indonesia";"";"4.5478015";"96.8645856";"https://maps.google.com/?cid=0x0:0xd74671bd307a2f46"
"supermarket";"Toko Swalayan";"Serba Ada Swalayan";"JRFX+MW7, Bale Atu, Kec. Lut Tawar, Kabupaten Aceh Tengah, Aceh 24519";"Bale Atu, Kec. Lut Tawar, Kabupaten Aceh Tengah";"ACEH";"24519";"Indonesia";"";"4.6241692";"96.8497913";"https://maps.google.com/?cid=0x0:0x6e7a236a8fb515ae"
"supermarket";"Toko Swalayan";"Toko Sejahtra swalayan";"Jl. Gatot Subroto, Bale Atu, Kec. Lut Tawar, Kabupaten Aceh Tengah, Aceh 24519";"Bale Atu, Kec. Lut Tawar, Kabupaten Aceh Tengah";"ACEH";"24519";"Indonesia";"";"4.6233746";"96.8499305";"https://maps.google.com/?cid=0x0:0xf93184dd2ceafe62"
"supermarket";"Minimarket";"Alfitrah Minimart";"Jl. Al Fitrah No.15, Takengon Tim., Kec. Lut Tawar, Kabupaten Aceh Tengah, Aceh 24519";"Takengon Tim., Kec. Lut Tawar, Kabupaten Aceh Tengah";"ACEH";"24519";"Indonesia";"";"4.6242015";"96.851473";"https://maps.google.com/?cid=0x0:0x998c1339512e60db"
"supermarket";"Toko";"Kumar Toko";"Kenawat, Kec. Lut Tawar, Kabupaten Aceh Tengah, Aceh 24511";"Kec. Lut Tawar, Kabupaten Aceh Tengah";"ACEH";"24511";"Indonesia";" 064323455";"4.5478015";"96.8645856";"https://maps.google.com/?cid=0x0:0x7737a626ab489330"
"supermarket";"Toko";"Arafah Toko";"Jl. Syiah Utama No.504, Kenawat, Kec. Lut Tawar, Kabupaten Aceh Tengah, Aceh 24511";"Kenawat, Kec. Lut Tawar, Kabupaten Aceh Tengah";"ACEH";"24511";"Indonesia";" 064323437";"4.5478015";"96.8645856";"https://maps.google.com/?cid=0x0:0x1a2d877f86c96f9"
"supermarket";"Toko kopi";"Kopi gayo";"Jl. Pasar impres III, Kenawat, Kec. Lut Tawar, Kabupaten Aceh Tengah, Aceh 24511";"Kenawat, Kec. Lut Tawar, Kabupaten Aceh Tengah";"ACEH";"24511";"Indonesia";"";"4.5478015";"96.8645856";"https://maps.google.com/?cid=0x0:0x6fefe835e09b3409"
"supermarket";"Toko Bahan Bangunan";"Emco. UD";"Kenawat, Kec. Lut Tawar, Kabupaten Aceh Tengah, Aceh 24511";"Kec. Lut Tawar, Kabupaten Aceh Tengah";"ACEH";"24511";"Indonesia";" 064323443";"4.5478015";"96.8645856";"https://maps.google.com/?cid=0x0:0x6357c06422ad988a"
"supermarket";"Pusat Bisnis";"Qila Store";"HR4C+4M2, Pedekok, Kec. Pegasing, Kabupaten Aceh Tengah, Aceh";"Kabupaten Aceh Tengah, Aceh";"ACEH";"";"Indonesia";" 081373084350";"4.5552649";"96.8216546";"https://maps.google.com/?cid=0x0:0x6ba72469700cb5c8"
"supermarket";"";"Berkat Jasa Toko";"Ierelop, Kec. Pegasing, Kabupaten Aceh Tengah, Aceh 24512";"Kec. Pegasing, Kabupaten Aceh Tengah";"ACEH";"24512";"Indonesia";" 064321426";"4.5583042";"96.8377799";"https://maps.google.com/?cid=0x0:0x546dded03d66a3b8"
"supermarket";"Toko";"Azhary. UD";"Ierelop, Kec. Pegasing, Kabupaten Aceh Tengah, Aceh 24512";"Kec. Pegasing, Kabupaten Aceh Tengah";"ACEH";"24512";"Indonesia";" 064323462";"4.5583042";"96.8377799";"https://maps.google.com/?cid=0x0:0xf6b6fa2f4dd63bb5"
"supermarket";"Toko";"UD RIZKI TANI JAYA";"HR99+P42, Kedelah, Kec. Pegasing, Kabupaten Aceh Tengah, Aceh 24552";"Kedelah, Kec. Pegasing, Kabupaten Aceh Tengah";"ACEH";"24552";"Indonesia";"";"4.5692592";"96.8177704";"https://maps.google.com/?cid=0x0:0xcc8f8b78bd2bec6"
"supermarket";"Rumah Kayu";"Fajar Murni Toko";"Kute Robel, Kec. Linge, Kabupaten Aceh Tengah, Aceh 24513";"Kec. Linge, Kabupaten Aceh Tengah";"ACEH";"24513";"Indonesia";" 064321056";"4.5249796";"96.84046";"https://maps.google.com/?cid=0x0:0xad706044f5f91694"
"supermarket";"Toko";"Ud Maulana Jaya";"Kedelah, Kec. Pegasing, Kabupaten Aceh Tengah, Aceh 24552";"Kec. Pegasing, Kabupaten Aceh Tengah";"ACEH";"24552";"Indonesia";"";"4.5656583";"96.819765";"https://maps.google.com/?cid=0x0:0x81be829c177893cd"
"supermarket";"supermarket";"Aceh 24512";"Kec. Pegasing, Kabupaten Aceh Tengah, Aceh";"Kabupaten Aceh Tengah, Aceh";"ACEH";"";"Indonesia";"";"4.5583042";"96.8377799";"https://maps.google.com/?cid=0x0:0x6b11ac66f675b7b5"
"supermarket";"Toko Swalayan";"Serba Ada Swalayan";"JRFX+MW7, Bale Atu, Kec. Lut Tawar, Kabupaten Aceh Tengah, Aceh 24519";"Bale Atu, Kec. Lut Tawar, Kabupaten Aceh Tengah";"ACEH";"24519";"Indonesia";"";"4.6241692";"96.8497913";"https://maps.google.com/?cid=0x0:0x6e7a236a8fb515ae"
"supermarket";"Toko";"Toko lut tawar";"Jl. Sengeda, Takengon Tim., Kec. Lut Tawar, Kabupaten Aceh Tengah, Aceh 24519";"Takengon Tim., Kec. Lut Tawar, Kabupaten Aceh Tengah";"ACEH";"24519";"Indonesia";" 082163142902";"4.6241166";"96.8510791";"https://maps.google.com/?cid=0x0:0x619d1646d8118710"
"supermarket";"Toko";"Indomaret";"Jl. Sengeda, Takengon Tim., Kec. Lut Tawar, Kabupaten Aceh Tengah, Aceh 24519";"Takengon Tim., Kec. Lut Tawar, Kabupaten Aceh Tengah";"ACEH";"24519";"Indonesia";"";"4.6219001";"96.8505841";"https://maps.google.com/?cid=0x0:0x790e5e2c5c72495e"
"supermarket";"Toko Swalayan";"Toko Sejahtra swalayan";"Jl. Gatot Subroto, Bale Atu, Kec. Lut Tawar, Kabupaten Aceh Tengah, Aceh 24519";"Bale Atu, Kec. Lut Tawar, Kabupaten Aceh Tengah";"ACEH";"24519";"Indonesia";"";"4.6233746";"96.8499305";"https://maps.google.com/?cid=0x0:0xf93184dd2ceafe62"
"supermarket";"Restoran";"Dapur IRA Frozen Mart";"Jl. Lebe Kader No.22, Simpang Empat, Kec. Bebesen, Kabupaten Aceh Tengah, Aceh 24471";"Simpang Empat, Kec. Bebesen, Kabupaten Aceh Tengah";"ACEH";"24471";"Indonesia";" 085321346141";"4.6345352";"96.8425713";"https://maps.google.com/?cid=0x0:0x6a22635a40a2a844"
"supermarket";"Minimarket";"Alfitrah Minimart";"Jl. Al Fitrah No.15, Takengon Tim., Kec. Lut Tawar, Kabupaten Aceh Tengah, Aceh 24519";"Takengon Tim., Kec. Lut Tawar, Kabupaten Aceh Tengah";"ACEH";"24519";"Indonesia";"";"4.6242015";"96.851473";"https://maps.google.com/?cid=0x0:0x998c1339512e60db"
"supermarket";"";"Berkat Jasa Toko";"Ierelop, Kec. Pegasing, Kabupaten Aceh Tengah, Aceh 24512";"Kec. Pegasing, Kabupaten Aceh Tengah";"ACEH";"24512";"Indonesia";" 064321426";"4.5583042";"96.8377799";"https://maps.google.com/?cid=0x0:0x546dded03d66a3b8"
"supermarket";"Toko";"Azhary. UD";"Ierelop, Kec. Pegasing, Kabupaten Aceh Tengah, Aceh 24512";"Kec. Pegasing, Kabupaten Aceh Tengah";"ACEH";"24512";"Indonesia";" 064323462";"4.5583042";"96.8377799";"https://maps.google.com/?cid=0x0:0xf6b6fa2f4dd63bb5"
"supermarket";"Minimarket";"Nacara Swalayan";"JVC2+M8V, Jl. Sengeda, Takengon Tim., Kec. Lut Tawar, Kabupaten Aceh Tengah, Aceh 24519";"Jl. Sengeda, Takengon Tim., Kec. Lut Tawar, Kabupaten Aceh Tengah";"ACEH";"24519";"Indonesia";"";"4.6217336";"96.8507832";"https://maps.google.com/?cid=0x0:0x3bd70edf24aff559"
"supermarket";"supermarket";"Danau Laut Tawar";"Danau, Kabupaten Aceh Tengah, Aceh";"Kabupaten Aceh Tengah, Aceh";"ACEH";"";"Indonesia";"";"4.611944";"96.923611";"https://maps.google.com/?cid=0x0:0x2a039d80edbbd930"
"supermarket";"supermarket";"Aceh 24513";"Kabupaten Aceh Tengah, Aceh";"Kabupaten Aceh Tengah, Aceh";"ACEH";"";"Indonesia";"";"4.5249796";"96.84046";"https://maps.google.com/?cid=0x0:0xb136b51d8b738d87"
"supermarket";"Toko Swalayan";"Serba Ada Swalayan";"JRFX+MW7, Bale Atu, Kec. Lut Tawar, Kabupaten Aceh Tengah, Aceh 24519";"Bale Atu, Kec. Lut Tawar, Kabupaten Aceh Tengah";"ACEH";"24519";"Indonesia";"";"4.6241692";"96.8497913";"https://maps.google.com/?cid=0x0:0x6e7a236a8fb515ae"
"supermarket";"Kantor Perusahaan";"Tya Mawar Jaya";"JVF2+M53, Takengon Tim., Kec. Lut Tawar, Kabupaten Aceh Tengah, Aceh 24519";"Takengon Tim., Kec. Lut Tawar, Kabupaten Aceh Tengah";"ACEH";"24519";"Indonesia";"";"4.6241302";"96.8504084";"https://maps.google.com/?cid=0x0:0xf45392bea9f340a5"
"supermarket";"Toko";"Toko lut tawar";"Jl. Sengeda, Takengon Tim., Kec. Lut Tawar, Kabupaten Aceh Tengah, Aceh 24519";"Takengon Tim., Kec. Lut Tawar, Kabupaten Aceh Tengah";"ACEH";"24519";"Indonesia";" 082163142902";"4.6241166";"96.8510791";"https://maps.google.com/?cid=0x0:0x619d1646d8118710"
"supermarket";"Toko";"Indomaret";"Jl. Sengeda, Takengon Tim., Kec. Lut Tawar, Kabupaten Aceh Tengah, Aceh 24519";"Takengon Tim., Kec. Lut Tawar, Kabupaten Aceh Tengah";"ACEH";"24519";"Indonesia";"";"4.6219001";"96.8505841";"https://maps.google.com/?cid=0x0:0x790e5e2c5c72495e"
"supermarket";"Restoran";"Dapur IRA Frozen Mart";"Jl. Lebe Kader No.22, Simpang Empat, Kec. Bebesen, Kabupaten Aceh Tengah, Aceh 24471";"Simpang Empat, Kec. Bebesen, Kabupaten Aceh Tengah";"ACEH";"24471";"Indonesia";" 085321346141";"4.6345352";"96.8425713";"https://maps.google.com/?cid=0x0:0x6a22635a40a2a844"
"supermarket";"Minimarket";"Alfitrah Minimart";"Jl. Al Fitrah No.15, Takengon Tim., Kec. Lut Tawar, Kabupaten Aceh Tengah, Aceh 24519";"Takengon Tim., Kec. Lut Tawar, Kabupaten Aceh Tengah";"ACEH";"24519";"Indonesia";"";"4.6242015";"96.851473";"https://maps.google.com/?cid=0x0:0x998c1339512e60db"
"supermarket";"Toko bahan makanan";"peras santan ud yakin";"JRCX+5CJ, Takengon Tim., Kec. Lut Tawar, Kabupaten Aceh Tengah, Aceh 24519";"Takengon Tim., Kec. Lut Tawar, Kabupaten Aceh Tengah";"ACEH";"24519";"Indonesia";" 082292695062";"4.6204632";"96.848517";"https://maps.google.com/?cid=0x0:0x8860084399eba71c"
"supermarket";"Toko";"Kumar Toko";"Kenawat, Kec. Lut Tawar, Kabupaten Aceh Tengah, Aceh 24511";"Kec. Lut Tawar, Kabupaten Aceh Tengah";"ACEH";"24511";"Indonesia";" 064323455";"4.5478015";"96.8645856";"https://maps.google.com/?cid=0x0:0x7737a626ab489330"
"supermarket";"Toko";"Arafah Toko";"Jl. Syiah Utama No.504, Kenawat, Kec. Lut Tawar, Kabupaten Aceh Tengah, Aceh 24511";"Kenawat, Kec. Lut Tawar, Kabupaten Aceh Tengah";"ACEH";"24511";"Indonesia";" 064323437";"4.5478015";"96.8645856";"https://maps.google.com/?cid=0x0:0x1a2d877f86c96f9"
"supermarket";"Pasar tradisional";"Pasar Pagi Lama";"JV92+XC9 teri, jl.inen mayak, Hakim Bale Bujang, Kec. Lut Tawar, Kabupaten Aceh Tengah, Aceh 24519";"jl.inen mayak, Hakim Bale Bujang, Kec. Lut Tawar, Kabupaten Aceh Tengah";"ACEH";"24519";"Indonesia";"";"4.619923";"96.8511157";"https://maps.google.com/?cid=0x0:0xbe148374c2177a24"
"supermarket";"Toko kopi";"Kopi gayo";"Jl. Pasar impres III, Kenawat, Kec. Lut Tawar, Kabupaten Aceh Tengah, Aceh 24511";"Kenawat, Kec. Lut Tawar, Kabupaten Aceh Tengah";"ACEH";"24511";"Indonesia";"";"4.5478015";"96.8645856";"https://maps.google.com/?cid=0x0:0x6fefe835e09b3409"
"supermarket";"Pusat Bisnis";"Qila Store";"HR4C+4M2, Pedekok, Kec. Pegasing, Kabupaten Aceh Tengah, Aceh";"Kabupaten Aceh Tengah, Aceh";"ACEH";"";"Indonesia";" 081373084350";"4.5552649";"96.8216546";"https://maps.google.com/?cid=0x0:0x6ba72469700cb5c8"
"supermarket";"Rental Bus";"Terminal LAMA TAKENGON";"JVF2+R8P, Terminal, Takengon Tim., Kec. Lut Tawar, Kabupaten Aceh Tengah, Aceh 24519";"Terminal, Takengon Tim., Kec. Lut Tawar, Kabupaten Aceh Tengah";"ACEH";"24519";"Indonesia";"";"4.6245762";"96.8508198";"https://maps.google.com/?cid=0x0:0xa65db78df16e77c6"
"supermarket";"supermarket";"Aceh 24514";"Kec. Pegasing, Kabupaten Aceh Tengah, Aceh";"Kabupaten Aceh Tengah, Aceh";"ACEH";"";"Indonesia";"";"4.5532815";"96.8270607";"https://maps.google.com/?cid=0x0:0x149b0586ab5eec66"
"supermarket";"Toko Swalayan";"Serba Ada Swalayan";"JRFX+MW7, Bale Atu, Kec. Lut Tawar, Kabupaten Aceh Tengah, Aceh 24519";"Bale Atu, Kec. Lut Tawar, Kabupaten Aceh Tengah";"ACEH";"24519";"Indonesia";"";"4.6241692";"96.8497913";"https://maps.google.com/?cid=0x0:0x6e7a236a8fb515ae"
"supermarket";"Kantor Perusahaan";"Tya Mawar Jaya";"JVF2+M53, Takengon Tim., Kec. Lut Tawar, Kabupaten Aceh Tengah, Aceh 24519";"Takengon Tim., Kec. Lut Tawar, Kabupaten Aceh Tengah";"ACEH";"24519";"Indonesia";"";"4.6241302";"96.8504084";"https://maps.google.com/?cid=0x0:0xf45392bea9f340a5"
"supermarket";"Toko";"Toko lut tawar";"Jl. Sengeda, Takengon Tim., Kec. Lut Tawar, Kabupaten Aceh Tengah, Aceh 24519";"Takengon Tim., Kec. Lut Tawar, Kabupaten Aceh Tengah";"ACEH";"24519";"Indonesia";" 082163142902";"4.6241166";"96.8510791";"https://maps.google.com/?cid=0x0:0x619d1646d8118710"
"supermarket";"Restoran";"Dapur IRA Frozen Mart";"Jl. Lebe Kader No.22, Simpang Empat, Kec. Bebesen, Kabupaten Aceh Tengah, Aceh 24471";"Simpang Empat, Kec. Bebesen, Kabupaten Aceh Tengah";"ACEH";"24471";"Indonesia";" 085321346141";"4.6345352";"96.8425713";"https://maps.google.com/?cid=0x0:0x6a22635a40a2a844"
"supermarket";"Toko";"Indomaret";"Jl. Sengeda, Takengon Tim., Kec. Lut Tawar, Kabupaten Aceh Tengah, Aceh 24519";"Takengon Tim., Kec. Lut Tawar, Kabupaten Aceh Tengah";"ACEH";"24519";"Indonesia";"";"4.6219001";"96.8505841";"https://maps.google.com/?cid=0x0:0x790e5e2c5c72495e"
"supermarket";"Minimarket";"Alfitrah Minimart";"Jl. Al Fitrah No.15, Takengon Tim., Kec. Lut Tawar, Kabupaten Aceh Tengah, Aceh 24519";"Takengon Tim., Kec. Lut Tawar, Kabupaten Aceh Tengah";"ACEH";"24519";"Indonesia";"";"4.6242015";"96.851473";"https://maps.google.com/?cid=0x0:0x998c1339512e60db"
"supermarket";"Pusat Bisnis";"Qila Store";"HR4C+4M2, Pedekok, Kec. Pegasing, Kabupaten Aceh Tengah, Aceh";"Kabupaten Aceh Tengah, Aceh";"ACEH";"";"Indonesia";" 081373084350";"4.5552649";"96.8216546";"https://maps.google.com/?cid=0x0:0x6ba72469700cb5c8"
"supermarket";"Pasar tradisional";"Pasar Pagi Lama";"JV92+XC9 teri, jl.inen mayak, Hakim Bale Bujang, Kec. Lut Tawar, Kabupaten Aceh Tengah, Aceh 24519";"jl.inen mayak, Hakim Bale Bujang, Kec. Lut Tawar, Kabupaten Aceh Tengah";"ACEH";"24519";"Indonesia";"";"4.619923";"96.8511157";"https://maps.google.com/?cid=0x0:0xbe148374c2177a24"
"supermarket";"Rental Bus";"Terminal LAMA TAKENGON";"JVF2+R8P, Terminal, Takengon Tim., Kec. Lut Tawar, Kabupaten Aceh Tengah, Aceh 24519";"Terminal, Takengon Tim., Kec. Lut Tawar, Kabupaten Aceh Tengah";"ACEH";"24519";"Indonesia";"";"4.6245762";"96.8508198";"https://maps.google.com/?cid=0x0:0xa65db78df16e77c6"
"supermarket";"Pondok";"Lut Tawar Homestay";"Jl. 1001 No.10, Blang Kolak I, Kec. Bebesen, Kabupaten Aceh Tengah, Aceh 24519";"Blang Kolak I, Kec. Bebesen, Kabupaten Aceh Tengah";"ACEH";"24519";"Indonesia";" 082163142902";"4.6291181";"96.8449865";"https://maps.google.com/?cid=0x0:0xbadb0eb20b49eef"
"supermarket";"Sekolah";"RA MAWAR GAYO";"JVF3+C26, Takengon Tim., Kec. Lut Tawar, Kabupaten Aceh Tengah, Aceh 24519";"Takengon Tim., Kec. Lut Tawar, Kabupaten Aceh Tengah";"ACEH";"24519";"Indonesia";"";"4.6235398";"96.8525217";"https://maps.google.com/?cid=0x0:0xbd26111feb63aa37"
"supermarket";"Toko";"Ud Maulana Jaya";"Kedelah, Kec. Pegasing, Kabupaten Aceh Tengah, Aceh 24552";"Kec. Pegasing, Kabupaten Aceh Tengah";"ACEH";"24552";"Indonesia";"";"4.5656583";"96.819765";"https://maps.google.com/?cid=0x0:0x81be829c177893cd"
"supermarket";"Toko Parfum";"Soft parfum";"Uring, Kec. Pegasing, Kabupaten Aceh Tengah, Aceh 24561";"Kec. Pegasing, Kabupaten Aceh Tengah";"ACEH";"24561";"Indonesia";" 082292449115";"4.559099";"96.8256358";"https://maps.google.com/?cid=0x0:0xfba9e525348b1ea9"
"supermarket";"supermarket";"Aceh 24515";"Kec. Linge, Kabupaten Aceh Tengah, Aceh";"Kabupaten Aceh Tengah, Aceh";"ACEH";"";"Indonesia";"";"4.5171211";"96.8592236";"https://maps.google.com/?cid=0x0:0x12e462276045bb6b"
"supermarket";"Toko";"Kumar Toko";"Kenawat, Kec. Lut Tawar, Kabupaten Aceh Tengah, Aceh 24511";"Kec. Lut Tawar, Kabupaten Aceh Tengah";"ACEH";"24511";"Indonesia";" 064323455";"4.5478015";"96.8645856";"https://maps.google.com/?cid=0x0:0x7737a626ab489330"
"supermarket";"Toko";"Arafah Toko";"Jl. Syiah Utama No.504, Kenawat, Kec. Lut Tawar, Kabupaten Aceh Tengah, Aceh 24511";"Kenawat, Kec. Lut Tawar, Kabupaten Aceh Tengah";"ACEH";"24511";"Indonesia";" 064323437";"4.5478015";"96.8645856";"https://maps.google.com/?cid=0x0:0x1a2d877f86c96f9"
"supermarket";"Toko Bahan Bangunan";"Emco. UD";"Kenawat, Kec. Lut Tawar, Kabupaten Aceh Tengah, Aceh 24511";"Kec. Lut Tawar, Kabupaten Aceh Tengah";"ACEH";"24511";"Indonesia";" 064323443";"4.5478015";"96.8645856";"https://maps.google.com/?cid=0x0:0x6357c06422ad988a"
"supermarket";"supermarket";"N/A";"";"";"ACEH";"";"Indonesia";" 081277726959";"-2.44565";"117.8888";"https://maps.google.com/?cid=0x0:0x8f8cd71786b3bcf6"
"supermarket";"Rumah Kayu";"Fajar Murni Toko";"Kute Robel, Kec. Linge, Kabupaten Aceh Tengah, Aceh 24513";"Kec. Linge, Kabupaten Aceh Tengah";"ACEH";"24513";"Indonesia";" 064321056";"4.5249796";"96.84046";"https://maps.google.com/?cid=0x0:0xad706044f5f91694"
"supermarket";"Toko Swalayan";"Serba Ada Swalayan";"JRFX+MW7, Bale Atu, Kec. Lut Tawar, Kabupaten Aceh Tengah, Aceh 24519";"Bale Atu, Kec. Lut Tawar, Kabupaten Aceh Tengah";"ACEH";"24519";"Indonesia";"";"4.6241692";"96.8497913";"https://maps.google.com/?cid=0x0:0x6e7a236a8fb515ae"
"supermarket";"Toko";"Toko lut tawar";"Jl. Sengeda, Takengon Tim., Kec. Lut Tawar, Kabupaten Aceh Tengah, Aceh 24519";"Takengon Tim., Kec. Lut Tawar, Kabupaten Aceh Tengah";"ACEH";"24519";"Indonesia";" 082163142902";"4.6241166";"96.8510791";"https://maps.google.com/?cid=0x0:0x619d1646d8118710"
"supermarket";"Kantor Perusahaan";"Tya Mawar Jaya";"JVF2+M53, Takengon Tim., Kec. Lut Tawar, Kabupaten Aceh Tengah, Aceh 24519";"Takengon Tim., Kec. Lut Tawar, Kabupaten Aceh Tengah";"ACEH";"24519";"Indonesia";"";"4.6241302";"96.8504084";"https://maps.google.com/?cid=0x0:0xf45392bea9f340a5"
"supermarket";"Toko Swalayan";"Toko Sejahtra swalayan";"Jl. Gatot Subroto, Bale Atu, Kec. Lut Tawar, Kabupaten Aceh Tengah, Aceh 24519";"Bale Atu, Kec. Lut Tawar, Kabupaten Aceh Tengah";"ACEH";"24519";"Indonesia";"";"4.6233746";"96.8499305";"https://maps.google.com/?cid=0x0:0xf93184dd2ceafe62"
"supermarket";"Toko";"Indomaret";"Jl. Sengeda, Takengon Tim., Kec. Lut Tawar, Kabupaten Aceh Tengah, Aceh 24519";"Takengon Tim., Kec. Lut Tawar, Kabupaten Aceh Tengah";"ACEH";"24519";"Indonesia";"";"4.6219001";"96.8505841";"https://maps.google.com/?cid=0x0:0x790e5e2c5c72495e"
"supermarket";"Minimarket";"Alfitrah Minimart";"Jl. Al Fitrah No.15, Takengon Tim., Kec. Lut Tawar, Kabupaten Aceh Tengah, Aceh 24519";"Takengon Tim., Kec. Lut Tawar, Kabupaten Aceh Tengah";"ACEH";"24519";"Indonesia";"";"4.6242015";"96.851473";"https://maps.google.com/?cid=0x0:0x998c1339512e60db"
"supermarket";"Minimarket";"Nacara Swalayan";"JVC2+M8V, Jl. Sengeda, Takengon Tim., Kec. Lut Tawar, Kabupaten Aceh Tengah, Aceh 24519";"Jl. Sengeda, Takengon Tim., Kec. Lut Tawar, Kabupaten Aceh Tengah";"ACEH";"24519";"Indonesia";"";"4.6217336";"96.8507832";"https://maps.google.com/?cid=0x0:0x3bd70edf24aff559"
"supermarket";"supermarket";"Danau Laut Tawar";"Danau, Kabupaten Aceh Tengah, Aceh";"Kabupaten Aceh Tengah, Aceh";"ACEH";"";"Indonesia";"";"4.611944";"96.923611";"https://maps.google.com/?cid=0x0:0x2a039d80edbbd930"
"supermarket";"supermarket";"Aceh 24516";"Kabupaten Aceh Tengah, Aceh";"Kabupaten Aceh Tengah, Aceh";"ACEH";"";"Indonesia";"";"4.5194021";"96.8887202";"https://maps.google.com/?cid=0x0:0x3c9a17af1bc497a9"
"supermarket";"Toko Swalayan";"Serba Ada Swalayan";"JRFX+MW7, Bale Atu, Kec. Lut Tawar, Kabupaten Aceh Tengah, Aceh 24519";"Bale Atu, Kec. Lut Tawar, Kabupaten Aceh Tengah";"ACEH";"24519";"Indonesia";"";"4.6241692";"96.8497913";"https://maps.google.com/?cid=0x0:0x6e7a236a8fb515ae"
"supermarket";"Toko Swalayan";"Toko Sejahtra swalayan";"Jl. Gatot Subroto, Bale Atu, Kec. Lut Tawar, Kabupaten Aceh Tengah, Aceh 24519";"Bale Atu, Kec. Lut Tawar, Kabupaten Aceh Tengah";"ACEH";"24519";"Indonesia";"";"4.6233746";"96.8499305";"https://maps.google.com/?cid=0x0:0xf93184dd2ceafe62"
"supermarket";"Toko";"Toko lut tawar";"Jl. Sengeda, Takengon Tim., Kec. Lut Tawar, Kabupaten Aceh Tengah, Aceh 24519";"Takengon Tim., Kec. Lut Tawar, Kabupaten Aceh Tengah";"ACEH";"24519";"Indonesia";" 082163142902";"4.6241166";"96.8510791";"https://maps.google.com/?cid=0x0:0x619d1646d8118710"
"supermarket";"Toko";"Indomaret";"Jl. Sengeda, Takengon Tim., Kec. Lut Tawar, Kabupaten Aceh Tengah, Aceh 24519";"Takengon Tim., Kec. Lut Tawar, Kabupaten Aceh Tengah";"ACEH";"24519";"Indonesia";"";"4.6219001";"96.8505841";"https://maps.google.com/?cid=0x0:0x790e5e2c5c72495e"
"supermarket";"Restoran";"Dapur IRA Frozen Mart";"Jl. Lebe Kader No.22, Simpang Empat, Kec. Bebesen, Kabupaten Aceh Tengah, Aceh 24471";"Simpang Empat, Kec. Bebesen, Kabupaten Aceh Tengah";"ACEH";"24471";"Indonesia";" 085321346141";"4.6345352";"96.8425713";"https://maps.google.com/?cid=0x0:0x6a22635a40a2a844"
"supermarket";"Minimarket";"Alfitrah Minimart";"Jl. Al Fitrah No.15, Takengon Tim., Kec. Lut Tawar, Kabupaten Aceh Tengah, Aceh 24519";"Takengon Tim., Kec. Lut Tawar, Kabupaten Aceh Tengah";"ACEH";"24519";"Indonesia";"";"4.6242015";"96.851473";"https://maps.google.com/?cid=0x0:0x998c1339512e60db"
"supermarket";"Toko bahan makanan";"peras santan ud yakin";"JRCX+5CJ, Takengon Tim., Kec. Lut Tawar, Kabupaten Aceh Tengah, Aceh 24519";"Takengon Tim., Kec. Lut Tawar, Kabupaten Aceh Tengah";"ACEH";"24519";"Indonesia";" 082292695062";"4.6204632";"96.848517";"https://maps.google.com/?cid=0x0:0x8860084399eba71c"
"supermarket";"Pasar tradisional";"Pasar Pagi Lama";"JV92+XC9 teri, jl.inen mayak, Hakim Bale Bujang, Kec. Lut Tawar, Kabupaten Aceh Tengah, Aceh 24519";"jl.inen mayak, Hakim Bale Bujang, Kec. Lut Tawar, Kabupaten Aceh Tengah";"ACEH";"24519";"Indonesia";"";"4.619923";"96.8511157";"https://maps.google.com/?cid=0x0:0xbe148374c2177a24"
"supermarket";"Toko";"Kumar Toko";"Kenawat, Kec. Lut Tawar, Kabupaten Aceh Tengah, Aceh 24511";"Kec. Lut Tawar, Kabupaten Aceh Tengah";"ACEH";"24511";"Indonesia";" 064323455";"4.5478015";"96.8645856";"https://maps.google.com/?cid=0x0:0x7737a626ab489330"
"supermarket";"Toko";"Arafah Toko";"Jl. Syiah Utama No.504, Kenawat, Kec. Lut Tawar, Kabupaten Aceh Tengah, Aceh 24511";"Kenawat, Kec. Lut Tawar, Kabupaten Aceh Tengah";"ACEH";"24511";"Indonesia";" 064323437";"4.5478015";"96.8645856";"https://maps.google.com/?cid=0x0:0x1a2d877f86c96f9"
"supermarket";"Rental Bus";"Terminal LAMA TAKENGON";"JVF2+R8P, Terminal, Takengon Tim., Kec. Lut Tawar, Kabupaten Aceh Tengah, Aceh 24519";"Terminal, Takengon Tim., Kec. Lut Tawar, Kabupaten Aceh Tengah";"ACEH";"24519";"Indonesia";"";"4.6245762";"96.8508198";"https://maps.google.com/?cid=0x0:0xa65db78df16e77c6"
"supermarket";"Toko kopi";"Kopi gayo";"Jl. Pasar impres III, Kenawat, Kec. Lut Tawar, Kabupaten Aceh Tengah, Aceh 24511";"Kenawat, Kec. Lut Tawar, Kabupaten Aceh Tengah";"ACEH";"24511";"Indonesia";"";"4.5478015";"96.8645856";"https://maps.google.com/?cid=0x0:0x6fefe835e09b3409"
"supermarket";"Taman bermain";"Toweren";"JV2V+95X, Jl. Takengon - Bintang, Toweren Uken, Kec. Lut Tawar, Kabupaten Aceh Tengah, Aceh 24519";"Jl. Takengon - Bintang, Toweren Uken, Kec. Lut Tawar, Kabupaten Aceh Tengah";"ACEH";"24519";"Indonesia";"";"4.6009898";"96.8929724";"https://maps.google.com/?cid=0x0:0x639f5770f1d1581c"
"supermarket";"supermarket";"Aceh 24563";"Kabupaten Aceh Tengah, Aceh";"Kabupaten Aceh Tengah, Aceh";"ACEH";"";"Indonesia";"";"4.323702";"97.0498442";"https://maps.google.com/?cid=0x0:0x7d0f262101229bc9"
"supermarket";"Dapur Umum";"Warung Mie So Mak Dani";"9RWH+X4V, Jl. Takengon - Blangkejeren II, Gemboyah, Kec. Linge, Kabupaten Aceh Tengah, Aceh 24563";"Jl. Takengon - Blangkejeren II, Gemboyah, Kec. Linge, Kabupaten Aceh Tengah";"ACEH";"24563";"Indonesia";" 082215015217";"4.3974906";"96.8278046";"https://maps.google.com/?cid=0x0:0xe6f0907135e93a5d"
"supermarket";"Makanan Kecil";"Warung Gayo";"84JQ+FRV, Lumut, Kec. Linge, Kabupaten Aceh Tengah, Aceh 24563";"Lumut, Kec. Linge, Kabupaten Aceh Tengah";"ACEH";"24563";"Indonesia";"";"4.3312497";"97.1395512";"https://maps.google.com/?cid=0x0:0x552629458886da45"
"supermarket";"Toko Swalayan";"MAKMUR SWALAYAN";"X8QV+W9M, Rak Lunung, Kec. Blangkejeren, Kabupaten Gayo Lues, Aceh 24653";"Rak Lunung, Kec. Blangkejeren, Kabupaten Gayo Lues";"ACEH";"24653";"Indonesia";" 08116132922";"3.9898256";"97.3434273";"https://maps.google.com/?cid=0x0:0xb188fe689c0a8026"
"supermarket";"Toko Makanan";"AREN ALENG ASLI TAKENGON";"Kemerleng, Kec. Linge, Kabupaten Aceh Tengah, Aceh 24565";"Kec. Linge, Kabupaten Aceh Tengah";"ACEH";"24565";"Indonesia";" 085262563174";"4.4646102";"96.9545171";"https://maps.google.com/?cid=0x0:0xb76af5cd0c54486d"
"supermarket";"Toko";"Ruhni Minimarket";"9QG5+C6M, Jeget Ayu, Kec. Jagong Jeget, Kabupaten Aceh Tengah, Aceh 24563";"Jeget Ayu, Kec. Jagong Jeget, Kabupaten Aceh Tengah";"ACEH";"24563";"Indonesia";" 082363644702";"4.3760788";"96.7580565";"https://maps.google.com/?cid=0x0:0xcae348d23e228d69"
"supermarket";"Minimarket";"Warung pak nikmah";"C2P5+GXG, Pantan Nangka, Kec. Linge, Kabupaten Aceh Tengah, Aceh 24563";"Pantan Nangka, Kec. Linge, Kabupaten Aceh Tengah";"ACEH";"24563";"Indonesia";"";"4.4363177";"97.009967";"https://maps.google.com/?cid=0x0:0xaf8483dad6b5e5e0"
"supermarket";"Grosir Barang Kelontong";"UD. BARRAN";"Depan toko permata Baja, jalan Berawang dewal Dusun Sida Reja, Gegarang, Kec. Jagong Jeget, Kabupaten Aceh Tengah, Aceh 24563";"jalan Berawang dewal Dusun Sida Reja, Gegarang, Kec. Jagong Jeget, Kabupaten Aceh Tengah";"ACEH";"24563";"Indonesia";" 082272247494";"4.3758896";"96.7084302";"https://maps.google.com/?cid=0x0:0xd33fe045be136d6d"
"supermarket";"Toko umum";"Aqua/Aries Store";"Pasar Senin, Kec. Atu Lintang, Kabupaten Aceh Tengah, Aceh";"Kabupaten Aceh Tengah, Aceh";"ACEH";"";"Indonesia";" 082214597781";"4.4483286";"96.7738267";"https://maps.google.com/?cid=0x0:0x11f8d0e502febb03"
"supermarket";"Pusat Perbelanjaan";"UD. GIBRAN sembako";"Merah Mege, Kec. Atu Lintang, Kabupaten Aceh Tengah, Aceh 24563";"Kec. Atu Lintang, Kabupaten Aceh Tengah";"ACEH";"24563";"Indonesia";" 082285536344";"4.4654305";"96.7888616";"https://maps.google.com/?cid=0x0:0xd5ba149a9cba76db"
"supermarket";"Makanan Kecil";"Warung klontong ibu rita";"FV5V+3G3, Kute Rayang, Kec. Linge, Kabupaten Aceh Tengah, Aceh 24563";"Kute Rayang, Kec. Linge, Kabupaten Aceh Tengah";"ACEH";"24563";"Indonesia";"";"4.4576214";"96.8937096";"https://maps.google.com/?cid=0x0:0xeb4900d8d944112d"
"supermarket";"Toko Makanan";"industri Tempe Rahono";"FR57+FWF, Unnamed Road, Merah Jernang, Kec. Atu Lintang, Kabupaten Aceh Tengah, Aceh 24563";"Unnamed Road, Merah Jernang, Kec. Atu Lintang, Kabupaten Aceh Tengah";"ACEH";"24563";"Indonesia";"";"4.458686";"96.8148072";"https://maps.google.com/?cid=0x0:0x84de3561414a5fbb"
"supermarket";"Pom bensin/SPBU";"Petro Market SPBU";"Jl. Sengeda, Nunang Antara, Kec. Bebesen, Kabupaten Aceh Tengah, Aceh 24552";"Nunang Antara, Kec. Bebesen, Kabupaten Aceh Tengah";"ACEH";"24552";"Indonesia";"";"4.6320614";"96.8534164";"https://maps.google.com/?cid=0x0:0x877a757780a661fe"
"supermarket";"Toko";"TOKO HARAPAN MULIA";"FQ5G+2H6, Atu Lintang, Kec. Atu Lintang, Kabupaten Aceh Tengah, Aceh 24563";"Atu Lintang, Kec. Atu Lintang, Kabupaten Aceh Tengah";"ACEH";"24563";"Indonesia";"";"4.4575349";"96.7763987";"https://maps.google.com/?cid=0x0:0x8716eebc77f82f3c"
"supermarket";"supermarket";"Aceh 24561";"Kec. Bies, Kabupaten Aceh Tengah, Aceh";"Kabupaten Aceh Tengah, Aceh";"ACEH";"";"Indonesia";"";"4.6357106";"96.5143087";"https://maps.google.com/?cid=0x0:0x56523b06c23bbd5f"
"supermarket";"Minimarket";"toko kelontong sapira";"HR96+G99, desa, Ujung Gele, Kec. Pegasing, Kabupaten Aceh Tengah, Aceh 24552";"desa, Ujung Gele, Kec. Pegasing, Kabupaten Aceh Tengah";"ACEH";"24552";"Indonesia";"";"4.5687756";"96.810983";"https://maps.google.com/?cid=0x0:0x7eaf49dbe1eb2dbb"
"supermarket";"Minimarket";"Bripoe";"QQ58+FPC, Jl. Raya Bireuen - Takengon, Lampahan, Kec. Timang Gajah, kabupaten ben, Aceh 24571";"Jl. Raya Bireuen - Takengon, Lampahan, Kec. Timang Gajah, kabupaten ben";"ACEH";"24571";"Indonesia";" 085360062222";"4.7586914";"96.7667561";"https://maps.google.com/?cid=0x0:0x1f0e2fd0fc37f74a"
"supermarket";"Toko bahan makanan";"UD. IBRAHIM FAMILY";"Unnamed Road, Atu Gogop, Kec. Kute Panang, Kabupaten Aceh Tengah, Aceh 24471";"Atu Gogop, Kec. Kute Panang, Kabupaten Aceh Tengah";"ACEH";"24471";"Indonesia";" 081276169251";"4.6885967";"96.7693127";"https://maps.google.com/?cid=0x0:0xda3ce67d5ad84a87"
"supermarket";"Minimarket";"Alfamart Pegasing";"JR28+GM2, Belang Bebangka, Kec. Pegasing, Kabupaten Aceh Tengah, Aceh 24552";"Belang Bebangka, Kec. Pegasing, Kabupaten Aceh Tengah";"ACEH";"24552";"Indonesia";"";"4.6012711";"96.8166522";"https://maps.google.com/?cid=0x0:0x66fd40540a71958d"
"supermarket";"Toko Ponsel";"MARIBAYA PONSEL";"Wih Nareh, Kec. Pegasing, Kabupaten Aceh Tengah, Aceh 24552";"Kec. Pegasing, Kabupaten Aceh Tengah";"ACEH";"24552";"Indonesia";" 085358610035";"4.5802284";"96.8230413";"https://maps.google.com/?cid=0x0:0x321bc38b78af1490"
"supermarket";"Toko bahan makanan";"ISCO SETIA";"Lampahan Bar., Kec. Timang Gajah, Kabupaten Bener Meriah, Aceh 24571";"Kec. Timang Gajah, Kabupaten Bener Meriah";"ACEH";"24571";"Indonesia";" 085270700024";"4.7580208";"96.7625349";"https://maps.google.com/?cid=0x0:0xf08cbd453e4306b2"
"supermarket";"Toko";"Kedai elvi";"CM88+R3H Berawang Baro, Kabupaten Aceh Tengah, Aceh tangah, Aceh 24561";"Kabupaten Aceh Tengah, Aceh tangah";"ACEH";"24561";"Indonesia";"";"4.4170625";"96.6651875";"https://maps.google.com/?cid=0x0:0x137e1ecfebdc407"
"supermarket";"Toko Swalayan";"M M Mufakat Market";"PRF4+5MW, Pante Raya, Kec. Wih Pesam, Kabupaten Bener Meriah, Aceh 24471";"Pante Raya, Kec. Wih Pesam, Kabupaten Bener Meriah";"ACEH";"24471";"Indonesia";"";"4.72299";"96.8067152";"https://maps.google.com/?cid=0x0:0x8fc19d2d2cb94ff9"
"supermarket";"Kedai Kopi";"Rolly Market";"JPCF+M3F, Pepayungen Angkup, Kec. Silih Nara, Kabupaten Aceh Tengah, Aceh 24773";"Pepayungen Angkup, Kec. Silih Nara, Kabupaten Aceh Tengah";"ACEH";"24773";"Indonesia";" 085270548885";"4.621685";"96.7226646";"https://maps.google.com/?cid=0x0:0xad0860543f994497"
"supermarket";"Minimarket";"Reje Glosir";"PQHQ+4RR, Kebun Baru, Kec. Wih Pesam, Kabupaten Bener Meriah, Aceh 24561";"Kebun Baru, Kec. Wih Pesam, Kabupaten Bener Meriah";"ACEH";"24561";"Indonesia";"";"4.7278547";"96.7895076";"https://maps.google.com/?cid=0x0:0x8b830d4e83e669"
"supermarket";"Toko Swalayan";"M M ABD Market";"PRF4+4QR, Pante Raya, Kec. Wih Pesam, Kabupaten Bener Meriah, Aceh 24471";"Pante Raya, Kec. Wih Pesam, Kabupaten Bener Meriah";"ACEH";"24471";"Indonesia";"";"4.7228728";"96.8068792";"https://maps.google.com/?cid=0x0:0x17f6c7d029216d6f"
"supermarket";"Toko Swalayan";"ARIKE FOTOCOPY, KELONTONG  PULSA";"HQWX+R4M, Jl. Beutong Ateuh - Takengon, Atang Jungket, Kec. Bies, Kabupaten Aceh Tengah, Aceh 24552";"Jl. Beutong Ateuh - Takengon, Atang Jungket, Kec. Bies, Kabupaten Aceh Tengah";"ACEH";"24552";"Indonesia";" 081361534130";"4.5970845";"96.7978026";"https://maps.google.com/?cid=0x0:0x93c92f32d1757cf4"
"supermarket";"Toko Swalayan";"KIOS ALFARIZKY (Pulsa, PPOB, Kelontong, dsb)";"Jl. Beutong Ateuh - Takengon, Simpang Lukup Badak, Kec. Bies, Kabupaten Aceh Tengah, Aceh 24552";"Simpang Lukup Badak, Kec. Bies, Kabupaten Aceh Tengah";"ACEH";"24552";"Indonesia";"";"4.5979727";"96.8009919";"https://maps.google.com/?cid=0x0:0x3ec0af7382ee4bcf"
"supermarket";"supermarket";"Kec. Rusip Antara";"Kabupaten Aceh Tengah, Aceh";"Kabupaten Aceh Tengah, Aceh";"ACEH";"";"Indonesia";"";"4.7473709";"96.4536555";"https://maps.google.com/?cid=0x0:0x8dc34f971c061ad6"
"supermarket";"Toko Swalayan";"8 semeja";"JJ7J+768, Rusip, Kec. Rusip Antara, Kabupaten Aceh Tengah, Aceh 24552";"Rusip, Kec. Rusip Antara, Kabupaten Aceh Tengah";"ACEH";"24552";"Indonesia";"";"4.6131527";"96.6305746";"https://maps.google.com/?cid=0x0:0xa48c33a4ac3011b5"
"supermarket";"Grosir Barang Kelontong";"Warung Bu Ngatinah";"JJ2P+QW4, Pilar Wih Kiri, Kec. Rusip Antara, Kabupaten Aceh Tengah, Aceh 24552";"Pilar Wih Kiri, Kec. Rusip Antara, Kabupaten Aceh Tengah";"ACEH";"24552";"Indonesia";" 082364688868";"4.6018986";"96.6373226";"https://maps.google.com/?cid=0x0:0x92e667576a9159cd"
"supermarket";"Toko Swalayan";"Rumah Maulana";"PCVW+QX3, Merandeh Paya, Kec. Rusip Antara, Kabupaten Aceh Tengah, Aceh";"Kabupaten Aceh Tengah, Aceh";"ACEH";"";"Indonesia";"";"4.7443949";"96.4474075";"https://maps.google.com/?cid=0x0:0xa30ea0656a58b90"
"supermarket";"Toko bahan makanan";"Kedai Kak Ru";"JJGM+JH9, Rusip, Kec. Rusip Antara, Kabupaten Aceh Tengah, Aceh 24552";"Rusip, Kec. Rusip Antara, Kabupaten Aceh Tengah";"ACEH";"24552";"Indonesia";"";"4.626581";"96.6330908";"https://maps.google.com/?cid=0x0:0x2304f85edd914ea5"
"supermarket";"Toko umum";"Ras.id";"HJXR+HJG, Pilar Wih Kiri, Kec. Rusip Antara, Kabupaten Aceh Tengah, Aceh";"Kabupaten Aceh Tengah, Aceh";"ACEH";"";"Indonesia";"";"4.5989433";"96.6415799";"https://maps.google.com/?cid=0x0:0x2a8f84ef71bdf9ef"
"supermarket";"Kafe";"Lina market";"HMVQ+6QR, Melala, Kec. Celala, Kabupaten Aceh Tengah, Aceh 24562";"Melala, Kec. Celala, Kabupaten Aceh Tengah";"ACEH";"24562";"Indonesia";" 085296376500";"4.5930434";"96.6893405";"https://maps.google.com/?cid=0x0:0x75ac5af35aacf0c3"
"supermarket";"supermarket";"TUAH MATA Company";"HJXR+VHP, Pilar Wih Kiri, Kec. Rusip Antara, Kabupaten Aceh Tengah, Aceh 24552";"Pilar Wih Kiri, Kec. Rusip Antara, Kabupaten Aceh Tengah";"ACEH";"24552";"Indonesia";"";"4.600318";"96.640509";"https://maps.google.com/?cid=0x0:0xc62f478494059fa4"
"supermarket";"Sekolah Dasar";"SDN 7 Rusip Antara";"QC2M+PR9, Merandeh Paya, Kec. Rusip Antara, Kabupaten Aceh Tengah, Aceh 24183";"Merandeh Paya, Kec. Rusip Antara, Kabupaten Aceh Tengah";"ACEH";"24183";"Indonesia";"";"4.7517817";"96.4346136";"https://maps.google.com/?cid=0x0:0x5185641ce1b29327"
"supermarket";"Toko bahan makanan";"Pangkalan GAS";"JJRM+8W8, Jl. Silih Nara-Rusip Antara, Arul Pertik, Kec. Rusip Antara, Kabupaten Aceh Tengah, Aceh 24567";"Jl. Silih Nara-Rusip Antara, Arul Pertik, Kec. Rusip Antara, Kabupaten Aceh Tengah";"ACEH";"24567";"Indonesia";"";"4.6407852";"96.6348378";"https://maps.google.com/?cid=0x0:0xee93af5d483f6354"
"supermarket";"Misi";"UAHNI BARANG KOPI GLONDONG, GABAH";"HJXR+VHP, Pilar Wih Kiri, Kec. Rusip Antara, Kabupaten Aceh Tengah, Aceh 24552";"Pilar Wih Kiri, Kec. Rusip Antara, Kabupaten Aceh Tengah";"ACEH";"24552";"Indonesia";"";"4.5997105";"96.6413992";"https://maps.google.com/?cid=0x0:0x74d4646a86255ff3"
"supermarket";"Grosir Kopi";"Gayo Arabica Coffee Seller";"Buntul pepanyi, Kec. Rusip Antara, Kabupaten Aceh Tengah, Aceh 24773";"Kec. Rusip Antara, Kabupaten Aceh Tengah";"ACEH";"24773";"Indonesia";" 081388659935";"4.6257956";"96.6467139";"https://maps.google.com/?cid=0x0:0x74288bce100cb8b3"
"supermarket";"Toko Swalayan";"Toko Mak Rama";"PFQ6+58V, Unnamed Road, Tanjung, Kec. Rusip Antara, Kabupaten Aceh Tengah, Aceh 24183";"Unnamed Road, Tanjung, Kec. Rusip Antara, Kabupaten Aceh Tengah";"ACEH";"24183";"Indonesia";"";"4.7379786";"96.4608008";"https://maps.google.com/?cid=0x0:0x4b4e8f88b5b5e1da"
"supermarket";"Toko Pakaian";"Bouquet Amah";"Jl. Silih Nara-Rusip Antara, Arul Pertik, Kec. Rusip Antara, Kabupaten Aceh Tengah, Aceh 24567";"Arul Pertik, Kec. Rusip Antara, Kabupaten Aceh Tengah";"ACEH";"24567";"Indonesia";" 082298714859";"4.6407939";"96.6348416";"https://maps.google.com/?cid=0x0:0x2b6eebe5b9467c3c"
"supermarket";"supermarket";"Kec. Silih Nara";"Kabupaten Aceh Tengah, Aceh";"Kabupaten Aceh Tengah, Aceh";"ACEH";"";"Indonesia";"";"4.6417568";"96.7325032";"https://maps.google.com/?cid=0x0:0xba6d4d84a00888d5"
"supermarket";"Kedai Kopi";"Rolly Market";"JPCF+M3F, Pepayungen Angkup, Kec. Silih Nara, Kabupaten Aceh Tengah, Aceh 24773";"Pepayungen Angkup, Kec. Silih Nara, Kabupaten Aceh Tengah";"ACEH";"24773";"Indonesia";" 085270548885";"4.621685";"96.7226646";"https://maps.google.com/?cid=0x0:0xad0860543f994497"
"supermarket";"Toko Makanan";"Kede Mak NASIR";"JPCC+QVQ, Pepayungen Angkup, Kec. Silih Nara, Kabupaten Aceh Tengah, Aceh 24773";"Pepayungen Angkup, Kec. Silih Nara, Kabupaten Aceh Tengah";"ACEH";"24773";"Indonesia";"";"4.6219732";"96.7222448";"https://maps.google.com/?cid=0x0:0x14e360b986e692d6"
"supermarket";"Kafe";"kontercafegudang";"HQVF+HCQ, Sanehen, Kec. Silih Nara, Kabupaten Aceh Tengah, Aceh 24552";"Sanehen, Kec. Silih Nara, Kabupaten Aceh Tengah";"ACEH";"24552";"Indonesia";" 082267734102";"4.5939736";"96.7736077";"https://maps.google.com/?cid=0x0:0x8e5a155b8087dea8"
"supermarket";"Toko";"Riduan";"JPFM+9X7, Arulgele, Kec. Silih Nara, Kabupaten Aceh Tengah, Aceh";"Kabupaten Aceh Tengah, Aceh";"ACEH";"";"Indonesia";" 085359087460";"4.6234226";"96.734934";"https://maps.google.com/?cid=0x0:0x209658db260f2379"
"supermarket";"supermarket";"Kedai";"JP5V+6XV Rumah biyan, Jl. Takengon - Angkup, Burni Bius Baru, Kec. Silih Nara, Kabupaten Aceh Tengah, Aceh 24568";"Jl. Takengon - Angkup, Burni Bius Baru, Kec. Silih Nara, Kabupaten Aceh Tengah";"ACEH";"24568";"Indonesia";"";"4.6082285";"96.744924";"https://maps.google.com/?cid=0x0:0x1ef87ac924af270a"
"supermarket";"Pembangunan Perumahan";"Toko Bangun";"JPFF+87C, Pepayungen Angkup, Kec. Silih Nara, Kabupaten Aceh Tengah, Aceh 24773";"Pepayungen Angkup, Kec. Silih Nara, Kabupaten Aceh Tengah";"ACEH";"24773";"Indonesia";" 085270100087";"4.6233221";"96.7231395";"https://maps.google.com/?cid=0x0:0xae64854f1ba0b327"
"supermarket";"Toko bahan makanan";"Ud Syamsuddin";"JPFF+66F, Pepayungen Angkup, Kec. Silih Nara, Kabupaten Aceh Tengah, Aceh 24773";"Pepayungen Angkup, Kec. Silih Nara, Kabupaten Aceh Tengah";"ACEH";"24773";"Indonesia";" 0823691170176";"4.6230571";"96.723041";"https://maps.google.com/?cid=0x0:0x1250fb2c9476ada0"
"supermarket";"Pasar";"SUNDARI BUAH";"JPCF+M92, Pepayungen Angkup, Kec. Silih Nara, Kabupaten Aceh Tengah, Aceh 24773";"Pepayungen Angkup, Kec. Silih Nara, Kabupaten Aceh Tengah";"ACEH";"24773";"Indonesia";" 082369875910";"4.6216343";"96.7233999";"https://maps.google.com/?cid=0x0:0x44a8939267ed493c"
"supermarket";"Minimarket";"Kedai Sadri";"MP6R+XMQ, Arul Relem, Kec. Silih Nara, Kabupaten Aceh Tengah, Aceh 24568";"Arul Relem, Kec. Silih Nara, Kabupaten Aceh Tengah";"ACEH";"24568";"Indonesia";" 082225127046";"4.6643531";"96.7413421";"https://maps.google.com/?cid=0x0:0xa767b98a77896417"
"supermarket";"Toko Makanan";"Dapoer Cemal Cemil";"Jl. Angkup - Rusip, Genting Gerbang, Kec. Silih Nara, Kabupaten Aceh Tengah, Aceh 24562";"Genting Gerbang, Kec. Silih Nara, Kabupaten Aceh Tengah";"ACEH";"24562";"Indonesia";"";"4.6276678";"96.7011407";"https://maps.google.com/?cid=0x0:0x971381d412e4a523"
"supermarket";"Toko Pertanian";"Mitra Tani";"JPCF+R43, Pepayungen Angkup, Kec. Silih Nara, Kabupaten Aceh Tengah, Aceh 24773";"Pepayungen Angkup, Kec. Silih Nara, Kabupaten Aceh Tengah";"ACEH";"24773";"Indonesia";" 081269255260";"4.6220003";"96.7227886";"https://maps.google.com/?cid=0x0:0x91317a7d6811fdcb"
"supermarket";"Pusat Perbelanjaan";"Mitra Baru Onderdil";"Jl. Angkup - Belang Mancung No.100, Pepayungen Angkup, Kec. Silih Nara, Kabupaten Aceh Tengah, Aceh 24773";"Pepayungen Angkup, Kec. Silih Nara, Kabupaten Aceh Tengah";"ACEH";"24773";"Indonesia";"";"4.6222252";"96.7230682";"https://maps.google.com/?cid=0x0:0x1bc70b738db62f4d"
"supermarket";"Toko Perlengkapan Rumah";"Toko Nes Perabot dan Elektronik";"Jl. Perdagangan, Pepayungen Angkup, Kec. Silih Nara, Kabupaten Aceh Tengah, Aceh 24562";"Pepayungen Angkup, Kec. Silih Nara, Kabupaten Aceh Tengah";"ACEH";"24562";"Indonesia";" 082237644101";"4.6218832";"96.7219173";"https://maps.google.com/?cid=0x0:0x1c9c729f61b432f5"
