Category;Real Category;Business Name;Address;City;State;Postal Code;Country;Phone;Latitude;Longitude;Map Link
"perumahan";"perumahan";"Kec. Atu Lintang";"Kabupaten Aceh Tengah, Aceh";"Kabupaten Aceh Tengah, Aceh";"ACEH";"";"Indonesia";"";"4.4471548";"96.7737666";"https://maps.google.com/?cid=0x0:0x628bebcc216373e8"
"perumahan";"Komplek perumahan";"Rumah Alfian";"CQ4H+V3H, Merah Muyang, Kec. Atu Lintang, Kabupaten Aceh Tengah, Aceh 24563";"Merah Muyang, Kec. Atu Lintang, Kabupaten Aceh Tengah";"ACEH";"24563";"Indonesia";"";"4.4083835";"96.7788447";"https://maps.google.com/?cid=0x0:0xac291c79bd5fcb92"
"perumahan";"Komplek perumahan";"rumah saroah";"FR58+F64, Merah Jernang, Kec. Atu Lintang, Kabupaten Aceh Tengah, Aceh 24563";"Merah Jernang, Kec. Atu Lintang, Kabupaten Aceh Tengah";"ACEH";"24563";"Indonesia";"";"4.4586375";"96.8155781";"https://maps.google.com/?cid=0x0:0x8426baaeb20b3b61"
"perumahan";"Komplek perumahan";"RUMAH EDYTIA MAHARA";"FQ4V+853, Bintang Kekelip, Kec. Atu Lintang, Kabupaten Aceh Tengah, Aceh 24563";"Bintang Kekelip, Kec. Atu Lintang, Kabupaten Aceh Tengah";"ACEH";"24563";"Indonesia";"";"4.4557596";"96.7929228";"https://maps.google.com/?cid=0x0:0x122783bbdfa0ea5e"
"perumahan";"Perhimpunan Pengembang Perumahan";"kampung avanza";"FQ3V+V47, Bintang Kekelip, Kec. Atu Lintang, Kabupaten Aceh Tengah, Aceh 24563";"Bintang Kekelip, Kec. Atu Lintang, Kabupaten Aceh Tengah";"ACEH";"24563";"Indonesia";"";"4.4546623";"96.7927865";"https://maps.google.com/?cid=0x0:0x5684ed8d17db8f53"
"perumahan";"Komplek perumahan";"I LOVE ATULINTANG";"FQ6Q+Q2V, Merah Mege, Kec. Atu Lintang, Kabupaten Aceh Tengah, Aceh";"Kabupaten Aceh Tengah, Aceh";"ACEH";"";"Indonesia";"";"4.4619897";"96.7875391";"https://maps.google.com/?cid=0x0:0xce33a665c72dbc7e"
"perumahan";"Komplek perumahan";"Tri Hardianti";"CRX5+9F2, Tanoh Abu, Kec. Atu Lintang, Kabupaten Aceh Tengah, Aceh";"Kabupaten Aceh Tengah, Aceh";"ACEH";"";"Indonesia";"";"4.448394";"96.8086319";"https://maps.google.com/?cid=0x0:0x95221f467bdcb175"
"perumahan";"Toko";"Atulintang";"CQWF+VG6, Atu Lintang, Kec. Atu Lintang, Kabupaten Aceh Tengah, Aceh";"Kabupaten Aceh Tengah, Aceh";"ACEH";"";"Indonesia";"";"4.4471548";"96.7737666";"https://maps.google.com/?cid=0x0:0x8b534d1d07990d82"
"perumahan";"Komplek perumahan";"RUMAH FAHRU";"CRV5+M8W, Tanoh Abu, Kec. Atu Lintang, Kabupaten Aceh Tengah, Aceh 24563";"Tanoh Abu, Kec. Atu Lintang, Kabupaten Aceh Tengah";"ACEH";"24563";"Indonesia";"";"4.4442483";"96.808335";"https://maps.google.com/?cid=0x0:0x163a3a0953b0a77e"
"perumahan";"Komplek perumahan";"Rumah arza";"FR33+MVW, Tanoh Abu, Kec. Atu Lintang, Kabupaten Aceh Tengah, Aceh 24563";"Tanoh Abu, Kec. Atu Lintang, Kabupaten Aceh Tengah";"ACEH";"24563";"Indonesia";"";"4.4542449";"96.8047769";"https://maps.google.com/?cid=0x0:0x27e7661ea5fef838"
"perumahan";"Komplek perumahan";"Rumah Arsy";"FR44+769, Tanoh Abu, Kec. Atu Lintang, Kabupaten Aceh Tengah, Aceh 24563";"Tanoh Abu, Kec. Atu Lintang, Kabupaten Aceh Tengah";"ACEH";"24563";"Indonesia";"";"4.4556387";"96.805644";"https://maps.google.com/?cid=0x0:0x74f94a29c0259b6f"
"perumahan";"Komplek perumahan";"Naa home";"FR59+4FP, Merah Jernang, Kec. Atu Lintang, Kabupaten Aceh Tengah, Aceh 24563";"Merah Jernang, Kec. Atu Lintang, Kabupaten Aceh Tengah";"ACEH";"24563";"Indonesia";"";"4.4578398";"96.8187116";"https://maps.google.com/?cid=0x0:0xf28c8757c89ad400"
"perumahan";"Komplek perumahan";"Lorong anggrek";"CQPF+R76, Jl. Takengon - Blangkejeren II, Atu Lintang, Kec. Atu Lintang, Kabupaten Aceh Tengah, Aceh 24563";"Jl. Takengon - Blangkejeren II, Atu Lintang, Kec. Atu Lintang, Kabupaten Aceh Tengah";"ACEH";"24563";"Indonesia";"";"4.4370356";"96.7731334";"https://maps.google.com/?cid=0x0:0xb04dce24a8d85f40"
"perumahan";"Komplek perumahan";"Lorong melati";"CQWF+VG6, Atu Lintang, Kec. Atu Lintang, Kabupaten Aceh Tengah, Aceh";"Kabupaten Aceh Tengah, Aceh";"ACEH";"";"Indonesia";"";"4.4471548";"96.7737666";"https://maps.google.com/?cid=0x0:0x6f975932d2ff243a"
"perumahan";"perumahan";"Kec. Bebesen";"Kabupaten Aceh Tengah, Aceh";"Kabupaten Aceh Tengah, Aceh";"ACEH";"";"Indonesia";"";"4.6302813";"96.8522896";"https://maps.google.com/?cid=0x0:0xee869ea2be8289e9"
"perumahan";"perumahan";"Oriza";"JRRP+F29, Empus Talu, Kec. Bebesen, Kabupaten Aceh Tengah, Aceh 24471";"Empus Talu, Kec. Bebesen, Kabupaten Aceh Tengah";"ACEH";"24471";"Indonesia";"";"4.6412375";"96.8351738";"https://maps.google.com/?cid=0x0:0xded73e41deb34ffd"
"perumahan";"Pembangunan Perumahan";"Perumahan Al Bazzar Pendere City";"JR9C+56, Pendere Saril, Kec. Bebesen, Kabupaten Aceh Tengah, Aceh 24471";"Pendere Saril, Kec. Bebesen, Kabupaten Aceh Tengah";"ACEH";"24471";"Indonesia";"";"4.6177159";"96.8210133";"https://maps.google.com/?cid=0x0:0x580dab612eee4155"
"perumahan";"Komplek perumahan";"rumah apep";"JRGV+J8V, Jl. Lembaga, Blang Kolak II, Kec. Bebesen, Kabupaten Aceh Tengah, Aceh";"Kabupaten Aceh Tengah, Aceh";"ACEH";"";"Indonesia";"";"4.6266074";"96.8433016";"https://maps.google.com/?cid=0x0:0xfd0607529e61b31d"
"perumahan";"Perhimpunan Pengembang Perumahan";"nur asiah";"JRMV+Q3X, Simpang Empat, Kec. Bebesen, Kabupaten Aceh Tengah, Aceh";"Kabupaten Aceh Tengah, Aceh";"ACEH";"";"Indonesia";"";"4.6344789";"96.8427394";"https://maps.google.com/?cid=0x0:0xa02850c52d0f34c8"
"perumahan";"Komplek perumahan";"Rumah sewa UD khaila";"Jl. Empus Talu No.1, Bebesen, Kec. Bebesen, Kabupaten Aceh Tengah, Aceh 24552";"Bebesen, Kec. Bebesen, Kabupaten Aceh Tengah";"ACEH";"24552";"Indonesia";"";"4.6332068";"96.8393648";"https://maps.google.com/?cid=0x0:0x45b45bb89d670d93"
"perumahan";"Komplek perumahan";"Rumah Khalif";"Jalan gelengang Jl. 1001, Kemili, Kec. Bebesen, Kabupaten Aceh Tengah, Aceh 24519";"Kemili, Kec. Bebesen, Kabupaten Aceh Tengah";"ACEH";"24519";"Indonesia";"";"4.6308836";"96.8478436";"https://maps.google.com/?cid=0x0:0x537887249c66893f"
"perumahan";"Komplek perumahan";"Rumah Putrairwansyah Aman Hilya";"JRPQ+QW, Bebesen, Kec. Bebesen, Kabupaten Aceh Tengah, Aceh 24471";"Bebesen, Kec. Bebesen, Kabupaten Aceh Tengah";"ACEH";"24471";"Indonesia";"";"4.6380995";"96.8390214";"https://maps.google.com/?cid=0x0:0x6656023c0efda7ac"
"perumahan";"Komplek perumahan";"Mahyana";"JRJX+R94, Kemili, Kec. Bebesen, Kabupaten Aceh Tengah, Aceh 24519";"Kemili, Kec. Bebesen, Kabupaten Aceh Tengah";"ACEH";"24519";"Indonesia";"";"4.6320223";"96.8484604";"https://maps.google.com/?cid=0x0:0x72a9be33b0c574a5"
"perumahan";"Pembangunan Perumahan";"Arsshop";"Belakang futsal 1001, Jl. 1001 jalan M Aman Ali No.160, Kemili, Kec. Bebesen, Kabupaten Aceh Tengah, Aceh 24552";"Jl. 1001 jalan M Aman Ali No.160, Kemili, Kec. Bebesen, Kabupaten Aceh Tengah";"ACEH";"24552";"Indonesia";"";"4.6316235";"96.8456079";"https://maps.google.com/?cid=0x0:0x83b7b65a12d247f8"
"perumahan";"Komplek perumahan";"Rumah qu";"JVJ2+F52, Kemili, Kec. Bebesen, Kabupaten Aceh Tengah, Aceh 24519";"Kemili, Kec. Bebesen, Kabupaten Aceh Tengah";"ACEH";"24519";"Indonesia";"";"4.6311288";"96.8503775";"https://maps.google.com/?cid=0x0:0xc29ecaef0a4ac9c0"
"perumahan";"Perhimpunan Pengembang Perumahan";"Rumah khalija";"Simpang Empat, Kec. Bebesen, Kabupaten Aceh Tengah, Aceh";"Kabupaten Aceh Tengah, Aceh";"ACEH";"";"Indonesia";"";"4.6361319";"96.8446119";"https://maps.google.com/?cid=0x0:0x6b76215c9434b5f"
"perumahan";"Pembangunan Perumahan";"Icha  Shintia";"JRHQ+PF3, Lemah Burbana, Kec. Bebesen, Kabupaten Aceh Tengah, Aceh 24471";"Lemah Burbana, Kec. Bebesen, Kabupaten Aceh Tengah";"ACEH";"24471";"Indonesia";"";"4.6285744";"96.8394452";"https://maps.google.com/?cid=0x0:0x12a7b59d1ac2334b"
"perumahan";"Komplek perumahan";"Rumah mella";"JVJ2+PHH, Jl. Nunang Antara, Kemili, Kec. Bebesen, Kabupaten Aceh Tengah, Aceh 24519";"Jl. Nunang Antara, Kemili, Kec. Bebesen, Kabupaten Aceh Tengah";"ACEH";"24519";"Indonesia";"";"4.6315593";"96.851411";"https://maps.google.com/?cid=0x0:0x9e6a98addd3c4138"
"perumahan";"perumahan";"Kec. Bies";"Kabupaten Aceh Tengah, Aceh";"Kabupaten Aceh Tengah, Aceh";"ACEH";"";"Indonesia";"";"4.6053524";"96.7887047";"https://maps.google.com/?cid=0x0:0x7a713d24d00a3f00"
"perumahan";"Rumah Kaca";"BIES penentanan";"JQCW+GWR, Bies Penentanan, Kec. Bies, Kabupaten Aceh Tengah, Aceh";"Kabupaten Aceh Tengah, Aceh";"ACEH";"";"Indonesia";"";"4.6209647";"96.7972098";"https://maps.google.com/?cid=0x0:0x17f869dc9446ac71"
"perumahan";"Pembangunan Perumahan";"Perumahan";"JQ8V+HC8, Bies Mulie, Kec. Bies, Kabupaten Aceh Tengah, Aceh";"Kabupaten Aceh Tengah, Aceh";"ACEH";"";"Indonesia";"";"4.6164102";"96.7935745";"https://maps.google.com/?cid=0x0:0x54744845166d4044"
"perumahan";"Pembangunan Perumahan";"HOME";"Bies Penentanan, Kec. Bies, Kabupaten Aceh Tengah, Aceh";"Kabupaten Aceh Tengah, Aceh";"ACEH";"";"Indonesia";"";"4.6156681";"96.8037182";"https://maps.google.com/?cid=0x0:0xf2de0379d87e876b"
"perumahan";"Perhimpunan Pengembang Perumahan";"Bies Mulie";"JR73+9GF, Jl. Atang Jungket, Arul Latong, Kec. Bies, Kabupaten Aceh Tengah, Aceh 24552";"Jl. Atang Jungket, Arul Latong, Kec. Bies, Kabupaten Aceh Tengah";"ACEH";"24552";"Indonesia";"";"4.6134428";"96.8038091";"https://maps.google.com/?cid=0x0:0xf277ead323c764b8"
"perumahan";"Komplek perumahan";"Rumah wagianto";"JQFV+7QW, Bies Penentanan, Kec. Bies, Kabupaten Aceh Tengah, Aceh 24471";"Bies Penentanan, Kec. Bies, Kabupaten Aceh Tengah";"ACEH";"24471";"Indonesia";"";"4.6232341";"96.7954891";"https://maps.google.com/?cid=0x0:0xf64baa044f6d2200"
"perumahan";"perumahan";"Rumah fahrizal";"JQFR+Q2R, Bies Penentanan, Kec. Bies, Kabupaten Aceh Tengah, Aceh 24471";"Bies Penentanan, Kec. Bies, Kabupaten Aceh Tengah";"ACEH";"24471";"Indonesia";"";"4.6244302";"96.7902505";"https://maps.google.com/?cid=0x0:0x4c50b379d404272b"
"perumahan";"Komplek perumahan";"Rumah soni";"JQ4Q+25V, Tebes Lues, Kec. Bies, Kabupaten Aceh Tengah, Aceh 24552";"Tebes Lues, Kec. Bies, Kabupaten Aceh Tengah";"ACEH";"24552";"Indonesia";"";"4.6051046";"96.7879284";"https://maps.google.com/?cid=0x0:0x9d6ac2a262073fb1"
"perumahan";"Tujuan Wisata";"Perumahan Mess PLTA Peusangan";"JQ45+79V, Wih Porak, Kec. Silih Nara, Kabupaten Aceh Tengah, Aceh 24568";"Wih Porak, Kec. Silih Nara, Kabupaten Aceh Tengah";"ACEH";"24568";"Indonesia";"";"4.6057405";"96.7584145";"https://maps.google.com/?cid=0x0:0x5b82fff1e010dfea"
"perumahan";"perumahan";"Rumah asri";"JRG4+F5W, Atu Tulu, Kec. Bebesen, Kabupaten Aceh Tengah, Aceh 24471";"Atu Tulu, Kec. Bebesen, Kabupaten Aceh Tengah";"ACEH";"24471";"Indonesia";"";"4.6262094";"96.8072803";"https://maps.google.com/?cid=0x0:0xf004aa25f1ce313b"
"perumahan";"Kedai Kopi";"Rumah nenek abang takengon";"JRG6+6C, Atu Tulu, Kec. Bebesen, Kabupaten Aceh Tengah, Aceh";"Kabupaten Aceh Tengah, Aceh";"ACEH";"";"Indonesia";"";"4.6255503";"96.8110557";"https://maps.google.com/?cid=0x0:0x1fada0dc4c3c1c50"
"perumahan";"Komplek perumahan";"Feri Iswandana";"JR83+MQP, Bies Penentanan, Kec. Bies, Kabupaten Aceh Tengah, Aceh";"Kabupaten Aceh Tengah, Aceh";"ACEH";"";"Indonesia";"";"4.6167003";"96.8044654";"https://maps.google.com/?cid=0x0:0xc7a4af0ce9324bd1"
"perumahan";"Komplek perumahan";"rumah febriyanda";"JR64+FQ8, Sp Uning Niken, Kec. Bies, Kabupaten Aceh Tengah, Aceh";"Kabupaten Aceh Tengah, Aceh";"ACEH";"";"Indonesia";" 082363126613";"4.6111519";"96.8069669";"https://maps.google.com/?cid=0x0:0xe6e1381f158dfb78"
"perumahan";"Hotel";"Rumah bg suhar";"JQFR+MJ, Bies Penentanan, Kec. Bies, Kabupaten Aceh Tengah, Aceh 24471";"Bies Penentanan, Kec. Bies, Kabupaten Aceh Tengah";"ACEH";"24471";"Indonesia";"";"4.6241749";"96.7915346";"https://maps.google.com/?cid=0x0:0xabcf87ae070ed35e"
"perumahan";"perumahan";"Aceh 24571";"Aceh";"Aceh";"ACEH";"";"Indonesia";"";"4.507827";"97.0283383";"https://maps.google.com/?cid=0x0:0x77a6c4861552772a"
"perumahan";"Komplek perumahan";"Rumah Afrida";"H2M3+G78, Linung Bulen I, Kec. Bintang, Kabupaten Aceh Tengah, Aceh 24571";"Linung Bulen I, Kec. Bintang, Kabupaten Aceh Tengah";"ACEH";"24571";"Indonesia";"";"4.5840508";"97.0030214";"https://maps.google.com/?cid=0x0:0x19a6a63910bcff1d"
"perumahan";"Inspektur Tempat Tinggal";"Aceh tengah";"H285+QR, Linung Bulen I, Kec. Bintang, Kabupaten Aceh Tengah, Aceh";"Kabupaten Aceh Tengah, Aceh";"ACEH";"";"Indonesia";"";"4.5668987";"97.0095263";"https://maps.google.com/?cid=0x0:0x28f156f1add0477d"
"perumahan";"Komplek perumahan";"Frek";"H2P4+754, Linung Bulen II, Kec. Bintang, Kabupaten Aceh Tengah, Aceh 24582";"Linung Bulen II, Kec. Bintang, Kabupaten Aceh Tengah";"ACEH";"24582";"Indonesia";"";"4.5856492";"97.005444";"https://maps.google.com/?cid=0x0:0xc013c76f698cbe39"
"perumahan";"Toko Hobi";"Linting Gayo*BINTANG*Ar";"JX4R+6FG, Merodot, Kec. Bintang, Kabupaten Aceh Tengah, Aceh 24582";"Merodot, Kec. Bintang, Kabupaten Aceh Tengah";"ACEH";"24582";"Indonesia";"";"4.6055614";"96.9911996";"https://maps.google.com/?cid=0x0:0xd0432c7d824de849"
"perumahan";"perumahan";"Rumah";"JWJW+3WG, Kelitu, Kec. Bintang, Kabupaten Aceh Tengah, Aceh";"Kabupaten Aceh Tengah, Aceh";"ACEH";"";"Indonesia";"";"4.6301997";"96.9471877";"https://maps.google.com/?cid=0x0:0x7e863858dc4bb172"
"perumahan";"Perhimpunan Pengembang Perumahan";"Kp.Kalang";"HWVJ+3V4, Jl. Takengon - Bintang, Bamil Nosar, Kec. Bintang, Kabupaten Aceh Tengah, Aceh 24571";"Jl. Takengon - Bintang, Bamil Nosar, Kec. Bintang, Kabupaten Aceh Tengah";"ACEH";"24571";"Indonesia";"";"4.5926388";"96.932224";"https://maps.google.com/?cid=0x0:0x2433358e2af3c1f4"
"perumahan";"Komplek perumahan";"Bp sumadi";"G4JJ+X67, Atu Payung, Kec. Bintang, Kabupaten Aceh Tengah, Aceh";"Kabupaten Aceh Tengah, Aceh";"ACEH";"";"Indonesia";"";"4.5324223";"97.1305536";"https://maps.google.com/?cid=0x0:0x14f621132f26fa17"
"perumahan";"perumahan";"Kec. Bintang";"Kabupaten Aceh Tengah, Aceh";"Kabupaten Aceh Tengah, Aceh";"ACEH";"";"Indonesia";"";"4.5851325";"97.0048502";"https://maps.google.com/?cid=0x0:0xbaa4d43e23f2ada0"
"perumahan";"Pembangunan Perumahan";"Rumah frek";"J25C+446, Kuala I, Kec. Bintang, Kabupaten Aceh Tengah, Aceh 24582";"Kuala I, Kec. Bintang, Kabupaten Aceh Tengah";"ACEH";"24582";"Indonesia";"";"4.6077979";"97.0202754";"https://maps.google.com/?cid=0x0:0x676244d33793e244"
"perumahan";"Komplek perumahan";"Datu Bedu";"HWV8+CP8, Jl. Takengon - Bintang, Rawe, Kec. Lut Tawar, Kabupaten Aceh Tengah, Aceh";"Kabupaten Aceh Tengah, Aceh";"ACEH";"";"Indonesia";"";"4.5939562";"96.9172833";"https://maps.google.com/?cid=0x0:0x6a279e090fce05fe"
"perumahan";"Komplek perumahan";"Shahara";"H2Q6+7J, Dedamar, Kec. Bintang, Kabupaten Aceh Tengah, Aceh";"Kabupaten Aceh Tengah, Aceh";"ACEH";"";"Indonesia";"";"4.588223";"97.011557";"https://maps.google.com/?cid=0x0:0x32b11ab8935e8684"
"perumahan";"Kantor Pemerintah";"Merodot";"JX2V+HPJ, Merodot, Kec. Bintang, Kabupaten Aceh Tengah, Aceh 24582";"Merodot, Kec. Bintang, Kabupaten Aceh Tengah";"ACEH";"24582";"Indonesia";"";"4.6014658";"96.9942625";"https://maps.google.com/?cid=0x0:0xc75f3c3213ffad35"
"perumahan";"Balai Pertemuan Desa";"Kantor Desa";"H2M9+F7G, Dedamar, Kec. Bintang, Kabupaten Aceh Tengah, Aceh 24582";"Dedamar, Kec. Bintang, Kabupaten Aceh Tengah";"ACEH";"24582";"Indonesia";"";"4.5838373";"97.0180009";"https://maps.google.com/?cid=0x0:0xe3850bd17ea4970d"
"perumahan";"perumahan";"Toa";"HP55+RP2, Kuyun Toa, Kec. Celala, Kabupaten Aceh Tengah, Aceh";"Kabupaten Aceh Tengah, Aceh";"ACEH";"";"Indonesia";"";"4.5595136";"96.7092661";"https://maps.google.com/?cid=0x0:0xba9490d762449f27"
"perumahan";"perumahan";"Aceh 24562";"Kabupaten Aceh Tenggara, Aceh";"Kabupaten Aceh Tenggara, Aceh";"ACEH";"";"Indonesia";"";"3.5579154";"97.8395151";"https://maps.google.com/?cid=0x0:0xb30973a1a0ff7eb2"
"perumahan";"Komplek perumahan";"Enang²";"HM7C+9VC, Paya Kolak, Kec. Celala, Kabupaten Aceh Tengah, Aceh";"Kabupaten Aceh Tengah, Aceh";"ACEH";"";"Indonesia";"";"4.5634273";"96.6721515";"https://maps.google.com/?cid=0x0:0x30c75fb21648cc6c"
"perumahan";"Pembangunan Perumahan";"Melala";"HPGM+99, Kuyun, Kec. Celala, Kabupaten Aceh Tengah, Aceh";"Kabupaten Aceh Tengah, Aceh";"ACEH";"";"Indonesia";"";"4.575953";"96.733489";"https://maps.google.com/?cid=0x0:0x55d6475b91aab5d7"
"perumahan";"Komplek perumahan";"Bunga";"HP4F+P3J, Kuyun, Kec. Celala, Kabupaten Aceh Tengah, Aceh";"Kabupaten Aceh Tengah, Aceh";"ACEH";"";"Indonesia";"";"4.556826";"96.722641";"https://maps.google.com/?cid=0x0:0x32410b6c3d63f66c"
"perumahan";"Komplek perumahan";"Rumah wahyuni";"HP8J+JR7, Kuyun, Kec. Celala, Kabupaten Aceh Tengah, Aceh";"Kabupaten Aceh Tengah, Aceh";"ACEH";"";"Indonesia";"";"4.566528";"96.7320335";"https://maps.google.com/?cid=0x0:0x6b9249fb57f50e5d"
"perumahan";"Komplek perumahan";"Rumah wagianto";"JQFV+7QW, Bies Penentanan, Kec. Bies, Kabupaten Aceh Tengah, Aceh 24471";"Bies Penentanan, Kec. Bies, Kabupaten Aceh Tengah";"ACEH";"24471";"Indonesia";"";"4.6232341";"96.7954891";"https://maps.google.com/?cid=0x0:0xf64baa044f6d2200"
"perumahan";"Pembangunan Perumahan";"albayan";"HP8J+J73, Kuyun, Kec. Celala, Kabupaten Aceh Tengah, Aceh 24561";"Kuyun, Kec. Celala, Kabupaten Aceh Tengah";"ACEH";"24561";"Indonesia";"";"4.5666727";"96.7313049";"https://maps.google.com/?cid=0x0:0x87c7c49b4f1d02e2"
"perumahan";"Perhimpunan Pengembang Perumahan";"Rumah kairan te";"HMQM+628, Cibro, Kec. Celala, Kabupaten Aceh Tengah, Aceh";"Kabupaten Aceh Tengah, Aceh";"ACEH";"";"Indonesia";"";"4.5880375";"96.6825846";"https://maps.google.com/?cid=0x0:0xaec9dfb568440e0"
"perumahan";"Komplek perumahan";"Marleni  zulkarnain";"HP8P+3VM, Kuyun Uken, Kec. Celala, Kabupaten Aceh Tengah, Aceh 24561";"Kuyun Uken, Kec. Celala, Kabupaten Aceh Tengah";"ACEH";"24561";"Indonesia";"";"4.565212";"96.7370917";"https://maps.google.com/?cid=0x0:0xc1d6d51a909da153"
"perumahan";"Komplek perumahan";"Rumah hairil";"HMPM+6GJ, Blang Delem, Kec. Celala, Kabupaten Aceh Tengah, Aceh";"Kabupaten Aceh Tengah, Aceh";"ACEH";"";"Indonesia";"";"4.5855825";"96.6837591";"https://maps.google.com/?cid=0x0:0xd3375fd85e99f79a"
"perumahan";"Pembangunan Perumahan";"Rangga";"HMQQ+V88, Berawang Gading, Kec. Celala, Kabupaten Aceh Tengah, Aceh";"Kabupaten Aceh Tengah, Aceh";"ACEH";"";"Indonesia";"";"4.5896511";"96.6883386";"https://maps.google.com/?cid=0x0:0xe5e57b94539cdf31"
"perumahan";"Komplek perumahan";"Rumah Mirza Ana";"JP82+PWC, Jl. Beutong Ateuh - Takengon, Genting Gerbang, Kec. Silih Nara, Kabupaten Aceh Tengah, Aceh";"Kabupaten Aceh Tengah, Aceh";"ACEH";"";"Indonesia";"";"4.6168205";"96.7022624";"https://maps.google.com/?cid=0x0:0x18f8c3c107d62c27"
"perumahan";"Komplek perumahan";"Sari Wahyuni";"HMQP+JJV, Cibro, Kec. Celala, Kabupaten Aceh Tengah, Aceh";"Kabupaten Aceh Tengah, Aceh";"ACEH";"";"Indonesia";"";"4.5891004";"96.6865516";"https://maps.google.com/?cid=0x0:0xaa3708978f99e20"
"perumahan";"perumahan";"Kec. Jagong Jeget";"Kabupaten Aceh Tengah, Aceh";"Kabupaten Aceh Tengah, Aceh";"ACEH";"";"Indonesia";"";"4.3753143";"96.7564258";"https://maps.google.com/?cid=0x0:0xd1981acbde368f04"
"perumahan";"Komplek perumahan";"Perumahan TNI Jagong Jeget";"9QG6+J96, Unnamed Road, Jeget Ayu, Kec. Jagong Jeget, Kabupaten Aceh Tengah, Aceh 24563";"Unnamed Road, Jeget Ayu, Kec. Jagong Jeget, Kabupaten Aceh Tengah";"ACEH";"24563";"Indonesia";"";"4.3765449";"96.760886";"https://maps.google.com/?cid=0x0:0x286c61fb6230399c"
"perumahan";"Perhimpunan Pengembang Perumahan";"RUMAH SUPIYANTO";"9QG8+VC, Jeget Ayu, Kec. Jagong Jeget, Kabupaten Aceh Tengah, Aceh 24563";"Jeget Ayu, Kec. Jagong Jeget, Kabupaten Aceh Tengah";"ACEH";"24563";"Indonesia";"";"4.3774502";"96.7664588";"https://maps.google.com/?cid=0x0:0x149ee902fbe10440"
"perumahan";"Pembangunan Perumahan";"Simpang tiga jagong jeget ayu";"9QG4+4HV, Jalan, Simpang Tiga, Jagong Jeget, Central Aceh Regency, Aceh 24563";"Jalan, Simpang Tiga, Jagong Jeget, Central Aceh Regency";"ACEH";"24563";"Indonesia";"";"4.3753629";"96.7564118";"https://maps.google.com/?cid=0x0:0x9ab96709de4e99ef"
"perumahan";"Komplek perumahan";"Jagong Jeget";"JVF3+2F4, Jl. Malim Mudo, Takengon Tim., Kec. Lut Tawar, Kabupaten Aceh Tengah, Aceh 24519";"Jl. Malim Mudo, Takengon Tim., Kec. Lut Tawar, Kabupaten Aceh Tengah";"ACEH";"24519";"Indonesia";" 082182031470";"4.6225171";"96.8536936";"https://maps.google.com/?cid=0x0:0x2adcbc29b0a51e1c"
"perumahan";"Komplek perumahan";"Rumah";"CQ24+5X7, Bukit Sari, Kec. Jagong Jeget, Kabupaten Aceh Tengah, Aceh 24563";"Bukit Sari, Kec. Jagong Jeget, Kabupaten Aceh Tengah";"ACEH";"24563";"Indonesia";" 082273068981";"4.4004108";"96.7574289";"https://maps.google.com/?cid=0x0:0x547057364500e901"
"perumahan";"Komplek perumahan";"rumah tuah";"9PG5+88R, Gegarang, Kec. Jagong Jeget, Kabupaten Aceh Tengah, Aceh 24563";"Gegarang, Kec. Jagong Jeget, Kabupaten Aceh Tengah";"ACEH";"24563";"Indonesia";"";"4.376827";"96.7083136";"https://maps.google.com/?cid=0x0:0xefcc209e5d804010"
"perumahan";"Perhimpunan Pengembang Perumahan";"Rumah Mbah Mungajib";"9QHF+M6M, Jl. Takengon - Blangkejeren II, Gading Jaya, Kec. Jagong Jeget, Kabupaten Aceh Tengah, Aceh 24563";"Jl. Takengon - Blangkejeren II, Gading Jaya, Kec. Jagong Jeget, Kabupaten Aceh Tengah";"ACEH";"24563";"Indonesia";"";"4.3787509";"96.7729784";"https://maps.google.com/?cid=0x0:0x2fd3502810b3a11b"
"perumahan";"Perhimpunan Pengembang Perumahan";"roni";"9QGF+J6M, Jagong, Kec. Jagong Jeget, Kabupaten Aceh Tengah, Aceh 24563";"Jagong, Kec. Jagong Jeget, Kabupaten Aceh Tengah";"ACEH";"24563";"Indonesia";"";"4.3765795";"96.7730564";"https://maps.google.com/?cid=0x0:0x197332143639fbbf"
"perumahan";"Komplek perumahan";"rumah Nasrun";"9PH5+CJ2, Gegarang, Kec. Jagong Jeget, Kabupaten Aceh Tengah, Aceh 24563";"Gegarang, Kec. Jagong Jeget, Kabupaten Aceh Tengah";"ACEH";"24563";"Indonesia";"";"4.377945";"96.708958";"https://maps.google.com/?cid=0x0:0x72d15e602093d17e"
"perumahan";"Perhimpunan Pengembang Perumahan";"TAPAL BATAS BUKIT KEMUNING-JAGONG JEGET";"9QHG+HMM, Jl. Takengon - Blangkejeren II, Jagong, Kec. Jagong Jeget, Kabupaten Aceh Tengah, Aceh 24563";"Jl. Takengon - Blangkejeren II, Jagong, Kec. Jagong Jeget, Kabupaten Aceh Tengah";"ACEH";"24563";"Indonesia";"";"4.3789737";"96.7766785";"https://maps.google.com/?cid=0x0:0xf4dbc9b2823a8457"
"perumahan";"Komplek perumahan";"Aceh tengah";"9QG4+4HV, Paya Tungel, Kec. Jagong Jeget, Kabupaten Aceh Tengah, Aceh";"Kabupaten Aceh Tengah, Aceh";"ACEH";"";"Indonesia";"";"4.3753629";"96.7564118";"https://maps.google.com/?cid=0x0:0x6a8e424409a04bca"
"perumahan";"Perhimpunan Pengembang Perumahan";"Reje jeget ayu";"9QH7+X9, Jeget Ayu, Kec. Jagong Jeget, Kabupaten Aceh Tengah, Aceh 24563";"Jeget Ayu, Kec. Jagong Jeget, Kabupaten Aceh Tengah";"ACEH";"24563";"Indonesia";"";"4.3799318";"96.7634767";"https://maps.google.com/?cid=0x0:0x6c95e716cc37ecce"
"perumahan";"Komplek perumahan";"GIBRAN JAGO";"CP45+6C4, Berawang Dewal, Kec. Jagong Jeget, Kabupaten Aceh Tengah, Aceh 24563";"Berawang Dewal, Kec. Jagong Jeget, Kabupaten Aceh Tengah";"ACEH";"24563";"Indonesia";"";"4.4055051";"96.7085642";"https://maps.google.com/?cid=0x0:0x60cb1ef53a1f246b"
"perumahan";"perumahan";"Aceh 24517";"Nunang Antara, Kec. Bebesen, Kabupaten Aceh Tengah, Aceh";"Kabupaten Aceh Tengah, Aceh";"ACEH";"";"Indonesia";"";"4.6359608";"96.8533098";"https://maps.google.com/?cid=0x0:0x6d9d84d775f81d2c"
"perumahan";"Komplek perumahan";"Rumah KWD";"JVP3+WG3, Lot Kala, Kec. Kebayakan, Kabupaten Aceh Tengah, Aceh 24519";"Lot Kala, Kec. Kebayakan, Kabupaten Aceh Tengah";"ACEH";"24519";"Indonesia";"";"4.637217";"96.8538411";"https://maps.google.com/?cid=0x0:0x7273250d9805c62d"
"perumahan";"Komplek perumahan";"RADJA BERKAH";"JVP3+R7P, Lot Kala, Kec. Kebayakan, Kabupaten Aceh Tengah, Aceh 24519";"Lot Kala, Kec. Kebayakan, Kabupaten Aceh Tengah";"ACEH";"24519";"Indonesia";"";"4.6370571";"96.8530624";"https://maps.google.com/?cid=0x0:0x25245b1fff16e43a"
"perumahan";"Hostel";"Villavillahomestay";"Jl. Sengeda, Lot Kala, Kec. Kebayakan, Kabupaten Aceh Tengah, Aceh 24519";"Lot Kala, Kec. Kebayakan, Kabupaten Aceh Tengah";"ACEH";"24519";"Indonesia";" 081377402344";"4.6372333";"96.8532717";"https://maps.google.com/?cid=0x0:0xd2a05ff1508c0d2d"
"perumahan";"Bar";"kape";"Jl. Sengeda, Mampak, Lot Kala, Kec. Kebayakan, Kabupaten Aceh Tengah, Aceh 24519";"Mampak, Lot Kala, Kec. Kebayakan, Kabupaten Aceh Tengah";"ACEH";"24519";"Indonesia";" 08127943191";"4.6365416";"96.8531524";"https://maps.google.com/?cid=0x0:0x9fd73cf494f414c8"
"perumahan";"Rumah Sakit";"RUANG KEPIES ICCU";"JVP2+WH3, Unnamed Road, Bukit, Kec. Kebayakan, Kabupaten Aceh Tengah, Aceh 24471";"Unnamed Road, Bukit, Kec. Kebayakan, Kabupaten Aceh Tengah";"ACEH";"24471";"Indonesia";"";"4.6372685";"96.8514209";"https://maps.google.com/?cid=0x0:0xfc0ae2de9377e319"
"perumahan";"Bed >>u0026 Breakfast";"Rumah Makan Bu Tutik";"JVP2+6RH, Jl. Qurata Aini, Nunang Antara, Kec. Bebesen, Kabupaten Aceh Tengah, Aceh 24519";"Jl. Qurata Aini, Nunang Antara, Kec. Bebesen, Kabupaten Aceh Tengah";"ACEH";"24519";"Indonesia";"";"4.6355598";"96.85211";"https://maps.google.com/?cid=0x0:0x70000c7c034f2821"
"perumahan";"Dokter";"Instalasi Jenazah";"JVP2+RXW, Bukit, Kec. Kebayakan, Kabupaten Aceh Tengah, Aceh 24519";"Bukit, Kec. Kebayakan, Kabupaten Aceh Tengah";"ACEH";"24519";"Indonesia";"";"4.6371071";"96.8524596";"https://maps.google.com/?cid=0x0:0x763ce9d913e9f8b2"
"perumahan";"Komplek perumahan";"Rumah Kebayakan";"Rumah Fadhil, Gn. Bukit, Kec. Kebayakan, Kabupaten Aceh Tengah, Aceh 24519";"Gn. Bukit, Kec. Kebayakan, Kabupaten Aceh Tengah";"ACEH";"24519";"Indonesia";"";"4.6381315";"96.8481813";"https://maps.google.com/?cid=0x0:0x60f8fa00aaa579f1"
"perumahan";"perumahan";"Kec. Kebayakan";"Kabupaten Aceh Tengah, Aceh";"Kabupaten Aceh Tengah, Aceh";"ACEH";"";"Indonesia";"";"4.6396395";"96.8523604";"https://maps.google.com/?cid=0x0:0x988e1a386334e16c"
"perumahan";"Pembangunan Perumahan";"Kebayakan";"JVQ5+265, Mendale, Kec. Kebayakan, Kabupaten Aceh Tengah, Aceh 24582";"Mendale, Kec. Kebayakan, Kabupaten Aceh Tengah";"ACEH";"24582";"Indonesia";"";"4.6383517";"96.8586127";"https://maps.google.com/?cid=0x0:0x8e242ea3fd6513bc"
"perumahan";"perumahan";"Oriza";"JRRP+F29, Empus Talu, Kec. Bebesen, Kabupaten Aceh Tengah, Aceh 24471";"Empus Talu, Kec. Bebesen, Kabupaten Aceh Tengah";"ACEH";"24471";"Indonesia";"";"4.6412375";"96.8351738";"https://maps.google.com/?cid=0x0:0xded73e41deb34ffd"
"perumahan";"Komplek perumahan";"Kampung bukit kebayakan";"JVQ3+G9G, Jl. Sengeda, Bukit, Kec. Kebayakan, Kabupaten Aceh Tengah, Aceh";"Kabupaten Aceh Tengah, Aceh";"ACEH";"";"Indonesia";"";"4.6388219";"96.8534555";"https://maps.google.com/?cid=0x0:0x2c3611a7b7bd7cc8"
"perumahan";"Komplek perumahan";"Perumahan Giza Tama Residence";"JRVW+5MJ, Kute Lot, Kec. Kebayakan, Kabupaten Aceh Tengah, Aceh";"Kabupaten Aceh Tengah, Aceh";"ACEH";"";"Indonesia";"";"4.6429748";"96.8466302";"https://maps.google.com/?cid=0x0:0xc1b0d6e90de6c1f9"
"perumahan";"Pembangunan Perumahan";"Aceh Tengah";"MR78+73F, Paya Tumpi Baru, Kec. Kebayakan, Kabupaten Aceh Tengah, Aceh";"Kabupaten Aceh Tengah, Aceh";"ACEH";"";"Indonesia";"";"4.6631759";"96.8151867";"https://maps.google.com/?cid=0x0:0x5fd5f8de78912352"
"perumahan";"Komplek perumahan";"Rumah saya";"JVQ5+V9Q, Kala Lengkio, Kec. Kebayakan, Kabupaten Aceh Tengah, Aceh";"Kabupaten Aceh Tengah, Aceh";"ACEH";"";"Indonesia";"";"4.6397246";"96.8584914";"https://maps.google.com/?cid=0x0:0x915a7d02dc16c3c2"
"perumahan";"Pembangunan Perumahan";"Lorong Ganda No.2 Kebayakan Takengon Aceh Tengah";"Jl. Qurata Aini Lorong Ganda No.2, Gn. Bukit, Kec. Kebayakan, Kabupaten Aceh Tengah, Aceh 24519";"Gn. Bukit, Kec. Kebayakan, Kabupaten Aceh Tengah";"ACEH";"24519";"Indonesia";"";"4.6367165";"96.8488678";"https://maps.google.com/?cid=0x0:0x9d29d245f7cbd0be"
"perumahan";"Komplek perumahan";"Rumah Kebayakan";"Rumah Fadhil, Gn. Bukit, Kec. Kebayakan, Kabupaten Aceh Tengah, Aceh 24519";"Gn. Bukit, Kec. Kebayakan, Kabupaten Aceh Tengah";"ACEH";"24519";"Indonesia";"";"4.6381315";"96.8481813";"https://maps.google.com/?cid=0x0:0x60f8fa00aaa579f1"
"perumahan";"Komplek perumahan";"Rumah tinggal";"JVQ5+2W5, Lot Kala, Kec. Kebayakan, Kabupaten Aceh Tengah, Aceh 24519";"Lot Kala, Kec. Kebayakan, Kabupaten Aceh Tengah";"ACEH";"24519";"Indonesia";"";"4.6372507";"96.8596842";"https://maps.google.com/?cid=0x0:0x43b3804126cf6af1"
"perumahan";"Komplek perumahan";"Rumah";"JVR2+9XC, Bukit, Kec. Kebayakan, Kabupaten Aceh Tengah, Aceh 24471";"Bukit, Kec. Kebayakan, Kabupaten Aceh Tengah";"ACEH";"24471";"Indonesia";"";"4.640935";"96.8523829";"https://maps.google.com/?cid=0x0:0xc14f7d643b5bc775"
"perumahan";"Komplek perumahan";"rumah haikal";"JVP6+MCQ, Jl. Takengon, Lot Kala, Kec. Kebayakan, Kabupaten Aceh Tengah, Aceh 24519";"Jl. Takengon, Lot Kala, Kec. Kebayakan, Kabupaten Aceh Tengah";"ACEH";"24519";"Indonesia";"";"4.6367041";"96.861105";"https://maps.google.com/?cid=0x0:0xf36e035b06c62a0c"
"perumahan";"Komplek perumahan";"Rumah KyN";"Jl. Pengulu Bersah No 1, Perumnas Pinangan, Kute Lot, Kec. Kebayakan, Kabupaten Aceh Tengah, Aceh 24519";"Perumnas Pinangan, Kute Lot, Kec. Kebayakan, Kabupaten Aceh Tengah";"ACEH";"24519";"Indonesia";"";"4.6422781";"96.8444204";"https://maps.google.com/?cid=0x0:0x2f9f61b0f448d8ac"
"perumahan";"Komplek perumahan";"Rumah Putrairwansyah Aman Hilya";"JRPQ+QW, Bebesen, Kec. Bebesen, Kabupaten Aceh Tengah, Aceh 24471";"Bebesen, Kec. Bebesen, Kabupaten Aceh Tengah";"ACEH";"24471";"Indonesia";"";"4.6380995";"96.8390214";"https://maps.google.com/?cid=0x0:0x6656023c0efda7ac"
"perumahan";"perumahan";"Aceh 24519";"Kabupaten Aceh Tengah, Aceh";"Kabupaten Aceh Tengah, Aceh";"ACEH";"";"Indonesia";"";"4.626985";"96.8940846";"https://maps.google.com/?cid=0x0:0x696b245c7c9b4bce"
"perumahan";"Komplek perumahan";"Rumah Buge";"JR8V+G9H, Asir Asir, Kec. Lut Tawar, Kabupaten Aceh Tengah, Aceh 24519";"Asir Asir, Kec. Lut Tawar, Kabupaten Aceh Tengah";"ACEH";"24519";"Indonesia";"";"4.615506";"96.843992";"https://maps.google.com/?cid=0x0:0x85d67ca10c9ff513"
"perumahan";"Pembangunan Perumahan";"Kebayakan";"JVQ5+265, Mendale, Kec. Kebayakan, Kabupaten Aceh Tengah, Aceh 24582";"Mendale, Kec. Kebayakan, Kabupaten Aceh Tengah";"ACEH";"24582";"Indonesia";"";"4.6383517";"96.8586127";"https://maps.google.com/?cid=0x0:0x8e242ea3fd6513bc"
"perumahan";"Kompleks Apartemen";"Rumah bang ray aman daffa";"JV92+RW7, Hakim Bale Bujang, Kec. Lut Tawar, Kabupaten Aceh Tengah, Aceh 24519";"Hakim Bale Bujang, Kec. Lut Tawar, Kabupaten Aceh Tengah";"ACEH";"24519";"Indonesia";"";"4.6195427";"96.8522816";"https://maps.google.com/?cid=0x0:0x5847d7f21d85e2ba"
"perumahan";"Komplek perumahan";"Rumah nisrina";"JVF3+6RH, Takengon Tim., Kec. Lut Tawar, Kabupaten Aceh Tengah, Aceh 24519";"Takengon Tim., Kec. Lut Tawar, Kabupaten Aceh Tengah";"ACEH";"24519";"Indonesia";"";"4.623149";"96.85487";"https://maps.google.com/?cid=0x0:0x3ff5f410ef165f6c"
"perumahan";"Komplek perumahan";"Kampung bukit kebayakan";"JVQ3+G9G, Jl. Sengeda, Bukit, Kec. Kebayakan, Kabupaten Aceh Tengah, Aceh";"Kabupaten Aceh Tengah, Aceh";"ACEH";"";"Indonesia";"";"4.6388219";"96.8534555";"https://maps.google.com/?cid=0x0:0x2c3611a7b7bd7cc8"
"perumahan";"Komplek perumahan";"Rumah saya";"JVQ5+V9Q, Kala Lengkio, Kec. Kebayakan, Kabupaten Aceh Tengah, Aceh";"Kabupaten Aceh Tengah, Aceh";"ACEH";"";"Indonesia";"";"4.6397246";"96.8584914";"https://maps.google.com/?cid=0x0:0x915a7d02dc16c3c2"
"perumahan";"Komplek perumahan";"Rumah Khalif";"Jalan gelengang Jl. 1001, Kemili, Kec. Bebesen, Kabupaten Aceh Tengah, Aceh 24519";"Kemili, Kec. Bebesen, Kabupaten Aceh Tengah";"ACEH";"24519";"Indonesia";"";"4.6308836";"96.8478436";"https://maps.google.com/?cid=0x0:0x537887249c66893f"
"perumahan";"Pembangunan Perumahan";"Lorong Ganda No.2 Kebayakan Takengon Aceh Tengah";"Jl. Qurata Aini Lorong Ganda No.2, Gn. Bukit, Kec. Kebayakan, Kabupaten Aceh Tengah, Aceh 24519";"Gn. Bukit, Kec. Kebayakan, Kabupaten Aceh Tengah";"ACEH";"24519";"Indonesia";"";"4.6367165";"96.8488678";"https://maps.google.com/?cid=0x0:0x9d29d245f7cbd0be"
"perumahan";"Lembaga Keuangan";"Komplek Baitul.mall Aceh Tengah";"JR6V+7RF, Asir Asir, Kec. Lut Tawar, Kabupaten Aceh Tengah, Aceh 24519";"Asir Asir, Kec. Lut Tawar, Kabupaten Aceh Tengah";"ACEH";"24519";"Indonesia";"";"4.6106877";"96.8445344";"https://maps.google.com/?cid=0x0:0x6af556d73a7879f6"
"perumahan";"Komplek perumahan";"Perumahan Giza Tama Residence";"JRVW+5MJ, Kute Lot, Kec. Kebayakan, Kabupaten Aceh Tengah, Aceh";"Kabupaten Aceh Tengah, Aceh";"ACEH";"";"Indonesia";"";"4.6429748";"96.8466302";"https://maps.google.com/?cid=0x0:0xc1b0d6e90de6c1f9"
"perumahan";"Pembangunan Perumahan";"Aleni putri";"JVF2+R8P, Terminal lama, Takengon Tim., Kec. Lut Tawar, Kabupaten Aceh Tengah, Aceh 24519";"Terminal lama, Takengon Tim., Kec. Lut Tawar, Kabupaten Aceh Tengah";"ACEH";"24519";"Indonesia";"";"4.6245762";"96.8508198";"https://maps.google.com/?cid=0x0:0x7cd1750ffaeb1cfa"
"perumahan";"Komplek perumahan";"Rumah Bpk Khairussadiky";"JVG3+6XF, Jl. Sara Rasa, Takengon Tim., Kec. Lut Tawar, Kabupaten Aceh Tengah, Aceh 24519";"Jl. Sara Rasa, Takengon Tim., Kec. Lut Tawar, Kabupaten Aceh Tengah";"ACEH";"24519";"Indonesia";"";"4.625556";"96.8549344";"https://maps.google.com/?cid=0x0:0xe6e1a54005c1202f"
"perumahan";"perumahan";"Oriza";"JRRP+F29, Empus Talu, Kec. Bebesen, Kabupaten Aceh Tengah, Aceh 24471";"Empus Talu, Kec. Bebesen, Kabupaten Aceh Tengah";"ACEH";"24471";"Indonesia";"";"4.6412375";"96.8351738";"https://maps.google.com/?cid=0x0:0xded73e41deb34ffd"
"perumahan";"perumahan";"Kec. Ketol";"Kabupaten Aceh Tengah, Aceh";"Kabupaten Aceh Tengah, Aceh";"ACEH";"";"Indonesia";"";"4.7028922";"96.7130788";"https://maps.google.com/?cid=0x0:0x2b297203f32bf43a"
"perumahan";"Pembangunan Perumahan";"Ketol";"MPJR+WGX, Blang Mancung, Kec. Ketol, Kabupaten Aceh Tengah, Aceh 24571";"Blang Mancung, Kec. Ketol, Kabupaten Aceh Tengah";"ACEH";"24571";"Indonesia";"";"4.6823678";"96.7413706";"https://maps.google.com/?cid=0x0:0xf18d5abe392b2ea9"
"perumahan";"Perumahan";"Rumah lian";"PP79+P3, Selon, Kec. Ketol, Kabupaten Aceh Tengah, Aceh";"Kabupaten Aceh Tengah, Aceh";"ACEH";"";"Indonesia";" 082274470316";"4.714278";"96.71767";"https://maps.google.com/?cid=0x0:0x7be98de67d579cef"
"perumahan";"Pembangunan Perumahan";"Blang balik";"PP7H+XM4, Blang Balik, Kec. Ketol, Kabupaten Aceh Tengah, Aceh";"Kabupaten Aceh Tengah, Aceh";"ACEH";"";"Indonesia";"";"4.7148882";"96.7292098";"https://maps.google.com/?cid=0x0:0xf48e3554788dece3"
"perumahan";"Pembangunan Perumahan";"Lorong Tgk Di Aceh";"Lorong Tgk Di Aceh No.7, Blang Mancung Bawah, Kec. Ketol, Kabupaten Aceh Tengah, Aceh";"Kabupaten Aceh Tengah, Aceh";"ACEH";"";"Indonesia";"";"4.695135";"96.7493993";"https://maps.google.com/?cid=0x0:0x605385284e998f04"
"perumahan";"Sekolah";"Blang mancung";"MPMQ+2FH, Blang Mancung, Kec. Ketol, Kabupaten Aceh Tengah, Aceh 24571";"Blang Mancung, Kec. Ketol, Kabupaten Aceh Tengah";"ACEH";"24571";"Indonesia";"";"4.68257";"96.7387328";"https://maps.google.com/?cid=0x0:0x8a021c7eaaf377ce"
"perumahan";"Pembangunan Perumahan";"Kebet";"MPWX+3Q2, Blang Mancung Bawah, Kec. Ketol, Kabupaten Aceh Tengah, Aceh";"Kabupaten Aceh Tengah, Aceh";"ACEH";"";"Indonesia";"";"4.695135";"96.7493993";"https://maps.google.com/?cid=0x0:0xe73c037266ed5b3e"
"perumahan";"Pembangunan Perumahan";"Rumah w";"MPMM+9VJ, Blang Mancung, Kec. Ketol, Kabupaten Aceh Tengah, Aceh 24571";"Blang Mancung, Kec. Ketol, Kabupaten Aceh Tengah";"ACEH";"24571";"Indonesia";"";"4.6834709";"96.7346316";"https://maps.google.com/?cid=0x0:0x79d6b295136eb361"
"perumahan";"Perhimpunan Pengembang Perumahan";"Idi tunong";"MPWX+3Q2, Blang Mancung Bawah, Kec. Ketol, Kabupaten Aceh Tengah, Aceh";"Kabupaten Aceh Tengah, Aceh";"ACEH";"";"Indonesia";"";"4.695135";"96.7493993";"https://maps.google.com/?cid=0x0:0x2db5bc8b423b7d2b"
"perumahan";"Komplek perumahan";"Rumah Winda";"PPCC+MP9, Pd. Balik, Kec. Ketol, Kabupaten Aceh Tengah, Aceh 24571";"Pd. Balik, Kec. Ketol, Kabupaten Aceh Tengah";"ACEH";"24571";"Indonesia";"";"4.7216705";"96.7218666";"https://maps.google.com/?cid=0x0:0xe15bcddc0fa9eae4"
"perumahan";"Perumahan";"Rumah Lydia";"PPFF+4VR, Jl. Simpang Balik-Blang Mancung, Pd. Balik, Kec. Ketol, Kabupaten Aceh Tengah, Aceh 24571";"Jl. Simpang Balik-Blang Mancung, Pd. Balik, Kec. Ketol, Kabupaten Aceh Tengah";"ACEH";"24571";"Indonesia";"";"4.723658";"96.7245474";"https://maps.google.com/?cid=0x0:0x2d1f12a1eced57f5"
"perumahan";"Pembangunan Perumahan";"Zuel";"MPMP+H4R, jalan alur relem, Blang Mancung, Kec. Ketol, Kabupaten Aceh Tengah, Aceh 24571";"jalan alur relem, Blang Mancung, Kec. Ketol, Kabupaten Aceh Tengah";"ACEH";"24571";"Indonesia";"";"4.6840184";"96.7352215";"https://maps.google.com/?cid=0x0:0x158a1631e241ca70"
"perumahan";"Pembangunan Perumahan";"Kp melayu";"MPWX+3Q2, Blang Mancung Bawah, Kec. Ketol, Kabupaten Aceh Tengah, Aceh";"Kabupaten Aceh Tengah, Aceh";"ACEH";"";"Indonesia";"";"4.695135";"96.7493993";"https://maps.google.com/?cid=0x0:0x5ca5f43b40e4ed67"
"perumahan";"Perhimpunan Pengembang Perumahan";"Aceh barat";"MPWX+3Q2, Blang Mancung Bawah, Kec. Ketol, Kabupaten Aceh Tengah, Aceh";"Kabupaten Aceh Tengah, Aceh";"ACEH";"";"Indonesia";"";"4.695135";"96.7493993";"https://maps.google.com/?cid=0x0:0xe936f177a39cffd2"
"perumahan";"perumahan";"Aceh 24568";"Kec. Silih Nara, Kabupaten Aceh Tengah, Aceh";"Kabupaten Aceh Tengah, Aceh";"ACEH";"";"Indonesia";"";"4.6181645";"96.7440467";"https://maps.google.com/?cid=0x0:0xf199dfba392d9d38"
"perumahan";"Tujuan Wisata";"Perumahan Mess PLTA Peusangan";"JQ45+79V, Wih Porak, Kec. Silih Nara, Kabupaten Aceh Tengah, Aceh 24568";"Wih Porak, Kec. Silih Nara, Kabupaten Aceh Tengah";"ACEH";"24568";"Indonesia";"";"4.6057405";"96.7584145";"https://maps.google.com/?cid=0x0:0x5b82fff1e010dfea"
"perumahan";"Komplek perumahan";"Kp nangka kol kec silih Nara kab Aceh Tengah";"MP6X+56M, Tenebuk Kp. Baru, Kec. Silih Nara, Kabupaten Aceh Tengah, Aceh 24568";"Tenebuk Kp. Baru, Kec. Silih Nara, Kabupaten Aceh Tengah";"ACEH";"24568";"Indonesia";"";"4.6604747";"96.7480611";"https://maps.google.com/?cid=0x0:0x60e8a97bc1e0ee71"
"perumahan";"Komplek perumahan";"Rumah Toke";"MQ9C+P5, Tapak Moge Tim., Kec. Kute Panang, Kabupaten Aceh Tengah, Aceh";"Kabupaten Aceh Tengah, Aceh";"ACEH";"";"Indonesia";"";"4.6692907";"96.7704325";"https://maps.google.com/?cid=0x0:0x18e30d74a6a6e727"
"perumahan";"Perkebunan Pohon";"Rumah Kebun";"MQJF+VQJ, Kute Panang, Kec. Kute Panang, Kabupaten Aceh Tengah, Aceh 24471";"Kute Panang, Kec. Kute Panang, Kabupaten Aceh Tengah";"ACEH";"24471";"Indonesia";"";"4.6822126";"96.7743813";"https://maps.google.com/?cid=0x0:0xa8c7d5e15977bd7d"
"perumahan";"perumahan";"Mas Acong";"JPMW+2HF, Gn. Singit, Kec. Silih Nara, Kabupaten Aceh Tengah, Aceh 24568";"Gn. Singit, Kec. Silih Nara, Kabupaten Aceh Tengah";"ACEH";"24568";"Indonesia";"";"4.6325709";"96.7464242";"https://maps.google.com/?cid=0x0:0xe8dc2d12e6d27478"
"perumahan";"Komplek perumahan";"Istana sultan khairuddin";"MQQ9+C9R, Atu Gogop, Kec. Kute Panang, Kabupaten Aceh Tengah, Aceh";"Kabupaten Aceh Tengah, Aceh";"ACEH";"";"Indonesia";"";"4.6886161";"96.7683801";"https://maps.google.com/?cid=0x0:0x2275a67b64e89c2e"
"perumahan";"perumahan";"Suryanto";"JQFV+8CX, Bies Penentanan, Kec. Bies, Kabupaten Aceh Tengah, Aceh";"Kabupaten Aceh Tengah, Aceh";"ACEH";"";"Indonesia";"";"4.6233698";"96.7936049";"https://maps.google.com/?cid=0x0:0x414432e758ad1f05"
"perumahan";"Komplek perumahan";"Rumah wagianto";"JQFV+7QW, Bies Penentanan, Kec. Bies, Kabupaten Aceh Tengah, Aceh 24471";"Bies Penentanan, Kec. Bies, Kabupaten Aceh Tengah";"ACEH";"24471";"Indonesia";"";"4.6232341";"96.7954891";"https://maps.google.com/?cid=0x0:0xf64baa044f6d2200"
"perumahan";"Vila";"Sinta house";"PP5Q+MFP, Balik, Kec. Kute Panang, Kabupaten Aceh Tengah, Aceh 24571";"Balik, Kec. Kute Panang, Kabupaten Aceh Tengah";"ACEH";"24571";"Indonesia";"";"4.7092204";"96.7387035";"https://maps.google.com/?cid=0x0:0xfcdaa3ccc00418c0"
"perumahan";"Komplek perumahan";"ANGGA HOM";"MPGG+22J, Cang Duri, Kec. Ketol, Kabupaten Aceh Tengah, Aceh 24568";"Cang Duri, Kec. Ketol, Kabupaten Aceh Tengah";"ACEH";"24568";"Indonesia";"";"4.6755407";"96.7253891";"https://maps.google.com/?cid=0x0:0xb4e37fea47d12734"
"perumahan";"Komplek perumahan";"Yusdiandri";"MP9F+J54, Jerata, Kec. Ketol, Kabupaten Aceh Tengah, Aceh 24568";"Jerata, Kec. Ketol, Kabupaten Aceh Tengah";"ACEH";"24568";"Indonesia";"";"4.6693816";"96.7250839";"https://maps.google.com/?cid=0x0:0xc59d797e2de37ddf"
"perumahan";"Perumahan rakyat";"Rumah Fathur";"JPQJ+MH6, Arul Kumer Bar., Kec. Silih Nara, Kabupaten Aceh Tengah, Aceh";"Kabupaten Aceh Tengah, Aceh";"ACEH";"";"Indonesia";"";"4.6394272";"96.7315349";"https://maps.google.com/?cid=0x0:0x9641be0e4991a99e"
"perumahan";"Komplek perumahan";"Event";"JQ6W+J8R, Arul Latong, Kec. Bies, Kabupaten Aceh Tengah, Aceh 24552";"Arul Latong, Kec. Bies, Kabupaten Aceh Tengah";"ACEH";"24552";"Indonesia";"";"4.6116205";"96.7957583";"https://maps.google.com/?cid=0x0:0x2a863ef7c29a1d51"
"perumahan";"perumahan";"Aceh 24511";"Kabupaten Aceh Tengah, Aceh";"Kabupaten Aceh Tengah, Aceh";"ACEH";"";"Indonesia";"";"4.5478015";"96.8645856";"https://maps.google.com/?cid=0x0:0xd74671bd307a2f46"
"perumahan";"Komplek perumahan";"Kampung uring";"HR7J+JJ4, Uring, Kec. Pegasing, Kabupaten Aceh Tengah, Aceh 24552";"Uring, Kec. Pegasing, Kabupaten Aceh Tengah";"ACEH";"24552";"Indonesia";"";"4.5640049";"96.8315691";"https://maps.google.com/?cid=0x0:0xedee323b573ce829"
"perumahan";"Restoran";"Erlop";"HR4C+QWR, Jalan Takengon-Isak, Ierelop, Ierelop, Kec. Pegasing, Kabupaten Aceh Tengah, Aceh 24514";"Jalan Takengon-Isak, Ierelop, Ierelop, Kec. Pegasing, Kabupaten Aceh Tengah";"ACEH";"24514";"Indonesia";"";"4.5569974";"96.8222583";"https://maps.google.com/?cid=0x0:0xf60ebb142bb490dc"
"perumahan";"Komplek perumahan";"Karang Taruna Gelelungi";"HRC8+88G, Gele Lungi, Kec. Pegasing, Kabupaten Aceh Tengah, Aceh 24552";"Gele Lungi, Kec. Pegasing, Kabupaten Aceh Tengah";"ACEH";"24552";"Indonesia";"";"4.5708071";"96.8158163";"https://maps.google.com/?cid=0x0:0x7f16a99dbabe56cd"
"perumahan";"Rumah Kayu";"rumah rahma";"GRX9+9FQ, Suka Damai, Kec. Pegasing, Kabupaten Aceh Tengah, Aceh";"Kabupaten Aceh Tengah, Aceh";"ACEH";"";"Indonesia";"";"4.5484553";"96.8187232";"https://maps.google.com/?cid=0x0:0xf60129bb070a192a"
"perumahan";"Komplek perumahan";"Rumah saya";"HR28+R2, Suka Damai, Kec. Pegasing, Kabupaten Aceh Tengah, Aceh";"Kabupaten Aceh Tengah, Aceh";"ACEH";"";"Indonesia";"";"4.544588";"96.8154978";"https://maps.google.com/?cid=0x0:0xc31bbd1b005034c"
"perumahan";"Komplek perumahan";"Suka damai";"GRWV+MQQ, Pedekok, Kec. Pegasing, Kabupaten Aceh Tengah, Aceh";"Kabupaten Aceh Tengah, Aceh";"ACEH";"";"Indonesia";"";"4.5467116";"96.8444803";"https://maps.google.com/?cid=0x0:0x78c75c1c6c1cb3fd"
"perumahan";"Peternakan";"Kandang kuda LINGE STABLE";"HRC7+2J7, Ujung Gele, Kec. Pegasing, Kabupaten Aceh Tengah, Aceh 24552";"Ujung Gele, Kec. Pegasing, Kabupaten Aceh Tengah";"ACEH";"24552";"Indonesia";"";"4.5700395";"96.8140431";"https://maps.google.com/?cid=0x0:0xcb4c83ec802d67bf"
"perumahan";"Komplek perumahan";"Afdhal";"HR5C+3VM, Ierelop, Kec. Pegasing, Kabupaten Aceh Tengah, Aceh";"Kabupaten Aceh Tengah, Aceh";"ACEH";"";"Indonesia";"";"4.5577027";"96.8221197";"https://maps.google.com/?cid=0x0:0x263d64d4b393c528"
"perumahan";"Kantor Pemerintah";"Rumah Reja";"HR5G+R48, Ierelop, Kec. Pegasing, Kabupaten Aceh Tengah, Aceh 24514";"Ierelop, Kec. Pegasing, Kabupaten Aceh Tengah";"ACEH";"24514";"Indonesia";"";"4.5595357";"96.8253221";"https://maps.google.com/?cid=0x0:0x288501738c205dc4"
"perumahan";"Komplek perumahan";"Pedekok";"HR2C+72X, Suka Damai, Kec. Pegasing, Kabupaten Aceh Tengah, Aceh 24514";"Suka Damai, Kec. Pegasing, Kabupaten Aceh Tengah";"ACEH";"24514";"Indonesia";"";"4.5508503";"96.820241";"https://maps.google.com/?cid=0x0:0x6bf05fc4358796c8"
"perumahan";"Komplek perumahan";"Rumah Hamdi Gelelungi";"HRC8+88G, Gele Lungi, Kec. Pegasing, Kabupaten Aceh Tengah, Aceh 24552";"Gele Lungi, Kec. Pegasing, Kabupaten Aceh Tengah";"ACEH";"24552";"Indonesia";"";"4.5708355";"96.8158095";"https://maps.google.com/?cid=0x0:0x561b6a164e978e1a"
"perumahan";"Komplek perumahan";"Kampung Suka Damai.kec pegasing'";"GRX8+576, Suka Damai, Kec. Pegasing, Kabupaten Aceh Tengah, Aceh";"Kabupaten Aceh Tengah, Aceh";"ACEH";"";"Indonesia";"";"4.5479169";"96.8156462";"https://maps.google.com/?cid=0x0:0xb86c726218fb3982"
"perumahan";"Komplek perumahan";"Rumah Arfi";"HR8C+487, Kedelah, Kec. Pegasing, Kabupaten Aceh Tengah, Aceh 24552";"Kedelah, Kec. Pegasing, Kabupaten Aceh Tengah";"ACEH";"24552";"Indonesia";"";"4.5652957";"96.8207878";"https://maps.google.com/?cid=0x0:0xcffebd593ddd65d7"
"perumahan";"perumahan";"Aceh 24512";"Kec. Pegasing, Kabupaten Aceh Tengah, Aceh";"Kabupaten Aceh Tengah, Aceh";"ACEH";"";"Indonesia";"";"4.5583042";"96.8377799";"https://maps.google.com/?cid=0x0:0x6b11ac66f675b7b5"
"perumahan";"perumahan";"Kec. Lut Tawar";"Kabupaten Aceh Tengah, Aceh";"Kabupaten Aceh Tengah, Aceh";"ACEH";"";"Indonesia";"";"4.6242749";"96.8501153";"https://maps.google.com/?cid=0x0:0x233aa8a41add2302"
"perumahan";"Komplek perumahan";"Kampung uring";"HR7J+JJ4, Uring, Kec. Pegasing, Kabupaten Aceh Tengah, Aceh 24552";"Uring, Kec. Pegasing, Kabupaten Aceh Tengah";"ACEH";"24552";"Indonesia";"";"4.5640049";"96.8315691";"https://maps.google.com/?cid=0x0:0xedee323b573ce829"
"perumahan";"Pembangunan Perumahan";"Rumah Kita";"HR4P+X4W, Uring, Kec. Pegasing, Kabupaten Aceh Tengah, Aceh";"Kabupaten Aceh Tengah, Aceh";"ACEH";"";"Indonesia";"";"4.5574785";"96.8353341";"https://maps.google.com/?cid=0x0:0x8e9d26edd0dbc8e4"
"perumahan";"Pondok";"Lut Tawar Homestay";"Jl. 1001 No.10, Blang Kolak I, Kec. Bebesen, Kabupaten Aceh Tengah, Aceh 24519";"Blang Kolak I, Kec. Bebesen, Kabupaten Aceh Tengah";"ACEH";"24519";"Indonesia";" 082163142902";"4.6291181";"96.8449865";"https://maps.google.com/?cid=0x0:0xbadb0eb20b49eef"
"perumahan";"perumahan";"Aceh 24513";"Kabupaten Aceh Tengah, Aceh";"Kabupaten Aceh Tengah, Aceh";"ACEH";"";"Indonesia";"";"4.5249796";"96.84046";"https://maps.google.com/?cid=0x0:0xb136b51d8b738d87"
"perumahan";"perumahan";"Kec. Lut Tawar";"Kabupaten Aceh Tengah, Aceh";"Kabupaten Aceh Tengah, Aceh";"ACEH";"";"Indonesia";"";"4.6242749";"96.8501153";"https://maps.google.com/?cid=0x0:0x233aa8a41add2302"
"perumahan";"Tujuan Wisata";"DANAU LUT TAWAR TAKENGON";"JVGJ+43H, Danau, Kabupaten Aceh Tengah, Aceh";"Kabupaten Aceh Tengah, Aceh";"ACEH";"";"Indonesia";"";"4.6253077";"96.8802219";"https://maps.google.com/?cid=0x0:0xa36aace8c227e29f"
"perumahan";"Komplek perumahan";"Villa Haji Mahidi";"Datar, Gayo, takengon, Dispot Linge, Kec. Linge, Kabupaten Aceh Tengah, Aceh";"Kabupaten Aceh Tengah, Aceh";"ACEH";"";"Indonesia";"";"4.49317";"96.833395";"https://maps.google.com/?cid=0x0:0xb26dbf97567e1038"
"perumahan";"Komplek perumahan";"Rumah saya";"HR28+R2, Suka Damai, Kec. Pegasing, Kabupaten Aceh Tengah, Aceh";"Kabupaten Aceh Tengah, Aceh";"ACEH";"";"Indonesia";"";"4.544588";"96.8154978";"https://maps.google.com/?cid=0x0:0xc31bbd1b005034c"
"perumahan";"Komplek perumahan";"Pedekok";"HR2C+72X, Suka Damai, Kec. Pegasing, Kabupaten Aceh Tengah, Aceh 24514";"Suka Damai, Kec. Pegasing, Kabupaten Aceh Tengah";"ACEH";"24514";"Indonesia";"";"4.5508503";"96.820241";"https://maps.google.com/?cid=0x0:0x6bf05fc4358796c8"
"perumahan";"Komplek perumahan";"Suka damai";"GRWV+MQQ, Pedekok, Kec. Pegasing, Kabupaten Aceh Tengah, Aceh";"Kabupaten Aceh Tengah, Aceh";"ACEH";"";"Indonesia";"";"4.5467116";"96.8444803";"https://maps.google.com/?cid=0x0:0x78c75c1c6c1cb3fd"
"perumahan";"Restoran";"Erlop";"HR4C+QWR, Jalan Takengon-Isak, Ierelop, Ierelop, Kec. Pegasing, Kabupaten Aceh Tengah, Aceh 24514";"Jalan Takengon-Isak, Ierelop, Ierelop, Kec. Pegasing, Kabupaten Aceh Tengah";"ACEH";"24514";"Indonesia";"";"4.5569974";"96.8222583";"https://maps.google.com/?cid=0x0:0xf60ebb142bb490dc"
"perumahan";"Pembangunan Perumahan";"Rumah Kita";"HR4P+X4W, Uring, Kec. Pegasing, Kabupaten Aceh Tengah, Aceh";"Kabupaten Aceh Tengah, Aceh";"ACEH";"";"Indonesia";"";"4.5574785";"96.8353341";"https://maps.google.com/?cid=0x0:0x8e9d26edd0dbc8e4"
"perumahan";"Komplek perumahan";"Kampung Suka Damai.kec pegasing'";"GRX8+576, Suka Damai, Kec. Pegasing, Kabupaten Aceh Tengah, Aceh";"Kabupaten Aceh Tengah, Aceh";"ACEH";"";"Indonesia";"";"4.5479169";"96.8156462";"https://maps.google.com/?cid=0x0:0xb86c726218fb3982"
"perumahan";"Komplek perumahan";"Afdhal";"HR5C+3VM, Ierelop, Kec. Pegasing, Kabupaten Aceh Tengah, Aceh";"Kabupaten Aceh Tengah, Aceh";"ACEH";"";"Indonesia";"";"4.5577027";"96.8221197";"https://maps.google.com/?cid=0x0:0x263d64d4b393c528"
"perumahan";"Perhimpunan Pengembang Perumahan";"Eko martono house's";"FRMH+JVX, Dispot Linge, Kec. Linge, Kabupaten Aceh Tengah, Aceh";"Kabupaten Aceh Tengah, Aceh";"ACEH";"";"Indonesia";"";"4.4841246";"96.8297403";"https://maps.google.com/?cid=0x0:0x85cd99f8997f9e3b"
"perumahan";"Rumah Kayu";"rumah rahma";"GRX9+9FQ, Suka Damai, Kec. Pegasing, Kabupaten Aceh Tengah, Aceh";"Kabupaten Aceh Tengah, Aceh";"ACEH";"";"Indonesia";"";"4.5484553";"96.8187232";"https://maps.google.com/?cid=0x0:0xf60129bb070a192a"
"perumahan";"perumahan";"Aceh 24514";"Kec. Pegasing, Kabupaten Aceh Tengah, Aceh";"Kabupaten Aceh Tengah, Aceh";"ACEH";"";"Indonesia";"";"4.5532815";"96.8270607";"https://maps.google.com/?cid=0x0:0x149b0586ab5eec66"
"perumahan";"perumahan";"Kec. Lut Tawar";"Kabupaten Aceh Tengah, Aceh";"Kabupaten Aceh Tengah, Aceh";"ACEH";"";"Indonesia";"";"4.6242749";"96.8501153";"https://maps.google.com/?cid=0x0:0x233aa8a41add2302"
"perumahan";"Tujuan Wisata";"DANAU LUT TAWAR TAKENGON";"JVGJ+43H, Danau, Kabupaten Aceh Tengah, Aceh";"Kabupaten Aceh Tengah, Aceh";"ACEH";"";"Indonesia";"";"4.6253077";"96.8802219";"https://maps.google.com/?cid=0x0:0xa36aace8c227e29f"
"perumahan";"Pondok";"Lut Tawar Homestay";"Jl. 1001 No.10, Blang Kolak I, Kec. Bebesen, Kabupaten Aceh Tengah, Aceh 24519";"Blang Kolak I, Kec. Bebesen, Kabupaten Aceh Tengah";"ACEH";"24519";"Indonesia";" 082163142902";"4.6291181";"96.8449865";"https://maps.google.com/?cid=0x0:0xbadb0eb20b49eef"
"perumahan";"Restoran";"Erlop";"HR4C+QWR, Jalan Takengon-Isak, Ierelop, Ierelop, Kec. Pegasing, Kabupaten Aceh Tengah, Aceh 24514";"Jalan Takengon-Isak, Ierelop, Ierelop, Kec. Pegasing, Kabupaten Aceh Tengah";"ACEH";"24514";"Indonesia";"";"4.5569974";"96.8222583";"https://maps.google.com/?cid=0x0:0xf60ebb142bb490dc"
"perumahan";"Komplek perumahan";"Pedekok";"HR2C+72X, Suka Damai, Kec. Pegasing, Kabupaten Aceh Tengah, Aceh 24514";"Suka Damai, Kec. Pegasing, Kabupaten Aceh Tengah";"ACEH";"24514";"Indonesia";"";"4.5508503";"96.820241";"https://maps.google.com/?cid=0x0:0x6bf05fc4358796c8"
"perumahan";"Komplek perumahan";"Rumah saya";"HR28+R2, Suka Damai, Kec. Pegasing, Kabupaten Aceh Tengah, Aceh";"Kabupaten Aceh Tengah, Aceh";"ACEH";"";"Indonesia";"";"4.544588";"96.8154978";"https://maps.google.com/?cid=0x0:0xc31bbd1b005034c"
"perumahan";"Komplek perumahan";"Afdhal";"HR5C+3VM, Ierelop, Kec. Pegasing, Kabupaten Aceh Tengah, Aceh";"Kabupaten Aceh Tengah, Aceh";"ACEH";"";"Indonesia";"";"4.5577027";"96.8221197";"https://maps.google.com/?cid=0x0:0x263d64d4b393c528"
"perumahan";"Komplek perumahan";"Kampung Suka Damai.kec pegasing'";"GRX8+576, Suka Damai, Kec. Pegasing, Kabupaten Aceh Tengah, Aceh";"Kabupaten Aceh Tengah, Aceh";"ACEH";"";"Indonesia";"";"4.5479169";"96.8156462";"https://maps.google.com/?cid=0x0:0xb86c726218fb3982"
"perumahan";"Kantor Pemerintah";"Rumah Reja";"HR5G+R48, Ierelop, Kec. Pegasing, Kabupaten Aceh Tengah, Aceh 24514";"Ierelop, Kec. Pegasing, Kabupaten Aceh Tengah";"ACEH";"24514";"Indonesia";"";"4.5595357";"96.8253221";"https://maps.google.com/?cid=0x0:0x288501738c205dc4"
"perumahan";"Rumah Kayu";"rumah rahma";"GRX9+9FQ, Suka Damai, Kec. Pegasing, Kabupaten Aceh Tengah, Aceh";"Kabupaten Aceh Tengah, Aceh";"ACEH";"";"Indonesia";"";"4.5484553";"96.8187232";"https://maps.google.com/?cid=0x0:0xf60129bb070a192a"
"perumahan";"Komplek perumahan";"Rumah Arfi";"HR8C+487, Kedelah, Kec. Pegasing, Kabupaten Aceh Tengah, Aceh 24552";"Kedelah, Kec. Pegasing, Kabupaten Aceh Tengah";"ACEH";"24552";"Indonesia";"";"4.5652957";"96.8207878";"https://maps.google.com/?cid=0x0:0xcffebd593ddd65d7"
"perumahan";"Tujuan Wisata";"DANAU LUT TAWAR TAKENGON";"JVGJ+43H, Danau, Kabupaten Aceh Tengah, Aceh";"Kabupaten Aceh Tengah, Aceh";"ACEH";"";"Indonesia";"";"4.6253077";"96.8802219";"https://maps.google.com/?cid=0x0:0xa36aace8c227e29f"
"perumahan";"perumahan";"Aceh 24515";"Kec. Linge, Kabupaten Aceh Tengah, Aceh";"Kabupaten Aceh Tengah, Aceh";"ACEH";"";"Indonesia";"";"4.5171211";"96.8592236";"https://maps.google.com/?cid=0x0:0x12e462276045bb6b"
"perumahan";"Tujuan Wisata";"Danau Laut Tawar Aceh Tengah";"JW97+82X, Danau, Kabupaten Aceh Tengah, Aceh";"Kabupaten Aceh Tengah, Aceh";"ACEH";"";"Indonesia";"";"4.6183714";"96.9126139";"https://maps.google.com/?cid=0x0:0x8189d19821a50a7b"
"perumahan";"Pondok";"Lut Tawar Homestay";"Jl. 1001 No.10, Blang Kolak I, Kec. Bebesen, Kabupaten Aceh Tengah, Aceh 24519";"Blang Kolak I, Kec. Bebesen, Kabupaten Aceh Tengah";"ACEH";"24519";"Indonesia";" 082163142902";"4.6291181";"96.8449865";"https://maps.google.com/?cid=0x0:0xbadb0eb20b49eef"
"perumahan";"perumahan";"Biehomestay";"Jl. Puteri pukes kampung, Kala Lengkio, Kec. Kebayakan, Kabupaten Aceh Tengah, Aceh 24519";"Kala Lengkio, Kec. Kebayakan, Kabupaten Aceh Tengah";"ACEH";"24519";"Indonesia";" 082312345923";"4.6370833";"96.8612183";"https://maps.google.com/?cid=0x0:0x9beb97e7d28fd8af"
"perumahan";"perumahan";"Aceh 24516";"Kabupaten Aceh Tengah, Aceh";"Kabupaten Aceh Tengah, Aceh";"ACEH";"";"Indonesia";"";"4.5194021";"96.8887202";"https://maps.google.com/?cid=0x0:0x3c9a17af1bc497a9"
"perumahan";"Tujuan Wisata";"DANAU LUT TAWAR TAKENGON";"JVGJ+43H, Danau, Kabupaten Aceh Tengah, Aceh";"Kabupaten Aceh Tengah, Aceh";"ACEH";"";"Indonesia";"";"4.6253077";"96.8802219";"https://maps.google.com/?cid=0x0:0xa36aace8c227e29f"
"perumahan";"perumahan";"Kec. Lut Tawar";"Kabupaten Aceh Tengah, Aceh";"Kabupaten Aceh Tengah, Aceh";"ACEH";"";"Indonesia";"";"4.6242749";"96.8501153";"https://maps.google.com/?cid=0x0:0x233aa8a41add2302"
"perumahan";"Perhimpunan Pengembang Perumahan";"Agunan Sabaruddin";"HWR9+66, Rawe, Kec. Lut Tawar, Kabupaten Aceh Tengah, Aceh";"Kabupaten Aceh Tengah, Aceh";"ACEH";"";"Indonesia";"";"4.590636";"96.9180692";"https://maps.google.com/?cid=0x0:0x5a49c38f279d099e"
"perumahan";"Komplek perumahan";"Suka damai";"GRWV+MQQ, Pedekok, Kec. Pegasing, Kabupaten Aceh Tengah, Aceh";"Kabupaten Aceh Tengah, Aceh";"ACEH";"";"Indonesia";"";"4.5467116";"96.8444803";"https://maps.google.com/?cid=0x0:0x78c75c1c6c1cb3fd"
"perumahan";"Pembangunan Perumahan";"Rumah Kita";"HR4P+X4W, Uring, Kec. Pegasing, Kabupaten Aceh Tengah, Aceh";"Kabupaten Aceh Tengah, Aceh";"ACEH";"";"Indonesia";"";"4.5574785";"96.8353341";"https://maps.google.com/?cid=0x0:0x8e9d26edd0dbc8e4"
"perumahan";"Tujuan Wisata";"Danau Laut Tawar Aceh Tengah";"JW97+82X, Danau, Kabupaten Aceh Tengah, Aceh";"Kabupaten Aceh Tengah, Aceh";"ACEH";"";"Indonesia";"";"4.6183714";"96.9126139";"https://maps.google.com/?cid=0x0:0x8189d19821a50a7b"
"perumahan";"perumahan";"Aceh 24563";"Kabupaten Aceh Tengah, Aceh";"Kabupaten Aceh Tengah, Aceh";"ACEH";"";"Indonesia";"";"4.323702";"97.0498442";"https://maps.google.com/?cid=0x0:0x7d0f262101229bc9"
"perumahan";"Pertanian";"Linge, Aceh Indonesia";"945H+PR, Lumut, Kec. Linge, Kabupaten Aceh Tengah, Aceh 24563";"Lumut, Kec. Linge, Kabupaten Aceh Tengah";"ACEH";"24563";"Indonesia";"";"4.3592772";"97.1295279";"https://maps.google.com/?cid=0x0:0x41221aa9757dbd18"
"perumahan";"Komplek perumahan";"Peregen";"CV99+4QQ, Jl. Takengon - Blangkejeren II, Kute Keramil, Kec. Linge, Kabupaten Aceh Tengah, Aceh 24563";"Jl. Takengon - Blangkejeren II, Kute Keramil, Kec. Linge, Kabupaten Aceh Tengah";"ACEH";"24563";"Indonesia";"";"4.4178323";"96.8694883";"https://maps.google.com/?cid=0x0:0x196b7f45744d0243"
"perumahan";"perumahan";"Gintea pratama";"8RRR+95G, Antara, Kec. Linge, Kabupaten Aceh Tengah, Aceh 24563";"Antara, Kec. Linge, Kabupaten Aceh Tengah";"ACEH";"24563";"Indonesia";"";"4.3409287";"96.84046";"https://maps.google.com/?cid=0x0:0xcf27893baf570fd9"
"perumahan";"Rumah Kayu";"RUMAH KHALISA";"FVG6+F27, Gelampang Gading, Kec. Linge, Kabupaten Aceh Tengah, Aceh";"Kabupaten Aceh Tengah, Aceh";"ACEH";"";"Indonesia";"";"4.4761541";"96.860056";"https://maps.google.com/?cid=0x0:0x2241a4213bcb4ee4"
"perumahan";"Komplek perumahan";"Rumah yana";"FR6G+6W2, Dispot Linge, Kec. Linge, Kabupaten Aceh Tengah, Aceh 24563";"Dispot Linge, Kec. Linge, Kabupaten Aceh Tengah";"ACEH";"24563";"Indonesia";"";"4.4607883";"96.8274574";"https://maps.google.com/?cid=0x0:0x5c9e82ede8d0511"
"perumahan";"Komplek perumahan";"Rumah julisa";"FV6M+679, Jl. Takengon - Blangkejeren II, Kute baru, Kec. Linge, Kabupaten Aceh Tengah, Aceh 24563";"Jl. Takengon - Blangkejeren II, Kute baru, Kec. Linge, Kabupaten Aceh Tengah";"ACEH";"24563";"Indonesia";"";"4.4549124";"96.8732997";"https://maps.google.com/?cid=0x0:0x9a57249c43140ba8"
"perumahan";"Komplek perumahan";"Rumah datok";"Rumah datok, Pantan Nangka, Kec. Linge, Kabupaten Aceh Tengah, Aceh";"Kabupaten Aceh Tengah, Aceh";"ACEH";"";"Indonesia";"";"4.4285017";"97.0109028";"https://maps.google.com/?cid=0x0:0xf90a007fe207ceb0"
"perumahan";"Komplek perumahan";"Rumah Noni";"C2H6+8J5, Pantan Nangka, Kec. Linge, Kabupaten Aceh Tengah, Aceh 24563";"Pantan Nangka, Kec. Linge, Kabupaten Aceh Tengah";"ACEH";"24563";"Indonesia";"";"4.4283727";"97.0116199";"https://maps.google.com/?cid=0x0:0x68f1b7ff301da164"
"perumahan";"Komplek perumahan";"Rumah syahlan";"FR5G+VRM, Dispot Linge, Kec. Linge, Kabupaten Aceh Tengah, Aceh 24563";"Dispot Linge, Kec. Linge, Kabupaten Aceh Tengah";"ACEH";"24563";"Indonesia";"";"4.4597107";"96.8270373";"https://maps.google.com/?cid=0x0:0x77a55574fd01344c"
"perumahan";"Pembangunan Perumahan";"Bg banny";"FVG6+4HH, Gelampang Gading, Kec. Linge, Kabupaten Aceh Tengah, Aceh";"Kabupaten Aceh Tengah, Aceh";"ACEH";"";"Indonesia";" 082275906464";"4.4753232";"96.8614863";"https://maps.google.com/?cid=0x0:0x734fc30458306818"
"perumahan";"Perhimpunan Pengembang Perumahan";"Anak";"FXX3+86H, Kemerleng, Kec. Linge, Kabupaten Aceh Tengah, Aceh";"Kabupaten Aceh Tengah, Aceh";"ACEH";"";"Indonesia";"";"4.4983133";"96.9531225";"https://maps.google.com/?cid=0x0:0x4145b0824e2be836"
"perumahan";"Perkebunan Pohon";"Jalan supi perkebunan kopi";"9RQ6+XF, Gemboyah, Kec. Linge, Kabupaten Aceh Tengah, Aceh 24563";"Gemboyah, Kec. Linge, Kabupaten Aceh Tengah";"ACEH";"24563";"Indonesia";"";"4.390373";"96.8120726";"https://maps.google.com/?cid=0x0:0xe48d6f1e3f321313"
"perumahan";"Komplek perumahan";"Rumah Hani";"FR5G+VRM, Dispot Linge, Kec. Linge, Kabupaten Aceh Tengah, Aceh 24563";"Dispot Linge, Kec. Linge, Kabupaten Aceh Tengah";"ACEH";"24563";"Indonesia";"";"4.459707";"96.8270397";"https://maps.google.com/?cid=0x0:0x6ce3a9267a281861"
"perumahan";"perumahan";"Aceh 24561";"Kec. Bies, Kabupaten Aceh Tengah, Aceh";"Kabupaten Aceh Tengah, Aceh";"ACEH";"";"Indonesia";"";"4.6357106";"96.5143087";"https://maps.google.com/?cid=0x0:0x56523b06c23bbd5f"
"perumahan";"Komplek perumahan";"RUMAH HITORI";"HRH8+WMQ, Wih Nareh, Kec. Pegasing, Kabupaten Aceh Tengah, Aceh 24561";"Wih Nareh, Kec. Pegasing, Kabupaten Aceh Tengah";"ACEH";"24561";"Indonesia";"";"4.5798475";"96.8167301";"https://maps.google.com/?cid=0x0:0x8751c3d712b7ada"
"perumahan";"Komplek perumahan";"Rumah nur";"GQ4J+4MP, Jl. Takengon - Blangkejeren II, Jejem, Kec. Pegasing, Kabupaten Aceh Tengah, Aceh 24561";"Jl. Takengon - Blangkejeren II, Jejem, Kec. Pegasing, Kabupaten Aceh Tengah";"ACEH";"24561";"Indonesia";"";"4.5057366";"96.7821475";"https://maps.google.com/?cid=0x0:0x31fab1f92b0adb2c"
"perumahan";"Komplek perumahan";"Rumah pak Ibrahim K";"JP9G+F62, Pepayungen Angkup, Kec. Silih Nara, Kabupaten Aceh Tengah, Aceh 24773";"Pepayungen Angkup, Kec. Silih Nara, Kabupaten Aceh Tengah";"ACEH";"24773";"Indonesia";"";"4.6181232";"96.7256687";"https://maps.google.com/?cid=0x0:0xf8aa048ba638acf"
"perumahan";"Perhimpunan Pengembang Perumahan";"Kutelintang Pegasing";"HRXC+R37, Kute Lintang, Kec. Pegasing, Kabupaten Aceh Tengah, Aceh 24552";"Kute Lintang, Kec. Pegasing, Kabupaten Aceh Tengah";"ACEH";"24552";"Indonesia";" 085370120959";"4.5995281";"96.8201666";"https://maps.google.com/?cid=0x0:0x150195a1c7342586"
"perumahan";"Perhimpunan Pengembang Perumahan";"Idi tunong";"MPWX+3Q2, Blang Mancung Bawah, Kec. Ketol, Kabupaten Aceh Tengah, Aceh";"Kabupaten Aceh Tengah, Aceh";"ACEH";"";"Indonesia";"";"4.695135";"96.7493993";"https://maps.google.com/?cid=0x0:0x2db5bc8b423b7d2b"
"perumahan";"Komplek perumahan";"Gunung pilar weh ilang";"GQ23+H4G, Arul Badak, Kec. Pegasing, Kabupaten Aceh Tengah, Aceh 24561";"Arul Badak, Kec. Pegasing, Kabupaten Aceh Tengah";"ACEH";"24561";"Indonesia";"";"4.5014326";"96.7528417";"https://maps.google.com/?cid=0x0:0xdc04284fb52d5866"
"perumahan";"Pembangunan Perumahan";"rumah bunge";"JP9F+WW4, Jl. Takengon - Angkup, Pepayungen Angkup, Kec. Silih Nara, Kabupaten Aceh Tengah, Aceh";"Kabupaten Aceh Tengah, Aceh";"ACEH";"";"Indonesia";"";"4.6197722";"96.7248353";"https://maps.google.com/?cid=0x0:0x850f8b53db73dc18"
"perumahan";"Perhimpunan Pengembang Perumahan";"Pantan tengah";"JHR6+5W8, Pantan Tengah, Kec. Rusip Antara, Kabupaten Aceh Tengah, Aceh 24561";"Pantan Tengah, Kec. Rusip Antara, Kabupaten Aceh Tengah";"ACEH";"24561";"Indonesia";"";"4.640402";"96.5623251";"https://maps.google.com/?cid=0x0:0x4b7a22859dcf63e7"
"perumahan";"Pembangunan Perumahan";"-Zalbento zepres-";"GP5F+7M4, Arul Badak, Kec. Pegasing, Kabupaten Aceh Tengah, Aceh";"Kabupaten Aceh Tengah, Aceh";"ACEH";"";"Indonesia";"";"4.5081392";"96.7241988";"https://maps.google.com/?cid=0x0:0xc439afeb80d6fd22"
"perumahan";"Komplek perumahan";"P.sugeng bin Pujiono";"JPH3+FQX, Jl. Takengon - Beutong Ateuh, Genting Gerbang, Kec. Silih Nara, Kabupaten Aceh Tengah, Aceh 24552";"Jl. Takengon - Beutong Ateuh, Genting Gerbang, Kec. Silih Nara, Kabupaten Aceh Tengah";"ACEH";"24552";"Indonesia";"";"4.6287362";"96.7044689";"https://maps.google.com/?cid=0x0:0xc94fecbd553d7f79"
"perumahan";"Perumahan rakyat";"Rumah Fathur";"JPQJ+MH6, Arul Kumer Bar., Kec. Silih Nara, Kabupaten Aceh Tengah, Aceh";"Kabupaten Aceh Tengah, Aceh";"ACEH";"";"Indonesia";"";"4.6394272";"96.7315349";"https://maps.google.com/?cid=0x0:0x9641be0e4991a99e"
"perumahan";"Komplek perumahan";"Rumah gua";"JPG2+VQW, Genting Gerbang, Kec. Silih Nara, Kabupaten Aceh Tengah, Aceh 24552";"Genting Gerbang, Kec. Silih Nara, Kabupaten Aceh Tengah";"ACEH";"24552";"Indonesia";"";"4.6271635";"96.7018902";"https://maps.google.com/?cid=0x0:0x59b95b75ab26ef57"
"perumahan";"Komplek perumahan";"Ariga Boceng";"HPJ2+9JH, Ramung Ara, Kec. Celala, Kabupaten Aceh Tengah, Aceh 24477";"Ramung Ara, Kec. Celala, Kabupaten Aceh Tengah";"ACEH";"24477";"Indonesia";"";"4.5809414";"96.7016172";"https://maps.google.com/?cid=0x0:0x45839800273e58bf"
"perumahan";"perumahan";"Kec. Rusip Antara";"Kabupaten Aceh Tengah, Aceh";"Kabupaten Aceh Tengah, Aceh";"ACEH";"";"Indonesia";"";"4.7473709";"96.4536555";"https://maps.google.com/?cid=0x0:0x8dc34f971c061ad6"
"perumahan";"Kantor Pemerintah";"DESA KERAWANG, KEC. RUSIP ANTARA";"JJG4+F87, Pilar, Kec. Rusip Antara, Kabupaten Aceh Tengah, Aceh 24773";"Pilar, Kec. Rusip Antara, Kabupaten Aceh Tengah";"ACEH";"24773";"Indonesia";"";"4.626443";"96.6060133";"https://maps.google.com/?cid=0x0:0x7be351fe2af6e3f8"
"perumahan";"Kantor Pemerintah";"Lut Jaya";"PCVX+QX7, Unnamed Road, Tanjung, Kec. Rusip Antara, Kabupaten Aceh Tengah, Aceh 24183";"Unnamed Road, Tanjung, Kec. Rusip Antara, Kabupaten Aceh Tengah";"ACEH";"24183";"Indonesia";"";"4.7444149";"96.4499301";"https://maps.google.com/?cid=0x0:0x5c0424bf1cd34cb0"
"perumahan";"Perumahan";"DESA KOLAM IJO, KEC. RUSIP ANTARA";"JJF9+9R, Pilar, Kec. Rusip Antara, Kabupaten Aceh Tengah, Aceh";"Kabupaten Aceh Tengah, Aceh";"ACEH";"";"Indonesia";"";"4.6233832";"96.6195074";"https://maps.google.com/?cid=0x0:0x7365461e3bd9e541"
"perumahan";"Perhimpunan Pengembang Perumahan";"Rumoeh blang";"PCWW+FF, Tanjung, Kec. Rusip Antara, Kabupaten Aceh Tengah, Aceh 24183";"Tanjung, Kec. Rusip Antara, Kabupaten Aceh Tengah";"ACEH";"24183";"Indonesia";"";"4.7461631";"96.4462277";"https://maps.google.com/?cid=0x0:0xe2715e7624e42baf"
"perumahan";"Komplek perumahan";"Rumah kadus";"QC2P+RFV, Paya Tampu, Kec. Rusip Antara, Kabupaten Aceh Tengah, Aceh";"Kabupaten Aceh Tengah, Aceh";"ACEH";"";"Indonesia";"";"4.7521139";"96.4361607";"https://maps.google.com/?cid=0x0:0xbb3d57ffe1653f15"
"perumahan";"Pembangunan Perumahan";"Rumah riduan";"JHR6+5W8, Pantan Tengah, Kec. Rusip Antara, Kabupaten Aceh Tengah, Aceh";"Kabupaten Aceh Tengah, Aceh";"ACEH";"";"Indonesia";"";"4.640402";"96.5623251";"https://maps.google.com/?cid=0x0:0x89550e390058574"
"perumahan";"Komplek perumahan";"Rumah Jefri andrean";"HJXR+VHP, Pilar Wih Kiri, Kec. Rusip Antara, Kabupaten Aceh Tengah, Aceh 24552";"Pilar Wih Kiri, Kec. Rusip Antara, Kabupaten Aceh Tengah";"ACEH";"24552";"Indonesia";"";"4.5996991";"96.6411837";"https://maps.google.com/?cid=0x0:0xba4af12a7c9a7a4e"
"perumahan";"Komplek perumahan";"Rumah ortu";"JJFW+9R9, Kebun murni, Kec. Rusip Antara, Kabupaten Aceh Tengah, Aceh";"Kabupaten Aceh Tengah, Aceh";"ACEH";"";"Indonesia";"";"4.6234065";"96.6471035";"https://maps.google.com/?cid=0x0:0xaf29c02d3ed394f9"
"perumahan";"Komplek perumahan";"Rumah Bakri te";"JJVM+86W, Rusip, Kec. Rusip Antara, Kabupaten Aceh Tengah, Aceh";"Kabupaten Aceh Tengah, Aceh";"ACEH";"";"Indonesia";"";"4.6433684";"96.6330808";"https://maps.google.com/?cid=0x0:0x15b6faa545db06fe"
"perumahan";"Komplek perumahan";"Rumah Juandi M(Andi)";"HJWR+RH, Pilar Wih Kiri, Kec. Rusip Antara, Kabupaten Aceh Tengah, Aceh";"Kabupaten Aceh Tengah, Aceh";"ACEH";"";"Indonesia";" 082267810158";"4.5970212";"96.641469";"https://maps.google.com/?cid=0x0:0x898ec8fae449251a"
"perumahan";"Komplek perumahan";"Amar Olshop";"JJ4G+JJ, Rusip, Kec. Rusip Antara, Kabupaten Aceh Tengah, Aceh 24552";"Rusip, Kec. Rusip Antara, Kabupaten Aceh Tengah";"ACEH";"24552";"Indonesia";"";"4.6061507";"96.6260396";"https://maps.google.com/?cid=0x0:0x7549960ffd50a4b1"
"perumahan";"Perumahan";"Kampung Mekar Maju";"JJPQ+XH7, Pantan Bener, Kec. Rusip Antara, Kabupaten Aceh Tengah, Aceh";"Kabupaten Aceh Tengah, Aceh";"ACEH";"";"Indonesia";"";"4.6374163";"96.6389288";"https://maps.google.com/?cid=0x0:0xf54d1b1b6b05a3c7"
"perumahan";"Pembangunan Perumahan";"Lorong weh osop";"MHCH+4PW, Jl. Silh Nara - Rusip Anatara, Arul Pertik, Kec. Rusip Antara, Kabupaten Aceh Tengah, Aceh 24561";"Jl. Silh Nara - Rusip Anatara, Arul Pertik, Kec. Rusip Antara, Kabupaten Aceh Tengah";"ACEH";"24561";"Indonesia";"";"4.6703564";"96.5793246";"https://maps.google.com/?cid=0x0:0x4d0af06de0879f01"
"perumahan";"perumahan";"Kec. Silih Nara";"Kabupaten Aceh Tengah, Aceh";"Kabupaten Aceh Tengah, Aceh";"ACEH";"";"Indonesia";"";"4.6417568";"96.7325032";"https://maps.google.com/?cid=0x0:0xba6d4d84a00888d5"
"perumahan";"Komplek perumahan";"Kp nangka kol kec silih Nara kab Aceh Tengah";"MP6X+56M, Tenebuk Kp. Baru, Kec. Silih Nara, Kabupaten Aceh Tengah, Aceh 24568";"Tenebuk Kp. Baru, Kec. Silih Nara, Kabupaten Aceh Tengah";"ACEH";"24568";"Indonesia";"";"4.6604747";"96.7480611";"https://maps.google.com/?cid=0x0:0x60e8a97bc1e0ee71"
"perumahan";"Pembangunan Perumahan";"Rumah PAK SUGENG";"JP5V+C46, Jl. Takengon - Angkup, Burni Bius Baru, Kec. Silih Nara, Kabupaten Aceh Tengah, Aceh 24568";"Jl. Takengon - Angkup, Burni Bius Baru, Kec. Silih Nara, Kabupaten Aceh Tengah";"ACEH";"24568";"Indonesia";"";"4.6086515";"96.742528";"https://maps.google.com/?cid=0x0:0xdd4d6f56263b86e4"
"perumahan";"Komplek perumahan";"Tps";"JP5V+C46, Jl. Takengon - Angkup, Burni Bius Baru, Kec. Silih Nara, Kabupaten Aceh Tengah, Aceh 24568";"Jl. Takengon - Angkup, Burni Bius Baru, Kec. Silih Nara, Kabupaten Aceh Tengah";"ACEH";"24568";"Indonesia";"";"4.6080027";"96.7419897";"https://maps.google.com/?cid=0x0:0xd42039677730dfb5"
"perumahan";"Komplek perumahan";"Rumah maulida";"JPQP+J9P, Jl. Gn. Singit, Arul Kumer Sel., Kec. Silih Nara, Kabupaten Aceh Tengah, Aceh 24568";"Jl. Gn. Singit, Arul Kumer Sel., Kec. Silih Nara, Kabupaten Aceh Tengah";"ACEH";"24568";"Indonesia";"";"4.6390415";"96.735897";"https://maps.google.com/?cid=0x0:0x39f7eb78b50eee52"
"perumahan";"Komplek perumahan";"Rumah pasdi";"JPVJ+2M4, Arul Kumer Sel., Kec. Silih Nara, Kabupaten Aceh Tengah, Aceh 24568";"Arul Kumer Sel., Kec. Silih Nara, Kabupaten Aceh Tengah";"ACEH";"24568";"Indonesia";"";"4.6431846";"96.7321807";"https://maps.google.com/?cid=0x0:0xe202eec0044d27ac"
"perumahan";"Perumahan rakyat";"Rumah Fathur";"JPQJ+MH6, Arul Kumer Bar., Kec. Silih Nara, Kabupaten Aceh Tengah, Aceh";"Kabupaten Aceh Tengah, Aceh";"ACEH";"";"Indonesia";"";"4.6394272";"96.7315349";"https://maps.google.com/?cid=0x0:0x9641be0e4991a99e"
"perumahan";"Komplek perumahan";"Rumah pak Ibrahim K";"JP9G+F62, Pepayungen Angkup, Kec. Silih Nara, Kabupaten Aceh Tengah, Aceh 24773";"Pepayungen Angkup, Kec. Silih Nara, Kabupaten Aceh Tengah";"ACEH";"24773";"Indonesia";"";"4.6181232";"96.7256687";"https://maps.google.com/?cid=0x0:0xf8aa048ba638acf"
"perumahan";"Komplek perumahan";"Rumah inen Ira";"MQ84+CH, Reremal, Kec. Silih Nara, Kabupaten Aceh Tengah, Aceh";"Kabupaten Aceh Tengah, Aceh";"ACEH";"";"Indonesia";"";"4.6661359";"96.7565";"https://maps.google.com/?cid=0x0:0xcc1fe017c2899433"
"perumahan";"Komplek perumahan";"Rumah sa'dul";"HPXM+38W, Paya Beke, Kec. Silih Nara, Kabupaten Aceh Tengah, Aceh 24561";"Paya Beke, Kec. Silih Nara, Kabupaten Aceh Tengah";"ACEH";"24561";"Indonesia";"";"4.5977449";"96.733343";"https://maps.google.com/?cid=0x0:0xac000208f47863b1"
"perumahan";"Gedung Apartemen";"Rumah";"JPJG+RWX, Simpang Kemili, Kec. Silih Nara, Kabupaten Aceh Tengah, Aceh";"Kabupaten Aceh Tengah, Aceh";"ACEH";"";"Indonesia";"";"4.6321243";"96.7273447";"https://maps.google.com/?cid=0x0:0x387782452e55ab01"
"perumahan";"Komplek perumahan";"Rumah gua";"JPG2+VQW, Genting Gerbang, Kec. Silih Nara, Kabupaten Aceh Tengah, Aceh 24552";"Genting Gerbang, Kec. Silih Nara, Kabupaten Aceh Tengah";"ACEH";"24552";"Indonesia";"";"4.6271635";"96.7018902";"https://maps.google.com/?cid=0x0:0x59b95b75ab26ef57"
"perumahan";"Komplek perumahan";"rumah nico";"JPPJ+Q7Q, Arul Kumer Bar., Kec. Silih Nara, Kabupaten Aceh Tengah, Aceh";"Kabupaten Aceh Tengah, Aceh";"ACEH";"";"Indonesia";"";"4.6369657";"96.7307229";"https://maps.google.com/?cid=0x0:0x1c6805555f0942f7"
"perumahan";"Komplek perumahan";"Lorong suka maju";"JP4W+W9G, Burni Bius, Kec. Silih Nara, Kabupaten Aceh Tengah, Aceh 24568";"Burni Bius, Kec. Silih Nara, Kabupaten Aceh Tengah";"ACEH";"24568";"Indonesia";"";"4.6073003";"96.7459581";"https://maps.google.com/?cid=0x0:0x8f7443bcd45c31fd"
"housing complex";"housing complex";"Kec. Atu Lintang";"Kabupaten Aceh Tengah, Aceh";"Kabupaten Aceh Tengah, Aceh";"ACEH";"";"Indonesia";"";"4.4471548";"96.7737666";"https://maps.google.com/?cid=0x0:0x628bebcc216373e8"
"housing complex";"Komplek perumahan";"RUMAH FAHRU";"CRV5+M8W, Tanoh Abu, Kec. Atu Lintang, Kabupaten Aceh Tengah, Aceh 24563";"Tanoh Abu, Kec. Atu Lintang, Kabupaten Aceh Tengah";"ACEH";"24563";"Indonesia";"";"4.4442483";"96.808335";"https://maps.google.com/?cid=0x0:0x163a3a0953b0a77e"
"housing complex";"Komplek perumahan";"I LOVE ATULINTANG";"FQ6Q+Q2V, Merah Mege, Kec. Atu Lintang, Kabupaten Aceh Tengah, Aceh";"Kabupaten Aceh Tengah, Aceh";"ACEH";"";"Indonesia";"";"4.4619897";"96.7875391";"https://maps.google.com/?cid=0x0:0xce33a665c72dbc7e"
"housing complex";"Komplek perumahan";"rumah saroah";"FR58+F64, Merah Jernang, Kec. Atu Lintang, Kabupaten Aceh Tengah, Aceh 24563";"Merah Jernang, Kec. Atu Lintang, Kabupaten Aceh Tengah";"ACEH";"24563";"Indonesia";"";"4.4586375";"96.8155781";"https://maps.google.com/?cid=0x0:0x8426baaeb20b3b61"
"housing complex";"Komplek perumahan";"Rumah Alfian";"CQ4H+V3H, Merah Muyang, Kec. Atu Lintang, Kabupaten Aceh Tengah, Aceh 24563";"Merah Muyang, Kec. Atu Lintang, Kabupaten Aceh Tengah";"ACEH";"24563";"Indonesia";"";"4.4083835";"96.7788447";"https://maps.google.com/?cid=0x0:0xac291c79bd5fcb92"
"housing complex";"Komplek perumahan";"RUMAH EDYTIA MAHARA";"FQ4V+853, Bintang Kekelip, Kec. Atu Lintang, Kabupaten Aceh Tengah, Aceh 24563";"Bintang Kekelip, Kec. Atu Lintang, Kabupaten Aceh Tengah";"ACEH";"24563";"Indonesia";"";"4.4557596";"96.7929228";"https://maps.google.com/?cid=0x0:0x122783bbdfa0ea5e"
"housing complex";"Kantor Pemerintahan Regional";"Balai pertemuan";"FR25+R79, Tanoh Abu, Kec. Atu Lintang, Kabupaten Aceh Tengah, Aceh 24563";"Tanoh Abu, Kec. Atu Lintang, Kabupaten Aceh Tengah";"ACEH";"24563";"Indonesia";"";"4.4523412";"96.8083273";"https://maps.google.com/?cid=0x0:0xf4fdae458a9ce008"
"housing complex";"Komplek perumahan";"Ozy";"CRX5+688, Tanoh Abu, Kec. Atu Lintang, Kabupaten Aceh Tengah, Aceh 24563";"Tanoh Abu, Kec. Atu Lintang, Kabupaten Aceh Tengah";"ACEH";"24563";"Indonesia";"";"4.4480349";"96.8083226";"https://maps.google.com/?cid=0x0:0xda3cab5d7b61172e"
"housing complex";"Komplek perumahan";"Lorong melati";"CQWF+VG6, Atu Lintang, Kec. Atu Lintang, Kabupaten Aceh Tengah, Aceh";"Kabupaten Aceh Tengah, Aceh";"ACEH";"";"Indonesia";"";"4.4471548";"96.7737666";"https://maps.google.com/?cid=0x0:0x6f975932d2ff243a"
"housing complex";"Komplek perumahan";"Naa home";"FR59+4FP, Merah Jernang, Kec. Atu Lintang, Kabupaten Aceh Tengah, Aceh 24563";"Merah Jernang, Kec. Atu Lintang, Kabupaten Aceh Tengah";"ACEH";"24563";"Indonesia";"";"4.4578398";"96.8187116";"https://maps.google.com/?cid=0x0:0xf28c8757c89ad400"
"housing complex";"Komplek perumahan";"Indri";"CQXW+V87, Bintang Kekelip, Kec. Atu Lintang, Kabupaten Aceh Tengah, Aceh 24563";"Bintang Kekelip, Kec. Atu Lintang, Kabupaten Aceh Tengah";"ACEH";"24563";"Indonesia";"";"4.4496743";"96.7958097";"https://maps.google.com/?cid=0x0:0xbf703e5c759b821b"
"housing complex";"Komplek perumahan";"Rumah Sukiran";"FR33+9WH, Tanoh Abu, Kec. Atu Lintang, Kabupaten Aceh Tengah, Aceh 24563";"Tanoh Abu, Kec. Atu Lintang, Kabupaten Aceh Tengah";"ACEH";"24563";"Indonesia";"";"4.4524324";"96.8047378";"https://maps.google.com/?cid=0x0:0x578c2346318c20e7"
"housing complex";"Komplek perumahan";"Lorong anggrek";"CQPF+R76, Jl. Takengon - Blangkejeren II, Atu Lintang, Kec. Atu Lintang, Kabupaten Aceh Tengah, Aceh 24563";"Jl. Takengon - Blangkejeren II, Atu Lintang, Kec. Atu Lintang, Kabupaten Aceh Tengah";"ACEH";"24563";"Indonesia";"";"4.4370356";"96.7731334";"https://maps.google.com/?cid=0x0:0xb04dce24a8d85f40"
"housing complex";"Komplek perumahan";"Rumah manggo";"CRX5+F2F, Tanoh Abu, Kec. Atu Lintang, Kabupaten Aceh Tengah, Aceh 24563";"Tanoh Abu, Kec. Atu Lintang, Kabupaten Aceh Tengah";"ACEH";"24563";"Indonesia";"";"4.4486867";"96.8075427";"https://maps.google.com/?cid=0x0:0x6348bd414b86ac8e"
"housing complex";"housing complex";"Kec. Bebesen";"Kabupaten Aceh Tengah, Aceh";"Kabupaten Aceh Tengah, Aceh";"ACEH";"";"Indonesia";"";"4.6302813";"96.8522896";"https://maps.google.com/?cid=0x0:0xee869ea2be8289e9"
"housing complex";"Komplek perumahan";"Base";"JRVQ+V6C, Mongal, Kec. Bebesen, Kabupaten Aceh Tengah, Aceh 24471";"Mongal, Kec. Bebesen, Kabupaten Aceh Tengah";"ACEH";"24471";"Indonesia";"";"4.6447726";"96.8380122";"https://maps.google.com/?cid=0x0:0x8573425590ce137e"
"housing complex";"Komplek perumahan";"Rumah sewa UD khaila";"Jl. Empus Talu No.1, Bebesen, Kec. Bebesen, Kabupaten Aceh Tengah, Aceh 24552";"Bebesen, Kec. Bebesen, Kabupaten Aceh Tengah";"ACEH";"24552";"Indonesia";"";"4.6332068";"96.8393648";"https://maps.google.com/?cid=0x0:0x45b45bb89d670d93"
"housing complex";"Komplek perumahan";"Rumah Putrairwansyah Aman Hilya";"JRPQ+QW, Bebesen, Kec. Bebesen, Kabupaten Aceh Tengah, Aceh 24471";"Bebesen, Kec. Bebesen, Kabupaten Aceh Tengah";"ACEH";"24471";"Indonesia";"";"4.6380995";"96.8390214";"https://maps.google.com/?cid=0x0:0x6656023c0efda7ac"
"housing complex";"Komplek perumahan";"Rumah Khalif";"Jalan gelengang Jl. 1001, Kemili, Kec. Bebesen, Kabupaten Aceh Tengah, Aceh 24519";"Kemili, Kec. Bebesen, Kabupaten Aceh Tengah";"ACEH";"24519";"Indonesia";"";"4.6308836";"96.8478436";"https://maps.google.com/?cid=0x0:0x537887249c66893f"
"housing complex";"Pembangunan Perumahan";"Desa petor";"JRMQ+M7M, Jl. Empus Talu, Bebesen, Kec. Bebesen, Kabupaten Aceh Tengah, Aceh 24471";"Jl. Empus Talu, Bebesen, Kec. Bebesen, Kabupaten Aceh Tengah";"ACEH";"24471";"Indonesia";"";"4.6342158";"96.8381828";"https://maps.google.com/?cid=0x0:0x5f14a85f3da73e83"
"housing complex";"Komplek perumahan";"Rumah Buge";"JR8V+G9H, Asir Asir, Kec. Lut Tawar, Kabupaten Aceh Tengah, Aceh 24519";"Asir Asir, Kec. Lut Tawar, Kabupaten Aceh Tengah";"ACEH";"24519";"Indonesia";"";"4.615506";"96.843992";"https://maps.google.com/?cid=0x0:0x85d67ca10c9ff513"
"housing complex";"Komplek perumahan";"RUMAH RACUN";"JRG4+F5W, Atu Tulu, Kec. Bebesen, Kabupaten Aceh Tengah, Aceh 24471";"Atu Tulu, Kec. Bebesen, Kabupaten Aceh Tengah";"ACEH";"24471";"Indonesia";"";"4.6262385";"96.807278";"https://maps.google.com/?cid=0x0:0xbeac74f8cef653ab"
"housing complex";"Perhimpunan Pengembang Perumahan";"Rumah khalija";"Simpang Empat, Kec. Bebesen, Kabupaten Aceh Tengah, Aceh";"Kabupaten Aceh Tengah, Aceh";"ACEH";"";"Indonesia";"";"4.6361319";"96.8446119";"https://maps.google.com/?cid=0x0:0x6b76215c9434b5f"
"housing complex";"Agen Persewaan Rumah Peristirahatan";"Rumah Sewa 555 Property";"Jl. Dolog No.51 G, Blang Kolak II, Kec. Bebesen, Kabupaten Aceh Tengah, Aceh 24552";"Blang Kolak II, Kec. Bebesen, Kabupaten Aceh Tengah";"ACEH";"24552";"Indonesia";" 081265580555";"4.6216824";"96.8397594";"https://maps.google.com/?cid=0x0:0x65bfce26e3bbbf3b"
"housing complex";"housing complex";"Rumah Inen Khansa";"JRRG+HMH, Tensaren, Kec. Bebesen, Kabupaten Aceh Tengah, Aceh 24471";"Tensaren, Kec. Bebesen, Kabupaten Aceh Tengah";"ACEH";"24471";"Indonesia";"";"4.6414278";"96.826721";"https://maps.google.com/?cid=0x0:0xa6baa2406d9ed94e"
"housing complex";"Komplek perumahan";"Rumah Nabila";"JRM4+3XR, Blang Gele, Kec. Bebesen, Kabupaten Aceh Tengah, Aceh 24471";"Blang Gele, Kec. Bebesen, Kabupaten Aceh Tengah";"ACEH";"24471";"Indonesia";"";"4.6321866";"96.8079698";"https://maps.google.com/?cid=0x0:0xfa4eb91c43c6d701"
"housing complex";"housing complex";"Rumah asri";"JRG4+F5W, Atu Tulu, Kec. Bebesen, Kabupaten Aceh Tengah, Aceh 24471";"Atu Tulu, Kec. Bebesen, Kabupaten Aceh Tengah";"ACEH";"24471";"Indonesia";"";"4.6262094";"96.8072803";"https://maps.google.com/?cid=0x0:0xf004aa25f1ce313b"
"housing complex";"Komplek perumahan";"Rumah qu";"JVJ2+F52, Kemili, Kec. Bebesen, Kabupaten Aceh Tengah, Aceh 24519";"Kemili, Kec. Bebesen, Kabupaten Aceh Tengah";"ACEH";"24519";"Indonesia";"";"4.6311288";"96.8503775";"https://maps.google.com/?cid=0x0:0xc29ecaef0a4ac9c0"
"housing complex";"housing complex";"Kec. Bies";"Kabupaten Aceh Tengah, Aceh";"Kabupaten Aceh Tengah, Aceh";"ACEH";"";"Indonesia";"";"4.6053524";"96.7887047";"https://maps.google.com/?cid=0x0:0x7a713d24d00a3f00"
"housing complex";"Pembangunan Perumahan";"HOME";"Bies Penentanan, Kec. Bies, Kabupaten Aceh Tengah, Aceh";"Kabupaten Aceh Tengah, Aceh";"ACEH";"";"Indonesia";"";"4.6156681";"96.8037182";"https://maps.google.com/?cid=0x0:0xf2de0379d87e876b"
"housing complex";"Komplek perumahan";"Event";"JQ6W+J8R, Arul Latong, Kec. Bies, Kabupaten Aceh Tengah, Aceh 24552";"Arul Latong, Kec. Bies, Kabupaten Aceh Tengah";"ACEH";"24552";"Indonesia";"";"4.6116205";"96.7957583";"https://maps.google.com/?cid=0x0:0x2a863ef7c29a1d51"
"housing complex";"Pembangunan Perumahan";"Perumahan";"JQ8V+HC8, Bies Mulie, Kec. Bies, Kabupaten Aceh Tengah, Aceh";"Kabupaten Aceh Tengah, Aceh";"ACEH";"";"Indonesia";"";"4.6164102";"96.7935745";"https://maps.google.com/?cid=0x0:0x54744845166d4044"
"housing complex";"Komplek perumahan";"Rumah wagianto";"JQFV+7QW, Bies Penentanan, Kec. Bies, Kabupaten Aceh Tengah, Aceh 24471";"Bies Penentanan, Kec. Bies, Kabupaten Aceh Tengah";"ACEH";"24471";"Indonesia";"";"4.6232341";"96.7954891";"https://maps.google.com/?cid=0x0:0xf64baa044f6d2200"
"housing complex";"Perhimpunan Pengembang Perumahan";"Bies Mulie";"JR73+9GF, Jl. Atang Jungket, Arul Latong, Kec. Bies, Kabupaten Aceh Tengah, Aceh 24552";"Jl. Atang Jungket, Arul Latong, Kec. Bies, Kabupaten Aceh Tengah";"ACEH";"24552";"Indonesia";"";"4.6134428";"96.8038091";"https://maps.google.com/?cid=0x0:0xf277ead323c764b8"
"housing complex";"Komplek perumahan";"Feri Iswandana";"JR83+MQP, Bies Penentanan, Kec. Bies, Kabupaten Aceh Tengah, Aceh";"Kabupaten Aceh Tengah, Aceh";"ACEH";"";"Indonesia";"";"4.6167003";"96.8044654";"https://maps.google.com/?cid=0x0:0xc7a4af0ce9324bd1"
"housing complex";"Komplek perumahan";"Jumali house pd";"JQ2F+F6P, Pucuk Deku, Kec. Bies, Kabupaten Aceh Tengah, Aceh 24552";"Pucuk Deku, Kec. Bies, Kabupaten Aceh Tengah";"ACEH";"24552";"Indonesia";"";"4.6012075";"96.7730652";"https://maps.google.com/?cid=0x0:0x12968d346f72cfcc"
"housing complex";"Tujuan Wisata";"Perumahan Mess PLTA Peusangan";"JQ45+79V, Wih Porak, Kec. Silih Nara, Kabupaten Aceh Tengah, Aceh 24568";"Wih Porak, Kec. Silih Nara, Kabupaten Aceh Tengah";"ACEH";"24568";"Indonesia";"";"4.6057405";"96.7584145";"https://maps.google.com/?cid=0x0:0x5b82fff1e010dfea"
"housing complex";"Komplek perumahan";"Rumah soni";"JQ4Q+25V, Tebes Lues, Kec. Bies, Kabupaten Aceh Tengah, Aceh 24552";"Tebes Lues, Kec. Bies, Kabupaten Aceh Tengah";"ACEH";"24552";"Indonesia";"";"4.6051046";"96.7879284";"https://maps.google.com/?cid=0x0:0x9d6ac2a262073fb1"
"housing complex";"Komplek perumahan";"Pochingki";"JQ6W+J8R, Arul Latong, Kec. Bies, Kabupaten Aceh Tengah, Aceh 24552";"Arul Latong, Kec. Bies, Kabupaten Aceh Tengah";"ACEH";"24552";"Indonesia";"";"4.61162";"96.7957632";"https://maps.google.com/?cid=0x0:0xa8c3d55d148f805"
"housing complex";"housing complex";"RUMAH ZIKRI MAULANA FITRA";"JQ3P+XMM, Tebes Lues, Kec. Bies, Kabupaten Aceh Tengah, Aceh 24552";"Tebes Lues, Kec. Bies, Kabupaten Aceh Tengah";"ACEH";"24552";"Indonesia";"";"4.6049692";"96.7873363";"https://maps.google.com/?cid=0x0:0x52aad93981ae2913"
"housing complex";"Taman";"Lorong mawar";"JQGQ+5RF, Bies Penentanan, Kec. Bies, Kabupaten Aceh Tengah, Aceh";"Kabupaten Aceh Tengah, Aceh";"ACEH";"";"Indonesia";"";"4.6254278";"96.7895574";"https://maps.google.com/?cid=0x0:0x56caf7721c97f6c8"
"housing complex";"Komplek perumahan";"rumah febriyanda";"JR64+FQ8, Sp Uning Niken, Kec. Bies, Kabupaten Aceh Tengah, Aceh";"Kabupaten Aceh Tengah, Aceh";"ACEH";"";"Indonesia";" 082363126613";"4.6111519";"96.8069669";"https://maps.google.com/?cid=0x0:0xe6e1381f158dfb78"
"housing complex";"housing complex";"Aceh 24571";"Aceh";"Aceh";"ACEH";"";"Indonesia";"";"4.507827";"97.0283383";"https://maps.google.com/?cid=0x0:0x77a6c4861552772a"
"housing complex";"Inspektur Tempat Tinggal";"Aceh tengah";"H285+QR, Linung Bulen I, Kec. Bintang, Kabupaten Aceh Tengah, Aceh";"Kabupaten Aceh Tengah, Aceh";"ACEH";"";"Indonesia";"";"4.5668987";"97.0095263";"https://maps.google.com/?cid=0x0:0x28f156f1add0477d"
"housing complex";"Komplek perumahan";"Villa Yan";"JX99+WG, Gegarang, Kec. Bintang, Kabupaten Aceh Tengah, Aceh 24582";"Gegarang, Kec. Bintang, Kabupaten Aceh Tengah";"ACEH";"24582";"Indonesia";"";"4.6196192";"96.969188";"https://maps.google.com/?cid=0x0:0x5dd534a99fb8732d"
"housing complex";"Komplek perumahan";"Rumah Afrida";"H2M3+G78, Linung Bulen I, Kec. Bintang, Kabupaten Aceh Tengah, Aceh 24571";"Linung Bulen I, Kec. Bintang, Kabupaten Aceh Tengah";"ACEH";"24571";"Indonesia";"";"4.5840508";"97.0030214";"https://maps.google.com/?cid=0x0:0x19a6a63910bcff1d"
"housing complex";"Kantor Pemerintah";"Merodot";"JX2V+HPJ, Merodot, Kec. Bintang, Kabupaten Aceh Tengah, Aceh 24582";"Merodot, Kec. Bintang, Kabupaten Aceh Tengah";"ACEH";"24582";"Indonesia";"";"4.6014658";"96.9942625";"https://maps.google.com/?cid=0x0:0xc75f3c3213ffad35"
"housing complex";"Komplek perumahan";"Shahara";"H2Q6+7J, Dedamar, Kec. Bintang, Kabupaten Aceh Tengah, Aceh";"Kabupaten Aceh Tengah, Aceh";"ACEH";"";"Indonesia";"";"4.588223";"97.011557";"https://maps.google.com/?cid=0x0:0x32b11ab8935e8684"
"housing complex";"housing complex";"Rumah";"JWJW+3WG, Kelitu, Kec. Bintang, Kabupaten Aceh Tengah, Aceh";"Kabupaten Aceh Tengah, Aceh";"ACEH";"";"Indonesia";"";"4.6301997";"96.9471877";"https://maps.google.com/?cid=0x0:0x7e863858dc4bb172"
"housing complex";"Perhimpunan Pengembang Perumahan";"Hamdan Bintang";"MR2M+525, Paya Tumpi, Kec. Kebayakan, Kabupaten Aceh Tengah, Aceh 24471";"Paya Tumpi, Kec. Kebayakan, Kabupaten Aceh Tengah";"ACEH";"24471";"Indonesia";"";"4.6503994";"96.8326183";"https://maps.google.com/?cid=0x0:0xced13cf5a99d70f6"
"housing complex";"Komplek perumahan";"Bp sumadi";"G4JJ+X67, Atu Payung, Kec. Bintang, Kabupaten Aceh Tengah, Aceh";"Kabupaten Aceh Tengah, Aceh";"ACEH";"";"Indonesia";"";"4.5324223";"97.1305536";"https://maps.google.com/?cid=0x0:0x14f621132f26fa17"
"housing complex";"Komplek perumahan";"Shahara Arjun";"H2Q5+62C, Gelepulo, Kec. Bintang, Kabupaten Aceh Tengah, Aceh 24582";"Gelepulo, Kec. Bintang, Kabupaten Aceh Tengah";"ACEH";"24582";"Indonesia";"";"4.5880578";"97.0075111";"https://maps.google.com/?cid=0x0:0xccc448d402977ee6"
"housing complex";"Komplek perumahan";"Dusun Empres";"HXHC+XJ8, Mengaya, Kec. Bintang, Kabupaten Aceh Tengah, Aceh";"Kabupaten Aceh Tengah, Aceh";"ACEH";"";"Indonesia";"";"4.5792126";"96.9711275";"https://maps.google.com/?cid=0x0:0x1342a63fbde78e90"
"housing complex";"Pembangunan Perumahan";"jonkenedi";"F4V9+849, Atu Payung, Kec. Bintang, Kabupaten Aceh Tengah, Aceh";"Kabupaten Aceh Tengah, Aceh";"ACEH";"";"Indonesia";"";"4.4936357";"97.1185549";"https://maps.google.com/?cid=0x0:0xd352dd4909a779f7"
"housing complex";"Komplek perumahan";"Datu Bedu";"HWV8+CP8, Jl. Takengon - Bintang, Rawe, Kec. Lut Tawar, Kabupaten Aceh Tengah, Aceh";"Kabupaten Aceh Tengah, Aceh";"ACEH";"";"Indonesia";"";"4.5939562";"96.9172833";"https://maps.google.com/?cid=0x0:0x6a279e090fce05fe"
"housing complex";"Balai Pertemuan Desa";"Kantor Desa";"H2M9+F7G, Dedamar, Kec. Bintang, Kabupaten Aceh Tengah, Aceh 24582";"Dedamar, Kec. Bintang, Kabupaten Aceh Tengah";"ACEH";"24582";"Indonesia";"";"4.5838373";"97.0180009";"https://maps.google.com/?cid=0x0:0xe3850bd17ea4970d"
"housing complex";"housing complex";"Aceh 24562";"Kabupaten Aceh Tenggara, Aceh";"Kabupaten Aceh Tenggara, Aceh";"ACEH";"";"Indonesia";"";"3.5579154";"97.8395151";"https://maps.google.com/?cid=0x0:0xb30973a1a0ff7eb2"
"housing complex";"housing complex";"Kec. Celala";"Kabupaten Aceh Tengah, Aceh";"Kabupaten Aceh Tengah, Aceh";"ACEH";"";"Indonesia";"";"4.5891291";"96.6866223";"https://maps.google.com/?cid=0x0:0xdbbaad28c14a7d60"
"housing complex";"housing complex";"Kec. Jagong Jeget";"Kabupaten Aceh Tengah, Aceh";"Kabupaten Aceh Tengah, Aceh";"ACEH";"";"Indonesia";"";"4.3753143";"96.7564258";"https://maps.google.com/?cid=0x0:0xd1981acbde368f04"
"housing complex";"Perhimpunan Pengembang Perumahan";"RUMAH SUPIYANTO";"9QG8+VC, Jeget Ayu, Kec. Jagong Jeget, Kabupaten Aceh Tengah, Aceh 24563";"Jeget Ayu, Kec. Jagong Jeget, Kabupaten Aceh Tengah";"ACEH";"24563";"Indonesia";"";"4.3774502";"96.7664588";"https://maps.google.com/?cid=0x0:0x149ee902fbe10440"
"housing complex";"Sekolah";"معهد التحفيظ الروضة للبنات";"9QHF+3WC, Jagong, Kec. Jagong Jeget, Kabupaten Aceh Tengah, Aceh 24563";"Jagong, Kec. Jagong Jeget, Kabupaten Aceh Tengah";"ACEH";"24563";"Indonesia";" 085360042072";"4.3776763";"96.7747801";"https://maps.google.com/?cid=0x0:0x1e6107e1fe77bd"
"housing complex";"Komplek perumahan";"Aceh tengah";"9QG4+4HV, Paya Tungel, Kec. Jagong Jeget, Kabupaten Aceh Tengah, Aceh";"Kabupaten Aceh Tengah, Aceh";"ACEH";"";"Indonesia";"";"4.3753629";"96.7564118";"https://maps.google.com/?cid=0x0:0x6a8e424409a04bca"
"housing complex";"Perhimpunan Pengembang Perumahan";"TAPAL BATAS JEGET AYU-JAGONG JEGET";"9QR9+W3F, Jeget Ayu, Kec. Jagong Jeget, Kabupaten Aceh Tengah, Aceh";"Kabupaten Aceh Tengah, Aceh";"ACEH";"";"Indonesia";"";"4.3923238";"96.7676773";"https://maps.google.com/?cid=0x0:0xffe96cd1b6b51a39"
"housing complex";"Pembangunan Perumahan";"Simpang tiga jagong jeget ayu";"9QG4+4HV, Jalan, Simpang Tiga, Jagong Jeget, Central Aceh Regency, Aceh 24563";"Jalan, Simpang Tiga, Jagong Jeget, Central Aceh Regency";"ACEH";"24563";"Indonesia";"";"4.3753629";"96.7564118";"https://maps.google.com/?cid=0x0:0x9ab96709de4e99ef"
"housing complex";"housing complex";"Kebun kopi eteng bubut";"9QF2+9FH, Paya Dedep, Kec. Jagong Jeget, Kabupaten Aceh Tengah, Aceh";"Kabupaten Aceh Tengah, Aceh";"ACEH";"";"Indonesia";"";"4.3734466";"96.751241";"https://maps.google.com/?cid=0x0:0x60f96116bf578ed0"
"housing complex";"Komplek perumahan";"rumah tuah";"9PG5+88R, Gegarang, Kec. Jagong Jeget, Kabupaten Aceh Tengah, Aceh 24563";"Gegarang, Kec. Jagong Jeget, Kabupaten Aceh Tengah";"ACEH";"24563";"Indonesia";"";"4.376827";"96.7083136";"https://maps.google.com/?cid=0x0:0xefcc209e5d804010"
"housing complex";"Perhimpunan Pengembang Perumahan";"Rumah Mbah Mungajib";"9QHF+M6M, Jl. Takengon - Blangkejeren II, Gading Jaya, Kec. Jagong Jeget, Kabupaten Aceh Tengah, Aceh 24563";"Jl. Takengon - Blangkejeren II, Gading Jaya, Kec. Jagong Jeget, Kabupaten Aceh Tengah";"ACEH";"24563";"Indonesia";"";"4.3787509";"96.7729784";"https://maps.google.com/?cid=0x0:0x2fd3502810b3a11b"
"housing complex";"Komplek perumahan";"GIBRAN JAGO";"CP45+6C4, Berawang Dewal, Kec. Jagong Jeget, Kabupaten Aceh Tengah, Aceh 24563";"Berawang Dewal, Kec. Jagong Jeget, Kabupaten Aceh Tengah";"ACEH";"24563";"Indonesia";"";"4.4055051";"96.7085642";"https://maps.google.com/?cid=0x0:0x60cb1ef53a1f246b"
"housing complex";"Perhimpunan Pengembang Perumahan";"roni";"9QGF+J6M, Jagong, Kec. Jagong Jeget, Kabupaten Aceh Tengah, Aceh 24563";"Jagong, Kec. Jagong Jeget, Kabupaten Aceh Tengah";"ACEH";"24563";"Indonesia";"";"4.3765795";"96.7730564";"https://maps.google.com/?cid=0x0:0x197332143639fbbf"
"housing complex";"Perhimpunan Pengembang Perumahan";"TAPAL BATAS BUKIT KEMUNING-JAGONG JEGET";"9QHG+HMM, Jl. Takengon - Blangkejeren II, Jagong, Kec. Jagong Jeget, Kabupaten Aceh Tengah, Aceh 24563";"Jl. Takengon - Blangkejeren II, Jagong, Kec. Jagong Jeget, Kabupaten Aceh Tengah";"ACEH";"24563";"Indonesia";"";"4.3789737";"96.7766785";"https://maps.google.com/?cid=0x0:0xf4dbc9b2823a8457"
"housing complex";"Komplek perumahan";"Rumah";"CQ24+5X7, Bukit Sari, Kec. Jagong Jeget, Kabupaten Aceh Tengah, Aceh 24563";"Bukit Sari, Kec. Jagong Jeget, Kabupaten Aceh Tengah";"ACEH";"24563";"Indonesia";" 082273068981";"4.4004108";"96.7574289";"https://maps.google.com/?cid=0x0:0x547057364500e901"
"housing complex";"Komplek perumahan";"RUMAH AVI ZAHRA";"9PG7+RHR, Telege Sari, Kec. Jagong Jeget, Kabupaten Aceh Tengah, Aceh 24563";"Telege Sari, Kec. Jagong Jeget, Kabupaten Aceh Tengah";"ACEH";"24563";"Indonesia";"";"4.3791457";"96.7137205";"https://maps.google.com/?cid=0x0:0xf94dffd077b9b9c5"
"housing complex";"Komplek perumahan";"RUMAH";"JVQ3+HX9, Lot Kala, Kec. Kebayakan, Kabupaten Aceh Tengah, Aceh 24519";"Lot Kala, Kec. Kebayakan, Kabupaten Aceh Tengah";"ACEH";"24519";"Indonesia";"";"4.6389757";"96.8549652";"https://maps.google.com/?cid=0x0:0xc12908df413d673a"
"housing complex";"Komplek perumahan";"Rumah KWD";"JVP3+WG3, Lot Kala, Kec. Kebayakan, Kabupaten Aceh Tengah, Aceh 24519";"Lot Kala, Kec. Kebayakan, Kabupaten Aceh Tengah";"ACEH";"24519";"Indonesia";"";"4.637217";"96.8538411";"https://maps.google.com/?cid=0x0:0x7273250d9805c62d"
"housing complex";"housing complex";"Aceh 24517";"Nunang Antara, Kec. Bebesen, Kabupaten Aceh Tengah, Aceh";"Kabupaten Aceh Tengah, Aceh";"ACEH";"";"Indonesia";"";"4.6359608";"96.8533098";"https://maps.google.com/?cid=0x0:0x6d9d84d775f81d2c"
"housing complex";"housing complex";"Kec. Kebayakan";"Kabupaten Aceh Tengah, Aceh";"Kabupaten Aceh Tengah, Aceh";"ACEH";"";"Indonesia";"";"4.6396395";"96.8523604";"https://maps.google.com/?cid=0x0:0x988e1a386334e16c"
"housing complex";"housing complex";"Aceh 24519";"Kabupaten Aceh Tengah, Aceh";"Kabupaten Aceh Tengah, Aceh";"ACEH";"";"Indonesia";"";"4.626985";"96.8940846";"https://maps.google.com/?cid=0x0:0x696b245c7c9b4bce"
"housing complex";"Pembangunan Perumahan";"Kebayakan";"JVQ5+265, Mendale, Kec. Kebayakan, Kabupaten Aceh Tengah, Aceh 24582";"Mendale, Kec. Kebayakan, Kabupaten Aceh Tengah";"ACEH";"24582";"Indonesia";"";"4.6383517";"96.8586127";"https://maps.google.com/?cid=0x0:0x8e242ea3fd6513bc"
"housing complex";"Komplek perumahan";"Rumah tinggal";"JVQ5+2W5, Lot Kala, Kec. Kebayakan, Kabupaten Aceh Tengah, Aceh 24519";"Lot Kala, Kec. Kebayakan, Kabupaten Aceh Tengah";"ACEH";"24519";"Indonesia";"";"4.6372507";"96.8596842";"https://maps.google.com/?cid=0x0:0x43b3804126cf6af1"
"housing complex";"Pembangunan Perumahan";"Lorong Ganda No.2 Kebayakan Takengon Aceh Tengah";"Jl. Qurata Aini Lorong Ganda No.2, Gn. Bukit, Kec. Kebayakan, Kabupaten Aceh Tengah, Aceh 24519";"Gn. Bukit, Kec. Kebayakan, Kabupaten Aceh Tengah";"ACEH";"24519";"Indonesia";"";"4.6367165";"96.8488678";"https://maps.google.com/?cid=0x0:0x9d29d245f7cbd0be"
"housing complex";"Komplek perumahan";"Rumah KWD";"JVP3+WG3, Lot Kala, Kec. Kebayakan, Kabupaten Aceh Tengah, Aceh 24519";"Lot Kala, Kec. Kebayakan, Kabupaten Aceh Tengah";"ACEH";"24519";"Indonesia";"";"4.637217";"96.8538411";"https://maps.google.com/?cid=0x0:0x7273250d9805c62d"
"housing complex";"Komplek perumahan";"Perumahan Giza Tama Residence";"JRVW+5MJ, Kute Lot, Kec. Kebayakan, Kabupaten Aceh Tengah, Aceh";"Kabupaten Aceh Tengah, Aceh";"ACEH";"";"Indonesia";"";"4.6429748";"96.8466302";"https://maps.google.com/?cid=0x0:0xc1b0d6e90de6c1f9"
"housing complex";"Komplek perumahan";"Fahmiiwanrizqi";"Lot Kala, Kec. Kebayakan, Kabupaten Aceh Tengah, Aceh 24519";"Kec. Kebayakan, Kabupaten Aceh Tengah";"ACEH";"24519";"Indonesia";"";"4.6371285";"96.8603408";"https://maps.google.com/?cid=0x0:0x98b6d4b808d038fd"
"housing complex";"Komplek perumahan";"UMAH KELAHIREN";"JVQ3+9PH, Lot Kala, Kec. Kebayakan, Kabupaten Aceh Tengah, Aceh 24519";"Lot Kala, Kec. Kebayakan, Kabupaten Aceh Tengah";"ACEH";"24519";"Indonesia";"";"4.6384375";"96.8543594";"https://maps.google.com/?cid=0x0:0x96a88607fff459b8"
"housing complex";"Komplek perumahan";"rumah haikal";"JVP6+MCQ, Jl. Takengon, Lot Kala, Kec. Kebayakan, Kabupaten Aceh Tengah, Aceh 24519";"Jl. Takengon, Lot Kala, Kec. Kebayakan, Kabupaten Aceh Tengah";"ACEH";"24519";"Indonesia";"";"4.6367041";"96.861105";"https://maps.google.com/?cid=0x0:0xf36e035b06c62a0c"
"housing complex";"Komplek perumahan";"Rumah sewa UD khaila";"Jl. Empus Talu No.1, Bebesen, Kec. Bebesen, Kabupaten Aceh Tengah, Aceh 24552";"Bebesen, Kec. Bebesen, Kabupaten Aceh Tengah";"ACEH";"24552";"Indonesia";"";"4.6332068";"96.8393648";"https://maps.google.com/?cid=0x0:0x45b45bb89d670d93"
"housing complex";"Komplek perumahan";"Rumah saya";"JVQ5+V9Q, Kala Lengkio, Kec. Kebayakan, Kabupaten Aceh Tengah, Aceh";"Kabupaten Aceh Tengah, Aceh";"ACEH";"";"Indonesia";"";"4.6397246";"96.8584914";"https://maps.google.com/?cid=0x0:0x915a7d02dc16c3c2"
"housing complex";"Komplek perumahan";"Rumah Buge";"JR8V+G9H, Asir Asir, Kec. Lut Tawar, Kabupaten Aceh Tengah, Aceh 24519";"Asir Asir, Kec. Lut Tawar, Kabupaten Aceh Tengah";"ACEH";"24519";"Indonesia";"";"4.615506";"96.843992";"https://maps.google.com/?cid=0x0:0x85d67ca10c9ff513"
"housing complex";"Komplek perumahan";"Rumah KyN";"Jl. Pengulu Bersah No 1, Perumnas Pinangan, Kute Lot, Kec. Kebayakan, Kabupaten Aceh Tengah, Aceh 24519";"Perumnas Pinangan, Kute Lot, Kec. Kebayakan, Kabupaten Aceh Tengah";"ACEH";"24519";"Indonesia";"";"4.6422781";"96.8444204";"https://maps.google.com/?cid=0x0:0x2f9f61b0f448d8ac"
"housing complex";"Komplek perumahan";"Rumah Kebayakan";"Rumah Fadhil, Gn. Bukit, Kec. Kebayakan, Kabupaten Aceh Tengah, Aceh 24519";"Gn. Bukit, Kec. Kebayakan, Kabupaten Aceh Tengah";"ACEH";"24519";"Indonesia";"";"4.6381315";"96.8481813";"https://maps.google.com/?cid=0x0:0x60f8fa00aaa579f1"
"housing complex";"housing complex";"Kec. Ketol";"Kabupaten Aceh Tengah, Aceh";"Kabupaten Aceh Tengah, Aceh";"ACEH";"";"Indonesia";"";"4.7028922";"96.7130788";"https://maps.google.com/?cid=0x0:0x2b297203f32bf43a"
"housing complex";"Pembangunan Perumahan";"Ketol";"MPJR+WGX, Blang Mancung, Kec. Ketol, Kabupaten Aceh Tengah, Aceh 24571";"Blang Mancung, Kec. Ketol, Kabupaten Aceh Tengah";"ACEH";"24571";"Indonesia";"";"4.6823678";"96.7413706";"https://maps.google.com/?cid=0x0:0xf18d5abe392b2ea9"
"housing complex";"Sekolah";"Blang mancung";"MPMQ+2FH, Blang Mancung, Kec. Ketol, Kabupaten Aceh Tengah, Aceh 24571";"Blang Mancung, Kec. Ketol, Kabupaten Aceh Tengah";"ACEH";"24571";"Indonesia";"";"4.68257";"96.7387328";"https://maps.google.com/?cid=0x0:0x8a021c7eaaf377ce"
"housing complex";"housing complex";"Aceh 24568";"Kec. Silih Nara, Kabupaten Aceh Tengah, Aceh";"Kabupaten Aceh Tengah, Aceh";"ACEH";"";"Indonesia";"";"4.6181645";"96.7440467";"https://maps.google.com/?cid=0x0:0xf199dfba392d9d38"
"housing complex";"Tujuan Wisata";"Perumahan Mess PLTA Peusangan";"JQ45+79V, Wih Porak, Kec. Silih Nara, Kabupaten Aceh Tengah, Aceh 24568";"Wih Porak, Kec. Silih Nara, Kabupaten Aceh Tengah";"ACEH";"24568";"Indonesia";"";"4.6057405";"96.7584145";"https://maps.google.com/?cid=0x0:0x5b82fff1e010dfea"
"housing complex";"Komplek perumahan";"Rumah Cik talib";"MQH7+V6R, Jl. Kute Panang, Gelumpang Payung, Kec. Ketol, Kabupaten Aceh Tengah, Aceh 24471";"Jl. Kute Panang, Gelumpang Payung, Kec. Ketol, Kabupaten Aceh Tengah";"ACEH";"24471";"Indonesia";"";"4.6797419";"96.7630301";"https://maps.google.com/?cid=0x0:0x4604ade46c03ebf0"
"housing complex";"Komplek perumahan";"Legiso House";"PP5V+G3R, Balik, Kec. Kute Panang, Kabupaten Aceh Tengah, Aceh 24571";"Balik, Kec. Kute Panang, Kabupaten Aceh Tengah";"ACEH";"24571";"Indonesia";"";"4.7092278";"96.7425308";"https://maps.google.com/?cid=0x0:0x650634469652a23f"
"housing complex";"Vila";"Sinta house";"PP5Q+MFP, Balik, Kec. Kute Panang, Kabupaten Aceh Tengah, Aceh 24571";"Balik, Kec. Kute Panang, Kabupaten Aceh Tengah";"ACEH";"24571";"Indonesia";"";"4.7092204";"96.7387035";"https://maps.google.com/?cid=0x0:0xfcdaa3ccc00418c0"
"housing complex";"Komplek perumahan";"Istana sultan khairuddin";"MQQ9+C9R, Atu Gogop, Kec. Kute Panang, Kabupaten Aceh Tengah, Aceh";"Kabupaten Aceh Tengah, Aceh";"ACEH";"";"Indonesia";"";"4.6886161";"96.7683801";"https://maps.google.com/?cid=0x0:0x2275a67b64e89c2e"
"housing complex";"Vila";"Haka House";"MPRP+66C, Blang Mancung Bawah, Kec. Ketol, Kabupaten Aceh Tengah, Aceh";"Kabupaten Aceh Tengah, Aceh";"ACEH";"";"Indonesia";"";"4.6905669";"96.735512";"https://maps.google.com/?cid=0x0:0xd10d01a8db96dae9"
"housing complex";"housing complex";"Mas Acong";"JPMW+2HF, Gn. Singit, Kec. Silih Nara, Kabupaten Aceh Tengah, Aceh 24568";"Gn. Singit, Kec. Silih Nara, Kabupaten Aceh Tengah";"ACEH";"24568";"Indonesia";"";"4.6325709";"96.7464242";"https://maps.google.com/?cid=0x0:0xe8dc2d12e6d27478"
"housing complex";"Komplek perumahan";"ANGGA HOM";"MPGG+22J, Cang Duri, Kec. Ketol, Kabupaten Aceh Tengah, Aceh 24568";"Cang Duri, Kec. Ketol, Kabupaten Aceh Tengah";"ACEH";"24568";"Indonesia";"";"4.6755407";"96.7253891";"https://maps.google.com/?cid=0x0:0xb4e37fea47d12734"
"housing complex";"Perkebunan Pohon";"Rumah Kebun";"MQJF+VQJ, Kute Panang, Kec. Kute Panang, Kabupaten Aceh Tengah, Aceh 24471";"Kute Panang, Kec. Kute Panang, Kabupaten Aceh Tengah";"ACEH";"24471";"Indonesia";"";"4.6822126";"96.7743813";"https://maps.google.com/?cid=0x0:0xa8c7d5e15977bd7d"
"housing complex";"Komplek perumahan";"Rumah Toke";"MQ9C+P5, Tapak Moge Tim., Kec. Kute Panang, Kabupaten Aceh Tengah, Aceh";"Kabupaten Aceh Tengah, Aceh";"ACEH";"";"Indonesia";"";"4.6692907";"96.7704325";"https://maps.google.com/?cid=0x0:0x18e30d74a6a6e727"
"housing complex";"housing complex";"Aceh Subulussalam";"MPWX+3Q2, Blang Mancung Bawah, Kec. Ketol, Kabupaten Aceh Tengah, Aceh";"Kabupaten Aceh Tengah, Aceh";"ACEH";"";"Indonesia";"";"4.695135";"96.7493993";"https://maps.google.com/?cid=0x0:0x620dd61bdad1bd4e"
"housing complex";"Perhimpunan Pengembang Perumahan";"Idi tunong";"MPWX+3Q2, Blang Mancung Bawah, Kec. Ketol, Kabupaten Aceh Tengah, Aceh";"Kabupaten Aceh Tengah, Aceh";"ACEH";"";"Indonesia";"";"4.695135";"96.7493993";"https://maps.google.com/?cid=0x0:0x2db5bc8b423b7d2b"
"housing complex";"Hotel";"Kos farma";"MPWX+3Q2, Blang Mancung Bawah, Kec. Ketol, Kabupaten Aceh Tengah, Aceh";"Kabupaten Aceh Tengah, Aceh";"ACEH";"";"Indonesia";"";"4.695135";"96.7493993";"https://maps.google.com/?cid=0x0:0xe3360197538bc10c"
"housing complex";"housing complex";"Aceh 24511";"Kabupaten Aceh Tengah, Aceh";"Kabupaten Aceh Tengah, Aceh";"ACEH";"";"Indonesia";"";"4.5478015";"96.8645856";"https://maps.google.com/?cid=0x0:0xd74671bd307a2f46"
"housing complex";"Tujuan Wisata";"DANAU LUT TAWAR TAKENGON";"JVGJ+43H, Danau, Kabupaten Aceh Tengah, Aceh";"Kabupaten Aceh Tengah, Aceh";"ACEH";"";"Indonesia";"";"4.6253077";"96.8802219";"https://maps.google.com/?cid=0x0:0xa36aace8c227e29f"
"housing complex";"Komplek perumahan";"Afdhal";"HR5C+3VM, Ierelop, Kec. Pegasing, Kabupaten Aceh Tengah, Aceh";"Kabupaten Aceh Tengah, Aceh";"ACEH";"";"Indonesia";"";"4.5577027";"96.8221197";"https://maps.google.com/?cid=0x0:0x263d64d4b393c528"
"housing complex";"Komplek perumahan";"Suka damai";"GRWV+MQQ, Pedekok, Kec. Pegasing, Kabupaten Aceh Tengah, Aceh";"Kabupaten Aceh Tengah, Aceh";"ACEH";"";"Indonesia";"";"4.5467116";"96.8444803";"https://maps.google.com/?cid=0x0:0x78c75c1c6c1cb3fd"
"housing complex";"Komplek perumahan";"Karang Taruna Gelelungi";"HRC8+88G, Gele Lungi, Kec. Pegasing, Kabupaten Aceh Tengah, Aceh 24552";"Gele Lungi, Kec. Pegasing, Kabupaten Aceh Tengah";"ACEH";"24552";"Indonesia";"";"4.5708071";"96.8158163";"https://maps.google.com/?cid=0x0:0x7f16a99dbabe56cd"
"housing complex";"Tujuan Wisata";"Danau laut tawar aceh Tengah";"JRMV+Q3X, Simpang Empat, Kec. Bebesen, Kabupaten Aceh Tengah, Aceh";"Kabupaten Aceh Tengah, Aceh";"ACEH";"";"Indonesia";"";"4.6344789";"96.8427394";"https://maps.google.com/?cid=0x0:0x4c83efb9a33931b7"
"housing complex";"Komplek perumahan";"Pedekok";"HR2C+72X, Suka Damai, Kec. Pegasing, Kabupaten Aceh Tengah, Aceh 24514";"Suka Damai, Kec. Pegasing, Kabupaten Aceh Tengah";"ACEH";"24514";"Indonesia";"";"4.5508503";"96.820241";"https://maps.google.com/?cid=0x0:0x6bf05fc4358796c8"
"housing complex";"Peternakan";"Kandang kuda LINGE STABLE";"HRC7+2J7, Ujung Gele, Kec. Pegasing, Kabupaten Aceh Tengah, Aceh 24552";"Ujung Gele, Kec. Pegasing, Kabupaten Aceh Tengah";"ACEH";"24552";"Indonesia";"";"4.5700395";"96.8140431";"https://maps.google.com/?cid=0x0:0xcb4c83ec802d67bf"
"housing complex";"Pondok";"Lut Tawar Homestay";"Jl. 1001 No.10, Blang Kolak I, Kec. Bebesen, Kabupaten Aceh Tengah, Aceh 24519";"Blang Kolak I, Kec. Bebesen, Kabupaten Aceh Tengah";"ACEH";"24519";"Indonesia";" 082163142902";"4.6291181";"96.8449865";"https://maps.google.com/?cid=0x0:0xbadb0eb20b49eef"
"housing complex";"housing complex";"At-Tamimi Guest House Syariah at Desa Wisata Takengon";"Jalan Sengeda Blang, Jl. Merah Mersa No.1, Takengon Tim., Kec. Lut Tawar, Kabupaten Aceh Tengah, Aceh 24511";"Jl. Merah Mersa No.1, Takengon Tim., Kec. Lut Tawar, Kabupaten Aceh Tengah";"ACEH";"24511";"Indonesia";" 0895417300072";"4.6228935";"96.8521898";"https://maps.google.com/?cid=0x0:0x926e4b04e3e70131"
"housing complex";"housing complex";"QQ HOMESTAY TAKENGON";"Jl. Sengeda No.99, Nunang Antara, Kec. Bebesen, Kabupaten Aceh Tengah, Aceh 24519";"Nunang Antara, Kec. Bebesen, Kabupaten Aceh Tengah";"ACEH";"24519";"Indonesia";" 085276382700";"4.6335512";"96.8532489";"https://maps.google.com/?cid=0x0:0x412c210b426de45f"
"housing complex";"housing complex";"Penginapan Sulthan Syariah RedPartner";"Jl. Lebe, Keder, Mongal, Kec. Bebesen, Kabupaten Aceh Tengah, Aceh 24552";"Keder, Mongal, Kec. Bebesen, Kabupaten Aceh Tengah";"ACEH";"24552";"Indonesia";" 0895417300072";"4.6426046";"96.8389017";"https://maps.google.com/?cid=0x0:0x6f78cec07ea4cfdf"
"housing complex";"housing complex";"Fairuz Hotel Management By Calandra";"Jl. Qurata Aini No.190, Nunang Antara, Kec. Bebesen, Kabupaten Aceh Tengah, Aceh 24519";"Nunang Antara, Kec. Bebesen, Kabupaten Aceh Tengah";"ACEH";"24519";"Indonesia";" 081260713420";"4.6363454";"96.8487169";"https://maps.google.com/?cid=0x0:0xa2c9c1c19f06eab6"
"housing complex";"housing complex";"Depik Inn Guesthouse";"Lot Kala, Kec. Kebayakan, Kabupaten Aceh Tengah, Aceh 24519";"Kec. Kebayakan, Kabupaten Aceh Tengah";"ACEH";"24519";"Indonesia";" 082286115308";"4.6356933";"96.8599914";"https://maps.google.com/?cid=0x0:0x4fc666142e26f607"
"housing complex";"housing complex";"Aceh 24512";"Kec. Pegasing, Kabupaten Aceh Tengah, Aceh";"Kabupaten Aceh Tengah, Aceh";"ACEH";"";"Indonesia";"";"4.5583042";"96.8377799";"https://maps.google.com/?cid=0x0:0x6b11ac66f675b7b5"
"housing complex";"Tujuan Wisata";"DANAU LUT TAWAR TAKENGON";"JVGJ+43H, Danau, Kabupaten Aceh Tengah, Aceh";"Kabupaten Aceh Tengah, Aceh";"ACEH";"";"Indonesia";"";"4.6253077";"96.8802219";"https://maps.google.com/?cid=0x0:0xa36aace8c227e29f"
"housing complex";"housing complex";"Kec. Lut Tawar";"Kabupaten Aceh Tengah, Aceh";"Kabupaten Aceh Tengah, Aceh";"ACEH";"";"Indonesia";"";"4.6242749";"96.8501153";"https://maps.google.com/?cid=0x0:0x233aa8a41add2302"
"housing complex";"Pembangunan Perumahan";"Rumah Kita";"HR4P+X4W, Uring, Kec. Pegasing, Kabupaten Aceh Tengah, Aceh";"Kabupaten Aceh Tengah, Aceh";"ACEH";"";"Indonesia";"";"4.5574785";"96.8353341";"https://maps.google.com/?cid=0x0:0x8e9d26edd0dbc8e4"
"housing complex";"Pondok";"Lut Tawar Homestay";"Jl. 1001 No.10, Blang Kolak I, Kec. Bebesen, Kabupaten Aceh Tengah, Aceh 24519";"Blang Kolak I, Kec. Bebesen, Kabupaten Aceh Tengah";"ACEH";"24519";"Indonesia";" 082163142902";"4.6291181";"96.8449865";"https://maps.google.com/?cid=0x0:0xbadb0eb20b49eef"
"housing complex";"Komplek perumahan";"Kampung uring";"HR7J+JJ4, Uring, Kec. Pegasing, Kabupaten Aceh Tengah, Aceh 24552";"Uring, Kec. Pegasing, Kabupaten Aceh Tengah";"ACEH";"24552";"Indonesia";"";"4.5640049";"96.8315691";"https://maps.google.com/?cid=0x0:0xedee323b573ce829"
"housing complex";"Pembangunan Perumahan";"Asrama Gentala";"JR9W+MR3, Asir Asir Asia, Kec. Lut Tawar, Kabupaten Aceh Tengah, Aceh 24519";"Asir Asir Asia, Kec. Lut Tawar, Kabupaten Aceh Tengah";"ACEH";"24519";"Indonesia";"";"4.6191479";"96.8470439";"https://maps.google.com/?cid=0x0:0x3162638355b1d106"
"housing complex";"housing complex";"Aceh 24513";"Kabupaten Aceh Tengah, Aceh";"Kabupaten Aceh Tengah, Aceh";"ACEH";"";"Indonesia";"";"4.5249796";"96.84046";"https://maps.google.com/?cid=0x0:0xb136b51d8b738d87"
"housing complex";"Komplek perumahan";"Villa Haji Mahidi";"Datar, Gayo, takengon, Dispot Linge, Kec. Linge, Kabupaten Aceh Tengah, Aceh";"Kabupaten Aceh Tengah, Aceh";"ACEH";"";"Indonesia";"";"4.49317";"96.833395";"https://maps.google.com/?cid=0x0:0xb26dbf97567e1038"
"housing complex";"Tujuan Wisata";"DANAU LUT TAWAR TAKENGON";"JVGJ+43H, Danau, Kabupaten Aceh Tengah, Aceh";"Kabupaten Aceh Tengah, Aceh";"ACEH";"";"Indonesia";"";"4.6253077";"96.8802219";"https://maps.google.com/?cid=0x0:0xa36aace8c227e29f"
"housing complex";"Tujuan Wisata";"Danau laut tawar aceh Tengah";"JRMV+Q3X, Simpang Empat, Kec. Bebesen, Kabupaten Aceh Tengah, Aceh";"Kabupaten Aceh Tengah, Aceh";"ACEH";"";"Indonesia";"";"4.6344789";"96.8427394";"https://maps.google.com/?cid=0x0:0x4c83efb9a33931b7"
"housing complex";"Pondok";"Lut Tawar Homestay";"Jl. 1001 No.10, Blang Kolak I, Kec. Bebesen, Kabupaten Aceh Tengah, Aceh 24519";"Blang Kolak I, Kec. Bebesen, Kabupaten Aceh Tengah";"ACEH";"24519";"Indonesia";" 082163142902";"4.6291181";"96.8449865";"https://maps.google.com/?cid=0x0:0xbadb0eb20b49eef"
"housing complex";"Komplek perumahan";"Afdhal";"HR5C+3VM, Ierelop, Kec. Pegasing, Kabupaten Aceh Tengah, Aceh";"Kabupaten Aceh Tengah, Aceh";"ACEH";"";"Indonesia";"";"4.5577027";"96.8221197";"https://maps.google.com/?cid=0x0:0x263d64d4b393c528"
"housing complex";"Komplek perumahan";"Suka damai";"GRWV+MQQ, Pedekok, Kec. Pegasing, Kabupaten Aceh Tengah, Aceh";"Kabupaten Aceh Tengah, Aceh";"ACEH";"";"Indonesia";"";"4.5467116";"96.8444803";"https://maps.google.com/?cid=0x0:0x78c75c1c6c1cb3fd"
"housing complex";"Komplek perumahan";"Pedekok";"HR2C+72X, Suka Damai, Kec. Pegasing, Kabupaten Aceh Tengah, Aceh 24514";"Suka Damai, Kec. Pegasing, Kabupaten Aceh Tengah";"ACEH";"24514";"Indonesia";"";"4.5508503";"96.820241";"https://maps.google.com/?cid=0x0:0x6bf05fc4358796c8"
"housing complex";"Komplek perumahan";"Rumah saya";"HR28+R2, Suka Damai, Kec. Pegasing, Kabupaten Aceh Tengah, Aceh";"Kabupaten Aceh Tengah, Aceh";"ACEH";"";"Indonesia";"";"4.544588";"96.8154978";"https://maps.google.com/?cid=0x0:0xc31bbd1b005034c"
"housing complex";"Komplek perumahan";"Kampung Suka Damai.kec pegasing'";"GRX8+576, Suka Damai, Kec. Pegasing, Kabupaten Aceh Tengah, Aceh";"Kabupaten Aceh Tengah, Aceh";"ACEH";"";"Indonesia";"";"4.5479169";"96.8156462";"https://maps.google.com/?cid=0x0:0xb86c726218fb3982"
"housing complex";"Tujuan Wisata";"Danau Laut Tawar Aceh Tengah";"JW97+82X, Danau, Kabupaten Aceh Tengah, Aceh";"Kabupaten Aceh Tengah, Aceh";"ACEH";"";"Indonesia";"";"4.6183714";"96.9126139";"https://maps.google.com/?cid=0x0:0x8189d19821a50a7b"
"housing complex";"Pembangunan Perumahan";"Rumah Kita";"HR4P+X4W, Uring, Kec. Pegasing, Kabupaten Aceh Tengah, Aceh";"Kabupaten Aceh Tengah, Aceh";"ACEH";"";"Indonesia";"";"4.5574785";"96.8353341";"https://maps.google.com/?cid=0x0:0x8e9d26edd0dbc8e4"
"housing complex";"Perhimpunan Pengembang Perumahan";"Eko martono house's";"FRMH+JVX, Dispot Linge, Kec. Linge, Kabupaten Aceh Tengah, Aceh";"Kabupaten Aceh Tengah, Aceh";"ACEH";"";"Indonesia";"";"4.4841246";"96.8297403";"https://maps.google.com/?cid=0x0:0x85cd99f8997f9e3b"
"housing complex";"housing complex";"Aceh 24514";"Kec. Pegasing, Kabupaten Aceh Tengah, Aceh";"Kabupaten Aceh Tengah, Aceh";"ACEH";"";"Indonesia";"";"4.5532815";"96.8270607";"https://maps.google.com/?cid=0x0:0x149b0586ab5eec66"
"housing complex";"Tujuan Wisata";"DANAU LUT TAWAR TAKENGON";"JVGJ+43H, Danau, Kabupaten Aceh Tengah, Aceh";"Kabupaten Aceh Tengah, Aceh";"ACEH";"";"Indonesia";"";"4.6253077";"96.8802219";"https://maps.google.com/?cid=0x0:0xa36aace8c227e29f"
"housing complex";"housing complex";"Kec. Lut Tawar";"Kabupaten Aceh Tengah, Aceh";"Kabupaten Aceh Tengah, Aceh";"ACEH";"";"Indonesia";"";"4.6242749";"96.8501153";"https://maps.google.com/?cid=0x0:0x233aa8a41add2302"
"housing complex";"Tujuan Wisata";"Danau laut tawar aceh Tengah";"JRMV+Q3X, Simpang Empat, Kec. Bebesen, Kabupaten Aceh Tengah, Aceh";"Kabupaten Aceh Tengah, Aceh";"ACEH";"";"Indonesia";"";"4.6344789";"96.8427394";"https://maps.google.com/?cid=0x0:0x4c83efb9a33931b7"
"housing complex";"Komplek perumahan";"Pedekok";"HR2C+72X, Suka Damai, Kec. Pegasing, Kabupaten Aceh Tengah, Aceh 24514";"Suka Damai, Kec. Pegasing, Kabupaten Aceh Tengah";"ACEH";"24514";"Indonesia";"";"4.5508503";"96.820241";"https://maps.google.com/?cid=0x0:0x6bf05fc4358796c8"
"housing complex";"Pondok";"Lut Tawar Homestay";"Jl. 1001 No.10, Blang Kolak I, Kec. Bebesen, Kabupaten Aceh Tengah, Aceh 24519";"Blang Kolak I, Kec. Bebesen, Kabupaten Aceh Tengah";"ACEH";"24519";"Indonesia";" 082163142902";"4.6291181";"96.8449865";"https://maps.google.com/?cid=0x0:0xbadb0eb20b49eef"
"housing complex";"Komplek perumahan";"Rumah saya";"HR28+R2, Suka Damai, Kec. Pegasing, Kabupaten Aceh Tengah, Aceh";"Kabupaten Aceh Tengah, Aceh";"ACEH";"";"Indonesia";"";"4.544588";"96.8154978";"https://maps.google.com/?cid=0x0:0xc31bbd1b005034c"
"housing complex";"Komplek perumahan";"Kampung Suka Damai.kec pegasing'";"GRX8+576, Suka Damai, Kec. Pegasing, Kabupaten Aceh Tengah, Aceh";"Kabupaten Aceh Tengah, Aceh";"ACEH";"";"Indonesia";"";"4.5479169";"96.8156462";"https://maps.google.com/?cid=0x0:0xb86c726218fb3982"
"housing complex";"Tujuan Wisata";"DANAU LUT TAWAR TAKENGON";"JVGJ+43H, Danau, Kabupaten Aceh Tengah, Aceh";"Kabupaten Aceh Tengah, Aceh";"ACEH";"";"Indonesia";"";"4.6253077";"96.8802219";"https://maps.google.com/?cid=0x0:0xa36aace8c227e29f"
"housing complex";"housing complex";"Aceh 24515";"Kec. Linge, Kabupaten Aceh Tengah, Aceh";"Kabupaten Aceh Tengah, Aceh";"ACEH";"";"Indonesia";"";"4.5171211";"96.8592236";"https://maps.google.com/?cid=0x0:0x12e462276045bb6b"
"housing complex";"housing complex";"Kec. Lut Tawar";"Kabupaten Aceh Tengah, Aceh";"Kabupaten Aceh Tengah, Aceh";"ACEH";"";"Indonesia";"";"4.6242749";"96.8501153";"https://maps.google.com/?cid=0x0:0x233aa8a41add2302"
"housing complex";"Pondok";"Lut Tawar Homestay";"Jl. 1001 No.10, Blang Kolak I, Kec. Bebesen, Kabupaten Aceh Tengah, Aceh 24519";"Blang Kolak I, Kec. Bebesen, Kabupaten Aceh Tengah";"ACEH";"24519";"Indonesia";" 082163142902";"4.6291181";"96.8449865";"https://maps.google.com/?cid=0x0:0xbadb0eb20b49eef"
"housing complex";"Tujuan Wisata";"Danau Laut Tawar Aceh Tengah";"JW97+82X, Danau, Kabupaten Aceh Tengah, Aceh";"Kabupaten Aceh Tengah, Aceh";"ACEH";"";"Indonesia";"";"4.6183714";"96.9126139";"https://maps.google.com/?cid=0x0:0x8189d19821a50a7b"
"housing complex";"Pembangunan Perumahan";"Asrama Gentala";"JR9W+MR3, Asir Asir Asia, Kec. Lut Tawar, Kabupaten Aceh Tengah, Aceh 24519";"Asir Asir Asia, Kec. Lut Tawar, Kabupaten Aceh Tengah";"ACEH";"24519";"Indonesia";"";"4.6191479";"96.8470439";"https://maps.google.com/?cid=0x0:0x3162638355b1d106"
"housing complex";"housing complex";"Aceh 24516";"Kabupaten Aceh Tengah, Aceh";"Kabupaten Aceh Tengah, Aceh";"ACEH";"";"Indonesia";"";"4.5194021";"96.8887202";"https://maps.google.com/?cid=0x0:0x3c9a17af1bc497a9"
"housing complex";"Tujuan Wisata";"DANAU LUT TAWAR TAKENGON";"JVGJ+43H, Danau, Kabupaten Aceh Tengah, Aceh";"Kabupaten Aceh Tengah, Aceh";"ACEH";"";"Indonesia";"";"4.6253077";"96.8802219";"https://maps.google.com/?cid=0x0:0xa36aace8c227e29f"
"housing complex";"housing complex";"Kec. Lut Tawar";"Kabupaten Aceh Tengah, Aceh";"Kabupaten Aceh Tengah, Aceh";"ACEH";"";"Indonesia";"";"4.6242749";"96.8501153";"https://maps.google.com/?cid=0x0:0x233aa8a41add2302"
"housing complex";"Pondok";"Lut Tawar Homestay";"Jl. 1001 No.10, Blang Kolak I, Kec. Bebesen, Kabupaten Aceh Tengah, Aceh 24519";"Blang Kolak I, Kec. Bebesen, Kabupaten Aceh Tengah";"ACEH";"24519";"Indonesia";" 082163142902";"4.6291181";"96.8449865";"https://maps.google.com/?cid=0x0:0xbadb0eb20b49eef"
"housing complex";"";"Bintang Resort";"HXRW+6P, Kala Bintang, Kec. Bintang, Kabupaten Aceh Tengah, Aceh";"Kabupaten Aceh Tengah, Aceh";"ACEH";"";"Indonesia";"";"4.5905183";"96.9968217";"https://maps.google.com/?cid=0x0:0x5f2dc43d0cc80d10"
"housing complex";"Tujuan Wisata";"Goa Loyang Koro";"JV4M+7HX, Toweren Uken, Kec. Lut Tawar, Kabupaten Aceh Tengah, Aceh";"Kabupaten Aceh Tengah, Aceh";"ACEH";"";"Indonesia";"";"4.6057467";"96.883988";"https://maps.google.com/?cid=0x0:0x16dff60c00824405"
"housing complex";"Komplek perumahan";"Suka damai";"GRWV+MQQ, Pedekok, Kec. Pegasing, Kabupaten Aceh Tengah, Aceh";"Kabupaten Aceh Tengah, Aceh";"ACEH";"";"Indonesia";"";"4.5467116";"96.8444803";"https://maps.google.com/?cid=0x0:0x78c75c1c6c1cb3fd"
"housing complex";"Pembangunan Perumahan";"Rumah Kita";"HR4P+X4W, Uring, Kec. Pegasing, Kabupaten Aceh Tengah, Aceh";"Kabupaten Aceh Tengah, Aceh";"ACEH";"";"Indonesia";"";"4.5574785";"96.8353341";"https://maps.google.com/?cid=0x0:0x8e9d26edd0dbc8e4"
"housing complex";"Pembangunan Perumahan";"Asrama Gentala";"JR9W+MR3, Asir Asir Asia, Kec. Lut Tawar, Kabupaten Aceh Tengah, Aceh 24519";"Asir Asir Asia, Kec. Lut Tawar, Kabupaten Aceh Tengah";"ACEH";"24519";"Indonesia";"";"4.6191479";"96.8470439";"https://maps.google.com/?cid=0x0:0x3162638355b1d106"
"housing complex";"housing complex";"Portola Grand Renggali Hotel";"Danau, Kabupaten Aceh Tengah, Aceh 24519";"Kabupaten Aceh Tengah";"ACEH";"24519";"Indonesia";" 08116837100";"4.6121859";"96.8641628";"https://maps.google.com/?cid=0x0:0xcd3d745aa1299e22"
"housing complex";"Taman bermain";"Toweren";"JV2V+95X, Jl. Takengon - Bintang, Toweren Uken, Kec. Lut Tawar, Kabupaten Aceh Tengah, Aceh 24519";"Jl. Takengon - Bintang, Toweren Uken, Kec. Lut Tawar, Kabupaten Aceh Tengah";"ACEH";"24519";"Indonesia";"";"4.6009898";"96.8929724";"https://maps.google.com/?cid=0x0:0x639f5770f1d1581c"
"housing complex";"housing complex";"Aceh 24563";"Kabupaten Aceh Tengah, Aceh";"Kabupaten Aceh Tengah, Aceh";"ACEH";"";"Indonesia";"";"4.323702";"97.0498442";"https://maps.google.com/?cid=0x0:0x7d0f262101229bc9"
"housing complex";"Komplek perumahan";"Peregen";"CV99+4QQ, Jl. Takengon - Blangkejeren II, Kute Keramil, Kec. Linge, Kabupaten Aceh Tengah, Aceh 24563";"Jl. Takengon - Blangkejeren II, Kute Keramil, Kec. Linge, Kabupaten Aceh Tengah";"ACEH";"24563";"Indonesia";"";"4.4178323";"96.8694883";"https://maps.google.com/?cid=0x0:0x196b7f45744d0243"
"housing complex";"housing complex";"Gintea pratama";"8RRR+95G, Antara, Kec. Linge, Kabupaten Aceh Tengah, Aceh 24563";"Antara, Kec. Linge, Kabupaten Aceh Tengah";"ACEH";"24563";"Indonesia";"";"4.3409287";"96.84046";"https://maps.google.com/?cid=0x0:0xcf27893baf570fd9"
"housing complex";"Pertanian";"Linge, Aceh Indonesia";"945H+PR, Lumut, Kec. Linge, Kabupaten Aceh Tengah, Aceh 24563";"Lumut, Kec. Linge, Kabupaten Aceh Tengah";"ACEH";"24563";"Indonesia";"";"4.3592772";"97.1295279";"https://maps.google.com/?cid=0x0:0x41221aa9757dbd18"
"housing complex";"Komplek perumahan";"Pertik";"97Q4+QX, Kute Reje, Kec. Linge, Kabupaten Aceh Tengah, Aceh";"Kabupaten Aceh Tengah, Aceh";"ACEH";"";"Indonesia";"";"4.3893868";"97.2573897";"https://maps.google.com/?cid=0x0:0x365fb9c0d5134713"
"housing complex";"Komplek perumahan";"Villa Haji Mahidi";"Datar, Gayo, takengon, Dispot Linge, Kec. Linge, Kabupaten Aceh Tengah, Aceh";"Kabupaten Aceh Tengah, Aceh";"ACEH";"";"Indonesia";"";"4.49317";"96.833395";"https://maps.google.com/?cid=0x0:0xb26dbf97567e1038"
"housing complex";"Komplek perumahan";"Rumah yana";"FR6G+6W2, Dispot Linge, Kec. Linge, Kabupaten Aceh Tengah, Aceh 24563";"Dispot Linge, Kec. Linge, Kabupaten Aceh Tengah";"ACEH";"24563";"Indonesia";"";"4.4607883";"96.8274574";"https://maps.google.com/?cid=0x0:0x5c9e82ede8d0511"
"housing complex";"Komplek perumahan";"Rumah Hani";"FR5G+VRM, Dispot Linge, Kec. Linge, Kabupaten Aceh Tengah, Aceh 24563";"Dispot Linge, Kec. Linge, Kabupaten Aceh Tengah";"ACEH";"24563";"Indonesia";"";"4.459707";"96.8270397";"https://maps.google.com/?cid=0x0:0x6ce3a9267a281861"
"housing complex";"Komplek perumahan";"House Neng Aya";"FR5H+89X, Dispot Linge, Kec. Linge, Kabupaten Aceh Tengah, Aceh";"Kabupaten Aceh Tengah, Aceh";"ACEH";"";"Indonesia";"";"4.4583676";"96.8284998";"https://maps.google.com/?cid=0x0:0x4bb364dae50b6454"
"housing complex";"Komplek perumahan";"Rumah syahlan";"FR5G+VRM, Dispot Linge, Kec. Linge, Kabupaten Aceh Tengah, Aceh 24563";"Dispot Linge, Kec. Linge, Kabupaten Aceh Tengah";"ACEH";"24563";"Indonesia";"";"4.4597107";"96.8270373";"https://maps.google.com/?cid=0x0:0x77a55574fd01344c"
"housing complex";"Pembangunan Perumahan";"Bg banny";"FVG6+4HH, Gelampang Gading, Kec. Linge, Kabupaten Aceh Tengah, Aceh";"Kabupaten Aceh Tengah, Aceh";"ACEH";"";"Indonesia";" 082275906464";"4.4753232";"96.8614863";"https://maps.google.com/?cid=0x0:0x734fc30458306818"
"housing complex";"Pembangunan Perumahan";"Kasran";"C6GX+MXG, Reje Payung, Kec. Linge, Kabupaten Aceh Tengah, Aceh 24563";"Reje Payung, Kec. Linge, Kabupaten Aceh Tengah";"ACEH";"24563";"Indonesia";"";"4.4277834";"97.2496764";"https://maps.google.com/?cid=0x0:0x46c124ebd7743c04"
"housing complex";"Perhimpunan Pengembang Perumahan";"Pak Dila";"9RXF+C76, Gemboyah, Kec. Linge, Kabupaten Aceh Tengah, Aceh 24563";"Gemboyah, Kec. Linge, Kabupaten Aceh Tengah";"ACEH";"24563";"Indonesia";"";"4.398534";"96.823127";"https://maps.google.com/?cid=0x0:0x383efecf161ea706"
"housing complex";"Komplek perumahan";"Umah lintang";"FV5M+8RH, Kute Keramil, Kec. Linge, Kabupaten Aceh Tengah, Aceh 24563";"Kute Keramil, Kec. Linge, Kabupaten Aceh Tengah";"ACEH";"24563";"Indonesia";" 082277442836";"4.4581059";"96.8832638";"https://maps.google.com/?cid=0x0:0xdb6163c0a122bac"
"housing complex";"housing complex";"Aceh 24561";"Kec. Bies, Kabupaten Aceh Tengah, Aceh";"Kabupaten Aceh Tengah, Aceh";"ACEH";"";"Indonesia";"";"4.6357106";"96.5143087";"https://maps.google.com/?cid=0x0:0x56523b06c23bbd5f"
"housing complex";"Komplek perumahan";"RUMAH HITORI";"HRH8+WMQ, Wih Nareh, Kec. Pegasing, Kabupaten Aceh Tengah, Aceh 24561";"Wih Nareh, Kec. Pegasing, Kabupaten Aceh Tengah";"ACEH";"24561";"Indonesia";"";"4.5798475";"96.8167301";"https://maps.google.com/?cid=0x0:0x8751c3d712b7ada"
"housing complex";"Komplek perumahan";"Rumah bg ponco";"GQ4J+28M, Jejem, Kec. Pegasing, Kabupaten Aceh Tengah, Aceh 24561";"Jejem, Kec. Pegasing, Kabupaten Aceh Tengah";"ACEH";"24561";"Indonesia";"";"4.5050752";"96.7808034";"https://maps.google.com/?cid=0x0:0xf1d0f267d6b9b4db"
"housing complex";"Komplek perumahan";"Rumah";"GQC6+H8C, Panangen Mata, Kec. Pegasing, Kabupaten Aceh Tengah, Aceh";"Kabupaten Aceh Tengah, Aceh";"ACEH";"";"Indonesia";"";"4.5206931";"96.7602647";"https://maps.google.com/?cid=0x0:0x15bb809583a7baeb"
"housing complex";"Komplek perumahan";"Kampung Suka Damai.kec pegasing'";"GRX8+576, Suka Damai, Kec. Pegasing, Kabupaten Aceh Tengah, Aceh";"Kabupaten Aceh Tengah, Aceh";"ACEH";"";"Indonesia";"";"4.5479169";"96.8156462";"https://maps.google.com/?cid=0x0:0xb86c726218fb3982"
"housing complex";"Perhimpunan Pengembang Perumahan";"Idi tunong";"MPWX+3Q2, Blang Mancung Bawah, Kec. Ketol, Kabupaten Aceh Tengah, Aceh";"Kabupaten Aceh Tengah, Aceh";"ACEH";"";"Indonesia";"";"4.695135";"96.7493993";"https://maps.google.com/?cid=0x0:0x2db5bc8b423b7d2b"
"housing complex";"Komplek perumahan";"Rumah aman pina";"HQ3X+C7M, Terang Ulen, Kec. Pegasing, Kabupaten Aceh Tengah, Aceh 24561";"Terang Ulen, Kec. Pegasing, Kabupaten Aceh Tengah";"ACEH";"24561";"Indonesia";"";"4.5535792";"96.7981654";"https://maps.google.com/?cid=0x0:0xc9f8f3433d00c5cf"
"housing complex";"Rumah Kayu";"Linung ayu";"GQWV+953, Linung Ayu, Kec. Pegasing, Kabupaten Aceh Tengah, Aceh 24561";"Linung Ayu, Kec. Pegasing, Kabupaten Aceh Tengah";"ACEH";"24561";"Indonesia";"";"4.5458881";"96.7929153";"https://maps.google.com/?cid=0x0:0x9ba19375c51934af"
"housing complex";"Komplek perumahan";"Rumah nur";"GQ4J+4MP, Jl. Takengon - Blangkejeren II, Jejem, Kec. Pegasing, Kabupaten Aceh Tengah, Aceh 24561";"Jl. Takengon - Blangkejeren II, Jejem, Kec. Pegasing, Kabupaten Aceh Tengah";"ACEH";"24561";"Indonesia";"";"4.5057366";"96.7821475";"https://maps.google.com/?cid=0x0:0x31fab1f92b0adb2c"
"housing complex";"Komplek perumahan";"Pk.Ulfa";"GP5M+9G, Arul Badak, Kec. Pegasing, Kabupaten Aceh Tengah, Aceh";"Kabupaten Aceh Tengah, Aceh";"ACEH";"";"Indonesia";"";"4.508513";"96.7338117";"https://maps.google.com/?cid=0x0:0x9aca27957a74bbc5"
"housing complex";"Komplek perumahan";"Marleni  zulkarnain";"HP8P+3VM, Kuyun Uken, Kec. Celala, Kabupaten Aceh Tengah, Aceh 24561";"Kuyun Uken, Kec. Celala, Kabupaten Aceh Tengah";"ACEH";"24561";"Indonesia";"";"4.565212";"96.7370917";"https://maps.google.com/?cid=0x0:0xc1d6d51a909da153"
"housing complex";"Pembangunan Perumahan";"Lorong weh osop";"MHCH+4PW, Jl. Silh Nara - Rusip Anatara, Arul Pertik, Kec. Rusip Antara, Kabupaten Aceh Tengah, Aceh 24561";"Jl. Silh Nara - Rusip Anatara, Arul Pertik, Kec. Rusip Antara, Kabupaten Aceh Tengah";"ACEH";"24561";"Indonesia";"";"4.6703564";"96.5793246";"https://maps.google.com/?cid=0x0:0x4d0af06de0879f01"
"housing complex";"Komplek perumahan";"Legiso House";"PP5V+G3R, Balik, Kec. Kute Panang, Kabupaten Aceh Tengah, Aceh 24571";"Balik, Kec. Kute Panang, Kabupaten Aceh Tengah";"ACEH";"24571";"Indonesia";"";"4.7092278";"96.7425308";"https://maps.google.com/?cid=0x0:0x650634469652a23f"
"housing complex";"Komplek perumahan";"Win simahate";"GP5M+9G, Arul Badak, Kec. Pegasing, Kabupaten Aceh Tengah, Aceh";"Kabupaten Aceh Tengah, Aceh";"ACEH";"";"Indonesia";"";"4.5084457";"96.7337794";"https://maps.google.com/?cid=0x0:0x11797825333b062a"
"housing complex";"housing complex";"Kec. Rusip Antara";"Kabupaten Aceh Tengah, Aceh";"Kabupaten Aceh Tengah, Aceh";"ACEH";"";"Indonesia";"";"4.7473709";"96.4536555";"https://maps.google.com/?cid=0x0:0x8dc34f971c061ad6"
"housing complex";"Sekolah";"Blang mancung";"MPMQ+2FH, Blang Mancung, Kec. Ketol, Kabupaten Aceh Tengah, Aceh 24571";"Blang Mancung, Kec. Ketol, Kabupaten Aceh Tengah";"ACEH";"24571";"Indonesia";"";"4.68257";"96.7387328";"https://maps.google.com/?cid=0x0:0x8a021c7eaaf377ce"
"housing complex";"Pembangunan Perumahan";"Rumah";"MPPP+RXH, Blang Mancung, Kec. Ketol, Kabupaten Aceh Tengah, Aceh 24571";"Blang Mancung, Kec. Ketol, Kabupaten Aceh Tengah";"ACEH";"24571";"Indonesia";"";"4.6870686";"96.7374732";"https://maps.google.com/?cid=0x0:0x5122d9c13a72758f"
"housing complex";"Dapur Umum";"Warung Makan Aceh Poe";"MPJP+CF, Blang Mancung, Kec. Ketol, Kabupaten Aceh Tengah, Aceh";"Kabupaten Aceh Tengah, Aceh";"ACEH";"";"Indonesia";"";"4.6811291";"96.7361647";"https://maps.google.com/?cid=0x0:0x4f828d67fc7854b6"
