Category,Real Category,Business Name,Address,City,State,Postal Code,Country,Phone,Email,Website,Latitude,Longitude,Map Link,Details Link
building materials,building materials,Kec. Tigi,"Kabupaten Deiyai, Papua","Kabupaten Deiyai, Papua",PAPUA,,Indonesia,,,,-4.0451767,136.278207,https://maps.google.com/?cid=0x0:0xd43bc44cb2e7a8f6,
building materials,Toko Bahan Bangunan,TOKO ADIPATI,"X72G+VV9, Unnamed Road, Wagete I, Kec. Tigi, Kabupaten Deiyai, Papua 98764","Unnamed Road, Wagete I, Kec. Tigi, Kabupaten Deiyai",PAPUA,98764.0,Indonesia,,,,-4.0478291,136.2772267,https://maps.google.com/?cid=0x0:0x5e5f483c1346142a,
building materials,Toko Bahan Bangunan,TOKO RAJAWALI MAS,"Unnamed Road, Wagete I, Kec. Tigi, Kabupaten Deiyai, Papua 98764","Wagete I, Kec. Tigi, Kabupaten Deiyai",PAPUA,98764.0,Indonesia,,,,-4.0468695,136.2813948,https://maps.google.com/?cid=0x0:0xd7783c1250e8410,
building materials,Toko Cat,PT. PUTRA IDAMAN (DISTRIBUTOR RESMI CAT JOTUN),"Jl. F Raya No.1 8, RT.8/RW.4, Rawabadak Utara, Kec. Koja, Jkt Utara, Daerah Khusus Ibukota Jakarta 14230","RT.8/RW.4, Rawabadak Utara, Kec. Koja, Jkt Utara",PAPUA,14230.0,Indonesia,817209291.0,,,-6.1154358,106.9001876,https://maps.google.com/?cid=0x0:0x3d6d8248e1e2347a,
building materials,Kontraktor,Bital Asia. PT,"Jl. Raya Legok - Karawaci No.Km. 7, RW.9, Babakan, Kec. Legok, Kabupaten Tangerang, Banten 15820","RW.9, Babakan, Kec. Legok, Kabupaten Tangerang",PAPUA,15820.0,Indonesia,2154202064.0,,,-6.2959357,106.592504,https://maps.google.com/?cid=0x0:0xd739133722897251,
building materials,Toko Bahan Bangunan,BJ Home - BSD CITY,"Jl. Pahlawan Seribu Sektor VI.I No.17, BSD City, Kec. Serpong Utara, Kota Tangerang Selatan, Banten 15325","BSD City, Kec. Serpong Utara, Kota Tangerang Selatan",PAPUA,15325.0,Indonesia,215389999.0,,,-6.2777597,106.660313,https://maps.google.com/?cid=0x0:0x400d53b7e69fb9e,
building materials,building materials,Papua 98781,Papua,Papua,PAPUA,,Indonesia,,,,-4.069466,136.4777687,https://maps.google.com/?cid=0x0:0x4515157402273e4e,
building materials,Toko Bahan Bangunan,TOKO BANGUNAN DIKA JAYA,"Jl. Dermaga Aikai. Enarotali Distrik Paniai Timur Kabupaten Paniai. Papua, Aikai, Paniai Tim., Enarotali, Papua 98711","Aikai, Paniai Tim., Enarotali",PAPUA,98711.0,Indonesia,81935935177.0,,,-3.9309089,136.3727901,https://maps.google.com/?cid=0x0:0x814ba48a8059765f,
building materials,Toko,Toko Pegunungan Papua Tengah,"Umbutu / Uyubutu / Uwibutu, Paniai Tim., Kabupaten Paniai, Papua 98781","Paniai Tim., Kabupaten Paniai",PAPUA,98781.0,Indonesia,,,,-3.9452003,136.4302235,https://maps.google.com/?cid=0x0:0x105eae32e4602542,
building materials,Toko Bahan Bangunan,TOKO RAJAWALI MAS,"Unnamed Road, Wagete I, Kec. Tigi, Kabupaten Deiyai, Papua 98764","Wagete I, Kec. Tigi, Kabupaten Deiyai",PAPUA,98764.0,Indonesia,,,,-4.0468695,136.2813948,https://maps.google.com/?cid=0x0:0xd7783c1250e8410,
building materials,building materials,CV. Tigi mandiri,"Jl. Soekarno, Kali merah, Kec. Tigi, Kabupaten Deiyai, Papua 98764","Kali merah, Kec. Tigi, Kabupaten Deiyai",PAPUA,98764.0,Indonesia,,,,-4.0394733,136.2869926,https://maps.google.com/?cid=0x0:0x78ac0ff7f93f2e8f,
building materials,building materials,Kec. Bowobado,"Kabupaten Deiyai, Papua","Kabupaten Deiyai, Papua",PAPUA,,Indonesia,,,,-4.2893486,136.4664967,https://maps.google.com/?cid=0x0:0x52d6c40635f2f5da,
building materials,Toko Bahan Bangunan,"Papua Bangunan, CV PAPUA ABADI","Jl. Basuki Rahmat No.780, Klawuyuk, Distrik Sorong Timur, Kota Sorong, Papua Bar. 98416","Klawuyuk, Distrik Sorong Timur, Kota Sorong",PAPUA,98416.0,Indonesia,81332017550.0,,,-0.8954087,131.3186922,https://maps.google.com/?cid=0x0:0x851804bc3aa7f033,
building materials,Toko Bahan Bangunan,Toko habibi,"7GC6+82H, Jln Saberi. Masabuay, Wasior I, Distrik Wasior, Kabupaten Teluk Wondama, Papua Bar. 98362","Jln Saberi. Masabuay, Wasior I, Distrik Wasior, Kabupaten Teluk Wondama",PAPUA,98362.0,Indonesia,,,,-2.7291953,134.5101099,https://maps.google.com/?cid=0x0:0x7307e67b2bf16401,
building materials,Toko Cat,Toko Bangunan Abid Sejahtera - Waisai,"Jl. Jend. Sudirman No.30, Waisai, Distrik Kota Waisai, Kabupaten Raja Ampat, Papua Bar. 98482","Waisai, Distrik Kota Waisai, Kabupaten Raja Ampat",PAPUA,98482.0,Indonesia,82248014806.0,,,-0.4206038,130.8216501,https://maps.google.com/?cid=0x0:0x635cf5cb88ebe389,
building materials,Toko,TB Wondama Sentosa,"Wasior - Nabire, Miei, Maniwak, Distrik Wasior, Kabupaten Teluk Wondama, Papua Bar. 98362","Miei, Maniwak, Distrik Wasior, Kabupaten Teluk Wondama",PAPUA,98362.0,Indonesia,8113771366.0,,,-2.7361124,134.5131112,https://maps.google.com/?cid=0x0:0xa4797422a9cf9482,
building materials,building materials,Papua 98781,Papua,Papua,PAPUA,,Indonesia,,,,-4.069466,136.4777687,https://maps.google.com/?cid=0x0:0x4515157402273e4e,
building materials,Toko Bahan Bangunan,TOKO BANGUNAN DIKA JAYA,"Jl. Dermaga Aikai. Enarotali Distrik Paniai Timur Kabupaten Paniai. Papua, Aikai, Paniai Tim., Enarotali, Papua 98711","Aikai, Paniai Tim., Enarotali",PAPUA,98711.0,Indonesia,81935935177.0,,,-3.9309089,136.3727901,https://maps.google.com/?cid=0x0:0x814ba48a8059765f,
building materials,Toko,Toko Pegunungan Papua Tengah,"Umbutu / Uyubutu / Uwibutu, Paniai Tim., Kabupaten Paniai, Papua 98781","Paniai Tim., Kabupaten Paniai",PAPUA,98781.0,Indonesia,,,,-3.9452003,136.4302235,https://maps.google.com/?cid=0x0:0x105eae32e4602542,
building materials,Toko Bahan Bangunan,TOKO ADIPATI,"X72G+VV9, Unnamed Road, Wagete I, Kec. Tigi, Kabupaten Deiyai, Papua 98764","Unnamed Road, Wagete I, Kec. Tigi, Kabupaten Deiyai",PAPUA,98764.0,Indonesia,,,,-4.0478291,136.2772267,https://maps.google.com/?cid=0x0:0x5e5f483c1346142a,
building materials,Toko bahan makanan,Toko bangunan ABADI JAYA,"Jl. Raya sarmi No.blok A, Bunyom, Distrik Nimbokrang, Kabupaten Jayapura, Papua 99361","Bunyom, Distrik Nimbokrang, Kabupaten Jayapura",PAPUA,99361.0,Indonesia,85382577209.0,,,-2.557175,140.1088301,https://maps.google.com/?cid=0x0:0x1ca51d4d8a0ae01a,
building materials,Toko,KIOS SUBUR JAYA,"Perempatan pasar, Enarotali, Paniai Tim., Kabupaten Paniai, Papua 98711","Enarotali, Paniai Tim., Kabupaten Paniai",PAPUA,98711.0,Indonesia,82248812525.0,,,-3.9279332,136.3765889,https://maps.google.com/?cid=0x0:0x8dfa149d15e0803d,
building materials,building materials,Papua 98727,"Distrik Tigi Timur, Kabupaten Deiyai, Papua","Kabupaten Deiyai, Papua",PAPUA,,Indonesia,,,,-4.0953564,136.2953347,https://maps.google.com/?cid=0x0:0x865418cd47f9666,
building materials,Toko Bahan Bangunan,TOKO RAJAWALI MAS,"Unnamed Road, Wagete I, Kec. Tigi, Kabupaten Deiyai, Papua 98764","Wagete I, Kec. Tigi, Kabupaten Deiyai",PAPUA,98764.0,Indonesia,,,,-4.0468695,136.2813948,https://maps.google.com/?cid=0x0:0xd7783c1250e8410,
building materials,Toko Bahan Bangunan,TOKO ADIPATI,"X72G+VV9, Unnamed Road, Wagete I, Kec. Tigi, Kabupaten Deiyai, Papua 98764","Unnamed Road, Wagete I, Kec. Tigi, Kabupaten Deiyai",PAPUA,98764.0,Indonesia,,,,-4.0478291,136.2772267,https://maps.google.com/?cid=0x0:0x5e5f483c1346142a,
building materials,Kantor Perusahaan,Tambang material PT. Dewa Kresna,"W6R2+XM3, Wageta Raya, Ayate, Distrik Tigi Barat, Kabupaten Deiyai, Papua 98764","Wageta Raya, Ayate, Distrik Tigi Barat, Kabupaten Deiyai",PAPUA,98764.0,Indonesia,,,,-4.0576237,136.2016669,https://maps.google.com/?cid=0x0:0xb7a38ded3104fb7b,
building materials,building materials,Papua 98764,"Kec. Tigi, Kabupaten Deiyai, Papua","Kabupaten Deiyai, Papua",PAPUA,,Indonesia,,,,-4.0679047,136.2282927,https://maps.google.com/?cid=0x0:0xf921eabf702cc3ac,
building materials,Toko Bahan Bangunan,TOKO RAJAWALI MAS,"Unnamed Road, Wagete I, Kec. Tigi, Kabupaten Deiyai, Papua 98764","Wagete I, Kec. Tigi, Kabupaten Deiyai",PAPUA,98764.0,Indonesia,,,,-4.0468695,136.2813948,https://maps.google.com/?cid=0x0:0xd7783c1250e8410,
building materials,Toko Bahan Bangunan,TOKO ADIPATI,"X72G+VV9, Unnamed Road, Wagete I, Kec. Tigi, Kabupaten Deiyai, Papua 98764","Unnamed Road, Wagete I, Kec. Tigi, Kabupaten Deiyai",PAPUA,98764.0,Indonesia,,,,-4.0478291,136.2772267,https://maps.google.com/?cid=0x0:0x5e5f483c1346142a,
building materials,building materials,Papua 98727,"Distrik Tigi Timur, Kabupaten Deiyai, Papua","Kabupaten Deiyai, Papua",PAPUA,,Indonesia,,,,-4.0953564,136.2953347,https://maps.google.com/?cid=0x0:0x865418cd47f9666,
building materials,Toko Bahan Bangunan,TOKO RAJAWALI MAS,"Unnamed Road, Wagete I, Kec. Tigi, Kabupaten Deiyai, Papua 98764","Wagete I, Kec. Tigi, Kabupaten Deiyai",PAPUA,98764.0,Indonesia,,,,-4.0468695,136.2813948,https://maps.google.com/?cid=0x0:0xd7783c1250e8410,
building materials,Toko Bahan Bangunan,TOKO ADIPATI,"X72G+VV9, Unnamed Road, Wagete I, Kec. Tigi, Kabupaten Deiyai, Papua 98764","Unnamed Road, Wagete I, Kec. Tigi, Kabupaten Deiyai",PAPUA,98764.0,Indonesia,,,,-4.0478291,136.2772267,https://maps.google.com/?cid=0x0:0x5e5f483c1346142a,
toko bangunan,toko bangunan,Kec. Tigi,"Kabupaten Deiyai, Papua","Kabupaten Deiyai, Papua",PAPUA,,Indonesia,,,,-4.0451767,136.278207,https://maps.google.com/?cid=0x0:0xd43bc44cb2e7a8f6,
toko bangunan,Toko Bahan Bangunan,TOKO ADIPATI,"X72G+VV9, Unnamed Road, Wagete I, Kec. Tigi, Kabupaten Deiyai, Papua 98764","Unnamed Road, Wagete I, Kec. Tigi, Kabupaten Deiyai",PAPUA,98764.0,Indonesia,,,,-4.0478291,136.2772267,https://maps.google.com/?cid=0x0:0x5e5f483c1346142a,
toko bangunan,Toko Bahan Bangunan,TOKO RAJAWALI MAS,"Unnamed Road, Wagete I, Kec. Tigi, Kabupaten Deiyai, Papua 98764","Wagete I, Kec. Tigi, Kabupaten Deiyai",PAPUA,98764.0,Indonesia,,,,-4.0468695,136.2813948,https://maps.google.com/?cid=0x0:0xd7783c1250e8410,
toko bangunan,toko bangunan,Papua 98781,Papua,Papua,PAPUA,,Indonesia,,,,-4.069466,136.4777687,https://maps.google.com/?cid=0x0:0x4515157402273e4e,
toko bangunan,Toko Bahan Bangunan,TOKO BANGUNAN DIKA JAYA,"Jl. Dermaga Aikai. Enarotali Distrik Paniai Timur Kabupaten Paniai. Papua, Aikai, Paniai Tim., Enarotali, Papua 98711","Aikai, Paniai Tim., Enarotali",PAPUA,98711.0,Indonesia,81935935177.0,,,-3.9309089,136.3727901,https://maps.google.com/?cid=0x0:0x814ba48a8059765f,
toko bangunan,Toko,Toko Pegunungan Papua Tengah,"Umbutu / Uyubutu / Uwibutu, Paniai Tim., Kabupaten Paniai, Papua 98781","Paniai Tim., Kabupaten Paniai",PAPUA,98781.0,Indonesia,,,,-3.9452003,136.4302235,https://maps.google.com/?cid=0x0:0x105eae32e4602542,
toko bangunan,Toko Bahan Bangunan,TOKO RAJAWALI MAS,"Unnamed Road, Wagete I, Kec. Tigi, Kabupaten Deiyai, Papua 98764","Wagete I, Kec. Tigi, Kabupaten Deiyai",PAPUA,98764.0,Indonesia,,,,-4.0468695,136.2813948,https://maps.google.com/?cid=0x0:0xd7783c1250e8410,
toko bangunan,toko bangunan,Kec. Bowobado,"Kabupaten Deiyai, Papua","Kabupaten Deiyai, Papua",PAPUA,,Indonesia,,,,-4.2893486,136.4664967,https://maps.google.com/?cid=0x0:0x52d6c40635f2f5da,
toko bangunan,Toko bahan makanan,Toko bangunan ABADI JAYA,"Jl. Raya sarmi No.blok A, Bunyom, Distrik Nimbokrang, Kabupaten Jayapura, Papua 99361","Bunyom, Distrik Nimbokrang, Kabupaten Jayapura",PAPUA,99361.0,Indonesia,85382577209.0,,,-2.557175,140.1088301,https://maps.google.com/?cid=0x0:0x1ca51d4d8a0ae01a,
toko bangunan,Toko Bahan Bangunan,TOKO BANGUNAN DIKA JAYA,"Jl. Dermaga Aikai. Enarotali Distrik Paniai Timur Kabupaten Paniai. Papua, Aikai, Paniai Tim., Enarotali, Papua 98711","Aikai, Paniai Tim., Enarotali",PAPUA,98711.0,Indonesia,81935935177.0,,,-3.9309089,136.3727901,https://maps.google.com/?cid=0x0:0x814ba48a8059765f,
toko bangunan,Toko,Toko Abadi,"jalan trans, Persatuan, Kec. Mandobo, Kabupaten Boven Digoel, Papua 99663","Persatuan, Kec. Mandobo, Kabupaten Boven Digoel",PAPUA,99663.0,Indonesia,82197348947.0,,,-6.1021675,140.3183316,https://maps.google.com/?cid=0x0:0xdee33d09caab54d2,
toko bangunan,Toko Bahan Bangunan,"Papua Bangunan, CV PAPUA ABADI","Jl. Basuki Rahmat No.780, Klawuyuk, Distrik Sorong Timur, Kota Sorong, Papua Bar. 98416","Klawuyuk, Distrik Sorong Timur, Kota Sorong",PAPUA,98416.0,Indonesia,81332017550.0,,,-0.8954087,131.3186922,https://maps.google.com/?cid=0x0:0x851804bc3aa7f033,
toko bangunan,Toko Bahan Bangunan,Toko AKBAR bangunan,"2W63+2XM, Dawaikunu, Distrik Mapia, Kabupaten Dogiyai, Papua","Kabupaten Dogiyai, Papua",PAPUA,,Indonesia,8161999912.0,,,-3.989908,135.904907,https://maps.google.com/?cid=0x0:0x54762d941a6ba240,
toko bangunan,Toko Cat,Toko Bangunan Abid Sejahtera - Waisai,"Jl. Jend. Sudirman No.30, Waisai, Distrik Kota Waisai, Kabupaten Raja Ampat, Papua Bar. 98482","Waisai, Distrik Kota Waisai, Kabupaten Raja Ampat",PAPUA,98482.0,Indonesia,82248014806.0,,,-0.4206038,130.8216501,https://maps.google.com/?cid=0x0:0x635cf5cb88ebe389,
toko bangunan,Toko Bahan Bangunan,Toko Bangunan Abadi,"4862+H2G, Malaingkedi, Kec. Sorong Utara, Kota Sorong, Papua Bar. 98412","Malaingkedi, Kec. Sorong Utara, Kota Sorong",PAPUA,98412.0,Indonesia,81248762864.0,,,-0.8885625,131.3000781,https://maps.google.com/?cid=0x0:0xa4c5e3d6e0f0bf2b,
toko bangunan,Toko Bahan Bangunan,Toko Bangunan Arso Jaya,"6Q35+6HV, Jl. Wijaya Kusuma, Arso I. / Sanggaria, Kec. Arso, Kabupaten Keerom, Papua 99468","Jl. Wijaya Kusuma, Arso I. / Sanggaria, Kec. Arso, Kabupaten Keerom",PAPUA,99468.0,Indonesia,85244068633.0,,,-2.7968972,140.7589213,https://maps.google.com/?cid=0x0:0x1bf911e0dc6cab7,
toko bangunan,Toko Bahan Bangunan,TOKO ADIPATI,"X72G+VV9, Unnamed Road, Wagete I, Kec. Tigi, Kabupaten Deiyai, Papua 98764","Unnamed Road, Wagete I, Kec. Tigi, Kabupaten Deiyai",PAPUA,98764.0,Indonesia,,,,-4.0478291,136.2772267,https://maps.google.com/?cid=0x0:0x5e5f483c1346142a,
toko bangunan,toko bangunan,Papua 98781,Papua,Papua,PAPUA,,Indonesia,,,,-4.069466,136.4777687,https://maps.google.com/?cid=0x0:0x4515157402273e4e,
toko bangunan,Toko Bahan Bangunan,TOKO BANGUNAN DIKA JAYA,"Jl. Dermaga Aikai. Enarotali Distrik Paniai Timur Kabupaten Paniai. Papua, Aikai, Paniai Tim., Enarotali, Papua 98711","Aikai, Paniai Tim., Enarotali",PAPUA,98711.0,Indonesia,81935935177.0,,,-3.9309089,136.3727901,https://maps.google.com/?cid=0x0:0x814ba48a8059765f,
toko bangunan,Toko,Toko Pegunungan Papua Tengah,"Umbutu / Uyubutu / Uwibutu, Paniai Tim., Kabupaten Paniai, Papua 98781","Paniai Tim., Kabupaten Paniai",PAPUA,98781.0,Indonesia,,,,-3.9452003,136.4302235,https://maps.google.com/?cid=0x0:0x105eae32e4602542,
toko bangunan,Toko Bahan Bangunan,TOKO ADIPATI,"X72G+VV9, Unnamed Road, Wagete I, Kec. Tigi, Kabupaten Deiyai, Papua 98764","Unnamed Road, Wagete I, Kec. Tigi, Kabupaten Deiyai",PAPUA,98764.0,Indonesia,,,,-4.0478291,136.2772267,https://maps.google.com/?cid=0x0:0x5e5f483c1346142a,
toko bangunan,Gudang,Toko Bahan Bangunan BOROBUDUR,"Q853+V3G, Passi II, Kec. Passi Bar., Kabupaten Bolaang Mongondow, Sulawesi Utara","Kabupaten Bolaang Mongondow, Sulawesi Utara",PAPUA,,Indonesia,,,,0.7596792,124.3027097,https://maps.google.com/?cid=0x0:0x5d850252030234be,
toko bangunan,Toko Perlengkapan Rumah,TOKO Bahan Bangunan Bobohoo,"Unnamed Road, Soa Gimalaha, Kec. Kota Maba, Kabupaten Halmahera Timur, Maluku Utara","Kabupaten Halmahera Timur, Maluku Utara",PAPUA,,Indonesia,82344091888.0,,,0.6902266,128.2950041,https://maps.google.com/?cid=0x0:0x4372c85023912b79,
toko bangunan,toko bangunan,Papua 98727,"Distrik Tigi Timur, Kabupaten Deiyai, Papua","Kabupaten Deiyai, Papua",PAPUA,,Indonesia,,,,-4.0953564,136.2953347,https://maps.google.com/?cid=0x0:0x865418cd47f9666,
toko bangunan,Toko Bahan Bangunan,TOKO ADIPATI,"X72G+VV9, Unnamed Road, Wagete I, Kec. Tigi, Kabupaten Deiyai, Papua 98764","Unnamed Road, Wagete I, Kec. Tigi, Kabupaten Deiyai",PAPUA,98764.0,Indonesia,,,,-4.0478291,136.2772267,https://maps.google.com/?cid=0x0:0x5e5f483c1346142a,
toko bangunan,Toko Bahan Bangunan,TOKO RAJAWALI MAS,"Unnamed Road, Wagete I, Kec. Tigi, Kabupaten Deiyai, Papua 98764","Wagete I, Kec. Tigi, Kabupaten Deiyai",PAPUA,98764.0,Indonesia,,,,-4.0468695,136.2813948,https://maps.google.com/?cid=0x0:0xd7783c1250e8410,
toko bangunan,toko bangunan,Papua 98764,"Kec. Tigi, Kabupaten Deiyai, Papua","Kabupaten Deiyai, Papua",PAPUA,,Indonesia,,,,-4.0679047,136.2282927,https://maps.google.com/?cid=0x0:0xf921eabf702cc3ac,
toko bangunan,Toko Bahan Bangunan,TOKO ADIPATI,"X72G+VV9, Unnamed Road, Wagete I, Kec. Tigi, Kabupaten Deiyai, Papua 98764","Unnamed Road, Wagete I, Kec. Tigi, Kabupaten Deiyai",PAPUA,98764.0,Indonesia,,,,-4.0478291,136.2772267,https://maps.google.com/?cid=0x0:0x5e5f483c1346142a,
toko bangunan,Toko Bahan Bangunan,TOKO RAJAWALI MAS,"Unnamed Road, Wagete I, Kec. Tigi, Kabupaten Deiyai, Papua 98764","Wagete I, Kec. Tigi, Kabupaten Deiyai",PAPUA,98764.0,Indonesia,,,,-4.0468695,136.2813948,https://maps.google.com/?cid=0x0:0xd7783c1250e8410,
toko bangunan,toko bangunan,Papua 98727,"Distrik Tigi Timur, Kabupaten Deiyai, Papua","Kabupaten Deiyai, Papua",PAPUA,,Indonesia,,,,-4.0953564,136.2953347,https://maps.google.com/?cid=0x0:0x865418cd47f9666,
toko bangunan,Toko Bahan Bangunan,TOKO BANGUNAN DIKA JAYA,"Jl. Dermaga Aikai. Enarotali Distrik Paniai Timur Kabupaten Paniai. Papua, Aikai, Paniai Tim., Enarotali, Papua 98711","Aikai, Paniai Tim., Enarotali",PAPUA,98711.0,Indonesia,81935935177.0,,,-3.9309089,136.3727901,https://maps.google.com/?cid=0x0:0x814ba48a8059765f,
toko bangunan,Toko Bahan Bangunan,TOKO RAJAWALI MAS,"Unnamed Road, Wagete I, Kec. Tigi, Kabupaten Deiyai, Papua 98764","Wagete I, Kec. Tigi, Kabupaten Deiyai",PAPUA,98764.0,Indonesia,,,,-4.0468695,136.2813948,https://maps.google.com/?cid=0x0:0xd7783c1250e8410,
hardware store,hardware store,Kec. Tigi,"Kabupaten Deiyai, Papua","Kabupaten Deiyai, Papua",PAPUA,,Indonesia,,,,-4.0451767,136.278207,https://maps.google.com/?cid=0x0:0xd43bc44cb2e7a8f6,
hardware store,Toko Bahan Bangunan,TOKO ADIPATI,"X72G+VV9, Unnamed Road, Wagete I, Kec. Tigi, Kabupaten Deiyai, Papua 98764","Unnamed Road, Wagete I, Kec. Tigi, Kabupaten Deiyai",PAPUA,98764.0,Indonesia,,,,-4.0478291,136.2772267,https://maps.google.com/?cid=0x0:0x5e5f483c1346142a,
hardware store,Toko Bahan Bangunan,TOKO RAJAWALI MAS,"Unnamed Road, Wagete I, Kec. Tigi, Kabupaten Deiyai, Papua 98764","Wagete I, Kec. Tigi, Kabupaten Deiyai",PAPUA,98764.0,Indonesia,,,,-4.0468695,136.2813948,https://maps.google.com/?cid=0x0:0xd7783c1250e8410,
hardware store,hardware store,Papua 98781,Papua,Papua,PAPUA,,Indonesia,,,,-4.069466,136.4777687,https://maps.google.com/?cid=0x0:0x4515157402273e4e,
hardware store,Toko Bahan Bangunan,TOKO BANGUNAN DIKA JAYA,"Jl. Dermaga Aikai. Enarotali Distrik Paniai Timur Kabupaten Paniai. Papua, Aikai, Paniai Tim., Enarotali, Papua 98711","Aikai, Paniai Tim., Enarotali",PAPUA,98711.0,Indonesia,81935935177.0,,,-3.9309089,136.3727901,https://maps.google.com/?cid=0x0:0x814ba48a8059765f,
hardware store,Toko,Toko Pegunungan Papua Tengah,"Umbutu / Uyubutu / Uwibutu, Paniai Tim., Kabupaten Paniai, Papua 98781","Paniai Tim., Kabupaten Paniai",PAPUA,98781.0,Indonesia,,,,-3.9452003,136.4302235,https://maps.google.com/?cid=0x0:0x105eae32e4602542,
hardware store,Toko Bahan Bangunan,Hardware Haus,"7XCQ+H9G, Mula St, Lae Morobe Province, Papua Nugini","Lae, Papua Nugini",PAPUA,,Indonesia,6754724100.0,,,-6.7285537,146.9884375,https://maps.google.com/?cid=0x0:0x5128e5540d909546,
hardware store,Toko Bahan Bangunan,Badili Hardware - Lae,"Sect 29, Lot 7 Macdhui St, Lae, Papua Nugini","Lae, Papua Nugini",PAPUA,,Indonesia,6754731900.0,,,-6.7371068,146.9927215,https://maps.google.com/?cid=0x0:0x135d2e27bdc2fbcb,
hardware store,Toko Perlengkapan Rumah,AZKO Fatmawati,"Jl. RS. Fatmawati Raya No.42B, RT.5/RW.3, Cilandak Bar., Kec. Cilandak, Kota Jakarta Selatan, Daerah Khusus Ibukota Jakarta 12430","RT.5/RW.3, Cilandak Bar., Kec. Cilandak, Kota Jakarta Selatan",PAPUA,12430.0,Indonesia,8551500582.0,,,-6.2839557,106.7961381,https://maps.google.com/?cid=0x0:0x65173985ab58c7a6,
hardware store,Toko Akuarium,Bowindustries,"Perum Dian Asri 2, Jl. Apel Blk. D3 No.10B, Kec. Cibinong, Jawa Barat 16916","Jl. Apel Blk. D3 No.10B, Kec. Cibinong",PAPUA,16916.0,Indonesia,85781010912.0,,,-6.4610206,106.8481706,https://maps.google.com/?cid=0x0:0x74a3fd49bf50708d,
hardware store,hardware store,Papua 98781,Papua,Papua,PAPUA,,Indonesia,,,,-4.069466,136.4777687,https://maps.google.com/?cid=0x0:0x4515157402273e4e,
hardware store,Toko Bahan Bangunan,TOKO BANGUNAN DIKA JAYA,"Jl. Dermaga Aikai. Enarotali Distrik Paniai Timur Kabupaten Paniai. Papua, Aikai, Paniai Tim., Enarotali, Papua 98711","Aikai, Paniai Tim., Enarotali",PAPUA,98711.0,Indonesia,81935935177.0,,,-3.9309089,136.3727901,https://maps.google.com/?cid=0x0:0x814ba48a8059765f,
hardware store,Toko,Toko Pegunungan Papua Tengah,"Umbutu / Uyubutu / Uwibutu, Paniai Tim., Kabupaten Paniai, Papua 98781","Paniai Tim., Kabupaten Paniai",PAPUA,98781.0,Indonesia,,,,-3.9452003,136.4302235,https://maps.google.com/?cid=0x0:0x105eae32e4602542,
hardware store,Rumah Kaca,Toko aquarium jaya harga grosir,"Gg. Dukuh, Pabuaran, Kec. Cibinong, Kabupaten Bogor, Jawa Barat 16458","Pabuaran, Kec. Cibinong, Kabupaten Bogor",PAPUA,16458.0,Indonesia,89661586079.0,,,-6.4560001,106.8503982,https://maps.google.com/?cid=0x0:0xd4a63e1204cfeb66,
hardware store,hardware store,Papua 98727,"Distrik Tigi Timur, Kabupaten Deiyai, Papua","Kabupaten Deiyai, Papua",PAPUA,,Indonesia,,,,-4.0953564,136.2953347,https://maps.google.com/?cid=0x0:0x865418cd47f9666,
hardware store,Toko Bahan Bangunan,TOKO ADIPATI,"X72G+VV9, Unnamed Road, Wagete I, Kec. Tigi, Kabupaten Deiyai, Papua 98764","Unnamed Road, Wagete I, Kec. Tigi, Kabupaten Deiyai",PAPUA,98764.0,Indonesia,,,,-4.0478291,136.2772267,https://maps.google.com/?cid=0x0:0x5e5f483c1346142a,
hardware store,Toko Bahan Bangunan,TOKO RAJAWALI MAS,"Unnamed Road, Wagete I, Kec. Tigi, Kabupaten Deiyai, Papua 98764","Wagete I, Kec. Tigi, Kabupaten Deiyai",PAPUA,98764.0,Indonesia,,,,-4.0468695,136.2813948,https://maps.google.com/?cid=0x0:0xd7783c1250e8410,
hardware store,Toko Elektronik,Yamada Best Grand Indonesia Mall ( PT Best Electric Indonesia ),"EM-3A-MA, East Mall, Grand Indonesia, Jl. M.H. Thamrin No.1, Menteng, Kec. Menteng, Kota Jakarta Pusat, Daerah Khusus Ibukota Jakarta 10310","East Mall, Grand Indonesia, Jl. M.H. Thamrin No.1, Menteng, Kec. Menteng, Kota Jakarta Pusat",PAPUA,10310.0,Indonesia,87729403974.0,,,-6.1946825,106.8218592,https://maps.google.com/?cid=0x0:0xeb48bc18c05f457d,
hardware store,hardware store,Papua 98764,"Kec. Tigi, Kabupaten Deiyai, Papua","Kabupaten Deiyai, Papua",PAPUA,,Indonesia,,,,-4.0679047,136.2282927,https://maps.google.com/?cid=0x0:0xf921eabf702cc3ac,
hardware store,Toko Bahan Bangunan,TOKO ADIPATI,"X72G+VV9, Unnamed Road, Wagete I, Kec. Tigi, Kabupaten Deiyai, Papua 98764","Unnamed Road, Wagete I, Kec. Tigi, Kabupaten Deiyai",PAPUA,98764.0,Indonesia,,,,-4.0478291,136.2772267,https://maps.google.com/?cid=0x0:0x5e5f483c1346142a,
hardware store,Toko Bahan Bangunan,TOKO RAJAWALI MAS,"Unnamed Road, Wagete I, Kec. Tigi, Kabupaten Deiyai, Papua 98764","Wagete I, Kec. Tigi, Kabupaten Deiyai",PAPUA,98764.0,Indonesia,,,,-4.0468695,136.2813948,https://maps.google.com/?cid=0x0:0xd7783c1250e8410,
hardware store,Toko,Toko Pegunungan Papua Tengah,"Umbutu / Uyubutu / Uwibutu, Paniai Tim., Kabupaten Paniai, Papua 98781","Paniai Tim., Kabupaten Paniai",PAPUA,98781.0,Indonesia,,,,-3.9452003,136.4302235,https://maps.google.com/?cid=0x0:0x105eae32e4602542,
hardware store,hardware store,Papua 98727,"Distrik Tigi Timur, Kabupaten Deiyai, Papua","Kabupaten Deiyai, Papua",PAPUA,,Indonesia,,,,-4.0953564,136.2953347,https://maps.google.com/?cid=0x0:0x865418cd47f9666,
hardware store,Toko Bahan Bangunan,TOKO RAJAWALI MAS,"Unnamed Road, Wagete I, Kec. Tigi, Kabupaten Deiyai, Papua 98764","Wagete I, Kec. Tigi, Kabupaten Deiyai",PAPUA,98764.0,Indonesia,,,,-4.0468695,136.2813948,https://maps.google.com/?cid=0x0:0xd7783c1250e8410,
hardware store,Toko Bahan Bangunan,TOKO ADIPATI,"X72G+VV9, Unnamed Road, Wagete I, Kec. Tigi, Kabupaten Deiyai, Papua 98764","Unnamed Road, Wagete I, Kec. Tigi, Kabupaten Deiyai",PAPUA,98764.0,Indonesia,,,,-4.0478291,136.2772267,https://maps.google.com/?cid=0x0:0x5e5f483c1346142a,
home improvement,home improvement,Kec. Tigi,"Kabupaten Deiyai, Papua","Kabupaten Deiyai, Papua",PAPUA,,Indonesia,,,,-4.0451767,136.278207,https://maps.google.com/?cid=0x0:0xd43bc44cb2e7a8f6,
home improvement,home improvement,CV. Tigi mandiri,"Jl. Soekarno, Kali merah, Kec. Tigi, Kabupaten Deiyai, Papua 98764","Kali merah, Kec. Tigi, Kabupaten Deiyai",PAPUA,98764.0,Indonesia,,,,-4.0394733,136.2869926,https://maps.google.com/?cid=0x0:0x78ac0ff7f93f2e8f,
home improvement,Toko Bahan Bangunan,TOKO RAJAWALI MAS,"Unnamed Road, Wagete I, Kec. Tigi, Kabupaten Deiyai, Papua 98764","Wagete I, Kec. Tigi, Kabupaten Deiyai",PAPUA,98764.0,Indonesia,,,,-4.0468695,136.2813948,https://maps.google.com/?cid=0x0:0xd7783c1250e8410,
home improvement,home improvement,Papua 98781,Papua,Papua,PAPUA,,Indonesia,,,,-4.069466,136.4777687,https://maps.google.com/?cid=0x0:0x4515157402273e4e,
home improvement,home improvement,CV. Tigi mandiri,"Jl. Soekarno, Kali merah, Kec. Tigi, Kabupaten Deiyai, Papua 98764","Kali merah, Kec. Tigi, Kabupaten Deiyai",PAPUA,98764.0,Indonesia,,,,-4.0394733,136.2869926,https://maps.google.com/?cid=0x0:0x78ac0ff7f93f2e8f,
home improvement,Toko Bahan Bangunan,TOKO RAJAWALI MAS,"Unnamed Road, Wagete I, Kec. Tigi, Kabupaten Deiyai, Papua 98764","Wagete I, Kec. Tigi, Kabupaten Deiyai",PAPUA,98764.0,Indonesia,,,,-4.0468695,136.2813948,https://maps.google.com/?cid=0x0:0xd7783c1250e8410,
home improvement,home improvement,Mebel kayu Jepara,"X77R+QXG, Waghete II, Kec. Tigi, Kabupaten Deiyai, Papua 98764","Waghete II, Kec. Tigi, Kabupaten Deiyai",PAPUA,98764.0,Indonesia,,,,-4.0355612,136.2924575,https://maps.google.com/?cid=0x0:0xaf86b1955276f745,
home improvement,home improvement,Papua 98724,Papua,Papua,PAPUA,,Indonesia,,,,-3.2380612,136.7865516,https://maps.google.com/?cid=0x0:0x5a3fecd18c5a180c,
home improvement,home improvement,Kec. Bowobado,"Kabupaten Deiyai, Papua","Kabupaten Deiyai, Papua",PAPUA,,Indonesia,,,,-4.2893486,136.4664967,https://maps.google.com/?cid=0x0:0x52d6c40635f2f5da,
home improvement,Konsultan,CASA BOWE INDONESIA,"Ruko ICE Business, Jl. BSD Grand Boulevard Blok D25-D27, Pagedangan, Kec. Pagedangan, Kabupaten Tangerang, Banten 15339","Jl. BSD Grand Boulevard Blok D25-D27, Pagedangan, Kec. Pagedangan, Kabupaten Tangerang",PAPUA,15339.0,Indonesia,85283863365.0,,,-6.3042758,106.6341199,https://maps.google.com/?cid=0x0:0x26143251b1a2e371,
home improvement,home improvement,Papua 98781,Papua,Papua,PAPUA,,Indonesia,,,,-4.069466,136.4777687,https://maps.google.com/?cid=0x0:0x4515157402273e4e,
home improvement,Konsultan,CASA BOWE INDONESIA,"Ruko ICE Business, Jl. BSD Grand Boulevard Blok D25-D27, Pagedangan, Kec. Pagedangan, Kabupaten Tangerang, Banten 15339","Jl. BSD Grand Boulevard Blok D25-D27, Pagedangan, Kec. Pagedangan, Kabupaten Tangerang",PAPUA,15339.0,Indonesia,85283863365.0,,,-6.3042758,106.6341199,https://maps.google.com/?cid=0x0:0x26143251b1a2e371,
home improvement,Kantor Perusahaan,ProSpace Indonesia,"Ruko BSD Junction Blok B, Jl. Pahlawan Seribu No.45 Lantai 3, Lengkong Wetan, Kec. Serpong Utara, Kota Tangerang Selatan, Banten 15322","Jl. Pahlawan Seribu No.45 Lantai 3, Lengkong Wetan, Kec. Serpong Utara, Kota Tangerang Selatan",PAPUA,15322.0,Indonesia,87808865859.0,,,-6.2868674,106.6661361,https://maps.google.com/?cid=0x0:0xb2e50a042012582,
home improvement,Pabrikan mebel,Mebel kayu yomeni,"X73H+62J, Wagete I, Kec. Tigi, Kabupaten Deiyai, Papua 98764","Wagete I, Kec. Tigi, Kabupaten Deiyai",PAPUA,98764.0,Indonesia,,,,-4.046918,136.2775224,https://maps.google.com/?cid=0x0:0x48e05a7926d17ecc,
home improvement,home improvement,Mebel kayu Jepara,"X77R+QXG, Waghete II, Kec. Tigi, Kabupaten Deiyai, Papua 98764","Waghete II, Kec. Tigi, Kabupaten Deiyai",PAPUA,98764.0,Indonesia,,,,-4.0355612,136.2924575,https://maps.google.com/?cid=0x0:0xaf86b1955276f745,
home improvement,Pabrikan mebel,Mebel kayu yomeni,"X73H+62J, Wagete I, Kec. Tigi, Kabupaten Deiyai, Papua 98764","Wagete I, Kec. Tigi, Kabupaten Deiyai",PAPUA,98764.0,Indonesia,,,,-4.046918,136.2775224,https://maps.google.com/?cid=0x0:0x48e05a7926d17ecc,
home improvement,home improvement,Mebel kayu Jepara,"X77R+QXG, Waghete II, Kec. Tigi, Kabupaten Deiyai, Papua 98764","Waghete II, Kec. Tigi, Kabupaten Deiyai",PAPUA,98764.0,Indonesia,,,,-4.0355612,136.2924575,https://maps.google.com/?cid=0x0:0xaf86b1955276f745,
home improvement,Perhimpunan Pengembang Perumahan,Papua Home Creative,"FPRH+QFC, Jl. Pasifik Indah II, Tj. Ria, Kec. Jayapura Utara, Kota Jayapura, Papua","Kota Jayapura, Papua",PAPUA,,Indonesia,81355674850.0,,,-2.5080545,140.7286284,https://maps.google.com/?cid=0x0:0x538d0e729fcb131,
home improvement,Komplek perumahan,â¢Jeremy Homeâ¢,"Jl. Pasifik Indah II No.138, Tj. Ria, Kec. Jayapura Utara, Kota Jayapura, Papua 99117","Tj. Ria, Kec. Jayapura Utara, Kota Jayapura",PAPUA,99117.0,Indonesia,,,,-2.5106927,140.7298248,https://maps.google.com/?cid=0x0:0x31830fad87a4c4ca,
home improvement,Gereja,Gereja GKI Syaloom Pasifik Indah,"Jl. Pasifik Indah III No.77, Tj. Ria, Kec. Jayapura Utara, Kota Jayapura, Papua 99117","Tj. Ria, Kec. Jayapura Utara, Kota Jayapura",PAPUA,99117.0,Indonesia,967541051.0,,,-2.5136405,140.7324252,https://maps.google.com/?cid=0x0:0xcc35cdaef0a457e2,
home improvement,home improvement,Mebel kayu Jepara,"X77R+QXG, Waghete II, Kec. Tigi, Kabupaten Deiyai, Papua 98764","Waghete II, Kec. Tigi, Kabupaten Deiyai",PAPUA,98764.0,Indonesia,,,,-4.0355612,136.2924575,https://maps.google.com/?cid=0x0:0xaf86b1955276f745,
home improvement,home improvement,Kapiraya,"Komauto, Kabupaten Deiyai, Papua","Kabupaten Deiyai, Papua",PAPUA,,Indonesia,,,,-4.1874373,136.1900242,https://maps.google.com/?cid=0x0:0xc42ba021855150df,
