Category;Real Category;Business Name;Address;City;State;Postal Code;Country;Phone;Latitude;Longitude;Map Link
"restaurant";"restaurant";"Aceh 24784";"Kabupaten Aceh Singkil, Aceh";"Kabupaten Aceh Singkil, Aceh";"ACEH";"";"Indonesia";"";"2.152911";"97.2840888";"https://maps.google.com/?cid=0x0:0xab521459bf3c978c"
"restaurant";"Restoran";"warung Sari";"932V+RFQ, Lorong 4, Biskang, Kec. Danau Paris, Kabupaten Aceh Singkil, Aceh 24784";"Lorong 4, Biskang, Kec. Danau Paris, Kabupaten Aceh Singkil";"ACEH";"24784";"Indonesia";" 082272268965";"2.3520991";"98.0937357";"https://maps.google.com/?cid=0x0:0x17e6873f0d7e5ef5"
"restaurant";"Kafe";"Pojok Cafe";"Haloban, Kec. Pulau Banyak Bar., Kabupaten Aceh Singkil, Aceh 24790";"Kec. Pulau Banyak Bar., Kabupaten Aceh Singkil";"ACEH";"24790";"Indonesia";" 085372494922";"2.2265504";"97.2305929";"https://maps.google.com/?cid=0x0:0xe25adb91d7e5a2eb"
"restaurant";"Kedai Kopi";"Restoran  Depot Air BUMDes Teluk Nibung";"89RP+7HH, Pulau Ujung Batu, Tlk. Nibung, Pulau Banyak, Kabupaten Aceh Singkil, Aceh 24784";"Pulau Ujung Batu, Tlk. Nibung, Pulau Banyak, Kabupaten Aceh Singkil";"ACEH";"24784";"Indonesia";"";"2.3406972";"97.3864958";"https://maps.google.com/?cid=0x0:0x163c7f1f199c26d"
"restaurant";"Tujuan Wisata";"Danau Bungara Pelempoh Leja";"FVV3+3XG, Danau Bungara, Kec. Kota Baharu, Kabupaten Aceh Singkil, Aceh 24782";"Danau Bungara, Kec. Kota Baharu, Kabupaten Aceh Singkil";"ACEH";"24782";"Indonesia";" 082360142716";"2.4926843";"97.8549385";"https://maps.google.com/?cid=0x0:0x53b39fdc30c81a7"
"restaurant";"Kedai Kopi";"Saung Bitapmi";"Jl. Suka Maju Perumahan BRR, Asantola, Kec. Pulau Banyak Bar., Aceh 24784";"Asantola, Kec. Pulau Banyak Bar.";"ACEH";"24784";"Indonesia";" 081219115121";"2.2257539";"97.2349626";"https://maps.google.com/?cid=0x0:0x3ec29ed7c78eb652"
"restaurant";"Restoran";"Cafe Flamboyan";"66JJ+767, Haloban, Kec. Pulau Banyak Bar., Kabupaten Aceh Singkil, Aceh 24784";"Haloban, Kec. Pulau Banyak Bar., Kabupaten Aceh Singkil";"ACEH";"24784";"Indonesia";"";"2.2306595";"97.2305618";"https://maps.google.com/?cid=0x0:0xac28982f9da45913"
"restaurant";"Restoran";"Warung makan";"Situbuh-Tubuh, Kec. Danau Paris, Kabupaten Aceh Singkil, Aceh 24784";"Kec. Danau Paris, Kabupaten Aceh Singkil";"ACEH";"24784";"Indonesia";" 082388422661";"2.3864626";"98.108501";"https://maps.google.com/?cid=0x0:0x8e2ea73ea6010669"
"restaurant";"Restoran";"Rumah makan Anjeli";"94G6+C66, Unnamed Road, Situbuh-Tubuh, Kec. Danau Paris, Kabupaten Aceh Singkil, Aceh 24783";"Unnamed Road, Situbuh-Tubuh, Kec. Danau Paris, Kabupaten Aceh Singkil";"ACEH";"24783";"Indonesia";"";"2.3760397";"98.1105258";"https://maps.google.com/?cid=0x0:0x344aea12e2fde37c"
"restaurant";"Restoran";"Warung Innong";"84H4+F3J, Biskang, Kec. Danau Paris, Kabupaten Aceh Singkil, Aceh";"Kabupaten Aceh Singkil, Aceh";"ACEH";"";"Indonesia";"";"2.3287136";"98.1051357";"https://maps.google.com/?cid=0x0:0xe1cb9abf8dac80cd"
"restaurant";"Restoran";"RM. MELLY";"8C26+822, Pulau Balai, Pulau Banyak, Kabupaten Aceh Singkil, Aceh 24784";"Pulau Balai, Pulau Banyak, Kabupaten Aceh Singkil";"ACEH";"24784";"Indonesia";" 082166915396";"2.3007637";"97.4100031";"https://maps.google.com/?cid=0x0:0xdce3c69b053736f8"
"restaurant";"Bakso";"Warung Eyang";"FVR5+M45, Danau Bungara, Kec. Kota Baharu, Kabupaten Aceh Singkil, Aceh 24782";"Danau Bungara, Kec. Kota Baharu, Kabupaten Aceh Singkil";"ACEH";"24782";"Indonesia";" 085835433960";"2.4916386";"97.8578505";"https://maps.google.com/?cid=0x0:0xe1f1b35a02c1b2"
"restaurant";"Kafe";"Kiniko Duo";"7VCC+V47, Gosong Telaga Bar., Kec. Singkil Utara, Kabupaten Aceh Singkil, Aceh 24472";"Gosong Telaga Bar., Kec. Singkil Utara, Kabupaten Aceh Singkil";"ACEH";"24472";"Indonesia";"";"2.2721512";"97.8702926";"https://maps.google.com/?cid=0x0:0xde6d0fa3c12e9b86"
"restaurant";"Padang";"RM. Zahra";"74MJ+P72, Sikoran, Kec. Danau Paris, Kabupaten Aceh Singkil, Aceh 24472";"Sikoran, Kec. Danau Paris, Kabupaten Aceh Singkil";"ACEH";"24472";"Indonesia";"";"2.2842626";"98.1306365";"https://maps.google.com/?cid=0x0:0x8229077808092c78"
"restaurant";"Sate";"Warung Mbak Icha";"9XRC+XG6, Tunas Harapan, Kec. Gn. Meriah, Kabupaten Aceh Singkil, Aceh 24791";"Tunas Harapan, Kec. Gn. Meriah, Kabupaten Aceh Singkil";"ACEH";"24791";"Indonesia";" 081274821575";"2.3924022";"97.9712597";"https://maps.google.com/?cid=0x0:0xf12edbe762f73ec"
"restaurant";"Sate";"Sate Madura Ayam Kambing";"Jl. Iskandar Muda No.6b, Lae Butar, Kec. Gn. Meriah, Kabupaten Aceh Singkil, Aceh 24791";"Lae Butar, Kec. Gn. Meriah, Kabupaten Aceh Singkil";"ACEH";"24791";"Indonesia";"";"2.3894835";"97.9621001";"https://maps.google.com/?cid=0x0:0x201989c178c8fd73"
"restaurant";"restaurant";"N/A";"";"";"ACEH";"";"Indonesia";"";"";"";"https://maps.google.com/?cid=0x0:0xf12edbe762f73ecu0026onu003dMantap+Sate+Rusau0026midu003d/g/11fzhh8t50"
"restaurant";"restaurant";"N/A";"";"";"ACEH";"";"Indonesia";"";"";"";"https://maps.google.com/?cid=0x0:0xf12edbe762f73ecu0026onu003dAyam+Bakaru0026midu003d/g/11fzhh8t50"
"restaurant";"restaurant";"N/A";"";"";"ACEH";"";"Indonesia";"";"";"";"https://maps.google.com/?cid=0x0:0xf12edbe762f73ecu0026onu003dChicken+Satayu0026midu003d/g/11fzhh8t50"
"restaurant";"restaurant";"N/A";"";"";"ACEH";"";"Indonesia";"";"";"";"https://maps.google.com/?cid=0x0:0xf12edbe762f73ecu0026onu0026midu003d/g/11fzhh8t50"
"restaurant";"Kedai Kopi";"JA coffee";"9XP7+3GX, Blk. VI Baru, Kec. Gn. Meriah, Kabupaten Aceh Singkil, Aceh 24791";"Blk. VI Baru, Kec. Gn. Meriah, Kabupaten Aceh Singkil";"ACEH";"24791";"Indonesia";"";"2.3853109";"97.9638591";"https://maps.google.com/?cid=0x0:0x653e133b7838ca2b"
"restaurant";"restaurant";"N/A";"";"";"ACEH";"";"Indonesia";"";"";"";"https://maps.google.com/?cid=0x0:0x3ffc5de21d52d339u0026onu003dChocolate+Milk+Shakeu0026midu003d/g/11hzvy6ldw"
"restaurant";"Kedai Kopi";"Jackpot cafe";"mariah, Tunas Harapan, no 252, Tunas Harapan, Kec. Gn. Meriah, Kabupaten Aceh Singkil, Aceh 24791";"Tunas Harapan, no 252, Tunas Harapan, Kec. Gn. Meriah, Kabupaten Aceh Singkil";"ACEH";"24791";"Indonesia";" 085297996616";"2.3926835";"97.9707894";"https://maps.google.com/?cid=0x0:0x3ffc5de21d52d339"
"restaurant";"restaurant";"N/A";"";"";"ACEH";"";"Indonesia";"";"";"";"https://maps.google.com/?cid=0x0:0x3ffc5de21d52d339u0026onu0026midu003d/g/11hzvy6ldw"
"restaurant";"restaurant";"Aceh 24784";"Kabupaten Aceh Singkil, Aceh";"Kabupaten Aceh Singkil, Aceh";"ACEH";"";"Indonesia";"";"2.152911";"97.2840888";"https://maps.google.com/?cid=0x0:0xab521459bf3c978c"
"restaurant";"Kafe";"Pojok Cafe";"Haloban, Kec. Pulau Banyak Bar., Kabupaten Aceh Singkil, Aceh 24790";"Kec. Pulau Banyak Bar., Kabupaten Aceh Singkil";"ACEH";"24790";"Indonesia";" 085372494922";"2.2265504";"97.2305929";"https://maps.google.com/?cid=0x0:0xe25adb91d7e5a2eb"
"restaurant";"Kedai Kopi";"Restoran  Depot Air BUMDes Teluk Nibung";"89RP+7HH, Pulau Ujung Batu, Tlk. Nibung, Pulau Banyak, Kabupaten Aceh Singkil, Aceh 24784";"Pulau Ujung Batu, Tlk. Nibung, Pulau Banyak, Kabupaten Aceh Singkil";"ACEH";"24784";"Indonesia";"";"2.3406972";"97.3864958";"https://maps.google.com/?cid=0x0:0x163c7f1f199c26d"
"restaurant";"Bakso";"Warung Eyang";"FVR5+M45, Danau Bungara, Kec. Kota Baharu, Kabupaten Aceh Singkil, Aceh 24782";"Danau Bungara, Kec. Kota Baharu, Kabupaten Aceh Singkil";"ACEH";"24782";"Indonesia";" 085835433960";"2.4916386";"97.8578505";"https://maps.google.com/?cid=0x0:0xe1f1b35a02c1b2"
"restaurant";"Restoran";"Cafe Flamboyan";"66JJ+767, Haloban, Kec. Pulau Banyak Bar., Kabupaten Aceh Singkil, Aceh 24784";"Haloban, Kec. Pulau Banyak Bar., Kabupaten Aceh Singkil";"ACEH";"24784";"Indonesia";"";"2.2306595";"97.2305618";"https://maps.google.com/?cid=0x0:0xac28982f9da45913"
"restaurant";"Kedai Kopi";"Saung Bitapmi";"Jl. Suka Maju Perumahan BRR, Asantola, Kec. Pulau Banyak Bar., Aceh 24784";"Asantola, Kec. Pulau Banyak Bar.";"ACEH";"24784";"Indonesia";" 081219115121";"2.2257539";"97.2349626";"https://maps.google.com/?cid=0x0:0x3ec29ed7c78eb652"
"restaurant";"Restoran";"RM. MELLY";"8C26+822, Pulau Balai, Pulau Banyak, Kabupaten Aceh Singkil, Aceh 24784";"Pulau Balai, Pulau Banyak, Kabupaten Aceh Singkil";"ACEH";"24784";"Indonesia";" 082166915396";"2.3007637";"97.4100031";"https://maps.google.com/?cid=0x0:0xdce3c69b053736f8"
"restaurant";"Tujuan Wisata";"Danau Bungara Pelempoh Leja";"FVV3+3XG, Danau Bungara, Kec. Kota Baharu, Kabupaten Aceh Singkil, Aceh 24782";"Danau Bungara, Kec. Kota Baharu, Kabupaten Aceh Singkil";"ACEH";"24782";"Indonesia";" 082360142716";"2.4926843";"97.8549385";"https://maps.google.com/?cid=0x0:0x53b39fdc30c81a7"
"restaurant";"Kafe";"Warung ANDRA";"8C25+FW5, Pulau Balai, Pulau Banyak, Kabupaten Aceh Singkil, Aceh 24784";"Pulau Balai, Pulau Banyak, Kabupaten Aceh Singkil";"ACEH";"24784";"Indonesia";" 081211108045";"2.3011488";"97.4098439";"https://maps.google.com/?cid=0x0:0x836a45ce4c8929d6"
"restaurant";"Restoran";"Amri Angkat";"FVW2+325, Danau Bungara, Kec. Kota Baharu, Kabupaten Aceh Singkil, Aceh 24782";"Danau Bungara, Kec. Kota Baharu, Kabupaten Aceh Singkil";"ACEH";"24782";"Indonesia";" 082217711281";"2.4951298";"97.850108";"https://maps.google.com/?cid=0x0:0x5f7769931be9c6d1"
"restaurant";"Restoran";"Warung putri";"7CW6+M4M, Pulau Baguk, Pulau Banyak, Kabupaten Aceh Singkil, Aceh 24784";"Pulau Baguk, Pulau Banyak, Kabupaten Aceh Singkil";"ACEH";"24784";"Indonesia";"";"2.2967158";"97.4102937";"https://maps.google.com/?cid=0x0:0x9548e5a2ce3f1f09"
"restaurant";"Kedai Kopi";"Warung Mande";"66HJ+X29, Haloban, Kec. Pulau Banyak Bar., Kabupaten Aceh Singkil, Aceh 24784";"Haloban, Kec. Pulau Banyak Bar., Kabupaten Aceh Singkil";"ACEH";"24784";"Indonesia";"";"2.2299176";"97.2301107";"https://maps.google.com/?cid=0x0:0xced8d5a0ad640bfb"
"restaurant";"Kedai Kopi";"Warung pondok Bambu";"66GJ+H5Q, Haloban, Kec. Pulau Banyak Bar., Kabupaten Aceh Singkil, Aceh 24784";"Haloban, Kec. Pulau Banyak Bar., Kabupaten Aceh Singkil";"ACEH";"24784";"Indonesia";" 085270868761";"2.2264519";"97.2304736";"https://maps.google.com/?cid=0x0:0xaa26850ba5238a87"
"restaurant";"Dapur Umum";"Warung Mbak Maryati";"GV9P+8QJ, Jalan Merpati, Sumber Mukti, Kota Baharu, Aceh Singkil Regency, Aceh 24472";"Jalan Merpati, Sumber Mukti, Kota Baharu, Aceh Singkil Regency";"ACEH";"24472";"Indonesia";"";"2.5181979";"97.8874815";"https://maps.google.com/?cid=0x0:0x942ddc8ff38e4a4c"
"restaurant";"restaurant";"Aceh 24784";"Kabupaten Aceh Singkil, Aceh";"Kabupaten Aceh Singkil, Aceh";"ACEH";"";"Indonesia";"";"2.152911";"97.2840888";"https://maps.google.com/?cid=0x0:0xab521459bf3c978c"
"restaurant";"Kafe";"Hawariyun cofee";"Jl. Kuala Baru, Suka Jaya, Kec. Kuala Baru, Kabupaten Aceh Singkil, Aceh 24472";"Suka Jaya, Kec. Kuala Baru, Kabupaten Aceh Singkil";"ACEH";"24472";"Indonesia";" 085761316909";"2.3588523";"97.703037";"https://maps.google.com/?cid=0x0:0x80ed4c54bf9c0b79"
"restaurant";"Hidangan Laut";"KUALA SEAFOOD CABANG ULEE LHEUE";"Gampong Blang, Kec. Meuraxa, Kota Banda Aceh, Aceh";"Kota Banda Aceh, Aceh";"ACEH";"";"Indonesia";" 082326774997";"5.5489783";"95.285";"https://maps.google.com/?cid=0x0:0xcc7a857b671b90b3"
"restaurant";"Kafe";"Cafe Muara";"8PQ8+QXV, Kuala Baru Laut, Kec. Kuala Baru, Kabupaten Aceh Singkil, Aceh 24472";"Kuala Baru Laut, Kec. Kuala Baru, Kabupaten Aceh Singkil";"ACEH";"24472";"Indonesia";"";"2.3395133";"97.7159459";"https://maps.google.com/?cid=0x0:0xdc95e0addb8cc84d"
"restaurant";"Restoran";"Kuala Seafood Crabfish";"Meunasah Lambaro, Kec. Lhoknga, Kabupaten Aceh Besar, Aceh 23353";"Kec. Lhoknga, Kabupaten Aceh Besar";"ACEH";"23353";"Indonesia";" 085218735225";"5.4881088";"95.2288823";"https://maps.google.com/?cid=0x0:0xa09b7dec00081581"
"restaurant";"Indonesia";"Alex's kitchen";"Jl. Sultan Malikul Saleh, Lam Lagang, Kec. Banda Raya, Kota Banda Aceh, Aceh 23117";"Lam Lagang, Kec. Banda Raya, Kota Banda Aceh";"ACEH";"23117";"Indonesia";" 08126914030";"5.5356463";"95.3156501";"https://maps.google.com/?cid=0x0:0x42231d94d4a68aca"
"restaurant";"restaurant";"Kec. Kuala Baru";"Kabupaten Aceh Singkil, Aceh";"Kabupaten Aceh Singkil, Aceh";"ACEH";"";"Indonesia";"";"2.3496125";"97.7112967";"https://maps.google.com/?cid=0x0:0x48a3d100d6cd113b"
"restaurant";"Rumah Makan";"RH. Rizki Haikal";"Simpang 4, Kuala Baru Laut, Kec. Kuala Baru, Kabupaten Aceh Singkil, Aceh 23785";"Kuala Baru Laut, Kec. Kuala Baru, Kabupaten Aceh Singkil";"ACEH";"23785";"Indonesia";"";"2.3501397";"97.70855";"https://maps.google.com/?cid=0x0:0xf8941fce45532404"
"restaurant";"Ayam Penyet";"Mie Ayam Jogja Cabang Subulussalam";"J2X2+4HF Di dekat masjid nurul huda dari simpang SPBU, Jalan Syech Abdurrauf Assingkily Dusun Syah Kuala No.50, Subulussalam Utara, Kec. Simpang Kiri, Kota Subulussalam, Aceh";"Kota Subulussalam, Aceh";"ACEH";"";"Indonesia";" 085831297312";"2.6477937";"98.0012588";"https://maps.google.com/?cid=0x0:0xd58ee7b376a49acf"
"restaurant";"Bakso";"Warung bakso";"9P44+M35, Jalan, Suka Jaya, Kuala Baru, Aceh Singkil Regency, Aceh 24472";"Jalan, Suka Jaya, Kuala Baru, Aceh Singkil Regency";"ACEH";"24472";"Indonesia";"";"2.3566376";"97.7052439";"https://maps.google.com/?cid=0x0:0x43330a4b773844c"
"restaurant";"Kafe";"Raisah Cafe";"9P25+FMR, Jalan, Kuala Baru Laut, Kuala Baru, Aceh Singkil Regency, Aceh 24472";"Jalan, Kuala Baru Laut, Kuala Baru, Aceh Singkil Regency";"ACEH";"24472";"Indonesia";" 085361994699";"2.3512272";"97.7091253";"https://maps.google.com/?cid=0x0:0xd4fd6854dbee8101"
"restaurant";"Padang";"RM Barokah";"7RC6+CPJ, Pulo Sarok, Kec. Singkil, Kabupaten Aceh Singkil, Aceh 24472";"Pulo Sarok, Kec. Singkil, Kabupaten Aceh Singkil";"ACEH";"24472";"Indonesia";" 085669094201";"2.2710911";"97.8117641";"https://maps.google.com/?cid=0x0:0xdac8d2c7374b6579"
"restaurant";"Kafe";"Kiniko Duo";"7VCC+V47, Gosong Telaga Bar., Kec. Singkil Utara, Kabupaten Aceh Singkil, Aceh 24472";"Gosong Telaga Bar., Kec. Singkil Utara, Kabupaten Aceh Singkil";"ACEH";"24472";"Indonesia";"";"2.2721512";"97.8702926";"https://maps.google.com/?cid=0x0:0xde6d0fa3c12e9b86"
"restaurant";"Kafe";"Warkop Ogek Gani";"Jl. Perdagangan, Ps. Singkil, Kec. Singkil, Kabupaten Aceh Singkil, Aceh 24472";"Ps. Singkil, Kec. Singkil, Kabupaten Aceh Singkil";"ACEH";"24472";"Indonesia";" 081269054858";"2.282962";"97.789428";"https://maps.google.com/?cid=0x0:0x267434b5e367654b"
"restaurant";"restaurant";"Pulau Banyak";"Kabupaten Aceh Singkil, Aceh";"Kabupaten Aceh Singkil, Aceh";"ACEH";"";"Indonesia";"";"2.3198851";"97.413802";"https://maps.google.com/?cid=0x0:0xf22eba8ba0db80e0"
"restaurant";"Restoran";"RM. MELLY";"8C26+822, Pulau Balai, Pulau Banyak, Kabupaten Aceh Singkil, Aceh 24784";"Pulau Balai, Pulau Banyak, Kabupaten Aceh Singkil";"ACEH";"24784";"Indonesia";" 082166915396";"2.3007637";"97.4100031";"https://maps.google.com/?cid=0x0:0xdce3c69b053736f8"
"restaurant";"Kafe";"BALAI INDAH CAFE";"8C45+X27, Jalan Surya, Pulau Balai, Pulau Banyak, Kabupaten Aceh Singkil, Aceh 24784";"Jalan Surya, Pulau Balai, Pulau Banyak, Kabupaten Aceh Singkil";"ACEH";"24784";"Indonesia";" 082361412840";"2.3074187";"97.4075619";"https://maps.google.com/?cid=0x0:0x8842e3de67e0f4"
"restaurant";"Restoran";"Restu";"7CX5+58J, Pulau Balai, Pulau Banyak, Kabupaten Aceh Singkil, Aceh 24784";"Pulau Balai, Pulau Banyak, Kabupaten Aceh Singkil";"ACEH";"24784";"Indonesia";"";"2.2979597";"97.4082576";"https://maps.google.com/?cid=0x0:0xb80dde507cd26796"
"restaurant";"restaurant";"Ira bungalows";"Pulau Tambarat, Banyak Island, Aceh Singkil Regency, Aceh 24791";"Banyak Island, Aceh Singkil Regency";"ACEH";"24791";"Indonesia";"";"2.3187956";"97.2234801";"https://maps.google.com/?cid=0x0:0x924695d73cd46a73"
"restaurant";"restaurant";"Pulau Tambarat";"Tlk. Nibung, Pulau Banyak, Kabupaten Aceh Singkil, Aceh";"Kabupaten Aceh Singkil, Aceh";"ACEH";"";"Indonesia";"";"2.3211111";"97.2241667";"https://maps.google.com/?cid=0x0:0xe4f9c0e6cfb5ca94"
"restaurant";"Kedai Kopi";"Restoran  Depot Air BUMDes Teluk Nibung";"89RP+7HH, Pulau Ujung Batu, Tlk. Nibung, Pulau Banyak, Kabupaten Aceh Singkil, Aceh 24784";"Pulau Ujung Batu, Tlk. Nibung, Pulau Banyak, Kabupaten Aceh Singkil";"ACEH";"24784";"Indonesia";"";"2.3406972";"97.3864958";"https://maps.google.com/?cid=0x0:0x163c7f1f199c26d"
"restaurant";"Tujuan Wisata";"Warkop Pak Itam";"7C88+QJJ, Pulau Panjang, Kepulauan Banyak, Kabupaten Aceh Singkil, Aceh 24784";"Pulau Panjang, Kepulauan Banyak, Kabupaten Aceh Singkil";"ACEH";"24784";"Indonesia";"";"2.2669746";"97.4165041";"https://maps.google.com/?cid=0x0:0xdd4368cb148bb8b3"
"restaurant";"restaurant";"Kimo Resort";"Pulau Baguk, Pulau Banyak, Kabupaten Aceh Singkil, Aceh 24784";"Pulau Banyak, Kabupaten Aceh Singkil";"ACEH";"24784";"Indonesia";" 082288005500";"2.2658621";"97.4167753";"https://maps.google.com/?cid=0x0:0xe98152fe2f9d1bb8"
"restaurant";"Biro Perjalanan dan Wisata";"Pulau Banyak Travel";"Jalan Iskandar Muda No.4, Pulau Balai, Pulau Banyak, Kabupaten Aceh Singkil, Aceh 24791";"Pulau Balai, Pulau Banyak, Kabupaten Aceh Singkil";"ACEH";"24791";"Indonesia";" 085277258272";"2.300944";"97.4101007";"https://maps.google.com/?cid=0x0:0xeafde46f3122928e"
"restaurant";"Kafe";"Cafe Blustun";"8C65+MPJ, Pulau Balai, Pulau Banyak, Kabupaten Aceh Singkil, Aceh";"Kabupaten Aceh Singkil, Aceh";"ACEH";"";"Indonesia";"";"2.3115652";"97.4091746";"https://maps.google.com/?cid=0x0:0xadcfa0b9a90344a5"
"restaurant";"Restoran";"Warung putri";"7CW6+M4M, Pulau Baguk, Pulau Banyak, Kabupaten Aceh Singkil, Aceh 24784";"Pulau Baguk, Pulau Banyak, Kabupaten Aceh Singkil";"ACEH";"24784";"Indonesia";"";"2.2967158";"97.4102937";"https://maps.google.com/?cid=0x0:0x9548e5a2ce3f1f09"
"restaurant";"Restoran";"Warung Sederhana";"8C26+F38, Pulau Balai, Pulau Banyak, Kabupaten Aceh Singkil, Aceh 24784";"Pulau Balai, Pulau Banyak, Kabupaten Aceh Singkil";"ACEH";"24784";"Indonesia";"";"2.3011613";"97.4101999";"https://maps.google.com/?cid=0x0:0xf3dd36d48b45809d"
"restaurant";"Restoran";"Cafe Flamboyan";"66JJ+767, Haloban, Kec. Pulau Banyak Bar., Kabupaten Aceh Singkil, Aceh 24784";"Haloban, Kec. Pulau Banyak Bar., Kabupaten Aceh Singkil";"ACEH";"24784";"Indonesia";"";"2.2306595";"97.2305618";"https://maps.google.com/?cid=0x0:0xac28982f9da45913"
"restaurant";"restaurant";"Kec. Pulau Banyak Bar.";"Kabupaten Aceh Singkil, Aceh";"Kabupaten Aceh Singkil, Aceh";"ACEH";"";"Indonesia";"";"2.2278739";"97.2326992";"https://maps.google.com/?cid=0x0:0x154c9da37cf5674f"
"restaurant";"Restoran";"Cafe Flamboyan";"66JJ+767, Haloban, Kec. Pulau Banyak Bar., Kabupaten Aceh Singkil, Aceh 24784";"Haloban, Kec. Pulau Banyak Bar., Kabupaten Aceh Singkil";"ACEH";"24784";"Indonesia";"";"2.2306595";"97.2305618";"https://maps.google.com/?cid=0x0:0xac28982f9da45913"
"restaurant";"Kafe";"Pojok Cafe";"Haloban, Kec. Pulau Banyak Bar., Kabupaten Aceh Singkil, Aceh 24790";"Kec. Pulau Banyak Bar., Kabupaten Aceh Singkil";"ACEH";"24790";"Indonesia";" 085372494922";"2.2265504";"97.2305929";"https://maps.google.com/?cid=0x0:0xe25adb91d7e5a2eb"
"restaurant";"Restoran";"RM. MELLY";"8C26+822, Pulau Balai, Pulau Banyak, Kabupaten Aceh Singkil, Aceh 24784";"Pulau Balai, Pulau Banyak, Kabupaten Aceh Singkil";"ACEH";"24784";"Indonesia";" 082166915396";"2.3007637";"97.4100031";"https://maps.google.com/?cid=0x0:0xdce3c69b053736f8"
"restaurant";"Kedai Kopi";"Warung Mande";"66HJ+X29, Haloban, Kec. Pulau Banyak Bar., Kabupaten Aceh Singkil, Aceh 24784";"Haloban, Kec. Pulau Banyak Bar., Kabupaten Aceh Singkil";"ACEH";"24784";"Indonesia";"";"2.2299176";"97.2301107";"https://maps.google.com/?cid=0x0:0xced8d5a0ad640bfb"
"restaurant";"Kedai Kopi";"Warung pondok Bambu";"66GJ+H5Q, Haloban, Kec. Pulau Banyak Bar., Kabupaten Aceh Singkil, Aceh 24784";"Haloban, Kec. Pulau Banyak Bar., Kabupaten Aceh Singkil";"ACEH";"24784";"Indonesia";" 085270868761";"2.2264519";"97.2304736";"https://maps.google.com/?cid=0x0:0xaa26850ba5238a87"
"restaurant";"Kedai Kopi";"AADC";"66JJ+4CG, Haloban, Kec. Pulau Banyak Bar., Kabupaten Aceh Singkil, Aceh 24784";"Haloban, Kec. Pulau Banyak Bar., Kabupaten Aceh Singkil";"ACEH";"24784";"Indonesia";" 082167091081";"2.2303124";"97.2310645";"https://maps.google.com/?cid=0x0:0x67768be791d3981e"
"restaurant";"restaurant";"Pulau Tambarat";"Tlk. Nibung, Pulau Banyak, Kabupaten Aceh Singkil, Aceh";"Kabupaten Aceh Singkil, Aceh";"ACEH";"";"Indonesia";"";"2.3211111";"97.2241667";"https://maps.google.com/?cid=0x0:0xe4f9c0e6cfb5ca94"
"restaurant";"restaurant";"Ira bungalows";"Pulau Tambarat, Banyak Island, Aceh Singkil Regency, Aceh 24791";"Banyak Island, Aceh Singkil Regency";"ACEH";"24791";"Indonesia";"";"2.3187956";"97.2234801";"https://maps.google.com/?cid=0x0:0x924695d73cd46a73"
"restaurant";"Pertanian";"Tempat biasa";"Jl.lapangan mariam sipoli, Haloban, Kec. Pulau Banyak Bar., Kabupaten Aceh Singkil, Aceh 24784";"Haloban, Kec. Pulau Banyak Bar., Kabupaten Aceh Singkil";"ACEH";"24784";"Indonesia";" 082165940070";"2.152911";"97.2840888";"https://maps.google.com/?cid=0x0:0xe0bb8fe68157dbf1"
"restaurant";"Kafe";"BALAI INDAH CAFE";"8C45+X27, Jalan Surya, Pulau Balai, Pulau Banyak, Kabupaten Aceh Singkil, Aceh 24784";"Jalan Surya, Pulau Balai, Pulau Banyak, Kabupaten Aceh Singkil";"ACEH";"24784";"Indonesia";" 082361412840";"2.3074187";"97.4075619";"https://maps.google.com/?cid=0x0:0x8842e3de67e0f4"
"restaurant";"Kafe";"Warkop ksm";"Blok 6 Rimo, Haloban, Kec. Pulau Banyak Bar., Kabupaten Aceh Singkil, Aceh 24784";"Haloban, Kec. Pulau Banyak Bar., Kabupaten Aceh Singkil";"ACEH";"24784";"Indonesia";" 081536852647";"2.152911";"97.2840888";"https://maps.google.com/?cid=0x0:0x3156c9322009efb0"
"restaurant";"Kafe";"Warung ANDRA";"8C25+FW5, Pulau Balai, Pulau Banyak, Kabupaten Aceh Singkil, Aceh 24784";"Pulau Balai, Pulau Banyak, Kabupaten Aceh Singkil";"ACEH";"24784";"Indonesia";" 081211108045";"2.3011488";"97.4098439";"https://maps.google.com/?cid=0x0:0x836a45ce4c8929d6"
"restaurant";"Kedai Kopi";"Restoran  Depot Air BUMDes Teluk Nibung";"89RP+7HH, Pulau Ujung Batu, Tlk. Nibung, Pulau Banyak, Kabupaten Aceh Singkil, Aceh 24784";"Pulau Ujung Batu, Tlk. Nibung, Pulau Banyak, Kabupaten Aceh Singkil";"ACEH";"24784";"Indonesia";"";"2.3406972";"97.3864958";"https://maps.google.com/?cid=0x0:0x163c7f1f199c26d"
"restaurant";"restaurant";"Aceh 24783";"Kabupaten Aceh Singkil, Aceh";"Kabupaten Aceh Singkil, Aceh";"ACEH";"";"Indonesia";"";"2.4071732";"97.991986";"https://maps.google.com/?cid=0x0:0x4541045a0abeaf53"
"restaurant";"Rumah Makan";"Rumah Makan Blok 7";"C2M3+8PH, Sukarejo, Kec. Simpang Kanan, Kabupaten Aceh Singkil, Aceh 24783";"Sukarejo, Kec. Simpang Kanan, Kabupaten Aceh Singkil";"ACEH";"24783";"Indonesia";" 085261013779";"2.4333015";"98.0043744";"https://maps.google.com/?cid=0x0:0xde93c97639ff1469"
"restaurant";"Seblak";"KEDAI ANUGRAH BANDUNG";"CWFH+F23, Jl. Singkohor - Rimo, Bukit Harapan, Kec. Gn. Meriah, Kabupaten Aceh Singkil, Aceh 24783";"Jl. Singkohor - Rimo, Bukit Harapan, Kec. Gn. Meriah, Kabupaten Aceh Singkil";"ACEH";"24783";"Indonesia";" 085837603587";"2.4236469";"97.9275467";"https://maps.google.com/?cid=0x0:0x95fdba8906a2d7c4"
"restaurant";"Brunch";"Rumah Makan Gajah";"F337+HGW, Kuta Tinggi, Kec. Simpang Kanan, Kabupaten Aceh Singkil, Aceh 24783";"Kuta Tinggi, Kec. Simpang Kanan, Kabupaten Aceh Singkil";"ACEH";"24783";"Indonesia";" 081361116062";"2.4539843";"98.063818";"https://maps.google.com/?cid=0x0:0x9ae580ead2c5cfbf"
"restaurant";"Taman bermain";"Captain Mulya Cafe";"9XH6+WRJ, Lae Butar, Kec. Gn. Meriah, Kabupaten Aceh Singkil, Aceh";"Kabupaten Aceh Singkil, Aceh";"ACEH";"";"Indonesia";"";"2.3798259";"97.962005";"https://maps.google.com/?cid=0x0:0x7f0c2dce5867d875"
"restaurant";"Mi";"Mie Aceh Cek Mat";"C2VC+29Q, Siatas, Kec. Simpang Kanan, Kabupaten Aceh Singkil, Aceh 24782";"Siatas, Kec. Simpang Kanan, Kabupaten Aceh Singkil";"ACEH";"24782";"Indonesia";"";"2.4425866";"98.0209727";"https://maps.google.com/?cid=0x0:0x124e2a49f0865e7"
"restaurant";"Toko Swalayan";"Rumah Makan Sabena";"Pertabas, Kec. Simpang Kanan, Kabupaten Aceh Singkil, Aceh";"Kabupaten Aceh Singkil, Aceh";"ACEH";"";"Indonesia";" 085767973125";"2.4356798";"98.0468688";"https://maps.google.com/?cid=0x0:0x96cdfc395c17e5f4"
"restaurant";"Restoran";"Pondok Kelapa Ica";"CXRX+7MQ, Unnamed Road, Kuta Kerangan, Kec. Simpang Kanan, Kabupaten Aceh Singkil, Aceh 24791";"Unnamed Road, Kuta Kerangan, Kec. Simpang Kanan, Kabupaten Aceh Singkil";"ACEH";"24791";"Indonesia";"";"2.440718";"97.999231";"https://maps.google.com/?cid=0x0:0xa0b0a151b308399d"
"restaurant";"Padang";"Rumah Makan Cahaya Minang";"CXQR+982, Lipat Kajang Atas, Kec. Simpang Kanan, Kabupaten Aceh Singkil, Aceh 24791";"Lipat Kajang Atas, Kec. Simpang Kanan, Kabupaten Aceh Singkil";"ACEH";"24791";"Indonesia";"";"2.4383753";"97.9907791";"https://maps.google.com/?cid=0x0:0x11e929036cf2ccd"
"restaurant";"Restoran";"restoran udi";"94G6+99J, Situbuh-Tubuh, Kec. Danau Paris, Kabupaten Aceh Singkil, Aceh 24783";"Situbuh-Tubuh, Kec. Danau Paris, Kabupaten Aceh Singkil";"ACEH";"24783";"Indonesia";" 082267470043";"2.3759656";"98.1108805";"https://maps.google.com/?cid=0x0:0x2293ec7b69d0e7dd"
"restaurant";"Brunch";"Gimy Warung Jawa";"F33C+F5X, Kuta Tinggi, Kec. Simpang Kanan, Kabupaten Aceh Singkil, Aceh 24783";"Kuta Tinggi, Kec. Simpang Kanan, Kabupaten Aceh Singkil";"ACEH";"24783";"Indonesia";"";"2.4529434";"98.0703196";"https://maps.google.com/?cid=0x0:0x3bd51be61609ffeb"
"restaurant";"Padang";"Rm.rumah Gadang";"CX6F+WJ9, Tj. Betik, Kec. Gn. Meriah, Kabupaten Aceh Singkil, Aceh 24783";"Tj. Betik, Kec. Gn. Meriah, Kabupaten Aceh Singkil";"ACEH";"24783";"Indonesia";" 085359527200";"2.4122995";"97.9741249";"https://maps.google.com/?cid=0x0:0xb0e7d8e055a56a36"
"restaurant";"Brunch";"Rm.Berkat Yakin";"9XX8+22P, Rimo, Kec. Gn. Meriah, Kabupaten Aceh Singkil, Aceh 24791";"Rimo, Kec. Gn. Meriah, Kabupaten Aceh Singkil";"ACEH";"24791";"Indonesia";" 082386900093";"2.3975774";"97.9650772";"https://maps.google.com/?cid=0x0:0x1e892cec06df8303"
"restaurant";"Pujasera";"Cetaria Cafe  Resto";"Tulaan, Kec. Gn. Meriah, Kabupaten Aceh Singkil, Aceh 24791";"Kec. Gn. Meriah, Kabupaten Aceh Singkil";"ACEH";"24791";"Indonesia";" 089528289986";"2.3892158";"97.96561";"https://maps.google.com/?cid=0x0:0x33e55278666a69ec"
"restaurant";"restaurant";"Riau 28992";"Kabupaten Rokan Hilir, Riau";"Kabupaten Rokan Hilir, Riau";"ACEH";"";"Indonesia";"";"1.6089504";"100.6647101";"https://maps.google.com/?cid=0x0:0x2b7f1924f159497b"
"restaurant";"Padang";"Rumah Makan Cahaya Minang";"CXQR+982, Lipat Kajang Atas, Kec. Simpang Kanan, Kabupaten Aceh Singkil, Aceh 24791";"Lipat Kajang Atas, Kec. Simpang Kanan, Kabupaten Aceh Singkil";"ACEH";"24791";"Indonesia";"";"2.4383753";"97.9907791";"https://maps.google.com/?cid=0x0:0x11e929036cf2ccd"
"restaurant";"restaurant";"RM CIMPAGO MINANG";"CXQR+C45, Lipat Kajang Atas, Kec. Simpang Kanan, Kabupaten Aceh Singkil, Aceh 24791";"Lipat Kajang Atas, Kec. Simpang Kanan, Kabupaten Aceh Singkil";"ACEH";"24791";"Indonesia";"";"2.4385087";"97.9903638";"https://maps.google.com/?cid=0x0:0x7138d1b807fa55d3"
"restaurant";"Restoran";"Pondok Kelapa Ica";"CXRX+7MQ, Unnamed Road, Kuta Kerangan, Kec. Simpang Kanan, Kabupaten Aceh Singkil, Aceh 24791";"Unnamed Road, Kuta Kerangan, Kec. Simpang Kanan, Kabupaten Aceh Singkil";"ACEH";"24791";"Indonesia";"";"2.440718";"97.999231";"https://maps.google.com/?cid=0x0:0xa0b0a151b308399d"
"restaurant";"Mi";"Mie Aceh Cek Mat";"C2VC+29Q, Siatas, Kec. Simpang Kanan, Kabupaten Aceh Singkil, Aceh 24782";"Siatas, Kec. Simpang Kanan, Kabupaten Aceh Singkil";"ACEH";"24782";"Indonesia";"";"2.4425866";"98.0209727";"https://maps.google.com/?cid=0x0:0x124e2a49f0865e7"
"restaurant";"Jawa";"Warung "MBAK "IYAM"";"C2RJ+5CH, Unnamed Road, Siatas, Kec. Simpang Kanan, Kabupaten Aceh Singkil, Aceh 24784";"Unnamed Road, Siatas, Kec. Simpang Kanan, Kabupaten Aceh Singkil";"ACEH";"24784";"Indonesia";"";"2.4404347";"98.0311007";"https://maps.google.com/?cid=0x0:0xca74929a1d640389"
"restaurant";"Rumah Makan";"Rumah Makan Blok 7";"C2M3+8PH, Sukarejo, Kec. Simpang Kanan, Kabupaten Aceh Singkil, Aceh 24783";"Sukarejo, Kec. Simpang Kanan, Kabupaten Aceh Singkil";"ACEH";"24783";"Indonesia";" 085261013779";"2.4333015";"98.0043744";"https://maps.google.com/?cid=0x0:0xde93c97639ff1469"
"restaurant";"Brunch";"Rumah Makan Gajah";"F337+HGW, Kuta Tinggi, Kec. Simpang Kanan, Kabupaten Aceh Singkil, Aceh 24783";"Kuta Tinggi, Kec. Simpang Kanan, Kabupaten Aceh Singkil";"ACEH";"24783";"Indonesia";" 081361116062";"2.4539843";"98.063818";"https://maps.google.com/?cid=0x0:0x9ae580ead2c5cfbf"
"restaurant";"Kedai Kopi";"Warung Karim";"F33C+F5X, Kuta Tinggi, Kec. Simpang Kanan, Kabupaten Aceh Singkil, Aceh 24783";"Kuta Tinggi, Kec. Simpang Kanan, Kabupaten Aceh Singkil";"ACEH";"24783";"Indonesia";"";"2.453797";"98.0707616";"https://maps.google.com/?cid=0x0:0x74082ab3bcad7509"
"restaurant";"Kedai Kopi";"Post Cofie Cafe";"CXQR+5MM, Lipat Kajang Atas, Kec. Simpang Kanan, Kabupaten Aceh Singkil, Aceh 24791";"Lipat Kajang Atas, Kec. Simpang Kanan, Kabupaten Aceh Singkil";"ACEH";"24791";"Indonesia";" 085276076789";"2.4379723";"97.9916645";"https://maps.google.com/?cid=0x0:0xd8e38a2fcfe8b9c5"
"restaurant";"Kedai Kopi";"Warung Parmadi Berutu";"C2R3+V44, Kuta Kerangan, Kec. Simpang Kanan, Kabupaten Aceh Singkil, Aceh 24791";"Kuta Kerangan, Kec. Simpang Kanan, Kabupaten Aceh Singkil";"ACEH";"24791";"Indonesia";"";"2.4421409";"98.002836";"https://maps.google.com/?cid=0x0:0x6f45233bfe4005e1"
"restaurant";"Nasi";"Warteg Mak Yanti";"C2V4+C64, Unnamed Road, Kuta Kerangan, Kec. Simpang Kanan, Kabupaten Aceh Singkil, Aceh 24791";"Unnamed Road, Kuta Kerangan, Kec. Simpang Kanan, Kabupaten Aceh Singkil";"ACEH";"24791";"Indonesia";" 081225255964";"2.4435119";"98.0055925";"https://maps.google.com/?cid=0x0:0x7f9b89ace9711514"
"restaurant";"Mi";"Mie Aceh Iswani";"C2R7+WJH, Pandan Sari, Kec. Simpang Kanan, Kabupaten Aceh Singkil, Aceh 24782";"Pandan Sari, Kec. Simpang Kanan, Kabupaten Aceh Singkil";"ACEH";"24782";"Indonesia";"";"2.4423009";"98.0141123";"https://maps.google.com/?cid=0x0:0x44de1bf465bf9ac3"
"restaurant";"Toko Swalayan";"Rumah Makan Sabena";"Pertabas, Kec. Simpang Kanan, Kabupaten Aceh Singkil, Aceh";"Kabupaten Aceh Singkil, Aceh";"ACEH";"";"Indonesia";" 085767973125";"2.4356798";"98.0468688";"https://maps.google.com/?cid=0x0:0x96cdfc395c17e5f4"
"restaurant";"restaurant";"Aceh 24785";"Kec. Kota Baharu, Kabupaten Aceh Singkil, Aceh";"Kabupaten Aceh Singkil, Aceh";"ACEH";"";"Indonesia";"";"2.4523065";"97.8123224";"https://maps.google.com/?cid=0x0:0x571276798298d3f5"
"restaurant";"Restoran";"Ningrat Cafe";"9XR8+288, Unnamed Road, Tulaan, Kec. Gn. Meriah, Kabupaten Aceh Singkil, Aceh 24791";"Unnamed Road, Tulaan, Kec. Gn. Meriah, Kabupaten Aceh Singkil";"ACEH";"24791";"Indonesia";" 081370826783";"2.3900399";"97.965837";"https://maps.google.com/?cid=0x0:0x5cb3392971a6564"
"restaurant";"Tujuan Wisata";"Danau Bungara Pelempoh Leja";"FVV3+3XG, Danau Bungara, Kec. Kota Baharu, Kabupaten Aceh Singkil, Aceh 24782";"Danau Bungara, Kec. Kota Baharu, Kabupaten Aceh Singkil";"ACEH";"24782";"Indonesia";" 082360142716";"2.4926843";"97.8549385";"https://maps.google.com/?cid=0x0:0x53b39fdc30c81a7"
"restaurant";"Restoran";"Warung berkah";"HV36+R2R, Mukti Lincir, Kec. Kota Baharu, Kabupaten Aceh Singkil, Aceh";"Kabupaten Aceh Singkil, Aceh";"ACEH";"";"Indonesia";"";"2.5546059";"97.860009";"https://maps.google.com/?cid=0x0:0xc3cba57aae802d4f"
"restaurant";"Taman bermain";"Captain Mulya Cafe";"9XH6+WRJ, Lae Butar, Kec. Gn. Meriah, Kabupaten Aceh Singkil, Aceh";"Kabupaten Aceh Singkil, Aceh";"ACEH";"";"Indonesia";"";"2.3798259";"97.962005";"https://maps.google.com/?cid=0x0:0x7f0c2dce5867d875"
"restaurant";"Nasi";"Pulau Tengah";"FVQ2+FJF, Danau Bungara, Kec. Kota Baharu, Kabupaten Aceh Singkil, Aceh 24782";"Danau Bungara, Kec. Kota Baharu, Kabupaten Aceh Singkil";"ACEH";"24782";"Indonesia";" 082360142716";"2.4886858";"97.8515407";"https://maps.google.com/?cid=0x0:0xe1bf1d740175adbd"
"restaurant";"Restoran";"Amri Angkat";"FVW2+325, Danau Bungara, Kec. Kota Baharu, Kabupaten Aceh Singkil, Aceh 24782";"Danau Bungara, Kec. Kota Baharu, Kabupaten Aceh Singkil";"ACEH";"24782";"Indonesia";" 082217711281";"2.4951298";"97.850108";"https://maps.google.com/?cid=0x0:0x5f7769931be9c6d1"
"restaurant";"Sesuai untuk keluarga";"Warung Kopi Penatapen Lingga";"FVV4+82P, Cut Nyak Dhien, Danau Bungara, Kec. Kota Baharu, Kabupaten Aceh Singkil, Aceh 24782";"Cut Nyak Dhien, Danau Bungara, Kec. Kota Baharu, Kabupaten Aceh Singkil";"ACEH";"24782";"Indonesia";" 085763199010";"2.4933341";"97.8550693";"https://maps.google.com/?cid=0x0:0x283d82f65bf02c13"
"restaurant";"Bakso";"Warung Eyang";"FVR5+M45, Danau Bungara, Kec. Kota Baharu, Kabupaten Aceh Singkil, Aceh 24782";"Danau Bungara, Kec. Kota Baharu, Kabupaten Aceh Singkil";"ACEH";"24782";"Indonesia";" 085835433960";"2.4916386";"97.8578505";"https://maps.google.com/?cid=0x0:0xe1f1b35a02c1b2"
"restaurant";"Nasi";"Dapur Bos Wi";"Lae Butar, Kec. Gn. Meriah, Kabupaten Aceh Singkil, Aceh 24751";"Kec. Gn. Meriah, Kabupaten Aceh Singkil";"ACEH";"24751";"Indonesia";" 082267048578";"2.3816295";"97.9562555";"https://maps.google.com/?cid=0x0:0xc1e16a76ce76fb33"
"restaurant";"Rumah Makan";"Rumah Makan Muslim";"7RC5+QHM, Jl. Bahari, Pulo Sarok, Kec. Singkil, Kabupaten Aceh Singkil, Aceh 24472";"Jl. Bahari, Pulo Sarok, Kec. Singkil, Kabupaten Aceh Singkil";"ACEH";"24472";"Indonesia";" 081362997058";"2.271971";"97.8089153";"https://maps.google.com/?cid=0x0:0xa364ec05bee64d13"
"restaurant";"Restoran";"Munthe Coffee";"FVV3+F7R, Danau Bungara, Kec. Kota Baharu, Kabupaten Aceh Singkil, Aceh 24782";"Danau Bungara, Kec. Kota Baharu, Kabupaten Aceh Singkil";"ACEH";"24782";"Indonesia";" 081534508839";"2.4937439";"97.85313";"https://maps.google.com/?cid=0x0:0x768ea60a18260e27"
"restaurant";"Kedai Kopi";"Longkib";"HVR2+77J, Lae Saga, Kec. Longkib, Kota Subulussalam, Aceh 24785";"Lae Saga, Kec. Longkib, Kota Subulussalam";"ACEH";"24785";"Indonesia";"";"2.5907225";"97.8506502";"https://maps.google.com/?cid=0x0:0x7afa2488f2647756"
"restaurant";"Rumah Makan";"MIZYAN CAFE  RESTO";"Jl. Bahari No.55, Pulo Sarok, Kec. Singkil, Kabupaten Aceh Singkil, Aceh 24472";"Pulo Sarok, Kec. Singkil, Kabupaten Aceh Singkil";"ACEH";"24472";"Indonesia";" 082276362637";"2.2743224";"97.8102879";"https://maps.google.com/?cid=0x0:0x8c3eedbbb6fa4123"
"restaurant";"restaurant";"Singkil";"Kec. Singkil, Kabupaten Aceh Singkil, Aceh";"Kabupaten Aceh Singkil, Aceh";"ACEH";"";"Indonesia";"";"2.2836143";"97.79873";"https://maps.google.com/?cid=0x0:0x4039d80b220d230"
"restaurant";"Padang";"RM Barokah";"7RC6+CPJ, Pulo Sarok, Kec. Singkil, Kabupaten Aceh Singkil, Aceh 24472";"Pulo Sarok, Kec. Singkil, Kabupaten Aceh Singkil";"ACEH";"24472";"Indonesia";" 085669094201";"2.2710911";"97.8117641";"https://maps.google.com/?cid=0x0:0xdac8d2c7374b6579"
"restaurant";"Rumah Makan";"Rumah Makan Arum - Ayum Cafe";"7RC4+WWX, Pulo Sarok, Kec. Singkil, Kabupaten Aceh Singkil, Aceh 24472";"Pulo Sarok, Kec. Singkil, Kabupaten Aceh Singkil";"ACEH";"24472";"Indonesia";"";"2.2723656";"97.8073673";"https://maps.google.com/?cid=0x0:0xc870ea17d2eb152e"
"restaurant";"Restoran";"RM Maghfira";"7RH4+8G9, Pulo Sarok, Kec. Singkil, Kabupaten Aceh Singkil, Aceh 24472";"Pulo Sarok, Kec. Singkil, Kabupaten Aceh Singkil";"ACEH";"24472";"Indonesia";" 081361913711";"2.2782946";"97.8063745";"https://maps.google.com/?cid=0x0:0x90e9adb6f1dae7c0"
"restaurant";"Rumah Makan";"ACUFOOD";"JL. Singkil Subulussalam, Km. 22, Kampung Baru, 23785, Pulo Sarok, Kec. Singkil, Kabupaten Aceh Singkil, Aceh 24472";"Kampung Baru,";"ACEH";"23785";"Indonesia";" 082321785828";"2.2807016";"97.8006219";"https://maps.google.com/?cid=0x0:0x6f2e16bf1e8bea18"
"restaurant";"Rumah Makan";"RH";"7RG6+FWP, Pulo Sarok, Kec. Singkil, Kabupaten Aceh Singkil, Aceh 24472";"Pulo Sarok, Kec. Singkil, Kabupaten Aceh Singkil";"ACEH";"24472";"Indonesia";" 082276362637";"2.2762167";"97.8123224";"https://maps.google.com/?cid=0x0:0xe2195d139e39172"
"restaurant";"Rumah Makan";"Rumah Makan Muslim";"7RC5+QHM, Jl. Bahari, Pulo Sarok, Kec. Singkil, Kabupaten Aceh Singkil, Aceh 24472";"Jl. Bahari, Pulo Sarok, Kec. Singkil, Kabupaten Aceh Singkil";"ACEH";"24472";"Indonesia";" 081362997058";"2.271971";"97.8089153";"https://maps.google.com/?cid=0x0:0xa364ec05bee64d13"
"restaurant";"Sarapan";"Fakhry Catering";"7RH4+MJ5, Pulo Sarok, Kec. Singkil, Kabupaten Aceh Singkil, Aceh 24472";"Pulo Sarok, Kec. Singkil, Kabupaten Aceh Singkil";"ACEH";"24472";"Indonesia";"";"2.2791459";"97.8066029";"https://maps.google.com/?cid=0x0:0xb59534022c820aca"
"restaurant";"Rumah Makan";"Waroeng Ikhlas";"Pulo Sarok, Kec. Singkil, Kabupaten Aceh Singkil, Aceh 24472";"Kec. Singkil, Kabupaten Aceh Singkil";"ACEH";"24472";"Indonesia";" 082161199849";"2.279301";"97.8040427";"https://maps.google.com/?cid=0x0:0xe9d243bff42ec42b"
"restaurant";"Brunch";"Warung Sate Etek Yun";"7RC4+PXM, Pulo Sarok, Kec. Singkil, Kabupaten Aceh Singkil, Aceh 24472";"Pulo Sarok, Kec. Singkil, Kabupaten Aceh Singkil";"ACEH";"24472";"Indonesia";" 085207249919";"2.2718404";"97.8074138";"https://maps.google.com/?cid=0x0:0x2efd8004a7c5f7bc"
"restaurant";"Restoran";"Rumah makan indah";"JL. M. Taher No.Ujung, Ujung, Singkil, Aceh Singkil Regency, Aceh 24472";"Ujung, Singkil, Aceh Singkil Regency";"ACEH";"24472";"Indonesia";" 081241253064";"2.285876";"97.782719";"https://maps.google.com/?cid=0x0:0x23444e78cad2cea4"
"restaurant";"Kafetaria";"Usaha Fisius Jual Beli Kepiting";"Jl. Utama No.75, Pulo Sarok, Kec. Singkil, Kabupaten Aceh Singkil, Aceh 24472";"Pulo Sarok, Kec. Singkil, Kabupaten Aceh Singkil";"ACEH";"24472";"Indonesia";" 085360045356";"2.2809054";"97.8003137";"https://maps.google.com/?cid=0x0:0x12ead3431b23dfd0"
"restaurant";"Rumah Makan";"Waroeng Cirasa";"Jl. Bahari No.55, Pulo Sarok, Kec. Singkil, Kabupaten Aceh Singkil, Aceh 24472";"Pulo Sarok, Kec. Singkil, Kabupaten Aceh Singkil";"ACEH";"24472";"Indonesia";"";"2.2700243";"97.8170776";"https://maps.google.com/?cid=0x0:0x84c4687892ff6a2"
"restaurant";"Dapur Umum";"Mie Kak Cimpin";"Jl. Bahari No.55, Pulo Sarok, Kec. Singkil, Kabupaten Aceh Singkil, Aceh 24472";"Pulo Sarok, Kec. Singkil, Kabupaten Aceh Singkil";"ACEH";"24472";"Indonesia";"";"2.2821185";"97.7965023";"https://maps.google.com/?cid=0x0:0xcf5e7950a76e59dd"
"restaurant";"restaurant";"Singkil";"Kec. Singkil, Kabupaten Aceh Singkil, Aceh";"Kabupaten Aceh Singkil, Aceh";"ACEH";"";"Indonesia";"";"2.2836143";"97.79873";"https://maps.google.com/?cid=0x0:0x4039d80b220d230"
"restaurant";"Padang";"RM Barokah";"7RC6+CPJ, Pulo Sarok, Kec. Singkil, Kabupaten Aceh Singkil, Aceh 24472";"Pulo Sarok, Kec. Singkil, Kabupaten Aceh Singkil";"ACEH";"24472";"Indonesia";" 085669094201";"2.2710911";"97.8117641";"https://maps.google.com/?cid=0x0:0xdac8d2c7374b6579"
"restaurant";"Rumah Makan";"Rumah Makan Arum - Ayum Cafe";"7RC4+WWX, Pulo Sarok, Kec. Singkil, Kabupaten Aceh Singkil, Aceh 24472";"Pulo Sarok, Kec. Singkil, Kabupaten Aceh Singkil";"ACEH";"24472";"Indonesia";"";"2.2723656";"97.8073673";"https://maps.google.com/?cid=0x0:0xc870ea17d2eb152e"
"restaurant";"Restoran";"Bakso Jakarta Bang Hen";"7RH3+8Q9, Jl. Singkil - Rimo, Pulo Sarok, Kec. Singkil, Kabupaten Aceh Singkil, Aceh 24472";"Jl. Singkil - Rimo, Pulo Sarok, Kec. Singkil, Kabupaten Aceh Singkil";"ACEH";"24472";"Indonesia";" 087769109824";"2.2782866";"97.8044816";"https://maps.google.com/?cid=0x0:0xd0eb6cb5603f6564"
"restaurant";"Kafe";"SENINA CAFE";"Pulo Sarok, Kec. Singkil, Kabupaten Aceh Singkil, Aceh 24472";"Kec. Singkil, Kabupaten Aceh Singkil";"ACEH";"24472";"Indonesia";" 0822290192547";"2.271765";"97.8076276";"https://maps.google.com/?cid=0x0:0xc217be492a5edc6a"
"restaurant";"Restoran";"RM Maghfira";"7RH4+8G9, Pulo Sarok, Kec. Singkil, Kabupaten Aceh Singkil, Aceh 24472";"Pulo Sarok, Kec. Singkil, Kabupaten Aceh Singkil";"ACEH";"24472";"Indonesia";" 081361913711";"2.2782946";"97.8063745";"https://maps.google.com/?cid=0x0:0x90e9adb6f1dae7c0"
"restaurant";"Kedai Kopi";"Kayla Cafe";"7RG3+38X, Pulo Sarok, Kec. Singkil, Kabupaten Aceh Singkil, Aceh 24472";"Pulo Sarok, Kec. Singkil, Kabupaten Aceh Singkil";"ACEH";"24472";"Indonesia";" 082168267626";"2.2752447";"97.8033708";"https://maps.google.com/?cid=0x0:0xf1a9a9d93806eaf1"
"restaurant";"Rumah Makan";"Rumah Makan Muslim";"7RC5+QHM, Jl. Bahari, Pulo Sarok, Kec. Singkil, Kabupaten Aceh Singkil, Aceh 24472";"Jl. Bahari, Pulo Sarok, Kec. Singkil, Kabupaten Aceh Singkil";"ACEH";"24472";"Indonesia";" 081362997058";"2.271971";"97.8089153";"https://maps.google.com/?cid=0x0:0xa364ec05bee64d13"
"restaurant";"Brunch";"Warung Sate Etek Yun";"7RC4+PXM, Pulo Sarok, Kec. Singkil, Kabupaten Aceh Singkil, Aceh 24472";"Pulo Sarok, Kec. Singkil, Kabupaten Aceh Singkil";"ACEH";"24472";"Indonesia";" 085207249919";"2.2718404";"97.8074138";"https://maps.google.com/?cid=0x0:0x2efd8004a7c5f7bc"
"restaurant";"Rumah Makan";"Waroeng Cirasa";"Jl. Bahari No.55, Pulo Sarok, Kec. Singkil, Kabupaten Aceh Singkil, Aceh 24472";"Pulo Sarok, Kec. Singkil, Kabupaten Aceh Singkil";"ACEH";"24472";"Indonesia";"";"2.2700243";"97.8170776";"https://maps.google.com/?cid=0x0:0x84c4687892ff6a2"
"restaurant";"Kedai Kopi";"Putra Keumala Dua Cafe";"7RC4+X5P, Jl. Bahari, Pulo Sarok, Kec. Singkil, Kabupaten Aceh Singkil, Aceh 24472";"Jl. Bahari, Pulo Sarok, Kec. Singkil, Kabupaten Aceh Singkil";"ACEH";"24472";"Indonesia";"";"2.2724619";"97.8054377";"https://maps.google.com/?cid=0x0:0x942f8d1060eee01b"
"restaurant";"Rumah Makan";"Waroeng Ikhlas";"Pulo Sarok, Kec. Singkil, Kabupaten Aceh Singkil, Aceh 24472";"Kec. Singkil, Kabupaten Aceh Singkil";"ACEH";"24472";"Indonesia";" 082161199849";"2.279301";"97.8040427";"https://maps.google.com/?cid=0x0:0xe9d243bff42ec42b"
"restaurant";"Sarapan";"Fakhry Catering";"7RH4+MJ5, Pulo Sarok, Kec. Singkil, Kabupaten Aceh Singkil, Aceh 24472";"Pulo Sarok, Kec. Singkil, Kabupaten Aceh Singkil";"ACEH";"24472";"Indonesia";"";"2.2791459";"97.8066029";"https://maps.google.com/?cid=0x0:0xb59534022c820aca"
"restaurant";"Rumah Makan";"RH";"7RG6+FWP, Pulo Sarok, Kec. Singkil, Kabupaten Aceh Singkil, Aceh 24472";"Pulo Sarok, Kec. Singkil, Kabupaten Aceh Singkil";"ACEH";"24472";"Indonesia";" 082276362637";"2.2762167";"97.8123224";"https://maps.google.com/?cid=0x0:0xe2195d139e39172"
"restaurant";"restaurant";"Singkil";"Kec. Singkil, Kabupaten Aceh Singkil, Aceh";"Kabupaten Aceh Singkil, Aceh";"ACEH";"";"Indonesia";"";"2.2836143";"97.79873";"https://maps.google.com/?cid=0x0:0x4039d80b220d230"
"restaurant";"Padang";"RM Barokah";"7RC6+CPJ, Pulo Sarok, Kec. Singkil, Kabupaten Aceh Singkil, Aceh 24472";"Pulo Sarok, Kec. Singkil, Kabupaten Aceh Singkil";"ACEH";"24472";"Indonesia";" 085669094201";"2.2710911";"97.8117641";"https://maps.google.com/?cid=0x0:0xdac8d2c7374b6579"
"restaurant";"Rumah Makan";"ACUFOOD";"JL. Singkil Subulussalam, Km. 22, Kampung Baru, 23785, Pulo Sarok, Kec. Singkil, Kabupaten Aceh Singkil, Aceh 24472";"Kampung Baru,";"ACEH";"23785";"Indonesia";" 082321785828";"2.2807016";"97.8006219";"https://maps.google.com/?cid=0x0:0x6f2e16bf1e8bea18"
"restaurant";"Restoran";"RM Maghfira";"7RH4+8G9, Pulo Sarok, Kec. Singkil, Kabupaten Aceh Singkil, Aceh 24472";"Pulo Sarok, Kec. Singkil, Kabupaten Aceh Singkil";"ACEH";"24472";"Indonesia";" 081361913711";"2.2782946";"97.8063745";"https://maps.google.com/?cid=0x0:0x90e9adb6f1dae7c0"
"restaurant";"Restoran";"Bakso Jakarta Bang Hen";"7RH3+8Q9, Jl. Singkil - Rimo, Pulo Sarok, Kec. Singkil, Kabupaten Aceh Singkil, Aceh 24472";"Jl. Singkil - Rimo, Pulo Sarok, Kec. Singkil, Kabupaten Aceh Singkil";"ACEH";"24472";"Indonesia";" 087769109824";"2.2782866";"97.8044816";"https://maps.google.com/?cid=0x0:0xd0eb6cb5603f6564"
"restaurant";"Kafe";"SENINA CAFE";"Pulo Sarok, Kec. Singkil, Kabupaten Aceh Singkil, Aceh 24472";"Kec. Singkil, Kabupaten Aceh Singkil";"ACEH";"24472";"Indonesia";" 0822290192547";"2.271765";"97.8076276";"https://maps.google.com/?cid=0x0:0xc217be492a5edc6a"
"restaurant";"Kedai Kopi";"Kayla Cafe";"7RG3+38X, Pulo Sarok, Kec. Singkil, Kabupaten Aceh Singkil, Aceh 24472";"Pulo Sarok, Kec. Singkil, Kabupaten Aceh Singkil";"ACEH";"24472";"Indonesia";" 082168267626";"2.2752447";"97.8033708";"https://maps.google.com/?cid=0x0:0xf1a9a9d93806eaf1"
"restaurant";"Sarapan";"Fakhry Catering";"7RH4+MJ5, Pulo Sarok, Kec. Singkil, Kabupaten Aceh Singkil, Aceh 24472";"Pulo Sarok, Kec. Singkil, Kabupaten Aceh Singkil";"ACEH";"24472";"Indonesia";"";"2.2791459";"97.8066029";"https://maps.google.com/?cid=0x0:0xb59534022c820aca"
"restaurant";"Brunch";"Warung Sate Etek Yun";"7RC4+PXM, Pulo Sarok, Kec. Singkil, Kabupaten Aceh Singkil, Aceh 24472";"Pulo Sarok, Kec. Singkil, Kabupaten Aceh Singkil";"ACEH";"24472";"Indonesia";" 085207249919";"2.2718404";"97.8074138";"https://maps.google.com/?cid=0x0:0x2efd8004a7c5f7bc"
"restaurant";"Rumah Makan";"Rumah Makan Muslim";"7RC5+QHM, Jl. Bahari, Pulo Sarok, Kec. Singkil, Kabupaten Aceh Singkil, Aceh 24472";"Jl. Bahari, Pulo Sarok, Kec. Singkil, Kabupaten Aceh Singkil";"ACEH";"24472";"Indonesia";" 081362997058";"2.271971";"97.8089153";"https://maps.google.com/?cid=0x0:0xa364ec05bee64d13"
"restaurant";"Kafetaria";"Usaha Fisius Jual Beli Kepiting";"Jl. Utama No.75, Pulo Sarok, Kec. Singkil, Kabupaten Aceh Singkil, Aceh 24472";"Pulo Sarok, Kec. Singkil, Kabupaten Aceh Singkil";"ACEH";"24472";"Indonesia";" 085360045356";"2.2809054";"97.8003137";"https://maps.google.com/?cid=0x0:0x12ead3431b23dfd0"
"restaurant";"Rumah Makan";"Waroeng Cirasa";"Jl. Bahari No.55, Pulo Sarok, Kec. Singkil, Kabupaten Aceh Singkil, Aceh 24472";"Pulo Sarok, Kec. Singkil, Kabupaten Aceh Singkil";"ACEH";"24472";"Indonesia";"";"2.2700243";"97.8170776";"https://maps.google.com/?cid=0x0:0x84c4687892ff6a2"
"restaurant";"Kedai Kopi";"Putra Keumala Dua Cafe";"7RC4+X5P, Jl. Bahari, Pulo Sarok, Kec. Singkil, Kabupaten Aceh Singkil, Aceh 24472";"Jl. Bahari, Pulo Sarok, Kec. Singkil, Kabupaten Aceh Singkil";"ACEH";"24472";"Indonesia";"";"2.2724619";"97.8054377";"https://maps.google.com/?cid=0x0:0x942f8d1060eee01b"
"restaurant";"Rumah Makan";"Warung Kupie Raja Singkil";"7RC7+2V2, Jl. Singkil - Rimo, Pulo Sarok, Kec. Singkil, Kabupaten Aceh Singkil, Aceh 24472";"Jl. Singkil - Rimo, Pulo Sarok, Kec. Singkil, Kabupaten Aceh Singkil";"ACEH";"24472";"Indonesia";"";"2.2700182";"97.8146364";"https://maps.google.com/?cid=0x0:0xc31c43d3db3318cb"
"restaurant";"restaurant";"Aceh 24785";"Kec. Kota Baharu, Kabupaten Aceh Singkil, Aceh";"Kabupaten Aceh Singkil, Aceh";"ACEH";"";"Indonesia";"";"2.4523065";"97.8123224";"https://maps.google.com/?cid=0x0:0x571276798298d3f5"
"restaurant";"Restoran";"Ningrat Cafe";"9XR8+288, Unnamed Road, Tulaan, Kec. Gn. Meriah, Kabupaten Aceh Singkil, Aceh 24791";"Unnamed Road, Tulaan, Kec. Gn. Meriah, Kabupaten Aceh Singkil";"ACEH";"24791";"Indonesia";" 081370826783";"2.3900399";"97.965837";"https://maps.google.com/?cid=0x0:0x5cb3392971a6564"
"restaurant";"Kafe";"Kiniko Duo";"7VCC+V47, Gosong Telaga Bar., Kec. Singkil Utara, Kabupaten Aceh Singkil, Aceh 24472";"Gosong Telaga Bar., Kec. Singkil Utara, Kabupaten Aceh Singkil";"ACEH";"24472";"Indonesia";"";"2.2721512";"97.8702926";"https://maps.google.com/?cid=0x0:0xde6d0fa3c12e9b86"
"restaurant";"Seblak";"KEDAI ANUGRAH BANDUNG";"CWFH+F23, Jl. Singkohor - Rimo, Bukit Harapan, Kec. Gn. Meriah, Kabupaten Aceh Singkil, Aceh 24783";"Jl. Singkohor - Rimo, Bukit Harapan, Kec. Gn. Meriah, Kabupaten Aceh Singkil";"ACEH";"24783";"Indonesia";" 085837603587";"2.4236469";"97.9275467";"https://maps.google.com/?cid=0x0:0x95fdba8906a2d7c4"
"restaurant";"Tujuan Wisata";"Danau Bungara Pelempoh Leja";"FVV3+3XG, Danau Bungara, Kec. Kota Baharu, Kabupaten Aceh Singkil, Aceh 24782";"Danau Bungara, Kec. Kota Baharu, Kabupaten Aceh Singkil";"ACEH";"24782";"Indonesia";" 082360142716";"2.4926843";"97.8549385";"https://maps.google.com/?cid=0x0:0x53b39fdc30c81a7"
"restaurant";"Hidangan Laut";"KINIKO SATU CAFE";"7WM4+8P3, Jl. Singkil - Rimo, Ketapang Indah, Kec. Singkil Utara, Kabupaten Aceh Singkil, Aceh 24472";"Jl. Singkil - Rimo, Ketapang Indah, Kec. Singkil Utara, Kabupaten Aceh Singkil";"ACEH";"24472";"Indonesia";"";"2.2832538";"97.9067817";"https://maps.google.com/?cid=0x0:0xa668b3f43ccee7d5"
"restaurant";"Nasi";"Pulau Tengah";"FVQ2+FJF, Danau Bungara, Kec. Kota Baharu, Kabupaten Aceh Singkil, Aceh 24782";"Danau Bungara, Kec. Kota Baharu, Kabupaten Aceh Singkil";"ACEH";"24782";"Indonesia";" 082360142716";"2.4886858";"97.8515407";"https://maps.google.com/?cid=0x0:0xe1bf1d740175adbd"
"restaurant";"Kafe";"SENINA CAFE";"Pulo Sarok, Kec. Singkil, Kabupaten Aceh Singkil, Aceh 24472";"Kec. Singkil, Kabupaten Aceh Singkil";"ACEH";"24472";"Indonesia";" 0822290192547";"2.271765";"97.8076276";"https://maps.google.com/?cid=0x0:0xc217be492a5edc6a"
"restaurant";"Toko bahan makanan";"Kedai Kang Rawes";"GVFW+8WQ, Mukti Harapan, Kec. Singkohor, Kabupaten Aceh Singkil, Aceh 24472";"Mukti Harapan, Kec. Singkohor, Kabupaten Aceh Singkil";"ACEH";"24472";"Indonesia";"";"2.5233411";"97.897374";"https://maps.google.com/?cid=0x0:0xe0a024d9e9615a76"
"restaurant";"Restoran";"Warung berkah";"HV36+R2R, Mukti Lincir, Kec. Kota Baharu, Kabupaten Aceh Singkil, Aceh";"Kabupaten Aceh Singkil, Aceh";"ACEH";"";"Indonesia";"";"2.5546059";"97.860009";"https://maps.google.com/?cid=0x0:0xc3cba57aae802d4f"
"restaurant";"Kafe";"PONDOK SARAPAN PAGI KAK VIE";"Jl. Singkil - Rimo No.Km, RW.16, Ketapang Indah, Kec. Singkil Utara, Kabupaten Aceh Singkil, Aceh 24472";"RW.16, Ketapang Indah, Kec. Singkil Utara, Kabupaten Aceh Singkil";"ACEH";"24472";"Indonesia";" 082290859095";"2.278918";"97.9427945";"https://maps.google.com/?cid=0x0:0x8aa04c174412a109"
"restaurant";"Rumah Makan";"WARUNG PIANO";"PELABUHAN PENYEBERANGAN, Pulo Sarok, Kec. Singkil, Kabupaten Aceh Singkil, Aceh 24785";"Pulo Sarok, Kec. Singkil, Kabupaten Aceh Singkil";"ACEH";"24785";"Indonesia";" 081370321109";"2.2697955";"97.8117808";"https://maps.google.com/?cid=0x0:0x8fa2518ab8e14b47"
"restaurant";"Kafe";"Tongkrongan Kelapa";"Jl. TR Angkasah, Tanah Bara, Kec. Gn. Meriah, Kabupaten Aceh Singkil, Aceh 24785";"Tanah Bara, Kec. Gn. Meriah, Kabupaten Aceh Singkil";"ACEH";"24785";"Indonesia";" 0895325741038";"2.3796606";"97.9543333";"https://maps.google.com/?cid=0x0:0x72e16bc30693a0dc"
"restaurant";"Taman bermain";"Captain Mulya Cafe";"9XH6+WRJ, Lae Butar, Kec. Gn. Meriah, Kabupaten Aceh Singkil, Aceh";"Kabupaten Aceh Singkil, Aceh";"ACEH";"";"Indonesia";"";"2.3798259";"97.962005";"https://maps.google.com/?cid=0x0:0x7f0c2dce5867d875"
"restaurant";"restaurant";"Aceh 24784";"Kabupaten Aceh Singkil, Aceh";"Kabupaten Aceh Singkil, Aceh";"ACEH";"";"Indonesia";"";"2.152911";"97.2840888";"https://maps.google.com/?cid=0x0:0xab521459bf3c978c"
"restaurant";"Kafe";"Cafe PODOMORO";"GWCJ+V8G, Singkohor, Kec. Singkohor, Kabupaten Aceh Singkil, Aceh 24782";"Singkohor, Kec. Singkohor, Kabupaten Aceh Singkil";"ACEH";"24782";"Indonesia";"";"2.5221906";"97.9308156";"https://maps.google.com/?cid=0x0:0xcc898353943fd55a"
"restaurant";"Kafe";"EIFFEL CAFE  NOSTALGIA COFFEE";"GWGJ+FC7, Jl. Hamzah Fansyuri, Singkohor, Kec. Singkohor, Kabupaten Aceh Singkil, Aceh 24782";"Jl. Hamzah Fansyuri, Singkohor, Kec. Singkohor, Kabupaten Aceh Singkil";"ACEH";"24782";"Indonesia";" 081360943810";"2.52617";"97.9310407";"https://maps.google.com/?cid=0x0:0xc4474c8b36760db9"
"restaurant";"Indonesia";"warung LENIS. pecel Dan gorengan";"GWWR+9M8, Mukti Jaya, Kec. Singkohor, Kabupaten Aceh Singkil, Aceh";"Kabupaten Aceh Singkil, Aceh";"ACEH";"";"Indonesia";"";"2.5459226";"97.941689";"https://maps.google.com/?cid=0x0:0x977725f50d29c367"
"restaurant";"Sate";"Anto Sate";"GWGJ+334, Jl. Hamzah Fansyuri, Singkohor, Kec. Singkohor, Kabupaten Aceh Singkil, Aceh 24782";"Jl. Hamzah Fansyuri, Singkohor, Kec. Singkohor, Kabupaten Aceh Singkil";"ACEH";"24782";"Indonesia";"";"2.5251401";"97.9302165";"https://maps.google.com/?cid=0x0:0x5ebfeb524779e959"
"restaurant";"Kafe";"Coffee Hostpot";"GW8H+MGC, Lae Pinang, Kec. Singkohor, Kabupaten Aceh Singkil, Aceh 24782";"Lae Pinang, Kec. Singkohor, Kabupaten Aceh Singkil";"ACEH";"24782";"Indonesia";" 085726650333";"2.5166833";"97.9287697";"https://maps.google.com/?cid=0x0:0x263ccbadf20368ac"
"restaurant";"Ayam";"Ayam geprek nampol pedas";"Jl. Gabus, Singkohor, Kec. Singkohor, Kabupaten Aceh Singkil, Aceh 23782";"Singkohor, Kec. Singkohor, Kabupaten Aceh Singkil";"ACEH";"23782";"Indonesia";" 085664864745";"2.5221188";"97.9325674";"https://maps.google.com/?cid=0x0:0x361208aa7bb433c1"
"restaurant";"Toko bahan makanan";"Kedai Kang Rawes";"GVFW+8WQ, Mukti Harapan, Kec. Singkohor, Kabupaten Aceh Singkil, Aceh 24472";"Mukti Harapan, Kec. Singkohor, Kabupaten Aceh Singkil";"ACEH";"24472";"Indonesia";"";"2.5233411";"97.897374";"https://maps.google.com/?cid=0x0:0xe0a024d9e9615a76"
"restaurant";"Kafe";"Aulia Cafe";"GWFJ+63F, Singkohor, Kec. Singkohor, Kabupaten Aceh Singkil, Aceh 24782";"Singkohor, Kec. Singkohor, Kabupaten Aceh Singkil";"ACEH";"24782";"Indonesia";" 085762379880";"2.5230721";"97.9301632";"https://maps.google.com/?cid=0x0:0x4a31d7237b00fd5d"
"restaurant";"Bar";"Cafe Neng Geulis";"Lae Pinang, Kec. Singkohor, Kabupaten Aceh Singkil, Aceh 24793";"Kec. Singkohor, Kabupaten Aceh Singkil";"ACEH";"24793";"Indonesia";" 085269996070";"2.5143369";"97.9302236";"https://maps.google.com/?cid=0x0:0x350b88a0e1dc34e4"
"restaurant";"Bakso";"Istana bakso mbak jinem";"GWCJ+W2X, Singkohor, Kec. Singkohor, Kabupaten Aceh Singkil, Aceh 24782";"Singkohor, Kec. Singkohor, Kabupaten Aceh Singkil";"ACEH";"24782";"Indonesia";" 082334992893";"2.5223731";"97.9301152";"https://maps.google.com/?cid=0x0:0xe18c4de3e0f8543"
"restaurant";"Seblak";"KEDAI ANUGRAH BANDUNG";"CWFH+F23, Jl. Singkohor - Rimo, Bukit Harapan, Kec. Gn. Meriah, Kabupaten Aceh Singkil, Aceh 24783";"Jl. Singkohor - Rimo, Bukit Harapan, Kec. Gn. Meriah, Kabupaten Aceh Singkil";"ACEH";"24783";"Indonesia";" 085837603587";"2.4236469";"97.9275467";"https://maps.google.com/?cid=0x0:0x95fdba8906a2d7c4"
"restaurant";"Bar";"Cafe Neng Geulis";"GW6V+45W, Lae Pinang, Kec. Singkohor, Kabupaten Aceh Singkil, Aceh 24793";"Lae Pinang, Kec. Singkohor, Kabupaten Aceh Singkil";"ACEH";"24793";"Indonesia";"";"2.5103125";"97.9429375";"https://maps.google.com/?cid=0x0:0xdc3a469392dbcf87"
"restaurant";"Kedai Kopi";"Warung Cahya Barokah";"GWXH+9W9, Mukti Jaya, Kec. Singkohor, Kabupaten Aceh Singkil, Aceh 24782";"Mukti Jaya, Kec. Singkohor, Kabupaten Aceh Singkil";"ACEH";"24782";"Indonesia";"";"2.5484154";"97.9298475";"https://maps.google.com/?cid=0x0:0xd9d7b5ad00997fca"
"restaurant";"restaurant";"Aceh 24784";"Kabupaten Aceh Singkil, Aceh";"Kabupaten Aceh Singkil, Aceh";"ACEH";"";"Indonesia";"";"2.152911";"97.2840888";"https://maps.google.com/?cid=0x0:0xab521459bf3c978c"
"restaurant";"Kedai Kopi";"Warung SUDI MAMPIR";"F2FM+656, Mandumpang, Kec. Suro Makmur, Kabupaten Aceh Singkil, Aceh 24783";"Mandumpang, Kec. Suro Makmur, Kabupaten Aceh Singkil";"ACEH";"24783";"Indonesia";" 085834602459";"2.4730423";"98.0328815";"https://maps.google.com/?cid=0x0:0xa0bc24a9cb178159"
"restaurant";"Kedai Kopi";"Restoran  Depot Air BUMDes Teluk Nibung";"89RP+7HH, Pulau Ujung Batu, Tlk. Nibung, Pulau Banyak, Kabupaten Aceh Singkil, Aceh 24784";"Pulau Ujung Batu, Tlk. Nibung, Pulau Banyak, Kabupaten Aceh Singkil";"ACEH";"24784";"Indonesia";"";"2.3406972";"97.3864958";"https://maps.google.com/?cid=0x0:0x163c7f1f199c26d"
"restaurant";"Restoran";"RM. MELLY";"8C26+822, Pulau Balai, Pulau Banyak, Kabupaten Aceh Singkil, Aceh 24784";"Pulau Balai, Pulau Banyak, Kabupaten Aceh Singkil";"ACEH";"24784";"Indonesia";" 082166915396";"2.3007637";"97.4100031";"https://maps.google.com/?cid=0x0:0xdce3c69b053736f8"
"restaurant";"Bakso";"Bakso Lezat";"F2GP+VR, Mandumpang, Kec. Suro Makmur, Kabupaten Aceh Singkil, Aceh";"Kabupaten Aceh Singkil, Aceh";"ACEH";"";"Indonesia";"";"2.4771542";"98.0370951";"https://maps.google.com/?cid=0x0:0x655a1256b98f1136"
"restaurant";"Restoran";"Cafe Flamboyan";"66JJ+767, Haloban, Kec. Pulau Banyak Bar., Kabupaten Aceh Singkil, Aceh 24784";"Haloban, Kec. Pulau Banyak Bar., Kabupaten Aceh Singkil";"ACEH";"24784";"Indonesia";"";"2.2306595";"97.2305618";"https://maps.google.com/?cid=0x0:0xac28982f9da45913"
"restaurant";"Kedai Kopi";"Saung Bitapmi";"Jl. Suka Maju Perumahan BRR, Asantola, Kec. Pulau Banyak Bar., Aceh 24784";"Asantola, Kec. Pulau Banyak Bar.";"ACEH";"24784";"Indonesia";" 081219115121";"2.2257539";"97.2349626";"https://maps.google.com/?cid=0x0:0x3ec29ed7c78eb652"
"restaurant";"Kafe";"Warung ANDRA";"8C25+FW5, Pulau Balai, Pulau Banyak, Kabupaten Aceh Singkil, Aceh 24784";"Pulau Balai, Pulau Banyak, Kabupaten Aceh Singkil";"ACEH";"24784";"Indonesia";" 081211108045";"2.3011488";"97.4098439";"https://maps.google.com/?cid=0x0:0x836a45ce4c8929d6"
"restaurant";"Kedai Kopi";"Mamawawa";"Jln, Pulo baguk, Kec. Suro Makmur, Kabupaten Aceh Singkil, Aceh 24791";"Pulo baguk, Kec. Suro Makmur, Kabupaten Aceh Singkil";"ACEH";"24791";"Indonesia";" 085311748714";"2.4658075";"98.013794";"https://maps.google.com/?cid=0x0:0xee8d2bc4c5073f4c"
"restaurant";"Kedai Kopi";"Warung Mande";"66HJ+X29, Haloban, Kec. Pulau Banyak Bar., Kabupaten Aceh Singkil, Aceh 24784";"Haloban, Kec. Pulau Banyak Bar., Kabupaten Aceh Singkil";"ACEH";"24784";"Indonesia";"";"2.2299176";"97.2301107";"https://maps.google.com/?cid=0x0:0xced8d5a0ad640bfb"
"restaurant";"Tujuan Wisata";"Danau Bungara Pelempoh Leja";"FVV3+3XG, Danau Bungara, Kec. Kota Baharu, Kabupaten Aceh Singkil, Aceh 24782";"Danau Bungara, Kec. Kota Baharu, Kabupaten Aceh Singkil";"ACEH";"24782";"Indonesia";" 082360142716";"2.4926843";"97.8549385";"https://maps.google.com/?cid=0x0:0x53b39fdc30c81a7"
"restaurant";"Restoran";"Amri Angkat";"FVW2+325, Danau Bungara, Kec. Kota Baharu, Kabupaten Aceh Singkil, Aceh 24782";"Danau Bungara, Kec. Kota Baharu, Kabupaten Aceh Singkil";"ACEH";"24782";"Indonesia";" 082217711281";"2.4951298";"97.850108";"https://maps.google.com/?cid=0x0:0x5f7769931be9c6d1"
"restaurant";"Restoran";"Warung putri";"7CW6+M4M, Pulau Baguk, Pulau Banyak, Kabupaten Aceh Singkil, Aceh 24784";"Pulau Baguk, Pulau Banyak, Kabupaten Aceh Singkil";"ACEH";"24784";"Indonesia";"";"2.2967158";"97.4102937";"https://maps.google.com/?cid=0x0:0x9548e5a2ce3f1f09"
"restaurant";"Kedai Kopi";"Warung pondok Bambu";"66GJ+H5Q, Haloban, Kec. Pulau Banyak Bar., Kabupaten Aceh Singkil, Aceh 24784";"Haloban, Kec. Pulau Banyak Bar., Kabupaten Aceh Singkil";"ACEH";"24784";"Indonesia";" 085270868761";"2.2264519";"97.2304736";"https://maps.google.com/?cid=0x0:0xaa26850ba5238a87"
"hotel";"hotel";"Aceh 24784";"Kabupaten Aceh Singkil, Aceh";"Kabupaten Aceh Singkil, Aceh";"ACEH";"";"Indonesia";"";"2.152911";"97.2840888";"https://maps.google.com/?cid=0x0:0xab521459bf3c978c"
"hotel";"hotel";"MB Palambak Island Resort";"Pulau Baguk, Pulau Banyak, Kabupaten Aceh Singkil, Aceh 24784";"Pulau Banyak, Kabupaten Aceh Singkil";"ACEH";"24784";"Indonesia";" 08126081916";"2.1841254";"97.4349986";"https://maps.google.com/?cid=0x0:0x6f66235b52eec264"
"hotel";"hotel";"The Palambak Paradise Resort";"Pulau Baguk, Pulau palambak besar, Kabupaten Aceh Singkil, Aceh 23791";"Pulau palambak besar, Kabupaten Aceh Singkil";"ACEH";"23791";"Indonesia";" 085380175331";"2.1666156";"97.4384976";"https://maps.google.com/?cid=0x0:0x15b9adb6cf8d4a1e"
"hotel";"hotel";"Sikandang Coral";"Sikandang,Pulau 23791, Haloban, Pulau Banyak, Kabupaten Aceh Singkil, Aceh 24784";"Haloban, Pulau Banyak, Kabupaten Aceh Singkil";"ACEH";"24784";"Indonesia";" 085296949888";"2.2923198";"97.3143667";"https://maps.google.com/?cid=0x0:0x33e405b93263704a"
"hotel";"hotel";"Ira bungalows";"Pulau Tambarat, Banyak Island, Aceh Singkil Regency, Aceh 24791";"Banyak Island, Aceh Singkil Regency";"ACEH";"24791";"Indonesia";"";"2.3187956";"97.2234801";"https://maps.google.com/?cid=0x0:0x924695d73cd46a73"
"hotel";"hotel";"The Point Palambak";"5CJJ+G5W, Pulau palambak The point, Singkil, Aceh 24791";"Pulau palambak The point, Singkil";"ACEH";"24791";"Indonesia";" 085215135488";"2.1813657";"97.4304531";"https://maps.google.com/?cid=0x0:0xdd223f6d117de3bf"
"hotel";"hotel";"Banyak Surf  Villas";"Bay of Plenty, Ujung Lolok, Pulau Tuangku Office:, Jl. Suka Ramai No.Kel, Pulau Baguk, Kec. Pulau Banyak, Kabupaten Aceh Singkil, Aceh 79912";"Ujung Lolok, Pulau Tuangku Office:, Jl. Suka Ramai No.Kel, Pulau Baguk, Kec. Pulau Banyak, Kabupaten Aceh Singkil";"ACEH";"79912";"Indonesia";" 081237710911";"2.0530822";"97.3376277";"https://maps.google.com/?cid=0x0:0xa99687b72c273e52"
"hotel";"hotel";"Tailana Island";"Pulau Tailana, Haloban, Kec. Pulau Banyak Bar., Kabupaten Aceh Singkil, Aceh 24784";"Haloban, Kec. Pulau Banyak Bar., Kabupaten Aceh Singkil";"ACEH";"24784";"Indonesia";" 081361185844";"2.2780244";"97.2310793";"https://maps.google.com/?cid=0x0:0x64eb0cb42426de9"
"hotel";"hotel";"Mutiara Dairi Hotel";"Jl. Perluasan No.82, Huta Rakyat, Kec. Sidikalang, Kabupaten Dairi, Sumatera Utara 22213";"Huta Rakyat, Kec. Sidikalang, Kabupaten Dairi";"ACEH";"22213";"Indonesia";"";"2.7556151";"98.2998992";"https://maps.google.com/?cid=0x0:0xa6d9d29b049e7454"
"hotel";"hotel";"MB Camp Singkil";"Jl. Singkil - Rimo, Ketapang Indah, Kec. Singkil Utara, Kabupaten Aceh Singkil, Aceh 24472";"Ketapang Indah, Kec. Singkil Utara, Kabupaten Aceh Singkil";"ACEH";"24472";"Indonesia";" 08126081916";"2.2836564";"97.9104789";"https://maps.google.com/?cid=0x0:0x28db7709854017af"
"hotel";"hotel";"Hotel Cendrawasih Hutarakyat";"Jl. Parongil Jl. Persada No.341 C, Huta Rakyat, Kec. Sidikalang, Kabupaten Dairi, Sumatera Utara 22211";"Huta Rakyat, Kec. Sidikalang, Kabupaten Dairi";"ACEH";"22211";"Indonesia";" 082172971770";"2.7549944";"98.2811742";"https://maps.google.com/?cid=0x0:0xe17c5eb8f5e533ce"
"hotel";"hotel";"Banyak Surf Resort";"Ujung Lolok, Pulau Tuangku, Haloban, Kec. Pulau Banyak, Kabupaten Aceh Singkil, Aceh 24784";"Pulau Tuangku, Haloban, Kec. Pulau Banyak, Kabupaten Aceh Singkil";"ACEH";"24784";"Indonesia";" 081353031331";"2.0467852";"97.3353746";"https://maps.google.com/?cid=0x0:0xbd052368533c3077"
"hotel";"hotel";"Hermes One Subulussalam";"Jl. Teuku Umar, Penanggalan, Kec. Simpang Kiri, Kota Subulussalam, Aceh 23782";"Penanggalan, Kec. Simpang Kiri, Kota Subulussalam";"ACEH";"23782";"Indonesia";" 082268888435";"2.6362136";"98.013706";"https://maps.google.com/?cid=0x0:0xc918df406722c2cb"
"hotel";"hotel";"PINANG Island";"Haloban, Kec. Pulau Banyak Bar., Kabupaten Aceh Singkil, Aceh";"Kabupaten Aceh Singkil, Aceh";"ACEH";"";"Indonesia";" 08113886030";"2.0401328";"97.390706";"https://maps.google.com/?cid=0x0:0x91fb336acb3cf636"
"hotel";"hotel";"Aceh 24784";"Kabupaten Aceh Singkil, Aceh";"Kabupaten Aceh Singkil, Aceh";"ACEH";"";"Indonesia";"";"2.152911";"97.2840888";"https://maps.google.com/?cid=0x0:0xab521459bf3c978c"
"hotel";"hotel";"The Palambak Paradise Resort";"Pulau Baguk, Pulau palambak besar, Kabupaten Aceh Singkil, Aceh 23791";"Pulau palambak besar, Kabupaten Aceh Singkil";"ACEH";"23791";"Indonesia";" 085380175331";"2.1666156";"97.4384976";"https://maps.google.com/?cid=0x0:0x15b9adb6cf8d4a1e"
"hotel";"hotel";"MB Palambak Island Resort";"Pulau Baguk, Pulau Banyak, Kabupaten Aceh Singkil, Aceh 24784";"Pulau Banyak, Kabupaten Aceh Singkil";"ACEH";"24784";"Indonesia";" 08126081916";"2.1841254";"97.4349986";"https://maps.google.com/?cid=0x0:0x6f66235b52eec264"
"hotel";"hotel";"Sikandang Coral";"Sikandang,Pulau 23791, Haloban, Pulau Banyak, Kabupaten Aceh Singkil, Aceh 24784";"Haloban, Pulau Banyak, Kabupaten Aceh Singkil";"ACEH";"24784";"Indonesia";" 085296949888";"2.2923198";"97.3143667";"https://maps.google.com/?cid=0x0:0x33e405b93263704a"
"hotel";"hotel";"Ira bungalows";"Pulau Tambarat, Banyak Island, Aceh Singkil Regency, Aceh 24791";"Banyak Island, Aceh Singkil Regency";"ACEH";"24791";"Indonesia";"";"2.3187956";"97.2234801";"https://maps.google.com/?cid=0x0:0x924695d73cd46a73"
"hotel";"hotel";"Tailana Island";"Pulau Tailana, Haloban, Kec. Pulau Banyak Bar., Kabupaten Aceh Singkil, Aceh 24784";"Haloban, Kec. Pulau Banyak Bar., Kabupaten Aceh Singkil";"ACEH";"24784";"Indonesia";" 081361185844";"2.2780244";"97.2310793";"https://maps.google.com/?cid=0x0:0x64eb0cb42426de9"
"hotel";"hotel";"MB Camp Singkil";"Jl. Singkil - Rimo, Ketapang Indah, Kec. Singkil Utara, Kabupaten Aceh Singkil, Aceh 24472";"Ketapang Indah, Kec. Singkil Utara, Kabupaten Aceh Singkil";"ACEH";"24472";"Indonesia";" 08126081916";"2.2836564";"97.9104789";"https://maps.google.com/?cid=0x0:0x28db7709854017af"
"hotel";"hotel";"Banyak Surf  Villas";"Bay of Plenty, Ujung Lolok, Pulau Tuangku Office:, Jl. Suka Ramai No.Kel, Pulau Baguk, Kec. Pulau Banyak, Kabupaten Aceh Singkil, Aceh 79912";"Ujung Lolok, Pulau Tuangku Office:, Jl. Suka Ramai No.Kel, Pulau Baguk, Kec. Pulau Banyak, Kabupaten Aceh Singkil";"ACEH";"79912";"Indonesia";" 081237710911";"2.0530822";"97.3376277";"https://maps.google.com/?cid=0x0:0xa99687b72c273e52"
"hotel";"hotel";"PINANG Island";"Haloban, Kec. Pulau Banyak Bar., Kabupaten Aceh Singkil, Aceh";"Kabupaten Aceh Singkil, Aceh";"ACEH";"";"Indonesia";" 08113886030";"2.0401328";"97.390706";"https://maps.google.com/?cid=0x0:0x91fb336acb3cf636"
"hotel";"hotel";"Diamond Island Eco Resort";"Pulau Sarang Gantung, Haloban, Kec. Pulau Banyak Bar., Kabupaten Aceh Singkil, Aceh";"Kabupaten Aceh Singkil, Aceh";"ACEH";"";"Indonesia";" +61413184858";"2.0739801";"97.3518343";"https://maps.google.com/?cid=0x0:0x66e9dfe5418115f2"
"hotel";"hotel";"Banyak Surf Resort";"Ujung Lolok, Pulau Tuangku, Haloban, Kec. Pulau Banyak, Kabupaten Aceh Singkil, Aceh 24784";"Pulau Tuangku, Haloban, Kec. Pulau Banyak, Kabupaten Aceh Singkil";"ACEH";"24784";"Indonesia";" 081353031331";"2.0467852";"97.3353746";"https://maps.google.com/?cid=0x0:0xbd052368533c3077"
"hotel";"hotel";"Mutiara Dairi Hotel";"Jl. Perluasan No.82, Huta Rakyat, Kec. Sidikalang, Kabupaten Dairi, Sumatera Utara 22213";"Huta Rakyat, Kec. Sidikalang, Kabupaten Dairi";"ACEH";"22213";"Indonesia";"";"2.7556151";"98.2998992";"https://maps.google.com/?cid=0x0:0xa6d9d29b049e7454"
"hotel";"hotel";"Hermes One Subulussalam";"Jl. Teuku Umar, Penanggalan, Kec. Simpang Kiri, Kota Subulussalam, Aceh 23782";"Penanggalan, Kec. Simpang Kiri, Kota Subulussalam";"ACEH";"23782";"Indonesia";" 082268888435";"2.6362136";"98.013706";"https://maps.google.com/?cid=0x0:0xc918df406722c2cb"
"hotel";"hotel";"Hotel Cendrawasih Hutarakyat";"Jl. Parongil Jl. Persada No.341 C, Huta Rakyat, Kec. Sidikalang, Kabupaten Dairi, Sumatera Utara 22211";"Huta Rakyat, Kec. Sidikalang, Kabupaten Dairi";"ACEH";"22211";"Indonesia";" 082172971770";"2.7549944";"98.2811742";"https://maps.google.com/?cid=0x0:0xe17c5eb8f5e533ce"
"hotel";"hotel";"Aceh 24784";"Kabupaten Aceh Singkil, Aceh";"Kabupaten Aceh Singkil, Aceh";"ACEH";"";"Indonesia";"";"2.152911";"97.2840888";"https://maps.google.com/?cid=0x0:0xab521459bf3c978c"
"hotel";"hotel";"Kimo Resort";"Pulau Baguk, Pulau Banyak, Kabupaten Aceh Singkil, Aceh 24784";"Pulau Banyak, Kabupaten Aceh Singkil";"ACEH";"24784";"Indonesia";" 082288005500";"2.2658621";"97.4167753";"https://maps.google.com/?cid=0x0:0xe98152fe2f9d1bb8"
"hotel";"hotel";"MB Palambak Island Resort";"Pulau Baguk, Pulau Banyak, Kabupaten Aceh Singkil, Aceh 24784";"Pulau Banyak, Kabupaten Aceh Singkil";"ACEH";"24784";"Indonesia";" 08126081916";"2.1841254";"97.4349986";"https://maps.google.com/?cid=0x0:0x6f66235b52eec264"
"hotel";"hotel";"Sikandang Coral";"Sikandang,Pulau 23791, Haloban, Pulau Banyak, Kabupaten Aceh Singkil, Aceh 24784";"Haloban, Pulau Banyak, Kabupaten Aceh Singkil";"ACEH";"24784";"Indonesia";" 085296949888";"2.2923198";"97.3143667";"https://maps.google.com/?cid=0x0:0x33e405b93263704a"
"hotel";"hotel";"The Point Palambak";"5CJJ+G5W, Pulau palambak The point, Singkil, Aceh 24791";"Pulau palambak The point, Singkil";"ACEH";"24791";"Indonesia";" 085215135488";"2.1813657";"97.4304531";"https://maps.google.com/?cid=0x0:0xdd223f6d117de3bf"
"hotel";"hotel";"Hotel 61";"Jl. T. Panglima Polem No.32-34, Laksana, Kec. Kuta Alam, Kota Banda Aceh, Aceh 23122";"Laksana, Kec. Kuta Alam, Kota Banda Aceh";"ACEH";"23122";"Indonesia";" 0651638866";"5.5593663";"95.3213398";"https://maps.google.com/?cid=0x0:0x4927c09f2ecd1f3c"
"hotel";"hotel";"N/A";"";"";"ACEH";"";"Indonesia";"";"";"";"https://maps.google.com/?cid=0x0:0x4927c09f2ecd1f3c%7C/g/1hc16zhd7%7Cid-ID"
"hotel";"hotel";"MB Camp Singkil";"Jl. Singkil - Rimo, Ketapang Indah, Kec. Singkil Utara, Kabupaten Aceh Singkil, Aceh 24472";"Ketapang Indah, Kec. Singkil Utara, Kabupaten Aceh Singkil";"ACEH";"24472";"Indonesia";" 08126081916";"2.2836564";"97.9104789";"https://maps.google.com/?cid=0x0:0x28db7709854017af"
"hotel";"hotel";"Mutiara Dairi Hotel";"Jl. Perluasan No.82, Huta Rakyat, Kec. Sidikalang, Kabupaten Dairi, Sumatera Utara 22213";"Huta Rakyat, Kec. Sidikalang, Kabupaten Dairi";"ACEH";"22213";"Indonesia";"";"2.7556151";"98.2998992";"https://maps.google.com/?cid=0x0:0xa6d9d29b049e7454"
"hotel";"hotel";"Tailana Island";"Pulau Tailana, Haloban, Kec. Pulau Banyak Bar., Kabupaten Aceh Singkil, Aceh 24784";"Haloban, Kec. Pulau Banyak Bar., Kabupaten Aceh Singkil";"ACEH";"24784";"Indonesia";" 081361185844";"2.2780244";"97.2310793";"https://maps.google.com/?cid=0x0:0x64eb0cb42426de9"
"hotel";"hotel";"Hermes One Subulussalam";"Jl. Teuku Umar, Penanggalan, Kec. Simpang Kiri, Kota Subulussalam, Aceh 23782";"Penanggalan, Kec. Simpang Kiri, Kota Subulussalam";"ACEH";"23782";"Indonesia";" 082268888435";"2.6362136";"98.013706";"https://maps.google.com/?cid=0x0:0xc918df406722c2cb"
"hotel";"hotel";"Banyak Surf  Villas";"Bay of Plenty, Ujung Lolok, Pulau Tuangku Office:, Jl. Suka Ramai No.Kel, Pulau Baguk, Kec. Pulau Banyak, Kabupaten Aceh Singkil, Aceh 79912";"Ujung Lolok, Pulau Tuangku Office:, Jl. Suka Ramai No.Kel, Pulau Baguk, Kec. Pulau Banyak, Kabupaten Aceh Singkil";"ACEH";"79912";"Indonesia";" 081237710911";"2.0530822";"97.3376277";"https://maps.google.com/?cid=0x0:0xa99687b72c273e52"
"hotel";"hotel";"Hotel Cendrawasih Hutarakyat";"Jl. Parongil Jl. Persada No.341 C, Huta Rakyat, Kec. Sidikalang, Kabupaten Dairi, Sumatera Utara 22211";"Huta Rakyat, Kec. Sidikalang, Kabupaten Dairi";"ACEH";"22211";"Indonesia";" 082172971770";"2.7549944";"98.2811742";"https://maps.google.com/?cid=0x0:0xe17c5eb8f5e533ce"
"hotel";"hotel";"Banyak Surf Resort";"Ujung Lolok, Pulau Tuangku, Haloban, Kec. Pulau Banyak, Kabupaten Aceh Singkil, Aceh 24784";"Pulau Tuangku, Haloban, Kec. Pulau Banyak, Kabupaten Aceh Singkil";"ACEH";"24784";"Indonesia";" 081353031331";"2.0467852";"97.3353746";"https://maps.google.com/?cid=0x0:0xbd052368533c3077"
"hotel";"hotel";"Kec. Kuala Baru";"Kabupaten Aceh Singkil, Aceh";"Kabupaten Aceh Singkil, Aceh";"ACEH";"";"Indonesia";"";"2.3496125";"97.7112967";"https://maps.google.com/?cid=0x0:0x48a3d100d6cd113b"
"hotel";"hotel";"MB Camp Singkil";"Jl. Singkil - Rimo, Ketapang Indah, Kec. Singkil Utara, Kabupaten Aceh Singkil, Aceh 24472";"Ketapang Indah, Kec. Singkil Utara, Kabupaten Aceh Singkil";"ACEH";"24472";"Indonesia";" 08126081916";"2.2836564";"97.9104789";"https://maps.google.com/?cid=0x0:0x28db7709854017af"
"hotel";"hotel";"Island Hotel";"7RC5+V8C, Jl. Bahari, Pulo Sarok, Kec. Singkil, Kabupaten Aceh Singkil, Aceh 24472";"Jl. Bahari, Pulo Sarok, Kec. Singkil, Kabupaten Aceh Singkil";"ACEH";"24472";"Indonesia";" 081362218369";"2.2721995";"97.8082759";"https://maps.google.com/?cid=0x0:0xc46b4398c6426b26"
"hotel";"hotel";"Hotel Dina Amalia";"JL. Bahari, Pulo Sarok, Pulo Sarok, Kec. Singkil, Kabupaten Aceh Singkil, Aceh 24472";"Pulo Sarok, Pulo Sarok, Kec. Singkil, Kabupaten Aceh Singkil";"ACEH";"24472";"Indonesia";" 065821400";"2.2702533";"97.8159098";"https://maps.google.com/?cid=0x0:0xb1a80a9ba21fed89"
"hotel";"hotel";"Pulau Banyak";"Kabupaten Aceh Singkil, Aceh";"Kabupaten Aceh Singkil, Aceh";"ACEH";"";"Indonesia";"";"2.3198851";"97.413802";"https://maps.google.com/?cid=0x0:0xf22eba8ba0db80e0"
"hotel";"hotel";"Kimo Resort";"Pulau Baguk, Pulau Banyak, Kabupaten Aceh Singkil, Aceh 24784";"Pulau Banyak, Kabupaten Aceh Singkil";"ACEH";"24784";"Indonesia";" 082288005500";"2.2658621";"97.4167753";"https://maps.google.com/?cid=0x0:0xe98152fe2f9d1bb8"
"hotel";"hotel";"MB Palambak Island Resort";"Pulau Baguk, Pulau Banyak, Kabupaten Aceh Singkil, Aceh 24784";"Pulau Banyak, Kabupaten Aceh Singkil";"ACEH";"24784";"Indonesia";" 08126081916";"2.1841254";"97.4349986";"https://maps.google.com/?cid=0x0:0x6f66235b52eec264"
"hotel";"hotel";"The Palambak Paradise Resort";"Pulau Baguk, Pulau palambak besar, Kabupaten Aceh Singkil, Aceh 23791";"Pulau palambak besar, Kabupaten Aceh Singkil";"ACEH";"23791";"Indonesia";" 085380175331";"2.1666156";"97.4384976";"https://maps.google.com/?cid=0x0:0x15b9adb6cf8d4a1e"
"hotel";"hotel";"Sikandang Coral";"Sikandang,Pulau 23791, Haloban, Pulau Banyak, Kabupaten Aceh Singkil, Aceh 24784";"Haloban, Pulau Banyak, Kabupaten Aceh Singkil";"ACEH";"24784";"Indonesia";" 085296949888";"2.2923198";"97.3143667";"https://maps.google.com/?cid=0x0:0x33e405b93263704a"
"hotel";"hotel";"Kumala Hotel Banda Aceh";"Jl. Prof. Ali Hasyimi No.9-10, Lamteh, Kec. Ulee Kareng, Kota Banda Aceh, Aceh 23118";"Lamteh, Kec. Ulee Kareng, Kota Banda Aceh";"ACEH";"23118";"Indonesia";" 08116835855";"5.5514115";"95.3453647";"https://maps.google.com/?cid=0x0:0x9828ac1cd87d07d0"
"hotel";"hotel";"N/A";"";"";"ACEH";"";"Indonesia";"";"";"";"https://maps.google.com/?cid=0x0:0x9828ac1cd87d07d0%7C/g/11ckqrc334%7Cid-ID"
"hotel";"hotel";"Simeulue Surflodges";"Matanurung, Matanurung East Simeulue, Kabupaten Simeulue, Aceh";"Kabupaten Simeulue, Aceh";"ACEH";"";"Indonesia";" +31634744141";"2.3852818";"96.3190883";"https://maps.google.com/?cid=0x0:0x27b96b631c076f46"
"hotel";"hotel";"Hotel Wisata Banda Aceh";"Jl. Jend. Ahmad Yani No.19-21, Peunayong, Kec. Kuta Alam, Kota Banda Aceh, Aceh";"Kota Banda Aceh, Aceh";"ACEH";"";"Indonesia";" 065121834";"5.5580418";"95.3189492";"https://maps.google.com/?cid=0x0:0xc6aedda62724c6a7"
"hotel";"hotel";"The Point Palambak";"5CJJ+G5W, Pulau palambak The point, Singkil, Aceh 24791";"Pulau palambak The point, Singkil";"ACEH";"24791";"Indonesia";" 085215135488";"2.1813657";"97.4304531";"https://maps.google.com/?cid=0x0:0xdd223f6d117de3bf"
"hotel";"hotel";"Tailana Island";"Pulau Tailana, Haloban, Kec. Pulau Banyak Bar., Kabupaten Aceh Singkil, Aceh 24784";"Haloban, Kec. Pulau Banyak Bar., Kabupaten Aceh Singkil";"ACEH";"24784";"Indonesia";" 081361185844";"2.2780244";"97.2310793";"https://maps.google.com/?cid=0x0:0x64eb0cb42426de9"
"hotel";"hotel";"Banyak Surf  Villas";"Bay of Plenty, Ujung Lolok, Pulau Tuangku Office:, Jl. Suka Ramai No.Kel, Pulau Baguk, Kec. Pulau Banyak, Kabupaten Aceh Singkil, Aceh 79912";"Ujung Lolok, Pulau Tuangku Office:, Jl. Suka Ramai No.Kel, Pulau Baguk, Kec. Pulau Banyak, Kabupaten Aceh Singkil";"ACEH";"79912";"Indonesia";" 081237710911";"2.0530822";"97.3376277";"https://maps.google.com/?cid=0x0:0xa99687b72c273e52"
"hotel";"hotel";"Banyak Surf Resort";"Ujung Lolok, Pulau Tuangku, Haloban, Kec. Pulau Banyak, Kabupaten Aceh Singkil, Aceh 24784";"Pulau Tuangku, Haloban, Kec. Pulau Banyak, Kabupaten Aceh Singkil";"ACEH";"24784";"Indonesia";" 081353031331";"2.0467852";"97.3353746";"https://maps.google.com/?cid=0x0:0xbd052368533c3077"
"hotel";"hotel";"PENGINAPAN THE SUNSHINE (Homestay)";"8C25+WQ6, Jl. Surya, Pulau Balai, Pulau Banyak, Kabupaten Aceh Singkil, Aceh 24784";"Jl. Surya, Pulau Balai, Pulau Banyak, Kabupaten Aceh Singkil";"ACEH";"24784";"Indonesia";" 081270434532";"2.3022786";"97.409403";"https://maps.google.com/?cid=0x0:0x8c16f044bc1db321"
"hotel";"hotel";"Kec. Pulau Banyak Bar.";"Kabupaten Aceh Singkil, Aceh";"Kabupaten Aceh Singkil, Aceh";"ACEH";"";"Indonesia";"";"2.2278739";"97.2326992";"https://maps.google.com/?cid=0x0:0x154c9da37cf5674f"
"hotel";"hotel";"Sikandang Coral";"Sikandang,Pulau 23791, Haloban, Pulau Banyak, Kabupaten Aceh Singkil, Aceh 24784";"Haloban, Pulau Banyak, Kabupaten Aceh Singkil";"ACEH";"24784";"Indonesia";" 085296949888";"2.2923198";"97.3143667";"https://maps.google.com/?cid=0x0:0x33e405b93263704a"
"hotel";"hotel";"Ira bungalows";"Pulau Tambarat, Banyak Island, Aceh Singkil Regency, Aceh 24791";"Banyak Island, Aceh Singkil Regency";"ACEH";"24791";"Indonesia";"";"2.3187956";"97.2234801";"https://maps.google.com/?cid=0x0:0x924695d73cd46a73"
"hotel";"hotel";"MB Palambak Island Resort";"Pulau Baguk, Pulau Banyak, Kabupaten Aceh Singkil, Aceh 24784";"Pulau Banyak, Kabupaten Aceh Singkil";"ACEH";"24784";"Indonesia";" 08126081916";"2.1841254";"97.4349986";"https://maps.google.com/?cid=0x0:0x6f66235b52eec264"
"hotel";"hotel";"Tailana Island";"Pulau Tailana, Haloban, Kec. Pulau Banyak Bar., Kabupaten Aceh Singkil, Aceh 24784";"Haloban, Kec. Pulau Banyak Bar., Kabupaten Aceh Singkil";"ACEH";"24784";"Indonesia";" 081361185844";"2.2780244";"97.2310793";"https://maps.google.com/?cid=0x0:0x64eb0cb42426de9"
"hotel";"hotel";"The Palambak Paradise Resort";"Pulau Baguk, Pulau palambak besar, Kabupaten Aceh Singkil, Aceh 23791";"Pulau palambak besar, Kabupaten Aceh Singkil";"ACEH";"23791";"Indonesia";" 085380175331";"2.1666156";"97.4384976";"https://maps.google.com/?cid=0x0:0x15b9adb6cf8d4a1e"
"hotel";"hotel";"The Point Palambak";"5CJJ+G5W, Pulau palambak The point, Singkil, Aceh 24791";"Pulau palambak The point, Singkil";"ACEH";"24791";"Indonesia";" 085215135488";"2.1813657";"97.4304531";"https://maps.google.com/?cid=0x0:0xdd223f6d117de3bf"
"hotel";"hotel";"Banyak Surf  Villas";"Bay of Plenty, Ujung Lolok, Pulau Tuangku Office:, Jl. Suka Ramai No.Kel, Pulau Baguk, Kec. Pulau Banyak, Kabupaten Aceh Singkil, Aceh 79912";"Ujung Lolok, Pulau Tuangku Office:, Jl. Suka Ramai No.Kel, Pulau Baguk, Kec. Pulau Banyak, Kabupaten Aceh Singkil";"ACEH";"79912";"Indonesia";" 081237710911";"2.0530822";"97.3376277";"https://maps.google.com/?cid=0x0:0xa99687b72c273e52"
"hotel";"hotel";"Diamond Island Eco Resort";"Pulau Sarang Gantung, Haloban, Kec. Pulau Banyak Bar., Kabupaten Aceh Singkil, Aceh";"Kabupaten Aceh Singkil, Aceh";"ACEH";"";"Indonesia";" +61413184858";"2.0739801";"97.3518343";"https://maps.google.com/?cid=0x0:0x66e9dfe5418115f2"
"hotel";"hotel";"Banyak Surf Resort";"Ujung Lolok, Pulau Tuangku, Haloban, Kec. Pulau Banyak, Kabupaten Aceh Singkil, Aceh 24784";"Pulau Tuangku, Haloban, Kec. Pulau Banyak, Kabupaten Aceh Singkil";"ACEH";"24784";"Indonesia";" 081353031331";"2.0467852";"97.3353746";"https://maps.google.com/?cid=0x0:0xbd052368533c3077"
"hotel";"hotel";"PINANG Island";"Haloban, Kec. Pulau Banyak Bar., Kabupaten Aceh Singkil, Aceh";"Kabupaten Aceh Singkil, Aceh";"ACEH";"";"Indonesia";" 08113886030";"2.0401328";"97.390706";"https://maps.google.com/?cid=0x0:0x91fb336acb3cf636"
"hotel";"hotel";"PENGINAPAN THE SUNSHINE (Homestay)";"8C25+WQ6, Jl. Surya, Pulau Balai, Pulau Banyak, Kabupaten Aceh Singkil, Aceh 24784";"Jl. Surya, Pulau Balai, Pulau Banyak, Kabupaten Aceh Singkil";"ACEH";"24784";"Indonesia";" 081270434532";"2.3022786";"97.409403";"https://maps.google.com/?cid=0x0:0x8c16f044bc1db321"
"hotel";"hotel";"Aceh 24783";"Kabupaten Aceh Singkil, Aceh";"Kabupaten Aceh Singkil, Aceh";"ACEH";"";"Indonesia";"";"2.4071732";"97.991986";"https://maps.google.com/?cid=0x0:0x4541045a0abeaf53"
"hotel";"hotel";"Hermes One Subulussalam";"Jl. Teuku Umar, Penanggalan, Kec. Simpang Kiri, Kota Subulussalam, Aceh 23782";"Penanggalan, Kec. Simpang Kiri, Kota Subulussalam";"ACEH";"23782";"Indonesia";" 082268888435";"2.6362136";"98.013706";"https://maps.google.com/?cid=0x0:0xc918df406722c2cb"
"hotel";"hotel";"Hotel Khairulsyah Subulussalam";"Jl. Teuku Umar No.220, Subulussalam, Kec. Simpang Kiri, Kota Subulussalam, Aceh 24782";"Subulussalam, Kec. Simpang Kiri, Kota Subulussalam";"ACEH";"24782";"Indonesia";" 062727000060";"2.6407355";"98.0066267";"https://maps.google.com/?cid=0x0:0x764e22c638ea1803"
"hotel";"hotel";"SEULANGA (simple guesthouse)";"Pegayo, Kec. Simpang Kiri, Kota Subulussalam, Aceh 24782";"Kec. Simpang Kiri, Kota Subulussalam";"ACEH";"24782";"Indonesia";" 085260706701";"2.6384143";"98.0041313";"https://maps.google.com/?cid=0x0:0xd37fed1d3689dc6f"
"hotel";"hotel";"Kec. Simpang Kanan";"Kabupaten Aceh Singkil, Aceh";"Kabupaten Aceh Singkil, Aceh";"ACEH";"";"Indonesia";"";"2.4382133";"97.9903392";"https://maps.google.com/?cid=0x0:0x8d3290c62e81c9f0"
"hotel";"hotel";"MB Camp Singkil";"Jl. Singkil - Rimo, Ketapang Indah, Kec. Singkil Utara, Kabupaten Aceh Singkil, Aceh 24472";"Ketapang Indah, Kec. Singkil Utara, Kabupaten Aceh Singkil";"ACEH";"24472";"Indonesia";" 08126081916";"2.2836564";"97.9104789";"https://maps.google.com/?cid=0x0:0x28db7709854017af"
"hotel";"hotel";"Hotel Medan";"Jl. Jend. Ahmad Yani No.17, Peunayong, Kec. Kuta Alam, Kota Banda Aceh, Aceh";"Kota Banda Aceh, Aceh";"ACEH";"";"Indonesia";" 065121501";"5.5574522";"95.3187103";"https://maps.google.com/?cid=0x0:0x42083d304b99e444"
"hotel";"hotel";"Ring Road Hotel";"Landom, Kec. Lueng Bata, Kota Banda Aceh, Aceh 23122";"Kec. Lueng Bata, Kota Banda Aceh";"ACEH";"23122";"Indonesia";" 02129707601";"5.5304327";"95.3305545";"https://maps.google.com/?cid=0x0:0x6c5799e4236c0a36"
"hotel";"hotel";"N/A";"";"";"ACEH";"";"Indonesia";"";"";"";"https://maps.google.com/?cid=0x0:0x6c5799e4236c0a36%7C/g/11b75qx7s2%7Cid-ID"
"hotel";"hotel";"Simpang Kanan";"Kec. Simpang Kanan, Kabupaten Rokan Hilir, Riau";"Kabupaten Rokan Hilir, Riau";"ACEH";"";"Indonesia";"";"1.8694604";"100.3161126";"https://maps.google.com/?cid=0x0:0x8369c23096c159e8"
"hotel";"hotel";"Wisma Teratai Mas Bagan Batu";"Jl. Jenderal Sudirman No.km.1, Bagan Batu, Kec. Torgamba, Kab. Labuhanbatu Selatan, Riau 28992";"Bagan Batu, Kec. Torgamba, Kab. Labuhanbatu Selatan";"ACEH";"28992";"Indonesia";" 082362204637";"1.6965785";"100.4095425";"https://maps.google.com/?cid=0x0:0xe182ee246101218e"
"hotel";"hotel";"Suzuya Plaza Hotel, Bagan Batu";"Jl. Jenderal Sudirman, Bagan Batu, Kec. Bagan Sinembah, Kabupaten Rokan Hilir, Riau 28892";"Bagan Batu, Kec. Bagan Sinembah, Kabupaten Rokan Hilir";"ACEH";"28892";"Indonesia";" 081271825433";"1.7100599";"100.396066";"https://maps.google.com/?cid=0x0:0x6bce877f70d0e317"
"hotel";"hotel";"Hotel Bintang Mulia";"Jl. Jenderal Sudirman No.360, Bagan Batu, Kec. Bagan Sinembah, Kabupaten Rokan Hilir, Riau 28992";"Bagan Batu, Kec. Bagan Sinembah, Kabupaten Rokan Hilir";"ACEH";"28992";"Indonesia";" 085265605232";"1.7029621";"100.4029585";"https://maps.google.com/?cid=0x0:0x4981196bc9dbd3ba"
"hotel";"hotel";"Aceh 24785";"Kec. Kota Baharu, Kabupaten Aceh Singkil, Aceh";"Kabupaten Aceh Singkil, Aceh";"ACEH";"";"Indonesia";"";"2.4523065";"97.8123224";"https://maps.google.com/?cid=0x0:0x571276798298d3f5"
"hotel";"hotel";"MB Camp Singkil";"Jl. Singkil - Rimo, Ketapang Indah, Kec. Singkil Utara, Kabupaten Aceh Singkil, Aceh 24472";"Ketapang Indah, Kec. Singkil Utara, Kabupaten Aceh Singkil";"ACEH";"24472";"Indonesia";" 08126081916";"2.2836564";"97.9104789";"https://maps.google.com/?cid=0x0:0x28db7709854017af"
"hotel";"hotel";"Island Hotel";"7RC5+V8C, Jl. Bahari, Pulo Sarok, Kec. Singkil, Kabupaten Aceh Singkil, Aceh 24472";"Jl. Bahari, Pulo Sarok, Kec. Singkil, Kabupaten Aceh Singkil";"ACEH";"24472";"Indonesia";" 081362218369";"2.2721995";"97.8082759";"https://maps.google.com/?cid=0x0:0xc46b4398c6426b26"
"hotel";"hotel";"PENGINAPAN THE SUNSHINE (Homestay)";"8C25+WQ6, Jl. Surya, Pulau Balai, Pulau Banyak, Kabupaten Aceh Singkil, Aceh 24784";"Jl. Surya, Pulau Balai, Pulau Banyak, Kabupaten Aceh Singkil";"ACEH";"24784";"Indonesia";" 081270434532";"2.3022786";"97.409403";"https://maps.google.com/?cid=0x0:0x8c16f044bc1db321"
"hotel";"hotel";"SEULANGA (simple guesthouse)";"Pegayo, Kec. Simpang Kiri, Kota Subulussalam, Aceh 24782";"Kec. Simpang Kiri, Kota Subulussalam";"ACEH";"24782";"Indonesia";" 085260706701";"2.6384143";"98.0041313";"https://maps.google.com/?cid=0x0:0xd37fed1d3689dc6f"
"hotel";"hotel";"Hotel Dina Amalia";"JL. Bahari, Pulo Sarok, Pulo Sarok, Kec. Singkil, Kabupaten Aceh Singkil, Aceh 24472";"Pulo Sarok, Pulo Sarok, Kec. Singkil, Kabupaten Aceh Singkil";"ACEH";"24472";"Indonesia";" 065821400";"2.2702533";"97.8159098";"https://maps.google.com/?cid=0x0:0xb1a80a9ba21fed89"
"hotel";"hotel";"Sapo Belen";"Jl. Bahari No.55, Pulo Sarok, Kec. Singkil, Kabupaten Aceh Singkil, Aceh 24472";"Pulo Sarok, Kec. Singkil, Kabupaten Aceh Singkil";"ACEH";"24472";"Indonesia";"";"2.2725335";"97.8096566";"https://maps.google.com/?cid=0x0:0xd9d94cc40fda85be"
"hotel";"hotel";"Hotel Khairulsyah Subulussalam";"Jl. Teuku Umar No.220, Subulussalam, Kec. Simpang Kiri, Kota Subulussalam, Aceh 24782";"Subulussalam, Kec. Simpang Kiri, Kota Subulussalam";"ACEH";"24782";"Indonesia";" 062727000060";"2.6407355";"98.0066267";"https://maps.google.com/?cid=0x0:0x764e22c638ea1803"
"hotel";"hotel";"Singkil";"Kec. Singkil, Kabupaten Aceh Singkil, Aceh";"Kabupaten Aceh Singkil, Aceh";"ACEH";"";"Indonesia";"";"2.2836143";"97.79873";"https://maps.google.com/?cid=0x0:0x4039d80b220d230"
"hotel";"hotel";"Island Hotel";"7RC5+V8C, Jl. Bahari, Pulo Sarok, Kec. Singkil, Kabupaten Aceh Singkil, Aceh 24472";"Jl. Bahari, Pulo Sarok, Kec. Singkil, Kabupaten Aceh Singkil";"ACEH";"24472";"Indonesia";" 081362218369";"2.2721995";"97.8082759";"https://maps.google.com/?cid=0x0:0xc46b4398c6426b26"
"hotel";"hotel";"Hotel Dina Amalia";"JL. Bahari, Pulo Sarok, Pulo Sarok, Kec. Singkil, Kabupaten Aceh Singkil, Aceh 24472";"Pulo Sarok, Pulo Sarok, Kec. Singkil, Kabupaten Aceh Singkil";"ACEH";"24472";"Indonesia";" 065821400";"2.2702533";"97.8159098";"https://maps.google.com/?cid=0x0:0xb1a80a9ba21fed89"
"hotel";"hotel";"PENGINAPAN THE SUNSHINE (Homestay)";"8C25+WQ6, Jl. Surya, Pulau Balai, Pulau Banyak, Kabupaten Aceh Singkil, Aceh 24784";"Jl. Surya, Pulau Balai, Pulau Banyak, Kabupaten Aceh Singkil";"ACEH";"24784";"Indonesia";" 081270434532";"2.3022786";"97.409403";"https://maps.google.com/?cid=0x0:0x8c16f044bc1db321"
"hotel";"hotel";"Sapo Belen";"Jl. Bahari No.55, Pulo Sarok, Kec. Singkil, Kabupaten Aceh Singkil, Aceh 24472";"Pulo Sarok, Kec. Singkil, Kabupaten Aceh Singkil";"ACEH";"24472";"Indonesia";"";"2.2725335";"97.8096566";"https://maps.google.com/?cid=0x0:0xd9d94cc40fda85be"
"hotel";"hotel";"SEULANGA (simple guesthouse)";"Pegayo, Kec. Simpang Kiri, Kota Subulussalam, Aceh 24782";"Kec. Simpang Kiri, Kota Subulussalam";"ACEH";"24782";"Indonesia";" 085260706701";"2.6384143";"98.0041313";"https://maps.google.com/?cid=0x0:0xd37fed1d3689dc6f"
"hotel";"hotel";"Hotel Khairulsyah Subulussalam";"Jl. Teuku Umar No.220, Subulussalam, Kec. Simpang Kiri, Kota Subulussalam, Aceh 24782";"Subulussalam, Kec. Simpang Kiri, Kota Subulussalam";"ACEH";"24782";"Indonesia";" 062727000060";"2.6407355";"98.0066267";"https://maps.google.com/?cid=0x0:0x764e22c638ea1803"
"hotel";"hotel";"Penginapan Suci Lestari";"Jl. BB. Jalal, Subulussalam, Kec. Simpang Kiri, Kota Subulussalam, Aceh 24782";"Subulussalam, Kec. Simpang Kiri, Kota Subulussalam";"ACEH";"24782";"Indonesia";" 085297462775";"2.6383703";"98.0071107";"https://maps.google.com/?cid=0x0:0x87345b07ace9ff35"
"hotel";"hotel";"Island Hotel";"7RC5+V8C, Jl. Bahari, Pulo Sarok, Kec. Singkil, Kabupaten Aceh Singkil, Aceh 24472";"Jl. Bahari, Pulo Sarok, Kec. Singkil, Kabupaten Aceh Singkil";"ACEH";"24472";"Indonesia";" 081362218369";"2.2721995";"97.8082759";"https://maps.google.com/?cid=0x0:0xc46b4398c6426b26"
"hotel";"hotel";"Singkil";"Kec. Singkil, Kabupaten Aceh Singkil, Aceh";"Kabupaten Aceh Singkil, Aceh";"ACEH";"";"Indonesia";"";"2.2836143";"97.79873";"https://maps.google.com/?cid=0x0:0x4039d80b220d230"
"hotel";"hotel";"Hotel Dina Amalia";"JL. Bahari, Pulo Sarok, Pulo Sarok, Kec. Singkil, Kabupaten Aceh Singkil, Aceh 24472";"Pulo Sarok, Pulo Sarok, Kec. Singkil, Kabupaten Aceh Singkil";"ACEH";"24472";"Indonesia";" 065821400";"2.2702533";"97.8159098";"https://maps.google.com/?cid=0x0:0xb1a80a9ba21fed89"
"hotel";"hotel";"Sapo Belen";"Jl. Bahari No.55, Pulo Sarok, Kec. Singkil, Kabupaten Aceh Singkil, Aceh 24472";"Pulo Sarok, Kec. Singkil, Kabupaten Aceh Singkil";"ACEH";"24472";"Indonesia";"";"2.2725335";"97.8096566";"https://maps.google.com/?cid=0x0:0xd9d94cc40fda85be"
"hotel";"hotel";"SEULANGA (simple guesthouse)";"Pegayo, Kec. Simpang Kiri, Kota Subulussalam, Aceh 24782";"Kec. Simpang Kiri, Kota Subulussalam";"ACEH";"24782";"Indonesia";" 085260706701";"2.6384143";"98.0041313";"https://maps.google.com/?cid=0x0:0xd37fed1d3689dc6f"
"hotel";"hotel";"Penginapan Suci Lestari";"Jl. BB. Jalal, Subulussalam, Kec. Simpang Kiri, Kota Subulussalam, Aceh 24782";"Subulussalam, Kec. Simpang Kiri, Kota Subulussalam";"ACEH";"24782";"Indonesia";" 085297462775";"2.6383703";"98.0071107";"https://maps.google.com/?cid=0x0:0x87345b07ace9ff35"
"hotel";"hotel";"PENGINAPAN THE SUNSHINE (Homestay)";"8C25+WQ6, Jl. Surya, Pulau Balai, Pulau Banyak, Kabupaten Aceh Singkil, Aceh 24784";"Jl. Surya, Pulau Balai, Pulau Banyak, Kabupaten Aceh Singkil";"ACEH";"24784";"Indonesia";" 081270434532";"2.3022786";"97.409403";"https://maps.google.com/?cid=0x0:0x8c16f044bc1db321"
"hotel";"hotel";"Singkil";"Kec. Singkil, Kabupaten Aceh Singkil, Aceh";"Kabupaten Aceh Singkil, Aceh";"ACEH";"";"Indonesia";"";"2.2836143";"97.79873";"https://maps.google.com/?cid=0x0:0x4039d80b220d230"
"hotel";"hotel";"Island Hotel";"7RC5+V8C, Jl. Bahari, Pulo Sarok, Kec. Singkil, Kabupaten Aceh Singkil, Aceh 24472";"Jl. Bahari, Pulo Sarok, Kec. Singkil, Kabupaten Aceh Singkil";"ACEH";"24472";"Indonesia";" 081362218369";"2.2721995";"97.8082759";"https://maps.google.com/?cid=0x0:0xc46b4398c6426b26"
"hotel";"hotel";"Hotel Dina Amalia";"JL. Bahari, Pulo Sarok, Pulo Sarok, Kec. Singkil, Kabupaten Aceh Singkil, Aceh 24472";"Pulo Sarok, Pulo Sarok, Kec. Singkil, Kabupaten Aceh Singkil";"ACEH";"24472";"Indonesia";" 065821400";"2.2702533";"97.8159098";"https://maps.google.com/?cid=0x0:0xb1a80a9ba21fed89"
"hotel";"hotel";"Sapo Belen";"Jl. Bahari No.55, Pulo Sarok, Kec. Singkil, Kabupaten Aceh Singkil, Aceh 24472";"Pulo Sarok, Kec. Singkil, Kabupaten Aceh Singkil";"ACEH";"24472";"Indonesia";"";"2.2725335";"97.8096566";"https://maps.google.com/?cid=0x0:0xd9d94cc40fda85be"
"hotel";"hotel";"Penginapan Suci Lestari";"Jl. BB. Jalal, Subulussalam, Kec. Simpang Kiri, Kota Subulussalam, Aceh 24782";"Subulussalam, Kec. Simpang Kiri, Kota Subulussalam";"ACEH";"24782";"Indonesia";" 085297462775";"2.6383703";"98.0071107";"https://maps.google.com/?cid=0x0:0x87345b07ace9ff35"
"hotel";"hotel";"PENGINAPAN THE SUNSHINE (Homestay)";"8C25+WQ6, Jl. Surya, Pulau Balai, Pulau Banyak, Kabupaten Aceh Singkil, Aceh 24784";"Jl. Surya, Pulau Balai, Pulau Banyak, Kabupaten Aceh Singkil";"ACEH";"24784";"Indonesia";" 081270434532";"2.3022786";"97.409403";"https://maps.google.com/?cid=0x0:0x8c16f044bc1db321"
"hotel";"hotel";"SEULANGA (simple guesthouse)";"Pegayo, Kec. Simpang Kiri, Kota Subulussalam, Aceh 24782";"Kec. Simpang Kiri, Kota Subulussalam";"ACEH";"24782";"Indonesia";" 085260706701";"2.6384143";"98.0041313";"https://maps.google.com/?cid=0x0:0xd37fed1d3689dc6f"
"hotel";"hotel";"Hotel Khairulsyah Subulussalam";"Jl. Teuku Umar No.220, Subulussalam, Kec. Simpang Kiri, Kota Subulussalam, Aceh 24782";"Subulussalam, Kec. Simpang Kiri, Kota Subulussalam";"ACEH";"24782";"Indonesia";" 062727000060";"2.6407355";"98.0066267";"https://maps.google.com/?cid=0x0:0x764e22c638ea1803"
"hotel";"hotel";"Sulawesi Utara 95234";"Kombos Tim., Kec. Singkil, Kota Manado, Sulawesi Utara";"Kota Manado, Sulawesi Utara";"ACEH";"";"Indonesia";"";"1.4996772";"124.8625786";"https://maps.google.com/?cid=0x0:0xbf038dcd0f451805"
"hotel";"hotel";"N/A";"";"";"ACEH";"";"Indonesia";"";"";"";"https://maps.google.com/?cid=0x0:0x799292e2dde50069%7C/g/1tvm08q6%7Cid-ID"
"hotel";"hotel";"Hotel Aston Manado";"Jl. Jendral Sudirman No.128, Pinaesaan, Kec. Wenang, Kota Manado, Sulawesi Utara 95123";"Pinaesaan, Kec. Wenang, Kota Manado";"ACEH";"95123";"Indonesia";" 04318888989";"1.4903763";"124.8414231";"https://maps.google.com/?cid=0x0:0x799292e2dde50069"
"hotel";"hotel";"Three R Hotel";"Jl. Pangeran Hidayat No.19, Wawonasa, Kec. Singkil, Kota Manado, Sulawesi Utara";"Kota Manado, Sulawesi Utara";"ACEH";"";"Indonesia";"";"1.4933355";"124.8482647";"https://maps.google.com/?cid=0x0:0xc8307c9e3aa870e0"
"hotel";"hotel";"Miracle Hotel Manado";"Jl. R E Martadinata No.38, Dendengan Luar, Kec. Tikala, Kota Manado, Sulawesi Utara";"Kota Manado, Sulawesi Utara";"ACEH";"";"Indonesia";" 0431871888";"1.4867916";"124.8565408";"https://maps.google.com/?cid=0x0:0xd80495ff17a0a1c2"
"hotel";"hotel";"VICTORIA INN MANADO";"GW33+XCR, Jl. A.A. Maramis, Paniki Bawah, Kec. Mapanget, Kota Manado, Sulawesi Utara 95256";"Jl. A.A. Maramis, Paniki Bawah, Kec. Mapanget, Kota Manado";"ACEH";"95256";"Indonesia";" 08114321500";"1.5060403";"124.9034907";"https://maps.google.com/?cid=0x0:0x1c9408dab9cdc5ba"
"hotel";"hotel";"Aceh 24785";"Kec. Kota Baharu, Kabupaten Aceh Singkil, Aceh";"Kabupaten Aceh Singkil, Aceh";"ACEH";"";"Indonesia";"";"2.4523065";"97.8123224";"https://maps.google.com/?cid=0x0:0x571276798298d3f5"
"hotel";"hotel";"MB Camp Singkil";"Jl. Singkil - Rimo, Ketapang Indah, Kec. Singkil Utara, Kabupaten Aceh Singkil, Aceh 24472";"Ketapang Indah, Kec. Singkil Utara, Kabupaten Aceh Singkil";"ACEH";"24472";"Indonesia";" 08126081916";"2.2836564";"97.9104789";"https://maps.google.com/?cid=0x0:0x28db7709854017af"
"hotel";"hotel";"PENGINAPAN THE SUNSHINE (Homestay)";"8C25+WQ6, Jl. Surya, Pulau Balai, Pulau Banyak, Kabupaten Aceh Singkil, Aceh 24784";"Jl. Surya, Pulau Balai, Pulau Banyak, Kabupaten Aceh Singkil";"ACEH";"24784";"Indonesia";" 081270434532";"2.3022786";"97.409403";"https://maps.google.com/?cid=0x0:0x8c16f044bc1db321"
"hotel";"hotel";"Island Hotel";"7RC5+V8C, Jl. Bahari, Pulo Sarok, Kec. Singkil, Kabupaten Aceh Singkil, Aceh 24472";"Jl. Bahari, Pulo Sarok, Kec. Singkil, Kabupaten Aceh Singkil";"ACEH";"24472";"Indonesia";" 081362218369";"2.2721995";"97.8082759";"https://maps.google.com/?cid=0x0:0xc46b4398c6426b26"
"hotel";"hotel";"Hotel Dina Amalia";"JL. Bahari, Pulo Sarok, Pulo Sarok, Kec. Singkil, Kabupaten Aceh Singkil, Aceh 24472";"Pulo Sarok, Pulo Sarok, Kec. Singkil, Kabupaten Aceh Singkil";"ACEH";"24472";"Indonesia";" 065821400";"2.2702533";"97.8159098";"https://maps.google.com/?cid=0x0:0xb1a80a9ba21fed89"
"hotel";"hotel";"Hotel Khairulsyah Subulussalam";"Jl. Teuku Umar No.220, Subulussalam, Kec. Simpang Kiri, Kota Subulussalam, Aceh 24782";"Subulussalam, Kec. Simpang Kiri, Kota Subulussalam";"ACEH";"24782";"Indonesia";" 062727000060";"2.6407355";"98.0066267";"https://maps.google.com/?cid=0x0:0x764e22c638ea1803"
"hotel";"hotel";"Hermes One Subulussalam";"Jl. Teuku Umar, Penanggalan, Kec. Simpang Kiri, Kota Subulussalam, Aceh 23782";"Penanggalan, Kec. Simpang Kiri, Kota Subulussalam";"ACEH";"23782";"Indonesia";" 082268888435";"2.6362136";"98.013706";"https://maps.google.com/?cid=0x0:0xc918df406722c2cb"
"hotel";"hotel";"Singkohor";"Kec. Singkohor, Kabupaten Aceh Singkil, Aceh";"Kabupaten Aceh Singkil, Aceh";"ACEH";"";"Indonesia";"";"2.5298566";"97.9647353";"https://maps.google.com/?cid=0x0:0x385153fc58186d7e"
"hotel";"hotel";"Hotel Khairulsyah Subulussalam";"Jl. Teuku Umar No.220, Subulussalam, Kec. Simpang Kiri, Kota Subulussalam, Aceh 24782";"Subulussalam, Kec. Simpang Kiri, Kota Subulussalam";"ACEH";"24782";"Indonesia";" 062727000060";"2.6407355";"98.0066267";"https://maps.google.com/?cid=0x0:0x764e22c638ea1803"
"hotel";"hotel";"PENGINAPAN THE SUNSHINE (Homestay)";"8C25+WQ6, Jl. Surya, Pulau Balai, Pulau Banyak, Kabupaten Aceh Singkil, Aceh 24784";"Jl. Surya, Pulau Balai, Pulau Banyak, Kabupaten Aceh Singkil";"ACEH";"24784";"Indonesia";" 081270434532";"2.3022786";"97.409403";"https://maps.google.com/?cid=0x0:0x8c16f044bc1db321"
"hotel";"hotel";"MB Camp Singkil";"Jl. Singkil - Rimo, Ketapang Indah, Kec. Singkil Utara, Kabupaten Aceh Singkil, Aceh 24472";"Ketapang Indah, Kec. Singkil Utara, Kabupaten Aceh Singkil";"ACEH";"24472";"Indonesia";" 08126081916";"2.2836564";"97.9104789";"https://maps.google.com/?cid=0x0:0x28db7709854017af"
"hotel";"hotel";"SEULANGA (simple guesthouse)";"Pegayo, Kec. Simpang Kiri, Kota Subulussalam, Aceh 24782";"Kec. Simpang Kiri, Kota Subulussalam";"ACEH";"24782";"Indonesia";" 085260706701";"2.6384143";"98.0041313";"https://maps.google.com/?cid=0x0:0xd37fed1d3689dc6f"
"hotel";"hotel";"Aceh 24784";"Kabupaten Aceh Singkil, Aceh";"Kabupaten Aceh Singkil, Aceh";"ACEH";"";"Indonesia";"";"2.152911";"97.2840888";"https://maps.google.com/?cid=0x0:0xab521459bf3c978c"
"hotel";"hotel";"Kimo Resort";"Pulau Baguk, Pulau Banyak, Kabupaten Aceh Singkil, Aceh 24784";"Pulau Banyak, Kabupaten Aceh Singkil";"ACEH";"24784";"Indonesia";" 082288005500";"2.2658621";"97.4167753";"https://maps.google.com/?cid=0x0:0xe98152fe2f9d1bb8"
"hotel";"hotel";"The Palambak Paradise Resort";"Pulau Baguk, Pulau palambak besar, Kabupaten Aceh Singkil, Aceh 23791";"Pulau palambak besar, Kabupaten Aceh Singkil";"ACEH";"23791";"Indonesia";" 085380175331";"2.1666156";"97.4384976";"https://maps.google.com/?cid=0x0:0x15b9adb6cf8d4a1e"
"hotel";"hotel";"Sikandang Coral";"Sikandang,Pulau 23791, Haloban, Pulau Banyak, Kabupaten Aceh Singkil, Aceh 24784";"Haloban, Pulau Banyak, Kabupaten Aceh Singkil";"ACEH";"24784";"Indonesia";" 085296949888";"2.2923198";"97.3143667";"https://maps.google.com/?cid=0x0:0x33e405b93263704a"
"hotel";"hotel";"Ira bungalows";"Pulau Tambarat, Banyak Island, Aceh Singkil Regency, Aceh 24791";"Banyak Island, Aceh Singkil Regency";"ACEH";"24791";"Indonesia";"";"2.3187956";"97.2234801";"https://maps.google.com/?cid=0x0:0x924695d73cd46a73"
"hotel";"hotel";"Hermes One Subulussalam";"Jl. Teuku Umar, Penanggalan, Kec. Simpang Kiri, Kota Subulussalam, Aceh 23782";"Penanggalan, Kec. Simpang Kiri, Kota Subulussalam";"ACEH";"23782";"Indonesia";" 082268888435";"2.6362136";"98.013706";"https://maps.google.com/?cid=0x0:0xc918df406722c2cb"
"hotel";"hotel";"Hotel Khairulsyah Subulussalam";"Jl. Teuku Umar No.220, Subulussalam, Kec. Simpang Kiri, Kota Subulussalam, Aceh 24782";"Subulussalam, Kec. Simpang Kiri, Kota Subulussalam";"ACEH";"24782";"Indonesia";" 062727000060";"2.6407355";"98.0066267";"https://maps.google.com/?cid=0x0:0x764e22c638ea1803"
"hotel";"hotel";"Tailana Island";"Pulau Tailana, Haloban, Kec. Pulau Banyak Bar., Kabupaten Aceh Singkil, Aceh 24784";"Haloban, Kec. Pulau Banyak Bar., Kabupaten Aceh Singkil";"ACEH";"24784";"Indonesia";" 081361185844";"2.2780244";"97.2310793";"https://maps.google.com/?cid=0x0:0x64eb0cb42426de9"
"hotel";"hotel";"Mutiara Dairi Hotel";"Jl. Perluasan No.82, Huta Rakyat, Kec. Sidikalang, Kabupaten Dairi, Sumatera Utara 22213";"Huta Rakyat, Kec. Sidikalang, Kabupaten Dairi";"ACEH";"22213";"Indonesia";"";"2.7556151";"98.2998992";"https://maps.google.com/?cid=0x0:0xa6d9d29b049e7454"
"hotel";"hotel";"Banyak Surf  Villas";"Bay of Plenty, Ujung Lolok, Pulau Tuangku Office:, Jl. Suka Ramai No.Kel, Pulau Baguk, Kec. Pulau Banyak, Kabupaten Aceh Singkil, Aceh 79912";"Ujung Lolok, Pulau Tuangku Office:, Jl. Suka Ramai No.Kel, Pulau Baguk, Kec. Pulau Banyak, Kabupaten Aceh Singkil";"ACEH";"79912";"Indonesia";" 081237710911";"2.0530822";"97.3376277";"https://maps.google.com/?cid=0x0:0xa99687b72c273e52"
"hotel";"hotel";"PINANG Island";"Haloban, Kec. Pulau Banyak Bar., Kabupaten Aceh Singkil, Aceh";"Kabupaten Aceh Singkil, Aceh";"ACEH";"";"Indonesia";" 08113886030";"2.0401328";"97.390706";"https://maps.google.com/?cid=0x0:0x91fb336acb3cf636"
"hotel";"hotel";"MB Camp Singkil";"Jl. Singkil - Rimo, Ketapang Indah, Kec. Singkil Utara, Kabupaten Aceh Singkil, Aceh 24472";"Ketapang Indah, Kec. Singkil Utara, Kabupaten Aceh Singkil";"ACEH";"24472";"Indonesia";" 08126081916";"2.2836564";"97.9104789";"https://maps.google.com/?cid=0x0:0x28db7709854017af"
"hotel";"hotel";"Hotel Cendrawasih Hutarakyat";"Jl. Parongil Jl. Persada No.341 C, Huta Rakyat, Kec. Sidikalang, Kabupaten Dairi, Sumatera Utara 22211";"Huta Rakyat, Kec. Sidikalang, Kabupaten Dairi";"ACEH";"22211";"Indonesia";" 082172971770";"2.7549944";"98.2811742";"https://maps.google.com/?cid=0x0:0xe17c5eb8f5e533ce"
"hotel";"hotel";"Banyak Surf Resort";"Ujung Lolok, Pulau Tuangku, Haloban, Kec. Pulau Banyak, Kabupaten Aceh Singkil, Aceh 24784";"Pulau Tuangku, Haloban, Kec. Pulau Banyak, Kabupaten Aceh Singkil";"ACEH";"24784";"Indonesia";" 081353031331";"2.0467852";"97.3353746";"https://maps.google.com/?cid=0x0:0xbd052368533c3077"
"cafe";"cafe";"Aceh 24784";"Kabupaten Aceh Singkil, Aceh";"Kabupaten Aceh Singkil, Aceh";"ACEH";"";"Indonesia";"";"2.152911";"97.2840888";"https://maps.google.com/?cid=0x0:0xab521459bf3c978c"
"cafe";"Kafe";"BALAI INDAH CAFE";"8C45+X27, Jalan Surya, Pulau Balai, Pulau Banyak, Kabupaten Aceh Singkil, Aceh 24784";"Jalan Surya, Pulau Balai, Pulau Banyak, Kabupaten Aceh Singkil";"ACEH";"24784";"Indonesia";" 082361412840";"2.3074187";"97.4075619";"https://maps.google.com/?cid=0x0:0x8842e3de67e0f4"
"cafe";"Restoran";"Cafe Flamboyan";"66JJ+767, Haloban, Kec. Pulau Banyak Bar., Kabupaten Aceh Singkil, Aceh 24784";"Haloban, Kec. Pulau Banyak Bar., Kabupaten Aceh Singkil";"ACEH";"24784";"Indonesia";"";"2.2306595";"97.2305618";"https://maps.google.com/?cid=0x0:0xac28982f9da45913"
"cafe";"Kafe";"Pojok Cafe";"Haloban, Kec. Pulau Banyak Bar., Kabupaten Aceh Singkil, Aceh 24790";"Kec. Pulau Banyak Bar., Kabupaten Aceh Singkil";"ACEH";"24790";"Indonesia";" 085372494922";"2.2265504";"97.2305929";"https://maps.google.com/?cid=0x0:0xe25adb91d7e5a2eb"
"cafe";"Restoran";"warung Sari";"932V+RFQ, Lorong 4, Biskang, Kec. Danau Paris, Kabupaten Aceh Singkil, Aceh 24784";"Lorong 4, Biskang, Kec. Danau Paris, Kabupaten Aceh Singkil";"ACEH";"24784";"Indonesia";" 082272268965";"2.3520991";"98.0937357";"https://maps.google.com/?cid=0x0:0x17e6873f0d7e5ef5"
"cafe";"Tujuan Wisata";"Bumdes PULAU BALAI AMERICA CAFE";"8C64+4F7, Jalan Surya, Pulau Balai, Pulau Banyak, Kabupaten Aceh Singkil, Aceh 24784";"Jalan Surya, Pulau Balai, Pulau Banyak, Kabupaten Aceh Singkil";"ACEH";"24784";"Indonesia";" 085360166521";"2.3102917";"97.4061783";"https://maps.google.com/?cid=0x0:0xae3cc4c1fa4a8651"
"cafe";"Kedai Kopi";"Saung Bitapmi";"Jl. Suka Maju Perumahan BRR, Asantola, Kec. Pulau Banyak Bar., Aceh 24784";"Asantola, Kec. Pulau Banyak Bar.";"ACEH";"24784";"Indonesia";" 081219115121";"2.2257539";"97.2349626";"https://maps.google.com/?cid=0x0:0x3ec29ed7c78eb652"
"cafe";"Kedai Kopi";"Pulau baguk";"7CW5+RWX, Pulau Baguk, Pulau Banyak, Kabupaten Aceh Singkil, Aceh 24784";"Pulau Baguk, Pulau Banyak, Kabupaten Aceh Singkil";"ACEH";"24784";"Indonesia";"";"2.2971167";"97.4098442";"https://maps.google.com/?cid=0x0:0xa1950a53c161ce19"
"cafe";"Tujuan Wisata";"Warkop Pak Itam";"7C88+QJJ, Pulau Panjang, Kepulauan Banyak, Kabupaten Aceh Singkil, Aceh 24784";"Pulau Panjang, Kepulauan Banyak, Kabupaten Aceh Singkil";"ACEH";"24784";"Indonesia";"";"2.2669746";"97.4165041";"https://maps.google.com/?cid=0x0:0xdd4368cb148bb8b3"
"cafe";"Kafe";"Cafe Blustun";"8C65+MPJ, Pulau Balai, Pulau Banyak, Kabupaten Aceh Singkil, Aceh";"Kabupaten Aceh Singkil, Aceh";"ACEH";"";"Indonesia";"";"2.3115652";"97.4091746";"https://maps.google.com/?cid=0x0:0xadcfa0b9a90344a5"
"cafe";"Kedai Kopi";"Warung Mande";"66HJ+X29, Haloban, Kec. Pulau Banyak Bar., Kabupaten Aceh Singkil, Aceh 24784";"Haloban, Kec. Pulau Banyak Bar., Kabupaten Aceh Singkil";"ACEH";"24784";"Indonesia";"";"2.2299176";"97.2301107";"https://maps.google.com/?cid=0x0:0xced8d5a0ad640bfb"
"cafe";"Kedai Kopi";"AADC";"66JJ+4CG, Haloban, Kec. Pulau Banyak Bar., Kabupaten Aceh Singkil, Aceh 24784";"Haloban, Kec. Pulau Banyak Bar., Kabupaten Aceh Singkil";"ACEH";"24784";"Indonesia";" 082167091081";"2.2303124";"97.2310645";"https://maps.google.com/?cid=0x0:0x67768be791d3981e"
"cafe";"Hidangan Laut";"kiniko cafe";"7VFH+V99, Gosong Telaga Bar., Kec. Singkil Utara, Kabupaten Aceh Singkil, Aceh 24472";"Gosong Telaga Bar., Kec. Singkil Utara, Kabupaten Aceh Singkil";"ACEH";"24472";"Indonesia";"";"2.2746629";"97.8784959";"https://maps.google.com/?cid=0x0:0x105ef636a027c5a1"
"cafe";"Kafe";"WARUNG ALBAR";"7CW5+WHP, JL. Lingkar, Pulau Baguk, Pulau Banyak, Kabupaten Aceh Singkil, Aceh 24784";"JL. Lingkar, Pulau Baguk, Pulau Banyak, Kabupaten Aceh Singkil";"ACEH";"24784";"Indonesia";" 082360906179";"2.2973331";"97.4089543";"https://maps.google.com/?cid=0x0:0x29d8e50e38ffb6a"
"cafe";"cafe";"Kec. Gn. Meriah";"Kabupaten Aceh Singkil, Aceh";"Kabupaten Aceh Singkil, Aceh";"ACEH";"";"Indonesia";"";"2.3905149";"97.9623759";"https://maps.google.com/?cid=0x0:0x4e324f8a0662e10"
"cafe";"Kedai Kopi";"Jackpot cafe";"mariah, Tunas Harapan, no 252, Tunas Harapan, Kec. Gn. Meriah, Kabupaten Aceh Singkil, Aceh 24791";"Tunas Harapan, no 252, Tunas Harapan, Kec. Gn. Meriah, Kabupaten Aceh Singkil";"ACEH";"24791";"Indonesia";" 085297996616";"2.3926835";"97.9707894";"https://maps.google.com/?cid=0x0:0x3ffc5de21d52d339"
"cafe";"Kedai Kopi";"JA coffee";"9XP7+3GX, Blk. VI Baru, Kec. Gn. Meriah, Kabupaten Aceh Singkil, Aceh 24791";"Blk. VI Baru, Kec. Gn. Meriah, Kabupaten Aceh Singkil";"ACEH";"24791";"Indonesia";"";"2.3853109";"97.9638591";"https://maps.google.com/?cid=0x0:0x653e133b7838ca2b"
"cafe";"cafe";"N/A";"";"";"ACEH";"";"Indonesia";"";"";"";"https://maps.google.com/?cid=0x0:0x3ffc5de21d52d339u0026onu0026midu003d/g/11hzvy6ldw"
"cafe";"cafe";"Aceh 24784";"Kabupaten Aceh Singkil, Aceh";"Kabupaten Aceh Singkil, Aceh";"ACEH";"";"Indonesia";"";"2.152911";"97.2840888";"https://maps.google.com/?cid=0x0:0xab521459bf3c978c"
"cafe";"Kafe";"Pojok Cafe";"Haloban, Kec. Pulau Banyak Bar., Kabupaten Aceh Singkil, Aceh 24790";"Kec. Pulau Banyak Bar., Kabupaten Aceh Singkil";"ACEH";"24790";"Indonesia";" 085372494922";"2.2265504";"97.2305929";"https://maps.google.com/?cid=0x0:0xe25adb91d7e5a2eb"
"cafe";"Restoran";"Cafe Flamboyan";"66JJ+767, Haloban, Kec. Pulau Banyak Bar., Kabupaten Aceh Singkil, Aceh 24784";"Haloban, Kec. Pulau Banyak Bar., Kabupaten Aceh Singkil";"ACEH";"24784";"Indonesia";"";"2.2306595";"97.2305618";"https://maps.google.com/?cid=0x0:0xac28982f9da45913"
"cafe";"Kafe";"Kafe Ridho";"8C26+452, Pulau Baguk, Banyak Island, Aceh Singkil Regency, Aceh 24784";"Pulau Baguk, Banyak Island, Aceh Singkil Regency";"ACEH";"24784";"Indonesia";" 085362312621";"2.3002583";"97.4103852";"https://maps.google.com/?cid=0x0:0xa126c4059572d47"
"cafe";"Restoran";"Munthe Coffee";"FVV3+F7R, Danau Bungara, Kec. Kota Baharu, Kabupaten Aceh Singkil, Aceh 24782";"Danau Bungara, Kec. Kota Baharu, Kabupaten Aceh Singkil";"ACEH";"24782";"Indonesia";" 081534508839";"2.4937439";"97.85313";"https://maps.google.com/?cid=0x0:0x768ea60a18260e27"
"cafe";"Kedai Kopi";"Pulau baguk";"7CW5+RWX, Pulau Baguk, Pulau Banyak, Kabupaten Aceh Singkil, Aceh 24784";"Pulau Baguk, Pulau Banyak, Kabupaten Aceh Singkil";"ACEH";"24784";"Indonesia";"";"2.2971167";"97.4098442";"https://maps.google.com/?cid=0x0:0xa1950a53c161ce19"
"cafe";"Tujuan Wisata";"Bumdes PULAU BALAI AMERICA CAFE";"8C64+4F7, Jalan Surya, Pulau Balai, Pulau Banyak, Kabupaten Aceh Singkil, Aceh 24784";"Jalan Surya, Pulau Balai, Pulau Banyak, Kabupaten Aceh Singkil";"ACEH";"24784";"Indonesia";" 085360166521";"2.3102917";"97.4061783";"https://maps.google.com/?cid=0x0:0xae3cc4c1fa4a8651"
"cafe";"Kedai Kopi";"AADC";"66JJ+4CG, Haloban, Kec. Pulau Banyak Bar., Kabupaten Aceh Singkil, Aceh 24784";"Haloban, Kec. Pulau Banyak Bar., Kabupaten Aceh Singkil";"ACEH";"24784";"Indonesia";" 082167091081";"2.2303124";"97.2310645";"https://maps.google.com/?cid=0x0:0x67768be791d3981e"
"cafe";"Kafe";"Cafe Blustun";"8C65+MPJ, Pulau Balai, Pulau Banyak, Kabupaten Aceh Singkil, Aceh";"Kabupaten Aceh Singkil, Aceh";"ACEH";"";"Indonesia";"";"2.3115652";"97.4091746";"https://maps.google.com/?cid=0x0:0xadcfa0b9a90344a5"
"cafe";"Kedai Kopi";"Saung Bitapmi";"Jl. Suka Maju Perumahan BRR, Asantola, Kec. Pulau Banyak Bar., Aceh 24784";"Asantola, Kec. Pulau Banyak Bar.";"ACEH";"24784";"Indonesia";" 081219115121";"2.2257539";"97.2349626";"https://maps.google.com/?cid=0x0:0x3ec29ed7c78eb652"
"cafe";"Kedai Kopi";"Warung Mande";"66HJ+X29, Haloban, Kec. Pulau Banyak Bar., Kabupaten Aceh Singkil, Aceh 24784";"Haloban, Kec. Pulau Banyak Bar., Kabupaten Aceh Singkil";"ACEH";"24784";"Indonesia";"";"2.2299176";"97.2301107";"https://maps.google.com/?cid=0x0:0xced8d5a0ad640bfb"
"cafe";"Kafe";"WARUNG ALBAR";"7CW5+WHP, JL. Lingkar, Pulau Baguk, Pulau Banyak, Kabupaten Aceh Singkil, Aceh 24784";"JL. Lingkar, Pulau Baguk, Pulau Banyak, Kabupaten Aceh Singkil";"ACEH";"24784";"Indonesia";" 082360906179";"2.2973331";"97.4089543";"https://maps.google.com/?cid=0x0:0x29d8e50e38ffb6a"
"cafe";"Kedai Kopi";"Restoran  Depot Air BUMDes Teluk Nibung";"89RP+7HH, Pulau Ujung Batu, Tlk. Nibung, Pulau Banyak, Kabupaten Aceh Singkil, Aceh 24784";"Pulau Ujung Batu, Tlk. Nibung, Pulau Banyak, Kabupaten Aceh Singkil";"ACEH";"24784";"Indonesia";"";"2.3406972";"97.3864958";"https://maps.google.com/?cid=0x0:0x163c7f1f199c26d"
"cafe";"Tujuan Wisata";"Warkop Pak Itam";"7C88+QJJ, Pulau Panjang, Kepulauan Banyak, Kabupaten Aceh Singkil, Aceh 24784";"Pulau Panjang, Kepulauan Banyak, Kabupaten Aceh Singkil";"ACEH";"24784";"Indonesia";"";"2.2669746";"97.4165041";"https://maps.google.com/?cid=0x0:0xdd4368cb148bb8b3"
"cafe";"cafe";"Kec. Kuala Baru";"Kabupaten Aceh Singkil, Aceh";"Kabupaten Aceh Singkil, Aceh";"ACEH";"";"Indonesia";"";"2.3496125";"97.7112967";"https://maps.google.com/?cid=0x0:0x48a3d100d6cd113b"
"cafe";"Kafe";"Cafe Muara";"8PQ8+QXV, Kuala Baru Laut, Kec. Kuala Baru, Kabupaten Aceh Singkil, Aceh 24472";"Kuala Baru Laut, Kec. Kuala Baru, Kabupaten Aceh Singkil";"ACEH";"24472";"Indonesia";"";"2.3395133";"97.7159459";"https://maps.google.com/?cid=0x0:0xdc95e0addb8cc84d"
"cafe";"Kafe";"Hawariyun cofee";"Jl. Kuala Baru, Suka Jaya, Kec. Kuala Baru, Kabupaten Aceh Singkil, Aceh 24472";"Suka Jaya, Kec. Kuala Baru, Kabupaten Aceh Singkil";"ACEH";"24472";"Indonesia";" 085761316909";"2.3588523";"97.703037";"https://maps.google.com/?cid=0x0:0x80ed4c54bf9c0b79"
"cafe";"Kafe";"Warkop Paetek";"Ujung, Kec. Singkil, Kabupaten Aceh Singkil, Aceh";"Kabupaten Aceh Singkil, Aceh";"ACEH";"";"Indonesia";"";"2.2920161";"97.7798477";"https://maps.google.com/?cid=0x0:0x57899787f101f9e5"
"cafe";"Kedai Kopi";"Warkop mak idzan faruq";"8PX6+2XJ, Kuala Baru Sungai, Kec. Kuala Baru, Kabupaten Aceh Singkil, Aceh 24472";"Kuala Baru Sungai, Kec. Kuala Baru, Kabupaten Aceh Singkil";"ACEH";"24472";"Indonesia";"";"2.34759";"97.7123797";"https://maps.google.com/?cid=0x0:0xe11b033f82af7fff"
"cafe";"Bar Kopi Espresso";"GK Cafe Coffee  Eatery";"Jl. Mayjend Sutoyo, Kota Kuala Simpang, Kabupaten Aceh Tamiang, Aceh";"Kabupaten Aceh Tamiang, Aceh";"ACEH";"";"Indonesia";"";"4.2871876";"98.0581783";"https://maps.google.com/?cid=0x0:0x4993d1d90bf43168"
"cafe";"Kedai Kopi";"The King Cafe";"73P5+RP7, Jl. Cut Nyak Dien, Kota Lintang, Kota Kuala Simpang, Kabupaten Aceh Tamiang, Aceh 24456";"Jl. Cut Nyak Dien, Kota Lintang, Kota Kuala Simpang, Kabupaten Aceh Tamiang";"ACEH";"24456";"Indonesia";" 081269487688";"4.2870473";"98.0593085";"https://maps.google.com/?cid=0x0:0x70644ea5b12c3b3"
"cafe";"Kedai Kopi";"Quantum Coffee  Brasserie";"Ie Masen Kaye Adang, Kec. Syiah Kuala, Kota Banda Aceh, Aceh 24415";"Kec. Syiah Kuala, Kota Banda Aceh";"ACEH";"24415";"Indonesia";" 082295990995";"5.5588994";"95.3443103";"https://maps.google.com/?cid=0x0:0xb9703950756b8c11"
"cafe";"Kedai Kopi";"Cafe Kuala Cangkoi";"G7XM+FV3, Gampong Blang, Kec. Meuraxa, Kota Banda Aceh, Aceh 23232";"Gampong Blang, Kec. Meuraxa, Kota Banda Aceh";"ACEH";"23232";"Indonesia";" 08126948585";"5.548636";"95.2846763";"https://maps.google.com/?cid=0x0:0x17fb2f1f76db85e6"
"cafe";"Kafe";"Warung sanak";"7QQM+49W, Unnamed Road, Siti Ambia, Kec. Singkil, Kabupaten Aceh Singkil, Aceh 24472";"Unnamed Road, Siti Ambia, Kec. Singkil, Kabupaten Aceh Singkil";"ACEH";"24472";"Indonesia";" 082368856337";"2.2878675";"97.7834444";"https://maps.google.com/?cid=0x0:0xff5f7b93fe4b3304"
"cafe";"Kafe";"Syahftri azzahra";"7QPF+799 Keripik Azzahra, Unnamed Road, Kilangan, Kec. Singkil, Kabupaten Aceh Singkil, Aceh";"Kabupaten Aceh Singkil, Aceh";"ACEH";"";"Indonesia";" 085361741825";"2.2856697";"97.7734697";"https://maps.google.com/?cid=0x0:0x768946d992535e7d"
"cafe";"Bakso";"Warung bakso";"9P44+M35, Jalan, Suka Jaya, Kuala Baru, Aceh Singkil Regency, Aceh 24472";"Jalan, Suka Jaya, Kuala Baru, Aceh Singkil Regency";"ACEH";"24472";"Indonesia";"";"2.3566376";"97.7052439";"https://maps.google.com/?cid=0x0:0x43330a4b773844c"
"cafe";"Kedai Kopi";"Bersua Coffee Id";"Di samping mesjid AL-HUDA, Tanjung karang, dusun istana, kec. Karang baru, Kota Kuala Simpang, Kabupaten Aceh Tamiang, Aceh 24476";"Tanjung karang, dusun istana, kec. Karang baru, Kota Kuala Simpang, Kabupaten Aceh Tamiang";"ACEH";"24476";"Indonesia";" 082216045533";"4.2880856";"98.0513259";"https://maps.google.com/?cid=0x0:0xa0b4cfe2f274440f"
"cafe";"Rumah Makan";"RH. Rizki Haikal";"Simpang 4, Kuala Baru Laut, Kec. Kuala Baru, Kabupaten Aceh Singkil, Aceh 23785";"Kuala Baru Laut, Kec. Kuala Baru, Kabupaten Aceh Singkil";"ACEH";"23785";"Indonesia";"";"2.3501397";"97.70855";"https://maps.google.com/?cid=0x0:0xf8941fce45532404"
"cafe";"cafe";"Pulau Banyak";"Kabupaten Aceh Singkil, Aceh";"Kabupaten Aceh Singkil, Aceh";"ACEH";"";"Indonesia";"";"2.3198851";"97.413802";"https://maps.google.com/?cid=0x0:0xf22eba8ba0db80e0"
"cafe";"Kafe";"BALAI INDAH CAFE";"8C45+X27, Jalan Surya, Pulau Balai, Pulau Banyak, Kabupaten Aceh Singkil, Aceh 24784";"Jalan Surya, Pulau Balai, Pulau Banyak, Kabupaten Aceh Singkil";"ACEH";"24784";"Indonesia";" 082361412840";"2.3074187";"97.4075619";"https://maps.google.com/?cid=0x0:0x8842e3de67e0f4"
"cafe";"Tujuan Wisata";"Warkop Pak Itam";"7C88+QJJ, Pulau Panjang, Kepulauan Banyak, Kabupaten Aceh Singkil, Aceh 24784";"Pulau Panjang, Kepulauan Banyak, Kabupaten Aceh Singkil";"ACEH";"24784";"Indonesia";"";"2.2669746";"97.4165041";"https://maps.google.com/?cid=0x0:0xdd4368cb148bb8b3"
"cafe";"Kafe";"Setengah Lima Cofee";"89QP+H9W, Unnamed Road, Tlk. Nibung, Pulau Banyak, Kabupaten Aceh Singkil, Aceh 24784";"Unnamed Road, Tlk. Nibung, Pulau Banyak, Kabupaten Aceh Singkil";"ACEH";"24784";"Indonesia";" 082274893682";"2.3389917";"97.3859508";"https://maps.google.com/?cid=0x0:0x71b8144dd2b8b87a"
"cafe";"Kafe";"Warung Kopi Simpang Ampek";"Jl.Iskandar Muda, Simpang Ampek, Pulau Balai, Kabupaten Aceh Singkil, Aceh 24791";"Simpang Ampek, Pulau Balai, Kabupaten Aceh Singkil";"ACEH";"24791";"Indonesia";" 081361521336";"2.3006558";"97.4104239";"https://maps.google.com/?cid=0x0:0x3260c7986766d21c"
"cafe";"Kedai Kopi";"Pulau baguk";"7CW5+RWX, Pulau Baguk, Pulau Banyak, Kabupaten Aceh Singkil, Aceh 24784";"Pulau Baguk, Pulau Banyak, Kabupaten Aceh Singkil";"ACEH";"24784";"Indonesia";"";"2.2971167";"97.4098442";"https://maps.google.com/?cid=0x0:0xa1950a53c161ce19"
"cafe";"Kafe";"WARUNG ALBAR";"7CW5+WHP, JL. Lingkar, Pulau Baguk, Pulau Banyak, Kabupaten Aceh Singkil, Aceh 24784";"JL. Lingkar, Pulau Baguk, Pulau Banyak, Kabupaten Aceh Singkil";"ACEH";"24784";"Indonesia";" 082360906179";"2.2973331";"97.4089543";"https://maps.google.com/?cid=0x0:0x29d8e50e38ffb6a"
"cafe";"Kafe";"Kafe Ridho";"8C26+452, Pulau Baguk, Banyak Island, Aceh Singkil Regency, Aceh 24784";"Pulau Baguk, Banyak Island, Aceh Singkil Regency";"ACEH";"24784";"Indonesia";" 085362312621";"2.3002583";"97.4103852";"https://maps.google.com/?cid=0x0:0xa126c4059572d47"
"cafe";"Kedai Kopi";"Warung Kopi Kak Mar";"8C26+84V, Pulau Balai, Pulau Banyak, Kabupaten Aceh Singkil, Aceh 24784";"Pulau Balai, Pulau Banyak, Kabupaten Aceh Singkil";"ACEH";"24784";"Indonesia";" 081361521336";"2.3008683";"97.4102902";"https://maps.google.com/?cid=0x0:0x3d5c0d699177d499"
"cafe";"Restoran";"Cafe Flamboyan";"66JJ+767, Haloban, Kec. Pulau Banyak Bar., Kabupaten Aceh Singkil, Aceh 24784";"Haloban, Kec. Pulau Banyak Bar., Kabupaten Aceh Singkil";"ACEH";"24784";"Indonesia";"";"2.2306595";"97.2305618";"https://maps.google.com/?cid=0x0:0xac28982f9da45913"
"cafe";"Kedai Kopi";"Warkop Delsi";"jalan iskandar muda, Pulau Balai, Pulau Banyak, Kabupaten Aceh Singkil, Aceh 24784";"Pulau Balai, Pulau Banyak, Kabupaten Aceh Singkil";"ACEH";"24784";"Indonesia";" 082168348154";"2.3001604";"97.4090629";"https://maps.google.com/?cid=0x0:0x30a6640a4c832dd1"
"cafe";"Tujuan Wisata";"Bumdes PULAU BALAI AMERICA CAFE";"8C64+4F7, Jalan Surya, Pulau Balai, Pulau Banyak, Kabupaten Aceh Singkil, Aceh 24784";"Jalan Surya, Pulau Balai, Pulau Banyak, Kabupaten Aceh Singkil";"ACEH";"24784";"Indonesia";" 085360166521";"2.3102917";"97.4061783";"https://maps.google.com/?cid=0x0:0xae3cc4c1fa4a8651"
"cafe";"Kafe";"Warung Finna";"7CX6+RF9, Jl. Nelayan, Pulau Balai, Pulau Banyak, Kabupaten Aceh Singkil, Aceh 24784";"Jl. Nelayan, Pulau Balai, Pulau Banyak, Kabupaten Aceh Singkil";"ACEH";"24784";"Indonesia";" 081361521336";"2.2995429";"97.4112248";"https://maps.google.com/?cid=0x0:0xd1eb44ccfe9672ba"
"cafe";"Restoran";"Warung Sederhana";"8C26+F38, Pulau Balai, Pulau Banyak, Kabupaten Aceh Singkil, Aceh 24784";"Pulau Balai, Pulau Banyak, Kabupaten Aceh Singkil";"ACEH";"24784";"Indonesia";"";"2.3011613";"97.4101999";"https://maps.google.com/?cid=0x0:0xf3dd36d48b45809d"
"cafe";"cafe";"Kec. Pulau Banyak Bar.";"Kabupaten Aceh Singkil, Aceh";"Kabupaten Aceh Singkil, Aceh";"ACEH";"";"Indonesia";"";"2.2278739";"97.2326992";"https://maps.google.com/?cid=0x0:0x154c9da37cf5674f"
"cafe";"Restoran";"Cafe Flamboyan";"66JJ+767, Haloban, Kec. Pulau Banyak Bar., Kabupaten Aceh Singkil, Aceh 24784";"Haloban, Kec. Pulau Banyak Bar., Kabupaten Aceh Singkil";"ACEH";"24784";"Indonesia";"";"2.2306595";"97.2305618";"https://maps.google.com/?cid=0x0:0xac28982f9da45913"
"cafe";"Kafe";"Pojok Cafe";"Haloban, Kec. Pulau Banyak Bar., Kabupaten Aceh Singkil, Aceh 24790";"Kec. Pulau Banyak Bar., Kabupaten Aceh Singkil";"ACEH";"24790";"Indonesia";" 085372494922";"2.2265504";"97.2305929";"https://maps.google.com/?cid=0x0:0xe25adb91d7e5a2eb"
"cafe";"Kafe";"BALAI INDAH CAFE";"8C45+X27, Jalan Surya, Pulau Balai, Pulau Banyak, Kabupaten Aceh Singkil, Aceh 24784";"Jalan Surya, Pulau Balai, Pulau Banyak, Kabupaten Aceh Singkil";"ACEH";"24784";"Indonesia";" 082361412840";"2.3074187";"97.4075619";"https://maps.google.com/?cid=0x0:0x8842e3de67e0f4"
"cafe";"Kedai Kopi";"Saung Bitapmi";"Jl. Suka Maju Perumahan BRR, Asantola, Kec. Pulau Banyak Bar., Aceh 24784";"Asantola, Kec. Pulau Banyak Bar.";"ACEH";"24784";"Indonesia";" 081219115121";"2.2257539";"97.2349626";"https://maps.google.com/?cid=0x0:0x3ec29ed7c78eb652"
"cafe";"Kedai Kopi";"Warung Mande";"66HJ+X29, Haloban, Kec. Pulau Banyak Bar., Kabupaten Aceh Singkil, Aceh 24784";"Haloban, Kec. Pulau Banyak Bar., Kabupaten Aceh Singkil";"ACEH";"24784";"Indonesia";"";"2.2299176";"97.2301107";"https://maps.google.com/?cid=0x0:0xced8d5a0ad640bfb"
"cafe";"Kafe";"Warkop ksm";"Blok 6 Rimo, Haloban, Kec. Pulau Banyak Bar., Kabupaten Aceh Singkil, Aceh 24784";"Haloban, Kec. Pulau Banyak Bar., Kabupaten Aceh Singkil";"ACEH";"24784";"Indonesia";" 081536852647";"2.152911";"97.2840888";"https://maps.google.com/?cid=0x0:0x3156c9322009efb0"
"cafe";"Kedai Kopi";"Warung pondok Bambu";"66GJ+H5Q, Haloban, Kec. Pulau Banyak Bar., Kabupaten Aceh Singkil, Aceh 24784";"Haloban, Kec. Pulau Banyak Bar., Kabupaten Aceh Singkil";"ACEH";"24784";"Indonesia";" 085270868761";"2.2264519";"97.2304736";"https://maps.google.com/?cid=0x0:0xaa26850ba5238a87"
"cafe";"Kafe";"Cafe Blustun";"8C65+MPJ, Pulau Balai, Pulau Banyak, Kabupaten Aceh Singkil, Aceh";"Kabupaten Aceh Singkil, Aceh";"ACEH";"";"Indonesia";"";"2.3115652";"97.4091746";"https://maps.google.com/?cid=0x0:0xadcfa0b9a90344a5"
"cafe";"Kafe";"Setengah Lima Cofee";"89QP+H9W, Unnamed Road, Tlk. Nibung, Pulau Banyak, Kabupaten Aceh Singkil, Aceh 24784";"Unnamed Road, Tlk. Nibung, Pulau Banyak, Kabupaten Aceh Singkil";"ACEH";"24784";"Indonesia";" 082274893682";"2.3389917";"97.3859508";"https://maps.google.com/?cid=0x0:0x71b8144dd2b8b87a"
"cafe";"Tujuan Wisata";"Warkop Pak Itam";"7C88+QJJ, Pulau Panjang, Kepulauan Banyak, Kabupaten Aceh Singkil, Aceh 24784";"Pulau Panjang, Kepulauan Banyak, Kabupaten Aceh Singkil";"ACEH";"24784";"Indonesia";"";"2.2669746";"97.4165041";"https://maps.google.com/?cid=0x0:0xdd4368cb148bb8b3"
"cafe";"Kafe";"Warung Kopi Simpang Ampek";"Jl.Iskandar Muda, Simpang Ampek, Pulau Balai, Kabupaten Aceh Singkil, Aceh 24791";"Simpang Ampek, Pulau Balai, Kabupaten Aceh Singkil";"ACEH";"24791";"Indonesia";" 081361521336";"2.3006558";"97.4104239";"https://maps.google.com/?cid=0x0:0x3260c7986766d21c"
"cafe";"Kafe";"WARKOP MAMAK SAHNAN";"66JJ+397, Haloban, Kec. Pulau Banyak Bar., Kabupaten Aceh Singkil, Aceh 24784";"Haloban, Kec. Pulau Banyak Bar., Kabupaten Aceh Singkil";"ACEH";"24784";"Indonesia";"";"2.2301514";"97.2309093";"https://maps.google.com/?cid=0x0:0xd0865a7857d557ec"
"cafe";"Biro Perjalanan dan Wisata";"Pulau Banyak Travel";"Jalan Iskandar Muda No.4, Pulau Balai, Pulau Banyak, Kabupaten Aceh Singkil, Aceh 24791";"Pulau Balai, Pulau Banyak, Kabupaten Aceh Singkil";"ACEH";"24791";"Indonesia";" 085277258272";"2.300944";"97.4101007";"https://maps.google.com/?cid=0x0:0xeafde46f3122928e"
"cafe";"cafe";"Aceh 24783";"Kabupaten Aceh Singkil, Aceh";"Kabupaten Aceh Singkil, Aceh";"ACEH";"";"Indonesia";"";"2.4071732";"97.991986";"https://maps.google.com/?cid=0x0:0x4541045a0abeaf53"
"cafe";"Kedai Kopi";"Soccer Coffee";"9XM5+4RF, Lae Butar, Kec. Gn. Meriah, Kabupaten Aceh Singkil, Aceh";"Kabupaten Aceh Singkil, Aceh";"ACEH";"";"Indonesia";" 082362680000";"2.3828053";"97.9595392";"https://maps.google.com/?cid=0x0:0x7bdbf6d6dc64ed80"
"cafe";"Restoran";"Ningrat Cafe";"9XR8+288, Unnamed Road, Tulaan, Kec. Gn. Meriah, Kabupaten Aceh Singkil, Aceh 24791";"Unnamed Road, Tulaan, Kec. Gn. Meriah, Kabupaten Aceh Singkil";"ACEH";"24791";"Indonesia";" 081370826783";"2.3900399";"97.965837";"https://maps.google.com/?cid=0x0:0x5cb3392971a6564"
"cafe";"Sarapan";"Warung Imur";"F23H+QR6, Lae Riman, Kec. Simpang Kanan, Kabupaten Aceh Singkil, Aceh 24783";"Lae Riman, Kec. Simpang Kanan, Kabupaten Aceh Singkil";"ACEH";"24783";"Indonesia";"";"2.4544013";"98.0295236";"https://maps.google.com/?cid=0x0:0xfc41822fd5bf4ccf"
"cafe";"Kafe";"ECOFFEE  EATRY";"Jl, Blk. VI Baru, Kec. Gn. Meriah, Kabupaten Aceh Singkil, Aceh 24791";"Blk. VI Baru, Kec. Gn. Meriah, Kabupaten Aceh Singkil";"ACEH";"24791";"Indonesia";"";"2.3871034";"97.9649868";"https://maps.google.com/?cid=0x0:0xcc074c0641611d54"
"cafe";"Kedai Kopi";"Sae Coffee";"Jl. Iskandar Muda, Lae Butar, Kec. Gn. Meriah, Kabupaten Aceh Singkil, Aceh 24791";"Lae Butar, Kec. Gn. Meriah, Kabupaten Aceh Singkil";"ACEH";"24791";"Indonesia";" 082265536292";"2.3816559";"97.9563727";"https://maps.google.com/?cid=0x0:0x4b35783ad2765f66"
"cafe";"Kedai Kopi";"ILC COFFE";"Jl. Baiturrahman, Lae Butar, Kec. Gn. Meriah, Kabupaten Aceh Singkil, Aceh 24784";"Lae Butar, Kec. Gn. Meriah, Kabupaten Aceh Singkil";"ACEH";"24784";"Indonesia";" 082275783978";"2.3809957";"97.9576321";"https://maps.google.com/?cid=0x0:0xdd22fca0d3cfbfd1"
"cafe";"Kafe seni";"Rafi Cafe";"9XVC+8FG, Tunas Harapan, Kec. Gn. Meriah, Kabupaten Aceh Singkil, Aceh 24791";"Tunas Harapan, Kec. Gn. Meriah, Kabupaten Aceh Singkil";"ACEH";"24791";"Indonesia";" 081265554493";"2.3933085";"97.9711892";"https://maps.google.com/?cid=0x0:0x63419b101794156b"
"cafe";"Kedai Kopi";"Resti Catering";"C2V8+3WQ, Kuta Kerangan, Kec. Simpang Kanan, Kabupaten Aceh Singkil, Aceh 24782";"Kuta Kerangan, Kec. Simpang Kanan, Kabupaten Aceh Singkil";"ACEH";"24782";"Indonesia";" 085834914751";"2.4423756";"98.0177474";"https://maps.google.com/?cid=0x0:0x6ca77f2e7a52361f"
"cafe";"Kafe";"Keumala Coffee and books";"Jln. Mariam Sipoli, Rimo, Gn. Meriah, Kab, Tulaan, Kec. Gn. Meriah, Kabupaten Aceh Singkil, Aceh 24784";"Rimo, Gn. Meriah, Kab, Tulaan, Kec. Gn. Meriah, Kabupaten Aceh Singkil";"ACEH";"24784";"Indonesia";" 082361603143";"2.389696";"97.965924";"https://maps.google.com/?cid=0x0:0x2f4bdbc3125cae85"
"cafe";"Kedai Kopi";"Rizky cafe";"Jl. Iskandar Muda No.6, Lae Butar, Kec. Gn. Meriah, Kabupaten Aceh Singkil, Aceh 24791";"Lae Butar, Kec. Gn. Meriah, Kabupaten Aceh Singkil";"ACEH";"24791";"Indonesia";" 081340600436";"2.3861239";"97.9610509";"https://maps.google.com/?cid=0x0:0x5f6f519d1644aff4"
"cafe";"Kedai Kopi";"PIJAY COFFEE";"Lae Butar, Kec. Gn. Meriah, Kabupaten Aceh Singkil, Aceh";"Kabupaten Aceh Singkil, Aceh";"ACEH";"";"Indonesia";"";"2.3845415";"97.959124";"https://maps.google.com/?cid=0x0:0xfe60307e4460e0d2"
"cafe";"Kafe";"WAROENG/CAFE BUNDA XTRA";"9XR7+2V7, Jalan Kompleks Mariam Sipoli, Rimo, Tulaan, Kec. Gn. Meriah, Kabupaten Aceh Singkil, Aceh 24791";"Jalan Kompleks Mariam Sipoli, Rimo, Tulaan, Kec. Gn. Meriah, Kabupaten Aceh Singkil";"ACEH";"24791";"Indonesia";"";"2.3900294";"97.9646678";"https://maps.google.com/?cid=0x0:0x21d8b16791cc081f"
"cafe";"Kedai Kopi";"SENDA COFFEE";"9XQ8+P7H, Tulaan, Kec. Gn. Meriah, Kabupaten Aceh Singkil, Aceh 24791";"Tulaan, Kec. Gn. Meriah, Kabupaten Aceh Singkil";"ACEH";"24791";"Indonesia";" 081361153737";"2.3893076";"97.9657196";"https://maps.google.com/?cid=0x0:0x4a29f6db89ef6778"
"cafe";"cafe";"Riau 28992";"Kabupaten Rokan Hilir, Riau";"Kabupaten Rokan Hilir, Riau";"ACEH";"";"Indonesia";"";"1.6089504";"100.6647101";"https://maps.google.com/?cid=0x0:0x2b7f1924f159497b"
"cafe";"Kedai Kopi";"Post Cofie Cafe";"CXQR+5MM, Lipat Kajang Atas, Kec. Simpang Kanan, Kabupaten Aceh Singkil, Aceh 24791";"Lipat Kajang Atas, Kec. Simpang Kanan, Kabupaten Aceh Singkil";"ACEH";"24791";"Indonesia";" 085276076789";"2.4379723";"97.9916645";"https://maps.google.com/?cid=0x0:0xd8e38a2fcfe8b9c5"
"cafe";"cafe";"Jihan Cafe";"Lipat Kajang, Kec. Simpang Kanan, Kabupaten Aceh Singkil, Aceh 24791";"Kec. Simpang Kanan, Kabupaten Aceh Singkil";"ACEH";"24791";"Indonesia";" 082231763036";"2.4436397";"97.9899342";"https://maps.google.com/?cid=0x0:0x9a8f865b188a876d"
"cafe";"Sarapan";"Warung Imur";"F23H+QR6, Lae Riman, Kec. Simpang Kanan, Kabupaten Aceh Singkil, Aceh 24783";"Lae Riman, Kec. Simpang Kanan, Kabupaten Aceh Singkil";"ACEH";"24783";"Indonesia";"";"2.4544013";"98.0295236";"https://maps.google.com/?cid=0x0:0xfc41822fd5bf4ccf"
"cafe";"Kedai Kopi";"Bandrek  Gorengan Uwis";"C2R9+XQG, Pandan Sari, Kec. Simpang Kanan, Kabupaten Aceh Singkil, Aceh 24782";"Pandan Sari, Kec. Simpang Kanan, Kabupaten Aceh Singkil";"ACEH";"24782";"Indonesia";"";"2.4424486";"98.0194532";"https://maps.google.com/?cid=0x0:0x988b1a6d9ea6a0b6"
"cafe";"Kedai Kopi";"Resti Catering";"C2V8+3WQ, Kuta Kerangan, Kec. Simpang Kanan, Kabupaten Aceh Singkil, Aceh 24782";"Kuta Kerangan, Kec. Simpang Kanan, Kabupaten Aceh Singkil";"ACEH";"24782";"Indonesia";" 085834914751";"2.4423756";"98.0177474";"https://maps.google.com/?cid=0x0:0x6ca77f2e7a52361f"
"cafe";"Kedai Kopi";"Warung sabar berutu";"FX29+JJR, Tj. MAS, Kec. Simpang Kanan, Kabupaten Aceh Singkil, Aceh";"Kabupaten Aceh Singkil, Aceh";"ACEH";"";"Indonesia";" 085761620353";"2.4516093";"97.9690093";"https://maps.google.com/?cid=0x0:0xfcf720ca5c2eba8a"
"cafe";"Kedai Kopi";"Warung Kopi Asmin Sihotang";"C2WH+M8V, Dusun patok besi, Siatas, Kec. Simpang Kanan, Kabupaten Aceh Singkil, Aceh 24784";"Dusun patok besi, Siatas, Kec. Simpang Kanan, Kabupaten Aceh Singkil";"ACEH";"24784";"Indonesia";"";"2.4467445";"98.0283008";"https://maps.google.com/?cid=0x0:0x8df412b5c3e6745b"
"cafe";"Kedai Kopi";"UD. Daffa";"CXMF+X78, Tugan, Kec. Simpang Kanan, Kabupaten Aceh Singkil, Aceh";"Kabupaten Aceh Singkil, Aceh";"ACEH";"";"Indonesia";"";"2.4349037";"97.9732086";"https://maps.google.com/?cid=0x0:0x968bd70eea32fad"
"cafe";"Kedai Kopi";"Warung Darmansyah";"CXWP+G5G, Lipat Kajang, Kec. Simpang Kanan, Kabupaten Aceh Singkil, Aceh 24791";"Lipat Kajang, Kec. Simpang Kanan, Kabupaten Aceh Singkil";"ACEH";"24791";"Indonesia";"";"2.4462088";"97.985338";"https://maps.google.com/?cid=0x0:0x1eb9bad07014cd5a"
"cafe";"Kedai Kopi";"warung kadai kopi aslan";"FX2R+G7, Ujung Limus, Kec. Simpang Kanan, Kabupaten Aceh Singkil, Aceh 24791";"Ujung Limus, Kec. Simpang Kanan, Kabupaten Aceh Singkil";"ACEH";"24791";"Indonesia";" 082273377276";"2.4512921";"97.9907278";"https://maps.google.com/?cid=0x0:0xf6e4d56b8c072fd2"
"cafe";"Kedai Kopi";"Warung Pratama";"C2V5+G74, Kuta Kerangan, Kec. Simpang Kanan, Kabupaten Aceh Singkil, Aceh 24791";"Kuta Kerangan, Kec. Simpang Kanan, Kabupaten Aceh Singkil";"ACEH";"24791";"Indonesia";"";"2.4439657";"98.0078728";"https://maps.google.com/?cid=0x0:0xe541272182f4e363"
"cafe";"Kafe";"Cafe Jorie";"CX6C+C7W, Jl. Subulussalam, Sianjo Anjo Meriah, Kec. Gn. Meriah, Kabupaten Aceh Singkil, Aceh";"Kabupaten Aceh Singkil, Aceh";"ACEH";"";"Indonesia";"";"2.4111167";"97.9707079";"https://maps.google.com/?cid=0x0:0x1a4b4a482493efb6"
"cafe";"Kedai Kopi";"Warkop Malik";"Waduk sianjo anjo, Kain Golong, Kec. Simpang Kanan, Kabupaten Aceh Singkil, Aceh";"Kabupaten Aceh Singkil, Aceh";"ACEH";"";"Indonesia";" 081375123947";"2.4195167";"97.98103";"https://maps.google.com/?cid=0x0:0x5025a35a95ace540"
"cafe";"cafe";"Aceh 24785";"Kec. Kota Baharu, Kabupaten Aceh Singkil, Aceh";"Kabupaten Aceh Singkil, Aceh";"ACEH";"";"Indonesia";"";"2.4523065";"97.8123224";"https://maps.google.com/?cid=0x0:0x571276798298d3f5"
"cafe";"Kedai Kopi";"PIJAY COFFEE";"Lae Butar, Kec. Gn. Meriah, Kabupaten Aceh Singkil, Aceh";"Kabupaten Aceh Singkil, Aceh";"ACEH";"";"Indonesia";"";"2.3845415";"97.959124";"https://maps.google.com/?cid=0x0:0xfe60307e4460e0d2"
"cafe";"Kafe";"Warung Sinanggel 580";"9W9V+P4V, Gn. Lagan, Kec. Gn. Meriah, Kabupaten Aceh Singkil, Aceh";"Kabupaten Aceh Singkil, Aceh";"ACEH";"";"Indonesia";" 082360142716";"2.3693625";"97.9427969";"https://maps.google.com/?cid=0x0:0x1d330c5474c16bc8"
"cafe";"Kedai Kopi";"Sae Coffee";"Jl. Iskandar Muda, Lae Butar, Kec. Gn. Meriah, Kabupaten Aceh Singkil, Aceh 24791";"Lae Butar, Kec. Gn. Meriah, Kabupaten Aceh Singkil";"ACEH";"24791";"Indonesia";" 082265536292";"2.3816559";"97.9563727";"https://maps.google.com/?cid=0x0:0x4b35783ad2765f66"
"cafe";"Kafe";"Cafe PODOMORO";"GWCJ+V8G, Singkohor, Kec. Singkohor, Kabupaten Aceh Singkil, Aceh 24782";"Singkohor, Kec. Singkohor, Kabupaten Aceh Singkil";"ACEH";"24782";"Indonesia";"";"2.5221906";"97.9308156";"https://maps.google.com/?cid=0x0:0xcc898353943fd55a"
"cafe";"Kedai Kopi";"Tran Cafe";"Jln poros Tran No.26, Rimo, Kec. Gn. Meriah, Kabupaten Aceh Singkil, Aceh";"Kabupaten Aceh Singkil, Aceh";"ACEH";"";"Indonesia";" 081397578177";"2.4267339";"97.9173226";"https://maps.google.com/?cid=0x0:0x13de98471312668a"
"cafe";"Kafe";"Aulia Cafe";"GWFJ+63F, Singkohor, Kec. Singkohor, Kabupaten Aceh Singkil, Aceh 24782";"Singkohor, Kec. Singkohor, Kabupaten Aceh Singkil";"ACEH";"24782";"Indonesia";" 085762379880";"2.5230721";"97.9301632";"https://maps.google.com/?cid=0x0:0x4a31d7237b00fd5d"
"cafe";"Restoran";"Munthe Coffee";"FVV3+F7R, Danau Bungara, Kec. Kota Baharu, Kabupaten Aceh Singkil, Aceh 24782";"Danau Bungara, Kec. Kota Baharu, Kabupaten Aceh Singkil";"ACEH";"24782";"Indonesia";" 081534508839";"2.4937439";"97.85313";"https://maps.google.com/?cid=0x0:0x768ea60a18260e27"
"cafe";"Kedai Kopi";"Longkib";"HVR2+77J, Lae Saga, Kec. Longkib, Kota Subulussalam, Aceh 24785";"Lae Saga, Kec. Longkib, Kota Subulussalam";"ACEH";"24785";"Indonesia";"";"2.5907225";"97.8506502";"https://maps.google.com/?cid=0x0:0x7afa2488f2647756"
"cafe";"Kafe";"SENINA CAFE";"Pulo Sarok, Kec. Singkil, Kabupaten Aceh Singkil, Aceh 24472";"Kec. Singkil, Kabupaten Aceh Singkil";"ACEH";"24472";"Indonesia";" 0822290192547";"2.271765";"97.8076276";"https://maps.google.com/?cid=0x0:0xc217be492a5edc6a"
"cafe";"Hidangan Laut";"kiniko cafe";"7VFH+V99, Gosong Telaga Bar., Kec. Singkil Utara, Kabupaten Aceh Singkil, Aceh 24472";"Gosong Telaga Bar., Kec. Singkil Utara, Kabupaten Aceh Singkil";"ACEH";"24472";"Indonesia";"";"2.2746629";"97.8784959";"https://maps.google.com/?cid=0x0:0x105ef636a027c5a1"
"cafe";"Kedai Kopi";"Soccer Coffee";"9XM5+4RF, Lae Butar, Kec. Gn. Meriah, Kabupaten Aceh Singkil, Aceh";"Kabupaten Aceh Singkil, Aceh";"ACEH";"";"Indonesia";" 082362680000";"2.3828053";"97.9595392";"https://maps.google.com/?cid=0x0:0x7bdbf6d6dc64ed80"
"cafe";"Kafe seni";"Rafi Cafe";"9XVC+8FG, Tunas Harapan, Kec. Gn. Meriah, Kabupaten Aceh Singkil, Aceh 24791";"Tunas Harapan, Kec. Gn. Meriah, Kabupaten Aceh Singkil";"ACEH";"24791";"Indonesia";" 081265554493";"2.3933085";"97.9711892";"https://maps.google.com/?cid=0x0:0x63419b101794156b"
"cafe";"Kedai Kopi";"Warung Kamidin Lae Souraya";"FRWV+RPF, Danau Bungara, Kec. Kota Baharu, Kabupaten Aceh Singkil, Aceh";"Kabupaten Aceh Singkil, Aceh";"ACEH";"";"Indonesia";" 081397469237";"2.4970625";"97.8442969";"https://maps.google.com/?cid=0x0:0xc2f9de67dd985caf"
"cafe";"cafe";"Singkil";"Kec. Singkil, Kabupaten Aceh Singkil, Aceh";"Kabupaten Aceh Singkil, Aceh";"ACEH";"";"Indonesia";"";"2.2836143";"97.79873";"https://maps.google.com/?cid=0x0:0x4039d80b220d230"
"cafe";"Kafe";"SENINA CAFE";"Pulo Sarok, Kec. Singkil, Kabupaten Aceh Singkil, Aceh 24472";"Kec. Singkil, Kabupaten Aceh Singkil";"ACEH";"24472";"Indonesia";" 0822290192547";"2.271765";"97.8076276";"https://maps.google.com/?cid=0x0:0xc217be492a5edc6a"
"cafe";"Kedai Kopi";"Kayla Cafe";"7RG3+38X, Pulo Sarok, Kec. Singkil, Kabupaten Aceh Singkil, Aceh 24472";"Pulo Sarok, Kec. Singkil, Kabupaten Aceh Singkil";"ACEH";"24472";"Indonesia";" 082168267626";"2.2752447";"97.8033708";"https://maps.google.com/?cid=0x0:0xf1a9a9d93806eaf1"
"cafe";"Kedai Kopi";"Meetpoint Coffee, Singkil";"Pulo Sarok, Kec. Singkil, Kabupaten Aceh Singkil, Aceh 24472";"Kec. Singkil, Kabupaten Aceh Singkil";"ACEH";"24472";"Indonesia";" 081397340157";"2.2717142";"97.8078565";"https://maps.google.com/?cid=0x0:0xa5289da89cc97cf5"
"cafe";"Rumah Makan";"Warung Kupie Raja Singkil";"7RC7+2V2, Jl. Singkil - Rimo, Pulo Sarok, Kec. Singkil, Kabupaten Aceh Singkil, Aceh 24472";"Jl. Singkil - Rimo, Pulo Sarok, Kec. Singkil, Kabupaten Aceh Singkil";"ACEH";"24472";"Indonesia";"";"2.2700182";"97.8146364";"https://maps.google.com/?cid=0x0:0xc31c43d3db3318cb"
"cafe";"Kafe";"Nyoklat Super Singkil";"Pulo Sarok, Kec. Singkil, Kabupaten Aceh Singkil, Aceh 24472";"Kec. Singkil, Kabupaten Aceh Singkil";"ACEH";"24472";"Indonesia";" 081362088335";"2.2701593";"97.8162356";"https://maps.google.com/?cid=0x0:0x9048e9725af0f521"
"cafe";"Kafe";"Cafe Taria";"7RC4+93J, Pulo Sarok, Kec. Singkil, Kabupaten Aceh Singkil, Aceh 24472";"Pulo Sarok, Kec. Singkil, Kabupaten Aceh Singkil";"ACEH";"24472";"Indonesia";" 082214889207";"2.2709572";"97.8051414";"https://maps.google.com/?cid=0x0:0xa0cb372a77cf5725"
"cafe";"Kedai Kopi";"Warung Kopi Karoke Nyak Babe";"7QPQ+3WR, Jl. Cut Meutia, Ps. Singkil, Kec. Singkil, Kabupaten Aceh Singkil, Aceh 24472";"Jl. Cut Meutia, Ps. Singkil, Kec. Singkil, Kabupaten Aceh Singkil";"ACEH";"24472";"Indonesia";" 082274765825";"2.2852388";"97.7897606";"https://maps.google.com/?cid=0x0:0x64b93451f1ff1c45"
"cafe";"Kedai Kopi";"Bw Coffee House";"7RC5+V4Q, Pulo Sarok, Kec. Singkil, Kabupaten Aceh Singkil, Aceh 24472";"Pulo Sarok, Kec. Singkil, Kabupaten Aceh Singkil";"ACEH";"24472";"Indonesia";" 082167263773";"2.271743";"97.8079804";"https://maps.google.com/?cid=0x0:0xb5c7a88ed609f79d"
"cafe";"Kedai Kopi";"Putra Keumala Dua Cafe";"7RC4+X5P, Jl. Bahari, Pulo Sarok, Kec. Singkil, Kabupaten Aceh Singkil, Aceh 24472";"Jl. Bahari, Pulo Sarok, Kec. Singkil, Kabupaten Aceh Singkil";"ACEH";"24472";"Indonesia";"";"2.2724619";"97.8054377";"https://maps.google.com/?cid=0x0:0x942f8d1060eee01b"
"cafe";"Kedai Kopi";"Ramgisya Bakery And Cafe";"Jl. Bahari, Pulo Sarok, Kec. Singkil, Kabupaten Aceh Singkil, Aceh 24472";"Pulo Sarok, Kec. Singkil, Kabupaten Aceh Singkil";"ACEH";"24472";"Indonesia";"";"2.2780367";"97.8044999";"https://maps.google.com/?cid=0x0:0xc6d300c089e456a0"
"cafe";"Kafe";"Coffe Alas";"7RF3+VX9, Pulo Sarok, Kec. Singkil, Kabupaten Aceh Singkil, Aceh 24472";"Pulo Sarok, Kec. Singkil, Kabupaten Aceh Singkil";"ACEH";"24472";"Indonesia";"";"2.2746618";"97.8049956";"https://maps.google.com/?cid=0x0:0xbe13fa72097f2a0c"
"cafe";"Kedai Kopi";"Bripo Coffee";"Jl. Bahari,Pulo Sarok, Singkil, 23785, Pulo Sarok, Kec. Singkil, Kabupaten Aceh Singkil, Aceh 24472";"Singkil,";"ACEH";"23785";"Indonesia";" 085286717620";"2.2771124";"97.8044584";"https://maps.google.com/?cid=0x0:0xa55a474d855ad76d"
"cafe";"Kedai Kopi";"TAMBAX NGOPI "Coffee, Cafe'  Gallery"";"Jl. Utama, Pulo Sarok, Kec. Singkil, Kabupaten Aceh Singkil, Aceh 24472";"Pulo Sarok, Kec. Singkil, Kabupaten Aceh Singkil";"ACEH";"24472";"Indonesia";"";"2.2821598";"97.8010622";"https://maps.google.com/?cid=0x0:0x22b2ff9cfae64050"
"cafe";"cafe";"Singkil";"Kec. Singkil, Kabupaten Aceh Singkil, Aceh";"Kabupaten Aceh Singkil, Aceh";"ACEH";"";"Indonesia";"";"2.2836143";"97.79873";"https://maps.google.com/?cid=0x0:0x4039d80b220d230"
"cafe";"Kafe";"SENINA CAFE";"Pulo Sarok, Kec. Singkil, Kabupaten Aceh Singkil, Aceh 24472";"Kec. Singkil, Kabupaten Aceh Singkil";"ACEH";"24472";"Indonesia";" 0822290192547";"2.271765";"97.8076276";"https://maps.google.com/?cid=0x0:0xc217be492a5edc6a"
"cafe";"Kedai Kopi";"Meetpoint Coffee, Singkil";"Pulo Sarok, Kec. Singkil, Kabupaten Aceh Singkil, Aceh 24472";"Kec. Singkil, Kabupaten Aceh Singkil";"ACEH";"24472";"Indonesia";" 081397340157";"2.2717142";"97.8078565";"https://maps.google.com/?cid=0x0:0xa5289da89cc97cf5"
"cafe";"Kedai Kopi";"Putra Keumala Dua Cafe";"7RC4+X5P, Jl. Bahari, Pulo Sarok, Kec. Singkil, Kabupaten Aceh Singkil, Aceh 24472";"Jl. Bahari, Pulo Sarok, Kec. Singkil, Kabupaten Aceh Singkil";"ACEH";"24472";"Indonesia";"";"2.2724619";"97.8054377";"https://maps.google.com/?cid=0x0:0x942f8d1060eee01b"
"cafe";"Kedai Kopi";"Kayla Cafe";"7RG3+38X, Pulo Sarok, Kec. Singkil, Kabupaten Aceh Singkil, Aceh 24472";"Pulo Sarok, Kec. Singkil, Kabupaten Aceh Singkil";"ACEH";"24472";"Indonesia";" 082168267626";"2.2752447";"97.8033708";"https://maps.google.com/?cid=0x0:0xf1a9a9d93806eaf1"
"cafe";"Rumah Makan";"Warung Kupie Raja Singkil";"7RC7+2V2, Jl. Singkil - Rimo, Pulo Sarok, Kec. Singkil, Kabupaten Aceh Singkil, Aceh 24472";"Jl. Singkil - Rimo, Pulo Sarok, Kec. Singkil, Kabupaten Aceh Singkil";"ACEH";"24472";"Indonesia";"";"2.2700182";"97.8146364";"https://maps.google.com/?cid=0x0:0xc31c43d3db3318cb"
"cafe";"Kafe";"Cafe Taria";"7RC4+93J, Pulo Sarok, Kec. Singkil, Kabupaten Aceh Singkil, Aceh 24472";"Pulo Sarok, Kec. Singkil, Kabupaten Aceh Singkil";"ACEH";"24472";"Indonesia";" 082214889207";"2.2709572";"97.8051414";"https://maps.google.com/?cid=0x0:0xa0cb372a77cf5725"
"cafe";"Kedai Kopi";"Bripo Coffee";"Jl. Bahari,Pulo Sarok, Singkil, 23785, Pulo Sarok, Kec. Singkil, Kabupaten Aceh Singkil, Aceh 24472";"Singkil,";"ACEH";"23785";"Indonesia";" 085286717620";"2.2771124";"97.8044584";"https://maps.google.com/?cid=0x0:0xa55a474d855ad76d"
"cafe";"Kedai Kopi";"Warung Kopi Karoke Nyak Babe";"7QPQ+3WR, Jl. Cut Meutia, Ps. Singkil, Kec. Singkil, Kabupaten Aceh Singkil, Aceh 24472";"Jl. Cut Meutia, Ps. Singkil, Kec. Singkil, Kabupaten Aceh Singkil";"ACEH";"24472";"Indonesia";" 082274765825";"2.2852388";"97.7897606";"https://maps.google.com/?cid=0x0:0x64b93451f1ff1c45"
"cafe";"Kedai Kopi";"Bw Coffee House";"7RC5+V4Q, Pulo Sarok, Kec. Singkil, Kabupaten Aceh Singkil, Aceh 24472";"Pulo Sarok, Kec. Singkil, Kabupaten Aceh Singkil";"ACEH";"24472";"Indonesia";" 082167263773";"2.271743";"97.8079804";"https://maps.google.com/?cid=0x0:0xb5c7a88ed609f79d"
"cafe";"Kafe";"Nyoklat Super Singkil";"Pulo Sarok, Kec. Singkil, Kabupaten Aceh Singkil, Aceh 24472";"Kec. Singkil, Kabupaten Aceh Singkil";"ACEH";"24472";"Indonesia";" 081362088335";"2.2701593";"97.8162356";"https://maps.google.com/?cid=0x0:0x9048e9725af0f521"
"cafe";"Kafe";"My Bubblelicious Drink";"Jl.Bahari No 476 Pulo Sarok Singkil, Marble cafe Singkil, Pulo Sarok, Kec. Singkil, Singkil, Aceh 24785";"Marble cafe Singkil, Pulo Sarok, Kec. Singkil, Singkil";"ACEH";"24785";"Indonesia";" 082166457042";"2.2760604";"97.8084099";"https://maps.google.com/?cid=0x0:0xf9f904b7bd2bd209"
"cafe";"Kedai Kopi";"Ramgisya Bakery And Cafe";"Jl. Bahari, Pulo Sarok, Kec. Singkil, Kabupaten Aceh Singkil, Aceh 24472";"Pulo Sarok, Kec. Singkil, Kabupaten Aceh Singkil";"ACEH";"24472";"Indonesia";"";"2.2780367";"97.8044999";"https://maps.google.com/?cid=0x0:0xc6d300c089e456a0"
"cafe";"Kedai Kopi";"TAMBAX NGOPI "Coffee, Cafe'  Gallery"";"Jl. Utama, Pulo Sarok, Kec. Singkil, Kabupaten Aceh Singkil, Aceh 24472";"Pulo Sarok, Kec. Singkil, Kabupaten Aceh Singkil";"ACEH";"24472";"Indonesia";"";"2.2821598";"97.8010622";"https://maps.google.com/?cid=0x0:0x22b2ff9cfae64050"
"cafe";"cafe";"Singkil";"Kec. Singkil, Kabupaten Aceh Singkil, Aceh";"Kabupaten Aceh Singkil, Aceh";"ACEH";"";"Indonesia";"";"2.2836143";"97.79873";"https://maps.google.com/?cid=0x0:0x4039d80b220d230"
"cafe";"Kafe";"SENINA CAFE";"Pulo Sarok, Kec. Singkil, Kabupaten Aceh Singkil, Aceh 24472";"Kec. Singkil, Kabupaten Aceh Singkil";"ACEH";"24472";"Indonesia";" 0822290192547";"2.271765";"97.8076276";"https://maps.google.com/?cid=0x0:0xc217be492a5edc6a"
"cafe";"Kedai Kopi";"Meetpoint Coffee, Singkil";"Pulo Sarok, Kec. Singkil, Kabupaten Aceh Singkil, Aceh 24472";"Kec. Singkil, Kabupaten Aceh Singkil";"ACEH";"24472";"Indonesia";" 081397340157";"2.2717142";"97.8078565";"https://maps.google.com/?cid=0x0:0xa5289da89cc97cf5"
"cafe";"Kedai Kopi";"Cafe Bang Asier";"7RC8+2G4, Pulo Sarok, Kec. Singkil, Kabupaten Aceh Singkil, Aceh 24472";"Pulo Sarok, Kec. Singkil, Kabupaten Aceh Singkil";"ACEH";"24472";"Indonesia";"";"2.2700202";"97.8163375";"https://maps.google.com/?cid=0x0:0x697fced3e3c77f92"
"cafe";"Kedai Kopi";"Putra Keumala Dua Cafe";"7RC4+X5P, Jl. Bahari, Pulo Sarok, Kec. Singkil, Kabupaten Aceh Singkil, Aceh 24472";"Jl. Bahari, Pulo Sarok, Kec. Singkil, Kabupaten Aceh Singkil";"ACEH";"24472";"Indonesia";"";"2.2724619";"97.8054377";"https://maps.google.com/?cid=0x0:0x942f8d1060eee01b"
"cafe";"Kedai Kopi";"Warung Kopi Karoke Nyak Babe";"7QPQ+3WR, Jl. Cut Meutia, Ps. Singkil, Kec. Singkil, Kabupaten Aceh Singkil, Aceh 24472";"Jl. Cut Meutia, Ps. Singkil, Kec. Singkil, Kabupaten Aceh Singkil";"ACEH";"24472";"Indonesia";" 082274765825";"2.2852388";"97.7897606";"https://maps.google.com/?cid=0x0:0x64b93451f1ff1c45"
"cafe";"Rumah Makan";"Warung Kupie Raja Singkil";"7RC7+2V2, Jl. Singkil - Rimo, Pulo Sarok, Kec. Singkil, Kabupaten Aceh Singkil, Aceh 24472";"Jl. Singkil - Rimo, Pulo Sarok, Kec. Singkil, Kabupaten Aceh Singkil";"ACEH";"24472";"Indonesia";"";"2.2700182";"97.8146364";"https://maps.google.com/?cid=0x0:0xc31c43d3db3318cb"
"cafe";"Kafe";"Cafe Taria";"7RC4+93J, Pulo Sarok, Kec. Singkil, Kabupaten Aceh Singkil, Aceh 24472";"Pulo Sarok, Kec. Singkil, Kabupaten Aceh Singkil";"ACEH";"24472";"Indonesia";" 082214889207";"2.2709572";"97.8051414";"https://maps.google.com/?cid=0x0:0xa0cb372a77cf5725"
"cafe";"Kafe";"Nyoklat Super Singkil";"Pulo Sarok, Kec. Singkil, Kabupaten Aceh Singkil, Aceh 24472";"Kec. Singkil, Kabupaten Aceh Singkil";"ACEH";"24472";"Indonesia";" 081362088335";"2.2701593";"97.8162356";"https://maps.google.com/?cid=0x0:0x9048e9725af0f521"
"cafe";"Kedai Kopi";"Bw Coffee House";"7RC5+V4Q, Pulo Sarok, Kec. Singkil, Kabupaten Aceh Singkil, Aceh 24472";"Pulo Sarok, Kec. Singkil, Kabupaten Aceh Singkil";"ACEH";"24472";"Indonesia";" 082167263773";"2.271743";"97.8079804";"https://maps.google.com/?cid=0x0:0xb5c7a88ed609f79d"
"cafe";"Kedai Kopi";"Bripo Coffee";"Jl. Bahari,Pulo Sarok, Singkil, 23785, Pulo Sarok, Kec. Singkil, Kabupaten Aceh Singkil, Aceh 24472";"Singkil,";"ACEH";"23785";"Indonesia";" 085286717620";"2.2771124";"97.8044584";"https://maps.google.com/?cid=0x0:0xa55a474d855ad76d"
"cafe";"Kafe";"My Bubblelicious Drink";"Jl.Bahari No 476 Pulo Sarok Singkil, Marble cafe Singkil, Pulo Sarok, Kec. Singkil, Singkil, Aceh 24785";"Marble cafe Singkil, Pulo Sarok, Kec. Singkil, Singkil";"ACEH";"24785";"Indonesia";" 082166457042";"2.2760604";"97.8084099";"https://maps.google.com/?cid=0x0:0xf9f904b7bd2bd209"
"cafe";"Kedai Kopi";"Ramgisya Bakery And Cafe";"Jl. Bahari, Pulo Sarok, Kec. Singkil, Kabupaten Aceh Singkil, Aceh 24472";"Pulo Sarok, Kec. Singkil, Kabupaten Aceh Singkil";"ACEH";"24472";"Indonesia";"";"2.2780367";"97.8044999";"https://maps.google.com/?cid=0x0:0xc6d300c089e456a0"
"cafe";"Kafe";"WDB Pulo Sarok Singkil";"7RC5+97G, Pulo Sarok, Kec. Singkil, Kabupaten Aceh Singkil, Aceh 24472";"Pulo Sarok, Kec. Singkil, Kabupaten Aceh Singkil";"ACEH";"24472";"Indonesia";"";"2.2709258";"97.8081971";"https://maps.google.com/?cid=0x0:0x4e5c2d3756c916c"
"cafe";"cafe";"Aceh 24785";"Kec. Kota Baharu, Kabupaten Aceh Singkil, Aceh";"Kabupaten Aceh Singkil, Aceh";"ACEH";"";"Indonesia";"";"2.4523065";"97.8123224";"https://maps.google.com/?cid=0x0:0x571276798298d3f5"
"cafe";"Restoran";"Ningrat Cafe";"9XR8+288, Unnamed Road, Tulaan, Kec. Gn. Meriah, Kabupaten Aceh Singkil, Aceh 24791";"Unnamed Road, Tulaan, Kec. Gn. Meriah, Kabupaten Aceh Singkil";"ACEH";"24791";"Indonesia";" 081370826783";"2.3900399";"97.965837";"https://maps.google.com/?cid=0x0:0x5cb3392971a6564"
"cafe";"Restoran";"Munthe Coffee";"FVV3+F7R, Danau Bungara, Kec. Kota Baharu, Kabupaten Aceh Singkil, Aceh 24782";"Danau Bungara, Kec. Kota Baharu, Kabupaten Aceh Singkil";"ACEH";"24782";"Indonesia";" 081534508839";"2.4937439";"97.85313";"https://maps.google.com/?cid=0x0:0x768ea60a18260e27"
"cafe";"Kafe";"SENINA CAFE";"Pulo Sarok, Kec. Singkil, Kabupaten Aceh Singkil, Aceh 24472";"Kec. Singkil, Kabupaten Aceh Singkil";"ACEH";"24472";"Indonesia";" 0822290192547";"2.271765";"97.8076276";"https://maps.google.com/?cid=0x0:0xc217be492a5edc6a"
"cafe";"Kedai Kopi";"Longkib";"HVR2+77J, Lae Saga, Kec. Longkib, Kota Subulussalam, Aceh 24785";"Lae Saga, Kec. Longkib, Kota Subulussalam";"ACEH";"24785";"Indonesia";"";"2.5907225";"97.8506502";"https://maps.google.com/?cid=0x0:0x7afa2488f2647756"
"cafe";"Kedai Kopi";"Warung Kamidin Lae Souraya";"FRWV+RPF, Danau Bungara, Kec. Kota Baharu, Kabupaten Aceh Singkil, Aceh";"Kabupaten Aceh Singkil, Aceh";"ACEH";"";"Indonesia";" 081397469237";"2.4970625";"97.8442969";"https://maps.google.com/?cid=0x0:0xc2f9de67dd985caf"
"cafe";"Tujuan Wisata";"Danau Bungara Pelempoh Leja";"FVV3+3XG, Danau Bungara, Kec. Kota Baharu, Kabupaten Aceh Singkil, Aceh 24782";"Danau Bungara, Kec. Kota Baharu, Kabupaten Aceh Singkil";"ACEH";"24782";"Indonesia";" 082360142716";"2.4926843";"97.8549385";"https://maps.google.com/?cid=0x0:0x53b39fdc30c81a7"
"cafe";"Kedai Kopi";"Bongkat";"Lapahan Buaya, Kec. Kota Baharu, Kabupaten Aceh Singkil, Aceh";"Kabupaten Aceh Singkil, Aceh";"ACEH";"";"Indonesia";" 085805419509";"2.4748341";"97.8503269";"https://maps.google.com/?cid=0x0:0xcb4121052961a15b"
"cafe";"Kafe seni";"Rafi Cafe";"9XVC+8FG, Tunas Harapan, Kec. Gn. Meriah, Kabupaten Aceh Singkil, Aceh 24791";"Tunas Harapan, Kec. Gn. Meriah, Kabupaten Aceh Singkil";"ACEH";"24791";"Indonesia";" 081265554493";"2.3933085";"97.9711892";"https://maps.google.com/?cid=0x0:0x63419b101794156b"
"cafe";"Kedai Kopi";"Aceh Singkil";"7VC9+JGW, Gosong Telaga Bar., Kec. Singkil Utara, Kabupaten Aceh Singkil, Aceh 24472";"Gosong Telaga Bar., Kec. Singkil Utara, Kabupaten Aceh Singkil";"ACEH";"24472";"Indonesia";"";"2.2716125";"97.8688244";"https://maps.google.com/?cid=0x0:0xc225a3ea28c2e344"
"cafe";"Kedai Kopi";"Maktuan Kopi";"Jl. TR Angkasah, Lae Butar, Kec. Gn. Meriah, Kabupaten Aceh Singkil, Aceh 24784";"Lae Butar, Kec. Gn. Meriah, Kabupaten Aceh Singkil";"ACEH";"24784";"Indonesia";" 082277846004";"2.3814727";"97.9559989";"https://maps.google.com/?cid=0x0:0xdf85e35f2fc6362c"
"cafe";"Kafe";"Warung atika";"GR2R+27, Lentong, Kec. Kota Baharu, Kabupaten Aceh Singkil, Aceh";"Kabupaten Aceh Singkil, Aceh";"ACEH";"";"Indonesia";"";"2.5000192";"97.8405956";"https://maps.google.com/?cid=0x0:0x7a037e1714fe2a0d"
"cafe";"Nasi";"Pulau Tengah";"FVQ2+FJF, Danau Bungara, Kec. Kota Baharu, Kabupaten Aceh Singkil, Aceh 24782";"Danau Bungara, Kec. Kota Baharu, Kabupaten Aceh Singkil";"ACEH";"24782";"Indonesia";" 082360142716";"2.4886858";"97.8515407";"https://maps.google.com/?cid=0x0:0xe1bf1d740175adbd"
"cafe";"Kedai Kopi";"Sunset Point Cafe";"Pulo Sarok, Kec. Singkil, Kabupaten Aceh Singkil, Aceh";"Kabupaten Aceh Singkil, Aceh";"ACEH";"";"Indonesia";" 081375053111";"2.2702637";"97.8011448";"https://maps.google.com/?cid=0x0:0x375e82f0e14e6599"
"cafe";"cafe";"Aceh 24784";"Kabupaten Aceh Singkil, Aceh";"Kabupaten Aceh Singkil, Aceh";"ACEH";"";"Indonesia";"";"2.152911";"97.2840888";"https://maps.google.com/?cid=0x0:0xab521459bf3c978c"
"cafe";"Kafe";"Cafe PODOMORO";"GWCJ+V8G, Singkohor, Kec. Singkohor, Kabupaten Aceh Singkil, Aceh 24782";"Singkohor, Kec. Singkohor, Kabupaten Aceh Singkil";"ACEH";"24782";"Indonesia";"";"2.5221906";"97.9308156";"https://maps.google.com/?cid=0x0:0xcc898353943fd55a"
"cafe";"Kafe";"EIFFEL CAFE  NOSTALGIA COFFEE";"GWGJ+FC7, Jl. Hamzah Fansyuri, Singkohor, Kec. Singkohor, Kabupaten Aceh Singkil, Aceh 24782";"Jl. Hamzah Fansyuri, Singkohor, Kec. Singkohor, Kabupaten Aceh Singkil";"ACEH";"24782";"Indonesia";" 081360943810";"2.52617";"97.9310407";"https://maps.google.com/?cid=0x0:0xc4474c8b36760db9"
"cafe";"Kafe";"Aulia Cafe";"GWFJ+63F, Singkohor, Kec. Singkohor, Kabupaten Aceh Singkil, Aceh 24782";"Singkohor, Kec. Singkohor, Kabupaten Aceh Singkil";"ACEH";"24782";"Indonesia";" 085762379880";"2.5230721";"97.9301632";"https://maps.google.com/?cid=0x0:0x4a31d7237b00fd5d"
"cafe";"Kafe";"Coffee Hostpot";"GW8H+MGC, Lae Pinang, Kec. Singkohor, Kabupaten Aceh Singkil, Aceh 24782";"Lae Pinang, Kec. Singkohor, Kabupaten Aceh Singkil";"ACEH";"24782";"Indonesia";" 085726650333";"2.5166833";"97.9287697";"https://maps.google.com/?cid=0x0:0x263ccbadf20368ac"
"cafe";"Bar";"Cafe Neng Geulis";"GW6V+45W, Lae Pinang, Kec. Singkohor, Kabupaten Aceh Singkil, Aceh 24793";"Lae Pinang, Kec. Singkohor, Kabupaten Aceh Singkil";"ACEH";"24793";"Indonesia";"";"2.5103125";"97.9429375";"https://maps.google.com/?cid=0x0:0xdc3a469392dbcf87"
"cafe";"Kafe";"Jasa Bayo Simpang Gajah";"GWGH+JV4, Jl. Hamzah Fansyuri, Simpang Gajah, Kec. Singkohor, Kabupaten Aceh Singkil, Aceh 24782";"Jl. Hamzah Fansyuri, Simpang Gajah, Kec. Singkohor, Kabupaten Aceh Singkil";"ACEH";"24782";"Indonesia";" 08566247285";"2.526509";"97.9296908";"https://maps.google.com/?cid=0x0:0x8fddd783377cb47d"
"cafe";"Restoran";"Ningrat Cafe";"9XR8+288, Unnamed Road, Tulaan, Kec. Gn. Meriah, Kabupaten Aceh Singkil, Aceh 24791";"Unnamed Road, Tulaan, Kec. Gn. Meriah, Kabupaten Aceh Singkil";"ACEH";"24791";"Indonesia";" 081370826783";"2.3900399";"97.965837";"https://maps.google.com/?cid=0x0:0x5cb3392971a6564"
"cafe";"Kedai Kopi";"Warkop Bu Jumiran";"GW9J+939, Singkohor, Kec. Singkohor, Kabupaten Aceh Singkil, Aceh 24782";"Singkohor, Kec. Singkohor, Kabupaten Aceh Singkil";"ACEH";"24782";"Indonesia";"";"2.5184179";"97.9302403";"https://maps.google.com/?cid=0x0:0x3da9014d7780d61f"
"cafe";"Kedai Kopi";"Warung Cahya Barokah";"GWXH+9W9, Mukti Jaya, Kec. Singkohor, Kabupaten Aceh Singkil, Aceh 24782";"Mukti Jaya, Kec. Singkohor, Kabupaten Aceh Singkil";"ACEH";"24782";"Indonesia";"";"2.5484154";"97.9298475";"https://maps.google.com/?cid=0x0:0xd9d7b5ad00997fca"
"cafe";"Bakso";"Istana bakso mbak jinem";"GWCJ+W2X, Singkohor, Kec. Singkohor, Kabupaten Aceh Singkil, Aceh 24782";"Singkohor, Kec. Singkohor, Kabupaten Aceh Singkil";"ACEH";"24782";"Indonesia";" 082334992893";"2.5223731";"97.9301152";"https://maps.google.com/?cid=0x0:0xe18c4de3e0f8543"
"cafe";"Hidangan Laut";"kiniko cafe";"7VFH+V99, Gosong Telaga Bar., Kec. Singkil Utara, Kabupaten Aceh Singkil, Aceh 24472";"Gosong Telaga Bar., Kec. Singkil Utara, Kabupaten Aceh Singkil";"ACEH";"24472";"Indonesia";"";"2.2746629";"97.8784959";"https://maps.google.com/?cid=0x0:0x105ef636a027c5a1"
"cafe";"Kedai Kopi";"Warkop bu hj. Fauzi";"HW3J+RH7, Unnamed Road, Mukti Jaya, Kec. Singkohor, Kabupaten Aceh Singkil, Aceh 24782";"Unnamed Road, Mukti Jaya, Kec. Singkohor, Kabupaten Aceh Singkil";"ACEH";"24782";"Indonesia";" 085360141012";"2.5545267";"97.9314206";"https://maps.google.com/?cid=0x0:0x34ec0ff3e9197aa0"
"cafe";"Indonesia";"warung LENIS. pecel Dan gorengan";"GWWR+9M8, Mukti Jaya, Kec. Singkohor, Kabupaten Aceh Singkil, Aceh";"Kabupaten Aceh Singkil, Aceh";"ACEH";"";"Indonesia";"";"2.5459226";"97.941689";"https://maps.google.com/?cid=0x0:0x977725f50d29c367"
"cafe";"cafe";"Aceh 24784";"Kabupaten Aceh Singkil, Aceh";"Kabupaten Aceh Singkil, Aceh";"ACEH";"";"Indonesia";"";"2.152911";"97.2840888";"https://maps.google.com/?cid=0x0:0xab521459bf3c978c"
"cafe";"Kafe";"Kafe Ridho";"8C26+452, Pulau Baguk, Banyak Island, Aceh Singkil Regency, Aceh 24784";"Pulau Baguk, Banyak Island, Aceh Singkil Regency";"ACEH";"24784";"Indonesia";" 085362312621";"2.3002583";"97.4103852";"https://maps.google.com/?cid=0x0:0xa126c4059572d47"
"cafe";"Restoran";"Cafe Flamboyan";"66JJ+767, Haloban, Kec. Pulau Banyak Bar., Kabupaten Aceh Singkil, Aceh 24784";"Haloban, Kec. Pulau Banyak Bar., Kabupaten Aceh Singkil";"ACEH";"24784";"Indonesia";"";"2.2306595";"97.2305618";"https://maps.google.com/?cid=0x0:0xac28982f9da45913"
"cafe";"Kafe";"BALAI INDAH CAFE";"8C45+X27, Jalan Surya, Pulau Balai, Pulau Banyak, Kabupaten Aceh Singkil, Aceh 24784";"Jalan Surya, Pulau Balai, Pulau Banyak, Kabupaten Aceh Singkil";"ACEH";"24784";"Indonesia";" 082361412840";"2.3074187";"97.4075619";"https://maps.google.com/?cid=0x0:0x8842e3de67e0f4"
"cafe";"Kedai Kopi";"Saung Bitapmi";"Jl. Suka Maju Perumahan BRR, Asantola, Kec. Pulau Banyak Bar., Aceh 24784";"Asantola, Kec. Pulau Banyak Bar.";"ACEH";"24784";"Indonesia";" 081219115121";"2.2257539";"97.2349626";"https://maps.google.com/?cid=0x0:0x3ec29ed7c78eb652"
"cafe";"Kedai Kopi";"Pulau baguk";"7CW5+RWX, Pulau Baguk, Pulau Banyak, Kabupaten Aceh Singkil, Aceh 24784";"Pulau Baguk, Pulau Banyak, Kabupaten Aceh Singkil";"ACEH";"24784";"Indonesia";"";"2.2971167";"97.4098442";"https://maps.google.com/?cid=0x0:0xa1950a53c161ce19"
"cafe";"Kedai Kopi";"Warung Mande";"66HJ+X29, Haloban, Kec. Pulau Banyak Bar., Kabupaten Aceh Singkil, Aceh 24784";"Haloban, Kec. Pulau Banyak Bar., Kabupaten Aceh Singkil";"ACEH";"24784";"Indonesia";"";"2.2299176";"97.2301107";"https://maps.google.com/?cid=0x0:0xced8d5a0ad640bfb"
"cafe";"Kedai Kopi";"Warung pondok Bambu";"66GJ+H5Q, Haloban, Kec. Pulau Banyak Bar., Kabupaten Aceh Singkil, Aceh 24784";"Haloban, Kec. Pulau Banyak Bar., Kabupaten Aceh Singkil";"ACEH";"24784";"Indonesia";" 085270868761";"2.2264519";"97.2304736";"https://maps.google.com/?cid=0x0:0xaa26850ba5238a87"
"cafe";"Kafe";"WARUNG ALBAR";"7CW5+WHP, JL. Lingkar, Pulau Baguk, Pulau Banyak, Kabupaten Aceh Singkil, Aceh 24784";"JL. Lingkar, Pulau Baguk, Pulau Banyak, Kabupaten Aceh Singkil";"ACEH";"24784";"Indonesia";" 082360906179";"2.2973331";"97.4089543";"https://maps.google.com/?cid=0x0:0x29d8e50e38ffb6a"
"cafe";"Tujuan Wisata";"Bumdes PULAU BALAI AMERICA CAFE";"8C64+4F7, Jalan Surya, Pulau Balai, Pulau Banyak, Kabupaten Aceh Singkil, Aceh 24784";"Jalan Surya, Pulau Balai, Pulau Banyak, Kabupaten Aceh Singkil";"ACEH";"24784";"Indonesia";" 085360166521";"2.3102917";"97.4061783";"https://maps.google.com/?cid=0x0:0xae3cc4c1fa4a8651"
"cafe";"Kedai Kopi";"AADC";"66JJ+4CG, Haloban, Kec. Pulau Banyak Bar., Kabupaten Aceh Singkil, Aceh 24784";"Haloban, Kec. Pulau Banyak Bar., Kabupaten Aceh Singkil";"ACEH";"24784";"Indonesia";" 082167091081";"2.2303124";"97.2310645";"https://maps.google.com/?cid=0x0:0x67768be791d3981e"
"cafe";"Kafe";"WARKOP MAMAK SAHNAN";"66JJ+397, Haloban, Kec. Pulau Banyak Bar., Kabupaten Aceh Singkil, Aceh 24784";"Haloban, Kec. Pulau Banyak Bar., Kabupaten Aceh Singkil";"ACEH";"24784";"Indonesia";"";"2.2301514";"97.2309093";"https://maps.google.com/?cid=0x0:0xd0865a7857d557ec"
"cafe";"Tujuan Wisata";"Warkop Pak Itam";"7C88+QJJ, Pulau Panjang, Kepulauan Banyak, Kabupaten Aceh Singkil, Aceh 24784";"Pulau Panjang, Kepulauan Banyak, Kabupaten Aceh Singkil";"ACEH";"24784";"Indonesia";"";"2.2669746";"97.4165041";"https://maps.google.com/?cid=0x0:0xdd4368cb148bb8b3"
"cafe";"Kafe";"Cafe Blustun";"8C65+MPJ, Pulau Balai, Pulau Banyak, Kabupaten Aceh Singkil, Aceh";"Kabupaten Aceh Singkil, Aceh";"ACEH";"";"Indonesia";"";"2.3115652";"97.4091746";"https://maps.google.com/?cid=0x0:0xadcfa0b9a90344a5"
