Category;Real Category;Business Name;Address;City;State;Postal Code;Country;Phone;Latitude;Longitude;Map Link
"toko bangunan";"toko bangunan";"Aceh 24784";"Kabupaten Aceh Singkil, Aceh";"Kabupaten Aceh Singkil, Aceh";"ACEH";"";"Indonesia";"";"2.152911";"97.2840888";"https://maps.google.com/?cid=0x0:0xab521459bf3c978c"
"toko bangunan";"Toko Bahan Bangunan";"TOKO SALWA BARU .";"J2X2+QQG, Subulussalam Utara, Kec. Simpang Kiri, Kota Subulussalam, Aceh 24782";"Subulussalam Utara, Kec. Simpang Kiri, Kota Subulussalam";"ACEH";"24782";"Indonesia";" 08887777666";"2.6494349";"98.0019451";"https://maps.google.com/?cid=0x0:0xb978535b018ffba0"
"toko bangunan";"Toko Bahan Bangunan";"TOKO BANGUNAN ALPAJA";"Jl. Teuku Umar, Kampong, Tangga Besi, Kec. Simpang Kiri, Kota Subulussalam, Aceh";"Kota Subulussalam, Aceh";"ACEH";"";"Indonesia";" 085276347778";"2.6673666";"98.0002932";"https://maps.google.com/?cid=0x0:0x43f6af1f04be2ade"
"toko bangunan";"Toko";"UD.TANGAH(toko bangunan)";"QVWR+W88, Jl. Tapaktuan - Subulussalam, Suka Maju, Kec. Sultan Daulat, Kota Subulussalam, Aceh 24782";"Jl. Tapaktuan - Subulussalam, Suka Maju, Kec. Sultan Daulat, Kota Subulussalam";"ACEH";"24782";"Indonesia";" 085262227756";"2.7972907";"97.8908189";"https://maps.google.com/?cid=0x0:0x296bfda3e1340b24"
"toko bangunan";"Jasa Konstruksi dan Bangunan";"UD MAJU JAYA Lipat kajang";"Lipat Kajang Atas, Kec. Simpang Kanan, Kabupaten Aceh Singkil, Aceh 24791";"Kec. Simpang Kanan, Kabupaten Aceh Singkil";"ACEH";"24791";"Indonesia";" 08153305862";"2.4349322";"97.9895288";"https://maps.google.com/?cid=0x0:0xa011498b4f77a0ed"
"toko bangunan";"Bengkel Peralatan Pertanian";"UD.PATASE";"84H4+4C7, Biskang, Kec. Danau Paris, Kabupaten Aceh Singkil, Aceh 24472";"Biskang, Kec. Danau Paris, Kabupaten Aceh Singkil";"ACEH";"24472";"Indonesia";"";"2.3277797";"98.1060605";"https://maps.google.com/?cid=0x0:0xbf0772dd00cc53ca"
"toko bangunan";"Toko Bahan Bangunan";"Samurai Paint - Ud Semesta Subulussalam";"J2R4+868, Subulussalam, Kec. Simpang Kiri, Kota Subulussalam, Aceh 24782";"Subulussalam, Kec. Simpang Kiri, Kota Subulussalam";"ACEH";"24782";"Indonesia";" 082370542102";"2.6407908";"98.0055817";"https://maps.google.com/?cid=0x0:0x7c74d0e53253cf96"
"toko bangunan";"Toko Bahan Bangunan";"TOKO FAJAR PRIMA";"J2X3+7QX, Jl. Nyak Adam Kamil, Subulussalam Utara, Kec. Simpang Kiri, Kota Subulussalam, Aceh 24782";"Jl. Nyak Adam Kamil, Subulussalam Utara, Kec. Simpang Kiri, Kota Subulussalam";"ACEH";"24782";"Indonesia";"";"2.6482457";"98.0044922";"https://maps.google.com/?cid=0x0:0x76fa0ce7737fff45"
"toko bangunan";"Toko Bahan Bangunan";"UD. Daeng Semesta";"Jl. Cut Nyak Dhien No.39, Subulussalam, Kec. Simpang Kiri, Kota Subulussalam, Aceh 24781";"Subulussalam, Kec. Simpang Kiri, Kota Subulussalam";"ACEH";"24781";"Indonesia";"";"2.6417044";"98.0064085";"https://maps.google.com/?cid=0x0:0x3d61ef5e4d8c63e0"
"toko bangunan";"Toko Bahan Bangunan";"UD.SISIFA";"Subulussalam, Kec. Simpang Kiri, Kota Subulussalam, Aceh 24782";"Kec. Simpang Kiri, Kota Subulussalam";"ACEH";"24782";"Indonesia";" 081370822418";"2.6414357";"98.0170478";"https://maps.google.com/?cid=0x0:0x411bfb1d6b0656be"
"toko bangunan";"Pemasok Bahan Bangunan";"PAKARO";"Jl. TR Angkasah, Tanah Bara, Kec. Gn. Meriah, Kabupaten Aceh Singkil, Aceh 23784";"Tanah Bara, Kec. Gn. Meriah, Kabupaten Aceh Singkil";"ACEH";"23784";"Indonesia";" 08566507761";"2.3805611";"97.9550927";"https://maps.google.com/?cid=0x0:0x4926a74f03c52684"
"toko bangunan";"Toko Bahan Bangunan";"TOKO 2 SAHABAT";"9XV7+397, Rimo, Kec. Gn. Meriah, Kabupaten Aceh Singkil, Aceh 24791";"Rimo, Kec. Gn. Meriah, Kabupaten Aceh Singkil";"ACEH";"24791";"Indonesia";"";"2.3926596";"97.9634371";"https://maps.google.com/?cid=0x0:0x91a26a50d9f41256"
"toko bangunan";"Toko Bahan Bangunan";"Toko Bangunan Ashima";"J2R2+RVF, Subulussalam Sel., Kec. Simpang Kiri, Kota Subulussalam, Aceh 24782";"Subulussalam Sel., Kec. Simpang Kiri, Kota Subulussalam";"ACEH";"24782";"Indonesia";" 081377177107";"2.6420713";"98.0021745";"https://maps.google.com/?cid=0x0:0xbcab138a31454ac9"
"toko bangunan";"Toko Bahan Bangunan";"Toko dua sahabat trans 26";"CWG8+PM, Bukit Harapan, Kec. Gn. Meriah, Kabupaten Aceh Singkil, Aceh";"Kabupaten Aceh Singkil, Aceh";"ACEH";"";"Indonesia";"";"2.4266788";"97.9166988";"https://maps.google.com/?cid=0x0:0x82b7de30d35cd588"
"toko bangunan";"toko bangunan";"Aceh 24784";"Kabupaten Aceh Singkil, Aceh";"Kabupaten Aceh Singkil, Aceh";"ACEH";"";"Indonesia";"";"2.152911";"97.2840888";"https://maps.google.com/?cid=0x0:0xab521459bf3c978c"
"toko bangunan";"Toko";"Toko Restoemi";"FXMF+74G, Matang Seulimeng, Kec. Langsa Bar., Kota Langsa, Aceh 24355";"Matang Seulimeng, Kec. Langsa Bar., Kota Langsa";"ACEH";"24355";"Indonesia";" 082370214773";"4.4831933";"97.9728245";"https://maps.google.com/?cid=0x0:0xa59443fd2f2c5e62"
"toko bangunan";"toko bangunan";"Toko Dewata";"Tanah Bara, Kec. Gn. Meriah, Kabupaten Aceh Singkil, Aceh 24791";"Kec. Gn. Meriah, Kabupaten Aceh Singkil";"ACEH";"24791";"Indonesia";"";"2.3805525";"97.9550718";"https://maps.google.com/?cid=0x0:0xe46dd8810c95b483"
"toko bangunan";"toko bangunan";"Toko bangunan Randi";"GVC8+7PX, Sumber Mukti, Kec. Kota Baharu, Kabupaten Aceh Singkil, Aceh";"Kabupaten Aceh Singkil, Aceh";"ACEH";"";"Indonesia";" 085658032488";"2.5207301";"97.8668567";"https://maps.google.com/?cid=0x0:0x9d6aac630e7db4fa"
"toko bangunan";"Toko Bahan Bangunan";"TOKO 2 SAHABAT";"9XV7+397, Rimo, Kec. Gn. Meriah, Kabupaten Aceh Singkil, Aceh 24791";"Rimo, Kec. Gn. Meriah, Kabupaten Aceh Singkil";"ACEH";"24791";"Indonesia";"";"2.3926596";"97.9634371";"https://maps.google.com/?cid=0x0:0x91a26a50d9f41256"
"toko bangunan";"Toko Bahan Bangunan";"Toko dua sahabat trans 26";"CWG8+PM, Bukit Harapan, Kec. Gn. Meriah, Kabupaten Aceh Singkil, Aceh";"Kabupaten Aceh Singkil, Aceh";"ACEH";"";"Indonesia";"";"2.4266788";"97.9166988";"https://maps.google.com/?cid=0x0:0x82b7de30d35cd588"
"toko bangunan";"toko bangunan";"Aceh 24784";"Kabupaten Aceh Singkil, Aceh";"Kabupaten Aceh Singkil, Aceh";"ACEH";"";"Indonesia";"";"2.152911";"97.2840888";"https://maps.google.com/?cid=0x0:0xab521459bf3c978c"
"toko bangunan";"Toko Bahan Bangunan";"TOKO SALWA BARU .";"J2X2+QQG, Subulussalam Utara, Kec. Simpang Kiri, Kota Subulussalam, Aceh 24782";"Subulussalam Utara, Kec. Simpang Kiri, Kota Subulussalam";"ACEH";"24782";"Indonesia";" 08887777666";"2.6494349";"98.0019451";"https://maps.google.com/?cid=0x0:0xb978535b018ffba0"
"toko bangunan";"Toko Bahan Bangunan";"TOKO BANGUNAN ALPAJA";"Jl. Teuku Umar, Kampong, Tangga Besi, Kec. Simpang Kiri, Kota Subulussalam, Aceh";"Kota Subulussalam, Aceh";"ACEH";"";"Indonesia";" 085276347778";"2.6673666";"98.0002932";"https://maps.google.com/?cid=0x0:0x43f6af1f04be2ade"
"toko bangunan";"Toko";"UD.TANGAH(toko bangunan)";"QVWR+W88, Jl. Tapaktuan - Subulussalam, Suka Maju, Kec. Sultan Daulat, Kota Subulussalam, Aceh 24782";"Jl. Tapaktuan - Subulussalam, Suka Maju, Kec. Sultan Daulat, Kota Subulussalam";"ACEH";"24782";"Indonesia";" 085262227756";"2.7972907";"97.8908189";"https://maps.google.com/?cid=0x0:0x296bfda3e1340b24"
"toko bangunan";"Kantor Perusahaan";"Bumdes Blok VI Baru";"9XM9+JGG, Jln- Balai Desa, Blk. VI Baru, Kec. Gn. Meriah, Kabupaten Aceh Singkil, Aceh 24784";"Jln- Balai Desa, Blk. VI Baru, Kec. Gn. Meriah, Kabupaten Aceh Singkil";"ACEH";"24784";"Indonesia";" 082275020281";"2.3840675";"97.9688222";"https://maps.google.com/?cid=0x0:0xba000d923c643d6a"
"toko bangunan";"Jasa Konstruksi dan Bangunan";"UD MAJU JAYA Lipat kajang";"Lipat Kajang Atas, Kec. Simpang Kanan, Kabupaten Aceh Singkil, Aceh 24791";"Kec. Simpang Kanan, Kabupaten Aceh Singkil";"ACEH";"24791";"Indonesia";" 08153305862";"2.4349322";"97.9895288";"https://maps.google.com/?cid=0x0:0xa011498b4f77a0ed"
"toko bangunan";"Toko Bahan Bangunan";"TOKO FAJAR PRIMA";"J2X3+7QX, Jl. Nyak Adam Kamil, Subulussalam Utara, Kec. Simpang Kiri, Kota Subulussalam, Aceh 24782";"Jl. Nyak Adam Kamil, Subulussalam Utara, Kec. Simpang Kiri, Kota Subulussalam";"ACEH";"24782";"Indonesia";"";"2.6482457";"98.0044922";"https://maps.google.com/?cid=0x0:0x76fa0ce7737fff45"
"toko bangunan";"Toko Bahan Bangunan";"UD. RAHMAWATI (H. MASIDIN)";"Jl. H. M Thaher No.204, Ujung, Kec. Singkil, Kabupaten Aceh Singkil, Aceh";"Kabupaten Aceh Singkil, Aceh";"ACEH";"";"Indonesia";"";"2.285753";"97.7817338";"https://maps.google.com/?cid=0x0:0x83ee85986b969b73"
"toko bangunan";"Toko Bahan Bangunan";"TOKO BESI BINTANG BANGUNAN";"Jl. Pocut Baren No.29, Keuramat, Kec. Kuta Alam, Kota Banda Aceh, Aceh 23126";"Keuramat, Kec. Kuta Alam, Kota Banda Aceh";"ACEH";"23126";"Indonesia";" 081360031288";"5.5617508";"95.3240203";"https://maps.google.com/?cid=0x0:0xa98c67e001462b53"
"toko bangunan";"Toko Bahan Bangunan";"Samurai Paint - Ud Semesta Subulussalam";"J2R4+868, Subulussalam, Kec. Simpang Kiri, Kota Subulussalam, Aceh 24782";"Subulussalam, Kec. Simpang Kiri, Kota Subulussalam";"ACEH";"24782";"Indonesia";" 082370542102";"2.6407908";"98.0055817";"https://maps.google.com/?cid=0x0:0x7c74d0e53253cf96"
"toko bangunan";"Produsen batu bata";"Batako Loster Minimalis";"CX6C+C7W, Jl. Subulussalam, Sianjo Anjo Meriah, Kec. Gn. Meriah, Kabupaten Aceh Singkil, Aceh";"Kabupaten Aceh Singkil, Aceh";"ACEH";"";"Indonesia";" 082294214764";"2.4116562";"97.9719819";"https://maps.google.com/?cid=0x0:0x906e35e38aea01a1"
"toko bangunan";"Toko Bahan Bangunan";"TOKO 2 SAHABAT";"9XV7+397, Rimo, Kec. Gn. Meriah, Kabupaten Aceh Singkil, Aceh 24791";"Rimo, Kec. Gn. Meriah, Kabupaten Aceh Singkil";"ACEH";"24791";"Indonesia";"";"2.3926596";"97.9634371";"https://maps.google.com/?cid=0x0:0x91a26a50d9f41256"
"toko bangunan";"Toko Bahan Bangunan";"Toko Bangunan Ashima";"J2R2+RVF, Subulussalam Sel., Kec. Simpang Kiri, Kota Subulussalam, Aceh 24782";"Subulussalam Sel., Kec. Simpang Kiri, Kota Subulussalam";"ACEH";"24782";"Indonesia";" 081377177107";"2.6420713";"98.0021745";"https://maps.google.com/?cid=0x0:0xbcab138a31454ac9"
"toko bangunan";"Minimarket";"Toko Bangunan Adma Jaya";"7RG3+FX4, Jl. Singkil - Rimo, Pulo Sarok, Kec. Singkil, Kabupaten Aceh Singkil, Aceh 24472";"Jl. Singkil - Rimo, Pulo Sarok, Kec. Singkil, Kabupaten Aceh Singkil";"ACEH";"24472";"Indonesia";"";"2.2761342";"97.8049657";"https://maps.google.com/?cid=0x0:0x9cb8c662ca79fde2"
"toko bangunan";"Toko Perlengkapan Rumah";"Toko bangunan pacific baru";"62Q4+HH4, Jl. PT. KKA, Paloh Lada, Kec. Dewantara, Kabupaten Aceh Utara, Aceh";"Kabupaten Aceh Utara, Aceh";"ACEH";"";"Indonesia";" 081321534311";"5.23888";"97.00644";"https://maps.google.com/?cid=0x0:0x7f761c0e1a87072"
"toko bangunan";"Toko Bahan Bangunan";"Toko Bangunan Pacific Jaya";"62R4+5VM, Paloh Lada, Kec. Dewantara, Kabupaten Aceh Utara, Aceh";"Kabupaten Aceh Utara, Aceh";"ACEH";"";"Indonesia";"";"5.2404522";"97.0071786";"https://maps.google.com/?cid=0x0:0xb01dad4468be43c1"
"toko bangunan";"toko bangunan";"Aceh 24784";"Kabupaten Aceh Singkil, Aceh";"Kabupaten Aceh Singkil, Aceh";"ACEH";"";"Indonesia";"";"2.152911";"97.2840888";"https://maps.google.com/?cid=0x0:0xab521459bf3c978c"
"toko bangunan";"toko bangunan";"Toko Bangunan Buana Baru";"7RH3+MQ7, Jl. Bahari, Pulo Sarok, Kec. Singkil, Kabupaten Aceh Singkil, Aceh 24472";"Jl. Bahari, Pulo Sarok, Kec. Singkil, Kabupaten Aceh Singkil";"ACEH";"24472";"Indonesia";"";"2.2791572";"97.8044174";"https://maps.google.com/?cid=0x0:0xb6994b81a97d6d98"
"toko bangunan";"Toko Bahan Bangunan";"Guna Baru";"Jl. RE Martadinata No.203, Karangasem, Karangasem Utara, Kec. Batang, Kabupaten Batang, Jawa Tengah 51216";"Karangasem, Karangasem Utara, Kec. Batang, Kabupaten Batang";"ACEH";"51216";"Indonesia";" 085226246687";"-6.897457";"109.738574";"https://maps.google.com/?cid=0x0:0x809cf565c1cf6efb"
"toko bangunan";"Toko Bahan Bangunan";"Toko Material Sapuro Baru";"Jl. Sumatera No.92, Sapuro Kebulen, Kec. Pekalongan Bar., Kota Pekalongan, Jawa Tengah 51112";"Sapuro Kebulen, Kec. Pekalongan Bar., Kota Pekalongan";"ACEH";"51112";"Indonesia";" 085865964582";"-6.8970561";"109.6719774";"https://maps.google.com/?cid=0x0:0x5485f68caeba81a4"
"toko bangunan";"toko bangunan";"Aceh";"";"Aceh";"ACEH";"";"Indonesia";"";"4.695135";"96.7493993";"https://maps.google.com/?cid=0x0:0x1039d80b220ca60"
"toko bangunan";"Toko Bahan Bangunan";"TOKO 2 SAHABAT";"9XV7+397, Rimo, Kec. Gn. Meriah, Kabupaten Aceh Singkil, Aceh 24791";"Rimo, Kec. Gn. Meriah, Kabupaten Aceh Singkil";"ACEH";"24791";"Indonesia";"";"2.3926596";"97.9634371";"https://maps.google.com/?cid=0x0:0x91a26a50d9f41256"
"toko bangunan";"Jasa Konstruksi dan Bangunan";"UD MAJU JAYA Lipat kajang";"Lipat Kajang Atas, Kec. Simpang Kanan, Kabupaten Aceh Singkil, Aceh 24791";"Kec. Simpang Kanan, Kabupaten Aceh Singkil";"ACEH";"24791";"Indonesia";" 08153305862";"2.4349322";"97.9895288";"https://maps.google.com/?cid=0x0:0xa011498b4f77a0ed"
"toko bangunan";"Pusat Perbelanjaan";"Cat Tembok Citra Paint";"9WFX+PHP, Jl. Singkil - Rimo, Tanah Bara, Kec. Gn. Meriah, Kabupaten Aceh Singkil, Aceh 24791";"Jl. Singkil - Rimo, Tanah Bara, Kec. Gn. Meriah, Kabupaten Aceh Singkil";"ACEH";"24791";"Indonesia";"";"2.3743316";"97.9489443";"https://maps.google.com/?cid=0x0:0x73c1266735a235a7"
"toko bangunan";"toko bangunan";"Toko Alat Bangunan (Digan)";"C2V6+56J, Kuta Kerangan, Kec. Simpang Kanan, Kabupaten Aceh Singkil, Aceh 24791";"Kuta Kerangan, Kec. Simpang Kanan, Kabupaten Aceh Singkil";"ACEH";"24791";"Indonesia";"";"2.4429597";"98.0105148";"https://maps.google.com/?cid=0x0:0xd4bb241c241517e4"
"toko bangunan";"toko bangunan";"Toko Bahan Bangunan (Usaha Kita)";"CXQR+4QF, Lipat Kajang Atas, Kec. Simpang Kanan, Kabupaten Aceh Singkil, Aceh 24791";"Lipat Kajang Atas, Kec. Simpang Kanan, Kabupaten Aceh Singkil";"ACEH";"24791";"Indonesia";"";"2.437814";"97.9919101";"https://maps.google.com/?cid=0x0:0xc53e006c3cfa75cd"
"toko bangunan";"toko bangunan";"Pulau Banyak";"Kabupaten Aceh Singkil, Aceh";"Kabupaten Aceh Singkil, Aceh";"ACEH";"";"Indonesia";"";"2.3198851";"97.413802";"https://maps.google.com/?cid=0x0:0xf22eba8ba0db80e0"
"toko bangunan";"Toko Bahan Bangunan";"Toko dua sahabat trans 26";"CWG8+PM, Bukit Harapan, Kec. Gn. Meriah, Kabupaten Aceh Singkil, Aceh";"Kabupaten Aceh Singkil, Aceh";"ACEH";"";"Indonesia";"";"2.4266788";"97.9166988";"https://maps.google.com/?cid=0x0:0x82b7de30d35cd588"
"toko bangunan";"Toko Bahan Bangunan";"Satahi. UD";"7QMR+7RF, JL. Sultan Iskandar Muda, Ps. Singkil, Kec. Singkil, Kabupaten Aceh Singkil, Aceh 24472";"JL. Sultan Iskandar Muda, Ps. Singkil, Kec. Singkil, Kabupaten Aceh Singkil";"ACEH";"24472";"Indonesia";" 065821573";"2.283178";"97.792053";"https://maps.google.com/?cid=0x0:0x223141e6efa4d22b"
"toko bangunan";"toko bangunan";"Toko bangunan Randi";"GVCJ+R3W Camar 2, Sumber Mukti, Kec. Kota Baharu, Kabupaten Aceh Singkil, Aceh";"Kabupaten Aceh Singkil, Aceh";"ACEH";"";"Indonesia";"";"2.5221132";"97.8802091";"https://maps.google.com/?cid=0x0:0x8284a189207b2dee"
"toko bangunan";"toko bangunan";"Toko bangunan Randi";"GVC8+7PX, Sumber Mukti, Kec. Kota Baharu, Kabupaten Aceh Singkil, Aceh";"Kabupaten Aceh Singkil, Aceh";"ACEH";"";"Indonesia";" 085658032488";"2.5207301";"97.8668567";"https://maps.google.com/?cid=0x0:0x9d6aac630e7db4fa"
"toko bangunan";"Minimarket";"Toko Bangunan Adma Jaya";"7RG3+FX4, Jl. Singkil - Rimo, Pulo Sarok, Kec. Singkil, Kabupaten Aceh Singkil, Aceh 24472";"Jl. Singkil - Rimo, Pulo Sarok, Kec. Singkil, Kabupaten Aceh Singkil";"ACEH";"24472";"Indonesia";"";"2.2761342";"97.8049657";"https://maps.google.com/?cid=0x0:0x9cb8c662ca79fde2"
"toko bangunan";"Toko Bahan Bangunan";"UD. RAHMAWATI (H. MASIDIN)";"Jl. H. M Thaher No.204, Ujung, Kec. Singkil, Kabupaten Aceh Singkil, Aceh";"Kabupaten Aceh Singkil, Aceh";"ACEH";"";"Indonesia";"";"2.285753";"97.7817338";"https://maps.google.com/?cid=0x0:0x83ee85986b969b73"
"toko bangunan";"Toko Bahan Bangunan";"TB 2 putra";"Peajambu, Kec. Singkohor, Kabupaten Aceh Singkil, Aceh 24783";"Kec. Singkohor, Kabupaten Aceh Singkil";"ACEH";"24783";"Indonesia";"";"2.42686";"97.8855808";"https://maps.google.com/?cid=0x0:0x18794bc95cb2998c"
"toko bangunan";"toko bangunan";"Aceh 24791";"Kec. Singkil Utara, Kabupaten Aceh Singkil, Aceh";"Kabupaten Aceh Singkil, Aceh";"ACEH";"";"Indonesia";"";"2.4658075";"98.013794";"https://maps.google.com/?cid=0x0:0xed134176c9340695"
"toko bangunan";"toko bangunan";"Kec. Pulau Banyak Bar.";"Kabupaten Aceh Singkil, Aceh";"Kabupaten Aceh Singkil, Aceh";"ACEH";"";"Indonesia";"";"2.2278739";"97.2326992";"https://maps.google.com/?cid=0x0:0x154c9da37cf5674f"
"toko bangunan";"Toko Bahan Bangunan";"UD. RAHMAWATI (H. MASIDIN)";"Jl. H. M Thaher No.204, Ujung, Kec. Singkil, Kabupaten Aceh Singkil, Aceh";"Kabupaten Aceh Singkil, Aceh";"ACEH";"";"Indonesia";"";"2.285753";"97.7817338";"https://maps.google.com/?cid=0x0:0x83ee85986b969b73"
"toko bangunan";"toko bangunan";"Toko Bangunan Buana Baru";"7RH3+MQ7, Jl. Bahari, Pulo Sarok, Kec. Singkil, Kabupaten Aceh Singkil, Aceh 24472";"Jl. Bahari, Pulo Sarok, Kec. Singkil, Kabupaten Aceh Singkil";"ACEH";"24472";"Indonesia";"";"2.2791572";"97.8044174";"https://maps.google.com/?cid=0x0:0xb6994b81a97d6d98"
"toko bangunan";"toko bangunan";"Aceh 24783";"Kabupaten Aceh Singkil, Aceh";"Kabupaten Aceh Singkil, Aceh";"ACEH";"";"Indonesia";"";"2.4071732";"97.991986";"https://maps.google.com/?cid=0x0:0x4541045a0abeaf53"
"toko bangunan";"Toko Bahan Bangunan";"TB 2 putra";"Peajambu, Kec. Singkohor, Kabupaten Aceh Singkil, Aceh 24783";"Kec. Singkohor, Kabupaten Aceh Singkil";"ACEH";"24783";"Indonesia";"";"2.42686";"97.8855808";"https://maps.google.com/?cid=0x0:0x18794bc95cb2998c"
"toko bangunan";"Jasa Konstruksi dan Bangunan";"UD MAJU JAYA Lipat kajang";"Lipat Kajang Atas, Kec. Simpang Kanan, Kabupaten Aceh Singkil, Aceh 24791";"Kec. Simpang Kanan, Kabupaten Aceh Singkil";"ACEH";"24791";"Indonesia";" 08153305862";"2.4349322";"97.9895288";"https://maps.google.com/?cid=0x0:0xa011498b4f77a0ed"
"toko bangunan";"Toko Bahan Bangunan";"TOKO BANGUNAN ALPAJA";"Jl. Teuku Umar, Kampong, Tangga Besi, Kec. Simpang Kiri, Kota Subulussalam, Aceh";"Kota Subulussalam, Aceh";"ACEH";"";"Indonesia";" 085276347778";"2.6673666";"98.0002932";"https://maps.google.com/?cid=0x0:0x43f6af1f04be2ade"
"toko bangunan";"Toko Bahan Bangunan";"UD.SISIFA";"Subulussalam, Kec. Simpang Kiri, Kota Subulussalam, Aceh 24782";"Kec. Simpang Kiri, Kota Subulussalam";"ACEH";"24782";"Indonesia";" 081370822418";"2.6414357";"98.0170478";"https://maps.google.com/?cid=0x0:0x411bfb1d6b0656be"
"toko bangunan";"Toko Bahan Bangunan";"TOKO 2 SAHABAT";"9XV7+397, Rimo, Kec. Gn. Meriah, Kabupaten Aceh Singkil, Aceh 24791";"Rimo, Kec. Gn. Meriah, Kabupaten Aceh Singkil";"ACEH";"24791";"Indonesia";"";"2.3926596";"97.9634371";"https://maps.google.com/?cid=0x0:0x91a26a50d9f41256"
"toko bangunan";"Toko Bahan Bangunan";"TOKO FAJAR PRIMA";"J2X3+7QX, Jl. Nyak Adam Kamil, Subulussalam Utara, Kec. Simpang Kiri, Kota Subulussalam, Aceh 24782";"Jl. Nyak Adam Kamil, Subulussalam Utara, Kec. Simpang Kiri, Kota Subulussalam";"ACEH";"24782";"Indonesia";"";"2.6482457";"98.0044922";"https://maps.google.com/?cid=0x0:0x76fa0ce7737fff45"
"toko bangunan";"Produsen batu bata";"Batako Loster Minimalis";"CX6C+C7W, Jl. Subulussalam, Sianjo Anjo Meriah, Kec. Gn. Meriah, Kabupaten Aceh Singkil, Aceh";"Kabupaten Aceh Singkil, Aceh";"ACEH";"";"Indonesia";" 082294214764";"2.4116562";"97.9719819";"https://maps.google.com/?cid=0x0:0x906e35e38aea01a1"
"toko bangunan";"Toko Bahan Bangunan";"Toko dua sahabat trans 26";"CWG8+PM, Bukit Harapan, Kec. Gn. Meriah, Kabupaten Aceh Singkil, Aceh";"Kabupaten Aceh Singkil, Aceh";"ACEH";"";"Indonesia";"";"2.4266788";"97.9166988";"https://maps.google.com/?cid=0x0:0x82b7de30d35cd588"
"toko bangunan";"Toko Bahan Bangunan";"UD CIBRO";"Kecamatan penanggalan, Jln pemancar, Penanggalan, barat, Kota Subulussalam, Aceh 24782";"Jln pemancar, Penanggalan, barat, Kota Subulussalam";"ACEH";"24782";"Indonesia";"";"2.6418848";"98.0126251";"https://maps.google.com/?cid=0x0:0xfbb6442f375baeb3"
"toko bangunan";"Pemasok Bahan Bangunan";"PAKARO";"Jl. TR Angkasah, Tanah Bara, Kec. Gn. Meriah, Kabupaten Aceh Singkil, Aceh 23784";"Tanah Bara, Kec. Gn. Meriah, Kabupaten Aceh Singkil";"ACEH";"23784";"Indonesia";" 08566507761";"2.3805611";"97.9550927";"https://maps.google.com/?cid=0x0:0x4926a74f03c52684"
"toko bangunan";"Toko Bahan Bangunan";"Samurai Paint - Ud Semesta Subulussalam";"J2R4+868, Subulussalam, Kec. Simpang Kiri, Kota Subulussalam, Aceh 24782";"Subulussalam, Kec. Simpang Kiri, Kota Subulussalam";"ACEH";"24782";"Indonesia";" 082370542102";"2.6407908";"98.0055817";"https://maps.google.com/?cid=0x0:0x7c74d0e53253cf96"
"toko bangunan";"Toko Bahan Bangunan";"UD. Daeng Semesta";"Jl. Cut Nyak Dhien No.39, Subulussalam, Kec. Simpang Kiri, Kota Subulussalam, Aceh 24781";"Subulussalam, Kec. Simpang Kiri, Kota Subulussalam";"ACEH";"24781";"Indonesia";"";"2.6417044";"98.0064085";"https://maps.google.com/?cid=0x0:0x3d61ef5e4d8c63e0"
"toko bangunan";"Toko Bahan Bangunan";"UD.KANZA TOKO BANGUNAN";"J2X4+55V, Jl. Nyak Adam Kamil, Subulussalam Utara, Kec. Simpang Kiri, Kota Subulussalam, Aceh 24782";"Jl. Nyak Adam Kamil, Subulussalam Utara, Kec. Simpang Kiri, Kota Subulussalam";"ACEH";"24782";"Indonesia";"";"2.6479836";"98.0054303";"https://maps.google.com/?cid=0x0:0x79802bb914e70a67"
"toko bangunan";"toko bangunan";"Riau 28992";"Kabupaten Rokan Hilir, Riau";"Kabupaten Rokan Hilir, Riau";"ACEH";"";"Indonesia";"";"1.6089504";"100.6647101";"https://maps.google.com/?cid=0x0:0x2b7f1924f159497b"
"toko bangunan";"Toko Perlengkapan Rumah";"Toko BUANA BARU";"VJVG+XHP, Simpang Tiga Desa Pulo Paya, Simpang Kompi, Kec. Trumon Tengah, Kabupaten Aceh Selatan, Aceh 23775";"Simpang Tiga Desa Pulo Paya, Simpang Kompi, Kec. Trumon Tengah, Kabupaten Aceh Selatan";"ACEH";"23775";"Indonesia";" 082360904035";"2.8949547";"97.6264382";"https://maps.google.com/?cid=0x0:0x3d81ae11336e5f41"
"toko bangunan";"toko bangunan";"Toko Bahan Bangunan (Usaha Kita)";"CXQR+4QF, Lipat Kajang Atas, Kec. Simpang Kanan, Kabupaten Aceh Singkil, Aceh 24791";"Lipat Kajang Atas, Kec. Simpang Kanan, Kabupaten Aceh Singkil";"ACEH";"24791";"Indonesia";"";"2.437814";"97.9919101";"https://maps.google.com/?cid=0x0:0xc53e006c3cfa75cd"
"toko bangunan";"toko bangunan";"Toko Alat Bangunan (Digan)";"C2V6+56J, Kuta Kerangan, Kec. Simpang Kanan, Kabupaten Aceh Singkil, Aceh 24791";"Kuta Kerangan, Kec. Simpang Kanan, Kabupaten Aceh Singkil";"ACEH";"24791";"Indonesia";"";"2.4429597";"98.0105148";"https://maps.google.com/?cid=0x0:0xd4bb241c241517e4"
"toko bangunan";"toko bangunan";"Kec. Simpang Kanan";"Kabupaten Aceh Singkil, Aceh";"Kabupaten Aceh Singkil, Aceh";"ACEH";"";"Indonesia";"";"2.4382133";"97.9903392";"https://maps.google.com/?cid=0x0:0x8d3290c62e81c9f0"
"toko bangunan";"Jasa Konstruksi dan Bangunan";"UD MAJU JAYA Lipat kajang";"Lipat Kajang Atas, Kec. Simpang Kanan, Kabupaten Aceh Singkil, Aceh 24791";"Kec. Simpang Kanan, Kabupaten Aceh Singkil";"ACEH";"24791";"Indonesia";" 08153305862";"2.4349322";"97.9895288";"https://maps.google.com/?cid=0x0:0xa011498b4f77a0ed"
"toko bangunan";"Toko Bahan Bangunan";"TOKO 2 SAHABAT";"9XV7+397, Rimo, Kec. Gn. Meriah, Kabupaten Aceh Singkil, Aceh 24791";"Rimo, Kec. Gn. Meriah, Kabupaten Aceh Singkil";"ACEH";"24791";"Indonesia";"";"2.3926596";"97.9634371";"https://maps.google.com/?cid=0x0:0x91a26a50d9f41256"
"toko bangunan";"Produsen batu bata";"Batako Loster Minimalis";"CX6C+C7W, Jl. Subulussalam, Sianjo Anjo Meriah, Kec. Gn. Meriah, Kabupaten Aceh Singkil, Aceh";"Kabupaten Aceh Singkil, Aceh";"ACEH";"";"Indonesia";" 082294214764";"2.4116562";"97.9719819";"https://maps.google.com/?cid=0x0:0x906e35e38aea01a1"
"toko bangunan";"Toko Bahan Bangunan";"Toko dua sahabat trans 26";"CWG8+PM, Bukit Harapan, Kec. Gn. Meriah, Kabupaten Aceh Singkil, Aceh";"Kabupaten Aceh Singkil, Aceh";"ACEH";"";"Indonesia";"";"2.4266788";"97.9166988";"https://maps.google.com/?cid=0x0:0x82b7de30d35cd588"
"toko bangunan";"Toko Bahan Bangunan";"TB 2 putra";"Peajambu, Kec. Singkohor, Kabupaten Aceh Singkil, Aceh 24783";"Kec. Singkohor, Kabupaten Aceh Singkil";"ACEH";"24783";"Indonesia";"";"2.42686";"97.8855808";"https://maps.google.com/?cid=0x0:0x18794bc95cb2998c"
"toko bangunan";"Toko Bahan Bangunan";"Toko besi indah sari";"Jl. Cut Meutia, Tulaan, Kec. Gn. Meriah, Kabupaten Aceh Singkil, Aceh 23784";"Tulaan, Kec. Gn. Meriah, Kabupaten Aceh Singkil";"ACEH";"23784";"Indonesia";" 085359346283";"2.3913541";"97.9659278";"https://maps.google.com/?cid=0x0:0x823a677017ec992b"
"toko bangunan";"Pemasok Bahan Bangunan";"PAKARO";"Jl. TR Angkasah, Tanah Bara, Kec. Gn. Meriah, Kabupaten Aceh Singkil, Aceh 23784";"Tanah Bara, Kec. Gn. Meriah, Kabupaten Aceh Singkil";"ACEH";"23784";"Indonesia";" 08566507761";"2.3805611";"97.9550927";"https://maps.google.com/?cid=0x0:0x4926a74f03c52684"
"toko bangunan";"Toko Bahan Bangunan";"Bintang Maju";"R7XX+HQQ Pasar baru, Simpang Kanan, Kec. Simpang Kanan, Kabupaten Rokan Hilir, Riau 28994";"Simpang Kanan, Kec. Simpang Kanan, Kabupaten Rokan Hilir";"ACEH";"28994";"Indonesia";" 085265666336";"1.8494235";"100.298891";"https://maps.google.com/?cid=0x0:0x3dcf3f397f1785be"
"toko bangunan";"Toko Bahan Bangunan";"Toko Karya Bangunan";"Unnamed Road, Karya Mukti, Kec. Rimba Melintang, Kabupaten Rokan Hilir, Riau 28992";"Karya Mukti, Kec. Rimba Melintang, Kabupaten Rokan Hilir";"ACEH";"28992";"Indonesia";" 085278730273";"1.7407187";"100.9680051";"https://maps.google.com/?cid=0x0:0x94ff4dccacdd0bff"
"toko bangunan";"toko bangunan";"Aceh 24785";"Kec. Kota Baharu, Kabupaten Aceh Singkil, Aceh";"Kabupaten Aceh Singkil, Aceh";"ACEH";"";"Indonesia";"";"2.4523065";"97.8123224";"https://maps.google.com/?cid=0x0:0x571276798298d3f5"
"toko bangunan";"Minimarket";"Toko Bangunan Adma Jaya";"7RG3+FX4, Jl. Singkil - Rimo, Pulo Sarok, Kec. Singkil, Kabupaten Aceh Singkil, Aceh 24472";"Jl. Singkil - Rimo, Pulo Sarok, Kec. Singkil, Kabupaten Aceh Singkil";"ACEH";"24472";"Indonesia";"";"2.2761342";"97.8049657";"https://maps.google.com/?cid=0x0:0x9cb8c662ca79fde2"
"toko bangunan";"toko bangunan";"Toko Bahan Bangunan (Usaha Kita)";"CXQR+4QF, Lipat Kajang Atas, Kec. Simpang Kanan, Kabupaten Aceh Singkil, Aceh 24791";"Lipat Kajang Atas, Kec. Simpang Kanan, Kabupaten Aceh Singkil";"ACEH";"24791";"Indonesia";"";"2.437814";"97.9919101";"https://maps.google.com/?cid=0x0:0xc53e006c3cfa75cd"
"toko bangunan";"toko bangunan";"Toko bangunan Randi";"GVCJ+R3W Camar 2, Sumber Mukti, Kec. Kota Baharu, Kabupaten Aceh Singkil, Aceh";"Kabupaten Aceh Singkil, Aceh";"ACEH";"";"Indonesia";"";"2.5221132";"97.8802091";"https://maps.google.com/?cid=0x0:0x8284a189207b2dee"
"toko bangunan";"toko bangunan";"Toko Dewata";"Tanah Bara, Kec. Gn. Meriah, Kabupaten Aceh Singkil, Aceh 24791";"Kec. Gn. Meriah, Kabupaten Aceh Singkil";"ACEH";"24791";"Indonesia";"";"2.3805525";"97.9550718";"https://maps.google.com/?cid=0x0:0xe46dd8810c95b483"
"toko bangunan";"Toko Bahan Bangunan";"TB 2 putra";"Peajambu, Kec. Singkohor, Kabupaten Aceh Singkil, Aceh 24783";"Kec. Singkohor, Kabupaten Aceh Singkil";"ACEH";"24783";"Indonesia";"";"2.42686";"97.8855808";"https://maps.google.com/?cid=0x0:0x18794bc95cb2998c"
"toko bangunan";"Toko Bahan Bangunan";"Toko dua sahabat trans 26";"CWG8+PM, Bukit Harapan, Kec. Gn. Meriah, Kabupaten Aceh Singkil, Aceh";"Kabupaten Aceh Singkil, Aceh";"ACEH";"";"Indonesia";"";"2.4266788";"97.9166988";"https://maps.google.com/?cid=0x0:0x82b7de30d35cd588"
"toko bangunan";"Toko Bahan Bangunan";"UD. RAHMAWATI (H. MASIDIN)";"Jl. H. M Thaher No.204, Ujung, Kec. Singkil, Kabupaten Aceh Singkil, Aceh";"Kabupaten Aceh Singkil, Aceh";"ACEH";"";"Indonesia";"";"2.285753";"97.7817338";"https://maps.google.com/?cid=0x0:0x83ee85986b969b73"
"toko bangunan";"Jasa Konstruksi dan Bangunan";"UD MAJU JAYA Lipat kajang";"Lipat Kajang Atas, Kec. Simpang Kanan, Kabupaten Aceh Singkil, Aceh 24791";"Kec. Simpang Kanan, Kabupaten Aceh Singkil";"ACEH";"24791";"Indonesia";" 08153305862";"2.4349322";"97.9895288";"https://maps.google.com/?cid=0x0:0xa011498b4f77a0ed"
"toko bangunan";"Toko Bahan Bangunan";"TOKO 2 SAHABAT";"9XV7+397, Rimo, Kec. Gn. Meriah, Kabupaten Aceh Singkil, Aceh 24791";"Rimo, Kec. Gn. Meriah, Kabupaten Aceh Singkil";"ACEH";"24791";"Indonesia";"";"2.3926596";"97.9634371";"https://maps.google.com/?cid=0x0:0x91a26a50d9f41256"
"toko bangunan";"Pemasok Bahan Bangunan";"PAKARO";"Jl. TR Angkasah, Tanah Bara, Kec. Gn. Meriah, Kabupaten Aceh Singkil, Aceh 23784";"Tanah Bara, Kec. Gn. Meriah, Kabupaten Aceh Singkil";"ACEH";"23784";"Indonesia";" 08566507761";"2.3805611";"97.9550927";"https://maps.google.com/?cid=0x0:0x4926a74f03c52684"
"toko bangunan";"Toko umum";"Toko Lia Jaya";"9XR7+68J, Rimo, Kec. Gn. Meriah, Kabupaten Aceh Singkil, Aceh";"Kabupaten Aceh Singkil, Aceh";"ACEH";"";"Indonesia";"";"2.3905993";"97.9632811";"https://maps.google.com/?cid=0x0:0x116568aa1106b1be"
"toko bangunan";"Produsen batu bata";"Batako Loster Minimalis";"CX6C+C7W, Jl. Subulussalam, Sianjo Anjo Meriah, Kec. Gn. Meriah, Kabupaten Aceh Singkil, Aceh";"Kabupaten Aceh Singkil, Aceh";"ACEH";"";"Indonesia";" 082294214764";"2.4116562";"97.9719819";"https://maps.google.com/?cid=0x0:0x906e35e38aea01a1"
"toko bangunan";"Toko Perlengkapan Rumah";"CV. Family Aluminium";"9W9V+J5W, Gn. Lagan, Kec. Gn. Meriah, Kabupaten Aceh Singkil, Aceh 24791";"Gn. Lagan, Kec. Gn. Meriah, Kabupaten Aceh Singkil";"ACEH";"24791";"Indonesia";" 082165034562";"2.3691077";"97.9429555";"https://maps.google.com/?cid=0x0:0x28a99650539109a7"
"toko bangunan";"toko bangunan";"Singkil";"Kec. Singkil, Kabupaten Aceh Singkil, Aceh";"Kabupaten Aceh Singkil, Aceh";"ACEH";"";"Indonesia";"";"2.2836143";"97.79873";"https://maps.google.com/?cid=0x0:0x4039d80b220d230"
"toko bangunan";"Toko Bahan Bangunan";"UD. RAHMAWATI (H. MASIDIN)";"Jl. H. M Thaher No.204, Ujung, Kec. Singkil, Kabupaten Aceh Singkil, Aceh";"Kabupaten Aceh Singkil, Aceh";"ACEH";"";"Indonesia";"";"2.285753";"97.7817338";"https://maps.google.com/?cid=0x0:0x83ee85986b969b73"
"toko bangunan";"Minimarket";"Toko Bangunan Adma Jaya";"7RG3+FX4, Jl. Singkil - Rimo, Pulo Sarok, Kec. Singkil, Kabupaten Aceh Singkil, Aceh 24472";"Jl. Singkil - Rimo, Pulo Sarok, Kec. Singkil, Kabupaten Aceh Singkil";"ACEH";"24472";"Indonesia";"";"2.2761342";"97.8049657";"https://maps.google.com/?cid=0x0:0x9cb8c662ca79fde2"
"toko bangunan";"Toko Bahan Bangunan";"Toko dua sahabat trans 26";"CWG8+PM, Bukit Harapan, Kec. Gn. Meriah, Kabupaten Aceh Singkil, Aceh";"Kabupaten Aceh Singkil, Aceh";"ACEH";"";"Indonesia";"";"2.4266788";"97.9166988";"https://maps.google.com/?cid=0x0:0x82b7de30d35cd588"
"toko bangunan";"Toko Bahan Bangunan";"TOKO 2 SAHABAT";"9XV7+397, Rimo, Kec. Gn. Meriah, Kabupaten Aceh Singkil, Aceh 24791";"Rimo, Kec. Gn. Meriah, Kabupaten Aceh Singkil";"ACEH";"24791";"Indonesia";"";"2.3926596";"97.9634371";"https://maps.google.com/?cid=0x0:0x91a26a50d9f41256"
"toko bangunan";"Toko Bahan Bangunan";"TB 2 putra";"Peajambu, Kec. Singkohor, Kabupaten Aceh Singkil, Aceh 24783";"Kec. Singkohor, Kabupaten Aceh Singkil";"ACEH";"24783";"Indonesia";"";"2.42686";"97.8855808";"https://maps.google.com/?cid=0x0:0x18794bc95cb2998c"
"toko bangunan";"Toko Bahan Bangunan";"Satahi. UD";"7QMR+7RF, JL. Sultan Iskandar Muda, Ps. Singkil, Kec. Singkil, Kabupaten Aceh Singkil, Aceh 24472";"JL. Sultan Iskandar Muda, Ps. Singkil, Kec. Singkil, Kabupaten Aceh Singkil";"ACEH";"24472";"Indonesia";" 065821573";"2.283178";"97.792053";"https://maps.google.com/?cid=0x0:0x223141e6efa4d22b"
"toko bangunan";"toko bangunan";"Toko Bangunan Buana Baru";"7RH3+MQ7, Jl. Bahari, Pulo Sarok, Kec. Singkil, Kabupaten Aceh Singkil, Aceh 24472";"Jl. Bahari, Pulo Sarok, Kec. Singkil, Kabupaten Aceh Singkil";"ACEH";"24472";"Indonesia";"";"2.2791572";"97.8044174";"https://maps.google.com/?cid=0x0:0xb6994b81a97d6d98"
"toko bangunan";"toko bangunan";"Singkil";"Kec. Singkil, Kabupaten Aceh Singkil, Aceh";"Kabupaten Aceh Singkil, Aceh";"ACEH";"";"Indonesia";"";"2.2836143";"97.79873";"https://maps.google.com/?cid=0x0:0x4039d80b220d230"
"toko bangunan";"Minimarket";"Toko Bangunan Adma Jaya";"7RG3+FX4, Jl. Singkil - Rimo, Pulo Sarok, Kec. Singkil, Kabupaten Aceh Singkil, Aceh 24472";"Jl. Singkil - Rimo, Pulo Sarok, Kec. Singkil, Kabupaten Aceh Singkil";"ACEH";"24472";"Indonesia";"";"2.2761342";"97.8049657";"https://maps.google.com/?cid=0x0:0x9cb8c662ca79fde2"
"toko bangunan";"Toko Bahan Bangunan";"UD. RAHMAWATI (H. MASIDIN)";"Jl. H. M Thaher No.204, Ujung, Kec. Singkil, Kabupaten Aceh Singkil, Aceh";"Kabupaten Aceh Singkil, Aceh";"ACEH";"";"Indonesia";"";"2.285753";"97.7817338";"https://maps.google.com/?cid=0x0:0x83ee85986b969b73"
"toko bangunan";"Toko Bahan Bangunan";"Satahi. UD";"7QMR+7RF, JL. Sultan Iskandar Muda, Ps. Singkil, Kec. Singkil, Kabupaten Aceh Singkil, Aceh 24472";"JL. Sultan Iskandar Muda, Ps. Singkil, Kec. Singkil, Kabupaten Aceh Singkil";"ACEH";"24472";"Indonesia";" 065821573";"2.283178";"97.792053";"https://maps.google.com/?cid=0x0:0x223141e6efa4d22b"
"toko bangunan";"Toko Bahan Bangunan";"TOKO 2 SAHABAT";"9XV7+397, Rimo, Kec. Gn. Meriah, Kabupaten Aceh Singkil, Aceh 24791";"Rimo, Kec. Gn. Meriah, Kabupaten Aceh Singkil";"ACEH";"24791";"Indonesia";"";"2.3926596";"97.9634371";"https://maps.google.com/?cid=0x0:0x91a26a50d9f41256"
"toko bangunan";"toko bangunan";"Toko Bangunan Buana Baru";"7RH3+MQ7, Jl. Bahari, Pulo Sarok, Kec. Singkil, Kabupaten Aceh Singkil, Aceh 24472";"Jl. Bahari, Pulo Sarok, Kec. Singkil, Kabupaten Aceh Singkil";"ACEH";"24472";"Indonesia";"";"2.2791572";"97.8044174";"https://maps.google.com/?cid=0x0:0xb6994b81a97d6d98"
"toko bangunan";"Toko Bahan Bangunan";"Toko dua sahabat trans 26";"CWG8+PM, Bukit Harapan, Kec. Gn. Meriah, Kabupaten Aceh Singkil, Aceh";"Kabupaten Aceh Singkil, Aceh";"ACEH";"";"Indonesia";"";"2.4266788";"97.9166988";"https://maps.google.com/?cid=0x0:0x82b7de30d35cd588"
"toko bangunan";"Jasa Konstruksi dan Bangunan";"UD MAJU JAYA Lipat kajang";"Lipat Kajang Atas, Kec. Simpang Kanan, Kabupaten Aceh Singkil, Aceh 24791";"Kec. Simpang Kanan, Kabupaten Aceh Singkil";"ACEH";"24791";"Indonesia";" 08153305862";"2.4349322";"97.9895288";"https://maps.google.com/?cid=0x0:0xa011498b4f77a0ed"
"toko bangunan";"Pemasok Bahan Bangunan";"PAKARO";"Jl. TR Angkasah, Tanah Bara, Kec. Gn. Meriah, Kabupaten Aceh Singkil, Aceh 23784";"Tanah Bara, Kec. Gn. Meriah, Kabupaten Aceh Singkil";"ACEH";"23784";"Indonesia";" 08566507761";"2.3805611";"97.9550927";"https://maps.google.com/?cid=0x0:0x4926a74f03c52684"
"toko bangunan";"toko bangunan";"Singkil";"Kec. Singkil, Kabupaten Aceh Singkil, Aceh";"Kabupaten Aceh Singkil, Aceh";"ACEH";"";"Indonesia";"";"2.2836143";"97.79873";"https://maps.google.com/?cid=0x0:0x4039d80b220d230"
"toko bangunan";"Minimarket";"Toko Bangunan Adma Jaya";"7RG3+FX4, Jl. Singkil - Rimo, Pulo Sarok, Kec. Singkil, Kabupaten Aceh Singkil, Aceh 24472";"Jl. Singkil - Rimo, Pulo Sarok, Kec. Singkil, Kabupaten Aceh Singkil";"ACEH";"24472";"Indonesia";"";"2.2761342";"97.8049657";"https://maps.google.com/?cid=0x0:0x9cb8c662ca79fde2"
"toko bangunan";"Toko Bahan Bangunan";"UD. RAHMAWATI (H. MASIDIN)";"Jl. H. M Thaher No.204, Ujung, Kec. Singkil, Kabupaten Aceh Singkil, Aceh";"Kabupaten Aceh Singkil, Aceh";"ACEH";"";"Indonesia";"";"2.285753";"97.7817338";"https://maps.google.com/?cid=0x0:0x83ee85986b969b73"
"toko bangunan";"Toko Bahan Bangunan";"TOKO 2 SAHABAT";"9XV7+397, Rimo, Kec. Gn. Meriah, Kabupaten Aceh Singkil, Aceh 24791";"Rimo, Kec. Gn. Meriah, Kabupaten Aceh Singkil";"ACEH";"24791";"Indonesia";"";"2.3926596";"97.9634371";"https://maps.google.com/?cid=0x0:0x91a26a50d9f41256"
"toko bangunan";"Toko Bahan Bangunan";"Satahi. UD";"7QMR+7RF, JL. Sultan Iskandar Muda, Ps. Singkil, Kec. Singkil, Kabupaten Aceh Singkil, Aceh 24472";"JL. Sultan Iskandar Muda, Ps. Singkil, Kec. Singkil, Kabupaten Aceh Singkil";"ACEH";"24472";"Indonesia";" 065821573";"2.283178";"97.792053";"https://maps.google.com/?cid=0x0:0x223141e6efa4d22b"
"toko bangunan";"toko bangunan";"Toko Bangunan Buana Baru";"7RH3+MQ7, Jl. Bahari, Pulo Sarok, Kec. Singkil, Kabupaten Aceh Singkil, Aceh 24472";"Jl. Bahari, Pulo Sarok, Kec. Singkil, Kabupaten Aceh Singkil";"ACEH";"24472";"Indonesia";"";"2.2791572";"97.8044174";"https://maps.google.com/?cid=0x0:0xb6994b81a97d6d98"
"toko bangunan";"Toko Bahan Bangunan";"TB 2 putra";"Peajambu, Kec. Singkohor, Kabupaten Aceh Singkil, Aceh 24783";"Kec. Singkohor, Kabupaten Aceh Singkil";"ACEH";"24783";"Indonesia";"";"2.42686";"97.8855808";"https://maps.google.com/?cid=0x0:0x18794bc95cb2998c"
"toko bangunan";"Jasa Konstruksi dan Bangunan";"UD MAJU JAYA Lipat kajang";"Lipat Kajang Atas, Kec. Simpang Kanan, Kabupaten Aceh Singkil, Aceh 24791";"Kec. Simpang Kanan, Kabupaten Aceh Singkil";"ACEH";"24791";"Indonesia";" 08153305862";"2.4349322";"97.9895288";"https://maps.google.com/?cid=0x0:0xa011498b4f77a0ed"
"toko bangunan";"Pemasok Bahan Bangunan";"PAKARO";"Jl. TR Angkasah, Tanah Bara, Kec. Gn. Meriah, Kabupaten Aceh Singkil, Aceh 23784";"Tanah Bara, Kec. Gn. Meriah, Kabupaten Aceh Singkil";"ACEH";"23784";"Indonesia";" 08566507761";"2.3805611";"97.9550927";"https://maps.google.com/?cid=0x0:0x4926a74f03c52684"
"toko bangunan";"Toko Bahan Bangunan";"Toko Bahan Bangunan";"FRWX+995, Jl. Soputan, Singkil Satu, Kec. Singkil, Kota Manado, Sulawesi Utara";"Kota Manado, Sulawesi Utara";"ACEH";"";"Indonesia";"";"1.4958803";"124.8484916";"https://maps.google.com/?cid=0x0:0x87a9bba92591a12e"
"toko bangunan";"Toko Bahan Bangunan";"Toko bangunan Tiga Gemilang";"FRWX+9C2, Jl. Arie Lasut, Singkil Satu, Kec. Singkil, Kota Manado, Sulawesi Utara";"Kota Manado, Sulawesi Utara";"ACEH";"";"Indonesia";" 0431865820";"1.4958821";"124.8485078";"https://maps.google.com/?cid=0x0:0xf7d9bf8a5cb35af9"
"toko bangunan";"Toko Bahan Bangunan";"Toko Bahan Bangunan Candi Lestari Indah";"GV24+CGF, Singkil Dua, Kec. Singkil, Kota Manado, Sulawesi Utara";"Kota Manado, Sulawesi Utara";"ACEH";"";"Indonesia";"";"1.500993";"124.8562796";"https://maps.google.com/?cid=0x0:0x81af446b203558b9"
"toko bangunan";"Toko Bahan Bangunan";"CV JONANLI SEJAHTERA";"Kombos Tim., Kec. Singkil, Kota Manado, Sulawesi Utara 95234";"Kec. Singkil, Kota Manado";"ACEH";"95234";"Indonesia";" 085256658922";"1.5007027";"124.8645964";"https://maps.google.com/?cid=0x0:0xa9f67fcb53d9fe6e"
"toko bangunan";"toko bangunan";"Aceh 24785";"Kec. Kota Baharu, Kabupaten Aceh Singkil, Aceh";"Kabupaten Aceh Singkil, Aceh";"ACEH";"";"Indonesia";"";"2.4523065";"97.8123224";"https://maps.google.com/?cid=0x0:0x571276798298d3f5"
"toko bangunan";"Minimarket";"Toko Bangunan Adma Jaya";"7RG3+FX4, Jl. Singkil - Rimo, Pulo Sarok, Kec. Singkil, Kabupaten Aceh Singkil, Aceh 24472";"Jl. Singkil - Rimo, Pulo Sarok, Kec. Singkil, Kabupaten Aceh Singkil";"ACEH";"24472";"Indonesia";"";"2.2761342";"97.8049657";"https://maps.google.com/?cid=0x0:0x9cb8c662ca79fde2"
"toko bangunan";"Toko Bahan Bangunan";"TOKO 2 SAHABAT";"9XV7+397, Rimo, Kec. Gn. Meriah, Kabupaten Aceh Singkil, Aceh 24791";"Rimo, Kec. Gn. Meriah, Kabupaten Aceh Singkil";"ACEH";"24791";"Indonesia";"";"2.3926596";"97.9634371";"https://maps.google.com/?cid=0x0:0x91a26a50d9f41256"
"toko bangunan";"toko bangunan";"Toko bangunan Randi";"GVCJ+R3W Camar 2, Sumber Mukti, Kec. Kota Baharu, Kabupaten Aceh Singkil, Aceh";"Kabupaten Aceh Singkil, Aceh";"ACEH";"";"Indonesia";"";"2.5221132";"97.8802091";"https://maps.google.com/?cid=0x0:0x8284a189207b2dee"
"toko bangunan";"toko bangunan";"Toko bangunan Randi";"GVC8+7PX, Sumber Mukti, Kec. Kota Baharu, Kabupaten Aceh Singkil, Aceh";"Kabupaten Aceh Singkil, Aceh";"ACEH";"";"Indonesia";" 085658032488";"2.5207301";"97.8668567";"https://maps.google.com/?cid=0x0:0x9d6aac630e7db4fa"
"toko bangunan";"toko bangunan";"Kec. Singkil Utara";"Kabupaten Aceh Singkil, Aceh";"Kabupaten Aceh Singkil, Aceh";"ACEH";"";"Indonesia";"";"2.2791881";"97.9253868";"https://maps.google.com/?cid=0x0:0x3d0683097b5c0d28"
"toko bangunan";"toko bangunan";"Aceh 24784";"Kabupaten Aceh Singkil, Aceh";"Kabupaten Aceh Singkil, Aceh";"ACEH";"";"Indonesia";"";"2.152911";"97.2840888";"https://maps.google.com/?cid=0x0:0xab521459bf3c978c"
"toko bangunan";"Toko Bahan Bangunan";"TB 2 putra";"Peajambu, Kec. Singkohor, Kabupaten Aceh Singkil, Aceh 24783";"Kec. Singkohor, Kabupaten Aceh Singkil";"ACEH";"24783";"Indonesia";"";"2.42686";"97.8855808";"https://maps.google.com/?cid=0x0:0x18794bc95cb2998c"
"toko bangunan";"toko bangunan";"Toko bangunan UD. ME";"GWCG+X28, Jl. Tenggiri, Singkohor, Kec. Singkohor, Kabupaten Aceh Singkil, Aceh 24782";"Jl. Tenggiri, Singkohor, Kec. Singkohor, Kabupaten Aceh Singkil";"ACEH";"24782";"Indonesia";"";"2.5224235";"97.9250761";"https://maps.google.com/?cid=0x0:0x43fbb5657e6e7565"
"toko bangunan";"Toko Bahan Bangunan";"TOKO SALWA BARU .";"J2X2+QQG, Subulussalam Utara, Kec. Simpang Kiri, Kota Subulussalam, Aceh 24782";"Subulussalam Utara, Kec. Simpang Kiri, Kota Subulussalam";"ACEH";"24782";"Indonesia";" 08887777666";"2.6494349";"98.0019451";"https://maps.google.com/?cid=0x0:0xb978535b018ffba0"
"toko bangunan";"Toko";"UD.TANGAH(toko bangunan)";"QVWR+W88, Jl. Tapaktuan - Subulussalam, Suka Maju, Kec. Sultan Daulat, Kota Subulussalam, Aceh 24782";"Jl. Tapaktuan - Subulussalam, Suka Maju, Kec. Sultan Daulat, Kota Subulussalam";"ACEH";"24782";"Indonesia";" 085262227756";"2.7972907";"97.8908189";"https://maps.google.com/?cid=0x0:0x296bfda3e1340b24"
"toko bangunan";"Pemasok Bahan Bangunan";"PAKARO";"Jl. TR Angkasah, Tanah Bara, Kec. Gn. Meriah, Kabupaten Aceh Singkil, Aceh 23784";"Tanah Bara, Kec. Gn. Meriah, Kabupaten Aceh Singkil";"ACEH";"23784";"Indonesia";" 08566507761";"2.3805611";"97.9550927";"https://maps.google.com/?cid=0x0:0x4926a74f03c52684"
"toko bangunan";"toko bangunan";"Aceh 24784";"Kabupaten Aceh Singkil, Aceh";"Kabupaten Aceh Singkil, Aceh";"ACEH";"";"Indonesia";"";"2.152911";"97.2840888";"https://maps.google.com/?cid=0x0:0xab521459bf3c978c"
"toko bangunan";"Toko Bahan Bangunan";"TOKO SALWA BARU .";"J2X2+QQG, Subulussalam Utara, Kec. Simpang Kiri, Kota Subulussalam, Aceh 24782";"Subulussalam Utara, Kec. Simpang Kiri, Kota Subulussalam";"ACEH";"24782";"Indonesia";" 08887777666";"2.6494349";"98.0019451";"https://maps.google.com/?cid=0x0:0xb978535b018ffba0"
"toko bangunan";"Toko Bahan Bangunan";"TOKO BANGUNAN ALPAJA";"Jl. Teuku Umar, Kampong, Tangga Besi, Kec. Simpang Kiri, Kota Subulussalam, Aceh";"Kota Subulussalam, Aceh";"ACEH";"";"Indonesia";" 085276347778";"2.6673666";"98.0002932";"https://maps.google.com/?cid=0x0:0x43f6af1f04be2ade"
"toko bangunan";"Toko";"UD.TANGAH(toko bangunan)";"QVWR+W88, Jl. Tapaktuan - Subulussalam, Suka Maju, Kec. Sultan Daulat, Kota Subulussalam, Aceh 24782";"Jl. Tapaktuan - Subulussalam, Suka Maju, Kec. Sultan Daulat, Kota Subulussalam";"ACEH";"24782";"Indonesia";" 085262227756";"2.7972907";"97.8908189";"https://maps.google.com/?cid=0x0:0x296bfda3e1340b24"
"toko bangunan";"Toko Bahan Bangunan";"TOKO FAJAR PRIMA";"J2X3+7QX, Jl. Nyak Adam Kamil, Subulussalam Utara, Kec. Simpang Kiri, Kota Subulussalam, Aceh 24782";"Jl. Nyak Adam Kamil, Subulussalam Utara, Kec. Simpang Kiri, Kota Subulussalam";"ACEH";"24782";"Indonesia";"";"2.6482457";"98.0044922";"https://maps.google.com/?cid=0x0:0x76fa0ce7737fff45"
"toko bangunan";"Toko Bahan Bangunan";"UD.SISIFA";"Subulussalam, Kec. Simpang Kiri, Kota Subulussalam, Aceh 24782";"Kec. Simpang Kiri, Kota Subulussalam";"ACEH";"24782";"Indonesia";" 081370822418";"2.6414357";"98.0170478";"https://maps.google.com/?cid=0x0:0x411bfb1d6b0656be"
"toko bangunan";"Toko Bahan Bangunan";"Toko Bangunan Ashima";"J2R2+RVF, Subulussalam Sel., Kec. Simpang Kiri, Kota Subulussalam, Aceh 24782";"Subulussalam Sel., Kec. Simpang Kiri, Kota Subulussalam";"ACEH";"24782";"Indonesia";" 081377177107";"2.6420713";"98.0021745";"https://maps.google.com/?cid=0x0:0xbcab138a31454ac9"
"toko bangunan";"Toko Bahan Bangunan";"TB 2 putra";"Peajambu, Kec. Singkohor, Kabupaten Aceh Singkil, Aceh 24783";"Kec. Singkohor, Kabupaten Aceh Singkil";"ACEH";"24783";"Indonesia";"";"2.42686";"97.8855808";"https://maps.google.com/?cid=0x0:0x18794bc95cb2998c"
"toko bangunan";"Toko Bahan Bangunan";"UD CIBRO";"Kecamatan penanggalan, Jln pemancar, Penanggalan, barat, Kota Subulussalam, Aceh 24782";"Jln pemancar, Penanggalan, barat, Kota Subulussalam";"ACEH";"24782";"Indonesia";"";"2.6418848";"98.0126251";"https://maps.google.com/?cid=0x0:0xfbb6442f375baeb3"
"toko bangunan";"Toko Bahan Bangunan";"UD. Daeng Semesta";"Jl. Cut Nyak Dhien No.39, Subulussalam, Kec. Simpang Kiri, Kota Subulussalam, Aceh 24781";"Subulussalam, Kec. Simpang Kiri, Kota Subulussalam";"ACEH";"24781";"Indonesia";"";"2.6417044";"98.0064085";"https://maps.google.com/?cid=0x0:0x3d61ef5e4d8c63e0"
"toko bangunan";"Jasa Konstruksi dan Bangunan";"UD MAJU JAYA Lipat kajang";"Lipat Kajang Atas, Kec. Simpang Kanan, Kabupaten Aceh Singkil, Aceh 24791";"Kec. Simpang Kanan, Kabupaten Aceh Singkil";"ACEH";"24791";"Indonesia";" 08153305862";"2.4349322";"97.9895288";"https://maps.google.com/?cid=0x0:0xa011498b4f77a0ed"
"toko bangunan";"Toko Bahan Bangunan";"TB. Putra Sialang";"Jl. Teuku Umar dusun siaga desa No.115, Subulussalam Utara, Kec. Simpang Kiri, Kota Subulussalam, Aceh 24782";"Subulussalam Utara, Kec. Simpang Kiri, Kota Subulussalam";"ACEH";"24782";"Indonesia";" 082277620068";"2.6461852";"98.0025322";"https://maps.google.com/?cid=0x0:0x5d90f9680b24554c"
"toko bangunan";"Balai masyarakat";"UD BATU BARA";"Lae Bersih, Kec. Penanggalan, Kota Subulussalam, Aceh";"Kota Subulussalam, Aceh";"ACEH";"";"Indonesia";" 082272541683";"2.6414497";"98.0175587";"https://maps.google.com/?cid=0x0:0x831d5257da198baa"
"toko bangunan";"Pemasok Bahan Bangunan";"PAKARO";"Jl. TR Angkasah, Tanah Bara, Kec. Gn. Meriah, Kabupaten Aceh Singkil, Aceh 23784";"Tanah Bara, Kec. Gn. Meriah, Kabupaten Aceh Singkil";"ACEH";"23784";"Indonesia";" 08566507761";"2.3805611";"97.9550927";"https://maps.google.com/?cid=0x0:0x4926a74f03c52684"
"building materials";"building materials";"Aceh 24784";"Kabupaten Aceh Singkil, Aceh";"Kabupaten Aceh Singkil, Aceh";"ACEH";"";"Indonesia";"";"2.152911";"97.2840888";"https://maps.google.com/?cid=0x0:0xab521459bf3c978c"
"building materials";"Toko Bahan Bangunan";"TOKO SALWA BARU .";"J2X2+QQG, Subulussalam Utara, Kec. Simpang Kiri, Kota Subulussalam, Aceh 24782";"Subulussalam Utara, Kec. Simpang Kiri, Kota Subulussalam";"ACEH";"24782";"Indonesia";" 08887777666";"2.6494349";"98.0019451";"https://maps.google.com/?cid=0x0:0xb978535b018ffba0"
"building materials";"Toko Bahan Bangunan";"Samurai Paint - Ud Semesta Subulussalam";"J2R4+868, Subulussalam, Kec. Simpang Kiri, Kota Subulussalam, Aceh 24782";"Subulussalam, Kec. Simpang Kiri, Kota Subulussalam";"ACEH";"24782";"Indonesia";" 082370542102";"2.6407908";"98.0055817";"https://maps.google.com/?cid=0x0:0x7c74d0e53253cf96"
"building materials";"Toko Bahan Bangunan";"TOKO BANGUNAN ALPAJA";"Jl. Teuku Umar, Kampong, Tangga Besi, Kec. Simpang Kiri, Kota Subulussalam, Aceh";"Kota Subulussalam, Aceh";"ACEH";"";"Indonesia";" 085276347778";"2.6673666";"98.0002932";"https://maps.google.com/?cid=0x0:0x43f6af1f04be2ade"
"building materials";"Pemasok Bahan Bangunan";"PAKARO";"Jl. TR Angkasah, Tanah Bara, Kec. Gn. Meriah, Kabupaten Aceh Singkil, Aceh 23784";"Tanah Bara, Kec. Gn. Meriah, Kabupaten Aceh Singkil";"ACEH";"23784";"Indonesia";" 08566507761";"2.3805611";"97.9550927";"https://maps.google.com/?cid=0x0:0x4926a74f03c52684"
"building materials";"Jasa Konstruksi dan Bangunan";"UD MAJU JAYA Lipat kajang";"Lipat Kajang Atas, Kec. Simpang Kanan, Kabupaten Aceh Singkil, Aceh 24791";"Kec. Simpang Kanan, Kabupaten Aceh Singkil";"ACEH";"24791";"Indonesia";" 08153305862";"2.4349322";"97.9895288";"https://maps.google.com/?cid=0x0:0xa011498b4f77a0ed"
"building materials";"Kantor Perusahaan";"Bumdes Blok VI Baru";"9XM9+JGG, Jln- Balai Desa, Blk. VI Baru, Kec. Gn. Meriah, Kabupaten Aceh Singkil, Aceh 24784";"Jln- Balai Desa, Blk. VI Baru, Kec. Gn. Meriah, Kabupaten Aceh Singkil";"ACEH";"24784";"Indonesia";" 082275020281";"2.3840675";"97.9688222";"https://maps.google.com/?cid=0x0:0xba000d923c643d6a"
"building materials";"Toko Bahan Bangunan";"TOKO FAJAR PRIMA";"J2X3+7QX, Jl. Nyak Adam Kamil, Subulussalam Utara, Kec. Simpang Kiri, Kota Subulussalam, Aceh 24782";"Jl. Nyak Adam Kamil, Subulussalam Utara, Kec. Simpang Kiri, Kota Subulussalam";"ACEH";"24782";"Indonesia";"";"2.6482457";"98.0044922";"https://maps.google.com/?cid=0x0:0x76fa0ce7737fff45"
"building materials";"Toko Bahan Bangunan";"UD. RAHMAWATI (H. MASIDIN)";"Jl. H. M Thaher No.204, Ujung, Kec. Singkil, Kabupaten Aceh Singkil, Aceh";"Kabupaten Aceh Singkil, Aceh";"ACEH";"";"Indonesia";"";"2.285753";"97.7817338";"https://maps.google.com/?cid=0x0:0x83ee85986b969b73"
"building materials";"Toko Bahan Bangunan";"UD. Daeng Semesta";"Jl. Cut Nyak Dhien No.39, Subulussalam, Kec. Simpang Kiri, Kota Subulussalam, Aceh 24781";"Subulussalam, Kec. Simpang Kiri, Kota Subulussalam";"ACEH";"24781";"Indonesia";"";"2.6417044";"98.0064085";"https://maps.google.com/?cid=0x0:0x3d61ef5e4d8c63e0"
"building materials";"Toko Bahan Bangunan";"UD.SISIFA";"Subulussalam, Kec. Simpang Kiri, Kota Subulussalam, Aceh 24782";"Kec. Simpang Kiri, Kota Subulussalam";"ACEH";"24782";"Indonesia";" 081370822418";"2.6414357";"98.0170478";"https://maps.google.com/?cid=0x0:0x411bfb1d6b0656be"
"building materials";"Produsen batu bata";"Batako Loster Minimalis";"CX6C+C7W, Jl. Subulussalam, Sianjo Anjo Meriah, Kec. Gn. Meriah, Kabupaten Aceh Singkil, Aceh";"Kabupaten Aceh Singkil, Aceh";"ACEH";"";"Indonesia";" 082294214764";"2.4116562";"97.9719819";"https://maps.google.com/?cid=0x0:0x906e35e38aea01a1"
"building materials";"Toko Bahan Bangunan";"TOKO 2 SAHABAT";"9XV7+397, Rimo, Kec. Gn. Meriah, Kabupaten Aceh Singkil, Aceh 24791";"Rimo, Kec. Gn. Meriah, Kabupaten Aceh Singkil";"ACEH";"24791";"Indonesia";"";"2.3926596";"97.9634371";"https://maps.google.com/?cid=0x0:0x91a26a50d9f41256"
"building materials";"Toko Bahan Bangunan";"Toko dua sahabat trans 26";"CWG8+PM, Bukit Harapan, Kec. Gn. Meriah, Kabupaten Aceh Singkil, Aceh";"Kabupaten Aceh Singkil, Aceh";"ACEH";"";"Indonesia";"";"2.4266788";"97.9166988";"https://maps.google.com/?cid=0x0:0x82b7de30d35cd588"
"building materials";"building materials";"Kec. Gn. Meriah";"Kabupaten Aceh Singkil, Aceh";"Kabupaten Aceh Singkil, Aceh";"ACEH";"";"Indonesia";"";"2.3905149";"97.9623759";"https://maps.google.com/?cid=0x0:0x4e324f8a0662e10"
"building materials";"building materials";"Aceh 24784";"Kabupaten Aceh Singkil, Aceh";"Kabupaten Aceh Singkil, Aceh";"ACEH";"";"Indonesia";"";"2.152911";"97.2840888";"https://maps.google.com/?cid=0x0:0xab521459bf3c978c"
"building materials";"Toko Bahan Bangunan";"TOKO 2 SAHABAT";"9XV7+397, Rimo, Kec. Gn. Meriah, Kabupaten Aceh Singkil, Aceh 24791";"Rimo, Kec. Gn. Meriah, Kabupaten Aceh Singkil";"ACEH";"24791";"Indonesia";"";"2.3926596";"97.9634371";"https://maps.google.com/?cid=0x0:0x91a26a50d9f41256"
"building materials";"building materials";"Jambi baru";"9V5C+HVF, Tanah Merah, Kec. Gn. Meriah, Kabupaten Aceh Singkil, Aceh";"Kabupaten Aceh Singkil, Aceh";"ACEH";"";"Indonesia";"";"2.3589459";"97.87216";"https://maps.google.com/?cid=0x0:0xa34e240fad33eb09"
"building materials";"building materials";"Aceh 24784";"Kabupaten Aceh Singkil, Aceh";"Kabupaten Aceh Singkil, Aceh";"ACEH";"";"Indonesia";"";"2.152911";"97.2840888";"https://maps.google.com/?cid=0x0:0xab521459bf3c978c"
"building materials";"Toko Bahan Bangunan";"TOKO SALWA BARU .";"J2X2+QQG, Subulussalam Utara, Kec. Simpang Kiri, Kota Subulussalam, Aceh 24782";"Subulussalam Utara, Kec. Simpang Kiri, Kota Subulussalam";"ACEH";"24782";"Indonesia";" 08887777666";"2.6494349";"98.0019451";"https://maps.google.com/?cid=0x0:0xb978535b018ffba0"
"building materials";"Kantor Perusahaan";"Bumdes Blok VI Baru";"9XM9+JGG, Jln- Balai Desa, Blk. VI Baru, Kec. Gn. Meriah, Kabupaten Aceh Singkil, Aceh 24784";"Jln- Balai Desa, Blk. VI Baru, Kec. Gn. Meriah, Kabupaten Aceh Singkil";"ACEH";"24784";"Indonesia";" 082275020281";"2.3840675";"97.9688222";"https://maps.google.com/?cid=0x0:0xba000d923c643d6a"
"building materials";"Toko Bahan Bangunan";"TOKO BANGUNAN ALPAJA";"Jl. Teuku Umar, Kampong, Tangga Besi, Kec. Simpang Kiri, Kota Subulussalam, Aceh";"Kota Subulussalam, Aceh";"ACEH";"";"Indonesia";" 085276347778";"2.6673666";"98.0002932";"https://maps.google.com/?cid=0x0:0x43f6af1f04be2ade"
"building materials";"Toko Bahan Bangunan";"UD. RAHMAWATI (H. MASIDIN)";"Jl. H. M Thaher No.204, Ujung, Kec. Singkil, Kabupaten Aceh Singkil, Aceh";"Kabupaten Aceh Singkil, Aceh";"ACEH";"";"Indonesia";"";"2.285753";"97.7817338";"https://maps.google.com/?cid=0x0:0x83ee85986b969b73"
"building materials";"Jasa Konstruksi dan Bangunan";"UD MAJU JAYA Lipat kajang";"Lipat Kajang Atas, Kec. Simpang Kanan, Kabupaten Aceh Singkil, Aceh 24791";"Kec. Simpang Kanan, Kabupaten Aceh Singkil";"ACEH";"24791";"Indonesia";" 08153305862";"2.4349322";"97.9895288";"https://maps.google.com/?cid=0x0:0xa011498b4f77a0ed"
"building materials";"Pemasok Bahan Bangunan";"PAKARO";"Jl. TR Angkasah, Tanah Bara, Kec. Gn. Meriah, Kabupaten Aceh Singkil, Aceh 23784";"Tanah Bara, Kec. Gn. Meriah, Kabupaten Aceh Singkil";"ACEH";"23784";"Indonesia";" 08566507761";"2.3805611";"97.9550927";"https://maps.google.com/?cid=0x0:0x4926a74f03c52684"
"building materials";"Produsen batu bata";"Batako Loster Minimalis";"CX6C+C7W, Jl. Subulussalam, Sianjo Anjo Meriah, Kec. Gn. Meriah, Kabupaten Aceh Singkil, Aceh";"Kabupaten Aceh Singkil, Aceh";"ACEH";"";"Indonesia";" 082294214764";"2.4116562";"97.9719819";"https://maps.google.com/?cid=0x0:0x906e35e38aea01a1"
"building materials";"Toko Bahan Bangunan";"Samurai Paint - Ud Semesta Subulussalam";"J2R4+868, Subulussalam, Kec. Simpang Kiri, Kota Subulussalam, Aceh 24782";"Subulussalam, Kec. Simpang Kiri, Kota Subulussalam";"ACEH";"24782";"Indonesia";" 082370542102";"2.6407908";"98.0055817";"https://maps.google.com/?cid=0x0:0x7c74d0e53253cf96"
"building materials";"Toko Bahan Bangunan";"TOKO FAJAR PRIMA";"J2X3+7QX, Jl. Nyak Adam Kamil, Subulussalam Utara, Kec. Simpang Kiri, Kota Subulussalam, Aceh 24782";"Jl. Nyak Adam Kamil, Subulussalam Utara, Kec. Simpang Kiri, Kota Subulussalam";"ACEH";"24782";"Indonesia";"";"2.6482457";"98.0044922";"https://maps.google.com/?cid=0x0:0x76fa0ce7737fff45"
"building materials";"Minimarket";"Toko Bangunan Adma Jaya";"7RG3+FX4, Jl. Singkil - Rimo, Pulo Sarok, Kec. Singkil, Kabupaten Aceh Singkil, Aceh 24472";"Jl. Singkil - Rimo, Pulo Sarok, Kec. Singkil, Kabupaten Aceh Singkil";"ACEH";"24472";"Indonesia";"";"2.2761342";"97.8049657";"https://maps.google.com/?cid=0x0:0x9cb8c662ca79fde2"
"building materials";"Toko Bahan Bangunan";"UD CIBRO";"Kecamatan penanggalan, Jln pemancar, Penanggalan, barat, Kota Subulussalam, Aceh 24782";"Jln pemancar, Penanggalan, barat, Kota Subulussalam";"ACEH";"24782";"Indonesia";"";"2.6418848";"98.0126251";"https://maps.google.com/?cid=0x0:0xfbb6442f375baeb3"
"building materials";"Toko Bahan Bangunan";"TOKO 2 SAHABAT";"9XV7+397, Rimo, Kec. Gn. Meriah, Kabupaten Aceh Singkil, Aceh 24791";"Rimo, Kec. Gn. Meriah, Kabupaten Aceh Singkil";"ACEH";"24791";"Indonesia";"";"2.3926596";"97.9634371";"https://maps.google.com/?cid=0x0:0x91a26a50d9f41256"
"building materials";"Toko Bahan Bangunan";"Toko dua sahabat trans 26";"CWG8+PM, Bukit Harapan, Kec. Gn. Meriah, Kabupaten Aceh Singkil, Aceh";"Kabupaten Aceh Singkil, Aceh";"ACEH";"";"Indonesia";"";"2.4266788";"97.9166988";"https://maps.google.com/?cid=0x0:0x82b7de30d35cd588"
"building materials";"Toko Bahan Bangunan";"UD. RAHMAWATI (H. MASIDIN)";"Jl. H. M Thaher No.204, Ujung, Kec. Singkil, Kabupaten Aceh Singkil, Aceh";"Kabupaten Aceh Singkil, Aceh";"ACEH";"";"Indonesia";"";"2.285753";"97.7817338";"https://maps.google.com/?cid=0x0:0x83ee85986b969b73"
"building materials";"Toko Bahan Bangunan";"Satahi. UD";"7QMR+7RF, JL. Sultan Iskandar Muda, Ps. Singkil, Kec. Singkil, Kabupaten Aceh Singkil, Aceh 24472";"JL. Sultan Iskandar Muda, Ps. Singkil, Kec. Singkil, Kabupaten Aceh Singkil";"ACEH";"24472";"Indonesia";" 065821573";"2.283178";"97.792053";"https://maps.google.com/?cid=0x0:0x223141e6efa4d22b"
"building materials";"Pemasok Bahan Bangunan";"PAKARO";"Jl. TR Angkasah, Tanah Bara, Kec. Gn. Meriah, Kabupaten Aceh Singkil, Aceh 23784";"Tanah Bara, Kec. Gn. Meriah, Kabupaten Aceh Singkil";"ACEH";"23784";"Indonesia";" 08566507761";"2.3805611";"97.9550927";"https://maps.google.com/?cid=0x0:0x4926a74f03c52684"
"building materials";"building materials";"Pulau Banyak";"Kabupaten Aceh Singkil, Aceh";"Kabupaten Aceh Singkil, Aceh";"ACEH";"";"Indonesia";"";"2.3198851";"97.413802";"https://maps.google.com/?cid=0x0:0xf22eba8ba0db80e0"
"building materials";"Toko Bahan Bangunan";"TOKO 2 SAHABAT";"9XV7+397, Rimo, Kec. Gn. Meriah, Kabupaten Aceh Singkil, Aceh 24791";"Rimo, Kec. Gn. Meriah, Kabupaten Aceh Singkil";"ACEH";"24791";"Indonesia";"";"2.3926596";"97.9634371";"https://maps.google.com/?cid=0x0:0x91a26a50d9f41256"
"building materials";"building materials";"Toko Bahan Bangunan (Usaha Kita)";"CXQR+4QF, Lipat Kajang Atas, Kec. Simpang Kanan, Kabupaten Aceh Singkil, Aceh 24791";"Lipat Kajang Atas, Kec. Simpang Kanan, Kabupaten Aceh Singkil";"ACEH";"24791";"Indonesia";"";"2.437814";"97.9919101";"https://maps.google.com/?cid=0x0:0xc53e006c3cfa75cd"
"building materials";"building materials";"Aceh 24791";"Kec. Singkil Utara, Kabupaten Aceh Singkil, Aceh";"Kabupaten Aceh Singkil, Aceh";"ACEH";"";"Indonesia";"";"2.4658075";"98.013794";"https://maps.google.com/?cid=0x0:0xed134176c9340695"
"building materials";"building materials";"Kec. Pulau Banyak Bar.";"Kabupaten Aceh Singkil, Aceh";"Kabupaten Aceh Singkil, Aceh";"ACEH";"";"Indonesia";"";"2.2278739";"97.2326992";"https://maps.google.com/?cid=0x0:0x154c9da37cf5674f"
"building materials";"building materials";"Aceh 24783";"Kabupaten Aceh Singkil, Aceh";"Kabupaten Aceh Singkil, Aceh";"ACEH";"";"Indonesia";"";"2.4071732";"97.991986";"https://maps.google.com/?cid=0x0:0x4541045a0abeaf53"
"building materials";"Toko Bahan Bangunan";"TB 2 putra";"Peajambu, Kec. Singkohor, Kabupaten Aceh Singkil, Aceh 24783";"Kec. Singkohor, Kabupaten Aceh Singkil";"ACEH";"24783";"Indonesia";"";"2.42686";"97.8855808";"https://maps.google.com/?cid=0x0:0x18794bc95cb2998c"
"building materials";"Jasa Konstruksi dan Bangunan";"UD MAJU JAYA Lipat kajang";"Lipat Kajang Atas, Kec. Simpang Kanan, Kabupaten Aceh Singkil, Aceh 24791";"Kec. Simpang Kanan, Kabupaten Aceh Singkil";"ACEH";"24791";"Indonesia";" 08153305862";"2.4349322";"97.9895288";"https://maps.google.com/?cid=0x0:0xa011498b4f77a0ed"
"building materials";"Produsen batu bata";"Batako Loster Minimalis";"CX6C+C7W, Jl. Subulussalam, Sianjo Anjo Meriah, Kec. Gn. Meriah, Kabupaten Aceh Singkil, Aceh";"Kabupaten Aceh Singkil, Aceh";"ACEH";"";"Indonesia";" 082294214764";"2.4116562";"97.9719819";"https://maps.google.com/?cid=0x0:0x906e35e38aea01a1"
"building materials";"Toko Bahan Bangunan";"UD.SISIFA";"Subulussalam, Kec. Simpang Kiri, Kota Subulussalam, Aceh 24782";"Kec. Simpang Kiri, Kota Subulussalam";"ACEH";"24782";"Indonesia";" 081370822418";"2.6414357";"98.0170478";"https://maps.google.com/?cid=0x0:0x411bfb1d6b0656be"
"building materials";"Pemasok Bahan Bangunan";"PAKARO";"Jl. TR Angkasah, Tanah Bara, Kec. Gn. Meriah, Kabupaten Aceh Singkil, Aceh 23784";"Tanah Bara, Kec. Gn. Meriah, Kabupaten Aceh Singkil";"ACEH";"23784";"Indonesia";" 08566507761";"2.3805611";"97.9550927";"https://maps.google.com/?cid=0x0:0x4926a74f03c52684"
"building materials";"Toko Bahan Bangunan";"TOKO 2 SAHABAT";"9XV7+397, Rimo, Kec. Gn. Meriah, Kabupaten Aceh Singkil, Aceh 24791";"Rimo, Kec. Gn. Meriah, Kabupaten Aceh Singkil";"ACEH";"24791";"Indonesia";"";"2.3926596";"97.9634371";"https://maps.google.com/?cid=0x0:0x91a26a50d9f41256"
"building materials";"Kantor Perusahaan";"Bumdes Blok VI Baru";"9XM9+JGG, Jln- Balai Desa, Blk. VI Baru, Kec. Gn. Meriah, Kabupaten Aceh Singkil, Aceh 24784";"Jln- Balai Desa, Blk. VI Baru, Kec. Gn. Meriah, Kabupaten Aceh Singkil";"ACEH";"24784";"Indonesia";" 082275020281";"2.3840675";"97.9688222";"https://maps.google.com/?cid=0x0:0xba000d923c643d6a"
"building materials";"Toko Bahan Bangunan";"Toko dua sahabat trans 26";"CWG8+PM, Bukit Harapan, Kec. Gn. Meriah, Kabupaten Aceh Singkil, Aceh";"Kabupaten Aceh Singkil, Aceh";"ACEH";"";"Indonesia";"";"2.4266788";"97.9166988";"https://maps.google.com/?cid=0x0:0x82b7de30d35cd588"
"building materials";"Toko Bahan Bangunan";"TOKO SALWA BARU .";"J2X2+QQG, Subulussalam Utara, Kec. Simpang Kiri, Kota Subulussalam, Aceh 24782";"Subulussalam Utara, Kec. Simpang Kiri, Kota Subulussalam";"ACEH";"24782";"Indonesia";" 08887777666";"2.6494349";"98.0019451";"https://maps.google.com/?cid=0x0:0xb978535b018ffba0"
"building materials";"Toko Bahan Bangunan";"Samurai Paint - Ud Semesta Subulussalam";"J2R4+868, Subulussalam, Kec. Simpang Kiri, Kota Subulussalam, Aceh 24782";"Subulussalam, Kec. Simpang Kiri, Kota Subulussalam";"ACEH";"24782";"Indonesia";" 082370542102";"2.6407908";"98.0055817";"https://maps.google.com/?cid=0x0:0x7c74d0e53253cf96"
"building materials";"Toko Perlengkapan Rumah";"CV. Family Aluminium";"9W9V+J5W, Gn. Lagan, Kec. Gn. Meriah, Kabupaten Aceh Singkil, Aceh 24791";"Gn. Lagan, Kec. Gn. Meriah, Kabupaten Aceh Singkil";"ACEH";"24791";"Indonesia";" 082165034562";"2.3691077";"97.9429555";"https://maps.google.com/?cid=0x0:0x28a99650539109a7"
"building materials";"Kantor Perusahaan";"PT Anak Laut Indah";"J25C+VHW, Penanggalan, Kec. Penanggalan, Kota Subulussalam, Aceh 24782";"Penanggalan, Kec. Penanggalan, Kota Subulussalam";"ACEH";"24782";"Indonesia";" 081269300300";"2.6097324";"98.0214381";"https://maps.google.com/?cid=0x0:0x25fcefa887ace878"
"building materials";"Toko Bahan Bangunan";"TOKO FAJAR PRIMA";"J2X3+7QX, Jl. Nyak Adam Kamil, Subulussalam Utara, Kec. Simpang Kiri, Kota Subulussalam, Aceh 24782";"Jl. Nyak Adam Kamil, Subulussalam Utara, Kec. Simpang Kiri, Kota Subulussalam";"ACEH";"24782";"Indonesia";"";"2.6482457";"98.0044922";"https://maps.google.com/?cid=0x0:0x76fa0ce7737fff45"
"building materials";"building materials";"Riau 28992";"Kabupaten Rokan Hilir, Riau";"Kabupaten Rokan Hilir, Riau";"ACEH";"";"Indonesia";"";"1.6089504";"100.6647101";"https://maps.google.com/?cid=0x0:0x2b7f1924f159497b"
"building materials";"building materials";"Kec. Simpang Kanan";"Kabupaten Aceh Singkil, Aceh";"Kabupaten Aceh Singkil, Aceh";"ACEH";"";"Indonesia";"";"2.4382133";"97.9903392";"https://maps.google.com/?cid=0x0:0x8d3290c62e81c9f0"
"building materials";"Toko Bahan Bangunan";"Bintang Maju";"R7XX+HQQ Pasar baru, Simpang Kanan, Kec. Simpang Kanan, Kabupaten Rokan Hilir, Riau 28994";"Simpang Kanan, Kec. Simpang Kanan, Kabupaten Rokan Hilir";"ACEH";"28994";"Indonesia";" 085265666336";"1.8494235";"100.298891";"https://maps.google.com/?cid=0x0:0x3dcf3f397f1785be"
"building materials";"Toko";"Ud Ridho Bukitdamar";"R9X6+XCR, Bukit Damar, Kec. Simpang Kanan, Kabupaten Rokan Hilir, Riau 28992";"Bukit Damar, Kec. Simpang Kanan, Kabupaten Rokan Hilir";"ACEH";"28992";"Indonesia";"";"1.8499798";"100.3610179";"https://maps.google.com/?cid=0x0:0x563dfd07a514d380"
"building materials";"Toko Perlengkapan Rumah";"bangko bangunan";"QX53+PX2, Unnamed Road, Karya Mukti, Kec. Rimba Melintang, Kabupaten Rokan Hilir, Riau 28992";"Unnamed Road, Karya Mukti, Kec. Rimba Melintang, Kabupaten Rokan Hilir";"ACEH";"28992";"Indonesia";" 081371018404";"1.7592568";"100.9548962";"https://maps.google.com/?cid=0x0:0x8bd2b3c92a00f0cb"
"building materials";"Toko Bahan Bangunan";"Ud.55material";"Jalan lintas Sumatera Utara bagan batu km 4, Riau 28992";"Kabupaten Rokan Hilir, Riau";"ACEH";"";"Indonesia";" 08127652698";"1.6820848";"100.4326723";"https://maps.google.com/?cid=0x0:0xf67e250380abfb1c"
"building materials";"building materials";"KsAFaI7UIfix4-EPyIDjyQw"-,null,null,1,null,"https://www.google.com/maps/preview/place/Konten+kreator/@2.0708884,100.8053555,3987a,13.1y/datau003d!4m2!3m1!1s0x81ad7066619af18b:0x2b216dad68996644";"";"";"ACEH";"";"Indonesia";" 081225691020";"2.0708884";"100.8053555";"https://maps.google.com/?cid=0x0:0x2b216dad68996644"
"building materials";"building materials";"Aceh 24785";"Kec. Kota Baharu, Kabupaten Aceh Singkil, Aceh";"Kabupaten Aceh Singkil, Aceh";"ACEH";"";"Indonesia";"";"2.4523065";"97.8123224";"https://maps.google.com/?cid=0x0:0x571276798298d3f5"
"building materials";"Pemasok Bahan Bangunan";"PAKARO";"Jl. TR Angkasah, Tanah Bara, Kec. Gn. Meriah, Kabupaten Aceh Singkil, Aceh 23784";"Tanah Bara, Kec. Gn. Meriah, Kabupaten Aceh Singkil";"ACEH";"23784";"Indonesia";" 08566507761";"2.3805611";"97.9550927";"https://maps.google.com/?cid=0x0:0x4926a74f03c52684"
"building materials";"Toko Bahan Bangunan";"TB 2 putra";"Peajambu, Kec. Singkohor, Kabupaten Aceh Singkil, Aceh 24783";"Kec. Singkohor, Kabupaten Aceh Singkil";"ACEH";"24783";"Indonesia";"";"2.42686";"97.8855808";"https://maps.google.com/?cid=0x0:0x18794bc95cb2998c"
"building materials";"Toko Bahan Bangunan";"Satahi. UD";"7QMR+7RF, JL. Sultan Iskandar Muda, Ps. Singkil, Kec. Singkil, Kabupaten Aceh Singkil, Aceh 24472";"JL. Sultan Iskandar Muda, Ps. Singkil, Kec. Singkil, Kabupaten Aceh Singkil";"ACEH";"24472";"Indonesia";" 065821573";"2.283178";"97.792053";"https://maps.google.com/?cid=0x0:0x223141e6efa4d22b"
"building materials";"Toko Perlengkapan Rumah";"CV. Family Aluminium";"9W9V+J5W, Gn. Lagan, Kec. Gn. Meriah, Kabupaten Aceh Singkil, Aceh 24791";"Gn. Lagan, Kec. Gn. Meriah, Kabupaten Aceh Singkil";"ACEH";"24791";"Indonesia";" 082165034562";"2.3691077";"97.9429555";"https://maps.google.com/?cid=0x0:0x28a99650539109a7"
"building materials";"Toko Bahan Bangunan";"UD. RAHMAWATI (H. MASIDIN)";"Jl. H. M Thaher No.204, Ujung, Kec. Singkil, Kabupaten Aceh Singkil, Aceh";"Kabupaten Aceh Singkil, Aceh";"ACEH";"";"Indonesia";"";"2.285753";"97.7817338";"https://maps.google.com/?cid=0x0:0x83ee85986b969b73"
"building materials";"Minimarket";"Toko Bangunan Adma Jaya";"7RG3+FX4, Jl. Singkil - Rimo, Pulo Sarok, Kec. Singkil, Kabupaten Aceh Singkil, Aceh 24472";"Jl. Singkil - Rimo, Pulo Sarok, Kec. Singkil, Kabupaten Aceh Singkil";"ACEH";"24472";"Indonesia";"";"2.2761342";"97.8049657";"https://maps.google.com/?cid=0x0:0x9cb8c662ca79fde2"
"building materials";"building materials";"Toko bangunan Randi";"GVC8+7PX, Sumber Mukti, Kec. Kota Baharu, Kabupaten Aceh Singkil, Aceh";"Kabupaten Aceh Singkil, Aceh";"ACEH";"";"Indonesia";" 085658032488";"2.5207301";"97.8668567";"https://maps.google.com/?cid=0x0:0x9d6aac630e7db4fa"
"building materials";"building materials";"Abimanyu";"CVCM+J8V, Pea Jambu, Kec. Singkohor, Kabupaten Aceh Singkil, Aceh 24783";"Pea Jambu, Kec. Singkohor, Kabupaten Aceh Singkil";"ACEH";"24783";"Indonesia";"";"2.4216069";"97.8832941";"https://maps.google.com/?cid=0x0:0xdcfaad5d5f7d4948"
"building materials";"Toko Bahan Bangunan";"TOKO 2 SAHABAT";"9XV7+397, Rimo, Kec. Gn. Meriah, Kabupaten Aceh Singkil, Aceh 24791";"Rimo, Kec. Gn. Meriah, Kabupaten Aceh Singkil";"ACEH";"24791";"Indonesia";"";"2.3926596";"97.9634371";"https://maps.google.com/?cid=0x0:0x91a26a50d9f41256"
"building materials";"building materials";"Singkil";"Kec. Singkil, Kabupaten Aceh Singkil, Aceh";"Kabupaten Aceh Singkil, Aceh";"ACEH";"";"Indonesia";"";"2.2836143";"97.79873";"https://maps.google.com/?cid=0x0:0x4039d80b220d230"
"building materials";"Toko Bahan Bangunan";"UD. RAHMAWATI (H. MASIDIN)";"Jl. H. M Thaher No.204, Ujung, Kec. Singkil, Kabupaten Aceh Singkil, Aceh";"Kabupaten Aceh Singkil, Aceh";"ACEH";"";"Indonesia";"";"2.285753";"97.7817338";"https://maps.google.com/?cid=0x0:0x83ee85986b969b73"
"building materials";"Minimarket";"Toko Bangunan Adma Jaya";"7RG3+FX4, Jl. Singkil - Rimo, Pulo Sarok, Kec. Singkil, Kabupaten Aceh Singkil, Aceh 24472";"Jl. Singkil - Rimo, Pulo Sarok, Kec. Singkil, Kabupaten Aceh Singkil";"ACEH";"24472";"Indonesia";"";"2.2761342";"97.8049657";"https://maps.google.com/?cid=0x0:0x9cb8c662ca79fde2"
"building materials";"Toko Bahan Bangunan";"TB 2 putra";"Peajambu, Kec. Singkohor, Kabupaten Aceh Singkil, Aceh 24783";"Kec. Singkohor, Kabupaten Aceh Singkil";"ACEH";"24783";"Indonesia";"";"2.42686";"97.8855808";"https://maps.google.com/?cid=0x0:0x18794bc95cb2998c"
"building materials";"Toko Bahan Bangunan";"TOKO 2 SAHABAT";"9XV7+397, Rimo, Kec. Gn. Meriah, Kabupaten Aceh Singkil, Aceh 24791";"Rimo, Kec. Gn. Meriah, Kabupaten Aceh Singkil";"ACEH";"24791";"Indonesia";"";"2.3926596";"97.9634371";"https://maps.google.com/?cid=0x0:0x91a26a50d9f41256"
"building materials";"Toko Perlengkapan Rumah";"UD. Yerichel Abadi";"Sebelah kantor lurah, Jl. Pangeran Hidayat mahakam No.1, Wawonasa, Kec. Singkil, Kota Manado, Sulawesi Utara 95231";"Jl. Pangeran Hidayat mahakam No.1, Wawonasa, Kec. Singkil, Kota Manado";"ACEH";"95231";"Indonesia";" 0431864510";"1.494606";"124.8487175";"https://maps.google.com/?cid=0x0:0x78f46ee50aeecafe"
"building materials";"Toko Bahan Bangunan";"UD. Berkah Abadi";"Singkil Dua, Kec. Singkil, Kota Manado, Sulawesi Utara";"Kota Manado, Sulawesi Utara";"ACEH";"";"Indonesia";" 081244596149";"1.5009271";"124.8525986";"https://maps.google.com/?cid=0x0:0xfb0bc592682ca269"
"building materials";"building materials";"Singkil";"Kec. Singkil, Kabupaten Aceh Singkil, Aceh";"Kabupaten Aceh Singkil, Aceh";"ACEH";"";"Indonesia";"";"2.2836143";"97.79873";"https://maps.google.com/?cid=0x0:0x4039d80b220d230"
"building materials";"Minimarket";"Toko Bangunan Adma Jaya";"7RG3+FX4, Jl. Singkil - Rimo, Pulo Sarok, Kec. Singkil, Kabupaten Aceh Singkil, Aceh 24472";"Jl. Singkil - Rimo, Pulo Sarok, Kec. Singkil, Kabupaten Aceh Singkil";"ACEH";"24472";"Indonesia";"";"2.2761342";"97.8049657";"https://maps.google.com/?cid=0x0:0x9cb8c662ca79fde2"
"building materials";"Toko Bahan Bangunan";"UD. RAHMAWATI (H. MASIDIN)";"Jl. H. M Thaher No.204, Ujung, Kec. Singkil, Kabupaten Aceh Singkil, Aceh";"Kabupaten Aceh Singkil, Aceh";"ACEH";"";"Indonesia";"";"2.285753";"97.7817338";"https://maps.google.com/?cid=0x0:0x83ee85986b969b73"
"building materials";"Toko Bahan Bangunan";"TOKO 2 SAHABAT";"9XV7+397, Rimo, Kec. Gn. Meriah, Kabupaten Aceh Singkil, Aceh 24791";"Rimo, Kec. Gn. Meriah, Kabupaten Aceh Singkil";"ACEH";"24791";"Indonesia";"";"2.3926596";"97.9634371";"https://maps.google.com/?cid=0x0:0x91a26a50d9f41256"
"building materials";"Toko Bahan Bangunan";"TB 2 putra";"Peajambu, Kec. Singkohor, Kabupaten Aceh Singkil, Aceh 24783";"Kec. Singkohor, Kabupaten Aceh Singkil";"ACEH";"24783";"Indonesia";"";"2.42686";"97.8855808";"https://maps.google.com/?cid=0x0:0x18794bc95cb2998c"
"building materials";"building materials";"Singkil";"Kec. Singkil, Kabupaten Aceh Singkil, Aceh";"Kabupaten Aceh Singkil, Aceh";"ACEH";"";"Indonesia";"";"2.2836143";"97.79873";"https://maps.google.com/?cid=0x0:0x4039d80b220d230"
"building materials";"Toko Bahan Bangunan";"UD. RAHMAWATI (H. MASIDIN)";"Jl. H. M Thaher No.204, Ujung, Kec. Singkil, Kabupaten Aceh Singkil, Aceh";"Kabupaten Aceh Singkil, Aceh";"ACEH";"";"Indonesia";"";"2.285753";"97.7817338";"https://maps.google.com/?cid=0x0:0x83ee85986b969b73"
"building materials";"Toko Bahan Bangunan";"TOKO 2 SAHABAT";"9XV7+397, Rimo, Kec. Gn. Meriah, Kabupaten Aceh Singkil, Aceh 24791";"Rimo, Kec. Gn. Meriah, Kabupaten Aceh Singkil";"ACEH";"24791";"Indonesia";"";"2.3926596";"97.9634371";"https://maps.google.com/?cid=0x0:0x91a26a50d9f41256"
"building materials";"Minimarket";"Toko Bangunan Adma Jaya";"7RG3+FX4, Jl. Singkil - Rimo, Pulo Sarok, Kec. Singkil, Kabupaten Aceh Singkil, Aceh 24472";"Jl. Singkil - Rimo, Pulo Sarok, Kec. Singkil, Kabupaten Aceh Singkil";"ACEH";"24472";"Indonesia";"";"2.2761342";"97.8049657";"https://maps.google.com/?cid=0x0:0x9cb8c662ca79fde2"
"building materials";"Toko Bahan Bangunan";"CV JONANLI SEJAHTERA";"Kombos Tim., Kec. Singkil, Kota Manado, Sulawesi Utara 95234";"Kec. Singkil, Kota Manado";"ACEH";"95234";"Indonesia";" 085256658922";"1.5007027";"124.8645964";"https://maps.google.com/?cid=0x0:0xa9f67fcb53d9fe6e"
"building materials";"Distributor Baja";"PT IMPROVE JAYA STEEL";"Jl. Arie Lasut No.133, Kombos Bar., Kec. Singkil, Kota Manado, Sulawesi Utara 95234";"Kombos Bar., Kec. Singkil, Kota Manado";"ACEH";"95234";"Indonesia";" 081340709993";"1.4928505";"124.8558677";"https://maps.google.com/?cid=0x0:0xfca75c04d10e5c0f"
"building materials";"building materials";"Sumber Makmur. UD";"Jl. Arie Lasut No.62, Molas, Kec. Singkil, Kota Manado, Sulawesi Utara 95234";"Molas, Kec. Singkil, Kota Manado";"ACEH";"95234";"Indonesia";" 0431864914";"1.495451";"124.865928";"https://maps.google.com/?cid=0x0:0x8898506ee77276a5"
"building materials";"building materials";"Aceh 24785";"Kec. Kota Baharu, Kabupaten Aceh Singkil, Aceh";"Kabupaten Aceh Singkil, Aceh";"ACEH";"";"Indonesia";"";"2.4523065";"97.8123224";"https://maps.google.com/?cid=0x0:0x571276798298d3f5"
"building materials";"Toko Bahan Bangunan";"TB 2 putra";"Peajambu, Kec. Singkohor, Kabupaten Aceh Singkil, Aceh 24783";"Kec. Singkohor, Kabupaten Aceh Singkil";"ACEH";"24783";"Indonesia";"";"2.42686";"97.8855808";"https://maps.google.com/?cid=0x0:0x18794bc95cb2998c"
"building materials";"Toko Bahan Bangunan";"Toko dua sahabat trans 26";"CWG8+PM, Bukit Harapan, Kec. Gn. Meriah, Kabupaten Aceh Singkil, Aceh";"Kabupaten Aceh Singkil, Aceh";"ACEH";"";"Indonesia";"";"2.4266788";"97.9166988";"https://maps.google.com/?cid=0x0:0x82b7de30d35cd588"
"building materials";"Toko Perlengkapan Rumah";"CV. Family Aluminium";"9W9V+J5W, Gn. Lagan, Kec. Gn. Meriah, Kabupaten Aceh Singkil, Aceh 24791";"Gn. Lagan, Kec. Gn. Meriah, Kabupaten Aceh Singkil";"ACEH";"24791";"Indonesia";" 082165034562";"2.3691077";"97.9429555";"https://maps.google.com/?cid=0x0:0x28a99650539109a7"
"building materials";"Toko Bahan Bangunan";"Satahi. UD";"7QMR+7RF, JL. Sultan Iskandar Muda, Ps. Singkil, Kec. Singkil, Kabupaten Aceh Singkil, Aceh 24472";"JL. Sultan Iskandar Muda, Ps. Singkil, Kec. Singkil, Kabupaten Aceh Singkil";"ACEH";"24472";"Indonesia";" 065821573";"2.283178";"97.792053";"https://maps.google.com/?cid=0x0:0x223141e6efa4d22b"
"building materials";"building materials";"Abimanyu";"CVCM+J8V, Pea Jambu, Kec. Singkohor, Kabupaten Aceh Singkil, Aceh 24783";"Pea Jambu, Kec. Singkohor, Kabupaten Aceh Singkil";"ACEH";"24783";"Indonesia";"";"2.4216069";"97.8832941";"https://maps.google.com/?cid=0x0:0xdcfaad5d5f7d4948"
"building materials";"Toko Bahan Bangunan";"UD. RAHMAWATI (H. MASIDIN)";"Jl. H. M Thaher No.204, Ujung, Kec. Singkil, Kabupaten Aceh Singkil, Aceh";"Kabupaten Aceh Singkil, Aceh";"ACEH";"";"Indonesia";"";"2.285753";"97.7817338";"https://maps.google.com/?cid=0x0:0x83ee85986b969b73"
"building materials";"building materials";"Aceh 24784";"Kabupaten Aceh Singkil, Aceh";"Kabupaten Aceh Singkil, Aceh";"ACEH";"";"Indonesia";"";"2.152911";"97.2840888";"https://maps.google.com/?cid=0x0:0xab521459bf3c978c"
"building materials";"Toko Bahan Bangunan";"TB 2 putra";"Peajambu, Kec. Singkohor, Kabupaten Aceh Singkil, Aceh 24783";"Kec. Singkohor, Kabupaten Aceh Singkil";"ACEH";"24783";"Indonesia";"";"2.42686";"97.8855808";"https://maps.google.com/?cid=0x0:0x18794bc95cb2998c"
"building materials";"building materials";"TANISI UD";"GWCJ+J3P, Singkohor, Kec. Singkohor, Kabupaten Aceh Singkil, Aceh";"Kabupaten Aceh Singkil, Aceh";"ACEH";"";"Indonesia";"";"2.5215829";"97.9302081";"https://maps.google.com/?cid=0x0:0x529f4d271a2ae3d"
"building materials";"building materials";"Toko Bahan Bangunan (Usaha Kita)";"CXQR+4QF, Lipat Kajang Atas, Kec. Simpang Kanan, Kabupaten Aceh Singkil, Aceh 24791";"Lipat Kajang Atas, Kec. Simpang Kanan, Kabupaten Aceh Singkil";"ACEH";"24791";"Indonesia";"";"2.437814";"97.9919101";"https://maps.google.com/?cid=0x0:0xc53e006c3cfa75cd"
"building materials";"building materials";"Toko Alat Bangunan (Digan)";"C2V6+56J, Kuta Kerangan, Kec. Simpang Kanan, Kabupaten Aceh Singkil, Aceh 24791";"Kuta Kerangan, Kec. Simpang Kanan, Kabupaten Aceh Singkil";"ACEH";"24791";"Indonesia";"";"2.4429597";"98.0105148";"https://maps.google.com/?cid=0x0:0xd4bb241c241517e4"
"building materials";"building materials";"Abimanyu";"CVCM+J8V, Pea Jambu, Kec. Singkohor, Kabupaten Aceh Singkil, Aceh 24783";"Pea Jambu, Kec. Singkohor, Kabupaten Aceh Singkil";"ACEH";"24783";"Indonesia";"";"2.4216069";"97.8832941";"https://maps.google.com/?cid=0x0:0xdcfaad5d5f7d4948"
"building materials";"building materials";"Toko Alat Bangunan";"C2QM+FPG, Siatas, Kec. Simpang Kanan, Kabupaten Aceh Singkil, Aceh 24784";"Siatas, Kec. Simpang Kanan, Kabupaten Aceh Singkil";"ACEH";"24784";"Indonesia";"";"2.4386895";"98.0343137";"https://maps.google.com/?cid=0x0:0xc16f151277294383"
"building materials";"building materials";"Aceh 24784";"Kabupaten Aceh Singkil, Aceh";"Kabupaten Aceh Singkil, Aceh";"ACEH";"";"Indonesia";"";"2.152911";"97.2840888";"https://maps.google.com/?cid=0x0:0xab521459bf3c978c"
"building materials";"Toko Bahan Bangunan";"TOKO SALWA BARU .";"J2X2+QQG, Subulussalam Utara, Kec. Simpang Kiri, Kota Subulussalam, Aceh 24782";"Subulussalam Utara, Kec. Simpang Kiri, Kota Subulussalam";"ACEH";"24782";"Indonesia";" 08887777666";"2.6494349";"98.0019451";"https://maps.google.com/?cid=0x0:0xb978535b018ffba0"
"building materials";"Toko Bahan Bangunan";"Samurai Paint - Ud Semesta Subulussalam";"J2R4+868, Subulussalam, Kec. Simpang Kiri, Kota Subulussalam, Aceh 24782";"Subulussalam, Kec. Simpang Kiri, Kota Subulussalam";"ACEH";"24782";"Indonesia";" 082370542102";"2.6407908";"98.0055817";"https://maps.google.com/?cid=0x0:0x7c74d0e53253cf96"
"building materials";"Toko Bahan Bangunan";"UD.SISIFA";"Subulussalam, Kec. Simpang Kiri, Kota Subulussalam, Aceh 24782";"Kec. Simpang Kiri, Kota Subulussalam";"ACEH";"24782";"Indonesia";" 081370822418";"2.6414357";"98.0170478";"https://maps.google.com/?cid=0x0:0x411bfb1d6b0656be"
"building materials";"Toko Bahan Bangunan";"TOKO BANGUNAN ALPAJA";"Jl. Teuku Umar, Kampong, Tangga Besi, Kec. Simpang Kiri, Kota Subulussalam, Aceh";"Kota Subulussalam, Aceh";"ACEH";"";"Indonesia";" 085276347778";"2.6673666";"98.0002932";"https://maps.google.com/?cid=0x0:0x43f6af1f04be2ade"
"building materials";"Produsen batu bata";"Batako Loster Minimalis";"CX6C+C7W, Jl. Subulussalam, Sianjo Anjo Meriah, Kec. Gn. Meriah, Kabupaten Aceh Singkil, Aceh";"Kabupaten Aceh Singkil, Aceh";"ACEH";"";"Indonesia";" 082294214764";"2.4116562";"97.9719819";"https://maps.google.com/?cid=0x0:0x906e35e38aea01a1"
"building materials";"Toko Bahan Bangunan";"UD CIBRO";"Kecamatan penanggalan, Jln pemancar, Penanggalan, barat, Kota Subulussalam, Aceh 24782";"Jln pemancar, Penanggalan, barat, Kota Subulussalam";"ACEH";"24782";"Indonesia";"";"2.6418848";"98.0126251";"https://maps.google.com/?cid=0x0:0xfbb6442f375baeb3"
"building materials";"Jasa Konstruksi dan Bangunan";"UD MAJU JAYA Lipat kajang";"Lipat Kajang Atas, Kec. Simpang Kanan, Kabupaten Aceh Singkil, Aceh 24791";"Kec. Simpang Kanan, Kabupaten Aceh Singkil";"ACEH";"24791";"Indonesia";" 08153305862";"2.4349322";"97.9895288";"https://maps.google.com/?cid=0x0:0xa011498b4f77a0ed"
"building materials";"Toko Bahan Bangunan";"TB 2 putra";"Peajambu, Kec. Singkohor, Kabupaten Aceh Singkil, Aceh 24783";"Kec. Singkohor, Kabupaten Aceh Singkil";"ACEH";"24783";"Indonesia";"";"2.42686";"97.8855808";"https://maps.google.com/?cid=0x0:0x18794bc95cb2998c"
"building materials";"Toko Bahan Bangunan";"UD. Daeng Semesta";"Jl. Cut Nyak Dhien No.39, Subulussalam, Kec. Simpang Kiri, Kota Subulussalam, Aceh 24781";"Subulussalam, Kec. Simpang Kiri, Kota Subulussalam";"ACEH";"24781";"Indonesia";"";"2.6417044";"98.0064085";"https://maps.google.com/?cid=0x0:0x3d61ef5e4d8c63e0"
"building materials";"Toko Bahan Bangunan";"TOKO FAJAR PRIMA";"J2X3+7QX, Jl. Nyak Adam Kamil, Subulussalam Utara, Kec. Simpang Kiri, Kota Subulussalam, Aceh 24782";"Jl. Nyak Adam Kamil, Subulussalam Utara, Kec. Simpang Kiri, Kota Subulussalam";"ACEH";"24782";"Indonesia";"";"2.6482457";"98.0044922";"https://maps.google.com/?cid=0x0:0x76fa0ce7737fff45"
"building materials";"Balai masyarakat";"UD BATU BARA";"Lae Bersih, Kec. Penanggalan, Kota Subulussalam, Aceh";"Kota Subulussalam, Aceh";"ACEH";"";"Indonesia";" 082272541683";"2.6414497";"98.0175587";"https://maps.google.com/?cid=0x0:0x831d5257da198baa"
"building materials";"Kantor Perusahaan";"Bumdes Blok VI Baru";"9XM9+JGG, Jln- Balai Desa, Blk. VI Baru, Kec. Gn. Meriah, Kabupaten Aceh Singkil, Aceh 24784";"Jln- Balai Desa, Blk. VI Baru, Kec. Gn. Meriah, Kabupaten Aceh Singkil";"ACEH";"24784";"Indonesia";" 082275020281";"2.3840675";"97.9688222";"https://maps.google.com/?cid=0x0:0xba000d923c643d6a"
"building materials";"";"CV. INDAH KARYA RIMO";"Jl. T R Angkasah, Simpang 4, Rimo, Kec. Gn. Meriah, Kabupaten Aceh Singkil, Aceh";"Kabupaten Aceh Singkil, Aceh";"ACEH";"";"Indonesia";" 081397788163";"2.390256";"97.9622347";"https://maps.google.com/?cid=0x0:0x27575c239f69b9f8"
"hardware store";"hardware store";"Aceh 24784";"Kabupaten Aceh Singkil, Aceh";"Kabupaten Aceh Singkil, Aceh";"ACEH";"";"Indonesia";"";"2.152911";"97.2840888";"https://maps.google.com/?cid=0x0:0xab521459bf3c978c"
"hardware store";"Toko Bahan Bangunan";"TOKO SALWA BARU .";"J2X2+QQG, Subulussalam Utara, Kec. Simpang Kiri, Kota Subulussalam, Aceh 24782";"Subulussalam Utara, Kec. Simpang Kiri, Kota Subulussalam";"ACEH";"24782";"Indonesia";" 08887777666";"2.6494349";"98.0019451";"https://maps.google.com/?cid=0x0:0xb978535b018ffba0"
"hardware store";"Toko Perbaikan Ponsel";"Xx";"nyak dien, Jl. Cut Meutia, Subulussalam Sel., Kec. Simpang Kiri, Kota Subulussalam, Aceh 24782";"Jl. Cut Meutia, Subulussalam Sel., Kec. Simpang Kiri, Kota Subulussalam";"ACEH";"24782";"Indonesia";"";"2.6429863";"98.0022006";"https://maps.google.com/?cid=0x0:0x185d363e84b19b64"
"hardware store";"Toko Bahan Bangunan";"TB 2 putra";"Peajambu, Kec. Singkohor, Kabupaten Aceh Singkil, Aceh 24783";"Kec. Singkohor, Kabupaten Aceh Singkil";"ACEH";"24783";"Indonesia";"";"2.42686";"97.8855808";"https://maps.google.com/?cid=0x0:0x18794bc95cb2998c"
"hardware store";"Toko";"Manik Perabot";"J2M8+X72, Jl. Teuku Umar, Penanggalan, Kec. Penanggalan, Kota Subulussalam, Aceh 24782";"Jl. Teuku Umar, Penanggalan, Kec. Penanggalan, Kota Subulussalam";"ACEH";"24782";"Indonesia";" 082168863111";"2.6348766";"98.0156371";"https://maps.google.com/?cid=0x0:0xd2f2600605fc3e17"
"hardware store";"Toko Perlengkapan Rumah";"MR.DIY";"Jl. Singkil - Rimo, Tanah Bara, Kec. Gn. Meriah, Kabupaten Aceh Singkil, Aceh 24793";"Tanah Bara, Kec. Gn. Meriah, Kabupaten Aceh Singkil";"ACEH";"24793";"Indonesia";"";"2.3807017";"97.9548061";"https://maps.google.com/?cid=0x0:0x366c68aa881b49be"
"hardware store";"Toko Alat Tulis Kantor";"Foto Copy Disc2";"jln iskandar muda, Biskang, Kec. Danau Paris, Kabupaten Aceh Singkil, Aceh 24472";"Biskang, Kec. Danau Paris, Kabupaten Aceh Singkil";"ACEH";"24472";"Indonesia";" 082361990223";"2.3268463";"98.1068634";"https://maps.google.com/?cid=0x0:0x9ade8225aa60c1f1"
"hardware store";"Toko";"Foto Copy Eki Cibro";"F29F+X8C, Mandumpang, Kec. Suro Makmur, Kabupaten Aceh Singkil, Aceh 23784";"Mandumpang, Kec. Suro Makmur, Kabupaten Aceh Singkil";"ACEH";"23784";"Indonesia";" 082293681493";"2.4699498";"98.0232581";"https://maps.google.com/?cid=0x0:0x125d3c77172c0ff3"
"hardware store";"Kantor Perusahaan";"Terminal Subulussalam";"J2W4+JW3, Jl. Cut Nyak Dhien, Subulussalam, Kec. Simpang Kiri, Kota Subulussalam, Aceh 24782";"Jl. Cut Nyak Dhien, Subulussalam, Kec. Simpang Kiri, Kota Subulussalam";"ACEH";"24782";"Indonesia";" 0816374014";"2.6465244";"98.0072916";"https://maps.google.com/?cid=0x0:0xdd3ec59f9a91d9ff"
"hardware store";"Toko umum";"Toko FERDIAN Pulau Banyak";"8C26+64R, Pulau Balai, Pulau Banyak, Kabupaten Aceh Singkil, Aceh 24784";"Pulau Balai, Pulau Banyak, Kabupaten Aceh Singkil";"ACEH";"24784";"Indonesia";" 085373262767";"2.3006237";"97.4102575";"https://maps.google.com/?cid=0x0:0xd5e2ee880099c5d2"
"hardware store";"Balai masyarakat";"UD BATU BARA";"Lae Bersih, Kec. Penanggalan, Kota Subulussalam, Aceh";"Kota Subulussalam, Aceh";"ACEH";"";"Indonesia";" 082272541683";"2.6414497";"98.0175587";"https://maps.google.com/?cid=0x0:0x831d5257da198baa"
"hardware store";"Kafe";"Kombih Group";"9XG2+FJC, Tanah Bara, Kec. Gn. Meriah, Kabupaten Aceh Singkil, Aceh 24791";"Tanah Bara, Kec. Gn. Meriah, Kabupaten Aceh Singkil";"ACEH";"24791";"Indonesia";"";"2.3761775";"97.951503";"https://maps.google.com/?cid=0x0:0x468def620194d3d1"
"hardware store";"Pemasok Bahan Bangunan";"PAKARO";"Jl. TR Angkasah, Tanah Bara, Kec. Gn. Meriah, Kabupaten Aceh Singkil, Aceh 23784";"Tanah Bara, Kec. Gn. Meriah, Kabupaten Aceh Singkil";"ACEH";"23784";"Indonesia";" 08566507761";"2.3805611";"97.9550927";"https://maps.google.com/?cid=0x0:0x4926a74f03c52684"
"hardware store";"Toko";"PARECITOK ( JUAL BELI ACEH SELATAN )";"Jl. Teuku Umar, Subulussalam, Kec. Simpang Kiri, Kota Subulussalam, Aceh 24673";"Subulussalam, Kec. Simpang Kiri, Kota Subulussalam";"ACEH";"24673";"Indonesia";" 082284283239";"2.640414";"98.0061613";"https://maps.google.com/?cid=0x0:0x7e62b79703ae48be"
"hardware store";"hardware store";"Kec. Gn. Meriah";"Kabupaten Aceh Singkil, Aceh";"Kabupaten Aceh Singkil, Aceh";"ACEH";"";"Indonesia";"";"2.3905149";"97.9623759";"https://maps.google.com/?cid=0x0:0x4e324f8a0662e10"
"hardware store";"hardware store";"Aceh 24784";"Kabupaten Aceh Singkil, Aceh";"Kabupaten Aceh Singkil, Aceh";"ACEH";"";"Indonesia";"";"2.152911";"97.2840888";"https://maps.google.com/?cid=0x0:0xab521459bf3c978c"
"hardware store";"Toko Bahan Bangunan";"TOKO SALWA BARU .";"J2X2+QQG, Subulussalam Utara, Kec. Simpang Kiri, Kota Subulussalam, Aceh 24782";"Subulussalam Utara, Kec. Simpang Kiri, Kota Subulussalam";"ACEH";"24782";"Indonesia";" 08887777666";"2.6494349";"98.0019451";"https://maps.google.com/?cid=0x0:0xb978535b018ffba0"
"hardware store";"Toko Bahan Bangunan";"UD CIBRO";"Kecamatan penanggalan, Jln pemancar, Penanggalan, barat, Kota Subulussalam, Aceh 24782";"Jln pemancar, Penanggalan, barat, Kota Subulussalam";"ACEH";"24782";"Indonesia";"";"2.6418848";"98.0126251";"https://maps.google.com/?cid=0x0:0xfbb6442f375baeb3"
"hardware store";"Toko Perbaikan Ponsel";"Xx";"nyak dien, Jl. Cut Meutia, Subulussalam Sel., Kec. Simpang Kiri, Kota Subulussalam, Aceh 24782";"Jl. Cut Meutia, Subulussalam Sel., Kec. Simpang Kiri, Kota Subulussalam";"ACEH";"24782";"Indonesia";"";"2.6429863";"98.0022006";"https://maps.google.com/?cid=0x0:0x185d363e84b19b64"
"hardware store";"Toko Perlengkapan Rumah";"MR.DIY";"Jl. Singkil - Rimo, Tanah Bara, Kec. Gn. Meriah, Kabupaten Aceh Singkil, Aceh 24793";"Tanah Bara, Kec. Gn. Meriah, Kabupaten Aceh Singkil";"ACEH";"24793";"Indonesia";"";"2.3807017";"97.9548061";"https://maps.google.com/?cid=0x0:0x366c68aa881b49be"
"hardware store";"Toko umum";"Toko FERDIAN Pulau Banyak";"8C26+64R, Pulau Balai, Pulau Banyak, Kabupaten Aceh Singkil, Aceh 24784";"Pulau Balai, Pulau Banyak, Kabupaten Aceh Singkil";"ACEH";"24784";"Indonesia";" 085373262767";"2.3006237";"97.4102575";"https://maps.google.com/?cid=0x0:0xd5e2ee880099c5d2"
"hardware store";"Toko";"Foto Copy Eki Cibro";"F29F+X8C, Mandumpang, Kec. Suro Makmur, Kabupaten Aceh Singkil, Aceh 23784";"Mandumpang, Kec. Suro Makmur, Kabupaten Aceh Singkil";"ACEH";"23784";"Indonesia";" 082293681493";"2.4699498";"98.0232581";"https://maps.google.com/?cid=0x0:0x125d3c77172c0ff3"
"hardware store";"Kafe";"Kombih Group";"9XG2+FJC, Tanah Bara, Kec. Gn. Meriah, Kabupaten Aceh Singkil, Aceh 24791";"Tanah Bara, Kec. Gn. Meriah, Kabupaten Aceh Singkil";"ACEH";"24791";"Indonesia";"";"2.3761775";"97.951503";"https://maps.google.com/?cid=0x0:0x468def620194d3d1"
"hardware store";"Toko";"Manik Perabot";"J2M8+X72, Jl. Teuku Umar, Penanggalan, Kec. Penanggalan, Kota Subulussalam, Aceh 24782";"Jl. Teuku Umar, Penanggalan, Kec. Penanggalan, Kota Subulussalam";"ACEH";"24782";"Indonesia";" 082168863111";"2.6348766";"98.0156371";"https://maps.google.com/?cid=0x0:0xd2f2600605fc3e17"
"hardware store";"Balai masyarakat";"UD BATU BARA";"Lae Bersih, Kec. Penanggalan, Kota Subulussalam, Aceh";"Kota Subulussalam, Aceh";"ACEH";"";"Indonesia";" 082272541683";"2.6414497";"98.0175587";"https://maps.google.com/?cid=0x0:0x831d5257da198baa"
"hardware store";"Pemasok Bahan Bangunan";"PAKARO";"Jl. TR Angkasah, Tanah Bara, Kec. Gn. Meriah, Kabupaten Aceh Singkil, Aceh 23784";"Tanah Bara, Kec. Gn. Meriah, Kabupaten Aceh Singkil";"ACEH";"23784";"Indonesia";" 08566507761";"2.3805611";"97.9550927";"https://maps.google.com/?cid=0x0:0x4926a74f03c52684"
"hardware store";"Kantor Perusahaan";"Zoga";"9XR8+F8Q, Tulaan, Kec. Gn. Meriah, Kabupaten Aceh Singkil, Aceh 24791";"Tulaan, Kec. Gn. Meriah, Kabupaten Aceh Singkil";"ACEH";"24791";"Indonesia";"";"2.3912147";"97.9658557";"https://maps.google.com/?cid=0x0:0xfac664e8b4de1e8e"
"hardware store";"Kantor Perusahaan";"Terminal Subulussalam";"J2W4+JW3, Jl. Cut Nyak Dhien, Subulussalam, Kec. Simpang Kiri, Kota Subulussalam, Aceh 24782";"Jl. Cut Nyak Dhien, Subulussalam, Kec. Simpang Kiri, Kota Subulussalam";"ACEH";"24782";"Indonesia";" 0816374014";"2.6465244";"98.0072916";"https://maps.google.com/?cid=0x0:0xdd3ec59f9a91d9ff"
"hardware store";"Toko";"PARECITOK ( JUAL BELI ACEH SELATAN )";"Jl. Teuku Umar, Subulussalam, Kec. Simpang Kiri, Kota Subulussalam, Aceh 24673";"Subulussalam, Kec. Simpang Kiri, Kota Subulussalam";"ACEH";"24673";"Indonesia";" 082284283239";"2.640414";"98.0061613";"https://maps.google.com/?cid=0x0:0x7e62b79703ae48be"
"hardware store";"Toko Bahan Bangunan";"TB 2 putra";"Peajambu, Kec. Singkohor, Kabupaten Aceh Singkil, Aceh 24783";"Kec. Singkohor, Kabupaten Aceh Singkil";"ACEH";"24783";"Indonesia";"";"2.42686";"97.8855808";"https://maps.google.com/?cid=0x0:0x18794bc95cb2998c"
"hardware store";"Toko Bahan Bangunan";"TOKO 2 SAHABAT";"9XV7+397, Rimo, Kec. Gn. Meriah, Kabupaten Aceh Singkil, Aceh 24791";"Rimo, Kec. Gn. Meriah, Kabupaten Aceh Singkil";"ACEH";"24791";"Indonesia";"";"2.3926596";"97.9634371";"https://maps.google.com/?cid=0x0:0x91a26a50d9f41256"
"hardware store";"hardware store";"Kuala Baru";"Tlk. Dalam, Kabupaten Simeulue, Aceh";"Kabupaten Simeulue, Aceh";"ACEH";"";"Indonesia";"";"2.5789692";"96.2004383";"https://maps.google.com/?cid=0x0:0x44a01bb35eaf9b5f"
"hardware store";"Toko Bahan Bangunan";"RY HARDWARE  SAFETY PLT (KUALA SUNGAI BARU)";"SI 53, SI 53, 1, Jalan Sungai Baru Ilir Jaya Utama, TAMAN SG BARU ILIR JAYA, 78200 Kuala Sungai Baru, Melaka, Malaysia";"Kuala Sungai Baru";"ACEH";"78200";"Indonesia";" +6063881250";"2.3685588";"102.0528182";"https://maps.google.com/?cid=0x0:0x2192c6b7b96c5b11"
"hardware store";"Toko Bahan Bangunan";"RY HARDWARE  SAFETY PLT (HQ - SUNGAI UDANG)";"NO. 52  54, Jln Keris Emas 1, Taman Keris Emas, 76300 Sungai Udang, Melaka, Malaysia";"Sungai Udang";"ACEH";"76300";"Indonesia";" +6063533363";"2.2910736";"102.1321088";"https://maps.google.com/?cid=0x0:0x9171de5093bc4f05"
"hardware store";"Toko umum";"Toko FERDIAN Pulau Banyak";"8C26+64R, Pulau Balai, Pulau Banyak, Kabupaten Aceh Singkil, Aceh 24784";"Pulau Balai, Pulau Banyak, Kabupaten Aceh Singkil";"ACEH";"24784";"Indonesia";" 085373262767";"2.3006237";"97.4102575";"https://maps.google.com/?cid=0x0:0xd5e2ee880099c5d2"
"hardware store";"Pusat Perbelanjaan";"Usaha Fahmi Kurniawan";"8C26+934 Kecamata, Jl Iskandar Muda, Pulau Balai, Pulau Banyak, Kabupaten Aceh Singkil, Aceh";"Kabupaten Aceh Singkil, Aceh";"ACEH";"";"Indonesia";" 082163571158";"2.3008927";"97.4102116";"https://maps.google.com/?cid=0x0:0x5063f986d72e7c11"
"hardware store";"hardware store";"Aceh 24791";"Kec. Singkil Utara, Kabupaten Aceh Singkil, Aceh";"Kabupaten Aceh Singkil, Aceh";"ACEH";"";"Indonesia";"";"2.4658075";"98.013794";"https://maps.google.com/?cid=0x0:0xed134176c9340695"
"hardware store";"Toko umum";"Toko FERDIAN Pulau Banyak";"8C26+64R, Pulau Balai, Pulau Banyak, Kabupaten Aceh Singkil, Aceh 24784";"Pulau Balai, Pulau Banyak, Kabupaten Aceh Singkil";"ACEH";"24784";"Indonesia";" 085373262767";"2.3006237";"97.4102575";"https://maps.google.com/?cid=0x0:0xd5e2ee880099c5d2"
"hardware store";"Pusat Perbelanjaan";"Usaha Fahmi Kurniawan";"8C26+934 Kecamata, Jl Iskandar Muda, Pulau Balai, Pulau Banyak, Kabupaten Aceh Singkil, Aceh";"Kabupaten Aceh Singkil, Aceh";"ACEH";"";"Indonesia";" 082163571158";"2.3008927";"97.4102116";"https://maps.google.com/?cid=0x0:0x5063f986d72e7c11"
"hardware store";"Toko Perlengkapan Rumah";"MR.DIY";"Jl. Singkil - Rimo, Tanah Bara, Kec. Gn. Meriah, Kabupaten Aceh Singkil, Aceh 24793";"Tanah Bara, Kec. Gn. Meriah, Kabupaten Aceh Singkil";"ACEH";"24793";"Indonesia";"";"2.3807017";"97.9548061";"https://maps.google.com/?cid=0x0:0x366c68aa881b49be"
"hardware store";"hardware store";"Aceh 24783";"Kabupaten Aceh Singkil, Aceh";"Kabupaten Aceh Singkil, Aceh";"ACEH";"";"Indonesia";"";"2.4071732";"97.991986";"https://maps.google.com/?cid=0x0:0x4541045a0abeaf53"
"hardware store";"Toko Perlengkapan Rumah";"MR.DIY";"Jl. Singkil - Rimo, Tanah Bara, Kec. Gn. Meriah, Kabupaten Aceh Singkil, Aceh 24793";"Tanah Bara, Kec. Gn. Meriah, Kabupaten Aceh Singkil";"ACEH";"24793";"Indonesia";"";"2.3807017";"97.9548061";"https://maps.google.com/?cid=0x0:0x366c68aa881b49be"
"hardware store";"Toko Bahan Bangunan";"UD CIBRO";"Kecamatan penanggalan, Jln pemancar, Penanggalan, barat, Kota Subulussalam, Aceh 24782";"Jln pemancar, Penanggalan, barat, Kota Subulussalam";"ACEH";"24782";"Indonesia";"";"2.6418848";"98.0126251";"https://maps.google.com/?cid=0x0:0xfbb6442f375baeb3"
"hardware store";"Kantor Perusahaan";"Terminal Subulussalam";"J2W4+JW3, Jl. Cut Nyak Dhien, Subulussalam, Kec. Simpang Kiri, Kota Subulussalam, Aceh 24782";"Jl. Cut Nyak Dhien, Subulussalam, Kec. Simpang Kiri, Kota Subulussalam";"ACEH";"24782";"Indonesia";" 0816374014";"2.6465244";"98.0072916";"https://maps.google.com/?cid=0x0:0xdd3ec59f9a91d9ff"
"hardware store";"Toko Bahan Bangunan";"TB 2 putra";"Peajambu, Kec. Singkohor, Kabupaten Aceh Singkil, Aceh 24783";"Kec. Singkohor, Kabupaten Aceh Singkil";"ACEH";"24783";"Indonesia";"";"2.42686";"97.8855808";"https://maps.google.com/?cid=0x0:0x18794bc95cb2998c"
"hardware store";"Toko Bahan Bangunan";"TOKO SALWA BARU .";"J2X2+QQG, Subulussalam Utara, Kec. Simpang Kiri, Kota Subulussalam, Aceh 24782";"Subulussalam Utara, Kec. Simpang Kiri, Kota Subulussalam";"ACEH";"24782";"Indonesia";" 08887777666";"2.6494349";"98.0019451";"https://maps.google.com/?cid=0x0:0xb978535b018ffba0"
"hardware store";"Toko Perbaikan Ponsel";"Xx";"nyak dien, Jl. Cut Meutia, Subulussalam Sel., Kec. Simpang Kiri, Kota Subulussalam, Aceh 24782";"Jl. Cut Meutia, Subulussalam Sel., Kec. Simpang Kiri, Kota Subulussalam";"ACEH";"24782";"Indonesia";"";"2.6429863";"98.0022006";"https://maps.google.com/?cid=0x0:0x185d363e84b19b64"
"hardware store";"Toko";"Manik Perabot";"J2M8+X72, Jl. Teuku Umar, Penanggalan, Kec. Penanggalan, Kota Subulussalam, Aceh 24782";"Jl. Teuku Umar, Penanggalan, Kec. Penanggalan, Kota Subulussalam";"ACEH";"24782";"Indonesia";" 082168863111";"2.6348766";"98.0156371";"https://maps.google.com/?cid=0x0:0xd2f2600605fc3e17"
"hardware store";"Toko";"Foto Copy Eki Cibro";"F29F+X8C, Mandumpang, Kec. Suro Makmur, Kabupaten Aceh Singkil, Aceh 23784";"Mandumpang, Kec. Suro Makmur, Kabupaten Aceh Singkil";"ACEH";"23784";"Indonesia";" 082293681493";"2.4699498";"98.0232581";"https://maps.google.com/?cid=0x0:0x125d3c77172c0ff3"
"hardware store";"Kantor Perusahaan";"Zoga";"9XR8+F8Q, Tulaan, Kec. Gn. Meriah, Kabupaten Aceh Singkil, Aceh 24791";"Tulaan, Kec. Gn. Meriah, Kabupaten Aceh Singkil";"ACEH";"24791";"Indonesia";"";"2.3912147";"97.9658557";"https://maps.google.com/?cid=0x0:0xfac664e8b4de1e8e"
"hardware store";"Balai masyarakat";"UD BATU BARA";"Lae Bersih, Kec. Penanggalan, Kota Subulussalam, Aceh";"Kota Subulussalam, Aceh";"ACEH";"";"Indonesia";" 082272541683";"2.6414497";"98.0175587";"https://maps.google.com/?cid=0x0:0x831d5257da198baa"
"hardware store";"Pemasok Bahan Bangunan";"PAKARO";"Jl. TR Angkasah, Tanah Bara, Kec. Gn. Meriah, Kabupaten Aceh Singkil, Aceh 23784";"Tanah Bara, Kec. Gn. Meriah, Kabupaten Aceh Singkil";"ACEH";"23784";"Indonesia";" 08566507761";"2.3805611";"97.9550927";"https://maps.google.com/?cid=0x0:0x4926a74f03c52684"
"hardware store";"Toko";"PARECITOK ( JUAL BELI ACEH SELATAN )";"Jl. Teuku Umar, Subulussalam, Kec. Simpang Kiri, Kota Subulussalam, Aceh 24673";"Subulussalam, Kec. Simpang Kiri, Kota Subulussalam";"ACEH";"24673";"Indonesia";" 082284283239";"2.640414";"98.0061613";"https://maps.google.com/?cid=0x0:0x7e62b79703ae48be"
"hardware store";"Toko Bahan Bangunan";"UD. Daeng Semesta";"Jl. Cut Nyak Dhien No.39, Subulussalam, Kec. Simpang Kiri, Kota Subulussalam, Aceh 24781";"Subulussalam, Kec. Simpang Kiri, Kota Subulussalam";"ACEH";"24781";"Indonesia";"";"2.6417044";"98.0064085";"https://maps.google.com/?cid=0x0:0x3d61ef5e4d8c63e0"
"hardware store";"Toko";"TOKO RIFQI";"9XX7+GR5, Rimo, Kec. Gn. Meriah, Kabupaten Aceh Singkil, Aceh 24791";"Rimo, Kec. Gn. Meriah, Kabupaten Aceh Singkil";"ACEH";"24791";"Indonesia";" 081536769513";"2.3987629";"97.9645942";"https://maps.google.com/?cid=0x0:0x67926cd801148778"
"hardware store";"Toko Perlengkapan Rumah";"MR.DIY";"Jl. Singkil - Rimo, Tanah Bara, Kec. Gn. Meriah, Kabupaten Aceh Singkil, Aceh 24793";"Tanah Bara, Kec. Gn. Meriah, Kabupaten Aceh Singkil";"ACEH";"24793";"Indonesia";"";"2.3807017";"97.9548061";"https://maps.google.com/?cid=0x0:0x366c68aa881b49be"
"hardware store";"hardware store";"Kec. Simpang Kanan";"Kabupaten Aceh Singkil, Aceh";"Kabupaten Aceh Singkil, Aceh";"ACEH";"";"Indonesia";"";"2.4382133";"97.9903392";"https://maps.google.com/?cid=0x0:0x8d3290c62e81c9f0"
"hardware store";"";"TOKO EKA GORDEN";"9XX7+FXR, Sianjo Anjo Meriah, Kec. Gn. Meriah, Kabupaten Aceh Singkil, Aceh";"Kabupaten Aceh Singkil, Aceh";"ACEH";"";"Indonesia";"";"2.3987391";"97.9648998";"https://maps.google.com/?cid=0x0:0x5dc0b39c66991789"
"hardware store";"Kafe";"Kombih Group";"9XG2+FJC, Tanah Bara, Kec. Gn. Meriah, Kabupaten Aceh Singkil, Aceh 24791";"Tanah Bara, Kec. Gn. Meriah, Kabupaten Aceh Singkil";"ACEH";"24791";"Indonesia";"";"2.3761775";"97.951503";"https://maps.google.com/?cid=0x0:0x468def620194d3d1"
"hardware store";"Toko";"Foto Copy Eki Cibro";"F29F+X8C, Mandumpang, Kec. Suro Makmur, Kabupaten Aceh Singkil, Aceh 23784";"Mandumpang, Kec. Suro Makmur, Kabupaten Aceh Singkil";"ACEH";"23784";"Indonesia";" 082293681493";"2.4699498";"98.0232581";"https://maps.google.com/?cid=0x0:0x125d3c77172c0ff3"
"hardware store";"Toko Elektronik";"Sky Home Elektronik";"Bahtera Makmur, Kec. Bagan Sinembah, Kabupaten Rokan Hilir, Riau";"Kabupaten Rokan Hilir, Riau";"ACEH";"";"Indonesia";" 082288058886";"1.6737426";"100.4444723";"https://maps.google.com/?cid=0x0:0x3efb07f990bc20a0"
"hardware store";"Pemasok Bahan Bangunan";"PAKARO";"Jl. TR Angkasah, Tanah Bara, Kec. Gn. Meriah, Kabupaten Aceh Singkil, Aceh 23784";"Tanah Bara, Kec. Gn. Meriah, Kabupaten Aceh Singkil";"ACEH";"23784";"Indonesia";" 08566507761";"2.3805611";"97.9550927";"https://maps.google.com/?cid=0x0:0x4926a74f03c52684"
"hardware store";"Toko Elektronik";"Mega Elektronik";"MCFV+9W3, Jl. Lintas Sumatra, Bahtera Makmur, Kec. Bagan Sinembah, Kabupaten Rokan Hilir, Riau 28992";"Jl. Lintas Sumatra, Bahtera Makmur, Kec. Bagan Sinembah, Kabupaten Rokan Hilir";"ACEH";"28992";"Indonesia";" 081370352608";"1.6733915";"100.4447865";"https://maps.google.com/?cid=0x0:0x86e60f506acf8c68"
"hardware store";"Toko Perlengkapan Rumah";"MR.DIY";"Jl. Singkil - Rimo, Tanah Bara, Kec. Gn. Meriah, Kabupaten Aceh Singkil, Aceh 24793";"Tanah Bara, Kec. Gn. Meriah, Kabupaten Aceh Singkil";"ACEH";"24793";"Indonesia";"";"2.3807017";"97.9548061";"https://maps.google.com/?cid=0x0:0x366c68aa881b49be"
"hardware store";"Toko";"TOKO RIFQI";"9XX7+GR5, Rimo, Kec. Gn. Meriah, Kabupaten Aceh Singkil, Aceh 24791";"Rimo, Kec. Gn. Meriah, Kabupaten Aceh Singkil";"ACEH";"24791";"Indonesia";" 081536769513";"2.3987629";"97.9645942";"https://maps.google.com/?cid=0x0:0x67926cd801148778"
"hardware store";"hardware store";"Aceh 24785";"Kec. Kota Baharu, Kabupaten Aceh Singkil, Aceh";"Kabupaten Aceh Singkil, Aceh";"ACEH";"";"Indonesia";"";"2.4523065";"97.8123224";"https://maps.google.com/?cid=0x0:0x571276798298d3f5"
"hardware store";"Kafe";"Kombih Group";"9XG2+FJC, Tanah Bara, Kec. Gn. Meriah, Kabupaten Aceh Singkil, Aceh 24791";"Tanah Bara, Kec. Gn. Meriah, Kabupaten Aceh Singkil";"ACEH";"24791";"Indonesia";"";"2.3761775";"97.951503";"https://maps.google.com/?cid=0x0:0x468def620194d3d1"
"hardware store";"Toko Elektronik";"TOKO LANCAR JAYA TRANS 26";"CWCH+56G, Bukit Harapan, Kec. Gn. Meriah, Kabupaten Aceh Singkil, Aceh 24783";"Bukit Harapan, Kec. Gn. Meriah, Kabupaten Aceh Singkil";"ACEH";"24783";"Indonesia";"";"2.4204478";"97.9280751";"https://maps.google.com/?cid=0x0:0xfb110a83b7b40c41"
"hardware store";"Pemasok Bahan Bangunan";"PAKARO";"Jl. TR Angkasah, Tanah Bara, Kec. Gn. Meriah, Kabupaten Aceh Singkil, Aceh 23784";"Tanah Bara, Kec. Gn. Meriah, Kabupaten Aceh Singkil";"ACEH";"23784";"Indonesia";" 08566507761";"2.3805611";"97.9550927";"https://maps.google.com/?cid=0x0:0x4926a74f03c52684"
"hardware store";"Toko Elektronik";"JAYA PONSEL";"Rimo, Kec. Gn. Meriah, Kabupaten Aceh Singkil, Aceh 24791";"Kec. Gn. Meriah, Kabupaten Aceh Singkil";"ACEH";"24791";"Indonesia";" 085373640336";"2.3940768";"97.9634507";"https://maps.google.com/?cid=0x0:0x1626c427636b0ed"
"hardware store";"Toko Perlengkapan Rumah";"MR.DIY";"Jl. Singkil - Rimo, Tanah Bara, Kec. Gn. Meriah, Kabupaten Aceh Singkil, Aceh 24793";"Tanah Bara, Kec. Gn. Meriah, Kabupaten Aceh Singkil";"ACEH";"24793";"Indonesia";"";"2.3807017";"97.9548061";"https://maps.google.com/?cid=0x0:0x366c68aa881b49be"
"hardware store";"hardware store";"Singkil";"Kec. Singkil, Kabupaten Aceh Singkil, Aceh";"Kabupaten Aceh Singkil, Aceh";"ACEH";"";"Indonesia";"";"2.2836143";"97.79873";"https://maps.google.com/?cid=0x0:0x4039d80b220d230"
"hardware store";"Toko";"TOKO RIFQI";"9XX7+GR5, Rimo, Kec. Gn. Meriah, Kabupaten Aceh Singkil, Aceh 24791";"Rimo, Kec. Gn. Meriah, Kabupaten Aceh Singkil";"ACEH";"24791";"Indonesia";" 081536769513";"2.3987629";"97.9645942";"https://maps.google.com/?cid=0x0:0x67926cd801148778"
"hardware store";"Kantor Perusahaan";"Zoga";"9XR8+F8Q, Tulaan, Kec. Gn. Meriah, Kabupaten Aceh Singkil, Aceh 24791";"Tulaan, Kec. Gn. Meriah, Kabupaten Aceh Singkil";"ACEH";"24791";"Indonesia";"";"2.3912147";"97.9658557";"https://maps.google.com/?cid=0x0:0xfac664e8b4de1e8e"
"hardware store";"Toko Bahan Bangunan";"TB 2 putra";"Peajambu, Kec. Singkohor, Kabupaten Aceh Singkil, Aceh 24783";"Kec. Singkohor, Kabupaten Aceh Singkil";"ACEH";"24783";"Indonesia";"";"2.42686";"97.8855808";"https://maps.google.com/?cid=0x0:0x18794bc95cb2998c"
"hardware store";"Toko Elektronik";"Sinar Fajar";"Tulaan, Kec. Gn. Meriah, Kabupaten Aceh Singkil, Aceh 24791";"Kec. Gn. Meriah, Kabupaten Aceh Singkil";"ACEH";"24791";"Indonesia";" 085371364774";"2.39171";"97.9679639";"https://maps.google.com/?cid=0x0:0x865894978d7464ea"
"hardware store";"Bengkel Elektronik";"Toko Manservice";"9XVC+4PF, Tunas Harapan, Kec. Gn. Meriah, Kabupaten Aceh Singkil, Aceh 24791";"Tunas Harapan, Kec. Gn. Meriah, Kabupaten Aceh Singkil";"ACEH";"24791";"Indonesia";" 081260085989";"2.3928077";"97.9718008";"https://maps.google.com/?cid=0x0:0x500978b9fd3166db"
"hardware store";"Toko Fotokopi";"Sun Fhoto Copy";"Kp. Baru, Kec. Singkil Utara, Kabupaten Aceh Singkil, Aceh 24472";"Kec. Singkil Utara, Kabupaten Aceh Singkil";"ACEH";"24472";"Indonesia";" 085359078070";"2.2771605";"97.9527787";"https://maps.google.com/?cid=0x0:0x919520071d771ff7"
"hardware store";"Pemasok Bahan Bangunan";"PAKARO";"Jl. TR Angkasah, Tanah Bara, Kec. Gn. Meriah, Kabupaten Aceh Singkil, Aceh 23784";"Tanah Bara, Kec. Gn. Meriah, Kabupaten Aceh Singkil";"ACEH";"23784";"Indonesia";" 08566507761";"2.3805611";"97.9550927";"https://maps.google.com/?cid=0x0:0x4926a74f03c52684"
"hardware store";"Toko";"Foto Copy Eki Cibro";"F29F+X8C, Mandumpang, Kec. Suro Makmur, Kabupaten Aceh Singkil, Aceh 23784";"Mandumpang, Kec. Suro Makmur, Kabupaten Aceh Singkil";"ACEH";"23784";"Indonesia";" 082293681493";"2.4699498";"98.0232581";"https://maps.google.com/?cid=0x0:0x125d3c77172c0ff3"
"hardware store";"Toko Elektronik";"JAYA PONSEL";"Rimo, Kec. Gn. Meriah, Kabupaten Aceh Singkil, Aceh 24791";"Kec. Gn. Meriah, Kabupaten Aceh Singkil";"ACEH";"24791";"Indonesia";" 085373640336";"2.3940768";"97.9634507";"https://maps.google.com/?cid=0x0:0x1626c427636b0ed"
"hardware store";"Toko Elektronik";"DIKA JAYA ELEKTRONIK";"9XR8+G4G, Rimo, Kec. Gn. Meriah, Kabupaten Aceh Singkil, Aceh 24791";"Rimo, Kec. Gn. Meriah, Kabupaten Aceh Singkil";"ACEH";"24791";"Indonesia";" 082163632049";"2.3913105";"97.9653143";"https://maps.google.com/?cid=0x0:0xbfddc7e5f9643207"
"hardware store";"Toko Elektronik";"TOKO LANCAR JAYA TRANS 26";"CWCH+56G, Bukit Harapan, Kec. Gn. Meriah, Kabupaten Aceh Singkil, Aceh 24783";"Bukit Harapan, Kec. Gn. Meriah, Kabupaten Aceh Singkil";"ACEH";"24783";"Indonesia";"";"2.4204478";"97.9280751";"https://maps.google.com/?cid=0x0:0xfb110a83b7b40c41"
"hardware store";"Toko Elektronik";"percetakan syahcom";"GWHG+Q8W, Jl. Bawal, Singkohor, Kec. Singkohor, Kabupaten Aceh Singkil, Aceh 24782";"Jl. Bawal, Singkohor, Kec. Singkohor, Kabupaten Aceh Singkil";"ACEH";"24782";"Indonesia";" 081370494871";"2.5294924";"97.9258153";"https://maps.google.com/?cid=0x0:0x99b28f6b2a3f036a"
"hardware store";"Toko Elektronik";"JAYA PONSEL";"Rimo, Kec. Gn. Meriah, Kabupaten Aceh Singkil, Aceh 24791";"Kec. Gn. Meriah, Kabupaten Aceh Singkil";"ACEH";"24791";"Indonesia";" 085373640336";"2.3940768";"97.9634507";"https://maps.google.com/?cid=0x0:0x1626c427636b0ed"
"hardware store";"Toko Elektronik";"TOKO LANCAR JAYA TRANS 26";"CWCH+56G, Bukit Harapan, Kec. Gn. Meriah, Kabupaten Aceh Singkil, Aceh 24783";"Bukit Harapan, Kec. Gn. Meriah, Kabupaten Aceh Singkil";"ACEH";"24783";"Indonesia";"";"2.4204478";"97.9280751";"https://maps.google.com/?cid=0x0:0xfb110a83b7b40c41"
"hardware store";"Kafe";"Kombih Group";"9XG2+FJC, Tanah Bara, Kec. Gn. Meriah, Kabupaten Aceh Singkil, Aceh 24791";"Tanah Bara, Kec. Gn. Meriah, Kabupaten Aceh Singkil";"ACEH";"24791";"Indonesia";"";"2.3761775";"97.951503";"https://maps.google.com/?cid=0x0:0x468def620194d3d1"
"hardware store";"hardware store";"Singkil";"Kec. Singkil, Kabupaten Aceh Singkil, Aceh";"Kabupaten Aceh Singkil, Aceh";"ACEH";"";"Indonesia";"";"2.2836143";"97.79873";"https://maps.google.com/?cid=0x0:0x4039d80b220d230"
"hardware store";"Toko Bahan Bangunan";"TB 2 putra";"Peajambu, Kec. Singkohor, Kabupaten Aceh Singkil, Aceh 24783";"Kec. Singkohor, Kabupaten Aceh Singkil";"ACEH";"24783";"Indonesia";"";"2.42686";"97.8855808";"https://maps.google.com/?cid=0x0:0x18794bc95cb2998c"
"hardware store";"Toko Elektronik";"DIKA JAYA ELEKTRONIK";"9XR8+G4G, Rimo, Kec. Gn. Meriah, Kabupaten Aceh Singkil, Aceh 24791";"Rimo, Kec. Gn. Meriah, Kabupaten Aceh Singkil";"ACEH";"24791";"Indonesia";" 082163632049";"2.3913105";"97.9653143";"https://maps.google.com/?cid=0x0:0xbfddc7e5f9643207"
"hardware store";"Bengkel Elektronik";"Toko Manservice";"9XVC+4PF, Tunas Harapan, Kec. Gn. Meriah, Kabupaten Aceh Singkil, Aceh 24791";"Tunas Harapan, Kec. Gn. Meriah, Kabupaten Aceh Singkil";"ACEH";"24791";"Indonesia";" 081260085989";"2.3928077";"97.9718008";"https://maps.google.com/?cid=0x0:0x500978b9fd3166db"
"hardware store";"Kantor Perusahaan";"Zoga";"9XR8+F8Q, Tulaan, Kec. Gn. Meriah, Kabupaten Aceh Singkil, Aceh 24791";"Tulaan, Kec. Gn. Meriah, Kabupaten Aceh Singkil";"ACEH";"24791";"Indonesia";"";"2.3912147";"97.9658557";"https://maps.google.com/?cid=0x0:0xfac664e8b4de1e8e"
"hardware store";"Toko";"Foto Copy Eki Cibro";"F29F+X8C, Mandumpang, Kec. Suro Makmur, Kabupaten Aceh Singkil, Aceh 23784";"Mandumpang, Kec. Suro Makmur, Kabupaten Aceh Singkil";"ACEH";"23784";"Indonesia";" 082293681493";"2.4699498";"98.0232581";"https://maps.google.com/?cid=0x0:0x125d3c77172c0ff3"
"hardware store";"Toko Fotokopi";"Sun Fhoto Copy";"Kp. Baru, Kec. Singkil Utara, Kabupaten Aceh Singkil, Aceh 24472";"Kec. Singkil Utara, Kabupaten Aceh Singkil";"ACEH";"24472";"Indonesia";" 085359078070";"2.2771605";"97.9527787";"https://maps.google.com/?cid=0x0:0x919520071d771ff7"
"hardware store";"Toko Elektronik";"Sinar Fajar";"Tulaan, Kec. Gn. Meriah, Kabupaten Aceh Singkil, Aceh 24791";"Kec. Gn. Meriah, Kabupaten Aceh Singkil";"ACEH";"24791";"Indonesia";" 085371364774";"2.39171";"97.9679639";"https://maps.google.com/?cid=0x0:0x865894978d7464ea"
"hardware store";"Pemasok Bahan Bangunan";"PAKARO";"Jl. TR Angkasah, Tanah Bara, Kec. Gn. Meriah, Kabupaten Aceh Singkil, Aceh 23784";"Tanah Bara, Kec. Gn. Meriah, Kabupaten Aceh Singkil";"ACEH";"23784";"Indonesia";" 08566507761";"2.3805611";"97.9550927";"https://maps.google.com/?cid=0x0:0x4926a74f03c52684"
"hardware store";"Toko Elektronik";"TOKO LANCAR JAYA TRANS 26";"CWCH+56G, Bukit Harapan, Kec. Gn. Meriah, Kabupaten Aceh Singkil, Aceh 24783";"Bukit Harapan, Kec. Gn. Meriah, Kabupaten Aceh Singkil";"ACEH";"24783";"Indonesia";"";"2.4204478";"97.9280751";"https://maps.google.com/?cid=0x0:0xfb110a83b7b40c41"
"hardware store";"Toko Elektronik";"JAYA PONSEL";"Rimo, Kec. Gn. Meriah, Kabupaten Aceh Singkil, Aceh 24791";"Kec. Gn. Meriah, Kabupaten Aceh Singkil";"ACEH";"24791";"Indonesia";" 085373640336";"2.3940768";"97.9634507";"https://maps.google.com/?cid=0x0:0x1626c427636b0ed"
"hardware store";"hardware store";"Singkil";"Kec. Singkil, Kabupaten Aceh Singkil, Aceh";"Kabupaten Aceh Singkil, Aceh";"ACEH";"";"Indonesia";"";"2.2836143";"97.79873";"https://maps.google.com/?cid=0x0:0x4039d80b220d230"
"hardware store";"Kafe";"Kombih Group";"9XG2+FJC, Tanah Bara, Kec. Gn. Meriah, Kabupaten Aceh Singkil, Aceh 24791";"Tanah Bara, Kec. Gn. Meriah, Kabupaten Aceh Singkil";"ACEH";"24791";"Indonesia";"";"2.3761775";"97.951503";"https://maps.google.com/?cid=0x0:0x468def620194d3d1"
"hardware store";"Toko Fotokopi";"Sun Fhoto Copy";"Kp. Baru, Kec. Singkil Utara, Kabupaten Aceh Singkil, Aceh 24472";"Kec. Singkil Utara, Kabupaten Aceh Singkil";"ACEH";"24472";"Indonesia";" 085359078070";"2.2771605";"97.9527787";"https://maps.google.com/?cid=0x0:0x919520071d771ff7"
"hardware store";"Toko Bahan Bangunan";"TB 2 putra";"Peajambu, Kec. Singkohor, Kabupaten Aceh Singkil, Aceh 24783";"Kec. Singkohor, Kabupaten Aceh Singkil";"ACEH";"24783";"Indonesia";"";"2.42686";"97.8855808";"https://maps.google.com/?cid=0x0:0x18794bc95cb2998c"
"hardware store";"Pemasok Bahan Bangunan";"PAKARO";"Jl. TR Angkasah, Tanah Bara, Kec. Gn. Meriah, Kabupaten Aceh Singkil, Aceh 23784";"Tanah Bara, Kec. Gn. Meriah, Kabupaten Aceh Singkil";"ACEH";"23784";"Indonesia";" 08566507761";"2.3805611";"97.9550927";"https://maps.google.com/?cid=0x0:0x4926a74f03c52684"
"hardware store";"Toko Bahan Bangunan";"CV JONANLI SEJAHTERA";"Kombos Tim., Kec. Singkil, Kota Manado, Sulawesi Utara 95234";"Kec. Singkil, Kota Manado";"ACEH";"95234";"Indonesia";" 085256658922";"1.5007027";"124.8645964";"https://maps.google.com/?cid=0x0:0xa9f67fcb53d9fe6e"
"hardware store";"Toko Bahan Bangunan";"TOKO ALKANO";"GV25+PX4, Kombos Bar., Kec. Singkil, Kota Manado, Sulawesi Utara";"Kota Manado, Sulawesi Utara";"ACEH";"";"Indonesia";"";"1.5016785";"124.8600348";"https://maps.google.com/?cid=0x0:0xd4b2ca51273feef1"
"hardware store";"Bengkel Sepeda Motor";"LONA SPEED";"GV27+7QV, Kombos Tim., Kec. Singkil, Kota Manado, Sulawesi Utara";"Kota Manado, Sulawesi Utara";"ACEH";"";"Indonesia";" 085340403014";"1.5007186";"124.8644458";"https://maps.google.com/?cid=0x0:0xe64b20c5532a46bb"
"hardware store";"Toko Elektronik";"TOKO LANCAR JAYA TRANS 26";"CWCH+56G, Bukit Harapan, Kec. Gn. Meriah, Kabupaten Aceh Singkil, Aceh 24783";"Bukit Harapan, Kec. Gn. Meriah, Kabupaten Aceh Singkil";"ACEH";"24783";"Indonesia";"";"2.4204478";"97.9280751";"https://maps.google.com/?cid=0x0:0xfb110a83b7b40c41"
"hardware store";"Toko Elektronik";"JAYA PONSEL";"Rimo, Kec. Gn. Meriah, Kabupaten Aceh Singkil, Aceh 24791";"Kec. Gn. Meriah, Kabupaten Aceh Singkil";"ACEH";"24791";"Indonesia";" 085373640336";"2.3940768";"97.9634507";"https://maps.google.com/?cid=0x0:0x1626c427636b0ed"
"hardware store";"hardware store";"Aceh 24785";"Kec. Kota Baharu, Kabupaten Aceh Singkil, Aceh";"Kabupaten Aceh Singkil, Aceh";"ACEH";"";"Indonesia";"";"2.4523065";"97.8123224";"https://maps.google.com/?cid=0x0:0x571276798298d3f5"
"hardware store";"Kafe";"Kombih Group";"9XG2+FJC, Tanah Bara, Kec. Gn. Meriah, Kabupaten Aceh Singkil, Aceh 24791";"Tanah Bara, Kec. Gn. Meriah, Kabupaten Aceh Singkil";"ACEH";"24791";"Indonesia";"";"2.3761775";"97.951503";"https://maps.google.com/?cid=0x0:0x468def620194d3d1"
"hardware store";"Pemasok Bahan Bangunan";"PAKARO";"Jl. TR Angkasah, Tanah Bara, Kec. Gn. Meriah, Kabupaten Aceh Singkil, Aceh 23784";"Tanah Bara, Kec. Gn. Meriah, Kabupaten Aceh Singkil";"ACEH";"23784";"Indonesia";" 08566507761";"2.3805611";"97.9550927";"https://maps.google.com/?cid=0x0:0x4926a74f03c52684"
"hardware store";"Toko Bahan Bangunan";"TB 2 putra";"Peajambu, Kec. Singkohor, Kabupaten Aceh Singkil, Aceh 24783";"Kec. Singkohor, Kabupaten Aceh Singkil";"ACEH";"24783";"Indonesia";"";"2.42686";"97.8855808";"https://maps.google.com/?cid=0x0:0x18794bc95cb2998c"
"hardware store";"Toko Elektronik";"Sinar terang";"Jl. Subulussalam, Rimo, Kec. Gn. Meriah, Kabupaten Aceh Singkil, Aceh 24793";"Rimo, Kec. Gn. Meriah, Kabupaten Aceh Singkil";"ACEH";"24793";"Indonesia";"";"2.3984489";"97.9649806";"https://maps.google.com/?cid=0x0:0xe4f42b2ed0416266"
"hardware store";"Toko Elektronik";"Sinar Fajar";"Tulaan, Kec. Gn. Meriah, Kabupaten Aceh Singkil, Aceh 24791";"Kec. Gn. Meriah, Kabupaten Aceh Singkil";"ACEH";"24791";"Indonesia";" 085371364774";"2.39171";"97.9679639";"https://maps.google.com/?cid=0x0:0x865894978d7464ea"
"hardware store";"Toko Elektronik";"percetakan syahcom";"GWHG+Q8W, Jl. Bawal, Singkohor, Kec. Singkohor, Kabupaten Aceh Singkil, Aceh 24782";"Jl. Bawal, Singkohor, Kec. Singkohor, Kabupaten Aceh Singkil";"ACEH";"24782";"Indonesia";" 081370494871";"2.5294924";"97.9258153";"https://maps.google.com/?cid=0x0:0x99b28f6b2a3f036a"
"hardware store";"hardware store";"Aceh 24784";"Kabupaten Aceh Singkil, Aceh";"Kabupaten Aceh Singkil, Aceh";"ACEH";"";"Indonesia";"";"2.152911";"97.2840888";"https://maps.google.com/?cid=0x0:0xab521459bf3c978c"
"hardware store";"Toko Bahan Bangunan";"TB 2 putra";"Peajambu, Kec. Singkohor, Kabupaten Aceh Singkil, Aceh 24783";"Kec. Singkohor, Kabupaten Aceh Singkil";"ACEH";"24783";"Indonesia";"";"2.42686";"97.8855808";"https://maps.google.com/?cid=0x0:0x18794bc95cb2998c"
"hardware store";"Toko Bahan Bangunan";"TOKO SALWA BARU .";"J2X2+QQG, Subulussalam Utara, Kec. Simpang Kiri, Kota Subulussalam, Aceh 24782";"Subulussalam Utara, Kec. Simpang Kiri, Kota Subulussalam";"ACEH";"24782";"Indonesia";" 08887777666";"2.6494349";"98.0019451";"https://maps.google.com/?cid=0x0:0xb978535b018ffba0"
"hardware store";"hardware store";"Aceh 24784";"Kabupaten Aceh Singkil, Aceh";"Kabupaten Aceh Singkil, Aceh";"ACEH";"";"Indonesia";"";"2.152911";"97.2840888";"https://maps.google.com/?cid=0x0:0xab521459bf3c978c"
"hardware store";"Toko";"Foto Copy Eki Cibro";"F29F+X8C, Mandumpang, Kec. Suro Makmur, Kabupaten Aceh Singkil, Aceh 23784";"Mandumpang, Kec. Suro Makmur, Kabupaten Aceh Singkil";"ACEH";"23784";"Indonesia";" 082293681493";"2.4699498";"98.0232581";"https://maps.google.com/?cid=0x0:0x125d3c77172c0ff3"
"hardware store";"Toko";"Manik Perabot";"J2M8+X72, Jl. Teuku Umar, Penanggalan, Kec. Penanggalan, Kota Subulussalam, Aceh 24782";"Jl. Teuku Umar, Penanggalan, Kec. Penanggalan, Kota Subulussalam";"ACEH";"24782";"Indonesia";" 082168863111";"2.6348766";"98.0156371";"https://maps.google.com/?cid=0x0:0xd2f2600605fc3e17"
"hardware store";"Toko Bahan Bangunan";"UD CIBRO";"Kecamatan penanggalan, Jln pemancar, Penanggalan, barat, Kota Subulussalam, Aceh 24782";"Jln pemancar, Penanggalan, barat, Kota Subulussalam";"ACEH";"24782";"Indonesia";"";"2.6418848";"98.0126251";"https://maps.google.com/?cid=0x0:0xfbb6442f375baeb3"
"hardware store";"Kantor Perusahaan";"Terminal Subulussalam";"J2W4+JW3, Jl. Cut Nyak Dhien, Subulussalam, Kec. Simpang Kiri, Kota Subulussalam, Aceh 24782";"Jl. Cut Nyak Dhien, Subulussalam, Kec. Simpang Kiri, Kota Subulussalam";"ACEH";"24782";"Indonesia";" 0816374014";"2.6465244";"98.0072916";"https://maps.google.com/?cid=0x0:0xdd3ec59f9a91d9ff"
"hardware store";"Toko Bahan Bangunan";"TB 2 putra";"Peajambu, Kec. Singkohor, Kabupaten Aceh Singkil, Aceh 24783";"Kec. Singkohor, Kabupaten Aceh Singkil";"ACEH";"24783";"Indonesia";"";"2.42686";"97.8855808";"https://maps.google.com/?cid=0x0:0x18794bc95cb2998c"
"hardware store";"Toko Perlengkapan Rumah";"MR.DIY";"Jl. Singkil - Rimo, Tanah Bara, Kec. Gn. Meriah, Kabupaten Aceh Singkil, Aceh 24793";"Tanah Bara, Kec. Gn. Meriah, Kabupaten Aceh Singkil";"ACEH";"24793";"Indonesia";"";"2.3807017";"97.9548061";"https://maps.google.com/?cid=0x0:0x366c68aa881b49be"
"hardware store";"Balai masyarakat";"UD BATU BARA";"Lae Bersih, Kec. Penanggalan, Kota Subulussalam, Aceh";"Kota Subulussalam, Aceh";"ACEH";"";"Indonesia";" 082272541683";"2.6414497";"98.0175587";"https://maps.google.com/?cid=0x0:0x831d5257da198baa"
"hardware store";"Kafe";"Kombih Group";"9XG2+FJC, Tanah Bara, Kec. Gn. Meriah, Kabupaten Aceh Singkil, Aceh 24791";"Tanah Bara, Kec. Gn. Meriah, Kabupaten Aceh Singkil";"ACEH";"24791";"Indonesia";"";"2.3761775";"97.951503";"https://maps.google.com/?cid=0x0:0x468def620194d3d1"
"hardware store";"Pemasok Bahan Bangunan";"PAKARO";"Jl. TR Angkasah, Tanah Bara, Kec. Gn. Meriah, Kabupaten Aceh Singkil, Aceh 23784";"Tanah Bara, Kec. Gn. Meriah, Kabupaten Aceh Singkil";"ACEH";"23784";"Indonesia";" 08566507761";"2.3805611";"97.9550927";"https://maps.google.com/?cid=0x0:0x4926a74f03c52684"
"hardware store";"Toko Alat Tulis Kantor";"ANUGRAH";"J2W3+C23, Jl. Teuku Umar, Subulussalam Sel., Kec. Simpang Kiri, Kota Subulussalam, Aceh 24782";"Jl. Teuku Umar, Subulussalam Sel., Kec. Simpang Kiri, Kota Subulussalam";"ACEH";"24782";"Indonesia";" 082372888736";"2.6460065";"98.0025345";"https://maps.google.com/?cid=0x0:0x25cfec50b971f2b9"
"hardware store";"Toko umum";"Toko FERDIAN Pulau Banyak";"8C26+64R, Pulau Balai, Pulau Banyak, Kabupaten Aceh Singkil, Aceh 24784";"Pulau Balai, Pulau Banyak, Kabupaten Aceh Singkil";"ACEH";"24784";"Indonesia";" 085373262767";"2.3006237";"97.4102575";"https://maps.google.com/?cid=0x0:0xd5e2ee880099c5d2"
"hardware store";"Toko Bahan Bangunan";"UD. Daeng Semesta";"Jl. Cut Nyak Dhien No.39, Subulussalam, Kec. Simpang Kiri, Kota Subulussalam, Aceh 24781";"Subulussalam, Kec. Simpang Kiri, Kota Subulussalam";"ACEH";"24781";"Indonesia";"";"2.6417044";"98.0064085";"https://maps.google.com/?cid=0x0:0x3d61ef5e4d8c63e0"
"supermarket bangunan";"Toko Bahan Bangunan";"TOKO SALWA BARU .";"J2X2+QQG, Subulussalam Utara, Kec. Simpang Kiri, Kota Subulussalam, Aceh 24782";"Subulussalam Utara, Kec. Simpang Kiri, Kota Subulussalam";"ACEH";"24782";"Indonesia";" 08887777666";"2.6494349";"98.0019451";"https://maps.google.com/?cid=0x0:0xb978535b018ffba0"
"supermarket bangunan";"supermarket bangunan";"Aceh 24784";"Kabupaten Aceh Singkil, Aceh";"Kabupaten Aceh Singkil, Aceh";"ACEH";"";"Indonesia";"";"2.152911";"97.2840888";"https://maps.google.com/?cid=0x0:0xab521459bf3c978c"
"supermarket bangunan";"Toko Bahan Bangunan";"TOKO BANGUNAN ALPAJA";"Jl. Teuku Umar, Kampong, Tangga Besi, Kec. Simpang Kiri, Kota Subulussalam, Aceh";"Kota Subulussalam, Aceh";"ACEH";"";"Indonesia";" 085276347778";"2.6673666";"98.0002932";"https://maps.google.com/?cid=0x0:0x43f6af1f04be2ade"
"supermarket bangunan";"Toko Bahan Bangunan";"Samurai Paint - Ud Semesta Subulussalam";"J2R4+868, Subulussalam, Kec. Simpang Kiri, Kota Subulussalam, Aceh 24782";"Subulussalam, Kec. Simpang Kiri, Kota Subulussalam";"ACEH";"24782";"Indonesia";" 082370542102";"2.6407908";"98.0055817";"https://maps.google.com/?cid=0x0:0x7c74d0e53253cf96"
"supermarket bangunan";"Toko Bahan Bangunan";"TB 2 putra";"Peajambu, Kec. Singkohor, Kabupaten Aceh Singkil, Aceh 24783";"Kec. Singkohor, Kabupaten Aceh Singkil";"ACEH";"24783";"Indonesia";"";"2.42686";"97.8855808";"https://maps.google.com/?cid=0x0:0x18794bc95cb2998c"
"supermarket bangunan";"Jasa Konstruksi dan Bangunan";"UD MAJU JAYA Lipat kajang";"Lipat Kajang Atas, Kec. Simpang Kanan, Kabupaten Aceh Singkil, Aceh 24791";"Kec. Simpang Kanan, Kabupaten Aceh Singkil";"ACEH";"24791";"Indonesia";" 08153305862";"2.4349322";"97.9895288";"https://maps.google.com/?cid=0x0:0xa011498b4f77a0ed"
"supermarket bangunan";"Bengkel Peralatan Pertanian";"UD.PATASE";"84H4+4C7, Biskang, Kec. Danau Paris, Kabupaten Aceh Singkil, Aceh 24472";"Biskang, Kec. Danau Paris, Kabupaten Aceh Singkil";"ACEH";"24472";"Indonesia";"";"2.3277797";"98.1060605";"https://maps.google.com/?cid=0x0:0xbf0772dd00cc53ca"
"supermarket bangunan";"Toko Bahan Bangunan";"TOKO 2 SAHABAT";"9XV7+397, Rimo, Kec. Gn. Meriah, Kabupaten Aceh Singkil, Aceh 24791";"Rimo, Kec. Gn. Meriah, Kabupaten Aceh Singkil";"ACEH";"24791";"Indonesia";"";"2.3926596";"97.9634371";"https://maps.google.com/?cid=0x0:0x91a26a50d9f41256"
"supermarket bangunan";"Toko Bahan Bangunan";"TOKO FAJAR PRIMA";"J2X3+7QX, Jl. Nyak Adam Kamil, Subulussalam Utara, Kec. Simpang Kiri, Kota Subulussalam, Aceh 24782";"Jl. Nyak Adam Kamil, Subulussalam Utara, Kec. Simpang Kiri, Kota Subulussalam";"ACEH";"24782";"Indonesia";"";"2.6482457";"98.0044922";"https://maps.google.com/?cid=0x0:0x76fa0ce7737fff45"
"supermarket bangunan";"Toko Bahan Bangunan";"UD. Daeng Semesta";"Jl. Cut Nyak Dhien No.39, Subulussalam, Kec. Simpang Kiri, Kota Subulussalam, Aceh 24781";"Subulussalam, Kec. Simpang Kiri, Kota Subulussalam";"ACEH";"24781";"Indonesia";"";"2.6417044";"98.0064085";"https://maps.google.com/?cid=0x0:0x3d61ef5e4d8c63e0"
"supermarket bangunan";"Kantor Perusahaan";"Bumdes Blok VI Baru";"9XM9+JGG, Jln- Balai Desa, Blk. VI Baru, Kec. Gn. Meriah, Kabupaten Aceh Singkil, Aceh 24784";"Jln- Balai Desa, Blk. VI Baru, Kec. Gn. Meriah, Kabupaten Aceh Singkil";"ACEH";"24784";"Indonesia";" 082275020281";"2.3840675";"97.9688222";"https://maps.google.com/?cid=0x0:0xba000d923c643d6a"
"supermarket bangunan";"Toko Bahan Bangunan";"UD.SISIFA";"Subulussalam, Kec. Simpang Kiri, Kota Subulussalam, Aceh 24782";"Kec. Simpang Kiri, Kota Subulussalam";"ACEH";"24782";"Indonesia";" 081370822418";"2.6414357";"98.0170478";"https://maps.google.com/?cid=0x0:0x411bfb1d6b0656be"
"supermarket bangunan";"Toko Bahan Bangunan";"Toko dua sahabat trans 26";"CWG8+PM, Bukit Harapan, Kec. Gn. Meriah, Kabupaten Aceh Singkil, Aceh";"Kabupaten Aceh Singkil, Aceh";"ACEH";"";"Indonesia";"";"2.4266788";"97.9166988";"https://maps.google.com/?cid=0x0:0x82b7de30d35cd588"
"supermarket bangunan";"Toko Bahan Bangunan";"Toko Bangunan Ashima";"J2R2+RVF, Subulussalam Sel., Kec. Simpang Kiri, Kota Subulussalam, Aceh 24782";"Subulussalam Sel., Kec. Simpang Kiri, Kota Subulussalam";"ACEH";"24782";"Indonesia";" 081377177107";"2.6420713";"98.0021745";"https://maps.google.com/?cid=0x0:0xbcab138a31454ac9"
"supermarket bangunan";"Toko Bahan Bangunan";"toko bangunan hidup baru";"PQCR+3XG, Jl. Pante Raya, Cinta Damai, Kec. Wih Pesam, Kabupaten Bener Meriah, Aceh 24471";"Jl. Pante Raya, Cinta Damai, Kec. Wih Pesam, Kabupaten Bener Meriah";"ACEH";"24471";"Indonesia";" 081362949742";"4.7201845";"96.792454";"https://maps.google.com/?cid=0x0:0x3a808a62b35c515f"
"supermarket bangunan";"supermarket bangunan";"Aceh 24784";"Kabupaten Aceh Singkil, Aceh";"Kabupaten Aceh Singkil, Aceh";"ACEH";"";"Indonesia";"";"2.152911";"97.2840888";"https://maps.google.com/?cid=0x0:0xab521459bf3c978c"
"supermarket bangunan";"supermarket bangunan";"Toko bangunan Randi";"GVCJ+R3W Camar 2, Sumber Mukti, Kec. Kota Baharu, Kabupaten Aceh Singkil, Aceh";"Kabupaten Aceh Singkil, Aceh";"ACEH";"";"Indonesia";"";"2.5221132";"97.8802091";"https://maps.google.com/?cid=0x0:0x8284a189207b2dee"
"supermarket bangunan";"Toko Bahan Bangunan";"TOKO 2 SAHABAT";"9XV7+397, Rimo, Kec. Gn. Meriah, Kabupaten Aceh Singkil, Aceh 24791";"Rimo, Kec. Gn. Meriah, Kabupaten Aceh Singkil";"ACEH";"24791";"Indonesia";"";"2.3926596";"97.9634371";"https://maps.google.com/?cid=0x0:0x91a26a50d9f41256"
"supermarket bangunan";"Toko Bahan Bangunan";"Toko dua sahabat trans 26";"CWG8+PM, Bukit Harapan, Kec. Gn. Meriah, Kabupaten Aceh Singkil, Aceh";"Kabupaten Aceh Singkil, Aceh";"ACEH";"";"Indonesia";"";"2.4266788";"97.9166988";"https://maps.google.com/?cid=0x0:0x82b7de30d35cd588"
"supermarket bangunan";"supermarket bangunan";"Aceh 24784";"Kabupaten Aceh Singkil, Aceh";"Kabupaten Aceh Singkil, Aceh";"ACEH";"";"Indonesia";"";"2.152911";"97.2840888";"https://maps.google.com/?cid=0x0:0xab521459bf3c978c"
"supermarket bangunan";"Toko Bahan Bangunan";"TOKO SALWA BARU .";"J2X2+QQG, Subulussalam Utara, Kec. Simpang Kiri, Kota Subulussalam, Aceh 24782";"Subulussalam Utara, Kec. Simpang Kiri, Kota Subulussalam";"ACEH";"24782";"Indonesia";" 08887777666";"2.6494349";"98.0019451";"https://maps.google.com/?cid=0x0:0xb978535b018ffba0"
"supermarket bangunan";"Toko Bahan Bangunan";"TOKO BANGUNAN ALPAJA";"Jl. Teuku Umar, Kampong, Tangga Besi, Kec. Simpang Kiri, Kota Subulussalam, Aceh";"Kota Subulussalam, Aceh";"ACEH";"";"Indonesia";" 085276347778";"2.6673666";"98.0002932";"https://maps.google.com/?cid=0x0:0x43f6af1f04be2ade"
"supermarket bangunan";"Toko Bahan Bangunan";"TB 2 putra";"Peajambu, Kec. Singkohor, Kabupaten Aceh Singkil, Aceh 24783";"Kec. Singkohor, Kabupaten Aceh Singkil";"ACEH";"24783";"Indonesia";"";"2.42686";"97.8855808";"https://maps.google.com/?cid=0x0:0x18794bc95cb2998c"
"supermarket bangunan";"Toko";"UD.TANGAH(toko bangunan)";"QVWR+W88, Jl. Tapaktuan - Subulussalam, Suka Maju, Kec. Sultan Daulat, Kota Subulussalam, Aceh 24782";"Jl. Tapaktuan - Subulussalam, Suka Maju, Kec. Sultan Daulat, Kota Subulussalam";"ACEH";"24782";"Indonesia";" 085262227756";"2.7972907";"97.8908189";"https://maps.google.com/?cid=0x0:0x296bfda3e1340b24"
"supermarket bangunan";"Toko Bahan Bangunan";"Zahra Bangunan";"Jl. Dr. Mr. Mohd Hasan, Batoh, Kec. Lueng Bata, Kota Banda Aceh, Aceh 23127";"Batoh, Kec. Lueng Bata, Kota Banda Aceh";"ACEH";"23127";"Indonesia";" 083191742636";"5.5425651";"95.3305542";"https://maps.google.com/?cid=0x0:0x9785538145c2ac3"
"supermarket bangunan";"Toko Bahan Bangunan";"TOKO 2 SAHABAT";"9XV7+397, Rimo, Kec. Gn. Meriah, Kabupaten Aceh Singkil, Aceh 24791";"Rimo, Kec. Gn. Meriah, Kabupaten Aceh Singkil";"ACEH";"24791";"Indonesia";"";"2.3926596";"97.9634371";"https://maps.google.com/?cid=0x0:0x91a26a50d9f41256"
"supermarket bangunan";"Jasa Konstruksi dan Bangunan";"UD MAJU JAYA Lipat kajang";"Lipat Kajang Atas, Kec. Simpang Kanan, Kabupaten Aceh Singkil, Aceh 24791";"Kec. Simpang Kanan, Kabupaten Aceh Singkil";"ACEH";"24791";"Indonesia";" 08153305862";"2.4349322";"97.9895288";"https://maps.google.com/?cid=0x0:0xa011498b4f77a0ed"
"supermarket bangunan";"Toko Bahan Bangunan";"TOKO FAJAR PRIMA";"J2X3+7QX, Jl. Nyak Adam Kamil, Subulussalam Utara, Kec. Simpang Kiri, Kota Subulussalam, Aceh 24782";"Jl. Nyak Adam Kamil, Subulussalam Utara, Kec. Simpang Kiri, Kota Subulussalam";"ACEH";"24782";"Indonesia";"";"2.6482457";"98.0044922";"https://maps.google.com/?cid=0x0:0x76fa0ce7737fff45"
"supermarket bangunan";"Toko Bahan Bangunan";"Toko Bangunan Restu Baru";"Punge Jurong, Kec. Meuraxa, Kota Banda Aceh, Aceh";"Kota Banda Aceh, Aceh";"ACEH";"";"Indonesia";" 083191742636";"5.5505698";"95.3063395";"https://maps.google.com/?cid=0x0:0x19be35fae5e58e08"
"supermarket bangunan";"Toko Bahan Bangunan";"Samurai Paint - Ud Semesta Subulussalam";"J2R4+868, Subulussalam, Kec. Simpang Kiri, Kota Subulussalam, Aceh 24782";"Subulussalam, Kec. Simpang Kiri, Kota Subulussalam";"ACEH";"24782";"Indonesia";" 082370542102";"2.6407908";"98.0055817";"https://maps.google.com/?cid=0x0:0x7c74d0e53253cf96"
"supermarket bangunan";"Toko Bahan Bangunan";"Toko dua sahabat trans 26";"CWG8+PM, Bukit Harapan, Kec. Gn. Meriah, Kabupaten Aceh Singkil, Aceh";"Kabupaten Aceh Singkil, Aceh";"ACEH";"";"Indonesia";"";"2.4266788";"97.9166988";"https://maps.google.com/?cid=0x0:0x82b7de30d35cd588"
"supermarket bangunan";"Toko Bahan Bangunan";"Toko Bangunan Ashima";"J2R2+RVF, Subulussalam Sel., Kec. Simpang Kiri, Kota Subulussalam, Aceh 24782";"Subulussalam Sel., Kec. Simpang Kiri, Kota Subulussalam";"ACEH";"24782";"Indonesia";" 081377177107";"2.6420713";"98.0021745";"https://maps.google.com/?cid=0x0:0xbcab138a31454ac9"
"supermarket bangunan";"Toko Bahan Bangunan";"UD. RAHMAWATI (H. MASIDIN)";"Jl. H. M Thaher No.204, Ujung, Kec. Singkil, Kabupaten Aceh Singkil, Aceh";"Kabupaten Aceh Singkil, Aceh";"ACEH";"";"Indonesia";"";"2.285753";"97.7817338";"https://maps.google.com/?cid=0x0:0x83ee85986b969b73"
"supermarket bangunan";"Toko Bahan Bangunan";"Satahi. UD";"7QMR+7RF, JL. Sultan Iskandar Muda, Ps. Singkil, Kec. Singkil, Kabupaten Aceh Singkil, Aceh 24472";"JL. Sultan Iskandar Muda, Ps. Singkil, Kec. Singkil, Kabupaten Aceh Singkil";"ACEH";"24472";"Indonesia";" 065821573";"2.283178";"97.792053";"https://maps.google.com/?cid=0x0:0x223141e6efa4d22b"
"supermarket bangunan";"Toko Bahan Bangunan";"UD. RAHMAWATI (H. MASIDIN)";"Jl. H. M Thaher No.204, Ujung, Kec. Singkil, Kabupaten Aceh Singkil, Aceh";"Kabupaten Aceh Singkil, Aceh";"ACEH";"";"Indonesia";"";"2.285753";"97.7817338";"https://maps.google.com/?cid=0x0:0x83ee85986b969b73"
"supermarket bangunan";"supermarket bangunan";"Kec. Kuala Baru";"Kabupaten Aceh Singkil, Aceh";"Kabupaten Aceh Singkil, Aceh";"ACEH";"";"Indonesia";"";"2.3496125";"97.7112967";"https://maps.google.com/?cid=0x0:0x48a3d100d6cd113b"
"supermarket bangunan";"Kantor Perusahaan";"Bumdes Blok VI Baru";"9XM9+JGG, Jln- Balai Desa, Blk. VI Baru, Kec. Gn. Meriah, Kabupaten Aceh Singkil, Aceh 24784";"Jln- Balai Desa, Blk. VI Baru, Kec. Gn. Meriah, Kabupaten Aceh Singkil";"ACEH";"24784";"Indonesia";" 082275020281";"2.3840675";"97.9688222";"https://maps.google.com/?cid=0x0:0xba000d923c643d6a"
"supermarket bangunan";"Toko Bahan Bangunan";"TOKO SALWA BARU .";"J2X2+QQG, Subulussalam Utara, Kec. Simpang Kiri, Kota Subulussalam, Aceh 24782";"Subulussalam Utara, Kec. Simpang Kiri, Kota Subulussalam";"ACEH";"24782";"Indonesia";" 08887777666";"2.6494349";"98.0019451";"https://maps.google.com/?cid=0x0:0xb978535b018ffba0"
"supermarket bangunan";"Minimarket";"Toko Bangunan Adma Jaya";"7RG3+FX4, Jl. Singkil - Rimo, Pulo Sarok, Kec. Singkil, Kabupaten Aceh Singkil, Aceh 24472";"Jl. Singkil - Rimo, Pulo Sarok, Kec. Singkil, Kabupaten Aceh Singkil";"ACEH";"24472";"Indonesia";"";"2.2761342";"97.8049657";"https://maps.google.com/?cid=0x0:0x9cb8c662ca79fde2"
"supermarket bangunan";"Toko Bahan Bangunan";"Toko Bangunan Restu Baru";"Punge Jurong, Kec. Meuraxa, Kota Banda Aceh, Aceh";"Kota Banda Aceh, Aceh";"ACEH";"";"Indonesia";" 083191742636";"5.5505698";"95.3063395";"https://maps.google.com/?cid=0x0:0x19be35fae5e58e08"
"supermarket bangunan";"Toko Bahan Bangunan";"TB 2 putra";"Peajambu, Kec. Singkohor, Kabupaten Aceh Singkil, Aceh 24783";"Kec. Singkohor, Kabupaten Aceh Singkil";"ACEH";"24783";"Indonesia";"";"2.42686";"97.8855808";"https://maps.google.com/?cid=0x0:0x18794bc95cb2998c"
"supermarket bangunan";"Toko Bahan Bangunan";"Toko dua sahabat trans 26";"CWG8+PM, Bukit Harapan, Kec. Gn. Meriah, Kabupaten Aceh Singkil, Aceh";"Kabupaten Aceh Singkil, Aceh";"ACEH";"";"Indonesia";"";"2.4266788";"97.9166988";"https://maps.google.com/?cid=0x0:0x82b7de30d35cd588"
"supermarket bangunan";"Toko Bahan Bangunan";"TOKO 2 SAHABAT";"9XV7+397, Rimo, Kec. Gn. Meriah, Kabupaten Aceh Singkil, Aceh 24791";"Rimo, Kec. Gn. Meriah, Kabupaten Aceh Singkil";"ACEH";"24791";"Indonesia";"";"2.3926596";"97.9634371";"https://maps.google.com/?cid=0x0:0x91a26a50d9f41256"
"supermarket bangunan";"Toko Perlengkapan Rumah";"Toko BUANA BARU";"VJVG+XHP, Simpang Tiga Desa Pulo Paya, Simpang Kompi, Kec. Trumon Tengah, Kabupaten Aceh Selatan, Aceh 23775";"Simpang Tiga Desa Pulo Paya, Simpang Kompi, Kec. Trumon Tengah, Kabupaten Aceh Selatan";"ACEH";"23775";"Indonesia";" 082360904035";"2.8949547";"97.6264382";"https://maps.google.com/?cid=0x0:0x3d81ae11336e5f41"
"supermarket bangunan";"Toko";"UD.TANGAH(toko bangunan)";"QVWR+W88, Jl. Tapaktuan - Subulussalam, Suka Maju, Kec. Sultan Daulat, Kota Subulussalam, Aceh 24782";"Jl. Tapaktuan - Subulussalam, Suka Maju, Kec. Sultan Daulat, Kota Subulussalam";"ACEH";"24782";"Indonesia";" 085262227756";"2.7972907";"97.8908189";"https://maps.google.com/?cid=0x0:0x296bfda3e1340b24"
"supermarket bangunan";"Toko";"Toko bangunan sinar baru";"rima, Jalan ulee lheu - simpang, Lamjamee, Kec. Jaya Baru, Kota Banda Aceh, Aceh 23234";"Jalan ulee lheu - simpang, Lamjamee, Kec. Jaya Baru, Kota Banda Aceh";"ACEH";"23234";"Indonesia";" 082361058888";"5.5398079";"95.2848595";"https://maps.google.com/?cid=0x0:0x7657166469a743c7"
"supermarket bangunan";"Toko Bahan Bangunan";"Toko bangunan / toko bahan bangunan";"H9J7+PM3, Rukoh, Kec. Syiah Kuala, Kota Banda Aceh, Aceh";"Kota Banda Aceh, Aceh";"ACEH";"";"Indonesia";"";"5.581784";"95.3641847";"https://maps.google.com/?cid=0x0:0xca53fca6947362de"
"supermarket bangunan";"supermarket bangunan";"Pulau Banyak";"Kabupaten Aceh Singkil, Aceh";"Kabupaten Aceh Singkil, Aceh";"ACEH";"";"Indonesia";"";"2.3198851";"97.413802";"https://maps.google.com/?cid=0x0:0xf22eba8ba0db80e0"
"supermarket bangunan";"supermarket bangunan";"Toko Bahan Bangunan (Usaha Kita)";"CXQR+4QF, Lipat Kajang Atas, Kec. Simpang Kanan, Kabupaten Aceh Singkil, Aceh 24791";"Lipat Kajang Atas, Kec. Simpang Kanan, Kabupaten Aceh Singkil";"ACEH";"24791";"Indonesia";"";"2.437814";"97.9919101";"https://maps.google.com/?cid=0x0:0xc53e006c3cfa75cd"
"supermarket bangunan";"Toko Bahan Bangunan";"TOKO 2 SAHABAT";"9XV7+397, Rimo, Kec. Gn. Meriah, Kabupaten Aceh Singkil, Aceh 24791";"Rimo, Kec. Gn. Meriah, Kabupaten Aceh Singkil";"ACEH";"24791";"Indonesia";"";"2.3926596";"97.9634371";"https://maps.google.com/?cid=0x0:0x91a26a50d9f41256"
"supermarket bangunan";"Toko Bahan Bangunan";"Pasar Bangunan";"Jl. Wolter Monginsidi No.117, Bangetayu Wetan, Kec. Genuk, Kota Semarang, Jawa Tengah 50115";"Bangetayu Wetan, Kec. Genuk, Kota Semarang";"ACEH";"50115";"Indonesia";" 08112674402";"-6.979766";"110.480422";"https://maps.google.com/?cid=0x0:0x8a3a790a4eba4c08"
"supermarket bangunan";"supermarket bangunan";"Toko Alat Bangunan (Digan)";"C2V6+56J, Kuta Kerangan, Kec. Simpang Kanan, Kabupaten Aceh Singkil, Aceh 24791";"Kuta Kerangan, Kec. Simpang Kanan, Kabupaten Aceh Singkil";"ACEH";"24791";"Indonesia";"";"2.4429597";"98.0105148";"https://maps.google.com/?cid=0x0:0xd4bb241c241517e4"
"supermarket bangunan";"Pemasok Bahan Bangunan";"Supermarket Bangunan Abadi ( Bangunan Abadi ) Meruya";"Jl. Meruya Ilir Raya No.13 3, RT.3/RW.2, Meruya Utara, Kec. Kembangan, Kota Jakarta Barat, Daerah Khusus Ibukota Jakarta 11610";"RT.3/RW.2, Meruya Utara, Kec. Kembangan, Kota Jakarta Barat";"ACEH";"11610";"Indonesia";" 0215856801";"-6.1976477";"106.7425118";"https://maps.google.com/?cid=0x0:0x13872e6ebcfc2cac"
"supermarket bangunan";"supermarket bangunan";"Toko Bahan Bangunan (Usaha Kita)";"CXQR+4QF, Lipat Kajang Atas, Kec. Simpang Kanan, Kabupaten Aceh Singkil, Aceh 24791";"Lipat Kajang Atas, Kec. Simpang Kanan, Kabupaten Aceh Singkil";"ACEH";"24791";"Indonesia";"";"2.437814";"97.9919101";"https://maps.google.com/?cid=0x0:0xc53e006c3cfa75cd"
"supermarket bangunan";"Toko Bahan Bangunan";"Cahaya Bangunan";"4, Jl. Meruya Ilir Raya No.82C, RT.4/RW.8, Srengseng, Kec. Kembangan, Kota Jakarta Barat, Daerah Khusus Ibukota Jakarta 11620";"Jl. Meruya Ilir Raya No.82C, RT.4/RW.8, Srengseng, Kec. Kembangan, Kota Jakarta Barat";"ACEH";"11620";"Indonesia";" 0215868105";"-6.1976475";"106.7530909";"https://maps.google.com/?cid=0x0:0x71fab95142362a49"
"supermarket bangunan";"supermarket bangunan";"Kec. Pulau Banyak Bar.";"Kabupaten Aceh Singkil, Aceh";"Kabupaten Aceh Singkil, Aceh";"ACEH";"";"Indonesia";"";"2.2278739";"97.2326992";"https://maps.google.com/?cid=0x0:0x154c9da37cf5674f"
"supermarket bangunan";"Toko Bahan Bangunan";"Pratama Supermarket Bahan Bangunan Sukatani";"Jl. Pilar Sukatani No.204, Sukaraya, Kec. Karangbahagia, Kabupaten Bekasi, Jawa Barat 17535";"Sukaraya, Kec. Karangbahagia, Kabupaten Bekasi";"ACEH";"17535";"Indonesia";" 02189072770";"-6.217434";"107.1664019";"https://maps.google.com/?cid=0x0:0xcc40347a47d8a121"
"supermarket bangunan";"supermarket bangunan";"Aceh 24783";"Kabupaten Aceh Singkil, Aceh";"Kabupaten Aceh Singkil, Aceh";"ACEH";"";"Indonesia";"";"2.4071732";"97.991986";"https://maps.google.com/?cid=0x0:0x4541045a0abeaf53"
"supermarket bangunan";"Jasa Konstruksi dan Bangunan";"UD MAJU JAYA Lipat kajang";"Lipat Kajang Atas, Kec. Simpang Kanan, Kabupaten Aceh Singkil, Aceh 24791";"Kec. Simpang Kanan, Kabupaten Aceh Singkil";"ACEH";"24791";"Indonesia";" 08153305862";"2.4349322";"97.9895288";"https://maps.google.com/?cid=0x0:0xa011498b4f77a0ed"
"supermarket bangunan";"Toko Bahan Bangunan";"TB 2 putra";"Peajambu, Kec. Singkohor, Kabupaten Aceh Singkil, Aceh 24783";"Kec. Singkohor, Kabupaten Aceh Singkil";"ACEH";"24783";"Indonesia";"";"2.42686";"97.8855808";"https://maps.google.com/?cid=0x0:0x18794bc95cb2998c"
"supermarket bangunan";"Toko Bahan Bangunan";"Toko dua sahabat trans 26";"CWG8+PM, Bukit Harapan, Kec. Gn. Meriah, Kabupaten Aceh Singkil, Aceh";"Kabupaten Aceh Singkil, Aceh";"ACEH";"";"Indonesia";"";"2.4266788";"97.9166988";"https://maps.google.com/?cid=0x0:0x82b7de30d35cd588"
"supermarket bangunan";"Toko Bahan Bangunan";"TOKO SALWA BARU .";"J2X2+QQG, Subulussalam Utara, Kec. Simpang Kiri, Kota Subulussalam, Aceh 24782";"Subulussalam Utara, Kec. Simpang Kiri, Kota Subulussalam";"ACEH";"24782";"Indonesia";" 08887777666";"2.6494349";"98.0019451";"https://maps.google.com/?cid=0x0:0xb978535b018ffba0"
"supermarket bangunan";"Toko Bahan Bangunan";"UD.SISIFA";"Subulussalam, Kec. Simpang Kiri, Kota Subulussalam, Aceh 24782";"Kec. Simpang Kiri, Kota Subulussalam";"ACEH";"24782";"Indonesia";" 081370822418";"2.6414357";"98.0170478";"https://maps.google.com/?cid=0x0:0x411bfb1d6b0656be"
"supermarket bangunan";"Toko Bahan Bangunan";"Samurai Paint - Ud Semesta Subulussalam";"J2R4+868, Subulussalam, Kec. Simpang Kiri, Kota Subulussalam, Aceh 24782";"Subulussalam, Kec. Simpang Kiri, Kota Subulussalam";"ACEH";"24782";"Indonesia";" 082370542102";"2.6407908";"98.0055817";"https://maps.google.com/?cid=0x0:0x7c74d0e53253cf96"
"supermarket bangunan";"Toko Bahan Bangunan";"TOKO BANGUNAN ALPAJA";"Jl. Teuku Umar, Kampong, Tangga Besi, Kec. Simpang Kiri, Kota Subulussalam, Aceh";"Kota Subulussalam, Aceh";"ACEH";"";"Indonesia";" 085276347778";"2.6673666";"98.0002932";"https://maps.google.com/?cid=0x0:0x43f6af1f04be2ade"
"supermarket bangunan";"Toko Bahan Bangunan";"TOKO FAJAR PRIMA";"J2X3+7QX, Jl. Nyak Adam Kamil, Subulussalam Utara, Kec. Simpang Kiri, Kota Subulussalam, Aceh 24782";"Jl. Nyak Adam Kamil, Subulussalam Utara, Kec. Simpang Kiri, Kota Subulussalam";"ACEH";"24782";"Indonesia";"";"2.6482457";"98.0044922";"https://maps.google.com/?cid=0x0:0x76fa0ce7737fff45"
"supermarket bangunan";"Pemasok Bahan Bangunan";"PAKARO";"Jl. TR Angkasah, Tanah Bara, Kec. Gn. Meriah, Kabupaten Aceh Singkil, Aceh 23784";"Tanah Bara, Kec. Gn. Meriah, Kabupaten Aceh Singkil";"ACEH";"23784";"Indonesia";" 08566507761";"2.3805611";"97.9550927";"https://maps.google.com/?cid=0x0:0x4926a74f03c52684"
"supermarket bangunan";"Produsen batu bata";"Batako Loster Minimalis";"CX6C+C7W, Jl. Subulussalam, Sianjo Anjo Meriah, Kec. Gn. Meriah, Kabupaten Aceh Singkil, Aceh";"Kabupaten Aceh Singkil, Aceh";"ACEH";"";"Indonesia";" 082294214764";"2.4116562";"97.9719819";"https://maps.google.com/?cid=0x0:0x906e35e38aea01a1"
"supermarket bangunan";"Toko Bahan Bangunan";"UD. Daeng Semesta";"Jl. Cut Nyak Dhien No.39, Subulussalam, Kec. Simpang Kiri, Kota Subulussalam, Aceh 24781";"Subulussalam, Kec. Simpang Kiri, Kota Subulussalam";"ACEH";"24781";"Indonesia";"";"2.6417044";"98.0064085";"https://maps.google.com/?cid=0x0:0x3d61ef5e4d8c63e0"
"supermarket bangunan";"Toko Bahan Bangunan";"UD CIBRO";"Kecamatan penanggalan, Jln pemancar, Penanggalan, barat, Kota Subulussalam, Aceh 24782";"Jln pemancar, Penanggalan, barat, Kota Subulussalam";"ACEH";"24782";"Indonesia";"";"2.6418848";"98.0126251";"https://maps.google.com/?cid=0x0:0xfbb6442f375baeb3"
"supermarket bangunan";"Kantor Perusahaan";"Bumdes Blok VI Baru";"9XM9+JGG, Jln- Balai Desa, Blk. VI Baru, Kec. Gn. Meriah, Kabupaten Aceh Singkil, Aceh 24784";"Jln- Balai Desa, Blk. VI Baru, Kec. Gn. Meriah, Kabupaten Aceh Singkil";"ACEH";"24784";"Indonesia";" 082275020281";"2.3840675";"97.9688222";"https://maps.google.com/?cid=0x0:0xba000d923c643d6a"
"supermarket bangunan";"supermarket bangunan";"Riau 28992";"Kabupaten Rokan Hilir, Riau";"Kabupaten Rokan Hilir, Riau";"ACEH";"";"Indonesia";"";"1.6089504";"100.6647101";"https://maps.google.com/?cid=0x0:0x2b7f1924f159497b"
"supermarket bangunan";"supermarket bangunan";"Kec. Simpang Kanan";"Kabupaten Aceh Singkil, Aceh";"Kabupaten Aceh Singkil, Aceh";"ACEH";"";"Indonesia";"";"2.4382133";"97.9903392";"https://maps.google.com/?cid=0x0:0x8d3290c62e81c9f0"
"supermarket bangunan";"Toko";"Toko bangunan sinar baru";"rima, Jalan ulee lheu - simpang, Lamjamee, Kec. Jaya Baru, Kota Banda Aceh, Aceh 23234";"Jalan ulee lheu - simpang, Lamjamee, Kec. Jaya Baru, Kota Banda Aceh";"ACEH";"23234";"Indonesia";" 082361058888";"5.5398079";"95.2848595";"https://maps.google.com/?cid=0x0:0x7657166469a743c7"
"supermarket bangunan";"supermarket bangunan";"Toko Alat Bangunan";"C2QM+FPG, Siatas, Kec. Simpang Kanan, Kabupaten Aceh Singkil, Aceh 24784";"Siatas, Kec. Simpang Kanan, Kabupaten Aceh Singkil";"ACEH";"24784";"Indonesia";"";"2.4386895";"98.0343137";"https://maps.google.com/?cid=0x0:0xc16f151277294383"
"supermarket bangunan";"Toko Bahan Bangunan";"Bintang Maju";"R7XX+HQQ Pasar baru, Simpang Kanan, Kec. Simpang Kanan, Kabupaten Rokan Hilir, Riau 28994";"Simpang Kanan, Kec. Simpang Kanan, Kabupaten Rokan Hilir";"ACEH";"28994";"Indonesia";" 085265666336";"1.8494235";"100.298891";"https://maps.google.com/?cid=0x0:0x3dcf3f397f1785be"
"supermarket bangunan";"Toko Bahan Bangunan";"Maju bersama";"VC58+PV3, Kota Parit, Kec. Simpang Kanan, Kabupaten Rokan Hilir, Riau";"Kabupaten Rokan Hilir, Riau";"ACEH";"";"Indonesia";"";"1.8592516";"100.417181";"https://maps.google.com/?cid=0x0:0x943fcd8ed3f40316"
"supermarket bangunan";"Toko Bahan Bangunan";"Toko Bangun Utama";"Jalan Jendral Sudirman Kelurahan Bagan Batu Kota, Bagan Batu, Kec. Bagan Sinembah, Kabupaten Rokan Hilir, Riau 28992";"Bagan Batu, Kec. Bagan Sinembah, Kabupaten Rokan Hilir";"ACEH";"28992";"Indonesia";" 076551164";"1.7003232";"100.4056952";"https://maps.google.com/?cid=0x0:0xd0d7e864a555711c"
"supermarket bangunan";"Toko Bahan Bangunan";"Toko BautCat";"P98R+358, Jalan Jendral Sudirman Kelurahan Bagan Batu, Kota, Kec. Bagan Sinembah, Kabupaten Rokan Hilir, Riau 28992";"Jalan Jendral Sudirman Kelurahan Bagan Batu, Kota, Kec. Bagan Sinembah, Kabupaten Rokan Hilir";"ACEH";"28992";"Indonesia";" 082386170168";"1.7151591";"100.3904609";"https://maps.google.com/?cid=0x0:0x20cdcdae6f5fa07e"
"supermarket bangunan";"Toko";"Ud Ridho Bukitdamar";"R9X6+XCR, Bukit Damar, Kec. Simpang Kanan, Kabupaten Rokan Hilir, Riau 28992";"Bukit Damar, Kec. Simpang Kanan, Kabupaten Rokan Hilir";"ACEH";"28992";"Indonesia";"";"1.8499798";"100.3610179";"https://maps.google.com/?cid=0x0:0x563dfd07a514d380"
"supermarket bangunan";"Toko Bahan Bangunan";"Toko Bangunan Asli";"5R54+WWV, Bagan Kota, Kec. Bangko, Kabupaten Rokan Hilir, Riau 28912";"Bagan Kota, Kec. Bangko, Kabupaten Rokan Hilir";"ACEH";"28912";"Indonesia";" 076721468";"2.1598584";"100.8072957";"https://maps.google.com/?cid=0x0:0x506cecee5069b83c"
"supermarket bangunan";"supermarket bangunan";"AscFaKiNG8KJ4-EPhNvd0AU"-,null,null,1,null,"https://www.google.com/maps/preview/place/Konten+kreator/@2.0708884,100.8053555,3987a,13.1y/datau003d!4m2!3m1!1s0x81ad7066619af18b:0x2b216dad68996644";"";"";"ACEH";"";"Indonesia";" 081225691020";"2.0708884";"100.8053555";"https://maps.google.com/?cid=0x0:0x2b216dad68996644"
"supermarket bangunan";"supermarket bangunan";"Aceh 24785";"Kec. Kota Baharu, Kabupaten Aceh Singkil, Aceh";"Kabupaten Aceh Singkil, Aceh";"ACEH";"";"Indonesia";"";"2.4523065";"97.8123224";"https://maps.google.com/?cid=0x0:0x571276798298d3f5"
"supermarket bangunan";"Toko Bahan Bangunan";"Toko dua sahabat trans 26";"CWG8+PM, Bukit Harapan, Kec. Gn. Meriah, Kabupaten Aceh Singkil, Aceh";"Kabupaten Aceh Singkil, Aceh";"ACEH";"";"Indonesia";"";"2.4266788";"97.9166988";"https://maps.google.com/?cid=0x0:0x82b7de30d35cd588"
"supermarket bangunan";"Toko Bahan Bangunan";"TOKO 2 SAHABAT";"9XV7+397, Rimo, Kec. Gn. Meriah, Kabupaten Aceh Singkil, Aceh 24791";"Rimo, Kec. Gn. Meriah, Kabupaten Aceh Singkil";"ACEH";"24791";"Indonesia";"";"2.3926596";"97.9634371";"https://maps.google.com/?cid=0x0:0x91a26a50d9f41256"
"supermarket bangunan";"Toko Bahan Bangunan";"UD. RAHMAWATI (H. MASIDIN)";"Jl. H. M Thaher No.204, Ujung, Kec. Singkil, Kabupaten Aceh Singkil, Aceh";"Kabupaten Aceh Singkil, Aceh";"ACEH";"";"Indonesia";"";"2.285753";"97.7817338";"https://maps.google.com/?cid=0x0:0x83ee85986b969b73"
"supermarket bangunan";"Minimarket";"Toko Bangunan Adma Jaya";"7RG3+FX4, Jl. Singkil - Rimo, Pulo Sarok, Kec. Singkil, Kabupaten Aceh Singkil, Aceh 24472";"Jl. Singkil - Rimo, Pulo Sarok, Kec. Singkil, Kabupaten Aceh Singkil";"ACEH";"24472";"Indonesia";"";"2.2761342";"97.8049657";"https://maps.google.com/?cid=0x0:0x9cb8c662ca79fde2"
"supermarket bangunan";"Pemasok Bahan Bangunan";"PAKARO";"Jl. TR Angkasah, Tanah Bara, Kec. Gn. Meriah, Kabupaten Aceh Singkil, Aceh 23784";"Tanah Bara, Kec. Gn. Meriah, Kabupaten Aceh Singkil";"ACEH";"23784";"Indonesia";" 08566507761";"2.3805611";"97.9550927";"https://maps.google.com/?cid=0x0:0x4926a74f03c52684"
"supermarket bangunan";"Toko Bahan Bangunan";"Satahi. UD";"7QMR+7RF, JL. Sultan Iskandar Muda, Ps. Singkil, Kec. Singkil, Kabupaten Aceh Singkil, Aceh 24472";"JL. Sultan Iskandar Muda, Ps. Singkil, Kec. Singkil, Kabupaten Aceh Singkil";"ACEH";"24472";"Indonesia";" 065821573";"2.283178";"97.792053";"https://maps.google.com/?cid=0x0:0x223141e6efa4d22b"
"supermarket bangunan";"supermarket bangunan";"Toko Alat Bangunan";"C2QM+FPG, Siatas, Kec. Simpang Kanan, Kabupaten Aceh Singkil, Aceh 24784";"Siatas, Kec. Simpang Kanan, Kabupaten Aceh Singkil";"ACEH";"24784";"Indonesia";"";"2.4386895";"98.0343137";"https://maps.google.com/?cid=0x0:0xc16f151277294383"
"supermarket bangunan";"Toko Perlengkapan Rumah";"Sepermarket Bahan Bangunan Asia Niaga";"Jl. Jenderal Ahmad Yani No.123, Blang Sinibong, Kec. Langsa Kota, Kota Langsa, Aceh 24375";"Blang Sinibong, Kec. Langsa Kota, Kota Langsa";"ACEH";"24375";"Indonesia";" 08116700155";"4.4725893";"97.9756602";"https://maps.google.com/?cid=0x0:0xbf87768a6495f87a"
"supermarket bangunan";"supermarket bangunan";"Toko Bahan Bangunan (Usaha Kita)";"CXQR+4QF, Lipat Kajang Atas, Kec. Simpang Kanan, Kabupaten Aceh Singkil, Aceh 24791";"Lipat Kajang Atas, Kec. Simpang Kanan, Kabupaten Aceh Singkil";"ACEH";"24791";"Indonesia";"";"2.437814";"97.9919101";"https://maps.google.com/?cid=0x0:0xc53e006c3cfa75cd"
"supermarket bangunan";"supermarket bangunan";"Toko Dewata";"Tanah Bara, Kec. Gn. Meriah, Kabupaten Aceh Singkil, Aceh 24791";"Kec. Gn. Meriah, Kabupaten Aceh Singkil";"ACEH";"24791";"Indonesia";"";"2.3805525";"97.9550718";"https://maps.google.com/?cid=0x0:0xe46dd8810c95b483"
"supermarket bangunan";"supermarket bangunan";"Toko bangunan Randi";"GVCJ+R3W Camar 2, Sumber Mukti, Kec. Kota Baharu, Kabupaten Aceh Singkil, Aceh";"Kabupaten Aceh Singkil, Aceh";"ACEH";"";"Indonesia";"";"2.5221132";"97.8802091";"https://maps.google.com/?cid=0x0:0x8284a189207b2dee"
"supermarket bangunan";"supermarket bangunan";"Toko bangunan Randi";"GVC8+7PX, Sumber Mukti, Kec. Kota Baharu, Kabupaten Aceh Singkil, Aceh";"Kabupaten Aceh Singkil, Aceh";"ACEH";"";"Indonesia";" 085658032488";"2.5207301";"97.8668567";"https://maps.google.com/?cid=0x0:0x9d6aac630e7db4fa"
"supermarket bangunan";"Jasa Konstruksi dan Bangunan";"UD MAJU JAYA Lipat kajang";"Lipat Kajang Atas, Kec. Simpang Kanan, Kabupaten Aceh Singkil, Aceh 24791";"Kec. Simpang Kanan, Kabupaten Aceh Singkil";"ACEH";"24791";"Indonesia";" 08153305862";"2.4349322";"97.9895288";"https://maps.google.com/?cid=0x0:0xa011498b4f77a0ed"
"supermarket bangunan";"supermarket bangunan";"Toko Bahan Bangunan (Usaha Kita)";"CXQR+4QF, Lipat Kajang Atas, Kec. Simpang Kanan, Kabupaten Aceh Singkil, Aceh 24791";"Lipat Kajang Atas, Kec. Simpang Kanan, Kabupaten Aceh Singkil";"ACEH";"24791";"Indonesia";"";"2.437814";"97.9919101";"https://maps.google.com/?cid=0x0:0xc53e006c3cfa75cd"
"supermarket bangunan";"Toko Bahan Bangunan";"TOKO 2 SAHABAT";"9XV7+397, Rimo, Kec. Gn. Meriah, Kabupaten Aceh Singkil, Aceh 24791";"Rimo, Kec. Gn. Meriah, Kabupaten Aceh Singkil";"ACEH";"24791";"Indonesia";"";"2.3926596";"97.9634371";"https://maps.google.com/?cid=0x0:0x91a26a50d9f41256"
"supermarket bangunan";"Toko Bahan Bangunan";"Toko dua sahabat trans 26";"CWG8+PM, Bukit Harapan, Kec. Gn. Meriah, Kabupaten Aceh Singkil, Aceh";"Kabupaten Aceh Singkil, Aceh";"ACEH";"";"Indonesia";"";"2.4266788";"97.9166988";"https://maps.google.com/?cid=0x0:0x82b7de30d35cd588"
"supermarket bangunan";"Toko Bahan Bangunan";"Toko Sumber Bangunan Manado";"Jl. Pingkan Matindas No.17, Dendengan Dalam, Kec. Wenang, Kota Manado, Sulawesi Utara 95127";"Dendengan Dalam, Kec. Wenang, Kota Manado";"ACEH";"95127";"Indonesia";" 082258880837";"1.4811178";"124.8579951";"https://maps.google.com/?cid=0x0:0x49e8c78a49949a32"
"supermarket bangunan";"Toko Bahan Bangunan";"TOKO 2 SAHABAT";"9XV7+397, Rimo, Kec. Gn. Meriah, Kabupaten Aceh Singkil, Aceh 24791";"Rimo, Kec. Gn. Meriah, Kabupaten Aceh Singkil";"ACEH";"24791";"Indonesia";"";"2.3926596";"97.9634371";"https://maps.google.com/?cid=0x0:0x91a26a50d9f41256"
"supermarket bangunan";"Toko Bahan Bangunan";"Pratama Supermarket Bahan Bangunan";"Jl. Raya Lemahabang No.27, Mekarmukti, Kec. Cikarang Utara, Kabupaten Bekasi, Jawa Barat 17530";"Mekarmukti, Kec. Cikarang Utara, Kabupaten Bekasi";"ACEH";"17530";"Indonesia";" 081401948281";"-6.2894221";"107.1531609";"https://maps.google.com/?cid=0x0:0x167f4446dd2fadda"
"supermarket bangunan";"Toko Bahan Bangunan";"Toko dua sahabat trans 26";"CWG8+PM, Bukit Harapan, Kec. Gn. Meriah, Kabupaten Aceh Singkil, Aceh";"Kabupaten Aceh Singkil, Aceh";"ACEH";"";"Indonesia";"";"2.4266788";"97.9166988";"https://maps.google.com/?cid=0x0:0x82b7de30d35cd588"
"supermarket bangunan";"supermarket bangunan";"Toko Bahan Bangunan (Usaha Kita)";"CXQR+4QF, Lipat Kajang Atas, Kec. Simpang Kanan, Kabupaten Aceh Singkil, Aceh 24791";"Lipat Kajang Atas, Kec. Simpang Kanan, Kabupaten Aceh Singkil";"ACEH";"24791";"Indonesia";"";"2.437814";"97.9919101";"https://maps.google.com/?cid=0x0:0xc53e006c3cfa75cd"
"supermarket bangunan";"supermarket bangunan";"Singkil";"Kec. Singkil, Kabupaten Aceh Singkil, Aceh";"Kabupaten Aceh Singkil, Aceh";"ACEH";"";"Indonesia";"";"2.2836143";"97.79873";"https://maps.google.com/?cid=0x0:0x4039d80b220d230"
"supermarket bangunan";"Toko Bahan Bangunan";"Toko Bahan Bangunan";"FRWX+995, Jl. Soputan, Singkil Satu, Kec. Singkil, Kota Manado, Sulawesi Utara";"Kota Manado, Sulawesi Utara";"ACEH";"";"Indonesia";"";"1.4958803";"124.8484916";"https://maps.google.com/?cid=0x0:0x87a9bba92591a12e"
"supermarket bangunan";"Toko Bahan Bangunan";"CV JONANLI SEJAHTERA";"Kombos Tim., Kec. Singkil, Kota Manado, Sulawesi Utara 95234";"Kec. Singkil, Kota Manado";"ACEH";"95234";"Indonesia";" 085256658922";"1.5007027";"124.8645964";"https://maps.google.com/?cid=0x0:0xa9f67fcb53d9fe6e"
"supermarket bangunan";"Toko Bahan Bangunan";"Pratama Supermarket Bahan Bangunan Jababeka";"Jl. Cikarang Baru Raya No.2, Mekarmukti, Kec. Cikarang Utara, Kabupaten Bekasi, Jawa Barat 17530";"Mekarmukti, Kec. Cikarang Utara, Kabupaten Bekasi";"ACEH";"17530";"Indonesia";" 081401948281";"-6.3004397";"107.167426";"https://maps.google.com/?cid=0x0:0x16010b489f707de5"
"supermarket bangunan";"Toko Bahan Bangunan";"Pratama Supermarket Bahan Bangunan Sukatani";"Jl. Pilar Sukatani No.204, Sukaraya, Kec. Karangbahagia, Kabupaten Bekasi, Jawa Barat 17535";"Sukaraya, Kec. Karangbahagia, Kabupaten Bekasi";"ACEH";"17535";"Indonesia";" 02189072770";"-6.217434";"107.1664019";"https://maps.google.com/?cid=0x0:0xcc40347a47d8a121"
"supermarket bangunan";"Toko Bahan Bangunan";"MJB Supermarket Bahan Bangunan";"Jl. Surotokunto No.5, Adiarsa Tim., Kec. Karawang Tim., Karawang, Jawa Barat 41314";"Adiarsa Tim., Kec. Karawang Tim., Karawang";"ACEH";"41314";"Indonesia";" 08111236000";"-6.3130246";"107.3194823";"https://maps.google.com/?cid=0x0:0x53af2daaf487c594"
"supermarket bangunan";"Toko Bahan Bangunan";"Kita Utama Bahan Bangunan";"Sukamakmur, Jl. Interchange, Karawang Barat, Telukjambe Timur, Karawang, Jawa Barat 41361";"Jl. Interchange, Karawang Barat, Telukjambe Timur, Karawang";"ACEH";"41361";"Indonesia";" 087871176725";"-6.3041815";"107.2784426";"https://maps.google.com/?cid=0x0:0xe6b62f6ce6b03d28"
"supermarket bangunan";"Distributor Baja";"PT IMPROVE JAYA STEEL";"Jl. Arie Lasut No.133, Kombos Bar., Kec. Singkil, Kota Manado, Sulawesi Utara 95234";"Kombos Bar., Kec. Singkil, Kota Manado";"ACEH";"95234";"Indonesia";" 081340709993";"1.4928505";"124.8558677";"https://maps.google.com/?cid=0x0:0xfca75c04d10e5c0f"
"supermarket bangunan";"Toko Bahan Bangunan";"TB 2 putra";"Peajambu, Kec. Singkohor, Kabupaten Aceh Singkil, Aceh 24783";"Kec. Singkohor, Kabupaten Aceh Singkil";"ACEH";"24783";"Indonesia";"";"2.42686";"97.8855808";"https://maps.google.com/?cid=0x0:0x18794bc95cb2998c"
"supermarket bangunan";"supermarket bangunan";"Aceh 24785";"Kec. Kota Baharu, Kabupaten Aceh Singkil, Aceh";"Kabupaten Aceh Singkil, Aceh";"ACEH";"";"Indonesia";"";"2.4523065";"97.8123224";"https://maps.google.com/?cid=0x0:0x571276798298d3f5"
"supermarket bangunan";"Toko Bahan Bangunan";"Toko dua sahabat trans 26";"CWG8+PM, Bukit Harapan, Kec. Gn. Meriah, Kabupaten Aceh Singkil, Aceh";"Kabupaten Aceh Singkil, Aceh";"ACEH";"";"Indonesia";"";"2.4266788";"97.9166988";"https://maps.google.com/?cid=0x0:0x82b7de30d35cd588"
"supermarket bangunan";"Toko Bahan Bangunan";"UD. RAHMAWATI (H. MASIDIN)";"Jl. H. M Thaher No.204, Ujung, Kec. Singkil, Kabupaten Aceh Singkil, Aceh";"Kabupaten Aceh Singkil, Aceh";"ACEH";"";"Indonesia";"";"2.285753";"97.7817338";"https://maps.google.com/?cid=0x0:0x83ee85986b969b73"
"supermarket bangunan";"Minimarket";"Toko Bangunan Adma Jaya";"7RG3+FX4, Jl. Singkil - Rimo, Pulo Sarok, Kec. Singkil, Kabupaten Aceh Singkil, Aceh 24472";"Jl. Singkil - Rimo, Pulo Sarok, Kec. Singkil, Kabupaten Aceh Singkil";"ACEH";"24472";"Indonesia";"";"2.2761342";"97.8049657";"https://maps.google.com/?cid=0x0:0x9cb8c662ca79fde2"
"supermarket bangunan";"Jasa Konstruksi dan Bangunan";"UD MAJU JAYA Lipat kajang";"Lipat Kajang Atas, Kec. Simpang Kanan, Kabupaten Aceh Singkil, Aceh 24791";"Kec. Simpang Kanan, Kabupaten Aceh Singkil";"ACEH";"24791";"Indonesia";" 08153305862";"2.4349322";"97.9895288";"https://maps.google.com/?cid=0x0:0xa011498b4f77a0ed"
"supermarket bangunan";"Toko Bahan Bangunan";"Satahi. UD";"7QMR+7RF, JL. Sultan Iskandar Muda, Ps. Singkil, Kec. Singkil, Kabupaten Aceh Singkil, Aceh 24472";"JL. Sultan Iskandar Muda, Ps. Singkil, Kec. Singkil, Kabupaten Aceh Singkil";"ACEH";"24472";"Indonesia";" 065821573";"2.283178";"97.792053";"https://maps.google.com/?cid=0x0:0x223141e6efa4d22b"
"supermarket bangunan";"Pemasok Bahan Bangunan";"PAKARO";"Jl. TR Angkasah, Tanah Bara, Kec. Gn. Meriah, Kabupaten Aceh Singkil, Aceh 23784";"Tanah Bara, Kec. Gn. Meriah, Kabupaten Aceh Singkil";"ACEH";"23784";"Indonesia";" 08566507761";"2.3805611";"97.9550927";"https://maps.google.com/?cid=0x0:0x4926a74f03c52684"
"supermarket bangunan";"Kantor Perusahaan";"Bumdes Blok VI Baru";"9XM9+JGG, Jln- Balai Desa, Blk. VI Baru, Kec. Gn. Meriah, Kabupaten Aceh Singkil, Aceh 24784";"Jln- Balai Desa, Blk. VI Baru, Kec. Gn. Meriah, Kabupaten Aceh Singkil";"ACEH";"24784";"Indonesia";" 082275020281";"2.3840675";"97.9688222";"https://maps.google.com/?cid=0x0:0xba000d923c643d6a"
"supermarket bangunan";"Toko Bahan Bangunan";"TOKO SALWA BARU .";"J2X2+QQG, Subulussalam Utara, Kec. Simpang Kiri, Kota Subulussalam, Aceh 24782";"Subulussalam Utara, Kec. Simpang Kiri, Kota Subulussalam";"ACEH";"24782";"Indonesia";" 08887777666";"2.6494349";"98.0019451";"https://maps.google.com/?cid=0x0:0xb978535b018ffba0"
"supermarket bangunan";"supermarket bangunan";"Toko Bahan Bangunan (Usaha Kita)";"CXQR+4QF, Lipat Kajang Atas, Kec. Simpang Kanan, Kabupaten Aceh Singkil, Aceh 24791";"Lipat Kajang Atas, Kec. Simpang Kanan, Kabupaten Aceh Singkil";"ACEH";"24791";"Indonesia";"";"2.437814";"97.9919101";"https://maps.google.com/?cid=0x0:0xc53e006c3cfa75cd"
"supermarket bangunan";"Toko Bahan Bangunan";"Toko besi indah sari";"Jl. Cut Meutia, Tulaan, Kec. Gn. Meriah, Kabupaten Aceh Singkil, Aceh 23784";"Tulaan, Kec. Gn. Meriah, Kabupaten Aceh Singkil";"ACEH";"23784";"Indonesia";" 085359346283";"2.3913541";"97.9659278";"https://maps.google.com/?cid=0x0:0x823a677017ec992b"
"supermarket bangunan";"supermarket bangunan";"Toko bangunan UD. ME";"GWCG+X28, Jl. Tenggiri, Singkohor, Kec. Singkohor, Kabupaten Aceh Singkil, Aceh 24782";"Jl. Tenggiri, Singkohor, Kec. Singkohor, Kabupaten Aceh Singkil";"ACEH";"24782";"Indonesia";"";"2.5224235";"97.9250761";"https://maps.google.com/?cid=0x0:0x43fbb5657e6e7565"
"supermarket bangunan";"supermarket bangunan";"Toko bangunan Randi";"GVC8+7PX, Sumber Mukti, Kec. Kota Baharu, Kabupaten Aceh Singkil, Aceh";"Kabupaten Aceh Singkil, Aceh";"ACEH";"";"Indonesia";" 085658032488";"2.5207301";"97.8668567";"https://maps.google.com/?cid=0x0:0x9d6aac630e7db4fa"
"supermarket bangunan";"supermarket bangunan";"Aceh 24784";"Kabupaten Aceh Singkil, Aceh";"Kabupaten Aceh Singkil, Aceh";"ACEH";"";"Indonesia";"";"2.152911";"97.2840888";"https://maps.google.com/?cid=0x0:0xab521459bf3c978c"
"supermarket bangunan";"Toko Bahan Bangunan";"TB 2 putra";"Peajambu, Kec. Singkohor, Kabupaten Aceh Singkil, Aceh 24783";"Kec. Singkohor, Kabupaten Aceh Singkil";"ACEH";"24783";"Indonesia";"";"2.42686";"97.8855808";"https://maps.google.com/?cid=0x0:0x18794bc95cb2998c"
"supermarket bangunan";"supermarket bangunan";"Toko bangunan UD. ME";"GWCG+X28, Jl. Tenggiri, Singkohor, Kec. Singkohor, Kabupaten Aceh Singkil, Aceh 24782";"Jl. Tenggiri, Singkohor, Kec. Singkohor, Kabupaten Aceh Singkil";"ACEH";"24782";"Indonesia";"";"2.5224235";"97.9250761";"https://maps.google.com/?cid=0x0:0x43fbb5657e6e7565"
"supermarket bangunan";"supermarket bangunan";"Aceh 24784";"Kabupaten Aceh Singkil, Aceh";"Kabupaten Aceh Singkil, Aceh";"ACEH";"";"Indonesia";"";"2.152911";"97.2840888";"https://maps.google.com/?cid=0x0:0xab521459bf3c978c"
"supermarket bangunan";"Toko Bahan Bangunan";"TOKO SALWA BARU .";"J2X2+QQG, Subulussalam Utara, Kec. Simpang Kiri, Kota Subulussalam, Aceh 24782";"Subulussalam Utara, Kec. Simpang Kiri, Kota Subulussalam";"ACEH";"24782";"Indonesia";" 08887777666";"2.6494349";"98.0019451";"https://maps.google.com/?cid=0x0:0xb978535b018ffba0"
"supermarket bangunan";"Toko Bahan Bangunan";"Samurai Paint - Ud Semesta Subulussalam";"J2R4+868, Subulussalam, Kec. Simpang Kiri, Kota Subulussalam, Aceh 24782";"Subulussalam, Kec. Simpang Kiri, Kota Subulussalam";"ACEH";"24782";"Indonesia";" 082370542102";"2.6407908";"98.0055817";"https://maps.google.com/?cid=0x0:0x7c74d0e53253cf96"
"supermarket bangunan";"Toko";"UD.TANGAH(toko bangunan)";"QVWR+W88, Jl. Tapaktuan - Subulussalam, Suka Maju, Kec. Sultan Daulat, Kota Subulussalam, Aceh 24782";"Jl. Tapaktuan - Subulussalam, Suka Maju, Kec. Sultan Daulat, Kota Subulussalam";"ACEH";"24782";"Indonesia";" 085262227756";"2.7972907";"97.8908189";"https://maps.google.com/?cid=0x0:0x296bfda3e1340b24"
"supermarket bangunan";"Toko Bahan Bangunan";"Toko Bangunan Ashima";"J2R2+RVF, Subulussalam Sel., Kec. Simpang Kiri, Kota Subulussalam, Aceh 24782";"Subulussalam Sel., Kec. Simpang Kiri, Kota Subulussalam";"ACEH";"24782";"Indonesia";" 081377177107";"2.6420713";"98.0021745";"https://maps.google.com/?cid=0x0:0xbcab138a31454ac9"
"supermarket bangunan";"Toko Bahan Bangunan";"UD.SISIFA";"Subulussalam, Kec. Simpang Kiri, Kota Subulussalam, Aceh 24782";"Kec. Simpang Kiri, Kota Subulussalam";"ACEH";"24782";"Indonesia";" 081370822418";"2.6414357";"98.0170478";"https://maps.google.com/?cid=0x0:0x411bfb1d6b0656be"
"supermarket bangunan";"Toko Bahan Bangunan";"TOKO FAJAR PRIMA";"J2X3+7QX, Jl. Nyak Adam Kamil, Subulussalam Utara, Kec. Simpang Kiri, Kota Subulussalam, Aceh 24782";"Jl. Nyak Adam Kamil, Subulussalam Utara, Kec. Simpang Kiri, Kota Subulussalam";"ACEH";"24782";"Indonesia";"";"2.6482457";"98.0044922";"https://maps.google.com/?cid=0x0:0x76fa0ce7737fff45"
"supermarket bangunan";"Toko Bahan Bangunan";"TB 2 putra";"Peajambu, Kec. Singkohor, Kabupaten Aceh Singkil, Aceh 24783";"Kec. Singkohor, Kabupaten Aceh Singkil";"ACEH";"24783";"Indonesia";"";"2.42686";"97.8855808";"https://maps.google.com/?cid=0x0:0x18794bc95cb2998c"
"supermarket bangunan";"Jasa Konstruksi dan Bangunan";"UD MAJU JAYA Lipat kajang";"Lipat Kajang Atas, Kec. Simpang Kanan, Kabupaten Aceh Singkil, Aceh 24791";"Kec. Simpang Kanan, Kabupaten Aceh Singkil";"ACEH";"24791";"Indonesia";" 08153305862";"2.4349322";"97.9895288";"https://maps.google.com/?cid=0x0:0xa011498b4f77a0ed"
"supermarket bangunan";"Toko Bahan Bangunan";"UD CIBRO";"Kecamatan penanggalan, Jln pemancar, Penanggalan, barat, Kota Subulussalam, Aceh 24782";"Jln pemancar, Penanggalan, barat, Kota Subulussalam";"ACEH";"24782";"Indonesia";"";"2.6418848";"98.0126251";"https://maps.google.com/?cid=0x0:0xfbb6442f375baeb3"
"supermarket bangunan";"Toko Bahan Bangunan";"UD. Daeng Semesta";"Jl. Cut Nyak Dhien No.39, Subulussalam, Kec. Simpang Kiri, Kota Subulussalam, Aceh 24781";"Subulussalam, Kec. Simpang Kiri, Kota Subulussalam";"ACEH";"24781";"Indonesia";"";"2.6417044";"98.0064085";"https://maps.google.com/?cid=0x0:0x3d61ef5e4d8c63e0"
"supermarket bangunan";"Toko Bahan Bangunan";"Toko Bangunan Semangat";"Jl. Sisingamangaraja No.268, Kota Sidikalang, Kec. Sidikalang, Kabupaten Dairi, Sumatera Utara 22219";"Kota Sidikalang, Kec. Sidikalang, Kabupaten Dairi";"ACEH";"22219";"Indonesia";" 081263723355";"2.7530175";"98.3094409";"https://maps.google.com/?cid=0x0:0x439881f410e4b147"
"supermarket bangunan";"Toko Bahan Bangunan";"TOKO 2 SAHABAT";"9XV7+397, Rimo, Kec. Gn. Meriah, Kabupaten Aceh Singkil, Aceh 24791";"Rimo, Kec. Gn. Meriah, Kabupaten Aceh Singkil";"ACEH";"24791";"Indonesia";"";"2.3926596";"97.9634371";"https://maps.google.com/?cid=0x0:0x91a26a50d9f41256"
"supermarket bangunan";"Pemasok Bahan Bangunan";"PAKARO";"Jl. TR Angkasah, Tanah Bara, Kec. Gn. Meriah, Kabupaten Aceh Singkil, Aceh 23784";"Tanah Bara, Kec. Gn. Meriah, Kabupaten Aceh Singkil";"ACEH";"23784";"Indonesia";" 08566507761";"2.3805611";"97.9550927";"https://maps.google.com/?cid=0x0:0x4926a74f03c52684"
