Category;Real Category;Business Name;Address;City;State;Postal Code;Country;Phone;Latitude;Longitude;Map Link
"mall";"Pusat Perbelanjaan";"Pusat Pasar Singkohor";"GWFH+GW3, Singkohor, Kec. Singkohor, Kabupaten Aceh Singkil, Aceh 24782";"Singkohor, Kec. Singkohor, Kabupaten Aceh Singkil";"ACEH";"24782";"Indonesia";"";"2.5237665";"97.9298108";"https://maps.google.com/?cid=0x0:0xe2496f8b091f335c"
"mall";"mall";"Aceh 24784";"Kabupaten Aceh Singkil, Aceh";"Kabupaten Aceh Singkil, Aceh";"ACEH";"";"Indonesia";"";"2.152911";"97.2840888";"https://maps.google.com/?cid=0x0:0xab521459bf3c978c"
"mall";"Toko umum";"UD.jihan";"8C25+CC9, Pulau Balai, Pulau Banyak, Kabupaten Aceh Singkil, Aceh 24784";"Pulau Balai, Pulau Banyak, Kabupaten Aceh Singkil";"ACEH";"24784";"Indonesia";"";"2.3010488";"97.4086194";"https://maps.google.com/?cid=0x0:0x875a11a73365b4aa"
"mall";"Minimarket";"Pasar Teluk Nibung";"Tlk. Nibung, Pulau Banyak, Kabupaten Aceh Singkil, Aceh 24784";"Pulau Banyak, Kabupaten Aceh Singkil";"ACEH";"24784";"Indonesia";"";"2.3388909";"97.3869708";"https://maps.google.com/?cid=0x0:0xc26bc55de3e85d28"
"mall";"Pusat Perbelanjaan";"Usaha Kelapa Nek KHAN";"89RP+72W, Jl. Lingkar Pulau Ujung Batu, Tlk. Nibung, Pulau Banyak, Kabupaten Aceh Singkil, Aceh 24784";"Jl. Lingkar Pulau Ujung Batu, Tlk. Nibung, Pulau Banyak, Kabupaten Aceh Singkil";"ACEH";"24784";"Indonesia";" 081264455633";"2.3407389";"97.385071";"https://maps.google.com/?cid=0x0:0x2ff8dcd42329b70"
"mall";"Pedagang ternak";"UD. Boang Menalu";"Mandumpang, Kec. Suro Makmur, Kabupaten Aceh Singkil, Aceh 24783";"Kec. Suro Makmur, Kabupaten Aceh Singkil";"ACEH";"24783";"Indonesia";" 081260096697";"2.4778077";"98.0421622";"https://maps.google.com/?cid=0x0:0x4c3f978a705cf58e"
"mall";"Pusat Perbelanjaan";"UD pipit";"FVW3+2PV, Danau Bungara, Kec. Kota Baharu, Kabupaten Aceh Singkil, Aceh 24782";"Danau Bungara, Kec. Kota Baharu, Kabupaten Aceh Singkil";"ACEH";"24782";"Indonesia";" 085834917196";"2.4951186";"97.8542902";"https://maps.google.com/?cid=0x0:0x9891e8184b597dd8"
"mall";"Perguruan Tinggi";"potocopy bersama habibi berutu";"CXVR+3HR, batu korong STAISAR, Lipat Kajang, Kec. Simpang Kanan, Kabupaten Aceh Singkil, Aceh 24791";"batu korong STAISAR, Lipat Kajang, Kec. Simpang Kanan, Kabupaten Aceh Singkil";"ACEH";"24791";"Indonesia";" 085762259243";"2.4427386";"97.9913824";"https://maps.google.com/?cid=0x0:0x1619f33c05c787fa"
"mall";"Toko Swalayan";"Warung sembako mak alfatih";"84J2+PG3, Unnamed Road, Biskang, Kec. Danau Paris, Kabupaten Aceh Singkil, Aceh 24472";"Unnamed Road, Biskang, Kec. Danau Paris, Kabupaten Aceh Singkil";"ACEH";"24472";"Indonesia";" 082168421865";"2.3317645";"98.1012849";"https://maps.google.com/?cid=0x0:0xeb3bc21263ce4f83"
"mall";"Taman";"Durian Lemang";"F265+2P3, Silatong, Kec. Simpang Kanan, Kabupaten Aceh Singkil, Aceh 24791";"Silatong, Kec. Simpang Kanan, Kabupaten Aceh Singkil";"ACEH";"24791";"Indonesia";"";"2.4600036";"98.0093075";"https://maps.google.com/?cid=0x0:0x1eab265f406c20c5"
"mall";"Toko Pakaian Wanita";"Pebri pasihion";"PX8G+6W5, Jl. Tapaktuan - Subulussalam, Namo Buaya, Kec. Sultan Daulat, Kota Subulussalam, Aceh 24782";"Jl. Tapaktuan - Subulussalam, Namo Buaya, Kec. Sultan Daulat, Kota Subulussalam";"ACEH";"24782";"Indonesia";"";"2.7155109";"97.9773701";"https://maps.google.com/?cid=0x0:0x9dd7a907059547f8"
"mall";"Pusat Perbelanjaan";"Asi Com Posel";"9W9Q+CJJ, Gn. Lagan, Kec. Gn. Meriah, Kabupaten Aceh Singkil, Aceh 24791";"Gn. Lagan, Kec. Gn. Meriah, Kabupaten Aceh Singkil";"ACEH";"24791";"Indonesia";" 085834235561";"2.368579";"97.9390048";"https://maps.google.com/?cid=0x0:0x77953277127386f1"
"mall";"Pasar";"Pasar Harian";"Jl. Iskandar Muda No.6 B, Lae Butar, Kec. Gn. Meriah, Kabupaten Aceh Singkil, Aceh 24791";"Lae Butar, Kec. Gn. Meriah, Kabupaten Aceh Singkil";"ACEH";"24791";"Indonesia";"";"2.3834844";"97.9603046";"https://maps.google.com/?cid=0x0:0x4f24ac94725593b4"
"mall";"Kantor Pemda";"Ikan kakap putih";"8C45+37R, Pulau Balai, Pulau Banyak, Kabupaten Aceh Singkil, Aceh 24784";"Pulau Balai, Pulau Banyak, Kabupaten Aceh Singkil";"ACEH";"24784";"Indonesia";"";"2.3052402";"97.4081561";"https://maps.google.com/?cid=0x0:0x9ee51b74c5d02d4e"
"mall";"mall";"Aceh 24784";"Kabupaten Aceh Singkil, Aceh";"Kabupaten Aceh Singkil, Aceh";"ACEH";"";"Indonesia";"";"2.152911";"97.2840888";"https://maps.google.com/?cid=0x0:0xab521459bf3c978c"
"mall";"Pusat Perbelanjaan";"RATU STORE";"PQHW+5GJ, Jl. Simpang Balik-Blang Mancung, Simpang Balek, Kec. Wih Pesam, Kabupaten Bener Meriah, Aceh 24471";"Jl. Simpang Balik-Blang Mancung, Simpang Balek, Kec. Wih Pesam, Kabupaten Bener Meriah";"ACEH";"24471";"Indonesia";" 082370941041";"4.7279683";"96.7962651";"https://maps.google.com/?cid=0x0:0x661a30ae000ddf93"
"mall";"Pusat Perbelanjaan";"MareGalery";"QW39+326, Pd. Baru, Kec. Bandar, Kabupaten Bener Meriah, Aceh 24582";"Pd. Baru, Kec. Bandar, Kabupaten Bener Meriah";"ACEH";"24582";"Indonesia";" 082158519570";"4.7526743";"96.9175287";"https://maps.google.com/?cid=0x0:0xa7c57844130bc5e4"
"mall";"mall";"Toko Asmi";"9XP7+W64, Lae Butar, Kec. Gn. Meriah, Kabupaten Aceh Singkil, Aceh 24791";"Lae Butar, Kec. Gn. Meriah, Kabupaten Aceh Singkil";"ACEH";"24791";"Indonesia";"";"2.3872735";"97.9630777";"https://maps.google.com/?cid=0x0:0x7542661bab51169c"
"mall";"Toko Perlengkapan Rumah";"Usaha Zahra";"9XH3+VP4, Tanah Bara, Kec. Gn. Meriah, Kabupaten Aceh Singkil, Aceh 24791";"Tanah Bara, Kec. Gn. Meriah, Kabupaten Aceh Singkil";"ACEH";"24791";"Indonesia";" 081375591516";"2.3796289";"97.9543339";"https://maps.google.com/?cid=0x0:0xf9e23614936f72ff"
"mall";"Pusat Perbelanjaan";"TOKO ZAHRA";"CX28+XC6, Sianjo Anjo Meriah, Kec. Gn. Meriah, Kabupaten Aceh Singkil, Aceh 24791";"Sianjo Anjo Meriah, Kec. Gn. Meriah, Kabupaten Aceh Singkil";"ACEH";"24791";"Indonesia";" 085297742395";"2.4024112";"97.9660263";"https://maps.google.com/?cid=0x0:0xed42238c660c20a4"
"mall";"mall";"Aceh 24784";"Kabupaten Aceh Singkil, Aceh";"Kabupaten Aceh Singkil, Aceh";"ACEH";"";"Indonesia";"";"2.152911";"97.2840888";"https://maps.google.com/?cid=0x0:0xab521459bf3c978c"
"mall";"Minimarket";"Pasar Teluk Nibung";"Tlk. Nibung, Pulau Banyak, Kabupaten Aceh Singkil, Aceh 24784";"Pulau Banyak, Kabupaten Aceh Singkil";"ACEH";"24784";"Indonesia";"";"2.3388909";"97.3869708";"https://maps.google.com/?cid=0x0:0xc26bc55de3e85d28"
"mall";"Pusat Perbelanjaan";"UD pipit";"FVW3+2PV, Danau Bungara, Kec. Kota Baharu, Kabupaten Aceh Singkil, Aceh 24782";"Danau Bungara, Kec. Kota Baharu, Kabupaten Aceh Singkil";"ACEH";"24782";"Indonesia";" 085834917196";"2.4951186";"97.8542902";"https://maps.google.com/?cid=0x0:0x9891e8184b597dd8"
"mall";"Pusat Perbelanjaan";"Usaha dua sejalan";"C234+W32, Unnamed Road, Sanggaberu Silulusan, Kec. Gn. Meriah, Kabupaten Aceh Singkil, Aceh 24783";"Unnamed Road, Sanggaberu Silulusan, Kec. Gn. Meriah, Kabupaten Aceh Singkil";"ACEH";"24783";"Indonesia";" 085760274254";"2.404771";"98.005127";"https://maps.google.com/?cid=0x0:0x6d76ef33dca8e998"
"mall";"Pusat Perbelanjaan";"Usaha Kelapa Nek KHAN";"89RP+72W, Jl. Lingkar Pulau Ujung Batu, Tlk. Nibung, Pulau Banyak, Kabupaten Aceh Singkil, Aceh 24784";"Jl. Lingkar Pulau Ujung Batu, Tlk. Nibung, Pulau Banyak, Kabupaten Aceh Singkil";"ACEH";"24784";"Indonesia";" 081264455633";"2.3407389";"97.385071";"https://maps.google.com/?cid=0x0:0x2ff8dcd42329b70"
"mall";"Toko umum";"UD.jihan";"8C25+CC9, Pulau Balai, Pulau Banyak, Kabupaten Aceh Singkil, Aceh 24784";"Pulau Balai, Pulau Banyak, Kabupaten Aceh Singkil";"ACEH";"24784";"Indonesia";"";"2.3010488";"97.4086194";"https://maps.google.com/?cid=0x0:0x875a11a73365b4aa"
"mall";"Kantor Pemda";"Ikan kakap putih";"8C45+37R, Pulau Balai, Pulau Banyak, Kabupaten Aceh Singkil, Aceh 24784";"Pulau Balai, Pulau Banyak, Kabupaten Aceh Singkil";"ACEH";"24784";"Indonesia";"";"2.3052402";"97.4081561";"https://maps.google.com/?cid=0x0:0x9ee51b74c5d02d4e"
"mall";"Pasar";"Pasar Harian";"Jl. Iskandar Muda No.6 B, Lae Butar, Kec. Gn. Meriah, Kabupaten Aceh Singkil, Aceh 24791";"Lae Butar, Kec. Gn. Meriah, Kabupaten Aceh Singkil";"ACEH";"24791";"Indonesia";"";"2.3834844";"97.9603046";"https://maps.google.com/?cid=0x0:0x4f24ac94725593b4"
"mall";"Pedagang ternak";"UD. Boang Menalu";"Mandumpang, Kec. Suro Makmur, Kabupaten Aceh Singkil, Aceh 24783";"Kec. Suro Makmur, Kabupaten Aceh Singkil";"ACEH";"24783";"Indonesia";" 081260096697";"2.4778077";"98.0421622";"https://maps.google.com/?cid=0x0:0x4c3f978a705cf58e"
"mall";"Toko umum";"KOMBIH JAYA CELL";"Dusun Rahmah, Jl. Hamzah Fansuri, Subulussalam Bar., Kec. Simpang Kiri, Kota Subulussalam, Aceh 24782";"Jl. Hamzah Fansuri, Subulussalam Bar., Kec. Simpang Kiri, Kota Subulussalam";"ACEH";"24782";"Indonesia";"";"2.6479413";"97.9885673";"https://maps.google.com/?cid=0x0:0x4d3a3433f488c13d"
"mall";"Makanan Kecil";"Warung Sudi";"CVFG+F58, Jalan Sri Kayu, Ladang Bisik, Kec. Kota Baharu, Kabupaten Aceh Singkil, Aceh 24783";"Jalan Sri Kayu, Ladang Bisik, Kec. Kota Baharu, Kabupaten Aceh Singkil";"ACEH";"24783";"Indonesia";"";"2.4236718";"97.8754627";"https://maps.google.com/?cid=0x0:0x80292e1085eaa99d"
"mall";"Pusat Perbelanjaan";"Asi Com Posel";"9W9Q+CJJ, Gn. Lagan, Kec. Gn. Meriah, Kabupaten Aceh Singkil, Aceh 24791";"Gn. Lagan, Kec. Gn. Meriah, Kabupaten Aceh Singkil";"ACEH";"24791";"Indonesia";" 085834235561";"2.368579";"97.9390048";"https://maps.google.com/?cid=0x0:0x77953277127386f1"
"mall";"Toko bahan makanan";"Warung Sembako 3 Bersaudara";"GWCM+28J, Jl. Baung, Singkohor, Kec. Singkohor, Kabupaten Aceh Singkil, Aceh 24782";"Jl. Baung, Singkohor, Kec. Singkohor, Kabupaten Aceh Singkil";"ACEH";"24782";"Indonesia";" 085834354995";"2.5200895";"97.9332598";"https://maps.google.com/?cid=0x0:0xe00482fe90e2d88a"
"mall";"Pusat Perbelanjaan";"CEKAU SHOP";"JXXP+G2W, Jl. Hamzah Fansuri, Subulussalam Bar., Kec. Simpang Kiri, Kota Subulussalam, Aceh 24782";"Jl. Hamzah Fansuri, Subulussalam Bar., Kec. Simpang Kiri, Kota Subulussalam";"ACEH";"24782";"Indonesia";"";"2.6488723";"97.985071";"https://maps.google.com/?cid=0x0:0xba1f48bffc954687"
"mall";"Layanan Transportasi";"Pelabuhan kuala baru";"8PX6+4XV, Jalan, Kuala Baru Sungai, Kuala Baru, Aceh Singkil Regency, Aceh 24472";"Jalan, Kuala Baru Sungai, Kuala Baru, Aceh Singkil Regency";"ACEH";"24472";"Indonesia";"";"2.3478554";"97.7124129";"https://maps.google.com/?cid=0x0:0xd990c1f06f060dd4"
"mall";"mall";"Kec. Kuala Baru";"Kabupaten Aceh Singkil, Aceh";"Kabupaten Aceh Singkil, Aceh";"ACEH";"";"Indonesia";"";"2.3496125";"97.7112967";"https://maps.google.com/?cid=0x0:0x48a3d100d6cd113b"
"mall";"Pusat Perbelanjaan";"Plaza Aceh";"Jl. T. Hasan Dek Jl. Teuku Iskandar No.49, Beurawe, Kec. Kuta Alam, Kota Banda Aceh, Aceh 23127";"Beurawe, Kec. Kuta Alam, Kota Banda Aceh";"ACEH";"23127";"Indonesia";" 08116899890";"5.5547881";"95.3308683";"https://maps.google.com/?cid=0x0:0x45c9eb2ec9e62a76"
"mall";"Pusat Perbelanjaan";"Dermaga Penyeberangan (Sementara) Kuala Baru";"8PQ8+QXV, Kuala Baru Laut, Kec. Kuala Baru, Kabupaten Aceh Singkil, Aceh 24472";"Kuala Baru Laut, Kec. Kuala Baru, Kabupaten Aceh Singkil";"ACEH";"24472";"Indonesia";"";"2.3394754";"97.7174275";"https://maps.google.com/?cid=0x0:0x2420814017c560fe"
"mall";"mall";"Aceh 24784";"Kabupaten Aceh Singkil, Aceh";"Kabupaten Aceh Singkil, Aceh";"ACEH";"";"Indonesia";"";"2.152911";"97.2840888";"https://maps.google.com/?cid=0x0:0xab521459bf3c978c"
"mall";"Toko Elektronik";"Tagam Konter";"Jalan Onan Senin (Ruko Pekan Senin) Desa, Siti Ambia, Kec. Singkil, Kabupaten Aceh Singkil, Aceh 24785";"Siti Ambia, Kec. Singkil, Kabupaten Aceh Singkil";"ACEH";"24785";"Indonesia";" 082290441717";"2.2908115";"97.7841022";"https://maps.google.com/?cid=0x0:0x176e4886364bd514"
"mall";"mall";"Pasar kuala baru";"9P62+4WQ, Suka Jaya, Kec. Kuala Baru, Kabupaten Aceh Singkil, Aceh 24472";"Suka Jaya, Kec. Kuala Baru, Kabupaten Aceh Singkil";"ACEH";"24472";"Indonesia";"";"2.3603295";"97.7023602";"https://maps.google.com/?cid=0x0:0xee7adb2ef7cedf87"
"mall";"mall";"Pulau Banyak";"Kabupaten Aceh Singkil, Aceh";"Kabupaten Aceh Singkil, Aceh";"ACEH";"";"Indonesia";"";"2.3198851";"97.413802";"https://maps.google.com/?cid=0x0:0xf22eba8ba0db80e0"
"mall";"Toko umum";"UD.jihan";"8C25+CC9, Pulau Balai, Pulau Banyak, Kabupaten Aceh Singkil, Aceh 24784";"Pulau Balai, Pulau Banyak, Kabupaten Aceh Singkil";"ACEH";"24784";"Indonesia";"";"2.3010488";"97.4086194";"https://maps.google.com/?cid=0x0:0x875a11a73365b4aa"
"mall";"Minimarket";"Pasar Teluk Nibung";"Tlk. Nibung, Pulau Banyak, Kabupaten Aceh Singkil, Aceh 24784";"Pulau Banyak, Kabupaten Aceh Singkil";"ACEH";"24784";"Indonesia";"";"2.3388909";"97.3869708";"https://maps.google.com/?cid=0x0:0xc26bc55de3e85d28"
"mall";"Pusat Perbelanjaan";"Usaha Kelapa Nek KHAN";"89RP+72W, Jl. Lingkar Pulau Ujung Batu, Tlk. Nibung, Pulau Banyak, Kabupaten Aceh Singkil, Aceh 24784";"Jl. Lingkar Pulau Ujung Batu, Tlk. Nibung, Pulau Banyak, Kabupaten Aceh Singkil";"ACEH";"24784";"Indonesia";" 081264455633";"2.3407389";"97.385071";"https://maps.google.com/?cid=0x0:0x2ff8dcd42329b70"
"mall";"Pusat Perbelanjaan";"Usaha Bonsai Kelapa (BONSKA)";"89QP+R4C, Jl. Lingkar, Tlk. Nibung, Pulau Banyak, Kabupaten Aceh Singkil, Aceh 24791";"Jl. Lingkar, Tlk. Nibung, Pulau Banyak, Kabupaten Aceh Singkil";"ACEH";"24791";"Indonesia";" 081273682949";"2.3395678";"97.3852673";"https://maps.google.com/?cid=0x0:0x4ea6747031d97cc8"
"mall";"Toko umum";"UD.jihan";"8C25+CC9, Pulau Balai, Pulau Banyak, Kabupaten Aceh Singkil, Aceh 24784";"Pulau Balai, Pulau Banyak, Kabupaten Aceh Singkil";"ACEH";"24784";"Indonesia";"";"2.3010488";"97.4086194";"https://maps.google.com/?cid=0x0:0x875a11a73365b4aa"
"mall";"mall";"Kec. Pulau Banyak Bar.";"Kabupaten Aceh Singkil, Aceh";"Kabupaten Aceh Singkil, Aceh";"ACEH";"";"Indonesia";"";"2.2278739";"97.2326992";"https://maps.google.com/?cid=0x0:0x154c9da37cf5674f"
"mall";"Minimarket";"Pasar Teluk Nibung";"Tlk. Nibung, Pulau Banyak, Kabupaten Aceh Singkil, Aceh 24784";"Pulau Banyak, Kabupaten Aceh Singkil";"ACEH";"24784";"Indonesia";"";"2.3388909";"97.3869708";"https://maps.google.com/?cid=0x0:0xc26bc55de3e85d28"
"mall";"Pusat Perbelanjaan";"Usaha Kelapa Nek KHAN";"89RP+72W, Jl. Lingkar Pulau Ujung Batu, Tlk. Nibung, Pulau Banyak, Kabupaten Aceh Singkil, Aceh 24784";"Jl. Lingkar Pulau Ujung Batu, Tlk. Nibung, Pulau Banyak, Kabupaten Aceh Singkil";"ACEH";"24784";"Indonesia";" 081264455633";"2.3407389";"97.385071";"https://maps.google.com/?cid=0x0:0x2ff8dcd42329b70"
"mall";"Pusat Perbelanjaan";"Usaha Bonsai Kelapa (BONSKA)";"89QP+R4C, Jl. Lingkar, Tlk. Nibung, Pulau Banyak, Kabupaten Aceh Singkil, Aceh 24791";"Jl. Lingkar, Tlk. Nibung, Pulau Banyak, Kabupaten Aceh Singkil";"ACEH";"24791";"Indonesia";" 081273682949";"2.3395678";"97.3852673";"https://maps.google.com/?cid=0x0:0x4ea6747031d97cc8"
"mall";"Pusat Perbelanjaan";"Suzuya Mall Banda Aceh";"Jl. Teuku Umar, Lamtemen Tim., Kec. Jaya Baru, Kota Banda Aceh, Aceh 23232";"Lamtemen Tim., Kec. Jaya Baru, Kota Banda Aceh";"ACEH";"23232";"Indonesia";" 06518011022";"5.5377324";"95.3068005";"https://maps.google.com/?cid=0x0:0xc5c56efc74442dea"
"mall";"Biro Perjalanan dan Wisata";"Pulau Banyak Travel";"Jalan Iskandar Muda No.4, Pulau Balai, Pulau Banyak, Kabupaten Aceh Singkil, Aceh 24791";"Pulau Balai, Pulau Banyak, Kabupaten Aceh Singkil";"ACEH";"24791";"Indonesia";" 085277258272";"2.300944";"97.4101007";"https://maps.google.com/?cid=0x0:0xeafde46f3122928e"
"mall";"Pondok";"Nago Resort";"767W+X2, Haloban, Kec. Pulau Banyak Bar., Kabupaten Aceh Singkil, Aceh";"Kabupaten Aceh Singkil, Aceh";"ACEH";"";"Indonesia";" 082275240282";"2.2649987";"97.2450814";"https://maps.google.com/?cid=0x0:0xb7eb4e237e2b16cc"
"mall";"Tujuan Wisata";"Wisata Pasi Bakelok";"Wisata Pasi Bakelok, Tlk. Nibung, Pulau Banyak, Kabupaten Aceh Singkil, Aceh 24791";"Tlk. Nibung, Pulau Banyak, Kabupaten Aceh Singkil";"ACEH";"24791";"Indonesia";" 085314174015";"2.3368473";"97.3883624";"https://maps.google.com/?cid=0x0:0xc211a91806b03d63"
"mall";"mall";"Aceh 24783";"Kabupaten Aceh Singkil, Aceh";"Kabupaten Aceh Singkil, Aceh";"ACEH";"";"Indonesia";"";"2.4071732";"97.991986";"https://maps.google.com/?cid=0x0:0x4541045a0abeaf53"
"mall";"Komplek perumahan";"Pajak Pekan Selasa Kt. Tinggi";"F33C+F5X, Kuta Tinggi, Kec. Simpang Kanan, Kabupaten Aceh Singkil, Aceh 24783";"Kuta Tinggi, Kec. Simpang Kanan, Kabupaten Aceh Singkil";"ACEH";"24783";"Indonesia";"";"2.4537426";"98.0704853";"https://maps.google.com/?cid=0x0:0x2c88215e9306ef70"
"mall";"Perguruan Tinggi";"potocopy bersama habibi berutu";"CXVR+3HR, batu korong STAISAR, Lipat Kajang, Kec. Simpang Kanan, Kabupaten Aceh Singkil, Aceh 24791";"batu korong STAISAR, Lipat Kajang, Kec. Simpang Kanan, Kabupaten Aceh Singkil";"ACEH";"24791";"Indonesia";" 085762259243";"2.4427386";"97.9913824";"https://maps.google.com/?cid=0x0:0x1619f33c05c787fa"
"mall";"Toko Swalayan";"Sodipta Sejahtera";"Tulaan, Kec. Gn. Meriah, Kabupaten Aceh Singkil, Aceh 24791";"Kec. Gn. Meriah, Kabupaten Aceh Singkil";"ACEH";"24791";"Indonesia";" 085761734840";"2.3917867";"97.9684282";"https://maps.google.com/?cid=0x0:0x6883a3a33a15dca4"
"mall";"Pasar";"Pasar Harian";"Jl. Iskandar Muda No.6 B, Lae Butar, Kec. Gn. Meriah, Kabupaten Aceh Singkil, Aceh 24791";"Lae Butar, Kec. Gn. Meriah, Kabupaten Aceh Singkil";"ACEH";"24791";"Indonesia";"";"2.3834844";"97.9603046";"https://maps.google.com/?cid=0x0:0x4f24ac94725593b4"
"mall";"Toko Perlengkapan Rumah";"Usaha Zahra";"9XH3+VP4, Tanah Bara, Kec. Gn. Meriah, Kabupaten Aceh Singkil, Aceh 24791";"Tanah Bara, Kec. Gn. Meriah, Kabupaten Aceh Singkil";"ACEH";"24791";"Indonesia";" 081375591516";"2.3796289";"97.9543339";"https://maps.google.com/?cid=0x0:0xf9e23614936f72ff"
"mall";"Toko";"Toko himpak";"CXVR+928 pengusaha marga manik, Unnamed Road, Lipat Kajang, Kec. Simpang Kanan, Kabupaten Aceh Singkil, Aceh 24791";"Unnamed Road, Lipat Kajang, Kec. Simpang Kanan, Kabupaten Aceh Singkil";"ACEH";"24791";"Indonesia";" 085760144995";"2.4434104";"97.9900842";"https://maps.google.com/?cid=0x0:0x8505ab5ef843f3c6"
"mall";"Pusat Perbelanjaan";"Asi Com Posel";"9W9Q+CJJ, Gn. Lagan, Kec. Gn. Meriah, Kabupaten Aceh Singkil, Aceh 24791";"Gn. Lagan, Kec. Gn. Meriah, Kabupaten Aceh Singkil";"ACEH";"24791";"Indonesia";" 085834235561";"2.368579";"97.9390048";"https://maps.google.com/?cid=0x0:0x77953277127386f1"
"mall";"Pusat Perbelanjaan";"Pandan Jaya";"CVCJ+3QX, Ladang Bisik, Kec. Singkohor, Kabupaten Aceh Singkil, Aceh 24783";"Ladang Bisik, Kec. Singkohor, Kabupaten Aceh Singkil";"ACEH";"24783";"Indonesia";"";"2.4202361";"97.8819983";"https://maps.google.com/?cid=0x0:0xd25aa191c5b4378f"
"mall";"Taman";"Durian Lemang";"F265+2P3, Silatong, Kec. Simpang Kanan, Kabupaten Aceh Singkil, Aceh 24791";"Silatong, Kec. Simpang Kanan, Kabupaten Aceh Singkil";"ACEH";"24791";"Indonesia";"";"2.4600036";"98.0093075";"https://maps.google.com/?cid=0x0:0x1eab265f406c20c5"
"mall";"Kantor Pajak";"PAJAK MINGGUAN PENANGGALAN";"J2MG+6VP, Cepu, Kec. Penanggalan, Kota Subulussalam, Aceh 24783";"Cepu, Kec. Penanggalan, Kota Subulussalam";"ACEH";"24783";"Indonesia";"";"2.6330913";"98.0271898";"https://maps.google.com/?cid=0x0:0x73017bb64652935"
"mall";"Toko Swalayan";"MARKET HABSAH";"J2R3+G7C, Jl. Teuku Umar, Subulussalam Sel., Kec. Simpang Kiri, Kota Subulussalam, Aceh 24782";"Jl. Teuku Umar, Subulussalam Sel., Kec. Simpang Kiri, Kota Subulussalam";"ACEH";"24782";"Indonesia";" 082167665155";"2.6413204";"98.0031385";"https://maps.google.com/?cid=0x0:0xaf4b9d2ce655a283"
"mall";"Pasar";"TOKO SATRIA POHAN";"9XP6+VCW, Lae Butar, Kec. Gn. Meriah, Kabupaten Aceh Singkil, Aceh 24791";"Lae Butar, Kec. Gn. Meriah, Kabupaten Aceh Singkil";"ACEH";"24791";"Indonesia";"";"2.3872281";"97.9610713";"https://maps.google.com/?cid=0x0:0x54a4f8b704d0f452"
"mall";"Toko Sepatu";"DnZ perfume/Rifa Collection";"Jl. TR.Angkasa no 49 Lae Butar Gn. Meriah 24784, Lae Butar, Kec. Gn. Meriah, Kabupaten Aceh Singkil, Aceh 24782";"Lae Butar, Kec. Gn. Meriah, Kabupaten Aceh Singkil";"ACEH";"24782";"Indonesia";" 081362801703";"2.3830093";"97.9576263";"https://maps.google.com/?cid=0x0:0x571381f27174da0e"
"mall";"Pusat Perbelanjaan";"Asi Com Posel";"9W9Q+CJJ, Gn. Lagan, Kec. Gn. Meriah, Kabupaten Aceh Singkil, Aceh 24791";"Gn. Lagan, Kec. Gn. Meriah, Kabupaten Aceh Singkil";"ACEH";"24791";"Indonesia";" 085834235561";"2.368579";"97.9390048";"https://maps.google.com/?cid=0x0:0x77953277127386f1"
"mall";"mall";"Riau 28992";"Kabupaten Rokan Hilir, Riau";"Kabupaten Rokan Hilir, Riau";"ACEH";"";"Indonesia";"";"1.6089504";"100.6647101";"https://maps.google.com/?cid=0x0:0x2b7f1924f159497b"
"mall";"Perguruan Tinggi";"potocopy bersama habibi berutu";"CXVR+3HR, batu korong STAISAR, Lipat Kajang, Kec. Simpang Kanan, Kabupaten Aceh Singkil, Aceh 24791";"batu korong STAISAR, Lipat Kajang, Kec. Simpang Kanan, Kabupaten Aceh Singkil";"ACEH";"24791";"Indonesia";" 085762259243";"2.4427386";"97.9913824";"https://maps.google.com/?cid=0x0:0x1619f33c05c787fa"
"mall";"mall";"TITA PONSEL";"CXVR+946, Jln STAISAR Batu Korong, Lipat Kajang, Kec. Simpang Kanan, Kabupaten Aceh Singkil, Aceh 24791";"Jln STAISAR Batu Korong, Lipat Kajang, Kec. Simpang Kanan, Kabupaten Aceh Singkil";"ACEH";"24791";"Indonesia";"";"2.4434014";"97.9902502";"https://maps.google.com/?cid=0x0:0x59f4fc9954e2012d"
"mall";"Pusat Perbelanjaan";"Toko Merpati Putih";"CXQV+P9Q, Unnamed Road, Lipat Kajang Atas, Kec. Simpang Kanan, Kabupaten Aceh Singkil, Aceh 24791";"Unnamed Road, Lipat Kajang Atas, Kec. Simpang Kanan, Kabupaten Aceh Singkil";"ACEH";"24791";"Indonesia";"";"2.4393442";"97.9934964";"https://maps.google.com/?cid=0x0:0xf69015abd984acee"
"mall";"Komplek perumahan";"Pajak Pekan Selasa Kt. Tinggi";"F33C+F5X, Kuta Tinggi, Kec. Simpang Kanan, Kabupaten Aceh Singkil, Aceh 24783";"Kuta Tinggi, Kec. Simpang Kanan, Kabupaten Aceh Singkil";"ACEH";"24783";"Indonesia";"";"2.4537426";"98.0704853";"https://maps.google.com/?cid=0x0:0x2c88215e9306ef70"
"mall";"Taman";"Durian Lemang";"F265+2P3, Silatong, Kec. Simpang Kanan, Kabupaten Aceh Singkil, Aceh 24791";"Silatong, Kec. Simpang Kanan, Kabupaten Aceh Singkil";"ACEH";"24791";"Indonesia";"";"2.4600036";"98.0093075";"https://maps.google.com/?cid=0x0:0x1eab265f406c20c5"
"mall";"Toko";"Toko himpak";"CXVR+928 pengusaha marga manik, Unnamed Road, Lipat Kajang, Kec. Simpang Kanan, Kabupaten Aceh Singkil, Aceh 24791";"Unnamed Road, Lipat Kajang, Kec. Simpang Kanan, Kabupaten Aceh Singkil";"ACEH";"24791";"Indonesia";" 085760144995";"2.4434104";"97.9900842";"https://maps.google.com/?cid=0x0:0x8505ab5ef843f3c6"
"mall";"Pusat Perbelanjaan";"Toko.SRC Citra";"9XW6+XMM, Rimo, Kec. Gn. Meriah, Kabupaten Aceh Singkil, Aceh 24791";"Rimo, Kec. Gn. Meriah, Kabupaten Aceh Singkil";"ACEH";"24791";"Indonesia";"";"2.3974531";"97.9616587";"https://maps.google.com/?cid=0x0:0xad025692e3c547cb"
"mall";"Toko";"Manik photocopy";"F2JX+F4X, Siompin, Kec. Suro Makmur, Kabupaten Aceh Singkil, Aceh 24791";"Siompin, Kec. Suro Makmur, Kabupaten Aceh Singkil";"ACEH";"24791";"Indonesia";" 082273503546";"2.4812433";"98.047853";"https://maps.google.com/?cid=0x0:0xdafbebac18b4d637"
"mall";"Pusat Perbelanjaan";"Usaha dua sejalan";"C234+W32, Unnamed Road, Sanggaberu Silulusan, Kec. Gn. Meriah, Kabupaten Aceh Singkil, Aceh 24783";"Unnamed Road, Sanggaberu Silulusan, Kec. Gn. Meriah, Kabupaten Aceh Singkil";"ACEH";"24783";"Indonesia";" 085760274254";"2.404771";"98.005127";"https://maps.google.com/?cid=0x0:0x6d76ef33dca8e998"
"mall";"Toko";"Toko masida";"CXVQ+35C, Lipat Kajang, Kec. Simpang Kanan, Kabupaten Aceh Singkil, Aceh 24791";"Lipat Kajang, Kec. Simpang Kanan, Kabupaten Aceh Singkil";"ACEH";"24791";"Indonesia";"";"2.4426931";"97.9878977";"https://maps.google.com/?cid=0x0:0x49ae9524c2d6c0b9"
"mall";"Sekolah";"Pande besi budiblok2";"9X26+MF, Pandan Sari, Kec. Simpang Kanan, Kabupaten Aceh Singkil, Aceh 24472";"Pandan Sari, Kec. Simpang Kanan, Kabupaten Aceh Singkil";"ACEH";"24472";"Indonesia";"";"2.35175";"97.9612242";"https://maps.google.com/?cid=0x0:0xbfd64feb76c43c5e"
"mall";"Toko Swalayan";"Sodipta Sejahtera";"Tulaan, Kec. Gn. Meriah, Kabupaten Aceh Singkil, Aceh 24791";"Kec. Gn. Meriah, Kabupaten Aceh Singkil";"ACEH";"24791";"Indonesia";" 085761734840";"2.3917867";"97.9684282";"https://maps.google.com/?cid=0x0:0x6883a3a33a15dca4"
"mall";"mall";"Aceh 24785";"Kec. Kota Baharu, Kabupaten Aceh Singkil, Aceh";"Kabupaten Aceh Singkil, Aceh";"ACEH";"";"Indonesia";"";"2.4523065";"97.8123224";"https://maps.google.com/?cid=0x0:0x571276798298d3f5"
"mall";"Pusat Perbelanjaan";"UD pipit";"FVW3+2PV, Danau Bungara, Kec. Kota Baharu, Kabupaten Aceh Singkil, Aceh 24782";"Danau Bungara, Kec. Kota Baharu, Kabupaten Aceh Singkil";"ACEH";"24782";"Indonesia";" 085834917196";"2.4951186";"97.8542902";"https://maps.google.com/?cid=0x0:0x9891e8184b597dd8"
"mall";"Toko Pakaian";"Uni'gallery";"8WX6+3MJ, Sebatang, Kec. Gn. Meriah, Kabupaten Aceh Singkil, Aceh 24472";"Sebatang, Kec. Gn. Meriah, Kabupaten Aceh Singkil";"ACEH";"24472";"Indonesia";" 082267666809";"2.3477205";"97.911626";"https://maps.google.com/?cid=0x0:0xe84d95261fee325e"
"mall";"Kantor Perusahaan";"Code web Indonesia";"9XR6+2HM, Lae Butar, Kec. Gn. Meriah, Kabupaten Aceh Singkil, Aceh 24791";"Lae Butar, Kec. Gn. Meriah, Kabupaten Aceh Singkil";"ACEH";"24791";"Indonesia";" 082165700141";"2.3900801";"97.9614106";"https://maps.google.com/?cid=0x0:0x84cb3483a866d792"
"mall";"Toko";"TOKO KAMPONG COLLECTION";"9XM9+R98, Jl. Perjuangan, Blk. VI Baru, Kec. Gn. Meriah, Kabupaten Aceh Singkil, Aceh 24791";"Jl. Perjuangan, Blk. VI Baru, Kec. Gn. Meriah, Kabupaten Aceh Singkil";"ACEH";"24791";"Indonesia";" 082277433763";"2.3845308";"97.9684657";"https://maps.google.com/?cid=0x0:0xc9d0a1f8ad48d00c"
"mall";"Toko Perlengkapan Rumah";"TOKO PRIMA";"7RXW+XHF, Jl. Singkil - Rimo, Ujung Bawang, Kec. Singkil, Kabupaten Aceh Singkil, Aceh 24472";"Jl. Singkil - Rimo, Ujung Bawang, Kec. Singkil, Kabupaten Aceh Singkil";"ACEH";"24472";"Indonesia";" 081269500218";"2.2999468";"97.8464078";"https://maps.google.com/?cid=0x0:0x9c1bec6f000e8ac2"
"mall";"";"Bintang listrik";"Jl. Perjuangan dusun 1 No.213, Tulaan, Kec. Gn. Meriah, Kabupaten Aceh Singkil, Aceh 24791";"Tulaan, Kec. Gn. Meriah, Kabupaten Aceh Singkil";"ACEH";"24791";"Indonesia";"";"2.3869772";"97.9695901";"https://maps.google.com/?cid=0x0:0xb9dcee44ecda2b23"
"mall";"Makanan Kecil";"Warung Sudi";"CVFG+F58, Jalan Sri Kayu, Ladang Bisik, Kec. Kota Baharu, Kabupaten Aceh Singkil, Aceh 24783";"Jalan Sri Kayu, Ladang Bisik, Kec. Kota Baharu, Kabupaten Aceh Singkil";"ACEH";"24783";"Indonesia";"";"2.4236718";"97.8754627";"https://maps.google.com/?cid=0x0:0x80292e1085eaa99d"
"mall";"Toko Swalayan";"TOKOH SCOUT SINGKIL";"7RJ5+WFV, Unnamed Road, Pulo Sarok, Kec. Singkil, Kabupaten Aceh Singkil, Aceh 24472";"Unnamed Road, Pulo Sarok, Kec. Singkil, Kabupaten Aceh Singkil";"ACEH";"24472";"Indonesia";" 085270503115";"2.2823547";"97.8086685";"https://maps.google.com/?cid=0x0:0x140f347762b8c271"
"mall";"Kios";"kios tehnisi dan prabot";"7RQP+M9M, Selok Aceh, Kec. Singkil, Kabupaten Aceh Singkil, Aceh 24472";"Selok Aceh, Kec. Singkil, Kabupaten Aceh Singkil";"ACEH";"24472";"Indonesia";"";"2.2892056";"97.8359251";"https://maps.google.com/?cid=0x0:0xc2939f40fd140fd7"
"mall";"Minimarket";"Anita simbolon shop";"7RC4+RV6, Pulo Sarok, Kec. Singkil, Kabupaten Aceh Singkil, Aceh 24472";"Pulo Sarok, Kec. Singkil, Kabupaten Aceh Singkil";"ACEH";"24472";"Indonesia";" 081360295497";"2.272027";"97.8071336";"https://maps.google.com/?cid=0x0:0xe867dd16f6b1144c"
"mall";"Toko Swalayan";"ss. Water";"7QMV+F64, Jl. Utama, Pulo Sarok, Kec. Singkil, Kabupaten Aceh Singkil, Aceh 24472";"Jl. Utama, Pulo Sarok, Kec. Singkil, Kabupaten Aceh Singkil";"ACEH";"24472";"Indonesia";" 085382469262";"2.283631";"97.7930793";"https://maps.google.com/?cid=0x0:0x9673e8694109593f"
"mall";"mall";"Singkil";"Kec. Singkil, Kabupaten Aceh Singkil, Aceh";"Kabupaten Aceh Singkil, Aceh";"ACEH";"";"Indonesia";"";"2.2836143";"97.79873";"https://maps.google.com/?cid=0x0:0x4039d80b220d230"
"mall";"Pasar";"Pasar Sitiambia";"7QRM+9G7, Siti Ambia, Kec. Singkil, Kabupaten Aceh Singkil, Aceh 24472";"Siti Ambia, Kec. Singkil, Kabupaten Aceh Singkil";"ACEH";"24472";"Indonesia";"";"2.2909199";"97.7837863";"https://maps.google.com/?cid=0x0:0xbade842d2581604f"
"mall";"Pusat Perbelanjaan";"Ud Ceria Kado";"7RG6+FWP, desa, Pulo Sarok, Kec. Singkil, Kabupaten Aceh Singkil, Aceh 24472";"desa, Pulo Sarok, Kec. Singkil, Kabupaten Aceh Singkil";"ACEH";"24472";"Indonesia";" 081264996320";"2.2762167";"97.8123224";"https://maps.google.com/?cid=0x0:0xf72f9034e8e28085"
"mall";"Toko Swalayan";"TOKOH SCOUT SINGKIL";"7RJ5+WFV, Unnamed Road, Pulo Sarok, Kec. Singkil, Kabupaten Aceh Singkil, Aceh 24472";"Unnamed Road, Pulo Sarok, Kec. Singkil, Kabupaten Aceh Singkil";"ACEH";"24472";"Indonesia";" 085270503115";"2.2823547";"97.8086685";"https://maps.google.com/?cid=0x0:0x140f347762b8c271"
"mall";"Pusat Perbelanjaan";"Asi Com Posel";"9W9Q+CJJ, Gn. Lagan, Kec. Gn. Meriah, Kabupaten Aceh Singkil, Aceh 24791";"Gn. Lagan, Kec. Gn. Meriah, Kabupaten Aceh Singkil";"ACEH";"24791";"Indonesia";" 085834235561";"2.368579";"97.9390048";"https://maps.google.com/?cid=0x0:0x77953277127386f1"
"mall";"Toko Elektronik";"Tagam Konter";"Jalan Onan Senin (Ruko Pekan Senin) Desa, Siti Ambia, Kec. Singkil, Kabupaten Aceh Singkil, Aceh 24785";"Siti Ambia, Kec. Singkil, Kabupaten Aceh Singkil";"ACEH";"24785";"Indonesia";" 082290441717";"2.2908115";"97.7841022";"https://maps.google.com/?cid=0x0:0x176e4886364bd514"
"mall";"Toko Perlengkapan Rumah";"TOKO PRIMA";"7RXW+XHF, Jl. Singkil - Rimo, Ujung Bawang, Kec. Singkil, Kabupaten Aceh Singkil, Aceh 24472";"Jl. Singkil - Rimo, Ujung Bawang, Kec. Singkil, Kabupaten Aceh Singkil";"ACEH";"24472";"Indonesia";" 081269500218";"2.2999468";"97.8464078";"https://maps.google.com/?cid=0x0:0x9c1bec6f000e8ac2"
"mall";"Pusat Perbelanjaan";"TOKO UD. SAHID NET";"7RXW+3F3, Ujung Bawang, Kec. Singkil, Kabupaten Aceh Singkil, Aceh 24472";"Ujung Bawang, Kec. Singkil, Kabupaten Aceh Singkil";"ACEH";"24472";"Indonesia";" 081360143676";"2.2976259";"97.8461805";"https://maps.google.com/?cid=0x0:0x2dbaa44e22462adc"
"mall";"Toko Pakaian";"Uni'gallery";"8WX6+3MJ, Sebatang, Kec. Gn. Meriah, Kabupaten Aceh Singkil, Aceh 24472";"Sebatang, Kec. Gn. Meriah, Kabupaten Aceh Singkil";"ACEH";"24472";"Indonesia";" 082267666809";"2.3477205";"97.911626";"https://maps.google.com/?cid=0x0:0xe84d95261fee325e"
"mall";"Toko Swalayan";"Sodipta Sejahtera";"Tulaan, Kec. Gn. Meriah, Kabupaten Aceh Singkil, Aceh 24791";"Kec. Gn. Meriah, Kabupaten Aceh Singkil";"ACEH";"24791";"Indonesia";" 085761734840";"2.3917867";"97.9684282";"https://maps.google.com/?cid=0x0:0x6883a3a33a15dca4"
"mall";"Toko";"Sartika";"7RW4+779 Rumah S, Tlk. Ambun, Kec. Singkil, Kabupaten Aceh Singkil, Aceh";"Kabupaten Aceh Singkil, Aceh";"ACEH";"";"Indonesia";"";"2.2956545";"97.8057432";"https://maps.google.com/?cid=0x0:0x6cf567e7bdef7ceb"
"mall";"Toko Pakaian";"Pekan Ujung Bawang";"7RXW+9H7, Ujung Bawang, Kec. Singkil, Kabupaten Aceh Singkil, Aceh 24472";"Ujung Bawang, Kec. Singkil, Kabupaten Aceh Singkil";"ACEH";"24472";"Indonesia";"";"2.2984019";"97.8464151";"https://maps.google.com/?cid=0x0:0x75a5862d4e02115"
"mall";"mall";"EKA FASHION";"7QMX+CFX, Pulo Sarok, Kec. Singkil, Kabupaten Aceh Singkil, Aceh 24472";"Pulo Sarok, Kec. Singkil, Kabupaten Aceh Singkil";"ACEH";"24472";"Indonesia";"";"2.2836143";"97.79873";"https://maps.google.com/?cid=0x0:0xa68c4ffbb87c6ae5"
"mall";"mall";"Singkil";"Kec. Singkil, Kabupaten Aceh Singkil, Aceh";"Kabupaten Aceh Singkil, Aceh";"ACEH";"";"Indonesia";"";"2.2836143";"97.79873";"https://maps.google.com/?cid=0x0:0x4039d80b220d230"
"mall";"Toko Swalayan";"ss. Water";"7QMV+F64, Jl. Utama, Pulo Sarok, Kec. Singkil, Kabupaten Aceh Singkil, Aceh 24472";"Jl. Utama, Pulo Sarok, Kec. Singkil, Kabupaten Aceh Singkil";"ACEH";"24472";"Indonesia";" 085382469262";"2.283631";"97.7930793";"https://maps.google.com/?cid=0x0:0x9673e8694109593f"
"mall";"Pasar";"Pasar Sitiambia";"7QRM+9G7, Siti Ambia, Kec. Singkil, Kabupaten Aceh Singkil, Aceh 24472";"Siti Ambia, Kec. Singkil, Kabupaten Aceh Singkil";"ACEH";"24472";"Indonesia";"";"2.2909199";"97.7837863";"https://maps.google.com/?cid=0x0:0xbade842d2581604f"
"mall";"Toko Swalayan";"TOKOH SCOUT SINGKIL";"7RJ5+WFV, Unnamed Road, Pulo Sarok, Kec. Singkil, Kabupaten Aceh Singkil, Aceh 24472";"Unnamed Road, Pulo Sarok, Kec. Singkil, Kabupaten Aceh Singkil";"ACEH";"24472";"Indonesia";" 085270503115";"2.2823547";"97.8086685";"https://maps.google.com/?cid=0x0:0x140f347762b8c271"
"mall";"Pusat Perbelanjaan";"Ud Ceria Kado";"7RG6+FWP, desa, Pulo Sarok, Kec. Singkil, Kabupaten Aceh Singkil, Aceh 24472";"desa, Pulo Sarok, Kec. Singkil, Kabupaten Aceh Singkil";"ACEH";"24472";"Indonesia";" 081264996320";"2.2762167";"97.8123224";"https://maps.google.com/?cid=0x0:0xf72f9034e8e28085"
"mall";"Toko Elektronik";"Tagam Konter";"Jalan Onan Senin (Ruko Pekan Senin) Desa, Siti Ambia, Kec. Singkil, Kabupaten Aceh Singkil, Aceh 24785";"Siti Ambia, Kec. Singkil, Kabupaten Aceh Singkil";"ACEH";"24785";"Indonesia";" 082290441717";"2.2908115";"97.7841022";"https://maps.google.com/?cid=0x0:0x176e4886364bd514"
"mall";"Toko";"Sartika";"7RW4+779 Rumah S, Tlk. Ambun, Kec. Singkil, Kabupaten Aceh Singkil, Aceh";"Kabupaten Aceh Singkil, Aceh";"ACEH";"";"Indonesia";"";"2.2956545";"97.8057432";"https://maps.google.com/?cid=0x0:0x6cf567e7bdef7ceb"
"mall";"mall";"Pasar Pagi Lama";"7QJQ+VPW, Ps. Singkil, Kec. Singkil, Kabupaten Aceh Singkil, Aceh 24472";"Ps. Singkil, Kec. Singkil, Kabupaten Aceh Singkil";"ACEH";"24472";"Indonesia";"";"2.2822256";"97.7893272";"https://maps.google.com/?cid=0x0:0x1f62a0047088c5a9"
"mall";"mall";"EKA FASHION";"7QMX+CFX, Pulo Sarok, Kec. Singkil, Kabupaten Aceh Singkil, Aceh 24472";"Pulo Sarok, Kec. Singkil, Kabupaten Aceh Singkil";"ACEH";"24472";"Indonesia";"";"2.2836143";"97.79873";"https://maps.google.com/?cid=0x0:0xa68c4ffbb87c6ae5"
"mall";"mall";"Fisius Penjualan Kepiting";"7RF6+8VC, Jl. Bahari, Pulo Sarok, Kec. Singkil, Kabupaten Aceh Singkil, Aceh 24472";"Jl. Bahari, Pulo Sarok, Kec. Singkil, Kabupaten Aceh Singkil";"ACEH";"24472";"Indonesia";"";"2.2733152";"97.8121521";"https://maps.google.com/?cid=0x0:0x5281e6c0ac88c288"
"mall";"mall";"INDAH F STORE";"Jl. Utama No.75, Pulo Sarok, Kec. Singkil, Kabupaten Aceh Singkil, Aceh 24472";"Pulo Sarok, Kec. Singkil, Kabupaten Aceh Singkil";"ACEH";"24472";"Indonesia";"";"2.2837982";"97.7952088";"https://maps.google.com/?cid=0x0:0x94aedfd688813915"
"mall";"mall";"UD. Keluarga";"7QMP+XQ4, Ujung, Kec. Singkil, Kabupaten Aceh Singkil, Aceh 24472";"Ujung, Kec. Singkil, Kabupaten Aceh Singkil";"ACEH";"24472";"Indonesia";"";"2.2848882";"97.7869609";"https://maps.google.com/?cid=0x0:0x181bad6d3692d8a0"
"mall";"Kantor Pemerintah Distrik";"Aceh Singkil";"7RH3+HV9, Pulo Sarok, Kec. Singkil, Kabupaten Aceh Singkil, Aceh";"Kabupaten Aceh Singkil, Aceh";"ACEH";"";"Indonesia";"";"2.2789207";"97.8047222";"https://maps.google.com/?cid=0x0:0xfe9a9eb55d8e8c67"
"mall";"Tempat Ibadah";"Baitul Mal Kabupaten Aceh Singkil";"7VGM+X97, Jl. Singkil - Rimo, Gosong Telaga Bar., Kec. Singkil Utara, Kabupaten Aceh Singkil, Aceh 24472";"Jl. Singkil - Rimo, Gosong Telaga Bar., Kec. Singkil Utara, Kabupaten Aceh Singkil";"ACEH";"24472";"Indonesia";" 085258012917";"2.2774069";"97.8834361";"https://maps.google.com/?cid=0x0:0x6171c3c792cbca8c"
"mall";"mall";"Singkil";"Kec. Singkil, Kabupaten Aceh Singkil, Aceh";"Kabupaten Aceh Singkil, Aceh";"ACEH";"";"Indonesia";"";"2.2836143";"97.79873";"https://maps.google.com/?cid=0x0:0x4039d80b220d230"
"mall";"Toko Swalayan";"ss. Water";"7QMV+F64, Jl. Utama, Pulo Sarok, Kec. Singkil, Kabupaten Aceh Singkil, Aceh 24472";"Jl. Utama, Pulo Sarok, Kec. Singkil, Kabupaten Aceh Singkil";"ACEH";"24472";"Indonesia";" 085382469262";"2.283631";"97.7930793";"https://maps.google.com/?cid=0x0:0x9673e8694109593f"
"mall";"Pasar";"Pasar Sitiambia";"7QRM+9G7, Siti Ambia, Kec. Singkil, Kabupaten Aceh Singkil, Aceh 24472";"Siti Ambia, Kec. Singkil, Kabupaten Aceh Singkil";"ACEH";"24472";"Indonesia";"";"2.2909199";"97.7837863";"https://maps.google.com/?cid=0x0:0xbade842d2581604f"
"mall";"Pusat Perbelanjaan";"Ud Ceria Kado";"7RG6+FWP, desa, Pulo Sarok, Kec. Singkil, Kabupaten Aceh Singkil, Aceh 24472";"desa, Pulo Sarok, Kec. Singkil, Kabupaten Aceh Singkil";"ACEH";"24472";"Indonesia";" 081264996320";"2.2762167";"97.8123224";"https://maps.google.com/?cid=0x0:0xf72f9034e8e28085"
"mall";"Toko Elektronik";"Tagam Konter";"Jalan Onan Senin (Ruko Pekan Senin) Desa, Siti Ambia, Kec. Singkil, Kabupaten Aceh Singkil, Aceh 24785";"Siti Ambia, Kec. Singkil, Kabupaten Aceh Singkil";"ACEH";"24785";"Indonesia";" 082290441717";"2.2908115";"97.7841022";"https://maps.google.com/?cid=0x0:0x176e4886364bd514"
"mall";"Toko Swalayan";"TOKOH SCOUT SINGKIL";"7RJ5+WFV, Unnamed Road, Pulo Sarok, Kec. Singkil, Kabupaten Aceh Singkil, Aceh 24472";"Unnamed Road, Pulo Sarok, Kec. Singkil, Kabupaten Aceh Singkil";"ACEH";"24472";"Indonesia";" 085270503115";"2.2823547";"97.8086685";"https://maps.google.com/?cid=0x0:0x140f347762b8c271"
"mall";"Pusat Perbelanjaan";"Asi Com Posel";"9W9Q+CJJ, Gn. Lagan, Kec. Gn. Meriah, Kabupaten Aceh Singkil, Aceh 24791";"Gn. Lagan, Kec. Gn. Meriah, Kabupaten Aceh Singkil";"ACEH";"24791";"Indonesia";" 085834235561";"2.368579";"97.9390048";"https://maps.google.com/?cid=0x0:0x77953277127386f1"
"mall";"Toko";"Sartika";"7RW4+779 Rumah S, Tlk. Ambun, Kec. Singkil, Kabupaten Aceh Singkil, Aceh";"Kabupaten Aceh Singkil, Aceh";"ACEH";"";"Indonesia";"";"2.2956545";"97.8057432";"https://maps.google.com/?cid=0x0:0x6cf567e7bdef7ceb"
"mall";"mall";"Mandena Shoes";"7QPQ+8QH, Ps. Singkil, Kec. Singkil, Kabupaten Aceh Singkil, Aceh 24472";"Ps. Singkil, Kec. Singkil, Kabupaten Aceh Singkil";"ACEH";"24472";"Indonesia";"";"2.2858033";"97.7894971";"https://maps.google.com/?cid=0x0:0x75b7b3baa1bf3777"
"mall";"mall";"EKA FASHION";"7QMX+CFX, Pulo Sarok, Kec. Singkil, Kabupaten Aceh Singkil, Aceh 24472";"Pulo Sarok, Kec. Singkil, Kabupaten Aceh Singkil";"ACEH";"24472";"Indonesia";"";"2.2836143";"97.79873";"https://maps.google.com/?cid=0x0:0xa68c4ffbb87c6ae5"
"mall";"mall";"Fisius Penjualan Kepiting";"7RF6+8VC, Jl. Bahari, Pulo Sarok, Kec. Singkil, Kabupaten Aceh Singkil, Aceh 24472";"Jl. Bahari, Pulo Sarok, Kec. Singkil, Kabupaten Aceh Singkil";"ACEH";"24472";"Indonesia";"";"2.2733152";"97.8121521";"https://maps.google.com/?cid=0x0:0x5281e6c0ac88c288"
"mall";"mall";"UD. Keluarga";"7QMP+XQ4, Ujung, Kec. Singkil, Kabupaten Aceh Singkil, Aceh 24472";"Ujung, Kec. Singkil, Kabupaten Aceh Singkil";"ACEH";"24472";"Indonesia";"";"2.2848882";"97.7869609";"https://maps.google.com/?cid=0x0:0x181bad6d3692d8a0"
"mall";"mall";"INDAH F STORE";"Jl. Utama No.75, Pulo Sarok, Kec. Singkil, Kabupaten Aceh Singkil, Aceh 24472";"Pulo Sarok, Kec. Singkil, Kabupaten Aceh Singkil";"ACEH";"24472";"Indonesia";"";"2.2837982";"97.7952088";"https://maps.google.com/?cid=0x0:0x94aedfd688813915"
"mall";"Penggilingan";"PENGGILINGAN UD. USAHA ANANDA";"Ruko Pemda Jalan Onan Senin Siti Ambia, Pekan Senin, Kec. Singkil, Kabupaten Aceh Singkil, Aceh 24785";"Pekan Senin, Kec. Singkil, Kabupaten Aceh Singkil";"ACEH";"24785";"Indonesia";" 082298137449";"2.2906777";"97.7840723";"https://maps.google.com/?cid=0x0:0xde3b0c5179295767"
"mall";"mall";"Aceh 24785";"Kec. Kota Baharu, Kabupaten Aceh Singkil, Aceh";"Kabupaten Aceh Singkil, Aceh";"ACEH";"";"Indonesia";"";"2.4523065";"97.8123224";"https://maps.google.com/?cid=0x0:0x571276798298d3f5"
"mall";"Kantor Perusahaan";"Code web Indonesia";"9XR6+2HM, Lae Butar, Kec. Gn. Meriah, Kabupaten Aceh Singkil, Aceh 24791";"Lae Butar, Kec. Gn. Meriah, Kabupaten Aceh Singkil";"ACEH";"24791";"Indonesia";" 082165700141";"2.3900801";"97.9614106";"https://maps.google.com/?cid=0x0:0x84cb3483a866d792"
"mall";"Pusat Perbelanjaan";"UD pipit";"FVW3+2PV, Danau Bungara, Kec. Kota Baharu, Kabupaten Aceh Singkil, Aceh 24782";"Danau Bungara, Kec. Kota Baharu, Kabupaten Aceh Singkil";"ACEH";"24782";"Indonesia";" 085834917196";"2.4951186";"97.8542902";"https://maps.google.com/?cid=0x0:0x9891e8184b597dd8"
"mall";"Toko Swalayan";"Sodipta Sejahtera";"Tulaan, Kec. Gn. Meriah, Kabupaten Aceh Singkil, Aceh 24791";"Kec. Gn. Meriah, Kabupaten Aceh Singkil";"ACEH";"24791";"Indonesia";" 085761734840";"2.3917867";"97.9684282";"https://maps.google.com/?cid=0x0:0x6883a3a33a15dca4"
"mall";"Pusat Perbelanjaan";"Pusat Pasar Singkohor";"GWFH+GW3, Singkohor, Kec. Singkohor, Kabupaten Aceh Singkil, Aceh 24782";"Singkohor, Kec. Singkohor, Kabupaten Aceh Singkil";"ACEH";"24782";"Indonesia";"";"2.5237665";"97.9298108";"https://maps.google.com/?cid=0x0:0xe2496f8b091f335c"
"mall";"Pasar";"Pasar Harian";"Jl. Iskandar Muda No.6 B, Lae Butar, Kec. Gn. Meriah, Kabupaten Aceh Singkil, Aceh 24791";"Lae Butar, Kec. Gn. Meriah, Kabupaten Aceh Singkil";"ACEH";"24791";"Indonesia";"";"2.3834844";"97.9603046";"https://maps.google.com/?cid=0x0:0x4f24ac94725593b4"
"mall";"Toko Pakaian";"Kedai Mak Okti";"7WGQ+HXM, Gosong Telaga Tim., Kec. Singkil Utara, Kabupaten Aceh Singkil, Aceh 24791";"Gosong Telaga Tim., Kec. Singkil Utara, Kabupaten Aceh Singkil";"ACEH";"24791";"Indonesia";" 082258274576";"2.2764598";"97.939911";"https://maps.google.com/?cid=0x0:0x12e32bc1e60708ca"
"mall";"Toko Perlengkapan Rumah";"Usaha Zahra";"9XH3+VP4, Tanah Bara, Kec. Gn. Meriah, Kabupaten Aceh Singkil, Aceh 24791";"Tanah Bara, Kec. Gn. Meriah, Kabupaten Aceh Singkil";"ACEH";"24791";"Indonesia";" 081375591516";"2.3796289";"97.9543339";"https://maps.google.com/?cid=0x0:0xf9e23614936f72ff"
"mall";"Pasar";"TOKO SATRIA POHAN";"9XP6+VCW, Lae Butar, Kec. Gn. Meriah, Kabupaten Aceh Singkil, Aceh 24791";"Lae Butar, Kec. Gn. Meriah, Kabupaten Aceh Singkil";"ACEH";"24791";"Indonesia";"";"2.3872281";"97.9610713";"https://maps.google.com/?cid=0x0:0x54a4f8b704d0f452"
"mall";"Pusat Perbelanjaan";"Toko.SRC Citra";"9XW6+XMM, Rimo, Kec. Gn. Meriah, Kabupaten Aceh Singkil, Aceh 24791";"Rimo, Kec. Gn. Meriah, Kabupaten Aceh Singkil";"ACEH";"24791";"Indonesia";"";"2.3974531";"97.9616587";"https://maps.google.com/?cid=0x0:0xad025692e3c547cb"
"mall";"Pusat Perbelanjaan";"Pandan Jaya";"CVCJ+3QX, Ladang Bisik, Kec. Singkohor, Kabupaten Aceh Singkil, Aceh 24783";"Ladang Bisik, Kec. Singkohor, Kabupaten Aceh Singkil";"ACEH";"24783";"Indonesia";"";"2.4202361";"97.8819983";"https://maps.google.com/?cid=0x0:0xd25aa191c5b4378f"
"mall";"Toko Pakaian";"Uni'gallery";"8WX6+3MJ, Sebatang, Kec. Gn. Meriah, Kabupaten Aceh Singkil, Aceh 24472";"Sebatang, Kec. Gn. Meriah, Kabupaten Aceh Singkil";"ACEH";"24472";"Indonesia";" 082267666809";"2.3477205";"97.911626";"https://maps.google.com/?cid=0x0:0xe84d95261fee325e"
"mall";"Pusat Perbelanjaan";"Usaha dua sejalan";"C234+W32, Unnamed Road, Sanggaberu Silulusan, Kec. Gn. Meriah, Kabupaten Aceh Singkil, Aceh 24783";"Unnamed Road, Sanggaberu Silulusan, Kec. Gn. Meriah, Kabupaten Aceh Singkil";"ACEH";"24783";"Indonesia";" 085760274254";"2.404771";"98.005127";"https://maps.google.com/?cid=0x0:0x6d76ef33dca8e998"
"mall";"Toko Swalayan";"ss. Water";"7QMV+F64, Jl. Utama, Pulo Sarok, Kec. Singkil, Kabupaten Aceh Singkil, Aceh 24472";"Jl. Utama, Pulo Sarok, Kec. Singkil, Kabupaten Aceh Singkil";"ACEH";"24472";"Indonesia";" 085382469262";"2.283631";"97.7930793";"https://maps.google.com/?cid=0x0:0x9673e8694109593f"
"mall";"Pusat Perbelanjaan";"UD. ASIF Singkohor";"GWCJ+5QV, Singkohor, Kec. Singkohor, Kabupaten Aceh Singkil, Aceh 24782";"Singkohor, Kec. Singkohor, Kabupaten Aceh Singkil";"ACEH";"24782";"Indonesia";" 085270096767";"2.5204782";"97.9319331";"https://maps.google.com/?cid=0x0:0x6311ca8d5d2e482a"
"mall";"Pusat Perbelanjaan";"Pandan Jaya";"CVCJ+3QX, Ladang Bisik, Kec. Singkohor, Kabupaten Aceh Singkil, Aceh 24783";"Ladang Bisik, Kec. Singkohor, Kabupaten Aceh Singkil";"ACEH";"24783";"Indonesia";"";"2.4202361";"97.8819983";"https://maps.google.com/?cid=0x0:0xd25aa191c5b4378f"
"mall";"Toko bahan makanan";"Warung Sembako 3 Bersaudara";"GWCM+28J, Jl. Baung, Singkohor, Kec. Singkohor, Kabupaten Aceh Singkil, Aceh 24782";"Jl. Baung, Singkohor, Kec. Singkohor, Kabupaten Aceh Singkil";"ACEH";"24782";"Indonesia";" 085834354995";"2.5200895";"97.9332598";"https://maps.google.com/?cid=0x0:0xe00482fe90e2d88a"
"mall";"Pusat Perbelanjaan";"PUTRA SORAYA GROUP";"Unnamed Road, Ladang Bisik, Kec. Singkohor, Kabupaten Aceh Singkil, Aceh 24783";"Ladang Bisik, Kec. Singkohor, Kabupaten Aceh Singkil";"ACEH";"24783";"Indonesia";"";"2.4269457";"97.8860701";"https://maps.google.com/?cid=0x0:0x440b74e0b64ebc2d"
"mall";"Pusat Perbelanjaan";"UD.TIA";"GWCH+GXV, Singkohor, Kec. Singkohor, Kabupaten Aceh Singkil, Aceh 24782";"Singkohor, Kec. Singkohor, Kabupaten Aceh Singkil";"ACEH";"24782";"Indonesia";" 0816374105";"2.5213684";"97.9299275";"https://maps.google.com/?cid=0x0:0x726b7a36be8be88d"
"mall";"Balai masyarakat";"Jambu Madu Kosasih";"Jalan Delima, Pea Jambu, Kec. Singkohor, Kabupaten Aceh Singkil, Aceh 24783";"Pea Jambu, Kec. Singkohor, Kabupaten Aceh Singkil";"ACEH";"24783";"Indonesia";" 082268142903";"2.4253127";"97.8849502";"https://maps.google.com/?cid=0x0:0x200da9faf829b537"
"mall";"Pusat Perbelanjaan";"Pasar Desa Mukti Jaya";"HW3J+WC, Mukti Jaya, Kec. Singkohor, Kabupaten Aceh Singkil, Aceh";"Kabupaten Aceh Singkil, Aceh";"ACEH";"";"Indonesia";"";"2.5548125";"97.9310625";"https://maps.google.com/?cid=0x0:0xdd8805624d22151f"
"mall";"Pusat Perbelanjaan";"Markas Persari FC";"CVCJ+337, Sri Kayu, Kec. Singkohor, Kabupaten Aceh Singkil, Aceh 24783";"Sri Kayu, Kec. Singkohor, Kabupaten Aceh Singkil";"ACEH";"24783";"Indonesia";"";"2.4201566";"97.8801845";"https://maps.google.com/?cid=0x0:0x8c6706b318df289"
"mall";"Pasar";"Pasar Harian";"Jl. Iskandar Muda No.6 B, Lae Butar, Kec. Gn. Meriah, Kabupaten Aceh Singkil, Aceh 24791";"Lae Butar, Kec. Gn. Meriah, Kabupaten Aceh Singkil";"ACEH";"24791";"Indonesia";"";"2.3834844";"97.9603046";"https://maps.google.com/?cid=0x0:0x4f24ac94725593b4"
"mall";"Toko Perlengkapan Rumah";"Usaha Zahra";"9XH3+VP4, Tanah Bara, Kec. Gn. Meriah, Kabupaten Aceh Singkil, Aceh 24791";"Tanah Bara, Kec. Gn. Meriah, Kabupaten Aceh Singkil";"ACEH";"24791";"Indonesia";" 081375591516";"2.3796289";"97.9543339";"https://maps.google.com/?cid=0x0:0xf9e23614936f72ff"
"mall";"Pasar";"TOKO SATRIA POHAN";"9XP6+VCW, Lae Butar, Kec. Gn. Meriah, Kabupaten Aceh Singkil, Aceh 24791";"Lae Butar, Kec. Gn. Meriah, Kabupaten Aceh Singkil";"ACEH";"24791";"Indonesia";"";"2.3872281";"97.9610713";"https://maps.google.com/?cid=0x0:0x54a4f8b704d0f452"
"mall";"Pusat Perbelanjaan";"Asi Com Posel";"9W9Q+CJJ, Gn. Lagan, Kec. Gn. Meriah, Kabupaten Aceh Singkil, Aceh 24791";"Gn. Lagan, Kec. Gn. Meriah, Kabupaten Aceh Singkil";"ACEH";"24791";"Indonesia";" 085834235561";"2.368579";"97.9390048";"https://maps.google.com/?cid=0x0:0x77953277127386f1"
"mall";"mall";"Aceh 24784";"Kabupaten Aceh Singkil, Aceh";"Kabupaten Aceh Singkil, Aceh";"ACEH";"";"Indonesia";"";"2.152911";"97.2840888";"https://maps.google.com/?cid=0x0:0xab521459bf3c978c"
"mall";"Pedagang ternak";"UD. Boang Menalu";"Mandumpang, Kec. Suro Makmur, Kabupaten Aceh Singkil, Aceh 24783";"Kec. Suro Makmur, Kabupaten Aceh Singkil";"ACEH";"24783";"Indonesia";" 081260096697";"2.4778077";"98.0421622";"https://maps.google.com/?cid=0x0:0x4c3f978a705cf58e"
"mall";"Minimarket";"Pasar Teluk Nibung";"Tlk. Nibung, Pulau Banyak, Kabupaten Aceh Singkil, Aceh 24784";"Pulau Banyak, Kabupaten Aceh Singkil";"ACEH";"24784";"Indonesia";"";"2.3388909";"97.3869708";"https://maps.google.com/?cid=0x0:0xc26bc55de3e85d28"
"mall";"Pusat Perbelanjaan";"Usaha dua sejalan";"C234+W32, Unnamed Road, Sanggaberu Silulusan, Kec. Gn. Meriah, Kabupaten Aceh Singkil, Aceh 24783";"Unnamed Road, Sanggaberu Silulusan, Kec. Gn. Meriah, Kabupaten Aceh Singkil";"ACEH";"24783";"Indonesia";" 085760274254";"2.404771";"98.005127";"https://maps.google.com/?cid=0x0:0x6d76ef33dca8e998"
"mall";"Gudang";"UD. SALSABILA";"F2CF+9M4, Mandumpang, Kec. Suro Makmur, Kabupaten Aceh Singkil, Aceh 24791";"Mandumpang, Kec. Suro Makmur, Kabupaten Aceh Singkil";"ACEH";"24791";"Indonesia";" 082163842725";"2.4708948";"98.0242048";"https://maps.google.com/?cid=0x0:0x619a5c0c3f76fd0a"
"mall";"Toko";"Manik photocopy";"F2JX+F4X, Siompin, Kec. Suro Makmur, Kabupaten Aceh Singkil, Aceh 24791";"Siompin, Kec. Suro Makmur, Kabupaten Aceh Singkil";"ACEH";"24791";"Indonesia";" 082273503546";"2.4812433";"98.047853";"https://maps.google.com/?cid=0x0:0xdafbebac18b4d637"
"mall";"Toko umum";"KOMBIH JAYA CELL";"Dusun Rahmah, Jl. Hamzah Fansuri, Subulussalam Bar., Kec. Simpang Kiri, Kota Subulussalam, Aceh 24782";"Jl. Hamzah Fansuri, Subulussalam Bar., Kec. Simpang Kiri, Kota Subulussalam";"ACEH";"24782";"Indonesia";"";"2.6479413";"97.9885673";"https://maps.google.com/?cid=0x0:0x4d3a3433f488c13d"
"mall";"Pasar";"PASAR MODERN SUBULUSSALAM";"J2W4+9VQ, Subulussalam, Kec. Simpang Kiri, Kota Subulussalam, Aceh 24782";"Subulussalam, Kec. Simpang Kiri, Kota Subulussalam";"ACEH";"24782";"Indonesia";"";"2.6459703";"98.007245";"https://maps.google.com/?cid=0x0:0x6e8c53331d21c9ab"
"mall";"Toko";"Warung Fadila";"Kuta Cepu, Kec. Simpang Kiri, Kota Subulussalam, Aceh 24782";"Kec. Simpang Kiri, Kota Subulussalam";"ACEH";"24782";"Indonesia";" 082167080505";"2.6732751";"98.0004399";"https://maps.google.com/?cid=0x0:0x1b1b25ebbbc9f668"
"mall";"Toko bahan makanan";"Warung Sembako 3 Bersaudara";"GWCM+28J, Jl. Baung, Singkohor, Kec. Singkohor, Kabupaten Aceh Singkil, Aceh 24782";"Jl. Baung, Singkohor, Kec. Singkohor, Kabupaten Aceh Singkil";"ACEH";"24782";"Indonesia";" 085834354995";"2.5200895";"97.9332598";"https://maps.google.com/?cid=0x0:0xe00482fe90e2d88a"
"mall";"Pusat Perbelanjaan";"CEKAU SHOP";"JXXP+G2W, Jl. Hamzah Fansuri, Subulussalam Bar., Kec. Simpang Kiri, Kota Subulussalam, Aceh 24782";"Jl. Hamzah Fansuri, Subulussalam Bar., Kec. Simpang Kiri, Kota Subulussalam";"ACEH";"24782";"Indonesia";"";"2.6488723";"97.985071";"https://maps.google.com/?cid=0x0:0xba1f48bffc954687"
"mall";"Toko umum";"UD.jihan";"8C25+CC9, Pulau Balai, Pulau Banyak, Kabupaten Aceh Singkil, Aceh 24784";"Pulau Balai, Pulau Banyak, Kabupaten Aceh Singkil";"ACEH";"24784";"Indonesia";"";"2.3010488";"97.4086194";"https://maps.google.com/?cid=0x0:0x875a11a73365b4aa"
"mall";"Taman";"Durian Lemang";"F265+2P3, Silatong, Kec. Simpang Kanan, Kabupaten Aceh Singkil, Aceh 24791";"Silatong, Kec. Simpang Kanan, Kabupaten Aceh Singkil";"ACEH";"24791";"Indonesia";"";"2.4600036";"98.0093075";"https://maps.google.com/?cid=0x0:0x1eab265f406c20c5"
"mall";"Pusat Perbelanjaan";"Usaha Kelapa Nek KHAN";"89RP+72W, Jl. Lingkar Pulau Ujung Batu, Tlk. Nibung, Pulau Banyak, Kabupaten Aceh Singkil, Aceh 24784";"Jl. Lingkar Pulau Ujung Batu, Tlk. Nibung, Pulau Banyak, Kabupaten Aceh Singkil";"ACEH";"24784";"Indonesia";" 081264455633";"2.3407389";"97.385071";"https://maps.google.com/?cid=0x0:0x2ff8dcd42329b70"
"supermarket";"supermarket";"Aceh 24784";"Kabupaten Aceh Singkil, Aceh";"Kabupaten Aceh Singkil, Aceh";"ACEH";"";"Indonesia";"";"2.152911";"97.2840888";"https://maps.google.com/?cid=0x0:0xab521459bf3c978c"
"supermarket";"Toko Swalayan";"Toko Hizrah /Openg";"84F5+W5F, Biskang, Kec. Danau Paris, Kabupaten Aceh Singkil, Aceh 24472";"Biskang, Kec. Danau Paris, Kabupaten Aceh Singkil";"ACEH";"24472";"Indonesia";" 082168421865";"2.324814";"98.1079122";"https://maps.google.com/?cid=0x0:0x381759767bb50485"
"supermarket";"Toko umum";"UD. Faiz";"66GM+CVM Susan Suka Makmur, Jl. Tapian, Asantola, Pulau Banyak Barat, Aceh Singkil Regency, Aceh 24784";"Jl. Tapian, Asantola, Pulau Banyak Barat, Aceh Singkil Regency";"ACEH";"24784";"Indonesia";" 08126419769";"2.226089";"97.2346714";"https://maps.google.com/?cid=0x0:0xbd1816b41ae1e071"
"supermarket";"Taman";"Pasar Kota Baharu";"FVV2+RMJ, Danau Bungara, Kec. Kota Baharu, Kabupaten Aceh Singkil, Aceh 24782";"Danau Bungara, Kec. Kota Baharu, Kabupaten Aceh Singkil";"ACEH";"24782";"Indonesia";" 085835990135";"2.4945992";"97.8516556";"https://maps.google.com/?cid=0x0:0x73c428ec370e108e"
"supermarket";"Tujuan Wisata";"Toko Bora Pulau Banyak";"Jalan; Perikanan, Desa, Baguk Island, Banyak Island, Aceh Singkil Regency, Aceh 24971";"Desa, Baguk Island, Banyak Island, Aceh Singkil Regency";"ACEH";"24971";"Indonesia";" 081269227922";"2.2998107";"97.4108287";"https://maps.google.com/?cid=0x0:0xcf71f094f216502"
"supermarket";"Pusat Perbelanjaan";"Warung Pak Isno Berutu";"843F+CQ5, Napa Galuh, Kec. Danau Paris, Kabupaten Aceh Singkil, Aceh 24472";"Napa Galuh, Kec. Danau Paris, Kabupaten Aceh Singkil";"ACEH";"24472";"Indonesia";" 082273108355";"2.3035178";"98.1244832";"https://maps.google.com/?cid=0x0:0xb76b7073e380dd1e"
"supermarket";"Toko Swalayan";"FAZIA MARKET/ UD. FANY";"GW8J+H92, Jl. Bandeng, Lae Pinang, Kec. Singkohor, Kabupaten Aceh Singkil, Aceh 24791";"Jl. Bandeng, Lae Pinang, Kec. Singkohor, Kabupaten Aceh Singkil";"ACEH";"24791";"Indonesia";"";"2.5163914";"97.9308904";"https://maps.google.com/?cid=0x0:0x77eafbee64bd40af"
"supermarket";"Toko umum";"Toko Lia Jaya";"9XR7+68J, Rimo, Kec. Gn. Meriah, Kabupaten Aceh Singkil, Aceh";"Kabupaten Aceh Singkil, Aceh";"ACEH";"";"Indonesia";"";"2.3905993";"97.9632811";"https://maps.google.com/?cid=0x0:0x116568aa1106b1be"
"supermarket";"Pusat Perbelanjaan";"Teluk Nibung, aceh Singkil";"89VX+Q2G, Tlk. Nibung, Pulau Banyak, Kabupaten Aceh Singkil, Aceh 24784";"Tlk. Nibung, Pulau Banyak, Kabupaten Aceh Singkil";"ACEH";"24784";"Indonesia";"";"2.3444323";"97.3975845";"https://maps.google.com/?cid=0x0:0x3ac1df01ac51c4fb"
"supermarket";"Toko";"TOKO RURU";"C2VC+7W3, Siatas, Kec. Simpang Kanan, Kabupaten Aceh Singkil, Aceh 24782";"Siatas, Kec. Simpang Kanan, Kabupaten Aceh Singkil";"ACEH";"24782";"Indonesia";"";"2.4431378";"98.0222992";"https://maps.google.com/?cid=0x0:0xda46c4a9fe5ac4aa"
"supermarket";"Toko Kue";"IF cake  Bakkery";"Jl. Teuku Umar, Tangga Besi, Kec. Simpang Kiri, Kota Subulussalam, Aceh 24784";"Tangga Besi, Kec. Simpang Kiri, Kota Subulussalam";"ACEH";"24784";"Indonesia";" 085833427910";"2.663535";"98.0029588";"https://maps.google.com/?cid=0x0:0xc15d110ab9931cc7"
"supermarket";"Dapur Umum";"Tedy's house";"Pulau Baleh, Pulau Balai, Pulau Banyak, Kabupaten Aceh Singkil, Aceh 24784";"Pulau Balai, Pulau Banyak, Kabupaten Aceh Singkil";"ACEH";"24784";"Indonesia";" 082364098434";"2.3006366";"97.4105637";"https://maps.google.com/?cid=0x0:0x6c4445ead6b239b7"
"supermarket";"Pusat Perbelanjaan";"Pasar Pulau Balai";"8C26+27F, Pulau Balai, Pulau Banyak, Kabupaten Aceh Singkil, Aceh 24784";"Pulau Balai, Pulau Banyak, Kabupaten Aceh Singkil";"ACEH";"24784";"Indonesia";"";"2.300074";"97.4106871";"https://maps.google.com/?cid=0x0:0x821546ed91f24409"
"supermarket";"Toko";"Warung Lokik";"7CX6+PXQ, Jl. Perikanan, Pulau Baguk, Pulau Banyak, Kabupaten Aceh Singkil, Aceh 24784";"Jl. Perikanan, Pulau Baguk, Pulau Banyak, Kabupaten Aceh Singkil";"ACEH";"24784";"Indonesia";" 081370937757";"2.2993275";"97.4124888";"https://maps.google.com/?cid=0x0:0xa5614a0e93b03046"
"supermarket";"supermarket";"Aceh 24784";"Kabupaten Aceh Singkil, Aceh";"Kabupaten Aceh Singkil, Aceh";"ACEH";"";"Indonesia";"";"2.152911";"97.2840888";"https://maps.google.com/?cid=0x0:0xab521459bf3c978c"
"supermarket";"Toko umum";"Mirota";"Jl. Iskandar Muda No.6 B, Lae Butar, Kec. Gn. Meriah, Kabupaten Aceh Singkil, Aceh 24791";"Lae Butar, Kec. Gn. Meriah, Kabupaten Aceh Singkil";"ACEH";"24791";"Indonesia";"";"2.3911631";"97.9643999";"https://maps.google.com/?cid=0x0:0x1cfb0a26c94334f3"
"supermarket";"Toko Swalayan";"M M ABD Market";"PRF4+4QR, Pante Raya, Kec. Wih Pesam, Kabupaten Bener Meriah, Aceh 24471";"Pante Raya, Kec. Wih Pesam, Kabupaten Bener Meriah";"ACEH";"24471";"Indonesia";"";"4.7228728";"96.8068792";"https://maps.google.com/?cid=0x0:0x17f6c7d029216d6f"
"supermarket";"Perhimpunan Pengembang Perumahan";"Sejahtera Rimo";"9XR9+RQF, Gn. Meriah, Tunas Harapan, Gunung Meriah, Tulaan, Kec. Gn. Meriah, Kabupaten Aceh Singkil, Aceh 24791";"Gn. Meriah, Tunas Harapan, Gunung Meriah, Tulaan, Kec. Gn. Meriah, Kabupaten Aceh Singkil";"ACEH";"24791";"Indonesia";"";"2.3920612";"97.9694136";"https://maps.google.com/?cid=0x0:0x6dac90cbc82dd826"
"supermarket";"Toko Swalayan";"Sejahtera swalayan";"9XR9+WRF, Jl. Cut Meutia, Tulaan, Kec. Gn. Meriah, Kabupaten Aceh Singkil, Aceh";"Kabupaten Aceh Singkil, Aceh";"ACEH";"";"Indonesia";"";"2.3923118";"97.9695359";"https://maps.google.com/?cid=0x0:0x1e8b76a2e8dd3f6c"
"supermarket";"Toko bahan makanan";"Usaha GIGIH";"9XV7+473, Rimo, Kec. Gn. Meriah, Kabupaten Aceh Singkil, Aceh 24791";"Rimo, Kec. Gn. Meriah, Kabupaten Aceh Singkil";"ACEH";"24791";"Indonesia";" 081269676788";"2.3927513";"97.9631702";"https://maps.google.com/?cid=0x0:0x9c6f9b764272e668"
"supermarket";"Toko Swalayan";"M M Mufakat Market";"PRF4+5MW, Pante Raya, Kec. Wih Pesam, Kabupaten Bener Meriah, Aceh 24471";"Pante Raya, Kec. Wih Pesam, Kabupaten Bener Meriah";"ACEH";"24471";"Indonesia";"";"4.72299";"96.8067152";"https://maps.google.com/?cid=0x0:0x8fc19d2d2cb94ff9"
"supermarket";"Taman";"Pasar Kota Baharu";"FVV2+RMJ, Danau Bungara, Kec. Kota Baharu, Kabupaten Aceh Singkil, Aceh 24782";"Danau Bungara, Kec. Kota Baharu, Kabupaten Aceh Singkil";"ACEH";"24782";"Indonesia";" 085835990135";"2.4945992";"97.8516556";"https://maps.google.com/?cid=0x0:0x73c428ec370e108e"
"supermarket";"supermarket";"Aceh 24784";"Kabupaten Aceh Singkil, Aceh";"Kabupaten Aceh Singkil, Aceh";"ACEH";"";"Indonesia";"";"2.152911";"97.2840888";"https://maps.google.com/?cid=0x0:0xab521459bf3c978c"
"supermarket";"Toko umum";"UD. Faiz";"66GM+CVM Susan Suka Makmur, Jl. Tapian, Asantola, Pulau Banyak Barat, Aceh Singkil Regency, Aceh 24784";"Jl. Tapian, Asantola, Pulau Banyak Barat, Aceh Singkil Regency";"ACEH";"24784";"Indonesia";" 08126419769";"2.226089";"97.2346714";"https://maps.google.com/?cid=0x0:0xbd1816b41ae1e071"
"supermarket";"Toko bahan makanan";"Toko Sabena";"CXVR+722, Lipat Kajang, Kec. Simpang Kanan, Kabupaten Aceh Singkil, Aceh 24791";"Lipat Kajang, Kec. Simpang Kanan, Kabupaten Aceh Singkil";"ACEH";"24791";"Indonesia";" 085296679666";"2.4431455";"97.9900248";"https://maps.google.com/?cid=0x0:0x14f8be1a7c8ee714"
"supermarket";"Toko Swalayan";"UD.Fadly";"HW2J+9C3, Unnamed Road, Mukti Jaya, Kec. Singkohor, Kabupaten Aceh Singkil, Aceh 24782";"Unnamed Road, Mukti Jaya, Kec. Singkohor, Kabupaten Aceh Singkil";"ACEH";"24782";"Indonesia";" 085860211184";"2.550895";"97.931038";"https://maps.google.com/?cid=0x0:0x964975d5e593ca65"
"supermarket";"Grosir Barang Kelontong";"Toko A Delta";"F288+C9P, Mandumpang, Kec. Suro Makmur, Kabupaten Aceh Singkil, Aceh 24791";"Mandumpang, Kec. Suro Makmur, Kabupaten Aceh Singkil";"ACEH";"24791";"Indonesia";" 082370894151";"2.4660907";"98.015952";"https://maps.google.com/?cid=0x0:0xe8af08f02039f34b"
"supermarket";"Toko Swalayan";"Toko Hizrah /Openg";"84F5+W5F, Biskang, Kec. Danau Paris, Kabupaten Aceh Singkil, Aceh 24472";"Biskang, Kec. Danau Paris, Kabupaten Aceh Singkil";"ACEH";"24472";"Indonesia";" 082168421865";"2.324814";"98.1079122";"https://maps.google.com/?cid=0x0:0x381759767bb50485"
"supermarket";"Minimarket";"Swalayan Abdul Said";"F23H+VPC, Lae Riman, Kec. Simpang Kanan, Kabupaten Aceh Singkil, Aceh";"Kabupaten Aceh Singkil, Aceh";"ACEH";"";"Indonesia";"";"2.4546891";"98.0292698";"https://maps.google.com/?cid=0x0:0xb6276e55063e2ebc"
"supermarket";"Toko umum";"Toko Lia Jaya";"9XR7+68J, Rimo, Kec. Gn. Meriah, Kabupaten Aceh Singkil, Aceh";"Kabupaten Aceh Singkil, Aceh";"ACEH";"";"Indonesia";"";"2.3905993";"97.9632811";"https://maps.google.com/?cid=0x0:0x116568aa1106b1be"
"supermarket";"Perhimpunan Pengembang Perumahan";"Sejahtera Rimo";"9XR9+RQF, Gn. Meriah, Tunas Harapan, Gunung Meriah, Tulaan, Kec. Gn. Meriah, Kabupaten Aceh Singkil, Aceh 24791";"Gn. Meriah, Tunas Harapan, Gunung Meriah, Tulaan, Kec. Gn. Meriah, Kabupaten Aceh Singkil";"ACEH";"24791";"Indonesia";"";"2.3920612";"97.9694136";"https://maps.google.com/?cid=0x0:0x6dac90cbc82dd826"
"supermarket";"Tempat Penjualan Teh";"Kios Raska";"C2VC+6Q2, Siatas, Kec. Simpang Kanan, Kabupaten Aceh Singkil, Aceh 24782";"Siatas, Kec. Simpang Kanan, Kabupaten Aceh Singkil";"ACEH";"24782";"Indonesia";" 085658208058";"2.443008";"98.0218927";"https://maps.google.com/?cid=0x0:0x339df13d741d3c0"
"supermarket";"Toko";"TOKO RURU";"C2VC+7W3, Siatas, Kec. Simpang Kanan, Kabupaten Aceh Singkil, Aceh 24782";"Siatas, Kec. Simpang Kanan, Kabupaten Aceh Singkil";"ACEH";"24782";"Indonesia";"";"2.4431378";"98.0222992";"https://maps.google.com/?cid=0x0:0xda46c4a9fe5ac4aa"
"supermarket";"Pusat Perbelanjaan";"Pasar Pulau Balai";"8C26+27F, Pulau Balai, Pulau Banyak, Kabupaten Aceh Singkil, Aceh 24784";"Pulau Balai, Pulau Banyak, Kabupaten Aceh Singkil";"ACEH";"24784";"Indonesia";"";"2.300074";"97.4106871";"https://maps.google.com/?cid=0x0:0x821546ed91f24409"
"supermarket";"Toko Swalayan";"Diva Saoraya";"7RH3+CW4, Pulo Sarok, Kec. Singkil, Kabupaten Aceh Singkil, Aceh 24472";"Pulo Sarok, Kec. Singkil, Kabupaten Aceh Singkil";"ACEH";"24472";"Indonesia";"";"2.2785101";"97.8048158";"https://maps.google.com/?cid=0x0:0x76b0cb2a8e12e033"
"supermarket";"supermarket";"Kec. Kuala Baru";"Kabupaten Aceh Singkil, Aceh";"Kabupaten Aceh Singkil, Aceh";"ACEH";"";"Indonesia";"";"2.3496125";"97.7112967";"https://maps.google.com/?cid=0x0:0x48a3d100d6cd113b"
"supermarket";"Toko bahan makanan";"Darussalam Supermarket";"Jl. Utama Rukoh No.45-C, Kopelma Darussalam, Kec. Syiah Kuala, Kota Banda Aceh, Aceh 24415";"Kopelma Darussalam, Kec. Syiah Kuala, Kota Banda Aceh";"ACEH";"24415";"Indonesia";"";"5.5727133";"95.3635091";"https://maps.google.com/?cid=0x0:0x7ec192104910528b"
"supermarket";"Toko bahan makanan";"SimpangLima Grocery Store";"Jl. Tengku Angkasa H Abdullah Ujong Rimba No 20, Kp. Baru, Kec. Baiturrahman, Kota Banda Aceh, Aceh 23242";"Kp. Baru, Kec. Baiturrahman, Kota Banda Aceh";"ACEH";"23242";"Indonesia";" 0811686677";"5.5504966";"95.3167777";"https://maps.google.com/?cid=0x0:0x22361fe0a56c2da4"
"supermarket";"Toko";"UD. SANTRI";"Jln. Pasar Senin No.Desa, Suka Makmur, Kec. Singkil, Kabupaten Aceh Singkil, Aceh 24785";"Suka Makmur, Kec. Singkil, Kabupaten Aceh Singkil";"ACEH";"24785";"Indonesia";" 082135075109";"2.2907931";"97.7845889";"https://maps.google.com/?cid=0x0:0xf063f80fd5c4c580"
"supermarket";"Toko Swalayan";"Sejahtera Swalayan";"J2Q6+63R, Jl. Teuku Umar, Subulussalam, Kec. Simpang Kiri, Kota Subulussalam, Aceh 24782";"Jl. Teuku Umar, Subulussalam, Kec. Simpang Kiri, Kota Subulussalam";"ACEH";"24782";"Indonesia";" 082364945924";"2.6381182";"98.0101402";"https://maps.google.com/?cid=0x0:0x1c3c383a97ef0327"
"supermarket";"Toko";"TOKO RAHMAT ILAHI JAYA";"7QPH+8P5, JL H M THAHER, Ujung, Kec. Singkil, Kabupaten Aceh Singkil, Aceh 24472";"JL H M THAHER, Ujung, Kec. Singkil, Kabupaten Aceh Singkil";"ACEH";"24472";"Indonesia";" 082296262699";"2.2857697";"97.779362";"https://maps.google.com/?cid=0x0:0x9540f831c06ef44"
"supermarket";"Minimarket";"Adma market";"7RH4+6F4, Pulo Sarok, Kec. Singkil, Kabupaten Aceh Singkil, Aceh 24472";"Pulo Sarok, Kec. Singkil, Kabupaten Aceh Singkil";"ACEH";"24472";"Indonesia";" 081263790965";"2.2780074";"97.8062135";"https://maps.google.com/?cid=0x0:0xfa40c88430d857e5"
"supermarket";"Toko bahan makanan";"UD. AA";"Jln H.M.Thaher, Ujung, Kec. Singkil, Kabupaten Aceh Singkil, Aceh 24785";"Ujung, Kec. Singkil, Kabupaten Aceh Singkil";"ACEH";"24785";"Indonesia";" 08116719332";"2.285451";"97.7798619";"https://maps.google.com/?cid=0x0:0x92a8780cd7f2c6e7"
"supermarket";"Toko Pakaian Pria";"Pasar Kilangan Singkil";"7QPC+4JV, Kilangan, Kec. Singkil, Kabupaten Aceh Singkil, Aceh 24472";"Kilangan, Kec. Singkil, Kabupaten Aceh Singkil";"ACEH";"24472";"Indonesia";"";"2.2853587";"97.7715441";"https://maps.google.com/?cid=0x0:0x37bd6cc834403697"
"supermarket";"Toko Swalayan";"Tugu,simpang,grosir";"7XM7+63W, Kp. Baru, Kec. Singkil Utara, Kabupaten Aceh Singkil, Aceh 24472";"Kp. Baru, Kec. Singkil Utara, Kabupaten Aceh Singkil";"ACEH";"24472";"Indonesia";"";"2.2831121";"97.9627111";"https://maps.google.com/?cid=0x0:0xc2681e0a422a4255"
"supermarket";"Toko Swalayan";"UD. WAHYU / PAK DOMET";"7QMQ+GM3, Ps. Singkil, Kec. Singkil, Kabupaten Aceh Singkil, Aceh 24472";"Ps. Singkil, Kec. Singkil, Kabupaten Aceh Singkil";"ACEH";"24472";"Indonesia";"";"2.28376";"97.7891705";"https://maps.google.com/?cid=0x0:0x7e32e8a24d25f561"
"supermarket";"Perhimpunan Pengembang Perumahan";"Sejahtera Rimo";"9XR9+RQF, Gn. Meriah, Tunas Harapan, Gunung Meriah, Tulaan, Kec. Gn. Meriah, Kabupaten Aceh Singkil, Aceh 24791";"Gn. Meriah, Tunas Harapan, Gunung Meriah, Tulaan, Kec. Gn. Meriah, Kabupaten Aceh Singkil";"ACEH";"24791";"Indonesia";"";"2.3920612";"97.9694136";"https://maps.google.com/?cid=0x0:0x6dac90cbc82dd826"
"supermarket";"Toko Buah dan Sayur";"Mahen Buah";"7RC4+XMF, Jl. Singkil - Rimo, Pulo Sarok, Kec. Singkil, Kabupaten Aceh Singkil, Aceh 24472";"Jl. Singkil - Rimo, Pulo Sarok, Kec. Singkil, Kabupaten Aceh Singkil";"ACEH";"24472";"Indonesia";" 082268142138";"2.2724497";"97.8066582";"https://maps.google.com/?cid=0x0:0x567461547263bc86"
"supermarket";"Toko bahan makanan";"Toko Tricom";"Jl. Bahari Desa No.1, Pulo Sarok, Kec. Singkil, Kabupaten Aceh Singkil, Aceh 24472";"Pulo Sarok, Kec. Singkil, Kabupaten Aceh Singkil";"ACEH";"24472";"Indonesia";" 082361992111";"2.2698262";"97.8169264";"https://maps.google.com/?cid=0x0:0x5c049a51ea5b4fe5"
"supermarket";"supermarket";"Pulau Banyak";"Kabupaten Aceh Singkil, Aceh";"Kabupaten Aceh Singkil, Aceh";"ACEH";"";"Indonesia";"";"2.3198851";"97.413802";"https://maps.google.com/?cid=0x0:0xf22eba8ba0db80e0"
"supermarket";"Tujuan Wisata";"Toko Bora Pulau Banyak";"Jalan; Perikanan, Desa, Baguk Island, Banyak Island, Aceh Singkil Regency, Aceh 24971";"Desa, Baguk Island, Banyak Island, Aceh Singkil Regency";"ACEH";"24971";"Indonesia";" 081269227922";"2.2998107";"97.4108287";"https://maps.google.com/?cid=0x0:0xcf71f094f216502"
"supermarket";"Pusat Perbelanjaan";"Teluk Nibung, aceh Singkil";"89VX+Q2G, Tlk. Nibung, Pulau Banyak, Kabupaten Aceh Singkil, Aceh 24784";"Tlk. Nibung, Pulau Banyak, Kabupaten Aceh Singkil";"ACEH";"24784";"Indonesia";"";"2.3444323";"97.3975845";"https://maps.google.com/?cid=0x0:0x3ac1df01ac51c4fb"
"supermarket";"Pusat Perbelanjaan";"Pasar Pulau Balai";"8C26+27F, Pulau Balai, Pulau Banyak, Kabupaten Aceh Singkil, Aceh 24784";"Pulau Balai, Pulau Banyak, Kabupaten Aceh Singkil";"ACEH";"24784";"Indonesia";"";"2.300074";"97.4106871";"https://maps.google.com/?cid=0x0:0x821546ed91f24409"
"supermarket";"Pusat Perbelanjaan";"Usaha Fahmi Kurniawan";"8C26+934 Kecamata, Jl Iskandar Muda, Pulau Balai, Pulau Banyak, Kabupaten Aceh Singkil, Aceh";"Kabupaten Aceh Singkil, Aceh";"ACEH";"";"Indonesia";" 082163571158";"2.3008927";"97.4102116";"https://maps.google.com/?cid=0x0:0x5063f986d72e7c11"
"supermarket";"Toko";"Nimar";"8C45+V45, Pulau Balai, Pulau Banyak, Kabupaten Aceh Singkil, Aceh 24784";"Pulau Balai, Pulau Banyak, Kabupaten Aceh Singkil";"ACEH";"24784";"Indonesia";" 082165293440";"2.3071414";"97.4078681";"https://maps.google.com/?cid=0x0:0x6451f79f530a1a34"
"supermarket";"Toko";"Outlet Raif Deffa";"8C35+9GG, Pulau Balai, Pulau Banyak, Kabupaten Aceh Singkil, Aceh 24784";"Pulau Balai, Pulau Banyak, Kabupaten Aceh Singkil";"ACEH";"24784";"Indonesia";"";"2.3034419";"97.4088183";"https://maps.google.com/?cid=0x0:0x34879fae887daef"
"supermarket";"Tujuan Wisata";"Pulau Banyak Online";"Pulau Balai, Pulau Banyak, Kabupaten Aceh Singkil, Aceh 24791";"Pulau Banyak, Kabupaten Aceh Singkil";"ACEH";"24791";"Indonesia";" 081361521336";"2.3007471";"97.4103485";"https://maps.google.com/?cid=0x0:0x86315172a494db0"
"supermarket";"Toko Pakaian";"UD. RAHMAT";"Pulau Balai, Pulau Banyak, Kabupaten Aceh Singkil, Aceh 24791";"Pulau Banyak, Kabupaten Aceh Singkil";"ACEH";"24791";"Indonesia";" 085260922550";"2.3004735";"97.4105859";"https://maps.google.com/?cid=0x0:0x5f08ce7a1822a6bb"
"supermarket";"Toko Pakaian";"Toko Souvenir Pulau Banyak";"8C26+C3Q, Pulau Balai, Pulau Banyak, Kabupaten Aceh Singkil, Aceh 24784";"Pulau Balai, Pulau Banyak, Kabupaten Aceh Singkil";"ACEH";"24784";"Indonesia";" 081265510859";"2.3010857";"97.4102278";"https://maps.google.com/?cid=0x0:0xe6d2b64b337b6a70"
"supermarket";"Toko umum";"UD. Faiz";"66GM+CVM Susan Suka Makmur, Jl. Tapian, Asantola, Pulau Banyak Barat, Aceh Singkil Regency, Aceh 24784";"Jl. Tapian, Asantola, Pulau Banyak Barat, Aceh Singkil Regency";"ACEH";"24784";"Indonesia";" 08126419769";"2.226089";"97.2346714";"https://maps.google.com/?cid=0x0:0xbd1816b41ae1e071"
"supermarket";"Toko umum";"Toko FERDIAN Pulau Banyak";"8C26+64R, Pulau Balai, Pulau Banyak, Kabupaten Aceh Singkil, Aceh 24784";"Pulau Balai, Pulau Banyak, Kabupaten Aceh Singkil";"ACEH";"24784";"Indonesia";" 085373262767";"2.3006237";"97.4102575";"https://maps.google.com/?cid=0x0:0xd5e2ee880099c5d2"
"supermarket";"Tujuan Wisata";"Warkop Pak Itam";"7C88+QJJ, Pulau Panjang, Kepulauan Banyak, Kabupaten Aceh Singkil, Aceh 24784";"Pulau Panjang, Kepulauan Banyak, Kabupaten Aceh Singkil";"ACEH";"24784";"Indonesia";"";"2.2669746";"97.4165041";"https://maps.google.com/?cid=0x0:0xdd4368cb148bb8b3"
"supermarket";"Toko";"Warung Lokik";"7CX6+PXQ, Jl. Perikanan, Pulau Baguk, Pulau Banyak, Kabupaten Aceh Singkil, Aceh 24784";"Jl. Perikanan, Pulau Baguk, Pulau Banyak, Kabupaten Aceh Singkil";"ACEH";"24784";"Indonesia";" 081370937757";"2.2993275";"97.4124888";"https://maps.google.com/?cid=0x0:0xa5614a0e93b03046"
"supermarket";"supermarket";"Kec. Pulau Banyak Bar.";"Kabupaten Aceh Singkil, Aceh";"Kabupaten Aceh Singkil, Aceh";"ACEH";"";"Indonesia";"";"2.2278739";"97.2326992";"https://maps.google.com/?cid=0x0:0x154c9da37cf5674f"
"supermarket";"Tujuan Wisata";"Toko Bora Pulau Banyak";"Jalan; Perikanan, Desa, Baguk Island, Banyak Island, Aceh Singkil Regency, Aceh 24971";"Desa, Baguk Island, Banyak Island, Aceh Singkil Regency";"ACEH";"24971";"Indonesia";" 081269227922";"2.2998107";"97.4108287";"https://maps.google.com/?cid=0x0:0xcf71f094f216502"
"supermarket";"Toko umum";"UD. Faiz";"66GM+CVM Susan Suka Makmur, Jl. Tapian, Asantola, Pulau Banyak Barat, Aceh Singkil Regency, Aceh 24784";"Jl. Tapian, Asantola, Pulau Banyak Barat, Aceh Singkil Regency";"ACEH";"24784";"Indonesia";" 08126419769";"2.226089";"97.2346714";"https://maps.google.com/?cid=0x0:0xbd1816b41ae1e071"
"supermarket";"supermarket";"Naila's house";"66HM+VC7, Haloban, Kec. Pulau Banyak Bar., Kabupaten Aceh Singkil, Aceh 24784";"Haloban, Kec. Pulau Banyak Bar., Kabupaten Aceh Singkil";"ACEH";"24784";"Indonesia";"";"2.2294646";"97.233396";"https://maps.google.com/?cid=0x0:0xc54aa770e2f740a5"
"supermarket";"Toko umum";"UD MAURA";"66JJ+767, Haloban, Kec. Pulau Banyak Bar., Kabupaten Aceh Singkil, Aceh 24784";"Haloban, Kec. Pulau Banyak Bar., Kabupaten Aceh Singkil";"ACEH";"24784";"Indonesia";" 085362186194";"2.2307156";"97.2306421";"https://maps.google.com/?cid=0x0:0xc9c4e88cc739dcbe"
"supermarket";"supermarket";"UD. Foto Copy Dan Print Photo (ATK dan ART)";"66HJ+3JJ, Haloban, Kec. Pulau Banyak Bar., Kabupaten Aceh Singkil, Aceh 24784";"Haloban, Kec. Pulau Banyak Bar., Kabupaten Aceh Singkil";"ACEH";"24784";"Indonesia";" 085207176534";"2.2277069";"97.2315137";"https://maps.google.com/?cid=0x0:0x473436ac5fb71b7f"
"supermarket";"Kios";"Almira Ponsel";"66HJ+F97, Bar, Haloban, Kec. Pulau Banyak Bar., Kabupaten Aceh Singkil, Aceh 24784";"Bar, Haloban, Kec. Pulau Banyak Bar., Kabupaten Aceh Singkil";"ACEH";"24784";"Indonesia";" 082276500285";"2.2286709";"97.230915";"https://maps.google.com/?cid=0x0:0x388a27e713c241a3"
"supermarket";"Toko Mebel";"Sentra Perabot Jaya";"67GX+MQ7, Ujung Sialit, Kec. Pulau Banyak Bar., Kabupaten Aceh Singkil, Aceh 24784";"Ujung Sialit, Kec. Pulau Banyak Bar., Kabupaten Aceh Singkil";"ACEH";"24784";"Indonesia";" 082363028702";"2.2266684";"97.2994114";"https://maps.google.com/?cid=0x0:0x2daa2e2225800b8e"
"supermarket";"Toko";"Nimar";"8C45+V45, Pulau Balai, Pulau Banyak, Kabupaten Aceh Singkil, Aceh 24784";"Pulau Balai, Pulau Banyak, Kabupaten Aceh Singkil";"ACEH";"24784";"Indonesia";" 082165293440";"2.3071414";"97.4078681";"https://maps.google.com/?cid=0x0:0x6451f79f530a1a34"
"supermarket";"Kedai Kopi";"Warung Mande";"66HJ+X29, Haloban, Kec. Pulau Banyak Bar., Kabupaten Aceh Singkil, Aceh 24784";"Haloban, Kec. Pulau Banyak Bar., Kabupaten Aceh Singkil";"ACEH";"24784";"Indonesia";"";"2.2299176";"97.2301107";"https://maps.google.com/?cid=0x0:0xced8d5a0ad640bfb"
"supermarket";"Kedai Kopi";"AADC";"66JJ+4CG, Haloban, Kec. Pulau Banyak Bar., Kabupaten Aceh Singkil, Aceh 24784";"Haloban, Kec. Pulau Banyak Bar., Kabupaten Aceh Singkil";"ACEH";"24784";"Indonesia";" 082167091081";"2.2303124";"97.2310645";"https://maps.google.com/?cid=0x0:0x67768be791d3981e"
"supermarket";"Pusat Perbelanjaan";"Teluk Nibung, aceh Singkil";"89VX+Q2G, Tlk. Nibung, Pulau Banyak, Kabupaten Aceh Singkil, Aceh 24784";"Tlk. Nibung, Pulau Banyak, Kabupaten Aceh Singkil";"ACEH";"24784";"Indonesia";"";"2.3444323";"97.3975845";"https://maps.google.com/?cid=0x0:0x3ac1df01ac51c4fb"
"supermarket";"Toko";"UD ANDINI";"66GM+X54, Haloban, Kec. Pulau Banyak Bar., Kabupaten Aceh Singkil, Aceh 24784";"Haloban, Kec. Pulau Banyak Bar., Kabupaten Aceh Singkil";"ACEH";"24784";"Indonesia";"";"2.2273753";"97.2329457";"https://maps.google.com/?cid=0x0:0x54f0887f221f9a22"
"supermarket";"supermarket";"Tailana Island";"Pulau Tailana, Haloban, Kec. Pulau Banyak Bar., Kabupaten Aceh Singkil, Aceh 24784";"Haloban, Kec. Pulau Banyak Bar., Kabupaten Aceh Singkil";"ACEH";"24784";"Indonesia";" 081361185844";"2.2780244";"97.2310793";"https://maps.google.com/?cid=0x0:0x64eb0cb42426de9"
"supermarket";"Toko bahan makanan";"Toko Sabena";"CXVR+722, Lipat Kajang, Kec. Simpang Kanan, Kabupaten Aceh Singkil, Aceh 24791";"Lipat Kajang, Kec. Simpang Kanan, Kabupaten Aceh Singkil";"ACEH";"24791";"Indonesia";" 085296679666";"2.4431455";"97.9900248";"https://maps.google.com/?cid=0x0:0x14f8be1a7c8ee714"
"supermarket";"supermarket";"Aceh 24783";"Kabupaten Aceh Singkil, Aceh";"Kabupaten Aceh Singkil, Aceh";"ACEH";"";"Indonesia";"";"2.4071732";"97.991986";"https://maps.google.com/?cid=0x0:0x4541045a0abeaf53"
"supermarket";"Perhimpunan Pengembang Perumahan";"Sejahtera Rimo";"9XR9+RQF, Gn. Meriah, Tunas Harapan, Gunung Meriah, Tulaan, Kec. Gn. Meriah, Kabupaten Aceh Singkil, Aceh 24791";"Gn. Meriah, Tunas Harapan, Gunung Meriah, Tulaan, Kec. Gn. Meriah, Kabupaten Aceh Singkil";"ACEH";"24791";"Indonesia";"";"2.3920612";"97.9694136";"https://maps.google.com/?cid=0x0:0x6dac90cbc82dd826"
"supermarket";"Toko";"Tri mart tempat whitdrawd/deposit";"C2J3+4V7, Sidodadi, Kec. Simpang Kanan, Kabupaten Aceh Singkil, Aceh 24783";"Sidodadi, Kec. Simpang Kanan, Kabupaten Aceh Singkil";"ACEH";"24783";"Indonesia";"";"2.4302831";"98.0046888";"https://maps.google.com/?cid=0x0:0x8d9585a6c7f65de6"
"supermarket";"Minimarket";"Swalayan Abdul Said";"F23H+VPC, Lae Riman, Kec. Simpang Kanan, Kabupaten Aceh Singkil, Aceh";"Kabupaten Aceh Singkil, Aceh";"ACEH";"";"Indonesia";"";"2.4546891";"98.0292698";"https://maps.google.com/?cid=0x0:0xb6276e55063e2ebc"
"supermarket";"Tempat Penjualan Teh";"Kios Raska";"C2VC+6Q2, Siatas, Kec. Simpang Kanan, Kabupaten Aceh Singkil, Aceh 24782";"Siatas, Kec. Simpang Kanan, Kabupaten Aceh Singkil";"ACEH";"24782";"Indonesia";" 085658208058";"2.443008";"98.0218927";"https://maps.google.com/?cid=0x0:0x339df13d741d3c0"
"supermarket";"Toko";"TOKO RURU";"C2VC+7W3, Siatas, Kec. Simpang Kanan, Kabupaten Aceh Singkil, Aceh 24782";"Siatas, Kec. Simpang Kanan, Kabupaten Aceh Singkil";"ACEH";"24782";"Indonesia";"";"2.4431378";"98.0222992";"https://maps.google.com/?cid=0x0:0xda46c4a9fe5ac4aa"
"supermarket";"Minimarket";"Indomaret Iskandar Muda Rimo";"9XV7+47P, Jl. Iskandar Muda, Lae Butar, Kec. Gn. Meriah, Kabupaten Aceh Singkil, Aceh 24791";"Jl. Iskandar Muda, Lae Butar, Kec. Gn. Meriah, Kabupaten Aceh Singkil";"ACEH";"24791";"Indonesia";" 0211500580";"2.39285";"97.9631983";"https://maps.google.com/?cid=0x0:0x1e8d2efb91c86b5b"
"supermarket";"Minimarket";"Warung bik Seh";"C2J5+M2H, Sukarejo, Kec. Simpang Kanan, Kabupaten Aceh Singkil, Aceh 24783";"Sukarejo, Kec. Simpang Kanan, Kabupaten Aceh Singkil";"ACEH";"24783";"Indonesia";"";"2.4317941";"98.0074182";"https://maps.google.com/?cid=0x0:0xb19efc6a3a8e1efa"
"supermarket";"Toko bahan makanan";"Usaha GIGIH";"9XV7+473, Rimo, Kec. Gn. Meriah, Kabupaten Aceh Singkil, Aceh 24791";"Rimo, Kec. Gn. Meriah, Kabupaten Aceh Singkil";"ACEH";"24791";"Indonesia";" 081269676788";"2.3927513";"97.9631702";"https://maps.google.com/?cid=0x0:0x9c6f9b764272e668"
"supermarket";"Toko umum";"Mirota";"Jl. Iskandar Muda No.6 B, Lae Butar, Kec. Gn. Meriah, Kabupaten Aceh Singkil, Aceh 24791";"Lae Butar, Kec. Gn. Meriah, Kabupaten Aceh Singkil";"ACEH";"24791";"Indonesia";"";"2.3911631";"97.9643999";"https://maps.google.com/?cid=0x0:0x1cfb0a26c94334f3"
"supermarket";"Toko bahan makanan";"Toko Manasuka";"9XR8+GJ9, Tulaan, Kec. Gn. Meriah, Kabupaten Aceh Singkil, Aceh 24791";"Tulaan, Kec. Gn. Meriah, Kabupaten Aceh Singkil";"ACEH";"24791";"Indonesia";"";"2.3912837";"97.9666137";"https://maps.google.com/?cid=0x0:0x643cf715b87f3ac6"
"supermarket";"Toko Ponsel";"TOKO NABIL PONSEL";"9XJ4+P95, Lae Butar, Kec. Gn. Meriah, Kabupaten Aceh Singkil, Aceh 24791";"Lae Butar, Kec. Gn. Meriah, Kabupaten Aceh Singkil";"ACEH";"24791";"Indonesia";"";"2.3817521";"97.955993";"https://maps.google.com/?cid=0x0:0xdb0720abd12c0937"
"supermarket";"Grosir";"TOKO KAYLA";"9XX7+7X9, Jl. Subulussalam, Rimo, Kec. Gn. Meriah, Kabupaten Aceh Singkil, Aceh 24791";"Jl. Subulussalam, Rimo, Kec. Gn. Meriah, Kabupaten Aceh Singkil";"ACEH";"24791";"Indonesia";" 08212677222";"2.3981575";"97.964981";"https://maps.google.com/?cid=0x0:0xda17cc5f214d8fb1"
"supermarket";"Toko bahan makanan";"Toko Sabena";"CXVR+722, Lipat Kajang, Kec. Simpang Kanan, Kabupaten Aceh Singkil, Aceh 24791";"Lipat Kajang, Kec. Simpang Kanan, Kabupaten Aceh Singkil";"ACEH";"24791";"Indonesia";" 085296679666";"2.4431455";"97.9900248";"https://maps.google.com/?cid=0x0:0x14f8be1a7c8ee714"
"supermarket";"supermarket";"Riau 28992";"Kabupaten Rokan Hilir, Riau";"Kabupaten Rokan Hilir, Riau";"ACEH";"";"Indonesia";"";"1.6089504";"100.6647101";"https://maps.google.com/?cid=0x0:0x2b7f1924f159497b"
"supermarket";"Perhimpunan Pengembang Perumahan";"Sejahtera Rimo";"9XR9+RQF, Gn. Meriah, Tunas Harapan, Gunung Meriah, Tulaan, Kec. Gn. Meriah, Kabupaten Aceh Singkil, Aceh 24791";"Gn. Meriah, Tunas Harapan, Gunung Meriah, Tulaan, Kec. Gn. Meriah, Kabupaten Aceh Singkil";"ACEH";"24791";"Indonesia";"";"2.3920612";"97.9694136";"https://maps.google.com/?cid=0x0:0x6dac90cbc82dd826"
"supermarket";"Tempat Penjualan Teh";"Kios Raska";"C2VC+6Q2, Siatas, Kec. Simpang Kanan, Kabupaten Aceh Singkil, Aceh 24782";"Siatas, Kec. Simpang Kanan, Kabupaten Aceh Singkil";"ACEH";"24782";"Indonesia";" 085658208058";"2.443008";"98.0218927";"https://maps.google.com/?cid=0x0:0x339df13d741d3c0"
"supermarket";"Toko";"TOKO RURU";"C2VC+7W3, Siatas, Kec. Simpang Kanan, Kabupaten Aceh Singkil, Aceh 24782";"Siatas, Kec. Simpang Kanan, Kabupaten Aceh Singkil";"ACEH";"24782";"Indonesia";"";"2.4431378";"98.0222992";"https://maps.google.com/?cid=0x0:0xda46c4a9fe5ac4aa"
"supermarket";"Minimarket";"Swalayan Abdul Said";"F23H+VPC, Lae Riman, Kec. Simpang Kanan, Kabupaten Aceh Singkil, Aceh";"Kabupaten Aceh Singkil, Aceh";"ACEH";"";"Indonesia";"";"2.4546891";"98.0292698";"https://maps.google.com/?cid=0x0:0xb6276e55063e2ebc"
"supermarket";"supermarket";"Swalayan Madina";"CXQR+9CQ, Lipat Kajang Atas, Kec. Simpang Kanan, Kabupaten Aceh Singkil, Aceh 24791";"Lipat Kajang Atas, Kec. Simpang Kanan, Kabupaten Aceh Singkil";"ACEH";"24791";"Indonesia";"";"2.4384744";"97.9911072";"https://maps.google.com/?cid=0x0:0xdf4e565c27d12988"
"supermarket";"supermarket";"Kec. Simpang Kanan";"Kabupaten Aceh Singkil, Aceh";"Kabupaten Aceh Singkil, Aceh";"ACEH";"";"Indonesia";"";"2.4382133";"97.9903392";"https://maps.google.com/?cid=0x0:0x8d3290c62e81c9f0"
"supermarket";"Toko";"Tri mart tempat whitdrawd/deposit";"C2J3+4V7, Sidodadi, Kec. Simpang Kanan, Kabupaten Aceh Singkil, Aceh 24783";"Sidodadi, Kec. Simpang Kanan, Kabupaten Aceh Singkil";"ACEH";"24783";"Indonesia";"";"2.4302831";"98.0046888";"https://maps.google.com/?cid=0x0:0x8d9585a6c7f65de6"
"supermarket";"Minimarket";"Warung bik Seh";"C2J5+M2H, Sukarejo, Kec. Simpang Kanan, Kabupaten Aceh Singkil, Aceh 24783";"Sukarejo, Kec. Simpang Kanan, Kabupaten Aceh Singkil";"ACEH";"24783";"Indonesia";"";"2.4317941";"98.0074182";"https://maps.google.com/?cid=0x0:0xb19efc6a3a8e1efa"
"supermarket";"Toko Perlengkapan Rumah";"Toko Setia Abadi";"CX38+MJ6, Sianjo Anjo Meriah, Kec. Gn. Meriah, Kabupaten Aceh Singkil, Aceh 24791";"Sianjo Anjo Meriah, Kec. Gn. Meriah, Kabupaten Aceh Singkil";"ACEH";"24791";"Indonesia";"";"2.4041749";"97.9665299";"https://maps.google.com/?cid=0x0:0x32372bcc6f22021d"
"supermarket";"Minimarket";"Indomaret Lipat Kajang";"CXQQ+4XH, Unnamed Road, Lipat Kajang Atas, Simpang Kanan, Aceh Singkil Regency, Aceh 24791";"Unnamed Road, Lipat Kajang Atas, Simpang Kanan, Aceh Singkil Regency";"ACEH";"24791";"Indonesia";"";"2.4378243";"97.9899702";"https://maps.google.com/?cid=0x0:0xfee2c47d187c0c7a"
"supermarket";"Toko bahan makanan";"Puja Water";"C2R7+XFV, Kuta Kerangan, Kec. Simpang Kanan, Kabupaten Aceh Singkil, Aceh 24782";"Kuta Kerangan, Kec. Simpang Kanan, Kabupaten Aceh Singkil";"ACEH";"24782";"Indonesia";"";"2.4424938";"98.0136852";"https://maps.google.com/?cid=0x0:0x9e218531daceaf20"
"supermarket";"Minimarket";"WADSERDA ZAKIA";"FX27+4CX, Cibubukan, Kec. Simpang Kanan, Kabupaten Aceh Singkil, Aceh 24782";"Cibubukan, Kec. Simpang Kanan, Kabupaten Aceh Singkil";"ACEH";"24782";"Indonesia";" 082361603298";"2.4510118";"97.9640299";"https://maps.google.com/?cid=0x0:0xb666c2b96cd491cc"
"supermarket";"supermarket";"Aceh 24785";"Kec. Kota Baharu, Kabupaten Aceh Singkil, Aceh";"Kabupaten Aceh Singkil, Aceh";"ACEH";"";"Indonesia";"";"2.4523065";"97.8123224";"https://maps.google.com/?cid=0x0:0x571276798298d3f5"
"supermarket";"Toko Swalayan";"Diva Saoraya";"7RH3+CW4, Pulo Sarok, Kec. Singkil, Kabupaten Aceh Singkil, Aceh 24472";"Pulo Sarok, Kec. Singkil, Kabupaten Aceh Singkil";"ACEH";"24472";"Indonesia";"";"2.2785101";"97.8048158";"https://maps.google.com/?cid=0x0:0x76b0cb2a8e12e033"
"supermarket";"Toko umum";"Toko Lia Jaya";"9XR7+68J, Rimo, Kec. Gn. Meriah, Kabupaten Aceh Singkil, Aceh";"Kabupaten Aceh Singkil, Aceh";"ACEH";"";"Indonesia";"";"2.3905993";"97.9632811";"https://maps.google.com/?cid=0x0:0x116568aa1106b1be"
"supermarket";"Perhimpunan Pengembang Perumahan";"Sejahtera Rimo";"9XR9+RQF, Gn. Meriah, Tunas Harapan, Gunung Meriah, Tulaan, Kec. Gn. Meriah, Kabupaten Aceh Singkil, Aceh 24791";"Gn. Meriah, Tunas Harapan, Gunung Meriah, Tulaan, Kec. Gn. Meriah, Kabupaten Aceh Singkil";"ACEH";"24791";"Indonesia";"";"2.3920612";"97.9694136";"https://maps.google.com/?cid=0x0:0x6dac90cbc82dd826"
"supermarket";"Taman";"Pasar Kota Baharu";"FVV2+RMJ, Danau Bungara, Kec. Kota Baharu, Kabupaten Aceh Singkil, Aceh 24782";"Danau Bungara, Kec. Kota Baharu, Kabupaten Aceh Singkil";"ACEH";"24782";"Indonesia";" 085835990135";"2.4945992";"97.8516556";"https://maps.google.com/?cid=0x0:0x73c428ec370e108e"
"supermarket";"Toko bahan makanan";"Toko Muhammad Fajri Rao";"7VHJ+2CX, Gosong Telaga Bar., Kec. Singkil Utara, Kabupaten Aceh Singkil, Aceh 24472";"Gosong Telaga Bar., Kec. Singkil Utara, Kabupaten Aceh Singkil";"ACEH";"24472";"Indonesia";"";"2.2776064";"97.8811117";"https://maps.google.com/?cid=0x0:0xe826f09fcac5dbad"
"supermarket";"Toko bahan makanan";"Toko Sabena";"CXVR+722, Lipat Kajang, Kec. Simpang Kanan, Kabupaten Aceh Singkil, Aceh 24791";"Lipat Kajang, Kec. Simpang Kanan, Kabupaten Aceh Singkil";"ACEH";"24791";"Indonesia";" 085296679666";"2.4431455";"97.9900248";"https://maps.google.com/?cid=0x0:0x14f8be1a7c8ee714"
"supermarket";"Toko bahan makanan";"UD. AA";"Jln H.M.Thaher, Ujung, Kec. Singkil, Kabupaten Aceh Singkil, Aceh 24785";"Ujung, Kec. Singkil, Kabupaten Aceh Singkil";"ACEH";"24785";"Indonesia";" 08116719332";"2.285451";"97.7798619";"https://maps.google.com/?cid=0x0:0x92a8780cd7f2c6e7"
"supermarket";"Toko Swalayan";"FAZIA MARKET/ UD. FANY";"GW8J+H92, Jl. Bandeng, Lae Pinang, Kec. Singkohor, Kabupaten Aceh Singkil, Aceh 24791";"Jl. Bandeng, Lae Pinang, Kec. Singkohor, Kabupaten Aceh Singkil";"ACEH";"24791";"Indonesia";"";"2.5163914";"97.9308904";"https://maps.google.com/?cid=0x0:0x77eafbee64bd40af"
"supermarket";"Toko Swalayan";"Sejahtera swalayan";"9XR9+WRF, Jl. Cut Meutia, Tulaan, Kec. Gn. Meriah, Kabupaten Aceh Singkil, Aceh";"Kabupaten Aceh Singkil, Aceh";"ACEH";"";"Indonesia";"";"2.3923118";"97.9695359";"https://maps.google.com/?cid=0x0:0x1e8b76a2e8dd3f6c"
"supermarket";"Toko";"UD. SANTRI";"Jln. Pasar Senin No.Desa, Suka Makmur, Kec. Singkil, Kabupaten Aceh Singkil, Aceh 24785";"Suka Makmur, Kec. Singkil, Kabupaten Aceh Singkil";"ACEH";"24785";"Indonesia";" 082135075109";"2.2907931";"97.7845889";"https://maps.google.com/?cid=0x0:0xf063f80fd5c4c580"
"supermarket";"Toko Swalayan";"UD.Fadly";"HW2J+9C3, Unnamed Road, Mukti Jaya, Kec. Singkohor, Kabupaten Aceh Singkil, Aceh 24782";"Unnamed Road, Mukti Jaya, Kec. Singkohor, Kabupaten Aceh Singkil";"ACEH";"24782";"Indonesia";" 085860211184";"2.550895";"97.931038";"https://maps.google.com/?cid=0x0:0x964975d5e593ca65"
"supermarket";"Toko Pakaian Pria";"Pasar Kilangan Singkil";"7QPC+4JV, Kilangan, Kec. Singkil, Kabupaten Aceh Singkil, Aceh 24472";"Kilangan, Kec. Singkil, Kabupaten Aceh Singkil";"ACEH";"24472";"Indonesia";"";"2.2853587";"97.7715441";"https://maps.google.com/?cid=0x0:0x37bd6cc834403697"
"supermarket";"Toko bahan makanan";"Toko Tricom";"Jl. Bahari Desa No.1, Pulo Sarok, Kec. Singkil, Kabupaten Aceh Singkil, Aceh 24472";"Pulo Sarok, Kec. Singkil, Kabupaten Aceh Singkil";"ACEH";"24472";"Indonesia";" 082361992111";"2.2698262";"97.8169264";"https://maps.google.com/?cid=0x0:0x5c049a51ea5b4fe5"
"supermarket";"supermarket";"Singkil";"Kec. Singkil, Kabupaten Aceh Singkil, Aceh";"Kabupaten Aceh Singkil, Aceh";"ACEH";"";"Indonesia";"";"2.2836143";"97.79873";"https://maps.google.com/?cid=0x0:0x4039d80b220d230"
"supermarket";"Minimarket";"Adma market";"7RH4+6F4, Pulo Sarok, Kec. Singkil, Kabupaten Aceh Singkil, Aceh 24472";"Pulo Sarok, Kec. Singkil, Kabupaten Aceh Singkil";"ACEH";"24472";"Indonesia";" 081263790965";"2.2780074";"97.8062135";"https://maps.google.com/?cid=0x0:0xfa40c88430d857e5"
"supermarket";"Toko Swalayan";"Diva Saoraya";"7RH3+CW4, Pulo Sarok, Kec. Singkil, Kabupaten Aceh Singkil, Aceh 24472";"Pulo Sarok, Kec. Singkil, Kabupaten Aceh Singkil";"ACEH";"24472";"Indonesia";"";"2.2785101";"97.8048158";"https://maps.google.com/?cid=0x0:0x76b0cb2a8e12e033"
"supermarket";"Pasar";"Pasar Singkil Lama";"7QJQ+VPW, Ps. Singkil, Kec. Singkil, Kabupaten Aceh Singkil, Aceh 24472";"Ps. Singkil, Kec. Singkil, Kabupaten Aceh Singkil";"ACEH";"24472";"Indonesia";"";"2.2822267";"97.7893271";"https://maps.google.com/?cid=0x0:0x340ec469c252a6d6"
"supermarket";"Minimarket";"M.A.G Mart";"Jl. Singkil - Rimo, Pulo Sarok, Kec. Singkil, Kabupaten Aceh Singkil, Aceh 24472";"Pulo Sarok, Kec. Singkil, Kabupaten Aceh Singkil";"ACEH";"24472";"Indonesia";"";"2.2723304";"97.8071256";"https://maps.google.com/?cid=0x0:0x9d4d8b4316c9fd52"
"supermarket";"Toko bahan makanan";"BAROKAH MART";"7RC6+7Q4, Pulo Sarok, Kec. Singkil, Kabupaten Aceh Singkil, Aceh 24472";"Pulo Sarok, Kec. Singkil, Kabupaten Aceh Singkil";"ACEH";"24472";"Indonesia";"";"2.2708283";"97.8117259";"https://maps.google.com/?cid=0x0:0x3456bbc137fbc7b"
"supermarket";"Toko Swalayan";"Toko Dyta";"7RH2+WJ2, Jl. Utama, Pulo Sarok, Kec. Singkil, Kabupaten Aceh Singkil, Aceh 24472";"Jl. Utama, Pulo Sarok, Kec. Singkil, Kabupaten Aceh Singkil";"ACEH";"24472";"Indonesia";"";"2.27977";"97.801527";"https://maps.google.com/?cid=0x0:0xbb056315d33d77bb"
"supermarket";"Toko bahan makanan";"Toko Arman";"7QJW+QR3, Pulo Sarok, Kec. Singkil, Kabupaten Aceh Singkil, Aceh 24472";"Pulo Sarok, Kec. Singkil, Kabupaten Aceh Singkil";"ACEH";"24472";"Indonesia";" 081262067944";"2.2818934";"97.7970516";"https://maps.google.com/?cid=0x0:0xb88d6b328cf8d4b"
"supermarket";"Apotek";"PUSAT STOKIES DAERAH HPAi TOKO BERJAYA SINGKIL";"Jl. Syaikh Hamzah Fansyuri No. 1 Dusun AL-Muflihin, Ps. Singkil, Kec. Singkil, Kabupaten Aceh Singkil, Aceh 24472";"Ps. Singkil, Kec. Singkil, Kabupaten Aceh Singkil";"ACEH";"24472";"Indonesia";" 081533334371";"2.2885778";"97.791542";"https://maps.google.com/?cid=0x0:0xc72b77660f97f294"
"supermarket";"Toko bahan makanan";"Toko Tricom";"Jl. Bahari Desa No.1, Pulo Sarok, Kec. Singkil, Kabupaten Aceh Singkil, Aceh 24472";"Pulo Sarok, Kec. Singkil, Kabupaten Aceh Singkil";"ACEH";"24472";"Indonesia";" 082361992111";"2.2698262";"97.8169264";"https://maps.google.com/?cid=0x0:0x5c049a51ea5b4fe5"
"supermarket";"Toko Swalayan";"Toko Sumber Rezeki";"7RH4+G36, Pulo Sarok, Kec. Singkil, Kabupaten Aceh Singkil, Aceh 24472";"Pulo Sarok, Kec. Singkil, Kabupaten Aceh Singkil";"ACEH";"24472";"Indonesia";"";"2.2788068";"97.8050728";"https://maps.google.com/?cid=0x0:0x67f56ba0367ad61b"
"supermarket";"Toko bahan makanan";"TOKO ARMAN 3/YUDI/RIO";"7RJ5+9GJ, Unnamed Road, Pulo Sarok, Kec. Singkil, Kabupaten Aceh Singkil, Aceh 24472";"Unnamed Road, Pulo Sarok, Kec. Singkil, Kabupaten Aceh Singkil";"ACEH";"24472";"Indonesia";" 085297573940";"2.2809677";"97.8087678";"https://maps.google.com/?cid=0x0:0xd727a65cae5adeae"
"supermarket";"Toko Buah dan Sayur";"Mahen Buah";"7RC4+XMF, Jl. Singkil - Rimo, Pulo Sarok, Kec. Singkil, Kabupaten Aceh Singkil, Aceh 24472";"Jl. Singkil - Rimo, Pulo Sarok, Kec. Singkil, Kabupaten Aceh Singkil";"ACEH";"24472";"Indonesia";" 082268142138";"2.2724497";"97.8066582";"https://maps.google.com/?cid=0x0:0x567461547263bc86"
"supermarket";"Toko";"Foto copy frizka mandiri";"7RH2+WXV, Jl. Bahari, Pulo Sarok, Kec. Singkil, Kabupaten Aceh Singkil, Aceh 24472";"Jl. Bahari, Pulo Sarok, Kec. Singkil, Kabupaten Aceh Singkil";"ACEH";"24472";"Indonesia";" 08163135947";"2.2798585";"97.8024267";"https://maps.google.com/?cid=0x0:0x7c50a38c2a7fa64c"
"supermarket";"supermarket";"Singkil";"Kec. Singkil, Kabupaten Aceh Singkil, Aceh";"Kabupaten Aceh Singkil, Aceh";"ACEH";"";"Indonesia";"";"2.2836143";"97.79873";"https://maps.google.com/?cid=0x0:0x4039d80b220d230"
"supermarket";"Toko Swalayan";"Diva Saoraya";"7RH3+CW4, Pulo Sarok, Kec. Singkil, Kabupaten Aceh Singkil, Aceh 24472";"Pulo Sarok, Kec. Singkil, Kabupaten Aceh Singkil";"ACEH";"24472";"Indonesia";"";"2.2785101";"97.8048158";"https://maps.google.com/?cid=0x0:0x76b0cb2a8e12e033"
"supermarket";"Minimarket";"Adma market";"7RH4+6F4, Pulo Sarok, Kec. Singkil, Kabupaten Aceh Singkil, Aceh 24472";"Pulo Sarok, Kec. Singkil, Kabupaten Aceh Singkil";"ACEH";"24472";"Indonesia";" 081263790965";"2.2780074";"97.8062135";"https://maps.google.com/?cid=0x0:0xfa40c88430d857e5"
"supermarket";"Minimarket";"M.A.G Mart";"Jl. Singkil - Rimo, Pulo Sarok, Kec. Singkil, Kabupaten Aceh Singkil, Aceh 24472";"Pulo Sarok, Kec. Singkil, Kabupaten Aceh Singkil";"ACEH";"24472";"Indonesia";"";"2.2723304";"97.8071256";"https://maps.google.com/?cid=0x0:0x9d4d8b4316c9fd52"
"supermarket";"Toko Pakaian Pria";"Pasar Kilangan Singkil";"7QPC+4JV, Kilangan, Kec. Singkil, Kabupaten Aceh Singkil, Aceh 24472";"Kilangan, Kec. Singkil, Kabupaten Aceh Singkil";"ACEH";"24472";"Indonesia";"";"2.2853587";"97.7715441";"https://maps.google.com/?cid=0x0:0x37bd6cc834403697"
"supermarket";"Toko Swalayan";"Toko Dyta";"7RH2+WJ2, Jl. Utama, Pulo Sarok, Kec. Singkil, Kabupaten Aceh Singkil, Aceh 24472";"Jl. Utama, Pulo Sarok, Kec. Singkil, Kabupaten Aceh Singkil";"ACEH";"24472";"Indonesia";"";"2.27977";"97.801527";"https://maps.google.com/?cid=0x0:0xbb056315d33d77bb"
"supermarket";"Toko bahan makanan";"Toko Tricom";"Jl. Bahari Desa No.1, Pulo Sarok, Kec. Singkil, Kabupaten Aceh Singkil, Aceh 24472";"Pulo Sarok, Kec. Singkil, Kabupaten Aceh Singkil";"ACEH";"24472";"Indonesia";" 082361992111";"2.2698262";"97.8169264";"https://maps.google.com/?cid=0x0:0x5c049a51ea5b4fe5"
"supermarket";"Toko Swalayan";"Toko Sumber Rezeki";"7RH4+G36, Pulo Sarok, Kec. Singkil, Kabupaten Aceh Singkil, Aceh 24472";"Pulo Sarok, Kec. Singkil, Kabupaten Aceh Singkil";"ACEH";"24472";"Indonesia";"";"2.2788068";"97.8050728";"https://maps.google.com/?cid=0x0:0x67f56ba0367ad61b"
"supermarket";"Pasar";"Pasar Singkil Lama";"7QJQ+VPW, Ps. Singkil, Kec. Singkil, Kabupaten Aceh Singkil, Aceh 24472";"Ps. Singkil, Kec. Singkil, Kabupaten Aceh Singkil";"ACEH";"24472";"Indonesia";"";"2.2822267";"97.7893271";"https://maps.google.com/?cid=0x0:0x340ec469c252a6d6"
"supermarket";"Toko bahan makanan";"Toko Arman";"7QJW+QR3, Pulo Sarok, Kec. Singkil, Kabupaten Aceh Singkil, Aceh 24472";"Pulo Sarok, Kec. Singkil, Kabupaten Aceh Singkil";"ACEH";"24472";"Indonesia";" 081262067944";"2.2818934";"97.7970516";"https://maps.google.com/?cid=0x0:0xb88d6b328cf8d4b"
"supermarket";"Toko bahan makanan";"TOKO ARMAN 3/YUDI/RIO";"7RJ5+9GJ, Unnamed Road, Pulo Sarok, Kec. Singkil, Kabupaten Aceh Singkil, Aceh 24472";"Unnamed Road, Pulo Sarok, Kec. Singkil, Kabupaten Aceh Singkil";"ACEH";"24472";"Indonesia";" 085297573940";"2.2809677";"97.8087678";"https://maps.google.com/?cid=0x0:0xd727a65cae5adeae"
"supermarket";"Minimarket";"Indomaret Singkil Bahari";"7RH3+6QH, Jl. Bahari, Pulo Sarok, Kec. Singkil, Kabupaten Aceh Singkil, Aceh 24472";"Jl. Bahari, Pulo Sarok, Kec. Singkil, Kabupaten Aceh Singkil";"ACEH";"24472";"Indonesia";"";"2.2780813";"97.8045154";"https://maps.google.com/?cid=0x0:0x742605eaa3aaee00"
"supermarket";"Apotek";"PUSAT STOKIES DAERAH HPAi TOKO BERJAYA SINGKIL";"Jl. Syaikh Hamzah Fansyuri No. 1 Dusun AL-Muflihin, Ps. Singkil, Kec. Singkil, Kabupaten Aceh Singkil, Aceh 24472";"Ps. Singkil, Kec. Singkil, Kabupaten Aceh Singkil";"ACEH";"24472";"Indonesia";" 081533334371";"2.2885778";"97.791542";"https://maps.google.com/?cid=0x0:0xc72b77660f97f294"
"supermarket";"Toko Buah dan Sayur";"Mahen Buah";"7RC4+XMF, Jl. Singkil - Rimo, Pulo Sarok, Kec. Singkil, Kabupaten Aceh Singkil, Aceh 24472";"Jl. Singkil - Rimo, Pulo Sarok, Kec. Singkil, Kabupaten Aceh Singkil";"ACEH";"24472";"Indonesia";" 082268142138";"2.2724497";"97.8066582";"https://maps.google.com/?cid=0x0:0x567461547263bc86"
"supermarket";"supermarket";"Singkil";"Kec. Singkil, Kabupaten Aceh Singkil, Aceh";"Kabupaten Aceh Singkil, Aceh";"ACEH";"";"Indonesia";"";"2.2836143";"97.79873";"https://maps.google.com/?cid=0x0:0x4039d80b220d230"
"supermarket";"Toko Swalayan";"Diva Saoraya";"7RH3+CW4, Pulo Sarok, Kec. Singkil, Kabupaten Aceh Singkil, Aceh 24472";"Pulo Sarok, Kec. Singkil, Kabupaten Aceh Singkil";"ACEH";"24472";"Indonesia";"";"2.2785101";"97.8048158";"https://maps.google.com/?cid=0x0:0x76b0cb2a8e12e033"
"supermarket";"Minimarket";"Adma market";"7RH4+6F4, Pulo Sarok, Kec. Singkil, Kabupaten Aceh Singkil, Aceh 24472";"Pulo Sarok, Kec. Singkil, Kabupaten Aceh Singkil";"ACEH";"24472";"Indonesia";" 081263790965";"2.2780074";"97.8062135";"https://maps.google.com/?cid=0x0:0xfa40c88430d857e5"
"supermarket";"Toko bahan makanan";"BAROKAH MART";"7RC6+7Q4, Pulo Sarok, Kec. Singkil, Kabupaten Aceh Singkil, Aceh 24472";"Pulo Sarok, Kec. Singkil, Kabupaten Aceh Singkil";"ACEH";"24472";"Indonesia";"";"2.2708283";"97.8117259";"https://maps.google.com/?cid=0x0:0x3456bbc137fbc7b"
"supermarket";"Pasar";"Pasar Singkil Lama";"7QJQ+VPW, Ps. Singkil, Kec. Singkil, Kabupaten Aceh Singkil, Aceh 24472";"Ps. Singkil, Kec. Singkil, Kabupaten Aceh Singkil";"ACEH";"24472";"Indonesia";"";"2.2822267";"97.7893271";"https://maps.google.com/?cid=0x0:0x340ec469c252a6d6"
"supermarket";"Toko bahan makanan";"Toko Arman";"7QJW+QR3, Pulo Sarok, Kec. Singkil, Kabupaten Aceh Singkil, Aceh 24472";"Pulo Sarok, Kec. Singkil, Kabupaten Aceh Singkil";"ACEH";"24472";"Indonesia";" 081262067944";"2.2818934";"97.7970516";"https://maps.google.com/?cid=0x0:0xb88d6b328cf8d4b"
"supermarket";"Toko Swalayan";"Toko Dyta";"7RH2+WJ2, Jl. Utama, Pulo Sarok, Kec. Singkil, Kabupaten Aceh Singkil, Aceh 24472";"Jl. Utama, Pulo Sarok, Kec. Singkil, Kabupaten Aceh Singkil";"ACEH";"24472";"Indonesia";"";"2.27977";"97.801527";"https://maps.google.com/?cid=0x0:0xbb056315d33d77bb"
"supermarket";"Minimarket";"M.A.G Mart";"Jl. Singkil - Rimo, Pulo Sarok, Kec. Singkil, Kabupaten Aceh Singkil, Aceh 24472";"Pulo Sarok, Kec. Singkil, Kabupaten Aceh Singkil";"ACEH";"24472";"Indonesia";"";"2.2723304";"97.8071256";"https://maps.google.com/?cid=0x0:0x9d4d8b4316c9fd52"
"supermarket";"Apotek";"PUSAT STOKIES DAERAH HPAi TOKO BERJAYA SINGKIL";"Jl. Syaikh Hamzah Fansyuri No. 1 Dusun AL-Muflihin, Ps. Singkil, Kec. Singkil, Kabupaten Aceh Singkil, Aceh 24472";"Ps. Singkil, Kec. Singkil, Kabupaten Aceh Singkil";"ACEH";"24472";"Indonesia";" 081533334371";"2.2885778";"97.791542";"https://maps.google.com/?cid=0x0:0xc72b77660f97f294"
"supermarket";"Toko bahan makanan";"Toko Tricom";"Jl. Bahari Desa No.1, Pulo Sarok, Kec. Singkil, Kabupaten Aceh Singkil, Aceh 24472";"Pulo Sarok, Kec. Singkil, Kabupaten Aceh Singkil";"ACEH";"24472";"Indonesia";" 082361992111";"2.2698262";"97.8169264";"https://maps.google.com/?cid=0x0:0x5c049a51ea5b4fe5"
"supermarket";"Toko Swalayan";"Toko Sumber Rezeki";"7RH4+G36, Pulo Sarok, Kec. Singkil, Kabupaten Aceh Singkil, Aceh 24472";"Pulo Sarok, Kec. Singkil, Kabupaten Aceh Singkil";"ACEH";"24472";"Indonesia";"";"2.2788068";"97.8050728";"https://maps.google.com/?cid=0x0:0x67f56ba0367ad61b"
"supermarket";"Toko bahan makanan";"TOKO ARMAN 3/YUDI/RIO";"7RJ5+9GJ, Unnamed Road, Pulo Sarok, Kec. Singkil, Kabupaten Aceh Singkil, Aceh 24472";"Unnamed Road, Pulo Sarok, Kec. Singkil, Kabupaten Aceh Singkil";"ACEH";"24472";"Indonesia";" 085297573940";"2.2809677";"97.8087678";"https://maps.google.com/?cid=0x0:0xd727a65cae5adeae"
"supermarket";"Toko";"Foto copy frizka mandiri";"7RH2+WXV, Jl. Bahari, Pulo Sarok, Kec. Singkil, Kabupaten Aceh Singkil, Aceh 24472";"Jl. Bahari, Pulo Sarok, Kec. Singkil, Kabupaten Aceh Singkil";"ACEH";"24472";"Indonesia";" 08163135947";"2.2798585";"97.8024267";"https://maps.google.com/?cid=0x0:0x7c50a38c2a7fa64c"
"supermarket";"Toko Swalayan";"UD. WAHYU / PAK DOMET";"7QMQ+GM3, Ps. Singkil, Kec. Singkil, Kabupaten Aceh Singkil, Aceh 24472";"Ps. Singkil, Kec. Singkil, Kabupaten Aceh Singkil";"ACEH";"24472";"Indonesia";"";"2.28376";"97.7891705";"https://maps.google.com/?cid=0x0:0x7e32e8a24d25f561"
"supermarket";"supermarket";"Aceh 24785";"Kec. Kota Baharu, Kabupaten Aceh Singkil, Aceh";"Kabupaten Aceh Singkil, Aceh";"ACEH";"";"Indonesia";"";"2.4523065";"97.8123224";"https://maps.google.com/?cid=0x0:0x571276798298d3f5"
"supermarket";"Toko Swalayan";"Diva Saoraya";"7RH3+CW4, Pulo Sarok, Kec. Singkil, Kabupaten Aceh Singkil, Aceh 24472";"Pulo Sarok, Kec. Singkil, Kabupaten Aceh Singkil";"ACEH";"24472";"Indonesia";"";"2.2785101";"97.8048158";"https://maps.google.com/?cid=0x0:0x76b0cb2a8e12e033"
"supermarket";"Toko umum";"Toko Lia Jaya";"9XR7+68J, Rimo, Kec. Gn. Meriah, Kabupaten Aceh Singkil, Aceh";"Kabupaten Aceh Singkil, Aceh";"ACEH";"";"Indonesia";"";"2.3905993";"97.9632811";"https://maps.google.com/?cid=0x0:0x116568aa1106b1be"
"supermarket";"Toko Swalayan";"Tugu,simpang,grosir";"7XM7+63W, Kp. Baru, Kec. Singkil Utara, Kabupaten Aceh Singkil, Aceh 24472";"Kp. Baru, Kec. Singkil Utara, Kabupaten Aceh Singkil";"ACEH";"24472";"Indonesia";"";"2.2831121";"97.9627111";"https://maps.google.com/?cid=0x0:0xc2681e0a422a4255"
"supermarket";"Perhimpunan Pengembang Perumahan";"Sejahtera Rimo";"9XR9+RQF, Gn. Meriah, Tunas Harapan, Gunung Meriah, Tulaan, Kec. Gn. Meriah, Kabupaten Aceh Singkil, Aceh 24791";"Gn. Meriah, Tunas Harapan, Gunung Meriah, Tulaan, Kec. Gn. Meriah, Kabupaten Aceh Singkil";"ACEH";"24791";"Indonesia";"";"2.3920612";"97.9694136";"https://maps.google.com/?cid=0x0:0x6dac90cbc82dd826"
"supermarket";"Toko bahan makanan";"Toko Sabena";"CXVR+722, Lipat Kajang, Kec. Simpang Kanan, Kabupaten Aceh Singkil, Aceh 24791";"Lipat Kajang, Kec. Simpang Kanan, Kabupaten Aceh Singkil";"ACEH";"24791";"Indonesia";" 085296679666";"2.4431455";"97.9900248";"https://maps.google.com/?cid=0x0:0x14f8be1a7c8ee714"
"supermarket";"Toko bahan makanan";"UD. AA";"Jln H.M.Thaher, Ujung, Kec. Singkil, Kabupaten Aceh Singkil, Aceh 24785";"Ujung, Kec. Singkil, Kabupaten Aceh Singkil";"ACEH";"24785";"Indonesia";" 08116719332";"2.285451";"97.7798619";"https://maps.google.com/?cid=0x0:0x92a8780cd7f2c6e7"
"supermarket";"Taman";"Pasar Kota Baharu";"FVV2+RMJ, Danau Bungara, Kec. Kota Baharu, Kabupaten Aceh Singkil, Aceh 24782";"Danau Bungara, Kec. Kota Baharu, Kabupaten Aceh Singkil";"ACEH";"24782";"Indonesia";" 085835990135";"2.4945992";"97.8516556";"https://maps.google.com/?cid=0x0:0x73c428ec370e108e"
"supermarket";"Toko";"UD. SANTRI";"Jln. Pasar Senin No.Desa, Suka Makmur, Kec. Singkil, Kabupaten Aceh Singkil, Aceh 24785";"Suka Makmur, Kec. Singkil, Kabupaten Aceh Singkil";"ACEH";"24785";"Indonesia";" 082135075109";"2.2907931";"97.7845889";"https://maps.google.com/?cid=0x0:0xf063f80fd5c4c580"
"supermarket";"Toko Swalayan";"UD.Fadly";"HW2J+9C3, Unnamed Road, Mukti Jaya, Kec. Singkohor, Kabupaten Aceh Singkil, Aceh 24782";"Unnamed Road, Mukti Jaya, Kec. Singkohor, Kabupaten Aceh Singkil";"ACEH";"24782";"Indonesia";" 085860211184";"2.550895";"97.931038";"https://maps.google.com/?cid=0x0:0x964975d5e593ca65"
"supermarket";"Toko Swalayan";"Toko Dyta";"7RH2+WJ2, Jl. Utama, Pulo Sarok, Kec. Singkil, Kabupaten Aceh Singkil, Aceh 24472";"Jl. Utama, Pulo Sarok, Kec. Singkil, Kabupaten Aceh Singkil";"ACEH";"24472";"Indonesia";"";"2.27977";"97.801527";"https://maps.google.com/?cid=0x0:0xbb056315d33d77bb"
"supermarket";"Toko Swalayan";"Sun Thay SP 4";"Sumber Mukti, Kec. Kota Baharu, Kabupaten Aceh Singkil, Aceh 24792";"Kec. Kota Baharu, Kabupaten Aceh Singkil";"ACEH";"24792";"Indonesia";" 082272541592";"2.5192125";"97.8856207";"https://maps.google.com/?cid=0x0:0x5a7655e6b94014e9"
"supermarket";"Toko Swalayan";"UD. RIAN";"Gn. Lagan, Kec. Gn. Meriah, Kabupaten Aceh Singkil, Aceh 24472";"Kec. Gn. Meriah, Kabupaten Aceh Singkil";"ACEH";"24472";"Indonesia";" 082369151071";"2.3473349";"97.9256252";"https://maps.google.com/?cid=0x0:0x30b8e1d0016fff62"
"supermarket";"Toko bahan makanan";"Toko Tricom";"Jl. Bahari Desa No.1, Pulo Sarok, Kec. Singkil, Kabupaten Aceh Singkil, Aceh 24472";"Pulo Sarok, Kec. Singkil, Kabupaten Aceh Singkil";"ACEH";"24472";"Indonesia";" 082361992111";"2.2698262";"97.8169264";"https://maps.google.com/?cid=0x0:0x5c049a51ea5b4fe5"
"supermarket";"supermarket";"Aceh 24784";"Kabupaten Aceh Singkil, Aceh";"Kabupaten Aceh Singkil, Aceh";"ACEH";"";"Indonesia";"";"2.152911";"97.2840888";"https://maps.google.com/?cid=0x0:0xab521459bf3c978c"
"supermarket";"Toko Swalayan";"UD.Fadly";"HW2J+9C3, Unnamed Road, Mukti Jaya, Kec. Singkohor, Kabupaten Aceh Singkil, Aceh 24782";"Unnamed Road, Mukti Jaya, Kec. Singkohor, Kabupaten Aceh Singkil";"ACEH";"24782";"Indonesia";" 085860211184";"2.550895";"97.931038";"https://maps.google.com/?cid=0x0:0x964975d5e593ca65"
"supermarket";"Toko bahan makanan";"Rumah Wak Budiman";"HW2J+F9W, Mukti Jaya, Kec. Singkohor, Kabupaten Aceh Singkil, Aceh 24782";"Mukti Jaya, Kec. Singkohor, Kabupaten Aceh Singkil";"ACEH";"24782";"Indonesia";" 085272894279";"2.5512329";"97.9309422";"https://maps.google.com/?cid=0x0:0x6b49048ca7bad5c0"
"supermarket";"Toko Beras";"UD.ANISSA SEMBAKO";"GWCC+92V, Jl. Paus, Singkohor, Kec. Singkohor, Kabupaten Aceh Singkil, Aceh 24782";"Jl. Paus, Singkohor, Kec. Singkohor, Kabupaten Aceh Singkil";"ACEH";"24782";"Indonesia";" 085664480496";"2.5209927";"97.9200526";"https://maps.google.com/?cid=0x0:0xf5e5457bbd13b17c"
"supermarket";"Toko";"Warung Reza";"Kampung pea jambu, Kec. Singkohor, Kabupaten Aceh Singkil, Aceh 24783";"Kec. Singkohor, Kabupaten Aceh Singkil";"ACEH";"24783";"Indonesia";"";"2.4227972";"97.8850109";"https://maps.google.com/?cid=0x0:0xcd16e1ed6e370090"
"supermarket";"supermarket";"Warung nopi";"GW8J+HHC, Lae Pinang, Kec. Singkohor, Kabupaten Aceh Singkil, Aceh 24791";"Lae Pinang, Kec. Singkohor, Kabupaten Aceh Singkil";"ACEH";"24791";"Indonesia";"";"2.5164393";"97.9313765";"https://maps.google.com/?cid=0x0:0xcf6eba75072f9e04"
"supermarket";"supermarket";"Aceh 24784";"Kabupaten Aceh Singkil, Aceh";"Kabupaten Aceh Singkil, Aceh";"ACEH";"";"Indonesia";"";"2.152911";"97.2840888";"https://maps.google.com/?cid=0x0:0xab521459bf3c978c"
"supermarket";"Toko umum";"UD. Faiz";"66GM+CVM Susan Suka Makmur, Jl. Tapian, Asantola, Pulau Banyak Barat, Aceh Singkil Regency, Aceh 24784";"Jl. Tapian, Asantola, Pulau Banyak Barat, Aceh Singkil Regency";"ACEH";"24784";"Indonesia";" 08126419769";"2.226089";"97.2346714";"https://maps.google.com/?cid=0x0:0xbd1816b41ae1e071"
"supermarket";"Bengkel Sepeda Motor";"Bengkel Eko";"F2CG+WVG, Mandumpang, Kec. Suro Makmur, Kabupaten Aceh Singkil, Aceh 24783";"Mandumpang, Kec. Suro Makmur, Kabupaten Aceh Singkil";"ACEH";"24783";"Indonesia";" 081273336671";"2.4723247";"98.0272028";"https://maps.google.com/?cid=0x0:0x4359ebb5ae8acb57"
"supermarket";"supermarket";"Kec. Suro Makmur";"Kabupaten Aceh Singkil, Aceh";"Kabupaten Aceh Singkil, Aceh";"ACEH";"";"Indonesia";"";"2.4956632";"98.045566";"https://maps.google.com/?cid=0x0:0xc1ae82d83dcb0c9a"
"supermarket";"Toko Swalayan";"UD.Fadly";"HW2J+9C3, Unnamed Road, Mukti Jaya, Kec. Singkohor, Kabupaten Aceh Singkil, Aceh 24782";"Unnamed Road, Mukti Jaya, Kec. Singkohor, Kabupaten Aceh Singkil";"ACEH";"24782";"Indonesia";" 085860211184";"2.550895";"97.931038";"https://maps.google.com/?cid=0x0:0x964975d5e593ca65"
"supermarket";"Tujuan Wisata";"Toko Bora Pulau Banyak";"Jalan; Perikanan, Desa, Baguk Island, Banyak Island, Aceh Singkil Regency, Aceh 24971";"Desa, Baguk Island, Banyak Island, Aceh Singkil Regency";"ACEH";"24971";"Indonesia";" 081269227922";"2.2998107";"97.4108287";"https://maps.google.com/?cid=0x0:0xcf71f094f216502"
"supermarket";"Pusat Perbelanjaan";"Usaha Fahmi Kurniawan";"8C26+934 Kecamata, Jl Iskandar Muda, Pulau Balai, Pulau Banyak, Kabupaten Aceh Singkil, Aceh";"Kabupaten Aceh Singkil, Aceh";"ACEH";"";"Indonesia";" 082163571158";"2.3008927";"97.4102116";"https://maps.google.com/?cid=0x0:0x5063f986d72e7c11"
"supermarket";"Toko";"TOKO RURU";"C2VC+7W3, Siatas, Kec. Simpang Kanan, Kabupaten Aceh Singkil, Aceh 24782";"Siatas, Kec. Simpang Kanan, Kabupaten Aceh Singkil";"ACEH";"24782";"Indonesia";"";"2.4431378";"98.0222992";"https://maps.google.com/?cid=0x0:0xda46c4a9fe5ac4aa"
"supermarket";"Toko umum";"UD MAURA";"66JJ+767, Haloban, Kec. Pulau Banyak Bar., Kabupaten Aceh Singkil, Aceh 24784";"Haloban, Kec. Pulau Banyak Bar., Kabupaten Aceh Singkil";"ACEH";"24784";"Indonesia";" 085362186194";"2.2307156";"97.2306421";"https://maps.google.com/?cid=0x0:0xc9c4e88cc739dcbe"
"supermarket";"Tempat Penjualan Teh";"Kios Raska";"C2VC+6Q2, Siatas, Kec. Simpang Kanan, Kabupaten Aceh Singkil, Aceh 24782";"Siatas, Kec. Simpang Kanan, Kabupaten Aceh Singkil";"ACEH";"24782";"Indonesia";" 085658208058";"2.443008";"98.0218927";"https://maps.google.com/?cid=0x0:0x339df13d741d3c0"
"supermarket";"Toko";"Warung Lokik";"7CX6+PXQ, Jl. Perikanan, Pulau Baguk, Pulau Banyak, Kabupaten Aceh Singkil, Aceh 24784";"Jl. Perikanan, Pulau Baguk, Pulau Banyak, Kabupaten Aceh Singkil";"ACEH";"24784";"Indonesia";" 081370937757";"2.2993275";"97.4124888";"https://maps.google.com/?cid=0x0:0xa5614a0e93b03046"
"supermarket";"Toko Swalayan";"FAZIA MARKET/ UD. FANY";"GW8J+H92, Jl. Bandeng, Lae Pinang, Kec. Singkohor, Kabupaten Aceh Singkil, Aceh 24791";"Jl. Bandeng, Lae Pinang, Kec. Singkohor, Kabupaten Aceh Singkil";"ACEH";"24791";"Indonesia";"";"2.5163914";"97.9308904";"https://maps.google.com/?cid=0x0:0x77eafbee64bd40af"
"supermarket";"Toko Swalayan";"Toko Hizrah /Openg";"84F5+W5F, Biskang, Kec. Danau Paris, Kabupaten Aceh Singkil, Aceh 24472";"Biskang, Kec. Danau Paris, Kabupaten Aceh Singkil";"ACEH";"24472";"Indonesia";" 082168421865";"2.324814";"98.1079122";"https://maps.google.com/?cid=0x0:0x381759767bb50485"
"supermarket";"Pusat Perbelanjaan";"Pasar Pulau Balai";"8C26+27F, Pulau Balai, Pulau Banyak, Kabupaten Aceh Singkil, Aceh 24784";"Pulau Balai, Pulau Banyak, Kabupaten Aceh Singkil";"ACEH";"24784";"Indonesia";"";"2.300074";"97.4106871";"https://maps.google.com/?cid=0x0:0x821546ed91f24409"
