Category;Real Category;Business Name;Address;City;State;Postal Code;Country;Phone;Latitude;Longitude;Map Link
"perumahan";"perumahan";"Aceh 24784";"Kabupaten Aceh Singkil, Aceh";"Kabupaten Aceh Singkil, Aceh";"ACEH";"";"Indonesia";"";"2.152911";"97.2840888";"https://maps.google.com/?cid=0x0:0xab521459bf3c978c"
"perumahan";"Pembangunan Perumahan";"BRR Harmon Tanjung";"Haloban, Kec. Pulau Banyak Bar., Kabupaten Aceh Singkil, Aceh 24784";"Kec. Pulau Banyak Bar., Kabupaten Aceh Singkil";"ACEH";"24784";"Indonesia";" 085374714838";"2.2260528";"97.2345945";"https://maps.google.com/?cid=0x0:0x51ad094c7d8b745f"
"perumahan";"perumahan";"Perumahan yayasan bunga Alqur'an";"JL. Rimo No.Km. 07, Butar, Kec. Kota Baharu, Kabupaten Aceh Singkil, Aceh 24783";"Butar, Kec. Kota Baharu, Kabupaten Aceh Singkil";"ACEH";"24783";"Indonesia";"";"2.445945";"97.895955";"https://maps.google.com/?cid=0x0:0xf25f639dad30f067"
"perumahan";"perumahan";"N/A";"";"";"ACEH";"";"Indonesia";"";"";"";"https://maps.google.com/?cid=0x0:0xc1e8ad17d54a69cd"
"perumahan";"Komplek perumahan";"Rumah Bang Chaniago";"66HJ+H5J, Bar, Haloban, Kec. Pulau Banyak Bar., Kabupaten Aceh Singkil, Aceh 24784";"Bar, Haloban, Kec. Pulau Banyak Bar., Kabupaten Aceh Singkil";"ACEH";"24784";"Indonesia";"";"2.2289547";"97.2304007";"https://maps.google.com/?cid=0x0:0x1aa3afe855a180fc"
"perumahan";"Komplek perumahan";"Berteduh";"FVW9+735, Samar Dua, Kec. Kota Baharu, Kabupaten Aceh Singkil, Aceh 24782";"Samar Dua, Kec. Kota Baharu, Kabupaten Aceh Singkil";"ACEH";"24782";"Indonesia";"";"2.4956474";"97.8677411";"https://maps.google.com/?cid=0x0:0x1736f55b60f06f04"
"perumahan";"Kantor Perusahaan";"Perumahan pembibitan Pt.nafasindo";"CWQ2+7HX, Butar, Kec. Kota Baharu, Kabupaten Aceh Singkil, Aceh 24783";"Butar, Kec. Kota Baharu, Kabupaten Aceh Singkil";"ACEH";"24783";"Indonesia";"";"2.4382353";"97.9014713";"https://maps.google.com/?cid=0x0:0x81bbc7d5ca27fc20"
"perumahan";"Pembangunan Perumahan";"Markas Herlino Galilei";"66GJ+G63, Haloban, Kec. Pulau Banyak Bar., Kabupaten Aceh Singkil, Aceh 24784";"Haloban, Kec. Pulau Banyak Bar., Kabupaten Aceh Singkil";"ACEH";"24784";"Indonesia";" 081366651511";"2.2262605";"97.2305448";"https://maps.google.com/?cid=0x0:0xe8cb475b15300c95"
"perumahan";"Komplek perumahan";"Rumah utigun";"66GJ+M6C, Haloban, Kec. Pulau Banyak Bar., Kabupaten Aceh Singkil, Aceh 24784";"Haloban, Kec. Pulau Banyak Bar., Kabupaten Aceh Singkil";"ACEH";"24784";"Indonesia";"";"2.2266885";"97.2305086";"https://maps.google.com/?cid=0x0:0x8e217f45b559f1c9"
"perumahan";"perumahan";"Rumah Kamil";"66JJ+397, Haloban, Kec. Pulau Banyak Bar., Kabupaten Aceh Singkil, Aceh 24784";"Haloban, Kec. Pulau Banyak Bar., Kabupaten Aceh Singkil";"ACEH";"24784";"Indonesia";"";"2.2301556";"97.2309116";"https://maps.google.com/?cid=0x0:0xa63f76f2f3a6aef"
"perumahan";"perumahan";"Rumah biasa";"8RCR+9X, Pea Bumbung, Kec. Singkil, Kabupaten Aceh Singkil, Aceh";"Kabupaten Aceh Singkil, Aceh";"ACEH";"";"Indonesia";"";"2.321683";"97.842553";"https://maps.google.com/?cid=0x0:0x837994f66b005beb"
"perumahan";"Pembangunan Perumahan";"BRR RINZA PATRA";"66HJ+F6V, Haloban, Kec. Pulau Banyak Bar., Kabupaten Aceh Singkil, Aceh 24784";"Haloban, Kec. Pulau Banyak Bar., Kabupaten Aceh Singkil";"ACEH";"24784";"Indonesia";"";"2.228728";"97.2305326";"https://maps.google.com/?cid=0x0:0x2ca75dc7faccc1e6"
"perumahan";"Pembangunan Perumahan";"BRR SYAFRIADI NDRURU";"66GM+8R3, Haloban, Kec. Pulau Banyak Bar., Kabupaten Aceh Singkil, Aceh 24784";"Haloban, Kec. Pulau Banyak Bar., Kabupaten Aceh Singkil";"ACEH";"24784";"Indonesia";" 085261600840";"2.2257526";"97.2345581";"https://maps.google.com/?cid=0x0:0xc153fe7e7c528a89"
"perumahan";"Komplek perumahan";"Domeng";"FVG2+J3V, Butar, Kec. Kota Baharu, Kabupaten Aceh Singkil, Aceh 24782";"Butar, Kec. Kota Baharu, Kabupaten Aceh Singkil";"ACEH";"24782";"Indonesia";"";"2.476614";"97.8502591";"https://maps.google.com/?cid=0x0:0xa48ce436a47bf25e"
"perumahan";"perumahan";"Kec. Gn. Meriah";"Kabupaten Aceh Singkil, Aceh";"Kabupaten Aceh Singkil, Aceh";"ACEH";"";"Indonesia";"";"2.3905149";"97.9623759";"https://maps.google.com/?cid=0x0:0x4e324f8a0662e10"
"perumahan";"Komplek perumahan";"Selly maytaviani";"Dahlia ,bukit harapa.gunung meriah Aceh singkil. KAB. ACEH SINGKIL, GUNUNG MERIAH (MARIAH), NANGGROE ACEH DARUSSALAM (NAD, 24784";"GUNUNG MERIAH (MARIAH)";"ACEH";"24784";"Indonesia";"";"4.695135";"96.7493993";"https://maps.google.com/?cid=0x0:0xb1da02a8247e24d"
"perumahan";"Komplek perumahan";"Rumah nasyita";"JPCQ+9FW, Paya Pelu, Kec. Silih Nara, Kabupaten Aceh Tengah, Aceh 24568";"Paya Pelu, Kec. Silih Nara, Kabupaten Aceh Tengah";"ACEH";"24568";"Indonesia";"";"4.6218679";"96.738362";"https://maps.google.com/?cid=0x0:0xf961921b0e876421"
"perumahan";"perumahan";"Aceh 24784";"Kabupaten Aceh Singkil, Aceh";"Kabupaten Aceh Singkil, Aceh";"ACEH";"";"Indonesia";"";"2.152911";"97.2840888";"https://maps.google.com/?cid=0x0:0xab521459bf3c978c"
"perumahan";"Pembangunan Perumahan";"BRR Harmon Tanjung";"Haloban, Kec. Pulau Banyak Bar., Kabupaten Aceh Singkil, Aceh 24784";"Kec. Pulau Banyak Bar., Kabupaten Aceh Singkil";"ACEH";"24784";"Indonesia";" 085374714838";"2.2260528";"97.2345945";"https://maps.google.com/?cid=0x0:0x51ad094c7d8b745f"
"perumahan";"perumahan";"Perumahan yayasan bunga Alqur'an";"JL. Rimo No.Km. 07, Butar, Kec. Kota Baharu, Kabupaten Aceh Singkil, Aceh 24783";"Butar, Kec. Kota Baharu, Kabupaten Aceh Singkil";"ACEH";"24783";"Indonesia";"";"2.445945";"97.895955";"https://maps.google.com/?cid=0x0:0xf25f639dad30f067"
"perumahan";"Komplek perumahan";"Rumah Bang Chaniago";"66HJ+H5J, Bar, Haloban, Kec. Pulau Banyak Bar., Kabupaten Aceh Singkil, Aceh 24784";"Bar, Haloban, Kec. Pulau Banyak Bar., Kabupaten Aceh Singkil";"ACEH";"24784";"Indonesia";"";"2.2289547";"97.2304007";"https://maps.google.com/?cid=0x0:0x1aa3afe855a180fc"
"perumahan";"Pembangunan Perumahan";"BRR PAK YONI";"66GM+8V4, Haloban, Kec. Pulau Banyak Bar., Kabupaten Aceh Singkil, Aceh 24784";"Haloban, Kec. Pulau Banyak Bar., Kabupaten Aceh Singkil";"ACEH";"24784";"Indonesia";"";"2.2257573";"97.2347033";"https://maps.google.com/?cid=0x0:0x8988c04037b08967"
"perumahan";"Komplek perumahan";"TS kota baharu";"HV25+945, jl. hamzah fansury No.121, Mukti Lincir, Kec. Kota Baharu, Kabupaten Aceh Singkil, Aceh";"Kabupaten Aceh Singkil, Aceh";"ACEH";"";"Indonesia";"";"2.5518896";"97.8580295";"https://maps.google.com/?cid=0x0:0x7d05c1c7cf2d9602"
"perumahan";"perumahan";"N/A";"";"";"ACEH";"";"Indonesia";"";"";"";"https://maps.google.com/?cid=0x0:0xc1e8ad17d54a69cd"
"perumahan";"Pembangunan Perumahan";"Markas Herlino Galilei";"66GJ+G63, Haloban, Kec. Pulau Banyak Bar., Kabupaten Aceh Singkil, Aceh 24784";"Haloban, Kec. Pulau Banyak Bar., Kabupaten Aceh Singkil";"ACEH";"24784";"Indonesia";" 081366651511";"2.2262605";"97.2305448";"https://maps.google.com/?cid=0x0:0xe8cb475b15300c95"
"perumahan";"Komplek perumahan";"depan bengkel";"FVP6+JQ3, Butar, Kec. Kota Baharu, Kabupaten Aceh Singkil, Aceh";"Kabupaten Aceh Singkil, Aceh";"ACEH";"";"Indonesia";"";"2.4863036";"97.8631766";"https://maps.google.com/?cid=0x0:0x191d4466435f0089"
"perumahan";"Komplek perumahan";"Domeng";"FVG2+J3V, Butar, Kec. Kota Baharu, Kabupaten Aceh Singkil, Aceh 24782";"Butar, Kec. Kota Baharu, Kabupaten Aceh Singkil";"ACEH";"24782";"Indonesia";"";"2.476614";"97.8502591";"https://maps.google.com/?cid=0x0:0xa48ce436a47bf25e"
"perumahan";"Pembangunan Perumahan";"BRR RINZA PATRA";"66HJ+F6V, Haloban, Kec. Pulau Banyak Bar., Kabupaten Aceh Singkil, Aceh 24784";"Haloban, Kec. Pulau Banyak Bar., Kabupaten Aceh Singkil";"ACEH";"24784";"Indonesia";"";"2.228728";"97.2305326";"https://maps.google.com/?cid=0x0:0x2ca75dc7faccc1e6"
"perumahan";"Komplek perumahan";"Baharu Silaban";"C2V6+GC8 kedai Baharu Silaban, Kuta Kerangan, Kec. Simpang Kanan, Kabupaten Aceh Singkil, Aceh";"Kabupaten Aceh Singkil, Aceh";"ACEH";"";"Indonesia";"";"2.4437789";"98.0110677";"https://maps.google.com/?cid=0x0:0x653abf95b8f7980f"
"perumahan";"Komplek perumahan";"Rumah utigun";"66GJ+M6C, Haloban, Kec. Pulau Banyak Bar., Kabupaten Aceh Singkil, Aceh 24784";"Haloban, Kec. Pulau Banyak Bar., Kabupaten Aceh Singkil";"ACEH";"24784";"Indonesia";"";"2.2266885";"97.2305086";"https://maps.google.com/?cid=0x0:0x8e217f45b559f1c9"
"perumahan";"Komplek perumahan";"turunan 2";"FVP6+JQ3, Butar, Kec. Kota Baharu, Kabupaten Aceh Singkil, Aceh";"Kabupaten Aceh Singkil, Aceh";"ACEH";"";"Indonesia";"";"2.4863479";"97.8631468";"https://maps.google.com/?cid=0x0:0xa891aaf9c287370a"
"perumahan";"Pembangunan Perumahan";"Kuala baru sungai";"9P44+H54, Kab.Aceh Singkil Kec.Kuala Baru Sungai, Suka Jaya";"Kabupaten Aceh Singkil, Aceh";"ACEH";"";"Indonesia";"";"2.3563826";"97.7054477";"https://maps.google.com/?cid=0x0:0xe72d71ebff142a04"
"perumahan";"Pembangunan Perumahan";"Kuala baru";"8PX6+RGJ, Kuala Baru Sungai, Kec. Kuala Baru, Kabupaten Aceh Singkil, Aceh 24472";"Kuala Baru Sungai, Kec. Kuala Baru, Kabupaten Aceh Singkil";"ACEH";"24472";"Indonesia";"";"2.3495864";"97.7112573";"https://maps.google.com/?cid=0x0:0x939bb963f29a48e4"
"perumahan";"perumahan";"Kec. Kuala Baru";"Kabupaten Aceh Singkil, Aceh";"Kabupaten Aceh Singkil, Aceh";"ACEH";"";"Indonesia";"";"2.3496125";"97.7112967";"https://maps.google.com/?cid=0x0:0x48a3d100d6cd113b"
"perumahan";"Pembangunan Perumahan";"Hilang";"8PX6+RGJ, Kuala Baru Laut, Kec. Kuala Baru, Kabupaten Aceh Singkil, Aceh 24472";"Kuala Baru Laut, Kec. Kuala Baru, Kabupaten Aceh Singkil";"ACEH";"24472";"Indonesia";"";"2.3495864";"97.7112574";"https://maps.google.com/?cid=0x0:0xf1150cff82d10bf4"
"perumahan";"Pembangunan Perumahan";"Suka jaya";"9P44+M35, Jalan, Suka Jaya, Kec. Kuala Baru, Kabupaten Aceh Singkil, Aceh 24472";"Jalan, Suka Jaya, Kec. Kuala Baru, Kabupaten Aceh Singkil";"ACEH";"24472";"Indonesia";"";"2.3572322";"97.7047594";"https://maps.google.com/?cid=0x0:0xb789bc8df2017dd2"
"perumahan";"Komplek perumahan";"Sabila ponsel";"9P25+FMR, Jalan, Kuala Baru Laut, Kec. Kuala Baru, Kabupaten Aceh Singkil, Aceh 24472";"Jalan, Kuala Baru Laut, Kec. Kuala Baru, Kabupaten Aceh Singkil";"ACEH";"24472";"Indonesia";"";"2.3512237";"97.7091221";"https://maps.google.com/?cid=0x0:0xef83e19418fbc3d6"
"perumahan";"Toko Buah dan Sayur";"Rahmy putrox";"8PX5+7WR, Jl. Datoek Oeno, Kuala Baru Laut, Kec. Kuala Baru, Kabupaten Aceh Singkil, Aceh 24472";"Jl. Datoek Oeno, Kuala Baru Laut, Kec. Kuala Baru, Kabupaten Aceh Singkil";"ACEH";"24472";"Indonesia";"";"2.3482427";"97.7097641";"https://maps.google.com/?cid=0x0:0x1d4aa56e38420e9d"
"perumahan";"Pembangunan Perumahan";"RM. PUTRI";"8PX6+RGJ, Kuala Baru Sungai, Kec. Kuala Baru, Kabupaten Aceh Singkil, Aceh 24472";"Kuala Baru Sungai, Kec. Kuala Baru, Kabupaten Aceh Singkil";"ACEH";"24472";"Indonesia";"";"2.3496095";"97.7111715";"https://maps.google.com/?cid=0x0:0xa4f6508d1aab09ad"
"perumahan";"Kantor Pemerintah";"Juardin,SP";"7QPF+8J2, Kilangan, Kec. Singkil, Kabupaten Aceh Singkil, Aceh";"Kabupaten Aceh Singkil, Aceh";"ACEH";"";"Indonesia";"";"2.2857501";"97.7740133";"https://maps.google.com/?cid=0x0:0xe7548fda1075810e"
"perumahan";"Komplek perumahan";"Oprator beko supri sahputra";"7QQH+59, Kilangan, Kec. Singkil, Kabupaten Aceh Singkil, Aceh";"Kabupaten Aceh Singkil, Aceh";"ACEH";"";"Indonesia";" 081264601175";"2.2879755";"97.778445";"https://maps.google.com/?cid=0x0:0xc22370b8f44ddeae"
"perumahan";"perumahan";"Rumah biasa";"8RCR+9X, Pea Bumbung, Kec. Singkil, Kabupaten Aceh Singkil, Aceh";"Kabupaten Aceh Singkil, Aceh";"ACEH";"";"Indonesia";"";"2.321683";"97.842553";"https://maps.google.com/?cid=0x0:0x837994f66b005beb"
"perumahan";"perumahan";"Perumahan yayasan bunga Alqur'an";"JL. Rimo No.Km. 07, Butar, Kec. Kota Baharu, Kabupaten Aceh Singkil, Aceh 24783";"Butar, Kec. Kota Baharu, Kabupaten Aceh Singkil";"ACEH";"24783";"Indonesia";"";"2.445945";"97.895955";"https://maps.google.com/?cid=0x0:0xf25f639dad30f067"
"perumahan";"Perumahan";"PERUMNAS BRR";"7RM4+F54, Pulo Sarok, Kec. Singkil, Kabupaten Aceh Singkil, Aceh 24472";"Pulo Sarok, Kec. Singkil, Kabupaten Aceh Singkil";"ACEH";"24472";"Indonesia";"";"2.2836478";"97.8054545";"https://maps.google.com/?cid=0x0:0xac643ad0d34b8988"
"perumahan";"Perhimpunan Pengembang Perumahan";"Awal jalan tidak beraspal";"8R5W+2V, Pea Bumbung, Kec. Singkil, Kabupaten Aceh Singkil, Aceh";"Kabupaten Aceh Singkil, Aceh";"ACEH";"";"Indonesia";"";"2.3081479";"97.8469865";"https://maps.google.com/?cid=0x0:0xc5f6ff94acfcebc1"
"perumahan";"perumahan";"Pulau Banyak";"Kabupaten Aceh Singkil, Aceh";"Kabupaten Aceh Singkil, Aceh";"ACEH";"";"Indonesia";"";"2.3198851";"97.413802";"https://maps.google.com/?cid=0x0:0xf22eba8ba0db80e0"
"perumahan";"Penerbit";"Pulau banyak";"8C34+JR7, Pulau Balai, Pulau Banyak, Kabupaten Aceh Singkil, Aceh";"Kabupaten Aceh Singkil, Aceh";"ACEH";"";"Indonesia";"";"2.3040278";"97.4070443";"https://maps.google.com/?cid=0x0:0x7beb6e93912cdc73"
"perumahan";"Tempat Ibadah";"TPA MIFTAHUL ILMI";"89QP+MG9, Unnamed Road, Tlk. Nibung, Pulau Banyak, Kabupaten Aceh Singkil, Aceh 24784";"Unnamed Road, Tlk. Nibung, Pulau Banyak, Kabupaten Aceh Singkil";"ACEH";"24784";"Indonesia";"";"2.3391605";"97.3863647";"https://maps.google.com/?cid=0x0:0xc7a949e7e090fb7b"
"perumahan";"Pembangunan Perumahan";"Delkiman";"8C35+V6G, Unnamed Road, Pulau Balai, Pulau Banyak, Kabupaten Aceh Singkil, Aceh 24784";"Unnamed Road, Pulau Balai, Pulau Banyak, Kabupaten Aceh Singkil";"ACEH";"24784";"Indonesia";"";"2.3046845";"97.4080703";"https://maps.google.com/?cid=0x0:0x6b85c2ce479e7cfa"
"perumahan";"perumahan";"Tlk. Nibung";"Pulau Banyak, Kabupaten Aceh Singkil, Aceh";"Kabupaten Aceh Singkil, Aceh";"ACEH";"";"Indonesia";"";"2.3444323";"97.3975845";"https://maps.google.com/?cid=0x0:0x9827abe4b9eb3d29"
"perumahan";"Hotel";"HOMESTAY IMELDA";"Pulau Balai, Pulau Banyak, Kabupaten Aceh Singkil, Aceh 24784";"Pulau Banyak, Kabupaten Aceh Singkil";"ACEH";"24784";"Indonesia";" 082366053184";"2.3005625";"97.4099375";"https://maps.google.com/?cid=0x0:0x47eefcfc610efeb9"
"perumahan";"perumahan";"Pulau Balai";"Pulau Banyak, Kabupaten Aceh Singkil, Aceh";"Kabupaten Aceh Singkil, Aceh";"ACEH";"";"Indonesia";"";"2.3040278";"97.4070443";"https://maps.google.com/?cid=0x0:0x6db5dc8d27c30f68"
"perumahan";"Pembangunan Perumahan";"Dusun Mata Air Desa Pulau Balai";"8C97+XG3, Tlk. Nibung, Pulau Banyak, Kabupaten Aceh Singkil, Aceh 24784";"Tlk. Nibung, Pulau Banyak, Kabupaten Aceh Singkil";"ACEH";"24784";"Indonesia";"";"2.3198851";"97.413802";"https://maps.google.com/?cid=0x0:0x6af1be57c0c15dd"
"perumahan";"perumahan";"Kec. Pulau Banyak Bar.";"Kabupaten Aceh Singkil, Aceh";"Kabupaten Aceh Singkil, Aceh";"ACEH";"";"Indonesia";"";"2.2278739";"97.2326992";"https://maps.google.com/?cid=0x0:0x154c9da37cf5674f"
"perumahan";"Pembangunan Perumahan";"BRR PAK YONI";"66GM+8V4, Haloban, Kec. Pulau Banyak Bar., Kabupaten Aceh Singkil, Aceh 24784";"Haloban, Kec. Pulau Banyak Bar., Kabupaten Aceh Singkil";"ACEH";"24784";"Indonesia";"";"2.2257573";"97.2347033";"https://maps.google.com/?cid=0x0:0x8988c04037b08967"
"perumahan";"perumahan";"Rumah Kamil";"66JJ+397, Haloban, Kec. Pulau Banyak Bar., Kabupaten Aceh Singkil, Aceh 24784";"Haloban, Kec. Pulau Banyak Bar., Kabupaten Aceh Singkil";"ACEH";"24784";"Indonesia";"";"2.2301556";"97.2309116";"https://maps.google.com/?cid=0x0:0xa63f76f2f3a6aef"
"perumahan";"Pembangunan Perumahan";"BRR Harmon Tanjung";"Haloban, Kec. Pulau Banyak Bar., Kabupaten Aceh Singkil, Aceh 24784";"Kec. Pulau Banyak Bar., Kabupaten Aceh Singkil";"ACEH";"24784";"Indonesia";" 085374714838";"2.2260528";"97.2345945";"https://maps.google.com/?cid=0x0:0x51ad094c7d8b745f"
"perumahan";"Komplek perumahan";"Rumah Sutrisno Tj";"66HJ+CC8, Haloban, Kec. Pulau Banyak Bar., Kabupaten Aceh Singkil, Aceh 24784";"Haloban, Kec. Pulau Banyak Bar., Kabupaten Aceh Singkil";"ACEH";"24784";"Indonesia";"";"2.2285383";"97.2310876";"https://maps.google.com/?cid=0x0:0xe5e3cd6df24c68b7"
"perumahan";"Komplek perumahan";"Rumah utigun";"66GJ+M6C, Haloban, Kec. Pulau Banyak Bar., Kabupaten Aceh Singkil, Aceh 24784";"Haloban, Kec. Pulau Banyak Bar., Kabupaten Aceh Singkil";"ACEH";"24784";"Indonesia";"";"2.2266885";"97.2305086";"https://maps.google.com/?cid=0x0:0x8e217f45b559f1c9"
"perumahan";"Penerbit";"Pulau banyak";"8C34+JR7, Pulau Balai, Pulau Banyak, Kabupaten Aceh Singkil, Aceh";"Kabupaten Aceh Singkil, Aceh";"ACEH";"";"Indonesia";"";"2.3040278";"97.4070443";"https://maps.google.com/?cid=0x0:0x7beb6e93912cdc73"
"perumahan";"Pembangunan Perumahan";"BRR RINZA PATRA";"66HJ+F6V, Haloban, Kec. Pulau Banyak Bar., Kabupaten Aceh Singkil, Aceh 24784";"Haloban, Kec. Pulau Banyak Bar., Kabupaten Aceh Singkil";"ACEH";"24784";"Indonesia";"";"2.228728";"97.2305326";"https://maps.google.com/?cid=0x0:0x2ca75dc7faccc1e6"
"perumahan";"Komplek perumahan";"Rumah ikram";"47QG+2C4, Haloban, Kec. Pulau Banyak Bar., Kabupaten Aceh Singkil, Aceh 24784";"Haloban, Kec. Pulau Banyak Bar., Kabupaten Aceh Singkil";"ACEH";"24784";"Indonesia";"";"2.1375113";"97.276076";"https://maps.google.com/?cid=0x0:0x7f211f2069f01bcc"
"perumahan";"Pembangunan Perumahan";"Markas Herlino Galilei";"66GJ+G63, Haloban, Kec. Pulau Banyak Bar., Kabupaten Aceh Singkil, Aceh 24784";"Haloban, Kec. Pulau Banyak Bar., Kabupaten Aceh Singkil";"ACEH";"24784";"Indonesia";" 081366651511";"2.2262605";"97.2305448";"https://maps.google.com/?cid=0x0:0xe8cb475b15300c95"
"perumahan";"Pembangunan Perumahan";"NASMIN";"66HJ+72H, Haloban, Kec. Pulau Banyak Bar., Kabupaten Aceh Singkil, Aceh 24784";"Haloban, Kec. Pulau Banyak Bar., Kabupaten Aceh Singkil";"ACEH";"24784";"Indonesia";"";"2.2281826";"97.230116";"https://maps.google.com/?cid=0x0:0x65a1041e19d08f9d"
"perumahan";"Pembangunan Perumahan";"BRR SYAFRIADI NDRURU";"66GM+8R3, Haloban, Kec. Pulau Banyak Bar., Kabupaten Aceh Singkil, Aceh 24784";"Haloban, Kec. Pulau Banyak Bar., Kabupaten Aceh Singkil";"ACEH";"24784";"Indonesia";" 085261600840";"2.2257526";"97.2345581";"https://maps.google.com/?cid=0x0:0xc153fe7e7c528a89"
"perumahan";"Pusat Kesehatan Masyarakat";"Puskesmas/Rumah Sakit Pulau banyak Barat";"66GM+987, Bar., Haloban, Kec. Pulau Banyak Bar., Kabupaten Aceh Singkil, Aceh 24784";"Bar., Haloban, Kec. Pulau Banyak Bar., Kabupaten Aceh Singkil";"ACEH";"24784";"Indonesia";"";"2.2259228";"97.2332862";"https://maps.google.com/?cid=0x0:0xdc371039774552eb"
"perumahan";"Kedai Kopi";"Rumah Dandi";"66HJ+QH9, Haloban, Kec. Pulau Banyak Bar., Kabupaten Aceh Singkil, Aceh 24784";"Haloban, Kec. Pulau Banyak Bar., Kabupaten Aceh Singkil";"ACEH";"24784";"Indonesia";"";"2.2296425";"97.2315577";"https://maps.google.com/?cid=0x0:0x744bd3d6f0bdd3b0"
"perumahan";"perumahan";"Aceh 24783";"Kabupaten Aceh Singkil, Aceh";"Kabupaten Aceh Singkil, Aceh";"ACEH";"";"Indonesia";"";"2.4071732";"97.991986";"https://maps.google.com/?cid=0x0:0x4541045a0abeaf53"
"perumahan";"perumahan";"Perumahan yayasan bunga Alqur'an";"JL. Rimo No.Km. 07, Butar, Kec. Kota Baharu, Kabupaten Aceh Singkil, Aceh 24783";"Butar, Kec. Kota Baharu, Kabupaten Aceh Singkil";"ACEH";"24783";"Indonesia";"";"2.445945";"97.895955";"https://maps.google.com/?cid=0x0:0xf25f639dad30f067"
"perumahan";"Perhimpunan Pengembang Perumahan";"Simpang jengkol";"9XM9+JH2, dusun 4, Blk. VI Baru, Kec. Gn. Meriah, Kabupaten Aceh Singkil, Aceh 24791";"dusun 4, Blk. VI Baru, Kec. Gn. Meriah, Kabupaten Aceh Singkil";"ACEH";"24791";"Indonesia";"";"2.3840099";"97.9688797";"https://maps.google.com/?cid=0x0:0x3f9b24a340f4b3a5"
"perumahan";"Komplek perumahan";"Rumah rindi";"C2G2+VW6, Sidodadi, Kec. Simpang Kanan, Kabupaten Aceh Singkil, Aceh 24783";"Sidodadi, Kec. Simpang Kanan, Kabupaten Aceh Singkil";"ACEH";"24783";"Indonesia";"";"2.427164";"98.0022728";"https://maps.google.com/?cid=0x0:0x3ab37ebb70faa974"
"perumahan";"Komplek perumahan";"Rumah pak tugio";"C2H3+CCM, Sidodadi, Kec. Simpang Kanan, Kabupaten Aceh Singkil, Aceh 24783";"Sidodadi, Kec. Simpang Kanan, Kabupaten Aceh Singkil";"ACEH";"24783";"Indonesia";"";"2.42859";"98.0035417";"https://maps.google.com/?cid=0x0:0x68856a90bb95fd4a"
"perumahan";"Perhimpunan Pengembang Perumahan";"Tempat kerja";"C2H9+36, Pangi, Kec. Simpang Kanan, Kabupaten Aceh Singkil, Aceh";"Kabupaten Aceh Singkil, Aceh";"ACEH";"";"Indonesia";"";"2.4277602";"98.0180261";"https://maps.google.com/?cid=0x0:0x3373019448cdb362"
"perumahan";"Komplek perumahan";"Rumah Reni";"Jl. Kenanga, Bukit Harapan, Kec. Gn. Meriah, Kabupaten Aceh Singkil, Aceh 24783";"Bukit Harapan, Kec. Gn. Meriah, Kabupaten Aceh Singkil";"ACEH";"24783";"Indonesia";"";"2.4260611";"97.9284215";"https://maps.google.com/?cid=0x0:0xe96e3bee71a39226"
"perumahan";"Perhimpunan Pengembang Perumahan";"Steven Berutu";"F33C+F5X, Kuta Tinggi, Kec. Simpang Kanan, Kabupaten Aceh Singkil, Aceh 24783";"Kuta Tinggi, Kec. Simpang Kanan, Kabupaten Aceh Singkil";"ACEH";"24783";"Indonesia";"";"2.4534097";"98.0692561";"https://maps.google.com/?cid=0x0:0xd1654ffbe77d755"
"perumahan";"Komplek perumahan";"Warung Ulfa desa lae riman";"F22H+JQP, Lae Riman, Kec. Simpang Kanan, Kabupaten Aceh Singkil, Aceh";"Kabupaten Aceh Singkil, Aceh";"ACEH";"";"Indonesia";"";"2.4515808";"98.0294533";"https://maps.google.com/?cid=0x0:0x99e57e6c149e6ace"
"perumahan";"Perhimpunan Pengembang Perumahan";"Is";"9XXR+2XQ, Blk. 15, Kec. Gn. Meriah, Kabupaten Aceh Singkil, Aceh 24783";"Blk. 15, Kec. Gn. Meriah, Kabupaten Aceh Singkil";"ACEH";"24783";"Indonesia";"";"2.3975915";"97.9924763";"https://maps.google.com/?cid=0x0:0x498d426fd368c633"
"perumahan";"Komplek perumahan";"Manik";"FX2G+36, Tj. MAS, Kec. Simpang Kanan, Kabupaten Aceh Singkil, Aceh";"Kabupaten Aceh Singkil, Aceh";"ACEH";"";"Indonesia";"";"2.4502253";"97.9755012";"https://maps.google.com/?cid=0x0:0xfc67fc8f9a81ed9a"
"perumahan";"Komplek perumahan";"Keluarga Barus";"F23G+9XV, Lae Riman, Kec. Simpang Kanan, Kabupaten Aceh Singkil, Aceh";"Kabupaten Aceh Singkil, Aceh";"ACEH";"";"Indonesia";"";"2.4534768";"98.0274274";"https://maps.google.com/?cid=0x0:0xe0a1f5170ac7145c"
"perumahan";"Komplek perumahan";"Sikontang Pride";"CXGQ+735, Kain Golong, Kec. Simpang Kanan, Kabupaten Aceh Singkil, Aceh";"Kabupaten Aceh Singkil, Aceh";"ACEH";"";"Indonesia";"";"2.4256433";"97.9877492";"https://maps.google.com/?cid=0x0:0x830f546ad7c46e75"
"perumahan";"Pembangunan Perumahan";"Sandri gunawan";"F3F9+MJW, Lae Gambir, Kec. Simpang Kanan, Kabupaten Aceh Singkil, Aceh 24783";"Lae Gambir, Kec. Simpang Kanan, Kabupaten Aceh Singkil";"ACEH";"24783";"Indonesia";"";"2.4742377";"98.0690815";"https://maps.google.com/?cid=0x0:0x59161bf3d2b1c81"
"perumahan";"perumahan";"Perumahan yayasan bunga Alqur'an";"JL. Rimo No.Km. 07, Butar, Kec. Kota Baharu, Kabupaten Aceh Singkil, Aceh 24783";"Butar, Kec. Kota Baharu, Kabupaten Aceh Singkil";"ACEH";"24783";"Indonesia";"";"2.445945";"97.895955";"https://maps.google.com/?cid=0x0:0xf25f639dad30f067"
"perumahan";"perumahan";"Kec. Simpang Kanan";"Kabupaten Aceh Singkil, Aceh";"Kabupaten Aceh Singkil, Aceh";"ACEH";"";"Indonesia";"";"2.4382133";"97.9903392";"https://maps.google.com/?cid=0x0:0x8d3290c62e81c9f0"
"perumahan";"perumahan";"Rumah";"C2VC+62P, Siatas, Kec. Simpang Kanan, Kabupaten Aceh Singkil, Aceh 24791";"Siatas, Kec. Simpang Kanan, Kabupaten Aceh Singkil";"ACEH";"24791";"Indonesia";"";"2.4427202";"98.0201647";"https://maps.google.com/?cid=0x0:0xd2dab8072dd571dc"
"perumahan";"Komplek perumahan";"Perumahan Klasir";"8WWF+9W9, Gn. Lagan, Kec. Gn. Meriah, Kabupaten Aceh Singkil, Aceh 24472";"Gn. Lagan, Kec. Gn. Meriah, Kabupaten Aceh Singkil";"ACEH";"24472";"Indonesia";"";"2.345924";"97.9248575";"https://maps.google.com/?cid=0x0:0xcc4c2470c8090d90"
"perumahan";"Pembangunan Perumahan";"Patok dari Sungai";"CXX7+8JM, Cibubukan, Kec. Simpang Kanan, Kabupaten Aceh Singkil, Aceh";"Kabupaten Aceh Singkil, Aceh";"ACEH";"";"Indonesia";"";"2.4483461";"97.9640541";"https://maps.google.com/?cid=0x0:0x77749963859571ce"
"perumahan";"Komplek perumahan";"Rumah pak tugio";"C2H3+CCM, Sidodadi, Kec. Simpang Kanan, Kabupaten Aceh Singkil, Aceh 24783";"Sidodadi, Kec. Simpang Kanan, Kabupaten Aceh Singkil";"ACEH";"24783";"Indonesia";"";"2.42859";"98.0035417";"https://maps.google.com/?cid=0x0:0x68856a90bb95fd4a"
"perumahan";"perumahan";"Putri";"C2RJ+F3J, Siatas, Kec. Simpang Kanan, Kabupaten Aceh Singkil, Aceh";"Kabupaten Aceh Singkil, Aceh";"ACEH";"";"Indonesia";"";"2.4412156";"98.0301544";"https://maps.google.com/?cid=0x0:0x1ada84fb2d735998"
"perumahan";"Komplek perumahan";"Sikontang Pride";"CXGQ+735, Kain Golong, Kec. Simpang Kanan, Kabupaten Aceh Singkil, Aceh";"Kabupaten Aceh Singkil, Aceh";"ACEH";"";"Indonesia";"";"2.4256433";"97.9877492";"https://maps.google.com/?cid=0x0:0x830f546ad7c46e75"
"perumahan";"Perhimpunan Pengembang Perumahan";"Tempat kerja";"C2H9+36, Pangi, Kec. Simpang Kanan, Kabupaten Aceh Singkil, Aceh";"Kabupaten Aceh Singkil, Aceh";"ACEH";"";"Indonesia";"";"2.4277602";"98.0180261";"https://maps.google.com/?cid=0x0:0x3373019448cdb362"
"perumahan";"Komplek perumahan";"Manik";"FX2G+36, Tj. MAS, Kec. Simpang Kanan, Kabupaten Aceh Singkil, Aceh";"Kabupaten Aceh Singkil, Aceh";"ACEH";"";"Indonesia";"";"2.4502253";"97.9755012";"https://maps.google.com/?cid=0x0:0xfc67fc8f9a81ed9a"
"perumahan";"Komplek perumahan";"Rumah rindi";"C2G2+VW6, Sidodadi, Kec. Simpang Kanan, Kabupaten Aceh Singkil, Aceh 24783";"Sidodadi, Kec. Simpang Kanan, Kabupaten Aceh Singkil";"ACEH";"24783";"Indonesia";"";"2.427164";"98.0022728";"https://maps.google.com/?cid=0x0:0x3ab37ebb70faa974"
"perumahan";"Komplek perumahan";"Sapari";"C2RJ+F3J, Siatas, Kec. Simpang Kanan, Kabupaten Aceh Singkil, Aceh";"Kabupaten Aceh Singkil, Aceh";"ACEH";"";"Indonesia";"";"2.4412156";"98.0301544";"https://maps.google.com/?cid=0x0:0xe41fba3e4ee4c40f"
"perumahan";"Pembangunan Perumahan";"Sudarsan";"C2J4+VF, Sukarejo, Kec. Simpang Kanan, Kabupaten Aceh Singkil, Aceh";"Kabupaten Aceh Singkil, Aceh";"ACEH";"";"Indonesia";"";"2.432186";"98.0061579";"https://maps.google.com/?cid=0x0:0xce5ba505080bacc0"
"perumahan";"Pembangunan Perumahan";"Rumah Bahagi";"CXJG+GJ5, Tugan, Kec. Simpang Kanan, Kabupaten Aceh Singkil, Aceh";"Kabupaten Aceh Singkil, Aceh";"ACEH";"";"Indonesia";"";"2.4312591";"97.976604";"https://maps.google.com/?cid=0x0:0xbee5d5446b2cf60c"
"perumahan";"Perumahan";"rayyanjabier";"perumahan brr, Pulo Sarok, Kec. Singkil, Kabupaten Aceh Singkil, Aceh 24785";"Pulo Sarok, Kec. Singkil, Kabupaten Aceh Singkil";"ACEH";"24785";"Indonesia";"";"2.2829118";"97.8093779";"https://maps.google.com/?cid=0x0:0x4cea6675c2408527"
"perumahan";"Perumahan";"PERUMNAS BRR";"7RM4+F54, Pulo Sarok, Kec. Singkil, Kabupaten Aceh Singkil, Aceh 24472";"Pulo Sarok, Kec. Singkil, Kabupaten Aceh Singkil";"ACEH";"24472";"Indonesia";"";"2.2836478";"97.8054545";"https://maps.google.com/?cid=0x0:0xac643ad0d34b8988"
"perumahan";"Kedai Kopi";"Warkop namira";"7RM4+MC2, Jalur 6, Pulo Sarok, Kec. Singkil, Kabupaten Aceh Singkil, Aceh 24472";"Jalur 6, Pulo Sarok, Kec. Singkil, Kabupaten Aceh Singkil";"ACEH";"24472";"Indonesia";"";"2.2841473";"97.806001";"https://maps.google.com/?cid=0x0:0xbae626f30af69374"
"perumahan";"Komplek perumahan";"TS kota baharu";"HV25+945, jl. hamzah fansury No.121, Mukti Lincir, Kec. Kota Baharu, Kabupaten Aceh Singkil, Aceh";"Kabupaten Aceh Singkil, Aceh";"ACEH";"";"Indonesia";"";"2.5518896";"97.8580295";"https://maps.google.com/?cid=0x0:0x7d05c1c7cf2d9602"
"perumahan";"Kompleks Bangunan Perusahaan";"Pantakh sindatas";"CRHQ+3R6, Ladang Bisik, Kec. Kota Baharu, Kabupaten Aceh Singkil, Aceh";"Kabupaten Aceh Singkil, Aceh";"ACEH";"";"Indonesia";"";"2.4276505";"97.8395151";"https://maps.google.com/?cid=0x0:0x79226ecfe8798c9c"
"perumahan";"Komplek perumahan";"Rumah supian";"FVJ7+H7, Butar, Kec. Kota Baharu, Kabupaten Aceh Singkil, Aceh";"Kabupaten Aceh Singkil, Aceh";"ACEH";"";"Indonesia";"";"2.4814446";"97.8631755";"https://maps.google.com/?cid=0x0:0x21bd3b31813b86d2"
"perumahan";"Komplek perumahan";"depan bengkel";"FVP6+JQ3, Butar, Kec. Kota Baharu, Kabupaten Aceh Singkil, Aceh";"Kabupaten Aceh Singkil, Aceh";"ACEH";"";"Indonesia";"";"2.4863036";"97.8631766";"https://maps.google.com/?cid=0x0:0x191d4466435f0089"
"perumahan";"Komplek perumahan";"AGUSTINA HOUSE";"FRVX+VQV, Danau Bungara, Kec. Kota Baharu, Kabupaten Aceh Singkil, Aceh 24782";"Danau Bungara, Kec. Kota Baharu, Kabupaten Aceh Singkil";"ACEH";"24782";"Indonesia";"";"2.4947353";"97.8494109";"https://maps.google.com/?cid=0x0:0xf84e611e539f2e66"
"perumahan";"Komplek perumahan";"Kilo 3";"FVX9+CQ8, Samar Dua, Kec. Kota Baharu, Kabupaten Aceh Singkil, Aceh 24782";"Samar Dua, Kec. Kota Baharu, Kabupaten Aceh Singkil";"ACEH";"24782";"Indonesia";"";"2.4985461";"97.8694391";"https://maps.google.com/?cid=0x0:0xae641518c90c4e9c"
"perumahan";"Gedung Apartemen";"Rumah sinaga";"FRGX+8X5, Lapahan Buaya, Kec. Kota Baharu, Kabupaten Aceh Singkil, Aceh 24782";"Lapahan Buaya, Kec. Kota Baharu, Kabupaten Aceh Singkil";"ACEH";"24782";"Indonesia";"";"2.4756476";"97.8494306";"https://maps.google.com/?cid=0x0:0xf43b26692e7a8a19"
"perumahan";"Distributor minuman";"Air isi ulang singata";"FVV3+F7R, Danau Bungara, Kec. Kota Baharu, Kabupaten Aceh Singkil, Aceh 24782";"Danau Bungara, Kec. Kota Baharu, Kabupaten Aceh Singkil";"ACEH";"24782";"Indonesia";"";"2.4937463";"97.8531377";"https://maps.google.com/?cid=0x0:0x6580acb8736ac2be"
"perumahan";"Komplek perumahan";"Domeng";"FVG2+J3V, Butar, Kec. Kota Baharu, Kabupaten Aceh Singkil, Aceh 24782";"Butar, Kec. Kota Baharu, Kabupaten Aceh Singkil";"ACEH";"24782";"Indonesia";"";"2.476614";"97.8502591";"https://maps.google.com/?cid=0x0:0xa48ce436a47bf25e"
"perumahan";"Kantor Pemerintah";"Desa mukti lincir";"HV24+388, Mukti Lincir, Kec. Kota Baharu, Kabupaten Aceh Singkil, Aceh";"Kabupaten Aceh Singkil, Aceh";"ACEH";"";"Indonesia";"";"2.5501633";"97.8558357";"https://maps.google.com/?cid=0x0:0xfc790c45e32a6be"
"perumahan";"Komplek perumahan";"Berteduh";"FVW9+735, Samar Dua, Kec. Kota Baharu, Kabupaten Aceh Singkil, Aceh 24782";"Samar Dua, Kec. Kota Baharu, Kabupaten Aceh Singkil";"ACEH";"24782";"Indonesia";"";"2.4956474";"97.8677411";"https://maps.google.com/?cid=0x0:0x1736f55b60f06f04"
"perumahan";"perumahan";"Singkil";"Kec. Singkil, Kabupaten Aceh Singkil, Aceh";"Kabupaten Aceh Singkil, Aceh";"ACEH";"";"Indonesia";"";"2.2836143";"97.79873";"https://maps.google.com/?cid=0x0:0x4039d80b220d230"
"perumahan";"Perumahan";"PERUMNAS BRR";"7RM4+F54, Pulo Sarok, Kec. Singkil, Kabupaten Aceh Singkil, Aceh 24472";"Pulo Sarok, Kec. Singkil, Kabupaten Aceh Singkil";"ACEH";"24472";"Indonesia";"";"2.2836478";"97.8054545";"https://maps.google.com/?cid=0x0:0xac643ad0d34b8988"
"perumahan";"Perumahan";"rayyanjabier";"perumahan brr, Pulo Sarok, Kec. Singkil, Kabupaten Aceh Singkil, Aceh 24785";"Pulo Sarok, Kec. Singkil, Kabupaten Aceh Singkil";"ACEH";"24785";"Indonesia";"";"2.2829118";"97.8093779";"https://maps.google.com/?cid=0x0:0x4cea6675c2408527"
"perumahan";"Perhimpunan Pengembang Perumahan";"Rumah Rini Anggraini";"7RJ5+JR6, Pulo Sarok, Kec. Singkil, Kabupaten Aceh Singkil, Aceh 24472";"Pulo Sarok, Kec. Singkil, Kabupaten Aceh Singkil";"ACEH";"24472";"Indonesia";"";"2.2816612";"97.8102014";"https://maps.google.com/?cid=0x0:0x9c97078981eb702f"
"perumahan";"Perhimpunan Pengembang Perumahan";"Rumah Rudi  Aminah";"7RJ5+HPC, Pulo Sarok, Kec. Singkil, Kabupaten Aceh Singkil, Aceh 24472";"Pulo Sarok, Kec. Singkil, Kabupaten Aceh Singkil";"ACEH";"24472";"Indonesia";"";"2.2820518";"97.8100498";"https://maps.google.com/?cid=0x0:0x931266e5a35e8065"
"perumahan";"Perhimpunan Pengembang Perumahan";"Tono ika home";"Perumahan BRR, Jalur 5B No.63, Pulo Sarok, Kec. Singkil, Kabupaten Aceh Singkil, Aceh";"Kabupaten Aceh Singkil, Aceh";"ACEH";"";"Indonesia";"";"2.2816718";"97.8099511";"https://maps.google.com/?cid=0x0:0x3ce3b8b19579e886"
"perumahan";"Komplek perumahan";"Rumah fatih";"7QMX+CFX, Pulo Sarok, Kec. Singkil, Kabupaten Aceh Singkil, Aceh";"Kabupaten Aceh Singkil, Aceh";"ACEH";"";"Indonesia";"";"2.2836143";"97.79873";"https://maps.google.com/?cid=0x0:0x69572d4d90f45718"
"perumahan";"Komplek perumahan";"Green house ariyu";"7RJ5+HPC, Pulo Sarok, Kec. Singkil, Kabupaten Aceh Singkil, Aceh 24472";"Pulo Sarok, Kec. Singkil, Kabupaten Aceh Singkil";"ACEH";"24472";"Indonesia";"";"2.2814426";"97.809256";"https://maps.google.com/?cid=0x0:0xb7e449fc98b0293c"
"perumahan";"Komplek perumahan";"Rumah Rahman";"7QQP+562, Ujung, Kec. Singkil, Kabupaten Aceh Singkil, Aceh 24472";"Ujung, Kec. Singkil, Kabupaten Aceh Singkil";"ACEH";"24472";"Indonesia";"";"2.2878793";"97.7855255";"https://maps.google.com/?cid=0x0:0x1e3ba7ad5f66c7b3"
"perumahan";"Komplek perumahan";"Rumah";"7QMR+GHQ, Jl. Merdeka, Ps. Singkil, Kec. Singkil, Kabupaten Aceh Singkil, Aceh 24472";"Jl. Merdeka, Ps. Singkil, Kec. Singkil, Kabupaten Aceh Singkil";"ACEH";"24472";"Indonesia";"";"2.2838307";"97.7914782";"https://maps.google.com/?cid=0x0:0xec5978b0d229b218"
"perumahan";"Komplek perumahan";"Rumah";"7QMQ+5PF, Jl. Perdagangan, Ps. Singkil, Kec. Singkil, Kabupaten Aceh Singkil, Aceh 24472";"Jl. Perdagangan, Ps. Singkil, Kec. Singkil, Kabupaten Aceh Singkil";"ACEH";"24472";"Indonesia";"";"2.2829279";"97.7893099";"https://maps.google.com/?cid=0x0:0x3cd9c767efe45265"
"perumahan";"Komplek perumahan";"Rumah Pak Zulmiadi";"7RJ4+97G, Pulo Sarok, Kec. Singkil, Kabupaten Aceh Singkil, Aceh";"Kabupaten Aceh Singkil, Aceh";"ACEH";"";"Indonesia";"";"2.2809375";"97.8057031";"https://maps.google.com/?cid=0x0:0x9165220ad9338112"
"perumahan";"Komplek perumahan";"Rumah Ayek";"7RJ5+JR6, Pulo Sarok, Kec. Singkil, Kabupaten Aceh Singkil, Aceh 24472";"Pulo Sarok, Kec. Singkil, Kabupaten Aceh Singkil";"ACEH";"24472";"Indonesia";"";"2.2815332";"97.8095305";"https://maps.google.com/?cid=0x0:0x352b955da12eb773"
"perumahan";"Komplek perumahan";"Rumah Saya";"Perum BRR Jalur 6B, Pulo Sarok, Kec. Singkil, Kabupaten Aceh Singkil, Aceh";"Kabupaten Aceh Singkil, Aceh";"ACEH";"";"Indonesia";"";"2.283541";"97.8083462";"https://maps.google.com/?cid=0x0:0x27744998a12eaa21"
"perumahan";"perumahan";"Singkil";"Kec. Singkil, Kabupaten Aceh Singkil, Aceh";"Kabupaten Aceh Singkil, Aceh";"ACEH";"";"Indonesia";"";"2.2836143";"97.79873";"https://maps.google.com/?cid=0x0:0x4039d80b220d230"
"perumahan";"Perumahan";"PERUMNAS BRR";"7RM4+F54, Pulo Sarok, Kec. Singkil, Kabupaten Aceh Singkil, Aceh 24472";"Pulo Sarok, Kec. Singkil, Kabupaten Aceh Singkil";"ACEH";"24472";"Indonesia";"";"2.2836478";"97.8054545";"https://maps.google.com/?cid=0x0:0xac643ad0d34b8988"
"perumahan";"Perumahan";"rayyanjabier";"perumahan brr, Pulo Sarok, Kec. Singkil, Kabupaten Aceh Singkil, Aceh 24785";"Pulo Sarok, Kec. Singkil, Kabupaten Aceh Singkil";"ACEH";"24785";"Indonesia";"";"2.2829118";"97.8093779";"https://maps.google.com/?cid=0x0:0x4cea6675c2408527"
"perumahan";"Perhimpunan Pengembang Perumahan";"Tono ika home";"Perumahan BRR, Jalur 5B No.63, Pulo Sarok, Kec. Singkil, Kabupaten Aceh Singkil, Aceh";"Kabupaten Aceh Singkil, Aceh";"ACEH";"";"Indonesia";"";"2.2816718";"97.8099511";"https://maps.google.com/?cid=0x0:0x3ce3b8b19579e886"
"perumahan";"Komplek perumahan";"Rumah Heri Qusyairi";"Perumahan BRR, Jalur 2A No.113, Pulo Sarok, Kec. Singkil, Kabupaten Aceh Singkil, Aceh 24472";"Jalur 2A No.113, Pulo Sarok, Kec. Singkil, Kabupaten Aceh Singkil";"ACEH";"24472";"Indonesia";"";"2.2829118";"97.8093779";"https://maps.google.com/?cid=0x0:0x9a378aa418c0878a"
"perumahan";"Perhimpunan Pengembang Perumahan";"Rumah Rini Anggraini";"7RJ5+JR6, Pulo Sarok, Kec. Singkil, Kabupaten Aceh Singkil, Aceh 24472";"Pulo Sarok, Kec. Singkil, Kabupaten Aceh Singkil";"ACEH";"24472";"Indonesia";"";"2.2816612";"97.8102014";"https://maps.google.com/?cid=0x0:0x9c97078981eb702f"
"perumahan";"Komplek perumahan";"Green house ariyu";"7RJ5+HPC, Pulo Sarok, Kec. Singkil, Kabupaten Aceh Singkil, Aceh 24472";"Pulo Sarok, Kec. Singkil, Kabupaten Aceh Singkil";"ACEH";"24472";"Indonesia";"";"2.2814426";"97.809256";"https://maps.google.com/?cid=0x0:0xb7e449fc98b0293c"
"perumahan";"Perhimpunan Pengembang Perumahan";"kampung jawa";"Jl. Bahari No.55, Pulo Sarok, Kec. Singkil, Kabupaten Aceh Singkil, Aceh 24472";"Pulo Sarok, Kec. Singkil, Kabupaten Aceh Singkil";"ACEH";"24472";"Indonesia";"";"2.27607";"97.8078967";"https://maps.google.com/?cid=0x0:0x93aa24a679c38bb9"
"perumahan";"Komplek perumahan";"Perumahan Klasir";"8WWF+9W9, Gn. Lagan, Kec. Gn. Meriah, Kabupaten Aceh Singkil, Aceh 24472";"Gn. Lagan, Kec. Gn. Meriah, Kabupaten Aceh Singkil";"ACEH";"24472";"Indonesia";"";"2.345924";"97.9248575";"https://maps.google.com/?cid=0x0:0xcc4c2470c8090d90"
"perumahan";"Perumahan";"Komplek Perumahan BKSDA Singkil";"7VJV+GJ7, Jl. Pendidikan, Ketapang Indah, Kec. Singkil Utara, Kabupaten Aceh Singkil, Aceh 24472";"Jl. Pendidikan, Ketapang Indah, Kec. Singkil Utara, Kabupaten Aceh Singkil";"ACEH";"24472";"Indonesia";" 081370687265";"2.2812903";"97.8940442";"https://maps.google.com/?cid=0x0:0x6b363521e6afe4f9"
"perumahan";"perumahan";"Rumah biasa";"8RCR+9X, Pea Bumbung, Kec. Singkil, Kabupaten Aceh Singkil, Aceh";"Kabupaten Aceh Singkil, Aceh";"ACEH";"";"Indonesia";"";"2.321683";"97.842553";"https://maps.google.com/?cid=0x0:0x837994f66b005beb"
"perumahan";"Komplek perumahan";"Rumah Pak Zulmiadi";"7RJ4+97G, Pulo Sarok, Kec. Singkil, Kabupaten Aceh Singkil, Aceh";"Kabupaten Aceh Singkil, Aceh";"ACEH";"";"Indonesia";"";"2.2809375";"97.8057031";"https://maps.google.com/?cid=0x0:0x9165220ad9338112"
"perumahan";"Perhimpunan Pengembang Perumahan";"Rumah HAFIZH ATTHAR ASSAUQI";"7VJV+W3, Gosong Telaga Bar., Kec. Singkil Utara, Kabupaten Aceh Singkil, Aceh 24472";"Gosong Telaga Bar., Kec. Singkil Utara, Kabupaten Aceh Singkil";"ACEH";"24472";"Indonesia";" 082276069021";"2.2823101";"97.8926793";"https://maps.google.com/?cid=0x0:0x5e7bf9b6c7b322eb"
"perumahan";"Perumahan";"Perumahan";"perumahan BRR, Jalan Bahari, Jalur 7 B No.mor. 668, Pulo Sarok, Kec. Singkil, kabupaten Aceh Barat, Aceh";"kabupaten Aceh Barat, Aceh";"ACEH";"";"Indonesia";"";"2.2829118";"97.8093779";"https://maps.google.com/?cid=0x0:0xb1a9a46f7ca2ef74"
"perumahan";"perumahan";"Singkil";"Kec. Singkil, Kabupaten Aceh Singkil, Aceh";"Kabupaten Aceh Singkil, Aceh";"ACEH";"";"Indonesia";"";"2.2836143";"97.79873";"https://maps.google.com/?cid=0x0:0x4039d80b220d230"
"perumahan";"Perumahan";"PERUMNAS BRR";"7RM4+F54, Pulo Sarok, Kec. Singkil, Kabupaten Aceh Singkil, Aceh 24472";"Pulo Sarok, Kec. Singkil, Kabupaten Aceh Singkil";"ACEH";"24472";"Indonesia";"";"2.2836478";"97.8054545";"https://maps.google.com/?cid=0x0:0xac643ad0d34b8988"
"perumahan";"Perumahan";"rayyanjabier";"perumahan brr, Pulo Sarok, Kec. Singkil, Kabupaten Aceh Singkil, Aceh 24785";"Pulo Sarok, Kec. Singkil, Kabupaten Aceh Singkil";"ACEH";"24785";"Indonesia";"";"2.2829118";"97.8093779";"https://maps.google.com/?cid=0x0:0x4cea6675c2408527"
"perumahan";"Perhimpunan Pengembang Perumahan";"kampung jawa";"Jl. Bahari No.55, Pulo Sarok, Kec. Singkil, Kabupaten Aceh Singkil, Aceh 24472";"Pulo Sarok, Kec. Singkil, Kabupaten Aceh Singkil";"ACEH";"24472";"Indonesia";"";"2.27607";"97.8078967";"https://maps.google.com/?cid=0x0:0x93aa24a679c38bb9"
"perumahan";"Perhimpunan Pengembang Perumahan";"Rumah Rini Anggraini";"7RJ5+JR6, Pulo Sarok, Kec. Singkil, Kabupaten Aceh Singkil, Aceh 24472";"Pulo Sarok, Kec. Singkil, Kabupaten Aceh Singkil";"ACEH";"24472";"Indonesia";"";"2.2816612";"97.8102014";"https://maps.google.com/?cid=0x0:0x9c97078981eb702f"
"perumahan";"Perhimpunan Pengembang Perumahan";"Tono ika home";"Perumahan BRR, Jalur 5B No.63, Pulo Sarok, Kec. Singkil, Kabupaten Aceh Singkil, Aceh";"Kabupaten Aceh Singkil, Aceh";"ACEH";"";"Indonesia";"";"2.2816718";"97.8099511";"https://maps.google.com/?cid=0x0:0x3ce3b8b19579e886"
"perumahan";"Komplek perumahan";"Green house ariyu";"7RJ5+HPC, Pulo Sarok, Kec. Singkil, Kabupaten Aceh Singkil, Aceh 24472";"Pulo Sarok, Kec. Singkil, Kabupaten Aceh Singkil";"ACEH";"24472";"Indonesia";"";"2.2814426";"97.809256";"https://maps.google.com/?cid=0x0:0xb7e449fc98b0293c"
"perumahan";"Komplek perumahan";"Rumah Pak Zulmiadi";"7RJ4+97G, Pulo Sarok, Kec. Singkil, Kabupaten Aceh Singkil, Aceh";"Kabupaten Aceh Singkil, Aceh";"ACEH";"";"Indonesia";"";"2.2809375";"97.8057031";"https://maps.google.com/?cid=0x0:0x9165220ad9338112"
"perumahan";"Komplek perumahan";"Rumah fatih";"7QMX+CFX, Pulo Sarok, Kec. Singkil, Kabupaten Aceh Singkil, Aceh";"Kabupaten Aceh Singkil, Aceh";"ACEH";"";"Indonesia";"";"2.2836143";"97.79873";"https://maps.google.com/?cid=0x0:0x69572d4d90f45718"
"perumahan";"Komplek perumahan";"Rumah Heri Qusyairi";"Perumahan BRR, Jalur 2A No.113, Pulo Sarok, Kec. Singkil, Kabupaten Aceh Singkil, Aceh 24472";"Jalur 2A No.113, Pulo Sarok, Kec. Singkil, Kabupaten Aceh Singkil";"ACEH";"24472";"Indonesia";"";"2.2829118";"97.8093779";"https://maps.google.com/?cid=0x0:0x9a378aa418c0878a"
"perumahan";"Komplek perumahan";"Rumah";"7QMR+GHQ, Jl. Merdeka, Ps. Singkil, Kec. Singkil, Kabupaten Aceh Singkil, Aceh 24472";"Jl. Merdeka, Ps. Singkil, Kec. Singkil, Kabupaten Aceh Singkil";"ACEH";"24472";"Indonesia";"";"2.2838307";"97.7914782";"https://maps.google.com/?cid=0x0:0xec5978b0d229b218"
"perumahan";"Komplek perumahan";"Rumah Ayek";"7RJ5+JR6, Pulo Sarok, Kec. Singkil, Kabupaten Aceh Singkil, Aceh 24472";"Pulo Sarok, Kec. Singkil, Kabupaten Aceh Singkil";"ACEH";"24472";"Indonesia";"";"2.2815332";"97.8095305";"https://maps.google.com/?cid=0x0:0x352b955da12eb773"
"perumahan";"Komplek perumahan";"Rumah";"7QMQ+5PF, Jl. Perdagangan, Ps. Singkil, Kec. Singkil, Kabupaten Aceh Singkil, Aceh 24472";"Jl. Perdagangan, Ps. Singkil, Kec. Singkil, Kabupaten Aceh Singkil";"ACEH";"24472";"Indonesia";"";"2.2829279";"97.7893099";"https://maps.google.com/?cid=0x0:0x3cd9c767efe45265"
"perumahan";"Komplek perumahan";"Rumah Rahman";"7QQP+562, Ujung, Kec. Singkil, Kabupaten Aceh Singkil, Aceh 24472";"Ujung, Kec. Singkil, Kabupaten Aceh Singkil";"ACEH";"24472";"Indonesia";"";"2.2878793";"97.7855255";"https://maps.google.com/?cid=0x0:0x1e3ba7ad5f66c7b3"
"perumahan";"perumahan";"Aceh 24785";"Kec. Kota Baharu, Kabupaten Aceh Singkil, Aceh";"Kabupaten Aceh Singkil, Aceh";"ACEH";"";"Indonesia";"";"2.4523065";"97.8123224";"https://maps.google.com/?cid=0x0:0x571276798298d3f5"
"perumahan";"Kantor Pemerintah Distrik";"Rumah Dinas Camat Singkohor";"GW8H+W8P, Jl. Pari, Lae Pinang, Kec. Singkohor, Kabupaten Aceh Singkil, Aceh 24782";"Jl. Pari, Lae Pinang, Kec. Singkohor, Kabupaten Aceh Singkil";"ACEH";"24782";"Indonesia";"";"2.5173337";"97.9283208";"https://maps.google.com/?cid=0x0:0x7e70679fc53e3ef3"
"perumahan";"Komplek perumahan";"TS kota baharu";"HV25+945, jl. hamzah fansury No.121, Mukti Lincir, Kec. Kota Baharu, Kabupaten Aceh Singkil, Aceh";"Kabupaten Aceh Singkil, Aceh";"ACEH";"";"Indonesia";"";"2.5518896";"97.8580295";"https://maps.google.com/?cid=0x0:0x7d05c1c7cf2d9602"
"perumahan";"Komplek perumahan";"Rumah supian";"FVJ7+H7, Butar, Kec. Kota Baharu, Kabupaten Aceh Singkil, Aceh";"Kabupaten Aceh Singkil, Aceh";"ACEH";"";"Indonesia";"";"2.4814446";"97.8631755";"https://maps.google.com/?cid=0x0:0x21bd3b31813b86d2"
"perumahan";"Komplek perumahan";"Rumah ogal agil";"GW8F+MJP, Lae Pinang, Kec. Singkohor, Kabupaten Aceh Singkil, Aceh";"Kabupaten Aceh Singkil, Aceh";"ACEH";"";"Indonesia";"";"2.5167174";"97.9240675";"https://maps.google.com/?cid=0x0:0x74749335a095d58b"
"perumahan";"Perumahan";"rayyanjabier";"perumahan brr, Pulo Sarok, Kec. Singkil, Kabupaten Aceh Singkil, Aceh 24785";"Pulo Sarok, Kec. Singkil, Kabupaten Aceh Singkil";"ACEH";"24785";"Indonesia";"";"2.2829118";"97.8093779";"https://maps.google.com/?cid=0x0:0x4cea6675c2408527"
"perumahan";"Perumahan";"Perumahan SK III PT. Delima Makmur";"82HG+56C, Telaga Bakti, Kec. Singkil Utara, Kabupaten Aceh Singkil, Aceh 24472";"Telaga Bakti, Kec. Singkil Utara, Kabupaten Aceh Singkil";"ACEH";"24472";"Indonesia";"";"2.3279284";"98.0255103";"https://maps.google.com/?cid=0x0:0xbf1dac8042e0e817"
"perumahan";"Kompleks Bangunan Perusahaan";"Pantakh sindatas";"CRHQ+3R6, Ladang Bisik, Kec. Kota Baharu, Kabupaten Aceh Singkil, Aceh";"Kabupaten Aceh Singkil, Aceh";"ACEH";"";"Indonesia";"";"2.4276505";"97.8395151";"https://maps.google.com/?cid=0x0:0x79226ecfe8798c9c"
"perumahan";"Perhimpunan Pengembang Perumahan";"Awal jalan tidak beraspal";"8R5W+2V, Pea Bumbung, Kec. Singkil, Kabupaten Aceh Singkil, Aceh";"Kabupaten Aceh Singkil, Aceh";"ACEH";"";"Indonesia";"";"2.3081479";"97.8469865";"https://maps.google.com/?cid=0x0:0xc5f6ff94acfcebc1"
"perumahan";"Komplek perumahan";"depan bengkel";"FVP6+JQ3, Butar, Kec. Kota Baharu, Kabupaten Aceh Singkil, Aceh";"Kabupaten Aceh Singkil, Aceh";"ACEH";"";"Indonesia";"";"2.4863036";"97.8631766";"https://maps.google.com/?cid=0x0:0x191d4466435f0089"
"perumahan";"Rumah Makan";"Lapo ande Perumahan PMKS PT. Delima";"62XP+WM7, Telaga Bakti, Kec. Singkil Utara, Kabupaten Aceh Singkil, Aceh 24472";"Telaga Bakti, Kec. Singkil Utara, Kabupaten Aceh Singkil";"ACEH";"24472";"Indonesia";" 085372728925";"2.2497856";"98.0366657";"https://maps.google.com/?cid=0x0:0x8376413e56f35d8"
"perumahan";"Komplek perumahan";"Kilo 3";"FVX9+CQ8, Samar Dua, Kec. Kota Baharu, Kabupaten Aceh Singkil, Aceh 24782";"Samar Dua, Kec. Kota Baharu, Kabupaten Aceh Singkil";"ACEH";"24782";"Indonesia";"";"2.4985461";"97.8694391";"https://maps.google.com/?cid=0x0:0xae641518c90c4e9c"
"perumahan";"perumahan";"Rumah mempelai pria";"RJPJ+9Q8, Ujong Tanoh, Kec. Trumon, Kabupaten Aceh Selatan, Aceh 23774";"Ujong Tanoh, Kec. Trumon, Kabupaten Aceh Selatan";"ACEH";"23774";"Indonesia";"";"2.8359211";"97.6319518";"https://maps.google.com/?cid=0x0:0xc15d3258ae592eb4"
"perumahan";"Distributor minuman";"Air isi ulang singata";"FVV3+F7R, Danau Bungara, Kec. Kota Baharu, Kabupaten Aceh Singkil, Aceh 24782";"Danau Bungara, Kec. Kota Baharu, Kabupaten Aceh Singkil";"ACEH";"24782";"Indonesia";"";"2.4937463";"97.8531377";"https://maps.google.com/?cid=0x0:0x6580acb8736ac2be"
"perumahan";"perumahan";"Kec. Singkohor";"Kabupaten Aceh Singkil, Aceh";"Kabupaten Aceh Singkil, Aceh";"ACEH";"";"Indonesia";"";"2.526385";"97.9294718";"https://maps.google.com/?cid=0x0:0x53ce3e9eb5e19f1b"
"perumahan";"perumahan";"Singkohor";"Kec. Singkohor, Kabupaten Aceh Singkil, Aceh";"Kabupaten Aceh Singkil, Aceh";"ACEH";"";"Indonesia";"";"2.5298566";"97.9647353";"https://maps.google.com/?cid=0x0:0x385153fc58186d7e"
"perumahan";"perumahan";"Aceh 24784";"Kabupaten Aceh Singkil, Aceh";"Kabupaten Aceh Singkil, Aceh";"ACEH";"";"Indonesia";"";"2.152911";"97.2840888";"https://maps.google.com/?cid=0x0:0xab521459bf3c978c"
"perumahan";"Komplek perumahan";"FARIS Z";"GW9J+7HX, Singkohor, Kec. Singkohor, Kabupaten Aceh Singkil, Aceh 24782";"Singkohor, Kec. Singkohor, Kabupaten Aceh Singkil";"ACEH";"24782";"Indonesia";"";"2.518228";"97.9314784";"https://maps.google.com/?cid=0x0:0x19e9c227610013f7"
"perumahan";"Kantor Pemerintah Distrik";"Rumah Dinas Camat Singkohor";"GW8H+W8P, Jl. Pari, Lae Pinang, Kec. Singkohor, Kabupaten Aceh Singkil, Aceh 24782";"Jl. Pari, Lae Pinang, Kec. Singkohor, Kabupaten Aceh Singkil";"ACEH";"24782";"Indonesia";"";"2.5173337";"97.9283208";"https://maps.google.com/?cid=0x0:0x7e70679fc53e3ef3"
"perumahan";"Komplek perumahan";"Rumah hafizh";"GWFJ+84J, Singkohor, Kec. Singkohor, Kabupaten Aceh Singkil, Aceh 24782";"Singkohor, Kec. Singkohor, Kabupaten Aceh Singkil";"ACEH";"24782";"Indonesia";"";"2.5233441";"97.9302708";"https://maps.google.com/?cid=0x0:0x1ef62d4965ed8bb2"
"perumahan";"Komplek perumahan";"Rumah akas";"GW9G+CMV, Jl. Tongkol, Singkohor, Kec. Singkohor, Kabupaten Aceh Singkil, Aceh 24782";"Jl. Tongkol, Singkohor, Kec. Singkohor, Kabupaten Aceh Singkil";"ACEH";"24782";"Indonesia";"";"2.5186089";"97.9266677";"https://maps.google.com/?cid=0x0:0xbbda6bfc04e21f06"
"perumahan";"Perumahan";"rmh putri";"GW9C+F95, Jl. Tongkol, Singkohor, Kec. Singkohor, Kabupaten Aceh Singkil, Aceh 24782";"Jl. Tongkol, Singkohor, Kec. Singkohor, Kabupaten Aceh Singkil";"ACEH";"24782";"Indonesia";"";"2.518633";"97.921864";"https://maps.google.com/?cid=0x0:0x477f0710d2192b1c"
"perumahan";"Komplek perumahan";"BAMBANG SYAHPUTRA";"Jl. Tongkol No.10, RT.014/RW.003, Singkohor, Kec. Singkohor, Kabupaten Aceh Singkil, Aceh 24782";"RT.014/RW.003, Singkohor, Kec. Singkohor, Kabupaten Aceh Singkil";"ACEH";"24782";"Indonesia";"";"2.5185774";"97.9255811";"https://maps.google.com/?cid=0x0:0x68f7d123e3ff4805"
"perumahan";"Komplek perumahan";"my house";"GWGG+4VH, Jl. Kakap, Singkohor, Kec. Singkohor, Kabupaten Aceh Singkil, Aceh 24782";"Jl. Kakap, Singkohor, Kec. Singkohor, Kabupaten Aceh Singkil";"ACEH";"24782";"Indonesia";"";"2.5259939";"97.9275574";"https://maps.google.com/?cid=0x0:0x812fc4f22fb0f33f"
"perumahan";"Komplek perumahan";"Rumah hanna";"GWCC+4G8, Jl. Bawal, Singkohor, Kec. Singkohor, Kabupaten Aceh Singkil, Aceh 24782";"Jl. Bawal, Singkohor, Kec. Singkohor, Kabupaten Aceh Singkil";"ACEH";"24782";"Indonesia";"";"2.520703";"97.9206967";"https://maps.google.com/?cid=0x0:0x5a178fddfd6fb493"
"perumahan";"Komplek perumahan";"Rumah ogal agil";"GW8F+MJP, Lae Pinang, Kec. Singkohor, Kabupaten Aceh Singkil, Aceh";"Kabupaten Aceh Singkil, Aceh";"ACEH";"";"Indonesia";"";"2.5167174";"97.9240675";"https://maps.google.com/?cid=0x0:0x74749335a095d58b"
"perumahan";"Masjid";"Mesjid Singkohor";"GWGH+GP6, Singkohor, Kec. Singkohor, Kabupaten Aceh Singkil, Aceh 24782";"Singkohor, Kec. Singkohor, Kabupaten Aceh Singkil";"ACEH";"24782";"Indonesia";"";"2.5262994";"97.9292526";"https://maps.google.com/?cid=0x0:0x10b2700671f97d34"
"perumahan";"Perhimpunan Pengembang Perumahan";"Desa kali rejo";"GWRM+XMH, Mukti Jaya, Kec. Singkohor, Kabupaten Aceh Singkil, Aceh";"Kabupaten Aceh Singkil, Aceh";"ACEH";"";"Indonesia";"";"2.5424337";"97.9342221";"https://maps.google.com/?cid=0x0:0x1a9dd7bd92575845"
"perumahan";"perumahan";"Aceh 24784";"Kabupaten Aceh Singkil, Aceh";"Kabupaten Aceh Singkil, Aceh";"ACEH";"";"Indonesia";"";"2.152911";"97.2840888";"https://maps.google.com/?cid=0x0:0xab521459bf3c978c"
"perumahan";"Perumahan";"Kecamatan suromakmur";"FXRP+5JV, Alur Linci, Kec. Suro Makmur, Kabupaten Aceh Singkil, Aceh";"Kabupaten Aceh Singkil, Aceh";"ACEH";"";"Indonesia";"";"2.4904808";"97.986535";"https://maps.google.com/?cid=0x0:0xb06271fc659b677"
"perumahan";"Pembangunan Perumahan";"BRR Harmon Tanjung";"Haloban, Kec. Pulau Banyak Bar., Kabupaten Aceh Singkil, Aceh 24784";"Kec. Pulau Banyak Bar., Kabupaten Aceh Singkil";"ACEH";"24784";"Indonesia";" 085374714838";"2.2260528";"97.2345945";"https://maps.google.com/?cid=0x0:0x51ad094c7d8b745f"
"perumahan";"perumahan";"Perumahan yayasan bunga Alqur'an";"JL. Rimo No.Km. 07, Butar, Kec. Kota Baharu, Kabupaten Aceh Singkil, Aceh 24783";"Butar, Kec. Kota Baharu, Kabupaten Aceh Singkil";"ACEH";"24783";"Indonesia";"";"2.445945";"97.895955";"https://maps.google.com/?cid=0x0:0xf25f639dad30f067"
"perumahan";"Pembangunan Perumahan";"BRR PAK YONI";"66GM+8V4, Haloban, Kec. Pulau Banyak Bar., Kabupaten Aceh Singkil, Aceh 24784";"Haloban, Kec. Pulau Banyak Bar., Kabupaten Aceh Singkil";"ACEH";"24784";"Indonesia";"";"2.2257573";"97.2347033";"https://maps.google.com/?cid=0x0:0x8988c04037b08967"
"perumahan";"Pembangunan Perumahan";"RUMAH SAFRIADI PUTRA SURO";"H25V+674, Suro Baru, Kec. Suro Makmur, Kabupaten Aceh Singkil, Aceh";"Kabupaten Aceh Singkil, Aceh";"ACEH";"";"Indonesia";"";"2.5580164";"98.0432183";"https://maps.google.com/?cid=0x0:0xeddfcd8a1eea1b53"
"perumahan";"perumahan";"N/A";"";"";"ACEH";"";"Indonesia";"";"";"";"https://maps.google.com/?cid=0x0:0xc1e8ad17d54a69cd"
"perumahan";"Komplek perumahan";"Domeng";"FVG2+J3V, Butar, Kec. Kota Baharu, Kabupaten Aceh Singkil, Aceh 24782";"Butar, Kec. Kota Baharu, Kabupaten Aceh Singkil";"ACEH";"24782";"Indonesia";"";"2.476614";"97.8502591";"https://maps.google.com/?cid=0x0:0xa48ce436a47bf25e"
"perumahan";"Komplek perumahan";"Berteduh";"FVW9+735, Samar Dua, Kec. Kota Baharu, Kabupaten Aceh Singkil, Aceh 24782";"Samar Dua, Kec. Kota Baharu, Kabupaten Aceh Singkil";"ACEH";"24782";"Indonesia";"";"2.4956474";"97.8677411";"https://maps.google.com/?cid=0x0:0x1736f55b60f06f04"
"perumahan";"Perhimpunan Pengembang Perumahan";"Tanah Mushlihin";"F2WW+76Q, Siompin, Kec. Suro Makmur, Kabupaten Aceh Singkil, Aceh";"Kabupaten Aceh Singkil, Aceh";"ACEH";"";"Indonesia";"";"2.4957075";"98.0456047";"https://maps.google.com/?cid=0x0:0xf0f6810c0981f45"
"perumahan";"Komplek perumahan";"Mainur sahputra";"FVV7+G7X, Samar Dua, Kec. Kota Baharu, Kabupaten Aceh Singkil, Aceh 23784";"Samar Dua, Kec. Kota Baharu, Kabupaten Aceh Singkil";"ACEH";"23784";"Indonesia";"";"2.4942456";"97.8622996";"https://maps.google.com/?cid=0x0:0xf587554e3f684cce"
"perumahan";"Dapur Umum";"Desa Bulu Sema Kec. Suro";"G26M+M8V, Bulu Sema, Kec. Suro Makmur, Kabupaten Aceh Singkil, Aceh 24791";"Bulu Sema, Kec. Suro Makmur, Kabupaten Aceh Singkil";"ACEH";"24791";"Indonesia";"";"2.5117286";"98.0332975";"https://maps.google.com/?cid=0x0:0x2a37e05f6b9cecfd"
"perumahan";"Pembangunan Perumahan";"Markas Herlino Galilei";"66GJ+G63, Haloban, Kec. Pulau Banyak Bar., Kabupaten Aceh Singkil, Aceh 24784";"Haloban, Kec. Pulau Banyak Bar., Kabupaten Aceh Singkil";"ACEH";"24784";"Indonesia";" 081366651511";"2.2262605";"97.2305448";"https://maps.google.com/?cid=0x0:0xe8cb475b15300c95"
"perumahan";"perumahan";"Rumah Kamil";"66JJ+397, Haloban, Kec. Pulau Banyak Bar., Kabupaten Aceh Singkil, Aceh 24784";"Haloban, Kec. Pulau Banyak Bar., Kabupaten Aceh Singkil";"ACEH";"24784";"Indonesia";"";"2.2301556";"97.2309116";"https://maps.google.com/?cid=0x0:0xa63f76f2f3a6aef"
"housing complex";"housing complex";"Aceh 24784";"Kabupaten Aceh Singkil, Aceh";"Kabupaten Aceh Singkil, Aceh";"ACEH";"";"Indonesia";"";"2.152911";"97.2840888";"https://maps.google.com/?cid=0x0:0xab521459bf3c978c"
"housing complex";"Komplek perumahan";"Berteduh";"FVW9+735, Samar Dua, Kec. Kota Baharu, Kabupaten Aceh Singkil, Aceh 24782";"Samar Dua, Kec. Kota Baharu, Kabupaten Aceh Singkil";"ACEH";"24782";"Indonesia";"";"2.4956474";"97.8677411";"https://maps.google.com/?cid=0x0:0x1736f55b60f06f04"
"housing complex";"Pembangunan Perumahan";"Markas Herlino Galilei";"66GJ+G63, Haloban, Kec. Pulau Banyak Bar., Kabupaten Aceh Singkil, Aceh 24784";"Haloban, Kec. Pulau Banyak Bar., Kabupaten Aceh Singkil";"ACEH";"24784";"Indonesia";" 081366651511";"2.2262605";"97.2305448";"https://maps.google.com/?cid=0x0:0xe8cb475b15300c95"
"housing complex";"Perhimpunan Pengembang Perumahan";"Fanorotodo hulu";"84R5+M6, Biskang, Kec. Danau Paris, Kabupaten Aceh Singkil, Aceh";"Kabupaten Aceh Singkil, Aceh";"ACEH";"";"Indonesia";"";"2.3416102";"98.1081861";"https://maps.google.com/?cid=0x0:0xd2dc01a869743d4c"
"housing complex";"housing complex";"Rumah Kamil";"66JJ+397, Haloban, Kec. Pulau Banyak Bar., Kabupaten Aceh Singkil, Aceh 24784";"Haloban, Kec. Pulau Banyak Bar., Kabupaten Aceh Singkil";"ACEH";"24784";"Indonesia";"";"2.2301556";"97.2309116";"https://maps.google.com/?cid=0x0:0xa63f76f2f3a6aef"
"housing complex";"Komplek perumahan";"D mitra partner house";"84H4+V93, Unnamed Road, Biskang, Kec. Danau Paris, Kabupaten Aceh Singkil, Aceh 24472";"Unnamed Road, Biskang, Kec. Danau Paris, Kabupaten Aceh Singkil";"ACEH";"24472";"Indonesia";"";"2.3296453";"98.1059289";"https://maps.google.com/?cid=0x0:0xb8ceb106d4371f7a"
"housing complex";"Komplek perumahan";"Domeng";"FVG2+J3V, Butar, Kec. Kota Baharu, Kabupaten Aceh Singkil, Aceh 24782";"Butar, Kec. Kota Baharu, Kabupaten Aceh Singkil";"ACEH";"24782";"Indonesia";"";"2.476614";"97.8502591";"https://maps.google.com/?cid=0x0:0xa48ce436a47bf25e"
"housing complex";"Komplek perumahan";"Rumah utigun";"66GJ+M6C, Haloban, Kec. Pulau Banyak Bar., Kabupaten Aceh Singkil, Aceh 24784";"Haloban, Kec. Pulau Banyak Bar., Kabupaten Aceh Singkil";"ACEH";"24784";"Indonesia";"";"2.2266885";"97.2305086";"https://maps.google.com/?cid=0x0:0x8e217f45b559f1c9"
"housing complex";"Komplek perumahan";"Mainur sahputra";"FVV7+G7X, Samar Dua, Kec. Kota Baharu, Kabupaten Aceh Singkil, Aceh 23784";"Samar Dua, Kec. Kota Baharu, Kabupaten Aceh Singkil";"ACEH";"23784";"Indonesia";"";"2.4942456";"97.8622996";"https://maps.google.com/?cid=0x0:0xf587554e3f684cce"
"housing complex";"Kompleks Kondominium";"SANGGA BERU SILULUSAN";"C229+RMX, Sanggaberu Silulusan, Kec. Gn. Meriah, Kabupaten Aceh Singkil, Aceh";"Kabupaten Aceh Singkil, Aceh";"ACEH";"";"Indonesia";"";"2.4021189";"98.0192471";"https://maps.google.com/?cid=0x0:0x45bd4f87eff148fc"
"housing complex";"Komplek perumahan";"S. Pulungan";"8346+62, Situban Makmur, Kec. Danau Paris, Kabupaten Aceh Singkil, Aceh";"Kabupaten Aceh Singkil, Aceh";"ACEH";"";"Indonesia";"";"2.3055899";"98.0600455";"https://maps.google.com/?cid=0x0:0x28df61798c926abd"
"housing complex";"housing complex";"Perumahan yayasan bunga Alqur'an";"JL. Rimo No.Km. 07, Butar, Kec. Kota Baharu, Kabupaten Aceh Singkil, Aceh 24783";"Butar, Kec. Kota Baharu, Kabupaten Aceh Singkil";"ACEH";"24783";"Indonesia";"";"2.445945";"97.895955";"https://maps.google.com/?cid=0x0:0xf25f639dad30f067"
"housing complex";"Komplek perumahan";"TS kota baharu";"HV25+945, jl. hamzah fansury No.121, Mukti Lincir, Kec. Kota Baharu, Kabupaten Aceh Singkil, Aceh";"Kabupaten Aceh Singkil, Aceh";"ACEH";"";"Indonesia";"";"2.5518896";"97.8580295";"https://maps.google.com/?cid=0x0:0x7d05c1c7cf2d9602"
"housing complex";"housing complex";"Hendri sagala";"73GR+JGF, Situban Makmur, Kec. Danau Paris, Kabupaten Aceh Singkil, Aceh 24472";"Situban Makmur, Kec. Danau Paris, Kabupaten Aceh Singkil";"ACEH";"24472";"Indonesia";"";"2.2765519";"98.0912845";"https://maps.google.com/?cid=0x0:0xc707f8261767c416"
"housing complex";"housing complex";"Kec. Gn. Meriah";"Kabupaten Aceh Singkil, Aceh";"Kabupaten Aceh Singkil, Aceh";"ACEH";"";"Indonesia";"";"2.3905149";"97.9623759";"https://maps.google.com/?cid=0x0:0x4e324f8a0662e10"
"housing complex";"housing complex";"Aceh 24784";"Kabupaten Aceh Singkil, Aceh";"Kabupaten Aceh Singkil, Aceh";"ACEH";"";"Indonesia";"";"2.152911";"97.2840888";"https://maps.google.com/?cid=0x0:0xab521459bf3c978c"
"housing complex";"Komplek perumahan";"TS kota baharu";"HV25+945, jl. hamzah fansury No.121, Mukti Lincir, Kec. Kota Baharu, Kabupaten Aceh Singkil, Aceh";"Kabupaten Aceh Singkil, Aceh";"ACEH";"";"Indonesia";"";"2.5518896";"97.8580295";"https://maps.google.com/?cid=0x0:0x7d05c1c7cf2d9602"
"housing complex";"Komplek perumahan";"Berteduh";"FVW9+735, Samar Dua, Kec. Kota Baharu, Kabupaten Aceh Singkil, Aceh 24782";"Samar Dua, Kec. Kota Baharu, Kabupaten Aceh Singkil";"ACEH";"24782";"Indonesia";"";"2.4956474";"97.8677411";"https://maps.google.com/?cid=0x0:0x1736f55b60f06f04"
"housing complex";"Pembangunan Perumahan";"Markas Herlino Galilei";"66GJ+G63, Haloban, Kec. Pulau Banyak Bar., Kabupaten Aceh Singkil, Aceh 24784";"Haloban, Kec. Pulau Banyak Bar., Kabupaten Aceh Singkil";"ACEH";"24784";"Indonesia";" 081366651511";"2.2262605";"97.2305448";"https://maps.google.com/?cid=0x0:0xe8cb475b15300c95"
"housing complex";"Komplek perumahan";"Domeng";"FVG2+J3V, Butar, Kec. Kota Baharu, Kabupaten Aceh Singkil, Aceh 24782";"Butar, Kec. Kota Baharu, Kabupaten Aceh Singkil";"ACEH";"24782";"Indonesia";"";"2.476614";"97.8502591";"https://maps.google.com/?cid=0x0:0xa48ce436a47bf25e"
"housing complex";"Komplek perumahan";"depan bengkel";"FVP6+JQ3, Butar, Kec. Kota Baharu, Kabupaten Aceh Singkil, Aceh";"Kabupaten Aceh Singkil, Aceh";"ACEH";"";"Indonesia";"";"2.4863036";"97.8631766";"https://maps.google.com/?cid=0x0:0x191d4466435f0089"
"housing complex";"housing complex";"Perumahan yayasan bunga Alqur'an";"JL. Rimo No.Km. 07, Butar, Kec. Kota Baharu, Kabupaten Aceh Singkil, Aceh 24783";"Butar, Kec. Kota Baharu, Kabupaten Aceh Singkil";"ACEH";"24783";"Indonesia";"";"2.445945";"97.895955";"https://maps.google.com/?cid=0x0:0xf25f639dad30f067"
"housing complex";"Komplek perumahan";"Baharu Silaban";"C2V6+GC8 kedai Baharu Silaban, Kuta Kerangan, Kec. Simpang Kanan, Kabupaten Aceh Singkil, Aceh";"Kabupaten Aceh Singkil, Aceh";"ACEH";"";"Indonesia";"";"2.4437789";"98.0110677";"https://maps.google.com/?cid=0x0:0x653abf95b8f7980f"
"housing complex";"housing complex";"Rumah Kamil";"66JJ+397, Haloban, Kec. Pulau Banyak Bar., Kabupaten Aceh Singkil, Aceh 24784";"Haloban, Kec. Pulau Banyak Bar., Kabupaten Aceh Singkil";"ACEH";"24784";"Indonesia";"";"2.2301556";"97.2309116";"https://maps.google.com/?cid=0x0:0xa63f76f2f3a6aef"
"housing complex";"Komplek perumahan";"Fam Suoth";"GVCG+CJ, Sumber Mukti, Kec. Kota Baharu, Kabupaten Aceh Singkil, Aceh";"Kabupaten Aceh Singkil, Aceh";"ACEH";"";"Indonesia";"";"2.5209442";"97.8769012";"https://maps.google.com/?cid=0x0:0x38978465a1779bd6"
"housing complex";"Komplek perumahan";"Mainur sahputra";"FVV7+G7X, Samar Dua, Kec. Kota Baharu, Kabupaten Aceh Singkil, Aceh 23784";"Samar Dua, Kec. Kota Baharu, Kabupaten Aceh Singkil";"ACEH";"23784";"Indonesia";"";"2.4942456";"97.8622996";"https://maps.google.com/?cid=0x0:0xf587554e3f684cce"
"housing complex";"Komplek perumahan";"Rumah Sutrisno Tj";"66HJ+CC8, Haloban, Kec. Pulau Banyak Bar., Kabupaten Aceh Singkil, Aceh 24784";"Haloban, Kec. Pulau Banyak Bar., Kabupaten Aceh Singkil";"ACEH";"24784";"Indonesia";"";"2.2285383";"97.2310876";"https://maps.google.com/?cid=0x0:0xe5e3cd6df24c68b7"
"housing complex";"Kantor Perusahaan";"Perusahaan PMKS nafasindo";"CWM5+X5W, Butar, Kec. Kota Baharu, Kabupaten Aceh Singkil, Aceh 24783";"Butar, Kec. Kota Baharu, Kabupaten Aceh Singkil";"ACEH";"24783";"Indonesia";"";"2.4349343";"97.9079799";"https://maps.google.com/?cid=0x0:0xd2c2283d6a93ba13"
"housing complex";"Perumahan";"Komplek Perumahan Guru SMA N 1 Singkohor";"GWCH+32G, Singkohor, Kec. Singkohor, Kabupaten Aceh Singkil, Aceh 24782";"Singkohor, Kec. Singkohor, Kabupaten Aceh Singkil";"ACEH";"24782";"Indonesia";"";"2.5201884";"97.9275804";"https://maps.google.com/?cid=0x0:0xdc6c418d528547f7"
"housing complex";"housing complex";"Kec. Kuala Baru";"Kabupaten Aceh Singkil, Aceh";"Kabupaten Aceh Singkil, Aceh";"ACEH";"";"Indonesia";"";"2.3496125";"97.7112967";"https://maps.google.com/?cid=0x0:0x48a3d100d6cd113b"
"housing complex";"Pembangunan Perumahan";"Kuala baru";"8PX6+RGJ, Kuala Baru Sungai, Kec. Kuala Baru, Kabupaten Aceh Singkil, Aceh 24472";"Kuala Baru Sungai, Kec. Kuala Baru, Kabupaten Aceh Singkil";"ACEH";"24472";"Indonesia";"";"2.3495864";"97.7112573";"https://maps.google.com/?cid=0x0:0x939bb963f29a48e4"
"housing complex";"Pembangunan Perumahan";"Kuala baru sungai";"9P44+H54, Kab.Aceh Singkil Kec.Kuala Baru Sungai, Suka Jaya";"Kabupaten Aceh Singkil, Aceh";"ACEH";"";"Indonesia";"";"2.3563826";"97.7054477";"https://maps.google.com/?cid=0x0:0xe72d71ebff142a04"
"housing complex";"Pembangunan Perumahan";"Suka jaya";"9P44+M35, Jalan, Suka Jaya, Kec. Kuala Baru, Kabupaten Aceh Singkil, Aceh 24472";"Jalan, Suka Jaya, Kec. Kuala Baru, Kabupaten Aceh Singkil";"ACEH";"24472";"Indonesia";"";"2.3572322";"97.7047594";"https://maps.google.com/?cid=0x0:0xb789bc8df2017dd2"
"housing complex";"Toko Buah dan Sayur";"Rahmy putrox";"8PX5+7WR, Jl. Datoek Oeno, Kuala Baru Laut, Kec. Kuala Baru, Kabupaten Aceh Singkil, Aceh 24472";"Jl. Datoek Oeno, Kuala Baru Laut, Kec. Kuala Baru, Kabupaten Aceh Singkil";"ACEH";"24472";"Indonesia";"";"2.3482427";"97.7097641";"https://maps.google.com/?cid=0x0:0x1d4aa56e38420e9d"
"housing complex";"housing complex";"Rumah biasa";"8RCR+9X, Pea Bumbung, Kec. Singkil, Kabupaten Aceh Singkil, Aceh";"Kabupaten Aceh Singkil, Aceh";"ACEH";"";"Indonesia";"";"2.321683";"97.842553";"https://maps.google.com/?cid=0x0:0x837994f66b005beb"
"housing complex";"Pembangunan Perumahan";"RM. PUTRI";"8PX6+RGJ, Kuala Baru Sungai, Kec. Kuala Baru, Kabupaten Aceh Singkil, Aceh 24472";"Kuala Baru Sungai, Kec. Kuala Baru, Kabupaten Aceh Singkil";"ACEH";"24472";"Indonesia";"";"2.3496095";"97.7111715";"https://maps.google.com/?cid=0x0:0xa4f6508d1aab09ad"
"housing complex";"Komplek perumahan";"Sabila ponsel";"9P25+FMR, Jalan, Kuala Baru Laut, Kec. Kuala Baru, Kabupaten Aceh Singkil, Aceh 24472";"Jalan, Kuala Baru Laut, Kec. Kuala Baru, Kabupaten Aceh Singkil";"ACEH";"24472";"Indonesia";"";"2.3512237";"97.7091221";"https://maps.google.com/?cid=0x0:0xef83e19418fbc3d6"
"housing complex";"Kantor Pemerintah";"Juardin,SP";"7QPF+8J2, Kilangan, Kec. Singkil, Kabupaten Aceh Singkil, Aceh";"Kabupaten Aceh Singkil, Aceh";"ACEH";"";"Indonesia";"";"2.2857501";"97.7740133";"https://maps.google.com/?cid=0x0:0xe7548fda1075810e"
"housing complex";"Komplek perumahan";"rumah negara, kemenkeu, DJBC";"7QMV+36Q, Ps. Singkil, Kec. Singkil, Kabupaten Aceh Singkil, Aceh 24472";"Ps. Singkil, Kec. Singkil, Kabupaten Aceh Singkil";"ACEH";"24472";"Indonesia";"";"2.2827093";"97.793111";"https://maps.google.com/?cid=0x0:0x86760833c06545e2"
"housing complex";"Komplek perumahan";"Rumah Dinas Bea Cukai Meulaboh";"7QMV+36Q, Ps. Singkil, Kec. Singkil, Kabupaten Aceh Singkil, Aceh 24472";"Ps. Singkil, Kec. Singkil, Kabupaten Aceh Singkil";"ACEH";"24472";"Indonesia";"";"2.2827224";"97.7931119";"https://maps.google.com/?cid=0x0:0x755f9a4208f9eb57"
"housing complex";"Perhimpunan Pengembang Perumahan";"Awal jalan tidak beraspal";"8R5W+2V, Pea Bumbung, Kec. Singkil, Kabupaten Aceh Singkil, Aceh";"Kabupaten Aceh Singkil, Aceh";"ACEH";"";"Indonesia";"";"2.3081479";"97.8469865";"https://maps.google.com/?cid=0x0:0xc5f6ff94acfcebc1"
"housing complex";"Kantor Perusahaan";"Perusahaan PMKS nafasindo";"CWM5+X5W, Butar, Kec. Kota Baharu, Kabupaten Aceh Singkil, Aceh 24783";"Butar, Kec. Kota Baharu, Kabupaten Aceh Singkil";"ACEH";"24783";"Indonesia";"";"2.4349343";"97.9079799";"https://maps.google.com/?cid=0x0:0xd2c2283d6a93ba13"
"housing complex";"Komplek perumahan";"Oprator beko supri sahputra";"7QQH+59, Kilangan, Kec. Singkil, Kabupaten Aceh Singkil, Aceh";"Kabupaten Aceh Singkil, Aceh";"ACEH";"";"Indonesia";" 081264601175";"2.2879755";"97.778445";"https://maps.google.com/?cid=0x0:0xc22370b8f44ddeae"
"housing complex";"housing complex";"Pulau Banyak";"Kabupaten Aceh Singkil, Aceh";"Kabupaten Aceh Singkil, Aceh";"ACEH";"";"Indonesia";"";"2.3198851";"97.413802";"https://maps.google.com/?cid=0x0:0xf22eba8ba0db80e0"
"housing complex";"housing complex";"Kimo Resort";"Pulau Baguk, Pulau Banyak, Kabupaten Aceh Singkil, Aceh 24784";"Pulau Banyak, Kabupaten Aceh Singkil";"ACEH";"24784";"Indonesia";" 082288005500";"2.2658621";"97.4167753";"https://maps.google.com/?cid=0x0:0xe98152fe2f9d1bb8"
"housing complex";"Biro Perjalanan dan Wisata";"Pulau Banyak Travel";"Jalan Iskandar Muda No.4, Pulau Balai, Pulau Banyak, Kabupaten Aceh Singkil, Aceh 24791";"Pulau Balai, Pulau Banyak, Kabupaten Aceh Singkil";"ACEH";"24791";"Indonesia";" 085277258272";"2.300944";"97.4101007";"https://maps.google.com/?cid=0x0:0xeafde46f3122928e"
"housing complex";"Komplek perumahan";"rumah Aidil Yusra";"9XF9+PV5, Sidorejo, Kec. Gn. Meriah, Kabupaten Aceh Singkil, Aceh 24791";"Sidorejo, Kec. Gn. Meriah, Kabupaten Aceh Singkil";"ACEH";"24791";"Indonesia";"";"2.3737529";"97.9689684";"https://maps.google.com/?cid=0x0:0x13a88d0a64294ec8"
"housing complex";"Komplek perumahan";"RUMAH WANDA SULHIJAR (POLTEK)";"9XG8+994, Sidorejo, Kec. Gn. Meriah, Kabupaten Aceh Singkil, Aceh 24791";"Sidorejo, Kec. Gn. Meriah, Kabupaten Aceh Singkil";"ACEH";"24791";"Indonesia";"";"2.3749981";"97.9655944";"https://maps.google.com/?cid=0x0:0xbd4d5e8a5a942a0b"
"housing complex";"Hotel";"Panjang Beach Resort";"Pulau Baguk, Pulau Banyak, Kabupaten Aceh Singkil, Aceh 24784";"Pulau Banyak, Kabupaten Aceh Singkil";"ACEH";"24784";"Indonesia";" 081319533832";"2.2680862";"97.4161336";"https://maps.google.com/?cid=0x0:0xc08b46a7dd8249d7"
"housing complex";"Komplek perumahan";"AHZPinem";"9XF4+489, Suka Makmur, Kec. Gn. Meriah, Kabupaten Aceh Singkil, Aceh 24791";"Suka Makmur, Kec. Gn. Meriah, Kabupaten Aceh Singkil";"ACEH";"24791";"Indonesia";"";"2.3712291";"97.9567911";"https://maps.google.com/?cid=0x0:0x1383feb27c135ba8"
"housing complex";"housing complex";"Sikandang Coral";"Sikandang,Pulau 23791, Haloban, Pulau Banyak, Kabupaten Aceh Singkil, Aceh 24784";"Haloban, Pulau Banyak, Kabupaten Aceh Singkil";"ACEH";"24784";"Indonesia";" 085296949888";"2.2923198";"97.3143667";"https://maps.google.com/?cid=0x0:0x33e405b93263704a"
"housing complex";"housing complex";"Aceh 24791";"Kec. Singkil Utara, Kabupaten Aceh Singkil, Aceh";"Kabupaten Aceh Singkil, Aceh";"ACEH";"";"Indonesia";"";"2.4658075";"98.013794";"https://maps.google.com/?cid=0x0:0xed134176c9340695"
"housing complex";"housing complex";"Aceh 24791";"Kec. Singkil Utara, Kabupaten Aceh Singkil, Aceh";"Kabupaten Aceh Singkil, Aceh";"ACEH";"";"Indonesia";"";"2.4658075";"98.013794";"https://maps.google.com/?cid=0x0:0xed134176c9340695"
"housing complex";"housing complex";"Kec. Pulau Banyak Bar.";"Kabupaten Aceh Singkil, Aceh";"Kabupaten Aceh Singkil, Aceh";"ACEH";"";"Indonesia";"";"2.2278739";"97.2326992";"https://maps.google.com/?cid=0x0:0x154c9da37cf5674f"
"housing complex";"housing complex";"Aceh 24783";"Kabupaten Aceh Singkil, Aceh";"Kabupaten Aceh Singkil, Aceh";"ACEH";"";"Indonesia";"";"2.4071732";"97.991986";"https://maps.google.com/?cid=0x0:0x4541045a0abeaf53"
"housing complex";"housing complex";"Perumahan yayasan bunga Alqur'an";"JL. Rimo No.Km. 07, Butar, Kec. Kota Baharu, Kabupaten Aceh Singkil, Aceh 24783";"Butar, Kec. Kota Baharu, Kabupaten Aceh Singkil";"ACEH";"24783";"Indonesia";"";"2.445945";"97.895955";"https://maps.google.com/?cid=0x0:0xf25f639dad30f067"
"housing complex";"Perhimpunan Pengembang Perumahan";"Is";"9XXR+2XQ, Blk. 15, Kec. Gn. Meriah, Kabupaten Aceh Singkil, Aceh 24783";"Blk. 15, Kec. Gn. Meriah, Kabupaten Aceh Singkil";"ACEH";"24783";"Indonesia";"";"2.3975915";"97.9924763";"https://maps.google.com/?cid=0x0:0x498d426fd368c633"
"housing complex";"Perhimpunan Pengembang Perumahan";"Simpang jengkol";"9XM9+JH2, dusun 4, Blk. VI Baru, Kec. Gn. Meriah, Kabupaten Aceh Singkil, Aceh 24791";"dusun 4, Blk. VI Baru, Kec. Gn. Meriah, Kabupaten Aceh Singkil";"ACEH";"24791";"Indonesia";"";"2.3840099";"97.9688797";"https://maps.google.com/?cid=0x0:0x3f9b24a340f4b3a5"
"housing complex";"Pembangunan Perumahan";"Rumah Bahagi";"CXJG+GJ5, Tugan, Kec. Simpang Kanan, Kabupaten Aceh Singkil, Aceh";"Kabupaten Aceh Singkil, Aceh";"ACEH";"";"Indonesia";"";"2.4312591";"97.976604";"https://maps.google.com/?cid=0x0:0xbee5d5446b2cf60c"
"housing complex";"Komplek perumahan";"Rumah rindi";"C2G2+VW6, Sidodadi, Kec. Simpang Kanan, Kabupaten Aceh Singkil, Aceh 24783";"Sidodadi, Kec. Simpang Kanan, Kabupaten Aceh Singkil";"ACEH";"24783";"Indonesia";"";"2.427164";"98.0022728";"https://maps.google.com/?cid=0x0:0x3ab37ebb70faa974"
"housing complex";"Komplek perumahan";"Ifan";"CXRP+J4, Lipat Kajang, Kec. Simpang Kanan, Kabupaten Aceh Singkil, Aceh 24791";"Lipat Kajang, Kec. Simpang Kanan, Kabupaten Aceh Singkil";"ACEH";"24791";"Indonesia";"";"2.4415653";"97.9853138";"https://maps.google.com/?cid=0x0:0x19e63e3213c13baa"
"housing complex";"Komplek perumahan";"Warung Ulfa desa lae riman";"F22H+JQP, Lae Riman, Kec. Simpang Kanan, Kabupaten Aceh Singkil, Aceh";"Kabupaten Aceh Singkil, Aceh";"ACEH";"";"Indonesia";"";"2.4515808";"98.0294533";"https://maps.google.com/?cid=0x0:0x99e57e6c149e6ace"
"housing complex";"Komplek perumahan";"Lae nipe";"F343+Q8W, Lae Nipe, Kec. Simpang Kanan, Kabupaten Aceh Singkil, Aceh";"Kabupaten Aceh Singkil, Aceh";"ACEH";"";"Indonesia";"";"2.4569942";"98.0533379";"https://maps.google.com/?cid=0x0:0xb90ad3ed6c8d5a88"
"housing complex";"Komplek perumahan";"rmh tmpt tinggl";"F256+9CP areal prmhan prbtsan, ujung Limus, Silatong, Kec. Simpang Kanan, Kabupaten Aceh Singkil, Aceh";"Kabupaten Aceh Singkil, Aceh";"ACEH";"";"Indonesia";"";"2.4584745";"98.0110677";"https://maps.google.com/?cid=0x0:0x86e827922b62fc8"
"housing complex";"Perhimpunan Pengembang Perumahan";"Pupung elyn";"C3M8+F69, Tuh Tuhan, Kec. Simpang Kanan, Kabupaten Aceh Singkil, Aceh";"Kabupaten Aceh Singkil, Aceh";"ACEH";"";"Indonesia";"";"2.4336576";"98.0656145";"https://maps.google.com/?cid=0x0:0x2a0712d073b1a46"
"housing complex";"housing complex";"Simpang rambutan";"9XM9+R98, Jl. Perjuangan, Blk. VI Baru, Kec. Gn. Meriah, Kabupaten Aceh Singkil, Aceh 24791";"Jl. Perjuangan, Blk. VI Baru, Kec. Gn. Meriah, Kabupaten Aceh Singkil";"ACEH";"24791";"Indonesia";"";"2.3845541";"97.9684753";"https://maps.google.com/?cid=0x0:0xd64daade729c0ecb"
"housing complex";"housing complex";"Home EL Geneina";"F232+P25, Silatong, Kec. Simpang Kanan, Kabupaten Aceh Singkil, Aceh 24791";"Silatong, Kec. Simpang Kanan, Kabupaten Aceh Singkil";"ACEH";"24791";"Indonesia";"";"2.454351";"98.0001085";"https://maps.google.com/?cid=0x0:0xa7824efe46d37f76"
"housing complex";"Komplek perumahan";"kompleks gang berkah";"dusun gang berkah No.1, Tulaan, Kec. Gn. Meriah, Kabupaten Aceh Singkil, Aceh";"Kabupaten Aceh Singkil, Aceh";"ACEH";"";"Indonesia";"";"2.3884598";"97.9715285";"https://maps.google.com/?cid=0x0:0xf6e344bd646d0dd2"
"housing complex";"housing complex";"Riau 28992";"Kabupaten Rokan Hilir, Riau";"Kabupaten Rokan Hilir, Riau";"ACEH";"";"Indonesia";"";"1.6089504";"100.6647101";"https://maps.google.com/?cid=0x0:0x2b7f1924f159497b"
"housing complex";"housing complex";"Kec. Simpang Kanan";"Kabupaten Aceh Singkil, Aceh";"Kabupaten Aceh Singkil, Aceh";"ACEH";"";"Indonesia";"";"2.4382133";"97.9903392";"https://maps.google.com/?cid=0x0:0x8d3290c62e81c9f0"
"housing complex";"Komplek perumahan";"Simpang kanan";"R868+F38, Bagan Nibung, Kec. Simpang Kanan, Kabupaten Rokan Hilir, Riau 28992";"Bagan Nibung, Kec. Simpang Kanan, Kabupaten Rokan Hilir";"ACEH";"28992";"Indonesia";"";"1.8111503";"100.3151881";"https://maps.google.com/?cid=0x0:0x225d9c27ca2a01a4"
"housing complex";"Komplek perumahan";"My home";"R823+7X, Bagan Nibung, Kec. Simpang Kanan, Kabupaten Rokan Hilir, Riau 28992";"Bagan Nibung, Kec. Simpang Kanan, Kabupaten Rokan Hilir";"ACEH";"28992";"Indonesia";"";"1.8006376";"100.3049914";"https://maps.google.com/?cid=0x0:0x2b8f8276f57c3770"
"housing complex";"Komplek perumahan";"Rumah Sihombing";"R8G5+F2, Bagan Nibung, Kec. Simpang Kanan, Kabupaten Rokan Hilir, Riau";"Kabupaten Rokan Hilir, Riau";"ACEH";"";"Indonesia";"";"1.8261666";"100.3075089";"https://maps.google.com/?cid=0x0:0xfe3293baab44d547"
"housing complex";"Komplek perumahan";"Simpang balok";"V853+M4, Simpang Kanan, Kec. Simpang Kanan, Kabupaten Rokan Hilir, Riau";"Kabupaten Rokan Hilir, Riau";"ACEH";"";"Indonesia";"";"1.8591875";"100.3028125";"https://maps.google.com/?cid=0x0:0x650b5ee7e1697821"
"housing complex";"Perhimpunan Pengembang Perumahan";"GiNDA HOME";"Q9M5+RJ8, Gg. Monas, Bukit Mas, Simpang Kanan, Rokan Hilir Regency, Riau 28992";"Gg. Monas, Bukit Mas, Simpang Kanan, Rokan Hilir Regency";"ACEH";"28992";"Indonesia";"";"1.7846829";"100.3590456";"https://maps.google.com/?cid=0x0:0xe171f39ce2c4117a"
"housing complex";"Perhimpunan Pengembang Perumahan";"Bukit Datuk, Bukit Damar, Simpang Kanan";"R9F2+JW8, desa, bukit datok, Kec. Simpang Kanan, Kabupaten Rokan Hilir, Riau 28992";"desa, bukit datok, Kec. Simpang Kanan, Kabupaten Rokan Hilir";"ACEH";"28992";"Indonesia";"";"1.8240352";"100.3523243";"https://maps.google.com/?cid=0x0:0xbb18d235e1d08c24"
"housing complex";"Komplek perumahan";"Bukti badak,kec.simpang kanan, kabupaten Rokan hilir,riau";"VC58+PV3, Kota Parit, Kec. Simpang Kanan, Kabupaten Rokan Hilir, Riau";"Kabupaten Rokan Hilir, Riau";"ACEH";"";"Indonesia";"";"1.8592516";"100.417181";"https://maps.google.com/?cid=0x0:0x69547f045cfee2dc"
"housing complex";"Komplek perumahan";"home";"V74P+JGG, Suka Damai, Kec. Simpang Kanan, Kabupaten Rokan Hilir, Riau 21464";"Suka Damai, Kec. Simpang Kanan, Kabupaten Rokan Hilir";"ACEH";"21464";"Indonesia";"";"1.8573042";"100.2857526";"https://maps.google.com/?cid=0x0:0xe394215ef7218f8d"
"housing complex";"Taman";"Tugu Kelurahan Simpang Kanan";"V77X+8M2, Simpang Kanan, Kec. Simpang Kanan, Kabupaten Rokan Hilir, Riau";"Kabupaten Rokan Hilir, Riau";"ACEH";"";"Indonesia";"";"1.8632562";"100.2991445";"https://maps.google.com/?cid=0x0:0x5ceac14743755fbb"
"housing complex";"Gedung Apartemen";"Rumah";"R7PQ+W7G, Bagan Nibung, Kec. Simpang Kanan, Kabupaten Rokan Hilir, Riau 28992";"Bagan Nibung, Kec. Simpang Kanan, Kabupaten Rokan Hilir";"ACEH";"28992";"Indonesia";"";"1.8373184";"100.2882179";"https://maps.google.com/?cid=0x0:0x29a26f51bcd9e29e"
"housing complex";"Komplek perumahan";"Zezee harahap";"RCJ3+H5J, Kota Parit, Kec. Simpang Kanan, Kabupaten Rokan Hilir, Riau";"Kabupaten Rokan Hilir, Riau";"ACEH";"";"Indonesia";"";"1.8314581";"100.4028897";"https://maps.google.com/?cid=0x0:0x3424fc1651184133"
"housing complex";"Gedung Apartemen";"Rumah jojo";"V72M+MH, Simpang Kanan, Kec. Simpang Kanan, Kabupaten Rokan Hilir, Riau 21464";"Simpang Kanan, Kec. Simpang Kanan, Kabupaten Rokan Hilir";"ACEH";"21464";"Indonesia";"";"1.8516367";"100.28399";"https://maps.google.com/?cid=0x0:0xf7df1f697f017baf"
"housing complex";"housing complex";"Aceh 24785";"Kec. Kota Baharu, Kabupaten Aceh Singkil, Aceh";"Kabupaten Aceh Singkil, Aceh";"ACEH";"";"Indonesia";"";"2.4523065";"97.8123224";"https://maps.google.com/?cid=0x0:0x571276798298d3f5"
"housing complex";"Komplek perumahan";"TS kota baharu";"HV25+945, jl. hamzah fansury No.121, Mukti Lincir, Kec. Kota Baharu, Kabupaten Aceh Singkil, Aceh";"Kabupaten Aceh Singkil, Aceh";"ACEH";"";"Indonesia";"";"2.5518896";"97.8580295";"https://maps.google.com/?cid=0x0:0x7d05c1c7cf2d9602"
"housing complex";"Perumahan";"Komplek Perumahan Guru SMA N 1 Singkohor";"GWCH+32G, Singkohor, Kec. Singkohor, Kabupaten Aceh Singkil, Aceh 24782";"Singkohor, Kec. Singkohor, Kabupaten Aceh Singkil";"ACEH";"24782";"Indonesia";"";"2.5201884";"97.9275804";"https://maps.google.com/?cid=0x0:0xdc6c418d528547f7"
"housing complex";"Komplek perumahan";"Perumahan Klasir";"8WWF+9W9, Gn. Lagan, Kec. Gn. Meriah, Kabupaten Aceh Singkil, Aceh 24472";"Gn. Lagan, Kec. Gn. Meriah, Kabupaten Aceh Singkil";"ACEH";"24472";"Indonesia";"";"2.345924";"97.9248575";"https://maps.google.com/?cid=0x0:0xcc4c2470c8090d90"
"housing complex";"Komplek perumahan";"Rumah ogal agil";"GW8F+MJP, Lae Pinang, Kec. Singkohor, Kabupaten Aceh Singkil, Aceh";"Kabupaten Aceh Singkil, Aceh";"ACEH";"";"Indonesia";"";"2.5167174";"97.9240675";"https://maps.google.com/?cid=0x0:0x74749335a095d58b"
"housing complex";"Komplek perumahan";"Rumah hafizh";"GWFJ+84J, Singkohor, Kec. Singkohor, Kabupaten Aceh Singkil, Aceh 24782";"Singkohor, Kec. Singkohor, Kabupaten Aceh Singkil";"ACEH";"24782";"Indonesia";"";"2.5233441";"97.9302708";"https://maps.google.com/?cid=0x0:0x1ef62d4965ed8bb2"
"housing complex";"Komplek perumahan";"FARIS Z";"GW9J+7HX, Singkohor, Kec. Singkohor, Kabupaten Aceh Singkil, Aceh 24782";"Singkohor, Kec. Singkohor, Kabupaten Aceh Singkil";"ACEH";"24782";"Indonesia";"";"2.518228";"97.9314784";"https://maps.google.com/?cid=0x0:0x19e9c227610013f7"
"housing complex";"Komplek perumahan";"Rumah buss";"GV9P+H85, Sumber Mukti, Kec. Kota Baharu, Kabupaten Aceh Singkil, Aceh 24472";"Sumber Mukti, Kec. Kota Baharu, Kabupaten Aceh Singkil";"ACEH";"24472";"Indonesia";"";"2.5186889";"97.886133";"https://maps.google.com/?cid=0x0:0x55e9c71d24181431"
"housing complex";"Komplek perumahan";"depan bengkel";"FVP6+JQ3, Butar, Kec. Kota Baharu, Kabupaten Aceh Singkil, Aceh";"Kabupaten Aceh Singkil, Aceh";"ACEH";"";"Indonesia";"";"2.4863036";"97.8631766";"https://maps.google.com/?cid=0x0:0x191d4466435f0089"
"housing complex";"Komplek perumahan";"Rumah supian";"FVJ7+H7, Butar, Kec. Kota Baharu, Kabupaten Aceh Singkil, Aceh";"Kabupaten Aceh Singkil, Aceh";"ACEH";"";"Indonesia";"";"2.4814446";"97.8631755";"https://maps.google.com/?cid=0x0:0x21bd3b31813b86d2"
"housing complex";"housing complex";"Perumahan yayasan bunga Alqur'an";"JL. Rimo No.Km. 07, Butar, Kec. Kota Baharu, Kabupaten Aceh Singkil, Aceh 24783";"Butar, Kec. Kota Baharu, Kabupaten Aceh Singkil";"ACEH";"24783";"Indonesia";"";"2.445945";"97.895955";"https://maps.google.com/?cid=0x0:0xf25f639dad30f067"
"housing complex";"Komplek perumahan";"Rumah Manik";"8WW5+W5M, Sebatang, Kec. Gn. Meriah, Kabupaten Aceh Singkil, Aceh";"Kabupaten Aceh Singkil, Aceh";"ACEH";"";"Indonesia";"";"2.3473431";"97.9079223";"https://maps.google.com/?cid=0x0:0x12f1aeedbf87a04b"
"housing complex";"Komplek perumahan";"Domeng";"FVG2+J3V, Butar, Kec. Kota Baharu, Kabupaten Aceh Singkil, Aceh 24782";"Butar, Kec. Kota Baharu, Kabupaten Aceh Singkil";"ACEH";"24782";"Indonesia";"";"2.476614";"97.8502591";"https://maps.google.com/?cid=0x0:0xa48ce436a47bf25e"
"housing complex";"Perhimpunan Pengembang Perumahan";"Awal jalan tidak beraspal";"8R5W+2V, Pea Bumbung, Kec. Singkil, Kabupaten Aceh Singkil, Aceh";"Kabupaten Aceh Singkil, Aceh";"ACEH";"";"Indonesia";"";"2.3081479";"97.8469865";"https://maps.google.com/?cid=0x0:0xc5f6ff94acfcebc1"
"housing complex";"housing complex";"Singkil";"Kec. Singkil, Kabupaten Aceh Singkil, Aceh";"Kabupaten Aceh Singkil, Aceh";"ACEH";"";"Indonesia";"";"2.2836143";"97.79873";"https://maps.google.com/?cid=0x0:0x4039d80b220d230"
"housing complex";"Komplek perumahan";"Lian House";"FVQ6+F6V, Ternate Tj., Kec. Singkil, Kota Manado, Sulawesi Utara 95231";"Ternate Tj., Kec. Singkil, Kota Manado";"ACEH";"95231";"Indonesia";"";"1.4887736";"124.8607118";"https://maps.google.com/?cid=0x0:0x6d27923b9e4ac09a"
"housing complex";"housing complex";"LLIFaL7aKYqMseMP0_nm-QI"-,null,null,1,null,"https://www.google.com/maps/preview/place/RENTAL+PLAYSTATION/@1.5512525,124.8808614,3988a,13.1y/datau003d!4m2!3m1!1s0x4b5f427ce59b9d75:0x8f99310fbfabb85";"";"";"ACEH";"";"Indonesia";" 08971688800";"1.5512525";"124.8808614";"https://maps.google.com/?cid=0x0:0x8f99310fbfabb85"
"housing complex";"housing complex";"Singkil";"Kec. Singkil, Kabupaten Aceh Singkil, Aceh";"Kabupaten Aceh Singkil, Aceh";"ACEH";"";"Indonesia";"";"2.2836143";"97.79873";"https://maps.google.com/?cid=0x0:0x4039d80b220d230"
"housing complex";"housing complex";"Singkil";"Kec. Singkil, Kabupaten Aceh Singkil, Aceh";"Kabupaten Aceh Singkil, Aceh";"ACEH";"";"Indonesia";"";"2.2836143";"97.79873";"https://maps.google.com/?cid=0x0:0x4039d80b220d230"
"housing complex";"Komplek perumahan";"Home";"Jl. Bengawan Solo Lungkungan II No.112, Singkil Dua, Kec. Singkil, Kota Manado, Sulawesi Utara 95234";"Singkil Dua, Kec. Singkil, Kota Manado";"ACEH";"95234";"Indonesia";"";"1.5000676";"124.8542608";"https://maps.google.com/?cid=0x0:0x18abf4d5518eeade"
"housing complex";"Komplek perumahan";"BALDERAS HOUSE";"Jl. Cemp., Singkil Dua, Kec. Singkil, Kota Manado, Sulawesi Utara 95234";"Singkil Dua, Kec. Singkil, Kota Manado";"ACEH";"95234";"Indonesia";"";"1.5020061";"124.8544659";"https://maps.google.com/?cid=0x0:0x27ce2b31420c178d"
"housing complex";"Komplek perumahan";"Christofer Residence";"Christofer Residence, RW.link 2, Ternate Tj., Kec. Singkil, Kota Manado, Sulawesi Utara 95234";"RW.link 2, Ternate Tj., Kec. Singkil, Kota Manado";"ACEH";"95234";"Indonesia";"";"1.492034";"124.858574";"https://maps.google.com/?cid=0x0:0xe7df479c5e39bf7d"
"housing complex";"Komplek perumahan";"Home Twins";"Jl. Sungai Musi No.26, Singkil Dua, Kec. Singkil, Kota Manado, Sulawesi Utara 95234";"Singkil Dua, Kec. Singkil, Kota Manado";"ACEH";"95234";"Indonesia";"";"1.5007322";"124.8527843";"https://maps.google.com/?cid=0x0:0x87e92565e6626273"
"housing complex";"Komplek perumahan";"RayyanRazzan House";"Jl. Bengawan Solo No.27, Singkil Dua, Kec. Singkil, Kota Manado, Sulawesi Utara 95234";"Singkil Dua, Kec. Singkil, Kota Manado";"ACEH";"95234";"Indonesia";"";"1.4955463";"124.8517238";"https://maps.google.com/?cid=0x0:0x79d6c1c4bd10048b"
"housing complex";"housing complex";"m7IFaNa8K8ar4-EP9pmFkQo"-,null,null,1,null,"https://www.google.com/maps/preview/place/RENTAL+PLAYSTATION/@1.5512525,124.8808614,3988a,13.1y/datau003d!4m2!3m1!1s0x4b5f427ce59b9d75:0x8f99310fbfabb85";"";"";"ACEH";"";"Indonesia";" 08971688800";"1.5512525";"124.8808614";"https://maps.google.com/?cid=0x0:0x8f99310fbfabb85"
"housing complex";"housing complex";"Aceh 24785";"Kec. Kota Baharu, Kabupaten Aceh Singkil, Aceh";"Kabupaten Aceh Singkil, Aceh";"ACEH";"";"Indonesia";"";"2.4523065";"97.8123224";"https://maps.google.com/?cid=0x0:0x571276798298d3f5"
"housing complex";"Komplek perumahan";"TS kota baharu";"HV25+945, jl. hamzah fansury No.121, Mukti Lincir, Kec. Kota Baharu, Kabupaten Aceh Singkil, Aceh";"Kabupaten Aceh Singkil, Aceh";"ACEH";"";"Indonesia";"";"2.5518896";"97.8580295";"https://maps.google.com/?cid=0x0:0x7d05c1c7cf2d9602"
"housing complex";"Komplek perumahan";"Fam Suoth";"GVCG+CJ, Sumber Mukti, Kec. Kota Baharu, Kabupaten Aceh Singkil, Aceh";"Kabupaten Aceh Singkil, Aceh";"ACEH";"";"Indonesia";"";"2.5209442";"97.8769012";"https://maps.google.com/?cid=0x0:0x38978465a1779bd6"
"housing complex";"Komplek perumahan";"Rumah ogal agil";"GW8F+MJP, Lae Pinang, Kec. Singkohor, Kabupaten Aceh Singkil, Aceh";"Kabupaten Aceh Singkil, Aceh";"ACEH";"";"Indonesia";"";"2.5167174";"97.9240675";"https://maps.google.com/?cid=0x0:0x74749335a095d58b"
"housing complex";"Komplek perumahan";"Domeng";"FVG2+J3V, Butar, Kec. Kota Baharu, Kabupaten Aceh Singkil, Aceh 24782";"Butar, Kec. Kota Baharu, Kabupaten Aceh Singkil";"ACEH";"24782";"Indonesia";"";"2.476614";"97.8502591";"https://maps.google.com/?cid=0x0:0xa48ce436a47bf25e"
"housing complex";"Komplek perumahan";"Rumah buss";"GV9P+H85, Sumber Mukti, Kec. Kota Baharu, Kabupaten Aceh Singkil, Aceh 24472";"Sumber Mukti, Kec. Kota Baharu, Kabupaten Aceh Singkil";"ACEH";"24472";"Indonesia";"";"2.5186889";"97.886133";"https://maps.google.com/?cid=0x0:0x55e9c71d24181431"
"housing complex";"Komplek perumahan";"Rumah supian";"FVJ7+H7, Butar, Kec. Kota Baharu, Kabupaten Aceh Singkil, Aceh";"Kabupaten Aceh Singkil, Aceh";"ACEH";"";"Indonesia";"";"2.4814446";"97.8631755";"https://maps.google.com/?cid=0x0:0x21bd3b31813b86d2"
"housing complex";"Komplek perumahan";"depan bengkel";"FVP6+JQ3, Butar, Kec. Kota Baharu, Kabupaten Aceh Singkil, Aceh";"Kabupaten Aceh Singkil, Aceh";"ACEH";"";"Indonesia";"";"2.4863036";"97.8631766";"https://maps.google.com/?cid=0x0:0x191d4466435f0089"
"housing complex";"housing complex";"Gosong utara";"7QMX+CFX, Pulo Sarok, Kec. Singkil, Kabupaten Aceh Singkil, Aceh";"Kabupaten Aceh Singkil, Aceh";"ACEH";"";"Indonesia";"";"2.2836143";"97.79873";"https://maps.google.com/?cid=0x0:0xc0349433983a21d9"
"housing complex";"Komplek perumahan";"Perumahan Klasir";"8WWF+9W9, Gn. Lagan, Kec. Gn. Meriah, Kabupaten Aceh Singkil, Aceh 24472";"Gn. Lagan, Kec. Gn. Meriah, Kabupaten Aceh Singkil";"ACEH";"24472";"Indonesia";"";"2.345924";"97.9248575";"https://maps.google.com/?cid=0x0:0xcc4c2470c8090d90"
"housing complex";"Komplek perumahan";"Perumnas";"7VJV+X66, Jl. Pendidikan, Gosong Telaga Bar., Kec. Singkil Utara, Kabupaten Aceh Singkil, Aceh 24472";"Jl. Pendidikan, Gosong Telaga Bar., Kec. Singkil Utara, Kabupaten Aceh Singkil";"ACEH";"24472";"Indonesia";"";"2.2824099";"97.8930208";"https://maps.google.com/?cid=0x0:0x54bdf44234890aad"
"housing complex";"housing complex";"Perumahan yayasan bunga Alqur'an";"JL. Rimo No.Km. 07, Butar, Kec. Kota Baharu, Kabupaten Aceh Singkil, Aceh 24783";"Butar, Kec. Kota Baharu, Kabupaten Aceh Singkil";"ACEH";"24783";"Indonesia";"";"2.445945";"97.895955";"https://maps.google.com/?cid=0x0:0xf25f639dad30f067"
"housing complex";"Komplek perumahan";"Home supragos";"CW99+MJW, Bukit Harapan, Kec. Gn. Meriah, Kabupaten Aceh Singkil, Aceh";"Kabupaten Aceh Singkil, Aceh";"ACEH";"";"Indonesia";"";"2.4192372";"97.9190833";"https://maps.google.com/?cid=0x0:0x50a8cf655358fae2"
"housing complex";"Komplek perumahan";"my house";"GWGG+4VH, Jl. Kakap, Singkohor, Kec. Singkohor, Kabupaten Aceh Singkil, Aceh 24782";"Jl. Kakap, Singkohor, Kec. Singkohor, Kabupaten Aceh Singkil";"ACEH";"24782";"Indonesia";"";"2.5259939";"97.9275574";"https://maps.google.com/?cid=0x0:0x812fc4f22fb0f33f"
"housing complex";"housing complex";"Aceh 24784";"Kabupaten Aceh Singkil, Aceh";"Kabupaten Aceh Singkil, Aceh";"ACEH";"";"Indonesia";"";"2.152911";"97.2840888";"https://maps.google.com/?cid=0x0:0xab521459bf3c978c"
"housing complex";"Perumahan";"Komplek Perumahan Guru SMA N 1 Singkohor";"GWCH+32G, Singkohor, Kec. Singkohor, Kabupaten Aceh Singkil, Aceh 24782";"Singkohor, Kec. Singkohor, Kabupaten Aceh Singkil";"ACEH";"24782";"Indonesia";"";"2.5201884";"97.9275804";"https://maps.google.com/?cid=0x0:0xdc6c418d528547f7"
"housing complex";"Komplek perumahan";"Rumah hafizh";"GWFJ+84J, Singkohor, Kec. Singkohor, Kabupaten Aceh Singkil, Aceh 24782";"Singkohor, Kec. Singkohor, Kabupaten Aceh Singkil";"ACEH";"24782";"Indonesia";"";"2.5233441";"97.9302708";"https://maps.google.com/?cid=0x0:0x1ef62d4965ed8bb2"
"housing complex";"Komplek perumahan";"my house";"GWGG+4VH, Jl. Kakap, Singkohor, Kec. Singkohor, Kabupaten Aceh Singkil, Aceh 24782";"Jl. Kakap, Singkohor, Kec. Singkohor, Kabupaten Aceh Singkil";"ACEH";"24782";"Indonesia";"";"2.5259939";"97.9275574";"https://maps.google.com/?cid=0x0:0x812fc4f22fb0f33f"
"housing complex";"Komplek perumahan";"Rumah ogal agil";"GW8F+MJP, Lae Pinang, Kec. Singkohor, Kabupaten Aceh Singkil, Aceh";"Kabupaten Aceh Singkil, Aceh";"ACEH";"";"Indonesia";"";"2.5167174";"97.9240675";"https://maps.google.com/?cid=0x0:0x74749335a095d58b"
"housing complex";"Komplek perumahan";"BAMBANG SYAHPUTRA";"Jl. Tongkol No.10, RT.014/RW.003, Singkohor, Kec. Singkohor, Kabupaten Aceh Singkil, Aceh 24782";"RT.014/RW.003, Singkohor, Kec. Singkohor, Kabupaten Aceh Singkil";"ACEH";"24782";"Indonesia";"";"2.5185774";"97.9255811";"https://maps.google.com/?cid=0x0:0x68f7d123e3ff4805"
"housing complex";"Komplek perumahan";"Rumah akas";"GW9G+CMV, Jl. Tongkol, Singkohor, Kec. Singkohor, Kabupaten Aceh Singkil, Aceh 24782";"Jl. Tongkol, Singkohor, Kec. Singkohor, Kabupaten Aceh Singkil";"ACEH";"24782";"Indonesia";"";"2.5186089";"97.9266677";"https://maps.google.com/?cid=0x0:0xbbda6bfc04e21f06"
"housing complex";"Komplek perumahan";"Rumah hanna";"GWCC+4G8, Jl. Bawal, Singkohor, Kec. Singkohor, Kabupaten Aceh Singkil, Aceh 24782";"Jl. Bawal, Singkohor, Kec. Singkohor, Kabupaten Aceh Singkil";"ACEH";"24782";"Indonesia";"";"2.520703";"97.9206967";"https://maps.google.com/?cid=0x0:0x5a178fddfd6fb493"
"housing complex";"Komplek perumahan";"Rumah Aqil";"GW9J+FC9, Jl. Mas, Singkohor, Kec. Singkohor, Kabupaten Aceh Singkil, Aceh";"Kabupaten Aceh Singkil, Aceh";"ACEH";"";"Indonesia";"";"2.518637";"97.9311211";"https://maps.google.com/?cid=0x0:0x6f2ab5d716ae3064"
"housing complex";"Pembangunan Perumahan";"Nazran";"GW9M+9R, Singkohor, Kec. Singkohor, Kabupaten Aceh Singkil, Aceh";"Kabupaten Aceh Singkil, Aceh";"ACEH";"";"Indonesia";"";"2.5184404";"97.9345473";"https://maps.google.com/?cid=0x0:0xbc5f994dfab79f4c"
"housing complex";"Komplek perumahan";"Singkohor";"GW8H+HXQ, Lae Pinang, Kec. Singkohor, Kabupaten Aceh Singkil, Aceh 24782";"Lae Pinang, Kec. Singkohor, Kabupaten Aceh Singkil";"ACEH";"24782";"Indonesia";" 082167087449";"2.5152356";"97.9296345";"https://maps.google.com/?cid=0x0:0x6f847fefe3ac9875"
"housing complex";"Perhimpunan Pengembang Perumahan";"BUDI";"FWPV+37Q, Pea Jambu, Kec. Singkohor, Kabupaten Aceh Singkil, Aceh";"Kabupaten Aceh Singkil, Aceh";"ACEH";"";"Indonesia";"";"2.4852106";"97.9432449";"https://maps.google.com/?cid=0x0:0x47f1f54c88e0b054"
"housing complex";"Pembangunan Perumahan";"M Depan";"GW3X+4W, Lae Pinang, Kec. Singkohor, Kabupaten Aceh Singkil, Aceh";"Kabupaten Aceh Singkil, Aceh";"ACEH";"";"Indonesia";"";"2.5027503";"97.9498555";"https://maps.google.com/?cid=0x0:0x3c3aebb4920ad03b"
"housing complex";"Pembangunan Perumahan";"Kang Tukimin n Famz";"HW2H+FW, Mukti Jaya, Kec. Singkohor, Kabupaten Aceh Singkil, Aceh 24782";"Mukti Jaya, Kec. Singkohor, Kabupaten Aceh Singkil";"ACEH";"24782";"Indonesia";"";"2.551198";"97.929855";"https://maps.google.com/?cid=0x0:0x519390918e0956fa"
"housing complex";"housing complex";"Aceh 24784";"Kabupaten Aceh Singkil, Aceh";"Kabupaten Aceh Singkil, Aceh";"ACEH";"";"Indonesia";"";"2.152911";"97.2840888";"https://maps.google.com/?cid=0x0:0xab521459bf3c978c"
"housing complex";"Perumahan";"Kecamatan suromakmur";"FXRP+5JV, Alur Linci, Kec. Suro Makmur, Kabupaten Aceh Singkil, Aceh";"Kabupaten Aceh Singkil, Aceh";"ACEH";"";"Indonesia";"";"2.4904808";"97.986535";"https://maps.google.com/?cid=0x0:0xb06271fc659b677"
"housing complex";"Komplek perumahan";"Domeng";"FVG2+J3V, Butar, Kec. Kota Baharu, Kabupaten Aceh Singkil, Aceh 24782";"Butar, Kec. Kota Baharu, Kabupaten Aceh Singkil";"ACEH";"24782";"Indonesia";"";"2.476614";"97.8502591";"https://maps.google.com/?cid=0x0:0xa48ce436a47bf25e"
"housing complex";"Pembangunan Perumahan";"RUMAH SAFRIADI PUTRA SURO";"H25V+674, Suro Baru, Kec. Suro Makmur, Kabupaten Aceh Singkil, Aceh";"Kabupaten Aceh Singkil, Aceh";"ACEH";"";"Indonesia";"";"2.5580164";"98.0432183";"https://maps.google.com/?cid=0x0:0xeddfcd8a1eea1b53"
"housing complex";"housing complex";"Rumah Kamil";"66JJ+397, Haloban, Kec. Pulau Banyak Bar., Kabupaten Aceh Singkil, Aceh 24784";"Haloban, Kec. Pulau Banyak Bar., Kabupaten Aceh Singkil";"ACEH";"24784";"Indonesia";"";"2.2301556";"97.2309116";"https://maps.google.com/?cid=0x0:0xa63f76f2f3a6aef"
"housing complex";"Pembangunan Perumahan";"Markas Herlino Galilei";"66GJ+G63, Haloban, Kec. Pulau Banyak Bar., Kabupaten Aceh Singkil, Aceh 24784";"Haloban, Kec. Pulau Banyak Bar., Kabupaten Aceh Singkil";"ACEH";"24784";"Indonesia";" 081366651511";"2.2262605";"97.2305448";"https://maps.google.com/?cid=0x0:0xe8cb475b15300c95"
"housing complex";"Komplek perumahan";"Mainur sahputra";"FVV7+G7X, Samar Dua, Kec. Kota Baharu, Kabupaten Aceh Singkil, Aceh 23784";"Samar Dua, Kec. Kota Baharu, Kabupaten Aceh Singkil";"ACEH";"23784";"Indonesia";"";"2.4942456";"97.8622996";"https://maps.google.com/?cid=0x0:0xf587554e3f684cce"
"housing complex";"Komplek perumahan";"Fam Suoth";"GVCG+CJ, Sumber Mukti, Kec. Kota Baharu, Kabupaten Aceh Singkil, Aceh";"Kabupaten Aceh Singkil, Aceh";"ACEH";"";"Indonesia";"";"2.5209442";"97.8769012";"https://maps.google.com/?cid=0x0:0x38978465a1779bd6"
"housing complex";"Komplek perumahan";"Berteduh";"FVW9+735, Samar Dua, Kec. Kota Baharu, Kabupaten Aceh Singkil, Aceh 24782";"Samar Dua, Kec. Kota Baharu, Kabupaten Aceh Singkil";"ACEH";"24782";"Indonesia";"";"2.4956474";"97.8677411";"https://maps.google.com/?cid=0x0:0x1736f55b60f06f04"
"housing complex";"Kompleks Kondominium";"SANGGA BERU SILULUSAN";"C229+RMX, Sanggaberu Silulusan, Kec. Gn. Meriah, Kabupaten Aceh Singkil, Aceh";"Kabupaten Aceh Singkil, Aceh";"ACEH";"";"Indonesia";"";"2.4021189";"98.0192471";"https://maps.google.com/?cid=0x0:0x45bd4f87eff148fc"
"housing complex";"housing complex";"Foto Copy 2 Bersaudarah";"66GH+RXF, Haloban, Kec. Pulau Banyak Bar., Kabupaten Aceh Singkil, Aceh 24784";"Haloban, Kec. Pulau Banyak Bar., Kabupaten Aceh Singkil";"ACEH";"24784";"Indonesia";"";"2.2270369";"97.2299135";"https://maps.google.com/?cid=0x0:0xc9b06d325f40a258"
"housing complex";"Komplek perumahan";"Rumah utigun";"66GJ+M6C, Haloban, Kec. Pulau Banyak Bar., Kabupaten Aceh Singkil, Aceh 24784";"Haloban, Kec. Pulau Banyak Bar., Kabupaten Aceh Singkil";"ACEH";"24784";"Indonesia";"";"2.2266885";"97.2305086";"https://maps.google.com/?cid=0x0:0x8e217f45b559f1c9"
"housing complex";"Komplek perumahan";"Rumah Sutrisno Tj";"66HJ+CC8, Haloban, Kec. Pulau Banyak Bar., Kabupaten Aceh Singkil, Aceh 24784";"Haloban, Kec. Pulau Banyak Bar., Kabupaten Aceh Singkil";"ACEH";"24784";"Indonesia";"";"2.2285383";"97.2310876";"https://maps.google.com/?cid=0x0:0xe5e3cd6df24c68b7"
"housing complex";"Komplek perumahan";"Rumah supian";"FVJ7+H7, Butar, Kec. Kota Baharu, Kabupaten Aceh Singkil, Aceh";"Kabupaten Aceh Singkil, Aceh";"ACEH";"";"Indonesia";"";"2.4814446";"97.8631755";"https://maps.google.com/?cid=0x0:0x21bd3b31813b86d2"
