Category,Real Category,Business Name,Address,City,State,Postal Code,Country,Phone,Email,Website,Latitude,Longitude,Map Link,Details Link
toko bangunan,toko bangunan,Kec. Amurang,"Kabupaten Minahasa Selatan, Sulawesi Utara","Kabupaten Minahasa Selatan, Sulawesi Utara",SULAWESI UTARA,,Indonesia,,,,11.846.911,124.575.545,https://maps.google.com/?cid=0x0:0xc0ecc4637a3a0d02,
toko bangunan,Toko Bahan Bangunan,Toko Sumber Mulia,"5HVM+8MV, Jl. Trans Sulawesi, Bitung, Kec. Amurang, Kabupaten Minahasa Selatan, Sulawesi Utara","Kabupaten Minahasa Selatan, Sulawesi Utara",SULAWESI UTARA,,Indonesia,,,,11.933.577,1.245.841.838,https://maps.google.com/?cid=0x0:0xd099b9a3eb3af488,
toko bangunan,Toko Bahan Bangunan,Toko Harmoni,"5HMC+4FJ, Buyungon, Kec. Amurang, Kabupaten Minahasa Selatan, Sulawesi Utara","Kabupaten Minahasa Selatan, Sulawesi Utara",SULAWESI UTARA,,Indonesia,43021347.0,,,11.828.271,1.245.711.344,https://maps.google.com/?cid=0x0:0x67c3a16048d63adc,
toko bangunan,Pom bensin/SPBU,Batako,"Bitung, Kec. Amurang, Kabupaten Minahasa Selatan, Sulawesi Utara","Kabupaten Minahasa Selatan, Sulawesi Utara",SULAWESI UTARA,,Indonesia,82272438820.0,,,11.882.759,124.578.364,https://maps.google.com/?cid=0x0:0x5bb8f8fb713bacfc,
toko bangunan,Toko Bahan Bangunan,Toko Besi SINAR JAYA,"5HJC+RWR, Buyungon, Kec. Amurang, Kabupaten Minahasa Selatan, Sulawesi Utara","Kabupaten Minahasa Selatan, Sulawesi Utara",SULAWESI UTARA,,Indonesia,4302420060.0,,,11.821.122,1.245.722.791,https://maps.google.com/?cid=0x0:0xa36fabfd4775a440,
toko bangunan,Toko Bahan Bangunan,Karunia Jaya,"lingkungan 2, Buyungon, Kec. Amurang, Kabupaten Minahasa Selatan, Sulawesi Utara 95954","Buyungon, Kec. Amurang, Kabupaten Minahasa Selatan",SULAWESI UTARA,95954.0,Indonesia,81356066888.0,,,11.810.111,1.245.663.331,https://maps.google.com/?cid=0x0:0xedab31c630301d69,
toko bangunan,Toko Bahan Bangunan,Toko Dua Jaya Bangunan,"Jaga X Cozy Home, Kios C - 2, Kapitu, Kec. Amurang, Kabupaten Minahasa Selatan, Sulawesi Utara 95955","Kios C - 2, Kapitu, Kec. Amurang, Kabupaten Minahasa Selatan",SULAWESI UTARA,95955.0,Indonesia,8124416363.0,,,11.898.544,1.245.240.643,https://maps.google.com/?cid=0x0:0xa1398874177562c1,
toko bangunan,Toko Elektronik,Anugerah Computer,"5HRJ+MVR, Lingk V Jl. Trans Sulawesi No.200, Bitung, Kec. Amurang, Kabupaten Minahasa Selatan, Sulawesi Utara 95954","Lingk V Jl. Trans Sulawesi No.200, Bitung, Kec. Amurang, Kabupaten Minahasa Selatan",SULAWESI UTARA,95954.0,Indonesia,81340787778.0,,,11.921.659,1.245.824.284,https://maps.google.com/?cid=0x0:0xb123f013f84f7be9,
toko bangunan,Toko Peralatan Tukang Kayu,Neyko Mandiri Sejahtera,"5HJH+JMJ, Uwuran Dua, Kec. Amurang, Kabupaten Minahasa Selatan, Sulawesi Utara","Kabupaten Minahasa Selatan, Sulawesi Utara",SULAWESI UTARA,,Indonesia,81241018107.0,,,11.815.872,1.245.791.406,https://maps.google.com/?cid=0x0:0x96916f45151f6467,
toko bangunan,Tukang Kayu,Mr. Pesik,"Kel, RW.Lingk 1, Kawangkoan Bawah, Kec. Amurang Bar., Kabupaten Minahasa Selatan, Sulawesi Utara 95911","RW.Lingk 1, Kawangkoan Bawah, Kec. Amurang Bar., Kabupaten Minahasa Selatan",SULAWESI UTARA,95911.0,Indonesia,85342217859.0,,,11.840.905,1.245.610.471,https://maps.google.com/?cid=0x0:0x1242465731c666f1,
toko bangunan,Toko Bahan Bangunan,Toko bangunan RAJAWALI C.H,"Jl. Trans Sulawesi, Kapitu, Kec. Amurang Bar., Kabupaten Minahasa Selatan, Sulawesi Utara 93554","Kapitu, Kec. Amurang Bar., Kabupaten Minahasa Selatan",SULAWESI UTARA,93554.0,Indonesia,82190574066.0,,,11.871.514,1.245.137.701,https://maps.google.com/?cid=0x0:0xcfa60640318c2d82,
toko bangunan,Toko Bahan Bangunan,Eframa,"6J82+MR8, Jl. Trans Sulawesi, Pondang, Kec. Amurang Tim., Kabupaten Minahasa Selatan, Sulawesi Utara","Kabupaten Minahasa Selatan, Sulawesi Utara",SULAWESI UTARA,,Indonesia,43021031.0,,,121.665,1.246.020.654,https://maps.google.com/?cid=0x0:0xa73ec297ccb60c2f,
toko bangunan,Toko Bahan Bangunan,Toko Budi Sejati,"Ranoyapo, Kec. Amurang, Kabupaten Minahasa Selatan, Sulawesi Utara","Kabupaten Minahasa Selatan, Sulawesi Utara",SULAWESI UTARA,,Indonesia,,,,11.840.625,1.245.721.875,https://maps.google.com/?cid=0x0:0x30b5a1bf5e4e8fd9,
toko bangunan,Toko Bahan Bangunan,Toko Tuama RR,"FXGC+676 Jaga 7, Matungkas, Kec. Dimembe, Kabupaten Minahasa Utara, Sulawesi Utara","Kabupaten Minahasa Utara, Sulawesi Utara",SULAWESI UTARA,,Indonesia,,,,14.755.297,1.249.706.454,https://maps.google.com/?cid=0x0:0xf70291edba8cd4ca,
toko bangunan,Toko Bahan Bangunan,Toko Bangunan Sinar Berkat,"Warembungan, Kec. Pineleng, Kabupaten Minahasa, Sulawesi Utara","Kabupaten Minahasa, Sulawesi Utara",SULAWESI UTARA,,Indonesia,82259753525.0,,,1.417.257,124.821.793,https://maps.google.com/?cid=0x0:0x9454d0623758efea,
toko bangunan,Toko Bahan Bangunan,TOKO BANGUNAN RIZKY BADAS,"Kawangkoan, Kec. Kalawat, Kabupaten Minahasa Utara, Sulawesi Utara","Kabupaten Minahasa Utara, Sulawesi Utara",SULAWESI UTARA,,Indonesia,81330119059.0,,,14.590.841,1.249.327.088,https://maps.google.com/?cid=0x0:0x99b35880d1e58868,
toko bangunan,Toko Bahan Bangunan,Matungkas Jaya (Toko Bangunan),"FXGC+67C, Jl. Sukur - Likupang, Matungkas, Kec. Dimembe, Kabupaten Minahasa Utara, Sulawesi Utara","Kabupaten Minahasa Utara, Sulawesi Utara",SULAWESI UTARA,,Indonesia,82333344765.0,,,14.755.556,1.249.706.543,https://maps.google.com/?cid=0x0:0x9356ce9cff86f7f2,
toko bangunan,Tujuan Wisata,"Forte Português do Século XVI em Amurang , Portugis","Jl. Pasar No.15, Uwuran Satu, Kec. Amurang, Kabupaten Minahasa Selatan, Sulawesi Utara","Kabupaten Minahasa Selatan, Sulawesi Utara",SULAWESI UTARA,,Indonesia,,,,11.855.192,1.245.728.498,https://maps.google.com/?cid=0x0:0x2f2d5c867a1ffcd0,
toko bangunan,Toko Bahan Bangunan,Toko Bangunan Sumber Mas,"6VJ7+Q9H, Jl. Tondano - Kakas, Timu, Kec. Remboken, Kabupaten Minahasa, Sulawesi Utara","Kabupaten Minahasa, Sulawesi Utara",SULAWESI UTARA,,Indonesia,82310002528.0,,,12.319.396,1.248.634.961,https://maps.google.com/?cid=0x0:0x15d858ffa7b9cdcc,
toko bangunan,Toko Bahan Bangunan,HA SAMPURNA (Toko Poso),"Jl.Tumpaan-Tareran Jaga 5 Tumpaan Satu Kecamatan Tumpaan, Tumpaan Satu, Kec. Amurang, Kabupaten Minahasa Selatan, Sulawesi Utara 95352","Tumpaan Satu, Kec. Amurang, Kabupaten Minahasa Selatan",SULAWESI UTARA,95352.0,Indonesia,85398882153.0,,,12.405.259,1.246.144.915,https://maps.google.com/?cid=0x0:0x9cce63f2769b082e,
toko bangunan,Toko Bahan Bangunan,CERIA Bahan Bangunan,"Tokin Baru, Kec. Motoling Tim., Kabupaten Minahasa Selatan, Sulawesi Utara","Kabupaten Minahasa Selatan, Sulawesi Utara",SULAWESI UTARA,,Indonesia,82259514549.0,,,10.771.398,1.245.101.005,https://maps.google.com/?cid=0x0:0xdad60601aca07b8,
toko bangunan,Toko Bahan Bangunan,Toko Bangunan Berkat Anugerah,"FXGC+56F, Matungkas, Kec. Dimembe, Kabupaten Minahasa Utara, Sulawesi Utara","Kabupaten Minahasa Utara, Sulawesi Utara",SULAWESI UTARA,,Indonesia,85166903897.0,,,14.754.432,1.249.705.573,https://maps.google.com/?cid=0x0:0x5392f2726457469d,
toko bangunan,Pemasok Bahan Bangunan,Toko Bangunan Cendrawasih,"Taler, Tondano Tim., Kabupaten Minahasa, Sulawesi Utara","Kabupaten Minahasa, Sulawesi Utara",SULAWESI UTARA,,Indonesia,81343561691.0,,,12.984.892,1.249.127.644,https://maps.google.com/?cid=0x0:0x563050a595f334a3,
toko bangunan,Toko Pakaian,EycoGrosir_Amurang,"5HVM+59M, Bitung, Kec. Amurang, Kabupaten Minahasa Selatan, Sulawesi Utara","Kabupaten Minahasa Selatan, Sulawesi Utara",SULAWESI UTARA,,Indonesia,81242671470.0,,,11.929.901,1.245.834.361,https://maps.google.com/?cid=0x0:0x7c71f2cc88cac27c,
toko bangunan,Pasar,Pasar 54 Amurang,"Jl. Pasar kelurahan: Uwuran 1 No.54, kecamatan:, Kec. Amurang, Kabupaten Minahasa Selatan, Sulawesi Utara","Kabupaten Minahasa Selatan, Sulawesi Utara",SULAWESI UTARA,,Indonesia,81340598282.0,,,1.185.371,124.573,https://maps.google.com/?cid=0x0:0xaadb7146cd6cd6d7,
toko bangunan,Dapur Umum,kios tanta maya,"amurang, Kec. Amurang, Sulawesi Utara 95954",Kec. Amurang,SULAWESI UTARA,95954.0,Indonesia,,,,11.998.081,1.245.863.671,https://maps.google.com/?cid=0x0:0x1811c813582c84df,
toko bangunan,Toko,Istana Sepeda Amurang,"Uwuran Satu, Kec. Amurang, Kabupaten Minahasa Selatan, Sulawesi Utara","Kabupaten Minahasa Selatan, Sulawesi Utara",SULAWESI UTARA,,Indonesia,43022899.0,,,11.833.991,1.245.726.922,https://maps.google.com/?cid=0x0:0x10c3d4f92acb5e2c,
toko bangunan,Toko Akuarium,ABG PET SHOP AMURANG,"5HWP+5FF, Jl. Trans Sulawesi, Ranomea, Kec. Amurang Tim., Kabupaten Minahasa Selatan, Sulawesi Utara","Kabupaten Minahasa Selatan, Sulawesi Utara",SULAWESI UTARA,,Indonesia,8114301107.0,,,11.954.258,1.245.861.638,https://maps.google.com/?cid=0x0:0xe5032e0ea4793495,
toko bangunan,toko bangunan,Kec. Amurang Bar.,"Kabupaten Minahasa Selatan, Sulawesi Utara","Kabupaten Minahasa Selatan, Sulawesi Utara",SULAWESI UTARA,,Indonesia,,,,11.867.785,1.245.164.503,https://maps.google.com/?cid=0x0:0x96cf76748db66f92,
toko bangunan,Toko Bahan Bangunan,Toko Dua Jaya Bangunan,"Jaga X Cozy Home, Kios C - 2, Kapitu, Kec. Amurang, Kabupaten Minahasa Selatan, Sulawesi Utara 95955","Kios C - 2, Kapitu, Kec. Amurang, Kabupaten Minahasa Selatan",SULAWESI UTARA,95955.0,Indonesia,8124416363.0,,,11.898.544,1.245.240.643,https://maps.google.com/?cid=0x0:0xa1398874177562c1,
toko bangunan,Toko Bahan Bangunan,Toko Harmoni,"5HMC+4FJ, Buyungon, Kec. Amurang, Kabupaten Minahasa Selatan, Sulawesi Utara","Kabupaten Minahasa Selatan, Sulawesi Utara",SULAWESI UTARA,,Indonesia,43021347.0,,,11.828.271,1.245.711.344,https://maps.google.com/?cid=0x0:0x67c3a16048d63adc,
toko bangunan,Pom bensin/SPBU,Batako,"Bitung, Kec. Amurang, Kabupaten Minahasa Selatan, Sulawesi Utara","Kabupaten Minahasa Selatan, Sulawesi Utara",SULAWESI UTARA,,Indonesia,82272438820.0,,,11.882.759,124.578.364,https://maps.google.com/?cid=0x0:0x5bb8f8fb713bacfc,
toko bangunan,Toko Bahan Bangunan,Toko Besi SINAR JAYA,"5HJC+RWR, Buyungon, Kec. Amurang, Kabupaten Minahasa Selatan, Sulawesi Utara","Kabupaten Minahasa Selatan, Sulawesi Utara",SULAWESI UTARA,,Indonesia,4302420060.0,,,11.821.122,1.245.722.791,https://maps.google.com/?cid=0x0:0xa36fabfd4775a440,
toko bangunan,Toko Bahan Bangunan,Toko Sumber Mulia,"5HVM+8MV, Jl. Trans Sulawesi, Bitung, Kec. Amurang, Kabupaten Minahasa Selatan, Sulawesi Utara","Kabupaten Minahasa Selatan, Sulawesi Utara",SULAWESI UTARA,,Indonesia,,,,11.933.577,1.245.841.838,https://maps.google.com/?cid=0x0:0xd099b9a3eb3af488,
toko bangunan,Toko Bahan Bangunan,Toko bangunan RAJAWALI C.H,"Jl. Trans Sulawesi, Kapitu, Kec. Amurang Bar., Kabupaten Minahasa Selatan, Sulawesi Utara 93554","Kapitu, Kec. Amurang Bar., Kabupaten Minahasa Selatan",SULAWESI UTARA,93554.0,Indonesia,82190574066.0,,,11.871.514,1.245.137.701,https://maps.google.com/?cid=0x0:0xcfa60640318c2d82,
toko bangunan,Toko Bahan Bangunan,Karunia Jaya,"lingkungan 2, Buyungon, Kec. Amurang, Kabupaten Minahasa Selatan, Sulawesi Utara 95954","Buyungon, Kec. Amurang, Kabupaten Minahasa Selatan",SULAWESI UTARA,95954.0,Indonesia,81356066888.0,,,11.810.111,1.245.663.331,https://maps.google.com/?cid=0x0:0xedab31c630301d69,
toko bangunan,Tukang Kayu,Mr. Pesik,"Kel, RW.Lingk 1, Kawangkoan Bawah, Kec. Amurang Bar., Kabupaten Minahasa Selatan, Sulawesi Utara 95911","RW.Lingk 1, Kawangkoan Bawah, Kec. Amurang Bar., Kabupaten Minahasa Selatan",SULAWESI UTARA,95911.0,Indonesia,85342217859.0,,,11.840.905,1.245.610.471,https://maps.google.com/?cid=0x0:0x1242465731c666f1,
toko bangunan,Toko Bahan Bangunan,Toko Budi Sejati,"Ranoyapo, Kec. Amurang, Kabupaten Minahasa Selatan, Sulawesi Utara","Kabupaten Minahasa Selatan, Sulawesi Utara",SULAWESI UTARA,,Indonesia,,,,11.840.625,1.245.721.875,https://maps.google.com/?cid=0x0:0x30b5a1bf5e4e8fd9,
toko bangunan,Toko Peralatan Tukang Kayu,Neyko Mandiri Sejahtera,"5HJH+JMJ, Uwuran Dua, Kec. Amurang, Kabupaten Minahasa Selatan, Sulawesi Utara","Kabupaten Minahasa Selatan, Sulawesi Utara",SULAWESI UTARA,,Indonesia,81241018107.0,,,11.815.872,1.245.791.406,https://maps.google.com/?cid=0x0:0x96916f45151f6467,
toko bangunan,Toko,Jual bahan bangunan,"Jl. Tahun Depan No.133, Kumelembuai I, Kec. Kumelembuai, Kabupaten Minahasa Selatan, Sulawesi Utara","Kabupaten Minahasa Selatan, Sulawesi Utara",SULAWESI UTARA,,Indonesia,81242035564.0,,,1.088.384,124.493.803,https://maps.google.com/?cid=0x0:0x9235c45c6b8b120a,
toko bangunan,Toko Bahan Bangunan,Toko bangunan kapitu,"5GP9+X4J, Lingkungan VIII, Ranotana Weru, Kec. Wanea, Kota Manado, Sulawesi Utara","Kota Manado, Sulawesi Utara",SULAWESI UTARA,,Indonesia,,,,11.874.556,1.245.177.773,https://maps.google.com/?cid=0x0:0xc333ba2b019bf45b,
toko bangunan,Toko Bahan Bangunan,Triberkat Toko Bangunan,"FV2M+H3P, Sawangan, Kec. Tombulu, Kabupaten Minahasa, Sulawesi Utara","Kabupaten Minahasa, Sulawesi Utara",SULAWESI UTARA,,Indonesia,,,,14.516.151,1.248.823.958,https://maps.google.com/?cid=0x0:0xb1724ee606aad0ec,
toko bangunan,Toko Bahan Bangunan,CERIA Bahan Bangunan,"Tokin Baru, Kec. Motoling Tim., Kabupaten Minahasa Selatan, Sulawesi Utara","Kabupaten Minahasa Selatan, Sulawesi Utara",SULAWESI UTARA,,Indonesia,82259514549.0,,,10.771.398,1.245.101.005,https://maps.google.com/?cid=0x0:0xdad60601aca07b8,
toko bangunan,Toko Bahan Bangunan,Eframa,"6J82+MR8, Jl. Trans Sulawesi, Pondang, Kec. Amurang Tim., Kabupaten Minahasa Selatan, Sulawesi Utara","Kabupaten Minahasa Selatan, Sulawesi Utara",SULAWESI UTARA,,Indonesia,43021031.0,,,121.665,1.246.020.654,https://maps.google.com/?cid=0x0:0xa73ec297ccb60c2f,
toko bangunan,Toko Elektronik,Anugerah Computer,"5HRJ+MVR, Lingk V Jl. Trans Sulawesi No.200, Bitung, Kec. Amurang, Kabupaten Minahasa Selatan, Sulawesi Utara 95954","Lingk V Jl. Trans Sulawesi No.200, Bitung, Kec. Amurang, Kabupaten Minahasa Selatan",SULAWESI UTARA,95954.0,Indonesia,81340787778.0,,,11.921.659,1.245.824.284,https://maps.google.com/?cid=0x0:0xb123f013f84f7be9,
toko bangunan,Toko Bahan Bangunan,Toko Bangunan Sinar Berkat,"Warembungan, Kec. Pineleng, Kabupaten Minahasa, Sulawesi Utara","Kabupaten Minahasa, Sulawesi Utara",SULAWESI UTARA,,Indonesia,82259753525.0,,,1.417.257,124.821.793,https://maps.google.com/?cid=0x0:0x9454d0623758efea,
toko bangunan,Toko Bahan Bangunan,Toko Tuama RR,"FXGC+676 Jaga 7, Matungkas, Kec. Dimembe, Kabupaten Minahasa Utara, Sulawesi Utara","Kabupaten Minahasa Utara, Sulawesi Utara",SULAWESI UTARA,,Indonesia,,,,14.755.297,1.249.706.454,https://maps.google.com/?cid=0x0:0xf70291edba8cd4ca,
toko bangunan,Toko Bahan Bangunan,Matungkas Jaya (Toko Bangunan),"FXGC+67C, Jl. Sukur - Likupang, Matungkas, Kec. Dimembe, Kabupaten Minahasa Utara, Sulawesi Utara","Kabupaten Minahasa Utara, Sulawesi Utara",SULAWESI UTARA,,Indonesia,82333344765.0,,,14.755.556,1.249.706.543,https://maps.google.com/?cid=0x0:0x9356ce9cff86f7f2,
toko bangunan,Pasar bahan bangunan,Toko Bangunan Wapon Jaya,"Jl. Sea induk, Sea I, Kec. Pineleng, Kabupaten Minahasa, Sulawesi Utara","Kabupaten Minahasa, Sulawesi Utara",SULAWESI UTARA,,Indonesia,85340309099.0,,,14.291.092,1.247.997.913,https://maps.google.com/?cid=0x0:0x2216e5af37ff6b7a,
toko bangunan,Toko Bahan Bangunan,Toko Bangunan Sumber Mas,"6VJ7+Q9H, Jl. Tondano - Kakas, Timu, Kec. Remboken, Kabupaten Minahasa, Sulawesi Utara","Kabupaten Minahasa, Sulawesi Utara",SULAWESI UTARA,,Indonesia,82310002528.0,,,12.319.396,1.248.634.961,https://maps.google.com/?cid=0x0:0x15d858ffa7b9cdcc,
toko bangunan,Toko Bahan Bangunan,Toko Permata Bangunan,"Mapanget, Kec. Talawaan, Kabupaten Minahasa Utara, Sulawesi Utara","Kabupaten Minahasa Utara, Sulawesi Utara",SULAWESI UTARA,,Indonesia,85761113911.0,,,15.353.249,1.249.290.076,https://maps.google.com/?cid=0x0:0xf49bcf0b466cfbd5,
toko bangunan,Toko Bahan Bangunan,Toko Bangunan Berkat Anugerah,"FXGC+56F, Matungkas, Kec. Dimembe, Kabupaten Minahasa Utara, Sulawesi Utara","Kabupaten Minahasa Utara, Sulawesi Utara",SULAWESI UTARA,,Indonesia,85166903897.0,,,14.754.432,1.249.705.573,https://maps.google.com/?cid=0x0:0x5392f2726457469d,
toko bangunan,Pemasok Bahan Bangunan,Toko Bangunan Cendrawasih,"Taler, Tondano Tim., Kabupaten Minahasa, Sulawesi Utara","Kabupaten Minahasa, Sulawesi Utara",SULAWESI UTARA,,Indonesia,81343561691.0,,,12.984.892,1.249.127.644,https://maps.google.com/?cid=0x0:0x563050a595f334a3,
toko bangunan,toko bangunan,Kec. Amurang Tim.,"Kabupaten Minahasa Selatan, Sulawesi Utara","Kabupaten Minahasa Selatan, Sulawesi Utara",SULAWESI UTARA,,Indonesia,,,,11.982.239,1.245.867.155,https://maps.google.com/?cid=0x0:0xb4cfe2dd829f0d3b,
toko bangunan,Toko Bahan Bangunan,Toko Sumber Mulia,"5HVM+8MV, Jl. Trans Sulawesi, Bitung, Kec. Amurang, Kabupaten Minahasa Selatan, Sulawesi Utara","Kabupaten Minahasa Selatan, Sulawesi Utara",SULAWESI UTARA,,Indonesia,,,,11.933.577,1.245.841.838,https://maps.google.com/?cid=0x0:0xd099b9a3eb3af488,
toko bangunan,Toko Bahan Bangunan,Toko Harmoni,"5HMC+4FJ, Buyungon, Kec. Amurang, Kabupaten Minahasa Selatan, Sulawesi Utara","Kabupaten Minahasa Selatan, Sulawesi Utara",SULAWESI UTARA,,Indonesia,43021347.0,,,11.828.271,1.245.711.344,https://maps.google.com/?cid=0x0:0x67c3a16048d63adc,
toko bangunan,Toko Bahan Bangunan,Toko Besi SINAR JAYA,"5HJC+RWR, Buyungon, Kec. Amurang, Kabupaten Minahasa Selatan, Sulawesi Utara","Kabupaten Minahasa Selatan, Sulawesi Utara",SULAWESI UTARA,,Indonesia,4302420060.0,,,11.821.122,1.245.722.791,https://maps.google.com/?cid=0x0:0xa36fabfd4775a440,
toko bangunan,Pom bensin/SPBU,Batako,"Bitung, Kec. Amurang, Kabupaten Minahasa Selatan, Sulawesi Utara","Kabupaten Minahasa Selatan, Sulawesi Utara",SULAWESI UTARA,,Indonesia,82272438820.0,,,11.882.759,124.578.364,https://maps.google.com/?cid=0x0:0x5bb8f8fb713bacfc,
toko bangunan,Toko Bahan Bangunan,Karunia Jaya,"lingkungan 2, Buyungon, Kec. Amurang, Kabupaten Minahasa Selatan, Sulawesi Utara 95954","Buyungon, Kec. Amurang, Kabupaten Minahasa Selatan",SULAWESI UTARA,95954.0,Indonesia,81356066888.0,,,11.810.111,1.245.663.331,https://maps.google.com/?cid=0x0:0xedab31c630301d69,
toko bangunan,toko bangunan,TOKO MAKMUR JAYA,"6JQ7+FM8, Jl. Trans Sulawesi, Tumpaan Satu, Kec. Tumpaan, Kabupaten Minahasa Selatan, Sulawesi Utara","Kabupaten Minahasa Selatan, Sulawesi Utara",SULAWESI UTARA,,Indonesia,,,,12.386.623,124.614.199,https://maps.google.com/?cid=0x0:0x30448386056f7445,
toko bangunan,Toko Bahan Bangunan,Toko Dua Jaya Bangunan,"Jaga X Cozy Home, Kios C - 2, Kapitu, Kec. Amurang, Kabupaten Minahasa Selatan, Sulawesi Utara 95955","Kios C - 2, Kapitu, Kec. Amurang, Kabupaten Minahasa Selatan",SULAWESI UTARA,95955.0,Indonesia,8124416363.0,,,11.898.544,1.245.240.643,https://maps.google.com/?cid=0x0:0xa1398874177562c1,
toko bangunan,Toko Bahan Bangunan,Eframa,"6J82+MR8, Jl. Trans Sulawesi, Pondang, Kec. Amurang Tim., Kabupaten Minahasa Selatan, Sulawesi Utara","Kabupaten Minahasa Selatan, Sulawesi Utara",SULAWESI UTARA,,Indonesia,43021031.0,,,121.665,1.246.020.654,https://maps.google.com/?cid=0x0:0xa73ec297ccb60c2f,
toko bangunan,Toko Bahan Bangunan,Toko SUMBER BERKAT,"Tumpaan Satu, Kec. Tumpaan, Kabupaten Minahasa Selatan, Sulawesi Utara","Kabupaten Minahasa Selatan, Sulawesi Utara",SULAWESI UTARA,,Indonesia,,,,12.442.101,124.614.132,https://maps.google.com/?cid=0x0:0xbbe4e5709d7c77f3,
toko bangunan,Toko Bahan Bangunan,Toko Budi Sejati,"Ranoyapo, Kec. Amurang, Kabupaten Minahasa Selatan, Sulawesi Utara","Kabupaten Minahasa Selatan, Sulawesi Utara",SULAWESI UTARA,,Indonesia,,,,11.840.625,1.245.721.875,https://maps.google.com/?cid=0x0:0x30b5a1bf5e4e8fd9,
toko bangunan,Toko Bahan Bangunan,Tk Berkat Pw,"6JC4+R53, Lopana, Kec. Amurang Tim., Kabupaten Minahasa Selatan, Sulawesi Utara","Kabupaten Minahasa Selatan, Sulawesi Utara",SULAWESI UTARA,,Indonesia,82328839458.0,,,12.220.092,1.246.054.345,https://maps.google.com/?cid=0x0:0x5fee9240c887dd4b,
toko bangunan,Toko Bahan Bangunan,Toko Sri Rejeki Matani,"Matani, Kec. Tumpaan, Kabupaten Minahasa Selatan, Sulawesi Utara","Kabupaten Minahasa Selatan, Sulawesi Utara",SULAWESI UTARA,,Indonesia,89618346200.0,,,1.252.418,1.246.144.647,https://maps.google.com/?cid=0x0:0xb4180618c5f15a4a,
toko bangunan,Toko Bahan Bangunan,HA SAMPURNA (Toko Poso),"Jl.Tumpaan-Tareran Jaga 5 Tumpaan Satu Kecamatan Tumpaan, Tumpaan Satu, Kec. Amurang, Kabupaten Minahasa Selatan, Sulawesi Utara 95352","Tumpaan Satu, Kec. Amurang, Kabupaten Minahasa Selatan",SULAWESI UTARA,95352.0,Indonesia,85398882153.0,,,12.405.259,1.246.144.915,https://maps.google.com/?cid=0x0:0x9cce63f2769b082e,
toko bangunan,Toko Bahan Bangunan,CERIA Bahan Bangunan,"Tokin Baru, Kec. Motoling Tim., Kabupaten Minahasa Selatan, Sulawesi Utara","Kabupaten Minahasa Selatan, Sulawesi Utara",SULAWESI UTARA,,Indonesia,82259514549.0,,,10.771.398,1.245.101.005,https://maps.google.com/?cid=0x0:0xdad60601aca07b8,
toko bangunan,Toko Bahan Bangunan,Toko bangunan RAJAWALI C.H,"Jl. Trans Sulawesi, Kapitu, Kec. Amurang Bar., Kabupaten Minahasa Selatan, Sulawesi Utara 93554","Kapitu, Kec. Amurang Bar., Kabupaten Minahasa Selatan",SULAWESI UTARA,93554.0,Indonesia,82190574066.0,,,11.871.514,1.245.137.701,https://maps.google.com/?cid=0x0:0xcfa60640318c2d82,
toko bangunan,Toko Elektronik,Anugerah Computer,"5HRJ+MVR, Lingk V Jl. Trans Sulawesi No.200, Bitung, Kec. Amurang, Kabupaten Minahasa Selatan, Sulawesi Utara 95954","Lingk V Jl. Trans Sulawesi No.200, Bitung, Kec. Amurang, Kabupaten Minahasa Selatan",SULAWESI UTARA,95954.0,Indonesia,81340787778.0,,,11.921.659,1.245.824.284,https://maps.google.com/?cid=0x0:0xb123f013f84f7be9,
toko bangunan,Pasar bahan bangunan,Toko Bangunan Wapon Jaya,"Jl. Sea induk, Sea I, Kec. Pineleng, Kabupaten Minahasa, Sulawesi Utara","Kabupaten Minahasa, Sulawesi Utara",SULAWESI UTARA,,Indonesia,85340309099.0,,,14.291.092,1.247.997.913,https://maps.google.com/?cid=0x0:0x2216e5af37ff6b7a,
toko bangunan,Toko Bahan Bangunan,Kios Bangunan BERKAT MT,"Jl. Tumpaan - Kawangkoan, Wuwuk, Kec. Tareran, Kabupaten Minahasa Selatan, Sulawesi Utara","Kabupaten Minahasa Selatan, Sulawesi Utara",SULAWESI UTARA,,Indonesia,82145762479.0,,,12.328.138,1.247.065.325,https://maps.google.com/?cid=0x0:0xcb73c6ec35c5a229,
toko bangunan,toko bangunan,SINAR MULIA,"6JM7+39P, Jl. Trans Sulawesi, Tumpaan Dua, Kec. Tumpaan, Kabupaten Minahasa Selatan, Sulawesi Utara","Kabupaten Minahasa Selatan, Sulawesi Utara",SULAWESI UTARA,,Indonesia,82347610345.0,,,12.327.046,1.246.134.598,https://maps.google.com/?cid=0x0:0x49bc4852268bd819,
toko bangunan,Toko Peralatan Tukang Kayu,Neyko Mandiri Sejahtera,"5HJH+JMJ, Uwuran Dua, Kec. Amurang, Kabupaten Minahasa Selatan, Sulawesi Utara","Kabupaten Minahasa Selatan, Sulawesi Utara",SULAWESI UTARA,,Indonesia,81241018107.0,,,11.815.872,1.245.791.406,https://maps.google.com/?cid=0x0:0x96916f45151f6467,
toko bangunan,Toko Bahan Bangunan,Eirene ondang,"6JM7+39P, Jl. Trans Sulawesi, Tumpaan Dua, Kec. Tumpaan, Kabupaten Minahasa Selatan, Sulawesi Utara","Kabupaten Minahasa Selatan, Sulawesi Utara",SULAWESI UTARA,,Indonesia,,,,12.327.046,1.246.134.598,https://maps.google.com/?cid=0x0:0x93338c7aafdeed13,
toko bangunan,Toko Bahan Bangunan,Toko Bangunan Mega Karya Jaya,"Unnamed Road, Kinali, Kec. Kawangkoan, Kabupaten Minahasa, Sulawesi Utara","Kabupaten Minahasa, Sulawesi Utara",SULAWESI UTARA,,Indonesia,82348184787.0,,,1.199.471,1.247.916.845,https://maps.google.com/?cid=0x0:0xdcdea5cb2be0bd09,
toko bangunan,Toko,Jual bahan bangunan,"Jl. Tahun Depan No.133, Kumelembuai I, Kec. Kumelembuai, Kabupaten Minahasa Selatan, Sulawesi Utara","Kabupaten Minahasa Selatan, Sulawesi Utara",SULAWESI UTARA,,Indonesia,81242035564.0,,,1.088.384,124.493.803,https://maps.google.com/?cid=0x0:0x9235c45c6b8b120a,
toko bangunan,Toko Bahan Bangunan,CERIA Bahan Bangunan,"Tokin Baru, Kec. Motoling Tim., Kabupaten Minahasa Selatan, Sulawesi Utara","Kabupaten Minahasa Selatan, Sulawesi Utara",SULAWESI UTARA,,Indonesia,82259514549.0,,,10.771.398,1.245.101.005,https://maps.google.com/?cid=0x0:0xdad60601aca07b8,
toko bangunan,Toko Bahan Bangunan,Toko Bangunan Chiko Matungkas,"FXF9+7QQ, Jl. Sukur - Likupang, Matungkas, Kec. Dimembe, Kabupaten Minahasa Utara, Sulawesi Utara","Kabupaten Minahasa Utara, Sulawesi Utara",SULAWESI UTARA,,Indonesia,85340940004.0,,,14.732.046,1.249.694.978,https://maps.google.com/?cid=0x0:0xb10a524c66bf6d30,
toko bangunan,Toko Bahan Bangunan,Toko Bangunan Mangimbali,"P9C7+94X, Jl. Ratahan - Kotamobagu, Bangunan Wuwuk, Kec. Modayag Bar., Kabupaten Bolaang Mongondow Timur, Sulawesi Utara","Kabupaten Bolaang Mongondow Timur, Sulawesi Utara",SULAWESI UTARA,,Indonesia,,,,0.720995,1.243.628.459,https://maps.google.com/?cid=0x0:0x5ebff676b0e909a2,
toko bangunan,Kios,Toko Bangunan dan Sembako,"FW88+HJJ, Watutumou II, Kec. Kalawat, Kabupaten Minahasa Utara, Sulawesi Utara","Kabupaten Minahasa Utara, Sulawesi Utara",SULAWESI UTARA,,Indonesia,87773953145.0,,,14.664.691,1.249.165.212,https://maps.google.com/?cid=0x0:0x21990419e38de381,
toko bangunan,Toko Bahan Bangunan,Toko Bangunan Sumber Mas,"6VJ7+Q9H, Jl. Tondano - Kakas, Timu, Kec. Remboken, Kabupaten Minahasa, Sulawesi Utara","Kabupaten Minahasa, Sulawesi Utara",SULAWESI UTARA,,Indonesia,82310002528.0,,,12.319.396,1.248.634.961,https://maps.google.com/?cid=0x0:0x15d858ffa7b9cdcc,
toko bangunan,Toko Bahan Bangunan,TOKO SURYA JAYA,"Matungkas, Kec. Dimembe, Kabupaten Minahasa Utara, Sulawesi Utara","Kabupaten Minahasa Utara, Sulawesi Utara",SULAWESI UTARA,,Indonesia,85761113781.0,,,14.753.625,1.249.663.016,https://maps.google.com/?cid=0x0:0xeb72aa0f66a8a80b,
toko bangunan,Toko Bahan Bangunan,Triberkat Toko Bangunan,"FV2M+H3P, Sawangan, Kec. Tombulu, Kabupaten Minahasa, Sulawesi Utara","Kabupaten Minahasa, Sulawesi Utara",SULAWESI UTARA,,Indonesia,,,,14.516.151,1.248.823.958,https://maps.google.com/?cid=0x0:0xb1724ee606aad0ec,
toko bangunan,Kantor Perusahaan,CV Bangunan Karya Mandiri,"Jl. Trans Sulawesi No.mor 88, Tateli, Kec. Mandolang, Kabupaten Minahasa, Sulawesi Utara 95661","Tateli, Kec. Mandolang, Kabupaten Minahasa",SULAWESI UTARA,95661.0,Indonesia,81389898887.0,,,14.418.019,1.247.530.328,https://maps.google.com/?cid=0x0:0x8c3a90a3b9407031,
toko bangunan,toko bangunan,Kec. Kumelembuai,"Kabupaten Minahasa Selatan, Sulawesi Utara","Kabupaten Minahasa Selatan, Sulawesi Utara",SULAWESI UTARA,,Indonesia,,,,10.871.129,1.244.894.698,https://maps.google.com/?cid=0x0:0xa2d03c63ae50dad,
toko bangunan,Toko Bahan Bangunan,Hebat Jaya,"Kumelembuai I, Kec. Kumelembuai, Kabupaten Minahasa Selatan, Sulawesi Utara 95956","Kec. Kumelembuai, Kabupaten Minahasa Selatan",SULAWESI UTARA,95956.0,Indonesia,81524711933.0,,,10.871.129,1.244.894.698,https://maps.google.com/?cid=0x0:0x8a612097c8c3e6a7,
toko bangunan,toko bangunan,Kec. Maesaan,"Kabupaten Minahasa Selatan, Sulawesi Utara","Kabupaten Minahasa Selatan, Sulawesi Utara",SULAWESI UTARA,,Indonesia,,,,0.8779406,1.244.741.741,https://maps.google.com/?cid=0x0:0x7b9cfccbb759dc4d,
toko bangunan,Pasar bahan bangunan,Toko Bangunan Wapon Jaya,"Jl. Sea induk, Sea I, Kec. Pineleng, Kabupaten Minahasa, Sulawesi Utara","Kabupaten Minahasa, Sulawesi Utara",SULAWESI UTARA,,Indonesia,85340309099.0,,,14.291.092,1.247.997.913,https://maps.google.com/?cid=0x0:0x2216e5af37ff6b7a,
toko bangunan,Toko Bahan Bangunan,Toko Bangunan Chiko Matungkas,"FXF9+7QQ, Jl. Sukur - Likupang, Matungkas, Kec. Dimembe, Kabupaten Minahasa Utara, Sulawesi Utara","Kabupaten Minahasa Utara, Sulawesi Utara",SULAWESI UTARA,,Indonesia,85340940004.0,,,14.732.046,1.249.694.978,https://maps.google.com/?cid=0x0:0xb10a524c66bf6d30,
toko bangunan,Toko Bahan Bangunan,Toko Bangunan Rajawali,"7JPX+58M, Lelema, Kec. Tumpaan, Kabupaten Minahasa Selatan, Sulawesi Utara","Kabupaten Minahasa Selatan, Sulawesi Utara",SULAWESI UTARA,,Indonesia,,,,12.854.645,1.246.482.886,https://maps.google.com/?cid=0x0:0xad92ba0cc7ba2581,
toko bangunan,Pemasok Bahan Bangunan,Toko Bangunan Cendrawasih,"Taler, Tondano Tim., Kabupaten Minahasa, Sulawesi Utara","Kabupaten Minahasa, Sulawesi Utara",SULAWESI UTARA,,Indonesia,81343561691.0,,,12.984.892,1.249.127.644,https://maps.google.com/?cid=0x0:0x563050a595f334a3,
toko bangunan,Toko Bahan Bangunan,Toko Dua Jaya Bangunan,"Jaga X Cozy Home, Kios C - 2, Kapitu, Kec. Amurang, Kabupaten Minahasa Selatan, Sulawesi Utara 95955","Kios C - 2, Kapitu, Kec. Amurang, Kabupaten Minahasa Selatan",SULAWESI UTARA,95955.0,Indonesia,8124416363.0,,,11.898.544,1.245.240.643,https://maps.google.com/?cid=0x0:0xa1398874177562c1,
toko bangunan,Toko Bahan Bangunan,CERIA Bahan Bangunan,"Tokin Baru, Kec. Motoling Tim., Kabupaten Minahasa Selatan, Sulawesi Utara","Kabupaten Minahasa Selatan, Sulawesi Utara",SULAWESI UTARA,,Indonesia,82259514549.0,,,10.771.398,1.245.101.005,https://maps.google.com/?cid=0x0:0xdad60601aca07b8,
toko bangunan,Toko Bahan Bangunan,Toko Bangunan Mitra Jaya,"Jl. Ratahan - Kotamobagu, Wawali, Kec. Ratahan, Kabupaten Minahasa Tenggara, Sulawesi Utara","Kabupaten Minahasa Tenggara, Sulawesi Utara",SULAWESI UTARA,,Indonesia,,,,10.471.382,1.247.996.352,https://maps.google.com/?cid=0x0:0x894ceeaf4489a92b,
toko bangunan,Toko,Jual bahan bangunan,"Jl. Tahun Depan No.133, Kumelembuai I, Kec. Kumelembuai, Kabupaten Minahasa Selatan, Sulawesi Utara","Kabupaten Minahasa Selatan, Sulawesi Utara",SULAWESI UTARA,,Indonesia,81242035564.0,,,1.088.384,124.493.803,https://maps.google.com/?cid=0x0:0x9235c45c6b8b120a,
toko bangunan,Toko Swalayan,PAWER Jaya,"Jl. Siswa, Pakuweru, Kec. Tenga, Kabupaten Minahasa Selatan, Sulawesi Utara","Kabupaten Minahasa Selatan, Sulawesi Utara",SULAWESI UTARA,,Indonesia,82194059567.0,,,1.166.382,1.244.332.105,https://maps.google.com/?cid=0x0:0x6c3c3f9a689f694b,
toko bangunan,Toko Bahan Bangunan,Toko Setia Bangunan,"Jl. Sam Ratulangi No.116, Titiwungan Utara, Kec. Sario, Kota Manado, Sulawesi Utara 95114","Titiwungan Utara, Kec. Sario, Kota Manado",SULAWESI UTARA,95114.0,Indonesia,877225.0,,,14.797.339,1.248.364.691,https://maps.google.com/?cid=0x0:0xfff3e8d56ee427e0,
toko bangunan,Toko Bahan Bangunan,Toko Central Bangunan,"Poyowa Besar I, Kec. Kotamobagu Sel., Kota Kotamobagu, Sulawesi Utara","Kota Kotamobagu, Sulawesi Utara",SULAWESI UTARA,,Indonesia,,,,0.7100001,1.243.248.028,https://maps.google.com/?cid=0x0:0x3cf85387e32cb5ea,
toko bangunan,Toko Bahan Bangunan,Toko Bangunan Tandengan,"Jl. Tondano - Kakas, Tandengan, Kec. Eris, Kabupaten Minahasa, Sulawesi Utara","Kabupaten Minahasa, Sulawesi Utara",SULAWESI UTARA,,Indonesia,,,,12.356.425,1.249.243.613,https://maps.google.com/?cid=0x0:0x5da871fb5996e1d4,
toko bangunan,Komplek perumahan,Cv. Sivel,"QCXX+MWM, Pinasungkulan, Kec. Modoinding, Kabupaten Minahasa Selatan, Sulawesi Utara","Kabupaten Minahasa Selatan, Sulawesi Utara",SULAWESI UTARA,,Indonesia,,,,0.7992127,124.449.789,https://maps.google.com/?cid=0x0:0xd91f6416e81414c8,
toko bangunan,Toko Bahan Bangunan,TB.MERIBA (Toko Bangunan),"7WX6+4XP, Taler, Tondano Tim., Kabupaten Minahasa, Sulawesi Utara","Kabupaten Minahasa, Sulawesi Utara",SULAWESI UTARA,,Indonesia,85696259199.0,,,12.978.375,1.249.124.531,https://maps.google.com/?cid=0x0:0x92ba361f80294412,
toko bangunan,Toko Bahan Bangunan,Toko Inti Bangunan,"No.4 B, Jl. Wolter Monginsidi, Malalayang Satu Timur, Kec. Malalayang, Kota Manado, Sulawesi Utara","Kota Manado, Sulawesi Utara",SULAWESI UTARA,,Indonesia,8124403955.0,,,1.458.951,1.248.211.324,https://maps.google.com/?cid=0x0:0xcc8486e0851e5480,
toko bangunan,Toko Bahan Bangunan,TOKO BANGUNAN RIZKY BADAS,"Kawangkoan, Kec. Kalawat, Kabupaten Minahasa Utara, Sulawesi Utara","Kabupaten Minahasa Utara, Sulawesi Utara",SULAWESI UTARA,,Indonesia,81330119059.0,,,14.590.841,1.249.327.088,https://maps.google.com/?cid=0x0:0x99b35880d1e58868,
toko bangunan,Kios,Toko Bangunan dan Sembako,"FW88+HJJ, Watutumou II, Kec. Kalawat, Kabupaten Minahasa Utara, Sulawesi Utara","Kabupaten Minahasa Utara, Sulawesi Utara",SULAWESI UTARA,,Indonesia,87773953145.0,,,14.664.691,1.249.165.212,https://maps.google.com/?cid=0x0:0x21990419e38de381,
toko bangunan,Toko Bahan Bangunan,Toko bangunan RAJAWALI C.H,"Jl. Trans Sulawesi, Kapitu, Kec. Amurang Bar., Kabupaten Minahasa Selatan, Sulawesi Utara 93554","Kapitu, Kec. Amurang Bar., Kabupaten Minahasa Selatan",SULAWESI UTARA,93554.0,Indonesia,82190574066.0,,,11.871.514,1.245.137.701,https://maps.google.com/?cid=0x0:0xcfa60640318c2d82,
toko bangunan,Pemasok Bahan Bangunan,Toko Immanuel,"2PFX+6H9, Towuntu, Kec. Pasan, Kabupaten Minahasa Tenggara, Sulawesi Utara","Kabupaten Minahasa Tenggara, Sulawesi Utara",SULAWESI UTARA,,Indonesia,,,,10.230.472,1.247.489.763,https://maps.google.com/?cid=0x0:0x9e0cfb47d8a9b5fd,
toko bangunan,Toko Swalayan,UD SUNNY,"WF2C+QWH, Tumani, Kec. Maesaan, Kabupaten Minahasa Selatan, Sulawesi Utara","Kabupaten Minahasa Selatan, Sulawesi Utara",SULAWESI UTARA,,Indonesia,82189272226.0,,,0.9019362,1.244.723.704,https://maps.google.com/?cid=0x0:0x709433dc198dc4f0,
toko bangunan,Toko Bahan Bangunan,Toko Bahan Bangunan Cendrawasi Teling,"Jl. 14 Februari No.72, Teling Atas, Kec. Wanea, Kota Manado, Sulawesi Utara","Kota Manado, Sulawesi Utara",SULAWESI UTARA,,Indonesia,81340809138.0,,,14.690.181,1.248.478.735,https://maps.google.com/?cid=0x0:0xb5d5da22cbab2ba5,
toko bangunan,Toko Bahan Bangunan,Toko Bangunan Sinar Sentosa,"Jl. Trans Sulawesi No.3, Tateli, Kec. Mandolang, Kabupaten Minahasa, Sulawesi Utara 95661","Tateli, Kec. Mandolang, Kabupaten Minahasa",SULAWESI UTARA,95661.0,Indonesia,8111015839.0,,,14.412.562,1.247.522.365,https://maps.google.com/?cid=0x0:0xbf48d72990e96e55,
toko bangunan,Toko Bahan Bangunan,Toko Bangunan Malak Matungkas,"FXC9+636, Matungkas Jaga X, Kec. Dimembe, Kabupaten Minahasa Utara, Sulawesi Utara","Kabupaten Minahasa Utara, Sulawesi Utara",SULAWESI UTARA,,Indonesia,81356833133.0,,,14.705.375,1.249.676.406,https://maps.google.com/?cid=0x0:0x1c9d1d8d885ff988,
toko bangunan,Toko Bahan Bangunan,Matungkas Jaya (Toko Bangunan),"FXGC+67C, Jl. Sukur - Likupang, Matungkas, Kec. Dimembe, Kabupaten Minahasa Utara, Sulawesi Utara","Kabupaten Minahasa Utara, Sulawesi Utara",SULAWESI UTARA,,Indonesia,82333344765.0,,,14.755.556,1.249.706.543,https://maps.google.com/?cid=0x0:0x9356ce9cff86f7f2,
toko bangunan,Toko Bahan Bangunan,Toko Bangunan Sumber Mas,"6VJ7+Q9H, Jl. Tondano - Kakas, Timu, Kec. Remboken, Kabupaten Minahasa, Sulawesi Utara","Kabupaten Minahasa, Sulawesi Utara",SULAWESI UTARA,,Indonesia,82310002528.0,,,12.319.396,1.248.634.961,https://maps.google.com/?cid=0x0:0x15d858ffa7b9cdcc,
toko bangunan,Toko Bahan Bangunan,Toko.Multi Bangunan,"Kopandakan I, Kec. Kotamobagu Sel., Kota Kotamobagu, Sulawesi Utara","Kota Kotamobagu, Sulawesi Utara",SULAWESI UTARA,,Indonesia,,,,0.7060639,1.242.842.349,https://maps.google.com/?cid=0x0:0x906b99c88c2df6f6,
toko bangunan,Toko Bahan Bangunan,Toko Bangunan Mega Karya Jaya,"Unnamed Road, Kinali, Kec. Kawangkoan, Kabupaten Minahasa, Sulawesi Utara","Kabupaten Minahasa, Sulawesi Utara",SULAWESI UTARA,,Indonesia,82348184787.0,,,1.199.471,1.247.916.845,https://maps.google.com/?cid=0x0:0xdcdea5cb2be0bd09,
toko bangunan,Toko,toko bangunan hj muhlis,"XQ2W+V7R, Jl. Ratahan - Kotamobagu, Ponosakan Indah, Kec. Belang, Kabupaten Minahasa Tenggara, Sulawesi Utara 95997","Jl. Ratahan - Kotamobagu, Ponosakan Indah, Kec. Belang, Kabupaten Minahasa Tenggara",SULAWESI UTARA,95997.0,Indonesia,,,,0.9522386,1.247.956.411,https://maps.google.com/?cid=0x0:0xa87b203b7e160b19,
toko bangunan,toko bangunan,Kec. Modoinding,"Kabupaten Minahasa Selatan, Sulawesi Utara","Kabupaten Minahasa Selatan, Sulawesi Utara",SULAWESI UTARA,,Indonesia,,,,0.7934377,1.244.536.411,https://maps.google.com/?cid=0x0:0xd408c5df1a05e95c,
toko bangunan,Komplek perumahan,Cv. Sivel,"QCXX+MWM, Pinasungkulan, Kec. Modoinding, Kabupaten Minahasa Selatan, Sulawesi Utara","Kabupaten Minahasa Selatan, Sulawesi Utara",SULAWESI UTARA,,Indonesia,,,,0.7992127,124.449.789,https://maps.google.com/?cid=0x0:0xd91f6416e81414c8,
toko bangunan,Toko Bahan Bangunan,Toko Bangunan Chiko Matungkas,"FXF9+7QQ, Jl. Sukur - Likupang, Matungkas, Kec. Dimembe, Kabupaten Minahasa Utara, Sulawesi Utara","Kabupaten Minahasa Utara, Sulawesi Utara",SULAWESI UTARA,,Indonesia,85340940004.0,,,14.732.046,1.249.694.978,https://maps.google.com/?cid=0x0:0xb10a524c66bf6d30,
toko bangunan,Toko Bahan Bangunan,Toko Bangunan Alden,"Jl. SBY No.70, Sukur, Kec. Airmadidi, Kabupaten Minahasa Utara, Sulawesi Utara","Kabupaten Minahasa Utara, Sulawesi Utara",SULAWESI UTARA,,Indonesia,82366436061.0,,,14.611.442,1.249.666.508,https://maps.google.com/?cid=0x0:0xc92a017c991e4486,
toko bangunan,Toko Bahan Bangunan,CERIA Bahan Bangunan,"Tokin Baru, Kec. Motoling Tim., Kabupaten Minahasa Selatan, Sulawesi Utara","Kabupaten Minahasa Selatan, Sulawesi Utara",SULAWESI UTARA,,Indonesia,82259514549.0,,,10.771.398,1.245.101.005,https://maps.google.com/?cid=0x0:0xdad60601aca07b8,
toko bangunan,Toko,toko bangunan hj muhlis,"XQ2W+V7R, Jl. Ratahan - Kotamobagu, Ponosakan Indah, Kec. Belang, Kabupaten Minahasa Tenggara, Sulawesi Utara 95997","Jl. Ratahan - Kotamobagu, Ponosakan Indah, Kec. Belang, Kabupaten Minahasa Tenggara",SULAWESI UTARA,95997.0,Indonesia,,,,0.9522386,1.247.956.411,https://maps.google.com/?cid=0x0:0xa87b203b7e160b19,
toko bangunan,Toko Bahan Bangunan,Toko Bangunan Mangimbali,"P9C7+94X, Jl. Ratahan - Kotamobagu, Bangunan Wuwuk, Kec. Modayag Bar., Kabupaten Bolaang Mongondow Timur, Sulawesi Utara","Kabupaten Bolaang Mongondow Timur, Sulawesi Utara",SULAWESI UTARA,,Indonesia,,,,0.720995,1.243.628.459,https://maps.google.com/?cid=0x0:0x5ebff676b0e909a2,
toko bangunan,Toko Bahan Bangunan,Toko Bangunan Sinar Berkat,"Warembungan, Kec. Pineleng, Kabupaten Minahasa, Sulawesi Utara","Kabupaten Minahasa, Sulawesi Utara",SULAWESI UTARA,,Indonesia,82259753525.0,,,1.417.257,124.821.793,https://maps.google.com/?cid=0x0:0x9454d0623758efea,
toko bangunan,Toko Bahan Bangunan,TOKO SURYA JAYA,"Matungkas, Kec. Dimembe, Kabupaten Minahasa Utara, Sulawesi Utara","Kabupaten Minahasa Utara, Sulawesi Utara",SULAWESI UTARA,,Indonesia,85761113781.0,,,14.753.625,1.249.663.016,https://maps.google.com/?cid=0x0:0xeb72aa0f66a8a80b,
toko bangunan,Toko Bahan Bangunan,Toko bahan bangunan,"MHG7+VJQ, Jl. Ratahan - Kotamobagu, Motongkad, Kec. Nuangan, Kabupaten Bolaang Mongondow Timur, Sulawesi Utara","Kabupaten Bolaang Mongondow Timur, Sulawesi Utara",SULAWESI UTARA,,Indonesia,,,,0.6772249,1.245.640.951,https://maps.google.com/?cid=0x0:0x3e712dc6efe5c308,
toko bangunan,Toko Bahan Bangunan,DeDo Supermarket,"Jl. Raya Manado - Bitung, Maumbi, Kec. Kalawat, Kabupaten Minahasa Utara, Sulawesi Utara","Kabupaten Minahasa Utara, Sulawesi Utara",SULAWESI UTARA,,Indonesia,82363111170.0,,,14.783.792,1.249.086.253,https://maps.google.com/?cid=0x0:0x2d4a0393891ebb97,
toko bangunan,Toko Bahan Bangunan,Toko Bangunan Tandengan,"Jl. Tondano - Kakas, Tandengan, Kec. Eris, Kabupaten Minahasa, Sulawesi Utara","Kabupaten Minahasa, Sulawesi Utara",SULAWESI UTARA,,Indonesia,,,,12.356.425,1.249.243.613,https://maps.google.com/?cid=0x0:0x5da871fb5996e1d4,
toko bangunan,Toko Bahan Bangunan,Toko Bahan Bangunan Cendrawasi Teling,"Jl. 14 Februari No.72, Teling Atas, Kec. Wanea, Kota Manado, Sulawesi Utara","Kota Manado, Sulawesi Utara",SULAWESI UTARA,,Indonesia,81340809138.0,,,14.690.181,1.248.478.735,https://maps.google.com/?cid=0x0:0xb5d5da22cbab2ba5,
toko bangunan,Toko Bahan Bangunan,TOKO BANGUNAN RIZKY BADAS,"Kawangkoan, Kec. Kalawat, Kabupaten Minahasa Utara, Sulawesi Utara","Kabupaten Minahasa Utara, Sulawesi Utara",SULAWESI UTARA,,Indonesia,81330119059.0,,,14.590.841,1.249.327.088,https://maps.google.com/?cid=0x0:0x99b35880d1e58868,
toko bangunan,Toko Bahan Bangunan,Toko Inti Bangunan,"No.4 B, Jl. Wolter Monginsidi, Malalayang Satu Timur, Kec. Malalayang, Kota Manado, Sulawesi Utara","Kota Manado, Sulawesi Utara",SULAWESI UTARA,,Indonesia,8124403955.0,,,1.458.951,1.248.211.324,https://maps.google.com/?cid=0x0:0xcc8486e0851e5480,
toko bangunan,Pemasok Bahan Bangunan,Toko Immanuel,"2PFX+6H9, Towuntu, Kec. Pasan, Kabupaten Minahasa Tenggara, Sulawesi Utara","Kabupaten Minahasa Tenggara, Sulawesi Utara",SULAWESI UTARA,,Indonesia,,,,10.230.472,1.247.489.763,https://maps.google.com/?cid=0x0:0x9e0cfb47d8a9b5fd,
toko bangunan,Minimarket,Toko bangunan,"FC3P+2C6, Modisi, Kec. Pinolosian Tim., Kabupaten Bolaang Mongondow Selatan, Sulawesi Utara","Kabupaten Bolaang Mongondow Selatan, Sulawesi Utara",SULAWESI UTARA,,Indonesia,85658741232.0,,,0.4534033,1.244.372.044,https://maps.google.com/?cid=0x0:0x2f8d72c1be60ff49,
toko bangunan,Toko Bahan Bangunan,Toko Harmoni,"5HMC+4FJ, Buyungon, Kec. Amurang, Kabupaten Minahasa Selatan, Sulawesi Utara","Kabupaten Minahasa Selatan, Sulawesi Utara",SULAWESI UTARA,,Indonesia,43021347.0,,,11.828.271,1.245.711.344,https://maps.google.com/?cid=0x0:0x67c3a16048d63adc,
toko bangunan,Toko Bahan Bangunan,Toko bangunan,"5R5Q+J2W, Toraget, Kec. Langowan Utara, Kabupaten Minahasa, Sulawesi Utara","Kabupaten Minahasa, Sulawesi Utara",SULAWESI UTARA,,Indonesia,82155762921.0,,,11.591.034,1.248.375.932,https://maps.google.com/?cid=0x0:0x5ffc28d1b23148c6,
toko bangunan,Toko Bahan Bangunan,Depo Bangunan Baru,"Airmadidi Atas, Kec. Airmadidi, Kabupaten Minahasa Utara, Sulawesi Utara","Kabupaten Minahasa Utara, Sulawesi Utara",SULAWESI UTARA,,Indonesia,8114667779.0,,,14.209.652,1.249.858.983,https://maps.google.com/?cid=0x0:0x39d09d0fdcf3ce9a,
toko bangunan,Rumah Kayu,Kios mooat,"Moat, Kec. Modayag, Kabupaten Bolaang Mongondow Timur, Sulawesi Utara","Kabupaten Bolaang Mongondow Timur, Sulawesi Utara",SULAWESI UTARA,,Indonesia,,,,0.7503553,124.449.272,https://maps.google.com/?cid=0x0:0x73c2d444dd3ef97c,
toko bangunan,toko bangunan,UD Matahari Modoinding,"QFV3+634, Pinasungkulan, Kec. Modoinding, Kabupaten Minahasa Selatan, Sulawesi Utara","Kabupaten Minahasa Selatan, Sulawesi Utara",SULAWESI UTARA,,Indonesia,8114345622.0,,,0.7937053,1.244.533.845,https://maps.google.com/?cid=0x0:0xf933dd08aa1a6fec,
toko bangunan,toko bangunan,Toko Matahari,"Jl. Raya Jaga 3 No.002, Pinasungkulan, Modoinding, South Minahasa Regency, North Sulawesi 95958","Pinasungkulan, Modoinding, South Minahasa Regency",SULAWESI UTARA,95958.0,Indonesia,,,,0.7944861,1.244.482.893,https://maps.google.com/?cid=0x0:0x375262f36eeba639,
toko bangunan,Toko Bahan Bangunan,Toko.Multi Bangunan,"Kopandakan I, Kec. Kotamobagu Sel., Kota Kotamobagu, Sulawesi Utara","Kota Kotamobagu, Sulawesi Utara",SULAWESI UTARA,,Indonesia,,,,0.7060639,1.242.842.349,https://maps.google.com/?cid=0x0:0x906b99c88c2df6f6,
toko bangunan,Kios,Toko Bangunan dan Sembako,"FW88+HJJ, Watutumou II, Kec. Kalawat, Kabupaten Minahasa Utara, Sulawesi Utara","Kabupaten Minahasa Utara, Sulawesi Utara",SULAWESI UTARA,,Indonesia,87773953145.0,,,14.664.691,1.249.165.212,https://maps.google.com/?cid=0x0:0x21990419e38de381,
toko bangunan,Toko Bahan Bangunan,Toko Dua Jaya Bangunan,"Jaga X Cozy Home, Kios C - 2, Kapitu, Kec. Amurang, Kabupaten Minahasa Selatan, Sulawesi Utara 95955","Kios C - 2, Kapitu, Kec. Amurang, Kabupaten Minahasa Selatan",SULAWESI UTARA,95955.0,Indonesia,8124416363.0,,,11.898.544,1.245.240.643,https://maps.google.com/?cid=0x0:0xa1398874177562c1,
toko bangunan,Toko Bahan Bangunan,Toko Bangunan Mega Karya Jaya,"Unnamed Road, Kinali, Kec. Kawangkoan, Kabupaten Minahasa, Sulawesi Utara","Kabupaten Minahasa, Sulawesi Utara",SULAWESI UTARA,,Indonesia,82348184787.0,,,1.199.471,1.247.916.845,https://maps.google.com/?cid=0x0:0xdcdea5cb2be0bd09,
toko bangunan,Toko,TOKO BANGUNAN SINAR RATATOTOK,"Ratatotok Dua, Kec. Ratatotok, Kabupaten Minahasa Tenggara, Sulawesi Utara 95997","Kec. Ratatotok, Kabupaten Minahasa Tenggara",SULAWESI UTARA,95997.0,Indonesia,81242418185.0,,,0.8683082,1.247.007.802,https://maps.google.com/?cid=0x0:0x5c52589d2559d075,
toko bangunan,Pemasok Bahan Bangunan,Toko Bangunan Cendrawasih,"Taler, Tondano Tim., Kabupaten Minahasa, Sulawesi Utara","Kabupaten Minahasa, Sulawesi Utara",SULAWESI UTARA,,Indonesia,81343561691.0,,,12.984.892,1.249.127.644,https://maps.google.com/?cid=0x0:0x563050a595f334a3,
toko bangunan,toko bangunan,Kec. Motoling Bar.,"Kabupaten Minahasa Selatan, Sulawesi Utara","Kabupaten Minahasa Selatan, Sulawesi Utara",SULAWESI UTARA,,Indonesia,,,,10.414.558,1.244.413.862,https://maps.google.com/?cid=0x0:0x6c6cffd8f0e2995b,
toko bangunan,Toko Bahan Bangunan,CERIA Bahan Bangunan,"Tokin Baru, Kec. Motoling Tim., Kabupaten Minahasa Selatan, Sulawesi Utara","Kabupaten Minahasa Selatan, Sulawesi Utara",SULAWESI UTARA,,Indonesia,82259514549.0,,,10.771.398,1.245.101.005,https://maps.google.com/?cid=0x0:0xdad60601aca07b8,
toko bangunan,Pasar bahan bangunan,Toko Bangunan Wapon Jaya,"Jl. Sea induk, Sea I, Kec. Pineleng, Kabupaten Minahasa, Sulawesi Utara","Kabupaten Minahasa, Sulawesi Utara",SULAWESI UTARA,,Indonesia,85340309099.0,,,14.291.092,1.247.997.913,https://maps.google.com/?cid=0x0:0x2216e5af37ff6b7a,
toko bangunan,Toko Bahan Bangunan,Toko Bangunan Sinar Berkat,"Warembungan, Kec. Pineleng, Kabupaten Minahasa, Sulawesi Utara","Kabupaten Minahasa, Sulawesi Utara",SULAWESI UTARA,,Indonesia,82259753525.0,,,1.417.257,124.821.793,https://maps.google.com/?cid=0x0:0x9454d0623758efea,
toko bangunan,Toko Bahan Bangunan,Toko Cita Waya,"Raanan Lama, Kec. Motoling, Kabupaten Minahasa Selatan, Sulawesi Utara","Kabupaten Minahasa Selatan, Sulawesi Utara",SULAWESI UTARA,,Indonesia,82195565288.0,,,10.308.684,1.244.618.065,https://maps.google.com/?cid=0x0:0xa2562ad11b20da6c,
toko bangunan,Kantor Perusahaan,Berkat Abadi,"38VV+68M, Ongkaw II, Kec. Sinonsayang, Kabupaten Minahasa Selatan, Sulawesi Utara","Kabupaten Minahasa Selatan, Sulawesi Utara",SULAWESI UTARA,,Indonesia,81343477333.0,,,109.308,1.243.433.002,https://maps.google.com/?cid=0x0:0x583be5c7631cdf17,
toko bangunan,Kios,Toko Bangunan dan Sembako,"FW88+HJJ, Watutumou II, Kec. Kalawat, Kabupaten Minahasa Utara, Sulawesi Utara","Kabupaten Minahasa Utara, Sulawesi Utara",SULAWESI UTARA,,Indonesia,87773953145.0,,,14.664.691,1.249.165.212,https://maps.google.com/?cid=0x0:0x21990419e38de381,
toko bangunan,Toko,toko bangunan hj muhlis,"XQ2W+V7R, Jl. Ratahan - Kotamobagu, Ponosakan Indah, Kec. Belang, Kabupaten Minahasa Tenggara, Sulawesi Utara 95997","Jl. Ratahan - Kotamobagu, Ponosakan Indah, Kec. Belang, Kabupaten Minahasa Tenggara",SULAWESI UTARA,95997.0,Indonesia,,,,0.9522386,1.247.956.411,https://maps.google.com/?cid=0x0:0xa87b203b7e160b19,
toko bangunan,Toko Bahan Bangunan,Toko bangunan,"5R5Q+J2W, Toraget, Kec. Langowan Utara, Kabupaten Minahasa, Sulawesi Utara","Kabupaten Minahasa, Sulawesi Utara",SULAWESI UTARA,,Indonesia,82155762921.0,,,11.591.034,1.248.375.932,https://maps.google.com/?cid=0x0:0x5ffc28d1b23148c6,
toko bangunan,Toko Bahan Bangunan,TOKO BANGUNAN RIZKY BADAS,"Kawangkoan, Kec. Kalawat, Kabupaten Minahasa Utara, Sulawesi Utara","Kabupaten Minahasa Utara, Sulawesi Utara",SULAWESI UTARA,,Indonesia,81330119059.0,,,14.590.841,1.249.327.088,https://maps.google.com/?cid=0x0:0x99b35880d1e58868,
toko bangunan,Toko Bahan Bangunan,Triberkat Toko Bangunan,"FV2M+H3P, Sawangan, Kec. Tombulu, Kabupaten Minahasa, Sulawesi Utara","Kabupaten Minahasa, Sulawesi Utara",SULAWESI UTARA,,Indonesia,,,,14.516.151,1.248.823.958,https://maps.google.com/?cid=0x0:0xb1724ee606aad0ec,
toko bangunan,Toko Bahan Bangunan,Toko Bangunan Mangimbali,"P9C7+94X, Jl. Ratahan - Kotamobagu, Bangunan Wuwuk, Kec. Modayag Bar., Kabupaten Bolaang Mongondow Timur, Sulawesi Utara","Kabupaten Bolaang Mongondow Timur, Sulawesi Utara",SULAWESI UTARA,,Indonesia,,,,0.720995,1.243.628.459,https://maps.google.com/?cid=0x0:0x5ebff676b0e909a2,
toko bangunan,Toko Bahan Bangunan,Matungkas Jaya (Toko Bangunan),"FXGC+67C, Jl. Sukur - Likupang, Matungkas, Kec. Dimembe, Kabupaten Minahasa Utara, Sulawesi Utara","Kabupaten Minahasa Utara, Sulawesi Utara",SULAWESI UTARA,,Indonesia,82333344765.0,,,14.755.556,1.249.706.543,https://maps.google.com/?cid=0x0:0x9356ce9cff86f7f2,
toko bangunan,Toko Bahan Bangunan,Toko Bangunan Malak Matungkas,"FXC9+636, Matungkas Jaga X, Kec. Dimembe, Kabupaten Minahasa Utara, Sulawesi Utara","Kabupaten Minahasa Utara, Sulawesi Utara",SULAWESI UTARA,,Indonesia,81356833133.0,,,14.705.375,1.249.676.406,https://maps.google.com/?cid=0x0:0x1c9d1d8d885ff988,
toko bangunan,Toko Bahan Bangunan,Toko Sumber Bangunan Pineleng,"CRGQ+VCG, Jl. Raya Manado Tomohon, Pineleng I, Kec. Pineleng, Kabupaten Minahasa, Sulawesi Utara","Kabupaten Minahasa, Sulawesi Utara",SULAWESI UTARA,,Indonesia,,,,14.271.958,1.248.385.828,https://maps.google.com/?cid=0x0:0x5bfd3a32058d5029,
toko bangunan,Pemasok Bahan Bangunan,Toko Bangunan Cendrawasih,"Taler, Tondano Tim., Kabupaten Minahasa, Sulawesi Utara","Kabupaten Minahasa, Sulawesi Utara",SULAWESI UTARA,,Indonesia,81343561691.0,,,12.984.892,1.249.127.644,https://maps.google.com/?cid=0x0:0x563050a595f334a3,
toko bangunan,Toko Bahan Bangunan,Toko Bahan Bangunan Cendrawasi Teling,"Jl. 14 Februari No.72, Teling Atas, Kec. Wanea, Kota Manado, Sulawesi Utara","Kota Manado, Sulawesi Utara",SULAWESI UTARA,,Indonesia,81340809138.0,,,14.690.181,1.248.478.735,https://maps.google.com/?cid=0x0:0xb5d5da22cbab2ba5,
toko bangunan,Toko Bahan Bangunan,Toko Bangunan Sumber Mas,"6VJ7+Q9H, Jl. Tondano - Kakas, Timu, Kec. Remboken, Kabupaten Minahasa, Sulawesi Utara","Kabupaten Minahasa, Sulawesi Utara",SULAWESI UTARA,,Indonesia,82310002528.0,,,12.319.396,1.248.634.961,https://maps.google.com/?cid=0x0:0x15d858ffa7b9cdcc,
toko bangunan,Toko Bahan Bangunan,Toko Sumber Mulia,"5HVM+8MV, Jl. Trans Sulawesi, Bitung, Kec. Amurang, Kabupaten Minahasa Selatan, Sulawesi Utara","Kabupaten Minahasa Selatan, Sulawesi Utara",SULAWESI UTARA,,Indonesia,,,,11.933.577,1.245.841.838,https://maps.google.com/?cid=0x0:0xd099b9a3eb3af488,
toko bangunan,Pasar bahan bangunan,Sumber Logam,"8W26+VWV, JL. Walanda Maramis Lingk. IV, Katinggolan, Tolimambot, Tondano, 95612","JL. Walanda Maramis Lingk. IV, Katinggolan, Tolimambot",SULAWESI UTARA,95612.0,Indonesia,431321429.0,,,13.022.271,1.249.123.121,https://maps.google.com/?cid=0x0:0x237688ab01c872ce,
toko bangunan,Toko,Jual bahan bangunan,"Jl. Tahun Depan No.133, Kumelembuai I, Kec. Kumelembuai, Kabupaten Minahasa Selatan, Sulawesi Utara","Kabupaten Minahasa Selatan, Sulawesi Utara",SULAWESI UTARA,,Indonesia,81242035564.0,,,1.088.384,124.493.803,https://maps.google.com/?cid=0x0:0x9235c45c6b8b120a,
toko bangunan,toko bangunan,Kec. Motoling Tim.,"Kabupaten Minahasa Selatan, Sulawesi Utara","Kabupaten Minahasa Selatan, Sulawesi Utara",SULAWESI UTARA,,Indonesia,,,,10.658.557,1.244.966.035,https://maps.google.com/?cid=0x0:0xc31c83b5c58d6f0d,
toko bangunan,Toko Bahan Bangunan,CERIA Bahan Bangunan,"Tokin Baru, Kec. Motoling Tim., Kabupaten Minahasa Selatan, Sulawesi Utara","Kabupaten Minahasa Selatan, Sulawesi Utara",SULAWESI UTARA,,Indonesia,82259514549.0,,,10.771.398,1.245.101.005,https://maps.google.com/?cid=0x0:0xdad60601aca07b8,
toko bangunan,Toko,Jual bahan bangunan,"Jl. Tahun Depan No.133, Kumelembuai I, Kec. Kumelembuai, Kabupaten Minahasa Selatan, Sulawesi Utara","Kabupaten Minahasa Selatan, Sulawesi Utara",SULAWESI UTARA,,Indonesia,81242035564.0,,,1.088.384,124.493.803,https://maps.google.com/?cid=0x0:0x9235c45c6b8b120a,
toko bangunan,Pasar bahan bangunan,Toko Bangunan Wapon Jaya,"Jl. Sea induk, Sea I, Kec. Pineleng, Kabupaten Minahasa, Sulawesi Utara","Kabupaten Minahasa, Sulawesi Utara",SULAWESI UTARA,,Indonesia,85340309099.0,,,14.291.092,1.247.997.913,https://maps.google.com/?cid=0x0:0x2216e5af37ff6b7a,
toko bangunan,Toko Bahan Bangunan,Toko Bangunan Chiko Matungkas,"FXF9+7QQ, Jl. Sukur - Likupang, Matungkas, Kec. Dimembe, Kabupaten Minahasa Utara, Sulawesi Utara","Kabupaten Minahasa Utara, Sulawesi Utara",SULAWESI UTARA,,Indonesia,85340940004.0,,,14.732.046,1.249.694.978,https://maps.google.com/?cid=0x0:0xb10a524c66bf6d30,
toko bangunan,Toko Bahan Bangunan,Toko Bangunan Mangimbali,"P9C7+94X, Jl. Ratahan - Kotamobagu, Bangunan Wuwuk, Kec. Modayag Bar., Kabupaten Bolaang Mongondow Timur, Sulawesi Utara","Kabupaten Bolaang Mongondow Timur, Sulawesi Utara",SULAWESI UTARA,,Indonesia,,,,0.720995,1.243.628.459,https://maps.google.com/?cid=0x0:0x5ebff676b0e909a2,
toko bangunan,Toko Bahan Bangunan,Toko Cita Waya,"Raanan Lama, Kec. Motoling, Kabupaten Minahasa Selatan, Sulawesi Utara","Kabupaten Minahasa Selatan, Sulawesi Utara",SULAWESI UTARA,,Indonesia,82195565288.0,,,10.308.684,1.244.618.065,https://maps.google.com/?cid=0x0:0xa2562ad11b20da6c,
toko bangunan,Toko Bahan Bangunan,Toko bahan bangunan,"MHG7+VJQ, Jl. Ratahan - Kotamobagu, Motongkad, Kec. Nuangan, Kabupaten Bolaang Mongondow Timur, Sulawesi Utara","Kabupaten Bolaang Mongondow Timur, Sulawesi Utara",SULAWESI UTARA,,Indonesia,,,,0.6772249,1.245.640.951,https://maps.google.com/?cid=0x0:0x3e712dc6efe5c308,
toko bangunan,Toko Bahan Bangunan,Toko Sumber Mulia,"5HVM+8MV, Jl. Trans Sulawesi, Bitung, Kec. Amurang, Kabupaten Minahasa Selatan, Sulawesi Utara","Kabupaten Minahasa Selatan, Sulawesi Utara",SULAWESI UTARA,,Indonesia,,,,11.933.577,1.245.841.838,https://maps.google.com/?cid=0x0:0xd099b9a3eb3af488,
toko bangunan,toko bangunan,Kec. Motoling Tim.,"Kabupaten Minahasa Selatan, Sulawesi Utara","Kabupaten Minahasa Selatan, Sulawesi Utara",SULAWESI UTARA,,Indonesia,,,,10.658.557,1.244.966.035,https://maps.google.com/?cid=0x0:0xc31c83b5c58d6f0d,
toko bangunan,Toko Bahan Bangunan,CERIA Bahan Bangunan,"Tokin Baru, Kec. Motoling Tim., Kabupaten Minahasa Selatan, Sulawesi Utara","Kabupaten Minahasa Selatan, Sulawesi Utara",SULAWESI UTARA,,Indonesia,82259514549.0,,,10.771.398,1.245.101.005,https://maps.google.com/?cid=0x0:0xdad60601aca07b8,
toko bangunan,Toko,Jual bahan bangunan,"Jl. Tahun Depan No.133, Kumelembuai I, Kec. Kumelembuai, Kabupaten Minahasa Selatan, Sulawesi Utara","Kabupaten Minahasa Selatan, Sulawesi Utara",SULAWESI UTARA,,Indonesia,81242035564.0,,,1.088.384,124.493.803,https://maps.google.com/?cid=0x0:0x9235c45c6b8b120a,
toko bangunan,Restoran,Alcander Workshop,"3FFX+8J3, Wanga Amongena, Kec. Motoling Tim., Kabupaten Minahasa Selatan, Sulawesi Utara","Kabupaten Minahasa Selatan, Sulawesi Utara",SULAWESI UTARA,,Indonesia,89522304712.0,,,10.732.709,1.244.990.341,https://maps.google.com/?cid=0x0:0x8c521ac52233fc9a,
toko bangunan,Toko Bahan Bangunan,Toko Bangunan Chiko Matungkas,"FXF9+7QQ, Jl. Sukur - Likupang, Matungkas, Kec. Dimembe, Kabupaten Minahasa Utara, Sulawesi Utara","Kabupaten Minahasa Utara, Sulawesi Utara",SULAWESI UTARA,,Indonesia,85340940004.0,,,14.732.046,1.249.694.978,https://maps.google.com/?cid=0x0:0xb10a524c66bf6d30,
toko bangunan,Toko,toko bangunan hj muhlis,"XQ2W+V7R, Jl. Ratahan - Kotamobagu, Ponosakan Indah, Kec. Belang, Kabupaten Minahasa Tenggara, Sulawesi Utara 95997","Jl. Ratahan - Kotamobagu, Ponosakan Indah, Kec. Belang, Kabupaten Minahasa Tenggara",SULAWESI UTARA,95997.0,Indonesia,,,,0.9522386,1.247.956.411,https://maps.google.com/?cid=0x0:0xa87b203b7e160b19,
toko bangunan,Toko Bahan Bangunan,Toko Sumber Mulia,"5HVM+8MV, Jl. Trans Sulawesi, Bitung, Kec. Amurang, Kabupaten Minahasa Selatan, Sulawesi Utara","Kabupaten Minahasa Selatan, Sulawesi Utara",SULAWESI UTARA,,Indonesia,,,,11.933.577,1.245.841.838,https://maps.google.com/?cid=0x0:0xd099b9a3eb3af488,
toko bangunan,Toko Bahan Bangunan,TOKO SURYA JAYA,"Matungkas, Kec. Dimembe, Kabupaten Minahasa Utara, Sulawesi Utara","Kabupaten Minahasa Utara, Sulawesi Utara",SULAWESI UTARA,,Indonesia,85761113781.0,,,14.753.625,1.249.663.016,https://maps.google.com/?cid=0x0:0xeb72aa0f66a8a80b,
toko bangunan,Toko Bahan Bangunan,Toko Sumber Bangunan Pineleng,"CRGQ+VCG, Jl. Raya Manado Tomohon, Pineleng I, Kec. Pineleng, Kabupaten Minahasa, Sulawesi Utara","Kabupaten Minahasa, Sulawesi Utara",SULAWESI UTARA,,Indonesia,,,,14.271.958,1.248.385.828,https://maps.google.com/?cid=0x0:0x5bfd3a32058d5029,
toko bangunan,Pemasok Bahan Bangunan,Toko Immanuel,"2PFX+6H9, Towuntu, Kec. Pasan, Kabupaten Minahasa Tenggara, Sulawesi Utara","Kabupaten Minahasa Tenggara, Sulawesi Utara",SULAWESI UTARA,,Indonesia,,,,10.230.472,1.247.489.763,https://maps.google.com/?cid=0x0:0x9e0cfb47d8a9b5fd,
toko bangunan,Toko Bahan Bangunan,Toko Lico,"CRMV+CJ7, Jl. Raya Manado Tomohon, Winangun Atas, Kec. Pineleng, Kabupaten Minahasa, Sulawesi Utara","Kabupaten Minahasa, Sulawesi Utara",SULAWESI UTARA,,Indonesia,431822840.0,,,14.335.286,1.248.440.558,https://maps.google.com/?cid=0x0:0x8f3a8c4139084976,
toko bangunan,Toko Bahan Bangunan,Toko Cita Waya,"Raanan Lama, Kec. Motoling, Kabupaten Minahasa Selatan, Sulawesi Utara","Kabupaten Minahasa Selatan, Sulawesi Utara",SULAWESI UTARA,,Indonesia,82195565288.0,,,10.308.684,1.244.618.065,https://maps.google.com/?cid=0x0:0xa2562ad11b20da6c,
toko bangunan,toko bangunan,Kec. Ranoyapo,"Kabupaten Minahasa Selatan, Sulawesi Utara","Kabupaten Minahasa Selatan, Sulawesi Utara",SULAWESI UTARA,,Indonesia,,,,0.9993883,1.244.993.385,https://maps.google.com/?cid=0x0:0x1e005a1bf0ed1cb7,
toko bangunan,Pasar bahan bangunan,Toko Bangunan Wapon Jaya,"Jl. Sea induk, Sea I, Kec. Pineleng, Kabupaten Minahasa, Sulawesi Utara","Kabupaten Minahasa, Sulawesi Utara",SULAWESI UTARA,,Indonesia,85340309099.0,,,14.291.092,1.247.997.913,https://maps.google.com/?cid=0x0:0x2216e5af37ff6b7a,
toko bangunan,Toko Bahan Bangunan,Toko Bangunan Mitra Jaya,"Jl. Ratahan - Kotamobagu, Wawali, Kec. Ratahan, Kabupaten Minahasa Tenggara, Sulawesi Utara","Kabupaten Minahasa Tenggara, Sulawesi Utara",SULAWESI UTARA,,Indonesia,,,,10.471.382,1.247.996.352,https://maps.google.com/?cid=0x0:0x894ceeaf4489a92b,
toko bangunan,Toko Bahan Bangunan,Toko Cita Waya,"Raanan Lama, Kec. Motoling, Kabupaten Minahasa Selatan, Sulawesi Utara","Kabupaten Minahasa Selatan, Sulawesi Utara",SULAWESI UTARA,,Indonesia,82195565288.0,,,10.308.684,1.244.618.065,https://maps.google.com/?cid=0x0:0xa2562ad11b20da6c,
toko bangunan,Toko Bahan Bangunan,Toko Bangunan Rajawali,"7JPX+58M, Lelema, Kec. Tumpaan, Kabupaten Minahasa Selatan, Sulawesi Utara","Kabupaten Minahasa Selatan, Sulawesi Utara",SULAWESI UTARA,,Indonesia,,,,12.854.645,1.246.482.886,https://maps.google.com/?cid=0x0:0xad92ba0cc7ba2581,
toko bangunan,Toko Bahan Bangunan,TOKO BANGUNAN RIZKY BADAS,"Kawangkoan, Kec. Kalawat, Kabupaten Minahasa Utara, Sulawesi Utara","Kabupaten Minahasa Utara, Sulawesi Utara",SULAWESI UTARA,,Indonesia,81330119059.0,,,14.590.841,1.249.327.088,https://maps.google.com/?cid=0x0:0x99b35880d1e58868,
toko bangunan,Toko bahan makanan,UD DAMAI,"XFWW+87X, Jl. Perbatasan, Poopo, Pontak, Kec. Ranoyapo, Kabupaten Minahasa Selatan, Sulawesi Utara","Kabupaten Minahasa Selatan, Sulawesi Utara",SULAWESI UTARA,,Indonesia,85399684215.0,,,0.9958683,1.244.957.283,https://maps.google.com/?cid=0x0:0xae6b0e02a3b09cb4,
toko bangunan,Komplek perumahan,Fajar Agro Prima,"Jalan Trans, kompleks Batukurung, Poopo, Kec. Ranoyapo, Kabupaten Minahasa Selatan, Sulawesi Utara 95999","kompleks Batukurung, Poopo, Kec. Ranoyapo, Kabupaten Minahasa Selatan",SULAWESI UTARA,95999.0,Indonesia,85351300306.0,,,0.9841777,1.244.966.811,https://maps.google.com/?cid=0x0:0x2d6e5f7ca0255a99,
toko bangunan,Toko Bahan Bangunan,UD. Ria Jaya,"Sukur, Kec. Airmadidi, Kabupaten Minahasa Utara, Sulawesi Utara","Kabupaten Minahasa Utara, Sulawesi Utara",SULAWESI UTARA,,Indonesia,811409476.0,,,14.503.394,1.249.601.121,https://maps.google.com/?cid=0x0:0x7edd56340f1e2460,
toko bangunan,Toko Bahan Bangunan,KEM Opa Kayl,"2JG8+2J6, Ranoako, Kec. Touluaan Sel., Kabupaten Minahasa Tenggara, Sulawesi Utara","Kabupaten Minahasa Tenggara, Sulawesi Utara",SULAWESI UTARA,,Indonesia,,,,1.025.034,1.246.165.155,https://maps.google.com/?cid=0x0:0x6b3f4b4ce214bbec,
toko bangunan,Toko Bahan Bangunan,Toko Tuama RR,"FXGC+676 Jaga 7, Matungkas, Kec. Dimembe, Kabupaten Minahasa Utara, Sulawesi Utara","Kabupaten Minahasa Utara, Sulawesi Utara",SULAWESI UTARA,,Indonesia,,,,14.755.297,1.249.706.454,https://maps.google.com/?cid=0x0:0xf70291edba8cd4ca,
toko bangunan,Pemasok Bahan Bangunan,Toko Bangunan Cendrawasih,"Taler, Tondano Tim., Kabupaten Minahasa, Sulawesi Utara","Kabupaten Minahasa, Sulawesi Utara",SULAWESI UTARA,,Indonesia,81343561691.0,,,12.984.892,1.249.127.644,https://maps.google.com/?cid=0x0:0x563050a595f334a3,
toko bangunan,Toko Bahan Bangunan,Toko Bangunan Mega Karya Jaya,"Unnamed Road, Kinali, Kec. Kawangkoan, Kabupaten Minahasa, Sulawesi Utara","Kabupaten Minahasa, Sulawesi Utara",SULAWESI UTARA,,Indonesia,82348184787.0,,,1.199.471,1.247.916.845,https://maps.google.com/?cid=0x0:0xdcdea5cb2be0bd09,
toko bangunan,Toko,toko bangunan hj muhlis,"XQ2W+V7R, Jl. Ratahan - Kotamobagu, Ponosakan Indah, Kec. Belang, Kabupaten Minahasa Tenggara, Sulawesi Utara 95997","Jl. Ratahan - Kotamobagu, Ponosakan Indah, Kec. Belang, Kabupaten Minahasa Tenggara",SULAWESI UTARA,95997.0,Indonesia,,,,0.9522386,1.247.956.411,https://maps.google.com/?cid=0x0:0xa87b203b7e160b19,
toko bangunan,Pemasok Bahan Bangunan,Toko Immanuel,"2PFX+6H9, Towuntu, Kec. Pasan, Kabupaten Minahasa Tenggara, Sulawesi Utara","Kabupaten Minahasa Tenggara, Sulawesi Utara",SULAWESI UTARA,,Indonesia,,,,10.230.472,1.247.489.763,https://maps.google.com/?cid=0x0:0x9e0cfb47d8a9b5fd,
toko bangunan,Toko Bahan Bangunan,Toko Hati Nurani,"Jln. Raya Langowan Walantakan Kec. Langowan Utara, Kec. Langowan Bar., Sulawesi Utara 95697",Kec. Langowan Bar.,SULAWESI UTARA,95697.0,Indonesia,81355596008.0,,,11.602.845,1.248.322.343,https://maps.google.com/?cid=0x0:0xf08a2cd2f69c44f4,
toko bangunan,Toko Bahan Bangunan,Toko Bangunan Era Baru Amongena,"5R4V+PQP, Karumenga, Kec. Langowan Utara, Kabupaten Minahasa, Sulawesi Utara","Kabupaten Minahasa, Sulawesi Utara",SULAWESI UTARA,,Indonesia,,,,1.156.846,1.248.444.569,https://maps.google.com/?cid=0x0:0x1fa73defce46aa,
toko bangunan,Toko Bahan Bangunan,Toko bangunan RAJAWALI C.H,"Jl. Trans Sulawesi, Kapitu, Kec. Amurang Bar., Kabupaten Minahasa Selatan, Sulawesi Utara 93554","Kapitu, Kec. Amurang Bar., Kabupaten Minahasa Selatan",SULAWESI UTARA,93554.0,Indonesia,82190574066.0,,,11.871.514,1.245.137.701,https://maps.google.com/?cid=0x0:0xcfa60640318c2d82,
toko bangunan,Toko Bahan Bangunan,Toko Bangunan RACHELY,"Jl. Mapanget Raya No.33, Paniki Dua, Kec. Mapanget, Kota Manado, Sulawesi Utara","Kota Manado, Sulawesi Utara",SULAWESI UTARA,,Indonesia,4317241325.0,,,15.146.498,1.249.196.768,https://maps.google.com/?cid=0x0:0xaa4d26e978e285df,
toko bangunan,Toko Bahan Bangunan,Toko bangunan,"5R5Q+J2W, Toraget, Kec. Langowan Utara, Kabupaten Minahasa, Sulawesi Utara","Kabupaten Minahasa, Sulawesi Utara",SULAWESI UTARA,,Indonesia,82155762921.0,,,11.591.034,1.248.375.932,https://maps.google.com/?cid=0x0:0x5ffc28d1b23148c6,
toko bangunan,Toko Bahan Bangunan,CERIA Bahan Bangunan,"Tokin Baru, Kec. Motoling Tim., Kabupaten Minahasa Selatan, Sulawesi Utara","Kabupaten Minahasa Selatan, Sulawesi Utara",SULAWESI UTARA,,Indonesia,82259514549.0,,,10.771.398,1.245.101.005,https://maps.google.com/?cid=0x0:0xdad60601aca07b8,
toko bangunan,Toko Bahan Bangunan,Toko bangunan tetap usaha kamasi 1,"Jl. Kuranga, Talete Dua, Kec. Tomohon Tengah, Kota Tomohon, Sulawesi Utara","Kota Tomohon, Sulawesi Utara",SULAWESI UTARA,,Indonesia,85256670010.0,,,13.303.169,1.248.348.179,https://maps.google.com/?cid=0x0:0xa51a2dec3d95451d,
toko bangunan,Toko,Toko Aneka Bangunan,"Mogolaing, Kec. Kotamobagu Bar., Kota Kotamobagu, Sulawesi Utara","Kota Kotamobagu, Sulawesi Utara",SULAWESI UTARA,,Indonesia,,,,0.7373772,1.243.077.789,https://maps.google.com/?cid=0x0:0x684ed995013a6c52,
toko bangunan,Toko,TOKO BANGUNAN SINAR RATATOTOK,"Ratatotok Dua, Kec. Ratatotok, Kabupaten Minahasa Tenggara, Sulawesi Utara 95997","Kec. Ratatotok, Kabupaten Minahasa Tenggara",SULAWESI UTARA,95997.0,Indonesia,81242418185.0,,,0.8683082,1.247.007.802,https://maps.google.com/?cid=0x0:0x5c52589d2559d075,
toko bangunan,Toko Bahan Bangunan,"Toko Bangunan Kiawa Jaya""""","6Q9M+VMC, Jl. kawangkoan-Tomohon, Kiawa Dua, Kec. Kawangkoan Utara, Kabupaten Minahasa, Sulawesi Utara","Kabupaten Minahasa, Sulawesi Utara",SULAWESI UTARA,,Indonesia,87773953145.0,,,121.969,1.247.841.378,https://maps.google.com/?cid=0x0:0x321b1d5dee4afc8c,
toko bangunan,Kios,Toko Bangunan dan Sembako,"FW88+HJJ, Watutumou II, Kec. Kalawat, Kabupaten Minahasa Utara, Sulawesi Utara","Kabupaten Minahasa Utara, Sulawesi Utara",SULAWESI UTARA,,Indonesia,87773953145.0,,,14.664.691,1.249.165.212,https://maps.google.com/?cid=0x0:0x21990419e38de381,
toko bangunan,toko bangunan,UD Ario,"5HWP+FG9, Jl. Trans Sulawesi, Ranomea, Kec. Amurang Tim., Kabupaten Minahasa Selatan, Sulawesi Utara","Kabupaten Minahasa Selatan, Sulawesi Utara",SULAWESI UTARA,,Indonesia,,,,119.615,1.245.863.523,https://maps.google.com/?cid=0x0:0xc11684a9aa2a8024,
toko bangunan,toko bangunan,Kec. Sinonsayang,"Kabupaten Minahasa Selatan, Sulawesi Utara","Kabupaten Minahasa Selatan, Sulawesi Utara",SULAWESI UTARA,,Indonesia,,,,10.964.547,1.243.480.233,https://maps.google.com/?cid=0x0:0x459f24c060a3cdba,
toko bangunan,Kantor Perusahaan,Berkat Abadi,"38VV+68M, Ongkaw II, Kec. Sinonsayang, Kabupaten Minahasa Selatan, Sulawesi Utara","Kabupaten Minahasa Selatan, Sulawesi Utara",SULAWESI UTARA,,Indonesia,81343477333.0,,,109.308,1.243.433.002,https://maps.google.com/?cid=0x0:0x583be5c7631cdf17,
toko bangunan,Toko,UD. 03,"2896+J27, Poigar II, Kec. Sinonsayang, Kabupaten Minahasa Selatan, Sulawesi Utara","Kabupaten Minahasa Selatan, Sulawesi Utara",SULAWESI UTARA,,Indonesia,85256301122.0,,,10.190.281,1.243.100.507,https://maps.google.com/?cid=0x0:0x110db0d962fb04a5,
toko bangunan,Toko Bahan Bangunan,Toko Bangunan Chiko Matungkas,"FXF9+7QQ, Jl. Sukur - Likupang, Matungkas, Kec. Dimembe, Kabupaten Minahasa Utara, Sulawesi Utara","Kabupaten Minahasa Utara, Sulawesi Utara",SULAWESI UTARA,,Indonesia,85340940004.0,,,14.732.046,1.249.694.978,https://maps.google.com/?cid=0x0:0xb10a524c66bf6d30,
toko bangunan,Toko,Toko Fadilah,"X7XP+9X8, Poigar II, Kec. Poigar, Kabupaten Bolaang Mongondow, Sulawesi Utara","Kabupaten Bolaang Mongondow, Sulawesi Utara",SULAWESI UTARA,,Indonesia,,,,0.9984053,1.242.874.415,https://maps.google.com/?cid=0x0:0x14fbfbc4598e73a0,
toko bangunan,Toko Bahan Bangunan,TOKO SURYA JAYA,"Matungkas, Kec. Dimembe, Kabupaten Minahasa Utara, Sulawesi Utara","Kabupaten Minahasa Utara, Sulawesi Utara",SULAWESI UTARA,,Indonesia,85761113781.0,,,14.753.625,1.249.663.016,https://maps.google.com/?cid=0x0:0xeb72aa0f66a8a80b,
toko bangunan,Pemasok Bahan Bangunan,Toko Bangunan Cendrawasih,"Taler, Tondano Tim., Kabupaten Minahasa, Sulawesi Utara","Kabupaten Minahasa, Sulawesi Utara",SULAWESI UTARA,,Indonesia,81343561691.0,,,12.984.892,1.249.127.644,https://maps.google.com/?cid=0x0:0x563050a595f334a3,
toko bangunan,Toko Bahan Bangunan,Toko Bahan Bangunan Cendrawasi Teling,"Jl. 14 Februari No.72, Teling Atas, Kec. Wanea, Kota Manado, Sulawesi Utara","Kota Manado, Sulawesi Utara",SULAWESI UTARA,,Indonesia,81340809138.0,,,14.690.181,1.248.478.735,https://maps.google.com/?cid=0x0:0xb5d5da22cbab2ba5,
toko bangunan,Toko Bahan Bangunan,TOKO BANGUNAN RIZKY BADAS,"Kawangkoan, Kec. Kalawat, Kabupaten Minahasa Utara, Sulawesi Utara","Kabupaten Minahasa Utara, Sulawesi Utara",SULAWESI UTARA,,Indonesia,81330119059.0,,,14.590.841,1.249.327.088,https://maps.google.com/?cid=0x0:0x99b35880d1e58868,
toko bangunan,Toko Bahan Bangunan,Toko Harmoni,"5HMC+4FJ, Buyungon, Kec. Amurang, Kabupaten Minahasa Selatan, Sulawesi Utara","Kabupaten Minahasa Selatan, Sulawesi Utara",SULAWESI UTARA,,Indonesia,43021347.0,,,11.828.271,1.245.711.344,https://maps.google.com/?cid=0x0:0x67c3a16048d63adc,
toko bangunan,Toko Bahan Bangunan,Toko Sumber Bangunan Pineleng,"CRGQ+VCG, Jl. Raya Manado Tomohon, Pineleng I, Kec. Pineleng, Kabupaten Minahasa, Sulawesi Utara","Kabupaten Minahasa, Sulawesi Utara",SULAWESI UTARA,,Indonesia,,,,14.271.958,1.248.385.828,https://maps.google.com/?cid=0x0:0x5bfd3a32058d5029,
toko bangunan,Toko Bahan Bangunan,Toko Sumber Mulia,"5HVM+8MV, Jl. Trans Sulawesi, Bitung, Kec. Amurang, Kabupaten Minahasa Selatan, Sulawesi Utara","Kabupaten Minahasa Selatan, Sulawesi Utara",SULAWESI UTARA,,Indonesia,,,,11.933.577,1.245.841.838,https://maps.google.com/?cid=0x0:0xd099b9a3eb3af488,
toko bangunan,Toko Bahan Bangunan,Toko Inti Bangunan,"No.4 B, Jl. Wolter Monginsidi, Malalayang Satu Timur, Kec. Malalayang, Kota Manado, Sulawesi Utara","Kota Manado, Sulawesi Utara",SULAWESI UTARA,,Indonesia,8124403955.0,,,1.458.951,1.248.211.324,https://maps.google.com/?cid=0x0:0xcc8486e0851e5480,
toko bangunan,Toko Bahan Bangunan,Inerie Sarana Bangunan (ISB Tomohon),"Babe Palar, Linkungan 2, Matani Tiga, Kec. Tomohon Tengah, Kota Tomohon, Sulawesi Utara 95443","Linkungan 2, Matani Tiga, Kec. Tomohon Tengah, Kota Tomohon",SULAWESI UTARA,95443.0,Indonesia,82264495550.0,,,13.193.641,1.248.381.357,https://maps.google.com/?cid=0x0:0x9d38674d71755355,
toko bangunan,Toko,Jual bahan bangunan,"Jl. Tahun Depan No.133, Kumelembuai I, Kec. Kumelembuai, Kabupaten Minahasa Selatan, Sulawesi Utara","Kabupaten Minahasa Selatan, Sulawesi Utara",SULAWESI UTARA,,Indonesia,81242035564.0,,,1.088.384,124.493.803,https://maps.google.com/?cid=0x0:0x9235c45c6b8b120a,
toko bangunan,toko bangunan,Toko carmel,"28GC+HJP, Poigar I, Kec. Sinonsayang, Kabupaten Minahasa Selatan, Sulawesi Utara","Kabupaten Minahasa Selatan, Sulawesi Utara",SULAWESI UTARA,,Indonesia,,,,10.264.563,1.243.215.777,https://maps.google.com/?cid=0x0:0x3c10f756b6e36829,
toko bangunan,toko bangunan,Kec. Tareran,"Kabupaten Minahasa Selatan, Sulawesi Utara","Kabupaten Minahasa Selatan, Sulawesi Utara",SULAWESI UTARA,,Indonesia,,,,12.295.372,1.247.372.988,https://maps.google.com/?cid=0x0:0xac5d2c923abab162,
toko bangunan,Toko Bahan Bangunan,Kios Bangunan BERKAT MT,"Jl. Tumpaan - Kawangkoan, Wuwuk, Kec. Tareran, Kabupaten Minahasa Selatan, Sulawesi Utara","Kabupaten Minahasa Selatan, Sulawesi Utara",SULAWESI UTARA,,Indonesia,82145762479.0,,,12.328.138,1.247.065.325,https://maps.google.com/?cid=0x0:0xcb73c6ec35c5a229,
toko bangunan,Toko Bahan Bangunan,Triberkat Toko Bangunan,"FV2M+H3P, Sawangan, Kec. Tombulu, Kabupaten Minahasa, Sulawesi Utara","Kabupaten Minahasa, Sulawesi Utara",SULAWESI UTARA,,Indonesia,,,,14.516.151,1.248.823.958,https://maps.google.com/?cid=0x0:0xb1724ee606aad0ec,
toko bangunan,Toko Perlengkapan Rumah,UD. Kobong Paso,"6P8X+5P8, Kiawa Satu, Kec. Tareran, Kabupaten Minahasa Selatan, Sulawesi Utara","Kabupaten Minahasa Selatan, Sulawesi Utara",SULAWESI UTARA,,Indonesia,,,,12.154.045,1.247.493.235,https://maps.google.com/?cid=0x0:0x44e8d7ddd8ff4e0e,
toko bangunan,Toko Mebel,UD. MEUBEL BANGUNAN BAHTERA RGF.117,"7P2H+W6J, Unnamed Rd, Talaitad, Sulta, Kabupaten Minahasa Selatan, Sulawesi Utara","Kabupaten Minahasa Selatan, Sulawesi Utara",SULAWESI UTARA,,Indonesia,82346841978.0,,,12.523.474,1.247.280.141,https://maps.google.com/?cid=0x0:0xe9b071792eb2d434,
toko bangunan,Toko Bahan Bangunan,Toko SUMBER BERKAT,"Tumpaan Satu, Kec. Tumpaan, Kabupaten Minahasa Selatan, Sulawesi Utara","Kabupaten Minahasa Selatan, Sulawesi Utara",SULAWESI UTARA,,Indonesia,,,,12.442.101,124.614.132,https://maps.google.com/?cid=0x0:0xbbe4e5709d7c77f3,
toko bangunan,Toko Bahan Bangunan,Toko Sri Rejeki Matani,"Matani, Kec. Tumpaan, Kabupaten Minahasa Selatan, Sulawesi Utara","Kabupaten Minahasa Selatan, Sulawesi Utara",SULAWESI UTARA,,Indonesia,89618346200.0,,,1.252.418,1.246.144.647,https://maps.google.com/?cid=0x0:0xb4180618c5f15a4a,
toko bangunan,Pemasok Bahan Bangunan,Toko Bangunan Cendrawasih,"Taler, Tondano Tim., Kabupaten Minahasa, Sulawesi Utara","Kabupaten Minahasa, Sulawesi Utara",SULAWESI UTARA,,Indonesia,81343561691.0,,,12.984.892,1.249.127.644,https://maps.google.com/?cid=0x0:0x563050a595f334a3,
toko bangunan,Toko Bahan Bangunan,TB.MERIBA (Toko Bangunan),"7WX6+4XP, Taler, Tondano Tim., Kabupaten Minahasa, Sulawesi Utara","Kabupaten Minahasa, Sulawesi Utara",SULAWESI UTARA,,Indonesia,85696259199.0,,,12.978.375,1.249.124.531,https://maps.google.com/?cid=0x0:0x92ba361f80294412,
toko bangunan,Toko Bahan Bangunan,Tb. Tataaran,"7VJG+XRR, Jl. Kampus Unima, Tataaran Dua, Kec. Tondano Sel., Kabupaten Minahasa, Sulawesi Utara","Kabupaten Minahasa, Sulawesi Utara",SULAWESI UTARA,,Indonesia,,,,1.282.483,1.248.770.212,https://maps.google.com/?cid=0x0:0x9801a4505864ccfc,
toko bangunan,Toko Bahan Bangunan,Toko Bangunan Tandengan,"Jl. Tondano - Kakas, Tandengan, Kec. Eris, Kabupaten Minahasa, Sulawesi Utara","Kabupaten Minahasa, Sulawesi Utara",SULAWESI UTARA,,Indonesia,,,,12.356.425,1.249.243.613,https://maps.google.com/?cid=0x0:0x5da871fb5996e1d4,
toko bangunan,Toko Bahan Bangunan,Toko sumber terang,"Jl. Ir. Soekarno No.88, Kolongan Tetempangan, Kec. Kalawat, Kabupaten Minahasa Utara, Sulawesi Utara","Kabupaten Minahasa Utara, Sulawesi Utara",SULAWESI UTARA,,Indonesia,89698079913.0,,,14.764.815,1.249.366.244,https://maps.google.com/?cid=0x0:0x804c90914228033c,
toko bangunan,Toko Bahan Bangunan,Toko Bangunan Mitra Jaya,"Jl. Ratahan - Kotamobagu, Wawali, Kec. Ratahan, Kabupaten Minahasa Tenggara, Sulawesi Utara","Kabupaten Minahasa Tenggara, Sulawesi Utara",SULAWESI UTARA,,Indonesia,,,,10.471.382,1.247.996.352,https://maps.google.com/?cid=0x0:0x894ceeaf4489a92b,
toko bangunan,Toko Bahan Bangunan,Toko Bangunan Reliana Kayuuwi Satu,"6Q4F+5W9, Jl. Kayuuwi, Uner, Kec. Kawangkoan Utara, Kabupaten Minahasa, Sulawesi Utara","Kabupaten Minahasa, Sulawesi Utara",SULAWESI UTARA,,Indonesia,,,,12.054.017,1.247.748.647,https://maps.google.com/?cid=0x0:0x2d54d773fb75e204,
toko bangunan,Pasar bahan bangunan,Toko Bangunan Wapon Jaya,"Jl. Sea induk, Sea I, Kec. Pineleng, Kabupaten Minahasa, Sulawesi Utara","Kabupaten Minahasa, Sulawesi Utara",SULAWESI UTARA,,Indonesia,85340309099.0,,,14.291.092,1.247.997.913,https://maps.google.com/?cid=0x0:0x2216e5af37ff6b7a,
toko bangunan,Toko Bahan Bangunan,Toko Tuama RR,"FXGC+676 Jaga 7, Matungkas, Kec. Dimembe, Kabupaten Minahasa Utara, Sulawesi Utara","Kabupaten Minahasa Utara, Sulawesi Utara",SULAWESI UTARA,,Indonesia,,,,14.755.297,1.249.706.454,https://maps.google.com/?cid=0x0:0xf70291edba8cd4ca,
toko bangunan,Toko Bahan Bangunan,CERIA Bahan Bangunan,"Tokin Baru, Kec. Motoling Tim., Kabupaten Minahasa Selatan, Sulawesi Utara","Kabupaten Minahasa Selatan, Sulawesi Utara",SULAWESI UTARA,,Indonesia,82259514549.0,,,10.771.398,1.245.101.005,https://maps.google.com/?cid=0x0:0xdad60601aca07b8,
toko bangunan,Toko Bahan Bangunan,Toko Bangunan Sumber Mas,"6VJ7+Q9H, Jl. Tondano - Kakas, Timu, Kec. Remboken, Kabupaten Minahasa, Sulawesi Utara","Kabupaten Minahasa, Sulawesi Utara",SULAWESI UTARA,,Indonesia,82310002528.0,,,12.319.396,1.248.634.961,https://maps.google.com/?cid=0x0:0x15d858ffa7b9cdcc,
toko bangunan,Toko Bahan Bangunan,Toko Bangunan Chiko Matungkas,"FXF9+7QQ, Jl. Sukur - Likupang, Matungkas, Kec. Dimembe, Kabupaten Minahasa Utara, Sulawesi Utara","Kabupaten Minahasa Utara, Sulawesi Utara",SULAWESI UTARA,,Indonesia,85340940004.0,,,14.732.046,1.249.694.978,https://maps.google.com/?cid=0x0:0xb10a524c66bf6d30,
toko bangunan,Toko Bahan Bangunan,Toko Bangunan Sinar Berkat,"Warembungan, Kec. Pineleng, Kabupaten Minahasa, Sulawesi Utara","Kabupaten Minahasa, Sulawesi Utara",SULAWESI UTARA,,Indonesia,82259753525.0,,,1.417.257,124.821.793,https://maps.google.com/?cid=0x0:0x9454d0623758efea,
toko bangunan,toko bangunan,Kec. Tatapaan,"Kabupaten Minahasa Selatan, Sulawesi Utara","Kabupaten Minahasa Selatan, Sulawesi Utara",SULAWESI UTARA,,Indonesia,,,,12.864.443,1.246.016.444,https://maps.google.com/?cid=0x0:0x2764afda0dd2b42d,
toko bangunan,Toko Bahan Bangunan,Toko Yelbi,"Paslaten Satu, Kec. Tatapaan, Kabupaten Minahasa Selatan, Sulawesi Utara","Kabupaten Minahasa Selatan, Sulawesi Utara",SULAWESI UTARA,,Indonesia,81356403969.0,,,12.885.252,1.245.955.201,https://maps.google.com/?cid=0x0:0x62eb20765fb465f,
toko bangunan,Toko Bahan Bangunan,Toko Bangunan Rajawali,"7JPX+58M, Lelema, Kec. Tumpaan, Kabupaten Minahasa Selatan, Sulawesi Utara","Kabupaten Minahasa Selatan, Sulawesi Utara",SULAWESI UTARA,,Indonesia,,,,12.854.645,1.246.482.886,https://maps.google.com/?cid=0x0:0xad92ba0cc7ba2581,
toko bangunan,toko bangunan,Sulawesi Utara 95355,"Pakuweru, Kec. Tenga, Kabupaten Minahasa Selatan, Sulawesi Utara","Kabupaten Minahasa Selatan, Sulawesi Utara",SULAWESI UTARA,,Indonesia,,,,11.636.763,1.244.326.123,https://maps.google.com/?cid=0x0:0x19db91f9dd28ea10,
toko bangunan,Toko Bahan Bangunan,Toko Bangunan Chiko Matungkas,"FXF9+7QQ, Jl. Sukur - Likupang, Matungkas, Kec. Dimembe, Kabupaten Minahasa Utara, Sulawesi Utara","Kabupaten Minahasa Utara, Sulawesi Utara",SULAWESI UTARA,,Indonesia,85340940004.0,,,14.732.046,1.249.694.978,https://maps.google.com/?cid=0x0:0xb10a524c66bf6d30,
toko bangunan,Toko Bahan Bangunan,Triberkat Toko Bangunan,"FV2M+H3P, Sawangan, Kec. Tombulu, Kabupaten Minahasa, Sulawesi Utara","Kabupaten Minahasa, Sulawesi Utara",SULAWESI UTARA,,Indonesia,,,,14.516.151,1.248.823.958,https://maps.google.com/?cid=0x0:0xb1724ee606aad0ec,
toko bangunan,Toko Bahan Bangunan,TOKO SURYA JAYA,"Matungkas, Kec. Dimembe, Kabupaten Minahasa Utara, Sulawesi Utara","Kabupaten Minahasa Utara, Sulawesi Utara",SULAWESI UTARA,,Indonesia,85761113781.0,,,14.753.625,1.249.663.016,https://maps.google.com/?cid=0x0:0xeb72aa0f66a8a80b,
toko bangunan,Pemasok Bahan Bangunan,Toko Bangunan Cendrawasih,"Taler, Tondano Tim., Kabupaten Minahasa, Sulawesi Utara","Kabupaten Minahasa, Sulawesi Utara",SULAWESI UTARA,,Indonesia,81343561691.0,,,12.984.892,1.249.127.644,https://maps.google.com/?cid=0x0:0x563050a595f334a3,
toko bangunan,Kantor Perusahaan,CV Bangunan Karya Mandiri,"Jl. Trans Sulawesi No.mor 88, Tateli, Kec. Mandolang, Kabupaten Minahasa, Sulawesi Utara 95661","Tateli, Kec. Mandolang, Kabupaten Minahasa",SULAWESI UTARA,95661.0,Indonesia,81389898887.0,,,14.418.019,1.247.530.328,https://maps.google.com/?cid=0x0:0x8c3a90a3b9407031,
toko bangunan,Toko Bahan Bangunan,Matungkas Jaya (Toko Bangunan),"FXGC+67C, Jl. Sukur - Likupang, Matungkas, Kec. Dimembe, Kabupaten Minahasa Utara, Sulawesi Utara","Kabupaten Minahasa Utara, Sulawesi Utara",SULAWESI UTARA,,Indonesia,82333344765.0,,,14.755.556,1.249.706.543,https://maps.google.com/?cid=0x0:0x9356ce9cff86f7f2,
toko bangunan,Toko Bahan Bangunan,Toko Bangunan Tandengan,"Jl. Tondano - Kakas, Tandengan, Kec. Eris, Kabupaten Minahasa, Sulawesi Utara","Kabupaten Minahasa, Sulawesi Utara",SULAWESI UTARA,,Indonesia,,,,12.356.425,1.249.243.613,https://maps.google.com/?cid=0x0:0x5da871fb5996e1d4,
toko bangunan,Toko Bahan Bangunan,Toko Bangunan Sumber Mas,"6VJ7+Q9H, Jl. Tondano - Kakas, Timu, Kec. Remboken, Kabupaten Minahasa, Sulawesi Utara","Kabupaten Minahasa, Sulawesi Utara",SULAWESI UTARA,,Indonesia,82310002528.0,,,12.319.396,1.248.634.961,https://maps.google.com/?cid=0x0:0x15d858ffa7b9cdcc,
toko bangunan,Toko Bahan Bangunan,Toko Bangunan Sukses Bersama,"5R6Q+8JX, Jl. Ps. Baru, Toraget, Kec. Langowan Utara, Kabupaten Minahasa, Sulawesi Utara","Kabupaten Minahasa, Sulawesi Utara",SULAWESI UTARA,,Indonesia,82293003366.0,,,11.608.749,1.248.391.128,https://maps.google.com/?cid=0x0:0x2754dc76559a19d4,
toko bangunan,Toko Bahan Bangunan,TOKO BANGUNAN RIZKY BADAS,"Kawangkoan, Kec. Kalawat, Kabupaten Minahasa Utara, Sulawesi Utara","Kabupaten Minahasa Utara, Sulawesi Utara",SULAWESI UTARA,,Indonesia,81330119059.0,,,14.590.841,1.249.327.088,https://maps.google.com/?cid=0x0:0x99b35880d1e58868,
toko bangunan,Pemasok Bahan Bangunan,Toko Immanuel,"2PFX+6H9, Towuntu, Kec. Pasan, Kabupaten Minahasa Tenggara, Sulawesi Utara","Kabupaten Minahasa Tenggara, Sulawesi Utara",SULAWESI UTARA,,Indonesia,,,,10.230.472,1.247.489.763,https://maps.google.com/?cid=0x0:0x9e0cfb47d8a9b5fd,
toko bangunan,Toko Bahan Bangunan,TB.MERIBA (Toko Bangunan),"7WX6+4XP, Taler, Tondano Tim., Kabupaten Minahasa, Sulawesi Utara","Kabupaten Minahasa, Sulawesi Utara",SULAWESI UTARA,,Indonesia,85696259199.0,,,12.978.375,1.249.124.531,https://maps.google.com/?cid=0x0:0x92ba361f80294412,
toko bangunan,Toko Bahan Bangunan,Toko Bangunan Malak Matungkas,"FXC9+636, Matungkas Jaga X, Kec. Dimembe, Kabupaten Minahasa Utara, Sulawesi Utara","Kabupaten Minahasa Utara, Sulawesi Utara",SULAWESI UTARA,,Indonesia,81356833133.0,,,14.705.375,1.249.676.406,https://maps.google.com/?cid=0x0:0x1c9d1d8d885ff988,
toko bangunan,Toko Bahan Bangunan,Toko Inti Bangunan,"No.4 B, Jl. Wolter Monginsidi, Malalayang Satu Timur, Kec. Malalayang, Kota Manado, Sulawesi Utara","Kota Manado, Sulawesi Utara",SULAWESI UTARA,,Indonesia,8124403955.0,,,1.458.951,1.248.211.324,https://maps.google.com/?cid=0x0:0xcc8486e0851e5480,
toko bangunan,Toko Bahan Bangunan,Toko bangunan,"5R5Q+J2W, Toraget, Kec. Langowan Utara, Kabupaten Minahasa, Sulawesi Utara","Kabupaten Minahasa, Sulawesi Utara",SULAWESI UTARA,,Indonesia,82155762921.0,,,11.591.034,1.248.375.932,https://maps.google.com/?cid=0x0:0x5ffc28d1b23148c6,
toko bangunan,Toko Bahan Bangunan,Toko Sumber Bangunan Pineleng,"CRGQ+VCG, Jl. Raya Manado Tomohon, Pineleng I, Kec. Pineleng, Kabupaten Minahasa, Sulawesi Utara","Kabupaten Minahasa, Sulawesi Utara",SULAWESI UTARA,,Indonesia,,,,14.271.958,1.248.385.828,https://maps.google.com/?cid=0x0:0x5bfd3a32058d5029,
toko bangunan,Toko Bahan Bangunan,Toko Bangunan Mega Karya Jaya,"Unnamed Road, Kinali, Kec. Kawangkoan, Kabupaten Minahasa, Sulawesi Utara","Kabupaten Minahasa, Sulawesi Utara",SULAWESI UTARA,,Indonesia,82348184787.0,,,1.199.471,1.247.916.845,https://maps.google.com/?cid=0x0:0xdcdea5cb2be0bd09,
toko bangunan,Toko Bahan Bangunan,Toko Tuama RR,"FXGC+676 Jaga 7, Matungkas, Kec. Dimembe, Kabupaten Minahasa Utara, Sulawesi Utara","Kabupaten Minahasa Utara, Sulawesi Utara",SULAWESI UTARA,,Indonesia,,,,14.755.297,1.249.706.454,https://maps.google.com/?cid=0x0:0xf70291edba8cd4ca,
toko bangunan,Toko Bahan Bangunan,PT. Wijaya Bangunan,"Jl. Wolter Monginsidi No.124, Bahu, Kec. Malalayang, Kota Manado, Sulawesi Utara 95115","Bahu, Kec. Malalayang, Kota Manado",SULAWESI UTARA,95115.0,Indonesia,431825500.0,,,14.598.762,1.248.227.752,https://maps.google.com/?cid=0x0:0xbe8fd5341adfafe1,
toko bangunan,Toko Swalayan,PAWER Jaya,"Jl. Siswa, Pakuweru, Kec. Tenga, Kabupaten Minahasa Selatan, Sulawesi Utara","Kabupaten Minahasa Selatan, Sulawesi Utara",SULAWESI UTARA,,Indonesia,82194059567.0,,,1.166.382,1.244.332.105,https://maps.google.com/?cid=0x0:0x6c3c3f9a689f694b,
toko bangunan,Toko Bahan Bangunan,Toko Bangunan Sinar Berkat,"Warembungan, Kec. Pineleng, Kabupaten Minahasa, Sulawesi Utara","Kabupaten Minahasa, Sulawesi Utara",SULAWESI UTARA,,Indonesia,82259753525.0,,,1.417.257,124.821.793,https://maps.google.com/?cid=0x0:0x9454d0623758efea,
toko bangunan,Toko Bahan Bangunan,Toko BERKAT,"Jl. Pineleng-Kali, Pineleng I, Kec. Pineleng, Kabupaten Minahasa, Sulawesi Utara","Kabupaten Minahasa, Sulawesi Utara",SULAWESI UTARA,,Indonesia,,,,14.244.889,1.248.417.641,https://maps.google.com/?cid=0x0:0xabdd7527ee3f4bb8,
toko bangunan,Pemasok Bahan Bangunan,Toko Masarang Indah,"Rinegetan, Kec. Tondano Bar., Kabupaten Minahasa, Sulawesi Utara 95617","Kec. Tondano Bar., Kabupaten Minahasa",SULAWESI UTARA,95617.0,Indonesia,87773953145.0,,,13.004.812,1.249.066.597,https://maps.google.com/?cid=0x0:0x2a37c9b8f1befb6f,
toko bangunan,Toko Bahan Bangunan,Toko Bahan Bangunan Cendrawasi Teling,"Jl. 14 Februari No.72, Teling Atas, Kec. Wanea, Kota Manado, Sulawesi Utara","Kota Manado, Sulawesi Utara",SULAWESI UTARA,,Indonesia,81340809138.0,,,14.690.181,1.248.478.735,https://maps.google.com/?cid=0x0:0xb5d5da22cbab2ba5,
toko bangunan,Toko Bahan Bangunan,Toko Dua Jaya Bangunan,"Jaga X Cozy Home, Kios C - 2, Kapitu, Kec. Amurang, Kabupaten Minahasa Selatan, Sulawesi Utara 95955","Kios C - 2, Kapitu, Kec. Amurang, Kabupaten Minahasa Selatan",SULAWESI UTARA,95955.0,Indonesia,8124416363.0,,,11.898.544,1.245.240.643,https://maps.google.com/?cid=0x0:0xa1398874177562c1,
toko bangunan,Toko Bahan Bangunan,Toko Harmoni,"5HMC+4FJ, Buyungon, Kec. Amurang, Kabupaten Minahasa Selatan, Sulawesi Utara","Kabupaten Minahasa Selatan, Sulawesi Utara",SULAWESI UTARA,,Indonesia,43021347.0,,,11.828.271,1.245.711.344,https://maps.google.com/?cid=0x0:0x67c3a16048d63adc,
toko bangunan,Pemasok Bahan Bangunan,Tirta Bangunan Cilangkap Depok,"Jalan Raya Jakarta - Bogor No.Km. 39 No. 06, Cilangkap, Kec. Tapos, Kota Depok, Jawa Barat 16458","Cilangkap, Kec. Tapos, Kota Depok",SULAWESI UTARA,16458.0,Indonesia,218750160.0,,,-6.443.838,106.853.566,https://maps.google.com/?cid=0x0:0xf553fc838aae54b3,
toko bangunan,Toko Bahan Bangunan,TB. Naga Mas,"Jl. KH. Hasyim Ashari, RT.006/RW.013, Sukasari, Kec. Tangerang, Kota Tangerang, Banten 15148","RT.006/RW.013, Sukasari, Kec. Tangerang, Kota Tangerang",SULAWESI UTARA,15148.0,Indonesia,81310432466.0,,,-61.849.137,1.066.446.282,https://maps.google.com/?cid=0x0:0x8ff822a0e5ba9046,
toko bangunan,toko bangunan,Kec. Tompaso Baru,"Kabupaten Minahasa Selatan, Sulawesi Utara","Kabupaten Minahasa Selatan, Sulawesi Utara",SULAWESI UTARA,,Indonesia,,,,0.919931,124.469.716,https://maps.google.com/?cid=0x0:0xd34cfb653da52844,
toko bangunan,Toko,Toko ADA,"WF99+WPF, Unnamed Road, Tompaso Baru Dua, Tompaso Baru, South Minahasa Regency, North Sulawesi","Kabupaten Minahasa Selatan, Sulawesi Utara",SULAWESI UTARA,,Indonesia,81523819736.0,,,0.9198247,1.244.692.993,https://maps.google.com/?cid=0x0:0x3e15f45125ee7a0c,
toko bangunan,Toko Swalayan,TOKO LOURDES MULIA,"WF99+RWF, Tompaso Baru Dua, Kec. Tompaso Baru, Kabupaten Minahasa Selatan, Sulawesi Utara","Kabupaten Minahasa Selatan, Sulawesi Utara",SULAWESI UTARA,,Indonesia,811422273.0,,,0.9195512,1.244.697.817,https://maps.google.com/?cid=0x0:0x59f423fbdbf05f6,
toko bangunan,Toko Bahan Bangunan,Toko Bangunan Chiko Matungkas,"FXF9+7QQ, Jl. Sukur - Likupang, Matungkas, Kec. Dimembe, Kabupaten Minahasa Utara, Sulawesi Utara","Kabupaten Minahasa Utara, Sulawesi Utara",SULAWESI UTARA,,Indonesia,85340940004.0,,,14.732.046,1.249.694.978,https://maps.google.com/?cid=0x0:0xb10a524c66bf6d30,
toko bangunan,Toko Bahan Bangunan,Tk.Tempok Jaya,"5RJ5+G6M, Jalan, Talikuran, Tompaso, Minahasa Regency, North Sulawesi","Kabupaten Minahasa, Sulawesi Utara",SULAWESI UTARA,,Indonesia,,,,11.813.482,1.248.080.434,https://maps.google.com/?cid=0x0:0xeac77121833adbf8,
toko bangunan,Toko Bahan Bangunan,TOKO BANGUNAN RIZKY BADAS,"Kawangkoan, Kec. Kalawat, Kabupaten Minahasa Utara, Sulawesi Utara","Kabupaten Minahasa Utara, Sulawesi Utara",SULAWESI UTARA,,Indonesia,81330119059.0,,,14.590.841,1.249.327.088,https://maps.google.com/?cid=0x0:0x99b35880d1e58868,
toko bangunan,Toko Bahan Bangunan,Toko Wat Nam Jaya,"5RJ2+X8J, Talikuran, Kec. Tompaso, Kabupaten Minahasa, Sulawesi Utara","Kabupaten Minahasa, Sulawesi Utara",SULAWESI UTARA,,Indonesia,,,,11.820.917,1.248.012.529,https://maps.google.com/?cid=0x0:0xd935a006e7339c44,
toko bangunan,Pasar bahan bangunan,Toko Bangunan Wapon Jaya,"Jl. Sea induk, Sea I, Kec. Pineleng, Kabupaten Minahasa, Sulawesi Utara","Kabupaten Minahasa, Sulawesi Utara",SULAWESI UTARA,,Indonesia,85340309099.0,,,14.291.092,1.247.997.913,https://maps.google.com/?cid=0x0:0x2216e5af37ff6b7a,
toko bangunan,Toko Bahan Bangunan,TOKO SURYA JAYA,"Matungkas, Kec. Dimembe, Kabupaten Minahasa Utara, Sulawesi Utara","Kabupaten Minahasa Utara, Sulawesi Utara",SULAWESI UTARA,,Indonesia,85761113781.0,,,14.753.625,1.249.663.016,https://maps.google.com/?cid=0x0:0xeb72aa0f66a8a80b,
toko bangunan,Toko Bahan Bangunan,Toko Bangunan Sumber Mas,"6VJ7+Q9H, Jl. Tondano - Kakas, Timu, Kec. Remboken, Kabupaten Minahasa, Sulawesi Utara","Kabupaten Minahasa, Sulawesi Utara",SULAWESI UTARA,,Indonesia,82310002528.0,,,12.319.396,1.248.634.961,https://maps.google.com/?cid=0x0:0x15d858ffa7b9cdcc,
toko bangunan,Toko,toko bangunan hj muhlis,"XQ2W+V7R, Jl. Ratahan - Kotamobagu, Ponosakan Indah, Kec. Belang, Kabupaten Minahasa Tenggara, Sulawesi Utara 95997","Jl. Ratahan - Kotamobagu, Ponosakan Indah, Kec. Belang, Kabupaten Minahasa Tenggara",SULAWESI UTARA,95997.0,Indonesia,,,,0.9522386,1.247.956.411,https://maps.google.com/?cid=0x0:0xa87b203b7e160b19,
toko bangunan,Toko Bahan Bangunan,Toko Bangunan Sukses Bersama,"5R6Q+8JX, Jl. Ps. Baru, Toraget, Kec. Langowan Utara, Kabupaten Minahasa, Sulawesi Utara","Kabupaten Minahasa, Sulawesi Utara",SULAWESI UTARA,,Indonesia,82293003366.0,,,11.608.749,1.248.391.128,https://maps.google.com/?cid=0x0:0x2754dc76559a19d4,
toko bangunan,Toko Bahan Bangunan,TB. 153 (Toko Bangunan Satu Lima Tiga),"GVFH+V5H, Jl. Raya Politeknik, Buha, Kec. Mapanget, Kota Manado, Sulawesi Utara 95252","Jl. Raya Politeknik, Buha, Kec. Mapanget, Kota Manado",SULAWESI UTARA,95252.0,Indonesia,81290000153.0,,,15.247.063,1.248.779.476,https://maps.google.com/?cid=0x0:0x12f0b63f35c41634,
toko bangunan,Pemasok Bahan Bangunan,Toko Immanuel,"2PFX+6H9, Towuntu, Kec. Pasan, Kabupaten Minahasa Tenggara, Sulawesi Utara","Kabupaten Minahasa Tenggara, Sulawesi Utara",SULAWESI UTARA,,Indonesia,,,,10.230.472,1.247.489.763,https://maps.google.com/?cid=0x0:0x9e0cfb47d8a9b5fd,
toko bangunan,Pemasok Bahan Bangunan,Toko Bangunan Cendrawasih,"Taler, Tondano Tim., Kabupaten Minahasa, Sulawesi Utara","Kabupaten Minahasa, Sulawesi Utara",SULAWESI UTARA,,Indonesia,81343561691.0,,,12.984.892,1.249.127.644,https://maps.google.com/?cid=0x0:0x563050a595f334a3,
toko bangunan,Toko,TOKO BANGUNAN SINAR RATATOTOK,"Ratatotok Dua, Kec. Ratatotok, Kabupaten Minahasa Tenggara, Sulawesi Utara 95997","Kec. Ratatotok, Kabupaten Minahasa Tenggara",SULAWESI UTARA,95997.0,Indonesia,81242418185.0,,,0.8683082,1.247.007.802,https://maps.google.com/?cid=0x0:0x5c52589d2559d075,
toko bangunan,Toko Bahan Bangunan,TB.MERIBA (Toko Bangunan),"7WX6+4XP, Taler, Tondano Tim., Kabupaten Minahasa, Sulawesi Utara","Kabupaten Minahasa, Sulawesi Utara",SULAWESI UTARA,,Indonesia,85696259199.0,,,12.978.375,1.249.124.531,https://maps.google.com/?cid=0x0:0x92ba361f80294412,
toko bangunan,Toko,Toko Tunas Sumber Rejeki,"FR59+FR4, Jl. Wolter Monginsidi, Malalayang Satu Timur, Kec. Malalayang, Kota Manado, Sulawesi Utara","Kota Manado, Sulawesi Utara",SULAWESI UTARA,,Indonesia,,,,14.586.487,1.248.195.715,https://maps.google.com/?cid=0x0:0xf07852b406aced6e,
toko bangunan,Toko Bahan Bangunan,Toko bangunan,"5R5Q+J2W, Toraget, Kec. Langowan Utara, Kabupaten Minahasa, Sulawesi Utara","Kabupaten Minahasa, Sulawesi Utara",SULAWESI UTARA,,Indonesia,82155762921.0,,,11.591.034,1.248.375.932,https://maps.google.com/?cid=0x0:0x5ffc28d1b23148c6,
toko bangunan,Toko Bahan Bangunan,Toko Inti Bangunan,"No.4 B, Jl. Wolter Monginsidi, Malalayang Satu Timur, Kec. Malalayang, Kota Manado, Sulawesi Utara","Kota Manado, Sulawesi Utara",SULAWESI UTARA,,Indonesia,8124403955.0,,,1.458.951,1.248.211.324,https://maps.google.com/?cid=0x0:0xcc8486e0851e5480,
toko bangunan,Kedai Kopi,Pasar Tompaso Baru,"WF98+MH6, Pinaesaan, Kec. Tompaso Baru, Kabupaten Minahasa Selatan, Sulawesi Utara","Kabupaten Minahasa Selatan, Sulawesi Utara",SULAWESI UTARA,,Indonesia,,,,0.9191603,1.244.663.832,https://maps.google.com/?cid=0x0:0xa7f6acc54f935cbf,
toko bangunan,Toko Swalayan,Toko OKSPEL Tompasobaru,"WF99+CRW, Tompaso Baru Dua, Kec. Tompaso Baru, Kabupaten Minahasa Selatan, Sulawesi Utara","Kabupaten Minahasa Selatan, Sulawesi Utara",SULAWESI UTARA,,Indonesia,,,,0.9186182,1.244.695.701,https://maps.google.com/?cid=0x0:0xff5f6dc1c3c3a95,
toko bangunan,Masjid,Mesjid Babussalam,"WF99+62W, Tompaso Baru Dua, Kec. Tompaso Baru, Kabupaten Minahasa Selatan, Sulawesi Utara","Kabupaten Minahasa Selatan, Sulawesi Utara",SULAWESI UTARA,,Indonesia,,,,0.9181134,1.244.675.707,https://maps.google.com/?cid=0x0:0x73169bc0ece3a00f,
toko bangunan,Toko Bahan Bangunan,Lokon Bangunan,"Walian, Kec. Tomohon Sel., Kota Tomohon, Sulawesi Utara","Kota Tomohon, Sulawesi Utara",SULAWESI UTARA,,Indonesia,,,,13.121.072,1.248.377.988,https://maps.google.com/?cid=0x0:0x944037bebd3943d9,
toko bangunan,Toko Bahan Bangunan,Inerie Sarana Bangunan (ISB Tomohon),"Babe Palar, Linkungan 2, Matani Tiga, Kec. Tomohon Tengah, Kota Tomohon, Sulawesi Utara 95443","Linkungan 2, Matani Tiga, Kec. Tomohon Tengah, Kota Tomohon",SULAWESI UTARA,95443.0,Indonesia,82264495550.0,,,13.193.641,1.248.381.357,https://maps.google.com/?cid=0x0:0x9d38674d71755355,
toko bangunan,Toko Bahan Bangunan,Toko Bangunan Tandengan,"Jl. Tondano - Kakas, Tandengan, Kec. Eris, Kabupaten Minahasa, Sulawesi Utara","Kabupaten Minahasa, Sulawesi Utara",SULAWESI UTARA,,Indonesia,,,,12.356.425,1.249.243.613,https://maps.google.com/?cid=0x0:0x5da871fb5996e1d4,
toko bangunan,Toko Bahan Bangunan,Toko Sumber Bangunan Pineleng,"CRGQ+VCG, Jl. Raya Manado Tomohon, Pineleng I, Kec. Pineleng, Kabupaten Minahasa, Sulawesi Utara","Kabupaten Minahasa, Sulawesi Utara",SULAWESI UTARA,,Indonesia,,,,14.271.958,1.248.385.828,https://maps.google.com/?cid=0x0:0x5bfd3a32058d5029,
toko bangunan,Toko Swalayan,UD SUNNY,"WF2C+QWH, Tumani, Kec. Maesaan, Kabupaten Minahasa Selatan, Sulawesi Utara","Kabupaten Minahasa Selatan, Sulawesi Utara",SULAWESI UTARA,,Indonesia,82189272226.0,,,0.9019362,1.244.723.704,https://maps.google.com/?cid=0x0:0x709433dc198dc4f0,
toko bangunan,Toko Bahan Bangunan,Plaza Bangunan Electronic Manado,"Jl. Sisingamangaraja No. 45 Calaca Wenang, Calaca, Manado, Kota Manado, Sulawesi Utara","Kota Manado, Sulawesi Utara",SULAWESI UTARA,,Indonesia,811439919.0,,,1.495.271,124.843.111,https://maps.google.com/?cid=0x0:0x7dcd95c89ffc45f,
toko bangunan,toko bangunan,Tumpaan,"Tumpaan, Kec. Tumpaan, Kabupaten Minahasa Selatan, Sulawesi Utara","Kabupaten Minahasa Selatan, Sulawesi Utara",SULAWESI UTARA,,Indonesia,,,,1.238.996,1.246.175,https://maps.google.com/?cid=0x0:0xa5bfed7e82c26c62,
toko bangunan,Toko Bahan Bangunan,Toko SUMBER BERKAT,"Tumpaan Satu, Kec. Tumpaan, Kabupaten Minahasa Selatan, Sulawesi Utara","Kabupaten Minahasa Selatan, Sulawesi Utara",SULAWESI UTARA,,Indonesia,,,,12.442.101,124.614.132,https://maps.google.com/?cid=0x0:0xbbe4e5709d7c77f3,
toko bangunan,Toko Bahan Bangunan,Toko Sri Rejeki Matani,"Matani, Kec. Tumpaan, Kabupaten Minahasa Selatan, Sulawesi Utara","Kabupaten Minahasa Selatan, Sulawesi Utara",SULAWESI UTARA,,Indonesia,89618346200.0,,,1.252.418,1.246.144.647,https://maps.google.com/?cid=0x0:0xb4180618c5f15a4a,
toko bangunan,Toko Bahan Bangunan,HA SAMPURNA (Toko Poso),"Jl.Tumpaan-Tareran Jaga 5 Tumpaan Satu Kecamatan Tumpaan, Tumpaan Satu, Kec. Amurang, Kabupaten Minahasa Selatan, Sulawesi Utara 95352","Tumpaan Satu, Kec. Amurang, Kabupaten Minahasa Selatan",SULAWESI UTARA,95352.0,Indonesia,85398882153.0,,,12.405.259,1.246.144.915,https://maps.google.com/?cid=0x0:0x9cce63f2769b082e,
toko bangunan,Toko Bahan Bangunan,Triberkat Toko Bangunan,"FV2M+H3P, Sawangan, Kec. Tombulu, Kabupaten Minahasa, Sulawesi Utara","Kabupaten Minahasa, Sulawesi Utara",SULAWESI UTARA,,Indonesia,,,,14.516.151,1.248.823.958,https://maps.google.com/?cid=0x0:0xb1724ee606aad0ec,
toko bangunan,Pasar bahan bangunan,Toko Bangunan Wapon Jaya,"Jl. Sea induk, Sea I, Kec. Pineleng, Kabupaten Minahasa, Sulawesi Utara","Kabupaten Minahasa, Sulawesi Utara",SULAWESI UTARA,,Indonesia,85340309099.0,,,14.291.092,1.247.997.913,https://maps.google.com/?cid=0x0:0x2216e5af37ff6b7a,
toko bangunan,Toko Bahan Bangunan,Kios Bangunan BERKAT MT,"Jl. Tumpaan - Kawangkoan, Wuwuk, Kec. Tareran, Kabupaten Minahasa Selatan, Sulawesi Utara","Kabupaten Minahasa Selatan, Sulawesi Utara",SULAWESI UTARA,,Indonesia,82145762479.0,,,12.328.138,1.247.065.325,https://maps.google.com/?cid=0x0:0xcb73c6ec35c5a229,
toko bangunan,Toko Bahan Bangunan,Toko Sumber Mulia,"5HVM+8MV, Jl. Trans Sulawesi, Bitung, Kec. Amurang, Kabupaten Minahasa Selatan, Sulawesi Utara","Kabupaten Minahasa Selatan, Sulawesi Utara",SULAWESI UTARA,,Indonesia,,,,11.933.577,1.245.841.838,https://maps.google.com/?cid=0x0:0xd099b9a3eb3af488,
toko bangunan,Pemasok Bahan Bangunan,Toko Bangunan Cendrawasih,"Taler, Tondano Tim., Kabupaten Minahasa, Sulawesi Utara","Kabupaten Minahasa, Sulawesi Utara",SULAWESI UTARA,,Indonesia,81343561691.0,,,12.984.892,1.249.127.644,https://maps.google.com/?cid=0x0:0x563050a595f334a3,
toko bangunan,Toko Bahan Bangunan,TB.MERIBA (Toko Bangunan),"7WX6+4XP, Taler, Tondano Tim., Kabupaten Minahasa, Sulawesi Utara","Kabupaten Minahasa, Sulawesi Utara",SULAWESI UTARA,,Indonesia,85696259199.0,,,12.978.375,1.249.124.531,https://maps.google.com/?cid=0x0:0x92ba361f80294412,
hardware store,hardware store,Kec. Amurang,"Kabupaten Minahasa Selatan, Sulawesi Utara","Kabupaten Minahasa Selatan, Sulawesi Utara",SULAWESI UTARA,,Indonesia,,,,11.846.911,124.575.545,https://maps.google.com/?cid=0x0:0xc0ecc4637a3a0d02,
hardware store,Toko Bahan Bangunan,CV. MENARA UTAMA BANGUNAN,"Jl. Trans Sulawesi No.Kelurahan, Lewet, Kec. Amurang, Kabupaten Minahasa Selatan, Sulawesi Utara","Kabupaten Minahasa Selatan, Sulawesi Utara",SULAWESI UTARA,,Indonesia,4302420508.0,,,118.682,1.245.776.036,https://maps.google.com/?cid=0x0:0x534b70b8f741cbf0,
hardware store,Toko Elektronik,Anugerah Computer,"5HRJ+MVR, Lingk V Jl. Trans Sulawesi No.200, Bitung, Kec. Amurang, Kabupaten Minahasa Selatan, Sulawesi Utara 95954","Lingk V Jl. Trans Sulawesi No.200, Bitung, Kec. Amurang, Kabupaten Minahasa Selatan",SULAWESI UTARA,95954.0,Indonesia,81340787778.0,,,11.921.659,1.245.824.284,https://maps.google.com/?cid=0x0:0xb123f013f84f7be9,
hardware store,Toko Ponsel,Parafone Amurang,"Uwuran Satu, Kec. Amurang, Kabupaten Minahasa Selatan, Sulawesi Utara","Kabupaten Minahasa Selatan, Sulawesi Utara",SULAWESI UTARA,,Indonesia,,,,11.834.153,1.245.726.427,https://maps.google.com/?cid=0x0:0xb6afca104e4db09e,
hardware store,Toko,Toko GRAND HARDWARE,"CXJH+22P, Sarongsong I, Kec. Airmadidi, Kabupaten Minahasa Utara, Sulawesi Utara","Kabupaten Minahasa Utara, Sulawesi Utara",SULAWESI UTARA,,Indonesia,,,,14.300.932,1.249.775.741,https://maps.google.com/?cid=0x0:0xd5bea6e4e94329b1,
hardware store,Toko Akuarium,ABG PET SHOP AMURANG,"5HWP+5FF, Jl. Trans Sulawesi, Ranomea, Kec. Amurang Tim., Kabupaten Minahasa Selatan, Sulawesi Utara","Kabupaten Minahasa Selatan, Sulawesi Utara",SULAWESI UTARA,,Indonesia,8114301107.0,,,11.954.258,1.245.861.638,https://maps.google.com/?cid=0x0:0xe5032e0ea4793495,
hardware store,Toko,Istana Sepeda Amurang,"Uwuran Satu, Kec. Amurang, Kabupaten Minahasa Selatan, Sulawesi Utara","Kabupaten Minahasa Selatan, Sulawesi Utara",SULAWESI UTARA,,Indonesia,43022899.0,,,11.833.991,1.245.726.922,https://maps.google.com/?cid=0x0:0x10c3d4f92acb5e2c,
hardware store,Toko Suku Cadang Mobil,HINO PARTS SHOP TIGA SAUDARA,"Jl. Trans Sulawesi Amurang Buyungon Selatan, Bitung, Amurang, South Minahasa Regency, North Sulawesi 95928","Bitung, Amurang, South Minahasa Regency",SULAWESI UTARA,95928.0,Indonesia,431833842.0,,,1.189.916,1.245.804.808,https://maps.google.com/?cid=0x0:0x2b25744ac87d8208,
hardware store,Toko Elektronik,Benua Electronic Sentra Amurang,"5HMF+F97, Uwuran Satu, Kec. Amurang, Kabupaten Minahasa Selatan, Sulawesi Utara","Kabupaten Minahasa Selatan, Sulawesi Utara",SULAWESI UTARA,,Indonesia,81143300388.0,,,11.836.658,1.245.734.261,https://maps.google.com/?cid=0x0:0x912512fbc937c209,
hardware store,Toko Rokok Elektrik,Amg vapestore,"5HMC+7RV, Jl. Trans Sulawesi, Bitung, Kec. Amurang, Kabupaten Minahasa Selatan, Sulawesi Utara 95354","Jl. Trans Sulawesi, Bitung, Kec. Amurang, Kabupaten Minahasa Selatan",SULAWESI UTARA,95354.0,Indonesia,8996788208.0,,,11.930.425,1.245.834.235,https://maps.google.com/?cid=0x0:0x1f3dcad38ec748b7,
hardware store,ATM,Bank SULUT Amurang,"5HMG+Q66, Jl. Trans Sulawesi, Uwuran Dua, Kec. Amurang, Kabupaten Minahasa Selatan, Sulawesi Utara","Kabupaten Minahasa Selatan, Sulawesi Utara",SULAWESI UTARA,,Indonesia,43021313.0,,,11.844.034,124.575.508,https://maps.google.com/?cid=0x0:0xa5b78486114f0acf,
hardware store,Apotek,Apotek Agape,"5HMF+C4R, Uwuran Satu, Kec. Amurang, Kabupaten Minahasa Selatan, Sulawesi Utara","Kabupaten Minahasa Selatan, Sulawesi Utara",SULAWESI UTARA,,Indonesia,43021004.0,,,11.836.012,1.245.727.502,https://maps.google.com/?cid=0x0:0x31a4d5d305b32d92,
hardware store,Dapur Umum,kios tanta maya,"amurang, Kec. Amurang, Sulawesi Utara 95954",Kec. Amurang,SULAWESI UTARA,95954.0,Indonesia,,,,11.998.081,1.245.863.671,https://maps.google.com/?cid=0x0:0x1811c813582c84df,
hardware store,Toko Bahan Bangunan,Toko bangunan RAJAWALI C.H,"Jl. Trans Sulawesi, Kapitu, Kec. Amurang Bar., Kabupaten Minahasa Selatan, Sulawesi Utara 93554","Kapitu, Kec. Amurang Bar., Kabupaten Minahasa Selatan",SULAWESI UTARA,93554.0,Indonesia,82190574066.0,,,11.871.514,1.245.137.701,https://maps.google.com/?cid=0x0:0xcfa60640318c2d82,
hardware store,Toko Perlengkapan Rumah,Grand Hardware,"Komplek Marina Plaza Blok B No. 7-10, Jl. Piere Tendean Boulevard,manado, Manado, Sulawesi Utara, 95111","Jl. Piere Tendean Boulevard,manado, Manado",SULAWESI UTARA,95111.0,Indonesia,85255443510.0,,,14.924.543,124.838.346,https://maps.google.com/?cid=0x0:0x513c63d19209ca5,
hardware store,Kantor Pajak,Kantor Bersama Samsat Amurang,"6H5V+VV9, Pondang, Kec. Amurang Tim., Kabupaten Minahasa Selatan, Sulawesi Utara","Kabupaten Minahasa Selatan, Sulawesi Utara",SULAWESI UTARA,,Indonesia,,,,12.096.516,1.245.947.442,https://maps.google.com/?cid=0x0:0x7959bb5b186864d,
hardware store,Toko,Tri Putra Gorden,"5HMF+F2R, Jl. Trans Sulawesi, komplek pertokoan, Kec. Amurang, Amuranh, Sulawesi Utara 95954","Jl. Trans Sulawesi, komplek pertokoan, Kec. Amurang, Amuranh",SULAWESI UTARA,95954.0,Indonesia,85321333004.0,,,1.183.729,124.572.508,https://maps.google.com/?cid=0x0:0x8043a16360877450,
hardware store,Toko Perlengkapan Rumah,MR.DIY Amurang,"Uwuran Satu, Kec. Amurang, Kabupaten Minahasa Selatan, Sulawesi Utara","Kabupaten Minahasa Selatan, Sulawesi Utara",SULAWESI UTARA,,Indonesia,,,,11.835.004,1.245.734.617,https://maps.google.com/?cid=0x0:0x2b511c7f8dd882f3,
hardware store,hardware store,Kec. Amurang Bar.,"Kabupaten Minahasa Selatan, Sulawesi Utara","Kabupaten Minahasa Selatan, Sulawesi Utara",SULAWESI UTARA,,Indonesia,,,,11.867.785,1.245.164.503,https://maps.google.com/?cid=0x0:0x96cf76748db66f92,
hardware store,Toko Perlengkapan Rumah,MR.DIY Amurang,"Uwuran Satu, Kec. Amurang, Kabupaten Minahasa Selatan, Sulawesi Utara","Kabupaten Minahasa Selatan, Sulawesi Utara",SULAWESI UTARA,,Indonesia,,,,11.835.004,1.245.734.617,https://maps.google.com/?cid=0x0:0x2b511c7f8dd882f3,
hardware store,Toko Bahan Bangunan,Toko Harmoni,"5HMC+4FJ, Buyungon, Kec. Amurang, Kabupaten Minahasa Selatan, Sulawesi Utara","Kabupaten Minahasa Selatan, Sulawesi Utara",SULAWESI UTARA,,Indonesia,43021347.0,,,11.828.271,1.245.711.344,https://maps.google.com/?cid=0x0:0x67c3a16048d63adc,
hardware store,Toko Elektronik,Anugerah Computer,"5HRJ+MVR, Lingk V Jl. Trans Sulawesi No.200, Bitung, Kec. Amurang, Kabupaten Minahasa Selatan, Sulawesi Utara 95954","Lingk V Jl. Trans Sulawesi No.200, Bitung, Kec. Amurang, Kabupaten Minahasa Selatan",SULAWESI UTARA,95954.0,Indonesia,81340787778.0,,,11.921.659,1.245.824.284,https://maps.google.com/?cid=0x0:0xb123f013f84f7be9,
hardware store,Toko Bahan Bangunan,Toko bangunan RAJAWALI C.H,"Jl. Trans Sulawesi, Kapitu, Kec. Amurang Bar., Kabupaten Minahasa Selatan, Sulawesi Utara 93554","Kapitu, Kec. Amurang Bar., Kabupaten Minahasa Selatan",SULAWESI UTARA,93554.0,Indonesia,82190574066.0,,,11.871.514,1.245.137.701,https://maps.google.com/?cid=0x0:0xcfa60640318c2d82,
hardware store,Toko Elektronik,Benua Electronic Sentra Amurang,"5HMF+F97, Uwuran Satu, Kec. Amurang, Kabupaten Minahasa Selatan, Sulawesi Utara","Kabupaten Minahasa Selatan, Sulawesi Utara",SULAWESI UTARA,,Indonesia,81143300388.0,,,11.836.658,1.245.734.261,https://maps.google.com/?cid=0x0:0x912512fbc937c209,
hardware store,Toko Bahan Bangunan,Toko Dua Jaya Bangunan,"Jaga X Cozy Home, Kios C - 2, Kapitu, Kec. Amurang, Kabupaten Minahasa Selatan, Sulawesi Utara 95955","Kios C - 2, Kapitu, Kec. Amurang, Kabupaten Minahasa Selatan",SULAWESI UTARA,95955.0,Indonesia,8124416363.0,,,11.898.544,1.245.240.643,https://maps.google.com/?cid=0x0:0xa1398874177562c1,
hardware store,Toko bahan makanan,Mekar Store,"Uwuran Satu, Kec. Amurang, Kabupaten Minahasa Selatan, Sulawesi Utara","Kabupaten Minahasa Selatan, Sulawesi Utara",SULAWESI UTARA,,Indonesia,81356291613.0,,,11.836.319,1.245.736.835,https://maps.google.com/?cid=0x0:0xe50c3522a245117d,
hardware store,Toko,Toko GRAND HARDWARE,"CXJH+22P, Sarongsong I, Kec. Airmadidi, Kabupaten Minahasa Utara, Sulawesi Utara","Kabupaten Minahasa Utara, Sulawesi Utara",SULAWESI UTARA,,Indonesia,,,,14.300.932,1.249.775.741,https://maps.google.com/?cid=0x0:0xd5bea6e4e94329b1,
hardware store,Toko Akuarium,ABG PET SHOP AMURANG,"5HWP+5FF, Jl. Trans Sulawesi, Ranomea, Kec. Amurang Tim., Kabupaten Minahasa Selatan, Sulawesi Utara","Kabupaten Minahasa Selatan, Sulawesi Utara",SULAWESI UTARA,,Indonesia,8114301107.0,,,11.954.258,1.245.861.638,https://maps.google.com/?cid=0x0:0xe5032e0ea4793495,
hardware store,Toko,Istana Sepeda Amurang,"Uwuran Satu, Kec. Amurang, Kabupaten Minahasa Selatan, Sulawesi Utara","Kabupaten Minahasa Selatan, Sulawesi Utara",SULAWESI UTARA,,Indonesia,43022899.0,,,11.833.991,1.245.726.922,https://maps.google.com/?cid=0x0:0x10c3d4f92acb5e2c,
hardware store,Toko Suku Cadang Mobil,HINO PARTS SHOP TIGA SAUDARA,"Jl. Trans Sulawesi Amurang Buyungon Selatan, Bitung, Amurang, South Minahasa Regency, North Sulawesi 95928","Bitung, Amurang, South Minahasa Regency",SULAWESI UTARA,95928.0,Indonesia,431833842.0,,,1.189.916,1.245.804.808,https://maps.google.com/?cid=0x0:0x2b25744ac87d8208,
hardware store,Toko Ponsel,JShop Amurang,"gereja GMIM, Jl. Lelengboto Masuk lorong depan, RW.Lingk.12, Buyungon, Kec. Amurang, Kabupaten Minahasa Selatan, Sulawesi Utara 95954","Jl. Lelengboto Masuk lorong depan, RW.Lingk.12, Buyungon, Kec. Amurang, Kabupaten Minahasa Selatan",SULAWESI UTARA,95954.0,Indonesia,85156751563.0,,,11.791.085,1.245.675.146,https://maps.google.com/?cid=0x0:0x1eb2eda311c85907,
hardware store,hardware store,Kec. Amurang Tim.,"Kabupaten Minahasa Selatan, Sulawesi Utara","Kabupaten Minahasa Selatan, Sulawesi Utara",SULAWESI UTARA,,Indonesia,,,,11.982.239,1.245.867.155,https://maps.google.com/?cid=0x0:0xb4cfe2dd829f0d3b,
hardware store,Toko Perlengkapan Rumah,MR.DIY Amurang,"Uwuran Satu, Kec. Amurang, Kabupaten Minahasa Selatan, Sulawesi Utara","Kabupaten Minahasa Selatan, Sulawesi Utara",SULAWESI UTARA,,Indonesia,,,,11.835.004,1.245.734.617,https://maps.google.com/?cid=0x0:0x2b511c7f8dd882f3,
hardware store,Toko Elektronik,Anugerah Computer,"5HRJ+MVR, Lingk V Jl. Trans Sulawesi No.200, Bitung, Kec. Amurang, Kabupaten Minahasa Selatan, Sulawesi Utara 95954","Lingk V Jl. Trans Sulawesi No.200, Bitung, Kec. Amurang, Kabupaten Minahasa Selatan",SULAWESI UTARA,95954.0,Indonesia,81340787778.0,,,11.921.659,1.245.824.284,https://maps.google.com/?cid=0x0:0xb123f013f84f7be9,
hardware store,Toko Bahan Bangunan,Toko Harmoni,"5HMC+4FJ, Buyungon, Kec. Amurang, Kabupaten Minahasa Selatan, Sulawesi Utara","Kabupaten Minahasa Selatan, Sulawesi Utara",SULAWESI UTARA,,Indonesia,43021347.0,,,11.828.271,1.245.711.344,https://maps.google.com/?cid=0x0:0x67c3a16048d63adc,
hardware store,Toko,Toko GRAND HARDWARE,"CXJH+22P, Sarongsong I, Kec. Airmadidi, Kabupaten Minahasa Utara, Sulawesi Utara","Kabupaten Minahasa Utara, Sulawesi Utara",SULAWESI UTARA,,Indonesia,,,,14.300.932,1.249.775.741,https://maps.google.com/?cid=0x0:0xd5bea6e4e94329b1,
hardware store,Toko Suku Cadang Mobil,HINO PARTS SHOP TIGA SAUDARA,"Jl. Trans Sulawesi Amurang Buyungon Selatan, Bitung, Amurang, South Minahasa Regency, North Sulawesi 95928","Bitung, Amurang, South Minahasa Regency",SULAWESI UTARA,95928.0,Indonesia,431833842.0,,,1.189.916,1.245.804.808,https://maps.google.com/?cid=0x0:0x2b25744ac87d8208,
hardware store,hardware store,Kec. Kumelembuai,"Kabupaten Minahasa Selatan, Sulawesi Utara","Kabupaten Minahasa Selatan, Sulawesi Utara",SULAWESI UTARA,,Indonesia,,,,10.871.129,1.244.894.698,https://maps.google.com/?cid=0x0:0xa2d03c63ae50dad,
hardware store,Toko,Jual bahan bangunan,"Jl. Tahun Depan No.133, Kumelembuai I, Kec. Kumelembuai, Kabupaten Minahasa Selatan, Sulawesi Utara","Kabupaten Minahasa Selatan, Sulawesi Utara",SULAWESI UTARA,,Indonesia,81242035564.0,,,1.088.384,124.493.803,https://maps.google.com/?cid=0x0:0x9235c45c6b8b120a,
hardware store,Toko Bahan Bangunan,CERIA Bahan Bangunan,"Tokin Baru, Kec. Motoling Tim., Kabupaten Minahasa Selatan, Sulawesi Utara","Kabupaten Minahasa Selatan, Sulawesi Utara",SULAWESI UTARA,,Indonesia,82259514549.0,,,10.771.398,1.245.101.005,https://maps.google.com/?cid=0x0:0xdad60601aca07b8,
hardware store,hardware store,Kec. Maesaan,"Kabupaten Minahasa Selatan, Sulawesi Utara","Kabupaten Minahasa Selatan, Sulawesi Utara",SULAWESI UTARA,,Indonesia,,,,0.8779406,1.244.741.741,https://maps.google.com/?cid=0x0:0x7b9cfccbb759dc4d,
hardware store,Toko,Toko GRAND HARDWARE,"CXJH+22P, Sarongsong I, Kec. Airmadidi, Kabupaten Minahasa Utara, Sulawesi Utara","Kabupaten Minahasa Utara, Sulawesi Utara",SULAWESI UTARA,,Indonesia,,,,14.300.932,1.249.775.741,https://maps.google.com/?cid=0x0:0xd5bea6e4e94329b1,
hardware store,Toko Perlengkapan Rumah,Grand Hardware,"Komplek Marina Plaza Blok B No. 7-10, Jl. Piere Tendean Boulevard,manado, Manado, Sulawesi Utara, 95111","Jl. Piere Tendean Boulevard,manado, Manado",SULAWESI UTARA,95111.0,Indonesia,85255443510.0,,,14.924.543,124.838.346,https://maps.google.com/?cid=0x0:0x513c63d19209ca5,
hardware store,Toko Perlengkapan Rumah,Toko MK Houseware Kairagi,"FVWG+8M3, Kairagi Weru, Kec. Tikala, Kota Manado, Sulawesi Utara","Kota Manado, Sulawesi Utara",SULAWESI UTARA,,Indonesia,82353999088.0,,,14.957.594,1.248.767.065,https://maps.google.com/?cid=0x0:0x92700432d9de762e,
hardware store,Toko Bahan Bangunan,UD. Ria Jaya,"Sukur, Kec. Airmadidi, Kabupaten Minahasa Utara, Sulawesi Utara","Kabupaten Minahasa Utara, Sulawesi Utara",SULAWESI UTARA,,Indonesia,811409476.0,,,14.503.394,1.249.601.121,https://maps.google.com/?cid=0x0:0x7edd56340f1e2460,
hardware store,Toko Bahan Bangunan,TOKO BANGUNAN MS,"Dekat matungkas , kec dimembe, Jl. Raya Likupang, Kec. Airmadidi, Sulawesi Utara 95371","kec dimembe, Jl. Raya Likupang, Kec. Airmadidi",SULAWESI UTARA,95371.0,Indonesia,85396672112.0,,,14.667.282,124.966.547,https://maps.google.com/?cid=0x0:0x56f7823a657be343,
hardware store,Toko Perlengkapan Rumah,Toko MK Houseware,"Jl. Bethesda, Sario Tumpaan, Kec. Sario, Kota Manado, Sulawesi Utara 95114","Sario Tumpaan, Kec. Sario, Kota Manado",SULAWESI UTARA,95114.0,Indonesia,8114339779.0,,,14.636.481,1.248.315.492,https://maps.google.com/?cid=0x0:0xccf88eda7c1e5cb3,
hardware store,Komplek perumahan,Fajar Agro Prima,"Jalan Trans, kompleks Batukurung, Poopo, Kec. Ranoyapo, Kabupaten Minahasa Selatan, Sulawesi Utara 95999","kompleks Batukurung, Poopo, Kec. Ranoyapo, Kabupaten Minahasa Selatan",SULAWESI UTARA,95999.0,Indonesia,85351300306.0,,,0.9841777,1.244.966.811,https://maps.google.com/?cid=0x0:0x2d6e5f7ca0255a99,
hardware store,Toko Perlengkapan Rumah,Hardware,"C5R3+CFV, Jl. Tomohon - Tanahwangko, Madidir Unet, Kec. Madidir, Kota Bitung, Sulawesi Utara","Kota Bitung, Sulawesi Utara",SULAWESI UTARA,,Indonesia,,,,14.411.066,1.251.536.772,https://maps.google.com/?cid=0x0:0x1ae1bb748c5c97ba,
hardware store,Toko Swalayan,Toko Grand,"CXFH+RV4, Pasar, Airmadidi Atas, Kec. Airmadidi, Manado, Sulawesi Utara 95371","Pasar, Airmadidi Atas, Kec. Airmadidi, Manado",SULAWESI UTARA,95371.0,Indonesia,81617151289.0,,,14.245.104,1.249.797.052,https://maps.google.com/?cid=0x0:0x817a9599f52c4d18,
hardware store,hardware store,Kec. Modoinding,"Kabupaten Minahasa Selatan, Sulawesi Utara","Kabupaten Minahasa Selatan, Sulawesi Utara",SULAWESI UTARA,,Indonesia,,,,0.7934377,1.244.536.411,https://maps.google.com/?cid=0x0:0xd408c5df1a05e95c,
hardware store,Toko,Toko GRAND HARDWARE,"CXJH+22P, Sarongsong I, Kec. Airmadidi, Kabupaten Minahasa Utara, Sulawesi Utara","Kabupaten Minahasa Utara, Sulawesi Utara",SULAWESI UTARA,,Indonesia,,,,14.300.932,1.249.775.741,https://maps.google.com/?cid=0x0:0xd5bea6e4e94329b1,
hardware store,hardware store,UD Matahari Modoinding,"QFV3+634, Pinasungkulan, Kec. Modoinding, Kabupaten Minahasa Selatan, Sulawesi Utara","Kabupaten Minahasa Selatan, Sulawesi Utara",SULAWESI UTARA,,Indonesia,8114345622.0,,,0.7937053,1.244.533.845,https://maps.google.com/?cid=0x0:0xf933dd08aa1a6fec,
hardware store,Toko Bahan Bangunan,TOKO BANGUNAN MS,"Dekat matungkas , kec dimembe, Jl. Raya Likupang, Kec. Airmadidi, Sulawesi Utara 95371","kec dimembe, Jl. Raya Likupang, Kec. Airmadidi",SULAWESI UTARA,95371.0,Indonesia,85396672112.0,,,14.667.282,124.966.547,https://maps.google.com/?cid=0x0:0x56f7823a657be343,
hardware store,Kantor Perusahaan,Berkat Abadi,"38VV+68M, Ongkaw II, Kec. Sinonsayang, Kabupaten Minahasa Selatan, Sulawesi Utara","Kabupaten Minahasa Selatan, Sulawesi Utara",SULAWESI UTARA,,Indonesia,81343477333.0,,,109.308,1.243.433.002,https://maps.google.com/?cid=0x0:0x583be5c7631cdf17,
hardware store,,KIOS Berkat,"38VR+X65, Ongkaw II, Kec. Sinonsayang, Kabupaten Minahasa Selatan, Sulawesi Utara","Kabupaten Minahasa Selatan, Sulawesi Utara",SULAWESI UTARA,,Indonesia,,,,10.948.802,1.243.406.209,https://maps.google.com/?cid=0x0:0xaaf27be00f5a2269,
hardware store,Toko Bahan Bangunan,CERIA Bahan Bangunan,"Tokin Baru, Kec. Motoling Tim., Kabupaten Minahasa Selatan, Sulawesi Utara","Kabupaten Minahasa Selatan, Sulawesi Utara",SULAWESI UTARA,,Indonesia,82259514549.0,,,10.771.398,1.245.101.005,https://maps.google.com/?cid=0x0:0xdad60601aca07b8,
hardware store,Toko Bahan Bangunan,Toko Cita Waya,"Raanan Lama, Kec. Motoling, Kabupaten Minahasa Selatan, Sulawesi Utara","Kabupaten Minahasa Selatan, Sulawesi Utara",SULAWESI UTARA,,Indonesia,82195565288.0,,,10.308.684,1.244.618.065,https://maps.google.com/?cid=0x0:0xa2562ad11b20da6c,
hardware store,Toko Bahan Bangunan,CERIA Bahan Bangunan,"Tokin Baru, Kec. Motoling Tim., Kabupaten Minahasa Selatan, Sulawesi Utara","Kabupaten Minahasa Selatan, Sulawesi Utara",SULAWESI UTARA,,Indonesia,82259514549.0,,,10.771.398,1.245.101.005,https://maps.google.com/?cid=0x0:0xdad60601aca07b8,
hardware store,Toko Bahan Bangunan,Toko Cita Waya,"Raanan Lama, Kec. Motoling, Kabupaten Minahasa Selatan, Sulawesi Utara","Kabupaten Minahasa Selatan, Sulawesi Utara",SULAWESI UTARA,,Indonesia,82195565288.0,,,10.308.684,1.244.618.065,https://maps.google.com/?cid=0x0:0xa2562ad11b20da6c,
hardware store,Toko Bahan Bangunan,Toko Tuama RR,"FXGC+676 Jaga 7, Matungkas, Kec. Dimembe, Kabupaten Minahasa Utara, Sulawesi Utara","Kabupaten Minahasa Utara, Sulawesi Utara",SULAWESI UTARA,,Indonesia,,,,14.755.297,1.249.706.454,https://maps.google.com/?cid=0x0:0xf70291edba8cd4ca,
hardware store,Toko Bahan Bangunan,Toko Bangunan Malak Matungkas,"FXC9+636, Matungkas Jaga X, Kec. Dimembe, Kabupaten Minahasa Utara, Sulawesi Utara","Kabupaten Minahasa Utara, Sulawesi Utara",SULAWESI UTARA,,Indonesia,81356833133.0,,,14.705.375,1.249.676.406,https://maps.google.com/?cid=0x0:0x1c9d1d8d885ff988,
hardware store,Komplek perumahan,Fajar Agro Prima,"Jalan Trans, kompleks Batukurung, Poopo, Kec. Ranoyapo, Kabupaten Minahasa Selatan, Sulawesi Utara 95999","kompleks Batukurung, Poopo, Kec. Ranoyapo, Kabupaten Minahasa Selatan",SULAWESI UTARA,95999.0,Indonesia,85351300306.0,,,0.9841777,1.244.966.811,https://maps.google.com/?cid=0x0:0x2d6e5f7ca0255a99,
hardware store,hardware store,Kec. Sinonsayang,"Kabupaten Minahasa Selatan, Sulawesi Utara","Kabupaten Minahasa Selatan, Sulawesi Utara",SULAWESI UTARA,,Indonesia,,,,10.964.547,1.243.480.233,https://maps.google.com/?cid=0x0:0x459f24c060a3cdba,
hardware store,Kantor Perusahaan,Berkat Abadi,"38VV+68M, Ongkaw II, Kec. Sinonsayang, Kabupaten Minahasa Selatan, Sulawesi Utara","Kabupaten Minahasa Selatan, Sulawesi Utara",SULAWESI UTARA,,Indonesia,81343477333.0,,,109.308,1.243.433.002,https://maps.google.com/?cid=0x0:0x583be5c7631cdf17,
hardware store,Minimarket,Sinonsayang Indomaret,"2885+H83, Jl. Trans Sulawesi, Poigar II, Kec. Sinonsayang, Kabupaten Minahasa Selatan, Sulawesi Utara","Kabupaten Minahasa Selatan, Sulawesi Utara",SULAWESI UTARA,,Indonesia,,,,10.163.996,1.243.082.982,https://maps.google.com/?cid=0x0:0xce06ae064d573dca,
hardware store,Toko Swalayan,Toko Anna,"38WW+8X8, Ongkaw II, Kec. Sinonsayang, Kabupaten Minahasa Selatan, Sulawesi Utara","Kabupaten Minahasa Selatan, Sulawesi Utara",SULAWESI UTARA,,Indonesia,,,,10.958,12.434.745,https://maps.google.com/?cid=0x0:0x1ecf58fa226a8a49,
hardware store,Toko Bahan Bangunan,Toko Efrata,"7Q5F+5X7, Talikuran, Kec. Sonder, Kabupaten Minahasa, Sulawesi Utara","Kabupaten Minahasa, Sulawesi Utara",SULAWESI UTARA,,Indonesia,,,,12.579.159,1.247.749.367,https://maps.google.com/?cid=0x0:0xe4e40e36144fb864,
hardware store,Toko Bahan Bangunan,Eframa,"6J82+MR8, Jl. Trans Sulawesi, Pondang, Kec. Amurang Tim., Kabupaten Minahasa Selatan, Sulawesi Utara","Kabupaten Minahasa Selatan, Sulawesi Utara",SULAWESI UTARA,,Indonesia,43021031.0,,,121.665,1.246.020.654,https://maps.google.com/?cid=0x0:0xa73ec297ccb60c2f,
hardware store,hardware store,Kec. Tatapaan,"Kabupaten Minahasa Selatan, Sulawesi Utara","Kabupaten Minahasa Selatan, Sulawesi Utara",SULAWESI UTARA,,Indonesia,,,,12.864.443,1.246.016.444,https://maps.google.com/?cid=0x0:0x2764afda0dd2b42d,
hardware store,Toko Bahan Bangunan,Toko Yelbi,"Paslaten Satu, Kec. Tatapaan, Kabupaten Minahasa Selatan, Sulawesi Utara","Kabupaten Minahasa Selatan, Sulawesi Utara",SULAWESI UTARA,,Indonesia,81356403969.0,,,12.885.252,1.245.955.201,https://maps.google.com/?cid=0x0:0x62eb20765fb465f,
hardware store,Toko Bahan Bangunan,Toko Bangunan Rajawali,"7JPX+58M, Lelema, Kec. Tumpaan, Kabupaten Minahasa Selatan, Sulawesi Utara","Kabupaten Minahasa Selatan, Sulawesi Utara",SULAWESI UTARA,,Indonesia,,,,12.854.645,1.246.482.886,https://maps.google.com/?cid=0x0:0xad92ba0cc7ba2581,
hardware store,Toko Bahan Bangunan,Toko Sri Rejeki Matani,"Matani, Kec. Tumpaan, Kabupaten Minahasa Selatan, Sulawesi Utara","Kabupaten Minahasa Selatan, Sulawesi Utara",SULAWESI UTARA,,Indonesia,89618346200.0,,,1.252.418,1.246.144.647,https://maps.google.com/?cid=0x0:0xb4180618c5f15a4a,
hardware store,hardware store,Sulawesi Utara 95355,"Pakuweru, Kec. Tenga, Kabupaten Minahasa Selatan, Sulawesi Utara","Kabupaten Minahasa Selatan, Sulawesi Utara",SULAWESI UTARA,,Indonesia,,,,11.636.763,1.244.326.123,https://maps.google.com/?cid=0x0:0x19db91f9dd28ea10,
hardware store,Toko,Toko GRAND HARDWARE,"CXJH+22P, Sarongsong I, Kec. Airmadidi, Kabupaten Minahasa Utara, Sulawesi Utara","Kabupaten Minahasa Utara, Sulawesi Utara",SULAWESI UTARA,,Indonesia,,,,14.300.932,1.249.775.741,https://maps.google.com/?cid=0x0:0xd5bea6e4e94329b1,
hardware store,Toko Perlengkapan Rumah,Grand Hardware,"Komplek Marina Plaza Blok B No. 7-10, Jl. Piere Tendean Boulevard,manado, Manado, Sulawesi Utara, 95111","Jl. Piere Tendean Boulevard,manado, Manado",SULAWESI UTARA,95111.0,Indonesia,85255443510.0,,,14.924.543,124.838.346,https://maps.google.com/?cid=0x0:0x513c63d19209ca5,
hardware store,Toko Bahan Bangunan,TOKO BANGUNAN MS,"Dekat matungkas , kec dimembe, Jl. Raya Likupang, Kec. Airmadidi, Sulawesi Utara 95371","kec dimembe, Jl. Raya Likupang, Kec. Airmadidi",SULAWESI UTARA,95371.0,Indonesia,85396672112.0,,,14.667.282,124.966.547,https://maps.google.com/?cid=0x0:0x56f7823a657be343,
hardware store,Toko Bahan Bangunan,The Home Depot,"1415 E Hatch Rd, Modesto, CA 95351, Amerika Serikat","Modesto, CA",SULAWESI UTARA,95351.0,Indonesia,12095381820.0,,,37.610.471,-1.209.703.009,https://maps.google.com/?cid=0x0:0x76c3126e6dfc9fc3,
hardware store,hardware store,Compact Power Equipment Rental,"1415 E Hatch Rd, Ceres, CA 95307, Amerika Serikat","Ceres, CA",SULAWESI UTARA,95307.0,Indonesia,18882667228.0,,,37.610.471,-1.209.703.009,https://maps.google.com/?cid=0x0:0x30c2d38bd943cad2,
hardware store,Toko Bahan Bangunan,Strand Ace Hardware,"1800 Oakdale Rd, Modesto, CA 95355, Amerika Serikat","Modesto, CA",SULAWESI UTARA,95355.0,Indonesia,12094884224.0,,,376.700.269,-1.209.562.738,https://maps.google.com/?cid=0x0:0x5e989aefea32d8fd,
hardware store,Toko Bahan Bangunan,Modesto True Value,"1433 Coffee Rd, Modesto, CA 95355, Amerika Serikat","Modesto, CA",SULAWESI UTARA,95355.0,Indonesia,12095215331.0,,,37.665,-1.209.763.889,https://maps.google.com/?cid=0x0:0x2fde1866bc1d9085,
hardware store,hardware store,Garden Center at The Home Depot,"5230 Squire Wells Way, Riverbank, CA 95367, Amerika Serikat","Riverbank, CA",SULAWESI UTARA,95367.0,Indonesia,12098631370.0,,,377.122.653,-1.209.499.213,https://maps.google.com/?cid=0x0:0xb078213e88ccabf9,
hardware store,Agen Persewaan Peralatan,The Home Depot,"5230 Squire Wells Way, Riverbank, CA 95367, Amerika Serikat","Riverbank, CA",SULAWESI UTARA,95367.0,Indonesia,12098631370.0,,,377.128.178,-1.209.498.056,https://maps.google.com/?cid=0x0:0xceadd9b5b6d9b3b1,
hardware store,Toko Bahan Bangunan,Harbor Freight,"1717 Oakdale Rd L-2, Modesto, CA 95355, Amerika Serikat","Modesto, CA",SULAWESI UTARA,95355.0,Indonesia,12099005859.0,,,376.686.654,-120.959.252,https://maps.google.com/?cid=0x0:0x1386803af22b48ac,
hardware store,Toko Perlengkapan Rumah,The Home Depot,"2800 Countryside Dr, Turlock, CA 95380, Amerika Serikat","Turlock, CA",SULAWESI UTARA,95380.0,Indonesia,12096561911.0,,,375.189.976,-1.208.774.239,https://maps.google.com/?cid=0x0:0x35d68dd994fc9c09,
hardware store,hardware store,Garden Center at The Home Depot,"2800 Countryside Dr, Turlock, CA 95380, Amerika Serikat","Turlock, CA",SULAWESI UTARA,95380.0,Indonesia,12096561911.0,,,375.192.105,-1.208.774.278,https://maps.google.com/?cid=0x0:0x825506c5fd2d95a0,
hardware store,Toko Bahan Bangunan,The Home Depot,"1617 N Carpenter Rd, Modesto, CA 95351, Amerika Serikat","Modesto, CA",SULAWESI UTARA,95351.0,Indonesia,12094910200.0,,,376.594.712,-1.210.334.814,https://maps.google.com/?cid=0x0:0x18945094f59a25a6,
hardware store,Agen Persewaan Peralatan,Compact Power Equipment Rental,"1617 N Carpenter Rd, Modesto, CA 95351, Amerika Serikat","Modesto, CA",SULAWESI UTARA,95351.0,Indonesia,18882667228.0,,,376.590.266,-1.210.314.639,https://maps.google.com/?cid=0x0:0xc80fda0d866c848f,
hardware store,Toserba,The Home Depot,"250 Commerce Ave, Manteca, CA 95336, Amerika Serikat","Manteca, CA",SULAWESI UTARA,95336.0,Indonesia,12098259139.0,,,377.945.971,-121.192.614,https://maps.google.com/?cid=0x0:0xe8e7c385fa8a6dd8,
hardware store,Toko Alat Berkebun,Garden Center at The Home Depot,"Home Depot, 250 Commerce Ave Garden Center, Manteca, CA 95336, Amerika Serikat","Manteca, CA",SULAWESI UTARA,95336.0,Indonesia,12098259139.0,,,377.944.071,-1.211.918.872,https://maps.google.com/?cid=0x0:0x53ffb4d9da0d97b6,
hardware store,hardware store,Kec. Tompaso Baru,"Kabupaten Minahasa Selatan, Sulawesi Utara","Kabupaten Minahasa Selatan, Sulawesi Utara",SULAWESI UTARA,,Indonesia,,,,0.919931,124.469.716,https://maps.google.com/?cid=0x0:0xd34cfb653da52844,
hardware store,Toko,Toko ADA,"WF99+WPF, Unnamed Road, Tompaso Baru Dua, Tompaso Baru, South Minahasa Regency, North Sulawesi","Kabupaten Minahasa Selatan, Sulawesi Utara",SULAWESI UTARA,,Indonesia,81523819736.0,,,0.9198247,1.244.692.993,https://maps.google.com/?cid=0x0:0x3e15f45125ee7a0c,
hardware store,Toko,Toko GRAND HARDWARE,"CXJH+22P, Sarongsong I, Kec. Airmadidi, Kabupaten Minahasa Utara, Sulawesi Utara","Kabupaten Minahasa Utara, Sulawesi Utara",SULAWESI UTARA,,Indonesia,,,,14.300.932,1.249.775.741,https://maps.google.com/?cid=0x0:0xd5bea6e4e94329b1,
hardware store,Toko Perlengkapan Rumah,Grand Hardware,"Komplek Marina Plaza Blok B No. 7-10, Jl. Piere Tendean Boulevard,manado, Manado, Sulawesi Utara, 95111","Jl. Piere Tendean Boulevard,manado, Manado",SULAWESI UTARA,95111.0,Indonesia,85255443510.0,,,14.924.543,124.838.346,https://maps.google.com/?cid=0x0:0x513c63d19209ca5,
hardware store,Toko Bahan Bangunan,GranD Prima Manado,"Kompleks MonacoBay, Jl. Piere Tendean No.1 Blok A, Kota Manado, Sulawesi Utara 95111","Jl. Piere Tendean No.1 Blok A, Kota Manado",SULAWESI UTARA,95111.0,Indonesia,81244158352.0,,,1.487.165,124.836.687,https://maps.google.com/?cid=0x0:0x7138f00ecfef2196,
hardware store,Toko,Toko Bracket 8 Tompaso,"5QMX+QWC, Jl. Raya Tompaso, Tompaso Dua, Kec. Tompaso, Kabupaten Minahasa, Sulawesi Utara 95693","Jl. Raya Tompaso, Tompaso Dua, Kec. Tompaso, Kabupaten Minahasa",SULAWESI UTARA,95693.0,Indonesia,81340734799.0,,,11.844.853,1.247.997.011,https://maps.google.com/?cid=0x0:0x1ce75c64c7fd4e76,
hardware store,Toko Bahan Bangunan,Plaza Bangunan Electronic Manado,"Jl. Sisingamangaraja No. 45 Calaca Wenang, Calaca, Manado, Kota Manado, Sulawesi Utara","Kota Manado, Sulawesi Utara",SULAWESI UTARA,,Indonesia,811439919.0,,,1.495.271,124.843.111,https://maps.google.com/?cid=0x0:0x7dcd95c89ffc45f,
hardware store,Komplek perumahan,Fajar Agro Prima,"Jalan Trans, kompleks Batukurung, Poopo, Kec. Ranoyapo, Kabupaten Minahasa Selatan, Sulawesi Utara 95999","kompleks Batukurung, Poopo, Kec. Ranoyapo, Kabupaten Minahasa Selatan",SULAWESI UTARA,95999.0,Indonesia,85351300306.0,,,0.9841777,1.244.966.811,https://maps.google.com/?cid=0x0:0x2d6e5f7ca0255a99,
hardware store,Sekolah,SD GMIM Tompaso Baru,"WFC9+J46, Pinaesaan, Kec. Tompaso Baru, Kabupaten Minahasa Selatan, Sulawesi Utara","Kabupaten Minahasa Selatan, Sulawesi Utara",SULAWESI UTARA,,Indonesia,,,,0.9215437,1.244.677.799,https://maps.google.com/?cid=0x0:0x759acf7a6cfc91e2,
hardware store,Sekolah Dasar,SD Negeri Tompaso Baru,"WFC9+774, Pinaesaan, Kec. Tompaso Baru, Kabupaten Minahasa Selatan, Sulawesi Utara","Kabupaten Minahasa Selatan, Sulawesi Utara",SULAWESI UTARA,,Indonesia,,,,0.9206416,1.244.682.162,https://maps.google.com/?cid=0x0:0xcea05f47aed5ae79,
hardware store,Sekolah Dasar,SD GMIM Kinalawiran,"WFCG+F4F, Kinalawiran, Kec. Tompaso Baru, Kabupaten Minahasa Selatan, Sulawesi Utara","Kabupaten Minahasa Selatan, Sulawesi Utara",SULAWESI UTARA,,Indonesia,,,,0.9212401,1.244.754.087,https://maps.google.com/?cid=0x0:0x74966a0f84d79185,
hardware store,Sekolah pendidikan umum,SD KATOLIK RARAATEAN,"WF83+MGH, Raraatean, Kec. Tompaso Baru, Kabupaten Minahasa Selatan, Sulawesi Utara","Kabupaten Minahasa Selatan, Sulawesi Utara",SULAWESI UTARA,,Indonesia,,,,0.9166766,124.453.867,https://maps.google.com/?cid=0x0:0x4ccccb561e7d8f9c,
hardware store,Toko Swalayan,Toko OKSPEL Tompasobaru,"WF99+CRW, Tompaso Baru Dua, Kec. Tompaso Baru, Kabupaten Minahasa Selatan, Sulawesi Utara","Kabupaten Minahasa Selatan, Sulawesi Utara",SULAWESI UTARA,,Indonesia,,,,0.9186182,1.244.695.701,https://maps.google.com/?cid=0x0:0xff5f6dc1c3c3a95,
hardware store,Toko Swalayan,"Kios TOMBAK""""","jaga 5, Tompaso Baru Satu, Kec. Tompaso Baru, Kabupaten Minahasa Selatan, Sulawesi Utara 95358","Tompaso Baru Satu, Kec. Tompaso Baru, Kabupaten Minahasa Selatan",SULAWESI UTARA,95358.0,Indonesia,85757335138.0,,,0.9253398,1.244.709.056,https://maps.google.com/?cid=0x0:0xe5fee159e8760582,
hardware store,hardware store,Tumpaan,"Tumpaan, Kec. Tumpaan, Kabupaten Minahasa Selatan, Sulawesi Utara","Kabupaten Minahasa Selatan, Sulawesi Utara",SULAWESI UTARA,,Indonesia,,,,1.238.996,1.246.175,https://maps.google.com/?cid=0x0:0xa5bfed7e82c26c62,
hardware store,Toko,Toko GRAND HARDWARE,"CXJH+22P, Sarongsong I, Kec. Airmadidi, Kabupaten Minahasa Utara, Sulawesi Utara","Kabupaten Minahasa Utara, Sulawesi Utara",SULAWESI UTARA,,Indonesia,,,,14.300.932,1.249.775.741,https://maps.google.com/?cid=0x0:0xd5bea6e4e94329b1,
hardware store,Pasar bahan bangunan,Toko Bangunan Wapon Jaya,"Jl. Sea induk, Sea I, Kec. Pineleng, Kabupaten Minahasa, Sulawesi Utara","Kabupaten Minahasa, Sulawesi Utara",SULAWESI UTARA,,Indonesia,85340309099.0,,,14.291.092,1.247.997.913,https://maps.google.com/?cid=0x0:0x2216e5af37ff6b7a,
hardware store,Toko Bahan Bangunan,Toko Bangunan Rajawali,"7JPX+58M, Lelema, Kec. Tumpaan, Kabupaten Minahasa Selatan, Sulawesi Utara","Kabupaten Minahasa Selatan, Sulawesi Utara",SULAWESI UTARA,,Indonesia,,,,12.854.645,1.246.482.886,https://maps.google.com/?cid=0x0:0xad92ba0cc7ba2581,
hardware store,Minimarket,Kos Anak Indomart,"8MXF+PGX, Jl. Trans Sulawesi, Senduk, Kec. Tombariri, Kabupaten Minahasa Selatan, Sulawesi Utara","Kabupaten Minahasa Selatan, Sulawesi Utara",SULAWESI UTARA,,Indonesia,,,,13.492.276,1.246.738.426,https://maps.google.com/?cid=0x0:0x83143c7a1af8aa67,
hardware store,hardware store,LMR Aksesoris,"Lopana, Kec. Amurang Tim., Kabupaten Minahasa Selatan, Sulawesi Utara","Kabupaten Minahasa Selatan, Sulawesi Utara",SULAWESI UTARA,,Indonesia,,,,12.220.092,1.246.054.345,https://maps.google.com/?cid=0x0:0x6160eb8c14cadec9,
hardware store,Toko Bahan Bangunan,Toko Sri Rejeki Matani,"Matani, Kec. Tumpaan, Kabupaten Minahasa Selatan, Sulawesi Utara","Kabupaten Minahasa Selatan, Sulawesi Utara",SULAWESI UTARA,,Indonesia,89618346200.0,,,1.252.418,1.246.144.647,https://maps.google.com/?cid=0x0:0xb4180618c5f15a4a,
hardware store,Toko Bahan Bangunan,Toko Yelbi,"Paslaten Satu, Kec. Tatapaan, Kabupaten Minahasa Selatan, Sulawesi Utara","Kabupaten Minahasa Selatan, Sulawesi Utara",SULAWESI UTARA,,Indonesia,81356403969.0,,,12.885.252,1.245.955.201,https://maps.google.com/?cid=0x0:0x62eb20765fb465f,
hardware store,Toko Ponsel,Parafone Amurang,"Uwuran Satu, Kec. Amurang, Kabupaten Minahasa Selatan, Sulawesi Utara","Kabupaten Minahasa Selatan, Sulawesi Utara",SULAWESI UTARA,,Indonesia,,,,11.834.153,1.245.726.427,https://maps.google.com/?cid=0x0:0xb6afca104e4db09e,
hardware store,Toko Perlengkapan Rumah,Grand Hardware,"Komplek Marina Plaza Blok B No. 7-10, Jl. Piere Tendean Boulevard,manado, Manado, Sulawesi Utara, 95111","Jl. Piere Tendean Boulevard,manado, Manado",SULAWESI UTARA,95111.0,Indonesia,85255443510.0,,,14.924.543,124.838.346,https://maps.google.com/?cid=0x0:0x513c63d19209ca5,
